{"objects":{"water":{"type":"GeometryCollection","geometries":[{"type":"Polygon","properties":{"source":"naturalearthdata.com","kind":"ocean","area":1576712559132672,"sort_rank":200,"min_zoom":0.0,"id":1},"arcs":[[1],[2],[3],[4]]},{"type":"LineString","properties":{"source":"naturalearthdata.com","kind":"ocean","sort_rank":205,"boundary":true,"min_zoom":0.0,"id":23},"arcs":[5]},{"type":"LineString","properties":{"source":"naturalearthdata.com","kind":"ocean","sort_rank":205,"boundary":true,"min_zoom":0.0,"id":1801},"arcs":[6]},{"type":"LineString","properties":{"source":"naturalearthdata.com","kind":"ocean","sort_rank":205,"boundary":true,"min_zoom":0.0,"id":3347},"arcs":[7]}]},"buildings":{"type":"GeometryCollection","geometries":[]},"places":{"type":"GeometryCollection","geometries":[{"type":"Point","properties":{"kind":"locality","name:en":"Taitung","name":"\u81fa\u6771\u5e02","name:ko":"\ud0c0\uc774\ub465 \uc2dc","kind_detail":"town","min_zoom":8.0,"name:de":"Taidong","source":"openstreetmap.org","name:fr":"Taitung","name:it":"Taitung","name:ru":"\u0422\u0430\u0439\u0434\u0443\u043d","name:vi":"Huy\u1ec7n \u0110\u00e0i \u0110\u00f4ng","population":106368,"id":60655863,"name:ja":"\u53f0\u6771\u5e02"},"coordinates":[606,2565]},{"type":"Point","properties":{"kind":"locality","name:en":"Beinan","name":"\u5351\u5357\u9109","name:ko":"\ubca0\uc774\ub09c \ud5a5","kind_detail":"town","source":"openstreetmap.org","min_zoom":8.0,"name:vi":"Ti Nam","population":17443,"id":60655761,"name:ja":"\u5351\u5357\u90f7"},"coordinates":[409,2684]},{"type":"Point","properties":{"kind":"locality","name:en":"Chenggong","name":"\u6210\u529f\u93ae","name:ko":"\uccad\uad81 \uc9c4","kind_detail":"town","source":"openstreetmap.org","min_zoom":8.0,"name:vi":"Th\u00e0nh C\u00f4ng","id":60655667,"population":14411},"coordinates":[1290,3667]},{"type":"Point","properties":{"kind":"locality","name:en":"Taimali","name":"\u592a\u9ebb\u91cc\u9109","source":"openstreetmap.org","name:ko":"\ud0c0\uc774\ub9c8\ub9ac \ud5a5","kind_detail":"town","alt_name:vi":"Th\u00e1i Ma L\u00fd","min_zoom":8.0,"name:vi":"Th\u00e1i Ma L\u00ed","population":11304,"id":60655856,"name:ja":"\u592a\u9ebb\u91cc\u90f7"},"coordinates":[204,2121]},{"type":"Point","properties":{"kind":"locality","name:en":"Fuli","name":"\u5bcc\u91cc\u9109","source":"openstreetmap.org","name:ko":"\ud478\ub9ac \ud5a5","kind_detail":"town","alt_name:vi":"Ph\u00fa L\u00ed","min_zoom":8.0,"name:vi":"Ph\u00fa L\u00fd","population":10557,"id":60655992,"name:ja":"\u5bcc\u91cc\u90f7"},"coordinates":[911,3902]},{"type":"Point","properties":{"kind":"locality","name:en":"Guanshan","name":"\u95dc\u5c71\u93ae","name:ko":"\uad00\uc0b0 \uc9c4","kind_detail":"town","source":"openstreetmap.org","min_zoom":8.0,"name:vi":"Quan S\u01a1n","population":8811,"id":60655655,"name:ja":"\u95a2\u5c71\u93ae"},"coordinates":[657,3484]},{"type":"Point","properties":{"kind":"locality","name:en":"Donghe","name":"\u6771\u6cb3\u9109","name:ko":"\ub465\ud5c8 \ud5a5","kind_detail":"town","source":"openstreetmap.org","min_zoom":8.0,"name:vi":"\u0110\u00f4ng H\u00e0","population":8686,"id":60655900,"name:ja":"\u6771\u6cb3\u90f7"},"coordinates":[1069,3241]},{"type":"Point","properties":{"kind":"locality","name:en":"Chishang","name":"\u6c60\u4e0a\u9109","name:ko":"\uce20\uc0c1 \ud5a5","kind_detail":"town","source":"openstreetmap.org","min_zoom":8.0,"name:vi":"Tr\u00ec Th\u01b0\u1ee3ng","population":8375,"id":60655712,"name:ja":"\u6c60\u4e0a\u90f7"},"coordinates":[809,3721]},{"type":"Point","properties":{"kind":"locality","name:en":"Luye","name":"\u9e7f\u91ce\u9109","name:ko":"\ub8e8\uc608 \ud5a5","kind_detail":"town","source":"openstreetmap.org","min_zoom":8.0,"name:vi":"L\u1ed9c D\u00e3","population":8018,"id":60655866,"name:ja":"\u9e7f\u91ce\u90f7"},"coordinates":[578,3063]},{"type":"Point","properties":{"kind":"locality","name:en":"Lanyu","name":"\u862d\u5dbc\u9109 Pongso no Tao","name:ko":"\ub780\uc704 \ud5a5","kind_detail":"town","source":"openstreetmap.org","min_zoom":8.0,"name:ru":"\u041b\u0430\u043d\u044c\u044e\u0439","name:vi":"Lan T\u1ef1","population":5083,"name:zh":"\u862d\u5dbc\u9109","id":3429497101,"name:ja":"\u862d\u5dbc\u90f7"},"coordinates":[1775,341]},{"type":"Point","properties":{"kind":"locality","name:en":"Haiduan","name":"\u6d77\u7aef\u9109","name:ko":"\ud558\uc774\ub3e4 \ud5a5","kind_detail":"town","source":"openstreetmap.org","min_zoom":8.0,"name:vi":"H\u1ea3i \u0110oan","population":4283,"id":60655908,"name:ja":"\u6d77\u7aef\u90f7"},"coordinates":[697,3656]},{"type":"Point","properties":{"kind":"locality","name:en":"L\u00fcdao","name":"\u7da0\u5cf6\u9109","name:ko":"\ub93c\ub2e4\uc624 \ud5a5","kind_detail":"town","source":"openstreetmap.org","min_zoom":8.0,"name:vi":"L\u1ee5c \u0110\u1ea3o","population":3724,"id":60655679,"name:ja":"\u7dd1\u5cf6\u90f7"},"coordinates":[1617,2267]},{"type":"Point","properties":{"kind":"locality","name:en":"Jinfeng","name":"\u91d1\u5cf0\u9109","name:ko":"\uc9c4\ud391 \ud5a5","kind_detail":"town","source":"openstreetmap.org","min_zoom":8.0,"name:vi":"Kim Phong","population":3612,"id":60655649,"name:ja":"\u91d1\u5cf0\u90f7"},"coordinates":[98,2058]},{"type":"Point","properties":{"kind":"locality","name:en":"Yanping","name":"\u5ef6\u5e73\u9109","name:ko":"\uc60c\ud551 \ud5a5","kind_detail":"town","source":"openstreetmap.org","min_zoom":8.0,"alt_name:en":"Taoyuan","name:vi":"Di\u00ean B\u00ecnh","population":3523,"id":60655947,"name:ja":"\u5ef6\u5e73\u90f7"},"coordinates":[428,3027]}]},"transit":{"type":"GeometryCollection","geometries":[]},"pois":{"type":"GeometryCollection","geometries":[{"type":"Point","properties":{"kind":"nature_reserve","tier":2,"protect_class":"4","area":824660000,"source":"openstreetmap.org","min_zoom":7.45,"operator":"\u884c\u653f\u9662\u8fb2\u696d\u59d4\u54e1\u6703\u6797\u52d9\u5c40\u53f0\u6771\u6797\u5340\u7ba1\u7406\u8655","id":-7033251,"osm_relation":true,"name":"\u95dc\u5c71\u91ce\u751f\u52d5\u7269\u91cd\u8981\u68f2\u606f\u74b0\u5883"},"coordinates":[169,3630]}]},"boundaries":{"type":"GeometryCollection","geometries":[{"type":"LineString","properties":{"alt_name:ca":"Rep\u00fablica de la Xina","name:ko":"\ud0c0\uc774\uc644","name:cv":"\u0422\u0430\u0439\u0432\u0430\u043d\u044c","name:kk":"\u0422\u0430\u0439\u0432\u0430\u043d\u044c","name:tk":"Ta\u00fdwan","name:ku":"Taywan","alt_name:cs":"\u010c\u00ednsk\u00e1 republika","name:tg":"\u0422\u0430\u0439\u0432\u0430\u043d","name:ca":"Taiwan","alt_name:tr":"\u00c7in Cumhuriyeti","alt_name:li":"Republiek China","name:cy":"Taiwan","alt_name:tt":"\u041a\u044b\u0442\u0430\u0439 \u0496\u04e9\u043c\u04bb\u04af\u0440\u0438\u044f\u0442\u0435","name:hr":"Tajvan","alt_name:la":"Res publica Sinarum","name:de":"Taiwan","source":"openstreetmap.org","alt_name:ta":"\u0b9a\u0bc0\u0ba9\u0b95\u0bcd \u0b95\u0bc1\u0b9f\u0bbf\u0baf\u0bb0\u0b9a\u0bc1","alt_name:te":"\u0c24\u0c48\u0c35\u0c3e\u0c28\u0c4d","alt_name:th":"\u0e2a\u0e32\u0e18\u0e32\u0e23\u0e13\u0e23\u0e31\u0e10\u0e08\u0e35\u0e19","alt_name:lv":"\u0136\u012bnas Republika","alt_name:tl":"Republika ng Tsina","name:lt":"Taivanas","alt_name:de":"Republik China","name:cs":"Tchaj-wan","name:lb":"Taiwan","alt_name:dv":"\u0796\u07aa\u0789\u07b0\u0780\u07ab\u0783\u07a9 \u0797\u07a6\u0787\u07a8\u0782\u07a7","alt_name:dz":"\u0f4f\u0f60\u0f72\u0f0b\u0f5d\u0f71\u0f53\u0f0b","alt_name:gd":"Poblachd na S\u00ecne","name:ln":"Taiwan","name:eo":"Tajvano","name:en":"Taiwan","name":"\u81fa\u7063","name:ee":"Taiwan","alt_name:ur":"\u062c\u0645\u06c1\u0648\u0631\u06cc\u06c2 \u0686\u06cc\u0646","alt_name:uk":"\u0420\u0435\u0441\u043f\u0443\u0431\u043b\u0456\u043a\u0430 \u041a\u0438\u0442\u0430\u0439","name:eu":"Taiwan","name:et":"Taiwan","alt_name:ug":"\u062a\u06d5\u064a\u06cb\u06d5\u0646","name:es":"Taiw\u00e1n","name:ia":"Taiwan","name:az":"tayvan","name:id":"Taiwan","name:ar":"\u062a\u0627\u064a\u0648\u0627\u0646","name:io":"Taiwan","name:ak":"Taiwan","alt_name:bg":"\u0420\u0435\u043f\u0443\u0431\u043b\u0438\u043a\u0430 \u041a\u0438\u0442\u0430\u0439","alt_name:zh":"\u4e2d\u83ef\u6c11\u570b","name:it":"Taiwan","alt_name:an":"Republica de China","name:ru":"\u0422\u0430\u0439\u0432\u0430\u043d\u044c","name:rw":"Tayiwani","alt_name:za":"Cunghvaz Minzgoz","name:af":"Taiwan","alt_name:ru":"\u041a\u0438\u0442\u0430\u0439\u0441\u043a\u0430\u044f \u0420\u0435\u0441\u043f\u0443\u0431\u043b\u0438\u043a\u0430","kind_detail":"2","alt_name:ja":"\u4e2d\u83ef\u6c11\u56fd","alt_name:gv":"Pobblaght ny Sheen","alt_name:jv":"R\u00e9publik Cina","alt_name:bn":"\u09aa\u09cd\u09b0\u099c\u09be\u09a4\u09a8\u09cd\u09a4\u09cd\u09b0\u09c0 \u099a\u09c0\u09a8","name:so":"Taywan","alt_name:be":"\u0420\u044d\u0441\u043f\u0443\u0431\u043b\u0456\u043a\u0430 \u041a\u0456\u0442\u0430\u0439","name:sl":"Tajvan","name:sk":"Taiwan","name:ja":"\u53f0\u6e7e","name:se":"Taiwan","alt_name:bo":"\u0f50\u0f60\u0f7a\u0f0b\u0f5d\u0f53\u0f0d","name:br":"Taiwan","name:bs":"Tajvan","name:bm":"Tayiwani","name:bn":"\u09a4\u09be\u0987\u0993\u09af\u09bc\u09be\u09a8","alt_name:br":"Republik Sina","name:sv":"Taiwan","name:bg":"\u0422\u0430\u0439\u0432\u0430\u043d","name:ss":"IThayiwani","osm_relation":true,"alt_name:ko":"\ub300\ub9cc","alt_name:kn":"\u0c9a\u0cc0\u0ca8\u0cbf \u0c97\u0ca3\u0cb0\u0cbe\u0c9c\u0ccd\u0caf","alt_name:sr":"\u0420\u0435\u043f\u0443\u0431\u043b\u0438\u043a\u0430 \u041a\u0438\u043d\u0430","alt_name:sq":"Republika e Kin\u00ebs","alt_name:ka":"\u10e2\u10d0\u10d8\u10d5\u10d0\u10dc\u10d8","alt_name:sa":"\u0924\u0948\u0935\u093e\u0928","alt_name:sm":"Saina Taipei","alt_name:zh-min-nan":"Tiong-ho\u00e2 B\u00een-kok","alt_name:os":"\u041a\u0438\u0442\u0430\u0439\u044b \u0420\u0435\u0441\u043f\u0443\u0431\u043b\u0438\u043a\u00e6","alt_name:or":"\u0b24\u0b3e\u0b07\u0b71\u0b3e\u0b28","alt_name:pl":"Republika Chi\u0144ska","name:da":"Taiwan","alt_name:pa":"\u0a1a\u0a40\u0a28 \u0a17\u0a23\u0a30\u0a3e\u0a1c","alt_name:oc":"Republica de China (Taiwan)","min_zoom":8.0,"name:ro":"Taiwan","name:be":"\u0422\u0430\u0439\u0432\u0430\u043d\u044c","alt_name:pt":"Rep\u00fablica da China","alt_name:ps":"\u062f \u0686\u064a\u0646 \u062c\u0645\u0647\u0648\u0631\u064a\u062a","alt_name:gu":"\u0a9a\u0ac0\u0aa8\u0ac0 \u0a97\u0aa3\u0aa4\u0a82\u0aa4\u0acd\u0ab0","alt_name:he":"\u05d8\u05d0\u05d9\u05d5\u05d5\u05d0\u05df","sort_rank":262,"name:wo":"Taaywaan","alt_name:hi":"\u091a\u0940\u0928\u0940 \u0917\u0923\u0930\u093e\u091c\u094d\u092f","alt_name:hu":"K\u00ednai K\u00f6zt\u00e1rsas\u00e1g","alt_name:hr":"Republika Kina","alt_name:hy":"\u0549\u056b\u0576\u0561\u057d\u057f\u0561\u0576\u056b \u0540\u0561\u0576\u0580\u0561\u057a\u0565\u057f\u0578\u0582\u0569\u0575\u0578\u0582\u0576","alt_name:sw":"Jamhuri ya China","alt_name:ar":"\u062c\u0645\u0647\u0648\u0631\u064a\u0629 \u0627\u0644\u0635\u064a\u0646","alt_name:yi":"\u05e8\u05e2\u05e4\u05d5\u05d1\u05dc\u05d9\u05e7 \u05e4\u05d5\u05df \u05db\u05d9\u05e0\u05e2","name:hu":"Tajvan","alt_name:qu":"Chunwa Republika","alt_name:yo":"Or\u00edl\u1eb9\u0300-\u00e8d\u00e8 Ol\u00f3m\u00ecnira il\u1eb9\u0300 \u1e62\u00e1\u00edn\u00e0","alt_name:ia":"Republica de China","kind":"country","alt_name:id":"Republik Cina","alt_name:io":"Republiko di Chinia","alt_name:is":"L\u00fd\u00f0veldi\u00f0 K\u00edna","name:am":"\u1273\u12ed\u12cb\u1295","alt_name:el":"\u0394\u03b7\u03bc\u03bf\u03ba\u03c1\u03b1\u03c4\u03af\u03b1 \u03c4\u03b7\u03c2 \u039a\u03af\u03bd\u03b1\u03c2","alt_name:eo":"Respubliko \u0108inujo","alt_name:en":"Republic of China","alt_name:ms":"Republik China di Taiwan","alt_name:mr":"\u091a\u0940\u0928\u091a\u0947 \u092a\u094d\u0930\u091c\u093e\u0938\u0924\u094d\u0924\u093e\u0915","alt_name:my":"\u1010\u101b\u102f\u1010\u103a\u101e\u1019\u1039\u1019\u1010\u1014\u102d\u102f\u1004\u103a\u1004\u1036","official_name":"\u4e2d\u83ef\u6c11\u570b","name:mg":"Taiwan","alt_name:et":"Hiina Vabariik","alt_name:ml":"\u0d24\u0d3e\u0d2f\u0d4d\u200c\u0d35\u0d3e\u0d7b","alt_name:mn":"\u0411\u04af\u0433\u0434 \u041d\u0430\u0439\u0440\u0430\u043c\u0434\u0430\u0445 \u0425\u044f\u0442\u0430\u0434 \u0423\u043b\u0441","name:mi":"Taiwana","id":-449220,"alt_name:es":"Rep\u00fablica de China","name:vo":"Tayv\u00e4n","name:ff":"Taywaan","name:fi":"Taiwan","name:uz":"Tayvan","name:fo":"Teivan","alt_name:vi":"Trung Hoa D\u00e2n Qu\u1ed1c","name:fr":"Ta\u00efwan","alt_name:mk":"\u0420\u0435\u043f\u0443\u0431\u043b\u0438\u043a\u0430 \u041a\u0438\u043d\u0430","name:fy":"Taiwan","alt_name:af":"Republiek van Sjina","alt_name:zh-yue":"\u4e2d\u83ef\u6c11\u570b","alt_name:fi":"Kiinan tasavalta","name:nl":"Taiwan","alt_name:fa":"\u062a\u0627\u06cc\u0648\u0627\u0646","alt_name:na":"Republik Tsiene","alt_name:am":"\u12e8\u127b\u12ed\u1293 \u122a\u1350\u1265\u120a\u12ad","alt_name:az":"\u00c7in Respublikas\u0131","alt_name:fr":"R\u00e9publique de Chine (Ta\u00efwan)","alt_name:nl":"Republiek China","alt_name:nn":"Republikken Kina","alt_name:no":"Republikken Kina","name:ga":"An T\u00e9av\u00e1in","name:gd":"Tai-Bh\u00e0n","name:gl":"Taiw\u00e1n","maritime_boundary":true,"alt_name:sh":"Republika Kina"},"arcs":[0]}]},"roads":{"type":"GeometryCollection","geometries":[{"type":"MultiLineString","properties":{"kind":"minor_road","name:en":"Xing\u2019an Road Sec. 1","sort_rank":360,"kind_detail":"residential","is_bicycle_related":true,"cycleway_right":"shared_lane","bicycle_shield_text":"\u74b0\u5cf61-10","bicycle_network":"ncn","source":"openstreetmap.org","min_zoom":8.0},"arcs":[[8],[9]]},{"type":"MultiLineString","properties":{"kind":"major_road","network":"TW:provincial","sort_rank":380,"kind_detail":"primary","is_bicycle_related":true,"bicycle_shield_text":"\u74b0\u5cf61-10","cycleway":"shared_lane","source":"openstreetmap.org","min_zoom":8.0,"shield_text":"9","bicycle_network":"ncn","ref":"9"},"arcs":[[10],[11]]},{"type":"LineString","properties":{"kind":"major_road","name:en":"Kengsheng Road","network":"TW:provincial","sort_rank":380,"kind_detail":"primary","is_bicycle_related":true,"bus_network":"\u81fa\u6771\u5e02\u5340\u516c\u8eca","cycleway":"shared_lane","source":"openstreetmap.org","min_zoom":8.0,"bus_shield_text":"\u9678\u6d77\u7a7a\u5feb\u7dda","shield_text":"9","landuse_kind":"urban_area","ref":"9","id":18288121},"arcs":[12]},{"type":"MultiLineString","properties":{"kind":"major_road","name:en":"Jhonghua Road Section 2","network":"TW:provincial","sort_rank":380,"kind_detail":"primary","is_bicycle_related":true,"bicycle_shield_text":"\u74b0\u5cf61","cycleway":"shared_lane","source":"openstreetmap.org","min_zoom":8.0,"shield_text":"9","bicycle_network":"ncn","ref":"9"},"arcs":[[13],[14]]},{"type":"MultiLineString","properties":{"kind":"major_road","name:en":"Gaotai Road","network":"TW:provincial","sort_rank":380,"kind_detail":"primary","source":"openstreetmap.org","min_zoom":8.0,"landuse_kind":"nature_reserve","shield_text":"11","ref":"11"},"arcs":[[15],[16],[17]]},{"type":"LineString","properties":{"kind":"major_road","sort_rank":380,"kind_detail":"primary","is_bicycle_related":true,"bicycle_shield_text":"\u74b0\u5cf61","cycleway":"shared_lane","source":"openstreetmap.org","min_zoom":8.0,"bicycle_network":"ncn","ref":"9"},"arcs":[18]},{"type":"LineString","properties":{"bus_network":"\u81fa\u6771\u5e02\u5340\u516c\u8eca","bicycle_shield_text":"\u74b0\u5cf61-10","min_zoom":8.0,"bus_shield_text":"\u9678\u6d77\u7a7a\u5feb\u7dda","bicycle_network":"ncn","kind":"major_road","name:en":"Zhihang Road Sec. 1","network":"TW:provincial","sort_rank":380,"kind_detail":"primary","is_bicycle_related":true,"cycleway":"shared_lane","source":"openstreetmap.org","landuse_kind":"urban_area","shield_text":"11\u4e59","ref":"11\u4e59"},"arcs":[19]},{"type":"LineString","properties":{"kind":"major_road","name:en":"Zhonghua Road Sec 1","network":"TW:provincial","sort_rank":380,"kind_detail":"primary","is_bicycle_related":true,"bicycle_shield_text":"\u74b0\u5cf61","cycleway":"shared_lane","source":"openstreetmap.org","min_zoom":8.0,"shield_text":"9","bicycle_network":"ncn","ref":"9","id":94565709},"arcs":[20]},{"type":"MultiLineString","properties":{"kind":"major_road","network":"TW:provincial","sort_rank":380,"kind_detail":"primary","source":"openstreetmap.org","min_zoom":8.0,"shield_text":"20","ref":"20"},"arcs":[[21],[22]]},{"type":"LineString","properties":{"kind":"major_road","network":"TW:provincial","sort_rank":380,"kind_detail":"primary","bus_network":"\u81fa\u6771\u5e02\u5340\u516c\u8eca","source":"openstreetmap.org","min_zoom":8.0,"bus_shield_text":"\u9678\u6d77\u7a7a\u5feb\u7dda","shield_text":"11","landuse_kind":"nature_reserve","ref":"11","id":29196991},"arcs":[23]},{"type":"LineString","properties":{"kind":"major_road","sort_rank":355,"kind_detail":"primary_link","is_bicycle_related":true,"bicycle_shield_text":"\u74b0\u5cf61","bicycle_network":"ncn","source":"openstreetmap.org","min_zoom":8.0,"is_link":true},"arcs":[24]},{"type":"LineString","properties":{"kind":"major_road","sort_rank":377,"kind_detail":"tertiary","is_bicycle_related":true,"bicycle_shield_text":"\u74b0\u5cf61-10","bicycle_network":"ncn","source":"openstreetmap.org","min_zoom":8.0,"id":254763035},"arcs":[25]},{"type":"MultiLineString","properties":{"kind":"major_road","name:en":"Qingfu Road","network":"TW:provincial","sort_rank":380,"kind_detail":"primary","is_bicycle_related":true,"bicycle_shield_text":"\u74b0\u5cf61","cycleway":"shared_lane","source":"openstreetmap.org","min_zoom":8.0,"alt_name:en":"Hualien-Taitung East Rift Valley Highway","alt_name:zh":"\u82b1\u6771\u7e31\u8c37\u516c\u8def","shield_text":"9","bicycle_network":"ncn","ref":"9"},"arcs":[[26],[27]]},{"type":"LineString","properties":{"bus_network":"\u81fa\u6771\u5e02\u5340\u516c\u8eca","name:en":"Jilin Road Sec. 2","network":"TW:provincial","sort_rank":380,"landuse_kind":"nature_reserve","kind":"major_road","source":"openstreetmap.org","min_zoom":8.0,"bus_shield_text":"\u9678\u6d77\u7a7a\u5feb\u7dda","shield_text":"11","kind_detail":"primary","ref":"11"},"arcs":[28]},{"type":"LineString","properties":{"kind":"major_road","network":"TW:provincial","sort_rank":380,"kind_detail":"primary","is_bicycle_related":true,"cycleway":"shared_lane","source":"openstreetmap.org","min_zoom":8.0,"landuse_kind":"urban_area","shield_text":"9","ref":"9","id":308630691},"arcs":[29]},{"type":"LineString","properties":{"kind":"minor_road","name:en":"Xinxing Road","sort_rank":358,"kind_detail":"service","is_bicycle_related":true,"cycleway_right":"shared_lane","bicycle_shield_text":"\u74b0\u5cf61-10","bicycle_network":"ncn","source":"openstreetmap.org","min_zoom":8.0},"arcs":[30]},{"type":"LineString","properties":{"kind":"minor_road","sort_rank":358,"kind_detail":"service","is_bicycle_related":true,"bicycle_shield_text":"\u74b0\u5cf61-10","cycleway":"shared_lane","source":"openstreetmap.org","min_zoom":8.0,"bicycle_network":"ncn"},"arcs":[31]},{"type":"LineString","properties":{"kind":"major_road","name:en":"Kengsheng North Road","network":"TW:provincial","sort_rank":380,"kind_detail":"primary","is_bicycle_related":true,"bicycle_shield_text":"\u74b0\u5cf61-10","cycleway":"shared_lane","source":"openstreetmap.org","min_zoom":8.0,"landuse_kind":"urban_area","shield_text":"9","bicycle_network":"ncn","ref":"9"},"arcs":[32]},{"type":"LineString","properties":{"kind":"major_road","sort_rank":377,"kind_detail":"tertiary","is_bicycle_related":true,"bicycle_shield_text":"\u74b0\u5cf61-10","bicycle_network":"ncn","source":"openstreetmap.org","min_zoom":8.0,"landuse_kind":"urban_area","id":254763035},"arcs":[33]},{"type":"LineString","properties":{"kind":"major_road","name:en":"Jhonghua Road Section 1","network":"TW:provincial","sort_rank":380,"kind_detail":"primary","is_bicycle_related":true,"bicycle_shield_text":"\u74b0\u5cf61","cycleway":"shared_lane","source":"openstreetmap.org","min_zoom":8.0,"shield_text":"9","bicycle_network":"ncn","ref":"9"},"arcs":[34]},{"type":"LineString","properties":{"kind":"major_road","name:en":"Zhonghua Road Section 2","network":"TW:provincial","sort_rank":380,"kind_detail":"primary","is_bicycle_related":true,"bicycle_shield_text":"\u74b0\u5cf61","cycleway":"shared_lane","source":"openstreetmap.org","min_zoom":8.0,"shield_text":"9","bicycle_network":"ncn","ref":"9"},"arcs":[35]},{"type":"LineString","properties":{"bus_network":null,"network":"TW:provincial","sort_rank":380,"kind_detail":"primary","kind":"major_road","source":"openstreetmap.org","min_zoom":8.0,"bus_shield_text":"1145","shield_text":"11","landuse_kind":"nature_reserve","ref":"11"},"arcs":[36]},{"type":"LineString","properties":{"kind":"major_road","name:en":"Songjiang Road Sec. 1","network":"TW:provincial","sort_rank":380,"kind_detail":"primary","source":"openstreetmap.org","min_zoom":8.0,"landuse_kind":"nature_reserve","shield_text":"11","ref":"11","id":308630721},"arcs":[37]},{"type":"LineString","properties":{"cycleway_right":"shared_lane","name:en":"Jhongsiao Road","sort_rank":377,"kind_detail":"tertiary","is_bicycle_related":true,"kind":"major_road","bicycle_shield_text":"\u74b0\u5cf61","bicycle_network":"ncn","source":"openstreetmap.org","min_zoom":8.0},"arcs":[38]},{"type":"LineString","properties":{"kind":"major_road","name:en":"Yong'an Street","network":"TW:provincial","sort_rank":380,"kind_detail":"primary","source":"openstreetmap.org","min_zoom":8.0,"shield_text":"23","ref":"23","id":26392090},"arcs":[39]},{"type":"MultiLineString","properties":{"bus_network":null,"name:en":"Hualien-Taitung Coastal Highway","network":"TW:provincial","sort_rank":380,"kind_detail":"primary","kind":"major_road","source":"openstreetmap.org","min_zoom":8.0,"bus_shield_text":"1145","shield_text":"11","landuse_kind":"nature_reserve","ref":"11"},"arcs":[[40],[41],[42],[43]]},{"type":"MultiLineString","properties":{"kind":"major_road","network":"TW:provincial","sort_rank":380,"kind_detail":"primary","source":"openstreetmap.org","min_zoom":8.0,"landuse_kind":"nature_reserve","shield_text":"11","ref":"11"},"arcs":[[44],[45],[46],[47],[48],[49],[50]]},{"type":"MultiLineString","properties":{"cycleway_right":"shared_lane","name:en":"Dashun Road","network":"TW:provincial","sort_rank":380,"kind_detail":"primary","is_bicycle_related":true,"kind":"major_road","bicycle_shield_text":"\u74b0\u5cf61","bicycle_network":"ncn","source":"openstreetmap.org","min_zoom":8.0,"shield_text":"9","ref":"9"},"arcs":[[51],[52]]},{"type":"MultiLineString","properties":{"kind":"major_road","name:en":"Zhongshan Road","network":"TW:provincial","sort_rank":380,"kind_detail":"primary","source":"openstreetmap.org","min_zoom":8.0,"shield_text":"23","ref":"23"},"arcs":[[53],[54]]},{"type":"MultiLineString","properties":{"bus_network":"\u81fa\u6771\u5e02\u5340\u516c\u8eca","network":"TW:provincial","sort_rank":380,"kind_detail":"primary","kind":"major_road","source":"openstreetmap.org","min_zoom":8.0,"bus_shield_text":"\u5e02\u5340\u89c0\u5149\u5faa\u74b0\u7dda","shield_text":"11","ref":"11"},"arcs":[[55],[56]]},{"type":"LineString","properties":{"kind":"major_road","network":"TW:provincial","sort_rank":380,"kind_detail":"primary","is_bicycle_related":true,"bicycle_shield_text":"\u74b0\u5cf61","cycleway":"shared_lane","source":"openstreetmap.org","min_zoom":8.0,"landuse_kind":"urban_area","shield_text":"9","bicycle_network":"ncn","ref":"9","id":424714239},"arcs":[57]},{"type":"LineString","properties":{"kind":"major_road","name:en":"Zhonghua Road Sec. 2","network":"TW:provincial","sort_rank":380,"kind_detail":"primary","is_bicycle_related":true,"bicycle_shield_text":"\u74b0\u5cf61","cycleway":"shared_lane","source":"openstreetmap.org","min_zoom":8.0,"shield_text":"9","bicycle_network":"ncn","ref":"9","id":345678468},"arcs":[58]},{"type":"LineString","properties":{"cycleway_right":"shared_lane","name:en":"Jhihben Road Section 4","network":"TW:provincial","sort_rank":380,"kind_detail":"primary","is_bicycle_related":true,"kind":"major_road","bicycle_shield_text":"\u74b0\u5cf61","bicycle_network":"ncn","source":"openstreetmap.org","min_zoom":8.0,"shield_text":"9","ref":"9","id":19793013},"arcs":[59]},{"type":"LineString","properties":{"kind":"major_road","name:en":"Songjiang Road Sec. 1","network":"TW:provincial","sort_rank":380,"kind_detail":"primary","source":"openstreetmap.org","min_zoom":8.0,"shield_text":"11","ref":"11","id":308630721},"arcs":[60]},{"type":"LineString","properties":{"kind":"major_road","name:en":"Songjiang Road Sec. 1","network":"TW:provincial","sort_rank":380,"kind_detail":"primary","bus_network":"\u81fa\u6771\u5e02\u5340\u516c\u8eca","source":"openstreetmap.org","min_zoom":8.0,"bus_shield_text":"\u9678\u6d77\u7a7a\u5feb\u7dda","shield_text":"11","landuse_kind":"nature_reserve","ref":"11","id":302278095},"arcs":[61]},{"type":"LineString","properties":{"kind":"minor_road","sort_rank":360,"kind_detail":"residential","is_bicycle_related":true,"cycleway_right":"shared_lane","bicycle_shield_text":"\u74b0\u5cf61-10","bicycle_network":"ncn","source":"openstreetmap.org","min_zoom":8.0},"arcs":[62]},{"type":"LineString","properties":{"kind":"major_road","name:en":"Zhihang Road Sec. 2","network":"TW:provincial","sort_rank":380,"kind_detail":"primary","source":"openstreetmap.org","min_zoom":8.0,"landuse_kind":"nature_reserve","shield_text":"11\u4e59","ref":"11\u4e59","id":302278091},"arcs":[63]},{"type":"MultiLineString","properties":{"kind":"major_road","network":"TW:provincial","sort_rank":380,"kind_detail":"primary","source":"openstreetmap.org","min_zoom":8.0,"shield_text":"9","ref":"9"},"arcs":[[64],[65],[66]]},{"type":"MultiLineString","properties":{"kind":"major_road","name:en":"Jhonghua Bridge","network":"TW:provincial","sort_rank":380,"kind_detail":"primary","source":"openstreetmap.org","min_zoom":8.0,"shield_text":"11","ref":"11","id":29196990},"arcs":[[67],[68]]},{"type":"LineString","properties":{"kind":"major_road","name:en":"Zhonghua Road Sec. 3","network":"TW:provincial","sort_rank":380,"kind_detail":"primary","is_bicycle_related":true,"bicycle_shield_text":"\u74b0\u5cf61","cycleway":"shared_lane","source":"openstreetmap.org","min_zoom":8.0,"shield_text":"9","bicycle_network":"ncn","ref":"9","id":340059263},"arcs":[69]},{"type":"LineString","properties":{"kind":"major_road","name:en":"Zhihang Road Sec. 2","network":"TW:provincial","sort_rank":380,"kind_detail":"primary","source":"openstreetmap.org","min_zoom":8.0,"shield_text":"11\u4e59","ref":"11\u4e59","id":302278091},"arcs":[70]},{"type":"LineString","properties":{"kind":"major_road","network":"TW:provincial","sort_rank":380,"kind_detail":"primary","source":"openstreetmap.org","min_zoom":8.0,"landuse_kind":"nature_reserve","shield_text":"23","ref":"23"},"arcs":[71]},{"type":"LineString","properties":{"kind":"major_road","alt_name:en":"Hualien-Taitung East Rift Valley Highway","network":"TW:provincial","sort_rank":380,"kind_detail":"primary","is_bicycle_related":true,"bicycle_shield_text":"\u74b0\u5cf61","cycleway":"shared_lane","source":"openstreetmap.org","min_zoom":8.0,"name:en":"Guangfu Road","alt_name:zh":"\u82b1\u6771\u7e31\u8c37\u516c\u8def","shield_text":"9","bicycle_network":"ncn","ref":"9"},"arcs":[72]},{"type":"MultiLineString","properties":{"kind":"major_road","network":"TW:provincial","sort_rank":380,"kind_detail":"primary","source":"openstreetmap.org","min_zoom":8.0,"landuse_kind":"nature_reserve","shield_text":"20","ref":"20"},"arcs":[[73],[74],[75]]},{"type":"LineString","properties":{"kind":"major_road","name:en":"Zhihang Road Sec. 1","network":"TW:provincial","sort_rank":380,"kind_detail":"primary","source":"openstreetmap.org","min_zoom":8.0,"landuse_kind":"urban_area","shield_text":"11\u4e59","ref":"11\u4e59","id":182172446},"arcs":[76]},{"type":"MultiLineString","properties":{"kind":"major_road","alt_name:en":"Hualien-Taitung East Rift Valley Highway","network":"TW:provincial","sort_rank":380,"kind_detail":"primary","is_bicycle_related":true,"bicycle_shield_text":"\u74b0\u5cf61","cycleway":"shared_lane","source":"openstreetmap.org","min_zoom":8.0,"alt_name:zh":"\u82b1\u6771\u7e31\u8c37\u516c\u8def","shield_text":"9","bicycle_network":"ncn","ref":"9"},"arcs":[[77],[78]]},{"type":"LineString","properties":{"bus_network":"\u81fa\u6771\u5e02\u5340\u516c\u8eca","network":"TW:provincial","sort_rank":380,"kind_detail":"primary","is_bicycle_related":true,"kind":"major_road","cycleway":"shared_lane","source":"openstreetmap.org","min_zoom":8.0,"bus_shield_text":"\u9678\u6d77\u7a7a\u5feb\u7dda","shield_text":"9","landuse_kind":"urban_area","ref":"9"},"arcs":[79]},{"type":"LineString","properties":{"kind":"major_road","name:en":"Jilin Road Sec. 1","network":"TW:provincial","sort_rank":380,"kind_detail":"primary","source":"openstreetmap.org","min_zoom":8.0,"shield_text":"11\u4e59","ref":"11\u4e59","id":18288119},"arcs":[80]},{"type":"LineString","properties":{"kind":"major_road","network":"TW:provincial","sort_rank":380,"kind_detail":"primary","is_bicycle_related":true,"bicycle_shield_text":"\u74b0\u5cf61","bicycle_network":"ncn","source":"openstreetmap.org","min_zoom":8.0,"shield_text":"9\u4e59","ref":"9\u4e59"},"arcs":[81]},{"type":"MultiLineString","properties":{"sort_rank":355,"source":"openstreetmap.org","min_zoom":8.0,"kind":"ferry"},"arcs":[[82],[83],[84],[85]]},{"type":"MultiLineString","properties":{"kind":"major_road","name:en":"Sinsing 1st Road","network":"TW:provincial","sort_rank":380,"kind_detail":"primary","is_bicycle_related":true,"bicycle_shield_text":"\u74b0\u5cf61","cycleway":"shared_lane","source":"openstreetmap.org","min_zoom":8.0,"shield_text":"9","bicycle_network":"ncn","ref":"9"},"arcs":[[86],[87]]},{"type":"LineString","properties":{"bus_network":"\u81fa\u6771\u5e02\u5340\u516c\u8eca","name:en":"Jhonghua Bridge","network":"TW:provincial","sort_rank":380,"kind_detail":"primary","kind":"major_road","source":"openstreetmap.org","min_zoom":8.0,"bus_shield_text":"\u9678\u6d77\u7a7a\u5feb\u7dda","shield_text":"11","landuse_kind":"urban_area","ref":"11","id":29196988},"arcs":[88]},{"type":"LineString","properties":{"source":"openstreetmap.org","kind":"ferry","sort_rank":355,"landuse_kind":"nature_reserve","min_zoom":8.0,"id":182147910},"arcs":[89]},{"type":"MultiLineString","properties":{"kind":"major_road","name:en":"Lianhang Road","sort_rank":377,"landuse_kind":"urban_area","is_bicycle_related":true,"bicycle_shield_text":"\u74b0\u5cf61-10","bicycle_network":"ncn","source":"openstreetmap.org","min_zoom":8.0,"kind_detail":"tertiary","ref":"\u677151"},"arcs":[[90],[91],[92],[93]]},{"type":"MultiLineString","properties":{"kind":"major_road","network":"TW:provincial","sort_rank":380,"kind_detail":"primary","is_bicycle_related":true,"bicycle_shield_text":"\u74b0\u5cf61-10","cycleway":"shared_lane","source":"openstreetmap.org","min_zoom":8.0,"landuse_kind":"urban_area","shield_text":"9","bicycle_network":"ncn","ref":"9"},"arcs":[[94],[95]]},{"type":"LineString","properties":{"source":"openstreetmap.org","kind":"ferry","name":"\u5bcc\u5d17\u5230\u7da0\u5cf6","sort_rank":355,"min_zoom":8.0,"id":80497291},"arcs":[96]},{"type":"LineString","properties":{"kind":"major_road","name:en":"Heping Road","network":"TW:provincial","sort_rank":380,"kind_detail":"primary","is_bicycle_related":true,"bicycle_shield_text":"\u74b0\u5cf61","cycleway":"shared_lane","source":"openstreetmap.org","min_zoom":8.0,"shield_text":"9","bicycle_network":"ncn","ref":"9","id":301894516},"arcs":[97]},{"type":"MultiLineString","properties":{"kind":"major_road","network":"TW:provincial","sort_rank":380,"kind_detail":"primary","source":"openstreetmap.org","min_zoom":8.0,"shield_text":"11","ref":"11"},"arcs":[[98],[99],[100],[101],[102],[103],[104]]},{"type":"LineString","properties":{"kind":"major_road","name:en":"Jilin Road Sec. 1","network":"TW:provincial","sort_rank":380,"kind_detail":"primary","source":"openstreetmap.org","min_zoom":8.0,"landuse_kind":"nature_reserve","shield_text":"11\u4e59","ref":"11\u4e59","id":18288119},"arcs":[105]},{"type":"LineString","properties":{"kind":"major_road","sort_rank":355,"kind_detail":"primary_link","is_bicycle_related":true,"bicycle_shield_text":"\u74b0\u5cf61-10","bicycle_network":"ncn","source":"openstreetmap.org","min_zoom":8.0,"is_link":true,"landuse_kind":"urban_area","cycleway":"shared_lane","id":18288109},"arcs":[106]},{"type":"LineString","properties":{"kind":"major_road","name:en":"Jhongshan Road","network":"TW:provincial","sort_rank":380,"kind_detail":"primary","is_bicycle_related":true,"bicycle_shield_text":"\u74b0\u5cf61","cycleway":"shared_lane","source":"openstreetmap.org","min_zoom":8.0,"shield_text":"9","bicycle_network":"ncn","ref":"9"},"arcs":[107]},{"type":"LineString","properties":{"kind":"major_road","name:en":"Jhongshan Road","network":"TW:provincial","sort_rank":380,"kind_detail":"primary","source":"openstreetmap.org","min_zoom":8.0,"shield_text":"9","ref":"9","id":94668468},"arcs":[108]},{"type":"LineString","properties":{"kind":"major_road","network":"TW:provincial","sort_rank":380,"kind_detail":"primary","is_bicycle_related":true,"bicycle_shield_text":"\u74b0\u5cf61","bicycle_network":"ncn","source":"openstreetmap.org","min_zoom":8.0,"shield_text":"9","id":339541989},"arcs":[109]},{"type":"LineString","properties":{"cycleway_right":"shared_lane","name:en":"Xing\u2019an Road Sec. 1","sort_rank":377,"kind_detail":"tertiary","is_bicycle_related":true,"kind":"major_road","bicycle_shield_text":"\u74b0\u5cf61-10","bicycle_network":"ncn","bus_network":"\u81fa\u6771\u5e02\u5340\u516c\u8eca","source":"openstreetmap.org","min_zoom":8.0,"bus_shield_text":"\u9678\u6d77\u7a7a\u5feb\u7dda","ref":"\u677146","id":383713403},"arcs":[110]},{"type":"LineString","properties":{"kind":"major_road","name:en":"Hualien-Taitung Coastal Highway","sort_rank":380,"kind_detail":"primary","source":"openstreetmap.org","min_zoom":8.0,"landuse_kind":"nature_reserve","ref":"11"},"arcs":[111]},{"type":"MultiLineString","properties":{"cycleway_right":"shared_lane","network":"TW:provincial","sort_rank":380,"kind_detail":"primary","is_bicycle_related":true,"kind":"major_road","bicycle_shield_text":"\u74b0\u5cf61","bicycle_network":"ncn","source":"openstreetmap.org","min_zoom":8.0,"shield_text":"9","ref":"9"},"arcs":[[112],[113],[114],[115]]},{"type":"MultiLineString","properties":{"bus_network":null,"name:en":"Hualien-Taitung Coastal Highway","network":"TW:provincial","ref":"11","sort_rank":380,"kind_detail":"primary","kind":"major_road","source":"openstreetmap.org","min_zoom":8.0,"bus_shield_text":"1145","shield_text":"11","landuse_kind":"nature_reserve","name:zh":"\u82b1\u6771\u6d77\u5cb8\u516c\u8def"},"arcs":[[116],[117],[118]]},{"type":"MultiLineString","properties":{"kind":"major_road","network":"TW:provincial","sort_rank":380,"kind_detail":"primary","source":"openstreetmap.org","min_zoom":8.0,"shield_text":"23","ref":"23"},"arcs":[[119],[120]]},{"type":"LineString","properties":{"kind":"major_road","network":"TW:provincial","sort_rank":380,"kind_detail":"primary","source":"openstreetmap.org","min_zoom":8.0,"landuse_kind":"urban_area","shield_text":"11\u4e59","ref":"11\u4e59","id":182172447},"arcs":[121]},{"type":"LineString","properties":{"kind":"major_road","name:en":"Qingfu Road","network":"TW:provincial","sort_rank":380,"kind_detail":"primary","source":"openstreetmap.org","min_zoom":8.0,"alt_name:en":"Hualien-Taitung East Rift Valley Highway","alt_name:zh":"\u82b1\u6771\u7e31\u8c37\u516c\u8def","shield_text":"9","ref":"9","id":383716780},"arcs":[122]},{"type":"LineString","properties":{"kind":"major_road","name:en":"Zhitian Road","network":"TW:provincial","sort_rank":380,"kind_detail":"primary","bus_network":null,"source":"openstreetmap.org","min_zoom":8.0,"bus_shield_text":"1145","shield_text":"11","landuse_kind":"nature_reserve","ref":"11","id":29197022},"arcs":[123]},{"type":"LineString","properties":{"kind":"major_road","name:en":"Zhongshan Road","sort_rank":380,"kind_detail":"primary","source":"openstreetmap.org","min_zoom":8.0,"landuse_kind":"nature_reserve","ref":"11","id":413151515},"arcs":[124]},{"type":"MultiLineString","properties":{"kind":"minor_road","name:en":"Xing\u2019an Road Sec. 1","sort_rank":360,"landuse_kind":"urban_area","is_bicycle_related":true,"cycleway_right":"shared_lane","bicycle_shield_text":"\u74b0\u5cf61-10","bicycle_network":"ncn","source":"openstreetmap.org","min_zoom":8.0,"kind_detail":"residential"},"arcs":[[125],[126]]},{"type":"LineString","properties":{"kind":"major_road","name:en":"Jhonghua Bridge","network":"TW:provincial","sort_rank":380,"kind_detail":"primary","source":"openstreetmap.org","min_zoom":8.0,"landuse_kind":"urban_area","shield_text":"11","ref":"11","id":29196990},"arcs":[127]},{"type":"LineString","properties":{"kind":"major_road","name:en":"Zhihang Road Sec. 2","network":"TW:provincial","sort_rank":380,"kind_detail":"primary","source":"openstreetmap.org","min_zoom":8.0,"landuse_kind":"urban_area","shield_text":"11\u4e59","ref":"11\u4e59","id":302278091},"arcs":[128]},{"type":"LineString","properties":{"kind":"major_road","name:en":"Songjiang Road Sec. 2","network":"TW:provincial","sort_rank":380,"kind_detail":"primary","source":"openstreetmap.org","min_zoom":8.0,"shield_text":"11","ref":"11","id":302278096},"arcs":[129]},{"type":"LineString","properties":{"cycleway_right":"shared_lane","name:en":"Xinzhan Road","sort_rank":377,"kind_detail":"tertiary","is_bicycle_related":true,"kind":"major_road","bicycle_shield_text":"\u74b0\u5cf61-10","bicycle_network":"ncn","source":"openstreetmap.org","min_zoom":8.0,"id":383713407},"arcs":[130]},{"type":"LineString","properties":{"cycleway_right":"shared_lane","alt_name:en":"Hualien-Taitung East Rift Valley Highway","bicycle_shield_text":"\u74b0\u5cf61","min_zoom":8.0,"alt_name:zh":"\u82b1\u6771\u7e31\u8c37\u516c\u8def","id":26392089,"kind":"major_road","name:en":"Guangfu Road","network":"TW:provincial","sort_rank":380,"kind_detail":"primary","is_bicycle_related":true,"bicycle_network":"ncn","source":"openstreetmap.org","shield_text":"9","ref":"9"},"arcs":[131]},{"type":"MultiLineString","properties":{"source":"openstreetmap.org","kind":"major_road","sort_rank":380,"kind_detail":"primary","ref":"9","min_zoom":8.0},"arcs":[[132],[133]]},{"type":"LineString","properties":{"kind":"major_road","network":"TW:provincial","sort_rank":380,"kind_detail":"primary","is_bicycle_related":true,"bicycle_shield_text":"\u74b0\u5cf61","bicycle_network":"ncn","source":"openstreetmap.org","min_zoom":8.0,"landuse_kind":"urban_area","shield_text":"9\u4e59","ref":"9\u4e59"},"arcs":[134]},{"type":"LineString","properties":{"kind":"major_road","name:en":"Zhihang Road Sec. 1","network":"TW:provincial","sort_rank":380,"kind_detail":"primary","is_bicycle_related":true,"bicycle_shield_text":"\u74b0\u5cf61-10","cycleway":"shared_lane","source":"openstreetmap.org","min_zoom":8.0,"landuse_kind":"urban_area","shield_text":"11\u4e59","bicycle_network":"ncn","ref":"11\u4e59"},"arcs":[135]},{"type":"LineString","properties":{"source":"openstreetmap.org","kind":"ferry","name":"\u5bcc\u5d17\u5230\u7da0\u5cf6","sort_rank":355,"landuse_kind":"nature_reserve","min_zoom":8.0,"id":80497291},"arcs":[136]},{"type":"LineString","properties":{"kind":"major_road","name:en":"Datong Road","network":"TW:provincial","sort_rank":380,"kind_detail":"primary","source":"openstreetmap.org","min_zoom":8.0,"landuse_kind":"nature_reserve","shield_text":"11","ref":"11","id":29197023},"arcs":[137]},{"type":"LineString","properties":{"kind":"major_road","name:en":"Jihui Road","network":"TW:provincial","sort_rank":380,"kind_detail":"primary","bus_network":null,"source":"openstreetmap.org","min_zoom":8.0,"bus_shield_text":"1145","shield_text":"11","landuse_kind":"nature_reserve","ref":"11","id":301021365},"arcs":[138]},{"type":"LineString","properties":{"kind":"major_road","name:en":"Zhongshan Road","network":"TW:provincial","sort_rank":380,"kind_detail":"primary","bus_network":null,"source":"openstreetmap.org","min_zoom":8.0,"bus_shield_text":"1145","shield_text":"11","landuse_kind":"nature_reserve","ref":"11","id":29197020},"arcs":[139]},{"type":"MultiLineString","properties":{"bus_network":"\u81fa\u6771\u5e02\u5340\u516c\u8eca","name:en":"Jhonghua Bridge","network":"TW:provincial","sort_rank":380,"kind_detail":"primary","kind":"major_road","source":"openstreetmap.org","min_zoom":8.0,"bus_shield_text":"\u9678\u6d77\u7a7a\u5feb\u7dda","shield_text":"11","ref":"11","id":29196988},"arcs":[[140],[141]]},{"type":"LineString","properties":{"kind":"major_road","name:en":"Songjiang Road Sec. 2","network":"TW:provincial","sort_rank":380,"kind_detail":"primary","source":"openstreetmap.org","min_zoom":8.0,"landuse_kind":"nature_reserve","shield_text":"11","ref":"11","id":302278096},"arcs":[142]},{"type":"MultiLineString","properties":{"kind":"major_road","sort_rank":377,"landuse_kind":"urban_area","is_bicycle_related":true,"bicycle_shield_text":"\u74b0\u5cf61-10","bicycle_network":"ncn","source":"openstreetmap.org","min_zoom":8.0,"kind_detail":"tertiary","ref":"\u677151"},"arcs":[[143],[144]]},{"type":"LineString","properties":{"cycleway_right":"shared_lane","sort_rank":355,"kind_detail":"primary_link","is_bicycle_related":true,"kind":"major_road","bicycle_shield_text":"\u74b0\u5cf61","bicycle_network":"ncn","source":"openstreetmap.org","min_zoom":8.0,"is_link":true,"id":146741668},"arcs":[145]},{"type":"MultiLineString","properties":{"kind":"major_road","network":"TW:provincial","sort_rank":380,"kind_detail":"primary","is_bicycle_related":true,"bicycle_shield_text":"\u74b0\u5cf61","cycleway":"shared_lane","source":"openstreetmap.org","min_zoom":8.0,"shield_text":"9","bicycle_network":"ncn","ref":"9"},"arcs":[[146],[147],[148],[149],[150],[151],[152],[153],[154],[155],[156]]},{"type":"MultiLineString","properties":{"kind":"major_road","network":"TW:provincial","sort_rank":380,"kind_detail":"primary","source":"openstreetmap.org","min_zoom":8.0,"shield_text":"20\u7532","ref":"20\u7532"},"arcs":[[157],[158],[159]]},{"type":"MultiLineString","properties":{"bus_network":"\u81fa\u6771\u5e02\u5340\u516c\u8eca","network":"TW:provincial","sort_rank":380,"kind_detail":"primary","kind":"major_road","source":"openstreetmap.org","min_zoom":8.0,"bus_shield_text":"\u9678\u6d77\u7a7a\u5feb\u7dda","shield_text":"11","ref":"11"},"arcs":[[160],[161]]}]},"earth":{"type":"GeometryCollection","geometries":[{"type":"MultiPolygon","properties":{"sort_rank":10,"source":"naturalearthdata.com","min_zoom":0.0,"kind":"earth","area":14404987519},"arcs":[[[162]],[[163]],[[164]]]}]},"landuse":{"type":"GeometryCollection","geometries":[{"type":"Polygon","properties":{"kind":"nature_reserve","protect_class":"4","area":576350016,"sort_rank":23,"operator":"\u884c\u653f\u9662\u8fb2\u696d\u59d4\u54e1\u6703\u6797\u52d9\u5c40\u5c4f\u6771\u6797\u5340\u7ba1\u7406\u8655","source":"openstreetmap.org","min_zoom":6.0,"tier":2,"id":-7033434,"osm_relation":true},"arcs":[[165]]},{"type":"Polygon","properties":{"kind":"nature_reserve","protect_class":"6","area":670662976,"sort_rank":23,"operator":"\u5167\u653f\u90e8\u71df\u5efa\u7f72","source":"openstreetmap.org","min_zoom":6.0,"tier":2,"id":-7075261,"osm_relation":true},"arcs":[[166]]},{"type":"MultiPolygon","properties":{"kind":"nature_reserve","protect_class":"4","area":79562499,"sort_rank":23,"operator":"\u884c\u653f\u9662\u8fb2\u696d\u59d4\u54e1\u6703\u6797\u52d9\u5c40\u53f0\u6771\u6797\u5340\u7ba1\u7406\u8655","source":"openstreetmap.org","min_zoom":8.0,"tier":2,"osm_relation":true},"arcs":[[[167]],[[168]],[[169]]]},{"type":"Polygon","properties":{"kind":"nature_reserve","protect_class":"1","area":563694016,"sort_rank":23,"operator":"\u884c\u653f\u9662\u8fb2\u696d\u59d4\u54e1\u6703\u6797\u52d9\u5c40\u53f0\u6771\u3001\u5c4f\u6771\u6797\u5340\u7ba1\u7406\u8655","source":"openstreetmap.org","min_zoom":6.0,"tier":2,"id":-7001875,"osm_relation":true},"arcs":[[170]]},{"type":"Polygon","properties":{"kind":"nature_reserve","protect_class":"6","area":12301800,"sort_rank":23,"operator":"\u884c\u653f\u9662\u8fb2\u696d\u59d4\u54e1\u6703\u6797\u52d9\u5c40\u53f0\u6771\u6797\u5340\u7ba1\u7406\u8655","source":"openstreetmap.org","min_zoom":8.0,"tier":2,"id":-7011235,"osm_relation":true},"arcs":[[171]]},{"type":"MultiPolygon","properties":{"source":"naturalearthdata.com","kind":"urban_area","name":"","area":113386494,"sort_rank":11,"min_zoom":4.0},"arcs":[[[172]]]},{"type":"Polygon","properties":{"kind":"nature_reserve","protect_class":"4","area":824659968,"sort_rank":23,"operator":"\u884c\u653f\u9662\u8fb2\u696d\u59d4\u54e1\u6703\u6797\u52d9\u5c40\u53f0\u6771\u6797\u5340\u7ba1\u7406\u8655","source":"openstreetmap.org","min_zoom":6.0,"tier":2,"id":-7033251,"osm_relation":true},"arcs":[[173]]}]}},"type":"Topology","transform":{"translate":[120.9375,21.9430455334],"scale":[0.0003433228,0.0003169679]},"arcs":[[[2561,0],[-291,2382],[-16,1714]],[[0,1669],[10,36],[21,137],[36,66],[89,111],[29,56],[58,149],[24,30],[29,16],[120,131],[178,119],[52,49],[53,67],[24,39],[13,35],[2,31],[-7,70],[5,29],[37,42],[154,130],[14,30],[114,164],[23,65],[33,144],[53,93],[18,64],[12,25],[23,25],[54,38],[23,24],[53,110],[11,106],[-1,112],[11,84],[2728,0],[0,-4096],[-4096,0],[0,1669]],[[1589,2187],[10,-3],[20,0],[8,-2],[1,12],[-4,18],[4,19],[10,17],[8,44],[-8,21],[-12,7],[-111,-8],[-6,-7],[15,-46],[31,-55],[29,-11],[5,-6]],[[1752,237],[81,-33],[61,19],[3,31],[-22,27],[-52,39],[-10,29],[4,32],[10,26],[5,12],[0,20],[-217,0],[20,-23],[11,-26],[0,-29],[-13,-30],[44,-41],[75,-53]],[[1924,29],[13,-11],[9,16],[-13,11],[-9,-16]],[[0,1669],[10,36],[21,137],[36,66],[89,111],[29,56],[58,149],[24,30],[29,16],[120,131],[178,119],[52,49],[53,67],[24,39],[13,35],[2,31],[-7,70],[5,29],[37,42],[154,130],[14,30],[114,164],[23,65],[33,144],[53,93],[18,64],[12,25],[23,25],[54,38],[23,24],[53,110],[11,106],[-1,112],[11,84]],[[1823,320],[-10,29],[4,32],[10,26],[5,12],[0,20],[-217,0],[20,-23],[11,-26],[0,-29],[-13,-30],[44,-41],[75,-53],[81,-33],[61,19],[3,31],[-22,27],[-52,39]],[[1524,2259],[31,-55],[29,-11],[5,-6],[10,-3],[20,0],[8,-2],[1,12],[-4,18],[4,19],[10,17],[8,44],[-8,21],[-12,7],[-111,-8],[-6,-7],[15,-46]],[[552,2683],[1,-3]],[[553,2680],[0,3]],[[458,2706],[1,0]],[[505,2669],[2,-1]],[[552,2631],[27,-28]],[[607,3335],[-3,-7]],[[678,3536],[-5,-14]],[[1330,3720],[1,0]],[[1339,3744],[-6,-19]],[[1333,3725],[7,19]],[[92,1866],[-10,-38]],[[552,2631],[3,25]],[[579,3051],[-6,-52],[-101,18]],[[428,3785],[-185,118],[67,-11],[-74,44],[-3,36],[13,-33],[37,48]],[[696,3609],[-2,90],[-42,37],[-134,23]],[[692,2631],[6,4]],[[457,2707],[0,-2]],[[534,2676],[-1,-1]],[[831,3729],[-1,1]],[[838,3727],[-7,2]],[[698,2635],[31,50]],[[535,2606],[-1,0]],[[553,2684],[-1,-1]],[[459,2706],[46,-37]],[[534,2646],[18,-15]],[[533,2675],[-14,-17]],[[472,3017],[-17,-34]],[[601,3318],[-36,-144]],[[1294,3673],[1,1]],[[748,2687],[7,25]],[[803,3716],[27,14],[-26,-14]],[[902,3876],[15,4]],[[1336,3935],[1,53],[34,23]],[[1340,3813],[15,58],[-19,62]],[[1337,3774],[3,39]],[[1372,4012],[26,84]],[[698,2635],[-6,-4]],[[732,2838],[27,40]],[[734,2763],[-1,21]],[[799,2907],[52,39],[151,240],[74,69],[147,378],[29,19]],[[1333,3725],[-3,-5]],[[1331,3720],[2,5]],[[1340,3744],[-2,20],[1,-20]],[[314,2429],[-10,-21]],[[304,2409],[10,20]],[[888,3860],[6,9]],[[896,3871],[6,5]],[[637,2545],[1,2]],[[643,2552],[7,8]],[[448,2623],[-17,0]],[[603,3098],[-24,-47]],[[304,2408],[-6,-7]],[[755,2712]],[[729,2685],[19,2]],[[546,2684],[-1,-3]],[[652,2662],[-3,1]],[[92,1866],[-10,-38]],[[317,2359],[-1,-5]],[[459,2706],[46,-37]],[[674,2608],[-17,-28]],[[684,2625],[-1,-2]],[[565,3174],[38,-76]],[[649,2663],[-3,1]],[[1040,3304],[39,14],[-24,-38],[23,-19]],[[887,3847],[-26,-86]],[[138,4096],[-2,-12],[7,12]],[[180,4096],[30,-55],[24,4],[-11,-19],[60,-39]],[[518,3759],[-90,26]],[[588,2675],[-33,-19]],[[831,3729]],[[968,3967],[-2,-4]],[[579,2603],[-44,3]],[[683,2630],[-6,6]],[[435,2648],[23,58]],[[1662,367],[-2,-1]],[[1660,366],[-1404,-366]],[[1662,361],[-2,5]],[[1660,366],[-122,374],[-168,377],[-414,695],[-8,101],[-85,185],[-108,380],[-13,190]],[[678,3537],[18,75],[36,28]],[[800,3713],[-47,-59]],[[675,2609],[8,14]],[[742,2668],[0,6]],[[539,2616],[-5,-10]],[[535,2606],[4,9]],[[551,2631],[-4,-6]],[[548,2625],[4,6]],[[534,2606],[-86,17]],[[507,2668],[27,-22]],[[743,2669],[328,-227],[496,-185]],[[673,3522],[-19,-52]],[[657,2580],[-48,-60],[-260,-113],[-31,-50]],[[318,2358],[33,50],[166,62],[45,24],[47,25],[28,26]],[[638,2547],[5,5]],[[650,2560],[4,5]],[[692,2631],[-8,-6]],[[733,2784],[-1,54]],[[759,2878],[40,29]],[[677,2636],[-25,26]],[[552,2632],[-1,0]],[[804,3716],[-4,-3]],[[825,3732],[-21,-16]],[[68,1790],[14,38]],[[553,2683],[0,1]],[[1338,3764],[-1,10]],[[298,2401],[19,-42]],[[316,2354],[-68,-114],[-9,-15],[-7,-18],[-27,-88],[113,239],[-14,51]],[[314,2429],[29,35],[-29,-35]],[[887,3847],[41,72],[-41,-61]],[[1336,3933],[0,2]],[[1340,3813]],[[1371,4011],[1,1]],[[894,3869],[2,2]],[[917,3880],[77,-101],[17,-80],[-36,-55],[73,32],[8,-204],[-66,-84],[50,-84]],[[607,2679],[-19,-4]],[[830,3730],[-5,2]],[[1295,3674],[22,27]],[[1286,3663],[2,3]],[[553,2680],[2,-25]],[[555,2656],[-2,24]],[[683,2623],[-9,-15]],[[646,2664],[-39,15]],[[755,2712],[-1,3]],[[546,2684],[-1,-3]],[[887,3858],[0,-11]],[[318,2357],[0,1]],[[923,3918]],[[448,2623],[-13,25]],[[555,2655],[-4,-24]],[[742,2674],[1,-5]],[[1252,3652],[34,11]],[[1317,3701],[12,18]],[[1288,3666],[6,7]],[[658,2580],[17,29]],[[683,2623],[1,2]],[[754,2715],[-20,48]],[[547,2625],[-8,-9]],[[539,2615],[9,10]],[[317,2359],[-1,-5]],[[82,1828],[-82,-265]],[[205,2119],[-113,-253]],[[431,2623],[-106,-39],[18,-120]],[[455,2983],[37,-18],[-41,-75],[7,-184]],[[604,3328],[-3,-10]],[[654,3470],[-47,-135]],[[678,3537],[0,-1]],[[753,3654],[-21,-14]],[[861,3761],[-23,-34]],[[966,3963],[-38,-44]],[[1027,4096],[-59,-129]],[[662,3719],[74,31],[58,-20]],[[794,3730],[9,-14]],[[804,3716],[-10,14]],[[654,2565],[4,15]],[[684,2625],[8,6]],[[1894,223],[-61,-19],[-81,33],[-75,53],[-44,41],[13,30],[0,29],[-11,26],[-20,23],[217,0],[0,-20],[-5,-12],[-10,-26],[-4,-32],[10,-29],[52,-39],[22,-27],[-3,-31]],[[1628,2194],[-1,-12],[-8,2],[-20,0],[-10,3],[-5,6],[-29,11],[-31,55],[-15,46],[6,7],[111,8],[12,-7],[8,-21],[-8,-44],[-10,-17],[-4,-19],[4,-18]],[[0,4096],[1368,0],[-11,-84],[1,-112],[-11,-106],[-53,-110],[-23,-24],[-54,-38],[-23,-25],[-12,-25],[-18,-64],[-53,-93],[-33,-144],[-23,-65],[-114,-164],[-14,-30],[-154,-130],[-37,-42],[-5,-29],[7,-70],[-2,-31],[-13,-35],[-24,-39],[-53,-67],[-52,-49],[-178,-119],[-120,-131],[-29,-16],[-24,-30],[-58,-149],[-29,-56],[-89,-111],[-36,-66],[-21,-137],[-10,-36],[0,2427]],[[0,2964],[71,-11],[-13,-26],[95,-118],[-53,-82],[-53,-39],[-27,16],[-9,-24],[-11,284]],[[614,2764],[49,149],[52,75],[89,94],[103,38],[34,82],[133,137],[45,490],[43,-6],[21,-51],[46,21],[-25,81],[86,77],[-125,-13],[22,76],[31,23],[8,59],[208,0],[-54,-97],[5,-72],[-45,-1],[11,-26],[18,12],[-19,-165],[76,-14],[-61,-65],[-125,-39],[-134,-349],[-97,-107],[-95,-199],[-49,-64],[-76,-3],[-53,-51],[-10,-50],[37,-122],[-70,-53],[-37,12],[-42,121]],[[158,2815],[62,-6],[54,-82],[-23,-38],[-66,17],[-27,109]],[[395,3753],[101,100],[11,-38],[58,60],[61,10],[-6,-34],[43,-44],[-28,-51],[-82,18],[-85,-37],[-73,16]],[[1015,3878],[59,116],[93,-59],[123,18],[-84,-75],[24,-81],[-37,-24],[-101,95],[-77,10]],[[0,2681],[21,24],[25,-17],[63,-148],[-86,-97],[1,-58],[44,-41],[3,-42],[-69,-42],[-2,421]],[[72,2303],[32,68],[-28,50],[59,36],[25,-65],[35,-20],[-123,-69]],[[654,2646],[32,-26],[-127,-123],[-120,74],[-11,75],[129,35],[0,70],[52,-2],[45,-103]],[[554,4096],[8,-59],[-72,3],[-38,32],[-44,-15],[-17,-170],[76,-59],[-20,-28],[-108,46],[-31,66],[-30,4],[23,15],[-22,20],[33,27],[-66,20],[-28,-21],[-14,-80],[83,-66],[-19,-43],[132,-37],[-4,-29],[42,-46],[63,-7],[-35,-25],[50,-40],[-35,-11],[14,-28],[-36,-21],[4,-34],[-56,21],[5,-83],[-132,31],[-10,28],[-45,-2],[-28,35],[-27,-23],[-28,37],[-26,-8],[2,-92],[-36,-28],[35,-86],[-49,-77],[2,-53],[78,-109],[-21,-80],[17,-36],[-59,-75],[-27,17],[6,32],[-64,5],[0,1132],[554,0]]]}