{"objects":{"water":{"type":"GeometryCollection","geometries":[{"type":"Polygon","properties":{"source":"naturalearthdata.com","kind":"lake","name":"Laguna de Bay","area":974057600,"sort_rank":200,"min_zoom":0.0,"id":691},"arcs":[[92]]},{"type":"MultiPolygon","properties":{"source":"naturalearthdata.com","kind":"ocean","area":1576712559132672,"sort_rank":200,"min_zoom":0.0,"id":1},"arcs":[[[93],[94],[95],[96],[97],[98],[99]],[[100]],[[101]]]},{"type":"Polygon","properties":{"source":"naturalearthdata.com","kind":"lake","name":"Lake Taal","area":128287056,"sort_rank":200,"min_zoom":0.0,"id":806},"arcs":[[102]]},{"type":"Point","properties":{"label_placement":true,"kind":"lake","name":"Laguna de Bay","area":974057600,"sort_rank":200,"source":"naturalearthdata.com","min_zoom":0.0,"id":691},"coordinates":[787,1286]},{"type":"Point","properties":{"label_placement":true,"kind":"lake","name":"Lake Taal","area":128287056,"sort_rank":200,"source":"naturalearthdata.com","min_zoom":0.0,"id":806},"coordinates":[160,303]},{"type":"MultiLineString","properties":{"source":"naturalearthdata.com","kind":"ocean","sort_rank":205,"boundary":true,"min_zoom":0.0,"id":36},"arcs":[[103],[104],[105],[106],[107]]},{"type":"LineString","properties":{"source":"naturalearthdata.com","kind":"lake","sort_rank":367,"boundary":true,"min_zoom":0.0,"id":691},"arcs":[108]},{"type":"MultiLineString","properties":{"source":"naturalearthdata.com","kind":"lake","sort_rank":367,"boundary":true,"min_zoom":0.0,"id":806},"arcs":[[109],[110]]},{"type":"LineString","properties":{"source":"naturalearthdata.com","kind":"ocean","sort_rank":205,"boundary":true,"min_zoom":0.0,"id":2368},"arcs":[111]},{"type":"LineString","properties":{"source":"naturalearthdata.com","kind":"ocean","sort_rank":205,"boundary":true,"min_zoom":0.0,"id":2369},"arcs":[112]},{"type":"LineString","properties":{"source":"naturalearthdata.com","kind":"ocean","sort_rank":205,"boundary":true,"min_zoom":0.0,"id":2370},"arcs":[113]},{"type":"LineString","properties":{"source":"naturalearthdata.com","kind":"ocean","sort_rank":205,"boundary":true,"min_zoom":0.0,"id":3558},"arcs":[114]}]},"buildings":{"type":"GeometryCollection","geometries":[]},"places":{"type":"GeometryCollection","geometries":[{"type":"Point","properties":{"kind":"region","name":"Rizal","kind_detail":"state","name:eo":"Rizalo","source":"openstreetmap.org","min_zoom":4.0,"name:ru":"\u0420\u0438\u0441\u0430\u043b\u044c","id":305704505},"coordinates":[910,2187]},{"type":"Point","properties":{"kind":"region","name":"Bulacan","kind_detail":"state","name:eo":"Bulakano","source":"openstreetmap.org","min_zoom":4.0,"name:tl":"Bulakan","name:ru":"\u0411\u0443\u043b\u0430\u043a\u0430\u043d","id":305704584,"name:ja":"\u30d6\u30e9\u30ab\u30f3"},"coordinates":[425,3241]},{"type":"Point","properties":{"kind":"region","name":"Laguna","kind_detail":"state","name:eo":"Laguno","source":"openstreetmap.org","min_zoom":4.0,"name:ru":"\u041b\u0430\u0433\u0443\u043d\u0430","name:hu":"Isabela","id":305704424,"name:ja":"\u30e9\u30b0\u30ca"},"coordinates":[1154,741]},{"type":"Point","properties":{"kind":"locality","name":"Quezon City","kind_detail":"city","name:tl":"Lungsod Quezon","source":"openstreetmap.org","min_zoom":8.0,"name:uk":"\u041a\u0435\u0441\u043e\u043d-\u0421\u0456\u0442\u0456","name:kn":"\u0c95\u0cc7\u0c9c\u0cca\u0ca8\u0ccd","name:ru":"\u041a\u0435\u0441\u043e\u043d-\u0421\u0438\u0442\u0438","population":2761720,"name:ja":"\u30b1\u30bd\u30f3","id":14446670,"name:af":"Quezon Stad"},"coordinates":[324,2190]},{"type":"Point","properties":{"name:ps":"\u0645\u0627\u0646\u064a\u0644\u0627","name:ka":"\u10db\u10d0\u10dc\u10d8\u10da\u10d0","name:mr":"\u092e\u0928\u093f\u0932\u093e","name:ko":"\ub9c8\ub2d0\ub77c","name:kn":"\u0cae\u0ca8\u0cbf\u0cb2","name:ar":"\u0645\u0627\u0646\u064a\u0644\u0627","name:kk":"\u041c\u0430\u043d\u0438\u043b\u0430","name:is":"Man\u00edla","name:am":"\u121b\u1292\u120b","name:tl":"Maynila","name:ml":"\u0d2e\u0d28\u0d3f\u0d32","name:os":"\u041c\u0430\u043d\u0438\u043b\u00e6","name:ru":"\u041c\u0430\u043d\u0438\u043b\u0430","name:ta":"\u0bae\u0ba3\u0bbf\u0bb2\u0bbe","name:tg":"\u041c\u0430\u043d\u0438\u043b\u0430","name:mk":"\u041c\u0430\u043d\u0438\u043b\u0430","name:vo":"Maynila","name:fa":"\u0645\u0627\u0646\u06cc\u0644","name:mn":"\u041c\u0430\u043d\u0438\u043b\u0430","kind_detail":"city","kind":"locality","id":198493613,"source":"openstreetmap.org","name:fr":"Manille","name:zh-yue":"\u99ac\u5c3c\u62c9","name:fy":"Manilla","name:zh":"\u9a6c\u5c3c\u62c9","admin_level":"2","name:nl":"Manilla","name:ja":"\u30de\u30cb\u30e9","name:si":"\u0db8\u0dd0\u0db1\u0dd2\u0dbd\u0dcf","name:hi":"\u092e\u0928\u0940\u0932\u093e","name:my":"\u1019\u1014\u102e\u101c\u102c\u1019\u103c\u102d\u102f\u1037","name:he":"\u05de\u05e0\u05d9\u05dc\u05d4","min_zoom":8.0,"name:eo":"Manilo","name:ur":"\u0645\u0646\u06cc\u0644\u0627","name:bn":"\u09ae\u09cd\u09af\u09be\u09a8\u09bf\u09b2\u09be","name:bo":"\u0f58\u0f0b\u0f53\u0f72\u0f0b\u0f63\u0f0d","name:uk":"\u041c\u0430\u043d\u0456\u043b\u0430","name:hy":"\u0544\u0561\u0576\u056b\u056c\u0561","country_capital":true,"name:be":"\u041c\u0430\u043d\u0456\u043b\u0430","name:ug":"\u0645\u0627\u0646\u0649\u0644\u0627","name:bg":"\u041c\u0430\u043d\u0438\u043b\u0430","name:sr":"\u041c\u0430\u043d\u0438\u043b\u0430","population":1780148,"name:el":"\u039c\u03b1\u03bd\u03af\u03bb\u03b1","name:ga":"Mainile","name":"Manila","name:ht":"Manyl","name:mg":"Manille","name:th":"\u0e21\u0e30\u0e19\u0e34\u0e25\u0e32"},"coordinates":[124,2008]},{"type":"Point","properties":{"admin_level":"4","kind":"locality","name":"Antipolo","kind_detail":"city","source":"openstreetmap.org","min_zoom":8.0,"name:ru":"\u0410\u043d\u0442\u0438\u043f\u043e\u043b\u043e","population":776386,"id":165952298,"name:ja":"\u30a2\u30f3\u30c6\u30a3\u30dd\u30ed"},"coordinates":[694,1998]},{"type":"Point","properties":{"kind":"locality","name":"Pasig","kind_detail":"city","source":"openstreetmap.org","min_zoom":8.0,"name:ru":"\u041f\u0430\u0441\u0438\u0433","population":669773,"id":953773702,"name:ja":"\u30d1\u30b7\u30c3\u30b0"},"coordinates":[405,1918]},{"type":"Point","properties":{"kind":"locality","name":"Taguig","kind_detail":"city","source":"openstreetmap.org","min_zoom":8.0,"name:ru":"\u0422\u0430\u0433\u0438\u0433","population":644473,"id":198499895,"name:ja":"\u30bf\u30ae\u30c3\u30b0"},"coordinates":[399,1816]},{"type":"Point","properties":{"kind":"locality","name":"Makati","kind_detail":"city","official_name":"City of Makati","source":"openstreetmap.org","min_zoom":8.0,"name:ru":"\u041c\u0430\u043a\u0430\u0442\u0438","population":609123,"id":255066773,"name:ja":"\u30de\u30ab\u30c6\u30a3"},"coordinates":[251,1907]},{"type":"Point","properties":{"kind":"locality","name":"Bacoor","kind_detail":"city","source":"openstreetmap.org","min_zoom":8.0,"population":600609,"id":198502170,"name:ja":"\u30d0\u30b3\u30fc\u30eb"},"coordinates":[8,1614]},{"type":"Point","properties":{"kind":"locality","name:en":"Paranaque","name":"Para\u00f1aque","kind_detail":"city","source":"openstreetmap.org","min_zoom":8.0,"name:ru":"\u041f\u0430\u0440\u0430\u043d\u0430\u043a","population":588126,"id":198498978,"name:ja":"\u30d1\u30e9\u30cb\u30e3\u30fc\u30b1"},"coordinates":[157,1738]},{"type":"Point","properties":{"kind":"locality","name":"San Jose del Monte","kind_detail":"city","source":"openstreetmap.org","min_zoom":8.0,"name:ru":"\u0421\u0430\u043d-\u0425\u043e\u0441\u0435-\u0434\u0435\u043b\u044c-\u041c\u043e\u043d\u0442\u0435","population":574089,"id":198529093,"name:ja":"\u30b5\u30f3\u30fb\u30db\u30bb\u30fb\u30c7\u30eb\u30fb\u30e2\u30f3\u30c6\u30a3"},"coordinates":[325,2672]},{"type":"Point","properties":{"kind":"locality","name:en":"Las Pinas","name":"Las Pi\u00f1as","kind_detail":"city","source":"openstreetmap.org","min_zoom":8.0,"name:ru":"\u041b\u0430\u0441-\u041f\u0438\u043d\u044c\u044f\u0441","population":552573,"id":198515803,"name:ja":"\u30e9\u30b9\u30d4\u30cb\u30e3\u30b9"},"coordinates":[129,1677]},{"type":"Point","properties":{"kind":"locality","name":"Muntinlupa","kind_detail":"city","official_name":"City of Muntinlupa","source":"openstreetmap.org","min_zoom":8.0,"name:ru":"\u041c\u0443\u043d\u0442\u0438\u043d\u043b\u0443\u043f\u0430","population":459941,"id":198526387,"name:ja":"\u30e2\u30f3\u30c6\u30f3\u30eb\u30d1"},"coordinates":[302,1417]},{"type":"Point","properties":{"admin_level":"3","kind":"locality","name":"Calamba","kind_detail":"city","source":"openstreetmap.org","min_zoom":8.0,"population":454486,"id":198520654,"name:es":"Calamb\u00e1","name:ja":"\u30ab\u30e9\u30f3\u30d0"},"coordinates":[670,876]},{"type":"Point","properties":{"kind":"locality","name":"Marikina","kind_detail":"city","source":"openstreetmap.org","min_zoom":8.0,"name:ru":"\u041c\u0430\u0440\u0438\u043a\u0438\u043d\u0430","population":424150,"id":198518477,"name:ja":"\u30de\u30ea\u30ad\u30ca"},"coordinates":[471,2136]},{"type":"Point","properties":{"kind":"locality","name":"Pasay","kind_detail":"city","source":"openstreetmap.org","min_zoom":8.0,"population":416522,"id":255061219,"name:ja":"\u30d1\u30b5\u30a4"},"coordinates":[169,1867]},{"type":"Point","properties":{"kind":"locality","name":"Mandaluyong","kind_detail":"city","source":"openstreetmap.org","min_zoom":8.0,"population":386276,"id":198501313,"name:ja":"\u30de\u30f3\u30c0\u30eb\u30fc\u30e8\u30f3"},"coordinates":[280,1969]},{"type":"Point","properties":{"kind":"locality","name":"Malabon","kind_detail":"city","source":"openstreetmap.org","min_zoom":8.0,"population":365525,"id":198507433,"name:ja":"\u30de\u30e9\u30dc\u30f3"},"coordinates":[58,2263]},{"type":"Point","properties":{"kind":"locality","name":"Santa Rosa","kind_detail":"city","source":"openstreetmap.org","min_zoom":8.0,"population":353767,"id":198503203,"name:ja":"\u30b5\u30f3\u30bf\u30fb\u30ed\u30fc\u30b5"},"coordinates":[509,1177]},{"type":"Point","properties":{"kind":"locality","name":"Bi\u00f1an","kind_detail":"city","source":"openstreetmap.org","min_zoom":8.0,"population":333028,"id":198531889,"name:ja":"\u30d3\u30ca\u30f3"},"coordinates":[426,1249]},{"type":"Point","properties":{"kind":"locality","name":"Lipa","kind_detail":"city","source":"openstreetmap.org","min_zoom":8.0,"population":332386,"id":273991971,"name:ja":"\u30ea\u30d1"},"coordinates":[661,54]},{"type":"Point","properties":{"source":"openstreetmap.org","kind":"locality","name":"Cainta","kind_detail":"town","population":332128,"min_zoom":8.0,"id":198527598},"coordinates":[518,1976]},{"type":"Point","properties":{"kind":"locality","name":"San Pedro","kind_detail":"city","source":"openstreetmap.org","min_zoom":8.0,"population":325809,"id":255072060,"name:ja":"\u30b5\u30f3\u30da\u30c9\u30ed"},"coordinates":[337,1325]},{"type":"Point","properties":{"kind":"locality","name":"Cabuyao","kind_detail":"city","source":"openstreetmap.org","min_zoom":8.0,"population":308745,"id":198491286,"name:ja":"\u30ab\u30d0\u30e4\u30aa"},"coordinates":[542,1072]},{"type":"Point","properties":{"admin_level":"4","kind":"locality","name":"Lucena","kind_detail":"city","source":"openstreetmap.org","min_zoom":8.0,"population":266248,"id":272327246,"name:ja":"\u30eb\u30bb\u30ca"},"coordinates":[1971,8]},{"type":"Point","properties":{"kind":"locality","name":"San Pablo","kind_detail":"city","source":"openstreetmap.org","min_zoom":8.0,"name:ru":"\u0421\u0430\u043d-\u041f\u0430\u0431\u043b\u043e","population":266068,"id":269470262,"name:ja":"\u30b5\u30f3\u30fb\u30d1\u30d6\u30ed"},"coordinates":[1130,441]},{"type":"Point","properties":{"source":"openstreetmap.org","kind":"locality","name":"Binangonan","kind_detail":"town","population":249872,"min_zoom":8.0,"id":198511996},"coordinates":[742,1631]},{"type":"Point","properties":{"kind":"locality","name":"Navotas","kind_detail":"city","source":"openstreetmap.org","min_zoom":8.0,"population":249463,"id":198522729,"name:ja":"\u30ca\u30dc\u30bf\u30b9"},"coordinates":[30,2208]},{"type":"Point","properties":{"source":"openstreetmap.org","kind":"locality","name":"Silang","kind_detail":"town","population":213490,"min_zoom":8.0,"id":198510139},"coordinates":[107,904]},{"type":"Point","properties":{"kind":"locality","name":"Meycauayan","kind_detail":"city","source":"openstreetmap.org","min_zoom":8.0,"population":209083,"id":198496059,"name:ja":"\u30e1\u30a4\u30ab\u30a6\u30a2\u30e4\u30f3"},"coordinates":[57,2441]},{"type":"Point","properties":{"source":"openstreetmap.org","kind":"locality","name":"Marilao","kind_detail":"town","population":185624,"min_zoom":8.0,"id":198514191},"coordinates":[29,2508]},{"type":"Point","properties":{"kind":"locality","name":"Tanauan","kind_detail":"city","source":"openstreetmap.org","min_zoom":8.0,"population":152393,"id":198523357,"name:ja":"\u30bf\u30ca\u30a6\u30a2\u30f3"},"coordinates":[627,487]},{"type":"Point","properties":{"source":"openstreetmap.org","kind":"locality","name":"Sariaya","kind_detail":"town","population":138894,"min_zoom":8.0,"id":198524516},"coordinates":[1709,119]},{"type":"Point","properties":{"kind":"locality","name":"General Mariano Alvarez","short_name":"GMA","kind_detail":"town","source":"openstreetmap.org","min_zoom":8.0,"id":255065222,"population":138540},"coordinates":[202,1129]},{"type":"Point","properties":{"source":"openstreetmap.org","kind":"locality","name":"Santo Tomas","kind_detail":"town","population":124740,"min_zoom":8.0,"id":198512298},"coordinates":[653,552]},{"type":"Point","properties":{"kind":"locality","name":"San Juan","kind_detail":"city","source":"openstreetmap.org","min_zoom":8.0,"old_name":"San Juan del Monte","population":121430,"id":198502895,"name:ja":"\u30b5\u30f3\u30d5\u30a2\u30f3"},"coordinates":[270,2051]},{"type":"Point","properties":{"admin_level":"4","kind":"locality","name":"Santa Cruz","kind_detail":"town","source":"openstreetmap.org","min_zoom":8.0,"population":117605,"id":292205897,"alt_name:tl":"Munisipalidad ng Santa Cruz","name:ja":"\u30b5\u30f3\u30bf\u30af\u30eb\u30b9"},"coordinates":[1391,1078]},{"type":"Point","properties":{"kind":"locality","name":"Los Ba\u00f1os","kind_detail":"town","source":"openstreetmap.org","min_zoom":8.0,"id":198495897,"alt_name:tl":"Munisipalidad ng Los Ba\u00f1os","population":112008},"coordinates":[827,765]},{"type":"Point","properties":{"source":"openstreetmap.org","kind":"locality","name":"Candelaria","kind_detail":"town","population":110570,"min_zoom":8.0,"id":198497474},"coordinates":[1413,30]},{"type":"Point","properties":{"source":"openstreetmap.org","kind":"locality","name":"Norzagaray","kind_detail":"town","population":103095,"min_zoom":8.0,"id":198531056},"coordinates":[318,2961]},{"type":"Point","properties":{"source":"openstreetmap.org","kind":"locality","name":"Tanay","kind_detail":"town","population":98879,"min_zoom":8.0,"id":255070173},"coordinates":[1014,1731]},{"type":"Point","properties":{"source":"openstreetmap.org","kind":"locality","name":"Tiaong","kind_detail":"town","population":91599,"min_zoom":8.0,"id":198512936},"coordinates":[1122,108]},{"type":"Point","properties":{"kind":"locality","name":"Tayabas","kind_detail":"city","source":"openstreetmap.org","min_zoom":8.0,"population":91428,"id":198498395,"name:ja":"\u30bf\u30e4\u30d0\u30b9"},"coordinates":[1906,310]},{"type":"Point","properties":{"kind":"locality","name":"Calauan","kind_detail":"town","source":"openstreetmap.org","min_zoom":8.0,"id":198516657,"alt_name:tl":"Munisipalidad ng Calauan","population":80453},"coordinates":[1100,668]},{"type":"Point","properties":{"source":"openstreetmap.org","kind":"locality","name":"Calauag","kind_detail":"town","population":78448,"min_zoom":8.0,"id":198514162},"coordinates":[3934,101]},{"type":"Point","properties":{"source":"openstreetmap.org","kind":"locality","name":"Carmona","kind_detail":"town","population":74986,"min_zoom":8.0,"id":198505154},"coordinates":[345,1181]},{"type":"Point","properties":{"source":"openstreetmap.org","kind":"locality","name":"Infanta","kind_detail":"town","population":64818,"min_zoom":8.0,"id":198498214},"coordinates":[2067,2476]},{"type":"Point","properties":{"source":"openstreetmap.org","kind":"locality","name":"Pateros","kind_detail":"town","population":64147,"min_zoom":8.0,"id":198518211},"coordinates":[375,1869]},{"type":"Point","properties":{"source":"openstreetmap.org","kind":"locality","name":"Atimonan","kind_detail":"town","population":63432,"min_zoom":8.0,"id":198494720},"coordinates":[2864,227]},{"type":"Point","properties":{"kind":"locality","name":"Nagcarlan","kind_detail":"town","source":"openstreetmap.org","min_zoom":8.0,"id":198501184,"alt_name:tl":"Munisipalidad ng Nagcarlan","population":63057},"coordinates":[1384,642]},{"type":"Point","properties":{"kind":"locality","name":"Bay","kind_detail":"town","source":"openstreetmap.org","min_zoom":8.0,"id":1485552146,"alt_name:tl":"Munisipalidad ng Bay","population":62143},"coordinates":[1011,775]},{"type":"Point","properties":{"kind":"locality","name":"Tagaytay","kind_detail":"city","source":"openstreetmap.org","min_zoom":8.0,"population":62030,"id":283347803,"name:ja":"\u30bf\u30ac\u30a4\u30bf\u30a4"},"coordinates":[76,577]},{"type":"Point","properties":{"source":"openstreetmap.org","kind":"locality","name":"Mauban","kind_detail":"town","population":61141,"min_zoom":8.0,"id":198506081},"coordinates":[2304,815]},{"type":"Point","properties":{"source":"openstreetmap.org","kind":"locality","name":"Pililla","kind_detail":"town","population":59527,"min_zoom":8.0,"id":198516078},"coordinates":[1078,1679]},{"type":"Point","properties":{"source":"openstreetmap.org","kind":"locality","name":"Angat","kind_detail":"town","population":55332,"min_zoom":8.0,"id":198512413},"coordinates":[275,3038]},{"type":"Point","properties":{"source":"openstreetmap.org","kind":"locality","name":"Morong","kind_detail":"town","population":52194,"min_zoom":8.0,"id":198516021},"coordinates":[876,1781]},{"type":"Point","properties":{"kind":"locality","name":"Pila","kind_detail":"town","source":"openstreetmap.org","min_zoom":8.0,"id":198513234,"alt_name:tl":"Munisipalidad ng Pila","population":50289},"coordinates":[1236,945]},{"type":"Point","properties":{"kind":"locality","name":"Alaminos","kind_detail":"town","source":"openstreetmap.org","min_zoom":8.0,"id":198530335,"alt_name:tl":"Munisipalidad ng Alaminos","population":47859},"coordinates":[904,415]},{"type":"Point","properties":{"source":"openstreetmap.org","kind":"locality","name":"Cardona","kind_detail":"town","population":47414,"min_zoom":8.0,"id":198497211},"coordinates":[853,1690]},{"type":"Point","properties":{"source":"openstreetmap.org","kind":"locality","name":"Lucban","kind_detail":"town","population":46698,"min_zoom":8.0,"id":198505290},"coordinates":[1798,575]},{"type":"Point","properties":{"source":"openstreetmap.org","kind":"locality","name":"Malvar","kind_detail":"town","population":45952,"min_zoom":8.0,"id":198524156},"coordinates":[633,394]},{"type":"Point","properties":{"kind":"locality","name":"Pagsanjan","kind_detail":"town","source":"openstreetmap.org","min_zoom":8.0,"old_name":"Pinagsangahan","id":198511695,"alt_name:tl":"Munisipalidad ng Pagsanjan","population":42164},"coordinates":[1504,1052]},{"type":"Point","properties":{"source":"openstreetmap.org","kind":"locality","name":"Talisay","kind_detail":"town","population":39600,"min_zoom":8.0,"id":198523904},"coordinates":[246,515]},{"type":"Point","properties":{"kind":"locality","name":"Victoria","kind_detail":"town","source":"openstreetmap.org","min_zoom":8.0,"id":198503526,"alt_name:tl":"Munisipalidad ng Victoria","population":39321},"coordinates":[1131,924]},{"type":"Point","properties":{"kind":"locality","name":"Siniloan","kind_detail":"town","source":"openstreetmap.org","min_zoom":8.0,"id":198506046,"alt_name:tl":"Munisipalidad ng Siniloan","population":38067},"coordinates":[1476,1499]},{"type":"Point","properties":{"kind":"locality","name":"Liliw","kind_detail":"town","source":"openstreetmap.org","min_zoom":8.0,"old_name":"Lilio","id":198502346,"alt_name:tl":"Munisipalidad ng Liliw","population":36582},"coordinates":[1454,624]},{"type":"Point","properties":{"source":"openstreetmap.org","kind":"locality","name":"Real","kind_detail":"town","population":35189,"min_zoom":8.0,"id":198495534},"coordinates":[1940,2234]},{"type":"Point","properties":{"source":"openstreetmap.org","kind":"locality","name":"Baras","kind_detail":"town","population":32609,"min_zoom":8.0,"id":198493077},"coordinates":[956,1801]},{"type":"Point","properties":{"kind":"locality","name":"Santa Maria","kind_detail":"town","source":"openstreetmap.org","min_zoom":8.0,"id":198496562,"alt_name:tl":"Munisipalidad ng Santa Maria","population":30830},"coordinates":[1415,1652]},{"type":"Point","properties":{"kind":"locality","name":"Lumban","kind_detail":"town","source":"openstreetmap.org","min_zoom":8.0,"id":198500994,"alt_name:tl":"Munisipalidad ng Lumban","population":30652},"coordinates":[1519,1126]},{"type":"Point","properties":{"source":"openstreetmap.org","kind":"locality","name":"Jalajala","kind_detail":"town","population":30074,"min_zoom":8.0,"id":198520514},"coordinates":[1128,1298]},{"type":"Point","properties":{"source":"openstreetmap.org","kind":"locality","name":"Polillo","kind_detail":"town","population":28125,"min_zoom":8.0,"id":198501487},"coordinates":[2914,2394]},{"type":"Point","properties":{"kind":"locality","name":"Majayjay","kind_detail":"town","source":"openstreetmap.org","min_zoom":8.0,"id":198531005,"alt_name:tl":"Munisipalidad ng Majayjay","population":27792},"coordinates":[1558,669]},{"type":"Point","properties":{"source":"openstreetmap.org","kind":"locality","name":"Dolores","kind_detail":"town","population":27702,"min_zoom":8.0,"id":198496485},"coordinates":[1350,278]},{"type":"Point","properties":{"source":"openstreetmap.org","kind":"locality","name":"Mataasnakahoy","kind_detail":"town","population":27177,"min_zoom":8.0,"id":198521807},"coordinates":[513,118]},{"type":"Point","properties":{"source":"openstreetmap.org","kind":"locality","name":"General Nakar","kind_detail":"town","population":25973,"min_zoom":8.0,"id":198526134},"coordinates":[2031,2535]},{"type":"Point","properties":{"kind":"locality","name":"Magdalena","kind_detail":"town","source":"openstreetmap.org","min_zoom":8.0,"id":198502119,"alt_name:tl":"Munisipalidad ng Magdalena","population":25266},"coordinates":[1432,832]},{"type":"Point","properties":{"kind":"locality","name":"Paete","kind_detail":"town","source":"openstreetmap.org","min_zoom":8.0,"id":198500130,"alt_name:tl":"Munisipalidad ng Paete","population":25096},"coordinates":[1585,1327]},{"type":"Point","properties":{"kind":"locality","name":"Pangil","kind_detail":"town","source":"openstreetmap.org","min_zoom":8.0,"name:tl":"Pakil","id":198500563,"alt_name:tl":"Munisipalidad ng Pangil","population":24274},"coordinates":[1545,1443]},{"type":"Point","properties":{"source":"openstreetmap.org","kind":"locality","name":"Burdeos","kind_detail":"town","population":24166,"min_zoom":8.0,"id":198511510},"coordinates":[3012,2777]},{"type":"Point","properties":{"kind":"locality","name":"Kalayaan","kind_detail":"town","source":"openstreetmap.org","min_zoom":8.0,"id":701678239,"alt_name:tl":"Munisipalidad ng Kalayaan","population":23269},"coordinates":[1575,1212]},{"type":"Point","properties":{"kind":"locality","name":"Cavinti","kind_detail":"town","source":"openstreetmap.org","min_zoom":8.0,"id":198496813,"alt_name:tl":"Munisipalidad ng Cavinti","population":21702},"coordinates":[1659,969]},{"type":"Point","properties":{"kind":"locality","name":"Pakil","kind_detail":"town","source":"openstreetmap.org","min_zoom":8.0,"id":1276672953,"alt_name:tl":"Munisipalidad ng Pakil","population":20659},"coordinates":[1576,1377]},{"type":"Point","properties":{"source":"openstreetmap.org","kind":"locality","name":"San Nicolas","kind_detail":"town","population":20599,"min_zoom":8.0,"id":198513147},"coordinates":[43,21]},{"type":"Point","properties":{"kind":"locality","name":"Mabitac","kind_detail":"town","source":"openstreetmap.org","min_zoom":8.0,"id":198512667,"alt_name:tl":"Munisipalidad ng Mabitac","population":20530},"coordinates":[1423,1516]},{"type":"Point","properties":{"source":"openstreetmap.org","kind":"locality","name":"Balete","kind_detail":"town","population":20214,"min_zoom":8.0,"id":198505140},"coordinates":[460,283]},{"type":"Point","properties":{"source":"openstreetmap.org","kind":"locality","name":"Do\u00f1a Remedios Trinidad","kind_detail":"town","population":19878,"min_zoom":8.0,"id":198491347},"coordinates":[367,3157]},{"type":"Point","properties":{"kind":"locality","name":"Luisiana","kind_detail":"town","source":"openstreetmap.org","min_zoom":8.0,"id":198498613,"alt_name:tl":"Munisipalidad ng Luisiana","population":19720},"coordinates":[1666,788]},{"type":"Point","properties":{"kind":"locality","name":"Rizal","kind_detail":"town","source":"openstreetmap.org","min_zoom":8.0,"id":198503369,"alt_name:tl":"Munisipalidad ng Rizal","population":17253},"coordinates":[1328,574]},{"type":"Point","properties":{"kind":"locality","name":"Famy","kind_detail":"town","source":"openstreetmap.org","min_zoom":8.0,"id":198503954,"alt_name:tl":"Munisipalidad ng Famy","population":16587},"coordinates":[1484,1555]},{"type":"Point","properties":{"source":"openstreetmap.org","kind":"locality","name":"Quezon","kind_detail":"town","population":15228,"min_zoom":8.0,"id":198506465},"coordinates":[3626,254]},{"type":"Point","properties":{"source":"openstreetmap.org","kind":"locality","name":"Patnanungan","kind_detail":"town","population":13865,"min_zoom":8.0,"id":198503257},"coordinates":[3730,2508]},{"type":"Point","properties":{"source":"openstreetmap.org","kind":"locality","name":"Sampaloc","kind_detail":"town","population":13107,"min_zoom":8.0,"id":449553877},"coordinates":[2041,715]},{"type":"Point","properties":{"source":"openstreetmap.org","kind":"locality","name":"Panukulan","kind_detail":"town","population":12511,"min_zoom":8.0,"id":198499546},"coordinates":[2555,3039]},{"type":"Point","properties":{"kind":"locality","name":"Valenzuela","kind_detail":"city","source":"openstreetmap.org","min_zoom":8.0,"name:ru":"\u0412\u0430\u043b\u0435\u043d\u0441\u0443\u044d\u043b\u0430","population":620,"id":255062020,"name:ja":"\u30f4\u30a1\u30ec\u30f3\u30ba\u30a8\u30e9"},"coordinates":[25,2361]}]},"transit":{"type":"GeometryCollection","geometries":[{"type":"LineString","properties":{"kind":"train","name":"PNR Metro Commuter Line : Alabang - Tutuban","sort_rank":275,"colour":"orange","source":"openstreetmap.org","min_zoom":6.0,"operator":"Philippine National Railways","id":-6686324,"osm_relation":true,"colour_name":"orange"},"arcs":[20]},{"type":"MultiLineString","properties":{"kind":"train","name":"Mayon Limited","source":"openstreetmap.org","roundtrip":"yes","sort_rank":275,"min_zoom":6.0,"operator":"Philippine National Railways","osm_relation":true},"arcs":[[21],[22],[23],[24],[25]]},{"type":"MultiLineString","properties":{"kind":"subway","name":"MRT Line 3","sort_rank":275,"colour":"#ffcc00","source":"openstreetmap.org","min_zoom":8.0,"network":"Strong Republic Transit System","ref":"3","osm_relation":true,"colour_name":"gold"},"arcs":[[26],[27],[28],[29],[30],[31],[32],[33],[34],[35],[36],[37],[38],[39],[40],[41],[42],[43],[44],[45],[46],[47],[48],[49],[50],[51],[52],[53],[54],[55],[56],[57],[58],[59],[60],[61],[62],[63],[64],[65],[66],[67],[68],[69],[70],[71],[72],[73],[74],[75],[76],[77],[78],[79],[80],[81],[82],[83],[84],[85]]},{"type":"LineString","properties":{"kind":"train","description":"Night service only","sort_rank":275,"colour":"#FF6600","name":"PNR Metro Commuter Line : Tutuban - Calamba","source":"openstreetmap.org","min_zoom":6.0,"osm_relation":true,"operator":"Philippine National Railways","ref":"PNR","id":-660480,"colour_name":"orangered","network":"Strong Republic Transit System"},"arcs":[86]},{"type":"MultiLineString","properties":{"kind":"train","name":"Bicol Express","source":"openstreetmap.org","roundtrip":"yes","sort_rank":275,"min_zoom":6.0,"operator":"Philippine National Railways","osm_relation":true},"arcs":[[87],[88],[89],[90],[91]]}]},"pois":{"type":"GeometryCollection","geometries":[{"type":"Point","properties":{"kind":"nature_reserve","protect_class":"5","short_name":"Marikina Watershed Reservation","area":280890000,"source":"openstreetmap.org","min_zoom":8.22,"tier":2,"id":271805913,"name":"Upper Marikina River Basin Protected Landscape"},"coordinates":[927,2338]}]},"boundaries":{"type":"GeometryCollection","geometries":[{"type":"LineString","properties":{"name:right:ja":"\u30d6\u30e9\u30ab\u30f3","name:left:ja":"\u30d1\u30f3\u30d1\u30f3\u30ac","name:right:ru":"\u0411\u0443\u043b\u0430\u043a\u0430\u043d","name:right:tl":"Bulakan","min_zoom":8.0,"name:left:ru":"\u041f\u0430\u043c\u043f\u0430\u043d\u0433\u0430","id:right":-1504656,"name:right:eo":"Bulakano","id":-1504669,"osm_relation":true,"name:right":"Bulacan","kind":"region","name:left:eo":"Pampango","name":"Pampanga - Bulacan","sort_rank":256,"kind_detail":"4","source":"openstreetmap.org","id:left":-1504669,"name:left":"Pampanga"},"arcs":[0]},{"type":"LineString","properties":{"name:right:ja":"\u30b1\u30bd\u30f3","name:left:ja":"\u30d6\u30e9\u30ab\u30f3","id:right":-1504500,"min_zoom":8.0,"name:left:tl":"Bulakan","name:left:ru":"\u0411\u0443\u043b\u0430\u043a\u0430\u043d","id":-1504656,"osm_relation":true,"name:right":"Quezon","kind":"region","name:left:eo":"Bulakano","name":"Bulacan - Quezon","sort_rank":256,"kind_detail":"4","source":"openstreetmap.org","id:left":-1504656,"name:left":"Bulacan"},"arcs":[1]},{"type":"LineString","properties":{"name:right:ja":"\u30cc\u30a8\u30f4\u30a1\u30fb\u30a8\u30b7\u30cf","name:left:ja":"\u30d6\u30e9\u30ab\u30f3","name:right:ru":"\u041d\u043e\u0432\u0430\u044f \u042d\u0441\u0438\u0445\u0430","min_zoom":8.0,"name:left:tl":"Bulakan","name:left:ru":"\u0411\u0443\u043b\u0430\u043a\u0430\u043d","id:right":-52306,"name:right:eo":"Nova Ekijo","id":-1504656,"osm_relation":true,"name:right":"Nueva Ecija","kind":"region","name:left:eo":"Bulakano","name":"Bulacan - Nueva Ecija","sort_rank":256,"kind_detail":"4","source":"openstreetmap.org","id:left":-1504656,"name:left":"Bulacan"},"arcs":[2]},{"type":"MultiLineString","properties":{"kind":"region","name":"Bulacan","sort_rank":256,"kind_detail":"4","name:eo":"Bulakano","source":"openstreetmap.org","min_zoom":8.0,"name:tl":"Bulakan","name:ru":"\u0411\u0443\u043b\u0430\u043a\u0430\u043d","id":-1504656,"osm_relation":true,"name:ja":"\u30d6\u30e9\u30ab\u30f3"},"arcs":[[3],[4],[5]]},{"type":"LineString","properties":{"kind":"region","name:right:ja":"\u30b1\u30bd\u30f3","name":"Camarines Norte - Quezon","sort_rank":256,"kind_detail":"4","name:left:ja":"\u5317\u30ab\u30de\u30ea\u30cd\u30b9","id:right":-1504500,"source":"openstreetmap.org","min_zoom":8.0,"id:left":-1504550,"name:left":"Camarines Norte","id":-1504550,"osm_relation":true,"name:right":"Quezon"},"arcs":[6]},{"type":"LineString","properties":{"kind":"region","name:right:ja":"\u30b1\u30bd\u30f3","name":"Camarines Norte - Quezon","sort_rank":256,"kind_detail":"4","name:left:ja":"\u5317\u30ab\u30de\u30ea\u30cd\u30b9","min_zoom":8.0,"id:right":-1504500,"source":"openstreetmap.org","maritime_boundary":true,"id:left":-1504550,"name:right":"Quezon","id":-1504550,"osm_relation":true,"name:left":"Camarines Norte"},"arcs":[7]},{"type":"LineString","properties":{"kind":"region","name":"Camarines Norte","sort_rank":256,"kind_detail":"4","min_zoom":8.0,"source":"openstreetmap.org","maritime_boundary":true,"id":-1504550,"osm_relation":true,"name:ja":"\u5317\u30ab\u30de\u30ea\u30cd\u30b9"},"arcs":[8]},{"type":"LineString","properties":{"kind":"region","name:right:ja":"\u30d0\u30bf\u30f3\u30ac\u30b9","name":"Quezon - Batangas","sort_rank":256,"kind_detail":"4","name:left:ja":"\u30b1\u30bd\u30f3","id:right":-1504427,"source":"openstreetmap.org","min_zoom":8.0,"id:left":-1504500,"name:left":"Quezon","id":-1504500,"osm_relation":true,"name:right":"Batangas"},"arcs":[9]},{"type":"MultiLineString","properties":{"kind":"region","name":"Quezon","sort_rank":256,"kind_detail":"4","source":"openstreetmap.org","min_zoom":8.0,"id":-1504500,"osm_relation":true,"name:ja":"\u30b1\u30bd\u30f3"},"arcs":[[10],[11]]},{"type":"MultiLineString","properties":{"kind":"region","name":"Quezon","sort_rank":256,"kind_detail":"4","min_zoom":8.0,"source":"openstreetmap.org","maritime_boundary":true,"id":-1504500,"osm_relation":true,"name:ja":"\u30b1\u30bd\u30f3"},"arcs":[[12],[13],[14]]},{"type":"LineString","properties":{"kind":"region","name:right:ja":"\u30ab\u30f4\u30a3\u30c6","name":"Batangas - Cavite","sort_rank":256,"kind_detail":"4","name:left:ja":"\u30d0\u30bf\u30f3\u30ac\u30b9","id:right":-1503544,"source":"openstreetmap.org","min_zoom":8.0,"id:left":-1504427,"name:left":"Batangas","id":-1504427,"osm_relation":true,"name:right":"Cavite"},"arcs":[15]},{"type":"LineString","properties":{"kind":"region","name":"Batangas","sort_rank":256,"kind_detail":"4","source":"openstreetmap.org","min_zoom":8.0,"id":-1504427,"osm_relation":true,"name:ja":"\u30d0\u30bf\u30f3\u30ac\u30b9"},"arcs":[16]},{"type":"LineString","properties":{"kind":"region","name":"Cavite","sort_rank":256,"kind_detail":"4","source":"openstreetmap.org","min_zoom":8.0,"id":-1503544,"osm_relation":true,"name:ja":"\u30ab\u30f4\u30a3\u30c6"},"arcs":[17]},{"type":"LineString","properties":{"kind":"region","name":"Cavite","sort_rank":256,"kind_detail":"4","min_zoom":8.0,"source":"openstreetmap.org","maritime_boundary":true,"id":-1503544,"osm_relation":true,"name:ja":"\u30ab\u30f4\u30a3\u30c6"},"arcs":[18]},{"type":"LineString","properties":{"kind":"region","name":"Nueva Ecija","sort_rank":256,"kind_detail":"4","name:eo":"Nova Ekijo","source":"openstreetmap.org","min_zoom":8.0,"name:ru":"\u041d\u043e\u0432\u0430\u044f \u042d\u0441\u0438\u0445\u0430","id":-52306,"osm_relation":true,"name:ja":"\u30cc\u30a8\u30f4\u30a1\u30fb\u30a8\u30b7\u30cf"},"arcs":[19]}]},"roads":{"type":"GeometryCollection","geometries":[{"type":"MultiLineString","properties":{"kind":"highway","network":"ph:nhn","sort_rank":383,"landuse_kind":"urban_area","official_name":"Manila-Cavite Expressway","source":"openstreetmap.org","min_zoom":8.0,"all_networks":["ph:nhn",null],"kind_detail":"motorway","loc_name":"Coastal Road","ref":"E4","all_shield_texts":["4","1"],"shield_text":"4"},"arcs":[[115],[116],[117],[118]]},{"type":"MultiLineString","properties":{"kind":"major_road","network":"ph:nhn","sort_rank":380,"kind_detail":"primary","source":"openstreetmap.org","min_zoom":8.0,"nat_name":"MSR Old Route","shield_text":"606","ref":"606"},"arcs":[[119],[120],[121],[122],[123]]},{"type":"MultiLineString","properties":{"bus_network":null,"network":null,"sort_rank":381,"landuse_kind":"urban_area","kind":"major_road","source":"openstreetmap.org","min_zoom":8.0,"bus_shield_text":"Pasay - Dau","shield_text":"4","kind_detail":"trunk"},"arcs":[[124],[125]]},{"type":"MultiLineString","properties":{"kind":"major_road","network":"ph:nhn","sort_rank":380,"kind_detail":"primary","source":"openstreetmap.org","min_zoom":8.0,"shield_text":"67","ref":"67"},"arcs":[[126],[127],[128],[129],[130],[131],[132],[133],[134],[135],[136],[137],[138],[139],[140],[141],[142],[143],[144],[145],[146],[147],[148],[149],[150],[151],[152],[153],[154]]},{"type":"MultiLineString","properties":{"source":"openstreetmap.org","kind":"major_road","old_name":"Andalucia","sort_rank":380,"kind_detail":"primary","min_zoom":8.0},"arcs":[[155],[156]]},{"type":"MultiLineString","properties":{"kind":"major_road","network":"ph:nhn","sort_rank":380,"kind_detail":"primary","source":"openstreetmap.org","min_zoom":8.0,"shield_text":"610","ref":"610"},"arcs":[[157],[158]]},{"type":"LineString","properties":{"kind":"major_road","sort_rank":380,"kind_detail":"primary","source":"openstreetmap.org","min_zoom":8.0,"old_name":"Granada","ref":"184","nat_name":"Ortigas-Granada Rd"},"arcs":[159]},{"type":"MultiLineString","properties":{"source":"openstreetmap.org","kind":"major_road","kind_detail":"trunk","sort_rank":381,"landuse_kind":"urban_area","ref":"184","min_zoom":8.0},"arcs":[[160],[161]]},{"type":"MultiLineString","properties":{"source":"openstreetmap.org","kind":"major_road","old_name":"Levi B. Mariano Avenue","sort_rank":380,"kind_detail":"primary","landuse_kind":"urban_area","min_zoom":8.0},"arcs":[[162],[163]]},{"type":"MultiLineString","properties":{"kind":"major_road","network":"ph:nhn","sort_rank":380,"kind_detail":"primary","source":"openstreetmap.org","min_zoom":8.0,"nat_name":"Manila East Road","shield_text":"601","ref":"601"},"arcs":[[164],[165],[166],[167],[168],[169]]},{"type":"LineString","properties":{"kind":"highway","network":"ph:nhn","sort_rank":383,"kind_detail":"motorway","source":"openstreetmap.org","min_zoom":8.0,"all_networks":["ph:nhn","ph:nhn",null],"nat_name":"Dr. Jose P. Rizal Highway","shield_text":null,"landuse_kind":"urban_area","ref":"E2;AH26","id":145414852,"all_shield_texts":[null,"2","3"]},"arcs":[170]},{"type":"LineString","properties":{"kind":"major_road","sort_rank":380,"landuse_kind":"urban_area","source":"openstreetmap.org","min_zoom":8.0,"kind_detail":"primary","ref":"144","id":27259075},"arcs":[171]},{"type":"LineString","properties":{"source":"openstreetmap.org","kind":"major_road","landuse_kind":"urban_area","sort_rank":380,"kind_detail":"primary","ref":"142","min_zoom":8.0},"arcs":[172]},{"type":"MultiLineString","properties":{"source":"openstreetmap.org","kind":"major_road","kind_detail":"trunk","sort_rank":381,"landuse_kind":"urban_area","ref":"129","min_zoom":8.0},"arcs":[[173],[174]]},{"type":"MultiLineString","properties":{"kind":"major_road","sort_rank":380,"landuse_kind":"urban_area","is_bicycle_related":true,"cycleway":"lane","source":"openstreetmap.org","min_zoom":8.0,"kind_detail":"primary","bicycle_network":"lcn"},"arcs":[[175],[176],[177],[178]]},{"type":"MultiLineString","properties":{"kind":"major_road","network":null,"sort_rank":380,"kind_detail":"primary","source":"openstreetmap.org","min_zoom":8.0,"old_name":"Azcarraga","shield_text":"1","landuse_kind":"urban_area","ref":"145"},"arcs":[[179],[180]]},{"type":"LineString","properties":{"kind":"major_road","network":null,"sort_rank":380,"kind_detail":"primary","source":"openstreetmap.org","min_zoom":8.0,"old_name":"Real","shield_text":"2","landuse_kind":"urban_area","ref":"62"},"arcs":[181]},{"type":"LineString","properties":{"source":"openstreetmap.org","kind":"ferry","name":"Burdeos - Anibawan Bay","sort_rank":355,"min_zoom":8.0,"id":475746292},"arcs":[182]},{"type":"LineString","properties":{"kind":"major_road","network":"ph:nhn","sort_rank":380,"kind_detail":"primary","source":"openstreetmap.org","min_zoom":8.0,"nat_name":"Tayabas-Mainit-Mauban Rd","shield_text":"605","ref":"605"},"arcs":[183]},{"type":"LineString","properties":{"kind":"major_road","network":"ph:nhn","sort_rank":381,"kind_detail":"trunk","is_bicycle_related":true,"source":"openstreetmap.org","min_zoom":8.0,"old_name":"Manila South Road","shield_text":"66","landuse_kind":"urban_area","ref":"66","id":32461024},"arcs":[184]},{"type":"MultiLineString","properties":{"kind":"major_road","network":"ph:nhn","sort_rank":380,"kind_detail":"primary","source":"openstreetmap.org","min_zoom":8.0,"nat_name":"Daang Maharlika (LZ)","shield_text":"606","ref":"606"},"arcs":[[185],[186],[187]]},{"type":"LineString","properties":{"kind":"major_road","network":"ph:nhn","sort_rank":380,"kind_detail":"primary","official_name":"Banaybanay-Mojon-Cuenca Road","source":"openstreetmap.org","min_zoom":8.0,"landuse_kind":"park","shield_text":"433","ref":"433"},"arcs":[188]},{"type":"MultiLineString","properties":{"source":"openstreetmap.org","kind":"major_road","sort_rank":381,"kind_detail":"trunk","ref":"4","min_zoom":8.0},"arcs":[[189],[190]]},{"type":"LineString","properties":{"kind":"major_road","network":null,"sort_rank":381,"kind_detail":"trunk","source":"openstreetmap.org","min_zoom":8.0,"old_name":"Silang Crossing","shield_text":"1","landuse_kind":"park","ref":"410","id":155239864},"arcs":[191]},{"type":"MultiLineString","properties":{"source":"openstreetmap.org","kind":"major_road","kind_detail":"trunk","sort_rank":381,"landuse_kind":"urban_area","is_bicycle_related":true,"min_zoom":8.0},"arcs":[[192],[193]]},{"type":"LineString","properties":{"source":"openstreetmap.org","kind":"ferry","name":"Manila - Corregidor","sort_rank":355,"min_zoom":8.0,"id":387080736},"arcs":[194]},{"type":"LineString","properties":{"source":"openstreetmap.org","kind":"major_road","sort_rank":380,"kind_detail":"primary","ref":"320","min_zoom":8.0},"arcs":[195]},{"type":"MultiLineString","properties":{"kind":"major_road","sort_rank":379,"landuse_kind":"urban_area","is_bicycle_related":true,"bicycle_shield_text":null,"bicycle_network":"ncn","source":"openstreetmap.org","min_zoom":8.0,"kind_detail":"secondary"},"arcs":[[196],[197],[198],[199],[200],[201],[202],[203],[204],[205]]},{"type":"MultiLineString","properties":{"kind":"major_road","network":"ph:national","sort_rank":381,"kind_detail":"trunk","source":"openstreetmap.org","min_zoom":8.0,"shield_text":"65","ref":"65"},"arcs":[[206],[207],[208],[209],[210]]},{"type":"LineString","properties":{"source":"openstreetmap.org","kind":"ferry","name":"Manila - Dumaguete","sort_rank":355,"min_zoom":8.0,"id":475605864},"arcs":[211]},{"type":"LineString","properties":{"kind":"major_road","sort_rank":380,"kind_detail":"primary","source":"openstreetmap.org","min_zoom":8.0,"old_name":"Gen Trias - Amadeo - Tagaytay Road","landuse_kind":"park","id":79080854},"arcs":[212]},{"type":"LineString","properties":{"source":"openstreetmap.org","kind":"ferry","sort_rank":355,"landuse_kind":"urban_area","min_zoom":8.0,"id":97334571},"arcs":[213]},{"type":"LineString","properties":{"kind":"highway","sort_rank":383,"landuse_kind":"urban_area","source":"openstreetmap.org","min_zoom":8.0,"kind_detail":"motorway","ref":"E6","id":330807901},"arcs":[214]},{"type":"MultiLineString","properties":{"source":"openstreetmap.org","kind":"major_road","old_name":"Nagtahan Flyover","sort_rank":381,"kind_detail":"trunk","ref":"140","min_zoom":8.0},"arcs":[[215],[216]]},{"type":"MultiLineString","properties":{"kind":"highway","network":"ph:nhn","sort_rank":383,"landuse_kind":"urban_area","source":"openstreetmap.org","min_zoom":8.0,"all_networks":["ph:nhn"],"kind_detail":"motorway","shield_text":"6","ref":"E6","all_shield_texts":["6"]},"arcs":[[217],[218],[219],[220],[221],[222],[223],[224],[225],[226],[227],[228],[229],[230],[231],[232],[233],[234],[235],[236],[237],[238],[239],[240],[241],[242],[243],[244],[245],[246],[247],[248]]},{"type":"MultiLineString","properties":{"bus_network":null,"network":"ph:nhn","sort_rank":381,"kind_detail":"trunk","kind":"major_road","official_name":"Epifanio de los Santos Avenue","source":"openstreetmap.org","min_zoom":8.0,"bus_shield_text":"Olongapo - Pasay","shield_text":null,"ref":"1;AH26"},"arcs":[[249],[250],[251]]},{"type":"MultiLineString","properties":{"source":"openstreetmap.org","kind":"major_road","old_name":"Imelda Avenue","sort_rank":380,"kind_detail":"primary","landuse_kind":"urban_area","min_zoom":8.0},"arcs":[[252],[253]]},{"type":"LineString","properties":{"kind":"major_road","sort_rank":380,"kind_detail":"primary","source":"openstreetmap.org","min_zoom":8.0,"old_name":"Buendia","landuse_kind":"urban_area","id":95771776},"arcs":[254]},{"type":"LineString","properties":{"kind":"major_road","network":"ph:national","sort_rank":380,"kind_detail":"primary","source":"openstreetmap.org","min_zoom":8.0,"landuse_kind":"urban_area","shield_text":"65"},"arcs":[255]},{"type":"MultiLineString","properties":{"kind":"major_road","network":"ph:nhn","short_name":"C-4","sort_rank":381,"landuse_kind":"urban_area","source":"openstreetmap.org","min_zoom":8.0,"kind_detail":"trunk","shield_text":null,"ref":"120"},"arcs":[[256],[257],[258]]},{"type":"LineString","properties":{"source":"openstreetmap.org","kind":"major_road","sort_rank":380,"kind_detail":"primary","ref":"410","min_zoom":8.0},"arcs":[259]},{"type":"MultiLineString","properties":{"kind":"major_road","network":"ph:nhn","sort_rank":380,"kind_detail":"primary","source":"openstreetmap.org","min_zoom":8.0,"landuse_kind":"park","shield_text":"421","ref":"421"},"arcs":[[260],[261]]},{"type":"MultiLineString","properties":{"bus_network":"Public Utility Vehicle","network":"ph:national","sort_rank":381,"kind_detail":"trunk","bus_shield_text":null,"kind":"major_road","source":"openstreetmap.org","min_zoom":8.0,"old_name":"Real","shield_text":"1","landuse_kind":"urban_area","ref":"411"},"arcs":[[262],[263],[264]]},{"type":"MultiLineString","properties":{"sort_rank":380,"kind_detail":"primary","min_zoom":8.0,"kind":"major_road","source":"openstreetmap.org"},"arcs":[[265],[266],[267],[268],[269],[270],[271],[272],[273],[274],[275],[276],[277],[278],[279],[280],[281],[282],[283],[284],[285],[286],[287],[288],[289],[290],[291],[292],[293],[294],[295],[296],[297],[298],[299],[300],[301],[302],[303],[304],[305],[306],[307],[308],[309],[310],[311],[312],[313],[314],[315],[316],[317],[318],[319],[320],[321],[322],[323],[324],[325],[326],[327],[328],[329],[330],[331],[332],[333],[334],[335],[336],[337],[338],[339],[340],[341],[342],[343],[344],[345],[346],[347],[348],[349],[350],[351],[352],[353],[354],[355],[356],[357],[358],[359],[360],[361],[362],[363],[364],[365],[366],[367],[368],[369],[370],[371],[372],[373],[374],[375],[376],[377],[378],[379],[380],[381],[382],[383],[384],[385],[386],[387],[388],[389],[390],[391],[392],[393],[394],[395],[396],[397],[398],[399],[400],[401],[402],[403],[404],[405],[406],[407],[408],[409],[410],[411],[412],[413],[414],[415],[416],[417],[418],[419],[420],[421],[422],[423],[424],[425],[426],[427],[428],[429],[430],[431],[432],[433],[434],[435],[436],[437],[438],[439],[440],[441],[442],[443],[444],[445],[446],[447],[448],[449],[450],[451],[452],[453],[454],[455],[456],[457],[458],[459],[460],[461],[462],[463],[464],[465],[466],[467],[468],[469],[470],[471],[472],[473],[474],[475],[476],[477],[478],[479],[480]]},{"type":"MultiLineString","properties":{"kind":"highway","network":"ph:nhn","sort_rank":383,"landuse_kind":"urban_area","source":"openstreetmap.org","min_zoom":8.0,"all_networks":["ph:nhn","ph:nhn",null],"kind_detail":"motorway","shield_text":null,"ref":"E2; AH26","all_shield_texts":[null,"2","3"]},"arcs":[[481],[482],[483],[484],[485]]},{"type":"MultiLineString","properties":{"kind":"major_road","network":"ph:national","sort_rank":381,"landuse_kind":"urban_area","source":"openstreetmap.org","min_zoom":8.0,"kind_detail":"trunk","shield_text":"1","ref":"1;AH26"},"arcs":[[486],[487],[488],[489],[490],[491],[492],[493],[494],[495],[496],[497],[498],[499],[500],[501],[502],[503],[504],[505]]},{"type":"LineString","properties":{"kind":"major_road","network":"ph:nhn","sort_rank":381,"nat_name":"Rizal Bdry-Famy-Quezon Rd.","source":"openstreetmap.org","min_zoom":8.0,"kind_detail":"trunk","shield_text":"601","ref":"601"},"arcs":[506]},{"type":"MultiLineString","properties":{"kind":"major_road","network":"ph:nhn","sort_rank":381,"landuse_kind":"urban_area","source":"openstreetmap.org","min_zoom":8.0,"kind_detail":"trunk","shield_text":"1","ref":"1;AH26"},"arcs":[[507],[508],[509],[510],[511],[512]]},{"type":"MultiLineString","properties":{"kind":"major_road","network":"ph:nhn","sort_rank":380,"kind_detail":"primary","source":"openstreetmap.org","min_zoom":8.0,"old_name":"Imelda Avenue","shield_text":"63","landuse_kind":"urban_area","ref":"63"},"arcs":[[513],[514]]},{"type":"MultiLineString","properties":{"source":"openstreetmap.org","kind":"major_road","landuse_kind":"urban_area","sort_rank":380,"kind_detail":"primary","is_bicycle_related":true,"min_zoom":8.0},"arcs":[[515],[516],[517],[518],[519],[520],[521],[522]]},{"type":"LineString","properties":{"kind":"major_road","network":"ph:nhn","sort_rank":381,"kind_detail":"trunk","official_name":"Vista Avenue","source":"openstreetmap.org","min_zoom":8.0,"landuse_kind":"urban_area","shield_text":"27","id":111987020},"arcs":[523]},{"type":"MultiLineString","properties":{"kind":"highway","network":"ph:nhn","sort_rank":383,"landuse_kind":"urban_area","source":"openstreetmap.org","min_zoom":8.0,"all_networks":["ph:nhn",null],"kind_detail":"motorway","shield_text":"2","ref":"E2","all_shield_texts":["2","3"]},"arcs":[[524],[525],[526],[527]]},{"type":"LineString","properties":{"source":"openstreetmap.org","kind":"ferry","name":"Patnanungan - Jomalig","sort_rank":355,"min_zoom":8.0,"id":217507553},"arcs":[528]},{"type":"MultiLineString","properties":{"source":"openstreetmap.org","bus_network":null,"bus_shield_text":"Pacita-Fairview","sort_rank":380,"kind_detail":"primary","min_zoom":8.0,"kind":"major_road"},"arcs":[[529],[530]]},{"type":"MultiLineString","properties":{"bus_network":"Public Utility Vehicle","network":"ph:national","sort_rank":381,"kind_detail":"trunk","bus_shield_text":null,"is_bicycle_related":true,"kind":"major_road","source":"openstreetmap.org","min_zoom":8.0,"old_name":"Real","shield_text":"1","landuse_kind":"urban_area","ref":"411"},"arcs":[[531],[532]]},{"type":"LineString","properties":{"kind":"major_road","network":"ph:nhn","sort_rank":381,"kind_detail":"trunk","official_name":"Epifanio delos Santos Avenue","source":"openstreetmap.org","min_zoom":8.0,"landuse_kind":"urban_area","shield_text":"1","ref":"1;AH26","id":65961941},"arcs":[533]},{"type":"MultiLineString","properties":{"source":"openstreetmap.org","kind":"major_road","old_name":"Avenida Rizal","sort_rank":380,"kind_detail":"primary","landuse_kind":"urban_area","min_zoom":8.0},"arcs":[[534],[535]]},{"type":"LineString","properties":{"kind":"major_road","network":"ph:nhn","sort_rank":380,"kind_detail":"primary","source":"openstreetmap.org","min_zoom":8.0,"nat_name":"Lucena-Tayabas-Lucban-Sampaloc-Mauban Port Rd","shield_text":"604","ref":"604"},"arcs":[536]},{"type":"MultiLineString","properties":{"bus_network":null,"network":"ph:nhn","sort_rank":381,"kind_detail":"trunk","kind":"major_road","official_name":"Epifanio de los Santos Avenue","source":"openstreetmap.org","min_zoom":8.0,"bus_shield_text":"Pasay - Dau","shield_text":null,"landuse_kind":"urban_area","ref":"1;AH26"},"arcs":[[537],[538],[539],[540],[541],[542]]},{"type":"MultiLineString","properties":{"kind":"major_road","network":"ph:nhn","sort_rank":381,"landuse_kind":"urban_area","source":"openstreetmap.org","min_zoom":8.0,"kind_detail":"trunk","loc_name":"Balibago Road","ref":"420","shield_text":"420"},"arcs":[[543],[544],[545]]},{"type":"LineString","properties":{"bus_network":null,"network":"ph:nhn","short_name":"SLEX","sort_rank":381,"nat_name":"South Luzon Expressway","bus_shield_text":"Pacita-Fairview","kind":"major_road","official_name":"President Sergio Osme\u00f1a Sr. Highway","source":"openstreetmap.org","min_zoom":8.0,"old_name":"South Superhighway","shield_text":null,"kind_detail":"trunk","landuse_kind":"urban_area","ref":"E2"},"arcs":[546]},{"type":"LineString","properties":{"kind":"major_road","sort_rank":380,"kind_detail":"primary","is_bicycle_related":true,"bicycle_network":"lcn","source":"openstreetmap.org","min_zoom":8.0,"landuse_kind":"urban_area","id":54030449},"arcs":[547]},{"type":"MultiLineString","properties":{"kind":"major_road","network":null,"sort_rank":381,"landuse_kind":"urban_area","official_name":"President Sergio Osme\u00f1a Sr. Highway","source":"openstreetmap.org","min_zoom":8.0,"old_name":"South Superhighway","shield_text":"3","kind_detail":"trunk","ref":"145","nat_name":"South Luzon Expressway"},"arcs":[[548],[549]]},{"type":"MultiLineString","properties":{"kind":"major_road","sort_rank":380,"kind_detail":"primary","source":"openstreetmap.org","min_zoom":8.0,"old_name":"William Cameron Forbes","landuse_kind":"urban_area","ref":"140"},"arcs":[[550],[551],[552],[553],[554],[555],[556],[557],[558]]},{"type":"MultiLineString","properties":{"kind":"major_road","network":"ph:nhn","sort_rank":381,"landuse_kind":"urban_area","official_name":"Pres. Carlos P. Garcia Avenue","source":"openstreetmap.org","min_zoom":8.0,"kind_detail":"trunk","shield_text":"11","ref":"11"},"arcs":[[559],[560]]},{"type":"LineString","properties":{"source":"openstreetmap.org","kind":"ferry","name":"Polilo - Anawan","sort_rank":355,"min_zoom":8.0,"id":475743755},"arcs":[561]},{"type":"LineString","properties":{"kind":"major_road","network":"ph:nhn","sort_rank":381,"kind_detail":"trunk","source":"openstreetmap.org","min_zoom":8.0,"landuse_kind":"park","shield_text":"421","ref":"421","id":303405987},"arcs":[562]},{"type":"LineString","properties":{"source":"openstreetmap.org","kind":"major_road","kind_detail":"primary","sort_rank":380,"nat_name":"Pila Poblacion Road","min_zoom":8.0},"arcs":[563]},{"type":"MultiLineString","properties":{"kind":"major_road","network":"ph:nhn","sort_rank":380,"kind_detail":"primary","is_bicycle_related":true,"source":"openstreetmap.org","min_zoom":8.0,"old_name":"MIA Road","shield_text":"194","landuse_kind":"urban_area","ref":"194"},"arcs":[[564],[565]]},{"type":"MultiLineString","properties":{"source":"openstreetmap.org","kind":"major_road","landuse_kind":"urban_area","sort_rank":380,"kind_detail":"primary","min_zoom":8.0,"official_name":"Felix Avenue"},"arcs":[[566],[567]]},{"type":"MultiLineString","properties":{"kind":"major_road","network":"ph:national","sort_rank":380,"kind_detail":"primary","source":"openstreetmap.org","min_zoom":8.0,"landuse_kind":"urban_area","shield_text":"1"},"arcs":[[568],[569]]},{"type":"MultiLineString","properties":{"kind":"major_road","network":"ph:national","sort_rank":381,"nat_name":"MSR Diversion Rd","source":"openstreetmap.org","min_zoom":8.0,"kind_detail":"trunk","shield_text":"1","ref":"1;AH26"},"arcs":[[570],[571]]},{"type":"MultiLineString","properties":{"kind":"major_road","network":null,"sort_rank":381,"landuse_kind":"urban_area","source":"openstreetmap.org","min_zoom":8.0,"kind_detail":"trunk","shield_text":"4"},"arcs":[[572],[573]]},{"type":"MultiLineString","properties":{"kind":"major_road","network":"ph:nhn","sort_rank":381,"kind_detail":"trunk","source":"openstreetmap.org","min_zoom":8.0,"nat_name":"Daang Maharlika (LZ)","shield_text":null,"ref":"1;AH26"},"arcs":[[574],[575]]},{"type":"LineString","properties":{"source":"openstreetmap.org","kind":"major_road","network":"ph:national","sort_rank":381,"kind_detail":"trunk","min_zoom":8.0,"shield_text":"1"},"arcs":[576]},{"type":"LineString","properties":{"source":"openstreetmap.org","kind":"ferry","name":"Manila - El Nido","sort_rank":355,"min_zoom":8.0,"id":472867331},"arcs":[577]},{"type":"MultiLineString","properties":{"bus_network":null,"network":"ph:nhn","sort_rank":381,"landuse_kind":"urban_area","kind":"major_road","source":"openstreetmap.org","min_zoom":8.0,"bus_shield_text":"Pasay - Dau","shield_text":null,"kind_detail":"trunk","ref":"1;AH26"},"arcs":[[578],[579],[580],[581]]},{"type":"MultiLineString","properties":{"source":"openstreetmap.org","kind":"major_road","landuse_kind":"urban_area","sort_rank":380,"kind_detail":"primary","ref":"130","min_zoom":8.0},"arcs":[[582],[583],[584],[585]]},{"type":"LineString","properties":{"bus_network":null,"network":"ph:nhn","sort_rank":381,"kind_detail":"trunk","kind":"major_road","source":"openstreetmap.org","min_zoom":8.0,"bus_shield_text":"Pacita-Fairview","shield_text":null,"landuse_kind":"urban_area","ref":"1;AH26","id":29234819},"arcs":[586]},{"type":"MultiLineString","properties":{"kind":"highway","network":"ph:nhn","sort_rank":383,"landuse_kind":"urban_area","official_name":"Manila-Cavite Expressway","source":"openstreetmap.org","min_zoom":8.0,"all_networks":["ph:nhn",null],"kind_detail":"motorway","loc_name":"Coastal Road","ref":"E3","all_shield_texts":["4","1"],"shield_text":"4"},"arcs":[[587],[588],[589],[590],[591]]},{"type":"MultiLineString","properties":{"kind":"major_road","network":null,"sort_rank":381,"landuse_kind":"urban_area","official_name":"President Sergio Osme\u00f1a Highway","source":"openstreetmap.org","min_zoom":8.0,"old_name":"South Superhighway","shield_text":"3","kind_detail":"trunk","ref":"145","nat_name":"South Luzon Expressway"},"arcs":[[592],[593],[594],[595]]},{"type":"MultiLineString","properties":{"kind":"major_road","network":"ph:nhn","short_name":"P. Casal","sort_rank":380,"kind_detail":"primary","source":"openstreetmap.org","min_zoom":8.0,"landuse_kind":"urban_area","shield_text":"180","ref":"180"},"arcs":[[596],[597],[598]]},{"type":"MultiLineString","properties":{"kind":"major_road","network":"ph:national","sort_rank":381,"landuse_kind":"urban_area","source":"openstreetmap.org","min_zoom":8.0,"kind_detail":"trunk","shield_text":"65","ref":"65"},"arcs":[[599],[600],[601],[602],[603],[604],[605],[606],[607],[608],[609],[610],[611],[612],[613],[614],[615],[616]]},{"type":"LineString","properties":{"kind":"major_road","network":"ph:national","sort_rank":380,"kind_detail":"primary","is_bicycle_related":true,"source":"openstreetmap.org","min_zoom":8.0,"landuse_kind":"urban_area","shield_text":"1","id":4245395},"arcs":[617]},{"type":"MultiLineString","properties":{"kind":"major_road","network":"ph:nhn","sort_rank":381,"landuse_kind":"urban_area","source":"openstreetmap.org","min_zoom":8.0,"kind_detail":"trunk","shield_text":"66","ref":"66"},"arcs":[[618],[619]]},{"type":"MultiLineString","properties":{"kind":"major_road","network":"ph:nhn","sort_rank":380,"kind_detail":"primary","source":"openstreetmap.org","min_zoom":8.0,"old_name":"Calle Alix","shield_text":"180","landuse_kind":"urban_area","ref":"180"},"arcs":[[620],[621],[622],[623],[624]]},{"type":"MultiLineString","properties":{"kind":"major_road","network":"ph:nhn","sort_rank":380,"kind_detail":"primary","source":"openstreetmap.org","min_zoom":8.0,"shield_text":"601","ref":"601"},"arcs":[[625],[626],[627],[628],[629]]},{"type":"LineString","properties":{"kind":"major_road","sort_rank":380,"landuse_kind":"urban_area","source":"openstreetmap.org","min_zoom":8.0,"kind_detail":"primary","ref":"143","id":93086125},"arcs":[630]},{"type":"MultiLineString","properties":{"kind":"major_road","sort_rank":380,"kind_detail":"primary","official_name":"Pedro Cayetano Boulevard","source":"openstreetmap.org","min_zoom":8.0,"old_name":"Levi B. Mariano Avenue","landuse_kind":"urban_area"},"arcs":[[631],[632],[633],[634],[635]]},{"type":"MultiLineString","properties":{"kind":"major_road","network":"ph:nhn","sort_rank":381,"landuse_kind":"urban_area","source":"openstreetmap.org","min_zoom":8.0,"kind_detail":"trunk","shield_text":"59","ref":"59"},"arcs":[[636],[637],[638],[639]]},{"type":"LineString","properties":{"kind":"major_road","network":"ph:nhn","sort_rank":380,"kind_detail":"primary","source":"openstreetmap.org","min_zoom":8.0,"old_name":"Airport Road","shield_text":"194","landuse_kind":"urban_area","ref":"194","id":22731329},"arcs":[640]},{"type":"MultiLineString","properties":{"source":"openstreetmap.org","kind":"major_road","kind_detail":"trunk","sort_rank":381,"landuse_kind":"urban_area","ref":"1","min_zoom":8.0},"arcs":[[641],[642],[643]]},{"type":"MultiLineString","properties":{"bus_network":null,"sort_rank":381,"kind_detail":"trunk","is_bicycle_related":true,"kind":"major_road","cycleway":"lane","source":"openstreetmap.org","min_zoom":8.0,"bus_shield_text":"Pacita-Fairview","landuse_kind":"urban_area","ref":"170"},"arcs":[[644],[645],[646]]},{"type":"MultiLineString","properties":{"kind":"major_road","network":"ph:nhn","sort_rank":381,"landuse_kind":"urban_area","source":"openstreetmap.org","min_zoom":8.0,"old_name":"Del Pan Bridge","shield_text":null,"kind_detail":"trunk","ref":"120"},"arcs":[[647],[648]]},{"type":"MultiLineString","properties":{"kind":"major_road","network":"ph:nhn","sort_rank":381,"landuse_kind":"urban_area","official_name":"Katipunan Avenue","source":"openstreetmap.org","min_zoom":8.0,"kind_detail":"trunk","shield_text":"11","ref":"11"},"arcs":[[649],[650]]},{"type":"LineString","properties":{"kind":"major_road","network":"ph:nhn","sort_rank":381,"nat_name":"Jct Lucban-Luisiana Rd","is_bicycle_related":true,"source":"openstreetmap.org","min_zoom":8.0,"kind_detail":"trunk","shield_text":"603","ref":"603"},"arcs":[651]},{"type":"MultiLineString","properties":{"kind":"major_road","network":"ph:nhn","sort_rank":381,"kind_detail":"trunk","official_name":"Epifanio de los Santos Avenue","source":"openstreetmap.org","min_zoom":8.0,"shield_text":null,"ref":"1;AH26"},"arcs":[[652],[653],[654],[655],[656],[657],[658],[659],[660],[661],[662]]},{"type":"LineString","properties":{"bus_network":"Public Utility Vehicle","network":"ph:national","sort_rank":380,"kind_detail":"primary","kind":"major_road","source":"openstreetmap.org","min_zoom":8.0,"bus_shield_text":null,"shield_text":"1","landuse_kind":"urban_area","ref":"62"},"arcs":[663]},{"type":"LineString","properties":{"kind":"major_road","network":"ph:nhn","sort_rank":381,"kind_detail":"trunk","source":"openstreetmap.org","min_zoom":8.0,"shield_text":"1","ref":"1;AH26"},"arcs":[664]},{"type":"MultiLineString","properties":{"kind":"major_road","network":"ph:national","sort_rank":381,"kind_detail":"trunk","is_bicycle_related":true,"source":"openstreetmap.org","min_zoom":8.0,"shield_text":"1","ref":"1;AH26"},"arcs":[[665],[666],[667]]},{"type":"MultiLineString","properties":{"kind":"major_road","sort_rank":380,"kind_detail":"primary","is_bicycle_related":true,"source":"openstreetmap.org","min_zoom":8.0,"landuse_kind":"urban_area","ref":"140"},"arcs":[[668],[669]]},{"type":"MultiLineString","properties":{"kind":"highway","network":"ph:nhn","sort_rank":383,"landuse_kind":"urban_area","source":"openstreetmap.org","min_zoom":8.0,"all_networks":["ph:nhn"],"kind_detail":"motorway","shield_text":"2","ref":"E2","all_shield_texts":["2"]},"arcs":[[670],[671],[672],[673]]},{"type":"MultiLineString","properties":{"kind":"major_road","network":"ph:nhn","sort_rank":381,"landuse_kind":"urban_area","source":"openstreetmap.org","min_zoom":8.0,"kind_detail":"trunk","shield_text":"60","ref":"60","nat_name":"Manila East Road"},"arcs":[[674],[675],[676],[677],[678]]},{"type":"MultiLineString","properties":{"kind":"highway","network":"ph:nhn","sort_rank":383,"landuse_kind":"urban_area","source":"openstreetmap.org","min_zoom":8.0,"all_networks":["ph:nhn","ph:nhn"],"kind_detail":"motorway","shield_text":"3","ref":"E6","all_shield_texts":["3","6"]},"arcs":[[679],[680],[681],[682],[683]]},{"type":"LineString","properties":{"kind":"major_road","short_name":"Taktak Road","sort_rank":381,"kind_detail":"trunk","source":"openstreetmap.org","min_zoom":8.0,"old_name":"Taktak Road","landuse_kind":"urban_area","id":230944381},"arcs":[684]},{"type":"MultiLineString","properties":{"kind":"highway","network":"ph:nhn","short_name":"NLEX","sort_rank":383,"kind_detail":"motorway","source":"openstreetmap.org","min_zoom":8.0,"all_networks":["ph:nhn","ph:nhn"],"shield_text":null,"ref":"E1","all_shield_texts":[null,"1"]},"arcs":[[685],[686],[687],[688]]},{"type":"MultiLineString","properties":{"bus_network":"Public Utility Vehicle","network":"ph:national","sort_rank":381,"kind_detail":"trunk","kind":"major_road","source":"openstreetmap.org","min_zoom":8.0,"bus_shield_text":null,"shield_text":"1","landuse_kind":"urban_area","ref":"411"},"arcs":[[689],[690],[691],[692],[693],[694],[695],[696]]},{"type":"MultiLineString","properties":{"source":"openstreetmap.org","kind":"major_road","kind_detail":"trunk","sort_rank":381,"landuse_kind":"urban_area","ref":"127","min_zoom":8.0},"arcs":[[697],[698],[699],[700],[701],[702],[703],[704],[705],[706],[707]]},{"type":"MultiLineString","properties":{"source":"openstreetmap.org","kind":"major_road","old_name":"William Cameron Forbes","sort_rank":380,"kind_detail":"primary","ref":"140","min_zoom":8.0},"arcs":[[708],[709],[710],[711],[712],[713],[714]]},{"type":"LineString","properties":{"source":"openstreetmap.org","kind":"major_road","old_name":"Granada","sort_rank":380,"kind_detail":"primary","min_zoom":8.0,"id":9794000},"arcs":[715]},{"type":"MultiLineString","properties":{"kind":"major_road","network":"ph:nhn","sort_rank":380,"kind_detail":"primary","source":"openstreetmap.org","min_zoom":8.0,"landuse_kind":"urban_area","shield_text":"601","ref":"601","nat_name":"Manila East Road"},"arcs":[[716],[717],[718],[719]]},{"type":"LineString","properties":{"kind":"major_road","network":"ph:nhn","sort_rank":381,"landuse_kind":"urban_area","source":"openstreetmap.org","min_zoom":8.0,"kind_detail":"trunk","shield_text":"600","ref":"600"},"arcs":[720]},{"type":"MultiLineString","properties":{"kind":"highway","network":"ph:nhn","sort_rank":383,"kind_detail":"motorway","official_name":"SLEX Toll Road 3","source":"openstreetmap.org","min_zoom":8.0,"all_networks":["ph:nhn",null],"shield_text":"2","ref":"E2","all_shield_texts":["2","3"]},"arcs":[[721],[722]]},{"type":"LineString","properties":{"kind":"major_road","network":"ph:nhn","sort_rank":381,"landuse_kind":"urban_area","source":"openstreetmap.org","min_zoom":8.0,"kind_detail":"trunk","shield_text":"27","ref":"MCX"},"arcs":[723]},{"type":"LineString","properties":{"kind":"major_road","network":"ph:nhn","sort_rank":380,"kind_detail":"primary","is_bicycle_related":true,"source":"openstreetmap.org","min_zoom":8.0,"landuse_kind":"urban_area","shield_text":"600","ref":"600"},"arcs":[724]},{"type":"LineString","properties":{"kind":"major_road","sort_rank":380,"kind_detail":"primary","bus_network":"Public Utility Vehicle","source":"openstreetmap.org","min_zoom":8.0,"bus_shield_text":null,"landuse_kind":"urban_area","id":245313310},"arcs":[725]},{"type":"LineString","properties":{"kind":"major_road","network":null,"sort_rank":381,"landuse_kind":"urban_area","official_name":"President Sergio Osme\u00f1a Highway","source":"openstreetmap.org","min_zoom":8.0,"old_name":"South Superhighway","shield_text":"3","kind_detail":"trunk","ref":"1","nat_name":"South Luzon Expressway"},"arcs":[726]},{"type":"LineString","properties":{"kind":"highway","network":"ph:nhn","sort_rank":383,"landuse_kind":"urban_area","official_name":"Cavitex","source":"openstreetmap.org","min_zoom":8.0,"all_networks":["ph:nhn",null],"kind_detail":"motorway","loc_name":"Manila-Cavite Expressway","ref":"E3","all_shield_texts":["3","1"],"shield_text":"3"},"arcs":[727]},{"type":"LineString","properties":{"kind":"major_road","sort_rank":380,"landuse_kind":"urban_area","official_name":"Padre Sanchez Street","source":"openstreetmap.org","min_zoom":8.0,"kind_detail":"primary","id":4332734},"arcs":[728]},{"type":"MultiLineString","properties":{"source":"openstreetmap.org","kind":"major_road","kind_detail":"trunk","sort_rank":381,"landuse_kind":"urban_area","ref":"170","min_zoom":8.0},"arcs":[[729],[730],[731],[732],[733],[734],[735],[736],[737]]},{"type":"MultiLineString","properties":{"bus_network":null,"sort_rank":381,"landuse_kind":"urban_area","kind":"major_road","source":"openstreetmap.org","min_zoom":8.0,"bus_shield_text":"Pacita-Fairview","kind_detail":"trunk","ref":"170"},"arcs":[[738],[739],[740]]},{"type":"MultiLineString","properties":{"source":"openstreetmap.org","kind":"major_road","nat_name":"Lucban-Majayjay Rd","sort_rank":380,"kind_detail":"primary","min_zoom":8.0},"arcs":[[741],[742]]},{"type":"LineString","properties":{"kind":"highway","sort_rank":383,"kind_detail":"motorway","official_name":"Metro Manila Skyway System Stage 2","source":"openstreetmap.org","min_zoom":8.0,"landuse_kind":"urban_area","ref":"E2","id":409270910},"arcs":[743]},{"type":"LineString","properties":{"source":"openstreetmap.org","kind":"ferry","name":"Manila - Dumaguete","sort_rank":355,"landuse_kind":"urban_area","min_zoom":8.0,"id":475605864},"arcs":[744]},{"type":"MultiLineString","properties":{"source":"openstreetmap.org","kind":"major_road","nat_name":"Ortigas Ave","sort_rank":380,"kind_detail":"primary","ref":"184","min_zoom":8.0},"arcs":[[745],[746],[747]]},{"type":"MultiLineString","properties":{"source":"openstreetmap.org","kind":"major_road","landuse_kind":"park","sort_rank":380,"kind_detail":"primary","min_zoom":8.0},"arcs":[[748],[749],[750],[751],[752],[753]]},{"type":"MultiLineString","properties":{"source":"openstreetmap.org","kind":"major_road","kind_detail":"trunk","sort_rank":381,"landuse_kind":"urban_area","ref":"150","min_zoom":8.0},"arcs":[[754],[755]]},{"type":"LineString","properties":{"source":"openstreetmap.org","kind":"major_road","old_name":"Pasay Road","sort_rank":380,"kind_detail":"primary","landuse_kind":"urban_area","min_zoom":8.0},"arcs":[756]},{"type":"MultiLineString","properties":{"kind":"highway","network":"ph:nhn","short_name":"SLEX","sort_rank":383,"landuse_kind":"urban_area","official_name":"President Sergio Osme\u00f1a Sr. Highway","source":"openstreetmap.org","min_zoom":8.0,"all_networks":["ph:nhn","ph:nhn",null],"old_name":"South Superhighway","shield_text":null,"kind_detail":"motorway","ref":"E2","all_shield_texts":[null,"2","3"]},"arcs":[[757],[758],[759],[760],[761]]},{"type":"MultiLineString","properties":{"kind":"major_road","network":"ph:nhn","sort_rank":381,"nat_name":"Calamba-Sta Cruz-Famy Jct Rd","source":"openstreetmap.org","min_zoom":8.0,"kind_detail":"trunk","shield_text":"602","ref":"602"},"arcs":[[762],[763]]},{"type":"LineString","properties":{"source":"openstreetmap.org","kind":"ferry","name":"Atimonan - Alabat","sort_rank":355,"min_zoom":8.0,"id":112178659},"arcs":[764]},{"type":"LineString","properties":{"kind":"major_road","sort_rank":380,"landuse_kind":"urban_area","source":"openstreetmap.org","min_zoom":8.0,"kind_detail":"primary","ref":"184","id":131944682},"arcs":[765]},{"type":"MultiLineString","properties":{"bus_network":null,"network":"ph:nhn","sort_rank":381,"kind_detail":"trunk","kind":"major_road","source":"openstreetmap.org","min_zoom":8.0,"bus_shield_text":"Olongapo - Pasay","shield_text":null,"landuse_kind":"urban_area","ref":"1;AH26"},"arcs":[[766],[767]]},{"type":"LineString","properties":{"source":"openstreetmap.org","kind":"major_road","landuse_kind":"urban_area","sort_rank":380,"kind_detail":"primary","min_zoom":8.0,"official_name":"Victorino Mapa Street"},"arcs":[768]},{"type":"MultiLineString","properties":{"kind":"major_road","network":null,"sort_rank":381,"landuse_kind":"urban_area","source":"openstreetmap.org","min_zoom":8.0,"kind_detail":"trunk","shield_text":"1","ref":"150"},"arcs":[[769],[770]]},{"type":"LineString","properties":{"kind":"major_road","network":"ph:nhn","sort_rank":380,"kind_detail":"primary","official_name":"Manuel Roxas Street","source":"openstreetmap.org","min_zoom":8.0,"nat_name":"Manila East Road","shield_text":"601","ref":"601"},"arcs":[771]},{"type":"MultiLineString","properties":{"bus_network":null,"network":"ph:nhn","sort_rank":381,"kind_detail":"trunk","kind":"major_road","official_name":"Epifanio de los Santos Avenue","source":"openstreetmap.org","min_zoom":8.0,"bus_shield_text":"Olongapo - Pasay","shield_text":null,"landuse_kind":"urban_area","ref":"1;AH26"},"arcs":[[772],[773],[774],[775],[776]]},{"type":"MultiLineString","properties":{"source":"openstreetmap.org","kind":"major_road","kind_detail":"trunk","sort_rank":381,"landuse_kind":"urban_area","ref":"65","min_zoom":8.0},"arcs":[[777],[778],[779],[780],[781],[782],[783],[784],[785],[786],[787]]},{"type":"LineString","properties":{"kind":"major_road","network":"ph:nhn","sort_rank":380,"kind_detail":"primary","source":"openstreetmap.org","min_zoom":8.0,"shield_text":"604","ref":"604","id":37976555},"arcs":[788]},{"type":"MultiLineString","properties":{"kind":"major_road","sort_rank":381,"landuse_kind":"urban_area","source":"openstreetmap.org","min_zoom":8.0,"old_name":"Nagtahan Bridge","kind_detail":"trunk","ref":"140"},"arcs":[[789],[790]]},{"type":"MultiLineString","properties":{"kind":"major_road","network":"ph:nhn","sort_rank":381,"nat_name":"Pagsanjan-Lucban Rd","source":"openstreetmap.org","min_zoom":8.0,"kind_detail":"trunk","shield_text":"603","ref":"603"},"arcs":[[791],[792]]},{"type":"LineString","properties":{"kind":"major_road","network":"ph:nhn","short_name":"Taktak Road","sort_rank":381,"kind_detail":"trunk","source":"openstreetmap.org","min_zoom":8.0,"old_name":"Taktak Road","shield_text":"600","landuse_kind":"urban_area","ref":"600","id":319829990},"arcs":[793]},{"type":"MultiLineString","properties":{"kind":"highway","network":"ph:nhn","short_name":"SLEX","sort_rank":383,"landuse_kind":"urban_area","official_name":"President Sergio Osme\u00f1a Sr. Highway","source":"openstreetmap.org","min_zoom":8.0,"all_networks":["ph:nhn"],"kind_detail":"motorway","shield_text":"2","ref":"E2","all_shield_texts":["2"]},"arcs":[[794],[795]]},{"type":"LineString","properties":{"kind":"major_road","network":null,"sort_rank":381,"kind_detail":"trunk","source":"openstreetmap.org","min_zoom":8.0,"shield_text":"1","ref":"410","id":333225772},"arcs":[796]},{"type":"MultiLineString","properties":{"bus_network":"Public Utility Vehicle","network":"ph:nhn","sort_rank":381,"landuse_kind":"urban_area","kind":"major_road","source":"openstreetmap.org","min_zoom":8.0,"bus_shield_text":null,"shield_text":"411","kind_detail":"trunk","ref":"411"},"arcs":[[797],[798],[799],[800]]},{"type":"MultiLineString","properties":{"source":"openstreetmap.org","kind":"highway","landuse_kind":"urban_area","sort_rank":383,"kind_detail":"motorway","ref":"E2","min_zoom":8.0},"arcs":[[801],[802],[803]]},{"type":"LineString","properties":{"source":"openstreetmap.org","kind":"ferry","name":"Patnanungan - Salibungot","sort_rank":355,"min_zoom":8.0,"id":217507555},"arcs":[804]},{"type":"LineString","properties":{"source":"openstreetmap.org","kind":"ferry","name":"Taal Volcano Island West","sort_rank":355,"landuse_kind":"park","min_zoom":8.0,"id":342836624},"arcs":[805]},{"type":"LineString","properties":{"kind":"major_road","sort_rank":380,"landuse_kind":"urban_area","source":"openstreetmap.org","min_zoom":8.0,"kind_detail":"primary","ref":"170","id":28596690},"arcs":[806]},{"type":"MultiLineString","properties":{"kind":"major_road","network":"ph:nhn","sort_rank":381,"nat_name":"Lucena-Tayabas-Lucban-Sampaloc-Mauban Port Rd","source":"openstreetmap.org","min_zoom":8.0,"kind_detail":"trunk","shield_text":"603","ref":"603"},"arcs":[[807],[808]]},{"type":"MultiLineString","properties":{"kind":"major_road","network":"ph:nhn","sort_rank":381,"landuse_kind":"urban_area","source":"openstreetmap.org","min_zoom":8.0,"kind_detail":"trunk","loc_name":"Marcos Bridge","ref":"59","shield_text":"59"},"arcs":[[809],[810]]},{"type":"MultiLineString","properties":{"bus_network":"Public Utility Vehicle","network":"ph:nhn","sort_rank":381,"kind_detail":"trunk","kind":"major_road","official_name":"Alabang-Zapote Centennial Flyover","source":"openstreetmap.org","min_zoom":8.0,"bus_shield_text":null,"shield_text":"411","landuse_kind":"urban_area","ref":"411"},"arcs":[[811],[812]]},{"type":"MultiLineString","properties":{"source":"openstreetmap.org","kind":"major_road","kind_detail":"trunk","sort_rank":381,"landuse_kind":"urban_area","ref":"128","min_zoom":8.0},"arcs":[[813],[814]]},{"type":"LineString","properties":{"kind":"major_road","network":"ph:nhn","sort_rank":381,"landuse_kind":"park","source":"openstreetmap.org","min_zoom":8.0,"kind_detail":"trunk","shield_text":"420","ref":"420"},"arcs":[815]},{"type":"MultiLineString","properties":{"kind":"highway","network":"ph:nhn","short_name":"NLEX","sort_rank":383,"kind_detail":"motorway","source":"openstreetmap.org","min_zoom":8.0,"all_networks":["ph:nhn","ph:nhn"],"landuse_kind":"urban_area","shield_text":null,"ref":"E1","all_shield_texts":[null,"1"]},"arcs":[[816],[817],[818],[819]]},{"type":"MultiLineString","properties":{"kind":"major_road","network":"ph:national","sort_rank":381,"nat_name":"Daang Maharlika (LZ)","is_bicycle_related":true,"source":"openstreetmap.org","min_zoom":8.0,"kind_detail":"trunk","shield_text":"1","ref":"1;AH26"},"arcs":[[820],[821]]},{"type":"MultiLineString","properties":{"source":"openstreetmap.org","kind":"major_road","kind_detail":"trunk","sort_rank":381,"landuse_kind":"urban_area","ref":"651","min_zoom":8.0},"arcs":[[822],[823],[824]]},{"type":"MultiLineString","properties":{"kind":"major_road","network":"ph:nhn","sort_rank":380,"kind_detail":"primary","source":"openstreetmap.org","min_zoom":8.0,"old_name":"MIA Road","shield_text":"194","landuse_kind":"urban_area","ref":"194"},"arcs":[[825],[826],[827],[828]]},{"type":"MultiLineString","properties":{"bus_network":null,"network":"ph:nhn","sort_rank":381,"kind_detail":"trunk","kind":"major_road","official_name":"Epifanio de los Santos Avenue","source":"openstreetmap.org","min_zoom":8.0,"bus_shield_text":"Pasay - Dau","shield_text":null,"ref":"1;AH26"},"arcs":[[829],[830],[831],[832],[833],[834],[835]]},{"type":"LineString","properties":{"kind":"major_road","network":"ph:national","sort_rank":381,"kind_detail":"trunk","source":"openstreetmap.org","min_zoom":8.0,"landuse_kind":"urban_area","shield_text":"1","ref":"1","id":142690604},"arcs":[836]},{"type":"LineString","properties":{"source":"openstreetmap.org","kind":"ferry","name":"To Taal Volcano Island South","sort_rank":355,"landuse_kind":"park","min_zoom":8.0,"id":336744934},"arcs":[837]},{"type":"MultiLineString","properties":{"kind":"major_road","network":"ph:national","sort_rank":381,"landuse_kind":"urban_area","source":"openstreetmap.org","min_zoom":8.0,"kind_detail":"trunk","shield_text":"65"},"arcs":[[838],[839],[840],[841]]},{"type":"LineString","properties":{"kind":"major_road","network":"ph:nhn","sort_rank":381,"kind_detail":"trunk","official_name":"President Sergio Osme\u00f1a Highway","source":"openstreetmap.org","min_zoom":8.0,"old_name":"South Superhighway","shield_text":null,"landuse_kind":"urban_area","ref":"1","id":188163093,"nat_name":"South Luzon Expressway"},"arcs":[842]},{"type":"MultiLineString","properties":{"source":"openstreetmap.org","kind":"major_road","sort_rank":381,"kind_detail":"trunk","ref":"170","min_zoom":8.0},"arcs":[[843],[844],[845],[846],[847],[848],[849],[850],[851]]},{"type":"MultiLineString","properties":{"kind":"major_road","network":"ph:nhn","sort_rank":380,"kind_detail":"primary","source":"openstreetmap.org","min_zoom":8.0,"shield_text":"606","ref":"606"},"arcs":[[852],[853],[854],[855]]},{"type":"MultiLineString","properties":{"kind":"major_road","network":null,"sort_rank":381,"landuse_kind":"urban_area","source":"openstreetmap.org","min_zoom":8.0,"kind_detail":"trunk","shield_text":"5","ref":"129"},"arcs":[[856],[857],[858],[859]]},{"type":"MultiLineString","properties":{"source":"openstreetmap.org","kind":"major_road","sort_rank":380,"kind_detail":"primary","is_bicycle_related":true,"min_zoom":8.0},"arcs":[[860],[861],[862],[863],[864],[865],[866],[867],[868],[869]]},{"type":"MultiLineString","properties":{"kind":"major_road","sort_rank":380,"kind_detail":"primary","is_bicycle_related":true,"cycleway":"shared_lane","source":"openstreetmap.org","min_zoom":8.0,"landuse_kind":"urban_area"},"arcs":[[870],[871],[872],[873]]},{"type":"LineString","properties":{"source":"openstreetmap.org","kind":"major_road","landuse_kind":"nature_reserve","sort_rank":380,"kind_detail":"primary","min_zoom":8.0},"arcs":[874]},{"type":"LineString","properties":{"kind":"major_road","network":"ph:national","sort_rank":381,"kind_detail":"trunk","is_bicycle_related":true,"bus_network":"Public Utility Vehicle","source":"openstreetmap.org","min_zoom":8.0,"bus_shield_text":null,"shield_text":"1","landuse_kind":"urban_area","id":245313312},"arcs":[875]},{"type":"LineString","properties":{"source":"openstreetmap.org","kind":"major_road","sort_rank":380,"kind_detail":"primary","ref":"C-3","min_zoom":8.0},"arcs":[876]},{"type":"LineString","properties":{"kind":"major_road","sort_rank":381,"kind_detail":"trunk","is_bicycle_related":true,"bus_network":"Novaliches-Baclaran","source":"openstreetmap.org","min_zoom":8.0,"bus_shield_text":null,"landuse_kind":"urban_area","ref":"127","id":120880944},"arcs":[877]},{"type":"LineString","properties":{"kind":"major_road","network":"ph:nhn","sort_rank":381,"kind_detail":"trunk","source":"openstreetmap.org","min_zoom":8.0,"nat_name":"Ortigas Ave","shield_text":"60","landuse_kind":"urban_area","ref":"60","id":129710068},"arcs":[878]},{"type":"MultiLineString","properties":{"kind":"major_road","network":"ph:national","sort_rank":381,"kind_detail":"trunk","source":"openstreetmap.org","min_zoom":8.0,"nat_name":"Daang Maharlika (LZ)","shield_text":"1","ref":"1;AH26"},"arcs":[[879],[880],[881],[882],[883],[884],[885],[886],[887],[888],[889],[890],[891],[892],[893],[894],[895],[896]]},{"type":"LineString","properties":{"kind":"major_road","network":"ph:nhn","sort_rank":380,"kind_detail":"primary","source":"openstreetmap.org","min_zoom":8.0,"shield_text":"4","ref":"4","id":202828128},"arcs":[897]},{"type":"LineString","properties":{"kind":"highway","network":"ph:nhn","sort_rank":383,"nat_name":"Dr. Jose P. Rizal Highway","source":"openstreetmap.org","min_zoom":8.0,"all_networks":["ph:nhn",null],"landuse_kind":"urban_area","shield_text":null,"kind_detail":"motorway","ref":"E2","all_shield_texts":[null,"3"]},"arcs":[898]},{"type":"MultiLineString","properties":{"kind":"major_road","network":"ph:nhn","sort_rank":381,"landuse_kind":"urban_area","source":"openstreetmap.org","min_zoom":8.0,"kind_detail":"trunk","shield_text":"420","ref":"420"},"arcs":[[899],[900],[901],[902],[903],[904],[905]]},{"type":"MultiLineString","properties":{"kind":"major_road","network":"ph:nhn","sort_rank":380,"kind_detail":"primary","source":"openstreetmap.org","min_zoom":8.0,"landuse_kind":"urban_area","shield_text":"180","ref":"180"},"arcs":[[906],[907],[908],[909],[910],[911],[912],[913],[914],[915]]},{"type":"LineString","properties":{"kind":"major_road","network":"ph:nhn","sort_rank":380,"kind_detail":"primary","source":"openstreetmap.org","min_zoom":8.0,"shield_text":"421","ref":"421"},"arcs":[916]},{"type":"LineString","properties":{"kind":"major_road","network":"ph:nhn","sort_rank":380,"kind_detail":"primary","official_name":"Banaybanay-Mojon-Cuenca Road","source":"openstreetmap.org","min_zoom":8.0,"shield_text":"433","ref":"433","id":408805780},"arcs":[917]},{"type":"MultiLineString","properties":{"kind":"major_road","network":"ph:nhn","sort_rank":380,"kind_detail":"primary","source":"openstreetmap.org","min_zoom":8.0,"landuse_kind":"urban_area","shield_text":"59","ref":"59"},"arcs":[[918],[919]]},{"type":"MultiLineString","properties":{"kind":"major_road","network":"ph:nhn","sort_rank":380,"kind_detail":"primary","source":"openstreetmap.org","min_zoom":8.0,"old_name":"Imelda Avenue","shield_text":"195","landuse_kind":"urban_area","ref":"195"},"arcs":[[920],[921],[922],[923]]},{"type":"MultiLineString","properties":{"bus_network":"Public Utility Vehicle","network":"ph:national","sort_rank":381,"kind_detail":"trunk","kind":"major_road","source":"openstreetmap.org","min_zoom":8.0,"bus_shield_text":null,"shield_text":"1","landuse_kind":"urban_area","ref":"1;AH26"},"arcs":[[924],[925],[926]]},{"type":"LineString","properties":{"kind":"major_road","network":"ph:national","sort_rank":381,"nat_name":"Daang Maharlika (LZ)","is_bicycle_related":true,"source":"openstreetmap.org","min_zoom":8.0,"kind_detail":"trunk","shield_text":"1","landuse_kind":"urban_area","ref":"1;AH26"},"arcs":[927]},{"type":"LineString","properties":{"source":"openstreetmap.org","kind":"major_road","landuse_kind":"urban_area","sort_rank":380,"kind_detail":"primary","min_zoom":8.0,"official_name":"Francisco Legaspi"},"arcs":[928]},{"type":"LineString","properties":{"kind":"major_road","sort_rank":381,"kind_detail":"trunk","bus_network":null,"source":"openstreetmap.org","min_zoom":8.0,"bus_shield_text":"Pasay - Dau","landuse_kind":"urban_area","id":351794321},"arcs":[929]},{"type":"LineString","properties":{"kind":"major_road","sort_rank":380,"landuse_kind":"urban_area","source":"openstreetmap.org","min_zoom":8.0,"kind_detail":"primary","ref":"600","id":491234632},"arcs":[930]},{"type":"LineString","properties":{"source":"openstreetmap.org","kind":"ferry","name":"Manila - Odiongan","sort_rank":355,"landuse_kind":"urban_area","min_zoom":8.0,"id":475423314},"arcs":[931]},{"type":"MultiLineString","properties":{"kind":"highway","network":"ph:nhn","sort_rank":383,"landuse_kind":"urban_area","source":"openstreetmap.org","min_zoom":8.0,"all_networks":["ph:nhn","ph:nhn",null],"kind_detail":"motorway","shield_text":null,"ref":"E2","all_shield_texts":[null,"2","3"]},"arcs":[[932],[933],[934],[935],[936],[937],[938],[939],[940],[941],[942],[943],[944]]},{"type":"MultiLineString","properties":{"kind":"major_road","network":"ph:nhn","sort_rank":381,"nat_name":"Pagsanjan-Lucban Rd","is_bicycle_related":true,"source":"openstreetmap.org","min_zoom":8.0,"kind_detail":"trunk","shield_text":"603","ref":"603"},"arcs":[[945],[946]]},{"type":"LineString","properties":{"sort_rank":355,"source":"openstreetmap.org","min_zoom":8.0,"name":"Dingalan - Real","kind":"ferry"},"arcs":[947]},{"type":"MultiLineString","properties":{"kind":"highway","network":"ph:nhn","sort_rank":383,"nat_name":"Apolinario Mabini Superhighway","source":"openstreetmap.org","min_zoom":8.0,"all_networks":["ph:nhn",null],"kind_detail":"motorway","shield_text":"2","ref":"E2","all_shield_texts":["2","3"]},"arcs":[[948],[949],[950],[951],[952],[953]]},{"type":"MultiLineString","properties":{"source":"openstreetmap.org","kind":"major_road","old_name":"Andalucia","sort_rank":380,"kind_detail":"primary","landuse_kind":"urban_area","min_zoom":8.0},"arcs":[[954],[955]]},{"type":"LineString","properties":{"source":"openstreetmap.org","kind":"ferry","name":"Real - Polilio","sort_rank":355,"min_zoom":8.0,"id":260110537},"arcs":[956]},{"type":"LineString","properties":{"kind":"major_road","network":"ph:nhn","sort_rank":380,"kind_detail":"primary","source":"openstreetmap.org","min_zoom":8.0,"landuse_kind":"urban_area","shield_text":"601","ref":"601","id":28935417},"arcs":[957]},{"type":"MultiLineString","properties":{"sort_rank":381,"source":"openstreetmap.org","min_zoom":8.0,"kind":"major_road","kind_detail":"trunk"},"arcs":[[958],[959],[960],[961],[962],[963],[964],[965],[966],[967],[968],[969],[970],[971],[972],[973],[974],[975],[976],[977],[978]]},{"type":"LineString","properties":{"source":"openstreetmap.org","kind":"major_road","old_name":"Gen Trias - Amadeo - Tagaytay Road","sort_rank":380,"kind_detail":"primary","min_zoom":8.0,"id":79080854},"arcs":[979]},{"type":"LineString","properties":{"kind":"highway","network":"ph:nhn","sort_rank":383,"kind_detail":"motorway","source":"openstreetmap.org","min_zoom":8.0,"all_networks":["ph:nhn","ph:nhn",null],"old_name":"South Superhighway","shield_text":null,"landuse_kind":"urban_area","id":409270911,"all_shield_texts":[null,"2","3"]},"arcs":[980]},{"type":"MultiLineString","properties":{"kind":"highway","network":"ph:nhn","short_name":"SLEX","sort_rank":383,"landuse_kind":"urban_area","official_name":"President Sergio Osme\u00f1a Sr. Highway","source":"openstreetmap.org","min_zoom":8.0,"all_networks":["ph:nhn","ph:nhn"],"old_name":"South Superhighway","shield_text":null,"kind_detail":"motorway","ref":"E2","all_shield_texts":[null,"2"]},"arcs":[[981],[982]]},{"type":"LineString","properties":{"kind":"major_road","network":"ph:national","sort_rank":381,"kind_detail":"trunk","source":"openstreetmap.org","min_zoom":8.0,"landuse_kind":"urban_area","shield_text":"1","id":186159873},"arcs":[983]},{"type":"LineString","properties":{"kind":"major_road","network":"ph:national","sort_rank":381,"kind_detail":"trunk","source":"openstreetmap.org","min_zoom":8.0,"old_name":"Maharlika Hi-way","shield_text":"1","ref":"1;AH26","nat_name":"Daang Maharlika (LZ)"},"arcs":[984]},{"type":"MultiLineString","properties":{"kind":"major_road","network":"ph:nhn","sort_rank":381,"kind_detail":"trunk","source":"openstreetmap.org","min_zoom":8.0,"nat_name":"Manila East Road","shield_text":"601","ref":"601"},"arcs":[[985],[986],[987],[988]]},{"type":"MultiLineString","properties":{"kind":"major_road","network":"ph:nhn","sort_rank":381,"landuse_kind":"urban_area","source":"openstreetmap.org","min_zoom":8.0,"kind_detail":"trunk","loc_name":"Rizal Avenue","ref":"601","shield_text":"601"},"arcs":[[989],[990],[991],[992]]},{"type":"MultiLineString","properties":{"kind":"major_road","network":"ph:nhn","sort_rank":380,"kind_detail":"primary","source":"openstreetmap.org","min_zoom":8.0,"landuse_kind":"urban_area","shield_text":"600","ref":"600"},"arcs":[[993],[994],[995],[996]]},{"type":"MultiLineString","properties":{"kind":"major_road","network":"ph:nhn","sort_rank":381,"landuse_kind":"urban_area","official_name":"Epifanio de los Santos Avenue","source":"openstreetmap.org","min_zoom":8.0,"kind_detail":"trunk","shield_text":null,"ref":"1;AH26"},"arcs":[[997],[998],[999],[1000],[1001],[1002],[1003],[1004],[1005],[1006]]},{"type":"LineString","properties":{"source":"openstreetmap.org","kind":"major_road","sort_rank":381,"kind_detail":"trunk","ref":"410","min_zoom":8.0,"id":333225771},"arcs":[1007]},{"type":"MultiLineString","properties":{"kind":"major_road","sort_rank":380,"kind_detail":"primary","source":"openstreetmap.org","min_zoom":8.0,"old_name":"Sucat Road","landuse_kind":"urban_area","ref":"144"},"arcs":[[1008],[1009],[1010]]},{"type":"MultiLineString","properties":{"sort_rank":355,"source":"openstreetmap.org","min_zoom":8.0,"kind":"ferry"},"arcs":[[1011],[1012]]},{"type":"MultiLineString","properties":{"source":"openstreetmap.org","kind":"highway","landuse_kind":"urban_area","sort_rank":383,"kind_detail":"motorway","min_zoom":8.0},"arcs":[[1013],[1014],[1015],[1016],[1017],[1018],[1019],[1020],[1021],[1022],[1023],[1024],[1025],[1026],[1027],[1028]]},{"type":"MultiLineString","properties":{"kind":"major_road","network":"ph:nhn","sort_rank":381,"landuse_kind":"urban_area","source":"openstreetmap.org","min_zoom":8.0,"kind_detail":"trunk","shield_text":null,"ref":"1;AH26"},"arcs":[[1029],[1030],[1031],[1032],[1033]]},{"type":"MultiLineString","properties":{"kind":"major_road","network":null,"sort_rank":381,"landuse_kind":"urban_area","source":"openstreetmap.org","min_zoom":8.0,"kind_detail":"trunk","shield_text":"2","ref":"170"},"arcs":[[1034],[1035],[1036],[1037]]},{"type":"MultiLineString","properties":{"bus_network":"Public Utility Vehicle","network":null,"sort_rank":380,"kind_detail":"primary","bus_shield_text":null,"kind":"major_road","source":"openstreetmap.org","min_zoom":8.0,"old_name":"Real","shield_text":"2","landuse_kind":"urban_area","ref":"62"},"arcs":[[1038],[1039],[1040]]},{"type":"MultiLineString","properties":{"kind":"highway","network":"ph:nhn","sort_rank":383,"nat_name":"Apolinario Mabini Superhighway","source":"openstreetmap.org","min_zoom":8.0,"all_networks":["ph:nhn",null],"kind_detail":"motorway","shield_text":"2","landuse_kind":"park","ref":"E2","all_shield_texts":["2","3"]},"arcs":[[1041],[1042],[1043],[1044]]},{"type":"LineString","properties":{"kind":"major_road","network":"ph:nhn","short_name":"SLEX","sort_rank":381,"kind_detail":"trunk","official_name":"President Sergio Osme\u00f1a Sr. Highway","source":"openstreetmap.org","min_zoom":8.0,"old_name":"South Superhighway","shield_text":"2","landuse_kind":"urban_area","ref":"E2","id":4078785,"nat_name":"South Luzon Expressway"},"arcs":[1045]},{"type":"MultiLineString","properties":{"source":"openstreetmap.org","kind":"major_road","kind_detail":"trunk","sort_rank":381,"landuse_kind":"urban_area","ref":"411","min_zoom":8.0},"arcs":[[1046],[1047]]},{"type":"LineString","properties":{"source":"openstreetmap.org","kind":"major_road","landuse_kind":"urban_area","sort_rank":380,"kind_detail":"primary","ref":"C6","min_zoom":8.0},"arcs":[1048]},{"type":"MultiLineString","properties":{"bus_network":"local","sort_rank":380,"kind_detail":"primary","kind":"major_road","source":"openstreetmap.org","min_zoom":8.0,"bus_shield_text":null,"landuse_kind":"urban_area"},"arcs":[[1049],[1050],[1051]]},{"type":"MultiLineString","properties":{"kind":"major_road","network":null,"sort_rank":381,"kind_detail":"trunk","source":"openstreetmap.org","min_zoom":8.0,"shield_text":"1","ref":"419"},"arcs":[[1052],[1053],[1054],[1055]]},{"type":"MultiLineString","properties":{"kind":"major_road","network":null,"sort_rank":381,"landuse_kind":"urban_area","source":"openstreetmap.org","min_zoom":8.0,"old_name":"Dewey Boulevard","shield_text":"1","kind_detail":"trunk"},"arcs":[[1056],[1057]]},{"type":"LineString","properties":{"source":"openstreetmap.org","kind":"ferry","name":"Cebu - Manila","sort_rank":355,"landuse_kind":"urban_area","min_zoom":8.0,"id":421621851},"arcs":[1058]},{"type":"MultiLineString","properties":{"kind":"major_road","network":"ph:nhn","sort_rank":381,"kind_detail":"trunk","source":"openstreetmap.org","min_zoom":8.0,"shield_text":"11","ref":"11"},"arcs":[[1059],[1060]]},{"type":"MultiLineString","properties":{"kind":"major_road","network":"ph:nhn","sort_rank":380,"kind_detail":"primary","source":"openstreetmap.org","min_zoom":8.0,"old_name":"Santolan Road","shield_text":"185","ref":"185"},"arcs":[[1061],[1062],[1063]]},{"type":"MultiLineString","properties":{"source":"openstreetmap.org","kind":"major_road","sort_rank":380,"kind_detail":"primary","ref":"184","min_zoom":8.0},"arcs":[[1064],[1065]]},{"type":"LineString","properties":{"kind":"major_road","network":null,"sort_rank":381,"kind_detail":"trunk","source":"openstreetmap.org","min_zoom":8.0,"landuse_kind":"park","shield_text":"1","ref":"410","id":158519723},"arcs":[1066]},{"type":"LineString","properties":{"source":"openstreetmap.org","kind":"ferry","name":"Salibungot - Moros","sort_rank":355,"min_zoom":8.0,"id":217507562},"arcs":[1067]},{"type":"MultiLineString","properties":{"source":"openstreetmap.org","kind":"major_road","kind_detail":"trunk","sort_rank":381,"landuse_kind":"urban_area","ref":"1;AH26","min_zoom":8.0},"arcs":[[1068],[1069],[1070],[1071],[1072],[1073]]},{"type":"MultiLineString","properties":{"kind":"major_road","sort_rank":381,"landuse_kind":"urban_area","is_bicycle_related":true,"source":"openstreetmap.org","min_zoom":8.0,"kind_detail":"trunk","ref":"127"},"arcs":[[1074],[1075]]},{"type":"MultiLineString","properties":{"kind":"major_road","network":"ph:national","sort_rank":381,"kind_detail":"trunk","source":"openstreetmap.org","min_zoom":8.0,"shield_text":"1","ref":"1;AH26"},"arcs":[[1076],[1077],[1078]]},{"type":"MultiLineString","properties":{"kind":"major_road","network":"ph:nhn","sort_rank":381,"landuse_kind":"urban_area","source":"openstreetmap.org","min_zoom":8.0,"kind_detail":"trunk","shield_text":"11","ref":"11"},"arcs":[[1079],[1080],[1081],[1082],[1083],[1084],[1085],[1086],[1087],[1088],[1089],[1090],[1091],[1092],[1093],[1094],[1095],[1096],[1097],[1098]]},{"type":"MultiLineString","properties":{"cycleway_right":"shared_lane","sort_rank":380,"kind_detail":"primary","is_bicycle_related":true,"kind":"major_road","source":"openstreetmap.org","min_zoom":8.0,"landuse_kind":"urban_area"},"arcs":[[1099],[1100],[1101],[1102],[1103],[1104]]},{"type":"MultiLineString","properties":{"source":"openstreetmap.org","bus_network":"local","bus_shield_text":null,"sort_rank":380,"kind_detail":"primary","min_zoom":8.0,"kind":"major_road"},"arcs":[[1105],[1106]]},{"type":"MultiLineString","properties":{"kind":"major_road","network":null,"sort_rank":380,"kind_detail":"primary","source":"openstreetmap.org","min_zoom":8.0,"landuse_kind":"urban_area","shield_text":"5"},"arcs":[[1107],[1108]]},{"type":"MultiLineString","properties":{"kind":"major_road","network":"ph:nhn","sort_rank":381,"kind_detail":"trunk","source":"openstreetmap.org","min_zoom":8.0,"shield_text":"601","ref":"601"},"arcs":[[1109],[1110],[1111],[1112],[1113],[1114],[1115],[1116]]},{"type":"MultiLineString","properties":{"source":"openstreetmap.org","kind":"major_road","kind_detail":"trunk","sort_rank":381,"landuse_kind":"urban_area","min_zoom":8.0},"arcs":[[1117],[1118],[1119],[1120],[1121],[1122],[1123],[1124],[1125],[1126],[1127],[1128],[1129],[1130],[1131],[1132],[1133],[1134],[1135],[1136],[1137],[1138],[1139],[1140],[1141],[1142],[1143],[1144],[1145],[1146],[1147],[1148],[1149],[1150],[1151],[1152],[1153],[1154],[1155],[1156],[1157],[1158],[1159],[1160],[1161],[1162],[1163],[1164],[1165],[1166],[1167],[1168],[1169],[1170],[1171],[1172],[1173],[1174],[1175],[1176],[1177],[1178],[1179],[1180],[1181],[1182],[1183],[1184],[1185],[1186]]},{"type":"MultiLineString","properties":{"kind":"major_road","network":"ph:nhn","sort_rank":381,"kind_detail":"trunk","source":"openstreetmap.org","min_zoom":8.0,"shield_text":"420","ref":"420"},"arcs":[[1187],[1188],[1189],[1190],[1191]]},{"type":"MultiLineString","properties":{"kind":"highway","network":"ph:nhn","sort_rank":383,"kind_detail":"motorway","source":"openstreetmap.org","min_zoom":8.0,"all_networks":["ph:nhn",null],"shield_text":"2","ref":"E2","all_shield_texts":["2","3"]},"arcs":[[1192],[1193],[1194],[1195]]},{"type":"MultiLineString","properties":{"source":"openstreetmap.org","kind":"major_road","sort_rank":381,"kind_detail":"trunk","ref":"127","min_zoom":8.0},"arcs":[[1196],[1197],[1198]]},{"type":"LineString","properties":{"source":"openstreetmap.org","kind":"major_road","nat_name":"Majayjay-Lucban Rd","sort_rank":380,"kind_detail":"primary","min_zoom":8.0},"arcs":[1199]},{"type":"LineString","properties":{"kind":"major_road","network":"ph:nhn","sort_rank":380,"kind_detail":"primary","is_bicycle_related":true,"source":"openstreetmap.org","min_zoom":8.0,"shield_text":"610","ref":"610","id":228098212},"arcs":[1200]},{"type":"MultiLineString","properties":{"kind":"major_road","network":"ph:nhn","sort_rank":381,"nat_name":"Maspang H-way","source":"openstreetmap.org","min_zoom":8.0,"kind_detail":"trunk","shield_text":"66","ref":"66"},"arcs":[[1201],[1202]]},{"type":"MultiLineString","properties":{"kind":"major_road","sort_rank":380,"kind_detail":"primary","is_bicycle_related":true,"cycleway":"lane","source":"openstreetmap.org","min_zoom":8.0,"landuse_kind":"urban_area"},"arcs":[[1203],[1204],[1205],[1206],[1207],[1208],[1209],[1210],[1211],[1212]]},{"type":"MultiLineString","properties":{"kind":"major_road","network":"ph:nhn","sort_rank":381,"landuse_kind":"urban_area","source":"openstreetmap.org","min_zoom":8.0,"old_name":"P. Oliveros St.","shield_text":"60","kind_detail":"trunk","ref":"60"},"arcs":[[1213],[1214]]},{"type":"MultiLineString","properties":{"bus_network":"Public Utility Vehicle","network":"ph:national","sort_rank":380,"kind_detail":"primary","kind":"major_road","source":"openstreetmap.org","min_zoom":8.0,"bus_shield_text":null,"shield_text":"1","landuse_kind":"urban_area","ref":"411"},"arcs":[[1215],[1216],[1217]]},{"type":"MultiLineString","properties":{"source":"openstreetmap.org","kind":"major_road","old_name":"William Cameron Forbes","sort_rank":381,"kind_detail":"trunk","ref":"140","min_zoom":8.0},"arcs":[[1218],[1219]]},{"type":"MultiLineString","properties":{"bus_network":"Public Utility Vehicle","network":null,"sort_rank":381,"kind_detail":"trunk","kind":"major_road","source":"openstreetmap.org","min_zoom":8.0,"bus_shield_text":null,"shield_text":"1","landuse_kind":"urban_area","ref":"61"},"arcs":[[1220],[1221],[1222]]},{"type":"MultiLineString","properties":{"kind":"major_road","network":"ph:nhn","sort_rank":381,"landuse_kind":"urban_area","source":"openstreetmap.org","min_zoom":8.0,"kind_detail":"trunk","shield_text":"27","ref":"HA27"},"arcs":[[1223],[1224],[1225],[1226],[1227],[1228],[1229]]},{"type":"MultiLineString","properties":{"kind":"highway","network":"ph:nhn","sort_rank":383,"nat_name":"Dr. Jose P. Rizal Highway","source":"openstreetmap.org","min_zoom":8.0,"all_networks":["ph:nhn","ph:nhn",null],"landuse_kind":"urban_area","shield_text":null,"kind_detail":"motorway","ref":"E2","all_shield_texts":[null,"2","3"]},"arcs":[[1230],[1231],[1232],[1233],[1234],[1235],[1236],[1237]]},{"type":"MultiLineString","properties":{"source":"openstreetmap.org","kind":"major_road","kind_detail":"trunk","sort_rank":381,"landuse_kind":"urban_area","ref":"419","min_zoom":8.0},"arcs":[[1238],[1239],[1240],[1241],[1242],[1243]]},{"type":"MultiLineString","properties":{"kind":"major_road","network":null,"sort_rank":381,"landuse_kind":"urban_area","source":"openstreetmap.org","min_zoom":8.0,"kind_detail":"trunk","shield_text":"1"},"arcs":[[1244],[1245]]},{"type":"MultiLineString","properties":{"kind":"major_road","network":"ph:nhn","sort_rank":381,"landuse_kind":"urban_area","source":"openstreetmap.org","min_zoom":8.0,"old_name":"Dewey Boulevard","shield_text":null,"kind_detail":"trunk","ref":"120"},"arcs":[[1246],[1247],[1248],[1249]]},{"type":"MultiLineString","properties":{"source":"openstreetmap.org","kind":"major_road","sort_rank":380,"kind_detail":"primary","ref":"130","min_zoom":8.0},"arcs":[[1250],[1251],[1252],[1253]]},{"type":"LineString","properties":{"source":"openstreetmap.org","kind":"ferry","name":"Manila - El Nido","sort_rank":355,"landuse_kind":"urban_area","min_zoom":8.0,"id":472867331},"arcs":[1254]},{"type":"MultiLineString","properties":{"source":"openstreetmap.org","kind":"major_road","kind_detail":"trunk","sort_rank":381,"landuse_kind":"urban_area","ref":"140","min_zoom":8.0},"arcs":[[1255],[1256]]},{"type":"MultiLineString","properties":{"bus_network":null,"network":"ph:nhn","sort_rank":381,"kind_detail":"trunk","kind":"major_road","source":"openstreetmap.org","min_zoom":8.0,"bus_shield_text":"Pasay - Dau","shield_text":null,"ref":"1;AH26"},"arcs":[[1257],[1258],[1259],[1260]]},{"type":"MultiLineString","properties":{"kind":"major_road","network":"ph:nhn","sort_rank":381,"landuse_kind":"urban_area","source":"openstreetmap.org","min_zoom":8.0,"kind_detail":"trunk","shield_text":"60","ref":"60"},"arcs":[[1261],[1262],[1263],[1264],[1265],[1266],[1267],[1268]]},{"type":"MultiLineString","properties":{"source":"openstreetmap.org","kind":"ferry","name":"Manila - Coron","sort_rank":355,"landuse_kind":"urban_area","min_zoom":8.0},"arcs":[[1269],[1270]]},{"type":"MultiLineString","properties":{"sort_rank":355,"source":"openstreetmap.org","min_zoom":8.0,"name":"Manila - Coron","kind":"ferry"},"arcs":[[1271],[1272]]},{"type":"MultiLineString","properties":{"bus_network":null,"sort_rank":381,"landuse_kind":"urban_area","kind":"major_road","source":"openstreetmap.org","min_zoom":8.0,"bus_shield_text":"Pacita-Fairview","kind_detail":"trunk"},"arcs":[[1273],[1274],[1275]]},{"type":"LineString","properties":{"kind":"major_road","sort_rank":380,"landuse_kind":"urban_area","source":"openstreetmap.org","min_zoom":8.0,"kind_detail":"primary","ref":"191","id":34861679},"arcs":[1276]},{"type":"MultiLineString","properties":{"source":"openstreetmap.org","kind":"major_road","old_name":"Calle Alix","sort_rank":380,"kind_detail":"primary","landuse_kind":"urban_area","min_zoom":8.0},"arcs":[[1277],[1278]]},{"type":"LineString","properties":{"kind":"highway","network":"ph:nhn","sort_rank":383,"landuse_kind":"urban_area","source":"openstreetmap.org","min_zoom":8.0,"all_networks":["ph:nhn","ph:nhn"],"kind_detail":"motorway","shield_text":null,"ref":"E2","all_shield_texts":[null,"2"]},"arcs":[1279]},{"type":"MultiLineString","properties":{"kind":"major_road","network":"ph:nhn","sort_rank":381,"landuse_kind":"urban_area","source":"openstreetmap.org","min_zoom":8.0,"kind_detail":"trunk","shield_text":null,"ref":"120"},"arcs":[[1280],[1281],[1282],[1283],[1284],[1285],[1286],[1287],[1288],[1289],[1290],[1291]]},{"type":"LineString","properties":{"kind":"highway","network":"ph:nhn","sort_rank":383,"kind_detail":"motorway","source":"openstreetmap.org","min_zoom":8.0,"all_networks":["ph:nhn","ph:nhn",null],"shield_text":null,"ref":"E2; AH26","id":145387038,"all_shield_texts":[null,"2","3"]},"arcs":[1292]},{"type":"MultiLineString","properties":{"kind":"highway","network":"ph:nhn","sort_rank":383,"nat_name":"Dr. Jose P. Rizal Highway","source":"openstreetmap.org","min_zoom":8.0,"all_networks":["ph:nhn","ph:nhn",null],"landuse_kind":"urban_area","shield_text":null,"kind_detail":"motorway","ref":"E2;R3","all_shield_texts":[null,"2","3"]},"arcs":[[1293],[1294]]},{"type":"LineString","properties":{"kind":"major_road","network":"ph:nhn","sort_rank":381,"kind_detail":"trunk","is_bicycle_related":true,"source":"openstreetmap.org","min_zoom":8.0,"nat_name":"Calamba-Sta Cruz-Famy Jct Rd","shield_text":"602","ref":"602","id":35601402},"arcs":[1295]},{"type":"MultiLineString","properties":{"kind":"major_road","sort_rank":380,"kind_detail":"primary","source":"openstreetmap.org","min_zoom":8.0,"landuse_kind":"urban_area","ref":"184","nat_name":"Ortigas Ave"},"arcs":[[1296],[1297]]},{"type":"LineString","properties":{"source":"openstreetmap.org","kind":"major_road","sort_rank":381,"kind_detail":"trunk","ref":"419","min_zoom":8.0},"arcs":[1298]},{"type":"MultiLineString","properties":{"kind":"major_road","sort_rank":380,"kind_detail":"primary","source":"openstreetmap.org","min_zoom":8.0,"old_name":"Buendia Avenue","landuse_kind":"urban_area","ref":"190"},"arcs":[[1299],[1300],[1301],[1302],[1303]]},{"type":"LineString","properties":{"kind":"major_road","network":"ph:national","sort_rank":381,"kind_detail":"trunk","bus_network":"Public Utility Vehicle","official_name":"Alabang-Zapote Centennial Flyover","source":"openstreetmap.org","min_zoom":8.0,"bus_shield_text":null,"shield_text":"1","landuse_kind":"urban_area","ref":"411","id":23959446},"arcs":[1304]},{"type":"MultiLineString","properties":{"bus_network":"Public Utility Vehicle","network":"ph:national","sort_rank":381,"landuse_kind":"urban_area","kind":"major_road","source":"openstreetmap.org","min_zoom":8.0,"bus_shield_text":null,"shield_text":"1","kind_detail":"trunk"},"arcs":[[1305],[1306],[1307],[1308]]},{"type":"LineString","properties":{"kind":"highway","network":"ph:nhn","sort_rank":383,"kind_detail":"motorway","source":"openstreetmap.org","min_zoom":8.0,"all_networks":["ph:nhn",null],"landuse_kind":"urban_area","shield_text":"2","ref":"E2;R3","id":202829213,"all_shield_texts":["2","3"]},"arcs":[1309]},{"type":"LineString","properties":{"kind":"major_road","network":"ph:nhn","sort_rank":381,"kind_detail":"trunk","source":"openstreetmap.org","min_zoom":8.0,"landuse_kind":"urban_area","shield_text":null,"id":22740567},"arcs":[1310]},{"type":"LineString","properties":{"source":"openstreetmap.org","kind":"major_road","kind_detail":"trunk","sort_rank":381,"landuse_kind":"urban_area","ref":"62","min_zoom":8.0},"arcs":[1311]},{"type":"LineString","properties":{"source":"openstreetmap.org","kind":"ferry","name":"To Taal Volcano Island North Dock","sort_rank":355,"landuse_kind":"park","min_zoom":8.0,"id":187917941},"arcs":[1312]},{"type":"LineString","properties":{"kind":"major_road","network":"ph:nhn","short_name":"SLEX","sort_rank":381,"kind_detail":"trunk","official_name":"President Sergio Osme\u00f1a Sr. Highway","source":"openstreetmap.org","min_zoom":8.0,"old_name":"South Superhighway","shield_text":null,"landuse_kind":"urban_area","ref":"E2","id":23952736,"nat_name":"South Luzon Expressway"},"arcs":[1313]},{"type":"LineString","properties":{"kind":"major_road","network":"ph:nhn","sort_rank":380,"kind_detail":"primary","is_bicycle_related":true,"source":"openstreetmap.org","min_zoom":8.0,"shield_text":"606","ref":"606","id":31344616},"arcs":[1314]},{"type":"MultiLineString","properties":{"kind":"major_road","network":"ph:nhn","sort_rank":381,"kind_detail":"trunk","source":"openstreetmap.org","min_zoom":8.0,"shield_text":"4","ref":"4"},"arcs":[[1315],[1316],[1317],[1318],[1319],[1320],[1321],[1322],[1323]]},{"type":"MultiLineString","properties":{"bus_network":null,"network":"ph:nhn","sort_rank":381,"kind_detail":"trunk","kind":"major_road","official_name":"Epifanio de los Santos Avenue","source":"openstreetmap.org","min_zoom":8.0,"bus_shield_text":"Pacita-Fairview","shield_text":null,"ref":"1;AH26"},"arcs":[[1324],[1325],[1326],[1327]]},{"type":"MultiLineString","properties":{"kind":"major_road","network":"ph:nhn","sort_rank":381,"kind_detail":"trunk","source":"openstreetmap.org","min_zoom":8.0,"shield_text":null,"ref":"1;AH26"},"arcs":[[1328],[1329],[1330],[1331],[1332],[1333],[1334],[1335],[1336],[1337],[1338]]},{"type":"LineString","properties":{"source":"openstreetmap.org","kind":"ferry","name":"Buso Buso - Taal Island Volcano West","sort_rank":355,"landuse_kind":"park","min_zoom":8.0,"id":450304018},"arcs":[1339]},{"type":"LineString","properties":{"source":"openstreetmap.org","kind":"ferry","name":"Patnanungan - Burdeos","sort_rank":355,"min_zoom":8.0,"id":475746291},"arcs":[1340]},{"type":"LineString","properties":{"source":"openstreetmap.org","kind":"ferry","name":"Binangonan - Buhangin","sort_rank":355,"min_zoom":8.0,"id":435115802},"arcs":[1341]},{"type":"LineString","properties":{"kind":"major_road","sort_rank":380,"landuse_kind":"urban_area","official_name":"Tantay-Angono Coastal Road","source":"openstreetmap.org","min_zoom":8.0,"kind_detail":"primary","id":236254426},"arcs":[1342]},{"type":"LineString","properties":{"source":"openstreetmap.org","kind":"ferry","name":"Real - Patnanungan","sort_rank":355,"min_zoom":8.0,"id":217507560},"arcs":[1343]},{"type":"MultiLineString","properties":{"kind":"major_road","network":"ph:nhn","sort_rank":380,"kind_detail":"primary","source":"openstreetmap.org","min_zoom":8.0,"shield_text":"59","ref":"59"},"arcs":[[1344],[1345]]},{"type":"LineString","properties":{"source":"openstreetmap.org","kind":"major_road","short_name":"Gen. Kalentong","landuse_kind":"urban_area","sort_rank":380,"kind_detail":"primary","min_zoom":8.0},"arcs":[1346]},{"type":"MultiLineString","properties":{"kind":"major_road","network":"ph:nhn","sort_rank":380,"kind_detail":"primary","source":"openstreetmap.org","min_zoom":8.0,"shield_text":"180","ref":"180"},"arcs":[[1347],[1348],[1349],[1350]]},{"type":"LineString","properties":{"source":"openstreetmap.org","kind":"ferry","name":"Manila - Odiongan","sort_rank":355,"min_zoom":8.0,"id":475423314},"arcs":[1351]},{"type":"LineString","properties":{"kind":"major_road","sort_rank":380,"landuse_kind":"urban_area","source":"openstreetmap.org","min_zoom":8.0,"kind_detail":"primary","ref":"140","id":126174729},"arcs":[1352]},{"type":"MultiLineString","properties":{"kind":"major_road","network":"ph:national","sort_rank":381,"landuse_kind":"urban_area","source":"openstreetmap.org","min_zoom":8.0,"kind_detail":"trunk","shield_text":"1","ref":"1;AH26","nat_name":"Daang Maharlika (LZ)"},"arcs":[[1353],[1354]]},{"type":"LineString","properties":{"kind":"highway","network":"ph:nhn","sort_rank":383,"landuse_kind":"urban_area","official_name":"Manila-Cavite Expressway","source":"openstreetmap.org","min_zoom":8.0,"all_networks":["ph:nhn",null],"kind_detail":"motorway","loc_name":"Coastal Road","ref":"E3","all_shield_texts":["3","1"],"shield_text":"3"},"arcs":[1355]},{"type":"MultiLineString","properties":{"source":"openstreetmap.org","kind":"major_road","landuse_kind":"urban_area","sort_rank":380,"kind_detail":"primary","ref":"190","min_zoom":8.0},"arcs":[[1356],[1357],[1358]]},{"type":"MultiLineString","properties":{"bus_network":"Public Utility Vehicle","network":"ph:national","sort_rank":381,"kind_detail":"trunk","bus_shield_text":null,"kind":"major_road","source":"openstreetmap.org","min_zoom":8.0,"old_name":"Real","shield_text":"1","landuse_kind":"urban_area"},"arcs":[[1359],[1360]]},{"type":"LineString","properties":{"kind":"major_road","network":null,"sort_rank":381,"kind_detail":"trunk","source":"openstreetmap.org","min_zoom":8.0,"landuse_kind":"urban_area","shield_text":"1","ref":"61","id":245317930},"arcs":[1361]},{"type":"MultiLineString","properties":{"source":"openstreetmap.org","kind":"major_road","old_name":"Calles Herran","sort_rank":380,"kind_detail":"primary","landuse_kind":"urban_area","min_zoom":8.0},"arcs":[[1362],[1363],[1364]]},{"type":"MultiLineString","properties":{"kind":"major_road","network":"ph:nhn","sort_rank":381,"kind_detail":"trunk","official_name":"Pres. Carlos P. Garcia Avenue","source":"openstreetmap.org","min_zoom":8.0,"shield_text":"11","ref":"11"},"arcs":[[1365],[1366],[1367],[1368],[1369],[1370],[1371],[1372],[1373],[1374],[1375],[1376],[1377],[1378]]},{"type":"MultiLineString","properties":{"source":"openstreetmap.org","kind":"major_road","landuse_kind":"urban_area","sort_rank":380,"kind_detail":"primary","min_zoom":8.0},"arcs":[[1379],[1380],[1381],[1382],[1383],[1384],[1385],[1386],[1387],[1388],[1389],[1390],[1391],[1392],[1393],[1394],[1395],[1396],[1397],[1398],[1399],[1400],[1401],[1402],[1403],[1404],[1405],[1406],[1407],[1408],[1409],[1410],[1411],[1412],[1413],[1414],[1415],[1416],[1417],[1418],[1419],[1420],[1421],[1422],[1423],[1424],[1425],[1426],[1427],[1428],[1429],[1430],[1431],[1432],[1433],[1434],[1435],[1436],[1437],[1438],[1439],[1440],[1441],[1442],[1443],[1444],[1445],[1446],[1447],[1448],[1449],[1450],[1451],[1452],[1453],[1454],[1455],[1456],[1457],[1458],[1459],[1460],[1461],[1462],[1463],[1464],[1465],[1466],[1467],[1468],[1469],[1470],[1471],[1472],[1473],[1474],[1475],[1476],[1477],[1478],[1479],[1480],[1481],[1482],[1483],[1484],[1485],[1486],[1487],[1488],[1489],[1490],[1491],[1492],[1493],[1494],[1495],[1496],[1497],[1498],[1499],[1500],[1501],[1502],[1503],[1504],[1505],[1506],[1507],[1508],[1509],[1510],[1511],[1512],[1513],[1514],[1515],[1516],[1517],[1518],[1519],[1520],[1521],[1522],[1523],[1524],[1525],[1526],[1527],[1528],[1529],[1530],[1531],[1532],[1533],[1534],[1535],[1536],[1537],[1538],[1539],[1540],[1541],[1542],[1543],[1544],[1545],[1546],[1547],[1548],[1549],[1550],[1551],[1552],[1553],[1554],[1555],[1556],[1557],[1558],[1559],[1560],[1561],[1562],[1563],[1564],[1565],[1566],[1567],[1568],[1569],[1570],[1571],[1572],[1573],[1574],[1575],[1576],[1577],[1578],[1579],[1580],[1581],[1582],[1583],[1584],[1585],[1586],[1587],[1588],[1589],[1590],[1591],[1592],[1593],[1594],[1595],[1596],[1597],[1598],[1599],[1600],[1601],[1602],[1603],[1604],[1605],[1606],[1607],[1608],[1609],[1610],[1611],[1612],[1613],[1614],[1615],[1616],[1617],[1618],[1619],[1620],[1621],[1622],[1623],[1624],[1625],[1626],[1627],[1628],[1629],[1630],[1631],[1632],[1633],[1634],[1635],[1636],[1637],[1638],[1639],[1640],[1641],[1642],[1643],[1644],[1645],[1646],[1647],[1648],[1649],[1650],[1651],[1652],[1653],[1654],[1655],[1656],[1657],[1658],[1659],[1660],[1661],[1662],[1663],[1664],[1665],[1666],[1667],[1668],[1669],[1670],[1671],[1672],[1673],[1674],[1675],[1676],[1677],[1678],[1679],[1680],[1681],[1682],[1683],[1684],[1685],[1686],[1687],[1688],[1689],[1690],[1691],[1692],[1693],[1694],[1695],[1696],[1697],[1698],[1699],[1700],[1701],[1702],[1703],[1704],[1705],[1706],[1707],[1708],[1709],[1710],[1711],[1712],[1713],[1714],[1715],[1716],[1717],[1718],[1719],[1720],[1721],[1722],[1723],[1724],[1725],[1726],[1727],[1728],[1729],[1730],[1731],[1732],[1733],[1734],[1735],[1736],[1737],[1738],[1739],[1740],[1741],[1742],[1743],[1744],[1745],[1746],[1747],[1748],[1749],[1750],[1751],[1752],[1753],[1754],[1755],[1756],[1757],[1758],[1759],[1760],[1761],[1762],[1763],[1764],[1765],[1766],[1767],[1768],[1769],[1770],[1771],[1772],[1773],[1774],[1775],[1776],[1777],[1778],[1779],[1780],[1781],[1782],[1783],[1784],[1785],[1786],[1787],[1788],[1789],[1790],[1791],[1792],[1793],[1794],[1795],[1796],[1797],[1798],[1799],[1800],[1801],[1802],[1803],[1804],[1805],[1806],[1807],[1808],[1809],[1810],[1811],[1812],[1813],[1814],[1815],[1816],[1817],[1818]]},{"type":"MultiLineString","properties":{"kind":"major_road","network":"ph:nhn","sort_rank":380,"kind_detail":"primary","source":"openstreetmap.org","min_zoom":8.0,"landuse_kind":"urban_area","shield_text":"63","ref":"63"},"arcs":[[1819],[1820]]},{"type":"MultiLineString","properties":{"kind":"major_road","network":"ph:national","sort_rank":381,"kind_detail":"trunk","is_bicycle_related":true,"source":"openstreetmap.org","min_zoom":8.0,"nat_name":"MSR Diversion Rd","shield_text":"1","ref":"1;AH26"},"arcs":[[1821],[1822]]},{"type":"LineString","properties":{"kind":"major_road","sort_rank":381,"kind_detail":"trunk","bus_network":null,"source":"openstreetmap.org","min_zoom":8.0,"bus_shield_text":"Pacita-Fairview","landuse_kind":"urban_area","ref":"1;AH26","id":368316946},"arcs":[1823]},{"type":"MultiLineString","properties":{"kind":"major_road","network":"ph:nhn","sort_rank":380,"kind_detail":"primary","source":"openstreetmap.org","min_zoom":8.0,"nat_name":"Famy-Real-Infanta-Dinahican Port Rd","shield_text":"601"},"arcs":[[1824],[1825],[1826],[1827],[1828],[1829],[1830]]},{"type":"LineString","properties":{"kind":"major_road","network":null,"sort_rank":381,"landuse_kind":"urban_area","source":"openstreetmap.org","min_zoom":8.0,"old_name":"South Superhighway","shield_text":"3","kind_detail":"trunk","ref":"145","nat_name":"South Luzon Expressway"},"arcs":[1831]},{"type":"MultiLineString","properties":{"kind":"highway","network":"ph:nhn","sort_rank":383,"landuse_kind":"urban_area","source":"openstreetmap.org","min_zoom":8.0,"all_networks":["ph:nhn","ph:nhn",null],"kind_detail":"motorway","shield_text":null,"ref":"E2;R3","all_shield_texts":[null,"2","3"]},"arcs":[[1832],[1833],[1834],[1835],[1836],[1837],[1838]]},{"type":"MultiLineString","properties":{"kind":"major_road","network":null,"sort_rank":381,"landuse_kind":"urban_area","source":"openstreetmap.org","min_zoom":8.0,"kind_detail":"trunk","shield_text":"2"},"arcs":[[1839],[1840],[1841]]},{"type":"LineString","properties":{"source":"openstreetmap.org","kind":"major_road","sort_rank":380,"kind_detail":"primary","ref":"421","min_zoom":8.0,"id":408390355},"arcs":[1842]},{"type":"LineString","properties":{"kind":"highway","network":"ph:nhn","sort_rank":383,"kind_detail":"motorway","official_name":"North Luzon Expressway","source":"openstreetmap.org","min_zoom":8.0,"all_networks":["ph:nhn","ph:nhn"],"shield_text":null,"ref":"E1","id":15090810,"all_shield_texts":[null,"1"]},"arcs":[1843]},{"type":"MultiLineString","properties":{"kind":"highway","network":"ph:nhn","sort_rank":383,"landuse_kind":"urban_area","source":"openstreetmap.org","min_zoom":8.0,"all_networks":["ph:nhn","ph:nhn",null],"old_name":"South Superhighway","shield_text":null,"kind_detail":"motorway","ref":"E2","all_shield_texts":[null,"2","3"]},"arcs":[[1844],[1845],[1846]]},{"type":"MultiLineString","properties":{"kind":"major_road","network":"ph:nhn","sort_rank":380,"kind_detail":"primary","is_bicycle_related":true,"source":"openstreetmap.org","min_zoom":8.0,"nat_name":"MSR Old Route","shield_text":"606","ref":"606"},"arcs":[[1847],[1848]]},{"type":"LineString","properties":{"source":"openstreetmap.org","kind":"ferry","name":"Mauban Cagbalete Banca","sort_rank":355,"min_zoom":8.0,"id":164423064},"arcs":[1849]},{"type":"MultiLineString","properties":{"kind":"major_road","network":"ph:nhn","sort_rank":381,"landuse_kind":"urban_area","source":"openstreetmap.org","min_zoom":8.0,"kind_detail":"trunk","shield_text":"27"},"arcs":[[1850],[1851]]},{"type":"LineString","properties":{"bus_network":null,"network":"ph:nhn","sort_rank":381,"kind_detail":"trunk","kind":"major_road","source":"openstreetmap.org","min_zoom":8.0,"bus_shield_text":"BN-02","shield_text":"4","ref":"4"},"arcs":[1852]},{"type":"MultiLineString","properties":{"kind":"major_road","network":"ph:nhn","sort_rank":380,"kind_detail":"primary","source":"openstreetmap.org","min_zoom":8.0,"landuse_kind":"urban_area","shield_text":"6","ref":"E6"},"arcs":[[1853],[1854],[1855],[1856],[1857],[1858]]},{"type":"MultiLineString","properties":{"source":"openstreetmap.org","kind":"major_road","sort_rank":380,"kind_detail":"primary","ref":"160","min_zoom":8.0},"arcs":[[1859],[1860]]},{"type":"MultiLineString","properties":{"bus_network":"Public Utility Vehicle","network":"ph:national","sort_rank":380,"kind_detail":"primary","bus_shield_text":null,"kind":"major_road","source":"openstreetmap.org","min_zoom":8.0,"old_name":"Real","shield_text":"1","landuse_kind":"urban_area","ref":"62"},"arcs":[[1861],[1862],[1863]]},{"type":"MultiLineString","properties":{"kind":"major_road","network":"ph:nhn","sort_rank":381,"landuse_kind":"urban_area","source":"openstreetmap.org","min_zoom":8.0,"kind_detail":"trunk","shield_text":"601","ref":"601","nat_name":"Manila East Road"},"arcs":[[1864],[1865],[1866],[1867]]},{"type":"LineString","properties":{"kind":"highway","sort_rank":383,"landuse_kind":"urban_area","source":"openstreetmap.org","min_zoom":8.0,"kind_detail":"motorway","ref":"E1","id":69546948},"arcs":[1868]},{"type":"MultiLineString","properties":{"bus_network":null,"network":"ph:nhn","sort_rank":381,"kind_detail":"trunk","kind":"major_road","official_name":"Epifanio de los Santos Avenue","source":"openstreetmap.org","min_zoom":8.0,"bus_shield_text":"Pacita-Fairview","shield_text":null,"landuse_kind":"urban_area","ref":"1;AH26"},"arcs":[[1869],[1870],[1871]]},{"type":"MultiLineString","properties":{"bus_network":null,"sort_rank":380,"kind_detail":"primary","kind":"major_road","source":"openstreetmap.org","min_zoom":8.0,"bus_shield_text":"Pacita-Fairview","landuse_kind":"urban_area"},"arcs":[[1872],[1873],[1874],[1875]]},{"type":"MultiLineString","properties":{"source":"openstreetmap.org","kind":"major_road","old_name":"Tramo","sort_rank":380,"kind_detail":"primary","landuse_kind":"urban_area","min_zoom":8.0},"arcs":[[1876],[1877]]},{"type":"LineString","properties":{"kind":"major_road","network":"ph:nhn","sort_rank":381,"kind_detail":"trunk","source":"openstreetmap.org","min_zoom":8.0,"shield_text":"435","ref":"435"},"arcs":[1878]},{"type":"LineString","properties":{"kind":"highway","network":"ph:nhn","sort_rank":383,"landuse_kind":"urban_area","official_name":"Cavitex","source":"openstreetmap.org","min_zoom":8.0,"all_networks":["ph:nhn",null],"kind_detail":"motorway","loc_name":"Manila-Cavite Expressway","ref":"E4","all_shield_texts":["4","1"],"shield_text":"4"},"arcs":[1879]},{"type":"LineString","properties":{"kind":"major_road","network":"ph:nhn","sort_rank":381,"nat_name":"Lucena-Tayabas-Lucban-Sampaloc-Mauban Port Rd","is_bicycle_related":true,"source":"openstreetmap.org","min_zoom":8.0,"kind_detail":"trunk","shield_text":"603","ref":"603"},"arcs":[1880]},{"type":"LineString","properties":{"kind":"major_road","sort_rank":381,"nat_name":"Manila East Road","source":"openstreetmap.org","min_zoom":8.0,"kind_detail":"trunk","landuse_kind":"urban_area","id":55784747},"arcs":[1881]},{"type":"LineString","properties":{"kind":"major_road","network":"ph:nhn","sort_rank":381,"kind_detail":"trunk","source":"openstreetmap.org","min_zoom":8.0,"nat_name":"Calamba-Sta Cruz-Famy Jct Rd","shield_text":"66","ref":"66","id":23435321},"arcs":[1882]},{"type":"LineString","properties":{"kind":"major_road","network":"ph:national","sort_rank":381,"kind_detail":"trunk","source":"openstreetmap.org","min_zoom":8.0,"landuse_kind":"urban_area","shield_text":"1","ref":"411","id":203845331},"arcs":[1883]},{"type":"MultiLineString","properties":{"kind":"major_road","network":"ph:nhn","sort_rank":380,"kind_detail":"primary","source":"openstreetmap.org","min_zoom":8.0,"nat_name":"Famy-Real-Infanta-Dinahican Port Rd","shield_text":"601","ref":"601"},"arcs":[[1884],[1885],[1886],[1887],[1888],[1889],[1890],[1891],[1892]]},{"type":"MultiLineString","properties":{"kind":"major_road","network":null,"sort_rank":381,"landuse_kind":"urban_area","source":"openstreetmap.org","min_zoom":8.0,"kind_detail":"trunk","shield_text":"1","ref":"419"},"arcs":[[1893],[1894],[1895],[1896],[1897],[1898],[1899],[1900],[1901],[1902],[1903],[1904],[1905],[1906],[1907],[1908]]},{"type":"MultiLineString","properties":{"source":"openstreetmap.org","kind":"major_road","landuse_kind":"park","sort_rank":381,"kind_detail":"trunk","ref":"410","min_zoom":8.0},"arcs":[[1909],[1910],[1911],[1912]]},{"type":"MultiLineString","properties":{"kind":"major_road","network":"ph:nhn","sort_rank":381,"kind_detail":"trunk","source":"openstreetmap.org","min_zoom":8.0,"shield_text":"66","ref":"66"},"arcs":[[1913],[1914],[1915],[1916],[1917]]},{"type":"MultiLineString","properties":{"kind":"major_road","network":"ph:nhn","sort_rank":381,"kind_detail":"trunk","official_name":"Pres. Carlos P. Garcia Avenue","source":"openstreetmap.org","min_zoom":8.0,"nat_name":"C-5 (Katipunan\/Boni Serrano Tunnel)","shield_text":"11","ref":"11"},"arcs":[[1918],[1919]]},{"type":"MultiLineString","properties":{"bus_network":null,"network":"ph:nhn","sort_rank":381,"landuse_kind":"urban_area","kind":"major_road","source":"openstreetmap.org","min_zoom":8.0,"bus_shield_text":"Pasay - Dau","shield_text":null,"kind_detail":"trunk"},"arcs":[[1920],[1921]]},{"type":"MultiLineString","properties":{"kind":"major_road","network":null,"short_name":"C. P. Garcia Avenue","sort_rank":381,"nat_name":"Carlos P. Garcia Avenue","source":"openstreetmap.org","min_zoom":8.0,"landuse_kind":"urban_area","shield_text":"5","kind_detail":"trunk","ref":"129"},"arcs":[[1922],[1923]]},{"type":"MultiLineString","properties":{"kind":"major_road","network":"ph:nhn","sort_rank":381,"landuse_kind":"urban_area","source":"openstreetmap.org","min_zoom":8.0,"kind_detail":"trunk","shield_text":"601","ref":"601"},"arcs":[[1924],[1925]]},{"type":"LineString","properties":{"source":"openstreetmap.org","kind":"major_road","sort_rank":380,"kind_detail":"primary","ref":"431","min_zoom":8.0,"id":28413849},"arcs":[1926]},{"type":"MultiLineString","properties":{"bus_network":null,"network":"ph:national","sort_rank":381,"kind_detail":"trunk","kind":"major_road","source":"openstreetmap.org","min_zoom":8.0,"bus_shield_text":"Pacita-Fairview","shield_text":"1","landuse_kind":"urban_area","ref":"1;AH26"},"arcs":[[1927],[1928],[1929]]},{"type":"LineString","properties":{"source":"openstreetmap.org","kind":"major_road","sort_rank":380,"kind_detail":"primary","min_zoom":8.0,"official_name":"Victorino Mapa Street"},"arcs":[1930]},{"type":"MultiLineString","properties":{"source":"openstreetmap.org","kind":"major_road","old_name":"Buendia Avenue","sort_rank":380,"kind_detail":"primary","landuse_kind":"urban_area","min_zoom":8.0},"arcs":[[1931],[1932],[1933],[1934],[1935]]},{"type":"LineString","properties":{"bus_network":"Public Utility Vehicle","network":null,"sort_rank":381,"kind_detail":"trunk","kind":"major_road","source":"openstreetmap.org","min_zoom":8.0,"bus_shield_text":null,"shield_text":"1","landuse_kind":"urban_area","ref":"62"},"arcs":[1936]},{"type":"MultiLineString","properties":{"kind":"major_road","network":"ph:nhn","sort_rank":380,"kind_detail":"primary","source":"openstreetmap.org","min_zoom":8.0,"old_name":"Sucat Road","shield_text":"63","landuse_kind":"urban_area","ref":"63"},"arcs":[[1937],[1938]]},{"type":"LineString","properties":{"source":"openstreetmap.org","kind":"ferry","name":"Cebu - Manila","sort_rank":355,"min_zoom":8.0,"id":421621851},"arcs":[1939]},{"type":"MultiLineString","properties":{"kind":"major_road","sort_rank":381,"landuse_kind":"urban_area","source":"openstreetmap.org","min_zoom":8.0,"old_name":"Nagtahan Flyover","kind_detail":"trunk","ref":"140"},"arcs":[[1940],[1941]]},{"type":"LineString","properties":{"kind":"major_road","sort_rank":381,"kind_detail":"trunk","bus_network":null,"source":"openstreetmap.org","min_zoom":8.0,"bus_shield_text":"Pacita-Fairview","landuse_kind":"urban_area","ref":"127","id":156577558},"arcs":[1942]},{"type":"LineString","properties":{"kind":"major_road","network":"ph:nhn","sort_rank":380,"kind_detail":"primary","source":"openstreetmap.org","min_zoom":8.0,"shield_text":null,"ref":"606","id":31999795},"arcs":[1943]},{"type":"LineString","properties":{"kind":"major_road","sort_rank":381,"kind_detail":"trunk","bus_network":"Public Utility Vehicle","source":"openstreetmap.org","min_zoom":8.0,"bus_shield_text":null,"landuse_kind":"urban_area","id":181144745},"arcs":[1944]},{"type":"MultiLineString","properties":{"kind":"major_road","network":"ph:nhn","sort_rank":380,"kind_detail":"primary","source":"openstreetmap.org","min_zoom":8.0,"nat_name":"Rizal Bdry-Famy-Quezon Rd.","shield_text":"601","ref":"601"},"arcs":[[1945],[1946]]},{"type":"MultiLineString","properties":{"kind":"major_road","sort_rank":381,"landuse_kind":"urban_area","is_bicycle_related":true,"cycleway":"lane","source":"openstreetmap.org","min_zoom":8.0,"kind_detail":"trunk","ref":"170"},"arcs":[[1947],[1948]]},{"type":"LineString","properties":{"kind":"highway","network":"ph:nhn","sort_rank":383,"kind_detail":"motorway","official_name":"Metro Manila Skyway System Stage 2","source":"openstreetmap.org","min_zoom":8.0,"all_networks":["ph:nhn"],"landuse_kind":"urban_area","shield_text":"2","ref":"E2","id":409270909,"all_shield_texts":["2"]},"arcs":[1949]},{"type":"MultiLineString","properties":{"kind":"major_road","network":null,"sort_rank":381,"landuse_kind":"urban_area","source":"openstreetmap.org","min_zoom":8.0,"kind_detail":"trunk","shield_text":"1","ref":"62"},"arcs":[[1950],[1951],[1952],[1953]]},{"type":"LineString","properties":{"kind":"major_road","network":"ph:national","sort_rank":381,"kind_detail":"trunk","is_bicycle_related":true,"source":"openstreetmap.org","min_zoom":8.0,"landuse_kind":"urban_area","shield_text":"1","ref":"1;AH26","id":422621097},"arcs":[1954]},{"type":"LineString","properties":{"bus_network":"Public Utility Vehicle","network":null,"sort_rank":380,"kind_detail":"primary","kind":"major_road","source":"openstreetmap.org","min_zoom":8.0,"bus_shield_text":null,"shield_text":"2","landuse_kind":"urban_area","ref":"62"},"arcs":[1955]},{"type":"MultiLineString","properties":{"source":"openstreetmap.org","kind":"major_road","landuse_kind":"urban_area","sort_rank":380,"kind_detail":"primary","ref":"175","min_zoom":8.0},"arcs":[[1956],[1957]]},{"type":"LineString","properties":{"source":"openstreetmap.org","kind":"ferry","name":"Jomalig - Paracale","sort_rank":355,"min_zoom":8.0,"id":218430608},"arcs":[1958]}]},"earth":{"type":"GeometryCollection","geometries":[{"type":"MultiPolygon","properties":{"sort_rank":10,"source":"naturalearthdata.com","min_zoom":0.0,"kind":"earth","area":32456274066},"arcs":[[[1959]],[[1960]],[[1961]],[[1962]],[[1963]],[[1964]],[[1965]]]},{"type":"Point","properties":{"label_placement":true,"kind":"island","name":"Polillo Island","area":704318016,"source":"openstreetmap.org","min_zoom":8.0,"id":-5198218,"osm_relation":true},"coordinates":[2889,2768]}]},"landuse":{"type":"GeometryCollection","geometries":[{"type":"MultiPolygon","properties":{"source":"naturalearthdata.com","kind":"urban_area","name":"","area":1214376915,"sort_rank":11,"min_zoom":4.0},"arcs":[[[1966],[1967]]]},{"type":"Polygon","properties":{"kind":"park","area":704462976,"sort_rank":24,"operator":"Taal Volcano Landscape Protected Area Management Board","source":"openstreetmap.org","min_zoom":6.0,"tier":2,"id":152946327},"arcs":[[1968]]},{"type":"Polygon","properties":{"kind":"park","natural":"wood","area":181620000,"sort_rank":24,"source":"openstreetmap.org","min_zoom":6.0,"tier":2,"id":83812997},"arcs":[[1969]]},{"type":"Polygon","properties":{"source":"openstreetmap.org","kind":"nature_reserve","tier":2,"protect_class":"5","area":277726592,"sort_rank":23,"min_zoom":6.0},"arcs":[[1970]]},{"type":"Polygon","properties":{"source":"openstreetmap.org","kind":"nature_reserve","area":25894700,"tier":2,"id":272371151,"min_zoom":8.0,"sort_rank":23},"arcs":[[1971]]},{"type":"Polygon","properties":{"kind":"park","area":10478100,"sort_rank":24,"source":"openstreetmap.org","min_zoom":8.0,"tier":2,"id":-72003,"osm_relation":true},"arcs":[[1972]]}]}},"type":"Topology","transform":{"translate":[120.9375,13.9234038977],"scale":[0.0003433228,0.000332222]},"arcs":[[[0,3571],[44,57],[-44,41]],[[1172,2911],[0,21],[-118,52],[18,70],[49,38],[13,69],[7,68],[-72,26],[-14,57],[41,8],[28,74],[22,246]],[[1102,3749],[-26,68],[-40,3],[-23,41],[-328,146],[-264,47],[-186,-31],[-235,-91]],[[0,2323],[23,-20],[21,17],[-44,57]],[[0,2450],[64,-52],[69,16],[8,62],[109,52],[21,63],[194,-47],[-12,63],[98,70],[163,63],[171,26],[78,119],[67,36],[142,-10]],[[1146,3640],[5,52],[-49,57]],[[4010,999],[-46,-217],[79,-127],[-37,-37],[-31,-121],[35,-45],[79,2],[7,6]],[[3918,1399],[73,-226],[19,-174]],[[4096,1554],[-178,-155]],[[942,141],[-114,-125],[13,-16]],[[1172,2911],[29,-433],[518,-836],[175,-451],[26,-266],[-22,-87],[-100,-119],[-20,26],[-66,-2],[29,-41],[-54,-71],[3,-111],[-106,-114],[-147,15],[-31,-55],[-202,-100],[-68,-80],[-194,-45]],[[1494,4003],[-91,-108],[-51,-129],[-206,-126]],[[3918,1399],[-314,-45],[29,238],[-28,115],[-98,147],[-121,87],[130,137],[157,-68],[126,-102],[189,-52],[108,10]],[[4096,3249],[-225,120],[-601,392],[-163,69],[-114,21],[-214,-8],[-346,-88],[-62,-38],[-126,-144],[-81,-186],[-238,628],[-74,81]],[[1574,4096],[-80,-93]],[[287,688],[-75,-87],[-91,-13],[-22,-63],[-99,-31]],[[942,141],[2,60],[-50,7],[-29,-32],[-37,29],[14,60],[-46,81],[-6,76],[60,30],[-56,39],[4,66],[-56,74],[-221,35],[-62,35],[-172,-13]],[[287,688],[-61,11],[-4,23],[56,126],[52,36],[11,119],[-53,-23],[7,66],[113,172],[-123,-18],[2,49],[-77,-57],[-23,14],[29,169],[-122,200],[-3,91]],[[91,1666],[-74,51],[-17,121]],[[1102,3749],[-34,147],[44,200]],[[188,1983],[-11,-19],[153,-298],[-9,-183]],[[104,2071],[8,34],[32,-2],[77,-73],[-45,-66],[154,-299],[-8,-305],[45,-85],[162,-149],[124,-313],[73,-49],[165,12],[100,-135],[34,-12],[-66,-60],[-7,-81],[161,-32],[29,-346],[253,-100],[87,-10]],[[1920,0],[165,35],[82,44],[23,61],[57,2],[27,39],[137,22],[105,-52],[8,-44],[65,-38],[6,-28],[-41,-41]],[[3108,0],[-13,46],[66,52],[197,-68],[19,-30]],[[3408,0],[18,0]],[[3823,0],[-16,72],[132,30],[94,-27],[26,80],[37,2]],[[271,2202],[4,-7]],[[275,2195],[2,-3]],[[277,2192],[3,-4]],[[280,2188],[2,-3]],[[282,2185],[12,-19]],[[294,2166],[2,-3]],[[296,2163],[11,-19]],[[307,2144],[2,-3]],[[309,2141],[21,-44]],[[330,2097],[2,-3]],[[332,2094],[14,-32]],[[346,2062],[1,-3]],[[347,2059],[1,-57]],[[348,2002],[-1,-4]],[[347,1998],[-7,-16]],[[340,1982],[-3,-4]],[[337,1978],[-13,-18]],[[324,1960],[-3,-5]],[[321,1955],[-6,-16]],[[315,1939],[-1,-3]],[[314,1936],[-31,-36]],[[283,1900],[-3,-2]],[[280,1898],[-15,-14]],[[265,1884],[-3,-2]],[[262,1882],[-22,-19]],[[240,1863],[-3,-2]],[[237,1861],[-47,-12]],[[190,1849],[-5,0]],[[185,1849]],[[280,2188],[2,-1]],[[282,2187],[3,10]],[[282,2185],[0,2]],[[185,1849]],[[190,1849],[-5,0]],[[238,1861],[-1,0]],[[240,1863],[-2,-2]],[[262,1882],[3,2]],[[262,1882]],[[275,2195]],[[277,2192],[-2,3]],[[282,1901],[1,-1]],[[280,1898],[2,3]],[[294,2165],[0,1]],[[296,2163],[-1,0]],[[295,2163],[-1,2],[1,-2]],[[295,2163],[-1,2]],[[308,2142],[1,-1]],[[307,2144],[1,-2]],[[314,1936]],[[315,1939],[-1,-3]],[[323,1959],[1,1]],[[321,1955],[2,4]],[[331,2093],[1,1]],[[330,2097],[1,-4]],[[338,1978],[-1,0]],[[340,1982],[-2,-4]],[[347,2058],[0,1]],[[346,2062],[1,-4]],[[347,1998]],[[348,2002],[-1,-4]],[[104,2071],[8,34],[32,-2],[77,-73],[-45,-66],[154,-299],[-8,-305],[45,-85],[160,-146],[115,-276]],[[104,2071],[8,34],[32,-2],[77,-73],[-45,-66],[154,-299],[-8,-305],[45,-85],[162,-149],[124,-313],[73,-49],[165,12],[100,-135],[34,-12],[-66,-60],[-7,-81],[161,-32],[29,-346],[253,-100],[87,-10]],[[1920,0],[165,35],[82,44],[23,61],[57,2],[27,39],[137,22],[105,-52],[8,-44],[65,-38],[6,-28],[-41,-41]],[[3108,0],[-13,46],[66,52],[197,-68],[19,-30]],[[3408,0],[18,0]],[[3823,0],[-16,72],[132,30],[94,-27],[26,80],[37,2]],[[1563,1359],[10,-48],[1,-71],[-7,-43],[-17,-2],[-24,19],[-23,26],[-39,33],[-14,-6],[-4,-27],[-11,-32],[-4,-12],[5,-34],[-1,-13],[-11,-16],[-8,-1],[-9,2],[-13,-8],[-92,-74],[-59,-28],[-43,-43],[-84,-107],[-23,-41],[-18,-16],[-24,-9],[-42,-10],[-38,-4],[-17,14],[-29,5],[-139,-29],[-50,13],[-4,23],[0,35],[4,45],[-14,31],[-39,54],[-14,56],[-16,16],[-23,16],[-24,23],[-70,112],[-114,103],[-47,57],[-20,79],[8,179],[14,59],[71,106],[101,19],[104,-50],[83,-96],[63,-132],[37,-34],[-6,55],[-7,26],[7,30],[29,31],[17,24],[31,85],[11,18],[24,10],[31,3],[30,-5],[25,-46],[32,-38],[36,-35],[63,-39],[18,-54],[16,-103],[-11,-58],[-55,-104],[-12,-58],[-4,-89],[18,2],[45,35],[140,71],[49,43],[34,59],[13,46],[22,22],[62,-14],[46,-24],[23,-32]],[[4096,716],[0,-100],[-26,-45],[-47,-39],[-54,-24],[0,76],[-5,36],[-15,33],[-4,-13],[-10,-18],[-12,-13],[-14,1],[-18,19],[-5,13],[3,11],[-9,42],[-2,39],[-6,35],[-22,28],[14,47],[7,72],[-8,59],[-35,9],[-11,-43],[-1,-70],[-9,-50],[-37,17],[-106,-54],[-33,-42],[-2,-70],[-18,0],[-5,28],[-7,13],[-30,23],[21,-85],[47,-88],[66,-69],[77,-28],[49,-32],[113,-134],[67,-20],[0,-19],[-41,-8],[-10,-14],[11,-52],[-5,-39],[-15,-7],[-265,73],[-55,-17],[112,-111],[33,-57],[-1,-29],[-230,0],[-192,43],[-442,173],[-55,43],[-203,207],[-197,144],[-102,154],[-39,33],[0,21],[35,25],[25,37],[14,45],[6,48],[-13,27],[-55,53],[-12,22],[13,103],[-4,42],[-29,52],[-123,119],[-36,47],[-22,49],[-33,117],[-12,108],[-106,363],[-8,52],[0,133],[17,47],[45,39],[58,23],[63,12],[106,4],[55,13],[-3,32],[-36,41],[-183,144],[-22,26],[-19,32],[-120,144],[15,8],[29,24],[15,9],[-51,66],[-45,75],[-33,79],[-12,81],[-19,50],[-94,154],[-36,33],[-21,34],[-60,302],[-18,58],[-38,41],[-72,40],[-87,67],[-66,104],[-15,54],[2790,0],[0,-1718],[-6,-3],[-74,-41],[9,-46],[71,-9],[0,-1425],[-18,1],[-18,-22],[-11,-36],[7,-23],[40,-58]],[[3133,3074],[-23,73],[-26,-16],[-11,17],[8,33],[29,30],[44,11],[33,-18],[62,-77],[14,63],[-28,49],[-56,29],[-69,5],[17,49],[-17,35],[-33,13],[-26,-15],[-45,28],[-121,15],[-53,-6],[-22,-26],[-25,-51],[-56,9],[-88,53],[-32,-30],[-20,-70],[-23,-199],[10,-17],[28,1],[47,-15],[24,-26],[63,-98],[13,-32],[-8,-107],[13,-36],[44,-14],[60,-65],[42,-136],[3,-118],[-55,-11],[-16,-73],[-5,-81],[23,-66],[69,-27],[61,14],[69,37],[56,50],[57,148],[6,41],[-29,190],[-21,76],[-35,50],[-54,-8],[-13,40],[-6,30],[-6,108],[-4,14],[10,9],[93,60],[27,23],[1,35]],[[3193,2781],[17,-10],[13,4],[55,-3],[31,15],[-40,47],[-51,29],[-50,9],[-15,6],[-16,-4],[-9,-12],[28,-57],[0,-12],[14,-7],[23,-5]],[[3490,2796],[-32,-30],[-8,-11],[-47,16],[-2,-19],[18,-35],[11,-34],[18,-24],[41,-13],[80,-14],[229,-171],[2,-14],[42,29],[1,63],[-25,64],[-38,29],[-53,-8],[-31,4],[-27,22],[-14,34],[1,29],[12,25],[21,17],[-100,0],[-37,-13],[-32,-2],[-22,16],[-8,40]],[[3189,1565],[-11,11],[-10,-9],[1,-32],[14,-44],[4,-56],[13,24],[7,27],[16,19],[-11,19],[-2,25],[-21,16]],[[2560,1000],[14,-5],[16,16],[6,13],[4,14],[45,71],[-4,23],[-49,18],[-7,8],[-60,-26],[-6,-22],[5,-38],[13,-25],[16,-19],[7,-28]],[[3491,288],[65,-37],[54,1],[19,71],[-31,69],[-67,57],[-131,90],[-376,325],[-22,33],[-12,14],[-18,12],[-37,8],[-32,-10],[-22,-24],[-9,-38],[18,-53],[47,-77],[56,-68],[48,-30],[34,-16],[117,-107],[191,-126],[108,-94]],[[0,2233],[16,-35],[21,-123],[25,-63],[62,-104],[13,-70],[-12,-56],[-29,-41],[-79,-56],[-17,-19],[0,567]],[[2162,0],[30,8],[22,16],[10,40],[51,32],[18,42],[45,-22],[110,-39],[24,-1],[45,-47],[18,-29],[-57,0],[2,6],[-20,27],[-69,26],[-24,2],[-12,-11],[13,-31],[-4,-13],[-12,-6],[-190,0]],[[165,406],[80,14],[83,-32],[-15,-124],[-38,-84],[-72,-64],[-121,-14],[-60,89],[-22,131],[0,121],[119,0],[46,-37]],[[1306,4096],[15,-54],[66,-104],[87,-67],[72,-40],[38,-41],[18,-58],[60,-302],[21,-34],[36,-33],[94,-154],[19,-50],[12,-81],[33,-79],[45,-75],[51,-66],[-15,-9],[-29,-24],[-15,-8],[120,-144],[19,-32],[22,-26],[183,-144],[36,-41],[3,-32],[-55,-13],[-106,-4],[-63,-12],[-58,-23],[-45,-39],[-17,-47],[0,-133],[8,-52],[106,-363],[12,-108],[33,-117],[22,-49],[36,-47],[123,-119],[29,-52],[4,-42],[-13,-103],[12,-22],[55,-53],[13,-27],[-6,-48],[-14,-45],[-25,-37],[-35,-25],[0,-21],[39,-33],[102,-154],[197,-144],[203,-207],[55,-43],[442,-173],[192,-43]],[[3773,0],[1,29],[-33,57],[-112,111],[55,17],[265,-73],[15,7],[5,39],[-11,52],[10,14],[41,8],[0,19],[-67,20],[-113,134],[-49,32],[-77,28],[-66,69],[-47,88],[-21,85],[30,-23],[7,-13],[5,-28],[18,0],[2,70],[33,42],[106,54],[37,-17],[9,50],[1,70],[11,43],[35,-9],[8,-59],[-7,-72],[-14,-47],[22,-28],[6,-35],[2,-39],[9,-42],[-3,-11],[5,-13],[18,-19],[14,-1],[12,13],[10,18],[4,13],[15,-33],[5,-36],[0,-76],[54,24],[47,39],[26,45]],[[4096,716],[-40,58],[-7,23],[11,36],[18,22],[18,-1]],[[2535,0],[-18,29],[-45,47],[-24,1],[-110,39],[-45,22],[-18,-42],[-51,-32],[-10,-40],[-22,-16],[-30,-8]],[[0,1666],[17,19],[79,56],[29,41],[12,56],[-13,70],[-62,104],[-25,63],[-21,123],[-16,35]],[[1563,1359],[10,-48],[1,-71],[-7,-43],[-17,-2],[-24,19],[-23,26],[-39,33],[-14,-6],[-4,-27],[-11,-32],[-4,-12],[5,-34],[-1,-13],[-11,-16],[-8,-1],[-9,2],[-13,-8],[-92,-74],[-59,-28],[-43,-43],[-84,-107],[-23,-41],[-18,-16],[-24,-9],[-42,-10],[-38,-4],[-17,14],[-29,5],[-139,-29],[-50,13],[-4,23],[0,35],[4,45],[-14,31],[-39,54],[-14,56],[-16,16],[-23,16],[-24,23],[-70,112],[-114,103],[-47,57],[-20,79],[8,179],[14,59],[71,106],[101,19],[104,-50],[83,-96],[63,-132],[37,-34],[-6,55],[-7,26],[7,30],[29,31],[17,24],[31,85],[11,18],[24,10],[31,3],[30,-5],[25,-46],[32,-38],[36,-35],[63,-39],[18,-54],[16,-103],[-11,-58],[-55,-104],[-12,-58],[-4,-89],[18,2],[45,35],[140,71],[49,43],[34,59],[13,46],[22,22],[62,-14],[46,-24],[23,-32]],[[165,406],[80,14],[83,-32],[-15,-124],[-38,-84],[-72,-64],[-121,-14],[-60,89],[-22,131]],[[0,443],[119,0],[46,-37]],[[3110,3273],[17,49],[-17,35],[-33,13],[-26,-15],[-45,28],[-121,15],[-53,-6],[-22,-26],[-25,-51],[-56,9],[-88,53],[-32,-30],[-20,-70],[-23,-199],[10,-17],[28,1],[47,-15],[24,-26],[63,-98],[13,-32],[-8,-107],[13,-36],[44,-14],[60,-65],[42,-136],[3,-118],[-55,-11],[-16,-73],[-5,-81],[23,-66],[69,-27],[61,14],[69,37],[56,50],[57,148],[6,41],[-29,190],[-21,76],[-35,50],[-54,-8],[-13,40],[-6,30],[-6,108],[-4,14],[10,9],[93,60],[27,23],[1,35],[-23,73],[-26,-16],[-11,17],[8,33],[29,30],[44,11],[33,-18],[62,-77],[14,63],[-28,49],[-56,29],[-69,5]],[[3780,2632],[-53,-8],[-31,4],[-27,22],[-14,34],[1,29],[12,25],[21,17],[-100,0],[-37,-13],[-32,-2],[-22,16],[-8,40],[-32,-30],[-8,-11],[-47,16],[-2,-19],[18,-35],[11,-34],[18,-24],[41,-13],[80,-14],[229,-171],[2,-14],[42,29],[1,63],[-25,64],[-38,29]],[[3400,539],[-376,325],[-22,33],[-12,14],[-18,12],[-37,8],[-32,-10],[-22,-24],[-9,-38],[18,-53],[47,-77],[56,-68],[48,-30],[34,-16],[117,-107],[191,-126],[108,-94],[65,-37],[54,1],[19,71],[-31,69],[-67,57],[-131,90]],[[4096,2378],[-6,-3],[-74,-41],[9,-46],[71,-9]],[[103,1668],[-21,-15]],[[96,1662],[6,4]],[[162,1788],[-10,-47]],[[153,1741],[0,3],[10,44]],[[1929,39],[-2,2]],[[1936,35],[-7,4]],[[1953,36],[-17,-1]],[[1969,44],[-8,-4]],[[1982,42],[-1,0]],[[155,1846],[-5,-1]],[[150,1844],[5,2]],[[1099,669],[-77,101]],[[1073,445],[30,6]],[[1088,481],[-32,94],[43,94]],[[1088,481],[3,-5]],[[1091,476],[13,-23]],[[1099,669],[73,67],[-13,56]],[[1103,451],[1,0]],[[1104,451],[1,0]],[[1105,452],[0,-1]],[[1105,451],[-1,0]],[[1104,451],[-1,0]],[[1104,453],[0,-1]],[[1105,452],[-1,1]],[[1104,452],[0,-1]],[[1104,452]],[[1104,452],[1,-1]],[[1105,451]],[[1104,451]],[[1104,451]],[[1104,451],[0,1]],[[1104,452],[1,0]],[[1105,451],[1,0]],[[1106,451],[-1,1]],[[1116,448],[-10,3]],[[1116,448],[15,-8]],[[1131,440],[3,-12]],[[1144,407],[-10,21]],[[1158,792],[1,0]],[[1159,792],[0,1]],[[143,2086],[-4,-34]],[[140,2052],[3,33]],[[2512,168],[3,-1]],[[2516,167],[5,-47],[80,-75],[-20,-45]],[[287,2072],[9,-13]],[[352,2016],[1,0]],[[353,2016],[-1,1]],[[383,1831],[24,38]],[[407,1869],[-24,-38]],[[726,1689],[13,-52],[30,25]],[[767,1662],[0,1]],[[846,1687],[15,6]],[[886,1812],[74,-13]],[[1009,1738],[30,-24]],[[1075,1681],[-3,17]],[[377,1183],[-7,8]],[[330,1592],[2,-7]],[[346,1636],[-18,-130]],[[390,2231],[-8,22],[-53,5],[-21,-5],[-26,-11],[-1,-1]],[[281,2241],[49,17],[52,-5],[8,-22]],[[426,2137],[24,8]],[[457,2145],[-7,0]],[[457,2145],[-5,-43]],[[497,2245],[-40,-99]],[[156,2038],[-18,8],[-29,9]],[[109,2055],[20,-7],[9,-2],[17,-8]],[[88,1632],[1,1]],[[3087,3097],[26,43],[46,10],[6,-144],[-67,-55],[-64,-161]],[[1915,306],[70,-41],[153,105],[64,142],[-17,62],[37,115],[55,78]],[[657,821],[8,-9]],[[1828,123],[2,-4]],[[2024,69],[1,1]],[[1923,47],[4,-6]],[[413,0],[63,12]],[[665,98],[-1,-2]],[[664,96],[1,0],[-1,0]],[[71,578],[0,-1],[1,0],[-1,1]],[[297,1503],[0,-2]],[[315,1497],[-1,-5]],[[123,1863],[-123,-33]],[[1129,167],[192,104]],[[207,2506],[-2,6]],[[224,2516],[2,0]],[[224,2513],[0,3]],[[224,2516],[0,-1]],[[224,2513],[1,1]],[[224,2515],[0,-2]],[[224,2515],[1,0]],[[225,2515],[1,1]],[[225,2514],[0,1]],[[226,2516],[-1,-2]],[[126,1105],[2,0]],[[128,1105],[-2,0]],[[128,1105],[22,-9]],[[148,1096],[2,-1]],[[249,1127],[47,36]],[[41,2065],[-41,21]],[[5,560],[6,-20]],[[734,868],[-5,-2]],[[180,1798],[0,-5]],[[176,2048],[3,-6]],[[179,2042],[-3,7]],[[145,1788],[2,0],[6,0]],[[153,1788],[2,0]],[[155,1788],[1,0]],[[156,1788],[2,0]],[[162,1788],[-6,0]],[[156,1788],[-1,0]],[[155,1788],[-1,0],[-1,0]],[[153,1788],[-6,0],[-2,0]],[[155,1794],[1,-6]],[[156,1788]],[[156,1788],[19,-1]],[[162,1788],[-6,6]],[[174,1787],[-12,1]],[[182,1787],[-1,0]],[[181,1787],[-6,0]],[[175,1787],[-1,0]],[[241,1789],[-16,10],[-34,20]],[[191,1819],[-3,2]],[[188,1821],[-1,0],[-13,-34]],[[175,1787]],[[175,1787],[13,34]],[[188,1821],[3,-2]],[[191,1819],[48,-31]],[[175,1787],[18,-5]],[[180,1793],[-1,-4],[2,-2]],[[181,1787],[1,0]],[[182,1787],[-2,9]],[[247,2318],[-65,0]],[[188,1785],[-6,2]],[[182,2318],[64,0]],[[193,1782],[-1,-7]],[[193,1782],[7,-3]],[[181,2209],[57,1],[50,-36]],[[296,2161],[13,-20]],[[312,2136],[37,-83]],[[188,1764]],[[188,1764],[1,0]],[[240,1922]],[[299,1165],[63,24]],[[130,2209],[-17,1]],[[134,2209],[-4,0]],[[130,2209],[4,-1]],[[111,968],[-20,-100]],[[313,516],[-95,-9],[-91,103]],[[472,532],[-87,-51],[-72,35]],[[92,1626],[72,-57]],[[178,1559]],[[202,1546],[45,-28]],[[0,2365],[17,-21]],[[0,2659],[33,18]],[[242,3055],[-41,24],[-54,-30],[-120,65],[-27,-15]],[[33,2372],[-8,-12]],[[31,2378],[0,-2]],[[31,2376],[2,-3]],[[38,2382],[-7,-4]],[[33,2677],[28,14]],[[33,2677],[262,280]],[[37,2695],[29,175],[105,109],[71,29],[1,0],[26,2]],[[60,3828],[51,17],[41,63]],[[68,2695],[-7,-4]],[[61,2691],[222,-46]],[[68,2695],[5,2]],[[75,2706],[-4,1],[-2,-8]],[[69,2699],[-1,-4]],[[69,3636],[49,19],[-9,56]],[[73,2698],[-2,0]],[[71,2698],[-2,1]],[[69,2699]],[[74,2706],[-3,-8]],[[71,2698],[0,-2]],[[73,2697],[0,-3]],[[73,2697],[2,9]],[[148,2718],[-73,-12]],[[100,1284],[-2,0]],[[98,1283],[2,1]],[[99,3730],[159,30],[23,-21],[71,5]],[[100,1284],[27,12]],[[116,3664],[-2,-2]],[[283,2645],[-161,-65]],[[129,1320],[-2,23]],[[128,1304],[-1,-8]],[[146,1223],[1,2]],[[147,1225],[-2,7],[-4,12],[0,3],[-12,22],[-2,27]],[[128,1304]],[[128,1304],[1,4]],[[129,1309],[0,-1]],[[129,1320],[0,-4]],[[129,1309],[0,1]],[[129,1315],[0,-5]],[[129,1315],[0,1]],[[150,2108],[-8,-36]],[[142,2072],[7,7],[1,36],[13,34]],[[147,1225]],[[147,1225],[-1,-2]],[[147,1097],[1,2]],[[150,2115],[2,0],[9,27]],[[161,2142],[2,6]],[[161,2142]],[[161,2142]],[[163,2148],[0,1]],[[163,2149],[0,1]],[[163,2149]],[[163,2149],[0,-1]],[[163,2148],[0,1]],[[183,2208],[-18,-37]],[[189,2041],[-5,0]],[[186,2040],[3,1]],[[188,2090],[1,0]],[[189,2090],[-1,1]],[[189,2090],[24,2]],[[213,2092],[13,1]],[[216,2044],[5,-6]],[[221,2038],[4,-5]],[[231,2037],[-10,1]],[[225,2033],[-1,-2]],[[224,2030],[1,3]],[[225,2033],[9,-3]],[[251,2102],[-25,-9]],[[271,1214],[-45,-62]],[[228,2046],[3,-9]],[[231,2037],[-3,9]],[[231,2037],[14,10]],[[235,2138],[3,69]],[[235,2138],[1,-3]],[[237,2135],[-2,3]],[[236,2053],[9,-6]],[[245,2047],[-8,7]],[[294,2957],[-29,68],[-23,30]],[[246,3058],[-3,-4]],[[248,2051],[-3,-4]],[[281,3071],[-33,-10]],[[251,2102],[2,0]],[[322,2102],[-69,0]],[[268,2050],[-14,7]],[[258,2150],[3,-3]],[[261,2147],[-3,5]],[[261,2147],[22,-5]],[[261,2165]],[[263,2174],[1,2]],[[266,2015],[1,-1]],[[271,2048],[-3,2]],[[287,2051],[-16,-3]],[[271,1214]],[[282,1213],[-11,1]],[[271,2203],[13,-2]],[[284,2201],[-13,3]],[[282,1213],[4,-2]],[[321,2668],[-38,-23]],[[310,2636],[-27,9]],[[285,2142],[-2,0]],[[283,2142],[2,-1]],[[284,2201]],[[284,2201],[1,0]],[[287,2223],[-3,-22]],[[306,2196],[-21,5]],[[285,2201],[-1,0]],[[285,2201]],[[285,2201],[2,22]],[[285,2201],[21,-5]],[[285,2142],[0,-1]],[[285,2141],[2,0]],[[287,2141],[-1,1]],[[287,2141],[22,-5]],[[287,2051],[2,1]],[[289,2052],[6,6]],[[295,2058],[1,1]],[[296,2059],[-1,-1]],[[295,2957],[136,-146]],[[312,2136],[-3,0]],[[309,2136],[5,1]],[[322,2102],[4,-2]],[[326,2101],[-4,1]],[[386,1089],[-3,-28]],[[388,2081],[0,-1]],[[388,2080],[0,1]],[[400,2085],[17,15]],[[417,2100],[-17,-14]],[[405,2742],[26,68]],[[569,2481],[21,42],[44,-2]],[[595,574],[5,-26]],[[606,170],[61,-29]],[[615,0],[16,46]],[[620,350],[27,12]],[[624,54],[3,0]],[[627,54],[4,-8]],[[665,95],[1,-38],[-39,-3]],[[631,46],[18,6]],[[655,53],[4,-9]],[[664,96],[1,-1]],[[766,166],[-101,-55]],[[665,96],[0,-1]],[[667,63],[128,47],[32,-110]],[[735,2105],[91,3],[26,33],[0,-29],[39,2]],[[766,166],[0,1]],[[941,416],[0,-27],[-104,-109],[-38,-96],[-33,-18]],[[766,167],[1,0]],[[766,167]],[[771,152]],[[771,152]],[[771,152]],[[802,1905],[12,-21]],[[827,1863]],[[831,765],[7,10]],[[852,1824],[31,-17]],[[888,768],[3,-34]],[[900,426],[-1,1]],[[900,426],[1,-6]],[[901,420],[-1,6]],[[1022,770],[-42,-3]],[[1027,1721],[35,62],[85,25],[13,50],[85,17]],[[1057,1704]],[[1106,2055],[41,31],[120,-128],[-22,-83]],[[1170,92],[-43,62]],[[1131,1626],[51,-144],[-38,-157],[-66,-112],[-10,-89],[38,-7],[97,105],[99,51],[58,91],[3,112],[65,39]],[[1134,428],[7,16],[85,69],[17,34],[153,39],[-4,58]],[[1134,428],[7,16]],[[1204,859],[-60,64]],[[1218,0],[2,73]],[[1245,1875],[-7,-38],[83,57],[26,-19],[19,20],[33,-30],[63,52],[61,10],[10,-98],[59,40],[-5,36],[50,20],[51,65],[-7,25],[59,50],[7,143],[51,49],[28,-6],[10,55],[154,83]],[[1390,3908],[-101,180],[-2,8]],[[1321,271],[31,10]],[[1342,28],[1,-2]],[[1343,28],[46,-28]],[[1392,1076],[-6,25]],[[1392,644],[57,-9]],[[1392,644],[-53,234],[19,73],[-14,88],[48,37]],[[1392,1076],[32,-45]],[[1428,1515],[-17,82],[17,51]],[[1428,1515],[53,-14]],[[1546,650],[-72,105],[-19,1],[-17,16]],[[1438,772],[-9,9]],[[1446,633],[6,-10],[94,27]],[[1449,635],[10,22],[-20,101],[-1,14]],[[1438,772],[-7,55],[25,200]],[[1454,624],[-5,11]],[[1456,1028],[0,-1]],[[1456,1027],[0,1]],[[1490,1542],[-9,-41]],[[1481,1501],[20,-41],[58,-32],[35,-137]],[[1500,23],[-18,-23]],[[1552,664],[-6,-14]],[[1552,664],[6,2]],[[1558,666],[58,12]],[[1583,1222],[-12,-21]],[[1768,588],[27,-14]],[[1803,157],[2,3]],[[1805,160],[-2,-2]],[[1805,160],[97,147]],[[1866,523],[0,62],[-50,26]],[[1864,116],[2,-116]],[[1902,315],[0,-7]],[[1902,308],[0,-1]],[[1902,307],[0,1]],[[1902,307]],[[1902,307],[10,-6]],[[1985,265],[190,-123]],[[1986,265],[0,1]],[[2033,2533],[-50,-47],[78,-26]],[[2855,221],[1,1]],[[2856,222],[0,-2]],[[2856,222],[29,8]],[[3125,533],[10,7]],[[3136,538],[71,-25],[239,-195],[145,-83],[40,21]],[[3936,85],[-10,15],[35,-10]],[[523,930],[2,-3]],[[545,891],[4,-5]],[[575,843],[2,-4]],[[590,817],[1,-1]],[[593,813],[-2,4]],[[312,1407],[2,-12]],[[313,1418],[3,57]],[[314,1488],[0,-1]],[[314,1483],[2,-8]],[[316,1475],[-1,8]],[[338,1327],[39,-57]],[[354,1313],[-1,2],[-2,2]],[[377,1270],[91,-85],[36,-101]],[[504,1084],[4,-7]],[[550,1037],[-41,39]],[[550,1037],[2,-5]],[[595,887],[-43,145]],[[594,887],[1,0]],[[632,855],[-37,32]],[[632,855],[0,-2]],[[633,853],[-1,2]],[[632,847],[1,1]],[[633,853],[-1,0]],[[632,853],[1,-5]],[[633,848],[0,5]],[[1269,1598],[35,-42],[111,13],[75,-27]],[[77,2320],[-8,113],[-59,122]],[[77,2320],[10,-4]],[[87,2316],[48,-106]],[[314,1395]],[[509,1076],[-1,1]],[[592,888],[2,-1]],[[157,1700],[-1,-3]],[[157,1697],[0,3]],[[64,1622],[-64,-11]],[[70,2210]],[[101,2103],[-3,-9]],[[181,1817],[4,-31]],[[185,1786],[-4,31]],[[278,1967],[-12,-13]],[[540,867],[-15,0]],[[770,1937],[6,0]],[[219,1358],[-1,-2]],[[525,927],[16,-27]],[[534,912],[-3,5]],[[546,892],[-4,7]],[[591,816],[1,-2]],[[3727,2499],[74,-104],[240,-51]],[[318,2159],[-6,-23]],[[314,2137],[4,21]],[[164,1569],[14,-10]],[[178,1559],[24,-13]],[[289,1906],[-6,-5]],[[128,2034],[2,14],[3,73]],[[132,2121],[-4,-83]],[[2277,767],[34,36]],[[184,1848],[41,7],[25,16]],[[205,1851],[-21,-2]],[[264,1883],[52,56]],[[317,1943],[14,27]],[[344,1990],[5,14]],[[355,2023],[-6,30]],[[448,1095],[-2,-1]],[[446,1094],[2,1]],[[490,1123],[-42,-28]],[[257,1809],[-19,35]],[[415,2134],[11,3]],[[212,1894],[16,-32]],[[231,1857],[-17,33]],[[140,2088],[3,-3]],[[143,2086],[-2,2]],[[179,2042],[1,-3],[4,-7]],[[184,2032],[0,-1]],[[185,2031],[-1,1]],[[184,2032],[-3,8],[-1,2]],[[184,2032]],[[184,2032]],[[184,2032]],[[398,2108],[-1,-3]],[[397,2104],[1,3]],[[2804,2661],[103,-280]],[[71,578],[56,32]],[[1249,916],[1,35]],[[185,1786],[7,-3]],[[192,1783],[1,-1]],[[479,2099],[37,-103]],[[517,1996],[-38,103]],[[184,1848],[-12,-14]],[[179,1840],[5,8]],[[1945,113],[21,-1]],[[1968,112],[110,-4]],[[150,1845],[-13,-3]],[[137,1842],[13,2]],[[670,516],[1,0]],[[1727,125],[1,0]],[[2181,144],[-6,-2]],[[61,2017],[-61,-22]],[[184,1849],[-24,-2]],[[160,1847],[24,1]],[[316,1939],[1,4]],[[334,1974],[10,16]],[[117,2172],[-49,-4],[-14,-13]],[[54,2154],[72,17]],[[126,2171],[33,-3]],[[159,2169],[-33,2]],[[350,2009],[4,13]],[[82,1653],[-11,-4]],[[102,1666],[49,73]],[[151,1739],[2,2]],[[152,1741],[-1,-2]],[[151,1739],[-13,-30],[-35,-41]],[[173,1968],[6,-12]],[[214,1890],[-41,78]],[[191,1934],[21,-40]],[[232,1856],[-1,1]],[[147,2019],[-4,-7]],[[144,2012],[4,8],[4,8]],[[152,2029],[-4,-9]],[[0,1114],[48,26]],[[64,1131],[-11,6]],[[76,1133],[-11,-2]],[[77,1133],[24,-21]],[[101,1112],[15,-7]],[[122,1105],[-6,0]],[[122,1105],[4,0]],[[126,1105],[-4,0]],[[160,1091],[-10,5]],[[150,1095],[10,-4]],[[160,1091],[2,-1]],[[162,1090],[4,-1]],[[162,1090]],[[164,1089],[2,0]],[[166,1089],[-1,0]],[[166,1089],[25,-11],[58,49]],[[296,1163],[3,2]],[[362,1190],[-1,0]],[[173,1832],[6,8]],[[635,851],[22,-30]],[[665,812],[6,-8]],[[156,2038],[-1,0],[-3,-9]],[[152,2028],[4,10]],[[156,2038],[5,3]],[[161,2041],[14,-2]],[[161,2041],[14,-2]],[[846,1687],[-24,-12]],[[861,1693],[-5,32]],[[960,1799],[49,-61]],[[1039,1714],[18,-10]],[[1057,1704],[15,-6]],[[321,1699],[38,2]],[[350,1827],[9,-2]],[[359,1825],[-9,3]],[[359,1825],[6,-2]],[[365,1823],[18,8]],[[383,1831],[-2,0],[-16,-8]],[[398,2132],[22,-14]],[[420,2118],[-22,14]],[[427,2110],[21,-18],[97,21]],[[682,2015],[5,41],[-79,42],[-33,-10],[-30,25],[-97,-20],[-20,17]],[[177,1786],[8,0]],[[329,1341]],[[354,1313]],[[371,1279],[0,2]],[[331,2197],[-13,-4]],[[319,2188],[3,-4]],[[326,2183],[7,11]],[[84,2029],[5,-8]],[[89,2021],[-5,8]],[[398,2141],[0,-19]],[[398,2122],[1,19]],[[1816,611],[-73,69]],[[167,2209],[14,0]],[[187,2210],[-20,-1]],[[288,2174],[8,-13]],[[309,2141]],[[314,2135],[-2,3]],[[317,2126],[1,-2]],[[324,2109],[3,-6]],[[329,2099],[5,-11]],[[336,2082],[1,0]],[[340,2073],[1,0]],[[344,2066],[0,-1]],[[161,1741],[10,46]],[[10,2555],[-10,16]],[[1118,124],[0,1]],[[1831,119],[44,-4]],[[2297,192],[2,1]],[[65,2098],[19,1]],[[141,2088],[-54,11]],[[212,1893],[41,-78]],[[314,1688],[-3,16],[-30,63],[-68,126]],[[246,1829],[7,-14]],[[253,1815],[58,-112],[3,-146]],[[460,2006],[-12,1],[-19,1]],[[429,2008],[31,-2]],[[485,2003],[-25,3]],[[485,2003],[32,-7]],[[516,1996],[-31,7]],[[239,1788],[22,15]],[[250,1800],[-9,-11]],[[261,1805],[-2,1],[-9,-6]],[[256,1811],[-6,-11]],[[254,1805],[4,4]],[[676,2020],[1,-13]],[[0,2671],[26,-49]],[[26,2622],[-26,50]],[[183,2221],[0,-13]],[[183,2209],[0,12]],[[256,1516]],[[256,1516],[13,-5]],[[289,1504],[-33,12]],[[270,1510],[8,-3]],[[283,1505],[6,-2]],[[297,1503]],[[297,1499],[17,-12]],[[314,1488],[-17,12]],[[188,2227],[-4,-6]],[[186,2221],[2,6]],[[192,2231],[64,70]],[[256,2301],[7,8]],[[263,2309],[-7,-8]],[[270,2317],[-7,-7]],[[263,2309],[6,7]],[[298,2375],[1,18]],[[299,2394],[4,12]],[[344,2442],[-1,-1]],[[360,2444],[46,20]],[[143,2085],[15,-16]],[[158,2069],[-15,17]],[[158,2069]],[[158,2069],[3,-3]],[[161,2066],[-3,3]],[[176,2049],[3,-7]],[[180,2042],[-4,7]],[[283,2078],[4,-6]],[[516,1996],[1,-4]],[[517,1992],[0,4]],[[517,1992],[61,-80]],[[624,1836],[9,-34]],[[682,2015],[-6,5]],[[595,808],[4,-69],[0,-2],[11,-74],[0,-3],[-26,-50]],[[591,617],[19,43],[-14,148]],[[218,1356],[3,7]],[[673,1995],[21,-16]],[[73,1621],[-9,1]],[[228,1862],[2,-5]],[[0,1628],[75,22]],[[241,2025],[16,-6]],[[126,2007],[1,-4]],[[142,2052],[-16,-31]],[[126,2021],[9,6],[8,24]],[[127,2002],[2,-3]],[[130,1998],[-3,6]],[[319,2189],[-9,-7]],[[311,2182],[9,4]],[[333,2194],[1,2]],[[370,2222],[-35,-24]],[[335,2198],[-4,-1]],[[334,2196],[74,52]],[[380,2229],[-10,-7]],[[1687,631],[81,-43]],[[1795,574],[3,1]],[[315,1512],[-1,51]],[[60,2056],[-19,9]],[[306,2052],[-1,0]],[[306,2052],[13,-11]],[[319,2041],[-13,11]],[[0,44],[9,71],[50,59],[-23,35],[8,86],[-40,11],[-4,31]],[[218,507],[-46,-29],[-64,18],[-33,-12],[-16,-43],[-59,-2]],[[0,540],[32,-2]],[[313,516]],[[352,3744],[7,-2]],[[460,283],[51,16],[95,-129]],[[126,2021],[-3,-7],[1,-20]],[[125,1994],[1,27]],[[258,1878],[-44,12]],[[261,1801],[-4,8]],[[257,1807],[2,-4],[11,-22]],[[270,1781],[6,-10]],[[276,1771],[-6,10]],[[270,1781],[-7,12]],[[1490,1542],[66,-92],[21,-123]],[[1577,1327],[6,-105],[-73,-171]],[[2892,237],[140,209],[88,84]],[[327,2035],[25,-19]],[[239,1863],[-2,-2]],[[316,1944],[-1,-4]],[[236,2027],[5,-2]],[[124,1994],[-13,-8]],[[111,1985],[14,9]],[[1075,1681],[31,-22]],[[237,1861],[-32,-10]],[[315,1940],[-76,-77]],[[341,1985],[-25,-41]],[[348,2004],[-4,-14]],[[349,2053],[0,-47]],[[42,1134],[2,2]],[[45,1137],[18,-6]],[[57,1130],[-2,-1]],[[55,1129],[-3,0]],[[57,1130],[4,0]],[[63,1131],[-2,-1]],[[65,1131],[-2,0]],[[162,1090],[2,-1]],[[368,1200],[1,2]],[[369,1202],[4,6]],[[421,1234],[-48,-26]],[[1816,611],[12,31],[91,36],[95,-42],[34,56],[-8,28],[67,-2],[63,58],[107,-9]],[[184,2031],[2,-14]],[[187,2017],[-1,10],[-1,4]],[[1612,912],[28,66],[-130,73]],[[1655,798],[-2,3]],[[677,2007],[1,-9]],[[263,1793],[-2,8]],[[267,1789],[-4,8]],[[92,1021],[19,-53]],[[74,1641],[10,-2]],[[84,1639],[-10,4]],[[269,1511],[1,-1]],[[278,1507],[5,-2]],[[228,1362],[67,24]],[[294,1387],[-66,-25]],[[314,1563],[0,125]],[[3984,2269],[-187,122],[-70,108]],[[105,226],[-45,-43]],[[127,2003],[0,-1]],[[1809,600],[7,11]],[[1820,565],[59,-75],[-33,-114],[112,-134],[0,-129]],[[420,2118],[7,-8]],[[428,2110],[-8,8]],[[84,1639],[7,-13]],[[91,1627],[-6,11],[-1,1]],[[246,2318],[35,-77]],[[281,2241],[-8,60],[-14,12],[-12,5]],[[126,613],[1,-3]],[[26,2622],[158,-329],[-1,-72]],[[184,2283],[0,10],[-4,34],[-154,295]],[[183,2221],[1,42]],[[184,2263],[0,20]],[[596,574],[-2,8]],[[2501,254],[32,1]],[[299,1165],[57,22]],[[356,1187],[5,3]],[[361,1190],[-5,-3]],[[195,1782],[-10,5],[-22,1]],[[163,1788],[14,-2]],[[192,1783]],[[193,1782],[2,-1]],[[258,2207],[-71,3]],[[296,2163],[-38,44]],[[310,2141],[-13,20]],[[328,2103],[-11,23]],[[334,2088],[-5,11]],[[341,2073],[-4,9]],[[349,2053],[-5,13]],[[377,1270]],[[208,496],[32,-151],[-13,-107]],[[53,1137],[-5,3]],[[77,1133],[-1,0]],[[165,1089],[-3,1]],[[361,1189],[1,1],[-1,0],[0,-1]],[[230,1857],[3,-4]],[[187,2090],[-45,-38]],[[143,2051],[44,39]],[[187,2090],[1,0],[-1,1],[0,-1]],[[214,2116],[-27,-25]],[[188,2091],[26,24]],[[225,2126],[-11,-10]],[[214,2115],[11,11]],[[310,2182],[-85,-56]],[[225,2126],[86,56]],[[1923,47],[-93,72]],[[1969,44],[2,0]],[[1982,42],[42,27]],[[2025,70],[49,29]],[[390,2231],[8,-21]],[[399,2209],[-9,22]],[[399,2185],[-1,-3]],[[399,2182],[0,3]],[[584,754],[-2,0]],[[582,754],[2,0]],[[584,754],[29,9]],[[613,763],[10,-2]],[[679,795],[-56,-34]],[[776,1937],[26,-32]],[[814,1884],[13,-21]],[[827,1863],[25,-39]],[[1533,1131],[35,44],[5,-32],[23,10],[57,-58]],[[1668,777],[-7,-60],[-43,-32]],[[19,1288],[29,-51]],[[73,1208],[0,-1]],[[76,1204],[0,-1]],[[77,1193]],[[891,2114],[215,-59]],[[297,1501],[0,-1]],[[165,2169],[-2,0]],[[298,2375],[-28,-58]],[[353,2016],[8,-7]],[[575,666],[18,146]],[[575,666],[1,-12]],[[612,553],[-36,101]],[[612,553],[6,-5]],[[618,548],[52,-32]],[[671,516],[153,-113],[235,37]],[[1118,125],[64,245],[-87,68]],[[1409,16],[-239,76]],[[1429,16],[153,10],[145,99]],[[1728,125],[75,32]],[[1803,157],[2,0]],[[1828,123],[-23,34]],[[1966,112],[2,0]],[[2084,110],[213,82]],[[2299,193],[106,13],[107,-38],[-11,86]],[[3380,0],[-21,28],[-125,27],[-161,103],[-92,11],[-94,61],[-105,-24],[-84,27],[-52,-17],[-113,39]],[[3426,0],[-16,0]],[[3933,0],[4,93],[93,-27],[32,44],[-29,105],[31,32],[0,52],[28,14],[-6,52],[10,10]],[[600,548],[11,-18]],[[307,1339],[8,-45]],[[382,1002],[-22,-31]],[[382,1002],[2,4]],[[399,1024],[-15,-18]],[[399,1024],[2,3]],[[439,1087],[-38,-60]],[[439,1087],[7,7]],[[446,1094],[-5,-4],[-2,-3]],[[123,1992],[4,2]],[[127,1994],[-3,0]],[[129,1995],[-2,-1]],[[129,1995],[3,0]],[[132,1995],[8,12]],[[140,2007],[2,1],[2,4]],[[143,2012],[-3,-5]],[[148,2020],[-1,-1]],[[185,2041],[-10,-2]],[[175,2039],[10,1]],[[618,484],[-146,48]],[[504,16],[-28,-4]],[[398,2132],[-42,-18]],[[357,2114],[41,18]],[[188,1764],[-24,-32],[-7,-32]],[[157,1700],[7,32],[1,0],[16,15],[7,17]],[[194,1782],[-6,-18]],[[189,1764],[6,18]],[[314,1495],[0,-7]],[[314,1487],[0,-4]],[[315,1483],[0,12]],[[597,816],[4,3]],[[430,1966],[46,2]],[[150,1845],[0,-1]],[[682,2015],[11,3]],[[39,2070],[21,-14]],[[310,1471],[4,28]],[[314,1499],[1,4]],[[314,1503],[0,-4]],[[314,1499],[0,-20],[-2,-5]],[[515,944],[-1,1]],[[542,899],[-8,13]],[[541,900],[4,-9]],[[553,881],[-7,11]],[[549,886],[2,-3]],[[551,882],[1,-2]],[[554,877],[6,-9]],[[591,817],[-36,60]],[[577,839],[13,-22]],[[1653,801],[-35,45],[-6,66]],[[1743,680],[-31,75],[-57,43]],[[1969,2250],[24,-55],[385,89],[10,21],[-578,1258],[-290,533]],[[632,215],[-13,-47]],[[619,168],[-1,-3],[-4,-20],[-29,-89],[-28,-56]],[[558,0],[39,79],[8,26],[13,55],[1,8]],[[619,168],[5,33]],[[570,587],[-4,-105],[63,-178]],[[630,304],[-4,30],[-60,148],[3,15],[1,90]],[[139,2052],[0,-2]],[[140,2050],[0,2]],[[2907,2381],[-87,45],[-442,-144],[-385,-89],[-42,38]],[[633,1802],[9,-10]],[[35,3604],[0,-1]],[[60,3831],[0,1]],[[67,3790],[-1,1]],[[111,968],[-20,-100]],[[98,3679]],[[135,1842],[0,-1]],[[147,1097],[1,-1]],[[246,2225],[-6,-3],[-1,-12]],[[240,2210],[7,15]],[[258,2207]],[[307,2180],[-24,-15]],[[283,2164],[25,16]],[[312,2138],[-2,3]],[[386,2656],[19,86]],[[408,2465],[24,58]],[[614,550],[0,1]],[[647,83],[0,1]],[[769,1662],[-43,27]],[[822,1675],[34,50]],[[886,1812],[79,2],[141,-155]],[[1442,0],[0,18]],[[0,577],[5,-17]],[[315,1543],[-1,9]],[[263,1797],[-5,8]],[[268,1786],[-1,3]],[[632,849],[0,-2]],[[1095,438],[-36,2]],[[683,1737],[-1,1]],[[713,1711],[0,1]],[[725,1694],[0,1]],[[859,1734],[22,71]],[[583,1902],[-4,7]],[[583,1901],[4,-8]],[[587,1893],[4,-8]],[[591,1885],[19,-29]],[[672,1997],[2,0]],[[707,1981],[-25,34]],[[694,1979],[12,1]],[[706,1980],[0,1],[-1,-1],[1,0]],[[167,2209],[-31,0]],[[136,2208],[31,1]],[[256,1877],[-7,-6]],[[250,1871],[5,5]],[[258,1878],[6,5]],[[272,1891],[-4,-3]],[[271,1890],[2,1]],[[295,1912],[-13,-12]],[[334,1974],[-3,-4]],[[350,2009],[-2,-5]],[[91,868],[-39,-217],[17,-63]],[[316,1596],[5,-1]],[[321,1595],[-5,1]],[[321,1595],[9,-3]],[[774,887],[-40,-19]],[[3335,41],[118,111],[181,91]],[[182,2318],[-81,-4]],[[101,2314]],[[101,2314],[-1,0],[-1,-1]],[[100,2313],[82,5]],[[119,2320],[-10,-3]],[[109,2317],[-8,-3]],[[101,2314],[-1,0]],[[100,2314],[1,0]],[[101,2314],[8,3]],[[109,2317],[5,2]],[[148,2316]],[[168,1788],[-4,0],[-3,-7]],[[162,1781],[6,6]],[[181,2324],[-5,-6]],[[192,1775]],[[200,1779],[0,-1]],[[255,1876],[16,14]],[[268,1888],[-12,-11]],[[340,1983],[-6,-9]],[[355,2024],[-5,-15]],[[134,2208],[2,0],[0,1],[-1,0],[-1,-1]],[[129,1999],[6,-12]],[[132,1995],[-2,3]],[[184,1849],[-6,29]],[[181,1864],[3,-15]],[[84,1628],[3,2]],[[87,1630],[1,2]],[[89,1633],[-2,-3]],[[624,201],[9,61]],[[633,262],[1,3],[-4,39]],[[629,304],[4,-36],[0,-2],[0,-4]],[[633,262],[1,-31],[-2,-16]],[[238,1844],[-6,12]],[[278,1507],[9,-3]],[[286,1504],[-7,3]],[[359,1701],[56,96],[63,43]],[[284,2005],[43,-15]],[[327,1990],[9,-9]],[[335,1984],[-8,6]],[[82,1055],[4,-10]],[[92,1022],[-5,21],[-5,12]],[[88,1038],[4,-16]],[[92,1022],[0,-1]],[[159,1855],[2,-15]],[[160,1854],[0,1]],[[39,2070],[17,-11]],[[401,2076],[11,-23]],[[413,2053],[-2,6],[-10,17]],[[385,2080],[-42,-11]],[[385,2080],[3,0]],[[388,2081],[-3,-1]],[[305,2052],[1,0]],[[306,2052]],[[71,579],[0,-1]],[[4077,2276],[-39,-29],[-54,22]],[[136,2210],[-6,36]],[[314,1401],[-2,6]],[[338,1327],[-9,14]],[[351,1317],[-7,6]],[[371,1281],[-17,32]],[[406,1243],[-35,36]],[[299,2393],[0,1]],[[343,2441],[-40,-35]],[[1170,92],[-52,32]],[[1409,16],[20,0]],[[2078,108],[6,2]],[[288,1782],[36,5],[6,3],[6,5],[14,39],[0,6],[-6,18],[-1,1]],[[343,1859],[-5,8],[17,23]],[[355,1890],[6,8],[4,6],[11,15],[2,2]],[[378,1921],[-3,-2],[-19,-28],[-1,-1]],[[355,1890],[-12,-31]],[[343,1859],[0,-1],[-8,-62],[-44,-12]],[[389,1947],[-11,-26]],[[378,1921],[12,26]],[[378,1921],[4,3],[5,10],[3,13]],[[411,1993],[-17,-26],[-5,-20]],[[390,1947],[22,46]],[[398,2122],[0,-14]],[[398,2107],[1,4],[-1,11]],[[398,2182],[0,-41]],[[399,2141],[1,24],[-1,17]],[[414,2020],[-3,-27]],[[412,1993],[2,27]],[[412,1993],[3,9],[-1,18]],[[412,2053],[2,-33]],[[414,2020],[-1,33]],[[61,1221],[-13,16]],[[61,1221],[12,-13]],[[79,1186],[-2,7]],[[79,1186],[1,-2]],[[73,1207],[3,-3]],[[76,1203],[1,-10]],[[254,2057],[-6,-6]],[[267,2014],[17,-9]],[[101,1662],[7,-3],[12,-2],[10,4],[47,35],[1,1],[2,8],[-9,10],[12,9],[-12,-9],[6,-18],[-76,-34]],[[382,2229],[9,1]],[[682,1738],[-4,6]],[[713,1712],[-30,25]],[[725,1695],[-12,16]],[[726,1689],[-1,5]],[[822,1675],[-53,-13]],[[856,1725],[3,9]],[[881,1805],[5,7]],[[1106,1659],[25,-33],[62,-17],[18,17],[58,-28]],[[6,1351],[-5,-4]],[[2,1347],[4,4]],[[16,1507],[-4,-9]],[[16,1508],[10,21]],[[41,2173]],[[42,2171],[1,1]],[[51,1130]],[[57,2203]],[[66,2113]],[[68,2065]],[[68,2065]],[[79,2036],[1,0]],[[84,1639],[5,-6]],[[89,1633],[-1,3],[-4,3]],[[111,1986],[-1,-1]],[[110,1985],[1,0]],[[135,1841],[0,1]],[[136,2213],[-1,0]],[[136,2218]],[[145,1970]],[[154,1812],[0,-1]],[[154,1954],[3,-7]],[[154,1811],[0,1]],[[160,1847]],[[161,1847],[0,1]],[[162,1936],[1,1]],[[166,1929],[-1,0]],[[188,2227]],[[200,1917],[8,-15]],[[208,1902],[-8,15]],[[281,2241],[-35,-16]],[[247,2225],[34,16]],[[255,2314]],[[263,2310],[-1,0]],[[270,2317],[-1,-1]],[[296,1502],[1,0]],[[297,1499],[0,1]],[[313,1488],[1,0]],[[314,1497],[0,-2]],[[315,1478]],[[318,2193],[1,-5]],[[320,2431],[40,-62]],[[360,2370],[-40,61]],[[333,2196]],[[355,2025],[0,-1]],[[390,2235],[-4,-2],[-6,-4]],[[380,2229],[-7,-5],[-3,-2]],[[371,2222],[2,1],[8,5]],[[381,2228],[5,4],[4,3]],[[381,2228]],[[381,2228],[-1,1]],[[380,2229]],[[380,2229],[2,1]],[[432,2523],[-46,133]],[[396,2131],[2,-1]],[[398,2132]],[[404,2217],[-6,10]],[[399,2132],[0,1]],[[400,2243],[1,-1]],[[405,2246]],[[420,2352],[3,-83]],[[599,1969],[-21,-57]],[[579,1909],[20,60]],[[624,1836],[13,-11]],[[638,1824],[4,-32]],[[648,1997],[-9,0]],[[664,1998],[-9,-2]],[[137,1842],[-1,1],[-1,-1],[1,-2],[1,2]],[[420,2352]],[[420,2352],[1,0],[0,1],[-1,-1]],[[242,824],[-116,-211]],[[249,838],[-7,-14]],[[346,951],[-97,-113]],[[346,951],[6,10]],[[360,971],[-8,-10]],[[584,610],[-8,-11],[-6,-12]],[[570,587],[21,30]],[[592,814],[3,-6]],[[596,808],[-3,4]],[[184,2221],[-2,-2]],[[183,2210],[3,11]],[[406,2464],[2,1]],[[1616,678],[71,-47]],[[2515,167],[1,0]],[[1022,770],[10,-2]],[[1033,768],[7,-1]],[[479,2103],[0,-4]],[[479,2099],[0,4]],[[479,2142],[0,-39]],[[520,2291],[-23,-46]],[[520,2292],[0,-1]],[[525,2324],[-5,-32]],[[552,868],[-12,-1]],[[552,868],[16,0]],[[568,868],[-13,1],[-3,-1]],[[593,887],[-25,-19]],[[674,1997],[1,0]],[[675,1997],[3,1]],[[91,1626],[1,0]],[[256,1516]],[[256,1516]],[[161,2066],[15,-18]],[[176,2049],[-15,17]],[[161,1840],[2,-46]],[[163,1788],[1,30],[-3,22]],[[162,1789],[0,-1]],[[0,1344],[4,5]],[[4,1349],[10,5],[14,7],[45,35],[45,-3]],[[118,1393],[-26,7],[-4,1],[-7,-1],[-9,-4],[-44,-34],[-14,-8],[-2,0],[-6,-3],[-2,-2]],[[218,1360],[-100,33]],[[118,1393],[8,-8],[31,-9],[24,-15],[15,-3],[21,0]],[[219,1362],[0,-1]],[[220,1365],[-2,84],[30,56],[-1,13],[-29,-69],[-9,-40],[10,-45]],[[312,1474],[-13,-25],[-4,-26],[12,-84]],[[370,1191],[-54,101],[-6,179]],[[315,1294],[7,-23],[18,-39],[17,-26],[48,-57],[12,-15],[3,-5]],[[420,1129]],[[420,1129],[12,-25],[13,-27],[15,-31],[17,-34],[23,-44]],[[501,968],[-23,44],[-44,90],[-1,2],[-13,25]],[[420,1129]],[[420,1129],[-3,6],[-40,48]],[[0,1280],[2,39]],[[6,1222],[-2,7]],[[10,1208],[35,-56]],[[63,1106],[-11,23]],[[65,1086],[3,-4]],[[74,1072],[-1,3]],[[18,1511],[-9,-57]],[[161,1840],[-1,14]],[[110,1985],[36,-74]],[[150,1900],[-5,15],[-6,14],[-28,56]],[[150,1899],[9,-44]],[[160,1855],[-7,31],[-3,13]],[[159,2168],[40,1],[21,-47],[5,-5],[0,-24],[7,-32],[4,-8]],[[163,2169],[-4,0]],[[237,2054],[-12,64],[-26,51],[-34,0]],[[226,2098],[-1,0]],[[75,2022],[-14,-5]],[[186,2017],[-48,-88]],[[138,1929],[49,88]],[[317,2126],[-7,15]],[[329,2099],[-1,4]],[[337,2082],[-3,6]],[[344,2066],[-3,7]],[[429,2008],[-76,8]],[[361,2009],[68,-1]],[[600,1969],[-84,27]],[[517,1996],[82,-27]],[[599,1969],[1,0]],[[599,1969]],[[600,1969],[74,28]],[[675,1997]],[[60,2056],[-19,11]],[[61,2017],[14,5]],[[0,1994],[61,23]],[[41,2067],[-41,23]],[[360,2369],[60,-17]],[[408,2248],[14,17],[10,24],[4,48],[-15,16],[-61,17]],[[423,2269],[-43,-40]],[[216,1807],[19,-19]],[[181,2040],[-7,-1]],[[174,2039],[7,0]],[[541,900],[10,-17]],[[86,2213],[-15,-3],[-30,-15],[-11,-7],[34,-62],[6,-82],[1,-2]],[[71,2042],[3,-4],[8,-6]],[[84,2029],[-11,10],[-2,3]],[[71,2042],[-1,2],[-6,80],[-4,14],[-29,51],[55,24]],[[113,2210],[-27,3]],[[89,2021],[7,-11]],[[97,2010],[-8,11]],[[97,2008],[1,1],[-1,1],[-1,-1],[1,-1]],[[97,2008],[13,-23]],[[111,1985],[-13,23]],[[146,1911],[4,-12]],[[150,1899],[0,1]],[[593,812],[0,1]],[[500,968],[14,-23]],[[514,945],[-13,23]],[[1577,1327]],[[319,2041],[8,-6]],[[352,2017],[-33,24]],[[86,1045],[2,-7]],[[187,1902],[-36,-9]],[[151,1893],[23,5],[13,4]],[[187,1902],[15,6]],[[202,1908],[25,12]],[[227,1920],[-25,-12]],[[92,1626],[-1,1]],[[289,1503],[7,-1]],[[297,1503],[-7,1]],[[297,1500],[0,-1]],[[297,1500],[0,3]],[[562,864],[1,-1]],[[82,2032],[2,-3]],[[0,1581],[45,-10]],[[208,496],[-16,-160]],[[233,1853],[24,-46]],[[1971,44],[2,-1]],[[609,54],[15,0]],[[613,547],[1,3]],[[614,550],[-1,-3]],[[613,547],[3,-44]],[[616,503],[4,-31]],[[620,472],[51,-255],[-6,-119]],[[624,54],[0,1],[-1,0],[1,-1]],[[664,96],[-40,-41]],[[624,55],[40,41]],[[316,2129],[-2,6]],[[328,2102],[-3,7]],[[337,2082],[-9,20]],[[345,2065],[-4,9]],[[0,3357],[0,9]],[[0,3405],[9,144],[26,54]],[[60,3832],[-35,264]],[[35,3604],[63,75]],[[66,3791],[-6,40]],[[109,3698],[-42,92]],[[98,3679],[10,18]],[[309,2141],[8,-15]],[[327,2103],[2,-4]],[[334,2088],[2,-6]],[[341,2073],[3,-7]],[[39,307],[64,-35]],[[3727,2499],[-31,-19],[-610,321],[-52,-11]],[[816,1297],[11,136],[-88,189]],[[572,1851],[16,-14]],[[1951,2231],[41,-39],[330,-9],[588,-80],[88,13],[503,189],[226,194]],[[356,2114],[-28,-12]],[[328,2101],[29,13]],[[257,2012],[4,6]],[[328,2102],[-143,-61]],[[185,2040],[143,61]],[[213,2043],[-11,0]],[[202,2042],[11,1]],[[0,2098],[39,-28]],[[84,2099],[3,0]],[[593,812],[4,4]],[[601,819],[31,28]],[[75,1650],[21,12]],[[365,1906],[-71,4]],[[300,1908],[65,-2]],[[366,1904],[6,-3]],[[89,1633],[2,-7]],[[92,1627],[-3,6]],[[163,1794],[-1,-5]],[[177,1973],[36,6]],[[213,1979],[8,3]],[[221,1982],[-8,-3]],[[391,2091],[-3,-7]],[[391,2091],[-4,-8],[1,-2]],[[388,2084],[3,7]],[[388,2081],[3,10]],[[401,2076]],[[401,2076],[-6,6],[-5,-2]],[[390,2080],[5,2],[6,-6]],[[401,2076]],[[397,2105],[-6,-14]],[[391,2091],[6,13]],[[399,2085],[1,-5],[1,-4]],[[401,2076]],[[401,2076],[0,-2]],[[402,2074],[-2,11]],[[18,1184],[-18,21]],[[25,2360],[23,-36],[51,-113],[2,-108],[-101,151]],[[3,1286],[43,3]],[[3,1286],[-2,-1],[-1,0],[1,0],[2,1]],[[17,2344],[45,-55]],[[26,2518],[-9,19]],[[23,1214],[9,1]],[[23,1214],[-15,0]],[[122,2580],[-96,-62]],[[46,2506],[-20,12]],[[32,1215],[24,4]],[[33,2373],[0,-1]],[[57,2393],[-19,-11]],[[84,2214],[-13,2]],[[71,2216],[-15,2],[-16,-7]],[[99,2472],[-37,-24],[-20,54]],[[50,1289],[-4,0]],[[48,1237],[27,48]],[[50,1289],[6,-1]],[[80,1285],[-24,3]],[[56,1219],[5,2]],[[59,1380],[-1,0]],[[63,2568],[3,-13]],[[88,2066],[-20,-1]],[[68,2065],[24,0]],[[71,2216]],[[71,2216],[-1,-6]],[[70,1583],[1,0]],[[71,1583]],[[70,2210],[18,-37]],[[88,2173],[-17,43]],[[117,1455],[-44,166]],[[79,1399]],[[80,1285],[1,0]],[[80,1184],[31,-37]],[[81,1510]],[[87,1492],[0,1]],[[87,1493],[-1,1]],[[86,1494],[0,3],[-2,3],[0,1]],[[84,1501],[-1,3],[-18,110],[6,-31]],[[71,1583],[10,-56]],[[81,1527],[-1,-2],[4,-24]],[[84,1501],[0,-1],[2,-6]],[[86,1494],[1,0],[0,-1]],[[87,1493],[0,-5],[-1,-3],[0,-3],[0,-1]],[[86,1481],[1,-1],[1,-6],[1,-2]],[[81,1527]],[[81,1285],[13,-2]],[[84,2316],[76,46]],[[86,1481]],[[86,1481],[1,0]],[[86,1485],[1,0]],[[87,1492]],[[87,1485],[0,7]],[[117,1455],[-30,30]],[[92,2065],[6,29],[-10,-28]],[[92,2066],[-4,0]],[[89,1472]],[[89,1472],[3,-8]],[[96,2054],[-4,11]],[[92,1464],[1,1]],[[92,1464],[14,-8]],[[94,1283],[1,0]],[[95,1283],[3,0]],[[98,1284],[-3,-1]],[[97,2091],[-1,0]],[[103,2480],[-3,-7]],[[100,2473],[3,7]],[[104,2482],[-1,-1]],[[103,2481],[0,-1],[1,0],[-1,1]],[[104,2482],[47,53],[93,14]],[[104,2481],[0,1]],[[106,1456]],[[106,1456],[11,-1]],[[275,2269],[-169,38]],[[109,2055],[7,32],[3,20],[7,26]],[[126,2135],[-8,-28],[-9,-52]],[[114,2027],[-5,28]],[[109,1455]],[[114,1455]],[[114,2027],[4,-7],[5,-6]],[[125,2011],[-11,16]],[[127,1343],[-10,112]],[[126,2170],[-9,2]],[[122,2124]],[[129,2038],[-6,-2],[0,-17]],[[126,2031],[-3,4]],[[124,2128]],[[125,2013],[1,19]],[[131,2048],[-6,1]],[[135,2208],[-9,-73]],[[126,2135],[6,-14]],[[128,2170],[0,1]],[[130,2170],[0,1]],[[132,2170],[0,1]],[[133,2121],[3,87]],[[146,1223],[-9,-20]],[[141,1890],[9,-45]],[[154,1812],[-7,56],[-5,22]],[[145,2043]],[[145,2043]],[[145,2015]],[[155,1748],[-1,2],[-8,3]],[[146,1753],[0,1]],[[148,1099],[6,20],[-6,52]],[[148,1171],[-5,42],[3,10]],[[146,1173],[2,-2]],[[148,1171],[10,-15]],[[146,1753]],[[146,1753],[8,27],[1,7]],[[155,1787],[0,1]],[[155,1788],[1,6],[0,2]],[[148,2042],[-1,0]],[[150,1844],[4,-32]],[[155,1787],[-9,-34],[7,-8]],[[154,1811],[1,-15]],[[156,1796],[-2,15]],[[155,1787]],[[155,1787],[4,1],[4,0]],[[155,1788],[0,-1]],[[163,1788],[-1,0],[-7,0]],[[155,1788]],[[155,1796],[0,-8]],[[155,1795],[0,1]],[[155,2038],[1,-1]],[[156,1795],[0,1]],[[159,1712],[9,2]],[[160,2362],[2,2]],[[162,2364],[-2,-2]],[[163,2364],[-1,0]],[[162,2364]],[[162,2364],[1,0]],[[380,2539],[-79,-35],[-24,-55],[20,-46],[-134,-39]],[[180,1818],[-17,0]],[[164,1569],[22,92]],[[174,1737]],[[176,1888]],[[178,2040]],[[179,1083],[47,69]],[[180,1818],[1,-1]],[[181,1818],[-1,0]],[[183,2041],[-2,-1]],[[181,2039],[5,1]],[[217,1811],[-36,7]],[[181,1817],[34,-7]],[[181,1817],[0,1]],[[181,1818],[0,-1]],[[276,1769],[0,-1]],[[276,1768],[-19,-12]],[[257,1756],[-1,0]],[[256,1756],[-50,-20]],[[206,1736],[-9,-4],[-14,-8]],[[184,2041],[-1,0]],[[183,2040],[0,1]],[[184,1849],[0,-1]],[[184,1848],[0,1]],[[190,1987],[14,15],[17,20],[3,8]],[[224,2031],[-34,-42]],[[197,1732],[9,4]],[[206,1736],[50,20]],[[256,1756],[1,0]],[[257,1756],[1,1],[18,11]],[[276,1768]],[[271,1939],[-48,15],[-20,23]],[[204,1977],[0,-1]],[[314,1697],[-1,-1],[-1,0]],[[312,1696],[-1,0],[-3,-2],[-64,7],[-19,10],[-19,25]],[[206,1736]],[[206,1736],[-1,1]],[[218,1808],[0,3],[-4,-2],[1,-2],[3,1]],[[256,1808],[-19,-20],[-19,20]],[[221,1982],[36,30]],[[227,1920],[26,-20]],[[253,1901],[-26,19]],[[235,1788],[2,-2],[12,11],[6,9],[1,2],[1,1]],[[257,1809],[1,1],[1,1]],[[246,1499],[-1,1]],[[253,1901],[0,-1]],[[253,1900]],[[264,1922],[-11,-21]],[[253,1900],[0,1]],[[253,1900]],[[253,1900],[14,-13]],[[253,1900],[11,22]],[[270,1884],[-6,8],[-11,8]],[[256,1808],[-1,-1]],[[256,1806],[-1,0]],[[256,1806],[-1,0]],[[256,1806],[2,-3],[18,-35]],[[276,1768]],[[276,1768],[36,-72]],[[312,1696],[2,-190],[-9,-3],[-3,0]],[[302,1503],[-5,0],[0,7]],[[259,1811],[-3,-3]],[[259,1808],[-2,1]],[[257,1809]],[[257,2019],[9,-4]],[[259,1811],[0,-3]],[[259,1808],[31,-60],[28,-48]],[[259,1811]],[[259,1811]],[[259,1811]],[[262,1813],[-3,-2]],[[259,1811]],[[259,1811],[3,2]],[[286,1756],[-27,55]],[[312,1840],[-50,-27]],[[271,1937],[-7,-15]],[[266,1954]],[[266,1954],[13,12]],[[266,1954],[7,-7]],[[268,1886],[2,-2]],[[270,1884],[44,-13]],[[271,1937],[1,1],[0,1]],[[272,1939],[0,1],[0,1],[2,7],[-1,-1]],[[271,1939],[0,-2]],[[273,1947],[-2,-8]],[[297,1939],[-25,0]],[[272,1939],[-1,0]],[[325,2258],[-16,6]],[[309,2264]],[[309,2264],[-11,4],[-22,1]],[[281,2241],[6,-18]],[[287,2223],[-5,17]],[[284,1971],[3,4]],[[292,2000],[-5,-25]],[[292,2000],[-2,5]],[[295,1209],[-9,2]],[[301,1166],[-6,43]],[[314,1395],[-2,1],[-7,-9],[-3,-4],[-4,0],[-2,-1]],[[296,1382],[6,1],[12,12]],[[297,1512],[0,-2]],[[297,1510],[0,-7]],[[297,1510]],[[297,1510]],[[297,1510],[5,0],[0,-7]],[[302,1503]],[[301,1939],[-4,0]],[[301,1939],[40,-9]],[[316,2194],[-10,2]],[[306,2196],[10,-2]],[[309,2266],[0,-2]],[[309,2264],[-1,-11],[0,-8],[1,-12],[11,-34]],[[321,2200],[-12,33],[0,12],[0,8],[0,11]],[[309,2264],[0,2]],[[311,2226],[-1,0]],[[314,1492],[-4,1]],[[400,2606],[-90,30]],[[312,1849],[2,-3]],[[314,1846],[0,-2]],[[312,1840],[5,3],[2,13]],[[319,1856],[-5,-10]],[[314,1846]],[[314,1846],[-2,-3],[0,-3]],[[315,1845],[-1,1]],[[314,1846],[-2,3]],[[314,1902],[5,-2]],[[319,1900],[-5,2]],[[315,1872],[-1,-1]],[[314,1871],[1,0]],[[314,1697],[4,1]],[[315,1495],[-1,202]],[[315,1871]],[[315,1872],[0,-1]],[[315,1871],[4,-10]],[[315,1872]],[[324,1899],[-7,-21],[-2,-6]],[[315,1872],[3,9],[6,18]],[[324,1899]],[[324,1899]],[[315,1871],[0,1]],[[319,1861],[-4,10]],[[318,1698],[1,0]],[[319,1698]],[[319,1698],[2,1],[-2,0]],[[318,1699],[0,-1]],[[318,1700],[0,-1]],[[319,1699],[-1,1]],[[319,1900],[5,-1]],[[319,1861],[0,-5]],[[324,1899]],[[324,1899],[21,-7]],[[345,1892],[1,-1],[3,-1]],[[345,1892],[-21,7]],[[324,1899]],[[380,2229],[-55,28]],[[328,1506],[-1,-32]],[[351,1319],[-21,20]],[[331,1987],[15,-14]],[[346,1973],[-15,14]],[[360,2427],[-26,-25]],[[334,2402],[17,16]],[[360,1961]],[[360,1961],[-11,10],[-14,13]],[[336,1981],[3,-1],[16,-15],[5,-4]],[[360,1961]],[[360,1961],[2,-2],[8,-7]],[[340,1925],[-1,-2]],[[340,1922],[0,3]],[[340,1925],[1,5]],[[341,1930],[30,-26],[1,-3]],[[372,1901],[0,-22]],[[372,1879],[0,-6],[2,-1]],[[345,1892]],[[345,1892]],[[351,1890],[-6,2]],[[399,1891],[-53,-255]],[[351,1319],[1,-4]],[[353,1315],[-2,4]],[[352,2202],[8,-24],[36,4]],[[359,2426],[1,1]],[[368,2003],[0,-2]],[[368,2001],[-1,-25],[0,-6],[-7,-8]],[[360,1962],[0,-1]],[[360,1961]],[[360,1961]],[[360,1961]],[[360,1961]],[[360,1961],[0,1]],[[360,1962],[8,39]],[[368,2001],[0,2]],[[370,1952],[-10,9]],[[377,1899],[-5,2]],[[372,1901],[-1,1]],[[371,1902],[-4,2]],[[368,1998],[-1,-15]],[[368,1983],[0,15]],[[370,1952],[3,-22]],[[374,1872],[-2,1],[0,6]],[[372,1879],[-1,23]],[[371,1902],[0,1]],[[372,1901],[5,-2]],[[373,1930],[1,-4]],[[374,1872],[6,-3]],[[374,1926],[7,-1]],[[375,1041]],[[377,1899],[22,-8]],[[380,2539],[1,0]],[[381,1009],[-1,0]],[[380,1008],[1,0]],[[381,1925],[3,1]],[[383,1927],[-2,-2]],[[383,1061],[-2,-12]],[[381,1049],[13,-48]],[[416,2546],[-35,-7]],[[389,1114],[-3,-25]],[[388,1118],[30,35]],[[464,1006],[-70,-5]],[[397,1250],[-2,0]],[[395,1250],[2,0]],[[398,2182],[-2,0]],[[396,2182],[2,-1]],[[396,1839],[1,0]],[[397,1250],[29,1]],[[405,1919],[-6,-28]],[[399,1891],[41,-33]],[[402,1851]],[[403,2134],[12,0]],[[404,1857],[-1,0]],[[403,1932],[5,3]],[[404,1935],[-1,-3]],[[403,1932],[2,-13]],[[404,1935],[-12,0],[-5,-1],[17,0]],[[408,1935],[-4,0]],[[405,1919],[0,1]],[[408,1870],[-1,-1]],[[407,1869],[1,1]],[[443,2007],[-13,-41],[-22,-31]],[[429,2109],[-5,2],[-7,-11]],[[417,2100],[11,9]],[[438,1218],[-20,-65]],[[425,1186],[3,0]],[[426,1183]],[[449,1217],[-22,34]],[[452,2093],[-2,-37],[-3,-23],[-14,-24]],[[436,2298],[27,24],[-27,15]],[[436,2337],[27,-15],[-27,-23]],[[441,1222],[-3,-4]],[[438,2337],[37,62],[61,14],[33,68]],[[442,2007],[1,-1]],[[446,2297]],[[448,2033],[85,-148]],[[449,2299],[0,-1]],[[450,2300]],[[451,2301]],[[451,2093],[1,-1]],[[452,2102],[0,-9]],[[454,2304],[1,0]],[[457,2146],[90,-33]],[[461,2312],[47,-41]],[[508,2271],[-46,41]],[[463,1199],[46,-21],[-17,-54]],[[464,1006],[3,-6]],[[467,1000],[-3,6]],[[533,1885],[-26,-48],[-29,3]],[[480,954],[81,18]],[[492,1124],[-2,-1]],[[491,1120],[1,4]],[[497,2034]],[[508,1081],[-3,2]],[[505,1082],[3,-1]],[[525,867],[-19,6]],[[552,1036],[-14,37],[-30,8]],[[517,1996]],[[602,2425],[0,-1]],[[602,2424],[-7,-15],[0,-1],[-48,-68],[-22,-16]],[[533,1885],[44,27]],[[533,1885],[39,-34]],[[545,2113],[2,0]],[[547,2113],[188,-8]],[[551,2441],[8,-2]],[[559,2439],[-8,3]],[[552,1036],[-1,-2]],[[552,1034],[0,2]],[[565,2437],[37,-13]],[[602,2424]],[[602,2425],[-37,12]],[[588,1837],[33,3]],[[596,2426]],[[608,2444],[-6,-19]],[[645,861],[-8,-9]],[[637,852],[-2,-1]],[[645,861],[4,2]],[[648,865],[-3,-4]],[[662,872],[-14,-7]],[[648,865],[1,-2]],[[649,863],[19,11]],[[656,823],[-7,40]],[[668,874],[-6,-2]],[[705,883],[-37,-9]],[[706,1980],[64,-43]],[[99,2473],[1,-1],[0,1],[-1,0]],[[278,1971],[3,-5],[2,1],[-2,5],[-3,-1]],[[319,1699],[-1,0]],[[318,1699],[1,-1]],[[319,1698]],[[319,1698],[0,1]],[[390,1117],[-3,1],[-1,-3],[3,-1]],[[389,1114],[1,3]],[[427,1251],[0,1],[-1,-1],[1,0]],[[156,1697],[0,-1]],[[157,1696],[0,1]],[[1828,123],[3,-4]],[[1875,115],[70,-2]],[[318,1367],[11,-25]],[[1934,2256],[0,1]],[[1934,2261],[0,2]],[[1938,2288],[1,2]],[[1941,2214],[0,1]],[[1950,2155],[-1,2]],[[1979,2356],[0,1]],[[2005,2396],[1,0]],[[179,1956],[12,-22]],[[514,945],[9,-15]],[[531,917],[-16,27]],[[551,883],[0,-1]],[[552,880],[2,-3]],[[555,877],[-2,4]],[[560,868],[2,-4]],[[563,863],[12,-20]],[[178,1878],[-5,22],[-9,34],[-6,14],[-26,47]],[[135,1987],[19,-33]],[[157,1947],[24,-83]],[[618,485],[-10,-3]],[[183,2208],[0,1]],[[276,1771],[37,-74],[1,-194]],[[314,1552],[-1,145],[-37,74]],[[315,1503],[0,40]],[[1961,40],[-8,-4]],[[1973,43],[8,-1]],[[2571,1003],[-197,-184],[-47,-15]],[[219,1361],[0,-3]],[[221,1363],[-2,-1]],[[623,55],[-83,-7],[-47,-48]],[[126,1787],[1,0]],[[127,1787],[13,1]],[[140,1788],[5,0],[10,-1]],[[155,1788],[-10,0],[-5,0]],[[140,1788],[-12,-2],[-1,1]],[[127,1787],[-1,1]],[[165,2171],[-2,-3],[0,-18]],[[163,2150],[20,58]],[[91,1635],[-2,-2]],[[89,1633],[2,2]],[[91,1635],[70,106]],[[578,1912],[1,-3]],[[583,1901],[0,1]],[[587,1893]],[[610,1856],[14,-20]],[[174,2317],[10,-15]],[[339,1980],[5,10]],[[349,2004],[1,5]],[[354,2022],[1,1]],[[323,2182],[-5,-23]],[[318,2158],[6,24]],[[351,2418],[8,8]],[[360,2369],[0,75]],[[191,1849],[1,-8],[4,-22]],[[196,1819],[-4,30]],[[1118,111],[5,-94],[-32,-17]],[[71,1649],[-71,-21]],[[1809,600],[-11,-25],[22,-10]],[[637,1825],[1,-1]],[[1510,1051],[-20,2]],[[297,1500]],[[1675,1709],[68,91],[132,34],[44,86],[76,20],[-43,98],[-2,117]],[[1934,2257],[0,4]],[[1941,2215],[-7,41]],[[1934,2263],[4,25]],[[1939,2290],[40,66]],[[1949,2157],[-8,57]],[[1979,2357],[11,30]],[[1990,2389],[15,7]],[[2006,2396],[55,64]],[[0,1244],[6,-22]],[[0,1273],[0,7]],[[0,1280],[0,-2]],[[4,1364],[-4,-84]],[[4,1364],[4,76]],[[6,1222],[2,-8]],[[9,1453],[-1,-13]],[[8,1214],[2,-6]],[[48,1140],[-38,68]],[[45,1571],[-27,-60]],[[52,1129],[-4,11]],[[52,1129],[22,-57]],[[74,1072],[8,-17]],[[82,1055],[-8,17]],[[9,1454],[0,-1]],[[9,1453],[0,1]],[[70,576],[-70,-57]],[[69,588],[2,-10]],[[70,576],[1,1]],[[71,578],[-1,-2]],[[671,804],[85,-50],[84,22],[182,-6]],[[1032,768],[1,0]],[[1040,767],[113,18],[96,131],[5,42],[87,52],[114,18]],[[1457,1029],[-2,-1]],[[1490,1053],[-33,-24]],[[388,2084],[2,-4]],[[390,2080],[-2,4]],[[160,1847],[-5,-1]],[[155,1846],[5,1]],[[398,2210],[1,-25]],[[399,2185],[0,24]],[[591,1885]],[[678,1744],[-36,48]],[[659,44],[26,-44]],[[314,1395],[4,-28]],[[329,1342],[0,-1]],[[329,1341],[9,-14]],[[236,2027],[-5,10]],[[141,1890],[10,3]],[[151,1893],[-10,-3]],[[240,1922],[-13,-2]],[[227,1920],[56,-19]],[[284,1902],[-44,20]],[[64,1622],[1,-8]],[[156,1696],[160,-100]],[[316,1596],[-159,100]],[[0,2094],[39,-24]],[[179,2042],[5,-11]],[[185,2031],[-6,11]],[[360,2444],[-16,-2]],[[2084,110],[-10,-11]],[[290,1504],[-1,0]],[[1490,1542],[185,167]],[[1990,2387],[0,2]],[[322,2184],[4,-1]],[[333,2194],[-2,3]],[[314,1557],[0,-50]],[[65,1614],[-20,-43]],[[64,1622],[10,13]],[[74,1635],[-1,11]],[[74,1641],[0,-6]],[[312,1407],[1,11]],[[65,1614],[19,14]],[[339,2199],[13,2]],[[352,2202],[-7,0]],[[4077,2276],[19,-19]],[[4096,2378],[0,-99],[-71,9],[-9,46],[74,41],[6,3]],[[3498,2756],[22,-16],[32,2],[37,13],[100,0],[-21,-17],[-12,-25],[-1,-29],[14,-34],[27,-22],[31,-4],[53,8],[38,-29],[25,-64],[-1,-63],[-42,-29],[-2,14],[-229,171],[-80,14],[-41,13],[-18,24],[-11,34],[-18,35],[2,19],[47,-16],[8,11],[32,30],[8,-40]],[[3006,3383],[45,-28],[26,15],[33,-13],[17,-35],[-17,-49],[69,-5],[56,-29],[28,-49],[-14,-63],[-62,77],[-33,18],[-44,-11],[-29,-30],[-8,-33],[11,-17],[26,16],[23,-73],[-1,-35],[-27,-23],[-93,-60],[-10,-9],[4,-14],[6,-108],[6,-30],[13,-40],[54,8],[35,-50],[21,-76],[29,-190],[-6,-41],[-57,-148],[-56,-50],[-69,-37],[-61,-14],[-69,27],[-23,66],[5,81],[16,73],[55,11],[-3,118],[-42,136],[-60,65],[-44,14],[-13,36],[8,107],[-13,32],[-63,98],[-24,26],[-47,15],[-28,-1],[-10,17],[23,199],[20,70],[32,30],[88,-53],[56,-9],[25,51],[22,26],[53,6],[121,-15]],[[3610,252],[-54,-1],[-65,37],[-108,94],[-191,126],[-117,107],[-34,16],[-48,30],[-56,68],[-47,77],[-18,53],[9,38],[22,24],[32,10],[37,-8],[18,-12],[12,-14],[22,-33],[376,-325],[131,-90],[67,-57],[31,-69],[-19,-71]],[[4096,616],[0,-616],[-323,0],[1,29],[-33,57],[-112,111],[55,17],[265,-73],[15,7],[5,39],[-11,52],[10,14],[41,8],[0,19],[-67,20],[-113,134],[-49,32],[-77,28],[-66,69],[-47,88],[-21,85],[30,-23],[7,-13],[5,-28],[18,0],[2,70],[33,42],[106,54],[37,-17],[9,50],[1,70],[11,43],[35,-9],[8,-59],[-7,-72],[-14,-47],[22,-28],[6,-35],[2,-39],[9,-42],[-3,-11],[5,-13],[18,-19],[14,-1],[12,13],[10,18],[4,13],[15,-33],[5,-36],[0,-76],[54,24],[47,39],[26,45]],[[4096,854],[0,-138],[-40,58],[-7,23],[11,36],[18,22],[18,-1]],[[0,4096],[1306,0],[15,-54],[66,-104],[87,-67],[72,-40],[38,-41],[18,-58],[60,-302],[21,-34],[36,-33],[94,-154],[19,-50],[12,-81],[33,-79],[45,-75],[51,-66],[-15,-9],[-29,-24],[-15,-8],[120,-144],[19,-32],[22,-26],[183,-144],[36,-41],[3,-32],[-55,-13],[-106,-4],[-63,-12],[-58,-23],[-45,-39],[-17,-47],[0,-133],[8,-52],[106,-363],[12,-108],[33,-117],[22,-49],[36,-47],[123,-119],[29,-52],[4,-42],[-13,-103],[12,-22],[55,-53],[13,-27],[-6,-48],[-14,-45],[-25,-37],[-35,-25],[0,-21],[39,-33],[102,-154],[197,-144],[203,-207],[55,-43],[442,-173],[192,-43],[-1008,0],[-18,29],[-45,47],[-24,1],[-110,39],[-45,22],[-18,-42],[-51,-32],[-10,-40],[-22,-16],[-30,-8],[-2162,0],[0,1666],[17,19],[79,56],[29,41],[12,56],[-13,70],[-62,104],[-25,63],[-21,123],[-16,35],[0,1863]],[[460,2588],[1,-52],[-66,-31],[33,-118],[74,22],[93,100],[59,-21],[13,-159],[-13,-42],[-32,0],[117,-162],[-17,-92],[30,-14],[28,-70],[-28,-97],[-33,0],[-45,-116],[-125,73],[-101,-18],[-85,-164],[-8,-180],[20,-79],[294,-327],[68,-141],[-5,-60],[-102,-60],[-38,34],[-169,18],[-28,51],[33,33],[-69,55],[-29,79],[63,13],[2,20],[-97,67],[-32,167],[-42,14],[-152,19],[37,-95],[140,-123],[17,-116],[-84,30],[-46,70],[-136,-153],[0,703],[96,75],[41,97],[-100,237],[-37,158],[0,82],[45,78],[-45,211],[72,51],[59,-89],[38,-11],[69,20],[99,82],[91,-2],[32,-67]],[[274,2227],[-105,-7],[-32,-167],[129,-33],[0,-34],[64,67],[98,0],[1,44],[-99,23],[-32,100],[-24,7]],[[0,558],[223,96],[243,-113],[193,-281],[-122,-206],[-78,-54],[-459,0],[0,558]],[[1342,437],[7,37],[29,2],[36,53],[57,-13],[48,62],[30,-15],[46,31],[48,-22],[23,32],[84,-19],[40,-59],[40,6],[26,-33],[-66,-73],[-15,-115],[-71,-65],[-111,-18],[-42,29],[-39,-16],[-22,32],[-26,-23],[14,34],[-22,14],[23,30],[-110,43],[-27,66]],[[737,2321],[26,150],[119,119],[-11,64],[33,51],[29,-7],[10,34],[123,4],[65,-132],[-89,-33],[93,-328],[-46,-68],[27,-192],[-85,-35],[-76,34],[11,17],[-18,-12],[-65,118],[65,74],[-10,-31],[90,-49],[-16,52],[-56,11],[25,63],[-39,2],[9,-37],[-81,26],[-10,-42],[-29,-4],[-51,68],[7,34],[-50,49]],[[475,3099],[92,84],[91,28],[18,-35],[-89,-134],[-98,10],[-14,47]],[[352,3665],[1,112],[72,-2],[-14,-66],[19,-12],[-22,-30],[-56,-2]]]}