{"objects":{"water":{"type":"GeometryCollection","geometries":[]},"buildings":{"type":"GeometryCollection","geometries":[]},"places":{"type":"GeometryCollection","geometries":[{"type":"Point","properties":{"name:pt":"Austr\u00e1lia Ocidental","name:ro":"Australia de Vest","name:nl":"West-Australi\u00eb","name:ja":"\u897f\u30aa\u30fc\u30b9\u30c8\u30e9\u30ea\u30a2","name:lt":"Vakar\u0173 Australija","name:he":"\u05d0\u05d5\u05e1\u05d8\u05e8\u05dc\u05d9\u05d4 \u05d4\u05de\u05e2\u05e8\u05d1\u05d9\u05ea","name:cs":"Z\u00e1padn\u00ed Austr\u00e1lie","kind":"region","name:lb":"Westaustralien","min_zoom":4.0,"name:la":"Australia Occidentalis","name:sk":"Z\u00e1padn\u00e1 Austr\u00e1lia","name:it":"Australia Occidentale","name:uk":"\u0417\u0430\u0445\u0456\u0434\u043d\u0430 \u0410\u0432\u0441\u0442\u0440\u0430\u043b\u0456\u044f","name:ru":"\u0417\u0430\u043f\u0430\u0434\u043d\u0430\u044f \u0410\u0432\u0441\u0442\u0440\u0430\u043b\u0438\u044f","name:vi":"T\u00e2y \u00dac","name:pl":"Australia Zachodnia","name:hu":"Nyugat-Ausztr\u00e1lia","id":304951005,"name:af":"Wes-Australi\u00eb","name:eo":"Okcidenta A\u016dstralio","name":"Western Australia","kind_detail":"state","name:de":"Westaustralien","source":"openstreetmap.org","name:fr":"Australie occidentale","name:et":"L\u00e4\u00e4ne-Austraalia","name:be":"\u0417\u0430\u0445\u043e\u0434\u043d\u044f\u044f \u0410\u045e\u0441\u0442\u0440\u0430\u043b\u0456\u044f","name:vo":"Ves\u00fcda-Laustral\u00e4n","name:zh":"\u897f\u6fb3\u5927\u5229\u4e9a\u5dde","name:es":"Australia Occidental"},"coordinates":[237,1833]}]},"transit":{"type":"GeometryCollection","geometries":[]},"pois":{"type":"GeometryCollection","geometries":[]},"boundaries":{"type":"GeometryCollection","geometries":[]},"roads":{"type":"GeometryCollection","geometries":[]},"earth":{"type":"GeometryCollection","geometries":[{"type":"Polygon","properties":{"sort_rank":10,"source":"naturalearthdata.com","kind":"earth","min_zoom":0.0,"id":1398},"arcs":[[0]]}]},"landuse":{"type":"GeometryCollection","geometries":[]}},"type":"Topology","transform":{"translate":[120.9375,-25.7998911821],"scale":[0.0003433228,0.0003107315]},"arcs":[[[0,0],[0,4096],[4096,0],[0,-4096],[-4096,0]]]}