{"objects":{"water":{"type":"GeometryCollection","geometries":[{"type":"MultiPolygon","properties":{"source":"naturalearthdata.com","kind":"ocean","area":1576712559132672,"sort_rank":200,"min_zoom":0.0,"id":1},"arcs":[[[5],[6]],[[7],[8]]]},{"type":"MultiLineString","properties":{"source":"naturalearthdata.com","kind":"ocean","sort_rank":205,"boundary":true,"min_zoom":0.0,"id":58},"arcs":[[9],[10]]},{"type":"LineString","properties":{"source":"naturalearthdata.com","kind":"ocean","sort_rank":205,"boundary":true,"min_zoom":0.0,"id":128},"arcs":[11]},{"type":"MultiLineString","properties":{"source":"naturalearthdata.com","kind":"ocean","sort_rank":205,"boundary":true,"min_zoom":0.0,"id":129},"arcs":[[12],[13]]}]},"buildings":{"type":"GeometryCollection","geometries":[]},"places":{"type":"GeometryCollection","geometries":[{"type":"Point","properties":{"name:ja":"\u5927\u9023\u5e02","old_name:zh":"\u65c5\u5927","min_zoom":8.0,"old_name:en":"Port Arthur","old_name":"Port Arthur; \u65c5\u5927; \u0414\u0430\u043b\u044c\u043d\u0438\u0439; L\u00fcda","name:ru":"\u0414\u0430\u043b\u044f\u043d\u044c","id":2280261249,"population":4088000,"kind":"locality","name:en":"Dalian","name":"\u5927\u8fde\u5e02","kind_detail":"city","old_name:ru":"\u0414\u0430\u043b\u044c\u043d\u0438\u0439","name:de":"Dalian","source":"openstreetmap.org","name:fr":"Dalian","name:zh":"D\u00e0li\u00e1n sh\u00ec"},"coordinates":[2043,370]}]},"transit":{"type":"GeometryCollection","geometries":[{"type":"LineString","properties":{"kind":"subway","name:en":"Dalian Metro Line 2","name":"\u5927\u8fde\u5feb\u8f682\u53f7\u7ebf","roundtrip":"no","source":"openstreetmap.org","min_zoom":8.0,"operator":"Dalian Public Transportation Group Co.,Ltd.","ref":"2","id":-5491623,"osm_relation":true,"sort_rank":275},"arcs":[2]},{"type":"LineString","properties":{"kind":"subway","name:en":"Dalian Metro Line 1","name":"\u5927\u8fde\u5feb\u8f681\u53f7\u7ebf","roundtrip":"no","source":"openstreetmap.org","min_zoom":8.0,"operator":"Dalian Public Transportation Group Co.,Ltd.","ref":"1","id":-6185548,"osm_relation":true,"sort_rank":275},"arcs":[3]},{"type":"LineString","properties":{"kind":"train","name:en":"Harbin\u2013Dalian High-Speed Railway","name":"\u54c8\u5927\u9ad8\u901f\u94c1\u8def","sort_rank":275,"source":"openstreetmap.org","min_zoom":6.0,"name:ru":"\u0412\u044b\u0441\u043e\u043a\u043e\u0441\u043a\u043e\u0440\u043e\u0441\u0442\u043d\u0430\u044f \u0436\u0435\u043b\u0435\u0437\u043d\u0430\u044f \u0434\u043e\u0440\u043e\u0433\u0430 \u0425\u0430\u0440\u0431\u0438\u043d-\u0414\u0430\u043b\u044f\u043d\u044c","osm_relation":true},"arcs":[4]}]},"pois":{"type":"GeometryCollection","geometries":[]},"boundaries":{"type":"GeometryCollection","geometries":[{"type":"LineString","properties":{"name:kg":"Sina","name:ty":"Tinit\u014d","name:ka":"\u10e9\u10d8\u10dc\u10d4\u10d7\u10d8","name:ko":"\uc911\ud654\uc778\ubbfc\uacf5\ud654\uad6d","name:cv":"\u041a\u0438\u0442\u0430\u0439 \u0425\u0430\u043b\u0103\u0445 \u0420\u0435\u0441\u043f\u0443\u0431\u043b\u0438\u043a\u0438","name:cu":"\u0421\u0440\u0463\u0434\u0438\u043d\ua657\u043d\u0454","name:kl":"Kina","name:cs":"\u010c\u00ednsk\u00e1 lidov\u00e1 republika","name:ki":"China","name:kw":"Repoblek Werin China","name:kv":"\u041a\u0438\u0442\u0430\u0439","name:ku":"\u00c7\u00een","name:ks":"\u0686\u06cc\u0656\u0646","name:tl":"Republikang Popular ng Tsina","name:ce":"\u041a\u0438\u0442\u0430\u0439\u043d \u0425\u0430\u043b\u043a\u044a\u0430\u043d \u0420\u0435\u0441\u043f\u0443\u0431\u043b\u0438\u043a\u0430","name:ta":"\u0b9a\u0bc0\u0ba9 \u0bae\u0b95\u0bcd\u0b95\u0bb3\u0bcd \u0b95\u0bc1\u0b9f\u0bbf\u0baf\u0bb0\u0b9a\u0bc1","name:tg":"\u04b6\u0443\u043c\u04b3\u0443\u0440\u0438\u0438 \u0425\u0430\u043b\u049b\u0438\u0438 \u0427\u0438\u043d","name:ky":"\u041a\u044b\u0442\u0430\u0439","name:te":"\u0c1a\u0c48\u0c28\u0c3e","name:cy":"Gweriniaeth Pobl Tsieina","name:hr":"Kina","name:de":"China","source":"openstreetmap.org","name:kn":"\u0c9a\u0cc0\u0ca8\u0cbf \u0c9c\u0ca8\u0cb0 \u0c97\u0ca3\u0cb0\u0cbe\u0c9c\u0ccd\u0caf","name:dv":"\u0790\u07a9\u0782\u07aa\u0786\u07a6\u0783\u07a6","name:lv":"\u0136\u012bna","name:lt":"Kinijos Liaudies Respublika","name:uz":"Xitoy Xalq Respublikasi","name:kk":"\u049a\u044b\u0442\u0430\u0439 \u0425\u0430\u043b\u044b\u049b \u0420\u0435\u0441\u043f\u0443\u0431\u043b\u0438\u043a\u0430\u0441\u044b","name:ur":"\u0686\u06cc\u0646","name:lb":"Volleksrepublik China","name:tt":"\u041a\u044b\u0442\u0430\u0439","name:uk":"\u041a\u0438\u0442\u0430\u0439\u0441\u044c\u043a\u0430 \u041d\u0430\u0440\u043e\u0434\u043d\u0430 \u0420\u0435\u0441\u043f\u0443\u0431\u043b\u0456\u043a\u0430","name:ug":"\u062c\u06c7\u06ad\u062e\u06c7\u0627 \u062e\u06d5\u0644\u0642 \u062c\u06c7\u0645\u06be\u06c7\u0631\u0649\u064a\u0649\u062a\u0649","name:ln":"S\u00edna","name:lo":"\u0e9b\u0eb0\u0ec0\u0e97\u0e94\u0e88\u0eb5\u0e99","name:el":"\u039b\u03b1\u03ca\u03ba\u03ae \u0394\u03b7\u03bc\u03bf\u03ba\u03c1\u03b1\u03c4\u03af\u03b1 \u03c4\u03b7\u03c2 \u039a\u03af\u03bd\u03b1\u03c2","name:eo":"\u0108inujo","name:en":"China","name":"\u4e2d\u56fd","name:tk":"Hyta\u00fd Halk Respublikasy","name:ee":"China","name:th":"\u0e1b\u0e23\u0e30\u0e40\u0e17\u0e28\u0e08\u0e35\u0e19","name:eu":"Txinako Herri Errepublika","name:et":"Hiina","name:es":"Rep\u00fablica Popular China","name:ia":"China","name:ro":"Republica Popular\u0103 Chinez\u0103","name:ie":"China","name:id":"Republik Rakyat Cina","name:zh-min-nan":"Tiong-ho\u00e2 J\u00een-b\u00een Ki\u014dng-h\u00f4-kok","name:io":"Chinia","name:is":"Al\u00fe\u00fd\u00f0ul\u00fd\u00f0veldi\u00f0 K\u00edna","name:am":"\u12e8\u127b\u12ed\u1293 \u1215\u12dd\u1263\u12ca \u122a\u1350\u1265\u120a\u12ad","name:it":"Cina","name:ru":"\u041a\u0438\u0442\u0430\u0439\u0441\u043a\u0430\u044f \u041d\u0430\u0440\u043e\u0434\u043d\u0430\u044f \u0420\u0435\u0441\u043f\u0443\u0431\u043b\u0438\u043a\u0430","name:ab":"\u0410\u0447\u044b\u043d\u04ad\u0430\u0442\u04d9\u0438 \u0410\u0436\u04d9\u043b\u0430\u0440\u0442\u04d9 \u0420\u0435\u0441\u043f\u0443\u0431\u043b\u0438\u043a\u0430","alt_name:ru":"\u041a\u0438\u0442\u0430\u0439","kind_detail":"2","name:zh":"Zh\u014dnggu\u00f3","name:so":"Shiinaha","name:sn":"China","name:sm":"Saina","name:sk":"\u010c\u00ednska \u013eudov\u00e1 republika","name:si":"\u0da0\u0dd3\u0db1\u0dba","name:sg":"S\u00een\u00e4","name:se":"Kiinn\u00e1","name:sc":"Cina","name:bm":"China","name:bn":"\u0997\u09a3\u099a\u09c0\u09a8","name:bo":"\u0f40\u0fb2\u0f74\u0f44\u0f0b\u0f67\u0fad\u0f0b\u0f58\u0f72\u0f0b\u0f51\u0f58\u0f44\u0f66\u0f0b\u0f66\u0fa4\u0fb1\u0f72\u0f0b\u0f58\u0f50\u0f74\u0f53\u0f0b\u0f62\u0f92\u0fb1\u0f63\u0f0b\u0f41\u0f56\u0f0d","name:bi":"China","name:sw":"Jamhuri ya Watu wa China","name:be":"\u041a\u0456\u0442\u0430\u0439","name:st":"Tjhaena","name:ss":"IShayina","name:sr":"\u041a\u0438\u043d\u0430","name:sq":"Kina","name:pt":"Rep\u00fablica Popular da China","name:ps":"\u0686\u064a\u0646 \u062f \u062e\u0644\u06a9\u0648 \u062c\u0645\u0647\u0648\u0631\u064a\u062a","min_zoom":8.0,"int_name":"People's Republic of China","name:pa":"\u0a1a\u0a40\u0a28 \u0a26\u0a3e \u0a32\u0a4b\u0a15 \u0a30\u0a3e\u0a1c\u0a40 \u0a17\u0a23\u0a24\u0a70\u0a24\u0a30","name:os":"\u041a\u0438\u0442\u0430\u0439","name:or":"\u0b1a\u0b40\u0b28","name:pl":"Chiny","sort_rank":262,"name:ba":"\u04a0\u044b\u0442\u0430\u0439","osm_relation":true,"name:ar":"\u0627\u0644\u0635\u064a\u0646","name:tr":"\u00c7in Halk Cumhuriyeti","name:hi":"\u091a\u0940\u0928\u0940 \u091c\u0928\u0935\u093e\u0926\u0940 \u0917\u0923\u0930\u093e\u091c\u094d\u092f","name:he":"\u05d4\u05e8\u05e4\u05d5\u05d1\u05dc\u05d9\u05e7\u05d4 \u05d4\u05e2\u05de\u05de\u05d9\u05ea \u05e9\u05dc \u05e1\u05d9\u05df","name:ha":"Sin","old_name:eo":"\u0124inujo","name:hy":"\u0549\u056b\u0576\u0561\u057d\u057f\u0561\u0576\u056b \u053a\u0578\u0572\u0578\u057e\u0580\u0564\u0561\u056f\u0561\u0576 \u0540\u0561\u0576\u0580\u0561\u057a\u0565\u057f\u0578\u0582\u0569\u0575\u0578\u0582\u0576","name:hu":"K\u00ednai N\u00e9pk\u00f6zt\u00e1rsas\u00e1g","name:qu":"Chunwa Runallaqta Republika","kind":"country","name:ts":"China","name:yi":"\u05db\u05d9\u05e0\u05e2","name:iu":"China","name:mt":"\u010aina","alt_name:eo":"\u0108inio","name:mr":"\u091a\u0940\u0928","name:my":"\u1010\u101b\u102f\u1010\u103a\u1015\u103c\u100a\u103a\u101e\u1030\u1037\u101e\u1019\u1039\u1019\u1010\u1014\u102d\u102f\u1004\u103a\u1004\u1036","official_name":"\u4e2d\u534e\u4eba\u6c11\u5171\u548c\u56fd","name:vi":"C\u1ed9ng h\u00f2a Nh\u00e2n d\u00e2n Trung Hoa","name:ml":"\u0d1a\u0d48\u0d28","name:mn":"\u0411\u04af\u0433\u0434 \u041d\u0430\u0439\u0440\u0430\u043c\u0434\u0430\u0445 \u0425\u044f\u0442\u0430\u0434 \u0410\u0440\u0434 \u0423\u043b\u0441","name:mi":"Haina","id":-270056,"name:mk":"\u041d\u0430\u0440\u043e\u0434\u043d\u0430 \u0420\u0435\u043f\u0443\u0431\u043b\u0438\u043a\u0430 \u041a\u0438\u043d\u0430","name:vo":"Tsyin\u00e4n","name:fa":"\u062c\u0645\u0647\u0648\u0631\u06cc \u062e\u0644\u0642 \u0686\u06cc\u0646","name:rw":"Ubushinwa","name:fi":"Kiina","name:fo":"F\u00f3lkal\u00fd\u00f0veldi\u00f0 Kina","name:fr":"R\u00e9publique populaire de Chine","name:fy":"Sina","name:zu":"IShayina","name:na":"Tsiene","name:ne":"\u091c\u0928\u092c\u093e\u0926\u0940 \u0917\u0923\u0924\u0928\u094d\u0924\u094d\u0930 \u091a\u0940\u0928","name:wo":"R\u00e9ewum Popileer bu Siin","name:ga":"Daon-Phoblacht na S\u00edne","name:gd":"Sluagh-Phoblachd na S\u00ecne","name:gn":"China Tekoha Tet\u00e3","maritime_boundary":true,"name:gv":"Deynphobblaght ny Sheen","name:gu":"\u0a9a\u0ac0\u0aa8"},"arcs":[0]},{"type":"LineString","properties":{"int_name":"Liaoning","name:ja":"\u907c\u5be7\u7701","name:ko":"\ub7b4\uc624\ub2dd \uc131","min_zoom":8.0,"name:vi":"Li\u00eau Ninh","name:ru":"\u041b\u044f\u043e\u043d\u0438\u043d","name:de":"Liaoning","name:zh_PY":"Li\u00e1on\u00edng","osm_relation":true,"kind":"region","name:en":"Liaoning","name":"\u8fbd\u5b81\u7701","sort_rank":256,"kind_detail":"4","name:fr":"Liaoning","id":-912942,"source":"openstreetmap.org","maritime_boundary":true},"arcs":[1]}]},"roads":{"type":"GeometryCollection","geometries":[{"type":"LineString","properties":{"bus_network":null,"name:en":"Renmin Road","sort_rank":380,"kind_detail":"primary","kind":"major_road","source":"openstreetmap.org","min_zoom":8.0,"bus_shield_text":"15","name:ru":"\u041d\u0430\u0440\u043e\u0434\u043d\u0430\u044f \u0443\u043b\u0438\u0446\u0430","landuse_kind":"urban_area"},"arcs":[14]},{"type":"LineString","properties":{"bus_network":null,"name:en":"Zhongshan Road","sort_rank":380,"kind_detail":"primary","kind":"major_road","source":"openstreetmap.org","min_zoom":8.0,"bus_shield_text":"16","name:ru":"\u0443\u043b\u0438\u0446\u0430 \u0421\u0443\u043d\u044f \u042f\u0442\u0441\u0435\u043d\u0430","landuse_kind":"urban_area","name:zh":"zh\u014dngsh\u0101n l\u00f9"},"arcs":[15]},{"type":"LineString","properties":{"bus_network":null,"sort_rank":381,"landuse_kind":"urban_area","kind":"major_road","source":"openstreetmap.org","min_zoom":8.0,"bus_shield_text":"29","name:ru":"\u0421\u0435\u0432\u0435\u0440\u043e-\u0417\u0430\u043f\u0430\u0434\u043d\u043e\u0435 \u0448\u043e\u0441\u0441\u0435","kind_detail":"trunk"},"arcs":[16]},{"type":"MultiLineString","properties":{"kind":"highway","network":"CN-expressways","sort_rank":383,"landuse_kind":"urban_area","source":"openstreetmap.org","min_zoom":8.0,"all_networks":["CN-expressways"],"kind_detail":"motorway","shield_text":"15","ref":"G15","all_shield_texts":["15"]},"arcs":[[17],[18],[19],[20],[21],[22],[23],[24],[25],[26],[27],[28],[29],[30],[31],[32],[33],[34],[35],[36],[37],[38],[39],[40],[41],[42],[43],[44],[45],[46]]},{"type":"LineString","properties":{"source":"openstreetmap.org","kind":"major_road","name:en":"Gangpu Road","sort_rank":380,"kind_detail":"primary","min_zoom":8.0,"id":314354002},"arcs":[47]},{"type":"LineString","properties":{"source":"openstreetmap.org","kind":"major_road","sort_rank":380,"kind_detail":"primary","ref":"\u9a6c\u5317\u7ebf","min_zoom":8.0,"id":232352930},"arcs":[48]},{"type":"MultiLineString","properties":{"kind":"highway","network":"CN-expressways","sort_rank":383,"kind_detail":"motorway","source":"openstreetmap.org","min_zoom":8.0,"all_networks":["CN-expressways","AsianHighway"],"shield_text":"15","all_shield_texts":["15","31"]},"arcs":[[49],[50],[51],[52],[53],[54],[55],[56],[57],[58],[59],[60],[61],[62],[63],[64],[65],[66],[67],[68],[69],[70],[71],[72],[73],[74],[75],[76],[77]]},{"type":"LineString","properties":{"source":"openstreetmap.org","kind":"major_road","kind_detail":"trunk","sort_rank":381,"name:ru":"\u0421\u0435\u0432\u0435\u0440\u043e-\u0417\u0430\u043f\u0430\u0434\u043d\u043e\u0435 \u0448\u043e\u0441\u0441\u0435","min_zoom":8.0,"id":38813575},"arcs":[78]},{"type":"MultiLineString","properties":{"source":"openstreetmap.org","bus_network":null,"bus_shield_text":"517","sort_rank":381,"kind_detail":"trunk","min_zoom":8.0,"kind":"major_road"},"arcs":[[79],[80]]},{"type":"LineString","properties":{"kind":"major_road","name:en":"Gangwan Square","sort_rank":380,"kind_detail":"primary","bus_network":null,"source":"openstreetmap.org","min_zoom":8.0,"bus_shield_text":"16","name:ru":"\u041f\u043e\u0440\u0442\u043e\u0432\u0430\u044f \u043f\u043b\u043e\u0449\u0430\u0434\u044c","id":48304093},"arcs":[81]},{"type":"MultiLineString","properties":{"kind":"highway","name:en":"Shenda Expressway","network":"CN-expressways","sort_rank":383,"landuse_kind":"urban_area","source":"openstreetmap.org","min_zoom":8.0,"all_networks":["CN-expressways","AsianHighway"],"kind_detail":"motorway","shield_text":"15","ref":"G15","all_shield_texts":["15","31"]},"arcs":[[82],[83],[84],[85]]},{"type":"MultiLineString","properties":{"kind":"highway","network":"CN-expressways","sort_rank":383,"landuse_kind":"urban_area","source":"openstreetmap.org","min_zoom":8.0,"all_networks":["CN-expressways","AsianHighway"],"kind_detail":"motorway","shield_text":"15","ref":"G15","all_shield_texts":["15","31"]},"arcs":[[86],[87]]},{"type":"MultiLineString","properties":{"source":"openstreetmap.org","kind":"major_road","name:en":"Wuyi Rd","landuse_kind":"urban_area","sort_rank":380,"kind_detail":"primary","min_zoom":8.0},"arcs":[[88],[89]]},{"type":"MultiLineString","properties":{"source":"openstreetmap.org","kind":"major_road","kind_detail":"trunk","sort_rank":381,"landuse_kind":"urban_area","min_zoom":8.0,"name:ru":"\u0421\u0435\u0432\u0435\u0440\u043e-\u0417\u0430\u043f\u0430\u0434\u043d\u043e\u0435 \u0448\u043e\u0441\u0441\u0435"},"arcs":[[90],[91],[92],[93]]},{"type":"MultiLineString","properties":{"sort_rank":381,"source":"openstreetmap.org","min_zoom":8.0,"kind":"major_road","kind_detail":"trunk"},"arcs":[[94],[95],[96],[97],[98],[99]]},{"type":"LineString","properties":{"kind":"major_road","name:en":"Renmin Road","sort_rank":380,"kind_detail":"primary","bus_network":null,"source":"openstreetmap.org","min_zoom":8.0,"bus_shield_text":"16","name:ru":"\u041d\u0430\u0440\u043e\u0434\u043d\u0430\u044f \u0443\u043b\u0438\u0446\u0430","landuse_kind":"urban_area","id":233252086},"arcs":[100]},{"type":"LineString","properties":{"kind":"major_road","sort_rank":381,"landuse_kind":"urban_area","source":"openstreetmap.org","min_zoom":8.0,"kind_detail":"trunk","ref":"G15","id":478738009},"arcs":[101]},{"type":"LineString","properties":{"source":"openstreetmap.org","kind":"major_road","kind_detail":"trunk","sort_rank":381,"landuse_kind":"urban_area","min_zoom":8.0,"name:ru":"\u0421\u0435\u0432\u0435\u0440\u043d\u0430\u044f \u0443\u043b\u0438\u0446\u0430"},"arcs":[102]},{"type":"LineString","properties":{"bus_network":null,"name:en":"Youhao Square roundabout","sort_rank":380,"kind_detail":"primary","kind":"major_road","source":"openstreetmap.org","min_zoom":8.0,"bus_shield_text":"702","name:ru":"\u043f\u043b\u043e\u0449\u0430\u0434\u044c \u0414\u0440\u0443\u0436\u0431\u044b","landuse_kind":"urban_area","name:zh":"\u53cb\u597d\u5e7f\u573a"},"arcs":[103]},{"type":"LineString","properties":{"kind":"major_road","sort_rank":380,"landuse_kind":"urban_area","source":"openstreetmap.org","min_zoom":8.0,"kind_detail":"primary","ref":"G201","id":326889005},"arcs":[104]},{"type":"MultiLineString","properties":{"kind":"major_road","name:en":"Huangpu Road;Lvshun South Road","sort_rank":380,"landuse_kind":"urban_area","source":"openstreetmap.org","min_zoom":8.0,"kind_detail":"primary","name:ru":"\u0443\u043b\u0438\u0446\u0430 \u0425\u0443\u0430\u043d\u043f\u0443;\u0414\u043e\u0440\u043e\u0433\u0430 \u0414\u0430\u043b\u044c\u043d\u0438\u0439\u2014\u041f\u043e\u0440\u0442 \u0410\u0440\u0442\u0443\u0440","name:zh":"\u9ec4\u6d66\u8def;\u65c5\u987a\u5357\u8def"},"arcs":[[105],[106]]},{"type":"MultiLineString","properties":{"source":"openstreetmap.org","kind":"major_road","landuse_kind":"urban_area","sort_rank":380,"kind_detail":"primary","ref":"\u5f20\u524d\u7ebf","min_zoom":8.0},"arcs":[[107],[108],[109]]},{"type":"MultiLineString","properties":{"source":"openstreetmap.org","kind":"major_road","sort_rank":380,"kind_detail":"primary","ref":"S313","min_zoom":8.0},"arcs":[[110],[111],[112],[113]]},{"type":"MultiLineString","properties":{"source":"openstreetmap.org","kind":"major_road","landuse_kind":"urban_area","sort_rank":380,"kind_detail":"primary","ref":"\u9a6c\u5317\u7ebf","min_zoom":8.0},"arcs":[[114],[115]]},{"type":"MultiLineString","properties":{"source":"openstreetmap.org","kind":"major_road","network":"CN-roads","sort_rank":381,"kind_detail":"trunk","min_zoom":8.0,"shield_text":"202"},"arcs":[[116],[117],[118]]},{"type":"LineString","properties":{"source":"openstreetmap.org","kind":"major_road","landuse_kind":"urban_area","sort_rank":380,"kind_detail":"primary","ref":"\u9526\u53cc\u7ebf","min_zoom":8.0},"arcs":[119]},{"type":"MultiLineString","properties":{"source":"openstreetmap.org","kind":"major_road","landuse_kind":"urban_area","sort_rank":380,"kind_detail":"primary","ref":"S327","min_zoom":8.0},"arcs":[[120],[121],[122],[123],[124],[125],[126],[127],[128],[129],[130],[131],[132],[133],[134],[135],[136],[137],[138],[139],[140],[141],[142],[143],[144],[145],[146],[147],[148],[149],[150]]},{"type":"LineString","properties":{"kind":"major_road","name:en":"Renmin Road","sort_rank":380,"kind_detail":"primary","source":"openstreetmap.org","min_zoom":8.0,"name:ru":"\u041d\u0430\u0440\u043e\u0434\u043d\u0430\u044f \u0443\u043b\u0438\u0446\u0430","id":314354004},"arcs":[151]},{"type":"MultiLineString","properties":{"source":"openstreetmap.org","kind":"highway","sort_rank":383,"kind_detail":"motorway","ref":"S12","min_zoom":8.0},"arcs":[[152],[153],[154],[155],[156],[157],[158],[159],[160],[161],[162],[163],[164],[165]]},{"type":"LineString","properties":{"kind":"major_road","name:en":"Zhongshang Square","sort_rank":380,"kind_detail":"primary","old_name:ru":"\u041d\u0438\u043a\u043e\u043b\u0430\u0435\u0432\u0441\u043a\u0430\u044f \u043f\u043b\u043e\u0449\u0430\u0434\u044c","bus_network":null,"source":"openstreetmap.org","min_zoom":8.0,"old_name":"\u041d\u0438\u043a\u043e\u043b\u0430\u0435\u0432\u0441\u043a\u0430\u044f \u043f\u043b\u043e\u0449\u0430\u0434\u044c","name:ru":"\u043f\u043b\u043e\u0449\u0430\u0434\u044c \u0421\u0443\u043d\u044f \u042f\u0442\u0441\u0435\u043d\u0430","landuse_kind":"urban_area","bus_shield_text":"23","id":38822849},"arcs":[166]},{"type":"MultiLineString","properties":{"kind":"major_road","name:en":"Huangpu Road;Lvshun South Road","sort_rank":381,"landuse_kind":"urban_area","source":"openstreetmap.org","min_zoom":8.0,"kind_detail":"trunk","name:ru":"\u0443\u043b\u0438\u0446\u0430 \u0425\u0443\u0430\u043d\u043f\u0443;\u0414\u043e\u0440\u043e\u0433\u0430 \u0414\u0430\u043b\u044c\u043d\u0438\u0439\u2014\u041f\u043e\u0440\u0442 \u0410\u0440\u0442\u0443\u0440","name:zh":"\u9ec4\u6d66\u8def;\u65c5\u987a\u5357\u8def","ref":"G201, \u9e64\u5927\u7ebf"},"arcs":[[167],[168]]},{"type":"LineString","properties":{"kind":"major_road","sort_rank":380,"kind_detail":"primary","bus_network":null,"source":"openstreetmap.org","min_zoom":8.0,"bus_shield_text":"705","name:ru":"\u041f\u043e\u0440\u0442-\u0410\u0440\u0442\u0443\u0440\u0441\u043a\u0430\u044f \u0434\u043e\u0440\u043e\u0433\u0430","landuse_kind":"urban_area","id":217840878},"arcs":[169]},{"type":"LineString","properties":{"kind":"major_road","sort_rank":380,"kind_detail":"primary","bus_network":null,"source":"openstreetmap.org","min_zoom":8.0,"bus_shield_text":"15","landuse_kind":"urban_area","id":237584094},"arcs":[170]},{"type":"LineString","properties":{"bus_network":null,"sort_rank":380,"kind_detail":"primary","kind":"major_road","source":"openstreetmap.org","min_zoom":8.0,"bus_shield_text":"16","name:ru":"\u0443\u043b\u0438\u0446\u0430 \u0421\u0443\u043d\u044f \u042f\u0442\u0441\u0435\u043d\u0430","landuse_kind":"urban_area"},"arcs":[171]},{"type":"MultiLineString","properties":{"source":"openstreetmap.org","kind":"major_road","landuse_kind":"urban_area","sort_rank":380,"kind_detail":"primary","min_zoom":8.0},"arcs":[[172],[173],[174],[175],[176],[177],[178],[179],[180],[181],[182],[183],[184],[185],[186],[187],[188],[189],[190],[191],[192],[193],[194],[195],[196],[197],[198],[199],[200],[201],[202],[203],[204],[205],[206],[207],[208],[209],[210],[211],[212],[213],[214],[215],[216],[217],[218],[219],[220],[221],[222],[223],[224],[225],[226],[227],[228],[229],[230]]},{"type":"LineString","properties":{"kind":"major_road","name:en":"Lvshun South Road","sort_rank":381,"landuse_kind":"urban_area","source":"openstreetmap.org","min_zoom":8.0,"kind_detail":"trunk","name:ru":"\u0414\u043e\u0440\u043e\u0433\u0430 \u0414\u0430\u043b\u044c\u043d\u0438\u0439\u2014\u041f\u043e\u0440\u0442 \u0410\u0440\u0442\u0443\u0440","name:zh":"l\u01dash\u00f9n n\u00e1nl\u00f9"},"arcs":[231]},{"type":"MultiLineString","properties":{"sort_rank":355,"source":"openstreetmap.org","min_zoom":8.0,"kind":"ferry"},"arcs":[[232],[233],[234],[235],[236]]},{"type":"MultiLineString","properties":{"source":"openstreetmap.org","kind":"major_road","sort_rank":381,"kind_detail":"trunk","ref":"G202","min_zoom":8.0},"arcs":[[237],[238],[239]]},{"type":"MultiLineString","properties":{"source":"openstreetmap.org","kind":"highway","landuse_kind":"urban_area","sort_rank":383,"kind_detail":"motorway","min_zoom":8.0},"arcs":[[240],[241],[242],[243],[244],[245],[246],[247],[248],[249],[250],[251],[252],[253],[254],[255]]},{"type":"MultiLineString","properties":{"kind":"highway","network":"CN-expressways","sort_rank":383,"kind_detail":"motorway","source":"openstreetmap.org","min_zoom":8.0,"all_networks":["CN-expressways"],"shield_text":"15","all_shield_texts":["15"]},"arcs":[[256],[257],[258],[259],[260],[261],[262],[263]]},{"type":"LineString","properties":{"kind":"major_road","name:en":"Renmin Road","sort_rank":380,"kind_detail":"primary","bus_network":null,"source":"openstreetmap.org","min_zoom":8.0,"bus_shield_text":"16","name:ru":"\u041d\u0430\u0440\u043e\u0434\u043d\u0430\u044f \u0443\u043b\u0438\u0446\u0430","id":233252086},"arcs":[264]},{"type":"MultiLineString","properties":{"kind":"major_road","network":"CN-roads","sort_rank":381,"landuse_kind":"urban_area","source":"openstreetmap.org","min_zoom":8.0,"kind_detail":"trunk","shield_text":"202","ref":"G202"},"arcs":[[265],[266],[267],[268]]},{"type":"MultiLineString","properties":{"bus_network":null,"sort_rank":380,"kind_detail":"primary","kind":"major_road","source":"openstreetmap.org","min_zoom":8.0,"bus_shield_text":"705","name:ru":"\u0423\u043b\u0438\u0446\u0430 \u0416\u0451\u043b\u0442\u043e\u0439 \u0440\u0435\u043a\u0438","landuse_kind":"urban_area"},"arcs":[[269],[270],[271]]},{"type":"MultiLineString","properties":{"kind":"major_road","name:en":"Yingke Road","sort_rank":381,"landuse_kind":"urban_area","source":"openstreetmap.org","min_zoom":8.0,"kind_detail":"trunk","name:ru":"\u0428\u043e\u0441\u0441\u0435 \u041f\u0440\u0438\u0432\u0435\u0442\u0441\u0442\u0432\u0438\u044f"},"arcs":[[272],[273]]},{"type":"MultiLineString","properties":{"kind":"major_road","name:en":"Lvshun Middle Road","ref":"\u9a6c\u5317\u7ebf","sort_rank":380,"kind_detail":"primary","source":"openstreetmap.org","min_zoom":8.0,"landuse_kind":"urban_area","name:ru":"\u041f\u043e\u0440\u0442-\u0410\u0440\u0442\u0443\u0440\u0441\u043a\u0430\u044f \u0434\u043e\u0440\u043e\u0433\u0430","name:zh":"l\u01dash\u00f9n zh\u014dngl\u00f9"},"arcs":[[274],[275],[276],[277]]},{"type":"MultiLineString","properties":{"kind":"major_road","name:en":"White Cloud Tunnel","sort_rank":380,"landuse_kind":"urban_area","source":"openstreetmap.org","min_zoom":8.0,"kind_detail":"primary","name:ru":"\u0421\u0435\u0432\u0435\u0440\u043d\u0430\u044f \u0443\u043b\u0438\u0446\u0430"},"arcs":[[278],[279]]},{"type":"LineString","properties":{"source":"openstreetmap.org","kind":"ferry","sort_rank":355,"min_zoom":8.0,"osm_relation":true,"id":-3826794},"arcs":[280]},{"type":"MultiLineString","properties":{"bus_network":null,"name:en":"Zhongshan Lu","sort_rank":380,"kind_detail":"primary","kind":"major_road","source":"openstreetmap.org","min_zoom":8.0,"bus_shield_text":"15","name:ru":"\u0443\u043b\u0438\u0446\u0430 \u0421\u0443\u043d\u044f \u042f\u0442\u0441\u0435\u043d\u0430","landuse_kind":"urban_area"},"arcs":[[281],[282],[283],[284]]},{"type":"MultiLineString","properties":{"kind":"major_road","name:en":"Lvshun Middle Road","sort_rank":380,"kind_detail":"primary","source":"openstreetmap.org","min_zoom":8.0,"name:ru":"\u041f\u043e\u0440\u0442-\u0410\u0440\u0442\u0443\u0440\u0441\u043a\u0430\u044f \u0434\u043e\u0440\u043e\u0433\u0430","name:zh":"l\u01dash\u00f9n zh\u014dngl\u00f9"},"arcs":[[285],[286]]},{"type":"MultiLineString","properties":{"sort_rank":380,"kind_detail":"primary","min_zoom":8.0,"kind":"major_road","source":"openstreetmap.org"},"arcs":[[287],[288],[289],[290],[291],[292],[293],[294],[295],[296],[297],[298],[299],[300],[301],[302],[303],[304],[305],[306],[307],[308],[309],[310]]},{"type":"MultiLineString","properties":{"kind":"major_road","name:en":"Xincheng Main Steet","sort_rank":380,"kind_detail":"primary","source":"openstreetmap.org","min_zoom":8.0,"name:zh":"x\u012bnch\u00e9ng d\u00e0ji\u0113","ref":"\u90ed\u6c34\u8def"},"arcs":[[311],[312],[313],[314]]},{"type":"MultiLineString","properties":{"bus_network":null,"name:en":"Youhao Square roundabout","sort_rank":380,"kind_detail":"primary","kind":"major_road","source":"openstreetmap.org","min_zoom":8.0,"bus_shield_text":"15","name:ru":"\u043f\u043b\u043e\u0449\u0430\u0434\u044c \u0414\u0440\u0443\u0436\u0431\u044b","landuse_kind":"urban_area","name:zh":"\u53cb\u597d\u5e7f\u573a"},"arcs":[[315],[316]]},{"type":"LineString","properties":{"kind":"major_road","name:en":"Jiusan Road","ref":"G202","sort_rank":381,"kind_detail":"trunk","source":"openstreetmap.org","min_zoom":8.0,"landuse_kind":"urban_area","name:zh":"Ji\u01d4s\u0101n l\u00f9","id":174884616},"arcs":[317]},{"type":"MultiLineString","properties":{"source":"openstreetmap.org","kind":"major_road","sort_rank":380,"kind_detail":"primary","ref":"S317","min_zoom":8.0},"arcs":[[318],[319]]},{"type":"MultiLineString","properties":{"kind":"major_road","name:en":"Lvshun Middle Road","sort_rank":380,"kind_detail":"primary","source":"openstreetmap.org","min_zoom":8.0,"name:ru":"\u041f\u043e\u0440\u0442-\u0410\u0440\u0442\u0443\u0440\u0441\u043a\u0430\u044f \u0434\u043e\u0440\u043e\u0433\u0430","name:zh":"l\u01dash\u00f9n zh\u014dngl\u00f9","ref":"\u9a6c\u5317\u7ebf"},"arcs":[[320],[321],[322],[323],[324],[325],[326],[327]]},{"type":"MultiLineString","properties":{"source":"openstreetmap.org","kind":"highway","landuse_kind":"urban_area","sort_rank":383,"kind_detail":"motorway","ref":"S23","min_zoom":8.0},"arcs":[[328],[329],[330]]},{"type":"MultiLineString","properties":{"kind":"major_road","name:en":"Huangpu Road; Lvshun South Road","sort_rank":380,"kind_detail":"primary","source":"openstreetmap.org","min_zoom":8.0,"landuse_kind":"urban_area","name:ru":"\u0443\u043b\u0438\u0446\u0430 \u0425\u0443\u0430\u043d\u043f\u0443; \u0414\u043e\u0440\u043e\u0433\u0430 \u0414\u0430\u043b\u044c\u043d\u0438\u0439\u2014\u041f\u043e\u0440\u0442 \u0410\u0440\u0442\u0443\u0440","name:zh":"\u9ec4\u6d66\u8def; \u65c5\u987a\u5357\u8def","ref":"G201, \u9e64\u5927\u7ebf"},"arcs":[[331],[332],[333]]},{"type":"MultiLineString","properties":{"source":"openstreetmap.org","kind":"major_road","kind_detail":"trunk","sort_rank":381,"landuse_kind":"urban_area","ref":"G202","min_zoom":8.0},"arcs":[[334],[335],[336],[337],[338],[339],[340],[341],[342],[343],[344],[345],[346],[347],[348],[349],[350],[351],[352],[353]]},{"type":"MultiLineString","properties":{"kind":"highway","network":"CN-expressways","sort_rank":383,"landuse_kind":"urban_area","source":"openstreetmap.org","min_zoom":8.0,"all_networks":["CN-expressways"],"kind_detail":"motorway","shield_text":"11","ref":"G11","all_shield_texts":["11"]},"arcs":[[354],[355],[356],[357],[358],[359],[360]]},{"type":"MultiLineString","properties":{"kind":"highway","network":"CN-expressways","sort_rank":383,"kind_detail":"motorway","source":"openstreetmap.org","min_zoom":8.0,"all_networks":["CN-expressways"],"shield_text":"15","ref":"G15","all_shield_texts":["15"]},"arcs":[[361],[362],[363],[364],[365],[366],[367],[368],[369],[370],[371],[372],[373],[374],[375],[376]]},{"type":"MultiLineString","properties":{"source":"openstreetmap.org","kind":"major_road","name:ru":"\u041f\u043e\u0440\u0442\u043e\u0432\u0430\u044f \u0434\u043e\u0440\u043e\u0433\u0430","sort_rank":381,"kind_detail":"trunk","min_zoom":8.0},"arcs":[[377],[378],[379]]},{"type":"MultiLineString","properties":{"source":"openstreetmap.org","kind":"major_road","kind_detail":"trunk","sort_rank":381,"landuse_kind":"urban_area","min_zoom":8.0},"arcs":[[380],[381],[382],[383],[384],[385],[386],[387],[388],[389],[390],[391],[392],[393],[394],[395],[396],[397],[398],[399],[400],[401],[402],[403],[404],[405],[406],[407],[408],[409],[410],[411],[412],[413],[414],[415],[416],[417],[418],[419],[420],[421],[422],[423],[424],[425],[426],[427],[428],[429],[430],[431],[432]]},{"type":"MultiLineString","properties":{"kind":"highway","network":"CN-expressways","sort_rank":383,"landuse_kind":"urban_area","source":"openstreetmap.org","min_zoom":8.0,"all_networks":["CN-expressways"],"kind_detail":"motorway","shield_text":"15","all_shield_texts":["15"]},"arcs":[[433],[434],[435],[436],[437],[438],[439],[440],[441],[442],[443],[444],[445],[446],[447],[448],[449],[450],[451],[452]]},{"type":"LineString","properties":{"kind":"major_road","network":null,"sort_rank":381,"kind_detail":"trunk","source":"openstreetmap.org","min_zoom":8.0,"shield_text":"201","ref":"G201"},"arcs":[453]},{"type":"MultiLineString","properties":{"kind":"highway","network":"CN-expressways","sort_rank":383,"kind_detail":"motorway","source":"openstreetmap.org","min_zoom":8.0,"all_networks":["CN-expressways"],"shield_text":"11","ref":"G11","all_shield_texts":["11"]},"arcs":[[454],[455],[456],[457],[458],[459],[460],[461],[462],[463],[464],[465],[466],[467],[468],[469],[470],[471],[472],[473]]},{"type":"MultiLineString","properties":{"bus_network":null,"sort_rank":380,"kind_detail":"primary","kind":"major_road","source":"openstreetmap.org","min_zoom":8.0,"bus_shield_text":"23","landuse_kind":"urban_area"},"arcs":[[474],[475]]},{"type":"MultiLineString","properties":{"bus_network":null,"sort_rank":381,"landuse_kind":"urban_area","kind":"major_road","source":"openstreetmap.org","min_zoom":8.0,"bus_shield_text":"517","kind_detail":"trunk"},"arcs":[[476],[477],[478],[479]]},{"type":"MultiLineString","properties":{"source":"openstreetmap.org","kind":"major_road","landuse_kind":"urban_area","sort_rank":380,"kind_detail":"primary","min_zoom":8.0,"name:ru":"\u041f\u043e\u0440\u0442-\u0410\u0440\u0442\u0443\u0440\u0441\u043a\u0430\u044f \u0434\u043e\u0440\u043e\u0433\u0430"},"arcs":[[480],[481]]},{"type":"LineString","properties":{"kind":"major_road","name:en":"Gangwan Square","sort_rank":380,"kind_detail":"primary","bus_network":null,"source":"openstreetmap.org","min_zoom":8.0,"bus_shield_text":"703","name:ru":"\u041f\u043e\u0440\u0442\u043e\u0432\u0430\u044f \u043f\u043b\u043e\u0449\u0430\u0434\u044c","id":233266773},"arcs":[482]},{"type":"MultiLineString","properties":{"kind":"major_road","network":"CN-roads","sort_rank":381,"kind_detail":"trunk","source":"openstreetmap.org","min_zoom":8.0,"shield_text":"202","ref":"G202"},"arcs":[[483],[484],[485],[486],[487],[488]]},{"type":"MultiLineString","properties":{"kind":"highway","name:en":"Shenda Expressway","network":"CN-expressways","sort_rank":383,"kind_detail":"motorway","source":"openstreetmap.org","min_zoom":8.0,"all_networks":["CN-expressways","AsianHighway"],"shield_text":"15","ref":"G15","all_shield_texts":["15","31"]},"arcs":[[489],[490],[491],[492],[493],[494],[495],[496],[497],[498],[499],[500],[501],[502],[503],[504],[505]]},{"type":"LineString","properties":{"kind":"major_road","sort_rank":380,"kind_detail":"primary","source":"openstreetmap.org","min_zoom":8.0,"landuse_kind":"urban_area","name:ru":"\u0421\u0435\u0432\u0435\u0440\u043e-\u0417\u0430\u043f\u0430\u0434\u043d\u043e\u0435 \u0448\u043e\u0441\u0441\u0435","id":118038294},"arcs":[506]},{"type":"MultiLineString","properties":{"kind":"highway","network":"CN-expressways","sort_rank":383,"landuse_kind":"urban_area","source":"openstreetmap.org","min_zoom":8.0,"all_networks":["CN-expressways"],"kind_detail":"motorway","shield_text":"11","all_shield_texts":["11"]},"arcs":[[507],[508],[509],[510],[511],[512],[513],[514],[515]]},{"type":"LineString","properties":{"kind":"highway","name:en":"Shenda Expressway","network":"CN-expressways","sort_rank":383,"kind_detail":"motorway","source":"openstreetmap.org","min_zoom":8.0,"all_networks":["CN-expressways","AsianHighway"],"shield_text":"15","id":175550919,"all_shield_texts":["15","31"]},"arcs":[516]},{"type":"MultiLineString","properties":{"bus_network":null,"sort_rank":380,"kind_detail":"primary","kind":"major_road","source":"openstreetmap.org","min_zoom":8.0,"bus_shield_text":"705","landuse_kind":"urban_area"},"arcs":[[517],[518],[519],[520]]},{"type":"MultiLineString","properties":{"source":"openstreetmap.org","kind":"major_road","sort_rank":380,"kind_detail":"primary","ref":"S327","min_zoom":8.0},"arcs":[[521],[522],[523],[524],[525],[526],[527],[528],[529],[530],[531],[532],[533],[534],[535],[536],[537],[538],[539],[540],[541],[542],[543],[544],[545],[546],[547]]},{"type":"LineString","properties":{"kind":"major_road","name:en":"Lianhe Road","sort_rank":381,"landuse_kind":"urban_area","source":"openstreetmap.org","min_zoom":8.0,"kind_detail":"trunk","name:zh":"\u8054\u5408\u8def"},"arcs":[548]},{"type":"MultiLineString","properties":{"source":"openstreetmap.org","kind":"major_road","sort_rank":381,"kind_detail":"trunk","ref":"S313","min_zoom":8.0},"arcs":[[549],[550],[551],[552]]},{"type":"MultiLineString","properties":{"sort_rank":383,"kind_detail":"motorway","min_zoom":8.0,"kind":"highway","source":"openstreetmap.org"},"arcs":[[553],[554],[555],[556],[557],[558],[559],[560],[561],[562],[563],[564],[565],[566],[567],[568],[569],[570],[571],[572],[573],[574],[575],[576],[577],[578],[579],[580],[581],[582],[583],[584],[585],[586],[587],[588],[589],[590],[591],[592],[593]]},{"type":"LineString","properties":{"kind":"major_road","name:en":"Gaoerji Road","sort_rank":380,"kind_detail":"primary","bus_network":null,"source":"openstreetmap.org","min_zoom":8.0,"bus_shield_text":"16","name:ru":"\u0443\u043b\u0438\u0446\u0430 \u0413\u043e\u0440\u044c\u043a\u043e\u0433\u043e","landuse_kind":"urban_area","name:zh":"G\u0101o'\u011brj\u012b l\u00f9","id":96325103},"arcs":[594]},{"type":"LineString","properties":{"source":"openstreetmap.org","kind":"major_road","landuse_kind":"urban_area","sort_rank":380,"kind_detail":"primary","ref":"S313","min_zoom":8.0},"arcs":[595]},{"type":"MultiLineString","properties":{"source":"openstreetmap.org","kind":"major_road","kind_detail":"primary","sort_rank":380,"landuse_kind":"urban_area","min_zoom":8.0,"name:ru":"\u0421\u0435\u0432\u0435\u0440\u043d\u0430\u044f \u0443\u043b\u0438\u0446\u0430"},"arcs":[[596],[597],[598],[599]]},{"type":"LineString","properties":{"kind":"major_road","name:en":"Xinkai Road","sort_rank":380,"kind_detail":"primary","source":"openstreetmap.org","min_zoom":8.0,"landuse_kind":"urban_area","name:zh":"X\u012bn k\u0101i l\u00f9"},"arcs":[600]},{"type":"LineString","properties":{"bus_network":null,"sort_rank":380,"kind_detail":"primary","kind":"major_road","source":"openstreetmap.org","min_zoom":8.0,"bus_shield_text":"16","name:ru":"\u0443\u043b\u0438\u0446\u0430 \u0413\u043e\u0440\u044c\u043a\u043e\u0433\u043e","landuse_kind":"urban_area"},"arcs":[601]},{"type":"LineString","properties":{"kind":"highway","name:en":"Shenda Expressway","network":"CN-expressways","sort_rank":383,"kind_detail":"motorway","source":"openstreetmap.org","min_zoom":8.0,"all_networks":["CN-expressways"],"landuse_kind":"urban_area","shield_text":"11","ref":"G11","id":205868343,"all_shield_texts":["11"]},"arcs":[602]},{"type":"MultiLineString","properties":{"source":"openstreetmap.org","kind":"major_road","sort_rank":380,"kind_detail":"primary","ref":"S212","min_zoom":8.0},"arcs":[[603],[604],[605],[606]]},{"type":"MultiLineString","properties":{"bus_network":null,"name:en":"Zhongshang Square","sort_rank":380,"kind_detail":"primary","old_name:ru":"\u041d\u0438\u043a\u043e\u043b\u0430\u0435\u0432\u0441\u043a\u0430\u044f \u043f\u043b\u043e\u0449\u0430\u0434\u044c","kind":"major_road","source":"openstreetmap.org","min_zoom":8.0,"old_name":"\u041d\u0438\u043a\u043e\u043b\u0430\u0435\u0432\u0441\u043a\u0430\u044f \u043f\u043b\u043e\u0449\u0430\u0434\u044c","name:ru":"\u043f\u043b\u043e\u0449\u0430\u0434\u044c \u0421\u0443\u043d\u044f \u042f\u0442\u0441\u0435\u043d\u0430","landuse_kind":"urban_area","bus_shield_text":"15"},"arcs":[[607],[608]]},{"type":"LineString","properties":{"kind":"major_road","name:en":"Zhongshang Square","sort_rank":380,"kind_detail":"primary","old_name:ru":"\u041d\u0438\u043a\u043e\u043b\u0430\u0435\u0432\u0441\u043a\u0430\u044f \u043f\u043b\u043e\u0449\u0430\u0434\u044c","bus_network":null,"source":"openstreetmap.org","min_zoom":8.0,"old_name":"\u041d\u0438\u043a\u043e\u043b\u0430\u0435\u0432\u0441\u043a\u0430\u044f \u043f\u043b\u043e\u0449\u0430\u0434\u044c","name:ru":"\u043f\u043b\u043e\u0449\u0430\u0434\u044c \u0421\u0443\u043d\u044f \u042f\u0442\u0441\u0435\u043d\u0430","landuse_kind":"urban_area","bus_shield_text":"703","id":233252161},"arcs":[609]},{"type":"LineString","properties":{"kind":"major_road","sort_rank":380,"kind_detail":"primary","source":"openstreetmap.org","min_zoom":8.0,"landuse_kind":"urban_area","name:ru":"\u041f\u043e\u0440\u0442-\u0410\u0440\u0442\u0443\u0440\u0441\u043a\u0430\u044f \u0434\u043e\u0440\u043e\u0433\u0430","ref":"\u9a6c\u5317\u7ebf","id":217840876},"arcs":[610]},{"type":"MultiLineString","properties":{"kind":"highway","network":"CN-expressways","sort_rank":383,"kind_detail":"motorway","source":"openstreetmap.org","min_zoom":8.0,"all_networks":["CN-expressways"],"shield_text":"11","all_shield_texts":["11"]},"arcs":[[611],[612],[613],[614],[615],[616],[617],[618],[619],[620],[621],[622],[623],[624],[625],[626],[627],[628],[629],[630],[631]]},{"type":"MultiLineString","properties":{"kind":"major_road","name:en":"Xincheng Main Steet","sort_rank":380,"kind_detail":"primary","source":"openstreetmap.org","min_zoom":8.0,"landuse_kind":"urban_area","name:zh":"x\u012bnch\u00e9ng d\u00e0ji\u0113","ref":"\u90ed\u6c34\u7ebf"},"arcs":[[632],[633],[634],[635],[636],[637]]},{"type":"MultiLineString","properties":{"kind":"major_road","name:en":"Lvshun South Road","sort_rank":381,"kind_detail":"trunk","is_bicycle_related":true,"cycleway":"lane","source":"openstreetmap.org","min_zoom":8.0,"landuse_kind":"urban_area","name:ru":"\u0414\u043e\u0440\u043e\u0433\u0430 \u0414\u0430\u043b\u044c\u043d\u0438\u0439\u2014\u041f\u043e\u0440\u0442 \u0410\u0440\u0442\u0443\u0440","name:zh":"l\u01dash\u00f9n n\u00e1nl\u00f9","ref":"G201"},"arcs":[[638],[639],[640],[641],[642],[643],[644]]},{"type":"LineString","properties":{"kind":"major_road","sort_rank":380,"landuse_kind":"urban_area","source":"openstreetmap.org","min_zoom":8.0,"kind_detail":"primary","ref":"\u90ed\u6c34\u8def","id":232156519},"arcs":[645]},{"type":"LineString","properties":{"bus_network":null,"name:en":"Gaoerji Road","sort_rank":380,"kind_detail":"primary","kind":"major_road","source":"openstreetmap.org","min_zoom":8.0,"bus_shield_text":"22","name:ru":"\u0443\u043b\u0438\u0446\u0430 \u0413\u043e\u0440\u044c\u043a\u043e\u0433\u043e","landuse_kind":"urban_area","name:zh":"G\u0101o'\u011brj\u012b l\u00f9"},"arcs":[646]},{"type":"MultiLineString","properties":{"bus_network":null,"sort_rank":380,"kind_detail":"primary","kind":"major_road","source":"openstreetmap.org","min_zoom":8.0,"bus_shield_text":"523","name:ru":"\u042e\u0433\u043e-\u0417\u0430\u043f\u0430\u0434\u043d\u043e\u0435 \u0448\u043e\u0441\u0441\u0435","landuse_kind":"urban_area"},"arcs":[[647],[648],[649]]},{"type":"LineString","properties":{"kind":"major_road","sort_rank":380,"landuse_kind":"urban_area","source":"openstreetmap.org","min_zoom":8.0,"kind_detail":"primary","ref":"\u6c34\u897f\u7ebf","id":327414368},"arcs":[650]},{"type":"LineString","properties":{"kind":"major_road","name:en":"Xinkai Road","sort_rank":380,"kind_detail":"primary","bus_network":null,"source":"openstreetmap.org","min_zoom":8.0,"bus_shield_text":"541","landuse_kind":"urban_area","name:zh":"X\u012bn k\u0101i l\u00f9","id":277313431},"arcs":[651]},{"type":"MultiLineString","properties":{"source":"openstreetmap.org","kind":"major_road","kind_detail":"trunk","sort_rank":381,"landuse_kind":"urban_area","ref":"G201","min_zoom":8.0},"arcs":[[652],[653],[654],[655],[656],[657],[658],[659],[660],[661]]},{"type":"LineString","properties":{"kind":"major_road","name:en":"Zhongshan Road","sort_rank":380,"kind_detail":"primary","bus_network":null,"source":"openstreetmap.org","min_zoom":8.0,"bus_shield_text":"23","name:ru":"\u0443\u043b\u0438\u0446\u0430 \u0421\u0443\u043d\u044f \u042f\u0442\u0441\u0435\u043d\u0430","landuse_kind":"urban_area","name:zh":"zh\u014dngsh\u0101n l\u00f9","id":31535491},"arcs":[662]},{"type":"MultiLineString","properties":{"kind":"highway","network":"CN-expressways","sort_rank":383,"landuse_kind":"urban_area","source":"openstreetmap.org","min_zoom":8.0,"all_networks":["CN-expressways","AsianHighway"],"kind_detail":"motorway","shield_text":"15","all_shield_texts":["15","31"]},"arcs":[[663],[664],[665],[666],[667]]},{"type":"MultiLineString","properties":{"kind":"highway","network":"CN-expressways","sort_rank":383,"kind_detail":"motorway","source":"openstreetmap.org","min_zoom":8.0,"all_networks":["CN-expressways","AsianHighway"],"shield_text":"15","ref":"G15","all_shield_texts":["15","31"]},"arcs":[[668],[669],[670],[671],[672],[673],[674],[675],[676],[677],[678],[679],[680],[681],[682]]},{"type":"MultiLineString","properties":{"source":"openstreetmap.org","kind":"major_road","landuse_kind":"urban_area","sort_rank":380,"kind_detail":"primary","ref":"S317","min_zoom":8.0},"arcs":[[683],[684],[685],[686],[687]]},{"type":"MultiLineString","properties":{"kind":"major_road","name:en":"Lvshun South Road","sort_rank":381,"landuse_kind":"urban_area","source":"openstreetmap.org","min_zoom":8.0,"kind_detail":"trunk","name:ru":"\u0414\u043e\u0440\u043e\u0433\u0430 \u0414\u0430\u043b\u044c\u043d\u0438\u0439\u2014\u041f\u043e\u0440\u0442 \u0410\u0440\u0442\u0443\u0440","name:zh":"l\u01dash\u00f9n n\u00e1nl\u00f9","ref":"G201"},"arcs":[[688],[689],[690]]},{"type":"MultiLineString","properties":{"source":"openstreetmap.org","kind":"highway","sort_rank":383,"kind_detail":"motorway","ref":"S23","min_zoom":8.0},"arcs":[[691],[692],[693],[694],[695],[696],[697],[698],[699],[700],[701],[702],[703]]},{"type":"LineString","properties":{"kind":"major_road","sort_rank":380,"kind_detail":"primary","source":"openstreetmap.org","min_zoom":8.0,"landuse_kind":"urban_area","name:ru":"\u0423\u043b\u0438\u0446\u0430 \u0416\u0451\u043b\u0442\u043e\u0439 \u0440\u0435\u043a\u0438","id":49709316},"arcs":[704]},{"type":"MultiLineString","properties":{"source":"openstreetmap.org","kind":"major_road","landuse_kind":"urban_area","sort_rank":380,"kind_detail":"primary","ref":"S212","min_zoom":8.0},"arcs":[[705],[706],[707]]},{"type":"MultiLineString","properties":{"kind":"major_road","name:en":"Xincheng Main Steet","sort_rank":380,"kind_detail":"primary","source":"openstreetmap.org","min_zoom":8.0,"landuse_kind":"urban_area","name:zh":"x\u012bnch\u00e9ng d\u00e0ji\u0113","ref":"\u90ed\u6c34\u8def"},"arcs":[[708],[709],[710],[711],[712],[713],[714],[715]]},{"type":"LineString","properties":{"kind":"major_road","name:en":"Zhongshan Lu","sort_rank":380,"kind_detail":"primary","bus_network":null,"source":"openstreetmap.org","min_zoom":8.0,"bus_shield_text":"16","name:ru":"\u0443\u043b\u0438\u0446\u0430 \u0421\u0443\u043d\u044f \u042f\u0442\u0441\u0435\u043d\u0430","landuse_kind":"urban_area","id":33278210},"arcs":[716]},{"type":"LineString","properties":{"kind":"major_road","name:en":"Huangpu Road; Lvshun South Road","ref":"G201, \u9e64\u5927\u7ebf","sort_rank":381,"kind_detail":"trunk","source":"openstreetmap.org","min_zoom":8.0,"landuse_kind":"urban_area","name:ru":"\u0443\u043b\u0438\u0446\u0430 \u0425\u0443\u0430\u043d\u043f\u0443; \u0414\u043e\u0440\u043e\u0433\u0430 \u0414\u0430\u043b\u044c\u043d\u0438\u0439\u2014\u041f\u043e\u0440\u0442 \u0410\u0440\u0442\u0443\u0440","name:zh":"\u9ec4\u6d66\u8def; \u65c5\u987a\u5357\u8def","id":217980908},"arcs":[717]},{"type":"MultiLineString","properties":{"source":"openstreetmap.org","kind":"major_road","landuse_kind":"urban_area","sort_rank":380,"kind_detail":"primary","min_zoom":8.0,"name:ru":"\u042e\u0433\u043e-\u0417\u0430\u043f\u0430\u0434\u043d\u043e\u0435 \u0448\u043e\u0441\u0441\u0435"},"arcs":[[718],[719],[720],[721]]}]},"earth":{"type":"GeometryCollection","geometries":[{"type":"MultiPolygon","properties":{"sort_rank":10,"source":"naturalearthdata.com","min_zoom":0.0,"kind":"earth","area":49569115124},"arcs":[[[722]],[[723]],[[724]]]}]},"landuse":{"type":"GeometryCollection","geometries":[{"type":"MultiPolygon","properties":{"source":"naturalearthdata.com","kind":"urban_area","name":"","area":2851167531,"sort_rank":11,"min_zoom":4.0},"arcs":[[[725],[726],[727]],[[728]],[[729]],[[730]]]},{"type":"Polygon","properties":{"source":"openstreetmap.org","kind":"aerodrome","area":24938700,"tier":3,"id":439434244,"min_zoom":8.0,"sort_rank":60},"arcs":[[731]]}]}},"type":"Topology","transform":{"translate":[120.9375,38.8225909762],"scale":[0.0003433228,0.0002654163]},"arcs":[[[3343,0],[101,167],[258,117],[193,192],[201,-11]],[[3343,0],[101,167],[258,117],[193,192],[201,-11]],[[1742,522],[-21,-130],[150,-82],[11,28],[64,-10],[159,64],[150,-62]],[[1861,585],[-18,-138],[52,-57],[-22,-137]],[[2843,4096],[-152,-363],[-78,-265],[-10,-391],[-111,-493],[61,-556],[-29,-400],[-79,-149],[-143,-132],[-98,-180],[-25,-118],[-147,-144],[-18,-126],[-60,-45]],[[0,4096],[2106,0],[-72,-49],[-57,-94],[-146,-49],[-88,11],[-76,-142],[-114,-52],[2,-19],[18,-69],[28,-33],[-7,-53],[-31,-30],[-49,-29],[7,-15],[9,-11],[3,-11],[79,-66],[46,-101],[34,-28],[16,2],[19,14],[20,6],[27,-22],[10,-31],[-8,-20],[-14,-15],[-8,-11],[-6,-13],[-26,-26],[-8,-13],[5,-11],[29,-31],[6,-9],[-7,-26],[-3,-21],[-9,-16],[-21,-17],[-81,132],[-100,-26],[20,-52],[-61,-64],[-197,-52],[-162,4],[-59,-17],[-43,-43],[-92,-86],[-33,-76],[-30,-7],[-28,-19],[-15,-30],[13,-37],[26,-15],[104,2],[29,-12],[50,-33],[19,-6],[38,15],[62,51],[39,11],[133,-8],[59,-15],[47,-28],[74,-132],[89,-319],[99,-92],[67,-10],[492,36],[-29,91],[109,9],[249,-49],[53,9],[93,37],[52,8],[40,22],[29,38],[25,7],[35,-67],[-82,-15],[-144,-93],[-82,-23],[-134,25],[-34,1],[-42,-23],[-34,-38],[-65,-93],[20,-41],[-6,-30],[-53,-56],[-110,-82],[-63,-31],[-33,-8],[-15,28],[-15,2],[-72,8],[-65,-41],[42,-42],[84,-63],[-20,-44],[-72,-12],[5,-18],[8,-42],[6,-17],[-45,-32],[41,-43],[68,-29],[35,11],[21,-68],[93,-82],[25,-68],[-46,-114],[-121,-70],[-250,-76],[-175,-112],[-56,-17],[-75,-4],[-39,3],[-26,14],[-31,54],[-15,21],[-23,15],[-60,7],[-66,-23],[-52,-43],[-22,-55],[6,-40],[27,-61],[6,-29],[-17,-34],[-41,-8],[-83,3],[-102,-66],[-65,-15],[-44,-20],[-25,-1],[-26,10],[-38,36],[-27,7],[-148,-26],[-31,-15],[-64,-86],[-29,-56],[12,-25],[170,0],[11,-48],[-36,-45],[-74,-61],[-10,-67],[20,-46],[17,-21],[-543,0],[0,4096]],[[1413,2456],[-27,8],[-73,-8],[-104,30],[-35,-4],[-27,-21],[-12,-28],[-7,-29],[-13,-25],[-27,-23],[-24,-10],[-23,-7],[-85,-37],[-12,-22],[-9,-58],[-3,-48],[6,-31],[14,-17],[25,-7],[68,24],[50,64],[40,73],[39,47],[33,15],[36,5],[32,-12],[19,-33],[-6,-33],[-23,-27],[-51,-43],[-53,-71],[2,-38],[48,-16],[146,-9],[53,11],[35,46],[7,90],[-1,25],[-11,30],[-18,22],[-27,13],[0,25],[78,4],[21,34],[-23,47],[-58,44]],[[4096,1229],[0,-1229],[-2449,0],[6,15],[21,2],[118,117],[83,18],[214,-19],[62,50],[59,-31],[25,38],[-4,71],[-29,67],[-49,45],[-51,18],[-119,0],[-75,36],[-15,16],[14,32],[35,12],[72,9],[55,19],[14,16],[11,40],[4,37],[-5,25],[-20,15],[-39,3],[102,46],[27,5],[88,-8],[83,-20],[0,28],[-55,40],[14,40],[59,13],[80,-44],[43,-57],[71,-128],[106,-96],[35,-10],[33,22],[47,45],[21,31],[2,39],[-44,60],[-123,68],[-32,80],[84,-9],[68,-24],[128,-70],[-9,45],[-21,37],[-32,28],[-39,16],[46,26],[38,-11],[35,-24],[40,-14],[47,16],[35,34],[27,35],[22,16],[158,-13],[26,28],[-35,90],[25,31],[23,8],[24,2],[27,10],[158,141],[44,17],[59,-1],[-38,31],[-41,14],[-91,4],[-1,18],[19,42],[18,51],[-5,46],[243,190],[122,130],[14,94],[13,22],[3,9],[2,18],[47,-21],[28,39],[19,56],[19,29],[39,12],[44,29],[42,38],[31,35],[0,-726],[-38,-32],[-27,-53],[37,-74],[28,9]],[[2607,226],[4,38],[-12,0],[-18,-9],[-6,-13],[5,-12],[2,-11],[-12,-2],[-1,-15],[5,-15],[2,-27],[12,-17],[36,38],[-17,45]],[[2106,4096],[-72,-49],[-57,-94],[-146,-49],[-88,11],[-76,-142],[-114,-52],[2,-19],[18,-69],[28,-33],[-7,-53],[-31,-30],[-49,-29],[7,-15],[9,-11],[3,-11],[79,-66],[46,-101],[34,-28],[16,2],[19,14],[20,6],[27,-22],[10,-31],[-8,-20],[-14,-15],[-8,-11],[-6,-13],[-26,-26],[-8,-13],[5,-11],[29,-31],[6,-9],[-7,-26],[-3,-21],[-9,-16],[-21,-17],[-81,132],[-100,-26],[20,-52],[-61,-64],[-197,-52],[-162,4],[-59,-17],[-43,-43],[-92,-86],[-33,-76],[-30,-7],[-28,-19],[-15,-30],[13,-37],[26,-15],[104,2],[29,-12],[50,-33],[19,-6],[38,15],[62,51],[39,11],[133,-8],[59,-15],[47,-28],[74,-132],[89,-319],[99,-92],[67,-10],[492,36],[-29,91],[109,9],[249,-49],[53,9],[93,37],[52,8],[40,22],[29,38],[25,7],[35,-67],[-82,-15],[-144,-93],[-82,-23],[-134,25],[-34,1],[-42,-23],[-34,-38],[-65,-93],[20,-41],[-6,-30],[-53,-56],[-110,-82],[-63,-31],[-33,-8],[-15,28],[-15,2],[-72,8],[-65,-41],[42,-42],[84,-63],[-20,-44],[-72,-12],[5,-18],[8,-42],[6,-17],[-45,-32],[41,-43],[68,-29],[35,11],[21,-68],[93,-82],[25,-68],[-46,-114],[-121,-70],[-250,-76],[-175,-112],[-56,-17],[-75,-4],[-39,3],[-26,14],[-31,54],[-15,21],[-23,15],[-60,7],[-66,-23],[-52,-43],[-22,-55],[6,-40],[27,-61],[6,-29],[-17,-34],[-41,-8],[-83,3],[-102,-66],[-65,-15],[-44,-20],[-25,-1],[-26,10],[-38,36],[-27,7],[-148,-26],[-31,-15],[-64,-86],[-29,-56],[12,-25],[170,0],[11,-48],[-36,-45],[-74,-61],[-10,-67],[20,-46],[17,-21]],[[1647,0],[6,15],[21,2],[118,117],[83,18],[214,-19],[62,50],[59,-31],[25,38],[-4,71],[-29,67],[-49,45],[-51,18],[-119,0],[-75,36],[-15,16],[14,32],[35,12],[72,9],[55,19],[14,16],[11,40],[4,37],[-5,25],[-20,15],[-39,3],[102,46],[27,5],[88,-8],[83,-20],[0,28],[-55,40],[14,40],[59,13],[80,-44],[43,-57],[71,-128],[106,-96],[35,-10],[33,22],[47,45],[21,31],[2,39],[-44,60],[-123,68],[-32,80],[84,-9],[68,-24],[128,-70],[-9,45],[-21,37],[-32,28],[-39,16],[46,26],[38,-11],[35,-24],[40,-14],[47,16],[35,34],[27,35],[22,16],[158,-13],[26,28],[-35,90],[25,31],[23,8],[24,2],[27,10],[158,141],[44,17],[59,-1],[-38,31],[-41,14],[-91,4],[-1,18],[19,42],[18,51],[-5,46],[243,190],[122,130],[14,94],[13,22],[3,9],[2,18],[47,-21],[28,39],[19,56],[19,29],[39,12],[44,29],[42,38],[31,35]],[[1413,2456],[-27,8],[-73,-8],[-104,30],[-35,-4],[-27,-21],[-12,-28],[-7,-29],[-13,-25],[-27,-23],[-24,-10],[-23,-7],[-85,-37],[-12,-22],[-9,-58],[-3,-48],[6,-31],[14,-17],[25,-7],[68,24],[50,64],[40,73],[39,47],[33,15],[36,5],[32,-12],[19,-33],[-6,-33],[-23,-27],[-51,-43],[-53,-71],[2,-38],[48,-16],[146,-9],[53,11],[35,46],[7,90],[-1,25],[-11,30],[-18,22],[-27,13],[0,25],[78,4],[21,34],[-23,47],[-58,44]],[[4031,1294],[37,-74],[28,9]],[[4096,1379],[-38,-32],[-27,-53]],[[2047,371],[18,7]],[[1790,192],[81,42],[1,26]],[[1904,389],[-21,0]],[[679,79],[-3,-8]],[[677,71],[3,7]],[[683,88],[-3,-8]],[[680,79],[4,9]],[[744,176],[-28,-11],[-32,-76]],[[684,89],[32,76],[28,11]],[[785,183],[-39,-7]],[[763,177],[23,6]],[[889,278],[-2,-3]],[[887,275],[2,3]],[[923,279],[46,0],[52,22]],[[1020,301],[-97,-21]],[[1038,316],[-12,-7]],[[1027,308],[11,7]],[[1236,530],[-53,-61]],[[1184,470],[52,60]],[[1272,549],[-24,-17]],[[1248,532],[24,16]],[[1314,564],[-30,-3]],[[1284,561],[30,2]],[[1366,629],[-44,-62]],[[1322,566],[45,62]],[[1473,709],[-105,-78]],[[1368,631],[106,78]],[[1637,767],[52,-14]],[[1690,754],[-36,18],[-16,-5]],[[1704,750],[135,69]],[[1839,819],[-29,-5],[-38,-17],[-68,-46]],[[1947,907],[-19,-13],[-86,-74]],[[1842,820],[106,87]],[[2255,320],[-10,29],[-125,52]],[[1220,325],[-1,-1]],[[2129,990],[25,33]],[[2338,1343],[-1,-1]],[[2341,1340],[-1,1]],[[2442,1639],[-1,-2]],[[2441,1636],[2,3]],[[2450,1662],[-2,-2]],[[2449,1659],[1,2]],[[2477,1719],[-1,-2]],[[2477,1717],[0,2]],[[2487,1746],[-6,-14]],[[2482,1732],[5,14]],[[2513,2613],[1,-2]],[[2514,2610],[0,3]],[[2531,2368],[0,-1]],[[2532,2367],[-1,1]],[[2532,2275],[0,-2]],[[2533,2273],[0,1]],[[2567,2198],[2,-2]],[[2568,1943],[0,-2]],[[2570,2196],[-2,3]],[[2568,1941],[1,2]],[[2569,2049],[0,-27]],[[2570,2022],[0,68]],[[2572,2142],[-1,-6]],[[2571,2136],[1,6]],[[2578,2818],[0,-7]],[[2578,2812],[1,6]],[[2640,3182],[-1,-1]],[[2640,3180],[1,2]],[[2004,405],[-25,-12]],[[1918,479],[1,-51]],[[1919,428],[0,51]],[[2093,388],[-5,0]],[[2129,991],[-5,-6]],[[2188,1066],[-33,-43]],[[2192,1080],[-3,-13]],[[2279,1263],[-64,-78],[-23,-101]],[[2189,1067],[3,13]],[[2193,1084],[25,105],[60,74]],[[2195,1038],[56,-16]],[[2251,1022],[-56,16]],[[1805,476],[24,-68]],[[1805,478],[0,-3],[17,-53],[3,-8],[4,-6]],[[1883,389],[-52,18]],[[1979,393],[-75,-4]],[[1930,3075],[219,75],[75,60],[266,45]],[[1980,393],[73,11]],[[2014,3115],[-23,-6]],[[2055,406],[11,2]],[[2081,3133],[-11,3]],[[2351,3229],[-3,-1]],[[2065,378],[8,3]],[[676,71]],[[1938,303],[11,-20]],[[2032,364],[-1,2]],[[2251,1022],[30,-7]],[[1722,156],[-64,-82]],[[1658,73],[64,83]],[[1667,534],[47,169],[-16,22]],[[1690,734],[-6,4]],[[1697,725],[-6,9]],[[1057,2584],[-22,47],[62,130],[108,4],[495,230],[112,16],[118,64]],[[3018,3020],[-142,51],[-54,-40],[-38,25],[-40,-8],[-30,71],[-86,69]],[[3033,3017],[-10,0]],[[4096,2931],[-254,-10],[-230,95],[-178,-60],[-89,13],[-26,38],[-55,7]],[[788,0],[68,50]],[[787,0],[69,51]],[[2305,3314],[29,-33]],[[2324,3156],[-1,-3]],[[2434,3071],[2,0]],[[1718,447],[-90,36]],[[568,2],[-46,62]],[[529,147],[23,-15],[49,45],[45,-68],[33,60],[18,81],[-95,49]],[[663,379],[194,26],[50,68]],[[1193,547],[-111,-22]],[[1439,650],[50,49]],[[1620,756],[65,-17]],[[1690,744],[183,140]],[[2031,935],[35,-3]],[[2189,2240],[-61,-98],[14,-64],[-50,-23]],[[2173,1171],[-1,0]],[[2172,1171],[-3,3]],[[2171,1178],[1,-7]],[[2172,1171]],[[2190,2240],[57,-6]],[[2285,805],[10,4],[41,-14],[12,-1]],[[2295,809],[-1,0]],[[2294,809],[-9,-3]],[[2336,796],[-41,13]],[[2337,796],[-1,0]],[[2337,796],[11,-2]],[[2355,793],[31,-5],[25,4]],[[2388,789],[-2,-1]],[[2386,788],[-31,5]],[[2388,789],[23,4]],[[2411,793],[76,-49],[16,-61]],[[2505,681],[15,-8]],[[2521,670],[-8,-16]],[[2514,652],[17,-6]],[[2532,647],[20,11]],[[2560,662],[41,-15],[37,20]],[[2875,2163],[-19,-12]],[[2120,401],[-27,-11]],[[1972,2370],[-188,162],[-335,86]],[[2057,2351],[-61,12]],[[2082,2343],[-18,7]],[[2151,2334],[-52,5]],[[2235,2307],[-58,19]],[[2256,2304],[-18,2]],[[2322,2286],[-33,11]],[[2399,2276],[-44,1]],[[2418,2276],[-16,0]],[[2446,2279],[-15,-2]],[[2461,2280],[-14,-1]],[[2528,2279],[-65,1]],[[3876,2222],[-462,72],[-298,-9],[-106,60],[-142,37],[-97,-22],[-115,-71],[-112,-11]],[[2903,2380],[19,-7]],[[2046,370],[-1,2]],[[1639,85],[19,-12]],[[1658,74],[-19,12]],[[1724,387],[-77,20]],[[2047,371],[-2,1]],[[1889,298],[-17,-38]],[[659,51],[-2,-8]],[[679,169],[-1,-7]],[[678,162],[-13,-84],[-5,-20]],[[660,58],[-2,-7],[-1,-8]],[[657,43],[17,-7]],[[659,51],[18,20]],[[659,51],[1,7]],[[660,58],[18,104]],[[678,162],[2,9]],[[674,36],[29,-36]],[[704,0],[-30,36]],[[696,238],[165,-154]],[[861,85],[-34,37]],[[863,120],[84,7]],[[1055,40],[1,-1]],[[1439,650],[-2,-1]],[[1438,649],[2,-1]],[[1490,594],[-8,-15],[70,-46]],[[1655,409],[26,114]],[[1685,739],[5,5]],[[1691,734],[-1,0]],[[1698,725],[-1,0]],[[1750,380],[30,-14]],[[1762,197],[1,-2]],[[1764,197],[-2,0]],[[1763,195],[1,1]],[[1801,477],[10,-3],[2,1]],[[1813,475],[4,18]],[[1813,475],[-2,0],[3,10]],[[1814,485]],[[1817,494],[-3,-9]],[[1814,485]],[[1829,408],[2,-2]],[[2012,927],[-15,-122]],[[2032,761],[54,37]],[[2066,932],[5,-14]],[[2142,1262],[9,-67]],[[2172,1171],[78,-48]],[[2250,1123],[-77,48]],[[2189,2240],[1,0]],[[2222,1091]],[[2476,850],[-33,31],[-17,15]],[[2426,896],[-118,111]],[[2308,1007],[0,1],[-57,14]],[[2281,1015],[27,-7],[0,-1]],[[2308,1007],[9,-1],[109,-110]],[[2426,896],[16,-16],[33,-31]],[[2503,683],[2,-2]],[[2513,654],[1,-2]],[[2520,673],[1,-3]],[[2531,646],[1,1]],[[2552,658],[8,4]],[[2596,933],[25,-135]],[[2622,798],[-25,136]],[[3002,2232],[-1,2]],[[3035,2227],[3,1]],[[3074,2240],[5,-1]],[[861,120],[86,7]],[[1055,40],[2,-1]],[[1400,59],[16,4],[18,11],[-38,-17]],[[2279,0],[29,231],[-4,21]],[[2304,252],[-11,61],[-8,9]],[[2285,322],[-86,96],[-88,15],[-23,-25],[23,27],[89,-15],[76,-67],[9,-31]],[[2285,322],[19,-70]],[[2304,252],[6,-20],[-9,-232]],[[890,136],[18,120]],[[1366,629],[6,2]],[[2653,1937],[-40,-107],[-146,-146],[-36,-117],[-3,-134],[-74,-158]],[[2093,970],[14,-3]],[[2107,967],[1,0]],[[2108,967],[6,-1],[3,-1]],[[2110,968],[-1,0]],[[2109,968],[-1,0]],[[2108,968],[-15,2]],[[2124,985],[-16,-17]],[[2108,968],[-1,-1]],[[2107,967],[-9,-9]],[[2099,958],[9,9]],[[2108,967],[1,1]],[[2109,968],[11,11]],[[2562,1083],[15,-31]],[[2597,934],[-25,67],[10,28],[-4,23],[-14,27]],[[2572,1002],[0,-2],[13,-45],[5,-11]],[[2581,1030],[0,-2]],[[805,189],[-4,0]],[[801,188],[5,1]],[[836,198],[-1,-1]],[[835,197],[2,1]],[[1156,420],[-9,-24]],[[1147,396],[9,24]],[[1972,917],[90,50]],[[2061,967],[-12,-2],[-12,-4],[-46,-25]],[[2073,381],[15,7]],[[2921,2172],[-33,-50]],[[2934,2191],[-8,-13]],[[2936,2193],[13,19]],[[2949,2239],[0,-23]],[[1785,362],[62,-32]],[[1847,330],[-62,33]],[[1895,329],[-48,1]],[[1780,504],[17,-18]],[[1798,487],[-17,18]],[[1024,147],[45,36]],[[1462,433],[-65,-55]],[[1513,429],[-45,10]],[[1023,147],[46,36]],[[1952,279],[8,-10]],[[1961,269],[-9,11]],[[2088,408],[23,27],[89,-15],[76,-67],[34,-121],[-9,-232]],[[1919,316],[89,39]],[[2008,355],[20,9]],[[2028,364],[-20,-9]],[[2033,366],[6,2]],[[1089,183],[-18,2]],[[1282,352],[-32,5]],[[947,127],[58,5]],[[1028,2831],[7,11]],[[1171,2659],[-3,-1]],[[1244,2675],[-4,-1]],[[1964,1627],[-1,-2]],[[2000,1606],[1,0]],[[2151,1195],[6,-122],[-140,-110],[-5,-36]],[[2021,1529],[-6,-13]],[[2029,1590],[10,-25]],[[2091,388],[-8,1]],[[2089,1232],[1,0]],[[2442,2167],[-72,-370],[-193,-169],[-40,-104],[-20,-96],[25,-166]],[[2186,1736],[-2,-2]],[[2348,2175],[1,0]],[[2364,2067],[16,9]],[[2559,2140],[0,1]],[[2621,798],[7,-56],[17,-20],[67,-45],[-83,66],[-7,55]],[[2676,2178],[-37,-15],[1,-23],[75,-119]],[[2734,2111],[-37,78]],[[2862,2222],[3,2]],[[2919,1481],[1,-4]],[[947,127],[58,5]],[[1667,3299],[-3,-1],[2,-2],[1,1],[0,2]],[[3023,3016],[0,5],[-5,0],[0,-5],[5,0]],[[960,93],[79,-42]],[[975,94],[-15,-1]],[[980,92],[-5,2]],[[980,92],[59,-41]],[[2031,366],[-3,-2]],[[2028,364],[4,0]],[[906,0]],[[2594,1942],[105,66]],[[3110,2241],[158,11],[150,-64],[48,10],[32,-35],[120,-39],[206,55],[122,-45],[90,16]],[[1005,132],[19,15]],[[1069,183],[2,2]],[[1219,324],[-83,-146],[-47,5]],[[1250,357],[-30,-32]],[[1397,378],[-115,-26]],[[1468,439],[-6,-6]],[[1005,132],[18,15]],[[1069,183],[3,2]],[[2581,1028],[-9,-26]],[[2577,1052],[4,-22]],[[2590,944],[6,-11]],[[1730,170],[-8,-14]],[[1759,195],[-28,-24]],[[1731,171],[28,23]],[[889,129],[1,7]],[[889,129],[17,-129]],[[908,256],[6,41],[310,273],[142,59]],[[1372,631],[66,18]],[[1440,648],[37,-53],[80,11],[110,-72],[113,-30]],[[1777,505],[-110,29]],[[1904,726],[38,23]],[[1941,749],[-35,-19]],[[1942,749],[1,0],[0,1]],[[1943,750],[-1,0],[0,-1]],[[2048,854],[-105,-104]],[[1943,750],[50,45]],[[1993,796],[31,33]],[[2033,836],[15,16]],[[2033,836],[-9,-7]],[[2048,852],[0,2]],[[2354,1275],[-48,-95]],[[2934,2191],[2,2]],[[2949,2212],[0,4]],[[889,130],[18,-130]],[[2115,966],[-5,2]],[[2143,952],[-14,7]],[[2370,926],[-83,-82],[-142,107]],[[2421,943],[-25,-6]],[[2431,942],[-8,1]],[[2500,944],[-66,-3]],[[2528,955],[-26,-10]],[[801,189],[-16,-6]],[[786,183],[15,5]],[[835,197],[-30,-8]],[[806,189],[29,8]],[[887,275],[-51,-77]],[[837,198],[50,77]],[[1038,315],[109,81]],[[1147,396],[-109,-80]],[[1183,469],[-27,-49]],[[1156,420],[28,50]],[[1368,631],[-2,-2]],[[1367,628],[1,3]],[[1638,767],[-132,-39],[-33,-19]],[[1474,709],[163,58]],[[1991,936],[-44,-29]],[[1948,907],[24,10]],[[2056,400],[-52,5]],[[2055,406],[-10,3]],[[2083,389],[-30,15]],[[1396,57],[4,2]],[[1950,281],[-29,-120],[-88,10],[-96,-52]],[[1748,492],[-9,-40]],[[1739,452],[-3,-7],[8,-50],[16,-29],[125,-73]],[[1760,366],[-21,86]],[[1781,505],[-4,0]],[[1795,337],[97,-66]],[[1831,406],[80,-17],[8,0]],[[1919,389],[1,0]],[[1920,389],[6,0],[37,-1],[17,5]],[[1894,392],[-3,-16]],[[1919,550],[-1,-7]],[[1919,543],[0,7]],[[1921,587],[-2,-37]],[[1919,421],[0,-23],[0,-3],[0,-6]],[[1919,389],[0,-1],[0,-4],[1,-4]],[[1920,380],[0,8],[0,1]],[[1920,389],[0,6],[0,3],[-1,23]],[[1920,380],[4,-41],[1,-3]],[[1925,336],[4,-17],[9,-16]],[[1921,587],[1,9]],[[1921,596],[0,-9]],[[1932,330],[-7,6]],[[1925,336],[-1,1]],[[1940,184],[13,96],[-2,1]],[[1982,258],[-13,0],[-16,-22]],[[1955,235],[19,23]],[[1961,662],[-6,-20]],[[1956,642],[30,98]],[[1961,662],[-2,-2]],[[1983,741],[0,-1]],[[1983,740],[-1,-1]],[[1982,739],[0,-1]],[[1982,738],[-6,-8],[-15,-68]],[[1969,260],[1,-2]],[[1972,733],[10,5]],[[1982,738],[4,2]],[[1991,743],[-6,-2]],[[1985,741],[-2,0]],[[2317,845],[-39,-44],[-186,-51],[-50,-10],[-31,12],[-5,2]],[[2006,754],[-1,0]],[[2005,754],[-2,1],[-20,-14]],[[1986,740],[8,4]],[[1987,742],[-2,-1]],[[1985,741],[-2,-1]],[[1983,740],[-12,-7],[11,6]],[[1982,739],[9,4]],[[2022,792],[-5,-17],[-12,-21]],[[2005,754],[-1,-3],[-13,-8]],[[1999,750],[-8,-7]],[[1994,744],[11,7],[1,3]],[[2006,754],[12,20],[6,17]],[[1994,744],[48,-5],[50,10],[186,52],[39,44]],[[680,80],[-1,-1]],[[680,78],[0,1]],[[684,89],[-1,-1]],[[684,88],[0,1]],[[744,176],[19,1]],[[746,176],[-2,0]],[[923,280],[-28,-1],[-6,-1]],[[889,278],[34,1]],[[1026,309],[-6,-8]],[[1021,301],[6,7]],[[1248,532],[-12,-2]],[[1236,530],[12,2]],[[1284,561],[-12,-12]],[[1272,548],[12,13]],[[1322,567],[-8,-3]],[[1314,563],[8,3]],[[1689,753],[15,-3]],[[1704,751],[-14,3]],[[1842,820],[-3,-1]],[[1839,819],[3,1]],[[4096,2228],[-185,-75],[-149,-117],[-162,-59],[-169,-116],[-30,-48],[-118,-42],[-403,-287],[-25,-92],[-204,-146],[-73,8],[-108,-42]],[[2698,991],[-16,-6]],[[2750,1024],[-45,-28]],[[2783,1045],[-27,-17]],[[2849,1068],[-40,-7]],[[2886,1069],[-11,-6]],[[2906,1085],[-19,-15]],[[2953,1119],[-24,-22]],[[2972,1147],[-18,-26]],[[2989,1181],[-16,-32]],[[2994,1192],[-4,-9]],[[3011,1232],[-12,-27]],[[3034,1261],[-22,-27]],[[3075,1304],[-39,-41]],[[3132,1424],[-53,-115]],[[3629,1943],[-227,-299],[-64,-31],[-106,-7],[-57,-36],[-42,-144]],[[3677,2014],[-41,-60]],[[3843,2157],[-165,-140]],[[3904,2249],[-7,-6],[-43,-72]],[[3897,2242],[7,7]],[[4096,2423],[-187,-168]],[[1762,197],[1,-2]],[[1763,195],[1,2]],[[1955,642],[-33,-39],[-4,-60],[0,-64]],[[1919,479],[3,123],[34,40]],[[1919,428],[0,-7]],[[1919,421],[0,7]],[[1515,429],[-2,0]],[[1647,407],[-72,37]],[[2092,386],[0,2],[-3,-1],[1,-1],[2,0]],[[2305,3314],[-33,56],[10,125],[121,80],[83,96],[60,127],[65,41],[129,257]],[[2323,3153],[22,-51],[89,-31]],[[2334,3281],[16,-49],[-26,-76]],[[2436,3071],[71,-24],[32,-53],[-34,-353],[38,-201],[109,-83],[273,-19],[24,-18],[0,-81]],[[2888,2122],[-143,-79],[-92,-106]],[[2926,2178],[-5,-6]],[[2155,1023],[-26,-32]],[[2301,1289],[-22,-26]],[[2337,1342],[-28,-39]],[[2441,1637],[-90,-119],[-13,-175]],[[2448,1660],[-6,-21]],[[2476,1717],[-26,-55]],[[2481,1732],[-4,-13]],[[2568,1941],[-43,-169],[-38,-26]],[[2578,2811],[-69,-153],[4,-45]],[[2514,2611],[17,-243]],[[2531,2367],[1,-92]],[[2532,2273],[35,-75]],[[2569,2022],[-1,-79]],[[2569,2196],[3,-54]],[[2571,2136],[-2,-87]],[[2639,3181],[-51,-175],[-10,-188]],[[2966,4096],[-88,-218],[-123,-218],[-6,-104],[-56,-126],[-53,-248]],[[1831,407],[-2,1]],[[2024,791],[7,109],[68,58]],[[2129,959],[-14,7]],[[2117,965],[171,-122],[108,93],[105,8],[120,41]],[[2145,951],[-2,1]],[[2396,937],[-26,-11]],[[2423,943],[-2,0]],[[2434,941],[-3,1]],[[2502,945],[-2,-1]],[[2621,985],[-93,-30]],[[2309,1303],[-8,-14]],[[1740,383],[-16,4]],[[1740,383],[10,-3]],[[1785,363],[-5,3],[-26,13],[-14,4]],[[1780,366],[5,-4]],[[522,64],[-21,64],[28,19]],[[602,299],[-36,18],[97,62]],[[1082,525],[-46,-9],[-43,32],[-42,-69],[-44,-6]],[[1168,2658],[-130,-13],[-114,-49],[-51,20],[15,30],[-22,32],[65,29],[11,39],[32,4],[14,63],[40,18]],[[1035,2842],[24,74],[260,1],[126,51],[51,34],[46,100],[139,-72],[19,-35]],[[1240,2674],[-69,-15]],[[2092,2055],[-59,-28],[-27,-103],[-178,-35],[-130,322],[-140,118],[78,248],[-56,62],[-4,51],[-44,31],[-114,-95],[-66,0],[-65,52],[-43,-3]],[[1489,699],[33,32],[98,25]],[[2411,4096],[-30,-24],[-91,24]],[[2134,4096],[-27,-59],[-43,1],[-40,-77],[-329,-147],[-64,-92],[-20,-156],[-98,-98],[64,-40],[110,-22],[-20,-107]],[[1667,3297],[121,-38],[29,-47],[-50,-123],[29,-81]],[[1873,884],[109,55],[49,-4]],[[1963,1625],[16,-33],[21,14]],[[2184,1734],[-74,-40],[-190,-5],[44,-62]],[[2001,1606],[28,-16]],[[2015,1516],[-19,-27],[-40,5],[-28,-129],[13,-36],[51,28],[28,-14],[69,-111]],[[2039,1565],[-18,-36]],[[2169,1174],[-79,58]],[[2364,2067],[-37,-87],[49,-130],[-131,-108],[-59,-6]],[[2247,2234],[59,-7],[42,-52]],[[2348,794],[7,-1]],[[2862,2222],[-18,-21],[-101,8],[-151,-71],[-183,23],[-31,-40],[-29,54]],[[2856,2151],[-106,-23],[-80,-95],[-53,7],[-22,-22],[-215,58]],[[2865,2224],[10,-61]],[[3001,874],[-18,-76],[-36,59]],[[4096,2145],[-184,-94],[-40,-80],[-144,-44],[-10,-49],[63,-79],[13,-62],[-177,-89],[-134,-121],[-120,-59],[-12,-134],[39,-66],[85,-1],[-12,-30],[-113,-62],[-38,-66],[-97,44],[-60,-31],[-26,-116]],[[2348,794],[7,-1]],[[1904,385],[-50,50],[71,276]],[[1991,3109],[-61,-34]],[[2070,3136],[-56,-21]],[[2348,3228],[-124,-18],[-75,-60],[-68,-17]],[[2628,3188],[-138,67],[-139,-26]],[[1449,2618],[334,-86],[168,-156],[401,-99],[277,4],[174,92],[100,7]],[[1996,2363],[-24,7]],[[2064,2350],[-7,1]],[[2099,2339],[-17,4]],[[2093,970],[-4,1]],[[2089,971],[-3,0]],[[2089,971]],[[2089,971],[4,-1]],[[2177,2326],[-17,6],[-9,2]],[[2238,2306],[-3,1]],[[2289,2297],[-33,7]],[[2355,2277],[-33,9]],[[2358,1512],[16,-20]],[[2469,1344],[-58,100],[-53,68]],[[2381,1483],[3,-5]],[[2402,2276],[-3,0]],[[2410,1446],[1,-2]],[[2431,2277],[-13,-1]],[[2418,1433],[5,-8]],[[2430,1410],[11,-29],[6,-11]],[[2447,2279],[-1,0]],[[2463,2280],[-2,0]],[[2468,1345],[0,-1]],[[2476,1321],[1,-2]],[[2564,1079],[-16,119],[-71,123]],[[2485,1299],[1,-2]],[[2501,1270],[2,-3]],[[2522,1239],[7,-11]],[[2544,2278],[-16,1]],[[2547,1200],[1,-3]],[[2552,1146],[3,-21]],[[2558,1105],[4,-22]],[[2572,2136],[0,4]],[[2878,1059],[4,-1],[-4,1]],[[2878,1059],[-1,0]],[[2877,1059],[-14,2]],[[2890,1073],[-2,-3],[-1,-1],[-10,-10]],[[2877,1059],[-2,-3],[-1,-1],[-5,-6]],[[2870,1049],[4,6],[1,0],[3,4]],[[2878,1059],[9,10],[1,1],[3,3]],[[2922,2373],[171,-84],[321,5],[400,-49],[99,-68],[-37,45]],[[1893,278],[5,3]],[[3264,3014],[-66,27],[-165,-24]],[[1952,280],[0,-1]],[[1960,269],[22,-11]],[[1982,258],[-21,11]],[[1990,259],[-8,-1]],[[1972,327],[-8,36]],[[1872,260],[21,18]],[[2098,958],[-68,-59],[-8,-107]],[[2920,1477],[-35,-247]],[[2919,1481],[-23,169],[38,219],[41,56],[53,173]],[[3004,2255],[19,171],[53,151],[-37,175],[29,146]],[[3103,3145],[13,131],[-23,137],[184,216],[0,120],[69,3],[129,163],[71,46],[-10,119],[7,16]],[[2045,372],[-5,-2]],[[2041,367],[5,3]],[[2040,370],[1,-2]],[[1575,444],[-60,-15]],[[2682,985],[-61,0]],[[2621,985],[59,0],[2,0],[16,6],[111,70],[74,-3],[6,12],[41,26],[24,23],[125,190],[96,261],[57,36],[106,6],[64,32],[187,233],[48,77],[41,60],[0,3],[165,139],[12,15],[42,71]],[[2705,996],[-7,-5]],[[2756,1028],[-6,-4]],[[2809,1061],[-26,-16]],[[2875,1063],[-26,5]],[[2887,1070],[-1,-1]],[[2929,1097],[-23,-12]],[[2954,1121],[-1,-2]],[[2973,1149],[-1,-2]],[[2990,1183],[-1,-2]],[[2999,1205],[-5,-13]],[[3012,1234],[-1,-2]],[[3036,1263],[-2,-2]],[[3079,1309],[-4,-5]],[[3133,1426],[-1,-2]],[[3636,1954],[-7,-11]],[[3678,2017],[-1,-3]],[[3854,2171],[-11,-14]],[[3909,2255],[-5,-6]],[[3904,2249],[192,187]],[[864,87],[-5,-22]],[[859,65],[-3,-15]],[[864,87],[2,1]],[[866,88],[-2,-1]],[[864,87],[-5,-22]],[[859,65],[-4,-15]],[[1359,28],[-25,39],[-102,49],[-46,-106],[-35,-10]],[[1359,28],[37,29]],[[1359,28],[37,29]],[[1359,28],[-25,38]],[[1334,66],[-102,49]],[[1232,115],[-45,-105]],[[1187,10],[-35,-10]],[[1123,12],[-3,0]],[[1898,281],[86,57]],[[1821,334],[-16,-61]],[[1828,348],[0,59]],[[1837,419],[-9,-12]],[[827,122],[-131,117]],[[1964,363],[-1,9]],[[1771,146],[62,23],[88,-9],[19,24]],[[2247,989],[-85,-135],[-128,-92]],[[2222,1091],[-32,-86],[-58,-66],[-77,-27],[-7,-58]],[[2048,854],[7,58],[77,27],[58,65],[32,87]],[[2282,1049],[8,-38],[-43,-23],[-85,-135],[-74,-55],[-2,0]],[[2287,1114],[-9,-3]],[[2282,1049],[15,84]],[[2297,1133],[9,47]],[[2441,1158],[-2,-2]],[[2297,1135],[7,42]],[[1766,194],[24,-2]],[[2120,979],[9,11]],[[2154,1023],[35,44]],[[2189,1067],[-1,-1]],[[2192,1084],[0,-4]],[[2192,1080],[1,4]],[[2278,1263],[63,77]],[[2340,1341],[11,174],[90,121]],[[2443,1639],[6,20]],[[2450,1661],[27,56]],[[2477,1719],[5,13]],[[2487,1746],[39,25],[42,170]],[[2514,2613],[-4,45],[68,154]],[[2531,2368],[-17,242]],[[2533,2274],[-1,93]],[[2568,2199],[-35,74]],[[2569,1943],[1,79]],[[2572,2142],[-2,54]],[[2570,2090],[1,46]],[[2579,2818],[9,183],[52,179]],[[2641,3182],[52,246],[56,125],[6,103],[124,222],[88,218]],[[2923,2160],[5,-5]],[[2946,2140],[51,3]],[[3008,2221],[27,6]],[[3038,2228],[36,12]],[[3079,2239],[31,2]],[[1639,86],[-134,52],[-71,-64]],[[1435,74],[70,63]],[[1505,137],[134,-52]],[[2374,1492],[7,-9]],[[2384,1478],[26,-32]],[[2411,1444],[7,-11]],[[2423,1425],[7,-15]],[[2447,1370],[21,-25]],[[2468,1344],[8,-23]],[[2477,1321],[-8,23]],[[2477,1319],[8,-20]],[[2486,1297],[15,-27]],[[2503,1267],[19,-28]],[[2529,1228],[18,-28]],[[2548,1197],[4,-51]],[[2555,1125],[3,-20]],[[1992,361],[-97,-32]],[[3001,2234],[3,21]],[[3028,2098],[-31,45],[18,10],[-13,79]],[[3068,2898],[35,247]],[[866,88],[94,5]],[[1039,51],[16,-11]],[[1056,39],[64,-27]],[[1123,12],[34,-11]],[[866,88],[94,5]],[[1039,51],[16,-11]],[[1057,39],[63,-26]],[[1123,12],[35,-10]],[[1889,298],[30,18]],[[1731,171],[-1,-1]],[[1815,323],[-10,-50]],[[1821,335],[6,12]],[[1828,407],[10,-38]],[[1828,407],[9,11]],[[1209,2486],[104,-30],[73,8],[27,-8],[58,-44],[23,-47],[-21,-34],[-78,-4],[0,-25],[27,-13],[18,-22],[11,-30],[1,-25],[-7,-90],[-35,-46],[-53,-11],[-146,9],[-48,16],[-2,38],[53,71],[51,43],[23,27],[6,33],[-19,33],[-32,12],[-36,-5],[-33,-15],[-39,-47],[-40,-73],[-50,-64],[-68,-24],[-25,7],[-14,17],[-6,31],[3,48],[9,58],[12,22],[85,37],[23,7],[24,10],[27,23],[13,25],[7,29],[12,28],[27,21],[35,4]],[[4096,1379],[0,-150],[-28,-9],[-37,74],[27,53],[38,32]],[[2106,4096],[1990,0],[0,-1991],[-31,-35],[-42,-38],[-44,-29],[-39,-12],[-19,-29],[-19,-56],[-28,-39],[-47,21],[-2,-18],[-3,-9],[-13,-22],[-14,-94],[-122,-130],[-243,-190],[5,-46],[-18,-51],[-19,-42],[1,-18],[91,-4],[41,-14],[38,-31],[-59,1],[-44,-17],[-158,-141],[-27,-10],[-24,-2],[-23,-8],[-25,-31],[35,-90],[-26,-28],[-158,13],[-22,-16],[-27,-35],[-35,-34],[-47,-16],[-40,14],[-35,24],[-38,11],[-46,-26],[39,-16],[32,-28],[21,-37],[9,-45],[-128,70],[-68,24],[-84,9],[32,-80],[123,-68],[44,-60],[-2,-39],[-21,-31],[-47,-45],[-33,-22],[-35,10],[-106,96],[-71,128],[-43,57],[-80,44],[-59,-13],[-14,-40],[55,-40],[0,-28],[-83,20],[-88,8],[-27,-5],[-102,-46],[39,-3],[20,-15],[5,-25],[-4,-37],[-11,-40],[-14,-16],[-55,-19],[-72,-9],[-35,-12],[-14,-32],[15,-16],[75,-36],[119,0],[51,-18],[49,-45],[29,-67],[4,-71],[-25,-38],[-59,31],[-62,-50],[-214,19],[-83,-18],[-118,-117],[-21,-2],[-6,-15],[-1104,0],[-17,21],[-20,46],[10,67],[74,61],[36,45],[-11,48],[-170,0],[-12,25],[29,56],[64,86],[31,15],[148,26],[27,-7],[38,-36],[26,-10],[25,1],[44,20],[65,15],[102,66],[83,-3],[41,8],[17,34],[-6,29],[-27,61],[-6,40],[22,55],[52,43],[66,23],[60,-7],[23,-15],[15,-21],[31,-54],[26,-14],[39,-3],[75,4],[56,17],[175,112],[250,76],[121,70],[46,114],[-25,68],[-93,82],[-21,68],[-35,-11],[-68,29],[-41,43],[45,32],[-6,17],[-8,42],[-5,18],[72,12],[20,44],[-84,63],[-42,42],[65,41],[72,-8],[15,-2],[15,-28],[33,8],[63,31],[110,82],[53,56],[6,30],[-20,41],[65,93],[34,38],[42,23],[34,-1],[134,-25],[82,23],[144,93],[82,15],[-35,67],[-25,-7],[-29,-38],[-40,-22],[-52,-8],[-93,-37],[-53,-9],[-249,49],[-109,-9],[29,-91],[-492,-36],[-67,10],[-99,92],[-89,319],[-74,132],[-47,28],[-59,15],[-133,8],[-39,-11],[-62,-51],[-38,-15],[-19,6],[-50,33],[-29,12],[-104,-2],[-26,15],[-13,37],[15,30],[28,19],[30,7],[33,76],[92,86],[43,43],[59,17],[162,-4],[197,52],[61,64],[-20,52],[100,26],[81,-132],[21,17],[9,16],[3,21],[7,26],[-6,9],[-29,31],[-5,11],[8,13],[26,26],[6,13],[8,11],[14,15],[8,20],[-10,31],[-27,22],[-20,-6],[-19,-14],[-16,-2],[-34,28],[-46,101],[-79,66],[-3,11],[-9,11],[-7,15],[49,29],[31,30],[7,53],[-28,33],[-18,69],[-2,19],[114,52],[76,142],[88,-11],[146,49],[57,94],[72,49]],[[2432,1295],[34,-36],[0,-83],[65,-42],[112,-185],[145,-110],[-18,-11],[92,-81],[9,-45],[-128,70],[-152,33],[32,-80],[123,-68],[44,-60],[-23,-70],[-80,-67],[-141,106],[-114,185],[-80,44],[-59,-13],[-14,-40],[55,-40],[0,-28],[-171,28],[-129,-51],[59,-18],[-10,-102],[-176,-56],[-14,-32],[90,-52],[170,-18],[49,-45],[33,-138],[-25,-38],[-59,31],[-62,-50],[-214,19],[-83,-18],[-143,-130],[-88,65],[-61,-16],[-16,-53],[-941,0],[-17,21],[-10,113],[110,106],[-31,51],[66,77],[25,125],[110,-50],[112,31],[47,-82],[55,-12],[81,163],[65,7],[17,34],[-39,130],[22,55],[110,63],[36,-200],[161,83],[130,-83],[22,28],[-6,89],[165,105],[250,76],[121,70],[46,114],[-25,68],[-90,79],[233,2],[123,32]],[[1366,631],[2,-94],[31,-82],[48,-36],[48,45],[-67,163],[-62,4]],[[1351,415],[-82,-35],[0,84],[-56,24],[-170,-108],[-7,-84],[37,-128],[-30,-39],[-183,172],[-76,37],[-15,-137],[52,-57],[125,-15],[32,-83],[60,2],[45,71],[186,94],[95,96],[34,71],[-47,35]],[[2273,2068],[-243,-18],[10,137],[36,52],[53,24],[117,-28],[45,-72],[-47,-4],[29,-91]],[[3017,2891],[-1,84],[65,168],[54,6],[85,-73],[55,-17],[-23,-95],[-58,-51],[-177,-22]],[[2963,2057],[-115,101],[81,15],[-21,40],[61,39],[145,12],[-23,-126],[-128,-81]],[[1811,1158],[14,13],[91,-62],[-15,40],[-69,25],[35,36],[-11,-14],[43,-42],[11,12],[-27,26],[1,20],[28,-46],[-13,-13],[23,-21],[19,8],[-14,16],[48,-49],[12,11],[-108,108],[14,14],[142,-153],[-66,-70],[-158,141]]]}