{"objects":{"water":{"type":"GeometryCollection","geometries":[{"type":"Polygon","properties":{"source":"naturalearthdata.com","kind":"ocean","area":1576712559132672,"sort_rank":200,"min_zoom":0.0,"id":1},"arcs":[[6]]},{"type":"LineString","properties":{"source":"naturalearthdata.com","kind":"ocean","sort_rank":205,"boundary":true,"min_zoom":0.0,"id":54},"arcs":[7]}]},"buildings":{"type":"GeometryCollection","geometries":[]},"places":{"type":"GeometryCollection","geometries":[]},"transit":{"type":"GeometryCollection","geometries":[]},"pois":{"type":"GeometryCollection","geometries":[]},"boundaries":{"type":"GeometryCollection","geometries":[{"type":"LineString","properties":{"name:right:yo":"L\u00edby\u00e0","alt_name:left:ty":"Egipt","name:right:yi":"\u05dc\u05d9\u05d1\u05d9\u05e2","name:right:hy":"\u053c\u056b\u0562\u056b\u0561","name:left:mr":"\u0907\u091c\u093f\u092a\u094d\u0924","alt_name:left:ts":"Egypt","name:left:lb":"Egypten","alt_name:left:th":"\u0e2d\u0e35\u0e22\u0e34\u0e1b\u0e15\u0e4c","name:left:st":"Egepeta","name:right:el":"\u039b\u03b9\u03b2\u03cd\u03b7","name:right:hr":"Libija","alt_name:left:sl":"Misr","name:left:kg":"Misiri","name:left:ka":"\u10d4\u10d2\u10d5\u10d8\u10de\u10e2\u10d4","name:left:km":"\u17a2\u17c1\u17a0\u17ca\u17d2\u179f\u17b8\u1794","alt_name:left:da":"\u00c6gypten","name:left:ko":"\uc774\uc9d1\ud2b8","name:left:kn":"\u0c88\u0c9c\u0cbf\u0caa\u0ccd\u0c9f\u0ccd","name:left:ki":"Egypt","name:left:ro":"Egipt","name:left:kk":"\u041c\u044b\u0441\u044b\u0440","name:left:rm":"Egipta","name:left:ku":"Misir","name:left:kw":"Ejyp","name:left:kv":"\u0415\u0433\u0438\u043f\u0435\u0442","name:left:ss":"iGibhithe","name:left:ks":"\u0645\u0650\u0633\u0631","name:left:ru":"\u0415\u0433\u0438\u0301\u043f\u0435\u0442","name:right:ie":"Libya","name:right:id":"Libya","name:left:ky":"\u0415\u0433\u0438\u043f\u0435\u0442","name:right:ia":"Libya","name:right:bn":"\u09b2\u09bf\u09ac\u09bf\u09af\u09bc\u09be","name:right:bo":"\u0f63\u0f72\u0f0b\u0f54\u0f72\u0f0b\u0f61\u0f0d","name:right:bm":"Libya","name:right:ba":"\u041b\u0438\u0432\u0438\u044f","name:right:bg":"\u041b\u0438\u0431\u0438\u044f","name:right:be":"\u041b\u0456\u0432\u0456\u044f","alt_name:left:sq":"Misiri","name:right:br":"Libia","name:left:si":"\u0d8a\u0da2\u0dd3\u0db4\u0dca\u0dad\u0dd4\u0dc0","name:right:nn":"Libya","name:right:no":"Libya","name:right:nl":"Libi\u00eb","name:right:wa":"Libeye","name:left:sk":"Egypt","name:right:wo":"Libi","name:right:ne":"\u0932\u093f\u092c\u093f\u092f\u093e","name:right:ps":"\u0644\u06d0\u0628\u064a\u0627","name:right:hi":"\u0932\u0940\u092c\u093f\u092f\u093e","name:right:nv":"\u0141\u00edbya","name:right:pt":"L\u00edbia","kind_detail":"2","alt_name:right:vi":"Libi","name:left:ty":"\u2019Aifiti","name:right:gv":"Yn Leeb","name:left:mg":"Ejipta","name:left:mk":"\u0415\u0433\u0438\u043f\u0435\u0442","name:left:tr":"M\u0131s\u0131r","name:left:ts":"Gibita","name:left:tt":"\u041c\u0438\u0441\u044b\u0301\u0440","name:left:mn":"\u0415\u0433\u0438\u043f\u0435\u0442","name:left:ml":"\u0d08\u0d1c\u0d3f\u0d2a\u0d4d\u0d24\u0d4d","name:left:th":"\u0e1b\u0e23\u0e30\u0e40\u0e17\u0e28\u0e2d\u0e35\u0e22\u0e34\u0e1b\u0e15\u0e4c","name:left:ti":"\u130d\u1265\u133d","name:left:tk":"M\u00fcs\u00fcr","name:left:tl":"Ehipto","name:left:to":"\u02bbIsipite","name:left:ta":"\u0b8e\u0b95\u0bbf\u0baa\u0bcd\u0ba4\u0bc1","name:left:my":"\u1021\u102e\u1002\u103b\u1005\u103a\u1014\u102d\u102f\u1004\u103a\u1004\u1036","name:right:gn":"Livia","name:right:pl":"Libia","name:left:te":"\u0c08\u0c1c\u0c3f\u0c2a\u0c4d\u0c1f\u0c41","name:left:tg":"\u041c\u0438\u0441\u0440","name:left:ms":"Mesir","name:right:ka":"\u10da\u10d8\u10d1\u10d8\u10d0","name:right:pa":"\u0a32\u0a40\u0a2c\u0a40\u0a06","name:right:tr":"Libya","name:left:da":"Egypten","name:left:de":"\u00c4gypten","name:right:ga":"An Libia","name:left:dv":"\u0789\u07a8\u079e\u07b0\u0783\u07aa","name:right:ug":"\u0644\u0649\u06cb\u0649\u064a\u06d5","name:left:hi":"\u092e\u093f\u0938\u094d\u0930","name:right:lb":"Libyen","name:right:uk":"\u041b\u0456\u0432\u0456\u044f","name:left:he":"\u05de\u05e6\u05e8\u05d9\u05dd","name:right:ln":"Lib\u00eeya","name:left:mt":"E\u0121ittu","alt_name:left:is":"Egiptaland","name:left:ha":"Misra","name:right:lt":"Libija","name:right:ur":"\u0644\u06cc\u0628\u06cc\u0627","name:right:lv":"L\u012bbija","name:left:hy":"\u0535\u0563\u056b\u057a\u057f\u0578\u057d","name:right:gl":"Libia","name:left:ht":"Ejip","name:left:hu":"Egyiptom","name:left:hr":"Egipat","sort_rank":262,"name:right:gd":"Libia","osm_relation":true,"name:right:es":"Libia","name:right:sr":"\u041b\u0438\u0431\u0438\u0458\u0430","name:right:eu":"Libia","name:right:et":"Liib\u00fca","name:left:os":"\u041c\u044b\u0441\u044b\u0440","name:left:or":"\u0b07\u0b1c\u0b3f\u0b2a\u0b4d\u0b1f","name:left:om":"Ijiipti","name:right:ee":"Libya","name:left:vo":"L\u00e4g\u00fcpt\u00e4n","name:left:oc":"Egipte","name:right:eo":"Libio","name:right:en":"Libya","name:left:vi":"Ai C\u1eadp","name:left:ff":"Ejipt","name:right:tt":"\u041b\u0438\u0432\u0438\u044f","name:left:fo":"Egyptaland","name:left:fj":"Ijipta","name:left:qu":"Ihiptu","name:left:fi":"Egypti","name:left:fr":"\u00c9gypte","name:right:sm":"Libya","name:left:fy":"Egypte","alt_name:left:kg":"Ngipiti","name:right:ja":"\u30ea\u30d3\u30a2","alt_name:left:rn":"Misiri","name:right:sq":"Libia","name:right:ss":"ILibhiya","name:left:ja":"\u30a8\u30b8\u30d7\u30c8","name:right:su":"Libya","name:right:sw":"Libya","name:right:sv":"Libyen","name:right:si":"\u0dbd\u0dd2\u0db6\u0dd2\u0dba\u0dcf\u0dc0","name:right:sh":"Libija","name:right:sk":"L\u00edbya","name:right:jv":"Libya","name:right:sl":"Libija","name:right:so":"Libiya","name:right:sn":"Libya","name:right:sa":"\u0932\u093f\u092c\u093f\u092f\u093e","name:right:sc":"L\u00ecbia","name:left:jv":"Mesir","id":-1473947,"name:right:sg":"Lib\u00efi","alt_name:left:br":"Ejipt","alt_name:left:ky":"\u041c\u0438\u0441\u0438\u0440","name:right:ce":"\u041b\u0438\u0432\u0438","name:right:cy":"Libya","name:right:zh-yue":"\u5229\u6bd4\u4e9e","name:left:kl":"Egypt","alt_name:left:ee":"Egipte","name:right":"\u2d4d\u2d49\u2d31\u2d62\u2d30 \u0644\u064a\u0628\u064a\u0627","name:right:cv":"\u041b\u0438\u0432\u0438","name:right:it":"Libia","name:left:as":"\u0987\u099c\u09bf\u09aa\u09cd\u09a4","name:right:is":"L\u00edb\u00fda","name:left:az":"Misir","name:right:rw":"Libiya","name:left:af":"Egipte","name:left:ab":"\u041c\u044b\u0301\u0441\u0440\u044b","name:left:an":"Echipto","name:left:am":"\u130d\u1265\u1345","name:right:ru":"\u041b\u0438\u0432\u0438\u044f","name:left:ak":"Igyipt","name:right:io":"Libia","name:right:ca":"L\u00edbia","name:left:zh-yue":"\u57c3\u53ca","name:right:ro":"Libia","name:left:la":"Aegyptus","name:right:qu":"Libya","alt_name:left:eo":"Egipto;Egiptio","name:left:lg":"Egypt","name:left:su":"Mesir","name:left:li":"Egypte","name:left:sw":"Misri","name:left:sv":"Egypten","name:left:sq":"Egjipti","name:right:hu":"L\u00edbia","name:left:ln":"Ejipte","name:left:lo":"\u0ead\u0eb5\u0ea2\u0eb4\u0e9a","name:left:sm":"Aikupito","name:left:sl":"Egipt","name:left:so":"Masar","name:left:sn":"Egypt","name:left:lt":"Egiptas","name:left:sh":"Egipat","name:left:lv":"\u0112\u0123ipte","name:left:se":"Egypta","name:right:ha":"Libya","name:left:sg":"K\u00e2mit\u00e2","name:left:sa":"\u0908\u091c\u093f\u092a\u094d\u0924\u0926\u0947\u0936\u0903","name:right:he":"\u05dc\u05d5\u05d1","name:left:sc":"Egittu","name:right:la":"Libya","name:right:af":"Libi\u00eb","name:left:ce":"\u041c\u0438\u0441\u0430\u0440","name:right:an":"Libia","name:right:am":"\u120a\u1262\u12eb","name:left:ca":"Egipte","source":"openstreetmap.org","name:left:cy":"Yr Aifft","name:right:ar":"\u0644\u064a\u0628\u064a\u0627","name:left:cu":"\u0404\u0433\u0477\u043f\u0442\u044a","name:right:az":"Liviya","name:left:cs":"Egypt","name:right:li":"Libi\u00eb","name:right:se":"Libya","name:right:cs":"Libye","alt_name:left:ln":"Ejipiti;Misiri","alt_name:left:ba":"\u0415\u0433\u0438\u043f\u0435\u0442","name":"\u0645\u0635\u0631 - \u2d4d\u2d49\u2d31\u2d62\u2d30 \u0644\u064a\u0628\u064a\u0627","name:right:zu":"ILibiya","name:left:zu":"iGibhithe","old_name:left:fi":"Yhdistynyt arabitasavalta","name:left:zh":"\u57c3\u53ca","name:right:zh":"\u5229\u6bd4\u4e9a","name:left:za":"Aehciz","official_name:left":"\u062c\u0645\u0647\u0648\u0631\u064a\u0629 \u0645\u0635\u0631 \u0627\u0644\u0639\u0631\u0628\u064a\u0629","name:left:uz":"Misr","name:right:fr":"Libye","name:left:nv":"\u00cd\u00edjip","id:right":-192758,"name:left:uk":"\u0404\u0433\u0438\u0301\u043f\u0435\u0442","name:left:no":"Egypt","name:left:nl":"Egypte","name:right:fa":"\u0644\u06cc\u0628\u06cc","name:right:fo":"Libya","name:left:ne":"\u092e\u093f\u0936\u094d\u0930","name:left:ug":"\u0645\u0649\u0633\u0649\u0631","name:left:na":"Idjipt","name:left:eo":"Egiptujo","name:left:en":"Egypt","name:left:el":"\u0391\u03af\u03b3\u03c5\u03c0\u03c4\u03bf\u03c2","name:left:ee":"Edzipti","name:left:ig":"Egypt","name:left:es":"Egipto","name:right:kk":"\u041b\u0438\u0432\u0438\u044f","name:left:eu":"Egipto","name:left:et":"Egiptus","name:right:zh-min-nan":"Libya","name:right:oc":"Libia","name:right:kl":"Libya","alt_name:left:ce":"\u0415\u0433\u0438\u0301\u043f\u0435\u0442","name:left:ia":"Egypto","name:right:bs":"Libija","name:left:sr":"\u0415\u0433\u0438\u043f\u0430\u0442","name:right:kn":"\u0cb2\u0cbf\u0cac\u0cbf\u0caf\u0cbe","name:right:uz":"Liviya","name:right:os":"\u041b\u0438\u0432\u0438","name:right:or":"\u0b32\u0b3f\u0b2c\u0b3f\u0b06","name:right:tl":"Libya","name:right:ku":"L\u00eebya","name:left:wa":"Edjipe","min_zoom":8.0,"name:right:te":"\u0c32\u0c3f\u0c2c\u0c3f\u0c2f\u0c3e","name:left:wo":"Isipt","name:left:ga":"An \u00c9igipt","name:right:tg":"\u041b\u0438\u0431\u0438\u044f","name:left:gd":"An \u00c8ipheit","name:left:gl":"Exipto","name:left:gn":"Ehipto","name:left:gu":"\u0a87\u0a9c\u0abf\u0aaa\u0acd\u0aa4","name:left:gv":"Yn Egypt","name:left":"\u0645\u0635\u0631","name:right:mk":"\u041b\u0438\u0431\u0438\u0458\u0430","name:right:mn":"\u041b\u0438\u0432\u0438","name:right:ml":"\u0d32\u0d3f\u0d2c\u0d3f\u0d2f","name:right:vo":"L\u00fcb\u00e4n","name:right:mg":"Libia","alt_name:left:wo":"Ejipt","name:right:vi":"Libya","name:right:my":"\u101c\u1005\u103a\u1017\u103b\u102c\u1038\u1014\u102d\u102f\u1004\u103a\u1004\u1036","name:right:ms":"Libya","name:right:mr":"\u0932\u0940\u092c\u093f\u092f\u093e","name:right:fy":"Lybje","name:right:mt":"Libja","name:left:nn":"Egypt","kind":"country","alt_name:left:gu":"\u0aae\u0abf\u0ab8\u0ab0","alt_name:left:gv":"Eajipt","name:left:tw":"Egypt","alt_name:left:gd":"\u00c8iphit","name:left:br":"Egipt","name:left:bs":"Egipat","int_name:left":"Egypt \u0645\u0635\u0631","name:left:ba":"\u041c\u044b\u0441\u044b\u0440","name:left:bg":"\u0415\u0433\u0438\u043f\u0435\u0442","name:left:be":"\u0415\u0433\u0456\u0301\u043f\u0435\u0442","name:left:bn":"\u09ae\u09bf\u09b6\u09b0","name:left:bo":"\u0f68\u0f60\u0f72\u0f0b\u0f45\u0f72\u0f0d","name:left:bm":"Misra","name:left:yo":"\u1eb8\u0301g\u00edpt\u00ec","name:left:yi":"\u05e2\u05d2\u05d9\u05e4\u05d8\u05df","id:left":-1473947,"name:right:fi":"Libya","name:left:io":"Egiptia","name:left:pa":"\u0a2e\u0a3f\u0a38\u0a30","name:right:kg":"Libia","name:left:pl":"Egipt","name:left:ie":"Egiptia","name:left:id":"Mesir","name:left:pi":"\u0908\u091c\u093f\u092a\u094d\u091f","name:right:ko":"\ub9ac\ube44\uc544","name:right:ts":"Libiya","name:left:pt":"Egito","alt_name:left:qu":"Misir","name:right:th":"\u0e1b\u0e23\u0e30\u0e40\u0e17\u0e28\u0e25\u0e34\u0e40\u0e1a\u0e35\u0e22","name:right:ti":"\u120a\u1262\u12eb","name:right:kw":"Libi","name:right:tk":"Liwi\u00fda","name:right:ky":"\u041b\u0438\u0432\u0438\u044f","name:left:zh-min-nan":"Ai-ki\u030dp","name:left:it":"Egitto","name:left:is":"Egyptaland","name:right:ta":"\u0bb2\u0bbf\u0baa\u0bbf\u0baf\u0bbe","alt_name:left:as":"\u09ae\u09bf\u099b\u09f0","name:right:de":"Libyen","name:right:da":"Libyen","name:left:rn":"Egipto","maritime_boundary":true,"name:right:dv":"\u078d\u07a9\u0784\u07a8\u0794\u07a7","name:right:ht":"Libi"},"arcs":[0]},{"type":"LineString","properties":{"name:kg":"Misiri","alt_name:ce":"\u0415\u0433\u0438\u0301\u043f\u0435\u0442","name:ty":"\u2019Aifiti","name:ka":"\u10d4\u10d2\u10d5\u10d8\u10de\u10e2\u10d4","name:tr":"M\u0131s\u0131r","name:ts":"Gibita","name:km":"\u17a2\u17c1\u17a0\u17ca\u17d2\u179f\u17b8\u1794","name:kl":"Egypt","name:kk":"\u041c\u044b\u0441\u044b\u0440","name:tw":"Egypt","name:tt":"\u041c\u0438\u0441\u044b\u0301\u0440","name:kw":"Ejyp","name:tk":"M\u00fcs\u00fcr","name:ku":"Misir","name:ti":"\u130d\u1265\u133d","name:ks":"\u0645\u0650\u0633\u0631","name:to":"\u02bbIsipite","name:tl":"Ehipto","name:ce":"\u041c\u0438\u0441\u0430\u0440","name:ta":"\u0b8e\u0b95\u0bbf\u0baa\u0bcd\u0ba4\u0bc1","name:tg":"\u041c\u0438\u0441\u0440","name:ky":"\u0415\u0433\u0438\u043f\u0435\u0442","name:te":"\u0c08\u0c1c\u0c3f\u0c2a\u0c4d\u0c1f\u0c41","alt_name:ts":"Egypt","alt_name:ln":"Ejipiti;Misiri","name:cy":"Yr Aifft","name:qu":"Ihiptu","alt_name:ty":"Egipt","name:de":"\u00c4gypten","source":"openstreetmap.org","name:kn":"\u0c88\u0c9c\u0cbf\u0caa\u0ccd\u0c9f\u0ccd","alt_name:th":"\u0e2d\u0e35\u0e22\u0e34\u0e1b\u0e15\u0e4c","name:dv":"\u0789\u07a8\u079e\u07b0\u0783\u07aa","name:cu":"\u0404\u0433\u0477\u043f\u0442\u044a","alt_name:da":"\u00c6gypten","name:lv":"\u0112\u0123ipte","name:lt":"Egiptas","name:uz":"Misr","name:cs":"Egypt","name:lb":"Egypten","name:la":"Aegyptus","name:ki":"Egypt","name:uk":"\u0404\u0433\u0438\u0301\u043f\u0435\u0442","name:ug":"\u0645\u0649\u0633\u0649\u0631","name:li":"Egypte","name:ln":"Ejipte","name:lo":"\u0ead\u0eb5\u0ea2\u0eb4\u0e9a","name:el":"\u0391\u03af\u03b3\u03c5\u03c0\u03c4\u03bf\u03c2","name:eo":"Egiptujo","name:en":"Egypt","name":"\u0645\u0635\u0631","name:kv":"\u0415\u0433\u0438\u043f\u0435\u0442","name:ee":"Edzipti","name:th":"\u0e1b\u0e23\u0e30\u0e40\u0e17\u0e28\u0e2d\u0e35\u0e22\u0e34\u0e1b\u0e15\u0e4c","name:eu":"Egipto","name:et":"Egiptus","name:es":"Egipto","name:ia":"Egypto","name:rm":"Egipta","name:rn":"Egipto","name:az":"Misir","name:ie":"Egiptia","name:id":"Mesir","name:ig":"Egypt","name:as":"\u0987\u099c\u09bf\u09aa\u09cd\u09a4","name:zh-min-nan":"Ai-ki\u030dp","name:io":"Egiptia","name:ak":"Igyipt","name:am":"\u130d\u1265\u1345","name:it":"Egitto","name:an":"Echipto","name:ru":"\u0415\u0433\u0438\u0301\u043f\u0435\u0442","name:ab":"\u041c\u044b\u0301\u0441\u0440\u044b","name:af":"Egipte","name:zu":"iGibhithe","kind_detail":"2","name:za":"Aehciz","name:zh-yue":"\u57c3\u53ca","alt_name:rn":"Misiri","name:zh":"\u57c3\u53ca","name:so":"Masar","name:sn":"Egypt","name:sm":"Aikupito","name:sl":"Egipt","name:sk":"Egypt","alt_name:ba":"\u0415\u0433\u0438\u043f\u0435\u0442","name:si":"\u0d8a\u0da2\u0dd3\u0db4\u0dca\u0dad\u0dd4\u0dc0","name:sh":"Egipat","name:sg":"K\u00e2mit\u00e2","name:se":"Egypta","name:sc":"Egittu","name:br":"Egipt","name:bs":"Egipat","name:bm":"Misra","name:bn":"\u09ae\u09bf\u09b6\u09b0","name:bo":"\u0f68\u0f60\u0f72\u0f0b\u0f45\u0f72\u0f0d","name:sa":"\u0908\u091c\u093f\u092a\u094d\u0924\u0926\u0947\u0936\u0903","alt_name:br":"Ejipt","name:sw":"Misri","name:be":"\u0415\u0433\u0456\u0301\u043f\u0435\u0442","name:su":"Mesir","name:bg":"\u0415\u0433\u0438\u043f\u0435\u0442","name:ss":"iGibhithe","name:sr":"\u0415\u0433\u0438\u043f\u0430\u0442","name:sq":"Egjipti","alt_name:sq":"Misiri","alt_name:kg":"Ngipiti","name:jv":"Mesir","alt_name:ky":"\u041c\u0438\u0441\u0438\u0440","alt_name:sl":"Misr","name:pt":"Egito","name:da":"Egypten","name:om":"Ijiipti","name:oc":"Egipte","alt_name:gd":"\u00c8iphit","min_zoom":8.0,"name:ro":"Egipt","name:ko":"\uc774\uc9d1\ud2b8","name:pa":"\u0a2e\u0a3f\u0a38\u0a30","name:os":"\u041c\u044b\u0441\u044b\u0440","name:or":"\u0b07\u0b1c\u0b3f\u0b2a\u0b4d\u0b1f","name:pl":"Egipt","alt_name:gv":"Eajipt","alt_name:gu":"\u0aae\u0abf\u0ab8\u0ab0","name:pi":"\u0908\u091c\u093f\u092a\u094d\u091f","name:st":"Egepeta","sort_rank":262,"name:ba":"\u041c\u044b\u0441\u044b\u0440","osm_relation":true,"alt_name:as":"\u09ae\u09bf\u099b\u09f0","name:hi":"\u092e\u093f\u0938\u094d\u0930","name:sv":"Egypten","name:he":"\u05de\u05e6\u05e8\u05d9\u05dd","name:ha":"Misra","name:ja":"\u30a8\u30b8\u30d7\u30c8","name:hy":"\u0535\u0563\u056b\u057a\u057f\u0578\u057d","name:ht":"Ejip","name:hu":"Egyiptom","name:hr":"Egipat","kind":"country","name:is":"Egyptaland","alt_name:is":"Egiptaland","name:yi":"\u05e2\u05d2\u05d9\u05e4\u05d8\u05df","name:yo":"\u1eb8\u0301g\u00edpt\u00ec","name:mt":"E\u0121ittu","alt_name:eo":"Egipto;Egiptio","name:ms":"Mesir","name:mr":"\u0907\u091c\u093f\u092a\u094d\u0924","alt_name:ee":"Egipte","name:my":"\u1021\u102e\u1002\u103b\u1005\u103a\u1014\u102d\u102f\u1004\u103a\u1004\u1036","official_name":"\u062c\u0645\u0647\u0648\u0631\u064a\u0629 \u0645\u0635\u0631 \u0627\u0644\u0639\u0631\u0628\u064a\u0629","int_name":"Egypt \u0645\u0635\u0631","name:mg":"Ejipta","name:ml":"\u0d08\u0d1c\u0d3f\u0d2a\u0d4d\u0d24\u0d4d","name:vi":"Ai C\u1eadp","name:mn":"\u0415\u0433\u0438\u043f\u0435\u0442","id":-1473947,"name:mk":"\u0415\u0433\u0438\u043f\u0435\u0442","name:vo":"L\u00e4g\u00fcpt\u00e4n","old_name:fi":"Yhdistynyt arabitasavalta","name:ff":"Ejipt","name:fi":"Egypti","name:fj":"Ijipta","name:fo":"Egyptaland","name:fr":"\u00c9gypte","name:ca":"Egipte","name:fy":"Egypte","alt_name:qu":"Misir","name:nl":"Egypte","name:nn":"Egypt","name:no":"Egypt","name:na":"Idjipt","name:ne":"\u092e\u093f\u0936\u094d\u0930","name:wa":"Edjipe","name:wo":"Isipt","name:nv":"\u00cd\u00edjip","name:ga":"An \u00c9igipt","name:gd":"An \u00c8ipheit","name:gn":"Ehipto","name:gl":"Exipto","maritime_boundary":true,"alt_name:wo":"Ejipt","name:gv":"Yn Egypt","name:gu":"\u0a87\u0a9c\u0abf\u0aaa\u0acd\u0aa4","name:lg":"Egypt"},"arcs":[1]},{"type":"LineString","properties":{"name:kg":"Libia","name:ka":"\u10da\u10d8\u10d1\u10d8\u10d0","name:ko":"\ub9ac\ube44\uc544","name:cv":"\u041b\u0438\u0432\u0438","name:kl":"Libya","name:cs":"Libye","name:tt":"\u041b\u0438\u0432\u0438\u044f","name:kw":"Libi","name:tk":"Liwi\u00fda","name:ku":"L\u00eebya","name:ti":"\u120a\u1262\u12eb","name:tl":"Libya","name:ce":"\u041b\u0438\u0432\u0438","name:ta":"\u0bb2\u0bbf\u0baa\u0bbf\u0baf\u0bbe","name:tg":"\u041b\u0438\u0431\u0438\u044f","name:ca":"L\u00edbia","name:te":"\u0c32\u0c3f\u0c2c\u0c3f\u0c2f\u0c3e","name:cy":"Libya","name:qu":"Libya","name:da":"Libyen","name:de":"Libyen","source":"openstreetmap.org","name:kn":"\u0cb2\u0cbf\u0cac\u0cbf\u0caf\u0cbe","name:dv":"\u078d\u07a9\u0784\u07a8\u0794\u07a7","name:lv":"L\u012bbija","name:lt":"Libija","name:uz":"Liviya","name:kk":"\u041b\u0438\u0432\u0438\u044f","name:ur":"\u0644\u06cc\u0628\u06cc\u0627","name:lb":"Libyen","name:la":"Libya","name:uk":"\u041b\u0456\u0432\u0456\u044f","name:ug":"\u0644\u0649\u06cb\u0649\u064a\u06d5","name:li":"Libi\u00eb","name:ln":"Lib\u00eeya","name:el":"\u039b\u03b9\u03b2\u03cd\u03b7","name:eo":"Libio","name:en":"Libya","name":"\u2d4d\u2d49\u2d31\u2d62\u2d30 \u0644\u064a\u0628\u064a\u0627","name:ee":"Libya","name:th":"\u0e1b\u0e23\u0e30\u0e40\u0e17\u0e28\u0e25\u0e34\u0e40\u0e1a\u0e35\u0e22","name:eu":"Libia","name:et":"Liib\u00fca","name:es":"Libia","name:ia":"Libya","name:az":"Liviya","name:ie":"Libya","name:id":"Libya","name:ar":"\u0644\u064a\u0628\u064a\u0627","name:io":"Libia","name:is":"L\u00edb\u00fda","name:am":"\u120a\u1262\u12eb","name:it":"Libia","name:an":"Libia","name:ru":"\u041b\u0438\u0432\u0438\u044f","name:rw":"Libiya","name:af":"Libi\u00eb","name:zu":"ILibiya","kind_detail":"2","name:ky":"\u041b\u0438\u0432\u0438\u044f","name:zh-yue":"\u5229\u6bd4\u4e9e","name:zh":"\u5229\u6bd4\u4e9a","name:so":"Libiya","name:sn":"Libya","name:sm":"Libya","name:sl":"Libija","name:sk":"L\u00edbya","name:ja":"\u30ea\u30d3\u30a2","name:si":"\u0dbd\u0dd2\u0db6\u0dd2\u0dba\u0dcf\u0dc0","name:sh":"Libija","name:sg":"Lib\u00efi","name:se":"Libya","name:sc":"L\u00ecbia","name:br":"Libia","name:bs":"Libija","name:bm":"Libya","name:bn":"\u09b2\u09bf\u09ac\u09bf\u09af\u09bc\u09be","name:bo":"\u0f63\u0f72\u0f0b\u0f54\u0f72\u0f0b\u0f61\u0f0d","name:sa":"\u0932\u093f\u092c\u093f\u092f\u093e","name:sw":"Libya","name:be":"\u041b\u0456\u0432\u0456\u044f","name:su":"Libya","name:bg":"\u041b\u0438\u0431\u0438\u044f","name:ss":"ILibhiya","name:ba":"\u041b\u0438\u0432\u0438\u044f","name:sq":"Libia","name:jv":"Libya","name:pt":"L\u00edbia","name:ps":"\u0644\u06d0\u0628\u064a\u0627","name:oc":"Libia","min_zoom":8.0,"name:ro":"Libia","name:zh-min-nan":"Libya","name:os":"\u041b\u0438\u0432\u0438","name:or":"\u0b32\u0b3f\u0b2c\u0b3f\u0b06","name:pl":"Libia","sort_rank":262,"name:sr":"\u041b\u0438\u0431\u0438\u0458\u0430","osm_relation":true,"name:pa":"\u0a32\u0a40\u0a2c\u0a40\u0a06","name:tr":"Libya","name:hi":"\u0932\u0940\u092c\u093f\u092f\u093e","name:sv":"Libyen","name:he":"\u05dc\u05d5\u05d1","name:ha":"Libya","name:hy":"\u053c\u056b\u0562\u056b\u0561","name:ht":"Libi","name:hu":"L\u00edbia","name:hr":"Libija","kind":"country","name:ts":"Libiya","name:yi":"\u05dc\u05d9\u05d1\u05d9\u05e2","name:yo":"L\u00edby\u00e0","name:mt":"Libja","name:ms":"Libya","name:mr":"\u0932\u0940\u092c\u093f\u092f\u093e","name:my":"\u101c\u1005\u103a\u1017\u103b\u102c\u1038\u1014\u102d\u102f\u1004\u103a\u1004\u1036","name:mg":"Libia","name:vi":"Libya","name:ml":"\u0d32\u0d3f\u0d2c\u0d3f\u0d2f","name:mn":"\u041b\u0438\u0432\u0438","id":-192758,"name:mk":"\u041b\u0438\u0431\u0438\u0458\u0430","name:vo":"L\u00fcb\u00e4n","name:fa":"\u0644\u06cc\u0628\u06cc","name:fi":"Libya","name:fo":"Libya","alt_name:vi":"Libi","name:fr":"Libye","name:fy":"Lybje","name:nl":"Libi\u00eb","name:nn":"Libya","name:no":"Libya","name:ne":"\u0932\u093f\u092c\u093f\u092f\u093e","name:wa":"Libeye","name:wo":"Libi","name:nv":"\u0141\u00edbya","name:ga":"An Libia","name:gd":"Libia","name:gn":"Livia","name:gl":"Libia","maritime_boundary":true,"name:gv":"Yn Leeb"},"arcs":[2]},{"type":"LineString","properties":{"name":"\u0645\u0637\u0631\u0648\u062d - \u0627\u0644\u0628\u0637\u0646\u0627\u0646","name:right:uk":"\u0415\u043b\u044c-\u0411\u0443\u0442\u043d\u0430\u043d","name:right:it":"Distretto di Al-Butnan","id:right":-2060171,"min_zoom":8.0,"name:left:de":"Gouvernement Matruh","name:left:ru":"\u043c\u0443\u0445\u0430\u0444\u0430\u0437\u0430 \u041c\u0430\u0442\u0440\u0443\u0445","name:left:hu":"Matr\u00fah korm\u00e1nyz\u00f3s\u00e1g","name:right:ru":"\u042d\u043b\u044c-\u0411\u0443\u0442\u043d\u0430\u043d","name:right:pl":"Al-Butnan","id":-3061826,"osm_relation":true,"name:right":"\u0627\u0644\u0628\u0637\u0646\u0627\u0646","kind":"region","name:left:en":"Matrouh Governorate","sort_rank":256,"kind_detail":"4","int_name:right":"Butnan","name:right:en":"Butnan","source":"openstreetmap.org","maritime_boundary":true,"id:left":-3061826,"name:left":"\u0645\u0637\u0631\u0648\u062d"},"arcs":[3]},{"type":"LineString","properties":{"kind":"region","name:en":"Matrouh Governorate","name":"\u0645\u0637\u0631\u0648\u062d","sort_rank":256,"kind_detail":"4","min_zoom":8.0,"name:de":"Gouvernement Matruh","source":"openstreetmap.org","maritime_boundary":true,"name:ru":"\u043c\u0443\u0445\u0430\u0444\u0430\u0437\u0430 \u041c\u0430\u0442\u0440\u0443\u0445","name:hu":"Matr\u00fah korm\u00e1nyz\u00f3s\u00e1g","id":-3061826,"osm_relation":true},"arcs":[4]},{"type":"LineString","properties":{"kind":"region","name:en":"Butnan","name":"\u0627\u0644\u0628\u0637\u0646\u0627\u0646","sort_rank":256,"kind_detail":"4","min_zoom":8.0,"source":"openstreetmap.org","maritime_boundary":true,"int_name":"Butnan","name:it":"Distretto di Al-Butnan","name:uk":"\u0415\u043b\u044c-\u0411\u0443\u0442\u043d\u0430\u043d","name:ru":"\u042d\u043b\u044c-\u0411\u0443\u0442\u043d\u0430\u043d","name:pl":"Al-Butnan","id":-2060171,"osm_relation":true},"arcs":[5]}]},"roads":{"type":"GeometryCollection","geometries":[{"type":"MultiLineString","properties":{"sort_rank":380,"kind_detail":"primary","min_zoom":8.0,"kind":"major_road","source":"openstreetmap.org"},"arcs":[[8],[9],[10],[11]]},{"type":"LineString","properties":{"source":"openstreetmap.org","kind":"major_road","name:en":"Siwa Road","sort_rank":381,"kind_detail":"trunk","ref":"19","min_zoom":8.0},"arcs":[12]},{"type":"MultiLineString","properties":{"sort_rank":381,"source":"openstreetmap.org","min_zoom":8.0,"kind":"major_road","kind_detail":"trunk"},"arcs":[[13],[14],[15],[16]]},{"type":"MultiLineString","properties":{"source":"openstreetmap.org","kind":"major_road","sort_rank":380,"kind_detail":"primary","ref":"01","min_zoom":8.0},"arcs":[[17],[18],[19],[20],[21],[22]]},{"type":"MultiLineString","properties":{"source":"openstreetmap.org","kind":"major_road","name:en":"North Coast Road","sort_rank":381,"kind_detail":"trunk","ref":"01","min_zoom":8.0},"arcs":[[23],[24],[25],[26],[27],[28],[29],[30],[31],[32],[33],[34],[35],[36]]}]},"earth":{"type":"GeometryCollection","geometries":[{"type":"Polygon","properties":{"sort_rank":10,"source":"naturalearthdata.com","min_zoom":0.0,"kind":"earth","area":76138547394},"arcs":[[37]]}]},"landuse":{"type":"GeometryCollection","geometries":[{"type":"MultiPolygon","properties":{"source":"openstreetmap.org","kind":"military","tier":3,"area":125479207,"sort_rank":45,"min_zoom":8.0},"arcs":[[[38]],[[39]],[[40]]]},{"type":"MultiPolygon","properties":{"source":"naturalearthdata.com","kind":"urban_area","name":"","area":159198992,"sort_rank":11,"min_zoom":4.0},"arcs":[[[41]]]}]}},"type":"Topology","transform":{"translate":[25.3125,30.7512777763],"scale":[0.0003433228,0.0002931847]},"arcs":[[[188,3310],[-188,-55]],[[4096,3283],[-1235,294],[-1237,113],[-1436,-380]],[[188,3310],[-188,529]],[[188,3310],[-188,-55]],[[4096,3283],[-1235,294],[-1237,113],[-1436,-380]],[[188,3310],[-188,529]],[[4096,2480],[-104,-7],[-46,16],[-48,26],[-841,114],[-1151,322],[-286,15],[-130,-20],[-546,-185],[-474,-137],[-85,-10],[-71,-19],[-54,-30],[-35,6],[-34,16],[-28,9],[-133,-20],[-30,0],[0,1520],[4096,0],[0,-1616]],[[4096,2480],[-104,-7],[-46,16],[-48,26],[-841,114],[-1151,322],[-286,15],[-130,-20],[-546,-185],[-474,-137],[-85,-10],[-71,-19],[-54,-30],[-35,6],[-34,16],[-28,9],[-133,-20],[-30,0]],[[1779,2928],[5,3]],[[1841,2901],[-14,7]],[[3738,2224],[8,85]],[[3744,2313],[23,198],[329,-18]],[[4096,357],[-72,-42],[-68,-140],[-133,-26],[-53,-149]],[[346,2430],[0,1]],[[1822,2899],[0,1]],[[3607,2269],[139,42],[50,-14],[72,-120]],[[3869,2178],[-72,120],[-51,13],[-139,-41]],[[1827,2908]],[[1827,2908],[-40,24],[-3,-2]],[[1784,2930],[-71,-31]],[[1849,2897],[-22,11]],[[1827,2908],[-43,22]],[[1784,2930],[0,1]],[[0,2461],[284,-43],[242,31],[125,60],[47,60],[327,63],[22,10]],[[1047,2642],[304,133]],[[1351,2775],[128,55],[244,69]],[[1723,2899],[4,1],[65,1]],[[1792,2901],[40,0],[21,-8]],[[1853,2893],[64,-24],[266,-84]],[[2183,2785],[261,-83],[315,-51],[181,-131],[497,-209],[659,-221]],[[4096,2090],[-603,213],[-552,218],[-184,131],[-318,53],[-146,59],[-110,21]],[[2183,2785],[-114,22],[-216,86]],[[1853,2893],[-21,9],[-40,-1]],[[1792,2901],[-69,-2]],[[1723,2899],[-10,0],[-237,-69],[-125,-55]],[[1351,2775],[-293,-131],[-11,-2]],[[1047,2642],[-350,-72],[-45,-60],[-127,-60],[-240,-31],[-285,43]],[[0,0],[0,2576],[30,0],[133,20],[28,-9],[34,-16],[35,-6],[54,30],[71,19],[85,10],[474,137],[546,185],[130,20],[286,-15],[1151,-322],[841,-114],[48,-26],[46,-16],[104,7],[0,-2480],[-4096,0]],[[1511,916],[13,94],[74,42],[71,-79],[-39,-130],[-108,44],[-11,29]],[[1573,2498],[122,18],[10,36],[-35,19],[-20,69],[14,40],[68,3],[-3,-117],[-40,-86],[39,-127],[-91,-12],[-64,157]],[[316,1256],[243,138],[64,-37],[-28,-1],[-137,-225],[-41,-24],[-63,45],[-4,62],[-34,42]],[[3361,130],[-83,36],[-34,82],[66,146],[97,-2],[71,-57],[19,-85],[-57,-84],[-79,-36]]]}