{"objects":{"water":{"type":"GeometryCollection","geometries":[{"type":"Polygon","properties":{"source":"naturalearthdata.com","kind":"ocean","area":1576712559132672,"sort_rank":200,"min_zoom":0.0,"id":1},"arcs":[[5]]},{"type":"LineString","properties":{"source":"naturalearthdata.com","kind":"ocean","sort_rank":205,"boundary":true,"min_zoom":0.0,"id":44},"arcs":[6]}]},"buildings":{"type":"GeometryCollection","geometries":[]},"places":{"type":"GeometryCollection","geometries":[{"type":"Point","properties":{"kind":"locality","name":"Port Elizabeth","kind_detail":"city","name:ar":"\u0628\u0648\u0631\u062a \u0625\u0644\u064a\u0632\u0627\u0628\u064a\u062b","name:pt":"Porto Elizabeth","source":"openstreetmap.org","min_zoom":8.0,"name:xh":"Ibhayi","name:ru":"\u041f\u043e\u0440\u0442-\u042d\u043b\u0438\u0437\u0430\u0431\u0435\u0442","id":25470100,"population":1050000},"coordinates":[898,1210]},{"type":"Point","properties":{"kind":"locality","name":"Uitenhage","kind_detail":"town","source":"openstreetmap.org","min_zoom":8.0,"name:ru":"\u042d\u0439\u0442\u0435\u043d\u0445\u0430\u0445\u0435","id":946025154,"population":103639},"coordinates":[244,1890]}]},"transit":{"type":"GeometryCollection","geometries":[{"type":"LineString","properties":{"osm_relation":true,"source":"openstreetmap.org","kind":"train","name":"Johannesburg\u2013Port Elizabeth","sort_rank":275,"min_zoom":6.0,"operator":"Shosholoza Meyl"},"arcs":[2]},{"type":"LineString","properties":{"kind":"train","name":"Port Elizabeth Metrorail","sort_rank":275,"source":"openstreetmap.org","min_zoom":6.0,"operator":"Metrorail","id":-952460,"osm_relation":true},"arcs":[3]},{"type":"LineString","properties":{"source":"openstreetmap.org","kind":"train","name":"Apple Express","sort_rank":275,"min_zoom":6.0,"osm_relation":true,"id":-455465},"arcs":[4]}]},"pois":{"type":"GeometryCollection","geometries":[{"type":"Point","properties":{"source":"openstreetmap.org","kind":"nature_reserve","name":"Shamwari Private Game Reserve","area":216890000,"tier":2,"min_zoom":8.41,"id":218396421},"coordinates":[2251,3057]},{"type":"Point","properties":{"source":"openstreetmap.org","kind":"prison","name":"St Albans Prison","area":6710020,"min_zoom":8.47,"id":444917484},"coordinates":[104,1423]}]},"boundaries":{"type":"GeometryCollection","geometries":[{"type":"LineString","properties":{"name:kg":"Afelika ya Sudi","name:ka":"\u10e1\u10d0\u10db\u10ee\u10e0\u10d4\u10d7 \u10d0\u10e4\u10e0\u10d8\u10d9\u10d0","name:tr":"G\u00fcney Afrika","name:ts":"Afrika-Dzonga","name:km":"\u17a2\u17b6\u1796\u17d2\u179a\u17b7\u1780\u200b\u1797\u17b6\u1782\u200b\u1781\u17b6\u1784\u200b\u178f\u17d2\u1794\u17bc\u1784","name:kk":"\u041e\u04a3\u0442\u04af\u0441\u0442\u0456\u043a \u0410\u0444\u0440\u0438\u043a\u0430","name:tt":"\u041a\u04e9\u043d\u044c\u044f\u043a \u0410\u0444\u0440\u0438\u043a\u0430","name:kw":"Afrika Dhyhow","name:tk":"G\u00fcnorta Afrika","name:th":"\u0e41\u0e2d\u0e1f\u0e23\u0e34\u0e01\u0e32\u0e43\u0e15\u0e49","name:ti":"\u12f0\u1261\u1265 \u12a0\u134d\u122a\u12ab","name:tn":"Aferika Borwa","name:to":"\u02bbAfilika tonga","name:tl":"Timog Aprika","name:ce":"\u041a\u044a\u0438\u043b\u0431\u0430-\u0410\u0444\u0440\u0438\u043a\u0438\u043d \u0420\u0435\u0441\u043f\u0443\u0431\u043b\u0438\u043a\u0430","name:ta":"\u0ba4\u0bc6\u0ba9\u0bcd \u0b86\u0baa\u0bcd\u0baa\u0bbf\u0bb0\u0bbf\u0b95\u0bcd\u0b95\u0bbe","name:tg":"\u0410\u0444\u0440\u0438\u049b\u043e\u0438 \u04b6\u0430\u043d\u0443\u0431\u04e3","name:ky":"\u0410\u0444\u0440\u0438\u043a\u0430\u0430\u043d\u0441 \u0442\u0438\u043b\u0438","name:te":"\u0c26\u0c15\u0c4d\u0c37\u0c3f\u0c23 \u0c06\u0c2b\u0c4d\u0c30\u0c3f\u0c15\u0c3e \u0c30\u0c3e\u0c1c\u0c4d\u0c2f\u0c02","alt_name:ln":"Afr\u00edka ya S\u00fadi","name:cy":"De Affrica","name:hr":"Ju\u017ena Afrika","name:da":"Sydafrika","name:de":"S\u00fcdafrika","name:dz":"\u0f66\u0f71\u0f60\u0f74\u0f50\u0f0b \u0f68\u0f55\u0f0b\u0f62\u0f72\u0f0b\u0f40","source":"openstreetmap.org","name:kn":"\u0ca6\u0c95\u0ccd\u0cb7\u0cbf\u0ca3 \u0c86\u0cab\u0ccd\u0cb0\u0cbf\u0c95\u0cbe","name:dv":"\u078b\u07ac\u0786\u07aa\u0782\u07aa \u0787\u07ac\u078a\u07b0\u0783\u07a8\u0786\u07a7","name:lv":"Dienvid\u0101frika","name:lt":"Piet\u0173 Afrika","name:uz":"Janubiy Afrika","name:cs":"Jihoafrick\u00e1 republika","name:ur":"\u062c\u0646\u0648\u0628\u06cc \u0627\u0641\u0631\u06cc\u0642\u06c1","name:lb":"S\u00fcdafrika","name:la":"Africa Australis","name:ki":"Ab\u0129rika Kusini","name:uk":"\u041f\u0456\u0432\u0434\u0435\u043d\u043d\u0430 \u0410\u0444\u0440\u0438\u043a\u0430","name:ug":"\u062c\u06d5\u0646\u06c7\u0628\u0649\u064a \u0626\u0627\u0641\u0631\u0649\u0642\u0627","name:li":"Zuud-Afrika","name:ln":"Sidafr\u00edka","name:lo":"\u0ead\u0eb2\u0e9f\u0eb0\u0ea5\u0eb4\u0e81\u0eb2\u0ec3\u0e95\u0ec9","name:el":"\u039d\u03cc\u03c4\u03b9\u03b1 \u0391\u03c6\u03c1\u03b9\u03ba\u03ae","name:eo":"Sud-Afriko","name":"South Africa","name:kv":"\u041b\u0443\u043d\u0432\u044b\u0432 \u0410\u0444\u0440\u0438\u043a\u0430\u0441\u0430 \u0420\u0435\u0441\u043f\u0443\u0431\u043b\u0438\u043a\u0430","name:ee":"Anyiehe Afrika nutome","name:ku":"Afr\u00eekaya Ba\u015f\u00fbr","name:eu":"Hegoafrika","name:ks":"\u062c\u064e\u0646\u0648\u0657\u0628\u06cc \u0627\u064e\u0641\u0631\u06cc\u0656\u06a9\u0627","name:es":"Sud\u00e1frica","name:ia":"Africa del Sud","name:rm":"Africa dal Sid","name:rn":"Afurika y'Epfo","name:az":"C\u0259nub Afrika","name:ie":"Sudafrica","name:id":"Afrika Selatan","name:ar":"\u062c\u0646\u0648\u0628 \u0623\u0641\u0631\u064a\u0642\u064a\u0627","name:io":"Sud-Afrika","name:is":"Su\u00f0ur-Afr\u00edka","name:am":"\u12f0\u1261\u1265 \u12a0\u134d\u122a\u12ab","name:it":"Sudafrica","name:an":"Sudafrica","name:ru":"\u042e\u0436\u043d\u0430\u044f \u0410\u0444\u0440\u0438\u043a\u0430","name:rw":"Afurika y\u2019Epfo","name:af":"Suid-Afrika","name:zu":"iNingizimu Afrika","kind_detail":"2","name:ca":"Sud-\u00e0frica","name:zh-yue":"\u5357\u975e\u5171\u548c\u570b","name:zh":"\u5357\u975e","name:so":"Koonfur Afrika","name:sl":"Ju\u017ena Afrika","name:sk":"Ju\u017en\u00e1 Afrika","name:ja":"\u5357\u30a2\u30d5\u30ea\u30ab","name:si":"\u0daf\u0d9a\u0dd4\u0dab\u0dd4 \u0d85\u0db4\u0dca\u200d\u0dbb\u0dd2\u0d9a\u0dcf\u0dc0","name:sh":"Ju\u017ena Afrika","name:sg":"Afr\u00eeka-Mbongo","name:se":"Lulli-Afrihk\u00e1","name:sc":"Sud\u00e0frica","name:br":"Suafrika","name:bs":"Ju\u017ena Afrika","name:bm":"Worodugu Afriki","name:bn":"\u09a6\u0995\u09cd\u09b7\u09bf\u09a3 \u0986\u09ab\u09cd\u09b0\u09bf\u0995\u09be","name:bo":"\u0f63\u0fb7\u0f7c\u0f0b \u0f68\u0f55\u0fb2\u0f72\u0f0b\u0f40\u0f0d","name:sa":"\u0926\u0915\u094d\u0937\u093f\u0923-\u0906\u092b\u094d\u0930\u093f\u0915\u093e","name:et":"L\u00f5una-Aafrika","name:sw":"Afrika Kusini","name:be":"\u041f\u0430\u045e\u0434\u043d\u0451\u0432\u0430-\u0410\u0444\u0440\u044b\u043a\u0430\u043d\u0441\u043a\u0430\u044f \u0420\u044d\u0441\u043f\u0443\u0431\u043b\u0456\u043a\u0430","name:su":"Afrika Kidul","name:st":"Afrika Borwa","name:ss":"INingizimu Afrika","name:sr":"\u0408\u0443\u0436\u043d\u0430 \u0410\u0444\u0440\u0438\u043a\u0430","name:sq":"Afrika e Jugut","name:jv":"Afrika Kidul","name:pt":"\u00c1frica do Sul","name:ps":"\u0633\u0648\u06cc\u0644\u064a \u0627\u0641\u0631\u06cc\u0642\u0627","alt_name:gl":"\u00c1frica do Sur","name:oc":"Sud-Africa","alt_name:oc":"Africa del Sud","min_zoom":8.0,"name:ro":"Africa de Sud","name:ko":"\ub0a8\uc544\ud504\ub9ac\uce74","name:zh-min-nan":"L\u00e2m-hui-kok","name:os":"\u0425\u0443\u0441\u0441\u0430\u0440 \u0410\u0444\u0440\u0438\u043a\u00e6\u0439\u044b","name:or":"\u0b26\u0b15\u0b4d\u0b37\u0b3f\u0b23 \u0b06\u0b2b\u0b4d\u0b30\u0b3f\u0b15\u0b3e","name:pl":"Republika Po\u0142udniowej Afryki","name:bg":"\u042e\u0436\u043d\u0430 \u0410\u0444\u0440\u0438\u043a\u0430","sort_rank":262,"osm_relation":true,"name:xh":"uMzantsi Afrika","name:pa":"\u0a26\u0a71\u0a16\u0a23\u0a40 \u0a05\u0a2b\u0a3c\u0a30\u0a40\u0a15\u0a3e","name:cv":"\u041a\u0103\u043d\u0442\u0103\u0440 \u0410\u0444\u0440\u0438\u043a\u0430","name:hi":"\u0926\u0915\u094d\u0937\u093f\u0923 \u0905\u092b\u093c\u094d\u0930\u0940\u0915\u093e","name:sv":"Sydafrika","name:he":"\u05d3\u05e8\u05d5\u05dd \u05d0\u05e4\u05e8\u05d9\u05e7\u05d4","name:ha":"Afirka ta Kudu","name:hy":"\u0540\u0561\u0580\u0561\u057e\u0561\u0575\u056b\u0576 \u0531\u0586\u0580\u056b\u056f\u0561","name:ht":"Afrik disid","name:hu":"D\u00e9l-Afrika","name:qu":"Urin Aphrika","kind":"country","name:ak":"Afrika Anaafo","name:yi":"\u05d3\u05e8\u05d5\u05dd \u05d0\u05e4\u05e8\u05d9\u05e7\u05e2","name:yo":"G\u00fa\u00fas\u00f9 \u00c1fr\u00edk\u00e0","name:mt":"Afrika t\u2019Isfel","alt_name:eo":"Sudafriko","name:ms":"Afrika Selatan","name:mr":"\u0926\u0915\u094d\u0937\u093f\u0923 \u0905\u092b\u094d\u0930\u093f\u0915\u093e","name:my":"\u1010\u1031\u102c\u1004\u103a\u1021\u102c\u1016\u101b\u102d\u1000","official_name":"Republic of South Africa","name:mg":"Afrika Atsimo","name:ve":"Afurika Tshipembe","name:ml":"\u0d26\u0d15\u0d4d\u0d37\u0d3f\u0d23\u0d3e\u0d2b\u0d4d\u0d30\u0d3f\u0d15\u0d4d\u0d15","name:vi":"Nam Phi","name:mn":"\u04e8\u043c\u043d\u04e9\u0434 \u0410\u0444\u0440\u0438\u043a","name:mi":"\u0100wherika-ki-te-tonga","id":-87565,"name:mk":"\u0408\u0443\u0436\u043d\u0430 \u0410\u0444\u0440\u0438\u043a\u0430","name:vo":"Sul\u00fcdafrik\u00e4n","name:fa":"\u0622\u0641\u0631\u06cc\u0642\u0627\u06cc \u062c\u0646\u0648\u0628\u06cc","name:ff":"Afrik b\u014b Worgo","name:fi":"Etel\u00e4-Afrikka","name:fo":"Su\u00f0urafrika","name:fr":"Afrique du Sud","name:fy":"S\u00fad-Afrika","name:nl":"Zuid-Afrika","name:nn":"S\u00f8r-Afrika","name:no":"S\u00f8r-Afrika","name:ne":"\u0926\u0915\u094d\u0937\u093f\u0923 \u0905\u092b\u094d\u0930\u093f\u0915\u093e","name:wa":"Nonne-Afrike","name:wo":"Afrig gu B\u00ebj-saalum","name:nv":"K\u00e9yah Naakai \u0141izhinii Bik\u00e9yah Sh\u00e1di\u02bc\u00e1\u00e1hj\u00ed Si\u02bc\u00e1n\u00edg\u00ed\u00ed","name:ga":"An Afraic Theas","name:gd":"Afraga a Deas","name:gn":"Yvyafrika","name:gl":"Sud\u00e1frica","maritime_boundary":true,"alt_name:wo":"Afrig gu B\u00ebj-g\u00e0nnaar","name:gv":"Yn Affrick Yiass","name:gu":"\u0aa6\u0a95\u0acd\u0ab7\u0abf\u0aa3 \u0a86\u0aab\u0acd\u0ab0\u0abf\u0a95\u0abe","name:lg":"Sawusafirika"},"arcs":[0]},{"type":"LineString","properties":{"kind":"region","name":"Eastern Cape","sort_rank":256,"kind_detail":"4","min_zoom":8.0,"name:de":"Ostkap","source":"openstreetmap.org","maritime_boundary":true,"name:ru":"\u0412\u043e\u0441\u0442\u043e\u0447\u043d\u043e-\u041a\u0430\u043f\u0441\u043a\u0430\u044f \u043f\u0440\u043e\u0432\u0438\u043d\u0446\u0438\u044f","id":-88574,"osm_relation":true},"arcs":[1]}]},"roads":{"type":"GeometryCollection","geometries":[{"type":"LineString","properties":{"source":"openstreetmap.org","kind":"major_road","sort_rank":380,"kind_detail":"primary","min_zoom":8.0,"id":405865931},"arcs":[7]},{"type":"MultiLineString","properties":{"kind":"highway","network":"za:national","sort_rank":383,"landuse_kind":"urban_area","source":"openstreetmap.org","min_zoom":8.0,"all_networks":["za:national"],"kind_detail":"motorway","shield_text":"2","ref":"N2","all_shield_texts":["2"]},"arcs":[[8],[9]]},{"type":"MultiLineString","properties":{"kind":"highway","network":"za:regional","sort_rank":383,"kind_detail":"motorway","source":"openstreetmap.org","min_zoom":8.0,"all_networks":["za:regional"],"shield_text":"75","ref":"R75","all_shield_texts":["75"]},"arcs":[[10],[11],[12],[13],[14],[15]]},{"type":"MultiLineString","properties":{"kind":"highway","network":"za:national","sort_rank":383,"landuse_kind":"urban_area","source":"openstreetmap.org","min_zoom":8.0,"all_networks":["za:national","sadc"],"kind_detail":"motorway","shield_text":"2","ref":"N2","all_shield_texts":["2",null]},"arcs":[[16],[17]]},{"type":"MultiLineString","properties":{"kind":"major_road","network":"za:regional","sort_rank":380,"kind_detail":"primary","source":"openstreetmap.org","min_zoom":8.0,"shield_text":"102","ref":"R102"},"arcs":[[18],[19]]},{"type":"MultiLineString","properties":{"kind":"major_road","network":"za:national","sort_rank":381,"kind_detail":"trunk","source":"openstreetmap.org","min_zoom":8.0,"landuse_kind":"nature_reserve","shield_text":"2","ref":"N2"},"arcs":[[20],[21]]},{"type":"LineString","properties":{"source":"openstreetmap.org","kind":"major_road","network":"za:regional","sort_rank":380,"kind_detail":"primary","min_zoom":8.0,"shield_text":"67"},"arcs":[22]},{"type":"MultiLineString","properties":{"kind":"major_road","network":"za:regional","sort_rank":380,"kind_detail":"primary","source":"openstreetmap.org","min_zoom":8.0,"landuse_kind":"urban_area","shield_text":"102","ref":"R102"},"arcs":[[23],[24],[25],[26],[27],[28],[29],[30],[31],[32],[33],[34],[35],[36],[37]]},{"type":"MultiLineString","properties":{"kind":"highway","network":"za:national","sort_rank":383,"kind_detail":"motorway","source":"openstreetmap.org","min_zoom":8.0,"all_networks":["za:national"],"shield_text":"2","ref":"N2","all_shield_texts":["2"]},"arcs":[[38],[39]]},{"type":"MultiLineString","properties":{"source":"openstreetmap.org","kind":"highway","landuse_kind":"urban_area","sort_rank":383,"kind_detail":"motorway","ref":"M19","min_zoom":8.0},"arcs":[[40],[41]]},{"type":"MultiLineString","properties":{"source":"openstreetmap.org","kind":"major_road","sort_rank":380,"kind_detail":"primary","ref":"M6","min_zoom":8.0},"arcs":[[42],[43]]},{"type":"MultiLineString","properties":{"source":"openstreetmap.org","kind":"highway","landuse_kind":"urban_area","sort_rank":383,"kind_detail":"motorway","ref":"M4","min_zoom":8.0},"arcs":[[44],[45],[46]]},{"type":"LineString","properties":{"kind":"major_road","network":"za:national","sort_rank":381,"kind_detail":"trunk","source":"openstreetmap.org","min_zoom":8.0,"shield_text":"10","ref":"N10"},"arcs":[47]},{"type":"MultiLineString","properties":{"kind":"highway","network":"za:regional","sort_rank":383,"kind_detail":"motorway","source":"openstreetmap.org","min_zoom":8.0,"all_networks":["za:regional"],"shield_text":"75","all_shield_texts":["75"]},"arcs":[[48],[49]]},{"type":"LineString","properties":{"source":"openstreetmap.org","kind":"highway","landuse_kind":"urban_area","sort_rank":383,"kind_detail":"motorway","min_zoom":8.0},"arcs":[50]},{"type":"LineString","properties":{"kind":"major_road","network":"za:regional","sort_rank":380,"kind_detail":"primary","source":"openstreetmap.org","min_zoom":8.0,"shield_text":"72","ref":"R72"},"arcs":[51]},{"type":"MultiLineString","properties":{"kind":"highway","network":"za:regional","sort_rank":383,"landuse_kind":"urban_area","source":"openstreetmap.org","min_zoom":8.0,"all_networks":["za:regional"],"kind_detail":"motorway","shield_text":"75","ref":"R75","all_shield_texts":["75"]},"arcs":[[52],[53],[54],[55],[56]]},{"type":"MultiLineString","properties":{"kind":"major_road","network":"za:regional","sort_rank":380,"kind_detail":"primary","source":"openstreetmap.org","min_zoom":8.0,"landuse_kind":"urban_area","shield_text":"75","ref":"R75"},"arcs":[[57],[58]]},{"type":"MultiLineString","properties":{"kind":"major_road","network":"za:regional","sort_rank":380,"kind_detail":"primary","source":"openstreetmap.org","min_zoom":8.0,"landuse_kind":"nature_reserve","shield_text":"67","ref":"R67"},"arcs":[[59],[60]]},{"type":"MultiLineString","properties":{"kind":"major_road","network":"za:regional","sort_rank":380,"kind_detail":"primary","source":"openstreetmap.org","min_zoom":8.0,"shield_text":"75","ref":"R75"},"arcs":[[61],[62],[63],[64],[65]]},{"type":"LineString","properties":{"kind":"highway","network":"za:regional","sort_rank":383,"kind_detail":"motorway","source":"openstreetmap.org","min_zoom":8.0,"all_networks":["za:regional"],"landuse_kind":"urban_area","shield_text":"75","id":83419838,"all_shield_texts":["75"]},"arcs":[66]},{"type":"LineString","properties":{"kind":"highway","network":"za:national","sort_rank":383,"kind_detail":"motorway","source":"openstreetmap.org","min_zoom":8.0,"all_networks":["za:national","za:national"],"landuse_kind":"urban_area","shield_text":"2","ref":"N2","id":113898208,"all_shield_texts":["2","2"]},"arcs":[67]},{"type":"LineString","properties":{"kind":"highway","network":"za:national","sort_rank":383,"kind_detail":"motorway","source":"openstreetmap.org","min_zoom":8.0,"all_networks":["za:national","za:national"],"shield_text":"2","ref":"N2","id":113898208,"all_shield_texts":["2","2"]},"arcs":[68]},{"type":"LineString","properties":{"kind":"major_road","network":"za:national","sort_rank":381,"landuse_kind":"urban_area","source":"openstreetmap.org","min_zoom":8.0,"kind_detail":"trunk","shield_text":"2","ref":"N2"},"arcs":[69]},{"type":"LineString","properties":{"kind":"major_road","network":"za:national","sort_rank":381,"kind_detail":"trunk","source":"openstreetmap.org","min_zoom":8.0,"shield_text":"2","ref":"N2;R342"},"arcs":[70]},{"type":"LineString","properties":{"source":"openstreetmap.org","kind":"major_road","landuse_kind":"urban_area","sort_rank":380,"kind_detail":"primary","min_zoom":8.0},"arcs":[71]},{"type":"MultiLineString","properties":{"kind":"major_road","network":"za:regional","sort_rank":380,"kind_detail":"primary","source":"openstreetmap.org","min_zoom":8.0,"shield_text":"67","ref":"R67"},"arcs":[[72],[73],[74],[75],[76]]},{"type":"MultiLineString","properties":{"kind":"major_road","network":"za:national","sort_rank":381,"kind_detail":"trunk","source":"openstreetmap.org","min_zoom":8.0,"shield_text":"2","ref":"N2"},"arcs":[[77],[78],[79],[80],[81],[82],[83],[84],[85]]},{"type":"LineString","properties":{"source":"openstreetmap.org","kind":"major_road","network":"za:national","sort_rank":381,"kind_detail":"trunk","min_zoom":8.0,"shield_text":"2"},"arcs":[86]},{"type":"LineString","properties":{"source":"openstreetmap.org","kind":"major_road","landuse_kind":"urban_area","sort_rank":380,"kind_detail":"primary","ref":"M6","min_zoom":8.0},"arcs":[87]},{"type":"MultiLineString","properties":{"kind":"highway","network":"za:national","sort_rank":383,"kind_detail":"motorway","source":"openstreetmap.org","min_zoom":8.0,"all_networks":["za:national","sadc"],"shield_text":"2","ref":"N2","all_shield_texts":["2",null]},"arcs":[[88],[89]]},{"type":"LineString","properties":{"kind":"highway","network":"za:national","sort_rank":383,"kind_detail":"motorway","source":"openstreetmap.org","min_zoom":8.0,"all_networks":["za:national","za:national","za:regional","za:regional"],"shield_text":"2","ref":"N2","id":405865929,"all_shield_texts":["2","2","67","67"]},"arcs":[90]},{"type":"LineString","properties":{"source":"openstreetmap.org","kind":"major_road","sort_rank":380,"kind_detail":"primary","ref":"R67","min_zoom":8.0,"id":381791805},"arcs":[91]},{"type":"MultiLineString","properties":{"source":"openstreetmap.org","kind":"highway","sort_rank":383,"kind_detail":"motorway","ref":"M19","min_zoom":8.0},"arcs":[[92],[93]]},{"type":"MultiLineString","properties":{"kind":"highway","network":"sadc","sort_rank":383,"landuse_kind":"urban_area","source":"openstreetmap.org","min_zoom":8.0,"all_networks":["sadc"],"kind_detail":"motorway","shield_text":null,"ref":"M4","all_shield_texts":[null]},"arcs":[[94],[95]]}]},"earth":{"type":"GeometryCollection","geometries":[{"type":"Polygon","properties":{"sort_rank":10,"source":"naturalearthdata.com","min_zoom":0.0,"kind":"earth","area":66510437517},"arcs":[[96]]}]},"landuse":{"type":"GeometryCollection","geometries":[{"type":"MultiPolygon","properties":{"kind":"park","area":26959833,"sort_rank":24,"operator":"South African National Parks","source":"openstreetmap.org","min_zoom":8.0,"tier":2,"osm_relation":true},"arcs":[[[97]],[[98]]]},{"type":"Polygon","properties":{"source":"openstreetmap.org","kind":"park","area":20151500,"tier":2,"id":411570042,"min_zoom":8.0,"sort_rank":24},"arcs":[[99]]},{"type":"Polygon","properties":{"kind":"nature_reserve","area":693771008,"sort_rank":23,"source":"openstreetmap.org","min_zoom":6.0,"tier":2,"id":-2506819,"osm_relation":true},"arcs":[[100]]},{"type":"MultiPolygon","properties":{"source":"openstreetmap.org","kind":"park","tier":2,"area":535628604,"sort_rank":24,"min_zoom":6.0,"osm_relation":true},"arcs":[[[101]]]},{"type":"MultiPolygon","properties":{"source":"openstreetmap.org","kind":"nature_reserve","tier":2,"area":60670012,"sort_rank":23,"min_zoom":8.0},"arcs":[[[102]],[[103]],[[104]]]},{"type":"MultiPolygon","properties":{"source":"naturalearthdata.com","kind":"urban_area","name":"","area":1066540673,"sort_rank":11,"min_zoom":4.0},"arcs":[[[105]],[[106]],[[107]]]},{"type":"MultiPolygon","properties":{"kind":"park","area":1367875242,"sort_rank":24,"operator":"South African National Parks","source":"openstreetmap.org","min_zoom":6.0,"tier":2,"osm_relation":true},"arcs":[[[108]],[[109],[110]],[[111],[112]]]},{"type":"Polygon","properties":{"kind":"park","area":134667008,"sort_rank":24,"operator":"South African National Parks","source":"openstreetmap.org","min_zoom":7.0,"tier":2,"id":-2715959,"osm_relation":true},"arcs":[[113]]},{"type":"Polygon","properties":{"operator":"South African National Parks","kind":"park","tier":2,"source":"openstreetmap.org","area":416386711,"sort_rank":24,"min_zoom":6.0},"arcs":[[114]]},{"type":"MultiPolygon","properties":{"source":"openstreetmap.org","kind":"park","tier":2,"area":69485283,"sort_rank":24,"min_zoom":8.0,"osm_relation":true},"arcs":[[[115]]]},{"type":"Polygon","properties":{"source":"openstreetmap.org","kind":"nature_reserve","area":216890000,"tier":2,"id":218396421,"min_zoom":6.0,"sort_rank":23},"arcs":[[116]]},{"type":"Polygon","properties":{"kind":"residential","name":"Motherwell","area":20910100,"sort_rank":20,"source":"openstreetmap.org","min_zoom":8.0,"tier":2,"id":405464995},"arcs":[[117]]}]}},"type":"Topology","transform":{"translate":[25.3125,-34.3071438563],"scale":[0.0003433228,0.0002855451]},"arcs":[[[180,0],[1204,315],[2502,990],[210,111]],[[180,0],[1204,315],[2502,990],[210,111]],[[910,1214],[-47,59],[-15,80],[19,116],[-36,95],[44,98],[147,163],[-21,105],[67,159],[63,65],[14,198],[-53,122],[16,46],[-16,97],[36,80],[-4,117],[57,52],[16,137],[220,73],[101,-7],[188,39],[390,-97],[67,48],[-57,42],[93,164],[-11,37],[48,161],[-34,26],[-89,2],[-20,152],[-73,14],[-20,47],[-68,6],[-108,60],[-33,101],[47,146],[-56,13],[-16,66]],[[910,1214],[-46,57],[-16,82],[19,116],[-52,107],[-179,134],[-222,77],[-132,66],[-2,23]],[[0,1387],[343,-92],[108,-90],[216,-77],[87,-13],[176,45],[1,21]],[[0,1101],[4,-2],[99,-74],[104,-18],[78,-47],[73,0],[145,19],[84,-14],[154,-49],[91,-10],[76,19],[58,37],[64,21],[91,-30],[11,12],[5,11],[4,27],[-25,31],[-54,89],[-84,62],[-14,22],[-13,30],[-57,28],[-13,38],[7,83],[49,197],[55,114],[76,96],[93,73],[216,108],[239,76],[256,38],[400,-21],[388,-79],[109,-65],[68,-29],[52,9],[56,26],[77,3],[247,-37],[120,6],[114,32],[279,141],[63,10],[18,15],[20,65],[22,15],[36,4],[155,68],[0,-2251],[-4096,0],[0,1101]],[[0,1101],[4,-2],[99,-74],[104,-18],[78,-47],[73,0],[145,19],[84,-14],[154,-49],[91,-10],[76,19],[58,37],[64,21],[91,-30],[11,12],[5,11],[4,27],[-25,31],[-54,89],[-84,62],[-14,22],[-13,30],[-57,28],[-13,38],[7,83],[49,197],[55,114],[76,96],[93,73],[216,108],[239,76],[256,38],[400,-21],[388,-79],[109,-65],[68,-29],[52,9],[56,26],[77,3],[247,-37],[120,6],[114,32],[279,141],[63,10],[18,15],[20,65],[22,15],[36,4],[155,68]],[[3586,3440],[0,-2]],[[506,1265],[172,13],[93,95],[115,21]],[[885,1389],[-5,-10],[-1,-2],[-108,-4],[-90,-95],[-20,-7],[-34,-9],[-48,-6],[-73,9]],[[342,1940],[-2,35]],[[340,1986],[3,-49]],[[418,1737],[-34,9]],[[392,1745],[26,-7]],[[432,1741],[-13,-4]],[[420,1738],[10,3]],[[924,1560],[-39,-171]],[[886,1394],[31,159],[6,7]],[[80,1389],[105,-7],[321,-90]],[[851,1615],[54,143]],[[2263,2714],[69,57]],[[3388,3275],[2,2]],[[3586,3438],[0,2]],[[506,1292],[21,-5]],[[615,1265],[-88,22]],[[527,1287],[199,-30],[28,-6],[111,-42]],[[865,1209],[-139,48],[-103,6]],[[851,1304],[3,37]],[[886,1216],[-35,88]],[[851,1304],[43,-82],[-8,-6]],[[853,1346],[26,137],[-45,87],[17,45]],[[853,1344],[0,2]],[[853,1346],[1,-2]],[[854,1341],[-1,2]],[[854,1343],[0,-2]],[[865,1209],[21,7]],[[853,1344],[1,0],[0,-1]],[[854,1343],[-1,0],[0,1]],[[506,1265],[-233,-7],[-273,85]],[[0,1344],[193,-57],[81,-28],[232,6]],[[503,1753],[25,-14]],[[528,1738],[-6,4]],[[527,1761],[26,-50]],[[547,1718],[-20,41]],[[871,1372],[1,-18]],[[921,1186],[-34,46]],[[888,1233],[17,-16],[17,-31]],[[1744,2418],[14,41],[-40,112],[25,142],[170,379],[-37,49],[31,48],[-40,156],[-70,28],[-12,30],[26,57],[74,17],[-106,29],[-61,90],[8,30],[-37,77],[11,167],[-58,112],[16,88],[-6,26]],[[419,1737],[-1,0]],[[418,1738],[2,0]],[[872,1375],[-1,-3]],[[1758,2455],[300,-39],[73,65],[223,9],[278,-120],[72,23],[155,0],[110,-63],[117,-3],[76,-37],[217,60],[486,-187],[110,52],[109,115],[12,5]],[[384,1746],[-24,6],[-18,188]],[[343,1937],[17,-184],[32,-8]],[[430,1741],[20,6]],[[522,1742],[-90,-1]],[[451,1747],[52,6]],[[851,1298],[-71,87],[-180,268]],[[600,1653],[252,-354]],[[3759,3414],[-3,0]],[[3835,3408],[-35,8]],[[340,1988],[95,185],[-99,340],[-9,128],[-327,303]],[[340,1975],[0,13]],[[340,1988],[0,-2]],[[600,1653],[-53,65]],[[553,1711],[47,-58]],[[450,1747],[1,0]],[[3538,3451],[39,-8]],[[3577,3443],[24,-4]],[[3462,3443],[76,8]],[[2144,2708],[109,-2]],[[640,1263],[7,4]],[[3586,3440],[-2,3]],[[3756,3414],[-102,-11],[-67,33]],[[3738,3593],[6,119],[55,9],[53,61],[-68,154],[38,39],[-31,121]],[[3800,3416],[-41,-2]],[[4096,3174],[-32,28],[-34,104],[-195,102]],[[1509,2162],[-98,-68]],[[1437,2120],[3,3],[68,39],[1,0]],[[1509,2162],[208,205],[31,64],[38,15]],[[1786,2446],[-42,-28]],[[1786,2446],[58,91],[300,171]],[[2253,2706],[10,8]],[[2332,2771],[63,52],[187,23],[168,87],[97,98],[174,65],[94,69],[149,35],[48,54],[76,21]],[[3390,3277],[65,71],[-1,59],[-33,32],[41,4]],[[3604,3439],[57,22],[77,132],[49,27],[244,-30],[65,-19]],[[1738,2405],[6,13]],[[527,1759],[0,2]],[[923,1560],[16,32],[67,200],[34,80],[17,14],[33,21],[314,183],[33,30]],[[1411,2094],[-7,-5],[-349,-205],[-14,-12],[-101,-280],[-16,-32]],[[3601,3439],[3,0]],[[3586,3440],[-1,3]],[[528,1739],[41,-23]],[[567,1716],[-39,22]],[[887,1232],[-22,32],[6,110]],[[872,1354],[-4,-82],[-3,-8],[23,-31]],[[4096,2251],[-155,-68],[-36,-4],[-22,-15],[-20,-65],[-18,-15],[-63,-10],[-279,-141],[-114,-32],[-120,-6],[-247,37],[-77,-3],[-56,-26],[-52,-9],[-68,29],[-109,65],[-388,79],[-400,21],[-256,-38],[-239,-76],[-216,-108],[-93,-73],[-76,-96],[-55,-114],[-49,-197],[-7,-83],[13,-38],[57,-28],[13,-30],[14,-22],[84,-62],[54,-89],[25,-31],[-4,-27],[-5,-11],[-11,-12],[-91,30],[-64,-21],[-58,-37],[-76,-19],[-91,10],[-154,49],[-84,14],[-145,-19],[-73,0],[-78,47],[-104,18],[-99,74],[-4,2],[0,2995],[4096,0],[0,-1845]],[[2797,2075],[59,124],[103,34],[-5,-47],[-157,-111]],[[2650,2122],[56,124],[75,80],[72,-7],[-64,-33],[-51,-95],[-88,-69]],[[3786,2418],[193,12],[15,-47],[-112,-12],[7,-23],[-59,-18],[-44,88]],[[4096,4081],[-183,1],[-10,14],[193,0],[0,-15]],[[2218,2103],[20,77],[133,-10],[135,-37],[9,16],[386,-135],[37,63],[9,82],[61,7],[125,-65],[152,28],[62,-21],[6,-135],[-109,28],[-56,-24],[-131,2],[-19,-19],[16,-8],[117,-29],[375,14],[-179,-68],[-257,49],[-170,-29],[-103,21],[-286,125],[-333,68]],[[1638,2560],[81,-4],[37,-105],[-44,-67],[-35,3],[-39,173]],[[3373,3237],[16,40],[108,-40],[-38,-168],[-76,49],[13,38],[-23,81]],[[3735,3353],[22,61],[55,2],[23,-7],[-19,-59],[67,-26],[-13,-33],[-82,-1],[-45,14],[13,25],[-21,24]],[[978,1185],[84,-62],[38,-62],[-37,-39],[-60,11],[-131,95],[-53,-19],[0,-39],[-227,-39],[-84,181],[-3,86],[87,44],[4,32],[-36,46],[-21,104],[21,129],[226,0],[-27,181],[27,53],[130,-39],[11,-37],[-88,-131],[12,-65],[79,-60],[-49,-252],[97,-118]],[[398,1810],[128,-6],[2,-73],[-389,39],[8,223],[25,50],[134,-20],[92,-213]],[[3472,3405],[-32,117],[97,39],[97,-39],[-61,-83],[-101,-34]],[[1171,2528],[3,83],[58,-5],[-57,33],[44,37],[-47,38],[6,53],[-55,43],[58,56],[22,143],[213,66],[81,-9],[19,-99],[-33,-10],[59,-121],[-72,-29],[27,-87],[35,14],[19,-48],[-21,-55],[104,-27],[3,-37],[-104,-22],[-94,43],[-11,0],[11,-1],[94,-42],[104,22],[5,-76],[-64,1],[21,-60],[-38,-23],[-18,-54],[32,-104],[-53,-20],[-3,-57],[-92,-5],[-11,26],[-30,-26],[-44,11],[-56,84],[5,44],[-33,50],[15,41],[-54,21],[39,91],[-6,45],[-81,-28]],[[0,4096],[228,0],[289,-84],[54,29],[25,-110],[-60,-25],[60,-83],[36,19],[24,-62],[-142,-69],[-100,21],[-33,149],[-127,-25],[-53,-82],[-89,-71],[-90,19],[-22,3],[0,371]],[[149,4059],[38,19],[0,5],[-38,-24]],[[0,3624],[241,-22],[-10,-97],[13,127],[158,-45],[186,33],[273,-28],[-22,49],[95,-37],[28,36],[47,-23],[20,-69],[99,21],[-57,-68],[69,8],[220,-84],[0,-1],[185,-48],[74,-89],[55,-5],[14,40],[59,-2],[18,-64],[31,3],[-61,-144],[-231,-46],[-84,9],[-210,-63],[-25,0],[-7,92],[1,31],[117,-5],[-1,47],[-34,-1],[-5,23],[102,220],[-40,-75],[-64,34],[-19,-36],[-95,-11],[9,-18],[-67,-22],[-10,-26],[-18,35],[-27,-14],[-58,31],[-54,-29],[-104,39],[-224,0],[-5,138],[-102,10],[-31,-98],[25,-42],[-30,-5],[54,-80],[-231,23],[-30,7],[4,33],[-79,16],[-36,-77],[-8,90],[-118,24],[0,255]],[[948,3399],[102,-40],[81,25],[11,55],[-183,0],[-11,-40]],[[2689,1778],[341,0],[1,-269],[-342,0],[0,269]],[[1171,2528],[3,83],[58,-5],[-57,33],[44,37],[-47,38],[6,53],[-55,43],[58,56],[22,143],[213,66],[81,-9],[19,-99],[-33,-10],[59,-121],[-72,-29],[27,-87],[35,14],[19,-48],[-21,-55],[104,-27],[3,-37],[-104,-22],[-94,43],[-11,0],[11,-1],[94,-42],[104,22],[5,-76],[-64,1],[21,-60],[-38,-23],[-18,-54],[32,-104],[-53,-20],[-3,-57],[-92,-5],[-11,26],[-30,-26],[-44,11],[-56,84],[5,44],[-33,50],[15,41],[-54,21],[39,91],[-6,45],[-81,-28]],[[1563,2048],[55,80],[155,46],[313,-11],[-20,-55],[-503,-60]],[[2097,2933],[40,16],[19,68],[-36,26],[44,19],[-50,31],[8,65],[74,54],[19,169],[34,28],[100,-39],[30,38],[161,-37],[-11,-68],[-117,19],[-36,-173],[-65,10],[52,-261],[-19,-6],[-8,-117],[-54,-60],[-101,-6],[-36,74],[-16,-7],[-32,157]],[[748,1798],[34,79],[30,4],[-12,-35],[87,-86],[-25,-43],[-54,21],[40,-43],[-17,-20],[-72,45],[13,50],[-24,28]]]}