{"objects":{"water":{"type":"GeometryCollection","geometries":[]},"buildings":{"type":"GeometryCollection","geometries":[]},"places":{"type":"GeometryCollection","geometries":[{"type":"Point","properties":{"kind":"region","name:en":"Utena County","name":"Utenos apskritis","kind_detail":"state","min_zoom":4.0,"name:de":"Bezirk Utenen","source":"openstreetmap.org","name:fr":"Apskritis d'Utena","name:uk":"\u0423\u0442\u0435\u043d\u0441\u044c\u043a\u0438\u0439 \u043f\u043e\u0432\u0456\u0442","name:be":"\u0423\u0446\u0456\u043d\u0441\u043a\u0456 \u043f\u0430\u0432\u0435\u0442","name:ru":"\u0423\u0442\u0435\u043d\u0441\u043a\u0438\u0439 \u0443\u0435\u0437\u0434","name:pl":"okr\u0119g ucia\u0144ski","id":810217856},"coordinates":[918,3072]},{"type":"Point","properties":{"name:sr":"\u0423\u0442\u0435\u043d\u0430","name:ja":"\u30a6\u30c6\u30ca","name:ka":"\u10e3\u10e2\u10d4\u10dc\u10d0","name:el":"\u039f\u03c5\u03c4\u03ad\u03bd\u03b1","name:ko":"\uc6b0\ud14c\ub098","name:he":"\u05d0\u05d5\u05d8\u05e0\u05d4","min_zoom":8.0,"name:uk":"\u0423\u0442\u0435\u043d\u0430","name:hy":"\u0548\u0582\u057f\u0565\u0576\u0561","name:ru":"\u0423\u0442\u0435\u043d\u0430","name:pl":"Uciana","name:bg":"\u0423\u0442\u0435\u043d\u0430","id":32832910,"population":28997,"name:fa":"\u0627\u0648\u062a\u0646\u0627","kind":"locality","name":"Utena","kind_detail":"town","name:de":"Utenen","source":"openstreetmap.org","name:be":"\u0423\u0446\u044f\u043d\u0430","name:zh":"\u4e4c\u7530\u7eb3"},"coordinates":[845,2670]},{"type":"Point","properties":{"name:lv":"Visagina","name:ja":"\u30f4\u30a3\u30b5\u30ae\u30ca\u30b9","name:ka":"\u10d5\u10d8\u10e1\u10d0\u10d2\u10d8\u10dc\u10d0\u10e1\u10d8","name:ko":"\ube44\uc0ac\uae30\ub098\uc2a4","name:cv":"\u0412\u0438\u0441\u0430\u0433\u0438\u043d\u0430\u0441","name:hy":"\u054e\u056b\u057d\u0561\u0563\u056b\u0576\u0561\u057d","name:tt":"\u0412\u0438\u0441\u0430\u0433\u0438\u043d\u0430\u0441","name:ur":"\u0648\u06cc\u0633\u0627\u06af\u06cc\u0646\u0627\u0633","min_zoom":8.0,"name:uk":"\u0412\u0438\u0441\u0430\u0433\u0456\u043d\u0430\u0441","old_name":"Snie\u010dkus","name:ru":"\u0412\u0438\u0441\u0430\u0433\u0438\u043d\u0430\u0441","name:pl":"Wisaginia","id":473652955,"population":22361,"name:fa":"\u0648\u06cc\u0633\u0627\u06af\u06cc\u0646\u0627\u0633","kind":"locality","name":"Visaginas","kind_detail":"town","old_name:ru":"\u0421\u043d\u0435\u0447\u043a\u0443\u0441","name:sr":"\u0412\u0438\u0441\u0430\u0433\u0438\u043d\u0430\u0441","source":"openstreetmap.org","name:be":"\u0412\u0456\u0441\u0430\u0433\u0456\u043d\u044f","name:zh":"\u7dad\u85a9\u5409\u7d0d\u65af"},"coordinates":[3276,3189]},{"type":"Point","properties":{"name:az":"Zarasay","name:lv":"Zarasi","name:ka":"\u10d6\u10d0\u10e0\u10d0\u10e1\u10d0\u10d8","name:he":"\u05d6\u05e8\u05e1\u05d0\u05d9","min_zoom":8.0,"name:uk":"\u0417\u0430\u0440\u0430\u0441\u0430\u0439","name:be":"\u0417\u0430\u0440\u0430\u0441\u0430\u0439","name:ru":"\u0417\u0430\u0440\u0430\u0441\u0430\u0439","name:pl":"Jeziorosy","id":33698685,"population":7165,"name:fa":"\u0632\u0627\u0631\u0627\u0633\u06cc\u0627\u06cc","kind":"locality","name":"Zarasai","kind_detail":"town","name:de":"Ossersee","source":"openstreetmap.org","name:zh":"\u624e\u62c9\u8cfd"},"coordinates":[2722,3859]},{"type":"Point","properties":{"name:lv":"Mol\u0113ti","name:ja":"\u30e2\u30ec\u30bf\u30a4","name:fa":"\u0645\u0648\u0644\u062a\u0627\u06cc","name:sa":"\u092e\u094b\u0932\u0947\u0924\u0948","min_zoom":8.0,"name:uk":"\u041c\u043e\u043b\u0435\u0442\u0430\u0439","name:be":"\u041c\u0430\u043b\u0435\u0442\u0430\u0439","name:ru":"\u041c\u043e\u043b\u0435\u0442\u0430\u0439","name:pl":"Malaty","id":32592592,"population":6434,"name:el":"\u039c\u03bf\u03bb\u03b5\u03c4\u03ac\u03b9","kind":"locality","name":"Mol\u0117tai","kind_detail":"town","name:de":"Mulau","source":"openstreetmap.org","name:zh":"\u83ab\u96f7\u6cf0"},"coordinates":[311,1304]},{"type":"Point","properties":{"name:az":"\u0130qnalina","name:lv":"Ignal\u012bna","name:ja":"\u30a4\u30b0\u30ca\u30ea\u30ca","name:ka":"\u10d8\u10d2\u10dc\u10d0\u10da\u10d8\u10dc\u10d0","name:he":"\u05d0\u05d9\u05d2\u05e0\u05dc\u05d9\u05e0\u05d4","name:ur":"\u0627\u06af\u0646\u0627\u0644\u06cc\u0646\u0627","min_zoom":8.0,"name:uk":"\u0406\u0433\u043d\u0430\u043b\u0456\u043d\u0430","name:be":"\u0406\u0433\u043d\u0430\u043b\u0456\u043d\u0430","name:ru":"\u0418\u0433\u043d\u0430\u043b\u0438\u043d\u0430","name:pl":"Ignalino","id":182122005,"population":6007,"name:fa":"\u0627\u06cc\u06af\u0646\u0627\u0644\u06cc\u0646\u0627","kind":"locality","name":"Ignalina","kind_detail":"town","name:de":"Ingelin","source":"openstreetmap.org","name:zh":"\u4f0a\u683c\u7d0d\u5229\u7d0d"},"coordinates":[2473,1857]},{"type":"Point","properties":{"kind":"locality","name:lv":"Pabrade","name":"Pabrad\u0117","name:ka":"\u10de\u10d0\u10d1\u10e0\u10d0\u10d3\u10d4","kind_detail":"town","name:de":"Podbrodsen","source":"openstreetmap.org","min_zoom":8.0,"name:be":"\u041f\u0430\u0431\u0440\u0430\u0434\u0437\u0435","name:ru":"\u041f\u043e\u0434\u0431\u0440\u043e\u0434\u0437\u044c\u0435","name:pl":"Podbrodzie","population":5994,"name:zh":"\u5e15\u5e03\u62c9\u5fb7","id":196374894,"name:ja":"\u30d1\u30d6\u30e9\u30c7"},"coordinates":[1322,28]},{"type":"Point","properties":{"name:lv":"\u0160ven\u010don\u0113\u013ci","name:he":"\u05e9\u05d5\u05d5\u05d9\u05d9\u05e0\u05e6'\u05d9\u05d5\u05e0\u05dc\u05d9\u05d0\u05d9","min_zoom":8.0,"name:be":"\u0428\u0432\u044f\u043d\u0447\u043e\u043d\u0435\u043b\u0435\u0439","name:ru":"\u0428\u0432\u0435\u043d\u0447\u0451\u043d\u0435\u043b\u044f\u0439","name:pl":"Nowe \u015awi\u0119ciany","id":196378748,"population":5771,"name:fa":"\u0634\u0648\u0646\u0686\u06cc\u0648\u0646\u0644\u06cc\u0627\u06cc","kind":"locality","name":"\u0160ven\u010dion\u0117liai","old_name:pl":"Nowo-\u015awi\u0119ciany","kind_detail":"town","name:de":"Neuschwintzen","source":"openstreetmap.org","name:zh":"\u4ec0\u6587\u55ac\u5167\u5229\u827e"},"coordinates":[1998,962]},{"type":"Point","properties":{"name:ar":"\u0633\u0641\u064a\u0646\u064a\u062a\u0634\u0648\u0646\u064a\u0633","name:lv":"\u0160ven\u010do\u0146i","name:ja":"\u30b7\u30e5\u30f4\u30a7\u30f3\u30c1\u30e7\u30cb\u30fc\u30b9","name:he":"\u05e9\u05d5\u05d5\u05d9\u05e0\u05e6\u05d9\u05d0\u05df","name:ur":"\u0634\u0648\u06cc\u0646\u0686\u0648\u0646\u06cc\u0633","min_zoom":8.0,"name:uk":"\u0428\u0432\u044f\u043d\u0447\u0435\u043d\u0456\u0441","name:be":"\u0428\u0432\u044f\u043d\u0447\u043e\u043d\u0456\u0441","name:ru":"\u0428\u0432\u044f\u043d\u0447\u0451\u043d\u0438\u0441","name:pl":"\u015awi\u0119ciany","id":196377583,"population":4963,"name:fa":"\u0634\u0648\u0646\u0686\u06cc\u0648\u0646\u06cc\u0633","kind":"locality","name":"\u0160ven\u010dionys","kind_detail":"town","name:de":"Schwintzen","source":"openstreetmap.org","name:zh":"\u4ec0\u6587\u55ac\u5c3c\u65af"},"coordinates":[2477,800]},{"type":"Point","properties":{"name:ar":"\u062f\u0648\u0643\u0634\u062a\u0627\u0633","name:lv":"D\u016bk\u0161ta","name:he":"\u05d3\u05d5\u05e7\u05e9\u05d8\u05d9","min_zoom":8.0,"name:be":"\u0414\u0443\u043a\u0448\u0442\u0430\u0441","name:ru":"\u0414\u0443\u043a\u0448\u0442\u0430\u0441","name:pl":"Dukszty","id":442534913,"population":888,"name:fa":"\u062f\u0648\u06a9\u0634\u062a\u0627\u0633","kind":"locality","name":"D\u016bk\u0161tas","kind_detail":"town","name:de":"Dukschten","source":"openstreetmap.org","name:zh":"\u675c\u514b\u4ec0\u5854\u65af"},"coordinates":[2940,2780]},{"type":"Point","properties":{"kind":"locality","name":"Sv\u0117dasai","name:ka":"\u10e1\u10d5\u10d4\u10d3\u10d0\u10e1\u10d0\u10d8","kind_detail":"town","name:de":"Schwodesitz","source":"openstreetmap.org","min_zoom":8.0,"name:ru":"\u0421\u0432\u0435\u0434\u0430\u0441\u0430\u0439","name:pl":"\u015awiado\u015bcie","id":687061903,"population":884},"coordinates":[149,3620]},{"type":"Point","properties":{"kind":"locality","name":"U\u017epaliai","kind_detail":"town","name:he":"\u05d0\u05d5\u05e9\u05e4\u05d5\u05dc","name:de":"Uschpollen","source":"openstreetmap.org","min_zoom":8.0,"name:ru":"\u0423\u0436\u043f\u0430\u043b\u044f\u0439","name:pl":"U\u017cpol","id":1887809473,"population":758},"coordinates":[786,3376]},{"type":"Point","properties":{"kind":"locality","name:lv":"Dusetas","name":"Dusetos","kind_detail":"town","name:de":"Dust\u00e4dt","source":"openstreetmap.org","min_zoom":8.0,"name:uk":"\u0414\u0443\u0441\u0435\u0442\u043e\u0441","name:ru":"\u0414\u0443\u0441\u044f\u0442\u043e\u0441","name:pl":"Dusiaty","id":469109237,"population":717},"coordinates":[1553,3953]},{"type":"Point","properties":{"kind":"locality","name":"Aduti\u0161kis","kind_detail":"town","source":"openstreetmap.org","min_zoom":8.0,"name:ru":"\u0410\u0434\u0443\u0442\u0438\u0448\u043a\u0438\u0441","name:be":"\u0410\u0434\u0443\u0446i\u0448\u043ai\u0441","name:pl":"Hoduciszki","id":418391017,"population":689},"coordinates":[3712,921]},{"type":"Point","properties":{"kind":"locality","name":"Salakas","kind_detail":"town","old_name:ru":"\u0421\u043e\u043b\u043e\u043a\u0438","name:de":"Sallocken","source":"openstreetmap.org","min_zoom":8.0,"name:ru":"\u0421\u0430\u043b\u0430\u043a\u0430\u0441","name:pl":"So\u0142oki","id":442535253,"population":519},"coordinates":[2391,3088]},{"type":"Point","properties":{"kind":"locality","name":"Vy\u017euonos","kind_detail":"town","name:de":"Wischunen","source":"openstreetmap.org","min_zoom":8.0,"name:pl":"Wi\u017cuny","id":277888087,"population":512},"coordinates":[529,3100]},{"type":"Point","properties":{"kind":"locality","name":"Tauragnai","kind_detail":"town","alt_name:pl":"Tauroginy","source":"openstreetmap.org","min_zoom":8.0,"name:ru":"\u0422\u0430\u0443\u0440\u0430\u0433\u043d\u0430\u0439","name:pl":"Tauroginie","id":437564609,"population":473},"coordinates":[1464,2381]},{"type":"Point","properties":{"kind":"locality","name":"Kukti\u0161k\u0117s","kind_detail":"town","source":"openstreetmap.org","min_zoom":8.0,"name:pl":"Kukuciszki","id":436965101,"population":435},"coordinates":[1053,2132]},{"type":"Point","properties":{"kind":"locality","name":"Leli\u016bnai","kind_detail":"town","name:de":"Lelliunen","source":"openstreetmap.org","min_zoom":8.0,"name:pl":"Leluny","id":802902094,"population":412},"coordinates":[234,2546]},{"type":"Point","properties":{"kind":"locality","name":"J\u016b\u017eintai","kind_detail":"town","name:de":"Jozinten","source":"openstreetmap.org","min_zoom":8.0,"name:pl":"Ju\u017cynty","id":853085823,"population":412},"coordinates":[1059,4082]},{"type":"Point","properties":{"kind":"locality","name":"Debeikiai","kind_detail":"town","source":"openstreetmap.org","min_zoom":8.0,"name:pl":"Dobejki","id":600831970,"population":404},"coordinates":[37,3094]},{"type":"Point","properties":{"kind":"locality","name":"Sudeikiai","kind_detail":"town","source":"openstreetmap.org","min_zoom":8.0,"name:pl":"Sudejki","id":599788543,"population":349},"coordinates":[1074,3111]},{"type":"Point","properties":{"kind":"locality","name":"Salduti\u0161kis","kind_detail":"town","source":"openstreetmap.org","min_zoom":8.0,"name:pl":"Sy\u0142gudyszki","id":431619396,"population":343},"coordinates":[1447,1876]},{"type":"Point","properties":{"kind":"locality","name":"Daugailiai","kind_detail":"town","source":"openstreetmap.org","min_zoom":8.0,"name:pl":"Daugiele","id":437564634,"population":325},"coordinates":[1509,3131]},{"type":"Point","properties":{"name:fa":"\u062a\u0631\u0645\u0627\u0646\u062a\u0627\u0633","kind":"locality","name":"Turmantas","kind_detail":"town","name:ur":"\u062a\u0631\u0645\u0646\u062a\u0627\u0633","source":"openstreetmap.org","min_zoom":8.0,"name:ru":"\u0422\u0443\u0440\u043c\u0430\u043d\u0442\u0430\u0441","name:pl":"Turmont","id":456159780,"population":286},"coordinates":[3349,3661]},{"type":"Point","properties":{"kind":"locality","name":"Antaliept\u0117","kind_detail":"town","name:de":"Antolepten","source":"openstreetmap.org","min_zoom":8.0,"name:ru":"\u0410\u043d\u0442\u0430\u043b\u0435\u043f\u0442\u0435","name:pl":"Antolepty","id":793259786,"population":278},"coordinates":[1617,3499]},{"type":"Point","properties":{"kind":"locality","name":"Joni\u0161kis","kind_detail":"town","name:de":"Janschken","source":"openstreetmap.org","min_zoom":8.0,"name:ru":"\u0419\u043e\u043d\u0438\u0448\u043a\u0438\u0441","name:be":"\u042f\u043d\u0456\u0448\u043a\u0456","name:pl":"Janiszki","id":307738311,"population":258},"coordinates":[1020,477]},{"type":"Point","properties":{"kind":"locality","name":"Mielag\u0117nai","kind_detail":"town","name:de":"Meligan","source":"openstreetmap.org","min_zoom":8.0,"name:pl":"Melegiany","id":771505218,"population":236},"coordinates":[3276,1441]},{"type":"Point","properties":{"kind":"locality","name":"Tvere\u010dius","kind_detail":"town","source":"openstreetmap.org","min_zoom":8.0,"name:ru":"\u0422\u0432\u0435\u0440\u0435\u0447\u044e\u0441","name:be":"\u0422\u0432\u0435\u0440\u0430\u0447\u0443\u0441","name:pl":"Twerecz","id":775675567,"population":231},"coordinates":[3750,1714]},{"type":"Point","properties":{"kind":"locality","name":"Dubingiai","kind_detail":"town","name:de":"Dubingen","source":"openstreetmap.org","min_zoom":8.0,"name:pl":"Dubinki","id":290359383,"population":208},"coordinates":[400,415]},{"type":"Point","properties":{"kind":"locality","name":"Rim\u0161\u0117","kind_detail":"town","name:de":"Rimschen","source":"openstreetmap.org","min_zoom":8.0,"name:ru":"\u0420\u0438\u043c\u0448\u0435","name:pl":"Rymszany","id":458349949,"population":208},"coordinates":[3282,2792]},{"type":"Point","properties":{"kind":"locality","name":"Kaltan\u0117nai","kind_detail":"town","name:de":"Koltenen","source":"openstreetmap.org","min_zoom":8.0,"name:ru":"\u041a\u0430\u043b\u0442\u0430\u043d\u0435\u043d\u0430\u0439","name:pl":"Ko\u0142tyniany","id":196380792,"population":204},"coordinates":[1982,1413]},{"type":"Point","properties":{"kind":"locality","name":"Duoki\u0161kis","kind_detail":"town","source":"openstreetmap.org","min_zoom":8.0,"name:pl":"Dokiszki","id":853170353,"population":180},"coordinates":[622,3930]},{"type":"Point","properties":{"kind":"locality","name":"Labanoras","kind_detail":"town","name:de":"Labenaren","source":"openstreetmap.org","min_zoom":8.0,"name:pl":"\u0141abonary","id":1656426337,"population":59},"coordinates":[1343,1494]}]},"transit":{"type":"GeometryCollection","geometries":[{"type":"LineString","properties":{"kind":"train","name":"Vilnius - D\u016bk\u0161tas","sort_rank":275,"name:de":"Wilna - Dukschten","source":"openstreetmap.org","min_zoom":6.0,"ref":"Vilnius - D\u016bk\u0161tas","osm_relation":true},"arcs":[16]},{"type":"LineString","properties":{"kind":"train","name":"\u0412\u0456\u0446\u0435\u0431\u0441\u043a - \u041b\u044b\u043d\u0442\u0443\u043f\u044b","name:lt":"Vitebskas - Lentupis","sort_rank":275,"source":"openstreetmap.org","min_zoom":6.0,"ref":"\u0412\u0456\u0446\u0435\u0431\u0441\u043a - \u041b\u044b\u043d\u0442\u0443\u043f\u044b","osm_relation":true},"arcs":[17]},{"type":"LineString","properties":{"source":"openstreetmap.org","kind":"train","name":"Vilnius - Turmantas","sort_rank":275,"ref":"Vilnius - Turmantas","min_zoom":6.0,"osm_relation":true},"arcs":[18]},{"type":"LineString","properties":{"kind":"train","name":"Vilnius - Ignalina","sort_rank":275,"name:de":"Wilna - Ingelin","source":"openstreetmap.org","min_zoom":6.0,"ref":"Vilnius - Ignalina","osm_relation":true},"arcs":[19]}]},"pois":{"type":"GeometryCollection","geometries":[{"type":"Point","properties":{"name:az":"Auk\u015ftaytiya Milli Park\u0131","name:nl":"Nationaal Park Auk\u0161taitija","name:ka":"\u10d0\u10e3\u10e5\u10e8\u10e2\u10d0\u10d8\u10e2\u10d8\u10d8\u10e1 \u10d4\u10e0\u10dd\u10d5\u10dc\u10e3\u10da\u10d8 \u10de\u10d0\u10e0\u10d9\u10d8","name:tr":"uk\u0161taitija Mill\u00ee Park\u0131","name:cs":"N\u00e1rodn\u00ed park Auk\u0161taitijos","min_zoom":5.64,"name:it":"Parco nazionale dell'Auk\u0161taitija","name:uk":"\u0410\u0443\u043a\u0448\u0442\u0430\u0439\u0442\u0441\u044c\u043a\u0438\u0439 \u043d\u0430\u0446\u0456\u043e\u043d\u0430\u043b\u044c\u043d\u0438\u0439 \u043f\u0430\u0440\u043a","name:sv":"Auk\u0161taitija nationalpark","tier":1,"name:ru":"\u0410\u0443\u043a\u0448\u0442\u0430\u0439\u0442\u0441\u043a\u0438\u0439 \u043d\u0430\u0446\u0438\u043e\u043d\u0430\u043b\u044c\u043d\u044b\u0439 \u043f\u0430\u0440\u043a","name:pl":"Auksztocki Park Narodowy","name:gl":"Parque nacional de Auk\u0161taitija","name":"Auk\u0161taitijos nacionalinis parkas","id":-919299,"osm_relation":true,"name:af":"Nasionale Auk\u0161taitija-park","kind":"national_park","name:en":"Auk\u0161taitija National Park","protect_class":"2","area":1268930000,"name:fi":"Auk\u0161taitijan kansallispuisto","name:da":"Auk\u0161taitija nationalpark","name:de":"Nationalpark Aukschtaitien","source":"openstreetmap.org","name:fr":"Parc national d'Auk\u0161taitija","name:et":"Auk\u0161taitija rahvuspark","name:zh":"\u5967\u514b\u65bd\u6cf0\u63d0\u4e9e\u570b\u5bb6\u516c\u5712","name:es":"Parque nacional Auk\u0161taitija"},"coordinates":[2155,1908]},{"type":"Point","properties":{"source":"openstreetmap.org","kind":"military","name":"Pabrad\u0117s poligonas","area":14385900,"tier":3,"min_zoom":8.0,"id":150477090},"coordinates":[1407,343]}]},"boundaries":{"type":"GeometryCollection","geometries":[{"type":"LineString","properties":{"name:right:yo":"L\u00e1tf\u00ed\u00e0","name:right:yi":"\u05dc\u05e2\u05d8\u05dc\u05d0\u05e0\u05d3","name:left:la":"Lituania","name:right:qu":"Litunya","name:left:li":"Litauwe","name:left:vi":"Litva","name:left:ka":"\u10da\u10d8\u10e2\u10d5\u10d0","name:left:kl":"Litaueni","name:left:ko":"\ub9ac\ud22c\uc544\ub2c8\uc544","name:right:it":"Lettonia","name:left:ki":"Lithuania","name:left:ro":"Lituania","name:left:kk":"\u041b\u0438\u0442\u0432\u0430","name:left:rm":"Lituania","name:left:ku":"L\u00eetvanya","name:left:kw":"Lithouani","name:left:kv":"\u041b\u0438\u0442\u0432\u0430","name:right:ro":"Letonia","name:left:ru":"\u041b\u0438\u0442\u0432\u0430","name:right:ie":"Latvia","name:right:id":"Latvia","name:left:ky":"\u041b\u0438\u0442\u0432\u0430","name:right:ia":"Latvia","name:right:bi":"Latvia","name:right:bn":"\u09b2\u09be\u09a4\u09ad\u09bf\u09af\u09bc\u09be","name:right:bo":"\u0f63\u0f0b\u0f4a\u0f0b\u0f5d\u0f72\u0f61\u0f0d","name:left:sl":"Litva","name:right:ba":"\u041b\u0430\u0442\u0432\u0438\u044f","name:right:bg":"\u041b\u0430\u0442\u0432\u0438\u044f","name:right:be":"\u041b\u0430\u0442\u0432\u0456\u044f","name:right:br":"Latvia","name:right:nn":"Latvia","name:right:no":"Latvia","name:right:nl":"Letland","name:right:wo":"Let\u00f3oni","name:right:ne":"\u0932\u093e\u0924\u094d\u092d\u093f\u092f\u093e","name:right:na":"Ratebiya","name:right:nv":"L\u00e9tbiiya","name:left:mg":"Litoania","kind_detail":"2","name:left:tr":"Litvanya","name:right:gu":"\u0ab2\u0abe\u0a9f\u0ab5\u0abf\u0aaf\u0abe","name:right:gv":"Yn Latvey","name:right:pt":"Let\u00f3nia","name:left:mk":"\u041b\u0438\u0442\u0432\u0430\u043d\u0438\u0458\u0430","name:left:mi":"Ritu\u0101nia","name:left:ts":"Lithuania","name:left:tt":"\u041b\u0438\u0442\u0432\u0430","name:left:mn":"\u041b\u0438\u0442\u0432\u0430","name:left:ml":"\u0d32\u0d3f\u0d24\u0d4d\u0d35\u0d3e\u0d28\u0d3f\u0d2f","name:left:th":"\u0e1b\u0e23\u0e30\u0e40\u0e17\u0e28\u0e25\u0e34\u0e17\u0e31\u0e27\u0e40\u0e19\u0e35\u0e22","name:left:mr":"\u0932\u093f\u0925\u0941\u090f\u0928\u093f\u092f\u093e","name:left:tk":"Litwa","name:left:tl":"Litwaniya","name:left:mt":"Litwanja","name:right:gl":"Letonia","name:left:my":"\u101c\u1005\u103a\u101e\u1030\u101a\u1031\u1038\u1014\u102e\u1038\u101a\u102c\u1038\u1014\u102d\u102f\u1004\u103a\u1004\u1036","name:right:gn":"Leto\u00f1a","name:right:pl":"\u0141otwa","name:left:te":"\u0c32\u0c3f\u0c25\u0c41\u0c35\u0c47\u0c28\u0c3f\u0c2f\u0c3e","name:left:tg":"\u041b\u0438\u0442\u0432\u0430","name:left:ms":"Lithuania","name:right:gd":"An Laitbhe","name:right:tr":"Letonya","name:left:da":"Litauen","name:left:de":"Litauen","name:left:dz":"\u0f63\u0f72\u0f0b\u0f50\u0f74\u0f0b\u0f53\u0f72\u0f0b\u0f61\u0f0d","name:right:ga":"An Laitvia","name:left:dv":"\u078d\u07a8\u078c\u07aa\u0787\u07ad\u0782\u07a8\u0787\u07a7","name:right:ug":"\u0644\u0627\u062a\u06cb\u0649\u064a\u06d5","name:left:hi":"\u0932\u093f\u0925\u0941\u0906\u0928\u093f\u092f\u093e","name:right:lb":"Lettland","name:right:uk":"\u041b\u0430\u0442\u0432\u0456\u044f","name:left:he":"\u05dc\u05d9\u05d8\u05d0","name:right:ln":"Letoni","name:right:li":"Letland","name:right:ur":"\u0644\u0679\u0648\u06cc\u0627","name:left:hy":"\u053c\u056b\u057f\u057e\u0561","name:left:ta":"\u0bb2\u0bbf\u0ba4\u0bcd\u0ba4\u0bc1\u0bb5\u0bc7\u0ba9\u0bbf\u0baf\u0bbe","name:left:ht":"Lityani","name:left:hu":"Litv\u00e1nia","name:left:hr":"Litva","sort_rank":262,"name:right:os":"\u041b\u0430\u0442\u0432\u0438","name:right:es":"Letonia","name:right:sr":"\u041b\u0435\u0442\u043e\u043d\u0438\u0458\u0430","name:right:eu":"Letonia","name:right:et":"L\u00e4ti","name:left:os":"\u041b\u0438\u0442\u0432\u0430","name:left:or":"\u0b32\u0b3f\u0b25\u0b41\u0b06\u0b28\u0b3f\u0b06","name:left:ve":"Lituania","name:right:ee":"Latvia","name:left:vo":"Lietuv\u00e4n","name:left:oc":"Litu\u00e0nia","name:right:eo":"Latvujo","name:right:en":"Latvia","name:right:el":"\u039b\u03b5\u03c4\u03bf\u03bd\u03af\u03b1","name:left:ff":"Lituwaniya","name:left:fa":"\u0644\u06cc\u062a\u0648\u0627\u0646\u06cc","name:left:fo":"Litava","name:left:fj":"Lituani","name:right:sk":"Loty\u0161sko","name:left:fi":"Liettua","name:left:fr":"Lituanie","name:left:fy":"Litouwen","name:right:ja":"\u30e9\u30c8\u30d3\u30a2","name:right:sq":"Letonia","name:right:ss":"ILathiviya","name:left:ja":"\u30ea\u30c8\u30a2\u30cb\u30a2","name:right:su":"Latvia","name:right:st":"Latvia","name:right:sw":"Latvia","name:right:sv":"Lettland","name:right:sh":"Letonija","name:left:qu":"Lituwa","name:right:jv":"Latvia","name:right:so":"Latfiya","name:right:sa":"\u0932\u093e\u091f\u094d\u0935\u093f\u092f\u093e","name:right:sc":"Lettonia","name:left:jv":"Lituania","id":-72596,"name:right:co":"Lettonia","name:right:ca":"Let\u00f2nia","name:right:se":"L\u00e1tvia","name:right:ce":"\u041b\u0430\u0442\u0432\u0438","name:right:cy":"Latfia","name:right:zh-yue":"\u62c9\u812b\u7dad\u4e9e","name:right:cs":"Loty\u0161sko","name:right:cu":"\u041b\u0430\u0442\u0432\u0457\ua657","name:right:cv":"\u041b\u0430\u0442\u0432\u0438","name:left:ar":"\u0644\u064a\u062a\u0648\u0627\u0646\u064a\u0627","name:right:is":"Lettland","name:left:az":"Litva","name:left:ay":"Litua\u00f1a","name:right:rw":"Lativiya","name:left:af":"Litaue","name:left:ab":"\u041b\u0438\u0442\u0432\u0430","name:left:an":"Lituania","name:left:am":"\u120a\u1275\u12cc\u1292\u12eb","name:right:ru":"\u041b\u0430\u0442\u0432\u0438\u044f","name:left:ak":"Lituania","name:right:io":"Latvia","name:left:zh-yue":"\u7acb\u9676\u5b9b","name:left:rw":"Lituwaniya","name:right:hy":"\u053c\u0561\u057f\u057e\u056b\u0561","name:left:lb":"Litauen","alt_name:left:eo":"Litovio","name:left:lg":"Lithueenia","name:left:su":"Lituania","name:left:st":"Lituania","name:left:sw":"Lituanya","name:left:sv":"Litauen","name:left:sq":"Lituania","name:right:hu":"Lettorsz\u00e1g","name:left:ss":"Lithuwani","name:left:sr":"\u041b\u0438\u0442\u0432\u0430\u043d\u0438\u0458\u0430","name:right:hi":"\u0932\u093e\u0924\u0935\u093f\u092f\u093e","name:left:so":"Lithuaniya","name:left:sh":"Litvanija","name:left:sk":"Litva","name:left:sg":"Lituan\u00efi","name:left:sa":"\u0932\u0947\u0924\u0941\u0935\u093e","name:right:he":"\u05dc\u05d8\u05d1\u05d9\u05d4","name:left:sc":"Litu\u00e0nia","name:right:la":"Lettonia","name:right:af":"Letland","name:left:co":"Lituania","name:left:ch":"Lituania","name:left:ce":"\u041b\u0438\u0442\u0432\u0430","name:right:an":"Letonia","name:right:am":"\u120b\u1275\u126a\u12eb","name:left:ca":"Litu\u00e0nia","source":"openstreetmap.org","name:left:cy":"Lithwania","name:right:ar":"\u0644\u0627\u062a\u0641\u064a\u0627","name:left:cu":"\u041b\u0438\u0442\u044a\u0432\u0430","name:left:cv":"\u041b\u0438\u0442\u0432\u0430","name:right:az":"Latviya","name:left:cs":"Litva","name:right:rm":"Lettonia","name":"Lietuva - Latvija","name:right:zu":"ILatviya","name:left:zu":"ILithuwaniya","name:left:zh":"\u7acb\u9676\u5b9b","name:right:zh":"\u62c9\u812b\u7dad\u4e9e","official_name:left":"Lietuvos Respublika","name:left:uz":"Litva","name:right:fr":"Lettonie","name:left:ps":"\u0644\u06d0\u062a\u0648\u0627\u0646\u064a\u0627","name:left:ny":"Lithuania","alt_name:right:es":"Latvia","name:left:ur":"\u0644\u062a\u06be\u0648\u0648\u06cc\u0646\u06cc\u0627","id:right":-72594,"name:left:uk":"\u041b\u0438\u0442\u0432\u0430","name:left:no":"Litauen","name:left:nl":"Litouwen","alt_name:right:eo":"Latvio","name:right:fa":"\u0644\u062a\u0648\u0646\u06cc","name:right:fo":"Lettland","name:left:ne":"\u0932\u093f\u0925\u0941\u0906\u0928\u093f\u092f\u093e","name:left:ug":"\u0644\u0649\u062a\u06cb\u0627","name:right:fi":"Latvia","name:left:eo":"Litovujo","name:left:en":"Lithuania","name:left:el":"\u039b\u03b9\u03b8\u03bf\u03c5\u03b1\u03bd\u03af\u03b1","name:left:ee":"Lithuania","name:right:tt":"\u041b\u0430\u0442\u0432\u0438\u044f","name:left:es":"Lituania","name:left:ie":"Lituania","name:left:eu":"Lituania","name:left:et":"Leedu","name:right:zh-min-nan":"Latvia","name:right:oc":"Let\u00f2nia","name:left:ia":"Lituania","name:right:uz":"Latviya","osm_relation":true,"name:right:or":"\u0b32\u0b3e\u0b1f\u0b2d\u0b3f\u0b06","name:left:pt":"Litu\u00e2nia","name:right:ku":"Letonya","name:right:tk":"Latwi\u00fda","name:left:gl":"Lituania - Lietuva","name:left:wa":"Litwaneye","min_zoom":8.0,"name:left:ln":"Litwani","name:left:wo":"Lituwaani","name:left:ga":"An Liotu\u00e1in","name:left:it":"Lituania","name:left:gd":"Liotu\u00e0inia","int_name:right":"Latvia","name:left:gn":"Litua\u00f1a","name:left:nv":"\u0141it\u02bcoow\u0119\u0301\u0119ya","name:left:gu":"\u0ab2\u0abf\u0aa5\u0ac1\u0a86\u0aa8\u0abf\u0aaf\u0abe","name:left:gv":"Yn Litaan","official_name:right":"Latvijas Republika","name:left":"Lietuva","name:right:mk":"\u041b\u0430\u0442\u0432\u0438\u0458\u0430","name:right:mi":"R\u0101whia","name:right:mn":"\u041b\u0430\u0442\u0432\u0438","name:right:ml":"\u0d32\u0d3e\u0d24\u0d4d\u200c\u0d35\u0d3f\u0d2f","name:right:vo":"Latviy\u00e4n","name:right:mg":"Latvia","name:right:vi":"Latvia","name:right:my":"\u101c\u1010\u103a\u1017\u102e\u101a\u102c\u1014\u102d\u102f\u1004\u103a\u1004\u1036","name:right:ms":"Latvia","name:right:mr":"\u0932\u093e\u0924\u094d\u0935\u094d\u0939\u093f\u092f\u093e","name:right:fy":"Letl\u00e2n","name:right:mt":"Latvja","name:left:nn":"Litauen","kind":"country","name:left:br":"Lituania","name:left:bs":"Litvanija","int_name:left":"Lithuania","name:left:ba":"\u041b\u0438\u0442\u0432\u0430","name:left:bg":"\u041b\u0438\u0442\u0432\u0430","name:left:be":"\u041b\u0456\u0442\u0432\u0430","name:left:bi":"Litwania","name:left:bn":"\u09b2\u09bf\u09a5\u09c1\u09af\u09bc\u09be\u09a8\u09bf\u09af\u09bc\u09be","name:left:bo":"\u0f63\u0f72\u0f0b\u0f50\u0f74\u0f0b\u0f68\u0f7a\u0f0b\u0f53\u0f72\u0f0b\u0f61\u0f0d","name:right":"Latvija","name:left:yo":"Litu\u00e9n\u00ed\u00e0","name:left:yi":"\u05dc\u05d9\u05d8\u05e2","id:left":-72596,"name:left:na":"Rituainiya","name:right:ka":"\u10da\u10d0\u10e2\u10d5\u10d8\u10d0","name:left:io":"Lituania","name:right:kg":"Latvia","name:left:pl":"Litwa","name:right:kk":"\u041b\u0430\u0442\u0432\u0438\u044f","name:left:id":"Lituania","name:right:kl":"Letlandi","name:right:ko":"\ub77c\ud2b8\ube44\uc544","name:right:tl":"Latbiya","name:right:th":"\u0e1b\u0e23\u0e30\u0e40\u0e17\u0e28\u0e25\u0e31\u0e15\u0e40\u0e27\u0e35\u0e22","name:right:kw":"Latvi","name:right:kv":"\u041b\u0430\u0442\u0432\u0438\u044f","name:right:ky":"\u041b\u0430\u0442\u0432\u0438\u044f","name:right:te":"\u0c32\u0c3e\u0c1f\u0c4d\u0c35\u0c3f\u0c2f\u0c3e","name:left:iu":"\u14d5\u140b\u1450\u1559","name:right:tg":"\u041b\u0430\u0442\u0432\u0438\u044f","name:left:is":"Lith\u00e1en","name:right:ta":"\u0bb2\u0bbe\u0ba4\u0bcd\u0bb5\u0bbf\u0baf\u0bbe","name:right:de":"Lettland","name:right:da":"Letland","name:left:rn":"Lituania","name:right:dz":"\u0f63\u0f7a\u0f4a\u0f72\u0f0b\u0f56\u0f72\u0f0b\u0f61\u0f0d","name:right:dv":"\u078d\u07ac\u0793\u07aa\u0788\u07a8\u0787\u07a7","name:right:ht":"Letoni"},"arcs":[0]},{"type":"MultiLineString","properties":{"name:right:yo":"B\u1eb9\u0300l\u00e1r\u00f9s","old_name:right:eo":"Bjelorusio;Bjelorusujo","name:left:la":"Lituania","name:right:qu":"Bilarus","name:right:yi":"\u05d1\u05e2\u05dc\u05d0\u05e8\u05d5\u05e1","name:left:li":"Litauwe","name:left:vi":"Litva","name:left:sw":"Lituanya","name:left:ka":"\u10da\u10d8\u10e2\u10d5\u10d0","name:left:kl":"Litaueni","name:left:ko":"\ub9ac\ud22c\uc544\ub2c8\uc544","name:right:it":"Bielorussia","name:left:ki":"Lithuania","name:left:ro":"Lituania","name:left:kk":"\u041b\u0438\u0442\u0432\u0430","name:left:rm":"Lituania","name:left:ku":"L\u00eetvanya","name:left:kw":"Lithouani","name:left:kv":"\u041b\u0438\u0442\u0432\u0430","name:right:ro":"Belarus","name:left:ru":"\u041b\u0438\u0442\u0432\u0430","name:right:ie":"Bielorussia","name:right:id":"Belarus","name:left:ky":"\u041b\u0438\u0442\u0432\u0430","name:right:ia":"Bielorussia","name:right:bi":"Belarus","name:right:bn":"\u09ac\u09c7\u09b2\u09be\u09b0\u09c1\u09b6","name:right:bo":"\u0f56\u0fb7\u0f7a\u0f0b\u0f63\u0f0b\u0f62\u0f66\u0f74\u0f0d","name:left:sl":"Litva","name:right:bg":"\u0411\u0435\u043b\u0430\u0440\u0443\u0441","name:right:br":"Belarus","name:right:bs":"Bjelorusija","name:right:nn":"Kviterussland","name:right:no":"Hviterussland","name:right:nl":"Wit-Rusland","name:right:wo":"Belaarus","name:right:ne":"\u092c\u0947\u0932\u093e\u0930\u0941\u0938","name:right:na":"Berarut","name:right:gv":"Yn Velaroosh","name:left:mg":"Litoania","kind_detail":"2","alt_name:right:vi":"B\u1ea1ch Nga","name:left:mi":"Ritu\u0101nia","name:right:gu":"\u0aac\u0ac7\u0ab2\u0abe\u0ab0\u0ac1\u0ab8","name:right:ps":"\u0628\u06d0\u0644\u0627\u0631\u0648\u0633","name:right:pt":"Bielorr\u00fassia","name:left:mk":"\u041b\u0438\u0442\u0432\u0430\u043d\u0438\u0458\u0430","name:left:tr":"Litvanya","name:left:ts":"Lithuania","name:left:tt":"\u041b\u0438\u0442\u0432\u0430","name:left:mn":"\u041b\u0438\u0442\u0432\u0430","name:left:ml":"\u0d32\u0d3f\u0d24\u0d4d\u0d35\u0d3e\u0d28\u0d3f\u0d2f","name:left:th":"\u0e1b\u0e23\u0e30\u0e40\u0e17\u0e28\u0e25\u0e34\u0e17\u0e31\u0e27\u0e40\u0e19\u0e35\u0e22","name:left:mr":"\u0932\u093f\u0925\u0941\u090f\u0928\u093f\u092f\u093e","name:left:tk":"Litwa","name:left:tl":"Litwaniya","name:left:mt":"Litwanja","name:right:gl":"Bielorrusia","name:left:my":"\u101c\u1005\u103a\u101e\u1030\u101a\u1031\u1038\u1014\u102e\u1038\u101a\u102c\u1038\u1014\u102d\u102f\u1004\u103a\u1004\u1036","name:right:gn":"Vielorrusia","name:right:pl":"Bia\u0142oru\u015b","name:left:te":"\u0c32\u0c3f\u0c25\u0c41\u0c35\u0c47\u0c28\u0c3f\u0c2f\u0c3e","name:left:tg":"\u041b\u0438\u0442\u0432\u0430","name:left:ms":"Lithuania","name:right:gd":"A' Bhealaruis","name:right:tr":"Beyaz Rusya","name:left:da":"Litauen","name:left:de":"Litauen","name:left:dz":"\u0f63\u0f72\u0f0b\u0f50\u0f74\u0f0b\u0f53\u0f72\u0f0b\u0f61\u0f0d","name:right:ga":"An Bhealar\u00fais","name:left:dv":"\u078d\u07a8\u078c\u07aa\u0787\u07ad\u0782\u07a8\u0787\u07a7","name:right:ug":"\u0628\u06d0\u0644\u0648\u0631\u06c7\u0633\u0633\u0649\u064a\u06d5","name:left:hi":"\u0932\u093f\u0925\u0941\u0906\u0928\u093f\u092f\u093e","name:right:lb":"W\u00e4issrussland","name:right:uk":"\u0411\u0456\u043b\u043e\u0440\u0443\u0441\u044c","name:left:he":"\u05dc\u05d9\u05d8\u05d0","name:right:ln":"Bielorusia","name:right:li":"Wit-Rusland","name:right:lt":"Baltarusija","name:right:ur":"\u0628\u06cc\u0644\u0627\u0631\u0648\u0633","name:right:lv":"Baltkrievija","name:left:hy":"\u053c\u056b\u057f\u057e\u0561","name:left:ta":"\u0bb2\u0bbf\u0ba4\u0bcd\u0ba4\u0bc1\u0bb5\u0bc7\u0ba9\u0bbf\u0baf\u0bbe","name:left:ht":"Lityani","name:left:hu":"Litv\u00e1nia","name:left:hr":"Litva","sort_rank":262,"name:right:os":"\u0411\u0435\u043b\u043e\u0440\u0443\u0441\u0441\u0438","name:right:es":"Bielorrusia","name:right:sr":"\u0411\u0435\u043b\u043e\u0440\u0443\u0441\u0438\u0458\u0430","name:right:eu":"Bielorrusia","name:right:et":"Valgevene","name:left:os":"\u041b\u0438\u0442\u0432\u0430","name:left:or":"\u0b32\u0b3f\u0b25\u0b41\u0b06\u0b28\u0b3f\u0b06","name:left:ve":"Lituania","name:right:ee":"Belarus","name:left:vo":"Lietuv\u00e4n","name:left:oc":"Litu\u00e0nia","name:right:eo":"Belorusujo","name:right:en":"Belarus","name:right:el":"\u039b\u03b5\u03c5\u03ba\u03bf\u03c1\u03c9\u03c3\u03af\u03b1","name:left:ff":"Lituwaniya","name:left:fa":"\u0644\u06cc\u062a\u0648\u0627\u0646\u06cc","name:left:fo":"Litava","name:left:fj":"Lituani","name:right:sk":"Bielorusko","name:left:fi":"Liettua","name:left:fr":"Lituanie","name:left:fy":"Litouwen","name:right:ja":"\u30d9\u30e9\u30eb\u30fc\u30b7","name:right:sq":"Bjellorusia","name:right:ss":"IBhelalasi","name:left:ja":"\u30ea\u30c8\u30a2\u30cb\u30a2","name:right:su":"B\u00e9larus","name:right:sw":"Belarus","name:right:sv":"Vitryssland","name:right:si":"\u0db6\u0dd9\u0dbd\u0dcf\u0dbb\u0dc3\u0dca","name:right:sh":"Belorusija","name:left:qu":"Lituwa","name:right:jv":"B\u00e9larus","name:right:sl":"Belorusija","name:right:so":"Belarus","name:right:sa":"\u092c\u0947\u0932\u093e\u0930\u0942\u0938","name:left:jv":"Lituania","id":-72596,"name:right:co":"Bielorussia","name:right:ca":"Bielor\u00fassia","name:right:se":"Vilges-Ruo\u0161\u0161a","name:right:ce":"\u0411\u0435\u043b\u043e\u0440\u0443\u0441\u0441\u0438","name:right:cy":"Belarws","name:right:zh-yue":"\u767d\u4fc4\u7f85\u65af","name:right:cs":"B\u011blorusko","name:right:cu":"\u0411\u0463\u043b\u0430 \u0420\u043e\u0443\u0441\u044c","name:right:cv":"\u0411\u0435\u043b\u0430\u0440\u0443\u00e7","name:left:ar":"\u0644\u064a\u062a\u0648\u0627\u0646\u064a\u0627","name:right:is":"Hv\u00edta-R\u00fassland","name:left:az":"Litva","name:left:ay":"Litua\u00f1a","name:right:rw":"Belarusi","name:left:af":"Litaue","name:left:ab":"\u041b\u0438\u0442\u0432\u0430","name:left:an":"Lituania","name:left:am":"\u120a\u1275\u12cc\u1292\u12eb","name:left:ak":"Lituania","name:right:io":"Bielorusia","name:left:zh-yue":"\u7acb\u9676\u5b9b","name:left:rw":"Lituwaniya","name:right:hy":"\u0532\u0565\u056c\u0561\u057c\u0578\u0582\u057d","name:left:lb":"Litauen","alt_name:left:eo":"Litovio","name:left:lg":"Lithueenia","name:left:su":"Lituania","name:left:st":"Lituania","name:right:hr":"Bjelorusija","name:left:sv":"Litauen","name:left:sq":"Lituania","name:right:hu":"Feh\u00e9roroszorsz\u00e1g","name:left:ss":"Lithuwani","name:left:sr":"\u041b\u0438\u0442\u0432\u0430\u043d\u0438\u0458\u0430","name:right:hi":"\u092c\u0947\u0932\u093e\u0930\u0942\u0938","name:left:so":"Lithuaniya","name:left:sh":"Litvanija","name:left:sk":"Litva","name:left:sg":"Lituan\u00efi","name:left:sa":"\u0932\u0947\u0924\u0941\u0935\u093e","name:right:he":"\u05d1\u05dc\u05d0\u05e8\u05d5\u05e1","name:left:sc":"Litu\u00e0nia","name:right:la":"Ruthenia Alba","name:right:af":"Wit-Rusland","name:left:co":"Lituania","name:left:ch":"Lituania","name:left:ce":"\u041b\u0438\u0442\u0432\u0430","name:left:ca":"Litu\u00e0nia","source":"openstreetmap.org","name:left:cy":"Lithwania","name:right:ar":"\u0631\u0648\u0633\u064a\u0627 \u0627\u0644\u0628\u064a\u0636\u0627\u0621","name:left:cu":"\u041b\u0438\u0442\u044a\u0432\u0430","name:left:cv":"\u041b\u0438\u0442\u0432\u0430","name:right:az":"Belarus","name:left:cs":"Litva","name:right:rm":"Bielorussia","name":"Lietuva - \u0411\u0435\u043b\u0430\u0440\u0443\u0441\u044c","name:right:zu":"IBelarusi","name:left:zu":"ILithuwaniya","name:left:zh":"\u7acb\u9676\u5b9b","name:right:zh":"\u767d\u4fc4\u7f57\u65af","official_name:left":"Lietuvos Respublika","name:left:uz":"Litva","name:right:fr":"B\u00e9larus","name:left:ny":"Lithuania","name:left:nv":"\u0141it\u02bcoow\u0119\u0301\u0119ya","name:left:ur":"\u0644\u062a\u06be\u0648\u0648\u06cc\u0646\u06cc\u0627","id:right":-59065,"name:left:uk":"\u041b\u0438\u0442\u0432\u0430","name:left:no":"Litauen","name:left:nl":"Litouwen","alt_name:right:eo":"Belorusio","name:left:gd":"Liotu\u00e0inia","name:right:fa":"\u0628\u0644\u0627\u0631\u0648\u0633","name:right:fo":"Hv\u00edtarussland","name:left:ne":"\u0932\u093f\u0925\u0941\u0906\u0928\u093f\u092f\u093e","name:left:ug":"\u0644\u0649\u062a\u06cb\u0627","name:left:na":"Rituainiya","name:left:eo":"Litovujo","name:left:en":"Lithuania","name:left:el":"\u039b\u03b9\u03b8\u03bf\u03c5\u03b1\u03bd\u03af\u03b1","name:left:ee":"Lithuania","name:right:tt":"\u0411\u0435\u043b\u0430\u0440\u0443\u0441\u0438\u044f","name:left:es":"Lituania","name:left:eu":"Lituania","name:left:et":"Leedu","name:right:zh-min-nan":"Belarus","name:right:oc":"Bielorussia","name:right:ko":"\ubca8\ub77c\ub8e8\uc2a4","name:right:kn":"\u0cac\u0cc6\u0cb2\u0cbe\u0cb0\u0cc1\u0cb8\u0ccd","name:right:uz":"Belarus","osm_relation":true,"name:right:or":"\u0b2c\u0b47\u0b32\u0b3e\u0b0b\u0b37","name:left:pt":"Litu\u00e2nia","name:right:ku":"Belar\u00fbs","name:left:ps":"\u0644\u06d0\u062a\u0648\u0627\u0646\u064a\u0627","name:left:gl":"Lituania - Lietuva","name:left:wa":"Litwaneye","min_zoom":8.0,"name:left:ln":"Litwani","name:left:wo":"Lituwaani","name:left:ga":"An Liotu\u00e1in","name:left:it":"Lituania","alt_name:right:fr":"Bi\u00e9lorussie","int_name:right":"Belarus","name:left:gn":"Litua\u00f1a","name:left:gu":"\u0ab2\u0abf\u0aa5\u0ac1\u0a86\u0aa8\u0abf\u0aaf\u0abe","name:left:gv":"Yn Litaan","official_name:right":"\u0420\u044d\u0441\u043f\u0443\u0431\u043b\u0456\u043a\u0430 \u0411\u0435\u043b\u0430\u0440\u0443\u0441\u044c","name:left":"Lietuva","name:right:mk":"\u0411\u0435\u043b\u043e\u0440\u0443\u0441\u0438\u0458\u0430","name:right:mi":"P\u0113rara","name:right:ml":"\u0d2c\u0d46\u0d32\u0d3e\u0d31\u0d41\u0d38\u0d4d","name:right:vo":"Belarus\u00e4n","name:right:vi":"Belarus","name:right:my":"\u1018\u102e\u101c\u102c\u101b\u102f\u1007\u103a\u1014\u102d\u102f\u1004\u103a\u1004\u1036","name:right:ms":"Belarus","name:right:mr":"\u092c\u0947\u0932\u093e\u0930\u0942\u0938","name:right:fy":"Wyt-Rusl\u00e2n","name:right:mt":"Belarus","name:left:nn":"Litauen","kind":"country","name:left:br":"Lituania","name:left:bs":"Litvanija","int_name:left":"Lithuania","name:left:ba":"\u041b\u0438\u0442\u0432\u0430","name:left:bg":"\u041b\u0438\u0442\u0432\u0430","name:left:be":"\u041b\u0456\u0442\u0432\u0430","name:right:ff":"Belaruusiya","name:left:bi":"Litwania","name:left:bn":"\u09b2\u09bf\u09a5\u09c1\u09af\u09bc\u09be\u09a8\u09bf\u09af\u09bc\u09be","name:left:bo":"\u0f63\u0f72\u0f0b\u0f50\u0f74\u0f0b\u0f68\u0f7a\u0f0b\u0f53\u0f72\u0f0b\u0f61\u0f0d","name:right":"\u0411\u0435\u043b\u0430\u0440\u0443\u0441\u044c","name:left:yo":"Litu\u00e9n\u00ed\u00e0","name:left:yi":"\u05dc\u05d9\u05d8\u05e2","id:left":-72596,"name:right:fi":"Valko-Ven\u00e4j\u00e4","name:right:ka":"\u10d1\u10d4\u10da\u10d0\u10e0\u10e3\u10e1\u10d8","name:left:io":"Lituania","name:right:ty":"Belarus","name:right:kg":"Belarusia","name:left:pl":"Litwa","name:left:ie":"Lituania","name:left:id":"Lituania","name:right:kl":"Hvideruslandi","name:left:ia":"Lituania","name:right:ts":"Belarus","name:right:tl":"Biyelorusya","name:right:th":"\u0e1b\u0e23\u0e30\u0e40\u0e17\u0e28\u0e40\u0e1a\u0e25\u0e32\u0e23\u0e38\u0e2a","name:right:kw":"Belarussi","name:right:tk":"Belorussi\u00fda","name:right:ky":"\u0411\u0435\u043b\u0430\u0440\u0443\u0441\u0438\u044f","name:right:te":"\u0c2c\u0c46\u0c32\u0c3e\u0c30\u0c38\u0c4d","name:left:iu":"\u14d5\u140b\u1450\u1559","name:right:tg":"\u0411\u0435\u043b\u0430\u0440\u0443\u0441","name:left:is":"Lith\u00e1en","name:right:ta":"\u0baa\u0bc6\u0bb2\u0bb0\u0bc1\u0bb8\u0bcd","name:right:de":"Wei\u00dfrussland","name:right:da":"Hviderusland","name:left:rn":"Lituania","name:right:dz":"\u0f56\u0f7a\u0f0b\u0f63\u0f0b\u0f62\u0f74\u0f0b\u0f66\u0f74\u0f0d","name:right:dv":"\u0784\u07ac\u078d\u07a6\u0783\u07ab\u0790\u07b0","name:right:ht":"Byelorisi"},"arcs":[[1],[2]]},{"type":"LineString","properties":{"name:right:yo":"B\u1eb9\u0300l\u00e1r\u00f9s","old_name:right:eo":"Bjelorusio;Bjelorusujo","name:left:la":"Lettonia","name:left:lb":"Lettland","name:right:yi":"\u05d1\u05e2\u05dc\u05d0\u05e8\u05d5\u05e1","name:left:li":"Letland","name:left:vi":"Latvia","name:right:hr":"Bjelorusija","name:left:kg":"Latvia","name:left:ka":"\u10da\u10d0\u10e2\u10d5\u10d8\u10d0","name:left:kl":"Letlandi","name:left:ko":"\ub77c\ud2b8\ube44\uc544","name:right:it":"Bielorussia","name:right:is":"Hv\u00edta-R\u00fassland","name:right:rw":"Belarusi","name:left:kk":"\u041b\u0430\u0442\u0432\u0438\u044f","name:left:rm":"Lettonia","name:left:ku":"Letonya","name:left:kw":"Latvi","name:left:kv":"\u041b\u0430\u0442\u0432\u0438\u044f","name:left:rw":"Lativiya","name:left:ru":"\u041b\u0430\u0442\u0432\u0438\u044f","name:right:ie":"Bielorussia","name:right:id":"Belarus","name:left:ky":"\u041b\u0430\u0442\u0432\u0438\u044f","name:right:ia":"Bielorussia","name:right:bi":"Belarus","name:right:bn":"\u09ac\u09c7\u09b2\u09be\u09b0\u09c1\u09b6","name:right:bo":"\u0f56\u0fb7\u0f7a\u0f0b\u0f63\u0f0b\u0f62\u0f66\u0f74\u0f0d","name:right:bg":"\u0411\u0435\u043b\u0430\u0440\u0443\u0441","name:right:br":"Belarus","name:right:bs":"Bjelorusija","name:right:nn":"Kviterussland","name:right:no":"Hviterussland","name:right:nl":"Wit-Rusland","name:right:wo":"Belaarus","name:right:ne":"\u092c\u0947\u0932\u093e\u0930\u0941\u0938","name:right:na":"Berarut","name:left:se":"L\u00e1tvia","name:right:gv":"Yn Velaroosh","name:left:mg":"Latvia","kind_detail":"2","alt_name:right:vi":"B\u1ea1ch Nga","name:left:mi":"R\u0101whia","name:right:gu":"\u0aac\u0ac7\u0ab2\u0abe\u0ab0\u0ac1\u0ab8","name:right:ps":"\u0628\u06d0\u0644\u0627\u0631\u0648\u0633","name:right:pt":"Bielorr\u00fassia","name:left:mk":"\u041b\u0430\u0442\u0432\u0438\u0458\u0430","name:left:tr":"Letonya","name:left:tt":"\u041b\u0430\u0442\u0432\u0438\u044f","name:left:mn":"\u041b\u0430\u0442\u0432\u0438","name:left:ml":"\u0d32\u0d3e\u0d24\u0d4d\u200c\u0d35\u0d3f\u0d2f","name:left:th":"\u0e1b\u0e23\u0e30\u0e40\u0e17\u0e28\u0e25\u0e31\u0e15\u0e40\u0e27\u0e35\u0e22","name:left:mr":"\u0932\u093e\u0924\u094d\u0935\u094d\u0939\u093f\u092f\u093e","name:left:tk":"Latwi\u00fda","name:left:tl":"Latbiya","name:left:mt":"Latvja","name:right:gl":"Bielorrusia","name:left:my":"\u101c\u1010\u103a\u1017\u102e\u101a\u102c\u1014\u102d\u102f\u1004\u103a\u1004\u1036","name:right:gn":"Vielorrusia","name:right:pl":"Bia\u0142oru\u015b","name:left:te":"\u0c32\u0c3e\u0c1f\u0c4d\u0c35\u0c3f\u0c2f\u0c3e","name:left:tg":"\u041b\u0430\u0442\u0432\u0438\u044f","name:left:ms":"Latvia","name:right:gd":"A' Bhealaruis","name:left:da":"Letland","name:left:de":"Lettland","name:left:dz":"\u0f63\u0f7a\u0f4a\u0f72\u0f0b\u0f56\u0f72\u0f0b\u0f61\u0f0d","name:right:ga":"An Bhealar\u00fais","name:left:dv":"\u078d\u07ac\u0793\u07aa\u0788\u07a8\u0787\u07a7","name:right:ug":"\u0628\u06d0\u0644\u0648\u0631\u06c7\u0633\u0633\u0649\u064a\u06d5","name:left:hi":"\u0932\u093e\u0924\u0935\u093f\u092f\u093e","name:right:lb":"W\u00e4issrussland","name:right:uk":"\u0411\u0456\u043b\u043e\u0440\u0443\u0441\u044c","name:left:he":"\u05dc\u05d8\u05d1\u05d9\u05d4","name:right:ln":"Bielorusia","name:right:li":"Wit-Rusland","name:right:lt":"Baltarusija","name:right:ur":"\u0628\u06cc\u0644\u0627\u0631\u0648\u0633","name:right:lv":"Baltkrievija","name:left:hy":"\u053c\u0561\u057f\u057e\u056b\u0561","name:left:ta":"\u0bb2\u0bbe\u0ba4\u0bcd\u0bb5\u0bbf\u0baf\u0bbe","name:left:ht":"Letoni","name:left:hu":"Lettorsz\u00e1g","sort_rank":262,"name:right:os":"\u0411\u0435\u043b\u043e\u0440\u0443\u0441\u0441\u0438","name:right:es":"Bielorrusia","name:right:sr":"\u0411\u0435\u043b\u043e\u0440\u0443\u0441\u0438\u0458\u0430","name:right:eu":"Bielorrusia","name:right:et":"Valgevene","name:left:os":"\u041b\u0430\u0442\u0432\u0438","name:left:or":"\u0b32\u0b3e\u0b1f\u0b2d\u0b3f\u0b06","name:right:ee":"Belarus","name:left:vo":"Latviy\u00e4n","name:left:oc":"Let\u00f2nia","name:right:eo":"Belorusujo","name:right:en":"Belarus","name:right:el":"\u039b\u03b5\u03c5\u03ba\u03bf\u03c1\u03c9\u03c3\u03af\u03b1","name:left:fa":"\u0644\u062a\u0648\u0646\u06cc","name:left:ia":"Latvia","name:left:fo":"Lettland","name:left:qu":"Litunya","name:left:fi":"Latvia","name:left:fr":"Lettonie","name:left:fy":"Letl\u00e2n","name:right:ja":"\u30d9\u30e9\u30eb\u30fc\u30b7","name:right:sq":"Bjellorusia","name:right:ss":"IBhelalasi","name:left:ja":"\u30e9\u30c8\u30d3\u30a2","name:right:su":"B\u00e9larus","name:right:sw":"Belarus","name:right:sv":"Vitryssland","name:right:si":"\u0db6\u0dd9\u0dbd\u0dcf\u0dbb\u0dc3\u0dca","name:right:sh":"Belorusija","name:right:sk":"Bielorusko","name:right:jv":"B\u00e9larus","name:right:sl":"Belorusija","name:right:so":"Belarus","name:right:sa":"\u092c\u0947\u0932\u093e\u0930\u0942\u0938","name:left:jv":"Latvia","id":-72594,"name:right:co":"Bielorussia","name:right:ca":"Bielor\u00fassia","name:right:se":"Vilges-Ruo\u0161\u0161a","name:right:ce":"\u0411\u0435\u043b\u043e\u0440\u0443\u0441\u0441\u0438","name:right:cy":"Belarws","name:right:zh-yue":"\u767d\u4fc4\u7f85\u65af","name:right:cs":"B\u011blorusko","name:right:cu":"\u0411\u0463\u043b\u0430 \u0420\u043e\u0443\u0441\u044c","name:right:cv":"\u0411\u0435\u043b\u0430\u0440\u0443\u00e7","name:left:ar":"\u0644\u0627\u062a\u0641\u064a\u0627","name:left:az":"Latviya","name:left:ro":"Letonia","name:left:af":"Letland","name:left:an":"Letonia","name:left:am":"\u120b\u1275\u126a\u12eb","name:right:io":"Bielorusia","name:left:zh-yue":"\u62c9\u812b\u7dad\u4e9e","name:right:ro":"Belarus","name:right:hy":"\u0532\u0565\u056c\u0561\u057c\u0578\u0582\u057d","name:right:qu":"Bilarus","alt_name:left:eo":"Latvio","name:left:su":"Latvia","name:left:st":"Latvia","name:left:sw":"Latvia","name:left:sv":"Lettland","name:left:sq":"Letonia","name:right:hu":"Feh\u00e9roroszorsz\u00e1g","name:left:ln":"Letoni","name:left:sr":"\u041b\u0435\u0442\u043e\u043d\u0438\u0458\u0430","name:right:hi":"\u092c\u0947\u0932\u093e\u0930\u0942\u0938","name:left:so":"Latfiya","name:left:sh":"Letonija","name:left:sk":"Loty\u0161sko","alt_name:left:es":"Latvia","name:left:sa":"\u0932\u093e\u091f\u094d\u0935\u093f\u092f\u093e","name:right:he":"\u05d1\u05dc\u05d0\u05e8\u05d5\u05e1","name:left:sc":"Lettonia","name:right:la":"Ruthenia Alba","name:right:af":"Wit-Rusland","name:left:co":"Lettonia","name:left:ce":"\u041b\u0430\u0442\u0432\u0438","name:left:ca":"Let\u00f2nia","source":"openstreetmap.org","name:left:cy":"Latfia","name:right:ar":"\u0631\u0648\u0633\u064a\u0627 \u0627\u0644\u0628\u064a\u0636\u0627\u0621","name:left:cu":"\u041b\u0430\u0442\u0432\u0457\ua657","name:left:cv":"\u041b\u0430\u0442\u0432\u0438","name:right:az":"Belarus","name:left:cs":"Loty\u0161sko","name:right:rm":"Bielorussia","name":"Latvija - \u0411\u0435\u043b\u0430\u0440\u0443\u0441\u044c","name:right:zu":"IBelarusi","name:left:zu":"ILatviya","name:left:zh":"\u62c9\u812b\u7dad\u4e9e","name:right:zh":"\u767d\u4fc4\u7f57\u65af","official_name:left":"Latvijas Republika","name:left:uz":"Latviya","name:right:fr":"B\u00e9larus","name:left:nv":"L\u00e9tbiiya","name:left:ur":"\u0644\u0679\u0648\u06cc\u0627","id:right":-59065,"name:left:uk":"\u041b\u0430\u0442\u0432\u0456\u044f","name:left:no":"Latvia","name:left:nl":"Letland","alt_name:right:eo":"Belorusio","name:left:gd":"An Laitbhe","name:right:fa":"\u0628\u0644\u0627\u0631\u0648\u0633","name:right:fo":"Hv\u00edtarussland","name:left:ne":"\u0932\u093e\u0924\u094d\u092d\u093f\u092f\u093e","name:left:ug":"\u0644\u0627\u062a\u06cb\u0649\u064a\u06d5","name:left:na":"Ratebiya","name:left:eo":"Latvujo","name:left:en":"Latvia","name:left:el":"\u039b\u03b5\u03c4\u03bf\u03bd\u03af\u03b1","name:left:ee":"Latvia","name:left:pl":"\u0141otwa","name:left:es":"Letonia","name:left:ss":"ILathiviya","name:left:eu":"Letonia","name:left:et":"L\u00e4ti","name:right:zh-min-nan":"Belarus","name:right:oc":"Bielorussia","name:right:ko":"\ubca8\ub77c\ub8e8\uc2a4","name:right:ts":"Belarus","name:right:uz":"Belarus","osm_relation":true,"name:right:or":"\u0b2c\u0b47\u0b32\u0b3e\u0b0b\u0b37","name:left:pt":"Let\u00f3nia","name:right:th":"\u0e1b\u0e23\u0e30\u0e40\u0e17\u0e28\u0e40\u0e1a\u0e25\u0e32\u0e23\u0e38\u0e2a","name:left:gl":"Letonia","min_zoom":8.0,"name:left:zh-min-nan":"Latvia","name:left:wo":"Let\u00f3oni","name:left:ga":"An Laitvia","name:left:it":"Lettonia","alt_name:right:fr":"Bi\u00e9lorussie","int_name:right":"Belarus","name:left:gn":"Leto\u00f1a","name:left:gu":"\u0ab2\u0abe\u0a9f\u0ab5\u0abf\u0aaf\u0abe","name:left:gv":"Yn Latvey","official_name:right":"\u0420\u044d\u0441\u043f\u0443\u0431\u043b\u0456\u043a\u0430 \u0411\u0435\u043b\u0430\u0440\u0443\u0441\u044c","name:left":"Latvija","name:right:mk":"\u0411\u0435\u043b\u043e\u0440\u0443\u0441\u0438\u0458\u0430","name:right:mi":"P\u0113rara","name:right:ml":"\u0d2c\u0d46\u0d32\u0d3e\u0d31\u0d41\u0d38\u0d4d","name:right:vo":"Belarus\u00e4n","name:right:vi":"Belarus","name:right:my":"\u1018\u102e\u101c\u102c\u101b\u102f\u1007\u103a\u1014\u102d\u102f\u1004\u103a\u1004\u1036","name:right:ms":"Belarus","name:right:mr":"\u092c\u0947\u0932\u093e\u0930\u0942\u0938","name:right:fy":"Wyt-Rusl\u00e2n","name:right:mt":"Belarus","name:left:nn":"Latvia","kind":"country","name:left:br":"Latvia","int_name:left":"Latvia","name:left:ba":"\u041b\u0430\u0442\u0432\u0438\u044f","name:left:bg":"\u041b\u0430\u0442\u0432\u0438\u044f","name:left:be":"\u041b\u0430\u0442\u0432\u0456\u044f","name:right:ff":"Belaruusiya","name:left:bi":"Latvia","name:left:bn":"\u09b2\u09be\u09a4\u09ad\u09bf\u09af\u09bc\u09be","name:left:bo":"\u0f63\u0f0b\u0f4a\u0f0b\u0f5d\u0f72\u0f61\u0f0d","name:right":"\u0411\u0435\u043b\u0430\u0440\u0443\u0441\u044c","name:left:yo":"L\u00e1tf\u00ed\u00e0","name:left:yi":"\u05dc\u05e2\u05d8\u05dc\u05d0\u05e0\u05d3","id:left":-72594,"name:right:fi":"Valko-Ven\u00e4j\u00e4","name:right:ka":"\u10d1\u10d4\u10da\u10d0\u10e0\u10e3\u10e1\u10d8","name:left:io":"Latvia","name:right:ty":"Belarus","name:right:kg":"Belarusia","name:right:tt":"\u0411\u0435\u043b\u0430\u0440\u0443\u0441\u0438\u044f","name:left:ie":"Latvia","name:left:id":"Latvia","name:right:kl":"Hvideruslandi","name:right:tr":"Beyaz Rusya","name:right:kn":"\u0cac\u0cc6\u0cb2\u0cbe\u0cb0\u0cc1\u0cb8\u0ccd","name:right:tl":"Biyelorusya","name:right:ku":"Belar\u00fbs","name:right:kw":"Belarussi","name:right:tk":"Belorussi\u00fda","name:right:ky":"\u0411\u0435\u043b\u0430\u0440\u0443\u0441\u0438\u044f","name:right:te":"\u0c2c\u0c46\u0c32\u0c3e\u0c30\u0c38\u0c4d","name:right:tg":"\u0411\u0435\u043b\u0430\u0440\u0443\u0441","name:left:is":"Lettland","name:right:ta":"\u0baa\u0bc6\u0bb2\u0bb0\u0bc1\u0bb8\u0bcd","name:right:de":"Wei\u00dfrussland","name:right:da":"Hviderusland","name:right:dz":"\u0f56\u0f7a\u0f0b\u0f63\u0f0b\u0f62\u0f74\u0f0b\u0f66\u0f74\u0f0d","name:right:dv":"\u0784\u07ac\u078d\u07a6\u0783\u07ab\u0790\u07b0","name:right:ht":"Byelorisi"},"arcs":[3]},{"type":"LineString","properties":{"name:right:no":"Utena fylke","name:right:ja":"\u30a6\u30c6\u30ca\u90e1","name:right:uk":"\u0423\u0442\u0435\u043d\u0441\u044c\u043a\u0438\u0439 \u043f\u043e\u0432\u0456\u0442","name:right:hr":"Okrug Utena","name:left:be":"\u041b\u0430\u0442\u0433\u0430\u043b\u0456\u044f","name:right:sw":"Wilaya ya Utena","name:right:sv":"Utena l\u00e4n","name:right:ur":"\u0627\u0648\u062a\u06cc\u0646\u0627 \u06a9\u0627\u0624\u0646\u0679\u06cc","min_zoom":8.0,"name:left:lt":"Latgala","name:right:fa":"\u0634\u0647\u0631\u0633\u062a\u0627\u0646 \u0627\u0648\u062a\u0646\u0627","name:right:sa":"\u0909\u0924\u0947\u0928\u092e\u0923\u094d\u0921\u0932\u092e\u094d","name:right:he":"\u05de\u05d7\u05d5\u05d6 \u05d0\u05d5\u05d8\u05e0\u05d4","name:right":"Utenos apskritis","name:left:it":"Latgallia","name:right:ca":"Comtat d'Utena","kind_detail":"4","id":-1775821,"source":"openstreetmap.org","name:right:ar":"\u0645\u0642\u0627\u0637\u0639\u0629 \u0623\u0648\u062a\u064a\u0646\u0627","id:left":-1775821,"name:right:cs":"Utensk\u00fd kraj","name:right:fi":"Utenan l\u00e4\u00e4ni","id:right":-966958,"name:left":"Latgale","name:right:ka":"\u10e3\u10e2\u10d4\u10dc\u10d8\u10e1 \u10db\u10d0\u10d6\u10e0\u10d0","name:right:sr":"\u0423\u0442\u0435\u043d\u0441\u043a\u0438 \u043e\u043a\u0440\u0443\u0433","name:right:pt":"Condado de Utena","name:right:eu":"Utenako konderria","name:right:et":"Utena maakond","name:left:pl":"\u0141atgalia","name:right:it":"Contea di Utena","name:right:ko":"\uc6b0\ud14c\ub098 \uc8fc","name:right:ru":"\u0423\u0442\u0435\u043d\u0441\u043a\u0438\u0439 \u0443\u0435\u0437\u0434","name:right:es":"Provincia de Utena","name:right:ga":"Contae Utena","name:right:ro":"Jude\u021bul Utena","name:right:kw":"Konteth Utena","name:left:ru":"\u041b\u0430\u0442\u0433\u0430\u043b\u0438\u044f","name:right:bg":"\u0423\u0442\u0435\u043d\u0441\u043a\u0438 \u043e\u043a\u0440\u044a\u0433","name:right:tg":"\u0412\u0438\u043b\u043e\u044f\u0442\u0438 \u0423\u0442\u0435\u043d\u0430","name:right:pl":"Okr\u0119g ucia\u0144ski","name:right:en":"Utena County","osm_relation":true,"name:right:el":"\u0395\u03c0\u03b1\u03c1\u03c7\u03af\u03b1 \u039f\u03c5\u03c4\u03b5\u03bd\u03ac","kind":"region","name":"Latgale - Utenos apskritis","name:right:eo":"Distrikto Utena","name:right:sh":"Okrug Utena","name:right:de":"Bezirk Utenen","name:right:lv":"Utenas apri\u0146\u0137is","name:left:de":"Lettgallen","name:right:be":"\u0423\u0446\u044f\u043d\u0441\u043a\u0456 \u043f\u0430\u0432\u0435\u0442","sort_rank":256,"name:right:bs":"Okrug Utena","name:right:zh":"\u70cf\u7530\u7d0d\u7e23"},"arcs":[4]},{"type":"LineString","properties":{"int_name:right":"Viciebskaja voblas\u0107","name:right:fr":"Voblast de Vitsebsk","old_name:right:en":"Vitebsk region","name:right:uk":"\u0412\u0456\u0442\u0435\u0431\u0441\u044c\u043a\u0430 \u043e\u0431\u043b\u0430\u0441\u0442\u044c","name:left:be":"\u041b\u0430\u0442\u0433\u0430\u043b\u0456\u044f","old_name:right:fr":"Voblast de Vitebsk","id:right":-59506,"name:right:lt":"Vitebsko sritis","name:right:sk":"Vicebsk\u00e1 oblas\u0165","name:left:lt":"Latgala","id:left":-1775821,"name:left:ru":"\u041b\u0430\u0442\u0433\u0430\u043b\u0438\u044f","min_zoom":8.0,"name:left:it":"Latgallia","name:right:eo":"Vicebska regiono","id":-1775821,"osm_relation":true,"name:right":"\u0412\u0438\u0442\u0435\u0431\u0441\u043a\u0430\u044f \u043e\u0431\u043b\u0430\u0441\u0442\u044c","kind":"region","name":"Latgale - \u0412\u0438\u0442\u0435\u0431\u0441\u043a\u0430\u044f \u043e\u0431\u043b\u0430\u0441\u0442\u044c","source":"openstreetmap.org","sort_rank":256,"name:right:pl":"obw\u00f3d witebski","name:left:de":"Lettgallen","name:right:en":"Vitsebsk Voblast","name:right:be":"\u0412\u0456\u0446\u0435\u0431\u0441\u043a\u0430\u044f \u0432\u043e\u0431\u043b\u0430\u0441\u0446\u044c","name:right:ca":"Prov\u00edncia de V\u00edtsiebsk","name:right:de":"Wizebskaja Woblasz","kind_detail":"4","name:left:pl":"\u0141atgalia","name:left":"Latgale"},"arcs":[5]},{"type":"MultiLineString","properties":{"name:right:uk":"\u0423\u0442\u0435\u043d\u0441\u044c\u043a\u0438\u0439 \u043f\u043e\u0432\u0456\u0442","name:left:he":"\u05de\u05d7\u05d5\u05d6 \u05e4\u05d5\u05e0\u05d9\u05d1\u05d6'","name:right:hr":"Okrug Utena","name:left:sv":"Panev\u0117\u017eys l\u00e4n","name:left:sr":"\u041f\u0430\u043d\u0435\u0432\u0435\u0436\u0438\u0441\u043a\u0438 \u043e\u043a\u0440\u0443\u0433","name:right:ur":"\u0627\u0648\u062a\u06cc\u0646\u0627 \u06a9\u0627\u0624\u0646\u0679\u06cc","name:right:lv":"Utenas apri\u0146\u0137is","name:left:sh":"Okrug Panev\u0117\u017eis","name:left:lv":"Panev\u0113\u017eas apri\u0146\u0137is","name:left:sa":"\u092a\u0928\u0947\u0935\u0947\u091c\u093f\u092e\u0923\u094d\u0921\u0932\u092e\u094d","name:right:he":"\u05de\u05d7\u05d5\u05d6 \u05d0\u05d5\u05d8\u05e0\u05d4","name:left:hr":"Okrug Panev\u0117\u017eis","name:left:ga":"Contae Panev\u0117\u017eys","name:right:tg":"\u0412\u0438\u043b\u043e\u044f\u0442\u0438 \u0423\u0442\u0435\u043d\u0430","sort_rank":256,"name:left:ca":"Comtat de Panev\u0117\u017eys","source":"openstreetmap.org","name:right:ar":"\u0645\u0642\u0627\u0637\u0639\u0629 \u0623\u0648\u062a\u064a\u0646\u0627","name:left:sw":"Wilaya ya Panev\u0117\u017eys","name:left:cs":"Panev\u0117\u017eysk\u00fd kraj","name:left":"Panev\u0117\u017eio apskritis","name:right:es":"Provincia de Utena","name:right:sr":"\u0423\u0442\u0435\u043d\u0441\u043a\u0438 \u043e\u043a\u0440\u0443\u0433","name:left:ka":"\u10de\u10d0\u10dc\u10d4\u10d5\u10d4\u10df\u10d8\u10e1\u10d8\u10e1 \u10db\u10d0\u10d6\u10e0\u10d0","name:right:eu":"Utenako konderria","name:right:et":"Utena maakond","name:left:ko":"\ud30c\ub124\ubca0\uc9c0\uc2a4 \uc8fc","name:right:it":"Contea di Utena","name:left:ro":"Jude\u021bul Panev\u0117\u017eys","name:right:ru":"\u0423\u0442\u0435\u043d\u0441\u043a\u0438\u0439 \u0443\u0435\u0437\u0434","name:left:kw":"Konteth Panev\u0117\u017eys","name:right:ro":"Jude\u021bul Utena","name:left:ru":"\u041f\u0430\u043d\u0435\u0432\u0435\u0436\u0441\u043a\u0438\u0439 \u0443\u0435\u0437\u0434","id:right":-966958,"name:right:eo":"Distrikto Utena","name:right:en":"Utena County","name:right:el":"\u0395\u03c0\u03b1\u03c1\u03c7\u03af\u03b1 \u039f\u03c5\u03c4\u03b5\u03bd\u03ac","kind":"region","name":"Panev\u0117\u017eio apskritis - Utenos apskritis","name:left:fa":"\u0634\u0647\u0631\u0633\u062a\u0627\u0646 \u067e\u0627\u0646\u0647\u200c\u0648\u0698\u06cc\u0633","name:right:fa":"\u0634\u0647\u0631\u0633\u062a\u0627\u0646 \u0627\u0648\u062a\u0646\u0627","min_zoom":8.0,"name:right:be":"\u0423\u0446\u044f\u043d\u0441\u043a\u0456 \u043f\u0430\u0432\u0435\u0442","name:left:zh":"\u5e15\u6d85\u97cb\u65e5\u65af\u7e23","name:right:bs":"Okrug Utena","name:right:zh":"\u70cf\u7530\u7d0d\u7e23","name:right:no":"Utena fylke","name:right:ja":"\u30a6\u30c6\u30ca\u90e1","name:left:ur":"\u067e\u0627\u0646\u06cc\u0648\u06cc\u0698\u06cc\u0633 \u06a9\u0627\u0624\u0646\u0679\u06cc","name:left:ja":"\u30d1\u30cd\u30f4\u30a7\u30b8\u30fc\u30b9\u90e1","name:right:sw":"Wilaya ya Utena","name:right:sv":"Utena l\u00e4n","name:left:uk":"\u041f\u0430\u043d\u0435\u0432\u0435\u0436\u0438\u0441\u044c\u043a\u0438\u0439 \u043f\u043e\u0432\u0456\u0442","name:right:sh":"Okrug Utena","name:left:bg":"\u041f\u0430\u043d\u0435\u0432\u0435\u0436\u0438\u0441\u043a\u0438 \u043e\u043a\u0440\u044a\u0433","name:left:be":"\u041f\u0430\u043d\u044f\u0432\u0435\u0436\u044b\u0441\u043a\u0456 \u043f\u0430\u0432\u0435\u0442","name:left:no":"Panev\u0117\u017eys fylke","name:left:fi":"Panev\u0117\u017eysin l\u00e4\u00e4ni","id":-1028503,"name:right:fi":"Utenan l\u00e4\u00e4ni","name:left:eo":"Distrikto Panev\u0117\u017eys","name:left:en":"Panevezys County","name:left:el":"\u0395\u03c0\u03b1\u03c1\u03c7\u03af\u03b1 \u03a0\u03b1\u03bd\u03b5\u03b2\u03b5\u03b6\u03af\u03c2","name:right:ca":"Comtat d'Utena","kind_detail":"4","id:left":-1028503,"name:left:es":"Provincia de Panev\u0117\u017eys","name:right:cs":"Utensk\u00fd kraj","name:right":"Utenos apskritis","name:left:eu":"Panev\u0117\u017eysko konderria","name:left:et":"Panev\u0117\u017eysi maakond","name:right:ka":"\u10e3\u10e2\u10d4\u10dc\u10d8\u10e1 \u10db\u10d0\u10d6\u10e0\u10d0","name:right:pt":"Condado de Utena","name:left:ar":"\u0645\u0642\u0627\u0637\u0639\u0629 \u0628\u0627\u0646\u064a\u0641\u064a\u0632\u064a\u0633","name:left:pl":"Okr\u0119g poniewieski","name:right:ko":"\uc6b0\ud14c\ub098 \uc8fc","name:right:bg":"\u0423\u0442\u0435\u043d\u0441\u043a\u0438 \u043e\u043a\u0440\u044a\u0433","name:right:ga":"Contae Utena","name:right:kw":"Konteth Utena","name:left:it":"Contea di Panev\u0117\u017eys","name:right:pl":"Okr\u0119g ucia\u0144ski","osm_relation":true,"name:left:tg":"\u0412\u0438\u043b\u043e\u044f\u0442\u0438 \u041f\u0430\u043d\u0435\u0432\u0435\u0436\u0438\u0441","name:right:sa":"\u0909\u0924\u0947\u0928\u092e\u0923\u094d\u0921\u0932\u092e\u094d","name:right:de":"Bezirk Utenen","name:left:de":"Bezirk Ponewiesch"},"arcs":[[6],[7]]},{"type":"LineString","properties":{"name:right:uk":"\u0423\u0442\u0435\u043d\u0441\u044c\u043a\u0438\u0439 \u043f\u043e\u0432\u0456\u0442","name:right:hr":"Okrug Utena","name:left:sv":"Vilnius l\u00e4n","name:left:sr":"\u0412\u0438\u043b\u045a\u0443\u0441\u043a\u0438 \u043e\u043a\u0440\u0443\u0433","name:right:ur":"\u0627\u0648\u062a\u06cc\u0646\u0627 \u06a9\u0627\u0624\u0646\u0679\u06cc","name:right:lv":"Utenas apri\u0146\u0137is","name:left:sh":"\u0412\u0438\u043b\u045a\u0443\u0441 \u043e\u043a\u0440\u0443\u0433","name:left:lv":"Vi\u013c\u0146as apri\u0146\u0137is","name:left:sa":"\u0935\u093f\u0932\u094d\u091e\u0941\u092e\u0923\u094d\u0921\u0932\u092e\u094d","name:right:he":"\u05de\u05d7\u05d5\u05d6 \u05d0\u05d5\u05d8\u05e0\u05d4","name:left:hr":"Okrug Vilnius","name:left:ga":"Contae Vilnius","name:right:tg":"\u0412\u0438\u043b\u043e\u044f\u0442\u0438 \u0423\u0442\u0435\u043d\u0430","sort_rank":256,"name:left:ca":"Comtat de V\u00edlnius","source":"openstreetmap.org","name:right:ar":"\u0645\u0642\u0627\u0637\u0639\u0629 \u0623\u0648\u062a\u064a\u0646\u0627","name:left:sw":"Wilaya ya Vilnius","name:left:cs":"Vilniusk\u00fd kraj","name:left":"Vilniaus apskritis","name:right:es":"Provincia de Utena","name:right:sr":"\u0423\u0442\u0435\u043d\u0441\u043a\u0438 \u043e\u043a\u0440\u0443\u0433","name:left:ka":"\u10d5\u10d8\u10da\u10dc\u10d8\u10e3\u10e1\u10d8\u10e1 \u10db\u10d0\u10d6\u10e0\u10d0","name:right:eu":"Utenako konderria","name:right:et":"Utena maakond","name:left:ko":"\ube4c\ub274\uc2a4 \uc8fc","name:right:it":"Contea di Utena","name:left:ro":"Jude\u021bul Vilnius","name:right:ru":"\u0423\u0442\u0435\u043d\u0441\u043a\u0438\u0439 \u0443\u0435\u0437\u0434","name:left:kw":"Konteth Vilnius","name:right:ro":"Jude\u021bul Utena","name:left:ru":"\u0412\u0438\u043b\u044c\u043d\u044e\u0441\u0441\u043a\u0438\u0439 \u0443\u0435\u0437\u0434","id:right":-966958,"name:right:eo":"Distrikto Utena","name:right:en":"Utena County","name:right:el":"\u0395\u03c0\u03b1\u03c1\u03c7\u03af\u03b1 \u039f\u03c5\u03c4\u03b5\u03bd\u03ac","name:left:uk":"\u0412\u0456\u043b\u044c\u043d\u044e\u0441\u044c\u043a\u0438\u0439 \u043f\u043e\u0432\u0456\u0442","kind":"region","name":"Vilniaus apskritis - Utenos apskritis","name:left:fa":"\u0634\u0647\u0631\u0633\u062a\u0627\u0646 \u0648\u06cc\u0644\u0646\u06cc\u0648\u0633","name:right:fa":"\u0634\u0647\u0631\u0633\u062a\u0627\u0646 \u0627\u0648\u062a\u0646\u0627","min_zoom":8.0,"name:right:be":"\u0423\u0446\u044f\u043d\u0441\u043a\u0456 \u043f\u0430\u0432\u0435\u0442","name:left:zh":"\u7dad\u723e\u7d10\u65af\u7e23","name:left:fr":"Apskritis de Vilnius","name:right:bs":"Okrug Utena","name:right:zh":"\u70cf\u7530\u7d0d\u7e23","name:right:no":"Utena fylke","name:right:ja":"\u30a6\u30c6\u30ca\u90e1","name:left:ur":"\u0648\u06cc\u0644\u0646\u06cc\u0648\u0633 \u06a9\u0627\u0624\u0646\u0679\u06cc","name:left:ja":"\u30f4\u30a3\u30ea\u30cb\u30e5\u30b9\u770c","name:right:sw":"Wilaya ya Utena","name:right:sv":"Utena l\u00e4n","name:left:nn":"Vilnius fylke","name:right:sh":"Okrug Utena","name:left:bg":"\u0412\u0438\u043b\u043d\u044e\u0441\u043a\u0438 \u043e\u043a\u0440\u044a\u0433","name:left:be":"\u0412\u0456\u043b\u044c\u043d\u044e\u0441\u043a\u0456 \u043f\u0430\u0432\u0435\u0442","name:left:no":"Vilnius fylke","name:left:fi":"Vilnan l\u00e4\u00e4ni","id":-977317,"name:right:fi":"Utenan l\u00e4\u00e4ni","name:left:eo":"Distrikto Vilno","name:left:en":"Vilnius County","name:left:el":"\u0395\u03c0\u03b1\u03c1\u03c7\u03af\u03b1 \u0392\u03af\u03bb\u03bd\u03b9\u03bf\u03c5\u03c2","name:right:ca":"Comtat d'Utena","kind_detail":"4","id:left":-977317,"name:left:es":"Provincia de Vilna","name:right:cs":"Utensk\u00fd kraj","name:right":"Utenos apskritis","name:left:eu":"Vilniusko konderria","name:left:et":"Vilniuse maakond","name:right:ka":"\u10e3\u10e2\u10d4\u10dc\u10d8\u10e1 \u10db\u10d0\u10d6\u10e0\u10d0","name:right:pt":"Condado de Utena","name:left:ar":"\u0645\u0642\u0627\u0637\u0639\u0629 \u0641\u064a\u0644\u0646\u064a\u0648\u0633","name:left:pl":"Okr\u0119g wile\u0144ski","name:left:id":"County Vilnius","name:right:ko":"\uc6b0\ud14c\ub098 \uc8fc","name:right:bg":"\u0423\u0442\u0435\u043d\u0441\u043a\u0438 \u043e\u043a\u0440\u044a\u0433","name:right:ga":"Contae Utena","name:right:kw":"Konteth Utena","name:left:it":"Contea di Vilnius","name:right:pl":"Okr\u0119g ucia\u0144ski","osm_relation":true,"name:right:sa":"\u0909\u0924\u0947\u0928\u092e\u0923\u094d\u0921\u0932\u092e\u094d","name:right:de":"Bezirk Utenen","name:left:de":"Bezirk Wilna"},"arcs":[8]},{"type":"LineString","properties":{"name:right:fr":"Voblast de Vitsebsk","old_name:right:en":"Vitebsk region","name:right:uk":"\u0412\u0456\u0442\u0435\u0431\u0441\u044c\u043a\u0430 \u043e\u0431\u043b\u0430\u0441\u0442\u044c","name:left:ur":"\u0648\u06cc\u0644\u0646\u06cc\u0648\u0633 \u06a9\u0627\u0624\u0646\u0679\u06cc","name:left:sw":"Wilaya ya Vilnius","name:left:sv":"Vilnius l\u00e4n","id:right":-59506,"name:right:lt":"Vitebsko sritis","name:left:no":"Vilnius fylke","min_zoom":8.0,"name:left:sh":"\u0412\u0438\u043b\u045a\u0443\u0441 \u043e\u043a\u0440\u0443\u0433","name:left:lv":"Vi\u013c\u0146as apri\u0146\u0137is","name:left:be":"\u0412\u0456\u043b\u044c\u043d\u044e\u0441\u043a\u0456 \u043f\u0430\u0432\u0435\u0442","name:right:eo":"Vicebska regiono","name:left:fi":"Vilnan l\u00e4\u00e4ni","name:left:sa":"\u0935\u093f\u0932\u094d\u091e\u0941\u092e\u0923\u094d\u0921\u0932\u092e\u094d","id":-977317,"name:left:hr":"Okrug Vilnius","name:right":"\u0412\u0438\u0442\u0435\u0431\u0441\u043a\u0430\u044f \u043e\u0431\u043b\u0430\u0441\u0442\u044c","name:left:ga":"Contae Vilnius","old_name:right:fr":"Voblast de Vitebsk","name:left:eo":"Distrikto Vilno","name:left:en":"Vilnius County","name:left:el":"\u0395\u03c0\u03b1\u03c1\u03c7\u03af\u03b1 \u0392\u03af\u03bb\u03bd\u03b9\u03bf\u03c5\u03c2","name:right:ca":"Prov\u00edncia de V\u00edtsiebsk","kind_detail":"4","name:left:ca":"Comtat de V\u00edlnius","int_name:right":"Viciebskaja voblas\u0107","name:right:sk":"Vicebsk\u00e1 oblas\u0165","source":"openstreetmap.org","id:left":-977317,"name:left:es":"Provincia de Vilna","name:left:cs":"Vilniusk\u00fd kraj","name:left":"Vilniaus apskritis","name:left:ja":"\u30f4\u30a3\u30ea\u30cb\u30e5\u30b9\u770c","name:left:ka":"\u10d5\u10d8\u10da\u10dc\u10d8\u10e3\u10e1\u10d8\u10e1 \u10db\u10d0\u10d6\u10e0\u10d0","name:left:ar":"\u0645\u0642\u0627\u0637\u0639\u0629 \u0641\u064a\u0644\u0646\u064a\u0648\u0633","name:left:pl":"Okr\u0119g wile\u0144ski","name:left:ko":"\ube4c\ub274\uc2a4 \uc8fc","name:left:id":"County Vilnius","name:left:ro":"Jude\u021bul Vilnius","name:left:kw":"Konteth Vilnius","name:left:ru":"\u0412\u0438\u043b\u044c\u043d\u044e\u0441\u0441\u043a\u0438\u0439 \u0443\u0435\u0437\u0434","name:left:sr":"\u0412\u0438\u043b\u045a\u0443\u0441\u043a\u0438 \u043e\u043a\u0440\u0443\u0433","name:left:it":"Contea di Vilnius","name:right:pl":"obw\u00f3d witebski","name:right:en":"Vitsebsk Voblast","osm_relation":true,"name:left:uk":"\u0412\u0456\u043b\u044c\u043d\u044e\u0441\u044c\u043a\u0438\u0439 \u043f\u043e\u0432\u0456\u0442","kind":"region","name":"Vilniaus apskritis - \u0412\u0438\u0442\u0435\u0431\u0441\u043a\u0430\u044f \u043e\u0431\u043b\u0430\u0441\u0442\u044c","name:left:fa":"\u0634\u0647\u0631\u0633\u062a\u0627\u0646 \u0648\u06cc\u0644\u0646\u06cc\u0648\u0633","name:right:de":"Wizebskaja Woblasz","name:left:de":"Bezirk Wilna","name:right:be":"\u0412\u0456\u0446\u0435\u0431\u0441\u043a\u0430\u044f \u0432\u043e\u0431\u043b\u0430\u0441\u0446\u044c","sort_rank":256,"name:left:zh":"\u7dad\u723e\u7d10\u65af\u7e23","name:left:fr":"Apskritis de Vilnius","name:left:eu":"Vilniusko konderria","name:left:nn":"Vilnius fylke","name:left:et":"Vilniuse maakond","name:left:bg":"\u0412\u0438\u043b\u043d\u044e\u0441\u043a\u0438 \u043e\u043a\u0440\u044a\u0433"},"arcs":[9]},{"type":"LineString","properties":{"name:right:fr":"Voblast de Hrodna","name:right:uk":"\u0413\u0440\u043e\u0434\u043d\u0435\u043d\u0441\u044c\u043a\u0430 \u043e\u0431\u043b\u0430\u0441\u0442\u044c","name:left:ur":"\u0648\u06cc\u0644\u0646\u06cc\u0648\u0633 \u06a9\u0627\u0624\u0646\u0679\u06cc","name:left:sw":"Wilaya ya Vilnius","name:left:sv":"Vilnius l\u00e4n","id:right":-59275,"name:right:lt":"Gardino sritis","name:left:no":"Vilnius fylke","min_zoom":8.0,"alt_name:right:eo":"Hrodna regiono","name:left:sh":"\u0412\u0438\u043b\u045a\u0443\u0441 \u043e\u043a\u0440\u0443\u0433","name:left:lv":"Vi\u013c\u0146as apri\u0146\u0137is","name:left:be":"\u0412\u0456\u043b\u044c\u043d\u044e\u0441\u043a\u0456 \u043f\u0430\u0432\u0435\u0442","name:right:eo":"Grodna regiono","name:left:fi":"Vilnan l\u00e4\u00e4ni","name:left:sa":"\u0935\u093f\u0932\u094d\u091e\u0941\u092e\u0923\u094d\u0921\u0932\u092e\u094d","id":-977317,"name:left:hr":"Okrug Vilnius","name:right":"\u0413\u0440\u043e\u0434\u043d\u0435\u043d\u0441\u043a\u0430\u044f \u043e\u0431\u043b\u0430\u0441\u0442\u044c","name:left:ga":"Contae Vilnius","name:left:eo":"Distrikto Vilno","name:left:en":"Vilnius County","name:left:el":"\u0395\u03c0\u03b1\u03c1\u03c7\u03af\u03b1 \u0392\u03af\u03bb\u03bd\u03b9\u03bf\u03c5\u03c2","sort_rank":256,"kind_detail":"4","name:left:ca":"Comtat de V\u00edlnius","int_name:right":"Hrodzienskaja voblas\u0107","name:right:sk":"Hrodnianska oblas\u0165","source":"openstreetmap.org","id:left":-977317,"name:left:es":"Provincia de Vilna","name:right:hr":"Grodnenska oblast","name:left:cs":"Vilniusk\u00fd kraj","name:left":"Vilniaus apskritis","name:left:ja":"\u30f4\u30a3\u30ea\u30cb\u30e5\u30b9\u770c","name:left:ka":"\u10d5\u10d8\u10da\u10dc\u10d8\u10e3\u10e1\u10d8\u10e1 \u10db\u10d0\u10d6\u10e0\u10d0","name:left:ar":"\u0645\u0642\u0627\u0637\u0639\u0629 \u0641\u064a\u0644\u0646\u064a\u0648\u0633","name:left:pl":"Okr\u0119g wile\u0144ski","name:left:ko":"\ube4c\ub274\uc2a4 \uc8fc","name:left:id":"County Vilnius","name:left:ro":"Jude\u021bul Vilnius","name:left:kw":"Konteth Vilnius","name:left:ru":"\u0412\u0438\u043b\u044c\u043d\u044e\u0441\u0441\u043a\u0438\u0439 \u0443\u0435\u0437\u0434","name:left:sr":"\u0412\u0438\u043b\u045a\u0443\u0441\u043a\u0438 \u043e\u043a\u0440\u0443\u0433","name:left:it":"Contea di Vilnius","name:right:pl":"obw\u00f3d grodzie\u0144ski","name:right:en":"Hrodna Region","osm_relation":true,"name:left:uk":"\u0412\u0456\u043b\u044c\u043d\u044e\u0441\u044c\u043a\u0438\u0439 \u043f\u043e\u0432\u0456\u0442","kind":"region","name":"Vilniaus apskritis - \u0413\u0440\u043e\u0434\u043d\u0435\u043d\u0441\u043a\u0430\u044f \u043e\u0431\u043b\u0430\u0441\u0442\u044c","name:left:fa":"\u0634\u0647\u0631\u0633\u062a\u0627\u0646 \u0648\u06cc\u0644\u0646\u06cc\u0648\u0633","name:right:de":"Hrodsenskaja Woblasz","name:left:de":"Bezirk Wilna","name:right:be":"\u0413\u0440\u043e\u0434\u0437\u0435\u043d\u0441\u043a\u0430\u044f \u0432\u043e\u0431\u043b\u0430\u0441\u0446\u044c","name:left:zh":"\u7dad\u723e\u7d10\u65af\u7e23","name:left:fr":"Apskritis de Vilnius","name:left:eu":"Vilniusko konderria","name:left:nn":"Vilnius fylke","name:left:et":"Vilniuse maakond","name:left:bg":"\u0412\u0438\u043b\u043d\u044e\u0441\u043a\u0438 \u043e\u043a\u0440\u044a\u0433"},"arcs":[10]},{"type":"LineString","properties":{"name:left:bs":"Okrug Utena","name:right:fr":"Voblast de Vitsebsk","old_name:right:en":"Vitebsk region","name:right:uk":"\u0412\u0456\u0442\u0435\u0431\u0441\u044c\u043a\u0430 \u043e\u0431\u043b\u0430\u0441\u0442\u044c","name:left:ur":"\u0627\u0648\u062a\u06cc\u0646\u0627 \u06a9\u0627\u0624\u0646\u0679\u06cc","name:left:sw":"Wilaya ya Utena","name:left:sv":"Utena l\u00e4n","id:right":-59506,"name:right:lt":"Vitebsko sritis","name:left:no":"Utena fylke","min_zoom":8.0,"name:left:sh":"Okrug Utena","name:left:lv":"Utenas apri\u0146\u0137is","name:left:be":"\u0423\u0446\u044f\u043d\u0441\u043a\u0456 \u043f\u0430\u0432\u0435\u0442","name:right:eo":"Vicebska regiono","name:left:fi":"Utenan l\u00e4\u00e4ni","name:left:sa":"\u0909\u0924\u0947\u0928\u092e\u0923\u094d\u0921\u0932\u092e\u094d","id":-966958,"name:left:hr":"Okrug Utena","name:right":"\u0412\u0438\u0442\u0435\u0431\u0441\u043a\u0430\u044f \u043e\u0431\u043b\u0430\u0441\u0442\u044c","name:left:ga":"Contae Utena","old_name:right:fr":"Voblast de Vitebsk","name:left:eo":"Distrikto Utena","name:left:en":"Utena County","name:left:el":"\u0395\u03c0\u03b1\u03c1\u03c7\u03af\u03b1 \u039f\u03c5\u03c4\u03b5\u03bd\u03ac","name:right:ca":"Prov\u00edncia de V\u00edtsiebsk","kind_detail":"4","name:left:ca":"Comtat d'Utena","int_name:right":"Viciebskaja voblas\u0107","name:right:sk":"Vicebsk\u00e1 oblas\u0165","source":"openstreetmap.org","id:left":-966958,"name:left:es":"Provincia de Utena","name:left:he":"\u05de\u05d7\u05d5\u05d6 \u05d0\u05d5\u05d8\u05e0\u05d4","name:left:cs":"Utensk\u00fd kraj","name:left":"Utenos apskritis","name:left:ja":"\u30a6\u30c6\u30ca\u90e1","name:left:ka":"\u10e3\u10e2\u10d4\u10dc\u10d8\u10e1 \u10db\u10d0\u10d6\u10e0\u10d0","name:left:ar":"\u0645\u0642\u0627\u0637\u0639\u0629 \u0623\u0648\u062a\u064a\u0646\u0627","name:left:pl":"Okr\u0119g ucia\u0144ski","name:left:ko":"\uc6b0\ud14c\ub098 \uc8fc","name:left:ro":"Jude\u021bul Utena","name:left:pt":"Condado de Utena","name:left:kw":"Konteth Utena","name:left:ru":"\u0423\u0442\u0435\u043d\u0441\u043a\u0438\u0439 \u0443\u0435\u0437\u0434","name:left:sr":"\u0423\u0442\u0435\u043d\u0441\u043a\u0438 \u043e\u043a\u0440\u0443\u0433","name:left:it":"Contea di Utena","name:right:pl":"obw\u00f3d witebski","name:right:en":"Vitsebsk Voblast","osm_relation":true,"name:left:tg":"\u0412\u0438\u043b\u043e\u044f\u0442\u0438 \u0423\u0442\u0435\u043d\u0430","name:left:uk":"\u0423\u0442\u0435\u043d\u0441\u044c\u043a\u0438\u0439 \u043f\u043e\u0432\u0456\u0442","kind":"region","name":"Utenos apskritis - \u0412\u0438\u0442\u0435\u0431\u0441\u043a\u0430\u044f \u043e\u0431\u043b\u0430\u0441\u0442\u044c","name:left:fa":"\u0634\u0647\u0631\u0633\u062a\u0627\u0646 \u0627\u0648\u062a\u0646\u0627","name:right:de":"Wizebskaja Woblasz","name:left:de":"Bezirk Utenen","name:right:be":"\u0412\u0456\u0446\u0435\u0431\u0441\u043a\u0430\u044f \u0432\u043e\u0431\u043b\u0430\u0441\u0446\u044c","sort_rank":256,"name:left:zh":"\u70cf\u7530\u7d0d\u7e23","name:left:eu":"Utenako konderria","name:left:et":"Utena maakond","name:left:bg":"\u0423\u0442\u0435\u043d\u0441\u043a\u0438 \u043e\u043a\u0440\u044a\u0433"},"arcs":[11]},{"type":"MultiLineString","properties":{"name:right:fr":"Voblast de Vitsebsk","old_name:right:en":"Vitebsk region","name:right:uk":"\u0412\u0456\u0442\u0435\u0431\u0441\u044c\u043a\u0430 \u043e\u0431\u043b\u0430\u0441\u0442\u044c","int_name:left":"Minskaja voblas\u0107","id:right":-59506,"name:left:uk":"\u041c\u0456\u043d\u0441\u044c\u043a\u0430 \u043e\u0431\u043b\u0430\u0441\u0442\u044c","name:right:sk":"Vicebsk\u00e1 oblas\u0165","name:left:lt":"Minsko sritis","name:left:sk":"Minsk\u00e1 oblas\u0165","name:left:be":"\u041c\u0456\u043d\u0441\u043a\u0430\u044f \u0432\u043e\u0431\u043b\u0430\u0441\u0446\u044c","name:left:fi":"Minskin alue","id":-59752,"name:right":"\u0412\u0438\u0442\u0435\u0431\u0441\u043a\u0430\u044f \u043e\u0431\u043b\u0430\u0441\u0442\u044c","old_name:right:fr":"Voblast de Vitebsk","name:left:eo":"Minska regiono","name:left:en":"Minsk Region","sort_rank":256,"name:right:eo":"Vicebska regiono","int_name:right":"Viciebskaja voblas\u0107","source":"openstreetmap.org","id:left":-59752,"name:left":"\u041c\u0438\u043d\u0441\u043a\u0430\u044f \u043e\u0431\u043b\u0430\u0441\u0442\u044c","name:left:pl":"obw\u00f3d mi\u0144ski","name:left:de":"Minskaja Woblasz","name:right:pl":"obw\u00f3d witebski","name:right:en":"Vitsebsk Voblast","osm_relation":true,"name:right:lt":"Vitebsko sritis","kind":"region","name":"\u041c\u0438\u043d\u0441\u043a\u0430\u044f \u043e\u0431\u043b\u0430\u0441\u0442\u044c - \u0412\u0438\u0442\u0435\u0431\u0441\u043a\u0430\u044f \u043e\u0431\u043b\u0430\u0441\u0442\u044c","name:right:de":"Wizebskaja Woblasz","min_zoom":8.0,"name:right:be":"\u0412\u0456\u0446\u0435\u0431\u0441\u043a\u0430\u044f \u0432\u043e\u0431\u043b\u0430\u0441\u0446\u044c","name:right:ca":"Prov\u00edncia de V\u00edtsiebsk","name:left:fr":"Voblast de Minsk","kind_detail":"4"},"arcs":[[12],[13],[14]]},{"type":"LineString","properties":{"name:right:fr":"Voblast de Hrodna","name:right:uk":"\u0413\u0440\u043e\u0434\u043d\u0435\u043d\u0441\u044c\u043a\u0430 \u043e\u0431\u043b\u0430\u0441\u0442\u044c","int_name:left":"Viciebskaja voblas\u0107","name:right:hr":"Grodnenska oblast","id:right":-59275,"name:left:uk":"\u0412\u0456\u0442\u0435\u0431\u0441\u044c\u043a\u0430 \u043e\u0431\u043b\u0430\u0441\u0442\u044c","name:right:sk":"Hrodnianska oblas\u0165","alt_name:right:eo":"Hrodna regiono","name:left:sk":"Vicebsk\u00e1 oblas\u0165","name:left:be":"\u0412\u0456\u0446\u0435\u0431\u0441\u043a\u0430\u044f \u0432\u043e\u0431\u043b\u0430\u0441\u0446\u044c","id":-59506,"name:right":"\u0413\u0440\u043e\u0434\u043d\u0435\u043d\u0441\u043a\u0430\u044f \u043e\u0431\u043b\u0430\u0441\u0442\u044c","name:left:eo":"Vicebska regiono","name:left:en":"Vitsebsk Voblast","sort_rank":256,"name:right:eo":"Grodna regiono","name:left:ca":"Prov\u00edncia de V\u00edtsiebsk","int_name:right":"Hrodzienskaja voblas\u0107","old_name:left:en":"Vitebsk region","source":"openstreetmap.org","id:left":-59506,"name:left":"\u0412\u0438\u0442\u0435\u0431\u0441\u043a\u0430\u044f \u043e\u0431\u043b\u0430\u0441\u0442\u044c","name:left:pl":"obw\u00f3d witebski","name:left:de":"Wizebskaja Woblasz","name:right:pl":"obw\u00f3d grodzie\u0144ski","name:right:en":"Hrodna Region","osm_relation":true,"name:right:lt":"Gardino sritis","kind":"region","name":"\u0412\u0438\u0442\u0435\u0431\u0441\u043a\u0430\u044f \u043e\u0431\u043b\u0430\u0441\u0442\u044c - \u0413\u0440\u043e\u0434\u043d\u0435\u043d\u0441\u043a\u0430\u044f \u043e\u0431\u043b\u0430\u0441\u0442\u044c","name:right:de":"Hrodsenskaja Woblasz","old_name:left:fr":"Voblast de Vitebsk","min_zoom":8.0,"name:right:be":"\u0413\u0440\u043e\u0434\u0437\u0435\u043d\u0441\u043a\u0430\u044f \u0432\u043e\u0431\u043b\u0430\u0441\u0446\u044c","name:left:fr":"Voblast de Vitsebsk","kind_detail":"4","name:left:lt":"Vitebsko sritis"},"arcs":[15]}]},"roads":{"type":"GeometryCollection","geometries":[{"type":"MultiLineString","properties":{"kind":"major_road","network":"lt:national","sort_rank":380,"kind_detail":"primary","source":"openstreetmap.org","min_zoom":8.0,"shield_text":"120","ref":"120"},"arcs":[[20],[21],[22],[23]]},{"type":"LineString","properties":{"kind":"major_road","network":"lt:regional","sort_rank":379,"kind_detail":"secondary","is_bicycle_related":true,"bicycle_shield_text":"EV11","bicycle_network":"icn","source":"openstreetmap.org","min_zoom":8.0,"shield_text":"5348","ref":"5348","id":39533532},"arcs":[24]},{"type":"LineString","properties":{"kind":"major_road","network":"lt:national","sort_rank":380,"kind_detail":"primary","source":"openstreetmap.org","min_zoom":8.0,"shield_text":"115","ref":"115"},"arcs":[25]},{"type":"LineString","properties":{"kind":"major_road","int_name":"vulica Halubkova","network":"lt:national","sort_rank":380,"kind_detail":"primary","official_name":"\u0413\u043b\u0443\u0431\u043e\u043a\u043e\u0435 \u2014 \u041f\u043e\u0441\u0442\u0430\u0432\u044b \u2014 \u041b\u044b\u043d\u0442\u0443\u043f\u044b \u2014 \u0433\u0440\u0430\u043d\u0438\u0446\u0430 \u041b\u0438\u0442\u043e\u0432\u0441\u043a\u043e\u0439 \u0420\u0435\u0441\u043f\u0443\u0431\u043b\u0438\u043a\u0438 (\u041b\u044b\u043d\u0442\u0443\u043f\u044b)","source":"openstreetmap.org","min_zoom":8.0,"old_name":"\u0421\u0432\u044f\u043d\u0446\u044f\u043d\u0441\u043a\u0430\u044f","shield_text":"109","name:be":"\u0432\u0443\u043b\u0456\u0446\u0430 \u0413\u0430\u043b\u0443\u0431\u043a\u043e\u0432\u0430","ref":"\u0420110","id":535810680},"arcs":[26]},{"type":"LineString","properties":{"kind":"major_road","network":"lt:national","sort_rank":380,"kind_detail":"primary","source":"openstreetmap.org","min_zoom":8.0,"shield_text":"102","name:ru":"\u0443\u043b\u0438\u0446\u0430 \u0412\u0438\u0434\u0436\u044e","ref":"102"},"arcs":[27]},{"type":"LineString","properties":{"kind":"major_road","network":"lt:national","sort_rank":380,"kind_detail":"primary","source":"openstreetmap.org","min_zoom":8.0,"shield_text":"179","name:ru":"\u0443\u043b\u0438\u0446\u0430 \u0417\u0430\u0440\u0430\u0441\u044e","ref":"179","id":202338269},"arcs":[28]},{"type":"LineString","properties":{"kind":"major_road","network":"lt:national","sort_rank":380,"kind_detail":"primary","source":"openstreetmap.org","min_zoom":8.0,"shield_text":"6","name:ru":"\u0443\u043b\u0438\u0446\u0430 \u0414. \u0411\u0443\u043a\u043e\u043d\u0442\u043e","ref":"A6"},"arcs":[29]},{"type":"LineString","properties":{"kind":"path","network":"lt:national","sort_rank":354,"kind_detail":"path","is_bicycle_related":true,"bicycle_shield_text":"EV11","bicycle_network":"icn","source":"openstreetmap.org","min_zoom":8.0,"all_networks":["lt:national"],"shield_text":"172","id":305947788,"all_shield_texts":["172"]},"arcs":[30]},{"type":"LineString","properties":{"source":"openstreetmap.org","kind":"major_road","kind_detail":"primary","sort_rank":380,"name:ru":"\u0443\u043b\u0438\u0446\u0430 \u041a\u0430\u0443\u043d\u043e","min_zoom":8.0,"id":23839434},"arcs":[31]},{"type":"LineString","properties":{"cycleway_right":"track","network":"lt:national","sort_rank":380,"kind_detail":"primary","is_bicycle_related":true,"kind":"major_road","bicycle_shield_text":"EV11","bicycle_network":"icn","source":"openstreetmap.org","min_zoom":8.0,"shield_text":"114","ref":"114"},"arcs":[32]},{"type":"LineString","properties":{"source":"openstreetmap.org","kind":"major_road","sort_rank":380,"kind_detail":"primary","ref":"114","min_zoom":8.0},"arcs":[33]},{"type":"MultiLineString","properties":{"kind":"major_road","network":"lt:regional","sort_rank":379,"kind_detail":"secondary","is_bicycle_related":true,"bicycle_shield_text":"EV11","bicycle_network":"icn","source":"openstreetmap.org","min_zoom":8.0,"landuse_kind":"national_park","shield_text":"1410","ref":"1410","id":39771106},"arcs":[[34],[35]]},{"type":"LineString","properties":{"kind":"major_road","network":"lt:national","sort_rank":380,"kind_detail":"primary","source":"openstreetmap.org","min_zoom":8.0,"shield_text":"113","ref":"113"},"arcs":[36]},{"type":"LineString","properties":{"kind":"major_road","network":"lt:national","sort_rank":381,"kind_detail":"trunk","source":"openstreetmap.org","min_zoom":8.0,"landuse_kind":"protected_area","shield_text":"6","ref":"A13","id":316352902},"arcs":[37]},{"type":"LineString","properties":{"kind":"major_road","network":"lt:national","sort_rank":380,"kind_detail":"primary","source":"openstreetmap.org","min_zoom":8.0,"landuse_kind":"national_park","shield_text":"111","ref":"111"},"arcs":[38]},{"type":"LineString","properties":{"kind":"major_road","network":"lt:regional","sort_rank":379,"kind_detail":"secondary","is_bicycle_related":true,"bicycle_shield_text":"EV11","bicycle_network":"icn","source":"openstreetmap.org","min_zoom":8.0,"shield_text":"1433","ref":"1433","id":139200088},"arcs":[39]},{"type":"LineString","properties":{"kind":"major_road","network":"lt:regional","sort_rank":379,"kind_detail":"secondary","is_bicycle_related":true,"bicycle_shield_text":"EV11","bicycle_network":"icn","source":"openstreetmap.org","min_zoom":8.0,"shield_text":"1403","ref":"1403"},"arcs":[40]},{"type":"LineString","properties":{"kind":"major_road","network":"lt:regional","sort_rank":379,"kind_detail":"secondary","is_bicycle_related":true,"bicycle_shield_text":"EV11","bicycle_network":"icn","source":"openstreetmap.org","min_zoom":8.0,"shield_text":"1403","name:ru":"\u0443\u043b\u0438\u0446\u0430 \u042f\u0443\u043d\u0438\u043c\u043e","ref":"1403"},"arcs":[41]},{"type":"LineString","properties":{"kind":"major_road","network":"lt:regional","sort_rank":379,"kind_detail":"secondary","is_bicycle_related":true,"bicycle_shield_text":"EV11","bicycle_network":"icn","source":"openstreetmap.org","min_zoom":8.0,"shield_text":"1403","name:ru":"\u0443\u043b\u0438\u0446\u0430 \u0428\u0432\u0435\u043d\u0447\u0438\u043e\u043d\u0438\u044e","ref":"1403","id":104959881},"arcs":[42]},{"type":"LineString","properties":{"kind":"major_road","network":"by:national","sort_rank":380,"kind_detail":"primary","source":"openstreetmap.org","min_zoom":8.0,"shield_text":"110","id":491641637},"arcs":[43]},{"type":"MultiLineString","properties":{"sort_rank":380,"kind_detail":"primary","min_zoom":8.0,"kind":"major_road","source":"openstreetmap.org"},"arcs":[[44],[45],[46],[47],[48],[49],[50],[51],[52],[53],[54],[55],[56],[57],[58]]},{"type":"LineString","properties":{"kind":"major_road","network":"lt:national","sort_rank":380,"kind_detail":"primary","is_bicycle_related":true,"bicycle_shield_text":"EV11","bicycle_network":"icn","source":"openstreetmap.org","min_zoom":8.0,"shield_text":"102","ref":"102"},"arcs":[59]},{"type":"LineString","properties":{"kind":"major_road","network":"lt:national","sort_rank":380,"kind_detail":"primary","source":"openstreetmap.org","min_zoom":8.0,"landuse_kind":"park","shield_text":"114","ref":"114"},"arcs":[60]},{"type":"LineString","properties":{"kind":"minor_road","sort_rank":360,"kind_detail":"residential","is_bicycle_related":true,"bicycle_shield_text":"EV11","bicycle_network":"icn","source":"openstreetmap.org","min_zoom":8.0},"arcs":[61]},{"type":"LineString","properties":{"kind":"major_road","network":"lt:regional","sort_rank":377,"kind_detail":"tertiary","is_bicycle_related":true,"bicycle_shield_text":"EV11","bicycle_network":"icn","source":"openstreetmap.org","min_zoom":8.0,"shield_text":"5303","ref":"5303","id":178876625},"arcs":[62]},{"type":"MultiLineString","properties":{"kind":"major_road","network":"lt:national","sort_rank":380,"kind_detail":"primary","source":"openstreetmap.org","min_zoom":8.0,"shield_text":"102","name:ru":"\u0443\u043b\u0438\u0446\u0430 \u0428\u0432\u0435\u043d\u0447\u0438\u043e\u043d\u0438\u044e","ref":"102"},"arcs":[[63],[64]]},{"type":"LineString","properties":{"kind":"major_road","network":"lv:regional","sort_rank":379,"kind_detail":"secondary","is_bicycle_related":true,"bicycle_shield_text":"EV11","bicycle_network":"icn","source":"openstreetmap.org","min_zoom":8.0,"shield_text":"674","ref":"V674","id":17260945},"arcs":[65]},{"type":"LineString","properties":{"kind":"major_road","network":"lt:national","sort_rank":380,"kind_detail":"primary","is_bicycle_related":true,"bicycle_shield_text":null,"bicycle_network":"lcn","source":"openstreetmap.org","min_zoom":8.0,"landuse_kind":"park","shield_text":"114","ref":"114","id":41221354},"arcs":[66]},{"type":"LineString","properties":{"kind":"major_road","network":"lt:national","sort_rank":381,"kind_detail":"trunk","official_name":"Jono Basanavi\u010diaus gatv\u0117","source":"openstreetmap.org","min_zoom":8.0,"shield_text":"6","ref":"A6","id":239207032},"arcs":[67]},{"type":"LineString","properties":{"kind":"major_road","sort_rank":380,"kind_detail":"primary","is_bicycle_related":true,"bicycle_shield_text":"EV11","bicycle_network":"icn","source":"openstreetmap.org","min_zoom":8.0,"ref":"113","id":39533530},"arcs":[68]},{"type":"LineString","properties":{"kind":"major_road","network":"lv:regional","sort_rank":379,"kind_detail":"secondary","is_bicycle_related":true,"bicycle_shield_text":"EV11","bicycle_network":"icn","source":"openstreetmap.org","min_zoom":8.0,"shield_text":"723","ref":"V723"},"arcs":[69]},{"type":"LineString","properties":{"kind":"major_road","network":"lt:national","sort_rank":380,"kind_detail":"primary","source":"openstreetmap.org","min_zoom":8.0,"shield_text":"118","name:ru":"\u0443\u043b\u0438\u0446\u0430 \u041a\u0443\u043f\u0438\u0448\u043a\u0438\u043e","ref":"118"},"arcs":[70]},{"type":"LineString","properties":{"kind":"major_road","network":"lt:national","sort_rank":380,"kind_detail":"primary","source":"openstreetmap.org","min_zoom":8.0,"shield_text":"117","name:ru":"\u0443\u043b\u0438\u0446\u0430 \u0428\u044f\u0443\u043b\u044e","ref":"117"},"arcs":[71]},{"type":"LineString","properties":{"kind":"major_road","network":"lt:regional","sort_rank":377,"kind_detail":"tertiary","is_bicycle_related":true,"bicycle_shield_text":"EV11","bicycle_network":"icn","source":"openstreetmap.org","min_zoom":8.0,"shield_text":"5318"},"arcs":[72]},{"type":"LineString","properties":{"kind":"major_road","network":"by:national","sort_rank":380,"kind_detail":"primary","source":"openstreetmap.org","min_zoom":8.0,"landuse_kind":"park","shield_text":"95","ref":"\u042095"},"arcs":[73]},{"type":"MultiLineString","properties":{"kind":"major_road","network":"lt:national","sort_rank":380,"kind_detail":"primary","source":"openstreetmap.org","min_zoom":8.0,"shield_text":"102","ref":"102"},"arcs":[[74],[75],[76],[77],[78],[79],[80],[81],[82],[83],[84],[85]]},{"type":"LineString","properties":{"kind":"major_road","network":"lt:regional","sort_rank":379,"kind_detail":"secondary","is_bicycle_related":true,"bicycle_shield_text":"EV11","bicycle_network":"icn","source":"openstreetmap.org","min_zoom":8.0,"shield_text":"1401","ref":"1401","id":207257968},"arcs":[86]},{"type":"LineString","properties":{"source":"openstreetmap.org","kind":"major_road","sort_rank":380,"kind_detail":"primary","ref":"120","min_zoom":8.0,"id":369547774},"arcs":[87]},{"type":"LineString","properties":{"kind":"major_road","network":"lt:regional","sort_rank":379,"kind_detail":"secondary","is_bicycle_related":true,"bicycle_shield_text":"EV11","bicycle_network":"icn","source":"openstreetmap.org","min_zoom":8.0,"shield_text":"4902","ref":"4902","id":52872126},"arcs":[88]},{"type":"LineString","properties":{"kind":"major_road","network":"lt:national","sort_rank":380,"kind_detail":"primary","source":"openstreetmap.org","min_zoom":8.0,"landuse_kind":"national_park","shield_text":"114","ref":"114"},"arcs":[89]},{"type":"LineString","properties":{"kind":"major_road","sort_rank":380,"kind_detail":"primary","source":"openstreetmap.org","min_zoom":8.0,"name:be":"\u041b\u044b\u043d\u0442\u0443\u043f\u0441\u043a\u0430\u044f \u0432\u0443\u043b\u0456\u0446\u0430","ref":"109","id":534768435},"arcs":[90]},{"type":"LineString","properties":{"kind":"major_road","network":"lt:national","sort_rank":380,"kind_detail":"primary","source":"openstreetmap.org","min_zoom":8.0,"shield_text":"178","ref":"178"},"arcs":[91]},{"type":"LineString","properties":{"kind":"major_road","network":"lt:national","sort_rank":380,"kind_detail":"primary","source":"openstreetmap.org","min_zoom":8.0,"shield_text":"173","name:ru":"\u0443\u043b\u0438\u0446\u0430 \u0411\u0430\u0436\u043d\u0443\u0447\u0438\u043e\u0441","ref":"173","id":117600572},"arcs":[92]},{"type":"LineString","properties":{"kind":"major_road","network":"lt:national","sort_rank":381,"kind_detail":"trunk","source":"openstreetmap.org","min_zoom":8.0,"shield_text":"208","ref":"208"},"arcs":[93]},{"type":"MultiLineString","properties":{"source":"openstreetmap.org","kind":"major_road","name:ru":"\u043f\u0440\u043e\u0441\u043f\u0435\u043a\u0442 \u0422\u0430\u0438\u043a\u043e\u0441","sort_rank":380,"kind_detail":"primary","min_zoom":8.0},"arcs":[[94],[95]]},{"type":"LineString","properties":{"kind":"major_road","network":"lt:regional","sort_rank":379,"kind_detail":"secondary","is_bicycle_related":true,"bicycle_shield_text":"EV11","bicycle_network":"icn","source":"openstreetmap.org","min_zoom":8.0,"shield_text":"1423","ref":"1423","id":153747198},"arcs":[96]},{"type":"LineString","properties":{"kind":"major_road","network":"lt:national","sort_rank":380,"kind_detail":"primary","source":"openstreetmap.org","min_zoom":8.0,"shield_text":"111","name:ru":"\u0443\u043b\u0438\u0446\u0430 \u0416\u0435\u043c\u0443\u0442\u0438\u043d\u0435","ref":"111"},"arcs":[97]},{"type":"MultiLineString","properties":{"kind":"major_road","network":"lt:national","sort_rank":381,"kind_detail":"trunk","source":"openstreetmap.org","min_zoom":8.0,"shield_text":"6","name:ru":"\u0443\u043b\u0438\u0446\u0430 \u041a\u0430\u0443\u043d\u043e","ref":"A6"},"arcs":[[98],[99]]},{"type":"LineString","properties":{"kind":"major_road","int_name":"vulica Krasi\u013anikava","network":"by:national","sort_rank":380,"kind_detail":"primary","official_name":"\u0413\u043b\u0443\u0431\u043e\u043a\u043e\u0435 \u2014 \u041f\u043e\u0441\u0442\u0430\u0432\u044b \u2014 \u041b\u044b\u043d\u0442\u0443\u043f\u044b \u2014 \u0433\u0440\u0430\u043d\u0438\u0446\u0430 \u041b\u0438\u0442\u043e\u0432\u0441\u043a\u043e\u0439 \u0420\u0435\u0441\u043f\u0443\u0431\u043b\u0438\u043a\u0438 (\u041b\u044b\u043d\u0442\u0443\u043f\u044b)","source":"openstreetmap.org","min_zoom":8.0,"shield_text":"110","name:be":"\u0432\u0443\u043b\u0456\u0446\u0430 \u041a\u0440\u0430\u0441\u0456\u043b\u044c\u043d\u0456\u043a\u0430\u0432\u0430","ref":"\u0420110","id":25280556},"arcs":[100]},{"type":"LineString","properties":{"kind":"major_road","network":"lt:national","sort_rank":381,"kind_detail":"trunk","source":"openstreetmap.org","min_zoom":8.0,"shield_text":"111","ref":"111","id":44956250},"arcs":[101]},{"type":"MultiLineString","properties":{"kind":"major_road","network":"lt:national","sort_rank":381,"kind_detail":"trunk","source":"openstreetmap.org","min_zoom":8.0,"shield_text":"6","ref":"A6"},"arcs":[[102],[103],[104],[105],[106],[107],[108],[109],[110],[111]]},{"type":"LineString","properties":{"source":"openstreetmap.org","kind":"major_road","landuse_kind":"park","sort_rank":380,"kind_detail":"primary","min_zoom":8.0,"id":328443070},"arcs":[112]},{"type":"MultiLineString","properties":{"kind":"major_road","network":"e-road","sort_rank":381,"kind_detail":"trunk","source":"openstreetmap.org","min_zoom":8.0,"shield_text":"262","ref":"208"},"arcs":[[113],[114]]},{"type":"MultiLineString","properties":{"kind":"major_road","network":"lt:national","sort_rank":380,"kind_detail":"primary","is_bicycle_related":true,"bicycle_shield_text":null,"bicycle_network":"lcn","source":"openstreetmap.org","min_zoom":8.0,"shield_text":"179","ref":"179"},"arcs":[[115],[116]]},{"type":"MultiLineString","properties":{"kind":"major_road","network":"lt:national","sort_rank":380,"kind_detail":"primary","official_name":"Jono Basanavi\u010diaus gatv\u0117","source":"openstreetmap.org","min_zoom":8.0,"shield_text":"6","name:ru":"\u0443\u043b\u0438\u0446\u0430 \u042f. \u0411\u0430\u0441\u0430\u043d\u0430\u0432\u0438\u0447\u0438\u0430\u0443\u0441","ref":"A6"},"arcs":[[117],[118]]},{"type":"LineString","properties":{"kind":"major_road","network":"lt:national","sort_rank":380,"kind_detail":"primary","source":"openstreetmap.org","min_zoom":8.0,"shield_text":"109","ref":"109"},"arcs":[119]},{"type":"MultiLineString","properties":{"kind":"major_road","network":"lt:national","sort_rank":381,"kind_detail":"trunk","source":"openstreetmap.org","min_zoom":8.0,"shield_text":"14","ref":"A14"},"arcs":[[120],[121],[122],[123],[124],[125]]},{"type":"LineString","properties":{"kind":"major_road","network":"lt:national","sort_rank":380,"kind_detail":"primary","source":"openstreetmap.org","min_zoom":8.0,"shield_text":"111","name:ru":"\u0443\u043b\u0438\u0446\u0430 \u041a\u0443\u043d\u043e\u0441","ref":"111","id":74335669},"arcs":[126]},{"type":"LineString","properties":{"kind":"major_road","network":"lt:national","sort_rank":380,"kind_detail":"primary","source":"openstreetmap.org","min_zoom":8.0,"shield_text":"117","name:ru":"\u0443\u043b\u0438\u0446\u0430 \u0428\u0430\u043b\u0442\u0443\u043f\u0435\u0441","ref":"117","id":41747551},"arcs":[127]},{"type":"LineString","properties":{"kind":"major_road","network":"lt:national","sort_rank":381,"kind_detail":"trunk","source":"openstreetmap.org","min_zoom":8.0,"shield_text":"6","name:ru":"\u0443\u043b\u0438\u0446\u0430 \u041f\u043b\u0435\u043d\u0442\u043e","ref":"A6"},"arcs":[128]},{"type":"LineString","properties":{"kind":"major_road","network":"lt:regional","sort_rank":379,"kind_detail":"secondary","is_bicycle_related":true,"bicycle_shield_text":"EV11","bicycle_network":"icn","source":"openstreetmap.org","min_zoom":8.0,"shield_text":"1417","ref":"1417"},"arcs":[129]},{"type":"LineString","properties":{"kind":"minor_road","sort_rank":358,"kind_detail":"service","is_bicycle_related":true,"bicycle_shield_text":"EV11","bicycle_network":"icn","source":"openstreetmap.org","min_zoom":8.0,"id":122947594},"arcs":[130]},{"type":"LineString","properties":{"kind":"path","sort_rank":354,"kind_detail":"cycleway","is_bicycle_related":true,"bicycle_shield_text":"EV11","bicycle_network":"icn","source":"openstreetmap.org","min_zoom":8.0},"arcs":[131]},{"type":"MultiLineString","properties":{"kind":"major_road","sort_rank":380,"kind_detail":"primary","is_bicycle_related":true,"bicycle_shield_text":"EV11","bicycle_network":"icn","source":"openstreetmap.org","min_zoom":8.0,"ref":"172"},"arcs":[[132],[133]]},{"type":"MultiLineString","properties":{"kind":"major_road","network":"lt:national","sort_rank":380,"kind_detail":"primary","source":"openstreetmap.org","min_zoom":8.0,"shield_text":"179","ref":"179"},"arcs":[[134],[135],[136],[137]]},{"type":"MultiLineString","properties":{"kind":"major_road","network":"lt:national","sort_rank":380,"kind_detail":"primary","source":"openstreetmap.org","min_zoom":8.0,"landuse_kind":"park","shield_text":"178","ref":"178"},"arcs":[[138],[139]]},{"type":"MultiLineString","properties":{"kind":"major_road","network":"lt:national","sort_rank":381,"kind_detail":"trunk","source":"openstreetmap.org","min_zoom":8.0,"shield_text":"14","name:ru":"\u0448\u043e\u0441\u0441\u0435 \u041c\u043e\u043b\u0435\u0442\u0443","ref":"A14"},"arcs":[[140],[141]]},{"type":"LineString","properties":{"kind":"major_road","sort_rank":355,"kind_detail":"primary_link","is_bicycle_related":true,"bicycle_shield_text":"EV11","bicycle_network":"icn","source":"openstreetmap.org","min_zoom":8.0,"is_link":true,"id":39532770},"arcs":[142]},{"type":"LineString","properties":{"kind":"major_road","int_name":"Svirskala vulica","network":"by:national","sort_rank":380,"kind_detail":"primary","source":"openstreetmap.org","min_zoom":8.0,"shield_text":"95","name:be":"\u0421\u0432\u0456\u0440\u0441\u043a\u0430\u044f \u0432\u0443\u043b\u0456\u0446\u0430","ref":"\u042095"},"arcs":[143]},{"type":"LineString","properties":{"kind":"major_road","int_name":"Brasla\u016dskaja vulica","network":"by:national","sort_rank":380,"kind_detail":"primary","source":"openstreetmap.org","min_zoom":8.0,"shield_text":"27","name:be":"\u0411\u0440\u0430\u0441\u043b\u0430\u045e\u0441\u043a\u0430\u044f \u0432\u0443\u043b\u0456\u0446\u0430","ref":"\u042027","id":25277954},"arcs":[144]},{"type":"LineString","properties":{"kind":"major_road","network":"lt:national","sort_rank":380,"kind_detail":"primary","source":"openstreetmap.org","min_zoom":8.0,"name:be":"\u041b\u044b\u043d\u0442\u0443\u043f\u0441\u043a\u0430\u044f \u0432\u0443\u043b\u0456\u0446\u0430","shield_text":"109","name:ru":"\u0443\u043b\u0438\u0446\u0430 \u041b\u0435\u043d\u0442\u0443\u043f\u0438\u043e","ref":"109","id":74335579},"arcs":[145]},{"type":"MultiLineString","properties":{"kind":"major_road","network":"lt:national","sort_rank":380,"kind_detail":"primary","source":"openstreetmap.org","min_zoom":8.0,"shield_text":"110","ref":"110"},"arcs":[[146],[147],[148]]},{"type":"MultiLineString","properties":{"kind":"major_road","network":"lt:national","sort_rank":380,"kind_detail":"primary","source":"openstreetmap.org","min_zoom":8.0,"shield_text":"173","ref":"173"},"arcs":[[149],[150],[151],[152]]},{"type":"LineString","properties":{"kind":"major_road","network":"lt:regional","sort_rank":377,"kind_detail":"tertiary","is_bicycle_related":true,"bicycle_shield_text":"EV11","bicycle_network":"icn","source":"openstreetmap.org","min_zoom":8.0,"shield_text":"5318","ref":"V723","id":43517986},"arcs":[153]},{"type":"MultiLineString","properties":{"source":"openstreetmap.org","kind":"major_road","network":"by:national","sort_rank":380,"kind_detail":"primary","min_zoom":8.0,"shield_text":null},"arcs":[[154],[155],[156]]},{"type":"MultiLineString","properties":{"kind":"major_road","network":"lt:national","sort_rank":381,"kind_detail":"trunk","official_name":"Jono Basanavi\u010diaus gatv\u0117","source":"openstreetmap.org","min_zoom":8.0,"shield_text":"6","name:ru":"\u0443\u043b\u0438\u0446\u0430 \u042f. \u0411\u0430\u0441\u0430\u043d\u0430\u0432\u0438\u0447\u0438\u0430\u0443\u0441","ref":"A6"},"arcs":[[157],[158]]},{"type":"LineString","properties":{"kind":"major_road","network":"lt:national","sort_rank":380,"kind_detail":"primary","source":"openstreetmap.org","min_zoom":8.0,"landuse_kind":"park","shield_text":"173","ref":"173"},"arcs":[159]},{"type":"LineString","properties":{"kind":"path","sort_rank":354,"kind_detail":"path","is_bicycle_related":true,"bicycle_shield_text":"EV11","bicycle_network":"icn","source":"openstreetmap.org","min_zoom":8.0,"id":89805195},"arcs":[160]},{"type":"LineString","properties":{"kind":"major_road","network":"lt:regional","sort_rank":379,"kind_detail":"secondary","is_bicycle_related":true,"bicycle_shield_text":"EV11","bicycle_network":"icn","source":"openstreetmap.org","min_zoom":8.0,"shield_text":"5303","ref":"5303"},"arcs":[161]},{"type":"MultiLineString","properties":{"kind":"major_road","network":"lt:national","sort_rank":380,"kind_detail":"primary","is_bicycle_related":true,"bicycle_shield_text":"EV11","bicycle_network":"icn","source":"openstreetmap.org","min_zoom":8.0,"landuse_kind":"park","shield_text":"114","ref":"114"},"arcs":[[162],[163]]},{"type":"MultiLineString","properties":{"kind":"major_road","network":"lt:national","sort_rank":380,"kind_detail":"primary","source":"openstreetmap.org","min_zoom":8.0,"shield_text":"109","ref":"\u0420110"},"arcs":[[164],[165]]},{"type":"LineString","properties":{"kind":"major_road","network":"lt:national","sort_rank":380,"kind_detail":"primary","source":"openstreetmap.org","min_zoom":8.0,"shield_text":"177","ref":"177"},"arcs":[166]},{"type":"MultiLineString","properties":{"kind":"major_road","network":"lt:national","sort_rank":380,"kind_detail":"primary","source":"openstreetmap.org","min_zoom":8.0,"shield_text":"6","ref":"A6"},"arcs":[[167],[168]]},{"type":"LineString","properties":{"kind":"major_road","network":"lt:national","sort_rank":380,"kind_detail":"primary","is_bicycle_related":true,"bicycle_shield_text":"EV11","bicycle_network":"icn","source":"openstreetmap.org","min_zoom":8.0,"shield_text":"111","ref":"111","id":41221342},"arcs":[169]},{"type":"MultiLineString","properties":{"source":"openstreetmap.org","kind":"major_road","sort_rank":380,"kind_detail":"primary","ref":"111","min_zoom":8.0},"arcs":[[170],[171]]},{"type":"MultiLineString","properties":{"source":"openstreetmap.org","kind":"major_road","network":"e-road","sort_rank":381,"kind_detail":"trunk","min_zoom":8.0,"shield_text":"262"},"arcs":[[172],[173],[174],[175]]},{"type":"LineString","properties":{"kind":"major_road","network":"lt:national","sort_rank":381,"kind_detail":"trunk","source":"openstreetmap.org","min_zoom":8.0,"shield_text":"6","name:ru":"\u0443\u043b\u0438\u0446\u0430 \u0412\u0438\u0442\u0430\u0443\u0442\u043e","ref":"A6"},"arcs":[176]},{"type":"LineString","properties":{"kind":"major_road","network":"lt:national","sort_rank":381,"kind_detail":"trunk","source":"openstreetmap.org","min_zoom":8.0,"landuse_kind":"protected_area","shield_text":"6","ref":"A6","id":506989776},"arcs":[177]},{"type":"LineString","properties":{"kind":"major_road","network":"lt:regional","sort_rank":380,"kind_detail":"primary","source":"openstreetmap.org","min_zoom":8.0,"shield_text":"2802","ref":"172","id":475676889},"arcs":[178]},{"type":"LineString","properties":{"kind":"major_road","network":"lt:national","sort_rank":380,"kind_detail":"primary","source":"openstreetmap.org","min_zoom":8.0,"shield_text":"110","name:ru":"\u0443\u043b\u0438\u0446\u0430 \u041f\u043e\u0441\u0442\u0430\u0432\u0443","ref":"110"},"arcs":[179]},{"type":"MultiLineString","properties":{"kind":"major_road","network":"lt:national","sort_rank":380,"kind_detail":"primary","source":"openstreetmap.org","min_zoom":8.0,"shield_text":"118","ref":"118"},"arcs":[[180],[181],[182],[183],[184]]},{"type":"LineString","properties":{"kind":"major_road","network":"lt:national","sort_rank":380,"kind_detail":"primary","source":"openstreetmap.org","min_zoom":8.0,"name:be":"\u041b\u044b\u043d\u0442\u0443\u043f\u0441\u043a\u0430\u044f \u0432\u0443\u043b\u0456\u0446\u0430","shield_text":"109","name:ru":"\u041b\u0435\u043d\u0442\u0443\u043f\u0438\u043e \u0443\u043b\u0438\u0446\u0430","ref":"109","id":74335561},"arcs":[185]},{"type":"LineString","properties":{"kind":"major_road","network":"lt:national","sort_rank":380,"kind_detail":"primary","source":"openstreetmap.org","min_zoom":8.0,"shield_text":"119","ref":"119"},"arcs":[186]},{"type":"LineString","properties":{"kind":"major_road","int_name":"Halubkova vulica","network":"by:national","sort_rank":380,"kind_detail":"primary","official_name":"\u0413\u043b\u0443\u0431\u043e\u043a\u043e\u0435 \u2014 \u041f\u043e\u0441\u0442\u0430\u0432\u044b \u2014 \u041b\u044b\u043d\u0442\u0443\u043f\u044b \u2014 \u0433\u0440\u0430\u043d\u0438\u0446\u0430 \u041b\u0438\u0442\u043e\u0432\u0441\u043a\u043e\u0439 \u0420\u0435\u0441\u043f\u0443\u0431\u043b\u0438\u043a\u0438 (\u041b\u044b\u043d\u0442\u0443\u043f\u044b)","source":"openstreetmap.org","min_zoom":8.0,"shield_text":"110","name:be":"\u0432\u0443\u043b\u0456\u0446\u0430 \u0413\u0430\u043b\u0443\u0431\u043a\u043e\u0432\u0430","ref":"\u0420110","id":531300436},"arcs":[187]},{"type":"MultiLineString","properties":{"kind":"major_road","network":"lt:national","sort_rank":380,"kind_detail":"primary","official_name":"Jono Basanavi\u010diaus gatv\u0117","source":"openstreetmap.org","min_zoom":8.0,"shield_text":"6","ref":"A6"},"arcs":[[188],[189]]},{"type":"MultiLineString","properties":{"kind":"major_road","sort_rank":380,"kind_detail":"primary","is_bicycle_related":true,"bicycle_shield_text":"EV11","bicycle_network":"icn","source":"openstreetmap.org","min_zoom":8.0},"arcs":[[190],[191]]},{"type":"LineString","properties":{"kind":"major_road","network":"lt:national","sort_rank":380,"kind_detail":"primary","is_bicycle_related":true,"bicycle_shield_text":"EV11","bicycle_network":"icn","source":"openstreetmap.org","min_zoom":8.0,"shield_text":"112","ref":"112"},"arcs":[192]},{"type":"MultiLineString","properties":{"kind":"major_road","network":"lt:regional","sort_rank":379,"kind_detail":"secondary","is_bicycle_related":true,"bicycle_shield_text":"EV11","bicycle_network":"icn","source":"openstreetmap.org","min_zoom":8.0,"landuse_kind":"park","shield_text":"4908","ref":"4908"},"arcs":[[193],[194]]},{"type":"LineString","properties":{"kind":"major_road","network":"lt:national","sort_rank":381,"kind_detail":"trunk","source":"openstreetmap.org","min_zoom":8.0,"shield_text":"14","id":303669305},"arcs":[195]},{"type":"LineString","properties":{"kind":"major_road","network":"lt:regional","sort_rank":381,"kind_detail":"trunk","source":"openstreetmap.org","min_zoom":8.0,"shield_text":"4902","ref":"4902"},"arcs":[196]},{"type":"LineString","properties":{"kind":"major_road","network":"lv:national","sort_rank":381,"landuse_kind":"protected_area","source":"openstreetmap.org","min_zoom":8.0,"kind_detail":"trunk","shield_text":"13","ref":"A13"},"arcs":[197]},{"type":"LineString","properties":{"kind":"major_road","network":"lt:national","sort_rank":380,"kind_detail":"primary","official_name":"Juozo Tumo-Vai\u017eganto gatv\u0117","source":"openstreetmap.org","min_zoom":8.0,"shield_text":"120","ref":"120"},"arcs":[198]},{"type":"LineString","properties":{"kind":"major_road","int_name":"Razbiejkina vulica","network":"by:national","sort_rank":380,"kind_detail":"primary","official_name":"\u0413\u043b\u0443\u0431\u043e\u043a\u043e\u0435 \u2014 \u041f\u043e\u0441\u0442\u0430\u0432\u044b \u2014 \u041b\u044b\u043d\u0442\u0443\u043f\u044b \u2014 \u0433\u0440\u0430\u043d\u0438\u0446\u0430 \u041b\u0438\u0442\u043e\u0432\u0441\u043a\u043e\u0439 \u0420\u0435\u0441\u043f\u0443\u0431\u043b\u0438\u043a\u0438 (\u041b\u044b\u043d\u0442\u0443\u043f\u044b)","source":"openstreetmap.org","min_zoom":8.0,"shield_text":"110","name:be":"\u0420\u0430\u0437\u0431\u0435\u0439\u043a\u0456\u043d\u0430 \u0432\u0443\u043b\u0456\u0446\u0430","ref":"\u0420110","id":203839802},"arcs":[199]},{"type":"LineString","properties":{"kind":"major_road","network":"lt:regional","sort_rank":379,"landuse_kind":"national_park","is_bicycle_related":true,"bicycle_shield_text":"EV11","bicycle_network":"icn","source":"openstreetmap.org","min_zoom":8.0,"kind_detail":"secondary","shield_text":"1423","ref":"1423"},"arcs":[200]},{"type":"MultiLineString","properties":{"kind":"major_road","network":"by:national","sort_rank":380,"kind_detail":"primary","source":"openstreetmap.org","min_zoom":8.0,"shield_text":"27","ref":"\u042027"},"arcs":[[201],[202]]},{"type":"MultiLineString","properties":{"kind":"major_road","network":"lt:national","sort_rank":380,"kind_detail":"primary","source":"openstreetmap.org","min_zoom":8.0,"shield_text":"111","ref":"111"},"arcs":[[203],[204],[205],[206],[207],[208]]},{"type":"LineString","properties":{"kind":"major_road","network":"lt:national","sort_rank":380,"kind_detail":"primary","source":"openstreetmap.org","min_zoom":8.0,"shield_text":"173","name:ru":"\u0443\u043b\u0438\u0446\u0430 \u0418\u043d\u0442\u0443\u0440\u043a\u0435\u0441","ref":"173","id":239624110},"arcs":[209]},{"type":"LineString","properties":{"kind":"major_road","network":"lt:national","sort_rank":380,"kind_detail":"primary","source":"openstreetmap.org","min_zoom":8.0,"landuse_kind":"park","shield_text":"110","ref":"110","id":152865572},"arcs":[210]},{"type":"MultiLineString","properties":{"kind":"major_road","network":"e-road","sort_rank":381,"kind_detail":"trunk","source":"openstreetmap.org","min_zoom":8.0,"shield_text":"262","ref":"A6"},"arcs":[[211],[212],[213]]},{"type":"LineString","properties":{"kind":"major_road","network":"lt:regional","sort_rank":377,"kind_detail":"tertiary","is_bicycle_related":true,"bicycle_shield_text":"EV11","bicycle_network":"icn","source":"openstreetmap.org","min_zoom":8.0,"shield_text":"5318","ref":"5318","id":178876626},"arcs":[214]},{"type":"MultiLineString","properties":{"kind":"major_road","network":"lt:national","sort_rank":380,"kind_detail":"primary","source":"openstreetmap.org","min_zoom":8.0,"shield_text":"102","name:be":"\u0412\u0456\u043b\u0435\u043d\u0441\u043a\u0430\u044f \u0432\u0443\u043b\u0456\u0446\u0430","ref":"102"},"arcs":[[215],[216]]},{"type":"LineString","properties":{"kind":"major_road","int_name":"vulica Lienina","network":"by:national","sort_rank":380,"kind_detail":"primary","source":"openstreetmap.org","min_zoom":8.0,"shield_text":"27","name:be":"\u0432\u0443\u043b\u0456\u0446\u0430 \u041b\u0435\u043d\u0456\u043d\u0430","ref":"\u042027"},"arcs":[217]},{"type":"LineString","properties":{"kind":"major_road","network":"lt:national","sort_rank":380,"kind_detail":"primary","source":"openstreetmap.org","min_zoom":8.0,"shield_text":"102","name:ru":"\u0443\u043b\u0438\u0446\u0430 \u0422\u0443\u0440\u043c\u0430\u043d\u0442\u043e","ref":"102"},"arcs":[218]},{"type":"MultiLineString","properties":{"kind":"major_road","network":"lt:national","sort_rank":380,"kind_detail":"primary","source":"openstreetmap.org","min_zoom":8.0,"shield_text":"117","ref":"117"},"arcs":[[219],[220]]},{"type":"MultiLineString","properties":{"kind":"major_road","network":"lt:national","sort_rank":380,"kind_detail":"primary","is_bicycle_related":true,"bicycle_shield_text":"EV11","bicycle_network":"icn","source":"openstreetmap.org","min_zoom":8.0,"shield_text":"114","ref":"114"},"arcs":[[221],[222],[223]]},{"type":"LineString","properties":{"source":"openstreetmap.org","kind":"major_road","sort_rank":380,"kind_detail":"primary","ref":"177","min_zoom":8.0,"id":142750915},"arcs":[224]},{"type":"LineString","properties":{"kind":"major_road","network":"lt:national","sort_rank":380,"kind_detail":"primary","source":"openstreetmap.org","min_zoom":8.0,"shield_text":"6","name:ru":"\u0443\u043b\u0438\u0446\u0430 \u0412\u0438\u0442\u0430\u0443\u0442\u043e","ref":"A6","id":54147410},"arcs":[225]},{"type":"MultiLineString","properties":{"kind":"major_road","network":"lt:national","sort_rank":380,"kind_detail":"primary","is_bicycle_related":true,"bicycle_shield_text":"EV11","bicycle_network":"icn","source":"openstreetmap.org","min_zoom":8.0,"shield_text":"172","name:ru":"\u0443\u043b\u0438\u0446\u0430 \u0412\u0438\u043b\u044c\u043d\u044e\u0441","ref":"172"},"arcs":[[226],[227]]},{"type":"MultiLineString","properties":{"kind":"major_road","network":"lt:national","sort_rank":380,"kind_detail":"primary","source":"openstreetmap.org","min_zoom":8.0,"landuse_kind":"park","shield_text":"102","ref":"102","id":44523129},"arcs":[[228],[229]]},{"type":"MultiLineString","properties":{"kind":"major_road","network":"by:national","sort_rank":380,"kind_detail":"primary","source":"openstreetmap.org","min_zoom":8.0,"shield_text":"110","ref":"\u0420110"},"arcs":[[230],[231],[232]]},{"type":"LineString","properties":{"kind":"major_road","network":"lt:regional","sort_rank":379,"kind_detail":"secondary","is_bicycle_related":true,"bicycle_shield_text":"EV11","bicycle_network":"icn","source":"openstreetmap.org","min_zoom":8.0,"shield_text":"4904","ref":"4904"},"arcs":[233]},{"type":"MultiLineString","properties":{"kind":"major_road","network":"lt:national","sort_rank":380,"kind_detail":"primary","source":"openstreetmap.org","min_zoom":8.0,"shield_text":"102","name:ru":"\u0443\u043b\u0438\u0446\u0430 \u0412\u0438\u043b\u044c\u043d\u044e\u0441","ref":"102"},"arcs":[[234],[235],[236]]},{"type":"MultiLineString","properties":{"kind":"major_road","network":"lt:national","sort_rank":380,"kind_detail":"primary","source":"openstreetmap.org","min_zoom":8.0,"shield_text":"112","ref":"112"},"arcs":[[237],[238]]},{"type":"LineString","properties":{"source":"openstreetmap.org","kind":"major_road","sort_rank":380,"kind_detail":"primary","ref":"102","min_zoom":8.0},"arcs":[239]},{"type":"MultiLineString","properties":{"kind":"major_road","network":"lt:national","sort_rank":380,"kind_detail":"primary","is_bicycle_related":true,"bicycle_shield_text":"EV11","bicycle_network":"icn","source":"openstreetmap.org","min_zoom":8.0,"shield_text":"172","ref":"172"},"arcs":[[240],[241],[242]]},{"type":"LineString","properties":{"kind":"major_road","network":"by:national","sort_rank":380,"kind_detail":"primary","source":"openstreetmap.org","min_zoom":8.0,"shield_text":"45","ref":"\u042045"},"arcs":[243]},{"type":"MultiLineString","properties":{"kind":"major_road","network":"lt:national","sort_rank":380,"kind_detail":"primary","source":"openstreetmap.org","min_zoom":8.0,"shield_text":"109","name:be":"\u041b\u044b\u043d\u0442\u0443\u043f\u0441\u043a\u0430\u044f \u0432\u0443\u043b\u0456\u0446\u0430","ref":"109"},"arcs":[[244],[245]]},{"type":"LineString","properties":{"kind":"major_road","network":"lt:national","sort_rank":380,"kind_detail":"primary","is_bicycle_related":true,"bicycle_shield_text":"LT3","bicycle_network":"ncn","source":"openstreetmap.org","min_zoom":8.0,"landuse_kind":"park","shield_text":"114","ref":"114","id":152865591},"arcs":[246]},{"type":"LineString","properties":{"kind":"major_road","sort_rank":380,"kind_detail":"primary","is_bicycle_related":true,"source":"openstreetmap.org","min_zoom":8.0,"ref":"172","id":305947784},"arcs":[247]},{"type":"LineString","properties":{"kind":"major_road","network":"lt:national","sort_rank":381,"kind_detail":"trunk","source":"openstreetmap.org","min_zoom":8.0,"shield_text":"6","id":379867915},"arcs":[248]},{"type":"MultiLineString","properties":{"kind":"major_road","network":"lt:regional","sort_rank":379,"kind_detail":"secondary","is_bicycle_related":true,"bicycle_shield_text":"EV11","bicycle_network":"icn","source":"openstreetmap.org","min_zoom":8.0,"shield_text":"4908","ref":"4908"},"arcs":[[249],[250]]},{"type":"MultiLineString","properties":{"kind":"major_road","network":"lt:national","sort_rank":355,"kind_detail":"primary_link","is_bicycle_related":true,"bicycle_shield_text":"EV11","bicycle_network":"icn","source":"openstreetmap.org","min_zoom":8.0,"is_link":true,"shield_text":"114","ref":"114"},"arcs":[[251],[252]]},{"type":"MultiLineString","properties":{"kind":"major_road","network":"lt:national","sort_rank":380,"kind_detail":"primary","source":"openstreetmap.org","min_zoom":8.0,"shield_text":"114","ref":"114"},"arcs":[[253],[254],[255]]},{"type":"LineString","properties":{"kind":"major_road","network":"lt:national","sort_rank":380,"kind_detail":"primary","source":"openstreetmap.org","min_zoom":8.0,"shield_text":"173","name:ru":"\u0443\u043b\u0438\u0446\u0430 \u041c\u043e\u043b\u0435\u0442\u0443","ref":"173"},"arcs":[256]},{"type":"MultiLineString","properties":{"kind":"major_road","network":"lt:national","sort_rank":381,"kind_detail":"trunk","source":"openstreetmap.org","min_zoom":8.0,"shield_text":"14","name:ru":"\u0443\u043b\u0438\u0446\u0430 \u041a\u0443\u043f\u0438\u0448\u043a\u0438\u043e","ref":"A14"},"arcs":[[257],[258]]},{"type":"LineString","properties":{"source":"openstreetmap.org","kind":"major_road","sort_rank":380,"kind_detail":"primary","ref":"119","min_zoom":8.0},"arcs":[259]},{"type":"LineString","properties":{"kind":"major_road","network":"lv:regional","sort_rank":379,"kind_detail":"secondary","is_bicycle_related":true,"bicycle_shield_text":"EV11","bicycle_network":"icn","source":"openstreetmap.org","min_zoom":8.0,"shield_text":"723","id":183585332},"arcs":[260]},{"type":"MultiLineString","properties":{"kind":"major_road","network":"lt:regional","sort_rank":379,"kind_detail":"secondary","is_bicycle_related":true,"bicycle_shield_text":"EV11","bicycle_network":"icn","source":"openstreetmap.org","min_zoom":8.0,"shield_text":"1410","ref":"1410","id":39771106},"arcs":[[261],[262]]},{"type":"LineString","properties":{"kind":"major_road","network":"lt:regional","sort_rank":379,"kind_detail":"secondary","is_bicycle_related":true,"bicycle_shield_text":"EV11","bicycle_network":"icn","source":"openstreetmap.org","min_zoom":8.0,"shield_text":"5312","ref":"5312"},"arcs":[263]}]},"earth":{"type":"GeometryCollection","geometries":[{"type":"Polygon","properties":{"sort_rank":10,"source":"naturalearthdata.com","min_zoom":0.0,"kind":"earth","area":98022885885},"arcs":[[264]]}]},"landuse":{"type":"GeometryCollection","geometries":[{"type":"MultiPolygon","properties":{"kind":"park","protect_class":"4","area":875764766,"sort_rank":24,"source":"openstreetmap.org","min_zoom":6.0,"tier":2,"osm_relation":true},"arcs":[[[265]],[[266]]]},{"type":"Polygon","properties":{"source":"openstreetmap.org","kind":"park","area":29214900,"tier":2,"id":496093630,"min_zoom":8.0,"sort_rank":24},"arcs":[[267]]},{"type":"Polygon","properties":{"kind":"national_park","protect_class":"2","area":1268930048,"sort_rank":18,"source":"openstreetmap.org","min_zoom":3.0,"tier":1,"id":-919299,"osm_relation":true},"arcs":[[268]]},{"type":"MultiPolygon","properties":{"source":"openstreetmap.org","kind":"park","tier":2,"area":89907869,"sort_rank":24,"min_zoom":6.0,"osm_relation":true},"arcs":[[[269]],[[270]],[[271]],[[272]]]},{"type":"MultiPolygon","properties":{"source":"openstreetmap.org","kind":"military","tier":3,"area":31501310,"sort_rank":45,"min_zoom":8.0},"arcs":[[[273]]]},{"type":"Polygon","properties":{"kind":"protected_area","protect_class":"4","area":116788000,"sort_rank":17,"source":"openstreetmap.org","min_zoom":7.0,"tier":2,"id":132054927},"arcs":[[274]]},{"type":"Polygon","properties":{"kind":"protected_area","protect_class":"4","area":657926976,"sort_rank":17,"source":"openstreetmap.org","min_zoom":6.0,"tier":2,"id":132054126},"arcs":[[275]]},{"type":"Polygon","properties":{"kind":"park","protect_class":"4","area":1693200000,"sort_rank":24,"source":"openstreetmap.org","min_zoom":4.0,"tier":2,"id":-5968596,"osm_relation":true},"arcs":[[276]]},{"type":"MultiPolygon","properties":{"source":"openstreetmap.org","kind":"park","tier":2,"area":4722629514,"sort_rank":24,"min_zoom":4.0,"osm_relation":true},"arcs":[[[277]],[[278]],[[279]],[[280]]]}]}},"type":"Topology","transform":{"translate":[25.3125,54.9776136707],"scale":[0.0003433228,0.0001950584]},"arcs":[[[3839,3604],[-96,-31],[-64,7],[-9,21],[-121,-16],[-54,53],[-57,4],[-5,41],[-140,67],[-116,12],[-51,-35],[-104,194],[-115,7],[-141,168]],[[2340,0],[8,13],[-8,43],[68,-16],[49,36],[83,-10],[70,36],[1,76],[96,144],[-12,54],[22,29],[-27,11],[3,30],[27,28],[49,-19],[-5,40],[29,18],[-123,143],[92,81],[120,20],[29,19],[-28,23],[78,17],[-16,42],[91,29],[110,-40],[10,-46],[80,34],[79,-38],[20,18],[11,-41],[47,47],[9,56],[106,63],[67,-91],[149,55],[78,-37],[104,73],[44,-26],[23,16],[4,58],[48,-18],[33,26],[-15,34],[-39,-4],[-36,101],[55,42],[20,-26],[53,48]],[[4096,1769],[-30,33],[-129,50],[-59,-23],[-33,-64],[-17,67],[-36,-16],[10,-26],[-31,-37],[-54,-2],[-15,37],[-58,-36],[-44,49],[-96,5],[-117,59],[-65,-9],[-38,43],[93,45],[8,68],[84,-1],[22,49],[126,48],[-18,98],[33,16],[-60,146],[16,16],[45,-21],[-52,62],[44,66],[-96,238],[29,77],[138,54],[77,138],[46,16],[37,164],[-17,426]],[[3839,3604],[65,138],[192,-33]],[[2766,4096],[141,-168],[115,-7],[104,-194],[51,35],[116,-12],[140,-67],[5,-41],[57,-4],[54,-53],[121,16],[9,-21],[64,-7],[96,31]],[[3839,3604],[65,138],[192,-33]],[[0,3893],[62,-13],[44,74],[25,2],[17,60],[80,16],[14,-33],[25,23],[-3,-21],[180,-130],[26,58],[87,-34],[-27,-57],[94,-38],[30,-3],[18,67],[113,-50],[52,110],[20,0],[14,-43],[19,13],[79,-35],[39,42],[62,11],[19,-132],[75,82],[14,54],[22,-9],[12,24],[-1,65],[-27,2],[25,16],[9,82]],[[1380,4096],[81,-29],[29,29]],[[4096,1466],[-150,-11],[-23,-29],[-39,48],[-62,-17],[-37,-41],[47,-18],[-4,-20],[-42,4],[13,-31],[-59,-64],[-83,-1],[-42,-46],[-38,31],[-49,-2],[-17,-54],[-68,14],[-29,-23],[-80,31],[-27,-49],[-80,44],[-58,-8],[-59,42],[-112,-29],[-16,42],[-30,-36],[-90,26],[-31,36],[-59,-44],[-101,113],[-23,-39],[-66,-11],[-9,22],[-30,-94],[-93,18],[47,114],[38,21],[-101,60],[-11,126],[-39,-3],[-27,32],[-56,-28],[-122,42],[3,65],[-17,-73],[24,-3],[-9,-16],[-42,42],[-80,-64],[69,7],[-39,-62],[-91,9],[-35,-28],[-75,58],[-59,-14],[-2,33],[-29,0],[2,-52],[-46,36],[-7,-42],[-39,7],[-18,15],[11,45],[-91,70],[-44,-30],[-30,11],[6,-101],[-99,-4],[-6,147],[-35,-31],[-78,82],[-30,-50],[-54,2],[-32,-88],[-48,-19],[14,-33],[-25,-89],[-80,45],[14,-67],[44,-11],[-13,-53],[25,10],[14,-40],[-84,25],[-47,-65],[-14,-57],[23,-8],[-20,-22],[42,-2],[-61,-34],[-14,-105],[106,-78],[69,-3],[-1,-151],[38,7],[14,-37],[45,-31],[30,12],[34,-42],[81,-24],[9,27],[17,-13],[-30,-49],[-23,4],[-21,-60],[-30,10],[0,23],[-8,-23],[-33,1],[11,-22],[-22,-17],[48,-1],[13,-68],[-53,-2],[-4,25],[-26,-39],[-26,10],[25,-44],[13,28],[39,0],[-51,-102],[29,-10],[-40,-34],[29,-12],[-8,-46],[50,15],[4,-18],[-145,-19],[-15,58],[-118,-31],[-23,94],[-34,-6],[-58,38],[-45,-34],[-97,28],[-5,-80],[-112,27],[-31,-68],[-86,13],[-218,-51],[-74,36],[-41,-44],[-148,2],[-55,28]],[[2610,102],[1,76],[96,144],[-12,54],[22,29],[-27,11],[3,30],[27,28],[49,-19],[-5,40],[29,18],[-122,152],[91,72],[134,28],[15,11],[-28,23],[78,17],[-16,42],[91,29],[110,-40],[10,-46],[80,34],[79,-38],[20,18],[11,-41],[47,47],[9,56],[106,63],[67,-91],[149,55],[78,-37],[104,73],[44,-26],[23,16],[4,58],[48,-18],[33,27],[-15,33],[-39,-4],[-36,101],[55,42],[20,-26],[53,48]],[[2340,0],[8,13],[-8,43],[68,-16],[49,36],[83,-10],[70,36]],[[4096,1769],[-30,33],[-129,50],[-59,-23],[-33,-64],[-17,67],[-36,-16],[10,-26],[-31,-37],[-54,-2],[-15,37],[-58,-36],[-44,49],[-96,5],[-117,59],[-65,-9],[-38,43],[93,45],[8,68],[84,-1],[22,49],[126,48],[-18,98],[33,16],[-60,146],[16,16],[45,-21],[-52,62],[44,66],[-96,238],[29,77],[138,54],[77,138],[46,16],[37,164],[-17,426]],[[4018,0],[-5,6],[-9,-6]],[[3942,0],[-29,16],[-22,47],[-55,-61],[-36,28],[-67,-3],[-12,-15],[12,-12]],[[3193,0],[-73,46],[-112,28],[-48,-56],[20,-18]],[[2610,102],[110,-84],[0,-18]],[[1328,0],[162,122],[141,155],[124,225],[85,83],[127,271],[25,233],[43,141],[188,254],[51,121],[230,283],[-5,99],[64,157],[98,136],[-3,124],[62,216],[230,159]],[[4096,803],[-293,63],[-83,37],[-134,-57],[-68,-76],[-138,-58],[-125,-148],[-103,-17],[-130,-109],[-63,-14],[-67,-60],[17,-39]],[[1328,0],[162,122],[141,155],[124,225],[85,83],[127,271],[55,348],[201,280],[51,121],[229,280],[-4,102],[64,157],[98,136],[-3,124],[62,216],[221,141],[110,247],[140,195],[73,293],[100,222]],[[1328,0],[154,115],[152,166],[283,445],[52,139],[50,331],[47,93],[156,193],[48,117],[125,172],[83,78]],[[0,3451],[132,133]],[[132,3584],[3,2]],[[135,3586],[9,11]],[[340,3828],[136,268]],[[3328,3160],[59,6]],[[276,1273],[-121,-60],[-155,-15]],[[2884,368],[-36,74]],[[2496,820],[18,36]],[[2387,3101],[3,-6]],[[2716,3861],[-3,-5]],[[335,1318],[66,-2]],[[828,2663],[0,2]],[[2447,1853],[26,-6]],[[339,1321],[5,-2]],[[2351,1890],[34,87],[-54,101]],[[2360,1868],[-11,17]],[[2971,2884],[26,-12],[65,42],[77,-3],[225,119],[27,58],[-63,71]],[[2905,3934],[-1,-1]],[[1913,1719],[65,-37],[6,-47],[-38,-68],[31,-136],[9,-288]],[[1870,2006],[-17,7]],[[3292,2793],[-96,-123],[55,-150],[-81,-100],[1,-126],[-48,-43]],[[3123,2251],[-95,-120],[-59,-17],[-11,-34],[-80,-58],[4,-34]],[[2882,1988],[-7,-13]],[[3645,357],[-2,0]],[[130,3586],[1,-2]],[[134,3583],[0,2]],[[786,2656],[2,2]],[[789,2658],[-3,2]],[[824,2664],[3,0]],[[3227,3185],[31,-11]],[[3245,3237],[9,-8]],[[3254,3229],[73,-69]],[[3283,3197],[-29,32]],[[3254,3229],[-8,8]],[[3283,3159],[-1,0]],[[3282,3158],[1,1]],[[3282,3158],[-19,16],[20,-17]],[[3282,3158],[23,-40],[22,41]],[[3283,3159],[19,23]],[[2505,1871],[8,16]],[[1359,1481],[424,6]],[[2608,2027],[1,0]],[[3669,3503],[17,4]],[[1357,34],[24,0]],[[2490,1822],[-8,6]],[[3552,4096],[17,-53]],[[1343,1485],[16,-4]],[[924,2716],[4,3]],[[3328,3159],[0,1],[-1,0],[0,-1],[1,0]],[[3695,3579],[-90,123],[4,133]],[[786,2658],[3,12]],[[2717,3871],[-12,42]],[[3700,3577],[2,-1]],[[3019,57],[10,-57]],[[1328,26],[29,8]],[[1381,34],[154,-32],[208,32],[49,-34]],[[1951,0],[107,112],[72,133],[-16,166],[117,203],[205,158]],[[2439,775],[2,2]],[[2469,805],[27,15]],[[2482,1828],[-2,1]],[[2573,1348],[-23,83],[32,212],[-92,179]],[[2496,1856],[9,15]],[[2513,1887],[17,94],[-98,100],[-12,165],[33,132],[93,82],[109,155],[92,67],[155,52]],[[2514,856],[28,100]],[[2559,1049],[-10,223]],[[2941,2768],[133,365],[-88,206],[0,194],[-118,205],[-137,83]],[[3292,2793],[-12,5]],[[132,3584],[-2,-2]],[[1853,2013],[-37,43]],[[1788,1487],[190,-73],[87,192],[259,226],[48,10]],[[2481,791],[2,-1]],[[1568,3880],[-9,-231],[41,-141],[-109,-187],[28,-163]],[[756,921],[-39,40]],[[780,2568],[81,20]],[[3220,3258],[0,2],[-2,1],[0,-2],[2,-1]],[[3246,3237],[-26,21]],[[1870,2006]],[[1995,980],[51,2]],[[2645,3795],[-36,-8]],[[2720,3825],[-54,-30]],[[2953,355],[-37,5]],[[861,2589],[0,-1],[1,0],[1,1],[-2,0]],[[0,2417],[479,214],[287,25]],[[937,2725],[307,210]],[[1273,2960],[180,168],[66,29]],[[1520,3158],[633,331]],[[2153,3489],[6,3]],[[2159,3493],[-6,-4]],[[2160,3493],[449,294]],[[2666,3795],[-21,0]],[[2721,3833],[-1,-8]],[[2903,3933],[-30,-13]],[[1554,3970],[-1,0],[1,0]],[[784,2569],[-4,0]],[[861,2589],[-3,0]],[[2300,3265],[1,-2]],[[2367,3114],[20,-13]],[[786,2658],[3,0]],[[838,2669],[9,3]],[[2524,769],[82,-42],[154,-178]],[[114,0],[9,52],[-30,176],[25,334],[188,368],[61,315]],[[404,1322],[108,133],[66,165],[25,434]],[[652,2301],[127,267]],[[779,2569],[0,36]],[[781,2617],[4,35]],[[779,2569],[-1,0],[1,-1],[1,0],[-1,1]],[[2444,813],[-1,10]],[[2705,3913],[-21,15]],[[1244,2935],[29,25]],[[3228,3186],[-56,-13],[-6,-43],[36,-70],[-2,-94],[80,-168]],[[335,1318]],[[2513,1887],[16,85],[80,55]],[[256,1216],[-1,0],[1,0]],[[278,1273],[-1,1],[-1,-1],[1,-1],[1,1]],[[1574,3903],[77,-17],[508,-392]],[[2160,3492],[16,-91],[124,-136]],[[2301,3263],[66,-149]],[[2390,3095],[23,-33],[141,-32],[164,-89],[71,31],[89,-13],[61,-48],[43,7]],[[1519,4096],[-17,-51],[52,-75]],[[1554,3970],[14,-90]],[[367,1245],[32,68]],[[603,2054],[10,178],[39,69]],[[3283,3197]],[[2916,360],[11,-56]],[[3841,2189],[-10,-34]],[[2488,788],[15,-8]],[[2491,809],[389,136]],[[2880,946],[258,55],[341,-55],[153,17],[80,-45]],[[3798,896],[26,-16]],[[325,1295],[-12,10]],[[508,1177],[-142,71],[-41,47]],[[717,961],[-26,65],[-94,107]],[[1266,48],[-47,45],[-33,211],[18,45],[-94,67],[-12,139],[-73,-69],[-60,216],[-79,75],[-48,12],[-62,66],[-20,66]],[[3695,3579],[5,-2]],[[3826,880],[-2,0]],[[3829,879],[-3,1]],[[4096,693],[-163,147],[-104,39]],[[766,2656],[20,2]],[[928,2719],[9,6]],[[597,1133],[-89,44]],[[3686,3507],[30,25]],[[3499,3537],[170,-34]],[[885,1308],[95,-12]],[[1135,1349],[37,51],[171,85]],[[2760,549],[88,-107]],[[2887,368],[-3,0]],[[3391,3088],[39,79],[60,-37],[115,0],[30,67]],[[2713,3856],[8,-23]],[[2780,3892],[-58,-28]],[[1479,1971],[98,-13]],[[861,2588],[1,-2]],[[862,2591],[0,-2]],[[865,2589],[-2,0]],[[863,2588],[2,1]],[[865,2589],[127,37]],[[1519,3157],[1,0],[-1,1],[0,-1]],[[2873,3920],[-93,-28]],[[2904,3933],[-1,0]],[[336,1319],[3,2]],[[3712,918],[86,-22]],[[0,3715],[208,-174],[128,-236]],[[339,3293],[-3,12]],[[509,3065],[-170,228]],[[509,3065],[13,-15]],[[789,2670],[-30,83],[-114,90],[-123,207]],[[2503,780],[21,-11]],[[0,1850],[10,-65],[72,-76],[63,-306],[83,-98],[63,-7]],[[2916,360],[-29,8]],[[789,2658],[49,11]],[[847,2672],[77,44]],[[3283,3197],[-20,-23],[-35,12]],[[3327,3160],[-44,37]],[[2608,2027],[97,32],[170,-84]],[[1343,1485],[133,199]],[[1498,1760],[16,30],[-35,47]],[[401,1317],[2,0],[-1,1],[-1,0],[0,-1]],[[924,2716],[68,-90]],[[3030,4096],[-125,-162]],[[144,3597],[196,231]],[[3802,429],[-65,-34]],[[2331,2078],[-314,58],[-29,-64],[-103,3],[12,-37],[-27,-32]],[[3837,2095],[111,-126],[148,-98]],[[4096,2451],[-150,-88],[-46,-108],[-59,-66]],[[826,2664],[30,-10],[6,-65]],[[862,2588],[9,-241],[83,-169],[89,-60],[436,-147]],[[1577,1958],[159,-75],[177,-164]],[[1986,1143],[9,-163]],[[2443,823],[-163,120],[-234,39]],[[2441,777],[3,36]],[[325,1295]],[[2880,945],[0,1]],[[1505,3151],[14,6]],[[1520,3157],[4,3]],[[2159,3493],[1,-1],[0,1],[0,1],[-1,-1]],[[3702,3576],[20,-12],[-6,-32]],[[2436,772],[3,3]],[[2441,777],[28,28]],[[3831,2155],[6,-60]],[[2716,3826],[15,-5]],[[2684,3928],[-68,87],[-263,81]],[[2722,3864],[-6,-3]],[[405,1318],[277,12],[123,-42],[80,20]],[[2393,1847],[54,6]],[[2473,1847],[32,24]],[[3429,3167],[7,-4]],[[2722,3864],[-6,-3]],[[256,1216],[21,56]],[[289,1287]],[[2542,956],[17,93]],[[2549,1272],[24,76]],[[3643,357],[-200,-46],[-490,44]],[[3737,395],[-92,-38]],[[4096,512],[-99,-14],[-195,-69]],[[1577,1958],[74,63],[159,29]],[[1279,0],[49,26]],[[2480,1829],[16,27]],[[2902,2734],[39,34]],[[2530,1981],[78,46]],[[2875,1975],[83,-74],[245,19],[87,-83],[165,-52],[59,-64],[161,28],[90,-50],[147,54],[127,-11]],[[2492,809],[0,1]],[[0,626],[63,77],[140,64],[34,47],[-27,211],[42,83],[3,108]],[[289,1287],[-12,-13]],[[289,1287],[46,31]],[[4096,7],[-17,-7]],[[2467,804],[14,-13]],[[2483,790],[5,-2]],[[980,1296],[37,-9],[118,62]],[[335,1318],[1,1]],[[1251,2940],[8,6]],[[1476,1684],[22,76]],[[1479,1837],[-32,42],[32,92]],[[401,1318],[-2,-1]],[[403,1317],[2,1]],[[344,1319],[55,-2]],[[1783,1487],[5,0]],[[2372,1842],[21,5]],[[1295,9],[-29,39]],[[779,2605],[2,12]],[[785,2652],[1,6]],[[291,1298],[16,1]],[[3569,4043],[31,-76],[9,-132]],[[2349,1885],[2,5]],[[2393,1847],[-33,21]],[[3387,3166],[-2,75],[-43,88],[48,74],[79,58],[30,76]],[[0,0],[0,4096],[4096,0],[0,-4096],[-4096,0]],[[973,0],[-58,0],[-47,35],[-54,3],[-9,73],[-67,48],[-59,0],[22,31],[-80,68],[-103,-3],[-8,-23],[-58,32],[-59,7],[-23,-20],[-24,21],[4,-61],[-39,-18],[-28,66],[33,42],[-15,18],[19,50],[-56,-22],[-14,84],[-38,7],[-10,-62],[-49,3],[-33,39],[35,11],[16,99],[-54,10],[13,24],[40,-16],[74,25],[88,-7],[88,-59],[-14,-65],[81,-26],[18,39],[-22,131],[92,3],[30,-90],[64,17],[117,-75],[126,26],[80,-34],[30,-103],[-50,-266],[40,-2],[2,-54],[-41,-6]],[[2495,1268],[44,92],[137,-47],[44,54],[-39,15],[48,22],[30,-4],[-7,-39],[37,-16],[20,54],[40,-52],[26,7],[32,-69],[50,74],[31,7],[52,-220],[-43,-44],[-22,7],[-10,-56],[-119,-71],[35,-38],[-36,28],[-42,-11],[-43,-49],[-91,-10],[-79,-51],[-26,25],[4,60],[-34,27],[26,89],[47,54],[-47,54],[63,61],[-42,22],[4,23],[-38,7],[-13,-24],[-39,19]],[[3085,0],[22,55],[108,-55],[-130,0]],[[1466,2372],[66,68],[117,8],[-1,31],[46,24],[95,-45],[17,214],[252,-9],[6,-93],[67,11],[9,-97],[146,81],[79,-7],[20,18],[26,-52],[-9,-54],[-54,-18],[25,-75],[-61,1],[-3,-37],[-45,-36],[74,-3],[-7,-64],[37,12],[-6,-178],[68,6],[62,-60],[6,-89],[-43,-2],[-58,-51],[-52,16],[26,-44],[2,-101],[45,-58],[35,-175],[21,2],[-11,-36],[39,-60],[-57,-21],[-18,-20],[16,-19],[-30,6],[-20,-33],[-59,10],[6,-32],[-37,-34],[-204,-4],[26,-50],[-44,16],[7,-30],[-64,-10],[-9,-56],[-77,1],[4,16],[-69,-15],[-8,52],[-34,21],[26,75],[26,2],[4,93],[-88,-23],[-10,122],[-73,-1],[-1,45],[-28,16],[15,49],[-151,123],[106,34],[50,-24],[89,26],[131,-41],[-8,52],[24,46],[-80,13],[34,154],[-77,78],[12,42],[-39,94],[-50,-24],[-48,47],[36,28],[-23,36],[12,33],[-254,59]],[[0,2591],[12,-17],[-12,-39],[0,56]],[[0,2788],[37,3],[16,-61],[-53,-6],[0,64]],[[1827,4096],[-58,-37],[-33,-65],[-29,14],[-21,-45],[-33,27],[20,41],[-34,33],[-48,-43],[-23,10],[-13,-39],[34,-26],[-24,-27],[4,-87],[-31,-5],[-5,48],[-52,41],[-25,109],[-115,30],[-9,21],[495,0]],[[1142,3921],[42,34],[-32,127],[142,14],[-3,-39],[-59,-38],[-4,-132],[-75,3],[-11,31]],[[1354,295],[41,120],[36,12],[5,-157],[-49,-10],[-33,35]],[[3905,3772],[41,21],[26,-24],[29,43],[66,1],[23,48],[6,1],[0,-140],[-174,14],[-17,36]],[[3193,4096],[116,0],[3,-26],[49,17],[23,-21],[-61,-131],[39,-17],[-20,-90],[20,-108],[-169,42],[-68,-34],[-103,193],[-115,8],[-141,167],[427,0]],[[369,1248],[36,69],[54,-2],[10,-24],[19,27],[84,-12],[80,23],[95,-25],[72,-50],[26,21],[48,-10],[-8,45],[75,22],[-57,74],[-58,-19],[-52,-63],[-111,37],[2,63],[-38,0],[-13,86],[111,37],[-41,17],[1,27],[-32,1],[0,23],[-44,-24],[-54,14],[5,19],[35,2],[36,45],[-8,79],[35,39],[44,-10],[24,42],[187,-95],[-5,-26],[28,-12],[83,54],[31,-8],[23,120],[39,-4],[5,59],[58,3],[-6,67],[51,1],[76,-63],[18,-89],[99,47],[107,-87],[8,-19],[-63,-12],[-10,-71],[21,-17],[58,17],[8,-38],[28,28],[113,-80],[-15,-49],[28,-16],[1,-45],[65,3],[17,-21],[1,-103],[88,23],[-4,-93],[-26,-2],[-26,-75],[66,-77],[-112,7],[-5,-56],[-20,1],[-26,-323],[123,-18],[-14,-95],[17,-10],[-33,-45],[-118,-34],[-20,-3],[-2,28],[-230,-10],[-27,49],[-45,-2],[-123,104],[-40,67],[-63,20],[4,27],[-100,15],[-46,68],[-11,-47],[-60,6],[-147,-56],[-41,86],[38,-1],[8,43],[21,-5],[-4,108],[-96,16],[-49,-23],[-45,38],[17,19],[-22,57],[-30,-40],[-227,116]],[[3207,0],[-228,0],[-9,7],[37,65],[48,0],[38,-42],[43,28],[-2,-22],[73,-36]],[[3832,0],[-187,0],[19,39],[57,-29],[77,18],[34,-28]],[[3954,0],[-120,0],[59,60],[18,-44],[35,0],[8,-16]],[[4017,0],[-16,0],[11,7],[5,-7]]]}