{"objects":{"water":{"type":"GeometryCollection","geometries":[]},"buildings":{"type":"GeometryCollection","geometries":[]},"places":{"type":"GeometryCollection","geometries":[{"type":"Point","properties":{"kind":"region","name:en":"Rivne Oblast","name":"\u0420\u0456\u0432\u043d\u0435\u043d\u0441\u044c\u043a\u0430 \u043e\u0431\u043b\u0430\u0441\u0442\u044c","kind_detail":"state","name:pt":"Oblast de Rivne","name:de":"Oblast Riwne","source":"openstreetmap.org","min_zoom":4.0,"name:eo":"Rivna Provinco","name:fr":"Oblast de Rivne","name:be":"\u0420\u043e\u0432\u0435\u043d\u0441\u043a\u0430\u044f \u0432\u043e\u0431\u043b\u0430\u0441\u0446\u044c","name:ru":"\u0420\u043e\u0432\u0435\u043d\u0441\u043a\u0430\u044f \u043e\u0431\u043b\u0430\u0441\u0442\u044c","name:pl":"obw\u00f3d r\u00f3wie\u0144ski","id":681769620,"name:es":"\u00d3blast de Rivne"},"coordinates":[3519,2188]},{"type":"Point","properties":{"name:pt":"Lutsk","name:az":"Lutsk","name:id":"Lutsk","name:ka":"\u10da\u10e3\u10ea\u10d9\u10d8","name:ko":"\ub8e8\uce20\ud06c","name:cv":"\u041b\u0443\u0446\u043a","name:ar":"\u0644\u0648\u062a\u0633\u0643","name:cs":"Luck","name:tt":"\u041b\u0443\u0446\u043a","min_zoom":8.0,"int_name":"\u0141u\u0107k","name:it":"Luc'k","name:ru":"\u041b\u0443\u0446\u043a","name:vi":"Lutsk","name:ce":"\u041b\u0443\u0446\u043a","name:mn":"\u041b\u0443\u0446\u043a","id":146570870,"name:mk":"\u041b\u0443\u0446\u043a","name:af":"Loetsk","name:lv":"Lucka","name:fa":"\u0644\u0648\u062a\u0633\u06a9","name:bg":"\u041b\u0443\u0446\u043a","name:lt":"Luckas","kind_detail":"city","name:ky":"\u041b\u0443\u0446\u043a","name:da":"Lutsk","name:de":"Luzk","source":"openstreetmap.org","name:fr":"Loutsk","name:ca":"Lutsk","name:be":"\u041b\u0443\u0446\u043a","name:zh":"\u76e7\u8328\u514b","admin_level":"4","name:ro":"Lu\u021bk","name:ja":"\u30eb\u30fc\u30c4\u30a3\u30af","name:nn":"Lutsk","name:no":"Lutsk","name:he":"\u05dc\u05d5\u05e6\u05e7","kind":"locality","name:eu":"Lutsk","name:la":"Luceoria","name:sk":"Luck","name:hy":"\u053c\u0578\u0582\u0581\u056f","name:sv":"Lutsk","name:hu":"Luck","name:hr":"Lutsk","name:sr":"\u041b\u0443\u0446\u043a","name:sq":"Lutsk","population":217502,"name:eo":"Lucko","name:en":"Lutsk","name:ba":"\u041b\u0443\u0446\u043a","name":"\u041b\u0443\u0446\u044c\u043a","name:gl":"Lutsk","name:pl":"\u0141uck","name:fi":"Lutsk","name:yi":"\u05dc\u05d5\u05e6\u05e7","name:et":"Lutsk","name:nl":"Loetsk","name:es":"Lutsk"},"coordinates":[22,40]},{"type":"Point","properties":{"kind":"locality","name:en":"Varash","name":"\u0412\u0430\u0440\u0430\u0448","old_name:pl":"Hwarasz","kind_detail":"town","name:eo":"Vara\u015d","source":"openstreetmap.org","min_zoom":8.0,"name:pl":"Warasz","id":269665736,"population":41190},"coordinates":[1565,2844]},{"type":"Point","properties":{"kind":"locality","name:en":"Kostopil","name":"\u041a\u043e\u0441\u0442\u043e\u043f\u0456\u043b\u044c","kind_detail":"town","name:eo":"Kostopil","name:de":"Kostopil","source":"openstreetmap.org","min_zoom":8.0,"name:ru":"\u041a\u043e\u0441\u0442\u043e\u043f\u043e\u043b\u044c","name:pl":"Kostopol","name:hu":"Kostopil","id":337514561,"population":31159},"coordinates":[3317,680]},{"type":"Point","properties":{"kind":"locality","name:en":"Sarny","name":"\u0421\u0430\u0440\u043d\u0438","kind_detail":"town","name:eo":"Sarni","name:de":"Sarny","source":"openstreetmap.org","min_zoom":8.0,"name:ru":"\u0421\u0430\u0440\u043d\u044b","name:pl":"Sarny","id":337509542,"population":28604},"coordinates":[3816,2701]},{"type":"Point","properties":{"kind":"locality","name:en":"Kivertsi","name":"\u041a\u0456\u0432\u0435\u0440\u0446\u0456","kind_detail":"town","name:eo":"Kiverci","name:de":"Kiwerzi","source":"openstreetmap.org","min_zoom":8.0,"name:ru":"\u041a\u0438\u0432\u0435\u0440\u0446\u044b","name:pl":"Kiwerce","id":337515438,"population":14916},"coordinates":[420,440]},{"type":"Point","properties":{"kind":"locality","name:en":"Manevychi","name":"\u041c\u0430\u043d\u0435\u0432\u0438\u0447\u0456","old_name:pl":"Horodek","kind_detail":"town","name:eo":"Manevi\u0109i","name:de":"Manewytschi","source":"openstreetmap.org","min_zoom":8.0,"int_name":"Manewyczi","name:ru":"\u041c\u0430\u043d\u0435\u0432\u0438\u0447\u0438","name:pl":"Maniewicze","id":337509799,"population":10500},"coordinates":[656,2576]},{"type":"Point","properties":{"kind":"locality","name:en":"Dubrovytsia","name":"\u0414\u0443\u0431\u0440\u043e\u0432\u0438\u0446\u044f","kind_detail":"town","name:eo":"Dubrovicja","name:de":"Dubrowyzja","source":"openstreetmap.org","min_zoom":8.0,"name:be":"\u0414\u0443\u0431\u0440\u043e\u0432\u0456\u0446\u0430","name:ru":"\u0414\u0443\u0431\u0440\u043e\u0432\u0438\u0446\u0430","name:pl":"D\u0105browica","id":337506833,"population":9430},"coordinates":[3652,3875]},{"type":"Point","properties":{"kind":"locality","name:en":"Volodymyrets","name":"\u0412\u043e\u043b\u043e\u0434\u0438\u043c\u0438\u0440\u0435\u0446\u044c","kind_detail":"town","name:de":"Wolodymyrez","source":"openstreetmap.org","min_zoom":8.0,"name:ru":"\u0412\u043b\u0430\u0434\u0438\u043c\u0438\u0440\u0435\u0446","name:pl":"W\u0142odzimierzec","id":337508346,"population":8857},"coordinates":[2403,3169]},{"type":"Point","properties":{"kind":"locality","name:en":"Klevan","name":"\u041a\u043b\u0435\u0432\u0430\u043d\u044c","kind_detail":"town","source":"openstreetmap.org","min_zoom":8.0,"name:pl":"Klewa\u0144","id":337516783,"population":7708},"coordinates":[2021,47]},{"type":"Point","properties":{"kind":"locality","name:en":"Tsuman","name":"\u0426\u0443\u043c\u0430\u043d\u044c","kind_detail":"town","source":"openstreetmap.org","min_zoom":8.0,"name:pl":"Cuma\u0144","id":337515416,"population":6235},"coordinates":[1665,433]},{"type":"Point","properties":{"kind":"locality","name:en":"Stepan","name":"\u0421\u0442\u0435\u043f\u0430\u043d\u044c","kind_detail":"town","source":"openstreetmap.org","min_zoom":8.0,"name:pl":"Stepa\u0144","id":337511426,"population":4108},"coordinates":[2890,1841]},{"type":"Point","properties":{"kind":"locality","name:en":"Kolky","name":"\u041a\u043e\u043b\u043a\u0438","kind_detail":"town","source":"openstreetmap.org","min_zoom":8.0,"name:be":"\u041a\u043e\u043b\u043a\u0456","name:pl":"Ko\u0142ki","id":337511872,"population":4035},"coordinates":[1040,1685]},{"type":"Point","properties":{"kind":"locality","name:en":"Orzhiv","name":"\u041e\u0440\u0436\u0456\u0432","kind_detail":"town","source":"openstreetmap.org","min_zoom":8.0,"int_name":"Or\u017ciw","name:ru":"\u041e\u0440\u0436\u0435\u0432","name:pl":"Or\u017cew","id":337516683,"population":3961},"coordinates":[2339,69]},{"type":"Point","properties":{"kind":"locality","name:en":"Rafalivka","name":"\u0420\u0430\u0444\u0430\u043b\u0456\u0432\u043a\u0430","kind_detail":"town","name:de":"Rafalowka","source":"openstreetmap.org","min_zoom":8.0,"name:ru":"\u0420\u0430\u0444\u0430\u043b\u043e\u0432\u043a\u0430","name:pl":"Rafa\u0142\u00f3wka","id":337509652,"population":3341},"coordinates":[2003,2652]}]},"transit":{"type":"GeometryCollection","geometries":[{"type":"MultiLineString","properties":{"source":"openstreetmap.org","kind":"train","sort_rank":275,"ref":"\u0410\u043d\u0442\u043e\u043d\u0456\u0432\u043a\u0430 - \u0417\u0430\u0440\u0456\u0447\u043d\u0435","min_zoom":6.0,"osm_relation":true},"arcs":[[2],[3]]},{"type":"MultiLineString","properties":{"kind":"train","name":"142: \u041b\u044c\u0432\u0456\u0432-\u041a\u0438\u0457\u0432","service":"night","sort_rank":275,"source":"openstreetmap.org","min_zoom":6.0,"operator":"UZ","ref":"142: \u041b\u044c\u0432\u0456\u0432-\u041a\u0438\u0457\u0432","osm_relation":true},"arcs":[[4],[5],[6]]},{"type":"MultiLineString","properties":{"kind":"train","name":"97: \u041a\u0438\u0457\u0432-\u041a\u043e\u0432\u0435\u043b\u044c","service":"night","sort_rank":275,"name:de":"97: Kiew-Kowel","source":"openstreetmap.org","min_zoom":6.0,"operator":"UZ","ref":"97: \u041a\u0438\u0457\u0432-\u041a\u043e\u0432\u0435\u043b\u044c","osm_relation":true},"arcs":[[7],[8],[9]]},{"type":"MultiLineString","properties":{"kind":"train","name":"141: \u041a\u0438\u0457\u0432-\u041b\u044c\u0432\u0456\u0432","service":"night","sort_rank":275,"source":"openstreetmap.org","min_zoom":6.0,"operator":"UZ","ref":"141: \u041a\u0438\u0457\u0432-\u041b\u044c\u0432\u0456\u0432","osm_relation":true},"arcs":[[10],[11],[12]]},{"type":"MultiLineString","properties":{"kind":"train","name":"98: \u041a\u043e\u0432\u0435\u043b\u044c-\u041a\u0438\u0457\u0432","service":"night","sort_rank":275,"name:de":"98: Kowel-Kiew","source":"openstreetmap.org","min_zoom":6.0,"operator":"UZ","ref":"98: \u041a\u043e\u0432\u0435\u043b\u044c-\u041a\u0438\u0457\u0432","osm_relation":true},"arcs":[[13],[14],[15]]}]},"pois":{"type":"GeometryCollection","geometries":[{"type":"Point","properties":{"kind":"protected_area","name:en":"Byle Lake and Koza Berezyna Mire","tier":2,"protect_class":"98","area":72163200,"source":"openstreetmap.org","min_zoom":8.0,"operator":"\u041f\u0440\u0438\u0440\u043e\u0434\u043d\u0438\u0439 \u0437\u0430\u043f\u043e\u0432\u0456\u0434\u043d\u0438\u043a \u00ab\u0420\u0456\u0432\u043d\u0435\u043d\u0441\u044c\u043a\u0438\u0439\u00bb","name:ru":"\u0411\u0435\u043b\u043e\u0435 \u043e\u0437\u0435\u0440\u043e \u0438 \u0431\u043e\u043b\u043e\u0442\u043e \u041a\u043e\u0437\u0430-\u0411\u0435\u0440\u0435\u0437\u0438\u043d\u0430","id":-6936681,"osm_relation":true,"name":"\u0411\u0456\u043b\u0435 \u043e\u0437\u0435\u0440\u043e \u0442\u0430 \u0431\u043e\u043b\u043e\u0442\u043e \u041a\u043e\u0437\u0430-\u0411\u0435\u0440\u0435\u0437\u0438\u043d\u0430"},"coordinates":[1187,3690]},{"type":"Point","properties":{"kind":"protected_area","protect_class":"4","area":54034000,"source":"openstreetmap.org","min_zoom":8.0,"tier":2,"id":-5827824,"osm_relation":true,"name":"\u0417\u0430\u043f\u043e\u0432\u0456\u0434\u043d\u0435 \u0443\u0440\u043e\u0447\u0438\u0449\u0435 \u00ab\u0426\u0443\u043c\u0430\u043d\u0441\u044c\u043a\u0430 \u043f\u0443\u0449\u0430\u00bb"},"coordinates":[1436,1049]},{"type":"Point","properties":{"kind":"nature_reserve","protect_class":"1","area":166081000,"source":"openstreetmap.org","min_zoom":8.6,"tier":2,"name:ru":"\u041f\u0440\u0438\u0440\u043e\u0434\u043d\u044b\u0439 \u0437\u0430\u043f\u043e\u0432\u0435\u0434\u043d\u0438\u043a \u00ab\u0420\u043e\u0432\u0435\u043d\u0441\u043a\u0438\u0439\u00bb","name:pl":"Rezerwat przyrody \u201eR\u00f3wie\u0144ski\u201d","id":-2665880,"osm_relation":true,"name":"\u041f\u0440\u0438\u0440\u043e\u0434\u043d\u0438\u0439 \u0437\u0430\u043f\u043e\u0432\u0456\u0434\u043d\u0438\u043a \u00ab\u0420\u0456\u0432\u043d\u0435\u043d\u0441\u044c\u043a\u0438\u0439\u00bb"},"coordinates":[1220,3561]}]},"boundaries":{"type":"GeometryCollection","geometries":[{"type":"MultiLineString","properties":{"name:right:hy":"\u054e\u0578\u056c\u056b\u0576\u056b \u0574\u0561\u0580\u0566","name:right:yi":"\u05d5\u05d5\u05d0\u05d4\u05dc\u05d9\u05e0\u05e2\u05e8 \u05d2\u05d5\u05d1\u05e2\u05e8\u05e0\u05d9\u05e2","name:right:hr":"Volinjska oblast","name:left:sv":"Rivne oblast","name:right:hu":"Volinyi ter\u00fclet","name:left:sr":"\u0420\u0438\u0432\u0430\u045a\u0441\u043a\u0430 \u043e\u0431\u043b\u0430\u0441\u0442","name:right:lt":"Voluin\u0117s sritis","name:right:lv":"Vol\u012bnijas apgabals","name:left:lt":"Rivn\u0117s sritis","name:left:sh":"Rivnenska oblast","name:left:sk":"Rivnensk\u00e1 oblas\u0165","name:left:hr":"Rivnenska oblast","name:right:vi":"Volyn (t\u1ec9nh)","sort_rank":256,"name:left:ca":"Prov\u00edncia de Rivne","source":"openstreetmap.org","name:right:ar":"\u0641\u0648\u0644\u064a\u0646 \u0623\u0648\u0628\u0644\u0627\u0633\u062a","name:left:cs":"Rovensk\u00e1 oblast","name:left":"\u0420\u0456\u0432\u043d\u0435\u043d\u0441\u044c\u043a\u0430 \u043e\u0431\u043b\u0430\u0441\u0442\u044c","name:right:es":"\u00d3blast de Volinia","name:right:sr":"\u0412\u043e\u043b\u0438\u045a\u0441\u043a\u0430 \u043e\u0431\u043b\u0430\u0441\u0442","name:left:ka":"\u10e0\u10dd\u10d5\u10dc\u10dd\u10e1 \u10dd\u10da\u10e5\u10d8","name:right:eu":"Voliniako oblasta","name:right:et":"Vol\u00f5\u00f5nia oblast","name:left:ko":"\ub9ac\uc6b0\ub124 \uc8fc","name:right:it":"Oblast' di Volinia","name:left:ro":"Regiunea Rivne","name:right:ru":"\u0412\u043e\u043b\u044b\u043d\u0441\u043a\u0430\u044f \u043e\u0431\u043b\u0430\u0441\u0442\u044c","name:right:ro":"Regiunea Vol\u00een","name:left:ru":"\u0420\u043e\u0432\u0435\u043d\u0441\u043a\u0430\u044f \u043e\u0431\u043b\u0430\u0441\u0442\u044c","name:right:ms":"Oblast Volyn","name:right:mr":"\u0935\u094d\u0939\u094b\u0932\u093f\u0928 \u0913\u092c\u094d\u0932\u093e\u0938\u094d\u0924","name:right:id":"Oblast Volyn","name:right:eo":"Volina provinco","name:right:en":"Volyn Oblast","name:left:vi":"Rivne (t\u1ec9nh)","kind":"region","name":"\u0420\u0456\u0432\u043d\u0435\u043d\u0441\u044c\u043a\u0430 \u043e\u0431\u043b\u0430\u0441\u0442\u044c - \u0412\u043e\u043b\u0438\u043d\u0441\u044c\u043a\u0430 \u043e\u0431\u043b\u0430\u0441\u0442\u044c","name:left:fa":"\u0627\u0633\u062a\u0627\u0646 \u0631\u06cc\u0648\u0646\u0647","name:right:fa":"\u0627\u0633\u062a\u0627\u0646 \u0648\u0644\u06cc\u0646","min_zoom":8.0,"name:right:be":"\u0412\u0430\u043b\u044b\u043d\u0441\u043a\u0430\u044f \u0432\u043e\u0431\u043b\u0430\u0441\u0446\u044c","name:left:zh":"\u7f85\u592b\u8afe\u5dde","name:left:fr":"Oblast de Rivne","name:right:bs":"Volinjska oblast","name:right:zh":"\u6c83\u502b\u5dde","name:left:et":"Rivne oblast","name:left:hy":"\u054c\u0578\u057e\u0576\u0578\u0575\u056b \u0574\u0561\u0580\u0566","name:right:nn":"Volyn oblast","name:right:no":"Volyn oblast","name:right:nl":"Oblast Wolyni\u00eb","name:right:ja":"\u30f4\u30a9\u30eb\u30a3\u30fc\u30cb\u5dde","name:right:fr":"Oblast de Volhynie","name:left:lv":"Rivnes apgabals","name:left:ja":"\u30ea\u30a6\u30cd\u5dde","id:right":-71064,"name:left:nn":"Rivne oblast","name:right:sh":"Volinjska oblast","name:right:sk":"Volynsk\u00e1 oblas\u0165","name:left:bg":"\u0420\u043e\u0432\u0435\u043d\u0441\u043a\u0430 \u043e\u0431\u043b\u0430\u0441\u0442","name:left:be":"\u0420\u043e\u0432\u0435\u043d\u0441\u043a\u0430\u044f \u0432\u043e\u0431\u043b\u0430\u0441\u0446\u044c","name:left:no":"Rivne oblast","name:left:fi":"Rivnen alue","id":-71236,"name:right:fi":"Volynian alue","name:left:eo":"Rivna provinco","name:left:en":"Rivne Oblast","name:right:ca":"Prov\u00edncia de Vol\u00ednia","kind_detail":"4","name:left:mk":"\u0420\u043e\u0432\u0435\u043d\u0441\u043a\u0430 \u043e\u0431\u043b\u0430\u0441\u0442","name:left:nl":"Oblast Rivne","id:left":-71236,"name:left:es":"\u00d3blast de Rivne","name:right:cs":"Voly\u0148sk\u00e1 oblast","name:right":"\u0412\u043e\u043b\u0438\u043d\u0441\u044c\u043a\u0430 \u043e\u0431\u043b\u0430\u0441\u0442\u044c","name:left:eu":"Rivneko oblasta","name:right:cv":"\u0412\u043e\u043b\u044b\u043d\u044c \u043e\u0431\u043b\u0430\u00e7\u0115","name:right:mk":"\u0412\u043e\u043b\u0438\u043d\u0441\u043a\u0430 \u043e\u0431\u043b\u0430\u0441\u0442","name:right:zh-min-nan":"Volyn s\u00e9ng","name:right:pt":"Oblast de Vol\u00ednia","name:left:ar":"\u0631\u064a\u0641\u0646\u0627 \u0623\u0648\u0628\u0644\u0627\u0633\u062a","name:left:pl":"Obw\u00f3d r\u00f3wie\u0144ski","name:left:tr":"Rivne Oblast\u0131","name:left:id":"Oblast Rivne","name:right:tr":"Vol\u0131n Oblast\u0131","name:right:bg":"\u0412\u043e\u043b\u0438\u043d\u0441\u043a\u0430 \u043e\u0431\u043b\u0430\u0441\u0442","name:left:ms":"Oblast Rivne","name:left:mr":"\u0930\u093f\u0935\u094d\u0939\u094d\u0928\u0947 \u0913\u092c\u094d\u0932\u093e\u0938\u094d\u0924","name:right:sv":"Volyn oblast","name:right:ko":"\ubcfc\ub9b0 \uc8fc","name:left:zh-min-nan":"Rivne s\u00e9ng","name:left:it":"Oblast' di Rivne","name:right:pl":"Obw\u00f3d wo\u0142y\u0144ski","osm_relation":true,"name:left:pt":"Oblast de Rivne","name:right:ka":"\u10d5\u10dd\u10da\u10d8\u10dc\u10d8\u10e1 \u10dd\u10da\u10e5\u10d8","name:right:de":"Oblast Wolhynien","name:left:de":"Oblast Riwne"},"arcs":[[0],[1]]}]},"roads":{"type":"GeometryCollection","geometries":[{"type":"LineString","properties":{"source":"openstreetmap.org","kind":"major_road","sort_rank":381,"kind_detail":"trunk","ref":"\u0420-05","min_zoom":8.0,"id":415777325},"arcs":[16]},{"type":"LineString","properties":{"kind":"major_road","network":"ua:national","sort_rank":381,"kind_detail":"trunk","source":"openstreetmap.org","min_zoom":8.0,"shield_text":"22","ref":"\u041c-19;\u041d-22","id":173467492},"arcs":[17]},{"type":"MultiLineString","properties":{"kind":"major_road","network":"ua:regional","sort_rank":380,"kind_detail":"primary","source":"openstreetmap.org","min_zoom":8.0,"landuse_kind":"urban_area","shield_text":"05","ref":"\u0420-05"},"arcs":[[18],[19]]},{"type":"LineString","properties":{"kind":"major_road","name:en":"Okruzhna Street","network":"e-road","sort_rank":381,"kind_detail":"trunk","source":"openstreetmap.org","min_zoom":8.0,"landuse_kind":"urban_area","shield_text":"85","name:ru":"\u041e\u043a\u0440\u0443\u0436\u043d\u0430\u044f \u0443\u043b\u0438\u0446\u0430","ref":"\u041c-19","id":134772425},"arcs":[20]},{"type":"MultiLineString","properties":{"kind":"major_road","network":"e-road","sort_rank":381,"kind_detail":"trunk","source":"openstreetmap.org","min_zoom":8.0,"shield_text":"373","ref":"\u041c-07"},"arcs":[[21],[22],[23],[24],[25]]},{"type":"MultiLineString","properties":{"kind":"major_road","name:en":"Okruzhna Street","network":"e-road","sort_rank":381,"kind_detail":"trunk","source":"openstreetmap.org","min_zoom":8.0,"shield_text":"85","name:ru":"\u041e\u043a\u0440\u0443\u0436\u043d\u0430\u044f \u0443\u043b\u0438\u0446\u0430","ref":"\u041c-19"},"arcs":[[26],[27]]},{"type":"MultiLineString","properties":{"kind":"major_road","network":"ua:regional","sort_rank":380,"kind_detail":"primary","source":"openstreetmap.org","min_zoom":8.0,"landuse_kind":"urban_area","shield_text":"14","ref":"\u0420-14"},"arcs":[[28],[29]]},{"type":"LineString","properties":{"kind":"major_road","network":"ua:regional","sort_rank":381,"kind_detail":"trunk","source":"openstreetmap.org","min_zoom":8.0,"shield_text":"05","ref":"\u0420-05","id":23336227},"arcs":[30]},{"type":"MultiLineString","properties":{"kind":"major_road","network":"ua:regional","sort_rank":380,"kind_detail":"primary","source":"openstreetmap.org","min_zoom":8.0,"shield_text":"05","ref":"\u0420-05"},"arcs":[[31],[32],[33],[34],[35],[36],[37],[38],[39],[40],[41],[42],[43],[44]]},{"type":"LineString","properties":{"kind":"major_road","name:en":"Chkalova Street","network":"ua:regional","sort_rank":380,"kind_detail":"primary","source":"openstreetmap.org","min_zoom":8.0,"shield_text":"14","name:ru":"\u0427\u043a\u0430\u043b\u043e\u0432\u0430 \u0443\u043b\u0438\u0446\u0430","ref":"\u0420-14;\u0422-03-09","id":272754548},"arcs":[45]},{"type":"LineString","properties":{"kind":"major_road","name:en":"Chkalova Street","network":"ua:regional","sort_rank":380,"kind_detail":"primary","source":"openstreetmap.org","min_zoom":8.0,"landuse_kind":"residential","shield_text":"14","name:ru":"\u0427\u043a\u0430\u043b\u043e\u0432\u0430 \u0443\u043b\u0438\u0446\u0430","ref":"\u0420-14;\u0422-03-09"},"arcs":[46]},{"type":"LineString","properties":{"kind":"major_road","name:en":"Hlushets Street","network":"ua:local","sort_rank":380,"kind_detail":"primary","source":"openstreetmap.org","min_zoom":8.0,"shield_text":"030849","name:ru":"\u0413\u043b\u0443\u0448\u0435\u0446 \u0443\u043b\u0438\u0446\u0430","ref":"\u041e-030849","id":130175298},"arcs":[47]},{"type":"MultiLineString","properties":{"kind":"major_road","network":"e-road","sort_rank":381,"kind_detail":"trunk","source":"openstreetmap.org","min_zoom":8.0,"shield_text":"85","ref":"\u041c-19"},"arcs":[[48],[49],[50],[51],[52],[53],[54]]},{"type":"LineString","properties":{"kind":"major_road","name:en":"Dubnivska Street","sort_rank":380,"kind_detail":"primary","source":"openstreetmap.org","min_zoom":8.0,"landuse_kind":"urban_area","name:ru":"\u0414\u0443\u0431\u043d\u043e\u0432\u0441\u043a\u0430\u044f \u0443\u043b\u0438\u0446\u0430","id":37117399},"arcs":[55]},{"type":"LineString","properties":{"kind":"major_road","name:en":"Okruzhna Street","network":"e-road","sort_rank":381,"kind_detail":"trunk","source":"openstreetmap.org","min_zoom":8.0,"shield_text":"85","ref":"\u041c-19","id":134772424},"arcs":[56]},{"type":"MultiLineString","properties":{"kind":"major_road","network":"ua:national","sort_rank":380,"kind_detail":"primary","source":"openstreetmap.org","min_zoom":8.0,"landuse_kind":"residential","shield_text":"22","ref":"\u041d-22"},"arcs":[[57],[58]]},{"type":"LineString","properties":{"kind":"major_road","name:en":"Behmy Street","network":"ua:regional","sort_rank":380,"kind_detail":"primary","source":"openstreetmap.org","min_zoom":8.0,"landuse_kind":"urban_area","shield_text":"05","name:ru":"\u0411\u0435\u0433\u043c\u044b \u0443\u043b\u0438\u0446\u0430","ref":"\u0420-05"},"arcs":[59]},{"type":"LineString","properties":{"kind":"major_road","name:en":"Lutska Street","network":"ua:regional","sort_rank":380,"kind_detail":"primary","source":"openstreetmap.org","min_zoom":8.0,"shield_text":"14","name:ru":"\u041b\u0443\u0446\u043a\u0430\u044f \u0443\u043b\u0438\u0446\u0430","ref":"\u0420-14"},"arcs":[60]},{"type":"LineString","properties":{"kind":"major_road","name:en":"Dubnivska Street","sort_rank":380,"kind_detail":"primary","source":"openstreetmap.org","min_zoom":8.0,"name:ru":"\u0414\u0443\u0431\u043d\u043e\u0432\u0441\u043a\u0430\u044f \u0443\u043b\u0438\u0446\u0430","id":37117399},"arcs":[61]},{"type":"LineString","properties":{"kind":"major_road","name:en":"Chkalova Street","network":"ua:regional","sort_rank":380,"kind_detail":"primary","source":"openstreetmap.org","min_zoom":8.0,"landuse_kind":"residential","shield_text":"14","name:ru":"\u0427\u043a\u0430\u043b\u043e\u0432\u0430 \u0443\u043b\u0438\u0446\u0430","ref":"\u0420-14","id":209596730},"arcs":[62]},{"type":"LineString","properties":{"kind":"major_road","name:en":"Suvorova Street","network":"ua:regional","sort_rank":380,"kind_detail":"primary","source":"openstreetmap.org","min_zoom":8.0,"landuse_kind":"urban_area","shield_text":"05","name:ru":"\u0421\u0443\u0432\u043e\u0440\u043e\u0432\u0430 \u0443\u043b\u0438\u0446\u0430","ref":"\u0420-05"},"arcs":[63]},{"type":"MultiLineString","properties":{"kind":"major_road","network":"ua:regional","sort_rank":380,"kind_detail":"primary","source":"openstreetmap.org","min_zoom":8.0,"landuse_kind":"residential","shield_text":"05","ref":"\u0420-05"},"arcs":[[64],[65]]},{"type":"LineString","properties":{"kind":"major_road","name:en":"Zhovtneva Street","network":"ua:national","sort_rank":380,"kind_detail":"primary","source":"openstreetmap.org","min_zoom":8.0,"shield_text":"22","name:ru":"\u041e\u043a\u0442\u044f\u0431\u0440\u044c\u0441\u043a\u0430\u044f \u0443\u043b\u0438\u0446\u0430","ref":"\u041d-22","id":137299475},"arcs":[66]},{"type":"LineString","properties":{"kind":"major_road","network":"ua:regional","sort_rank":380,"kind_detail":"primary","source":"openstreetmap.org","min_zoom":8.0,"landuse_kind":"residential","shield_text":"14","ref":"\u0420-14","id":173052973},"arcs":[67]},{"type":"LineString","properties":{"kind":"major_road","name:en":"Suvorova Street","network":"ua:regional","sort_rank":380,"kind_detail":"primary","source":"openstreetmap.org","min_zoom":8.0,"shield_text":"05","name:ru":"\u0421\u0443\u0432\u043e\u0440\u043e\u0432\u0430 \u0443\u043b\u0438\u0446\u0430","ref":"\u0420-05"},"arcs":[68]},{"type":"MultiLineString","properties":{"kind":"major_road","name:en":"Belhorodska Street","network":"ua:regional","sort_rank":380,"kind_detail":"primary","source":"openstreetmap.org","min_zoom":8.0,"shield_text":"05","name:ru":"\u0411\u0435\u043b\u0433\u043e\u0440\u043e\u0434\u0441\u043a\u0430\u044f \u0443\u043b\u0438\u0446\u0430","ref":"\u0420-05"},"arcs":[[69],[70],[71]]},{"type":"MultiLineString","properties":{"kind":"major_road","network":"ua:regional","sort_rank":380,"kind_detail":"primary","source":"openstreetmap.org","min_zoom":8.0,"shield_text":"14","ref":"\u0420-14"},"arcs":[[72],[73],[74],[75],[76]]},{"type":"LineString","properties":{"kind":"major_road","network":"ua:regional","sort_rank":381,"kind_detail":"trunk","source":"openstreetmap.org","min_zoom":8.0,"shield_text":"05","ref":"\u041c-07;\u0420-05","id":206635105},"arcs":[77]},{"type":"MultiLineString","properties":{"kind":"major_road","network":"ua:national","sort_rank":380,"kind_detail":"primary","source":"openstreetmap.org","min_zoom":8.0,"shield_text":"22","ref":"\u041d-22;\u0422-03-12"},"arcs":[[78],[79],[80]]},{"type":"LineString","properties":{"kind":"major_road","network":"e-road","sort_rank":381,"landuse_kind":"urban_area","source":"openstreetmap.org","min_zoom":8.0,"kind_detail":"trunk","shield_text":"85","ref":"\u041c-19"},"arcs":[81]},{"type":"LineString","properties":{"kind":"major_road","name:en":"Zaliznichna Street","network":"ua:regional","sort_rank":380,"kind_detail":"primary","source":"openstreetmap.org","min_zoom":8.0,"landuse_kind":"urban_area","shield_text":"14","name:ru":"\u0416\u0435\u043b\u0435\u0437\u043d\u043e\u0434\u043e\u0440\u043e\u0436\u043d\u0430\u044f \u0443\u043b\u0438\u0446\u0430","ref":"\u0420-14","id":316354079},"arcs":[82]},{"type":"LineString","properties":{"kind":"major_road","name:en":"Hlushets Street","network":"ua:local","sort_rank":380,"kind_detail":"primary","source":"openstreetmap.org","min_zoom":8.0,"landuse_kind":"urban_area","shield_text":"030849","name:ru":"\u0413\u043b\u0443\u0448\u0435\u0446 \u0443\u043b\u0438\u0446\u0430","ref":"\u041e-030849","id":130175298},"arcs":[83]},{"type":"MultiLineString","properties":{"kind":"major_road","network":"ua:national","sort_rank":380,"kind_detail":"primary","source":"openstreetmap.org","min_zoom":8.0,"shield_text":"22","ref":"\u041d-22"},"arcs":[[84],[85],[86],[87],[88],[89],[90],[91],[92],[93],[94]]}]},"earth":{"type":"GeometryCollection","geometries":[{"type":"Polygon","properties":{"sort_rank":10,"source":"naturalearthdata.com","min_zoom":0.0,"kind":"earth","area":98022885885},"arcs":[[95]]}]},"landuse":{"type":"GeometryCollection","geometries":[{"type":"MultiPolygon","properties":{"kind":"protected_area","protect_class":"4","area":231318176,"sort_rank":17,"source":"openstreetmap.org","min_zoom":8.0,"tier":2,"osm_relation":true},"arcs":[[[96]],[[97]],[[98]],[[99]],[[100]]]},{"type":"MultiPolygon","properties":{"source":"naturalearthdata.com","kind":"urban_area","name":"","area":471475405,"sort_rank":11,"min_zoom":4.0},"arcs":[[[101]],[[102]],[[103]],[[104]]]},{"type":"Polygon","properties":{"kind":"residential","name:en":"Kostopil","name":"\u041a\u043e\u0441\u0442\u043e\u043f\u0456\u043b\u044c","area":41606600,"sort_rank":20,"name:eo":"Kostopil","name:de":"Kostopil","source":"openstreetmap.org","min_zoom":8.0,"tier":2,"name:ru":"\u041a\u043e\u0441\u0442\u043e\u043f\u043e\u043b\u044c","name:pl":"Kostopol","name:hu":"Kostopil","id":280427238},"arcs":[[105]]},{"type":"Polygon","properties":{"kind":"residential","name:en":"Piddubtsi","name":"\u041f\u0456\u0434\u0434\u0443\u0431\u0446\u0456","area":10790500,"sort_rank":20,"source":"openstreetmap.org","min_zoom":8.0,"tier":2,"name:ru":"\u041f\u043e\u0434\u0434\u0443\u0431\u0446\u044b","name:pl":"Podd\u0119bce","id":30723915},"arcs":[[106]]},{"type":"Polygon","properties":{"kind":"nature_reserve","protect_class":"1","area":53184400,"sort_rank":23,"source":"openstreetmap.org","min_zoom":8.0,"tier":2,"id":-3600321,"osm_relation":true},"arcs":[[107]]},{"type":"MultiPolygon","properties":{"kind":"nature_reserve","protect_class":"1","area":1234403644,"sort_rank":23,"source":"openstreetmap.org","min_zoom":6.0,"tier":2,"osm_relation":true},"arcs":[[[108]]]},{"type":"Polygon","properties":{"kind":"residential","name:en":"Kivertsi","name":"\u041a\u0456\u0432\u0435\u0440\u0446\u0456","area":19917700,"sort_rank":20,"name:eo":"Kiverci","name:de":"Kiwerzi","source":"openstreetmap.org","min_zoom":8.0,"tier":2,"name:ru":"\u041a\u0438\u0432\u0435\u0440\u0446\u044b","name:pl":"Kiwerce","id":-4779733,"osm_relation":true},"arcs":[[109]]},{"type":"Polygon","properties":{"kind":"protected_area","protect_class":"98","area":72163200,"sort_rank":17,"operator":"\u041f\u0440\u0438\u0440\u043e\u0434\u043d\u0438\u0439 \u0437\u0430\u043f\u043e\u0432\u0456\u0434\u043d\u0438\u043a \u00ab\u0420\u0456\u0432\u043d\u0435\u043d\u0441\u044c\u043a\u0438\u0439\u00bb","source":"openstreetmap.org","min_zoom":8.0,"tier":2,"id":-6936681,"osm_relation":true},"arcs":[[110],[111],[112],[113],[114],[115],[116],[117],[118]]},{"type":"Polygon","properties":{"kind":"protected_area","protect_class":"98","area":132165000,"sort_rank":17,"operator":"\u041f\u0440\u0438\u0440\u043e\u0434\u043d\u0438\u0439 \u0437\u0430\u043f\u043e\u0432\u0456\u0434\u043d\u0438\u043a \u00ab\u0420\u0456\u0432\u043d\u0435\u043d\u0441\u044c\u043a\u0438\u0439\u00bb","source":"openstreetmap.org","min_zoom":7.0,"tier":2,"id":-6936681,"osm_relation":true},"arcs":[[119],[120],[121],[122],[123],[124]]}]}},"type":"Topology","transform":{"translate":[25.3125,50.736455137],"scale":[0.0003433228,0.000215225]},"arcs":[[[638,4096],[2,-19],[26,19]],[[715,4096],[18,-70],[44,28],[57,-131],[-22,-50],[14,-36],[-72,-58],[70,-116],[-131,-24],[15,-87],[159,29],[-24,-64],[64,9],[-17,-84],[68,8],[-15,-185],[30,-103],[73,-1],[46,-53],[8,-57],[27,7],[13,-49],[-36,-3],[10,-36],[48,30],[39,-7],[-22,39],[23,52],[101,1],[-13,-89],[75,-33],[23,21],[53,-19],[70,58],[39,-53],[-59,-45],[33,-17],[-42,-77],[23,-11],[11,-61],[42,-47],[84,-26],[-9,-24],[43,-19],[3,-47],[28,25],[-16,-43],[66,-11],[18,-40],[48,-11],[-23,-57],[12,-47],[37,-23],[-2,-85],[144,-21],[209,-236],[-28,-21],[37,-78],[-35,-61],[-137,-55],[-17,-27],[-135,4],[-63,-52],[35,-53],[-26,-87],[120,-32],[102,25],[215,-150],[47,-211],[-63,-12],[-20,-59],[18,-77],[-107,-6],[-237,-70],[99,-101],[-27,-323],[23,-17],[38,20],[73,-72],[6,-42],[-29,-7],[-22,-90],[-84,17],[-46,-17],[-24,25],[-33,-9],[-9,25],[-21,-17],[-130,28],[-47,-315],[-42,-130]],[[2883,2672],[-142,24],[-43,103],[-64,14],[-20,29],[17,95],[-95,158],[17,129],[-103,93],[-35,153],[27,42],[-15,54],[38,36],[15,127],[-24,90],[-94,8],[-61,79],[3,50],[-117,95],[-26,45]],[[1815,4096],[-53,-30],[-90,20],[-12,10]],[[0,2560],[1161,60],[76,-35],[141,1],[96,38],[105,-16],[95,88],[449,-53],[114,-55],[259,49],[108,-50],[557,168],[354,6],[251,-73],[21,27],[-28,118],[26,17],[38,-20]],[[3780,2850],[7,0],[4,0],[3,-1],[4,-3],[25,-16]],[[3823,2830],[44,-26],[65,14],[164,-36]],[[416,448],[-416,241]],[[112,100],[-7,46],[49,91],[79,82],[147,78],[36,51]],[[416,448],[458,-249],[620,12],[659,-158],[131,-1],[54,-52]],[[0,2560],[1161,60],[76,-35],[141,1],[96,38],[105,-16],[95,88],[449,-53],[114,-55],[259,49],[108,-50],[557,168],[354,6],[251,-73],[21,27],[-28,118],[26,17],[38,-20]],[[3780,2850],[7,0],[4,0],[3,-1],[4,-3],[25,-16]],[[3823,2830],[44,-26],[65,14],[164,-36]],[[416,448],[-416,241]],[[112,100],[-7,46],[49,91],[79,82],[147,78],[36,51]],[[416,448],[458,-249],[620,12],[659,-158],[131,-1],[54,-52]],[[3818,2697],[-1,2]],[[257,41],[2,1],[-1,1],[-2,0],[1,-2]],[[3373,699],[7,-20]],[[3672,2861],[-88,137]],[[256,97],[-4,62]],[[0,2409],[790,35],[376,-91],[405,39],[278,-7],[448,32],[219,80],[147,-29],[330,36],[91,56],[217,-18],[116,53],[100,-8],[295,108]],[[3812,2695],[5,1]],[[3820,2699],[-8,-4]],[[3818,2697],[2,2]],[[3820,2699],[276,10]],[[256,88],[0,9]],[[257,55],[-1,32]],[[220,309],[10,9]],[[272,346],[8,6]],[[3814,2697],[2,-2]],[[3353,481],[-64,-191],[-188,-290]],[[3353,481],[2,4]],[[3400,582],[-45,-97]],[[3814,2688],[-7,-256],[-141,-961],[-60,-111],[34,-151],[-88,-248],[-179,-262]],[[3380,679],[27,-37]],[[3410,638],[0,-14]],[[3584,2998],[-75,55],[-140,205],[144,72],[45,47],[31,127],[-27,103],[38,94],[-40,144],[19,84],[76,96]],[[3655,4025],[3,2]],[[3656,4028],[-1,-3]],[[3660,4035],[-2,-8]],[[3658,4027],[0,5]],[[3661,4031],[13,65]],[[3814,2697],[0,-9]],[[3814,2688],[3,8]],[[478,501],[10,1]],[[396,495],[82,6]],[[160,1],[-1,-1]],[[191,334],[-129,62],[-23,-76],[-39,-9]],[[258,46],[-1,-3]],[[257,41],[1,-2]],[[258,46],[-1,9]],[[258,43],[0,3]],[[258,39],[1,2]],[[262,0],[-4,39]],[[162,4],[3,-3]],[[256,87],[0,1]],[[591,177],[-89,-64]],[[503,114],[88,63]],[[3737,2828],[-65,33]],[[636,2495],[-32,86],[5,68]],[[165,1],[2,-1]],[[381,467],[15,28]],[[3752,2754],[-15,74]],[[3410,624],[-10,-42]],[[3407,642],[3,-4]],[[1184,213],[136,-9]],[[371,448],[10,19]],[[3804,2747],[-52,7]],[[3814,2701],[-10,46]],[[3814,2701],[0,-3]],[[3816,2699],[-2,2]],[[280,352],[91,96]],[[609,2649],[7,342],[-43,97],[-29,172],[-50,90],[-51,19],[-155,288],[-9,80],[-141,156],[39,176],[-8,27]],[[488,502],[189,259],[121,452],[76,122],[88,222],[64,85],[21,109],[-334,238],[-37,103],[-5,172],[-40,52],[11,118]],[[642,2441],[-6,54]],[[642,2441],[0,-7]],[[3817,2696],[1,1]],[[1586,152],[-5,2]],[[1583,152],[3,-1]],[[1588,150],[6,-2]],[[252,159],[-17,143],[-44,32]],[[230,318],[42,28]],[[162,4],[-2,-3]],[[259,41],[3,1]],[[262,42],[-3,1]],[[262,42],[175,23]],[[437,65],[66,49]],[[502,113],[-65,-48]],[[591,177],[593,36],[-593,-36]],[[1581,154],[-190,45],[-71,5],[263,-52]],[[1586,151],[2,-1]],[[1788,79],[-202,73]],[[1594,148],[194,-69]],[[1788,79],[269,-79]],[[4096,0],[-4096,0],[0,4096],[4096,0],[0,-4096]],[[1895,531],[129,-1],[5,61],[42,17],[1,26],[26,-12],[7,-65],[-26,-1],[-15,-51],[-152,-9],[-17,35]],[[1539,772],[46,1],[-3,35],[44,2],[1,38],[-44,-1],[1,111],[45,3],[4,-35],[24,0],[-24,-53],[32,-4],[0,-66],[-84,-45],[63,13],[1,-38],[-104,0],[-2,39]],[[1667,804],[6,62],[93,38],[112,88],[4,50],[-71,163],[43,-9],[8,-63],[46,4],[1,-37],[28,4],[6,-41],[-31,-8],[97,-80],[-4,-65],[-18,30],[-43,2],[-15,-241],[-37,5],[-43,-48],[-57,1],[0,39],[55,1],[3,77],[42,1],[6,77],[-98,-4],[-1,-34],[-41,-2],[-3,-40],[-42,-1],[-3,-38],[-37,13],[54,60],[0,61],[-24,-53],[-36,-12]],[[1331,1040],[14,114],[263,3],[63,-20],[-67,-53],[-62,-6],[-3,-118],[-82,-1],[-1,79],[-125,2]],[[1666,925],[95,5],[-2,33],[44,3],[3,40],[-44,0],[-2,38],[48,2],[1,74],[-42,1],[2,113],[-48,1],[-7,137],[150,-362],[-114,-89],[-84,-14],[0,18]],[[287,264],[-41,-221],[-33,-42],[-213,-1],[0,106],[89,123],[43,27],[72,-10],[-22,150],[22,56],[80,-104],[3,-84]],[[3375,555],[-53,19],[-28,58],[-16,182],[95,-113],[24,-69],[-22,-77]],[[3770,2752],[-56,5],[-141,144],[-4,81],[46,49],[30,-15],[22,-86],[129,-103],[-26,-75]],[[1601,2773],[-70,54],[17,66],[137,101],[7,40],[20,-29],[-66,-202],[-45,-30]],[[3185,698],[51,27],[-5,54],[53,14],[33,-90],[94,-63],[-3,-56],[-58,-13],[2,-34],[-30,7],[-67,64],[5,33],[-68,-12],[-7,69]],[[470,95],[110,93],[43,-43],[74,-6],[-70,-6],[12,-28],[-21,-18],[-87,42],[-61,-34]],[[582,3591],[1,126],[55,12],[16,76],[27,-4],[2,40],[129,32],[14,-36],[-72,-58],[70,-116],[-242,-72]],[[1066,3671],[85,15],[34,124],[131,51],[-3,-261],[32,-13],[70,-136],[-28,-55],[-82,-4],[-74,-46],[-22,-76],[1,46],[-106,8],[-13,292],[-25,55]],[[355,485],[32,43],[101,-30],[-1,-97],[-13,17],[-89,-49],[-21,42],[11,63],[-20,11]],[[1049,3668],[29,136],[222,52],[15,-239],[30,2],[11,-32],[-30,-2],[-25,-44],[-88,92],[-74,35],[-90,0]],[[1077,3798],[1,-10],[7,2],[-3,10],[-5,-2]],[[1077,3713],[4,-5],[1,0],[0,11],[-5,-6]],[[1100,3774],[11,-9],[14,6],[-12,7],[-13,-4]],[[1207,3667],[9,-8],[8,3],[-11,12],[-6,-7]],[[1146,3729],[10,-8],[1,20],[-4,1],[-7,-13]],[[1124,3707],[18,3],[0,1],[-15,-1],[-3,-3]],[[1260,3777],[1,-6],[6,7],[-2,2],[-5,-3]],[[1277,3725],[3,-6],[4,2],[-3,6],[-4,-2]],[[948,3623],[54,44],[-4,-37],[66,-31],[17,16],[-55,16],[1,8],[22,28],[107,-7],[75,-43],[83,-95],[69,7],[16,-3],[-27,-11],[24,2],[1,-44],[23,0],[6,-75],[-42,-23],[-13,23],[-210,-10],[-8,26],[-43,-7],[-6,44],[-54,-10],[-14,-42],[-38,-4],[-39,22],[-11,206]],[[1227,3472],[19,-23],[4,59],[37,-6],[50,6],[2,-69],[12,49],[-11,24],[-46,8],[-54,-8],[-13,-40]],[[1088,3608],[7,0],[13,16],[-10,-1],[-10,-15]],[[956,3621],[2,-9],[4,2],[2,2],[-8,5]],[[1359,3519],[9,1],[3,4],[-11,-3],[-1,-2]],[[1032,3637],[7,5],[-2,4],[-3,-1],[-2,-8]]]}