{"objects":{"water":{"type":"GeometryCollection","geometries":[]},"buildings":{"type":"GeometryCollection","geometries":[]},"places":{"type":"GeometryCollection","geometries":[{"type":"Point","properties":{"name:pt":"Oblast de Ternopil","name:ro":"Regiunea Ternopil","name:id":"Oblast Ternopil","name:ka":"\u10e2\u10d4\u10e0\u10dc\u10dd\u10de\u10dd\u10da\u10d8\u10e1 \u10dd\u10da\u10e5\u10d8","name:mr":"\u0924\u0947\u0930\u094d\u0928\u094b\u092a\u093f\u0932 \u0913\u092c\u094d\u0932\u093e\u0938\u094d\u0924","name:ko":"\ud14c\ub974\ub178\ud544 \uc8fc","name:ar":"\u062a\u064a\u0631\u0646\u0648\u0628\u0644 \u0623\u0648\u0628\u0644\u0627\u0633\u062a","name:cs":"Ternopilsk\u00e1 oblast","min_zoom":4.0,"name:it":"Oblast' di Ternopil'","name:zh-min-nan":"Ternopil s\u00e9ng","name:vi":"Ternopil (t\u1ec9nh)","name:pl":"Obw\u00f3d tarnopolski","id":683681604,"name:ca":"Prov\u00edncia de Tern\u00f3pill","name:fa":"\u0627\u0633\u062a\u0627\u0646 \u062a\u0631\u0646\u0648\u067e\u06cc\u0644","name:hu":"Ternopili ter\u00fclet","name:lt":"Ternopilio sritis","source":"openstreetmap.org","kind_detail":"state","name:sh":"Ternopiljska oblast","name:de":"Oblast Ternopil","name:tr":"Ternopil Oblast\u0131","name:fr":"Oblast de Ternopil","name:mk":"\u0422\u0435\u0440\u043d\u043e\u043f\u043e\u043b\u0441\u043a\u0430 \u043e\u0431\u043b\u0430\u0441\u0442","name:be":"\u0426\u044f\u0440\u043d\u043e\u043f\u0430\u043b\u044c\u0441\u043a\u0430\u044f \u0432\u043e\u0431\u043b\u0430\u0441\u0446\u044c","name:zh":"\u6377\u723e\u8afe\u6ce2\u723e\u5dde","name:lv":"Ternopi\u013cas apgabals","name:ja":"\u30c6\u30eb\u30ce\u30fc\u30d4\u30ea\u5dde","name:nn":"Ternopil oblast","name:no":"Ternopil oblast","name:he":"\u05de\u05d7\u05d5\u05d6 \u05d8\u05e8\u05e0\u05d5\u05e4\u05d5\u05dc","kind":"region","name:sk":"Ternopi\u013esk\u00e1 oblas\u0165","name:hy":"\u054f\u0565\u0580\u0576\u0578\u057a\u0578\u056c\u056b \u0574\u0561\u0580\u0566","name:ru":"\u0422\u0435\u0440\u043d\u043e\u043f\u043e\u043b\u044c\u0441\u043a\u0430\u044f \u043e\u0431\u043b\u0430\u0441\u0442\u044c","name:sv":"Ternopil oblast","name:bg":"\u0422\u0435\u0440\u043d\u043e\u043f\u043e\u043b\u0441\u043a\u0430 \u043e\u0431\u043b\u0430\u0441\u0442","name:hr":"Ternopiljska oblast","name:sr":"\u0422\u0435\u0440\u043d\u043e\u043f\u043e\u0459\u0441\u043a\u0430 \u043e\u0431\u043b\u0430\u0441\u0442","name:eo":"Ternopila Provinco","name:en":"Ternopil Oblast","name":"\u0422\u0435\u0440\u043d\u043e\u043f\u0456\u043b\u044c\u0441\u044c\u043a\u0430 \u043e\u0431\u043b\u0430\u0441\u0442\u044c","name:fi":"Ternopilin alue","name:eu":"Ternopilgo oblasta","name:et":"Ternopili oblast","name:nl":"Oblast Ternopil","name:es":"\u00d3blast de Tern\u00f3pil"},"coordinates":[886,3313]},{"type":"Point","properties":{"name:sr":"\u0422\u0435\u0440\u043d\u043e\u043f\u043e\u0459","name:lt":"Ternopilis","name:eo":"Ternopilo","name:io":"Ternopil","min_zoom":8.0,"name:be":"\u0426\u044f\u0440\u043d\u043e\u043f\u0430\u043b\u044c","name:ru":"\u0422\u0435\u0440\u043d\u043e\u043f\u043e\u043b\u044c","name:pl":"Tarnopol","name:hu":"Ternopil","id":1643945522,"population":217326,"kind":"locality","name:en":"Ternopil","name":"\u0422\u0435\u0440\u043d\u043e\u043f\u0456\u043b\u044c","kind_detail":"city","name:de":"Ternopil","source":"openstreetmap.org","name:fr":"Ternopil"},"coordinates":[814,2833]},{"type":"Point","properties":{"kind":"locality","name:en":"Chortkiv","name":"\u0427\u043e\u0440\u0442\u043a\u0456\u0432","kind_detail":"town","name:eo":"\u0108ortkivo","name:de":"Tschortkiw","source":"openstreetmap.org","min_zoom":8.0,"name:ru":"\u0427\u043e\u0440\u0442\u043a\u043e\u0432","name:pl":"Czortk\u00f3w","id":312257558,"population":28249},"coordinates":[1398,419]},{"type":"Point","properties":{"kind":"locality","name:en":"Volochysk","name":"\u0412\u043e\u043b\u043e\u0447\u0438\u0441\u044c\u043a","kind_detail":"town","name:de":"Wolotschysk","source":"openstreetmap.org","min_zoom":8.0,"name:ro":"Voloci\u00eesk","name:ru":"\u0412\u043e\u043b\u043e\u0447\u0438\u0441\u043a","name:pl":"Wo\u0142oczyska","id":313201266,"population":19723},"coordinates":[2621,2744]},{"type":"Point","properties":{"kind":"locality","name:en":"Horodok","name":"\u0413\u043e\u0440\u043e\u0434\u043e\u043a","kind_detail":"town","alt_name:pl":"Gr\u00f3dek Podolski","name:de":"Horodok","source":"openstreetmap.org","min_zoom":8.0,"name:eo":"Horodok","name:be":"\u0413\u0430\u0440\u0430\u0434\u043e\u043a","name:pl":"Gr\u00f3dek","id":313201927,"population":16885},"coordinates":[3711,1086]},{"type":"Point","properties":{"kind":"locality","name:en":"Zbarazh","name":"\u0417\u0431\u0430\u0440\u0430\u0436","kind_detail":"town","name:eo":"Zbara\u0135o","name:de":"Sbarasch","source":"openstreetmap.org","min_zoom":8.0,"name:pl":"Zbara\u017c","id":300906140,"population":13915},"coordinates":[1353,3303]},{"type":"Point","properties":{"kind":"locality","name:en":"Terebovlia","name":"\u0422\u0435\u0440\u0435\u0431\u043e\u0432\u043b\u044f","kind_detail":"town","name:eo":"Terebovlja","name:de":"Terebowlja","source":"openstreetmap.org","min_zoom":8.0,"name:pl":"Trembowla","id":312255547,"population":13769},"coordinates":[1107,1671]},{"type":"Point","properties":{"kind":"locality","name:en":"Buchach","name":"\u0411\u0443\u0447\u0430\u0447","kind_detail":"town","name:eo":"Bu\u0109a\u0109o","name:de":"Butschatsch","source":"openstreetmap.org","min_zoom":8.0,"name:pl":"Buczacz","id":312235616,"population":12514},"coordinates":[226,629]},{"type":"Point","properties":{"kind":"locality","name:en":"Pidvolochysk","name":"\u041f\u0456\u0434\u0432\u043e\u043b\u043e\u0447\u0438\u0441\u044c\u043a","kind_detail":"town","name:de":"Pidwolotschysk","source":"openstreetmap.org","min_zoom":8.0,"name:ru":"\u041f\u043e\u0434\u0432\u043e\u043b\u043e\u0447\u0438\u0441\u043a","name:pl":"Podwo\u0142oczyska","id":337556150,"population":8002},"coordinates":[2422,2724]},{"type":"Point","properties":{"kind":"locality","name:en":"Velyka Berezovytsia","name":"\u0412\u0435\u043b\u0438\u043a\u0430 \u0411\u0435\u0440\u0435\u0437\u043e\u0432\u0438\u0446\u044f","kind_detail":"town","source":"openstreetmap.org","min_zoom":8.0,"name:ru":"\u0412\u0435\u043b\u0438\u043a\u0430\u044f \u0411\u0435\u0440\u0435\u0437\u043e\u0432\u0438\u0446\u0430","name:pl":"Berezowica Wielka","id":337557094,"population":7249},"coordinates":[870,2593]},{"type":"Point","properties":{"kind":"locality","name:en":"Husiatyn","name":"\u0413\u0443\u0441\u044f\u0442\u0438\u043d","kind_detail":"town","name:de":"Husjatyn","source":"openstreetmap.org","min_zoom":8.0,"name:pl":"Husiatyn","id":337573508,"population":7104},"coordinates":[2584,663]},{"type":"Point","properties":{"kind":"locality","name:en":"Khorostkiv","name":"\u0425\u043e\u0440\u043e\u0441\u0442\u043a\u0456\u0432","kind_detail":"town","source":"openstreetmap.org","min_zoom":8.0,"name:ru":"\u0425\u043e\u0440\u043e\u0441\u0442\u043a\u043e\u0432","name:pl":"Chorostk\u00f3w","id":312256412,"population":7067},"coordinates":[1760,1296]},{"type":"Point","properties":{"kind":"locality","name:en":"Kopychyntsi","name":"\u041a\u043e\u043f\u0438\u0447\u0438\u043d\u0446\u0456","kind_detail":"town","source":"openstreetmap.org","min_zoom":8.0,"name:ru":"\u041a\u043e\u043f\u044b\u0447\u0438\u043d\u0446\u044b","name:pl":"Kopyczy\u0144ce","id":1712742817,"population":6869},"coordinates":[1736,825]},{"type":"Point","properties":{"kind":"locality","name:en":"Chemerivtsi","name":"\u0427\u0435\u043c\u0435\u0440\u0456\u0432\u0446\u0456","kind_detail":"town","name:de":"Tschemeriwzi","source":"openstreetmap.org","min_zoom":8.0,"name:ru":"\u0427\u0435\u043c\u0435\u0440\u043e\u0432\u0446\u044b","name:pl":"Czemerowce","id":337576097,"population":5399},"coordinates":[2994,386]},{"type":"Point","properties":{"kind":"locality","name:en":"Skalat","name":"\u0421\u043a\u0430\u043b\u0430\u0442","kind_detail":"town","source":"openstreetmap.org","min_zoom":8.0,"name:pl":"Ska\u0142at","id":312254157,"population":3989},"coordinates":[1937,2247]},{"type":"Point","properties":{"kind":"locality","name:en":"Mykulyntsi","name":"\u041c\u0438\u043a\u0443\u043b\u0438\u043d\u0446\u0456","kind_detail":"town","source":"openstreetmap.org","min_zoom":8.0,"name:ru":"\u041c\u0438\u043a\u0443\u043b\u0438\u043d\u0446\u044b","name:pl":"Mikuli\u0144ce","id":337560387,"population":3728},"coordinates":[845,2135]},{"type":"Point","properties":{"kind":"locality","name:en":"Velyki Birky","name":"\u0412\u0435\u043b\u0438\u043a\u0456 \u0411\u0456\u0440\u043a\u0438","kind_detail":"town","source":"openstreetmap.org","min_zoom":8.0,"name:ru":"\u0412\u0435\u043b\u0438\u043a\u0438\u0435 \u0411\u043e\u0440\u043a\u0438","name:pl":"Borki Wielkie","id":337556208,"population":3429},"coordinates":[1288,2693]},{"type":"Point","properties":{"kind":"locality","name:en":"Zavodske","name":"\u0417\u0430\u0432\u043e\u0434\u0441\u044c\u043a\u0435","kind_detail":"town","source":"openstreetmap.org","min_zoom":8.0,"name:ru":"\u0417\u0430\u0432\u043e\u0434\u0441\u043a\u043e\u0435","name:pl":"Zawod\u015bke","id":1643271217,"population":3386},"coordinates":[1580,345]},{"type":"Point","properties":{"kind":"locality","name:en":"Zaliztsi","name":"\u0417\u0430\u043b\u0456\u0437\u0446\u0456","kind_detail":"town","source":"openstreetmap.org","min_zoom":8.0,"name:ru":"\u0417\u0430\u043b\u043e\u0436\u0446\u044b","name:pl":"Za\u0142o\u017ace","id":337544447,"population":2706},"coordinates":[207,3936]},{"type":"Point","properties":{"kind":"locality","name:en":"Sataniv","name":"\u0421\u0430\u0442\u0430\u043d\u0456\u0432","kind_detail":"town","source":"openstreetmap.org","min_zoom":8.0,"name:ru":"\u0421\u0430\u0442\u0430\u043d\u043e\u0432","name:pl":"Satan\u00f3w","id":337565520,"population":2413},"coordinates":[2745,1482]},{"type":"Point","properties":{"kind":"locality","name:en":"Hrymailiv","name":"\u0413\u0440\u0438\u043c\u0430\u0439\u043b\u0456\u0432","kind_detail":"town","source":"openstreetmap.org","min_zoom":8.0,"name:ru":"\u0413\u0440\u0438\u043c\u0430\u0439\u043b\u043e\u0432","name:pl":"Grzyma\u0142\u00f3w","id":337562696,"population":1973},"coordinates":[2031,1832]},{"type":"Point","properties":{"kind":"locality","name:en":"Smotrych","name":"\u0421\u043c\u043e\u0442\u0440\u0438\u0447","kind_detail":"town","source":"openstreetmap.org","min_zoom":8.0,"name:pl":"Smotrycz","id":337579251,"population":1912},"coordinates":[3628,123]},{"type":"Point","properties":{"kind":"locality","name:en":"Kozliv","name":"\u041a\u043e\u0437\u043b\u0456\u0432","kind_detail":"town","source":"openstreetmap.org","min_zoom":8.0,"name:ru":"\u041a\u043e\u0437\u043b\u043e\u0432","name:pl":"Koz\u0142\u00f3w","id":337554737,"population":1856},"coordinates":[79,2837]},{"type":"Point","properties":{"kind":"locality","name:en":"Druzhba","name":"\u0414\u0440\u0443\u0436\u0431\u0430","old_name:pl":"Zielona Karczma","kind_detail":"town","source":"openstreetmap.org","min_zoom":8.0,"name:pl":"Dru\u017cba","id":337561716,"population":1813},"coordinates":[970,1971]},{"type":"Point","properties":{"kind":"locality","name:en":"Bazaliia","name":"\u0411\u0430\u0437\u0430\u043b\u0456\u044f","kind_detail":"town","source":"openstreetmap.org","min_zoom":8.0,"name:ru":"\u0411\u0430\u0437\u0430\u043b\u0438\u044f","name:pl":"Bazalia","id":337548269,"population":1792},"coordinates":[3397,3540]},{"type":"Point","properties":{"kind":"locality","name:en":"Narkevychi","name":"\u041d\u0430\u0440\u043a\u0435\u0432\u0438\u0447\u0456","kind_detail":"town","source":"openstreetmap.org","min_zoom":8.0,"old_name":"\u042f\u0441\u043d\u0435","name:ru":"\u041d\u0430\u0440\u043a\u0435\u0432\u0438\u0447\u0438","name:pl":"Narkiewicze","id":337556819,"population":1553},"coordinates":[3857,2665]},{"type":"Point","properties":{"kind":"locality","name:en":"Zakupne","name":"\u0417\u0430\u043a\u0443\u043f\u043d\u0435","kind_detail":"town","source":"openstreetmap.org","min_zoom":8.0,"name:ru":"\u0417\u0430\u043a\u0443\u043f\u043d\u043e\u0435","name:pl":"Zakupno","id":337571385,"population":1371},"coordinates":[2969,869]},{"type":"Point","properties":{"kind":"locality","name:en":"Viitivtsi","name":"\u0412\u0456\u0439\u0442\u0456\u0432\u0446\u0456","kind_detail":"town","source":"openstreetmap.org","min_zoom":8.0,"name:ru":"\u0412\u043e\u0439\u0442\u043e\u0432\u0446\u044b","name:pl":"Wojtowce","id":337557355,"population":922},"coordinates":[3298,2554]}]},"transit":{"type":"GeometryCollection","geometries":[]},"pois":{"type":"GeometryCollection","geometries":[{"type":"Point","properties":{"kind":"nature_reserve","protect_class":"1","area":145422000,"source":"openstreetmap.org","min_zoom":8.7,"tier":2,"name:ru":"\u041f\u0440\u0438\u0440\u043e\u0434\u043d\u044b\u0439 \u0437\u0430\u043f\u043e\u0432\u0435\u0434\u043d\u0438\u043a \u00ab\u041c\u0435\u0434\u043e\u0431\u043e\u0440\u044b\u00bb","id":-2071964,"osm_relation":true,"name":"\u041f\u0440\u0438\u0440\u043e\u0434\u043d\u0438\u0439 \u0437\u0430\u043f\u043e\u0432\u0456\u0434\u043d\u0438\u043a \u00ab\u041c\u0435\u0434\u043e\u0431\u043e\u0440\u0438\u00bb"},"coordinates":[2479,1337]}]},"boundaries":{"type":"GeometryCollection","geometries":[{"type":"LineString","properties":{"name:right:hy":"\u054f\u0565\u0580\u0576\u0578\u057a\u0578\u056c\u056b \u0574\u0561\u0580\u0566","alt_name:left:en":"Khmelnitsky Oblast","name:right:hr":"Ternopiljska oblast","name:left:sv":"Chmelnytskyj oblast","name:right:hu":"Ternopili ter\u00fclet","name:left:sr":"\u0425\u043c\u0435\u0459\u043d\u0438\u0447\u043a\u0430 \u043e\u0431\u043b\u0430\u0441\u0442","name:right:lt":"Ternopilio sritis","name:right:lv":"Ternopi\u013cas apgabals","name:left:lt":"Chmelnyckio sritis","name:left:sh":"Hmeljni\u010dka oblast","name:left:lv":"Hme\u013c\u0146ickas apgabals","name:left:hu":"Hmelnickiji ter\u00fclet","name:right:he":"\u05de\u05d7\u05d5\u05d6 \u05d8\u05e8\u05e0\u05d5\u05e4\u05d5\u05dc","name:left:hr":"Hmeljni\u010dka oblast","name:right:vi":"Ternopil (t\u1ec9nh)","sort_rank":256,"name:left:ca":"Prov\u00edncia de Khmelnytskyi","source":"openstreetmap.org","name:right:ar":"\u062a\u064a\u0631\u0646\u0648\u0628\u0644 \u0623\u0648\u0628\u0644\u0627\u0633\u062a","name:left:cs":"Chmelnyck\u00e1 oblast","name:left":"\u0425\u043c\u0435\u043b\u044c\u043d\u0438\u0446\u044c\u043a\u0430 \u043e\u0431\u043b\u0430\u0441\u0442\u044c","name:right:es":"\u00d3blast de Tern\u00f3pil","name:right:sr":"\u0422\u0435\u0440\u043d\u043e\u043f\u043e\u0459\u0441\u043a\u0430 \u043e\u0431\u043b\u0430\u0441\u0442","name:left:ka":"\u10ee\u10db\u10d4\u10da\u10dc\u10d8\u10ea\u10d9\u10d8\u10e1 \u10dd\u10da\u10e5\u10d8","name:right:eu":"Ternopilgo oblasta","name:right:et":"Ternopili oblast","name:left:ko":"\ud750\uba5c\ub2c8\uce20\ud0a4 \uc8fc","name:right:it":"Oblast' di Ternopil'","name:left:ro":"Regiunea Hmelni\u021bki","name:right:ru":"\u0422\u0435\u0440\u043d\u043e\u043f\u043e\u043b\u044c\u0441\u043a\u0430\u044f \u043e\u0431\u043b\u0430\u0441\u0442\u044c","name:right:ro":"Regiunea Ternopil","name:left:ru":"\u0425\u043c\u0435\u043b\u044c\u043d\u0438\u0446\u043a\u0430\u044f \u043e\u0431\u043b\u0430\u0441\u0442\u044c","name:right:mr":"\u0924\u0947\u0930\u094d\u0928\u094b\u092a\u093f\u0932 \u0913\u092c\u094d\u0932\u093e\u0938\u094d\u0924","name:right:id":"Oblast Ternopil","name:right:eo":"Ternopila provinco","name:right:en":"Ternopil Oblast","name:left:vi":"Khmelnytskyi (t\u1ec9nh)","kind":"region","name":"\u0425\u043c\u0435\u043b\u044c\u043d\u0438\u0446\u044c\u043a\u0430 \u043e\u0431\u043b\u0430\u0441\u0442\u044c - \u0422\u0435\u0440\u043d\u043e\u043f\u0456\u043b\u044c\u0441\u044c\u043a\u0430 \u043e\u0431\u043b\u0430\u0441\u0442\u044c","name:left:fa":"\u0627\u0633\u062a\u0627\u0646 \u062e\u0645\u0644\u0646\u06cc\u062a\u0633\u06a9\u06cc","name:right:fa":"\u0627\u0633\u062a\u0627\u0646 \u062a\u0631\u0646\u0648\u067e\u06cc\u0644","min_zoom":8.0,"name:right:be":"\u0426\u044f\u0440\u043d\u043e\u043f\u0430\u043b\u044c\u0441\u043a\u0430\u044f \u0432\u043e\u0431\u043b\u0430\u0441\u0446\u044c","name:left:zh":"\u8d6b\u6885\u5229\u5c3c\u8328\u57fa\u5dde","name:left:fr":"Oblast de Khmelnitski","name:right:zh":"\u6377\u723e\u8afe\u6ce2\u723e\u5dde","name:left:hy":"\u053d\u0574\u0565\u056c\u0576\u056b\u0581\u056f\u0578\u0582 \u0574\u0561\u0580\u0566","name:right:nn":"Ternopil oblast","name:right:no":"Ternopil oblast","name:right:nl":"Oblast Ternopil","name:right:ja":"\u30c6\u30eb\u30ce\u30fc\u30d4\u30ea\u5dde","name:right:fr":"Oblast de Ternopil","name:left:sk":"Chme\u013enyck\u00e1 oblas\u0165","name:left:ja":"\u30d5\u30e1\u30ea\u30cc\u30a3\u30fc\u30c4\u30a3\u30af\u30a3\u30a4\u5dde","id:right":-72525,"name:left:nn":"Khmelnytskyj oblast","name:right:sh":"Ternopiljska oblast","name:right:sk":"Ternopi\u013esk\u00e1 oblas\u0165","name:left:bg":"\u0425\u043c\u0435\u043b\u043d\u0438\u0446\u043a\u0430 \u043e\u0431\u043b\u0430\u0441\u0442","name:left:be":"\u0425\u043c\u044f\u043b\u044c\u043d\u0456\u0446\u043a\u0430\u044f \u0432\u043e\u0431\u043b\u0430\u0441\u0446\u044c","name:left:no":"Khmelnytskyj oblast","name:left:fi":"Hmelnitskyin alue","id":-90742,"name:right:fi":"Ternopilin alue","name:left:eo":"\u0124melnicka provinco","name:left:en":"Khmelnytskyi Oblast","name:right:ca":"Prov\u00edncia de Tern\u00f3pill","kind_detail":"4","name:left:mk":"\u0425\u043c\u0435\u043b\u043d\u0438\u0447\u043a\u0430 \u043e\u0431\u043b\u0430\u0441\u0442","name:left:nl":"Oblast Chmelnitski","id:left":-90742,"name:left:es":"\u00d3blast de Jmelnitski","name:right:cs":"Ternopilsk\u00e1 oblast","name:right":"\u0422\u0435\u0440\u043d\u043e\u043f\u0456\u043b\u044c\u0441\u044c\u043a\u0430 \u043e\u0431\u043b\u0430\u0441\u0442\u044c","name:left:eu":"Khmelnytskyko oblasta","name:left:et":"Hmeln\u00f5tsk\u00f5i oblast","name:right:mk":"\u0422\u0435\u0440\u043d\u043e\u043f\u043e\u043b\u0441\u043a\u0430 \u043e\u0431\u043b\u0430\u0441\u0442","name:right:zh-min-nan":"Ternopil s\u00e9ng","name:right:pt":"Oblast de Ternopil","name:left:ar":"\u062e\u0645\u0644\u0646\u064a\u062a\u0633\u0643\u064a \u0623\u0648\u0628\u0644\u0627\u0633\u062a","name:left:pl":"Obw\u00f3d chmielnicki","name:left:tr":"Hmelnitski Oblast\u0131","name:left:id":"Oblast Khmelnytskyi","name:right:tr":"Ternopil Oblast\u0131","alt_name:left:de":"Oblast Chmelnizki","name:left:pt":"Oblast de Khmelnitski","name:left:mr":"\u0916\u094d\u092e\u0947\u0932\u094d\u0928\u093f\u0924\u094d\u0938\u094d\u0915\u0940 \u0913\u092c\u094d\u0932\u093e\u0938\u094d\u0924","name:right:sv":"Ternopil oblast","name:right:ko":"\ud14c\ub974\ub178\ud544 \uc8fc","name:left:zh-min-nan":"Xmelnyczkyj s\u00e9ng","name:right:bg":"\u0422\u0435\u0440\u043d\u043e\u043f\u043e\u043b\u0441\u043a\u0430 \u043e\u0431\u043b\u0430\u0441\u0442","name:left:it":"Oblast' di Chmel'nyc'kyj","name:right:pl":"Obw\u00f3d tarnopolski","osm_relation":true,"name:right:ka":"\u10e2\u10d4\u10e0\u10dc\u10dd\u10de\u10dd\u10da\u10d8\u10e1 \u10dd\u10da\u10e5\u10d8","name:right:de":"Oblast Ternopil","name:left:de":"Oblast Chmelnyzkyj","old_name:left":"\u041a\u0430\u043c\u2019\u044f\u043d\u0435\u0446\u044c-\u041f\u043e\u0434\u0456\u043b\u044c\u0441\u044c\u043a\u0430 \u043e\u0431\u043b\u0430\u0441\u0442\u044c"},"arcs":[0]}]},"roads":{"type":"GeometryCollection","geometries":[{"type":"LineString","properties":{"bus_network":"\u0422\u0435\u0440\u043d\u043e\u043f\u0456\u043b\u044c\u0441\u044c\u043a\u0438\u0439 \u0442\u0440\u043e\u043b\u0435\u0439\u0431\u0443\u0441","name:en":"Zbarazka Street","sort_rank":380,"kind_detail":"primary","kind":"major_road","source":"openstreetmap.org","min_zoom":8.0,"bus_shield_text":"8","name:ru":"\u0417\u0431\u0430\u0440\u0430\u0436\u0441\u043a\u0430\u044f \u0443\u043b\u0438\u0446\u0430","name:be":"\u0417\u0431\u0430\u0440\u0430\u0436\u0441\u043a\u0430\u044f \u0432\u0443\u043b\u0456\u0446\u0430","landuse_kind":"urban_area"},"arcs":[1]},{"type":"LineString","properties":{"kind":"major_road","name:en":"Lvivska Street","sort_rank":380,"kind_detail":"primary","source":"openstreetmap.org","min_zoom":8.0,"landuse_kind":"urban_area","name:ru":"\u041b\u044c\u0432\u043e\u0432\u0441\u043a\u0430\u044f \u0443\u043b\u0438\u0446\u0430","name:be":"\u041b\u044c\u0432\u043e\u045e\u0441\u043a\u0430\u044f \u0432\u0443\u043b\u0456\u0446\u0430"},"arcs":[2]},{"type":"LineString","properties":{"kind":"major_road","network":"ua:regional","sort_rank":380,"kind_detail":"primary","source":"openstreetmap.org","min_zoom":8.0,"shield_text":"48","ref":"\u0420-48; \u0422-23-11","id":430591545},"arcs":[3]},{"type":"LineString","properties":{"kind":"major_road","name:en":"Pidvolochyske Road","network":"e-road","sort_rank":381,"kind_detail":"trunk","source":"openstreetmap.org","min_zoom":8.0,"landuse_kind":"urban_area","shield_text":"50","name:ru":"\u041f\u043e\u0434\u0432\u043e\u043b\u043e\u0447\u0438\u0441\u043a\u043e\u0435 \u0448\u043e\u0441\u0441\u0435","ref":"\u041c-12","id":292698694},"arcs":[4]},{"type":"LineString","properties":{"kind":"major_road","network":"e-road","sort_rank":381,"kind_detail":"trunk","bus_network":"\u0422\u0435\u0440\u043d\u043e\u043f\u0456\u043b\u044c\u0441\u044c\u043a\u0438\u0439 \u0442\u0440\u043e\u043b\u0435\u0439\u0431\u0443\u0441","source":"openstreetmap.org","min_zoom":8.0,"bus_shield_text":"3","shield_text":"50","landuse_kind":"urban_area","ref":"\u041c-12;\u041c-19","id":233654797},"arcs":[5]},{"type":"LineString","properties":{"kind":"major_road","network":"e-road","sort_rank":381,"kind_detail":"trunk","bus_network":"\u0422\u0435\u0440\u043d\u043e\u043f\u0456\u043b\u044c\u0441\u044c\u043a\u0438\u0439 \u0442\u0440\u043e\u043b\u0435\u0439\u0431\u0443\u0441","source":"openstreetmap.org","min_zoom":8.0,"bus_shield_text":"6","shield_text":"85","landuse_kind":"urban_area","ref":"\u041c-19","id":104894401},"arcs":[6]},{"type":"LineString","properties":{"kind":"major_road","name:en":"Hetmana Mazepy Street","short_name":"\u041c\u0430\u0437\u0435\u043f\u0438 \u0432\u0443\u043b\u0438\u0446\u044f","sort_rank":380,"kind_detail":"primary","old_name":"\u041f\u0435\u0440\u0435\u043c\u043e\u0433\u0438 \u0432\u0443\u043b\u0438\u0446\u044f","bus_network":"\u0422\u0435\u0440\u043d\u043e\u043f\u0456\u043b\u044c\u0441\u044c\u043a\u0438\u0439 \u0430\u0432\u0442\u043e\u0431\u0443\u0441","official_name":"\u0413\u0435\u0442\u044c\u043c\u0430\u043d\u0430 \u0406. \u041c\u0430\u0437\u0435\u043f\u0438 \u0432\u0443\u043b\u0438\u0446\u044f","source":"openstreetmap.org","min_zoom":8.0,"bus_shield_text":"1","name:ru":"\u0413\u0435\u0442\u043c\u0430\u043d\u0430 \u041c\u0430\u0437\u0435\u043f\u044b \u0443\u043b\u0438\u0446\u0430","landuse_kind":"urban_area","id":30851497},"arcs":[7]},{"type":"LineString","properties":{"bus_network":"\u0422\u0435\u0440\u043d\u043e\u043f\u0456\u043b\u044c\u0441\u044c\u043a\u0438\u0439 \u0442\u0440\u043e\u043b\u0435\u0439\u0431\u0443\u0441","name:en":"15 Kvitnia Street","network":"e-road","sort_rank":381,"landuse_kind":"urban_area","kind":"major_road","kind_detail":"trunk","source":"openstreetmap.org","min_zoom":8.0,"bus_shield_text":"3","shield_text":"85","name:ru":"15 \u0410\u043f\u0440\u0435\u043b\u044f \u0443\u043b\u0438\u0446\u0430","name:be":"15 \u041a\u0440\u0430\u0441\u0430\u0432\u0456\u043a\u0430 \u0432\u0443\u043b\u0456\u0446\u0430","ref":"\u041c-19","name:pl":"15 kwietnia ulica"},"arcs":[8]},{"type":"LineString","properties":{"kind":"major_road","network":"e-road","sort_rank":381,"kind_detail":"trunk","bus_network":"\u0422\u0435\u0440\u043d\u043e\u043f\u0456\u043b\u044c\u0441\u044c\u043a\u0438\u0439 \u0442\u0440\u043e\u043b\u0435\u0439\u0431\u0443\u0441","source":"openstreetmap.org","min_zoom":8.0,"bus_shield_text":"3","shield_text":"85","landuse_kind":"urban_area","ref":"\u041c-19","id":30841744},"arcs":[9]},{"type":"MultiLineString","properties":{"kind":"major_road","name:en":"Protasevycha Street","network":"e-road","sort_rank":381,"kind_detail":"trunk","official_name":"\u0422. \u041f\u0440\u043e\u0442\u0430\u0441\u0435\u0432\u0438\u0447\u0430 \u0432\u0443\u043b\u0438\u0446\u044f","source":"openstreetmap.org","min_zoom":8.0,"old_name":"\u0425\u043c\u0435\u043b\u044c\u043d\u0438\u0446\u044c\u043a\u0430 \u0432\u0443\u043b\u0438\u0446\u044f","shield_text":"50","name:ru":"\u041f\u0440\u043e\u0442\u0430\u0441\u0435\u0432\u0438\u0447\u0430 \u0443\u043b\u0438\u0446\u0430","name:be":"\u041f\u0440\u0430\u0442\u0430\u0441\u0435\u0432\u0456\u0447\u0430 \u0432\u0443\u043b\u0456\u0446\u0430","ref":"\u041c-12;\u041c-19"},"arcs":[[10],[11]]},{"type":"LineString","properties":{"kind":"major_road","name:en":"Tarasa Shevchenka Street","network":"ua:regional","sort_rank":380,"kind_detail":"primary","source":"openstreetmap.org","min_zoom":8.0,"name:be":"\u0422\u0430\u0440\u0430\u0441\u0430 \u0428\u0430\u045e\u0447\u044d\u043d\u043a\u0456 \u0432\u0443\u043b\u0456\u0446\u0430","shield_text":"39","name:ru":"\u0422\u0430\u0440\u0430\u0441\u0430 \u0428\u0435\u0432\u0447\u0435\u043d\u043a\u043e \u0443\u043b\u0438\u0446\u0430","ref":"\u0420-39"},"arcs":[12]},{"type":"MultiLineString","properties":{"kind":"major_road","name:en":"Brodivska Street","network":"ua:regional","sort_rank":380,"kind_detail":"primary","source":"openstreetmap.org","min_zoom":8.0,"old_name":"\u0417\u0430\u0432\u043e\u0434\u0441\u044c\u043a\u0430 \u0432\u0443\u043b\u0438\u0446\u044f","shield_text":"39","name:ru":"\u0411\u0440\u043e\u0434\u043e\u0432\u0441\u043a\u0430\u044f \u0443\u043b\u0438\u0446\u0430","name:be":"\u0411\u0440\u043e\u0434\u043e\u0432\u0441\u043a\u0430\u044f \u0432\u0443\u043b\u0456\u0446\u0430","landuse_kind":"urban_area","ref":"\u0420-39"},"arcs":[[13],[14],[15]]},{"type":"LineString","properties":{"kind":"major_road","name:en":"Berezhanska Street","network":"e-road","sort_rank":381,"kind_detail":"trunk","source":"openstreetmap.org","min_zoom":8.0,"old_name":"\u0417\u0430\u0433\u0440\u0435\u0431\u0435\u043b\u043b\u044f \u0432\u0443\u043b\u0438\u0446\u044f","shield_text":"50","name:ru":"\u0411\u0435\u0440\u0435\u0436\u0430\u043d\u0441\u043a\u0430\u044f \u0443\u043b\u0438\u0446\u0430","name:be":"\u0411\u0435\u0440\u0435\u0436\u0430\u043d\u0441\u043a\u0430\u044f \u0432\u0443\u043b\u0456\u0446\u0430","ref":"\u041c-12","id":115086521},"arcs":[16]},{"type":"LineString","properties":{"kind":"major_road","name:en":"Sahaydachnoho Street","network":"ua:regional","sort_rank":380,"kind_detail":"primary","source":"openstreetmap.org","min_zoom":8.0,"name:be":"\u0421\u0430\u0433\u0430\u0439\u0434\u0430\u043a\u0430\u0432\u0430\u0433\u0430 \u0432\u0443\u043b\u0456\u0446\u0430","shield_text":"39","name:ru":"\u0421\u0430\u0433\u0430\u0439\u0434\u0430\u0447\u043d\u043e\u0433\u043e \u0443\u043b\u0438\u0446\u0430","ref":"\u0420-39","id":255896620},"arcs":[17]},{"type":"MultiLineString","properties":{"kind":"major_road","name:en":"Berezhanska Street","sort_rank":380,"kind_detail":"primary","source":"openstreetmap.org","min_zoom":8.0,"old_name":"\u0417\u0430\u0433\u0440\u0435\u0431\u0435\u043b\u043b\u044f \u0432\u0443\u043b\u0438\u0446\u044f","name:ru":"\u0411\u0435\u0440\u0435\u0436\u0430\u043d\u0441\u043a\u0430\u044f \u0443\u043b\u0438\u0446\u0430","name:be":"\u0411\u0435\u0440\u0435\u0436\u0430\u043d\u0441\u043a\u0430\u044f \u0432\u0443\u043b\u0456\u0446\u0430","landuse_kind":"urban_area"},"arcs":[[18],[19]]},{"type":"LineString","properties":{"kind":"major_road","name:en":"Vynnychenka Street","sort_rank":380,"kind_detail":"primary","bus_shield_text":"1","bus_network":"\u0422\u0435\u0440\u043d\u043e\u043f\u0456\u043b\u044c\u0441\u044c\u043a\u0438\u0439 \u0430\u0432\u0442\u043e\u0431\u0443\u0441","official_name":"\u0412. \u0412\u0438\u043d\u043d\u0438\u0447\u0435\u043d\u043a\u0430 \u0432\u0443\u043b\u0438\u0446\u044f","source":"openstreetmap.org","min_zoom":8.0,"old_name":"\u041a\u0430\u0440\u043f\u0435\u043d\u043a\u0430 \u0432\u0443\u043b\u0438\u0446\u044f","name:ru":"\u0412\u0438\u043d\u043d\u0438\u0447\u0435\u043d\u043a\u043e \u0443\u043b\u0438\u0446\u0430","landuse_kind":"urban_area","id":241189128},"arcs":[20]},{"type":"LineString","properties":{"kind":"major_road","name:en":"Berezhanska Street","network":"e-road","sort_rank":381,"kind_detail":"trunk","source":"openstreetmap.org","min_zoom":8.0,"old_name":"\u0417\u0430\u0433\u0440\u0435\u0431\u0435\u043b\u043b\u044f \u0432\u0443\u043b\u0438\u0446\u044f","shield_text":"50","name:ru":"\u0411\u0435\u0440\u0435\u0436\u0430\u043d\u0441\u043a\u0430\u044f \u0443\u043b\u0438\u0446\u0430","ref":"\u041c-12"},"arcs":[21]},{"type":"LineString","properties":{"sort_rank":381,"source":"openstreetmap.org","min_zoom":8.0,"kind":"major_road","kind_detail":"trunk"},"arcs":[22]},{"type":"LineString","properties":{"bus_network":"\u0422\u0435\u0440\u043d\u043e\u043f\u0456\u043b\u044c\u0441\u044c\u043a\u0438\u0439 \u0442\u0440\u043e\u043b\u0435\u0439\u0431\u0443\u0441","old_name":"\u0425\u043c\u0435\u043b\u044c\u043d\u0438\u0446\u044c\u043a\u0430 \u0432\u0443\u043b\u0438\u0446\u044f","official_name":"\u0422. \u041f\u0440\u043e\u0442\u0430\u0441\u0435\u0432\u0438\u0447\u0430 \u0432\u0443\u043b\u0438\u0446\u044f","min_zoom":8.0,"bus_shield_text":"5","name:ru":"\u041f\u0440\u043e\u0442\u0430\u0441\u0435\u0432\u0438\u0447\u0430 \u0443\u043b\u0438\u0446\u0430","id":232075615,"kind":"major_road","name:en":"Protasevycha Street","network":"e-road","sort_rank":381,"kind_detail":"trunk","source":"openstreetmap.org","landuse_kind":"urban_area","shield_text":"50","name:be":"\u041f\u0440\u0430\u0442\u0430\u0441\u0435\u0432\u0456\u0447\u0430 \u0432\u0443\u043b\u0456\u0446\u0430","ref":"\u041c-12;\u041c-19"},"arcs":[23]},{"type":"MultiLineString","properties":{"bus_network":"\u0422\u0435\u0440\u043d\u043e\u043f\u0456\u043b\u044c\u0441\u044c\u043a\u0438\u0439 \u0430\u0432\u0442\u043e\u0431\u0443\u0441","sort_rank":380,"kind_detail":"primary","kind":"major_road","source":"openstreetmap.org","min_zoom":8.0,"bus_shield_text":"1","landuse_kind":"urban_area"},"arcs":[[24],[25],[26]]},{"type":"LineString","properties":{"bus_network":"\u0422\u0435\u0440\u043d\u043e\u043f\u0456\u043b\u044c\u0441\u044c\u043a\u0438\u0439 \u0442\u0440\u043e\u043b\u0435\u0439\u0431\u0443\u0441","sort_rank":380,"kind_detail":"primary","kind":"major_road","source":"openstreetmap.org","min_zoom":8.0,"bus_shield_text":"2","landuse_kind":"urban_area"},"arcs":[27]},{"type":"LineString","properties":{"bus_network":"\u0422\u0435\u0440\u043d\u043e\u043f\u0456\u043b\u044c\u0441\u044c\u043a\u0438\u0439 \u0442\u0440\u043e\u043b\u0435\u0439\u0431\u0443\u0441","name:en":"Bohdana Khmelnytskoho Street","short_name":"\u0425\u043c\u0435\u043b\u044c\u043d\u0438\u0446\u044c\u043a\u043e\u0433\u043e \u0432\u0443\u043b\u0438\u0446\u044f","sort_rank":380,"kind_detail":"primary","kind":"major_road","official_name":"\u0411. \u0425\u043c\u0435\u043b\u044c\u043d\u0438\u0446\u044c\u043a\u043e\u0433\u043e \u0432\u0443\u043b\u0438\u0446\u044f","source":"openstreetmap.org","min_zoom":8.0,"bus_shield_text":"3","name:ru":"\u0411\u043e\u0433\u0434\u0430\u043d\u0430 \u0425\u043c\u0435\u043b\u044c\u043d\u0438\u0446\u043a\u043e\u0433\u043e \u0443\u043b\u0438\u0446\u0430","landuse_kind":"urban_area"},"arcs":[28]},{"type":"MultiLineString","properties":{"kind":"major_road","network":"ua:regional","sort_rank":380,"kind_detail":"primary","source":"openstreetmap.org","min_zoom":8.0,"shield_text":"50","ref":"\u0420-50"},"arcs":[[29],[30],[31],[32],[33],[34],[35]]},{"type":"MultiLineString","properties":{"kind":"major_road","name:en":"Berezhanska Street","sort_rank":380,"kind_detail":"primary","source":"openstreetmap.org","min_zoom":8.0,"old_name":"\u0417\u0430\u0433\u0440\u0435\u0431\u0435\u043b\u043b\u044f \u0432\u0443\u043b\u0438\u0446\u044f","name:ru":"\u0411\u0435\u0440\u0435\u0436\u0430\u043d\u0441\u043a\u0430\u044f \u0443\u043b\u0438\u0446\u0430","name:be":"\u0411\u0435\u0440\u0435\u0436\u0430\u043d\u0441\u043a\u0430\u044f \u0432\u0443\u043b\u0456\u0446\u0430"},"arcs":[[36],[37]]},{"type":"MultiLineString","properties":{"bus_network":"\u0422\u0435\u0440\u043d\u043e\u043f\u0456\u043b\u044c\u0441\u044c\u043a\u0438\u0439 \u0442\u0440\u043e\u043b\u0435\u0439\u0431\u0443\u0441","network":"e-road","sort_rank":381,"kind_detail":"trunk","kind":"major_road","source":"openstreetmap.org","min_zoom":8.0,"bus_shield_text":"1","shield_text":"50","landuse_kind":"urban_area","ref":"\u041c-12;\u041c-19"},"arcs":[[38],[39],[40]]},{"type":"LineString","properties":{"kind":"major_road","network":"ua:regional","sort_rank":380,"kind_detail":"primary","source":"openstreetmap.org","min_zoom":8.0,"shield_text":"50","ref":"\u0420-50;\u0422-09-03","id":60266195},"arcs":[41]},{"type":"MultiLineString","properties":{"kind":"major_road","network":"e-road","sort_rank":381,"kind_detail":"trunk","source":"openstreetmap.org","min_zoom":8.0,"shield_text":"85","ref":"\u041c-19"},"arcs":[[42],[43],[44],[45],[46],[47],[48],[49],[50],[51],[52],[53],[54],[55],[56],[57]]},{"type":"MultiLineString","properties":{"kind":"major_road","network":"e-road","sort_rank":381,"kind_detail":"trunk","is_bicycle_related":true,"source":"openstreetmap.org","min_zoom":8.0,"shield_text":"50","ref":"\u041c-12"},"arcs":[[58],[59]]},{"type":"MultiLineString","properties":{"kind":"major_road","network":"ua:regional","sort_rank":380,"kind_detail":"primary","source":"openstreetmap.org","min_zoom":8.0,"shield_text":"48","ref":"\u0420-48"},"arcs":[[60],[61],[62],[63],[64]]},{"type":"MultiLineString","properties":{"source":"openstreetmap.org","kind":"major_road","landuse_kind":"urban_area","sort_rank":380,"kind_detail":"primary","min_zoom":8.0},"arcs":[[65],[66],[67],[68]]},{"type":"LineString","properties":{"bus_network":null,"name:en":"Kopychynetska Street","network":"e-road","sort_rank":381,"kind_detail":"trunk","kind":"major_road","source":"openstreetmap.org","min_zoom":8.0,"bus_shield_text":"1","shield_text":"85","ref":"\u041c-19"},"arcs":[69]},{"type":"LineString","properties":{"kind":"major_road","network":"e-road","sort_rank":381,"kind_detail":"trunk","bus_network":"\u0422\u0435\u0440\u043d\u043e\u043f\u0456\u043b\u044c\u0441\u044c\u043a\u0438\u0439 \u0442\u0440\u043e\u043b\u0435\u0439\u0431\u0443\u0441","source":"openstreetmap.org","min_zoom":8.0,"bus_shield_text":"1","shield_text":"85","landuse_kind":"urban_area","ref":"\u041c-19","id":131407597},"arcs":[70]},{"type":"LineString","properties":{"kind":"major_road","name:en":"Knyazya Vasylka Street","network":"e-road","sort_rank":381,"kind_detail":"trunk","is_bicycle_related":true,"source":"openstreetmap.org","min_zoom":8.0,"shield_text":"85","name:ru":"\u041a\u043d\u044f\u0437\u044f \u0412\u0430\u0441\u0438\u043b\u044c\u043a\u0430 \u0443\u043b\u0438\u0446\u0430","ref":"\u041c-19"},"arcs":[71]},{"type":"MultiLineString","properties":{"kind":"major_road","name:en":"Krushelnytskoi Street","sort_rank":380,"kind_detail":"primary","official_name":"\u0421. \u041a\u0440\u0443\u0448\u0435\u043b\u044c\u043d\u0438\u0446\u044c\u043a\u043e\u0457 \u0432\u0443\u043b\u0438\u0446\u044f","source":"openstreetmap.org","min_zoom":8.0,"old_name":"\u0421\u0435\u043d\u043a\u0435\u0432\u0438\u0447\u0430 \u0432\u0443\u043b\u0438\u0446\u044f","name:ru":"\u041a\u0440\u0443\u0448\u0435\u043b\u044c\u043d\u0438\u0446\u043a\u043e\u0439 \u0443\u043b\u0438\u0446\u0430","name:be":"\u041a\u0440\u0443\u0448\u044d\u043b\u044c\u043d\u0456\u0446\u043a\u0430\u0439 \u0432\u0443\u043b\u0456\u0446\u0430","landuse_kind":"urban_area"},"arcs":[[72],[73],[74],[75],[76]]},{"type":"LineString","properties":{"kind":"major_road","name:en":"Karpenka Street","sort_rank":380,"kind_detail":"primary","source":"openstreetmap.org","min_zoom":8.0,"name:ru":"\u041a\u0430\u0440\u043f\u0435\u043d\u043a\u043e \u0443\u043b\u0438\u0446\u0430","name:be":"\u041a\u0430\u0440\u043f\u0435\u043d\u043a\u0430 \u0432\u0443\u043b\u0456\u0446\u0430","landuse_kind":"urban_area","id":30851498},"arcs":[77]},{"type":"MultiLineString","properties":{"kind":"major_road","network":"e-road","sort_rank":381,"kind_detail":"trunk","source":"openstreetmap.org","min_zoom":8.0,"shield_text":"50","ref":"\u041c-12"},"arcs":[[78],[79],[80],[81],[82],[83],[84]]},{"type":"LineString","properties":{"kind":"ferry","name":"\u041c\u0430\u0440\u0448\u0440\u0443\u0442 \u0442\u0435\u043f\u043b\u043e\u0445\u043e\u0434\u0456\u0432","sort_rank":355,"landuse_kind":"urban_area","source":"openstreetmap.org","min_zoom":8.0,"name:ru":"\u041c\u0430\u0440\u0448\u0440\u0443\u0442 \u0442\u0435\u043f\u043b\u043e\u0445\u043e\u0434\u043e\u0432","id":298294865},"arcs":[85]},{"type":"LineString","properties":{"kind":"major_road","network":"ua:regional","sort_rank":380,"kind_detail":"primary","source":"openstreetmap.org","min_zoom":8.0,"landuse_kind":"residential","shield_text":"48","ref":"\u0420-48"},"arcs":[86]},{"type":"LineString","properties":{"kind":"major_road","name:en":"Lvivske Road","network":"ua:international","sort_rank":381,"kind_detail":"trunk","source":"openstreetmap.org","min_zoom":8.0,"shield_text":"09","name:ru":"\u041b\u044c\u0432\u043e\u0432\u0441\u043a\u043e\u0435 \u0448\u043e\u0441\u0441\u0435","ref":"\u041c-09"},"arcs":[87]},{"type":"MultiLineString","properties":{"kind":"major_road","network":"ua:regional","sort_rank":380,"kind_detail":"primary","source":"openstreetmap.org","min_zoom":8.0,"shield_text":"43","ref":"\u0420-43"},"arcs":[[88],[89]]},{"type":"LineString","properties":{"kind":"major_road","name:en":"Ternopilska Street","network":"e-road","sort_rank":381,"kind_detail":"trunk","is_bicycle_related":true,"source":"openstreetmap.org","min_zoom":8.0,"shield_text":"50","name:ru":"\u0422\u0435\u0440\u043d\u043e\u043f\u043e\u043b\u044c\u0441\u043a\u0430\u044f \u0443\u043b\u0438\u0446\u0430","ref":"\u041c-12"},"arcs":[90]},{"type":"MultiLineString","properties":{"sort_rank":380,"kind_detail":"primary","min_zoom":8.0,"kind":"major_road","source":"openstreetmap.org"},"arcs":[[91],[92]]},{"type":"LineString","properties":{"kind":"major_road","name:en":"Peremohy Square","sort_rank":380,"kind_detail":"primary","old_name":"\u041f\u0435\u0440\u0435\u043c\u043e\u0433\u0438 \u043f\u043b\u043e\u0449\u0430","bus_network":"\u0422\u0435\u0440\u043d\u043e\u043f\u0456\u043b\u044c\u0441\u044c\u043a\u0438\u0439 \u0430\u0432\u0442\u043e\u0431\u0443\u0441","source":"openstreetmap.org","min_zoom":8.0,"bus_shield_text":"1","name:ru":"\u041f\u043e\u0431\u0435\u0434\u044b \u043f\u043b\u043e\u0449\u0430\u0434\u044c","landuse_kind":"urban_area","id":241189131},"arcs":[93]},{"type":"LineString","properties":{"bus_network":"\u0422\u0435\u0440\u043d\u043e\u043f\u0456\u043b\u044c\u0441\u044c\u043a\u0438\u0439 \u0442\u0440\u043e\u043b\u0435\u0439\u0431\u0443\u0441","min_zoom":8.0,"bus_shield_text":"5","name:ru":"15 \u0410\u043f\u0440\u0435\u043b\u044f \u0443\u043b\u0438\u0446\u0430","name:pl":"15 kwietnia ulica","id":390672901,"kind":"major_road","name:en":"15 Kvitnia Street","network":"e-road","sort_rank":381,"kind_detail":"trunk","source":"openstreetmap.org","landuse_kind":"urban_area","shield_text":"85","name:be":"15 \u041a\u0440\u0430\u0441\u0430\u0432\u0456\u043a\u0430 \u0432\u0443\u043b\u0456\u0446\u0430","ref":"\u041c-19"},"arcs":[94]},{"type":"MultiLineString","properties":{"alt_name:be":"\u0421\u0446\u044f\u043f\u0430\u043d\u0430 \u0411\u0443\u0434\u043d\u0430\u0433\u0430 \u0432\u0443\u043b\u0456\u0446\u0430","alt_name:en":"Stepana Budnoho Street","official_name":"\u0421. \u0411\u0443\u0434\u043d\u043e\u0433\u043e \u0432\u0443\u043b\u0438\u0446\u044f","min_zoom":8.0,"old_name":"\u041e\u043a\u0440\u0443\u0436\u043d\u0430 \u0432\u0443\u043b\u0438\u0446\u044f","name:ru":"\u0411\u0443\u0434\u043d\u043e\u0433\u043e \u0443\u043b\u0438\u0446\u0430","alt_name:ru":"\u0421\u0442\u0435\u043f\u0430\u043d\u0430 \u0411\u0443\u0434\u043d\u043e\u0433\u043e \u0443\u043b\u0438\u0446\u0430","kind":"major_road","name:en":"Budnoho Street","network":"e-road","sort_rank":381,"kind_detail":"trunk","source":"openstreetmap.org","alt_name:uk":"\u0421\u0442\u0435\u043f\u0430\u043d\u0430 \u0411\u0443\u0434\u043d\u043e\u0433\u043e \u0432\u0443\u043b\u0438\u0446\u044f","shield_text":"50","ref":"\u041c-12"},"arcs":[[95],[96]]},{"type":"LineString","properties":{"kind":"major_road","name:en":"Hrushevskoho Street","sort_rank":380,"kind_detail":"primary","official_name":"\u041c. \u0413\u0440\u0443\u0448\u0435\u0432\u0441\u044c\u043a\u043e\u0433\u043e \u0432\u0443\u043b\u0438\u0446\u044f","source":"openstreetmap.org","min_zoom":8.0,"old_name":"\u041a\u0438\u0457\u0432\u0441\u044c\u043a\u0430 \u0432\u0443\u043b\u0438\u0446\u044f; \u0428\u0435\u0432\u0447\u0435\u043d\u043a\u0430 \u0432\u0443\u043b\u0438\u0446\u044f","name:ru":"\u0413\u0440\u0443\u0448\u0435\u0432\u0441\u043a\u043e\u0433\u043e \u0443\u043b\u0438\u0446\u0430","landuse_kind":"urban_area","id":306588535},"arcs":[97]},{"type":"LineString","properties":{"kind":"major_road","network":"ua:regional","sort_rank":380,"kind_detail":"primary","source":"openstreetmap.org","min_zoom":8.0,"shield_text":"39","name:ru":"\u0413\u0430\u0433\u0430\u0440\u0438\u043d\u0430 \u0443\u043b\u0438\u0446\u0430","ref":"\u0420-39","id":392689870},"arcs":[98]},{"type":"LineString","properties":{"kind":"major_road","name:en":"Lesi Ukrainky Street","network":"e-road","sort_rank":381,"kind_detail":"trunk","source":"openstreetmap.org","min_zoom":8.0,"name:be":"\u041b\u0435\u0441\u0456 \u0423\u043a\u0440\u0430\u0456\u043d\u043a\u0456 \u0432\u0443\u043b\u0456\u0446\u0430","shield_text":"85","name:ru":"\u041b\u0435\u0441\u0438 \u0423\u043a\u0440\u0430\u0438\u043d\u043a\u0438 \u0443\u043b\u0438\u0446\u0430","ref":"\u041c-19"},"arcs":[99]},{"type":"LineString","properties":{"kind":"major_road","network":"e-road","sort_rank":381,"kind_detail":"trunk","source":"openstreetmap.org","min_zoom":8.0,"shield_text":"85","ref":"\u041c-12;\u041c-19","id":131407571},"arcs":[100]},{"type":"LineString","properties":{"kind":"major_road","name:en":"Obizna Street","network":"e-road","sort_rank":381,"kind_detail":"trunk","source":"openstreetmap.org","min_zoom":8.0,"shield_text":"50","name:ru":"\u041e\u0431\u044a\u0435\u0437\u0434\u043d\u0430\u044f \u0443\u043b\u0438\u0446\u0430","ref":"\u041c-12;\u041c-19","id":104745231},"arcs":[101]},{"type":"MultiLineString","properties":{"kind":"major_road","name:en":"Mykulynetska Street","network":"e-road","sort_rank":381,"kind_detail":"trunk","source":"openstreetmap.org","min_zoom":8.0,"old_name":"\u0413\u0435\u043d\u0435\u0440\u0430\u043b\u0430 \u041b\u044e\u0434\u043d\u0438\u043a\u043e\u0432\u0430 \u0432\u0443\u043b\u0438\u0446\u044f","shield_text":"85","name:ru":"\u041c\u0438\u043a\u0443\u043b\u0438\u043d\u0435\u0446\u043a\u0430\u044f \u0443\u043b\u0438\u0446\u0430","ref":"\u041c-19"},"arcs":[[102],[103],[104]]},{"type":"LineString","properties":{"bus_network":"\u0422\u0435\u0440\u043d\u043e\u043f\u0456\u043b\u044c\u0441\u044c\u043a\u0438\u0439 \u0442\u0440\u043e\u043b\u0435\u0439\u0431\u0443\u0441","old_name":"\u0425\u043c\u0435\u043b\u044c\u043d\u0438\u0446\u044c\u043a\u0430 \u0432\u0443\u043b\u0438\u0446\u044f","official_name":"\u0422. \u041f\u0440\u043e\u0442\u0430\u0441\u0435\u0432\u0438\u0447\u0430 \u0432\u0443\u043b\u0438\u0446\u044f","min_zoom":8.0,"bus_shield_text":"1","name:ru":"\u041f\u0440\u043e\u0442\u0430\u0441\u0435\u0432\u0438\u0447\u0430 \u0443\u043b\u0438\u0446\u0430","id":390157897,"kind":"major_road","name:en":"Protasevycha Street","network":"e-road","sort_rank":381,"kind_detail":"trunk","source":"openstreetmap.org","landuse_kind":"urban_area","shield_text":"50","name:be":"\u041f\u0440\u0430\u0442\u0430\u0441\u0435\u0432\u0456\u0447\u0430 \u0432\u0443\u043b\u0456\u0446\u0430","ref":"\u041c-12;\u041c-19"},"arcs":[105]},{"type":"LineString","properties":{"kind":"major_road","sort_rank":380,"kind_detail":"primary","bus_network":"\u0422\u0435\u0440\u043d\u043e\u043f\u0456\u043b\u044c\u0441\u044c\u043a\u0438\u0439 \u0442\u0440\u043e\u043b\u0435\u0439\u0431\u0443\u0441","source":"openstreetmap.org","min_zoom":8.0,"bus_shield_text":"1","landuse_kind":"urban_area","id":104894308},"arcs":[106]},{"type":"LineString","properties":{"kind":"major_road","name:en":"Knyazya Vasylka Street","network":"e-road","sort_rank":381,"kind_detail":"trunk","source":"openstreetmap.org","min_zoom":8.0,"shield_text":"85","name:ru":"\u041a\u043d\u044f\u0437\u044f \u0412\u0430\u0441\u0438\u043b\u044c\u043a\u0430 \u0443\u043b\u0438\u0446\u0430","ref":"\u041c-19"},"arcs":[107]},{"type":"MultiLineString","properties":{"kind":"major_road","network":"e-road","sort_rank":381,"kind_detail":"trunk","source":"openstreetmap.org","min_zoom":8.0,"shield_text":"85","ref":"\u041c-19;\u0421201439"},"arcs":[[108],[109],[110],[111],[112],[113],[114]]},{"type":"LineString","properties":{"kind":"major_road","network":"ua:regional","sort_rank":380,"kind_detail":"primary","source":"openstreetmap.org","min_zoom":8.0,"shield_text":"48","name:ru":"\u0426\u0435\u043d\u0442\u0440\u0430\u043b\u044c\u043d\u0430\u044f \u0443\u043b\u0438\u0446\u0430","ref":"\u0420-48","id":261011148},"arcs":[115]},{"type":"LineString","properties":{"kind":"major_road","network":"ua:regional","sort_rank":380,"kind_detail":"primary","source":"openstreetmap.org","min_zoom":8.0,"landuse_kind":"urban_area","shield_text":"41","ref":"\u0420-41"},"arcs":[116]},{"type":"MultiLineString","properties":{"kind":"major_road","network":"ua:national","sort_rank":380,"kind_detail":"primary","source":"openstreetmap.org","min_zoom":8.0,"shield_text":"18","ref":"\u041d-18"},"arcs":[[117],[118],[119],[120],[121],[122]]},{"type":"LineString","properties":{"kind":"major_road","name:en":"Tychyny Street","network":"ua:regional","sort_rank":380,"kind_detail":"primary","source":"openstreetmap.org","min_zoom":8.0,"shield_text":"50","name:ru":"\u0422\u044b\u0447\u0438\u043d\u044b \u0443\u043b\u0438\u0446\u0430","ref":"\u0420-50","id":190647505},"arcs":[123]},{"type":"LineString","properties":{"kind":"major_road","network":"ua:regional","sort_rank":380,"kind_detail":"primary","source":"openstreetmap.org","min_zoom":8.0,"shield_text":"41","ref":"\u0420-41"},"arcs":[124]},{"type":"LineString","properties":{"bus_network":"\u0422\u0435\u0440\u043d\u043e\u043f\u0456\u043b\u044c\u0441\u044c\u043a\u0438\u0439 \u0442\u0440\u043e\u043b\u0435\u0439\u0431\u0443\u0441","name:en":"Berezhanska Street","sort_rank":380,"kind_detail":"primary","bus_shield_text":"2","kind":"major_road","source":"openstreetmap.org","min_zoom":8.0,"old_name":"\u0417\u0430\u0433\u0440\u0435\u0431\u0435\u043b\u043b\u044f \u0432\u0443\u043b\u0438\u0446\u044f","name:ru":"\u0411\u0435\u0440\u0435\u0436\u0430\u043d\u0441\u043a\u0430\u044f \u0443\u043b\u0438\u0446\u0430","name:be":"\u0411\u0435\u0440\u0435\u0436\u0430\u043d\u0441\u043a\u0430\u044f \u0432\u0443\u043b\u0456\u0446\u0430","landuse_kind":"urban_area"},"arcs":[125]},{"type":"LineString","properties":{"kind":"major_road","name:en":"Stepana Bandery Street","network":"e-road","sort_rank":381,"kind_detail":"trunk","source":"openstreetmap.org","min_zoom":8.0,"name:ru":"\u0421\u0442\u0435\u043f\u0430\u043d\u0430 \u0411\u0430\u043d\u0434\u0435\u0440\u044b \u0443\u043b\u0438\u0446\u0430","shield_text":"50","name:be":"\u0421\u0446\u044f\u043f\u0430\u043d\u0430 \u0411\u0430\u043d\u0434\u044d\u0440\u044b \u0432\u0443\u043b\u0456\u0446\u0430","ref":"\u041c-12"},"arcs":[126]},{"type":"LineString","properties":{"bus_network":"\u0422\u0435\u0440\u043d\u043e\u043f\u0456\u043b\u044c\u0441\u044c\u043a\u0438\u0439 \u0430\u0432\u0442\u043e\u0431\u0443\u0441","name:en":"Stepana Bandery Avenue","short_name":"\u0411\u0430\u043d\u0434\u0435\u0440\u0438 \u043f\u0440\u043e\u0441\u043f\u0435\u043a\u0442","sort_rank":380,"kind_detail":"primary","old_name":"\u041b\u0435\u043d\u0456\u043d\u0430 \u0432\u0443\u043b\u0438\u0446\u044f","kind":"major_road","source":"openstreetmap.org","min_zoom":8.0,"bus_shield_text":"1","name:ru":"\u0421\u0442\u0435\u043f\u0430\u043d\u0430 \u0411\u0430\u043d\u0434\u0435\u0440\u044b \u043f\u0440\u043e\u0441\u043f\u0435\u043a\u0442","name:be":"\u0421\u0446\u044f\u043f\u0430\u043d\u0430 \u0411\u0430\u043d\u0434\u044d\u0440\u044b \u043f\u0440\u0430\u0441\u043f\u0435\u043a\u0442","landuse_kind":"urban_area"},"arcs":[127]},{"type":"LineString","properties":{"kind":"major_road","name:en":"Bohdana Khmelnytskoho Street","short_name":"\u0425\u043c\u0435\u043b\u044c\u043d\u0438\u0446\u044c\u043a\u043e\u0433\u043e \u0432\u0443\u043b\u0438\u0446\u044f","sort_rank":380,"kind_detail":"primary","bus_network":"\u0422\u0435\u0440\u043d\u043e\u043f\u0456\u043b\u044c\u0441\u044c\u043a\u0438\u0439 \u0442\u0440\u043e\u043b\u0435\u0439\u0431\u0443\u0441","official_name":"\u0411. \u0425\u043c\u0435\u043b\u044c\u043d\u0438\u0446\u044c\u043a\u043e\u0433\u043e \u0432\u0443\u043b\u0438\u0446\u044f","source":"openstreetmap.org","min_zoom":8.0,"bus_shield_text":"8","name:ru":"\u0411\u043e\u0433\u0434\u0430\u043d\u0430 \u0425\u043c\u0435\u043b\u044c\u043d\u0438\u0446\u043a\u043e\u0433\u043e \u0443\u043b\u0438\u0446\u0430","landuse_kind":"urban_area","id":390617683},"arcs":[128]},{"type":"LineString","properties":{"bus_network":"\u0422\u0435\u0440\u043d\u043e\u043f\u0456\u043b\u044c\u0441\u044c\u043a\u0438\u0439 \u0442\u0440\u043e\u043b\u0435\u0439\u0431\u0443\u0441","name:en":"Mykulynetska Street","network":"e-road","sort_rank":381,"kind_detail":"trunk","kind":"major_road","name:de":"Mykulynetska Stra\u00dfe","source":"openstreetmap.org","min_zoom":8.0,"bus_shield_text":"8","shield_text":"85","name:ru":"\u041c\u0438\u043a\u0443\u043b\u0438\u043d\u0435\u0446\u043a\u0430\u044f \u0443\u043b\u0438\u0446\u0430","ref":"\u041c-19","id":230087170},"arcs":[129]},{"type":"LineString","properties":{"kind":"major_road","name:en":"Mykulynetska Street","network":"e-road","sort_rank":381,"kind_detail":"trunk","source":"openstreetmap.org","min_zoom":8.0,"shield_text":"85","name:ru":"\u041c\u0438\u043a\u0443\u043b\u0438\u043d\u0435\u0446\u043a\u0430\u044f \u0443\u043b\u0438\u0446\u0430","ref":"\u041c-19","id":390887594},"arcs":[130]},{"type":"LineString","properties":{"bus_network":"\u0422\u0435\u0440\u043d\u043e\u043f\u0456\u043b\u044c\u0441\u044c\u043a\u0438\u0439 \u0430\u0432\u0442\u043e\u0431\u0443\u0441","name:en":"Maksyma Kryvonosa Street","short_name":"\u041a\u0440\u0438\u0432\u043e\u043d\u043e\u0441\u0430 \u0432\u0443\u043b\u0438\u0446\u044f","sort_rank":380,"kind_detail":"primary","bus_shield_text":"1","kind":"major_road","source":"openstreetmap.org","min_zoom":8.0,"old_name":"\u041c\u0430\u043a\u0441\u0438\u043c\u0435\u043d\u043a\u0430 \u0432\u0443\u043b\u0438\u0446\u044f","name:ru":"\u041c\u0430\u043a\u0441\u0438\u043c\u0430 \u041a\u0440\u0438\u0432\u043e\u043d\u043e\u0441\u0430 \u0443\u043b\u0438\u0446\u0430","name:be":"\u041c\u0430\u043a\u0441\u0456\u043c\u0430 \u041a\u0440\u044b\u0432\u0430\u043d\u043e\u0441\u0430 \u0432\u0443\u043b\u0456\u0446\u0430","landuse_kind":"urban_area"},"arcs":[131]},{"type":"LineString","properties":{"kind":"major_road","name:en":"Prosvity Street","network":"ua:regional","sort_rank":380,"kind_detail":"primary","source":"openstreetmap.org","min_zoom":8.0,"shield_text":"43","name:ru":"\u041f\u0440\u043e\u0441\u0432\u0435\u0449\u0435\u043d\u0438\u044f \u0443\u043b\u0438\u0446\u0430","ref":"\u0420-43","id":50421881},"arcs":[132]},{"type":"LineString","properties":{"bus_network":"\u0422\u0435\u0440\u043d\u043e\u043f\u0456\u043b\u044c\u0441\u044c\u043a\u0438\u0439 \u0442\u0440\u043e\u043b\u0435\u0439\u0431\u0443\u0441","bus_shield_text":"5","official_name":"\u0422. \u041f\u0440\u043e\u0442\u0430\u0441\u0435\u0432\u0438\u0447\u0430 \u0432\u0443\u043b\u0438\u0446\u044f","min_zoom":8.0,"old_name":"\u0425\u043c\u0435\u043b\u044c\u043d\u0438\u0446\u044c\u043a\u0430 \u0432\u0443\u043b\u0438\u0446\u044f","name:ru":"\u041f\u0440\u043e\u0442\u0430\u0441\u0435\u0432\u0438\u0447\u0430 \u0443\u043b\u0438\u0446\u0430","id":232075615,"kind":"major_road","name:en":"Protasevycha Street","network":"e-road","sort_rank":381,"kind_detail":"trunk","source":"openstreetmap.org","shield_text":"50","name:be":"\u041f\u0440\u0430\u0442\u0430\u0441\u0435\u0432\u0456\u0447\u0430 \u0432\u0443\u043b\u0456\u0446\u0430","ref":"\u041c-12;\u041c-19"},"arcs":[133]},{"type":"LineString","properties":{"kind":"major_road","name:en":"Kopychynetska Street","network":"e-road","sort_rank":381,"kind_detail":"trunk","source":"openstreetmap.org","min_zoom":8.0,"shield_text":"85","ref":"\u041c-19"},"arcs":[134]},{"type":"LineString","properties":{"kind":"major_road","network":"e-road","sort_rank":381,"landuse_kind":"urban_area","source":"openstreetmap.org","min_zoom":8.0,"kind_detail":"trunk","shield_text":"50","ref":"\u041c-12"},"arcs":[135]},{"type":"LineString","properties":{"kind":"major_road","name:en":"Pidvolochyske Road","network":"e-road","sort_rank":381,"kind_detail":"trunk","source":"openstreetmap.org","min_zoom":8.0,"shield_text":"50","name:ru":"\u041f\u043e\u0434\u0432\u043e\u043b\u043e\u0447\u0438\u0441\u043a\u043e\u0435 \u0448\u043e\u0441\u0441\u0435","ref":"\u041c-12"},"arcs":[136]},{"type":"LineString","properties":{"kind":"major_road","name:en":"Zamkova Street","sort_rank":380,"kind_detail":"primary","source":"openstreetmap.org","min_zoom":8.0,"old_name":"\u0421\u0443\u0432\u043e\u0440\u043e\u0432\u0430 \u0432\u0443\u043b\u0438\u0446\u044f","name:ru":"\u0417\u0430\u043c\u043a\u043e\u0432\u0430\u044f \u0443\u043b\u0438\u0446\u0430","name:be":"\u0417\u0430\u043c\u043a\u0430\u0432\u0430\u044f \u0432\u0443\u043b\u0456\u0446\u0430","landuse_kind":"urban_area","id":171453140},"arcs":[137]},{"type":"LineString","properties":{"kind":"major_road","name:en":"Peremohy Square","sort_rank":380,"kind_detail":"primary","source":"openstreetmap.org","min_zoom":8.0,"old_name":"\u041f\u0435\u0440\u0435\u043c\u043e\u0433\u0438 \u043f\u043b\u043e\u0449\u0430","name:ru":"\u041f\u043e\u0431\u0435\u0434\u044b \u043f\u043b\u043e\u0449\u0430\u0434\u044c","landuse_kind":"urban_area"},"arcs":[138]},{"type":"LineString","properties":{"kind":"major_road","name:en":"15 Kvitnia Street","network":"e-road","sort_rank":381,"kind_detail":"trunk","source":"openstreetmap.org","min_zoom":8.0,"name:ru":"15 \u0410\u043f\u0440\u0435\u043b\u044f \u0443\u043b\u0438\u0446\u0430","shield_text":"85","name:be":"15 \u041a\u0440\u0430\u0441\u0430\u0432\u0456\u043a\u0430 \u0432\u0443\u043b\u0456\u0446\u0430","name:pl":"15 kwietnia ulica","landuse_kind":"urban_area","ref":"\u041c-19","id":30841743},"arcs":[139]},{"type":"LineString","properties":{"kind":"major_road","network":"ua:international","sort_rank":381,"kind_detail":"trunk","source":"openstreetmap.org","min_zoom":8.0,"shield_text":"12","ref":"\u041c-12"},"arcs":[140]},{"type":"LineString","properties":{"kind":"major_road","name:en":"Berezhanska Street","sort_rank":381,"kind_detail":"trunk","source":"openstreetmap.org","min_zoom":8.0,"old_name":"\u0417\u0430\u0433\u0440\u0435\u0431\u0435\u043b\u043b\u044f \u0432\u0443\u043b\u0438\u0446\u044f","name:ru":"\u0411\u0435\u0440\u0435\u0436\u0430\u043d\u0441\u043a\u0430\u044f \u0443\u043b\u0438\u0446\u0430","name:be":"\u0411\u0435\u0440\u0435\u0436\u0430\u043d\u0441\u043a\u0430\u044f \u0432\u0443\u043b\u0456\u0446\u0430","ref":"\u041c-12","id":482505535},"arcs":[141]},{"type":"LineString","properties":{"kind":"major_road","name:en":"Stepana Bandery Street","network":"e-road","short_name":"\u0421\u0442\u0435\u043f\u0430\u043d\u0430 \u0432\u0443\u043b\u0438\u0446\u044f","sort_rank":381,"kind_detail":"trunk","source":"openstreetmap.org","min_zoom":8.0,"name:be":"\u0421\u0446\u044f\u043f\u0430\u043d\u0430 \u0411\u0430\u043d\u0434\u044d\u0440\u044b \u0432\u0443\u043b\u0456\u0446\u0430","shield_text":"50","name:ru":"\u0421\u0442\u0435\u043f\u0430\u043d\u0430 \u0411\u0430\u043d\u0434\u0435\u0440\u044b \u0443\u043b\u0438\u0446\u0430","ref":"\u041c-12","id":292705290},"arcs":[142]},{"type":"LineString","properties":{"kind":"major_road","name:en":"Shlyuznyy Bridge","sort_rank":380,"kind_detail":"primary","bus_network":"\u0422\u0435\u0440\u043d\u043e\u043f\u0456\u043b\u044c\u0441\u044c\u043a\u0438\u0439 \u0430\u0432\u0442\u043e\u0431\u0443\u0441","source":"openstreetmap.org","min_zoom":8.0,"bus_shield_text":"1","name:ru":"\u0428\u043b\u044e\u0437\u043d\u044b\u0439 \u043c\u043e\u0441\u0442","landuse_kind":"urban_area","id":56757447},"arcs":[143]},{"type":"LineString","properties":{"bus_network":"\u0422\u0435\u0440\u043d\u043e\u043f\u0456\u043b\u044c\u0441\u044c\u043a\u0438\u0439 \u0430\u0432\u0442\u043e\u0431\u0443\u0441","network":"e-road","sort_rank":381,"kind_detail":"trunk","kind":"major_road","source":"openstreetmap.org","min_zoom":8.0,"bus_shield_text":"1","shield_text":"50","landuse_kind":"urban_area","ref":"\u041c-12;\u041c-19"},"arcs":[144]},{"type":"LineString","properties":{"kind":"major_road","network":"ua:international","sort_rank":381,"kind_detail":"trunk","source":"openstreetmap.org","min_zoom":8.0,"shield_text":"09","ref":"\u041c-09"},"arcs":[145]},{"type":"LineString","properties":{"kind":"major_road","sort_rank":381,"kind_detail":"trunk","bus_network":"\u0422\u0435\u0440\u043d\u043e\u043f\u0456\u043b\u044c\u0441\u044c\u043a\u0438\u0439 \u0442\u0440\u043e\u043b\u0435\u0439\u0431\u0443\u0441","source":"openstreetmap.org","min_zoom":8.0,"bus_shield_text":"6","landuse_kind":"urban_area","id":231532431},"arcs":[146]},{"type":"LineString","properties":{"kind":"major_road","network":"e-road","sort_rank":381,"kind_detail":"trunk","bus_network":"\u0422\u0435\u0440\u043d\u043e\u043f\u0456\u043b\u044c\u0441\u044c\u043a\u0438\u0439 \u0442\u0440\u043e\u043b\u0435\u0439\u0431\u0443\u0441","source":"openstreetmap.org","min_zoom":8.0,"bus_shield_text":"1","shield_text":"50","landuse_kind":"urban_area","ref":"\u041c-12","id":233654795},"arcs":[147]},{"type":"LineString","properties":{"bus_network":"\u0422\u0435\u0440\u043d\u043e\u043f\u0456\u043b\u044c\u0441\u044c\u043a\u0438\u0439 \u0430\u0432\u0442\u043e\u0431\u0443\u0441","name:en":"Ruska Street","sort_rank":380,"kind_detail":"primary","bus_shield_text":"1","kind":"major_road","source":"openstreetmap.org","min_zoom":8.0,"old_name":"\u041b\u0435\u043d\u0456\u043d\u0430 \u0432\u0443\u043b\u0438\u0446\u044f","name:ru":"\u0420\u0443\u0441\u0441\u043a\u0430\u044f \u0443\u043b\u0438\u0446\u0430","name:be":"\u0420\u0443\u0441\u043a\u0430\u044f \u0432\u0443\u043b\u0456\u0446\u0430","landuse_kind":"urban_area"},"arcs":[148]},{"type":"MultiLineString","properties":{"kind":"major_road","network":"ua:regional","sort_rank":380,"kind_detail":"primary","source":"openstreetmap.org","min_zoom":8.0,"shield_text":"39","ref":"\u0420-39"},"arcs":[[149],[150],[151]]},{"type":"LineString","properties":{"alt_name:be":"\u0421\u0446\u044f\u043f\u0430\u043d\u0430 \u0411\u0443\u0434\u043d\u0430\u0433\u0430 \u0432\u0443\u043b\u0456\u0446\u0430","alt_name:en":"Stepana Budnoho Street","official_name":"\u0421. \u0411\u0443\u0434\u043d\u043e\u0433\u043e \u0432\u0443\u043b\u0438\u0446\u044f","min_zoom":8.0,"old_name":"\u041e\u043a\u0440\u0443\u0436\u043d\u0430 \u0432\u0443\u043b\u0438\u0446\u044f","name:ru":"\u0411\u0443\u0434\u043d\u043e\u0433\u043e \u0443\u043b\u0438\u0446\u0430","alt_name:ru":"\u0421\u0442\u0435\u043f\u0430\u043d\u0430 \u0411\u0443\u0434\u043d\u043e\u0433\u043e \u0443\u043b\u0438\u0446\u0430","kind":"major_road","name:en":"Budnoho Street","network":"e-road","sort_rank":381,"kind_detail":"trunk","source":"openstreetmap.org","alt_name:uk":"\u0421\u0442\u0435\u043f\u0430\u043d\u0430 \u0411\u0443\u0434\u043d\u043e\u0433\u043e \u0432\u0443\u043b\u0438\u0446\u044f","landuse_kind":"urban_area","shield_text":"50","ref":"\u041c-12"},"arcs":[152]},{"type":"MultiLineString","properties":{"bus_network":"\u0422\u0435\u0440\u043d\u043e\u043f\u0456\u043b\u044c\u0441\u044c\u043a\u0438\u0439 \u0442\u0440\u043e\u043b\u0435\u0439\u0431\u0443\u0441","name:en":"Mykulynetska Street","network":"e-road","sort_rank":381,"kind_detail":"trunk","kind":"major_road","source":"openstreetmap.org","min_zoom":8.0,"bus_shield_text":"8","shield_text":"85","name:ru":"\u041c\u0438\u043a\u0443\u043b\u0438\u043d\u0435\u0446\u043a\u0430\u044f \u0443\u043b\u0438\u0446\u0430","ref":"\u041c-19"},"arcs":[[153],[154]]},{"type":"LineString","properties":{"kind":"major_road","name:en":"Sahaydachnoho Street","network":"ua:regional","sort_rank":380,"kind_detail":"primary","source":"openstreetmap.org","min_zoom":8.0,"name:ru":"\u0421\u0430\u0433\u0430\u0439\u0434\u0430\u0447\u043d\u043e\u0433\u043e \u0443\u043b\u0438\u0446\u0430","shield_text":"39","name:be":"\u0421\u0430\u0433\u0430\u0439\u0434\u0430\u043a\u0430\u0432\u0430\u0433\u0430 \u0432\u0443\u043b\u0456\u0446\u0430","landuse_kind":"urban_area","ref":"\u0420-39"},"arcs":[155]},{"type":"LineString","properties":{"kind":"major_road","network":"e-road","sort_rank":381,"kind_detail":"trunk","source":"openstreetmap.org","min_zoom":8.0,"landuse_kind":"urban_area","shield_text":"85","ref":"\u041c-19","id":37119140},"arcs":[156]},{"type":"LineString","properties":{"kind":"major_road","name:en":"Tsentralna Street","network":"ua:regional","sort_rank":380,"kind_detail":"primary","source":"openstreetmap.org","min_zoom":8.0,"shield_text":"48","name:ru":"\u0426\u0435\u043d\u0442\u0440\u0430\u043b\u044c\u043d\u0430\u044f \u0443\u043b\u0438\u0446\u0430","ref":"\u0420-48","id":256625808},"arcs":[157]},{"type":"LineString","properties":{"kind":"major_road","network":"ua:regional","sort_rank":380,"kind_detail":"primary","source":"openstreetmap.org","min_zoom":8.0,"shield_text":"50","ref":"\u0420-50; \u0422-23-02"},"arcs":[158]},{"type":"LineString","properties":{"kind":"major_road","name:en":"Zelena Street","network":"e-road","sort_rank":381,"kind_detail":"trunk","source":"openstreetmap.org","min_zoom":8.0,"shield_text":"50","name:ru":"\u0417\u0435\u043b\u0451\u043d\u0430\u044f \u0443\u043b\u0438\u0446\u0430","ref":"\u041c-12"},"arcs":[159]},{"type":"LineString","properties":{"kind":"major_road","network":"e-road","sort_rank":381,"kind_detail":"trunk","source":"openstreetmap.org","min_zoom":8.0,"shield_text":"50","ref":"\u041c-12;\u041c-19","id":78240673},"arcs":[160]},{"type":"LineString","properties":{"bus_network":"\u0422\u0435\u0440\u043d\u043e\u043f\u0456\u043b\u044c\u0441\u044c\u043a\u0438\u0439 \u0442\u0440\u043e\u043b\u0435\u0439\u0431\u0443\u0441","name:en":"Zbarazka Street","sort_rank":380,"kind_detail":"primary","kind":"major_road","source":"openstreetmap.org","min_zoom":8.0,"bus_shield_text":"3","name:ru":"\u0417\u0431\u0430\u0440\u0430\u0436\u0441\u043a\u0430\u044f \u0443\u043b\u0438\u0446\u0430","name:be":"\u0417\u0431\u0430\u0440\u0430\u0436\u0441\u043a\u0430\u044f \u0432\u0443\u043b\u0456\u0446\u0430","landuse_kind":"urban_area"},"arcs":[161]},{"type":"LineString","properties":{"kind":"major_road","name:en":"Krushelnytskoi Street","sort_rank":380,"kind_detail":"primary","bus_shield_text":"8","bus_network":"\u0422\u0435\u0440\u043d\u043e\u043f\u0456\u043b\u044c\u0441\u044c\u043a\u0438\u0439 \u0442\u0440\u043e\u043b\u0435\u0439\u0431\u0443\u0441","official_name":"\u0421. \u041a\u0440\u0443\u0448\u0435\u043b\u044c\u043d\u0438\u0446\u044c\u043a\u043e\u0457 \u0432\u0443\u043b\u0438\u0446\u044f","source":"openstreetmap.org","min_zoom":8.0,"old_name":"\u0421\u0435\u043d\u043a\u0435\u0432\u0438\u0447\u0430 \u0432\u0443\u043b\u0438\u0446\u044f","name:ru":"\u041a\u0440\u0443\u0448\u0435\u043b\u044c\u043d\u0438\u0446\u043a\u043e\u0439 \u0443\u043b\u0438\u0446\u0430","name:be":"\u041a\u0440\u0443\u0448\u044d\u043b\u044c\u043d\u0456\u0446\u043a\u0430\u0439 \u0432\u0443\u043b\u0456\u0446\u0430","landuse_kind":"urban_area","id":390887592},"arcs":[162]},{"type":"LineString","properties":{"bus_network":"\u0422\u0435\u0440\u043d\u043e\u043f\u0456\u043b\u044c\u0441\u044c\u043a\u0438\u0439 \u0430\u0432\u0442\u043e\u0431\u0443\u0441","old_name":"\u0425\u043c\u0435\u043b\u044c\u043d\u0438\u0446\u044c\u043a\u0430 \u0432\u0443\u043b\u0438\u0446\u044f","official_name":"\u0422. \u041f\u0440\u043e\u0442\u0430\u0441\u0435\u0432\u0438\u0447\u0430 \u0432\u0443\u043b\u0438\u0446\u044f","min_zoom":8.0,"bus_shield_text":"1","name:ru":"\u041f\u0440\u043e\u0442\u0430\u0441\u0435\u0432\u0438\u0447\u0430 \u0443\u043b\u0438\u0446\u0430","id":232075616,"kind":"major_road","name:en":"Protasevycha Street","network":"e-road","sort_rank":381,"kind_detail":"trunk","source":"openstreetmap.org","landuse_kind":"urban_area","shield_text":"50","name:be":"\u041f\u0440\u0430\u0442\u0430\u0441\u0435\u0432\u0456\u0447\u0430 \u0432\u0443\u043b\u0456\u0446\u0430","ref":"\u041c-12;\u041c-19"},"arcs":[163]},{"type":"LineString","properties":{"kind":"major_road","name:en":"Krushelnytskoi Street","sort_rank":380,"kind_detail":"primary","bus_shield_text":"3","bus_network":"\u0422\u0435\u0440\u043d\u043e\u043f\u0456\u043b\u044c\u0441\u044c\u043a\u0438\u0439 \u0442\u0440\u043e\u043b\u0435\u0439\u0431\u0443\u0441","official_name":"\u0421. \u041a\u0440\u0443\u0448\u0435\u043b\u044c\u043d\u0438\u0446\u044c\u043a\u043e\u0457 \u0432\u0443\u043b\u0438\u0446\u044f","source":"openstreetmap.org","min_zoom":8.0,"old_name":"\u0421\u0435\u043d\u043a\u0435\u0432\u0438\u0447\u0430 \u0432\u0443\u043b\u0438\u0446\u044f","name:ru":"\u041a\u0440\u0443\u0448\u0435\u043b\u044c\u043d\u0438\u0446\u043a\u043e\u0439 \u0443\u043b\u0438\u0446\u0430","name:be":"\u041a\u0440\u0443\u0448\u044d\u043b\u044c\u043d\u0456\u0446\u043a\u0430\u0439 \u0432\u0443\u043b\u0456\u0446\u0430","landuse_kind":"urban_area","id":30992774},"arcs":[164]}]},"earth":{"type":"GeometryCollection","geometries":[{"type":"Polygon","properties":{"sort_rank":10,"source":"naturalearthdata.com","min_zoom":0.0,"kind":"earth","area":98022885885},"arcs":[[165]]}]},"landuse":{"type":"GeometryCollection","geometries":[{"type":"MultiPolygon","properties":{"source":"openstreetmap.org","kind":"residential","tier":2,"area":98450841,"sort_rank":20,"min_zoom":8.0,"osm_relation":true},"arcs":[[[166]]]},{"type":"Polygon","properties":{"kind":"residential","name":"\u0406\u0432\u0430\u043d\u043a\u0456\u0432\u0446\u0456","area":11121700,"sort_rank":20,"source":"openstreetmap.org","min_zoom":8.0,"tier":2,"name:ru":"\u0418\u0432\u0430\u043d\u043a\u043e\u0432\u0446\u044b","id":169039046},"arcs":[[167]]},{"type":"Polygon","properties":{"kind":"nature_reserve","protect_class":"1","area":145422000,"sort_rank":23,"source":"openstreetmap.org","min_zoom":7.0,"tier":2,"id":-2071964,"osm_relation":true},"arcs":[[168]]},{"type":"MultiPolygon","properties":{"source":"naturalearthdata.com","kind":"urban_area","name":"","area":651047257,"sort_rank":11,"min_zoom":4.0},"arcs":[[[169]]]},{"type":"Polygon","properties":{"kind":"protected_area","natural":"wood","protect_class":"1","area":58495800,"sort_rank":17,"source":"openstreetmap.org","min_zoom":8.0,"tier":2,"id":152826339},"arcs":[[170]]},{"type":"Polygon","properties":{"kind":"nature_reserve","protect_class":"1","area":58495800,"sort_rank":23,"source":"openstreetmap.org","min_zoom":8.0,"tier":2,"id":-2071964,"osm_relation":true},"arcs":[[171]]},{"type":"MultiPolygon","properties":{"source":"openstreetmap.org","kind":"residential","tier":2,"area":123166474,"sort_rank":20,"min_zoom":8.0},"arcs":[[[172]]]},{"type":"Polygon","properties":{"kind":"nature_reserve","protect_class":"4","area":43212600,"sort_rank":23,"source":"openstreetmap.org","min_zoom":8.0,"tier":2,"id":-3566494,"osm_relation":true},"arcs":[[173]]},{"type":"Polygon","properties":{"kind":"residential","name:en":"Burjakivka","name":"\u0411\u0443\u0440\u044f\u043a\u0456\u0432\u043a\u0430","area":13233700,"sort_rank":20,"source":"openstreetmap.org","min_zoom":8.0,"tier":2,"id":-3166708,"osm_relation":true},"arcs":[[174]]}]}},"type":"Topology","transform":{"translate":[25.3125,48.9224992638],"scale":[0.0003433228,0.0002235066]},"arcs":[[[2546,4096],[4,-43],[88,-86],[33,-98],[-12,-32],[45,-20],[8,-136],[-86,-44],[-68,-95],[147,-92],[80,-111],[11,-53],[-37,-15],[9,-71],[-27,-21],[-65,15],[-17,-58],[-76,-66],[44,-83],[-21,-59],[35,-115],[-47,-22],[-3,36],[-33,11],[-44,-34],[-97,-178],[133,-127],[3,-118],[33,-70],[-20,-40],[49,-57],[16,16],[39,-59],[-13,-20],[31,-12],[-16,-78],[-30,-21],[74,-41],[-38,-50],[34,-19],[0,-29],[-42,13],[-9,-100],[69,-71],[-10,-53],[39,-48],[-32,-14],[25,-43],[-46,1],[49,-59],[-49,-43],[10,-43],[-123,0],[14,-54],[-25,-23],[8,-32],[-32,1],[16,-36],[-38,-74],[38,-63],[-19,-45],[42,-12],[-41,-48],[26,-54],[-12,-44],[31,-16],[-29,-16],[27,-128],[-37,-104],[68,-23],[-93,-71],[71,-92],[-29,-50],[49,-56],[0,-47],[-65,9],[-48,-37],[26,-31],[77,-15],[-22,-41],[-56,13],[-22,-27],[13,-33],[77,-40],[-40,-103],[11,-49]],[[839,2851],[-7,-3]],[[716,2838],[20,-23]],[[3437,2994],[16,31]],[[959,2789],[-14,4]],[[940,2796],[-1,-2]],[[942,2796],[-1,4]],[[757,2813],[-15,-2]],[[941,2800],[13,31]],[[941,2800],[-1,-4]],[[920,2739],[4,5]],[[920,2739],[-2,-2],[1,0],[1,2]],[[200,3933],[54,-38]],[[834,2854],[-50,97]],[[834,2854],[1,-5]],[[836,2850],[-2,4]],[[681,2797],[-21,-10]],[[783,2980],[14,57]],[[700,2804],[-11,-4]],[[689,2799],[10,4]],[[748,2788],[19,-20]],[[656,2785],[10,4]],[[678,2797],[-5,11]],[[933,2771],[1,2]],[[758,2812],[-1,1]],[[785,2810],[-22,3]],[[937,2796],[2,-2]],[[757,2813],[1,-1]],[[832,2847],[4,-33]],[[2618,1402],[107,16],[-9,69]],[[2747,1484],[150,6],[224,-103],[81,-12],[184,-129],[225,-66]],[[3682,1156],[0,-1]],[[3684,1158],[-2,-2]],[[3682,1155],[1,1],[-1,0]],[[3683,1155],[1,3]],[[4096,1231],[-47,13],[-352,-66],[-13,-20]],[[689,2800],[-8,-3]],[[682,2796],[7,3]],[[940,2790],[2,3]],[[940,2796]],[[943,2795],[-1,1]],[[2716,1487],[31,-3]],[[885,2514],[0,-15],[-6,-28],[-5,-44]],[[874,2427],[-2,-21]],[[872,2406],[-1,-6],[127,-289]],[[1006,2120],[-89,204],[-45,82]],[[872,2406],[-1,1],[3,20]],[[874,2427],[6,44],[5,28],[1,15]],[[1004,2897],[91,110],[40,294],[86,139],[50,656]],[[1011,1923],[69,-27],[-13,-42],[23,-82]],[[1139,1655],[176,-210],[358,-551],[31,-149],[-158,-276]],[[1328,360],[-69,-258],[-26,-12],[-1,-90]],[[1328,363],[0,-3]],[[1328,360],[1,3]],[[1330,363],[2,-1]],[[1332,362],[-2,2]],[[1510,405],[-37,-180],[-52,17],[-89,120]],[[1330,364],[-2,1],[0,-1],[1,-1],[1,1]],[[1983,2786],[-78,3]],[[2282,2711],[-134,40]],[[2976,444],[-7,123],[25,89],[-17,196],[-85,174],[2,333],[-147,125],[32,44],[-28,30],[155,307],[59,70],[56,178],[155,210],[103,214],[11,124],[50,38],[98,160],[-1,135]],[[2997,346],[1,-9]],[[3010,260],[31,-38],[19,-222]],[[3324,3548],[-145,150],[1,363],[47,35]],[[3453,3025],[41,67],[-61,100],[32,181],[-57,75],[-4,82]],[[689,2849],[27,-11]],[[757,2813],[1,-1]],[[758,2812],[0,1]],[[831,2847]],[[1527,436],[-17,-31]],[[942,2793],[1,2]],[[1094,1705],[45,-50]],[[832,2847],[-19,-11]],[[813,2836],[-2,-1]],[[811,2834],[21,13]],[[813,2837],[0,-1]],[[813,2836]],[[767,2765],[0,3]],[[0,2556],[78,25],[237,-33],[105,38],[44,85],[85,62]],[[649,2781],[7,4]],[[690,2782],[-12,15]],[[848,2727],[-10,7]],[[1116,2736],[-39,13]],[[1905,2789],[-112,-21],[-167,34],[-456,-80]],[[4096,2112],[-126,9],[-32,37],[-46,-21],[-24,35],[-76,19],[-60,52],[-25,66],[-103,29],[-65,94],[-502,214],[-171,43],[-377,-64],[-207,86]],[[798,2822],[-45,64],[-15,11],[-1,-4],[61,-71]],[[3404,3530],[-80,18]],[[673,2808],[-12,53],[-196,77],[-196,131]],[[1128,3150],[99,3],[88,35],[18,61]],[[1527,3337],[190,181],[118,201],[69,61],[81,11],[122,87],[119,155],[4,63]],[[2148,2751],[-165,35]],[[661,2861],[28,-12]],[[3605,1179],[10,-3]],[[742,2811],[-5,0]],[[954,2831],[13,21]],[[690,2782],[13,-5]],[[831,2738],[7,-4]],[[811,2835],[0,-4]],[[667,3333],[2,83],[26,40],[-17,25]],[[936,2011],[75,-88]],[[858,2719],[1,-1]],[[859,2718],[59,19]],[[881,2565],[-18,48]],[[881,2565],[4,-51]],[[886,2514],[-5,51]],[[934,2773],[0,2]],[[940,2796],[-3,0]],[[1090,1772],[4,-67]],[[918,2046],[1,-2]],[[919,2044],[0,3]],[[919,2044],[17,-33]],[[922,2050],[-3,0]],[[919,2050],[-3,0],[0,-3],[3,0],[0,3]],[[920,2048],[2,2]],[[922,2050],[84,70]],[[2998,337],[12,-77]],[[986,2882],[-90,102]],[[287,725],[-130,39],[-121,-82],[-36,-1]],[[294,726],[-7,-1]],[[287,725],[3,-2]],[[292,722],[2,4]],[[294,726],[14,95],[-68,115],[82,206],[115,154],[175,317],[359,356]],[[292,724],[-1,1],[-1,-2],[1,-1],[1,2]],[[3681,1156],[-35,-15]],[[546,2906],[63,102],[74,45],[156,-25],[57,-44]],[[737,2811],[-38,-8]],[[1170,2722],[-30,7]],[[937,2796],[-93,18]],[[832,2847]],[[862,2617],[-11,97]],[[863,2613],[0,1]],[[737,2811],[11,-23]],[[1333,3249],[57,-5],[52,78],[85,15]],[[924,2744],[9,27]],[[1546,469],[-19,-33]],[[942,2793],[1,2]],[[1077,2749],[-118,40]],[[811,2831],[-5,-21]],[[737,2811],[-1,4]],[[967,2852],[19,30]],[[838,2734],[20,-15]],[[666,2789],[16,7]],[[1140,2729],[-24,7]],[[763,2813],[-2,0]],[[939,2794],[1,-4]],[[269,3069],[-197,87],[-72,1]],[[940,2794],[2,-1]],[[942,2796],[-2,0]],[[844,2814],[-59,-4]],[[200,3933],[-46,145],[-18,18]],[[678,3481],[-24,82],[-149,97],[-121,149],[-130,86]],[[797,3037],[-124,197],[-6,99]],[[703,2777],[128,-39]],[[850,2729],[1,-15]],[[863,2614],[-1,3]],[[784,2951],[-1,29]],[[986,2882],[18,15]],[[2976,444],[21,-98]],[[3611,1180],[35,-39]],[[549,2733],[100,48]],[[859,2718],[-11,9]],[[833,2847],[29,16]],[[832,2848],[0,-1]],[[934,2775],[6,15]],[[832,2847],[1,0]],[[4096,0],[-4096,0],[0,4096],[4096,0],[0,-4096]],[[3291,477],[33,-12],[31,40],[6,-32],[63,-38],[34,19],[-2,-33],[-20,5],[16,-17],[-125,-22],[35,33],[-71,57]],[[2661,1187],[7,73],[102,-35],[-27,-83],[-26,44],[-56,1]],[[2340,1307],[6,25],[65,-18],[-2,55],[33,-13],[-4,40],[-30,14],[8,47],[-26,13],[20,-1],[7,57],[48,-14],[-10,145],[41,0],[17,-37],[25,-1],[-17,-39],[36,-17],[3,39],[36,-23],[25,-22],[-18,-44],[66,-30],[-73,-37],[8,-58],[-29,-19],[18,-26],[-35,-15],[13,-30],[-35,-81],[37,-58],[-20,-40],[42,-17],[-39,-48],[5,-44],[-61,59],[-102,13],[-23,32],[34,8],[-24,57],[32,10],[-56,34],[6,59],[-27,25]],[[890,2741],[-109,-5],[-92,48],[0,150],[68,42],[94,15],[95,-15],[67,-42],[-33,-130],[-90,-63]],[[2247,1944],[55,32],[2,-50],[31,9],[-7,51],[-66,3],[13,116],[16,-26],[47,3],[-33,50],[67,-47],[-5,-88],[45,-39],[-28,-41],[19,-53],[74,-3],[0,21],[26,-20],[-10,-48],[-22,-5],[1,-83],[-40,-1],[-3,57],[-22,-14],[-5,-145],[-35,26],[17,78],[-21,97],[-23,27],[12,-35],[-33,9],[16,38],[-22,53],[-39,-3],[-27,31]],[[2247,1944],[55,32],[2,-50],[31,9],[-7,51],[-66,3],[13,116],[16,-26],[47,3],[-33,50],[67,-47],[-5,-88],[45,-39],[-28,-41],[19,-53],[74,-3],[0,21],[26,-20],[-10,-48],[-22,-5],[1,-83],[-40,-1],[-3,57],[-22,-14],[-5,-145],[-35,26],[17,78],[-21,97],[-23,27],[12,-35],[-33,9],[16,38],[-22,53],[-39,-3],[-27,31]],[[3288,3511],[37,39],[-21,21],[60,-8],[1,53],[87,-72],[-28,-11],[-7,22],[-28,-55],[-101,11]],[[1473,115],[84,-21],[13,49],[42,-11],[75,-132],[-152,43],[-62,72]],[[733,0],[22,38],[64,-34],[0,-4],[-86,0]]]}