{"objects":{"water":{"type":"GeometryCollection","geometries":[]},"buildings":{"type":"GeometryCollection","geometries":[]},"places":{"type":"GeometryCollection","geometries":[{"type":"Point","properties":{"name:pt":"Bucareste","name:ps":"\u0628\u062e\u0627\u0631\u0633\u062a","name:ka":"\u10d1\u10e3\u10e5\u10d0\u10e0\u10d4\u10e1\u10e2\u10d8","name:ko":"\ubd80\ucfe0\ub808\uc288\ud2f0","name:cv":"\u0411\u0443\u0445\u0430\u0440\u0435\u0441\u0442","name:cs":"Bukure\u0161\u0165","name:co":"Bucarest","name:kv":"\u0411\u0443\u0445\u0430\u0440\u0435\u0441\u0442","name:ku":"B\u00fbkare\u015ft","name:tr":"Bukres","name:tl":"Bucharest","name:sv":"Bukarest","name:os":"\u0411\u0443\u0445\u0430\u0440\u0435\u0441\u0442","name:pl":"Bukareszt","name:ta":"\u0baa\u0bc1\u0b95\u0bcd\u0b95\u0bb0\u0bc6\u0bb8\u0bcd\u0b9f\u0bcd","name:tg":"\u0411\u0443\u0445\u0430\u0440\u0435\u0441\u0442","name:ca":"Bucarest","name:vi":"Bucharest","name:hu":"Bukarest","name:cy":"Bucure\u015fti","name:ln":"Bukaresti","name:da":"Bukarest","name:de":"Bukarest","source":"openstreetmap.org","name:kn":"\u0cac\u0cc1\u0c95\u0cc1\u0cb0\u0cc6\u0cb6\u0ccd\u0ca4\u0cbf","admin_level":"2","name:lv":"Bukareste","name:lt":"Bukare\u0161tas","name:hi":"\u092c\u0941\u0916\u093e\u0930\u0947\u0938\u094d\u091f","name:kk":"\u0411\u0443\u0445\u0430\u0440\u0435\u0441\u0442","name:he":"\u05d1\u05d5\u05e7\u05e8\u05e9\u05d8","min_zoom":8.0,"kind":"locality","name:ur":"\u0628\u062e\u0627\u0631\u0633\u0679","name:la":"Bucaresta","name:uk":"\u0411\u0443\u0445\u0430\u0440\u0435\u0441\u0442","name:hy":"\u0532\u0578\u0582\u056d\u0561\u0580\u0565\u057d\u057f","country_capital":true,"name:ug":"\u0628\u06c7\u062e\u0627\u0631\u06d0\u0633\u062a","name:li":"Boekares","name:hr":"Bukure\u0161t","name:oc":"Bucar\u00e8st","population":1883425,"name:el":"\u0392\u03bf\u03c5\u03ba\u03bf\u03c5\u03c1\u03ad\u03c3\u03c4\u03b9","name:eo":"Bukare\u015dto","name:en":"Bucharest","name":"Bucure\u0219ti","name:ee":"Bucharest","name:th":"\u0e1a\u0e39\u0e04\u0e32\u0e40\u0e23\u0e2a\u0e15\u0e4c","name:yi":"\u05d1\u05d5\u05e7\u05d0\u05e8\u05e2\u05e9\u05d8","name:et":"Bukarest","name:nl":"Boekarest","name:es":"Bucarest","name:ia":"Bucarest","name:rm":"Bucarest","name:az":"Buxarest","name:ie":"Bucarest","name:id":"Bukares","name:ms":"Bucharest","name:mr":"\u092c\u0941\u0916\u093e\u0930\u0947\u0938\u094d\u091f","name:ar":"\u0628\u0648\u062e\u0627\u0631\u0633\u062a","name:my":"\u1017\u1030\u1038\u1001\u101b\u1000\u103a\u1019\u103c\u102d\u102f\u1037","name:io":"Bucarest","name:is":"B\u00fakarest","name:am":"\u1261\u12ab\u1228\u1235\u1275","name:it":"Bucarest","name:an":"Bucarest","name:ru":"\u0411\u0443\u0445\u0430\u0440\u0435\u0441\u0442","name:mi":"Bucharest","id":96209423,"name:mk":"\u0411\u0443\u043a\u0443\u0440\u0435\u0448\u0442","name:af":"Boekarest","name:fa":"\u0628\u062e\u0627\u0631\u0633\u062a","kind_detail":"city","name:zh-min-nan":"Bucharest","name:fr":"Bucarest","name:fy":"B\u00fbkarest","name:vo":"Bucure\u015fti","name:zh":"\u5e03\u52a0\u52d2\u65af\u7279","name:gv":"Bucharest","name:sl":"Bukare\u0161ta","name:sk":"Bukure\u0161\u0165","name:ja":"\u30d6\u30ab\u30ec\u30b9\u30c8","name:nn":"Bucure\u015fti","name:sh":"Bukure\u0161t","name:qu":"Bukuresti","name:na":"Bucuresti","name:ne":"\u092c\u0941\u0916\u093e\u0930\u0947\u0938\u094d\u091f","name:bs":"Bukure\u0161t","name:bn":"\u09ac\u09c1\u0996\u09be\u09b0\u09c7\u09b8\u09cd\u099f","name:bo":"\u0f54\u0f74\u0f0b\u0f41\u0f0b\u0f62\u0f7a\u0f0b\u0f66\u0f72\u0f51\u0f0d","name:ml":"\u0d2c\u0d41\u0d15\u0d4d\u0d15\u0d3e\u0d31\u0d46\u0d38\u0d4d\u0d31\u0d4d\u0d31\u0d4d","name:be":"\u0411\u0443\u0445\u0430\u0440\u044d\u0441\u0442","name:bg":"\u0411\u0443\u043a\u0443\u0440\u0435\u0449","name:sr":"\u0411\u0443\u043a\u0443\u0440\u0435\u0448\u0442","name:sq":"Bukureshti","name:ga":"B\u00facairist","name:gd":"Bucharest","name:ht":"Boukar\u00e8s","name:jv":"Bukar\u00e8s","name:gl":"Bucarest - Bucure\u015fti","name:yo":"Bucharest","name:fi":"Bukarest"},"coordinates":[2302,1426]},{"type":"Point","properties":{"admin_level":"4","kind":"locality","name":"Ploie\u0219ti","kind_detail":"city","name:sr":"\u041f\u043b\u043e\u0435\u0448\u0442\u0438","source":"openstreetmap.org","min_zoom":8.0,"name:uk":"\u041f\u043b\u043e\u0454\u0448\u0442\u0456","name:ru":"\u041f\u043b\u043e\u0435\u0448\u0442\u0438","id":60018211,"population":209945},"coordinates":[2071,3494]},{"type":"Point","properties":{"admin_level":"4","kind":"locality","name":"T\u00e2rgovi\u0219te","name:lt":"Tirgovi\u0161t\u0117","kind_detail":"city","name:he":"\u05d8\u05e8\u05d2\u05d5\u05d1\u05d9\u05e9\u05d8\u05d4","name:de":"Tergowisch","source":"openstreetmap.org","min_zoom":8.0,"name:sr":"\u0422\u0440\u0433\u043e\u0432\u0438\u0448\u0442\u0435","name:uk":"\u0422\u0438\u0440\u0433\u043e\u0432\u0456\u0448\u0442\u0435","name:ru":"\u0422\u044b\u0440\u0433\u043e\u0432\u0438\u0448\u0442\u0435","name:hu":"Tergovistye","id":116851075,"population":79610},"coordinates":[438,3432]},{"type":"Point","properties":{"kind":"locality","name":"Voluntari","kind_detail":"town","source":"openstreetmap.org","min_zoom":8.0,"name:uk":"\u0412\u043e\u043b\u0443\u043d\u0442\u0430\u0440\u0456","id":257093517,"population":27945},"coordinates":[2519,1647]},{"type":"Point","properties":{"kind":"locality","name":"Olteni\u021ba","name:lt":"Oltenica","kind_detail":"town","source":"openstreetmap.org","min_zoom":8.0,"id":2029839403,"population":24822},"coordinates":[3869,12]},{"type":"Point","properties":{"kind":"locality","name":"Moreni","name:lt":"Morenis","kind_detail":"town","source":"openstreetmap.org","min_zoom":8.0,"name:uk":"\u041c\u043e\u0440\u0435\u043d\u044c","name:ru":"\u041c\u043e\u0440\u0435\u043d\u0438","id":140171278,"population":22886},"coordinates":[970,3663]},{"type":"Point","properties":{"source":"openstreetmap.org","kind":"locality","name":"Pope\u0219ti-Leordeni","kind_detail":"town","population":21895,"min_zoom":8.0,"id":2042613630},"coordinates":[2491,1194]},{"type":"Point","properties":{"kind":"locality","name":"Urziceni","name:lt":"Urzi\u010denis","kind_detail":"city","name:he":"\u05d0\u05d5\u05e8\u05d6\u05d9\u05e6'\u05df","name:sr":"\u0423\u0440\u0437\u0438\u0447\u0435\u043d\u0438","source":"openstreetmap.org","min_zoom":8.0,"name:uk":"\u0423\u0440\u0437\u0456\u0447\u0435\u043d\u044c","name:ru":"\u0423\u0440\u0437\u0438\u0447\u0435\u043d\u0438","id":130443201,"population":19303},"coordinates":[3845,2574]},{"type":"Point","properties":{"kind":"locality","name:en":"Gaesti","name":"G\u0103e\u0219ti","kind_detail":"town","source":"openstreetmap.org","min_zoom":8.0,"name:uk":"\u0413\u0435\u0454\u0448\u0442\u044c","name:ru":"\u0413\u044d\u0435\u0448\u0442\u0438","id":140174166,"population":18566},"coordinates":[20,2590]},{"type":"Point","properties":{"name:el":"\u039c\u03c0\u03bf\u03cd\u03c6\u03c4\u03b5\u03b1","kind":"locality","name":"Buftea","kind_detail":"town","source":"openstreetmap.org","min_zoom":8.0,"name:uk":"\u0411\u0443\u0444\u0442\u044f","name:ru":"\u0411\u0443\u0444\u0442\u044f","id":255591401,"population":17257},"coordinates":[1856,1932]},{"type":"Point","properties":{"kind":"locality","name":"Mizil","kind_detail":"town","source":"openstreetmap.org","min_zoom":8.0,"name:uk":"\u041c\u0456\u0437\u0456\u043b","name:ru":"\u041c\u0438\u0437\u0438\u043b","id":62273235,"population":16566},"coordinates":[3295,3744]},{"type":"Point","properties":{"kind":"locality","name":"Pantelimon","kind_detail":"town","source":"openstreetmap.org","min_zoom":8.0,"name:uk":"\u041f\u0430\u043d\u0442\u0435\u043b\u0456\u043c\u043e\u043d","id":138067316,"population":14456},"coordinates":[2595,1490]},{"type":"Point","properties":{"kind":"locality","name":"Pucioasa","kind_detail":"town","source":"openstreetmap.org","min_zoom":8.0,"name:uk":"\u041f\u0443\u0447\u043e\u0430\u0441\u0430","id":140176331,"population":13152},"coordinates":[355,4043]},{"type":"Point","properties":{"kind":"locality","name":"Videle","kind_detail":"town","source":"openstreetmap.org","min_zoom":8.0,"name:uk":"\u0412\u0456\u0434\u0435\u043b\u0435","id":140162461,"population":12509},"coordinates":[623,782]},{"type":"Point","properties":{"kind":"locality","name":"B\u0103icoi","name:lt":"Beikojus","kind_detail":"town","source":"openstreetmap.org","min_zoom":8.0,"name:uk":"\u0411\u0435\u0439\u043a\u043e\u0439","id":60710651,"population":11767},"coordinates":[1603,3869]},{"type":"Point","properties":{"source":"openstreetmap.org","kind":"locality","name":"Chitila","kind_detail":"town","population":10866,"min_zoom":8.0,"id":138062116},"coordinates":[1967,1711]},{"type":"Point","properties":{"kind":"locality","name":"Bolde\u0219ti-Sc\u0103eni","kind_detail":"town","source":"openstreetmap.org","min_zoom":8.0,"name:uk":"\u0411\u043e\u043b\u0434\u0435\u0448\u0442\u044c-\u0421\u043a\u0435\u0454\u043d\u044c","id":132683655,"population":10627},"coordinates":[2093,3862]},{"type":"Point","properties":{"source":"openstreetmap.org","kind":"locality","name":"Plopeni","kind_detail":"town","population":10284,"min_zoom":8.0,"id":463181287},"coordinates":[1866,3933]},{"type":"Point","properties":{"kind":"locality","name":"Otopeni","name:lt":"Otopenis","kind_detail":"town","name:he":"\u05d0\u05d5\u05d8\u05d5\u05e4\u05df","source":"openstreetmap.org","min_zoom":8.0,"name:uk":"\u041e\u0442\u043e\u043f\u0435\u043d\u044c","id":462219330,"population":9846},"coordinates":[2215,1895]},{"type":"Point","properties":{"kind":"locality","name":"Urla\u021bi","name:lt":"Urlacis","kind_detail":"town","source":"openstreetmap.org","min_zoom":8.0,"name:uk":"\u0423\u0440\u043b\u0430\u0446\u044c","id":160475656,"population":8397},"coordinates":[2680,3699]},{"type":"Point","properties":{"kind":"locality","name":"Titu","kind_detail":"town","source":"openstreetmap.org","min_zoom":8.0,"name:uk":"\u0422\u0456\u0442\u0443","id":140179209,"population":7528},"coordinates":[761,2351]},{"type":"Point","properties":{"kind":"locality","name":"Bolintin-Vale","kind_detail":"town","source":"openstreetmap.org","min_zoom":8.0,"name:bg":"\u0411\u043e\u043b\u0456\u043d\u0442\u0456\u043d-\u0412\u0430\u043b\u0435","id":140189328,"population":7052},"coordinates":[1299,1472]},{"type":"Point","properties":{"source":"openstreetmap.org","kind":"locality","name":"Bragadiru","kind_detail":"town","population":6951,"min_zoom":8.0,"id":138060394},"coordinates":[1946,1169]},{"type":"Point","properties":{"source":"openstreetmap.org","kind":"locality","name":"Fundulea","kind_detail":"town","population":5928,"min_zoom":8.0,"id":142264008},"coordinates":[3487,1557]},{"type":"Point","properties":{"kind":"locality","name":"M\u0103gurele","kind_detail":"town","source":"openstreetmap.org","min_zoom":8.0,"name:uk":"\u041c\u0435\u0433\u0443\u0440\u0435\u043b\u0435","id":255537074,"population":5287},"coordinates":[2088,1074]},{"type":"Point","properties":{"kind":"locality","name":"Bude\u0219ti","name:lt":"Bude\u0161tis","kind_detail":"town","source":"openstreetmap.org","min_zoom":8.0,"id":280260704,"population":4386},"coordinates":[3360,598]},{"type":"Point","properties":{"kind":"locality","name":"Mih\u0103ile\u0219ti","kind_detail":"town","source":"openstreetmap.org","min_zoom":8.0,"name:uk":"\u041c\u0456\u0445\u0435\u0439\u043b\u0435\u0448\u0442\u044c","id":140191614,"population":4226},"coordinates":[1731,969]},{"type":"Point","properties":{"source":"openstreetmap.org","kind":"locality","name":"R\u0103cari","kind_detail":"town","population":2255,"min_zoom":8.0,"id":344957131},"coordinates":[1255,2199]},{"type":"Point","properties":{"kind":"locality","name":"Fierbin\u021bi-T\u00e2rg","kind_detail":"town","source":"openstreetmap.org","min_zoom":8.0,"name:uk":"\u0424'\u0454\u0440\u0431\u0456\u043d\u0446\u044c-\u0422\u0438\u0440\u0433","id":460204640,"population":1449},"coordinates":[3116,2433]}]},"transit":{"type":"GeometryCollection","geometries":[{"type":"LineString","properties":{"kind":"subway","network":"Metrorex","sort_rank":275,"colour":"#003399","name":"Magistrala 2 (Pipera - Berceni)","source":"openstreetmap.org","min_zoom":8.0,"operator":"Metrorex","ref":"M2","id":-2947113,"osm_relation":true,"colour_name":"navy"},"arcs":[7]},{"type":"LineString","properties":{"kind":"subway","network":"Metrorex","sort_rank":275,"colour":"#347c11","name":"Magistrala 4 (Gara de Nord - Parc Bazilescu)","source":"openstreetmap.org","min_zoom":8.0,"operator":"Metrorex","ref":"M4","id":-380909,"osm_relation":true,"colour_name":"green"},"arcs":[8]},{"type":"MultiLineString","properties":{"kind":"train","name":"CFR line 900","sort_rank":275,"colour":"#000000","source":"openstreetmap.org","min_zoom":6.0,"operator":"CFR","ref":"900","osm_relation":true,"colour_name":"black"},"arcs":[[9],[10],[11],[12],[13],[14],[15],[16],[17],[18],[19],[20],[21],[22],[23],[24],[25],[26],[27]]},{"type":"LineString","properties":{"kind":"subway","network":"Metrorex","sort_rank":275,"colour":"#003399","name":"Magistrala 2 (Berceni - Pipera)","source":"openstreetmap.org","min_zoom":8.0,"operator":"Metrorex","ref":"M2","id":-2947020,"osm_relation":true,"colour_name":"navy"},"arcs":[28]},{"type":"MultiLineString","properties":{"source":"openstreetmap.org","kind":"train","name":"CFR 901","sort_rank":275,"ref":"901","min_zoom":6.0,"osm_relation":true},"arcs":[[29],[30],[31]]},{"type":"LineString","properties":{"source":"openstreetmap.org","kind":"train","name":"CFR line 800","sort_rank":275,"ref":"800","min_zoom":6.0,"osm_relation":true},"arcs":[32]},{"type":"LineString","properties":{"source":"openstreetmap.org","kind":"train","name":"CFR 701","sort_rank":275,"ref":"701","min_zoom":6.0,"osm_relation":true},"arcs":[33]},{"type":"LineString","properties":{"kind":"subway","network":"Metrorex","sort_rank":275,"colour":"#BC1725","name":"Magistrala 3 (Anghel Saligny \u2014 Preciziei)","source":"openstreetmap.org","min_zoom":8.0,"operator":"Metrorex","ref":"M3","id":-7772843,"osm_relation":true,"colour_name":"brown"},"arcs":[34]},{"type":"MultiLineString","properties":{"kind":"train","name":"CFR line 300 Bucuresti - Episcopia Bihor","sort_rank":275,"source":"openstreetmap.org","min_zoom":6.0,"operator":"CFR","ref":"300","osm_relation":true},"arcs":[[35],[36],[37]]},{"type":"LineString","properties":{"kind":"subway","network":"Metrorex","sort_rank":275,"colour":"#FFFF00","name":"Magistrala 1 (Dristor \u2014 Pantelimon)","source":"openstreetmap.org","min_zoom":8.0,"operator":"Metrorex","ref":"M1","id":-7772817,"osm_relation":true,"colour_name":"yellow"},"arcs":[38]},{"type":"LineString","properties":{"kind":"subway","network":"Metrorex","sort_rank":275,"colour":"#BC1725","name":"Magistrala 3 (Preciziei - Anghel Saligny)","source":"openstreetmap.org","min_zoom":8.0,"operator":"Metrorex","ref":"M3","id":-358039,"osm_relation":true,"colour_name":"brown"},"arcs":[39]},{"type":"MultiLineString","properties":{"source":"openstreetmap.org","kind":"train","name":"Bucuresti <-> Chisnau","sort_rank":275,"ref":"Bucuresti <-> Chisnau","min_zoom":6.0,"osm_relation":true},"arcs":[[40],[41],[42],[43],[44],[45]]},{"type":"LineString","properties":{"kind":"subway","network":"Metrorex","sort_rank":275,"colour":"#FFFF00","name":"Magistrala 1 (Pantelimon - Dristor)","source":"openstreetmap.org","min_zoom":8.0,"operator":"Metrorex","ref":"M1","id":-358046,"osm_relation":true,"colour_name":"yellow"},"arcs":[46]},{"type":"MultiLineString","properties":{"source":"openstreetmap.org","kind":"train","name":"CFR 904","sort_rank":275,"ref":"904","min_zoom":6.0,"osm_relation":true},"arcs":[[47],[48],[49],[50],[51],[52],[53],[54],[55],[56],[57],[58]]},{"type":"LineString","properties":{"kind":"train","colour_name":"black","sort_rank":275,"colour":"#000000","source":"openstreetmap.org","min_zoom":6.0,"operator":"CFR","ref":"903","osm_relation":true},"arcs":[59]},{"type":"LineString","properties":{"kind":"subway","network":"Metrorex","sort_rank":275,"colour":"#347c11","name":"Magistrala 4 (Parc Bazilescu - Gara de Nord)","source":"openstreetmap.org","min_zoom":8.0,"operator":"Metrorex","ref":"M4","id":-2565649,"osm_relation":true,"colour_name":"green"},"arcs":[60]},{"type":"MultiLineString","properties":{"source":"openstreetmap.org","kind":"train","name":"CFR 700","sort_rank":275,"ref":"700","min_zoom":6.0,"osm_relation":true},"arcs":[[61],[62],[63],[64],[65],[66],[67],[68],[69],[70],[71],[72],[73],[74],[75],[76],[77],[78],[79],[80]]}]},"pois":{"type":"GeometryCollection","geometries":[]},"boundaries":{"type":"GeometryCollection","geometries":[{"type":"LineString","properties":{"name:left":"Teleorman","kind":"region","name":"Teleorman - D\u00e2mbovi\u021ba","sort_rank":256,"kind_detail":"4","id:left":-2366986,"name:right:ru":"\u0414\u044b\u043c\u0431\u043e\u0432\u0438\u0446\u0430","source":"openstreetmap.org","min_zoom":8.0,"name:left:ru":"\u0422\u0435\u043b\u0435\u043e\u0440\u043c\u0430\u043d","id:right":-2355471,"id":-2366986,"osm_relation":true,"name:right":"D\u00e2mbovi\u021ba"},"arcs":[0]},{"type":"LineString","properties":{"kind":"region","name":"Teleorman","sort_rank":256,"kind_detail":"4","source":"openstreetmap.org","min_zoom":8.0,"name:ru":"\u0422\u0435\u043b\u0435\u043e\u0440\u043c\u0430\u043d","id":-2366986,"osm_relation":true},"arcs":[1]},{"type":"LineString","properties":{"name:left":"Buz\u0103u","kind":"region","name":"Buz\u0103u - Prahova","sort_rank":256,"kind_detail":"4","id:left":-2355511,"name:right:ru":"\u041f\u0440\u0430\u0445\u043e\u0432\u0430","source":"openstreetmap.org","min_zoom":8.0,"name:left:ru":"\u0411\u0443\u0437\u044d\u0443","id:right":-2355507,"id":-2355511,"osm_relation":true,"name:right":"Prahova"},"arcs":[2]},{"type":"LineString","properties":{"kind":"region","name":"Buz\u0103u","sort_rank":256,"kind_detail":"4","source":"openstreetmap.org","min_zoom":8.0,"name:ru":"\u0411\u0443\u0437\u044d\u0443","id":-2355511,"osm_relation":true},"arcs":[3]},{"type":"LineString","properties":{"name:left":"Prahova","kind":"region","name":"Prahova - D\u00e2mbovi\u021ba","sort_rank":256,"kind_detail":"4","id:left":-2355507,"name:right:ru":"\u0414\u044b\u043c\u0431\u043e\u0432\u0438\u0446\u0430","source":"openstreetmap.org","min_zoom":8.0,"name:left:ru":"\u041f\u0440\u0430\u0445\u043e\u0432\u0430","id:right":-2355471,"id":-2355507,"osm_relation":true,"name:right":"D\u00e2mbovi\u021ba"},"arcs":[4]},{"type":"LineString","properties":{"kind":"region","name":"Prahova","sort_rank":256,"kind_detail":"4","source":"openstreetmap.org","min_zoom":8.0,"name:ru":"\u041f\u0440\u0430\u0445\u043e\u0432\u0430","id":-2355507,"osm_relation":true},"arcs":[5]},{"type":"LineString","properties":{"kind":"region","name":"D\u00e2mbovi\u021ba","sort_rank":256,"kind_detail":"4","source":"openstreetmap.org","min_zoom":8.0,"name:ru":"\u0414\u044b\u043c\u0431\u043e\u0432\u0438\u0446\u0430","id":-2355471,"osm_relation":true},"arcs":[6]}]},"roads":{"type":"GeometryCollection","geometries":[{"type":"MultiLineString","properties":{"bus_network":"RATB","network":"e-road","sort_rank":380,"kind_detail":"primary","kind":"major_road","source":"openstreetmap.org","min_zoom":8.0,"bus_shield_text":"116","shield_text":"85","landuse_kind":"residential","ref":"DN4"},"arcs":[[81],[82]]},{"type":"LineString","properties":{"kind":"major_road","network":"RO:DN","sort_rank":380,"kind_detail":"primary","bus_network":"RATB (Regia Autonoma de Transport Bucuresti Regia Autonom\u0103 de Transport Bucure\u015fti )","source":"openstreetmap.org","min_zoom":8.0,"bus_shield_text":"697","shield_text":"1A","landuse_kind":"residential","ref":"DN1A","id":99716636},"arcs":[83]},{"type":"MultiLineString","properties":{"bus_network":"RATB","sort_rank":380,"kind_detail":"primary","kind":"major_road","source":"openstreetmap.org","min_zoom":8.0,"bus_shield_text":"112","landuse_kind":"urban_area"},"arcs":[[84],[85]]},{"type":"MultiLineString","properties":{"kind":"highway","network":"A","sort_rank":383,"landuse_kind":"urban_area","source":"openstreetmap.org","min_zoom":8.0,"all_networks":["A","e-road"],"kind_detail":"motorway","shield_text":"2","ref":"A2","all_shield_texts":["2","81"]},"arcs":[[86],[87],[88],[89]]},{"type":"LineString","properties":{"bus_network":"RATB (Regia Autonoma de Transport Bucuresti Regia Autonom\u0103 de Transport Bucure\u015fti )","network":"RO:DN","sort_rank":380,"kind_detail":"primary","kind":"major_road","source":"openstreetmap.org","min_zoom":8.0,"bus_shield_text":"205","shield_text":"1A","landuse_kind":"urban_area","ref":"DN1A"},"arcs":[90]},{"type":"MultiLineString","properties":{"source":"openstreetmap.org","kind":"major_road","landuse_kind":"residential","sort_rank":380,"kind_detail":"primary","ref":"DN72A","min_zoom":8.0},"arcs":[[91],[92],[93],[94]]},{"type":"MultiLineString","properties":{"bus_network":"RATB","sort_rank":380,"kind_detail":"primary","kind":"major_road","source":"openstreetmap.org","min_zoom":8.0,"bus_shield_text":"116","landuse_kind":"residential"},"arcs":[[95],[96],[97],[98]]},{"type":"MultiLineString","properties":{"kind":"major_road","network":"e-road","sort_rank":381,"kind_detail":"trunk","source":"openstreetmap.org","min_zoom":8.0,"landuse_kind":"residential","shield_text":"85","ref":"DN2"},"arcs":[[99],[100],[101]]},{"type":"LineString","properties":{"kind":"major_road","sort_rank":380,"kind_detail":"primary","bus_network":"RATB (Regia Autonoma de Transport Bucuresti Regia Autonom\u0103 de Transport Bucure\u015fti )","source":"openstreetmap.org","min_zoom":8.0,"bus_shield_text":"246","landuse_kind":"residential","ref":"DN3","id":23580658},"arcs":[102]},{"type":"LineString","properties":{"kind":"major_road","sort_rank":380,"kind_detail":"primary","bus_network":"RATB","source":"openstreetmap.org","min_zoom":8.0,"bus_shield_text":"137","landuse_kind":"urban_area","ref":"CB","id":196520810},"arcs":[103]},{"type":"MultiLineString","properties":{"bus_network":"RATB (Regia Autonoma de Transport Bucuresti Regia Autonom\u0103 de Transport Bucure\u015fti )","sort_rank":380,"kind_detail":"primary","kind":"major_road","source":"openstreetmap.org","min_zoom":8.0,"bus_shield_text":"173","landuse_kind":"residential"},"arcs":[[104],[105],[106]]},{"type":"MultiLineString","properties":{"bus_network":"RATB (Regia Autonoma de Transport Bucuresti Regia Autonom\u0103 de Transport Bucure\u015fti )","network":"e-road","sort_rank":380,"landuse_kind":"residential","kind":"major_road","source":"openstreetmap.org","min_zoom":8.0,"bus_shield_text":"323","shield_text":"85","kind_detail":"primary","ref":"DN5"},"arcs":[[107],[108]]},{"type":"MultiLineString","properties":{"kind":"major_road","network":"RO:DN","sort_rank":380,"kind_detail":"primary","source":"openstreetmap.org","min_zoom":8.0,"landuse_kind":"urban_area","shield_text":"1A","ref":"DN1A"},"arcs":[[109],[110],[111],[112],[113],[114],[115],[116],[117]]},{"type":"LineString","properties":{"kind":"major_road","sort_rank":380,"kind_detail":"primary","bus_network":"RATB","source":"openstreetmap.org","min_zoom":8.0,"bus_shield_text":"605","landuse_kind":"urban_area","id":219735026},"arcs":[118]},{"type":"MultiLineString","properties":{"bus_network":"RATB (Regia Autonoma de Transport Bucuresti Regia Autonom\u0103 de Transport Bucure\u015fti )","network":"RO:DN","sort_rank":380,"kind_detail":"primary","kind":"major_road","source":"openstreetmap.org","min_zoom":8.0,"bus_shield_text":"304","shield_text":"1A","landuse_kind":"urban_area","ref":"DN1A"},"arcs":[[119],[120],[121],[122]]},{"type":"LineString","properties":{"source":"openstreetmap.org","kind":"major_road","sort_rank":381,"kind_detail":"trunk","ref":"DJ236","min_zoom":8.0},"arcs":[123]},{"type":"MultiLineString","properties":{"bus_network":"RATB","network":"e-road","sort_rank":380,"kind_detail":"primary","kind":"major_road","source":"openstreetmap.org","min_zoom":8.0,"bus_shield_text":"N108","shield_text":"85","landuse_kind":"residential","ref":"DN2;DN3"},"arcs":[[124],[125],[126],[127],[128]]},{"type":"MultiLineString","properties":{"kind":"major_road","network":"e-road","sort_rank":381,"kind_detail":"trunk","source":"openstreetmap.org","min_zoom":8.0,"shield_text":"70","ref":"DN5"},"arcs":[[129],[130],[131],[132],[133],[134],[135],[136],[137],[138],[139]]},{"type":"LineString","properties":{"kind":"major_road","int_name":"E60","network":"DN","sort_rank":381,"kind_detail":"trunk","source":"openstreetmap.org","min_zoom":8.0,"shield_text":"1","ref":"DN1"},"arcs":[140]},{"type":"MultiLineString","properties":{"kind":"major_road","network":"RO:DN","sort_rank":380,"kind_detail":"primary","source":"openstreetmap.org","min_zoom":8.0,"landuse_kind":"residential","shield_text":"1A","ref":"DN1A"},"arcs":[[141],[142],[143],[144],[145],[146],[147],[148],[149],[150],[151],[152],[153]]},{"type":"MultiLineString","properties":{"kind":"major_road","network":"e-road","sort_rank":380,"kind_detail":"primary","source":"openstreetmap.org","min_zoom":8.0,"shield_text":"70","ref":"CB"},"arcs":[[154],[155],[156]]},{"type":"LineString","properties":{"kind":"major_road","network":"DN","sort_rank":380,"kind_detail":"primary","bus_network":"RATB","name:de":"Triumphbogen-Platz","source":"openstreetmap.org","min_zoom":8.0,"bus_shield_text":"131","shield_text":"1","landuse_kind":"residential","ref":"DN1","id":227396567},"arcs":[157]},{"type":"MultiLineString","properties":{"kind":"highway","network":"e-road","sort_rank":383,"kind_detail":"motorway","source":"openstreetmap.org","min_zoom":8.0,"all_networks":["e-road","RO:A"],"shield_text":"81","ref":"A1","all_shield_texts":["81","1"]},"arcs":[[158],[159],[160],[161],[162],[163],[164],[165]]},{"type":"MultiLineString","properties":{"bus_network":"RATB (Regia Autonoma de Transport Bucuresti Regia Autonom\u0103 de Transport Bucure\u015fti )","sort_rank":380,"kind_detail":"primary","kind":"major_road","source":"openstreetmap.org","min_zoom":8.0,"bus_shield_text":"655","landuse_kind":"urban_area","ref":"DN3"},"arcs":[[166],[167]]},{"type":"MultiLineString","properties":{"kind":"major_road","sort_rank":380,"kind_detail":"primary","is_bicycle_related":true,"bicycle_shield_text":"EV6","bicycle_network":"icn","source":"openstreetmap.org","min_zoom":8.0,"ref":"DN41"},"arcs":[[168],[169]]},{"type":"LineString","properties":{"kind":"major_road","network":"DN","sort_rank":380,"kind_detail":"primary","source":"openstreetmap.org","min_zoom":8.0,"shield_text":"7","id":475857524},"arcs":[170]},{"type":"MultiLineString","properties":{"bus_network":"RATB","sort_rank":380,"kind_detail":"primary","kind":"major_road","source":"openstreetmap.org","min_zoom":8.0,"bus_shield_text":"126","loc_name":"R\u0103zoare","landuse_kind":"residential"},"arcs":[[171],[172]]},{"type":"MultiLineString","properties":{"kind":"major_road","network":"e-road","sort_rank":380,"kind_detail":"primary","source":"openstreetmap.org","min_zoom":8.0,"landuse_kind":"urban_area","shield_text":"60"},"arcs":[[173],[174]]},{"type":"MultiLineString","properties":{"kind":"major_road","network":"DN","sort_rank":381,"landuse_kind":"urban_area","source":"openstreetmap.org","min_zoom":8.0,"kind_detail":"trunk","shield_text":"6","ref":"DN6"},"arcs":[[175],[176],[177],[178],[179],[180],[181],[182],[183],[184],[185]]},{"type":"MultiLineString","properties":{"kind":"major_road","network":"DN","sort_rank":381,"kind_detail":"trunk","source":"openstreetmap.org","min_zoom":8.0,"landuse_kind":"residential","shield_text":"1","ref":"DN1;DN1A"},"arcs":[[186],[187],[188],[189],[190],[191],[192]]},{"type":"LineString","properties":{"bus_network":"RATB","network":"e-road","sort_rank":380,"landuse_kind":"urban_area","kind":"major_road","source":"openstreetmap.org","min_zoom":8.0,"bus_shield_text":"61","shield_text":"81","kind_detail":"primary"},"arcs":[193]},{"type":"LineString","properties":{"bus_network":"RATB (Regia Autonoma de Transport Bucuresti Regia Autonom\u0103 de Transport Bucure\u015fti )","sort_rank":380,"kind_detail":"primary","kind":"major_road","source":"openstreetmap.org","min_zoom":8.0,"bus_shield_text":"697","landuse_kind":"residential"},"arcs":[194]},{"type":"LineString","properties":{"kind":"major_road","sort_rank":380,"kind_detail":"primary","bus_network":"RATB","source":"openstreetmap.org","min_zoom":8.0,"bus_shield_text":"136","loc_name":"R\u0103zoare","landuse_kind":"residential","id":145101144},"arcs":[195]},{"type":"LineString","properties":{"kind":"major_road","network":"e-road","sort_rank":381,"kind_detail":"trunk","source":"openstreetmap.org","min_zoom":8.0,"shield_text":"60","ref":"DN2"},"arcs":[196]},{"type":"MultiLineString","properties":{"bus_network":"RATB","network":"e-road","sort_rank":380,"kind_detail":"primary","kind":"major_road","source":"openstreetmap.org","min_zoom":8.0,"bus_shield_text":"102","shield_text":"85","landuse_kind":"urban_area","ref":"DN5"},"arcs":[[197],[198]]},{"type":"MultiLineString","properties":{"kind":"major_road","network":"e-road","sort_rank":381,"landuse_kind":"urban_area","source":"openstreetmap.org","min_zoom":8.0,"kind_detail":"trunk","shield_text":"577","ref":"DN1B"},"arcs":[[199],[200],[201],[202],[203],[204],[205],[206],[207],[208],[209],[210],[211],[212],[213],[214],[215],[216],[217],[218]]},{"type":"MultiLineString","properties":{"sort_rank":380,"kind_detail":"primary","min_zoom":8.0,"kind":"major_road","source":"openstreetmap.org"},"arcs":[[219],[220],[221],[222],[223],[224],[225],[226],[227],[228],[229],[230],[231],[232]]},{"type":"MultiLineString","properties":{"source":"openstreetmap.org","kind":"major_road","sort_rank":380,"kind_detail":"primary","ref":"DN3","min_zoom":8.0},"arcs":[[233],[234],[235],[236]]},{"type":"LineString","properties":{"kind":"major_road","sort_rank":380,"kind_detail":"primary","bus_network":"RATB","source":"openstreetmap.org","min_zoom":8.0,"bus_shield_text":"282","landuse_kind":"residential","id":132515645},"arcs":[237]},{"type":"MultiLineString","properties":{"bus_network":"RATB","network":"DN","sort_rank":381,"landuse_kind":"urban_area","kind":"major_road","source":"openstreetmap.org","min_zoom":8.0,"bus_shield_text":"131","shield_text":"1","kind_detail":"trunk","ref":"DN1"},"arcs":[[238],[239]]},{"type":"MultiLineString","properties":{"bus_network":"RATB","network":"e-road","sort_rank":380,"kind_detail":"primary","kind":"major_road","source":"openstreetmap.org","min_zoom":8.0,"bus_shield_text":"N108","shield_text":"85","landuse_kind":"residential","ref":"DN2"},"arcs":[[240],[241],[242],[243],[244]]},{"type":"MultiLineString","properties":{"kind":"major_road","network":"DN","sort_rank":380,"kind_detail":"primary","source":"openstreetmap.org","min_zoom":8.0,"shield_text":"7","osm_relation":true},"arcs":[[245],[246],[247],[248],[249],[250],[251],[252],[253],[254],[255],[256],[257],[258],[259],[260]]},{"type":"LineString","properties":{"kind":"major_road","network":"e-road","sort_rank":381,"landuse_kind":"urban_area","source":"openstreetmap.org","min_zoom":8.0,"kind_detail":"trunk","shield_text":"60","ref":"DN1"},"arcs":[261]},{"type":"LineString","properties":{"kind":"major_road","sort_rank":380,"kind_detail":"primary","bus_network":"RATB","source":"openstreetmap.org","min_zoom":8.0,"bus_shield_text":"124","landuse_kind":"residential","ref":"DN4","id":116946146},"arcs":[262]},{"type":"MultiLineString","properties":{"kind":"major_road","network":"e-road","sort_rank":381,"landuse_kind":"urban_area","source":"openstreetmap.org","min_zoom":8.0,"kind_detail":"trunk","shield_text":"85","ref":"DN5"},"arcs":[[263],[264],[265]]},{"type":"LineString","properties":{"bus_network":"RATB","name:en":"Unirii Boulevard","sort_rank":380,"kind_detail":"primary","kind":"major_road","name:de":"Boulevard der Einheit","source":"openstreetmap.org","min_zoom":8.0,"bus_shield_text":"117","landuse_kind":"residential"},"arcs":[266]},{"type":"LineString","properties":{"kind":"major_road","network":"DN","sort_rank":381,"kind_detail":"trunk","source":"openstreetmap.org","min_zoom":8.0,"landuse_kind":"residential","shield_text":"6","ref":"DN6","id":231539264},"arcs":[267]},{"type":"LineString","properties":{"kind":"major_road","sort_rank":380,"kind_detail":"primary","is_bicycle_related":true,"bicycle_shield_text":"EV6","bicycle_network":"icn","source":"openstreetmap.org","min_zoom":8.0,"landuse_kind":"urban_area","ref":"DN31"},"arcs":[268]},{"type":"MultiLineString","properties":{"source":"openstreetmap.org","kind":"major_road","landuse_kind":"urban_area","sort_rank":380,"kind_detail":"primary","ref":"DN71","min_zoom":8.0},"arcs":[[269],[270],[271],[272],[273],[274],[275],[276]]},{"type":"LineString","properties":{"bus_network":"RATB","sort_rank":380,"kind_detail":"primary","kind":"major_road","source":"openstreetmap.org","min_zoom":8.0,"bus_shield_text":"122","landuse_kind":"residential","ref":"DN1;DN1A;DN7"},"arcs":[277]},{"type":"LineString","properties":{"source":"openstreetmap.org","kind":"major_road","kind_detail":"trunk","sort_rank":381,"landuse_kind":"urban_area","ref":"DN1B","min_zoom":8.0},"arcs":[278]},{"type":"LineString","properties":{"kind":"major_road","network":"DN","sort_rank":381,"kind_detail":"trunk","source":"openstreetmap.org","min_zoom":8.0,"landuse_kind":"residential","shield_text":"1","ref":"DN1"},"arcs":[279]},{"type":"LineString","properties":{"kind":"major_road","network":"e-road","sort_rank":380,"kind_detail":"primary","bus_network":"RATB","source":"openstreetmap.org","min_zoom":8.0,"bus_shield_text":"123","shield_text":"81","landuse_kind":"residential","id":87716910},"arcs":[280]},{"type":"MultiLineString","properties":{"kind":"major_road","network":"e-road","sort_rank":380,"kind_detail":"primary","source":"openstreetmap.org","min_zoom":8.0,"landuse_kind":"urban_area","shield_text":"81"},"arcs":[[281],[282],[283]]},{"type":"MultiLineString","properties":{"kind":"major_road","network":"e-road","sort_rank":380,"kind_detail":"primary","source":"openstreetmap.org","min_zoom":8.0,"landuse_kind":"residential","shield_text":"70","ref":"CB"},"arcs":[[284],[285],[286]]},{"type":"MultiLineString","properties":{"kind":"major_road","network":"e-road","sort_rank":380,"kind_detail":"primary","source":"openstreetmap.org","min_zoom":8.0,"landuse_kind":"urban_area","shield_text":"577","ref":"DN1B"},"arcs":[[287],[288],[289],[290],[291]]},{"type":"MultiLineString","properties":{"bus_network":"RATB","sort_rank":380,"kind_detail":"primary","kind":"major_road","source":"openstreetmap.org","min_zoom":8.0,"bus_shield_text":"117","landuse_kind":"residential"},"arcs":[[292],[293],[294]]},{"type":"LineString","properties":{"bus_network":null,"sort_rank":380,"kind_detail":"primary","kind":"major_road","source":"openstreetmap.org","min_zoom":8.0,"bus_shield_text":"312","landuse_kind":"residential"},"arcs":[295]},{"type":"LineString","properties":{"kind":"major_road","sort_rank":380,"kind_detail":"primary","bus_network":"RATB","source":"openstreetmap.org","min_zoom":8.0,"bus_shield_text":"143","landuse_kind":"residential","id":87436565},"arcs":[296]},{"type":"LineString","properties":{"bus_network":"RATB (Regia Autonoma de Transport Bucuresti Regia Autonom\u0103 de Transport Bucure\u015fti )","sort_rank":380,"kind_detail":"primary","kind":"major_road","source":"openstreetmap.org","min_zoom":8.0,"bus_shield_text":"223","landuse_kind":"residential"},"arcs":[297]},{"type":"MultiLineString","properties":{"kind":"major_road","network":"DN","sort_rank":381,"landuse_kind":"urban_area","source":"openstreetmap.org","min_zoom":8.0,"kind_detail":"trunk","shield_text":"1"},"arcs":[[298],[299],[300]]},{"type":"MultiLineString","properties":{"bus_network":"RATB (Regia Autonoma de Transport Bucuresti Regia Autonom\u0103 de Transport Bucure\u015fti )","sort_rank":380,"kind_detail":"primary","kind":"major_road","source":"openstreetmap.org","min_zoom":8.0,"bus_shield_text":"385","landuse_kind":"residential"},"arcs":[[301],[302]]},{"type":"MultiLineString","properties":{"kind":"major_road","network":"e-road","sort_rank":381,"landuse_kind":"urban_area","source":"openstreetmap.org","min_zoom":8.0,"kind_detail":"trunk","shield_text":"577","ref":"DN1A;DN1B"},"arcs":[[303],[304],[305],[306],[307]]},{"type":"MultiLineString","properties":{"bus_network":"RATB","network":"e-road","sort_rank":380,"kind_detail":"primary","kind":"major_road","source":"openstreetmap.org","min_zoom":8.0,"bus_shield_text":"N108","shield_text":"85","landuse_kind":"urban_area","ref":"DN2"},"arcs":[[308],[309]]},{"type":"MultiLineString","properties":{"source":"openstreetmap.org","kind":"major_road","landuse_kind":"urban_area","sort_rank":380,"kind_detail":"primary","ref":"DN72A","min_zoom":8.0},"arcs":[[310],[311],[312],[313],[314],[315],[316],[317],[318],[319],[320],[321],[322],[323],[324],[325],[326],[327],[328],[329],[330],[331],[332]]},{"type":"MultiLineString","properties":{"source":"openstreetmap.org","kind":"major_road","sort_rank":380,"kind_detail":"primary","ref":"DN71","min_zoom":8.0},"arcs":[[333],[334],[335],[336]]},{"type":"LineString","properties":{"kind":"major_road","network":"e-road","sort_rank":380,"kind_detail":"primary","is_bicycle_related":true,"source":"openstreetmap.org","min_zoom":8.0,"landuse_kind":"residential","shield_text":"81"},"arcs":[337]},{"type":"MultiLineString","properties":{"kind":"major_road","network":"e-road","sort_rank":380,"kind_detail":"primary","source":"openstreetmap.org","min_zoom":8.0,"landuse_kind":"residential","shield_text":"81"},"arcs":[[338],[339],[340],[341]]},{"type":"MultiLineString","properties":{"bus_network":"RATB","network":"e-road","sort_rank":380,"kind_detail":"primary","kind":"major_road","source":"openstreetmap.org","min_zoom":8.0,"bus_shield_text":"N122","shield_text":"81","landuse_kind":"residential"},"arcs":[[342],[343],[344]]},{"type":"MultiLineString","properties":{"bus_network":"RATB","sort_rank":380,"kind_detail":"primary","kind":"major_road","source":"openstreetmap.org","min_zoom":8.0,"bus_shield_text":"313","landuse_kind":"residential"},"arcs":[[345],[346]]},{"type":"LineString","properties":{"bus_network":"RATB","int_name":"Ferdinand The First blvd","sort_rank":380,"landuse_kind":"residential","kind":"major_road","source":"openstreetmap.org","min_zoom":8.0,"bus_shield_text":"N108","kind_detail":"primary"},"arcs":[347]},{"type":"MultiLineString","properties":{"bus_network":"RATB (Regia Autonoma de Transport Bucuresti Regia Autonom\u0103 de Transport Bucure\u015fti )","network":"DN","sort_rank":380,"kind_detail":"primary","kind":"major_road","source":"openstreetmap.org","min_zoom":8.0,"bus_shield_text":"79","shield_text":"1","landuse_kind":"residential","ref":"DN1"},"arcs":[[348],[349]]},{"type":"MultiLineString","properties":{"source":"openstreetmap.org","kind":"major_road","sort_rank":380,"kind_detail":"primary","ref":"CB","min_zoom":8.0},"arcs":[[350],[351],[352]]},{"type":"MultiLineString","properties":{"bus_network":"RATB","network":"e-road","sort_rank":380,"kind_detail":"primary","kind":"major_road","source":"openstreetmap.org","min_zoom":8.0,"bus_shield_text":"N108","shield_text":"85","landuse_kind":"residential","ref":"DN4"},"arcs":[[353],[354]]},{"type":"LineString","properties":{"kind":"major_road","network":"DN","sort_rank":380,"kind_detail":"primary","bus_network":"RATB (Regia Autonoma de Transport Bucuresti Regia Autonom\u0103 de Transport Bucure\u015fti )","source":"openstreetmap.org","min_zoom":8.0,"bus_shield_text":"300","shield_text":"1","landuse_kind":"residential","id":139713890},"arcs":[355]},{"type":"LineString","properties":{"bus_network":"RATB (Regia Autonoma de Transport Bucuresti Regia Autonom\u0103 de Transport Bucure\u015fti )","sort_rank":380,"kind_detail":"primary","kind":"major_road","source":"openstreetmap.org","min_zoom":8.0,"bus_shield_text":"205","landuse_kind":"residential"},"arcs":[356]},{"type":"MultiLineString","properties":{"bus_network":"RATB (Regia Autonoma de Transport Bucuresti Regia Autonom\u0103 de Transport Bucure\u015fti )","network":"e-road","sort_rank":380,"kind_detail":"primary","kind":"major_road","source":"openstreetmap.org","min_zoom":8.0,"bus_shield_text":"246","shield_text":"81","landuse_kind":"urban_area"},"arcs":[[357],[358]]},{"type":"MultiLineString","properties":{"kind":"major_road","network":"e-road","sort_rank":380,"kind_detail":"primary","source":"openstreetmap.org","min_zoom":8.0,"landuse_kind":"residential","shield_text":"60","ref":"CB"},"arcs":[[359],[360],[361]]},{"type":"MultiLineString","properties":{"kind":"major_road","sort_rank":380,"kind_detail":"primary","is_bicycle_related":true,"bicycle_shield_text":"EV6","bicycle_network":"icn","source":"openstreetmap.org","min_zoom":8.0,"landuse_kind":"urban_area"},"arcs":[[362],[363]]},{"type":"LineString","properties":{"kind":"major_road","name:en":"University Square","sort_rank":380,"kind_detail":"primary","bus_network":"RATB (Regia Autonoma de Transport Bucuresti Regia Autonom\u0103 de Transport Bucure\u015fti )","name:de":"Universit\u00e4tsplatz","source":"openstreetmap.org","name:fr":"Place de l'universit\u00e9","bus_shield_text":"61","min_zoom":8.0,"landuse_kind":"residential","id":28430422},"arcs":[364]},{"type":"LineString","properties":{"kind":"major_road","network":"e-road","sort_rank":381,"landuse_kind":"urban_area","source":"openstreetmap.org","min_zoom":8.0,"kind_detail":"trunk","shield_text":"60","ref":"DN2"},"arcs":[365]},{"type":"MultiLineString","properties":{"kind":"major_road","network":"DN","sort_rank":381,"kind_detail":"trunk","source":"openstreetmap.org","min_zoom":8.0,"shield_text":"6","ref":"DN6"},"arcs":[[366],[367]]},{"type":"MultiLineString","properties":{"bus_network":"RATB","network":"e-road","sort_rank":380,"kind_detail":"primary","kind":"major_road","source":"openstreetmap.org","min_zoom":8.0,"bus_shield_text":"N108","shield_text":"81","landuse_kind":"residential"},"arcs":[[368],[369],[370]]},{"type":"MultiLineString","properties":{"bus_network":"RATB","sort_rank":380,"kind_detail":"primary","kind":"major_road","source":"openstreetmap.org","min_zoom":8.0,"bus_shield_text":"126","landuse_kind":"residential"},"arcs":[[371],[372],[373],[374],[375],[376]]},{"type":"LineString","properties":{"kind":"major_road","network":"e-road","sort_rank":380,"kind_detail":"primary","is_bicycle_related":true,"source":"openstreetmap.org","min_zoom":8.0,"landuse_kind":"urban_area","shield_text":"81","id":231809808},"arcs":[377]},{"type":"LineString","properties":{"bus_network":"RATB","network":"e-road","sort_rank":380,"landuse_kind":"residential","kind":"major_road","source":"openstreetmap.org","min_zoom":8.0,"bus_shield_text":"178-back","shield_text":"81","kind_detail":"primary"},"arcs":[378]},{"type":"MultiLineString","properties":{"bus_network":"RATB","sort_rank":380,"kind_detail":"primary","kind":"major_road","source":"openstreetmap.org","min_zoom":8.0,"bus_shield_text":"126","landuse_kind":"residential","ref":"DN1;DN1A;DN7"},"arcs":[[379],[380]]},{"type":"MultiLineString","properties":{"bus_network":"RATB (Regia Autonoma de Transport Bucuresti Regia Autonom\u0103 de Transport Bucure\u015fti )","sort_rank":380,"kind_detail":"primary","kind":"major_road","source":"openstreetmap.org","min_zoom":8.0,"bus_shield_text":"655","landuse_kind":"residential","ref":"DN3"},"arcs":[[381],[382]]},{"type":"MultiLineString","properties":{"bus_network":"RATB","sort_rank":380,"kind_detail":"primary","kind":"major_road","source":"openstreetmap.org","min_zoom":8.0,"bus_shield_text":"178","landuse_kind":"residential"},"arcs":[[383],[384]]},{"type":"MultiLineString","properties":{"bus_network":"RATB","sort_rank":380,"kind_detail":"primary","kind":"major_road","source":"openstreetmap.org","min_zoom":8.0,"bus_shield_text":"135","landuse_kind":"residential"},"arcs":[[385],[386],[387],[388],[389],[390]]},{"type":"MultiLineString","properties":{"kind":"major_road","network":"DN","sort_rank":380,"kind_detail":"primary","source":"openstreetmap.org","min_zoom":8.0,"landuse_kind":"urban_area","shield_text":"7","osm_relation":true},"arcs":[[391],[392],[393],[394],[395],[396],[397],[398],[399],[400],[401],[402],[403],[404],[405],[406],[407],[408],[409],[410],[411],[412]]},{"type":"LineString","properties":{"kind":"major_road","sort_rank":380,"kind_detail":"primary","bus_network":"RATB","source":"openstreetmap.org","min_zoom":8.0,"bus_shield_text":"137","loc_name":"R\u0103zoare","landuse_kind":"residential","id":301166438},"arcs":[413]},{"type":"MultiLineString","properties":{"kind":"major_road","network":"DN","sort_rank":380,"kind_detail":"primary","source":"openstreetmap.org","min_zoom":8.0,"landuse_kind":"residential","shield_text":"6","ref":"DN6"},"arcs":[[414],[415],[416],[417],[418],[419],[420],[421],[422],[423]]},{"type":"LineString","properties":{"kind":"major_road","sort_rank":380,"kind_detail":"primary","bus_network":"RATB","source":"openstreetmap.org","min_zoom":8.0,"bus_shield_text":"178","landuse_kind":"urban_area","id":50584784},"arcs":[424]},{"type":"MultiLineString","properties":{"bus_network":"RATB","sort_rank":380,"kind_detail":"primary","kind":"major_road","source":"openstreetmap.org","min_zoom":8.0,"bus_shield_text":"182","landuse_kind":"residential"},"arcs":[[425],[426],[427],[428]]},{"type":"LineString","properties":{"kind":"major_road","sort_rank":380,"kind_detail":"primary","bus_network":"RATB (Regia Autonoma de Transport Bucuresti Regia Autonom\u0103 de Transport Bucure\u015fti )","source":"openstreetmap.org","min_zoom":8.0,"bus_shield_text":"655","landuse_kind":"urban_area","id":206112251},"arcs":[429]},{"type":"LineString","properties":{"kind":"major_road","network":"e-road","sort_rank":381,"kind_detail":"trunk","source":"openstreetmap.org","min_zoom":8.0,"shield_text":"60","ref":"DN1"},"arcs":[430]},{"type":"MultiLineString","properties":{"bus_network":"RATB","sort_rank":380,"kind_detail":"primary","kind":"major_road","source":"openstreetmap.org","min_zoom":8.0,"bus_shield_text":"122","landuse_kind":"residential"},"arcs":[[431],[432]]},{"type":"MultiLineString","properties":{"bus_network":"RATB","network":"DN","sort_rank":381,"landuse_kind":"urban_area","kind":"major_road","source":"openstreetmap.org","min_zoom":8.0,"bus_shield_text":"301","shield_text":"1","kind_detail":"trunk","ref":"DN1"},"arcs":[[433],[434]]},{"type":"LineString","properties":{"bus_network":"RATB (Regia Autonoma de Transport Bucuresti Regia Autonom\u0103 de Transport Bucure\u015fti )","network":"RO:DN","sort_rank":380,"kind_detail":"primary","kind":"major_road","source":"openstreetmap.org","min_zoom":8.0,"bus_shield_text":"205","shield_text":"1A","landuse_kind":"residential","ref":"DN1A"},"arcs":[435]},{"type":"MultiLineString","properties":{"bus_network":"RATB (Regia Autonoma de Transport Bucuresti Regia Autonom\u0103 de Transport Bucure\u015fti )","network":"DN","sort_rank":380,"kind_detail":"primary","kind":"major_road","source":"openstreetmap.org","min_zoom":8.0,"bus_shield_text":"205","shield_text":"1","landuse_kind":"residential","ref":"DN1"},"arcs":[[436],[437]]},{"type":"MultiLineString","properties":{"source":"openstreetmap.org","kind":"major_road","sort_rank":380,"kind_detail":"primary","ref":"DN61","min_zoom":8.0},"arcs":[[438],[439],[440]]},{"type":"MultiLineString","properties":{"bus_network":"RATB","sort_rank":380,"kind_detail":"primary","kind":"major_road","source":"openstreetmap.org","min_zoom":8.0,"bus_shield_text":"131","landuse_kind":"urban_area"},"arcs":[[441],[442],[443]]},{"type":"MultiLineString","properties":{"bus_network":"RATB (Regia Autonoma de Transport Bucuresti Regia Autonom\u0103 de Transport Bucure\u015fti )","sort_rank":380,"kind_detail":"primary","kind":"major_road","source":"openstreetmap.org","min_zoom":8.0,"bus_shield_text":"381","landuse_kind":"residential","ref":"DN1;DN1A;DN7"},"arcs":[[444],[445]]},{"type":"MultiLineString","properties":{"kind":"major_road","network":"e-road","sort_rank":381,"kind_detail":"trunk","source":"openstreetmap.org","min_zoom":8.0,"shield_text":"60","ref":"DN2A"},"arcs":[[446],[447],[448],[449],[450]]},{"type":"MultiLineString","properties":{"kind":"major_road","sort_rank":380,"kind_detail":"primary","is_bicycle_related":true,"bicycle_shield_text":"EV6","bicycle_network":"icn","source":"openstreetmap.org","min_zoom":8.0,"landuse_kind":"urban_area","ref":"DN41"},"arcs":[[451],[452]]},{"type":"LineString","properties":{"bus_network":"RATB","network":"DN","sort_rank":380,"kind_detail":"primary","kind":"major_road","source":"openstreetmap.org","min_zoom":8.0,"bus_shield_text":"112","shield_text":"7","landuse_kind":"urban_area","ref":"DN7"},"arcs":[453]},{"type":"MultiLineString","properties":{"bus_network":"RATB","network":"e-road","sort_rank":380,"landuse_kind":"residential","kind":"major_road","source":"openstreetmap.org","min_zoom":8.0,"bus_shield_text":"61","shield_text":"81","kind_detail":"primary"},"arcs":[[454],[455]]},{"type":"LineString","properties":{"bus_network":"RATB","sort_rank":380,"kind_detail":"primary","kind":"major_road","source":"openstreetmap.org","min_zoom":8.0,"bus_shield_text":"102","landuse_kind":"residential"},"arcs":[456]},{"type":"MultiLineString","properties":{"kind":"major_road","network":"DN","sort_rank":380,"kind_detail":"primary","source":"openstreetmap.org","min_zoom":8.0,"landuse_kind":"residential","shield_text":"1","ref":"DN1"},"arcs":[[457],[458],[459],[460]]},{"type":"LineString","properties":{"kind":"major_road","sort_rank":380,"landuse_kind":"urban_area","source":"openstreetmap.org","min_zoom":8.0,"kind_detail":"primary","ref":"DN1A","id":222244715},"arcs":[461]},{"type":"LineString","properties":{"kind":"major_road","name:en":"Unification Boulevard","network":"e-road","sort_rank":380,"kind_detail":"primary","bus_network":"RATB","name:de":"Boulevard der Einheit","source":"openstreetmap.org","min_zoom":8.0,"bus_shield_text":"104","shield_text":"81","landuse_kind":"residential","id":210831346},"arcs":[462]},{"type":"MultiLineString","properties":{"bus_network":"RATB","network":"e-road","sort_rank":380,"kind_detail":"primary","kind":"major_road","source":"openstreetmap.org","min_zoom":8.0,"bus_shield_text":"66","shield_text":"85","landuse_kind":"residential","ref":"DN2"},"arcs":[[463],[464]]},{"type":"MultiLineString","properties":{"source":"openstreetmap.org","kind":"major_road","landuse_kind":"residential","sort_rank":380,"kind_detail":"primary","ref":"CB","min_zoom":8.0},"arcs":[[465],[466],[467]]},{"type":"MultiLineString","properties":{"bus_network":"RATB","network":"e-road","sort_rank":380,"landuse_kind":"urban_area","kind":"major_road","source":"openstreetmap.org","min_zoom":8.0,"bus_shield_text":"137","shield_text":"81","kind_detail":"primary"},"arcs":[[468],[469]]},{"type":"LineString","properties":{"kind":"major_road","sort_rank":380,"kind_detail":"primary","bus_network":"RATB","source":"openstreetmap.org","min_zoom":8.0,"bus_shield_text":"125","ref":"CB","id":301806851},"arcs":[470]},{"type":"MultiLineString","properties":{"bus_network":"RATB","sort_rank":380,"kind_detail":"primary","kind":"major_road","source":"openstreetmap.org","min_zoom":8.0,"bus_shield_text":"101","landuse_kind":"residential"},"arcs":[[471],[472],[473],[474],[475],[476],[477]]},{"type":"MultiLineString","properties":{"source":"openstreetmap.org","kind":"major_road","landuse_kind":"urban_area","sort_rank":380,"kind_detail":"primary","ref":"DN4","min_zoom":8.0},"arcs":[[478],[479]]},{"type":"LineString","properties":{"bus_network":"RATB","network":"DN","sort_rank":380,"kind_detail":"primary","kind":"major_road","source":"openstreetmap.org","min_zoom":8.0,"bus_shield_text":"112","shield_text":"7","landuse_kind":"residential","ref":"DN7"},"arcs":[480]},{"type":"LineString","properties":{"kind":"major_road","network":"e-road","sort_rank":380,"kind_detail":"primary","source":"openstreetmap.org","min_zoom":8.0,"landuse_kind":"urban_area","shield_text":"70","ref":"CB","id":62061921},"arcs":[481]},{"type":"LineString","properties":{"kind":"major_road","sort_rank":380,"kind_detail":"primary","bus_network":null,"source":"openstreetmap.org","min_zoom":8.0,"bus_shield_text":"313","landuse_kind":"residential","id":23782567},"arcs":[482]},{"type":"LineString","properties":{"bus_network":"RATB","sort_rank":380,"kind_detail":"primary","kind":"major_road","source":"openstreetmap.org","min_zoom":8.0,"bus_shield_text":"104","landuse_kind":"residential","ref":"DN3"},"arcs":[483]},{"type":"MultiLineString","properties":{"bus_network":"RATB","network":"e-road","sort_rank":380,"kind_detail":"primary","bus_shield_text":"102","kind":"major_road","source":"openstreetmap.org","min_zoom":8.0,"old_name":"Bulevardul Ion \u0218ulea","shield_text":"81","landuse_kind":"residential"},"arcs":[[484],[485]]},{"type":"MultiLineString","properties":{"kind":"highway","network":"e-road","sort_rank":383,"landuse_kind":"urban_area","source":"openstreetmap.org","min_zoom":8.0,"all_networks":["e-road","RO:A"],"kind_detail":"motorway","shield_text":"81","ref":"A1","all_shield_texts":["81","1"]},"arcs":[[486],[487],[488],[489],[490],[491],[492],[493]]},{"type":"LineString","properties":{"kind":"major_road","sort_rank":380,"kind_detail":"primary","is_bicycle_related":true,"bicycle_shield_text":"EV6","bicycle_network":"icn","source":"openstreetmap.org","min_zoom":8.0,"ref":"DN31"},"arcs":[494]},{"type":"MultiLineString","properties":{"bus_network":"RATB","sort_rank":380,"kind_detail":"primary","kind":"major_road","source":"openstreetmap.org","min_zoom":8.0,"bus_shield_text":"N108","landuse_kind":"residential"},"arcs":[[495],[496],[497],[498],[499],[500],[501]]},{"type":"LineString","properties":{"kind":"major_road","network":"e-road","sort_rank":381,"kind_detail":"trunk","bus_network":"RATB","source":"openstreetmap.org","min_zoom":8.0,"bus_shield_text":"102","shield_text":"85","landuse_kind":"urban_area","ref":"DN5","id":452977730},"arcs":[502]},{"type":"MultiLineString","properties":{"kind":"major_road","network":"e-road","sort_rank":381,"kind_detail":"trunk","source":"openstreetmap.org","min_zoom":8.0,"shield_text":"85","ref":"DN5"},"arcs":[[503],[504],[505],[506]]},{"type":"MultiLineString","properties":{"bus_network":"RATB (Regia Autonoma de Transport Bucuresti Regia Autonom\u0103 de Transport Bucure\u015fti )","sort_rank":380,"kind_detail":"primary","kind":"major_road","source":"openstreetmap.org","min_zoom":8.0,"bus_shield_text":"300","landuse_kind":"residential"},"arcs":[[507],[508],[509]]},{"type":"MultiLineString","properties":{"source":"openstreetmap.org","kind":"major_road","landuse_kind":"residential","sort_rank":380,"kind_detail":"primary","ref":"DN5A","min_zoom":8.0},"arcs":[[510],[511],[512],[513]]},{"type":"MultiLineString","properties":{"bus_network":"RATB","name:en":"Unirii Boulevard","network":"e-road","sort_rank":380,"kind_detail":"primary","kind":"major_road","name:de":"Boulevard der Einheit","source":"openstreetmap.org","min_zoom":8.0,"bus_shield_text":"104","shield_text":"81","landuse_kind":"residential"},"arcs":[[514],[515],[516]]},{"type":"MultiLineString","properties":{"kind":"major_road","network":"e-road","sort_rank":380,"kind_detail":"primary","source":"openstreetmap.org","min_zoom":8.0,"landuse_kind":"urban_area","shield_text":"577","ref":"DN1"},"arcs":[[517],[518]]},{"type":"MultiLineString","properties":{"bus_network":"RATB","sort_rank":380,"kind_detail":"primary","kind":"major_road","source":"openstreetmap.org","min_zoom":8.0,"bus_shield_text":"178-back","landuse_kind":"residential"},"arcs":[[519],[520]]},{"type":"LineString","properties":{"kind":"major_road","network":"DN","sort_rank":380,"kind_detail":"primary","bus_network":"RATB (Regia Autonoma de Transport Bucuresti Regia Autonom\u0103 de Transport Bucure\u015fti )","source":"openstreetmap.org","min_zoom":8.0,"bus_shield_text":"381","shield_text":"1","landuse_kind":"residential","ref":"DN1","id":23781801},"arcs":[521]},{"type":"MultiLineString","properties":{"bus_network":"RATB","network":"RO:DN","sort_rank":380,"kind_detail":"primary","kind":"major_road","source":"openstreetmap.org","min_zoom":8.0,"bus_shield_text":"112","shield_text":"1A","landuse_kind":"residential","ref":"DN1A"},"arcs":[[522],[523],[524],[525]]},{"type":"MultiLineString","properties":{"kind":"major_road","network":"e-road","sort_rank":381,"kind_detail":"trunk","source":"openstreetmap.org","min_zoom":8.0,"shield_text":"577","ref":"DN1B"},"arcs":[[526],[527]]},{"type":"MultiLineString","properties":{"kind":"major_road","network":"DN","sort_rank":381,"landuse_kind":"urban_area","source":"openstreetmap.org","min_zoom":8.0,"kind_detail":"trunk","shield_text":"1","ref":"DN1;DN1A"},"arcs":[[528],[529],[530],[531],[532],[533],[534],[535],[536],[537],[538],[539]]},{"type":"LineString","properties":{"kind":"major_road","network":"RO:DN","sort_rank":380,"kind_detail":"primary","source":"openstreetmap.org","min_zoom":8.0,"landuse_kind":"urban_area","shield_text":"1A"},"arcs":[540]},{"type":"MultiLineString","properties":{"bus_network":"RATB","sort_rank":380,"kind_detail":"primary","kind":"major_road","source":"openstreetmap.org","min_zoom":8.0,"bus_shield_text":"136","landuse_kind":"residential"},"arcs":[[541],[542],[543],[544],[545],[546],[547],[548]]},{"type":"LineString","properties":{"kind":"major_road","sort_rank":380,"kind_detail":"primary","bus_network":"RATB","source":"openstreetmap.org","min_zoom":8.0,"bus_shield_text":"86","landuse_kind":"residential","id":448266584},"arcs":[549]},{"type":"MultiLineString","properties":{"kind":"major_road","network":"e-road","sort_rank":380,"kind_detail":"primary","source":"openstreetmap.org","min_zoom":8.0,"landuse_kind":"residential","shield_text":"85","ref":"DN5"},"arcs":[[550],[551]]},{"type":"LineString","properties":{"kind":"major_road","sort_rank":380,"kind_detail":"primary","source":"openstreetmap.org","min_zoom":8.0,"old_name":"Strada Theo Peter","landuse_kind":"residential","id":436911408},"arcs":[552]},{"type":"MultiLineString","properties":{"source":"openstreetmap.org","kind":"major_road","landuse_kind":"residential","sort_rank":380,"kind_detail":"primary","ref":"DJ712","min_zoom":8.0},"arcs":[[553],[554],[555],[556],[557],[558],[559],[560],[561],[562],[563]]},{"type":"LineString","properties":{"bus_network":"RATB (Regia Autonoma de Transport Bucuresti Regia Autonom\u0103 de Transport Bucure\u015fti )","network":"DN","sort_rank":380,"kind_detail":"primary","kind":"major_road","source":"openstreetmap.org","min_zoom":8.0,"bus_shield_text":"697","shield_text":"7","landuse_kind":"residential","ref":"DN7"},"arcs":[564]},{"type":"MultiLineString","properties":{"bus_network":"RATB (Regia Autonoma de Transport Bucuresti Regia Autonom\u0103 de Transport Bucure\u015fti )","sort_rank":380,"kind_detail":"primary","kind":"major_road","source":"openstreetmap.org","min_zoom":8.0,"bus_shield_text":"611","landuse_kind":"residential"},"arcs":[[565],[566]]},{"type":"LineString","properties":{"source":"openstreetmap.org","kind":"major_road","landuse_kind":"urban_area","sort_rank":380,"kind_detail":"primary","ref":"DJ102","min_zoom":8.0},"arcs":[567]},{"type":"MultiLineString","properties":{"kind":"highway","network":"RO:A","sort_rank":383,"landuse_kind":"urban_area","source":"openstreetmap.org","min_zoom":8.0,"all_networks":["RO:A"],"kind_detail":"motorway","shield_text":"3","ref":"A3","all_shield_texts":["3"]},"arcs":[[568],[569],[570],[571],[572],[573]]},{"type":"LineString","properties":{"kind":"major_road","sort_rank":380,"kind_detail":"primary","bus_network":"RATB","source":"openstreetmap.org","min_zoom":8.0,"bus_shield_text":"123","landuse_kind":"residential","id":153967354},"arcs":[574]},{"type":"MultiLineString","properties":{"source":"openstreetmap.org","kind":"major_road","network":"e-road","sort_rank":381,"kind_detail":"trunk","min_zoom":8.0,"shield_text":"70"},"arcs":[[575],[576]]},{"type":"MultiLineString","properties":{"bus_network":"RATB","sort_rank":380,"kind_detail":"primary","kind":"major_road","source":"openstreetmap.org","min_zoom":8.0,"bus_shield_text":"61","landuse_kind":"residential"},"arcs":[[577],[578],[579],[580]]},{"type":"MultiLineString","properties":{"kind":"major_road","network":"e-road","sort_rank":381,"landuse_kind":"urban_area","source":"openstreetmap.org","min_zoom":8.0,"kind_detail":"trunk","shield_text":"577","ref":"DN1B;DN1A"},"arcs":[[581],[582]]},{"type":"MultiLineString","properties":{"source":"openstreetmap.org","kind":"major_road","sort_rank":380,"kind_detail":"primary","ref":"DN72","min_zoom":8.0},"arcs":[[583],[584],[585]]},{"type":"MultiLineString","properties":{"kind":"major_road","network":"DN","sort_rank":380,"kind_detail":"primary","source":"openstreetmap.org","min_zoom":8.0,"shield_text":"7","ref":"DN7"},"arcs":[[586],[587],[588],[589],[590],[591],[592],[593],[594],[595],[596],[597]]},{"type":"MultiLineString","properties":{"kind":"major_road","network":"RO:DN","sort_rank":380,"kind_detail":"primary","source":"openstreetmap.org","min_zoom":8.0,"shield_text":"1A","ref":"DN1A"},"arcs":[[598],[599],[600],[601]]},{"type":"MultiLineString","properties":{"kind":"major_road","network":"e-road","sort_rank":381,"kind_detail":"trunk","source":"openstreetmap.org","min_zoom":8.0,"landuse_kind":"residential","shield_text":"85","ref":"DN5"},"arcs":[[602],[603],[604]]},{"type":"LineString","properties":{"kind":"major_road","sort_rank":380,"kind_detail":"primary","bus_network":"RATB (Regia Autonoma de Transport Bucuresti Regia Autonom\u0103 de Transport Bucure\u015fti )","source":"openstreetmap.org","min_zoom":8.0,"bus_shield_text":"336","landuse_kind":"residential","id":170778318},"arcs":[605]},{"type":"LineString","properties":{"source":"openstreetmap.org","kind":"major_road","sort_rank":380,"kind_detail":"primary","ref":"DN4","min_zoom":8.0},"arcs":[606]},{"type":"MultiLineString","properties":{"kind":"major_road","network":"DN","sort_rank":380,"kind_detail":"primary","source":"openstreetmap.org","min_zoom":8.0,"landuse_kind":"urban_area","shield_text":"7","ref":"DN7"},"arcs":[[607],[608],[609],[610],[611],[612],[613],[614],[615],[616],[617],[618],[619],[620],[621],[622]]},{"type":"LineString","properties":{"bus_network":"RATB","sort_rank":380,"kind_detail":"primary","kind":"major_road","source":"openstreetmap.org","min_zoom":8.0,"bus_shield_text":"106","landuse_kind":"residential"},"arcs":[623]},{"type":"MultiLineString","properties":{"kind":"major_road","network":"e-road","sort_rank":381,"kind_detail":"trunk","source":"openstreetmap.org","min_zoom":8.0,"landuse_kind":"residential","shield_text":"70","ref":"DN5"},"arcs":[[624],[625]]},{"type":"LineString","properties":{"bus_network":"RATB","network":"DN","sort_rank":380,"kind_detail":"primary","kind":"major_road","source":"openstreetmap.org","min_zoom":8.0,"bus_shield_text":"330","shield_text":"1","landuse_kind":"residential","ref":"DN1"},"arcs":[626]},{"type":"MultiLineString","properties":{"bus_network":"RATB (Regia Autonoma de Transport Bucuresti Regia Autonom\u0103 de Transport Bucure\u015fti )","network":"DN","sort_rank":380,"kind_detail":"primary","kind":"major_road","source":"openstreetmap.org","min_zoom":8.0,"bus_shield_text":"226","shield_text":"6","landuse_kind":"residential","ref":"DN6"},"arcs":[[627],[628]]},{"type":"MultiLineString","properties":{"bus_network":"RATB","sort_rank":380,"kind_detail":"primary","kind":"major_road","source":"openstreetmap.org","min_zoom":8.0,"bus_shield_text":"330","landuse_kind":"residential"},"arcs":[[629],[630],[631]]},{"type":"MultiLineString","properties":{"source":"openstreetmap.org","kind":"major_road","landuse_kind":"urban_area","sort_rank":380,"kind_detail":"primary","ref":"DN72","min_zoom":8.0},"arcs":[[632],[633],[634],[635],[636],[637],[638]]},{"type":"MultiLineString","properties":{"kind":"highway","network":"A","sort_rank":383,"kind_detail":"motorway","source":"openstreetmap.org","min_zoom":8.0,"all_networks":["A","e-road"],"shield_text":"2","ref":"A2","all_shield_texts":["2","81"]},"arcs":[[639],[640],[641],[642],[643],[644]]},{"type":"MultiLineString","properties":{"bus_network":"RATB (Regia Autonoma de Transport Bucuresti Regia Autonom\u0103 de Transport Bucure\u015fti )","network":"DN","sort_rank":380,"kind_detail":"primary","kind":"major_road","source":"openstreetmap.org","min_zoom":8.0,"bus_shield_text":"91","shield_text":"6","landuse_kind":"residential","ref":"DN6"},"arcs":[[645],[646],[647],[648],[649]]},{"type":"MultiLineString","properties":{"kind":"highway","network":"RO:A","sort_rank":383,"kind_detail":"motorway","source":"openstreetmap.org","min_zoom":8.0,"all_networks":["RO:A"],"shield_text":"3","ref":"A3","all_shield_texts":["3"]},"arcs":[[650],[651],[652],[653],[654],[655]]},{"type":"MultiLineString","properties":{"source":"openstreetmap.org","kind":"major_road","sort_rank":380,"kind_detail":"primary","ref":"DN5A","min_zoom":8.0},"arcs":[[656],[657],[658],[659]]},{"type":"MultiLineString","properties":{"bus_network":"RATB","sort_rank":380,"kind_detail":"primary","kind":"major_road","source":"openstreetmap.org","min_zoom":8.0,"bus_shield_text":"232","landuse_kind":"residential"},"arcs":[[660],[661]]},{"type":"LineString","properties":{"bus_network":"RATB (Regia Autonoma de Transport Bucuresti Regia Autonom\u0103 de Transport Bucure\u015fti )","sort_rank":380,"kind_detail":"primary","kind":"major_road","source":"openstreetmap.org","min_zoom":8.0,"bus_shield_text":"70","landuse_kind":"residential"},"arcs":[662]},{"type":"MultiLineString","properties":{"source":"openstreetmap.org","kind":"major_road","landuse_kind":"residential","sort_rank":380,"kind_detail":"primary","min_zoom":8.0},"arcs":[[663],[664],[665],[666],[667],[668],[669],[670],[671],[672],[673],[674],[675],[676],[677],[678],[679],[680],[681],[682],[683],[684],[685],[686],[687],[688],[689],[690],[691],[692],[693],[694],[695],[696],[697],[698],[699],[700],[701],[702],[703],[704],[705],[706],[707],[708],[709],[710],[711],[712],[713],[714],[715],[716],[717],[718],[719],[720],[721],[722],[723],[724],[725],[726],[727],[728],[729],[730],[731],[732],[733],[734],[735],[736],[737],[738],[739],[740],[741],[742],[743],[744],[745],[746],[747],[748],[749],[750],[751],[752],[753],[754],[755],[756],[757],[758],[759],[760],[761],[762],[763],[764],[765],[766],[767],[768],[769],[770],[771],[772],[773],[774],[775],[776],[777]]},{"type":"MultiLineString","properties":{"kind":"major_road","network":"DN","sort_rank":381,"kind_detail":"trunk","source":"openstreetmap.org","min_zoom":8.0,"shield_text":"1","ref":"DN1"},"arcs":[[778],[779],[780],[781],[782],[783],[784]]},{"type":"LineString","properties":{"kind":"major_road","name:en":"University Square","sort_rank":380,"kind_detail":"primary","bus_network":"RATB","name:de":"Universit\u00e4tsplatz","source":"openstreetmap.org","name:fr":"Place de l'universit\u00e9","bus_shield_text":"85","min_zoom":8.0,"landuse_kind":"residential","id":218268113},"arcs":[785]},{"type":"LineString","properties":{"bus_network":"RATB","network":"e-road","sort_rank":380,"landuse_kind":"urban_area","kind":"major_road","source":"openstreetmap.org","min_zoom":8.0,"bus_shield_text":"178-back","shield_text":"81","kind_detail":"primary"},"arcs":[786]},{"type":"MultiLineString","properties":{"source":"openstreetmap.org","kind":"major_road","landuse_kind":"urban_area","sort_rank":380,"kind_detail":"primary","ref":"CB","min_zoom":8.0},"arcs":[[787],[788],[789],[790],[791],[792],[793],[794],[795],[796],[797],[798],[799],[800],[801],[802],[803],[804],[805],[806],[807],[808],[809],[810],[811],[812],[813],[814]]},{"type":"MultiLineString","properties":{"bus_network":"RATB","network":"DN","sort_rank":380,"kind_detail":"primary","kind":"major_road","source":"openstreetmap.org","min_zoom":8.0,"bus_shield_text":"131","shield_text":"1","landuse_kind":"urban_area","ref":"DN1"},"arcs":[[815],[816],[817]]},{"type":"MultiLineString","properties":{"source":"openstreetmap.org","kind":"major_road","kind_detail":"trunk","sort_rank":381,"landuse_kind":"urban_area","ref":"DJ236","min_zoom":8.0},"arcs":[[818],[819],[820]]},{"type":"LineString","properties":{"bus_network":"RATB (Regia Autonoma de Transport Bucuresti Regia Autonom\u0103 de Transport Bucure\u015fti )","network":"DN","sort_rank":380,"kind_detail":"primary","kind":"major_road","source":"openstreetmap.org","min_zoom":8.0,"bus_shield_text":"173","shield_text":"6","landuse_kind":"residential","ref":"DN6"},"arcs":[821]},{"type":"MultiLineString","properties":{"bus_network":"RATB","network":"DN","sort_rank":380,"kind_detail":"primary","kind":"major_road","source":"openstreetmap.org","min_zoom":8.0,"bus_shield_text":"131","shield_text":"1","landuse_kind":"residential","ref":"DN1"},"arcs":[[822],[823],[824],[825],[826]]},{"type":"MultiLineString","properties":{"bus_network":"RATB (Regia Autonoma de Transport Bucuresti Regia Autonom\u0103 de Transport Bucure\u015fti )","network":"e-road","sort_rank":380,"landuse_kind":"residential","kind":"major_road","source":"openstreetmap.org","min_zoom":8.0,"bus_shield_text":"381","shield_text":"85","kind_detail":"primary","ref":"DN4"},"arcs":[[827],[828]]},{"type":"LineString","properties":{"bus_network":"RATB","sort_rank":380,"kind_detail":"primary","kind":"major_road","source":"openstreetmap.org","min_zoom":8.0,"bus_shield_text":"105","landuse_kind":"residential"},"arcs":[829]},{"type":"LineString","properties":{"bus_network":"RATB (Regia Autonoma de Transport Bucuresti Regia Autonom\u0103 de Transport Bucure\u015fti )","network":"DN","sort_rank":380,"kind_detail":"primary","kind":"major_road","source":"openstreetmap.org","min_zoom":8.0,"bus_shield_text":"149","shield_text":"1","landuse_kind":"residential","ref":"DN1"},"arcs":[830]},{"type":"LineString","properties":{"source":"openstreetmap.org","kind":"major_road","landuse_kind":"urban_area","sort_rank":380,"kind_detail":"primary","ref":"DJ101D","min_zoom":8.0},"arcs":[831]},{"type":"MultiLineString","properties":{"source":"openstreetmap.org","kind":"major_road","landuse_kind":"urban_area","sort_rank":380,"kind_detail":"primary","ref":"DN1","min_zoom":8.0},"arcs":[[832],[833],[834]]},{"type":"MultiLineString","properties":{"kind":"major_road","network":"e-road","sort_rank":381,"landuse_kind":"urban_area","source":"openstreetmap.org","min_zoom":8.0,"kind_detail":"trunk","shield_text":"85","ref":"DN2"},"arcs":[[835],[836],[837]]},{"type":"MultiLineString","properties":{"bus_network":"RATB","network":"DN","sort_rank":381,"landuse_kind":"urban_area","kind":"major_road","source":"openstreetmap.org","min_zoom":8.0,"bus_shield_text":"261","shield_text":"1","kind_detail":"trunk","ref":"DN1"},"arcs":[[838],[839]]},{"type":"MultiLineString","properties":{"bus_network":"RATB (Regia Autonoma de Transport Bucuresti Regia Autonom\u0103 de Transport Bucure\u015fti )","sort_rank":380,"kind_detail":"primary","kind":"major_road","source":"openstreetmap.org","min_zoom":8.0,"bus_shield_text":"65","landuse_kind":"residential"},"arcs":[[840],[841]]},{"type":"MultiLineString","properties":{"bus_network":"RATB (Regia Autonoma de Transport Bucuresti Regia Autonom\u0103 de Transport Bucure\u015fti )","network":"e-road","sort_rank":380,"kind_detail":"primary","kind":"major_road","source":"openstreetmap.org","min_zoom":8.0,"bus_shield_text":"61","shield_text":"81","landuse_kind":"residential"},"arcs":[[842],[843]]},{"type":"LineString","properties":{"kind":"major_road","network":"e-road","sort_rank":380,"kind_detail":"primary","bus_network":"RATB (Regia Autonoma de Transport Bucuresti Regia Autonom\u0103 de Transport Bucure\u015fti )","source":"openstreetmap.org","min_zoom":8.0,"bus_shield_text":"61","shield_text":"81","landuse_kind":"residential","ref":"DN1A","id":243585237},"arcs":[844]},{"type":"MultiLineString","properties":{"bus_network":"RATB","network":"e-road","sort_rank":380,"landuse_kind":"residential","kind":"major_road","source":"openstreetmap.org","min_zoom":8.0,"bus_shield_text":"116","shield_text":"85","kind_detail":"primary"},"arcs":[[845],[846],[847]]},{"type":"MultiLineString","properties":{"bus_network":"RATB (Regia Autonoma de Transport Bucuresti Regia Autonom\u0103 de Transport Bucure\u015fti )","sort_rank":380,"kind_detail":"primary","kind":"major_road","source":"openstreetmap.org","min_zoom":8.0,"bus_shield_text":"79","landuse_kind":"residential"},"arcs":[[848],[849]]},{"type":"MultiLineString","properties":{"source":"openstreetmap.org","kind":"major_road","network":"e-road","sort_rank":381,"kind_detail":"trunk","min_zoom":8.0,"shield_text":"60"},"arcs":[[850],[851],[852]]},{"type":"MultiLineString","properties":{"bus_network":"RATB (Regia Autonoma de Transport Bucuresti Regia Autonom\u0103 de Transport Bucure\u015fti )","sort_rank":380,"kind_detail":"primary","kind":"major_road","source":"openstreetmap.org","min_zoom":8.0,"bus_shield_text":"61","landuse_kind":"residential"},"arcs":[[853],[854],[855],[856]]},{"type":"MultiLineString","properties":{"bus_network":"RATB","sort_rank":380,"kind_detail":"primary","kind":"major_road","source":"openstreetmap.org","min_zoom":8.0,"bus_shield_text":"104","landuse_kind":"residential"},"arcs":[[857],[858],[859],[860],[861],[862],[863]]},{"type":"LineString","properties":{"bus_network":"RATB (Regia Autonoma de Transport Bucuresti Regia Autonom\u0103 de Transport Bucure\u015fti )","sort_rank":380,"kind_detail":"primary","kind":"major_road","source":"openstreetmap.org","min_zoom":8.0,"bus_shield_text":"65","landuse_kind":"urban_area"},"arcs":[864]},{"type":"LineString","properties":{"kind":"major_road","network":"DN","sort_rank":380,"kind_detail":"primary","bus_network":"RATB (Regia Autonoma de Transport Bucuresti Regia Autonom\u0103 de Transport Bucure\u015fti )","source":"openstreetmap.org","min_zoom":8.0,"bus_shield_text":"91","shield_text":"6","landuse_kind":"residential","id":215527548},"arcs":[865]},{"type":"LineString","properties":{"kind":"major_road","sort_rank":380,"landuse_kind":"residential","source":"openstreetmap.org","min_zoom":8.0,"kind_detail":"primary","ref":"DJ411","id":187692359},"arcs":[866]},{"type":"MultiLineString","properties":{"kind":"major_road","network":"DN","sort_rank":380,"kind_detail":"primary","source":"openstreetmap.org","min_zoom":8.0,"landuse_kind":"residential","shield_text":"7"},"arcs":[[867],[868],[869],[870]]},{"type":"MultiLineString","properties":{"source":"openstreetmap.org","kind":"major_road","landuse_kind":"residential","sort_rank":380,"kind_detail":"primary","ref":"DN3","min_zoom":8.0},"arcs":[[871],[872],[873],[874],[875],[876],[877],[878]]},{"type":"MultiLineString","properties":{"source":"openstreetmap.org","kind":"major_road","landuse_kind":"residential","sort_rank":380,"kind_detail":"primary","ref":"DN72","min_zoom":8.0},"arcs":[[879],[880]]},{"type":"LineString","properties":{"kind":"major_road","sort_rank":380,"landuse_kind":"residential","source":"openstreetmap.org","min_zoom":8.0,"kind_detail":"primary","ref":"DN4","id":435258947},"arcs":[881]},{"type":"MultiLineString","properties":{"kind":"major_road","network":"DN","sort_rank":380,"kind_detail":"primary","source":"openstreetmap.org","min_zoom":8.0,"landuse_kind":"residential","shield_text":"7","osm_relation":true},"arcs":[[882],[883],[884],[885],[886],[887],[888],[889],[890],[891],[892]]},{"type":"LineString","properties":{"kind":"major_road","sort_rank":380,"kind_detail":"primary","bus_network":"RATB (Regia Autonoma de Transport Bucuresti Regia Autonom\u0103 de Transport Bucure\u015fti )","source":"openstreetmap.org","min_zoom":8.0,"bus_shield_text":"168","landuse_kind":"residential","id":256343306},"arcs":[893]},{"type":"MultiLineString","properties":{"bus_network":"RATB","sort_rank":380,"kind_detail":"primary","kind":"major_road","source":"openstreetmap.org","min_zoom":8.0,"bus_shield_text":"N122","landuse_kind":"residential"},"arcs":[[894],[895]]},{"type":"MultiLineString","properties":{"bus_network":"RATB","sort_rank":380,"kind_detail":"primary","kind":"major_road","source":"openstreetmap.org","min_zoom":8.0,"bus_shield_text":"133","landuse_kind":"residential"},"arcs":[[896],[897],[898]]},{"type":"MultiLineString","properties":{"bus_network":"RATB","sort_rank":380,"kind_detail":"primary","kind":"major_road","source":"openstreetmap.org","min_zoom":8.0,"bus_shield_text":"131","landuse_kind":"residential","ref":"DN1"},"arcs":[[899],[900],[901],[902]]},{"type":"LineString","properties":{"kind":"major_road","name:en":"Constitution Square","sort_rank":380,"kind_detail":"primary","name:de":"Platz der Verfassung","source":"openstreetmap.org","min_zoom":8.0,"old_name":"Bulevardul Victoria Socialismului","landuse_kind":"residential","id":23491122},"arcs":[903]},{"type":"MultiLineString","properties":{"bus_network":"RATB (Regia Autonoma de Transport Bucuresti Regia Autonom\u0103 de Transport Bucure\u015fti )","network":"DN","sort_rank":380,"kind_detail":"primary","kind":"major_road","source":"openstreetmap.org","min_zoom":8.0,"bus_shield_text":"302","shield_text":"6","landuse_kind":"residential","ref":"DN6"},"arcs":[[904],[905],[906],[907]]},{"type":"LineString","properties":{"bus_network":"RATB","sort_rank":380,"kind_detail":"primary","kind":"major_road","source":"openstreetmap.org","min_zoom":8.0,"bus_shield_text":"117","landuse_kind":"residential","ref":"DN6"},"arcs":[908]},{"type":"MultiLineString","properties":{"bus_network":"RATB","sort_rank":380,"kind_detail":"primary","kind":"major_road","source":"openstreetmap.org","min_zoom":8.0,"bus_shield_text":"335","landuse_kind":"residential"},"arcs":[[909],[910],[911],[912],[913],[914]]},{"type":"MultiLineString","properties":{"source":"openstreetmap.org","kind":"major_road","sort_rank":380,"kind_detail":"primary","ref":"DN1D","min_zoom":8.0},"arcs":[[915],[916],[917]]},{"type":"LineString","properties":{"bus_network":"RATB (Regia Autonoma de Transport Bucuresti Regia Autonom\u0103 de Transport Bucure\u015fti )","network":"DN","sort_rank":380,"kind_detail":"primary","kind":"major_road","source":"openstreetmap.org","min_zoom":8.0,"bus_shield_text":"220","shield_text":"6","landuse_kind":"residential","ref":"DN6"},"arcs":[918]},{"type":"MultiLineString","properties":{"kind":"highway","network":"A","sort_rank":383,"kind_detail":"motorway","source":"openstreetmap.org","min_zoom":8.0,"all_networks":["A","e-road"],"shield_text":"2","all_shield_texts":["2","81"]},"arcs":[[919],[920]]},{"type":"MultiLineString","properties":{"bus_network":"RATB (Regia Autonoma de Transport Bucuresti Regia Autonom\u0103 de Transport Bucure\u015fti )","sort_rank":380,"kind_detail":"primary","kind":"major_road","source":"openstreetmap.org","min_zoom":8.0,"bus_shield_text":"312","landuse_kind":"residential"},"arcs":[[921],[922],[923],[924]]},{"type":"MultiLineString","properties":{"bus_network":"RATB (Regia Autonoma de Transport Bucuresti Regia Autonom\u0103 de Transport Bucure\u015fti )","sort_rank":380,"kind_detail":"primary","kind":"major_road","source":"openstreetmap.org","min_zoom":8.0,"bus_shield_text":"634","landuse_kind":"residential"},"arcs":[[925],[926]]},{"type":"MultiLineString","properties":{"source":"openstreetmap.org","kind":"major_road","network":"e-road","sort_rank":381,"kind_detail":"trunk","min_zoom":8.0,"shield_text":"85"},"arcs":[[927],[928]]},{"type":"MultiLineString","properties":{"kind":"highway","network":"RO:A","sort_rank":383,"landuse_kind":"residential","source":"openstreetmap.org","min_zoom":8.0,"all_networks":["RO:A"],"kind_detail":"motorway","shield_text":"3","ref":"A3","all_shield_texts":["3"]},"arcs":[[929],[930]]},{"type":"LineString","properties":{"kind":"major_road","sort_rank":380,"kind_detail":"primary","bus_shield_text":"104","bus_network":"RATB","source":"openstreetmap.org","min_zoom":8.0,"old_name":"Pia\u021ba Muncii","landuse_kind":"residential","id":154325235},"arcs":[931]},{"type":"LineString","properties":{"kind":"major_road","sort_rank":380,"kind_detail":"primary","bus_network":"RATB","source":"openstreetmap.org","min_zoom":8.0,"bus_shield_text":"182","landuse_kind":"urban_area","id":125909046},"arcs":[932]},{"type":"MultiLineString","properties":{"kind":"major_road","network":"e-road","sort_rank":380,"kind_detail":"primary","source":"openstreetmap.org","min_zoom":8.0,"old_name":"Bulevardul Ion \u0218ulea","shield_text":"81","landuse_kind":"residential"},"arcs":[[933],[934],[935]]},{"type":"MultiLineString","properties":{"source":"openstreetmap.org","kind":"major_road","landuse_kind":"urban_area","sort_rank":380,"kind_detail":"primary","min_zoom":8.0},"arcs":[[936],[937],[938],[939],[940],[941],[942],[943],[944],[945],[946],[947],[948],[949],[950],[951],[952],[953],[954],[955],[956],[957],[958],[959],[960],[961],[962],[963],[964],[965],[966],[967],[968],[969],[970],[971],[972],[973],[974],[975],[976],[977],[978]]},{"type":"MultiLineString","properties":{"bus_network":"RATB","network":"DN","sort_rank":381,"landuse_kind":"urban_area","kind":"major_road","source":"openstreetmap.org","min_zoom":8.0,"bus_shield_text":"780","shield_text":"1","kind_detail":"trunk","ref":"DN1"},"arcs":[[979],[980],[981],[982],[983],[984]]},{"type":"MultiLineString","properties":{"source":"openstreetmap.org","kind":"major_road","landuse_kind":"residential","sort_rank":380,"kind_detail":"primary","ref":"DN71","min_zoom":8.0},"arcs":[[985],[986],[987],[988],[989],[990],[991],[992],[993],[994],[995],[996],[997],[998],[999],[1000]]},{"type":"LineString","properties":{"kind":"major_road","sort_rank":380,"kind_detail":"primary","bus_network":"RATB (Regia Autonoma de Transport Bucuresti Regia Autonom\u0103 de Transport Bucure\u015fti )","source":"openstreetmap.org","min_zoom":8.0,"bus_shield_text":"149","landuse_kind":"urban_area","id":418951543},"arcs":[1001]},{"type":"LineString","properties":{"source":"openstreetmap.org","kind":"major_road","sort_rank":380,"kind_detail":"primary","ref":"DN72A","min_zoom":8.0},"arcs":[1002]},{"type":"MultiLineString","properties":{"kind":"major_road","network":"DN","sort_rank":381,"landuse_kind":"urban_area","source":"openstreetmap.org","min_zoom":8.0,"kind_detail":"trunk","shield_text":"1","ref":"DN1"},"arcs":[[1003],[1004],[1005],[1006],[1007],[1008],[1009],[1010],[1011],[1012],[1013],[1014],[1015],[1016],[1017]]},{"type":"LineString","properties":{"bus_network":"RATB","network":"DN","sort_rank":380,"kind_detail":"primary","kind":"major_road","source":"openstreetmap.org","min_zoom":8.0,"bus_shield_text":"117","shield_text":"6","landuse_kind":"residential","ref":"DN6"},"arcs":[1018]},{"type":"MultiLineString","properties":{"kind":"major_road","name:en":"Unirii Boulevard","sort_rank":380,"kind_detail":"primary","name:de":"Boulevard der Einheit","source":"openstreetmap.org","min_zoom":8.0,"landuse_kind":"residential"},"arcs":[[1019],[1020]]},{"type":"MultiLineString","properties":{"bus_network":"RATB","sort_rank":380,"kind_detail":"primary","kind":"major_road","source":"openstreetmap.org","min_zoom":8.0,"bus_shield_text":"131","landuse_kind":"residential"},"arcs":[[1021],[1022],[1023],[1024]]},{"type":"MultiLineString","properties":{"source":"openstreetmap.org","kind":"major_road","landuse_kind":"urban_area","sort_rank":380,"kind_detail":"primary","ref":"DN3","min_zoom":8.0},"arcs":[[1025],[1026],[1027],[1028],[1029],[1030]]},{"type":"LineString","properties":{"kind":"major_road","sort_rank":380,"kind_detail":"primary","bus_network":"RATB","source":"openstreetmap.org","min_zoom":8.0,"bus_shield_text":"137","landuse_kind":"urban_area","id":30061378},"arcs":[1031]},{"type":"MultiLineString","properties":{"source":"openstreetmap.org","kind":"major_road","landuse_kind":"residential","sort_rank":380,"kind_detail":"primary","ref":"DJ101D","min_zoom":8.0},"arcs":[[1032],[1033]]},{"type":"LineString","properties":{"bus_network":"RATB","name:en":"University Square","network":"e-road","sort_rank":380,"kind_detail":"primary","name:fr":"Place de l'universit\u00e9","name:de":"Universit\u00e4tsplatz","source":"openstreetmap.org","min_zoom":8.0,"bus_shield_text":"N108","shield_text":"85","landuse_kind":"residential","kind":"major_road"},"arcs":[1034]},{"type":"MultiLineString","properties":{"bus_network":"RATB","sort_rank":380,"kind_detail":"primary","kind":"major_road","source":"openstreetmap.org","min_zoom":8.0,"bus_shield_text":"783","landuse_kind":"residential","ref":"DN1"},"arcs":[[1035],[1036]]},{"type":"MultiLineString","properties":{"bus_network":"RATB (Regia Autonoma de Transport Bucuresti Regia Autonom\u0103 de Transport Bucure\u015fti )","network":"e-road","sort_rank":380,"kind_detail":"primary","kind":"major_road","source":"openstreetmap.org","min_zoom":8.0,"bus_shield_text":"62","shield_text":"81","landuse_kind":"urban_area"},"arcs":[[1037],[1038]]},{"type":"MultiLineString","properties":{"bus_network":"RATB","sort_rank":380,"kind_detail":"primary","kind":"major_road","source":"openstreetmap.org","min_zoom":8.0,"bus_shield_text":"182","landuse_kind":"residential","ref":"DJ200B"},"arcs":[[1039],[1040]]},{"type":"LineString","properties":{"bus_network":"RATB","sort_rank":380,"kind_detail":"primary","kind":"major_road","source":"openstreetmap.org","min_zoom":8.0,"bus_shield_text":"N108","landuse_kind":"residential","ref":"DN4"},"arcs":[1041]},{"type":"MultiLineString","properties":{"kind":"major_road","network":"DN","sort_rank":380,"kind_detail":"primary","source":"openstreetmap.org","min_zoom":8.0,"landuse_kind":"residential","shield_text":"7","ref":"DN7"},"arcs":[[1042],[1043],[1044]]},{"type":"LineString","properties":{"bus_network":"RATB","sort_rank":380,"kind_detail":"primary","kind":"major_road","source":"openstreetmap.org","min_zoom":8.0,"bus_shield_text":"N108","landuse_kind":"residential","ref":"DN3"},"arcs":[1045]},{"type":"LineString","properties":{"bus_network":"RATB (Regia Autonoma de Transport Bucuresti Regia Autonom\u0103 de Transport Bucure\u015fti )","network":"e-road","sort_rank":380,"kind_detail":"primary","is_bicycle_related":true,"kind":"major_road","source":"openstreetmap.org","min_zoom":8.0,"bus_shield_text":"246","shield_text":"81","landuse_kind":"urban_area","id":448321438},"arcs":[1046]},{"type":"MultiLineString","properties":{"bus_network":"RATB","network":"DN","sort_rank":381,"landuse_kind":"residential","kind":"major_road","source":"openstreetmap.org","min_zoom":8.0,"bus_shield_text":"780","shield_text":"1","kind_detail":"trunk","ref":"DN1"},"arcs":[[1047],[1048]]},{"type":"LineString","properties":{"kind":"major_road","sort_rank":380,"landuse_kind":"residential","source":"openstreetmap.org","min_zoom":8.0,"kind_detail":"primary","ref":"DJ102","id":422973330},"arcs":[1049]},{"type":"LineString","properties":{"kind":"major_road","network":"DN","sort_rank":381,"kind_detail":"trunk","source":"openstreetmap.org","min_zoom":8.0,"landuse_kind":"residential","shield_text":"1","id":179293297},"arcs":[1050]},{"type":"MultiLineString","properties":{"bus_network":"RATB","sort_rank":380,"kind_detail":"primary","kind":"major_road","source":"openstreetmap.org","min_zoom":8.0,"bus_shield_text":"202","landuse_kind":"residential"},"arcs":[[1051],[1052],[1053],[1054],[1055]]},{"type":"MultiLineString","properties":{"bus_network":"RATB (Regia Autonoma de Transport Bucuresti Regia Autonom\u0103 de Transport Bucure\u015fti )","network":"DN","sort_rank":381,"landuse_kind":"urban_area","kind":"major_road","source":"openstreetmap.org","min_zoom":8.0,"bus_shield_text":"304","shield_text":"1","kind_detail":"trunk","ref":"DN1"},"arcs":[[1056],[1057]]},{"type":"LineString","properties":{"kind":"major_road","sort_rank":381,"landuse_kind":"residential","source":"openstreetmap.org","min_zoom":8.0,"kind_detail":"trunk","ref":"DN1","id":211902956},"arcs":[1058]},{"type":"LineString","properties":{"kind":"major_road","sort_rank":380,"kind_detail":"primary","bus_network":"RATB","source":"openstreetmap.org","min_zoom":8.0,"bus_shield_text":"783","landuse_kind":"residential","id":12823974},"arcs":[1059]},{"type":"MultiLineString","properties":{"bus_network":"RATB","network":"e-road","sort_rank":380,"kind_detail":"primary","kind":"major_road","source":"openstreetmap.org","min_zoom":8.0,"bus_shield_text":"104","shield_text":"81","landuse_kind":"residential"},"arcs":[[1060],[1061],[1062],[1063],[1064],[1065]]},{"type":"MultiLineString","properties":{"kind":"major_road","network":"DN","sort_rank":380,"kind_detail":"primary","source":"openstreetmap.org","min_zoom":8.0,"landuse_kind":"urban_area","shield_text":"1","ref":"DN1"},"arcs":[[1066],[1067]]},{"type":"MultiLineString","properties":{"kind":"major_road","network":"e-road","sort_rank":381,"kind_detail":"trunk","source":"openstreetmap.org","min_zoom":8.0,"shield_text":"85","ref":"DN2"},"arcs":[[1068],[1069],[1070],[1071],[1072],[1073]]},{"type":"LineString","properties":{"bus_network":"RATB","network":"DN","sort_rank":380,"kind_detail":"primary","kind":"major_road","source":"openstreetmap.org","min_zoom":8.0,"bus_shield_text":"783","shield_text":"1","landuse_kind":"residential","ref":"DN1"},"arcs":[1074]},{"type":"LineString","properties":{"kind":"major_road","network":null,"sort_rank":380,"kind_detail":"primary","source":"openstreetmap.org","min_zoom":8.0,"shield_text":"5B","ref":"DN5B"},"arcs":[1075]},{"type":"LineString","properties":{"kind":"major_road","sort_rank":380,"landuse_kind":"residential","source":"openstreetmap.org","min_zoom":8.0,"kind_detail":"primary","ref":"DN6","id":350319623},"arcs":[1076]},{"type":"LineString","properties":{"bus_network":"RATB (Regia Autonoma de Transport Bucuresti Regia Autonom\u0103 de Transport Bucure\u015fti )","sort_rank":380,"kind_detail":"primary","kind":"major_road","source":"openstreetmap.org","min_zoom":8.0,"bus_shield_text":"162","landuse_kind":"residential"},"arcs":[1077]},{"type":"LineString","properties":{"source":"openstreetmap.org","kind":"major_road","old_name":"Trafic Greu","sort_rank":380,"kind_detail":"primary","landuse_kind":"residential","min_zoom":8.0},"arcs":[1078]},{"type":"LineString","properties":{"kind":"major_road","sort_rank":380,"kind_detail":"primary","bus_network":"RATB (Regia Autonoma de Transport Bucuresti Regia Autonom\u0103 de Transport Bucure\u015fti )","source":"openstreetmap.org","min_zoom":8.0,"bus_shield_text":"304","landuse_kind":"urban_area","id":210870674},"arcs":[1079]},{"type":"MultiLineString","properties":{"bus_network":"RATB (Regia Autonoma de Transport Bucuresti Regia Autonom\u0103 de Transport Bucure\u015fti )","network":"DN","sort_rank":380,"kind_detail":"primary","kind":"major_road","source":"openstreetmap.org","min_zoom":8.0,"bus_shield_text":"300","shield_text":"1","landuse_kind":"residential","ref":"DN1"},"arcs":[[1080],[1081],[1082],[1083]]},{"type":"MultiLineString","properties":{"bus_network":"RATB (Regia Autonoma de Transport Bucuresti Regia Autonom\u0103 de Transport Bucure\u015fti )","sort_rank":380,"kind_detail":"primary","kind":"major_road","source":"openstreetmap.org","min_zoom":8.0,"bus_shield_text":"304","landuse_kind":"urban_area","ref":"CB"},"arcs":[[1084],[1085],[1086],[1087],[1088]]},{"type":"MultiLineString","properties":{"bus_network":"RATB","sort_rank":380,"kind_detail":"primary","kind":"major_road","source":"openstreetmap.org","min_zoom":8.0,"bus_shield_text":"124","landuse_kind":"residential"},"arcs":[[1089],[1090]]},{"type":"MultiLineString","properties":{"kind":"major_road","network":"e-road","sort_rank":380,"kind_detail":"primary","source":"openstreetmap.org","min_zoom":8.0,"landuse_kind":"urban_area","shield_text":"60","ref":"CB"},"arcs":[[1091],[1092],[1093],[1094],[1095],[1096],[1097],[1098],[1099],[1100],[1101]]},{"type":"LineString","properties":{"kind":"major_road","network":"DN","sort_rank":380,"kind_detail":"primary","source":"openstreetmap.org","min_zoom":8.0,"landuse_kind":"urban_area","shield_text":"7","id":229925739},"arcs":[1102]},{"type":"LineString","properties":{"kind":"major_road","network":"DN","sort_rank":380,"kind_detail":"primary","bus_network":"RATB","source":"openstreetmap.org","min_zoom":8.0,"bus_shield_text":"335","shield_text":"1","landuse_kind":"residential","ref":"DN1","id":544125048},"arcs":[1103]},{"type":"MultiLineString","properties":{"bus_network":"RATB","network":"e-road","sort_rank":380,"kind_detail":"primary","kind":"major_road","source":"openstreetmap.org","min_zoom":8.0,"bus_shield_text":"102","shield_text":"85","landuse_kind":"residential","ref":"DN5"},"arcs":[[1104],[1105]]}]},"earth":{"type":"GeometryCollection","geometries":[{"type":"Polygon","properties":{"sort_rank":10,"source":"naturalearthdata.com","min_zoom":0.0,"kind":"earth","area":97332312454},"arcs":[[1106]]}]},"landuse":{"type":"GeometryCollection","geometries":[{"type":"MultiPolygon","properties":{"source":"naturalearthdata.com","kind":"urban_area","name":"","area":3906155863,"sort_rank":11,"min_zoom":4.0},"arcs":[[[1107]],[[1108]],[[1109]],[[1110]],[[1111]],[[1112]],[[1113]],[[1114]],[[1115]]]},{"type":"Polygon","properties":{"kind":"residential","name":"Ploie\u0219ti","area":43010500,"sort_rank":20,"source":"openstreetmap.org","min_zoom":8.0,"tier":2,"id":219382978},"arcs":[[1116]]},{"type":"MultiPolygon","properties":{"source":"openstreetmap.org","kind":"residential","tier":2,"area":66044129,"sort_rank":20,"min_zoom":8.0,"osm_relation":true},"arcs":[[[1117],[1118]],[[1119],[1120]],[[1121],[1122]]]},{"type":"MultiPolygon","properties":{"source":"openstreetmap.org","kind":"residential","tier":2,"area":302936519,"sort_rank":20,"min_zoom":8.0},"arcs":[[[1123]],[[1124]],[[1125]],[[1126]],[[1127]],[[1128]],[[1129]],[[1130]],[[1131]],[[1132]],[[1133]],[[1134]],[[1135]],[[1136]],[[1137]],[[1138]],[[1139]],[[1140]]]},{"type":"Polygon","properties":{"kind":"residential","name":"Bucure\u0219ti","area":314783008,"sort_rank":20,"name:de":"Bukarest","source":"openstreetmap.org","min_zoom":6.0,"tier":2,"id":-3245175,"osm_relation":true},"arcs":[[1141],[1142]]},{"type":"Polygon","properties":{"kind":"aerodrome","area":13117400,"sort_rank":60,"operator":"Compania Na\u021bional\u0103 Aeroporturi Bucure\u0219ti S.A.","source":"openstreetmap.org","min_zoom":8.0,"tier":3,"id":84575372},"arcs":[[1143]]}]}},"type":"Topology","transform":{"translate":[25.3125,44.0875850282],"scale":[0.0003433228,0.0002444948]},"arcs":[[[428,1572],[-67,41],[50,75],[-49,37],[-53,-12],[-68,47],[-75,-86],[-46,-160],[-32,31],[-88,-125]],[[921,0],[78,113],[58,-104],[13,29],[-22,39],[12,27],[29,-14],[1,53],[30,-70],[37,-16],[-16,71],[27,43],[-93,101],[-79,44],[35,196],[86,151],[-16,51],[-64,29],[3,95],[-40,17],[-17,-89],[-91,56],[35,76],[-39,42],[-42,12],[-24,-36],[-40,19],[-31,-32],[-38,40],[-122,-17],[-137,46],[4,94],[69,89],[-30,30],[85,97],[-72,26],[5,38],[-74,38],[49,101],[-30,18],[26,30],[-58,39]],[[3306,4096],[-3,-64],[41,7],[51,-72],[-3,-95],[58,-167],[13,-16],[42,44],[53,12],[60,-58],[18,-89],[50,17],[7,-99],[-140,-51],[-41,-60],[68,-31],[94,-140],[31,15],[75,-92]],[[3780,3157],[62,-187],[32,24],[29,-38],[76,-7],[53,26],[64,-24]],[[1005,4096],[54,-54],[28,-183],[-28,-86],[4,-75],[41,-14],[-39,-66],[13,-70],[30,-2],[-17,32],[33,14],[16,-32],[83,23],[45,-84],[87,26],[68,-106],[26,9],[11,-50],[20,0],[-4,-44],[-48,-11],[32,-105],[-69,-70],[40,-103],[137,-45],[66,40],[37,-101],[60,-37],[30,-56],[-5,-46],[27,0],[3,-39],[85,-70]],[[1871,2691],[53,-35],[41,35],[37,-37],[32,27],[89,3],[22,-38],[66,69],[78,-46],[-35,97],[49,12],[26,-48],[54,-22],[34,16],[-10,24],[99,-38],[29,32],[204,-86],[34,82],[62,47],[45,-7],[16,90],[79,-15],[14,34],[-3,-59],[81,19],[96,-52],[172,167],[117,-74],[83,86],[45,-26],[74,128],[126,81]],[[428,1572],[122,198],[47,0],[33,53],[48,-15],[60,36],[68,-53],[133,134],[129,-138],[89,84],[194,-57],[22,26],[24,-15],[97,42],[60,-66],[19,40],[67,-16],[43,27],[-50,53],[40,24],[-71,60],[39,48],[84,-90],[135,83],[114,125],[-19,46],[-133,83],[10,51],[93,12],[-10,102],[52,28],[-39,25],[-20,85],[-27,8],[-71,-107],[-16,12],[-60,144],[40,4],[32,53],[47,-39],[18,29]],[[2440,1115],[-81,134],[-77,56],[25,29],[-2,73],[-51,86],[5,80],[87,36]],[[2077,1697],[142,-226]],[[2140,1540],[-2,2]],[[2138,1542],[-124,60],[-16,2],[-16,-2],[-8,-3],[-99,-99],[-56,-112],[-133,-87],[-71,-31],[-271,-140],[-253,-104],[-392,-197],[-121,-69],[-113,-103],[-344,-179],[-121,-38]],[[590,767],[109,62],[4,2],[55,18],[3,2],[330,175],[254,104],[52,25],[48,23],[65,35],[105,57],[63,27],[8,4],[4,2],[122,78],[4,3],[3,4],[3,3],[3,5],[50,104],[7,6],[4,1],[7,2],[2,1],[2,0],[2,1],[1,1],[3,2],[2,2],[2,3],[5,9],[5,7],[59,65],[164,-60]],[[1917,1533],[1,2]],[[2189,1495],[-14,13],[-69,65],[-10,9],[-106,87]],[[2202,1482],[-27,26],[-71,67],[-19,15]],[[2138,1542],[39,-36]],[[2140,1540],[37,-34]],[[2177,1506],[25,-24]],[[2202,1482],[14,-14]],[[2185,1498],[13,-14]],[[2189,1495],[28,-26]],[[2194,1490],[5,-5]],[[2199,1485],[1,-1]],[[2200,1484],[1,-1]],[[2201,1483],[1,0]],[[2202,1483],[1,-1]],[[2203,1482],[2,-3]],[[2205,1479],[12,-10]],[[2440,1115],[-81,134],[-77,56],[25,29],[-2,73],[-51,86],[5,80],[87,36]],[[0,2557],[709,-204],[191,-12],[26,1],[5,0],[6,-1],[364,-111],[640,-521]],[[0,2556],[709,-204],[7,-1],[184,-10],[34,1],[367,-112],[640,-521]],[[1941,1709],[37,-31]],[[2217,1469],[-95,98],[43,41],[113,36],[638,-116],[488,-23],[212,-44],[187,22],[139,-27],[153,15],[1,0]],[[4096,2430],[-49,19],[-166,133]],[[1940,1395],[252,42],[125,-55],[40,-63],[49,40],[205,-60]],[[2142,1539],[-204,173],[-17,21],[-59,310],[213,559],[8,314],[30,105],[-77,344],[-603,501],[-89,177],[-78,53]],[[2043,1625],[67,-55],[91,-87]],[[2189,1495],[28,-26]],[[2408,1362],[-8,69],[-47,59],[-103,0],[-22,-20],[-47,32],[-61,-29],[153,-62],[86,-92],[44,40],[76,-26],[17,93],[63,-14],[4,32]],[[1940,1395],[252,42],[125,-55],[40,-63],[49,40],[205,-60]],[[1972,1683],[9,-21]],[[2043,1625],[67,-55],[91,-87]],[[2083,1592],[-145,120],[-19,24],[-57,307],[213,559],[8,314],[30,105],[-81,374],[444,139],[249,-33],[499,191]],[[2085,1590],[57,-51]],[[2140,1540],[76,-72]],[[3302,3716],[61,55],[596,325]],[[2408,1362],[-8,69],[-47,59],[-103,0],[-22,-20],[-47,32],[-61,-29],[153,-62],[86,-92],[44,40],[76,-26],[17,93],[63,-14],[4,32]],[[348,4029],[-6,18]],[[369,3469],[-8,-10],[-1,-3],[-1,-3],[0,-2],[0,-4],[1,-7]],[[360,3440],[0,-1]],[[360,3439],[11,-23],[68,-49],[255,-475],[55,-239],[-39,-35],[-2,-256],[54,-13]],[[360,3440],[8,28]],[[368,3468],[11,16]],[[765,2349],[-57,13],[2,8],[3,4],[5,5],[2,3],[2,4],[1,6],[-13,226],[32,20],[3,3],[3,4],[0,1],[1,4],[0,3],[-5,69],[-1,6],[-24,83],[-18,61],[-7,20],[-254,473],[-1,3],[-3,3],[-6,6],[-5,4],[-54,35],[-11,23]],[[360,3439],[0,1]],[[379,3484],[-10,-15]],[[369,3469],[-1,-1]],[[321,4096],[21,-49]],[[348,4029],[14,-127],[-98,-125],[-7,-42],[138,-194],[-16,-57]],[[810,0],[-81,108],[-50,200],[15,184],[-56,153],[-62,84],[53,60]],[[2101,1653],[118,-182]],[[1900,1828],[87,58],[52,-81],[19,6]],[[2058,1811],[24,42]],[[2059,1812],[-6,-10],[-23,-31],[-4,-5],[-37,-97]],[[2003,1657],[20,-16]],[[2085,1590],[-56,46]],[[2043,1625],[-46,53],[85,173]],[[2082,1851],[3,6]],[[2058,1811],[1,1]],[[2059,1812],[1,2]],[[2060,1814],[22,39]],[[2082,1853],[1,1]],[[2060,1814]],[[3895,2576],[-33,17]],[[3862,2593],[-153,-4],[-151,61],[-216,-214],[-739,-195],[-199,-147],[-207,-67],[-110,-166]],[[2087,1861],[-3,-6]],[[2084,1855],[-1,-1]],[[2083,1854],[-1,-3]],[[2084,1855],[1,2]],[[2085,1857],[2,4]],[[3895,2576],[69,-10],[132,96]],[[2305,1370],[3,-34]],[[2308,1336],[-2,34]],[[2120,1619],[0,1]],[[2234,1664],[35,-27]],[[2271,1636],[-19,25],[-18,3]],[[2700,1312],[-57,-5]],[[2643,1306],[56,5]],[[2787,1313],[-28,1],[-21,-1]],[[2739,1313],[48,0]],[[2076,1701],[1,12]],[[368,3439],[-1,0]],[[492,3385],[-29,-15]],[[492,3385],[2,1]],[[493,3386],[-1,-1]],[[2284,1295],[3,-5],[36,-20]],[[2322,1271],[-35,20]],[[2305,1383],[0,-13]],[[2306,1370],[0,14]],[[2487,1603],[100,72]],[[2587,1675],[-100,-72]],[[2590,1677],[-3,-2]],[[2546,1443],[13,3]],[[1906,1428],[0,-3]],[[2261,1325],[-14,21]],[[2261,1325],[22,-26]],[[2283,1300],[-22,25]],[[2284,1295],[-13,-60]],[[2272,1235],[14,55]],[[1827,2004],[-70,81],[-6,73]],[[1869,3265],[108,106]],[[2046,1752],[-145,133]],[[2042,3678],[-2,-1]],[[2041,3677],[1,1]],[[2042,3678],[10,161]],[[2214,3345],[-67,-63]],[[2150,3552],[104,-8],[39,-31]],[[2298,3494],[3,-25]],[[2285,1623],[-14,13]],[[2046,1751],[1,-1]],[[2047,1750],[0,1]],[[2077,1713],[-30,37]],[[2047,1751],[-1,1],[0,-1],[1,0]],[[1867,3616],[36,-5]],[[2304,1424],[-2,0]],[[2302,1423],[2,1]],[[2310,1426],[-6,-2]],[[2310,1426],[5,1]],[[2336,1432],[-21,-5]],[[1959,0],[29,224]],[[1988,224],[-30,-224]],[[2010,403],[-19,-58],[9,-35],[-12,-55],[0,-30]],[[1988,225],[0,31],[10,37],[2,17],[-5,27],[-3,8],[18,58]],[[2175,776],[-37,-52],[-128,-320]],[[2011,404],[164,372]],[[2217,977],[-31,-63],[-11,-138]],[[2175,776],[11,138],[27,52],[4,11]],[[1988,224],[0,1]],[[1988,225]],[[1988,225],[0,-1]],[[2314,2603],[-22,-39]],[[1901,1885],[-74,119]],[[2052,3839],[17,124]],[[2076,1698],[12,-21]],[[2077,3997],[1,6]],[[2085,1683],[-8,15]],[[2091,1672],[8,-16]],[[2136,3270],[1,-2]],[[2137,3272],[-1,-1]],[[2137,3268],[0,2]],[[2138,3262],[-1,6]],[[2137,3271],[0,1]],[[2147,3282],[-10,-10]],[[2137,3270],[0,1],[-1,0],[0,-1],[1,0]],[[1983,1210],[25,-20]],[[2010,1188],[92,-71]],[[2121,1105],[24,-11]],[[2231,1553],[-1,1],[-1,-2],[2,0],[0,1]],[[0,2366],[229,-89],[143,-104],[86,-156],[105,-127],[230,-203],[3,-1]],[[796,1686],[198,-63],[70,-21],[10,-4],[116,-55]],[[1192,1540],[-389,140],[-7,6]],[[796,1686],[-232,204],[-106,127],[-86,157],[-142,103],[-230,90]],[[1326,1557],[-88,-15]],[[1238,1539],[88,17]],[[1378,1556],[238,-13],[194,-105],[10,-1]],[[1819,1437],[-203,107],[-238,13]],[[2563,1446],[13,3]],[[2576,1450],[-13,-3]],[[2448,0],[80,63],[181,-24],[243,56],[60,-13],[122,86],[206,-19],[76,68],[161,-71],[8,-31],[54,2],[36,-41]],[[3768,79],[34,-21]],[[1635,1906],[0,-1],[1,0],[-1,1]],[[2180,1397],[1,-1]],[[2181,1396],[1,1]],[[2246,1842],[-43,-12]],[[2246,1842],[1,0],[-1,0]],[[1919,1134],[-17,-26]],[[1941,1166],[-22,-31]],[[1941,1166],[1,1]],[[1942,1168],[-1,-2]],[[1943,1169],[-1,-1]],[[1943,1168],[0,1]],[[1965,1197],[-22,-28]],[[1918,1135],[1,-1]],[[1919,1134],[0,1]],[[1919,1135],[-1,0]],[[1942,1168],[0,-1],[1,0],[0,1],[-1,0]],[[2102,3262],[1,0],[20,0]],[[2123,3262],[13,0]],[[2104,3263],[-1,0]],[[2104,3263],[-1,0]],[[2138,3262],[-1,0],[-14,0]],[[2123,3262],[-19,1]],[[2138,3262],[0,-1],[1,0],[0,1],[-1,0]],[[2017,1416],[-23,0]],[[2120,1619],[8,-13]],[[2181,1398],[1,0]],[[2788,1773],[119,-36],[33,23],[142,108],[126,229],[412,312],[61,90],[131,40]],[[2264,1161],[-2,-11]],[[2262,1150],[2,11]],[[1938,3591],[-1,0]],[[1937,3590],[1,1]],[[1938,3591],[102,85]],[[2040,3676],[1,0]],[[2150,3553],[30,29],[8,16]],[[2188,3598],[-32,-39]],[[2190,3599],[-1,0]],[[2189,3598],[1,1]],[[2189,3598],[-1,1],[0,-1],[1,0]],[[2190,3599],[103,20]],[[2293,3619]],[[2293,3619]],[[2294,3619],[1,-1]],[[2295,3618],[-1,1]],[[2415,3579],[-120,39]],[[3251,3727],[77,31]],[[1936,3591],[0,-1],[1,0],[-1,1]],[[2294,3619],[-1,0],[1,0]],[[2294,3619]],[[2294,3619]],[[33,2582],[-3,-1]],[[32,2580],[-1,1]],[[1889,3606],[-3,1]],[[1888,3604],[1,1]],[[1890,3605],[8,-6]],[[1898,3600],[-8,5]],[[3825,2568],[2,0]],[[3827,2568],[-1,1]],[[3827,2568],[19,-18]],[[3846,2551],[0,-1]],[[3846,2550]],[[1814,3494],[-1,-1],[1,-1],[1,1],[-1,1]],[[1890,3606],[-1,0],[0,-1],[1,0],[0,1]],[[2959,1534],[0,-1],[1,0],[-1,1]],[[2825,1507],[-34,-4]],[[2959,1534],[-129,-26]],[[2989,1539],[-29,-6]],[[3061,1548],[372,13],[207,-30],[289,194],[167,-3]],[[2276,1525],[3,-5]],[[2237,1694],[-3,-15]],[[2235,1679],[2,15]],[[2420,1559],[-39,-49]],[[2391,1532],[29,27]],[[2476,1595],[-56,-36]],[[2476,1595],[1,1]],[[2477,1596],[-1,-1]],[[30,2581],[-30,15]],[[30,2581],[1,-1]],[[31,2581],[-1,0]],[[31,2580],[1,-1]],[[32,2579],[0,1]],[[32,2579],[352,-55],[269,-204],[108,-30],[194,-168],[228,-6],[187,-56]],[[1594,1931],[41,-26]],[[1636,1905],[150,-73]],[[1789,1830],[-3,2]],[[1786,1832],[10,-4]],[[1796,1828],[-7,2]],[[31,2581],[0,-1]],[[31,2580],[1,0],[-1,1]],[[1635,1906],[0,-1]],[[1635,1905],[1,0]],[[1636,1905],[-1,1]],[[1482,3861],[-22,28]],[[2425,1212],[4,-2]],[[2255,1116],[-8,-41]],[[2248,1076],[14,74]],[[2261,1148],[-6,-32]],[[2296,1387],[9,0]],[[1993,1213],[7,3]],[[3930,74],[-65,-39]],[[330,3635],[93,-141]],[[423,3494],[0,-1]],[[424,3493],[-1,1]],[[431,3497],[15,-13]],[[452,3479],[21,-27]],[[474,3450],[19,-42]],[[424,3493]],[[424,3493],[-1,0],[1,-1],[0,1]],[[2293,1444],[7,-21]],[[2156,3559],[-7,-6]],[[2227,3111],[-88,150]],[[2206,1434],[14,-10]],[[2544,1313],[51,-11]],[[2610,1299],[33,7]],[[2643,1307],[-27,-6]],[[2008,1190],[2,-2]],[[2102,1117],[19,-12]],[[2229,1054],[17,-10]],[[1912,3590],[4,-2]],[[1913,3591],[-2,1],[-1,-2],[2,-1],[1,2]],[[1923,3586],[-10,5]],[[1920,3586],[3,0]],[[1923,3586],[13,3]],[[2242,1350],[5,-4]],[[2264,1365],[3,1]],[[2293,1386],[3,-1]],[[2349,1312],[-41,23]],[[2391,1532],[-1,1]],[[2388,1339],[-30,-24]],[[1912,3452],[-2,2]],[[2207,1999],[0,-5]],[[2208,2045],[0,-15]],[[2264,1415],[0,-2]],[[2268,1401],[1,12]],[[2042,3676],[12,-44]],[[2054,3631],[95,-78]],[[2054,3632],[0,-1]],[[2054,3631],[0,1]],[[2150,3553],[-1,0],[0,-1],[1,1]],[[2485,1602],[-8,-6]],[[2477,1596],[9,6]],[[367,3439],[-18,-1]],[[349,3438],[-1,0]],[[348,3438],[-32,-3],[-35,-9]],[[347,3439],[1,-1]],[[348,3439],[0,-1]],[[348,3438]],[[348,3438],[1,-2]],[[349,3438],[0,1]],[[349,3436],[0,2]],[[349,3438]],[[349,3436],[50,-66]],[[349,3438],[1,1]],[[400,3370],[-1,0]],[[399,3370],[1,0]],[[401,3369],[2,0],[26,-6]],[[429,3363],[8,-2]],[[437,3361],[1,0],[9,1]],[[447,3362],[-46,8]],[[429,3363]],[[429,3363]],[[437,3361]],[[437,3361]],[[463,3370],[-16,-8]],[[321,4096],[10,-33]],[[364,3905],[-81,-105],[-23,-71],[70,-94]],[[559,3291],[192,-309],[145,-450],[70,-113],[201,-167]],[[1336,2119],[2,-1]],[[2544,1314],[-64,18]],[[2380,1384],[-2,1]],[[2400,1360],[10,-3]],[[2410,1358],[-9,3]],[[2480,1331],[64,-18]],[[2248,1415],[48,-20]],[[2299,1397],[-51,19]],[[2305,1394],[-2,2]],[[2355,1308],[-1,-1]],[[2355,1306],[1,0]],[[2395,1467],[-40,-25]],[[2270,1480],[12,-9]],[[2283,1471],[-13,9]],[[1971,1233],[12,-23]],[[2312,1019],[117,2]],[[2480,1040],[128,89],[57,77],[-14,59],[18,22]],[[2301,1422],[2,-6]],[[2303,1417],[-1,6]],[[2254,1492],[-2,0]],[[2194,1548],[49,-73]],[[2595,1302],[15,-3]],[[2616,1301],[-1,0]],[[2583,1698],[9,-10]],[[2592,1688],[-8,10]],[[2596,1683],[-4,5]],[[3865,15],[0,20]],[[3865,15]],[[2301,1422],[1,1]],[[2609,1691],[117,88],[62,-6]],[[1902,1108],[-63,-64],[0,-68],[-56,-38],[-48,34],[-216,-280],[-207,-332],[-7,-91],[-267,-134],[-104,-8],[-68,-68],[-89,-59]],[[1993,1213],[-28,-16]],[[2297,1394],[8,-7]],[[2303,1396],[-4,1]],[[2305,1387],[0,7]],[[2178,1402],[2,-5]],[[2188,1398],[-10,9]],[[2182,1397],[6,0]],[[2238,1453],[1,-7]],[[2285,1471],[-2,-1]],[[2284,1469],[1,-1]],[[2598,1302],[-54,12]],[[2017,1416],[19,0]],[[2285,1468],[3,-11]],[[2296,1438],[-11,31]],[[2563,1447],[-5,-1]],[[2559,1446],[4,0]],[[2139,1491],[-34,-64]],[[2166,1499],[-13,-2]],[[2296,1494],[12,0]],[[2390,1446],[-30,-8]],[[2403,1419],[-15,-80]],[[2389,1339],[12,21],[7,37],[0,9],[-5,13]],[[2400,1431],[-10,15]],[[2390,1446],[9,-14]],[[1796,1828],[9,-3]],[[1805,1825],[-9,3]],[[1805,1825],[9,-4]],[[1815,1821],[75,-46]],[[1890,1775],[26,-16]],[[1916,1759],[33,-38]],[[1949,1721],[1,-1]],[[1951,1721],[-2,0]],[[1950,1720],[2,-1]],[[1952,1719],[-1,1]],[[1952,1719],[17,-16]],[[1969,1703],[24,-23]],[[1994,1681],[-25,22]],[[1993,1680],[1,0],[1,0]],[[1995,1680],[-1,1]],[[1994,1681],[-1,-1]],[[1994,1680],[1,-1]],[[1995,1679],[0,1]],[[1995,1679],[56,-40]],[[1814,1821],[0,-1],[1,1],[-1,0]],[[1951,1721],[-1,-1],[1,0]],[[1951,1720],[0,1]],[[2181,1396]],[[2000,1216],[2,1]],[[2004,1217],[-2,0]],[[2007,1219],[-5,-2]],[[2002,1217],[2,0]],[[2007,1219],[-2,-1]],[[2006,1217],[1,2]],[[2007,1219],[23,9]],[[2030,1228],[3,1]],[[2033,1229],[-3,-1]],[[2216,1331],[-27,-27]],[[2175,1501],[-9,-2]],[[2265,1492],[-49,2],[-4,-3],[-5,-4]],[[2213,1492],[52,0]],[[2318,1544],[-7,-34]],[[2311,1512],[7,32]],[[2576,1449],[0,1]],[[1825,3644],[-42,26]],[[2188,1398],[5,-5],[20,-18]],[[2216,1374],[-22,19]],[[2231,1759],[8,-27]],[[2242,1723],[-5,-29]],[[2077,1698],[-1,3]],[[2215,1598],[0,1]],[[2231,1554],[-1,1]],[[0,2419],[88,-51],[-17,-48],[177,-236],[68,-18],[439,-446],[79,-148],[128,-152],[82,-274],[90,-33],[8,-45],[-39,-43],[2,-169],[289,-281]],[[0,2475],[0,-39]],[[15,2589],[-15,-20]],[[2234,1679],[-2,-10],[1,-17]],[[2233,1651],[0,19]],[[2234,1676],[1,3]],[[2288,1457],[5,-13]],[[2302,1424],[-6,14]],[[3815,2541],[26,4]],[[3846,2549],[-5,-4]],[[3846,2550],[0,-1]],[[3847,2551],[27,12]],[[3877,2564],[54,-14],[165,-135]],[[3675,76],[67,18],[26,-15]],[[3802,58],[63,-43]],[[2031,1648],[16,-9]],[[2196,1428],[-179,-12]],[[2229,1419],[3,-2]],[[2468,1421],[25,7]],[[2214,1596],[1,0]],[[2214,1596],[1,-1]],[[2215,1595],[0,1]],[[2215,1595],[14,-40]],[[2054,3631]],[[2349,1384],[1,0]],[[2381,1510],[-46,-78]],[[2336,1432],[31,48],[24,52]],[[2246,1044]],[[2280,1031],[5,-2]],[[2689,1520],[0,1]],[[1923,1424],[10,-1]],[[1931,1424],[-7,1]],[[2429,1021],[51,19]],[[2379,1457],[-12,23]],[[2395,1467],[2,-3]],[[2397,1464],[63,-11]],[[2460,1454],[-63,10]],[[2462,1453],[0,1],[-2,0]],[[2460,1454],[0,-1]],[[2460,1453],[2,0]],[[2432,1208],[64,-13],[65,-59]],[[3858,172],[7,-137]],[[2047,1639],[21,-12]],[[2145,1094],[84,-40]],[[2308,1336],[0,-1]],[[2558,1446],[-21,-2]],[[2449,1338],[31,-7]],[[2479,1332],[-29,7]],[[1190,1543],[14,-7]],[[1204,1536],[6,-3],[28,6]],[[1238,1542],[-34,-6]],[[1204,1536],[-4,-1],[-8,5]],[[1378,1557],[-43,2],[-9,-2]],[[1326,1556],[52,0]],[[1924,1425],[-105,12]],[[1820,1437],[103,-13]],[[4096,234],[-57,-24],[-54,-94],[-55,-42]],[[2299,1397],[-2,-3]],[[2305,1394],[-2,23]],[[2305,1383],[1,0]],[[2305,1387]],[[2355,1442],[-12,-7]],[[2389,1531],[2,-1]],[[2340,1433],[3,1]],[[2262,1150],[-1,-2]],[[1992,345],[-1,0]],[[1991,345],[1,0]],[[2150,731],[1,-1]],[[2152,731]],[[2175,1559],[19,-11]],[[2252,1492],[-4,0]],[[2249,1490],[4,0]],[[2803,331],[6,-3]],[[2839,330],[4,1]],[[2847,332],[99,13]],[[2981,349],[96,15],[18,-55]],[[2376,1384],[-71,3]],[[2305,1387],[44,-3]],[[2350,1384],[26,-2]],[[1910,3591],[-11,-6]],[[1899,3584],[12,5]],[[2105,1427],[12,45],[40,25]],[[2239,1446],[1,-4]],[[2285,1469],[-1,2]],[[2095,1666],[-10,17]],[[2088,1677],[3,-5]],[[2099,1656],[21,-37]],[[2120,1620],[-20,36]],[[3251,3727],[-584,-185],[-252,37]],[[3937,4096],[-609,-338]],[[1979,3367],[1,1]],[[1979,3367],[2,-2],[2,-3],[21,-31]],[[2004,3331],[47,-70]],[[2051,3261],[0,-1],[16,0],[29,1]],[[2089,3262],[-23,-1],[-15,0]],[[2051,3261],[-1,0],[-46,70]],[[2004,3331],[-21,31],[-3,6]],[[2096,3262],[-7,0]],[[2103,3263],[-14,-1]],[[2103,3263],[-6,-1]],[[2097,3261],[5,1]],[[2097,3261],[-1,1],[0,-1],[1,-1],[0,1]],[[2293,3513],[5,-19]],[[2175,1417],[0,-8],[3,-7]],[[2178,1407],[-2,13]],[[2180,1399],[1,-1]],[[2182,1398],[1,0]],[[2194,1393],[-6,5]],[[2213,1375],[2,-2]],[[2269,1413],[-3,-35]],[[2267,1378],[1,23]],[[2285,1469],[0,1]],[[2271,1235],[-2,-44]],[[2270,1191],[2,44]],[[2311,1426],[0,-1]],[[416,3458],[2,0]],[[418,3458],[-2,0]],[[418,3458],[27,-20]],[[446,3437],[28,-27]],[[474,3410],[3,-3]],[[478,3407],[-4,3]],[[478,3406],[9,-9]],[[488,3397],[-10,10]],[[445,3437],[1,0]],[[446,3437],[0,1],[-1,-1]],[[477,3407],[0,-1],[1,1],[-1,0]],[[2135,1592],[-66,35],[67,-36]],[[2357,1251],[51,-30]],[[2410,1220],[-46,28]],[[1987,3632],[34,-47]],[[2097,3256],[2,-6],[6,-5],[41,-7],[2,0]],[[2148,3238],[-51,18]],[[2172,3241],[-7,-1]],[[2165,3240],[7,1]],[[2526,1802],[11,27],[2,9],[-3,32]],[[2535,1870],[-7,-62]],[[2206,1434]],[[2010,404],[0,-1],[1,0],[-1,1]],[[2175,776]],[[2248,1419],[-14,0]],[[2260,1419],[-3,0]],[[2300,1423],[-1,-1]],[[2314,1426],[0,1]],[[2039,3677],[-2,-2]],[[2041,3676],[0,1],[-2,0],[1,-1],[1,0]],[[32,2581],[112,43],[105,325],[6,161],[134,210]],[[1811,3492],[-580,-137],[-74,18],[-376,-11],[-58,16],[-70,60]],[[1891,3489],[-74,5]],[[0,2596],[30,-15]],[[30,2581],[1,-1]],[[31,2581],[-1,0]],[[31,2580],[1,-1]],[[32,2579],[0,1]],[[32,2579],[334,-59],[119,-56],[167,-143],[95,-27],[231,-174],[184,-4],[209,-57]],[[1589,1927],[46,-22]],[[1636,1905],[150,-73]],[[1786,1832],[10,-5]],[[1796,1828],[-10,4]],[[31,2581],[0,-1]],[[31,2580],[1,0],[-1,1]],[[1751,2158],[-62,247],[5,192],[-22,74],[24,64],[-52,162],[68,159],[157,209]],[[2069,3963],[8,34]],[[2078,4003],[32,93]],[[2301,3469],[-14,-80],[-73,-44]],[[2247,1075],[-6,-33]],[[2241,1042],[7,34]],[[2255,1116]],[[2260,1419],[-3,0]],[[2561,1136],[289,-228],[234,-246],[143,-78],[210,4],[115,-44],[121,-95],[115,-211],[70,-66]],[[1805,1825],[-9,3]],[[1796,1827],[9,-2]],[[1805,1825],[9,-4]],[[1815,1821],[75,-46]],[[1890,1775],[26,-16]],[[1916,1759],[33,-38]],[[1952,1719],[17,-16]],[[1969,1703],[24,-23]],[[1994,1681],[-25,22]],[[1993,1680],[1,0],[1,0]],[[1995,1680],[-1,1]],[[1994,1681],[-1,-1]],[[1994,1680],[1,-1]],[[1995,1679],[0,1]],[[1995,1679],[36,-31]],[[1951,1721],[-1,-1],[1,0],[0,1]],[[2104,1425],[-1,-7]],[[2241,1042],[-24,-65]],[[2217,977],[24,65]],[[2230,1554],[-1,0]],[[2189,1304],[-43,-25]],[[2147,1278],[43,25]],[[2290,1494],[6,0]],[[2308,1494],[62,-24]],[[2371,1470],[-13,18]],[[389,3320],[11,48]],[[400,3368],[1,1]],[[400,3369],[0,-1]],[[426,3493],[-2,0]],[[424,3492],[2,1]],[[493,3520],[-14,13],[-53,-40]],[[527,3487],[-16,15]],[[2699,1311],[40,2]],[[2738,1313],[-38,-1]],[[4056,1467],[-58,-9],[-80,-20],[-107,41],[-315,-1],[-168,25],[-117,-62],[-193,-47],[-231,-81]],[[2787,1313],[424,128],[117,62],[168,-25],[315,1],[107,-41],[138,28]],[[4096,1465],[-31,3]],[[4065,1467],[31,-4]],[[2134,1271],[9,5]],[[2143,1276],[3,1]],[[2146,1278],[-3,-2]],[[2146,1279]],[[2147,1278],[-1,1],[0,-1],[0,-1],[1,1]],[[2172,3241],[185,34],[71,-96],[45,-19],[63,8],[48,-25],[67,-179],[4,-6],[89,-203]],[[2744,2755],[1,-3],[-1,-87]],[[2744,2665],[0,-30],[-2,-6],[-78,-104],[-88,-168],[-32,-104],[-28,-154],[19,-229]],[[2536,1870],[-19,229],[28,155],[32,103],[166,272],[2,6],[-1,30]],[[2744,2665],[0,90]],[[2744,2755],[0,3],[-159,385],[-48,26],[-108,10],[-71,97],[-186,-35]],[[2153,730],[82,-79],[176,-82],[197,-190],[5,-33],[190,-15]],[[2843,331],[4,1]],[[2946,345],[35,4]],[[3095,309],[39,-141]],[[2364,1248],[-42,23]],[[2323,1270],[34,-19]],[[2360,1438],[-17,-4]],[[369,3439],[-1,0],[1,-1]],[[370,3441],[-1,-1]],[[386,3494],[-16,-53]],[[371,3440],[-1,1]],[[417,3468],[-1,-8]],[[449,3434],[21,17]],[[481,3459],[54,25]],[[1400,2052]],[[1970,3554],[-37,23]],[[1980,3549],[-9,5]],[[1989,3543],[-4,2]],[[1989,3543],[39,-23]],[[2028,3521],[-39,22]],[[2026,3577]],[[2026,3577],[1,0]],[[2027,3577],[-5,7],[4,-7]],[[2026,3577],[10,-13],[1,-2],[-10,15]],[[2031,3520],[-2,1],[-1,-2],[2,-1],[1,2]],[[2032,3518],[-1,2]],[[2055,3501],[-24,19]],[[2032,3518],[22,-19]],[[2032,3518],[20,-17]],[[2052,3501],[2,-1]],[[2054,3501],[-2,0]],[[2054,3499],[1,-1],[2,1],[-2,2]],[[2055,3501],[-1,-2]],[[2056,3498],[31,-66]],[[2088,3432],[-31,67]],[[2067,3541],[0,7]],[[2068,1418],[0,-1]],[[2075,1418],[0,-1]],[[2102,3414],[-13,18]],[[2102,3414],[2,-19]],[[2104,3395],[-2,19]],[[2104,3394],[1,-4]],[[2104,3395],[0,-1],[1,0],[-1,1]],[[2105,1427],[-1,-2]],[[2105,3390],[-1,4]],[[2105,1418],[0,9]],[[2112,3365],[-7,25]],[[2120,1620],[0,-1]],[[2136,3271],[0,1]],[[2155,1418],[0,1]],[[2157,1497],[9,3]],[[2168,1419]],[[2197,1472],[-22,-55]],[[2176,1420],[22,52]],[[2181,1396],[1,0]],[[2184,1399],[0,2]],[[2224,1544],[-34,-35]],[[2191,1508],[23,24],[10,12]],[[2212,1491],[-5,-5]],[[2207,1486],[5,5]],[[2208,1485],[5,7]],[[2215,1373],[27,-23],[-26,24]],[[2219,1610],[-1,-25]],[[2223,1621],[1,0]],[[2228,1551],[-4,-7]],[[2225,1623],[-1,0]],[[2228,1551],[1,0]],[[2229,1551],[1,0]],[[2229,1552],[-1,-1]],[[2228,1551],[1,0]],[[2229,1551],[2,-1]],[[2243,1475],[-3,-10],[-2,-11]],[[2240,1442],[4,36]],[[2244,1478]],[[2244,1478],[4,14]],[[2247,1346],[2,7]],[[2248,1344],[-1,3]],[[2248,1416],[0,3]],[[2254,1494],[-3,-2]],[[2253,1497],[-2,-2]],[[2253,1523],[0,-1]],[[2253,1490],[1,2]],[[2253,1547],[1,-2]],[[2254,1490],[2,0]],[[2261,1325]],[[2267,1366],[-3,-1]],[[2266,1378],[-1,-11]],[[2266,1367],[1,11]],[[2268,1400],[0,3]],[[2277,1525],[-1,0]],[[2304,1404]],[[2305,1409],[-1,0]],[[2308,1495],[3,17]],[[2311,1510],[-3,-15]],[[2308,1495],[0,-1]],[[2317,1578],[1,-34]],[[2318,1544],[0,34]],[[2322,1271],[0,-1]],[[2368,1322],[-7,-5],[-6,-14],[0,-5]],[[2356,1298],[12,24]],[[2365,1478],[1,0]],[[2376,1384],[0,-2]],[[2383,1459],[13,3]],[[2396,1462],[4,0]],[[2401,1462],[-5,0]],[[2468,1421],[-61,-12],[-2,0]],[[2405,1409],[1,-1]],[[2405,1409],[2,-11]],[[2408,1397],[85,31]],[[2537,1441],[1,0]],[[2559,1446]],[[2582,1453]],[[2590,1465],[0,-1]],[[2591,1465],[0,1]],[[370,3440],[-1,-1],[1,-1],[2,1],[-2,1]],[[416,3458],[0,1],[-1,-1],[1,0]],[[494,3386],[0,1],[-1,-1],[1,0]],[[1970,3554],[0,-1],[1,1],[-1,0]],[[1981,3548],[3,-2],[0,1],[-3,2],[0,-1]],[[2087,3432],[0,-1],[1,0],[0,1]],[[2088,3432],[-1,0]],[[2241,1519],[1,-1],[1,1],[-1,1],[-1,-1]],[[1410,3971],[-78,125]],[[1829,3642],[-335,209]],[[1829,3642],[65,-49]],[[1895,3595],[-66,47]],[[1895,3543],[12,-85]],[[1906,3459],[-11,82]],[[2202,2266],[36,191],[94,211],[-91,314],[-14,129]],[[2302,1423],[0,1]],[[1965,1419],[52,-3]],[[1917,1605],[-51,-56],[0,-2]],[[1866,1547],[1,-8]],[[1867,1539],[3,-16],[5,-18]],[[1876,1506],[-9,33]],[[1867,1539],[-2,7],[1,1]],[[1866,1547],[51,55]],[[1876,1504],[14,-10]],[[1891,1494],[-14,10]],[[1891,1493],[13,-46]],[[1905,1447],[-13,46]],[[1906,1428],[-1,16]],[[1906,1425],[11,-82],[54,-110]],[[1920,1608],[47,48]],[[1966,1656],[-26,-24]],[[2046,1751],[-14,-10],[-9,-17],[-15,-30],[-37,-33],[-2,-3],[-2,-1]],[[1967,1656],[41,38],[38,57]],[[2246,1842],[-49,-15]],[[2199,1827],[7,3]],[[2246,1044],[34,-13]],[[2285,1029],[27,-10]],[[2510,1773],[5,-3]],[[2512,1774],[1,-1]],[[2513,1772],[1,1]],[[2689,1521],[-15,61],[-76,98]],[[2669,1287],[20,233]],[[1966,1656],[1,0]],[[1967,1656],[0,1]],[[1967,1657],[-1,-1]],[[2221,1613],[10,26]],[[2233,1652],[-1,-8]],[[2233,1644],[0,7]],[[1903,3611],[32,-20]],[[1935,3591],[1,-1]],[[1936,3591],[-1,0]],[[2216,1330],[26,20],[-26,-19]],[[2232,1644],[-19,-48]],[[2214,1596],[15,-43]],[[2215,1599],[6,14]],[[2230,1555],[-15,42]],[[2231,1639],[2,5]],[[2303,1416],[2,-46]],[[2306,1370],[-3,47]],[[2147,1571],[28,-12]],[[2215,1596],[-1,3]],[[2120,3333],[-8,31]],[[1899,3584]],[[1900,3585],[-1,0]],[[1900,3577],[1,8]],[[2487,1603],[-2,-1]],[[2486,1602],[1,1]],[[2609,1691],[-19,-14]],[[2239,1732],[3,-9]],[[2242,1723],[-2,9]],[[2128,1606],[27,-50]],[[2213,1479],[15,-9]],[[2036,1416],[169,17]],[[2234,1419],[-28,15]],[[2205,1433]],[[2281,1306],[27,30]],[[2281,1306],[3,-11]],[[2287,1291],[-6,15]],[[2285,1470],[-2,1]],[[2283,1470],[2,-1]],[[3812,2539],[1,2]],[[3846,2550],[1,0],[0,1],[-1,0],[0,-1]],[[3876,2564],[-1,-1],[1,1]],[[2206,1434],[1,1]],[[2257,1419],[-12,9]],[[2257,1419],[3,0]],[[2301,1422],[-41,-3]],[[2377,1380],[2,0]],[[2399,1432],[-19,-46]],[[2380,1386],[26,22]],[[2407,1408],[-7,23]],[[2462,1452],[75,-11]],[[2537,1444],[-2,0],[-73,10]],[[2559,1446],[-1,0]],[[2155,1556],[58,-77]],[[2134,1271],[0,1],[-1,0],[0,-1],[1,0]],[[2809,328],[30,2]],[[1400,2051]],[[1400,2051],[2,0],[-1,0]],[[1400,2052],[0,-1]],[[1400,2051],[1,0],[0,1],[-1,0]],[[2538,1441],[8,2]],[[2615,1474],[-16,1],[-20,-23]],[[2579,1451],[15,14]],[[2609,1471],[6,2]],[[2618,1475],[-3,-1]],[[2616,1474],[2,1]],[[2616,1474],[-1,0],[0,-1],[1,1]],[[2618,1475],[64,11]],[[511,3502],[-18,18]],[[653,3438],[-11,31],[-115,18]],[[2429,1210],[3,-2]],[[1370,2060],[29,-9]],[[1400,2051],[-1,0]],[[1399,2051],[1,0]],[[1400,2051],[2,0]],[[1402,2051],[-1,0]],[[1402,2051],[192,-120]],[[2051,1639],[18,-12]],[[2069,1627],[67,-36]],[[2135,1592],[-66,35]],[[1400,2052],[0,-1]],[[1400,2051],[1,0],[0,1],[-1,0]],[[2238,1454],[0,-1]],[[2248,1416],[0,-1]],[[2296,1395],[1,0]],[[2283,1470],[-55,0]],[[2349,1313],[3,-3]],[[2352,1311],[-2,2]],[[2231,1552],[2,0]],[[2233,1552],[-2,1]],[[2253,1549],[-20,3]],[[2256,1548],[-1,2],[-2,-2],[1,-1],[2,1]],[[2267,1385],[0,9]],[[2039,1232],[-6,-2]],[[2033,1229],[6,3]],[[2134,1271],[-95,-39]],[[2033,1230],[0,-1],[0,1]],[[2293,1386],[-29,-21]],[[2358,1488],[-68,7]],[[2364,1480],[14,-24],[12,-10]],[[2367,1480],[-2,2]],[[2393,1447],[-14,10]],[[2393,1447],[46,7]],[[2439,1455],[-46,-8]],[[3824,2569],[-68,26],[-245,192],[-266,167],[-155,237],[-419,352]],[[3824,2569],[1,0]],[[3825,2569],[-1,0]],[[2190,1303],[26,27]],[[4065,1468],[-9,-1]],[[4056,1466],[9,1]],[[2308,1335],[0,1]],[[2349,1313],[-3,-1]],[[2352,1310],[1,-57]],[[2355,1252],[2,56],[-5,3]],[[2358,1315],[-3,-7]],[[2357,1308],[3,8]],[[3813,2541],[2,2]],[[3825,2569],[0,-1],[0,1]],[[2165,3240],[-17,-2]],[[2148,3238],[17,2]],[[2406,1408],[1,0]],[[2207,1487],[-3,-3]],[[2450,1339],[-40,19]],[[2410,1357],[39,-19]],[[2480,1332],[-1,0]],[[413,3519],[-27,-25]],[[423,3489],[-6,-21]],[[470,3451],[2,1]],[[478,3458],[3,1]],[[1876,1505],[0,1]],[[1883,1427],[9,0]],[[1898,3599],[12,-8]],[[1911,3592],[-13,8]],[[1904,1447]],[[1904,1443],[2,-15]],[[1916,3588],[14,-8]],[[1917,1602],[1,2]],[[1940,1632],[-20,-24]],[[1920,1608],[-3,-2]],[[1918,1605],[2,3]],[[1920,1608]],[[1918,1605],[0,1],[-1,-1],[1,-1],[0,1]],[[1930,3580],[-12,7]],[[1933,3577],[-3,3]],[[1987,1417]],[[2067,3548],[-13,83]],[[2166,1500],[20,6]],[[2186,1506],[3,1],[2,1]],[[2190,1509],[-4,-3]],[[2186,1506],[-9,-5],[-2,0]],[[2190,1506],[-4,-1]],[[2207,1486],[0,-1]],[[2207,1485],[-10,-13]],[[2198,1472],[10,13]],[[2205,1483],[2,2]],[[2207,1485],[0,1]],[[2224,1621],[0,-1]],[[2225,1622],[0,1]],[[2233,1670],[1,6]],[[2269,1637],[48,-59]],[[2318,1578],[-33,45]],[[2547,1740],[2,-1]],[[2549,1738],[1,-1]],[[2582,1453]],[[401,3370],[-1,0],[0,-1],[1,0],[0,1]],[[1877,1505],[-1,0],[-1,0],[1,-1],[1,1]],[[1892,1493],[-1,1],[-1,-1],[1,0],[1,0]],[[1904,1445],[0,-2],[1,0],[-1,4],[0,-2]],[[2202,1844],[1,-27],[1,-4]],[[2205,1813],[-3,32]],[[2206,1970],[-1,-33]],[[2205,1937],[1,26]],[[2240,1732],[-7,24]],[[2237,1694],[5,29]],[[331,4063],[21,-13]],[[353,4050],[0,1],[-1,0],[0,-1],[1,0]],[[353,4050],[11,-145]],[[416,3459]],[[446,3484],[6,-5]],[[473,3452],[1,-2]],[[493,3408],[-5,-11]],[[488,3397],[5,-11]],[[494,3387],[-6,10]],[[494,3386],[2,-3]],[[496,3383],[-2,3]],[[496,3383],[24,-29]],[[520,3354],[4,-6]],[[559,3291],[-35,57]],[[1167,2252],[130,-81],[39,-52]],[[1338,2118],[62,-66]],[[2234,1676]],[[281,3426],[-135,-23],[-146,183]],[[1494,3851],[-84,120]],[[1894,3593],[1,-50]],[[1895,3541],[5,36],[-1,8],[-4,10]],[[1910,3454],[-4,5]],[[1907,3458],[3,-5],[33,-29]],[[1944,3425],[-5,5],[-27,22]],[[1944,3425],[-1,-1]],[[1943,3424],[1,-1]],[[1945,3424],[-1,1]],[[1944,3423],[1,1]],[[1944,3423],[34,-54]],[[1979,3369],[-34,55]],[[2206,1963],[7,177],[-11,126]],[[2207,1994],[-1,-24]],[[2208,2030],[-1,-31]],[[2242,1350],[22,15]],[[2272,1389],[24,-2]],[[2305,1387],[-33,3]],[[2251,1549],[2,-2]],[[2255,1547],[22,-22]],[[2277,1525],[-21,23]],[[2290,1495],[-13,30]],[[2579,1452],[-3,-2]],[[2576,1449],[3,2]],[[2594,1465],[15,6]],[[2791,1503],[-109,-17]],[[2830,1508],[-5,-1]],[[2989,1539],[72,9]],[[1882,1428],[0,-1],[1,0],[-1,1]],[[2112,3364],[0,1]],[[2136,3270],[-16,63]],[[2302,1424],[-1,-2]],[[2254,1545],[0,-53]],[[2254,1545],[1,2]],[[1994,1416],[-63,8]],[[1933,1423],[32,-4]],[[2290,1495],[-25,-3]],[[2265,1492],[25,2]],[[2303,1416],[0,-20]],[[1371,2059],[28,-8]],[[1402,2051],[187,-124]],[[2068,1627],[1,0]],[[2340,1433],[-4,-1]],[[2615,1301],[-17,1]],[[2205,1937],[-3,-93]],[[2202,1845],[3,92]],[[2021,3585],[1,-1]],[[2138,3260],[2,-2]],[[2492,1432],[-2,-4]],[[2533,1440],[-41,-8]],[[2492,1432],[1,-3]],[[2533,1440],[4,1]],[[2535,1442],[-2,-2]],[[2204,1813],[9,-26],[18,-28]],[[2233,1756],[-28,57]],[[2136,3262],[4,-4]],[[2254,1545]],[[2220,1424],[9,-5]],[[2232,1417],[16,-2]],[[2248,1416],[-14,3]],[[2376,1382],[1,-2]],[[2378,1385],[-2,-1]],[[2379,1380],[1,4]],[[2234,1679],[-1,-12],[0,-15]],[[2233,1651],[2,28]],[[3815,2543],[10,24]],[[3825,2568],[0,-1]],[[3825,2567],[0,1]],[[3825,2570],[0,-1]],[[3825,2570],[92,235],[86,361],[4,219],[48,176],[41,131]],[[3825,2569],[0,1]],[[2230,1551],[23,-61]],[[1620,0],[-95,214],[-5,130],[-123,128]],[[2005,1218],[-1,-1],[1,-1],[1,1],[-1,1]],[[2153,1497],[-14,-6]],[[2182,1395],[72,-80]],[[2197,1826],[3,1]],[[2253,1490],[17,-10]],[[2270,1480],[-16,12]],[[2284,1471],[-1,0]],[[2283,1470],[2,-2]],[[2103,1785],[-57,-33]],[[2047,1751],[56,33]],[[2197,1827],[-93,-42]],[[2105,1785],[92,41]],[[2105,1785],[-1,1],[-1,-1],[1,-1],[1,1]],[[2360,1316],[29,23]],[[2408,1221],[17,-9],[-15,8]],[[2206,1830],[40,12]],[[2246,1842]],[[2411,1834],[-164,8]],[[2247,1842],[164,-8]],[[2411,1834],[172,-136]],[[2549,1739],[-35,34],[-103,61]],[[2584,1698],[-34,41]],[[2598,1680],[-2,3]],[[2411,1834]],[[2411,1834]],[[2550,1739],[-1,0],[1,-1],[0,1]],[[1814,1821],[0,-1],[1,1],[-1,0]],[[2213,1596],[1,0]],[[2269,1191],[-5,-30]],[[2264,1161],[6,30]],[[0,0],[0,4096],[4096,0],[0,-4096],[-4096,0]],[[3921,0],[-169,0],[-27,43],[-59,9],[25,70],[30,2],[75,-72],[48,46],[17,90],[59,-31],[12,-103],[-11,-54]],[[446,3657],[74,-123],[72,-28],[-22,-108],[-56,-63],[-73,-23],[-75,12],[0,45],[-65,0],[-72,201],[8,27],[81,10],[16,35],[64,0],[0,46],[48,-31]],[[1713,3964],[45,-49],[-16,-52],[-84,-50],[-63,11],[-32,45],[-169,-44],[-58,44],[40,83],[49,28],[41,-20],[0,-45],[97,45],[0,46],[150,-42]],[[3343,3688],[-69,-6],[-27,52],[-1,181],[52,-17],[45,-210]],[[2166,3852],[-20,-119],[97,46],[157,-53],[70,7],[-57,-160],[-170,-158],[-130,-318],[-80,11],[-179,125],[65,137],[-30,213],[30,59],[0,91],[194,182],[46,-29],[7,-34]],[[1948,1217],[55,-65],[-19,-101],[-52,7],[-78,130],[-32,0],[0,45],[-98,31],[1,61],[39,2],[58,-93],[126,-17]],[[1357,1502],[-20,-109],[-81,-46],[-81,23],[0,91],[32,45],[-57,123],[25,59],[41,-22],[20,-52],[4,-153],[73,23],[14,60],[-23,190],[109,-52],[26,-90],[-70,-40],[-12,-50]],[[3084,1597],[-65,-136],[-19,5],[-13,85],[-39,12],[-123,-57],[-32,137],[70,43],[78,-10],[143,-79]],[[2192,2274],[51,-41],[97,0],[57,-230],[40,-42],[33,0],[32,-91],[194,0],[0,-91],[97,45],[-7,-67],[-71,-99],[13,-106],[65,-46],[-33,-45],[33,-182],[-71,44],[-25,-13],[-63,-51],[-35,-116],[-203,-36],[-95,-100],[-45,2],[-175,134],[-33,90],[-96,0],[-33,91],[-65,46],[-86,168],[49,79],[-6,164],[-20,61],[-72,50],[-59,160],[25,55],[82,64],[39,-2],[118,-144],[-37,-19],[50,-95],[15,50],[64,0],[0,182],[176,131]],[[1913,3566],[44,25],[31,-36],[32,31],[70,-56],[48,21],[44,-111],[-25,-14],[16,-25],[-39,9],[26,-17],[-42,-7],[-7,-27],[-37,64],[-81,-5],[-46,64],[54,53],[-88,31]],[[1952,1105],[22,28],[13,-38],[68,-11],[46,14],[1,41],[28,-16],[-27,-57],[91,-53],[55,64],[-5,-79],[47,43],[-25,-51],[35,-27],[-73,23],[-20,-16],[9,27],[-33,7],[-29,26],[-59,27],[0,-22],[-27,1],[7,29],[-43,15],[1,-21],[-82,46]],[[2195,1008],[13,-4],[27,36],[-24,-14],[-16,-18]],[[2079,3272],[6,53],[32,-6],[5,21],[69,-159],[36,-48],[39,-1],[35,-40],[11,13],[-4,-42],[27,-16],[-81,-16],[45,58],[-28,30],[-45,-8],[-48,81],[-25,-4],[19,14],[-36,54],[-24,-10],[-14,14],[22,13],[-41,-1]],[[2108,3311],[8,-28],[7,-6],[4,-1],[6,4],[-25,31]],[[2009,4013],[10,11],[47,-13],[14,27],[-3,-35],[19,-3],[-23,-4],[-6,-33],[20,-4],[-29,-60],[34,-8],[19,44],[12,0],[-26,-123],[37,-10],[-37,0],[8,-12],[26,5],[7,-7],[-48,-6],[29,-33],[-27,-1],[-30,41],[31,18],[-6,43],[-47,-14],[-15,82],[25,0],[-16,11],[34,72],[-59,12]],[[2054,3882],[5,-29],[33,22],[-22,17],[-16,-10]],[[2553,1498],[44,64],[1,-25],[45,23],[5,-32],[41,-7],[-17,-87],[-54,3],[9,27],[-23,10],[-24,-23],[-27,47]],[[1617,1368],[58,7],[-38,-26],[97,-58],[70,50],[18,-58],[-52,-22],[67,-70],[50,-6],[14,-39],[-39,-3],[-107,124],[-98,36],[-40,65]],[[1813,1318],[52,13],[72,-49],[-80,-69],[-44,105]],[[2330,899],[50,-5],[-19,-33],[51,-66],[144,-96],[-54,-7],[-118,68],[-3,63],[-51,76]],[[2803,326],[0,10],[109,5],[29,46],[6,-44],[98,17],[22,52],[40,-43],[123,44],[-25,6],[44,6],[13,26],[37,-14],[19,57],[19,-12],[-21,-45],[43,-2],[-216,-60],[-37,-22],[-12,-48],[-28,43],[-150,-28],[-71,13],[-31,-26],[-11,19]],[[3388,441],[26,35],[5,-32],[54,34],[57,-14],[42,-130],[-61,73],[-123,34]],[[2513,589],[33,30],[22,-10],[-37,-46],[36,-33],[18,-72],[59,-46],[53,-6],[4,-30],[-122,52],[-66,161]],[[2669,643],[40,11],[38,-28],[-1,-51],[51,-97],[63,9],[20,45],[56,-27],[-137,-43],[-68,64],[16,21],[-17,50],[-61,46]],[[2159,1862],[37,82],[43,-33],[81,10],[-55,-76],[-16,24],[-71,-37],[-19,30]],[[1814,1993],[25,22],[31,-29],[39,-126],[-50,-15],[16,32],[-36,32],[-25,84]],[[1141,2291],[22,34],[54,-103],[38,-16],[38,25],[-26,-28],[48,-42],[35,35],[18,-15],[-43,-22],[12,-42],[15,12],[52,-75],[191,-122],[-14,-12],[-134,74],[-73,60],[-83,118],[-22,12],[-31,-24],[-23,56],[-60,46],[21,19],[-35,10]],[[1524,3852],[20,40],[-15,17],[51,4],[-4,-32],[21,1],[62,48],[-14,30],[9,7],[54,-81],[44,-2],[24,28],[7,-42],[-72,-41],[-21,35],[-10,-28],[-17,19],[-25,-22],[-13,19],[-14,-17],[-10,18],[-77,-1]],[[409,4096],[3,-8],[-17,-30],[-6,38],[20,0]],[[136,3663],[61,21],[-60,28],[54,3],[32,111],[-37,46],[40,-20],[2,36],[17,-31],[40,19],[29,33],[11,85],[25,-90],[-118,-111],[-35,-82],[48,-104],[71,-67],[-69,27],[-31,38],[17,15],[-57,45],[-40,-2]],[[542,4096],[188,-99],[36,17],[-3,61],[22,-51],[40,55],[-34,-63],[16,-32],[57,-1],[6,-30],[-185,43],[-15,-48],[2,47],[-122,7],[127,8],[-162,86],[27,0]],[[331,4062],[25,34],[26,-73],[16,14],[16,-27],[-50,-106],[-33,158]],[[329,3497],[28,21],[89,-74],[31,9],[-18,-19],[70,-53],[45,-110],[-67,88],[-84,20],[-59,48],[14,58],[-49,12]],[[446,3483],[4,26],[34,-29],[13,58],[16,-33],[-23,-37],[47,24],[95,-17],[-23,34],[29,-17],[-5,54],[16,-68],[43,-21],[25,-3],[9,38],[-33,24],[7,27],[26,-36],[25,4],[-1,-25],[45,17],[-6,-35],[-41,13],[-33,-36],[-62,-7],[-110,47],[-47,-36],[-50,34]],[[1936,1307],[43,6],[-7,25],[35,-19],[32,46],[-3,31],[-23,-3],[11,68],[-32,19],[17,38],[33,-5],[18,-37],[64,4],[-8,51],[-94,30],[-37,-14],[16,42],[112,-25],[73,-89],[36,-9],[-69,93],[-19,-7],[-1,25],[-26,-4],[-93,79],[36,-15],[24,65],[93,-53],[40,15],[-17,-46],[43,26],[-17,-45],[16,-46],[48,31],[4,-35],[34,29],[35,-35],[43,35],[5,-27],[10,73],[75,-32],[4,30],[-41,36],[27,42],[73,-28],[23,28],[36,-5],[-56,-56],[10,-21],[-65,-10],[16,-25],[-79,-68],[25,-9],[-5,-30],[8,-9],[13,-4],[4,40],[-14,-36],[-7,40],[48,67],[52,-57],[-20,-59],[28,9],[-4,-23],[54,-37],[44,3],[4,-34],[-31,10],[-8,-31],[-48,17],[-50,-87],[-54,4],[-31,43],[-10,-37],[-74,13],[23,-65],[62,8],[-26,-98],[-48,-20],[20,61],[-36,-13],[-8,-47],[-3,44],[-36,6],[-2,-38],[-48,18],[-1,-48],[-33,101],[-64,11],[-19,-47],[-20,58],[-61,-18],[-13,-38],[-36,5],[-73,119]],[[2481,1495],[15,-15],[22,13],[-10,-28],[5,-10],[25,11],[-25,-5],[6,40],[-38,-6]],[[2206,1943],[42,47],[-19,16],[162,15],[-100,-26],[27,-28],[56,-4],[-75,-9],[-35,-40],[-58,29]]]}