{"objects":{"water":{"type":"GeometryCollection","geometries":[{"type":"MultiPolygon","properties":{"source":"naturalearthdata.com","kind":"ocean","area":1576712559132672,"sort_rank":200,"min_zoom":0.0,"id":1},"arcs":[[[5]]]},{"type":"LineString","properties":{"source":"naturalearthdata.com","kind":"ocean","sort_rank":205,"boundary":true,"min_zoom":0.0,"id":1360},"arcs":[6]}]},"buildings":{"type":"GeometryCollection","geometries":[]},"places":{"type":"GeometryCollection","geometries":[]},"transit":{"type":"GeometryCollection","geometries":[]},"pois":{"type":"GeometryCollection","geometries":[]},"boundaries":{"type":"GeometryCollection","geometries":[{"type":"LineString","properties":{"name:kg":"Ginea ya Ekwatelo","name:ka":"\u10d4\u10d9\u10d5\u10d0\u10e2\u10dd\u10e0\u10e3\u10da\u10d8 \u10d2\u10d5\u10d8\u10dc\u10d4\u10d0","name:tr":"Ekvator Ginesi","name:ts":"Gineya ya le Nkaveni","name:km":"\u17a0\u17d2\u1782\u17b8\u178e\u17c1\u17a2\u17c1\u1780\u17d2\u179c\u17b6\u1791\u17d0\u179a","name:kk":"\u042d\u043a\u0432\u0430\u0442\u043e\u0440\u043b\u044b\u049b \u0413\u0432\u0438\u043d\u0435\u044f","name:tt":"\u042d\u043a\u0432\u0430\u0442\u043e\u0440\u0438\u0430\u0301\u043b\u044c \u0413\u0432\u0438\u043d\u0435\u0301\u044f","name:kw":"Gyni Ekwadoriel","name:tk":"Ekwatorial Gwine\u00fda","name:th":"\u0e2d\u0e34\u0e40\u0e04\u0e27\u0e17\u0e2d\u0e40\u0e23\u0e35\u0e22\u0e25\u0e01\u0e34\u0e19\u0e35","name:ti":"\u12a2\u12b3\u1276\u122a\u12eb\u120d \u130a\u1292","name:ks":"\u0627\u0650\u06a9\u0648\u0650\u0679\u0648\u0631\u0650\u06cc\u064e\u0644 \u06af\u0650\u0646\u06cc","name:to":"\u02bbEkueta Kini","name:tl":"Gineang Ekwatoriyal","name:ce":"\u0414\u0443\u044c\u043d\u0435\u043d\u0430 \u0430\u0441\u0430\u043d\u0430\u043d \u0413\u0432\u0438\u043d\u0435","name:ta":"\u0b8e\u0b95\u0bcd\u0b95\u0bc1\u0bb5\u0b9f\u0bcb\u0bb0\u0bbf\u0baf\u0bb2\u0bcd \u0b95\u0bbf\u0ba9\u0bbf","name:tg":"\u0413\u0432\u0438\u043d\u0435\u044f\u0438 \u0418\u0441\u0442\u0438\u0432\u043e\u04e3","name:ca":"Guinea Equatorial","name:te":"\u0c0e\u0c15\u0c4d\u0c35\u0c47\u0c1f\u0c4b\u0c30\u0c3f\u0c2f\u0c3e\u0c32\u0c4d \u0c17\u0c3f\u0c28\u0c3f\u0c2f\u0c3e","name:cy":"Gini Gyhydeddol","name:hr":"Ekvatorska Gvineja","name:da":"\u00c6kvatorialguinea","name:de":"\u00c4quatorialguinea","name:dz":"\u0f68\u0f7a\u0f0b\u0f40\u0f74\u0f0b\u0f4a\u0f7c\u0f0b\u0f62\u0f7a\u0f63\u0f0b \u0f42\u0f72\u0f0b\u0f53\u0f72","source":"openstreetmap.org","name:kn":"\u0cb5\u0cbf\u0cb7\u0cc1\u0cb5\u0ca6\u0ccd\u0cb0\u0cc7\u0c96\u0cc6\u0caf \u0c97\u0cbf\u0ca8\u0cbf","name:dv":"\u0787\u07a8\u0786\u07aa\u0787\u07ac\u0793\u07af\u0783\u07a8\u0787\u07a6\u078d\u07b0 \u078e\u07a8\u0782\u07a9","name:lv":"Ekvatori\u0101l\u0101 Gvineja","name:lt":"Pusiaujo Gvin\u0117ja","name:uz":"Ekvatorli Gvineya","name:cs":"Rovn\u00edkov\u00e1 Guinea","name:ur":"\u0627\u0633\u062a\u0648\u0627\u0626\u06cc \u06af\u0646\u06cc","name:lb":"Equatorialguinea","name:la":"Guinea Aequatorensis","name:ki":"Ginekweta","name:uk":"\u0415\u043a\u0432\u0430\u0442\u043e\u0440\u0456\u0430\u0301\u043b\u044c\u043d\u0430 \u0490\u0432\u0456\u043d\u0435\u0301\u044f","name:ug":"\u0626\u06d0\u0643\u06cb\u0627\u062a\u0648\u0631 \u06af\u06cb\u0649\u0646\u06d0\u064a\u0649\u0633\u0649","name:li":"Equatoriaal Guinee","name:ln":"Gine-Ekwatorial","name:lo":"\u0ead\u0eb5\u0e84\u0ebb\u0ea7\u0ec2\u0e97\u0ec0\u0ea5\u0e8d\u0e81\u0eb5\u0ec0\u0e99\u0e8d","name:el":"\u0399\u03c3\u03b7\u03bc\u03b5\u03c1\u03b9\u03bd\u03ae \u0393\u03bf\u03c5\u03b9\u03bd\u03ad\u03b1","name:eo":"Ekvatora Gvineo","name:en":"Equatorial Guinea","name":"Guinea Ecuatorial","name:ee":"Gini Ekwatoria","name:ku":"G\u00eeneya Rojbend\u00ee","name:eu":"Ekuatore Ginea","name:et":"Ekvatoriaal-Guinea","name:ia":"Guinea Equatorial","name:rm":"Guinea Equatoriala","name:az":"Ekvatorial Qvineya","name:ie":"Equatorial Guin\u00e9a","name:id":"Guinea Khatulistiwa","name:ig":"Equatorial Guinea","name:ar":"\u063a\u064a\u0646\u064a\u0627 \u0627\u0644\u0627\u0633\u062a\u0648\u0627\u0626\u064a\u0629","name:io":"Equatorala Guinea","name:is":"Mi\u00f0baugs-G\u00ednea","name:am":"\u12a2\u12b3\u1276\u122a\u12eb\u120d \u130a\u1294","name:it":"Guinea Equatoriale","name:co":"Guinea Equatoriale","name:an":"Guinea Equatorial","name:ru":"\u042d\u043a\u0432\u0430\u0442\u043e\u0440\u0438\u0430\u0301\u043b\u044c\u043d\u0430\u044f \u0413\u0432\u0438\u043d\u0435\u0301\u044f","name:rw":"Gineya Ekwatoriyale","name:af":"Ekwatoriaal-Guinee","name:zu":"iGini Enkabazwe","kind_detail":"2","name:zh-yue":"\u8d64\u9053\u757f\u5167\u4e9e","name:zh":"\u8d64\u9053\u51e0\u5185\u4e9a","name:so":"Ikweetiga Guinea","name:sn":"Equatorial Guinea","name:sm":"Kini Ekuatoria","name:sl":"Ekvatorialna Gvineja","name:sk":"Rovn\u00edkov\u00e1 Guinea","name:ja":"\u8d64\u9053\u30ae\u30cb\u30a2","name:si":"\u0dc3\u0db8\u0d9a \u0d9c\u0dd2\u0db1\u0dd2\u0dba\u0dcf\u0dc0","name:sh":"Ekvatorijalna Gvineja","name:sg":"Gin\u00ebe t\u00ee Ekuat\u00ebre","name:se":"Beaivved\u00e1si Guinea","name:sc":"Guinea Ecuadoriale","name:br":"Ginea ar C'heheder","name:bs":"Ekvatorijalna Gvineja","name:bm":"C\u025bmajan Gine","name:bn":"\u09ac\u09bf\u09b7\u09c1\u09ac\u09c0\u09af\u09bc \u0997\u09bf\u09a8\u09bf","name:bo":"\u0f68\u0f72\u0f0b\u0f41\u0f74\u0f60\u0f0b\u0f4a\u0f7c\u0f0b\u0f62\u0f63\u0f0b\u0f42\u0f72\u0f0b\u0f53\u0f7a\u0f0d","name:sw":"Guinea ya Ikweta","name:be":"\u042d\u043a\u0432\u0430\u0442\u0430\u0440\u044b\u044f\u043b\u044c\u043d\u0430\u044f \u0413\u0432\u0456\u043d\u0435\u044f","name:su":"Guin\u00e9a Khatulistiwa","name:st":"Equatorial Guinea","name:sr":"\u0415\u043a\u0432\u0430\u0442\u043e\u0440\u0438\u0458\u0430\u043b\u043d\u0430 \u0413\u0432\u0438\u043d\u0435\u0458\u0430","name:sq":"Guinea Ekuatoriale","alt_name:su":"Guin\u00e9a \u00c9kuator","name:jv":"Guinea Khatulistiwa","alt_name:se":"Ekvatori\u00e1la Guinea","name:pt":"Guin\u00e9 Equatorial","name:ps":"\u0627\u06d0\u06a9\u0648\u0627\u067c\u0648\u0631\u064a\u0627\u0644 \u06ab\u0648\u064a\u0646\u0627","name:om":"Iqu\u2019aatoriyaal Giinii","name:oc":"Guin\u00e8a Eq\u00fcatoriala","alt_name:ga":"an Ghuine Mhe\u00e1nchiorclach","alt_name:gd":"Guinea a\u2019 Chrios Mheadhain;Gini Mheadhan-chearcallach","min_zoom":8.0,"name:ro":"Guineea Ecuatorial\u0103","name:ko":"\uc801\ub3c4 \uae30\ub2c8","name:zh-min-nan":"Chhiah-t\u014d Guinea","name:os":"\u042d\u043a\u0432\u0430\u0442\u043e\u0440\u0438\u0430\u043b\u043e\u043d \u0413\u0432\u0438\u043d\u0435\u0439","name:or":"\u0b2c\u0b3f\u0b37\u0b41\u0b2c\u0b30\u0b47\u0b16\u0b40\u0b5f \u0b17\u0b3f\u0b28\u0b3f","name:pl":"Gwinea R\u00f3wnikowa","name:bg":"\u0415\u043a\u0432\u0430\u0442\u043e\u0440\u0438\u0430\u043b\u043d\u0430 \u0413\u0432\u0438\u043d\u0435\u044f","alt_name:ha":"Ginen Ekweita","sort_rank":262,"name:ba":"\u042d\u043a\u0432\u0430\u0442\u043e\u0440 \u0413\u0432\u0438\u043d\u0435\u044f\u04bb\u044b","alt_name:hr":"Ekvatorijalna Gvineja","osm_relation":true,"name:pa":"\u0a2d\u0a42-\u0a2e\u0a71\u0a27 \u0a30\u0a47\u0a16\u0a3e\u0a08 \u0a17\u0a3f\u0a28\u0a40","name:cv":"\u042d\u043a\u0432\u0430\u0442\u043e\u0440\u0438\u0430\u043b\u043b\u0103 \u0413\u0432\u0438\u043d\u0435\u0439","name:hi":"\u092d\u0942\u092e\u0927\u094d\u092f\u0930\u0947\u0916\u0940\u092f \u0917\u093f\u0928\u0940","name:sv":"Ekvatorialguinea","name:he":"\u05d2\u05d9\u05e0\u05d0\u05d4 \u05d4\u05de\u05e9\u05d5\u05d5\u05e0\u05d9\u05ea","name:ha":"Gini Ikwatoriya","name:hy":"\u0540\u0561\u057d\u0561\u0580\u0561\u056f\u0561\u056e\u0561\u0575\u056b\u0576 \u0533\u057e\u056b\u0576\u0565\u0561","name:ht":"Gine ekwateryal","name:hu":"Egyenl\u00edt\u0151i-Guinea","name:qu":"Chawpipacha Khiniya","kind":"country","name:ak":"Gini Ikuweta","name:yi":"\u05e2\u05e7\u05d5\u05d5\u05d0\u05d8\u05d0\u05e8\u05d9\u05e9\u05e2 \u05d2\u05d9\u05e0\u05e2","name:yo":"Guinea Al\u00e1gedem\u00e9j\u00ec","name:mt":"Gwinea Ekwatorjali","name:ms":"Guinea Khatulistiwa","name:mr":"\u0907\u0915\u094d\u0935\u0947\u091f\u094b\u0930\u0940\u092f\u0932 \u0917\u093f\u0928\u0940","name:my":"\u1021\u102e\u1000\u103d\u1031\u1010\u102c\u1002\u102e\u1014\u102e\u1014\u102d\u102f\u1004\u103a\u1004\u1036","official_name":"Rep\u00fablica de Guinea Ecuatorial","name:mg":"Ginea Ekoatorialy","name:ml":"\u0d07\u0d15\u0d4d\u0d35\u0d31\u0d4d\u0d31\u0d4b\u0d31\u0d3f\u0d2f\u0d7d \u0d17\u0d3f\u0d28\u0d3f","name:vi":"Guinea X\u00edch \u0110\u1ea1o","name:mi":"Kini Ekuatoria","id":-192791,"name:mk":"\u0415\u043a\u0432\u0430\u0442\u043e\u0440\u0441\u043a\u0430 \u0413\u0432\u0438\u043d\u0435\u0458\u0430","name:vo":"Kveatora-Giney\u00e4n","name:fa":"\u06af\u06cc\u0646\u0647 \u0627\u0633\u062a\u0648\u0627\u06cc\u06cc","name:ff":"Gine Ekwatoriyal","name:fi":"P\u00e4iv\u00e4ntasaajan Guinea","name:fo":"Ekvatorguinea","name:fr":"Guin\u00e9e \u00e9quatoriale","name:fy":"Ekwatoriaal-Guinee","name:nl":"Equatoriaal Guinee","name:nn":"Ekvatorial-Guinea","name:no":"Ekvatorial-Guinea","name:na":"Gini t Ekwador","name:nb":"Ekvatorial-Guinea","name:ne":"\u0907\u0915\u094d\u0935\u0947\u091f\u094b\u0930\u093f\u092f\u0932 \u0917\u093f\u0928\u0940","alt_name:fr":"Guin\u00e9e-\u00c9quatoriale","name:wo":"Gineg yamoo","name:nv":"G\u00edn\u00ed Nahasdz\u00e1\u00e1n A\u0142n\u00edi\u02bcgi Si\u02bc\u00e1n\u00edg\u00ed\u00ed","name:ga":"an Ghuine Mhe\u00e1nchriosach","name:gd":"Gini Mheadhan-Chriosach","maritime_boundary":true,"name:gv":"Guinea Chryss ny Cruinney","name:gu":"\u0a87\u0a95\u0acd\u0ab5\u0ac7\u0a9f\u0acb\u0ab0\u0abf\u0aaf\u0ab2 \u0a97\u0abf\u0aa8\u0ac0","name:lg":"Equatorial Guinea"},"arcs":[0]},{"type":"LineString","properties":{"name:kg":"Nizeria","name:wa":"Nidjeria","name:pt":"Nig\u00e9ria","name:ps":"\u0646\u0627\u064a\u062c\u06d0\u0631\u064a\u0627","name:ka":"\u10dc\u10d8\u10d2\u10d4\u10e0\u10d8\u10d0","name:ko":"\ub098\uc774\uc9c0\ub9ac\uc544","name:cv":"\u041d\u0438\u0433\u0435\u0440\u0438","name:tr":"Nijerya","name:cs":"Nig\u00e9rie","name:tt":"\u041d\u0438\u0433\u0435\u0440\u0438\u044f","name:kw":"Nijeri","name:tk":"Nigeri\u00fda","name:ku":"N\u00eejerya","name:ti":"\u1293\u12ed\u1302\u122a\u12eb","name:tl":"Nigerya","name:pa":"\u0a28\u0a3e\u0a08\u0a1c\u0a40\u0a30\u0a40\u0a06","name:os":"\u041d\u0438\u0433\u0435\u0440\u0438","name:or":"\u0b28\u0b3e\u0b07\u0b1c\u0b47\u0b30\u0b3f\u0b06","name:ce":"\u041d\u0438\u0433\u0435\u0440\u0438","name:ta":"\u0ba8\u0bc8\u0b9c\u0bc0\u0bb0\u0bbf\u0baf\u0bbe","name:tg":"\u041d\u0438\u04b7\u0435\u0440\u0438\u044f","name:ca":"Nig\u00e8ria","name:te":"\u0c28\u0c48\u0c1c\u0c40\u0c30\u0c3f\u0c2f\u0c3e","name:bg":"\u041d\u0438\u0433\u0435\u0440\u0438\u044f","sort_rank":262,"name:qu":"Niqirya","name:ba":"\u041d\u0438\u0433\u0435\u0440\u0438\u044f","source":"openstreetmap.org","name:xh":"INigeria","name:kn":"\u0ca8\u0cc8\u0c9c\u0cc0\u0cb0\u0cbf\u0caf","name:dv":"\u0782\u07a6\u0787\u07a8\u0796\u07a9\u0783\u07a8\u0787\u07a7","name:lv":"Nig\u0113rija","name:lt":"Nigerija","name:uz":"Nigeriya","name:kk":"\u041d\u0438\u0433\u0435\u0440\u0438\u044f","name:he":"\u05e0\u05d9\u05d2\u05e8\u05d9\u05d4","name:eo":"Ni\u011derio","name:ur":"\u0646\u0627\u0626\u062c\u06cc\u0631\u06cc\u0627","name:uk":"\u041d\u0456\u0433\u0435\u0440\u0456\u044f","name:hy":"\u0546\u056b\u0563\u0565\u0580\u056b\u0561","name:ug":"\u0646\u0649\u06af\u06d0\u0631\u0649\u064a\u06d5","name:hu":"Nig\u00e9ria","name:ln":"Nizeria","name:oc":"Nig\u00e8ria","name:el":"\u039d\u03b9\u03b3\u03b7\u03c1\u03af\u03b1","kind":"country","name":"Nigeria","min_zoom":8.0,"name:th":"\u0e1b\u0e23\u0e30\u0e40\u0e17\u0e28\u0e44\u0e19\u0e08\u0e35\u0e40\u0e23\u0e35\u0e22","name:yi":"\u05e0\u05d9\u05d2\u05e2\u05e8\u05d9\u05e2","name:et":"Nigeeria","name:yo":"N\u00e0\u00ecj\u00edr\u00ed\u00e0","name:mt":"Ni\u0121erja","name:az":"Nigeriya","name:ig":"Naigeria","name:mr":"\u0928\u093e\u092f\u091c\u0947\u0930\u093f\u092f\u093e","name:ar":"\u0646\u064a\u062c\u064a\u0631\u064a\u0627","name:my":"\u1014\u102d\u102f\u1004\u103a\u1002\u103b\u102e\u1038\u101b\u102e\u1038\u101a\u102c\u1038\u1014\u102d\u102f\u1004\u103a\u1004\u1036","name:is":"N\u00edger\u00eda","name:am":"\u1293\u12ed\u1304\u122a\u12eb","name:an":"Nicheria","name:ml":"\u0d28\u0d48\u0d1c\u0d40\u0d30\u0d3f\u0d2f","name:rw":"Nijeriya","id":-192787,"name:mk":"\u041d\u0438\u0433\u0435\u0440\u0438\u0458\u0430","name:af":"Nigeri\u00eb","name:zu":"INigeria","name:mn":"\u041d\u0438\u0433\u0435\u0440\u0438","name:ff":"Niiseriya","kind_detail":"2","name:hi":"\u0928\u093e\u0908\u091c\u0940\u0930\u093f\u092f\u093e","name:mg":"Nizeria","name:fr":"Nig\u00e9ria","name:za":"Nizywlihya","name:zh-yue":"\u5c3c\u65e5\u5229\u4e9e","name:fy":"Nigearia","name:vo":"Nigeriy\u00e4n","name:zh":"\u5948\u53ca\u5229\u4e9e","name:hr":"Nigerija","name:so":"Nayjeeriya","name:sl":"Nigerija","name:sk":"Nig\u00e9ria","name:ja":"\u30ca\u30a4\u30b8\u30a7\u30ea\u30a2","name:sh":"Nigerija","name:sg":"Nizer\u00efa","name:sc":"Nig\u00e9ria","name:ne":"\u0928\u093e\u0907\u091c\u0947\u0930\u093f\u092f\u093e","name:sa":"\u0928\u0948\u091c\u0940\u0930\u093f\u092f\u093e","name:bs":"Nigerija","name:bm":"Nijeria","name:bn":"\u09a8\u09be\u0987\u099c\u09c7\u09b0\u09bf\u09af\u09bc\u09be","name:bo":"\u0f53\u0f72\u0f0b\u0f47\u0f72\u0f0b\u0f62\u0f72\u0f0b\u0f61\u0f0d","name:ru":"\u041d\u0438\u0433\u0435\u0440\u0438\u044f","name:be":"\u041d\u0456\u0433\u0435\u0440\u044b\u044f","name:ha":"Nijeriya","name:ss":"INayijeriya","name:sr":"\u041d\u0438\u0433\u0435\u0440\u0438\u0458\u0430","osm_relation":true,"name:ga":"An Nig\u00e9ir","name:gd":"N\u00ecgeiria","name:ht":"Nijerya","name:gn":"Niheria","name:gl":"Nixeria","name:fa":"\u0646\u06cc\u062c\u0631\u06cc\u0647","maritime_boundary":true,"name:gv":"Yn Naigeer","name:gu":"\u0aa8\u0abe\u0a88\u0a9c\u0ac7\u0ab0\u0abf\u0aaf\u0abe"},"arcs":[1]},{"type":"LineString","properties":{"name:right:fr":"Bioko Nord","id:right":-2793216,"name:left:pt":"Bioko Sul","min_zoom":8.0,"id":-2793217,"osm_relation":true,"name:right":"Bioko Norte","kind":"region","name":"Bioko Sur - Bioko Norte","sort_rank":256,"kind_detail":"4","name:left:de":"S\u00fcdbioko","source":"openstreetmap.org","maritime_boundary":true,"name:right:de":"Nordbioko","name:left:fr":"Bioko Sud","id:left":-2793217,"name:left":"Bioko Sur"},"arcs":[2]},{"type":"LineString","properties":{"kind":"region","name":"Bioko Sur","sort_rank":256,"kind_detail":"4","name:pt":"Bioko Sul","name:de":"S\u00fcdbioko","source":"openstreetmap.org","maritime_boundary":true,"name:fr":"Bioko Sud","min_zoom":8.0,"id":-2793217,"osm_relation":true},"arcs":[3]},{"type":"LineString","properties":{"kind":"region","name":"Bioko Norte","sort_rank":256,"kind_detail":"4","min_zoom":8.0,"name:de":"Nordbioko","source":"openstreetmap.org","maritime_boundary":true,"name:fr":"Bioko Nord","id":-2793216,"osm_relation":true},"arcs":[4]}]},"roads":{"type":"GeometryCollection","geometries":[]},"earth":{"type":"GeometryCollection","geometries":[{"type":"MultiPolygon","properties":{"sort_rank":10,"source":"naturalearthdata.com","min_zoom":0.0,"kind":"earth","area":39943609909},"arcs":[[[7]]]}]},"landuse":{"type":"GeometryCollection","geometries":[{"type":"MultiPolygon","properties":{"source":"openstreetmap.org","kind":"nature_reserve","area":534944992,"tier":2,"id":321903577,"min_zoom":6.0,"sort_rank":23},"arcs":[[[8]]]}]}},"type":"Topology","transform":{"translate":[7.03125,2.8113711933],"scale":[0.0003433228,0.0003426689]},"arcs":[[[4096,2797],[-62,-142],[-26,-173],[-241,-140],[-176,-227],[-110,-278],[-35,-239],[56,-286],[140,-300],[197,-173],[257,-101]],[[0,3996],[134,39],[274,-44],[176,6],[325,99]],[[4096,2443],[-178,1]],[[3918,2444],[-181,-131],[-151,-207],[-111,-292],[-25,-274],[106,-374],[98,-169],[200,-166],[242,-93]],[[4096,2797],[-62,-142],[-26,-173],[-90,-38]],[[4096,1465],[0,-1465],[-4096,0],[0,4096],[4096,0],[0,-2355],[-6,-18],[-18,-123],[-12,-27],[-9,-32],[19,-38],[26,-38]],[[4096,1741],[-6,-18],[-18,-123],[-12,-27],[-9,-32],[19,-38],[26,-38]],[[4096,1465],[-26,38],[-19,38],[9,32],[12,27],[18,123],[6,18],[0,-276]],[[4031,1604],[19,29],[34,148],[12,-343],[-65,166]]]}