{"objects":{"water":{"type":"GeometryCollection","geometries":[{"type":"MultiPolygon","properties":{"source":"naturalearthdata.com","kind":"ocean","area":1576712559132672,"sort_rank":200,"min_zoom":0.0,"id":1},"arcs":[[[11]],[[12]]]},{"type":"MultiLineString","properties":{"source":"naturalearthdata.com","kind":"ocean","sort_rank":205,"boundary":true,"min_zoom":0.0,"id":19},"arcs":[[13],[14],[15],[16]]}]},"buildings":{"type":"GeometryCollection","geometries":[]},"places":{"type":"GeometryCollection","geometries":[]},"transit":{"type":"GeometryCollection","geometries":[{"type":"LineString","properties":{"kind":"train","name":"ARRIVA Struer - Thisted","sort_rank":275,"source":"openstreetmap.org","min_zoom":6.0,"operator":"ARRIVA","ref":"55","id":-3614150,"osm_relation":true},"arcs":[10]}]},"pois":{"type":"GeometryCollection","geometries":[]},"boundaries":{"type":"GeometryCollection","geometries":[{"type":"LineString","properties":{"name:kg":"Danemark","name:ka":"\u10d3\u10d0\u10dc\u10d8\u10d0","name:ko":"\ub374\ub9c8\ud06c","name:cv":"\u0414\u0430\u043d\u0438","name:cu":"\u0414\u0430\u043d\u0457\ua657","name:kl":"Danmarki","name:cs":"D\u00e1nsko","name:ki":"Denmark","name:co":"Danimarca","name:kv":"\u0414\u0430\u043d\u0438\u044f","name:ku":"Dan\u00eemarka","name:tl":"Dinamarka","name:ce":"\u0414\u0430\u043d\u0438","name:ta":"\u0b9f\u0bc6\u0ba9\u0bcd\u0bae\u0bbe\u0bb0\u0bcd\u0b95\u0bcd","name:tg":"\u0414\u0430\u043d\u0438\u044f","name:ca":"Dinamarca","name:te":"\u0c21\u0c46\u0c28\u0c4d\u0c2e\u0c3e\u0c30\u0c4d\u0c15\u0c4d","name:cy":"Denmarc","name:qu":"Dansuyu","name:de":"D\u00e4nemark","name:dz":"\u0f4c\u0f7a\u0f53\u0f0b\u0f58\u0f71\u0f40\u0f0b","source":"openstreetmap.org","name:kn":"\u0ca1\u0cc6\u0ca8\u0ccd\u0cae\u0cbe\u0cb0\u0ccd\u0c95\u0ccd\u200c","name:dv":"\u0791\u07ac\u0782\u07b0\u0789\u07a7\u0786\u07aa","name:lv":"D\u0101nija","name:lt":"Danija","name:uz":"Daniya","name:kk":"\u0414\u0430\u043d\u0438\u044f","name:ur":"\u0688\u0646\u0645\u0627\u0631\u06a9","name:lb":"D\u00e4nemark","name:la":"Dania","name:lg":"Denimaaka","name:uk":"\u0414\u0430\u043d\u0456\u044f","name:ug":"\u062f\u0627\u0646\u0649\u064a\u06d5","name:li":"Denemarke","name:ln":"Danemark","name:el":"\u0394\u03b1\u03bd\u03af\u03b1","name:eo":"Danujo","name:en":"Denmark","name":"Danmark","name:tk":"Dani\u00fda","name:ee":"Denmark","name:th":"\u0e1b\u0e23\u0e30\u0e40\u0e17\u0e28\u0e40\u0e14\u0e19\u0e21\u0e32\u0e23\u0e4c\u0e01","name:eu":"Danimarka","name:et":"Taani","name:es":"Dinamarca","name:rm":"Danemarc","name:rn":"Danemarke","name:az":"Danimarka","name:ie":"Dania","name:id":"Denmark","name:ar":"\u0627\u0644\u062f\u0646\u0645\u0627\u0631\u0643","name:io":"Dania","name:is":"Danm\u00f6rk","name:am":"\u12f4\u1295\u121b\u122d\u12ad","name:it":"Danimarca","name:an":"Dinamarca","name:ru":"\u0414\u0430\u043d\u0438\u044f","name:rw":"Danimarike","name:af":"Denemarke","name:zu":"IDenimaki","kind_detail":"2","name:ky":"\u0414\u0430\u043d\u0438\u044f","name:zh-yue":"\u4e39\u9ea5","name:zh":"\u4e39\u9ea6","name:so":"Denmark","name:sl":"Danska","name:sk":"D\u00e1nsko","name:ja":"\u30c7\u30f3\u30de\u30fc\u30af","name:si":"\u0da9\u0dd9\u0db1\u0dca\u0db8\u0dcf\u0dbb\u0dca\u0d9a\u0dba","name:sh":"Danska","name:se":"D\u00e1nm\u00e1rku","name:sc":"Danimarca","name:sa":"\u0921\u0947\u0928\u092e\u093e\u0930\u094d\u0915","name:bs":"Danska","name:bn":"\u09a1\u09c7\u09a8\u09ae\u09be\u09b0\u09cd\u0995","name:bo":"\u0f51\u0f53\u0f0b\u0f58\u0fb2\u0f42","name:bi":"Denmark","name:sw":"Denmark","name:be":"\u0414\u0430\u043d\u0456\u044f","name:su":"D\u00e9nmark","name:bg":"\u0414\u0430\u043d\u0438\u044f","name:ss":"IDenimakhi","name:ba":"\u0414\u0430\u043d\u0438\u044f","name:sq":"Danimarka","name:jv":"Denmark","name:pt":"Dinamarca","name:ps":"\u0689\u06d0\u0646\u0645\u0627\u0631\u06a9","name:oc":"Danemarc","min_zoom":8.0,"name:ro":"Danemarca","name:zh-min-nan":"Tan-kok","name:os":"\u0414\u0430\u043d\u0438","name:or":"\u0b21\u0b47\u0b28\u0b2e\u0b3e\u0b30\u0b4d\u0b15","name:pl":"Dania","name:st":"Denmark","sort_rank":262,"name:sr":"\u0414\u0430\u043d\u0441\u043a\u0430","osm_relation":true,"name:tr":"Danimarka","name:hi":"\u0921\u0947\u0928\u092e\u093e\u0930\u094d\u0915","name:he":"\u05d3\u05e0\u05de\u05e8\u05e7","name:hy":"\u0534\u0561\u0576\u056b\u0561","name:ht":"Danmak","name:hu":"D\u00e1nia","name:hr":"Danska","kind":"country","name:yi":"\u05d3\u05e2\u05e0\u05de\u05d0\u05e8\u05e7","name:yo":"D\u1eb9\u0301nm\u00e1rk\u00ec","name:mt":"Danimarka","alt_name:eo":"Danio;Danlando","name:ms":"Denmark","name:mr":"\u0921\u0947\u0928\u094d\u092e\u093e\u0930\u094d\u0915","name:my":"\u1012\u102d\u1014\u103a\u1038\u1019\u1010\u103a\u1014\u102d\u102f\u1004\u103a\u1004\u1036","official_name":"Kongeriget Danmark","name:mg":"Danmarka","name:vi":"\u0110an M\u1ea1ch","name:ml":"\u0d21\u0d46\u0d28\u0d4d\u0d2e\u0d3e\u0d7c\u0d15\u0d4d\u0d15\u0d4d","name:mn":"\u0414\u0430\u043d\u0438","name:mi":"Tenem\u0101ka","id":-50046,"name:mk":"\u0414\u0430\u043d\u0441\u043a\u0430","name:vo":"Dan\u00e4n","name:fa":"\u062f\u0627\u0646\u0645\u0627\u0631\u06a9","name:fi":"Tanska","name:fr":"Danemark","name:fy":"Denemark","name:nl":"Denemarken","name:na":"Denemark","name:ne":"\u0921\u0947\u0928\u092e\u093e\u0930\u094d\u0915","name:wo":"Danmaark","name:nv":"D\u00e9inish Dine\u02bc\u00e9 Bik\u00e9yah","name:ga":"An Danmhairg","name:gd":"An Danmhairg","name:gn":"Ndinamayka","name:gl":"Dinamarca","maritime_boundary":true,"name:gv":"Yn Danvarg","name:tt":"\u0414\u0430\u043d\u0438\u044f"},"arcs":[0]},{"type":"LineString","properties":{"name:left:la":"Iutia Septentrionalis","name:right:la":"Iutia Media","name:right:hy":"\u053f\u0565\u0576\u057f\u0580\u0578\u0576\u0561\u056f\u0561\u0576 \u0545\u0578\u0582\u057f\u056c\u0561\u0576\u0564\u056b\u0561 \u057f\u0561\u0580\u0561\u056e\u0561\u0577\u0580\u057b\u0561\u0576","name:right:uk":"\u0426\u0435\u043d\u0442\u0440\u0430\u043b\u044c\u043d\u0430 \u042e\u0442\u043b\u0430\u043d\u0434\u0456\u044f","name:right:hr":"Sredi\u0161nji Jylland","name:right:hu":"Midtjylland r\u00e9gi\u00f3","name:left:sr":"\u0421\u0435\u0432\u0435\u0440\u043d\u0430 \u0414\u0430\u043d\u0441\u043a\u0430","name:right:lt":"Vidurio Jutlandijos regionas","min_zoom":8.0,"name:left:lt":"\u0160iaur\u0117s Jutlandijos regionas","name:left:hy":"\u0540\u0575\u0578\u0582\u057d\u056b\u057d\u0561\u0575\u056b\u0576 \u0534\u0561\u0576\u056b\u0561 \u057f\u0561\u0580\u0561\u056e\u0561\u0577\u0580\u057b\u0561\u0576","name:left:lv":"Zieme\u013cjitlandes re\u0123ions","name:left:se":"Davvi-Jyll\u00e1ndda regiuvdna","name:left:hu":"Nordjylland r\u00e9gi\u00f3","name:left:hr":"Sjeverni Jutland","name:right:vi":"Trung Jutland","name:left:ce":"\u041a\u044a\u0438\u043b\u0431\u0430\u0441\u0435\u0434\u0435\u0440\u0430 \u042e\u0442\u043b\u0430\u043d\u0434\u0438","name:left:ca":"Jutl\u00e0ndia Septentrional","source":"openstreetmap.org","name:right:os":"\u0426\u0435\u043d\u0442\u0440\u0430\u043b\u043e\u043d \u042e\u0442\u043b\u0430\u043d\u0434\u0438","name:left":"Region Nordjylland","name:right:mk":"\u0421\u0440\u0435\u0434\u043d\u0430 \u0414\u0430\u043d\u0441\u043a\u0430","name:right:sr":"\u0421\u0440\u0435\u0434\u0438\u0448\u045a\u0430 \u0414\u0430\u043d\u0441\u043a\u0430","name:left:ka":"\u10e9\u10e0\u10d3\u10d8\u10da\u10dd\u10d4\u10d7 \u10d8\u10e3\u10e2\u10da\u10d0\u10dc\u10d3\u10d8\u10d8\u10e1 \u10e0\u10d4\u10d2\u10d8\u10dd\u10dc\u10d8","name:right:eu":"Erdialdeko Jutlandia","name:right:et":"Kesk-J\u00fc\u00fctimaa","name:left:ko":"\ubd81\uc70c\ub780 \uc9c0\uc5ed","name:right:it":"Jutland centrale","name:left:ro":"Regiunea Nordjylland","name:left:kk":"\u0421\u043e\u043b\u0442\u04af\u0441\u0442\u0456\u043a \u042e\u0442\u043b\u0430\u043d\u0434\u0438\u044f","name:right:ru":"\u0426\u0435\u043d\u0442\u0440\u0430\u043b\u044c\u043d\u0430\u044f \u042e\u0442\u043b\u0430\u043d\u0434\u0438\u044f","name:right:ro":"Regiunea Midtjylland","name:left:ru":"\u0421\u0435\u0432\u0435\u0440\u043d\u0430\u044f \u042e\u0442\u043b\u0430\u043d\u0434\u0438\u044f","name:right:ms":"Wilayah Midtjylland","name:left:oc":"Jutl\u00e0ndia Septentrionala","id:right":-1319935,"name:right:eo":"Regiono Meza Jutlando","name:right:en":"Central Denmark Region","name:left:vi":"B\u1eafc Jutland","kind":"region","name":"Region Nordjylland - Region Midtjylland","name:left:fa":"\u0627\u0633\u062a\u0627\u0646 \u0646\u0648\u0631\u062f\u06cc\u0648\u0644\u0646\u062f","name:right:lv":"Vidusjitlandes re\u0123ions","name:left:fi":"Pohjois-Jyllannin alue","name:left:zh":"\u5317\u65e5\u5fb7\u5170\u5927\u533a","name:left:fr":"Jutland du Nord","name:right:br":"Kreizjutland","name:right:zh":"\u4e2d\u65e5\u5fb7\u5170\u5927\u533a","name:right:es":"Jutlandia Central","name:right:ja":"\u4e2d\u592e\u30e6\u30e9\u30f3\u5730\u57df","name:right:fr":"Jutland central","name:left:sk":"Severn\u00e9 Jutsko","name:left:ja":"\u5317\u30e6\u30e9\u30f3\u5730\u57df","name:right:fy":"Midden-Jutl\u00e2n","name:left:uk":"\u041f\u0456\u0432\u043d\u0456\u0447\u043d\u0430 \u042e\u0442\u043b\u0430\u043d\u0434\u0456\u044f","name:right:sh":"Sredi\u0161nji Jylland","name:right:sk":"Stredn\u00e9 Jutsko","name:left:bg":"\u0421\u0435\u0432\u0435\u0440\u043d\u0430 \u042e\u0442\u043b\u0430\u043d\u0434\u0438\u044f","name:right:fa":"\u0627\u0633\u062a\u0627\u0646 \u0645\u06cc\u062f\u06cc\u0648\u0644\u0646\u062f","name:right:fo":"Regi\u00f3n Mi\u00f0j\u00fatland","name:right:se":"Gaska-Jyll\u00e1ndda regiuvdna","id":-1319936,"name:right:fi":"Keski-Jyllannin alue","name:left:eo":"Regiono Norda Jutlando","name:left:en":"North Denmark Region","name:right:ca":"Jutl\u00e0ndia Central","kind_detail":"4","name:right:ce":"\u042e\u043a\u043a\u044a\u0435\u0440\u0430 \u042e\u0442\u043b\u0430\u043d\u0434\u0438","name:left:mk":"\u0421\u0435\u0432\u0435\u0440\u043d\u0430 \u0414\u0430\u043d\u0441\u043a\u0430","name:left:nl":"Noord-Jutland","id:left":-1319936,"name:left:es":"Jutlandia Septentrional","name:right":"Region Midtjylland","name:left:os":"\u0426\u00e6\u0433\u0430\u0442 \u042e\u0442\u043b\u0430\u043d\u0434\u0438","name:left:eu":"Ipar Jutlandia","name:left:et":"P\u00f5hja-J\u00fc\u00fctimaa piirkond","name:right:ka":"\u10ea\u10d4\u10dc\u10e2\u10e0\u10d0\u10da\u10e3\u10e0\u10d8 \u10d8\u10e3\u10e2\u10da\u10d0\u10dc\u10d3\u10d8\u10d8\u10e1 \u10e0\u10d4\u10d2\u10d8\u10dd\u10dc\u10d8","name:right:pt":"Jutl\u00e2ndia Central","name:left:ar":"\u0645\u0642\u0627\u0637\u0639\u0629 \u0646\u0648\u0631\u062f\u0644\u0627\u0646\u062f","name:left:pl":"Jutlandia P\u00f3\u0142nocna","name:right:kk":"\u041e\u0440\u0442\u0430\u043b\u044b\u049b \u042e\u0442\u043b\u0430\u043d\u0434\u0438\u044f","name:right:oc":"Jutl\u00e0ndia Centrala","name:right:bg":"\u0426\u0435\u043d\u0442\u0440\u0430\u043b\u043d\u0430 \u042e\u0442\u043b\u0430\u043d\u0434\u0438\u044f","name:left:ms":"Wilayah Nordjylland","name:right:sv":"Region Mittjylland","name:right:ko":"\uc911\uc559\uc70c\ub780 \uc9c0\uc5ed","name:left:it":"Jutland settentrionale","name:right:pl":"Jutlandia \u015arodkowa","osm_relation":true,"name:left:pt":"Jutl\u00e2ndia do Norte","name:right:de":"Region Mittelj\u00fctland","name:left:de":"Region Nordj\u00fctland","sort_rank":256},"arcs":[1]},{"type":"MultiLineString","properties":{"name:pt":"Jutl\u00e2ndia do Norte","name:ro":"Regiunea Nordjylland","name:ms":"Wilayah Nordjylland","name:ko":"\ubd81\uc70c\ub780 \uc9c0\uc5ed","name:ar":"\u0645\u0642\u0627\u0637\u0639\u0629 \u0646\u0648\u0631\u062f\u0644\u0627\u0646\u062f","name:kk":"\u0421\u043e\u043b\u0442\u04af\u0441\u0442\u0456\u043a \u042e\u0442\u043b\u0430\u043d\u0434\u0438\u044f","min_zoom":8.0,"name:it":"Jutland settentrionale","name:vi":"B\u1eafc Jutland","name:os":"\u0426\u00e6\u0433\u0430\u0442 \u042e\u0442\u043b\u0430\u043d\u0434\u0438","name:ru":"\u0421\u0435\u0432\u0435\u0440\u043d\u0430\u044f \u042e\u0442\u043b\u0430\u043d\u0434\u0438\u044f","name:ce":"\u041a\u044a\u0438\u043b\u0431\u0430\u0441\u0435\u0434\u0435\u0440\u0430 \u042e\u0442\u043b\u0430\u043d\u0434\u0438","name:de":"Region Nordj\u00fctland","name:pl":"Jutlandia P\u00f3\u0142nocna","name:mk":"\u0421\u0435\u0432\u0435\u0440\u043d\u0430 \u0414\u0430\u043d\u0441\u043a\u0430","name:fa":"\u0627\u0633\u062a\u0627\u0646 \u0646\u0648\u0631\u062f\u06cc\u0648\u0644\u0646\u062f","name:hu":"Nordjylland r\u00e9gi\u00f3","name:ka":"\u10e9\u10e0\u10d3\u10d8\u10da\u10dd\u10d4\u10d7 \u10d8\u10e3\u10e2\u10da\u10d0\u10dc\u10d3\u10d8\u10d8\u10e1 \u10e0\u10d4\u10d2\u10d8\u10dd\u10dc\u10d8","sort_rank":256,"kind_detail":"4","id":-1319936,"source":"openstreetmap.org","name:fr":"Jutland du Nord","name:ca":"Jutl\u00e0ndia Septentrional","name:zh":"\u5317\u65e5\u5fb7\u5170\u5927\u533a","osm_relation":true,"name:lv":"Zieme\u013cjitlandes re\u0123ions","name:ja":"\u5317\u30e6\u30e9\u30f3\u5730\u57df","name:lt":"\u0160iaur\u0117s Jutlandijos regionas","name:se":"Davvi-Jyll\u00e1ndda regiuvdna","kind":"region","name:la":"Iutia Septentrionalis","name:sk":"Severn\u00e9 Jutsko","name:uk":"\u041f\u0456\u0432\u043d\u0456\u0447\u043d\u0430 \u042e\u0442\u043b\u0430\u043d\u0434\u0456\u044f","name:hy":"\u0540\u0575\u0578\u0582\u057d\u056b\u057d\u0561\u0575\u056b\u0576 \u0534\u0561\u0576\u056b\u0561 \u057f\u0561\u0580\u0561\u056e\u0561\u0577\u0580\u057b\u0561\u0576","name:bg":"\u0421\u0435\u0432\u0435\u0440\u043d\u0430 \u042e\u0442\u043b\u0430\u043d\u0434\u0438\u044f","name:hr":"Sjeverni Jutland","name:sr":"\u0421\u0435\u0432\u0435\u0440\u043d\u0430 \u0414\u0430\u043d\u0441\u043a\u0430","name:oc":"Jutl\u00e0ndia Septentrionala","name:eo":"Regiono Norda Jutlando","name:en":"North Denmark Region","name":"Region Nordjylland","name:fi":"Pohjois-Jyllannin alue","name:eu":"Ipar Jutlandia","name:et":"P\u00f5hja-J\u00fc\u00fctimaa piirkond","name:nl":"Noord-Jutland","name:es":"Jutlandia Septentrional"},"arcs":[[2],[3]]},{"type":"MultiLineString","properties":{"name:pt":"Jutl\u00e2ndia do Norte","name:ro":"Regiunea Nordjylland","name:ms":"Wilayah Nordjylland","name:ko":"\ubd81\uc70c\ub780 \uc9c0\uc5ed","name:ar":"\u0645\u0642\u0627\u0637\u0639\u0629 \u0646\u0648\u0631\u062f\u0644\u0627\u0646\u062f","name:kk":"\u0421\u043e\u043b\u0442\u04af\u0441\u0442\u0456\u043a \u042e\u0442\u043b\u0430\u043d\u0434\u0438\u044f","min_zoom":8.0,"name:it":"Jutland settentrionale","name:ru":"\u0421\u0435\u0432\u0435\u0440\u043d\u0430\u044f \u042e\u0442\u043b\u0430\u043d\u0434\u0438\u044f","name:os":"\u0426\u00e6\u0433\u0430\u0442 \u042e\u0442\u043b\u0430\u043d\u0434\u0438","name:vi":"B\u1eafc Jutland","name:ce":"\u041a\u044a\u0438\u043b\u0431\u0430\u0441\u0435\u0434\u0435\u0440\u0430 \u042e\u0442\u043b\u0430\u043d\u0434\u0438","name:pl":"Jutlandia P\u00f3\u0142nocna","name:mk":"\u0421\u0435\u0432\u0435\u0440\u043d\u0430 \u0414\u0430\u043d\u0441\u043a\u0430","name:fa":"\u0627\u0633\u062a\u0627\u0646 \u0646\u0648\u0631\u062f\u06cc\u0648\u0644\u0646\u062f","name:bg":"\u0421\u0435\u0432\u0435\u0440\u043d\u0430 \u042e\u0442\u043b\u0430\u043d\u0434\u0438\u044f","name:ka":"\u10e9\u10e0\u10d3\u10d8\u10da\u10dd\u10d4\u10d7 \u10d8\u10e3\u10e2\u10da\u10d0\u10dc\u10d3\u10d8\u10d8\u10e1 \u10e0\u10d4\u10d2\u10d8\u10dd\u10dc\u10d8","source":"openstreetmap.org","sort_rank":256,"kind_detail":"4","id":-1319936,"name:de":"Region Nordj\u00fctland","name:oc":"Jutl\u00e0ndia Septentrionala","name:fr":"Jutland du Nord","name:ca":"Jutl\u00e0ndia Septentrional","name:zh":"\u5317\u65e5\u5fb7\u5170\u5927\u533a","name:lv":"Zieme\u013cjitlandes re\u0123ions","name:ja":"\u5317\u30e6\u30e9\u30f3\u5730\u57df","name:lt":"\u0160iaur\u0117s Jutlandijos regionas","name:se":"Davvi-Jyll\u00e1ndda regiuvdna","name:eo":"Regiono Norda Jutlando","name:la":"Iutia Septentrionalis","name:sk":"Severn\u00e9 Jutsko","name:uk":"\u041f\u0456\u0432\u043d\u0456\u0447\u043d\u0430 \u042e\u0442\u043b\u0430\u043d\u0434\u0456\u044f","name:hy":"\u0540\u0575\u0578\u0582\u057d\u056b\u057d\u0561\u0575\u056b\u0576 \u0534\u0561\u0576\u056b\u0561 \u057f\u0561\u0580\u0561\u056e\u0561\u0577\u0580\u057b\u0561\u0576","name:hu":"Nordjylland r\u00e9gi\u00f3","name:hr":"Sjeverni Jutland","name:sr":"\u0421\u0435\u0432\u0435\u0440\u043d\u0430 \u0414\u0430\u043d\u0441\u043a\u0430","osm_relation":true,"kind":"region","name:en":"North Denmark Region","name":"Region Nordjylland","maritime_boundary":true,"name:fi":"Pohjois-Jyllannin alue","name:eu":"Ipar Jutlandia","name:et":"P\u00f5hja-J\u00fc\u00fctimaa piirkond","name:nl":"Noord-Jutland","name:es":"Jutlandia Septentrional"},"arcs":[[4],[5]]},{"type":"MultiLineString","properties":{"name:pt":"Jutl\u00e2ndia Central","name:ro":"Regiunea Midtjylland","name:ms":"Wilayah Midtjylland","name:ko":"\uc911\uc559\uc70c\ub780 \uc9c0\uc5ed","name:kk":"\u041e\u0440\u0442\u0430\u043b\u044b\u049b \u042e\u0442\u043b\u0430\u043d\u0434\u0438\u044f","min_zoom":8.0,"name:it":"Jutland centrale","name:ru":"\u0426\u0435\u043d\u0442\u0440\u0430\u043b\u044c\u043d\u0430\u044f \u042e\u0442\u043b\u0430\u043d\u0434\u0438\u044f","name:os":"\u0426\u0435\u043d\u0442\u0440\u0430\u043b\u043e\u043d \u042e\u0442\u043b\u0430\u043d\u0434\u0438","name:vi":"Trung Jutland","name:ce":"\u042e\u043a\u043a\u044a\u0435\u0440\u0430 \u042e\u0442\u043b\u0430\u043d\u0434\u0438","name:fo":"Regi\u00f3n Mi\u00f0j\u00fatland","name:pl":"Jutlandia \u015arodkowa","name:mk":"\u0421\u0440\u0435\u0434\u043d\u0430 \u0414\u0430\u043d\u0441\u043a\u0430","name:fa":"\u0627\u0633\u062a\u0627\u0646 \u0645\u06cc\u062f\u06cc\u0648\u0644\u0646\u062f","name:hu":"Midtjylland r\u00e9gi\u00f3","name:ka":"\u10ea\u10d4\u10dc\u10e2\u10e0\u10d0\u10da\u10e3\u10e0\u10d8 \u10d8\u10e3\u10e2\u10da\u10d0\u10dc\u10d3\u10d8\u10d8\u10e1 \u10e0\u10d4\u10d2\u10d8\u10dd\u10dc\u10d8","sort_rank":256,"kind_detail":"4","id":-1319935,"name:de":"Region Mittelj\u00fctland","source":"openstreetmap.org","name:fr":"Jutland central","name:ca":"Jutl\u00e0ndia Central","name:fy":"Midden-Jutl\u00e2n","name:zh":"\u4e2d\u65e5\u5fb7\u5170\u5927\u533a","osm_relation":true,"name:lv":"Vidusjitlandes re\u0123ions","name:ja":"\u4e2d\u592e\u30e6\u30e9\u30f3\u5730\u57df","name:lt":"Vidurio Jutlandijos regionas","name:sh":"Sredi\u0161nji Jylland","name:se":"Gaska-Jyll\u00e1ndda regiuvdna","kind":"region","name:br":"Kreizjutland","name:la":"Iutia Media","name:sk":"Stredn\u00e9 Jutsko","name:uk":"\u0426\u0435\u043d\u0442\u0440\u0430\u043b\u044c\u043d\u0430 \u042e\u0442\u043b\u0430\u043d\u0434\u0456\u044f","name:hy":"\u053f\u0565\u0576\u057f\u0580\u0578\u0576\u0561\u056f\u0561\u0576 \u0545\u0578\u0582\u057f\u056c\u0561\u0576\u0564\u056b\u0561 \u057f\u0561\u0580\u0561\u056e\u0561\u0577\u0580\u057b\u0561\u0576","name:sv":"Region Mittjylland","name:bg":"\u0426\u0435\u043d\u0442\u0440\u0430\u043b\u043d\u0430 \u042e\u0442\u043b\u0430\u043d\u0434\u0438\u044f","name:hr":"Sredi\u0161nji Jylland","name:sr":"\u0421\u0440\u0435\u0434\u0438\u0448\u045a\u0430 \u0414\u0430\u043d\u0441\u043a\u0430","name:oc":"Jutl\u00e0ndia Centrala","name:eo":"Regiono Meza Jutlando","name:en":"Central Denmark Region","name":"Region Midtjylland","name:fi":"Keski-Jyllannin alue","name:eu":"Erdialdeko Jutlandia","name:et":"Kesk-J\u00fc\u00fctimaa","name:es":"Jutlandia Central"},"arcs":[[6],[7]]},{"type":"MultiLineString","properties":{"name:pt":"Jutl\u00e2ndia Central","name:ro":"Regiunea Midtjylland","name:ms":"Wilayah Midtjylland","name:ko":"\uc911\uc559\uc70c\ub780 \uc9c0\uc5ed","name:kk":"\u041e\u0440\u0442\u0430\u043b\u044b\u049b \u042e\u0442\u043b\u0430\u043d\u0434\u0438\u044f","min_zoom":8.0,"name:it":"Jutland centrale","name:vi":"Trung Jutland","name:os":"\u0426\u0435\u043d\u0442\u0440\u0430\u043b\u043e\u043d \u042e\u0442\u043b\u0430\u043d\u0434\u0438","name:ru":"\u0426\u0435\u043d\u0442\u0440\u0430\u043b\u044c\u043d\u0430\u044f \u042e\u0442\u043b\u0430\u043d\u0434\u0438\u044f","name:ce":"\u042e\u043a\u043a\u044a\u0435\u0440\u0430 \u042e\u0442\u043b\u0430\u043d\u0434\u0438","name:de":"Region Mittelj\u00fctland","name:pl":"Jutlandia \u015arodkowa","name:mk":"\u0421\u0440\u0435\u0434\u043d\u0430 \u0414\u0430\u043d\u0441\u043a\u0430","name:fa":"\u0627\u0633\u062a\u0627\u0646 \u0645\u06cc\u062f\u06cc\u0648\u0644\u0646\u062f","name:bg":"\u0426\u0435\u043d\u0442\u0440\u0430\u043b\u043d\u0430 \u042e\u0442\u043b\u0430\u043d\u0434\u0438\u044f","name:ka":"\u10ea\u10d4\u10dc\u10e2\u10e0\u10d0\u10da\u10e3\u10e0\u10d8 \u10d8\u10e3\u10e2\u10da\u10d0\u10dc\u10d3\u10d8\u10d8\u10e1 \u10e0\u10d4\u10d2\u10d8\u10dd\u10dc\u10d8","source":"openstreetmap.org","sort_rank":256,"kind_detail":"4","id":-1319935,"name:fo":"Regi\u00f3n Mi\u00f0j\u00fatland","name:oc":"Jutl\u00e0ndia Centrala","name:fr":"Jutland central","name:ca":"Jutl\u00e0ndia Central","name:fy":"Midden-Jutl\u00e2n","name:zh":"\u4e2d\u65e5\u5fb7\u5170\u5927\u533a","name:lv":"Vidusjitlandes re\u0123ions","name:ja":"\u4e2d\u592e\u30e6\u30e9\u30f3\u5730\u57df","name:lt":"Vidurio Jutlandijos regionas","name:sh":"Sredi\u0161nji Jylland","name:se":"Gaska-Jyll\u00e1ndda regiuvdna","name:eo":"Regiono Meza Jutlando","name:br":"Kreizjutland","name:la":"Iutia Media","name:sk":"Stredn\u00e9 Jutsko","name:uk":"\u0426\u0435\u043d\u0442\u0440\u0430\u043b\u044c\u043d\u0430 \u042e\u0442\u043b\u0430\u043d\u0434\u0456\u044f","name:hy":"\u053f\u0565\u0576\u057f\u0580\u0578\u0576\u0561\u056f\u0561\u0576 \u0545\u0578\u0582\u057f\u056c\u0561\u0576\u0564\u056b\u0561 \u057f\u0561\u0580\u0561\u056e\u0561\u0577\u0580\u057b\u0561\u0576","name:sv":"Region Mittjylland","name:hu":"Midtjylland r\u00e9gi\u00f3","name:hr":"Sredi\u0161nji Jylland","name:sr":"\u0421\u0440\u0435\u0434\u0438\u0448\u045a\u0430 \u0414\u0430\u043d\u0441\u043a\u0430","osm_relation":true,"kind":"region","name:en":"Central Denmark Region","name":"Region Midtjylland","maritime_boundary":true,"name:fi":"Keski-Jyllannin alue","name:eu":"Erdialdeko Jutlandia","name:et":"Kesk-J\u00fc\u00fctimaa","name:es":"Jutlandia Central"},"arcs":[[8],[9]]}]},"roads":{"type":"GeometryCollection","geometries":[{"type":"LineString","properties":{"kind":"minor_road","sort_rank":358,"kind_detail":"service","is_bicycle_related":true,"bicycle_shield_text":"EV12","bicycle_network":"icn","source":"openstreetmap.org","min_zoom":8.0,"landuse_kind":"park","id":185592831},"arcs":[17]},{"type":"MultiLineString","properties":{"kind":"major_road","sort_rank":379,"kind_detail":"secondary","is_bicycle_related":true,"bicycle_shield_text":"EV12","bicycle_network":"icn","source":"openstreetmap.org","min_zoom":8.0,"ref":"181"},"arcs":[[18],[19]]},{"type":"LineString","properties":{"kind":"major_road","sort_rank":377,"kind_detail":"tertiary","is_bicycle_related":true,"bicycle_shield_text":"EV12","cycleway":"lane","source":"openstreetmap.org","min_zoom":8.0,"landuse_kind":"park","bicycle_network":"icn","id":35069401},"arcs":[20]},{"type":"MultiLineString","properties":{"kind":"path","sort_rank":354,"kind_detail":"cycleway","is_bicycle_related":true,"bicycle_shield_text":"EV12","bicycle_network":"icn","source":"openstreetmap.org","min_zoom":8.0},"arcs":[[21],[22],[23],[24],[25],[26],[27]]},{"type":"MultiLineString","properties":{"kind":"major_road","sort_rank":377,"kind_detail":"tertiary","is_bicycle_related":true,"bicycle_shield_text":"EV12","bicycle_network":"icn","source":"openstreetmap.org","min_zoom":8.0},"arcs":[[28],[29],[30],[31],[32],[33],[34]]},{"type":"MultiLineString","properties":{"kind":"minor_road","sort_rank":360,"kind_detail":"unclassified","is_bicycle_related":true,"bicycle_shield_text":"EV12","bicycle_network":"icn","source":"openstreetmap.org","min_zoom":8.0,"landuse_kind":"park"},"arcs":[[35],[36],[37],[38],[39]]},{"type":"LineString","properties":{"kind":"major_road","sort_rank":377,"kind_detail":"tertiary","is_bicycle_related":true,"bicycle_shield_text":null,"bicycle_network":"ncn","source":"openstreetmap.org","min_zoom":8.0},"arcs":[40]},{"type":"MultiLineString","properties":{"kind":"path","sort_rank":354,"kind_detail":"path","is_bicycle_related":true,"bicycle_shield_text":"EV12","bicycle_network":"icn","source":"openstreetmap.org","min_zoom":8.0},"arcs":[[41],[42]]},{"type":"LineString","properties":{"kind":"path","sort_rank":354,"kind_detail":"cycleway","is_bicycle_related":true,"bicycle_shield_text":"12","bicycle_network":"ncn","source":"openstreetmap.org","min_zoom":8.0,"landuse_kind":"park","id":362418147},"arcs":[43]},{"type":"LineString","properties":{"kind":"ferry","name":"Thybor\u00f8n - Agger","sort_rank":355,"is_bicycle_related":true,"bicycle_shield_text":"EV12","bicycle_network":"icn","source":"openstreetmap.org","min_zoom":8.0,"id":27832399},"arcs":[44]},{"type":"LineString","properties":{"kind":"major_road","sort_rank":379,"kind_detail":"secondary","is_bicycle_related":true,"bicycle_shield_text":"12","bicycle_network":"ncn","source":"openstreetmap.org","min_zoom":8.0,"ref":"181","id":365183318},"arcs":[45]},{"type":"MultiLineString","properties":{"kind":"path","sort_rank":354,"kind_detail":"track","is_bicycle_related":true,"bicycle_shield_text":"EV12","bicycle_network":"icn","source":"openstreetmap.org","min_zoom":8.0,"landuse_kind":"park"},"arcs":[[46],[47],[48],[49]]},{"type":"MultiLineString","properties":{"kind":"minor_road","sort_rank":360,"kind_detail":"unclassified","is_bicycle_related":true,"bicycle_shield_text":"EV12","bicycle_network":"icn","source":"openstreetmap.org","min_zoom":8.0},"arcs":[[50],[51],[52]]},{"type":"MultiLineString","properties":{"kind":"minor_road","sort_rank":360,"kind_detail":"residential","is_bicycle_related":true,"bicycle_shield_text":"EV12","bicycle_network":"icn","source":"openstreetmap.org","min_zoom":8.0},"arcs":[[53],[54],[55],[56]]},{"type":"LineString","properties":{"kind":"major_road","sort_rank":380,"kind_detail":"primary","is_bicycle_related":true,"bicycle_shield_text":"24","bicycle_network":"rcn","source":"openstreetmap.org","min_zoom":8.0,"ref":"11"},"arcs":[57]},{"type":"LineString","properties":{"kind":"major_road","sort_rank":379,"kind_detail":"secondary","is_bicycle_related":true,"bicycle_shield_text":"12","bicycle_network":"ncn","source":"openstreetmap.org","min_zoom":8.0,"ref":"527","id":102848314},"arcs":[58]},{"type":"MultiLineString","properties":{"kind":"major_road","sort_rank":377,"kind_detail":"tertiary","is_bicycle_related":true,"bicycle_shield_text":"EV12","bicycle_network":"icn","source":"openstreetmap.org","min_zoom":8.0,"landuse_kind":"park"},"arcs":[[59],[60]]},{"type":"MultiLineString","properties":{"kind":"path","sort_rank":354,"kind_detail":"cycleway","is_bicycle_related":true,"bicycle_shield_text":"EV12","bicycle_network":"icn","source":"openstreetmap.org","min_zoom":8.0,"landuse_kind":"park"},"arcs":[[61],[62],[63],[64],[65]]},{"type":"MultiLineString","properties":{"kind":"minor_road","sort_rank":360,"kind_detail":"unclassified","is_bicycle_related":true,"bicycle_shield_text":"12","bicycle_network":"ncn","source":"openstreetmap.org","min_zoom":8.0},"arcs":[[66],[67],[68],[69],[70],[71]]},{"type":"LineString","properties":{"kind":"minor_road","service":"alley","sort_rank":356,"kind_detail":"service","is_bicycle_related":true,"bicycle_shield_text":"EV12","bicycle_network":"icn","source":"openstreetmap.org","min_zoom":8.0,"id":44286209},"arcs":[72]},{"type":"MultiLineString","properties":{"source":"openstreetmap.org","kind":"major_road","sort_rank":380,"kind_detail":"primary","ref":"11","min_zoom":8.0},"arcs":[[73],[74]]},{"type":"LineString","properties":{"kind":"major_road","sort_rank":377,"kind_detail":"tertiary","is_bicycle_related":true,"bicycle_shield_text":null,"bicycle_network":"ncn","source":"openstreetmap.org","min_zoom":8.0,"landuse_kind":"park","id":207760232},"arcs":[75]},{"type":"LineString","properties":{"kind":"major_road","sort_rank":380,"kind_detail":"primary","is_bicycle_related":true,"bicycle_shield_text":"12","bicycle_network":"ncn","source":"openstreetmap.org","min_zoom":8.0,"ref":"11","id":188733692},"arcs":[76]},{"type":"LineString","properties":{"kind":"minor_road","sort_rank":360,"kind_detail":"residential","is_bicycle_related":true,"bicycle_shield_text":"12","bicycle_network":"ncn","source":"openstreetmap.org","min_zoom":8.0},"arcs":[77]},{"type":"MultiLineString","properties":{"kind":"path","sort_rank":354,"kind_detail":"cycleway","is_bicycle_related":true,"bicycle_shield_text":"12","bicycle_network":"ncn","source":"openstreetmap.org","min_zoom":8.0},"arcs":[[78],[79]]},{"type":"MultiLineString","properties":{"kind":"major_road","sort_rank":377,"kind_detail":"tertiary","is_bicycle_related":true,"bicycle_shield_text":"12","bicycle_network":"ncn","source":"openstreetmap.org","min_zoom":8.0},"arcs":[[80],[81],[82],[83],[84],[85]]},{"type":"LineString","properties":{"kind":"path","sort_rank":354,"kind_detail":"path","is_bicycle_related":true,"bicycle_shield_text":"EV12","bicycle_network":"icn","source":"openstreetmap.org","min_zoom":8.0,"landuse_kind":"park","id":101988060},"arcs":[86]},{"type":"LineString","properties":{"kind":"path","sort_rank":354,"kind_detail":"path","is_bicycle_related":true,"bicycle_shield_text":"12","bicycle_network":"ncn","source":"openstreetmap.org","min_zoom":8.0,"id":364644234},"arcs":[87]},{"type":"LineString","properties":{"kind":"minor_road","sort_rank":360,"kind_detail":"residential","is_bicycle_related":true,"bicycle_shield_text":"EV12","bicycle_network":"icn","source":"openstreetmap.org","min_zoom":8.0,"landuse_kind":"park","id":185592830},"arcs":[88]},{"type":"MultiLineString","properties":{"kind":"major_road","sort_rank":377,"kind_detail":"tertiary","is_bicycle_related":true,"bicycle_shield_text":"EV12","cycleway":"lane","source":"openstreetmap.org","min_zoom":8.0,"bicycle_network":"icn"},"arcs":[[89],[90],[91]]},{"type":"LineString","properties":{"kind":"minor_road","sort_rank":358,"kind_detail":"service","is_bicycle_related":true,"bicycle_shield_text":"EV12","bicycle_network":"icn","source":"openstreetmap.org","min_zoom":8.0},"arcs":[92]},{"type":"MultiLineString","properties":{"kind":"path","sort_rank":354,"kind_detail":"track","is_bicycle_related":true,"bicycle_shield_text":"EV12","bicycle_network":"icn","source":"openstreetmap.org","min_zoom":8.0},"arcs":[[93],[94],[95]]}]},"earth":{"type":"GeometryCollection","geometries":[{"type":"MultiPolygon","properties":{"sort_rank":10,"source":"naturalearthdata.com","kind":"earth","min_zoom":0.0,"id":4767},"arcs":[[[96]],[[97]],[[98]]]}]},"landuse":{"type":"GeometryCollection","geometries":[{"type":"Polygon","properties":{"kind":"park","area":825894016,"sort_rank":24,"source":"openstreetmap.org","min_zoom":6.0,"tier":2,"id":-7045682,"osm_relation":true},"arcs":[[99]]}]}},"type":"Topology","transform":{"translate":[7.03125,56.5594824838],"scale":[0.0003433228,0.0001872653]},"arcs":[[[4096,4004],[-201,-120],[-198,-191],[-156,-260],[-183,-180],[-196,-321],[-166,-187],[-159,-281],[-227,-469],[-98,-275],[-99,-477],[-150,-465],[-124,-500],[-29,-278]],[[3995,594],[-9,28]],[[3982,596],[13,-2]],[[3986,622],[-1,13]],[[4096,2393],[-161,-235],[-34,-22],[-29,16],[-262,-573],[-115,-325],[-22,-346],[-34,-41],[46,6],[31,-116],[27,-3],[9,126],[16,-9],[-17,20],[8,261],[34,5],[101,-100],[34,-190],[109,-160],[20,-77],[125,-34]],[[3985,635],[-2,28],[56,-8],[57,52]],[[4000,622],[-14,0]],[[3995,594],[12,-5]],[[4096,620],[-35,-27],[-61,29]],[[4007,589],[89,-67]],[[4096,1386],[-92,-72],[-26,-91],[6,-54],[65,-85],[-26,-175],[-41,-89],[18,-67],[-30,-92],[38,-69],[88,-26]],[[4096,570],[0,-462],[-3,3],[-129,27],[-142,-4],[-91,-31],[0,-36],[17,-45],[-5,-22],[-54,0],[-15,44],[7,86],[-10,49],[42,26],[-32,22],[-120,22],[-23,23],[-16,51],[-11,52],[-10,23],[-53,5],[-19,10],[-18,18],[0,37],[22,47],[66,173],[2,38],[-27,27],[-12,46],[-17,14],[-44,-69],[-59,-143],[-131,-461],[-20,-92],[-7,-48],[-3184,0],[0,4096],[4096,0],[0,-1781],[-487,-800],[-65,-164],[-34,-221],[6,-246],[22,-112],[43,7],[7,73],[-15,115],[-42,197],[49,-4],[82,-55],[39,-14],[19,-30],[32,-192],[38,-74],[58,-82],[61,-68],[52,-28],[75,-16],[60,-31]],[[4096,674],[-85,-24],[0,40],[37,14],[48,40],[0,-70]],[[3184,0],[7,48],[20,92],[131,461],[59,143],[44,69],[17,-14],[12,-46],[27,-27],[-2,-38],[-66,-173],[-22,-47],[0,-37],[18,-18],[19,-10],[53,-5],[10,-23],[11,-52],[16,-51],[23,-23],[120,-22],[32,-22],[-42,-26],[10,-49],[-7,-86],[15,-44]],[[3743,0],[5,22],[-17,45],[0,36],[91,31],[142,4],[129,-27],[3,-3]],[[4096,744],[-48,-40],[-37,-14],[0,-40],[85,24]],[[4096,570],[-60,31],[-75,16],[-52,28],[-61,68],[-58,82],[-38,74],[-32,192],[-19,30],[-39,14],[-82,55],[-49,4],[42,-197],[15,-115],[-7,-73],[-43,-7],[-22,112],[-6,246],[34,221],[65,164],[487,800]],[[3498,1200],[1,13]],[[3475,694],[-11,-2]],[[3539,761],[1,0]],[[3902,2045],[7,27]],[[3237,124],[12,-26]],[[3252,199],[-12,-52]],[[3307,295],[-31,-43]],[[3446,737],[-24,3]],[[3503,1171],[-4,2]],[[3539,761],[0,7]],[[3895,2130],[43,-7]],[[3252,199],[24,53]],[[3282,372],[-9,-45],[34,-32]],[[3561,1177],[1,0]],[[3566,1176],[-5,2]],[[3733,1363],[5,1]],[[3750,1367],[56,14],[80,187]],[[3892,2129],[3,1]],[[3499,1218],[18,84],[56,35]],[[3598,1397],[-7,5]],[[3873,1923],[10,-125]],[[3885,1794],[7,-19]],[[3890,1941],[19,64]],[[3895,2130],[39,-6]],[[3207,30],[-7,-30]],[[3282,381],[25,11],[-17,39],[122,286]],[[3556,1137],[4,30]],[[3475,694],[58,35],[7,32]],[[3459,47],[1,-1]],[[3573,1337],[18,65]],[[3618,1402],[-20,-5]],[[3732,1366],[-42,68],[-36,-19]],[[3866,1578],[38,106],[-12,91]],[[3886,1568],[-22,6]],[[3883,1798],[2,-4]],[[3892,2011],[17,-6]],[[3200,36],[49,62]],[[3237,124],[3,23]],[[3282,372],[0,9]],[[3412,722],[10,18]],[[4052,572],[-67,48]],[[3765,1043],[-9,41]],[[3738,1364],[12,3]],[[3890,1941],[-68,29],[51,-47]],[[3499,1173],[-1,27]],[[3539,768],[17,369],[-53,34]],[[3938,2123],[16,-3]],[[3954,2120]],[[3954,2120],[93,69],[49,91]],[[3459,47],[-100,14],[-11,31],[-57,-45]],[[3582,43],[-122,3]],[[3678,13],[-1,0]],[[3763,1043],[-39,-33],[4,-75],[29,-40],[-10,-30],[31,-7],[16,-48],[44,-3],[20,-158],[127,-29]],[[3989,698],[107,58]],[[4096,1219],[-39,-51],[39,-20]],[[3200,36],[7,-6]],[[3989,698],[107,278]],[[4096,532],[-44,40]],[[3934,2124],[20,-4]],[[3985,620],[4,78]],[[3249,98],[1,1]],[[3560,1167],[1,11]],[[3682,0],[-4,13]],[[3250,99],[41,-52]],[[3562,1177],[194,-93]],[[3664,47],[-55,50],[-27,-54]],[[3660,38],[4,9]],[[3660,38],[17,-25]],[[3765,1043],[-2,0]],[[3654,1415],[-36,-13]],[[3678,13]],[[3499,1213],[0,5]],[[3464,692],[-18,45]],[[3892,2011],[10,34]],[[3909,2072],[-17,57]],[[3412,717],[-1,2]],[[3411,719],[1,3]],[[3733,1363],[-1,3]],[[3866,1578],[-2,-4]],[[4096,108],[0,-108],[-353,0],[5,22],[-17,45],[0,36],[91,31],[142,4],[129,-27],[3,-3]],[[3689,0],[-505,0],[7,48],[20,92],[131,461],[59,143],[44,69],[17,-14],[12,-46],[27,-27],[-2,-38],[-66,-173],[-22,-47],[0,-37],[18,-18],[19,-10],[53,-5],[10,-23],[11,-52],[16,-51],[23,-23],[120,-22],[32,-22],[-42,-26],[10,-49],[-7,-86],[15,-44]],[[4096,744],[-48,-40],[-37,-14],[0,-40],[85,24],[0,-104],[-60,31],[-75,16],[-52,28],[-61,68],[-58,82],[-38,74],[-32,192],[-19,30],[-39,14],[-82,55],[-49,4],[42,-197],[15,-115],[-7,-73],[-43,-7],[-22,112],[-6,246],[34,221],[65,164],[487,800],[0,-1571]],[[3439,867],[33,40],[31,364],[100,298],[271,564],[35,-61],[-17,-61],[43,-15],[34,114],[-68,27],[195,259],[0,-384],[-96,-41],[96,-22],[0,-78],[-93,0],[10,-46],[-71,-12],[4,-22],[-59,20],[-5,-17],[30,0],[-22,-11],[16,-59],[39,-27],[-34,-71],[37,-40],[-62,-17],[-48,21],[-3,-28],[29,-7],[-46,-63],[-42,3],[-43,-77],[19,-56],[-60,10],[-68,-3],[32,-87],[32,47],[-7,40],[72,-29],[83,20],[-8,-32],[-104,-85],[-1,-32],[-88,36],[-58,-54],[-77,18],[-1,-40],[82,-6],[45,-35],[-20,-312],[-84,-64],[-23,99],[-23,24],[-37,-10]]]}