{"objects":{"water":{"type":"GeometryCollection","geometries":[{"type":"MultiPolygon","properties":{"source":"naturalearthdata.com","kind":"ocean","area":1576712559132672,"sort_rank":200,"min_zoom":0.0,"id":1},"arcs":[[[10]],[[11]]]},{"type":"MultiLineString","properties":{"source":"naturalearthdata.com","kind":"ocean","sort_rank":205,"boundary":true,"min_zoom":0.0,"id":19},"arcs":[[12],[13]]}]},"buildings":{"type":"GeometryCollection","geometries":[]},"places":{"type":"GeometryCollection","geometries":[{"type":"Point","properties":{"kind":"locality","name":"Ringk\u00f8bing","name:lt":"Ringkiobingas","kind_detail":"town","source":"openstreetmap.org","min_zoom":8.0,"name:ru":"\u0420\u0438\u043d\u0433\u043a\u0451\u0431\u0438\u043d\u0433","id":2387702632,"population":9500},"coordinates":[3562,1642]},{"type":"Point","properties":{"source":"openstreetmap.org","kind":"locality","name":"Lemvig","kind_detail":"town","population":7150,"min_zoom":8.0,"id":2381064271},"coordinates":[3709,4040]}]},"transit":{"type":"GeometryCollection","geometries":[{"type":"LineString","properties":{"kind":"train","name":"ARRIVA Skjern - Struer","sort_rank":275,"source":"openstreetmap.org","min_zoom":6.0,"operator":"ARRIVA","ref":"52","osm_relation":true},"arcs":[7]},{"type":"LineString","properties":{"kind":"train","name":"NEG-ARRIVA N\u00f8rre Nebel - Nieb\u00fcll","sort_rank":275,"source":"openstreetmap.org","min_zoom":6.0,"operator":"NEG-ARRIVA","ref":"R8","id":-3600899,"osm_relation":true},"arcs":[8]},{"type":"LineString","properties":{"kind":"train","name":"ARRIVA N\u00f8rre Nebel - Esbjerg","sort_rank":275,"source":"openstreetmap.org","min_zoom":6.0,"operator":"ARRIVA","ref":"56","id":-3615303,"osm_relation":true},"arcs":[9]}]},"pois":{"type":"GeometryCollection","geometries":[]},"boundaries":{"type":"GeometryCollection","geometries":[{"type":"LineString","properties":{"name:kg":"Danemark","name:ka":"\u10d3\u10d0\u10dc\u10d8\u10d0","name:ko":"\ub374\ub9c8\ud06c","name:cv":"\u0414\u0430\u043d\u0438","name:cu":"\u0414\u0430\u043d\u0457\ua657","name:kl":"Danmarki","name:cs":"D\u00e1nsko","name:ki":"Denmark","name:co":"Danimarca","name:kv":"\u0414\u0430\u043d\u0438\u044f","name:ku":"Dan\u00eemarka","name:tl":"Dinamarka","name:ce":"\u0414\u0430\u043d\u0438","name:ta":"\u0b9f\u0bc6\u0ba9\u0bcd\u0bae\u0bbe\u0bb0\u0bcd\u0b95\u0bcd","name:tg":"\u0414\u0430\u043d\u0438\u044f","name:ca":"Dinamarca","name:te":"\u0c21\u0c46\u0c28\u0c4d\u0c2e\u0c3e\u0c30\u0c4d\u0c15\u0c4d","name:cy":"Denmarc","name:qu":"Dansuyu","name:de":"D\u00e4nemark","name:dz":"\u0f4c\u0f7a\u0f53\u0f0b\u0f58\u0f71\u0f40\u0f0b","source":"openstreetmap.org","name:kn":"\u0ca1\u0cc6\u0ca8\u0ccd\u0cae\u0cbe\u0cb0\u0ccd\u0c95\u0ccd\u200c","name:dv":"\u0791\u07ac\u0782\u07b0\u0789\u07a7\u0786\u07aa","name:lv":"D\u0101nija","name:lt":"Danija","name:uz":"Daniya","name:kk":"\u0414\u0430\u043d\u0438\u044f","name:ur":"\u0688\u0646\u0645\u0627\u0631\u06a9","name:lb":"D\u00e4nemark","name:la":"Dania","name:lg":"Denimaaka","name:uk":"\u0414\u0430\u043d\u0456\u044f","name:ug":"\u062f\u0627\u0646\u0649\u064a\u06d5","name:li":"Denemarke","name:ln":"Danemark","name:el":"\u0394\u03b1\u03bd\u03af\u03b1","name:eo":"Danujo","name:en":"Denmark","name":"Danmark","name:tk":"Dani\u00fda","name:ee":"Denmark","name:th":"\u0e1b\u0e23\u0e30\u0e40\u0e17\u0e28\u0e40\u0e14\u0e19\u0e21\u0e32\u0e23\u0e4c\u0e01","name:eu":"Danimarka","name:et":"Taani","name:es":"Dinamarca","name:rm":"Danemarc","name:rn":"Danemarke","name:az":"Danimarka","name:ie":"Dania","name:id":"Denmark","name:ar":"\u0627\u0644\u062f\u0646\u0645\u0627\u0631\u0643","name:io":"Dania","name:is":"Danm\u00f6rk","name:am":"\u12f4\u1295\u121b\u122d\u12ad","name:it":"Danimarca","name:an":"Dinamarca","name:ru":"\u0414\u0430\u043d\u0438\u044f","name:rw":"Danimarike","name:af":"Denemarke","name:zu":"IDenimaki","kind_detail":"2","name:ky":"\u0414\u0430\u043d\u0438\u044f","name:zh-yue":"\u4e39\u9ea5","name:zh":"\u4e39\u9ea6","name:so":"Denmark","name:sl":"Danska","name:sk":"D\u00e1nsko","name:ja":"\u30c7\u30f3\u30de\u30fc\u30af","name:si":"\u0da9\u0dd9\u0db1\u0dca\u0db8\u0dcf\u0dbb\u0dca\u0d9a\u0dba","name:sh":"Danska","name:se":"D\u00e1nm\u00e1rku","name:sc":"Danimarca","name:sa":"\u0921\u0947\u0928\u092e\u093e\u0930\u094d\u0915","name:bs":"Danska","name:bn":"\u09a1\u09c7\u09a8\u09ae\u09be\u09b0\u09cd\u0995","name:bo":"\u0f51\u0f53\u0f0b\u0f58\u0fb2\u0f42","name:bi":"Denmark","name:sw":"Denmark","name:be":"\u0414\u0430\u043d\u0456\u044f","name:su":"D\u00e9nmark","name:bg":"\u0414\u0430\u043d\u0438\u044f","name:ss":"IDenimakhi","name:ba":"\u0414\u0430\u043d\u0438\u044f","name:sq":"Danimarka","name:jv":"Denmark","name:pt":"Dinamarca","name:ps":"\u0689\u06d0\u0646\u0645\u0627\u0631\u06a9","name:oc":"Danemarc","min_zoom":8.0,"name:ro":"Danemarca","name:zh-min-nan":"Tan-kok","name:os":"\u0414\u0430\u043d\u0438","name:or":"\u0b21\u0b47\u0b28\u0b2e\u0b3e\u0b30\u0b4d\u0b15","name:pl":"Dania","name:st":"Denmark","sort_rank":262,"name:sr":"\u0414\u0430\u043d\u0441\u043a\u0430","osm_relation":true,"name:tr":"Danimarka","name:hi":"\u0921\u0947\u0928\u092e\u093e\u0930\u094d\u0915","name:he":"\u05d3\u05e0\u05de\u05e8\u05e7","name:hy":"\u0534\u0561\u0576\u056b\u0561","name:ht":"Danmak","name:hu":"D\u00e1nia","name:hr":"Danska","kind":"country","name:yi":"\u05d3\u05e2\u05e0\u05de\u05d0\u05e8\u05e7","name:yo":"D\u1eb9\u0301nm\u00e1rk\u00ec","name:mt":"Danimarka","alt_name:eo":"Danio;Danlando","name:ms":"Denmark","name:mr":"\u0921\u0947\u0928\u094d\u092e\u093e\u0930\u094d\u0915","name:my":"\u1012\u102d\u1014\u103a\u1038\u1019\u1010\u103a\u1014\u102d\u102f\u1004\u103a\u1004\u1036","official_name":"Kongeriget Danmark","name:mg":"Danmarka","name:vi":"\u0110an M\u1ea1ch","name:ml":"\u0d21\u0d46\u0d28\u0d4d\u0d2e\u0d3e\u0d7c\u0d15\u0d4d\u0d15\u0d4d","name:mn":"\u0414\u0430\u043d\u0438","name:mi":"Tenem\u0101ka","id":-50046,"name:mk":"\u0414\u0430\u043d\u0441\u043a\u0430","name:vo":"Dan\u00e4n","name:fa":"\u062f\u0627\u0646\u0645\u0627\u0631\u06a9","name:fi":"Tanska","name:fr":"Danemark","name:fy":"Denemark","name:nl":"Denemarken","name:na":"Denemark","name:ne":"\u0921\u0947\u0928\u092e\u093e\u0930\u094d\u0915","name:wo":"Danmaark","name:nv":"D\u00e9inish Dine\u02bc\u00e9 Bik\u00e9yah","name:ga":"An Danmhairg","name:gd":"An Danmhairg","name:gn":"Ndinamayka","name:gl":"Dinamarca","maritime_boundary":true,"name:gv":"Yn Danvarg","name:tt":"\u0414\u0430\u043d\u0438\u044f"},"arcs":[0]},{"type":"LineString","properties":{"name:pt":"Dinamarca do Sul","name:ro":"Regiunea Syddanmark","name:ms":"Wilayah Syddanmark","name:ko":"\ub0a8\ub374\ub9c8\ud06c \uc9c0\uc5ed","name:cs":"Syddanmark","min_zoom":8.0,"name:it":"Danimarca meridionale","name:vi":"Nam \u0110an M\u1ea1ch","name:os":"\u0425\u0443\u0441\u0441\u0430\u0440 \u0414\u0430\u043d\u0438","name:ru":"\u042e\u0436\u043d\u0430\u044f \u0414\u0430\u043d\u0438\u044f","name:ce":"\u041a\u044a\u0438\u043b\u0431\u0435\u0440\u0430 \u0414\u0430\u043d\u0438","name:de":"Region S\u00fcdd\u00e4nemark","name:pl":"Dania Po\u0142udniowa","name:mk":"\u0408\u0443\u0436\u043d\u0430 \u0414\u0430\u043d\u0441\u043a\u0430","name:fa":"\u0627\u0633\u062a\u0627\u0646 \u0633\u06cc\u062f\u062f\u0627\u0646\u0645\u0627\u0631\u06a9","name:hu":"Syddanmark r\u00e9gi\u00f3","name:ka":"\u10e1\u10d0\u10db\u10ee\u10e0\u10d4\u10d7 \u10d3\u10d0\u10dc\u10d8\u10d8\u10e1 \u10e0\u10d4\u10d2\u10d8\u10dd\u10dc\u10d8","sort_rank":256,"kind_detail":"4","id":-1319978,"source":"openstreetmap.org","name:fr":"Danemark-du-Sud","name:ca":"Dinamarca Meridional","name:fy":"S\u00fad-Denemark","name:zh":"\u5357\u4e39\u9ea6\u5927\u533a","osm_relation":true,"name:lv":"Dienvidd\u0101nijas re\u0123ions","name:ja":"\u5357\u30c7\u30f3\u30de\u30fc\u30af\u5730\u57df","name:lt":"Piet\u0173 Danijos regionas","name:kk":"\u041e\u04a3\u0442\u04af\u0441\u0442\u0456\u043a \u0414\u0430\u043d\u0438\u044f","name:se":"Syddanmark regiuvdna","kind":"region","name:br":"Danmark ar Su","name:la":"Dania Meridiana","name:sk":"Ju\u017en\u00e9 D\u00e1nsko","name:uk":"\u041f\u0456\u0432\u0434\u0435\u043d\u043d\u0430 \u0414\u0430\u043d\u0456\u044f","name:hy":"\u0540\u0561\u0580\u0561\u057e\u0561\u0575\u056b\u0576 \u0534\u0561\u0576\u056b\u0561 \u057f\u0561\u0580\u0561\u056e\u0561\u0577\u0580\u057b\u0561\u0576","name:bg":"\u042e\u0436\u043d\u0430 \u0414\u0430\u043d\u0438\u044f","name:hr":"Ju\u017ena Danska","name:sr":"\u0408\u0443\u0436\u043d\u0430 \u0414\u0430\u043d\u0441\u043a\u0430","name:oc":"Danemarc Meridional","name:eo":"Regiono Suda Danio","name:en":"Region of Southern Denmark","name":"Region Syddanmark","name:fi":"Etel\u00e4-Tanskan alue","name:eu":"Hegoaldeko Danimarka","name:et":"L\u00f5una-Taani piirkond","name:nl":"Zuid-Denemarken","name:es":"Dinamarca Meridional"},"arcs":[1]},{"type":"LineString","properties":{"name:pt":"Dinamarca do Sul","name:ro":"Regiunea Syddanmark","name:ms":"Wilayah Syddanmark","name:ko":"\ub0a8\ub374\ub9c8\ud06c \uc9c0\uc5ed","name:cs":"Syddanmark","min_zoom":8.0,"name:it":"Danimarca meridionale","name:vi":"Nam \u0110an M\u1ea1ch","name:os":"\u0425\u0443\u0441\u0441\u0430\u0440 \u0414\u0430\u043d\u0438","name:ru":"\u042e\u0436\u043d\u0430\u044f \u0414\u0430\u043d\u0438\u044f","name:ce":"\u041a\u044a\u0438\u043b\u0431\u0435\u0440\u0430 \u0414\u0430\u043d\u0438","name:de":"Region S\u00fcdd\u00e4nemark","name:pl":"Dania Po\u0142udniowa","name:mk":"\u0408\u0443\u0436\u043d\u0430 \u0414\u0430\u043d\u0441\u043a\u0430","name:fa":"\u0627\u0633\u062a\u0627\u0646 \u0633\u06cc\u062f\u062f\u0627\u0646\u0645\u0627\u0631\u06a9","name:hu":"Syddanmark r\u00e9gi\u00f3","name:ka":"\u10e1\u10d0\u10db\u10ee\u10e0\u10d4\u10d7 \u10d3\u10d0\u10dc\u10d8\u10d8\u10e1 \u10e0\u10d4\u10d2\u10d8\u10dd\u10dc\u10d8","sort_rank":256,"kind_detail":"4","id":-1319978,"source":"openstreetmap.org","name:fr":"Danemark-du-Sud","name:ca":"Dinamarca Meridional","name:fy":"S\u00fad-Denemark","name:zh":"\u5357\u4e39\u9ea6\u5927\u533a","osm_relation":true,"name:lv":"Dienvidd\u0101nijas re\u0123ions","name:ja":"\u5357\u30c7\u30f3\u30de\u30fc\u30af\u5730\u57df","name:lt":"Piet\u0173 Danijos regionas","name:kk":"\u041e\u04a3\u0442\u04af\u0441\u0442\u0456\u043a \u0414\u0430\u043d\u0438\u044f","name:se":"Syddanmark regiuvdna","kind":"region","name:br":"Danmark ar Su","name:la":"Dania Meridiana","name:sk":"Ju\u017en\u00e9 D\u00e1nsko","name:uk":"\u041f\u0456\u0432\u0434\u0435\u043d\u043d\u0430 \u0414\u0430\u043d\u0456\u044f","name:hy":"\u0540\u0561\u0580\u0561\u057e\u0561\u0575\u056b\u0576 \u0534\u0561\u0576\u056b\u0561 \u057f\u0561\u0580\u0561\u056e\u0561\u0577\u0580\u057b\u0561\u0576","name:bg":"\u042e\u0436\u043d\u0430 \u0414\u0430\u043d\u0438\u044f","name:hr":"Ju\u017ena Danska","name:sr":"\u0408\u0443\u0436\u043d\u0430 \u0414\u0430\u043d\u0441\u043a\u0430","name:oc":"Danemarc Meridional","name:eo":"Regiono Suda Danio","name:en":"Region of Southern Denmark","name":"Region Syddanmark","name:fi":"Etel\u00e4-Tanskan alue","name:eu":"Hegoaldeko Danimarka","name:et":"L\u00f5una-Taani piirkond","name:nl":"Zuid-Denemarken","name:es":"Dinamarca Meridional"},"arcs":[2]},{"type":"LineString","properties":{"name:pt":"Dinamarca do Sul","name:ro":"Regiunea Syddanmark","name:ms":"Wilayah Syddanmark","name:ko":"\ub0a8\ub374\ub9c8\ud06c \uc9c0\uc5ed","name:cs":"Syddanmark","min_zoom":8.0,"name:it":"Danimarca meridionale","name:vi":"Nam \u0110an M\u1ea1ch","name:os":"\u0425\u0443\u0441\u0441\u0430\u0440 \u0414\u0430\u043d\u0438","name:ru":"\u042e\u0436\u043d\u0430\u044f \u0414\u0430\u043d\u0438\u044f","name:ce":"\u041a\u044a\u0438\u043b\u0431\u0435\u0440\u0430 \u0414\u0430\u043d\u0438","name:de":"Region S\u00fcdd\u00e4nemark","name:pl":"Dania Po\u0142udniowa","name:mk":"\u0408\u0443\u0436\u043d\u0430 \u0414\u0430\u043d\u0441\u043a\u0430","name:fa":"\u0627\u0633\u062a\u0627\u0646 \u0633\u06cc\u062f\u062f\u0627\u0646\u0645\u0627\u0631\u06a9","name:hu":"Syddanmark r\u00e9gi\u00f3","name:ka":"\u10e1\u10d0\u10db\u10ee\u10e0\u10d4\u10d7 \u10d3\u10d0\u10dc\u10d8\u10d8\u10e1 \u10e0\u10d4\u10d2\u10d8\u10dd\u10dc\u10d8","sort_rank":256,"kind_detail":"4","id":-1319978,"source":"openstreetmap.org","name:fr":"Danemark-du-Sud","name:ca":"Dinamarca Meridional","name:fy":"S\u00fad-Denemark","name:zh":"\u5357\u4e39\u9ea6\u5927\u533a","osm_relation":true,"name:lv":"Dienvidd\u0101nijas re\u0123ions","name:ja":"\u5357\u30c7\u30f3\u30de\u30fc\u30af\u5730\u57df","name:lt":"Piet\u0173 Danijos regionas","name:kk":"\u041e\u04a3\u0442\u04af\u0441\u0442\u0456\u043a \u0414\u0430\u043d\u0438\u044f","name:se":"Syddanmark regiuvdna","kind":"region","name:br":"Danmark ar Su","name:la":"Dania Meridiana","name:sk":"Ju\u017en\u00e9 D\u00e1nsko","name:uk":"\u041f\u0456\u0432\u0434\u0435\u043d\u043d\u0430 \u0414\u0430\u043d\u0456\u044f","name:hy":"\u0540\u0561\u0580\u0561\u057e\u0561\u0575\u056b\u0576 \u0534\u0561\u0576\u056b\u0561 \u057f\u0561\u0580\u0561\u056e\u0561\u0577\u0580\u057b\u0561\u0576","name:bg":"\u042e\u0436\u043d\u0430 \u0414\u0430\u043d\u0438\u044f","name:hr":"Ju\u017ena Danska","name:sr":"\u0408\u0443\u0436\u043d\u0430 \u0414\u0430\u043d\u0441\u043a\u0430","name:oc":"Danemarc Meridional","name:eo":"Regiono Suda Danio","name:en":"Region of Southern Denmark","name":"Region Syddanmark","name:fi":"Etel\u00e4-Tanskan alue","name:eu":"Hegoaldeko Danimarka","name:et":"L\u00f5una-Taani piirkond","name:nl":"Zuid-Denemarken","name:es":"Dinamarca Meridional"},"arcs":[3]},{"type":"MultiLineString","properties":{"name:pt":"Dinamarca do Sul","name:ro":"Regiunea Syddanmark","name:ms":"Wilayah Syddanmark","name:ko":"\ub0a8\ub374\ub9c8\ud06c \uc9c0\uc5ed","name:cs":"Syddanmark","min_zoom":8.0,"name:it":"Danimarca meridionale","name:ru":"\u042e\u0436\u043d\u0430\u044f \u0414\u0430\u043d\u0438\u044f","name:os":"\u0425\u0443\u0441\u0441\u0430\u0440 \u0414\u0430\u043d\u0438","name:vi":"Nam \u0110an M\u1ea1ch","name:ce":"\u041a\u044a\u0438\u043b\u0431\u0435\u0440\u0430 \u0414\u0430\u043d\u0438","name:pl":"Dania Po\u0142udniowa","name:mk":"\u0408\u0443\u0436\u043d\u0430 \u0414\u0430\u043d\u0441\u043a\u0430","name:fa":"\u0627\u0633\u062a\u0627\u0646 \u0633\u06cc\u062f\u062f\u0627\u0646\u0645\u0627\u0631\u06a9","name:bg":"\u042e\u0436\u043d\u0430 \u0414\u0430\u043d\u0438\u044f","name:ka":"\u10e1\u10d0\u10db\u10ee\u10e0\u10d4\u10d7 \u10d3\u10d0\u10dc\u10d8\u10d8\u10e1 \u10e0\u10d4\u10d2\u10d8\u10dd\u10dc\u10d8","source":"openstreetmap.org","sort_rank":256,"kind_detail":"4","id":-1319978,"name:de":"Region S\u00fcdd\u00e4nemark","name:oc":"Danemarc Meridional","name:fr":"Danemark-du-Sud","name:ca":"Dinamarca Meridional","name:fy":"S\u00fad-Denemark","name:zh":"\u5357\u4e39\u9ea6\u5927\u533a","name:lv":"Dienvidd\u0101nijas re\u0123ions","name:ja":"\u5357\u30c7\u30f3\u30de\u30fc\u30af\u5730\u57df","name:lt":"Piet\u0173 Danijos regionas","name:kk":"\u041e\u04a3\u0442\u04af\u0441\u0442\u0456\u043a \u0414\u0430\u043d\u0438\u044f","name:se":"Syddanmark regiuvdna","name:eo":"Regiono Suda Danio","name:br":"Danmark ar Su","name:la":"Dania Meridiana","name:sk":"Ju\u017en\u00e9 D\u00e1nsko","name:uk":"\u041f\u0456\u0432\u0434\u0435\u043d\u043d\u0430 \u0414\u0430\u043d\u0456\u044f","name:hy":"\u0540\u0561\u0580\u0561\u057e\u0561\u0575\u056b\u0576 \u0534\u0561\u0576\u056b\u0561 \u057f\u0561\u0580\u0561\u056e\u0561\u0577\u0580\u057b\u0561\u0576","name:hu":"Syddanmark r\u00e9gi\u00f3","name:hr":"Ju\u017ena Danska","name:sr":"\u0408\u0443\u0436\u043d\u0430 \u0414\u0430\u043d\u0441\u043a\u0430","osm_relation":true,"kind":"region","name:en":"Region of Southern Denmark","name":"Region Syddanmark","maritime_boundary":true,"name:fi":"Etel\u00e4-Tanskan alue","name:eu":"Hegoaldeko Danimarka","name:et":"L\u00f5una-Taani piirkond","name:nl":"Zuid-Denemarken","name:es":"Dinamarca Meridional"},"arcs":[[4],[5],[6]]}]},"roads":{"type":"GeometryCollection","geometries":[{"type":"LineString","properties":{"source":"openstreetmap.org","kind":"major_road","sort_rank":380,"kind_detail":"primary","min_zoom":8.0,"id":505307123},"arcs":[14]},{"type":"MultiLineString","properties":{"source":"openstreetmap.org","kind":"major_road","sort_rank":380,"kind_detail":"primary","ref":"16;28","min_zoom":8.0},"arcs":[[15],[16],[17],[18],[19],[20],[21],[22],[23],[24],[25]]},{"type":"LineString","properties":{"kind":"path","sort_rank":354,"kind_detail":"path","is_bicycle_related":true,"bicycle_shield_text":"4","bicycle_network":"ncn","source":"openstreetmap.org","min_zoom":8.0,"landuse_kind":"nature_reserve","id":75992033},"arcs":[26]},{"type":"LineString","properties":{"kind":"major_road","sort_rank":377,"kind_detail":"tertiary","is_bicycle_related":true,"bicycle_shield_text":"4","cycleway":"lane","source":"openstreetmap.org","min_zoom":8.0,"bicycle_network":"ncn"},"arcs":[27]},{"type":"LineString","properties":{"kind":"path","sort_rank":354,"kind_detail":"path","is_bicycle_related":true,"bicycle_shield_text":"1","bicycle_network":"ncn","source":"openstreetmap.org","min_zoom":8.0,"id":375544716},"arcs":[28]},{"type":"LineString","properties":{"kind":"major_road","sort_rank":379,"kind_detail":"secondary","is_bicycle_related":true,"bicycle_shield_text":"EV12","bicycle_network":"icn","source":"openstreetmap.org","min_zoom":8.0,"ref":"181"},"arcs":[29]},{"type":"LineString","properties":{"source":"openstreetmap.org","kind":"major_road","sort_rank":380,"kind_detail":"primary","ref":"15;28","min_zoom":8.0,"id":238898150},"arcs":[30]},{"type":"MultiLineString","properties":{"source":"openstreetmap.org","kind":"major_road","sort_rank":380,"kind_detail":"primary","ref":"16","min_zoom":8.0},"arcs":[[31],[32],[33],[34]]},{"type":"LineString","properties":{"kind":"major_road","sort_rank":380,"kind_detail":"primary","is_bicycle_related":true,"cycleway":"lane","source":"openstreetmap.org","min_zoom":8.0,"ref":"16","id":505743032},"arcs":[35]},{"type":"MultiLineString","properties":{"kind":"minor_road","sort_rank":360,"kind_detail":"unclassified","is_bicycle_related":true,"bicycle_shield_text":"4","bicycle_network":"ncn","source":"openstreetmap.org","min_zoom":8.0},"arcs":[[36],[37],[38],[39]]},{"type":"LineString","properties":{"kind":"minor_road","service":"parking_aisle","sort_rank":356,"kind_detail":"service","is_bicycle_related":true,"bicycle_shield_text":"4","bicycle_network":"ncn","source":"openstreetmap.org","min_zoom":8.0,"id":69863175},"arcs":[40]},{"type":"MultiLineString","properties":{"kind":"path","sort_rank":354,"kind_detail":"cycleway","is_bicycle_related":true,"bicycle_shield_text":"EV12","bicycle_network":"icn","source":"openstreetmap.org","min_zoom":8.0},"arcs":[[41],[42],[43],[44],[45],[46],[47],[48],[49],[50]]},{"type":"LineString","properties":{"cycleway_right":"lane","sort_rank":377,"kind_detail":"tertiary","is_bicycle_related":true,"kind":"major_road","bicycle_shield_text":"12","bicycle_network":"ncn","source":"openstreetmap.org","min_zoom":8.0,"id":309053325},"arcs":[51]},{"type":"LineString","properties":{"cycleway_right":"track","sort_rank":380,"kind_detail":"primary","is_bicycle_related":true,"kind":"major_road","source":"openstreetmap.org","min_zoom":8.0,"ref":"15","id":18497310},"arcs":[52]},{"type":"MultiLineString","properties":{"kind":"major_road","sort_rank":377,"kind_detail":"tertiary","is_bicycle_related":true,"bicycle_shield_text":"EV12","bicycle_network":"icn","source":"openstreetmap.org","min_zoom":8.0},"arcs":[[53],[54],[55],[56]]},{"type":"MultiLineString","properties":{"kind":"path","sort_rank":354,"kind_detail":"footway","is_bicycle_related":true,"bicycle_shield_text":"EV12","bicycle_network":"icn","source":"openstreetmap.org","min_zoom":8.0},"arcs":[[57],[58]]},{"type":"MultiLineString","properties":{"kind":"path","sort_rank":354,"kind_detail":"path","is_bicycle_related":true,"bicycle_shield_text":"EV12","bicycle_network":"icn","source":"openstreetmap.org","min_zoom":8.0},"arcs":[[59],[60],[61],[62],[63],[64],[65],[66],[67],[68],[69],[70],[71],[72],[73],[74],[75]]},{"type":"MultiLineString","properties":{"kind":"path","sort_rank":354,"landuse_kind":"residential","is_bicycle_related":true,"bicycle_shield_text":"EV12","bicycle_network":"icn","source":"openstreetmap.org","min_zoom":8.0,"kind_detail":"path"},"arcs":[[76],[77],[78]]},{"type":"LineString","properties":{"kind":"major_road","sort_rank":379,"kind_detail":"secondary","is_bicycle_related":true,"bicycle_shield_text":"12","bicycle_network":"ncn","source":"openstreetmap.org","min_zoom":8.0,"ref":"513","id":44847579},"arcs":[79]},{"type":"LineString","properties":{"kind":"major_road","sort_rank":377,"kind_detail":"tertiary","is_bicycle_related":true,"bicycle_shield_text":"12","cycleway":"lane","source":"openstreetmap.org","min_zoom":8.0,"bicycle_network":"ncn","id":32608914},"arcs":[80]},{"type":"LineString","properties":{"kind":"minor_road","sort_rank":358,"kind_detail":"service","is_bicycle_related":true,"bicycle_shield_text":"12","bicycle_network":"ncn","source":"openstreetmap.org","min_zoom":8.0,"id":228395338},"arcs":[81]},{"type":"LineString","properties":{"kind":"path","sort_rank":354,"kind_detail":"cycleway","is_bicycle_related":true,"bicycle_shield_text":"EV12","bicycle_network":"icn","source":"openstreetmap.org","min_zoom":8.0,"landuse_kind":"residential","id":69255301},"arcs":[82]},{"type":"LineString","properties":{"kind":"major_road","sort_rank":377,"landuse_kind":"residential","is_bicycle_related":true,"bicycle_shield_text":"4","bicycle_network":"ncn","source":"openstreetmap.org","min_zoom":8.0,"kind_detail":"tertiary"},"arcs":[83]},{"type":"LineString","properties":{"kind":"minor_road","sort_rank":360,"kind_detail":"unclassified","is_bicycle_related":true,"bicycle_shield_text":"4","bicycle_network":"ncn","source":"openstreetmap.org","min_zoom":8.0,"landuse_kind":"residential","id":144792048},"arcs":[84]},{"type":"MultiLineString","properties":{"kind":"minor_road","sort_rank":360,"kind_detail":"unclassified","is_bicycle_related":true,"bicycle_shield_text":"EV12","bicycle_network":"icn","source":"openstreetmap.org","min_zoom":8.0},"arcs":[[85],[86],[87],[88],[89],[90],[91]]},{"type":"MultiLineString","properties":{"kind":"minor_road","sort_rank":360,"kind_detail":"residential","is_bicycle_related":true,"bicycle_shield_text":"EV12","bicycle_network":"icn","source":"openstreetmap.org","min_zoom":8.0},"arcs":[[92],[93],[94],[95],[96],[97],[98],[99],[100],[101],[102],[103],[104],[105],[106],[107],[108],[109],[110],[111],[112],[113],[114],[115],[116],[117]]},{"type":"LineString","properties":{"kind":"major_road","sort_rank":377,"kind_detail":"tertiary","is_bicycle_related":true,"bicycle_shield_text":"4","cycleway":"track","source":"openstreetmap.org","min_zoom":8.0,"landuse_kind":"residential","bicycle_network":"ncn","id":116880371},"arcs":[118]},{"type":"LineString","properties":{"kind":"major_road","sort_rank":379,"kind_detail":"secondary","is_bicycle_related":true,"bicycle_shield_text":"4","bicycle_network":"ncn","source":"openstreetmap.org","min_zoom":8.0,"id":295087706},"arcs":[119]},{"type":"LineString","properties":{"kind":"path","sort_rank":354,"kind_detail":"cycleway","is_bicycle_related":true,"bicycle_shield_text":"4","bicycle_network":"ncn","source":"openstreetmap.org","min_zoom":8.0,"landuse_kind":"residential","id":363355346},"arcs":[120]},{"type":"LineString","properties":{"kind":"major_road","sort_rank":380,"kind_detail":"primary","is_bicycle_related":true,"cycleway":"lane","source":"openstreetmap.org","min_zoom":8.0,"ref":"16;28","id":238899919},"arcs":[121]},{"type":"LineString","properties":{"cycleway_right":"lane","sort_rank":380,"kind_detail":"primary","is_bicycle_related":true,"kind":"major_road","source":"openstreetmap.org","min_zoom":8.0,"ref":"15;28","id":16965905},"arcs":[122]},{"type":"MultiLineString","properties":{"kind":"path","sort_rank":354,"kind_detail":"pedestrian","is_bicycle_related":true,"bicycle_shield_text":"12","bicycle_network":"ncn","source":"openstreetmap.org","min_zoom":8.0},"arcs":[[123],[124]]},{"type":"MultiLineString","properties":{"kind":"major_road","sort_rank":377,"kind_detail":"tertiary","is_bicycle_related":true,"bicycle_shield_text":"4","bicycle_network":"ncn","source":"openstreetmap.org","min_zoom":8.0},"arcs":[[125],[126]]},{"type":"LineString","properties":{"kind":"minor_road","sort_rank":360,"kind_detail":"unclassified","is_bicycle_related":true,"bicycle_shield_text":"EV12","bicycle_network":"icn","source":"openstreetmap.org","min_zoom":8.0,"landuse_kind":"residential","id":404309156},"arcs":[127]},{"type":"MultiLineString","properties":{"source":"openstreetmap.org","kind":"major_road","sort_rank":380,"kind_detail":"primary","ref":"28","min_zoom":8.0},"arcs":[[128],[129],[130],[131],[132],[133],[134],[135],[136],[137],[138],[139],[140],[141],[142],[143]]},{"type":"LineString","properties":{"kind":"major_road","sort_rank":380,"kind_detail":"primary","is_bicycle_related":true,"bicycle_shield_text":"16","bicycle_network":"rcn","source":"openstreetmap.org","min_zoom":8.0,"ref":"28","id":363197898},"arcs":[144]},{"type":"LineString","properties":{"kind":"minor_road","service":"driveway","sort_rank":356,"kind_detail":"service","is_bicycle_related":true,"bicycle_shield_text":"EV12","bicycle_network":"icn","source":"openstreetmap.org","min_zoom":8.0,"id":77885144},"arcs":[145]},{"type":"LineString","properties":{"kind":"path","sort_rank":354,"kind_detail":"footway","is_bicycle_related":true,"bicycle_shield_text":"12","bicycle_network":"ncn","source":"openstreetmap.org","min_zoom":8.0,"id":309053326},"arcs":[146]},{"type":"LineString","properties":{"kind":"major_road","sort_rank":380,"kind_detail":"primary","is_bicycle_related":true,"cycleway":"lane","source":"openstreetmap.org","min_zoom":8.0,"ref":"15;28"},"arcs":[147]},{"type":"LineString","properties":{"kind":"minor_road","service":"parking_aisle","sort_rank":356,"kind_detail":"service","is_bicycle_related":true,"bicycle_shield_text":"EV12","bicycle_network":"icn","source":"openstreetmap.org","min_zoom":8.0,"id":144954007},"arcs":[148]},{"type":"LineString","properties":{"kind":"minor_road","sort_rank":360,"kind_detail":"residential","is_bicycle_related":true,"bicycle_shield_text":"4","bicycle_network":"ncn","source":"openstreetmap.org","min_zoom":8.0,"landuse_kind":"residential","id":69001772},"arcs":[149]},{"type":"LineString","properties":{"cycleway_right":"track","sort_rank":380,"kind_detail":"primary","is_bicycle_related":true,"kind":"major_road","source":"openstreetmap.org","min_zoom":8.0,"ref":"16"},"arcs":[150]},{"type":"MultiLineString","properties":{"kind":"path","sort_rank":354,"kind_detail":"cycleway","is_bicycle_related":true,"bicycle_shield_text":"4","bicycle_network":"ncn","source":"openstreetmap.org","min_zoom":8.0},"arcs":[[151],[152],[153],[154],[155],[156]]},{"type":"MultiLineString","properties":{"kind":"minor_road","sort_rank":360,"kind_detail":"residential","is_bicycle_related":true,"bicycle_shield_text":"12","bicycle_network":"ncn","source":"openstreetmap.org","min_zoom":8.0},"arcs":[[157],[158]]},{"type":"MultiLineString","properties":{"kind":"minor_road","sort_rank":360,"kind_detail":"residential","is_bicycle_related":true,"bicycle_shield_text":"EV12","bicycle_network":"icn","source":"openstreetmap.org","min_zoom":8.0,"landuse_kind":"residential"},"arcs":[[159],[160],[161],[162],[163],[164],[165]]},{"type":"LineString","properties":{"kind":"major_road","sort_rank":379,"kind_detail":"secondary","is_bicycle_related":true,"bicycle_shield_text":"EV12","cycleway":"track","source":"openstreetmap.org","min_zoom":8.0,"bicycle_network":"icn","ref":"181"},"arcs":[166]},{"type":"MultiLineString","properties":{"source":"openstreetmap.org","kind":"major_road","sort_rank":380,"kind_detail":"primary","ref":"15","min_zoom":8.0},"arcs":[[167],[168],[169],[170],[171],[172],[173],[174],[175],[176],[177],[178],[179],[180],[181],[182],[183],[184],[185],[186],[187],[188],[189],[190],[191]]},{"type":"MultiLineString","properties":{"kind":"path","sort_rank":354,"kind_detail":"cycleway","is_bicycle_related":true,"bicycle_shield_text":"12","bicycle_network":"ncn","source":"openstreetmap.org","min_zoom":8.0},"arcs":[[192],[193]]},{"type":"LineString","properties":{"cycleway_right":"lane","sort_rank":379,"kind_detail":"secondary","is_bicycle_related":true,"kind":"major_road","bicycle_shield_text":"EV12","bicycle_network":"icn","source":"openstreetmap.org","min_zoom":8.0,"ref":"181","id":27464959},"arcs":[194]},{"type":"LineString","properties":{"kind":"major_road","sort_rank":377,"kind_detail":"tertiary","is_bicycle_related":true,"bicycle_shield_text":"12","bicycle_network":"ncn","source":"openstreetmap.org","min_zoom":8.0},"arcs":[195]},{"type":"LineString","properties":{"cycleway_right":"lane","sort_rank":380,"kind_detail":"primary","is_bicycle_related":true,"kind":"major_road","source":"openstreetmap.org","min_zoom":8.0,"id":18497804},"arcs":[196]},{"type":"LineString","properties":{"cycleway_right":"track","sort_rank":379,"kind_detail":"secondary","is_bicycle_related":true,"kind":"major_road","bicycle_shield_text":"EV12","bicycle_network":"icn","source":"openstreetmap.org","min_zoom":8.0,"ref":"181","id":132523812},"arcs":[197]},{"type":"LineString","properties":{"kind":"major_road","sort_rank":380,"landuse_kind":"residential","source":"openstreetmap.org","min_zoom":8.0,"kind_detail":"primary","ref":"15","id":505743046},"arcs":[198]},{"type":"LineString","properties":{"kind":"major_road","sort_rank":379,"kind_detail":"secondary","is_bicycle_related":true,"bicycle_shield_text":"12","bicycle_network":"ncn","source":"openstreetmap.org","min_zoom":8.0,"ref":"565"},"arcs":[199]},{"type":"LineString","properties":{"kind":"path","sort_rank":354,"kind_detail":"path","is_bicycle_related":true,"bicycle_shield_text":"4","bicycle_network":"ncn","source":"openstreetmap.org","min_zoom":8.0,"id":75992033},"arcs":[200]},{"type":"LineString","properties":{"cycleway_right":"lane","sort_rank":380,"kind_detail":"primary","is_bicycle_related":true,"kind":"major_road","source":"openstreetmap.org","min_zoom":8.0,"landuse_kind":"residential","id":18497804},"arcs":[201]},{"type":"LineString","properties":{"kind":"major_road","sort_rank":377,"kind_detail":"tertiary","is_bicycle_related":true,"bicycle_shield_text":"EV12","cycleway":"lane","source":"openstreetmap.org","min_zoom":8.0,"bicycle_network":"icn"},"arcs":[202]},{"type":"MultiLineString","properties":{"kind":"minor_road","sort_rank":358,"kind_detail":"service","is_bicycle_related":true,"bicycle_shield_text":"EV12","bicycle_network":"icn","source":"openstreetmap.org","min_zoom":8.0},"arcs":[[203],[204],[205],[206]]},{"type":"MultiLineString","properties":{"kind":"path","sort_rank":354,"kind_detail":"track","is_bicycle_related":true,"bicycle_shield_text":"EV12","bicycle_network":"icn","source":"openstreetmap.org","min_zoom":8.0},"arcs":[[207],[208],[209]]},{"type":"LineString","properties":{"kind":"major_road","sort_rank":380,"kind_detail":"primary","is_bicycle_related":true,"cycleway":"track","source":"openstreetmap.org","min_zoom":8.0,"ref":"28"},"arcs":[210]}]},"earth":{"type":"GeometryCollection","geometries":[{"type":"MultiPolygon","properties":{"sort_rank":10,"source":"naturalearthdata.com","kind":"earth","min_zoom":0.0,"id":4767},"arcs":[[[211]]]}]},"landuse":{"type":"GeometryCollection","geometries":[{"type":"Polygon","properties":{"source":"openstreetmap.org","kind":"nature_reserve","area":70450704,"tier":2,"id":126717547,"min_zoom":8.0,"sort_rank":23},"arcs":[[212]]},{"type":"Polygon","properties":{"kind":"residential","name":"Ringk\u00f8bing","name:lt":"Ringkiobingas","area":16613200,"sort_rank":20,"source":"openstreetmap.org","min_zoom":8.0,"tier":2,"id":46102796},"arcs":[[213]]},{"type":"Polygon","properties":{"kind":"residential","area":12231100,"sort_rank":20,"source":"openstreetmap.org","min_zoom":8.0,"tier":2,"id":-6636881,"osm_relation":true},"arcs":[[214],[215]]}]}},"type":"Topology","transform":{"translate":[7.03125,55.7765730187],"scale":[0.0003433228,0.00019114]},"arcs":[[[2110,4096],[-23,-209],[20,-284],[-17,-532],[41,-696],[-74,-970],[47,-433],[95,-283],[91,-689]],[[3369,220],[-48,-16]],[[3362,236],[4,-3]],[[4096,62],[-67,35],[28,21],[-146,23],[-68,98],[-67,-115],[-69,-15],[-58,21],[-38,-22],[-84,81],[-46,-2],[8,68],[-71,37],[-72,-22]],[[3321,204],[16,-204]],[[3346,270],[16,-34]],[[3366,233],[3,-13]],[[4096,999],[-226,466],[-141,44],[-123,75],[-67,97],[112,186],[99,464],[71,624],[79,89],[196,54]],[[3664,5],[12,-5]],[[3664,5],[12,-5]],[[3689,4096],[54,0],[-3,-14],[-23,-13],[-26,21],[-2,6]],[[0,0],[0,4096],[3184,0],[-6,-41],[33,-1811],[-9,-123],[-70,-327],[-9,-118],[13,-380],[11,-63],[12,-54],[13,-28],[42,-14],[8,34],[-11,87],[18,119],[5,106],[-3,223],[27,44],[61,-8],[224,-103],[101,-73],[75,-120],[33,-188],[0,-162],[109,-143],[47,-80],[41,-89],[18,-90],[-16,-85],[-116,-124],[-114,-90],[-65,-24],[-140,-112],[-130,-75],[-25,15],[-10,72],[6,58],[29,72],[7,50],[-8,58],[-52,138],[-73,402],[-19,27],[-8,6],[-5,14],[-8,13],[-18,6],[-8,-11],[-3,-24],[3,-25],[8,-11],[15,-53],[134,-991],[-3351,0]],[[3351,0],[-134,991],[-15,53],[-8,11],[-3,25],[3,24],[8,11],[18,-6],[8,-13],[5,-14],[8,-6],[19,-27],[73,-402],[52,-138],[8,-58],[-7,-50],[-29,-72],[-6,-58],[10,-72],[25,-15],[130,75],[140,112],[65,24],[114,90],[116,124],[16,85],[-18,90],[-41,89],[-47,80],[-109,143],[0,162],[-33,188],[-75,120],[-101,73],[-224,103],[-61,8],[-27,-44],[3,-223],[-5,-106],[-18,-119],[11,-87],[-8,-34],[-42,14],[-13,28],[-12,54],[-11,63],[-13,380],[9,118],[70,327],[9,123],[-33,1811],[6,41]],[[3689,4096],[2,-6],[26,-21],[23,13],[3,14]],[[3635,1815],[-3,2]],[[3636,1825],[-4,-9]],[[3633,1816],[3,9]],[[3636,1825],[52,362]],[[3688,2187],[1,6]],[[3689,2193],[-1,-6]],[[3693,2203],[-4,-8]],[[3690,2195],[3,8]],[[3771,2624],[-78,-421]],[[3807,2689]],[[3690,2193],[0,2]],[[3690,2195],[-1,0],[-1,-2],[2,0]],[[4084,779],[12,5]],[[3505,1666],[-12,8]],[[3167,3922],[-1,-65]],[[3174,3112],[13,416],[25,60]],[[3860,1597],[-12,0]],[[3632,1816],[1,0]],[[3811,2692],[-4,-3]],[[3807,2689],[4,3]],[[4096,2828],[-285,-136]],[[3579,1724],[50,87]],[[3493,1674],[-50,5]],[[3507,1659],[-3,6]],[[3517,1640],[-5,9]],[[4009,746],[-19,18],[18,148]],[[3208,1799],[0,1]],[[3206,1799],[-42,-8]],[[3173,3773],[-7,80]],[[3182,3091],[3,-232]],[[3214,1100],[-17,40]],[[3303,383],[-4,43],[19,10]],[[3314,332],[-7,24]],[[3315,358],[2,5]],[[3329,243],[-13,90]],[[3488,91],[-139,130]],[[3520,68],[-10,10]],[[3711,4046],[0,-1],[1,1],[-1,0]],[[3577,1722],[-1,-1],[1,0],[1,1],[-1,0]],[[3215,1928],[24,83],[65,17],[20,41]],[[3290,2503],[-29,21]],[[3510,78],[-23,11]],[[3521,64],[0,2]],[[3219,1066]],[[3221,1050],[0,-2]],[[3150,1518],[-29,-12],[-5,-41],[29,-133]],[[3146,1303],[0,17]],[[3147,1588],[5,-48]],[[3177,1203],[-28,85]],[[3151,1529],[-1,-9]],[[3151,1636],[1,5]],[[3155,1595],[0,-2]],[[3200,4096],[-28,-113]],[[3207,2823],[-1,7]],[[3219,1070],[-1,5]],[[3224,1019],[2,16]],[[3261,796],[2,106]],[[3288,629],[-12,67],[22,34],[-36,45]],[[3305,483],[7,55]],[[3321,588],[-15,31]],[[3314,552],[-2,21]],[[3324,467],[4,-1]],[[3155,1689],[-2,-22]],[[3154,1709],[0,4]],[[3156,1718],[1,3]],[[3741,4046],[-8,2]],[[3708,4045],[-14,4]],[[3802,4086],[-1,0]],[[3164,1791]],[[3535,1626],[6,6]],[[3512,1649],[-5,10]],[[3166,3853],[6,130]],[[3212,3588],[-8,73],[31,38],[-29,66],[-33,8]],[[3174,3112],[1,0]],[[3177,1203],[19,-10]],[[3215,1928],[-10,-128]],[[3296,2659],[-89,-48],[29,-87],[25,0]],[[3265,2469],[25,34]],[[3147,1326],[-2,6]],[[3146,1303],[3,-15]],[[3155,1593],[-8,-5]],[[3150,1520],[0,-2]],[[3151,1636],[4,-41]],[[3151,1529],[1,11]],[[3152,1641],[1,24]],[[3154,1702]],[[3163,1792]],[[3163,1792],[1,0]],[[3175,3112],[7,-21]],[[3206,2830],[-21,29]],[[3196,1193],[1,0]],[[3198,1140],[-1,0]],[[3218,1075],[-4,25]],[[3219,1066],[0,4]],[[3221,1050],[-2,16]],[[3221,1048],[5,-13]],[[3224,1019],[36,-112]],[[3262,775],[-1,21]],[[3303,383],[14,-20]],[[3324,467],[-19,16]],[[3312,538],[2,14]],[[3321,588],[-9,-15]],[[3328,466],[-10,-30]],[[3487,89],[1,2]],[[3562,1612],[57,-67]],[[3736,1410],[-4,51]],[[3632,1533],[-13,12]],[[3803,2684],[-32,-60]],[[3844,1597],[2,0],[0,2],[-2,-1],[0,-1]],[[3722,4045],[-9,1]],[[3733,4048],[-9,-2]],[[3535,1626],[-18,14]],[[3877,1016],[47,-62]],[[3153,1667]],[[3632,1816],[119,-74],[93,-140]],[[3690,3666],[-11,-139],[150,-586],[-23,-250]],[[3712,3993],[-22,-313]],[[3806,2691],[1,-2]],[[3807,2689],[-1,2]],[[3844,1602],[0,-3]],[[3845,1599],[-1,3]],[[3859,1597],[2,-4]],[[3861,1593],[-1,4]],[[3861,1593],[62,-51],[35,-69]],[[3963,1462],[-5,11]],[[4040,1311],[-77,151]],[[4040,1311],[4,-7]],[[4048,1295],[-8,16]],[[4045,1302],[3,-7]],[[4096,1202],[-48,93]],[[4044,1304],[1,-2]],[[3307,356],[8,2]],[[3712,4046],[1,0]],[[3846,1597],[0,1]],[[3206,1800],[0,-1]],[[3562,1612],[-21,20]],[[3578,1722],[-1,0]],[[3208,1800],[-2,-1]],[[3443,1679],[-180,66],[-55,54]],[[3504,1665],[1,1]],[[3732,1461],[2,18],[-102,54]],[[3877,1016],[-141,202],[0,192]],[[4008,912],[-84,42]],[[3724,4046],[-2,-1]],[[3741,4046],[24,12]],[[3153,1667],[0,-2]],[[3154,1709],[0,-7]],[[3154,1702],[1,-13]],[[3154,1713],[2,5]],[[3157,1721],[5,71]],[[3162,1792],[1,0]],[[3163,1792],[-1,0]],[[3198,1140],[0,49]],[[3168,1793],[124,14],[173,-110]],[[3465,1697],[1,-1]],[[3467,1696],[-2,1]],[[3470,1698],[-2,-2]],[[3468,1696],[2,2]],[[3574,1723],[-104,-25]],[[3574,1723],[2,-1]],[[3576,1722],[-2,1]],[[3578,1721],[2,-1]],[[3580,1720],[-2,1]],[[3580,1720],[44,-27],[7,-48]],[[3631,1645],[3,-21]],[[3634,1624],[-3,21]],[[3635,1623],[3,0]],[[3638,1623],[-3,1]],[[3638,1623],[10,0]],[[3654,1623],[31,-1]],[[3702,1620],[-17,2]],[[3702,1620],[76,-13]],[[3778,1607],[9,-1]],[[3787,1606],[55,-8]],[[3844,1598],[-2,0]],[[3842,1598],[2,-1]],[[4096,1606],[-236,-9]],[[3468,1695],[-1,1],[-1,-1],[1,-1],[1,1]],[[3694,4049],[-12,47]],[[3765,4058],[37,28]],[[3198,1193],[-1,0],[1,-1],[1,1],[-1,0]],[[3711,4046],[-3,-1]],[[3634,1623]],[[3198,1189],[0,3]],[[3648,1623],[6,0]],[[4096,4091],[-152,-22],[-143,17],[-31,-32]],[[4009,746],[75,33]],[[3634,1623]],[[3514,0],[7,64]],[[3263,902],[-3,5]],[[3306,619],[-18,10]],[[3349,221],[-20,22]],[[3521,66],[-1,2]],[[3146,1320],[1,6]],[[3296,2659],[-36,113],[-39,-5],[-14,56]],[[3324,2069],[9,92],[-45,81],[25,175],[-17,42],[-31,10]],[[3690,3666],[0,14]],[[4096,4096],[0,-4096],[-745,0],[-134,991],[-15,53],[-8,11],[-3,25],[3,24],[8,11],[18,-6],[8,-13],[5,-14],[8,-6],[19,-27],[73,-402],[52,-138],[8,-58],[-7,-50],[-29,-72],[-6,-58],[10,-72],[25,-15],[130,75],[140,112],[65,24],[114,90],[116,124],[16,85],[-18,90],[-41,89],[-47,80],[-109,143],[0,162],[-33,188],[-75,120],[-101,73],[-224,103],[-61,8],[-27,-44],[3,-223],[-5,-106],[-18,-119],[11,-87],[-8,-34],[-42,14],[-13,28],[-12,54],[-11,63],[-13,380],[9,118],[70,327],[9,123],[-33,1811],[6,41],[505,0],[2,-6],[26,-21],[23,13],[3,14],[353,0]],[[3875,708],[92,14],[129,63],[0,-103],[-48,-27],[-75,31],[-41,-21],[5,25],[-62,18]],[[3502,1659],[43,2],[7,46],[52,-5],[-14,-26],[34,-4],[4,-22],[-36,-29],[61,2],[8,-23],[-29,-68],[-130,127]],[[3134,1685],[20,17],[-17,2],[1,82],[34,197],[16,-45],[-28,-132],[31,-130],[-39,-11],[-18,20]],[[3145,1792],[4,-2],[5,1],[-4,4],[-5,-3]]]}