{"objects":{"water":{"type":"GeometryCollection","geometries":[{"type":"MultiPolygon","properties":{"source":"naturalearthdata.com","kind":"ocean","area":1576712559132672,"sort_rank":200,"min_zoom":0.0,"id":1},"arcs":[[[16],[17],[18],[19]],[[20]]]},{"type":"LineString","properties":{"source":"naturalearthdata.com","kind":"ocean","sort_rank":205,"boundary":true,"min_zoom":0.0,"id":1173},"arcs":[21]},{"type":"LineString","properties":{"source":"naturalearthdata.com","kind":"ocean","sort_rank":205,"boundary":true,"min_zoom":0.0,"id":1174},"arcs":[22]},{"type":"MultiLineString","properties":{"source":"naturalearthdata.com","kind":"ocean","sort_rank":205,"boundary":true,"min_zoom":0.0,"id":1176},"arcs":[[23],[24],[25]]},{"type":"LineString","properties":{"source":"naturalearthdata.com","kind":"ocean","sort_rank":205,"boundary":true,"min_zoom":0.0,"id":3813},"arcs":[26]},{"type":"LineString","properties":{"source":"naturalearthdata.com","kind":"ocean","sort_rank":205,"boundary":true,"min_zoom":0.0,"id":3814},"arcs":[27]}]},"buildings":{"type":"GeometryCollection","geometries":[]},"places":{"type":"GeometryCollection","geometries":[]},"transit":{"type":"GeometryCollection","geometries":[{"type":"MultiLineString","properties":{"kind":"train","network":"DB InterCity","service":"long_distance","sort_rank":275,"source":"openstreetmap.org","min_zoom":5.0,"operator":"DB Fernverkehr AG","ref":"IC26","osm_relation":true,"name":"IC26 Westerland (Sylt) => Karlsruhe"},"arcs":[[2],[3]]},{"type":"MultiLineString","properties":{"source":"openstreetmap.org","kind":"train","name":"Regionalexpress 6: Hamburg => Westerland;KBS 130 Hamburg-Altona - Westerland","sort_rank":275,"ref":"RE6","min_zoom":6.0,"osm_relation":true},"arcs":[[4],[5],[6],[7]]},{"type":"MultiLineString","properties":{"source":"openstreetmap.org","kind":"train","name":"Regionalexpress 6: Westerland => Hamburg; KBS 130 Westerland - Hamburg-Altona","sort_rank":275,"ref":"RE6","min_zoom":6.0,"osm_relation":true},"arcs":[[8],[9],[10],[11]]},{"type":"MultiLineString","properties":{"kind":"train","network":"DB InterCity","service":"long_distance","sort_rank":275,"source":"openstreetmap.org","min_zoom":5.0,"operator":"DB Fernverkehr AG","ref":"IC30","osm_relation":true,"name":"IC 30: Westerland => Stuttgart"},"arcs":[[12],[13]]},{"type":"MultiLineString","properties":{"kind":"train","network":"DB InterCity","service":"long_distance","sort_rank":275,"source":"openstreetmap.org","min_zoom":5.0,"operator":"DB Fernverkehr AG","ref":"IC30","osm_relation":true,"name":"IC 30: Stuttgart => Westerland"},"arcs":[[14],[15]]}]},"pois":{"type":"GeometryCollection","geometries":[{"type":"Point","properties":{"source":"openstreetmap.org","kind":"nature_reserve","name":"Sylter Au\u00dfenriff \u2013 \u00d6stliche Deutsche Bucht","area":17501600000,"tier":2,"min_zoom":5.24,"id":528637959},"coordinates":[947,2921]}]},"boundaries":{"type":"GeometryCollection","geometries":[{"type":"LineString","properties":{"name:kg":"Alemanyi","name:ty":"Heremani","name:ka":"\u10d2\u10d4\u10e0\u10db\u10d0\u10dc\u10d8\u10d0","name:ko":"\ub3c5\uc77c","name:cv":"\u0413\u0435\u0440\u043c\u0430\u043d\u0438","name:cu":"\u041d\u0463\u043c\u044c\u0446\u0438","name:kl":"Tyskit Nunaat","name:cs":"N\u011bmecko","name:tw":"Gyaaman","name:ki":"Germany","name:co":"Germania","name:kv":"\u0413\u0435\u0440\u043c\u0430\u043d\u0438\u044f","name:th":"\u0e1b\u0e23\u0e30\u0e40\u0e17\u0e28\u0e40\u0e22\u0e2d\u0e23\u0e21\u0e19\u0e35","name:ti":"\u1300\u122d\u1218\u1295","name:tl":"Alemanya","name:ce":"\u0413\u0435\u0440\u043c\u0430\u043d\u0438","name:ta":"\u0b9a\u0bc6\u0bb0\u0bc1\u0bae\u0ba9\u0bbf","name:tg":"\u041e\u043b\u043c\u043e\u043d","name:ca":"Alemanya","name:te":"\u0c1c\u0c30\u0c4d\u0c2e\u0c28\u0c40","name:cy":"Yr Almaen","name:qu":"Alimanya","name:da":"Tyskland","name:dz":"\u0f47\u0f71\u0f62\u0f0b\u0f58\u0f0b\u0f53\u0f72","source":"openstreetmap.org","name:kn":"\u0c9c\u0cb0\u0ccd\u0cae\u0ca8\u0cbf","name:dv":"\u0796\u07a6\u0783\u07aa\u0789\u07a6\u0782\u07aa\u0788\u07a8\u078d\u07a7\u078c\u07b0","name:km":"\u17a2\u17b6\u179b\u17d2\u179b\u17ba\u1798\u17c9\u1784\u17cb","name:lv":"V\u0101cija","name:lt":"Vokietija","name:uz":"Olmoniya","name:kk":"\u0413\u0435\u0440\u043c\u0430\u043d\u0438\u044f \u0424\u0435\u0434\u0435\u0440\u0430\u0442\u0438\u0432\u0442\u0456\u043a \u0420\u0435\u0441\u043f\u0443\u0431\u043b\u0438\u043a\u0430\u0441\u044b","name:ur":"\u062c\u0631\u0645\u0646\u06cc","name:lb":"D\u00e4itschland","name:la":"Germania","name:lg":"Girimane","name:uk":"\u041d\u0456\u043c\u0435\u0447\u0447\u0438\u043d\u0430","name:ug":"\u06af\u06d0\u0631\u0645\u0627\u0646\u0649\u064a\u06d5","name:li":"Duutsjlandj","name:ln":"Al\u00e9mani","name:lo":"\u0e9b\u0eb0\u0ec0\u0e97\u0e94\u0ec0\u0ea2\u0eb1\u0ebd\u0ea5\u0eb0\u0ea1\u0eb1\u0e99","name:el":"\u0393\u03b5\u03c1\u03bc\u03b1\u03bd\u03af\u03b1","name:eo":"Germanujo","name:en":"Germany","name":"Deutschland","name:tk":"Germani\u00fda","name:ee":"Germany","name:ku":"Almanya","name:eu":"Alemania","name:et":"Saksamaa","name:es":"Alemania","name:ay":"Alima\u00f1a","name:rm":"Germania","name:rn":"Ubudagi","name:az":"Almaniya","name:ie":"Germania","name:id":"Jerman","name:ig":"J\u00e9man\u1ecb","name:ar":"\u0623\u0644\u0645\u0627\u0646\u064a\u0627","name:io":"Germania","name:av":"\u0410\u043b\u043c\u0430\u043d\u0438\u044f","name:ak":"Germany","name:am":"\u1300\u122d\u1218\u1295","name:it":"Germania","name:an":"Alemanya","name:ru":"\u0413\u0435\u0440\u043c\u0430\u043d\u0438\u044f","name:ab":"\u0410\u043b\u043c\u0430\u043d\u0442\u04d9\u044b\u043b\u0430","name:af":"Duitsland","name:zu":"IJalimani","kind_detail":"2","name:za":"Dwzgoz","name:zh-yue":"\u5fb7\u570b","name:zh":"\u5fb7\u56fd","name:so":"Jarmalka","name:sm":"Siamani","name:sl":"Nem\u010dija","name:sk":"Nemecko","name:ja":"\u30c9\u30a4\u30c4","name:si":"\u0da2\u0dbb\u0dca\u0db8\u0db1\u0dd2\u0dba","name:sh":"Nema\u010dka","name:se":"Duiska","name:sc":"Germ\u00e0nia","name:br":"Alamagn","name:bs":"Njema\u010dka","name:bm":"Jermani","name:bn":"\u099c\u09be\u09b0\u09cd\u09ae\u09be\u09a8\u09bf","name:bo":"\u0f60\u0f47\u0f62\u0f0b\u0f58\u0f53\u0f0d","name:bi":"Germany","name:sw":"Ujerumani","name:be":"\u0413\u0435\u0440\u043c\u0430\u043d\u0456\u044f","name:su":"J\u00e9rman","name:bg":"\u0413\u0435\u0440\u043c\u0430\u043d\u0438\u044f","name:ss":"IJalimane","name:ba":"\u0413\u0435\u0440\u043c\u0430\u043d\u0438\u044f","name:sq":"Gjermania","name:jv":"Jerman","name:sa":"\u091c\u0930\u094d\u092e\u0928\u0940","name:ia":"Germania","name:pt":"Alemanha","name:ps":"\u0622\u0644\u0645\u0627\u0646","name:oc":"Alemanha","min_zoom":8.0,"name:ro":"Germania","name:zh-min-nan":"Tek-kok","name:os":"\u0413\u0435\u0440\u043c\u0430\u043d","name:or":"\u0b1c\u0b30\u0b4d\u0b2e\u0b3e\u0b28\u0b40","name:pl":"Niemcy","sort_rank":262,"name:sr":"\u041d\u0435\u043c\u0430\u0447\u043a\u0430","osm_relation":true,"name:xh":"IJamani","name:pa":"\u0a1c\u0a30\u0a2e\u0a28\u0a40","name:tr":"Almanya","name:hi":"\u091c\u0930\u094d\u092e\u0928\u0940","name:sv":"Tyskland","name:he":"\u05d2\u05e8\u05de\u05e0\u05d9\u05d4","name:ha":"Jamus","name:hy":"\u0533\u0565\u0580\u0574\u0561\u0576\u056b\u0561","name:ht":"Almay","name:hu":"N\u00e9metorsz\u00e1g","name:hr":"Njema\u010dka","kind":"country","name:ts":"Jarimani","name:is":"\u00de\u00fdskaland","name:yi":"\u05d3\u05d9\u05d9\u05d8\u05e9\u05dc\u05d0\u05e0\u05d3","name:iu":"\u152e\u14aa\u14c2","name:yo":"J\u1eb9\u0301m\u00e1n\u00ec","name:mt":"\u0120ermanja","alt_name:eo":"Germanio","name:ms":"Jerman","name:mr":"\u091c\u0930\u094d\u092e\u0928\u0940","name:my":"\u1002\u103b\u102c\u1019\u1014\u102e\u1014\u102d\u102f\u1004\u103a\u1004\u1036","official_name":"Bundesrepublik Deutschland","name:kw":"Almayn","name:mg":"Alemaina","name:vi":"\u0110\u1ee9c","name:ml":"\u0d1c\u0d7c\u0d2e\u0d4d\u0d2e\u0d28\u0d3f","name:mn":"\u0413\u0435\u0440\u043c\u0430\u043d","name:mi":"Tiamana","id":-51477,"name:mk":"\u0413\u0435\u0440\u043c\u0430\u043d\u0438\u0458\u0430","name:vo":"Deut\u00e4n","name:fa":"\u0622\u0644\u0645\u0627\u0646","name:rw":"Ubudage","name:ff":"Almaanya","name:fi":"Saksa","name:ky":"\u0413\u0435\u0440\u043c\u0430\u043d\u0438\u044f","name:fo":"T\u00fdskland","name:fr":"Allemagne","name:fy":"D\u00fatsl\u00e2n","int_name":"Germany","name:nl":"Duitsland","name:nn":"Tyskland","name:no":"Tyskland","name:na":"Djermani","name:ne":"\u091c\u0930\u094d\u092e\u0928\u0940","name:wa":"Almagne","name:wo":"Almaa\u00f1","name:nv":"B\u00e9\u00e9sh Bich\u02bcahii Bik\u00e9yah","name:ga":"An Ghearm\u00e1in","name:gd":"A' Ghearmailt","name:gn":"Alema\u00f1a","name:gl":"Alema\u00f1a","maritime_boundary":true,"name:gv":"Yn Ghermaan","name:gu":"\u0a9c\u0ab0\u0acd\u0aae\u0aa8\u0ac0","name:tt":"\u0410\u043b\u043c\u0430\u043d\u0438\u044f"},"arcs":[0]},{"type":"LineString","properties":{"name:lv":"\u0160l\u0113sviga-Hol\u0161teina","name:ar":"\u0634\u0644\u0633\u0641\u064a\u063a \u0647\u0648\u0644\u0634\u062a\u0627\u064a\u0646","name:cs":"\u0160lesvicko-Hol\u0161t\u00fdnsko","kind":"region","min_zoom":8.0,"name:uk":"\u0428\u043b\u0435\u0437\u0432\u0456\u0433-\u0413\u043e\u043b\u044c\u0448\u0442\u0435\u0439\u043d","name:ru":"\u0428\u043b\u0435\u0437\u0432\u0438\u0433-\u0413\u043e\u043b\u044c\u0448\u0442\u0435\u0439\u043d","name:sk":"\u0160lezvicko-Hol\u0161tajnsko","name:pl":"Szlezwik-Holsztyn","id":-51529,"osm_relation":true,"name:vo":"Jlesvig\u00e4n-Holst\u00e4n","name:eo":"\u015clesvigo-Holstinio","name":"Schleswig-Holstein","sort_rank":256,"kind_detail":"4","name:sr":"\u0428\u043b\u0435\u0437\u0432\u0438\u0433-\u0425\u043e\u043b\u0448\u0442\u0430\u0458\u043d","source":"openstreetmap.org","maritime_boundary":true,"name:ca":"Slesvig-Holstein"},"arcs":[1]}]},"roads":{"type":"GeometryCollection","geometries":[{"type":"LineString","properties":{"kind":"ferry","name":"Schl\u00fcttsiel-Hooge-Langene\u00df-Amrum","sort_rank":355,"landuse_kind":"national_park","is_bicycle_related":true,"source":"openstreetmap.org","min_zoom":8.0,"id":132080296},"arcs":[28]},{"type":"MultiLineString","properties":{"source":"openstreetmap.org","kind":"ferry","name":"Wittd\u00fcn-H\u00f6rnum 45 min","sort_rank":355,"min_zoom":8.0,"osm_relation":true,"id":-919508},"arcs":[[29],[30]]},{"type":"MultiLineString","properties":{"sort_rank":355,"source":"openstreetmap.org","min_zoom":8.0,"name":"B\u00fcsum-Helgoland","kind":"ferry"},"arcs":[[31],[32],[33]]},{"type":"LineString","properties":{"source":"openstreetmap.org","kind":"ferry","name":"Dageb\u00fcll-Wittd\u00fcn","sort_rank":355,"is_bicycle_related":true,"min_zoom":8.0,"id":5733642},"arcs":[34]},{"type":"MultiLineString","properties":{"source":"openstreetmap.org","kind":"ferry","name":"H\u00f6rnum-Wittd\u00fcn-Hooge-Pellworm-Nordstrand","sort_rank":355,"is_bicycle_related":true,"min_zoom":8.0},"arcs":[[35],[36]]},{"type":"LineString","properties":{"source":"openstreetmap.org","kind":"ferry","name":"Helgoland-D\u00fcne","sort_rank":355,"min_zoom":8.0,"osm_relation":true,"id":-1109035},"arcs":[37]},{"type":"LineString","properties":{"kind":"ferry","name":"Wittd\u00fcn-Wyk","sort_rank":355,"landuse_kind":"national_park","is_bicycle_related":true,"source":"openstreetmap.org","min_zoom":8.0,"id":59576967},"arcs":[38]},{"type":"LineString","properties":{"kind":"ferry","name":"Wittd\u00fcn-H\u00f6rnum 45 min","sort_rank":355,"landuse_kind":"protected_area","source":"openstreetmap.org","min_zoom":8.0,"id":-919508,"osm_relation":true},"arcs":[39]},{"type":"LineString","properties":{"kind":"ferry","name":"F\u00e4hre Wittd\u00fcn-Wyk","sort_rank":355,"landuse_kind":"national_park","is_bicycle_related":true,"source":"openstreetmap.org","min_zoom":8.0,"id":-919505,"osm_relation":true},"arcs":[40]},{"type":"LineString","properties":{"kind":"ferry","name":"F\u00e4hre Dageb\u00fcll-Wittd\u00fcn","sort_rank":355,"is_bicycle_related":true,"source":"openstreetmap.org","min_zoom":8.0,"id":-919507,"osm_relation":true},"arcs":[41]},{"type":"LineString","properties":{"source":"openstreetmap.org","kind":"ferry","name":"Wittd\u00fcn-Wyk","sort_rank":355,"is_bicycle_related":true,"min_zoom":8.0,"id":59576967},"arcs":[42]},{"type":"LineString","properties":{"source":"openstreetmap.org","kind":"ferry","name":"Hooksiel-Helgoland","sort_rank":355,"landuse_kind":"nature_reserve","min_zoom":8.0,"id":499492283},"arcs":[43]},{"type":"LineString","properties":{"kind":"ferry","name":"F\u00e4hre Wittd\u00fcn-Wyk","sort_rank":355,"is_bicycle_related":true,"source":"openstreetmap.org","min_zoom":8.0,"id":-919505,"osm_relation":true},"arcs":[44]},{"type":"MultiLineString","properties":{"source":"openstreetmap.org","kind":"ferry","name":"H\u00f6rnum-Wittd\u00fcn-Hooge-Pellworm-Nordstrand","sort_rank":355,"landuse_kind":"national_park","is_bicycle_related":true,"min_zoom":8.0},"arcs":[[45],[46],[47],[48]]},{"type":"MultiLineString","properties":{"source":"openstreetmap.org","kind":"ferry","name":"helgoline","sort_rank":355,"min_zoom":8.0,"id":366126699},"arcs":[[49],[50]]},{"type":"LineString","properties":{"kind":"ferry","name":"F\u00e4hre Dageb\u00fcll-Wittd\u00fcn","sort_rank":355,"landuse_kind":"national_park","is_bicycle_related":true,"source":"openstreetmap.org","min_zoom":8.0,"id":-919507,"osm_relation":true},"arcs":[51]},{"type":"MultiLineString","properties":{"source":"openstreetmap.org","kind":"ferry","name":"Hooksiel-Helgoland","sort_rank":355,"min_zoom":8.0,"id":499492283},"arcs":[[52],[53]]},{"type":"LineString","properties":{"source":"openstreetmap.org","kind":"ferry","name":"D\u00fcnenf\u00e4hre","sort_rank":355,"min_zoom":8.0,"id":4469480},"arcs":[54]},{"type":"LineString","properties":{"source":"openstreetmap.org","kind":"ferry","name":"Cuxhaven-Helgoland","sort_rank":355,"landuse_kind":"nature_reserve","min_zoom":8.0,"id":130362686},"arcs":[55]},{"type":"MultiLineString","properties":{"kind":"ferry","name":"Wittd\u00fcn-H\u00f6rnum 45 min","sort_rank":355,"landuse_kind":"national_park","source":"openstreetmap.org","min_zoom":8.0,"id":-919508,"osm_relation":true},"arcs":[[56],[57]]},{"type":"LineString","properties":{"kind":"ferry","name":"Dageb\u00fcll-Wittd\u00fcn","sort_rank":355,"landuse_kind":"national_park","is_bicycle_related":true,"source":"openstreetmap.org","min_zoom":8.0,"id":5733642},"arcs":[58]},{"type":"MultiLineString","properties":{"source":"openstreetmap.org","kind":"ferry","name":"Cuxhaven-Helgoland","sort_rank":355,"min_zoom":8.0,"id":130362686},"arcs":[[59],[60]]},{"type":"MultiLineString","properties":{"source":"openstreetmap.org","kind":"ferry","name":"B\u00fcsum-Helgoland","sort_rank":355,"landuse_kind":"nature_reserve","min_zoom":8.0},"arcs":[[61],[62]]},{"type":"MultiLineString","properties":{"source":"openstreetmap.org","kind":"ferry","name":"H\u00f6rnum-Wittd\u00fcn-Hooge-Pellworm-Nordstrand","sort_rank":355,"landuse_kind":"protected_area","is_bicycle_related":true,"min_zoom":8.0},"arcs":[[63],[64]]},{"type":"LineString","properties":{"source":"openstreetmap.org","kind":"ferry","name":"helgoline","sort_rank":355,"landuse_kind":"nature_reserve","min_zoom":8.0,"id":366126699},"arcs":[65]},{"type":"MultiLineString","properties":{"source":"openstreetmap.org","kind":"ferry","name":"Bremerhaven-Helgoland","sort_rank":355,"min_zoom":8.0,"id":166985155},"arcs":[[66],[67]]},{"type":"LineString","properties":{"source":"openstreetmap.org","kind":"ferry","name":"Bremerhaven-Helgoland","sort_rank":355,"landuse_kind":"nature_reserve","min_zoom":8.0,"id":166985155},"arcs":[68]}]},"earth":{"type":"GeometryCollection","geometries":[{"type":"MultiPolygon","properties":{"sort_rank":10,"source":"naturalearthdata.com","min_zoom":0.0,"kind":"earth","area":2106098625},"arcs":[[[69]],[[70]],[[71]],[[72]],[[73]]]}]},"landuse":{"type":"GeometryCollection","geometries":[{"type":"Polygon","properties":{"kind":"protected_area","protect_class":"4","area":3963320064,"sort_rank":17,"source":"openstreetmap.org","min_zoom":4.0,"tier":2,"id":-4672257,"osm_relation":true},"arcs":[[74]]},{"type":"MultiPolygon","properties":{"kind":"national_park","protect_class":"2","area":12954699776,"sort_rank":18,"source":"openstreetmap.org","min_zoom":3.0,"tier":1,"id":-1237758,"osm_relation":true},"arcs":[[[75],[76]],[[77]],[[78]]]},{"type":"Polygon","properties":{"source":"openstreetmap.org","kind":"nature_reserve","area":17501599744,"tier":2,"id":528637959,"min_zoom":4.0,"sort_rank":23},"arcs":[[79]]},{"type":"MultiPolygon","properties":{"source":"openstreetmap.org","kind":"residential","tier":2,"area":28173652,"sort_rank":20,"min_zoom":8.0,"osm_relation":true},"arcs":[[[80],[81]]]},{"type":"MultiPolygon","properties":{"source":"naturalearthdata.com","kind":"urban_area","name":"","area":149005118,"sort_rank":11,"min_zoom":4.0},"arcs":[[[82]]]},{"type":"Polygon","properties":{"kind":"aerodrome","area":10040900,"sort_rank":60,"operator":"Flughafen Sylt GmbH","source":"openstreetmap.org","min_zoom":8.0,"tier":3,"id":93535175},"arcs":[[83]]},{"type":"MultiPolygon","properties":{"source":"openstreetmap.org","kind":"nature_reserve","tier":2,"protect_class":"4","area":37018321,"sort_rank":23,"min_zoom":8.0},"arcs":[[[84]],[[85]]]},{"type":"MultiPolygon","properties":{"kind":"nature_reserve","protect_class":"4","area":203315244,"sort_rank":23,"source":"openstreetmap.org","min_zoom":8.0,"tier":2,"osm_relation":true},"arcs":[[[86]],[[87]],[[88],[89],[90]],[[91],[92]]]},{"type":"MultiPolygon","properties":{"kind":"protected_area","protect_class":"4","area":592195008,"sort_rank":17,"source":"openstreetmap.org","min_zoom":6.0,"tier":2,"id":-4673859,"osm_relation":true},"arcs":[[[93]]]}]}},"type":"Topology","transform":{"translate":[7.03125,54.1624339681],"scale":[0.0003433228,0.0001990185]},"arcs":[[[2741,4096],[-66,-239],[-50,-980],[45,-471],[49,-199],[573,-1348],[-259,189],[-305,97],[-402,14],[-318,-85],[-272,-185],[-197,-264],[-101,-315],[2,-310]],[[2742,4096],[-46,-135],[-42,-289],[-34,-702],[58,-612],[69,-226],[545,-1273],[-259,189],[-305,97],[-402,14],[-318,-85],[-272,-185],[-197,-264],[-101,-315],[2,-310]],[[3725,3744],[249,-142],[122,-37]],[[3726,3743],[15,-13],[1,-1],[-1,1],[-15,12],[0,1]],[[4096,3565],[-122,37],[-19,10],[-100,65],[-52,19],[-57,30],[-5,4],[-15,12]],[[3892,3653],[11,-7]],[[3726,3743],[15,-13],[1,-1],[-1,1],[-15,12],[0,1]],[[4080,3567],[13,-2],[0,1],[-13,1]],[[4096,3565],[-122,37],[-119,75],[-52,19],[-57,30],[-5,4],[-15,12]],[[3889,3655],[12,-8]],[[3726,3743],[15,-13],[1,-1],[-1,1],[-15,12],[0,1]],[[4090,3565],[-13,2],[0,-1],[13,-1]],[[3725,3744],[249,-142],[122,-37]],[[3726,3743],[15,-13],[1,-1],[-1,1],[-15,12],[0,1]],[[4096,3565],[-122,37],[-249,142]],[[3726,3743],[15,-13],[1,-1],[-1,1],[-15,12],[0,1]],[[4096,2698],[0,-2698],[-4096,0],[0,4096],[3807,0],[-117,-327],[-28,-107],[-33,-545],[2,-132],[19,-71],[18,15],[15,69],[8,90],[-10,274],[8,20],[5,99],[7,37],[15,14],[88,61],[19,8],[28,1],[25,-12],[25,-44],[19,-9],[176,0],[0,-591],[-2,-1],[-66,-64],[-57,-105],[125,-78]],[[3935,2395],[-145,275],[29,38],[32,33],[8,6],[9,-1],[4,5],[-1,25],[-64,-24],[-52,-57],[-84,-159],[58,-79],[55,-101],[68,-62],[99,36],[40,34],[-56,31]],[[2617,165],[-51,-15],[16,-27],[46,15],[-11,27]],[[2532,142],[-17,20],[-43,-4],[17,-16],[13,-16],[10,-22],[12,-4],[4,-21],[14,11],[-10,52]],[[4096,4096],[0,-454],[-3,0],[-140,35],[-99,93],[17,178],[-25,93],[16,55],[234,0]],[[3790,2670],[29,38],[32,33],[8,6],[9,-1],[4,5],[-1,25],[-64,-24],[-52,-57],[-84,-159],[58,-79],[55,-101],[68,-62],[99,36],[40,34],[-56,31],[-145,275]],[[4096,2946],[-2,-1],[-66,-64],[-57,-105],[125,-78]],[[3871,3948],[-25,93],[16,55]],[[3807,4096],[-117,-327],[-28,-107],[-33,-545],[2,-132],[19,-71],[18,15],[15,69],[8,90],[-10,274],[8,20],[5,99],[7,37],[15,14],[88,61],[19,8],[28,1],[25,-12],[25,-44],[19,-9],[176,0]],[[4096,3642],[-3,0],[-140,35],[-99,93],[17,178]],[[2566,150],[16,-27],[46,15],[-11,27],[-51,-15]],[[2542,90],[-14,-11],[-4,21],[-12,4],[-10,22],[-13,16],[-17,16],[43,4],[17,-20],[10,-52]],[[3982,2345],[41,3],[73,-88]],[[3680,2989],[14,8]],[[4000,2343],[-7,1]],[[2546,51],[-40,36],[40,-34]],[[2600,0],[-3,3]],[[2606,0],[-3,2]],[[3978,2345],[-1,0]],[[3694,2998],[0,-1]],[[4000,2343],[-7,1]],[[2506,89],[35,24]],[[3977,2345],[53,4],[66,68]],[[3694,2997],[6,-15]],[[3977,2345],[53,4],[66,68]],[[3978,2345],[-1,0]],[[3977,2345]],[[2539,12],[-1,10]],[[3977,2345]],[[3700,2982],[15,-158],[-116,-268],[17,-151],[133,-213],[227,49],[47,99],[-23,3]],[[3982,2345],[37,21],[55,116],[-79,50],[-28,133],[-102,52],[23,44],[-14,62],[-140,89],[-34,73]],[[4096,2252],[-73,94],[-41,-1]],[[3993,2344],[-11,1]],[[2542,22],[-30,43]],[[2539,0],[3,19]],[[4096,2405],[-59,-58],[-59,-2]],[[2538,22],[-3,44],[-29,21]],[[2540,0],[-1,12]],[[2506,89],[35,24]],[[2541,17],[0,5]],[[3700,2982],[15,-158],[-116,-268],[17,-151],[133,-213],[227,49],[47,99],[-23,3]],[[3993,2344],[-11,1]],[[4096,2405],[-59,-58],[-59,-2]],[[2541,22],[-28,36]],[[2539,0],[2,17]],[[2597,3],[-51,48]],[[2603,2],[-57,51]],[[3694,2997],[6,-15]],[[3700,2985],[-6,13]],[[2542,19],[0,3]],[[2538,22],[-3,44],[-29,21]],[[2540,0],[-1,13]],[[2539,13],[-1,9]],[[2542,90],[-14,-11],[-4,21],[-12,4],[-10,22],[-13,16],[-17,16],[43,4],[17,-20],[10,-52]],[[2628,138],[-46,-15],[-16,27],[51,15],[11,-27]],[[3872,2751],[-4,-5],[-9,1],[-8,-6],[-32,-33],[-29,-38],[145,-275],[56,-31],[-40,-34],[-99,-36],[-68,62],[-55,101],[-58,79],[84,159],[52,57],[64,24],[1,-25]],[[4096,2698],[-125,78],[57,105],[66,64],[2,1],[0,-248]],[[4096,3642],[0,-105],[-176,0],[-19,9],[-25,44],[-25,12],[-28,-1],[-19,-8],[-88,-61],[-15,-14],[-7,-37],[-5,-99],[-8,-20],[10,-274],[-8,-90],[-15,-69],[-18,-15],[-19,71],[-2,132],[33,545],[28,107],[117,327],[55,0],[-16,-55],[25,-93],[-17,-178],[99,-93],[140,-35],[3,0]],[[3679,3142],[22,79],[-1,230],[23,45],[73,26],[17,79],[65,-20],[34,-76],[79,-60],[45,-7],[19,33],[41,6],[0,-529],[-86,-61],[-46,-138],[27,-49],[105,-39],[0,-1365],[-95,69],[-1,978],[-53,4],[-6,51],[-61,54],[-31,129],[-38,46],[13,65],[59,70],[-28,1],[-170,154],[21,186],[-21,1],[-6,38]],[[4096,2661],[0,-1744],[-156,314],[-373,886],[-334,0],[-300,-423],[-245,617],[-68,659],[31,662],[37,292],[58,172],[1071,0],[-139,-350],[-52,-783],[54,-49],[17,16],[9,173],[-21,1],[-6,38],[22,79],[-8,194],[26,79],[77,28],[17,79],[65,-20],[34,-76],[79,-60],[45,-7],[19,33],[41,6],[0,-529],[-86,-61],[-46,-138],[27,-49],[105,-39]],[[3668,2543],[39,-88],[172,-221],[102,27],[19,82],[-53,4],[-6,51],[-61,54],[-31,129],[-40,53],[70,133],[-63,-35],[-148,-189]],[[4096,4096],[0,-501],[-163,75],[-35,47],[-19,275],[-23,52],[27,52],[213,0]],[[3937,0],[36,90],[123,115],[0,-205],[-159,0]],[[2947,4096],[-13,-2406],[-704,-549],[-54,751],[-2176,0],[0,2204],[2947,0]],[[3687,3709],[38,114],[36,8],[-7,-106],[-33,20],[39,-31],[-25,-6],[-1,-28],[-36,2],[-11,27]],[[3725,3811],[8,-2],[17,8],[-17,6],[-8,-12]],[[3750,3653],[-40,18],[-11,86],[64,218],[42,-43],[14,-78],[-69,-201]],[[3764,3785],[19,-11],[9,40],[22,1],[2,-24],[36,8],[11,-83],[-67,5],[-32,64]],[[3707,2532],[52,103],[27,-44],[-15,-77],[36,-60],[-8,-36],[90,-67],[0,-34],[-35,3],[-43,48],[-104,164]],[[3685,3514],[25,100],[104,2],[-29,-97],[-80,-23],[-20,18]],[[2246,63],[39,235],[198,-158],[-44,-12],[64,-99],[39,-7],[-8,-22],[-164,0],[-124,63]],[[2324,382],[301,-76],[2,-306],[-86,8],[10,91],[31,-6],[6,45],[-50,-18],[-175,178],[-39,84]],[[3642,3099],[10,241],[24,0],[21,-117],[-35,-10],[18,-28],[-7,-60],[-31,-26]],[[3664,3254],[6,-19],[19,4],[-6,17],[-19,-2]],[[3662,3177],[0,-14],[12,0],[2,10],[-14,4]],[[3818,4096],[56,0],[-9,-17],[-73,-45],[26,62]],[[3850,4079],[9,0],[9,10],[-6,4],[-12,-14]],[[4096,4096],[0,-501],[-163,75],[-35,47],[-19,275],[-23,52],[27,52],[213,0]]]}