{"objects":{"water":{"type":"GeometryCollection","geometries":[{"type":"MultiPolygon","properties":{"source":"naturalearthdata.com","kind":"ocean","area":1576712559132672,"sort_rank":200,"min_zoom":0.0,"id":1},"arcs":[[[87],[88],[89],[90],[91],[92],[93]],[[94]]]},{"type":"MultiLineString","properties":{"source":"naturalearthdata.com","kind":"ocean","sort_rank":205,"boundary":true,"min_zoom":0.0,"id":19},"arcs":[[95],[96]]},{"type":"LineString","properties":{"source":"naturalearthdata.com","kind":"ocean","sort_rank":205,"boundary":true,"min_zoom":0.0,"id":1155},"arcs":[97]},{"type":"LineString","properties":{"source":"naturalearthdata.com","kind":"ocean","sort_rank":205,"boundary":true,"min_zoom":0.0,"id":1156},"arcs":[98]},{"type":"LineString","properties":{"source":"naturalearthdata.com","kind":"ocean","sort_rank":205,"boundary":true,"min_zoom":0.0,"id":1157},"arcs":[99]},{"type":"LineString","properties":{"source":"naturalearthdata.com","kind":"ocean","sort_rank":205,"boundary":true,"min_zoom":0.0,"id":1158},"arcs":[100]},{"type":"LineString","properties":{"source":"naturalearthdata.com","kind":"ocean","sort_rank":205,"boundary":true,"min_zoom":0.0,"id":1159},"arcs":[101]},{"type":"LineString","properties":{"source":"naturalearthdata.com","kind":"ocean","sort_rank":205,"boundary":true,"min_zoom":0.0,"id":1160},"arcs":[102]},{"type":"LineString","properties":{"source":"naturalearthdata.com","kind":"ocean","sort_rank":205,"boundary":true,"min_zoom":0.0,"id":1161},"arcs":[103]}]},"buildings":{"type":"GeometryCollection","geometries":[]},"places":{"type":"GeometryCollection","geometries":[{"type":"Point","properties":{"kind":"locality","name":"Wilhelmshaven","name:lt":"Vilhelmshafenas","kind_detail":"town","source":"openstreetmap.org","min_zoom":8.0,"name:la":"Portus Gulielmi","name:ru":"\u0412\u0438\u043b\u044c\u0433\u0435\u043b\u044c\u043c\u0441\u0445\u0430\u0444\u0435\u043d","population":75728,"id":240098830,"name:ja":"\u30f4\u30a3\u30eb\u30d8\u30eb\u30e0\u30b9\u30cf\u30fc\u30d5\u30a7\u30f3"},"coordinates":[3131,970]},{"type":"Point","properties":{"kind":"locality","name":"Emden","kind_detail":"town","source":"openstreetmap.org","min_zoom":8.0,"name:la":"Emda","name:ru":"\u042d\u043c\u0434\u0435\u043d","population":51528,"id":240126844,"name:ja":"\u30a8\u30e0\u30c7\u30f3"},"coordinates":[508,178]},{"type":"Point","properties":{"kind":"locality","name":"Aurich","name:lt":"Aurichas","kind_detail":"town","source":"openstreetmap.org","min_zoom":8.0,"name:la":"Auriacum","name:fy":"Auwerk","id":240072692,"population":40416},"coordinates":[1314,683]},{"type":"Point","properties":{"kind":"locality","name":"Norden","kind_detail":"town","source":"openstreetmap.org","min_zoom":8.0,"loc_name":"N\u00f6rden","id":29620400,"population":24887},"coordinates":[511,1297]},{"type":"Point","properties":{"kind":"locality","name":"Varel","kind_detail":"town","source":"openstreetmap.org","min_zoom":8.0,"name:ru":"\u0424\u0430\u0440\u0435\u043b\u044c","id":1599283046,"population":23554},"coordinates":[3221,320]},{"type":"Point","properties":{"kind":"locality","name":"Wittmund","kind_detail":"town","source":"openstreetmap.org","min_zoom":8.0,"name:la":"Witmundi","id":240111390,"population":20363},"coordinates":[2185,1224]},{"type":"Point","properties":{"source":"openstreetmap.org","kind":"locality","name":"Schortens","kind_detail":"town","population":20191,"min_zoom":8.0,"id":240034266},"coordinates":[2667,1014]},{"type":"Point","properties":{"kind":"locality","name":"Jever","kind_detail":"town","source":"openstreetmap.org","min_zoom":8.0,"name:la":"Geverae","name:ru":"\u0419\u0435\u0432\u0435\u0440","id":28782015,"population":13829},"coordinates":[2536,1196]},{"type":"Point","properties":{"source":"openstreetmap.org","kind":"locality","name":"Wiesmoor","kind_detail":"town","population":13005,"min_zoom":8.0,"id":681793760},"coordinates":[2038,397]},{"type":"Point","properties":{"source":"openstreetmap.org","kind":"locality","name":"Zetel","kind_detail":"town","population":11677,"min_zoom":8.0,"id":129988612},"coordinates":[2736,419]},{"type":"Point","properties":{"kind":"locality","name":"Esens","kind_detail":"town","source":"openstreetmap.org","min_zoom":8.0,"name:ru":"\u042d\u0437\u0435\u043d\u0441","id":28782006,"population":7221},"coordinates":[1691,1556]},{"type":"Point","properties":{"source":"openstreetmap.org","kind":"locality","name":"Norderney","kind_detail":"town","population":5875,"min_zoom":8.0,"id":2424700355},"coordinates":[328,1846]}]},"transit":{"type":"GeometryCollection","geometries":[{"type":"MultiLineString","properties":{"kind":"train","network":"DB InterCity","sort_rank":275,"colour":"#00BFFF","name":"IC35 Konstanz - Norddeich","source":"openstreetmap.org","min_zoom":6.0,"operator":"DB Fernverkehr AG","ref":"IC35","osm_relation":true,"colour_name":"dodgerblue"},"arcs":[[9],[10],[11],[12],[13]]},{"type":"MultiLineString","properties":{"kind":"train","network":"DB InterCity","service":"long_distance","sort_rank":275,"source":"openstreetmap.org","min_zoom":5.0,"operator":"DB Fernverkehr AG","ref":"IC 56","osm_relation":true,"name":"IC 56: Cottbus => Norddeich"},"arcs":[[14],[15],[16],[17],[18]]},{"type":"LineString","properties":{"kind":"train","name":"KBS 396 Emden - Au\u00dfenhafen","sort_rank":275,"source":"openstreetmap.org","min_zoom":6.0,"operator":"DB Regio","ref":"396","id":-374291,"osm_relation":true},"arcs":[19]},{"type":"LineString","properties":{"kind":"train","name":"Wangerooger Inselbahn","sort_rank":275,"source":"openstreetmap.org","min_zoom":6.0,"operator":"Deutsche Bahn AG","id":-1347541,"osm_relation":true},"arcs":[20]},{"type":"LineString","properties":{"kind":"train","name":"Museumseisenbahn K\u00fcstenbahn Ostfriesland","sort_rank":275,"source":"openstreetmap.org","min_zoom":6.0,"ref":"Museumseisenbahn K\u00fcstenbahn Ostfriesland","id":-5404289,"osm_relation":true},"arcs":[21]},{"type":"MultiLineString","properties":{"kind":"train","name":"RE15: M\u00fcnster => Emden","sort_rank":275,"source":"openstreetmap.org","min_zoom":6.0,"operator":"Westfalenbahn","ref":"RE15","osm_relation":true},"arcs":[[22],[23]]},{"type":"MultiLineString","properties":{"kind":"train","network":"DB InterCity","service":"long_distance","sort_rank":275,"source":"openstreetmap.org","min_zoom":5.0,"operator":"DB Fernverkehr AG","ref":"IC 56","osm_relation":true,"name":"IC 56: Norddeich => Cottbus"},"arcs":[[24],[25],[26],[27],[28]]},{"type":"MultiLineString","properties":{"kind":"train","name":"RE1: Hannover => Norddeich(Mole)","service":"regional","sort_rank":275,"source":"openstreetmap.org","min_zoom":6.0,"operator":"DB","ref":"RE1","osm_relation":true},"arcs":[[29],[30],[31],[32],[33],[34]]},{"type":"MultiLineString","properties":{"kind":"train","name":"RE1: Norddeich(Mole) => Hannover","service":"regional","sort_rank":275,"source":"openstreetmap.org","min_zoom":6.0,"operator":"DB Regio AG","ref":"RE1","osm_relation":true},"arcs":[[35],[36],[37],[38],[39],[40]]},{"type":"MultiLineString","properties":{"kind":"train","network":"DB InterCity","service":"long_distance","sort_rank":275,"source":"openstreetmap.org","min_zoom":5.0,"operator":"DB Fernverkehr AG","ref":"IC 56","osm_relation":true,"name":"IC 56: Leipzig => Norddeich"},"arcs":[[41],[42],[43],[44],[45]]},{"type":"LineString","properties":{"kind":"train","name":"Regionalbahn Emden Hbf - Emden Au\u00dfenhafen","sort_rank":275,"source":"openstreetmap.org","min_zoom":6.0,"operator":"Westfalenbahn","ref":"RE15","id":-79638,"osm_relation":true},"arcs":[46]},{"type":"MultiLineString","properties":{"kind":"train","name":"RE15: Emden => M\u00fcnster","sort_rank":275,"source":"openstreetmap.org","min_zoom":6.0,"operator":"Westfalenbahn","ref":"RE15","osm_relation":true},"arcs":[[47],[48]]},{"type":"LineString","properties":{"kind":"train","name":"RE19: Bremen \u2192 Wilhelmshaven","service":"regional","sort_rank":275,"source":"openstreetmap.org","min_zoom":6.0,"operator":"NordWestBahn","ref":"RE19","osm_relation":true},"arcs":[49]},{"type":"LineString","properties":{"source":"openstreetmap.org","kind":"train","name":"Inselbahn Langeoog","sort_rank":275,"min_zoom":6.0,"osm_relation":true,"id":-1335791},"arcs":[50]},{"type":"LineString","properties":{"kind":"train","name":"RE19: Wilhelmshaven \u2192 Bremen","service":"regional","sort_rank":275,"source":"openstreetmap.org","min_zoom":6.0,"operator":"NordWestBahn","ref":"RE19","osm_relation":true},"arcs":[51]},{"type":"MultiLineString","properties":{"kind":"train","name":"RE18: Wilhelmshaven => Osnabr\u00fcck","service":"regional","sort_rank":275,"source":"openstreetmap.org","min_zoom":6.0,"operator":"NordWestBahn","ref":"RE18","osm_relation":true},"arcs":[[52],[53],[54]]},{"type":"MultiLineString","properties":{"kind":"train","network":"DB InterCity","service":"long_distance","sort_rank":275,"source":"openstreetmap.org","min_zoom":5.0,"operator":"DB Fernverkehr AG","ref":"IC 56","osm_relation":true,"name":"IC 56: Norddeich Mole => Leipzig"},"arcs":[[55],[56],[57],[58],[59]]},{"type":"MultiLineString","properties":{"kind":"train","network":"DB InterCity","service":"long_distance","sort_rank":275,"source":"openstreetmap.org","min_zoom":5.0,"operator":"DB Fernverkehr AG","ref":"IC35","osm_relation":true,"name":"IC35 Norddeich - Konstanz"},"arcs":[[60],[61],[62],[63],[64]]},{"type":"MultiLineString","properties":{"kind":"train","network":"Wangerooger Inselbahn","sort_rank":275,"source":"openstreetmap.org","min_zoom":6.0,"operator":"DB AutoZug","ref":"10007 - 1543","osm_relation":true,"name":"Wangerooger Inselbahn - Linie in den Westen"},"arcs":[[65],[66],[67]]},{"type":"MultiLineString","properties":{"kind":"train","name":"RE18: Osnabr\u00fcck => Wilhelmshaven","service":"regional","sort_rank":275,"source":"openstreetmap.org","min_zoom":6.0,"operator":"NordWestBahn","ref":"RE18","osm_relation":true},"arcs":[[68],[69],[70]]},{"type":"MultiLineString","properties":{"kind":"train","name":"RB59: Esens => Wilhelmhaven","service":"regional","sort_rank":275,"source":"openstreetmap.org","min_zoom":6.0,"operator":"NordWestBahn","ref":"RB59","osm_relation":true},"arcs":[[71],[72],[73],[74],[75],[76],[77],[78],[79],[80],[81],[82],[83],[84],[85],[86]]}]},"pois":{"type":"GeometryCollection","geometries":[{"type":"Point","properties":{"kind":"national_park","protect_class":"2","area":2050580000,"source":"openstreetmap.org","min_zoom":5.29,"tier":1,"id":-157811,"osm_relation":true,"name":"Nationalpark Nieders\u00e4chsisches Wattenmeer"},"coordinates":[3915,2285]},{"type":"Point","properties":{"source":"openstreetmap.org","kind":"military","name":"Fliegerhorst Upjever","area":11618700,"tier":3,"min_zoom":8.0,"id":148936159},"coordinates":[2493,1011]},{"type":"Point","properties":{"source":"openstreetmap.org","kind":"military","name":"Marineartilleriearsenal Aurich-Tannenhausen","area":10635100,"tier":3,"min_zoom":8.0,"id":171827562},"coordinates":[1394,983]}]},"boundaries":{"type":"GeometryCollection","geometries":[{"type":"LineString","properties":{"name:kg":"Pays-Bas","name:ka":"\u10dc\u10d8\u10d3\u10d4\u10e0\u10da\u10d0\u10dc\u10d3\u10d8","name:ko":"\ub124\ub35c\ub780\ub4dc","name:cv":"\u041d\u0438\u0434\u0435\u0440\u043b\u0430\u043d\u0434\u0441\u0435\u043c","name:cu":"\u041d\u0438\u0434\u0454\u0440\u043b\u0430\u043d\u0434\ua651","name:kl":"Hollandi","name:cs":"Nizozemsko","name:tt":"\u041d\u0438\u0434\u0435\u0440\u043b\u0430\u043d\u0434\u043b\u0430\u0440","name:co":"Paesi Bassi","name:kv":"\u041d\u0438\u0434\u0435\u0440\u043b\u0430\u043d\u0434\u044a\u044f\u0441","name:ku":"Holenda","alt_name:cs":"Nizozem\u00ed","name:to":"Holani","name:tl":"Olanda","name:ce":"\u041d\u0438\u0434\u0435\u0440\u043b\u0430\u043d\u0434\u0430\u0448","name:ta":"\u0ba8\u0bc6\u0ba4\u0bb0\u0bcd\u0bb2\u0bbe\u0ba8\u0bcd\u0ba4\u0bc1","name:tg":"\u041d\u0438\u0434\u0435\u0440\u043b\u0430\u043d\u0434","name:ca":"Pa\u00efsos Baixos","name:te":"\u0c28\u0c46\u0c26\u0c30\u0c4d\u0c32\u0c3e\u0c02\u0c21\u0c4d","name:cy":"Yr Iseldiroedd","name:hr":"Nizozemska","name:da":"Holland","name:de":"Niederlande","name:dz":"\u0f53\u0f7a\u0f0b\u0f51\u0f62\u0f0b\u0f63\u0f7a\u0f53\u0f4c\u0f66\u0f72\u0f0b","source":"openstreetmap.org","name:kn":"\u0ca8\u0cc6\u0ca6\u0cb0\u0ccd\u200d\u0cb2\u0ccd\u0caf\u0cbe\u0c82\u0ca1\u0ccd\u0cb8\u0ccd","name:dv":"\u0782\u07ac\u078b\u07a6\u078d\u07ad\u0782\u07b0\u0791\u07aa","name:lv":"N\u012bderlande","name:lt":"Nyderlandai","name:uz":"Niderlandlar","name:kk":"\u041d\u0438\u0434\u0435\u0440\u043b\u0430\u043d\u0434","name:ur":"\u06c1\u0627\u0644\u06cc\u0646\u0688","name:lb":"Holland","name:la":"Nederlandia","name:uk":"\u041d\u0456\u0434\u0435\u0440\u043b\u0430\u043d\u0434\u0438","name:ug":"\u06af\u0648\u0644\u0644\u0627\u0646\u062f\u0649\u064a\u06d5","name:ln":"Holanda","name:el":"\u039a\u03ac\u03c4\u03c9 \u03a7\u03ce\u03c1\u03b5\u03c2","name:eo":"Nederlando","name:en":"The Netherlands","name":"Nederland","name:tk":"Niderlandlar","name:ee":"Netherlands","name:th":"\u0e1b\u0e23\u0e30\u0e40\u0e17\u0e28\u0e40\u0e19\u0e40\u0e18\u0e2d\u0e23\u0e4c\u0e41\u0e25\u0e19\u0e14\u0e4c","name:eu":"Herbehereak","name:et":"Holland","name:es":"Pa\u00edses Bajos","name:ay":"Aynacha Jach'a Markanaka","name:rm":"Pajais Bass","name:az":"Niderland","name:id":"Belanda","name:ar":"\u0647\u0648\u0644\u0646\u062f\u0627","name:io":"Nederlando","name:is":"Holland","name:am":"\u1206\u120b\u1295\u12f5","name:it":"Paesi Bassi","name:an":"Pa\u00edses Baixos","name:ru":"\u041d\u0438\u0434\u0435\u0440\u043b\u0430\u043d\u0434\u044b","name:rw":"Ubuholandi","name:zu":"Netherlands","kind_detail":"2","name:ky":"\u041d\u0438\u0434\u0435\u0440\u043b\u0430\u043d\u0434\u0442\u0430\u0440","name:zh-yue":"\u8377\u862d","old_name:cs":"Holandsko","name:zh":"\u8377\u862d","name:so":"Holland","name:sl":"Nizozemska","name:sk":"Holandsko","name:ja":"\u30aa\u30e9\u30f3\u30c0","name:si":"\u0db1\u0dd9\u0daf\u0dbb\u0dca\u0dbd\u0db1\u0dca\u0dad\u0dba","name:sh":"Holandija","name:se":"Vuolleeatnamat","name:sc":"Logos Bascios","name:sa":"\u0928\u0947\u0926\u0930\u0932\u0948\u0902\u0921\u094d\u0938","name:bs":"Holandija","name:bn":"\u09a8\u09c7\u09a6\u09be\u09b0\u09b2\u09cd\u09af\u09be\u09a8\u09cd\u09a1\u09b8","name:bo":"\u0f67\u0f7c\u0f0b\u0f63\u0f53\u0f0d","name:bi":"Netherlands","name:sw":"Uholanzi","name:be":"\u041d\u0456\u0434\u044d\u0440\u043b\u0430\u043d\u0434\u044b","name:su":"Walanda","name:bg":"\u041d\u0438\u0434\u0435\u0440\u043b\u0430\u043d\u0434\u0438\u044f","name:ss":"IDashi","name:ba":"\u041d\u0438\u0434\u0435\u0440\u043b\u0430\u043d\u0434\u0442\u0430\u0440","name:sq":"Holanda","name:jv":"Walanda","name:br":"Izelvroio\u00f9","name:ia":"Pais Basse","name:pt":"Pa\u00edses Baixos","name:ps":"\u0647\u0627\u0644\u0646\u0689","name:oc":"Pa\u00efses Basses","min_zoom":8.0,"name:ro":"\u021a\u0103rile de Jos","name:zh-min-nan":"H\u00f4-l\u00e2n-kok","name:os":"\u041d\u0438\u0434\u0435\u0440\u043b\u0430\u043d\u0434\u0442\u00e6","name:pl":"Kr\u00f3lestwo Niderland\u00f3w","name:st":"H\u00f4lan\u00ea","sort_rank":262,"name:sr":"\u0425\u043e\u043b\u0430\u043d\u0434\u0438\u0458\u0430","osm_relation":true,"name:xh":"ENetherlands","name:pa":"\u0a28\u0a40\u0a26\u0a30\u0a32\u0a48\u0a02\u0a21","name:tr":"Hollanda","name:hi":"\u0928\u0940\u0926\u0930\u0932\u0948\u0923\u094d\u0921","name:sv":"Nederl\u00e4nderna","name:he":"\u05d4\u05d5\u05dc\u05e0\u05d3","name:hy":"\u0546\u056b\u0564\u0565\u0580\u056c\u0561\u0576\u0564\u0576\u0565\u0580","name:ht":"Peyiba","name:hu":"Hollandia","name:qu":"Urasuyu","kind":"country","name:yi":"\u05d4\u05d0\u05dc\u05d0\u05e0\u05d3","name:yo":"N\u1eb9\u0301d\u00e1l\u00e1nd\u00ec","name:mt":"Pajji\u017ci l-Baxxi","name:ms":"Belanda","name:mr":"\u0928\u0947\u0926\u0930\u0932\u0901\u0921\u094d\u0938","name:my":"\u1014\u101a\u103a\u101e\u102c\u101c\u1014\u103a\u1014\u102d\u102f\u1004\u103a\u1004\u1036","official_name":"Koninkrijk der Nederlanden","name:kw":"Iseldiryow","name:ml":"\u0d28\u0d46\u0d24\u0d7c\u0d32\u0d28\u0d4d\u0d31\u0d4d\u0d38\u0d4d","name:vi":"H\u00e0 Lan","name:mn":"\u041d\u0438\u0434\u0435\u0440\u043b\u0430\u043d\u0434","name:mi":"H\u014drana","id":-2323309,"name:mk":"\u0425\u043e\u043b\u0430\u043d\u0434\u0438\u0458\u0430","name:vo":"Ned\u00e4n","name:fa":"\u0647\u0644\u0646\u062f","name:ff":"Holannda","name:fi":"Alankomaat","name:fo":"Ni\u00f0urlond","name:fr":"Pays-Bas","name:fy":"Nederl\u00e2n","name:na":"Eben Eyong","name:ne":"\u0928\u0947\u0926\u0930\u0932\u094d\u092f\u093e\u0923\u094d\u0921\u094d\u0938","name:wa":"Bas Payis","name:wo":"Olaand","name:nv":"K\u00e9yah W\u00f3yahgo Si\u02bc\u00e1n\u00edg\u00ed\u00ed","name:ga":"An \u00cdsilt\u00edr","name:gd":"Na T\u00ecrean \u00ccsle","name:gn":"Holanda","name:gl":"Pa\u00edses Baixos","name:gv":"Yn \u00c7heer Injil","name:gu":"\u0aa8\u0ac7\u0aa7\u0ab0\u0ab2\u0ac7\u0a82\u0aa1"},"arcs":[0]},{"type":"LineString","properties":{"name:kg":"Alemanyi","name:ty":"Heremani","name:ka":"\u10d2\u10d4\u10e0\u10db\u10d0\u10dc\u10d8\u10d0","name:ko":"\ub3c5\uc77c","name:cv":"\u0413\u0435\u0440\u043c\u0430\u043d\u0438","name:cu":"\u041d\u0463\u043c\u044c\u0446\u0438","name:kl":"Tyskit Nunaat","name:cs":"N\u011bmecko","name:tw":"Gyaaman","name:ki":"Germany","name:co":"Germania","name:kv":"\u0413\u0435\u0440\u043c\u0430\u043d\u0438\u044f","name:th":"\u0e1b\u0e23\u0e30\u0e40\u0e17\u0e28\u0e40\u0e22\u0e2d\u0e23\u0e21\u0e19\u0e35","name:ti":"\u1300\u122d\u1218\u1295","name:tl":"Alemanya","name:ce":"\u0413\u0435\u0440\u043c\u0430\u043d\u0438","name:ta":"\u0b9a\u0bc6\u0bb0\u0bc1\u0bae\u0ba9\u0bbf","name:tg":"\u041e\u043b\u043c\u043e\u043d","name:ca":"Alemanya","name:te":"\u0c1c\u0c30\u0c4d\u0c2e\u0c28\u0c40","name:cy":"Yr Almaen","name:qu":"Alimanya","name:da":"Tyskland","name:dz":"\u0f47\u0f71\u0f62\u0f0b\u0f58\u0f0b\u0f53\u0f72","source":"openstreetmap.org","name:kn":"\u0c9c\u0cb0\u0ccd\u0cae\u0ca8\u0cbf","name:dv":"\u0796\u07a6\u0783\u07aa\u0789\u07a6\u0782\u07aa\u0788\u07a8\u078d\u07a7\u078c\u07b0","name:km":"\u17a2\u17b6\u179b\u17d2\u179b\u17ba\u1798\u17c9\u1784\u17cb","name:lv":"V\u0101cija","name:lt":"Vokietija","name:uz":"Olmoniya","name:kk":"\u0413\u0435\u0440\u043c\u0430\u043d\u0438\u044f \u0424\u0435\u0434\u0435\u0440\u0430\u0442\u0438\u0432\u0442\u0456\u043a \u0420\u0435\u0441\u043f\u0443\u0431\u043b\u0438\u043a\u0430\u0441\u044b","name:ur":"\u062c\u0631\u0645\u0646\u06cc","name:lb":"D\u00e4itschland","name:la":"Germania","name:lg":"Girimane","name:uk":"\u041d\u0456\u043c\u0435\u0447\u0447\u0438\u043d\u0430","name:ug":"\u06af\u06d0\u0631\u0645\u0627\u0646\u0649\u064a\u06d5","name:li":"Duutsjlandj","name:ln":"Al\u00e9mani","name:lo":"\u0e9b\u0eb0\u0ec0\u0e97\u0e94\u0ec0\u0ea2\u0eb1\u0ebd\u0ea5\u0eb0\u0ea1\u0eb1\u0e99","name:el":"\u0393\u03b5\u03c1\u03bc\u03b1\u03bd\u03af\u03b1","name:eo":"Germanujo","name:en":"Germany","name":"Deutschland","name:tk":"Germani\u00fda","name:ee":"Germany","name:ku":"Almanya","name:eu":"Alemania","name:et":"Saksamaa","name:es":"Alemania","name:ay":"Alima\u00f1a","name:rm":"Germania","name:rn":"Ubudagi","name:az":"Almaniya","name:ie":"Germania","name:id":"Jerman","name:ig":"J\u00e9man\u1ecb","name:ar":"\u0623\u0644\u0645\u0627\u0646\u064a\u0627","name:io":"Germania","name:av":"\u0410\u043b\u043c\u0430\u043d\u0438\u044f","name:ak":"Germany","name:am":"\u1300\u122d\u1218\u1295","name:it":"Germania","name:an":"Alemanya","name:ru":"\u0413\u0435\u0440\u043c\u0430\u043d\u0438\u044f","name:ab":"\u0410\u043b\u043c\u0430\u043d\u0442\u04d9\u044b\u043b\u0430","name:af":"Duitsland","name:zu":"IJalimani","kind_detail":"2","name:za":"Dwzgoz","name:zh-yue":"\u5fb7\u570b","name:zh":"\u5fb7\u56fd","name:so":"Jarmalka","name:sm":"Siamani","name:sl":"Nem\u010dija","name:sk":"Nemecko","name:ja":"\u30c9\u30a4\u30c4","name:si":"\u0da2\u0dbb\u0dca\u0db8\u0db1\u0dd2\u0dba","name:sh":"Nema\u010dka","name:se":"Duiska","name:sc":"Germ\u00e0nia","name:br":"Alamagn","name:bs":"Njema\u010dka","name:bm":"Jermani","name:bn":"\u099c\u09be\u09b0\u09cd\u09ae\u09be\u09a8\u09bf","name:bo":"\u0f60\u0f47\u0f62\u0f0b\u0f58\u0f53\u0f0d","name:bi":"Germany","name:sw":"Ujerumani","name:be":"\u0413\u0435\u0440\u043c\u0430\u043d\u0456\u044f","name:su":"J\u00e9rman","name:bg":"\u0413\u0435\u0440\u043c\u0430\u043d\u0438\u044f","name:ss":"IJalimane","name:ba":"\u0413\u0435\u0440\u043c\u0430\u043d\u0438\u044f","name:sq":"Gjermania","name:jv":"Jerman","name:sa":"\u091c\u0930\u094d\u092e\u0928\u0940","name:ia":"Germania","name:pt":"Alemanha","name:ps":"\u0622\u0644\u0645\u0627\u0646","name:oc":"Alemanha","min_zoom":8.0,"name:ro":"Germania","name:zh-min-nan":"Tek-kok","name:os":"\u0413\u0435\u0440\u043c\u0430\u043d","name:or":"\u0b1c\u0b30\u0b4d\u0b2e\u0b3e\u0b28\u0b40","name:pl":"Niemcy","sort_rank":262,"name:sr":"\u041d\u0435\u043c\u0430\u0447\u043a\u0430","osm_relation":true,"name:xh":"IJamani","name:pa":"\u0a1c\u0a30\u0a2e\u0a28\u0a40","name:tr":"Almanya","name:hi":"\u091c\u0930\u094d\u092e\u0928\u0940","name:sv":"Tyskland","name:he":"\u05d2\u05e8\u05de\u05e0\u05d9\u05d4","name:ha":"Jamus","name:hy":"\u0533\u0565\u0580\u0574\u0561\u0576\u056b\u0561","name:ht":"Almay","name:hu":"N\u00e9metorsz\u00e1g","name:hr":"Njema\u010dka","kind":"country","name:ts":"Jarimani","name:is":"\u00de\u00fdskaland","name:yi":"\u05d3\u05d9\u05d9\u05d8\u05e9\u05dc\u05d0\u05e0\u05d3","name:iu":"\u152e\u14aa\u14c2","name:yo":"J\u1eb9\u0301m\u00e1n\u00ec","name:mt":"\u0120ermanja","alt_name:eo":"Germanio","name:ms":"Jerman","name:mr":"\u091c\u0930\u094d\u092e\u0928\u0940","name:my":"\u1002\u103b\u102c\u1019\u1014\u102e\u1014\u102d\u102f\u1004\u103a\u1004\u1036","official_name":"Bundesrepublik Deutschland","name:kw":"Almayn","name:mg":"Alemaina","name:vi":"\u0110\u1ee9c","name:ml":"\u0d1c\u0d7c\u0d2e\u0d4d\u0d2e\u0d28\u0d3f","name:mn":"\u0413\u0435\u0440\u043c\u0430\u043d","name:mi":"Tiamana","id":-51477,"name:mk":"\u0413\u0435\u0440\u043c\u0430\u043d\u0438\u0458\u0430","name:vo":"Deut\u00e4n","name:fa":"\u0622\u0644\u0645\u0627\u0646","name:rw":"Ubudage","name:ff":"Almaanya","name:fi":"Saksa","name:ky":"\u0413\u0435\u0440\u043c\u0430\u043d\u0438\u044f","name:fo":"T\u00fdskland","name:fr":"Allemagne","name:fy":"D\u00fatsl\u00e2n","int_name":"Germany","name:nl":"Duitsland","name:nn":"Tyskland","name:no":"Tyskland","name:na":"Djermani","name:ne":"\u091c\u0930\u094d\u092e\u0928\u0940","name:wa":"Almagne","name:wo":"Almaa\u00f1","name:nv":"B\u00e9\u00e9sh Bich\u02bcahii Bik\u00e9yah","name:ga":"An Ghearm\u00e1in","name:gd":"A' Ghearmailt","name:gn":"Alema\u00f1a","name:gl":"Alema\u00f1a","maritime_boundary":true,"name:gv":"Yn Ghermaan","name:gu":"\u0a9c\u0ab0\u0acd\u0aae\u0aa8\u0ac0","name:tt":"\u0410\u043b\u043c\u0430\u043d\u0438\u044f"},"arcs":[1]},{"type":"MultiLineString","properties":{"name:right:nl":"Nedersaksen","name:right:fr":"Basse-Saxe","name:right:la":"Saxonia Inferior","name:right:uk":"\u041d\u0438\u0436\u043d\u044f \u0421\u0430\u043a\u0441\u043e\u043d\u0456\u044f","name:right:hr":"Donja Saska","name:right:sr":"\u0414\u043e\u045a\u0430 \u0421\u0430\u043a\u0441\u043e\u043d\u0438\u0458\u0430","name:right:ia":"Basse Saxonia","name:right:hu":"Als\u00f3-Sz\u00e1szorsz\u00e1g","name:right:fy":"Nedersaksen","name:right:lt":"\u017demutin\u0117 Saksonija","min_zoom":8.0,"name:right:pl":"Dolna Saksonia","name:right:sl":"Spodnja Sa\u0161ka","name:left:lv":"Hamburga","id":-62782,"name:right":"Niedersachsen","name:left:eo":"Hamburgo","name:right:ca":"Baixa Sax\u00f2nia","kind_detail":"4","name:left:zh":"\u6c49\u5821","source":"openstreetmap.org","name:right:ar":"\u0633\u0643\u0633\u0648\u0646\u064a\u0627 \u0627\u0644\u0633\u0641\u0644\u0649","id:left":-62782,"name:right:cs":"Doln\u00ed Sasko","id:right":-62771,"name:left":"Hamburg","name:right:es":"Baja Sajonia","name:right:pt":"Baixa Sax\u00f3nia","name:left:ar":"\u0647\u0627\u0645\u0628\u0648\u0631\u063a","name:right:vo":"Dona-Sax\u00e4n","name:right:ru":"\u041d\u0438\u0436\u043d\u044f\u044f \u0421\u0430\u043a\u0441\u043e\u043d\u0438\u044f","name:right:io":"Infra-Saxonia","name:left:ru":"\u0413\u0430\u043c\u0431\u0443\u0440\u0433","name:left:sr":"\u0425\u0430\u043c\u0431\u0443\u0440\u0433","name:right:eo":"Malsupra Saksujo","name:right:en":"Lower Saxony","osm_relation":true,"name:left:uk":"\u0413\u0430\u043c\u0431\u0443\u0440\u0491","kind":"region","name":"Hamburg - Niedersachsen","name:right:lv":"Lejassaksija","name:right:sk":"Doln\u00e9 Sasko","sort_rank":256,"maritime_boundary":true,"name:left:fr":"Hambourg","name:right:zh":"\u4e0b\u8428\u514b\u68ee","official_name:left":"Freie und Hansestadt Hamburg"},"arcs":[[2],[3]]},{"type":"LineString","properties":{"name:right:uk":"\u0428\u043b\u0435\u0437\u0432\u0456\u0433-\u0413\u043e\u043b\u044c\u0448\u0442\u0435\u0439\u043d","name:right:sr":"\u0428\u043b\u0435\u0437\u0432\u0438\u0433-\u0425\u043e\u043b\u0448\u0442\u0430\u0458\u043d","name:left:sr":"\u0425\u0430\u043c\u0431\u0443\u0440\u0433","name:left:uk":"\u0413\u0430\u043c\u0431\u0443\u0440\u0491","min_zoom":8.0,"name:left:lv":"Hamburga","id":-62782,"name:right":"Schleswig-Holstein","name:left:eo":"Hamburgo","sort_rank":256,"name:right:pl":"Szlezwik-Holsztyn","name:left:zh":"\u6c49\u5821","name:right:sk":"\u0160lezvicko-Hol\u0161tajnsko","source":"openstreetmap.org","name:right:ar":"\u0634\u0644\u0633\u0641\u064a\u063a \u0647\u0648\u0644\u0634\u062a\u0627\u064a\u0646","id:left":-62782,"name:right:cs":"\u0160lesvicko-Hol\u0161t\u00fdnsko","name:left":"Hamburg","name:left:ar":"\u0647\u0627\u0645\u0628\u0648\u0631\u063a","name:right:vo":"Jlesvig\u00e4n-Holst\u00e4n","name:right:ru":"\u0428\u043b\u0435\u0437\u0432\u0438\u0433-\u0413\u043e\u043b\u044c\u0448\u0442\u0435\u0439\u043d","name:left:ru":"\u0413\u0430\u043c\u0431\u0443\u0440\u0433","id:right":-51529,"name:right:eo":"\u015clesvigo-Holstinio","osm_relation":true,"kind":"region","name":"Hamburg - Schleswig-Holstein","name:right:lv":"\u0160l\u0113sviga-Hol\u0161teina","name:right:ca":"Slesvig-Holstein","maritime_boundary":true,"name:left:fr":"Hambourg","kind_detail":"4","official_name:left":"Freie und Hansestadt Hamburg"},"arcs":[4]},{"type":"MultiLineString","properties":{"name:left:la":"Saxonia Inferior","name:left:lv":"Lejassaksija","name:right:uk":"\u0428\u043b\u0435\u0437\u0432\u0456\u0433-\u0413\u043e\u043b\u044c\u0448\u0442\u0435\u0439\u043d","name:right:sr":"\u0428\u043b\u0435\u0437\u0432\u0438\u0433-\u0425\u043e\u043b\u0448\u0442\u0430\u0458\u043d","id:right":-51529,"name:left:uk":"\u041d\u0438\u0436\u043d\u044f \u0421\u0430\u043a\u0441\u043e\u043d\u0456\u044f","name:left:sl":"Spodnja Sa\u0161ka","min_zoom":8.0,"name:left:lt":"\u017demutin\u0117 Saksonija","name:left:sk":"Doln\u00e9 Sasko","name:left:hu":"Als\u00f3-Sz\u00e1szorsz\u00e1g","id":-62771,"name:left:hr":"Donja Saska","name:right":"Schleswig-Holstein","name:left:eo":"Malsupra Saksujo","name:left:en":"Lower Saxony","name:right:ca":"Slesvig-Holstein","kind_detail":"4","name:left:ca":"Baixa Sax\u00f2nia","name:left:zh":"\u4e0b\u8428\u514b\u68ee","source":"openstreetmap.org","name:right:ar":"\u0634\u0644\u0633\u0641\u064a\u063a \u0647\u0648\u0644\u0634\u062a\u0627\u064a\u0646","name:left:nl":"Nedersaksen","id:left":-62771,"name:left:es":"Baja Sajonia","name:right:cs":"\u0160lesvicko-Hol\u0161t\u00fdnsko","name:left:cs":"Doln\u00ed Sasko","name:left":"Niedersachsen","name:left:io":"Infra-Saxonia","name:left:ar":"\u0633\u0643\u0633\u0648\u0646\u064a\u0627 \u0627\u0644\u0633\u0641\u0644\u0649","name:right:pl":"Szlezwik-Holsztyn","name:left:pl":"Dolna Saksonia","name:right:vo":"Jlesvig\u00e4n-Holst\u00e4n","name:left:ia":"Basse Saxonia","name:right:ru":"\u0428\u043b\u0435\u0437\u0432\u0438\u0433-\u0413\u043e\u043b\u044c\u0448\u0442\u0435\u0439\u043d","name:left:pt":"Baixa Sax\u00f3nia","name:left:ru":"\u041d\u0438\u0436\u043d\u044f\u044f \u0421\u0430\u043a\u0441\u043e\u043d\u0438\u044f","name:left:vo":"Dona-Sax\u00e4n","name:left:sr":"\u0414\u043e\u045a\u0430 \u0421\u0430\u043a\u0441\u043e\u043d\u0438\u0458\u0430","name:right:eo":"\u015clesvigo-Holstinio","osm_relation":true,"kind":"region","name":"Niedersachsen - Schleswig-Holstein","name:right:lv":"\u0160l\u0113sviga-Hol\u0161teina","name:right:sk":"\u0160lezvicko-Hol\u0161tajnsko","sort_rank":256,"maritime_boundary":true,"name:left:fr":"Basse-Saxe","name:left:fy":"Nedersaksen"},"arcs":[[5],[6]]},{"type":"LineString","properties":{"name:ia":"Basse Saxonia","name:pt":"Baixa Sax\u00f3nia","name:ar":"\u0633\u0643\u0633\u0648\u0646\u064a\u0627 \u0627\u0644\u0633\u0641\u0644\u0649","name:cs":"Doln\u00ed Sasko","name:io":"Infra-Saxonia","min_zoom":8.0,"name:ru":"\u041d\u0438\u0436\u043d\u044f\u044f \u0421\u0430\u043a\u0441\u043e\u043d\u0438\u044f","name:pl":"Dolna Saksonia","id":-62771,"name:ca":"Baixa Sax\u00f2nia","name:vo":"Dona-Sax\u00e4n","sort_rank":256,"kind_detail":"4","source":"openstreetmap.org","name:fr":"Basse-Saxe","name:fy":"Nedersaksen","name:zh":"\u4e0b\u8428\u514b\u68ee","name:sl":"Spodnja Sa\u0161ka","name:lv":"Lejassaksija","name:lt":"\u017demutin\u0117 Saksonija","name:eo":"Malsupra Saksujo","name:la":"Saxonia Inferior","name:sk":"Doln\u00e9 Sasko","name:uk":"\u041d\u0438\u0436\u043d\u044f \u0421\u0430\u043a\u0441\u043e\u043d\u0456\u044f","name:hu":"Als\u00f3-Sz\u00e1szorsz\u00e1g","name:hr":"Donja Saska","name:sr":"\u0414\u043e\u045a\u0430 \u0421\u0430\u043a\u0441\u043e\u043d\u0438\u0458\u0430","osm_relation":true,"kind":"region","name:en":"Lower Saxony","name":"Niedersachsen","maritime_boundary":true,"name:nl":"Nedersaksen","name:es":"Baja Sajonia"},"arcs":[7]},{"type":"LineString","properties":{"name:lv":"\u0160l\u0113sviga-Hol\u0161teina","name:ar":"\u0634\u0644\u0633\u0641\u064a\u063a \u0647\u0648\u0644\u0634\u062a\u0627\u064a\u0646","name:cs":"\u0160lesvicko-Hol\u0161t\u00fdnsko","kind":"region","min_zoom":8.0,"name:uk":"\u0428\u043b\u0435\u0437\u0432\u0456\u0433-\u0413\u043e\u043b\u044c\u0448\u0442\u0435\u0439\u043d","name:ru":"\u0428\u043b\u0435\u0437\u0432\u0438\u0433-\u0413\u043e\u043b\u044c\u0448\u0442\u0435\u0439\u043d","name:sk":"\u0160lezvicko-Hol\u0161tajnsko","name:pl":"Szlezwik-Holsztyn","id":-51529,"osm_relation":true,"name:vo":"Jlesvig\u00e4n-Holst\u00e4n","name:eo":"\u015clesvigo-Holstinio","name":"Schleswig-Holstein","sort_rank":256,"kind_detail":"4","name:sr":"\u0428\u043b\u0435\u0437\u0432\u0438\u0433-\u0425\u043e\u043b\u0448\u0442\u0430\u0458\u043d","source":"openstreetmap.org","maritime_boundary":true,"name:ca":"Slesvig-Holstein"},"arcs":[8]}]},"roads":{"type":"GeometryCollection","geometries":[{"type":"LineString","properties":{"bus_network":"VEJ","network":"Landesstra\u00dfen Niedersachsen","sort_rank":379,"kind_detail":"secondary","is_bicycle_related":true,"kind":"major_road","bicycle_shield_text":"EV12","bicycle_network":"icn","source":"openstreetmap.org","min_zoom":8.0,"bus_shield_text":"211","shield_text":"808","ref":"L 808","id":70605446},"arcs":[104]},{"type":"LineString","properties":{"kind":"major_road","sort_rank":380,"kind_detail":"primary","is_bicycle_related":true,"cycleway":"track","source":"openstreetmap.org","min_zoom":8.0,"landuse_kind":"urban_area","ref":"B 210","id":26677934},"arcs":[105]},{"type":"LineString","properties":{"source":"openstreetmap.org","kind":"ferry","name":"Mittelrinne","sort_rank":355,"landuse_kind":"national_park","min_zoom":8.0,"id":477087445},"arcs":[106]},{"type":"LineString","properties":{"source":"openstreetmap.org","kind":"major_road","sort_rank":380,"kind_detail":"primary","ref":"B 461","min_zoom":8.0},"arcs":[107]},{"type":"MultiLineString","properties":{"kind":"major_road","network":"Kreisstra\u00dfen Wesermarsch","sort_rank":377,"kind_detail":"tertiary","is_bicycle_related":true,"bicycle_shield_text":"EV12","bicycle_network":"icn","source":"openstreetmap.org","min_zoom":8.0,"shield_text":"181","ref":"K 181"},"arcs":[[108],[109]]},{"type":"MultiLineString","properties":{"bus_network":"VEJ","network":null,"sort_rank":380,"kind_detail":"primary","kind":"major_road","source":"openstreetmap.org","min_zoom":8.0,"bus_shield_text":"111","shield_text":"210","ref":"B 210"},"arcs":[[110],[111]]},{"type":"MultiLineString","properties":{"bus_network":"VEJ","network":null,"sort_rank":380,"kind_detail":"primary","kind":"major_road","source":"openstreetmap.org","min_zoom":8.0,"bus_shield_text":"410","shield_text":"72","landuse_kind":"residential","ref":"B 72;B 210"},"arcs":[[112],[113],[114],[115],[116]]},{"type":"LineString","properties":{"kind":"ferry","name":"Emden - Borkum (120 min)","sort_rank":355,"landuse_kind":"protected_area","source":"openstreetmap.org","min_zoom":8.0,"ref":"Emden - Borkum - 120","id":-6050545,"osm_relation":true},"arcs":[117]},{"type":"LineString","properties":{"kind":"major_road","sort_rank":379,"kind_detail":"secondary","is_bicycle_related":true,"bus_network":"MeinFernbus","bicycle_shield_text":"D1","bicycle_network":"ncn","source":"openstreetmap.org","min_zoom":8.0,"bus_shield_text":"MFB 019"},"arcs":[118]},{"type":"LineString","properties":{"bus_network":"MeinFernbus","network":null,"sort_rank":380,"kind_detail":"primary","is_bicycle_related":true,"kind":"major_road","bicycle_shield_text":"EV12","bicycle_network":"icn","source":"openstreetmap.org","min_zoom":8.0,"bus_shield_text":"MFB 019","shield_text":"461","ref":"B 461","id":4533364},"arcs":[119]},{"type":"LineString","properties":{"sort_rank":380,"kind_detail":"primary","min_zoom":8.0,"kind":"major_road","source":"openstreetmap.org"},"arcs":[120]},{"type":"LineString","properties":{"bus_network":null,"network":"Kreisstra\u00dfen Aurich","sort_rank":377,"kind_detail":"tertiary","is_bicycle_related":true,"kind":"major_road","bicycle_shield_text":"EV12","bicycle_network":"icn","source":"openstreetmap.org","min_zoom":8.0,"bus_shield_text":"Nordsee-Express","shield_text":"214","ref":"K 214"},"arcs":[121]},{"type":"LineString","properties":{"bus_network":"VEJ","network":null,"sort_rank":380,"kind_detail":"primary","is_bicycle_related":true,"kind":"major_road","bicycle_shield_text":"Seer\u00e4uber","bicycle_network":"rcn","source":"openstreetmap.org","min_zoom":8.0,"bus_shield_text":"473","shield_text":"210","landuse_kind":"residential","ref":"B 210"},"arcs":[122]},{"type":"LineString","properties":{"bus_network":"Verkehrsverbund Ems-Jade","network":null,"sort_rank":380,"kind_detail":"primary","is_bicycle_related":true,"kind":"major_road","source":"openstreetmap.org","min_zoom":8.0,"bus_shield_text":"VEJ 256","shield_text":"437","landuse_kind":"residential"},"arcs":[123]},{"type":"LineString","properties":{"kind":"major_road","network":null,"sort_rank":380,"kind_detail":"primary","bus_network":null,"source":"openstreetmap.org","min_zoom":8.0,"bus_shield_text":"Baltrum-Linie","shield_text":"72","ref":"B 72","id":220917991},"arcs":[124]},{"type":"MultiLineString","properties":{"sort_rank":355,"landuse_kind":"national_park","min_zoom":8.0,"kind":"ferry","source":"openstreetmap.org"},"arcs":[[125],[126],[127]]},{"type":"MultiLineString","properties":{"bus_network":"VEJ","network":null,"sort_rank":380,"kind_detail":"primary","kind":"major_road","source":"openstreetmap.org","min_zoom":8.0,"bus_shield_text":"4","shield_text":"210","landuse_kind":"urban_area","ref":"B 210"},"arcs":[[128],[129]]},{"type":"MultiLineString","properties":{"bus_network":"Mein Fernbus","network":null,"sort_rank":381,"kind_detail":"trunk","kind":"major_road","source":"openstreetmap.org","min_zoom":8.0,"bus_shield_text":"MFB 044","shield_text":"210","ref":"B 210"},"arcs":[[130],[131]]},{"type":"LineString","properties":{"bus_network":"VEJ","network":"Landesstra\u00dfen Niedersachsen","sort_rank":379,"kind_detail":"secondary","is_bicycle_related":true,"kind":"major_road","bicycle_shield_text":"EV12","bicycle_network":"icn","source":"openstreetmap.org","min_zoom":8.0,"bus_shield_text":"K1","shield_text":"8","ref":"L 8","id":37304743},"arcs":[132]},{"type":"MultiLineString","properties":{"kind":"major_road","network":null,"sort_rank":380,"kind_detail":"primary","source":"openstreetmap.org","min_zoom":8.0,"shield_text":"461","ref":"B 461"},"arcs":[[133],[134],[135],[136],[137],[138],[139]]},{"type":"MultiLineString","properties":{"source":"openstreetmap.org","kind":"ferry","name":"Langeoog - Spiekeroog","sort_rank":355,"min_zoom":8.0,"id":81161414},"arcs":[[140],[141]]},{"type":"MultiLineString","properties":{"kind":"minor_road","service":"alley","sort_rank":356,"kind_detail":"service","is_bicycle_related":true,"bicycle_shield_text":"EV12","bicycle_network":"icn","source":"openstreetmap.org","min_zoom":8.0},"arcs":[[142],[143],[144],[145]]},{"type":"LineString","properties":{"kind":"major_road","network":"Kreisstra\u00dfen Emden","sort_rank":377,"kind_detail":"tertiary","is_bicycle_related":true,"bicycle_shield_text":"EV12","bicycle_network":"icn","source":"openstreetmap.org","min_zoom":8.0,"shield_text":"4","ref":"K 4","id":506577199},"arcs":[146]},{"type":"LineString","properties":{"kind":"major_road","sort_rank":377,"kind_detail":"tertiary","is_bicycle_related":true,"bicycle_shield_text":"EV12","bicycle_network":"icn","source":"openstreetmap.org","min_zoom":8.0,"ref":"K 21","id":4533305},"arcs":[147]},{"type":"LineString","properties":{"bus_network":"Stadtverkehr Emden","network":"Landesstra\u00dfen Niedersachsen","sort_rank":379,"kind_detail":"secondary","is_bicycle_related":true,"kind":"major_road","bicycle_shield_text":"EV12","bicycle_network":"icn","source":"openstreetmap.org","min_zoom":8.0,"bus_shield_text":"501","shield_text":"2","ref":"L 2","id":32596639},"arcs":[148]},{"type":"LineString","properties":{"bus_network":"VEJ","network":null,"sort_rank":380,"kind_detail":"primary","kind":"major_road","source":"openstreetmap.org","min_zoom":8.0,"bus_shield_text":"473","shield_text":"210","landuse_kind":"residential","ref":"B 210"},"arcs":[149]},{"type":"MultiLineString","properties":{"kind":"path","sort_rank":354,"landuse_kind":"urban_area","is_bicycle_related":true,"bicycle_shield_text":"EV12","bicycle_network":"icn","source":"openstreetmap.org","min_zoom":8.0,"kind_detail":"footway"},"arcs":[[150],[151]]},{"type":"LineString","properties":{"kind":"major_road","sort_rank":380,"kind_detail":"primary","is_bicycle_related":true,"bus_network":"VEJ","bicycle_shield_text":"EV12","bicycle_network":"icn","source":"openstreetmap.org","min_zoom":8.0,"bus_shield_text":"211","ref":"B 461","id":220906938},"arcs":[152]},{"type":"MultiLineString","properties":{"source":"openstreetmap.org","kind":"ferry","name":"Ne\u00dfmersiel-Baltrum","sort_rank":355,"is_bicycle_related":true,"min_zoom":8.0,"id":48446873},"arcs":[[153],[154]]},{"type":"LineString","properties":{"bus_network":null,"sort_rank":377,"kind_detail":"tertiary","is_bicycle_related":true,"kind":"major_road","bicycle_shield_text":"EV12","bicycle_network":"icn","source":"openstreetmap.org","min_zoom":8.0,"bus_shield_text":"Nordsee-Express"},"arcs":[155]},{"type":"LineString","properties":{"source":"openstreetmap.org","kind":"ferry","name":"Blaue Balje","sort_rank":355,"landuse_kind":"national_park","min_zoom":8.0,"id":439378176},"arcs":[156]},{"type":"LineString","properties":{"bus_network":"Verkehrsverbund Ems-Jade","network":null,"sort_rank":380,"kind_detail":"primary","is_bicycle_related":true,"kind":"major_road","bicycle_shield_text":"EV12","bicycle_network":"icn","source":"openstreetmap.org","min_zoom":8.0,"bus_shield_text":"VEJ 256","shield_text":"437","landuse_kind":"residential"},"arcs":[157]},{"type":"LineString","properties":{"source":"openstreetmap.org","kind":"ferry","name":"Emden-Borkum Katamaran","sort_rank":355,"landuse_kind":"urban_area","min_zoom":8.0,"id":497189489},"arcs":[158]},{"type":"LineString","properties":{"source":"openstreetmap.org","kind":"ferry","name":"Vareler Wattfahrwasser","sort_rank":355,"min_zoom":8.0,"id":219439380},"arcs":[159]},{"type":"MultiLineString","properties":{"kind":"minor_road","sort_rank":360,"kind_detail":"residential","is_bicycle_related":true,"bicycle_shield_text":"EV12","bicycle_network":"icn","source":"openstreetmap.org","min_zoom":8.0},"arcs":[[160],[161],[162],[163],[164],[165],[166],[167],[168],[169],[170],[171],[172],[173],[174],[175],[176],[177],[178],[179],[180],[181],[182],[183],[184],[185],[186],[187],[188],[189],[190],[191],[192],[193],[194],[195],[196],[197],[198],[199],[200],[201],[202],[203],[204],[205],[206],[207],[208],[209],[210],[211],[212],[213],[214],[215],[216],[217],[218]]},{"type":"LineString","properties":{"kind":"ferry","name":"Emden - Borkum Katamaran (60 min)","sort_rank":355,"landuse_kind":"protected_area","source":"openstreetmap.org","min_zoom":8.0,"ref":"Emden - Borkum - 60","id":-6050546,"osm_relation":true},"arcs":[219]},{"type":"LineString","properties":{"source":"openstreetmap.org","kind":"ferry","name":"Pers. u. Fahrradf\u00e4hre Wilhelmshaven-Eckwarderh\u00f6rne","sort_rank":355,"is_bicycle_related":true,"min_zoom":8.0,"id":24824476},"arcs":[220]},{"type":"LineString","properties":{"kind":"ferry","name":"Norddeich - Juist (80 Min.)","sort_rank":355,"landuse_kind":"national_park","is_bicycle_related":true,"source":"openstreetmap.org","min_zoom":8.0,"ref":"Norddeich - Juist (80)","id":-288513,"osm_relation":true},"arcs":[221]},{"type":"LineString","properties":{"kind":"ferry","name":"Ditzum-Emden-Delfzijl (Emden-Delfzijl)","sort_rank":355,"landuse_kind":"urban_area","is_bicycle_related":true,"source":"openstreetmap.org","min_zoom":8.0,"ref":"Emden - Delfzijl","osm_relation":true},"arcs":[222]},{"type":"LineString","properties":{"bus_network":"VEJ","network":null,"sort_rank":380,"kind_detail":"primary","kind":"major_road","source":"openstreetmap.org","min_zoom":8.0,"bus_shield_text":"473","shield_text":"210","landuse_kind":"urban_area","ref":"B 210"},"arcs":[223]},{"type":"MultiLineString","properties":{"kind":"minor_road","sort_rank":358,"landuse_kind":"national_park","is_bicycle_related":true,"bicycle_shield_text":"EV12","bicycle_network":"icn","source":"openstreetmap.org","min_zoom":8.0,"kind_detail":"service"},"arcs":[[224],[225],[226],[227]]},{"type":"LineString","properties":{"kind":"major_road","network":null,"sort_rank":380,"kind_detail":"primary","is_bicycle_related":true,"bus_network":"VEJ","bicycle_shield_text":null,"bicycle_network":"rcn","source":"openstreetmap.org","min_zoom":8.0,"bus_shield_text":"460","shield_text":"72","ref":"B 72"},"arcs":[228]},{"type":"LineString","properties":{"bus_network":"Verkehrsverbund Ems-Jade","network":null,"sort_rank":380,"kind_detail":"primary","is_bicycle_related":true,"kind":"major_road","bicycle_shield_text":"G\u00e4rtenSchl\u00f6sser","bicycle_network":"rcn","source":"openstreetmap.org","min_zoom":8.0,"bus_shield_text":"VEJ 256","shield_text":"437","ref":"B 437","id":5001016},"arcs":[229]},{"type":"LineString","properties":{"kind":"ferry","name":"Harlesiel - Wangerooge","sort_rank":355,"landuse_kind":"national_park","is_bicycle_related":true,"source":"openstreetmap.org","min_zoom":8.0,"id":24033789},"arcs":[230]},{"type":"LineString","properties":{"bus_network":"VEJ","network":"Landesstra\u00dfen Niedersachsen","sort_rank":379,"kind_detail":"secondary","is_bicycle_related":true,"kind":"major_road","bicycle_shield_text":"EV12","bicycle_network":"icn","source":"openstreetmap.org","min_zoom":8.0,"bus_shield_text":"417","shield_text":"27","ref":"L 27","id":255196380},"arcs":[231]},{"type":"MultiLineString","properties":{"source":"openstreetmap.org","kind":"ferry","sort_rank":355,"ref":"Ne\u00dfmersiel - Baltrum","min_zoom":8.0,"osm_relation":true,"id":-310230},"arcs":[[232],[233]]},{"type":"LineString","properties":{"kind":"ferry","name":"Ditzum-Emden-Delfzijl (Ditzum-Emden)","sort_rank":355,"landuse_kind":"urban_area","is_bicycle_related":true,"source":"openstreetmap.org","min_zoom":8.0,"ref":"Ditzum - Emden","id":-7120586,"osm_relation":true},"arcs":[234]},{"type":"LineString","properties":{"source":"openstreetmap.org","kind":"ferry","name":"Hooksiel-Helgoland","sort_rank":355,"landuse_kind":"national_park","min_zoom":8.0,"id":499492283},"arcs":[235]},{"type":"LineString","properties":{"kind":"major_road","network":"Kreisstra\u00dfen Emden","sort_rank":377,"kind_detail":"tertiary","is_bicycle_related":true,"bus_network":"Stadtverkehr Emden","bicycle_shield_text":"EV12","bicycle_network":"icn","source":"openstreetmap.org","min_zoom":8.0,"bus_shield_text":"501","shield_text":"4","ref":"K 4"},"arcs":[236]},{"type":"MultiLineString","properties":{"bus_network":"VEJ","sort_rank":380,"kind_detail":"primary","kind":"major_road","source":"openstreetmap.org","min_zoom":8.0,"bus_shield_text":"2","landuse_kind":"urban_area","ref":"B 210"},"arcs":[[237],[238]]},{"type":"MultiLineString","properties":{"kind":"ferry","name":"Norddeich - Norderney","sort_rank":355,"landuse_kind":"national_park","is_bicycle_related":true,"source":"openstreetmap.org","min_zoom":8.0,"ref":"Norddeich - Norderney","osm_relation":true},"arcs":[[239],[240]]},{"type":"LineString","properties":{"bus_network":"VEJ","network":"Landesstra\u00dfen Niedersachsen","sort_rank":379,"kind_detail":"secondary","is_bicycle_related":true,"cycleway_right":"lane","bicycle_shield_text":"EV12","bicycle_network":"icn","source":"openstreetmap.org","min_zoom":8.0,"bus_shield_text":"223","shield_text":"812","ref":"L 812","id":37308504,"kind":"major_road"},"arcs":[241]},{"type":"LineString","properties":{"kind":"major_road","network":null,"sort_rank":380,"kind_detail":"primary","bus_network":null,"source":"openstreetmap.org","min_zoom":8.0,"bus_shield_text":"462","shield_text":"436","ref":"B 436","id":54853181},"arcs":[242]},{"type":"MultiLineString","properties":{"kind":"path","sort_rank":354,"kind_detail":"track","is_bicycle_related":true,"bicycle_shield_text":"EV12","bicycle_network":"icn","source":"openstreetmap.org","min_zoom":8.0},"arcs":[[243],[244],[245],[246],[247],[248],[249],[250],[251],[252],[253],[254],[255],[256],[257],[258]]},{"type":"LineString","properties":{"kind":"major_road","sort_rank":377,"kind_detail":"tertiary","is_bicycle_related":true,"bicycle_shield_text":"EV12","bicycle_network":"icn","source":"openstreetmap.org","min_zoom":8.0,"old_name":"Butjadinger Stra\u00dfe","id":347300159},"arcs":[259]},{"type":"MultiLineString","properties":{"kind":"path","sort_rank":354,"kind_detail":"cycleway","is_bicycle_related":true,"bicycle_shield_text":"EV12","bicycle_network":"icn","source":"openstreetmap.org","min_zoom":8.0},"arcs":[[260],[261],[262],[263],[264],[265],[266],[267],[268],[269],[270],[271],[272],[273]]},{"type":"LineString","properties":{"kind":"major_road","network":"Kreisstra\u00dfen Wesermarsch","sort_rank":377,"kind_detail":"tertiary","is_bicycle_related":true,"bicycle_shield_text":"EV12","bicycle_network":"icn","source":"openstreetmap.org","min_zoom":8.0,"shield_text":"180","ref":"K 180"},"arcs":[274]},{"type":"LineString","properties":{"kind":"path","sort_rank":354,"kind_detail":"track","is_bicycle_related":true,"bicycle_shield_text":"EV12","bicycle_network":"icn","source":"openstreetmap.org","min_zoom":8.0,"loc_name":"Betonstra\u00dfe","id":36311363},"arcs":[275]},{"type":"LineString","properties":{"bus_network":"VEJ","network":null,"sort_rank":380,"kind_detail":"primary","is_bicycle_related":true,"kind":"major_road","bicycle_shield_text":"EV12","bicycle_network":"icn","source":"openstreetmap.org","min_zoom":8.0,"bus_shield_text":"K1","shield_text":"461","ref":"B 461"},"arcs":[276]},{"type":"LineString","properties":{"kind":"major_road","network":null,"sort_rank":380,"kind_detail":"primary","source":"openstreetmap.org","min_zoom":8.0,"landuse_kind":"urban_area","shield_text":"210","ref":"B 210"},"arcs":[277]},{"type":"MultiLineString","properties":{"bus_network":"VEJ","sort_rank":380,"kind_detail":"primary","kind":"major_road","source":"openstreetmap.org","min_zoom":8.0,"bus_shield_text":"411","ref":"B 72"},"arcs":[[278],[279]]},{"type":"LineString","properties":{"kind":"ferry","name":"Ne\u00dfmersiel-Baltrum","sort_rank":355,"landuse_kind":"national_park","is_bicycle_related":true,"source":"openstreetmap.org","min_zoom":8.0,"id":48446873},"arcs":[280]},{"type":"LineString","properties":{"kind":"major_road","sort_rank":380,"kind_detail":"primary","is_bicycle_related":true,"bus_network":"MeinFernbus","bicycle_shield_text":"EV12","bicycle_network":"icn","source":"openstreetmap.org","min_zoom":8.0,"bus_shield_text":"MFB 019","ref":"B 461"},"arcs":[281]},{"type":"LineString","properties":{"source":"openstreetmap.org","kind":"ferry","name":"helgoline","sort_rank":355,"landuse_kind":"national_park","min_zoom":8.0,"id":366126699},"arcs":[282]},{"type":"LineString","properties":{"bus_network":null,"network":null,"sort_rank":380,"kind_detail":"primary","kind":"major_road","source":"openstreetmap.org","min_zoom":8.0,"bus_shield_text":"462","shield_text":"72","landuse_kind":"residential","ref":"B 72"},"arcs":[283]},{"type":"MultiLineString","properties":{"kind":"ferry","name":"Neuharlingersiel - Spiekeroog","sort_rank":355,"is_bicycle_related":true,"source":"openstreetmap.org","min_zoom":8.0,"ref":"Spiekeroog-Neuharlingersiel","id":271761215},"arcs":[[284],[285]]},{"type":"LineString","properties":{"source":"openstreetmap.org","kind":"ferry","name":"Emden-Borkum Katamaran","sort_rank":355,"landuse_kind":"protected_area","min_zoom":8.0,"id":497189489},"arcs":[286]},{"type":"LineString","properties":{"kind":"ferry","name":"Norddeich - Juist (120 Min.)","sort_rank":355,"is_bicycle_related":true,"source":"openstreetmap.org","min_zoom":8.0,"ref":"Norddeich - Juist (120)","id":-288515,"osm_relation":true},"arcs":[287]},{"type":"LineString","properties":{"kind":"major_road","network":null,"sort_rank":380,"kind_detail":"primary","bus_network":"VEJ","source":"openstreetmap.org","min_zoom":8.0,"bus_shield_text":"K1","shield_text":"72","ref":"B 72","id":28910421},"arcs":[288]},{"type":"LineString","properties":{"bus_network":"VEJ","network":"Kreisstra\u00dfen Aurich","sort_rank":377,"kind_detail":"tertiary","is_bicycle_related":true,"kind":"major_road","bicycle_shield_text":"EV12","bicycle_network":"icn","source":"openstreetmap.org","min_zoom":8.0,"bus_shield_text":"417","shield_text":"221","ref":"K 221"},"arcs":[289]},{"type":"MultiLineString","properties":{"source":"openstreetmap.org","kind":"ferry","name":"Harlesiel - Wangerooge","sort_rank":355,"is_bicycle_related":true,"min_zoom":8.0,"id":24033789},"arcs":[[290],[291]]},{"type":"LineString","properties":{"bus_network":"VEJ","network":null,"sort_rank":380,"kind_detail":"primary","is_bicycle_related":true,"kind":"major_road","cycleway":"track","source":"openstreetmap.org","min_zoom":8.0,"bus_shield_text":"410","shield_text":"210","ref":"B 210"},"arcs":[292]},{"type":"MultiLineString","properties":{"kind":"major_road","network":null,"sort_rank":380,"kind_detail":"primary","source":"openstreetmap.org","min_zoom":8.0,"shield_text":"437","ref":"B 437"},"arcs":[[293],[294],[295],[296],[297],[298],[299]]},{"type":"LineString","properties":{"bus_network":"Mein Fernbus","network":null,"sort_rank":380,"kind_detail":"primary","kind":"major_road","source":"openstreetmap.org","min_zoom":8.0,"bus_shield_text":"MFB 044","shield_text":"210","ref":"B 210"},"arcs":[300]},{"type":"LineString","properties":{"kind":"major_road","network":"Kreisstra\u00dfen Wesermarsch","sort_rank":377,"kind_detail":"tertiary","is_bicycle_related":true,"bicycle_shield_text":"EV12","bicycle_network":"icn","source":"openstreetmap.org","min_zoom":8.0,"landuse_kind":"national_park","shield_text":"181","ref":"K 181","id":347291262},"arcs":[301]},{"type":"LineString","properties":{"kind":"path","sort_rank":354,"kind_detail":"cycleway","is_bicycle_related":true,"bicycle_shield_text":"D1","bicycle_network":"ncn","source":"openstreetmap.org","min_zoom":8.0,"landuse_kind":"urban_area","id":37056066},"arcs":[302]},{"type":"LineString","properties":{"kind":"major_road","network":null,"sort_rank":380,"kind_detail":"primary","is_bicycle_related":true,"bus_network":"VEJ","cycleway":"track","source":"openstreetmap.org","min_zoom":8.0,"bus_shield_text":"111","shield_text":"436","ref":"B 436","id":4688544},"arcs":[303]},{"type":"LineString","properties":{"kind":"major_road","sort_rank":377,"kind_detail":"tertiary","is_bicycle_related":true,"bicycle_shield_text":"EV12","bicycle_network":"icn","source":"openstreetmap.org","min_zoom":8.0,"ref":"K 34"},"arcs":[304]},{"type":"LineString","properties":{"kind":"major_road","network":"Landesstra\u00dfen Niedersachsen","sort_rank":379,"kind_detail":"secondary","is_bicycle_related":true,"bicycle_shield_text":"EV12","bicycle_network":"icn","source":"openstreetmap.org","min_zoom":8.0,"shield_text":"859","ref":"L 859"},"arcs":[305]},{"type":"LineString","properties":{"kind":"major_road","network":null,"sort_rank":380,"kind_detail":"primary","is_bicycle_related":true,"bicycle_shield_text":"G\u00e4rtenSchl\u00f6sser","cycleway":"track","source":"openstreetmap.org","min_zoom":8.0,"shield_text":"437","bicycle_network":"rcn","ref":"B 437","id":75669158},"arcs":[306]},{"type":"MultiLineString","properties":{"kind":"major_road","network":"Kreisstra\u00dfen Emden","sort_rank":377,"kind_detail":"tertiary","is_bicycle_related":true,"bus_network":"VEJ","bicycle_shield_text":"EV12","bicycle_network":"icn","source":"openstreetmap.org","min_zoom":8.0,"bus_shield_text":"422","shield_text":"38","ref":"K 38"},"arcs":[[307],[308]]},{"type":"LineString","properties":{"bus_network":"VEJ","sort_rank":377,"kind_detail":"tertiary","is_bicycle_related":true,"kind":"major_road","bicycle_shield_text":"EV12","bicycle_network":"icn","source":"openstreetmap.org","min_zoom":8.0,"bus_shield_text":"303"},"arcs":[309]},{"type":"MultiLineString","properties":{"bus_network":"VEJ","network":null,"sort_rank":380,"kind_detail":"primary","kind":"major_road","source":"openstreetmap.org","min_zoom":8.0,"bus_shield_text":"460","shield_text":"72","landuse_kind":"residential","ref":"B 72"},"arcs":[[310],[311],[312],[313],[314]]},{"type":"LineString","properties":{"kind":"major_road","network":"Kreisstra\u00dfen Friesland","sort_rank":377,"landuse_kind":"residential","is_bicycle_related":true,"bicycle_shield_text":"EV12","bicycle_network":"icn","source":"openstreetmap.org","min_zoom":8.0,"kind_detail":"tertiary","shield_text":"109","cycleway":"ja","ref":"K 109"},"arcs":[315]},{"type":"LineString","properties":{"kind":"major_road","network":"Kreisstra\u00dfen Wittmund","sort_rank":377,"kind_detail":"tertiary","is_bicycle_related":true,"bus_network":"MeinFernbus","bicycle_shield_text":"EV12","bicycle_network":"icn","source":"openstreetmap.org","min_zoom":8.0,"bus_shield_text":"MFB 019","shield_text":"7","ref":"K 7"},"arcs":[316]},{"type":"MultiLineString","properties":{"bus_network":"VEJ","network":null,"sort_rank":380,"kind_detail":"primary","kind":"major_road","source":"openstreetmap.org","min_zoom":8.0,"bus_shield_text":"2","shield_text":"210","landuse_kind":"urban_area","ref":"B 210"},"arcs":[[317],[318],[319]]},{"type":"LineString","properties":{"bus_network":"VEJ","network":null,"sort_rank":380,"kind_detail":"primary","kind":"major_road","source":"openstreetmap.org","min_zoom":8.0,"bus_shield_text":"473","shield_text":"210","ref":"B 210"},"arcs":[320]},{"type":"LineString","properties":{"kind":"major_road","network":null,"sort_rank":380,"kind_detail":"primary","is_bicycle_related":true,"bus_network":"Verkehrsverbund Ems-Jade","source":"openstreetmap.org","min_zoom":8.0,"bus_shield_text":"VEJ 256","shield_text":"436","ref":"B 436","id":30729480},"arcs":[321]},{"type":"LineString","properties":{"kind":"minor_road","sort_rank":360,"kind_detail":"residential","is_bicycle_related":true,"bicycle_shield_text":"EV12","bicycle_network":"icn","source":"openstreetmap.org","min_zoom":8.0,"landuse_kind":"national_park","id":37412464},"arcs":[322]},{"type":"LineString","properties":{"bus_network":"Verkehrsverbund Ems-Jade","network":null,"sort_rank":380,"kind_detail":"primary","is_bicycle_related":true,"kind":"major_road","bicycle_shield_text":"H\u00e4fen","bicycle_network":"rcn","source":"openstreetmap.org","min_zoom":8.0,"bus_shield_text":"VEJ 256","shield_text":"437"},"arcs":[323]},{"type":"LineString","properties":{"source":"openstreetmap.org","kind":"ferry","name":"Harle - See","sort_rank":355,"landuse_kind":"national_park","min_zoom":8.0,"id":439378177},"arcs":[324]},{"type":"MultiLineString","properties":{"kind":"minor_road","sort_rank":360,"landuse_kind":"urban_area","is_bicycle_related":true,"bicycle_shield_text":"EV12","bicycle_network":"icn","source":"openstreetmap.org","min_zoom":8.0,"kind_detail":"living_street"},"arcs":[[325],[326]]},{"type":"LineString","properties":{"kind":"major_road","network":null,"sort_rank":380,"kind_detail":"primary","bus_network":"MeinFernbus","source":"openstreetmap.org","min_zoom":8.0,"bus_shield_text":"MFB 019","shield_text":"72","ref":"B 72"},"arcs":[327]},{"type":"LineString","properties":{"bus_network":"VEJ","network":null,"sort_rank":380,"kind_detail":"primary","kind":"major_road","source":"openstreetmap.org","min_zoom":8.0,"bus_shield_text":"467","shield_text":"72","ref":"B 72"},"arcs":[328]},{"type":"MultiLineString","properties":{"kind":"major_road","network":null,"sort_rank":380,"kind_detail":"primary","is_bicycle_related":true,"source":"openstreetmap.org","min_zoom":8.0,"shield_text":"437","ref":"B 437"},"arcs":[[329],[330],[331],[332],[333],[334],[335],[336],[337],[338],[339]]},{"type":"MultiLineString","properties":{"sort_rank":355,"source":"openstreetmap.org","min_zoom":8.0,"name":"B\u00fcsum-Helgoland","kind":"ferry"},"arcs":[[340],[341]]},{"type":"MultiLineString","properties":{"kind":"ferry","name":"Bensersiel - Langeoog","sort_rank":355,"is_bicycle_related":true,"source":"openstreetmap.org","min_zoom":8.0,"ref":"Bensersiel - Langeoog","id":24612420},"arcs":[[342],[343]]},{"type":"LineString","properties":{"source":"openstreetmap.org","kind":"ferry","name":"Langeoog - Spiekeroog","sort_rank":355,"landuse_kind":"national_park","min_zoom":8.0,"id":81161414},"arcs":[344]},{"type":"LineString","properties":{"kind":"major_road","network":"Landesstra\u00dfen Niedersachsen","sort_rank":379,"kind_detail":"secondary","is_bicycle_related":true,"bicycle_shield_text":"EV12","bicycle_network":"icn","source":"openstreetmap.org","min_zoom":8.0,"shield_text":"855","ref":"L 855","id":239171175},"arcs":[345]},{"type":"LineString","properties":{"source":"openstreetmap.org","kind":"ferry","sort_rank":355,"landuse_kind":"national_park","is_bicycle_related":true,"min_zoom":8.0,"id":35975500},"arcs":[346]},{"type":"MultiLineString","properties":{"kind":"major_road","network":null,"sort_rank":380,"kind_detail":"primary","is_bicycle_related":true,"bicycle_shield_text":"G\u00e4rtenSchl\u00f6sser","bicycle_network":"rcn","source":"openstreetmap.org","min_zoom":8.0,"shield_text":"437","ref":"B 437"},"arcs":[[347],[348],[349]]},{"type":"MultiLineString","properties":{"kind":"path","sort_rank":354,"kind_detail":"footway","is_bicycle_related":true,"bicycle_shield_text":"EV12","bicycle_network":"icn","source":"openstreetmap.org","min_zoom":8.0},"arcs":[[350],[351],[352],[353],[354],[355]]},{"type":"LineString","properties":{"kind":"ferry","name":"Emden - Borkum (120 min)","sort_rank":355,"landuse_kind":"urban_area","source":"openstreetmap.org","min_zoom":8.0,"ref":"Emden - Borkum - 120","id":-6050545,"osm_relation":true},"arcs":[356]},{"type":"MultiLineString","properties":{"kind":"major_road","network":"Kreisstra\u00dfen Friesland","sort_rank":377,"landuse_kind":"residential","is_bicycle_related":true,"bicycle_shield_text":"EV12","bicycle_network":"icn","source":"openstreetmap.org","min_zoom":8.0,"kind_detail":"tertiary","shield_text":"109","ref":"K 109"},"arcs":[[357],[358]]},{"type":"LineString","properties":{"bus_network":"Verkehrsverbund Ems-Jade","network":null,"sort_rank":380,"kind_detail":"primary","is_bicycle_related":true,"kind":"major_road","bicycle_shield_text":"H\u00e4fen","bicycle_network":"rcn","source":"openstreetmap.org","min_zoom":8.0,"bus_shield_text":"VEJ 256","shield_text":"437","landuse_kind":"residential"},"arcs":[359]},{"type":"LineString","properties":{"kind":"minor_road","sort_rank":360,"kind_detail":"residential","is_bicycle_related":true,"bicycle_shield_text":"EV12","bicycle_network":"icn","source":"openstreetmap.org","min_zoom":8.0,"old_name":"Strandallee"},"arcs":[360]},{"type":"MultiLineString","properties":{"kind":"major_road","network":null,"sort_rank":380,"kind_detail":"primary","source":"openstreetmap.org","min_zoom":8.0,"shield_text":"436","ref":"B 436"},"arcs":[[361],[362],[363],[364],[365]]},{"type":"MultiLineString","properties":{"kind":"minor_road","sort_rank":360,"landuse_kind":"urban_area","is_bicycle_related":true,"bicycle_shield_text":"EV12","bicycle_network":"icn","source":"openstreetmap.org","min_zoom":8.0,"kind_detail":"residential"},"arcs":[[366],[367],[368],[369],[370],[371],[372],[373]]},{"type":"MultiLineString","properties":{"bus_network":"VEJ","network":null,"sort_rank":380,"kind_detail":"primary","kind":"major_road","source":"openstreetmap.org","min_zoom":8.0,"bus_shield_text":"111","shield_text":"210","landuse_kind":"urban_area","ref":"B 210"},"arcs":[[374],[375],[376],[377],[378]]},{"type":"LineString","properties":{"source":"openstreetmap.org","kind":"ferry","name":"Brandergat","sort_rank":355,"landuse_kind":"national_park","min_zoom":8.0,"id":32001068},"arcs":[379]},{"type":"LineString","properties":{"bus_network":"VEJ","network":null,"sort_rank":380,"kind_detail":"primary","kind":"major_road","source":"openstreetmap.org","min_zoom":8.0,"bus_shield_text":"111","shield_text":"436"},"arcs":[380]},{"type":"LineString","properties":{"kind":"minor_road","sort_rank":360,"kind_detail":"residential","is_bicycle_related":true,"bicycle_shield_text":"EV12","bicycle_network":"icn","source":"openstreetmap.org","min_zoom":8.0,"old_name":"Friesenstra\u00dfe","id":28005739},"arcs":[381]},{"type":"LineString","properties":{"kind":"major_road","network":null,"sort_rank":380,"kind_detail":"primary","bus_network":"Verkehrsverbund Ems-Jade","source":"openstreetmap.org","min_zoom":8.0,"bus_shield_text":"VEJ 256","shield_text":"437","id":220025109},"arcs":[382]},{"type":"LineString","properties":{"kind":"major_road","sort_rank":380,"kind_detail":"primary","is_bicycle_related":true,"bus_network":"VEJ","bicycle_shield_text":"EV12","bicycle_network":"icn","source":"openstreetmap.org","min_zoom":8.0,"bus_shield_text":"K1","ref":"B 461","id":220914844},"arcs":[383]},{"type":"MultiLineString","properties":{"kind":"major_road","network":"Landesstra\u00dfen Niedersachsen","sort_rank":379,"kind_detail":"secondary","is_bicycle_related":true,"bicycle_shield_text":"EV12","bicycle_network":"icn","source":"openstreetmap.org","min_zoom":8.0,"shield_text":"27","ref":"L 27"},"arcs":[[384],[385]]},{"type":"LineString","properties":{"bus_network":"VEJ","network":null,"sort_rank":380,"kind_detail":"primary","kind":"major_road","source":"openstreetmap.org","min_zoom":8.0,"bus_shield_text":"410","shield_text":"210","landuse_kind":"residential","ref":"B 72;B 210"},"arcs":[386]},{"type":"LineString","properties":{"source":"openstreetmap.org","kind":"major_road","sort_rank":380,"kind_detail":"primary","ref":"B 72","min_zoom":8.0,"id":260667842},"arcs":[387]},{"type":"MultiLineString","properties":{"kind":"path","sort_rank":354,"landuse_kind":"urban_area","is_bicycle_related":true,"bicycle_shield_text":"EV12","bicycle_network":"icn","source":"openstreetmap.org","min_zoom":8.0,"kind_detail":"path"},"arcs":[[388],[389],[390],[391],[392],[393],[394],[395],[396],[397],[398]]},{"type":"MultiLineString","properties":{"bus_network":"Verkehrsverbund Ems-Jade","network":null,"sort_rank":380,"kind_detail":"primary","is_bicycle_related":true,"kind":"major_road","source":"openstreetmap.org","min_zoom":8.0,"bus_shield_text":"VEJ 256","shield_text":"437","ref":"B 437"},"arcs":[[399],[400],[401],[402]]},{"type":"LineString","properties":{"kind":"path","sort_rank":354,"kind_detail":"path","is_bicycle_related":true,"bicycle_shield_text":"EV12","bicycle_network":"icn","source":"openstreetmap.org","min_zoom":8.0,"old_name":"Hauptstra\u00dfe","id":320472878},"arcs":[403]},{"type":"LineString","properties":{"kind":"ferry","name":"Bensersiel - Langeoog","sort_rank":355,"landuse_kind":"national_park","is_bicycle_related":true,"source":"openstreetmap.org","min_zoom":8.0,"ref":"Bensersiel - Langeoog","id":24612420},"arcs":[404]},{"type":"LineString","properties":{"kind":"ferry","name":"Ditzum-Emden-Delfzijl (Emden-Delfzijl)","sort_rank":355,"is_bicycle_related":true,"source":"openstreetmap.org","min_zoom":8.0,"ref":"Emden - Delfzijl","id":-1648289,"osm_relation":true},"arcs":[405]},{"type":"MultiLineString","properties":{"kind":"major_road","network":"Landesstra\u00dfen Niedersachsen","sort_rank":379,"kind_detail":"secondary","is_bicycle_related":true,"bicycle_shield_text":"EV12","bicycle_network":"icn","source":"openstreetmap.org","min_zoom":8.0,"old_name":"Butjadinger Stra\u00dfe","shield_text":"859","ref":"L 859"},"arcs":[[406],[407]]},{"type":"LineString","properties":{"source":"openstreetmap.org","kind":"ferry","name":"Busetief","sort_rank":355,"min_zoom":8.0,"id":196094668},"arcs":[408]},{"type":"LineString","properties":{"kind":"major_road","network":"Landesstra\u00dfen Niedersachsen","sort_rank":379,"landuse_kind":"national_park","is_bicycle_related":true,"bicycle_shield_text":"EV12","bicycle_network":"icn","source":"openstreetmap.org","min_zoom":8.0,"kind_detail":"secondary","shield_text":"27","ref":"L 27"},"arcs":[409]},{"type":"LineString","properties":{"kind":"major_road","network":"Landesstra\u00dfen Niedersachsen","sort_rank":379,"kind_detail":"secondary","is_bicycle_related":true,"bicycle_shield_text":"EV12","bicycle_network":"icn","source":"openstreetmap.org","min_zoom":8.0,"shield_text":"26","ref":"L 26"},"arcs":[410]},{"type":"LineString","properties":{"bus_network":"MeinFernbus","network":"Landesstra\u00dfen Niedersachsen","sort_rank":379,"kind_detail":"secondary","is_bicycle_related":true,"kind":"major_road","bicycle_shield_text":"EV12","bicycle_network":"icn","source":"openstreetmap.org","min_zoom":8.0,"bus_shield_text":"MFB 019","shield_text":"808","ref":"L 808","id":85984263},"arcs":[411]},{"type":"MultiLineString","properties":{"kind":"major_road","network":null,"sort_rank":380,"kind_detail":"primary","source":"openstreetmap.org","min_zoom":8.0,"shield_text":"72","ref":"B 72"},"arcs":[[412],[413],[414],[415],[416]]},{"type":"MultiLineString","properties":{"source":"openstreetmap.org","kind":"major_road","landuse_kind":"residential","sort_rank":380,"kind_detail":"primary","ref":"B 72","min_zoom":8.0},"arcs":[[417],[418]]},{"type":"LineString","properties":{"sort_rank":355,"landuse_kind":"urban_area","min_zoom":8.0,"kind":"ferry","source":"openstreetmap.org"},"arcs":[419]},{"type":"LineString","properties":{"bus_network":null,"network":null,"sort_rank":380,"kind_detail":"primary","is_bicycle_related":true,"kind":"major_road","bicycle_shield_text":"RuP","bicycle_network":"rcn","source":"openstreetmap.org","min_zoom":8.0,"bus_shield_text":"462","shield_text":"436","ref":"B 436"},"arcs":[420]},{"type":"LineString","properties":{"kind":"path","sort_rank":354,"kind_detail":"cycleway","is_bicycle_related":true,"bicycle_shield_text":"D1","bicycle_network":"ncn","source":"openstreetmap.org","min_zoom":8.0,"cycleway":"shared","id":108021242},"arcs":[421]},{"type":"LineString","properties":{"bus_network":"VEJ","network":null,"sort_rank":380,"kind_detail":"primary","is_bicycle_related":true,"kind":"major_road","cycleway":"track","source":"openstreetmap.org","min_zoom":8.0,"bus_shield_text":"410","shield_text":"210","landuse_kind":"urban_area","ref":"B 210"},"arcs":[422]},{"type":"MultiLineString","properties":{"bus_network":"VEJ","network":null,"sort_rank":380,"kind_detail":"primary","kind":"major_road","source":"openstreetmap.org","min_zoom":8.0,"bus_shield_text":"410","shield_text":"72","landuse_kind":"residential","ref":"B 72"},"arcs":[[423],[424]]},{"type":"MultiLineString","properties":{"bus_network":"VEJ","network":null,"sort_rank":380,"kind_detail":"primary","kind":"major_road","source":"openstreetmap.org","min_zoom":8.0,"bus_shield_text":"410","shield_text":"72","landuse_kind":"urban_area","ref":"B 72;B 210"},"arcs":[[425],[426]]},{"type":"LineString","properties":{"kind":"major_road","network":"Kreisstra\u00dfen Emden","sort_rank":377,"kind_detail":"tertiary","is_bicycle_related":true,"bicycle_shield_text":"EV12","bicycle_network":"icn","source":"openstreetmap.org","min_zoom":8.0,"shield_text":"5","ref":"K 5","id":101344431},"arcs":[427]},{"type":"LineString","properties":{"bus_network":null,"network":"Landesstra\u00dfen Niedersachsen","sort_rank":379,"kind_detail":"secondary","is_bicycle_related":true,"kind":"major_road","bicycle_shield_text":"EV12","bicycle_network":"icn","source":"openstreetmap.org","min_zoom":8.0,"bus_shield_text":"418","shield_text":"4","ref":"L 4","id":70105950},"arcs":[428]},{"type":"LineString","properties":{"kind":"ferry","name":"Norddeich - Juist (80 Min.)","sort_rank":355,"is_bicycle_related":true,"source":"openstreetmap.org","min_zoom":8.0,"ref":"Norddeich - Juist (80)","id":-288513,"osm_relation":true},"arcs":[429]},{"type":"LineString","properties":{"kind":"major_road","network":"Kreisstra\u00dfen Aurich","sort_rank":377,"kind_detail":"tertiary","is_bicycle_related":true,"bicycle_shield_text":"EV12","bicycle_network":"icn","source":"openstreetmap.org","min_zoom":8.0,"shield_text":"223","ref":"K 223","id":27194050},"arcs":[430]},{"type":"LineString","properties":{"kind":"major_road","sort_rank":377,"kind_detail":"tertiary","is_bicycle_related":true,"bicycle_shield_text":"EV12","bicycle_network":"icn","source":"openstreetmap.org","min_zoom":8.0,"ref":"K 100","id":23786038},"arcs":[431]},{"type":"MultiLineString","properties":{"bus_network":"VEJ","network":null,"sort_rank":380,"kind_detail":"primary","kind":"major_road","source":"openstreetmap.org","min_zoom":8.0,"bus_shield_text":"460","shield_text":"72","ref":"B 72"},"arcs":[[432],[433],[434]]},{"type":"LineString","properties":{"source":"openstreetmap.org","kind":"ferry","name":"Emden-Borkum Katamaran","sort_rank":355,"min_zoom":8.0,"id":497189489},"arcs":[435]},{"type":"LineString","properties":{"source":"openstreetmap.org","kind":"ferry","name":"Cuxhaven-Helgoland","sort_rank":355,"landuse_kind":"national_park","min_zoom":8.0,"id":130362686},"arcs":[436]},{"type":"MultiLineString","properties":{"kind":"path","sort_rank":354,"kind_detail":"pedestrian","is_bicycle_related":true,"bicycle_shield_text":"EV12","bicycle_network":"icn","source":"openstreetmap.org","min_zoom":8.0},"arcs":[[437],[438],[439],[440]]},{"type":"MultiLineString","properties":{"sort_rank":355,"source":"openstreetmap.org","min_zoom":8.0,"name":"Hooksiel-Helgoland","kind":"ferry"},"arcs":[[441],[442]]},{"type":"LineString","properties":{"kind":"ferry","name":"Norddeich - Juist (90 Min.)","sort_rank":355,"landuse_kind":"national_park","is_bicycle_related":true,"source":"openstreetmap.org","min_zoom":8.0,"ref":"Norddeich - Juist (90)","id":-2782159,"osm_relation":true},"arcs":[443]},{"type":"MultiLineString","properties":{"source":"openstreetmap.org","kind":"ferry","name":"Memmert","sort_rank":355,"landuse_kind":"national_park","min_zoom":8.0},"arcs":[[444],[445]]},{"type":"LineString","properties":{"bus_network":"VEJ","cycleway_left":"lane","network":"Kreisstra\u00dfen Emden","sort_rank":377,"landuse_kind":"urban_area","is_bicycle_related":true,"kind":"major_road","bicycle_shield_text":"EV12","bicycle_network":"icn","source":"openstreetmap.org","min_zoom":8.0,"bus_shield_text":"502-S","shield_text":"39","kind_detail":"tertiary","ref":"K 39"},"arcs":[446]},{"type":"LineString","properties":{"kind":"ferry","name":"Norddeich - Juist (100 Min.)","sort_rank":355,"is_bicycle_related":true,"source":"openstreetmap.org","min_zoom":8.0,"ref":"Norddeich - Juist (100)","id":-288514,"osm_relation":true},"arcs":[447]},{"type":"MultiLineString","properties":{"kind":"minor_road","sort_rank":360,"kind_detail":"unclassified","is_bicycle_related":true,"bicycle_shield_text":"EV12","bicycle_network":"icn","source":"openstreetmap.org","min_zoom":8.0},"arcs":[[448],[449],[450],[451],[452],[453],[454],[455],[456],[457],[458],[459],[460],[461],[462],[463],[464],[465],[466],[467],[468],[469],[470],[471],[472],[473],[474],[475],[476],[477],[478],[479],[480],[481],[482],[483],[484],[485],[486],[487],[488],[489],[490],[491]]},{"type":"MultiLineString","properties":{"kind":"path","sort_rank":354,"kind_detail":"pedestrian","is_bicycle_related":true,"bicycle_shield_text":"EV12","bicycle_network":"icn","source":"openstreetmap.org","min_zoom":8.0,"landuse_kind":"urban_area"},"arcs":[[492],[493]]},{"type":"MultiLineString","properties":{"source":"openstreetmap.org","kind":"ferry","name":"B\u00fcsum-Helgoland","sort_rank":355,"landuse_kind":"national_park","min_zoom":8.0},"arcs":[[494],[495]]},{"type":"LineString","properties":{"kind":"major_road","network":null,"sort_rank":381,"kind_detail":"trunk","source":"openstreetmap.org","min_zoom":8.0,"landuse_kind":"residential","shield_text":"210","ref":"B 210","id":340395712},"arcs":[496]},{"type":"LineString","properties":{"source":"openstreetmap.org","kind":"ferry","name":"Dangaster Wattfahrwasser","sort_rank":355,"landuse_kind":"national_park","min_zoom":8.0,"id":480274421},"arcs":[497]},{"type":"LineString","properties":{"kind":"ferry","name":"Norddeich - Juist (90 Min.)","sort_rank":355,"is_bicycle_related":true,"source":"openstreetmap.org","min_zoom":8.0,"ref":"Norddeich - Juist (90)","id":-2782159,"osm_relation":true},"arcs":[498]},{"type":"LineString","properties":{"bus_network":"VEJ","sort_rank":377,"kind_detail":"tertiary","is_bicycle_related":true,"kind":"major_road","bicycle_shield_text":"EV12","bicycle_network":"icn","source":"openstreetmap.org","min_zoom":8.0,"bus_shield_text":"K1","cycleway":"track"},"arcs":[499]},{"type":"LineString","properties":{"kind":"ferry","name":"Norddeich - Norderney","sort_rank":355,"is_bicycle_related":true,"source":"openstreetmap.org","min_zoom":8.0,"ref":"Norddeich - Norderney","id":-288516,"osm_relation":true},"arcs":[500]},{"type":"MultiLineString","properties":{"kind":"minor_road","sort_rank":360,"kind_detail":"unclassified","is_bicycle_related":true,"bicycle_shield_text":"D1","bicycle_network":"ncn","source":"openstreetmap.org","min_zoom":8.0},"arcs":[[501],[502]]},{"type":"LineString","properties":{"kind":"minor_road","sort_rank":360,"kind_detail":"residential","is_bicycle_related":true,"bicycle_shield_text":"D1","bicycle_network":"ncn","source":"openstreetmap.org","min_zoom":8.0,"old_name":"Strandallee","id":30138849},"arcs":[503]},{"type":"LineString","properties":{"kind":"ferry","name":"Norddeich - Juist (120 Min.)","sort_rank":355,"landuse_kind":"national_park","is_bicycle_related":true,"source":"openstreetmap.org","min_zoom":8.0,"ref":"Norddeich - Juist (120)","id":-288515,"osm_relation":true},"arcs":[504]},{"type":"LineString","properties":{"kind":"ferry","sort_rank":355,"landuse_kind":"national_park","source":"openstreetmap.org","min_zoom":8.0,"ref":"Ne\u00dfmersiel - Baltrum","id":-310230,"osm_relation":true},"arcs":[505]},{"type":"MultiLineString","properties":{"kind":"minor_road","service":"driveway","sort_rank":356,"landuse_kind":"urban_area","is_bicycle_related":true,"bicycle_shield_text":"EV12","bicycle_network":"icn","source":"openstreetmap.org","min_zoom":8.0,"kind_detail":"service"},"arcs":[[506],[507]]},{"type":"LineString","properties":{"sort_rank":355,"landuse_kind":"protected_area","min_zoom":8.0,"kind":"ferry","source":"openstreetmap.org"},"arcs":[508]},{"type":"MultiLineString","properties":{"kind":"highway","network":"BAB","sort_rank":383,"landuse_kind":"urban_area","source":"openstreetmap.org","min_zoom":8.0,"all_networks":["BAB"],"kind_detail":"motorway","shield_text":"29","ref":"A 29","all_shield_texts":["29"]},"arcs":[[509],[510]]},{"type":"MultiLineString","properties":{"kind":"minor_road","sort_rank":358,"kind_detail":"service","is_bicycle_related":true,"bicycle_shield_text":"D1","bicycle_network":"ncn","source":"openstreetmap.org","min_zoom":8.0},"arcs":[[511],[512],[513]]},{"type":"MultiLineString","properties":{"kind":"major_road","sort_rank":377,"kind_detail":"tertiary","is_bicycle_related":true,"bicycle_shield_text":"EV12","bicycle_network":"icn","source":"openstreetmap.org","min_zoom":8.0},"arcs":[[514],[515]]},{"type":"LineString","properties":{"source":"openstreetmap.org","kind":"ferry","name":"Kaiserbalje Jade\/Weser","sort_rank":355,"min_zoom":8.0,"id":469732081},"arcs":[516]},{"type":"LineString","properties":{"kind":"ferry","name":"Emden-Borkum","sort_rank":355,"landuse_kind":"urban_area","is_bicycle_related":true,"source":"openstreetmap.org","min_zoom":8.0,"id":497189487},"arcs":[517]},{"type":"LineString","properties":{"kind":"major_road","network":null,"sort_rank":380,"kind_detail":"primary","bus_network":"MeinFernbus","source":"openstreetmap.org","min_zoom":8.0,"bus_shield_text":"MFB 019","shield_text":"210","ref":"B 210"},"arcs":[518]},{"type":"MultiLineString","properties":{"bus_network":"VEJ","network":null,"sort_rank":380,"kind_detail":"primary","kind":"major_road","source":"openstreetmap.org","min_zoom":8.0,"bus_shield_text":"111","shield_text":"436","ref":"B 436"},"arcs":[[519],[520],[521],[522]]},{"type":"LineString","properties":{"kind":"minor_road","sort_rank":360,"kind_detail":"unclassified","is_bicycle_related":true,"bicycle_shield_text":"EV12","bicycle_network":"icn","source":"openstreetmap.org","min_zoom":8.0,"landuse_kind":"residential","id":37135760},"arcs":[523]},{"type":"LineString","properties":{"kind":"major_road","network":"Kreisstra\u00dfen Aurich","sort_rank":377,"kind_detail":"tertiary","is_bicycle_related":true,"bicycle_shield_text":"EV12","bicycle_network":"icn","source":"openstreetmap.org","min_zoom":8.0,"shield_text":"221","ref":"K 221"},"arcs":[524]},{"type":"LineString","properties":{"kind":"major_road","network":null,"sort_rank":380,"kind_detail":"primary","is_bicycle_related":true,"bus_network":"Verkehrsverbund Ems-Jade","source":"openstreetmap.org","min_zoom":8.0,"bus_shield_text":"VEJ 221","shield_text":"437","ref":"B 437","id":213135112},"arcs":[525]},{"type":"LineString","properties":{"kind":"minor_road","sort_rank":360,"kind_detail":"unclassified","is_bicycle_related":true,"bicycle_shield_text":"EV12","bicycle_network":"icn","source":"openstreetmap.org","min_zoom":8.0,"old_name":"Strandallee","id":30138848},"arcs":[526]},{"type":"MultiLineString","properties":{"kind":"minor_road","sort_rank":360,"kind_detail":"unclassified","is_bicycle_related":true,"bicycle_shield_text":"EV12","bicycle_network":"icn","source":"openstreetmap.org","min_zoom":8.0,"landuse_kind":"urban_area"},"arcs":[[527],[528],[529]]},{"type":"MultiLineString","properties":{"source":"openstreetmap.org","kind":"ferry","name":"Wangerooge - Spiekeroog","sort_rank":355,"ref":"Wangerooge-Spiekeroog","min_zoom":8.0,"id":81161413},"arcs":[[530],[531]]},{"type":"LineString","properties":{"kind":"major_road","network":"Kreisstra\u00dfen Aurich","sort_rank":377,"kind_detail":"tertiary","is_bicycle_related":true,"bicycle_shield_text":"EV12","bicycle_network":"icn","source":"openstreetmap.org","min_zoom":8.0,"shield_text":"236","ref":"K 236","id":137409351},"arcs":[532]},{"type":"MultiLineString","properties":{"sort_rank":355,"source":"openstreetmap.org","min_zoom":8.0,"name":"helgoline","kind":"ferry"},"arcs":[[533],[534]]},{"type":"MultiLineString","properties":{"kind":"highway","network":"BAB","sort_rank":383,"kind_detail":"motorway","source":"openstreetmap.org","min_zoom":8.0,"all_networks":["BAB"],"shield_text":"29","ref":"A 29","all_shield_texts":["29"]},"arcs":[[535],[536],[537],[538],[539],[540],[541],[542]]},{"type":"LineString","properties":{"kind":"major_road","sort_rank":380,"kind_detail":"primary","bus_network":"VEJ","source":"openstreetmap.org","min_zoom":8.0,"bus_shield_text":"121","landuse_kind":"urban_area","ref":"B 210","id":26677946},"arcs":[543]},{"type":"LineString","properties":{"kind":"ferry","sort_rank":355,"landuse_kind":"national_park","is_bicycle_related":true,"source":"openstreetmap.org","min_zoom":8.0,"ref":"Harlesiel - Wangerooge (60 min)","id":-310232,"osm_relation":true},"arcs":[544]},{"type":"LineString","properties":{"bus_network":"VEJ","network":null,"sort_rank":380,"kind_detail":"primary","kind":"major_road","source":"openstreetmap.org","min_zoom":8.0,"bus_shield_text":"K1","shield_text":"461","ref":"B 461"},"arcs":[545]},{"type":"LineString","properties":{"source":"openstreetmap.org","kind":"ferry","name":"Vareler Wattfahrwasser","sort_rank":355,"landuse_kind":"national_park","min_zoom":8.0,"id":219439380},"arcs":[546]},{"type":"LineString","properties":{"kind":"ferry","name":"Emden - Borkum (120 min)","sort_rank":355,"source":"openstreetmap.org","min_zoom":8.0,"ref":"Emden - Borkum - 120","id":-6050545,"osm_relation":true},"arcs":[547]},{"type":"MultiLineString","properties":{"source":"openstreetmap.org","kind":"ferry","name":"B\u00fcsum-Helgoland","sort_rank":355,"landuse_kind":"nature_reserve","min_zoom":8.0},"arcs":[[548],[549]]},{"type":"LineString","properties":{"kind":"major_road","network":"Landesstra\u00dfen Niedersachsen","sort_rank":379,"kind_detail":"secondary","is_bicycle_related":true,"bicycle_shield_text":"EV12","bicycle_network":"icn","source":"openstreetmap.org","min_zoom":8.0,"shield_text":"855","cycleway":"track","ref":"L 855"},"arcs":[550]},{"type":"LineString","properties":{"source":"openstreetmap.org","kind":"ferry","name":"Kaiserbalje Jade\/Weser","sort_rank":355,"landuse_kind":"national_park","min_zoom":8.0,"id":469732081},"arcs":[551]},{"type":"LineString","properties":{"kind":"major_road","network":null,"sort_rank":380,"kind_detail":"primary","bus_network":"VEJ","source":"openstreetmap.org","min_zoom":8.0,"bus_shield_text":"410","shield_text":"210","landuse_kind":"residential","ref":"B 210","id":63048461},"arcs":[552]},{"type":"LineString","properties":{"kind":"major_road","network":"Kreisstra\u00dfen Friesland","sort_rank":377,"kind_detail":"tertiary","is_bicycle_related":true,"bicycle_shield_text":"EV12","bicycle_network":"icn","source":"openstreetmap.org","min_zoom":8.0,"shield_text":"93","ref":"K 93"},"arcs":[553]},{"type":"MultiLineString","properties":{"kind":"major_road","network":null,"sort_rank":380,"kind_detail":"primary","is_bicycle_related":true,"source":"openstreetmap.org","min_zoom":8.0,"shield_text":"437"},"arcs":[[554],[555],[556],[557],[558],[559]]},{"type":"LineString","properties":{"kind":"major_road","network":"Kreisstra\u00dfen Emden","sort_rank":377,"kind_detail":"tertiary","is_bicycle_related":true,"bicycle_shield_text":"EV12","bicycle_network":"icn","source":"openstreetmap.org","min_zoom":8.0,"shield_text":"37","ref":"K 37","id":37053278},"arcs":[560]},{"type":"MultiLineString","properties":{"kind":"highway","network":"BAB","sort_rank":383,"landuse_kind":"urban_area","source":"openstreetmap.org","min_zoom":8.0,"all_networks":["BAB"],"kind_detail":"motorway","shield_text":"31","ref":"A 31","all_shield_texts":["31"]},"arcs":[[561],[562],[563],[564],[565],[566],[567],[568],[569],[570],[571],[572]]},{"type":"LineString","properties":{"kind":"major_road","network":null,"sort_rank":380,"kind_detail":"primary","is_bicycle_related":true,"bus_network":"VEJ","cycleway":"lane","source":"openstreetmap.org","min_zoom":8.0,"bus_shield_text":"467","shield_text":"436","ref":"B 436","id":132410088},"arcs":[573]},{"type":"MultiLineString","properties":{"kind":"major_road","network":null,"sort_rank":380,"kind_detail":"primary","source":"openstreetmap.org","min_zoom":8.0,"shield_text":"210","ref":"B 210"},"arcs":[[574],[575],[576]]},{"type":"LineString","properties":{"bus_network":"Verkehrsverbund Ems-Jade","network":null,"sort_rank":380,"kind_detail":"primary","is_bicycle_related":true,"kind":"major_road","bicycle_shield_text":"EV12","bicycle_network":"icn","source":"openstreetmap.org","min_zoom":8.0,"bus_shield_text":"VEJ 256","shield_text":"437","id":500781814},"arcs":[577]},{"type":"LineString","properties":{"kind":"major_road","network":null,"sort_rank":381,"kind_detail":"trunk","bus_network":"MeinFernbus","source":"openstreetmap.org","min_zoom":8.0,"bus_shield_text":"MFB 019","shield_text":"210","ref":"B 210"},"arcs":[578]},{"type":"MultiLineString","properties":{"bus_network":"VEJ","network":null,"sort_rank":380,"kind_detail":"primary","kind":"major_road","source":"openstreetmap.org","min_zoom":8.0,"bus_shield_text":"410","shield_text":"72","ref":"B 72;B 210"},"arcs":[[579],[580],[581],[582],[583]]},{"type":"MultiLineString","properties":{"kind":"path","sort_rank":354,"kind_detail":"path","is_bicycle_related":true,"bicycle_shield_text":"EV12","bicycle_network":"icn","source":"openstreetmap.org","min_zoom":8.0},"arcs":[[584],[585],[586],[587],[588],[589],[590],[591],[592],[593],[594],[595],[596],[597],[598],[599],[600],[601],[602],[603],[604],[605],[606],[607],[608],[609]]},{"type":"LineString","properties":{"kind":"ferry","name":"Neuharlingersiel - Spiekeroog","sort_rank":355,"landuse_kind":"national_park","is_bicycle_related":true,"source":"openstreetmap.org","min_zoom":8.0,"ref":"Spiekeroog-Neuharlingersiel","id":271761215},"arcs":[610]},{"type":"LineString","properties":{"kind":"ferry","name":"Wangerooge - Spiekeroog","sort_rank":355,"landuse_kind":"national_park","source":"openstreetmap.org","min_zoom":8.0,"ref":"Wangerooge-Spiekeroog","id":81161413},"arcs":[611]},{"type":"LineString","properties":{"source":"openstreetmap.org","kind":"ferry","name":"Telegraphenbalje","sort_rank":355,"landuse_kind":"national_park","min_zoom":8.0,"id":464556740},"arcs":[612]},{"type":"MultiLineString","properties":{"bus_network":"Verkehrsverbund Ems-Jade","network":null,"sort_rank":380,"kind_detail":"primary","is_bicycle_related":true,"kind":"major_road","source":"openstreetmap.org","min_zoom":8.0,"bus_shield_text":"VEJ 256","shield_text":"437"},"arcs":[[613],[614],[615],[616],[617],[618],[619]]},{"type":"MultiLineString","properties":{"sort_rank":355,"source":"openstreetmap.org","min_zoom":8.0,"name":"Cuxhaven-Helgoland","kind":"ferry"},"arcs":[[620],[621]]},{"type":"LineString","properties":{"kind":"ferry","name":"Ditzum-Emden-Delfzijl (Ditzum-Emden)","sort_rank":355,"is_bicycle_related":true,"source":"openstreetmap.org","min_zoom":8.0,"ref":"Ditzum - Emden","id":-7120586,"osm_relation":true},"arcs":[622]},{"type":"LineString","properties":{"kind":"major_road","network":null,"sort_rank":381,"kind_detail":"trunk","source":"openstreetmap.org","min_zoom":8.0,"shield_text":"437","ref":"B 437"},"arcs":[623]},{"type":"LineString","properties":{"kind":"minor_road","sort_rank":360,"kind_detail":"living_street","is_bicycle_related":true,"bicycle_shield_text":"EV12","bicycle_network":"icn","source":"openstreetmap.org","min_zoom":8.0},"arcs":[624]},{"type":"LineString","properties":{"kind":"major_road","sort_rank":380,"kind_detail":"primary","bus_network":"VEJ","source":"openstreetmap.org","min_zoom":8.0,"bus_shield_text":"4","landuse_kind":"urban_area","ref":"B 210","id":26677956},"arcs":[625]},{"type":"LineString","properties":{"kind":"ferry","name":"Emden - Borkum Katamaran (60 min)","sort_rank":355,"source":"openstreetmap.org","min_zoom":8.0,"ref":"Emden - Borkum - 60","id":-6050546,"osm_relation":true},"arcs":[626]},{"type":"MultiLineString","properties":{"kind":"minor_road","sort_rank":360,"kind_detail":"unclassified","is_bicycle_related":true,"bicycle_shield_text":"EV12","bicycle_network":"icn","source":"openstreetmap.org","min_zoom":8.0,"landuse_kind":"national_park"},"arcs":[[627],[628],[629]]},{"type":"LineString","properties":{"bus_network":"VEJ","sort_rank":380,"kind_detail":"primary","kind":"major_road","source":"openstreetmap.org","min_zoom":8.0,"bus_shield_text":"111","ref":"B 436"},"arcs":[630]},{"type":"LineString","properties":{"kind":"major_road","network":null,"sort_rank":380,"kind_detail":"primary","bus_network":"Verkehrsverbund Ems-Jade","source":"openstreetmap.org","min_zoom":8.0,"bus_shield_text":"VEJ 256","shield_text":"437","ref":"B 437","id":88903937},"arcs":[631]},{"type":"MultiLineString","properties":{"kind":"minor_road","sort_rank":358,"kind_detail":"service","is_bicycle_related":true,"bicycle_shield_text":"EV12","bicycle_network":"icn","source":"openstreetmap.org","min_zoom":8.0},"arcs":[[632],[633],[634],[635],[636],[637],[638],[639],[640],[641],[642],[643],[644],[645]]},{"type":"LineString","properties":{"kind":"path","sort_rank":354,"landuse_kind":"national_park","is_bicycle_related":true,"bicycle_shield_text":"EV12","bicycle_network":"icn","source":"openstreetmap.org","min_zoom":8.0,"kind_detail":"track"},"arcs":[646]},{"type":"LineString","properties":{"source":"openstreetmap.org","kind":"ferry","name":"Emden-Borkum","sort_rank":355,"is_bicycle_related":true,"min_zoom":8.0,"id":497189487},"arcs":[647]},{"type":"MultiLineString","properties":{"source":"openstreetmap.org","kind":"ferry","name":"Busetief","sort_rank":355,"landuse_kind":"national_park","min_zoom":8.0},"arcs":[[648],[649],[650],[651],[652],[653]]},{"type":"LineString","properties":{"kind":"minor_road","sort_rank":360,"landuse_kind":"urban_area","is_bicycle_related":true,"bicycle_shield_text":"EV12","cycleway":"track","source":"openstreetmap.org","min_zoom":8.0,"kind_detail":"residential","bicycle_network":"icn"},"arcs":[654]},{"type":"LineString","properties":{"kind":"major_road","network":"Landesstra\u00dfen Niedersachsen","sort_rank":381,"kind_detail":"trunk","bus_network":"MeinFernbus","source":"openstreetmap.org","min_zoom":8.0,"bus_shield_text":"MFB 019","shield_text":"810","ref":"L 810"},"arcs":[655]},{"type":"LineString","properties":{"sort_rank":355,"source":"openstreetmap.org","min_zoom":8.0,"name":"Bremerhaven-Helgoland","kind":"ferry"},"arcs":[656]},{"type":"LineString","properties":{"kind":"ferry","name":"Norddeich - Juist (100 Min.)","sort_rank":355,"landuse_kind":"national_park","is_bicycle_related":true,"source":"openstreetmap.org","min_zoom":8.0,"ref":"Norddeich - Juist (100)","id":-288514,"osm_relation":true},"arcs":[657]},{"type":"MultiLineString","properties":{"bus_network":"VEJ","network":null,"sort_rank":380,"kind_detail":"primary","kind":"major_road","source":"openstreetmap.org","min_zoom":8.0,"bus_shield_text":"410","shield_text":"210","ref":"B 210"},"arcs":[[658],[659],[660],[661]]},{"type":"MultiLineString","properties":{"kind":"minor_road","sort_rank":358,"landuse_kind":"urban_area","is_bicycle_related":true,"bicycle_shield_text":"EV12","bicycle_network":"icn","source":"openstreetmap.org","min_zoom":8.0,"kind_detail":"service"},"arcs":[[662],[663],[664]]},{"type":"LineString","properties":{"kind":"major_road","network":"Kreisstra\u00dfen Wesermarsch","sort_rank":377,"kind_detail":"tertiary","is_bicycle_related":true,"bicycle_shield_text":"EV12","bicycle_network":"icn","source":"openstreetmap.org","min_zoom":8.0,"old_name":"Butjadinger Stra\u00dfe","shield_text":"184","ref":"K 184","id":38928770},"arcs":[665]},{"type":"MultiLineString","properties":{"bus_network":"VEJ","network":null,"sort_rank":380,"kind_detail":"primary","kind":"major_road","source":"openstreetmap.org","min_zoom":8.0,"bus_shield_text":"411","shield_text":"72","ref":"B 72"},"arcs":[[666],[667],[668]]},{"type":"LineString","properties":{"bus_network":null,"sort_rank":354,"kind_detail":"pedestrian","is_bicycle_related":true,"kind":"path","bicycle_shield_text":"EV12","bicycle_network":"icn","source":"openstreetmap.org","min_zoom":8.0,"bus_shield_text":"Nordsee-Express"},"arcs":[669]},{"type":"LineString","properties":{"kind":"major_road","network":"Kreisstra\u00dfen Friesland","sort_rank":377,"kind_detail":"tertiary","is_bicycle_related":true,"bicycle_shield_text":"EV12","bicycle_network":"icn","source":"openstreetmap.org","min_zoom":8.0,"shield_text":"109","ref":"K 109"},"arcs":[670]},{"type":"LineString","properties":{"kind":"ferry","name":"Ditzum-Emden-Delfzijl (Emden-Delfzijl)","sort_rank":355,"landuse_kind":"protected_area","is_bicycle_related":true,"source":"openstreetmap.org","min_zoom":8.0,"ref":"Emden - Delfzijl","id":-1648289,"osm_relation":true},"arcs":[671]},{"type":"LineString","properties":{"kind":"major_road","network":null,"sort_rank":380,"kind_detail":"primary","is_bicycle_related":true,"bicycle_shield_text":"2","bicycle_network":"lcn","source":"openstreetmap.org","min_zoom":8.0,"shield_text":"436","ref":"B 436","id":384122031},"arcs":[672]},{"type":"MultiLineString","properties":{"kind":"major_road","network":null,"sort_rank":381,"kind_detail":"trunk","source":"openstreetmap.org","min_zoom":8.0,"shield_text":"210","ref":"B 210"},"arcs":[[673],[674],[675],[676],[677]]},{"type":"MultiLineString","properties":{"sort_rank":355,"source":"openstreetmap.org","min_zoom":8.0,"kind":"ferry"},"arcs":[[678],[679],[680]]},{"type":"MultiLineString","properties":{"source":"openstreetmap.org","kind":"major_road","landuse_kind":"urban_area","sort_rank":380,"kind_detail":"primary","ref":"B 210","min_zoom":8.0},"arcs":[[681],[682]]},{"type":"MultiLineString","properties":{"bus_network":"VEJ","network":null,"sort_rank":380,"kind_detail":"primary","kind":"major_road","source":"openstreetmap.org","min_zoom":8.0,"bus_shield_text":"467","shield_text":"436","ref":"B 436"},"arcs":[[683],[684]]},{"type":"LineString","properties":{"bus_network":"VEJ","network":null,"sort_rank":380,"kind_detail":"primary","kind":"major_road","source":"openstreetmap.org","min_zoom":8.0,"bus_shield_text":"410","shield_text":"72","ref":"B 72"},"arcs":[685]},{"type":"MultiLineString","properties":{"kind":"ferry","sort_rank":355,"is_bicycle_related":true,"source":"openstreetmap.org","min_zoom":8.0,"ref":"Harlesiel - Wangerooge (60 min)","id":-310232,"osm_relation":true},"arcs":[[686],[687]]},{"type":"MultiLineString","properties":{"kind":"path","sort_rank":354,"landuse_kind":"urban_area","is_bicycle_related":true,"bicycle_shield_text":"EV12","bicycle_network":"icn","source":"openstreetmap.org","min_zoom":8.0,"kind_detail":"cycleway"},"arcs":[[688],[689],[690],[691],[692],[693]]},{"type":"MultiLineString","properties":{"kind":"minor_road","sort_rank":360,"kind_detail":"residential","is_bicycle_related":true,"bicycle_shield_text":"EV12","bicycle_network":"icn","source":"openstreetmap.org","min_zoom":8.0,"landuse_kind":"residential"},"arcs":[[694],[695],[696],[697]]},{"type":"LineString","properties":{"kind":"ferry","name":"Pers. u. Fahrradf\u00e4hre Wilhelmshaven-Eckwarderh\u00f6rne","sort_rank":355,"landuse_kind":"national_park","is_bicycle_related":true,"source":"openstreetmap.org","min_zoom":8.0,"id":24824476},"arcs":[698]},{"type":"LineString","properties":{"kind":"major_road","network":"Landesstra\u00dfen Niedersachsen","sort_rank":379,"kind_detail":"secondary","is_bicycle_related":true,"bicycle_shield_text":"EV12","bicycle_network":"icn","source":"openstreetmap.org","min_zoom":8.0,"landuse_kind":"residential","shield_text":"27","ref":"L 27","id":221396296},"arcs":[699]},{"type":"MultiLineString","properties":{"bus_network":"Verkehrsverbund Ems-Jade","network":null,"sort_rank":380,"kind_detail":"primary","kind":"major_road","source":"openstreetmap.org","min_zoom":8.0,"bus_shield_text":"VEJ 256","shield_text":"436","ref":"B 436"},"arcs":[[700],[701],[702]]},{"type":"MultiLineString","properties":{"source":"openstreetmap.org","kind":"major_road","network":null,"sort_rank":380,"kind_detail":"primary","min_zoom":8.0,"shield_text":"461"},"arcs":[[703],[704]]},{"type":"LineString","properties":{"kind":"path","sort_rank":354,"kind_detail":"cycleway","is_bicycle_related":true,"bicycle_shield_text":"EV12","bicycle_network":"icn","source":"openstreetmap.org","min_zoom":8.0,"landuse_kind":"national_park","id":37533608},"arcs":[705]},{"type":"LineString","properties":{"kind":"path","sort_rank":354,"kind_detail":"cycleway","is_bicycle_related":true,"bicycle_shield_text":"D1","bicycle_network":"ncn","source":"openstreetmap.org","min_zoom":8.0,"id":499039643},"arcs":[706]},{"type":"MultiLineString","properties":{"kind":"highway","network":"BAB","sort_rank":383,"kind_detail":"motorway","source":"openstreetmap.org","min_zoom":8.0,"all_networks":["BAB"],"shield_text":"31","ref":"A 31","all_shield_texts":["31"]},"arcs":[[707],[708],[709],[710],[711],[712],[713],[714]]},{"type":"LineString","properties":{"kind":"ferry","name":"Emden - Borkum Katamaran (60 min)","sort_rank":355,"landuse_kind":"urban_area","source":"openstreetmap.org","min_zoom":8.0,"ref":"Emden - Borkum - 60","id":-6050546,"osm_relation":true},"arcs":[715]},{"type":"LineString","properties":{"kind":"major_road","network":null,"sort_rank":380,"kind_detail":"primary","source":"openstreetmap.org","min_zoom":8.0,"shield_text":"437","id":234070558},"arcs":[716]},{"type":"LineString","properties":{"bus_network":"VEJ","network":null,"sort_rank":380,"kind_detail":"primary","is_bicycle_related":true,"kind":"major_road","cycleway":"lane","source":"openstreetmap.org","min_zoom":8.0,"bus_shield_text":"111","shield_text":"436","ref":"B 436"},"arcs":[717]},{"type":"LineString","properties":{"kind":"major_road","sort_rank":380,"kind_detail":"primary","is_bicycle_related":true,"bus_network":"VEJ","bicycle_shield_text":"Seer\u00e4uber","bicycle_network":"rcn","source":"openstreetmap.org","min_zoom":8.0,"bus_shield_text":"460","landuse_kind":"residential","ref":"B 210","id":41476100},"arcs":[718]},{"type":"LineString","properties":{"kind":"minor_road","sort_rank":360,"kind_detail":"residential","is_bicycle_related":true,"bicycle_shield_text":"EV12","bicycle_network":"icn","source":"openstreetmap.org","min_zoom":8.0,"old_name":"Friesenstra\u00dfe","landuse_kind":"national_park","id":28005739},"arcs":[719]},{"type":"LineString","properties":{"kind":"ferry","name":"Emden-Borkum","sort_rank":355,"landuse_kind":"protected_area","is_bicycle_related":true,"source":"openstreetmap.org","min_zoom":8.0,"id":497189487},"arcs":[720]}]},"earth":{"type":"GeometryCollection","geometries":[{"type":"MultiPolygon","properties":{"sort_rank":10,"source":"naturalearthdata.com","min_zoom":0.0,"kind":"earth","area":60231411961},"arcs":[[[721]],[[722]],[[723]],[[724]],[[725]],[[726]],[[727]],[[728]]]}]},"landuse":{"type":"GeometryCollection","geometries":[{"type":"MultiPolygon","properties":{"kind":"national_park","protect_class":"2","area":607360699,"sort_rank":18,"source":"openstreetmap.org","min_zoom":3.0,"tier":1,"osm_relation":true},"arcs":[[[729]],[[730]]]},{"type":"MultiPolygon","properties":{"source":"openstreetmap.org","kind":"residential","tier":2,"area":149134758,"sort_rank":20,"min_zoom":8.0,"osm_relation":true},"arcs":[[[731]],[[732],[733],[734],[735],[736],[737],[738],[739],[740]],[[741],[742],[743]]]},{"type":"Polygon","properties":{"kind":"protected_area","natural":"yes","protect_class":"98","area":8128379904,"sort_rank":17,"source":"openstreetmap.org","min_zoom":4.0,"tier":2,"id":-5909370,"osm_relation":true},"arcs":[[744]]},{"type":"MultiPolygon","properties":{"kind":"national_park","natural":"yes","protect_class":"2","area":9040051799,"sort_rank":18,"source":"openstreetmap.org","min_zoom":3.0,"tier":1,"osm_relation":true},"arcs":[[[745],[746],[747],[748],[749],[750],[751],[752],[753],[754],[755],[756],[757],[758],[759],[760],[761],[762],[763],[764],[765],[766],[767],[768],[769],[770]],[[771]],[[772]]]},{"type":"MultiPolygon","properties":{"source":"openstreetmap.org","kind":"military","tier":3,"area":563617559,"sort_rank":45,"min_zoom":8.0},"arcs":[[[773]],[[774]]]},{"type":"MultiPolygon","properties":{"source":"naturalearthdata.com","kind":"urban_area","name":"","area":3544747438,"sort_rank":11,"min_zoom":4.0},"arcs":[[[775]],[[776]],[[777]]]},{"type":"Polygon","properties":{"kind":"nature_reserve","natural":"mud","protect_class":"4","area":34882500,"sort_rank":23,"source":"openstreetmap.org","min_zoom":8.0,"tier":2,"id":-1111314,"osm_relation":true},"arcs":[[778],[779]]},{"type":"MultiPolygon","properties":{"source":"openstreetmap.org","kind":"residential","tier":2,"area":564945545,"sort_rank":20,"min_zoom":8.0},"arcs":[[[780]],[[781]]]},{"type":"MultiPolygon","properties":{"kind":"nature_reserve","protect_class":"4","area":64811437,"sort_rank":23,"source":"openstreetmap.org","min_zoom":8.0,"tier":2,"osm_relation":true},"arcs":[[[782]],[[783]]]}]}},"type":"Topology","transform":{"translate":[7.03125,53.330872983],"scale":[0.0003433228,0.0002030178]},"arcs":[[[456,0],[-1,6],[-46,5],[-176,-6],[-18,-5]],[[1440,4096],[73,-242],[178,-285],[152,-170],[187,-132],[-88,-49],[-231,-32],[-250,-85],[-228,-7],[-216,-39],[-347,-122],[-434,-34],[-236,-91]],[[3128,3419],[968,-651]],[[4096,3296],[-125,136]],[[3971,3432],[-843,-13]],[[3128,3419],[-697,-11],[-401,-141]],[[4096,3434],[-125,-2]],[[2030,3267],[-88,-49],[-231,-32],[-250,-85],[-228,-7],[-216,-39],[-347,-122],[-434,-34],[-236,-91]],[[1440,4096],[73,-242],[178,-285],[152,-170],[187,-132]],[[370,1452],[2,-13],[1,-2]],[[908,0],[-236,54],[-193,114],[70,272],[235,269],[14,47],[-82,163],[-52,50],[-39,152],[-84,173],[-171,158]],[[377,1432],[8,-7]],[[478,202],[-1,-4],[0,-13],[1,17]],[[547,1267],[8,-9],[-9,9],[1,0]],[[370,1452],[3,-15]],[[370,1452],[171,-158],[84,-173],[39,-152],[52,-50],[82,-163],[-14,-47],[-235,-269],[-70,-272],[193,-114],[228,-54]],[[377,1432],[8,-7]],[[478,202],[-1,-4],[0,-13],[1,17]],[[547,1267],[8,-9],[-9,9],[1,0]],[[478,203],[14,-56],[-48,-94]],[[2433,2182],[25,75],[70,-6]],[[542,1281],[89,81],[104,2],[446,177]],[[907,0],[-244,57],[-178,104],[-6,38]],[[479,196],[-1,-8],[0,-3],[1,3],[0,8]],[[370,1452],[2,-13],[1,-2]],[[370,1452],[171,-158],[84,-173],[39,-152],[52,-50],[82,-163],[-14,-47],[-235,-269],[-70,-272],[193,-114],[227,-54]],[[377,1432],[8,-7]],[[478,202],[-1,-4],[0,-13],[1,17]],[[547,1267],[8,-9],[-9,9],[1,0]],[[370,1452],[3,-15]],[[370,1452],[171,-158],[84,-173],[39,-152],[11,-16],[41,-34],[82,-163],[-14,-47],[-235,-269],[-70,-272],[193,-114],[228,-54]],[[377,1432],[8,-7]],[[694,939],[5,-4]],[[478,202],[-1,-4],[0,-13],[1,17]],[[547,1267],[8,-9],[-9,9],[1,0]],[[370,1452],[2,-13],[1,-2]],[[370,1452],[171,-158],[84,-173],[39,-152],[52,-50],[82,-163],[-14,-47],[-235,-269],[-70,-272],[193,-114],[227,-54]],[[377,1432],[8,-7]],[[699,935],[-5,4]],[[478,202],[-1,-4],[0,-13],[1,17]],[[547,1267],[8,-9],[-9,9],[1,0]],[[370,1452],[3,-15]],[[370,1452],[171,-158],[84,-173],[39,-152],[52,-50],[82,-163],[-14,-47],[-235,-269],[-70,-272],[193,-114],[228,-54]],[[377,1432],[8,-7]],[[478,202],[-1,-4],[0,-13],[1,17]],[[547,1267],[8,-9],[-9,9],[1,0]],[[478,203],[14,-56],[-47,-92]],[[479,199],[7,-39],[186,-106],[231,-54]],[[479,196],[-1,-8],[0,-3],[1,3],[0,8]],[[3347,0],[19,173],[-31,76],[-90,102],[-278,150],[-52,218],[0,87],[52,88],[192,31]],[[1325,2045],[23,-98]],[[3159,926],[-189,-29],[-54,-88],[-2,-85],[53,-223],[278,-150],[90,-102],[31,-76],[-20,-173]],[[3332,0],[34,173],[-31,76],[-90,102],[-278,150],[-52,218],[0,87],[53,89],[191,31]],[[2914,787],[0,-9],[-1,9],[1,0]],[[3159,926],[-5,0],[5,0]],[[370,1452],[3,-15]],[[370,1452],[171,-158],[84,-173],[39,-152],[52,-50],[82,-163],[-14,-47],[-235,-269],[-70,-272],[193,-114],[227,-54]],[[377,1432],[8,-7]],[[478,202],[-1,-4],[0,-13],[1,17]],[[547,1267],[8,-9],[-9,9],[1,0]],[[370,1452],[3,-15]],[[370,1452],[171,-158],[84,-173],[39,-152],[52,-50],[82,-163],[-14,-47],[-235,-269],[-70,-272],[193,-114],[235,-54]],[[377,1432],[8,-7]],[[478,202],[-1,-4],[0,-13],[1,17]],[[547,1267],[8,-9],[-9,9],[1,0]],[[2466,2258],[-71,0]],[[2395,2258],[-14,-7]],[[2395,2258],[-4,-2]],[[3159,925],[-22,3],[-9,0],[-123,-16],[-38,-18],[-52,-88],[0,-87],[52,-218],[278,-150],[90,-102],[31,-76],[-34,-173]],[[2914,789],[0,-10],[0,10]],[[3159,925],[-14,1],[0,1],[14,-2]],[[1700,1505],[537,-294],[144,12],[138,-56],[299,-232],[96,-134]],[[1701,1505],[4,-1]],[[2514,1170],[-5,2]],[[2914,801],[67,104],[24,8],[122,16],[19,-2]],[[2914,801],[0,-1]],[[2914,800],[0,-2]],[[2914,798],[0,-2]],[[2914,796],[0,-4]],[[2914,792]],[[2914,792],[0,-8]],[[3143,927],[16,-2]],[[1980,1358],[3,-2],[-3,2]],[[2205,1227],[4,-2],[-4,2]],[[2664,1042],[4,-3],[-4,3]],[[2914,787],[0,-9],[-1,9],[1,0]],[[3159,925],[-14,1],[0,1],[14,-2]],[[4096,1147],[-27,5],[-118,61],[-36,48],[-35,67],[-43,61],[-56,26],[-122,-6],[-49,-20],[-39,-42],[-24,-69],[-21,-168],[-25,-81],[-6,-72],[61,-10],[115,31],[84,-100],[-15,-168],[-65,-170],[-62,-103],[-36,-36],[-31,-19],[-35,-8],[-49,-2],[-42,21],[-31,47],[-24,46],[-23,21],[-21,14],[-56,65],[-34,19],[-49,2],[-33,-15],[-37,-18],[-39,43],[-27,62],[-53,164],[51,32],[115,11],[52,27],[63,48],[28,46],[9,88],[-33,52],[-64,18],[-45,22],[24,63],[0,30],[-97,69],[-120,155],[-82,179],[19,138],[0,37],[-233,68],[-874,-123],[-429,-90],[-69,17],[-31,43],[-32,21],[-448,-51],[-230,-90],[-108,-113],[-56,-40],[-106,-119],[-94,-66],[-41,-54],[6,-65],[38,-39],[85,-43],[26,-36],[5,-62],[-21,-48],[-28,-15],[-16,-40],[-117,26],[-57,1],[-24,-45],[-13,-73],[-46,-122],[0,1036],[158,18],[-112,35],[-46,-6],[0,2313],[4096,0],[0,-2949]],[[2411,2266],[-13,-31],[56,-41],[4,60],[53,2],[122,-28],[32,4],[27,-5],[-77,47],[-44,14],[-47,5],[-61,-8],[-52,-19]],[[2277,2228],[-247,17],[-122,-28],[-74,-93],[23,-21],[24,0],[26,20],[26,38],[72,-48],[83,5],[82,35],[65,41],[42,0],[0,34]],[[1734,2090],[-58,37],[-260,-3],[-89,-3],[-36,-23],[-14,-56],[10,-67],[26,-23],[85,4],[8,86],[98,25],[213,-7],[7,4],[8,0],[4,5],[-2,21]],[[3208,1986],[-36,-64],[0,-33],[30,20],[18,-2],[16,-12],[25,-6],[14,10],[47,45],[29,12],[42,0],[-62,44],[-66,11],[-57,-25]],[[1168,1937],[10,19],[-38,31],[-56,12],[-59,-9],[-48,-34],[42,3],[117,-37],[23,7],[9,8]],[[770,1872],[136,55],[8,0],[5,6],[-2,23],[-330,7],[-157,-26],[-133,-79],[118,-33],[355,47]],[[0,153],[20,-66],[108,-54],[663,-24],[25,-9],[-816,0],[0,153]],[[816,0],[-25,9],[-663,24],[-108,54],[-20,66]],[[0,700],[46,122],[13,73],[24,45],[57,-1],[117,-26],[16,40],[28,15],[21,48],[-5,62],[-26,36],[-85,43],[-38,39],[-6,65],[41,54],[94,66],[106,119],[56,40],[108,113],[230,90],[448,51],[32,-21],[31,-43],[69,-17],[429,90],[874,123],[233,-68],[0,-37],[-19,-138],[82,-179],[120,-155],[97,-69],[0,-30],[-24,-63],[45,-22],[64,-18],[33,-52],[-9,-88],[-28,-46],[-63,-48],[-52,-27],[-115,-11],[-51,-32],[53,-164],[27,-62],[39,-43],[37,18],[33,15],[49,-2],[34,-19],[56,-65],[21,-14],[23,-21],[24,-46],[31,-47],[42,-21],[49,2],[35,8],[31,19],[36,36],[62,103],[65,170],[15,168],[-84,100],[-115,-31],[-61,10],[6,72],[25,81],[21,168],[24,69],[39,42],[49,20],[122,6],[56,-26],[43,-61],[35,-67],[36,-48],[118,-61],[27,-5]],[[297,1858],[118,-33],[355,47],[136,55],[8,0],[5,6],[-2,23],[-330,7],[-157,-26],[-133,-79]],[[3172,1922],[0,-33],[30,20],[18,-2],[16,-12],[25,-6],[14,10],[47,45],[29,12],[42,0],[-62,44],[-66,11],[-57,-25],[-36,-64]],[[2454,2194],[4,60],[53,2],[122,-28],[32,4],[27,-5],[-77,47],[-44,14],[-47,5],[-61,-8],[-52,-19],[-13,-31],[56,-41]],[[0,1736],[158,18],[-112,35],[-46,-6]],[[977,1956],[42,3],[117,-37],[23,7],[9,8],[10,19],[-38,31],[-56,12],[-59,-9],[-48,-34]],[[1416,2124],[-89,-3],[-36,-23],[-14,-56],[10,-67],[26,-23],[85,4],[8,86],[98,25],[213,-7],[7,4],[8,0],[4,5],[-2,21],[-58,37],[-260,-3]],[[1834,2124],[23,-21],[24,0],[26,20],[26,38],[72,-48],[83,5],[82,35],[65,41],[42,0],[0,34],[-247,17],[-122,-28],[-74,-93]],[[2420,1558],[0,-1]],[[3092,977],[0,-2]],[[2981,2089],[110,56],[46,86],[-11,44],[-251,256]],[[2265,1774],[-27,-30]],[[3955,1185],[-44,53]],[[4096,1122],[-47,21]],[[2895,934],[8,5]],[[3060,970],[-36,-4]],[[1124,706],[-121,20]],[[1294,685],[8,4]],[[1302,689],[10,8]],[[1316,698],[-4,-1]],[[1312,697],[4,0]],[[249,5],[-20,-5]],[[1584,1691],[2,0]],[[2259,1775],[-1,10]],[[2237,1745],[-1,-1],[1,-1],[1,1],[-1,1]],[[333,1375],[3,2]],[[1319,704],[-3,-6]],[[3193,328],[20,-12]],[[450,1394],[1,1],[-1,1],[0,-1],[0,-1]],[[0,1580],[4,0]],[[293,1803],[95,-1]],[[368,1467],[-38,119],[-26,3]],[[3093,974],[-18,-2]],[[3075,972],[16,2]],[[2454,1233],[-6,-2]],[[2741,1038],[64,-63]],[[1693,1575],[1,-2]],[[2191,1255],[-1,-1]],[[2191,1254],[0,1]],[[2191,1255],[37,98],[-19,284],[28,106]],[[2191,1253],[40,-7]],[[2232,1245],[9,-23]],[[2234,1208],[7,13]],[[2231,1246],[0,-1],[1,1],[-1,0]],[[1378,1948],[-26,-4]],[[1938,2142],[-6,-16]],[[215,108],[2,0]],[[2860,888],[-6,-2]],[[2961,908],[-2,0]],[[3136,564],[5,-5]],[[712,17],[-13,-16]],[[2433,1403]],[[712,18],[1,0]],[[1352,768],[-35,-70]],[[3160,923],[-2,-4]],[[3172,907],[9,-1]],[[2265,1775],[-1,0]],[[959,1746],[1,7]],[[967,1929],[4,3]],[[371,1434],[-1,-1]],[[2920,2041],[-22,-28],[-34,14],[-31,90],[-63,47],[5,86],[-76,46]],[[3237,304],[12,-4]],[[451,56],[-22,-34]],[[3342,912],[-9,51]],[[11,249],[-11,-15]],[[0,46],[58,5],[124,60]],[[33,282],[17,13]],[[60,493],[-21,-9]],[[87,631],[-5,-11]],[[86,754],[-1,-1]],[[107,518],[-17,-5]],[[145,873],[37,-33]],[[191,828],[32,14]],[[217,108],[20,2]],[[237,861],[21,-18]],[[291,102],[-27,-2]],[[317,1157],[38,45],[108,45]],[[318,813],[31,35],[-26,12]],[[321,813],[41,-59],[37,-12],[10,31],[51,-14]],[[336,1377],[12,21]],[[349,174],[-5,-2]],[[389,174],[-25,-3]],[[522,842],[6,-12]],[[694,892],[21,42],[-68,133]],[[681,50],[-13,2]],[[708,43],[-27,6]],[[712,18],[12,18]],[[1293,1711],[31,-3]],[[1650,1584],[44,-11]],[[1713,1666],[128,36],[45,-24]],[[2007,1808],[1,0]],[[2253,1847],[-8,-11]],[[2269,1847],[-8,10]],[[2312,1726],[-23,46]],[[2330,1621],[6,46]],[[2420,1558],[30,-1]],[[2433,1403],[21,18]],[[2543,1194],[5,6]],[[2548,1206],[17,14]],[[2732,781],[35,28]],[[2831,613],[-55,2]],[[2794,715],[-16,11]],[[2786,710],[6,4]],[[2823,821],[-10,19]],[[2880,1453],[20,14]],[[2906,1456],[-6,9]],[[2954,513],[-53,64]],[[2956,1340],[4,-66]],[[2961,908],[14,-23]],[[2971,511],[-7,1]],[[2979,523],[56,45],[50,-38]],[[2981,886]],[[3007,1249],[3,-11]],[[3141,559],[46,28]],[[3156,908],[0,5]],[[3215,912],[-2,-11]],[[3215,912],[1,-9]],[[3368,392],[-67,-22]],[[3303,291],[6,4]],[[3304,290],[2,-5]],[[3436,205],[74,64]],[[3514,1069],[-8,-90]],[[3582,315],[1,0]],[[236,5],[-18,-5]],[[3244,901],[65,26],[56,151],[98,-148]],[[364,1465],[-23,106],[-72,61],[-89,1],[-170,-64],[-10,9]],[[448,43],[-18,-21]],[[1401,852],[-49,-84]],[[483,1552],[54,33]],[[1437,1675],[28,4]],[[2166,1830],[14,1]],[[3191,589],[-3,1]],[[1565,331],[13,-27]],[[2681,292],[36,9]],[[2273,1869],[23,79],[126,130],[12,106]],[[223,842],[14,19]],[[959,1746],[1,7]],[[967,1929],[4,3]],[[448,43],[-8,-21]],[[3019,1929],[-45,142],[117,81],[44,73],[-10,48],[-260,275]],[[712,17],[1,1]],[[3181,965],[4,-4]],[[3187,963],[-1,0]],[[304,1589],[-35,43],[-16,116]],[[369,1467],[-28,106],[-71,59],[-15,109],[32,61],[101,0]],[[2771,1413],[4,4]],[[2050,411],[-2,-3]],[[30,105],[-30,47]],[[1,764],[57,74]],[[60,840],[85,33]],[[407,1310],[-74,65]],[[2798,652],[-22,5],[10,42]],[[2854,886],[-43,-27]],[[2928,894],[-68,-6]],[[2997,872],[-18,11]],[[3049,1143],[-30,6],[-9,68]],[[3368,392],[-123,172],[-54,25]],[[3306,285],[45,-18],[25,-74],[60,12]],[[3506,979],[0,-43]],[[3528,1189],[-14,-120]],[[3523,937],[204,17]],[[3582,315]],[[3633,1320]],[[3512,937],[-6,-1]],[[668,52],[-71,48]],[[724,39],[-16,4]],[[1569,1694],[-31,-9]],[[1586,1691],[64,-107]],[[1923,1801],[6,11]],[[1964,1816],[43,-9]],[[2261,1857],[-8,-10]],[[2324,1699],[-12,27]],[[2496,1532],[-42,-111]],[[2956,1340],[-40,97]],[[2916,1438],[1,4]],[[2960,1274],[6,-41]],[[3001,869],[8,-3]],[[3084,846],[87,29]],[[3736,1340],[23,22],[93,-58]],[[3842,667],[-51,42]],[[2258,1789],[11,58]],[[552,135],[54,36]],[[854,711],[-1,2]],[[853,711]],[[960,1753],[9,62],[-44,83],[42,31]],[[2259,1775],[6,0]],[[3920,3284],[-284,92]],[[1319,696],[3,-1]],[[1938,2142],[-5,-17]],[[1967,1833],[-1,-7]],[[236,5],[-18,-5]],[[369,1443],[-5,22]],[[600,1319],[0,1],[-1,0],[0,-1],[1,0]],[[359,997],[74,82],[79,-16]],[[2271,1861],[2,8]],[[2434,2184]],[[514,286],[11,51]],[[2401,519],[103,-114]],[[2525,379],[100,-87]],[[2626,292],[25,-5]],[[3510,268],[7,-1]],[[3630,274],[0,1]],[[3961,349],[6,0]],[[4030,358],[18,0]],[[2448,1231],[-227,-24]],[[4049,1143],[-94,42]],[[396,187],[3,2]],[[2356,594],[-26,-16]],[[2778,726],[-11,5]],[[3798,900],[-9,42]],[[2386,559],[10,-24]],[[344,172],[-5,-3]],[[364,171],[-15,3]],[[371,1434],[4,3]],[[1325,681],[-1,11],[-2,2]],[[1322,694],[-2,2],[-3,2]],[[1322,695],[0,-1]],[[1322,694],[2,-5],[0,-8],[1,0]],[[1325,681],[13,-35]],[[3249,348],[-2,-1]],[[1713,1666],[-20,-91]],[[3109,974],[40,-1]],[[3149,973],[-40,1]],[[3149,973],[37,-10]],[[1644,1017],[-107,-113],[-136,-52]],[[2389,582],[40,12]],[[3187,587],[1,3]],[[3178,337],[11,-5]],[[2359,2023],[55,69],[-76,83],[-128,231]],[[3099,994],[-6,-2]],[[3181,906],[8,-1]],[[450,1395],[-77,47]],[[1673,67],[2,-6]],[[2625,292],[1,0]],[[2849,277],[50,5]],[[2901,283],[29,6]],[[3143,328],[9,3]],[[3154,331],[7,3]],[[3263,292],[45,3]],[[3345,308],[165,-40]],[[3517,267],[60,-39],[53,46]],[[3630,275],[47,51],[284,23]],[[3967,349],[48,9]],[[4016,358],[14,0]],[[3824,3826],[-67,10],[-938,204],[-192,49]],[[3825,3828],[-1198,263]],[[1352,1944],[11,-11]],[[1576,1714],[4,-4]],[[1932,2126],[-24,-68],[-124,8],[-8,-48],[-69,-43],[-81,-4],[-60,-34],[-188,11]],[[3860,652],[-18,15]],[[265,1650],[-19,18],[-50,-20]],[[2378,579],[8,-20]],[[2396,535],[5,-16]],[[2651,287],[30,5]],[[237,110],[21,9]],[[363,1425]],[[1584,1691],[-15,3]],[[2900,1467],[0,-2]],[[3156,908],[16,-1]],[[3251,299],[2,-1],[0,1],[-2,1],[0,-1]],[[452,61],[-23,-39]],[[3247,347],[-2,-1]],[[3285,363],[-36,-15]],[[3213,316],[24,-12]],[[3591,1188],[-37,17]],[[1767,175],[3,6]],[[1770,182]],[[1775,189],[95,51],[158,147]],[[2635,601],[34,33]],[[1770,182],[-1,-1],[1,0],[0,1]],[[407,171],[-18,3]],[[432,198],[-14,-4]],[[494,198],[0,-8]],[[572,156],[-22,11]],[[588,167],[12,-7]],[[3163,995],[-7,1]],[[3160,923],[12,-1]],[[3176,946],[-1,-16]],[[3062,970],[-2,0]],[[3062,970],[13,2]],[[3075,972],[-13,-2]],[[3091,974],[18,0]],[[3109,974],[-16,0]],[[269,1632],[-89,1]],[[2719,719],[36,16]],[[3704,1345],[-9,19]],[[3251,300],[1,-1]],[[2258,1785],[0,4]],[[317,1157],[32,-69],[-21,-40]],[[346,1012],[13,-15]],[[1047,730],[66,-21]],[[854,711]],[[408,189],[-9,0]],[[432,198],[50,7]],[[539,177],[-8,26],[-37,-5]],[[494,190],[0,-2]],[[548,176],[-6,1]],[[597,149],[10,-9]],[[3052,1133],[10,-14]],[[3071,1073],[13,10]],[[3073,1061],[10,-27]],[[3093,992],[-6,22]],[[3158,964],[18,-18]],[[2717,301],[75,6],[57,-30]],[[2930,289],[107,-18]],[[3123,324],[-1,0]],[[3261,293],[2,-1]],[[3591,1196],[0,-8]],[[1363,1933],[213,-219]],[[430,22],[-64,-16]],[[3622,1268],[4,5]],[[3704,1345],[32,-5]],[[368,1465],[0,2]],[[328,1048],[18,-36]],[[663,866],[31,26]],[[2265,1775],[24,-3]],[[599,1320],[-84,73],[-64,2]],[[573,1247],[27,72]],[[648,1109],[-1,3]],[[696,975],[32,-52]],[[853,711],[1,0]],[[1320,696],[-1,0]],[[1320,696]],[[430,22],[18,21],[-8,-21]],[[2048,408],[-20,-21]],[[392,1451],[4,2]],[[514,279],[0,7]],[[1316,697],[3,-1]],[[1317,698],[-1,0]],[[1293,685],[1,0]],[[1302,689]],[[681,49],[0,1]],[[460,759],[0,1]],[[369,1443],[-5,22]],[[522,842],[95,40],[46,-16]],[[2792,714],[2,1]],[[1338,646],[51,-87],[108,-100],[68,-128]],[[1578,304],[95,-237]],[[1675,61],[-12,-61]],[[429,22],[-193,-17]],[[3915,3284],[-279,91]],[[182,840],[9,-12]],[[353,1408],[10,17]],[[3157,915],[-1,-2]],[[3194,904],[19,-3]],[[2865,2548],[-31,323],[-294,1225]],[[3065,1538],[43,17],[11,65],[-100,309]],[[364,1465],[-23,106],[-72,61],[-18,119],[-67,-115],[-152,-67],[-32,7]],[[180,1633],[-170,-64],[-9,-43],[-1,0]],[[253,1748],[-57,-100]],[[494,188],[-5,0]],[[369,1443],[-5,22]],[[39,484],[-39,2]],[[30,105],[-30,-34]],[[1,764],[84,-11]],[[59,839],[-1,-1]],[[87,631],[-3,23]],[[323,860],[-37,13],[-28,-30]],[[264,100],[-6,19]],[[336,153],[-34,-49]],[[321,813],[-3,0]],[[339,169],[5,-9]],[[375,1437],[1,1]],[[448,1527],[-69,-88]],[[407,1310],[7,-7]],[[528,830],[13,-42],[-27,-37],[-54,9]],[[597,100],[24,17]],[[724,36],[0,3]],[[943,1702],[84,9]],[[1257,1713],[36,-2]],[[2336,1667],[-12,32]],[[2420,1557],[-34,28],[-46,-16],[-10,52]],[[2450,1557],[46,-25]],[[2565,1220],[108,33],[45,63],[28,4]],[[2747,1326],[43,43],[-19,44]],[[2767,809],[56,12]],[[2775,1417],[95,27]],[[2776,615],[22,37]],[[2786,699],[4,7]],[[2813,840],[-2,19]],[[2891,567],[-60,46]],[[2872,1445],[8,8]],[[2917,1442],[-11,14]],[[2966,1233],[41,16]],[[2971,511],[8,12]],[[3010,1238],[0,-21]],[[3216,903],[-5,-13]],[[3215,912]],[[3303,291],[1,-1]],[[3528,1189],[12,29]],[[3633,1320],[-7,-47]],[[3633,1320],[14,35]],[[3789,942],[-62,12]],[[3830,620],[-48,-8],[-6,18]],[[3852,1304],[29,-30]],[[3911,1238],[-14,17]],[[3158,919],[-1,-4]],[[3189,905],[5,-1]],[[4096,3788],[-272,38]],[[4096,3789],[-271,39]],[[2707,1082],[0,1]],[[3138,571],[0,69],[80,67],[54,180]],[[369,1443],[-5,22]],[[1929,1812],[35,4]],[[372,1453],[-3,14]],[[376,1438],[13,11]],[[2971,511],[0,1]],[[3554,1205],[1,-1]],[[364,1465],[-23,106],[-72,61],[-22,121],[-63,-117],[-174,-67],[-10,-17]],[[960,1753],[9,62],[-44,83],[42,31]],[[539,177],[3,0]],[[550,170],[-2,6]],[[366,6],[-50,-6]],[[3049,1124],[56,26],[71,63]],[[3176,1214],[-13,-4],[-10,-5],[-47,-54],[-57,-27]],[[60,840],[3,9]],[[389,1449],[3,2]],[[1538,1685],[1,-1]],[[182,111]],[[2548,1200],[0,6]],[[3309,1429],[10,-1]],[[450,54],[-20,-32]],[[3024,966],[-129,-31]],[[2089,454],[-39,-43]],[[2586,605],[1,0]],[[2669,634],[50,85]],[[2755,735],[79,35]],[[414,1303],[2,-2]],[[512,1063],[22,17],[113,-13]],[[2899,282],[2,1]],[[3554,1205],[-14,13]],[[588,167],[-16,-11]],[[597,149],[3,11]],[[607,140],[31,-11],[-17,-12]],[[1938,2142],[-5,-18]],[[2434,2184]],[[54,347],[-54,17]],[[3636,3376],[-1097,720]],[[4096,3237],[-176,47]],[[3218,0],[-37,222],[-4,18],[-4,8]],[[3173,248],[-4,7]],[[3169,255],[-11,22],[-5,8],[-29,40],[-32,84],[-192,158],[-90,290],[46,123],[193,144]],[[3049,1124],[-190,-139],[-19,-24],[-31,-102],[14,-69],[64,-197],[12,-26],[6,-10],[187,-148],[31,-85],[29,-38],[4,-7],[10,-19],[3,-5]],[[3169,255],[3,-7],[1,0]],[[3173,248],[5,-13],[2,-9],[35,-221],[1,-5]],[[3176,1213],[20,6]],[[3195,1220],[-19,-6]],[[3095,974],[-2,2]],[[2273,1869],[23,79],[126,130],[12,106]],[[2269,1847],[0,4]],[[3399,398],[76,118],[12,109],[-16,55],[-113,141],[-16,91]],[[429,22],[-180,-17]],[[2627,4089],[-27,7]],[[2627,4091],[-21,5]],[[3830,620],[49,4],[-19,28]],[[3319,1428],[78,-8],[146,60],[61,-10],[168,41]],[[1317,697],[0,1]],[[2747,1326],[-1,-6]],[[3116,322],[7,2]],[[3126,324],[17,4]],[[3152,331],[2,0]],[[3161,334],[10,3]],[[3308,295],[37,13]],[[4015,358],[1,0]],[[302,104],[-11,-2]],[[407,207],[1,-30]],[[410,170],[0,42]],[[640,170],[-3,1]],[[637,171],[-2,0],[-12,5]],[[623,176],[-2,1],[-3,4],[-5,12],[0,1]],[[613,194],[0,8],[-3,18],[-6,16],[-4,7],[-18,22],[-12,8],[-21,7],[-23,2],[-23,-1],[-25,-3],[-6,-1]],[[472,277],[-7,-2]],[[466,276],[6,1]],[[472,277],[6,0],[38,4],[17,1],[37,-9],[31,-32],[12,-46],[0,-1]],[[613,194],[10,-18]],[[623,176],[1,-2],[7,-3],[6,0]],[[637,171],[3,-1]],[[1689,96],[1,1]],[[545,382],[24,30]],[[1644,1017],[40,41],[438,128],[74,-18],[25,39]],[[2895,934]],[[3249,300],[2,0]],[[2895,935],[-32,13]],[[856,711],[-2,0]],[[854,711],[2,0]],[[890,715],[-34,-4]],[[1003,726],[-99,-10]],[[1124,706],[169,-21]],[[11,249],[22,33]],[[50,295],[4,52]],[[61,491],[29,22]],[[82,620],[25,-102]],[[86,754],[-2,-100]],[[185,111],[30,-3]],[[337,155],[-1,-2]],[[379,1439],[-3,-1]],[[1584,1691],[2,0]],[[1886,1678],[37,123]],[[2433,1403],[7,-103],[35,-83],[68,-23]],[[2767,731],[-41,22],[6,28]],[[2867,1443],[5,2]],[[2901,577],[-10,-10]],[[2916,1437],[0,1]],[[2959,908],[-31,-14]],[[2981,886],[-6,-1]],[[2981,886],[-2,-3]],[[3001,869],[-4,3]],[[3049,1143],[3,-10]],[[3085,530],[51,34]],[[3171,875],[19,7]],[[3253,298],[264,-30],[65,47]],[[3583,315],[193,315]],[[3626,1273],[-35,-77]],[[3791,709],[7,191]],[[1933,2125],[-19,-60],[63,-110],[-10,-122]],[[1933,2124],[-16,-66],[61,-103],[46,-23],[222,116],[52,63],[15,94],[106,-53],[15,32]],[[2772,2174],[-6,18],[-120,-42],[-217,2]],[[3037,271],[74,49]],[[3111,320],[5,2]],[[3122,324],[-11,-4]],[[3178,337],[-55,-13]],[[3189,332],[4,-4]],[[3253,299],[8,-6]],[[3252,299],[1,0],[0,1],[-1,-1]],[[3636,3375],[-1097,721]],[[4096,3235],[-181,49]],[[440,22],[76,-22]],[[4048,358],[48,-3]],[[2790,706],[-4,4]],[[3091,974],[2,-2]],[[429,22],[-193,-17]],[[1027,1711],[230,2]],[[3647,1355],[47,12]],[[3897,1255],[-16,19]],[[2834,770],[5,2]],[[2504,405],[21,-26]],[[59,839],[1,1]],[[60,493],[1,-2]],[[182,111],[3,0]],[[337,155],[7,5]],[[370,1433],[-7,-8]],[[448,1527],[35,25]],[[537,1585],[75,59],[331,58]],[[699,1],[-1,-1]],[[1324,1708],[113,-33]],[[1465,1679],[73,6]],[[2007,1807],[0,1]],[[2008,1808],[158,22]],[[2180,1831],[65,5]],[[3211,890],[-21,-8]],[[3191,589]],[[430,22],[-181,-17]],[[368,1467],[-39,118],[-25,4],[-35,43],[-5,32]],[[264,1664],[-7,50]],[[257,1714],[-2,10]],[[304,1589],[-40,75]],[[264,1664],[-6,12],[-1,38]],[[257,1714],[-1,36],[37,53]],[[3087,1014],[-4,20]],[[2961,1070],[26,151],[-29,121]],[[4096,1512],[-93,70],[-219,256],[-259,163],[-191,163],[-173,297],[-17,207],[-293,187],[-44,70],[-267,1171]],[[364,1465],[-23,106],[-72,61],[-18,119],[-67,-115],[-174,-67],[-10,-17]],[[525,337],[20,45]],[[569,412],[167,221],[109,72]],[[845,705],[9,6]],[[854,711],[-5,-3],[-4,-3]],[[482,205],[7,-17]],[[550,167],[0,3]],[[3156,996],[-57,-2]],[[3523,937],[-11,0]],[[647,1112],[-74,135]],[[696,975],[-48,134]],[[728,923],[125,-212]],[[353,1408],[-5,-10]],[[3301,370],[-16,-7]],[[366,6],[-50,-6]],[[1770,182],[5,7]],[[2707,1083],[-125,166],[-62,10],[-66,-26]],[[2728,1054],[-21,28]],[[2728,1054],[13,-16]],[[2863,948],[-85,41],[-44,57],[-6,8]],[[2805,975],[83,-41],[7,0]],[[430,22],[-64,-16]],[[369,1465],[-1,2]],[[440,22],[76,-22]],[[3092,975],[-1,-1]],[[3093,972],[2,2]],[[1672,72],[17,24]],[[1690,97],[77,78]],[[904,716],[-14,-1]],[[2271,1861],[2,8]],[[2434,2184]],[[399,189],[8,-18]],[[418,194],[-10,-5]],[[3062,1119],[22,-36]],[[3071,1073],[2,-12]],[[3163,995],[-5,-31]],[[3175,930],[-3,-8]],[[416,1301],[46,-22]],[[463,1247],[-1,32]],[[3236,321],[1,-17]],[[3245,346],[-8,-25]],[[3463,930],[53,-1]],[[462,1279]],[[2356,594],[33,-12]],[[2429,594],[54,33],[103,-22]],[[2587,605],[48,-4]],[[2191,1253],[-1,1],[-1,-1],[1,-1],[1,1]],[[2242,1222],[-1,0],[0,-1],[1,0],[0,1]],[[3009,866],[75,-20]],[[1586,1691]],[[465,275],[-20,-4]],[[445,271],[-3,-1],[-7,-4],[-8,-8],[-20,-51]],[[410,212],[20,49],[7,5],[7,5],[1,0]],[[445,271],[1,1],[20,4]],[[640,170],[31,-3]],[[671,167],[8,-1],[2,0],[83,7],[88,20],[220,-56],[105,-137]],[[1178,0],[-106,138],[-220,56],[-88,-21],[-83,-7],[-2,0],[-8,1]],[[671,167],[-3,0],[-11,1],[-17,2]],[[451,60],[-22,-38]],[[3123,324],[3,0]],[[2330,578],[-171,-9],[-70,-115]],[[1316,698],[0,-1]],[[3695,1364],[-1,3]],[[249,5],[-20,-5]],[[0,1736],[0,47],[46,6],[112,-35],[-158,-18]],[[1736,2069],[-4,-5],[-8,0],[-7,-4],[-213,7],[-98,-25],[-8,-86],[-85,-4],[-26,23],[-10,67],[14,56],[36,23],[89,3],[260,3],[58,-37],[2,-21]],[[2615,2274],[77,-47],[-27,5],[-32,-4],[-122,28],[-53,-2],[-4,-60],[-56,41],[13,31],[52,19],[61,8],[47,-5],[44,-14]],[[2235,2194],[-65,-41],[-82,-35],[-83,-5],[-72,48],[-26,-38],[-26,-20],[-24,0],[-23,21],[74,93],[122,28],[247,-17],[0,-34],[-42,0]],[[4096,1147],[0,-1147],[-3280,0],[-25,9],[-663,24],[-108,54],[-20,66],[0,547],[46,122],[13,73],[24,45],[57,-1],[117,-26],[16,40],[28,15],[21,48],[-5,62],[-26,36],[-85,43],[-38,39],[-6,65],[41,54],[94,66],[106,119],[56,40],[108,113],[230,90],[448,51],[32,-21],[31,-43],[69,-17],[429,90],[874,123],[233,-68],[0,-37],[-19,-138],[82,-179],[120,-155],[97,-69],[0,-30],[-24,-63],[45,-22],[64,-18],[33,-52],[-9,-88],[-28,-46],[-63,-48],[-52,-27],[-115,-11],[-51,-32],[53,-164],[27,-62],[39,-43],[37,18],[33,15],[49,-2],[34,-19],[56,-65],[21,-14],[23,-21],[24,-46],[31,-47],[42,-21],[49,2],[35,8],[31,19],[36,36],[62,103],[65,170],[15,168],[-84,100],[-115,-31],[-61,10],[6,72],[25,81],[21,168],[24,69],[39,42],[49,20],[122,6],[56,-26],[43,-61],[35,-67],[36,-48],[118,-61],[27,-5]],[[919,1933],[-5,-6],[-8,0],[-136,-55],[-355,-47],[-118,33],[133,79],[157,26],[330,-7],[2,-23]],[[3322,1944],[-47,-45],[-14,-10],[-25,6],[-16,12],[-18,2],[-30,-20],[0,33],[36,64],[57,25],[66,-11],[62,-44],[-42,0],[-29,-12]],[[1140,1987],[38,-31],[-10,-19],[-9,-8],[-23,-7],[-117,37],[-42,-3],[48,34],[59,9],[56,-12]],[[3450,3198],[32,28],[256,-2],[358,-54],[0,-402],[-646,430]],[[4096,3283],[-498,2],[339,811],[159,0],[0,-813]],[[3177,315],[54,43],[-18,8],[16,22],[39,-31],[21,10],[-29,-31],[18,-23],[-29,-13],[-2,-31],[-54,-38],[37,53],[-53,31]],[[987,669],[31,29],[-16,28],[18,19],[-18,9],[20,24],[-17,-22],[24,-13],[12,26],[-10,-24],[16,-8],[19,33],[37,-31],[31,39],[15,-1],[-34,-25],[15,-4],[3,-15],[-29,-4],[20,-23],[-87,-48],[-2,-29],[-30,30],[26,-4],[9,7],[-4,10],[-11,-9],[-25,8],[11,-25],[-24,23]],[[1009,686],[5,-8],[18,10],[-10,8],[-13,-10]],[[1049,682],[6,-8],[9,16],[-2,1],[-13,-9]],[[1070,731],[6,0],[-4,13],[-2,-5],[0,-8]],[[1006,722],[13,-14],[7,1],[-9,16],[-11,-3]],[[1086,722],[11,-3],[5,20],[-9,2],[-7,-19]],[[1076,691],[6,-2],[4,7],[-7,2],[-3,-7]],[[1022,677],[4,-5],[4,0],[-2,8],[-6,-3]],[[1038,705],[10,0],[1,3],[-7,2],[-4,-5]],[[2571,1039],[29,41],[51,-4],[19,-27],[4,26],[33,8],[-14,-61],[57,-15],[-64,-48],[-55,-9],[16,28],[-76,61]],[[2638,1024],[5,-5],[17,13],[-9,4],[-13,-12]],[[2653,978],[9,0],[-2,11],[-5,1],[-2,-12]],[[215,0],[18,5],[222,1],[1,-6],[-241,0]],[[4096,1481],[0,-355],[-121,43],[-41,33],[-11,49],[-34,5],[-26,63],[-108,55],[-132,-23],[-68,-62],[-32,-73],[-28,-281],[126,-7],[79,36],[47,-24],[27,-74],[-26,-253],[-162,-288],[-60,-30],[-96,-2],[-48,64],[9,42],[-21,-7],[-122,173],[-42,19],[10,16],[-126,-54],[-83,113],[-25,86],[14,125],[93,-26],[155,53],[238,36],[-87,170],[-134,569],[-168,287],[-149,-60],[14,-89],[130,-256],[-60,3],[-62,-31],[-26,46],[-21,-7],[-22,178],[-30,50],[19,23],[8,-30],[22,57],[-130,41],[-234,3],[-270,-33],[-14,23],[-42,-39],[-207,-28],[-59,26],[-517,-164],[-143,67],[-1,-26],[-363,-3],[-290,-54],[-73,-26],[-8,-28],[-120,-74],[-51,-72],[-29,12],[-29,-85],[-163,-157],[-10,-42],[24,-32],[128,-78],[36,-73],[-85,-93],[-49,-22],[-103,16],[-96,122],[-13,-38],[55,-137],[-60,-85],[0,1677],[835,-112],[403,0],[1182,339],[277,-41],[329,-155],[277,-368],[219,-178],[301,-175],[83,-114],[190,-156]],[[1264,2019],[22,-1],[4,-41],[52,15],[-1,-62],[39,5],[-9,66],[23,38],[-54,28],[1,30],[-47,-21],[-30,-57]],[[309,1852],[36,-45],[42,-1],[13,41],[29,-12],[11,63],[-27,17],[-104,-63]],[[956,1950],[14,-25],[46,9],[-31,9],[19,10],[60,-13],[-46,36],[20,17],[-82,-43]],[[2494,2275],[29,-38],[32,12],[9,-24],[53,3],[-46,7],[-10,44],[-67,-4]],[[1900,2174],[33,-50],[40,33],[0,18],[-73,-1]],[[506,1912],[11,1],[-1,12],[-3,-7],[-7,-6]],[[1889,2185],[82,23],[0,11],[-58,-13],[-24,-21]],[[575,1865],[15,0],[-2,15],[0,-11],[-13,-4]],[[2375,2251],[12,-18],[23,-1],[-18,11],[15,25],[-32,-17]],[[544,1852],[10,-5],[50,4],[-26,13],[-34,-12]],[[492,1878],[14,-7],[7,6],[-2,7],[-19,-6]],[[55,1731],[5,-21],[31,3],[-1,19],[-35,-1]],[[1463,2064],[7,-1],[13,0],[-9,8],[-11,-7]],[[592,1907],[7,-5],[3,13],[-1,-3],[-9,-5]],[[501,1856],[14,1],[1,8],[-14,2],[-1,-11]],[[1864,2144],[13,6],[-1,4],[-6,-1],[-6,-9]],[[616,1879],[9,-3],[4,1],[-12,7],[-1,-5]],[[2427,2183],[14,2],[4,8],[-11,7],[-7,-17]],[[943,1752],[5,-23],[13,1],[6,24],[-24,-2]],[[1075,1941],[8,1],[2,5],[-10,-3],[0,-3]],[[2020,2144],[8,-3],[1,15],[-6,1],[-3,-13]],[[1635,2061],[16,-5],[2,11],[-14,1],[-4,-7]],[[629,1885],[4,-6],[4,0],[-4,7],[-4,-1]],[[517,1866],[4,-1],[5,-1],[0,5],[-9,-3]],[[2595,2243],[5,-2],[2,5],[-5,2],[-2,-5]],[[0,657],[0,32],[3,-20],[-3,-12]],[[2975,2957],[58,157],[369,109],[694,-455],[0,-1220],[-167,211],[-547,422],[0,350],[-321,235],[-86,191]],[[1339,1010],[39,14],[55,-25],[14,-39],[-82,-42],[-26,92]],[[2429,1006],[49,53],[-1,-22],[91,-44],[-4,-18],[-134,-15],[-1,46]],[[1349,670],[-58,1],[13,102],[32,73],[41,27],[44,-37],[-5,-89],[-25,-53],[-42,-24]],[[3211,913],[-26,-13],[-179,100],[116,331],[71,-51],[-24,-93],[109,-40],[33,-52],[-9,-88],[-91,-94]],[[634,231],[10,-107],[-107,-33],[-13,-72],[-216,8],[121,221],[53,40],[112,-7],[40,-50]],[[2359,117],[32,35],[-17,52],[69,15],[-23,34],[21,0],[12,-46],[61,17],[-19,-39],[29,-42],[-43,-17],[7,-22],[-37,-104],[-46,0],[9,26],[-55,91]],[[2393,178],[6,-16],[17,10],[-5,12],[-18,-6]],[[1213,644],[89,45],[-19,30],[-29,-6],[45,63],[54,-7],[-13,-43],[34,-2],[-17,-28],[41,-28],[-10,-36],[-50,14],[17,-22],[-20,-8],[-44,40],[-56,-54],[-22,42]],[[414,1300],[1,28],[45,7],[-35,27],[37,37],[28,-37],[30,10],[13,-22],[20,11],[16,-18],[-32,-14],[-35,-83],[-37,-1],[-51,55]],[[2534,4096],[-26,-69],[-138,69],[164,0]],[[2627,4096],[-2,-28],[-65,28],[67,0]]]}