{"objects":{"water":{"type":"GeometryCollection","geometries":[]},"buildings":{"type":"GeometryCollection","geometries":[]},"places":{"type":"GeometryCollection","geometries":[{"type":"Point","properties":{"kind":"locality","name:en":"Balashov","name":"\u0411\u0430\u043b\u0430\u0448\u043e\u0432","kind_detail":"town","name:de":"Balaschow","source":"openstreetmap.org","min_zoom":8.0,"name:et":"Bala\u0161ov","population":77391,"id":336140569,"name:ja":"\u30d0\u30e9\u30b7\u30e7\u30d5"},"coordinates":[2867,3720]},{"type":"Point","properties":{"kind":"locality","name:en":"Povorino","name":"\u041f\u043e\u0432\u043e\u0440\u0438\u043d\u043e","kind_detail":"town","name:de":"Poworino","source":"openstreetmap.org","min_zoom":8.0,"old_name":"\u0440\u0430\u0431\u043e\u0447\u0438\u0439 \u043f\u043e\u0441\u0451\u043b\u043e\u043a \u041f\u043e\u0432\u043e\u0440\u0438\u043d\u043e;\u043f\u043e\u0441\u0451\u043b\u043e\u043a \u043f\u0440\u0438 \u0441\u0442\u0430\u043d\u0446\u0438\u0438 \u041f\u043e\u0432\u043e\u0440\u0438\u043d\u043e","id":336140824,"population":17286},"coordinates":[156,2150]},{"type":"Point","properties":{"kind":"locality","name:en":"Novonikolayevskiy","name":"\u041d\u043e\u0432\u043e\u043d\u0438\u043a\u043e\u043b\u0430\u0435\u0432\u0441\u043a\u0438\u0439","kind_detail":"town","name:de":"Nowonikolajewski","source":"openstreetmap.org","min_zoom":8.0,"id":336140852,"population":9557},"coordinates":[521,1108]},{"type":"Point","properties":{"kind":"locality","name:en":"Preobragenskaya","name":"\u041f\u0440\u0435\u043e\u0431\u0440\u0430\u0436\u0435\u043d\u0441\u043a\u0430\u044f","kind_detail":"town","source":"openstreetmap.org","min_zoom":8.0,"id":336140943,"population":5463},"coordinates":[2531,24]}]},"transit":{"type":"GeometryCollection","geometries":[{"type":"MultiLineString","properties":{"source":"openstreetmap.org","kind":"train","name":"\u0422\u0430\u043b\u043e\u0432\u0430\u044f - \u041f\u043e\u0432\u043e\u0440\u0438\u043d\u043e","sort_rank":275,"ref":"\u0422\u0430\u043b\u043e\u0432\u0430\u044f - \u041f\u043e\u0432\u043e\u0440\u0438\u043d\u043e","min_zoom":6.0,"osm_relation":true},"arcs":[[7],[8],[9],[10],[11],[12],[13],[14],[15],[16],[17],[18],[19],[20],[21]]},{"type":"MultiLineString","properties":{"kind":"train","network":"\u0420\u0416\u0414","sort_rank":275,"source":"openstreetmap.org","min_zoom":6.0,"ref":"379\/380","osm_relation":true,"name":"\u041f\u043e\u0435\u0437\u0434 \u2116379\/380: \u041c\u043e\u0441\u043a\u0432\u0430 \u2014 \u041a\u0430\u043c\u044b\u0448\u0438\u043d"},"arcs":[[22],[23],[24],[25]]},{"type":"LineString","properties":{"kind":"train","network":"\u0420\u0416\u0414","sort_rank":275,"source":"openstreetmap.org","min_zoom":6.0,"ref":"343","osm_relation":true,"name":"\u041f\u043e\u0435\u0437\u0434 \u2116343: \u041c\u043e\u0441\u043a\u0432\u0430 \u2014 \u0411\u0430\u043b\u0430\u0448\u043e\u0432-1"},"arcs":[26]},{"type":"MultiLineString","properties":{"kind":"train","name:en":"Baku \u2014 Moscow","name":"\u0411\u0430\u043a\u0443 \u2014 \u041c\u043e\u0441\u043a\u0432\u0430","sort_rank":275,"name:de":"Baku \u2014 Moskau","source":"openstreetmap.org","min_zoom":6.0,"ref":"055","osm_relation":true},"arcs":[[27],[28]]}]},"pois":{"type":"GeometryCollection","geometries":[]},"boundaries":{"type":"GeometryCollection","geometries":[{"type":"LineString","properties":{"name:right:hy":"\u054e\u0578\u0580\u0578\u0576\u0565\u056a\u056b \u0574\u0561\u0580\u0566","name:right:uk":"\u0412\u043e\u0440\u043e\u043d\u0435\u0437\u044c\u043a\u0430 \u043e\u0431\u043b\u0430\u0441\u0442\u044c","int_name:left":"Volgograd Oblast","name:left:sv":"Volgograd oblast","name:right:hu":"Voronyezsi ter\u00fclet","name:right:lt":"Vorone\u017eo sritis","name:left:sl":"Volgograjska oblast","min_zoom":8.0,"name:left:lt":"Volgogrado sritis","name:left:hy":"\u054e\u0578\u056c\u0563\u0578\u0563\u0580\u0561\u0564\u056b \u0574\u0561\u0580\u0566","name:left:sk":"Volgogradsk\u00e1 oblas\u0165","name:right:he":"\u05de\u05d7\u05d5\u05d6 \u05d5\u05d5\u05e8\u05d5\u05e0\u05d6'","sort_rank":256,"name:left:ca":"Prov\u00edncia de Volgograd","int_name:right":"Voronezh Oblast","source":"openstreetmap.org","osm_relation":true,"name:left:cv":"\u0412\u043e\u043b\u0433\u043e\u0433\u0440\u0430\u0434 \u043e\u0431\u043b\u0430\u00e7\u0115","name:right:az":"Voronej vilay\u0259ti","name:left":"\u0412\u043e\u043b\u0433\u043e\u0433\u0440\u0430\u0434\u0441\u043a\u0430\u044f \u043e\u0431\u043b\u0430\u0441\u0442\u044c","name:right:es":"\u00d3blast de Vor\u00f3nezh","name:left:ja":"\u30f4\u30a9\u30eb\u30b4\u30b0\u30e9\u30fc\u30c9\u5dde","name:left:ka":"\u10d5\u10dd\u10da\u10d2\u10dd\u10d2\u10e0\u10d0\u10d3\u10d8\u10e1 \u10dd\u10da\u10e5\u10d8","name:right:mn":"\u0412\u043e\u0440\u043e\u043d\u0435\u0436 \u043c\u0443\u0436","name:left:os":"\u0412\u043e\u043b\u0433\u043e\u0433\u0440\u0430\u0434\u044b \u043e\u0431\u043b\u00e6\u0441\u0442","name:right:it":"Oblast' di Vorone\u017e","name:left:ro":"Regiunea Volgograd","name:left:kv":"\u0412\u043e\u043b\u0433\u043e\u0433\u0440\u0430\u0434 \u043e\u0431\u043b\u0430\u0441\u044c\u0442","name:right:en":"Voronezh Oblast","name:right:el":"\u03a0\u03b5\u03c1\u03b9\u03c6\u03ad\u03c1\u03b5\u03b9\u03b1 \u0392\u03bf\u03c1\u03cc\u03bd\u03b5\u03b6","kind":"region","name":"\u0412\u043e\u043b\u0433\u043e\u0433\u0440\u0430\u0434\u0441\u043a\u0430\u044f \u043e\u0431\u043b\u0430\u0441\u0442\u044c - \u0412\u043e\u0440\u043e\u043d\u0435\u0436\u0441\u043a\u0430\u044f \u043e\u0431\u043b\u0430\u0441\u0442\u044c","name:right:ba":"\u0412\u043e\u0440\u043e\u043d\u0435\u0436 \u04e9\u043b\u043a\u04d9\u04bb\u0435","name:right:be":"\u0412\u0430\u0440\u043e\u043d\u0435\u0436\u0441\u043a\u0430\u044f \u0432\u043e\u0431\u043b\u0430\u0441\u0446\u044c","name:left:vi":"Volgograd (t\u1ec9nh)","name:left:fr":"Oblast de Volgograd","name:left:uz":"Volgograd viloyati","name:right:nl":"Oblast Voronezj","name:right:fr":"Oblast de Voronej","name:right:sr":"\u0412\u043e\u0440\u043e\u045a\u0435\u0448\u043a\u0430 \u043e\u0431\u043b\u0430\u0441\u0442","id:right":-72181,"name:left:uk":"\u0412\u043e\u043b\u0433\u043e\u0433\u0440\u0430\u0434\u0441\u044c\u043a\u0430 \u043e\u0431\u043b\u0430\u0441\u0442\u044c","name:left:nl":"Oblast Wolgograd","name:left:be":"\u0412\u0430\u043b\u0433\u0430\u0433\u0440\u0430\u0434\u0441\u043a\u0430\u044f \u0432\u043e\u0431\u043b\u0430\u0441\u0446\u044c","id":-77665,"name:right:fi":"Vorone\u017ein alue","name:left:en":"Volgograd Oblast","name:right:ca":"Prov\u00edncia de Vor\u00f3nej","kind_detail":"4","name:right:ce":"\u0412\u043e\u0440\u043e\u043d\u0435\u0436\u0430\u043d \u043e\u0431\u043b\u0430\u0441\u0442\u044c","name:left:zh":"\u4f0f\u5c14\u52a0\u683c\u52d2\u5dde","name:right:tt":"\u0412\u043e\u0440\u043e\u043d\u0435\u0436 \u04e9\u043b\u043a\u04d9\u0441\u0435","id:left":-77665,"name:right:cs":"Voron\u011b\u017esk\u00e1 oblast","name:right":"\u0412\u043e\u0440\u043e\u043d\u0435\u0436\u0441\u043a\u0430\u044f \u043e\u0431\u043b\u0430\u0441\u0442\u044c","name:right:cv":"\u0412\u043e\u0440\u043e\u043d\u0435\u0436 \u043e\u0431\u043b\u0430\u00e7\u0115","name:right:ka":"\u10d5\u10dd\u10e0\u10dd\u10dc\u10d4\u10df\u10d8\u10e1 \u10dd\u10da\u10e5\u10d8","name:right:pt":"Oblast de Voronej","name:left:pl":"Obw\u00f3d wo\u0142gogradzki","name:left:tt":"\u0412\u043e\u043b\u0433\u043e\u0433\u0440\u0430\u0434 \u04e9\u043b\u043a\u04d9\u0441\u0435","name:left:az":"Volqoqrad vilay\u0259ti","name:right:tr":"Voronej Oblast\u0131","name:left:pt":"Oblast de Volgogrado","name:right:kv":"\u0412\u043e\u0440\u043e\u043d\u0435\u0436 \u043e\u0431\u043b\u0430\u0441\u044c\u0442","name:left:it":"Oblast' di Volgograd","name:right:pl":"Obw\u00f3d woroneski","name:right:os":"\u0412\u043e\u0440\u043e\u043d\u0435\u0436\u044b \u043e\u0431\u043b\u00e6\u0441\u0442","name:right:de":"Oblast Woronesch","name:left:de":"Oblast Wolgograd","name:left:ce":"\u0412\u043e\u043b\u0433\u043e\u0433\u0440\u0430\u0434\u0430\u043d \u043e\u0431\u043b\u0430\u0441\u0442\u044c"},"arcs":[0]},{"type":"LineString","properties":{"name:pt":"Oblast de Volgogrado","name:az":"Volqoqrad vilay\u0259ti","name:ka":"\u10d5\u10dd\u10da\u10d2\u10dd\u10d2\u10e0\u10d0\u10d3\u10d8\u10e1 \u10dd\u10da\u10e5\u10d8","name:cv":"\u0412\u043e\u043b\u0433\u043e\u0433\u0440\u0430\u0434 \u043e\u0431\u043b\u0430\u00e7\u0115","name:tt":"\u0412\u043e\u043b\u0433\u043e\u0433\u0440\u0430\u0434 \u04e9\u043b\u043a\u04d9\u0441\u0435","name:kv":"\u0412\u043e\u043b\u0433\u043e\u0433\u0440\u0430\u0434 \u043e\u0431\u043b\u0430\u0441\u044c\u0442","min_zoom":8.0,"int_name":"Volgograd Oblast","name:it":"Oblast' di Volgograd","name:be":"\u0412\u0430\u043b\u0433\u0430\u0433\u0440\u0430\u0434\u0441\u043a\u0430\u044f \u0432\u043e\u0431\u043b\u0430\u0441\u0446\u044c","name:os":"\u0412\u043e\u043b\u0433\u043e\u0433\u0440\u0430\u0434\u044b \u043e\u0431\u043b\u00e6\u0441\u0442","name:vi":"Volgograd (t\u1ec9nh)","name:ce":"\u0412\u043e\u043b\u0433\u043e\u0433\u0440\u0430\u0434\u0430\u043d \u043e\u0431\u043b\u0430\u0441\u0442\u044c","name:de":"Oblast Wolgograd","name:pl":"Obw\u00f3d wo\u0142gogradzki","name:ca":"Prov\u00edncia de Volgograd","sort_rank":256,"kind_detail":"4","id":-77665,"source":"openstreetmap.org","name:fr":"Oblast de Volgograd","name:zh":"\u4f0f\u5c14\u52a0\u683c\u52d2\u5dde","name:sl":"Volgograjska oblast","name:ro":"Regiunea Volgograd","name:ja":"\u30f4\u30a9\u30eb\u30b4\u30b0\u30e9\u30fc\u30c9\u5dde","name:lt":"Volgogrado sritis","name:uz":"Volgograd viloyati","name:sk":"Volgogradsk\u00e1 oblas\u0165","name:uk":"\u0412\u043e\u043b\u0433\u043e\u0433\u0440\u0430\u0434\u0441\u044c\u043a\u0430 \u043e\u0431\u043b\u0430\u0441\u0442\u044c","name:hy":"\u054e\u0578\u056c\u0563\u0578\u0563\u0580\u0561\u0564\u056b \u0574\u0561\u0580\u0566","name:sv":"Volgograd oblast","osm_relation":true,"kind":"region","name:en":"Volgograd Oblast","name":"\u0412\u043e\u043b\u0433\u043e\u0433\u0440\u0430\u0434\u0441\u043a\u0430\u044f \u043e\u0431\u043b\u0430\u0441\u0442\u044c","name:nl":"Oblast Wolgograd"},"arcs":[1]},{"type":"MultiLineString","properties":{"name:right:hy":"\u054f\u0561\u0574\u0562\u0578\u057e\u056b \u0574\u0561\u0580\u0566","name:right:uk":"\u0422\u0430\u043c\u0431\u043e\u0432\u0441\u044c\u043a\u0430 \u043e\u0431\u043b\u0430\u0441\u0442\u044c","int_name:left":"Voronezh Oblast","name:left:sr":"\u0412\u043e\u0440\u043e\u045a\u0435\u0448\u043a\u0430 \u043e\u0431\u043b\u0430\u0441\u0442","name:right:lt":"Tambovo sritis","name:right:lv":"Tambovas apgabals","name:left:lt":"Vorone\u017eo sritis","name:left:hy":"\u054e\u0578\u0580\u0578\u0576\u0565\u056a\u056b \u0574\u0561\u0580\u0566","name:left:hu":"Voronyezsi ter\u00fclet","name:left:ce":"\u0412\u043e\u0440\u043e\u043d\u0435\u0436\u0430\u043d \u043e\u0431\u043b\u0430\u0441\u0442\u044c","name:left:ca":"Prov\u00edncia de Vor\u00f3nej","name:right:sk":"Tambovsk\u00e1 oblas\u0165","source":"openstreetmap.org","name:left:he":"\u05de\u05d7\u05d5\u05d6 \u05d5\u05d5\u05e8\u05d5\u05e0\u05d6'","name:left:cv":"\u0412\u043e\u0440\u043e\u043d\u0435\u0436 \u043e\u0431\u043b\u0430\u00e7\u0115","name:right:az":"Tambov vilay\u0259ti","name:left:cs":"Voron\u011b\u017esk\u00e1 oblast","name:left":"\u0412\u043e\u0440\u043e\u043d\u0435\u0436\u0441\u043a\u0430\u044f \u043e\u0431\u043b\u0430\u0441\u0442\u044c","name:right:es":"\u00d3blast de Tambov","name:left:ka":"\u10d5\u10dd\u10e0\u10dd\u10dc\u10d4\u10df\u10d8\u10e1 \u10dd\u10da\u10e5\u10d8","name:right:et":"Tambovi oblast","name:left:os":"\u0412\u043e\u0440\u043e\u043d\u0435\u0436\u044b \u043e\u0431\u043b\u00e6\u0441\u0442","name:left:kv":"\u0412\u043e\u0440\u043e\u043d\u0435\u0436 \u043e\u0431\u043b\u0430\u0441\u044c\u0442","name:right:ms":"Wilayah Tambov","name:right:id":"Oblast Tambov","name:right:en":"Tambov Oblast","name:right:el":"\u03a0\u03b5\u03c1\u03b9\u03c6\u03ad\u03c1\u03b5\u03b9\u03b1 \u03a4\u03b1\u03bc\u03c0\u03cc\u03c6","kind":"region","name":"\u0412\u043e\u0440\u043e\u043d\u0435\u0436\u0441\u043a\u0430\u044f \u043e\u0431\u043b\u0430\u0441\u0442\u044c - \u0422\u0430\u043c\u0431\u043e\u0432\u0441\u043a\u0430\u044f \u043e\u0431\u043b\u0430\u0441\u0442\u044c","min_zoom":8.0,"name:left:fi":"Vorone\u017ein alue","name:left:fr":"Oblast de Voronej","name:left:mn":"\u0412\u043e\u0440\u043e\u043d\u0435\u0436 \u043c\u0443\u0436","name:right:zh":"\u5766\u6ce2\u592b\u5dde","name:right:no":"Tambov oblast","name:right:nl":"Oblast Tambov","name:right:ja":"\u30bf\u30f3\u30dc\u30d5\u5dde","name:right:fr":"Oblast de Tambov","name:right:sr":"\u0422\u0430\u043c\u0431\u043e\u0432\u0441\u043a\u0430 \u043e\u0431\u043b\u0430\u0441\u0442","id:right":-72180,"name:left:uk":"\u0412\u043e\u0440\u043e\u043d\u0435\u0437\u044c\u043a\u0430 \u043e\u0431\u043b\u0430\u0441\u0442\u044c","name:right:sh":"Tambovska oblast","name:left:nl":"Oblast Voronezj","name:left:ba":"\u0412\u043e\u0440\u043e\u043d\u0435\u0436 \u04e9\u043b\u043a\u04d9\u04bb\u0435","name:right:sl":"Tambovska oblast","name:left:be":"\u0412\u0430\u0440\u043e\u043d\u0435\u0436\u0441\u043a\u0430\u044f \u0432\u043e\u0431\u043b\u0430\u0441\u0446\u044c","name:right:be":"\u0422\u0430\u043c\u0431\u043e\u045e\u0441\u043a\u0430\u044f \u0432\u043e\u0431\u043b\u0430\u0441\u0446\u044c","name:right:uz":"Tambov viloyati","id":-72181,"name:right":"\u0422\u0430\u043c\u0431\u043e\u0432\u0441\u043a\u0430\u044f \u043e\u0431\u043b\u0430\u0441\u0442\u044c","name:left:en":"Voronezh Oblast","name:left:el":"\u03a0\u03b5\u03c1\u03b9\u03c6\u03ad\u03c1\u03b5\u03b9\u03b1 \u0392\u03bf\u03c1\u03cc\u03bd\u03b5\u03b6","name:right:ca":"Prov\u00edncia de Tambov","kind_detail":"4","name:right:da":"Tambov oblast","name:right:ce":"\u0422\u0430\u043c\u0431\u043e\u0432\u0430\u043d \u043e\u0431\u043b\u0430\u0441\u0442\u044c","name:right:tt":"\u0422\u0430\u043c\u0431\u043e\u0432 \u04e9\u043b\u043a\u04d9\u0441\u0435","id:left":-72181,"name:left:es":"\u00d3blast de Vor\u00f3nezh","name:right:cs":"Tambovsk\u00e1 oblast","name:right:fi":"Tambovin alue","name:right:cv":"\u0422\u0430\u043c\u0431\u043e\u0432 \u043e\u0431\u043b\u0430\u00e7\u0115","name:right:ka":"\u10e2\u10d0\u10db\u10d1\u10dd\u10d5\u10d8\u10e1 \u10dd\u10da\u10e5\u10d8","name:left:pl":"Obw\u00f3d woroneski","name:left:tr":"Voronej Oblast\u0131","name:left:tt":"\u0412\u043e\u0440\u043e\u043d\u0435\u0436 \u04e9\u043b\u043a\u04d9\u0441\u0435","name:left:az":"Voronej vilay\u0259ti","name:right:tr":"Tambov Oblast\u0131","name:right:bg":"\u0422\u0430\u043c\u0431\u043e\u0432\u0441\u043a\u0430 \u043e\u0431\u043b\u0430\u0441\u0442","name:left:pt":"Oblast de Voronej","name:right:sv":"Tambov oblast","name:right:kv":"\u0422\u0430\u043c\u0431\u043e\u0432 \u043e\u0431\u043b\u0430\u0441\u044c\u0442","name:left:it":"Oblast' di Vorone\u017e","name:right:pl":"Obw\u00f3d tambowski","osm_relation":true,"name:right:de":"Oblast Tambow","name:left:de":"Oblast Woronesch","sort_rank":256},"arcs":[[2],[3],[4]]},{"type":"LineString","properties":{"name:pt":"Oblast de Voronej","name:az":"Voronej vilay\u0259ti","name:ka":"\u10d5\u10dd\u10e0\u10dd\u10dc\u10d4\u10df\u10d8\u10e1 \u10dd\u10da\u10e5\u10d8","name:tr":"Voronej Oblast\u0131","name:cv":"\u0412\u043e\u0440\u043e\u043d\u0435\u0436 \u043e\u0431\u043b\u0430\u00e7\u0115","name:cs":"Voron\u011b\u017esk\u00e1 oblast","name:tt":"\u0412\u043e\u0440\u043e\u043d\u0435\u0436 \u04e9\u043b\u043a\u04d9\u0441\u0435","name:kv":"\u0412\u043e\u0440\u043e\u043d\u0435\u0436 \u043e\u0431\u043b\u0430\u0441\u044c\u0442","min_zoom":8.0,"int_name":"Voronezh Oblast","name:it":"Oblast' di Vorone\u017e","name:os":"\u0412\u043e\u0440\u043e\u043d\u0435\u0436\u044b \u043e\u0431\u043b\u00e6\u0441\u0442","name:ce":"\u0412\u043e\u0440\u043e\u043d\u0435\u0436\u0430\u043d \u043e\u0431\u043b\u0430\u0441\u0442\u044c","name:mn":"\u0412\u043e\u0440\u043e\u043d\u0435\u0436 \u043c\u0443\u0436","name:pl":"Obw\u00f3d woroneski","name:ca":"Prov\u00edncia de Vor\u00f3nej","sort_rank":256,"name:fi":"Vorone\u017ein alue","id":-72181,"source":"openstreetmap.org","name:fr":"Oblast de Voronej","name:de":"Oblast Woronesch","name:ba":"\u0412\u043e\u0440\u043e\u043d\u0435\u0436 \u04e9\u043b\u043a\u04d9\u04bb\u0435","name:nl":"Oblast Voronezj","name:lt":"Vorone\u017eo sritis","name:he":"\u05de\u05d7\u05d5\u05d6 \u05d5\u05d5\u05e8\u05d5\u05e0\u05d6'","name:uk":"\u0412\u043e\u0440\u043e\u043d\u0435\u0437\u044c\u043a\u0430 \u043e\u0431\u043b\u0430\u0441\u0442\u044c","name:hy":"\u054e\u0578\u0580\u0578\u0576\u0565\u056a\u056b \u0574\u0561\u0580\u0566","name:be":"\u0412\u0430\u0440\u043e\u043d\u0435\u0436\u0441\u043a\u0430\u044f \u0432\u043e\u0431\u043b\u0430\u0441\u0446\u044c","name:hu":"Voronyezsi ter\u00fclet","name:sr":"\u0412\u043e\u0440\u043e\u045a\u0435\u0448\u043a\u0430 \u043e\u0431\u043b\u0430\u0441\u0442","osm_relation":true,"name:el":"\u03a0\u03b5\u03c1\u03b9\u03c6\u03ad\u03c1\u03b5\u03b9\u03b1 \u0392\u03bf\u03c1\u03cc\u03bd\u03b5\u03b6","kind":"region","name:en":"Voronezh Oblast","name":"\u0412\u043e\u0440\u043e\u043d\u0435\u0436\u0441\u043a\u0430\u044f \u043e\u0431\u043b\u0430\u0441\u0442\u044c","kind_detail":"4","name:es":"\u00d3blast de Vor\u00f3nezh"},"arcs":[5]},{"type":"LineString","properties":{"name:az":"Tambov vilay\u0259ti","name:id":"Oblast Tambov","name:ka":"\u10e2\u10d0\u10db\u10d1\u10dd\u10d5\u10d8\u10e1 \u10dd\u10da\u10e5\u10d8","name:tr":"Tambov Oblast\u0131","name:cv":"\u0422\u0430\u043c\u0431\u043e\u0432 \u043e\u0431\u043b\u0430\u00e7\u0115","name:cs":"Tambovsk\u00e1 oblast","name:tt":"\u0422\u0430\u043c\u0431\u043e\u0432 \u04e9\u043b\u043a\u04d9\u0441\u0435","name:kv":"\u0422\u0430\u043c\u0431\u043e\u0432 \u043e\u0431\u043b\u0430\u0441\u044c\u0442","min_zoom":8.0,"name:be":"\u0422\u0430\u043c\u0431\u043e\u045e\u0441\u043a\u0430\u044f \u0432\u043e\u0431\u043b\u0430\u0441\u0446\u044c","name:lv":"Tambovas apgabals","name:ce":"\u0422\u0430\u043c\u0431\u043e\u0432\u0430\u043d \u043e\u0431\u043b\u0430\u0441\u0442\u044c","id":-72180,"name:ca":"Prov\u00edncia de Tambov","name:ms":"Wilayah Tambov","sort_rank":256,"name:fi":"Tambovin alue","name:da":"Tambov oblast","name:de":"Oblast Tambow","source":"openstreetmap.org","name:fr":"Oblast de Tambov","name:zh":"\u5766\u6ce2\u592b\u5dde","name:sl":"Tambovska oblast","name:nl":"Oblast Tambov","name:ja":"\u30bf\u30f3\u30dc\u30d5\u5dde","name:lt":"Tambovo sritis","name:sh":"Tambovska oblast","name:sk":"Tambovsk\u00e1 oblas\u0165","name:no":"Tambov oblast","name:hy":"\u054f\u0561\u0574\u0562\u0578\u057e\u056b \u0574\u0561\u0580\u0566","name:sv":"Tambov oblast","name:bg":"\u0422\u0430\u043c\u0431\u043e\u0432\u0441\u043a\u0430 \u043e\u0431\u043b\u0430\u0441\u0442","name:uk":"\u0422\u0430\u043c\u0431\u043e\u0432\u0441\u044c\u043a\u0430 \u043e\u0431\u043b\u0430\u0441\u0442\u044c","name:sr":"\u0422\u0430\u043c\u0431\u043e\u0432\u0441\u043a\u0430 \u043e\u0431\u043b\u0430\u0441\u0442","osm_relation":true,"name:uz":"Tambov viloyati","name:el":"\u03a0\u03b5\u03c1\u03b9\u03c6\u03ad\u03c1\u03b5\u03b9\u03b1 \u03a4\u03b1\u03bc\u03c0\u03cc\u03c6","kind":"region","name:en":"Tambov Oblast","name":"\u0422\u0430\u043c\u0431\u043e\u0432\u0441\u043a\u0430\u044f \u043e\u0431\u043b\u0430\u0441\u0442\u044c","name:pl":"Obw\u00f3d tambowski","kind_detail":"4","name:et":"Tambovi oblast","name:es":"\u00d3blast de Tambov"},"arcs":[6]}]},"roads":{"type":"GeometryCollection","geometries":[{"type":"MultiLineString","properties":{"sort_rank":380,"kind_detail":"primary","min_zoom":8.0,"kind":"major_road","source":"openstreetmap.org"},"arcs":[[29],[30],[31],[32],[33],[34],[35],[36],[37],[38],[39]]},{"type":"LineString","properties":{"kind":"major_road","network":"ru:regional","sort_rank":380,"kind_detail":"primary","source":"openstreetmap.org","min_zoom":8.0,"landuse_kind":"urban_area","shield_text":"20\u041d","ref":"20\u041d-9-23"},"arcs":[40]},{"type":"MultiLineString","properties":{"source":"openstreetmap.org","kind":"major_road","landuse_kind":"urban_area","sort_rank":380,"kind_detail":"primary","min_zoom":8.0},"arcs":[[41],[42],[43],[44],[45],[46],[47],[48]]},{"type":"MultiLineString","properties":{"bus_network":null,"network":"ru:regional","sort_rank":380,"kind_detail":"primary","kind":"major_road","source":"openstreetmap.org","min_zoom":8.0,"bus_shield_text":"107","shield_text":"18\u041a","landuse_kind":"residential","ref":"18\u041a-7"},"arcs":[[49],[50],[51],[52]]},{"type":"MultiLineString","properties":{"source":"openstreetmap.org","kind":"major_road","network":"e-road","sort_rank":381,"kind_detail":"trunk","min_zoom":8.0,"shield_text":"38"},"arcs":[[53],[54],[55]]},{"type":"LineString","properties":{"kind":"major_road","sort_rank":380,"kind_detail":"primary","bus_network":"\u0421\u0430\u0440\u0430\u0442\u043e\u0432\u0441\u043a\u0430\u044f \u043e\u0431\u043b\u0430\u0441\u0442\u044c","source":"openstreetmap.org","min_zoom":8.0,"bus_shield_text":"651","id":233350528},"arcs":[56]},{"type":"LineString","properties":{"source":"openstreetmap.org","kind":"major_road","sort_rank":380,"kind_detail":"primary","ref":"63\u041a-00004","min_zoom":8.0,"id":58377039},"arcs":[57]},{"type":"MultiLineString","properties":{"bus_network":"\u0421\u0430\u0440\u0430\u0442\u043e\u0432\u0441\u043a\u0430\u044f \u043e\u0431\u043b\u0430\u0441\u0442\u044c","network":"e-road","sort_rank":381,"kind_detail":"trunk","kind":"major_road","source":"openstreetmap.org","min_zoom":8.0,"bus_shield_text":"651","shield_text":"38"},"arcs":[[58],[59],[60]]},{"type":"MultiLineString","properties":{"bus_network":null,"network":"ru:national","sort_rank":381,"landuse_kind":"residential","kind":"major_road","source":"openstreetmap.org","min_zoom":8.0,"bus_shield_text":"303","shield_text":"22","kind_detail":"trunk","ref":"\u0420-22"},"arcs":[[61],[62]]},{"type":"MultiLineString","properties":{"kind":"major_road","network":"ru:regional","sort_rank":380,"kind_detail":"primary","source":"openstreetmap.org","min_zoom":8.0,"shield_text":"18\u041a","ref":"18\u041a-6"},"arcs":[[63],[64]]},{"type":"LineString","properties":{"kind":"major_road","sort_rank":380,"kind_detail":"primary","bus_network":"\u0411\u0435\u043b\u0433\u043e\u0440\u043e\u0434 \u0410\u0412 \u2013 \u0412\u043e\u043b\u0436\u0441\u043a\u0438\u0439 \u0410\u0412","source":"openstreetmap.org","min_zoom":8.0,"bus_shield_text":"641","id":48058767},"arcs":[65]},{"type":"LineString","properties":{"kind":"major_road","network":"ru:regional","sort_rank":380,"kind_detail":"primary","bus_network":null,"source":"openstreetmap.org","min_zoom":8.0,"bus_shield_text":"526","shield_text":"20\u041a","landuse_kind":"urban_area","ref":"20\u041a-1-23","id":167227084},"arcs":[66]},{"type":"LineString","properties":{"kind":"major_road","sort_rank":380,"kind_detail":"primary","bus_network":null,"source":"openstreetmap.org","min_zoom":8.0,"bus_shield_text":"527","id":48057169},"arcs":[67]},{"type":"MultiLineString","properties":{"bus_network":null,"network":"ru:regional","sort_rank":380,"kind_detail":"primary","kind":"major_road","source":"openstreetmap.org","min_zoom":8.0,"bus_shield_text":"107","shield_text":"18\u041a","ref":"18\u041a-7"},"arcs":[[68],[69],[70],[71]]},{"type":"LineString","properties":{"source":"openstreetmap.org","kind":"major_road","sort_rank":380,"kind_detail":"primary","ref":"20\u041a-2-23","min_zoom":8.0,"id":467492365},"arcs":[72]},{"type":"LineString","properties":{"kind":"major_road","sort_rank":380,"kind_detail":"primary","bus_network":"\u0423\u0440\u044e\u043f\u0438\u043d\u0441\u043a \u2013 \u0412\u043e\u043b\u0433\u043e\u0433\u0440\u0430\u0434","source":"openstreetmap.org","min_zoom":8.0,"bus_shield_text":"527","id":32511901},"arcs":[73]},{"type":"MultiLineString","properties":{"source":"openstreetmap.org","kind":"major_road","landuse_kind":"residential","sort_rank":380,"kind_detail":"primary","min_zoom":8.0},"arcs":[[74],[75]]},{"type":"LineString","properties":{"source":"openstreetmap.org","bus_network":null,"bus_shield_text":"526","sort_rank":380,"kind_detail":"primary","min_zoom":8.0,"kind":"major_road"},"arcs":[76]},{"type":"MultiLineString","properties":{"bus_network":null,"network":"ru:national","sort_rank":381,"kind_detail":"trunk","kind":"major_road","source":"openstreetmap.org","min_zoom":8.0,"bus_shield_text":"303","shield_text":"22","ref":"\u0420-22"},"arcs":[[77],[78]]},{"type":"LineString","properties":{"kind":"major_road","network":"ru:regional","sort_rank":380,"kind_detail":"primary","bus_network":"\u0421\u0430\u0440\u0430\u0442\u043e\u0432\u0441\u043a\u0430\u044f \u043e\u0431\u043b\u0430\u0441\u0442\u044c","source":"openstreetmap.org","min_zoom":8.0,"bus_shield_text":"651","shield_text":"20\u041d","ref":"20\u041d-4-23","id":313111251},"arcs":[79]},{"type":"LineString","properties":{"kind":"major_road","network":"ru:national","sort_rank":381,"kind_detail":"trunk","source":"openstreetmap.org","min_zoom":8.0,"landuse_kind":"residential","shield_text":"22","ref":"\u0420-22","id":74141021},"arcs":[80]},{"type":"MultiLineString","properties":{"kind":"major_road","network":"ru:regional","sort_rank":380,"kind_detail":"primary","source":"openstreetmap.org","min_zoom":8.0,"landuse_kind":"residential","shield_text":"18\u041a","ref":"18\u041a-6"},"arcs":[[81],[82]]},{"type":"LineString","properties":{"kind":"major_road","sort_rank":380,"kind_detail":"primary","bus_network":"\u0411\u0435\u043b\u0433\u043e\u0440\u043e\u0434 \u0410\u0412 \u2013 \u0412\u043e\u043b\u0436\u0441\u043a\u0438\u0439 \u0410\u0412","source":"openstreetmap.org","min_zoom":8.0,"bus_shield_text":"641","landuse_kind":"residential","id":48058767},"arcs":[83]},{"type":"LineString","properties":{"kind":"major_road","network":"ru:regional","sort_rank":380,"kind_detail":"primary","source":"openstreetmap.org","min_zoom":8.0,"shield_text":"20\u041d","ref":"20\u041d-9-23","id":219305773},"arcs":[84]},{"type":"MultiLineString","properties":{"bus_network":"\u0421\u0430\u0440\u0430\u0442\u043e\u0432\u0441\u043a\u0430\u044f \u043e\u0431\u043b\u0430\u0441\u0442\u044c","network":"ru:regional","sort_rank":380,"kind_detail":"primary","kind":"major_road","source":"openstreetmap.org","min_zoom":8.0,"bus_shield_text":"651","shield_text":"20\u041a","ref":"20\u041a-2-23"},"arcs":[[85],[86],[87]]},{"type":"LineString","properties":{"bus_network":null,"network":"ru:regional","sort_rank":380,"kind_detail":"primary","kind":"major_road","source":"openstreetmap.org","min_zoom":8.0,"bus_shield_text":"526","shield_text":"20\u041a","ref":"20\u041a-1-23"},"arcs":[88]}]},"earth":{"type":"GeometryCollection","geometries":[{"type":"Polygon","properties":{"sort_rank":10,"source":"naturalearthdata.com","kind":"earth","min_zoom":0.0,"id":4756},"arcs":[[89]]}]},"landuse":{"type":"GeometryCollection","geometries":[{"type":"Polygon","properties":{"kind":"residential","name":"\u0420\u043e\u0436\u0434\u0435\u0441\u0442\u0432\u0435\u043d\u0441\u043a\u043e\u0435","area":24813900,"sort_rank":20,"source":"openstreetmap.org","min_zoom":8.0,"tier":2,"id":277508516},"arcs":[[90]]},{"type":"MultiPolygon","properties":{"source":"naturalearthdata.com","kind":"urban_area","name":"","area":908022710,"sort_rank":11,"min_zoom":4.0},"arcs":[[[91]],[[92]]]},{"type":"Polygon","properties":{"source":"openstreetmap.org","kind":"aerodrome","area":10281100,"tier":3,"id":139432693,"min_zoom":8.0,"sort_rank":60},"arcs":[[93]]},{"type":"Polygon","properties":{"kind":"residential","name:en":"Preobragenskaya","name":"\u041f\u0440\u0435\u043e\u0431\u0440\u0430\u0436\u0435\u043d\u0441\u043a\u0430\u044f","area":18438900,"sort_rank":20,"source":"openstreetmap.org","min_zoom":8.0,"tier":2,"id":-1601994,"osm_relation":true},"arcs":[[94]]},{"type":"Polygon","properties":{"kind":"residential","name:en":"Novonikolayevskiy","name":"\u041d\u043e\u0432\u043e\u043d\u0438\u043a\u043e\u043b\u0430\u0435\u0432\u0441\u043a\u0438\u0439","area":25180700,"sort_rank":20,"name:de":"Nowonikolajewski","source":"openstreetmap.org","min_zoom":8.0,"tier":2,"id":74141022},"arcs":[[95]]},{"type":"Polygon","properties":{"kind":"residential","name":"\u0410\u043b\u0435\u043a\u0441\u0438\u043a\u043e\u0432\u0441\u043a\u0438\u0439","area":10152400,"sort_rank":20,"source":"openstreetmap.org","min_zoom":8.0,"tier":2,"id":188745472},"arcs":[[96]]},{"type":"Polygon","properties":{"kind":"residential","name":"\u041c\u0430\u0447\u0435\u0445\u0430","area":14215500,"sort_rank":20,"source":"openstreetmap.org","min_zoom":8.0,"tier":2,"id":115535228},"arcs":[[97]]}]}},"type":"Topology","transform":{"translate":[42.1875,50.736455137],"scale":[0.0003433228,0.000215225]},"arcs":[[[2020,2307],[-75,55],[-307,-39],[-121,52],[-89,-47],[-87,-87],[-153,-305],[-123,-39],[-345,2],[-35,73],[-375,-111],[-310,0]],[[4096,1499],[-93,7],[-366,-154],[-35,34],[-65,-87],[-126,-80],[-102,69],[-375,451],[-142,51],[-772,517]],[[971,3994],[-64,-14],[-30,116]],[[666,4096],[-115,-118],[-43,26],[-51,-47],[-129,139]],[[320,4096],[-28,-55],[-51,14],[-14,-35],[20,76]],[[2020,2307],[27,84],[67,-26],[82,50],[17,51],[-260,230],[-42,102],[48,271],[-31,25],[-49,-46],[-236,409],[-3,55],[-348,178],[-189,34],[-57,188],[-34,-3],[-41,85]],[[971,3994],[-15,102]],[[170,2152],[-8,26],[-4,5]],[[158,2183],[-3,2]],[[155,2185],[-65,-12]],[[90,2173],[-3,-2]],[[87,2171],[-5,-2]],[[82,2169],[-40,-18]],[[42,2151],[-42,-19]],[[42,2151],[48,22]],[[175,2154],[-46,83],[-24,-10],[-25,-59]],[[80,2168],[-38,-17]],[[82,2169],[6,4],[3,2],[3,5],[2,4],[1,6],[4,28],[4,9],[24,10],[46,-83]],[[158,2183],[-6,5],[-5,2],[-14,1],[-46,-20]],[[155,2185],[11,-20]],[[166,2165],[4,-13]],[[170,2152],[-4,13]],[[2344,4096],[64,-74],[65,-189],[81,-37],[104,27],[72,-37]],[[2868,3727],[-114,-89],[-16,133]],[[2833,3711],[35,16]],[[2868,3727],[214,-78],[254,-192],[118,-332],[140,-287],[-5,-86],[24,-45],[94,-7],[100,-60],[191,-233],[98,-53]],[[2703,4096],[27,-310]],[[0,2875],[71,-31],[46,-70],[34,-317],[-8,-155],[39,-52],[-43,-44],[68,-149],[90,56]],[[1102,0],[3,361],[-95,149],[-70,42],[-91,111],[-137,51],[-34,55],[-80,52],[-162,471],[-40,219],[-198,556]],[[401,996],[0,-25]],[[404,978],[2,-2]],[[418,989],[-4,-1]],[[416,971],[2,16]],[[3129,3617],[-78,95]],[[3222,3988],[-133,-96]],[[3129,3617],[7,-8]],[[3138,3610],[-9,7]],[[3138,3610],[-2,-1]],[[3136,3609],[30,-16]],[[3167,3593],[-29,17]],[[103,2228],[80,18],[41,-39],[5,-51]],[[3015,3789],[-1,0]],[[3014,3787],[1,1],[-1,1]],[[3014,3789],[-1,-1],[1,-1]],[[3014,3787],[1,-1]],[[3015,3788],[0,1]],[[3089,3892],[-51,-36],[-23,-67]],[[3015,3786],[0,2]],[[3051,3712],[-36,74]],[[384,951],[-14,-15]],[[418,987],[37,44]],[[447,1077],[56,46]],[[456,1033],[0,1]],[[0,3014],[752,-59],[119,15],[302,-84],[242,16]],[[2728,3568],[50,-29],[66,8]],[[3227,3546],[-67,50]],[[514,2153],[-3,0]],[[3229,4096],[7,-38],[-14,-70]],[[1415,2902],[87,22],[200,231],[478,310],[51,65],[263,-39],[234,77]],[[2844,3547],[198,14],[93,45],[90,-59]],[[3227,3546],[88,-66],[255,44],[187,-3],[339,73]],[[416,971]],[[417,971],[8,-14]],[[2600,42],[397,89],[159,2],[73,50],[87,153]],[[3326,349],[31,40],[210,30],[108,-36],[66,12],[127,94],[200,248],[28,19]],[[401,971],[14,0]],[[80,2249],[23,-21]],[[409,983],[3,-2]],[[370,936],[-93,-110],[-277,-148]],[[384,951],[34,36]],[[456,1034],[-9,43]],[[455,1031],[1,2]],[[963,2481],[-55,-25]],[[410,980],[0,2]],[[416,971]],[[421,990],[-3,-1]],[[415,985],[-14,11]],[[0,1839],[149,-393],[267,-475]],[[425,957],[518,-957]],[[1416,2806],[22,13],[-23,83]],[[416,971],[1,0]],[[2549,0],[51,42]],[[3316,336],[10,13]],[[415,971],[2,0]],[[229,2156],[0,-4]],[[511,2153],[-282,-1]],[[908,2456],[-126,-112],[-48,-132],[-80,-47],[-140,-12]],[[963,2481],[45,-27],[89,28],[319,324]],[[0,2315],[80,-66]],[[0,0],[0,4096],[4096,0],[0,-4096],[-4096,0]],[[0,2368],[27,-4],[66,-75],[-35,-20],[-58,47],[0,52]],[[274,2253],[-63,-133],[-48,-38],[-51,16],[0,103],[-32,0],[0,155],[64,-1],[130,-102]],[[3090,3897],[-43,-206],[-56,-57],[-128,12],[-97,-51],[-155,192],[-7,66],[67,51],[95,-51],[153,235],[105,-28],[66,-163]],[[0,2940],[57,-35],[-9,-19],[-48,10],[0,44]],[[2393,0],[14,50],[50,-19],[17,17],[22,-25],[12,39],[44,24],[36,14],[3,-31],[18,7],[-13,-49],[-46,-27],[-108,0],[-10,23],[-39,-23]],[[434,1148],[36,33],[15,-25],[-13,39],[18,6],[10,-33],[38,7],[9,-29],[62,35],[22,-30],[-75,-25],[8,-82],[-64,-23],[-45,12],[12,25],[-24,24],[22,20],[-31,46]],[[338,923],[80,49],[2,115],[21,-3],[28,-111],[-131,-50]],[[3172,323],[68,6],[16,62],[48,19],[-2,-46],[24,-16],[-47,-56],[-24,4],[7,-22],[-60,-5],[15,22],[-45,32]]]}