{"objects":{"water":{"type":"GeometryCollection","geometries":[]},"buildings":{"type":"GeometryCollection","geometries":[]},"places":{"type":"GeometryCollection","geometries":[{"type":"Point","properties":{"name:eo":"Kabardio-Balkario","name:tt":"\u041a\u0430\u0431\u0430\u0440\u0434\u0430-\u0411\u0430\u043b\u043a\u0430\u0440\u0438\u044f","min_zoom":4.0,"official_name":"\u041a\u0430\u0431\u0430\u0440\u0434\u0438\u043d\u043e-\u0411\u0430\u043b\u043a\u0430\u0440\u0441\u043a\u0430\u044f \u0420\u0435\u0441\u043f\u0443\u0431\u043b\u0438\u043a\u0430","name:be":"\u041a\u0430\u0431\u0430\u0440\u0434\u0437\u0456\u043d\u0430-\u0411\u0430\u043b\u043a\u0430\u0440\u044b\u044f","name:hu":"Kabardino-Balkaria","id":869609474,"kind":"region","name:en":"Kabardino-Balkaria","name":"\u041a\u0430\u0431\u0430\u0440\u0434\u0438\u043d\u043e-\u0411\u0430\u043b\u043a\u0430\u0440\u0438\u044f","kind_detail":"state","name:ku":"Kabard\u00eeno-Balkarya","name:de":"Kabardino-Balkarien","source":"openstreetmap.org","name:fr":"Kabardino-Balkarie","name:zh":"\u5361\u5df4\u5c14\u8fbe\u2014\u5df4\u5c14\u5361\u5c14\u5171\u548c\u56fd"},"coordinates":[3591,1504]},{"type":"Point","properties":{"name:az":"Pyatiqorsk","name:ka":"\u10de\u10d8\u10d0\u10e2\u10d8\u10d2\u10dd\u10e0\u10e1\u10d9\u10d8","name:tr":"Pyatigorsk","name:ar":"\u0628\u064a\u0627\u062a\u064a\u063a\u0648\u0631\u0633\u0643","name:cs":"Pjatigorsk","name:tt":"\u0411\u0438\u0448\u0442\u0430\u0443","min_zoom":8.0,"int_name":"Pyatigorsk","name:nl":"Pjatigorsk","name:pl":"Piatigorsk","id":160258541,"name:ca":"Piatigorsk","name:lv":"Pjatigorska","name:fa":"\u067e\u06cc\u062a\u06cc\u06af\u0648\u0631\u0633\u06a9","kind_detail":"city","name:de":"Pjatigorsk","source":"openstreetmap.org","name:fr":"Piatigorsk","name:zh":"\u4e94\u5c71\u57ce","name:hy":"\u054a\u0575\u0561\u057f\u056b\u0563\u0578\u0580\u057d\u056f","admin_level":"3","name:ro":"Piatigorsk","name:ja":"\u30d4\u30e3\u30c1\u30b4\u30eb\u30b9\u30af","name:lt":"Piatigorskas","name:he":"\u05e4\u05d9\u05d0\u05d8\u05d9\u05d2\u05d5\u05e8\u05e1\u05e7","kind":"locality","name:uk":"\u041f'\u044f\u0442\u0438\u0433\u043e\u0440\u0441\u044c\u043a","old_name":"\u0413\u043e\u0440\u044f\u0447\u0438\u0435 \u0412\u043e\u0434\u044b, \u041a\u043e\u043d\u0441\u0442\u0430\u043d\u0442\u0438\u043d\u043e\u0433\u043e\u0440\u0441\u043a","name:be":"\u041f\u044f\u0446\u0456\u0433\u043e\u0440\u0441\u043a","name:sr":"\u041f\u0458\u0430\u0442\u0438\u0433\u043e\u0440\u0441\u043a","population":145971,"name:eo":"Pjatigorsk","name:en":"Pyatigorsk","name":"\u041f\u044f\u0442\u0438\u0433\u043e\u0440\u0441\u043a","name:eu":"Piatigorsk","name:es":"Piatigorsk"},"coordinates":[2561,3909]},{"type":"Point","properties":{"kind":"locality","name:en":"Kislovodsk","name":"\u041a\u0438\u0441\u043b\u043e\u0432\u043e\u0434\u0441\u043a","name:lt":"Kislovodskas","kind_detail":"city","name:de":"Kislowodsk","source":"openstreetmap.org","min_zoom":8.0,"int_name":"Kislovodsk","name:uk":"\u041a\u0438\u0441\u043b\u043e\u0432\u043e\u0434\u0441\u044c\u043a","old_name":"\u0441\u043b\u043e\u0431\u043e\u0434\u0430 \u041a\u0438\u0441\u043b\u043e\u0432\u043e\u0434\u0441\u043a\u0430\u044f, \u0441\u0442\u0430\u043d\u0438\u0446\u0430 \u041a\u0438\u0441\u043b\u043e\u0432\u043e\u0434\u0441\u043a\u0430\u044f","name:pl":"Kis\u0142owodzk","name:zh":"\u57fa\u5179\u6d1b\u6c83\u8328\u514b","id":191875199,"population":130007},"coordinates":[1562,3399]},{"type":"Point","properties":{"name:sr":"\u0408\u0435\u0441\u0435\u043d\u0442\u0443\u043a\u0438","name:ro":"Essentuki","name:nl":"Jessentoeki","name:lt":"Jesentukai","name:cs":"Jessentuki","min_zoom":8.0,"int_name":"Yessentuki","name:uk":"\u0404\u0441\u0435\u043d\u0442\u0443\u043a\u0438","name:pl":"Jessentuki","id":683814442,"population":104288,"kind":"locality","name:en":"Yessentuki","name":"\u0415\u0441\u0441\u0435\u043d\u0442\u0443\u043a\u0438","kind_detail":"city","name:de":"Jessentuki","source":"openstreetmap.org","name:fr":"Iessentouki","name:az":"Yessentuki","name:zh":"\u53f6\u5148\u56fe\u57fa"},"coordinates":[1949,3932]},{"type":"Point","properties":{"int_name":"Baksan","name:lt":"Baksanas","name:tr":"Baksan","name:ar":"\u0628\u0627\u0643\u0633\u0627\u0646","name:eo":"Baksan","min_zoom":8.0,"name:it":"Baksan","name:pl":"Baksan","id":93701882,"population":37782,"name:fa":"\u0628\u0627\u06a9\u0633\u0627\u0646","kind":"locality","name:en":"Baksan","name":"\u0411\u0430\u043a\u0441\u0430\u043d","kind_detail":"town","name:de":"Baksan","source":"openstreetmap.org","name:fr":"Baksan","name:zh":"\u5df4\u514b\u6851"},"coordinates":[3933,2444]},{"type":"Point","properties":{"kind":"locality","name:en":"Goryachevodsky","name":"\u0413\u043e\u0440\u044f\u0447\u0435\u0432\u043e\u0434\u0441\u043a\u0438\u0439","kind_detail":"town","name:de":"Gorjatschewodski","source":"openstreetmap.org","min_zoom":8.0,"name:pl":"Goriaczewodskij","id":684391720,"population":36761},"coordinates":[2643,3861]},{"type":"Point","properties":{"kind":"locality","name:en":"Yessentukskaya","name":"\u0415\u0441\u0441\u0435\u043d\u0442\u0443\u043a\u0441\u043a\u0430\u044f","kind_detail":"town","name:de":"Jessentukskaja","source":"openstreetmap.org","min_zoom":8.0,"name:uk":"\u0404\u0441\u0435\u043d\u0442\u0443\u0446\u044c\u043a\u0430","id":1028144158,"population":21000},"coordinates":[2000,3831]},{"type":"Point","properties":{"kind":"locality","name:en":"Tyrnyauz","name:nl":"Tyrnyaoez","name":"\u0422\u044b\u0440\u043d\u044b\u0430\u0443\u0437","kind_detail":"town","name:de":"Tyrnyaus","source":"openstreetmap.org","min_zoom":8.0,"name:uk":"\u0422\u0438\u0440\u043d\u0438\u0430\u0443\u0437","name:pl":"Tyrnyauz","id":652081328,"population":20551},"coordinates":[2131,1315]},{"type":"Point","properties":{"kind":"locality","name:en":"Dygulybgey","name":"\u0414\u044b\u0433\u0443\u043b\u044b\u0431\u0433\u0435\u0439","kind_detail":"town","name:de":"Dygulybgei","source":"openstreetmap.org","min_zoom":8.0,"id":2752207846,"population":20214},"coordinates":[3938,2390]},{"type":"Point","properties":{"kind":"locality","name:en":"Chegem","name":"\u0427\u0435\u0433\u0435\u043c","kind_detail":"town","name:eo":"\u0108egem","name:de":"Tschegem","source":"openstreetmap.org","name:fr":"Tcheguem","name:it":"\u010cegem","min_zoom":8.0,"id":1026705983,"population":17957},"coordinates":[4086,1992]},{"type":"Point","properties":{"kind":"locality","name:en":"Svobody","name":"\u0421\u0432\u043e\u0431\u043e\u0434\u044b","kind_detail":"town","name:de":"Swobody","source":"openstreetmap.org","min_zoom":8.0,"id":684403790,"population":17863},"coordinates":[2572,3834]},{"type":"Point","properties":{"kind":"locality","name:en":"Zalukokoazhe","name":"\u0417\u0430\u043b\u0443\u043a\u043e\u043a\u043e\u0430\u0436\u0435","kind_detail":"town","name:de":"Salukokoasche","source":"openstreetmap.org","min_zoom":8.0,"name:os":"\u0414\u0437\u00e6\u043b\u043b\u044b\u0445\u044a\u043e","id":652439062,"population":9993},"coordinates":[3001,3340]}]},"transit":{"type":"GeometryCollection","geometries":[{"type":"MultiLineString","properties":{"source":"openstreetmap.org","kind":"train","osm_relation":true,"sort_rank":275,"ref":"677\/678 \u0412\u043b\u0430\u0434\u0438\u043a\u0430\u0432\u043a\u0430\u0437 \u2014 \u041d\u043e\u0432\u043e\u0440\u043e\u0441\u0441\u0438\u0439\u0441\u043a","min_zoom":6.0,"operator":"\u0420\u0416\u0414"},"arcs":[[6],[7]]},{"type":"MultiLineString","properties":{"source":"openstreetmap.org","kind":"train","name":"\u0411\u0430\u043a\u0443 \u2014 \u0420\u043e\u0441\u0442\u043e\u0432-\u043d\u0430-\u0414\u043e\u043d\u0443","sort_rank":275,"ref":"Baku \u2014 Rostov-na-Donu","min_zoom":6.0,"osm_relation":true},"arcs":[[8],[9]]},{"type":"MultiLineString","properties":{"source":"openstreetmap.org","kind":"train","osm_relation":true,"sort_rank":275,"ref":"367\/368 \u041a\u0438\u0440\u043e\u0432 \u2014 \u041a\u0438\u0441\u043b\u043e\u0432\u043e\u0434\u0441\u043a","min_zoom":6.0,"operator":"\u0420\u0416\u0414"},"arcs":[[10],[11],[12]]},{"type":"MultiLineString","properties":{"source":"openstreetmap.org","kind":"train","osm_relation":true,"sort_rank":275,"ref":"\u041a\u0438\u0441\u043b\u043e\u0432\u043e\u0434\u0441\u043a - \u041c\u0438\u043d\u0435\u0440\u0430\u043b\u044c\u043d\u044b\u0435 \u0432\u043e\u0434\u044b","min_zoom":6.0,"operator":"\u0420\u0416\u0414"},"arcs":[[13],[14]]},{"type":"MultiLineString","properties":{"source":"openstreetmap.org","kind":"train","osm_relation":true,"sort_rank":275,"ref":"681\/682 \u041d\u0430\u0437\u0440\u0430\u043d\u044c - \u041c\u0438\u043d\u0435\u0440\u0430\u043b\u044c\u043d\u044b\u0435 \u0412\u043e\u0434\u044b","min_zoom":6.0,"operator":"\u0420\u0416\u0414"},"arcs":[[15],[16]]}]},"pois":{"type":"GeometryCollection","geometries":[{"type":"Point","properties":{"kind":"nature_reserve","protect_class":"2","area":1918250000,"source":"openstreetmap.org","min_zoom":6.84,"tier":2,"id":505350188,"name":"\u041d\u0430\u0446\u0438\u043e\u043d\u0430\u043b\u044c\u043d\u044b\u0439 \u043f\u0430\u0440\u043a \u00ab\u041f\u0440\u0438\u044d\u043b\u044c\u0431\u0440\u0443\u0441\u044c\u0435\u00bb"},"coordinates":[1120,1217]}]},"boundaries":{"type":"GeometryCollection","geometries":[{"type":"LineString","properties":{"name:cy":"Georgia","name:ko":"\uc870\uc9c0\uc544 (\uad6d\uac00)","name:cv":"\u0413\u0440\u0443\u0437\u0438","name:cu":"\u0413\u0454\u0461\u0440\u0433\u0457\ua657","name:cs":"Gruzie","name:tt":"\u0413\u04e9\u0440\u0497\u0438\u0441\u0442\u0430\u043d","name:kw":"Pow Grouzi","name:kv":"\u0413\u0440\u0443\u0437\u0438\u044f","name:ku":"Gurcistan","name:tl":"Heorhiya","name:ce":"\u0413\u0443\u044c\u0440\u0436\u0438\u0439-\u041c\u043e\u0445\u043a","name:ta":"\u0b9a\u0bbf\u0baf\u0bbe\u0bb0\u0bcd\u0b9a\u0bbf\u0baf\u0bbe (\u0ba8\u0bbe\u0b9f\u0bc1)","name:tg":"\u0413\u0443\u0440\u04b7\u0438\u0441\u0442\u043e\u043d","name:ca":"Ge\u00f2rgia","name:te":"\u0c1c\u0c3e\u0c30\u0c4d\u0c1c\u0c3f\u0c2f\u0c3e (\u0c26\u0c47\u0c36\u0c02)","name:hr":"Gruzija","name:da":"Georgien","name:de":"Georgien","name:dz":"\u0f47\u0f7d\u0f0b\u0f47\u0f71","source":"openstreetmap.org","name:kn":"\u0c9c\u0cbe\u0cb0\u0ccd\u0c9c\u0cbf\u0caf","name:dv":"\u0796\u07af\u0796\u07a8\u0794\u07a7 (\u07a4\u07a6\u0787\u07aa\u0789\u07aa)","name:lv":"Gruzija","name:lt":"Gruzija","name:uz":"Gurjiston","name:kk":"\u0413\u0440\u0443\u0437\u0438\u044f","name:ur":"\u062c\u0627\u0631\u062c\u06cc\u0627","name:lb":"Georgien","name:la":"Georgia","name:uk":"\u0413\u0440\u0443\u0437\u0456\u044f","name:ug":"\u06af\u0631\u06c7\u0632\u0649\u064a\u06d5","name:li":"Georgi\u00eb","name:el":"\u0393\u03b5\u03c9\u03c1\u03b3\u03af\u03b1","name:eo":"Kartvelujo","name:en":"Georgia","name":"\u10e1\u10d0\u10e5\u10d0\u10e0\u10d7\u10d5\u10d4\u10da\u10dd","name:tk":"Gruzi\u00fda","name:ee":"Georgia","name:th":"\u0e1b\u0e23\u0e30\u0e40\u0e17\u0e28\u0e08\u0e2d\u0e23\u0e4c\u0e40\u0e08\u0e35\u0e22","name:eu":"Georgia","name:et":"Gruusia","name:es":"Georgia","name:ia":"Georgia","name:az":"G\u00fcrc\u00fcstan","name:ie":"Georgia","name:id":"Georgia","name:ar":"\u062c\u0648\u0631\u062c\u064a\u0627","name:io":"Gruzia","name:av":"\u0413\u0443\u0440\u0436\u0438","name:is":"Georg\u00eda","name:am":"\u1302\u12ee\u122d\u1302\u12eb","name:it":"Georgia","name:an":"Cheorchia","name:ru":"\u0413\u0440\u0443\u0437\u0438\u044f","name:ab":"\u049a\u044b\u0440\u04ad\u0442\u04d9\u044b\u043b\u0430","name:af":"Georgi\u00eb","kind_detail":"2","name:ky":"\u0413\u0440\u0443\u0437\u0438\u044f","name:zh-yue":"\u683c\u9b6f\u5409\u4e9e","name:zh":"\u683c\u9c81\u5409\u4e9a","name:so":"Joorjiya","name:sl":"Gruzija","name:sk":"Gruz\u00ednsko","name:ja":"\u30b0\u30eb\u30b8\u30a2","name:si":"\u0da2\u0ddd\u0dbb\u0dca\u0da2\u0dd2\u0dba\u0dcf (\u0dbb\u0da7)","name:sh":"Gruzija","name:se":"Georgia","name:sc":"Georgia","name:br":"Jorjia (bro)","name:bs":"Gruzija","name:bn":"\u099c\u09b0\u09cd\u099c\u09bf\u09af\u09bc\u09be (\u09b0\u09be\u09b7\u09cd\u099f\u09cd\u09b0)","name:bo":"\u0f60\u0f47\u0f7c\u0f62\u0f0b\u0f47\u0f72\u0f0b\u0f61\u0f0d (\u0f62\u0f92\u0fb1\u0f63\u0f0b\u0f41\u0f56\u0f0d)","name:sw":"Georgia (nchi)","name:be":"\u0413\u0440\u0443\u0437\u0456\u044f","name:su":"G\u00e9orgia","name:bg":"\u0413\u0440\u0443\u0437\u0438\u044f","name:ss":"IJojiya","name:sr":"\u0413\u0440\u0443\u0437\u0438\u0458\u0430","name:sq":"Gjeorgjia","name:jv":"Georgia","name:pt":"Ge\u00f3rgia","name:ps":"\u06ab\u0631\u062c\u0633\u062a\u0627\u0646","name:oc":"Georgia (Cauc\u00e0s)","min_zoom":8.0,"name:ro":"Georgia","name:zh-min-nan":"Sakartvelo","name:os":"\u0413\u0443\u044b\u0440\u0434\u0437\u044b\u0441\u0442\u043e\u043d","name:or":"\u0b1c\u0b30\u0b4d\u0b1c\u0b3f\u0b06","name:pl":"Gruzja","sort_rank":262,"osm_relation":true,"name:tr":"G\u00fcrcistan","name:hi":"\u091c\u0949\u0930\u094d\u091c\u093f\u092f\u093e","name:sv":"Georgien","name:he":"\u05d2\u05d0\u05d5\u05e8\u05d2\u05d9\u05d4","name:hy":"\u054e\u0580\u0561\u057d\u057f\u0561\u0576","name:ht":"Jeoji","name:hu":"Gr\u00fazia","name:qu":"Kartulsuyu","kind":"country","name:yi":"\u05d2\u05e8\u05d5\u05d6\u05d9\u05e2","name:yo":"Georgia","name:mt":"\u0120eor\u0121ja","alt_name:eo":"Kartvelio","name:ms":"Georgia","name:mr":"\u091c\u0949\u0930\u094d\u091c\u093f\u092f\u093e","name:my":"\u1002\u103b\u1031\u102c\u103a\u1002\u103b\u102e\u101a\u102c\u1014\u102d\u102f\u1004\u103a\u1004\u1036","int_name":"Georgia","name:ml":"\u0d1c\u0d4b\u0d7c\u0d1c\u0d4d\u0d1c\u0d3f\u0d2f","name:vi":"Gruzia","name:mn":"\u0413\u04af\u0440\u0436","name:mi":"H\u014dria","id":-28699,"name:mk":"\u0413\u0440\u0443\u0437\u0438\u0458\u0430","name:vo":"Grusiy\u00e4n","name:fa":"\u06af\u0631\u062c\u0633\u062a\u0627\u0646","name:rw":"Geworugiya","name:fi":"Georgia","name:fo":"Georgia (land)","name:fr":"G\u00e9orgie","name:fy":"Ge\u00f6rgje","name:nl":"Georgi\u00eb","name:nn":"Georgia","name:no":"Georgia","name:na":"Djiordjiya","name:ne":"\u091c\u0930\u094d\u091c\u093f\u092f\u093e (\u0926\u0947\u0936)","name:wo":"Jeoorji","name:nv":"J\u00f3ojah (K\u00e9yah)","name:ga":"An tSeoirsia","name:gd":"A' Chairtbheil","name:gl":"Xeorxia - \u10e1\u10d0\u10e5\u10d0\u10e0\u10d7\u10d5\u10d4\u10da\u10dd","name:gv":"Yn \u00c7horshey","name:gu":"\u0a9c\u0acd\u0aaf\u0acb\u0ab0\u0acd\u0a9c\u0ac0\u0aaf\u0abe (\u0aa6\u0ac7\u0ab6)"},"arcs":[0]},{"type":"LineString","properties":{"name:right:hy":"\u053f\u0561\u0562\u0561\u0580\u0564\u0561-\u0532\u0561\u056c\u056f\u0561\u0580\u056b\u0561","name:right:nl":"Kabardi\u00eb-Balkari\u00eb","name:right:fr":"Kabardino-Balkarie","name:right:uk":"\u041a\u0430\u0431\u0430\u0440\u0434\u0438\u043d\u043e-\u0411\u0430\u043b\u043a\u0430\u0440\u0456\u044f","int_name:left":"Samegrelo-Zemo Svaneti","id:right":-109879,"name:left:uk":"\u0421\u0430\u043c\u0435\u0491\u0440\u0435\u043b\u043e-\u0417\u0435\u043c\u043e \u0421\u0432\u0430\u043d\u0435\u0442\u0456","min_zoom":8.0,"name:right:sl":"Republika Kabardino-Balkarija","name:right:ce":"\u0413\u04c0\u0435\u0431\u0430\u0440\u0442\u043e\u0439\u043d-\u0411\u0430\u043b\u043a\u0445\u0430\u0440\u043e\u0439\u0447\u043e\u044c","id":-1996076,"name:right":"\u041a\u0430\u0431\u0430\u0440\u0434\u0438\u043d\u043e-\u0411\u0430\u043b\u043a\u0430\u0440\u0438\u044f","name:right:ab":"\u049e\u0430\u0431\u0430\u0440\u0434\u0430-\u0411\u0430\u043b\u043a\u0430\u0440\u0438\u0430\u200e","name:right:ca":"Kabardino-Balk\u00e0ria","kind_detail":"4","name:left:ca":"Samegrelo - Zemo Svaneti","source":"openstreetmap.org","id:left":-1996076,"name:right:cs":"Kabardsko-Balkarsko","name:right:az":"Kabarda-Balkariya","name:left":"\u10e1\u10d0\u10db\u10d4\u10d2\u10e0\u10d4\u10da\u10dd-\u10d6\u10d4\u10db\u10dd \u10e1\u10d5\u10d0\u10dc\u10d4\u10d7\u10d8","name:right:es":"Kabardia-Balkaria","name:right:pt":"Cab\u00e1rdia-Balc\u00e1ria","name:left:ku":"Sam\u00eagrelo \u00fb Z\u00eamo Svan\u00eat\u00ee","name:left:ab":"\u0410\u0433\u044b\u0440\u043d\u044b-\u0425\u044b\u0445\u044c\u0442\u04d9\u0438 \u0428\u04d9\u0430\u043d\u044b","name:left:ru":"\u041c\u0435\u0433\u0440\u0435\u043b\u0438\u044f-\u0412\u0435\u0440\u0445\u043d\u044f\u044f \u0421\u0432\u0430\u043d\u0435\u0442\u0438\u044f","name:left:it":"Mingrelia-Alta Svanezia","name:right:pl":"Kabardo-Ba\u0142karia","name:right:en":"Kabardino-Balkaria","osm_relation":true,"name:left:en":"Samegrelo-Upper Svaneti","kind":"region","name:right:ka":"\u10e7\u10d0\u10d1\u10d0\u10e0\u10d3\u10dd-\u10d1\u10d0\u10da\u10e7\u10d0\u10e0\u10d4\u10d7\u10d8","name":"\u10e1\u10d0\u10db\u10d4\u10d2\u10e0\u10d4\u10da\u10dd-\u10d6\u10d4\u10db\u10dd \u10e1\u10d5\u10d0\u10dc\u10d4\u10d7\u10d8 - \u041a\u0430\u0431\u0430\u0440\u0434\u0438\u043d\u043e-\u0411\u0430\u043b\u043a\u0430\u0440\u0438\u044f","name:right:de":"Kabardino-Balkarien","name:left:de":"Mingrelien-Oberswanetien","name:right:be":"\u041a\u0430\u0431\u0430\u0440\u0434\u0437\u0456\u043d\u0430-\u0411\u0430\u043b\u043a\u0430\u0440\u044b\u044f","sort_rank":256,"name:left:fr":"Mingr\u00e9lie-et-Haute-Svan\u00e9tie","name:right:zh":"\u5361\u5df4\u5c14\u8fbe-\u5df4\u5c14\u5361\u5c14\u5171\u548c\u56fd"},"arcs":[1]},{"type":"LineString","properties":{"name:right:ja":"\u30ab\u30e9\u30c1\u30e3\u30a4\u30fb\u30c1\u30a7\u30eb\u30b1\u30b9\u5171\u548c\u56fd","name:right:uk":"\u041a\u0430\u0440\u0430\u0447\u0430\u0301\u0454\u0432\u043e-\u0427\u0435\u0440\u043a\u0435\u0301\u0441\u044c\u043a\u0430 \u0420\u0435\u0441\u043f\u0443\u0301\u0431\u043b\u0456\u043a\u0430","int_name:left":"Samegrelo-Zemo Svaneti","id:right":-109878,"name:left:uk":"\u0421\u0430\u043c\u0435\u0491\u0440\u0435\u043b\u043e-\u0417\u0435\u043c\u043e \u0421\u0432\u0430\u043d\u0435\u0442\u0456","min_zoom":8.0,"name:right:sl":"Republika Kara\u010daj-\u010cerkezija","name:right:fa":"\u0642\u0631\u0647\u200c\u0686\u0627\u06cc \u0648 \u0686\u0631\u06a9\u0633","name:left:ca":"Samegrelo - Zemo Svaneti","id":-1996076,"name:right":"\u041a\u0430\u0440\u0430\u0447\u0430\u0435\u0432\u043e-\u0427\u0435\u0440\u043a\u0435\u0441\u0438\u044f","name:left:en":"Samegrelo-Upper Svaneti","name:right:ca":"Karatxai-Txerk\u00e8ssia","kind_detail":"4","name:right:ce":"\u041a\u0445\u0430\u0440\u0430\u0447\u043e\u0439-\u0427\u0435\u0440\u0433\u0430\u0437\u0438\u0439\u0447\u043e\u044c","source":"openstreetmap.org","id:left":-1996076,"official_name:right":"\u041a\u0430\u0440\u0430\u0447\u0430\u0435\u0432\u043e-\u0427\u0435\u0440\u043a\u0435\u0441\u0441\u043a\u0430\u044f \u0440\u0435\u0441\u043f\u0443\u0431\u043b\u0438\u043a\u0430","name:left":"\u10e1\u10d0\u10db\u10d4\u10d2\u10e0\u10d4\u10da\u10dd-\u10d6\u10d4\u10db\u10dd \u10e1\u10d5\u10d0\u10dc\u10d4\u10d7\u10d8","name:left:ku":"Sam\u00eagrelo \u00fb Z\u00eamo Svan\u00eat\u00ee","name:left:ab":"\u0410\u0433\u044b\u0440\u043d\u044b-\u0425\u044b\u0445\u044c\u0442\u04d9\u0438 \u0428\u04d9\u0430\u043d\u044b","name:left:ru":"\u041c\u0435\u0433\u0440\u0435\u043b\u0438\u044f-\u0412\u0435\u0440\u0445\u043d\u044f\u044f \u0421\u0432\u0430\u043d\u0435\u0442\u0438\u044f","name:left:it":"Mingrelia-Alta Svanezia","name:right:en":"Karachay-Cherkessia","osm_relation":true,"kind":"region","name":"\u10e1\u10d0\u10db\u10d4\u10d2\u10e0\u10d4\u10da\u10dd-\u10d6\u10d4\u10db\u10dd \u10e1\u10d5\u10d0\u10dc\u10d4\u10d7\u10d8 - \u041a\u0430\u0440\u0430\u0447\u0430\u0435\u0432\u043e-\u0427\u0435\u0440\u043a\u0435\u0441\u0438\u044f","name:right:de":"Karatschai-Tscherkessien","name:left:de":"Mingrelien-Oberswanetien","sort_rank":256,"name:left:fr":"Mingr\u00e9lie-et-Haute-Svan\u00e9tie","alt_name:right:sl":"Kara\u010daj-\u010cerkezija","name:right:zh":"\u5361\u62c9\u6070\u4f0a-\u5207\u5c14\u514b\u65af\u5171\u548c\u56fd"},"arcs":[2]},{"type":"LineString","properties":{"name:right:ja":"\u30ab\u30e9\u30c1\u30e3\u30a4\u30fb\u30c1\u30a7\u30eb\u30b1\u30b9\u5171\u548c\u56fd","name:right:uk":"\u041a\u0430\u0440\u0430\u0447\u0430\u0301\u0454\u0432\u043e-\u0427\u0435\u0440\u043a\u0435\u0301\u0441\u044c\u043a\u0430 \u0420\u0435\u0441\u043f\u0443\u0301\u0431\u043b\u0456\u043a\u0430","name:right:ce":"\u041a\u0445\u0430\u0440\u0430\u0447\u043e\u0439-\u0427\u0435\u0440\u0433\u0430\u0437\u0438\u0439\u0447\u043e\u044c","name:left:be":"\u041a\u0430\u0431\u0430\u0440\u0434\u0437\u0456\u043d\u0430-\u0411\u0430\u043b\u043a\u0430\u0440\u044b\u044f","id:right":-109878,"name:left:uk":"\u041a\u0430\u0431\u0430\u0440\u0434\u0438\u043d\u043e-\u0411\u0430\u043b\u043a\u0430\u0440\u0456\u044f","name:left:sl":"Republika Kabardino-Balkarija","min_zoom":8.0,"name:right:sl":"Republika Kara\u010daj-\u010cerkezija","name:right:fa":"\u0642\u0631\u0647\u200c\u0686\u0627\u06cc \u0648 \u0686\u0631\u06a9\u0633","id":-109879,"name:right":"\u041a\u0430\u0440\u0430\u0447\u0430\u0435\u0432\u043e-\u0427\u0435\u0440\u043a\u0435\u0441\u0438\u044f","name:right:ca":"Karatxai-Txerk\u00e8ssia","name:left:en":"Kabardino-Balkaria","name:left:ce":"\u0413\u04c0\u0435\u0431\u0430\u0440\u0442\u043e\u0439\u043d-\u0411\u0430\u043b\u043a\u0445\u0430\u0440\u043e\u0439\u0447\u043e\u044c","kind_detail":"4","name:left:ca":"Kabardino-Balk\u00e0ria","source":"openstreetmap.org","name:left:nl":"Kabardi\u00eb-Balkari\u00eb","id:left":-109879,"official_name:right":"\u041a\u0430\u0440\u0430\u0447\u0430\u0435\u0432\u043e-\u0427\u0435\u0440\u043a\u0435\u0441\u0441\u043a\u0430\u044f \u0440\u0435\u0441\u043f\u0443\u0431\u043b\u0438\u043a\u0430","name:left:cs":"Kabardsko-Balkarsko","name:left":"\u041a\u0430\u0431\u0430\u0440\u0434\u0438\u043d\u043e-\u0411\u0430\u043b\u043a\u0430\u0440\u0438\u044f","name:left:ka":"\u10e7\u10d0\u10d1\u10d0\u10e0\u10d3\u10dd-\u10d1\u10d0\u10da\u10e7\u10d0\u10e0\u10d4\u10d7\u10d8","name:left:pl":"Kabardo-Ba\u0142karia","name:left:az":"Kabarda-Balkariya","name:left:pt":"Cab\u00e1rdia-Balc\u00e1ria","name:left:es":"Kabardia-Balkaria","name:left:ab":"\u049e\u0430\u0431\u0430\u0440\u0434\u0430-\u0411\u0430\u043b\u043a\u0430\u0440\u0438\u0430\u200e","name:right:en":"Karachay-Cherkessia","osm_relation":true,"kind":"region","name":"\u041a\u0430\u0431\u0430\u0440\u0434\u0438\u043d\u043e-\u0411\u0430\u043b\u043a\u0430\u0440\u0438\u044f - \u041a\u0430\u0440\u0430\u0447\u0430\u0435\u0432\u043e-\u0427\u0435\u0440\u043a\u0435\u0441\u0438\u044f","name:right:de":"Karatschai-Tscherkessien","name:left:de":"Kabardino-Balkarien","sort_rank":256,"name:left:zh":"\u5361\u5df4\u5c14\u8fbe-\u5df4\u5c14\u5361\u5c14\u5171\u548c\u56fd","name:left:fr":"Kabardino-Balkarie","alt_name:right:sl":"Kara\u010daj-\u010cerkezija","name:right:zh":"\u5361\u62c9\u6070\u4f0a-\u5207\u5c14\u514b\u65af\u5171\u548c\u56fd","name:left:hy":"\u053f\u0561\u0562\u0561\u0580\u0564\u0561-\u0532\u0561\u056c\u056f\u0561\u0580\u056b\u0561"},"arcs":[3]},{"type":"LineString","properties":{"name:right:hy":"\u054d\u057f\u0561\u057e\u0580\u0578\u057a\u0578\u056c\u056b \u0565\u0580\u056f\u0580\u0561\u0574\u0561\u057d","name:right:uk":"\u0421\u0442\u0430\u0432\u0440\u043e\u043f\u043e\u043b\u044c\u0441\u044c\u043a\u0438\u0439 \u043a\u0440\u0430\u0439","name:right:lt":"Stavropolio kra\u0161tas","name:left:sl":"Republika Kabardino-Balkarija","min_zoom":8.0,"name:left:hy":"\u053f\u0561\u0562\u0561\u0580\u0564\u0561-\u0532\u0561\u056c\u056f\u0561\u0580\u056b\u0561","name:right:av":"\u0421\u0442\u0430\u0432\u0440\u043e\u043f\u043e\u043b \u0443\u043b\u043a\u0430","sort_rank":256,"name:left:ca":"Kabardino-Balk\u00e0ria","int_name:right":"Stavropol Krai","source":"openstreetmap.org","osm_relation":true,"name:right:az":"Stavropol diyar\u0131","name:left:cs":"Kabardsko-Balkarsko","name:left":"\u041a\u0430\u0431\u0430\u0440\u0434\u0438\u043d\u043e-\u0411\u0430\u043b\u043a\u0430\u0440\u0438\u044f","name:right:es":"Krai de St\u00e1vropol","name:left:ka":"\u10e7\u10d0\u10d1\u10d0\u10e0\u10d3\u10dd-\u10d1\u10d0\u10da\u10e7\u10d0\u10e0\u10d4\u10d7\u10d8","name:right:mn":"\u0421\u0442\u0430\u0432\u0440\u043e\u043f\u043e\u043b\u0438\u0439\u043d \u0445\u044f\u0437\u0433\u0430\u0430\u0440","name:right:it":"Territorio di Stavropol'","name:right:vi":"Stavropol (v\u00f9ng)","name:right:ro":"\u021ainutul Stavropol","name:right:sv":"Stavropol kraj","name:right:en":"Stavropol Krai","name:right:el":"\u039a\u03c1\u03ac\u03b9 \u03a3\u03c4\u03b1\u03c5\u03c1\u03bf\u03cd\u03c0\u03bf\u03bb\u03b7\u03c2","kind":"region","name":"\u041a\u0430\u0431\u0430\u0440\u0434\u0438\u043d\u043e-\u0411\u0430\u043b\u043a\u0430\u0440\u0438\u044f - \u0421\u0442\u0430\u0432\u0440\u043e\u043f\u043e\u043b\u044c\u0441\u043a\u0438\u0439 \u043a\u0440\u0430\u0439","name:right:bg":"\u0421\u0442\u0430\u0432\u0440\u043e\u043f\u043e\u043b\u0441\u043a\u0438 \u043a\u0440\u0430\u0439","name:right:be":"\u0421\u0442\u0430\u045e\u0440\u0430\u043f\u043e\u043b\u044c\u0441\u043a\u0456 \u043a\u0440\u0430\u0439","name:left:zh":"\u5361\u5df4\u5c14\u8fbe-\u5df4\u5c14\u5361\u5c14\u5171\u548c\u56fd","name:left:fr":"Kabardino-Balkarie","name:right:zh":"\u65af\u5854\u592b\u7f57\u6ce2\u5c14\u8fb9\u7586\u533a","name:right:nl":"Kraj Stavropol","name:right:ja":"\u30b9\u30bf\u30f4\u30ed\u30dd\u30ea\u5730\u65b9","name:right:fr":"Kra\u00ef de Stavropol","id:right":-108081,"name:left:uk":"\u041a\u0430\u0431\u0430\u0440\u0434\u0438\u043d\u043e-\u0411\u0430\u043b\u043a\u0430\u0440\u0456\u044f","name:left:nl":"Kabardi\u00eb-Balkari\u00eb","name:right:sl":"Stavropolski kraj","name:left:be":"\u041a\u0430\u0431\u0430\u0440\u0434\u0437\u0456\u043d\u0430-\u0411\u0430\u043b\u043a\u0430\u0440\u044b\u044f","id":-109879,"name:right":"\u0421\u0442\u0430\u0432\u0440\u043e\u043f\u043e\u043b\u044c\u0441\u043a\u0438\u0439 \u043a\u0440\u0430\u0439","name:left:en":"Kabardino-Balkaria","name:right:ca":"Territori de St\u00e0vropol","kind_detail":"4","name:right:ce":"\u0421\u0442\u0430\u0432\u0440\u043e\u043f\u043e\u043b\u0430\u043d \u043c\u0435\u0445\u043a\u0430\u0439\u0438\u0441\u0442","name:right:tt":"\u0421\u0442\u0430\u0432\u0440\u043e\u043f\u043e\u043b\u044c \u043a\u0440\u0430\u0435","id:left":-109879,"name:left:es":"Kabardia-Balkaria","name:right:cs":"Stavropolsk\u00fd kraj","name:right:cv":"\u0421\u0442\u0430\u0432\u0440\u043e\u043f\u043e\u043b\u044c \u0415\u043d","name:right:ka":"\u10e1\u10e2\u10d0\u10d5\u10e0\u10dd\u10de\u10dd\u10da\u10d8\u10e1 \u10db\u10ee\u10d0\u10e0\u10d4","name:right:pt":"Krai de Stavropol","name:left:pl":"Kabardo-Ba\u0142karia","name:left:az":"Kabarda-Balkariya","name:right:tr":"Stavropol Kray\u0131","name:left:pt":"Cab\u00e1rdia-Balc\u00e1ria","name:left:de":"Kabardino-Balkarien","name:left:ab":"\u049e\u0430\u0431\u0430\u0440\u0434\u0430-\u0411\u0430\u043b\u043a\u0430\u0440\u0438\u0430\u200e","name:right:kv":"\u0421\u0442\u0430\u0432\u0440\u043e\u043f\u043e\u043b\u044c \u043a\u0440\u0430\u0439","short_name:right":"\u0421\u0442\u0430\u0432\u0440\u043e\u043f\u043e\u043b\u044c\u0435","name:right:pl":"Kraj Stawropolski","name:right:os":"\u0421\u0442\u044a\u0430\u0440\u0430\u043f\u043e\u043b\u044b \u043a\u0440\u0430\u0439","name:right:de":"Region Stawropol","name:right:da":"Stavropol kraj","name:left:ce":"\u0413\u04c0\u0435\u0431\u0430\u0440\u0442\u043e\u0439\u043d-\u0411\u0430\u043b\u043a\u0445\u0430\u0440\u043e\u0439\u0447\u043e\u044c"},"arcs":[4]},{"type":"LineString","properties":{"name:right:hy":"\u054d\u057f\u0561\u057e\u0580\u0578\u057a\u0578\u056c\u056b \u0565\u0580\u056f\u0580\u0561\u0574\u0561\u057d","name:right:nl":"Kraj Stavropol","name:right:ja":"\u30b9\u30bf\u30f4\u30ed\u30dd\u30ea\u5730\u65b9","name:right:fr":"Kra\u00ef de Stavropol","name:right:uk":"\u0421\u0442\u0430\u0432\u0440\u043e\u043f\u043e\u043b\u044c\u0441\u044c\u043a\u0438\u0439 \u043a\u0440\u0430\u0439","name:right:ce":"\u0421\u0442\u0430\u0432\u0440\u043e\u043f\u043e\u043b\u0430\u043d \u043c\u0435\u0445\u043a\u0430\u0439\u0438\u0441\u0442","name:left:ja":"\u30ab\u30e9\u30c1\u30e3\u30a4\u30fb\u30c1\u30a7\u30eb\u30b1\u30b9\u5171\u548c\u56fd","name:right:sv":"Stavropol kraj","name:right:lt":"Stavropolio kra\u0161tas","name:left:sl":"Republika Kara\u010daj-\u010cerkezija","min_zoom":8.0,"name:right:sl":"Stavropolski kraj","id":-109878,"name:right":"\u0421\u0442\u0430\u0432\u0440\u043e\u043f\u043e\u043b\u044c\u0441\u043a\u0438\u0439 \u043a\u0440\u0430\u0439","name:right:ca":"Territori de St\u00e0vropol","name:left:en":"Karachay-Cherkessia","source":"openstreetmap.org","sort_rank":256,"kind_detail":"4","name:left:ca":"Karatxai-Txerk\u00e8ssia","int_name:right":"Stavropol Krai","name:right:av":"\u0421\u0442\u0430\u0432\u0440\u043e\u043f\u043e\u043b \u0443\u043b\u043a\u0430","osm_relation":true,"id:left":-109878,"name:right:cs":"Stavropolsk\u00fd kraj","name:right:az":"Stavropol diyar\u0131","name:right:cv":"\u0421\u0442\u0430\u0432\u0440\u043e\u043f\u043e\u043b\u044c \u0415\u043d","name:right:ka":"\u10e1\u10e2\u10d0\u10d5\u10e0\u10dd\u10de\u10dd\u10da\u10d8\u10e1 \u10db\u10ee\u10d0\u10e0\u10d4","alt_name:left:sl":"Kara\u010daj-\u010cerkezija","name:right:pt":"Krai de Stavropol","name:right:mn":"\u0421\u0442\u0430\u0432\u0440\u043e\u043f\u043e\u043b\u0438\u0439\u043d \u0445\u044f\u0437\u0433\u0430\u0430\u0440","name:right:tt":"\u0421\u0442\u0430\u0432\u0440\u043e\u043f\u043e\u043b\u044c \u043a\u0440\u0430\u0435","name:right:it":"Territorio di Stavropol'","name:right:tr":"Stavropol Kray\u0131","name:right:vi":"Stavropol (v\u00f9ng)","name:right:es":"Krai de St\u00e1vropol","name:left:de":"Karatschai-Tscherkessien","name:right:ro":"\u021ainutul Stavropol","name:right:kv":"\u0421\u0442\u0430\u0432\u0440\u043e\u043f\u043e\u043b\u044c \u043a\u0440\u0430\u0439","short_name:right":"\u0421\u0442\u0430\u0432\u0440\u043e\u043f\u043e\u043b\u044c\u0435","name:right:bg":"\u0421\u0442\u0430\u0432\u0440\u043e\u043f\u043e\u043b\u0441\u043a\u0438 \u043a\u0440\u0430\u0439","id:right":-108081,"name:right:pl":"Kraj Stawropolski","name:right:en":"Stavropol Krai","name:right:os":"\u0421\u0442\u044a\u0430\u0440\u0430\u043f\u043e\u043b\u044b \u043a\u0440\u0430\u0439","name:right:el":"\u039a\u03c1\u03ac\u03b9 \u03a3\u03c4\u03b1\u03c5\u03c1\u03bf\u03cd\u03c0\u03bf\u03bb\u03b7\u03c2","name:left:uk":"\u041a\u0430\u0440\u0430\u0447\u0430\u0301\u0454\u0432\u043e-\u0427\u0435\u0440\u043a\u0435\u0301\u0441\u044c\u043a\u0430 \u0420\u0435\u0441\u043f\u0443\u0301\u0431\u043b\u0456\u043a\u0430","kind":"region","name":"\u041a\u0430\u0440\u0430\u0447\u0430\u0435\u0432\u043e-\u0427\u0435\u0440\u043a\u0435\u0441\u0438\u044f - \u0421\u0442\u0430\u0432\u0440\u043e\u043f\u043e\u043b\u044c\u0441\u043a\u0438\u0439 \u043a\u0440\u0430\u0439","name:left:fa":"\u0642\u0631\u0647\u200c\u0686\u0627\u06cc \u0648 \u0686\u0631\u06a9\u0633","name:right:de":"Region Stawropol","name:right:da":"Stavropol kraj","name:right:be":"\u0421\u0442\u0430\u045e\u0440\u0430\u043f\u043e\u043b\u044c\u0441\u043a\u0456 \u043a\u0440\u0430\u0439","name:left:ce":"\u041a\u0445\u0430\u0440\u0430\u0447\u043e\u0439-\u0427\u0435\u0440\u0433\u0430\u0437\u0438\u0439\u0447\u043e\u044c","name:left:zh":"\u5361\u62c9\u6070\u4f0a-\u5207\u5c14\u514b\u65af\u5171\u548c\u56fd","name:right:zh":"\u65af\u5854\u592b\u7f57\u6ce2\u5c14\u8fb9\u7586\u533a","name:left":"\u041a\u0430\u0440\u0430\u0447\u0430\u0435\u0432\u043e-\u0427\u0435\u0440\u043a\u0435\u0441\u0438\u044f","official_name:left":"\u041a\u0430\u0440\u0430\u0447\u0430\u0435\u0432\u043e-\u0427\u0435\u0440\u043a\u0435\u0441\u0441\u043a\u0430\u044f \u0440\u0435\u0441\u043f\u0443\u0431\u043b\u0438\u043a\u0430"},"arcs":[5]}]},"roads":{"type":"GeometryCollection","geometries":[{"type":"LineString","properties":{"kind":"major_road","network":"ru:national","sort_rank":380,"kind_detail":"primary","source":"openstreetmap.org","min_zoom":8.0,"landuse_kind":"urban_area","shield_text":"158","ref":"\u0410-158"},"arcs":[17]},{"type":"MultiLineString","properties":{"bus_network":null,"sort_rank":380,"kind_detail":"primary","kind":"major_road","source":"openstreetmap.org","min_zoom":8.0,"bus_shield_text":"3","landuse_kind":"urban_area"},"arcs":[[18],[19],[20],[21],[22],[23],[24],[25],[26]]},{"type":"LineString","properties":{"bus_network":null,"network":"ru:national","sort_rank":381,"kind_detail":"trunk","kind":"major_road","source":"openstreetmap.org","min_zoom":8.0,"bus_shield_text":"3","shield_text":"217","landuse_kind":"residential","ref":"\u0420-217"},"arcs":[27]},{"type":"MultiLineString","properties":{"kind":"major_road","network":"ru:national","sort_rank":380,"kind_detail":"primary","source":"openstreetmap.org","min_zoom":8.0,"shield_text":"157","ref":"\u0410-157"},"arcs":[[28],[29],[30],[31],[32],[33]]},{"type":"LineString","properties":{"source":"openstreetmap.org","kind":"major_road","name:en":"Lenina Street","sort_rank":380,"kind_detail":"primary","min_zoom":8.0,"id":33833429},"arcs":[34]},{"type":"MultiLineString","properties":{"sort_rank":381,"source":"openstreetmap.org","min_zoom":8.0,"kind":"major_road","kind_detail":"trunk"},"arcs":[[35],[36],[37],[38]]},{"type":"MultiLineString","properties":{"kind":"major_road","network":"ru:national","sort_rank":381,"landuse_kind":"urban_area","source":"openstreetmap.org","min_zoom":8.0,"kind_detail":"trunk","shield_text":"217","ref":"\u0420-217"},"arcs":[[39],[40],[41],[42],[43],[44],[45]]},{"type":"LineString","properties":{"source":"openstreetmap.org","kind":"major_road","kind_detail":"trunk","sort_rank":381,"landuse_kind":"urban_area","min_zoom":8.0},"arcs":[46]},{"type":"MultiLineString","properties":{"source":"openstreetmap.org","kind":"major_road","landuse_kind":"urban_area","sort_rank":380,"kind_detail":"primary","min_zoom":8.0},"arcs":[[47],[48],[49],[50],[51],[52],[53],[54],[55],[56],[57],[58],[59],[60],[61],[62],[63],[64],[65],[66],[67],[68],[69],[70],[71],[72],[73],[74],[75],[76],[77],[78],[79],[80],[81],[82],[83],[84],[85],[86],[87],[88],[89],[90]]},{"type":"MultiLineString","properties":{"bus_network":null,"network":"ru:national","sort_rank":380,"kind_detail":"primary","kind":"major_road","source":"openstreetmap.org","min_zoom":8.0,"bus_shield_text":"3","shield_text":"217","landuse_kind":"urban_area","ref":"\u0420-217"},"arcs":[[91],[92],[93],[94],[95]]},{"type":"MultiLineString","properties":{"bus_network":null,"network":"ru:national","sort_rank":380,"kind_detail":"primary","kind":"major_road","source":"openstreetmap.org","min_zoom":8.0,"bus_shield_text":"3","shield_text":"217","ref":"\u0420-217"},"arcs":[[96],[97],[98],[99]]},{"type":"MultiLineString","properties":{"bus_network":null,"network":"ru:national","sort_rank":381,"landuse_kind":"urban_area","kind":"major_road","source":"openstreetmap.org","min_zoom":8.0,"bus_shield_text":"3","shield_text":"217","kind_detail":"trunk","ref":"\u0420-217"},"arcs":[[100],[101],[102],[103],[104],[105],[106],[107],[108],[109],[110]]},{"type":"LineString","properties":{"kind":"major_road","name:en":"Zelyonaya Street","sort_rank":380,"kind_detail":"primary","name:de":"Seljonaja uliza","source":"openstreetmap.org","min_zoom":8.0,"landuse_kind":"urban_area","id":293656823},"arcs":[111]},{"type":"MultiLineString","properties":{"kind":"major_road","network":"ru:national","sort_rank":380,"kind_detail":"primary","source":"openstreetmap.org","min_zoom":8.0,"landuse_kind":"residential","shield_text":"157","ref":"\u0410-157"},"arcs":[[112],[113],[114]]},{"type":"MultiLineString","properties":{"sort_rank":380,"kind_detail":"primary","min_zoom":8.0,"kind":"major_road","source":"openstreetmap.org"},"arcs":[[115],[116],[117],[118],[119],[120],[121],[122],[123]]},{"type":"MultiLineString","properties":{"kind":"major_road","network":"ru:national","sort_rank":380,"kind_detail":"primary","source":"openstreetmap.org","min_zoom":8.0,"landuse_kind":"urban_area","shield_text":"157","ref":"\u0410-157"},"arcs":[[124],[125],[126],[127],[128],[129]]},{"type":"MultiLineString","properties":{"kind":"major_road","network":"ru:national","sort_rank":380,"kind_detail":"primary","source":"openstreetmap.org","min_zoom":8.0,"shield_text":"158","ref":"\u0410-158"},"arcs":[[130],[131]]},{"type":"MultiLineString","properties":{"bus_network":null,"network":"ru:national","sort_rank":381,"kind_detail":"trunk","kind":"major_road","source":"openstreetmap.org","min_zoom":8.0,"bus_shield_text":"3","shield_text":"217","ref":"\u0420-217"},"arcs":[[132],[133],[134],[135],[136],[137],[138],[139],[140],[141],[142],[143],[144],[145]]},{"type":"LineString","properties":{"bus_network":null,"network":"ru:national","sort_rank":380,"kind_detail":"primary","kind":"major_road","source":"openstreetmap.org","min_zoom":8.0,"bus_shield_text":"3","shield_text":"217","id":374595991},"arcs":[146]},{"type":"LineString","properties":{"source":"openstreetmap.org","bus_network":null,"bus_shield_text":"3","sort_rank":380,"kind_detail":"primary","min_zoom":8.0,"kind":"major_road"},"arcs":[147]},{"type":"LineString","properties":{"source":"openstreetmap.org","kind":"major_road","sort_rank":380,"kind_detail":"primary","ref":"\u0410-157","min_zoom":8.0,"id":200046310},"arcs":[148]},{"type":"MultiLineString","properties":{"source":"openstreetmap.org","kind":"major_road","landuse_kind":"residential","sort_rank":380,"kind_detail":"primary","min_zoom":8.0},"arcs":[[149],[150],[151],[152],[153],[154],[155],[156]]},{"type":"LineString","properties":{"source":"openstreetmap.org","kind":"major_road","name:en":"Lenina Street","landuse_kind":"residential","sort_rank":380,"kind_detail":"primary","min_zoom":8.0},"arcs":[157]},{"type":"LineString","properties":{"bus_network":null,"sort_rank":380,"kind_detail":"primary","kind":"major_road","source":"openstreetmap.org","min_zoom":8.0,"bus_shield_text":"3","ref":"\u0420262"},"arcs":[158]},{"type":"LineString","properties":{"kind":"major_road","network":"ru:national","sort_rank":381,"kind_detail":"trunk","bus_network":null,"source":"openstreetmap.org","min_zoom":8.0,"bus_shield_text":"3","shield_text":"158","ref":"\u0420-217","id":10637152},"arcs":[159]},{"type":"MultiLineString","properties":{"bus_network":null,"sort_rank":380,"kind_detail":"primary","kind":"major_road","source":"openstreetmap.org","min_zoom":8.0,"bus_shield_text":"3","landuse_kind":"residential"},"arcs":[[160],[161]]},{"type":"MultiLineString","properties":{"kind":"major_road","network":"ru:national","sort_rank":381,"kind_detail":"trunk","source":"openstreetmap.org","min_zoom":8.0,"shield_text":"217","ref":"\u0420-217"},"arcs":[[162],[163]]}]},"earth":{"type":"GeometryCollection","geometries":[{"type":"Polygon","properties":{"sort_rank":10,"source":"naturalearthdata.com","kind":"earth","min_zoom":0.0,"id":4743},"arcs":[[164]]}]},"landuse":{"type":"GeometryCollection","geometries":[{"type":"Polygon","properties":{"kind":"residential","name:en":"Kislovodsk","name":"\u041a\u0438\u0441\u043b\u043e\u0432\u043e\u0434\u0441\u043a","area":82800304,"sort_rank":20,"name:de":"Kislowodsk","source":"openstreetmap.org","min_zoom":8.0,"int_name":"Kislovodsk","name:uk":"\u041a\u0438\u0441\u043b\u043e\u0432\u043e\u0434\u0441\u044c\u043a","old_name":"\u0441\u043b\u043e\u0431\u043e\u0434\u0430 \u041a\u0438\u0441\u043b\u043e\u0432\u043e\u0434\u0441\u043a\u0430\u044f, \u0441\u0442\u0430\u043d\u0438\u0446\u0430 \u041a\u0438\u0441\u043b\u043e\u0432\u043e\u0434\u0441\u043a\u0430\u044f","tier":2,"name:pl":"Kis\u0142owodzk","id":313578986},"arcs":[[165]]},{"type":"Polygon","properties":{"kind":"glacier","name:en":"Birdzhalichiran Glacier","natural":"glacier","name":"\u043b\u0435\u0434\u043d\u0438\u043a \u0411\u0438\u0440\u0434\u0436\u0430\u043b\u044b\u0447\u0438\u0440\u0430\u043d","area":27810000,"sort_rank":29,"source":"openstreetmap.org","min_zoom":8.0,"tier":3,"id":-2704011,"osm_relation":true},"arcs":[[166]]},{"type":"MultiPolygon","properties":{"kind":"glacier","name:en":"Ulauzna Glacier","natural":"glacier","name":"\u0423\u043b\u0430\u0443\u0437\u043d\u0430","area":12017700,"sort_rank":29,"source":"openstreetmap.org","min_zoom":8.0,"tier":3,"id":226570750},"arcs":[[[167]],[[168]]]},{"type":"Polygon","properties":{"kind":"glacier","name:en":"Chalaadi Glacier","natural":"glacier","name":"\u043b\u0435\u0434\u043d\u0438\u043a \u0427\u0430\u043b\u0430\u0430\u0442","area":21634100,"sort_rank":29,"source":"openstreetmap.org","min_zoom":8.0,"tier":3,"id":-5498394,"osm_relation":true},"arcs":[[169]]},{"type":"Polygon","properties":{"kind":"glacier","name:en":"Ulluchiran Glacier","natural":"glacier","name":"\u043b\u0435\u0434\u043d\u0438\u043a \u0423\u043b\u043b\u0443\u0447\u0438\u0440\u0430\u043d","area":15786600,"sort_rank":29,"source":"openstreetmap.org","min_zoom":8.0,"tier":3,"id":-2304806,"osm_relation":true},"arcs":[[170],[171],[172],[173],[174]]},{"type":"Polygon","properties":{"kind":"glacier","name:en":"Bezengi","natural":"glacier","name":"\u0411\u0435\u0437\u0435\u043d\u0433\u0438","area":45895200,"sort_rank":29,"source":"openstreetmap.org","min_zoom":8.0,"tier":3,"id":-3500163,"osm_relation":true},"arcs":[[175]]},{"type":"Polygon","properties":{"kind":"park","area":17714400,"sort_rank":24,"source":"openstreetmap.org","min_zoom":8.0,"tier":2,"id":-7504587,"osm_relation":true},"arcs":[[176]]},{"type":"Polygon","properties":{"kind":"glacier","name:en":"Karachaul Glacier","natural":"glacier","name":"\u043b\u0435\u0434\u043d\u0438\u043a \u041a\u0430\u0440\u0430\u0447\u0430\u0443\u043b","area":12246700,"sort_rank":29,"source":"openstreetmap.org","min_zoom":8.0,"tier":3,"id":-2704013,"osm_relation":true},"arcs":[[177]]},{"type":"Polygon","properties":{"kind":"glacier","name:en":"Tsaneri Glacier","natural":"glacier","name":"\u10ec\u10d0\u10dc\u10d4\u10e0\u10d8","area":12595300,"sort_rank":29,"name:de":"Zaneri-Gletscher","source":"openstreetmap.org","min_zoom":8.0,"osm_relation":true,"tier":3,"name:ru":"\u043b\u0435\u0434\u043d\u0438\u043a \u0426\u0430\u043d\u0435\u0440\u0438","id":-6561626,"name:es":"Glaciar de Tsaneri"},"arcs":[[178]]},{"type":"Polygon","properties":{"kind":"residential","name":"\u041a\u0440\u0430\u0441\u043d\u044b\u0439 \u041a\u0443\u0440\u0433\u0430\u043d","area":10891800,"sort_rank":20,"source":"openstreetmap.org","min_zoom":8.0,"tier":2,"id":83485237},"arcs":[[179]]},{"type":"Polygon","properties":{"kind":"glacier","name:en":"Irik Glacier","natural":"glacier","name":"\u043b\u0435\u0434\u043d\u0438\u043a \u0418\u0440\u0438\u043a","area":16443600,"sort_rank":29,"source":"openstreetmap.org","min_zoom":8.0,"tier":3,"id":-1470723,"osm_relation":true},"arcs":[[180],[181],[182],[183]]},{"type":"Polygon","properties":{"kind":"glacier","name:en":"Tsaneri","natural":"glacier","name":"\u10ec\u10d0\u10dc\u10d4\u10e0\u10d8","area":21307600,"sort_rank":29,"source":"openstreetmap.org","min_zoom":8.0,"tier":3,"name:ru":"\u0426\u0430\u043d\u043d\u0435\u0440","id":-3500164,"osm_relation":true},"arcs":[[184],[185],[186],[187]]},{"type":"Polygon","properties":{"kind":"residential","name":"\u042e\u0446\u0430","area":21669700,"sort_rank":20,"source":"openstreetmap.org","min_zoom":8.0,"tier":2,"id":-2416871,"osm_relation":true},"arcs":[[188]]},{"type":"Polygon","properties":{"kind":"glacier","name:en":"Dzhikaugenkoz Glacier","natural":"glacier","name":"\u043b\u0435\u0434\u043e\u0432\u043e\u0435 \u043f\u043b\u0430\u0442\u043e \u0414\u0436\u0438\u043a\u0430\u0443\u0433\u0435\u043d\u043a\u0451\u0437","area":15688300,"sort_rank":29,"source":"openstreetmap.org","min_zoom":8.0,"tier":3,"id":-2704018,"osm_relation":true},"arcs":[[189]]},{"type":"Polygon","properties":{"kind":"residential","name":"\u041a\u0440\u0430\u0441\u043d\u044b\u0439 \u0412\u043e\u0441\u0442\u043e\u043a","area":14483700,"sort_rank":20,"source":"openstreetmap.org","min_zoom":8.0,"tier":2,"id":83485644},"arcs":[[190]]},{"type":"Polygon","properties":{"kind":"residential","name":"\u0417\u043e\u043b\u044c\u0441\u043a\u0430\u044f","area":15993100,"sort_rank":20,"source":"openstreetmap.org","min_zoom":8.0,"tier":2,"id":152019269},"arcs":[[191]]},{"type":"MultiPolygon","properties":{"source":"naturalearthdata.com","kind":"urban_area","name":"","area":4553609329,"sort_rank":11,"min_zoom":4.0},"arcs":[[[192]],[[193]],[[194]],[[195]],[[196]],[[197]]]},{"type":"Polygon","properties":{"kind":"residential","name":"\u041c\u0430\u0440\u044c\u0438\u043d\u0441\u043a\u0430\u044f","area":14931600,"sort_rank":20,"source":"openstreetmap.org","min_zoom":8.0,"tier":2,"id":-7169305,"osm_relation":true},"arcs":[[198]]},{"type":"MultiPolygon","properties":{"source":"openstreetmap.org","kind":"residential","tier":2,"area":415872374,"sort_rank":20,"min_zoom":8.0},"arcs":[[[199]],[[200]],[[201]]]},{"type":"Polygon","properties":{"kind":"residential","name:en":"Kamennomostskoye","name":"\u041a\u0430\u043c\u0435\u043d\u043d\u043e\u043c\u043e\u0441\u0442\u0441\u043a\u043e\u0435","area":13329900,"sort_rank":20,"name:de":"Kamennomostskoje","source":"openstreetmap.org","min_zoom":8.0,"tier":2,"id":388367802},"arcs":[[202]]},{"type":"Polygon","properties":{"kind":"nature_reserve","protect_class":"2","area":1918249984,"sort_rank":23,"source":"openstreetmap.org","min_zoom":4.0,"tier":2,"id":505350188},"arcs":[[203]]},{"type":"MultiPolygon","properties":{"kind":"nature_reserve","protect_class":"1","area":1504999936,"sort_rank":23,"source":"openstreetmap.org","min_zoom":4.0,"tier":2,"id":-7412104,"osm_relation":true},"arcs":[[[204]]]},{"type":"Polygon","properties":{"kind":"glacier","name:en":"Lekhziri Glacier","natural":"glacier","name":"\u10da\u10d4\u10ee\u10d6\u10d8\u10e0\u10d8","area":43873200,"sort_rank":29,"name:de":"Lechsiri","source":"openstreetmap.org","min_zoom":8.0,"tier":3,"name:ru":"\u043b\u0435\u0434\u043d\u0438\u043a \u041b\u0435\u0445\u0437\u044b\u0440","id":-5499311,"osm_relation":true},"arcs":[[205],[206],[207]]},{"type":"Polygon","properties":{"kind":"glacier","name:en":"Kvitlodi Glacier","natural":"glacier","name":"\u10e5\u10d5\u10d8\u10d7\u10da\u10dd\u10d3\u10d8","area":18072900,"sort_rank":29,"source":"openstreetmap.org","min_zoom":8.0,"int_name":"Kvitlodi","tier":3,"name:ru":"\u043b\u0435\u0434\u043d\u0438\u043a \u041a\u0438\u0442\u043b\u043e\u0434","id":-3500158,"osm_relation":true},"arcs":[[208]]},{"type":"Polygon","properties":{"kind":"glacier","name:en":"Kvishi","natural":"glacier","name":"\u10d9\u10d5\u10d8\u10e8\u10d8\u10e1 \u10db\u10e7\u10d8\u10dc\u10d5\u10d0\u10e0\u10d8","area":13546100,"sort_rank":29,"name:de":"Kwischi","source":"openstreetmap.org","min_zoom":8.0,"tier":3,"name:ru":"\u043b\u0435\u0434\u043d\u0438\u043a \u041a\u0432\u0438\u0448","id":-5506520,"osm_relation":true},"arcs":[[209],[210]]},{"type":"Polygon","properties":{"kind":"glacier","name:en":"Little Azau Glacier","natural":"glacier","name":"\u043b\u0435\u0434\u043d\u0438\u043a \u041c\u0430\u043b\u044b\u0439 \u0410\u0437\u0430\u0443","area":13924700,"sort_rank":29,"name:de":"Kleiner Azau Gletscher","source":"openstreetmap.org","min_zoom":8.0,"tier":3,"id":-2304805,"osm_relation":true},"arcs":[[211],[212]]},{"type":"Polygon","properties":{"kind":"residential","name":"\u0422\u0435\u0440\u0435\u0437\u0435","area":11757300,"sort_rank":20,"source":"openstreetmap.org","min_zoom":8.0,"tier":2,"id":83485342},"arcs":[[213]]},{"type":"MultiPolygon","properties":{"kind":"glacier","natural":"glacier","area":21856826,"sort_rank":29,"source":"openstreetmap.org","min_zoom":8.0,"tier":3,"osm_relation":true},"arcs":[[[214],[215]],[[216]]]},{"type":"Polygon","properties":{"kind":"glacier","name:en":"Shaurtu Glacier","natural":"glacier","name":"\u043b\u0435\u0434\u043d\u0438\u043a \u0428\u0430\u0443\u0440\u0442\u0443","area":13837100,"sort_rank":29,"source":"openstreetmap.org","min_zoom":8.0,"tier":3,"id":-3500160,"osm_relation":true},"arcs":[[217],[218],[219],[220]]},{"type":"Polygon","properties":{"kind":"residential","name":"\u0411\u043e\u0440\u0433\u0443\u0441\u0442\u0430\u043d\u0441\u043a\u0430\u044f","area":18260300,"sort_rank":20,"source":"openstreetmap.org","min_zoom":8.0,"tier":2,"id":54229186},"arcs":[[221]]},{"type":"Polygon","properties":{"kind":"residential","name":"\u0423\u0447\u043a\u0435\u043a\u0435\u043d","area":18905400,"sort_rank":20,"source":"openstreetmap.org","min_zoom":8.0,"tier":2,"id":83897939},"arcs":[[222]]},{"type":"Polygon","properties":{"kind":"glacier","name:en":"Bashil Glacier","natural":"glacier","name":"\u043b\u0435\u0434\u043d\u0438\u043a \u0411\u0430\u0448\u0438\u043b\u044c","area":13320600,"sort_rank":29,"source":"openstreetmap.org","min_zoom":8.0,"tier":3,"id":-5501094,"osm_relation":true},"arcs":[[223],[224]]},{"type":"Polygon","properties":{"kind":"glacier","name:en":"Terskol Glacier","natural":"glacier","name":"\u043b\u0435\u0434\u043d\u0438\u043a \u0422\u0435\u0440\u0441\u043a\u043e\u043b","area":14259800,"sort_rank":29,"name:de":"Terskol Gletscher","source":"openstreetmap.org","min_zoom":8.0,"tier":3,"id":-2704014,"osm_relation":true},"arcs":[[225]]},{"type":"Polygon","properties":{"kind":"glacier","name:en":"Shkhelda Glacier","natural":"glacier","name":"\u043b\u0435\u0434\u043d\u0438\u043a \u0428\u0445\u0435\u043b\u044c\u0434\u0430","area":12363100,"sort_rank":29,"source":"openstreetmap.org","min_zoom":8.0,"tier":3,"id":-5498395,"osm_relation":true},"arcs":[[226],[227]]},{"type":"Polygon","properties":{"kind":"glacier","name:en":"Big Azau Glacier","natural":"glacier","name":"\u043b\u0435\u0434\u043d\u0438\u043a \u0411\u043e\u043b\u044c\u0448\u043e\u0439 \u0410\u0437\u0430\u0443","area":32550400,"sort_rank":29,"source":"openstreetmap.org","min_zoom":8.0,"tier":3,"id":-2304808,"osm_relation":true},"arcs":[[228],[229],[230]]},{"type":"Polygon","properties":{"kind":"glacier","name:en":"Kiukiurtli Glacier","natural":"glacier","name":"\u043b\u0435\u0434\u043d\u0438\u043a \u041a\u044e\u043a\u044e\u0440\u0442\u043b\u0438","area":12647900,"sort_rank":29,"source":"openstreetmap.org","min_zoom":8.0,"tier":3,"id":-2304807,"osm_relation":true},"arcs":[[231]]}]}},"type":"Topology","transform":{"translate":[42.1875,43.0688877742],"scale":[0.0003433228,0.0002487054]},"arcs":[[[2415,0],[72,88],[-139,104],[-88,34],[-105,-4],[-17,47],[31,51],[-100,42],[-49,-22],[-10,65],[-50,36],[-87,-16],[-42,-34],[-115,91],[-78,-4],[-27,-41],[-88,5],[-19,-28],[-71,-17],[-12,-130],[-174,118],[-49,-5],[-7,32],[-155,21],[-97,91],[-153,55],[-38,55],[23,44],[-29,54],[-83,24],[-20,-34],[-55,-19],[-87,13],[-50,-107],[-77,-8],[-23,20],[-33,-50],[-124,5],[-18,64],[-88,12],[-84,-53]],[[2415,0],[72,88],[-139,104],[-88,34],[-105,-4],[-17,47],[31,51],[-100,42],[-49,-22],[-10,65],[-50,36],[-87,-16],[-42,-34],[-56,28],[-26,50],[-111,9],[-27,-41],[-29,17],[-143,-48],[-29,-98],[11,-41],[-26,3],[-148,115],[-40,-8],[-16,35],[-155,21],[-97,91],[-153,55],[-38,55],[23,44],[-29,54],[-83,24]],[[659,756],[-20,-34],[-55,-19],[-87,13],[-50,-107],[-77,-8],[-23,20],[-33,-50],[-124,5],[-18,64],[-88,12],[-84,-53]],[[1430,2979],[-35,-70],[38,-223],[-12,-157],[-28,11],[-114,-76],[-70,-102],[-434,-161],[45,-175],[-14,-110],[35,-94],[-72,-159],[14,-157],[-101,-27],[8,-58],[-41,-37],[21,-33],[-43,-48],[37,-113],[65,-49],[-65,-38],[-53,-212],[55,-63],[-7,-72]],[[4096,3129],[-13,4],[-128,-20],[-208,91],[-176,-25],[-39,-56],[-77,-31],[-58,-77],[-108,-76],[-267,640],[-105,-13],[-73,23],[-52,-8],[-3,-46],[34,-34],[-48,-68],[22,-111],[-484,15],[-79,-36],[-105,-99],[-152,10],[16,-80],[-51,-30],[1,-155],[-109,-2],[-248,72],[-156,-38]],[[1430,2979],[-93,70],[-20,76],[45,41],[-79,139],[33,6],[2,101],[21,-5],[40,80],[-125,37],[5,31],[21,-5],[-6,88],[-133,-1],[16,213],[-239,0],[-61,-43],[-6,-132],[47,-18],[-14,-45],[-31,-3],[-33,39],[-17,-33],[-24,35],[-5,-27],[-119,36],[-105,-26],[-25,47],[40,51],[-40,14],[-28,151],[-58,-57],[-104,23],[-28,43],[20,59],[60,41],[9,91]],[[3988,4089],[-6,7]],[[4096,3774],[-64,88],[-39,200]],[[3988,4089],[-6,7]],[[4096,3774],[-64,88],[-39,200]],[[1549,3368],[1,8],[4,9],[11,49],[4,28],[1,4],[5,6],[2,2],[2,16]],[[1553,3348],[-4,20]],[[1549,3368],[1,8],[15,61],[3,26],[2,3],[6,9],[1,10],[9,16],[-1,25],[157,102],[30,142],[189,184],[48,29],[282,-15],[227,-75],[33,21],[-36,73],[38,8],[44,54],[6,47]],[[1900,3896],[109,87],[285,-16],[209,-76]],[[2503,3891],[43,11]],[[3988,4089],[-6,7]],[[4096,3774],[-64,88],[-39,200]],[[3836,2416],[251,-28]],[[2718,3742],[-1,0]],[[4025,2155],[-1,14]],[[4025,2155],[40,-118]],[[4068,2037],[-8,23]],[[4060,2060]],[[4060,2060],[-4,11],[-31,84]],[[4060,2060]],[[4060,2060],[-1,1],[-1,-1],[2,-1],[0,1]],[[4060,2060]],[[2948,3379],[52,-67]],[[1682,3582],[79,95],[9,89]],[[1770,3766],[6,20]],[[1776,3786],[-6,-20]],[[1815,4017],[6,46]],[[1822,4064],[-1,-1]],[[1821,4063],[0,-3]],[[1012,3554],[12,7]],[[4016,2180],[4,-4]],[[4020,2176],[5,-6]],[[4024,2177],[-4,-1]],[[4020,2176],[0,-1]],[[2680,4042],[2,-21]],[[2686,4096],[-1,-25]],[[2686,4071],[1,2],[1,23]],[[2705,3920],[1,-1]],[[2706,3919],[-1,1]],[[2732,3869],[0,-2]],[[4082,2183],[-57,-12]],[[4025,2170],[71,13]],[[1292,3533],[202,-35]],[[2555,3957],[4,-47]],[[2568,3978],[-13,-20]],[[2559,3909],[6,-38]],[[2559,3910],[9,68]],[[2566,3872],[-7,37]],[[2566,3871],[12,-12],[80,-67]],[[2658,3793],[-91,79]],[[2568,3978],[3,5]],[[2571,3983],[35,78]],[[2604,4062],[-33,-79]],[[2603,3841],[-1,1]],[[2606,4061],[6,0]],[[2612,4061],[-5,2]],[[2612,4061],[53,-22]],[[2659,3792],[56,-51]],[[2717,3742],[-58,50]],[[2744,3872],[-10,-3]],[[2734,3867],[10,4]],[[2747,3873],[-2,0]],[[2746,3872],[1,1]],[[2751,3874],[-4,-1]],[[2754,3875],[-3,-1]],[[2751,3874],[3,0]],[[2755,3874],[4,0]],[[2759,3874],[-3,1]],[[2765,3875],[-6,-1]],[[2767,3876],[-2,-1]],[[2765,3875],[2,-1]],[[2767,3876],[0,-2],[2,1],[-1,1],[-1,0]],[[2768,3874],[3,0]],[[2771,3874],[-2,2]],[[2888,3899],[-117,-25]],[[3942,2416],[-25,1]],[[4025,2162],[7,4]],[[2556,3957],[0,1],[-1,0],[0,-1],[1,0]],[[2559,3910],[0,-1],[0,1]],[[2566,3872],[0,-1],[0,1]],[[2605,4064],[-1,-2],[2,-1]],[[2606,4061],[1,2],[-2,1]],[[2659,3792],[0,1],[-1,-1],[1,0]],[[2745,3873],[-1,-1]],[[2744,3872],[1,-1],[1,1],[-1,1]],[[2756,3875],[-2,0],[-1,-1],[2,0],[1,1]],[[2708,3982],[26,-13]],[[2734,3969],[16,-7],[101,14]],[[2851,3977],[-101,-15],[-16,7]],[[2734,3969],[-21,10]],[[4022,2164],[3,-9]],[[2947,3923],[-70,57],[-26,-3]],[[2851,3976],[26,4],[72,-61]],[[2950,3919],[-1,1]],[[4016,2181],[6,-17]],[[2685,4071],[-5,-29]],[[2682,4021],[38,-59],[-15,-42]],[[2713,3979],[-27,92]],[[2705,3920],[17,39],[-3,8]],[[2706,3919],[28,-50]],[[2734,3869],[-28,50]],[[2721,3749],[-4,-8]],[[2718,3741],[3,8]],[[2721,3749],[12,115]],[[2733,3864],[1,3]],[[2734,3867],[0,2]],[[2581,3853]],[[1539,3368],[37,133]],[[1576,3501],[12,29]],[[1588,3530],[30,11]],[[0,2850],[68,0],[112,-51],[119,71],[76,213],[308,364]],[[811,3483],[111,30]],[[1024,3561],[163,-13]],[[1190,3548],[33,-5]],[[1262,3537],[30,-4]],[[2715,3741],[1,-1]],[[2916,3905],[-28,-6]],[[2977,3956],[-61,-51]],[[3107,4096],[-130,-140]],[[1618,3541],[64,41]],[[1821,4060],[5,-122]],[[1826,3938],[0,-5],[12,-81],[-62,-66]],[[1776,3786],[62,65],[1,53],[-13,29],[0,5]],[[1826,3938],[-11,76],[0,3]],[[1850,4096],[-28,-32]],[[3836,2416],[-25,0]],[[4087,2388],[9,-1]],[[2717,3741],[-1,-1]],[[2716,3740],[4,-13]],[[2716,3740],[2,0]],[[2718,3740],[0,1]],[[2720,3727],[-2,13]],[[2720,3727],[228,-348]],[[3000,3312],[114,-126],[210,-157],[281,-187],[106,-28],[156,-164]],[[3808,2412],[3,-4]],[[3809,2418],[-7,85],[72,117]],[[3811,2408],[0,5]],[[3811,2408],[49,-64],[99,-44]],[[3867,2650],[7,-30]],[[3982,2274],[-23,26]],[[3982,2274],[29,-79]],[[2949,3920],[-2,3]],[[4024,2169],[-13,26]],[[1187,3548],[3,0]],[[683,3447],[128,36]],[[922,3513],[2,1]],[[1223,3543],[39,-6]],[[1494,3498],[69,22]],[[1539,3364],[0,4],[-1,-4]],[[1569,3519],[9,-5]],[[1580,3519],[-8,1]],[[1539,3364],[-1,0],[0,-1],[1,0],[0,1]],[[924,3514],[88,40]],[[4096,3766],[-69,85],[-44,245]],[[3811,2412],[0,3],[-2,0],[-1,-2],[3,-1]],[[4065,2037],[31,-71]],[[4096,1968],[-28,69]],[[4011,2195],[14,-24]],[[4096,2186],[-14,-3]],[[0,0],[0,4096],[4096,0],[0,-4096],[-4096,0]],[[1457,3414],[50,66],[-13,18],[49,32],[68,25],[10,-20],[-37,-15],[27,-6],[81,45],[-22,-76],[-31,22],[-5,-49],[19,-75],[22,-21],[42,23],[23,-55],[-36,-118],[-55,-5],[-4,34],[-22,-23],[-59,64],[-85,3],[10,73],[-18,9],[25,11],[-39,38]],[[795,1156],[20,45],[94,11],[15,23],[42,-22],[21,40],[31,-30],[-87,-53],[15,-6],[79,57],[-17,-50],[-88,-60],[-80,-4],[-45,49]],[[2977,6],[17,16],[44,-22],[-44,11],[-17,-5]],[[3058,0],[-14,15],[45,2],[58,75],[21,-16],[-58,-76],[-52,0]],[[1400,252],[39,19],[-14,-34],[37,-45],[24,17],[2,31],[-26,-31],[-20,52],[27,-11],[-7,14],[4,15],[11,-33],[30,3],[-25,66],[-12,-24],[-47,0],[1,47],[31,8],[-18,59],[39,-4],[32,-92],[15,10],[11,-10],[-18,-37],[41,-53],[-48,9],[-4,-47],[-29,-11],[4,-46],[-20,-2],[-60,130]],[[654,1212],[23,21],[-7,81],[36,57],[-2,-43],[10,-27],[-4,52],[40,-90],[-5,-88],[-31,13],[-10,-33],[-50,57]],[[721,1196],[14,12],[5,41],[-8,-16],[-11,-37]],[[702,1242],[3,-17],[11,5],[-6,25],[-8,-13]],[[682,1245],[6,-5],[6,7],[-12,0],[0,-2]],[[714,1287],[12,-7],[3,-6],[-9,19],[-6,-6]],[[2593,0],[147,155],[39,6],[-140,-161],[-46,0]],[[1541,3336],[21,-14],[100,26],[54,-83],[-70,-8],[62,-23],[1,-20],[-64,-10],[0,33],[-21,-21],[2,21],[-22,0],[25,39],[-69,6],[-7,17],[43,-9],[-55,46]],[[731,1320],[37,68],[-2,-88],[27,-47],[-18,-97],[-34,30],[-10,134]],[[2173,1],[79,31],[54,-32],[-58,9],[-75,-8]],[[1126,3529],[131,19],[28,-68],[-90,0],[-37,48],[-32,1]],[[800,1105],[105,-3],[58,-77],[35,-9],[28,-62],[-51,45],[-14,-16],[-46,38],[-61,2],[-54,82]],[[864,1057],[22,-18],[8,5],[-24,16],[-6,-3]],[[834,1080],[15,-9],[11,4],[-22,8],[-4,-3]],[[929,1052],[3,-5],[5,3],[-5,5],[-3,-3]],[[2277,56],[65,44],[-46,54],[41,24],[146,-114],[-50,-9],[-30,-46],[-51,53],[-75,-6]],[[2378,89],[1,-5],[35,-6],[-12,10],[-24,1]],[[2368,68],[8,-18],[13,-3],[1,12],[-22,9]],[[2380,40],[8,-6],[0,7],[-8,-1]],[[2202,3635],[28,41],[238,35],[1,-25],[-56,-16],[-4,-67],[25,-33],[-30,-17],[8,-33],[-93,10],[-21,-43],[-32,29],[120,40],[3,90],[-187,-11]],[[937,1128],[90,55],[10,63],[42,29],[-8,-35],[36,-17],[-19,-8],[18,-49],[-32,4],[6,-37],[-64,-24],[-79,19]],[[251,3574],[58,23],[-5,32],[80,52],[-27,-69],[18,-67],[-21,15],[-82,-30],[-21,44]],[[3151,3334],[4,39],[75,30],[79,-10],[18,-60],[-109,-41],[23,37],[-90,5]],[[2248,1418],[-73,-144],[-65,-33],[-89,-2],[33,135],[64,0],[44,70],[38,15],[48,-41]],[[4092,2356],[-142,5],[-117,40],[20,107],[45,72],[162,-45],[32,-179]],[[1601,3652],[64,0],[1,-45],[52,-81],[-52,-187],[-41,-73],[-56,-16],[-1,-45],[-64,90],[-65,0],[-33,178],[-129,0],[-2,50],[67,40],[127,162],[132,-73]],[[2133,4096],[607,0],[91,-42],[32,-122],[32,-12],[-11,-31],[-86,-14],[-32,-89],[-33,0],[0,-45],[-291,0],[-82,112],[-110,50],[-95,126],[-22,67]],[[1827,4096],[263,0],[-3,-5],[64,-216],[-35,-40],[-159,-49],[-227,0],[-5,49],[70,40],[32,221]],[[4096,2184],[0,-644],[-11,-3],[-90,15],[-32,90],[-162,134],[20,62],[46,25],[128,2],[9,256],[24,57],[68,6]],[[3704,3210],[4,28],[161,116],[-88,-152],[-77,8]],[[4096,2048],[0,-96],[-117,1],[-19,23],[5,22],[131,50]],[[2792,3307],[12,20],[139,20],[0,32],[120,-1],[-19,-66],[-252,-5]],[[1902,3818],[124,74],[35,6],[40,-33],[-60,-5],[6,-26],[-40,-34],[-105,18]],[[2404,2663],[48,32],[-39,10],[41,-4],[-15,24],[179,-54],[-75,-49],[13,28],[-120,-10],[-32,23]],[[613,898],[49,210],[67,34],[-63,56],[-26,62],[-9,35],[33,65],[-15,27],[43,39],[-10,58],[100,25],[-9,160],[187,123],[104,247],[166,19],[98,107],[101,-11],[39,-55],[-30,-8],[-181,-285],[41,-56],[18,-218],[109,9],[41,-55],[82,-24],[-18,-148],[41,-12],[17,-149],[40,-25],[32,-73],[-43,-122],[146,92],[10,-22],[79,41],[49,-233],[-60,-10],[-83,-88],[62,-85],[-116,-28],[11,-119],[-279,-65],[-25,-120],[19,-20],[-30,-15],[-154,122],[-205,48],[-99,95],[-162,59],[-31,44],[19,52],[-30,55],[-79,16],[6,77],[-52,69]],[[1957,438],[31,32],[-12,51],[53,70],[1,78],[280,-95],[209,1],[6,-22],[-89,-60],[-71,-9],[-22,-51],[11,-35],[61,-32],[92,104],[5,-31],[-29,-6],[-21,-51],[56,-43],[68,46],[41,-29],[62,9],[40,-34],[58,16],[113,175],[105,-132],[-75,-52],[13,-29],[62,-4],[27,47],[32,-5],[-4,-45],[-57,-70],[57,0],[25,40],[22,-124],[-26,-45],[92,-13],[84,29],[6,-23],[23,29],[4,-33],[34,12],[48,-34],[-56,-70],[-901,0],[72,87],[-146,108],[-187,27],[-12,53],[26,38],[-104,49],[-45,-15],[-12,63],[-50,28]],[[1487,405],[77,-28],[-3,36],[-18,-15],[-26,33],[38,-9],[-7,22],[41,10],[-12,-52],[18,37],[15,-10],[-24,-50],[85,-32],[76,18],[78,-19],[30,20],[-9,39],[18,8],[7,-44],[26,58],[59,13],[10,-15],[-46,-23],[-24,-27],[63,42],[39,-6],[8,-25],[-50,-26],[42,16],[16,-18],[-32,-39],[44,-4],[-15,-77],[-53,69],[-35,-9],[1,22],[-20,-22],[-23,48],[-193,-6],[-9,-65],[-21,54],[-63,26],[-36,-45],[-45,31],[-27,64]],[[1968,306],[0,-5],[7,11],[-4,-5],[-3,-1]],[[1942,370],[8,-4],[4,7],[-7,2],[-5,-5]],[[2081,125],[161,94],[71,-40],[-17,-23],[-14,14],[5,-25],[-30,22],[19,-33],[-28,-36],[-10,7],[14,16],[-5,10],[-60,-39],[-26,27],[-12,-17],[-68,23]],[[834,412],[46,7],[20,104],[42,-1],[-35,-143],[37,-7],[-6,-25],[-25,16],[-7,-41],[-14,39],[-48,-6],[31,33],[-41,24]],[[906,479],[6,1],[12,27],[-13,-10],[-5,-18]],[[734,960],[2,135],[15,8],[40,-42],[-13,-202],[-40,51],[-4,50]],[[766,997],[10,0],[-4,35],[-1,-34],[-5,-1]],[[661,3459],[107,68],[56,-58],[-71,-16],[-8,-28],[0,19],[-21,-18],[-63,33]],[[1616,438],[23,32],[75,11],[-26,-30],[35,19],[-2,-28],[23,26],[-12,-30],[40,2],[-37,-18],[32,-14],[-63,-6],[-13,-35],[-18,67],[-20,-19],[-37,23]],[[1710,424],[10,3],[4,9],[-4,1],[-10,-13]],[[929,452],[24,53],[8,-3],[3,-68],[99,-25],[11,-30],[-43,-34],[-3,24],[-58,3],[-41,80]],[[2402,168],[34,28],[69,-37],[23,24],[76,-30],[-45,-36],[-21,43],[-19,-6],[40,-41],[-67,-36],[4,19],[-9,-8],[-19,2],[-6,5],[19,0],[8,19],[-31,-10],[17,41],[-22,7],[-4,-26],[-21,7],[4,37],[-30,-2]],[[2491,112],[4,-13],[7,-2],[-6,25],[-5,-10]],[[2511,130],[5,-7],[-3,-17],[6,26],[-5,9],[-3,-11]],[[2562,134],[12,2],[9,10],[-6,0],[-15,-12]],[[905,3895],[25,25],[-20,31],[55,19],[-4,26],[64,-11],[22,52],[42,-57],[43,0],[-22,-37],[-103,-2],[-93,-76],[-9,30]],[[873,3438],[66,100],[90,34],[-29,-31],[23,-58],[-22,-49],[-45,19],[7,-26],[-44,-26],[-17,35],[-29,2]],[[2003,381],[74,83],[30,4],[-26,-50],[83,-42],[2,-52],[-76,18],[-26,55],[8,-29],[-20,30],[7,-42],[-31,-12],[-25,37]],[[2143,362],[14,-13],[6,3],[-14,11],[-6,-1]],[[785,1028],[15,77],[76,-124],[49,-22],[-3,-49],[-74,30],[-63,88]],[[1259,393],[90,116],[-32,-95],[72,-76],[9,37],[36,1],[-43,-62],[30,-47],[-26,3],[-98,135],[-22,-31],[16,-22],[-32,41]],[[1406,363],[11,-2],[1,10],[-9,-1],[-3,-7]],[[616,886],[48,217],[49,25],[30,-54],[-9,-101],[-15,68],[-7,-30],[30,-83],[-7,-17],[-36,15],[-7,-27],[-8,63],[-23,-11],[-8,32],[16,-69],[-20,-7],[32,-27],[21,11],[39,-55],[-30,22],[-41,-28],[-54,56]],[[689,1082],[6,2],[1,21],[-3,-2],[-4,-21]],[[701,1054],[8,-9],[4,1],[-4,8],[-8,0]],[[496,1133],[41,4],[24,37],[64,-6],[18,11],[-43,17],[72,-16],[41,-40],[-82,-41],[-54,64],[-36,-31],[-45,1]]]}