{"objects":{"water":{"type":"GeometryCollection","geometries":[]},"buildings":{"type":"GeometryCollection","geometries":[]},"places":{"type":"GeometryCollection","geometries":[{"type":"Point","properties":{"name:az":"Kutaisi","name:mr":"\u0915\u0941\u0924\u0948\u0938\u0940","name:tr":"Kutay\u0131s","name:cv":"\u041a\u0443\u0442\u0430\u0438\u0441\u0438","name:ar":"\u0643\u0648\u062a\u0627\u064a\u0633\u064a","min_zoom":8.0,"name:it":"Kutaisi","name:ko":"\ucfe0\ud0c0\uc774\uc2dc","name:os":"\u041a\u0443\u0442\u0430\u0438\u0441\u0438","name:ru":"\u041a\u0443\u0442\u0430\u0438\u0441\u0438","name:ce":"\u041a\u0443\u0442\u0430\u0438\u0441\u0438","name:ab":"\u049a\u04d9\u04ad\u0435\u0448\u044c","id":218730242,"name:ca":"Kuta\u00efsi","name:fa":"\u06a9\u0648\u062a\u0627\u0626\u06cc\u0633\u06cc","name:hu":"Kutaiszi","kind_detail":"city","name:de":"Kutaissi","source":"openstreetmap.org","name:fr":"Kouta\u00efssi","name:zh":"\u5eab\u5854\u4f0a\u897f","name:nl":"Koetaisi","name:ja":"\u30af\u30bf\u30a4\u30b7","name:lt":"Kutaisis","name:he":"\u05db\u05d5\u05ea\u05d0\u05d9\u05e1\u05d9","kind":"locality","name:uk":"\u041a\u0443\u0442\u0430\u0457\u0441\u0456","name:hy":"\u0554\u0578\u0582\u0569\u0561\u0575\u056b\u057d","name:be":"\u041a\u0443\u0442\u0430\u0456\u0441\u0456","name:bg":"\u041a\u0443\u0442\u0430\u0438\u0441\u0438","name:sr":"\u041a\u0443\u0442\u0430\u0438\u0441\u0438","population":186000,"name:el":"\u039a\u03bf\u03c5\u03c4\u03ac\u03b9\u03c3\u03b9","name:eo":"Kutaiso","name:en":"Kutaisi","name":"\u10e5\u10e3\u10d7\u10d0\u10d8\u10e1\u10d8","name:et":"Khuthaisi"},"coordinates":[1508,943]},{"type":"Point","properties":{"name:pt":"Zestaponi","alt_name:en":"Zestafoni","name:nl":"Zestaponi","name:ja":"\u30bc\u30b9\u30bf\u30dd\u30cb","name:lt":"Zestafonis","name:ko":"\uc81c\uc2a4\ud0c0\ud3ec\ub2c8","name:sr":"\u0417\u0435\u0441\u0442\u0430\u0444\u043e\u043d\u0438","name:sv":"Zestaponi","name:hy":"\u0536\u0565\u057d\u057f\u0561\u0586\u0578\u0576","name:cs":"Zestaponi","min_zoom":8.0,"name:it":"Zestaponi","name:uk":"\u0417\u0435\u0441\u0442\u0430\u0444\u043e\u043d\u0456","old_name":"Kvirila","name:ru":"\u0417\u0435\u0441\u0442\u0430\u0444\u043e\u043d\u0438","name:pl":"Zestaponi","id":274202470,"population":24200,"kind":"locality","name:en":"Zestaponi","name":"\u10d6\u10d4\u10e1\u10e2\u10d0\u10e4\u10dd\u10dc\u10d8","kind_detail":"town","name:de":"Sestafoni","source":"openstreetmap.org","name:fr":"Zestafoni","name:fi":"Zestaponi","name:et":"Zestaphoni","name:zh":"\u6fa4\u65af\u5854\u6ce2\u5c3c"},"coordinates":[2469,293]},{"type":"Point","properties":{"name:sr":"\u0426\u0445\u0430\u043b\u0442\u0443\u0431\u043e","int_name":"Tskaltubo","name:nl":"Tskaltoebo","name:ja":"\u30c1\u30e3\u30eb\u30c8\u30a5\u30dc","name:nn":"Tsqaltubo","name:ko":"\uce20\ud560\ud22c\ubcf4","name:sv":"Tsqaltubo","name:he":"\u05e6\u05d7\u05dc\u05d8\u05d5\u05d1\u05d5","name:cs":"Cchaltubo","min_zoom":8.0,"name:uk":"\u0426\u0445\u0430\u043b\u0442\u0443\u0431\u043e","name:hy":"\u053e\u0572\u0561\u056c\u057f\u0578\u0582\u0562\u0578","name:ru":"\u0426\u0445\u0430\u043b\u0442\u0443\u0431\u043e","name:pl":"Ckaltubo","name":"\u10ec\u10e7\u10d0\u10da\u10e2\u10e3\u10d1\u10dd","id":291725496,"population":16800,"kind":"locality","name:en":"Tskaltubo","name:lt":"Cchaltubas","kind_detail":"town","name:de":"Zqaltubo","source":"openstreetmap.org","name:fr":"Tskaltubo","name:fi":"Tsqaltubo","name:et":"Tskaltubo","name:zh":"\u8328\u5361\u723e\u5716\u535a"},"coordinates":[1196,1156]},{"type":"Point","properties":{"kind":"locality","name:en":"Tkibuli","name":"\u10e2\u10e7\u10d8\u10d1\u10e3\u10da\u10d8","name:lt":"Tkibulis","kind_detail":"town","min_zoom":8.0,"name:de":"Tqibuli","source":"openstreetmap.org","name:fr":"Tkibuli","name:sr":"\u0422\u043a\u0438\u0431\u0443\u043b\u0438","name:uk":"\u0422\u043a\u0456\u0431\u0443\u043b\u0456","name:ru":"\u0422\u043a\u0438\u0431\u0443\u043b\u0438","id":292823696,"population":14500},"coordinates":[2361,1244]},{"type":"Point","properties":{"name:sr":"\u0427\u0438\u0458\u0430\u0442\u0443\u0440\u0430","name:ro":"Chiatura","name:nl":"Tsjiatoera","name:ja":"\u30c1\u30a2\u30c8\u30a5\u30e9","name:lt":"\u010ciatura","name:ko":"\uce58\uc544\ud22c\ub77c","name:sv":"Tjiatura","name:he":"\u05e6'\u05d9\u05d0\u05ea\u05d5\u05e8\u05d4","name:cs":"\u010ciatura","kind":"locality","min_zoom":8.0,"name:uk":"\u0427\u0456\u0430\u0442\u0443\u0440\u0430","name:hy":"\u0543\u056b\u0561\u0569\u0578\u0582\u0580\u0561","name:ru":"\u0427\u0438\u0430\u0442\u0443\u0440\u0430","name:pl":"Cziatura","name":"\u10ed\u10d8\u10d0\u10d7\u10e3\u10e0\u10d0","id":291727016,"population":13800,"name:eo":"\u0108iatura","name:en":"Chiatura","name:nn":"Tsjiatura","kind_detail":"town","name:da":"Tjiatura","name:de":"Tschiatura","source":"openstreetmap.org","name:fr":"Tchiatoura","name:fi":"T\u0161iatura","name:et":"T\u0161iathura","name:zh":"\u5947\u963f\u5716\u62c9","name:es":"Chiatura"},"coordinates":[3201,1020]},{"type":"Point","properties":{"name:sr":"\u0425\u043e\u043d\u0438","name:lt":"Chonis","min_zoom":8.0,"name:uk":"\u0425\u043e\u043d\u0456","old_name":"Tsulukidze","name:ru":"\u0425\u043e\u043d\u0438","name:pl":"Choni","id":292825342,"population":11300,"kind":"locality","name:en":"Khoni","name":"\u10ee\u10dd\u10dc\u10d8","kind_detail":"town","old_name:ru":"\u0426\u0443\u043b\u0443\u043a\u0438\u0434\u0437\u0435","name:de":"Choni","old_name:ka":"\u10ec\u10e3\u10da\u10e3\u10d9\u10d8\u10eb\u10d4","source":"openstreetmap.org","name:fr":"Choni","name:et":"Honi"},"coordinates":[684,1153]},{"type":"Point","properties":{"kind":"locality","name:en":"Sachkhere","name":"\u10e1\u10d0\u10e9\u10ee\u10d4\u10e0\u10d4","name:lt":"Sa\u010dcher\u0117","kind_detail":"town","name:de":"Satschchere","source":"openstreetmap.org","min_zoom":8.0,"name:sr":"\u0421\u0430\u0447\u0445\u0435\u0440\u0435","name:uk":"\u0421\u0430\u0447\u0445\u0435\u0440\u0435","name:os":"\u0421\u0430\u0447\u0445\u0435\u0440\u0435\u0421\u0430\u0447\u0445\u0435\u0440\u0435","name:ru":"\u0421\u0430\u0447\u0445\u0435\u0440\u0435","id":387159396,"population":6700},"coordinates":[3549,1209]},{"type":"Point","properties":{"kind":"locality","name:en":"Abasha","name":"\u10d0\u10d1\u10d0\u10e8\u10d0","name:lt":"Aba\u0161a","kind_detail":"town","name:de":"Abascha","source":"openstreetmap.org","min_zoom":8.0,"name:sr":"\u0410\u0431\u0430\u0448\u0430","name:uk":"\u0410\u0431\u0430\u0448\u0430","name:ru":"\u0410\u0431\u0430\u0448\u0430","id":375718539,"population":6400},"coordinates":[46,680]},{"type":"Point","properties":{"name:sr":"\u041c\u0430\u0440\u0442\u0432\u0438\u043b\u0438","name:lt":"Martvilis","min_zoom":8.0,"old_name:en":"Gegechkori","name:uk":"\u041c\u0430\u0440\u0442\u0432\u0456\u043b\u0456","old_name":"\u10d2\u10d4\u10d2\u10d4\u10ed\u10d9\u10dd\u10e0\u10d8","name:ru":"\u041c\u0430\u0440\u0442\u0432\u0438\u043b\u0438","id":338167531,"population":5600,"kind":"locality","name:en":"Martvili","name":"\u10db\u10d0\u10e0\u10e2\u10d5\u10d8\u10da\u10d8","kind_detail":"town","old_name:ru":"\u0413\u0435\u0433\u0435\u0447\u043a\u043e\u0440\u0438","name:de":"Martwili","old_name:ka":"\u10d2\u10d4\u10d2\u10d4\u10ed\u10d9\u10dd\u10e0\u10d8","source":"openstreetmap.org"},"coordinates":[561,1508]},{"type":"Point","properties":{"kind":"locality","name:en":"Terjola","name":"\u10d7\u10d4\u10e0\u10ef\u10dd\u10da\u10d0","name:lt":"Terd\u017eola","kind_detail":"town","min_zoom":8.0,"name:de":"Terdschola","source":"openstreetmap.org","name:fr":"Terdjola","name:it":"Tergiola","name:uk":"\u0422\u0435\u0440\u0436\u043e\u043b\u0430","name:ru":"\u0422\u0435\u0440\u0436\u043e\u043b\u0430","name:sr":"\u0422\u0435\u0440\u0436\u043e\u043b\u0430","id":389636290,"population":5500},"coordinates":[2300,586]},{"type":"Point","properties":{"name:sr":"\u0411\u0430\u0433\u0434\u0430\u0442\u0438","min_zoom":8.0,"old_name:en":"Mayakovskiy","name:uk":"\u0411\u0430\u0433\u0434\u0430\u0442\u0456","old_name":"\u10db\u10d0\u10d8\u10d0\u10d9\u10dd\u10d5\u10e1\u10d9\u10d8","name:ru":"\u0411\u0430\u0433\u0434\u0430\u0442\u0438","id":389644233,"population":4700,"kind":"locality","name:en":"Baghdati","name":"\u10d1\u10d0\u10e6\u10d3\u10d0\u10d7\u10d8","kind_detail":"town","old_name:ru":"\u041c\u0430\u044f\u043a\u043e\u0432\u0441\u043a\u0438\u0439","name:de":"Bagdati","old_name:ka":"\u10db\u10d0\u10d8\u10d0\u10d9\u10dd\u10d5\u10e1\u10d9\u10d8","source":"openstreetmap.org","name:fr":"Baghdati"},"coordinates":[1857,138]},{"type":"Point","properties":{"name:sr":"\u0412\u0430\u043d\u0438","name:nl":"Vani","name:lt":"Vanis","min_zoom":8.0,"name:uk":"\u0412\u0430\u043d\u0456","name:hy":"\u054e\u0561\u0576\u056b","name:os":"\u0412\u0430\u043d\u0438","name:ru":"\u0412\u0430\u043d\u0438","name:ce":"\u0412\u0430\u043d\u0438","id":389665587,"population":4600,"name:fa":"\u0648\u0627\u0646\u06cc","kind":"locality","name:en":"Vani","name":"\u10d5\u10d0\u10dc\u10d8","kind_detail":"town","name:de":"Wani","source":"openstreetmap.org","name:fr":"Vani","name:et":"Vani"},"coordinates":[945,206]},{"type":"Point","properties":{"name:sr":"\u041e\u043d\u0438","name:nl":"Oni","name:sv":"Oni","name:he":"\u05d0\u05d5\u05e0\u05d9","kind":"locality","min_zoom":8.0,"name:uk":"\u041e\u043d\u0456","name:hy":"\u0555\u0576\u056b","name:os":"\u041e\u043d","name:ru":"\u041e\u043d\u0438","name:gl":"Oni","id":389681534,"population":3300,"name:eo":"Oni","name:en":"Oni","name":"\u10dd\u10dc\u10d8","kind_detail":"town","name:de":"Oni","source":"openstreetmap.org","name:fi":"Oni","name:et":"Oni","name:zh":"\u5967\u5c3c","name:es":"Oni"},"coordinates":[3656,2184]},{"type":"Point","properties":{"kind":"locality","name:en":"Mestia","name":"\u10db\u10d4\u10e1\u10e2\u10d8\u10d0","kind_detail":"town","name:de":"Mestia","source":"openstreetmap.org","min_zoom":8.0,"int_name":"Mestia","name:uk":"\u041c\u0435\u0441\u0442\u0456\u044f","name:ru":"\u041c\u0435\u0441\u0442\u0438\u0430","id":375730929,"population":2600},"coordinates":[1566,3997]},{"type":"Point","properties":{"kind":"locality","name:en":"Ambrolauri","name":"\u10d0\u10db\u10d1\u10e0\u10dd\u10da\u10d0\u10e3\u10e0\u10d8","name:lt":"Ambrolauris","kind_detail":"town","min_zoom":8.0,"name:de":"Ambrolauri","source":"openstreetmap.org","name:fr":"Ambrolauri","name:sr":"\u0410\u043c\u0431\u0440\u043e\u043b\u0430\u0443\u0440\u0438","name:uk":"\u0410\u043c\u0431\u043e\u043b\u0430\u0443\u0440\u0456","name:ru":"\u0410\u043c\u0431\u0440\u043e\u043b\u0430\u0443\u0440\u0438","id":389682007,"population":2500},"coordinates":[2809,1923]},{"type":"Point","properties":{"kind":"locality","name:en":"Tsageri","name":"\u10ea\u10d0\u10d2\u10d4\u10e0\u10d8","kind_detail":"town","name:de":"Zageri","source":"openstreetmap.org","min_zoom":8.0,"int_name":"Tsageri","name:az":"Tsaqeri","name:sr":"\u0426\u0430\u0433\u0435\u0440\u0438","name:uk":"\u0426\u0430\u0433\u0435\u0440\u0456","name:hy":"\u0551\u0561\u0563\u0565\u0580","name:ru":"\u0426\u0430\u0433\u0435\u0440\u0438","id":387172805,"population":1900},"coordinates":[1697,2430]},{"type":"Point","properties":{"kind":"locality","name:en":"Lentekhi","name":"\u10da\u10d4\u10dc\u10e2\u10d4\u10ee\u10d8","kind_detail":"town","name:he":"\u05dc\u05b5\u05e0\u05d8\u05b5\u05d7\u05d9","name:de":"Lentechi","source":"openstreetmap.org","min_zoom":8.0,"name:az":"Lentexi","name:uk":"\u041b\u0435\u043d\u0442\u0435\u0445\u0456","name:ru":"\u041b\u0435\u043d\u0442\u0435\u0445\u0438","id":478639417,"population":1800},"coordinates":[1563,2991]}]},"transit":{"type":"GeometryCollection","geometries":[]},"pois":{"type":"GeometryCollection","geometries":[{"type":"Point","properties":{"kind":"nature_reserve","protect_class":"1","area":1505000000,"source":"openstreetmap.org","min_zoom":7.01,"tier":2,"id":-7412104,"osm_relation":true,"name":"\u041a\u0430\u0431\u0430\u0440\u0434\u0438\u043d\u043e-\u0411\u0430\u043b\u043a\u0430\u0440\u0441\u043a\u0438\u0439 \u0432\u044b\u0441\u043e\u043a\u043e\u0433\u043e\u0440\u043d\u044b\u0439 \u0437\u0430\u043f\u043e\u0432\u0435\u0434\u043d\u0438\u043a"},"coordinates":[2875,4071]}]},"boundaries":{"type":"GeometryCollection","geometries":[{"type":"LineString","properties":{"name:cy":"Georgia","name:ko":"\uc870\uc9c0\uc544 (\uad6d\uac00)","name:cv":"\u0413\u0440\u0443\u0437\u0438","name:cu":"\u0413\u0454\u0461\u0440\u0433\u0457\ua657","name:cs":"Gruzie","name:tt":"\u0413\u04e9\u0440\u0497\u0438\u0441\u0442\u0430\u043d","name:kw":"Pow Grouzi","name:kv":"\u0413\u0440\u0443\u0437\u0438\u044f","name:ku":"Gurcistan","name:tl":"Heorhiya","name:ce":"\u0413\u0443\u044c\u0440\u0436\u0438\u0439-\u041c\u043e\u0445\u043a","name:ta":"\u0b9a\u0bbf\u0baf\u0bbe\u0bb0\u0bcd\u0b9a\u0bbf\u0baf\u0bbe (\u0ba8\u0bbe\u0b9f\u0bc1)","name:tg":"\u0413\u0443\u0440\u04b7\u0438\u0441\u0442\u043e\u043d","name:ca":"Ge\u00f2rgia","name:te":"\u0c1c\u0c3e\u0c30\u0c4d\u0c1c\u0c3f\u0c2f\u0c3e (\u0c26\u0c47\u0c36\u0c02)","name:hr":"Gruzija","name:da":"Georgien","name:de":"Georgien","name:dz":"\u0f47\u0f7d\u0f0b\u0f47\u0f71","source":"openstreetmap.org","name:kn":"\u0c9c\u0cbe\u0cb0\u0ccd\u0c9c\u0cbf\u0caf","name:dv":"\u0796\u07af\u0796\u07a8\u0794\u07a7 (\u07a4\u07a6\u0787\u07aa\u0789\u07aa)","name:lv":"Gruzija","name:lt":"Gruzija","name:uz":"Gurjiston","name:kk":"\u0413\u0440\u0443\u0437\u0438\u044f","name:ur":"\u062c\u0627\u0631\u062c\u06cc\u0627","name:lb":"Georgien","name:la":"Georgia","name:uk":"\u0413\u0440\u0443\u0437\u0456\u044f","name:ug":"\u06af\u0631\u06c7\u0632\u0649\u064a\u06d5","name:li":"Georgi\u00eb","name:el":"\u0393\u03b5\u03c9\u03c1\u03b3\u03af\u03b1","name:eo":"Kartvelujo","name:en":"Georgia","name":"\u10e1\u10d0\u10e5\u10d0\u10e0\u10d7\u10d5\u10d4\u10da\u10dd","name:tk":"Gruzi\u00fda","name:ee":"Georgia","name:th":"\u0e1b\u0e23\u0e30\u0e40\u0e17\u0e28\u0e08\u0e2d\u0e23\u0e4c\u0e40\u0e08\u0e35\u0e22","name:eu":"Georgia","name:et":"Gruusia","name:es":"Georgia","name:ia":"Georgia","name:az":"G\u00fcrc\u00fcstan","name:ie":"Georgia","name:id":"Georgia","name:ar":"\u062c\u0648\u0631\u062c\u064a\u0627","name:io":"Gruzia","name:av":"\u0413\u0443\u0440\u0436\u0438","name:is":"Georg\u00eda","name:am":"\u1302\u12ee\u122d\u1302\u12eb","name:it":"Georgia","name:an":"Cheorchia","name:ru":"\u0413\u0440\u0443\u0437\u0438\u044f","name:ab":"\u049a\u044b\u0440\u04ad\u0442\u04d9\u044b\u043b\u0430","name:af":"Georgi\u00eb","kind_detail":"2","name:ky":"\u0413\u0440\u0443\u0437\u0438\u044f","name:zh-yue":"\u683c\u9b6f\u5409\u4e9e","name:zh":"\u683c\u9c81\u5409\u4e9a","name:so":"Joorjiya","name:sl":"Gruzija","name:sk":"Gruz\u00ednsko","name:ja":"\u30b0\u30eb\u30b8\u30a2","name:si":"\u0da2\u0ddd\u0dbb\u0dca\u0da2\u0dd2\u0dba\u0dcf (\u0dbb\u0da7)","name:sh":"Gruzija","name:se":"Georgia","name:sc":"Georgia","name:br":"Jorjia (bro)","name:bs":"Gruzija","name:bn":"\u099c\u09b0\u09cd\u099c\u09bf\u09af\u09bc\u09be (\u09b0\u09be\u09b7\u09cd\u099f\u09cd\u09b0)","name:bo":"\u0f60\u0f47\u0f7c\u0f62\u0f0b\u0f47\u0f72\u0f0b\u0f61\u0f0d (\u0f62\u0f92\u0fb1\u0f63\u0f0b\u0f41\u0f56\u0f0d)","name:sw":"Georgia (nchi)","name:be":"\u0413\u0440\u0443\u0437\u0456\u044f","name:su":"G\u00e9orgia","name:bg":"\u0413\u0440\u0443\u0437\u0438\u044f","name:ss":"IJojiya","name:sr":"\u0413\u0440\u0443\u0437\u0438\u0458\u0430","name:sq":"Gjeorgjia","name:jv":"Georgia","name:pt":"Ge\u00f3rgia","name:ps":"\u06ab\u0631\u062c\u0633\u062a\u0627\u0646","name:oc":"Georgia (Cauc\u00e0s)","min_zoom":8.0,"name:ro":"Georgia","name:zh-min-nan":"Sakartvelo","name:os":"\u0413\u0443\u044b\u0440\u0434\u0437\u044b\u0441\u0442\u043e\u043d","name:or":"\u0b1c\u0b30\u0b4d\u0b1c\u0b3f\u0b06","name:pl":"Gruzja","sort_rank":262,"osm_relation":true,"name:tr":"G\u00fcrcistan","name:hi":"\u091c\u0949\u0930\u094d\u091c\u093f\u092f\u093e","name:sv":"Georgien","name:he":"\u05d2\u05d0\u05d5\u05e8\u05d2\u05d9\u05d4","name:hy":"\u054e\u0580\u0561\u057d\u057f\u0561\u0576","name:ht":"Jeoji","name:hu":"Gr\u00fazia","name:qu":"Kartulsuyu","kind":"country","name:yi":"\u05d2\u05e8\u05d5\u05d6\u05d9\u05e2","name:yo":"Georgia","name:mt":"\u0120eor\u0121ja","alt_name:eo":"Kartvelio","name:ms":"Georgia","name:mr":"\u091c\u0949\u0930\u094d\u091c\u093f\u092f\u093e","name:my":"\u1002\u103b\u1031\u102c\u103a\u1002\u103b\u102e\u101a\u102c\u1014\u102d\u102f\u1004\u103a\u1004\u1036","int_name":"Georgia","name:ml":"\u0d1c\u0d4b\u0d7c\u0d1c\u0d4d\u0d1c\u0d3f\u0d2f","name:vi":"Gruzia","name:mn":"\u0413\u04af\u0440\u0436","name:mi":"H\u014dria","id":-28699,"name:mk":"\u0413\u0440\u0443\u0437\u0438\u0458\u0430","name:vo":"Grusiy\u00e4n","name:fa":"\u06af\u0631\u062c\u0633\u062a\u0627\u0646","name:rw":"Geworugiya","name:fi":"Georgia","name:fo":"Georgia (land)","name:fr":"G\u00e9orgie","name:fy":"Ge\u00f6rgje","name:nl":"Georgi\u00eb","name:nn":"Georgia","name:no":"Georgia","name:na":"Djiordjiya","name:ne":"\u091c\u0930\u094d\u091c\u093f\u092f\u093e (\u0926\u0947\u0936)","name:wo":"Jeoorji","name:nv":"J\u00f3ojah (K\u00e9yah)","name:ga":"An tSeoirsia","name:gd":"A' Chairtbheil","name:gl":"Xeorxia - \u10e1\u10d0\u10e5\u10d0\u10e0\u10d7\u10d5\u10d4\u10da\u10dd","name:gv":"Yn \u00c7horshey","name:gu":"\u0a9c\u0acd\u0aaf\u0acb\u0ab0\u0acd\u0a9c\u0ac0\u0aaf\u0abe (\u0aa6\u0ac7\u0ab6)"},"arcs":[0]},{"type":"LineString","properties":{"int_name:right":"Guria","name:right:fr":"Gourie","name:right:uk":"\u0413\u0443\u0440\u0456\u044f","int_name:left":"Samegrelo-Zemo Svaneti","id:left":-1996076,"id:right":-1995971,"name:left:uk":"\u0421\u0430\u043c\u0435\u0491\u0440\u0435\u043b\u043e-\u0417\u0435\u043c\u043e \u0421\u0432\u0430\u043d\u0435\u0442\u0456","min_zoom":8.0,"name:right:ku":"G\u00fbrya","name:left:ab":"\u0410\u0433\u044b\u0440\u043d\u044b-\u0425\u044b\u0445\u044c\u0442\u04d9\u0438 \u0428\u04d9\u0430\u043d\u044b","name:left:ru":"\u041c\u0435\u0433\u0440\u0435\u043b\u0438\u044f-\u0412\u0435\u0440\u0445\u043d\u044f\u044f \u0421\u0432\u0430\u043d\u0435\u0442\u0438\u044f","name:right:ru":"\u0413\u0443\u0440\u0438\u044f","id":-1996076,"osm_relation":true,"name:right":"\u10d2\u10e3\u10e0\u10d8\u10d0","name:left:ku":"Sam\u00eagrelo \u00fb Z\u00eamo Svan\u00eat\u00ee","kind":"region","name:left:it":"Mingrelia-Alta Svanezia","name":"\u10e1\u10d0\u10db\u10d4\u10d2\u10e0\u10d4\u10da\u10dd-\u10d6\u10d4\u10db\u10dd \u10e1\u10d5\u10d0\u10dc\u10d4\u10d7\u10d8 - \u10d2\u10e3\u10e0\u10d8\u10d0","source":"openstreetmap.org","sort_rank":256,"kind_detail":"4","name:left:ca":"Samegrelo - Zemo Svaneti","name:left:de":"Mingrelien-Oberswanetien","name:right:en":"Guria","name:left:en":"Samegrelo-Upper Svaneti","name:left:fr":"Mingr\u00e9lie-et-Haute-Svan\u00e9tie","name:right:ca":"G\u00faria","name:right:de":"Gurien","name:left":"\u10e1\u10d0\u10db\u10d4\u10d2\u10e0\u10d4\u10da\u10dd-\u10d6\u10d4\u10db\u10dd \u10e1\u10d5\u10d0\u10dc\u10d4\u10d7\u10d8"},"arcs":[1]},{"type":"LineString","properties":{"name:right:hy":"\u053f\u0561\u0562\u0561\u0580\u0564\u0561-\u0532\u0561\u056c\u056f\u0561\u0580\u056b\u0561","name:right:nl":"Kabardi\u00eb-Balkari\u00eb","name:right:fr":"Kabardino-Balkarie","name:right:uk":"\u041a\u0430\u0431\u0430\u0440\u0434\u0438\u043d\u043e-\u0411\u0430\u043b\u043a\u0430\u0440\u0456\u044f","int_name:left":"Samegrelo-Zemo Svaneti","id:right":-109879,"name:left:uk":"\u0421\u0430\u043c\u0435\u0491\u0440\u0435\u043b\u043e-\u0417\u0435\u043c\u043e \u0421\u0432\u0430\u043d\u0435\u0442\u0456","min_zoom":8.0,"name:right:sl":"Republika Kabardino-Balkarija","name:right:ce":"\u0413\u04c0\u0435\u0431\u0430\u0440\u0442\u043e\u0439\u043d-\u0411\u0430\u043b\u043a\u0445\u0430\u0440\u043e\u0439\u0447\u043e\u044c","id":-1996076,"name:right":"\u041a\u0430\u0431\u0430\u0440\u0434\u0438\u043d\u043e-\u0411\u0430\u043b\u043a\u0430\u0440\u0438\u044f","name:right:ab":"\u049e\u0430\u0431\u0430\u0440\u0434\u0430-\u0411\u0430\u043b\u043a\u0430\u0440\u0438\u0430\u200e","name:right:ca":"Kabardino-Balk\u00e0ria","kind_detail":"4","name:left:ca":"Samegrelo - Zemo Svaneti","source":"openstreetmap.org","id:left":-1996076,"name:right:cs":"Kabardsko-Balkarsko","name:right:az":"Kabarda-Balkariya","name:left":"\u10e1\u10d0\u10db\u10d4\u10d2\u10e0\u10d4\u10da\u10dd-\u10d6\u10d4\u10db\u10dd \u10e1\u10d5\u10d0\u10dc\u10d4\u10d7\u10d8","name:right:es":"Kabardia-Balkaria","name:right:pt":"Cab\u00e1rdia-Balc\u00e1ria","name:left:ku":"Sam\u00eagrelo \u00fb Z\u00eamo Svan\u00eat\u00ee","name:left:ab":"\u0410\u0433\u044b\u0440\u043d\u044b-\u0425\u044b\u0445\u044c\u0442\u04d9\u0438 \u0428\u04d9\u0430\u043d\u044b","name:left:ru":"\u041c\u0435\u0433\u0440\u0435\u043b\u0438\u044f-\u0412\u0435\u0440\u0445\u043d\u044f\u044f \u0421\u0432\u0430\u043d\u0435\u0442\u0438\u044f","name:left:it":"Mingrelia-Alta Svanezia","name:right:pl":"Kabardo-Ba\u0142karia","name:right:en":"Kabardino-Balkaria","osm_relation":true,"name:left:en":"Samegrelo-Upper Svaneti","kind":"region","name:right:ka":"\u10e7\u10d0\u10d1\u10d0\u10e0\u10d3\u10dd-\u10d1\u10d0\u10da\u10e7\u10d0\u10e0\u10d4\u10d7\u10d8","name":"\u10e1\u10d0\u10db\u10d4\u10d2\u10e0\u10d4\u10da\u10dd-\u10d6\u10d4\u10db\u10dd \u10e1\u10d5\u10d0\u10dc\u10d4\u10d7\u10d8 - \u041a\u0430\u0431\u0430\u0440\u0434\u0438\u043d\u043e-\u0411\u0430\u043b\u043a\u0430\u0440\u0438\u044f","name:right:de":"Kabardino-Balkarien","name:left:de":"Mingrelien-Oberswanetien","name:right:be":"\u041a\u0430\u0431\u0430\u0440\u0434\u0437\u0456\u043d\u0430-\u0411\u0430\u043b\u043a\u0430\u0440\u044b\u044f","sort_rank":256,"name:left:fr":"Mingr\u00e9lie-et-Haute-Svan\u00e9tie","name:right:zh":"\u5361\u5df4\u5c14\u8fbe-\u5df4\u5c14\u5361\u5c14\u5171\u548c\u56fd"},"arcs":[2]},{"type":"LineString","properties":{"int_name":"Samegrelo-Zemo Svaneti","min_zoom":8.0,"name:it":"Mingrelia-Alta Svanezia","name:uk":"\u0421\u0430\u043c\u0435\u0491\u0440\u0435\u043b\u043e-\u0417\u0435\u043c\u043e \u0421\u0432\u0430\u043d\u0435\u0442\u0456","name:ru":"\u041c\u0435\u0433\u0440\u0435\u043b\u0438\u044f-\u0412\u0435\u0440\u0445\u043d\u044f\u044f \u0421\u0432\u0430\u043d\u0435\u0442\u0438\u044f","name:ab":"\u0410\u0433\u044b\u0440\u043d\u044b-\u0425\u044b\u0445\u044c\u0442\u04d9\u0438 \u0428\u04d9\u0430\u043d\u044b","id":-1996076,"osm_relation":true,"kind":"region","name:en":"Samegrelo-Upper Svaneti","name":"\u10e1\u10d0\u10db\u10d4\u10d2\u10e0\u10d4\u10da\u10dd-\u10d6\u10d4\u10db\u10dd \u10e1\u10d5\u10d0\u10dc\u10d4\u10d7\u10d8","sort_rank":256,"kind_detail":"4","name:ku":"Sam\u00eagrelo \u00fb Z\u00eamo Svan\u00eat\u00ee","name:de":"Mingrelien-Oberswanetien","source":"openstreetmap.org","name:fr":"Mingr\u00e9lie-et-Haute-Svan\u00e9tie","name:ca":"Samegrelo - Zemo Svaneti"},"arcs":[3]},{"type":"LineString","properties":{"int_name":"Guria","min_zoom":8.0,"name:uk":"\u0413\u0443\u0440\u0456\u044f","name:ru":"\u0413\u0443\u0440\u0438\u044f","id":-1995971,"osm_relation":true,"kind":"region","name:en":"Guria","name":"\u10d2\u10e3\u10e0\u10d8\u10d0","sort_rank":256,"kind_detail":"4","name:ku":"G\u00fbrya","name:de":"Gurien","source":"openstreetmap.org","name:fr":"Gourie","name:ca":"G\u00faria"},"arcs":[4]},{"type":"LineString","properties":{"name:right:hy":"\u053f\u0561\u0562\u0561\u0580\u0564\u0561-\u0532\u0561\u056c\u056f\u0561\u0580\u056b\u0561","name:left:uz":"Shimoliy Osetiya Alaniya","name:right:uk":"\u041a\u0430\u0431\u0430\u0440\u0434\u0438\u043d\u043e-\u0411\u0430\u043b\u043a\u0430\u0440\u0456\u044f","name:left:he":"\u05e6\u05e4\u05d5\u05df \u05d0\u05d5\u05e1\u05d8\u05d9\u05d4 - \u05d0\u05dc\u05e0\u05d9\u05d4","name:left:sw":"Kaskazi Ossetia-Alania","name:left:sv":"Nordossetien","name:left:sq":"Osetia e Veriut-Alania","name:left:sr":"\u0421\u0435\u0432\u0435\u0440\u043d\u0430 \u041e\u0441\u0435\u0442\u0438\u0458\u0430 \u2014 \u0410\u043b\u0430\u043d\u0438\u0458\u0430","min_zoom":8.0,"name:left:lt":"\u0160iaur\u0117s Osetija","name:left:sh":"Sjeverna Osetija-Alanija","name:left:sk":"Severn\u00e9 Osetsko","name:left:hu":"\u00c9szak-Osz\u00e9tia","name:left:hr":"Sjeverna Osetija-Alanija","name:right:ab":"\u049e\u0430\u0431\u0430\u0440\u0434\u0430-\u0411\u0430\u043b\u043a\u0430\u0440\u0438\u0430\u200e","name:left:ce":"\u041a\u044a\u0438\u043b\u0431\u0430\u0441\u0435\u0434\u0430 \u0425\u04c0\u0438\u0440\u0438\u0439\u0447\u043e\u044c","name:left:ca":"Oss\u00e8tia del Nord - Al\u00e0nia","name:left:gl":"Osetia do Norte-Alania","source":"openstreetmap.org","name:left:cy":"Gogledd Ossetia","name:left:cv":"\u00c7\u0443\u0440\u00e7\u0115\u0440 \u041e\u0441\u0435\u0442\u0438","name:right:az":"Kabarda-Balkariya","name:left:cs":"Severn\u00ed Osetie-Alanie","name:left":"\u0421\u0435\u0432\u0435\u0440\u043d\u0430\u044f \u041e\u0441\u0435\u0442\u0438\u044f - \u0410\u043b\u0430\u043d\u0438\u044f","name:right:es":"Kabardia-Balkaria","name:left:ka":"\u10e9\u10e0\u10d3\u10d8\u10da\u10dd\u10d4\u10d7\u10d8 \u10dd\u10e1\u10d4\u10d7\u10d8","name:left:os":"\u0426\u00e6\u0433\u0430\u0442 \u0418\u0440\u044b\u0441\u0442\u043e\u043d - \u0410\u043b\u0430\u043d\u0438","name:left:ro":"Osetia de Nord","name:right:en":"Kabardino-Balkaria","name:left:vi":"B\u1eafc Ossetia-Alania","name:left:uk":"\u041f\u0456\u0432\u043d\u0456\u0447\u043d\u0430 \u041e\u0441\u0435\u0442\u0456\u044f","kind":"region","name":"\u0421\u0435\u0432\u0435\u0440\u043d\u0430\u044f \u041e\u0441\u0435\u0442\u0438\u044f - \u0410\u043b\u0430\u043d\u0438\u044f - \u041a\u0430\u0431\u0430\u0440\u0434\u0438\u043d\u043e-\u0411\u0430\u043b\u043a\u0430\u0440\u0438\u044f","name:left:fa":"\u0627\u0648\u0633\u062a\u06cc\u0627\u06cc \u0634\u0645\u0627\u0644\u06cc-\u0622\u0644\u0627\u0646\u06cc\u0627","name:right:be":"\u041a\u0430\u0431\u0430\u0440\u0434\u0437\u0456\u043d\u0430-\u0411\u0430\u043b\u043a\u0430\u0440\u044b\u044f","name:left:zh":"\u5317\u5965\u585e\u68af-\u963f\u5170\u5171\u548c\u56fd","name:left:fr":"Oss\u00e9tie-du-Nord-Alanie","name:left:da":"Republikken Nordossetien\u2013Alania","name:right:zh":"\u5361\u5df4\u5c14\u8fbe-\u5df4\u5c14\u5361\u5c14\u5171\u548c\u56fd","name:left:hy":"\u0540\u0575\u0578\u0582\u057d\u056b\u057d\u0561\u0575\u056b\u0576 \u0555\u057d\u056b\u0561","name:left:br":"Norzhosetia-Alania","name:left:bs":"Sjeverna Osetija-Alanija","name:right:nl":"Kabardi\u00eb-Balkari\u00eb","name:right:fr":"Kabardino-Balkarie","name:left:lv":"Zieme\u013cosetija-Al\u0101nija","name:left:ja":"\u5317\u30aa\u30bb\u30c1\u30a2\u5171\u548c\u56fd","id:right":-109879,"name:left:nn":"Nord-Ossetia","name:left:no":"Nord-Ossetia","name:left:nl":"Noord-Osseti\u00eb","name:left:ba":"\u0422\u04e9\u043d\u044c\u044f\u04a1 \u041e\u0441\u0435\u0442\u0438\u044f \u2014 \u0410\u043b\u0430\u043d\u0438\u044f","name:right:sl":"Republika Kabardino-Balkarija","name:left:be":"\u041f\u0430\u045e\u043d\u043e\u0447\u043d\u0430\u044f \u0410\u0441\u0435\u0446\u0456\u044f","name:left:fi":"Pohjois-Ossetia-Alania","id":-110032,"name:right":"\u041a\u0430\u0431\u0430\u0440\u0434\u0438\u043d\u043e-\u0411\u0430\u043b\u043a\u0430\u0440\u0438\u044f","name:left:en":"North Ossetia\u2013Alania","name:left:el":"\u0394\u03b7\u03bc\u03bf\u03ba\u03c1\u03b1\u03c4\u03af\u03b1 \u03c4\u03b7\u03c2 \u0392\u03cc\u03c1\u03b5\u03b9\u03b1\u03c2 \u039f\u03c3\u03b5\u03c4\u03af\u03b1\u03c2 - \u0391\u03bb\u03b1\u03bd\u03af\u03b1\u03c2","name:right:ca":"Kabardino-Balk\u00e0ria","kind_detail":"4","name:right:ce":"\u0413\u04c0\u0435\u0431\u0430\u0440\u0442\u043e\u0439\u043d-\u0411\u0430\u043b\u043a\u0445\u0430\u0440\u043e\u0439\u0447\u043e\u044c","name:left:mk":"\u0421\u0435\u0432\u0435\u0440\u043d\u0430 \u041e\u0441\u0435\u0442\u0438\u0458\u0430-\u0410\u043b\u0430\u043d\u0438\u0458\u0430","id:left":-110032,"name:left:es":"Osetia del Norte-Alania","name:right:cs":"Kabardsko-Balkarsko","name:left:eu":"Ipar Osetia-Alania","name:left:et":"P\u00f5hja-Osseetia","name:right:ka":"\u10e7\u10d0\u10d1\u10d0\u10e0\u10d3\u10dd-\u10d1\u10d0\u10da\u10e7\u10d0\u10e0\u10d4\u10d7\u10d8","name:left:av":"\u0428\u0438\u043c\u0430\u043b\u0438\u044f\u0431 \u0413\u044c\u0438\u0440\u0438\u0441\u0442\u0430\u043d","name:right:pt":"Cab\u00e1rdia-Balc\u00e1ria","name:left:ar":"\u0623\u0648\u0633\u064a\u062a\u064a\u0627 \u0627\u0644\u0634\u0645\u0627\u0644\u064a\u0629-\u0623\u0644\u0627\u0646\u064a\u0627","name:left:pl":"Republika Osetii P\u00f3\u0142nocnej \u2013 Alania","name:left:tr":"Kuzey Osetya-Alanya","name:left:id":"Ossetia Utara\u2013Alania","name:left:tt":"\u0422\u04e9\u043d\u044c\u044f\u043a \u041e\u0441\u0435\u0442\u0438\u044f","name:left:mn":"\u0410\u0440 \u041e\u0441\u0435\u0442-\u0410\u043b\u0430\u043d","name:left:az":"\u015eimali Osetiya","name:left:ms":"Ossetia Utara-Alania","name:left:af":"Noord-Osseti\u00eb-Alani\u00eb","name:left:tl":"Hilagang Osetya-Alania","name:left:it":"Ossezia Settentrionale-Alania","name:right:pl":"Kabardo-Ba\u0142karia","osm_relation":true,"name:right:de":"Kabardino-Balkarien","name:left:de":"Nordossetien-Alanien","sort_rank":256,"name:left:zh-yue":"\u5317\u5967\u585e\u68af-\u963f\u862d"},"arcs":[5]},{"type":"LineString","properties":{"name:ka":"\u10e9\u10e0\u10d3\u10d8\u10da\u10dd\u10d4\u10d7\u10d8 \u10dd\u10e1\u10d4\u10d7\u10d8","name:tr":"Kuzey Osetya-Alanya","name:cv":"\u00c7\u0443\u0440\u00e7\u0115\u0440 \u041e\u0441\u0435\u0442\u0438","name:cs":"Severn\u00ed Osetie-Alanie","name:tt":"\u0422\u04e9\u043d\u044c\u044f\u043a \u041e\u0441\u0435\u0442\u0438\u044f","min_zoom":8.0,"name:ro":"Osetia de Nord","name:tl":"Hilagang Osetya-Alania","name:be":"\u041f\u0430\u045e\u043d\u043e\u0447\u043d\u0430\u044f \u0410\u0441\u0435\u0446\u0456\u044f","name:os":"\u0426\u00e6\u0433\u0430\u0442 \u0418\u0440\u044b\u0441\u0442\u043e\u043d - \u0410\u043b\u0430\u043d\u0438","name:ce":"\u041a\u044a\u0438\u043b\u0431\u0430\u0441\u0435\u0434\u0430 \u0425\u04c0\u0438\u0440\u0438\u0439\u0447\u043e\u044c","name:ca":"Oss\u00e8tia del Nord - Al\u00e0nia","name:cy":"Gogledd Ossetia","sort_rank":256,"name:da":"Republikken Nordossetien\u2013Alania","name:de":"Nordossetien-Alanien","source":"openstreetmap.org","name:sq":"Osetia e Veriut-Alania","name:lv":"Zieme\u013cosetija-Al\u0101nija","name:lt":"\u0160iaur\u0117s Osetija","name:uz":"Shimoliy Osetiya Alaniya","name:he":"\u05e6\u05e4\u05d5\u05df \u05d0\u05d5\u05e1\u05d8\u05d9\u05d4 - \u05d0\u05dc\u05e0\u05d9\u05d4","name:uk":"\u041f\u0456\u0432\u043d\u0456\u0447\u043d\u0430 \u041e\u0441\u0435\u0442\u0456\u044f","name:hy":"\u0540\u0575\u0578\u0582\u057d\u056b\u057d\u0561\u0575\u056b\u0576 \u0555\u057d\u056b\u0561","name:hu":"\u00c9szak-Osz\u00e9tia","name:hr":"Sjeverna Osetija-Alanija","name:el":"\u0394\u03b7\u03bc\u03bf\u03ba\u03c1\u03b1\u03c4\u03af\u03b1 \u03c4\u03b7\u03c2 \u0392\u03cc\u03c1\u03b5\u03b9\u03b1\u03c2 \u039f\u03c3\u03b5\u03c4\u03af\u03b1\u03c2 - \u0391\u03bb\u03b1\u03bd\u03af\u03b1\u03c2","kind":"region","name:en":"North Ossetia\u2013Alania","name":"\u0421\u0435\u0432\u0435\u0440\u043d\u0430\u044f \u041e\u0441\u0435\u0442\u0438\u044f - \u0410\u043b\u0430\u043d\u0438\u044f","name:eu":"Ipar Osetia-Alania","name:et":"P\u00f5hja-Osseetia","name:es":"Osetia del Norte-Alania","name:az":"\u015eimali Osetiya","name:id":"Ossetia Utara\u2013Alania","name:ms":"Ossetia Utara-Alania","name:ar":"\u0623\u0648\u0633\u064a\u062a\u064a\u0627 \u0627\u0644\u0634\u0645\u0627\u0644\u064a\u0629-\u0623\u0644\u0627\u0646\u064a\u0627","name:av":"\u0428\u0438\u043c\u0430\u043b\u0438\u044f\u0431 \u0413\u044c\u0438\u0440\u0438\u0441\u0442\u0430\u043d","name:it":"Ossezia Settentrionale-Alania","name:vi":"B\u1eafc Ossetia-Alania","name:mn":"\u0410\u0440 \u041e\u0441\u0435\u0442-\u0410\u043b\u0430\u043d","name:pl":"Republika Osetii P\u00f3\u0142nocnej \u2013 Alania","name:mk":"\u0421\u0435\u0432\u0435\u0440\u043d\u0430 \u041e\u0441\u0435\u0442\u0438\u0458\u0430-\u0410\u043b\u0430\u043d\u0438\u0458\u0430","name:af":"Noord-Osseti\u00eb-Alani\u00eb","name:fa":"\u0627\u0648\u0633\u062a\u06cc\u0627\u06cc \u0634\u0645\u0627\u0644\u06cc-\u0622\u0644\u0627\u0646\u06cc\u0627","kind_detail":"4","name:no":"Nord-Ossetia","id":-110032,"name:fr":"Oss\u00e9tie-du-Nord-Alanie","name:zh-yue":"\u5317\u5967\u585e\u68af-\u963f\u862d","name:zh":"\u5317\u5965\u585e\u68af-\u963f\u5170\u5171\u548c\u56fd","name:sr":"\u0421\u0435\u0432\u0435\u0440\u043d\u0430 \u041e\u0441\u0435\u0442\u0438\u0458\u0430 \u2014 \u0410\u043b\u0430\u043d\u0438\u0458\u0430","name:nl":"Noord-Osseti\u00eb","name:ja":"\u5317\u30aa\u30bb\u30c1\u30a2\u5171\u548c\u56fd","name:nn":"Nord-Ossetia","name:sh":"Sjeverna Osetija-Alanija","name:br":"Norzhosetia-Alania","name:bs":"Sjeverna Osetija-Alanija","name:sk":"Severn\u00e9 Osetsko","name:sw":"Kaskazi Ossetia-Alania","name:sv":"Nordossetien","name:ba":"\u0422\u04e9\u043d\u044c\u044f\u04a1 \u041e\u0441\u0435\u0442\u0438\u044f \u2014 \u0410\u043b\u0430\u043d\u0438\u044f","osm_relation":true,"name:gl":"Osetia do Norte-Alania","name:fi":"Pohjois-Ossetia-Alania"},"arcs":[6]},{"type":"LineString","properties":{"name:pt":"Cab\u00e1rdia-Balc\u00e1ria","name:az":"Kabarda-Balkariya","name:nl":"Kabardi\u00eb-Balkari\u00eb","name:ka":"\u10e7\u10d0\u10d1\u10d0\u10e0\u10d3\u10dd-\u10d1\u10d0\u10da\u10e7\u10d0\u10e0\u10d4\u10d7\u10d8","name:cs":"Kabardsko-Balkarsko","min_zoom":8.0,"name:sl":"Republika Kabardino-Balkarija","name:uk":"\u041a\u0430\u0431\u0430\u0440\u0434\u0438\u043d\u043e-\u0411\u0430\u043b\u043a\u0430\u0440\u0456\u044f","name:hy":"\u053f\u0561\u0562\u0561\u0580\u0564\u0561-\u0532\u0561\u056c\u056f\u0561\u0580\u056b\u0561","name:be":"\u041a\u0430\u0431\u0430\u0440\u0434\u0437\u0456\u043d\u0430-\u0411\u0430\u043b\u043a\u0430\u0440\u044b\u044f","name:ce":"\u0413\u04c0\u0435\u0431\u0430\u0440\u0442\u043e\u0439\u043d-\u0411\u0430\u043b\u043a\u0445\u0430\u0440\u043e\u0439\u0447\u043e\u044c","name:ab":"\u049e\u0430\u0431\u0430\u0440\u0434\u0430-\u0411\u0430\u043b\u043a\u0430\u0440\u0438\u0430\u200e","id":-109879,"name:ca":"Kabardino-Balk\u00e0ria","kind":"region","name:en":"Kabardino-Balkaria","name":"\u041a\u0430\u0431\u0430\u0440\u0434\u0438\u043d\u043e-\u0411\u0430\u043b\u043a\u0430\u0440\u0438\u044f","sort_rank":256,"kind_detail":"4","name:de":"Kabardino-Balkarien","source":"openstreetmap.org","name:fr":"Kabardino-Balkarie","name:pl":"Kabardo-Ba\u0142karia","osm_relation":true,"name:zh":"\u5361\u5df4\u5c14\u8fbe-\u5df4\u5c14\u5361\u5c14\u5171\u548c\u56fd","name:es":"Kabardia-Balkaria"},"arcs":[7]}]},"roads":{"type":"GeometryCollection","geometries":[{"type":"MultiLineString","properties":{"kind":"major_road","network":"ge:national","sort_rank":380,"kind_detail":"primary","source":"openstreetmap.org","min_zoom":8.0,"shield_text":"7","ref":"\u10e8 7"},"arcs":[[8],[9]]},{"type":"LineString","properties":{"kind":"major_road","network":"e-road","sort_rank":380,"kind_detail":"primary","source":"openstreetmap.org","min_zoom":8.0,"shield_text":"60","ref":"E 60 \/ \u10e1 1","id":239545187},"arcs":[10]},{"type":"LineString","properties":{"kind":"major_road","name:en":"Zakharia Paliashvili St","name:ka":"\u10d6\u10d0\u10e5\u10d0\u10e0\u10d8\u10d0 \u10e4\u10d0\u10da\u10d8\u10d0\u10e8\u10d5\u10d8\u10da\u10d8\u10e1 \u10e5\u10e3\u10e9\u10d0","sort_rank":380,"kind_detail":"primary","bus_network":null,"source":"openstreetmap.org","min_zoom":8.0,"bus_shield_text":"1","name:ru":"\u0423\u043b. \u0417\u0430\u0445\u0430\u0440\u0438\u044f \u041f\u0430\u043b\u0438\u0430\u0448\u0432\u0438\u043b\u0438","landuse_kind":"urban_area","id":130511558},"arcs":[11]},{"type":"MultiLineString","properties":{"kind":"major_road","name:en":"Nikea St","sort_rank":380,"kind_detail":"primary","source":"openstreetmap.org","min_zoom":8.0,"landuse_kind":"urban_area","name:ru":"\u0423\u043b. \u041d\u0438\u043a\u0435\u0430"},"arcs":[[12],[13]]},{"type":"LineString","properties":{"kind":"major_road","name:en":"Akhalgazrdoba Avenue","name:ka":"\u10d0\u10ee\u10d0\u10da\u10d2\u10d0\u10d6\u10e0\u10d3\u10dd\u10d1\u10d8\u10e1 \u10d2\u10d0\u10db\u10d6\u10d8\u10e0\u10d8","sort_rank":380,"landuse_kind":"urban_area","source":"openstreetmap.org","min_zoom":8.0,"kind_detail":"primary","name:ru":"\u041f\u0440\u043e\u0441\u043f\u0435\u043a\u0442 \u0410\u0445\u0430\u043b\u0433\u0430\u0437\u0440\u0434\u043e\u0431\u0430"},"arcs":[14]},{"type":"LineString","properties":{"kind":"major_road","name:en":"Shota Rustaveli Bridge","sort_rank":380,"landuse_kind":"urban_area","source":"openstreetmap.org","min_zoom":8.0,"kind_detail":"primary","id":385117836},"arcs":[15]},{"type":"MultiLineString","properties":{"kind":"highway","network":"ge:national","sort_rank":383,"kind_detail":"motorway","source":"openstreetmap.org","min_zoom":8.0,"all_networks":["ge:national","e-road","AsianHighway"],"shield_text":"1","ref":"\u10e1 1","all_shield_texts":["1","60","82"]},"arcs":[[16],[17],[18],[19],[20]]},{"type":"LineString","properties":{"bus_network":null,"name:en":"Ilia Chavchavadze Avenue","sort_rank":380,"kind_detail":"primary","is_bicycle_related":true,"kind":"major_road","source":"openstreetmap.org","min_zoom":8.0,"bus_shield_text":"1","name:ru":"\u043f\u0440\u043e\u0441\u043f\u0435\u043a\u0442 \u0427\u0430\u0432\u0447\u0430\u0432\u0430\u0434\u0437\u0435","landuse_kind":"urban_area"},"arcs":[21]},{"type":"LineString","properties":{"kind":"major_road","name:en":"Zviad Gamsakhurdia Avenue","sort_rank":380,"kind_detail":"primary","is_bicycle_related":true,"source":"openstreetmap.org","min_zoom":8.0,"landuse_kind":"urban_area"},"arcs":[22]},{"type":"MultiLineString","properties":{"source":"openstreetmap.org","kind":"major_road","name:en":"Nikea St","sort_rank":380,"kind_detail":"primary","min_zoom":8.0},"arcs":[[23],[24]]},{"type":"MultiLineString","properties":{"sort_rank":380,"kind_detail":"primary","min_zoom":8.0,"kind":"major_road","source":"openstreetmap.org"},"arcs":[[25],[26],[27],[28],[29],[30],[31],[32],[33],[34],[35],[36],[37],[38],[39],[40]]},{"type":"LineString","properties":{"source":"openstreetmap.org","kind":"major_road","network":"e-road","sort_rank":380,"kind_detail":"primary","min_zoom":8.0,"shield_text":"60"},"arcs":[41]},{"type":"LineString","properties":{"kind":"major_road","network":"ge:national","sort_rank":380,"kind_detail":"primary","source":"openstreetmap.org","min_zoom":8.0,"landuse_kind":"residential","shield_text":"1","ref":"\u10e1 1"},"arcs":[42]},{"type":"MultiLineString","properties":{"bus_network":null,"name:en":"Shota Rustaveli Avenue","sort_rank":380,"landuse_kind":"urban_area","kind":"major_road","source":"openstreetmap.org","min_zoom":8.0,"bus_shield_text":"1","kind_detail":"primary"},"arcs":[[43],[44]]},{"type":"MultiLineString","properties":{"kind":"highway","network":"e-road","sort_rank":383,"kind_detail":"motorway","source":"openstreetmap.org","min_zoom":8.0,"all_networks":["e-road","AsianHighway"],"shield_text":"60","all_shield_texts":["60","82"]},"arcs":[[45],[46]]},{"type":"LineString","properties":{"kind":"major_road","name:en":"Zviad Gamsakhurdia Avenue","sort_rank":380,"kind_detail":"primary","source":"openstreetmap.org","min_zoom":8.0,"landuse_kind":"urban_area","name:ru":"\u0423\u043b. \u0417\u0432\u0438\u0430\u0434\u0430 \u0413\u0430\u043c\u0441\u0430\u0445\u0443\u0440\u0434\u0438\u0430","id":100740000},"arcs":[47]},{"type":"LineString","properties":{"bus_network":null,"name:en":"Ilia Chavchavadze Avenue","sort_rank":380,"kind_detail":"primary","kind":"major_road","source":"openstreetmap.org","min_zoom":8.0,"bus_shield_text":"1","landuse_kind":"urban_area"},"arcs":[48]},{"type":"LineString","properties":{"kind":"major_road","network":"AsianHighway","sort_rank":380,"kind_detail":"primary","is_bicycle_related":true,"source":"openstreetmap.org","min_zoom":8.0,"shield_text":"82","ref":"\u10e1 12","id":514757712},"arcs":[49]},{"type":"LineString","properties":{"kind":"major_road","name:en":"David Aghmashenebeli Avenue","sort_rank":380,"kind_detail":"primary","is_bicycle_related":true,"cycleway":"track","source":"openstreetmap.org","min_zoom":8.0,"landuse_kind":"urban_area"},"arcs":[50]},{"type":"MultiLineString","properties":{"kind":"major_road","network":"ge:national","sort_rank":380,"kind_detail":"primary","source":"openstreetmap.org","min_zoom":8.0,"shield_text":"1","ref":"\u10e1 1"},"arcs":[[51],[52],[53],[54],[55],[56]]},{"type":"LineString","properties":{"kind":"major_road","name:en":"Joseb Grishashvili St","sort_rank":380,"kind_detail":"primary","source":"openstreetmap.org","min_zoom":8.0,"landuse_kind":"urban_area","name:ru":"\u0423\u043b. \u0418\u043e\u0441\u0438\u0444\u0430 \u0413\u0440\u0438\u0448\u0430\u0448\u0432\u0438\u043b\u0438"},"arcs":[57]},{"type":"LineString","properties":{"kind":"major_road","name:en":"Ilia Chavchavadze Avenue","sort_rank":380,"kind_detail":"primary","is_bicycle_related":true,"source":"openstreetmap.org","min_zoom":8.0,"landuse_kind":"urban_area","name:ru":"\u043f\u0440\u043e\u0441\u043f\u0435\u043a\u0442 \u0427\u0430\u0432\u0447\u0430\u0432\u0430\u0434\u0437\u0435","id":354062257},"arcs":[58]},{"type":"MultiLineString","properties":{"source":"openstreetmap.org","kind":"major_road","network":"e-road","sort_rank":380,"kind_detail":"primary","min_zoom":8.0,"shield_text":"692"},"arcs":[[59],[60]]},{"type":"MultiLineString","properties":{"kind":"highway","name:en":"Imereti Bypass","network":"ge:national","sort_rank":383,"kind_detail":"motorway","source":"openstreetmap.org","min_zoom":8.0,"all_networks":["ge:national","e-road"],"shield_text":"1","ref":"\u10e1 1","all_shield_texts":["1","60"]},"arcs":[[61],[62],[63]]},{"type":"LineString","properties":{"kind":"major_road","network":"ge:national","sort_rank":380,"kind_detail":"primary","source":"openstreetmap.org","min_zoom":8.0,"landuse_kind":"urban_area","shield_text":"1","ref":"\u10e1 1"},"arcs":[64]},{"type":"MultiLineString","properties":{"kind":"major_road","name:en":"David Aghmashenebeli Avenue","sort_rank":380,"kind_detail":"primary","is_bicycle_related":true,"cycleway":"track","source":"openstreetmap.org","min_zoom":8.0,"landuse_kind":"urban_area","name:ru":"\u043f\u0440\u043e\u0441\u043f\u0435\u043a\u0442 \u0410\u0433\u043c\u0430\u0448\u0435\u043d\u0435\u0431\u0435\u043b\u0438"},"arcs":[[65],[66]]},{"type":"MultiLineString","properties":{"kind":"major_road","network":"AsianHighway","sort_rank":380,"kind_detail":"primary","source":"openstreetmap.org","min_zoom":8.0,"landuse_kind":"urban_area","shield_text":"82"},"arcs":[[67],[68]]},{"type":"MultiLineString","properties":{"source":"openstreetmap.org","kind":"major_road","name:en":"Nikea St","landuse_kind":"urban_area","sort_rank":380,"kind_detail":"primary","min_zoom":8.0},"arcs":[[69],[70],[71]]},{"type":"LineString","properties":{"kind":"major_road","name:en":"Nodar Dumbadze St","sort_rank":380,"landuse_kind":"urban_area","source":"openstreetmap.org","min_zoom":8.0,"kind_detail":"primary","id":100740836},"arcs":[72]},{"type":"MultiLineString","properties":{"source":"openstreetmap.org","kind":"major_road","sort_rank":380,"kind_detail":"primary","ref":"\u10e8 104","min_zoom":8.0},"arcs":[[73],[74],[75],[76],[77],[78],[79],[80]]},{"type":"LineString","properties":{"kind":"highway","network":"ge:national","sort_rank":383,"kind_detail":"motorway","source":"openstreetmap.org","min_zoom":8.0,"all_networks":["ge:national","e-road"],"shield_text":"1","ref":"\u10e1 1","all_shield_texts":["1","60"]},"arcs":[81]},{"type":"LineString","properties":{"kind":"major_road","name:en":"Nikea St","name:ka":"\u10dc\u10d8\u10d9\u10d4\u10d0\u10e1 \u10e5\u10e3\u10e9\u10d0","sort_rank":380,"kind_detail":"primary","source":"openstreetmap.org","min_zoom":8.0,"landuse_kind":"urban_area","name:ru":"\u0423\u043b. \u041d\u0438\u043a\u0435\u0430","id":396665670},"arcs":[82]},{"type":"LineString","properties":{"kind":"major_road","name:en":"Zakharia Paliashvili St","sort_rank":380,"kind_detail":"primary","bus_network":null,"source":"openstreetmap.org","min_zoom":8.0,"bus_shield_text":"1","name:ru":"\u0443\u043b\u0438\u0446\u0430 \u0417\u0430\u0445\u0430\u0440\u0438\u044f \u041f\u0430\u043b\u0438\u0430\u0448\u0432\u0438\u043b\u0438","landuse_kind":"urban_area","id":130511559},"arcs":[83]},{"type":"LineString","properties":{"kind":"major_road","network":"ge:national","sort_rank":380,"kind_detail":"primary","source":"openstreetmap.org","min_zoom":8.0,"shield_text":"1","name:ru":"\u0443\u043b. \u0422\u0430\u0432\u0430\u0434\u0437\u0435","ref":"\u10e1 1","id":232858645},"arcs":[84]},{"type":"MultiLineString","properties":{"source":"openstreetmap.org","kind":"major_road","sort_rank":380,"kind_detail":"primary","is_bicycle_related":true,"min_zoom":8.0},"arcs":[[85],[86]]},{"type":"LineString","properties":{"kind":"major_road","network":"e-road","sort_rank":380,"kind_detail":"primary","source":"openstreetmap.org","min_zoom":8.0,"landuse_kind":"urban_area","shield_text":"60","ref":"\u10e1 1","id":435151834},"arcs":[87]},{"type":"MultiLineString","properties":{"source":"openstreetmap.org","kind":"major_road","name:en":"Shota Rustaveli Avenue","landuse_kind":"urban_area","sort_rank":380,"kind_detail":"primary","min_zoom":8.0},"arcs":[[88],[89],[90],[91]]},{"type":"MultiLineString","properties":{"kind":"highway","name:en":"Imereti Bypass","network":"e-road","sort_rank":383,"kind_detail":"motorway","source":"openstreetmap.org","min_zoom":8.0,"all_networks":["e-road"],"shield_text":"60","ref":"\u10e1 1","all_shield_texts":["60"]},"arcs":[[92],[93]]},{"type":"MultiLineString","properties":{"source":"openstreetmap.org","kind":"major_road","name:en":"Zviad Gamsakhurdia Avenue","landuse_kind":"urban_area","sort_rank":380,"kind_detail":"primary","min_zoom":8.0},"arcs":[[94],[95]]},{"type":"MultiLineString","properties":{"kind":"major_road","network":"e-road","sort_rank":380,"kind_detail":"primary","source":"openstreetmap.org","min_zoom":8.0,"landuse_kind":"urban_area","shield_text":"60"},"arcs":[[96],[97],[98],[99]]},{"type":"MultiLineString","properties":{"kind":"major_road","network":"e-road","sort_rank":380,"kind_detail":"primary","is_bicycle_related":true,"source":"openstreetmap.org","min_zoom":8.0,"shield_text":"692","ref":"\u10e1 12"},"arcs":[[100],[101],[102],[103],[104],[105],[106]]},{"type":"LineString","properties":{"kind":"major_road","name:en":"Zviad Gamsakhurdia Avenue","network":"AsianHighway","sort_rank":380,"kind_detail":"primary","source":"openstreetmap.org","min_zoom":8.0,"landuse_kind":"urban_area","shield_text":"82"},"arcs":[107]},{"type":"LineString","properties":{"bus_network":null,"name:en":"Zviad Gamsakhurdia Avenue","sort_rank":380,"kind_detail":"primary","kind":"major_road","source":"openstreetmap.org","min_zoom":8.0,"bus_shield_text":"1","name:ru":"\u0423\u043b. \u0417\u0432\u0438\u0430\u0434\u0430 \u0413\u0430\u043c\u0441\u0430\u0445\u0443\u0440\u0434\u0438\u0430","landuse_kind":"urban_area"},"arcs":[108]},{"type":"LineString","properties":{"sort_rank":383,"kind_detail":"motorway","min_zoom":8.0,"kind":"highway","source":"openstreetmap.org"},"arcs":[109]},{"type":"LineString","properties":{"kind":"highway","name:en":"Imereti Bypass","network":"e-road","sort_rank":383,"kind_detail":"motorway","source":"openstreetmap.org","min_zoom":8.0,"all_networks":["e-road","AsianHighway"],"shield_text":"60","all_shield_texts":["60","82"]},"arcs":[110]},{"type":"MultiLineString","properties":{"bus_network":null,"name:en":"Ilia Chavchavadze Avenue","sort_rank":380,"landuse_kind":"urban_area","kind":"major_road","source":"openstreetmap.org","min_zoom":8.0,"bus_shield_text":"1","name:ru":"\u043f\u0440\u043e\u0441\u043f\u0435\u043a\u0442 \u0427\u0430\u0432\u0447\u0430\u0432\u0430\u0434\u0437\u0435","kind_detail":"primary"},"arcs":[[111],[112]]},{"type":"MultiLineString","properties":{"kind":"major_road","network":"e-road","sort_rank":380,"kind_detail":"primary","is_bicycle_related":true,"source":"openstreetmap.org","min_zoom":8.0,"shield_text":"60","ref":"\u10e1 12"},"arcs":[[113],[114],[115]]},{"type":"LineString","properties":{"kind":"major_road","name:en":"Shota Rustaveli Bridge","sort_rank":380,"kind_detail":"primary","bus_network":null,"source":"openstreetmap.org","min_zoom":8.0,"bus_shield_text":"1","name:ru":"\u041c\u043e\u0441\u0442 \u0428\u043e\u0442\u044b \u0420\u0443\u0441\u0442\u0430\u0432\u0435\u043b\u0438","landuse_kind":"urban_area","id":100741860},"arcs":[116]},{"type":"LineString","properties":{"kind":"major_road","name:en":"Akhalgazrdoba Avenue","name:ka":"\u10d0\u10ee\u10d0\u10da\u10d2\u10d0\u10d6\u10e0\u10d3\u10dd\u10d1\u10d8\u10e1 \u10d2\u10d0\u10db\u10d6\u10d8\u10e0\u10d8","sort_rank":380,"kind_detail":"primary","source":"openstreetmap.org","min_zoom":8.0,"name:ru":"\u041f\u0440\u043e\u0441\u043f\u0435\u043a\u0442 \u0410\u0445\u0430\u043b\u0433\u0430\u0437\u0440\u0434\u043e\u0431\u0430","id":100741376},"arcs":[117]},{"type":"LineString","properties":{"kind":"major_road","name:en":"Tamari Street","network":"e-road","name:ka":"\u10d7\u10d0\u10db\u10d0\u10e0\u10d8\u10e1 \u10e5\u10e3\u10e9\u10d0","sort_rank":380,"kind_detail":"primary","source":"openstreetmap.org","min_zoom":8.0,"landuse_kind":"urban_area","shield_text":"60","ref":"\u10e1 1","id":435152677},"arcs":[118]},{"type":"LineString","properties":{"kind":"major_road","name:en":"Tamari Street","network":"ge:national","name:ka":"\u10d7\u10d0\u10db\u10d0\u10e0\u10d8\u10e1 \u10e5\u10e3\u10e9\u10d0","sort_rank":380,"kind_detail":"primary","source":"openstreetmap.org","min_zoom":8.0,"landuse_kind":"residential","shield_text":"1","ref":"\u10e1 1","id":100274214},"arcs":[119]},{"type":"MultiLineString","properties":{"source":"openstreetmap.org","kind":"major_road","landuse_kind":"urban_area","sort_rank":380,"kind_detail":"primary","min_zoom":8.0},"arcs":[[120],[121],[122],[123],[124],[125],[126],[127],[128],[129],[130],[131],[132],[133],[134],[135],[136],[137],[138]]},{"type":"LineString","properties":{"kind":"major_road","network":"ge:national","sort_rank":380,"kind_detail":"primary","source":"openstreetmap.org","min_zoom":8.0,"shield_text":"7","ref":"\u10e1 7","id":39885022},"arcs":[139]},{"type":"MultiLineString","properties":{"source":"openstreetmap.org","kind":"major_road","name:en":"Nikea St","name:ru":"\u0423\u043b. \u041d\u0438\u043a\u0435\u0430","sort_rank":380,"kind_detail":"primary","min_zoom":8.0},"arcs":[[140],[141]]},{"type":"LineString","properties":{"kind":"major_road","name:en":"Tamar Mepe Street","network":"ge:national","name:ka":"\u10d7\u10d0\u10db\u10d0\u10e0 \u10db\u10d4\u10e4\u10d8\u10e1 \u10e5\u10e3\u10e9\u10d0","sort_rank":380,"kind_detail":"primary","is_bicycle_related":true,"source":"openstreetmap.org","min_zoom":8.0,"shield_text":"1","ref":"\u10e1 1"},"arcs":[142]},{"type":"MultiLineString","properties":{"bus_network":null,"sort_rank":380,"kind_detail":"primary","kind":"major_road","source":"openstreetmap.org","min_zoom":8.0,"bus_shield_text":"1","landuse_kind":"urban_area"},"arcs":[[143],[144],[145],[146],[147],[148]]},{"type":"MultiLineString","properties":{"source":"openstreetmap.org","kind":"major_road","name:en":"Ilia Chavchavadze Avenue","landuse_kind":"urban_area","sort_rank":380,"kind_detail":"primary","min_zoom":8.0},"arcs":[[149],[150],[151]]},{"type":"MultiLineString","properties":{"kind":"major_road","name:en":"Tamari Street","network":"ge:national","name:ka":"\u10d7\u10d0\u10db\u10d0\u10e0\u10d8\u10e1 \u10e5\u10e3\u10e9\u10d0","sort_rank":380,"kind_detail":"primary","source":"openstreetmap.org","min_zoom":8.0,"landuse_kind":"urban_area","shield_text":"1","ref":"\u10e1 1"},"arcs":[[152],[153],[154],[155],[156],[157]]},{"type":"MultiLineString","properties":{"kind":"major_road","network":"ge:national","sort_rank":380,"kind_detail":"primary","is_bicycle_related":true,"source":"openstreetmap.org","min_zoom":8.0,"shield_text":"1","ref":"\u10e1 1"},"arcs":[[158],[159]]},{"type":"MultiLineString","properties":{"kind":"highway","name:en":"Imereti Bypass","network":"ge:national","sort_rank":383,"kind_detail":"motorway","source":"openstreetmap.org","min_zoom":8.0,"all_networks":["ge:national","e-road","AsianHighway"],"shield_text":"1","ref":"\u10e1 1","all_shield_texts":["1","60","82"]},"arcs":[[160],[161],[162],[163],[164],[165],[166],[167],[168],[169],[170],[171]]}]},"earth":{"type":"GeometryCollection","geometries":[{"type":"Polygon","properties":{"sort_rank":10,"source":"naturalearthdata.com","kind":"earth","min_zoom":0.0,"id":4743},"arcs":[[172]]}]},"landuse":{"type":"GeometryCollection","geometries":[{"type":"Polygon","properties":{"kind":"glacier","name:en":"Zaresho-Khalde Glacier","natural":"glacier","name":"\u10d6\u10d0\u10e0\u10d4\u10e8\u10dd-\u10ee\u10d0\u10da\u10d3\u10d4","area":19970400,"sort_rank":29,"source":"openstreetmap.org","min_zoom":8.0,"int_name":"Zaresho-Khalde","tier":3,"name:ru":"\u0417\u0430\u0440\u0435\u0448\u043e-\u0425\u0430\u043b\u0434\u0435","id":-6560270,"osm_relation":true},"arcs":[[173]]},{"type":"Polygon","properties":{"name:pt":"Zestaponi","alt_name:en":"Zestafoni","name:nl":"Zestaponi","name:ja":"\u30bc\u30b9\u30bf\u30dd\u30cb","name:ka":"\u10d6\u10d4\u10e1\u10e2\u10d0\u10e4\u10dd\u10dc\u10d8","name:ko":"\uc81c\uc2a4\ud0c0\ud3ec\ub2c8","old_name":"Kvirila","name:cs":"Zestaponi","min_zoom":8.0,"name:it":"Zestaponi","name:uk":"\u0417\u0435\u0441\u0442\u0430\u0444\u043e\u043d\u0456","name:hy":"\u0536\u0565\u057d\u057f\u0561\u0586\u0578\u0576","tier":2,"name:sv":"Zestaponi","name:pl":"Zestaponi","name:de":"Sestafoni","name:lt":"Zestafonis","name:sr":"\u0417\u0435\u0441\u0442\u0430\u0444\u043e\u043d\u0438","osm_relation":true,"kind":"residential","name:en":"Zestaponi","name":"\u10d6\u10d4\u10e1\u10e2\u10d0\u10e4\u10dd\u10dc\u10d8 (Zestaponi)","area":14276000,"sort_rank":20,"name:fi":"Zestaponi","id":-6255831,"name:ru":"\u0417\u0435\u0441\u0442\u0430\u0444\u043e\u043d\u0438","source":"openstreetmap.org","name:fr":"Zestafoni","name:et":"Zestaphoni","name:zh":"\u6fa4\u65af\u5854\u6ce2\u5c3c"},"arcs":[[174]]},{"type":"Polygon","properties":{"kind":"nature_reserve","protect_class":"1","area":1504999936,"sort_rank":23,"source":"openstreetmap.org","min_zoom":4.0,"tier":2,"id":-7412104,"osm_relation":true},"arcs":[[175]]},{"type":"MultiPolygon","properties":{"kind":"glacier","natural":"glacier","area":34689576,"sort_rank":29,"source":"openstreetmap.org","min_zoom":8.0,"tier":3,"osm_relation":true},"arcs":[[[176]],[[177]],[[178]]]},{"type":"Polygon","properties":{"kind":"glacier","natural":"glacier","name":"\u0428\u0442\u0443\u043b\u0443","area":12084500,"sort_rank":29,"source":"openstreetmap.org","min_zoom":8.0,"tier":3,"id":-6640596,"osm_relation":true},"arcs":[[179]]},{"type":"Polygon","properties":{"alt_name:ru":"\u0410\u0434\u0438\u0448\u0438","kind":"glacier","name:en":"Adishi Glacier","natural":"glacier","name":"\u10d0\u10d3\u10d8\u10e8\u10d8\u10e1 \u10db\u10e7\u10d8\u10dc\u10d5\u10d0\u10e0\u10d8","area":18179400,"sort_rank":29,"source":"openstreetmap.org","min_zoom":8.0,"int_name":"Adishi","tier":3,"name:ru":"\u041b\u0430\u0440\u0434\u0430\u0430\u0434","id":-6428653,"osm_relation":true},"arcs":[[180]]},{"type":"Polygon","properties":{"kind":"glacier","natural":"glacier","name":"\u041d\u0430\u0445\u0430\u0433\u0438\u0431\u0438\u0442\u0430","area":10616500,"sort_rank":29,"source":"openstreetmap.org","min_zoom":8.0,"tier":3,"id":329954387},"arcs":[[181]]},{"type":"Polygon","properties":{"kind":"nature_reserve","protect_class":"2","area":1040449984,"sort_rank":23,"source":"openstreetmap.org","min_zoom":4.0,"tier":2,"id":-7412103,"osm_relation":true},"arcs":[[182]]},{"type":"Polygon","properties":{"kind":"glacier","name:en":"Ulauzna Glacier","natural":"glacier","name":"\u0423\u043b\u0430\u0443\u0437\u043d\u0430","area":12017700,"sort_rank":29,"source":"openstreetmap.org","min_zoom":8.0,"tier":3,"id":226570750},"arcs":[[183]]},{"type":"Polygon","properties":{"kind":"glacier","natural":"glacier","name":"\u0424\u044b\u0442\u043d\u0430\u0440\u0433\u0438\u043d (\u0410\u0433\u0430\u0448\u0442\u0430)","area":13834400,"sort_rank":29,"source":"openstreetmap.org","min_zoom":8.0,"tier":3,"id":-6640856,"osm_relation":true},"arcs":[[184]]},{"type":"Polygon","properties":{"kind":"glacier","name:en":"Bezengi","natural":"glacier","name":"\u0411\u0435\u0437\u0435\u043d\u0433\u0438","area":45895200,"sort_rank":29,"source":"openstreetmap.org","min_zoom":8.0,"tier":3,"id":-3500163,"osm_relation":true},"arcs":[[185],[186],[187],[188],[189]]},{"type":"Polygon","properties":{"kind":"glacier","name:en":"Bartui Glacier","natural":"glacier","name":"\u043b\u0435\u0434\u043d\u0438\u043a \u0411\u0430\u0440\u0442\u0443\u0439","area":33606900,"sort_rank":29,"source":"openstreetmap.org","min_zoom":8.0,"tier":3,"id":-2073506,"osm_relation":true},"arcs":[[190],[191]]},{"type":"Polygon","properties":{"kind":"nature_reserve","area":63404100,"sort_rank":23,"source":"openstreetmap.org","min_zoom":8.0,"tier":2,"id":-5946236,"osm_relation":true},"arcs":[[192],[193]]},{"type":"MultiPolygon","properties":{"source":"openstreetmap.org","kind":"park","tier":2,"area":145164742,"sort_rank":24,"min_zoom":8.0},"arcs":[[[194]]]},{"type":"Polygon","properties":{"kind":"glacier","name:en":"Nagebi Glacier","natural":"glacier","name":"\u10dc\u10d0\u10d2\u10d4\u10d1\u10d8","area":10664000,"sort_rank":29,"source":"openstreetmap.org","min_zoom":8.0,"tier":3,"name:ru":"\u041d\u0430\u0433\u0435\u0431","id":355169321},"arcs":[[195]]},{"type":"MultiPolygon","properties":{"source":"naturalearthdata.com","kind":"urban_area","name":"","area":1289089409,"sort_rank":11,"min_zoom":4.0},"arcs":[[[196]],[[197]],[[198]],[[199]]]},{"type":"MultiPolygon","properties":{"kind":"glacier","name:en":"Tsaneri Glacier","natural":"glacier","name":"\u10ec\u10d0\u10dc\u10d4\u10e0\u10d8","area":12595300,"sort_rank":29,"name:de":"Zaneri-Gletscher","source":"openstreetmap.org","min_zoom":8.0,"osm_relation":true,"tier":3,"name:ru":"\u043b\u0435\u0434\u043d\u0438\u043a \u0426\u0430\u043d\u0435\u0440\u0438","id":-6561626,"name:es":"Glaciar de Tsaneri"},"arcs":[[[200]]]},{"type":"Polygon","properties":{"kind":"glacier","natural":"glacier","name":"\u0414\u044b\u0445\u0441\u0443","area":16450900,"sort_rank":29,"source":"openstreetmap.org","min_zoom":8.0,"tier":3,"id":-6640849,"osm_relation":true},"arcs":[[201]]},{"type":"Polygon","properties":{"kind":"glacier","natural":"glacier","name":"\u0411\u0430\u0448\u0445\u0430\u0430\u0443\u0437","area":19417900,"sort_rank":29,"source":"openstreetmap.org","min_zoom":8.0,"tier":3,"id":-6640847,"osm_relation":true},"arcs":[[202]]},{"type":"Polygon","properties":{"kind":"glacier","natural":"glacier","name":"\u0410\u0439\u043b\u0430\u043c\u0430","area":15310200,"sort_rank":29,"source":"openstreetmap.org","min_zoom":8.0,"tier":3,"id":-6640846,"osm_relation":true},"arcs":[[203]]},{"type":"Polygon","properties":{"kind":"glacier","natural":"glacier","name":"\u041a\u0440\u0443\u043c\u043a\u043e\u043b","area":15201500,"sort_rank":29,"source":"openstreetmap.org","min_zoom":8.0,"tier":3,"id":-6553922,"osm_relation":true},"arcs":[[204],[205],[206],[207]]},{"type":"Polygon","properties":{"source":"openstreetmap.org","kind":"aerodrome","area":13659100,"tier":3,"id":192036204,"min_zoom":8.0,"sort_rank":60},"arcs":[[208]]},{"type":"Polygon","properties":{"kind":"glacier","natural":"glacier","area":10784700,"sort_rank":29,"source":"openstreetmap.org","min_zoom":8.0,"tier":3,"id":355169320},"arcs":[[209]]},{"type":"MultiPolygon","properties":{"source":"openstreetmap.org","kind":"residential","tier":2,"area":68646387,"sort_rank":20,"min_zoom":8.0},"arcs":[[[210]],[[211]]]},{"type":"Polygon","properties":{"kind":"glacier","name:en":"Tanantsete Glacier","natural":"glacier","name":"\u0422\u0430\u043d\u0430\u043d\u0446\u0435\u0442\u0435","area":19919000,"sort_rank":29,"source":"openstreetmap.org","min_zoom":8.0,"tier":3,"id":295624342},"arcs":[[212]]}]}},"type":"Topology","transform":{"translate":[42.1875,42.0329743324],"scale":[0.0003433228,0.0002529086]},"arcs":[[[4096,3212],[-95,89],[-156,0],[-61,30],[-25,56],[-207,9],[-50,29],[-72,-34],[-88,-2],[-50,98],[-50,-30],[-29,42],[-304,78],[-38,99],[-86,26],[-90,123],[-76,-2],[-150,119],[10,35],[-64,119]],[[0,315],[84,45],[25,-13]],[[2791,3700],[-96,125],[-76,-2],[-150,119],[10,35],[-64,119]],[[109,347],[111,-55],[83,6],[23,63],[-26,66],[35,27],[-44,162],[20,78],[-17,126],[52,22],[56,86],[92,158],[36,119],[56,42],[60,120],[121,114],[-28,85],[35,46],[29,123],[75,63],[22,107],[90,57],[8,76],[255,63],[-121,234],[-48,5],[1,73],[-90,76],[39,92],[-27,22],[90,53],[-49,139],[-39,0],[-74,84],[-103,65],[-59,-7],[-177,77],[-103,120],[83,214],[33,29],[58,-26],[120,24],[80,-26],[-40,162],[40,60],[33,8],[75,-68],[100,-1],[-3,-22],[42,-26],[197,16],[186,-100],[151,65],[30,-40],[108,110],[73,-16],[5,-32],[29,-12],[81,4],[16,-29],[95,-20],[35,-63],[43,16],[79,-16],[119,53],[42,-17],[72,32],[47,-38],[-14,-43],[28,-57],[39,21],[52,114],[47,36],[-45,99],[15,32],[140,79],[7,44]],[[637,0],[-26,105],[-131,23],[-1,-19],[-33,4],[-38,-85],[-34,15],[-48,-23],[-33,72],[-148,34],[-67,93],[27,32],[4,96]],[[4096,3698],[-1,-1],[-44,-27],[-20,-72],[-113,7],[-60,64],[-126,-1],[-75,35],[-52,-84],[4,-84],[-37,-26],[-45,-93]],[[3527,3416],[25,-20],[207,-9],[25,-56],[61,-30],[156,0],[95,-89]],[[2791,3700],[72,-17],[42,-102],[58,-32],[65,6],[33,-31],[102,-7],[55,-20],[24,-40],[50,30],[50,-98],[185,27]],[[233,3797],[-180,-101],[-53,-86]],[[1555,3995],[-253,-121],[-89,16],[-46,-31],[-60,11],[44,76],[-60,-43],[-171,74],[4,36],[-149,-9],[-122,62],[-89,-63],[-92,-24],[-127,-119],[-58,-7],[-56,-49]],[[3099,302],[-3,-1]],[[1509,944],[-1,1]],[[1473,841],[-5,-47]],[[1476,854],[-3,-12]],[[1527,792],[-4,53]],[[1489,938],[3,2]],[[1846,705],[79,-30]],[[1939,673],[7,-4]],[[1953,665],[174,-73]],[[2133,589],[6,-2]],[[2152,578],[-13,9]],[[1442,866],[-41,24]],[[1391,883],[9,8]],[[1466,768],[0,3]],[[1466,772],[2,22]],[[478,508],[-45,-32]],[[498,519],[-1,0]],[[497,519],[1,0]],[[498,519],[251,54]],[[751,573],[-2,0]],[[749,573],[2,0]],[[751,573],[1,0],[-1,0]],[[753,574],[-1,0]],[[752,573],[1,1]],[[753,574],[235,83],[334,186]],[[1682,818],[-155,-35]],[[1684,818],[-2,0]],[[1682,818],[3,-1]],[[1686,817],[87,-94],[66,-8]],[[1466,772],[-1,0],[0,-1],[1,0],[0,1]],[[1840,715],[-1,-1],[1,-1],[1,1],[-1,1]],[[433,476],[0,-1],[1,1],[-1,0]],[[2573,256],[-69,45]],[[1446,925],[-16,-8]],[[1489,939],[-42,-14]],[[815,509],[-9,2],[-15,3],[24,-5]],[[815,509],[21,-5]],[[1411,900],[7,6]],[[1442,866],[51,-16]],[[431,446],[-1,1]],[[1504,903],[12,0]],[[424,470],[-102,18],[-322,233]],[[2280,434],[66,-51]],[[2714,258],[-86,-18],[-55,16]],[[2714,258],[5,0]],[[2957,313],[-13,16],[-27,-38],[-59,13],[-2,-76],[-74,-22],[-63,52]],[[3102,302],[-3,0]],[[1472,925],[8,3]],[[1401,890],[-1,2]],[[197,257],[-3,0]],[[402,289],[0,1],[0,-1]],[[2155,575],[13,-12]],[[2173,557],[23,-37]],[[2279,436],[-47,53]],[[2346,383],[92,-67]],[[1416,905],[88,-2]],[[1515,904],[-98,2]],[[2438,316]],[[2438,315],[0,1]],[[1468,794],[2,15]],[[1471,819],[3,22]],[[1474,842],[2,12]],[[1480,928],[-1,1]],[[752,572],[0,-1]],[[752,571],[0,2]],[[796,525],[-44,46]],[[797,524],[4,-14]],[[806,508],[-9,16]],[[1465,765],[-22,-163]],[[1444,603],[22,165]],[[797,524],[1,1],[-1,1],[-1,-1],[1,-1]],[[2168,563],[5,-6]],[[1476,854]],[[1508,945],[-14,-2]],[[433,476],[-9,-6]],[[1685,817],[1,0],[-2,1],[1,-1]],[[1685,817],[4,-3]],[[2438,316],[-1,4]],[[1431,916],[16,9]],[[1447,925],[25,0]],[[1479,930],[10,8]],[[1492,940],[15,0]],[[1846,705],[-11,-1]],[[2196,520],[36,-31]],[[1430,916],[-41,-34]],[[1418,906],[12,10]],[[2438,316],[0,-1]],[[2438,316]],[[2452,320]],[[2453,320],[-1,0]],[[194,257],[-194,-15]],[[401,289],[-204,-32]],[[401,289],[1,0]],[[402,289],[-1,0]],[[403,291],[-1,-1]],[[402,289],[1,2]],[[430,446],[-27,-155]],[[1383,878],[8,5]],[[1400,891],[11,9]],[[568,519],[-5,-17]],[[2077,616],[-124,49]],[[1493,851],[-51,15]],[[1493,850],[24,-4]],[[433,475],[-3,-27]],[[430,448],[1,-2]],[[430,447],[0,1]],[[1492,940],[-3,-1]],[[1527,783],[0,9]],[[2454,320],[-1,0]],[[2504,301],[-48,18]],[[487,514],[-9,-6]],[[487,514],[10,5]],[[497,519],[-10,-5]],[[1383,878],[-61,-35]],[[1417,905]],[[1430,917]],[[1446,925],[1,0]],[[1470,813]],[[1479,929],[0,1]],[[1507,940],[0,1]],[[1507,941],[2,1]],[[1508,943],[-1,-2]],[[1507,941],[0,-1]],[[1509,944],[1,-1]],[[1523,845],[-2,1]],[[2452,320]],[[2452,320],[1,0]],[[1474,841],[-1,1],[0,-1],[1,0]],[[1516,904],[0,-1],[0,1]],[[231,3804],[2,-7]],[[1466,771],[-1,-6]],[[1468,794],[-3,-22]],[[3889,0],[-1,0]],[[1398,891],[1,-1]],[[1430,917]],[[1447,925],[-1,0]],[[1494,943],[-2,-3]],[[1510,943],[-1,1]],[[1521,846]],[[1401,890],[41,-24]],[[1521,846],[-28,5]],[[1517,846],[4,0]],[[2439,316],[-1,0]],[[2438,315],[1,1]],[[2451,320],[-12,-4]],[[2452,320],[-1,0]],[[2451,320],[1,0]],[[2452,320],[4,-1]],[[3096,301],[-57,-38],[-82,50]],[[3888,0],[-70,50],[-111,190],[-232,23],[-59,44],[-30,-23],[-71,16],[-43,-17],[-20,26],[-70,8],[-80,-15]],[[470,462],[93,44],[228,8]],[[836,504],[367,46],[149,68],[71,-8]],[[1470,601],[-47,9]],[[1470,601],[126,8],[61,46],[189,50]],[[1953,665],[-16,9],[-91,31]],[[1925,675],[14,-2]],[[1946,669],[7,-4]],[[2139,587],[-62,29]],[[2127,592],[6,-3]],[[2139,587],[16,-12]],[[2232,489],[-80,89]],[[2232,489],[48,-55]],[[0,0],[0,4096],[4096,0],[0,-4096],[-4096,0]],[[2405,3757],[64,59],[-11,60],[24,33],[-1,-15],[4,-13],[3,-2],[8,43],[19,-24],[-39,-40],[26,-21],[-13,-21],[43,25],[-3,38],[28,-30],[-39,-54],[31,-1],[36,61],[12,-5],[7,-58],[-51,-43],[-34,-15],[-61,55],[-53,-32]],[[2391,294],[57,13],[26,37],[-1,-20],[54,7],[48,-65],[-8,-43],[-37,40],[-79,-17],[-60,48]],[[3316,4096],[16,-46],[149,46],[127,-10],[26,-30],[-79,-219],[31,-3],[16,-37],[19,17],[10,188],[39,78],[44,16],[41,-49],[-44,-139],[83,-2],[63,40],[63,-42],[78,40],[-34,-105],[12,-69],[79,74],[30,-37],[-4,87],[15,-23],[0,-158],[-1,-16],[-44,-27],[-20,-72],[-113,7],[-95,75],[-91,-12],[-42,31],[-76,-23],[-64,22],[-35,54],[-41,-7],[-6,44],[-29,13],[73,13],[-4,18],[-208,57],[22,57],[-55,14],[-57,-176],[30,-37],[26,55],[63,-73],[18,-81],[82,-28],[-148,-2],[-10,-54],[66,-48],[36,28],[110,-27],[52,48],[74,-5],[-82,-145],[-185,-27],[-50,98],[-50,-30],[-29,42],[-304,78],[-38,99],[-86,26],[-90,123],[-76,-2],[-150,119],[10,35],[-64,119],[901,0]],[[1067,3529],[22,37],[44,2],[-40,-30],[0,-42],[19,32],[12,-38],[12,75],[36,-74],[22,14],[-1,-40],[10,46],[16,-42],[-39,-13],[-1,23],[-3,4],[-7,-31],[-24,63],[10,-61],[-33,-11],[-11,34],[-39,11],[-5,41]],[[3398,3822],[8,35],[14,-16],[16,20],[-12,24],[-22,-19],[22,59],[80,-83],[15,35],[31,-51],[-15,-20],[18,0],[-17,-6],[-18,8],[3,20],[-81,53],[47,-47],[15,-31],[-26,-10],[18,-12],[-65,26],[37,15],[-68,0]],[[2271,3975],[88,17],[21,-70],[-39,-62],[-7,28],[-61,16],[53,35],[-55,36]],[[3340,3411],[44,52],[4,-58],[23,46],[17,-31],[15,33],[55,-19],[27,100],[-6,-105],[14,46],[19,-14],[-24,-45],[-53,20],[-3,-26],[-48,6],[1,-26],[-79,0],[-6,21]],[[2325,3799],[60,112],[-13,39],[87,53],[20,-26],[-15,-35],[32,-20],[-47,-42],[-44,0],[-80,-81]],[[3613,3613],[16,42],[31,-16],[-22,36],[62,11],[12,-98],[-99,25]],[[3527,3416],[45,93],[37,26],[-4,84],[52,84],[75,-35],[126,1],[60,-64],[102,-11],[14,21],[32,-4],[-2,-20],[32,6],[0,-385],[-94,86],[-114,-6],[-104,39],[-25,56],[-207,9],[-25,20]],[[3038,4096],[72,0],[-44,-68],[-48,-20],[-7,29],[44,12],[-62,47],[45,0]],[[3164,3521],[17,38],[60,25],[39,83],[-34,-113],[51,-82],[-13,-28],[-120,77]],[[2469,3942],[28,69],[31,-42],[65,127],[46,0],[-51,-94],[129,-112],[-54,-42],[-88,6],[-82,76],[17,6],[-7,5],[2,5],[11,-5],[15,17],[-48,5],[17,-25],[-31,4]],[[2553,3957],[13,-53],[50,-2],[-20,28],[0,-8],[-10,-11],[-7,-1],[-6,50],[-20,-3]],[[2590,3883],[4,-18],[34,17],[-16,14],[-22,-13]],[[2626,3916],[26,-3],[-15,-15],[21,17],[-32,1]],[[2512,3937],[4,-5],[9,3],[-5,0],[-8,2]],[[3961,3201],[72,3],[-25,24],[10,6],[13,-14],[16,4],[-8,34],[27,-33],[-17,-23],[47,-11],[0,-73],[-6,2],[-54,-33],[-16,37],[43,0],[-57,15],[7,42],[-52,20]],[[4043,3162],[24,-30],[7,-1],[-15,39],[-16,-8]],[[1604,489],[3,31],[45,-9],[26,29],[19,-43],[150,0],[32,-72],[120,29],[43,-53],[-51,-48],[4,-23],[-34,6],[1,-26],[-56,27],[-2,-48],[-28,58],[-36,-26],[-105,99],[-131,69]],[[1919,337],[2,-7],[15,-5],[-3,12],[-14,0]],[[1570,309],[50,50],[-36,31],[26,11],[136,-124],[-61,-27],[-115,59]],[[2168,3978],[9,29],[149,-68],[-19,-19],[-74,7],[-65,51]],[[4096,39],[0,-39],[-57,0],[30,34],[27,5]],[[2539,395],[-79,-124],[-18,35],[-74,9],[-19,30],[-4,50],[42,34],[110,0],[42,-34]],[[501,482],[-24,27],[-156,38],[-15,67],[142,-6],[44,-38],[9,-88]],[[1407,1142],[0,-44],[162,44],[35,-176],[-36,-176],[-148,7],[-114,54],[-80,101],[-46,146],[88,-28],[139,72]],[[2306,4096],[61,-51],[48,-67],[-9,-19],[-29,-6],[-44,62],[13,-28],[-35,4],[3,54],[-38,51],[30,0]],[[2756,3746],[83,65],[6,-27],[-26,-1],[23,-26],[-30,6],[-12,-16],[48,-2],[39,66],[19,-37],[62,12],[109,-39],[-34,-18],[-142,23],[-41,-22],[-11,-41],[-28,26],[-34,-6],[33,21],[-27,6],[-3,-20],[-34,30]],[[2701,3810],[77,-10],[-48,18],[22,38],[-2,-30],[46,-1],[-32,7],[-11,41],[47,7],[-17,34],[-1,-19],[-32,-18],[-4,-19],[-29,32],[11,39],[12,-24],[14,24],[18,-13],[10,36],[3,-31],[19,21],[-1,-29],[12,13],[24,-28],[-2,-58],[50,-29],[-59,0],[-73,-45],[-54,44]],[[2915,3675],[79,-38],[41,82],[8,-166],[-54,5],[-44,62],[-24,-2],[-6,57]],[[2789,3970],[16,25],[7,-25],[76,-3],[-8,-24],[43,-12],[4,17],[23,-26],[-11,80],[14,-10],[4,32],[18,-81],[49,-56],[-36,4],[11,21],[-22,6],[-9,-26],[-114,12],[-53,41],[-12,25]],[[2842,3914],[14,-1],[5,8],[-12,0],[-7,-7]],[[2831,3954],[10,-8],[7,3],[-8,-1],[-9,6]],[[2863,3910],[7,-2],[0,12],[-3,1],[-4,-11]],[[770,569],[119,48],[32,-57],[-101,-50],[-50,59]],[[2193,4074],[91,9],[7,-103],[-86,55],[-12,39]],[[2233,587],[69,88],[36,-16],[-22,-41],[29,1],[14,31],[18,-32],[-98,-82],[-14,10],[28,23],[-25,-11],[-35,29]],[[605,1139],[35,6],[39,64],[50,-13],[-5,-65],[-37,-19],[-82,27]],[[3728,3399],[66,19],[88,-37],[-86,-37],[128,6],[9,-33],[20,43],[30,-18],[2,-36],[-27,-19],[-112,12],[-55,38],[-19,57],[-44,5]]]}