{"objects":{"water":{"type":"GeometryCollection","geometries":[]},"buildings":{"type":"GeometryCollection","geometries":[]},"places":{"type":"GeometryCollection","geometries":[{"type":"Point","properties":{"kind":"region","name":"Ardahan","kind_detail":"province","min_zoom":4.0,"source":"openstreetmap.org","name:ku":"Erd\u00eaxan","name:uk":"\u0410\u0440\u0434\u0430\u0445\u0430\u043d","name:ru":"\u0410\u0440\u0434\u0430\u0445\u0430\u043d","id":1827532442},"coordinates":[1627,223]},{"type":"Point","properties":{"kind":"locality","name":"Ardahan","kind_detail":"city","min_zoom":8.0,"source":"openstreetmap.org","name:ku":"Erd\u00eaxan","name:hy":"\u0531\u0580\u0564\u0561\u0570\u0561\u0576","name:ru":"\u0410\u0440\u0434\u0430\u0445\u0430\u043d","alt_name:ku":"Erd\u00eahan","id":26486338,"population":98335},"coordinates":[1503,507]},{"type":"Point","properties":{"name:sr":"\u0410\u0445\u0430\u043b\u0446\u0438\u0445\u0435","name:lt":"Achalcich\u0117","name:tr":"Ahaltsihe","name:hy":"\u0531\u056d\u0561\u056c\u0581\u056d\u0561","name:cs":"Achalciche","min_zoom":8.0,"name:uk":"\u0410\u0445\u0430\u043b\u0446\u0456\u0445\u0435","old_name":"Lomisa","name:ru":"\u0410\u0445\u0430\u043b\u0446\u0438\u0445\u0435","id":218370088,"population":19200,"alt_name:tr":"Ahaltsihe","kind":"locality","name:en":"Akhaltsikhe","name":"\u10d0\u10ee\u10d0\u10da\u10ea\u10d8\u10ee\u10d4","kind_detail":"town","name:de":"Achalziche","source":"openstreetmap.org","name:fr":"Akhaltsikh\u00e9"},"coordinates":[2326,2566]},{"type":"Point","properties":{"kind":"locality","name":"\u015eav\u015fat","name:ka":"\u10e8\u10d0\u10d5\u10e8\u10d4\u10d7\u10d8","kind_detail":"town","source":"openstreetmap.org","min_zoom":8.0,"name:hy":"\u0547\u0561\u057e\u0577\u0561\u057f","name:ru":"\u0428\u0430\u0432\u0448\u0430\u0442","id":27018246,"population":17144},"coordinates":[493,1060]},{"type":"Point","properties":{"name:sr":"\u0411\u043e\u0440\u0436\u043e\u043c\u0438","name:az":"Borjomi","name:lt":"Bor\u017eomis","name:ko":"\ubcf4\ub974\uc870\ubbf8","min_zoom":8.0,"name:it":"Borgiomi","name:uk":"\u0411\u043e\u0440\u0436\u043e\u043c\u0456","name:hy":"\u0532\u0578\u0580\u056a\u0578\u0574","name:os":"\u0411\u043e\u0440\u0436\u043e\u043c","name:ru":"\u0411\u043e\u0440\u0436\u043e\u043c\u0438","name:hu":"Borgyomi","id":280683308,"population":14500,"kind":"locality","name:en":"Borjomi","name":"\u10d1\u10dd\u10e0\u10ef\u10dd\u10db\u10d8","source":"openstreetmap.org","kind_detail":"town","name:de":"Bordschomi","name:tr":"Borcomi","name:fr":"Bordjomi"},"coordinates":[3483,3351]},{"type":"Point","properties":{"kind":"locality","name:en":"Surami","name":"\u10e1\u10e3\u10e0\u10d0\u10db\u10d8","kind_detail":"town","source":"openstreetmap.org","min_zoom":8.0,"name:uk":"\u0421\u0443\u0440\u0430\u043c\u0456","name:ru":"\u0421\u0443\u0440\u0430\u043c\u0438","id":292825344,"population":9800},"coordinates":[3994,4055]},{"type":"Point","properties":{"name:sr":"\u0410\u0445\u0430\u043b\u043a\u0430\u043b\u0430\u043a\u0438","name:az":"Axalqalaqi","name:lt":"Achalkalakis","name:tr":"Ah\u0131lkelek","min_zoom":8.0,"name:uk":"\u0410\u0445\u0430\u043b\u043a\u0430\u043b\u0430\u043a\u0456","name:hy":"\u0531\u056d\u0561\u056c\u0584\u0561\u056c\u0561\u0584","name:ru":"\u0410\u0445\u0430\u043b\u043a\u0430\u043b\u0430\u043a\u0438","id":218553534,"population":9800,"kind":"locality","name:en":"Akhalkalaki","name":"\u10d0\u10ee\u10d0\u10da\u10e5\u10d0\u10da\u10d0\u10e5\u10d8","kind_detail":"town","name:de":"Achalkalaki","source":"openstreetmap.org"},"coordinates":[3776,1665]},{"type":"Point","properties":{"kind":"locality","name:en":"Childyr","name":"\u00c7\u0131ld\u0131r","name:ka":"\u10e9\u10e0\u10d3\u10d8\u10da\u10d8","kind_detail":"town","min_zoom":8.0,"source":"openstreetmap.org","name:ku":"Z\u00fbrz\u00fbnan","name:hy":"\u0540\u056b\u0582\u057d\u056b\u057d\u0565\u0561\u0576","name:ru":"\u0427\u0438\u043b\u0434\u044b\u0440","id":27019567,"population":9539},"coordinates":[2759,571]},{"type":"Point","properties":{"kind":"locality","name":"Hanak","kind_detail":"town","min_zoom":8.0,"source":"openstreetmap.org","name:ku":"Xen\u00eak","id":973638052,"population":9019},"coordinates":[1916,997]},{"type":"Point","properties":{"kind":"locality","name:en":"Kharagauli","name":"\u10ee\u10d0\u10e0\u10d0\u10d2\u10d0\u10e3\u10da\u10d8","kind_detail":"town","name:de":"Charagauli","source":"openstreetmap.org","min_zoom":8.0,"name:uk":"\u0425\u0430\u0440\u0430\u0433\u0430\u0443\u043b\u0456","name:ru":"\u0425\u0430\u0440\u0430\u0433\u0430\u0443\u043b\u0438","id":392118925,"population":8233},"coordinates":[2958,4023]},{"type":"Point","properties":{"kind":"locality","name":"Posof","name:ka":"\u10e4\u10dd\u10ea\u10ee\u10dd\u10d5\u10d8","kind_detail":"town","min_zoom":8.0,"source":"openstreetmap.org","name:ku":"Duxur","old_name":"Du\u011fur","name:ru":"\u041f\u043e\u0441\u043e\u0444","id":160352108,"population":6790},"coordinates":[1574,2056]},{"type":"Point","properties":{"name:sr":"\u041d\u0438\u043d\u043e\u0446\u043c\u0438\u043d\u0434\u0430","name:az":"Ninotsminda","name":"\u10dc\u10d8\u10dc\u10dd\u10ec\u10db\u10d8\u10dc\u10d3\u10d0","name:tr":"Altunkale","name:hy":"\u0546\u056b\u0576\u0578\u056e\u0574\u056b\u0576\u0564\u0561","min_zoom":8.0,"name:en":"Ninotsminda","old_name:en":"Bogdanovka","name:uk":"\u041d\u0456\u043d\u043e\u0446\u043c\u0456\u043d\u0434\u0430","old_name":"\u10d1\u10dd\u10d2\u10d3\u10d0\u10dc\u10dd\u10d5\u10d9\u10d0","name:ru":"\u041d\u0438\u043d\u043e\u0446\u043c\u0438\u043d\u0434\u0430","name:de":"Ninozminda","id":388184687,"population":6300,"kind":"locality","name:hu":"Ninocminda","old_name:hy":"\u0532\u0578\u0563\u0564\u0561\u0576\u0578\u057e\u056f\u0561","kind_detail":"town","old_name:ru":"\u0411\u043e\u0433\u0434\u0430\u043d\u043e\u0432\u043a\u0430","old_name:de":"Bogdanowka","source":"openstreetmap.org","name:fr":"Ninotsminda","name:et":"Ninotsminda"},"coordinates":[4091,1110]},{"type":"Point","properties":{"kind":"locality","name":"Damal","kind_detail":"town","min_zoom":8.0,"source":"openstreetmap.org","name:ku":"D\u00eamal","id":303773879,"population":5369},"coordinates":[1903,1410]},{"type":"Point","properties":{"name:sr":"\u0412\u0430\u043b\u0435","name:ro":"Vale","name:nl":"Vale","name:lt":"Val\u0117","name:cs":"Vale","min_zoom":8.0,"name:uk":"\u0412\u0430\u043b\u0435","name:hy":"\u054e\u0561\u056c\u0565","name:os":"\u0412\u0430\u043b\u0435","name:ru":"\u0412\u0430\u043b\u0435","name:pl":"Wale","id":218366796,"population":5000,"kind":"locality","name:en":"Vale","name":"\u10d5\u10d0\u10da\u10d4","kind_detail":"town","name:de":"Wale","source":"openstreetmap.org","name:fr":"Val\u00e9","name:et":"Vale","name:zh":"\u74e6\u840a"},"coordinates":[2010,2477]},{"type":"Point","properties":{"kind":"locality","name:en":"Aspindza","name":"\u10d0\u10e1\u10de\u10d8\u10dc\u10eb\u10d0","kind_detail":"town","name:de":"Aspindsa","source":"openstreetmap.org","min_zoom":8.0,"name:uk":"\u0410\u0441\u043f\u0456\u043d\u0434\u0437\u0430","name:hy":"\u0531\u057d\u057a\u0576\u057b\u0561\u056f","name:ru":"\u0410\u0441\u043f\u0438\u043d\u0434\u0437\u0430","id":415574362,"population":3200},"coordinates":[3096,2306]},{"type":"Point","properties":{"kind":"locality","name:en":"Chokhatauri","name:nl":"Tsjochataoeri","name":"\u10e9\u10dd\u10ee\u10d0\u10e2\u10d0\u10e3\u10e0\u10d8","kind_detail":"town","min_zoom":8.0,"name:de":"Tschochatauri","source":"openstreetmap.org","name:fr":"Tchokhataouri","name:uk":"\u0427\u043e\u0445\u0430\u0442\u0430\u0443\u0440\u0456","name:et":"T\u0161ohhatauri","name:ru":"\u0427\u043e\u0445\u0430\u0442\u0430\u0443\u0440\u0438","id":479780417,"population":2409},"coordinates":[153,4042]},{"type":"Point","properties":{"name:nl":"Bakoerjani","name:lt":"Bakurianis","name:tr":"Bakuriani","name:he":"\u05d1\u05d0\u05e7\u05d5\u05e8\u05d9\u05d0\u05e0\u05d9","min_zoom":8.0,"name:uk":"\u0411\u0430\u043a\u0443\u0440\u0456\u0430\u043d\u0456","name:hy":"\u0532\u0561\u056f\u0578\u0582\u0580\u056b\u0561\u0576","name:ru":"\u0411\u0430\u043a\u0443\u0440\u0438\u0430\u043d\u0438","id":311913158,"population":2400,"kind":"locality","name:en":"Bakuriani","name":"\u10d1\u10d0\u10d9\u10e3\u10e0\u10d8\u10d0\u10dc\u10d8","kind_detail":"town","name:de":"Bakuriani","source":"openstreetmap.org"},"coordinates":[3905,3000]},{"type":"Point","properties":{"kind":"locality","name:en":"Adigeni","name":"\u10d0\u10d3\u10d8\u10d2\u10d4\u10dc\u10d8","name:tr":"Ad\u0131g\u00fcn","kind_detail":"town","source":"openstreetmap.org","min_zoom":8.0,"name:uk":"\u0410\u0434\u0456\u0433\u0435\u043d\u0456","name:hy":"\u0531\u0564\u056b\u0563\u0565\u0576","name:ru":"\u0410\u0434\u0438\u0433\u0435\u043d\u0438","id":457440822,"population":1221},"coordinates":[1511,2704]},{"type":"Point","properties":{"kind":"locality","name:en":"Khulo","name":"\u10ee\u10e3\u10da\u10dd","kind_detail":"town","min_zoom":8.0,"name:de":"Chulo","source":"openstreetmap.org","name:ku":"X\u00fblo","name:uk":"\u0425\u0443\u043b\u043e","name:ru":"\u0425\u0443\u043b\u043e","id":540579150,"population":1100},"coordinates":[365,2583]}]},"transit":{"type":"GeometryCollection","geometries":[{"type":"LineString","properties":{"kind":"train","name:en":"Borjomi-Bakuriani Railway","network":"local","sort_rank":275,"source":"openstreetmap.org","min_zoom":6.0,"alt_name:en":"Kukushka","operator":"Georgian Railways","name:ru":"\u0423\u0437\u043a\u043e\u043a\u043e\u043b\u0435\u0439\u043d\u0430\u044f \u0436\u0435\u043b\u0435\u0437\u043d\u0430\u044f \u0434\u043e\u0440\u043e\u0433\u0430 \u0411\u043e\u0440\u0436\u043e\u043c\u0438 - \u0411\u0430\u043a\u0443\u0440\u0438\u0430\u043d\u0438","ref":"6467\/6468 Borjomi-Bakuriani","id":-2563692,"osm_relation":true,"name":"\u10d1\u10dd\u10e0\u10ef\u10dd\u10db\u10d8-\u10d1\u10d0\u10d9\u10e3\u10e0\u10d8\u10d0\u10dc\u10d8\u10e1 \u10e1\u10d0\u10e0\u10d9\u10d8\u10dc\u10d8\u10d2\u10d6\u10dd \u10ee\u10d0\u10d6\u10d8"},"arcs":[14]},{"type":"LineString","properties":{"kind":"train","network":"local","sort_rank":275,"source":"openstreetmap.org","min_zoom":6.0,"operator":"Georgian Railways","ref":"6629\/6630; 6631\/6632; 6633\/6634; 6635\/6636; 6637\/6638; 6639\/6640","id":-2049172,"osm_relation":true,"name":"Khashuri-Surami-Khashuri"},"arcs":[15]}]},"pois":{"type":"GeometryCollection","geometries":[]},"boundaries":{"type":"GeometryCollection","geometries":[{"type":"LineString","properties":{"name:right:yo":"T\u00fark\u00ec","name:left:ch":"Armenia","name:left:sd":"\u0622\u0631\u0645\u064a\u0646\u064a\u0627","name:right:yi":"\u05d8\u05e2\u05e8\u05e7\u05d9\u05d9","name:left:la":"Armenia","name:left:lb":"Armenien","alt_name:left:th":"\u0e2d\u0e32\u0e23\u0e4c\u0e40\u0e21\u0e40\u0e19\u0e35\u0e22","alt_name:left:te":"\u0c06\u0c30\u0c4d\u0c2e\u0c40\u0c28\u0c3f\u0c2f\u0c3e","name:right:ko":"\ud130\ud0a4","name:left:li":"Armeni\u00eb","name:left:vi":"Armenia","name:right:hr":"Turska","name:left:kg":"Armenia","name:left:ka":"\u10e1\u10dd\u10db\u10ee\u10d4\u10d7\u10d8","alt_name:left:sh":"Armenija","name:left:km":"\u17a2\u17b6\u1798\u17c1\u1793\u17b8","name:left:kl":"Armenia","name:left:ko":"\uc544\ub974\uba54\ub2c8\uc544","name:left:kn":"\u0c86\u0cb0\u0ccd\u0cae\u0cc7\u0ca8\u0cbf\u0caf","name:left:ki":"Armenia","name:left:ro":"Armenia","name:left:kk":"\u0410\u0440\u043c\u0435\u043d\u0438\u044f","name:left:rm":"Armenia","name:left:ku":"Ermenistan","name:left:kw":"Armeni","name:left:kv":"\u0410\u0440\u043c\u0435\u043d\u0438\u044f","name:right:rn":"Turukiya","name:right:ro":"Turcia","name:left:ks":"\u0627\u064e\u0631\u0645\u0627\u0646\u0650\u06cc\u0627","name:left:ru":"\u0410\u0440\u043c\u0435\u0301\u043d\u0438\u044f","name:right:ie":"Turcia","name:right:id":"Turki","name:left:ky":"\u0410\u0440\u043c\u0435\u043d\u0438\u044f","name:right:ia":"Turchia","name:right:bi":"Turkey","name:right:bn":"\u09a4\u09c1\u09b0\u09b8","name:right:bo":"\u0f4f\u0f74\u0f62\u0f0b\u0f40\u0f72\u0f0d","name:left:sl":"Armenija","name:right:ba":"\u0422\u04e9\u0440\u043a\u0438\u04d9","name:right:bg":"\u0422\u0443\u0440\u0446\u0438\u044f","name:right:be":"\u0422\u0443\u0440\u0446\u044b\u044f","name:right:br":"Turkia","name:left:lt":"Arm\u0117nija","name:right:nn":"Tyrkia","name:right:no":"Tyrkia","name:right:nl":"Turkije","name:right:wa":"Tourkeye","name:left:lv":"Arm\u0113nija","alt_name:left:os":"\u0421\u043e\u043c\u0438\u0445","name:right:ne":"\u091f\u0930\u094d\u0915\u0940","name:right:na":"Terki","name:right:ps":"\u062a\u0648\u0631\u06a9\u064a\u0647","alt_name:left:vi":"Acmeni","name:right:nv":"T\u02bc\u00f3ok Bik\u00e9yah","name:left:mg":"Armenia","kind_detail":"2","alt_name:left:jv":"Hayastan","name:left:tr":"Ermenistan","name:right:gu":"\u0aa4\u0ac1\u0ab0\u0acd\u0a95\u0ab8\u0acd\u0aa4\u0abe\u0aa8","name:left:ty":"\u0100menia","name:right:gv":"Yn Turkee","name:right:pt":"Turquia","name:left:mk":"\u0415\u0440\u043c\u0435\u043d\u0438\u0458\u0430","name:left:mi":"\u0100menia","name:left:ts":"Armenia","name:left:tt":"\u04d8\u0440\u043c\u04d9\u043d\u0441\u0442\u0430\u043d","name:left:mn":"\u0410\u0440\u043c\u0435\u043d","name:left:tw":"Aminia","name:left:th":"\u0e2d\u0e32\u0e23\u0e4c\u0e21\u0e35\u0e40\u0e19\u0e35\u0e22","name:left:mr":"\u0906\u0930\u094d\u092e\u0947\u0928\u093f\u092f\u093e","name:left:tk":"Ermenistan","name:left:tl":"Armenya","name:left:to":"\u02bb\u0100minia","name:right:gl":"Turqu\u00eda","name:left:my":"\u1021\u102c\u1019\u1031\u1038\u1014\u102e\u1038\u101a\u102c\u1038\u1014\u102d\u102f\u1004\u103a\u1004\u1036","name:right:gn":"Tuykia","name:right:pl":"Turcja","name:left:te":"\u0c06\u0c30\u0c4d\u0c2e\u0c47\u0c28\u0c3f\u0c2f\u0c3e","name:left:tg":"\u0410\u0440\u043c\u0430\u043d\u0438\u0441\u0442\u043e\u043d","name:left:ms":"Armenia","name:left:ti":"\u12a0\u122d\u121c\u1292\u12eb","name:left:da":"Armenien","name:left:de":"Armenien","name:left:dz":"\u0f68\u0f62\u0f0b\u0f58\u0f72\u0f0b\u0f53\u0f72\u0f0b\u0f61","name:right:ga":"An Tuirc","name:left:dv":"\u0787\u07a6\u0783\u07aa\u0789\u07a9\u0782\u07a8\u0787\u07a7","name:right:lg":"Buturuki","name:right:ug":"\u062a\u06c8\u0631\u0643\u0649\u064a\u06d5 \u062c\u06c7\u0645\u06be\u06c7\u0631\u0649\u064a\u0649\u062a\u0649","name:left:hi":"\u0906\u0930\u094d\u092e\u0940\u0928\u093f\u092f\u093e","name:right:lb":"Tierkei","name:right:uk":"\u0422\u0443\u0440\u0435\u0447\u0447\u0438\u043d\u0430","name:left:he":"\u05d0\u05b7\u05e8\u05b0\u05de\u05b6\u05e0\u05b0\u05d9\u05b8\u05d4","name:right:ln":"Turk\u00ed","name:left:mt":"Armenja","name:left:ha":"Armeniya","name:right:lt":"Turkija","name:right:ur":"\u062a\u0631\u06a9\u06cc","name:right:lv":"Turcija","name:left:ta":"\u0b86\u0bb0\u0bcd\u0bae\u0bc0\u0ba9\u0bbf\u0baf\u0bbe","name:left:ht":"Ameni","name:right:uz":"Turkiya","name:left:hr":"Armenija","source":"openstreetmap.org","sort_rank":262,"name:right:gd":"An Tuirc","name:right:os":"\u0422\u0443\u0440\u043a","name:right:es":"Turqu\u00eda","alt_name:left:kn":"\u0cb9\u0caf\u0cb8\u0ccd\u0ca4\u0cbe\u0ca8\u0cbf \u0cb9\u0ca8\u0ccd\u0cb0\u0caa\u0cc6\u0ca4\u0cc1\u0ca4\u0ccd\u0caf\u0cc1\u0ca8\u0ccd","name:right:eu":"Turkia","name:right:et":"T\u00fcrgi","name:left:os":"\u0421\u043e\u043c\u0438\u0445\u044b\u0441\u0442\u043e\u043d","name:left:or":"\u0b06\u0b30\u0b4d\u0b2e\u0b47\u0b28\u0b3f\u0b06","name:left:om":"Armeeniyaa","name:right:pa":"\u0a24\u0a41\u0a30\u0a15\u0a40","name:right:ee":"Turkey","name:left:vo":"Larmeniy\u00e4n","name:left:oc":"Armenia","name:right:eo":"Turkujo","name:right:en":"Turkey","name:right:el":"\u03a4\u03bf\u03c5\u03c1\u03ba\u03af\u03b1","name:left:ff":"Armaaniya","alt_name:left:ku":"Flestan","name:right:tt":"\u0422\u04e9\u0440\u043a\u0438\u044f","name:left:fa":"\u0627\u0631\u0645\u0646\u0633\u062a\u0627\u0646","name:left:fo":"Armenia","name:left:qu":"Arminya","name:left:fi":"Armenia","name:left:fr":"Arm\u00e9nie","name:left:cs":"Arm\u00e9nie","name:left:fy":"Armeenje","name:right:ja":"\u30c8\u30eb\u30b3","name:right:sq":"Turqia","name:right:ss":"IThekhi","name:right:sr":"\u0422\u0443\u0440\u0441\u043a\u0430","name:right:su":"Turki","name:right:sw":"Uturuki","name:right:sv":"Turkiet","name:right:si":"\u0dad\u0dd4\u0dbb\u0dca\u0d9a\u0dd2\u0dba","name:right:sh":"Turska","name:right:sk":"Turecko","name:right:jv":"Turki","name:right:sl":"Tur\u010dija","name:right:so":"Turki","name:right:sa":"\u0924\u0941\u0930\u094d\u0915\u0940","name:right:sc":"Turkia","name:left:jv":"Arm\u00e8nia","id":-364066,"name:right:ca":"Turquia","name:right:se":"Durka","name:right:ce":"\u0422\u0443\u0440\u0446\u0438","name:right:cy":"Twrci","name:right:zh-yue":"\u571f\u8033\u5176","name:right:cs":"Turecko","name:right:cr":"\u1450\u1552\u146d","name:right:cu":"\u0422\u0477\u0440\u0446\u0438","alt_name:right:ar":"\u062a\u0631\u0643\u064a\u0627","name:right:cv":"\u0422\u0443\u0440\u0446\u0438","name:left:av":"\u0426I\u0430\u043c\u0443\u0445\u044a","name:right:it":"Turchia","name:left:as":"\u0986\u09f0\u09cd\u09ae\u09c7\u09a8\u09bf\u09af\u09bc\u09be","name:left:ar":"\u0623\u0631\u0645\u064a\u0646\u064a\u0627","name:right:is":"Tyrkland","name:left:az":"Erm\u0259nistan","name:right:rw":"Turukiya","name:left:af":"Armeni\u00eb","name:left:ab":"\u0415\u0440\u043c\u0430\u043d\u0442\u04d9\u044b\u043b\u0430","name:left:an":"Armenia","name:left:am":"\u12a0\u122d\u1218\u1292\u12eb","name:right:ru":"\u0422\u0443\u0440\u0446\u0438\u044f","name:left:ak":"Armenia","name:right:io":"Turkia","name:left:zh-yue":"\u4e9e\u7f8e\u5c3c\u4e9e","name:right:ik":"Turkey","name:left:rw":"Arumeniya","name:right:hy":"\u0539\u0578\u0582\u0580\u0584\u056b\u0561","name:right:qu":"Turkiya","alt_name:left:eo":"Armenio","name:left:lg":"Arameniya","name:left:su":"Arm\u00e9nia","int_name:left":"Armenia","name:left:sw":"Armenia","name:left:sv":"Armenien","name:left:sq":"Armenia","name:right:hu":"T\u00f6r\u00f6korsz\u00e1g","name:left:ss":"iArimeniya","name:left:lo":"\u0e9b\u0eb0\u0ec0\u0e97\u0e94\u0ead\u0eb2\u0e81\u0ec0\u0ea1\u0e99\u0eb5","name:left:sm":"Amenia","name:right:hi":"\u0924\u0941\u0930\u094d\u0915\u0940","name:left:so":"Armania","name:left:sn":"Armenia","name:left:si":"\u0d86\u0dbb\u0dca\u0db8\u0dda\u0db1\u0dd2\u0dba\u0dcf\u0dc0","name:left:sh":"Jermenija","name:left:sk":"Arm\u00e9nsko","name:left:se":"Armenia","name:right:ha":"Turkiyya","name:left:sg":"Armen\u00efi","name:left:sa":"\u0906\u0930\u094d\u092e\u0940\u0928\u093f\u092f\u093e","name:right:he":"\u05d8\u05d5\u05e8\u05e7\u05d9\u05d4","name:left:sc":"Arm\u00e8nia","name:right:la":"Turcia","name:right:af":"Turkye","name:left:co":"Armenia","name:right:ab":"\u04ac\u044b\u0440\u049b\u04d9\u0442\u04d9\u044b\u043b\u0430","name:left:ce":"\u0410\u0440\u0435\u043c\u0430\u043b\u043e\u0439\u043d","name:right:an":"Turqu\u00eda","name:right:am":"\u1271\u122d\u12ad","name:left:ca":"Arm\u00e8nia","name:right:av":"\u0422\u0443\u0440\u043a\u0438\u044f","name:left:cy":"Armenia","name:right:ar":"\u062a\u0631\u0643\u064a\u0627","name:left:ja":"\u30a2\u30eb\u30e1\u30cb\u30a2","name:left:cu":"\u0410\u0440\u043c\u0454\u043d\u0456\u0301\ua657","name:left:cv":"\u042d\u0440\u043c\u0435\u043d\u0438","name:right:az":"T\u00fcrkiy\u0259","name:right:ay":"Turkiya","name:right:ak":"Turki","name:right:li":"Turkije","name:right:rm":"Tirchia","alt_name:left:lo":"\u0e9b\u0eb0\u0ec0\u0e97\u0e94\u0eae\u0eb2\u0ea2\u0eb2\u0eaa\u0eb0\u0e95\u0eb2\u0e99","alt_name:left:pt":"Arm\u00eania","name":"\u0540\u0561\u0575\u0561\u057d\u057f\u0561\u0576 - T\u00fcrkiye","name:right:zu":"ITheki","name:left:zu":"i-Armenia","name:left:zh":"\u4e9e\u7f8e\u5c3c\u4e9e","name:right:za":"Dujwjgiz","name:right:zh":"\u571f\u8033\u5176","name:left:za":"Armenia","official_name:left":"\u0540\u0561\u0575\u0561\u057d\u057f\u0561\u0576\u056b \u0540\u0561\u0576\u0580\u0561\u057a\u0565\u057f\u0578\u0582\u0569\u0575\u0578\u0582\u0576","name:left:uz":"Armaniston","name:right:fr":"Turquie","name:left:ps":"\u0627\u0631\u0645\u0646\u0633\u062a\u0627\u0646","name:left:nv":"Aoom\u00e9\u00e9nii Bik\u00e9yah","name:left:ur":"\u0622\u0631\u0645\u06cc\u0646\u06cc\u0627","id:right":-174737,"name:left:uk":"\u0412\u0456\u0440\u043c\u0435\u0301\u043d\u0456\u044f","name:left:no":"Armenia","name:left:nl":"Armeni\u00eb","alt_name:right:eo":"Turkio","alt_name:left:kk":"\u04d8\u0440\u043c\u0435\u043d\u0441\u0442\u0430\u043d;\u04d8\u0440\u043c\u0435\u043d\u0438\u044f","name:right:fa":"\u062a\u0631\u06a9\u06cc\u0647","name:right:fo":"Turkaland","name:left:ne":"\u0906\u0930\u094d\u092e\u0947\u0928\u093f\u092f\u093e","name:left:ug":"\u0626\u06d5\u0631\u0645\u06d0\u0646\u0649\u064a\u06d5","name:right:fi":"Turkki","name:left:eo":"Armenujo","name:left:en":"Armenia","name:left:el":"\u0391\u03c1\u03bc\u03b5\u03bd\u03af\u03b1","name:left:ee":"Armenia","name:left:pl":"Armenia","name:left:es":"Armenia","name:left:ie":"Armenia","name:left:eu":"Armenia","name:left:et":"Armeenia","name:left:id":"Armenia","name:right:oc":"Turquia","name:left:pi":"\u0906\u0930\u094d\u092e\u0940\u0928\u093f\u092f\u093e","name:left:ia":"Armenia","name:right:bs":"Turska","name:left:sr":"\u0408\u0435\u0440\u043c\u0435\u043d\u0438\u0458\u0430","osm_relation":true,"name:right:or":"\u0b24\u0b41\u0b30\u0b4d\u0b15\u0b40","name:left:pt":"Arm\u00e9nia","name:right:ku":"Tirkiye","name:right:tk":"T\u00fcrki\u00fde","name:left:gl":"Armenia","min_zoom":8.0,"name:left:hu":"\u00d6rm\u00e9nyorsz\u00e1g","name:left:zh-min-nan":"Hayastan","name:left:ln":"Armeni","name:left:wo":"Armeeni","name:left:ga":"An Airm\u00e9in","name:left:it":"Armenia","name:left:gd":"Airmeinia","int_name:right":"Turkey","name:left:gn":"Aymenia","name:left:gu":"\u0a86\u0ab0\u0acd\u0aae\u0ac7\u0aa8\u0abf\u0aaf\u0abe","name:left:gv":"Armeain","official_name:right":"T\u00fcrkiye Cumhuriyeti","name:right:wo":"Tirki","name:left":"\u0540\u0561\u0575\u0561\u057d\u057f\u0561\u0576","name:right:mk":"\u0422\u0443\u0440\u0446\u0438\u0458\u0430","name:right:mi":"T\u0101kei","name:left:bm":"Arimeni","name:right:mn":"\u0422\u0443\u0440\u043a","name:right:ml":"\u0d24\u0d41\u0d7c\u0d15\u0d4d\u0d15\u0d3f","name:right:vo":"T\u00fcrk\u00e4n","name:right:mg":"Torkia","name:right:vi":"Th\u1ed5 Nh\u0129 K\u1ef3","name:right:my":"\u1010\u1030\u101b\u1000\u102e\u1014\u102d\u102f\u1004\u103a\u1004\u1036","name:right:ms":"Turki","name:right:mr":"\u0924\u0941\u0930\u094d\u0915\u0938\u094d\u0924\u093e\u0928","name:right:fy":"Turkije","name:right:mt":"Turkija","name:left:nn":"Armenia","kind":"country","alt_name:left:gd":"Arminia","alt_name:left:gn":"Ayme\u00f1a","name:left:br":"Armenia","name:left:bs":"Ermenija","name:left:ba":"\u04d8\u0440\u043c\u04d9\u043d\u0441\u0442\u0430\u043d","name:left:bg":"\u0410\u0440\u043c\u0435\u043d\u0438\u044f","name:left:be":"\u0410\u0440\u043c\u0435\u0301\u043d\u0456\u044f","name:left:bi":"Armenia","name:left:bn":"\u0986\u09b0\u09cd\u09ae\u09c7\u09a8\u09bf\u09af\u09bc\u09be","name:left:bo":"\u0f68\u0f62\u0f0b\u0f58\u0f7a\u0f0b\u0f53\u0f72\u0f0b\u0f61\u0f0d","name:right":"T\u00fcrkiye","name:left:yo":"Arm\u00e9n\u00ed\u00e0","name:left:yi":"\u05d0\u05b7\u05e8\u05de\u05e2\u05e0\u05d9\u05e2","id:left":-364066,"name:left:na":"Arminiya","name:right:ka":"\u10d7\u10e3\u10e0\u10e5\u10d4\u10d7\u10d8","name:left:io":"Armenia","name:left:pa":"\u0a05\u0a30\u0a2e\u0a40\u0a28\u0a40\u0a06","name:right:kg":"Turki","name:right:ki":"Turkey","name:right:kk":"\u0422\u04af\u0440\u043a\u0438\u044f","name:right:tw":"Turkey","name:right:kl":"Tyrkia","name:left:ml":"\u0d05\u0d7c\u0d2e\u0d47\u0d28\u0d3f\u0d2f","name:right:kn":"\u0c9f\u0cb0\u0ccd\u0c95\u0cbf","name:right:tl":"Turkiya","name:right:th":"\u0e1b\u0e23\u0e30\u0e40\u0e17\u0e28\u0e15\u0e38\u0e23\u0e01\u0e35","name:right:kw":"Turki","name:right:kv":"\u0422\u0443\u0440\u0446\u0438\u044f","name:right:ky":"\u0422\u04af\u0440\u043a\u0438\u044f \u0420\u0435\u0441\u043f\u0443\u0431\u043b\u0438\u043a\u0430\u0441\u044b","name:right:te":"\u0c1f\u0c30\u0c4d\u0c15\u0c40","name:right:tg":"\u0422\u0443\u0440\u043a\u0438\u044f","name:left:is":"Armen\u00eda","name:right:ta":"\u0ba4\u0bc1\u0bb0\u0bc1\u0b95\u0bcd\u0b95\u0bbf","alt_name:left:av":"\u042d\u0440\u043c\u0435\u043d\u0438\u0441\u0442\u0430\u043d","name:right:de":"T\u00fcrkei","name:right:da":"Tyrkiet","name:left:rn":"Arumeniya","name:right:dv":"\u078c\u07aa\u0783\u07aa\u0786\u07a9\u0788\u07a8\u078d\u07a7\u078c\u07b0","name:right:ht":"Tiki"},"arcs":[0]},{"type":"LineString","properties":{"name:right:yo":"Georgia","name:left:ch":"Armenia","name:right:yi":"\u05d2\u05e8\u05d5\u05d6\u05d9\u05e2","name:left:la":"Armenia","name:left:lb":"Armenien","alt_name:left:th":"\u0e2d\u0e32\u0e23\u0e4c\u0e40\u0e21\u0e40\u0e19\u0e35\u0e22","alt_name:left:te":"\u0c06\u0c30\u0c4d\u0c2e\u0c40\u0c28\u0c3f\u0c2f\u0c3e","name:right:ko":"\uc870\uc9c0\uc544 (\uad6d\uac00)","name:left:li":"Armeni\u00eb","name:left:vi":"Armenia","name:right:hr":"Gruzija","name:left:kg":"Armenia","name:left:ka":"\u10e1\u10dd\u10db\u10ee\u10d4\u10d7\u10d8","alt_name:left:sh":"Armenija","name:left:km":"\u17a2\u17b6\u1798\u17c1\u1793\u17b8","name:left:kl":"Armenia","name:left:ko":"\uc544\ub974\uba54\ub2c8\uc544","name:left:kn":"\u0c86\u0cb0\u0ccd\u0cae\u0cc7\u0ca8\u0cbf\u0caf","name:left:ki":"Armenia","name:left:ro":"Armenia","name:left:kk":"\u0410\u0440\u043c\u0435\u043d\u0438\u044f","name:left:rm":"Armenia","name:left:ku":"Ermenistan","name:left:kw":"Armeni","name:left:kv":"\u0410\u0440\u043c\u0435\u043d\u0438\u044f","name:right:ro":"Georgia","name:left:ks":"\u0627\u064e\u0631\u0645\u0627\u0646\u0650\u06cc\u0627","name:left:ru":"\u0410\u0440\u043c\u0435\u0301\u043d\u0438\u044f","name:right:ie":"Georgia","name:right:id":"Georgia","name:left:ky":"\u0410\u0440\u043c\u0435\u043d\u0438\u044f","name:right:ia":"Georgia","name:right:bn":"\u099c\u09b0\u09cd\u099c\u09bf\u09af\u09bc\u09be (\u09b0\u09be\u09b7\u09cd\u099f\u09cd\u09b0)","name:right:bo":"\u0f60\u0f47\u0f7c\u0f62\u0f0b\u0f47\u0f72\u0f0b\u0f61\u0f0d (\u0f62\u0f92\u0fb1\u0f63\u0f0b\u0f41\u0f56\u0f0d)","name:left:sl":"Armenija","name:right:bg":"\u0413\u0440\u0443\u0437\u0438\u044f","name:right:be":"\u0413\u0440\u0443\u0437\u0456\u044f","name:right:br":"Jorjia (bro)","name:left:lt":"Arm\u0117nija","name:right:nn":"Georgia","name:right:no":"Georgia","name:right:nl":"Georgi\u00eb","name:left:lv":"Arm\u0113nija","alt_name:left:os":"\u0421\u043e\u043c\u0438\u0445","name:right:ne":"\u091c\u0930\u094d\u091c\u093f\u092f\u093e (\u0926\u0947\u0936)","name:right:na":"Djiordjiya","name:right:gv":"Yn \u00c7horshey","alt_name:left:vi":"Acmeni","name:right:nv":"J\u00f3ojah (K\u00e9yah)","name:left:mg":"Armenia","kind_detail":"2","alt_name:left:jv":"Hayastan","name:left:tr":"Ermenistan","name:right:gu":"\u0a9c\u0acd\u0aaf\u0acb\u0ab0\u0acd\u0a9c\u0ac0\u0aaf\u0abe (\u0aa6\u0ac7\u0ab6)","name:left:ty":"\u0100menia","name:right:ps":"\u06ab\u0631\u062c\u0633\u062a\u0627\u0646","name:right:pt":"Ge\u00f3rgia","name:left:mk":"\u0415\u0440\u043c\u0435\u043d\u0438\u0458\u0430","name:left:mi":"\u0100menia","name:left:ts":"Armenia","name:left:tt":"\u04d8\u0440\u043c\u04d9\u043d\u0441\u0442\u0430\u043d","name:left:mn":"\u0410\u0440\u043c\u0435\u043d","name:left:tw":"Aminia","name:left:th":"\u0e2d\u0e32\u0e23\u0e4c\u0e21\u0e35\u0e40\u0e19\u0e35\u0e22","name:left:ti":"\u12a0\u122d\u121c\u1292\u12eb","name:left:tk":"Ermenistan","name:left:tl":"Armenya","name:left:to":"\u02bb\u0100minia","name:right:gl":"Xeorxia - \u10e1\u10d0\u10e5\u10d0\u10e0\u10d7\u10d5\u10d4\u10da\u10dd","name:left:my":"\u1021\u102c\u1019\u1031\u1038\u1014\u102e\u1038\u101a\u102c\u1038\u1014\u102d\u102f\u1004\u103a\u1004\u1036","name:left:ml":"\u0d05\u0d7c\u0d2e\u0d47\u0d28\u0d3f\u0d2f","name:right:pl":"Gruzja","name:left:te":"\u0c06\u0c30\u0c4d\u0c2e\u0c47\u0c28\u0c3f\u0c2f\u0c3e","name:left:tg":"\u0410\u0440\u043c\u0430\u043d\u0438\u0441\u0442\u043e\u043d","name:left:ms":"Armenia","name:left:mr":"\u0906\u0930\u094d\u092e\u0947\u0928\u093f\u092f\u093e","name:left:da":"Armenien","name:left:de":"Armenien","name:left:dz":"\u0f68\u0f62\u0f0b\u0f58\u0f72\u0f0b\u0f53\u0f72\u0f0b\u0f61","name:right:ga":"An tSeoirsia","name:left:dv":"\u0787\u07a6\u0783\u07aa\u0789\u07a9\u0782\u07a8\u0787\u07a7","name:right:ug":"\u06af\u0631\u06c7\u0632\u0649\u064a\u06d5","name:left:hi":"\u0906\u0930\u094d\u092e\u0940\u0928\u093f\u092f\u093e","name:right:lb":"Georgien","name:right:uk":"\u0413\u0440\u0443\u0437\u0456\u044f","name:left:he":"\u05d0\u05b7\u05e8\u05b0\u05de\u05b6\u05e0\u05b0\u05d9\u05b8\u05d4","name:left:mt":"Armenja","name:left:ha":"Armeniya","name:right:lt":"Gruzija","name:right:ur":"\u062c\u0627\u0631\u062c\u06cc\u0627","name:right:lv":"Gruzija","name:left:ta":"\u0b86\u0bb0\u0bcd\u0bae\u0bc0\u0ba9\u0bbf\u0baf\u0bbe","name:left:ht":"Ameni","name:right:uz":"Gurjiston","name:left:hr":"Armenija","source":"openstreetmap.org","sort_rank":262,"name:right:gd":"A' Chairtbheil","name:right:os":"\u0413\u0443\u044b\u0440\u0434\u0437\u044b\u0441\u0442\u043e\u043d","name:right:es":"Georgia","alt_name:left:kn":"\u0cb9\u0caf\u0cb8\u0ccd\u0ca4\u0cbe\u0ca8\u0cbf \u0cb9\u0ca8\u0ccd\u0cb0\u0caa\u0cc6\u0ca4\u0cc1\u0ca4\u0ccd\u0caf\u0cc1\u0ca8\u0ccd","name:right:eu":"Georgia","name:right:et":"Gruusia","name:left:os":"\u0421\u043e\u043c\u0438\u0445\u044b\u0441\u0442\u043e\u043d","name:left:or":"\u0b06\u0b30\u0b4d\u0b2e\u0b47\u0b28\u0b3f\u0b06","name:left:om":"Armeeniyaa","alt_name:left:kk":"\u04d8\u0440\u043c\u0435\u043d\u0441\u0442\u0430\u043d;\u04d8\u0440\u043c\u0435\u043d\u0438\u044f","name:right:ee":"Georgia","name:left:vo":"Larmeniy\u00e4n","name:left:oc":"Armenia","name:right:eo":"Kartvelujo","name:right:en":"Georgia","name:right:el":"\u0393\u03b5\u03c9\u03c1\u03b3\u03af\u03b1","name:left:ff":"Armaaniya","alt_name:left:ku":"Flestan","name:left:fa":"\u0627\u0631\u0645\u0646\u0633\u062a\u0627\u0646","name:left:fo":"Armenia","name:left:qu":"Arminya","name:left:fi":"Armenia","name:left:fr":"Arm\u00e9nie","name:left:fy":"Armeenje","name:right:ja":"\u30b0\u30eb\u30b8\u30a2","name:right:sq":"Gjeorgjia","name:right:ss":"IJojiya","name:right:sr":"\u0413\u0440\u0443\u0437\u0438\u0458\u0430","name:right:su":"G\u00e9orgia","name:right:sw":"Georgia (nchi)","name:right:sv":"Georgien","name:right:si":"\u0da2\u0ddd\u0dbb\u0dca\u0da2\u0dd2\u0dba\u0dcf (\u0dbb\u0da7)","name:right:sh":"Gruzija","name:right:sk":"Gruz\u00ednsko","name:right:jv":"Georgia","name:right:sl":"Gruzija","name:right:so":"Joorjiya","name:right:sc":"Georgia","name:left:jv":"Arm\u00e8nia","id":-364066,"name:right:ca":"Ge\u00f2rgia","name:right:se":"Georgia","name:right:ce":"\u0413\u0443\u044c\u0440\u0436\u0438\u0439-\u041c\u043e\u0445\u043a","name:right:cy":"Georgia","name:right:zh-yue":"\u683c\u9b6f\u5409\u4e9e","name:right:cs":"Gruzie","name:right":"\u10e1\u10d0\u10e5\u10d0\u10e0\u10d7\u10d5\u10d4\u10da\u10dd","name:right:cu":"\u0413\u0454\u0461\u0440\u0433\u0457\ua657","name:right:cv":"\u0413\u0440\u0443\u0437\u0438","name:left:av":"\u0426I\u0430\u043c\u0443\u0445\u044a","name:right:it":"Georgia","name:left:as":"\u0986\u09f0\u09cd\u09ae\u09c7\u09a8\u09bf\u09af\u09bc\u09be","name:left:ar":"\u0623\u0631\u0645\u064a\u0646\u064a\u0627","name:right:is":"Georg\u00eda","name:left:az":"Erm\u0259nistan","name:right:rw":"Geworugiya","name:left:af":"Armeni\u00eb","name:left:ab":"\u0415\u0440\u043c\u0430\u043d\u0442\u04d9\u044b\u043b\u0430","name:left:an":"Armenia","name:left:am":"\u12a0\u122d\u1218\u1292\u12eb","name:right:ru":"\u0413\u0440\u0443\u0437\u0438\u044f","name:left:ak":"Armenia","name:right:io":"Gruzia","name:left:zh-yue":"\u4e9e\u7f8e\u5c3c\u4e9e","name:left:rw":"Arumeniya","name:right:hy":"\u054e\u0580\u0561\u057d\u057f\u0561\u0576","name:right:qu":"Kartulsuyu","alt_name:left:eo":"Armenio","name:left:lg":"Arameniya","name:left:su":"Arm\u00e9nia","int_name:left":"Armenia","name:left:sw":"Armenia","name:left:sv":"Armenien","name:left:sq":"Armenia","name:right:hu":"Gr\u00fazia","name:left:ss":"iArimeniya","name:left:lo":"\u0e9b\u0eb0\u0ec0\u0e97\u0e94\u0ead\u0eb2\u0e81\u0ec0\u0ea1\u0e99\u0eb5","name:left:sm":"Amenia","name:right:hi":"\u091c\u0949\u0930\u094d\u091c\u093f\u092f\u093e","name:left:so":"Armania","name:left:sn":"Armenia","name:left:si":"\u0d86\u0dbb\u0dca\u0db8\u0dda\u0db1\u0dd2\u0dba\u0dcf\u0dc0","name:left:sh":"Jermenija","name:left:sk":"Arm\u00e9nsko","name:left:se":"Armenia","name:left:sd":"\u0622\u0631\u0645\u064a\u0646\u064a\u0627","name:left:sg":"Armen\u00efi","name:left:sa":"\u0906\u0930\u094d\u092e\u0940\u0928\u093f\u092f\u093e","name:right:he":"\u05d2\u05d0\u05d5\u05e8\u05d2\u05d9\u05d4","name:left:sc":"Arm\u00e8nia","name:right:la":"Georgia","name:right:af":"Georgi\u00eb","name:left:co":"Armenia","name:right:ab":"\u049a\u044b\u0440\u04ad\u0442\u04d9\u044b\u043b\u0430","name:left:ce":"\u0410\u0440\u0435\u043c\u0430\u043b\u043e\u0439\u043d","name:right:an":"Cheorchia","name:right:am":"\u1302\u12ee\u122d\u1302\u12eb","name:left:ca":"Arm\u00e8nia","name:right:av":"\u0413\u0443\u0440\u0436\u0438","name:left:cy":"Armenia","name:right:ar":"\u062c\u0648\u0631\u062c\u064a\u0627","name:left:ja":"\u30a2\u30eb\u30e1\u30cb\u30a2","name:left:cu":"\u0410\u0440\u043c\u0454\u043d\u0456\u0301\ua657","name:left:cv":"\u042d\u0440\u043c\u0435\u043d\u0438","name:right:az":"G\u00fcrc\u00fcstan","name:left:cs":"Arm\u00e9nie","name:right:li":"Georgi\u00eb","alt_name:left:lo":"\u0e9b\u0eb0\u0ec0\u0e97\u0e94\u0eae\u0eb2\u0ea2\u0eb2\u0eaa\u0eb0\u0e95\u0eb2\u0e99","alt_name:left:pt":"Arm\u00eania","name":"\u0540\u0561\u0575\u0561\u057d\u057f\u0561\u0576 - \u10e1\u10d0\u10e5\u10d0\u10e0\u10d7\u10d5\u10d4\u10da\u10dd","name:left:zu":"i-Armenia","name:left:zh":"\u4e9e\u7f8e\u5c3c\u4e9e","name:right:zh":"\u683c\u9c81\u5409\u4e9a","name:left:za":"Armenia","official_name:left":"\u0540\u0561\u0575\u0561\u057d\u057f\u0561\u0576\u056b \u0540\u0561\u0576\u0580\u0561\u057a\u0565\u057f\u0578\u0582\u0569\u0575\u0578\u0582\u0576","name:left:uz":"Armaniston","name:right:fr":"G\u00e9orgie","name:left:ps":"\u0627\u0631\u0645\u0646\u0633\u062a\u0627\u0646","name:left:nv":"Aoom\u00e9\u00e9nii Bik\u00e9yah","name:left:ur":"\u0622\u0631\u0645\u06cc\u0646\u06cc\u0627","id:right":-28699,"name:left:uk":"\u0412\u0456\u0440\u043c\u0435\u0301\u043d\u0456\u044f","name:left:no":"Armenia","name:left:nl":"Armeni\u00eb","alt_name:right:eo":"Kartvelio","name:right:fa":"\u06af\u0631\u062c\u0633\u062a\u0627\u0646","name:right:fo":"Georgia (land)","name:left:ne":"\u0906\u0930\u094d\u092e\u0947\u0928\u093f\u092f\u093e","name:left:ug":"\u0626\u06d5\u0631\u0645\u06d0\u0646\u0649\u064a\u06d5","name:right:fi":"Georgia","name:left:eo":"Armenujo","name:left:en":"Armenia","name:left:el":"\u0391\u03c1\u03bc\u03b5\u03bd\u03af\u03b1","name:left:ee":"Armenia","name:left:pl":"Armenia","name:left:es":"Armenia","name:left:ie":"Armenia","name:left:eu":"Armenia","name:left:et":"Armeenia","name:right:zh-min-nan":"Sakartvelo","name:right:oc":"Georgia (Cauc\u00e0s)","name:left:ia":"Armenia","name:right:bs":"Gruzija","name:left:sr":"\u0408\u0435\u0440\u043c\u0435\u043d\u0438\u0458\u0430","osm_relation":true,"name:right:or":"\u0b1c\u0b30\u0b4d\u0b1c\u0b3f\u0b06","name:left:pt":"Arm\u00e9nia","name:right:ku":"Gurcistan","name:right:tk":"Gruzi\u00fda","name:left:gl":"Armenia","min_zoom":8.0,"name:left:hu":"\u00d6rm\u00e9nyorsz\u00e1g","name:left:zh-min-nan":"Hayastan","name:left:ln":"Armeni","name:left:wo":"Armeeni","name:left:ga":"An Airm\u00e9in","name:left:it":"Armenia","name:left:gd":"Airmeinia","int_name:right":"Georgia","name:left:gn":"Aymenia","name:left:gu":"\u0a86\u0ab0\u0acd\u0aae\u0ac7\u0aa8\u0abf\u0aaf\u0abe","name:left:gv":"Armeain","name:right:wo":"Jeoorji","name:left":"\u0540\u0561\u0575\u0561\u057d\u057f\u0561\u0576","name:right:mk":"\u0413\u0440\u0443\u0437\u0438\u0458\u0430","name:right:mi":"H\u014dria","name:right:mn":"\u0413\u04af\u0440\u0436","name:right:ml":"\u0d1c\u0d4b\u0d7c\u0d1c\u0d4d\u0d1c\u0d3f\u0d2f","name:right:vo":"Grusiy\u00e4n","name:right:vi":"Gruzia","name:right:my":"\u1002\u103b\u1031\u102c\u103a\u1002\u103b\u102e\u101a\u102c\u1014\u102d\u102f\u1004\u103a\u1004\u1036","name:right:ms":"Georgia","name:right:mr":"\u091c\u0949\u0930\u094d\u091c\u093f\u092f\u093e","name:right:fy":"Ge\u00f6rgje","name:right:mt":"\u0120eor\u0121ja","name:left:nn":"Armenia","kind":"country","alt_name:left:gd":"Arminia","alt_name:left:gn":"Ayme\u00f1a","name:left:br":"Armenia","name:left:bs":"Ermenija","name:left:ba":"\u04d8\u0440\u043c\u04d9\u043d\u0441\u0442\u0430\u043d","name:left:bg":"\u0410\u0440\u043c\u0435\u043d\u0438\u044f","name:left:be":"\u0410\u0440\u043c\u0435\u0301\u043d\u0456\u044f","name:left:bi":"Armenia","name:left:bn":"\u0986\u09b0\u09cd\u09ae\u09c7\u09a8\u09bf\u09af\u09bc\u09be","name:left:bo":"\u0f68\u0f62\u0f0b\u0f58\u0f7a\u0f0b\u0f53\u0f72\u0f0b\u0f61\u0f0d","name:left:bm":"Arimeni","name:left:yo":"Arm\u00e9n\u00ed\u00e0","name:left:yi":"\u05d0\u05b7\u05e8\u05de\u05e2\u05e0\u05d9\u05e2","id:left":-364066,"name:left:na":"Arminiya","name:left:io":"Armenia","name:left:pa":"\u0a05\u0a30\u0a2e\u0a40\u0a28\u0a40\u0a06","name:right:tt":"\u0413\u04e9\u0440\u0497\u0438\u0441\u0442\u0430\u043d","name:right:kk":"\u0413\u0440\u0443\u0437\u0438\u044f","name:left:id":"Armenia","name:left:pi":"\u0906\u0930\u094d\u092e\u0940\u0928\u093f\u092f\u093e","name:right:tr":"G\u00fcrcistan","name:right:kn":"\u0c9c\u0cbe\u0cb0\u0ccd\u0c9c\u0cbf\u0caf","name:right:tl":"Heorhiya","name:right:th":"\u0e1b\u0e23\u0e30\u0e40\u0e17\u0e28\u0e08\u0e2d\u0e23\u0e4c\u0e40\u0e08\u0e35\u0e22","name:right:kw":"Pow Grouzi","name:right:kv":"\u0413\u0440\u0443\u0437\u0438\u044f","name:right:ky":"\u0413\u0440\u0443\u0437\u0438\u044f","name:right:te":"\u0c1c\u0c3e\u0c30\u0c4d\u0c1c\u0c3f\u0c2f\u0c3e (\u0c26\u0c47\u0c36\u0c02)","name:right:tg":"\u0413\u0443\u0440\u04b7\u0438\u0441\u0442\u043e\u043d","name:left:is":"Armen\u00eda","name:right:ta":"\u0b9a\u0bbf\u0baf\u0bbe\u0bb0\u0bcd\u0b9a\u0bbf\u0baf\u0bbe (\u0ba8\u0bbe\u0b9f\u0bc1)","alt_name:left:av":"\u042d\u0440\u043c\u0435\u043d\u0438\u0441\u0442\u0430\u043d","name:right:de":"Georgien","name:right:da":"Georgien","name:left:rn":"Arumeniya","name:right:dz":"\u0f47\u0f7d\u0f0b\u0f47\u0f71","name:right:dv":"\u0796\u07af\u0796\u07a8\u0794\u07a7 (\u07a4\u07a6\u0787\u07aa\u0789\u07aa)","name:right:ht":"Jeoji"},"arcs":[1]},{"type":"LineString","properties":{"name:right:yo":"Georgia","name:right:yi":"\u05d2\u05e8\u05d5\u05d6\u05d9\u05e2","name:left:la":"Turcia","name:right:qu":"Kartulsuyu","name:left:li":"Turkije","name:left:vi":"Th\u1ed5 Nh\u0129 K\u1ef3","name:left:sw":"Uturuki","name:left:kg":"Turki","name:left:ka":"\u10d7\u10e3\u10e0\u10e5\u10d4\u10d7\u10d8","name:left:kl":"Tyrkia","name:left:ko":"\ud130\ud0a4","name:left:kn":"\u0c9f\u0cb0\u0ccd\u0c95\u0cbf","name:left:ki":"Turkey","name:left:ro":"Turcia","name:left:kk":"\u0422\u04af\u0440\u043a\u0438\u044f","name:left:rm":"Tirchia","name:left:ku":"Tirkiye","name:left:kw":"Turki","name:left:kv":"\u0422\u0443\u0440\u0446\u0438\u044f","name:right:ro":"Georgia","name:left:ru":"\u0422\u0443\u0440\u0446\u0438\u044f","name:right:ie":"Georgia","name:right:id":"Georgia","name:left:ky":"\u0422\u04af\u0440\u043a\u0438\u044f \u0420\u0435\u0441\u043f\u0443\u0431\u043b\u0438\u043a\u0430\u0441\u044b","name:right:ia":"Georgia","name:right:bn":"\u099c\u09b0\u09cd\u099c\u09bf\u09af\u09bc\u09be (\u09b0\u09be\u09b7\u09cd\u099f\u09cd\u09b0)","name:right:bo":"\u0f60\u0f47\u0f7c\u0f62\u0f0b\u0f47\u0f72\u0f0b\u0f61\u0f0d (\u0f62\u0f92\u0fb1\u0f63\u0f0b\u0f41\u0f56\u0f0d)","name:left:sl":"Tur\u010dija","name:right:bg":"\u0413\u0440\u0443\u0437\u0438\u044f","name:right:be":"\u0413\u0440\u0443\u0437\u0456\u044f","name:right:br":"Jorjia (bro)","name:left:lt":"Turkija","name:right:nn":"Georgia","name:right:no":"Georgia","name:right:nl":"Georgi\u00eb","name:left:lv":"Turcija","name:right:wo":"Jeoorji","name:right:ne":"\u091c\u0930\u094d\u091c\u093f\u092f\u093e (\u0926\u0947\u0936)","name:right:na":"Djiordjiya","name:right:gv":"Yn \u00c7horshey","name:right:nv":"J\u00f3ojah (K\u00e9yah)","name:left:mg":"Torkia","kind_detail":"2","name:right:gu":"\u0a9c\u0acd\u0aaf\u0acb\u0ab0\u0acd\u0a9c\u0ac0\u0aaf\u0abe (\u0aa6\u0ac7\u0ab6)","name:right:ps":"\u06ab\u0631\u062c\u0633\u062a\u0627\u0646","name:right:pt":"Ge\u00f3rgia","name:left:mk":"\u0422\u0443\u0440\u0446\u0438\u0458\u0430","name:left:mi":"T\u0101kei","name:left:tt":"\u0422\u04e9\u0440\u043a\u0438\u044f","name:left:mn":"\u0422\u0443\u0440\u043a","name:left:tw":"Turkey","name:left:th":"\u0e1b\u0e23\u0e30\u0e40\u0e17\u0e28\u0e15\u0e38\u0e23\u0e01\u0e35","name:left:mr":"\u0924\u0941\u0930\u094d\u0915\u0938\u094d\u0924\u093e\u0928","name:left:tk":"T\u00fcrki\u00fde","name:left:tl":"Turkiya","name:left:mt":"Turkija","name:right:gl":"Xeorxia - \u10e1\u10d0\u10e5\u10d0\u10e0\u10d7\u10d5\u10d4\u10da\u10dd","name:left:my":"\u1010\u1030\u101b\u1000\u102e\u1014\u102d\u102f\u1004\u103a\u1004\u1036","name:left:ml":"\u0d24\u0d41\u0d7c\u0d15\u0d4d\u0d15\u0d3f","name:right:pl":"Gruzja","name:left:te":"\u0c1f\u0c30\u0c4d\u0c15\u0c40","name:left:tg":"\u0422\u0443\u0440\u043a\u0438\u044f","name:left:ms":"Turki","name:right:gd":"A' Chairtbheil","name:right:tr":"G\u00fcrcistan","name:left:da":"Tyrkiet","name:left:de":"T\u00fcrkei","name:right:ga":"An tSeoirsia","name:left:dv":"\u078c\u07aa\u0783\u07aa\u0786\u07a9\u0788\u07a8\u078d\u07a7\u078c\u07b0","name:right:ug":"\u06af\u0631\u06c7\u0632\u0649\u064a\u06d5","name:left:hi":"\u0924\u0941\u0930\u094d\u0915\u0940","name:right:lb":"Georgien","name:right:uk":"\u0413\u0440\u0443\u0437\u0456\u044f","name:left:he":"\u05d8\u05d5\u05e8\u05e7\u05d9\u05d4","name:left:ha":"Turkiyya","name:right:lt":"Gruzija","name:right:ur":"\u062c\u0627\u0631\u062c\u06cc\u0627","name:right:lv":"Gruzija","name:left:hy":"\u0539\u0578\u0582\u0580\u0584\u056b\u0561","name:left:ta":"\u0ba4\u0bc1\u0bb0\u0bc1\u0b95\u0bcd\u0b95\u0bbf","name:left:ht":"Tiki","name:left:hu":"T\u00f6r\u00f6korsz\u00e1g","name:left:hr":"Turska","source":"openstreetmap.org","sort_rank":262,"name:right:os":"\u0413\u0443\u044b\u0440\u0434\u0437\u044b\u0441\u0442\u043e\u043d","name:right:es":"Georgia","name:right:sr":"\u0413\u0440\u0443\u0437\u0438\u0458\u0430","name:right:eu":"Georgia","name:right:et":"Gruusia","name:left:os":"\u0422\u0443\u0440\u043a","name:left:or":"\u0b24\u0b41\u0b30\u0b4d\u0b15\u0b40","name:right:ee":"Georgia","name:left:vo":"T\u00fcrk\u00e4n","name:left:oc":"Turquia","name:right:eo":"Kartvelujo","name:right:en":"Georgia","name:right:el":"\u0393\u03b5\u03c9\u03c1\u03b3\u03af\u03b1","name:left:fa":"\u062a\u0631\u06a9\u06cc\u0647","name:left:fo":"Turkaland","name:right:sk":"Gruz\u00ednsko","name:left:fi":"Turkki","name:left:fr":"Turquie","name:left:fy":"Turkije","name:right:ja":"\u30b0\u30eb\u30b8\u30a2","name:right:sq":"Gjeorgjia","name:right:ss":"IJojiya","name:left:ja":"\u30c8\u30eb\u30b3","name:right:su":"G\u00e9orgia","name:right:sw":"Georgia (nchi)","name:right:sv":"Georgien","name:right:si":"\u0da2\u0ddd\u0dbb\u0dca\u0da2\u0dd2\u0dba\u0dcf (\u0dbb\u0da7)","name:right:sh":"Gruzija","name:left:qu":"Turkiya","name:right:jv":"Georgia","name:right:sl":"Gruzija","name:right:so":"Joorjiya","name:right:sc":"Georgia","name:left:jv":"Turki","id":-174737,"name:right:ca":"Ge\u00f2rgia","name:right:se":"Georgia","name:right:ce":"\u0413\u0443\u044c\u0440\u0436\u0438\u0439-\u041c\u043e\u0445\u043a","name:right:cy":"Georgia","name:right:zh-yue":"\u683c\u9b6f\u5409\u4e9e","name:right:cs":"Gruzie","name:right:cu":"\u0413\u0454\u0461\u0440\u0433\u0457\ua657","name:right:cv":"\u0413\u0440\u0443\u0437\u0438","name:left:av":"\u0422\u0443\u0440\u043a\u0438\u044f","name:right:it":"Georgia","name:left:ar":"\u062a\u0631\u0643\u064a\u0627","name:right:is":"Georg\u00eda","name:left:az":"T\u00fcrkiy\u0259","name:left:ay":"Turkiya","name:right:rw":"Geworugiya","name:left:af":"Turkye","name:left:ab":"\u04ac\u044b\u0440\u049b\u04d9\u0442\u04d9\u044b\u043b\u0430","name:left:an":"Turqu\u00eda","name:left:am":"\u1271\u122d\u12ad","name:right:ru":"\u0413\u0440\u0443\u0437\u0438\u044f","name:left:ak":"Turki","name:right:io":"Gruzia","name:left:zh-yue":"\u571f\u8033\u5176","name:left:rw":"Turukiya","name:right:hy":"\u054e\u0580\u0561\u057d\u057f\u0561\u0576","name:left:lb":"Tierkei","alt_name:left:eo":"Turkio","name:left:lg":"Buturuki","name:left:su":"Turki","int_name:left":"Turkey","name:right:hr":"Gruzija","name:left:sv":"Turkiet","name:left:sq":"Turqia","name:right:hu":"Gr\u00fazia","name:left:ss":"IThekhi","name:left:sr":"\u0422\u0443\u0440\u0441\u043a\u0430","name:right:hi":"\u091c\u0949\u0930\u094d\u091c\u093f\u092f\u093e","name:left:so":"Turki","name:left:si":"\u0dad\u0dd4\u0dbb\u0dca\u0d9a\u0dd2\u0dba","name:left:sh":"Turska","name:left:sk":"Turecko","name:left:se":"Durka","name:left:sa":"\u0924\u0941\u0930\u094d\u0915\u0940","name:right:he":"\u05d2\u05d0\u05d5\u05e8\u05d2\u05d9\u05d4","name:left:sc":"Turkia","name:right:la":"Georgia","name:right:af":"Georgi\u00eb","name:right:ab":"\u049a\u044b\u0440\u04ad\u0442\u04d9\u044b\u043b\u0430","name:left:ce":"\u0422\u0443\u0440\u0446\u0438","name:right:an":"Cheorchia","name:right:am":"\u1302\u12ee\u122d\u1302\u12eb","name:left:ca":"Turquia","name:right:av":"\u0413\u0443\u0440\u0436\u0438","name:left:cy":"Twrci","name:right:ar":"\u062c\u0648\u0631\u062c\u064a\u0627","name:left:cu":"\u0422\u0477\u0440\u0446\u0438","name:left:cv":"\u0422\u0443\u0440\u0446\u0438","name:right:az":"G\u00fcrc\u00fcstan","name:left:cs":"Turecko","name:left:cr":"\u1450\u1552\u146d","name:right:li":"Georgi\u00eb","name":"T\u00fcrkiye - \u10e1\u10d0\u10e5\u10d0\u10e0\u10d7\u10d5\u10d4\u10da\u10dd","name:left:zu":"ITheki","name:left:zh":"\u571f\u8033\u5176","name:right:zh":"\u683c\u9c81\u5409\u4e9a","name:left:za":"Dujwjgiz","official_name:left":"T\u00fcrkiye Cumhuriyeti","name:left:uz":"Turkiya","name:right:fr":"G\u00e9orgie","name:left:ps":"\u062a\u0648\u0631\u06a9\u064a\u0647","name:left:nv":"T\u02bc\u00f3ok Bik\u00e9yah","name:left:ur":"\u062a\u0631\u06a9\u06cc","id:right":-28699,"name:left:uk":"\u0422\u0443\u0440\u0435\u0447\u0447\u0438\u043d\u0430","name:left:no":"Tyrkia","name:left:nl":"Turkije","alt_name:right:eo":"Kartvelio","name:right:fa":"\u06af\u0631\u062c\u0633\u062a\u0627\u0646","name:right:fo":"Georgia (land)","name:left:ne":"\u091f\u0930\u094d\u0915\u0940","name:left:ug":"\u062a\u06c8\u0631\u0643\u0649\u064a\u06d5 \u062c\u06c7\u0645\u06be\u06c7\u0631\u0649\u064a\u0649\u062a\u0649","name:left:na":"Terki","name:left:eo":"Turkujo","name:left:en":"Turkey","name:left:el":"\u03a4\u03bf\u03c5\u03c1\u03ba\u03af\u03b1","name:left:ee":"Turkey","name:right:tt":"\u0413\u04e9\u0440\u0497\u0438\u0441\u0442\u0430\u043d","name:left:es":"Turqu\u00eda","name:left:ie":"Turcia","name:left:eu":"Turkia","name:left:et":"T\u00fcrgi","name:right:zh-min-nan":"Sakartvelo","name:right:oc":"Georgia (Cauc\u00e0s)","name:left:ia":"Turchia","name:right:bs":"Gruzija","name:right:uz":"Gurjiston","osm_relation":true,"name:right:or":"\u0b1c\u0b30\u0b4d\u0b1c\u0b3f\u0b06","name:left:pt":"Turquia","name:right:ku":"Gurcistan","name:right:tk":"Gruzi\u00fda","name:left:gl":"Turqu\u00eda","name:left:wa":"Tourkeye","min_zoom":8.0,"name:left:ln":"Turk\u00ed","name:left:wo":"Tirki","name:left:ga":"An Tuirc","name:left:it":"Turchia","name:left:gd":"An Tuirc","int_name:right":"Georgia","name:left:gn":"Tuykia","name:left:gu":"\u0aa4\u0ac1\u0ab0\u0acd\u0a95\u0ab8\u0acd\u0aa4\u0abe\u0aa8","name:left:gv":"Yn Turkee","name:left":"T\u00fcrkiye","name:right:mk":"\u0413\u0440\u0443\u0437\u0438\u0458\u0430","name:right:mi":"H\u014dria","name:right:mn":"\u0413\u04af\u0440\u0436","name:right:ml":"\u0d1c\u0d4b\u0d7c\u0d1c\u0d4d\u0d1c\u0d3f\u0d2f","name:right:vo":"Grusiy\u00e4n","name:right:vi":"Gruzia","name:right:my":"\u1002\u103b\u1031\u102c\u103a\u1002\u103b\u102e\u101a\u102c\u1014\u102d\u102f\u1004\u103a\u1004\u1036","name:right:ms":"Georgia","name:right:mr":"\u091c\u0949\u0930\u094d\u091c\u093f\u092f\u093e","name:right:fy":"Ge\u00f6rgje","name:right:mt":"\u0120eor\u0121ja","name:left:nn":"Tyrkia","kind":"country","name:left:br":"Turkia","name:left:bs":"Turska","name:left:ba":"\u0422\u04e9\u0440\u043a\u0438\u04d9","name:left:bg":"\u0422\u0443\u0440\u0446\u0438\u044f","name:left:be":"\u0422\u0443\u0440\u0446\u044b\u044f","name:left:bi":"Turkey","name:left:bn":"\u09a4\u09c1\u09b0\u09b8","name:left:bo":"\u0f4f\u0f74\u0f62\u0f0b\u0f40\u0f72\u0f0d","name:right":"\u10e1\u10d0\u10e5\u10d0\u10e0\u10d7\u10d5\u10d4\u10da\u10dd","name:left:yo":"T\u00fark\u00ec","name:left:yi":"\u05d8\u05e2\u05e8\u05e7\u05d9\u05d9","id:left":-174737,"name:right:fi":"Georgia","name:left:io":"Turkia","name:left:ik":"Turkey","name:left:pa":"\u0a24\u0a41\u0a30\u0a15\u0a40","name:left:pl":"Turcja","name:right:kk":"\u0413\u0440\u0443\u0437\u0438\u044f","name:left:id":"Turki","name:right:ko":"\uc870\uc9c0\uc544 (\uad6d\uac00)","name:right:kn":"\u0c9c\u0cbe\u0cb0\u0ccd\u0c9c\u0cbf\u0caf","name:right:tl":"Heorhiya","name:right:th":"\u0e1b\u0e23\u0e30\u0e40\u0e17\u0e28\u0e08\u0e2d\u0e23\u0e4c\u0e40\u0e08\u0e35\u0e22","name:right:kw":"Pow Grouzi","name:right:kv":"\u0413\u0440\u0443\u0437\u0438\u044f","name:right:ky":"\u0413\u0440\u0443\u0437\u0438\u044f","name:right:te":"\u0c1c\u0c3e\u0c30\u0c4d\u0c1c\u0c3f\u0c2f\u0c3e (\u0c26\u0c47\u0c36\u0c02)","name:right:tg":"\u0413\u0443\u0440\u04b7\u0438\u0441\u0442\u043e\u043d","name:left:is":"Tyrkland","name:right:ta":"\u0b9a\u0bbf\u0baf\u0bbe\u0bb0\u0bcd\u0b9a\u0bbf\u0baf\u0bbe (\u0ba8\u0bbe\u0b9f\u0bc1)","alt_name:left:ar":"\u062a\u0631\u0643\u064a\u0627","name:right:de":"Georgien","name:right:da":"Georgien","name:left:rn":"Turukiya","name:right:dz":"\u0f47\u0f7d\u0f0b\u0f47\u0f71","name:right:dv":"\u0796\u07af\u0796\u07a8\u0794\u07a7 (\u07a4\u07a6\u0787\u07aa\u0789\u07aa)","name:right:ht":"Jeoji"},"arcs":[2]},{"type":"LineString","properties":{"name:right:uk":"\u0410\u0434\u0436\u0430\u0440\u0441\u044c\u043a\u0430 \u0410\u0432\u0442\u043e\u043d\u043e\u043c\u043d\u0430 \u0420\u0435\u0441\u043f\u0443\u0431\u043b\u0456\u043a\u0430","int_name:left":"Guria","name:right:it":"Repubblica Autonoma Agiara","id:right":-1995970,"name:left:uk":"\u0413\u0443\u0440\u0456\u044f","min_zoom":8.0,"name:right:ku":"Komara Xweser\u00ee ya Acaristan\u00ea","id:left":-1995971,"name:left:ru":"\u0413\u0443\u0440\u0438\u044f","name:right:ru":"\u0410\u0434\u0436\u0430\u0440\u0441\u043a\u0430\u044f \u0410\u0432\u0442\u043e\u043d\u043e\u043c\u043d\u0430\u044f \u0420\u0435\u0441\u043f\u0443\u0431\u043b\u0438\u043a\u0430","id":-1995971,"osm_relation":true,"name:right":"\u10d0\u10ed\u10d0\u10e0\u10d8\u10e1 \u10d0\u10d5\u10e2\u10dd\u10dc\u10dd\u10db\u10d8\u10e3\u10e0\u10d8 \u10e0\u10d4\u10e1\u10de\u10e3\u10d1\u10da\u10d8\u10d9\u10d0","name:left:ku":"G\u00fbrya","kind":"region","sort_rank":256,"alt_name:right:ku":"Acaristan;Acar\u00ee","name":"\u10d2\u10e3\u10e0\u10d8\u10d0 - \u10d0\u10ed\u10d0\u10e0\u10d8\u10e1 \u10d0\u10d5\u10e2\u10dd\u10dc\u10dd\u10db\u10d8\u10e3\u10e0\u10d8 \u10e0\u10d4\u10e1\u10de\u10e3\u10d1\u10da\u10d8\u10d9\u10d0","source":"openstreetmap.org","name:right:ca":"Adj\u00e0ria","kind_detail":"4","name:left:ca":"G\u00faria","name:left:de":"Gurien","name:right:en":"Autonomous Republic of Adjara","name:left:en":"Guria","name:left:fr":"Gourie","name:right:de":"Autonome Republik Adscharien","name:left":"\u10d2\u10e3\u10e0\u10d8\u10d0"},"arcs":[3]},{"type":"LineString","properties":{"int_name":"Guria","min_zoom":8.0,"name:uk":"\u0413\u0443\u0440\u0456\u044f","name:ru":"\u0413\u0443\u0440\u0438\u044f","id":-1995971,"osm_relation":true,"kind":"region","name:en":"Guria","name":"\u10d2\u10e3\u10e0\u10d8\u10d0","sort_rank":256,"kind_detail":"4","name:ku":"G\u00fbrya","name:de":"Gurien","source":"openstreetmap.org","name:fr":"Gourie","name:ca":"G\u00faria"},"arcs":[4]},{"type":"LineString","properties":{"name:right:uk":"\u0410\u0440\u0434\u0430\u0445\u0430\u043d","id:right":-1251450,"name:left:uk":"\u0410\u0434\u0436\u0430\u0440\u0441\u044c\u043a\u0430 \u0410\u0432\u0442\u043e\u043d\u043e\u043c\u043d\u0430 \u0420\u0435\u0441\u043f\u0443\u0431\u043b\u0456\u043a\u0430","min_zoom":8.0,"name:right:ku":"Erd\u00eaxan","name:left:ru":"\u0410\u0434\u0436\u0430\u0440\u0441\u043a\u0430\u044f \u0410\u0432\u0442\u043e\u043d\u043e\u043c\u043d\u0430\u044f \u0420\u0435\u0441\u043f\u0443\u0431\u043b\u0438\u043a\u0430","name:right:ru":"\u0410\u0440\u0434\u0430\u0445\u0430\u043d","id":-1995970,"osm_relation":true,"name:right":"Ardahan","name:left:ku":"Komara Xweser\u00ee ya Acaristan\u00ea","kind":"region","name:left:it":"Repubblica Autonoma Agiara","alt_name:right:ku":"Erd\u00eahan","name:left:en":"Autonomous Republic of Adjara","sort_rank":256,"kind_detail":"4","name:left:ca":"Adj\u00e0ria","name:left:de":"Autonome Republik Adscharien","name":"\u10d0\u10ed\u10d0\u10e0\u10d8\u10e1 \u10d0\u10d5\u10e2\u10dd\u10dc\u10dd\u10db\u10d8\u10e3\u10e0\u10d8 \u10e0\u10d4\u10e1\u10de\u10e3\u10d1\u10da\u10d8\u10d9\u10d0 - Ardahan","source":"openstreetmap.org","id:left":-1995970,"alt_name:left:ku":"Acaristan;Acar\u00ee","name:left":"\u10d0\u10ed\u10d0\u10e0\u10d8\u10e1 \u10d0\u10d5\u10e2\u10dd\u10dc\u10dd\u10db\u10d8\u10e3\u10e0\u10d8 \u10e0\u10d4\u10e1\u10de\u10e3\u10d1\u10da\u10d8\u10d9\u10d0"},"arcs":[5]},{"type":"LineString","properties":{"name:right:uk":"\u0410\u0440\u0442\u0432\u0456\u043d","id:right":-223448,"name:left:uk":"\u0410\u0434\u0436\u0430\u0440\u0441\u044c\u043a\u0430 \u0410\u0432\u0442\u043e\u043d\u043e\u043c\u043d\u0430 \u0420\u0435\u0441\u043f\u0443\u0431\u043b\u0456\u043a\u0430","min_zoom":8.0,"name:left:ru":"\u0410\u0434\u0436\u0430\u0440\u0441\u043a\u0430\u044f \u0410\u0432\u0442\u043e\u043d\u043e\u043c\u043d\u0430\u044f \u0420\u0435\u0441\u043f\u0443\u0431\u043b\u0438\u043a\u0430","name:right:ru":"\u0410\u0440\u0442\u0432\u0438\u043d","id":-1995970,"osm_relation":true,"name:right":"Artvin","name:left:ku":"Komara Xweser\u00ee ya Acaristan\u00ea","kind":"region","name:left:it":"Repubblica Autonoma Agiara","name:left:en":"Autonomous Republic of Adjara","sort_rank":256,"kind_detail":"4","name:left:ca":"Adj\u00e0ria","name:left:de":"Autonome Republik Adscharien","name":"\u10d0\u10ed\u10d0\u10e0\u10d8\u10e1 \u10d0\u10d5\u10e2\u10dd\u10dc\u10dd\u10db\u10d8\u10e3\u10e0\u10d8 \u10e0\u10d4\u10e1\u10de\u10e3\u10d1\u10da\u10d8\u10d9\u10d0 - Artvin","source":"openstreetmap.org","id:left":-1995970,"alt_name:left:ku":"Acaristan;Acar\u00ee","name:left":"\u10d0\u10ed\u10d0\u10e0\u10d8\u10e1 \u10d0\u10d5\u10e2\u10dd\u10dc\u10dd\u10db\u10d8\u10e3\u10e0\u10d8 \u10e0\u10d4\u10e1\u10de\u10e3\u10d1\u10da\u10d8\u10d9\u10d0"},"arcs":[6]},{"type":"LineString","properties":{"name:ku":"Komara Xweser\u00ee ya Acaristan\u00ea","name:it":"Repubblica Autonoma Agiara","name:uk":"\u0410\u0434\u0436\u0430\u0440\u0441\u044c\u043a\u0430 \u0410\u0432\u0442\u043e\u043d\u043e\u043c\u043d\u0430 \u0420\u0435\u0441\u043f\u0443\u0431\u043b\u0456\u043a\u0430","name:ru":"\u0410\u0434\u0436\u0430\u0440\u0441\u043a\u0430\u044f \u0410\u0432\u0442\u043e\u043d\u043e\u043c\u043d\u0430\u044f \u0420\u0435\u0441\u043f\u0443\u0431\u043b\u0438\u043a\u0430","id":-1995970,"osm_relation":true,"kind":"region","name:en":"Autonomous Republic of Adjara","name":"\u10d0\u10ed\u10d0\u10e0\u10d8\u10e1 \u10d0\u10d5\u10e2\u10dd\u10dc\u10dd\u10db\u10d8\u10e3\u10e0\u10d8 \u10e0\u10d4\u10e1\u10de\u10e3\u10d1\u10da\u10d8\u10d9\u10d0","sort_rank":256,"kind_detail":"4","min_zoom":8.0,"name:de":"Autonome Republik Adscharien","source":"openstreetmap.org","name:ca":"Adj\u00e0ria","alt_name:ku":"Acaristan;Acar\u00ee"},"arcs":[7]},{"type":"LineString","properties":{"name:right:ka":"\u10e8\u10d8\u10e0\u10d0\u10d9\u10d8\u10e1 \u10de\u10e0\u10dd\u10d5\u10d8\u10dc\u10ea\u10d8\u10d0","name:right:ja":"\u30b7\u30e9\u30af\u5730\u65b9","id:left":-1251450,"id:right":-364077,"name:left:uk":"\u0410\u0440\u0434\u0430\u0445\u0430\u043d","min_zoom":8.0,"name:right:ku":"\u015e\u00eerak","name:left:ru":"\u0410\u0440\u0434\u0430\u0445\u0430\u043d","name:right:ru":"\u0428\u0438\u0440\u0430\u043a\u0441\u043a\u0430\u044f \u043e\u0431\u043b\u0430\u0441\u0442\u044c","id":-1251450,"osm_relation":true,"name:right":"\u0547\u056b\u0580\u0561\u056f\u056b \u0574\u0561\u0580\u0566","name:left:ku":"Erd\u00eaxan","kind":"region","name":"Ardahan - \u0547\u056b\u0580\u0561\u056f\u056b \u0574\u0561\u0580\u0566","sort_rank":256,"kind_detail":"4","name:right:en":"Shirak Province","source":"openstreetmap.org","name:right:de":"Provinz Schirak","alt_name:left:ku":"Erd\u00eahan","name:right:az":"\u015eirak m\u0259rzi","name:left":"Ardahan"},"arcs":[8]},{"type":"LineString","properties":{"name:right:uk":"\u0410\u0440\u0442\u0432\u0456\u043d","name:right:ru":"\u0410\u0440\u0442\u0432\u0438\u043d","name:left:uk":"\u0410\u0440\u0434\u0430\u0445\u0430\u043d","min_zoom":8.0,"name:left:ru":"\u0410\u0440\u0434\u0430\u0445\u0430\u043d","id:right":-223448,"id":-1251450,"osm_relation":true,"name:right":"Artvin","name:left:ku":"Erd\u00eaxan","kind":"region","name":"Ardahan - Artvin","sort_rank":256,"kind_detail":"4","source":"openstreetmap.org","id:left":-1251450,"alt_name:left:ku":"Erd\u00eahan","name:left":"Ardahan"},"arcs":[9]},{"type":"LineString","properties":{"name:right:uk":"\u041a\u0430\u0440\u0441","name:right:ru":"\u041a\u0430\u0440\u0441","name:left:uk":"\u0410\u0440\u0434\u0430\u0445\u0430\u043d","min_zoom":8.0,"name:right:ku":"Qers","name:left:ru":"\u0410\u0440\u0434\u0430\u0445\u0430\u043d","id:right":-186431,"id":-1251450,"osm_relation":true,"name:right":"Kars","name:left:ku":"Erd\u00eaxan","kind":"region","name":"Ardahan - Kars","sort_rank":256,"kind_detail":"4","source":"openstreetmap.org","id:left":-1251450,"alt_name:left:ku":"Erd\u00eahan","name:left":"Ardahan"},"arcs":[10]},{"type":"LineString","properties":{"kind":"region","name":"Ardahan","sort_rank":256,"kind_detail":"4","min_zoom":8.0,"source":"openstreetmap.org","name:ku":"Erd\u00eaxan","name:uk":"\u0410\u0440\u0434\u0430\u0445\u0430\u043d","name:ru":"\u0410\u0440\u0434\u0430\u0445\u0430\u043d","alt_name:ku":"Erd\u00eahan","id":-1251450,"osm_relation":true},"arcs":[11]},{"type":"LineString","properties":{"name:left:ka":"\u10e8\u10d8\u10e0\u10d0\u10d9\u10d8\u10e1 \u10de\u10e0\u10dd\u10d5\u10d8\u10dc\u10ea\u10d8\u10d0","name:right:uk":"\u041a\u0430\u0440\u0441","name:left:ja":"\u30b7\u30e9\u30af\u5730\u65b9","name:left:az":"\u015eirak m\u0259rzi","id:right":-186431,"name:left:ku":"\u015e\u00eerak","min_zoom":8.0,"name:right:ku":"Qers","name:left:ru":"\u0428\u0438\u0440\u0430\u043a\u0441\u043a\u0430\u044f \u043e\u0431\u043b\u0430\u0441\u0442\u044c","name:right:ru":"\u041a\u0430\u0440\u0441","id":-364077,"osm_relation":true,"name:right":"Kars","kind":"region","name:left:en":"Shirak Province","sort_rank":256,"kind_detail":"4","name:left:de":"Provinz Schirak","name":"\u0547\u056b\u0580\u0561\u056f\u056b \u0574\u0561\u0580\u0566 - Kars","source":"openstreetmap.org","id:left":-364077,"name:left":"\u0547\u056b\u0580\u0561\u056f\u056b \u0574\u0561\u0580\u0566"},"arcs":[12]},{"type":"LineString","properties":{"kind":"region","name:en":"Shirak Province","name":"\u0547\u056b\u0580\u0561\u056f\u056b \u0574\u0561\u0580\u0566","name:ka":"\u10e8\u10d8\u10e0\u10d0\u10d9\u10d8\u10e1 \u10de\u10e0\u10dd\u10d5\u10d8\u10dc\u10ea\u10d8\u10d0","sort_rank":256,"kind_detail":"4","min_zoom":8.0,"name:de":"Provinz Schirak","source":"openstreetmap.org","name:ku":"\u015e\u00eerak","name:az":"\u015eirak m\u0259rzi","name:ru":"\u0428\u0438\u0440\u0430\u043a\u0441\u043a\u0430\u044f \u043e\u0431\u043b\u0430\u0441\u0442\u044c","id":-364077,"osm_relation":true,"name:ja":"\u30b7\u30e9\u30af\u5730\u65b9"},"arcs":[13]}]},"roads":{"type":"GeometryCollection","geometries":[{"type":"LineString","properties":{"kind":"major_road","network":"e-road","sort_rank":380,"kind_detail":"primary","source":"openstreetmap.org","min_zoom":8.0,"shield_text":"691","ref":"D965","id":120436235},"arcs":[16]},{"type":"LineString","properties":{"kind":"major_road","name:en":"Aghmashenebeli Street","network":"AsianHighway","name:ka":"\u10d0\u10e6\u10db\u10d0\u10e8\u10d4\u10dc\u10d4\u10d1\u10da\u10d8\u10e1 \u10e5\u10e3\u10e9\u10d0","sort_rank":380,"kind_detail":"primary","is_bicycle_related":true,"source":"openstreetmap.org","min_zoom":8.0,"shield_text":"82","name:ru":"\u0443\u043b\u0438\u0446\u0430 \u0414\u0430\u0432\u0438\u0442\u0430 \u0410\u0433\u043c\u0430\u0448\u0435\u043d\u0435\u0431\u0435\u043b\u0438","ref":"\u10e1 11","id":102654390},"arcs":[17]},{"type":"MultiLineString","properties":{"source":"openstreetmap.org","kind":"major_road","ref":"\u10e1 13","sort_rank":380,"kind_detail":"primary","is_bicycle_related":true,"min_zoom":8.0},"arcs":[[18],[19],[20],[21],[22]]},{"type":"LineString","properties":{"kind":"major_road","network":"TR-roads","sort_rank":380,"kind_detail":"primary","is_bicycle_related":true,"source":"openstreetmap.org","min_zoom":8.0,"shield_text":"965","ref":"D 965","id":120402644},"arcs":[23]},{"type":"MultiLineString","properties":{"kind":"major_road","name:en":"Tamar Mepe St","network":"e-road","name:ka":"\u10d7\u10d0\u10db\u10d0\u10e0 \u10db\u10d4\u10e4\u10d8\u10e1 \u10e5\u10e3\u10e9\u10d0","sort_rank":380,"kind_detail":"primary","source":"openstreetmap.org","min_zoom":8.0,"landuse_kind":"urban_area","shield_text":"60"},"arcs":[[24],[25]]},{"type":"MultiLineString","properties":{"source":"openstreetmap.org","kind":"major_road","network":"AsianHighway","sort_rank":380,"kind_detail":"primary","min_zoom":8.0,"shield_text":"82"},"arcs":[[26],[27],[28],[29]]},{"type":"LineString","properties":{"kind":"major_road","network":"e-road","sort_rank":380,"kind_detail":"primary","source":"openstreetmap.org","min_zoom":8.0,"shield_text":"691","ref":"D955","id":20528334},"arcs":[30]},{"type":"LineString","properties":{"kind":"major_road","network":"e-road","sort_rank":380,"kind_detail":"primary","is_bicycle_related":true,"source":"openstreetmap.org","min_zoom":8.0,"shield_text":"691","ref":"D 965"},"arcs":[31]},{"type":"LineString","properties":{"kind":"major_road","name:en":"Imereti Street","network":"ge:national","sort_rank":380,"kind_detail":"primary","is_bicycle_related":true,"source":"openstreetmap.org","min_zoom":8.0,"landuse_kind":"residential","shield_text":"1","name:ru":"\u0443\u043b\u0438\u0446\u0430 \u0418\u043c\u0435\u0440\u0435\u0442\u0438","ref":"\u10e1 1"},"arcs":[32]},{"type":"LineString","properties":{"sort_rank":380,"kind_detail":"primary","min_zoom":8.0,"kind":"major_road","source":"openstreetmap.org"},"arcs":[33]},{"type":"LineString","properties":{"kind":"major_road","network":"AsianHighway","sort_rank":380,"kind_detail":"primary","is_bicycle_related":true,"source":"openstreetmap.org","min_zoom":8.0,"shield_text":"82","name:ru":"\u0443\u043b\u0438\u0446\u0430 \u0412\u0430\u0436\u0430 \u041f\u0448\u0430\u0432\u0435\u043b\u0430","ref":"\u10e1 8","id":95777050},"arcs":[34]},{"type":"MultiLineString","properties":{"kind":"major_road","network":"TR-roads","sort_rank":380,"kind_detail":"primary","is_bicycle_related":true,"source":"openstreetmap.org","min_zoom":8.0,"shield_text":"955","ref":"D 955"},"arcs":[[35],[36],[37],[38]]},{"type":"MultiLineString","properties":{"kind":"major_road","name:en":"Aghmashenebeli Street","network":"AsianHighway","name:ka":"\u10d0\u10e6\u10db\u10d0\u10e8\u10d4\u10dc\u10d4\u10d1\u10da\u10d8\u10e1 \u10e5\u10e3\u10e9\u10d0","sort_rank":380,"kind_detail":"primary","is_bicycle_related":true,"source":"openstreetmap.org","min_zoom":8.0,"shield_text":"82","ref":"\u10e1 8","id":102661104},"arcs":[[39],[40]]},{"type":"LineString","properties":{"kind":"major_road","name:en":"Rustaveli Street","network":"AsianHighway","sort_rank":380,"kind_detail":"primary","is_bicycle_related":true,"source":"openstreetmap.org","min_zoom":8.0,"landuse_kind":"park","shield_text":"82","name:ru":"\u0443\u043b\u0438\u0446\u0430 \u0420\u0443\u0441\u0442\u0430\u0432\u0435\u043b\u0438","ref":"\u10e1 8"},"arcs":[41]},{"type":"LineString","properties":{"kind":"major_road","name:en":"Tamarashvili Street","network":"AsianHighway","sort_rank":380,"kind_detail":"primary","is_bicycle_related":true,"source":"openstreetmap.org","min_zoom":8.0,"shield_text":"82","name:ru":"\u0443\u043b\u0438\u0446\u0430 \u0422\u0430\u043c\u0430\u0440\u0430\u0448\u0432\u0438\u043b\u0438","ref":"\u10e1 8","id":275633537},"arcs":[42]},{"type":"LineString","properties":{"kind":"major_road","name:en":"Imereti St","network":"e-road","name:ka":"\u10d8\u10db\u10d4\u10e0\u10d4\u10d7\u10d8\u10e1 \u10e5\u10e3\u10e9\u10d0","sort_rank":380,"kind_detail":"primary","source":"openstreetmap.org","min_zoom":8.0,"landuse_kind":"residential","shield_text":"60","id":103771996},"arcs":[43]},{"type":"MultiLineString","properties":{"source":"openstreetmap.org","kind":"major_road","sort_rank":380,"kind_detail":"primary","ref":"\u10e1 13","min_zoom":8.0},"arcs":[[44],[45],[46]]},{"type":"MultiLineString","properties":{"source":"openstreetmap.org","kind":"major_road","sort_rank":380,"kind_detail":"primary","ref":"\u10e8 21","min_zoom":8.0},"arcs":[[47],[48]]},{"type":"MultiLineString","properties":{"kind":"major_road","network":"e-road","sort_rank":380,"kind_detail":"primary","is_bicycle_related":true,"source":"openstreetmap.org","min_zoom":8.0,"shield_text":"691","ref":"D 955"},"arcs":[[49],[50],[51]]},{"type":"LineString","properties":{"kind":"major_road","name:en":"Aghmashenebeli Street","network":"AsianHighway","name:ka":"\u10d0\u10e6\u10db\u10d0\u10e8\u10d4\u10dc\u10d4\u10d1\u10da\u10d8\u10e1 \u10e5\u10e3\u10e9\u10d0","sort_rank":380,"kind_detail":"primary","is_bicycle_related":true,"source":"openstreetmap.org","min_zoom":8.0,"landuse_kind":"park","shield_text":"82","ref":"\u10e1 8","id":102661104},"arcs":[52]},{"type":"LineString","properties":{"source":"openstreetmap.org","kind":"major_road","landuse_kind":"park","sort_rank":380,"kind_detail":"primary","min_zoom":8.0,"id":420399850},"arcs":[53]},{"type":"LineString","properties":{"source":"openstreetmap.org","kind":"major_road","sort_rank":380,"kind_detail":"primary","ref":"\u10e8 31","min_zoom":8.0},"arcs":[54]},{"type":"MultiLineString","properties":{"kind":"major_road","network":"TR-roads","sort_rank":380,"kind_detail":"primary","source":"openstreetmap.org","min_zoom":8.0,"landuse_kind":"park","shield_text":"010","ref":"D010"},"arcs":[[55],[56]]},{"type":"MultiLineString","properties":{"kind":"major_road","name:en":"Meskheti Street","network":"AsianHighway","sort_rank":380,"kind_detail":"primary","source":"openstreetmap.org","min_zoom":8.0,"shield_text":"82","name:ru":"\u0443\u043b\u0438\u0446\u0430 \u041c\u0435\u0441\u0445\u0435\u0442\u0438","ref":"\u10e1 8"},"arcs":[[57],[58]]},{"type":"LineString","properties":{"kind":"major_road","name:en":"Pirosmani St","sort_rank":380,"kind_detail":"primary","source":"openstreetmap.org","min_zoom":8.0,"landuse_kind":"park","name:ru":"\u0443\u043b\u0438\u0446\u0430 \u041f\u0438\u0440\u043e\u0441\u043c\u0430\u043d\u0438","id":102662117},"arcs":[59]},{"type":"LineString","properties":{"kind":"major_road","name:en":"Davit Aghmashenebeli Street","network":"AsianHighway","name:ka":"\u10d3\u10d0\u10d5\u10d8\u10d3 \u10d0\u10e6\u10db\u10d0\u10e8\u10d4\u10dc\u10d4\u10d1\u10da\u10d8\u10e1 \u10e5\u10e3\u10e9\u10d0","sort_rank":380,"kind_detail":"primary","is_bicycle_related":true,"source":"openstreetmap.org","min_zoom":8.0,"shield_text":"82","name:ru":"\u0443\u043b\u0438\u0446\u0430 \u0414\u0430\u0432\u0438\u0442\u0430 \u0410\u0433\u043c\u0430\u0448\u0435\u043d\u0435\u0431\u0435\u043b\u0438","ref":"\u10e1 11","id":102654392},"arcs":[60]},{"type":"MultiLineString","properties":{"kind":"major_road","network":"TR-roads","sort_rank":380,"kind_detail":"primary","is_bicycle_related":true,"source":"openstreetmap.org","min_zoom":8.0,"shield_text":"010","ref":"D 010 \/ D 955"},"arcs":[[61],[62],[63]]},{"type":"MultiLineString","properties":{"kind":"major_road","network":"AsianHighway","sort_rank":380,"kind_detail":"primary","source":"openstreetmap.org","min_zoom":8.0,"shield_text":"82","ref":"\u10e1 8"},"arcs":[[64],[65],[66],[67]]},{"type":"MultiLineString","properties":{"kind":"major_road","network":"TR-roads","sort_rank":380,"kind_detail":"primary","source":"openstreetmap.org","min_zoom":8.0,"shield_text":"955","ref":"D955"},"arcs":[[68],[69]]},{"type":"MultiLineString","properties":{"kind":"major_road","network":"TR-roads","sort_rank":380,"kind_detail":"primary","is_bicycle_related":true,"source":"openstreetmap.org","min_zoom":8.0,"shield_text":"010","ref":"D 010"},"arcs":[[70],[71],[72]]},{"type":"LineString","properties":{"kind":"major_road","network":"TR-roads","sort_rank":380,"kind_detail":"primary","is_bicycle_related":true,"source":"openstreetmap.org","min_zoom":8.0,"shield_text":"010","ref":"D 965","id":195746407},"arcs":[73]},{"type":"MultiLineString","properties":{"source":"openstreetmap.org","kind":"major_road","ref":"\u10e8 21","sort_rank":380,"kind_detail":"primary","is_bicycle_related":true,"min_zoom":8.0},"arcs":[[74],[75],[76],[77]]},{"type":"MultiLineString","properties":{"kind":"major_road","network":"TR-roads","sort_rank":380,"kind_detail":"primary","source":"openstreetmap.org","min_zoom":8.0,"shield_text":"010","ref":"D010"},"arcs":[[78],[79],[80],[81]]},{"type":"MultiLineString","properties":{"kind":"major_road","network":"AsianHighway","sort_rank":380,"kind_detail":"primary","is_bicycle_related":true,"source":"openstreetmap.org","min_zoom":8.0,"shield_text":"82","ref":"\u10e1 8"},"arcs":[[82],[83],[84],[85],[86],[87],[88],[89],[90]]},{"type":"LineString","properties":{"kind":"major_road","network":"ge:national","sort_rank":380,"kind_detail":"primary","is_bicycle_related":true,"source":"openstreetmap.org","min_zoom":8.0,"landuse_kind":"urban_area","shield_text":"1","ref":"\u10e1 1","id":103772282},"arcs":[91]},{"type":"LineString","properties":{"kind":"major_road","network":"ge:national","sort_rank":380,"kind_detail":"primary","is_bicycle_related":true,"source":"openstreetmap.org","min_zoom":8.0,"landuse_kind":"residential","shield_text":"1","ref":"\u10e1 1","id":103772282},"arcs":[92]},{"type":"MultiLineString","properties":{"kind":"major_road","network":"AsianHighway","sort_rank":380,"kind_detail":"primary","source":"openstreetmap.org","min_zoom":8.0,"shield_text":"82","ref":"\u10e1 11"},"arcs":[[93],[94],[95]]},{"type":"LineString","properties":{"kind":"major_road","name:en":"Borjomi Street","network":"AsianHighway","sort_rank":380,"kind_detail":"primary","is_bicycle_related":true,"source":"openstreetmap.org","min_zoom":8.0,"old_name:en":"Stalin Street","old_name":"\u10e1\u10e2\u10d0\u10da\u10d8\u10dc\u10d8\u10e1 \u10e5\u10e3\u10e9\u10d0 (Stalin Street)","shield_text":"82","name:ru":"\u0443\u043b\u0438\u0446\u0430 \u0411\u043e\u0440\u0436\u043e\u043c\u0438","ref":"\u10e1 8","id":187370995},"arcs":[96]},{"type":"LineString","properties":{"kind":"major_road","name:en":"Borjomi Street","network":"AsianHighway","sort_rank":380,"kind_detail":"primary","is_bicycle_related":true,"source":"openstreetmap.org","min_zoom":8.0,"old_name:en":"Stalin Street","old_name":"\u10e1\u10e2\u10d0\u10da\u10d8\u10dc\u10d8\u10e1 \u10e5\u10e3\u10e9\u10d0 (Stalin Street)","shield_text":"82","name:ru":"\u0443\u043b\u0438\u0446\u0430 \u0411\u043e\u0440\u0436\u043e\u043c\u0438","landuse_kind":"residential","ref":"\u10e1 8"},"arcs":[97]},{"type":"LineString","properties":{"alt_name:ru":"\u0443\u043b. \u0422\u0430\u0432\u0438\u0441\u0443\u0444\u043b\u0435\u0432\u0441\u043a\u0430\u044f","kind":"major_road","network":"AsianHighway","name:ka":"\u10d7\u10d0\u10d5\u10d8\u10e1\u10e3\u10e4\u10da\u10d4\u10d1\u10d8\u10e1 \u10e5\u10e3\u10e9\u10d0","sort_rank":380,"kind_detail":"primary","is_bicycle_related":true,"source":"openstreetmap.org","min_zoom":8.0,"shield_text":"82","name:ru":"\u0443\u043b\u0438\u0446\u0430 \u0421\u0432\u043e\u0431\u043e\u0434\u044b","ref":"\u10e1 11","id":102570674},"arcs":[98]},{"type":"LineString","properties":{"kind":"major_road","name:en":"Meskheti Street","network":"AsianHighway","sort_rank":380,"kind_detail":"primary","source":"openstreetmap.org","min_zoom":8.0,"landuse_kind":"park","shield_text":"82","name:ru":"\u0443\u043b\u0438\u0446\u0430 \u041c\u0435\u0441\u0445\u0435\u0442\u0438","ref":"\u10e1 8","id":420399818},"arcs":[99]},{"type":"MultiLineString","properties":{"kind":"major_road","network":"e-road","sort_rank":380,"kind_detail":"primary","is_bicycle_related":true,"name:ku":"R\u00eaya Qers-Erd\u00eaxan\u00ea","source":"openstreetmap.org","min_zoom":8.0,"shield_text":"691","ref":"D 965"},"arcs":[[100],[101]]},{"type":"MultiLineString","properties":{"kind":"major_road","network":"AsianHighway","sort_rank":380,"kind_detail":"primary","is_bicycle_related":true,"source":"openstreetmap.org","min_zoom":8.0,"shield_text":"82","ref":"\u10e1 11"},"arcs":[[102],[103],[104],[105],[106],[107],[108],[109],[110],[111],[112]]},{"type":"MultiLineString","properties":{"kind":"major_road","name:en":"Tamar Mepe Street","network":"ge:national","name:ka":"\u10d7\u10d0\u10db\u10d0\u10e0 \u10db\u10d4\u10e4\u10d8\u10e1 \u10e5\u10e3\u10e9\u10d0","sort_rank":380,"kind_detail":"primary","is_bicycle_related":true,"source":"openstreetmap.org","min_zoom":8.0,"landuse_kind":"urban_area","shield_text":"1","ref":"\u10e1 1"},"arcs":[[113],[114]]},{"type":"MultiLineString","properties":{"kind":"major_road","name:en":"Aghmashenebeli Street","network":"AsianHighway","sort_rank":380,"kind_detail":"primary","is_bicycle_related":true,"source":"openstreetmap.org","min_zoom":8.0,"shield_text":"82","ref":"\u10e1 8"},"arcs":[[115],[116],[117]]},{"type":"LineString","properties":{"kind":"major_road","name:en":"Rustaveli Street","network":"AsianHighway","sort_rank":380,"kind_detail":"primary","is_bicycle_related":true,"source":"openstreetmap.org","min_zoom":8.0,"shield_text":"82","name:ru":"\u0443\u043b\u0438\u0446\u0430 \u0420\u0443\u0441\u0442\u0430\u0432\u0435\u043b\u0438","ref":"\u10e1 8","id":102661751},"arcs":[118]},{"type":"LineString","properties":{"kind":"major_road","name:en":"Tamar Mepe Street","network":"ge:national","name:ka":"\u10d7\u10d0\u10db\u10d0\u10e0 \u10db\u10d4\u10e4\u10d8\u10e1 \u10e5\u10e3\u10e9\u10d0","sort_rank":380,"kind_detail":"primary","is_bicycle_related":true,"source":"openstreetmap.org","min_zoom":8.0,"shield_text":"1","ref":"\u10e1 1"},"arcs":[119]},{"type":"LineString","properties":{"kind":"major_road","network":"TR-roads","sort_rank":380,"kind_detail":"primary","is_bicycle_related":true,"source":"openstreetmap.org","min_zoom":8.0,"landuse_kind":"park","shield_text":"010","ref":"D 010","id":120402646},"arcs":[120]},{"type":"LineString","properties":{"kind":"major_road","network":"AsianHighway","sort_rank":380,"kind_detail":"primary","is_bicycle_related":true,"source":"openstreetmap.org","min_zoom":8.0,"shield_text":"82","id":222985689},"arcs":[121]},{"type":"MultiLineString","properties":{"kind":"major_road","network":"TR-roads","sort_rank":380,"kind_detail":"primary","source":"openstreetmap.org","min_zoom":8.0,"shield_text":"010","ref":"D010;D955"},"arcs":[[122],[123],[124]]}]},"earth":{"type":"GeometryCollection","geometries":[{"type":"Polygon","properties":{"sort_rank":10,"source":"naturalearthdata.com","kind":"earth","min_zoom":0.0,"id":4743},"arcs":[[125]]}]},"landuse":{"type":"GeometryCollection","geometries":[{"type":"MultiPolygon","properties":{"source":"openstreetmap.org","kind":"park","tier":2,"area":51544931,"sort_rank":24,"min_zoom":8.0,"osm_relation":true},"arcs":[[[126]],[[127]]]},{"type":"MultiPolygon","properties":{"source":"openstreetmap.org","kind":"park","area":396468000,"tier":2,"id":395946513,"min_zoom":6.0,"sort_rank":24},"arcs":[[[128]],[[129]]]},{"type":"MultiPolygon","properties":{"source":"openstreetmap.org","kind":"park","tier":2,"area":145164742,"sort_rank":24,"min_zoom":8.0},"arcs":[[[130]],[[131]],[[132]]]},{"type":"MultiPolygon","properties":{"source":"naturalearthdata.com","kind":"urban_area","name":"","area":1289089409,"sort_rank":11,"min_zoom":4.0},"arcs":[[[133]]]},{"type":"Polygon","properties":{"source":"openstreetmap.org","kind":"park","area":1392300032,"tier":2,"id":43159840,"min_zoom":4.0,"sort_rank":24},"arcs":[[134]]},{"type":"Polygon","properties":{"kind":"residential","name:en":"Khashuri","name":"\u10ee\u10d0\u10e8\u10e3\u10e0\u10d8","area":16507800,"sort_rank":20,"id":257600550,"name:fr":"Khachouri","name:de":"Chaschuri","source":"openstreetmap.org","min_zoom":8.0,"name:ru":"\u0425\u0430\u0448\u0443\u0440\u0438","tier":2,"name:et":"Ha\u0161uri","name:sr":"\u0425\u0430\u0448\u0443\u0440\u0438"},"arcs":[[135]]}]}},"type":"Topology","transform":{"translate":[42.1875,40.9798980696],"scale":[0.0003433228,0.0002570987]},"arcs":[[[3748,557],[-46,-13],[-33,-81],[34,-94],[37,-28],[-9,-144],[46,-56],[104,-8],[215,-117]],[[4096,613],[-1,3],[-74,27],[-273,-86]],[[3748,557],[-75,207],[-214,104],[-131,-8],[-293,-111],[24,45],[-126,272],[-120,-32],[-74,30],[245,141],[2,64],[-86,-6],[-69,45],[-70,10],[-114,149],[-156,77],[-30,-24],[-40,19],[-44,121],[-39,18],[-3,51],[-63,39],[-1,66],[-197,107],[4,83],[-73,8],[-71,-124],[-143,99],[-14,83],[68,148],[24,10],[30,124],[-134,-5],[-37,-45],[-118,75],[-138,16],[-268,-60],[-79,-105],[20,-57],[-46,-70],[24,-59],[-119,-75],[-57,-73],[34,-108],[-12,-29],[-82,32],[-56,-36],[-71,11],[-142,110],[-204,4],[-130,97],[-172,23],[-60,-30],[-52,70]],[[0,3261],[74,-49],[14,-78],[24,-8],[46,53],[83,34],[116,-3],[37,51],[100,-10],[117,107],[91,-31],[37,-105],[148,-33]],[[887,3189],[135,15],[144,-39],[49,31],[7,63],[47,59],[125,-8],[-16,98],[28,65],[-20,61],[16,42],[-32,110],[-64,66],[-161,-6],[-97,59],[-94,8],[-140,120],[-91,-22],[-58,79],[-28,106]],[[969,1777],[12,29],[-34,108],[57,73],[119,75],[-24,59],[46,70],[-12,87],[76,76]],[[0,2058],[52,-70],[60,30],[172,-23],[130,-97],[204,-4],[142,-110],[71,-11],[56,36],[82,-32]],[[1209,2354],[-97,216],[-151,93],[-18,105],[-53,82],[51,76],[31,120],[-85,143]],[[3730,208],[10,133],[-37,28],[-34,94],[33,81],[46,13]],[[969,1777],[0,-114],[207,-227],[-61,-346],[-200,-342],[-419,-364],[54,-325],[-15,-59]],[[2932,0],[107,87],[243,300],[85,61],[53,5],[184,-103],[75,-109],[51,-33]],[[3748,557],[-75,207],[-214,104],[-131,-8],[-293,-111],[24,45],[-126,272],[-120,-32],[-74,30],[245,141],[2,64],[-86,-6],[-69,45],[-70,10],[-114,149],[-156,77],[-30,-24],[-40,19],[-44,121],[-39,18],[-3,51],[-63,39],[-1,66],[-197,107],[4,83],[-73,8],[-71,-124],[-143,99],[-13,87],[67,144],[24,10],[33,122],[-137,-3],[-37,-45],[-118,75],[-138,16],[-263,-59]],[[3730,208],[47,-67],[104,-8],[215,-117]],[[4096,613],[-1,3],[-74,27],[-273,-86]],[[3551,3373],[-31,-40],[66,-109],[124,9],[62,-51],[-45,29],[4,-17],[-64,-1],[71,-82],[-29,-68],[12,-22],[27,28],[150,-39]],[[4096,3965],[-23,1],[-80,84]],[[1912,325],[-1,2]],[[4077,1122],[1,-2]],[[2953,992],[-1,0]],[[2953,992],[10,4]],[[2963,996],[184,21],[126,74],[77,29],[36,-12],[135,148],[-9,33],[128,223],[87,95]],[[3727,1607],[2,2]],[[3728,1609],[-1,-2]],[[1883,533],[3,-3]],[[4016,4060],[0,1]],[[4050,4008],[0,1]],[[2371,2592]],[[2313,2578],[0,-1],[1,0],[-1,1]],[[2374,2584],[0,-1],[1,1],[-1,0]],[[2410,2566],[0,-1],[1,0],[-1,1]],[[1781,1595],[1,0]],[[1886,534],[0,-2]],[[4096,3919],[-51,70]],[[3469,3337]],[[2274,2571],[39,5]],[[1174,274],[125,68],[116,121]],[[1415,463],[22,4]],[[1437,467],[100,0],[56,36]],[[1946,602],[-3,4]],[[3554,3386],[-2,-9]],[[3567,3437],[-7,-27]],[[3507,3364],[-36,-15]],[[2369,2591],[-55,-12]],[[4045,3989],[0,2]],[[3732,1610],[2,-1]],[[3734,1609],[-2,1]],[[3734,1609],[65,-41]],[[3766,1676],[2,0]],[[3779,1687],[-10,-1]],[[1837,2359],[-66,-77],[-11,-134],[-47,-51],[-115,-50],[16,-26],[-16,-21],[-35,14],[-8,-32],[-68,-34],[93,-72],[-34,23],[-12,-16],[63,-68],[-15,-84],[60,-80],[73,9],[10,-37],[56,-28]],[[1782,1595],[87,-182],[77,-22],[-75,-152],[7,-47],[70,-71],[-25,-77],[-5,-200],[77,-144],[-56,-99]],[[1837,2362],[1,-1],[0,4],[-1,-3]],[[3560,3410],[-6,-24]],[[3471,3349],[0,-1],[0,1]],[[4095,1110],[1,0]],[[691,1005],[39,-40],[-11,21],[50,-15],[0,-21],[42,4]],[[815,951],[8,-52],[88,-24]],[[3469,3337],[-85,-41],[-7,-48]],[[3471,3347],[-2,-10]],[[3467,3351],[8,5]],[[4067,1142],[10,-20]],[[1603,521],[57,50],[143,-6],[78,-31]],[[1883,533],[3,-1]],[[1887,535],[52,66]],[[2273,2571],[1,0]],[[2557,2765],[26,17],[83,-26],[62,23],[43,26],[22,67]],[[2852,2927],[-1,-1]],[[3851,3761],[-1,-2]],[[1183,0],[-47,105],[-5,151],[43,18]],[[1599,515],[-1,-4]],[[930,872],[91,-18],[60,18],[-3,-44],[79,2],[-1,-50],[66,-98],[94,-20],[179,-132],[18,-42],[83,24]],[[1939,601],[57,-23],[68,41],[24,-34],[107,-13],[88,23],[176,-31],[130,72],[153,-47],[85,-178],[80,-8],[251,84],[84,-80],[46,-11],[-6,-38],[37,-3],[12,-43]],[[3245,0],[22,268],[18,33],[45,9]],[[1886,532],[1,3]],[[3731,1612],[-3,-3]],[[3729,1609],[2,3]],[[3731,1612],[35,64]],[[3768,1676],[1,10]],[[0,1099],[133,84],[62,-42],[308,-87],[59,-107],[28,4],[2,34],[10,-19],[89,39]],[[811,954],[4,-3]],[[1599,515],[-1,-4]],[[3331,312],[-1,-2]],[[1838,2365],[80,14],[41,81],[93,26],[101,71],[120,14]],[[2313,2577]],[[2314,2577],[-1,1]],[[2371,2592],[0,-1]],[[2409,2617],[164,97],[-16,51]],[[2793,2872],[58,54]],[[2852,2927],[110,58],[33,52],[88,18],[24,61],[93,-26],[95,109],[82,49]],[[3850,3759],[-79,-55],[2,-58],[-102,-86],[-27,2],[-77,-125]],[[4076,3905],[-215,-81],[-10,-63]],[[4047,3997],[3,11]],[[4045,3991],[2,6]],[[2529,2495],[-18,-6],[4,29],[-76,57],[-28,-10]],[[3720,1861],[-43,-3],[-50,38],[-41,-12],[-114,74],[-121,31],[-158,-41],[-43,17],[-31,208],[41,84],[-140,140],[-189,-8],[-39,46],[-28,-4],[-3,41],[-98,8],[-11,-26],[-92,-9],[7,52],[-36,-2]],[[3721,1861],[16,-113],[42,-61]],[[4083,3907],[-7,-2]],[[4083,3907],[13,5]],[[4078,1120],[18,-14]],[[3471,3349],[0,-2]],[[1911,327],[-76,74],[51,126]],[[1912,325],[124,-202],[26,-123]],[[2371,2591]],[[2371,2591],[0,1]],[[2374,2585],[-3,6]],[[2374,2585],[0,-1]],[[2374,2584],[0,1]],[[2375,2583],[1,0]],[[2376,2583],[-1,1]],[[2410,2566],[-34,17]],[[2531,2495],[-2,0]],[[3720,1861],[1,0]],[[3799,1568],[4,-170],[264,-256]],[[4016,4061],[-3,0]],[[4050,4009],[-34,51]],[[2390,2604],[-19,-11]],[[2408,2616],[-18,-12]],[[2409,2617],[-1,-1]],[[3552,3377],[-45,-13]],[[4013,4061],[-124,35]],[[911,875],[19,-3]],[[2371,2592],[-1,0],[1,0]],[[1598,511],[1,4]],[[1881,534],[2,-1]],[[1887,535],[-1,-1]],[[0,0],[0,4096],[4096,0],[0,-4096],[-4096,0]],[[665,939],[29,74],[60,-16],[92,-71],[80,-15],[5,-58],[-77,-5],[-37,-40],[-62,65],[-40,-3],[-50,69]],[[815,1282],[30,33],[-20,22],[11,43],[52,-9],[14,-105],[-56,-28],[-4,-27],[-27,71]],[[3722,2619],[82,99],[176,72],[54,65],[62,33],[0,-249],[-97,-19],[-41,-69],[-55,-22],[-36,-1],[-9,26],[-136,65]],[[4096,2437],[-14,18],[-88,43],[102,83],[0,-144]],[[665,939],[29,74],[60,-16],[92,-71],[80,-15],[5,-58],[-77,-5],[-37,-40],[-62,65],[-40,-3],[-50,69]],[[815,1282],[30,33],[-20,22],[11,43],[52,-9],[14,-105],[-56,-28],[-4,-27],[-27,71]],[[3378,2317],[56,107],[198,203],[19,-133],[-28,-55],[-104,-26],[-8,-82],[-43,-67],[-65,3],[-25,50]],[[4039,4096],[57,0],[0,-153],[-39,-10],[-62,33],[19,103],[25,27]],[[1655,3227],[111,73],[1,54],[23,4],[215,-71],[116,38],[26,-53],[58,-24],[42,3],[72,89],[224,-3],[11,68],[-60,202],[100,27],[0,76],[36,78],[46,46],[82,11],[44,70],[50,-43],[88,44],[27,-84],[91,-7],[101,-59],[112,-18],[37,-35],[62,79],[84,56],[75,-28],[6,-78],[30,-6],[25,31],[-32,40],[18,30],[-15,25],[74,56],[94,22],[29,-26],[-35,-64],[77,-22],[28,-65],[-80,-67],[-45,16],[-27,-23],[73,-35],[-86,-59],[-57,4],[2,-80],[-104,10],[-52,-32],[108,-29],[0,-80],[-157,-72],[-56,32],[24,-82],[-127,-88],[-35,-70],[-70,24],[-62,-14],[-4,-35],[-39,12],[11,-44],[-38,13],[-61,-28],[-4,-30],[-53,3],[-9,-41],[-144,158],[-59,-48],[-68,1],[-96,-48],[-51,10],[-116,88],[-51,5],[-36,-25],[-104,4],[-41,-36],[-31,7],[-15,-37],[-55,-9],[-111,-130],[-42,47],[-10,57],[-89,86],[-14,104],[-92,25]],[[4025,3984],[34,20],[37,-27],[0,-97],[-15,-2],[3,54],[-48,-11],[23,28],[-34,35]]]}