{"objects":{"water":{"type":"GeometryCollection","geometries":[{"type":"Polygon","properties":{"source":"naturalearthdata.com","kind":"ocean","area":1576712559132672,"sort_rank":200,"min_zoom":0.0,"id":1},"arcs":[[3],[4],[5]]},{"type":"LineString","properties":{"source":"naturalearthdata.com","kind":"ocean","sort_rank":205,"boundary":true,"min_zoom":0.0,"id":2063},"arcs":[6]},{"type":"LineString","properties":{"source":"naturalearthdata.com","kind":"ocean","sort_rank":205,"boundary":true,"min_zoom":0.0,"id":2069},"arcs":[7]}]},"buildings":{"type":"GeometryCollection","geometries":[]},"places":{"type":"GeometryCollection","geometries":[]},"transit":{"type":"GeometryCollection","geometries":[]},"pois":{"type":"GeometryCollection","geometries":[]},"boundaries":{"type":"GeometryCollection","geometries":[{"type":"LineString","properties":{"name:ka":"\u10e2\u10e3\u10d5\u10d0\u10da\u10e3","name:mr":"\u091f\u0941\u0935\u093e\u0932\u0941","name:ko":"\ud22c\ubc1c\ub8e8","name:kn":"\u0c9f\u0cc1\u0cb5\u0cbe\u0cb2\u0cc1","name:km":"\u1791\u17bc\u179c\u17c9\u17b6\u179b\u17bc","name:ar":"\u062a\u0648\u0641\u0627\u0644\u0648","name:th":"\u0e1b\u0e23\u0e30\u0e40\u0e17\u0e28\u0e15\u0e39\u0e27\u0e32\u0e25\u0e39","name:ti":"\u1271\u126b\u1209","name:ks":"\u062a\u0648\u0657\u0648\u0627\u0644\u0648\u0657","name:to":"T\u016bvalu","name:eo":"Tuvalo","name:ml":"\u0d24\u0d41\u0d35\u0d3e\u0d32\u0d41","name:ru":"\u0422\u0443\u0432\u0430\u043b\u0443","name:ta":"\u0ba4\u0bc1\u0bb5\u0bbe\u0bb2\u0bc2","id":-2177266,"name:mk":"\u0422\u0443\u0432\u0430\u043b\u0443","name:te":"\u0c1f\u0c41\u0c35\u0c3e\u0c32\u0c41","name:zu":"i-Tuvalu","name:mn":"\u0422\u0443\u0432\u0430\u043b\u0443","name:cy":"Twfalw","name:ff":"Tuwaluu","sort_rank":262,"kind_detail":"2","name:mg":"Toval\u00f2","name:lo":"\u0e95\u0eb9\u0ea7\u0eb2\u0ea5\u0eb9","name:dz":"\u0f4f\u0f74\u0f0b\u0f5d\u0f0b\u0f63\u0f74","source":"openstreetmap.org","old_name":"Ellice Islands","name:fy":"T\u00fbval\u00fb","name:vo":"Tuvalu\u00e4ns","name:zh":"\u5410\u74e6\u9c81","name:ur":"\u0679\u0648\u0648\u0627\u0644\u0648","name:ja":"\u30c4\u30d0\u30eb","name:si":"\u0da7\u0dd4\u0dc0\u0dcf\u0dbd\u0dd6","name:hi":"\u0924\u0941\u0935\u093e\u0932\u0941","name:sg":"T\u00fcval\u00fc","name:he":"\u05d8\u05d5\u05d1\u05dc\u05d5","name:ne":"\u0924\u0941\u092d\u093e\u0932\u0941","name:ha":"Tubalu","name:bn":"\u099f\u09c1\u09ad\u09be\u09b2\u09c1","name:bo":"\u0f50\u0f74\u0f0b\u0f5d\u0f0b\u0f63\u0f74\u0f0d","name:uk":"\u0422\u0443\u0432\u0430\u043b\u0443","name:hy":"\u054f\u0578\u0582\u057e\u0561\u056c\u0578\u0582","name:be":"\u0422\u0443\u0432\u0430\u043b\u0443","min_zoom":8.0,"name:bg":"\u0422\u0443\u0432\u0430\u043b\u0443","name:or":"\u0b1f\u0b41\u0b2d\u0b3e\u0b32\u0b41","name:sr":"\u0422\u0443\u0432\u0430\u043b\u0443","osm_relation":true,"name:el":"\u03a4\u03bf\u03c5\u03b2\u03b1\u03bb\u03bf\u03cd","kind":"country","name":"Tuvalu","name:is":"T\u00faval\u00fa","name:gd":"Tubhalu","name:ee":"Tuvalu nutome","name:ku":"T\u00fbval\u00fb","name:fa":"\u062a\u0648\u0648\u0627\u0644\u0648","maritime_boundary":true,"name:gu":"\u0aa4\u0ac1\u0ab5\u0abe\u0ab2\u0ac1","name:am":"\u1271\u126b\u1209","name:yo":"Or\u00edl\u1eb9\u0301\u00e8de Tufalu"},"arcs":[0]},{"type":"LineString","properties":{"name:ka":"\u10e2\u10e3\u10d5\u10d0\u10da\u10e3","name:mr":"\u091f\u0941\u0935\u093e\u0932\u0941","name:ko":"\ud22c\ubc1c\ub8e8","name:kn":"\u0c9f\u0cc1\u0cb5\u0cbe\u0cb2\u0cc1","name:km":"\u1791\u17bc\u179c\u17c9\u17b6\u179b\u17bc","name:ar":"\u062a\u0648\u0641\u0627\u0644\u0648","name:th":"\u0e1b\u0e23\u0e30\u0e40\u0e17\u0e28\u0e15\u0e39\u0e27\u0e32\u0e25\u0e39","name:ti":"\u1271\u126b\u1209","name:ks":"\u062a\u0648\u0657\u0648\u0627\u0644\u0648\u0657","name:to":"T\u016bvalu","name:eo":"Tuvalo","name:ml":"\u0d24\u0d41\u0d35\u0d3e\u0d32\u0d41","name:ru":"\u0422\u0443\u0432\u0430\u043b\u0443","name:ta":"\u0ba4\u0bc1\u0bb5\u0bbe\u0bb2\u0bc2","id":-2177266,"name:mk":"\u0422\u0443\u0432\u0430\u043b\u0443","name:te":"\u0c1f\u0c41\u0c35\u0c3e\u0c32\u0c41","name:zu":"i-Tuvalu","name:mn":"\u0422\u0443\u0432\u0430\u043b\u0443","name:cy":"Twfalw","name:ff":"Tuwaluu","sort_rank":262,"kind_detail":"2","name:mg":"Toval\u00f2","name:lo":"\u0e95\u0eb9\u0ea7\u0eb2\u0ea5\u0eb9","name:dz":"\u0f4f\u0f74\u0f0b\u0f5d\u0f0b\u0f63\u0f74","source":"openstreetmap.org","old_name":"Ellice Islands","name:fy":"T\u00fbval\u00fb","name:vo":"Tuvalu\u00e4ns","name:zh":"\u5410\u74e6\u9c81","name:ur":"\u0679\u0648\u0648\u0627\u0644\u0648","name:ja":"\u30c4\u30d0\u30eb","name:si":"\u0da7\u0dd4\u0dc0\u0dcf\u0dbd\u0dd6","name:hi":"\u0924\u0941\u0935\u093e\u0932\u0941","name:sg":"T\u00fcval\u00fc","name:he":"\u05d8\u05d5\u05d1\u05dc\u05d5","name:ne":"\u0924\u0941\u092d\u093e\u0932\u0941","name:ha":"Tubalu","name:bn":"\u099f\u09c1\u09ad\u09be\u09b2\u09c1","name:bo":"\u0f50\u0f74\u0f0b\u0f5d\u0f0b\u0f63\u0f74\u0f0d","name:uk":"\u0422\u0443\u0432\u0430\u043b\u0443","name:hy":"\u054f\u0578\u0582\u057e\u0561\u056c\u0578\u0582","name:be":"\u0422\u0443\u0432\u0430\u043b\u0443","min_zoom":8.0,"name:bg":"\u0422\u0443\u0432\u0430\u043b\u0443","name:or":"\u0b1f\u0b41\u0b2d\u0b3e\u0b32\u0b41","name:sr":"\u0422\u0443\u0432\u0430\u043b\u0443","osm_relation":true,"name:el":"\u03a4\u03bf\u03c5\u03b2\u03b1\u03bb\u03bf\u03cd","kind":"country","name":"Tuvalu","name:is":"T\u00faval\u00fa","name:gd":"Tubhalu","name:ee":"Tuvalu nutome","name:ku":"T\u00fbval\u00fb","name:fa":"\u062a\u0648\u0648\u0627\u0644\u0648","maritime_boundary":true,"name:gu":"\u0aa4\u0ac1\u0ab5\u0abe\u0ab2\u0ac1","name:am":"\u1271\u126b\u1209","name:yo":"Or\u00edl\u1eb9\u0301\u00e8de Tufalu"},"arcs":[1]},{"type":"LineString","properties":{"name:ka":"\u10e2\u10e3\u10d5\u10d0\u10da\u10e3","name:mr":"\u091f\u0941\u0935\u093e\u0932\u0941","name:ko":"\ud22c\ubc1c\ub8e8","name:kn":"\u0c9f\u0cc1\u0cb5\u0cbe\u0cb2\u0cc1","name:km":"\u1791\u17bc\u179c\u17c9\u17b6\u179b\u17bc","name:ar":"\u062a\u0648\u0641\u0627\u0644\u0648","name:th":"\u0e1b\u0e23\u0e30\u0e40\u0e17\u0e28\u0e15\u0e39\u0e27\u0e32\u0e25\u0e39","name:ti":"\u1271\u126b\u1209","name:ks":"\u062a\u0648\u0657\u0648\u0627\u0644\u0648\u0657","name:to":"T\u016bvalu","name:eo":"Tuvalo","name:ml":"\u0d24\u0d41\u0d35\u0d3e\u0d32\u0d41","name:ru":"\u0422\u0443\u0432\u0430\u043b\u0443","name:ta":"\u0ba4\u0bc1\u0bb5\u0bbe\u0bb2\u0bc2","id":-2177266,"name:mk":"\u0422\u0443\u0432\u0430\u043b\u0443","name:te":"\u0c1f\u0c41\u0c35\u0c3e\u0c32\u0c41","name:zu":"i-Tuvalu","name:mn":"\u0422\u0443\u0432\u0430\u043b\u0443","name:cy":"Twfalw","name:ff":"Tuwaluu","sort_rank":262,"kind_detail":"2","name:mg":"Toval\u00f2","name:lo":"\u0e95\u0eb9\u0ea7\u0eb2\u0ea5\u0eb9","name:dz":"\u0f4f\u0f74\u0f0b\u0f5d\u0f0b\u0f63\u0f74","source":"openstreetmap.org","old_name":"Ellice Islands","name:fy":"T\u00fbval\u00fb","name:vo":"Tuvalu\u00e4ns","name:zh":"\u5410\u74e6\u9c81","name:ur":"\u0679\u0648\u0648\u0627\u0644\u0648","name:ja":"\u30c4\u30d0\u30eb","name:si":"\u0da7\u0dd4\u0dc0\u0dcf\u0dbd\u0dd6","name:hi":"\u0924\u0941\u0935\u093e\u0932\u0941","name:sg":"T\u00fcval\u00fc","name:he":"\u05d8\u05d5\u05d1\u05dc\u05d5","name:ne":"\u0924\u0941\u092d\u093e\u0932\u0941","name:ha":"Tubalu","name:bn":"\u099f\u09c1\u09ad\u09be\u09b2\u09c1","name:bo":"\u0f50\u0f74\u0f0b\u0f5d\u0f0b\u0f63\u0f74\u0f0d","name:uk":"\u0422\u0443\u0432\u0430\u043b\u0443","name:hy":"\u054f\u0578\u0582\u057e\u0561\u056c\u0578\u0582","name:be":"\u0422\u0443\u0432\u0430\u043b\u0443","min_zoom":8.0,"name:bg":"\u0422\u0443\u0432\u0430\u043b\u0443","name:or":"\u0b1f\u0b41\u0b2d\u0b3e\u0b32\u0b41","name:sr":"\u0422\u0443\u0432\u0430\u043b\u0443","osm_relation":true,"name:el":"\u03a4\u03bf\u03c5\u03b2\u03b1\u03bb\u03bf\u03cd","kind":"country","name":"Tuvalu","name:is":"T\u00faval\u00fa","name:gd":"Tubhalu","name:ee":"Tuvalu nutome","name:ku":"T\u00fbval\u00fb","name:fa":"\u062a\u0648\u0648\u0627\u0644\u0648","maritime_boundary":true,"name:gu":"\u0aa4\u0ac1\u0ab5\u0abe\u0ab2\u0ac1","name:am":"\u1271\u126b\u1209","name:yo":"Or\u00edl\u1eb9\u0301\u00e8de Tufalu"},"arcs":[2]}]},"roads":{"type":"GeometryCollection","geometries":[]},"earth":{"type":"GeometryCollection","geometries":[{"type":"MultiPolygon","properties":{"sort_rank":10,"source":"naturalearthdata.com","min_zoom":0.0,"kind":"earth","area":2751582},"arcs":[[[8]],[[9]]]}]},"landuse":{"type":"GeometryCollection","geometries":[]}},"type":"Topology","transform":{"translate":[175.78125,-7.0136679276],"scale":[0.0003433228,0.000341231]},"arcs":[[[213,4096],[31,-269],[144,-242],[378,-280],[131,-52],[151,-19],[148,20],[137,56],[118,86],[98,120],[64,135],[28,150],[-8,149],[-47,146]],[[4096,72],[-276,-4],[-134,-68]],[[4096,3079],[-125,-190],[-45,-227],[44,-228],[126,-194]],[[0,4096],[4096,0],[0,-4096],[-4096,0],[0,4096]],[[1031,3871],[39,-41],[-24,57],[-31,29],[-13,-5],[29,-40]],[[1567,2123],[-14,-38],[23,21],[2,18],[-11,-1]],[[1031,3871],[-29,40],[13,5],[31,-29],[24,-57],[-39,41]],[[1553,2085],[14,38],[11,1],[-2,-18],[-23,-21]],[[1576,2106],[-23,-21],[14,38],[11,1],[-2,-18]],[[1046,3887],[24,-57],[-39,41],[-29,40],[13,5],[31,-29]]]}