{"objects":{"water":{"type":"GeometryCollection","geometries":[{"type":"Polygon","properties":{"source":"naturalearthdata.com","kind":"ocean","area":1576712559132672,"sort_rank":200,"min_zoom":0.0,"id":1},"arcs":[[1],[2]]},{"type":"LineString","properties":{"source":"naturalearthdata.com","kind":"ocean","sort_rank":205,"boundary":true,"min_zoom":0.0,"id":2569},"arcs":[3]},{"type":"MultiLineString","properties":{"source":"naturalearthdata.com","kind":"ocean","sort_rank":205,"boundary":true,"min_zoom":0.0,"id":2570},"arcs":[[4],[5]]}]},"buildings":{"type":"GeometryCollection","geometries":[]},"places":{"type":"GeometryCollection","geometries":[{"type":"Point","properties":{"name:ia":"Samoa American","name:io":"Samoa Usana","name:is":"Bandar\u00edska Sam\u00f3a","name:it":"Samoa Americane","name:vi":"Samoa thu\u1ed9c M\u1ef9","name:ru":"\u0410\u043c\u0435\u0440\u0438\u043a\u0430\u043d\u0441\u043a\u043e\u0435 \u0421\u0430\u043c\u043e\u0430","name:pl":"Samoa Ameryka\u0144skie","id":506535828,"name:ca":"Samoa Nord-americana","name:fa":"\u0633\u0627\u0645\u0648\u0622\u06cc \u0622\u0645\u0631\u06cc\u06a9\u0627","name:fi":"Amerikan Samoa","name:da":"Amerikansk Samoa","name:de":"Amerikanisch-Samoa","source":"openstreetmap.org","name:fr":"Samoa Am\u00e9ricaines","name:be":"\u0410\u043c\u0435\u0440\u044b\u043a\u0430\u043d\u0441\u043a\u0430\u0435 \u0421\u0430\u043c\u043e\u0430","name:zh":"\u7f8e\u5c5e\u8428\u6469\u4e9a","name:sm":"Amerika S\u0101moa","name:sk":"Americk\u00e1 Samoa","name:ja":"\u30a2\u30e1\u30ea\u30ab\u9818\u30b5\u30e2\u30a2","name":"American Samoa","name:no":"Amerikansk Samoa","name:he":"\u05e1\u05de\u05d5\u05d0\u05d4 \u05d4\u05d0\u05de\u05e8\u05d9\u05e7\u05e0\u05d9\u05ea","kind":"country","name:br":"Samoa Amerikan","name:uk":"\u0410\u043c\u0435\u0440\u0438\u043a\u0430\u043d\u0441\u044c\u043a\u0435 \u0421\u0430\u043c\u043e\u0430","name:sv":"Amerikanska Samoa","min_zoom":2.0,"name:hr":"Ameri\u010dka Samoa","name:sr":"\u0410\u043c\u0435\u0440\u0438\u0447\u043a\u0430 \u0421\u0430\u043c\u043e\u0430","population":65600,"name:el":"\u0391\u03bc\u03b5\u03c1\u03b9\u03ba\u03b1\u03bd\u03b9\u03ba\u03ad\u03c2 \u03a3\u03b1\u03bc\u03cc\u03b1","name:eo":"Usona Samoo","name:uz":"Amerika Samoasi","name:ku":"Samoaya Amer\u00eekan\u00ee","name:gv":"Samoa Americaanagh","name:nl":"Amerikaans-Samoa","name:es":"Samoa Americana"},"coordinates":[2534,2995]},{"type":"Point","properties":{"source":"naturalearthdata.com","kind":"locality","name":"Pago Pago","country_capital":true,"population":12576,"min_zoom":5.0,"id":6756},"coordinates":[2493,3033]}]},"transit":{"type":"GeometryCollection","geometries":[]},"pois":{"type":"GeometryCollection","geometries":[{"type":"Point","properties":{"kind":"protected_area","protect_class":"2","area":18151600,"source":"openstreetmap.org","min_zoom":8.0,"tier":2,"id":-4767792,"osm_relation":true,"name":"National Park of American Samoa"},"coordinates":[2535,3102]}]},"boundaries":{"type":"GeometryCollection","geometries":[{"type":"LineString","properties":{"name:ka":"\u10e1\u10d0\u10db\u10dd\u10d0","name:ko":"\uc0ac\ubaa8\uc544","name:kn":"\u0cb8\u0cae\u0ccb\u0cb5\u0cbe","name:km":"\u179f\u17b6\u1798\u17bc\u17a2\u17b6","name:cs":"Samoa","name:ku":"Samoa","name:ti":"\u1233\u121e\u12a0","name:ks":"\u0633\u06cc\u0645\u0648\u0648\u0627","name:to":"Ha\u02bbamoa","name:sv":"Samoa","name:or":"\u0b38\u0b3e\u0b2e\u0b4b\u0b06","name:pl":"Samoa","name:ta":"\u0b9a\u0bae\u0bcb\u0bb5\u0bbe","name:ca":"Samoa","name:te":"\u0c38\u0c2e\u0c4b\u0c35\u0c3e","name:li":"Samoa","sort_rank":262,"name:da":"Samoa","name:de":"Samoa","name:dz":"\u0f66\u0f0b\u0f58\u0f7c\u0f0b\u0f68","source":"openstreetmap.org","name:yo":"Or\u00edl\u1eb9\u0301\u00e8de Sam\u1ecd","name:lv":"Samoa","name:hi":"\u0938\u092e\u094b\u0906","name:he":"\u05e1\u05de\u05d5\u05d0\u05d4","name:eo":"Samoo","name:ur":"\u0633\u0627\u0645\u0648\u0622","old_name:eo":"Okcidenta Samoo","name:lg":"Samowa","name:uk":"\u0421\u0430\u043c\u043e\u0430","name:hy":"\u054d\u0561\u0574\u0578\u0561","name:hu":"Szamoa","name:hr":"Samoa","name:lo":"\u0e8a\u0eb2\u0ea1\u0ebb\u0ea7","name:el":"\u03a3\u03b1\u03bc\u03cc\u03b1","kind":"country","name:en":"Samoa","name":"S\u0101moa","name:ee":"Samoa nutome","min_zoom":8.0,"name:th":"\u0e1b\u0e23\u0e30\u0e40\u0e17\u0e28\u0e0b\u0e32\u0e21\u0e31\u0e27","name:bg":"\u0421\u0430\u043c\u043e\u0430","name:es":"Samoa","name:ia":"Samoa","name:rn":"Samowa","name:mr":"\u0938\u093e\u092e\u094b\u0906","name:ar":"\u0633\u0627\u0645\u0648\u0627","official_name":"Malo Sa'oloto Tuto'atasi o S\u0101moa","name:is":"Sam\u00f3a","name:am":"\u1233\u121e\u12a0","name:it":"Samoa","name:ru":"\u0421\u0430\u043c\u043e\u0430","name:ml":"\u0d38\u0d3e\u0d2e\u0d4b\u0d35","name:mn":"\u0421\u0430\u043c\u043e\u0430","name:mi":"H\u0101moa","id":-1872673,"name:mk":"\u0421\u0430\u043c\u043e\u0430","name:vo":"Samovu\u00e4ns","name:zu":"i-Samoa","name:ff":"Samowaa","kind_detail":"2","name:fo":"S\u00e1moa","name:fr":"Samoa","name:fy":"Samo\u00e4","name:zh":"\u8428\u6469\u4e9a","name:nl":"Samoa","name:ja":"\u30b5\u30e2\u30a2","name:si":"\u0dc3\u0dd0\u0db8\u0ddd\u0dc0\u0dcf","name:no":"Samoa","name:sg":"Samo\u00e4a","name:ne":"\u0938\u093e\u092e\u094b\u0906","name:br":"Samoa","name:bm":"Samowa","name:bn":"\u09b8\u09be\u09ae\u09cb\u09af\u09bc\u09be","name:bo":"\u0f53\u0f74\u0f0b\u0f56\u0f0b\u0f66\u0f0b\u0f58\u0f7c\u0f0b\u0f60\u0f0d","name:sk":"Samoa","name:be":"\u0421\u0430\u043c\u043e\u0430","name:ha":"Samowa","name:sr":"\u0421\u0430\u043c\u043e\u0430","osm_relation":true,"name:ga":"Sam\u00f3","name:gd":"Samotha","name:io":"Samoa","name:fa":"\u0633\u0627\u0645\u0648\u0622","maritime_boundary":true,"name:gv":"Samoa","name:gu":"\u0ab8\u0aae\u0acb\u0a86","name:fi":"Samoa"},"arcs":[0]}]},"roads":{"type":"GeometryCollection","geometries":[{"type":"MultiLineString","properties":{"sort_rank":380,"kind_detail":"primary","min_zoom":8.0,"kind":"major_road","source":"openstreetmap.org"},"arcs":[[6],[7]]},{"type":"MultiLineString","properties":{"source":"openstreetmap.org","kind":"major_road","sort_rank":380,"kind_detail":"primary","ref":"AS001","min_zoom":8.0},"arcs":[[8],[9]]}]},"earth":{"type":"GeometryCollection","geometries":[{"type":"MultiPolygon","properties":{"sort_rank":10,"source":"naturalearthdata.com","min_zoom":0.0,"kind":"earth","area":327301143},"arcs":[[[10]],[[11]]]}]},"landuse":{"type":"GeometryCollection","geometries":[{"type":"MultiPolygon","properties":{"kind":"protected_area","protect_class":"2","area":44830386,"sort_rank":17,"source":"openstreetmap.org","min_zoom":8.0,"tier":2,"osm_relation":true},"arcs":[[[12]]]}]}},"type":"Topology","transform":{"translate":[-171.5625,-15.2841851141],"scale":[0.0003433228,0.000332222]},"arcs":[[[0,3122],[126,4],[178,-77],[176,-18],[206,46],[181,118],[130,181],[51,170],[28,297],[-63,253]],[[271,3958],[-146,74],[-125,-14],[0,63],[10,9],[1,6],[4085,0],[0,-4096],[-4096,0],[0,3721],[74,7],[207,-22],[74,3],[-14,32],[-8,11],[31,95],[-93,111]],[[2154,2882],[77,-40],[120,-82],[20,-22],[78,64],[111,152],[71,53],[49,14],[170,8],[45,21],[4,37],[-26,18],[-43,-37],[-85,31],[-120,7],[-108,-25],[-67,-86],[-48,-9],[-101,2],[-47,-9],[-124,-75],[24,-22]],[[2830,3068],[-85,31],[-120,7],[-108,-25],[-67,-86],[-48,-9],[-101,2],[-47,-9],[-124,-75],[24,-22],[77,-40],[120,-82],[20,-22],[78,64],[111,152],[71,53],[49,14],[170,8],[45,21],[4,37],[-26,18],[-43,-37]],[[0,4081],[10,9],[1,6]],[[0,3721],[74,7],[207,-22],[74,3],[-14,32],[-8,11],[31,95],[-93,111],[-146,74],[-125,-14]],[[0,3942],[224,-72],[165,0],[14,-54],[-42,-88],[-361,15]],[[2386,2891],[47,16]],[[2350,2816],[36,75]],[[2852,3043],[-55,-29],[-35,45],[-142,-63],[-10,57],[-105,-11],[79,-36],[-24,-17],[9,-25],[-136,-57]],[[2745,3099],[85,-31],[43,37],[26,-18],[-4,-37],[-45,-21],[-170,-8],[-49,-14],[-71,-53],[-111,-152],[-78,-64],[-20,22],[-120,82],[-77,40],[-24,22],[124,75],[47,9],[101,-2],[48,9],[67,86],[108,25],[120,-7]],[[0,4018],[125,14],[146,-74],[93,-111],[-31,-95],[8,-11],[14,-32],[-74,-3],[-207,22],[-74,-7],[0,297]],[[2431,3022],[37,63],[107,64],[7,42],[25,-11],[0,-49],[-37,-23],[32,-15],[28,45],[24,-81],[-35,21],[-114,-11],[-29,-55],[-45,10]]]}