{"objects":{"water":{"type":"GeometryCollection","geometries":[{"type":"MultiPolygon","properties":{"sort_rank":200,"source":"naturalearthdata.com","min_zoom":0.0,"kind":"lake","area":1125469958},"arcs":[[[565]],[[566]]]},{"type":"MultiLineString","properties":{"source":"naturalearthdata.com","kind":"lake","sort_rank":367,"boundary":true,"min_zoom":0.0,"id":668},"arcs":[[567],[568]]},{"type":"LineString","properties":{"source":"naturalearthdata.com","kind":"lake","sort_rank":367,"boundary":true,"min_zoom":0.0,"id":755},"arcs":[569]}]},"buildings":{"type":"GeometryCollection","geometries":[]},"places":{"type":"GeometryCollection","geometries":[{"type":"Point","properties":{"name:kg":"Albania","name:ka":"\u10d0\u10da\u10d1\u10d0\u10dc\u10d4\u10d7\u10d8","name:ko":"\uc54c\ubc14\ub2c8\uc544","name:cv":"\u0410\u043b\u0431\u0430\u043d\u0438","name:km":"\u17a2\u17b6\u179b\u17cb\u1794\u17b6\u1793\u17b8","name:kl":"Albania","name:cs":"Alb\u00e1nie","name:ki":"Albania","name:co":"Albania","name:kv":"\u0410\u043b\u0431\u0430\u043d\u0438\u044f","name:ku":"Albanya","name:ti":"\u12a0\u120d\u1263\u1292\u12eb","name:ks":"\u0627\u066e\u06ea\u0644\u0628\u0627\u0646\u0650\u06cc\u0627","name:to":"\u02bbAlipania","name:tl":"Albanya","name:ce":"\u0410\u043b\u0431\u0430\u043d\u0438","name:ta":"\u0b85\u0bb2\u0bcd\u0baa\u0bc7\u0ba9\u0bbf\u0baf\u0bbe","name:tg":"\u0410\u043b\u0431\u0430\u043d\u0438\u044f","name:ca":"Alb\u00e0nia","name:te":"\u0c05\u0c32\u0c4d\u0c2c\u0c47\u0c28\u0c3f\u0c2f\u0c3e","name:cy":"Albania","name:hr":"Albanija","name:da":"Albanien","name:de":"Albanien","name:dz":"\u0f68\u0f63\u0f0b\u0f56\u0f71\u0f0b\u0f53\u0f72\u0f0b\u0f61\u0f0d","source":"openstreetmap.org","name:kn":"\u0c85\u0cb2\u0ccd\u0cac\u0cc7\u0ca8\u0cbf\u0caf","name:lv":"Alb\u0101nija","name:lt":"Albanija","name:uz":"Albaniya","name:kk":"\u0410\u043b\u0431\u0430\u043d\u0438\u044f","name:ur":"\u0627\u0644\u0628\u0627\u0646\u06cc\u0627","name:lb":"Albanien","name:la":"Albania","name:lg":"Alibaniya","name:uk":"\u0410\u043b\u0431\u0430\u043d\u0456\u044f","name:ug":"\u0626\u0627\u0644\u0628\u0627\u0646\u0649\u064a\u06d5","name:li":"Albani\u00eb","name:ln":"Albania","name:lo":"\u0ec1\u0ead\u0ea5\u0ec0\u0e9a\u0ec0\u0e99\u0e8d","name:el":"\u0391\u03bb\u03b2\u03b1\u03bd\u03af\u03b1","name:eo":"Albanujo","name:en":"Albania","name":"Shqip\u00ebria","name:ee":"Albania","name:th":"\u0e1b\u0e23\u0e30\u0e40\u0e17\u0e28\u0e41\u0e2d\u0e25\u0e40\u0e1a\u0e40\u0e19\u0e35\u0e22","name:eu":"Albania","name:et":"Albaania","name:es":"Albania","name:ia":"Albania","name:rm":"Albania","name:rn":"Alubaniya","name:az":"Albaniya","name:ie":"Albania","name:id":"Albania","name:ar":"\u0623\u0644\u0628\u0627\u0646\u064a\u0627","name:io":"Albania","name:ak":"Albenia","name:am":"\u12a0\u120d\u1263\u1292\u12eb","name:it":"Albania","name:an":"Albania","name:ru":"\u0410\u043b\u0431\u0430\u043d\u0438\u044f","name:af":"Albani\u00eb","name:zu":"i-Albania","name:ky":"\u0410\u043b\u0431\u0430\u043d\u0438\u044f","name:zh-yue":"\u963f\u723e\u5df4\u5c3c\u4e9e","name:zh":"\u963f\u5c14\u5df4\u5c3c\u4e9a","name:so":"Albaaniya","name:sn":"Albania","name:sl":"Albanija","name:sk":"Alb\u00e1nsko","name:ja":"\u30a2\u30eb\u30d0\u30cb\u30a2","name:si":"\u0d87\u0dbd\u0dca\u0db6\u0dda\u0db1\u0dd2\u0dba\u0dcf\u0dc0","name:sh":"Albanija","name:sg":"Alban\u00efi","name:se":"Alb\u00e1nia","name:sc":"Albania","name:sa":"\u0905\u0932\u094d\u092c\u093e\u0928\u093f\u092f\u093e","name:bs":"Albanija","name:bm":"Alibani","name:bn":"\u0986\u09b2\u09ac\u09c7\u09a8\u09bf\u09af\u09bc\u09be","name:bo":"\u0f68\u0f62\u0f0b\u0f54\u0f0b\u0f49\u0f72\u0f0b\u0f61\u0f0d","name:br":"Albania","name:sw":"Albania","name:be":"\u0410\u043b\u0431\u0430\u043d\u0456\u044f","name:su":"Albania","name:bg":"\u0410\u043b\u0431\u0430\u043d\u0438\u044f","name:ss":"I-Alibheniya","name:sr":"\u0410\u043b\u0431\u0430\u043d\u0438\u0458\u0430","name:jv":"Albania","name:pt":"Alb\u00e2nia","name:ps":"\u0627\u0644\u0628\u0627\u0646\u064a\u0627","name:oc":"Albania","min_zoom":2.0,"name:ro":"Albania","name:sv":"Albanien","name:os":"\u0410\u043b\u0431\u0430\u043d\u0438","name:or":"\u0b06\u0b32\u0b2c\u0b3e\u0b28\u0b3f\u0b06","name:pl":"Albania","name:tr":"Arnavutluk","name:hi":"\u0905\u0932\u094d\u092c\u093e\u0928\u093f\u092f\u093e","name:he":"\u05d0\u05dc\u05d1\u05e0\u05d9\u05d4","name:ha":"Albaniya","name:hy":"\u0531\u056c\u0562\u0561\u0576\u056b\u0561","name:ht":"Albani","name:hu":"Alb\u00e1nia","name:qu":"Albanya","population":3619778,"kind":"country","name:is":"Alban\u00eda","name:yi":"\u05d0\u05dc\u05d1\u05d0\u05e0\u05d9\u05e2","name:yo":"Albania","name:mt":"Albanija","alt_name:eo":"Albanio","name:ms":"Albania","name:mr":"\u0906\u0932\u094d\u092c\u0947\u0928\u093f\u092f\u093e","official_name":"Republika e Shqip\u00ebris\u00eb","name:kw":"Albani","name:mg":"Albania","name:ml":"\u0d05\u0d32\u0d4d\u200d\u0d2c\u0d47\u0d28\u0d3f\u0d2f","name:vi":"Albania","name:mn":"\u0410\u043b\u0431\u0430\u043d\u0438","id":424310601,"name:mk":"\u0410\u043b\u0431\u0430\u043d\u0438\u0458\u0430","name:vo":"Lalban\u00e4n","name:fa":"\u0622\u0644\u0628\u0627\u0646\u06cc","name:ff":"Albanii","name:fi":"Albania","name:fo":"Albania","name:fr":"Albanie","name:fy":"Albaanje","name:nl":"Albani\u00eb","name:nn":"Albania","name:no":"Albania","name:na":"Albania","name:ne":"\u0905\u0932\u094d\u092c\u093e\u0928\u093f\u092f\u093e","name:wo":"Albaani","name:ga":"An Alb\u00e1in","name:gd":"Alb\u00e0inia","name:gn":"Ava\u00f1a","name:gl":"Albania","name:gv":"Yn Albaan","name:gu":"\u0a85\u0ab2\u0acd\u0aac\u0ac7\u0aa8\u0abf\u0aaf\u0abe","name:tt":"\u0410\u043b\u0431\u0430\u043d\u0438\u044f"},"coordinates":[455,39]},{"type":"Point","properties":{"name:kg":"Makedonia","name:ka":"\u10db\u10d0\u10d9\u10d4\u10d3\u10dd\u10dc\u10d8\u10d0","name:ko":"\ub9c8\ucf00\ub3c4\ub2c8\uc544(FYROM)","name:cv":"\u041c\u0430\u043a\u0435\u0434\u043e\u043d\u0438 \u0420\u0435\u0441\u043f\u0443\u0431\u043b\u0438\u043a\u0438","name:cu":"\u041c\u0430\u043a\u0454\u0434\u043e\u043d\u0457\ua657","name:kl":"Makedonia","name:cs":"Makedonie","name:ki":"Masedonia","name:kw":"Repoblek Makedoni","name:kv":"\u041c\u0430\u043a\u0435\u0434\u043e\u043d\u0438\u044f \u0420\u0435\u0441\u043f\u0443\u0431\u043b\u0438\u043a\u0430","name:ku":"Makedonya","name:ti":"\u121b\u12a8\u12f6\u1292\u12eb","name:ks":"\u0645\u066e\u06ea\u0633\u0648\u0691\u0648\u0646\u0650\u06cc\u0627","name:to":"Masit\u014dnia [FYROM]","name:tl":"Masedonya","name:ce":"\u041c\u0430\u043a\u0435\u0434\u043e\u043d\u0438","name:ta":"\u0bae\u0bbe\u0b9a\u0bbf\u0b9f\u0bcb\u0ba9\u0bbf\u0baf\u0bbe [\u0b83\u0baa\u0bc8\u0bb0\u0bcb\u0bae\u0bcd]","name:tg":"\u041c\u0430\u043a\u0435\u0434\u043e\u043d\u0438\u044f","name:ca":"Maced\u00f2nia","name:te":"\u0c2e\u0c47\u0c38\u0c46\u0c21\u0c4b\u0c28\u0c3f\u0c2f\u0c3e[\u0c2b\u0c48\u0c30\u0c4b\u0c2e\u0c4d]","name:cy":"Gweriniaeth Macedonia","name:hr":"Makedonija","name:da":"Makedonien","name:de":"Mazedonien","name:dz":"\u0f58\u0f0b\u0f66\u0f7a\u0f0b\u0f4c\u0f7c\u0f0b\u0f53\u0f72\u0f0b\u0f61\u0f0b [\u0f61\u0f74\u0f0b\u0f42\u0f7c\u0f0b\u0f66\u0fb3\u0f71\u0f0b\u0f56\u0f72\u0f0b\u0f61]","source":"openstreetmap.org","name:kn":"\u0cae\u0ccd\u0caf\u0cbe\u0cb8\u0cbf\u0ca1\u0ccb\u0ca8\u0cbf\u0caf [FYROM]","name:dv":"\u0789\u07ac\u0790\u07ac\u0791\u07af\u0782\u07a8\u0787\u07a7","name:km":"\u1798\u17c9\u17b6\u179f\u17c1\u178a\u17d2\u179c\u17b6\u1793","name:lv":"Ma\u0137edonija","name:lt":"Makedonija","name:uz":"Makedoniya Respublikasi","name:kk":"\u041c\u0430\u043a\u0435\u0434\u043e\u043d\u0438\u044f \u0420\u0435\u0441\u043f\u0443\u0431\u043b\u0438\u043a\u0430\u0441\u044b","name:ur":"\u0645\u0642\u062f\u0648\u0646\u06cc\u06c1 [FYROM]","name:lb":"Makedonien","name:la":"Respublica Macedonica","name:lg":"Masedoniya","name:uk":"\u041c\u0430\u043a\u0435\u0434\u043e\u043d\u0456\u044f","name:ug":"\u0645\u0627\u0643\u06d0\u062f\u0648\u0646\u0649\u064a\u06d5","name:li":"Macedoni\u00eb","name:ln":"Masedoni","name:lo":"\u0ea1\u0eb2\u0e8a\u0eb5\u0ec2\u0e94\u0ec0\u0e99\u0e8d","name:el":"\u03a0\u03c1\u03ce\u03b7\u03bd \u0393\u03b9\u03bf\u03c5\u03b3\u03ba\u03bf\u03c3\u03bb\u03b1\u03b2\u03b9\u03ba\u03ae \u0394\u03b7\u03bc\u03bf\u03ba\u03c1\u03b1\u03c4\u03af\u03b1 \u03c4\u03b7\u03c2 \u039c\u03b1\u03ba\u03b5\u03b4\u03bf\u03bd\u03af\u03b1\u03c2","name:eo":"Makedonujo","name:en":"Macedonia","name":"\u041c\u0430\u043a\u0435\u0434\u043e\u043d\u0438\u0458\u0430","name:tk":"Makedoni\u00fda Respublikasy","name:ee":"Makedonia [FYROM] nutome","name:th":"\u0e1b\u0e23\u0e30\u0e40\u0e17\u0e28\u0e21\u0e32\u0e0b\u0e34\u0e42\u0e14\u0e40\u0e19\u0e35\u0e22","name:eu":"Mazedonia [FYROM]","name:et":"Makedoonia","name:es":"Macedonia","name:ia":"Macedonia","name:rm":"Macedonia","name:rn":"Masedoniya","name:az":"Masedoniya","name:ie":"Macedonia","name:id":"Republik Makedonia","name:ar":"\u0645\u0642\u062f\u0648\u0646\u064a\u0627","name:io":"Republiko Macedonia","name:ak":"Masedonia","name:am":"\u121b\u1234\u12f6\u1295\u12eb[FYROM]","name:it":"Macedonia","name:an":"Republica de Macedonia","name:ru":"\u041c\u0430\u043a\u0435\u0434\u043e\u043d\u0438\u044f","name:rw":"Masedoniya","name:pl":"Macedonia","name:af":"Masedoni\u00eb","name:zu":"isi-Macedonia [FYROM]","name:zh-yue":"\u99ac\u5176\u9813\u5171\u548c\u570b","name:zh":"\u9a6c\u5176\u987f","name:so":"Makadooniya","name:sn":"Macedonia","name:sl":"Makedonija","name:sk":"Maced\u00f3nsko","name:ja":"\u30de\u30b1\u30c9\u30cb\u30a2[\u65e7\u30e6\u30fc\u30b4\u30b9\u30e9\u30d3\u30a2\u5171\u548c\u56fd]","name:si":"\u0db8\u0dd0\u0dc3\u0dd2\u0da9\u0ddd\u0db1\u0dd2\u0dba\u0dcf\u0db1 [FYROM]","name:sh":"Republika Makedonija","name:sg":"Masedu\u00e4ni","name:se":"Makedonia","name:sc":"Matzed\u00f2nia","name:br":"Makedonia","name:bs":"Makedonija (BJR)","name:bm":"Maced\u0254ni","name:bn":"\u09ae\u09c7\u09b8\u09bf\u09a1\u09cb\u09a8\u09bf\u09af\u09bc\u09be[FYROM]","name:bo":"\u0f58\u0f0b\u0f66\u0f7a\u0f0b\u0f4c\u0f7c\u0f0b\u0f53\u0f72\u0f61\u0f0d (\u0f62\u0f92\u0fb1\u0f63\u0f0b\u0f41\u0f56\u0f0d)","name:bi":"Macedonia","alt_name:br":"Ez-Republik Yougoslaviat Makedonia","name:sw":"Masedonia [FYROM]","name:be":"\u041c\u0430\u043a\u0435\u0434\u043e\u043d\u0456\u044f","name:su":"Mak\u00e9donia","name:bg":"\u041c\u0430\u043a\u0435\u0434\u043e\u043d\u0438\u044f","name:ss":"IMakhedoniya","name:ba":"\u041c\u0430\u043a\u0435\u0434\u043e\u043d\u0438\u044f \u0420\u0435\u0441\u043f\u0443\u0431\u043b\u0438\u043a\u0430\u04bb\u044b","name:sq":"Maqedoni","name:jv":"R\u00e9publik Makedonia","name:sa":"\u092e\u0947\u0938\u0947\u0921\u094b\u0928\u093f\u092f\u093e","name:pt":"Maced\u00f4nia","name:ps":"\u062f \u0645\u0642\u062f\u0648\u0646\u064a\u06d0 \u0648\u0644\u0633\u0645\u0634\u0631\u064a\u0632\u0647","name:oc":"Republica de Maced\u00f2nia","min_zoom":2.0,"name:ro":"Macedonia","name:zh-min-nan":"Makedonija Ki\u014dng-h\u00f4-kok","name:os":"\u0420\u0435\u0441\u043f\u0443\u0431\u043b\u0438\u043a\u00e6 \u041c\u0430\u043a\u0435\u0434\u043e\u043d\u0438","name:or":"\u0b2e\u0b3e\u0b38\u0b47\u0b21\u0b4b\u0b28\u0b3f\u0b06","alt_name:pt":"Antiga Rep\u00fablica Iugoslava da Maced\u00f4nia","name:pa":"\u0a2e\u0a15\u0a26\u0a42\u0a28\u0a40\u0a06 \u0a17\u0a23\u0a30\u0a3e\u0a1c","name:tr":"Makedonya","name:hi":"\u092e\u0947\u0938\u0940\u0921\u094b\u0928\u093f\u092f\u093e [FYROM]","name:sv":"Makedonien","name:he":"\u05de\u05e7\u05d3\u05d5\u05e0\u05d9\u05d4","name:ha":"Masedoniya","name:hy":"\u0544\u0561\u056f\u0565\u0564\u0578\u0576\u056b\u0561","name:ht":"Repiblik d Masedoni","name:hu":"Maced\u00f3nia","name:qu":"Makidunya","population":2061315,"kind":"country","name:is":"Maked\u00f3n\u00eda","name:yi":"\u05e8\u05e2\u05e4\u05d5\u05d1\u05dc\u05d9\u05e7 \u05e4\u05d5\u05df \u05de\u05d0\u05e7\u05e2\u05d3\u05d0\u05e0\u05d9\u05e2","name:yo":"Or\u00edl\u1eb9\u0301\u00e8de Masidonia","name:mt":"Ma\u010bedonja","alt_name:eo":"Makedonio","name:ms":"Macedonia [FYROM]","name:mr":"\u092e\u0945\u0938\u0947\u0921\u094b\u0928\u093f\u092f\u093e[\u092b\u093e\u092f\u0930\u094b\u092e]","name:my":"\u1019\u102c\u1005\u102e\u1012\u102d\u102f\u1038\u1014\u102e\u1038\u101a\u102c\u1038","official_name":"\u0420\u0435\u043f\u0443\u0431\u043b\u0438\u043a\u0430 \u041c\u0430\u043a\u0435\u0434\u043e\u043d\u0438\u0458\u0430","int_name":"The former Yugoslav Republic of Macedonia","name:mg":"Makedonia","name:ml":"\u0d2e\u0d15\u0d4d\u0d15\u0d21\u0d4b\u0d23\u0d3f\u0d2f [FYROM]","name:vi":"Macedonia","name:mn":"\u041c\u0430\u043a\u0435\u0434\u043e\u043d","name:mi":"Maker\u014dnia","id":424297810,"name:vo":"Makedoniy\u00e4n","name:fa":"\u0645\u0642\u062f\u0648\u0646\u06cc\u0647","name:ff":"Meceduwaan","name:fi":"Makedonia","name:fo":"Maked\u00f3nia","name:fr":"Mac\u00e9doine","name:fy":"Massedoanje","name:nl":"Macedoni\u00eb","name:nn":"Makedonia","name:no":"Makedonia","name:na":"Matedoniya","name:ne":"\u092e\u094d\u092f\u093e\u0915\u0947\u0921\u094b\u0928\u093f\u092f\u093e [\u092b\u093e\u0907\u0930\u092e]","name:wo":"R\u00e9ewum Maseduwaan","name:ga":"An Mhacad\u00f3in","name:gd":"Masadoinia","name:gn":"Masendo\u00f1a","name:gl":"Macedonia [Antiga Rep\u00fablica Iugoslava de Macedonia]","name:gv":"Pobblaght ny Massadoan","name:gu":"\u0aae\u0ac7\u0ab8\u0ac7\u0aa1\u0acb\u0aa8\u0abf\u0aaf\u0abe [\u0aab\u0abe\u0aaf\u0ab0\u0acb\u0aae]","name:tt":"\u041c\u0430\u043a\u0435\u0434\u043e\u043d\u0438\u044f \u0496\u04e9\u043c\u04bb\u04af\u0440\u0438\u044f\u0442\u0435"},"coordinates":[2955,1249]},{"type":"Point","properties":{"name:ia":"Kosovo","name:sr":"\u041a\u043e\u0441\u043e\u0432\u043e","name:sk":"Kosovo","name:ko":"\ucf54\uc18c\ubcf4","kind":"country","name:io":"Kosovo","min_zoom":2.0,"name:it":"Kosovo","name:uk":"\u041a\u043e\u0441\u043e\u0432\u043e","name:ru":"\u041a\u043e\u0441\u043e\u0432\u043e","name:pl":"Kosowo","id":4366234392,"name:vo":"Kosov\u00e4n","name:fa":"\u06a9\u0648\u0632\u0648\u0648","name:eo":"Kosovo","name:en":"Kosovo","name":"Kosova","name:de":"Kosovo","name:nl":"Kosovo","source":"openstreetmap.org","name:fr":"Kosovo","name:fy":"Kosovo","population":1800000,"name:zh":"\u79d1\u7d22\u6c83","name:es":"Kosovo"},"coordinates":[1769,3151]},{"type":"Point","properties":{"source":"naturalearthdata.com","kind":"locality","name":"Tirana","country_capital":true,"population":895350,"min_zoom":5.0,"id":7062},"coordinates":[191,682]},{"type":"Point","properties":{"source":"naturalearthdata.com","kind":"locality","name":"Skopje","country_capital":true,"population":494087,"min_zoom":5.0,"id":6598},"coordinates":[2543,2000]},{"type":"Point","properties":{"source":"naturalearthdata.com","kind":"locality","name":"Pristina","country_capital":true,"population":465186,"min_zoom":5.0,"id":6457},"coordinates":[2153,3307]},{"type":"Point","properties":{"source":"naturalearthdata.com","kind":"locality","name":"Pec","population":105163,"min_zoom":7.0,"id":2638},"coordinates":[908,3295]},{"type":"Point","properties":{"source":"naturalearthdata.com","kind":"locality","name":"Bitola","population":86528,"min_zoom":7.0,"id":3253},"coordinates":[2406,116]}]},"transit":{"type":"GeometryCollection","geometries":[{"type":"MultiLineString","properties":{"source":"openstreetmap.org","kind":"train","name":"Tirana-Elbasan","sort_rank":275,"ref":"E","min_zoom":6.0,"osm_relation":true},"arcs":[[464],[465]]},{"type":"MultiLineString","properties":{"source":"openstreetmap.org","kind":"train","name":"Shkodra-Tirana","sort_rank":275,"ref":"S","min_zoom":6.0,"osm_relation":true},"arcs":[[466],[467]]},{"type":"MultiLineString","properties":{"source":"openstreetmap.org","kind":"train","name":"Tirana-Durres","sort_rank":275,"ref":"D","min_zoom":6.0,"osm_relation":true},"arcs":[[468],[469]]},{"type":"MultiLineString","properties":{"kind":"train","name":"7: (Skopje -) Gjorce Petrov - Ki\u010devo","sort_rank":275,"name:de":"KBS 7: (Skopje -) Gjorce Petrov - Ki\u010devo","source":"openstreetmap.org","min_zoom":6.0,"operator":"M\u017d","osm_relation":true},"arcs":[[470],[471],[472],[473],[474],[475],[476],[477]]},{"type":"MultiLineString","properties":{"distance":"476","kind":"train","name:en":"Belgrade - Bar","name":"\u0411\u0435\u043e\u0433\u0440\u0430\u0434-\u0411\u0430\u0440 (Beograd-Bar)","sort_rank":275,"layer":-1.0,"source":"openstreetmap.org","min_zoom":6.0,"int_name":"Belgrade - Bar","operator":"\u017dICG","type":"route","name:sr":"\u0411\u0435\u043e\u0433\u0440\u0430\u0434 - \u0411\u0430\u0440"},"arcs":[[478],[479],[480],[481],[482]]},{"type":"MultiLineString","properties":{"source":"openstreetmap.org","kind":"train","name":"Tirana-Vlora","sort_rank":275,"ref":"V","min_zoom":6.0,"osm_relation":true},"arcs":[[483],[484]]},{"type":"MultiLineString","properties":{"kind":"train","name:en":"IR4900","name":"\u0418\u04204900","sort_rank":275,"source":"openstreetmap.org","min_zoom":6.0,"operator":"\u041c\u0416","ref":"4900","osm_relation":true},"arcs":[[485],[486],[487],[488],[489],[490],[491],[492],[493],[494],[495],[496],[497],[498],[499],[500],[501],[502],[503]]},{"type":"MultiLineString","properties":{"name:el":"\u0392\u03b5\u03bb\u03b9\u03b3\u03c1\u03ac\u03b4\u03b9 - \u0398\u03b5\u03c3\u03c3\u03b1\u03bb\u03bf\u03bd\u03af\u03ba\u03b7","kind":"train","name:en":"Belgrade - Thessaloniki","name":"Beograd - Salonica","sort_rank":275,"source":"openstreetmap.org","min_zoom":6.0,"name:hu":"Belgr\u00e1d\u2013Szaloniki","ref":"Beograd - Thessaloniki","name:sr":"\u0411\u0435\u043e\u0433\u0440\u0430\u0434 - \u0421\u043e\u043b\u0443\u043d","osm_relation":true},"arcs":[[504],[505],[506]]},{"type":"LineString","properties":{"distance":"476","kind":"train","name":"\u0411\u0435\u043e\u0433\u0440\u0430\u0434 - \u0411\u0430\u0440","sort_rank":275,"name:de":"Belgrad - Bar","source":"openstreetmap.org","min_zoom":6.0,"osm_relation":true},"arcs":[507]},{"type":"MultiLineString","properties":{"distance":"476","kind":"train","name:en":"Belgrade - Bar","name":"\u0411\u0435\u043e\u0433\u0440\u0430\u0434-\u0411\u0430\u0440 (Beograd-Bar)","sort_rank":275,"source":"openstreetmap.org","min_zoom":6.0,"int_name":"Belgrade - Bar","operator":"\u017dICG","type":"route","name:sr":"\u0411\u0435\u043e\u0433\u0440\u0430\u0434 - \u0411\u0430\u0440"},"arcs":[[508],[509],[510],[511],[512],[513],[514],[515],[516],[517],[518],[519],[520],[521],[522]]},{"type":"MultiLineString","properties":{"kind":"train","name":"\u0416\u041f \u041b\u0438\u043d\u0438\u044f 6 \u0412\u043e\u043b\u0443\u044f\u043a - \u0411\u0430\u0442\u0430\u043d\u043e\u0432\u0446\u0438;\u0420\u0430\u0434\u043e\u043c\u0438\u0440 - \u0413\u044e\u0435\u0448\u0435\u0432\u043e","sort_rank":275,"source":"openstreetmap.org","min_zoom":6.0,"ref":"6","id":-3894122,"osm_relation":true},"arcs":[[523],[524],[525]]},{"type":"MultiLineString","properties":{"source":"openstreetmap.org","kind":"train","name:en":"Bakarno Gumno - Sopotnica","name":"\u0411\u0430\u043a\u0430\u0440\u043d\u043e \u0413\u0443\u043c\u043d\u043e - \u0421\u043e\u043f\u043e\u0442\u043d\u0438\u0446\u0430","sort_rank":275,"min_zoom":6.0,"osm_relation":true},"arcs":[[526],[527],[528],[529],[530],[531]]},{"type":"MultiLineString","properties":{"source":"openstreetmap.org","kind":"train","name":"Tirana-Pogradec","sort_rank":275,"ref":"P","min_zoom":6.0,"osm_relation":true},"arcs":[[532],[533]]},{"type":"LineString","properties":{"kind":"train","name:en":"Prishtina-Peja railway","name":"Hekurudha Prishtin\u00eb - Pej\u00eb","sort_rank":275,"source":"openstreetmap.org","min_zoom":6.0,"operator":"Trainkos","osm_relation":true},"arcs":[534]},{"type":"MultiLineString","properties":{"kind":"train","name":"IC 891\/892","sort_rank":275,"min_zoom":6.0,"source":"openstreetmap.org","state":"connection","ref":"IC 891\/892","osm_relation":true},"arcs":[[535],[536],[537],[538],[539],[540],[541],[542],[543],[544],[545],[546],[547],[548],[549],[550],[551],[552],[553]]},{"type":"MultiLineString","properties":{"kind":"train","name:en":"Skopje - Tetovo - Gostivar - Kichevo","name":"\u0421\u043a\u043e\u043f\u0458\u0435 - \u0422\u0435\u0442\u043e\u0432\u043e - \u0413\u043e\u0441\u0442\u0438\u0432\u0430\u0440 - \u041a\u0438\u0447\u0435\u0432\u043e","sort_rank":275,"source":"openstreetmap.org","min_zoom":6.0,"operator":"\u041c\u0430\u043a\u0435\u0434\u043e\u043d\u0441\u043a\u0438 \u0416\u0435\u043b\u0435\u0437\u043d\u0438\u0446\u0438","osm_relation":true},"arcs":[[554],[555]]},{"type":"MultiLineString","properties":{"distance":"476","kind":"train","name:en":"Belgrade - Bar","name":"\u0411\u0435\u043e\u0433\u0440\u0430\u0434-\u0411\u0430\u0440 (Beograd-Bar)","sort_rank":275,"layer":1.0,"source":"openstreetmap.org","min_zoom":6.0,"int_name":"Belgrade - Bar","operator":"\u017dICG","type":"route","name:sr":"\u0411\u0435\u043e\u0433\u0440\u0430\u0434 - \u0411\u0430\u0440"},"arcs":[[556],[557],[558],[559],[560],[561],[562],[563],[564]]}]},"pois":{"type":"GeometryCollection","geometries":[{"type":"Point","properties":{"kind":"nature_reserve","protect_class":"4","area":1002690000,"source":"openstreetmap.org","min_zoom":7.31,"tier":2,"id":-7717305,"osm_relation":true,"name":"Parku Natyror Korab Koritnik"},"coordinates":[1171,1724]},{"type":"Point","properties":{"kind":"national_park","name:en":"Valbona Valley National Park","protect_class":"2","area":389530000,"source":"openstreetmap.org","min_zoom":6.49,"tier":1,"id":354315205,"name":"Parku Komb\u00ebtar Lugina e Valbon\u00ebs"},"coordinates":[338,2879]},{"type":"Point","properties":{"kind":"national_park","name:en":"Dajti Mountain National Park","protect_class":"2","area":519784000,"source":"openstreetmap.org","min_zoom":6.28,"tier":1,"id":375741900,"name":"Parku Komb\u00ebtar i Malit t\u00eb Dajtit"},"coordinates":[378,792]},{"type":"Point","properties":{"kind":"national_park","name:en":"Shebenik-Jabllanice National Park","protect_class":"2","area":595740000,"source":"openstreetmap.org","min_zoom":6.18,"tier":1,"id":505701976,"name":"Parku Komb\u00ebtar Shebenik-Jabllanic\u00eb"},"coordinates":[1056,507]},{"type":"Point","properties":{"kind":"nature_reserve","protect_class":"5","area":447754000,"source":"openstreetmap.org","min_zoom":7.89,"tier":2,"id":538753748,"name":"Peisazh i Mbrojtur Mali me Gropa-Bize-Martanesh"},"coordinates":[713,777]}]},"boundaries":{"type":"GeometryCollection","geometries":[{"type":"MultiLineString","properties":{"source":"naturalearthdata.com","kind":"country","sort_rank":262,"kind_detail":"2","min_zoom":0.0,"id":75},"arcs":[[0],[1],[2],[3],[4]]},{"type":"MultiLineString","properties":{"source":"naturalearthdata.com","kind":"country","sort_rank":262,"kind_detail":"2","min_zoom":0.0,"id":175},"arcs":[[5],[6],[7],[8],[9],[10],[11]]},{"type":"LineString","properties":{"source":"naturalearthdata.com","kind":"country","sort_rank":262,"kind_detail":"2","min_zoom":0.0,"id":177},"arcs":[12]},{"type":"MultiLineString","properties":{"source":"naturalearthdata.com","kind":"country","sort_rank":262,"kind_detail":"2","min_zoom":0.0,"id":189},"arcs":[[13],[14],[15]]},{"type":"LineString","properties":{"source":"naturalearthdata.com","kind":"country","sort_rank":262,"kind_detail":"2","min_zoom":0.0,"id":190},"arcs":[16]},{"type":"MultiLineString","properties":{"source":"naturalearthdata.com","kind":"country","sort_rank":262,"kind_detail":"2","min_zoom":0.0,"id":73},"arcs":[[17],[18],[19],[20],[21]]},{"type":"MultiLineString","properties":{"source":"naturalearthdata.com","kind":"country","sort_rank":262,"kind_detail":"2","min_zoom":0.0,"id":176},"arcs":[[22],[23],[24],[25],[26],[27],[28],[29],[30],[31],[32],[33]]},{"type":"MultiLineString","properties":{"source":"naturalearthdata.com","kind":"country","sort_rank":262,"kind_detail":"2","min_zoom":0.0,"id":178},"arcs":[[34],[35],[36],[37],[38],[39],[40],[41],[42]]},{"type":"MultiLineString","properties":{"source":"naturalearthdata.com","kind":"country","sort_rank":262,"kind_detail":"2","min_zoom":0.0,"id":179},"arcs":[[43],[44]]},{"type":"LineString","properties":{"source":"naturalearthdata.com","kind":"country","sort_rank":262,"kind_detail":"2","min_zoom":0.0,"id":182},"arcs":[45]},{"type":"MultiLineString","properties":{"source":"naturalearthdata.com","kind":"disputed","sort_rank":261,"kind_detail":"2","min_zoom":0.0,"id":188},"arcs":[[46],[47],[48],[49],[50],[51],[52],[53],[54],[55],[56],[57]]},{"type":"MultiLineString","properties":{"source":"naturalearthdata.com","kind":"country","sort_rank":262,"kind_detail":"2","min_zoom":0.0,"id":228},"arcs":[[58],[59],[60],[61],[62],[63],[64],[65]]},{"type":"LineString","properties":{"source":"naturalearthdata.com","kind":"region","name":"Andrijevica - Plav","sort_rank":256,"kind_detail":"4","min_zoom":7.0,"id":3037},"arcs":[66]},{"type":"LineString","properties":{"source":"naturalearthdata.com","kind":"macroregion","name":"Kru\u0161evo - Drugovo","sort_rank":257,"kind_detail":"3","min_zoom":6.8,"id":7036},"arcs":[67]},{"type":"LineString","properties":{"source":"naturalearthdata.com","kind":"macroregion","name":"Demir Hisar - Debarca","sort_rank":257,"kind_detail":"3","min_zoom":6.8,"id":7038},"arcs":[68]},{"type":"LineString","properties":{"source":"naturalearthdata.com","kind":"macroregion","name":"Plasnica - Kru\u0161evo","sort_rank":257,"kind_detail":"3","min_zoom":6.8,"id":7062},"arcs":[69]},{"type":"MultiLineString","properties":{"source":"naturalearthdata.com","kind":"macroregion","name":"Sveti Nikole - Kratovo","sort_rank":257,"kind_detail":"3","min_zoom":6.8,"id":7079},"arcs":[[70],[71]]},{"type":"MultiLineString","properties":{"source":"naturalearthdata.com","kind":"macroregion","name":"Gradsko - \u0160tip","sort_rank":257,"kind_detail":"3","min_zoom":6.8,"id":7089},"arcs":[[72],[73],[74]]},{"type":"MultiLineString","properties":{"source":"naturalearthdata.com","kind":"macroregion","name":"Kumanovo - Aracinovo","sort_rank":257,"kind_detail":"3","min_zoom":6.8,"id":7164},"arcs":[[75],[76]]},{"type":"LineString","properties":{"source":"naturalearthdata.com","kind":"macroregion","name":"Negotino - Konce","sort_rank":257,"kind_detail":"3","min_zoom":6.8,"id":7186},"arcs":[77]},{"type":"LineString","properties":{"source":"naturalearthdata.com","kind":"macroregion","name":"Vu\u010ditrn - Glogovac","sort_rank":257,"kind_detail":"3","min_zoom":6.8,"id":9904},"arcs":[78]},{"type":"LineString","properties":{"source":"naturalearthdata.com","kind":"macroregion","name":"Mali\u0161evo - Glogovac","sort_rank":257,"kind_detail":"3","min_zoom":6.8,"id":3402},"arcs":[79]},{"type":"MultiLineString","properties":{"source":"naturalearthdata.com","kind":"region","name":"Jablanicki - Toplicki","sort_rank":256,"kind_detail":"4","min_zoom":6.7,"id":2372},"arcs":[[80],[81],[82],[83],[84]]},{"type":"MultiLineString","properties":{"source":"naturalearthdata.com","kind":"region","name":"Ni\u0161avski - Jablanicki","sort_rank":256,"kind_detail":"4","min_zoom":6.7,"id":2371},"arcs":[[85],[86],[87],[88]]},{"type":"MultiLineString","properties":{"source":"naturalearthdata.com","kind":"region","name":"Pcinjski - Jablanicki","sort_rank":256,"kind_detail":"4","min_zoom":6.7,"id":2373},"arcs":[[89],[90],[91],[92],[93],[94],[95],[96],[97],[98],[99],[100],[101],[102],[103],[104],[105]]},{"type":"MultiLineString","properties":{"source":"naturalearthdata.com","kind":"region","name":"Pirotski - Jablanicki","sort_rank":256,"kind_detail":"4","min_zoom":6.7,"id":2374},"arcs":[[106],[107],[108],[109],[110],[111],[112]]},{"type":"LineString","properties":{"source":"naturalearthdata.com","kind":"region","name":"Ra\u0161ki - Zlatiborski","sort_rank":256,"kind_detail":"4","min_zoom":6.7,"id":2383},"arcs":[113]},{"type":"LineString","properties":{"source":"naturalearthdata.com","kind":"region","name":"Orahovac - \u0110akovica","sort_rank":256,"kind_detail":"4","min_zoom":6.8,"id":3396},"arcs":[114]},{"type":"LineString","properties":{"source":"naturalearthdata.com","kind":"macroregion","name":"Istok - Srbica","sort_rank":257,"kind_detail":"3","min_zoom":6.8,"id":3397},"arcs":[115]},{"type":"LineString","properties":{"source":"naturalearthdata.com","kind":"macroregion","name":"Istok - Zubin Potok","sort_rank":257,"kind_detail":"3","min_zoom":6.8,"id":3398},"arcs":[116]},{"type":"LineString","properties":{"source":"naturalearthdata.com","kind":"region","name":"Mojkovac - Bijelo Polje","sort_rank":256,"kind_detail":"4","min_zoom":7.0,"id":3016},"arcs":[117]},{"type":"LineString","properties":{"source":"naturalearthdata.com","kind":"region","name":"Berane - Ro\u017eaje","sort_rank":256,"kind_detail":"4","min_zoom":7.0,"id":3043},"arcs":[118]},{"type":"MultiLineString","properties":{"source":"naturalearthdata.com","kind":"region","name":"Bijelo Polje - Berane","sort_rank":256,"kind_detail":"4","min_zoom":7.0,"id":3033},"arcs":[[119],[120],[121]]},{"type":"LineString","properties":{"source":"naturalearthdata.com","kind":"region","name":"Mojkovac - Berane","sort_rank":256,"kind_detail":"4","min_zoom":7.0,"id":3034},"arcs":[122]},{"type":"LineString","properties":{"source":"naturalearthdata.com","kind":"region","name":"Berane - Andrijevica","sort_rank":256,"kind_detail":"4","min_zoom":7.0,"id":3036},"arcs":[123]},{"type":"LineString","properties":{"source":"naturalearthdata.com","kind":"region","name":"Berane - Plav","sort_rank":256,"kind_detail":"4","min_zoom":7.0,"id":3038},"arcs":[124]},{"type":"LineString","properties":{"source":"naturalearthdata.com","kind":"macroregion","name":"Klina - Srbica","sort_rank":257,"kind_detail":"3","min_zoom":6.8,"id":3399},"arcs":[125]},{"type":"LineString","properties":{"source":"naturalearthdata.com","kind":"macroregion","name":"\u0160trpce - Prizren","sort_rank":257,"kind_detail":"3","min_zoom":6.8,"id":3400},"arcs":[126]},{"type":"LineString","properties":{"source":"naturalearthdata.com","kind":"macroregion","name":"Kosovska Mitrovica - Podujevo","sort_rank":257,"kind_detail":"3","min_zoom":6.8,"id":3401},"arcs":[127]},{"type":"MultiLineString","properties":{"source":"naturalearthdata.com","kind":"macroregion","name":"Kosovska Kamenica - Pri\u0161tina","sort_rank":257,"kind_detail":"3","min_zoom":6.8,"id":3403},"arcs":[[128],[129],[130]]},{"type":"LineString","properties":{"source":"naturalearthdata.com","kind":"region","name":"Novo Brdo - Lipljan","sort_rank":256,"kind_detail":"4","min_zoom":6.8,"id":9898},"arcs":[131]},{"type":"LineString","properties":{"source":"naturalearthdata.com","kind":"region","name":"Novo Brdo - Pri\u0161tina","sort_rank":256,"kind_detail":"4","min_zoom":6.8,"id":9899},"arcs":[132]},{"type":"MultiLineString","properties":{"source":"naturalearthdata.com","kind":"region","name":"Kuk\u00ebs - Dib\u00ebr","sort_rank":256,"kind_detail":"4","min_zoom":6.8,"id":5234},"arcs":[[133],[134],[135],[136],[137],[138],[139]]},{"type":"LineString","properties":{"source":"naturalearthdata.com","kind":"region","name":"Lezh\u00eb - Kuk\u00ebs","sort_rank":256,"kind_detail":"4","min_zoom":6.8,"id":5235},"arcs":[140]},{"type":"MultiLineString","properties":{"source":"naturalearthdata.com","kind":"region","name":"Lezh\u00eb - Dib\u00ebr","sort_rank":256,"kind_detail":"4","min_zoom":6.8,"id":5236},"arcs":[[141],[142],[143],[144],[145],[146],[147]]},{"type":"MultiLineString","properties":{"source":"naturalearthdata.com","kind":"region","name":"Shkod\u00ebr - Kuk\u00ebs","sort_rank":256,"kind_detail":"4","min_zoom":6.8,"id":5237},"arcs":[[148],[149],[150],[151],[152],[153],[154],[155],[156]]},{"type":"MultiLineString","properties":{"source":"naturalearthdata.com","kind":"region","name":"Lezh\u00eb - Shkod\u00ebr","sort_rank":256,"kind_detail":"4","min_zoom":6.8,"id":5238},"arcs":[[157],[158],[159],[160],[161],[162]]},{"type":"MultiLineString","properties":{"source":"naturalearthdata.com","kind":"region","name":"Dib\u00ebr - Elbasan","sort_rank":256,"kind_detail":"4","min_zoom":6.8,"id":5239},"arcs":[[163],[164],[165],[166],[167],[168],[169],[170]]},{"type":"MultiLineString","properties":{"source":"naturalearthdata.com","kind":"region","name":"Kor\u00e7\u00eb - Elbasan","sort_rank":256,"kind_detail":"4","min_zoom":6.8,"id":5242},"arcs":[[171],[172],[173]]},{"type":"LineString","properties":{"source":"naturalearthdata.com","kind":"region","name":"Durr\u00ebs - Dib\u00ebr","sort_rank":256,"kind_detail":"4","min_zoom":6.8,"id":5243},"arcs":[174]},{"type":"MultiLineString","properties":{"source":"naturalearthdata.com","kind":"region","name":"Durr\u00ebs - Lezh\u00eb","sort_rank":256,"kind_detail":"4","min_zoom":6.8,"id":5244},"arcs":[[175],[176],[177]]},{"type":"MultiLineString","properties":{"source":"naturalearthdata.com","kind":"region","name":"Elbasan - Fier","sort_rank":256,"kind_detail":"4","min_zoom":6.8,"id":5249},"arcs":[[178],[179],[180],[181],[182]]},{"type":"MultiLineString","properties":{"source":"naturalearthdata.com","kind":"region","name":"Durr\u00ebs - Dib\u00ebr","sort_rank":256,"kind_detail":"4","min_zoom":6.8,"id":5252},"arcs":[[183],[184],[185]]},{"type":"MultiLineString","properties":{"source":"naturalearthdata.com","kind":"region","name":"Elbasan - Durr\u00ebs","sort_rank":256,"kind_detail":"4","min_zoom":6.8,"id":5253},"arcs":[[186],[187],[188],[189],[190],[191]]},{"type":"MultiLineString","properties":{"source":"naturalearthdata.com","kind":"region","name":"Durr\u00ebs - Durr\u00ebs","sort_rank":256,"kind_detail":"4","min_zoom":6.8,"id":5254},"arcs":[[192],[193],[194],[195],[196]]},{"type":"MultiLineString","properties":{"source":"naturalearthdata.com","kind":"macroregion","name":"Debar - Mavrovo and Rostusa","sort_rank":257,"kind_detail":"3","min_zoom":6.8,"id":7132},"arcs":[[197],[198],[199]]},{"type":"LineString","properties":{"source":"naturalearthdata.com","kind":"macroregion","name":"Valandovo - Demir Kapija","sort_rank":257,"kind_detail":"3","min_zoom":6.8,"id":7140},"arcs":[200]},{"type":"MultiLineString","properties":{"source":"naturalearthdata.com","kind":"macroregion","name":"Ca\u0161ka - Zelenikovo","sort_rank":257,"kind_detail":"3","min_zoom":6.8,"id":7055},"arcs":[[201],[202],[203]]},{"type":"LineString","properties":{"source":"naturalearthdata.com","kind":"macroregion","name":"Sveti Nikole - Lozovo","sort_rank":257,"kind_detail":"3","min_zoom":6.8,"id":7071},"arcs":[204]},{"type":"LineString","properties":{"source":"naturalearthdata.com","kind":"macroregion","name":"Skopje - Sveti Nikole","sort_rank":257,"kind_detail":"3","min_zoom":6.8,"id":7073},"arcs":[205]},{"type":"MultiLineString","properties":{"source":"naturalearthdata.com","kind":"macroregion","name":"Mavrovo and Rostusa - Zajas","sort_rank":257,"kind_detail":"3","min_zoom":6.8,"id":7130},"arcs":[[206],[207],[208]]},{"type":"MultiLineString","properties":{"source":"naturalearthdata.com","kind":"macroregion","name":"Drugovo - Mavrovo and Rostusa","sort_rank":257,"kind_detail":"3","min_zoom":6.8,"id":7131},"arcs":[[209],[210]]},{"type":"MultiLineString","properties":{"source":"naturalearthdata.com","kind":"macroregion","name":"Brvenica - Brod","sort_rank":257,"kind_detail":"3","min_zoom":6.8,"id":7010},"arcs":[[211],[212]]},{"type":"LineString","properties":{"source":"naturalearthdata.com","kind":"macroregion","name":"Brod - \u017delino","sort_rank":257,"kind_detail":"3","min_zoom":6.8,"id":7011},"arcs":[213]},{"type":"LineString","properties":{"source":"naturalearthdata.com","kind":"macroregion","name":"\u017delino - Sopiste","sort_rank":257,"kind_detail":"3","min_zoom":6.8,"id":7013},"arcs":[214]},{"type":"MultiLineString","properties":{"source":"naturalearthdata.com","kind":"macroregion","name":"Brod - Sopiste","sort_rank":257,"kind_detail":"3","min_zoom":6.8,"id":7014},"arcs":[[215],[216]]},{"type":"MultiLineString","properties":{"source":"naturalearthdata.com","kind":"macroregion","name":"Dolneni - Brod","sort_rank":257,"kind_detail":"3","min_zoom":6.8,"id":7021},"arcs":[[217],[218],[219]]},{"type":"LineString","properties":{"source":"naturalearthdata.com","kind":"macroregion","name":"Ca\u0161ka - Brod","sort_rank":257,"kind_detail":"3","min_zoom":6.8,"id":7024},"arcs":[220]},{"type":"MultiLineString","properties":{"source":"naturalearthdata.com","kind":"macroregion","name":"Ca\u0161ka - Dolneni","sort_rank":257,"kind_detail":"3","min_zoom":6.8,"id":7025},"arcs":[[221],[222],[223],[224]]},{"type":"MultiLineString","properties":{"source":"naturalearthdata.com","kind":"macroregion","name":"Kru\u0161evo - Brod","sort_rank":257,"kind_detail":"3","min_zoom":6.8,"id":7032},"arcs":[[225],[226]]},{"type":"MultiLineString","properties":{"source":"naturalearthdata.com","kind":"macroregion","name":"Drugovo - Demir Hisar","sort_rank":257,"kind_detail":"3","min_zoom":6.8,"id":7037},"arcs":[[227],[228],[229],[230]]},{"type":"MultiLineString","properties":{"source":"naturalearthdata.com","kind":"macroregion","name":"Studenicani - Brod","sort_rank":257,"kind_detail":"3","min_zoom":6.8,"id":7043},"arcs":[[231],[232],[233],[234]]},{"type":"LineString","properties":{"source":"naturalearthdata.com","kind":"macroregion","name":"Studenicani - Ca\u0161ka","sort_rank":257,"kind_detail":"3","min_zoom":6.8,"id":7045},"arcs":[235]},{"type":"MultiLineString","properties":{"source":"naturalearthdata.com","kind":"macroregion","name":"Kratovo - Probistip","sort_rank":257,"kind_detail":"3","min_zoom":6.8,"id":7078},"arcs":[[236],[237],[238],[239],[240],[241],[242],[243],[244],[245]]},{"type":"MultiLineString","properties":{"source":"naturalearthdata.com","kind":"macroregion","name":"Negotino - \u0160tip","sort_rank":257,"kind_detail":"3","min_zoom":6.8,"id":7085},"arcs":[[246],[247],[248],[249],[250],[251]]},{"type":"MultiLineString","properties":{"source":"naturalearthdata.com","kind":"macroregion","name":"\u0160tip - Lozovo","sort_rank":257,"kind_detail":"3","min_zoom":6.8,"id":7086},"arcs":[[252],[253],[254]]},{"type":"LineString","properties":{"source":"naturalearthdata.com","kind":"macroregion","name":"Kratovo - Kocani","sort_rank":257,"kind_detail":"3","min_zoom":6.8,"id":7093},"arcs":[255]},{"type":"LineString","properties":{"source":"naturalearthdata.com","kind":"macroregion","name":"Veles - Zelenikovo","sort_rank":257,"kind_detail":"3","min_zoom":6.8,"id":7099},"arcs":[256]},{"type":"MultiLineString","properties":{"source":"naturalearthdata.com","kind":"macroregion","name":"Skopje - Veles","sort_rank":257,"kind_detail":"3","min_zoom":6.8,"id":7100},"arcs":[[257],[258],[259],[260],[261],[262],[263],[264]]},{"type":"LineString","properties":{"source":"naturalearthdata.com","kind":"macroregion","name":"Veles - Sveti Nikole","sort_rank":257,"kind_detail":"3","min_zoom":6.8,"id":7101},"arcs":[265]},{"type":"LineString","properties":{"source":"naturalearthdata.com","kind":"macroregion","name":"Ohrid - Demir Hisar","sort_rank":257,"kind_detail":"3","min_zoom":6.8,"id":7107},"arcs":[266]},{"type":"MultiLineString","properties":{"source":"naturalearthdata.com","kind":"macroregion","name":"Prilep - Ca\u0161ka","sort_rank":257,"kind_detail":"3","min_zoom":6.8,"id":7116},"arcs":[[267],[268],[269],[270]]},{"type":"MultiLineString","properties":{"source":"naturalearthdata.com","kind":"macroregion","name":"Kavadartsi - Prilep","sort_rank":257,"kind_detail":"3","min_zoom":6.8,"id":7117},"arcs":[[271],[272],[273],[274],[275],[276],[277],[278],[279]]},{"type":"LineString","properties":{"source":"naturalearthdata.com","kind":"macroregion","name":"Resen - Ohrid","sort_rank":257,"kind_detail":"3","min_zoom":6.8,"id":7120},"arcs":[280]},{"type":"MultiLineString","properties":{"source":"naturalearthdata.com","kind":"macroregion","name":"Southeastern - Kavadartsi","sort_rank":257,"kind_detail":"3","min_zoom":6.8,"id":7143},"arcs":[[281],[282],[283],[284],[285]]},{"type":"MultiLineString","properties":{"source":"naturalearthdata.com","kind":"macroregion","name":"Southeastern - Demir Kapija","sort_rank":257,"kind_detail":"3","min_zoom":6.8,"id":7144},"arcs":[[286],[287],[288]]},{"type":"MultiLineString","properties":{"source":"naturalearthdata.com","kind":"macroregion","name":"Kriva Palanka - Kocani","sort_rank":257,"kind_detail":"3","min_zoom":6.8,"id":7155},"arcs":[[289],[290]]},{"type":"LineString","properties":{"source":"naturalearthdata.com","kind":"macroregion","name":"Kriva Palanka - Makedonska Kamenica","sort_rank":257,"kind_detail":"3","min_zoom":6.8,"id":7156},"arcs":[291]},{"type":"MultiLineString","properties":{"source":"naturalearthdata.com","kind":"macroregion","name":"Skopje - Kumanovo","sort_rank":257,"kind_detail":"3","min_zoom":6.8,"id":7165},"arcs":[[292],[293],[294]]},{"type":"MultiLineString","properties":{"source":"naturalearthdata.com","kind":"macroregion","name":"Sveti Nikole - Kumanovo","sort_rank":257,"kind_detail":"3","min_zoom":6.8,"id":7166},"arcs":[[295],[296],[297]]},{"type":"MultiLineString","properties":{"source":"naturalearthdata.com","kind":"macroregion","name":"Kumanovo - Ilinden","sort_rank":257,"kind_detail":"3","min_zoom":6.8,"id":7168},"arcs":[[298],[299],[300]]},{"type":"LineString","properties":{"source":"naturalearthdata.com","kind":"macroregion","name":"Gostivar - Brod","sort_rank":257,"kind_detail":"3","min_zoom":6.8,"id":7174},"arcs":[301]},{"type":"MultiLineString","properties":{"source":"naturalearthdata.com","kind":"macroregion","name":"Oslomej - Gostivar","sort_rank":257,"kind_detail":"3","min_zoom":6.8,"id":7175},"arcs":[[302],[303]]},{"type":"MultiLineString","properties":{"source":"naturalearthdata.com","kind":"macroregion","name":"Zajas - Gostivar","sort_rank":257,"kind_detail":"3","min_zoom":6.8,"id":7176},"arcs":[[304],[305]]},{"type":"LineString","properties":{"source":"naturalearthdata.com","kind":"macroregion","name":"Radovis - Karbinci","sort_rank":257,"kind_detail":"3","min_zoom":6.8,"id":7178},"arcs":[306]},{"type":"MultiLineString","properties":{"source":"naturalearthdata.com","kind":"macroregion","name":"Radovis - \u0160tip","sort_rank":257,"kind_detail":"3","min_zoom":6.8,"id":7179},"arcs":[[307],[308],[309]]},{"type":"MultiLineString","properties":{"source":"naturalearthdata.com","kind":"macroregion","name":"Vinitsa - Radovis","sort_rank":257,"kind_detail":"3","min_zoom":6.8,"id":7181},"arcs":[[310],[311],[312]]},{"type":"LineString","properties":{"source":"naturalearthdata.com","kind":"macroregion","name":"Konce - \u0160tip","sort_rank":257,"kind_detail":"3","min_zoom":6.8,"id":7187},"arcs":[313]},{"type":"LineString","properties":{"source":"naturalearthdata.com","kind":"macroregion","name":"Demir Kapija - Konce","sort_rank":257,"kind_detail":"3","min_zoom":6.8,"id":7189},"arcs":[314]},{"type":"LineString","properties":{"source":"naturalearthdata.com","kind":"macroregion","name":"Saraj - \u017delino","sort_rank":257,"kind_detail":"3","min_zoom":6.8,"id":7201},"arcs":[315]},{"type":"LineString","properties":{"source":"naturalearthdata.com","kind":"macroregion","name":"Lipkovo - Butel","sort_rank":257,"kind_detail":"3","min_zoom":6.8,"id":7211},"arcs":[316]},{"type":"LineString","properties":{"source":"naturalearthdata.com","kind":"macroregion","name":"Lipkovo - Gazi Baba","sort_rank":257,"kind_detail":"3","min_zoom":6.8,"id":7212},"arcs":[317]},{"type":"MultiLineString","properties":{"source":"naturalearthdata.com","kind":"macroregion","name":"Aracinovo - Lipkovo","sort_rank":257,"kind_detail":"3","min_zoom":6.8,"id":7213},"arcs":[[318],[319]]},{"type":"LineString","properties":{"source":"naturalearthdata.com","kind":"macroregion","name":"Cucer Sandevo - Lipkovo","sort_rank":257,"kind_detail":"3","min_zoom":6.8,"id":7215},"arcs":[320]},{"type":"MultiLineString","properties":{"source":"naturalearthdata.com","kind":"macroregion","name":"Jegunovce - Saraj","sort_rank":257,"kind_detail":"3","min_zoom":6.8,"id":7219},"arcs":[[321],[322],[323]]},{"type":"MultiLineString","properties":{"source":"naturalearthdata.com","kind":"region","name":"Kyustendil - Pernik","sort_rank":256,"kind_detail":"4","min_zoom":6.7,"id":7856},"arcs":[[324],[325]]},{"type":"MultiLineString","properties":{"source":"naturalearthdata.com","kind":"region","name":"Struga - Vev\u010dani","sort_rank":256,"kind_detail":"4","min_zoom":7.0,"id":8123},"arcs":[[326],[327]]},{"type":"LineString","properties":{"source":"naturalearthdata.com","kind":"region","name":"Kriva Palanka - Rankovce","sort_rank":256,"kind_detail":"4","min_zoom":7.0,"id":8124},"arcs":[328]},{"type":"MultiLineString","properties":{"source":"naturalearthdata.com","kind":"macroregion","name":"Uro\u0161evac - Lipljan","sort_rank":257,"kind_detail":"3","min_zoom":6.8,"id":9873},"arcs":[[329],[330],[331]]},{"type":"MultiLineString","properties":{"source":"naturalearthdata.com","kind":"macroregion","name":"Pe\u0107 - De\u010dani","sort_rank":257,"kind_detail":"3","min_zoom":6.8,"id":9847},"arcs":[[332],[333],[334],[335],[336]]},{"type":"MultiLineString","properties":{"source":"naturalearthdata.com","kind":"region","name":"Istok - Klina","sort_rank":256,"kind_detail":"4","min_zoom":6.8,"id":9848},"arcs":[[337],[338],[339]]},{"type":"MultiLineString","properties":{"source":"naturalearthdata.com","kind":"macroregion","name":"Mali\u0161evo - Orahovac","sort_rank":257,"kind_detail":"3","min_zoom":6.8,"id":9849},"arcs":[[340],[341],[342]]},{"type":"MultiLineString","properties":{"source":"naturalearthdata.com","kind":"region","name":"Istok - Pe\u0107","sort_rank":256,"kind_detail":"4","min_zoom":6.8,"id":9843},"arcs":[[343],[344],[345]]},{"type":"LineString","properties":{"source":"naturalearthdata.com","kind":"region","name":"Klina - Pe\u0107","sort_rank":256,"kind_detail":"4","min_zoom":6.8,"id":9844},"arcs":[346]},{"type":"MultiLineString","properties":{"source":"naturalearthdata.com","kind":"macroregion","name":"\u0110akovica - Pe\u0107","sort_rank":257,"kind_detail":"3","min_zoom":6.8,"id":9845},"arcs":[[347],[348]]},{"type":"MultiLineString","properties":{"source":"naturalearthdata.com","kind":"region","name":"\u0110akovica - De\u010dani","sort_rank":256,"kind_detail":"4","min_zoom":6.8,"id":9846},"arcs":[[349],[350],[351],[352],[353]]},{"type":"LineString","properties":{"source":"naturalearthdata.com","kind":"macroregion","name":"Suva Reka - Orahovac","sort_rank":257,"kind_detail":"3","min_zoom":6.8,"id":9850},"arcs":[354]},{"type":"MultiLineString","properties":{"source":"naturalearthdata.com","kind":"macroregion","name":"Prizren - Orahovac","sort_rank":257,"kind_detail":"3","min_zoom":6.8,"id":9851},"arcs":[[355],[356],[357],[358]]},{"type":"MultiLineString","properties":{"source":"naturalearthdata.com","kind":"region","name":"Prizren - Draga\u0161","sort_rank":256,"kind_detail":"4","min_zoom":6.8,"id":9852},"arcs":[[359],[360],[361],[362]]},{"type":"MultiLineString","properties":{"source":"naturalearthdata.com","kind":"region","name":"Suva Reka - Prizren","sort_rank":256,"kind_detail":"4","min_zoom":6.8,"id":9853},"arcs":[[363],[364],[365]]},{"type":"MultiLineString","properties":{"source":"naturalearthdata.com","kind":"region","name":"Mali\u0161evo - Suva Reka","sort_rank":256,"kind_detail":"4","min_zoom":6.8,"id":9854},"arcs":[[366],[367],[368],[369],[370]]},{"type":"MultiLineString","properties":{"source":"naturalearthdata.com","kind":"region","name":"Uro\u0161evac - \u0160trpce","sort_rank":256,"kind_detail":"4","min_zoom":6.8,"id":9855},"arcs":[[371],[372],[373],[374]]},{"type":"MultiLineString","properties":{"source":"naturalearthdata.com","kind":"region","name":"Uro\u0161evac - Ka\u010danik","sort_rank":256,"kind_detail":"4","min_zoom":6.8,"id":9856},"arcs":[[375],[376]]},{"type":"LineString","properties":{"source":"naturalearthdata.com","kind":"region","name":"Ka\u010danik - \u0160trpce","sort_rank":256,"kind_detail":"4","min_zoom":6.8,"id":9857},"arcs":[377]},{"type":"LineString","properties":{"source":"naturalearthdata.com","kind":"region","name":"Uro\u0161evac - Ka\u010danik","sort_rank":256,"kind_detail":"4","min_zoom":6.8,"id":9858},"arcs":[378]},{"type":"MultiLineString","properties":{"source":"naturalearthdata.com","kind":"region","name":"Gnjilane - Vitina","sort_rank":256,"kind_detail":"4","min_zoom":6.8,"id":9859},"arcs":[[379],[380]]},{"type":"MultiLineString","properties":{"source":"naturalearthdata.com","kind":"macroregion","name":"Novo Brdo - Gnjilane","sort_rank":257,"kind_detail":"3","min_zoom":6.8,"id":9860},"arcs":[[381],[382],[383],[384],[385],[386]]},{"type":"LineString","properties":{"source":"naturalearthdata.com","kind":"region","name":"Kosovska Kamenica - Gnjilane","sort_rank":256,"kind_detail":"4","min_zoom":6.8,"id":9861},"arcs":[387]},{"type":"LineString","properties":{"source":"naturalearthdata.com","kind":"macroregion","name":"Kosovska Kamenica - Novo Brdo","sort_rank":257,"kind_detail":"3","min_zoom":6.8,"id":9862},"arcs":[388]},{"type":"MultiLineString","properties":{"source":"naturalearthdata.com","kind":"region","name":"Pri\u0161tina - Podujevo","sort_rank":256,"kind_detail":"4","min_zoom":6.8,"id":9863},"arcs":[[389],[390],[391],[392]]},{"type":"LineString","properties":{"source":"naturalearthdata.com","kind":"region","name":"Obili\u0107 - Podujevo","sort_rank":256,"kind_detail":"4","min_zoom":6.8,"id":9864},"arcs":[393]},{"type":"LineString","properties":{"source":"naturalearthdata.com","kind":"region","name":"Pri\u0161tina - Obili\u0107","sort_rank":256,"kind_detail":"4","min_zoom":6.8,"id":9865},"arcs":[394]},{"type":"MultiLineString","properties":{"source":"naturalearthdata.com","kind":"region","name":"Kosovo Polje - Obili\u0107","sort_rank":256,"kind_detail":"4","min_zoom":6.8,"id":9866},"arcs":[[395],[396],[397]]},{"type":"LineString","properties":{"source":"naturalearthdata.com","kind":"region","name":"Glogovac - Obili\u0107","sort_rank":256,"kind_detail":"4","min_zoom":6.8,"id":9867},"arcs":[398]},{"type":"LineString","properties":{"source":"naturalearthdata.com","kind":"region","name":"Kosovo Polje - Glogovac","sort_rank":256,"kind_detail":"4","min_zoom":6.8,"id":9868},"arcs":[399]},{"type":"LineString","properties":{"source":"naturalearthdata.com","kind":"region","name":"Lipljan - Glogovac","sort_rank":256,"kind_detail":"4","min_zoom":6.8,"id":9869},"arcs":[400]},{"type":"MultiLineString","properties":{"source":"naturalearthdata.com","kind":"region","name":"Lipljan - Pri\u0161tina","sort_rank":256,"kind_detail":"4","min_zoom":6.8,"id":9870},"arcs":[[401],[402],[403],[404],[405]]},{"type":"LineString","properties":{"source":"naturalearthdata.com","kind":"region","name":"Kosovo Polje - Pri\u0161tina","sort_rank":256,"kind_detail":"4","min_zoom":6.8,"id":9871},"arcs":[406]},{"type":"MultiLineString","properties":{"source":"naturalearthdata.com","kind":"region","name":"Lipljan - Kosovo Polje","sort_rank":256,"kind_detail":"4","min_zoom":6.8,"id":9872},"arcs":[[407],[408],[409],[410]]},{"type":"LineString","properties":{"source":"naturalearthdata.com","kind":"region","name":"Uro\u0161evac - \u0160timlje","sort_rank":256,"kind_detail":"4","min_zoom":6.8,"id":9874},"arcs":[411]},{"type":"MultiLineString","properties":{"source":"naturalearthdata.com","kind":"macroregion","name":"Lipljan - \u0160timlje","sort_rank":257,"kind_detail":"3","min_zoom":6.8,"id":9875},"arcs":[[412],[413],[414],[415]]},{"type":"MultiLineString","properties":{"source":"naturalearthdata.com","kind":"region","name":"Vu\u010ditrn - Kosovska Mitrovica","sort_rank":256,"kind_detail":"4","min_zoom":6.8,"id":9876},"arcs":[[416],[417],[418],[419],[420],[421]]},{"type":"MultiLineString","properties":{"source":"naturalearthdata.com","kind":"region","name":"Vu\u010ditrn - Srbica","sort_rank":256,"kind_detail":"4","min_zoom":6.8,"id":9877},"arcs":[[422],[423],[424]]},{"type":"MultiLineString","properties":{"source":"naturalearthdata.com","kind":"region","name":"Srbica - Kosovska Mitrovica","sort_rank":256,"kind_detail":"4","min_zoom":6.8,"id":9878},"arcs":[[425],[426],[427]]},{"type":"MultiLineString","properties":{"source":"naturalearthdata.com","kind":"region","name":"Srbica - Zubin Potok","sort_rank":256,"kind_detail":"4","min_zoom":6.8,"id":9879},"arcs":[[428],[429],[430]]},{"type":"LineString","properties":{"source":"naturalearthdata.com","kind":"region","name":"Zubin Potok - Kosovska Mitrovica","sort_rank":256,"kind_detail":"4","min_zoom":6.8,"id":9880},"arcs":[431]},{"type":"LineString","properties":{"source":"naturalearthdata.com","kind":"region","name":"Zubin Potok - Zve\u010dan","sort_rank":256,"kind_detail":"4","min_zoom":6.8,"id":9881},"arcs":[432]},{"type":"MultiLineString","properties":{"source":"naturalearthdata.com","kind":"region","name":"Leposavi\u0107 - Zve\u010dan","sort_rank":256,"kind_detail":"4","min_zoom":6.8,"id":9882},"arcs":[[433],[434],[435]]},{"type":"MultiLineString","properties":{"source":"naturalearthdata.com","kind":"region","name":"Kosovska Mitrovica - Zve\u010dan","sort_rank":256,"kind_detail":"4","min_zoom":6.8,"id":9883},"arcs":[[436],[437]]},{"type":"MultiLineString","properties":{"source":"naturalearthdata.com","kind":"region","name":"Leposavi\u0107 - Kosovska Mitrovica","sort_rank":256,"kind_detail":"4","min_zoom":6.8,"id":9884},"arcs":[[438],[439],[440]]},{"type":"LineString","properties":{"source":"naturalearthdata.com","kind":"macroregion","name":"Klina - \u0110akovica","sort_rank":257,"kind_detail":"3","min_zoom":6.8,"id":9885},"arcs":[441]},{"type":"LineString","properties":{"source":"naturalearthdata.com","kind":"macroregion","name":"Prizren - \u0110akovica","sort_rank":257,"kind_detail":"3","min_zoom":6.8,"id":9886},"arcs":[442]},{"type":"LineString","properties":{"source":"naturalearthdata.com","kind":"macroregion","name":"Mali\u0161evo - Klina","sort_rank":257,"kind_detail":"3","min_zoom":6.8,"id":9887},"arcs":[443]},{"type":"MultiLineString","properties":{"source":"naturalearthdata.com","kind":"macroregion","name":"Glogovac - Mali\u0161evo","sort_rank":257,"kind_detail":"3","min_zoom":6.8,"id":9888},"arcs":[[444],[445],[446]]},{"type":"LineString","properties":{"source":"naturalearthdata.com","kind":"macroregion","name":"Lipljan - Mali\u0161evo","sort_rank":257,"kind_detail":"3","min_zoom":6.8,"id":9889},"arcs":[447]},{"type":"LineString","properties":{"source":"naturalearthdata.com","kind":"macroregion","name":"Lipljan - Suva Reka","sort_rank":257,"kind_detail":"3","min_zoom":6.8,"id":9890},"arcs":[448]},{"type":"LineString","properties":{"source":"naturalearthdata.com","kind":"macroregion","name":"\u0160timlje - Suva Reka","sort_rank":257,"kind_detail":"3","min_zoom":6.8,"id":9891},"arcs":[449]},{"type":"LineString","properties":{"source":"naturalearthdata.com","kind":"macroregion","name":"Uro\u0161evac - Suva Reka","sort_rank":257,"kind_detail":"3","min_zoom":6.8,"id":9892},"arcs":[450]},{"type":"MultiLineString","properties":{"source":"naturalearthdata.com","kind":"macroregion","name":"\u0160trpce - Suva Reka","sort_rank":257,"kind_detail":"3","min_zoom":6.8,"id":9893},"arcs":[[451],[452]]},{"type":"MultiLineString","properties":{"source":"naturalearthdata.com","kind":"macroregion","name":"Vitina - Ka\u010danik","sort_rank":257,"kind_detail":"3","min_zoom":6.8,"id":9894},"arcs":[[453],[454]]},{"type":"LineString","properties":{"source":"naturalearthdata.com","kind":"macroregion","name":"Vitina - Uro\u0161evac","sort_rank":257,"kind_detail":"3","min_zoom":6.8,"id":9895},"arcs":[455]},{"type":"LineString","properties":{"source":"naturalearthdata.com","kind":"macroregion","name":"Gnjilane - Uro\u0161evac","sort_rank":257,"kind_detail":"3","min_zoom":6.8,"id":9896},"arcs":[456]},{"type":"LineString","properties":{"source":"naturalearthdata.com","kind":"macroregion","name":"Gnjilane - Lipljan","sort_rank":257,"kind_detail":"3","min_zoom":6.8,"id":9897},"arcs":[457]},{"type":"MultiLineString","properties":{"source":"naturalearthdata.com","kind":"macroregion","name":"Srbica - Glogovac","sort_rank":257,"kind_detail":"3","min_zoom":6.8,"id":9900},"arcs":[[458],[459],[460]]},{"type":"LineString","properties":{"source":"naturalearthdata.com","kind":"macroregion","name":"Vu\u010ditrn - Obili\u0107","sort_rank":257,"kind_detail":"3","min_zoom":6.8,"id":9901},"arcs":[461]},{"type":"LineString","properties":{"source":"naturalearthdata.com","kind":"macroregion","name":"Vu\u010ditrn - Podujevo","sort_rank":257,"kind_detail":"3","min_zoom":6.8,"id":9902},"arcs":[462]},{"type":"LineString","properties":{"source":"naturalearthdata.com","kind":"macroregion","name":"Leposavi\u0107 - Podujevo","sort_rank":257,"kind_detail":"3","min_zoom":6.8,"id":9903},"arcs":[463]}]},"roads":{"type":"GeometryCollection","geometries":[{"type":"LineString","properties":{"kind":"highway","network":"e-road","sort_rank":383,"kind_detail":"motorway","source":"naturalearthdata.com","min_zoom":3.0,"all_networks":["e-road"],"shield_text":"853","ref":"853","id":4601,"all_shield_texts":["853"]},"arcs":[570]},{"type":"LineString","properties":{"kind":"highway","network":"e-road","sort_rank":383,"kind_detail":"motorway","source":"naturalearthdata.com","min_zoom":4.0,"all_networks":["e-road"],"landuse_kind":"urban_area","shield_text":"65","ref":"65","id":4611,"all_shield_texts":["65"]},"arcs":[571]},{"type":"LineString","properties":{"kind":"highway","network":"e-road","sort_rank":383,"kind_detail":"motorway","source":"naturalearthdata.com","min_zoom":4.0,"all_networks":["e-road"],"landuse_kind":"urban_area","shield_text":"65","ref":"65","id":4611,"all_shield_texts":["65"]},"arcs":[572]},{"type":"LineString","properties":{"kind":"highway","network":"e-road","sort_rank":383,"kind_detail":"motorway","source":"naturalearthdata.com","min_zoom":4.0,"all_networks":["e-road"],"shield_text":"65","ref":"65","id":4611,"all_shield_texts":["65"]},"arcs":[573]},{"type":"LineString","properties":{"kind":"highway","network":"e-road","sort_rank":383,"kind_detail":"motorway","source":"naturalearthdata.com","min_zoom":3.0,"all_networks":["e-road"],"landuse_kind":"urban_area","shield_text":"75","ref":"75","id":4612,"all_shield_texts":["75"]},"arcs":[574]},{"type":"MultiLineString","properties":{"kind":"highway","network":"e-road","sort_rank":383,"kind_detail":"motorway","source":"naturalearthdata.com","min_zoom":3.0,"all_networks":["e-road"],"shield_text":"75","ref":"75","id":4612,"all_shield_texts":["75"]},"arcs":[[575],[576]]},{"type":"LineString","properties":{"kind":"highway","network":"e-road","sort_rank":383,"kind_detail":"motorway","source":"naturalearthdata.com","min_zoom":3.0,"all_networks":["e-road"],"landuse_kind":"urban_area","shield_text":"75","ref":"75","id":4613,"all_shield_texts":["75"]},"arcs":[577]},{"type":"LineString","properties":{"kind":"highway","network":"e-road","sort_rank":383,"kind_detail":"motorway","source":"naturalearthdata.com","min_zoom":3.0,"all_networks":["e-road"],"landuse_kind":"urban_area","shield_text":"75","ref":"75","id":4613,"all_shield_texts":["75"]},"arcs":[578]},{"type":"MultiLineString","properties":{"kind":"highway","network":"e-road","sort_rank":383,"kind_detail":"motorway","source":"naturalearthdata.com","min_zoom":3.0,"all_networks":["e-road"],"shield_text":"75","ref":"75","id":4613,"all_shield_texts":["75"]},"arcs":[[579],[580],[581]]},{"type":"LineString","properties":{"kind":"highway","network":"e-road","sort_rank":383,"kind_detail":"motorway","source":"naturalearthdata.com","min_zoom":4.0,"all_networks":["e-road"],"landuse_kind":"urban_area","shield_text":"65","ref":"65","id":4614,"all_shield_texts":["65"]},"arcs":[582]},{"type":"LineString","properties":{"kind":"highway","network":"e-road","sort_rank":383,"kind_detail":"motorway","source":"naturalearthdata.com","min_zoom":4.0,"all_networks":["e-road"],"landuse_kind":"urban_area","shield_text":"65","ref":"65","id":4614,"all_shield_texts":["65"]},"arcs":[583]},{"type":"LineString","properties":{"kind":"highway","network":"e-road","sort_rank":383,"kind_detail":"motorway","source":"naturalearthdata.com","min_zoom":4.0,"all_networks":["e-road"],"shield_text":"65","ref":"65","id":4614,"all_shield_texts":["65"]},"arcs":[584]},{"type":"MultiLineString","properties":{"source":"naturalearthdata.com","kind":"highway","kind_detail":"motorway","sort_rank":383,"landuse_kind":"urban_area","min_zoom":4.0,"id":4615},"arcs":[[585],[586]]},{"type":"MultiLineString","properties":{"source":"naturalearthdata.com","kind":"highway","sort_rank":383,"kind_detail":"motorway","min_zoom":4.0,"id":4615},"arcs":[[587],[588]]},{"type":"LineString","properties":{"kind":"major_road","network":"e-road","sort_rank":380,"kind_detail":"primary","source":"naturalearthdata.com","min_zoom":3.0,"shield_text":"75","ref":"75","id":4751},"arcs":[589]},{"type":"LineString","properties":{"kind":"major_road","network":"e-road","sort_rank":380,"kind_detail":"primary","source":"naturalearthdata.com","min_zoom":3.0,"landuse_kind":"urban_area","shield_text":"75","ref":"75","id":4752},"arcs":[590]},{"type":"MultiLineString","properties":{"kind":"major_road","network":"e-road","sort_rank":380,"kind_detail":"primary","source":"naturalearthdata.com","min_zoom":3.0,"shield_text":"75","ref":"75","id":4752},"arcs":[[591],[592]]},{"type":"MultiLineString","properties":{"source":"naturalearthdata.com","kind":"highway","kind_detail":"motorway","sort_rank":383,"landuse_kind":"urban_area","min_zoom":3.0,"id":4772},"arcs":[[593],[594]]},{"type":"MultiLineString","properties":{"source":"naturalearthdata.com","kind":"highway","sort_rank":383,"kind_detail":"motorway","min_zoom":3.0,"id":4772},"arcs":[[595],[596],[597]]},{"type":"LineString","properties":{"source":"naturalearthdata.com","kind":"major_road","sort_rank":379,"kind_detail":"secondary","min_zoom":3.0,"id":4773},"arcs":[598]},{"type":"LineString","properties":{"kind":"major_road","network":"e-road","sort_rank":380,"kind_detail":"primary","source":"naturalearthdata.com","min_zoom":4.0,"landuse_kind":"urban_area","shield_text":"852","ref":"852","id":4774},"arcs":[599]},{"type":"MultiLineString","properties":{"kind":"major_road","network":"e-road","sort_rank":380,"kind_detail":"primary","source":"naturalearthdata.com","min_zoom":4.0,"shield_text":"852","ref":"852","id":4774},"arcs":[[600],[601]]},{"type":"LineString","properties":{"kind":"major_road","network":"e-road","sort_rank":380,"kind_detail":"primary","source":"naturalearthdata.com","min_zoom":4.0,"shield_text":"852","ref":"852","id":4775},"arcs":[602]},{"type":"LineString","properties":{"kind":"major_road","network":"e-road","sort_rank":380,"kind_detail":"primary","source":"naturalearthdata.com","min_zoom":3.0,"shield_text":"853","ref":"853","id":4784},"arcs":[603]},{"type":"LineString","properties":{"kind":"major_road","network":"e-road","sort_rank":380,"kind_detail":"primary","source":"naturalearthdata.com","min_zoom":4.0,"landuse_kind":"urban_area","shield_text":"871","ref":"871","id":5019},"arcs":[604]},{"type":"LineString","properties":{"kind":"major_road","network":"e-road","sort_rank":380,"kind_detail":"primary","source":"naturalearthdata.com","min_zoom":4.0,"shield_text":"871","ref":"871","id":5019},"arcs":[605]},{"type":"MultiLineString","properties":{"source":"naturalearthdata.com","kind":"major_road","kind_detail":"primary","sort_rank":380,"landuse_kind":"nature_reserve","min_zoom":4.0,"id":5075},"arcs":[[606],[607]]},{"type":"MultiLineString","properties":{"source":"naturalearthdata.com","kind":"major_road","sort_rank":380,"kind_detail":"primary","min_zoom":4.0,"id":5075},"arcs":[[608],[609]]},{"type":"LineString","properties":{"kind":"major_road","network":"e-road","sort_rank":380,"kind_detail":"primary","source":"naturalearthdata.com","min_zoom":4.0,"landuse_kind":"urban_area","shield_text":"65","ref":"65","id":5076},"arcs":[610]},{"type":"LineString","properties":{"kind":"major_road","network":"e-road","sort_rank":380,"kind_detail":"primary","source":"naturalearthdata.com","min_zoom":4.0,"landuse_kind":"urban_area","shield_text":"65","ref":"65","id":5076},"arcs":[611]},{"type":"MultiLineString","properties":{"kind":"major_road","network":"e-road","sort_rank":380,"kind_detail":"primary","source":"naturalearthdata.com","min_zoom":4.0,"shield_text":"65","ref":"65","id":5076},"arcs":[[612],[613]]},{"type":"LineString","properties":{"kind":"highway","network":"e-road","sort_rank":355,"kind_detail":"trunk","source":"naturalearthdata.com","min_zoom":6.0,"all_networks":["e-road"],"landuse_kind":"urban_area","shield_text":"65","ref":"65","id":5419,"all_shield_texts":["65"]},"arcs":[614]},{"type":"MultiLineString","properties":{"kind":"highway","network":"e-road","sort_rank":355,"kind_detail":"trunk","source":"naturalearthdata.com","min_zoom":6.0,"all_networks":["e-road"],"shield_text":"65","ref":"65","id":5419,"all_shield_texts":["65"]},"arcs":[[615],[616]]},{"type":"LineString","properties":{"kind":"major_road","network":"e-road","sort_rank":380,"kind_detail":"primary","source":"naturalearthdata.com","min_zoom":6.0,"landuse_kind":"urban_area","shield_text":"65","ref":"65","id":5452},"arcs":[617]},{"type":"LineString","properties":{"kind":"major_road","network":"e-road","sort_rank":380,"kind_detail":"primary","source":"naturalearthdata.com","min_zoom":6.0,"shield_text":"65","ref":"65","id":5452},"arcs":[618]},{"type":"LineString","properties":{"kind":"major_road","network":"e-road","sort_rank":380,"kind_detail":"primary","source":"naturalearthdata.com","min_zoom":6.0,"landuse_kind":"park","shield_text":"65","ref":"65","id":5453},"arcs":[619]},{"type":"LineString","properties":{"kind":"major_road","network":"e-road","sort_rank":380,"kind_detail":"primary","source":"naturalearthdata.com","min_zoom":6.0,"landuse_kind":"urban_area","shield_text":"65","ref":"65","id":5453},"arcs":[620]},{"type":"MultiLineString","properties":{"kind":"major_road","network":"e-road","sort_rank":380,"kind_detail":"primary","source":"naturalearthdata.com","min_zoom":6.0,"landuse_kind":"urban_area","shield_text":"65","ref":"65","id":5453},"arcs":[[621],[622]]},{"type":"MultiLineString","properties":{"kind":"major_road","network":"e-road","sort_rank":380,"kind_detail":"primary","source":"naturalearthdata.com","min_zoom":6.0,"shield_text":"65","ref":"65","id":5453},"arcs":[[623],[624],[625],[626]]},{"type":"LineString","properties":{"kind":"major_road","network":"e-road","sort_rank":380,"kind_detail":"primary","source":"naturalearthdata.com","min_zoom":6.0,"shield_text":"65","ref":"65","id":5583},"arcs":[627]},{"type":"LineString","properties":{"kind":"major_road","network":"e-road","sort_rank":379,"kind_detail":"secondary","source":"naturalearthdata.com","min_zoom":6.0,"shield_text":"65","ref":"65","id":5584},"arcs":[628]},{"type":"LineString","properties":{"kind":"major_road","network":"e-road","sort_rank":380,"kind_detail":"primary","source":"naturalearthdata.com","min_zoom":6.0,"shield_text":"65","ref":"65","id":5585},"arcs":[629]},{"type":"LineString","properties":{"kind":"major_road","network":"e-road","sort_rank":379,"kind_detail":"secondary","source":"naturalearthdata.com","min_zoom":6.0,"shield_text":"65","ref":"65","id":5586},"arcs":[630]},{"type":"LineString","properties":{"kind":"major_road","network":"e-road","sort_rank":380,"kind_detail":"primary","source":"naturalearthdata.com","min_zoom":6.0,"landuse_kind":"urban_area","shield_text":"65","ref":"65","id":5587},"arcs":[631]},{"type":"MultiLineString","properties":{"kind":"major_road","network":"e-road","sort_rank":380,"kind_detail":"primary","source":"naturalearthdata.com","min_zoom":6.0,"shield_text":"65","ref":"65","id":5587},"arcs":[[632],[633]]},{"type":"LineString","properties":{"source":"naturalearthdata.com","kind":"major_road","kind_detail":"primary","sort_rank":380,"landuse_kind":"urban_area","min_zoom":6.0,"id":5588},"arcs":[634]},{"type":"LineString","properties":{"source":"naturalearthdata.com","kind":"major_road","sort_rank":380,"kind_detail":"primary","min_zoom":6.0,"id":5588},"arcs":[635]},{"type":"LineString","properties":{"kind":"major_road","network":"e-road","sort_rank":380,"kind_detail":"primary","source":"naturalearthdata.com","min_zoom":6.0,"shield_text":"65","ref":"65","id":5595},"arcs":[636]},{"type":"LineString","properties":{"kind":"major_road","network":"e-road","sort_rank":380,"kind_detail":"primary","source":"naturalearthdata.com","min_zoom":6.0,"shield_text":"65","ref":"65","id":5596},"arcs":[637]},{"type":"LineString","properties":{"kind":"major_road","network":"e-road","sort_rank":380,"kind_detail":"primary","source":"naturalearthdata.com","min_zoom":6.0,"shield_text":"763","ref":"763","id":5600},"arcs":[638]},{"type":"MultiLineString","properties":{"kind":"major_road","network":"e-road","sort_rank":379,"kind_detail":"secondary","source":"naturalearthdata.com","min_zoom":6.0,"landuse_kind":"urban_area","shield_text":"80","ref":"80","id":5626},"arcs":[[639],[640]]},{"type":"MultiLineString","properties":{"kind":"major_road","network":"e-road","sort_rank":379,"kind_detail":"secondary","source":"naturalearthdata.com","min_zoom":6.0,"shield_text":"80","ref":"80","id":5626},"arcs":[[641],[642],[643]]},{"type":"LineString","properties":{"kind":"major_road","network":"e-road","sort_rank":380,"kind_detail":"primary","source":"naturalearthdata.com","min_zoom":6.0,"shield_text":"80","ref":"80","id":5627},"arcs":[644]},{"type":"LineString","properties":{"kind":"major_road","network":"e-road","sort_rank":379,"kind_detail":"secondary","source":"naturalearthdata.com","min_zoom":7.0,"shield_text":"851","ref":"851","id":6103},"arcs":[645]},{"type":"LineString","properties":{"kind":"major_road","network":"e-road","sort_rank":380,"kind_detail":"primary","source":"naturalearthdata.com","min_zoom":7.0,"shield_text":"851","ref":"851","id":6104},"arcs":[646]},{"type":"LineString","properties":{"kind":"highway","network":"e-road","sort_rank":383,"kind_detail":"motorway","source":"naturalearthdata.com","min_zoom":7.0,"all_networks":["e-road"],"landuse_kind":"urban_area","shield_text":"851","ref":"851","id":6105,"all_shield_texts":["851"]},"arcs":[647]},{"type":"LineString","properties":{"kind":"highway","network":"e-road","sort_rank":383,"kind_detail":"motorway","source":"naturalearthdata.com","min_zoom":7.0,"all_networks":["e-road"],"shield_text":"851","ref":"851","id":6105,"all_shield_texts":["851"]},"arcs":[648]},{"type":"LineString","properties":{"kind":"highway","network":"e-road","sort_rank":383,"kind_detail":"motorway","source":"naturalearthdata.com","min_zoom":7.0,"all_networks":["e-road"],"landuse_kind":"nature_reserve","shield_text":"851","ref":"851","id":6106,"all_shield_texts":["851"]},"arcs":[649]},{"type":"LineString","properties":{"kind":"highway","network":"e-road","sort_rank":383,"kind_detail":"motorway","source":"naturalearthdata.com","min_zoom":7.0,"all_networks":["e-road"],"landuse_kind":"urban_area","shield_text":"851","ref":"851","id":6106,"all_shield_texts":["851"]},"arcs":[650]},{"type":"LineString","properties":{"kind":"highway","network":"e-road","sort_rank":383,"kind_detail":"motorway","source":"naturalearthdata.com","min_zoom":7.0,"all_networks":["e-road"],"shield_text":"851","ref":"851","id":6106,"all_shield_texts":["851"]},"arcs":[651]},{"type":"LineString","properties":{"kind":"major_road","network":"e-road","sort_rank":380,"kind_detail":"primary","source":"naturalearthdata.com","min_zoom":7.0,"landuse_kind":"nature_reserve","shield_text":"851","ref":"851","id":6107},"arcs":[652]},{"type":"MultiLineString","properties":{"kind":"major_road","network":"e-road","sort_rank":380,"kind_detail":"primary","source":"naturalearthdata.com","min_zoom":7.0,"shield_text":"851","ref":"851","id":6107},"arcs":[[653],[654]]},{"type":"LineString","properties":{"kind":"highway","network":"e-road","sort_rank":383,"kind_detail":"motorway","source":"naturalearthdata.com","min_zoom":7.0,"all_networks":["e-road"],"shield_text":"851","ref":"851","id":6108,"all_shield_texts":["851"]},"arcs":[655]},{"type":"LineString","properties":{"kind":"major_road","network":"e-road","sort_rank":380,"kind_detail":"primary","source":"naturalearthdata.com","min_zoom":7.0,"shield_text":"851","ref":"851","id":6109},"arcs":[656]},{"type":"LineString","properties":{"kind":"major_road","network":"e-road","sort_rank":380,"kind_detail":"primary","source":"naturalearthdata.com","min_zoom":7.0,"landuse_kind":"urban_area","shield_text":"85","ref":"85","id":6148},"arcs":[657]},{"type":"MultiLineString","properties":{"kind":"major_road","network":"e-road","sort_rank":380,"kind_detail":"primary","source":"naturalearthdata.com","min_zoom":7.0,"landuse_kind":"urban_area","shield_text":"85","ref":"85","id":6148},"arcs":[[658],[659]]},{"type":"MultiLineString","properties":{"kind":"major_road","network":"e-road","sort_rank":380,"kind_detail":"primary","source":"naturalearthdata.com","min_zoom":7.0,"shield_text":"85","ref":"85","id":6148},"arcs":[[660],[661]]},{"type":"LineString","properties":{"source":"naturalearthdata.com","kind":"major_road","kind_detail":"primary","sort_rank":380,"landuse_kind":"urban_area","min_zoom":7.0,"id":6149},"arcs":[662]},{"type":"LineString","properties":{"source":"naturalearthdata.com","kind":"major_road","kind_detail":"primary","sort_rank":380,"landuse_kind":"urban_area","min_zoom":7.0,"id":6149},"arcs":[663]},{"type":"LineString","properties":{"source":"naturalearthdata.com","kind":"major_road","sort_rank":380,"kind_detail":"primary","min_zoom":7.0,"id":6149},"arcs":[664]},{"type":"LineString","properties":{"source":"naturalearthdata.com","kind":"major_road","kind_detail":"secondary","sort_rank":379,"landuse_kind":"urban_area","min_zoom":7.0,"id":6150},"arcs":[665]},{"type":"LineString","properties":{"source":"naturalearthdata.com","kind":"major_road","sort_rank":379,"kind_detail":"secondary","min_zoom":7.0,"id":6150},"arcs":[666]},{"type":"LineString","properties":{"kind":"highway","network":"e-road","sort_rank":383,"kind_detail":"motorway","source":"naturalearthdata.com","min_zoom":3.0,"all_networks":["e-road"],"shield_text":"75","ref":"75","id":8125,"all_shield_texts":["75"]},"arcs":[667]},{"type":"LineString","properties":{"kind":"highway","network":"e-road","sort_rank":383,"kind_detail":"motorway","source":"naturalearthdata.com","min_zoom":3.0,"all_networks":["e-road"],"landuse_kind":"urban_area","shield_text":"75","ref":"75","id":8126,"all_shield_texts":["75"]},"arcs":[668]},{"type":"MultiLineString","properties":{"kind":"highway","network":"e-road","sort_rank":383,"kind_detail":"motorway","source":"naturalearthdata.com","min_zoom":3.0,"all_networks":["e-road"],"shield_text":"75","ref":"75","id":8126,"all_shield_texts":["75"]},"arcs":[[669],[670]]},{"type":"LineString","properties":{"source":"naturalearthdata.com","kind":"major_road","kind_detail":"secondary","sort_rank":379,"landuse_kind":"urban_area","min_zoom":6.0,"id":56048},"arcs":[671]},{"type":"LineString","properties":{"source":"naturalearthdata.com","kind":"major_road","kind_detail":"secondary","sort_rank":379,"landuse_kind":"urban_area","min_zoom":6.0,"id":56059},"arcs":[672]},{"type":"LineString","properties":{"source":"naturalearthdata.com","kind":"major_road","kind_detail":"secondary","sort_rank":379,"landuse_kind":"urban_area","min_zoom":6.0,"id":56059},"arcs":[673]},{"type":"LineString","properties":{"source":"naturalearthdata.com","kind":"major_road","sort_rank":379,"kind_detail":"secondary","min_zoom":6.0,"id":56059},"arcs":[674]},{"type":"LineString","properties":{"source":"naturalearthdata.com","kind":"major_road","sort_rank":379,"kind_detail":"secondary","min_zoom":6.0,"id":56084},"arcs":[675]},{"type":"LineString","properties":{"source":"naturalearthdata.com","kind":"major_road","kind_detail":"secondary","sort_rank":379,"landuse_kind":"park","min_zoom":6.0,"id":56086},"arcs":[676]},{"type":"LineString","properties":{"source":"naturalearthdata.com","kind":"major_road","kind_detail":"secondary","sort_rank":379,"landuse_kind":"urban_area","min_zoom":6.0,"id":56086},"arcs":[677]},{"type":"LineString","properties":{"source":"naturalearthdata.com","kind":"major_road","kind_detail":"secondary","sort_rank":379,"landuse_kind":"urban_area","min_zoom":6.0,"id":56086},"arcs":[678]},{"type":"MultiLineString","properties":{"source":"naturalearthdata.com","kind":"major_road","sort_rank":379,"kind_detail":"secondary","min_zoom":6.0,"id":56086},"arcs":[[679],[680]]},{"type":"LineString","properties":{"source":"naturalearthdata.com","kind":"major_road","sort_rank":379,"kind_detail":"secondary","min_zoom":6.0,"id":56090},"arcs":[681]}]},"earth":{"type":"GeometryCollection","geometries":[{"type":"MultiPolygon","properties":{"sort_rank":10,"source":"naturalearthdata.com","min_zoom":0.0,"kind":"earth","area":322967173109},"arcs":[[[682]]]}]},"landuse":{"type":"GeometryCollection","geometries":[{"type":"Polygon","properties":{"kind":"park","area":108214000,"sort_rank":24,"source":"openstreetmap.org","min_zoom":7.0,"tier":2,"id":-7126576,"osm_relation":true},"arcs":[[683]]},{"type":"MultiPolygon","properties":{"source":"openstreetmap.org","kind":"park","tier":2,"area":1988569260,"sort_rank":24,"min_zoom":6.0,"osm_relation":true},"arcs":[[[684]],[[685]],[[686]],[[687]]]},{"type":"MultiPolygon","properties":{"source":"openstreetmap.org","kind":"national_park","tier":1,"protect_class":"2","area":1627128170,"sort_rank":18,"min_zoom":3.0},"arcs":[[[688]],[[689]],[[690]]]},{"type":"MultiPolygon","properties":{"source":"naturalearthdata.com","kind":"urban_area","name":"","area":9064155135,"sort_rank":11,"min_zoom":4.0},"arcs":[[[691]],[[692]],[[693]],[[694]],[[695]],[[696]],[[697]],[[698]],[[699]],[[700]],[[701]],[[702]],[[703]],[[704]],[[705]],[[706]],[[707]],[[708]],[[709]],[[710]],[[711]],[[712]],[[713]],[[714]],[[715]]]},{"type":"Polygon","properties":{"kind":"nature_reserve","protect_class":"4","area":1002689984,"sort_rank":23,"source":"openstreetmap.org","min_zoom":4.0,"tier":2,"id":-7717305,"osm_relation":true},"arcs":[[716]]},{"type":"Polygon","properties":{"kind":"nature_reserve","protect_class":"6","area":105637000,"sort_rank":23,"source":"openstreetmap.org","min_zoom":7.0,"tier":2,"id":539165834},"arcs":[[717]]},{"type":"Polygon","properties":{"kind":"nature_reserve","protect_class":"1a","area":188036000,"sort_rank":23,"source":"openstreetmap.org","min_zoom":6.0,"tier":2,"id":-7717392,"osm_relation":true},"arcs":[[718]]},{"type":"Polygon","properties":{"source":"openstreetmap.org","kind":"nature_reserve","area":208176000,"tier":2,"id":139742316,"min_zoom":6.0,"sort_rank":23},"arcs":[[719]]},{"type":"MultiPolygon","properties":{"source":"openstreetmap.org","kind":"park","tier":2,"area":2514502751,"sort_rank":24,"min_zoom":4.0,"osm_relation":true},"arcs":[[[720]],[[721]]]},{"type":"MultiPolygon","properties":{"source":"openstreetmap.org","kind":"nature_reserve","tier":2,"protect_class":"4","area":954966334,"sort_rank":23,"min_zoom":6.0},"arcs":[[[722]],[[723]]]},{"type":"MultiPolygon","properties":{"source":"openstreetmap.org","kind":"nature_reserve","tier":2,"protect_class":"5","area":867208853,"sort_rank":23,"min_zoom":6.0},"arcs":[[[724]]]}]}},"type":"Topology","transform":{"translate":[19.6875,40.9798980696],"scale":[0.0006866455,0.0005100073]},"arcs":[[[677,2968],[-24,31],[-73,40],[-30,33]],[[819,2625],[-18,2],[-12,14],[-12,32],[-2,14],[2,26],[-3,15],[-9,12],[-22,20],[-7,12],[2,13],[15,23],[0,16],[-7,15],[-20,19],[-8,11],[-41,99]],[[677,2968]],[[1281,1752],[1,14],[-7,24],[-1,14],[7,24],[9,11],[11,8],[12,15],[15,36],[0,25],[-7,26],[-7,39],[-46,120],[-9,37],[0,63],[-4,34],[-15,53],[-56,119],[-27,39],[-12,12],[-24,26],[-180,132],[-23,4]],[[918,2627],[-99,-2]],[[3668,356],[11,-2],[17,-2],[55,-18],[44,-5],[14,-4],[3,-8],[2,-26],[3,-7],[10,-1]],[[3518,278],[31,11],[52,48],[34,16],[33,3]],[[3438,337],[11,-4],[4,-9],[3,-10],[3,-6],[49,-26],[10,-4]],[[3085,0],[37,27],[20,37],[52,51],[20,30],[3,15],[0,6],[1,33],[6,18],[11,14],[24,18],[14,10],[44,24],[93,28],[7,5],[15,17],[6,4]],[[3903,299],[18,-1],[14,-7],[31,-20],[16,-7],[43,-2]],[[3827,283],[12,8],[27,1],[37,7]],[[4025,262],[24,3],[20,5],[27,9]],[[2733,2483],[-3,2]],[[958,3623],[-118,-20],[-56,-21],[-12,-8],[-12,-21],[-1,-19],[2,-18],[-2,-19],[-37,-41]],[[722,3456],[-49,14],[-55,33],[-52,14]],[[566,3517],[-16,-8],[-14,-11],[-30,-24],[-12,-17],[-3,-38],[17,-31],[1,-1],[83,-79],[12,-20],[2,-7],[-19,-51],[-17,-31],[-5,-16],[0,-32],[4,-27],[-2,-26],[-17,-26]],[[424,4096],[60,-42],[50,-50],[3,-2],[88,-87],[19,-6],[16,-5],[78,-8],[42,-18],[76,-55],[90,-44],[24,-32],[2,-48],[-14,-76]],[[1178,702],[20,13],[19,24],[14,27],[10,33],[1,26],[-2,4],[-7,20],[-17,25],[-11,7],[-25,4],[-10,9],[-3,11],[-3,32],[-5,15],[-3,6],[-15,30],[-11,12],[-17,7],[-10,29],[4,53],[-5,28],[71,16],[21,9],[20,12],[12,13],[8,20],[0,4],[0,13],[-31,91],[-8,42],[-11,142],[4,20],[12,27],[14,19],[34,33],[9,17],[-1,13],[-2,28],[-12,49],[1,11],[1,33],[37,23]],[[1157,708],[21,-6]],[[1356,201],[-19,2],[-12,6],[-30,14],[-10,26],[1,35],[-7,44],[-23,46],[-54,77],[-19,50],[-24,106],[-8,59],[0,4],[6,38]],[[1457,0],[-7,27],[-28,128],[-15,32],[-15,12],[-13,2],[-4,1]],[[1375,202],[-19,-1]],[[2639,2468],[-26,18]],[[2613,2486],[-14,-17],[-7,-8]],[[2730,2485],[-61,-16],[-30,-1]],[[2592,2461],[-15,4],[-13,14],[-17,5]],[[2547,2484],[-24,-13],[2,-17],[11,-17],[1,-14],[-15,-1]],[[2522,2422],[-51,19]],[[2471,2441],[-25,-2],[-9,-7],[-10,-8],[-86,-132],[-2,-17],[3,-11],[5,-10],[2,-17],[1,-40],[0,-4],[-3,-14],[-15,-3]],[[2332,2176],[-63,13],[-11,2],[-13,13],[-5,6],[-14,28],[-23,39],[-52,51],[-55,43],[-20,10],[-10,3],[-11,0]],[[2055,2384],[-35,-22],[-49,-48],[-17,-17],[-37,-18],[-42,-15],[-103,-35],[-136,-47],[-38,-21],[-28,-35],[-15,-42],[-18,-97],[-2,-44],[14,-60],[5,-18],[-5,-41],[-1,-7],[-15,-36],[-24,-42],[-13,-15],[-17,-19],[-31,-11]],[[1448,1694],[-14,11],[-28,39],[-14,8]],[[1392,1752],[-9,-6],[-16,-30],[-11,-9],[-24,-1]],[[1332,1706],[-17,9],[-34,37]],[[3870,2615],[-28,1],[-26,10],[-24,18],[-21,25],[-4,14],[-1,34],[-7,9]],[[3759,2726],[-13,-2],[-38,-40],[-201,-84],[-50,-9]],[[3457,2591],[-23,2],[-26,3],[-48,17],[-77,40],[-19,4]],[[3264,2657],[-15,-7],[-50,-43],[-10,-2]],[[3189,2605],[-58,0]],[[3131,2605],[-29,-7],[-143,-86],[-19,-12],[-21,-25],[-22,-14]],[[2749,2475],[-16,8]],[[2897,2461],[-25,1],[-51,14]],[[2821,2476],[-72,-1]],[[3870,2615],[28,15],[61,1],[26,8],[21,28],[24,72],[22,29],[22,11],[18,4],[4,2]],[[4096,3031],[-27,19],[-75,71],[-7,2],[5,39],[19,79],[4,21],[7,48],[-10,27],[38,72],[19,18],[2,6],[0,6],[0,6],[-2,6],[-22,17],[-19,29],[-35,84],[-5,7],[2,7],[5,7],[9,14],[13,12],[37,19],[15,13],[23,35],[4,4]],[[4096,2310],[-8,13],[-19,56],[-55,42],[-144,194]],[[2082,4096],[10,-21],[22,-103],[13,-26],[25,-14]],[[1306,3974],[18,1],[30,29],[39,59],[15,33]],[[1274,3980],[15,-1],[17,-5]],[[958,3623],[120,25],[71,30],[33,43],[-7,19],[-8,23],[-32,20],[-23,25],[12,55],[25,32],[25,7],[25,0],[29,10],[11,11],[8,13],[14,30],[13,14]],[[2193,3957],[24,-4],[23,-44],[2,-61],[8,-62],[41,-48],[16,-4]],[[2152,3932],[21,10],[20,15]],[[2341,3734],[17,-4],[15,-9],[28,-24],[15,-9],[47,-11],[29,-1],[14,-15],[0,-10],[0,-42],[-6,-32],[-20,-66],[-5,-31],[-4,-9],[-7,-6],[-1,-6],[15,-10],[24,-7]],[[2307,3734],[34,0]],[[2555,3443],[147,-20],[33,-11],[22,-19],[47,-59],[24,-16]],[[2502,3442],[18,0],[35,1]],[[2944,3348],[43,-10],[8,-6],[30,-19],[12,-43],[-8,-17],[-16,-10],[-17,-8],[-15,-11],[2,-6],[-8,-39],[-2,-6],[-3,-3],[-10,-5],[-2,-6],[2,-8],[10,-18],[1,-7],[-14,-45],[-73,-120],[-58,-58],[-13,-22],[-3,-30],[7,-62],[-6,-31],[-31,-28],[-86,-27],[-31,-32],[-2,-48],[57,-86],[15,-54]],[[2828,3318],[21,0],[64,29],[31,1]],[[88,3135],[-2,20],[-1,19],[-12,50],[-23,43],[-33,17]],[[17,3284],[-17,-8]],[[85,3137],[3,-2]],[[192,2915],[-26,3],[-25,13],[-48,37],[-25,60],[-5,19],[-1,13],[3,29],[3,14],[10,23],[7,11]],[[550,3072],[-38,22]],[[512,3094],[-31,-23],[-52,-69],[-37,-11]],[[392,2991],[-72,2]],[[320,2993],[-36,-25],[-13,-13],[-55,-33],[-10,-3],[-14,-4]],[[86,3155],[25,11],[86,64],[53,70],[66,50],[7,2]],[[2106,834],[-4,-9],[10,-23],[2,-8]],[[1847,675],[-2,-3],[0,-21],[4,-15],[10,-12],[14,-12],[14,-7],[15,-9],[6,-17],[8,-22],[9,-13],[17,-9],[0,-23],[11,-24],[4,-8]],[[2106,834],[2,5],[11,7],[14,7],[22,8],[18,6],[21,13],[2,1]],[[3404,2000],[0,2],[-9,2]],[[3395,2004],[-11,-3],[-10,-2],[-8,0],[-11,0],[-8,0]],[[3316,1338],[-5,3]],[[3384,1321],[-7,5],[-21,12],[-15,2]],[[3341,1340],[-25,-2]],[[2803,2117],[18,-9],[11,-7],[1,-19],[1,-3]],[[2791,2117],[12,0]],[[3805,999],[-2,5],[-1,19],[-7,16],[-10,16],[-13,21],[-16,17],[-9,12]],[[1804,3394],[31,-33],[34,-19]],[[1599,3025],[9,21],[1,62],[-7,37],[-3,28],[-15,22],[-23,0]],[[2931,4096],[-2,-3],[-9,-7],[-6,-7],[-5,-6],[-2,-5],[-14,-4],[-12,-4],[-6,-3],[-2,-1],[-3,0]],[[2870,4056],[-2,0],[-2,1],[-10,7],[-6,3],[-3,0]],[[2847,4067],[-4,0],[-2,0],[-5,-3],[-3,-3],[-2,-2],[-1,-3],[-4,-11],[-2,-3],[-3,-2],[-5,-4],[-13,-9],[-13,-10],[-4,-3],[-3,-1],[-4,-1],[-5,-1],[-6,-1]],[[2768,4010],[-49,1]],[[2719,4011],[-6,-1],[-5,-1],[-6,-2],[-7,-4],[-3,-2],[-16,-11],[-3,-4],[-3,-3],[-8,-13],[-4,-4],[-8,-8],[-8,-6],[-38,-24],[-13,-6],[-19,-7],[-2,-2],[-2,-2],[-1,-3],[0,-2],[2,-5],[4,-9],[5,-12],[2,-4],[7,-7],[1,-2],[4,-11],[1,-4],[8,-12],[1,-4],[1,-4],[-1,-3],[-1,-3],[-8,-9],[-2,-4],[-4,-6],[-2,-2],[-2,-2],[-7,-4],[-5,-4],[-4,-4],[-2,-3],[-1,-3],[0,-2],[1,-8],[1,-4],[-2,-12],[0,-4],[1,-8],[0,-3],[-2,-5],[-11,-13],[-2,-4],[-1,-4],[0,-10],[-1,-5],[-6,-17],[-1,-3],[-35,-32]],[[3577,4096],[9,-11],[8,-9]],[[3649,4068],[4,0],[25,4],[3,2],[3,1],[4,4],[10,12],[3,5]],[[3618,4079],[5,-1],[10,-4],[8,-4],[4,-1],[4,-1]],[[3594,4076],[9,1],[11,2],[4,0]],[[3561,3549],[-15,0],[-5,1],[-6,1],[-3,1],[-3,2],[-2,2],[0,3],[0,2],[1,4],[9,11],[2,4],[0,3],[0,2],[-2,4],[-9,15],[-3,3],[-2,1],[-3,1],[-10,1]],[[3510,3610],[-17,0],[-5,-1],[-5,-1],[-9,-5],[-11,-8],[-3,-1],[-13,-7],[-19,-8],[-15,-4]],[[3413,3575],[-4,0],[-3,1],[-4,1],[-4,3],[-6,6],[-12,13],[-4,3],[-3,1],[-3,1],[-5,1]],[[3365,3605],[-4,0],[-3,-1],[-2,-1],[-3,-3],[-4,-6],[-1,-3],[-1,-5],[-2,-16],[-1,-5],[-2,-4],[-4,-3],[-10,-7],[-8,-4],[-5,-1],[-28,-7]],[[3995,3602],[-2,0],[-14,-5],[-4,-2],[-8,-6],[-7,-3],[-10,-3],[-16,-3],[-3,-1],[-3,-2],[-6,-9],[-8,-8],[-5,-7],[-8,-13],[-4,-4],[-3,-3],[-16,-10],[-7,-7],[-4,-3],[-4,-2],[-5,-2],[-4,-1],[-14,-2],[-7,-2],[-4,-3],[-4,-3],[-8,-7],[-9,-13],[-16,-12],[-2,-2],[-5,-1],[-4,0]],[[3744,3463],[-3,1],[-3,2],[-6,4],[-6,3],[-17,5],[-3,2],[-7,5],[-5,4],[-2,3],[-6,10],[-3,4],[-2,1],[-3,1],[-12,4],[-13,7],[-27,20],[-4,5],[-1,2],[-1,3],[0,3],[1,11],[-1,3],[-3,3],[-2,2],[-3,1],[-6,1],[-6,0]],[[3600,3573],[-5,0],[-6,-1],[-3,-1],[-3,-1],[-3,-3],[-8,-14],[-3,-2],[-3,-2],[-5,0]],[[3287,3539],[-6,1],[-5,0]],[[3276,3540],[-10,0],[-16,-4],[-11,-3],[-4,-1],[-3,0]],[[3232,3532],[-7,1],[-15,2]],[[3210,3535],[-4,0],[-6,-2],[-14,-5],[-5,-2],[-4,0]],[[3177,3526],[-6,0]],[[3171,3526],[-4,0],[-15,-4],[-4,0]],[[3148,3522],[-6,0]],[[3142,3522],[-4,0],[-3,-1],[-25,-8],[-4,-2],[-4,-2],[-6,-6],[-2,-4],[-2,-3],[0,-4],[0,-3],[2,-2],[4,-7],[1,-4],[-1,-3],[-2,-1],[-9,-4],[-2,-2],[-3,-3],[-4,-7],[-3,-3],[-4,-3],[-10,-5],[-2,-2],[-2,-2],[-2,-4],[0,-5],[0,-15],[0,-15],[2,-15],[-1,-3],[-1,-3],[-5,-4],[-14,-12],[-5,-3],[-12,-6],[-4,-2],[-4,-4],[-16,-18]],[[3781,3463],[-4,0],[-4,1],[-7,3],[-5,1]],[[3761,3468],[-3,0],[-3,-1],[-9,-3],[-2,-1]],[[3719,4096],[8,-7],[15,-13],[2,-3],[0,-2],[-1,-2],[-1,-2],[-11,-9],[-6,-8],[-3,-3],[-3,-2],[-11,-3],[-4,-2],[-10,-6],[-2,-2],[-3,-3],[-4,-5],[-3,-4],[-19,-15],[-2,-4],[-1,-3],[0,-4],[2,-4],[3,-3],[5,-3],[11,-8],[4,-2],[7,-2],[18,-3],[5,-1],[6,-3],[4,-2],[3,-4],[7,-8],[5,-4],[4,-2],[4,-2],[4,0]],[[3772,3946],[5,0],[6,-1],[6,-2],[14,-6],[29,-14],[11,-7],[12,-7],[8,-6],[4,-3],[4,-1],[3,0]],[[3752,3943],[8,2],[6,1],[6,0]],[[3885,3900],[5,-1],[4,-1],[4,-1],[18,-9],[4,-3],[16,-10],[7,-7],[4,-5],[2,-3],[2,-4],[2,-4],[-1,-4],[-1,-3],[-3,-4],[-4,-3],[-4,-3],[-7,-2],[-16,-5],[-26,-5],[11,-10],[15,-11],[4,-3],[5,-2],[9,-4],[5,-3],[3,-2],[2,-3],[5,-11],[2,-4],[8,-6],[5,-7],[5,-5],[9,-5],[10,-5],[3,-1],[7,-6],[3,-1],[4,-2],[13,-2],[5,-1],[11,-5],[5,-1],[6,-1],[11,0]],[[3874,3899],[11,1]],[[4091,3726],[5,-1]],[[4057,3722],[5,0],[17,4],[12,0]],[[572,4096],[0,-1],[-6,-14],[-1,-3],[-6,-7],[-3,-6],[-9,-24],[-1,-5],[-2,-15],[-1,-5],[-3,-5],[-6,-7]],[[1243,2985],[-35,-23],[-16,-42],[6,-54],[-1,-63],[0,-61],[34,-49],[46,-33],[24,-16],[25,-22],[-25,-39]],[[1363,3367],[-2,49],[17,48],[10,32],[7,50],[-21,68]],[[1374,3614],[-25,51],[-32,40],[-40,25],[-85,8],[-17,2]],[[16,3780],[-16,20]],[[536,3498],[0,1],[-12,50],[13,94],[26,37],[14,52],[13,39],[23,41],[31,97]],[[267,3843],[34,0],[55,27],[43,17],[13,10],[45,17],[37,18],[43,70]],[[211,3861],[56,-18]],[[16,3780],[66,23],[46,14],[36,31],[47,13]],[[0,3754],[12,24],[4,2]],[[0,3620],[65,-34],[64,-46],[98,-30],[50,-13],[-27,-27],[0,-33],[30,-34],[43,-51]],[[323,3352],[131,28],[55,7]],[[1561,3195],[-34,0],[-49,21],[-9,44],[-18,40],[-25,6],[-29,17],[-34,44]],[[1702,2456],[-10,-24],[-3,-33],[14,-30],[44,-15],[41,-5],[25,-7],[29,-17],[27,-33],[6,-27],[0,-1]],[[1993,3809],[18,32],[-15,74],[-45,94],[-26,40],[-20,19]],[[2610,3436],[-35,-75]],[[2575,3361],[-32,0]],[[2543,3361],[-50,-3],[11,-36],[44,-31],[17,-33],[-15,-28],[-21,-20]],[[2387,3140],[-30,-19],[-18,-29]],[[2529,3210],[-55,-2],[-30,0],[-28,-31],[-29,-37]],[[757,1803],[11,-14],[0,-6],[0,-7],[-1,-7],[1,-9],[5,-10],[11,-10],[16,-2]],[[892,1800],[29,-3],[-2,-6],[9,-37],[41,-62],[9,-29],[-2,-14]],[[800,1738],[26,6],[15,10],[12,13],[9,13],[9,11],[21,9]],[[1090,1701],[91,-16]],[[976,1649],[36,5],[20,7],[15,9],[6,9],[-4,6],[-4,6],[-1,6],[16,3],[30,1]],[[1230,1697],[12,-1],[1,0]],[[1181,1685],[24,4],[25,8]],[[757,1803],[19,35],[4,6],[5,3],[4,3],[4,4],[4,6],[6,6],[28,24],[4,6],[2,10],[-1,19],[0,15],[2,14],[4,10],[3,11],[-1,12],[-12,35],[-7,13],[-17,13],[-43,7]],[[491,1413],[13,4],[10,8],[5,11],[6,23],[6,9],[11,8],[140,57],[11,18],[1,11],[-1,28],[-6,13],[-63,55],[-2,7],[3,4],[10,3],[15,2],[18,3],[17,8],[13,17],[19,20],[16,12],[24,40],[0,29]],[[183,1425],[5,-1],[12,-6],[17,-12],[32,-8]],[[217,1151],[-12,49],[1,14],[-5,15],[-7,11],[-22,25],[-2,8],[2,7],[4,5],[5,25],[-4,83],[6,32]],[[425,1422],[16,0],[50,-9]],[[377,1379],[9,3],[5,8],[1,7],[1,5],[5,5],[18,13],[9,2]],[[318,1421],[5,-3],[9,-17],[6,-6],[10,-7],[29,-9]],[[249,1398],[21,3],[26,8],[22,12]],[[266,2437],[-37,4],[-21,12],[-9,7],[-3,8],[5,14],[3,16],[1,7],[0,8],[1,6],[3,6],[-1,17],[-5,27],[-19,67],[-5,31],[-1,23],[2,15],[-2,50],[-3,16],[-4,12],[-23,29],[-2,7],[2,6],[14,13],[5,8],[6,19],[4,8],[5,7],[5,6],[6,7],[4,6],[9,20]],[[674,2423],[-165,80],[-19,6],[-34,5]],[[456,2514],[-25,-24]],[[431,2490],[-86,4]],[[345,2494],[-10,-3],[-9,-7],[-21,-22],[-9,-6],[-8,-3],[-6,-1],[-5,-2],[-4,-3],[-7,-10]],[[663,2101],[0,4],[21,29],[8,27],[-2,13],[-8,15],[5,16],[39,56],[11,11],[13,10],[18,12],[26,21],[15,29],[-11,33],[-44,19],[-13,3],[-7,8],[-6,9],[-8,7],[-11,2]],[[709,2425],[-35,-2]],[[765,2055],[-34,32],[-12,20],[-10,7]],[[709,2114],[-9,-1],[-10,-6],[-11,-5],[-16,-1]],[[765,2055],[-59,-55],[-93,-47],[-17,-11],[-12,-14],[-13,-40],[-13,-20],[-14,-11],[-22,-14],[-32,-32],[-11,-14],[-17,-32],[-7,-6],[-12,-3]],[[443,1756],[-56,1],[-13,5],[-8,7],[-6,9],[-1,8],[2,8],[12,11],[3,6],[0,7],[-4,9],[-28,36],[-6,9],[-11,29],[-4,21],[-3,9],[-8,8],[-9,1]],[[303,1940],[-16,-5],[-17,-10],[-13,-16],[-15,-14],[-10,-12],[-8,-6],[-11,-4]],[[213,1873],[-12,1],[-22,8],[-12,8],[-10,5]],[[157,1895],[-9,0],[-28,-15],[-44,-2],[16,-37],[2,-8],[-2,-6],[-5,-8],[-10,-10],[-12,-9],[-13,-5]],[[52,1795],[-19,8],[-27,21],[-6,4]],[[1039,802],[18,-6],[18,-4]],[[1015,791],[6,2],[4,4],[6,4],[8,1]],[[1002,801],[7,-1],[6,-9]],[[949,765],[11,2],[11,4],[9,8],[14,19],[8,3]],[[1110,801],[-4,-17],[1,-20],[4,-26],[7,-20],[33,-47],[0,-1]],[[1075,792],[21,6],[14,3]],[[898,774],[13,-1],[17,-7],[21,-1]],[[798,715],[9,10],[4,2],[5,2],[9,3],[6,2],[5,4],[5,6],[21,18],[11,7],[12,4],[13,1]],[[1325,209],[1,-6],[1,-32],[5,-31],[0,-11],[-5,-36],[-5,-11],[-7,-6]],[[1315,76],[-16,1],[-53,20],[-8,1]],[[1238,98],[-7,0],[-11,-5],[-58,-35],[-12,-5],[-9,-1],[-51,-18],[-10,-7],[-9,-11],[-5,-16]],[[326,1039],[-58,46],[-51,66]],[[217,1151],[-39,2],[-11,8],[-13,13],[-13,17],[-8,5],[-7,0]],[[126,1196],[-9,-6],[-3,-7],[-2,-8],[-10,-12],[-18,-14],[-45,-15],[-23,-2]],[[16,1132],[-16,1]],[[0,82],[17,-10],[35,-11]],[[105,65],[14,-3],[15,-12],[11,-6]],[[52,61],[53,4]],[[162,46],[19,-8],[-2,-37],[0,-1]],[[145,44],[11,1],[6,1]],[[539,801],[-9,5],[-13,21],[-11,12],[-24,15],[-27,23],[-5,8],[-2,8],[-2,6],[-8,12],[-2,6],[-2,8],[-3,13],[-31,47],[-28,31],[-17,15],[-13,7],[-16,1]],[[798,715],[-110,39],[-20,15],[-55,61]],[[613,830],[-41,0],[-8,-12],[-15,-15],[-10,-2]],[[798,715],[-8,-22],[-4,-7],[-7,-6],[-78,-22],[-15,-8],[-32,-28],[-24,-47],[-24,-2],[-10,-7],[-23,-24],[-8,-6],[-9,-2]],[[556,534],[-12,2],[-10,5],[-6,6]],[[528,547],[-10,-1],[-11,-8],[-21,-26],[-18,-29],[-44,-52],[-11,-10],[-64,-34],[-32,-7],[-69,-29],[-35,-31],[1,-5],[4,-5],[9,-3],[5,-3],[-1,-5],[-7,-8],[-18,-7],[-29,-6]],[[177,278],[-45,4]],[[132,282],[-47,-4],[-2,-21],[-5,-8],[-9,-9],[-35,-17],[-12,-12],[-4,-21],[-2,-15],[0,-17],[-5,-8],[-4,-5]],[[7,145],[-7,1]],[[326,1039],[-2,-21],[-2,-11],[-4,-10],[-19,-37],[-11,-16],[-26,-25],[-12,-5]],[[73,838],[-18,0],[-9,5],[-6,13],[-3,10],[-4,5],[-4,5],[-6,5],[-5,10],[-3,9],[-5,32],[-4,12],[-6,4]],[[0,948]],[[250,914],[-12,2],[-14,12],[-6,3]],[[218,931],[-3,-6],[-2,-8],[-3,-7],[-7,-5],[-60,-25],[-43,-30],[-15,-8],[-12,-4]],[[1375,1109],[-49,11],[-36,26],[-29,33],[-27,12]],[[1517,978],[-2,10],[-5,23],[-19,10],[-32,13],[-20,22],[-17,27],[-30,26]],[[1392,1109],[-17,0]],[[3848,872],[-4,-11],[-3,-14],[-1,-19],[3,-16],[8,-23],[7,-8]],[[2623,1491],[-8,8]],[[2743,1491],[-11,3]],[[2732,1494],[-31,-1],[-31,0],[-26,-1],[-21,-1]],[[3148,1677],[0,-1],[21,-1],[14,-6],[19,-26],[14,-17],[21,-9],[16,-3],[13,-10],[23,-31],[24,-30],[29,-30],[25,-23],[21,-14]],[[3081,1827],[1,21],[8,27],[5,11]],[[1608,1240],[-11,10],[-1,13],[15,19],[34,2],[11,9],[26,30],[16,11],[14,0],[19,0],[8,6],[23,2]],[[1634,1245],[-6,1]],[[1628,1246],[-20,-6]],[[1634,1245],[3,-13],[9,-53],[0,-37],[0,-20],[0,-25],[-19,-20],[-1,-19],[0,-24],[-18,-11],[-17,-33],[-16,-16],[-19,-6]],[[1556,968],[-23,4],[-16,6]],[[2173,1686],[6,-1]],[[2027,1564],[20,4],[20,20],[24,39],[34,38],[29,21],[19,0]],[[2252,1642],[-11,5],[-14,6],[-17,16],[-17,12],[-14,4]],[[2252,1642],[-2,1],[9,26],[3,31],[0,18],[-8,6],[-17,11],[-10,14],[1,11]],[[2407,1460],[-24,3],[-28,25],[-22,44],[-27,38],[-21,35],[-18,21],[-15,16]],[[2416,1467],[-9,-7]],[[2457,1202],[-4,0],[-8,0],[-2,-24],[-1,-36],[-10,-23],[-10,-13],[-13,-16],[-9,-10],[-8,-15],[-4,-13],[1,-30],[0,-21]],[[2389,1001],[-7,2],[-11,5],[-8,6],[-15,6]],[[2348,1020],[-17,-3],[-6,-8],[-6,-13],[-8,-5],[-10,0],[-11,-7],[-2,-5],[0,-11],[2,-3]],[[2487,1340],[2,-13],[-9,-18],[-13,-16],[-8,-8],[-5,-6],[-1,-13],[6,-15],[0,-19],[-2,-24],[0,-6]],[[2469,1202],[19,-6],[16,-6],[24,-9],[12,-14],[4,-16],[7,-14],[8,-6],[16,-6],[7,-18],[4,-24],[0,-27],[2,-19],[9,-17],[10,-12],[15,-7]],[[2457,1202],[12,0]],[[2677,1009],[10,-3],[4,-8],[4,-15],[3,-14],[5,-8],[9,-5],[14,-3],[21,-5],[18,-5],[13,-12],[9,-14],[2,-8]],[[2622,1001],[14,0],[14,0],[9,1],[9,6],[9,1]],[[2290,965],[-6,1]],[[2284,966],[-13,-1],[-4,-13],[0,-11],[0,-18],[-5,-16],[-20,-8],[-27,-8],[-19,-10]],[[2108,798],[6,-4]],[[1964,732],[29,0],[43,2],[23,15],[23,22],[4,15],[22,12]],[[1923,733],[41,-1]],[[1847,675],[9,18],[32,25],[35,15]],[[2416,1467],[11,-4]],[[2443,1463],[13,-15],[0,-47],[0,-19],[17,-35],[13,-12]],[[2427,1463],[16,0]],[[2486,1335],[1,5]],[[2487,1340],[7,25],[5,26],[7,12],[16,6],[11,11],[8,19],[8,16],[10,19],[15,12],[28,8],[13,5]],[[3781,2102],[26,-2],[18,-10],[21,-19],[12,-20]],[[3708,2023],[7,0],[10,14],[0,26],[0,33],[6,5],[9,0],[17,1],[24,0]],[[3605,2067],[14,-10],[7,-14],[7,-6]],[[3503,2036],[18,0],[19,4],[14,7],[35,14],[16,6]],[[3674,2051],[7,-1],[7,-9],[9,-14],[11,-4]],[[3633,2037],[18,0],[8,3],[7,7],[8,4]],[[3491,2037],[12,-1]],[[3454,1981],[6,1],[3,8],[4,14],[6,16],[10,13],[8,4]],[[3414,2003],[9,-4],[14,-8],[10,-8],[7,-2]],[[3404,2000],[5,3],[5,0]],[[3457,1260],[-12,13],[-11,20],[-5,7],[-15,5],[-13,1],[-14,12],[-3,3]],[[3539,1198],[-9,7],[-7,18],[-2,22],[-5,23],[-6,13],[-5,9],[-7,7]],[[3498,1297],[-10,-1],[-7,-14],[-5,-13],[-5,-6],[-7,-3],[-7,0]],[[3708,1102],[-26,7],[-22,16],[-15,10],[-16,7],[-11,7],[-1,29],[-4,13],[-23,8],[-19,0],[-21,2]],[[3550,1201],[-11,-3]],[[3747,1105],[-11,-2],[-28,-1]],[[3388,1476],[-4,-1],[-5,-1],[0,-7],[5,-6],[0,-8],[-3,-4],[-10,-1],[-4,0],[-6,-2],[-3,-9],[-3,-8],[-5,-1]],[[3350,1428],[-8,6],[-5,8],[-11,11],[-8,4]],[[3318,1457],[-8,0],[-9,-4],[-6,-14],[-8,-9],[-6,-8],[-3,-11],[-2,-14],[4,-8],[11,-10],[12,-9],[6,-6],[0,-11],[1,-11],[1,-1]],[[3858,2051],[9,34],[5,19],[10,18],[2,16],[-3,15],[-6,15],[-2,14],[0,3]],[[2825,1647],[-7,-2],[0,-13],[0,-16],[0,-9],[6,-9],[7,-4],[0,-11],[0,-24],[-9,-13],[-13,-22],[-8,-14],[-8,-6],[-23,-9],[-27,-2],[0,-2]],[[3011,1781],[20,8],[22,16],[12,10],[16,12]],[[2993,1782],[18,-1]],[[2954,1616],[8,2],[4,8],[4,20],[5,20],[7,20],[3,19],[2,16],[0,19],[-2,15],[-2,16],[2,7],[8,4]],[[2825,1647],[0,-5],[15,-7],[16,-2],[11,-1]],[[2921,1645],[9,-11],[7,-12],[17,-6]],[[2882,1612],[8,0],[6,11],[8,7],[6,8],[1,7],[10,0]],[[2880,1642],[3,-4],[1,-15],[-3,-6],[1,-5]],[[2867,1632],[7,7],[6,3]],[[3148,1677],[-13,15],[-19,24],[-19,25],[-7,23],[-9,38],[0,21],[0,4]],[[1969,455],[-2,9],[-10,16]],[[3036,905],[-8,6],[-7,14],[-5,12],[-14,8],[-14,5],[-11,6],[-6,10],[-7,3]],[[2964,969],[-11,0],[-11,-6],[-7,-6],[-15,-2],[-9,0],[-14,-1],[-4,-3],[-5,-7],[0,-17],[-2,-22],[-10,-23],[-8,-4],[-14,-4]],[[2854,874],[-14,1],[-2,11],[-8,12],[-11,8],[-11,2],[-13,1]],[[2795,909],[-6,0]],[[3036,905],[0,-16],[9,-14],[15,-17],[8,-5]],[[3101,881],[3,-10],[0,-24],[-6,-11],[0,-18],[-1,-20],[3,-17],[8,-11],[8,-14],[3,-17],[0,-14],[-1,-14],[-4,-10],[-4,-6],[-3,-14],[0,-11],[-2,-21],[1,-30],[3,-17],[8,-26],[6,-14],[13,-4]],[[3068,853],[14,0],[4,7],[4,10],[3,7],[8,4]],[[3174,560],[18,-2]],[[3136,558],[15,0],[13,1],[10,1]],[[3198,558],[3,-8],[-5,-6],[-3,-16],[-8,-13],[-8,-18],[-3,-18],[0,-23],[8,-17],[8,-4],[11,-20],[1,-24],[-3,-38],[3,-29],[2,-15],[9,-6],[11,-3]],[[3192,558],[6,0]],[[3244,300],[8,-1],[4,-10],[0,-17],[3,-22],[0,-1]],[[3224,300],[12,0],[8,0]],[[1969,455],[-13,-25],[-18,-21],[-31,-23],[-30,-17],[-25,-16],[-34,-20],[-16,-16],[-15,-21],[-15,-18],[-10,-31],[-7,-41],[-1,-26],[0,-21],[-2,-15],[-12,-6],[-7,-7],[0,-11],[0,-18],[8,-9],[8,-19],[0,-18],[-2,-22],[-12,-13],[-15,-1],[-22,-2],[-17,-13],[-1,-5]],[[3778,639],[0,-1],[5,-10],[3,-7],[2,-12],[0,-24],[0,-11],[1,-12],[8,-4]],[[3805,558],[4,-5],[-1,-12],[-8,-4],[-6,-1],[-15,-13],[-12,-10],[-17,-9],[-7,0],[-6,-1],[-5,0],[-1,-13],[4,-14],[5,-11],[2,-17],[4,-9],[3,-9],[0,-10],[-4,-3],[-10,-1]],[[3797,558],[8,0]],[[3735,416],[-21,1]],[[3714,417],[-25,-4],[-8,-4],[-5,-11],[-2,-13],[-3,-8],[8,-22],[0,-1]],[[3858,781],[-1,-5],[-1,-11],[1,-10],[8,-9],[4,-7],[6,-20],[1,-14],[0,-17],[-2,-8],[-8,-3],[-12,0]],[[3854,677],[-19,2]],[[3835,679],[-17,-1],[-13,-1],[-7,-6],[-10,-14],[-9,-11],[-1,-7]],[[3952,2200],[7,-1],[16,-4]],[[3873,2185],[0,6],[3,6],[10,0],[22,1],[18,2],[9,0],[11,0],[6,0]],[[3975,2195],[0,5],[10,5],[16,9],[15,22],[26,17],[25,17],[14,9],[15,8]],[[2984,1914],[-9,4],[-6,15],[-14,11],[-14,3],[-22,12],[-8,9]],[[3095,1886],[-5,4],[-14,10],[-12,16],[-14,10],[-20,1]],[[3030,1927],[-17,-2],[-8,-7],[-12,-4],[-9,0]],[[3347,1999],[1,-2],[-4,-15],[-13,-10],[-27,-10],[-21,-12],[-16,-1]],[[3267,1949],[-8,9],[-10,19],[-15,17],[-20,5]],[[3214,1999],[-21,-1],[-18,-3],[-11,-11],[-20,-17],[-8,-11],[-4,-13],[0,-14],[-7,-10],[-12,-10],[-4,-10],[-12,-8],[-2,-5]],[[2834,2079],[5,-12],[17,-11],[17,-15],[17,-14]],[[2910,2027],[4,-8],[0,-17],[-3,-11],[-1,-12],[0,-9],[1,-2]],[[2890,2027],[11,0],[9,0]],[[1989,1309],[7,28],[-3,35],[-5,13],[-7,9],[-3,10],[0,16],[-2,17],[-14,11],[-7,19],[2,11],[8,6],[12,0],[4,8],[0,20],[0,29],[7,18],[30,3],[9,2]],[[1989,1309],[-1,1]],[[1988,1310],[-9,0],[-12,-11],[-16,-2],[-18,-7],[-21,-2],[-13,-11],[-8,-5],[-1,-8]],[[1890,1264],[-14,12],[-10,13],[-14,18],[-22,16],[-22,12],[-30,9]],[[1778,1344],[-16,-2]],[[4018,1550],[-10,-4],[-17,-12],[-14,-12],[0,-26],[-3,-20],[-6,-16],[-11,-11],[-5,-12]],[[3952,1437],[-3,-6],[-8,-14],[-13,-20],[-11,-22],[-5,-12],[-6,-13],[-12,-2]],[[3894,1348],[-15,1],[-16,5],[-14,5],[-7,6],[-12,8]],[[3830,1373],[-9,-2],[-10,-11],[-14,-14],[-5,-11],[5,-15],[9,-25],[6,-7],[3,-16],[0,-20],[0,-14],[7,-14],[12,-9],[5,-2]],[[4019,1550],[13,-4],[10,-8],[10,-12],[6,-6],[13,-5]],[[4018,1550],[1,0]],[[4071,1515],[16,0],[9,0]],[[3839,1213],[-6,-12],[-17,-15],[-17,-21],[-18,-19],[-13,-11],[-14,-11],[-7,-7],[-2,-10],[2,-2]],[[3848,872],[-4,7],[-3,23],[-1,16],[3,12],[4,4],[8,8],[3,14],[-7,15],[-12,7],[-17,9],[-13,2],[-4,10]],[[2113,1980],[0,-2],[15,-4],[18,-7],[19,-14],[19,-11],[5,-8],[-1,-25],[-5,-25],[-5,-27],[-4,-33],[0,-19],[11,-13],[10,-1],[19,-23],[7,-4],[7,-4]],[[2620,2278],[-5,-14],[16,-19],[15,-30],[10,-15]],[[2656,2200],[12,-21],[22,-28],[9,-13]],[[2772,2071],[-24,5],[-10,9],[-12,21],[-9,10],[-10,11],[-8,11]],[[2791,2117],[-2,-7],[-9,-36],[-8,-3]],[[2620,2278],[12,6],[13,7],[13,12],[5,26],[0,26],[-6,11],[-12,5],[-16,19],[-16,26],[-2,14],[-12,39]],[[2153,2128],[-12,14],[-12,11],[6,8],[17,8],[21,1],[18,4],[17,0],[18,3],[17,20],[2,6],[0,1]],[[2113,1980],[1,8],[4,4],[7,4],[20,4],[17,7],[10,4],[0,15],[-12,23],[-4,15],[2,11],[9,12],[14,6],[6,8],[0,17],[-6,18]],[[2181,2136],[-8,-2],[-10,-6],[-10,0]],[[4096,3242],[-27,4]],[[4069,3246],[-58,-5]],[[1282,537],[44,-6],[35,-9],[7,-14],[-9,-18],[-38,-17],[-119,-22]],[[1177,530],[105,7]],[[3569,2626],[6,-47],[17,-20],[31,-9],[25,-27],[3,-28],[-10,-39],[4,-40],[10,-75],[10,-25],[5,-33],[-1,-29],[-5,-18]],[[2140,2873],[-56,10]],[[2084,2883],[-33,0]],[[2275,2878],[-67,0],[-68,-5]],[[606,3281],[52,-36],[78,-5],[-11,-35],[23,-25],[33,-15],[45,-10],[34,-15]],[[893,3160],[34,-10],[15,-30],[18,-46],[27,-25]],[[860,3140],[33,20]],[[1065,3074],[30,-15]],[[987,3049],[48,20],[30,5]],[[1214,3311],[49,10],[22,30],[41,15],[37,1]],[[1166,3326],[48,-15]],[[1121,3311],[45,15]],[[1243,2985],[46,-46],[30,-10]],[[1397,2934],[23,-35],[-8,-46],[23,-60],[33,-25],[30,-20]],[[1319,2929],[45,5],[33,0]],[[920,3616],[18,-44],[0,-50],[0,-55],[0,-51],[19,-30],[37,-35],[49,-25]],[[1091,3326],[30,-15]],[[1043,3326],[48,0]],[[1121,3311],[15,-56],[30,-20],[-11,-30],[-23,-30],[4,-35],[30,-30],[15,-36],[7,-45]],[[1188,3029],[-45,30]],[[1143,3059],[-48,0]],[[1095,3059],[-26,-40],[-45,-20],[-11,-55],[-15,-35],[-38,-16]],[[901,2858],[-68,20],[-78,36],[-22,60]],[[733,2974],[-56,-6]],[[960,2893],[-29,11]],[[931,2904],[-30,-46]],[[1498,2748],[-7,-41],[-8,-65]],[[1483,2642],[-18,-45]],[[1465,2597],[-27,5],[-15,20],[-18,15]],[[1405,2637],[-23,-35],[-22,-40]],[[1360,2562],[-26,5],[-33,16]],[[1457,2265],[45,-15],[41,-5]],[[1259,2145],[45,55],[45,45],[52,15],[56,5]],[[1573,2250],[19,-35],[6,-54]],[[1543,2245],[30,5]],[[1483,2642],[34,-5],[19,-40],[18,-25],[8,-30],[44,-31]],[[1659,2511],[37,-5],[6,-50]],[[1606,2511],[53,0]],[[1722,2828],[-7,45],[-19,36],[0,20]],[[1681,2833],[41,-5]],[[1644,2813],[37,20]],[[1618,2823],[26,-10]],[[1498,2748],[60,5],[0,40],[30,25],[30,5]],[[1984,2622],[15,-30],[26,-15],[15,-25],[33,-10]],[[1943,2552],[18,0],[-4,30],[0,40],[27,0]],[[1881,2583],[35,-11],[27,-20]],[[1861,2572],[20,11]],[[2111,2542],[18,-11]],[[2073,2542],[38,0]],[[2073,2542],[19,-41],[0,-15],[-22,-20],[-23,-10],[0,-30],[8,-42]],[[2129,2531],[30,16],[26,0],[11,45],[30,20],[41,10]],[[2409,2838],[15,-35],[26,-15],[26,-28],[30,-48],[49,-10],[15,-40],[15,-35],[19,-30],[18,-50],[-9,-61]],[[2312,2788],[45,27],[52,23]],[[2525,3115],[26,-20]],[[2469,3034],[34,20],[-8,46],[30,15]],[[2551,3095],[38,0]],[[2339,3092],[40,-18]],[[2413,3085],[30,-31],[26,-20]],[[2379,3074],[34,11]],[[2589,3095],[29,-56],[34,-35],[34,-45],[-12,-45],[62,-18],[44,-15],[33,0]],[[2529,3210],[41,-25],[22,-15],[19,-40],[-22,-35]],[[2475,3480],[-43,2],[-26,30],[-30,25],[-23,40]],[[2353,3577],[-56,-25],[-44,-15],[-15,-30],[-27,-5],[-18,-20]],[[2193,3482],[-26,15],[-15,30],[-19,20]],[[2133,3547],[-15,-30],[-19,-20],[-26,0]],[[2073,3497],[-11,35],[-9,26]],[[2073,3497],[-33,-40],[-4,-46],[19,-45],[11,-35],[-8,-50]],[[2058,3281],[-41,-31],[-30,-5],[-44,0]],[[1943,3245],[-34,31]],[[1909,3276],[-22,-10],[0,-31],[-19,-10]],[[1868,3225],[-30,25],[-11,41],[0,30],[42,21]],[[1868,3225],[-15,-40],[-22,-25],[29,-25],[15,-25]],[[1875,3110],[-37,-36],[-7,-35],[-30,-20],[-34,0],[-26,-30],[-33,-14]],[[2387,3140],[-45,25],[-41,20],[-48,10]],[[2253,3195],[-23,-10],[0,-45],[0,-40],[-37,-15]],[[2077,3090],[-22,25],[-23,10]],[[2193,3085],[-49,10],[-26,15]],[[2118,3110],[-41,-20]],[[2032,3125],[26,40],[19,35],[-11,25],[-8,56]],[[2032,3125],[-41,-15]],[[1991,3110],[-48,10]],[[1943,3120],[-34,-15]],[[1909,3105],[-34,5]],[[2051,2883],[-8,-40],[-26,-30],[-22,-20],[-4,-40],[-11,-30],[-41,-5],[-70,-9],[-35,-12]],[[1808,2919],[41,-5],[41,-5],[53,-16],[48,-5]],[[1756,2888],[52,31]],[[2014,2909],[37,-26]],[[1991,2888],[23,21]],[[1916,3809],[-44,20]],[[1872,3829],[-23,-10],[15,-41],[-15,-45]],[[1993,3809],[-39,10]],[[1954,3819],[-38,-10]],[[1849,3733],[-33,5]],[[1816,3738],[-27,-20],[-3,-60],[0,-30],[-34,0],[-37,-11],[-45,-35]],[[1670,3582],[26,-45],[-4,-40],[-3,-45],[18,-5]],[[1741,3452],[26,-10],[37,-48]],[[1707,3447],[34,5]],[[1592,3587],[-53,41]],[[1670,3582],[-49,5]],[[1621,3587],[-29,0]],[[1536,3557],[-23,5],[-26,40],[-30,51],[-34,5]],[[1423,3658],[-22,-5],[-27,-39]],[[1539,3628],[-3,-71]],[[1539,3628],[-30,45],[30,20],[30,5],[37,60]],[[1606,3758],[-29,30],[-41,66],[-30,35],[11,30],[-30,30],[-60,41],[-73,14]],[[1393,4063],[57,-13],[29,-35]],[[1539,4015],[45,-25],[34,-26],[11,-35],[11,-25]],[[1479,4015],[60,0]],[[1640,3904],[37,-40],[45,-25],[-4,-56],[-14,-40]],[[1704,3743],[-38,10],[-60,5]],[[1767,3979],[34,5],[18,26],[34,25],[11,30],[41,3]],[[1733,3995],[34,-16]],[[1640,3904],[64,30],[29,61]],[[1188,3029],[55,-44]],[[1301,2583],[-66,-32],[-31,-24],[-59,-62]],[[1561,3195],[-63,-95],[-48,0],[-96,-73],[-72,-25],[-39,-17]],[[1685,3039],[11,-24],[12,-40]],[[1660,2998],[25,41]],[[1599,3025],[15,-8],[46,-19]],[[1708,2975],[-12,-46]],[[1696,2929],[37,-8],[23,-33]],[[1756,2888],[20,-28],[43,-21],[22,-38],[-21,-36],[4,-27],[-12,-22],[22,-19]],[[1834,2697],[19,-35],[4,-32],[-2,-30],[6,-28]],[[1861,2572],[-2,-24],[-2,-27],[-49,-15],[-20,-21],[-15,-16],[-29,-11],[-25,-5]],[[1719,2453],[-17,3]],[[2293,2634],[6,-18],[-26,-43],[-4,-33],[38,-50],[51,-18],[38,-4],[40,-35],[1,-1]],[[2267,2622],[26,12]],[[2312,2788],[17,-93],[-81,-9],[0,-40],[19,-24]],[[2275,2878],[37,-90]],[[2339,3092],[-30,-37],[-5,-31],[17,-36],[14,-36],[-9,-31],[-42,-5],[-9,-38]],[[1711,3334],[21,27],[19,11],[30,7],[23,15]],[[1652,3367],[59,-33]],[[1561,3195],[6,25],[30,60],[25,22],[11,23],[2,19],[17,23]],[[1869,3342],[68,25],[37,36],[4,29],[15,51],[25,56],[35,19]],[[2053,3558],[-1,49],[-18,43],[-30,35],[-12,30],[-7,51],[8,43]],[[1905,4068],[-12,24],[0,4]],[[0,773],[5,-5]],[[6,768],[76,-27]],[[0,1195],[17,41],[16,139],[-33,95]],[[0,767],[83,-26]],[[0,773],[5,-5]],[[6,768],[76,-27]],[[1822,1431],[36,-47]],[[1858,1384]],[[1858,1384],[1,-1]],[[1859,1383]],[[1859,1383]],[[1859,1383],[-45,-123]],[[1859,1383]],[[1858,1384],[1,-1]],[[3,3938],[9,1]],[[23,3935],[2,-1]],[[79,4025],[5,7]],[[81,3949],[0,4]],[[86,4035],[5,3]],[[0,773],[5,-5]],[[6,768],[76,-27]],[[2411,78],[28,203],[69,132],[5,153],[191,141],[-68,40],[-27,135],[-55,115]],[[2554,997]],[[2554,997],[-1,2]],[[2553,999],[-23,145]],[[2553,999],[-1,4]],[[2410,80],[0,-2],[1,0],[0,2],[-1,0]],[[2424,207]],[[2484,360],[0,1],[1,0],[0,-1],[-1,0]],[[2497,479]],[[2505,448]],[[2506,511]],[[2520,573]],[[2537,1027],[0,1],[0,-1]],[[2577,944],[0,-1],[0,1]],[[2581,941]],[[2606,846]],[[2620,649]],[[2625,801],[-1,0],[1,0]],[[2695,714]],[[2712,1954],[28,44]],[[2740,1998],[104,-38],[56,121],[19,115],[-41,137],[45,60],[-18,219],[55,122],[-14,54],[59,69],[120,39],[27,61],[221,180],[86,227],[-7,83],[36,27],[14,78],[62,97],[-156,154],[-118,177],[-11,116]],[[4096,466],[-37,151],[-35,17],[-67,132],[-300,93],[-100,155],[-39,4],[34,78],[-94,-1],[-71,40],[-70,-9],[-75,78],[-5,50],[-53,35],[2,40],[-38,-7],[-38,62],[-45,6],[-79,156],[-97,82],[7,43],[-44,-11],[-19,21],[-65,95],[23,30],[-237,166],[19,22],[113,-12],[34,8],[12,7],[4,1],[4,0]],[[0,3941],[79,5],[-12,67],[56,66],[1,17]],[[0,3940],[3,-2]],[[12,3939],[1,0]],[[15,3939],[8,-4]],[[25,3934],[1,0]],[[29,3935],[7,2]],[[37,3937],[12,5]],[[53,3943],[2,0]],[[56,3943],[25,6]],[[66,4005],[13,20]],[[81,3953],[-15,52]],[[84,4032],[0,1]],[[84,4033],[1,1]],[[85,4034],[1,1]],[[91,4038],[2,0]],[[93,4039],[30,40],[1,17]],[[4054,2462],[42,60]],[[4096,2540],[0,61]],[[4096,2618],[0,11]],[[2376,608],[15,18],[116,-60]],[[2507,566],[15,7]],[[2512,562],[-5,4]],[[2398,622]],[[2440,601]],[[2520,573]],[[0,773],[5,-5]],[[6,768],[76,-27]],[[2029,3252],[-3,-26],[-68,-3],[-96,102],[-111,-117],[-100,31],[-99,-56],[-47,53],[-22,-31],[-83,33],[-126,-22],[-107,97],[-130,-28],[-131,0],[-10,20]],[[2029,3246],[102,46]],[[2033,3176],[-4,67]],[[2340,2294],[-65,120],[-11,151],[-158,184],[2,79],[41,71],[-102,248]],[[2428,2028],[5,105],[-31,20],[-53,122]],[[2447,2041],[-1,-1]],[[2446,2040],[-1,-2]],[[2445,2038],[-9,-11]],[[2436,2027],[-2,-1]],[[2434,2026],[-1,-1]],[[2433,2025],[-1,0]],[[2432,2025],[-2,1]],[[2430,2026]],[[2430,2026],[-1,1]],[[2429,2027],[-1,1]],[[2428,2028]],[[2447,2041],[-1,-1]],[[2448,2041],[5,4]],[[2453,2045],[-2,0],[2,0]],[[2453,2045],[117,4],[36,-50],[-45,-17]],[[1842,1059],[-6,-28]],[[1856,1130],[-14,-70]],[[13,3939],[2,0]],[[26,3934],[3,1]],[[36,3937],[1,0]],[[49,3942],[4,1]],[[55,3943],[1,0]],[[66,4005]],[[84,4033]],[[85,4034]],[[93,4038],[0,1]],[[1786,0],[2,4],[43,47],[29,20],[31,-3],[65,-23],[0,9],[-2,2],[-4,0],[-3,2],[10,2],[9,-1],[7,-5],[3,-9],[20,-33],[3,-12],[-213,0]],[[1648,260],[-17,-36],[-2,-44],[8,-101],[-9,-41],[-15,-38],[-222,0],[-14,71],[4,35],[22,39],[5,27],[-4,7],[-11,0],[-11,3],[-5,17],[25,164],[6,19],[22,10],[77,-10],[39,-23],[15,-19],[6,-33],[10,-15],[23,-16],[27,-13],[21,-3]],[[1648,260],[-17,-36],[-2,-44],[8,-101],[-9,-41],[-15,-38]],[[1391,0],[-14,71],[4,35],[22,39],[5,27],[-4,7],[-11,0],[-11,3],[-5,17],[25,164],[6,19],[22,10],[77,-10],[39,-23],[15,-19],[6,-33],[10,-15],[23,-16],[27,-13],[21,-3]],[[1786,0],[2,4],[43,47],[29,20],[31,-3],[65,-23],[0,9],[-2,2],[-4,0],[-3,2],[10,2],[9,-1],[7,-5],[3,-9],[20,-33],[3,-12]],[[0,902],[4,7],[16,23],[7,12],[3,13],[2,15],[0,15]],[[1755,1627],[23,24],[19,27],[17,31],[4,10]],[[1872,1979],[4,16],[11,38]],[[1818,1719],[10,24],[9,33],[30,181],[5,22]],[[2965,2362],[-13,-110]],[[2952,2252],[-3,-19],[-34,-127],[-98,-238]],[[2965,2367],[0,-5]],[[3505,1021],[38,-41],[4,-5]],[[3060,1532],[8,-7],[21,-24],[16,-31],[6,-18],[3,-19]],[[2808,1880],[17,-27],[23,-19],[59,-40],[11,-9],[9,-11],[8,-14],[7,-18],[4,-18],[9,-59],[4,-20],[6,-18],[9,-17],[10,-13],[12,-12],[64,-53]],[[3114,1433],[0,-1],[13,-124],[10,-35],[16,-30],[20,-25],[25,-17],[58,-24],[83,-24],[51,-22],[13,-8],[27,-21],[75,-81]],[[3547,975],[79,-102],[22,-23],[25,-18],[26,-11],[34,0],[31,12],[62,31],[53,5],[51,-19],[45,-37],[37,-52],[28,-60],[19,-67],[11,-69],[1,-71],[-2,-37],[0,-19],[2,-19],[4,-19],[5,-18],[8,-16],[8,-10]],[[1887,2033],[39,-10]],[[2355,2004],[12,7],[93,68]],[[1926,2023],[14,-3],[167,-80],[26,-6],[26,-1],[53,6],[15,3],[59,23],[69,39]],[[2443,2079],[42,-10]],[[2488,2068],[45,-11],[100,-49],[44,-29]],[[2485,2069],[3,-1]],[[2677,1979],[52,-35],[79,-64]],[[3417,3779],[21,-17],[23,-13],[69,-31],[21,-16],[16,-24],[5,-15],[2,-17],[0,-18],[-4,-16],[-7,-14],[-9,-13],[-10,-10],[-55,-47],[-18,-23],[-13,-31],[-4,-20],[-2,-20],[-1,-20],[6,-73],[-1,-26],[-4,-26]],[[3234,3125],[-9,-9]],[[3225,3116],[-198,-193],[-18,-23],[-16,-25],[-15,-31],[-10,-34],[-5,-25]],[[3452,3289],[-21,-53],[-39,-23],[-46,-11],[-43,-16],[-32,-25],[-37,-36]],[[131,823],[6,-14]],[[157,760],[15,-38],[16,-31],[9,-12],[10,-11],[17,-15]],[[30,931],[54,-43],[25,-25],[20,-34],[2,-6]],[[137,809],[20,-49]],[[224,653],[58,-52],[5,-6],[4,-7],[2,-9],[0,-8],[-2,-9],[-2,-8],[-7,-15],[-8,-16],[-2,-9],[0,-9],[3,-5],[5,-4],[68,-23],[28,-14]],[[376,459],[13,-8],[29,-27],[20,-15],[6,-5],[6,-8],[2,-8],[0,-9],[-1,-9],[-6,-26],[-1,-9],[0,-9],[3,-17],[6,-15],[7,-14],[46,-58]],[[638,316],[-41,-53],[-20,-19],[-20,-11]],[[557,233],[-1,-1],[-23,-5],[-24,0]],[[959,364],[-11,11],[-14,6],[-14,3],[-36,3],[-92,-7],[-101,-23],[-15,-6],[-14,-9],[-18,-17],[-6,-9]],[[950,364],[93,-56],[89,-90],[94,-65],[109,21]],[[32,987],[-5,40],[-10,40],[-17,44]],[[2956,2298],[32,5],[12,6]],[[3000,2309],[48,22],[31,11],[37,3],[37,-6],[36,-14],[59,-37],[14,-6],[13,-5],[34,-4],[34,-1],[73,8],[143,34],[174,8],[34,6],[33,12],[16,7],[16,9],[62,51],[13,8],[14,7],[14,2],[15,0],[87,-20],[28,-3],[14,1],[13,2],[4,1]],[[1341,176],[-3,41]],[[1341,72],[3,46],[0,10]],[[1338,217],[-4,72],[3,32],[8,30],[15,25],[36,24],[40,5],[42,-9],[37,-17]],[[1344,128],[-3,48]],[[1791,1020],[39,51],[9,15],[7,16],[6,35]],[[1725,1598],[30,29]],[[1520,369],[3,15],[7,31],[23,68],[60,154],[11,40],[8,42],[5,42],[3,43],[-1,69],[4,34],[11,29],[25,23],[60,18],[28,16],[11,11],[13,16]],[[1852,1137],[0,2],[-7,37],[-13,36],[-24,44],[-18,25],[-9,11],[-21,18],[-53,41],[-14,13],[-14,16],[-11,21],[-9,23],[-4,25],[-1,26],[11,51],[25,39],[35,33]],[[2155,2774],[6,-17],[4,-7]],[[2157,3089],[6,-20],[5,-21],[4,-21],[1,-22],[-1,-17],[-2,-17],[-17,-74],[-6,-41],[0,-41],[8,-40],[0,-1]],[[2165,2750],[45,-99],[56,-183],[13,-28],[15,-26],[18,-24],[43,-45],[10,-12],[4,-7],[4,-8],[6,-15],[2,-8],[2,-8],[6,-78],[7,-35]],[[2429,66],[-28,46]],[[2466,0],[-5,10],[-32,56]],[[2157,151],[-45,-9],[-54,-2],[-52,15],[-9,7]],[[2401,112],[-25,25],[-28,18],[-30,11],[-10,1]],[[1579,304],[-11,17]],[[1672,380],[-2,-3],[-34,-57],[-9,-12],[-11,-9],[-13,-4],[-23,9]],[[1568,321],[-24,35],[-24,13]],[[1580,304],[-1,0]],[[1997,162],[-38,30],[-30,42],[-56,92],[-30,42],[-17,18],[-18,15],[-20,11],[-20,7],[-23,2],[-24,-3],[-23,-10],[-19,-17],[-7,-11]],[[2308,167],[-21,4],[-31,-1],[-99,-19]],[[624,3614],[126,66]],[[750,3680],[23,12],[230,158]],[[1003,3850],[31,17],[65,26],[66,15],[64,4],[32,-2],[32,-7],[33,-12],[31,-20],[23,-31],[13,-43],[3,-41]],[[1396,3756],[5,-21],[8,-17],[10,-12],[11,-8],[84,-39],[185,-51],[6,-1],[6,0],[50,4],[45,0]],[[2096,3309],[12,-18],[6,-10],[4,-13],[2,-14],[0,-7]],[[1806,3611],[40,-6],[54,-19],[43,-27],[22,-20],[21,-23],[17,-28],[87,-169],[6,-10]],[[2120,3247],[0,-6],[-2,-34],[0,-19],[1,-20],[3,-19],[7,-17],[19,-27],[9,-16]],[[2429,2119],[34,-35]],[[2396,2174],[10,-25],[7,-12],[8,-9],[8,-9]],[[0,3968],[145,-14],[32,-9],[20,-8],[19,-11],[17,-14],[16,-17],[11,-20],[9,-21],[7,-23],[10,-50],[4,-26],[2,-26],[-2,-27],[-6,-26],[-8,-26],[-20,-48]],[[255,3594],[19,7],[6,4],[27,25],[13,9],[12,6],[13,4],[14,3],[14,-3],[13,-8],[23,-20],[13,-9],[13,-5],[14,-2],[14,1],[11,5],[10,8],[18,18],[9,6],[10,4],[10,2],[11,0],[10,-1],[10,-2],[19,-8],[22,-11],[21,-13]],[[107,4096],[-7,-14],[-10,-15],[-12,-12],[-6,-5],[-9,-6],[-3,-2],[-2,-1],[-1,-2],[-1,-3],[-1,-19],[0,-16],[3,-15],[5,-14]],[[2115,3434],[0,4]],[[2131,3248],[1,12],[2,21],[-1,21],[-3,21],[-2,10]],[[2115,3438],[0,9],[7,49],[25,95]],[[2128,3333],[-13,64],[0,37]],[[2129,3238],[2,10]],[[2147,3591],[24,118],[11,38],[6,18],[8,17],[9,15],[10,14],[11,10],[12,8],[12,5],[53,13],[13,5],[11,6],[9,8],[8,11],[6,12],[7,18],[4,19],[6,39],[1,21],[-1,22],[-15,88]],[[2174,3023],[-7,-1],[-6,-1],[-7,-3],[-6,-5],[-5,-6],[-5,-6],[-4,-7],[-3,-8],[-6,-18],[-5,-17],[-3,-18],[-4,-38],[-2,-9],[-4,-9],[-4,-7],[-73,-82],[-11,-10],[-11,-7],[-13,-3],[-15,3],[-12,9],[-30,39],[-5,5],[-15,9],[-3,1],[-17,2],[-6,0],[-5,-1],[-98,-43],[-24,-14]],[[1765,2778],[-28,-17],[-47,-40],[-40,-55],[-15,-28]],[[1577,2496],[-8,-13],[-11,-15],[-6,-6],[-27,-23]],[[1635,2638],[-40,-105],[-8,-18],[-8,-17],[-2,-2]],[[1264,2279],[-8,-14]],[[1525,2439],[-18,-13],[-31,-14]],[[1476,2412],[-145,-66],[-29,-21],[-26,-26],[-12,-20]],[[1267,2272],[-11,-39],[-20,-51],[-27,-40],[-39,-19],[-29,2],[-12,2]],[[1129,2127],[-74,17],[-34,0],[-33,-6],[-33,-11],[-32,-15],[-64,-41],[-60,-50],[-165,-175],[-29,-24]],[[1271,2285],[-4,-13]],[[605,1822],[-196,-123],[-60,-50],[-104,-69],[-15,-5],[-16,0],[-25,8]],[[189,1583],[-20,6],[-16,-2],[-12,-7],[-11,-11],[-8,-14],[-6,-16],[-3,-32],[1,-64],[-5,-31],[-12,-22],[-17,-13],[-19,-6],[-42,-7],[-19,-6]],[[2383,108],[21,84]],[[2687,692],[11,31],[5,10],[6,10],[7,8],[11,8]],[[2738,766],[20,4],[45,-4]],[[2404,192],[4,15],[65,170],[18,39],[33,55],[24,33],[14,15],[71,66],[14,17],[12,19],[9,21],[19,50]],[[2727,759],[9,6],[2,1]],[[2803,766],[18,-3]],[[3236,909],[36,-6],[30,-2],[29,5],[24,8]],[[2821,763],[56,-9],[13,-1],[14,0],[14,2],[27,13],[25,21],[63,78],[21,22],[24,16],[26,11],[27,6],[27,1],[78,-14]],[[3355,914],[11,6],[74,57]],[[3440,977],[52,40]],[[2963,2785],[-2,-11],[-3,-37],[-4,-185],[11,-185]],[[3378,4039],[10,-22],[4,-32]],[[3324,4096],[8,-6],[23,-18],[19,-24],[4,-9]],[[3392,3985],[1,-3],[-1,-36],[-6,-64],[-1,-28],[4,-26],[10,-25],[18,-24]],[[1712,3699],[52,27]],[[2221,3362],[-1,0],[-24,-22],[-27,-47],[-27,-14]],[[3293,3950],[-26,-17],[-58,-20]],[[3209,3913],[-34,-11],[-40,-9],[-50,-38],[-57,-10],[-37,-22],[-36,-2],[-20,-21],[-35,-2],[-50,-25],[-48,-12],[-32,-42],[-9,-34],[-2,-77],[-12,-21],[-31,-10],[-67,-7],[-27,-12],[-12,-14],[-11,-41],[-28,-28],[-41,-3],[-41,-33],[-41,-1],[-28,-23],[-33,-2],[-61,18],[-17,-12],[-23,-31],[-65,-26]],[[1080,2136],[-77,9],[-36,17],[-20,0],[-23,-14],[-41,21],[-28,-2],[-75,31],[-50,-13],[-35,-26],[-14,0],[-16,31],[-33,1],[-18,-12],[-40,2],[-23,-9],[-39,-27],[-16,-36],[-41,-28],[-60,4],[-45,-17]],[[1628,2168],[-2,6],[-29,50]],[[1871,2016],[-16,19],[-32,27]],[[1542,2388],[-9,25]],[[1597,2224],[-1,2],[-7,24],[-6,60],[-35,58],[-6,20]],[[1823,2062],[-32,28],[-51,26],[-45,5],[-42,-12],[3,29],[-20,2],[-8,28]],[[0,2014],[30,-1],[21,-6],[24,-27],[32,-3],[19,-14],[32,7],[28,46],[54,53],[39,19],[33,-1],[38,-19]],[[4096,4096],[0,-4096],[-4096,0],[0,4096],[4096,0]],[[0,3760],[11,0],[14,-89],[-25,-18],[0,107]],[[1610,0],[42,258],[44,48],[44,-2],[34,-82],[-23,-87],[16,-86],[39,-30],[-15,-19],[-181,0]],[[1263,2163],[40,86],[55,16],[-16,-29],[17,-21],[-62,-92],[33,-12],[46,-177],[19,10],[25,-53],[-49,-2],[30,-36],[67,44],[-28,19],[5,39],[-47,12],[31,42],[47,-16],[1,-37],[51,35],[-39,24],[-29,-14],[-30,38],[55,54],[23,-20],[-5,78],[59,24],[18,27],[-18,28],[30,-11],[30,38],[63,-22],[86,90],[55,8],[-7,27],[-177,-4],[-72,27],[84,7],[17,60],[50,46],[-16,42],[50,24],[54,-36],[40,33],[63,-19],[11,-50],[-58,1],[-17,-44],[-53,-4],[16,-35],[73,-20],[236,122],[71,-74],[-36,-60],[-92,28],[-113,-105],[-155,-47],[-41,-61],[-63,4],[-93,-40],[-53,-106],[1,-83],[26,-39],[-17,-31],[31,-55],[-71,-107],[-65,-13],[-50,33],[-44,-33],[-35,38],[-27,80],[60,42],[12,60],[-44,144],[-59,78]],[[1983,141],[12,21],[120,17],[55,-37],[96,27],[-12,-41],[35,-15],[-24,-18],[85,-16],[13,-43],[55,-36],[-404,1],[-18,28],[23,78],[-36,34]],[[82,3069],[7,58],[37,2],[8,-42],[18,3],[-21,-38],[64,0],[4,-41],[25,-13],[22,32],[-24,34],[80,0],[47,69],[15,-62],[8,22],[25,-13],[3,-50],[49,79],[-61,15],[108,80],[33,-3],[47,-93],[-96,-43],[-20,-67],[-92,18],[-49,-21],[-12,-44],[-30,21],[-68,-59],[-95,69],[-32,87]],[[890,462],[31,103],[114,107],[38,8],[17,52],[42,22],[68,-11],[21,-28],[-41,6],[-10,-29],[34,-90],[1,-109],[27,-63],[36,-11],[57,-130],[-19,-23],[-70,-5],[-31,4],[-2,35],[-50,9],[-15,-21],[-68,39],[-47,88],[-69,56],[-64,-9]],[[156,2827],[61,111],[46,5],[13,28],[32,-20],[12,42],[52,23],[93,-24],[-15,-43],[35,-23],[-16,-38],[50,-80],[59,-32],[-89,-33],[-134,21],[-39,37],[-60,-39],[-46,3],[-54,62]],[[222,864],[28,18],[-22,116],[125,54],[150,-198],[-3,-95],[63,-80],[-93,-18],[-38,-104],[-49,-22],[-30,141],[-65,55],[-66,133]],[[2415,177],[55,-50],[-16,-65],[-130,21],[-22,118],[71,13],[0,22],[42,-59]],[[584,225],[-104,33],[92,113],[37,-4],[16,-44],[46,-27],[3,-38],[-90,-33]],[[1678,257],[-111,53],[6,49],[136,30],[17,-110],[-48,-22]],[[2780,797],[46,-38],[-21,-42],[-86,-40],[-58,26],[-13,56],[80,0],[52,38]],[[237,846],[16,-44],[65,0],[16,-65],[-16,-44],[-32,22],[-65,-65],[-97,0],[-31,133],[14,41],[28,-1],[10,-63],[27,-1],[18,14],[-18,73],[65,0]],[[4007,1834],[-81,36],[52,63],[77,-19],[-14,-61],[-34,-19]],[[3020,1543],[68,-19],[29,-90],[-49,-22],[-56,21],[-25,110],[17,22],[16,-22]],[[3644,1495],[-74,26],[129,44],[16,-44],[-71,-26]],[[1831,1706],[89,11],[-49,-130],[-65,-22],[-81,22],[-2,63],[51,111],[57,-55]],[[3554,977],[-81,-22],[-16,-44],[-33,0],[-32,-43],[-162,21],[30,101],[67,-13],[65,21],[16,-21],[65,0],[81,109],[17,-18],[-17,-91]],[[1790,1020],[12,77],[39,42],[41,-7],[21,-68],[-113,-44]],[[1175,1064],[26,74],[55,35],[-20,-82],[-61,-27]],[[1870,1978],[-40,20],[-8,68],[114,-22],[-22,-47],[-44,-19]],[[2971,2360],[23,-49],[58,-27],[-29,-41],[-149,19],[-16,66],[81,21],[0,22],[32,-11]],[[1534,2386],[-64,29],[-20,65],[95,40],[83,-62],[-28,-59],[-66,-13]],[[2154,2740],[-68,22],[-5,45],[97,-44],[-24,-23]],[[1153,2810],[22,-69],[-101,-25],[-28,4],[-33,65],[40,48],[52,8],[48,-31]],[[3260,3023],[-46,67],[15,35],[114,9],[-11,-52],[-72,-59]],[[2230,3312],[-3,-26],[-32,0],[-25,-34],[-89,-10],[-16,-21],[-32,21],[0,44],[-59,-40],[-22,18],[32,66],[67,15],[47,-37],[40,34],[-24,97],[97,-22],[19,-105]],[[933,3351],[0,-21],[-33,21],[-48,-43],[43,84],[86,25],[3,-35],[-51,-31]],[[1816,3876],[15,-59],[-18,-90],[-120,-49],[-45,80],[29,116],[65,-21],[48,21],[0,22],[26,-20]],[[3343,4049],[0,-22],[65,22],[-32,-131],[-85,5],[-45,-27],[-63,29],[-18,58],[71,-8],[10,95],[38,-24],[11,24],[48,-21]],[[2631,2917],[-80,-2],[4,64],[27,19],[82,-17],[-33,-64]],[[1806,1783],[-32,65],[65,87],[16,-37],[-49,-115]],[[2365,2098],[100,32],[21,-64],[60,42],[27,-23],[10,25],[29,-27],[3,-60],[49,87],[51,-29],[13,-59],[-32,0],[0,-43],[-32,0],[-49,-66],[-129,0],[-65,88],[-65,0],[-32,130],[41,-33]],[[1047,1521],[20,85],[49,44],[6,37],[-64,25],[41,17],[10,42],[-46,30],[15,20],[-25,36],[48,74],[-34,79],[64,121],[93,47],[30,125],[29,-65],[-20,-75],[59,-78],[44,-144],[-12,-60],[-60,-42],[26,-81],[-53,-16],[25,-155],[-40,2],[-22,-27],[-25,-90],[22,-84],[-19,-52],[59,-155],[-57,-37],[-54,115],[4,93],[-55,33],[54,92],[-112,44]],[[867,1255],[82,102],[61,-39],[46,-103],[-93,-11],[-46,-32],[-13,54],[-37,29]],[[451,2950],[29,115],[59,31],[44,-14],[16,-31],[-21,-56],[50,-38],[4,-53],[-41,8],[-19,-23],[5,-108],[-74,47],[-34,60],[16,38],[-34,24]],[[3495,208],[35,94],[44,-18],[46,64],[61,24],[115,-37],[-45,-98],[-138,-18],[2,-71],[-96,-7],[-24,67]],[[1204,1466],[26,96],[22,27],[40,-2],[-25,155],[19,17],[34,1],[36,-39],[65,34],[28,-33],[79,-2],[-13,-19],[22,-33],[-37,-28],[12,-52],[30,-12],[-5,-31],[60,-69],[31,7],[39,-130],[-24,-47],[-30,2],[-26,-33],[46,-18],[12,-62],[-24,-95],[-70,-23],[5,-69],[-43,1],[-194,134],[-59,15],[4,59],[-56,119],[19,52],[-23,78]],[[473,3451],[17,49],[53,27],[124,-46],[14,27],[55,-43],[60,12],[46,48],[-19,65],[41,38],[203,24],[27,-113],[-107,-11],[-47,-30],[-43,12],[-6,-170],[-76,-37],[41,-21],[22,-137],[-19,-66],[-32,0],[6,-90],[24,-20],[-43,-78],[27,-17],[-57,-42],[-48,55],[-37,106],[-96,50],[-33,46],[16,39],[-21,89],[53,70],[-116,81],[0,26],[-25,-2],[22,19],[-26,40]],[[1320,29],[30,125],[-28,66],[116,-24],[49,-196],[-161,0],[-6,29]],[[195,2723],[9,44],[54,-14],[57,40],[42,-38],[40,1],[45,-51],[-23,-191],[-76,9],[-71,-63],[-40,20],[-4,193],[-33,50]],[[472,877],[71,31],[55,-21],[20,59],[58,-41],[30,-63],[212,-10],[-14,-42],[24,-34],[-62,5],[-62,-53],[-4,-49],[-38,26],[-127,-54],[-2,-22],[-106,12],[39,80],[-65,58],[12,59],[-41,59]]]}