{"objects":{"water":{"type":"GeometryCollection","geometries":[{"type":"MultiPolygon","properties":{"source":"naturalearthdata.com","kind":"ocean","area":1576712559132672,"sort_rank":200,"min_zoom":0.0,"id":1},"arcs":[[[122],[123],[124]]]},{"type":"MultiPolygon","properties":{"sort_rank":200,"source":"naturalearthdata.com","min_zoom":0.0,"kind":"lake","area":1206448894},"arcs":[[[125]],[[126]],[[127]]]},{"type":"LineString","properties":{"source":"naturalearthdata.com","kind":"ocean","sort_rank":205,"boundary":true,"min_zoom":0.0,"id":19},"arcs":[128]},{"type":"LineString","properties":{"source":"naturalearthdata.com","kind":"lake","sort_rank":367,"boundary":true,"min_zoom":0.0,"id":668},"arcs":[129]},{"type":"LineString","properties":{"source":"naturalearthdata.com","kind":"lake","sort_rank":367,"boundary":true,"min_zoom":0.0,"id":752},"arcs":[130]},{"type":"LineString","properties":{"source":"naturalearthdata.com","kind":"lake","sort_rank":367,"boundary":true,"min_zoom":0.0,"id":753},"arcs":[131]},{"type":"LineString","properties":{"source":"naturalearthdata.com","kind":"lake","sort_rank":367,"boundary":true,"min_zoom":0.0,"id":754},"arcs":[132]},{"type":"MultiLineString","properties":{"source":"naturalearthdata.com","kind":"lake","sort_rank":367,"boundary":true,"min_zoom":0.0,"id":755},"arcs":[[133],[134]]},{"type":"LineString","properties":{"source":"naturalearthdata.com","kind":"lake","sort_rank":367,"boundary":true,"min_zoom":0.0,"id":756},"arcs":[135]},{"type":"MultiLineString","properties":{"source":"naturalearthdata.com","kind":"ocean","sort_rank":205,"boundary":true,"min_zoom":0.0,"id":1089},"arcs":[[136],[137]]},{"type":"LineString","properties":{"source":"naturalearthdata.com","kind":"ocean","sort_rank":205,"boundary":true,"min_zoom":0.0,"id":1092},"arcs":[138]},{"type":"LineString","properties":{"source":"naturalearthdata.com","kind":"ocean","sort_rank":205,"boundary":true,"min_zoom":0.0,"id":1093},"arcs":[139]}]},"buildings":{"type":"GeometryCollection","geometries":[]},"places":{"type":"GeometryCollection","geometries":[{"type":"Point","properties":{"name:kg":"Gelesi","name:ka":"\u10e1\u10d0\u10d1\u10d4\u10e0\u10eb\u10dc\u10d4\u10d7\u10d8","name:ko":"\uadf8\ub9ac\uc2a4","name:cv":"\u0413\u0440\u0435\u0446\u0438","name:cu":"\u0413\u0440\u044c\u0446\u0438","name:kl":"Gr\u00e6kenlandi","name:cs":"\u0158ecko","name:ki":"Ugiriki","name:kw":"Pow Grek","name:kv":"\u0413\u0440\u0435\u0446\u0438\u044f","name:ku":"Yewnanistan","name:ti":"\u130d\u122a\u12ad","name:ks":"\u06af\u0631\u06cc\u0656\u0633","name:to":"Kalisi","name:tl":"Gresya","name:ce":"\u0414\u0436\u0435\u043b\u0442\u0438\u043c\u043e\u0445\u043a","name:ta":"\u0b95\u0bbf\u0bb0\u0bc7\u0b95\u0bcd\u0b95 \u0ba8\u0bbe\u0b9f\u0bc1","name:tg":"\u042e\u043d\u043e\u043d","name:ca":"Gr\u00e8cia","name:te":"\u0c17\u0c4d\u0c30\u0c40\u0c38\u0c4d","name:cy":"Gwlad Groeg","name:hr":"Gr\u010dka","name:da":"Gr\u00e6kenland","name:de":"Griechenland","name:dz":"\u0f42\u0f72\u0f62\u0f72\u0f66\u0f72\u0f0b","source":"openstreetmap.org","name:kn":"\u0c97\u0ccd\u0cb0\u0cc0\u0cb8\u0ccd","name:dv":"\u0794\u07ab\u0782\u07a7\u0782\u07b0","name:km":"\u1780\u17d2\u179a\u17b7\u1780","name:lv":"Grie\u0137ija","name:lt":"Graikija","name:uz":"Yunoniston","name:kk":"\u0413\u0440\u0435\u043a\u0438\u044f","name:ur":"\u06cc\u0648\u0646\u0627\u0646","name:lb":"Griicheland","name:la":"Graecia","name:lg":"Buyonaani","name:uk":"\u0413\u0440\u0435\u0446\u0456\u044f","name:ug":"Gr\u00e9tsiye","name:li":"Griekeland","name:ln":"Gresi","name:lo":"\u0e81\u0eb4\u0ebc\u0e81","name:eo":"Grekujo","name:en":"Greece","name":"\u0395\u03bb\u03bb\u03ac\u03b4\u03b1","name:tk":"Gresi\u00fda","name:ee":"Greece","name:th":"\u0e1b\u0e23\u0e30\u0e40\u0e17\u0e28\u0e01\u0e23\u0e35\u0e0b","name:eu":"Grezia","name:et":"Kreeka","name:es":"Grecia","name:ia":"Grecia","name:rm":"Grezia","name:rn":"Ubugereki","name:az":"Yunan\u0131stan","name:ie":"Grecia","name:id":"Yunani","name:ar":"\u0627\u0644\u064a\u0648\u0646\u0627\u0646","name:io":"Grekia","name:ak":"Greekman","name:am":"\u130d\u122a\u12ad","name:it":"Grecia","name:an":"Grezia","name:ru":"\u0413\u0440\u0435\u0446\u0438\u044f","name:rw":"Ubugereki","name:af":"Griekeland","name:zu":"IGrisi","name:ky":"\u0413\u0440\u0435\u0446\u0438\u044f","name:zh-yue":"\u5e0c\u81d8","name:zh":"\u5e0c\u814a","name:so":"Giriig","name:sn":"Greece","name:sl":"Gr\u010dija","name:sk":"Gr\u00e9cko","name:ja":"\u30ae\u30ea\u30b7\u30e3","name:si":"\u0d9c\u0dca\u200d\u0dbb\u0dd3\u0dc3\u0dd2\u0dba","name:sh":"Gr\u010dka","name:sg":"Ger\u00easi","name:se":"Greika","name:sa":"\u0917\u094d\u0930\u0940\u0938","name:bs":"Gr\u010dka","name:bm":"G\u025br\u025bsi","name:bn":"\u0997\u09cd\u09b0\u09c0\u09b8","name:bo":"\u0f67\u0f72\u0f0b\u0f63\u0f0d","name:br":"Gres","alt_name:br":"Hellaz","name:sw":"Ugiriki","name:be":"\u0413\u0440\u044d\u0446\u044b\u044f","name:bg":"\u0413\u044a\u0440\u0446\u0438\u044f","name:sr":"\u0413\u0440\u0447\u043a\u0430","name:sq":"Greqia","name:jv":"Yunani","name:pt":"Gr\u00e9cia","name:ps":"\u064a\u0648\u0646\u0627\u0646","name:oc":"Gr\u00e8cia","min_zoom":2.0,"name:ro":"Grecia","name:zh-min-nan":"Hi-lia\u030dp","name:os":"\u0413\u0440\u0435\u043a\u044a","name:or":"\u0b17\u0b4d\u0b30\u0b40\u0b38\u0b4d","name:pl":"Grecja","name:tr":"Yunanistan","name:hi":"\u092f\u0942\u0928\u093e\u0928","name:sv":"Grekland","name:he":"\u05d9\u05d5\u05d5\u05df","name:ha":"Girka","name:hy":"\u0540\u0578\u0582\u0576\u0561\u057d\u057f\u0561\u0576","name:ht":"Gr\u00e8s","name:hu":"G\u00f6r\u00f6gorsz\u00e1g","name:qu":"Grisya","population":11260402,"kind":"country","name:is":"Grikkland","name:yi":"\u05d2\u05e8\u05d9\u05db\u05e0\u05dc\u05d0\u05e0\u05d3","name:yo":"Gr\u00e9\u00e9s\u00ec","name:mt":"Gre\u010bja","alt_name:eo":"Grekio","alt_name:en":"Hellas","name:ms":"Greece","name:mr":"\u0917\u094d\u0930\u0940\u0938","name:my":"\u1002\u101b\u102d","official_name":"\u0395\u03bb\u03bb\u03b7\u03bd\u03b9\u03ba\u03ae \u0394\u03b7\u03bc\u03bf\u03ba\u03c1\u03b1\u03c4\u03af\u03b1","int_name":"Greece","name:mg":"Gresy","name:ml":"\u0d17\u0d4d\u0d30\u0d40\u0d38\u0d4d","name:vi":"Hy L\u1ea1p","name:mn":"\u0413\u0440\u0435\u043a","id":432424989,"name:mk":"\u0413\u0440\u0446\u0438\u0458\u0430","name:vo":"Grik\u00e4n","name:fa":"\u06cc\u0648\u0646\u0627\u0646","name:ff":"Gerees","name:fi":"Kreikka","name:fo":"Grikkaland","name:fr":"Gr\u00e8ce","name:fy":"Grikel\u00e2n","name:nl":"Griekenland","name:nn":"Hellas","name:no":"Hellas","name:na":"Greece","name:ne":"\u0917\u094d\u0930\u0940\u0938","name:wo":"Girees","name:ga":"An Ghr\u00e9ig","name:gd":"A' Ghr\u00e8ig","name:gn":"Gyresia","name:gl":"Grecia","name:gv":"Yn Ghreag","name:gu":"\u0a97\u0acd\u0ab0\u0ac0\u0ab8","name:tt":"\u0413\u0440\u0435\u0446\u0438\u044f"},"coordinates":[3350,328]},{"type":"Point","properties":{"source":"naturalearthdata.com","kind":"locality","name":"Larissa","population":128758,"region_capital":true,"min_zoom":7.0,"id":3956},"coordinates":[3980,1534]},{"type":"Point","properties":{"source":"naturalearthdata.com","kind":"locality","name":"Ioanina","population":86304,"region_capital":true,"min_zoom":7.0,"id":3957},"coordinates":[1694,1605]},{"type":"Point","properties":{"source":"naturalearthdata.com","kind":"locality","name":"Kerkira","population":38517,"region_capital":true,"min_zoom":7.0,"id":3951},"coordinates":[331,1505]}]},"transit":{"type":"GeometryCollection","geometries":[{"type":"LineString","properties":{"kind":"train","network":"Intercity","sort_rank":275,"source":"openstreetmap.org","min_zoom":6.0,"operator":"\u03a4\u03c1\u03b1\u03b9\u03bd\u039f\u03a3\u0395","ref":"IC","osm_relation":true,"name":"Train IC : \u0398\u03b5\u03c3\u03c3\u03b1\u03bb\u03bf\u03bd\u03af\u03ba\u03b7 \u2192 \u0391\u03b8\u03ae\u03bd\u03b1"},"arcs":[115]},{"type":"MultiLineString","properties":{"kind":"train","name":"\u03a3\u03b9\u03b4\u03b7\u03c1\u03bf\u03b4\u03c1\u03bf\u03bc\u03b9\u03ba\u03ae \u0393\u03c1\u03b1\u03bc\u03bc\u03ae \u0398\u03b5\u03c3\u03c3\u03b1\u03bb\u03bf\u03bd\u03af\u03ba\u03b7\u03c2-\u03a6\u03bb\u03ce\u03c1\u03b9\u03bd\u03b1\u03c2","sort_rank":275,"source":"openstreetmap.org","min_zoom":6.0,"operator":"OSE","osm_relation":true,"network":"OSE"},"arcs":[[116],[117],[118],[119],[120]]},{"type":"LineString","properties":{"kind":"train","network":"Intercity","sort_rank":275,"source":"openstreetmap.org","min_zoom":6.0,"operator":"\u03a4\u03c1\u03b1\u03b9\u03bd\u039f\u03a3\u0395","ref":"IC","osm_relation":true,"name":"Train IC : \u0391\u03b8\u03ae\u03bd\u03b1 \u2192 \u0398\u03b5\u03c3\u03c3\u03b1\u03bb\u03bf\u03bd\u03af\u03ba\u03b7"},"arcs":[121]}]},"pois":{"type":"GeometryCollection","geometries":[{"type":"Point","properties":{"kind":"national_park","name:en":"Butrint National Park","protect_class":"2","area":158104000,"min_zoom":7.14,"name:de":"Nationalpark Butrint","source":"openstreetmap.org","name:fr":"Parc national de Butrint","name:it":"Parco nazionale di Butrinto","tier":1,"id":360970478,"name:es":"Parque nacional de Butrinto","name":"Parku Komb\u00ebtar i Butrintit"},"coordinates":[502,1775]},{"type":"Point","properties":{"kind":"national_park","name:en":"Prespa National Park","protect_class":"2","area":480576000,"source":"openstreetmap.org","min_zoom":6.34,"tier":1,"id":504300999,"name":"Parku Komb\u00ebtar i Presp\u00ebs"},"coordinates":[1790,3761]},{"type":"Point","properties":{"kind":"national_park","name:en":"Tomorri Mountain National Park","protect_class":"2","area":430048000,"source":"openstreetmap.org","min_zoom":6.42,"tier":1,"id":505957578,"name":"Parku Komb\u00ebtar i Malit t\u00eb Tomorrit"},"coordinates":[703,3491]},{"type":"Point","properties":{"kind":"national_park","name:en":"Fir of Hotova-Dangelli National Park","protect_class":"2","area":590914000,"source":"openstreetmap.org","min_zoom":6.19,"tier":1,"id":506568040,"name":"Parku Komb\u00ebtar i Bredhit t\u00eb Hotov\u00ebs-Dang\u00eblli"},"coordinates":[1082,2743]},{"type":"Point","properties":{"kind":"nature_reserve","protect_class":"4","area":479004000,"source":"openstreetmap.org","min_zoom":7.84,"tier":2,"id":539163198,"name":"Rezervat Natyror i Menaxhuar \"Liqeni Pogradecit\""},"coordinates":[1410,4074]},{"type":"Point","properties":{"source":"openstreetmap.org","kind":"nature_reserve","name":"\u0395\u03b8\u03bd\u03b9\u03ba\u03cc\u03c2 \u0394\u03c1\u03c5\u03bc\u03cc\u03c2 \u039f\u03bb\u03cd\u03bc\u03c0\u03bf\u03c5","area":639541000,"tier":2,"min_zoom":7.63,"id":543114765},"coordinates":[3915,2383]}]},"boundaries":{"type":"GeometryCollection","geometries":[{"type":"MultiLineString","properties":{"source":"naturalearthdata.com","kind":"country","sort_rank":262,"kind_detail":"2","min_zoom":0.0,"id":96},"arcs":[[0],[1],[2],[3],[4],[5],[6],[7],[8],[9],[10],[11],[12]]},{"type":"MultiLineString","properties":{"source":"naturalearthdata.com","kind":"country","sort_rank":262,"kind_detail":"2","min_zoom":0.0,"id":175},"arcs":[[13],[14],[15],[16],[17],[18],[19],[20],[21]]},{"type":"MultiLineString","properties":{"source":"naturalearthdata.com","kind":"country","sort_rank":262,"kind_detail":"2","min_zoom":0.0,"id":73},"arcs":[[22],[23],[24]]},{"type":"MultiLineString","properties":{"source":"naturalearthdata.com","kind":"region","name":"Gjirokast\u00ebr - Fier","sort_rank":256,"kind_detail":"4","min_zoom":6.8,"id":5250},"arcs":[[25],[26]]},{"type":"LineString","properties":{"source":"naturalearthdata.com","kind":"region","name":"Dytiki Ellada - Stere\u00e1 Ell\u00e1da","sort_rank":256,"kind_detail":"4","min_zoom":6.0,"id":7523},"arcs":[27]},{"type":"LineString","properties":{"source":"naturalearthdata.com","kind":"region","sort_rank":256,"kind_detail":"4","min_zoom":6.0,"id":459},"arcs":[28]},{"type":"LineString","properties":{"source":"naturalearthdata.com","kind":"region","sort_rank":256,"kind_detail":"4","min_zoom":6.0,"id":503},"arcs":[29]},{"type":"LineString","properties":{"source":"naturalearthdata.com","kind":"region","sort_rank":256,"kind_detail":"4","min_zoom":6.0,"id":514},"arcs":[30]},{"type":"MultiLineString","properties":{"source":"naturalearthdata.com","kind":"region","name":"Elbasan - Berat","sort_rank":256,"kind_detail":"4","min_zoom":6.8,"id":5240},"arcs":[[31],[32],[33],[34],[35]]},{"type":"MultiLineString","properties":{"source":"naturalearthdata.com","kind":"region","name":"Berat - Kor\u00e7\u00eb","sort_rank":256,"kind_detail":"4","min_zoom":6.8,"id":5241},"arcs":[[36],[37],[38]]},{"type":"LineString","properties":{"source":"naturalearthdata.com","kind":"region","name":"Kor\u00e7\u00eb - Elbasan","sort_rank":256,"kind_detail":"4","min_zoom":6.8,"id":5242},"arcs":[39]},{"type":"MultiLineString","properties":{"source":"naturalearthdata.com","kind":"region","name":"Berat - Gjirokast\u00ebr","sort_rank":256,"kind_detail":"4","min_zoom":6.8,"id":5245},"arcs":[[40],[41],[42],[43],[44],[45],[46],[47]]},{"type":"LineString","properties":{"source":"naturalearthdata.com","kind":"region","name":"Kor\u00e7\u00eb - Gjirokast\u00ebr","sort_rank":256,"kind_detail":"4","min_zoom":6.8,"id":5246},"arcs":[48]},{"type":"MultiLineString","properties":{"source":"naturalearthdata.com","kind":"region","name":"Gjirokast\u00ebr - Vlor\u00eb","sort_rank":256,"kind_detail":"4","min_zoom":6.8,"id":5247},"arcs":[[49],[50],[51],[52],[53]]},{"type":"MultiLineString","properties":{"source":"naturalearthdata.com","kind":"region","name":"Berat - Fier","sort_rank":256,"kind_detail":"4","min_zoom":6.8,"id":5248},"arcs":[[54],[55],[56],[57],[58],[59],[60]]},{"type":"LineString","properties":{"source":"naturalearthdata.com","kind":"region","name":"Elbasan - Fier","sort_rank":256,"kind_detail":"4","min_zoom":6.8,"id":5249},"arcs":[61]},{"type":"MultiLineString","properties":{"source":"naturalearthdata.com","kind":"region","name":"Vlor\u00eb - Fier","sort_rank":256,"kind_detail":"4","min_zoom":6.8,"id":5251},"arcs":[[62],[63],[64],[65],[66]]},{"type":"LineString","properties":{"source":"naturalearthdata.com","kind":"macroregion","name":"Resen - Ohrid","sort_rank":257,"kind_detail":"3","min_zoom":6.8,"id":7120},"arcs":[67]},{"type":"MultiLineString","properties":{"source":"naturalearthdata.com","kind":"region","name":"Ipeiros - Dytiki Makedonia","sort_rank":256,"kind_detail":"4","min_zoom":6.0,"id":7520},"arcs":[[68],[69],[70],[71],[72],[73],[74]]},{"type":"MultiLineString","properties":{"source":"naturalearthdata.com","kind":"region","name":"Dytiki Makedonia - Kentriki Makedonia","sort_rank":256,"kind_detail":"4","min_zoom":6.0,"id":7521},"arcs":[[75],[76],[77],[78],[79],[80],[81],[82],[83],[84],[85]]},{"type":"LineString","properties":{"source":"naturalearthdata.com","kind":"region","name":"Dytiki Ellada - Ipeiros","sort_rank":256,"kind_detail":"4","min_zoom":6.0,"id":7522},"arcs":[86]},{"type":"MultiLineString","properties":{"source":"naturalearthdata.com","kind":"region","name":"Thessalia - Ipeiros","sort_rank":256,"kind_detail":"4","min_zoom":6.0,"id":7524},"arcs":[[87],[88],[89],[90],[91],[92]]},{"type":"MultiLineString","properties":{"source":"naturalearthdata.com","kind":"region","name":"Kentriki Makedonia - Thessalia","sort_rank":256,"kind_detail":"4","min_zoom":6.0,"id":7525},"arcs":[[93],[94],[95],[96],[97]]},{"type":"MultiLineString","properties":{"source":"naturalearthdata.com","kind":"region","name":"Dytiki Makedonia - Thessalia","sort_rank":256,"kind_detail":"4","min_zoom":6.0,"id":7526},"arcs":[[98],[99],[100],[101],[102],[103]]},{"type":"MultiLineString","properties":{"source":"naturalearthdata.com","kind":"region","name":"Stere\u00e1 Ell\u00e1da - Thessalia","sort_rank":256,"kind_detail":"4","min_zoom":6.0,"id":7527},"arcs":[[104],[105],[106],[107],[108],[109],[110],[111],[112],[113],[114]]}]},"roads":{"type":"GeometryCollection","geometries":[{"type":"MultiLineString","properties":{"source":"naturalearthdata.com","kind":"highway","kind_detail":"motorway","sort_rank":383,"landuse_kind":"park","min_zoom":3.0,"id":4603},"arcs":[[140],[141]]},{"type":"MultiLineString","properties":{"source":"naturalearthdata.com","kind":"highway","sort_rank":383,"kind_detail":"motorway","min_zoom":3.0,"id":4603},"arcs":[[142],[143],[144]]},{"type":"LineString","properties":{"kind":"highway","network":"e-road","sort_rank":383,"kind_detail":"motorway","source":"naturalearthdata.com","min_zoom":3.0,"all_networks":["e-road"],"landuse_kind":"urban_area","shield_text":"90","ref":"90","id":4604,"all_shield_texts":["90"]},"arcs":[145]},{"type":"LineString","properties":{"kind":"highway","network":"e-road","sort_rank":383,"kind_detail":"motorway","source":"naturalearthdata.com","min_zoom":3.0,"all_networks":["e-road"],"landuse_kind":"urban_area","shield_text":"90","ref":"90","id":4604,"all_shield_texts":["90"]},"arcs":[146]},{"type":"MultiLineString","properties":{"kind":"highway","network":"e-road","sort_rank":383,"kind_detail":"motorway","source":"naturalearthdata.com","min_zoom":3.0,"all_networks":["e-road"],"shield_text":"90","ref":"90","id":4604,"all_shield_texts":["90"]},"arcs":[[147],[148],[149]]},{"type":"LineString","properties":{"kind":"highway","network":"e-road","sort_rank":383,"kind_detail":"motorway","source":"naturalearthdata.com","min_zoom":3.0,"all_networks":["e-road"],"shield_text":"92","ref":"92","id":4605,"all_shield_texts":["92"]},"arcs":[150]},{"type":"LineString","properties":{"kind":"highway","network":"e-road","sort_rank":383,"kind_detail":"motorway","source":"naturalearthdata.com","min_zoom":3.0,"all_networks":["e-road"],"shield_text":"92","ref":"92","id":4608,"all_shield_texts":["92"]},"arcs":[151]},{"type":"LineString","properties":{"source":"naturalearthdata.com","kind":"highway","sort_rank":383,"kind_detail":"motorway","min_zoom":3.0,"id":4616},"arcs":[152]},{"type":"LineString","properties":{"source":"naturalearthdata.com","kind":"major_road","sort_rank":380,"kind_detail":"primary","min_zoom":3.0,"id":4776},"arcs":[153]},{"type":"LineString","properties":{"kind":"major_road","network":"e-road","sort_rank":380,"kind_detail":"primary","source":"naturalearthdata.com","min_zoom":3.0,"landuse_kind":"urban_area","shield_text":"65","ref":"65","id":4777},"arcs":[154]},{"type":"LineString","properties":{"kind":"major_road","network":"e-road","sort_rank":380,"kind_detail":"primary","source":"naturalearthdata.com","min_zoom":3.0,"shield_text":"65","ref":"65","id":4777},"arcs":[155]},{"type":"LineString","properties":{"kind":"major_road","network":"e-road","sort_rank":380,"kind_detail":"primary","source":"naturalearthdata.com","min_zoom":3.0,"shield_text":"90","ref":"90","id":4778},"arcs":[156]},{"type":"LineString","properties":{"kind":"major_road","network":"e-road","sort_rank":380,"kind_detail":"primary","source":"naturalearthdata.com","min_zoom":3.0,"shield_text":"853","ref":"853","id":4780},"arcs":[157]},{"type":"LineString","properties":{"kind":"major_road","network":"e-road","sort_rank":379,"kind_detail":"secondary","source":"naturalearthdata.com","min_zoom":3.0,"shield_text":"853","ref":"853","id":4781},"arcs":[158]},{"type":"LineString","properties":{"kind":"major_road","network":"e-road","sort_rank":380,"kind_detail":"primary","source":"naturalearthdata.com","min_zoom":3.0,"shield_text":"853","ref":"853","id":4782},"arcs":[159]},{"type":"LineString","properties":{"kind":"major_road","network":"e-road","sort_rank":380,"kind_detail":"primary","source":"naturalearthdata.com","min_zoom":3.0,"shield_text":"55","ref":"55","id":4789},"arcs":[160]},{"type":"LineString","properties":{"kind":"major_road","network":"e-road","sort_rank":379,"kind_detail":"secondary","source":"naturalearthdata.com","min_zoom":3.0,"shield_text":"55","ref":"55","id":4790},"arcs":[161]},{"type":"LineString","properties":{"kind":"major_road","network":"e-road","sort_rank":380,"kind_detail":"primary","source":"naturalearthdata.com","min_zoom":3.0,"shield_text":"55","ref":"55","id":4796},"arcs":[162]},{"type":"LineString","properties":{"kind":"major_road","network":"e-road","sort_rank":380,"kind_detail":"primary","source":"naturalearthdata.com","min_zoom":6.0,"shield_text":"65","ref":"65","id":4798},"arcs":[163]},{"type":"LineString","properties":{"kind":"major_road","network":"e-road","sort_rank":380,"kind_detail":"primary","source":"naturalearthdata.com","min_zoom":3.0,"shield_text":"65","ref":"65","id":4799},"arcs":[164]},{"type":"LineString","properties":{"kind":"major_road","network":"e-road","sort_rank":380,"kind_detail":"primary","source":"naturalearthdata.com","min_zoom":3.0,"landuse_kind":"urban_area","shield_text":"65","ref":"65","id":4800},"arcs":[165]},{"type":"LineString","properties":{"kind":"major_road","network":"e-road","sort_rank":380,"kind_detail":"primary","source":"naturalearthdata.com","min_zoom":3.0,"shield_text":"65","ref":"65","id":4800},"arcs":[166]},{"type":"LineString","properties":{"kind":"major_road","network":"e-road","sort_rank":380,"kind_detail":"primary","source":"naturalearthdata.com","min_zoom":3.0,"shield_text":"951","ref":"951","id":4997},"arcs":[167]},{"type":"LineString","properties":{"kind":"major_road","network":"e-road","sort_rank":380,"kind_detail":"primary","source":"naturalearthdata.com","min_zoom":3.0,"shield_text":"55","ref":"55","id":5022},"arcs":[168]},{"type":"LineString","properties":{"source":"naturalearthdata.com","kind":"highway","sort_rank":383,"kind_detail":"motorway","min_zoom":6.0,"id":5417},"arcs":[169]},{"type":"LineString","properties":{"kind":"highway","network":"e-road","sort_rank":383,"kind_detail":"motorway","source":"naturalearthdata.com","min_zoom":6.0,"all_networks":["e-road"],"shield_text":"951","ref":"951","id":5418,"all_shield_texts":["951"]},"arcs":[170]},{"type":"LineString","properties":{"kind":"highway","network":"e-road","sort_rank":383,"kind_detail":"motorway","source":"naturalearthdata.com","min_zoom":6.0,"all_networks":["e-road"],"landuse_kind":"urban_area","shield_text":"75","ref":"75","id":5425,"all_shield_texts":["75"]},"arcs":[171]},{"type":"LineString","properties":{"kind":"highway","network":"e-road","sort_rank":383,"kind_detail":"motorway","source":"naturalearthdata.com","min_zoom":6.0,"all_networks":["e-road"],"shield_text":"75","ref":"75","id":5425,"all_shield_texts":["75"]},"arcs":[172]},{"type":"LineString","properties":{"kind":"major_road","network":"e-road","sort_rank":380,"kind_detail":"primary","source":"naturalearthdata.com","min_zoom":6.0,"landuse_kind":"urban_area","shield_text":"86","ref":"86","id":5450},"arcs":[173]},{"type":"MultiLineString","properties":{"kind":"major_road","network":"e-road","sort_rank":380,"kind_detail":"primary","source":"naturalearthdata.com","min_zoom":6.0,"shield_text":"86","ref":"86","id":5450},"arcs":[[174],[175]]},{"type":"LineString","properties":{"kind":"major_road","network":"e-road","sort_rank":379,"kind_detail":"secondary","source":"naturalearthdata.com","min_zoom":6.0,"shield_text":"65","ref":"65","id":5451},"arcs":[176]},{"type":"LineString","properties":{"kind":"major_road","network":"e-road","sort_rank":380,"kind_detail":"primary","source":"naturalearthdata.com","min_zoom":6.0,"shield_text":"65","ref":"65","id":5452},"arcs":[177]},{"type":"LineString","properties":{"kind":"major_road","network":"e-road","sort_rank":380,"kind_detail":"primary","source":"naturalearthdata.com","min_zoom":6.0,"shield_text":"92","ref":"92","id":5472},"arcs":[178]},{"type":"MultiLineString","properties":{"kind":"major_road","network":"e-road","sort_rank":380,"kind_detail":"primary","source":"naturalearthdata.com","min_zoom":6.0,"landuse_kind":"park","shield_text":"90","ref":"90","id":5527},"arcs":[[179],[180]]},{"type":"LineString","properties":{"kind":"major_road","network":"e-road","sort_rank":380,"kind_detail":"primary","source":"naturalearthdata.com","min_zoom":6.0,"landuse_kind":"park","shield_text":"90","ref":"90","id":5527},"arcs":[181]},{"type":"MultiLineString","properties":{"kind":"major_road","network":"e-road","sort_rank":380,"kind_detail":"primary","source":"naturalearthdata.com","min_zoom":6.0,"shield_text":"90","ref":"90","id":5527},"arcs":[[182],[183],[184]]},{"type":"LineString","properties":{"kind":"major_road","network":"e-road","sort_rank":379,"kind_detail":"secondary","source":"naturalearthdata.com","min_zoom":6.0,"shield_text":"951","ref":"951","id":5528},"arcs":[185]},{"type":"LineString","properties":{"kind":"major_road","network":"e-road","sort_rank":380,"kind_detail":"primary","source":"naturalearthdata.com","min_zoom":6.0,"shield_text":"951","ref":"951","id":5529},"arcs":[186]},{"type":"LineString","properties":{"kind":"major_road","network":"e-road","sort_rank":379,"kind_detail":"secondary","source":"naturalearthdata.com","min_zoom":6.0,"landuse_kind":"nature_reserve","shield_text":"951","ref":"951","id":5530},"arcs":[187]},{"type":"MultiLineString","properties":{"kind":"major_road","network":"e-road","sort_rank":379,"kind_detail":"secondary","source":"naturalearthdata.com","min_zoom":6.0,"shield_text":"951","ref":"951","id":5530},"arcs":[[188],[189]]},{"type":"LineString","properties":{"kind":"major_road","network":"e-road","sort_rank":379,"kind_detail":"secondary","source":"naturalearthdata.com","min_zoom":6.0,"shield_text":"592","ref":"592","id":5637},"arcs":[190]},{"type":"LineString","properties":{"kind":"major_road","network":"e-road","sort_rank":380,"kind_detail":"primary","source":"naturalearthdata.com","min_zoom":6.0,"landuse_kind":"nature_reserve","shield_text":"592","ref":"592","id":5638},"arcs":[191]},{"type":"LineString","properties":{"kind":"major_road","network":"e-road","sort_rank":380,"kind_detail":"primary","source":"naturalearthdata.com","min_zoom":6.0,"landuse_kind":"urban_area","shield_text":"592","ref":"592","id":5638},"arcs":[192]},{"type":"MultiLineString","properties":{"kind":"major_road","network":"e-road","sort_rank":380,"kind_detail":"primary","source":"naturalearthdata.com","min_zoom":6.0,"shield_text":"592","ref":"592","id":5638},"arcs":[[193],[194]]},{"type":"LineString","properties":{"kind":"major_road","network":"e-road","sort_rank":380,"kind_detail":"primary","source":"naturalearthdata.com","min_zoom":6.0,"shield_text":"92","ref":"92","id":5639},"arcs":[195]},{"type":"LineString","properties":{"source":"naturalearthdata.com","kind":"major_road","sort_rank":380,"kind_detail":"primary","min_zoom":6.0,"id":5646},"arcs":[196]},{"type":"LineString","properties":{"kind":"highway","network":"e-road","sort_rank":383,"kind_detail":"motorway","source":"naturalearthdata.com","min_zoom":7.0,"all_networks":["e-road"],"landuse_kind":"urban_area","shield_text":"65","ref":"65","id":5921,"all_shield_texts":["65"]},"arcs":[197]},{"type":"LineString","properties":{"kind":"highway","network":"e-road","sort_rank":383,"kind_detail":"motorway","source":"naturalearthdata.com","min_zoom":7.0,"all_networks":["e-road"],"shield_text":"65","ref":"65","id":5921,"all_shield_texts":["65"]},"arcs":[198]},{"type":"MultiLineString","properties":{"kind":"major_road","network":"e-road","sort_rank":380,"kind_detail":"primary","source":"naturalearthdata.com","min_zoom":7.0,"landuse_kind":"nature_reserve","shield_text":"65","ref":"65","id":5984},"arcs":[[199],[200],[201],[202]]},{"type":"LineString","properties":{"kind":"major_road","network":"e-road","sort_rank":380,"kind_detail":"primary","source":"naturalearthdata.com","min_zoom":7.0,"landuse_kind":"urban_area","shield_text":"65","ref":"65","id":5984},"arcs":[203]},{"type":"MultiLineString","properties":{"kind":"major_road","network":"e-road","sort_rank":380,"kind_detail":"primary","source":"naturalearthdata.com","min_zoom":7.0,"shield_text":"65","ref":"65","id":5984},"arcs":[[204],[205],[206],[207],[208]]},{"type":"LineString","properties":{"kind":"major_road","network":"e-road","sort_rank":380,"kind_detail":"primary","source":"naturalearthdata.com","min_zoom":7.0,"shield_text":"65","ref":"65","id":5985},"arcs":[209]},{"type":"LineString","properties":{"kind":"major_road","network":"e-road","sort_rank":380,"kind_detail":"primary","source":"naturalearthdata.com","min_zoom":7.0,"shield_text":"90","ref":"90","id":5986},"arcs":[210]},{"type":"LineString","properties":{"kind":"major_road","network":"e-road","sort_rank":380,"kind_detail":"primary","source":"naturalearthdata.com","min_zoom":7.0,"landuse_kind":"nature_reserve","shield_text":"86","ref":"86","id":6131},"arcs":[211]},{"type":"MultiLineString","properties":{"kind":"major_road","network":"e-road","sort_rank":380,"kind_detail":"primary","source":"naturalearthdata.com","min_zoom":7.0,"shield_text":"86","ref":"86","id":6131},"arcs":[[212],[213]]},{"type":"LineString","properties":{"source":"naturalearthdata.com","kind":"major_road","sort_rank":380,"kind_detail":"primary","min_zoom":7.0,"id":6132},"arcs":[214]},{"type":"LineString","properties":{"source":"naturalearthdata.com","kind":"major_road","sort_rank":380,"kind_detail":"primary","min_zoom":7.0,"id":6133},"arcs":[215]},{"type":"LineString","properties":{"source":"naturalearthdata.com","kind":"highway","kind_detail":"motorway","sort_rank":383,"landuse_kind":"nature_reserve","min_zoom":7.0,"id":6766},"arcs":[216]},{"type":"LineString","properties":{"source":"naturalearthdata.com","kind":"highway","kind_detail":"motorway","sort_rank":383,"landuse_kind":"urban_area","min_zoom":7.0,"id":6766},"arcs":[217]},{"type":"MultiLineString","properties":{"source":"naturalearthdata.com","kind":"highway","sort_rank":383,"kind_detail":"motorway","min_zoom":7.0,"id":6766},"arcs":[[218],[219]]},{"type":"LineString","properties":{"source":"naturalearthdata.com","kind":"major_road","sort_rank":379,"kind_detail":"secondary","min_zoom":6.0,"id":56206},"arcs":[220]}]},"earth":{"type":"GeometryCollection","geometries":[{"type":"MultiPolygon","properties":{"sort_rank":10,"source":"naturalearthdata.com","min_zoom":0.0,"kind":"earth","area":141203594499},"arcs":[[[221]],[[222]],[[223]],[[224]]]}]},"landuse":{"type":"GeometryCollection","geometries":[{"type":"Polygon","properties":{"source":"openstreetmap.org","kind":"park","area":3313639936,"tier":2,"id":137321318,"min_zoom":4.0,"sort_rank":24},"arcs":[[225]]},{"type":"MultiPolygon","properties":{"source":"openstreetmap.org","kind":"park","tier":2,"area":1237049315,"sort_rank":24,"min_zoom":6.0,"osm_relation":true},"arcs":[[[226]],[[227]]]},{"type":"MultiPolygon","properties":{"source":"openstreetmap.org","kind":"national_park","tier":1,"protect_class":"2","area":1780896024,"sort_rank":18,"min_zoom":3.0},"arcs":[[[228]],[[229]],[[230]]]},{"type":"MultiPolygon","properties":{"source":"openstreetmap.org","kind":"nature_reserve","tier":2,"area":619904405,"sort_rank":23,"min_zoom":7.0},"arcs":[[[231]],[[232]],[[233]],[[234]],[[235]]]},{"type":"MultiPolygon","properties":{"source":"naturalearthdata.com","kind":"urban_area","name":"","area":6197956344,"sort_rank":11,"min_zoom":4.0},"arcs":[[[236]],[[237]],[[238]],[[239]],[[240]],[[241]],[[242]],[[243]],[[244]]]},{"type":"Polygon","properties":{"kind":"national_park","protect_class":"2","area":158104000,"sort_rank":18,"source":"openstreetmap.org","min_zoom":5.0,"tier":1,"id":360970478},"arcs":[[245]]},{"type":"MultiPolygon","properties":{"source":"openstreetmap.org","kind":"nature_reserve","tier":2,"area":1261441168,"sort_rank":23,"min_zoom":6.0},"arcs":[[[246]],[[247]],[[248]]]},{"type":"MultiPolygon","properties":{"source":"openstreetmap.org","kind":"park","tier":2,"area":1306151768,"sort_rank":24,"min_zoom":6.0},"arcs":[[[249]],[[250]],[[251]],[[252]]]},{"type":"Polygon","properties":{"kind":"nature_reserve","protect_class":"4","area":479004000,"sort_rank":23,"source":"openstreetmap.org","min_zoom":6.0,"tier":2,"id":539163198},"arcs":[[253]]}]}},"type":"Topology","transform":{"translate":[19.6875,38.8225909762],"scale":[0.0006866455,0.0005266863]},"arcs":[[[1783,3108],[36,25],[14,19],[5,10],[5,11],[-2,23],[9,17],[16,11],[19,5],[9,19],[14,11],[13,8],[10,11],[8,19],[2,15],[1,15],[2,22],[16,66],[5,35],[-2,37],[-10,34],[-14,26],[-39,47],[-42,39],[-6,14],[-3,16],[-5,14],[-15,11],[26,30],[8,40],[-2,90]],[[1717,3132],[34,-16],[32,-8]],[[1260,2360],[37,3],[54,26],[36,18],[11,7],[6,13],[22,62],[2,9],[-7,35],[0,9],[-5,21],[1,12],[7,11],[21,6],[8,7],[16,45],[1,39],[-3,38],[6,43],[12,18],[16,12],[15,8],[12,10],[4,11],[23,55],[16,30],[6,16],[5,23],[-1,20],[-6,52],[2,18],[13,13],[31,7],[13,7],[11,20],[6,18],[8,16],[19,13],[39,1]],[[1183,2371],[77,-11]],[[1134,2351],[23,13],[26,7]],[[1085,2357],[49,-6]],[[996,1826],[26,26],[11,38],[-6,33],[-67,112],[-34,34],[-8,12],[-22,115],[-7,15],[18,5],[72,3],[24,5],[7,34],[12,33],[16,30],[20,23],[27,13]],[[875,1868],[15,-2],[1,-1],[55,-21],[25,-15],[25,-3]],[[813,1595],[5,42],[22,21],[27,16],[20,25],[4,20],[-4,10],[-8,9],[-6,17],[-2,5],[-11,14],[-3,6],[1,6],[9,23],[3,9],[-5,15],[-9,8],[-3,8],[10,14],[12,5]],[[479,1669],[48,-17],[58,-19],[67,-35],[42,-38],[29,-14]],[[455,1654],[24,15]],[[788,1607],[13,-4],[12,-8]],[[723,1546],[23,6],[5,10],[0,14],[1,15],[12,12],[12,4],[12,0]],[[2985,3981],[29,6],[12,3],[19,18],[5,22],[0,20],[3,16],[14,18],[18,12]],[[2909,3997],[76,-16]],[[2849,3934],[7,2],[6,11],[3,24],[3,8],[41,18]],[[2537,3961],[111,-15],[6,-1],[64,-57],[40,-8]],[[2292,3870],[50,0],[49,10],[23,13],[53,52],[34,16],[36,0]],[[2828,3935],[21,-1]],[[2758,3880],[13,9],[34,33],[15,12],[8,1]],[[2178,3888],[38,-2],[53,-12],[23,-4]],[[1861,3848],[214,9],[103,31]],[[1571,3932],[-37,8],[-15,13],[-19,16],[-21,44],[-22,83]],[[1861,3848],[-1,51],[-12,35],[-24,24],[-72,21],[-77,11]],[[1675,3990],[-2,0],[-28,-7],[-49,-40],[-25,-11]],[[317,3237],[-21,-3],[-7,-4],[-7,-9],[-9,-17],[-10,-14],[-9,-11],[-44,-36],[-10,-12],[-42,-84],[-5,-8],[-3,-4]],[[150,3035],[-20,4]],[[2749,0],[53,27],[-1,26],[-48,23],[-79,18],[-23,19],[-25,4],[-23,20],[-6,26],[8,51],[-10,33],[-146,90],[-6,27],[38,72],[-1,26],[9,24],[-11,28],[-39,53],[0,62]],[[1999,411]],[[575,1335],[55,-82],[49,-91],[49,-123],[14,-46]],[[1331,274],[86,-66],[73,-82],[22,-119],[0,-7]],[[458,3910],[13,-5],[4,-2],[4,-9],[-5,-13],[-1,-5],[1,-7],[4,-17],[1,-9],[0,-9],[-5,-17],[0,-9],[7,-6],[20,-6],[24,-3],[17,-6],[13,-11],[36,-59],[12,-13],[16,-10],[34,-8],[16,-9],[11,-8],[-14,-22],[33,-15],[13,-3],[22,-1],[13,-2],[11,-7],[6,-14],[3,-6],[11,-5]],[[410,3882],[36,23],[12,5]],[[293,3896],[117,-14]],[[262,3884],[31,12]],[[778,3594],[47,1],[57,19]],[[1020,3367],[-8,0],[-8,5],[-11,13],[-6,20],[-9,12],[-4,12],[-23,38],[-12,38],[-32,74],[-7,14],[-18,21]],[[1100,3070],[-19,39],[0,13],[6,76],[-3,18],[-5,14],[-15,15],[-2,6],[-1,9],[0,7],[4,16],[3,5],[7,9],[9,26],[0,6],[-3,6],[1,6],[-2,4],[-10,10],[-7,3],[-17,2],[-6,2],[-7,4],[-6,1]],[[1027,3367],[-7,0]],[[1066,4096],[-4,-10],[-3,-16],[-4,-30],[-5,-20],[-4,-11],[-36,-18],[17,-51],[9,-17],[45,-59],[17,-26],[39,-84],[-22,-44],[-12,-20],[-19,-16],[-23,-10],[-111,-13],[-56,-16],[-12,-21]],[[317,3237],[46,-29],[31,-6],[33,0],[58,-30]],[[560,3191],[29,-9],[14,-15],[10,-18],[10,-8],[14,-5],[23,-1],[11,-2],[7,-7],[34,-46],[4,-7],[101,-130],[17,-16],[13,-8],[32,-8],[10,-1]],[[549,3164],[5,0],[2,4],[2,7],[0,5],[2,11]],[[516,3178],[10,-1],[15,-10],[8,-3]],[[485,3172],[31,6]],[[1036,3062],[64,8]],[[1010,3064],[26,-2]],[[889,2910],[5,22],[5,9],[0,4],[3,5],[7,6],[17,11],[42,10],[14,6],[13,10],[4,19],[-1,16],[-3,17],[2,13],[13,6]],[[1100,3070],[25,-5],[-13,-13],[-5,-7],[-4,-9],[-5,-14],[0,-15],[4,-15],[25,-29],[9,-14],[4,-15],[1,-29],[-14,-53],[3,-15],[27,-83],[3,-5],[21,-5],[13,-1],[8,-2],[3,-3],[-4,-6],[-15,-15],[-7,-11],[-4,-9],[-1,-10],[1,-12],[2,-11],[37,-92],[8,-36],[10,-14],[69,-73],[21,-31],[29,-28],[0,-1]],[[130,3039],[22,-38],[6,-15],[1,-11],[-3,-17],[-9,-17],[-12,-17],[-21,-23],[-10,-8],[0,-6],[6,-10],[43,-44],[26,-37],[6,-6],[6,-5],[17,-5],[2,-2],[0,-2],[-5,-6],[-11,-10],[-3,-2],[2,-6],[3,-8],[13,-20],[7,-16],[6,-23],[0,-11],[-3,-7],[-8,-8],[3,-8],[4,-6],[48,-42],[26,-65],[2,-19],[8,-14],[20,-32],[14,-33],[31,-81],[9,-13],[11,-7]],[[444,2350],[9,-1],[37,-11],[10,-1],[15,-7],[114,-114],[25,-19],[17,-6],[8,0],[8,-6],[33,-35],[26,-21],[8,-10],[9,-39],[5,-14],[14,-20],[14,-15],[6,-15],[2,-32],[19,-3]],[[387,2339],[20,0],[28,9],[9,2]],[[843,1981],[10,-4],[11,-7],[9,-11],[4,-14],[-4,-46],[15,-24],[3,-9],[0,-1]],[[823,1981],[20,0]],[[262,3884],[7,-9],[2,-5],[2,-7],[-5,-8],[-3,-5]],[[203,3847],[-7,9],[-7,10],[-4,3],[-3,1]],[[182,3870],[-16,-9],[-22,-7],[-11,-6],[-7,-4],[-3,-10],[-7,-12],[0,-6],[1,-5],[0,-4],[-5,-9],[0,-6],[1,-7],[-1,-7],[-6,-2]],[[265,3850],[-47,1]],[[218,3851],[-15,-4]],[[106,3776],[-7,1]],[[99,3777],[-34,0],[-3,-20],[1,-8],[4,-14],[7,-16],[27,-37],[6,-13],[-2,-18],[-7,-18],[-1,-7],[0,-7],[1,-14],[2,-9],[6,-8],[19,-9],[12,-5],[13,-7],[7,-7],[9,-40],[40,-46],[7,-14],[-2,-17],[-13,-12],[-11,-9],[-9,-5],[-3,-2],[1,-2],[7,-1],[8,-6],[7,-11],[21,-59],[16,-21],[35,-24],[20,-7],[13,-9],[6,-4],[8,-34]],[[179,4096],[-11,-22],[-1,-6],[4,-45],[-1,-10],[-6,-34],[0,-10],[1,-11],[3,-11],[14,-26],[12,-13],[9,-7],[59,-17]],[[15,3237],[-4,1],[-7,4],[-4,3]],[[96,3041],[-11,3],[-9,8],[-3,7],[0,8],[2,7],[2,10],[1,9],[-5,21],[0,6],[1,6],[3,20],[0,11],[-4,6],[-5,3],[-22,5],[-2,2],[0,3],[1,2],[3,3],[2,6],[1,9],[-2,18],[-6,9],[-9,11],[-5,4],[-6,1]],[[23,3239],[-4,-1],[-4,-1]],[[130,3039],[-20,4]],[[110,3043],[-14,-2]],[[1680,4096],[-6,-18],[-5,-25],[0,-22],[0,-17],[2,-12],[2,-12]],[[1894,2248],[-39,53],[-19,81],[-23,19],[37,67],[4,30],[-18,81],[-40,84],[-62,76],[-28,88],[-22,29]],[[1684,2856],[-54,-13],[-20,-23],[-29,-17],[-26,-1]],[[1555,2802],[-18,14],[-5,7]],[[2050,1908],[-25,9],[-28,56],[-20,107],[-45,43],[38,78],[4,56],[-23,19]],[[1951,2276],[-57,-28]],[[2336,1865],[-1,26],[-96,56],[-52,3]],[[2187,1950],[-81,-19],[-56,-23]],[[2983,3802],[55,12],[28,12],[25,22],[5,25],[-23,24],[-49,24],[-10,66]],[[2930,3805],[53,-3]],[[3023,3505],[-25,9],[35,83],[-1,26],[-50,18],[-17,29],[-22,86],[-23,25],[10,24]],[[3110,3486],[-61,20]],[[3049,3506],[-26,-1]],[[3160,3472],[-24,15]],[[3136,3487],[-26,-1]],[[3383,3005],[-24,14],[-1,27],[-47,33],[-54,24],[-23,25],[-31,62],[-24,19],[0,26],[18,49],[-38,53],[-2,53],[35,83]],[[3192,3473],[-32,-1]],[[3506,2553],[-4,37],[10,30],[57,27],[20,23],[5,56],[23,43],[-68,32],[-17,29],[-6,53],[-49,55],[-6,27],[4,25],[-11,28]],[[3464,3018],[-81,-13]],[[2439,629],[-33,-10],[-77,-66],[-57,-28],[-26,-6],[-182,-3],[-28,-12],[-24,-22],[-15,-50],[2,-21]],[[2336,1865],[-40,11]],[[2296,1876],[-28,-11],[-15,-24],[-28,-16],[-15,-29],[-10,-25],[24,-112],[2,-52],[-26,-2]],[[2200,1605],[-23,19],[-57,4]],[[2120,1628],[-29,-17],[-19,-23],[17,-59],[2,-52],[21,-30],[25,-9],[16,-28],[-8,-51],[13,-53],[-20,-23],[-4,-26],[22,-29],[10,-33],[-5,-30],[11,-33],[69,-57],[20,-66],[51,-39],[76,-11]],[[2415,965],[35,-42],[22,-55],[-75,-149],[5,-32],[37,-58]],[[2388,959],[27,6]],[[3561,2565],[76,-17],[-5,-26],[-14,-23],[6,-27],[-6,-31],[11,-28],[25,-9]],[[3517,2525],[14,24],[30,16]],[[3506,2553],[11,-28]],[[3801,2521],[47,-29],[11,-28],[-4,-83],[17,-54],[44,-49],[99,-69],[32,-57],[44,-44],[5,-2]],[[3654,2404],[31,26],[29,48],[25,21],[62,22]],[[3188,1918],[18,18],[5,25],[-12,54],[4,26],[-11,27],[-48,29],[30,21],[69,67],[58,32],[30,52],[14,50],[70,72],[44,71],[13,50],[34,41]],[[2589,1976],[216,-28],[145,-39],[52,-3]],[[2354,1847],[26,1],[61,22],[29,16],[34,46],[29,22],[56,22]],[[3111,1931],[77,-13]],[[3002,1906],[109,25]],[[2336,1865],[18,-18]],[[2985,517],[-25,4],[-23,19],[-10,28],[13,50],[-11,27],[-47,29],[-8,79],[-11,27],[-23,20]],[[2840,800],[-124,-33],[-30,-21],[-9,-24],[-24,-23]],[[3992,553],[-23,20],[-11,85],[-23,19],[-51,35],[-102,38],[-71,43]],[[3711,793],[-129,-150],[-44,-107],[-31,-26],[-53,-12],[-29,-16],[-39,-46],[-62,-31],[-54,-12]],[[2653,699],[-46,39]],[[2607,738],[-27,-6],[-53,-39],[-68,-72]],[[2459,621],[-20,8]],[[3270,393],[-25,4],[-6,27],[10,24],[-7,53],[-21,30],[-49,18],[-50,39]],[[3122,588],[-27,-1],[-82,-59],[-28,-11]],[[4096,406],[-11,27],[-6,85],[8,45]],[[4087,563],[-95,-10]],[[3941,0],[-6,15],[10,46],[-53,84],[18,51],[-108,77],[-19,-18],[-29,43],[-16,-51],[-31,158],[-104,183],[187,45],[-96,414],[10,75],[247,287],[-9,69],[81,125],[73,248]],[[2904,3545],[-2,-1],[-13,-13],[-22,-9],[-31,16],[-6,130],[-241,77],[-74,-29]],[[2904,3545],[38,20],[35,40],[15,-1],[18,30]],[[3010,3634],[63,165]],[[3074,3799],[49,-30]],[[3124,3769],[7,-53],[42,-5]],[[3941,0],[-6,15],[10,46],[-53,84],[18,51],[-108,77],[-19,-18],[-29,43],[-16,-51],[-31,158],[-104,183],[187,45],[-95,414],[9,75],[247,287],[-8,70],[81,124],[72,248]],[[0,1847],[0,624],[46,-15],[14,-15],[6,4],[12,-19],[10,-22],[2,-8],[10,-9],[9,-6],[7,-8],[5,-17],[2,9],[2,6],[6,12],[39,-27],[-11,-12],[16,-8],[23,-4],[46,-2],[12,-8],[10,-21],[10,-23],[68,-132],[25,-24],[-14,-11],[-15,-14],[-21,-27],[0,-12],[11,-8],[25,-1],[14,-5],[20,-12],[6,-7],[2,-8],[0,-7],[2,-5],[32,-12],[23,-2],[15,-11],[10,-39],[-3,-23],[-27,-95],[-22,-48],[7,-7],[25,-11],[-23,-57],[-5,-32],[8,-27],[10,0],[2,11],[4,2],[7,-2],[8,2],[17,-11],[33,-13],[65,-15],[11,-14],[12,-9],[16,-4],[8,-4],[23,-20],[5,-7],[11,-10],[25,-7],[24,-18],[9,-38],[-3,-1],[-14,-10],[-3,-1],[0,-9],[1,-24],[-1,-7],[-10,-14],[-10,-10],[-10,0],[-10,12],[0,-24],[-2,-20],[-6,-18],[-11,-15],[23,7],[24,2],[25,-3],[27,-6],[-16,-16],[17,-2],[16,-10],[13,-12],[-1,24],[21,-1],[25,-13],[15,-10],[0,-13],[-12,-18],[-15,-2],[-18,5],[-25,2],[0,-12],[56,-38],[14,-15],[5,-27],[-20,-5],[-30,1],[-25,-8],[12,-9],[16,-29],[12,-15],[0,-12],[-10,0],[0,-13],[33,-4],[16,-19],[11,-24],[19,-19],[4,-59],[46,-56],[60,-31],[40,18],[18,-16],[20,-10],[20,-1],[22,12],[7,-17],[10,-6],[15,3],[18,8],[0,-15],[-9,-16],[-2,-22],[3,-22],[8,-17],[-6,-18],[14,-16],[43,-30],[114,-146],[46,-37],[47,-27],[39,-34],[28,-45],[15,-63],[-3,-7],[-7,-5],[-7,-8],[-3,-12],[1,-5],[4,-4],[3,-6],[2,-12],[4,-10],[10,-10],[11,-13],[4,-18],[9,-14],[17,15],[15,22],[0,9],[13,6],[9,2],[43,-15],[26,-16],[13,-3],[5,6],[-4,13],[-9,14],[-28,14],[-68,57],[-12,-3],[-5,2],[-2,8],[-2,20],[21,-14],[6,19],[11,11],[11,7],[11,14],[5,23],[1,21],[5,16],[-21,5],[0,14],[15,7],[12,8],[8,11],[6,13],[9,-13],[16,19],[17,-11],[6,-32],[-18,-42],[5,8],[4,6],[8,3],[12,-3],[1,-9],[-2,-3],[0,-3],[2,-4],[-1,-8],[13,5],[4,-12],[1,-19],[2,-13],[-21,-10],[60,-1],[-6,9],[-16,4],[-7,19],[6,11],[26,15],[8,19],[11,0],[12,-16],[15,-8],[17,1],[14,9],[10,0],[0,-13],[-12,-3],[-5,-8],[-2,0],[3,-18],[10,-17],[14,-8],[17,10],[7,-5],[13,-12],[17,-12],[18,-4],[0,-13],[80,-12],[-30,25],[26,29],[7,3],[8,3],[19,-8],[-6,13],[0,13],[5,12],[11,12],[73,-75],[35,-48],[2,-45],[-12,5],[-11,-10],[-5,-18],[8,-15],[-10,-25],[2,-20],[19,-33],[6,-4],[6,1],[5,-1],[5,-29],[5,-9],[12,-11],[-6,-18],[-7,-4],[-8,3],[-9,5],[-1,5],[-34,42],[-24,14],[-27,2],[-15,-12],[11,-25],[0,-12],[-9,-7],[-6,-6],[-4,-10],[-1,-17],[-36,34],[-19,13],[-20,5],[-12,12],[1,27],[5,27],[-4,12],[-26,3],[-16,7],[-14,9],[-19,8],[-24,0],[-17,-6],[-15,1],[-14,19],[-10,0],[-7,-34],[-18,-16],[-24,-3],[-30,0],[8,12],[-1,7],[-4,4],[-3,3],[5,6],[2,8],[-2,10],[-5,15],[-10,0],[-14,-32],[-20,-28],[-28,-14],[-28,9],[-24,16],[-9,32],[-8,14],[-18,-36],[-5,-29],[3,-34],[12,-29],[32,-15],[12,-7],[11,-11],[5,-12],[-7,-6],[-17,-2],[-31,1],[-27,-13],[-11,-31],[-7,-35],[-27,0],[-1,0],[-22,27],[-18,9],[-2,9],[-3,7],[-33,-17],[-27,-24],[-9,-11],[-1386,0],[0,1620],[3,-3],[17,-3],[26,1],[4,-13],[39,-88],[18,-13],[34,-17],[37,-29],[28,-31],[17,-39],[10,-80],[11,-40],[15,-38],[20,-30],[0,3],[0,7],[1,5],[19,-9],[51,-17],[-9,-18],[-10,-7],[-11,2],[7,-9],[17,-5],[20,0],[25,-3],[15,-10],[37,-33],[13,-8],[23,-2],[25,-6],[24,-10],[34,-26],[36,-11],[13,-11],[18,12],[0,14],[-18,27],[-13,58],[-7,20],[-15,26],[-11,3],[-13,-8],[-21,-8],[-26,-2],[-13,4],[-31,24],[-19,8],[-41,9],[-20,7],[-16,12],[-6,11],[-30,199],[-17,39],[24,-10],[10,9],[6,41],[-35,7],[-86,45],[0,12],[20,0],[0,14],[-16,7],[-12,19],[-5,24],[8,22],[15,12],[89,38],[31,20],[18,34],[2,59],[-10,0],[0,-14],[-10,0],[-7,18],[-15,9],[-38,12],[-14,11],[-12,12],[-14,11],[-20,6],[-39,-24],[-37,-17],[-43,-9],[-120,-5]],[[792,629],[-4,5],[-16,-7],[-4,-9],[7,-15],[11,1],[10,-7],[8,-7],[4,-5],[7,-2],[16,6],[-18,14],[-12,16],[-3,2],[-6,8]],[[682,771],[-22,25],[-22,-11],[4,-25],[15,-26],[29,-38],[15,-12],[18,-5],[30,-1],[-17,44],[-24,27],[-26,22]],[[1613,4096],[-2,-6],[-11,-40],[8,-28],[0,-12],[-17,-10],[-42,-10],[-33,-28],[-22,-6],[-51,0],[-27,8],[-13,19],[-4,29],[-1,36],[-4,35],[-3,13],[222,0]],[[2081,3752],[18,-58],[2,-11],[-10,-9],[-29,-46],[-6,-16],[-20,-18],[-96,-55],[-34,-12],[0,15],[35,14],[46,30],[38,40],[10,44],[-6,9],[-38,24],[-6,13],[5,8],[16,12],[14,19],[15,14],[18,6],[23,0],[5,-23]],[[1947,3840],[-23,-54],[-93,-59],[-35,-44],[-19,26],[9,27],[14,18],[14,16],[12,17],[1,13],[-2,17],[0,16],[6,7],[10,3],[26,22],[-23,15],[-27,22],[-12,27],[21,27],[14,-40],[28,14],[21,34],[-8,19],[-16,5],[-39,34],[-19,-2],[-16,6],[-14,22],[-2,28],[11,20],[213,0],[1,-5],[8,-5],[10,-3],[8,-9],[21,-83],[14,-27],[25,-92],[-6,-28],[-15,-22],[-39,-35],[-10,23],[-14,18],[-19,11],[-27,1],[-9,0]],[[1528,0],[7,35],[11,31],[27,13],[31,-1],[17,2],[7,6],[-5,12],[-11,11],[-12,7],[-32,15],[-12,29],[-3,34],[5,29],[18,36],[8,-14],[9,-32],[24,-16],[28,-9],[28,14],[20,28],[14,32],[10,0],[5,-15],[2,-10],[-2,-8],[-5,-6],[3,-3],[4,-4],[1,-7],[-8,-12],[30,0],[24,3],[18,16],[7,34],[10,0],[14,-19],[15,-1],[17,6],[24,0],[19,-8],[14,-9],[16,-7],[26,-3],[4,-12],[-5,-27],[-1,-27],[12,-12],[20,-5],[19,-13],[36,-34],[1,17],[4,10],[6,6],[9,7],[0,12],[-11,25],[15,12],[27,-2],[24,-14],[34,-42],[1,-5],[9,-5],[8,-3],[7,4],[6,18],[-12,11],[-5,9],[-5,29],[-5,1],[-6,-1],[-6,4],[-19,33],[-2,20],[10,25],[-8,15],[5,18],[11,10],[12,-5],[-2,45],[-35,48],[-73,75],[-11,-12],[-5,-12],[0,-13],[6,-13],[-19,8],[-8,-3],[-7,-3],[-26,-29],[30,-25],[-80,12],[0,13],[-18,4],[-17,12],[-13,12],[-7,5],[-17,-10],[-14,8],[-10,17],[-3,18],[2,0],[5,8],[12,3],[0,13],[-10,0],[-14,-9],[-17,-1],[-15,8],[-12,16],[-11,0],[-8,-19],[-26,-15],[-6,-11],[7,-19],[16,-4],[6,-9],[-60,1],[21,10],[-2,13],[-1,19],[-4,12],[-13,-5],[1,8],[-2,4],[0,3],[2,3],[-1,9],[-12,3],[-8,-3],[-4,-6],[-5,-8],[18,42],[-6,32],[-17,11],[-16,-19],[-9,13],[-6,-13],[-8,-11],[-12,-8],[-15,-7],[0,-14],[21,-5],[-5,-16],[-1,-21],[-5,-23],[-11,-14],[-11,-7],[-11,-11],[-6,-19],[-21,14],[2,-20],[2,-8],[5,-2],[12,3],[68,-57],[28,-14],[9,-14],[4,-13],[-5,-6],[-13,3],[-26,16],[-43,15],[-9,-2],[-13,-6],[0,-9],[-15,-22],[-17,-15],[-9,14],[-4,18],[-11,13],[-10,10],[-4,10],[-2,12],[-3,6],[-4,4],[-1,5],[3,12],[7,8],[7,5],[3,7],[-15,63],[-28,45],[-39,34],[-47,27],[-46,37],[-114,146],[-43,30],[-14,16],[6,18],[-8,17],[-3,22],[2,22],[9,16],[0,15],[-18,-8],[-15,-3],[-10,6],[-7,17],[-22,-12],[-20,1],[-20,10],[-18,16],[-40,-18],[-60,31],[-46,56],[-4,59],[-19,19],[-11,24],[-16,19],[-33,4],[0,13],[10,0],[0,12],[-12,15],[-16,29],[-12,9],[25,8],[30,-1],[20,5],[-5,27],[-14,15],[-56,38],[0,12],[25,-2],[18,-5],[15,2],[12,18],[0,13],[-15,10],[-25,13],[-21,1],[1,-24],[-13,12],[-16,10],[-17,2],[16,16],[-27,6],[-25,3],[-24,-2],[-23,-7],[11,15],[6,18],[2,20],[0,24],[10,-12],[10,0],[10,10],[10,14],[1,7],[-1,24],[0,9],[3,1],[14,10],[3,1],[-9,38],[-24,18],[-25,7],[-11,10],[-5,7],[-23,20],[-8,4],[-16,4],[-12,9],[-11,14],[-65,15],[-33,13],[-17,11],[-8,-2],[-7,2],[-4,-2],[-2,-11],[-10,0],[-8,27],[5,32],[23,57],[-25,11],[-7,7],[22,48],[27,95],[3,23],[-10,39],[-15,11],[-23,2],[-32,12],[-2,5],[0,7],[-2,8],[-6,7],[-20,12],[-14,5],[-25,1],[-11,8],[0,12],[21,27],[15,14],[14,11],[-25,24],[-68,132],[-10,23],[-10,21],[-12,8],[-46,2],[-23,4],[-16,8],[11,12],[-39,27],[-6,-12],[-2,-6],[-2,-9],[-5,17],[-7,8],[-9,6],[-10,9],[-2,8],[-10,22],[-12,19],[-6,-4],[-14,15],[-46,15]],[[1613,4096],[-2,-6],[-11,-40],[8,-28],[0,-12],[-17,-10],[-42,-10],[-33,-28],[-22,-6],[-51,0],[-27,8],[-13,19],[-4,29],[-1,36],[-4,35],[-3,13]],[[1955,3835],[1,5],[-1,-6],[0,1]],[[1956,3831],[1,-1],[-1,1]],[[1958,3830],[4,0],[2,0],[2,-2],[-2,1],[-2,1],[-4,0]],[[1947,3840],[-23,-54],[-93,-59],[-35,-44],[-19,26],[9,27],[14,18],[14,16],[12,17],[1,13],[-2,17],[0,16],[6,7],[10,3],[26,22],[-23,15],[-27,22],[-12,27],[21,27],[14,-40],[28,14],[21,34],[-8,19],[-16,5],[-39,34],[-19,-2],[-16,6],[-14,22],[-2,28],[11,20]],[[1999,4096],[1,-5],[8,-5],[10,-3],[8,-9],[21,-83],[14,-27],[25,-92],[-6,-28],[-15,-22],[-39,-35],[-10,23],[-14,18],[-19,11],[-27,1],[-9,0]],[[2081,3752],[18,-58],[2,-11],[-10,-9],[-29,-46],[-6,-16],[-20,-18],[-96,-55],[-34,-12],[0,15],[35,14],[46,30],[38,40],[10,44],[-6,9],[-38,24],[-6,13],[5,8],[16,12],[14,19],[15,14],[18,6],[23,0],[5,-23]],[[589,1160],[-15,26],[-11,3],[-13,-8],[-21,-8],[-26,-2],[-13,4],[-31,24],[-19,8],[-41,9],[-20,7],[-16,12],[-6,11],[-30,199],[-17,39],[24,-10],[10,9],[6,41],[-35,7],[-86,45],[0,12],[20,0],[0,14],[-16,7],[-12,19],[-5,24],[8,22],[15,12],[89,38],[31,20],[18,34],[2,59],[-10,0],[0,-14],[-10,0],[-7,18],[-15,9],[-38,12],[-14,11],[-12,12],[-14,11],[-20,6],[-39,-24],[-37,-17],[-43,-9],[-120,-5]],[[0,1620],[3,-3],[17,-3],[26,1],[4,-13],[39,-88],[18,-13],[34,-17],[37,-29],[28,-31],[17,-39],[10,-80],[11,-40],[15,-38],[20,-30],[0,3],[0,7],[1,5],[19,-9],[51,-17],[-9,-18],[-10,-7],[-11,2],[7,-9],[17,-5],[20,0],[25,-3],[15,-10],[37,-33],[13,-8],[23,-2],[25,-6],[24,-10],[34,-26],[36,-11],[13,-11],[18,12],[0,14],[-18,27],[-13,58],[-7,20]],[[1501,0],[-1,0],[-22,27],[-18,9],[-2,9],[-3,7],[-33,-17],[-27,-24],[-9,-11]],[[660,796],[-22,-11],[4,-25],[15,-26],[29,-38],[15,-12],[18,-5],[30,-1],[-17,44],[-24,27],[-26,22],[-22,25]],[[2417,2035],[-38,-73]],[[2445,2198],[0,-9],[2,-11],[2,-4]],[[2379,1962],[-44,-84],[-20,-28],[-22,-25],[-16,-14]],[[2449,2174],[2,-6],[5,-10],[3,-4],[6,-9],[4,-4],[-1,-7],[-5,-12],[-46,-87]],[[2790,2670],[-1,0],[0,-1],[0,-1],[-1,0],[0,-1],[-1,-1],[0,-1],[-1,0],[0,-1],[-1,-1],[-1,-1],[0,-1],[-1,0],[0,-1],[-1,-1],[0,-1],[-1,0],[0,-1],[-1,-1],[0,-1],[-27,1],[-22,1],[-29,-21],[-17,-20],[-17,-30],[-171,-243],[-26,-46],[-10,-22],[-9,-24],[-6,-25],[-2,-26],[1,-2]],[[3149,2900],[-18,-5],[-140,-70]],[[3731,3227],[-2,-2],[-21,-20],[-14,-20]],[[2991,2825],[-119,-60],[-25,-18],[-11,-11],[-11,-12],[-35,-54]],[[3694,3185],[-4,-5],[-15,-27],[-12,-31],[-29,-92],[-12,-30],[-17,-30],[-20,-24],[-23,-20],[-27,-14],[-75,-18],[-230,18],[-33,-2],[-34,-6],[-14,-4]],[[4096,3408],[-8,3],[-11,0],[-9,-2],[-310,-164],[-27,-18]],[[842,1266],[48,-21],[45,-34],[47,-25],[50,6],[13,9],[13,10],[10,13],[9,15],[11,24],[5,11],[8,10],[12,10],[14,6],[15,1],[14,-3],[38,-23],[14,-4],[14,2],[13,7],[13,11],[35,41],[13,13],[14,10],[15,7],[14,5],[15,2],[15,0],[55,-12],[15,-2],[16,0],[16,2],[15,5],[12,8],[12,9],[64,68],[24,17],[28,9],[20,-1],[19,-6],[38,-16],[21,-7],[19,-1],[20,5],[18,12]],[[1781,1459],[12,8],[11,10],[10,11],[8,14],[4,10],[2,11],[1,10],[-2,47],[0,12],[2,16],[4,16],[5,14],[7,14],[17,26],[22,20],[23,15],[52,23],[303,53],[15,22]],[[4086,1825],[-5,-63],[1,-63],[8,-61],[6,-29]],[[4096,1867],[-2,-6],[-8,-36]],[[4012,137],[9,-41],[10,-32]],[[4031,64],[2,-8],[23,-56]],[[1689,1612],[-177,199],[-57,78],[-38,41],[-19,28]],[[0,2498],[96,-67]],[[96,2431],[32,-18],[17,-6],[108,-15],[35,-12],[15,-9],[42,-34],[45,-29],[11,-9],[10,-12],[56,-88],[4,-5],[5,-4],[6,-4],[31,-14],[2,-2],[9,-9],[3,-3],[2,-3],[8,-20],[20,-77],[13,-29],[2,-4],[3,-4],[10,-8],[5,-3],[6,-1],[7,0],[5,2],[13,8],[6,5],[5,7],[3,8],[2,9],[4,35],[3,17],[7,15],[12,7],[15,3],[14,0],[13,-4],[12,-9],[6,-7],[3,-3],[3,-2],[4,-1],[3,0],[4,0],[79,26],[17,4]],[[836,2129],[17,2],[17,-1],[16,-3],[32,-10],[107,-51],[31,-8],[18,-1],[94,8],[124,-2],[83,-15],[4,-37],[10,-34],[9,-19]],[[842,1176],[27,-25],[30,-18],[94,-43],[15,-10],[14,-11],[12,-14],[12,-15],[60,-96],[88,-88],[11,-15],[10,-18],[3,-14],[2,-14],[-2,-13],[-6,-30],[-1,-15],[1,-14],[4,-15],[7,-14],[9,-13],[11,-10],[72,-55],[104,-103],[22,-25],[20,-28],[17,-31],[9,-22],[7,-23],[6,-23],[3,-25]],[[2138,75],[3,-20],[4,-19],[5,-18],[8,-18]],[[2147,98],[-3,12],[-4,13],[-5,11],[-9,7],[-7,1],[-7,-3],[-7,-5],[-5,-6],[-13,-17],[-23,-36],[-12,-17],[-18,-14],[-19,-3],[-19,4],[-17,12],[-17,19],[-31,41],[-17,18],[-28,19],[-31,7],[-147,-7],[-42,2],[-41,10]],[[4033,1475],[22,-28],[15,-32],[26,-16]],[[4096,1368],[-19,-29],[-8,-38],[-13,-35],[-86,-168],[-50,-147]],[[4031,196],[6,-54]],[[3920,951],[-16,-32],[-21,-28],[-71,-65],[-10,-11],[-7,-12],[-4,-13],[-1,-16],[16,-93],[3,-39],[0,-20],[-2,-37],[0,-17],[1,-17],[4,-16],[15,-36],[21,-33],[133,-153],[19,-28],[9,-15],[7,-15],[6,-17],[8,-36],[1,-6]],[[1771,1472],[-17,39],[-19,37],[-22,33],[-24,31]],[[1651,156],[-49,37],[-22,22],[-21,26],[-13,22],[-11,25],[-9,26],[-7,27]],[[2535,2838],[128,-118],[23,-17],[24,-13],[25,-9],[12,-3],[12,-2],[24,1]],[[1755,676],[55,-4],[51,-13],[47,-20],[43,-29]],[[4056,164],[-28,-13]],[[4096,174],[-32,-6],[-8,-4]],[[3978,3714],[-16,10],[-6,3],[-1,1]],[[3955,3728],[-14,3],[-15,2],[-14,-3],[-13,-5],[-13,-4],[-13,4],[-7,4],[-17,20],[-6,4],[-7,1],[-6,1],[-7,-1],[-14,-3],[-67,-31],[-13,-4],[-13,0],[-15,2],[-30,0],[-21,-3],[-13,-3],[-24,-12],[-6,-5],[-23,-23],[-12,-10],[-13,-9],[-14,-6],[-6,-2],[-7,0],[-7,1],[-6,3],[-24,22],[-6,5],[-7,4],[-6,2],[-79,-4],[-58,7],[-14,4],[-27,10],[-14,2],[-7,0],[-7,-1],[-6,-3],[-12,-10],[-7,-6],[-3,-8],[1,-9],[-2,-2],[-3,0],[-21,-2],[-13,2],[-7,2],[-6,3],[-12,10],[-7,3],[-6,1],[-8,-6],[-7,-6],[-108,-140],[-22,-21],[-23,-18],[-25,-14],[-26,-6],[-25,1],[-24,8],[-23,17],[-21,24],[-17,29],[-52,126],[-17,27],[-21,22],[-33,17],[-34,6],[-107,-4],[-18,3],[-18,5]],[[4096,3684],[-112,27],[-3,1],[-3,2]],[[2554,3762],[8,33],[2,17],[1,16],[-2,19],[-2,10],[0,1],[-1,1],[0,1],[-1,1],[0,2],[-1,2],[-1,2],[-1,2],[0,3],[-1,2],[-1,3],[-1,3],[-2,3],[-1,3],[-1,4],[-1,3],[-1,3],[-2,4],[-1,3],[-1,4],[-2,4],[-1,3],[-1,4],[-2,4],[-1,3],[-1,4],[-2,4],[-1,3],[-1,4],[-2,3],[-1,3],[-1,4],[-1,3],[-1,3],[-1,3],[-1,3],[-1,2],[-1,3],[-1,2],[-1,2],[0,2],[-1,2],[-1,1],[0,1],[0,1],[-1,1]],[[2516,3979],[-21,58],[-29,59]],[[2315,1819],[24,12],[26,10],[26,5],[26,-3],[111,-48],[44,-11],[5,-2],[4,-3],[5,-4],[7,-10],[23,-38],[5,-5],[5,-3],[7,0],[7,1],[4,0],[3,-2],[5,-7],[3,-3],[4,-2],[3,-2],[2,-1],[18,-3],[3,0],[42,8],[35,0],[7,-2],[14,-5],[39,-19],[22,-9],[7,-4],[12,-8],[11,-11],[104,-132],[117,-173]],[[1413,2167],[3,4],[16,24],[21,24]],[[1546,2338],[2,4]],[[1453,2219],[19,23]],[[1376,2047],[1,9],[4,32],[9,30],[11,28],[12,21]],[[1472,2242],[43,49],[20,28],[9,15],[2,4]],[[1548,2342],[4,9],[13,37],[36,147],[14,34],[13,24],[17,21],[19,18],[20,15],[48,21],[51,9],[51,1],[74,-11],[47,-13],[112,-45],[30,-8],[28,-2],[26,2],[27,7],[26,10],[29,16],[29,17],[27,21],[119,124],[52,36],[75,6]],[[1781,1459],[-45,-183],[-14,-41],[-9,-19],[-36,-53],[-10,-20],[-6,-22],[21,-5],[23,-9],[20,-15],[11,-24],[1,-22],[-5,-22],[-34,-93],[-8,-27],[-4,-28],[2,-30],[9,-30],[13,-27],[36,-60],[13,-16],[14,-14]],[[1951,610],[29,-25],[149,-164]],[[2163,164],[-7,-32]],[[2129,421],[21,-30],[17,-34],[10,-36],[3,-39],[-2,-40],[-15,-78]],[[2156,132],[-4,-23],[-5,-45]],[[2673,0],[43,54],[24,25],[27,19],[30,11],[7,0],[2,1],[1,4],[-6,100],[1,13],[2,12]],[[3190,170],[38,34],[9,7]],[[3976,134],[60,2]],[[2804,239],[4,12],[5,10],[10,9],[11,5],[11,2],[12,0],[27,-6],[25,-13],[23,-18],[89,-87],[25,-16],[25,-11],[27,-3],[26,3],[25,11],[21,14],[20,19]],[[3237,211],[15,10],[25,12],[27,5],[27,-3],[64,-29],[17,-6],[16,-3],[18,0],[17,4],[89,34],[18,4],[18,2],[18,0],[32,-6],[30,-11],[138,-79],[28,-8],[50,-7],[92,4]],[[3107,1347],[30,36],[11,10],[12,9],[12,7],[13,4],[13,-1],[56,-22],[30,-8],[29,-3],[27,4],[202,63],[28,3],[82,-8],[10,2],[212,69],[29,4],[88,-9],[5,-2],[40,-34]],[[3095,1345],[30,-54],[44,-122],[27,-57],[18,-26],[20,-19],[23,-15],[26,-10],[30,-6],[125,-10],[30,-6],[30,-11],[28,-17],[15,-13],[59,-72],[11,-10],[13,-8],[15,-4],[14,-1],[14,2],[24,6],[5,0],[4,-2],[9,-9],[23,-33],[9,-8],[11,-4],[12,0],[50,12],[14,0],[3,-1],[3,-1],[7,-8]],[[3092,2854],[-16,50],[-9,21]],[[3067,2925],[-18,42],[-2,7],[-5,25],[-2,8],[-3,8],[-4,7],[-10,13],[-33,36],[-18,28],[-14,31],[-8,34],[-4,36],[0,6]],[[3300,2419],[-4,17],[-2,24],[1,15],[1,14],[4,14],[1,4]],[[3306,2520],[4,7],[3,5]],[[3356,2357],[-16,8],[-16,13],[-7,8]],[[3358,2356]],[[3133,2816],[-13,6],[-16,13],[-3,3],[-3,4],[-6,12]],[[3313,2532],[16,25],[11,29],[3,30],[-5,31],[-11,28],[-16,23],[-21,17],[-93,49],[-9,6],[-31,30],[-5,5],[-11,7],[-8,4]],[[3317,2386],[-6,8],[-9,20],[-2,5]],[[3301,2507],[4,10],[1,3]],[[3358,2356],[-1,0],[-1,1]],[[4033,1475],[-41,71],[-3,6],[-2,6],[-1,6],[-2,19],[-3,9],[-5,8],[-11,10],[-14,8],[-53,25],[-38,25],[-6,5],[-5,7],[-3,9],[1,10],[6,18],[3,19],[-2,17],[-6,16],[-8,15],[-11,14],[-45,51],[-9,13],[-8,13],[-8,14],[-6,16],[-11,34],[-6,16],[-5,6],[-5,4],[-6,3],[-5,4],[-24,25],[-5,6],[-5,6],[-4,7],[-3,7],[-2,10],[-1,9],[-1,20],[-2,17],[-3,18],[-4,17],[-6,16],[-10,12],[-13,7],[-27,10],[-26,16],[-6,5],[-4,6],[-2,7],[0,8],[2,9],[1,8],[0,9],[-1,8],[-9,20],[-4,10],[-7,8],[-16,17],[-18,13],[-19,11],[-138,42]],[[2946,3206],[2,53],[14,118],[3,67]],[[1642,1675],[-111,-24],[-37,-3],[-16,2],[-15,3],[-15,6],[-14,9],[-46,37],[-13,7],[-13,5],[-13,3],[-16,-1],[-1,0],[-1,-1],[0,-3],[0,-27],[-1,-16],[-2,-16],[-7,-23],[-11,-17],[-15,-12],[-17,-8],[-18,-3],[-51,0],[-17,-36],[-110,-171],[-26,-32],[-14,-14],[-15,-12],[-20,-8],[-20,3],[-20,10],[-27,24],[-10,7],[-10,5],[-12,4],[-28,3],[-15,1],[-14,-2],[-14,-5],[-12,-9],[-8,-14],[-3,-19],[1,-22],[5,-21],[22,-74],[4,-9],[22,-38]],[[2529,3745],[-106,9],[-43,-1],[-31,-8]],[[2349,3745],[-93,-23],[-69,-17]],[[2553,3742],[-24,3]],[[0,3442],[17,-3],[28,-10],[25,-17],[22,-22],[22,-25],[42,-64],[36,-70],[29,-70],[10,-30],[4,-16],[1,-17],[-2,-89],[2,-14],[3,-14],[7,-11],[8,-8],[98,-63],[97,-78],[27,-27],[25,-30],[22,-34],[17,-40],[43,-166],[12,-32],[15,-29],[19,-27],[134,-135],[29,-36],[23,-42],[14,-47],[1,-52]],[[1503,325],[20,32],[14,36],[8,38],[0,42],[-10,110],[1,37],[3,20],[6,28],[2,5],[3,2],[13,1],[13,-1],[25,-6],[62,-22],[25,-7],[25,-1],[20,6],[16,13],[13,18],[11,23]],[[2206,3262],[16,-31],[17,-26]],[[2259,3183],[21,-22],[4,-3]],[[2239,3205],[2,-3],[18,-19]],[[2284,3158],[101,-88],[48,-33],[4,-6],[3,-8],[4,-18],[2,-7],[4,-6],[4,-5],[6,-3],[15,-4],[7,-3],[6,-4],[5,-4],[4,-6],[2,-7],[31,-101],[23,-46]],[[4005,1564],[-23,-3]],[[732,722],[17,-44],[-30,1],[-18,5],[-15,12],[-29,38],[-15,26],[-4,25],[22,11],[22,-25],[26,-22],[24,-27]],[[0,1620],[0,227],[120,5],[43,9],[37,17],[39,24],[20,-6],[14,-11],[12,-12],[14,-11],[38,-12],[15,-9],[7,-18],[10,0],[0,14],[10,0],[-2,-59],[-18,-34],[-31,-20],[-89,-38],[-15,-12],[-8,-22],[5,-24],[12,-19],[16,-7],[0,-14],[-20,0],[0,-12],[86,-45],[35,-7],[-6,-41],[-10,-9],[-24,10],[17,-39],[30,-199],[6,-11],[16,-12],[20,-7],[41,-9],[19,-8],[31,-24],[13,-4],[26,2],[21,8],[13,8],[11,-3],[15,-26],[7,-20],[13,-58],[18,-27],[0,-14],[-18,-12],[-13,11],[-36,11],[-34,26],[-24,10],[-25,6],[-23,2],[-13,8],[-37,33],[-15,10],[-25,3],[-20,0],[-17,5],[-7,9],[11,-2],[10,7],[9,18],[-51,17],[-19,9],[-1,-5],[0,-7],[0,-3],[-20,30],[-15,38],[-11,40],[-10,80],[-17,39],[-28,31],[-37,29],[-34,17],[-18,13],[-39,88],[-4,13],[-26,-1],[-17,3],[-3,3]],[[1501,0],[-115,0],[9,11],[27,24],[33,17],[3,-7],[2,-9],[18,-9],[22,-27],[1,0]],[[4096,4096],[0,-4096],[-2568,0],[7,35],[11,31],[27,13],[31,-1],[17,2],[7,6],[-5,12],[-11,11],[-12,7],[-32,15],[-12,29],[-3,34],[5,29],[18,36],[8,-14],[9,-32],[24,-16],[28,-9],[28,14],[20,28],[14,32],[10,0],[5,-15],[2,-10],[-2,-8],[-5,-6],[3,-3],[4,-4],[1,-7],[-8,-12],[30,0],[24,3],[18,16],[7,34],[10,0],[14,-19],[15,-1],[17,6],[24,0],[19,-8],[14,-9],[16,-7],[26,-3],[4,-12],[-5,-27],[-1,-27],[12,-12],[20,-5],[19,-13],[36,-34],[1,17],[4,10],[6,6],[9,7],[0,12],[-11,25],[15,12],[27,-2],[24,-14],[34,-42],[1,-5],[9,-5],[8,-3],[7,4],[6,18],[-12,11],[-5,9],[-5,29],[-5,1],[-6,-1],[-6,4],[-19,33],[-2,20],[10,25],[-8,15],[5,18],[11,10],[12,-5],[-2,45],[-35,48],[-73,75],[-11,-12],[-5,-12],[0,-13],[6,-13],[-19,8],[-8,-3],[-7,-3],[-26,-29],[30,-25],[-80,12],[0,13],[-18,4],[-17,12],[-13,12],[-7,5],[-17,-10],[-14,8],[-10,17],[-3,18],[2,0],[5,8],[12,3],[0,13],[-10,0],[-14,-9],[-17,-1],[-15,8],[-12,16],[-11,0],[-8,-19],[-26,-15],[-6,-11],[7,-19],[16,-4],[6,-9],[-60,1],[21,10],[-2,13],[-1,19],[-4,12],[-13,-5],[1,8],[-2,4],[0,3],[2,3],[-1,9],[-12,3],[-8,-3],[-4,-6],[-5,-8],[18,42],[-6,32],[-17,11],[-16,-19],[-9,13],[-6,-13],[-8,-11],[-12,-8],[-15,-7],[0,-14],[21,-5],[-5,-16],[-1,-21],[-5,-23],[-11,-14],[-11,-7],[-11,-11],[-6,-19],[-21,14],[2,-20],[2,-8],[5,-2],[12,3],[68,-57],[28,-14],[9,-14],[4,-13],[-5,-6],[-13,3],[-26,16],[-43,15],[-9,-2],[-13,-6],[0,-9],[-15,-22],[-17,-15],[-9,14],[-4,18],[-11,13],[-10,10],[-4,10],[-2,12],[-3,6],[-4,4],[-1,5],[3,12],[7,8],[7,5],[3,7],[-15,63],[-28,45],[-39,34],[-47,27],[-46,37],[-114,146],[-43,30],[-14,16],[6,18],[-8,17],[-3,22],[2,22],[9,16],[0,15],[-18,-8],[-15,-3],[-10,6],[-7,17],[-22,-12],[-20,1],[-20,10],[-18,16],[-40,-18],[-60,31],[-46,56],[-4,59],[-19,19],[-11,24],[-16,19],[-33,4],[0,13],[10,0],[0,12],[-12,15],[-16,29],[-12,9],[25,8],[30,-1],[20,5],[-5,27],[-14,15],[-56,38],[0,12],[25,-2],[18,-5],[15,2],[12,18],[0,13],[-15,10],[-25,13],[-21,1],[1,-24],[-13,12],[-16,10],[-17,2],[16,16],[-27,6],[-25,3],[-24,-2],[-23,-7],[11,15],[6,18],[2,20],[0,24],[10,-12],[10,0],[10,10],[10,14],[1,7],[-1,24],[0,9],[3,1],[14,10],[3,1],[-9,38],[-24,18],[-25,7],[-11,10],[-5,7],[-23,20],[-8,4],[-16,4],[-12,9],[-11,14],[-65,15],[-33,13],[-17,11],[-8,-2],[-7,2],[-4,-2],[-2,-11],[-10,0],[-8,27],[5,32],[23,57],[-25,11],[-7,7],[22,48],[27,95],[3,23],[-10,39],[-15,11],[-23,2],[-32,12],[-2,5],[0,7],[-2,8],[-6,7],[-20,12],[-14,5],[-25,1],[-11,8],[0,12],[21,27],[15,14],[14,11],[-25,24],[-68,132],[-10,23],[-10,21],[-12,8],[-46,2],[-23,4],[-16,8],[11,12],[-39,27],[-6,-12],[-2,-6],[-2,-9],[-5,17],[-7,8],[-9,6],[-10,9],[-2,8],[-10,22],[-12,19],[-6,-4],[-14,15],[-46,15],[0,1625],[4096,0]],[[1409,2178],[163,153],[-28,7],[138,160],[174,-4],[135,57],[42,-34],[-7,-67],[302,-99],[85,-54],[-31,-112],[73,15],[-58,-258],[-32,37],[-71,-21],[-24,-84],[21,-14],[-139,-19],[-125,49],[6,-63],[-45,6],[-53,-40],[-91,11],[-54,-61],[42,-68],[-2,-47],[-23,48],[-110,88],[-100,16],[-71,73],[-21,108],[-75,84],[3,60],[25,15],[-28,-6],[-21,64]],[[2418,4096],[-16,-61],[-20,16],[-63,-23],[35,-75],[-32,-17],[37,-21],[7,-34],[-76,-13],[-77,46],[-14,59],[-29,-5],[-77,107],[-54,-23],[-27,23],[8,21],[398,0]],[[1522,3966],[0,1],[10,3],[2,1],[0,1],[0,1],[6,1],[17,17],[30,5],[23,100],[181,0],[-21,-61],[133,-67],[-24,-44],[-43,63],[-72,-9],[-74,38],[-49,-73],[-119,23]],[[863,2770],[1,112],[30,71],[83,-4],[30,75],[116,-3],[1,-58],[47,-60],[-48,-42],[41,-30],[-11,-87],[19,4],[38,-131],[73,-70],[-38,-84],[-206,186],[-32,113],[-36,0],[-39,-42],[-69,50]],[[1661,3970],[36,43],[170,-49],[23,-220],[-43,-46],[39,-16],[1,-45],[107,-134],[-108,3],[-63,101],[-87,25],[-50,54],[11,192],[-36,92]],[[550,3530],[7,33],[64,31],[-22,19],[26,73],[129,21],[48,-219],[51,-40],[30,-72],[-63,-7],[-35,-84],[-81,-5],[-16,40],[30,61],[-29,35],[-22,-17],[-72,20],[-28,49],[36,33],[-53,29]],[[3107,230],[44,48],[14,88],[107,89],[14,-81],[-32,-29],[-23,18],[-21,-86],[-41,-26],[27,-36],[41,12],[0,-67],[33,6],[-10,-29],[49,6],[-98,-92],[-24,33],[4,95],[-84,51]],[[3281,2457],[30,76],[90,-44],[44,-63],[-46,-67],[-41,-3],[-32,13],[-45,88]],[[3265,3361],[38,32],[48,-35],[6,61],[-49,9],[-11,51],[61,9],[57,-11],[28,-40],[-9,-36],[31,5],[6,-46],[-45,-16],[-24,-43],[-13,20],[-10,-22],[-27,14],[-38,-18],[-49,66]],[[1967,3546],[82,53],[33,56],[63,-44],[-41,-37],[27,-63],[-71,-28],[-61,-63],[-32,126]],[[2339,3731],[56,85],[64,23],[24,-1],[17,-49],[45,17],[-30,-117],[-91,-19],[49,40],[-80,29],[-13,-20],[-41,12]],[[4055,63],[-43,2],[-54,103],[40,45],[46,-24],[28,-61],[-17,-65]],[[3126,171],[-20,-17],[-43,18],[-11,39],[66,-10],[8,-30]],[[4096,2721],[-57,0],[-1,28],[58,31],[0,-59]],[[156,3417],[-48,-1],[4,61],[44,4],[0,-64]],[[3978,3713],[-24,11],[4,52],[25,16],[24,-16],[-29,-63]],[[3424,3734],[-81,42],[27,38],[119,4],[-19,-61],[-46,-23]],[[3182,2890],[-63,-96],[-83,-31],[-49,42],[17,85],[45,41],[133,-41]],[[3748,3291],[46,21],[25,-21],[-87,-64],[-17,-42],[-64,0],[-17,-21],[-48,21],[-16,127],[178,42],[0,-63]],[[2287,3321],[37,12],[32,-21],[-36,-74],[20,-95],[-81,21],[0,84],[-46,-17],[18,82],[56,8]],[[413,1770],[50,49],[-19,36],[45,61],[92,-66],[-1,-122],[-53,-7],[-26,22],[-21,-16],[18,-37],[-45,-55],[-25,9],[-15,126]],[[2276,0],[-111,0],[-13,50],[6,120],[118,-170]],[[3730,2394],[4,50],[56,62],[2,61],[41,15],[37,-40],[-22,32],[87,-10],[78,-33],[83,-89],[-17,-53],[17,-1],[0,-119],[-89,-52],[-73,-1],[-13,-32],[-53,5],[-8,26],[-71,27],[-59,152]],[[2116,3337],[52,-25],[24,55],[28,-53],[77,-47],[61,39],[38,-36],[-24,-47],[9,-52],[-47,-23],[-55,60],[-23,-15],[-80,56],[-36,-15],[-24,103]],[[3909,0],[-235,0],[-7,78],[114,16],[143,-61],[-15,-33]],[[1964,3563],[74,84],[-50,37],[-3,41],[101,126],[61,-57],[47,-12],[-29,-158],[-66,-17],[-25,-41],[-73,-12],[-19,-27],[-18,36]],[[2010,2002],[16,99],[30,21],[111,-10],[44,-76],[-41,-89],[-160,55]],[[1419,2168],[50,27],[-21,23],[84,81],[92,59],[66,-91],[7,-59],[75,-90],[-22,-43],[-84,31],[-21,-36],[-45,7],[-22,-34],[26,-10],[-36,-12],[-1,-35],[18,-5],[-4,-10],[-25,21],[4,15],[-71,17],[-4,65],[-66,79]],[[1487,4096],[34,-131],[100,-24],[40,28],[35,-110],[-77,-9],[-34,24],[-181,12],[-64,-43],[-15,252],[162,1]]]}