{"objects":{"water":{"type":"GeometryCollection","geometries":[]},"buildings":{"type":"GeometryCollection","geometries":[]},"places":{"type":"GeometryCollection","geometries":[{"type":"Point","properties":{"name:kg":"Repubilika ya Afelika ya Kati","name:ka":"\u10ea\u10d4\u10dc\u10e2\u10e0\u10d0\u10da\u10e3\u10e0\u10d8 \u10d0\u10e4\u10e0\u10d8\u10d9\u10d8\u10e1 \u10e0\u10d4\u10e1\u10de\u10e3\u10d1\u10da\u10d8\u10d9\u10d0","name:ko":"\uc911\uc559 \uc544\ud504\ub9ac\uce74 \uacf5\ud654\uad6d","name:kn":"\u0cae\u0ca7\u0ccd\u0caf \u0c86\u0cab\u0ccd\u0cb0\u0cbf\u0c95\u0cbe \u0c97\u0ca3\u0cb0\u0cbe\u0c9c\u0ccd\u0caf","name:km":"\u179f\u17b6\u1792\u17b6\u179a\u178e\u179a\u178a\u17d2\u178b\u17a2\u17b6\u17a0\u17d2\u179c\u17d2\u179a\u17b7\u1780\u1780\u178e\u17d2\u178a\u17b6\u179b","name:cs":"St\u0159edoafrick\u00e1 republika","name:ki":"Jamhuri ya Afrika ya Kati","name:kw":"Centrafrika","name:tk":"Merkezi Afrika Respublikasy","name:ku":"Komara Afr\u00eekaya Navend","name:ti":"\u12e8\u1218\u12ab\u12a8\u1208\u129b\u12cd \u12a0\u134d\u122a\u12ab \u122a\u1350\u1265\u120a\u12ad","name:ks":"\u0645\u0631\u06a9\u0654\u0632\u06cc \u0627\u064e\u0641\u0631\u06cc\u0656\u06a9\u06cc \u062c\u0645\u0648\u0657\u0631\u06cc\u064e\u062a","name:to":"Lipapilika \u02bbAfilika Lotoloto","name:tl":"Republikang Gitnang-Aprikano","name:ce":"\u042e\u043a\u043a\u044a\u0435\u0440\u0447\u0443 \u0410\u0444\u0440\u0438\u043a\u0438\u043d \u0420\u0435\u0441\u043f\u0443\u0431\u043b\u0438\u043a\u0430","name:ta":"\u0bae\u0ba4\u0bcd\u0ba4\u0bbf\u0baf \u0b86\u0baa\u0bcd\u0bb0\u0bbf\u0b95\u0bcd\u0b95\u0b95\u0bcd \u0b95\u0bc1\u0b9f\u0bbf\u0baf\u0bb0\u0b9a\u0bc1","name:tg":"\u04b6\u0443\u043c\u04b3\u0443\u0440\u0438\u0438 \u0410\u0444\u0440\u0438\u049b\u043e\u0438 \u041c\u0430\u0440\u043a\u0430\u0437\u04e3","name:ca":"Rep\u00fablica Centreafricana","name:te":"\u0c2e\u0c27\u0c4d\u0c2f\u0c2e \u0c06\u0c2b\u0c4d\u0c30\u0c3f\u0c15\u0c3e \u0c30\u0c3f\u0c2a\u0c2c\u0c4d\u0c32\u0c3f\u0c15\u0c4d","name:cy":"Gweriniaeth Canolbarth Affrica","name:hr":"Centralna Afri\u010dka Republika","name:da":"Centralafrikanske Republik","name:de":"Zentralafrikanische Republik","name:dz":"\u0f66\u0f7a\u0f53\u0f0b\u0f4a\u0f63\u0f0b \u0f68\u0f55\u0f0b\u0f62\u0f72\u0f0b\u0f40\u0f71\u0f53\u0f0b \u0f62\u0f72\u0f0b\u0f54\u0f56\u0f0b\u0f63\u0f72\u0f40","source":"openstreetmap.org","name:ts":"Afrika Wale Xikarhi","name:dv":"\u0789\u07ac\u078b\u07aa\u078c\u07ac\u0783\u07ad \u0787\u07ac\u078a\u07b0\u0783\u07a8\u0786\u07a7\u078e\u07ac \u0796\u07aa\u0789\u07b0\u0780\u07ab\u0783\u07a8\u0787\u07b0\u0794\u07a7","name:lv":"Centr\u0101l\u0101frikas Republika","name:lt":"Centrin\u0117s Afrikos Respublika","name:uz":"Markaziy Afrika Respublikasi","name:kk":"\u041e\u0440\u0442\u0430\u043b\u044b\u049b \u0410\u0444\u0440\u0438\u043a\u0430 \u0420\u0435\u0441\u043f\u0443\u0431\u043b\u0438\u043a\u0430\u0441\u044b","name:ur":"\u0648\u0633\u0637 \u0627\u0641\u0631\u06cc\u0642\u06cc \u062c\u0645\u06c1\u0648\u0631\u06cc\u06c1","name:lb":"Zentralafrikanesch Republik","name:la":"Respublica Africae Mediae","name:lg":"Lipubulika eya Senturafiriki","name:uk":"\u0426\u0435\u043d\u0442\u0440\u0430\u043b\u044c\u043d\u043e-\u0410\u0444\u0440\u0438\u043a\u0430\u043d\u0441\u044c\u043a\u0430 \u0420\u0435\u0441\u043f\u0443\u0431\u043b\u0456\u043a\u0430","name:ug":"\u0626\u0648\u062a\u062a\u06c7\u0631\u0627 \u0626\u0627\u0641\u0631\u0649\u0642\u0627 \u062c\u06c7\u0645\u06be\u06c7\u0631\u0649\u064a\u0649\u062a\u0649","name:li":"Centraal Afrika","name:ln":"Repibiki ya Afr\u00edka ya K\u00e1ti","name:lo":"\u0eaa\u0eb2\u0e97\u0eb2\u0ea5\u0eb0\u0e99\u0eb0\u0ea5\u0eb1\u0e94\u0ead\u0eb1\u0e9a\u0e9f\u0ebc\u0eb4\u0e81\u0e81\u0eb2\u0e81\u0eb2\u0e87","name:el":"\u039a\u03b5\u03bd\u03c4\u03c1\u03bf\u03b1\u03c6\u03c1\u03b9\u03ba\u03b1\u03bd\u03b9\u03ba\u03ae \u0394\u03b7\u03bc\u03bf\u03ba\u03c1\u03b1\u03c4\u03af\u03b1","name:eo":"Centr-Afrika Respubliko","name:en":"Central African Republic","name":"Centrafrique","name:ee":"Titina Afrika rep\u0254blik nutome","name:th":"\u0e2a\u0e32\u0e18\u0e32\u0e23\u0e13\u0e23\u0e31\u0e10\u0e41\u0e2d\u0e1f\u0e23\u0e34\u0e01\u0e32\u0e01\u0e25\u0e32\u0e07","name:eu":"Afrika Erdiko Errepublika","name:et":"Kesk-Aafrika Vabariik","name:es":"Rep\u00fablica Centroafricana","name:ia":"Republica African Central","name:rm":"Republica Centralafricana","name:rn":"Repubulika ya Santarafurika","name:az":"Orta Afrika respublikas\u0131","name:ie":"Central African Republic","name:id":"Republik Afrika Tengah","name:ar":"\u062c\u0645\u0647\u0648\u0631\u064a\u0629 \u0623\u0641\u0631\u064a\u0642\u064a\u0627 \u0627\u0644\u0648\u0633\u0637\u0649","name:io":"Centrafrika","name:ak":"Afrika Finimfin Man","name:am":"\u12e8\u1218\u12ab\u12a8\u1208\u129b\u12cd \u12a0\u134d\u122a\u12ab \u122a\u1350\u1265\u120a\u12ad","name:it":"Repubblica Centrafricana","name:an":"Republica Centroafricana","name:ru":"\u0426\u0435\u043d\u0442\u0440\u0430\u043b\u044c\u043d\u043e\u0430\u0444\u0440\u0438\u043a\u0430\u043d\u0441\u043a\u0430\u044f \u0420\u0435\u0441\u043f\u0443\u0431\u043b\u0438\u043a\u0430","name:rw":"Repubulika ya Santara Afurika","name:af":"Sentraal-Afrikaanse Republiek","name:zu":"i-Central African Republic","name:no":"Den sentralafrikanske republikk","name:zh-yue":"\u4e2d\u975e\u5171\u548c\u570b","name:zh":"\u4e2d\u975e","name:so":"Jamhuuriyadda Afrikada Dhexe","name:sn":"Central African Republic","name:sl":"Srednjeafri\u0161ka republika","name:sk":"Stredoafrick\u00e1 republika","name:ja":"\u4e2d\u592e\u30a2\u30d5\u30ea\u30ab\u5171\u548c\u56fd","name:si":"\u0db8\u0db0\u0dca\u200d\u0dba\u0db8 \u0d85\u0db4\u0dca\u200d\u0dbb\u0dd2\u0d9a\u0dcf\u0db1\u0dd4 \u0da2\u0db1\u0dbb\u0da2\u0dba","name:sh":"Srednjoafri\u010dka Republika","name:sg":"K\u00f6d\u00f6r\u00f6s\u00ease t\u00ee B\u00eaafr\u00eeka","name:se":"Gaska-Afrihk\u00e1 d\u00e1ssev\u00e1ldi","name:sc":"Tzentr\u00e0frica","name:sa":"\u0915\u0947\u0928\u094d\u0926\u094d\u0930\u0940\u092f \u0905\u092b\u094d\u0930\u0940\u0915\u093e \u0917\u0923\u0930\u093e\u091c\u094d\u092f\u092e\u094d","name:bs":"Centralno Afri\u010dka Republika","name:bm":"Santarafiriki","name:bn":"\u09ae\u09a7\u09cd\u09af \u0986\u09ab\u09cd\u09b0\u09bf\u0995\u09be\u09a8 \u09aa\u09cd\u09b0\u099c\u09be\u09a4\u09a8\u09cd\u09a4\u09cd\u09b0","name:bo":"\u0f51\u0f56\u0f74\u0f66\u0f0b\u0f68\u0f0b\u0f67\u0fa5\u0f7a\u0f0b\u0f62\u0f72\u0f0b\u0f41\u0f53\u0f0b\u0f62\u0f72\u0f0b\u0f54\u0f54\u0f0b\u0f63\u0f72\u0f40\u0f0d","name:br":"Republik Kreizafrikan","name:sw":"Jamhuri ya Afrika ya Kati","name:be":"\u0426\u044d\u043d\u0442\u0440\u0430\u043b\u044c\u043d\u0430-\u0410\u0444\u0440\u044b\u043a\u0430\u043d\u0441\u043a\u0430\u044f \u0420\u044d\u0441\u043f\u0443\u0431\u043b\u0456\u043a\u0430","name:su":"R\u00e9publik Afrika Tengah","name:bg":"\u0426\u0435\u043d\u0442\u0440\u0430\u043b\u043d\u043e\u0430\u0444\u0440\u0438\u043a\u0430\u043d\u0441\u043a\u0430 \u0420\u0435\u043f\u0443\u0431\u043b\u0438\u043a\u0430","name:ss":"Umkhatsi we-Afrikha","name:sr":"\u0426\u0435\u043d\u0442\u0440\u0430\u043b\u043d\u043e\u0430\u0444\u0440\u0438\u0447\u043a\u0430 \u0420\u0435\u043f\u0443\u0431\u043b\u0438\u043a\u0430","name:sq":"Republika Qendrore e Afrik\u00ebs","name:jv":"Republik Afrika Tengah","name:pt":"Rep\u00fablica Centro-Africana","name:ps":"\u062f \u0645\u0646\u0681\u0646\u06cc \u0627\u0641\u0631\u064a\u0642\u0627 \u0648\u0644\u0633\u0645\u0634\u0631\u064a\u0632\u0647","name:oc":"Centreafrica","min_zoom":2.0,"name:ro":"Republica Centrafrican\u0103","name:zh-min-nan":"Tiong-hui Ki\u014dng-h\u00f4-kok","name:os":"\u0426\u0435\u043d\u0442\u0440\u0430\u043b\u043e\u043d \u0410\u0444\u0440\u0438\u043a\u00e6\u0439\u044b \u0420\u0435\u0441\u043f\u0443\u0431\u043b\u0438\u043a\u00e6","name:or":"\u0b2e\u0b27\u0b4d\u0b5f \u0b06\u0b2b\u0b4d\u0b30\u0b3f\u0b15\u0b40\u0b5f \u0b17\u0b23\u0b24\u0b28\u0b4d\u0b24\u0b4d\u0b30","name:pl":"Republika \u015arodkowoafryka\u0144ska","name:pa":"\u0a2e\u0a71\u0a27 \u0a05\u0a2b\u0a3c\u0a30\u0a40\u0a15\u0a40 \u0a17\u0a23\u0a30\u0a3e\u0a1c","name:tr":"Orta Afrika Cumhuriyeti","name:hi":"\u0938\u0947\u0902\u091f\u094d\u0930\u0932 \u0905\u092b\u094d\u0930\u0940\u0915\u0928 \u0930\u093f\u092a\u092c\u094d\u0932\u093f\u0915","name:sv":"Centralafrikanska republiken","name:he":"\u05d4\u05e8\u05e4\u05d5\u05d1\u05dc\u05d9\u05e7\u05d4 \u05e9\u05dc \u05de\u05e8\u05db\u05d6 \u05d0\u05e4\u05e8\u05d9\u05e7\u05d4","name:ha":"Jamhuriyar Afirka Ta Tsakiya","name:hy":"\u053f\u0565\u0576\u057f\u0580\u0578\u0576\u0561\u056f\u0561\u0576 \u0531\u0586\u0580\u056b\u056f\u0575\u0561\u0576 \u0540\u0561\u0576\u0580\u0561\u057a\u0565\u057f\u0578\u0582\u0569\u0575\u0578\u0582\u0576","name:ht":"Repiblik santafrik","name:hu":"K\u00f6z\u00e9p-Afrikai K\u00f6ztarsas\u00e1g","name:qu":"Chawpi Aphrika Republika","population":4500000,"kind":"country","name:is":"Mi\u00f0-Afr\u00edkul\u00fd\u00f0veldi\u00f0","name:yo":"Or\u00edl\u1eb9\u0301\u00e8de \u00c0rin g\u00f9ngun \u00c1f\u00edr\u00edk\u00e0","name:mt":"Repubblika Afrikana \u010aentrali","name:ms":"Republik Afrika Tengah","name:mr":"\u0915\u0947\u0902\u0926\u094d\u0930\u0940\u092f \u0905\u092b\u094d\u0930\u093f\u0915\u0940 \u092a\u094d\u0930\u091c\u093e\u0938\u0924\u094d\u0924\u093e\u0915","name:my":"\u1021\u101c\u101a\u103a\u1015\u102d\u102f\u1004\u103a\u1038 \u1021\u102c\u1016\u101b\u102d\u1000 \u1015\u103c\u100a\u103a\u1011\u1031\u102c\u1004\u103a\u1005\u102f","int_name":"Central African Republic","name:mg":"Repoblika Ivon'Afrika","name:ml":"\u0d38\u0d46\u0d7b\u0d1f\u0d4d\u0d30\u0d7d \u0d06\u0d2b\u0d4d\u0d30\u0d3f\u0d15\u0d4d\u0d15\u0d7b \u0d31\u0d3f\u0d2a\u0d4d\u0d2a\u0d2c\u0d4d\u0d32\u0d3f\u0d15\u0d4d","name:vi":"Trung Phi","name:mn":"\u0422\u04e9\u0432 \u0410\u0444\u0440\u0438\u043a\u0438\u0439\u043d \u0411\u04af\u0433\u0434 \u041d\u0430\u0439\u0440\u0430\u043c\u0434\u0430\u0445 \u0423\u043b\u0441","id":432424956,"name:mk":"\u0426\u0435\u043d\u0442\u0440\u0430\u043b\u043d\u0430 \u0410\u0444\u0440\u0438\u043a\u0430\u043d\u0441\u043a\u0430 \u0420\u0435\u043f\u0443\u0431\u043b\u0438\u043a\u0430","name:vo":"Z\u00e4noda-Frikop","name:fa":"\u062c\u0645\u0647\u0648\u0631\u06cc \u0622\u0641\u0631\u06cc\u0642\u0627\u06cc \u0645\u0631\u06a9\u0632\u06cc","name:ff":"Ndenndaandi Santarafrik","name:fi":"Keski-Afrikan tasavalta","name:fo":"Mi\u00f0afrikal\u00fd\u00f0veldi\u00f0","name:fy":"de Sintraal-Afrikaanske Republyk","name:nl":"Centraal-Afrikaanse Republiek","name:nn":"Den sentralafrikanske republikken","alt_name:ru":"\u0426\u0410\u0420","name:na":"Ripubrikin Aprika Yugaga","name:ne":"\u0915\u0947\u0928\u094d\u0926\u094d\u0930\u0940\u092f \u0905\u092b\u094d\u0930\u093f\u0915\u0940 \u0917\u0923\u0924\u0928\u094d\u0924\u094d\u0930","name:wo":"R\u00e9ewum Diggu Afrig","name:nv":"Naakaii \u0141izhinii Bik\u00e9yah Be\u02bca\u0142n\u00ed\u00ed\u02bc","name:ga":"Poblacht na hAfraice L\u00e1ir","name:gd":"Poblachd Meadhan Afraga","name:gl":"Rep\u00fablica Centroafricana","name:gv":"Pobblaght yn Affrick Veanagh","name:gu":"\u0ab8\u0ac7\u0a82\u0a9f\u0acd\u0ab0\u0ab2 \u0a86\u0aab\u0acd\u0ab0\u0abf\u0a95\u0aa8 \u0ab0\u0ac0\u0aaa\u0aac\u0acd\u0ab2\u0abf\u0a95","name:tt":"\u04ae\u0437\u04d9\u043a \u0410\u0444\u0440\u0438\u043a\u0430 \u0496\u04e9\u043c\u04bb\u04af\u0440\u0438\u044f\u0442\u0435"},"coordinates":[452,2078]},{"type":"Point","properties":{"kind":"region","name":"Ouaka","name:sg":"W\u00e4k\u00e4","kind_detail":"state","source":"openstreetmap.org","min_zoom":4.0,"name:uk":"\u0423\u0430\u043a\u0430","name:ru":"\u0423\u0430\u043a\u0430","id":2222388003},"coordinates":[1248,1020]},{"type":"Point","properties":{"source":"naturalearthdata.com","kind":"locality","name":"Bambari","population":62098,"region_capital":true,"min_zoom":5.0,"id":6687},"coordinates":[1427,214]},{"type":"Point","properties":{"source":"naturalearthdata.com","kind":"locality","name":"Bria","population":29027,"region_capital":true,"min_zoom":6.0,"id":5809},"coordinates":[3343,1346]},{"type":"Point","properties":{"source":"naturalearthdata.com","kind":"locality","name":"Ouadda","population":5434,"min_zoom":7.0,"id":4362},"coordinates":[3950,3597]}]},"transit":{"type":"GeometryCollection","geometries":[]},"pois":{"type":"GeometryCollection","geometries":[]},"boundaries":{"type":"GeometryCollection","geometries":[{"type":"MultiLineString","properties":{"source":"naturalearthdata.com","kind":"region","name":"Ouaka - Nana-Gr\u00e9bizi","sort_rank":256,"kind_detail":"4","min_zoom":5.5,"id":4852},"arcs":[[0],[1],[2]]},{"type":"MultiLineString","properties":{"source":"naturalearthdata.com","kind":"region","name":"Nana-Gr\u00e9bizi - Bamingui-Bangoran","sort_rank":256,"kind_detail":"4","min_zoom":5.5,"id":4841},"arcs":[[3],[4],[5],[6],[7],[8],[9],[10],[11],[12]]},{"type":"MultiLineString","properties":{"source":"naturalearthdata.com","kind":"region","name":"Haute-Kotto - Bamingui-Bangoran","sort_rank":256,"kind_detail":"4","min_zoom":5.5,"id":4843},"arcs":[[13],[14],[15],[16],[17]]},{"type":"MultiLineString","properties":{"source":"naturalearthdata.com","kind":"region","name":"Mbomou - Haute-Kotto","sort_rank":256,"kind_detail":"4","min_zoom":5.5,"id":4846},"arcs":[[18],[19],[20],[21],[22],[23],[24],[25],[26]]},{"type":"MultiLineString","properties":{"source":"naturalearthdata.com","kind":"region","name":"Ouaka - Haute-Kotto","sort_rank":256,"kind_detail":"4","min_zoom":5.5,"id":4853},"arcs":[[27],[28],[29],[30],[31]]},{"type":"MultiLineString","properties":{"source":"naturalearthdata.com","kind":"region","name":"Ouaka - Bamingui-Bangoran","sort_rank":256,"kind_detail":"4","min_zoom":5.5,"id":4851},"arcs":[[32],[33],[34],[35],[36],[37],[38],[39],[40],[41],[42],[43],[44],[45]]},{"type":"MultiLineString","properties":{"source":"naturalearthdata.com","kind":"region","name":"Basse-Kotto - Ouaka","sort_rank":256,"kind_detail":"4","min_zoom":5.5,"id":4854},"arcs":[[46],[47],[48],[49],[50],[51],[52],[53]]},{"type":"LineString","properties":{"source":"naturalearthdata.com","kind":"region","name":"Nana-Gr\u00e9bizi - K\u00e9mo","sort_rank":256,"kind_detail":"4","min_zoom":5.5,"id":4858},"arcs":[54]},{"type":"MultiLineString","properties":{"source":"naturalearthdata.com","kind":"region","name":"Ouaka - K\u00e9mo","sort_rank":256,"kind_detail":"4","min_zoom":5.5,"id":4859},"arcs":[[55],[56],[57]]}]},"roads":{"type":"GeometryCollection","geometries":[{"type":"LineString","properties":{"source":"naturalearthdata.com","kind":"minor_road","sort_rank":355,"kind_detail":"tertiary","min_zoom":7.0,"id":38971},"arcs":[58]},{"type":"LineString","properties":{"source":"naturalearthdata.com","kind":"minor_road","sort_rank":355,"kind_detail":"tertiary","min_zoom":7.0,"id":38991},"arcs":[59]},{"type":"LineString","properties":{"source":"naturalearthdata.com","kind":"minor_road","sort_rank":355,"kind_detail":"tertiary","min_zoom":5.0,"id":39099},"arcs":[60]},{"type":"LineString","properties":{"source":"naturalearthdata.com","kind":"minor_road","sort_rank":355,"kind_detail":"tertiary","min_zoom":6.0,"id":39102},"arcs":[61]},{"type":"LineString","properties":{"source":"naturalearthdata.com","kind":"minor_road","sort_rank":355,"kind_detail":"tertiary","min_zoom":6.0,"id":39139},"arcs":[62]},{"type":"LineString","properties":{"source":"naturalearthdata.com","kind":"minor_road","sort_rank":355,"kind_detail":"tertiary","min_zoom":5.0,"id":39182},"arcs":[63]},{"type":"LineString","properties":{"source":"naturalearthdata.com","kind":"minor_road","sort_rank":355,"kind_detail":"tertiary","min_zoom":5.0,"id":39514},"arcs":[64]},{"type":"LineString","properties":{"source":"naturalearthdata.com","kind":"major_road","sort_rank":379,"kind_detail":"secondary","min_zoom":4.0,"id":39712},"arcs":[65]},{"type":"LineString","properties":{"source":"naturalearthdata.com","kind":"minor_road","sort_rank":355,"kind_detail":"tertiary","min_zoom":5.0,"id":39713},"arcs":[66]},{"type":"LineString","properties":{"source":"naturalearthdata.com","kind":"minor_road","sort_rank":355,"kind_detail":"tertiary","min_zoom":5.0,"id":39771},"arcs":[67]},{"type":"LineString","properties":{"source":"naturalearthdata.com","kind":"minor_road","sort_rank":355,"kind_detail":"tertiary","min_zoom":5.0,"id":39789},"arcs":[68]},{"type":"LineString","properties":{"source":"naturalearthdata.com","kind":"minor_road","sort_rank":355,"kind_detail":"tertiary","min_zoom":5.0,"id":39890},"arcs":[69]},{"type":"LineString","properties":{"source":"naturalearthdata.com","kind":"minor_road","sort_rank":355,"kind_detail":"tertiary","min_zoom":5.0,"id":40042},"arcs":[70]},{"type":"LineString","properties":{"source":"naturalearthdata.com","kind":"minor_road","sort_rank":355,"kind_detail":"tertiary","min_zoom":5.0,"id":40043},"arcs":[71]},{"type":"LineString","properties":{"source":"naturalearthdata.com","kind":"minor_road","sort_rank":355,"kind_detail":"tertiary","min_zoom":5.0,"id":40046},"arcs":[72]},{"type":"LineString","properties":{"source":"naturalearthdata.com","kind":"major_road","sort_rank":379,"kind_detail":"secondary","min_zoom":4.0,"id":40060},"arcs":[73]},{"type":"LineString","properties":{"source":"naturalearthdata.com","kind":"major_road","sort_rank":379,"kind_detail":"secondary","min_zoom":4.0,"id":40065},"arcs":[74]},{"type":"LineString","properties":{"source":"naturalearthdata.com","kind":"major_road","sort_rank":379,"kind_detail":"secondary","min_zoom":4.0,"id":40067},"arcs":[75]},{"type":"LineString","properties":{"source":"naturalearthdata.com","kind":"major_road","sort_rank":379,"kind_detail":"secondary","min_zoom":4.0,"id":40085},"arcs":[76]},{"type":"LineString","properties":{"source":"naturalearthdata.com","kind":"minor_road","sort_rank":355,"kind_detail":"tertiary","min_zoom":5.0,"id":40088},"arcs":[77]},{"type":"LineString","properties":{"source":"naturalearthdata.com","kind":"major_road","sort_rank":379,"kind_detail":"secondary","min_zoom":4.0,"id":40163},"arcs":[78]}]},"earth":{"type":"GeometryCollection","geometries":[{"type":"Polygon","properties":{"sort_rank":10,"source":"naturalearthdata.com","min_zoom":0.0,"kind":"earth","area":392091543542},"arcs":[[79]]}]},"landuse":{"type":"GeometryCollection","geometries":[]}},"type":"Topology","transform":{"translate":[19.6875,5.6159858192],"scale":[0.0006866455,0.000681441]},"arcs":[[[682,2174],[-11,-55],[1,-80],[-11,-48],[-41,-106],[-16,-30],[-19,-24],[-40,-34],[-18,-22],[-14,-29],[-12,-19],[-14,-13],[-16,-12],[-69,-70],[-45,-36],[-17,-18],[-72,-96],[-12,-29],[-4,-36],[26,-164],[0,-18],[-3,-10],[-3,-4],[-8,0]],[[264,1221],[-13,4],[-39,25],[-27,13],[-59,6]],[[126,1269],[-45,-7]],[[71,2775],[-8,15],[3,30],[-5,15],[-17,0],[-19,10],[-16,6]],[[9,2851],[-7,-12],[-2,0]],[[136,2663],[-26,25],[-7,91]],[[103,2779],[-32,-4]],[[240,2563],[-18,13],[-34,36],[-8,12],[-7,15],[-1,8],[-1,12],[-4,15]],[[167,2674],[-8,0],[-11,-7],[-12,-4]],[[660,2171],[-26,36],[-9,5],[-30,6],[-29,17],[-46,38],[-13,13],[-17,23],[-11,13],[-16,11],[-33,14],[-33,21],[-37,10],[-20,15],[-24,46],[-28,111],[-28,33]],[[260,2583],[-6,0],[-6,-5],[-8,-15]],[[682,2174],[-12,2]],[[670,2176],[-10,0],[0,-5]],[[3368,4096],[1,-5],[-1,-19],[-4,-13],[-49,-112],[-5,-21],[0,-16],[6,-16],[10,-12],[20,-18],[7,-10],[0,-14],[-13,-17],[-30,-13],[-43,-12],[-40,-7],[-33,0]],[[3194,3791],[-24,8],[-14,16],[-10,22],[-8,24],[-11,20],[-14,14],[-35,23],[-16,14],[-11,14],[-6,12],[-7,20],[-8,7],[-12,1]],[[3018,3986],[-27,-4],[-97,-53],[-26,-9],[-43,-7],[-10,-5],[-8,-10],[-15,-34],[-11,-14],[-12,-3]],[[2769,3847],[-16,5],[-38,15],[-16,5],[-21,2]],[[2678,3874],[-24,-3],[-28,-8],[-19,-30],[-16,-19],[-26,-21],[-55,-33],[-27,-22],[-13,-25],[8,-31],[43,-105],[1,-52],[-64,-19],[-233,-14],[-90,-15],[-31,-40],[-6,-32],[2,-27],[-2,-21],[-6,-16],[-26,-46],[-3,-18],[1,-16],[27,-65],[11,-133]],[[4096,779],[-8,-28],[-19,-32],[-13,-20],[-22,-19],[-83,-47],[-25,-10],[-19,-2]],[[3802,619],[-13,2],[-10,7],[-8,10],[-9,11],[-12,6],[-21,1]],[[3729,656],[-19,-7],[-139,-79],[-21,-18],[-16,-10],[-10,-8],[3,-11],[11,-14],[-5,-31],[-49,-56],[-10,-44],[5,-106],[-6,-52],[-11,-24],[-9,-14],[-7,-16],[-3,-31],[6,-10],[29,-36],[3,-6],[12,-44],[-27,-7]],[[3907,621],[-15,4],[-19,3]],[[3873,628],[-17,0],[-54,-9]],[[3466,32],[-30,3]],[[3436,35],[-24,-5],[-7,-30]],[[3431,3],[-2,-3]],[[3410,0],[21,3]],[[2641,2476],[-78,3],[-22,8],[-15,14],[-12,26],[-1,20],[16,156],[-2,26],[-3,20],[-4,12],[-11,22],[-14,21],[-22,26],[-34,31],[-36,24],[-32,17],[-102,22],[-30,15],[-33,25],[-42,47],[-62,52]],[[3150,7],[10,0],[17,29],[31,30],[11,16],[6,15],[8,54],[26,59],[18,81],[7,118],[-4,23],[-33,53],[-12,21],[-23,87],[-11,19],[-17,10],[-22,4],[-24,1],[-18,6],[-11,14],[-6,47],[-6,22],[-12,25],[-13,47],[-9,22],[-21,26],[-38,30],[-9,13],[0,21],[10,20],[59,87],[15,29],[10,27],[-1,33],[-31,117],[-8,74],[2,13],[16,50],[2,13],[-3,16],[-8,14],[-20,19],[-19,9],[-16,4],[-47,0],[-11,2],[-8,6],[-7,11],[-10,23],[-14,16],[-11,11],[-13,18],[-12,25],[-41,120],[-12,17],[-11,11],[-6,12],[-1,15],[4,8],[7,8],[30,19],[7,8],[3,8],[1,11],[-2,14],[-4,17],[0,9],[3,8],[5,6],[6,8],[3,9],[0,12],[-23,73],[-3,57],[-6,13],[-27,20],[-9,15],[-39,255],[4,141],[-7,19],[-15,16],[-31,13],[-21,3]],[[2685,2482],[-18,-2],[-12,-3],[-14,-1]],[[3036,88],[17,-7],[25,-17],[55,-47],[17,-10]],[[2916,0],[37,38],[53,41],[16,8],[14,1]],[[2102,3063],[-28,-26],[-7,-13],[-8,-21],[-10,-46],[-7,-13],[-10,-11],[-14,-11],[-17,-18],[-7,-18],[-1,-22],[4,-12],[22,-40],[5,-12],[1,-14],[-4,-11],[-5,-8],[-4,-4],[-54,-42],[-18,-17],[-100,-144],[-23,-26],[-60,-79],[-10,-8],[-16,-18],[-103,-47],[-12,-7],[-4,-4],[-7,0]],[[1605,2371],[-18,2],[-16,4],[-33,13],[-14,3],[-52,0]],[[1472,2393],[-17,-8],[-17,-22],[-40,-106],[-5,-24],[-15,-19],[-90,-73],[-34,-15]],[[838,2079],[-33,1],[-15,16],[-10,18],[-24,10],[-30,7],[-26,9],[-7,8],[-2,9],[0,9],[-2,5],[-7,3]],[[1254,2126],[-31,9]],[[1223,2135],[-8,0],[-14,-8],[-36,-28],[-36,-29],[-26,-9],[-10,-1]],[[964,2060],[-21,6],[-33,20]],[[910,2086],[-11,-6]],[[1013,2075],[-16,9]],[[997,2084],[-14,-7],[-12,-11],[-7,-6]],[[899,2080],[-24,2]],[[875,2082],[-37,-3]],[[1093,2060],[-10,3],[-4,7],[-3,6],[-8,4]],[[1068,2080],[-47,-2],[-8,-3]],[[2621,0],[-2,9],[-6,12],[-23,30],[-16,31],[-15,20],[-14,9],[-19,10],[-13,12],[-19,27],[-7,5]],[[2487,165],[-6,-2],[-4,-6],[-10,-20],[-7,-10],[-8,-8],[-13,-3]],[[2101,55],[-12,4],[-10,8],[-20,39],[-12,13],[-14,11],[-21,12],[-14,5],[-13,3]],[[1985,150],[-9,0],[-11,-4],[-5,-7],[-3,-9],[1,-13],[4,-12],[7,-11],[15,-18],[6,-9],[4,-8],[1,-9],[-2,-11],[-5,-12],[-7,-9],[-19,-18]],[[2439,116],[-8,3],[-19,21],[-7,4]],[[2405,144],[-8,-1],[-8,-5],[-9,-9],[-29,-35],[-11,-8],[-53,-28],[-14,-5],[-23,-3]],[[2250,50],[-17,3],[-46,23],[-11,3]],[[2176,79],[-9,-3],[-4,-3],[-8,-9],[-6,-4],[-10,-3],[-14,-2],[-24,0]],[[0,1272],[81,-10]],[[81,1262],[-6,-36],[1,-9],[3,-13],[7,-12],[11,-12],[13,-12],[15,-12],[14,-9],[47,-17],[21,-12],[32,-25],[22,-30],[6,-26],[-7,-30],[-25,-71],[-5,-31],[3,-17],[18,-29],[0,-13],[-9,-13],[-28,-27],[-8,-17],[2,-13],[13,-27],[0,-9],[-6,-8],[-8,-6],[-7,-9],[-12,-21],[-19,-28],[-20,-36],[-8,-8],[-10,-5]],[[131,619],[-13,0],[-25,6],[-9,1]],[[84,626],[-9,-1],[-9,-2],[-9,-2],[-8,-4],[-6,-4],[-4,-5],[-4,-5],[-7,-15],[-18,-21],[-10,-9]],[[1462,4091],[-12,5]],[[1462,4091],[0,-24],[18,-36],[42,-30]],[[4096,3987],[-33,-89],[-24,-49],[-60,-66],[-24,-37],[-12,-42],[0,-67],[6,-36]],[[1522,4001],[18,-31],[24,-48],[78,-36],[96,-67],[30,-18],[66,-73],[18,-12],[78,-24],[48,-24],[85,12],[54,-6],[30,0],[36,-12],[54,6],[48,0],[36,-12],[42,-25],[30,-24],[48,-12],[54,-6]],[[2495,3589],[54,-24],[48,-37],[30,-18],[36,0],[66,24],[66,7],[36,12],[73,-12],[30,6],[72,18],[36,0],[72,-18],[72,-43],[66,-24],[54,-6],[54,0],[54,6],[60,18],[54,-6],[48,6],[108,24],[30,12],[54,37],[37,12],[36,12],[54,6],[54,0]],[[3949,3601],[-6,-85],[-6,-30],[6,-48],[-6,-67],[6,-73]],[[3943,3298],[36,-48],[12,-42],[-12,-79],[6,-42],[12,-43],[18,-97],[36,-139],[18,-36],[27,-30]],[[164,1525],[19,36],[18,85],[30,30],[18,31],[18,54],[12,73],[12,36],[66,85],[12,36],[0,42],[12,109],[24,73],[60,103],[24,30],[30,30],[66,49],[108,91],[12,18],[6,36],[6,67],[0,181],[12,49],[36,84],[0,19],[-6,78],[0,37],[12,72],[42,139],[24,85],[18,36],[18,37],[54,85],[42,90],[48,85],[48,36],[181,73],[18,18],[24,55],[12,48],[18,30],[12,55],[24,30],[34,35]],[[0,1532],[98,5],[66,-12]],[[3943,3298],[-6,-36],[-30,-48],[-18,-37],[-6,-36],[-12,-48],[-18,-43],[-30,-36],[-67,-61],[-36,-30],[-120,-103],[-66,-60],[-42,-30],[-30,-31],[-48,-72],[-54,-55],[-54,-72],[-18,-13],[-66,-36],[-36,-42],[-12,-31],[-6,-54],[6,-97],[18,-103],[12,-42],[36,-115],[54,-127],[24,-61],[48,-91],[30,-72],[12,-61],[-6,-36],[-6,-36],[-12,-31],[-18,-54],[0,-42]],[[3102,1319],[60,24],[54,19],[72,12],[42,-6],[36,-12]],[[2237,974],[48,12],[78,37],[78,18],[96,18],[36,36],[30,12],[42,13],[42,30],[30,12],[42,6],[78,48],[265,103]],[[2765,284],[6,6],[18,31],[12,48],[24,30],[133,31],[114,48],[48,6],[90,-24],[36,6],[78,36],[54,6],[60,-24],[18,0]],[[2201,944],[12,-24],[108,-109],[60,-73],[42,-54],[48,-55],[30,-42],[36,-55],[18,-54],[30,-54],[54,-31],[66,-48],[60,-61]],[[1522,302],[42,7],[42,-7],[60,-24],[42,-6],[48,6],[48,6],[42,31],[30,6],[12,30],[12,6],[42,-6],[42,24],[49,12],[48,24],[30,25],[24,36],[0,30],[-30,43],[-6,90],[-12,43],[0,30],[18,54],[36,79],[42,55],[18,48]],[[1414,212],[-42,72],[-36,37],[-24,-12]],[[1312,309],[-42,18],[-30,24],[-30,-6],[-24,12],[-30,-18],[-30,-24],[-49,-6],[-96,0],[-66,0],[-120,-13],[-18,-6],[-48,-36],[-30,-18],[-30,-12],[-108,-30]],[[561,194],[-24,0],[-66,18],[-30,0]],[[441,212],[-54,-6],[-114,6],[-139,-6],[-96,12],[-12,0],[-26,15]],[[3456,484],[36,0],[84,-12],[30,-24],[48,-67],[18,-12],[30,0],[18,12],[18,-6],[115,-91],[30,-12],[60,-18],[84,-30],[36,12],[33,0]],[[1582,0],[-6,6],[-78,54],[-42,31],[-18,48],[-24,73]],[[4096,3188],[0,-3188],[-4096,0],[0,4096],[4096,0],[0,-908]]]}