{"objects":{"water":{"type":"GeometryCollection","geometries":[{"type":"MultiPolygon","properties":{"source":"naturalearthdata.com","kind":"ocean","area":1576712559132672,"sort_rank":200,"min_zoom":0.0,"id":1},"arcs":[[[2],[3]],[[4]]]},{"type":"MultiLineString","properties":{"source":"naturalearthdata.com","kind":"ocean","sort_rank":205,"boundary":true,"min_zoom":0.0,"id":75},"arcs":[[5],[6]]},{"type":"LineString","properties":{"source":"naturalearthdata.com","kind":"ocean","sort_rank":205,"boundary":true,"min_zoom":0.0,"id":302},"arcs":[7]}]},"buildings":{"type":"GeometryCollection","geometries":[]},"places":{"type":"GeometryCollection","geometries":[{"type":"Point","properties":{"source":"naturalearthdata.com","kind":"locality","name":"Salinopolis","population":40998,"min_zoom":7.0,"id":4184},"coordinates":[1376,2321]},{"type":"Point","properties":{"kind":"locality","name":"Bragan\u00e7a","kind_detail":"city","source":"openstreetmap.org","min_zoom":8.0,"name:ru":"\u0411\u0440\u0430\u0433\u0430\u043d\u0441\u0430","id":415524175,"population":113165},"coordinates":[3055,1016]},{"type":"Point","properties":{"source":"openstreetmap.org","kind":"locality","name":"Capanema","kind_detail":"town","population":63639,"min_zoom":8.0,"id":2433245828},"coordinates":[1834,619]},{"type":"Point","properties":{"source":"openstreetmap.org","kind":"locality","name":"Augusto Corr\u00eaa","kind_detail":"town","population":40499,"min_zoom":8.0,"id":268883570},"coordinates":[3415,1117]},{"type":"Point","properties":{"source":"openstreetmap.org","kind":"locality","name":"Salin\u00f3polis","kind_detail":"town","population":38552,"min_zoom":8.0,"id":292670958},"coordinates":[1364,2273]},{"type":"Point","properties":{"source":"openstreetmap.org","kind":"locality","name":"Igarap\u00e9-A\u00e7u","kind_detail":"town","population":35005,"min_zoom":8.0,"id":415524166},"coordinates":[561,809]},{"type":"Point","properties":{"source":"openstreetmap.org","kind":"locality","name":"Maracan\u00e3","kind_detail":"town","population":29269,"min_zoom":8.0,"id":415524172},"coordinates":[1045,1863]},{"type":"Point","properties":{"source":"openstreetmap.org","kind":"locality","name":"Tracuateua","kind_detail":"town","population":27466,"min_zoom":8.0,"id":257558737},"coordinates":[2649,960]},{"type":"Point","properties":{"source":"openstreetmap.org","kind":"locality","name":"Marapanim","kind_detail":"town","population":26605,"min_zoom":8.0,"id":293309466},"coordinates":[332,2018]},{"type":"Point","properties":{"source":"openstreetmap.org","kind":"locality","name":"Santa Maria do Par\u00e1","kind_detail":"town","population":23033,"min_zoom":8.0,"id":260422448},"coordinates":[682,176]},{"type":"Point","properties":{"source":"openstreetmap.org","kind":"locality","name":"S\u00e3o Jo\u00e3o de Pirabas","kind_detail":"town","population":20644,"min_zoom":8.0,"id":292707625},"coordinates":[1851,1843]},{"type":"Point","properties":{"source":"openstreetmap.org","kind":"locality","name":"Bonito","kind_detail":"town","population":13630,"min_zoom":8.0,"id":358484748},"coordinates":[1478,133]},{"type":"Point","properties":{"source":"openstreetmap.org","kind":"locality","name":"Nova Timboteua","kind_detail":"town","population":12568,"min_zoom":8.0,"id":415524165},"coordinates":[1220,585]},{"type":"Point","properties":{"source":"openstreetmap.org","kind":"locality","name":"Quatipuru","kind_detail":"town","population":12411,"min_zoom":8.0,"id":355357963},"coordinates":[2352,1489]},{"type":"Point","properties":{"source":"openstreetmap.org","kind":"locality","name":"S\u00e3o Francisco do Par\u00e1","kind_detail":"town","population":11986,"min_zoom":8.0,"id":415524164},"coordinates":[61,689]},{"type":"Point","properties":{"source":"openstreetmap.org","kind":"locality","name":"Primavera","kind_detail":"town","population":10268,"min_zoom":8.0,"id":355357932},"coordinates":[2027,1356]}]},"transit":{"type":"GeometryCollection","geometries":[]},"pois":{"type":"GeometryCollection","geometries":[{"type":"Point","properties":{"kind":"nature_reserve","tier":2,"protect_class":"6","area":427846000,"source":"openstreetmap.org","min_zoom":7.92,"operator":"Instituto Chico Mendes de Conserva\u00e7\u00e3o da Biodiversidade","id":-3426615,"osm_relation":true,"name":"Reserva Extrativista Marinha de Caet\u00e9-Tapera\u00e7u"},"coordinates":[3247,1433]},{"type":"Point","properties":{"kind":"nature_reserve","tier":2,"protect_class":"6","area":303860000,"source":"openstreetmap.org","min_zoom":8.17,"operator":"Instituto Chico Mendes de Conserva\u00e7\u00e3o da Biodiversidade","id":-3426363,"osm_relation":true,"name":"Reserva Extrativista Maracan\u00e3"},"coordinates":[928,1841]},{"type":"Point","properties":{"kind":"nature_reserve","tier":2,"protect_class":"6","area":280572000,"source":"openstreetmap.org","min_zoom":8.22,"operator":"Instituto Chico Mendes de Conserva\u00e7\u00e3o da Biodiversidade","id":255739502,"name":"Reserva Extrativista Marinha de Tracuateua"},"coordinates":[2855,1600]},{"type":"Point","properties":{"kind":"nature_reserve","tier":2,"protect_class":"5","area":313582000,"source":"openstreetmap.org","min_zoom":8.14,"operator":"Prefeitura Municipa de Augusto Corr\u00eaa","id":503632614,"name":"\u00c1rea de Prote\u00e7\u00e3o Ambiental da Costa do Urumaj\u00f3"},"coordinates":[3930,1296]}]},"boundaries":{"type":"GeometryCollection","geometries":[{"type":"LineString","properties":{"name:kg":"Brazil","name:ty":"Brazil","name:ka":"\u10d1\u10e0\u10d0\u10d6\u10d8\u10da\u10d8\u10d0","name:ko":"\ube0c\ub77c\uc9c8","name:cv":"\u0411\u0440\u0430\u0437\u0438\u043b\u0438","name:cu":"\u0411\u0440\u0430\ua641\u0457\u043b\u0457\ua657","name:kl":"Brazil","name:cs":"Braz\u00edlie","name:ki":"Brazil","name:co":"Brasile","name:kv":"\u0411\u0440\u0430\u0437\u0438\u043b\u0438\u044f","name:ku":"Braz\u00eel","name:ce":"\u0411\u0440\u0430\u0437\u0438\u043b\u0438\u044f","name:ta":"\u0baa\u0bbf\u0bb0\u0bc7\u0b9a\u0bbf\u0bb2\u0bcd","name:tg":"\u0411\u0440\u0430\u0437\u0438\u043b\u0438\u044f","name:ky":"\u0411\u0440\u0430\u0437\u0438\u043b\u0438\u044f","name:te":"\u0c2c\u0c4d\u0c30\u0c46\u0c1c\u0c3f\u0c32\u0c4d","name:da":"Brasilien","name:de":"Brasilien","name:dz":"\u0f56\u0f71\u0f62\u0f71\u0f0b\u0f5b\u0f72\u0f63\u0f0b","source":"openstreetmap.org","name:kn":"\u0cac\u0ccd\u0cb0\u0cc6\u0c9c\u0cbf\u0cb2\u0ccd","name:dv":"\u0784\u07aa\u0783\u07ac\u0792\u07a8\u078d\u07b0","name:km":"\u1794\u17d2\u179a\u17c1\u179f\u17ca\u17b8\u179b","name:lv":"Braz\u012blija","name:lt":"Brazilija","name:uz":"Braziliya","name:kk":"\u0411\u0440\u0430\u0437\u0438\u043b\u0438\u044f","name:ur":"\u0628\u0631\u0627\u0632\u06cc\u0644","name:lb":"Brasilien","name:la":"Brasilia","name:tt":"\u0411\u0440\u0430\u0437\u0438\u043b\u0438\u044f","name:uk":"\u0411\u0440\u0430\u0437\u0438\u043b\u0456\u044f","name:ug":"\u0628\u0631\u0627\u0632\u0649\u0644\u0649\u064a\u06d5","name:li":"Braziel","name:ln":"Brazil","name:el":"\u0392\u03c1\u03b1\u03b6\u03b9\u03bb\u03af\u03b1","name:eo":"Brazilo","name:en":"Brazil","name":"Brasil","name:tk":"Brazili\u00fda","name:ee":"Brazil","name:th":"\u0e1b\u0e23\u0e30\u0e40\u0e17\u0e28\u0e1a\u0e23\u0e32\u0e0b\u0e34\u0e25","name:et":"Brasiilia","name:ay":"Wrasil","name:rm":"Brasilia","name:rn":"Brazil","name:az":"Braziliya","name:ig":"Brazil","name:as":"\u09ac\u09cd\u09f0\u09be\u099c\u09bf\u09b2","name:zh-min-nan":"Pa-se","name:io":"Brazilia","name:is":"Brasil\u00eda","name:am":"\u1265\u122b\u12da\u120d","name:it":"Brasile","name:ru":"\u0411\u0440\u0430\u0437\u0438\u043b\u0438\u044f","name:rw":"Burezile","name:af":"Brasili\u00eb","name:zu":"IBrazili","kind_detail":"2","name:za":"Bahsih","name:zh-yue":"\u5df4\u897f","name:zh":"\u5df4\u897f","name:so":"Barasiil","name:sl":"Brazilija","name:sk":"Braz\u00edlia","name:ja":"\u30d6\u30e9\u30b8\u30eb","name:sh":"Brazil","name:se":"Brasilia","name:sc":"Brasile","name:br":"Brazil","name:bs":"Brazil","name:bm":"Brazil","name:bn":"\u09ac\u09cd\u09b0\u09be\u099c\u09bf\u09b2","name:bo":"\u0f54\u0f74\u0f0b\u0f62\u0f74\u0f0b\u0f5f\u0f72\u0f63\u0f0d","name:bi":"Brazil","name:sw":"Brazil","name:be":"\u0411\u0440\u0430\u0437\u0456\u043b\u0456\u044f","name:bg":"\u0411\u0440\u0430\u0437\u0438\u043b\u0438\u044f","name:ba":"\u0411\u0440\u0430\u0437\u0438\u043b\u0438\u044f","name:sq":"Brazili","name:sa":"\u092c\u094d\u0930\u093e\u0938\u0940\u0932","name:ps":"\u0628\u0631\u0627\u0632\u06cc\u0644","min_zoom":8.0,"name:ro":"Brazilia","name:pa":"\u0a2c\u0a4d\u0a30\u0a3e\u0a1c\u0a3c\u0a40\u0a32","name:os":"\u0411\u0440\u0430\u0437\u0438\u043b\u0438","name:or":"\u0b2c\u0b4d\u0b30\u0b3e\u0b1c\u0b3f\u0b32","name:pl":"Brazylia","name:st":"Brazil","sort_rank":262,"name:sr":"\u0411\u0440\u0430\u0437\u0438\u043b","osm_relation":true,"name:ar":"\u0627\u0644\u0628\u0631\u0627\u0632\u064a\u0644","name:tr":"Brezilya","name:hi":"\u092c\u094d\u0930\u093e\u091c\u093c\u0940\u0932","name:sv":"Brasilien","name:he":"\u05d1\u05e8\u05d6\u05d9\u05dc","name:hy":"\u0532\u0580\u0561\u0566\u056b\u056c\u056b\u0561","name:ht":"Brezil","name:hu":"Braz\u00edlia","name:hr":"Brazil","kind":"country","name:yi":"\u05d1\u05e8\u05d0\u05d6\u05d9\u05dc","name:mt":"Bra\u017cil","name:ms":"Brazil","name:mr":"\u092c\u094d\u0930\u093e\u091d\u0940\u0932","name:my":"\u1018\u101b\u102c\u1007\u102e\u1038\u1014\u102d\u102f\u1004\u103a\u1004\u1036","official_name":"Rep\u00fablica Federativa do Brasil","name:mg":"Brazila","name:ml":"\u0d2c\u0d4d\u0d30\u0d38\u0d40\u0d7d","name:mn":"\u0411\u0440\u0430\u0437\u0438\u043b","name:mi":"Par\u012bhi","id":-59470,"name:mk":"\u0411\u0440\u0430\u0437\u0438\u043b","name:vo":"Brasil\u00e4n","name:fa":"\u0628\u0631\u0632\u06cc\u0644","name:fi":"Brasilia","old_name:vi":"Ba T\u00e2y","alt_name:vi":"Brazil;Bra-xin","name:fr":"Br\u00e9sil","name:fy":"Brazylje","name:nl":"Brazili\u00eb","name:na":"Bradir","name:ne":"\u092c\u094d\u0930\u093e\u091c\u093f\u0932","name:wa":"Braezi","name:wo":"Breesil","name:nv":"Bwaz\u00ed\u00edl","name:ga":"An Bhrasa\u00edl","name:gd":"Braisil","name:gn":"Pindorama","maritime_boundary":true,"name:gv":"Yn Vrasseel","name:gu":"\u0aac\u0acd\u0ab0\u0abe\u0a9d\u0abf\u0ab2"},"arcs":[0]},{"type":"LineString","properties":{"name:ka":"\u10de\u10d0\u10e0\u10d0","name:mr":"\u092a\u093e\u0930\u093e","name:ko":"\ud30c\ub77c","name:ar":"\u0628\u0627\u0631\u0627","name:gn":"Para","name:th":"\u0e1b\u0e32\u0e23\u0e32","name:os":"\u041f\u0430\u0440\u0430","name:ru":"\u041f\u0430\u0440\u0430","name:tg":"\u041f\u0430\u0440\u0430","name:mk":"\u041f\u0430\u0440\u0430","name:fa":"\u067e\u0627\u0631\u0627","short_name":"PA","sort_rank":256,"kind_detail":"4","name:uz":"Para","id":-185579,"source":"openstreetmap.org","name:zh":"\u5e15\u62c9","name:lv":"Para","name:ja":"\u30d1\u30e9\u30fc","name:lt":"Para","name:sh":"Para","name:he":"\u05e4\u05d0\u05e8\u05d4","name:eo":"Parao","name:la":"Para","name:uk":"\u041f\u0430\u0440\u0430","name:hy":"\u054a\u0561\u0580\u0561","name:be":"\u041f\u0430\u0440\u0430","name:bg":"\u041f\u0430\u0440\u0430","name:sr":"\u041f\u0430\u0440\u0430","osm_relation":true,"kind":"region","name":"Par\u00e1","min_zoom":8.0,"maritime_boundary":true},"arcs":[1]}]},"roads":{"type":"GeometryCollection","geometries":[{"type":"LineString","properties":{"kind":"major_road","network":"BR","sort_rank":380,"kind_detail":"primary","source":"openstreetmap.org","min_zoom":8.0,"shield_text":"010","ref":"BR-316;BR-010"},"arcs":[8]},{"type":"LineString","properties":{"source":"openstreetmap.org","kind":"major_road","sort_rank":380,"kind_detail":"primary","ref":"PA-318","min_zoom":8.0,"id":363407850},"arcs":[9]},{"type":"LineString","properties":{"kind":"major_road","network":"BR","sort_rank":380,"kind_detail":"primary","source":"openstreetmap.org","min_zoom":8.0,"shield_text":"010","ref":"BR-010"},"arcs":[10]},{"type":"LineString","properties":{"kind":"major_road","network":"BR","sort_rank":380,"kind_detail":"primary","source":"openstreetmap.org","min_zoom":8.0,"shield_text":"308","ref":"BR-316"},"arcs":[11]},{"type":"LineString","properties":{"source":"openstreetmap.org","kind":"major_road","sort_rank":380,"kind_detail":"primary","ref":"PA-320","min_zoom":8.0},"arcs":[12]},{"type":"LineString","properties":{"source":"openstreetmap.org","kind":"major_road","sort_rank":380,"kind_detail":"primary","ref":"PA-242","min_zoom":8.0,"id":31484269},"arcs":[13]},{"type":"LineString","properties":{"kind":"major_road","network":"BR","sort_rank":380,"kind_detail":"primary","source":"openstreetmap.org","min_zoom":8.0,"shield_text":"316","ref":"BR-316"},"arcs":[14]},{"type":"LineString","properties":{"source":"openstreetmap.org","kind":"major_road","sort_rank":380,"kind_detail":"primary","ref":"PA-242;PA-320","min_zoom":8.0},"arcs":[15]},{"type":"LineString","properties":{"source":"openstreetmap.org","kind":"major_road","network":"BR","sort_rank":380,"kind_detail":"primary","min_zoom":8.0,"shield_text":"308"},"arcs":[16]},{"type":"LineString","properties":{"kind":"major_road","network":"BR:PA","sort_rank":380,"kind_detail":"primary","source":"openstreetmap.org","min_zoom":8.0,"shield_text":"124","ref":"BR-316","id":488885005},"arcs":[17]},{"type":"LineString","properties":{"source":"openstreetmap.org","kind":"major_road","sort_rank":380,"kind_detail":"primary","ref":"BR-316","min_zoom":8.0},"arcs":[18]},{"type":"MultiLineString","properties":{"kind":"major_road","network":"BR","sort_rank":380,"kind_detail":"primary","source":"openstreetmap.org","min_zoom":8.0,"shield_text":"010","ref":"BR-316"},"arcs":[[19],[20]]},{"type":"MultiLineString","properties":{"kind":"major_road","network":"BR","sort_rank":380,"kind_detail":"primary","source":"openstreetmap.org","min_zoom":8.0,"shield_text":"308","ref":"BR-308"},"arcs":[[21],[22]]},{"type":"LineString","properties":{"kind":"major_road","network":"BR","sort_rank":380,"kind_detail":"primary","source":"openstreetmap.org","min_zoom":8.0,"shield_text":"010","ref":"BR-316;PA-127"},"arcs":[23]},{"type":"LineString","properties":{"source":"openstreetmap.org","kind":"major_road","network":"BR","sort_rank":380,"kind_detail":"primary","min_zoom":8.0,"shield_text":"010"},"arcs":[24]}]},"earth":{"type":"GeometryCollection","geometries":[{"type":"MultiPolygon","properties":{"sort_rank":10,"source":"naturalearthdata.com","min_zoom":0.0,"kind":"earth","area":62448168307},"arcs":[[[25]],[[26]]]}]},"landuse":{"type":"GeometryCollection","geometries":[{"type":"Polygon","properties":{"kind":"nature_reserve","protect_class":"5","area":313582016,"sort_rank":23,"operator":"Prefeitura Municipa de Augusto Corr\u00eaa","source":"openstreetmap.org","min_zoom":6.0,"tier":2,"id":503632614},"arcs":[[27]]},{"type":"MultiPolygon","properties":{"kind":"nature_reserve","protect_class":"6","area":1534783901,"sort_rank":23,"operator":"Instituto Chico Mendes de Conserva\u00e7\u00e3o da Biodiversidade","source":"openstreetmap.org","min_zoom":6.0,"tier":2,"osm_relation":true},"arcs":[[[28],[29]],[[30],[31],[32],[33],[34],[35],[36]],[[37]],[[38],[39],[40],[41],[42],[43],[44]]]},{"type":"Polygon","properties":{"kind":"nature_reserve","protect_class":"6","area":28026400,"sort_rank":23,"operator":"Instituto Chico Mendes de Conserva\u00e7\u00e3o da Biodiversidade","source":"openstreetmap.org","min_zoom":8.0,"tier":2,"id":255739496},"arcs":[[45]]},{"type":"Polygon","properties":{"source":"naturalearthdata.com","kind":"urban_area","name":"","area":3612106,"sort_rank":11,"min_zoom":4.0,"id":5353},"arcs":[[46]]},{"type":"MultiPolygon","properties":{"kind":"nature_reserve","protect_class":"6","area":116315000,"sort_rank":23,"operator":"Instituto Chico Mendes de Conserva\u00e7\u00e3o da Biodiversidade","source":"openstreetmap.org","min_zoom":7.0,"tier":2,"id":255739501},"arcs":[[[47]],[[48]]]},{"type":"Polygon","properties":{"kind":"nature_reserve","protect_class":"6","area":280572000,"sort_rank":23,"operator":"Instituto Chico Mendes de Conserva\u00e7\u00e3o da Biodiversidade","source":"openstreetmap.org","min_zoom":6.0,"tier":2,"id":255739502},"arcs":[[49]]}]}},"type":"Topology","transform":{"translate":[-47.8125,-1.4061088354],"scale":[0.0003433228,0.0003432883]},"arcs":[[[4096,2260],[-2577,687],[-1519,596]],[[4096,2249],[-2577,698],[-1519,596]],[[4096,4096],[0,-3026],[-1,-1],[-21,9],[-33,21],[-31,14],[-13,-12],[-11,-28],[-27,-17],[-33,-7],[-30,2],[36,40],[-12,25],[-39,2],[13,45],[12,61],[-50,29],[-2,33],[36,35],[11,47],[-21,50],[57,37],[66,12],[49,23],[15,40],[-33,36],[-57,-12],[-54,-12],[-28,-21],[-36,14],[-45,-14],[-45,-49],[-80,-38],[-45,-42],[-9,-66],[-50,-57],[-68,41],[-61,-17],[-81,-14],[-68,4],[-11,6],[-57,-18],[-59,-41],[-51,-52],[-32,-49],[6,57],[28,43],[41,33],[120,76],[27,30],[16,41],[22,0],[10,-49],[30,-18],[40,6],[39,23],[23,33],[7,38],[-8,21],[-22,-14],[-21,0],[11,31],[70,90],[-45,157],[-70,33],[-52,0],[-3,-35],[63,-115],[7,-29],[-30,-11],[-40,9],[-9,24],[-2,32],[-20,34],[-62,22],[-26,-53],[-4,-72],[4,-36],[-34,-26],[-70,-120],[-46,-35],[89,141],[12,49],[-15,38],[-74,103],[-30,29],[-1,-90],[-11,-33],[-30,-16],[0,59],[-20,0],[-28,-46],[9,-34],[13,-33],[-12,-45],[-8,21],[-32,56],[-9,28],[1,8],[5,5],[21,162],[-18,0],[-7,-35],[-16,-24],[-25,-13],[-33,-10],[14,30],[5,25],[-10,19],[-29,8],[0,18],[32,9],[20,14],[4,18],[-18,18],[0,22],[20,1],[43,17],[-28,27],[-14,26],[9,19],[33,9],[-14,33],[-23,25],[-29,16],[-35,6],[38,-20],[0,-20],[-43,-20],[-75,-104],[-41,-37],[27,-8],[22,-12],[18,-17],[12,-22],[-26,-5],[-13,-6],[-8,-10],[-10,-19],[-22,0],[-3,28],[-11,21],[-19,17],[-25,14],[4,-143],[-4,-37],[-22,22],[-1,-52],[-32,-8],[-66,18],[-43,-23],[-8,-29],[9,-38],[4,-48],[-51,23],[-10,40],[15,42],[24,33],[32,17],[40,15],[23,24],[-17,44],[-9,-7],[-6,-3],[-23,-10],[10,17],[18,45],[10,18],[-56,0],[13,25],[1,23],[-11,18],[-25,15],[-20,-41],[-21,0],[35,145],[0,73],[-35,42],[-24,-101],[-22,-54],[-23,-24],[-46,0],[-20,-8],[-4,-29],[1,-62],[-28,10],[-12,8],[-17,-19],[-19,-26],[-16,-30],[-9,-25],[-9,-108],[-9,-31],[-16,33],[-40,56],[-6,30],[15,32],[56,36],[31,34],[-48,5],[-14,37],[-4,50],[-16,46],[-20,-39],[-18,20],[15,42],[-1,77],[24,20],[-3,14],[-3,2],[-5,-1],[-9,5],[14,27],[2,33],[-13,28],[-31,11],[-32,-11],[-11,-27],[-8,-61],[-13,-20],[-23,-30],[-4,-20],[4,-31],[7,-17],[1,-16],[-12,-25],[-4,16],[-12,20],[-4,22],[-39,-32],[3,-53],[11,-61],[-15,-53],[-9,37],[-15,35],[-22,29],[-33,20],[-19,-20],[-27,-16],[-23,-2],[-11,27],[11,14],[50,23],[19,13],[25,44],[12,45],[-2,46],[-17,47],[-20,-17],[-12,-14],[-6,-20],[0,-31],[-49,20],[-51,10],[-41,-9],[-20,-41],[-20,0],[-38,40],[0,20],[31,9],[23,16],[15,22],[9,31],[20,0],[20,-37],[25,14],[16,38],[-10,36],[-131,91],[15,-45],[10,-45],[-13,-39],[-50,-33],[19,45],[-4,39],[-21,18],[-33,-21],[-20,0],[-8,46],[5,53],[-5,43],[-44,19],[-34,-15],[-32,-28],[-35,-17],[-48,18],[15,-38],[22,-26],[18,-29],[5,-46],[-63,52],[-38,18],[-40,-9],[-23,-33],[2,-39],[18,-34],[24,-16],[0,-16],[-36,5],[-22,20],[-13,33],[-8,39],[-27,-13],[-15,-22],[-4,-29],[4,-33],[-21,59],[13,96],[-12,42],[13,12],[15,29],[14,20],[-42,34],[-46,3],[-48,-15],[-45,-22],[40,-42],[-47,-5],[-17,-37],[4,-317],[25,17],[16,24],[11,27],[8,33],[28,-22],[71,-98],[62,-29],[3,-27],[8,-19],[12,-13],[17,-11],[-21,-26],[-13,-28],[-6,-32],[0,-35],[-39,32],[-7,89],[-45,18],[-211,0],[26,56],[1,51],[-17,47],[-46,72],[-30,33],[-14,20],[-10,34],[-5,33],[-15,26],[-25,30],[13,47],[-60,57],[-42,24],[-32,14],[-8,-104],[27,-63],[-30,-18],[-26,-104],[-39,-48],[-47,-39],[-76,-49],[-221,-95],[-22,-2],[-21,32],[24,32],[37,32],[20,33],[-2,132],[-26,69],[-63,29],[-68,-9],[2,51],[-16,59],[-43,49],[-56,51],[-10,-24],[0,1670],[4096,0]],[[196,2457],[-31,-11],[-16,-27],[30,-91],[-1,-45],[104,-41],[33,-112],[16,-55],[-8,-46],[46,8],[80,-3],[33,15],[10,28],[5,51],[-3,51],[-12,29],[23,59],[-5,56],[-24,50],[-33,36],[-79,-16],[-47,20],[-9,52],[-25,37],[-56,16],[-26,-16],[-5,-45]],[[0,2135],[15,-12],[14,-38],[-29,16],[0,34]],[[0,2101],[29,-16],[-14,38],[-15,12]],[[0,2426],[10,24],[56,-51],[43,-49],[16,-59],[-2,-51],[68,9],[63,-29],[26,-69],[2,-132],[-20,-33],[-37,-32],[-24,-32],[21,-32],[22,2],[221,95],[76,49],[47,39],[39,48],[26,104],[30,18],[-27,63],[8,104],[32,-14],[42,-24],[60,-57],[-13,-47],[25,-30],[15,-26],[5,-33],[10,-34],[14,-20],[30,-33],[46,-72],[17,-47],[-1,-51],[-26,-56],[211,0],[45,-18],[7,-89],[39,-32],[0,35],[6,32],[13,28],[21,26],[-17,11],[-12,13],[-8,19],[-3,27],[-62,29],[-71,98],[-28,22],[-8,-33],[-11,-27],[-16,-24],[-25,-17],[-4,317],[17,37],[47,5],[-40,42],[45,22],[48,15],[46,-3],[42,-34],[-14,-20],[-15,-29],[-13,-12],[12,-42],[-13,-96],[21,-59],[-4,33],[4,29],[15,22],[27,13],[8,-39],[13,-33],[22,-20],[36,-5],[0,16],[-24,16],[-18,34],[-2,39],[23,33],[40,9],[38,-18],[63,-52],[-5,46],[-18,29],[-22,26],[-15,38],[48,-18],[35,17],[32,28],[34,15],[44,-19],[5,-43],[-5,-53],[8,-46],[20,0],[33,21],[21,-18],[4,-39],[-19,-45],[50,33],[13,39],[-10,45],[-15,45],[131,-91],[10,-36],[-16,-38],[-25,-14],[-20,37],[-20,0],[-9,-31],[-15,-22],[-23,-16],[-31,-9],[0,-20],[38,-40],[20,0],[20,41],[41,9],[51,-10],[49,-20],[0,31],[6,20],[12,14],[20,17],[17,-47],[2,-46],[-12,-45],[-25,-44],[-19,-13],[-50,-23],[-11,-14],[11,-27],[23,2],[27,16],[19,20],[33,-20],[22,-29],[15,-35],[9,-37],[15,53],[-11,61],[-3,53],[39,32],[4,-22],[12,-20],[4,-16],[12,25],[-1,16],[-7,17],[-4,31],[4,20],[23,30],[13,20],[8,61],[11,27],[32,11],[31,-11],[13,-28],[-2,-33],[-14,-27],[9,-5],[5,1],[3,-2],[3,-14],[-24,-20],[1,-77],[-15,-42],[18,-20],[20,39],[16,-46],[4,-50],[14,-37],[48,-5],[-31,-34],[-56,-36],[-15,-32],[6,-30],[40,-56],[16,-33],[9,31],[9,108],[9,25],[16,30],[19,26],[17,19],[12,-8],[28,-10],[-1,62],[4,29],[20,8],[46,0],[23,24],[22,54],[24,101],[35,-42],[0,-73],[-35,-145],[21,0],[20,41],[25,-15],[11,-18],[-1,-23],[-13,-25],[56,0],[-10,-18],[-18,-45],[-10,-17],[23,10],[6,3],[9,7],[17,-44],[-23,-24],[-40,-15],[-32,-17],[-24,-33],[-15,-42],[10,-40],[51,-23],[-4,48],[-9,38],[8,29],[43,23],[66,-18],[32,8],[1,52],[22,-22],[4,37],[-4,143],[25,-14],[19,-17],[11,-21],[3,-28],[22,0],[10,19],[8,10],[13,6],[26,5],[-12,22],[-18,17],[-22,12],[-27,8],[41,37],[75,104],[43,20],[0,20],[-38,20],[35,-6],[29,-16],[23,-25],[14,-33],[-33,-9],[-9,-19],[14,-26],[28,-27],[-43,-17],[-20,-1],[0,-22],[18,-18],[-4,-18],[-20,-14],[-32,-9],[0,-18],[29,-8],[10,-19],[-5,-25],[-14,-30],[33,10],[25,13],[16,24],[7,35],[18,0],[-21,-162],[-5,-5],[-1,-8],[9,-28],[32,-56],[8,-21],[12,45],[-13,33],[-9,34],[28,46],[20,0],[0,-59],[30,16],[11,33],[1,90],[30,-29],[74,-103],[15,-38],[-12,-49],[-89,-141],[46,35],[70,120],[34,26],[-4,36],[4,72],[26,53],[62,-22],[20,-34],[2,-32],[9,-24],[40,-9],[30,11],[-7,29],[-63,115],[3,35],[52,0],[70,-33],[45,-157],[-70,-90],[-11,-31],[21,0],[22,14],[8,-21],[-7,-38],[-23,-33],[-39,-23],[-40,-6],[-30,18],[-10,49],[-22,0],[-16,-41],[-27,-30],[-120,-76],[-41,-33],[-28,-43],[-6,-57],[32,49],[51,52],[59,41],[57,18],[11,-6],[68,-4],[81,14],[61,17],[68,-41],[50,57],[9,66],[45,42],[80,38],[45,49],[45,14],[36,-14],[28,21],[54,12],[57,12],[33,-36],[-15,-40],[-49,-23],[-66,-12],[-57,-37],[21,-50],[-11,-47],[-36,-35],[2,-33],[50,-29],[-12,-61],[-13,-45],[39,-2],[12,-25],[-36,-40],[30,-2],[33,7],[27,17],[11,28],[13,12],[31,-14],[33,-21],[21,-9],[1,1]],[[443,2409],[-79,-16],[-47,20],[-9,52],[-25,37],[-56,16],[-26,-16],[-5,-45],[-31,-11],[-16,-27],[30,-91],[-1,-45],[104,-41],[33,-112],[16,-55],[-8,-46],[46,8],[80,-3],[33,15],[10,28],[5,51],[-3,51],[-12,29],[23,59],[-5,56],[-24,50],[-33,36]],[[674,195],[-6,2]],[[370,2132],[-52,-112],[-160,11],[-94,-161],[-64,-43]],[[738,0],[-60,189]],[[1815,558],[-312,-187],[-166,-24],[-128,-67],[-86,-15],[-91,22],[-153,-26],[-97,-63],[-108,-3]],[[0,646],[262,231],[84,-51],[174,-14]],[[606,805],[73,1],[91,47],[89,-38],[11,-72],[58,-8]],[[1823,563],[517,-563]],[[520,812],[86,-7]],[[2993,998],[1,1],[-1,1],[0,-2]],[[1826,564],[-3,-1]],[[1833,564],[-7,0]],[[0,310],[106,-14]],[[243,271],[425,-74]],[[1823,563],[-8,-5]],[[2988,998],[-343,-66],[-155,-179],[-75,-31],[-70,-74],[-292,-79],[-223,-2]],[[106,296],[137,-25]],[[668,197],[10,-8]],[[4096,1070],[0,-1070],[-4096,0],[0,2101],[29,-16],[-14,38],[-15,12],[0,291],[10,24],[56,-51],[43,-49],[16,-59],[-2,-51],[68,9],[63,-29],[26,-69],[2,-132],[-20,-33],[-37,-32],[-24,-32],[21,-32],[22,2],[221,95],[76,49],[47,39],[39,48],[26,104],[30,18],[-27,63],[8,104],[32,-14],[42,-24],[60,-57],[-13,-47],[25,-30],[15,-26],[5,-33],[10,-34],[14,-20],[30,-33],[46,-72],[17,-47],[-1,-51],[-26,-56],[211,0],[45,-18],[7,-89],[39,-32],[0,35],[6,32],[13,28],[21,26],[-17,11],[-12,13],[-8,19],[-3,27],[-62,29],[-71,98],[-28,22],[-8,-33],[-11,-27],[-16,-24],[-25,-17],[-4,317],[17,37],[47,5],[-40,42],[45,22],[48,15],[46,-3],[42,-34],[-14,-20],[-15,-29],[-13,-12],[12,-42],[-13,-96],[21,-59],[-4,33],[4,29],[15,22],[27,13],[8,-39],[13,-33],[22,-20],[36,-5],[0,16],[-24,16],[-18,34],[-2,39],[23,33],[40,9],[38,-18],[63,-52],[-5,46],[-18,29],[-22,26],[-15,38],[48,-18],[35,17],[32,28],[34,15],[44,-19],[5,-43],[-5,-53],[8,-46],[20,0],[33,21],[21,-18],[4,-39],[-19,-45],[50,33],[13,39],[-10,45],[-15,45],[131,-91],[10,-36],[-16,-38],[-25,-14],[-20,37],[-20,0],[-9,-31],[-15,-22],[-23,-16],[-31,-9],[0,-20],[38,-40],[20,0],[20,41],[41,9],[51,-10],[49,-20],[0,31],[6,20],[12,14],[20,17],[17,-47],[2,-46],[-12,-45],[-25,-44],[-19,-13],[-50,-23],[-11,-14],[11,-27],[23,2],[27,16],[19,20],[33,-20],[22,-29],[15,-35],[9,-37],[15,53],[-11,61],[-3,53],[39,32],[4,-22],[12,-20],[4,-16],[12,25],[-1,16],[-7,17],[-4,31],[4,20],[23,30],[13,20],[8,61],[11,27],[32,11],[31,-11],[13,-28],[-2,-33],[-14,-27],[9,-5],[5,1],[3,-2],[3,-14],[-24,-20],[1,-77],[-15,-42],[18,-20],[20,39],[16,-46],[4,-50],[14,-37],[48,-5],[-31,-34],[-56,-36],[-15,-32],[6,-30],[40,-56],[16,-33],[9,31],[9,108],[9,25],[16,30],[19,26],[17,19],[12,-8],[28,-10],[-1,62],[4,29],[20,8],[46,0],[23,24],[22,54],[24,101],[35,-42],[0,-73],[-35,-145],[21,0],[20,41],[25,-15],[11,-18],[-1,-23],[-13,-25],[56,0],[-10,-18],[-18,-45],[-10,-17],[23,10],[6,3],[9,7],[17,-44],[-23,-24],[-40,-15],[-32,-17],[-24,-33],[-15,-42],[10,-40],[51,-23],[-4,48],[-9,38],[8,29],[43,23],[66,-18],[32,8],[1,52],[22,-22],[4,37],[-4,143],[25,-14],[19,-17],[11,-21],[3,-28],[22,0],[10,19],[8,10],[13,6],[26,5],[-12,22],[-18,17],[-22,12],[-27,8],[41,37],[75,104],[43,20],[0,20],[-38,20],[35,-6],[29,-16],[23,-25],[14,-33],[-33,-9],[-9,-19],[14,-26],[28,-27],[-43,-17],[-20,-1],[0,-22],[18,-18],[-4,-18],[-20,-14],[-32,-9],[0,-18],[29,-8],[10,-19],[-5,-25],[-14,-30],[33,10],[25,13],[16,24],[7,35],[18,0],[-21,-162],[-5,-5],[-1,-8],[9,-28],[32,-56],[8,-21],[12,45],[-13,33],[-9,34],[28,46],[20,0],[0,-59],[30,16],[11,33],[1,90],[30,-29],[74,-103],[15,-38],[-12,-49],[-89,-141],[46,35],[70,120],[34,26],[-4,36],[4,72],[26,53],[62,-22],[20,-34],[2,-32],[9,-24],[40,-9],[30,11],[-7,29],[-63,115],[3,35],[52,0],[70,-33],[45,-157],[-70,-90],[-11,-31],[21,0],[22,14],[8,-21],[-7,-38],[-23,-33],[-39,-23],[-40,-6],[-30,18],[-10,49],[-22,0],[-16,-41],[-27,-30],[-120,-76],[-41,-33],[-28,-43],[-6,-57],[32,49],[51,52],[59,41],[57,18],[11,-6],[68,-4],[81,14],[61,17],[68,-41],[50,57],[9,66],[45,42],[80,38],[45,49],[45,14],[36,-14],[28,21],[54,12],[57,12],[33,-36],[-15,-40],[-49,-23],[-66,-12],[-57,-37],[21,-50],[-11,-47],[-36,-35],[2,-33],[50,-29],[-12,-61],[-13,-45],[39,-2],[12,-25],[-36,-40],[30,-2],[33,7],[27,17],[11,28],[13,12],[31,-14],[33,-21],[21,-9],[1,1]],[[317,2413],[47,-20],[79,16],[33,-36],[24,-50],[5,-56],[-23,-59],[12,-29],[3,-51],[-5,-51],[-10,-28],[-33,-15],[-80,3],[-46,-8],[8,46],[-16,55],[-33,112],[-104,41],[1,45],[-30,91],[16,27],[31,11],[5,45],[26,16],[56,-16],[25,-37],[9,-52]],[[3722,1666],[330,0],[44,-53],[0,-366],[-89,-107],[-284,23],[-1,503]],[[2877,1342],[52,49],[-28,115],[39,48],[27,139],[31,-9],[5,89],[30,36],[74,-11],[60,-122],[88,33],[11,100],[77,29],[145,-36],[79,-104],[27,-65],[-9,-48],[-108,-130],[36,-83],[-130,-96],[-112,24],[-109,-45],[3,-50],[-37,-68],[-44,17],[-9,-17],[5,-110],[-21,68],[-35,15],[22,13],[-15,23],[32,-8],[-16,22],[37,17],[-30,0],[76,46],[-32,58],[-27,-3],[7,38],[-25,-20],[-69,14],[84,50],[9,34],[-59,29],[-17,-17],[-17,45],[-15,-77],[-51,-17],[35,-66],[-34,16],[4,-11],[-8,-15],[-38,61]],[[3469,1706],[33,-19],[-5,-30],[38,-9],[-45,80],[-21,-22]],[[556,2116],[59,137],[323,-22],[-25,73],[56,114],[127,20],[86,-37],[14,-130],[-67,-39],[-5,-34],[17,-99],[49,-64],[-68,70],[-3,70],[-64,-3],[9,35],[50,12],[28,61],[-33,-9],[3,31],[-27,-7],[-3,33],[-5,-56],[-20,41],[-68,-29],[47,-10],[-27,-19],[54,-29],[-50,-25],[-26,44],[-11,-64],[49,-2],[-26,-21],[24,-1],[-1,-32],[21,27],[24,-11],[-62,-33],[12,-41],[77,56],[-17,-36],[30,-3],[2,-25],[-48,-37],[21,-13],[15,24],[-6,-30],[35,-6],[-19,-8],[14,-73],[75,-43],[-1,-135],[79,-46],[-13,-21],[-53,14],[-12,-55],[13,-27],[49,-9],[0,-32],[-122,-87],[43,-18],[-12,-32],[29,-49],[-55,-10],[3,-30],[75,-33],[-13,-25],[-31,5],[-13,-36],[-12,-2],[17,54],[-26,-2],[-20,85],[19,31],[-59,54],[51,19],[-3,30],[65,83],[-17,127],[-50,-10],[32,62],[-24,56],[-21,7],[4,-22],[-7,-9],[-17,47],[-22,-27],[1,32],[-33,17],[-24,-7],[26,-46],[-44,43],[2,-55],[-31,27],[-38,-81],[24,12],[12,-23],[-31,0],[5,-30],[-26,-18],[8,-126],[-21,-25],[26,-18],[-31,-10],[-16,-45],[22,-43],[-22,-65],[-43,139],[27,3],[-12,32],[39,61],[-48,53],[33,12],[-19,48],[33,20],[-4,30],[-30,5],[49,56],[-38,11],[22,13],[-31,24],[30,12],[30,-24],[-9,25],[50,50],[-48,2],[5,27],[36,-7],[-42,45],[3,-26],[-13,6],[-28,-36],[-13,1],[31,42],[-49,6],[60,30],[-21,-5],[14,19],[-22,11],[-31,-23],[19,30],[-23,0],[-6,31],[52,-30],[-6,37],[-51,45],[-25,-75],[-6,64],[-25,-4],[21,32],[20,-11],[13,47],[-40,-3],[20,19],[-17,22],[-17,-64],[-1,68],[-28,0],[-4,-36],[-14,25],[-15,4],[-4,-53],[44,-26],[-51,4],[-14,25],[-14,-50],[-23,17],[-6,-35],[-10,19],[-27,-16],[17,-45],[14,35],[11,-26],[23,42],[25,-10],[5,-59],[29,52],[1,-44],[39,23],[-13,-34],[23,-22],[-24,10],[2,-42],[-17,49],[-53,-14],[37,-29],[-31,14],[-1,-16],[-21,32],[-11,0],[18,-47],[35,-11],[-38,-8],[16,-47],[34,11],[16,-28],[-28,10],[-11,-25],[-28,21],[8,-35],[-27,16],[31,-54],[20,9],[-7,-52],[-32,74],[-46,12],[50,33],[-43,65],[27,48],[-92,61],[-6,30]],[[1031,2379],[30,-37],[35,7],[49,-57],[-43,95],[-71,-8]],[[618,2157],[28,9],[1,30],[-14,-9],[-15,-30]],[[664,2078],[4,-3],[8,7],[-9,3],[-3,-7]],[[645,2071],[9,1],[-1,7],[-1,1],[-7,-9]],[[661,2187],[2,-5],[10,5],[-9,1],[-3,-1]],[[670,2061],[9,-3],[1,4],[-3,2],[-7,-3]],[[0,1892],[31,4],[20,-28],[-40,4],[-11,20]],[[0,2533],[94,-26],[41,-130],[14,-145],[-27,-77],[48,-29],[-42,17],[-13,-30],[5,47],[-25,19],[-20,-38],[-20,4],[-3,-28],[31,-10],[-47,4],[120,-65],[-30,-35],[-31,44],[-24,2],[2,-33],[-14,-2],[-7,47],[-52,-6],[0,146],[42,-41],[47,53],[-23,5],[15,39],[-22,-19],[-20,21],[8,-50],[-47,13],[0,303]],[[103,2195],[14,-19],[9,3],[-2,23],[-21,-7]],[[1,2149],[6,-11],[10,2],[-6,13],[-10,-4]],[[98,2234],[7,-8],[0,17],[-3,-1],[-4,-8]],[[109,2259],[7,-6],[2,11],[-3,1],[-6,-6]],[[15,2277],[5,-3],[6,7],[-6,0],[-5,-4]],[[3,2108],[3,-5],[3,6],[-5,2],[-1,-3]],[[1136,1469],[126,102],[-4,23],[-60,18],[10,73],[80,-40],[28,-49],[31,15],[-12,-36],[-66,5],[-18,-56],[-42,-13],[-10,-182],[46,-22],[-27,-20],[2,-35],[-60,1],[61,44],[-71,27],[-9,42],[55,10],[-29,49],[12,32],[-43,12]],[[1314,2216],[-46,16],[52,26],[43,-23],[-49,-19]],[[3974,850],[19,70],[55,74],[-8,34],[41,-11],[15,18],[0,-70],[-14,8],[-23,-75],[-59,22],[3,-57],[-29,-13]],[[4096,1070],[-8,52],[-57,47],[65,79],[0,-178]],[[2342,1427],[17,50],[55,-7],[34,81],[122,40],[24,155],[61,26],[-4,89],[73,102],[77,29],[66,-33],[54,-97],[-2,-142],[49,-26],[-28,-140],[-42,-62],[31,-101],[-49,-25],[-1,-32],[-32,2],[1,23],[52,46],[-86,56],[33,80],[-67,-44],[10,60],[-39,28],[18,39],[-25,-8],[-18,31],[1,-26],[-28,-6],[1,-131],[-44,-5],[-26,-43],[-80,27],[-7,32],[-44,-17],[30,-30],[-6,-83],[51,-64],[-165,35],[-41,-127],[-19,100],[36,23],[-43,95]]]}