{"objects":{"water":{"type":"GeometryCollection","geometries":[{"type":"MultiPolygon","properties":{"source":"naturalearthdata.com","kind":"ocean","area":1576712559132672,"sort_rank":200,"min_zoom":0.0,"id":1},"arcs":[[[2]],[[3]]]},{"type":"MultiLineString","properties":{"source":"naturalearthdata.com","kind":"ocean","sort_rank":205,"boundary":true,"min_zoom":0.0,"id":76},"arcs":[[4],[5]]}]},"buildings":{"type":"GeometryCollection","geometries":[]},"places":{"type":"GeometryCollection","geometries":[{"type":"Point","properties":{"source":"naturalearthdata.com","kind":"locality","name":"Kourou","population":24029,"min_zoom":6.0,"id":5901},"coordinates":[2294,2763]},{"type":"Point","properties":{"source":"naturalearthdata.com","kind":"locality","name":"Iracoubo","population":1536,"min_zoom":7.0,"id":3828},"coordinates":[634,3700]},{"type":"Point","properties":{"name:pt":"Caiena","name:ka":"\u10d9\u10d0\u10d8\u10d4\u10dc\u10d0","name:mr":"\u0915\u093e\u092f\u0947\u0928","name:ko":"\uce74\uc60c","name:kn":"\u0c95\u0caf\u0cc6\u0ca8\u0ccd","name:ar":"\u0643\u0627\u064a\u064a\u0646","min_zoom":8.0,"name:it":"Caienna","name:os":"\u041a\u0430\u0439\u0435\u043d\u043d\u00e6","name:ru":"\u041a\u0430\u0439\u0435\u043d\u043d\u0430","name:pl":"Kajenna","id":381988528,"name:mk":"\u041a\u0430\u0458\u0435\u043d\u0430","name:fa":"\u06a9\u0627\u06cc\u0646","kind_detail":"town","source":"openstreetmap.org","name:ca":"Caiena","name:zh-yue":"\u958b\u96f2","name:zh":"\u5361\u5bb4","name:so":"Kayene","admin_level":"8","name:lv":"Kajenna","name:ja":"\u30ab\u30a4\u30a8\u30f3\u30cc","name:lt":"Kajenas","name:he":"\u05e7\u05d0\u05d9\u05d9\u05df","name:la":"Caienna","name:uk":"\u041a\u0430\u0454\u043d\u043d\u0430","name:be":"\u041a\u0430\u0435\u043d\u0430","name:bg":"\u041a\u0430\u0439\u0435\u043d","name:sr":"\u041a\u0430\u0458\u0435\u043d\u0430","population":58004,"name:el":"\u039a\u03b1\u03b3\u03b9\u03ad\u03bd","kind":"locality","name":"Cayenne","name:es":"Cayena"},"coordinates":[3238,2111]},{"type":"Point","properties":{"source":"openstreetmap.org","kind":"locality","name":"Matoury","kind_detail":"town","population":24583,"min_zoom":8.0,"id":440655666},"coordinates":[3235,1856]},{"type":"Point","properties":{"kind":"locality","name":"Kourou","kind_detail":"town","source":"openstreetmap.org","min_zoom":8.0,"name:uk":"\u041a\u0443\u0440\u0443","name:ru":"\u041a\u0443\u0440\u0443","id":284974098,"population":23813},"coordinates":[2315,2757]},{"type":"Point","properties":{"source":"openstreetmap.org","kind":"locality","name":"R\u00e9mire-Montjoly","kind_detail":"town","population":17736,"min_zoom":8.0,"id":440655667},"coordinates":[3380,2017]}]},"transit":{"type":"GeometryCollection","geometries":[]},"pois":{"type":"GeometryCollection","geometries":[{"type":"Point","properties":{"kind":"nature_reserve","name":"R\u00e9serve Naturelle de La Trinit\u00e9","area":778568000,"source":"openstreetmap.org","min_zoom":7.49,"tier":2,"id":-1106389,"osm_relation":true},"coordinates":[368,1043]},{"type":"Point","properties":{"kind":"nature_reserve","name":"R\u00e9serve Naturelle des marais de Kaw-Roura","area":927812000,"source":"openstreetmap.org","min_zoom":7.36,"tier":2,"id":-1106387,"osm_relation":true},"coordinates":[3818,1153]},{"type":"Point","properties":{"kind":"protected_area","protect_class":"5","area":3419780000,"source":"openstreetmap.org","min_zoom":7.0,"tier":2,"id":-1105270,"osm_relation":true,"name":"Parc naturel r\u00e9gional de Guyane"},"coordinates":[2755,876]}]},"boundaries":{"type":"GeometryCollection","geometries":[{"type":"LineString","properties":{"name:kg":"Fwalansa","name:ty":"Far\u0101ni","name:ka":"\u10e1\u10d0\u10e4\u10e0\u10d0\u10dc\u10d2\u10d4\u10d7\u10d8","name:ko":"\ud504\ub791\uc2a4","name:cv":"\u0424\u0440\u0430\u043d\u0446\u0438","name:cu":"\u0424\u0440\u0430\u043d\u043a\u0457\ua657","name:kl":"Frankrigi","name:cs":"Francie","name:ki":"Ubaranja","name:co":"Francia","name:kv":"\u0424\u0440\u0430\u043d\u0446\u0438\u044f","name:ku":"Fransa","name:ti":"\u1348\u1228\u1295\u1233\u12ed","name:ks":"\u0641\u0631\u065b\u0627\u0646\u0633","name:to":"Falanis\u0113","name:tl":"Pransiya","name:ce":"\u0424\u0440\u0430\u043d\u0446\u0438","name:ta":"\u0baa\u0bbf\u0bb0\u0bbe\u0ba9\u0bcd\u0b9a\u0bc1","name:tg":"\u0424\u0430\u0440\u043e\u043d\u0441\u0430","name:ca":"Fran\u00e7a","name:te":"\u0c2b\u0c4d\u0c30\u0c3e\u0c28\u0c4d\u0c38\u0c4d","name:cy":"Ffrainc","name:qu":"Ransiya","name:da":"Frankrig","name:de":"Frankreich","name:dz":"\u0f55\u0f62\u0f71\u0f53\u0f66\u0f72\u0f0b","source":"openstreetmap.org","name:kn":"\u0cab\u0ccd\u0cb0\u0cbe\u0ca8\u0ccd\u0cb8\u0ccd","name:dv":"\u078a\u07a6\u0783\u07a6\u0782\u07b0\u0790\u07ad\u0790\u07a8\u0788\u07a8\u078d\u07a7\u078c\u07b0","name:km":"\u1794\u17b6\u179a\u17b6\u17c6\u1784","name:lv":"Francija","name:lt":"Pranc\u016bzija","name:uz":"Fransiya","name:kk":"\u0424\u0440\u0430\u043d\u0446\u0438\u044f","name:ur":"\u0641\u0631\u0627\u0646\u0633","name:lb":"Frankr\u00e4ich","name:la":"Francia","name:lg":"Bufalansa","name:uk":"\u0424\u0440\u0430\u043d\u0446\u0456\u044f","name:ug":"\u0641\u0631\u0627\u0646\u0633\u0649\u064a\u06d5","name:li":"Frankriek","name:ln":"Falansia","name:lo":"\u0e9b\u0eb0\u0ec0\u0e97\u0e94\u0e9d\u0eb0\u0ea5\u0eb1\u0ec8\u0e87","name:el":"\u0393\u03b1\u03bb\u03bb\u03af\u03b1","name:eo":"Francujo","name":"France","name:tk":"Fransi\u00fda","name:th":"\u0e1b\u0e23\u0e30\u0e40\u0e17\u0e28\u0e1d\u0e23\u0e31\u0e48\u0e07\u0e40\u0e28\u0e2a","name:eu":"Frantzia","name:et":"Prantsusmaa","name:es":"Francia","name:ay":"Phransiya","name:rm":"Frantscha","name:rn":"Francia","name:az":"Fransa","name:ie":"Francia","name:id":"Perancis","name:ii":"\ua0d4\ua1e9","name:as":"\u09ab\u09cd\u09f0\u09be\u09a8\u09cd\u09b8","name:ar":"\u0641\u0631\u0646\u0633\u0627","name:io":"Francia","name:ak":"Fr\u025bnkyeman","name:am":"\u1348\u1228\u1295\u1223\u12ed","name:it":"Francia","name:an":"Francia","name:ru":"\u0424\u0440\u0430\u043d\u0446\u0438\u044f","name:rw":"Ubufaransa","name:af":"Frankryk","name:zu":"IFulansi","kind_detail":"2","name:za":"Fazgoz","name:zh-yue":"\u6cd5\u570b","name:zh":"\u6cd5\u570b","name:so":"Faransiiska","name:sm":"Farani","name:sl":"Francija","name:sk":"Franc\u00fazsko","name:ja":"\u30d5\u30e9\u30f3\u30b9","name:si":"\u0db4\u0dca\u200d\u0dbb\u0d82\u0dc1\u0dba","name:sh":"Francuska","name:sg":"Far\u00e2nzi","name:se":"Frankriika","name:sc":"Frantza","name:br":"Bro-C'hall","name:bs":"Francuska","name:bn":"\u09ab\u09cd\u09b0\u09be\u09a8\u09cd\u09b8","name:bo":"\u0f67\u0fa5\u0f0b\u0f62\u0f53\u0f0b\u0f66\u0f72\u0f0d","name:bi":"Franis","name:sw":"Ufaransa","name:be":"\u0424\u0440\u0430\u043d\u0446\u044b\u044f","name:su":"Perancis","name:bg":"\u0424\u0440\u0430\u043d\u0446\u0438\u044f","name:ss":"IFulansi","name:ba":"\u0424\u0440\u0430\u043d\u0446\u0438\u044f","name:sq":"Franca","name:jv":"Prancis","name:sa":"\u092b\u094d\u0930\u093e\u0928\u094d\u0938\u0926\u0947\u0936\u0903","name:ia":"Francia","name:pt":"Fran\u00e7a","name:ps":"\u0641\u0631\u0627\u0646\u0633\u0647","name:oc":"Fran\u00e7a","min_zoom":8.0,"name:ro":"Fran\u021ba","name:zh-min-nan":"Hoat-kok","name:os":"\u0424\u0440\u0430\u043d\u0446","name:or":"\u0b2b\u0b4d\u0b30\u0b3e\u0b28\u0b4d\u0b38","name:pl":"Francja","name:st":"Fora","sort_rank":262,"name:sr":"\u0424\u0440\u0430\u043d\u0446\u0443\u0441\u043a\u0430","osm_relation":true,"name:pa":"\u0a2b\u0a4d\u0a30\u0a3e\u0a02\u0a38","name:tr":"Fransa","name:hi":"\u092b\u093c\u094d\u0930\u093e\u0928\u094d\u0938","name:sv":"Frankrike","name:he":"\u05e6\u05e8\u05e4\u05ea","name:ha":"Faransa","name:hy":"\u0556\u0580\u0561\u0576\u057d\u056b\u0561","name:ht":"Frans","name:hu":"Franciaorsz\u00e1g","name:hr":"Francuska","kind":"country","name:is":"Frakkland","name:yi":"\u05e4\u05e8\u05d0\u05e0\u05e7\u05e8\u05d9\u05d9\u05da","name:yo":"Fr\u00e1ns\u00ec","name:mt":"Franza","alt_name:eo":"Francio","name:ms":"Perancis","name:mr":"\u092b\u094d\u0930\u093e\u0928\u094d\u0938","name:my":"\u1015\u103c\u1004\u103a\u101e\u1005\u103a\u1014\u102d\u102f\u1004\u103a\u1004\u1036","official_name":"R\u00e9publique fran\u00e7aise","name:kw":"Pow Frynk","name:mg":"Frantsa","name:vi":"Ph\u00e1p","name:ml":"\u0d2b\u0d4d\u0d30\u0d3e\u0d7b\u0d38\u0d4d","name:mn":"\u0424\u0440\u0430\u043d\u0446","name:mi":"W\u012bw\u012b","id":-2202162,"name:mk":"\u0424\u0440\u0430\u043d\u0446\u0438\u0458\u0430","name:vo":"Frans\u00e4n","name:fa":"\u0641\u0631\u0627\u0646\u0633\u0647","name:ff":"Faransi","name:fi":"Ranska","name:ky":"\u0424\u0440\u0430\u043d\u0446\u0438\u044f","name:fo":"Frakland","name:fy":"Frankryk","name:nl":"Frankrijk","name:nn":"Frankrike","name:no":"Frankrike","name:na":"Prant","name:ne":"\u092b\u094d\u0930\u093e\u0928\u094d\u0938","name:wo":"Faraas","name:nv":"D\u00e1\u00e1ghahii Din\u00e9\u02bci\u02bc Bik\u00e9yah","name:ga":"An Fhrainc","name:gd":"An Fhraing","name:gn":"Hy\u00e3sia","name:gl":"Francia","maritime_boundary":true,"name:gv":"Yn Rank","name:gu":"\u0aab\u0acd\u0ab0\u0abe\u0aa8\u0acd\u0ab8","name:tt":"\u0424\u0440\u0430\u043d\u0446\u0438\u044f"},"arcs":[0]},{"type":"LineString","properties":{"name:pt":"Guiana Francesa","name:rm":"Guyana Franzosa","name:tr":"Frans\u0131z Guyanas\u0131","name:kn":"\u0cab\u0ccd\u0cb0\u0cc6\u0c82\u0c9a\u0ccd \u0c97\u0caf\u0cbe\u0ca8\u0cbe","name:km":"\u17a0\u17d2\u179c\u17d2\u179c\u17c1\u1793\u200b\u17a0\u17d2\u1782\u17c0\u178e\u17b6","name:cs":"Francouzsk\u00e1 Guyana","name:ki":"Gwiyana ya Ufaransa","name:th":"\u0e40\u0e1f\u0e23\u0e19\u0e0a\u0e4c\u0e40\u0e01\u0e35\u0e22\u0e19\u0e32","name:ti":"\u12e8\u1348\u1228\u1295\u1233\u12ed \u1309\u12ca\u12a0\u1293","name:ks":"\u0641\u0631\u065b\u0627\u0646\u0633\u0650\u0633\u06cc \u06af\u0650\u0627\u0646\u0627","name:to":"Falanise Kuiana","name:be":"\u0424\u0440\u0430\u043d\u0446\u0443\u0437\u0441\u043a\u0430\u044f \u0413\u0432\u0456\u044f\u043d\u0430","name:or":"\u0b2b\u0b4d\u0b30\u0b47\u0b1e\u0b4d\u0b1a \u0b17\u0b41\u0b07\u0b28\u0b3e","name:pl":"Gujana Francuska","name:ta":"\u0b83\u0baa\u0bcd\u0bb0\u0bc6\u0ba9\u0bcd\u0b9a\u0bcd \u0b95\u0baf\u0bbe\u0ba9\u0bbe","name:ca":"Guaiana Francesa","name:te":"\u0c2b\u0c4d\u0c30\u0c46\u0c02\u0c1a\u0c4d \u0c17\u0c3f\u0c2f\u0c3e\u0c28\u0c3e","name:li":"Frans Guyana","source":"openstreetmap.org","sort_rank":256,"name:ln":"Giyan\u025b ya Fal\u00e1ns\u025b","name:da":"Fransk Guyana","name:de":"Franz\u00f6sisch-Guayana","name:dz":"\u0f42\u0f74\u0f60\u0f72\u0f0b\u0f61\u0f0b\u0f53\u0f0b \u0f55\u0fb2\u0f53\u0f66\u0f84\u0f0b\u0f58\u0f44\u0f60\u0f0b\u0f41\u0f7c\u0f44\u0f66","name:ko":"\ud504\ub791\uc2a4\ub839 \uae30\uc544\ub098","name:az":"Frans\u0131z Quyanas\u0131","name:ak":"Fr\u025bnkye Gayana","name:lv":"Fran\u010du Gvi\u0101na","name:lt":"Pranc\u016bzijos Gviana","name:hi":"\u092b\u093c\u094d\u0930\u093e\u0902\u0938\u0940\u0938\u0940 \u0917\u093f\u0906\u0928\u093e","name:he":"\u05d2\u05d9\u05d0\u05e0\u05d4 \u05d4\u05e6\u05e8\u05e4\u05ea\u05d9\u05ea","name:eo":"Franca Gviano","name:ur":"\u0641\u0631\u06cc\u0646\u0686 \u06af\u06cc\u0627\u0646\u0627","name:la":"Guiana Francica","name:lg":"Guyana enfalansa","name:uk":"\u0424\u0440\u0430\u043d\u0446\u0443\u0437\u044c\u043a\u0430 \u0413\u0432\u0456\u0430\u043d\u0430","name:hu":"Francia Guyana","name:hr":"Francuska Gvajana","name:lo":"\u0ec0\u0e9f\u0eb1\u0e99\u0eaa\u0e81\u0eb4\u0ea7\u0e99\u0eb2","name:el":"\u0393\u03b1\u03bb\u03bb\u03b9\u03ba\u03ae \u0393\u03bf\u03c5\u03b9\u03ac\u03bd\u03b1","kind":"region","name:en":"French Guiana","name":"Guyane","name:ee":"Frentsi Gayana nutome","alt_name:ru":"\u0424\u0440\u0430\u043d\u0446\u0443\u0437\u0441\u043a\u0430\u044f \u0413\u0432\u0438\u0430\u043d\u0430","min_zoom":8.0,"name:bg":"\u0424\u0440\u0435\u043d\u0441\u043a\u0430 \u0413\u0432\u0438\u0430\u043d\u0430","name:eu":"Guyana Frantsesa","name:et":"Prantsuse Guajaana","name:es":"Guayana Francesa","name:ia":"Guyana francese","name:mt":"Gujana Fran\u010bi\u017ca","name:rn":"Gwayana y'Abafaransa","name:ro":"Guyana Francez\u0103","name:id":"Guyana Perancis","name:ms":"French Guiana","name:mr":"\u092b\u094d\u0930\u0947\u0902\u091a \u0917\u092f\u093e\u0928\u093e","name:ar":"\u063a\u064a\u0627\u0646\u0627","name:my":"\u1015\u103c\u1004\u103a\u101e\u1005\u103a \u1002\u102e\u101a\u102c\u1014\u102c","official_name":"R\u00e9gion de la Guyane","name:is":"Franska Gv\u00e6jana","name:am":"\u12e8\u1348\u1228\u1295\u1233\u12ed \u1309\u12ca\u12a0\u1293","name:it":"Guyana francese","name:ru":"\u0424\u0440\u0430\u043d\u0446\u0443\u0437\u0441\u043a\u0430\u044f \u0413\u0432\u0438\u0430\u043d\u0430","name:vi":"Guyane thu\u1ed9c Ph\u00e1p","name:mn":"\u0424\u0440\u0430\u043d\u0446 \u0413\u0432\u0438\u0430\u043d\u0430","id":-2502058,"name:mk":"\u0424\u0440\u0430\u043d\u0446\u0443\u0441\u043a\u0430 \u0413\u0432\u0430\u0458\u0430\u043d\u0430","name:af":"Frans-Guyana","name:zu":"isi-French Guiana","name:si":"\u0db4\u0dca\u200d\u0dbb\u0d82\u0dc1 \u0d9c\u0dba\u0db1\u0dcf\u0dc0","name:ff":"Giyaan Farayse","kind_detail":"4","name:mg":"Guyana frantsay","name:fo":"Fransk Gujana","name:fy":"Fr\u00e2nsk Guyana","name:zh":"\u6cd5\u5c5e\u572d\u4e9a\u90a3","name:so":"French Guiana","name:sn":"French Guiana","name:sl":"Francoska Gvajana","name:nl":"Frans-Guyana","name:ja":"\u4ecf\u9818\u30ae\u30a2\u30ca","name:nn":"Fransk Guyana","name:no":"Fransk Guyana","name:sg":"G\u00fcy\u00e2ni t\u00ee far\u00e2nzi","name:se":"Frankriikka Guayana","name:ne":"\u092b\u094d\u0930\u093e\u0928\u094d\u0938\u0947\u0932\u0940 \u0917\u093e\u092f\u0928\u093e","name:br":"Gwiana c\u2019hall","name:bs":"Francuska Gvajana","name:bm":"Faransi ka gwiyani","name:bn":"\u09ab\u09b0\u09be\u09b8\u09c0 \u0997\u09be\u09af\u09bc\u09be\u09a8\u09be","name:sk":"Franc\u00fazska Guyana","name:ml":"\u0d2b\u0d4d\u0d30\u0d1e\u0d4d\u0d1a\u0d4d \u0d17\u0d2f\u0d3e\u0d28","name:sw":"Gwiyana ya Ufaransa","name:sv":"Franska Guyana","name:ha":"Gini Ta Faransa","name:sr":"\u0424\u0440\u0430\u043d\u0446\u0443\u0441\u043a\u0430 \u0413\u0432\u0430\u0458\u0430\u043d\u0430","osm_relation":true,"name:ga":"Gu\u00e1in na Fraince","name:gd":"Guiana Fhrangach","name:gl":"G\u00fciana Francesa","name:fa":"\u06af\u0648\u06cc\u0627\u0646 \u0641\u0631\u0627\u0646\u0633\u0647","maritime_boundary":true,"name:yo":"Or\u00edl\u1eb9\u0301\u00e8de Firen\u1e63i Guana","name:gu":"\u0aab\u0acd\u0ab0\u0ac7\u0a82\u0a9a \u0a97\u0aaf\u0abe\u0aa8\u0abe","name:fi":"Ranskan Guayana","name:tt":"\u0424\u0440\u0430\u043d\u0446\u0443\u0437 \u0413\u0432\u0438\u0430\u043d\u0430\u0441\u044b"},"arcs":[1]}]},"roads":{"type":"GeometryCollection","geometries":[{"type":"MultiLineString","properties":{"sort_rank":380,"kind_detail":"primary","min_zoom":8.0,"kind":"major_road","source":"openstreetmap.org"},"arcs":[[6],[7],[8],[9],[10],[11],[12],[13],[14],[15],[16],[17],[18],[19],[20],[21]]},{"type":"MultiLineString","properties":{"source":"openstreetmap.org","kind":"major_road","ref":"N 1","sort_rank":380,"kind_detail":"primary","is_bicycle_related":true,"min_zoom":8.0},"arcs":[[22],[23],[24]]},{"type":"MultiLineString","properties":{"source":"openstreetmap.org","kind":"major_road","sort_rank":380,"kind_detail":"primary","ref":"N 4","min_zoom":8.0},"arcs":[[25],[26],[27],[28],[29],[30],[31],[32],[33],[34],[35],[36],[37]]},{"type":"MultiLineString","properties":{"source":"openstreetmap.org","kind":"major_road","sort_rank":380,"kind_detail":"primary","ref":"N 1","min_zoom":8.0},"arcs":[[38],[39],[40],[41],[42],[43],[44],[45],[46],[47],[48],[49],[50],[51],[52],[53],[54],[55],[56],[57],[58],[59],[60],[61],[62],[63],[64],[65],[66],[67],[68],[69],[70],[71],[72],[73]]},{"type":"MultiLineString","properties":{"source":"openstreetmap.org","kind":"major_road","landuse_kind":"residential","sort_rank":380,"kind_detail":"primary","ref":"N 1","min_zoom":8.0},"arcs":[[74],[75],[76],[77]]},{"type":"LineString","properties":{"cycleway_right":"track","cycleway_left":"opposite_track","sort_rank":380,"kind_detail":"primary","is_bicycle_related":true,"kind":"major_road","source":"openstreetmap.org","min_zoom":8.0,"ref":"N 2","id":103422768},"arcs":[78]},{"type":"MultiLineString","properties":{"source":"openstreetmap.org","kind":"major_road","landuse_kind":"protected_area","sort_rank":380,"kind_detail":"primary","ref":"N 2","min_zoom":8.0},"arcs":[[79],[80],[81]]},{"type":"MultiLineString","properties":{"source":"openstreetmap.org","kind":"major_road","landuse_kind":"urban_area","sort_rank":380,"kind_detail":"primary","ref":"N 1","min_zoom":8.0},"arcs":[[82],[83]]},{"type":"LineString","properties":{"bus_network":"CACL","sort_rank":380,"kind_detail":"primary","kind":"major_road","source":"openstreetmap.org","min_zoom":8.0,"bus_shield_text":"f","ref":"N 4"},"arcs":[84]},{"type":"LineString","properties":{"kind":"major_road","sort_rank":380,"kind_detail":"primary","bus_network":"TIG","source":"openstreetmap.org","min_zoom":8.0,"bus_shield_text":"17","landuse_kind":"protected_area","ref":"N 2","id":30694891},"arcs":[85]},{"type":"MultiLineString","properties":{"source":"openstreetmap.org","kind":"major_road","sort_rank":380,"kind_detail":"primary","ref":"N 3","min_zoom":8.0},"arcs":[[86],[87],[88],[89],[90],[91]]},{"type":"MultiLineString","properties":{"source":"openstreetmap.org","kind":"major_road","sort_rank":380,"kind_detail":"primary","ref":"N 2","min_zoom":8.0},"arcs":[[92],[93],[94],[95],[96],[97],[98],[99],[100],[101],[102],[103],[104],[105]]},{"type":"LineString","properties":{"source":"openstreetmap.org","kind":"major_road","landuse_kind":"urban_area","sort_rank":380,"kind_detail":"primary","ref":"N 3","min_zoom":8.0},"arcs":[106]},{"type":"MultiLineString","properties":{"source":"openstreetmap.org","kind":"major_road","landuse_kind":"protected_area","sort_rank":380,"kind_detail":"primary","ref":"N 1","min_zoom":8.0},"arcs":[[107],[108],[109],[110],[111],[112],[113],[114],[115],[116],[117],[118]]},{"type":"MultiLineString","properties":{"source":"openstreetmap.org","kind":"major_road","landuse_kind":"residential","sort_rank":380,"kind_detail":"primary","min_zoom":8.0},"arcs":[[119],[120],[121],[122],[123],[124],[125],[126],[127],[128],[129],[130],[131]]},{"type":"LineString","properties":{"kind":"major_road","sort_rank":380,"landuse_kind":"residential","is_bicycle_related":true,"source":"openstreetmap.org","min_zoom":8.0,"kind_detail":"primary","id":30550425},"arcs":[132]},{"type":"LineString","properties":{"cycleway_right":"track","sort_rank":380,"kind_detail":"primary","is_bicycle_related":true,"kind":"major_road","source":"openstreetmap.org","min_zoom":8.0,"ref":"N 2","id":103422769},"arcs":[133]},{"type":"LineString","properties":{"cycleway_right":"lane","sort_rank":380,"kind_detail":"primary","is_bicycle_related":true,"kind":"major_road","source":"openstreetmap.org","min_zoom":8.0,"ref":"N 1","id":30581636},"arcs":[134]},{"type":"LineString","properties":{"source":"openstreetmap.org","kind":"ferry","name":"Iles du Salut","sort_rank":355,"min_zoom":8.0,"id":31032855},"arcs":[135]},{"type":"LineString","properties":{"source":"openstreetmap.org","kind":"major_road","landuse_kind":"protected_area","sort_rank":380,"kind_detail":"primary","min_zoom":8.0,"id":34312334},"arcs":[136]},{"type":"MultiLineString","properties":{"bus_network":"CACL","sort_rank":380,"kind_detail":"primary","kind":"major_road","source":"openstreetmap.org","min_zoom":8.0,"bus_shield_text":"f","ref":"N 2"},"arcs":[[137],[138]]}]},"earth":{"type":"GeometryCollection","geometries":[{"type":"Polygon","properties":{"sort_rank":10,"source":"naturalearthdata.com","min_zoom":0.0,"kind":"earth","area":60208683600},"arcs":[[139]]}]},"landuse":{"type":"GeometryCollection","geometries":[{"type":"MultiPolygon","properties":{"source":"openstreetmap.org","kind":"nature_reserve","tier":2,"area":1707527032,"sort_rank":23,"min_zoom":6.0,"osm_relation":true},"arcs":[[[140]],[[141]]]},{"type":"Polygon","properties":{"kind":"residential","area":21721000,"sort_rank":20,"source":"openstreetmap.org","min_zoom":8.0,"tier":2,"id":-5727593,"osm_relation":true},"arcs":[[142],[143],[144],[145],[146],[147]]},{"type":"Polygon","properties":{"kind":"nature_reserve","area":21252200,"sort_rank":23,"source":"openstreetmap.org","min_zoom":8.0,"tier":2,"id":-3477507,"osm_relation":true},"arcs":[[148]]},{"type":"Polygon","properties":{"source":"naturalearthdata.com","kind":"urban_area","name":"","area":20645576,"sort_rank":11,"min_zoom":4.0,"id":3771},"arcs":[[149]]},{"type":"MultiPolygon","properties":{"source":"openstreetmap.org","kind":"protected_area","tier":2,"area":2598607288,"sort_rank":17,"min_zoom":4.0,"osm_relation":true},"arcs":[[[150]]]},{"type":"Polygon","properties":{"kind":"nature_reserve","area":1074620032,"sort_rank":23,"source":"openstreetmap.org","min_zoom":4.0,"tier":2,"id":-1106386,"osm_relation":true},"arcs":[[151]]},{"type":"MultiPolygon","properties":{"source":"openstreetmap.org","kind":"park","tier":2,"area":8964684475,"sort_rank":24,"min_zoom":4.0,"osm_relation":true},"arcs":[[[152]]]},{"type":"MultiPolygon","properties":{"kind":"protected_area","protect_class":"5","area":5187556676,"sort_rank":17,"source":"openstreetmap.org","min_zoom":4.0,"tier":2,"osm_relation":true},"arcs":[[[153]],[[154]]]}]}},"type":"Topology","transform":{"translate":[-53.4375,4.2149431414],"scale":[0.0003433228,0.0003420514]},"arcs":[[[4096,2493],[-203,77],[-362,296],[-743,755],[-1082,475]],[[4096,1472],[-11,13],[-255,132],[37,-56],[-6,-14],[-122,127],[-26,-11],[-24,41],[13,28],[-65,47],[-59,88],[-53,9],[-76,-52],[-76,26],[-30,-51],[-18,11],[41,59],[74,8],[36,63],[-54,59],[12,42],[-123,111],[-104,-23],[5,-54],[-28,-46],[-97,-45],[5,46],[61,22],[-80,57],[-99,133],[-62,31],[-228,234],[-174,96],[6,26],[-47,27],[-31,67],[-69,5],[-5,36],[-115,115],[-174,115],[-194,199],[-125,79],[-140,133],[-80,130],[-31,22],[-23,-13],[14,18],[-38,45],[-8,-13],[-17,-11],[6,34],[-67,4],[-14,29],[-98,-10],[40,-78],[90,-58],[1,-70],[-15,73],[-81,44],[-70,81],[-162,20],[-166,123],[-409,169],[-66,-35],[91,-42],[32,-49],[30,2],[-21,-21],[-86,81],[-82,-17],[-281,79],[-105,-6]],[[4096,361],[-44,-14],[44,56],[0,-42]],[[4096,1420],[-84,87],[-99,81],[-191,110],[-28,42],[-20,56],[-49,60],[-60,49],[-54,26],[-31,-56],[-125,-78],[-42,-47],[-25,-77],[-15,-74],[-10,-20],[-21,-21],[-21,-28],[-8,-40],[-18,0],[-7,107],[87,145],[107,142],[52,97],[-17,58],[-43,55],[-61,41],[-69,16],[-62,-23],[-75,-104],[-53,-33],[26,119],[-65,109],[-225,192],[-74,41],[-14,3],[-35,-6],[-14,3],[-4,12],[4,20],[2,18],[-11,8],[-33,16],[-408,384],[-209,167],[-88,145],[-134,73],[-196,186],[-200,112],[-86,40],[-20,3],[-13,-23],[-117,26],[-106,37],[-139,95],[-73,27],[-65,30],[-127,35],[-89,36],[-57,34],[-29,5],[-29,-21],[5,-17],[20,4],[52,-13],[61,-47],[54,-37],[51,-9],[0,-34],[-65,-21],[-51,42],[-47,59],[-40,25],[-73,-8],[-99,24],[-208,53],[-86,-2],[0,160],[4096,0],[0,-2676]],[[0,3936],[86,2],[208,-53],[99,-24],[73,8],[40,-25],[47,-59],[51,-42],[65,21],[0,34],[-51,9],[-54,37],[-61,47],[-52,13],[-20,-4],[-5,17],[29,21],[29,-5],[57,-34],[89,-36],[127,-35],[65,-30],[73,-27],[139,-95],[106,-37],[117,-26],[13,23],[20,-3],[86,-40],[200,-112],[196,-186],[134,-73],[88,-145],[209,-167],[408,-384],[33,-16],[11,-8],[-2,-18],[-4,-20],[4,-12],[14,-3],[35,6],[14,-3],[74,-41],[225,-192],[65,-109],[-26,-119],[53,33],[75,104],[62,23],[69,-16],[61,-41],[43,-55],[17,-58],[-52,-97],[-107,-142],[-87,-145],[7,-107],[18,0],[8,40],[21,28],[21,21],[10,20],[15,74],[25,77],[42,47],[125,78],[31,56],[54,-26],[60,-49],[49,-60],[20,-56],[28,-42],[191,-110],[99,-81],[84,-87]],[[4096,403],[-44,-56],[44,14]],[[1423,3364],[1,-1]],[[3008,2104],[-1,-1],[1,1]],[[3249,2027],[0,-1]],[[3249,2026],[-2,-1],[1,-2],[1,1],[0,2]],[[3249,2025],[0,2]],[[3249,2029],[0,-2]],[[658,3699],[0,1],[-1,0],[0,-1],[1,0]],[[2227,2746],[1,0],[0,1],[-1,0],[0,-1]],[[3008,2104]],[[3201,1820],[-1,1],[-1,-2],[1,0],[1,1]],[[3204,1925],[-1,-1],[0,-1],[1,1],[0,1]],[[3215,1976],[2,-1],[1,1],[-2,1],[-1,-1]],[[3216,1979],[0,1],[-2,0],[1,-1],[1,0]],[[3227,2065],[-1,1],[-1,-2],[2,-1],[0,2]],[[3230,1993],[1,0],[-1,1],[-1,0],[1,-1]],[[3357,1965],[0,1],[-2,1],[0,-2],[2,0]],[[2899,2222],[-111,129]],[[3007,2105],[-53,41]],[[3229,1993],[-9,-12]],[[3126,1784],[50,28]],[[3197,1820],[2,-1]],[[3201,1819],[2,0]],[[3203,1819],[-2,1]],[[3203,1819],[31,-9]],[[3234,1810],[10,3]],[[3244,1813],[23,35]],[[3266,1854],[18,58],[37,25]],[[3267,1848],[-1,6]],[[3321,1937],[5,4]],[[3326,1941],[27,23]],[[3353,1964],[2,1]],[[3355,1966],[-2,-2]],[[397,3726],[-16,4]],[[524,3707],[-19,-8]],[[657,3700],[-60,39]],[[657,3700]],[[658,3700],[-1,0]],[[658,3699],[1,0]],[[659,3699],[-1,1]],[[686,3699],[-27,0]],[[906,3601],[-103,46]],[[1421,3365],[-119,60]],[[1424,3363],[1,0]],[[1483,3289],[-23,29]],[[2226,2748],[-78,-13],[-203,-145],[-86,27],[-133,122],[-161,28],[-37,34],[-12,144],[33,62],[-34,80],[6,184],[-38,18]],[[2226,2748],[1,-1]],[[2227,2747],[-1,1]],[[2227,2746],[1,-1]],[[2228,2745],[0,1]],[[2788,2351],[-187,152],[-54,-29],[-97,27],[-82,86],[-104,63],[-36,95]],[[2901,2217],[-2,5]],[[2950,2150],[-49,67]],[[2950,2150],[4,-4]],[[3008,2104]],[[3008,2104],[1,-1]],[[3009,2103],[-1,1]],[[3203,1977],[-194,126]],[[3203,1977],[27,16]],[[3220,1981],[-17,-4]],[[3215,1979],[1,-2]],[[3217,1977],[-1,2]],[[3225,2064],[17,-29]],[[3242,2036],[-17,27]],[[3228,2074],[-2,-8]],[[3227,2066],[1,8]],[[3231,1994],[17,29]],[[3246,2027],[1,-2]],[[3248,2026],[-1,2]],[[3226,2094],[2,-9]],[[3228,2085],[-1,9]],[[3247,2028],[-5,8]],[[3242,2035],[4,-8]],[[3216,1973],[-3,-4]],[[2953,1655],[-10,-62],[211,-291]],[[3164,871],[1,-158],[141,-221]],[[3342,465],[44,-33]],[[3228,2085],[0,-11]],[[3228,2074],[0,11]],[[3176,1812],[23,8]],[[3154,1302],[18,-32],[-83,-68],[-6,-62],[-84,-31],[33,-98],[132,-140]],[[3248,2023],[1,-1]],[[3249,2022],[0,2]],[[3249,2022],[54,-14]],[[3331,1998],[23,-30]],[[3354,1968],[1,-2]],[[3356,1967],[-2,1]],[[2954,1658],[-1,-3]],[[2954,1658],[4,3]],[[3125,1727],[-167,-66]],[[3131,1727],[-6,0]],[[3199,1817],[-1,-35],[-67,-55]],[[3199,1817],[1,2]],[[3199,1819],[0,-2]],[[3200,1821],[-1,1]],[[3204,1925],[0,1]],[[3205,1921],[-1,2]],[[3213,1969],[-4,-15]],[[3216,1975],[0,-2]],[[3306,492],[36,-27]],[[3386,432],[61,-45],[51,-114],[44,-40],[64,-18],[3,30],[126,0],[65,-29],[21,-47],[-16,-89],[28,-80]],[[3303,2008],[28,-10]],[[381,3730],[-381,149]],[[505,3699],[-108,27]],[[597,3739],[-73,-32]],[[803,3647],[-117,52]],[[1302,3425],[-396,176]],[[1422,3365],[-1,0]],[[1422,3365],[1,-1]],[[1423,3364],[-1,1]],[[1425,3363],[-1,1]],[[1425,3363]],[[1460,3318],[-35,45]],[[1483,3289]],[[3243,2073],[1,-2]],[[3244,2071],[0,2]],[[3244,2071],[5,-7]],[[3249,2064],[0,-1]],[[3250,2064],[-1,0]],[[3250,2057],[-1,-28]],[[3250,2063],[0,-1]],[[3250,2062],[0,1]],[[3250,2062],[0,-1]],[[3250,2061],[0,-4]],[[3227,2095],[-1,0],[0,-1],[1,1]],[[3249,2063],[1,0]],[[3250,2063],[-1,1],[0,-1]],[[3244,2073],[1,2],[-1,1],[-1,-2],[1,-1]],[[3216,1973],[1,2]],[[3247,2024],[-17,-30]],[[2313,2728],[61,30],[104,369]],[[1424,3363],[-1,1]],[[3203,1923],[19,-59],[-23,-44]],[[3209,1954],[-6,-29]],[[0,0],[0,3936],[86,2],[208,-53],[99,-24],[73,8],[40,-25],[47,-59],[51,-42],[65,21],[0,34],[-51,9],[-54,37],[-61,47],[-52,13],[-20,-4],[-5,17],[29,21],[29,-5],[57,-34],[89,-36],[127,-35],[65,-30],[73,-27],[139,-95],[106,-37],[117,-26],[13,23],[20,-3],[86,-40],[200,-112],[196,-186],[134,-73],[88,-145],[209,-167],[408,-384],[33,-16],[11,-8],[-2,-18],[-4,-20],[4,-12],[14,-3],[35,6],[14,-3],[74,-41],[225,-192],[65,-109],[-26,-119],[53,33],[75,104],[62,23],[69,-16],[61,-41],[43,-55],[17,-58],[-52,-97],[-107,-142],[-87,-145],[7,-107],[18,0],[8,40],[21,28],[21,21],[10,20],[15,74],[25,77],[42,47],[125,78],[31,56],[54,-26],[60,-49],[49,-60],[20,-56],[28,-42],[191,-110],[99,-81],[84,-87],[0,-1017],[-44,-56],[44,14],[0,-361],[-4096,0]],[[10,915],[43,66],[15,56],[-21,42],[38,68],[-51,82],[38,39],[16,117],[-71,30],[39,36],[123,32],[43,-12],[104,56],[112,-7],[89,27],[111,-29],[126,-146],[-4,-193],[-83,-67],[-16,-55],[16,-30],[-24,-46],[59,-45],[-16,-91],[-54,-46],[3,-59],[-70,-47],[6,-61],[-109,-79],[-36,-17],[-49,18],[-156,129],[-41,59],[12,31],[-60,44],[-37,96],[-95,2]],[[4096,1501],[0,-688],[-4,-5],[-55,19],[-12,-78],[29,-36],[-4,-48],[31,-3],[0,-66],[-359,1],[-133,-71],[-13,60],[83,114],[-24,15],[-12,92],[-45,-18],[18,106],[6,-29],[27,1],[-12,-17],[43,-15],[1,-33],[52,-22],[38,8],[45,55],[67,-16],[-20,79],[74,-27],[88,0],[11,-39],[19,-3],[-35,51],[-156,26],[41,94],[-20,-2],[3,37],[-45,-11],[15,35],[-39,12],[5,21],[-22,-22],[-45,50],[-33,-26],[-39,19],[-121,-80],[-165,114],[-66,105],[44,30],[39,141],[148,51],[157,295],[47,-19],[103,-136],[199,-90],[46,-31]],[[3202,2111],[12,15],[-5,-14],[11,-20],[17,41],[65,19],[43,-49],[13,20],[-19,-56],[28,25],[10,-34],[24,-6],[-9,22],[41,-43],[-57,-23],[22,-13],[-12,-79],[-31,45],[21,19],[-20,28],[26,22],[-45,-6],[34,40],[-37,1],[-9,-25],[-6,37],[-29,-23],[4,-34],[-23,33],[-1,-14],[-28,-14],[-1,60],[-24,0],[-15,26]],[[3267,2068],[20,-6],[7,6],[-7,13],[-20,-13]],[[3262,2116],[22,-8],[9,21],[-29,0],[-2,-13]],[[3297,2099],[7,-10],[17,17],[-19,0],[-5,-7]],[[3298,2112],[10,-4],[5,7],[-13,2],[-2,-5]],[[3252,2054],[4,-7],[8,-6],[-3,13],[-9,0]],[[2999,1900],[68,-18],[-10,64],[24,29],[19,-58],[40,-17],[40,36],[21,-26],[-29,-76],[-47,-21],[-58,3],[2,25],[-54,18],[-16,41]],[[3378,1982],[-96,33],[-1,32],[-64,33],[23,54],[66,2],[57,-46],[15,-108]],[[0,0],[0,258],[135,20],[105,154],[34,-94],[78,-8],[30,-57],[-2,-35],[-37,-26],[35,-66],[-27,-40],[70,13],[39,-49],[63,-17],[-68,-53],[-455,0]],[[1942,0],[30,24],[156,23],[40,55],[13,-16],[74,44],[52,-77],[0,-53],[-365,0]],[[1202,0],[-747,0],[68,53],[-63,17],[-39,49],[-76,-3],[33,30],[-35,66],[37,26],[2,35],[-30,57],[-78,8],[-34,94],[28,64],[2,153],[7,15],[163,-122],[126,79],[6,75],[73,45],[52,-99],[61,-22],[60,-67],[58,-135],[49,-54],[34,-129],[140,-167],[75,-34],[28,-34]],[[1944,0],[-113,0],[0,5],[-40,25],[7,94],[-32,74],[44,63],[-118,254],[-3,51],[55,86],[46,30],[58,-2],[-2,31],[35,27],[-22,36],[48,58],[-22,4],[3,26],[36,5],[32,85],[42,11],[40,69],[-20,36],[15,36],[31,10],[0,25],[34,-21],[21,44],[31,-2],[-2,55],[85,75],[13,66],[52,7],[23,35],[-18,20],[53,9],[18,49],[61,-28],[86,6],[145,-106],[155,-50],[126,255],[-19,27],[25,77],[10,-46],[51,3],[52,-38],[45,35],[93,-81],[80,98],[46,164],[38,54],[81,-22],[76,52],[82,-24],[30,-73],[65,-47],[-13,-28],[22,-46],[-49,-78],[-18,-92],[24,-67],[-118,-89],[-50,-150],[57,-142],[135,-70],[-111,-102],[-3,-82],[46,17],[27,-130],[-74,-89],[10,-60],[-93,40],[-126,-154],[-31,66],[-41,20],[-42,-14],[48,-9],[-2,-45],[-50,-31],[-1,-42],[-37,-23],[-11,-85],[-61,-56],[-65,11],[-82,-94],[-62,-16],[-16,-31],[-194,12],[-106,-73],[-308,0],[0,53],[-52,77],[-74,-44],[-20,13],[-33,-52],[-156,-23],[-28,-24]],[[0,3936],[105,6],[281,-79],[82,17],[86,-81],[21,21],[-30,-2],[-32,49],[-91,42],[66,35],[409,-169],[166,-123],[162,-20],[70,-81],[81,-44],[15,-73],[-1,70],[-82,50],[-48,75],[11,21],[87,0],[14,-29],[67,-4],[-6,-34],[22,25],[19,-13],[23,-37],[-15,-14],[36,6],[72,-77],[-18,-112],[-89,-72],[-58,74],[-123,62],[-41,-35],[-59,-7],[-33,-38],[0,-89],[-59,-122],[16,-56],[-68,-142],[-149,204],[101,220],[4,192],[-417,187],[-92,-40],[-125,32],[-380,148],[0,57]]]}