{"objects":{"water":{"type":"GeometryCollection","geometries":[{"type":"MultiPolygon","properties":{"source":"naturalearthdata.com","kind":"ocean","area":1576712559132672,"sort_rank":200,"min_zoom":0.0,"id":1},"arcs":[[[3],[4]],[[5]]]},{"type":"MultiLineString","properties":{"source":"naturalearthdata.com","kind":"ocean","sort_rank":205,"boundary":true,"min_zoom":0.0,"id":439},"arcs":[[6],[7],[8]]},{"type":"LineString","properties":{"source":"naturalearthdata.com","kind":"ocean","sort_rank":205,"boundary":true,"min_zoom":0.0,"id":3835},"arcs":[9]}]},"buildings":{"type":"GeometryCollection","geometries":[]},"places":{"type":"GeometryCollection","geometries":[{"type":"Point","properties":{"kind":"locality","name:en":"St John's","name":"St. John's","kind_detail":"city","name:ar":"\u0633\u0627\u0646\u062a \u062c\u0648\u0646\u0633","name:pt":"S\u00e3o Jo\u00e3o da Terra Nova","name:sr":"\u0421\u0435\u043d\u0442 \u040f\u043e\u043d\u0441","source":"openstreetmap.org","min_zoom":8.0,"name:uk":"\u0421\u0435\u043d\u0442-\u0414\u0436\u043e\u043d\u0441","name:ru":"\u0421\u0435\u043d\u0442-\u0414\u0436\u043e\u043d\u0441","region_capital":true,"id":236053950,"population":106170},"coordinates":[2104,2249]},{"type":"Point","properties":{"source":"openstreetmap.org","kind":"locality","name":"Mount Pearl","kind_detail":"town","population":24671,"min_zoom":8.0,"id":2210243903},"coordinates":[1839,2063]},{"type":"Point","properties":{"source":"openstreetmap.org","kind":"locality","name":"Paradise","kind_detail":"town","population":13000,"min_zoom":8.0,"id":1291572865},"coordinates":[1646,2093]},{"type":"Point","properties":{"source":"openstreetmap.org","kind":"locality","name":"Torbay","kind_detail":"town","population":7395,"min_zoom":8.0,"id":836898657},"coordinates":[2070,2663]},{"type":"Point","properties":{"source":"openstreetmap.org","kind":"locality","name":"Portugal Cove - St. Philip's","kind_detail":"town","population":7366,"min_zoom":8.0,"id":3797254175},"coordinates":[1685,2300]},{"type":"Point","properties":{"source":"openstreetmap.org","kind":"locality","name":"Bay Roberts","kind_detail":"town","population":5818,"min_zoom":8.0,"id":901940521},"coordinates":[449,2311]},{"type":"Point","properties":{"source":"openstreetmap.org","kind":"locality","name":"Carbonear","kind_detail":"town","population":4739,"min_zoom":8.0,"id":475349104},"coordinates":[585,2988]},{"type":"Point","properties":{"source":"openstreetmap.org","kind":"locality","name":"Harbour Grace","kind_detail":"town","population":3131,"min_zoom":8.0,"id":475349146},"coordinates":[654,2818]},{"type":"Point","properties":{"source":"openstreetmap.org","kind":"locality","name":"Spaniard's Bay","kind_detail":"town","population":2622,"min_zoom":8.0,"id":475349338},"coordinates":[451,2523]},{"type":"Point","properties":{"source":"openstreetmap.org","kind":"locality","name":"Pouch Cove","kind_detail":"town","population":1865,"min_zoom":8.0,"id":1673881681},"coordinates":[1958,3121]},{"type":"Point","properties":{"source":"openstreetmap.org","kind":"locality","name":"Victoria","kind_detail":"town","population":1764,"min_zoom":8.0,"id":475349067},"coordinates":[630,3138]},{"type":"Point","properties":{"source":"openstreetmap.org","kind":"locality","name":"Upper Island Cove","kind_detail":"town","population":1594,"min_zoom":8.0,"id":2211333816},"coordinates":[665,2603]},{"type":"Point","properties":{"source":"openstreetmap.org","kind":"locality","name":"Bay Bulls","kind_detail":"town","population":1283,"min_zoom":8.0,"id":1389879936},"coordinates":[1808,1197]},{"type":"Point","properties":{"source":"openstreetmap.org","kind":"locality","name":"Witless Bay","kind_detail":"town","population":1179,"min_zoom":8.0,"id":470735059},"coordinates":[1771,1001]},{"type":"Point","properties":{"source":"openstreetmap.org","kind":"locality","name":"Petty Harbour-Maddox Cove","kind_detail":"town","population":924,"min_zoom":8.0,"id":470734493},"coordinates":[2140,1870]},{"type":"Point","properties":{"source":"openstreetmap.org","kind":"locality","name":"Cupids","kind_detail":"town","population":761,"min_zoom":8.0,"id":1431418724},"coordinates":[631,2203]},{"type":"Point","properties":{"source":"openstreetmap.org","kind":"locality","name":"Brigus","kind_detail":"town","population":750,"min_zoom":8.0,"id":475374276},"coordinates":[664,2139]},{"type":"Point","properties":{"source":"openstreetmap.org","kind":"locality","name":"Conception Harbour","kind_detail":"town","population":743,"min_zoom":8.0,"id":475374471},"coordinates":[623,1743]},{"type":"Point","properties":{"source":"openstreetmap.org","kind":"locality","name":"Colliers","kind_detail":"town","population":722,"min_zoom":8.0,"id":2210537052},"coordinates":[635,1799]},{"type":"Point","properties":{"source":"openstreetmap.org","kind":"locality","name":"Avondale","kind_detail":"town","population":667,"min_zoom":8.0,"id":2210537041},"coordinates":[715,1639]},{"type":"Point","properties":{"source":"openstreetmap.org","kind":"locality","name":"South River","kind_detail":"town","population":655,"min_zoom":8.0,"id":1435624092},"coordinates":[490,2140]},{"type":"Point","properties":{"source":"openstreetmap.org","kind":"locality","name":"Cape Broyle","kind_detail":"town","population":506,"min_zoom":8.0,"id":470764408},"coordinates":[1454,252]},{"type":"Point","properties":{"source":"openstreetmap.org","kind":"locality","name":"Winterton","kind_detail":"town","population":484,"min_zoom":8.0,"id":473199224},"coordinates":[316,3942]},{"type":"Point","properties":{"source":"openstreetmap.org","kind":"locality","name":"Bryant's Cove","kind_detail":"town","population":396,"min_zoom":8.0,"id":1434801535},"coordinates":[727,2757]},{"type":"Point","properties":{"source":"openstreetmap.org","kind":"locality","name":"Small Point - Broad Cove - Blackhead - Adams Cove","kind_detail":"town","population":389,"min_zoom":8.0,"id":2211385625},"coordinates":[997,3475]},{"type":"Point","properties":{"source":"openstreetmap.org","kind":"locality","name":"Heart's Content","kind_detail":"town","population":375,"min_zoom":8.0,"id":473136418},"coordinates":[213,3582]},{"type":"Point","properties":{"source":"openstreetmap.org","kind":"locality","name":"Bishop's Cove","kind_detail":"town","population":275,"min_zoom":8.0,"id":2211333809},"coordinates":[601,2569]},{"type":"Point","properties":{"source":"openstreetmap.org","kind":"locality","name":"New Perlican","kind_detail":"town","population":210,"min_zoom":8.0,"id":473199168},"coordinates":[241,3754]}]},"transit":{"type":"GeometryCollection","geometries":[]},"pois":{"type":"GeometryCollection","geometries":[{"type":"Point","properties":{"kind":"nature_reserve","name":"Avalon Wilderness Reserve","area":2307000000,"source":"openstreetmap.org","min_zoom":6.7,"tier":2,"id":-2054180,"osm_relation":true},"coordinates":[603,104]}]},"boundaries":{"type":"GeometryCollection","geometries":[{"type":"LineString","properties":{"name:ty":"Tanata","name:ka":"\u10d9\u10d0\u10dc\u10d0\u10d3\u10d0","name:ko":"\uce90\ub098\ub2e4","name:cv":"\u041a\u0430\u043d\u0430\u0434\u0430","name:cu":"\u041a\u0430\u043d\u0430\u0434\u0430","name:cs":"Kanada","name:cr":"\u1473\u14c7\u1456","name:tt":"\u041a\u0430\u043d\u0430\u0434\u0430","name:co":"Canad\u00e0","name:kv":"\u041a\u0430\u043d\u0430\u0434\u0430","name:ku":"Kanada","name:tl":"Kanada","name:ce":"\u041a\u0430\u043d\u0430\u0434\u0430","name:ta":"\u0b95\u0ba9\u0b9f\u0bbe","name:tg":"\u041a\u0430\u043d\u0430\u0434\u0430","name:ca":"Canad\u00e0","name:te":"\u0c15\u0c46\u0c28\u0c21\u0c3e","name:qu":"Kanada","name:de":"Kanada","name:dz":"\u0f40\u0f7a\u0f0b\u0f53\u0f0b\u0f4c\u0f0b","source":"openstreetmap.org","name:kn":"\u0c95\u0cc6\u0ca8\u0ca1\u0cbe","name:dv":"\u0786\u07ac\u0782\u07ac\u0791\u07a7","name:km":"\u1780\u17b6\u178e\u17b6\u178a\u17b6","name:lv":"Kan\u0101da","name:lt":"Kanada","name:uz":"Kanada","name:kk":"\u041a\u0430\u043d\u0430\u0434\u0430","name:tw":"Kanada","name:lb":"Kanada","name:uk":"\u041a\u0430\u043d\u0430\u0434\u0430","name:ug":"\u0643\u0627\u0646\u0627\u062f\u0627","name:ln":"Kanad\u00e1","name:kw":"Kanada","name:eo":"Kanado","name":"Canada","name:tk":"Kanada","name:th":"\u0e1b\u0e23\u0e30\u0e40\u0e17\u0e28\u0e41\u0e04\u0e19\u0e32\u0e14\u0e32","name:eu":"Kanada","name:et":"Kanada","name:es":"Canad\u00e1","name:ay":"Kanada","name:rn":"Kanada","name:az":"Kanada","name:id":"Kanada","name:ig":"K\u00e1nada","name:el":"\u039a\u03b1\u03bd\u03b1\u03b4\u03ac\u03c2","name:as":"\u0995\u09be\u09a8\u09be\u09a1\u09be","name:ar":"\u0643\u0646\u062f\u0627","name:io":"Kanada","name:av":"\u041a\u0430\u043d\u0430\u0434\u0430","name:is":"Kanada","name:am":"\u12ab\u1293\u12f3","name:an":"Canad\u00e1","name:ru":"\u041a\u0430\u043d\u0430\u0434\u0430","name:ab":"\u041a\u0430\u043d\u0430\u0434\u0430","name:af":"Kanada","name:zu":"IKhanada","kind_detail":"2","name:ky":"\u041a\u0430\u043d\u0430\u0434\u0430","name:zh-yue":"\u52a0\u62ff\u5927","name:zh":"\u52a0\u62ff\u5927","name:so":"Kanada","name:sl":"Kanada","name:sk":"Kanada","name:ja":"\u30ab\u30ca\u30c0","name:sh":"Kanada","name:sg":"Kanad\u00e4a","name:se":"Kan\u00e1da","name:sa":"\u0915\u0947\u0928\u0921\u093e","name:bs":"Kanada","name:bm":"Kanada","name:bn":"\u0995\u09be\u09a8\u09be\u09a1\u09be","name:bo":"\u0f41\u0f0b\u0f53\u0f0b\u0f4c\u0f0d","name:br":"Kanada","name:sw":"Kanada","name:be":"\u041a\u0430\u043d\u0430\u0434\u0430","name:su":"Kanada","name:bg":"\u041a\u0430\u043d\u0430\u0434\u0430","name:ss":"IKhanada","name:ba":"\u041a\u0430\u043d\u0430\u0434\u0430","name:sq":"Kanadaja","name:jv":"Kanada","name:bi":"Kanada","name:pt":"Canad\u00e1","name:ps":"\u06a9\u0627\u0646\u0627\u0689\u0627","name:oc":"Canad\u00e0","min_zoom":8.0,"name:pa":"\u0a15\u0a48\u0a28\u0a47\u0a21\u0a3e","name:os":"\u041a\u0430\u043d\u0430\u0434\u00e6","name:or":"\u0b15\u0b3e\u0b28\u0b3e\u0b21\u0b3c\u0b3e","name:pl":"Kanada","sort_rank":262,"name:sr":"\u041a\u0430\u043d\u0430\u0434\u0430","osm_relation":true,"name:ik":"Kanada","name:tr":"Kanada","name:hi":"\u0915\u0928\u093e\u0921\u093e","name:sv":"Kanada","name:he":"\u05e7\u05e0\u05d3\u05d4","name:ha":"Kanada","name:hy":"\u053f\u0561\u0576\u0561\u0564\u0561","name:ht":"Kanada","name:hu":"Kanada","name:hr":"Kanada","kind":"country","name:yi":"\u05e7\u05d0\u05e0\u05d0\u05d3\u05e2","name:iu":"\u1472\u14c7\u1455 \/ kanata","name:yo":"K\u00e1n\u00e1d\u00e0","name:mt":"Kanada","name:ms":"Kanada","name:mr":"\u0915\u0945\u0928\u0921\u093e","name:my":"\u1000\u1014\u1031\u1012\u102b\u1014\u102d\u102f\u1004\u103a\u1004\u1036","name:mg":"Kanada","name:ml":"\u0d15\u0d3e\u0d28\u0d21","name:mn":"\u041a\u0430\u043d\u0430\u0434","name:mi":"K\u0101nata","id":-1428125,"name:mk":"\u041a\u0430\u043d\u0430\u0434\u0430","name:vo":"Kanad\u00e4n","name:fa":"\u06a9\u0627\u0646\u0627\u062f\u0627","name:rw":"Kanada","name:fi":"Kanada","old_name:vi":"Gia N\u00e3 \u0110\u1ea1i","name:fo":"Kanada","alt_name:vi":"Ca-na-\u0111a","name:fy":"Kanada","name:na":"Kanada","name:ne":"\u0915\u094d\u092f\u093e\u0928\u093e\u0921\u093e","name:ur":"\u06a9\u06cc\u0646\u06cc\u0688\u0627","name:wo":"Kanadaa","name:nv":"Deeteel Bik\u00e9yah","name:ga":"Ceanada","name:gn":"Kanat\u00e3","name:gl":"Canad\u00e1","maritime_boundary":true,"name:gv":"Yn Chanadey","name:gu":"\u0a95\u0ac7\u0aa8\u0ac7\u0aa1\u0abe"},"arcs":[0]},{"type":"MultiLineString","properties":{"name:pt":"Terra Nova e Labrador","name:ka":"\u10dc\u10d8\u10e3\u10e4\u10d0\u10e3\u10dc\u10d3\u10da\u10d4\u10dc\u10d3\u10d8 \u10d3\u10d0 \u10da\u10d0\u10d1\u10e0\u10d0\u10d3\u10dd\u10e0\u10d8","name:ko":"\ub274\ud380\ub4e4\ub79c\ub4dc \ub798\ube0c\ub77c\ub3c4 \uc8fc","name:kl":"Newfoundland aamma Labrador","name:cs":"Newfoundland a Labrador","name:kw":"Tir Nowydh ha Labrador","name:th":"\u0e23\u0e31\u0e10\u0e19\u0e34\u0e27\u0e1f\u0e31\u0e19\u0e14\u0e4c\u0e41\u0e25\u0e19\u0e14\u0e4c\u0e41\u0e25\u0e30\u0e41\u0e25\u0e1a\u0e23\u0e32\u0e14\u0e2d\u0e23\u0e4c","name:az":"Nyufaundlend v\u0259 Labrador","name:tl":"Newfoundland at Labrador","name:pa":"\u0a28\u0a3f\u0a0a\u0a2b\u0a3c\u0a70\u0a21\u0a32\u0a48\u0a02\u0a21 \u0a05\u0a24\u0a47 \u0a32\u0a3e\u0a2c\u0a30\u0a3e\u0a21\u0a4b\u0a30","name:os":"\u041d\u044c\u044e\u0444\u0430\u0443\u043d\u0434\u043b\u0435\u043d\u0434 \u00e6\u043c\u00e6 \u041b\u0430\u0431\u0440\u0430\u0434\u043e\u0440","name:pl":"Nowa Fundlandia i Labrador","name:ta":"\u0ba8\u0bbf\u0baf\u0bc2\u0b83\u0baa\u0bb5\u0bc1\u0ba9\u0bcd\u0bb2\u0bbe\u0ba8\u0bcd\u0ba4\u0bc1 \u0bae\u0bb1\u0bcd\u0bb1\u0bc1\u0bae\u0bcd \u0bb2\u0bbe\u0baa\u0bcd\u0bb0\u0b9f\u0bcb\u0bb0\u0bcd","name:ca":"Terranova i Labrador","name:cy":"Newfoundland a Labrador","source":"openstreetmap.org","sort_rank":256,"name:qu":"Newfoundland wan Labrador pruwinsya","name:da":"Newfoundland og Labrador","name:de":"Neufundland und Labrador","name:tr":"Newfoundland ve Labrador","name:sq":"Toka e Re dhe Labradori","name:be":"\u041f\u0440\u0430\u0432\u0456\u043d\u0446\u044b\u044f \u041d\u044c\u044e\u0444\u0430\u045e\u043d\u0434\u043b\u0435\u043d\u0434 \u0456 \u041b\u0430\u0431\u0440\u0430\u0434\u043e\u0440","name:lv":"\u0145\u016bfaundlenda un Labradora","name:lt":"Niufaundlandas ir Labradoras","name:uz":"Nyufaundlend va Labrador","name:he":"\u05e0\u05d9\u05d5\u05e4\u05d0\u05d5\u05e0\u05d3\u05dc\u05e0\u05d3 \u05d5\u05dc\u05d1\u05e8\u05d3\u05d5\u05e8","name:eo":"Novlando kaj Labradoro","name:ur":"\u0646\u06cc\u0648 \u0641\u0627\u0624\u0646\u0688 \u0644\u06cc\u0646\u0688 \u0627\u0648\u0631 \u0644\u06cc\u0628\u0631\u0627\u0688\u0648\u0631","name:lb":"Neifundland a Labrador","name:la":"Terra Nova et Terra Laboratoria","name:uk":"\u041d\u044c\u044e\u0444\u0430\u0443\u043d\u0434\u043b\u0435\u043d\u0434 \u0456 \u041b\u0430\u0431\u0440\u0430\u0434\u043e\u0440","name:hy":"\u0546\u0575\u0578\u0582\u0586\u0561\u0578\u0582\u0576\u0564\u056c\u0565\u0576\u0564 \u0587 \u053c\u0561\u0562\u0580\u0561\u0564\u0578\u0580","name:ug":"N\u00e9wfundland \u00d6lkisi","name:hu":"\u00daj-Fundland \u00e9s Labrador","name:hr":"Newfoundland i Labrador","name:oc":"T\u00e8rran\u00f2va e Labrador","name:el":"\u039d\u03ad\u03b1 \u0393\u03b7 \u03ba\u03b1\u03b9 \u039b\u03b1\u03bc\u03c0\u03c1\u03b1\u03bd\u03c4\u03cc\u03c1","kind":"region","name":"Newfoundland and Labrador","min_zoom":8.0,"name:eu":"Ternua eta Labrador","name:et":"Newfoundland ja Labrador","name:es":"Terranova y Labrador","name:ro":"Newfoundland \u0219i Labrador","name:ie":"Nov-Fundland e Labrador","name:id":"Newfoundland dan Labrador","name:ms":"Newfoundland dan Labrador","name:mr":"\u0928\u094d\u092f\u0942\u092b\u093e\u0909\u0902\u0921\u0932\u0902\u0921 \u0906\u0923\u093f \u0932\u093e\u092c\u094d\u0930\u093e\u0921\u094b\u0930","name:ar":"\u0646\u064a\u0648\u0641\u0627\u0648\u0646\u062f\u0644\u0627\u0646\u062f \u0648\u0627\u0644\u0644\u0627\u0628\u0631\u0627\u062f\u0648\u0631","name:io":"Newfoundland e Labrador","name:is":"N\u00fdfundnaland og Labrador","name:it":"Terranova e Labrador","name:ru":"\u041d\u044c\u044e\u0444\u0430\u0443\u043d\u0434\u043b\u0435\u043d\u0434 \u0438 \u041b\u0430\u0431\u0440\u0430\u0434\u043e\u0440","name:vi":"Newfoundland v\u00e0 Labrador","name:mn":"\u041d\u044c\u044e\u0444\u0430\u0443\u043d\u0434\u043b\u0435\u043d\u0434 \u0431\u0430 \u041b\u0430\u0431\u0440\u0430\u0434\u043e\u0440","id":-391196,"name:mk":"\u040a\u0443\u0444\u0430\u0443\u043d\u0434\u043b\u0435\u043d\u0434 \u0438 \u041b\u0430\u0431\u0440\u0430\u0434\u043e\u0440","name:af":"Newfoundland en Labrador","name:fa":"\u0646\u06cc\u0648\u0641\u0627\u0646\u062f\u0644\u0646\u062f \u0648 \u0644\u0627\u0628\u0631\u0627\u062f\u0648\u0631","kind_detail":"4","name:fo":"N\u00fdfundland og Labrador","name:fr":"Terre-Neuve et Labrador","name:fy":"Nijf\u00fbnl\u00e2n en Labrador","name:vo":"Newfoundland e Labrador","name:zh":"\u7d10\u82ac\u862d\u8207\u62c9\u5e03\u62c9\u591a\u7701","name:sl":"Nova Fundlandija in Labrador","name:nl":"Newfoundland en Labrador","name:ja":"\u30cb\u30e5\u30fc\u30d5\u30a1\u30f3\u30c9\u30e9\u30f3\u30c9\u30fb\u30e9\u30d6\u30e9\u30c9\u30fc\u30eb\u5dde","name:nn":"Newfoundland og Labrador","name:no":"Newfoundland og Labrador","name:sc":"Terranova e Labrador","name:br":"Douar-Nevez ha Labrador","name:bs":"Newfoundland i Labrador","name:yi":"\u05e0\u05d9\u05d9\u05e4\u05d5\u05e0\u05d3\u05dc\u05d0\u05e0\u05d3 \u05d0\u05d5\u05df \u05dc\u05d0\u05d1\u05e8\u05d0\u05d3\u05d0\u05e8","name:sk":"Newfoundland a Labrador","name:sv":"Newfoundland och Labrador","name:bg":"\u041d\u044e\u0444\u0430\u0443\u043d\u0434\u043b\u0435\u043d\u0434 \u0438 \u041b\u0430\u0431\u0440\u0430\u0434\u043e\u0440","name:sr":"\u040a\u0443\u0444\u0430\u0443\u043d\u0434\u043b\u0435\u043d\u0434 \u0438 \u041b\u0430\u0431\u0440\u0430\u0434\u043e\u0440","osm_relation":true,"name:ga":"Talamh an \u00c9isc agus Labradar","name:gd":"An Talamh \u00d9r is Labrador","name:yo":"Newfoundland \u00e0ti Labrador","name:gl":"Terra Nova e Labrador","maritime_boundary":true,"name:gv":"Thalloo yn Eeast as Labrador","name:fi":"Newfoundland ja Labrador"},"arcs":[[1],[2]]}]},"roads":{"type":"GeometryCollection","geometries":[{"type":"LineString","properties":{"source":"openstreetmap.org","kind":"major_road","landuse_kind":"urban_area","sort_rank":380,"kind_detail":"primary","ref":"30","min_zoom":8.0},"arcs":[10]},{"type":"LineString","properties":{"kind":"major_road","network":"CA:NL:R","sort_rank":380,"kind_detail":"primary","bus_network":"Metrobus","source":"openstreetmap.org","min_zoom":8.0,"bus_shield_text":"19","shield_text":"50","landuse_kind":"urban_area","id":120426420},"arcs":[11]},{"type":"LineString","properties":{"kind":"major_road","network":"CA:NL:R","sort_rank":380,"kind_detail":"primary","source":"openstreetmap.org","min_zoom":8.0,"landuse_kind":"urban_area","shield_text":"60","ref":"60","id":331049651},"arcs":[12]},{"type":"LineString","properties":{"kind":"major_road","network":"CA:NL:R","sort_rank":380,"kind_detail":"primary","source":"openstreetmap.org","min_zoom":8.0,"shield_text":"50","ref":"50"},"arcs":[13]},{"type":"LineString","properties":{"kind":"highway","network":"CA:NL:R","sort_rank":383,"kind_detail":"motorway","is_bicycle_related":true,"source":"openstreetmap.org","min_zoom":8.0,"all_networks":["CA:NL:R"],"shield_text":"2","ref":"2","all_shield_texts":["2"]},"arcs":[14]},{"type":"LineString","properties":{"source":"openstreetmap.org","kind":"major_road","sort_rank":380,"kind_detail":"primary","ref":"27","min_zoom":8.0,"id":148012468},"arcs":[15]},{"type":"LineString","properties":{"kind":"major_road","network":"CA:NL:R","sort_rank":380,"kind_detail":"primary","source":"openstreetmap.org","min_zoom":8.0,"shield_text":"70","ref":"70"},"arcs":[16]},{"type":"MultiLineString","properties":{"bus_network":"Metrobus","network":"CA:NL:R","sort_rank":380,"kind_detail":"primary","kind":"major_road","source":"openstreetmap.org","min_zoom":8.0,"bus_shield_text":"1","shield_text":"60","landuse_kind":"urban_area"},"arcs":[[17],[18]]},{"type":"LineString","properties":{"kind":"major_road","network":"CA:NL:R","sort_rank":380,"kind_detail":"primary","is_bicycle_related":true,"source":"openstreetmap.org","min_zoom":8.0,"landuse_kind":"urban_area","shield_text":"40","ref":"40","id":277087057},"arcs":[19]},{"type":"LineString","properties":{"kind":"major_road","network":"CA:NL:R","sort_rank":380,"kind_detail":"primary","source":"openstreetmap.org","min_zoom":8.0,"landuse_kind":"nature_reserve","shield_text":"10","ref":"10","id":144649160},"arcs":[20]},{"type":"LineString","properties":{"kind":"major_road","network":"CA:NL:R","sort_rank":380,"kind_detail":"primary","source":"openstreetmap.org","min_zoom":8.0,"shield_text":"63","ref":"63"},"arcs":[21]},{"type":"LineString","properties":{"source":"openstreetmap.org","kind":"major_road","sort_rank":380,"kind_detail":"primary","ref":"70-13","min_zoom":8.0},"arcs":[22]},{"type":"LineString","properties":{"bus_network":"Metrobus","network":"CA:NL:R","sort_rank":380,"kind_detail":"primary","kind":"major_road","source":"openstreetmap.org","min_zoom":8.0,"bus_shield_text":"2","shield_text":"30","landuse_kind":"urban_area","ref":"30"},"arcs":[23]},{"type":"LineString","properties":{"kind":"major_road","network":"CA:NL:R","sort_rank":380,"kind_detail":"primary","source":"openstreetmap.org","min_zoom":8.0,"shield_text":"20","ref":"20"},"arcs":[24]},{"type":"MultiLineString","properties":{"kind":"highway","network":"CA:NL:R","sort_rank":383,"landuse_kind":"urban_area","source":"openstreetmap.org","min_zoom":8.0,"all_networks":["CA:NL:R"],"kind_detail":"motorway","shield_text":"2","ref":"2","all_shield_texts":["2"]},"arcs":[[25],[26],[27],[28]]},{"type":"LineString","properties":{"kind":"major_road","network":"CA:NL:R","sort_rank":380,"kind_detail":"primary","source":"openstreetmap.org","min_zoom":8.0,"shield_text":"13","ref":"13","id":103640876},"arcs":[29]},{"type":"LineString","properties":{"kind":"highway","network":"CA:NL:R","sort_rank":383,"kind_detail":"motorway","is_bicycle_related":true,"source":"openstreetmap.org","min_zoom":8.0,"all_networks":["CA:NL:R"],"landuse_kind":"urban_area","shield_text":"2","ref":"2","id":173087381,"all_shield_texts":["2"]},"arcs":[30]},{"type":"LineString","properties":{"source":"openstreetmap.org","kind":"major_road","sort_rank":381,"kind_detail":"trunk","min_zoom":8.0,"id":76525633},"arcs":[31]},{"type":"MultiLineString","properties":{"kind":"major_road","network":"CA:NL:R","sort_rank":380,"kind_detail":"primary","source":"openstreetmap.org","min_zoom":8.0,"landuse_kind":"urban_area","shield_text":"40","ref":"40"},"arcs":[[32],[33],[34],[35],[36],[37]]},{"type":"MultiLineString","properties":{"bus_network":"Metrobus","sort_rank":380,"kind_detail":"primary","kind":"major_road","source":"openstreetmap.org","min_zoom":8.0,"bus_shield_text":"1","landuse_kind":"urban_area"},"arcs":[[38],[39],[40],[41],[42],[43],[44],[45],[46],[47]]},{"type":"LineString","properties":{"source":"openstreetmap.org","kind":"major_road","sort_rank":381,"kind_detail":"trunk","ref":"I75:22:21","min_zoom":8.0,"id":478829308},"arcs":[48]},{"type":"MultiLineString","properties":{"kind":"major_road","network":"CA:NL:R","sort_rank":380,"kind_detail":"primary","source":"openstreetmap.org","min_zoom":8.0,"landuse_kind":"urban_area","shield_text":"20","ref":"20"},"arcs":[[49],[50]]},{"type":"LineString","properties":{"kind":"major_road","network":"CA:NL:R","sort_rank":380,"kind_detail":"primary","source":"openstreetmap.org","min_zoom":8.0,"shield_text":"30","ref":"30","id":50239830},"arcs":[51]},{"type":"LineString","properties":{"bus_network":"Metrobus","sort_rank":380,"kind_detail":"primary","is_bicycle_related":true,"kind":"major_road","source":"openstreetmap.org","min_zoom":8.0,"bus_shield_text":"2","landuse_kind":"urban_area"},"arcs":[52]},{"type":"LineString","properties":{"bus_network":"Metrobus","network":"CA:NL:R","sort_rank":380,"kind_detail":"primary","kind":"major_road","source":"openstreetmap.org","min_zoom":8.0,"bus_shield_text":"2","shield_text":"20","landuse_kind":"urban_area","ref":"20"},"arcs":[53]},{"type":"MultiLineString","properties":{"bus_network":"Metrobus","sort_rank":380,"kind_detail":"primary","kind":"major_road","source":"openstreetmap.org","min_zoom":8.0,"bus_shield_text":"13","landuse_kind":"urban_area"},"arcs":[[54],[55],[56],[57],[58],[59]]},{"type":"LineString","properties":{"kind":"major_road","network":"CA:NL:R","sort_rank":380,"kind_detail":"primary","source":"openstreetmap.org","min_zoom":8.0,"shield_text":"3","ref":"3"},"arcs":[60]},{"type":"LineString","properties":{"kind":"major_road","network":"CA:NL:R","sort_rank":380,"kind_detail":"primary","source":"openstreetmap.org","min_zoom":8.0,"shield_text":"72","ref":"72"},"arcs":[61]},{"type":"LineString","properties":{"source":"openstreetmap.org","kind":"major_road","sort_rank":380,"kind_detail":"primary","ref":"1","min_zoom":8.0,"id":154909633},"arcs":[62]},{"type":"MultiLineString","properties":{"source":"openstreetmap.org","kind":"major_road","landuse_kind":"urban_area","sort_rank":380,"kind_detail":"primary","min_zoom":8.0},"arcs":[[63],[64],[65],[66],[67],[68],[69],[70],[71],[72],[73],[74],[75],[76],[77],[78],[79],[80],[81],[82],[83],[84],[85],[86],[87],[88],[89],[90],[91],[92],[93],[94],[95],[96],[97]]},{"type":"LineString","properties":{"sort_rank":355,"source":"openstreetmap.org","kind":"ferry","min_zoom":8.0,"id":129864474},"arcs":[98]},{"type":"LineString","properties":{"kind":"major_road","sort_rank":379,"kind_detail":"secondary","is_bicycle_related":true,"bicycle_shield_text":"TCT","bicycle_network":"ncn","source":"openstreetmap.org","min_zoom":8.0,"landuse_kind":"urban_area","id":532775421},"arcs":[99]},{"type":"LineString","properties":{"bus_network":"Metrobus","network":"CA:NL:R","sort_rank":380,"landuse_kind":"urban_area","kind":"major_road","source":"openstreetmap.org","min_zoom":8.0,"bus_shield_text":"19","shield_text":"50","kind_detail":"primary","ref":"50"},"arcs":[100]},{"type":"LineString","properties":{"kind":"major_road","network":"CA:NL:R","sort_rank":380,"kind_detail":"primary","source":"openstreetmap.org","min_zoom":8.0,"landuse_kind":"urban_area","shield_text":"60"},"arcs":[101]},{"type":"MultiLineString","properties":{"kind":"major_road","network":"CA:NL:R","sort_rank":380,"kind_detail":"primary","source":"openstreetmap.org","min_zoom":8.0,"shield_text":"60","ref":"60"},"arcs":[[102],[103],[104]]},{"type":"LineString","properties":{"source":"openstreetmap.org","kind":"major_road","sort_rank":380,"kind_detail":"primary","ref":"70-30","min_zoom":8.0},"arcs":[105]},{"type":"MultiLineString","properties":{"sort_rank":380,"kind_detail":"primary","min_zoom":8.0,"kind":"major_road","source":"openstreetmap.org"},"arcs":[[106],[107],[108],[109],[110],[111],[112],[113],[114],[115],[116],[117],[118],[119],[120],[121],[122],[123],[124],[125],[126]]},{"type":"LineString","properties":{"kind":"major_road","network":"CA:NL:R","sort_rank":380,"kind_detail":"primary","source":"openstreetmap.org","min_zoom":8.0,"shield_text":"93","ref":"93","id":126146063},"arcs":[127]},{"type":"MultiLineString","properties":{"kind":"minor_road","sort_rank":360,"kind_detail":"residential","is_bicycle_related":true,"bicycle_shield_text":"TCT","bicycle_network":"ncn","source":"openstreetmap.org","min_zoom":8.0},"arcs":[[128],[129],[130]]},{"type":"LineString","properties":{"source":"openstreetmap.org","kind":"major_road","sort_rank":380,"kind_detail":"primary","ref":"72-19","min_zoom":8.0,"id":129807510},"arcs":[131]},{"type":"LineString","properties":{"source":"openstreetmap.org","kind":"major_road","sort_rank":380,"kind_detail":"primary","ref":"61","min_zoom":8.0},"arcs":[132]},{"type":"MultiLineString","properties":{"bus_network":"Metrobus","sort_rank":380,"kind_detail":"primary","kind":"major_road","source":"openstreetmap.org","min_zoom":8.0,"bus_shield_text":"2","landuse_kind":"urban_area"},"arcs":[[133],[134],[135],[136],[137],[138]]},{"type":"MultiLineString","properties":{"kind":"major_road","network":"CA:NL:R","sort_rank":380,"kind_detail":"primary","source":"openstreetmap.org","min_zoom":8.0,"shield_text":"90","ref":"90"},"arcs":[[139],[140]]},{"type":"LineString","properties":{"kind":"major_road","network":"CA:NL:R","sort_rank":380,"kind_detail":"primary","is_bicycle_related":true,"source":"openstreetmap.org","min_zoom":8.0,"shield_text":"21","ref":"21"},"arcs":[141]},{"type":"MultiLineString","properties":{"bus_network":"Metrobus","sort_rank":380,"kind_detail":"primary","kind":"major_road","source":"openstreetmap.org","min_zoom":8.0,"bus_shield_text":"3","landuse_kind":"urban_area"},"arcs":[[142],[143],[144],[145]]},{"type":"LineString","properties":{"bus_network":"Metrobus","network":"CA:NL:R","sort_rank":380,"kind_detail":"primary","kind":"major_road","source":"openstreetmap.org","min_zoom":8.0,"bus_shield_text":"2","shield_text":"60","landuse_kind":"urban_area"},"arcs":[146]},{"type":"MultiLineString","properties":{"source":"openstreetmap.org","kind":"major_road","landuse_kind":"urban_area","sort_rank":380,"kind_detail":"primary","is_bicycle_related":true,"min_zoom":8.0},"arcs":[[147],[148],[149]]},{"type":"MultiLineString","properties":{"kind":"major_road","network":"CA:NL:R","sort_rank":380,"kind_detail":"primary","source":"openstreetmap.org","min_zoom":8.0,"landuse_kind":"urban_area","shield_text":"30","ref":"30"},"arcs":[[150],[151]]},{"type":"MultiLineString","properties":{"kind":"minor_road","sort_rank":360,"kind_detail":"residential","is_bicycle_related":true,"bicycle_shield_text":"TCT","bicycle_network":"ncn","source":"openstreetmap.org","min_zoom":8.0,"landuse_kind":"urban_area"},"arcs":[[152],[153]]},{"type":"LineString","properties":{"kind":"major_road","sort_rank":380,"kind_detail":"primary","bus_network":"Metrobus","source":"openstreetmap.org","min_zoom":8.0,"bus_shield_text":"3","id":118329531},"arcs":[154]},{"type":"LineString","properties":{"kind":"major_road","network":"CA:NL:R","sort_rank":380,"kind_detail":"primary","source":"openstreetmap.org","min_zoom":8.0,"shield_text":"73","ref":"73"},"arcs":[155]},{"type":"LineString","properties":{"kind":"highway","network":"CA:NL:R","sort_rank":383,"landuse_kind":"urban_area","source":"openstreetmap.org","min_zoom":8.0,"all_networks":["CA:NL:R"],"kind_detail":"motorway","shield_text":"3A","ref":"3A","all_shield_texts":["3A"]},"arcs":[156]},{"type":"LineString","properties":{"source":"openstreetmap.org","kind":"major_road","sort_rank":380,"kind_detail":"primary","ref":"70-21","min_zoom":8.0},"arcs":[157]},{"type":"LineString","properties":{"source":"openstreetmap.org","kind":"major_road","network":"CA:NL:R","sort_rank":380,"kind_detail":"primary","min_zoom":8.0,"shield_text":"13"},"arcs":[158]},{"type":"LineString","properties":{"kind":"major_road","network":"CA:NL:R","sort_rank":380,"kind_detail":"primary","source":"openstreetmap.org","min_zoom":8.0,"landuse_kind":"nature_reserve","shield_text":"90","ref":"90","id":152068545},"arcs":[159]},{"type":"MultiLineString","properties":{"kind":"major_road","network":"CA:NL:R","sort_rank":380,"kind_detail":"primary","is_bicycle_related":true,"bicycle_shield_text":"TCT","bicycle_network":"ncn","source":"openstreetmap.org","min_zoom":8.0,"shield_text":"60","ref":"60"},"arcs":[[160],[161]]},{"type":"LineString","properties":{"kind":"major_road","network":"CA:NL:R","sort_rank":380,"kind_detail":"primary","source":"openstreetmap.org","min_zoom":8.0,"landuse_kind":"urban_area","shield_text":"40","ref":"40R"},"arcs":[162]},{"type":"LineString","properties":{"source":"openstreetmap.org","kind":"major_road","network":"CA:NL:R","sort_rank":380,"kind_detail":"primary","min_zoom":8.0,"shield_text":"62"},"arcs":[163]},{"type":"MultiLineString","properties":{"kind":"highway","network":"CA:NL:R","sort_rank":383,"landuse_kind":"nature_reserve","source":"openstreetmap.org","min_zoom":8.0,"all_networks":["CA:NL:R"],"kind_detail":"motorway","shield_text":"1","ref":"1","all_shield_texts":["1"]},"arcs":[[164],[165]]},{"type":"MultiLineString","properties":{"kind":"highway","network":"CA:NL:R","sort_rank":383,"kind_detail":"motorway","source":"openstreetmap.org","min_zoom":8.0,"all_networks":["CA:NL:R"],"shield_text":"3A","ref":"3A","all_shield_texts":["3A"]},"arcs":[[166],[167]]},{"type":"LineString","properties":{"kind":"major_road","network":"CA:NL:R","sort_rank":381,"kind_detail":"trunk","source":"openstreetmap.org","min_zoom":8.0,"shield_text":"75","ref":"75"},"arcs":[168]},{"type":"MultiLineString","properties":{"kind":"major_road","network":"CA:NL:R","sort_rank":380,"kind_detail":"primary","is_bicycle_related":true,"source":"openstreetmap.org","min_zoom":8.0,"shield_text":"20","ref":"20"},"arcs":[[169],[170]]},{"type":"LineString","properties":{"bus_network":"Metrobus","network":"CA:NL:R","sort_rank":380,"kind_detail":"primary","kind":"major_road","source":"openstreetmap.org","min_zoom":8.0,"bus_shield_text":"19","shield_text":"60","landuse_kind":"urban_area"},"arcs":[171]},{"type":"LineString","properties":{"kind":"major_road","network":"CA:NL:R","sort_rank":380,"kind_detail":"primary","source":"openstreetmap.org","min_zoom":8.0,"shield_text":"80","ref":"80"},"arcs":[172]},{"type":"LineString","properties":{"kind":"major_road","network":"CA:NL:R","sort_rank":380,"kind_detail":"primary","source":"openstreetmap.org","min_zoom":8.0,"shield_text":"91","ref":"91","id":122107849},"arcs":[173]},{"type":"MultiLineString","properties":{"kind":"major_road","network":"CA:NL:R","sort_rank":380,"kind_detail":"primary","source":"openstreetmap.org","min_zoom":8.0,"shield_text":"10","ref":"10"},"arcs":[[174],[175],[176]]},{"type":"MultiLineString","properties":{"bus_network":"Metrobus","network":"CA:NL:R","sort_rank":380,"kind_detail":"primary","kind":"major_road","source":"openstreetmap.org","min_zoom":8.0,"bus_shield_text":"3","shield_text":"20","landuse_kind":"urban_area","ref":"20"},"arcs":[[177],[178]]},{"type":"MultiLineString","properties":{"kind":"path","sort_rank":354,"landuse_kind":"urban_area","is_bicycle_related":true,"bicycle_shield_text":"TCT","bicycle_network":"ncn","source":"openstreetmap.org","min_zoom":8.0,"kind_detail":"path"},"arcs":[[179],[180],[181],[182]]},{"type":"LineString","properties":{"kind":"minor_road","sort_rank":358,"kind_detail":"service","is_bicycle_related":true,"bicycle_shield_text":"TCT","bicycle_network":"ncn","source":"openstreetmap.org","min_zoom":8.0,"landuse_kind":"urban_area","id":532775416},"arcs":[183]},{"type":"MultiLineString","properties":{"kind":"path","sort_rank":354,"kind_detail":"path","is_bicycle_related":true,"bicycle_shield_text":"TCT","bicycle_network":"ncn","source":"openstreetmap.org","min_zoom":8.0},"arcs":[[184],[185],[186],[187],[188],[189],[190]]},{"type":"LineString","properties":{"kind":"major_road","network":"CA:NL:R","sort_rank":380,"kind_detail":"primary","source":"openstreetmap.org","min_zoom":8.0,"landuse_kind":"urban_area","shield_text":"50","ref":"50"},"arcs":[191]},{"type":"LineString","properties":{"kind":"major_road","network":"CA:NL:R","sort_rank":380,"kind_detail":"primary","is_bicycle_related":true,"source":"openstreetmap.org","min_zoom":8.0,"shield_text":"40","ref":"40"},"arcs":[192]},{"type":"MultiLineString","properties":{"kind":"highway","network":"CA:NL:R","sort_rank":383,"kind_detail":"motorway","source":"openstreetmap.org","min_zoom":8.0,"all_networks":["CA:NL:R"],"shield_text":"1","ref":"1","all_shield_texts":["1"]},"arcs":[[193],[194],[195],[196],[197],[198],[199],[200],[201],[202],[203],[204],[205],[206],[207],[208],[209],[210],[211],[212],[213]]},{"type":"LineString","properties":{"source":"openstreetmap.org","kind":"major_road","sort_rank":380,"kind_detail":"primary","ref":"70-27","min_zoom":8.0,"id":148012464},"arcs":[214]},{"type":"LineString","properties":{"kind":"major_road","network":"CA:NL:R","sort_rank":380,"kind_detail":"primary","is_bicycle_related":true,"source":"openstreetmap.org","min_zoom":8.0,"landuse_kind":"urban_area","shield_text":"20","ref":"20"},"arcs":[215]},{"type":"MultiLineString","properties":{"kind":"highway","network":"CA:NL:R","sort_rank":383,"landuse_kind":"urban_area","source":"openstreetmap.org","min_zoom":8.0,"all_networks":["CA:NL:R"],"kind_detail":"motorway","shield_text":"1","ref":"1","all_shield_texts":["1"]},"arcs":[[216],[217],[218],[219],[220],[221],[222],[223],[224],[225]]},{"type":"MultiLineString","properties":{"kind":"highway","network":"CA:NL:R","sort_rank":383,"kind_detail":"motorway","source":"openstreetmap.org","min_zoom":8.0,"all_networks":["CA:NL:R"],"shield_text":"2","ref":"2","all_shield_texts":["2"]},"arcs":[[226],[227],[228],[229],[230]]},{"type":"LineString","properties":{"kind":"major_road","network":"CA:NL:R","sort_rank":380,"kind_detail":"primary","source":"openstreetmap.org","min_zoom":8.0,"landuse_kind":"urban_area","shield_text":"50"},"arcs":[231]},{"type":"LineString","properties":{"kind":"major_road","sort_rank":380,"landuse_kind":"urban_area","source":"openstreetmap.org","min_zoom":8.0,"kind_detail":"primary","ref":"1","id":154909633},"arcs":[232]},{"type":"LineString","properties":{"bus_network":"Metrobus","network":"CA:NL:R","sort_rank":380,"kind_detail":"primary","kind":"major_road","source":"openstreetmap.org","min_zoom":8.0,"bus_shield_text":"1","shield_text":"40","landuse_kind":"urban_area","ref":"40"},"arcs":[233]}]},"earth":{"type":"GeometryCollection","geometries":[{"type":"MultiPolygon","properties":{"sort_rank":10,"source":"naturalearthdata.com","min_zoom":0.0,"kind":"earth","area":11321875221},"arcs":[[[234]],[[235]]]}]},"landuse":{"type":"GeometryCollection","geometries":[{"type":"MultiPolygon","properties":{"source":"openstreetmap.org","kind":"nature_reserve","tier":2,"area":108247610,"sort_rank":23,"min_zoom":8.0},"arcs":[[[236]]]},{"type":"Polygon","properties":{"source":"naturalearthdata.com","kind":"urban_area","name":"","area":206932288,"sort_rank":11,"min_zoom":4.0,"id":3331},"arcs":[[237]]},{"type":"Polygon","properties":{"kind":"nature_reserve","area":2307000064,"sort_rank":23,"source":"openstreetmap.org","min_zoom":4.0,"tier":2,"id":-2054180,"osm_relation":true},"arcs":[[238]]},{"type":"Polygon","properties":{"source":"openstreetmap.org","kind":"aerodrome","area":10598900,"tier":3,"id":384444426,"min_zoom":8.0,"sort_rank":60},"arcs":[[239]]},{"type":"MultiPolygon","properties":{"source":"openstreetmap.org","kind":"nature_reserve","tier":2,"area":158176778,"sort_rank":23,"min_zoom":8.0,"osm_relation":true},"arcs":[[[240]],[[241]],[[242]],[[243]]]}]}},"type":"Topology","transform":{"translate":[-53.4375,47.0401821448],"scale":[0.0003433228,0.00023187]},"arcs":[[[2521,0],[10,172],[78,168],[248,768],[119,159],[178,362],[91,423],[-11,173],[-74,241],[-26,250],[-111,268],[-71,267],[-154,298],[-218,306],[-140,138],[82,103]],[[1685,0],[53,132],[-131,146],[277,307],[123,383],[-30,75],[197,481],[125,164],[-2,211],[55,-3],[50,198],[-127,74],[-11,110],[48,230],[-184,594],[-119,132],[-44,134],[-130,-27],[-129,-428],[-279,-252],[-108,-55],[-131,-134],[-10,-284],[-164,-320],[-166,-23],[-80,337],[-3,156],[30,140],[-72,13],[-18,52],[4,55],[109,95],[93,131],[-54,282],[222,353],[65,185],[-20,135],[122,137],[100,180]],[[325,4096],[-197,-395],[-128,-183]],[[1671,0],[-8,13],[-14,34],[-10,38],[54,-17],[29,24],[-8,36],[-56,19],[-55,5],[-147,54],[50,26],[109,8],[42,24],[27,60],[18,82],[14,140],[7,29],[14,20],[14,24],[13,86],[28,71],[21,98],[28,34],[10,35],[-35,63],[92,38],[40,29],[27,48],[-33,-4],[-31,2],[-29,10],[-26,22],[43,19],[96,12],[41,27],[24,52],[35,156],[21,63],[28,41],[78,83],[33,50],[20,58],[-12,37],[-87,81],[92,74],[45,25],[43,-7],[34,116],[1,43],[-36,17],[-44,12],[-46,32],[-35,47],[-15,56],[-39,-29],[76,143],[22,69],[5,211],[-7,37],[-27,14],[-77,-16],[-46,7],[-26,38],[50,139],[10,51],[-20,178],[-19,23],[-121,51],[-14,26],[-25,71],[-20,23],[-76,-55],[-58,-192],[-67,-403],[-22,-89],[-35,-91],[-45,-87],[-48,-75],[-55,-63],[-175,-128],[-192,-182],[-117,-62],[-104,-170],[-46,-60],[7,19],[15,69],[-65,28],[-35,-14],[-32,-27],[-59,-16],[-22,29],[40,64],[93,113],[-12,35],[2,17],[10,40],[-38,4],[-40,-36],[-40,-50],[-42,-39],[4,55],[18,42],[21,37],[16,43],[5,47],[-5,161],[-96,-53],[-33,-8],[-35,9],[-36,21],[-20,22],[11,9],[61,21],[80,52],[72,68],[36,68],[-117,-86],[-59,-29],[-63,-6],[26,49],[75,56],[39,46],[-39,-4],[-36,-11],[-33,-19],[-32,-28],[-28,54],[30,48],[56,35],[53,13],[57,29],[67,136],[46,39],[-13,39],[-18,18],[-23,-3],[-28,-23],[28,60],[34,58],[-82,27],[-7,-1],[-25,22],[-16,27],[18,14],[14,5],[29,22],[18,5],[24,13],[30,30],[25,33],[11,23],[21,93],[48,72],[109,116],[51,83],[23,68],[6,78],[-1,112],[22,82],[52,68],[109,100],[55,67],[7,12],[2755,0],[0,-4096],[-2425,0]],[[1218,2496],[-32,-85],[70,-25],[87,15],[87,93],[88,69],[-7,78],[-110,10],[-183,-155]],[[394,4096],[-4,-5],[-29,-61],[-44,-145],[-28,-59],[-40,-60],[-31,-59],[-7,-55],[28,-50],[0,-26],[-79,30],[-34,-3],[-44,-27],[-31,-35],[-27,-46],[-24,-54],[0,655],[394,0]],[[2355,2098],[-44,12],[-46,32],[-35,47],[-15,56],[-39,-29],[76,143],[22,69],[5,211],[-7,37],[-27,14],[-77,-16],[-46,7],[-26,38],[50,139],[10,51],[-20,178],[-19,23],[-121,51],[-14,26],[-25,71],[-20,23],[-76,-55],[-58,-192],[-67,-403],[-22,-89],[-35,-91],[-45,-87],[-48,-75],[-55,-63],[-175,-128],[-192,-182],[-117,-62],[-104,-170],[-46,-60],[7,19],[15,69],[-65,28],[-35,-14],[-32,-27],[-59,-16],[-22,29],[40,64],[93,113],[-12,35],[2,17],[10,40],[-38,4],[-40,-36],[-40,-50],[-42,-39],[4,55],[18,42],[21,37],[16,43],[5,47],[-5,161],[-96,-53],[-33,-8],[-35,9],[-36,21],[-20,22],[11,9],[61,21],[80,52],[72,68],[36,68],[-117,-86],[-59,-29],[-63,-6],[26,49],[75,56],[39,46],[-39,-4],[-36,-11],[-33,-19],[-32,-28],[-28,54],[30,48],[56,35],[53,13],[57,29],[67,136],[46,39],[-13,39],[-18,18],[-23,-3],[-28,-23],[28,60],[34,58],[-82,27],[-7,-1],[-25,22],[-16,27],[18,14],[14,5],[29,22],[18,5],[24,13],[30,30],[25,33],[11,23],[21,93],[48,72],[109,116],[51,83],[23,68],[6,78],[-1,112],[22,82],[52,68],[109,100],[55,67],[7,12]],[[394,4096],[-4,-5],[-29,-61],[-44,-145],[-28,-59],[-40,-60],[-31,-59],[-7,-55],[28,-50],[0,-26],[-79,30],[-34,-3],[-44,-27],[-31,-35],[-27,-46],[-24,-54]],[[1671,0],[-8,13],[-14,34],[-10,38],[54,-17],[29,24],[-8,36],[-56,19],[-55,5],[-147,54],[50,26],[109,8],[42,24],[27,60],[18,82],[14,140],[7,29],[14,20],[14,24],[13,86],[28,71],[21,98],[28,34],[10,35],[-35,63],[92,38],[40,29],[27,48],[-33,-4],[-31,2],[-29,10],[-26,22],[43,19],[96,12],[41,27],[24,52],[35,156],[21,63],[28,41],[78,83],[33,50],[20,58],[-12,37],[-87,81],[92,74],[45,25],[43,-7],[34,116],[1,43],[-36,17]],[[1401,2651],[110,-10],[7,-78],[-88,-69],[-87,-93],[-87,-15],[-70,25],[32,85],[183,155]],[[2135,2332],[1,1],[0,1],[-1,-2]],[[2002,2249],[4,0]],[[1657,2109],[32,11]],[[1755,2298],[86,-32],[90,4]],[[1492,2020],[81,-29],[189,36]],[[621,2888],[-10,22]],[[1261,4096],[-117,-152],[-104,-69],[29,-52],[1,-78],[-59,-95],[-22,-200],[-69,-75],[-62,-2],[-83,-105],[12,-37],[-48,-62],[-167,-32],[40,-37],[-60,-129],[103,-147],[-126,-93],[-53,-102],[-66,-57],[21,-43],[45,-14],[-41,-83],[24,-102],[-31,-78],[56,-97],[26,-111],[-109,-247],[-30,-143]],[[2006,2129],[13,7]],[[2033,2147],[3,4]],[[1975,2460],[17,3]],[[1504,622],[5,-61],[62,-43]],[[559,1410],[30,14],[30,100],[64,61],[22,58]],[[448,2202],[96,92]],[[2154,2407],[-7,-17]],[[2076,2584],[-85,45],[-11,73],[69,102]],[[1784,2023],[-22,4]],[[1778,2028],[4,-4]],[[2107,2225],[-73,-110]],[[2035,2116],[72,109]],[[1070,1302],[95,-37],[129,41],[239,4],[166,-78],[74,-115]],[[1762,2027],[16,1]],[[378,1668],[-2,2]],[[2065,2406],[-10,9],[-21,8],[-17,29],[-25,11]],[[2018,2450],[14,-26],[33,-18]],[[2072,2394],[-7,12]],[[2094,2368],[-6,4]],[[2091,2370],[3,-2]],[[2107,2356],[-13,12]],[[2039,2291],[-7,-5]],[[2032,2286],[7,4]],[[2063,2316],[-11,-12]],[[2052,2303],[13,14]],[[2054,2351],[9,-2]],[[2072,2394],[-9,-45]],[[2063,2349],[1,-27]],[[2064,2322],[-1,-2]],[[2065,2317],[-1,5]],[[2065,2317],[4,6]],[[372,2431],[2,1]],[[2084,2457],[-1,3]],[[2135,2332],[-11,26]],[[2181,2467],[0,4]],[[2004,2242],[-246,-119]],[[2121,2384],[3,-26]],[[1995,2146],[8,17]],[[2003,2163],[-5,-22]],[[2014,2171],[-11,-8]],[[2006,2137],[3,-4]],[[2014,2171],[1,6],[-8,24],[9,18],[0,6],[-10,27],[15,25]],[[2020,2277],[-14,-25],[10,-26],[-10,-25],[8,-30]],[[1952,1648],[-67,70],[-13,54],[19,210]],[[455,2325],[17,-25],[74,-5],[191,125]],[[2169,2470],[10,-3]],[[1795,2033],[-7,2]],[[1792,2022],[3,11]],[[1795,2033],[40,39]],[[1795,2033],[11,-14]],[[1807,2019],[-10,14],[-2,0]],[[1838,2087],[-3,-15]],[[1835,2072],[33,-51]],[[1868,2021],[-11,-8]],[[1868,2021],[3,-4]],[[1911,2241],[7,-42]],[[1917,2251],[4,0]],[[2013,2127],[-18,19]],[[2006,2250],[0,4]],[[2009,2133],[4,-6]],[[2015,2112],[-2,15]],[[2015,2341],[50,-2]],[[2015,2112],[4,-9]],[[2019,2103],[-4,9]],[[2032,2286],[-12,-9]],[[2021,2277],[11,9]],[[2052,2304],[-13,-13]],[[2039,2290],[13,13]],[[2064,2318],[-1,-2]],[[2063,2320],[1,-2]],[[2092,2373],[-28,-55]],[[2064,2318],[2,-4]],[[2066,2314],[-1,3]],[[2073,2301],[-7,13]],[[2069,2323],[1,2],[20,41],[2,7]],[[2121,2384],[-29,-11]],[[2107,2225],[10,29],[-10,-29]],[[2114,2469],[-1,6]],[[2135,2332],[2,-14]],[[2147,2388],[-2,1]],[[2181,2467],[1,-1]],[[1689,2529],[-193,16]],[[1962,2079],[2,2]],[[2002,2249],[-16,4]],[[1999,2125],[-78,-42],[-198,50],[-34,-13]],[[499,2089],[144,27],[5,-89],[-37,-53],[9,-45],[-41,-118],[28,-57],[87,-52],[20,-64],[96,50],[34,-96],[-36,-83],[15,-24],[89,3],[43,136],[126,163],[59,126],[167,105]],[[1307,2018],[37,-4]],[[1346,2015],[89,55],[26,82],[196,-43]],[[619,3089],[102,-15],[-26,-44]],[[110,612],[-20,3]],[[527,2728],[128,100]],[[573,2950],[39,62],[83,18]],[[607,2989],[9,-74]],[[1404,1764],[7,-12]],[[1783,2015],[-7,-8]],[[1786,2017],[6,5]],[[1794,1958],[31,7]],[[1806,2019],[7,-9],[23,-14]],[[1836,1996],[-29,23]],[[1825,1965],[2,8]],[[1827,1973],[3,9]],[[1830,1982],[6,14]],[[1836,1996],[-1,-2],[-5,-11],[0,-1]],[[1857,2013],[-21,-17]],[[1880,2007],[-44,-11]],[[1871,2017],[9,-10]],[[1891,1982],[-11,25]],[[1917,2251],[-6,-10]],[[2019,2103],[-9,-11],[-2,-6],[11,17]],[[1785,2017],[-1,0],[0,-1],[1,-1],[0,2]],[[0,561],[98,40]],[[683,1583],[4,3]],[[1307,2018],[1,-1]],[[1368,2030],[-2,-2]],[[737,2420],[-5,12]],[[1285,2014],[38,-191],[81,-59]],[[2004,2243],[0,-1]],[[2004,2243],[9,4]],[[2013,2247],[12,7]],[[2125,2356],[-15,-20]],[[2145,2389],[-24,-5]],[[2137,2318],[3,-11]],[[0,544],[91,41],[327,342]],[[486,1027],[107,222],[268,241]],[[1980,2704],[-91,44],[-33,89],[-51,53]],[[2101,2207],[-12,-16]],[[2113,2475],[-13,19]],[[2108,2218],[-7,-11]],[[2114,2238],[-6,-20]],[[2033,2147],[-30,-20]],[[1736,2097],[-19,0]],[[1758,2123],[-22,-26]],[[1788,2035],[-31,8],[-21,54]],[[2147,2390],[-11,-56]],[[2154,2407],[27,60]],[[1962,2079],[0,1]],[[2099,2193],[-1,0]],[[2100,2494],[-9,13]],[[414,2544],[-57,-29]],[[1918,2252],[2,-19],[3,-7],[10,-15],[1,-1],[-15,43]],[[527,2728],[-28,10]],[[1067,1305],[3,-3]],[[418,927],[68,100]],[[1307,2018]],[[1344,2014],[2,1]],[[1992,2463],[26,-13]],[[961,1298],[-49,189]],[[1213,1577],[-55,-103],[-8,-29]],[[1152,1449],[50,105]],[[1915,2286],[3,-34]],[[1919,2253],[-3,33]],[[332,1595],[44,75],[-56,213],[-54,65],[21,138],[86,182],[-19,298],[148,193],[101,84],[11,43]],[[1959,3122],[57,-35],[58,-190],[-25,-93]],[[2079,2513],[-3,71]],[[1999,2125],[4,2]],[[0,3358],[107,33],[63,78],[-6,53],[53,56],[-32,75],[95,226],[55,28],[-22,33],[45,104],[44,52]],[[136,633],[-78,-19],[-58,51]],[[1952,1648],[-3,-45],[-66,-88],[-79,-365],[-45,-52],[7,-82],[-32,-116],[16,-40],[-59,-133],[-114,-1],[-73,-104]],[[1571,518],[-17,-182],[-62,-62],[-102,-48],[33,-27],[17,-83],[157,-116]],[[2008,2086],[-18,-34]],[[2083,2460],[-1,15]],[[2121,2384],[-37,73]],[[1648,2089],[74,44],[67,-42]],[[1790,2090],[172,-10]],[[1964,2081],[54,22],[80,90]],[[2099,2193],[8,20]],[[2106,2214],[1,-1]],[[0,1651],[77,15],[121,-129],[38,10],[57,-40],[87,22],[116,-35],[117,22]],[[682,1583],[1,0]],[[687,1586],[27,12],[33,-29],[65,-4],[-11,-71],[46,52],[61,-53],[54,232],[73,133],[174,137],[77,36],[21,-13]],[[1308,2017],[36,-3]],[[1346,2015],[20,13]],[[1414,2070],[-46,-40]],[[1428,2071],[12,-18],[25,45],[72,19],[70,-81],[41,53]],[[1986,2253],[-55,17]],[[1812,2457],[21,-18],[142,21]],[[0,1757],[248,-42],[3,-4]],[[251,1711],[75,-109]],[[326,1602],[3,-4],[82,-19],[66,-67],[13,-41],[2,-3]],[[492,1468],[39,-44]],[[531,1424],[4,-4],[55,-47],[57,-5],[39,-73],[117,-24],[49,-37],[106,69],[113,2],[54,47],[27,97]],[[1150,1445],[-26,-93],[-54,-46],[-112,-2],[-106,-69],[-48,36],[-116,24],[-41,73],[-56,6],[-30,38],[-9,6],[-8,2],[-13,4]],[[531,1424],[-22,6],[-17,38]],[[492,1468],[-2,7],[-12,37],[-66,68],[-57,12],[-11,3],[-18,7]],[[326,1602],[-22,9],[-53,100]],[[251,1711],[-3,4],[-204,43],[-44,-1]],[[1202,1554],[296,273],[23,-8],[50,-6]],[[1571,1813]],[[1571,1813],[2,0],[62,62],[68,163]],[[1702,2038],[-67,-162],[-64,-63]],[[1571,1813]],[[1571,1813],[-49,8],[-22,9],[-33,-5],[-254,-248]],[[1735,2177],[0,1],[62,64]],[[1797,2242],[28,28],[1,1],[135,41]],[[1963,2315],[-137,-43],[-22,-23],[-7,-7]],[[1797,2242],[-53,-65]],[[2129,2469],[40,1],[-40,-1]],[[611,2910],[5,5]],[[2082,2475],[-3,38]],[[1744,2177],[-11,-13]],[[1733,2164],[-5,-6],[-26,-120]],[[1703,2038],[21,54],[3,41],[6,31]],[[1733,2164],[2,13]],[[1961,2312],[49,19],[2,5]],[[2012,2336],[28,52]],[[2040,2388],[13,25],[38,51],[38,5]],[[2129,2469],[-37,-4],[-39,-51],[-13,-26]],[[2040,2388],[-25,-51],[-1,0],[-2,-1]],[[2012,2336],[-49,-21]],[[1461,2031],[-38,9],[-111,-100],[-70,14],[-122,-96],[-39,-71]],[[1461,2031],[31,-11]],[[1762,2027],[-190,-35],[-111,39]],[[1782,2024],[47,-47],[12,-6],[37,8],[39,19],[43,34],[75,84]],[[2034,2115],[-145,-130],[-47,-13],[-58,51]],[[2006,2249],[-4,0]],[[2179,2467],[2,0]],[[2072,2394],[19,-24]],[[394,4096],[947,0],[-7,-12],[-55,-67],[-109,-100],[-52,-68],[-22,-82],[1,-112],[-6,-78],[-23,-68],[-51,-83],[-109,-116],[-48,-72],[-21,-93],[-11,-23],[-25,-33],[-30,-30],[-24,-13],[-18,-5],[-29,-22],[-14,-5],[-18,-14],[16,-27],[25,-22],[7,1],[82,-27],[-34,-58],[-28,-60],[28,23],[23,3],[18,-18],[13,-39],[-46,-39],[-67,-136],[-57,-29],[-53,-13],[-56,-35],[-30,-48],[28,-54],[32,28],[33,19],[36,11],[39,4],[-39,-46],[-75,-56],[-26,-49],[63,6],[59,29],[117,86],[-36,-68],[-72,-68],[-80,-52],[-61,-21],[-11,-9],[20,-22],[36,-21],[35,-9],[33,8],[96,53],[5,-161],[-5,-47],[-16,-43],[-21,-37],[-18,-42],[-4,-55],[42,39],[40,50],[40,36],[38,-4],[-10,-40],[-2,-17],[12,-35],[-93,-113],[-40,-64],[22,-29],[59,16],[32,27],[35,14],[65,-28],[-15,-69],[-7,-19],[46,60],[104,170],[117,62],[192,182],[175,128],[55,63],[48,75],[45,87],[35,91],[22,89],[67,403],[58,192],[76,55],[20,-23],[25,-71],[14,-26],[121,-51],[19,-23],[20,-178],[-10,-51],[-50,-139],[26,-38],[46,-7],[77,16],[27,-14],[7,-37],[-5,-211],[-22,-69],[-76,-143],[39,29],[15,-56],[35,-47],[46,-32],[44,-12],[36,-17],[-1,-43],[-34,-116],[-43,7],[-45,-25],[-92,-74],[87,-81],[12,-37],[-20,-58],[-33,-50],[-78,-83],[-28,-41],[-21,-63],[-35,-156],[-24,-52],[-41,-27],[-96,-12],[-43,-19],[26,-22],[29,-10],[31,-2],[33,4],[-27,-48],[-40,-29],[-92,-38],[35,-63],[-10,-35],[-28,-34],[-21,-98],[-28,-71],[-13,-86],[-14,-24],[-14,-20],[-7,-29],[-14,-140],[-18,-82],[-27,-60],[-42,-24],[-109,-8],[-50,-26],[147,-54],[55,-5],[56,-19],[8,-36],[-29,-24],[-54,17],[10,-38],[14,-34],[8,-13],[-1671,0],[0,3441],[24,54],[27,46],[31,35],[44,27],[34,3],[79,-30],[0,26],[-28,50],[7,55],[31,59],[40,60],[28,59],[44,145],[29,61],[4,5]],[[1343,2401],[-87,-15],[-70,25],[32,85],[183,155],[110,-10],[7,-78],[-88,-69],[-87,-93]],[[1742,651],[30,8],[111,207],[9,130],[74,17],[24,-58],[-120,-364],[-65,-19],[-63,79]],[[2028,2558],[107,-94],[141,11],[-24,-116],[-64,-121],[-250,-200],[-87,-27],[-150,27],[-55,48],[43,92],[175,-4],[106,151],[8,189],[24,51],[26,-7]],[[124,0],[36,90],[-69,337],[65,37],[54,70],[140,63],[9,76],[178,165],[272,190],[309,-15],[-13,-544],[-59,-350],[26,-119],[-948,0]],[[1917,2510],[70,38],[65,-17],[12,-75],[-32,-8],[-115,62]],[[1503,621],[72,67],[13,-44],[44,4],[75,-83],[-43,-19],[18,-37],[-111,9],[-62,43],[-6,60]],[[418,927],[68,100],[167,-108],[-116,-81],[-119,89]],[[992,1537],[67,103],[70,18],[36,-6],[55,-60],[-127,-266],[-74,65],[25,63],[-52,83]],[[1766,2975],[17,41],[56,-31],[23,35],[-75,17],[17,74],[89,-3],[-11,-90],[-41,-50],[-75,7]]]}