{"objects":{"water":{"type":"GeometryCollection","geometries":[{"type":"Polygon","properties":{"source":"naturalearthdata.com","kind":"ocean","area":1576712559132672,"sort_rank":200,"min_zoom":0.0,"id":1},"arcs":[[2]]},{"type":"LineString","properties":{"source":"naturalearthdata.com","kind":"ocean","sort_rank":205,"boundary":true,"min_zoom":0.0,"id":439},"arcs":[3]}]},"buildings":{"type":"GeometryCollection","geometries":[]},"places":{"type":"GeometryCollection","geometries":[{"type":"Point","properties":{"source":"naturalearthdata.com","kind":"locality","name":"Trepassey","population":398,"min_zoom":7.0,"id":4820},"coordinates":[216,2812]},{"type":"Point","properties":{"source":"openstreetmap.org","kind":"locality","name":"Trepassey","kind_detail":"town","population":570,"min_zoom":8.0,"id":470764546},"coordinates":[214,2807]},{"type":"Point","properties":{"source":"openstreetmap.org","kind":"locality","name":"Ferryland","kind_detail":"town","population":465,"min_zoom":8.0,"id":470764410},"coordinates":[1605,4028]},{"type":"Point","properties":{"source":"openstreetmap.org","kind":"locality","name":"Renews-Cappahayden","kind_detail":"town","population":323,"min_zoom":8.0,"id":2191600751},"coordinates":[1424,3601]},{"type":"Point","properties":{"source":"openstreetmap.org","kind":"locality","name":"Fermeuse","kind_detail":"town","population":323,"min_zoom":8.0,"id":470764539},"coordinates":[1395,3808]},{"type":"Point","properties":{"source":"openstreetmap.org","kind":"locality","name":"Portugal Cove South","kind_detail":"town","population":160,"min_zoom":8.0,"id":1440651561},"coordinates":[525,2670]},{"type":"Point","properties":{"source":"openstreetmap.org","kind":"locality","name":"Port Kirwan","kind_detail":"town","population":49,"min_zoom":8.0,"id":1437839622},"coordinates":[1536,3803]}]},"transit":{"type":"GeometryCollection","geometries":[]},"pois":{"type":"GeometryCollection","geometries":[]},"boundaries":{"type":"GeometryCollection","geometries":[{"type":"LineString","properties":{"name:ty":"Tanata","name:ka":"\u10d9\u10d0\u10dc\u10d0\u10d3\u10d0","name:ko":"\uce90\ub098\ub2e4","name:cv":"\u041a\u0430\u043d\u0430\u0434\u0430","name:cu":"\u041a\u0430\u043d\u0430\u0434\u0430","name:cs":"Kanada","name:cr":"\u1473\u14c7\u1456","name:tt":"\u041a\u0430\u043d\u0430\u0434\u0430","name:co":"Canad\u00e0","name:kv":"\u041a\u0430\u043d\u0430\u0434\u0430","name:ku":"Kanada","name:tl":"Kanada","name:ce":"\u041a\u0430\u043d\u0430\u0434\u0430","name:ta":"\u0b95\u0ba9\u0b9f\u0bbe","name:tg":"\u041a\u0430\u043d\u0430\u0434\u0430","name:ca":"Canad\u00e0","name:te":"\u0c15\u0c46\u0c28\u0c21\u0c3e","name:qu":"Kanada","name:de":"Kanada","name:dz":"\u0f40\u0f7a\u0f0b\u0f53\u0f0b\u0f4c\u0f0b","source":"openstreetmap.org","name:kn":"\u0c95\u0cc6\u0ca8\u0ca1\u0cbe","name:dv":"\u0786\u07ac\u0782\u07ac\u0791\u07a7","name:km":"\u1780\u17b6\u178e\u17b6\u178a\u17b6","name:lv":"Kan\u0101da","name:lt":"Kanada","name:uz":"Kanada","name:kk":"\u041a\u0430\u043d\u0430\u0434\u0430","name:tw":"Kanada","name:lb":"Kanada","name:uk":"\u041a\u0430\u043d\u0430\u0434\u0430","name:ug":"\u0643\u0627\u0646\u0627\u062f\u0627","name:ln":"Kanad\u00e1","name:kw":"Kanada","name:eo":"Kanado","name":"Canada","name:tk":"Kanada","name:th":"\u0e1b\u0e23\u0e30\u0e40\u0e17\u0e28\u0e41\u0e04\u0e19\u0e32\u0e14\u0e32","name:eu":"Kanada","name:et":"Kanada","name:es":"Canad\u00e1","name:ay":"Kanada","name:rn":"Kanada","name:az":"Kanada","name:id":"Kanada","name:ig":"K\u00e1nada","name:el":"\u039a\u03b1\u03bd\u03b1\u03b4\u03ac\u03c2","name:as":"\u0995\u09be\u09a8\u09be\u09a1\u09be","name:ar":"\u0643\u0646\u062f\u0627","name:io":"Kanada","name:av":"\u041a\u0430\u043d\u0430\u0434\u0430","name:is":"Kanada","name:am":"\u12ab\u1293\u12f3","name:an":"Canad\u00e1","name:ru":"\u041a\u0430\u043d\u0430\u0434\u0430","name:ab":"\u041a\u0430\u043d\u0430\u0434\u0430","name:af":"Kanada","name:zu":"IKhanada","kind_detail":"2","name:ky":"\u041a\u0430\u043d\u0430\u0434\u0430","name:zh-yue":"\u52a0\u62ff\u5927","name:zh":"\u52a0\u62ff\u5927","name:so":"Kanada","name:sl":"Kanada","name:sk":"Kanada","name:ja":"\u30ab\u30ca\u30c0","name:sh":"Kanada","name:sg":"Kanad\u00e4a","name:se":"Kan\u00e1da","name:sa":"\u0915\u0947\u0928\u0921\u093e","name:bs":"Kanada","name:bm":"Kanada","name:bn":"\u0995\u09be\u09a8\u09be\u09a1\u09be","name:bo":"\u0f41\u0f0b\u0f53\u0f0b\u0f4c\u0f0d","name:br":"Kanada","name:sw":"Kanada","name:be":"\u041a\u0430\u043d\u0430\u0434\u0430","name:su":"Kanada","name:bg":"\u041a\u0430\u043d\u0430\u0434\u0430","name:ss":"IKhanada","name:ba":"\u041a\u0430\u043d\u0430\u0434\u0430","name:sq":"Kanadaja","name:jv":"Kanada","name:bi":"Kanada","name:pt":"Canad\u00e1","name:ps":"\u06a9\u0627\u0646\u0627\u0689\u0627","name:oc":"Canad\u00e0","min_zoom":8.0,"name:pa":"\u0a15\u0a48\u0a28\u0a47\u0a21\u0a3e","name:os":"\u041a\u0430\u043d\u0430\u0434\u00e6","name:or":"\u0b15\u0b3e\u0b28\u0b3e\u0b21\u0b3c\u0b3e","name:pl":"Kanada","sort_rank":262,"name:sr":"\u041a\u0430\u043d\u0430\u0434\u0430","osm_relation":true,"name:ik":"Kanada","name:tr":"Kanada","name:hi":"\u0915\u0928\u093e\u0921\u093e","name:sv":"Kanada","name:he":"\u05e7\u05e0\u05d3\u05d4","name:ha":"Kanada","name:hy":"\u053f\u0561\u0576\u0561\u0564\u0561","name:ht":"Kanada","name:hu":"Kanada","name:hr":"Kanada","kind":"country","name:yi":"\u05e7\u05d0\u05e0\u05d0\u05d3\u05e2","name:iu":"\u1472\u14c7\u1455 \/ kanata","name:yo":"K\u00e1n\u00e1d\u00e0","name:mt":"Kanada","name:ms":"Kanada","name:mr":"\u0915\u0945\u0928\u0921\u093e","name:my":"\u1000\u1014\u1031\u1012\u102b\u1014\u102d\u102f\u1004\u103a\u1004\u1036","name:mg":"Kanada","name:ml":"\u0d15\u0d3e\u0d28\u0d21","name:mn":"\u041a\u0430\u043d\u0430\u0434","name:mi":"K\u0101nata","id":-1428125,"name:mk":"\u041a\u0430\u043d\u0430\u0434\u0430","name:vo":"Kanad\u00e4n","name:fa":"\u06a9\u0627\u0646\u0627\u062f\u0627","name:rw":"Kanada","name:fi":"Kanada","old_name:vi":"Gia N\u00e3 \u0110\u1ea1i","name:fo":"Kanada","alt_name:vi":"Ca-na-\u0111a","name:fy":"Kanada","name:na":"Kanada","name:ne":"\u0915\u094d\u092f\u093e\u0928\u093e\u0921\u093e","name:ur":"\u06a9\u06cc\u0646\u06cc\u0688\u0627","name:wo":"Kanadaa","name:nv":"Deeteel Bik\u00e9yah","name:ga":"Ceanada","name:gn":"Kanat\u00e3","name:gl":"Canad\u00e1","maritime_boundary":true,"name:gv":"Yn Chanadey","name:gu":"\u0a95\u0ac7\u0aa8\u0ac7\u0aa1\u0abe"},"arcs":[0]},{"type":"LineString","properties":{"name:pt":"Terra Nova e Labrador","name:ka":"\u10dc\u10d8\u10e3\u10e4\u10d0\u10e3\u10dc\u10d3\u10da\u10d4\u10dc\u10d3\u10d8 \u10d3\u10d0 \u10da\u10d0\u10d1\u10e0\u10d0\u10d3\u10dd\u10e0\u10d8","name:ko":"\ub274\ud380\ub4e4\ub79c\ub4dc \ub798\ube0c\ub77c\ub3c4 \uc8fc","name:kl":"Newfoundland aamma Labrador","name:cs":"Newfoundland a Labrador","name:kw":"Tir Nowydh ha Labrador","name:th":"\u0e23\u0e31\u0e10\u0e19\u0e34\u0e27\u0e1f\u0e31\u0e19\u0e14\u0e4c\u0e41\u0e25\u0e19\u0e14\u0e4c\u0e41\u0e25\u0e30\u0e41\u0e25\u0e1a\u0e23\u0e32\u0e14\u0e2d\u0e23\u0e4c","name:az":"Nyufaundlend v\u0259 Labrador","name:tl":"Newfoundland at Labrador","name:pa":"\u0a28\u0a3f\u0a0a\u0a2b\u0a3c\u0a70\u0a21\u0a32\u0a48\u0a02\u0a21 \u0a05\u0a24\u0a47 \u0a32\u0a3e\u0a2c\u0a30\u0a3e\u0a21\u0a4b\u0a30","name:os":"\u041d\u044c\u044e\u0444\u0430\u0443\u043d\u0434\u043b\u0435\u043d\u0434 \u00e6\u043c\u00e6 \u041b\u0430\u0431\u0440\u0430\u0434\u043e\u0440","name:pl":"Nowa Fundlandia i Labrador","name:ta":"\u0ba8\u0bbf\u0baf\u0bc2\u0b83\u0baa\u0bb5\u0bc1\u0ba9\u0bcd\u0bb2\u0bbe\u0ba8\u0bcd\u0ba4\u0bc1 \u0bae\u0bb1\u0bcd\u0bb1\u0bc1\u0bae\u0bcd \u0bb2\u0bbe\u0baa\u0bcd\u0bb0\u0b9f\u0bcb\u0bb0\u0bcd","name:ca":"Terranova i Labrador","name:cy":"Newfoundland a Labrador","source":"openstreetmap.org","sort_rank":256,"name:qu":"Newfoundland wan Labrador pruwinsya","name:da":"Newfoundland og Labrador","name:de":"Neufundland und Labrador","name:tr":"Newfoundland ve Labrador","name:sq":"Toka e Re dhe Labradori","name:be":"\u041f\u0440\u0430\u0432\u0456\u043d\u0446\u044b\u044f \u041d\u044c\u044e\u0444\u0430\u045e\u043d\u0434\u043b\u0435\u043d\u0434 \u0456 \u041b\u0430\u0431\u0440\u0430\u0434\u043e\u0440","name:lv":"\u0145\u016bfaundlenda un Labradora","name:lt":"Niufaundlandas ir Labradoras","name:uz":"Nyufaundlend va Labrador","name:he":"\u05e0\u05d9\u05d5\u05e4\u05d0\u05d5\u05e0\u05d3\u05dc\u05e0\u05d3 \u05d5\u05dc\u05d1\u05e8\u05d3\u05d5\u05e8","name:eo":"Novlando kaj Labradoro","name:ur":"\u0646\u06cc\u0648 \u0641\u0627\u0624\u0646\u0688 \u0644\u06cc\u0646\u0688 \u0627\u0648\u0631 \u0644\u06cc\u0628\u0631\u0627\u0688\u0648\u0631","name:lb":"Neifundland a Labrador","name:la":"Terra Nova et Terra Laboratoria","name:uk":"\u041d\u044c\u044e\u0444\u0430\u0443\u043d\u0434\u043b\u0435\u043d\u0434 \u0456 \u041b\u0430\u0431\u0440\u0430\u0434\u043e\u0440","name:hy":"\u0546\u0575\u0578\u0582\u0586\u0561\u0578\u0582\u0576\u0564\u056c\u0565\u0576\u0564 \u0587 \u053c\u0561\u0562\u0580\u0561\u0564\u0578\u0580","name:ug":"N\u00e9wfundland \u00d6lkisi","name:hu":"\u00daj-Fundland \u00e9s Labrador","name:hr":"Newfoundland i Labrador","name:oc":"T\u00e8rran\u00f2va e Labrador","name:el":"\u039d\u03ad\u03b1 \u0393\u03b7 \u03ba\u03b1\u03b9 \u039b\u03b1\u03bc\u03c0\u03c1\u03b1\u03bd\u03c4\u03cc\u03c1","kind":"region","name":"Newfoundland and Labrador","min_zoom":8.0,"name:eu":"Ternua eta Labrador","name:et":"Newfoundland ja Labrador","name:es":"Terranova y Labrador","name:ro":"Newfoundland \u0219i Labrador","name:ie":"Nov-Fundland e Labrador","name:id":"Newfoundland dan Labrador","name:ms":"Newfoundland dan Labrador","name:mr":"\u0928\u094d\u092f\u0942\u092b\u093e\u0909\u0902\u0921\u0932\u0902\u0921 \u0906\u0923\u093f \u0932\u093e\u092c\u094d\u0930\u093e\u0921\u094b\u0930","name:ar":"\u0646\u064a\u0648\u0641\u0627\u0648\u0646\u062f\u0644\u0627\u0646\u062f \u0648\u0627\u0644\u0644\u0627\u0628\u0631\u0627\u062f\u0648\u0631","name:io":"Newfoundland e Labrador","name:is":"N\u00fdfundnaland og Labrador","name:it":"Terranova e Labrador","name:ru":"\u041d\u044c\u044e\u0444\u0430\u0443\u043d\u0434\u043b\u0435\u043d\u0434 \u0438 \u041b\u0430\u0431\u0440\u0430\u0434\u043e\u0440","name:vi":"Newfoundland v\u00e0 Labrador","name:mn":"\u041d\u044c\u044e\u0444\u0430\u0443\u043d\u0434\u043b\u0435\u043d\u0434 \u0431\u0430 \u041b\u0430\u0431\u0440\u0430\u0434\u043e\u0440","id":-391196,"name:mk":"\u040a\u0443\u0444\u0430\u0443\u043d\u0434\u043b\u0435\u043d\u0434 \u0438 \u041b\u0430\u0431\u0440\u0430\u0434\u043e\u0440","name:af":"Newfoundland en Labrador","name:fa":"\u0646\u06cc\u0648\u0641\u0627\u0646\u062f\u0644\u0646\u062f \u0648 \u0644\u0627\u0628\u0631\u0627\u062f\u0648\u0631","kind_detail":"4","name:fo":"N\u00fdfundland og Labrador","name:fr":"Terre-Neuve et Labrador","name:fy":"Nijf\u00fbnl\u00e2n en Labrador","name:vo":"Newfoundland e Labrador","name:zh":"\u7d10\u82ac\u862d\u8207\u62c9\u5e03\u62c9\u591a\u7701","name:sl":"Nova Fundlandija in Labrador","name:nl":"Newfoundland en Labrador","name:ja":"\u30cb\u30e5\u30fc\u30d5\u30a1\u30f3\u30c9\u30e9\u30f3\u30c9\u30fb\u30e9\u30d6\u30e9\u30c9\u30fc\u30eb\u5dde","name:nn":"Newfoundland og Labrador","name:no":"Newfoundland og Labrador","name:sc":"Terranova e Labrador","name:br":"Douar-Nevez ha Labrador","name:bs":"Newfoundland i Labrador","name:yi":"\u05e0\u05d9\u05d9\u05e4\u05d5\u05e0\u05d3\u05dc\u05d0\u05e0\u05d3 \u05d0\u05d5\u05df \u05dc\u05d0\u05d1\u05e8\u05d0\u05d3\u05d0\u05e8","name:sk":"Newfoundland a Labrador","name:sv":"Newfoundland och Labrador","name:bg":"\u041d\u044e\u0444\u0430\u0443\u043d\u0434\u043b\u0435\u043d\u0434 \u0438 \u041b\u0430\u0431\u0440\u0430\u0434\u043e\u0440","name:sr":"\u040a\u0443\u0444\u0430\u0443\u043d\u0434\u043b\u0435\u043d\u0434 \u0438 \u041b\u0430\u0431\u0440\u0430\u0434\u043e\u0440","osm_relation":true,"name:ga":"Talamh an \u00c9isc agus Labradar","name:gd":"An Talamh \u00d9r is Labrador","name:yo":"Newfoundland \u00e0ti Labrador","name:gl":"Terra Nova e Labrador","maritime_boundary":true,"name:gv":"Thalloo yn Eeast as Labrador","name:fi":"Newfoundland ja Labrador"},"arcs":[1]}]},"roads":{"type":"GeometryCollection","geometries":[{"type":"MultiLineString","properties":{"kind":"major_road","network":"CA:NL:R","sort_rank":380,"kind_detail":"primary","source":"openstreetmap.org","min_zoom":8.0,"shield_text":"10","ref":"10"},"arcs":[[4],[5],[6]]},{"type":"LineString","properties":{"kind":"major_road","network":"CA:NL:R","sort_rank":380,"kind_detail":"primary","source":"openstreetmap.org","min_zoom":8.0,"landuse_kind":"nature_reserve","shield_text":"10","ref":"10","id":151918658},"arcs":[7]}]},"earth":{"type":"GeometryCollection","geometries":[{"type":"Polygon","properties":{"sort_rank":10,"source":"naturalearthdata.com","kind":"earth","min_zoom":0.0,"id":3534},"arcs":[[8]]}]},"landuse":{"type":"GeometryCollection","geometries":[{"type":"Polygon","properties":{"kind":"nature_reserve","area":2307000064,"sort_rank":23,"source":"openstreetmap.org","min_zoom":4.0,"tier":2,"id":-2054180,"osm_relation":true},"arcs":[[9]]},{"type":"MultiPolygon","properties":{"source":"openstreetmap.org","kind":"nature_reserve","tier":2,"area":62738397,"sort_rank":23,"min_zoom":8.0,"osm_relation":true},"arcs":[[[10]],[[11]]]}]}},"type":"Topology","transform":{"translate":[-53.4375,46.0732306254],"scale":[0.0003433228,0.0002360721]},"arcs":[[[0,1526],[247,104],[386,-119],[311,9],[403,156],[214,157],[440,614],[176,305],[143,365],[28,237],[137,474],[36,268]],[[0,2477],[102,79],[182,38],[130,101],[210,-306],[143,-43],[193,83],[435,657],[101,244],[-16,193],[79,151],[10,152],[116,270]],[[0,2586],[14,16],[46,42],[80,111],[45,48],[54,17],[-80,-171],[-19,-63],[55,88],[32,38],[32,16],[15,-21],[17,-44],[19,-36],[20,3],[74,112],[47,52],[49,26],[-5,-103],[40,-133],[63,-125],[61,-78],[54,-33],[47,-10],[98,17],[150,87],[71,67],[104,299],[64,67],[7,5],[83,24],[19,29],[32,73],[57,36],[11,51],[4,58],[18,43],[-12,84],[23,90],[32,93],[16,95],[80,163],[-10,27],[-24,12],[-13,28],[8,29],[39,17],[-37,75],[17,48],[101,82],[0,29],[-18,17],[-9,13],[2425,0],[0,-4096],[-4096,0],[0,2586]],[[0,2586],[14,16],[46,42],[80,111],[45,48],[54,17],[-80,-171],[-19,-63],[55,88],[32,38],[32,16],[15,-21],[17,-44],[19,-36],[20,3],[74,112],[47,52],[49,26],[-5,-103],[40,-133],[63,-125],[61,-78],[54,-33],[47,-10],[98,17],[150,87],[71,67],[104,299],[64,67],[7,5],[83,24],[19,29],[32,73],[57,36],[11,51],[4,58],[18,43],[-12,84],[23,90],[32,93],[16,95],[80,163],[-10,27],[-24,12],[-13,28],[8,29],[39,17],[-37,75],[17,48],[101,82],[0,29],[-18,17],[-9,13]],[[1065,3059],[-168,-97],[-242,-48],[-137,-207],[-44,16],[-8,115],[-254,-24],[36,119],[-104,-36],[-1,-73],[-143,-73]],[[512,2707],[2,-1]],[[1597,4096],[17,-54],[-40,-28],[-167,-55],[-57,37],[-28,-23],[1,-77],[78,-93],[44,-232],[-19,-43],[39,-95],[-27,-86],[-77,-31],[-137,-222],[-66,-4]],[[1158,3090],[-93,-31]],[[1671,4096],[9,-13],[18,-17],[0,-29],[-101,-82],[-17,-48],[37,-75],[-39,-17],[-8,-29],[13,-28],[24,-12],[10,-27],[-80,-163],[-16,-95],[-32,-93],[-23,-90],[12,-84],[-18,-43],[-4,-58],[-11,-51],[-57,-36],[-32,-73],[-19,-29],[-83,-24],[-7,-5],[-64,-67],[-104,-299],[-71,-67],[-150,-87],[-98,-17],[-47,10],[-54,33],[-61,78],[-63,125],[-40,133],[5,103],[-49,-26],[-47,-52],[-74,-112],[-20,-3],[-19,36],[-17,44],[-15,21],[-32,-16],[-32,-38],[-55,-88],[19,63],[80,171],[-54,-17],[-45,-48],[-80,-111],[-46,-42],[-14,-16],[0,1510],[1671,0]],[[0,3716],[124,380],[948,0],[38,-170],[-28,-288],[-169,-140],[-85,-41],[21,-17],[-29,-69],[-400,-14],[-420,-60],[0,419]],[[514,2594],[9,20],[1,-36],[46,-39],[6,-28],[71,-55],[5,-61],[145,-34],[34,40],[55,6],[40,-14],[-66,5],[-58,-62],[-159,42],[-129,216]],[[1065,3059],[89,33],[42,-22],[127,-168],[-39,-13],[-33,35],[-40,-82],[-27,27],[-16,-40],[-103,230]]]}