{"objects":{"water":{"type":"GeometryCollection","geometries":[{"type":"MultiPolygon","properties":{"source":"naturalearthdata.com","kind":"ocean","area":1576712559132672,"sort_rank":200,"min_zoom":0.0,"id":1},"arcs":[[[11]],[[12]]]},{"type":"MultiLineString","properties":{"source":"naturalearthdata.com","kind":"ocean","sort_rank":205,"boundary":true,"min_zoom":0.0,"id":2907},"arcs":[[13],[14]]}]},"buildings":{"type":"GeometryCollection","geometries":[]},"places":{"type":"GeometryCollection","geometries":[{"type":"Point","properties":{"kind":"locality","name":"Santiago de Cuba","kind_detail":"city","source":"openstreetmap.org","min_zoom":8.0,"name:uk":"\u0421\u0430\u043d\u0442\u044c\u044f\u0433\u043e-\u0434\u0435-\u041a\u0443\u0431\u0430","name:ru":"\u0421\u0430\u043d\u0442\u044c\u044f\u0433\u043e-\u0434\u0435-\u041a\u0443\u0431\u0430","id":259846383,"population":431272},"coordinates":[316,2224]},{"type":"Point","properties":{"kind":"locality","name":"Guant\u00e1namo","kind_detail":"city","name:da":"Guantanamo","source":"openstreetmap.org","min_zoom":8.0,"name:ru":"\u0413\u0443\u0430\u043d\u0442\u0430\u043d\u0430\u043c\u043e","id":259846382,"population":217135},"coordinates":[2127,2584]},{"type":"Point","properties":{"source":"openstreetmap.org","kind":"locality","name":"El Salvador","kind_detail":"town","population":45773,"min_zoom":8.0,"id":3577464838},"coordinates":[2057,2814]},{"type":"Point","properties":{"kind":"locality","name":"San Luis","kind_detail":"town","source":"openstreetmap.org","min_zoom":8.0,"name:ru":"\u0421\u0430\u043d-\u041b\u0443\u0438\u0441","id":482605523,"population":34997},"coordinates":[259,2717]},{"type":"Point","properties":{"source":"openstreetmap.org","kind":"locality","name":"San Antonio del Sur","kind_detail":"town","population":26509,"min_zoom":8.0,"id":508053040},"coordinates":[3284,2311]},{"type":"Point","properties":{"source":"openstreetmap.org","kind":"locality","name":"Sagua de T\u00e1namo","kind_detail":"town","population":23979,"min_zoom":8.0,"id":482601844},"coordinates":[2030,3941]},{"type":"Point","properties":{"kind":"locality","name":"La Maya","kind_detail":"town","source":"openstreetmap.org","min_zoom":8.0,"name:ru":"\u041b\u0430-\u041c\u0430\u044f","id":482609671,"population":23341},"coordinates":[849,2655]},{"type":"Point","properties":{"source":"openstreetmap.org","kind":"locality","name":"Palenque de Yateras","kind_detail":"town","population":4630,"min_zoom":8.0,"id":3595961350},"coordinates":[2815,3267]}]},"transit":{"type":"GeometryCollection","geometries":[{"type":"LineString","properties":{"kind":"train","name":"Tren Habana-Guant\u00e1namo","service":"long distance","sort_rank":275,"source":"openstreetmap.org","min_zoom":6.0,"operator":"Ferrocarriles de Cuba (FC)","ref":"15\/16","osm_relation":true},"arcs":[6]},{"type":"LineString","properties":{"kind":"train","name":"Tren Habana-Santiago Nro3\/4","service":"long distance","sort_rank":275,"source":"openstreetmap.org","min_zoom":6.0,"operator":"Ferrocarriles de Cuba (FC)","ref":"3\/4","osm_relation":true},"arcs":[7]},{"type":"LineString","properties":{"kind":"train","name":"Tren Santiago Antilla","service":"local","sort_rank":275,"source":"openstreetmap.org","min_zoom":6.0,"operator":"Ferrocarriles de Cuba (FC)","ref":"658\/659","osm_relation":true},"arcs":[8]},{"type":"LineString","properties":{"kind":"train","name":"Tren Habana-Santiago Nro 1\/2","service":"long distance","sort_rank":275,"source":"openstreetmap.org","min_zoom":6.0,"operator":"Ferrocarriles de Cuba (FC)","ref":"1\/2","osm_relation":true},"arcs":[9]},{"type":"LineString","properties":{"kind":"train","name":"Tren Santiago - Manzanillo","service":"long distance","sort_rank":275,"source":"openstreetmap.org","min_zoom":6.0,"operator":"Ferrocarriles de Cuba (FC)","ref":"Stgo-Mznillo","id":-6532473,"osm_relation":true},"arcs":[10]}]},"pois":{"type":"GeometryCollection","geometries":[{"type":"Point","properties":{"name:pt":"Base Naval da Ba\u00eda de Guant\u00e1namo","name:id":"Pangkalan Laut Teluk Guantanamo","name:ms":"Teluk Guant\u00e1namo","name:ko":"\uad00\ud0c0\ub098\ubaa8 \ub9cc \ud574\uad70 \uae30\uc9c0","name:ar":"\u0642\u0627\u0639\u062f\u0629 \u063a\u0648\u0627\u0646\u062a\u0627\u0646\u0627\u0645\u0648","name:cs":"N\u00e1mo\u0159n\u00ed z\u00e1kladna USA Guantanamsk\u00fd z\u00e1liv","min_zoom":8.0,"name:it":"Base navale di Guant\u00e1namo","name:ru":"\u0412\u043e\u0435\u043d\u043d\u0430\u044f \u0431\u0430\u0437\u0430 \u0413\u0443\u0430\u043d\u0442\u0430\u043d\u0430\u043c\u043e","operator":"United States Navy","name:vi":"C\u0103n c\u1ee9 H\u1ea3i qu\u00e2n v\u1ecbnh Guant\u00e1namo","name:pl":"Naval Station Guantanamo Bay","id":39037988,"name:af":"Guantanamobaai-vlootbasis","name:fa":"\u067e\u0627\u06cc\u06af\u0627\u0647 \u0646\u06cc\u0631\u0648\u06cc \u062f\u0631\u06cc\u0627\u06cc\u06cc \u062e\u0644\u06cc\u062c \u06af\u0648\u0627\u0646\u062a\u0627\u0646\u0627\u0645\u0648","area":186945000,"name:fi":"Guantanamo Bayn laivastotukikohta","name:fo":"Guant\u00e1namo fangalegan","source":"openstreetmap.org","name:fr":"Base navale de la baie de Guant\u00e1namo","name:nl":"Guantanamo Bay","name:ja":"\u30b0\u30a1\u30f3\u30bf\u30ca\u30e2\u7c73\u8ecd\u57fa\u5730","name:si":"\u0d9c\u0dca\u0dc0\u0db1\u0dca\u0da7\u0dcf\u0db1\u0db8\u0ddd \u0db6\u0dda \u0db1\u0dcf\u0dc0\u0dd2\u0d9a \u0d9a\u0db3\u0dc0\u0dd4\u0dbb","name:no":"Guantanamo Bay Naval Station","name:he":"\u05d1\u05e1\u05d9\u05e1 \u05d4\u05e6\u05d9 \u05de\u05e4\u05e8\u05e5 \u05d2\u05d5\u05d0\u05e0\u05d8\u05e0\u05de\u05d5","kind":"military","name:la":"Castra navalia sinus Guantanamensis","name:uk":"\u0412\u0456\u0439\u0441\u044c\u043a\u043e\u0432\u0430 \u0431\u0430\u0437\u0430 \u0413\u0443\u0430\u043d\u0442\u0430\u043d\u0430\u043c\u043e","tier":3,"name:sv":"Guant\u00e1namobasen","name:bg":"\u0412\u043e\u0435\u043d\u043d\u043e\u043c\u043e\u0440\u0441\u043a\u0430 \u0431\u0430\u0437\u0430 \u0413\u0443\u0430\u043d\u0442\u0430\u043d\u0430\u043c\u043e \u0411\u0435\u0439","name:sr":"\u0412\u043e\u0458\u043d\u0430 \u0431\u0430\u0437\u0430 \u0413\u0432\u0430\u043d\u0442\u0430\u043d\u0430\u043c\u043e","name:el":"\u039d\u03b1\u03c5\u03c4\u03b9\u03ba\u03ae \u0392\u03ac\u03c3\u03b7 \u03c4\u03bf\u03c5 \u039a\u03cc\u03bb\u03c0\u03bf\u03c5 \u03c4\u03bf\u03c5 \u0393\u03ba\u03bf\u03c5\u03b1\u03bd\u03c4\u03ac\u03bd\u03b1\u03bc\u03bf","name:eo":"Usona \u015cipbazo \u0109e la Golfo de Gvantanamo","name":"Guantanamo Bay Naval Base","name:eu":"Guantanamoko Badia Basea","name:es":"Base Naval de la Bah\u00eda de Guant\u00e1namo (Territorio ocupado por EE.UU.)"},"coordinates":[2267,1900]},{"type":"Point","properties":{"kind":"national_park","protect_class":"2","area":214024000,"source":"openstreetmap.org","min_zoom":6.92,"tier":1,"id":361220610,"name":"Parque Nacional Pico Cristal"},"coordinates":[1497,3837]},{"type":"Point","properties":{"kind":"national_park","protect_class":"2","area":97107800,"source":"openstreetmap.org","min_zoom":8.0,"tier":1,"id":371986863,"name":"Parque Nacional La Mensura Pilotos"},"coordinates":[257,3619]},{"type":"Point","properties":{"source":"openstreetmap.org","kind":"nature_reserve","name":"Reserva de Biosfera Baconao","area":911550000,"tier":2,"min_zoom":7.37,"id":436806338},"coordinates":[1049,2106]}]},"boundaries":{"type":"GeometryCollection","geometries":[{"type":"LineString","properties":{"name:ka":"\u10d9\u10e3\u10d1\u10d0","name:ko":"\ucfe0\ubc14","name:cv":"\u041a\u0443\u0431\u0430","name:km":"\u1782\u17bb\u1799\u1794\u17b6","name:cs":"Kuba","name:tt":"\u041a\u0443\u0431\u0430","name:kw":"Kuba","name:kv":"\u041a\u0443\u0431\u0430","name:ku":"K\u00fbba","name:tl":"Kuba","name:pa":"\u0a15\u0a3f\u0a0a\u0a2c\u0a3e","name:os":"\u041a\u0443\u0431\u00e6","name:or":"\u0b15\u0b4d\u0b5f\u0b41\u0b2c\u0b3e","name:ce":"\u041a\u0443\u0431\u0430","name:ta":"\u0b95\u0bc2\u0baa\u0bbe","name:tg":"\u041a\u0443\u0431\u043e","name:te":"\u0c15\u0c4d\u0c2f\u0c42\u0c2c\u0c3e","source":"openstreetmap.org","sort_rank":262,"name:qu":"Kuba","name:de":"Kuba","name:tr":"K\u00fcba","name:nv":"Ky\u00f3oba","name:kn":"\u0c95\u0ccd\u0caf\u0cc2\u0cac\u0cbe","name:be":"\u041a\u0443\u0431\u0430","name:dv":"\u0786\u07a8\u0787\u07aa\u0784\u07a7","name:lv":"Kuba","name:lt":"Kuba","name:uz":"Kuba","name:kk":"\u041a\u0443\u0431\u0430","name:he":"\u05e7\u05d5\u05d1\u05d4","name:eo":"Kubo","name:ur":"\u06a9\u06cc\u0648\u0628\u0627","name:lb":"Kuba","name:uk":"\u041a\u0443\u0431\u0430","name:hy":"\u053f\u0578\u0582\u0562\u0561","name:ug":"\u0643\u06c7\u0628\u0627","name:hu":"Kuba","name:ln":"Kuba","name:el":"\u039a\u03bf\u03cd\u03b2\u03b1","kind":"country","name":"Cuba","name:tk":"Kuba","name:bn":"\u0995\u09bf\u0989\u09ac\u09be","name:gd":"C\u00f9ba","min_zoom":8.0,"name:th":"\u0e1b\u0e23\u0e30\u0e40\u0e17\u0e28\u0e04\u0e34\u0e27\u0e1a\u0e32","name:eu":"Kuba","name:et":"Kuuba","name:jv":"Kuba","name:yo":"K\u00fab\u00e0","name:ay":"Kuba","name:mt":"Kuba","name:az":"Kuba","name:id":"Kuba","name:mr":"\u0915\u094d\u092f\u0941\u092c\u093e","name:ar":"\u0643\u0648\u0628\u0627","name:my":"\u1000\u103b\u1030\u1038\u1018\u102c\u1038\u1014\u102d\u102f\u1004\u103a\u1004\u1036","name:io":"Kuba","name:is":"K\u00faba","name:am":"\u12a9\u1263","name:ru":"\u041a\u0443\u0431\u0430","id":-307833,"name:ml":"\u0d15\u0d4d\u0d2f\u0d42\u0d2c","name:rw":"Kiba","name:pl":"Kuba","name:mk":"\u041a\u0443\u0431\u0430","name:af":"Kuba","name:fa":"\u06a9\u0648\u0628\u0627","name:iu":"\u1582\u1439\/quupaa","name:mn":"\u041a\u0443\u0431\u0430","name:ss":"IKhuyubha","kind_detail":"2","name:hi":"\u0915\u094d\u092f\u0942\u092c\u093e","name:fo":"Kuba","name:ba":"\u041a\u0443\u0431\u0430","name:za":"Gujbah","name:zh-yue":"\u53e4\u5df4","name:fy":"Kuba","name:vo":"Kube\u00e4n","name:zh":"\u53e4\u5df4","name:hr":"Kuba","name:so":"Kuuba","name:sl":"Kuba","name:sk":"Kuba","name:ja":"\u30ad\u30e5\u30fc\u30d0","name:si":"\u0d9a\u0dd2\u0dba\u0dd4\u0db6\u0dcf\u0dc0","name:sh":"Kuba","name:na":"Kiuba","name:ne":"\u0915\u094d\u092f\u0941\u092c\u093e","name:br":"Kuba","name:bs":"Kuba","name:yi":"\u05e7\u05d5\u05d1\u05d0","name:wa":"Couba","name:bo":"\u0f40\u0f74\u0f0b\u0f56\u0f0d","name:sa":"\u0915\u094d\u092f\u0942\u092c\u093e","name:sw":"Kuba","name:sv":"Kuba","name:su":"Kuba","name:bg":"\u041a\u0443\u0431\u0430","name:wo":"Kubaa","name:sr":"\u041a\u0443\u0431\u0430","osm_relation":true,"name:sq":"Kuba","name:ga":"C\u00faba","name:bm":"Kuba","name:ht":"Kiba","name:gn":"Kuva","maritime_boundary":true,"name:gv":"Yn Choobey","name:fi":"Kuuba"},"arcs":[0]},{"type":"LineString","properties":{"name:left":"Santiago de Cuba","kind":"region","name":"Santiago de Cuba - Holgu\u00edn","sort_rank":256,"kind_detail":"4","id:left":-1854638,"name:right:ru":"\u041e\u043b\u044c\u0433\u0438\u043d","source":"openstreetmap.org","min_zoom":8.0,"name:left:ru":"\u0421\u0430\u043d\u0442\u044c\u044f\u0433\u043e-\u0434\u0435-\u041a\u0443\u0431\u0430","id:right":-1854635,"id":-1854638,"osm_relation":true,"name:right":"Holgu\u00edn"},"arcs":[1]},{"type":"LineString","properties":{"kind":"region","name":"Santiago de Cuba","sort_rank":256,"kind_detail":"4","source":"openstreetmap.org","min_zoom":8.0,"name:ru":"\u0421\u0430\u043d\u0442\u044c\u044f\u0433\u043e-\u0434\u0435-\u041a\u0443\u0431\u0430","id":-1854638,"osm_relation":true},"arcs":[2]},{"type":"LineString","properties":{"kind":"region","name":"Santiago de Cuba","sort_rank":256,"kind_detail":"4","min_zoom":8.0,"source":"openstreetmap.org","maritime_boundary":true,"name:ru":"\u0421\u0430\u043d\u0442\u044c\u044f\u0433\u043e-\u0434\u0435-\u041a\u0443\u0431\u0430","id":-1854638,"osm_relation":true},"arcs":[3]},{"type":"LineString","properties":{"kind":"region","name":"Holgu\u00edn","sort_rank":256,"kind_detail":"4","source":"openstreetmap.org","min_zoom":8.0,"name:ru":"\u041e\u043b\u044c\u0433\u0438\u043d","id":-1854635,"osm_relation":true},"arcs":[4]},{"type":"LineString","properties":{"kind":"region","name":"Holgu\u00edn","sort_rank":256,"kind_detail":"4","min_zoom":8.0,"source":"openstreetmap.org","maritime_boundary":true,"name:ru":"\u041e\u043b\u044c\u0433\u0438\u043d","id":-1854635,"osm_relation":true},"arcs":[5]}]},"roads":{"type":"GeometryCollection","geometries":[{"type":"MultiLineString","properties":{"source":"openstreetmap.org","kind":"major_road","sort_rank":380,"kind_detail":"primary","ref":"CN","min_zoom":8.0},"arcs":[[15],[16],[17],[18]]},{"type":"MultiLineString","properties":{"sort_rank":380,"kind_detail":"primary","min_zoom":8.0,"kind":"major_road","source":"openstreetmap.org"},"arcs":[[19],[20],[21],[22],[23],[24],[25],[26],[27],[28],[29],[30],[31],[32],[33],[34],[35],[36],[37],[38],[39],[40],[41],[42],[43],[44],[45],[46],[47],[48],[49],[50],[51],[52],[53],[54],[55],[56],[57],[58],[59],[60],[61],[62],[63],[64],[65],[66],[67],[68],[69],[70],[71],[72]]},{"type":"MultiLineString","properties":{"source":"openstreetmap.org","kind":"major_road","sort_rank":380,"kind_detail":"primary","ref":"CC","min_zoom":8.0},"arcs":[[73],[74],[75],[76],[77],[78]]},{"type":"MultiLineString","properties":{"sort_rank":383,"kind_detail":"motorway","min_zoom":8.0,"kind":"highway","source":"openstreetmap.org"},"arcs":[[79],[80]]},{"type":"MultiLineString","properties":{"kind":"highway","network":"cu:national","sort_rank":383,"kind_detail":"motorway","source":"openstreetmap.org","min_zoom":8.0,"all_networks":["cu:national"],"shield_text":"1","ref":"A1","all_shield_texts":["1"]},"arcs":[[81],[82],[83],[84],[85],[86]]},{"type":"MultiLineString","properties":{"source":"openstreetmap.org","bus_network":"7","bus_shield_text":"7","sort_rank":380,"kind_detail":"primary","min_zoom":8.0,"kind":"major_road"},"arcs":[[87],[88],[89],[90],[91]]},{"type":"MultiLineString","properties":{"source":"openstreetmap.org","kind":"major_road","sort_rank":380,"kind_detail":"primary","ref":"6-20","min_zoom":8.0},"arcs":[[92],[93],[94]]},{"type":"MultiLineString","properties":{"kind":"major_road","network":"cu:national","sort_rank":381,"kind_detail":"trunk","source":"openstreetmap.org","min_zoom":8.0,"shield_text":"1","ref":"A1"},"arcs":[[95],[96]]},{"type":"MultiLineString","properties":{"sort_rank":355,"source":"openstreetmap.org","min_zoom":8.0,"kind":"ferry"},"arcs":[[97],[98]]},{"type":"MultiLineString","properties":{"source":"openstreetmap.org","kind":"major_road","sort_rank":380,"kind_detail":"primary","is_bicycle_related":true,"min_zoom":8.0},"arcs":[[99],[100],[101]]},{"type":"MultiLineString","properties":{"kind":"major_road","network":"cu:national","sort_rank":380,"kind_detail":"primary","source":"openstreetmap.org","min_zoom":8.0,"shield_text":"C","ref":"CC"},"arcs":[[102],[103],[104],[105],[106]]},{"type":"LineString","properties":{"source":"openstreetmap.org","kind":"major_road","landuse_kind":"park","sort_rank":380,"kind_detail":"primary","ref":"CN","min_zoom":8.0},"arcs":[107]},{"type":"MultiLineString","properties":{"source":"openstreetmap.org","bus_network":null,"bus_shield_text":"5","sort_rank":380,"kind_detail":"primary","min_zoom":8.0,"kind":"major_road"},"arcs":[[108],[109],[110],[111],[112]]},{"type":"LineString","properties":{"source":"openstreetmap.org","kind":"ferry","sort_rank":355,"landuse_kind":"military","min_zoom":8.0,"id":39045436},"arcs":[113]}]},"earth":{"type":"GeometryCollection","geometries":[{"type":"MultiPolygon","properties":{"sort_rank":10,"source":"naturalearthdata.com","min_zoom":0.0,"kind":"earth","area":18407609132},"arcs":[[[114]]]}]},"landuse":{"type":"GeometryCollection","geometries":[{"type":"Polygon","properties":{"kind":"park","protect_class":"98","area":759112000,"sort_rank":24,"source":"openstreetmap.org","min_zoom":6.0,"tier":2,"id":-2822775,"osm_relation":true},"arcs":[[115]]},{"type":"Polygon","properties":{"kind":"military","area":186944992,"sort_rank":45,"operator":"United States Navy","source":"openstreetmap.org","min_zoom":8.0,"tier":3,"id":39037988},"arcs":[[116]]},{"type":"Polygon","properties":{"kind":"national_park","protect_class":"2","area":97107800,"sort_rank":18,"source":"openstreetmap.org","min_zoom":8.0,"tier":1,"id":371986863},"arcs":[[117]]},{"type":"Polygon","properties":{"kind":"national_park","protect_class":"2","area":214024000,"sort_rank":18,"source":"openstreetmap.org","min_zoom":5.0,"tier":1,"id":361220610},"arcs":[[118]]},{"type":"Polygon","properties":{"source":"openstreetmap.org","kind":"nature_reserve","area":911550016,"tier":2,"id":436806338,"min_zoom":6.0,"sort_rank":23},"arcs":[[119]]}]}},"type":"Topology","transform":{"translate":[-75.9375,19.3111433551],"scale":[0.0003433228,0.0003226662]},"arcs":[[[0,1378],[160,17],[704,-203],[275,-41],[589,-19],[590,41],[439,57],[1339,305]],[[1632,3441],[-40,85],[-84,50],[-10,53],[44,9],[4,43],[49,12],[2,129],[-34,-21],[-56,21],[-62,-29],[-108,27],[-108,-96],[-44,17],[-52,-48],[-162,12],[-26,-35],[13,-39],[-58,-101],[-55,-2],[-1,-47],[-83,11],[-52,-26],[-131,44],[-32,42],[-254,-159],[-66,5],[-103,161],[-113,43],[47,54],[-57,24]],[[1751,1699],[-88,125],[-24,-6],[-80,61],[-43,74],[-82,48],[-30,59],[-51,18],[-54,82],[1,199],[52,-37],[27,24],[-4,54],[145,65],[-66,46],[-37,-40],[-18,35],[45,25],[-40,31],[21,9],[-29,11],[5,33],[-52,30],[-6,94],[35,90],[-18,39],[8,38],[28,8],[-34,71],[36,71],[-51,88],[85,85],[50,5],[54,152],[42,-24],[50,16],[4,63]],[[0,1378],[160,17],[704,-203],[209,-35],[590,-26],[446,27],[-210,367],[-148,174]],[[1632,3441],[48,-8],[30,69],[49,3],[130,-129],[80,46],[-5,-35],[69,-61],[27,164],[56,104],[64,4],[5,-32],[52,-4],[140,60],[163,-60],[79,-89],[54,-1],[20,28],[18,-17],[-19,-29],[36,17],[15,-17],[-26,-20],[56,-43],[23,46],[-55,51],[13,69],[120,42],[58,-33],[13,-57],[83,-33],[-4,-22],[91,2],[58,-34],[24,26],[55,-6],[-3,30],[53,42],[20,-24],[48,19],[-25,74],[20,106],[15,22],[32,-15],[-21,18],[81,87],[38,-18],[2,37],[128,122]],[[3640,3942],[108,154]],[[0,3377],[110,-108],[35,-122],[-14,-113],[41,-68],[5,-78],[62,-123],[70,-54],[237,15],[69,51],[22,-29],[89,18],[140,-60],[224,6],[110,-33],[68,30],[86,-20],[63,20],[80,-22],[178,148],[67,4],[71,40],[132,-46],[219,-154],[33,-53],[-59,-34]],[[0,3377],[113,-116],[32,-114],[-14,-113],[41,-68],[38,-159],[99,-96],[98,9],[151,-224],[-53,-75],[-106,-13],[-56,-89],[-77,-25],[-16,-43],[51,-21]],[[0,3377],[113,-116],[32,-114],[-14,-113],[41,-68],[38,-159],[99,-96],[98,9],[151,-224],[-53,-75],[-106,-13],[-56,-89],[-77,-25],[-16,-43],[51,-21]],[[0,3377],[113,-116],[32,-114],[-14,-113],[41,-68],[38,-159],[99,-96],[98,9],[151,-224],[-53,-75],[-106,-13],[-56,-89],[-77,-25],[-16,-43],[51,-21]],[[301,2230],[-51,21],[16,43],[77,25],[55,88],[104,12],[54,52],[-83,173],[-75,80],[-141,-12],[-62,-58],[-195,-20]],[[0,2030],[16,5],[111,13],[60,-7],[113,-31],[56,-7],[208,8],[64,-8],[102,-53],[120,-86],[119,-64],[97,15],[60,-36],[87,-17],[94,-2],[79,11],[18,9],[24,29],[8,6],[20,-3],[29,-16],[97,-22],[32,-3],[288,18],[150,36],[6,1],[68,17],[48,2],[-3,11],[-40,5],[-35,24],[-1,14],[11,7],[16,10],[16,-3],[5,-17],[17,-3],[8,16],[27,20],[34,7],[45,10],[-19,35],[-23,22],[8,28],[24,13],[3,22],[36,20],[-13,32],[-6,14],[-6,-13],[-8,-11],[-12,-3],[-19,5],[-15,5],[-10,32],[6,30],[17,37],[44,17],[31,-16],[23,-14],[21,38],[18,32],[28,42],[59,12],[5,-80],[18,-30],[-16,-36],[-35,-66],[-37,-7],[-43,-30],[-16,-15],[-13,-35],[17,-21],[11,-8],[39,36],[35,-24],[10,-19],[-9,-33],[-40,5],[-14,-12],[-69,-52],[-33,-15],[-19,-16],[-3,-51],[10,-18],[71,4],[87,16],[46,-2],[74,24],[0,30],[9,22],[15,4],[21,-11],[16,-36],[103,12],[94,35],[48,75],[17,64],[24,25],[40,7],[69,2],[64,17],[50,40],[46,48],[50,43],[72,33],[72,7],[219,38],[184,-29],[91,38],[112,-21],[143,33],[0,-2316],[-4096,0],[0,2030]],[[4096,3347],[-37,39],[-10,20],[-22,13],[-92,128],[-31,66],[-23,27],[-133,85],[-56,45],[-10,41],[-106,35],[-16,12],[-19,15],[-19,11],[-12,1],[-7,9],[-2,34],[-42,74],[12,5],[30,16],[-46,32],[-60,19],[-183,22],[884,0],[0,-749]],[[4096,3347],[-37,39],[-10,20],[-22,13],[-92,128],[-31,66],[-23,27],[-133,85],[-56,45],[-10,41],[-106,35],[-16,12],[-19,15],[-19,11],[-12,1],[-7,9],[-2,34],[-42,74],[12,5],[30,16],[-46,32],[-60,19],[-183,22]],[[0,2030],[16,5],[111,13],[60,-7],[113,-31],[56,-7],[208,8],[64,-8],[102,-53],[120,-86],[119,-64],[97,15],[60,-36],[87,-17],[94,-2],[79,11],[18,9],[24,29],[8,6],[20,-3],[29,-16],[97,-22],[32,-3],[288,18],[150,36],[6,1],[68,17],[48,2],[-3,11],[-40,5],[-35,24],[-1,14],[11,7],[16,10],[16,-3],[5,-17],[17,-3],[8,16],[27,20],[34,7],[45,10],[-19,35],[-23,22],[8,28],[24,13],[3,22],[36,20],[-13,32],[-6,14],[-6,-13],[-8,-11],[-12,-3],[-19,5],[-15,5],[-10,32],[6,30],[17,37],[44,17],[31,-16],[23,-14],[21,38],[18,32],[28,42],[59,12],[5,-80],[18,-30],[-16,-36],[-35,-66],[-37,-7],[-43,-30],[-16,-15],[-13,-35],[17,-21],[11,-8],[39,36],[35,-24],[10,-19],[-9,-33],[-40,5],[-14,-12],[-69,-52],[-33,-15],[-19,-16],[-3,-51],[10,-18],[71,4],[87,16],[46,-2],[74,24],[0,30],[9,22],[15,4],[21,-11],[16,-36],[103,12],[94,35],[48,75],[17,64],[24,25],[40,7],[69,2],[64,17],[50,40],[46,48],[50,43],[72,33],[72,7],[219,38],[184,-29],[91,38],[112,-21],[143,33]],[[1938,4096],[28,-19],[21,-56],[-16,-32],[79,-90],[32,41],[266,58],[67,-14],[92,22],[89,-52],[46,35],[45,107]],[[3463,3959],[-31,38],[-110,35],[-142,14],[-65,50]],[[4049,3358],[-8,80],[-32,4],[-115,189],[-94,2],[2,51],[-56,19]],[[4096,3294],[-51,59]],[[0,3447],[41,-115],[-12,-78],[40,-101],[-25,-153],[-44,-40]],[[305,2144],[-32,-61]],[[273,2081],[10,-31],[-7,31]],[[276,2083],[29,61]],[[293,2185],[18,-2]],[[304,2234],[0,-1]],[[304,2233],[0,-8]],[[304,2226],[0,7]],[[305,2144],[3,29]],[[308,2173],[3,10]],[[311,2183],[18,5]],[[336,2205],[0,-3]],[[337,2205],[0,1]],[[337,2205],[2,2]],[[338,2202],[-1,3]],[[340,2224],[0,-1]],[[342,2209],[0,-7]],[[370,2261],[-13,-7]],[[357,2254],[-1,0]],[[356,2254],[-5,-3]],[[351,2251],[5,3]],[[356,2254],[1,0]],[[357,2254],[14,7]],[[354,2260],[-96,29],[95,-29]],[[354,2259],[2,-5]],[[356,2254]],[[356,2254],[11,-24],[7,-16]],[[355,2261],[-1,-1]],[[375,2214],[-18,40]],[[357,2254]],[[357,2254],[-3,5]],[[365,2288],[-1,-6]],[[376,2212],[35,-11]],[[385,2227],[-9,-13]],[[385,2227],[1,3]],[[386,2229],[-1,-2]],[[411,2201],[6,-11],[4,-4],[73,-8],[-83,23]],[[517,2492],[132,93],[38,95]],[[977,2630],[33,18]],[[1732,2554],[14,-25]],[[2089,2656],[2,-6]],[[2091,2652],[-2,4]],[[2094,2568],[12,24]],[[2185,2606],[-48,19]],[[2164,2581],[-9,0]],[[2160,2580],[1,0]],[[2161,2606],[24,0]],[[2166,2582],[-1,-1]],[[2185,2606],[-19,-23]],[[2169,2584],[16,21]],[[276,2083],[-3,1],[0,-3],[2,0],[1,2]],[[2089,2658],[-1,1],[-1,-1],[1,-1],[1,1]],[[2185,2606]],[[2185,2606],[0,-1],[1,0],[-1,1]],[[342,2209],[6,36]],[[348,2245],[6,14]],[[354,2259],[-6,-14]],[[354,2259],[1,1],[-1,0],[0,-1]],[[355,2260],[9,26]],[[430,2686],[9,-30]],[[276,2081],[93,47],[57,72],[4,50],[-21,30],[-39,-19]],[[371,2261],[37,18],[18,-78],[-58,-73],[-90,-45]],[[386,2230],[12,37],[5,117],[116,58],[0,3]],[[519,2445],[-1,27]],[[518,2472],[0,21],[-7,54],[-16,16],[-40,82],[-2,1],[-86,27],[-150,20],[236,-47],[42,-83],[16,-16],[7,-75]],[[518,2472],[3,-26],[-2,-1]],[[519,2445],[-92,-31],[-24,-30],[-17,-155]],[[2086,2657],[-257,-111],[-149,15],[-190,-18],[339,2],[257,111]],[[2093,2644],[7,-18]],[[2100,2626],[-7,18]],[[2137,2625],[-20,1]],[[2140,2590],[20,-10]],[[2161,2580],[8,4]],[[268,2238],[-8,3]],[[268,2238],[62,-11]],[[330,2227],[10,-4]],[[0,2818],[149,-105],[68,-20]],[[1010,2648],[212,-29],[178,-67],[90,-9]],[[186,2059],[-17,13],[19,6]],[[2296,2109],[86,-14]],[[293,2185],[14,48]],[[329,2188],[13,14]],[[339,2207],[37,6],[-40,-8]],[[0,2323],[325,35],[37,-11],[2,-61]],[[430,2686],[55,20],[177,-18],[47,-30],[244,-12],[81,-138],[130,-84],[145,-21],[12,35],[62,12],[102,93]],[[1746,2529],[228,41],[115,-11]],[[2089,2559],[4,7],[1,2],[-1,-2],[-4,-7]],[[2187,2606],[127,-82],[-17,-77],[207,-73],[-16,-118],[72,-26],[25,13],[8,-50],[48,-29],[53,7],[151,-109],[101,-5],[135,59],[24,124],[103,68],[208,32],[200,-36],[103,67],[241,-87],[136,46]],[[3746,3703],[-85,24],[-192,133],[16,73],[-22,26]],[[2093,2644],[-2,8]],[[2091,2650],[2,-6]],[[2117,2626],[-17,0]],[[2100,2626],[3,-9]],[[2140,2590],[-34,2],[-3,25]],[[2146,1859],[111,26]],[[4096,3347],[0,-1031],[-143,-33],[-112,21],[-91,-38],[-184,29],[-219,-38],[-72,-7],[-72,-33],[-50,-43],[-46,-48],[-50,-40],[-64,-17],[-69,-2],[-40,-7],[-24,-25],[-17,-64],[-48,-75],[-94,-35],[-103,-12],[-16,36],[-21,11],[-15,-4],[-9,-22],[0,-30],[-74,-24],[-46,2],[-87,-16],[-71,-4],[-10,18],[3,51],[19,16],[33,15],[69,52],[14,12],[40,-5],[9,33],[-10,19],[-35,24],[-39,-36],[-11,8],[-17,21],[13,35],[16,15],[43,30],[37,7],[35,66],[16,36],[-18,30],[-5,80],[-59,-12],[-28,-42],[-18,-32],[-21,-38],[-23,14],[-31,16],[-44,-17],[-17,-37],[-6,-30],[10,-32],[15,-5],[19,-5],[12,3],[8,11],[6,13],[6,-14],[13,-32],[-36,-20],[-3,-22],[-24,-13],[-8,-28],[23,-22],[19,-35],[-45,-10],[-34,-7],[-27,-20],[-8,-16],[-17,3],[-5,17],[-16,3],[-16,-10],[-11,-7],[1,-14],[35,-24],[40,-5],[3,-11],[-48,-2],[-68,-17],[-6,-1],[-150,-36],[-288,-18],[-32,3],[-97,22],[-29,16],[-20,3],[-8,-6],[-24,-29],[-18,-9],[-79,-11],[-94,2],[-87,17],[-60,36],[-97,-15],[-119,64],[-120,86],[-102,53],[-64,8],[-208,-8],[-56,7],[-113,31],[-60,7],[-111,-13],[-16,-5],[0,2066],[3212,0],[183,-22],[60,-19],[46,-32],[-30,-16],[-12,-5],[42,-74],[2,-34],[7,-9],[12,-1],[19,-11],[19,-15],[16,-12],[106,-35],[10,-41],[56,-45],[133,-85],[23,-27],[31,-66],[92,-128],[22,-13],[10,-20],[37,-39]],[[2356,3643],[17,93],[38,1],[18,46],[87,3],[46,-39],[42,20],[116,-76],[261,4],[38,83],[48,-10],[45,66],[40,13],[89,-41],[23,-57],[81,-55],[67,2],[-21,18],[70,77],[-48,123],[74,65],[54,1],[137,-183],[96,-54],[-70,-99],[27,-79],[-43,-68],[41,-14],[65,-101],[-57,-110],[-39,41],[-140,26],[-30,56],[32,24],[-16,10],[-42,-14],[-16,-45],[-41,-9],[-47,-54],[-76,-21],[-116,83],[-64,-21],[-126,49],[-29,-30],[-100,13],[-27,49],[-35,9],[-23,-16],[10,-22],[-134,-71],[-31,70],[69,36],[-40,50],[-52,-16],[-116,118],[-107,17],[-45,39]],[[2053,1731],[2,201],[121,122],[302,0],[1,-317],[-426,-6]],[[115,3623],[76,36],[-6,86],[33,60],[55,18],[72,-17],[-47,-3],[-17,-152],[108,33],[-39,-180],[93,4],[1,55],[86,1],[-1,82],[70,3],[1,58],[49,8],[58,-31],[-43,-64],[-69,-5],[-30,-34],[9,-28],[-71,-9],[-168,-132],[-56,48],[-7,78],[-36,10],[-10,42],[-111,33]],[[1169,3843],[40,87],[76,-15],[-7,25],[38,6],[-12,40],[66,47],[57,-114],[43,28],[66,-18],[31,26],[28,-6],[-12,-25],[26,1],[54,30],[47,-38],[3,-50],[77,19],[37,-17],[14,-144],[-53,-72],[-32,9],[-17,60],[-74,-54],[13,-15],[-47,-11],[-26,40],[17,14],[-92,-14],[-72,20],[-76,61],[-72,-7],[-46,-57],[-56,15],[-39,129]],[[321,2026],[39,-2],[14,35],[123,2],[61,36],[65,-10],[-21,67],[-70,58],[1,109],[-63,22],[-17,60],[112,42],[29,-56],[64,-37],[50,64],[69,-5],[13,44],[86,19],[73,-5],[3,-32],[37,-10],[28,-1],[31,40],[115,-79],[33,3],[34,-108],[60,7],[66,-34],[5,-61],[74,3],[58,-133],[87,-63],[177,44],[134,-63],[-5,-30],[-88,-77],[52,-86],[-9,-43],[-335,11],[-65,55],[-65,-50],[-255,-11],[-173,52],[-174,105],[-73,18],[-60,56],[-93,-36],[-115,41],[-110,-4],[-2,43]]]}