{"objects":{"water":{"type":"GeometryCollection","geometries":[{"type":"Polygon","properties":{"source":"naturalearthdata.com","kind":"ocean","area":1576712559132672,"sort_rank":200,"min_zoom":0.0,"id":1},"arcs":[[1]]}]},"buildings":{"type":"GeometryCollection","geometries":[]},"places":{"type":"GeometryCollection","geometries":[]},"transit":{"type":"GeometryCollection","geometries":[]},"pois":{"type":"GeometryCollection","geometries":[]},"boundaries":{"type":"GeometryCollection","geometries":[{"type":"LineString","properties":{"name:sk":"Jamajka","name:cs":"Jamajka","name:eo":"Jamajko","name:io":"Jamaika","min_zoom":8.0,"name:uk":"\u042f\u043c\u0430\u0439\u043a\u0430","name:ru":"\u042f\u043c\u0430\u0439\u043a\u0430","name:pl":"Jamajka","name:ta":"\u0b9c\u0bae\u0bc7\u0b95\u0bcd\u0b95\u0bbe","name:hr":"Jamajka","id":-555017,"osm_relation":true,"name:vo":"Cameke\u00e4n","kind":"country","name":"Jamaica","sort_rank":262,"kind_detail":"2","name:fr":"Jama\u00efque","name:de":"Jamaika","source":"openstreetmap.org","maritime_boundary":true,"name:fy":"Jamaika"},"arcs":[0]}]},"roads":{"type":"GeometryCollection","geometries":[]},"earth":{"type":"GeometryCollection","geometries":[]},"landuse":{"type":"GeometryCollection","geometries":[]}},"type":"Topology","transform":{"translate":[-75.9375,16.6361918784],"scale":[0.0003433228,0.0003277689]},"arcs":[[[0,1696],[218,96],[173,160],[86,142],[57,264],[-45,237],[-489,1201]],[[4096,0],[-4096,0],[0,4096],[4096,0],[0,-4096]]]}