{"objects":{"water":{"type":"GeometryCollection","geometries":[{"type":"Polygon","properties":{"source":"naturalearthdata.com","kind":"ocean","area":1576712559132672,"sort_rank":200,"min_zoom":0.0,"id":1},"arcs":[[1]]}]},"buildings":{"type":"GeometryCollection","geometries":[]},"places":{"type":"GeometryCollection","geometries":[]},"transit":{"type":"GeometryCollection","geometries":[]},"pois":{"type":"GeometryCollection","geometries":[]},"boundaries":{"type":"GeometryCollection","geometries":[{"type":"LineString","properties":{"name:pt":"Col\u00f4mbia","name:ka":"\u10d9\u10dd\u10da\u10e3\u10db\u10d1\u10d8\u10d0","name:rm":"Columbia","name:ko":"\ucf5c\ub86c\ube44\uc544","name:cv":"\u041a\u043e\u043b\u0443\u043c\u0431\u0438","name:km":"\u1780\u17bc\u17a1\u17bb\u17c6\u1794\u17ca\u17b8","name:cs":"Kolumbie","name:tt":"\u041a\u043e\u043b\u0443\u043c\u0431\u0438\u044f","name:kw":"Kolombi","name:ku":"Kolombiya","name:az":"Kolumbiya","name:pa":"\u0a15\u0a4b\u0a32\u0a70\u0a2c\u0a40\u0a06","name:os":"\u041a\u043e\u043b\u0443\u043c\u0431\u0438","name:or":"\u0b15\u0b32\u0b4b\u0b2e\u0b4d\u0b2c\u0b3f\u0b06","name:ce":"\u041a\u043e\u043b\u0443\u043c\u0431\u0438","name:ta":"\u0b95\u0bca\u0bb2\u0bca\u0bae\u0bcd\u0baa\u0bbf\u0baf\u0bbe","name:tg":"\u041a\u0443\u043b\u0443\u043c\u0431\u0438\u044f","name:ca":"Col\u00f2mbia","name:te":"\u0c15\u0c4a\u0c32\u0c02\u0c2c\u0c3f\u0c2f\u0c3e","source":"openstreetmap.org","sort_rank":262,"name:qu":"Kulumbya","name:de":"Kolumbien","name:dz":"\u0f40\u0f7c\u0f0b\u0f63\u0f7c\u0f58\u0f0b\u0f56\u0f72\u0f0b\u0f61","name:tr":"Kolombiya","name:nv":"Kol\u00e1mbiya","name:xh":"IsiColombia","name:kn":"\u0c95\u0cca\u0cb2\u0cca\u0c82\u0cac\u0cbf\u0caf","name:dv":"\u0786\u07ae\u078d\u07a6\u0782\u07b0\u0784\u07a8\u0787\u07a7","name:ba":"\u041a\u043e\u043b\u0443\u043c\u0431\u0438\u044f","name:lv":"Kolumbija","name:lt":"Kolumbija","name:uz":"Kolumbiya","name:kk":"\u041a\u043e\u043b\u0443\u043c\u0431\u0438\u044f \u0420\u0435\u0441\u043f\u0443\u0431\u043b\u0438\u043a\u0430\u0441\u044b","name:he":"\u05e7\u05d5\u05dc\u05d5\u05de\u05d1\u05d9\u05d4","name:eo":"Kolombio","name:ur":"\u06a9\u0648\u0644\u0645\u0628\u06cc\u0627","name:lb":"Kolumbien","name:la":"Columbia","name:io":"Kolumbia","name:uk":"\u041a\u043e\u043b\u0443\u043c\u0431\u0456\u044f","name:hy":"\u053f\u0578\u056c\u0578\u0582\u0574\u0562\u056b\u0561","name:ug":"\u0643\u0648\u0644\u0648\u0645\u0628\u0649\u064a\u06d5","name:hu":"Kolumbia","name:ln":"Kolombi","name:oc":"Col\u00f3mbia","name:el":"\u039a\u03bf\u03bb\u03bf\u03bc\u03b2\u03af\u03b1","kind":"country","name":"Colombia","min_zoom":8.0,"name:th":"\u0e1b\u0e23\u0e30\u0e40\u0e17\u0e28\u0e42\u0e04\u0e25\u0e2d\u0e21\u0e40\u0e1a\u0e35\u0e22","name:eu":"Kolonbia","name:jv":"Kolombia","name:yo":"K\u00f2l\u00f3mb\u00ec\u00e0","name:ay":"Kuluwya","name:mt":"Kolombja","name:ro":"Columbia","name:ie":"Columbia","name:id":"Kolombia","name:mr":"\u0915\u094b\u0932\u0902\u092c\u093f\u092f\u093e","name:ar":"\u0643\u0648\u0644\u0648\u0645\u0628\u064a\u0627","name:my":"\u1000\u102d\u102f\u101c\u1036\u1018\u102e\u101a\u102c\u1014\u102d\u102f\u1004\u103a\u1004\u1036","official_name":"Rep\u00fablica de Colombia","name:is":"K\u00f3lumb\u00eda","name:am":"\u12ae\u120e\u121d\u1262\u12eb","name:ru":"\u041a\u043e\u043b\u0443\u043c\u0431\u0438\u044f","id":-120027,"name:ml":"\u0d15\u0d4a\u0d33\u0d02\u0d2c\u0d3f\u0d2f","name:rw":"Kolombiya","name:pl":"Kolumbia","name:mk":"\u041a\u043e\u043b\u0443\u043c\u0431\u0438\u0458\u0430","name:vo":"Kolumb\u00e4n","name:zu":"IKolombiya","name:mn":"\u041a\u043e\u043b\u0443\u043c\u0431","kind_detail":"2","name:hi":"\u0915\u094b\u0932\u092e\u094d\u092c\u093f\u092f\u093e","name:mg":"Kolombia","name:fo":"Kolumbia","name:fr":"Colombie","name:zh-yue":"\u54e5\u502b\u6bd4\u4e9e","name:fy":"Kolombia","name:zh":"\u54e5\u4f26\u6bd4\u4e9a","name:hr":"Kolumbija","name:so":"Kolombiya","name:sl":"Kolumbija","name:sk":"Kolumbia","name:ja":"\u30b3\u30ed\u30f3\u30d3\u30a2","name:sh":"Kolumbija","name:na":"Korombiya","name:se":"Kolombia","name:ne":"\u0915\u094b\u0932\u092e\u094d\u092c\u093f\u092f\u093e","name:sa":"\u0915\u094b\u0932\u094b\u092e\u094d\u092c\u093f\u092f\u093e","name:bs":"Kolumbija","name:yi":"\u05e7\u05d0\u05dc\u05d0\u05de\u05d1\u05d9\u05e2","name:bn":"\u0995\u09b2\u09ae\u09cd\u09ac\u09bf\u09af\u09bc\u09be","name:bo":"\u0f41\u0f7c\u0f0b\u0f63\u0f7c\u0f58\u0f0b\u0f56\u0f72\u0f0b\u0f61\u0f0d","name:br":"Kolombia","name:sw":"Kolombia","name:be":"\u041a\u0430\u043b\u0443\u043c\u0431\u0456\u044f","name:su":"Kolombia","name:bg":"\u041a\u043e\u043b\u0443\u043c\u0431\u0438\u044f","name:wo":"Koloombi","name:sr":"\u041a\u043e\u043b\u0443\u043c\u0431\u0438\u0458\u0430","osm_relation":true,"name:sq":"Kolumbia","name:ga":"An Chol\u00f3im","name:gd":"Coloimbia","name:ht":"Kolonbi","name:gn":"Kol\u00f3mbia","name:fa":"\u06a9\u0644\u0645\u0628\u06cc\u0627","maritime_boundary":true,"name:gv":"Yn Cholombey","name:gu":"\u0a95\u0acb\u0ab2\u0aae\u0acd\u0aac\u0abf\u0aaf\u0abe","name:fi":"Kolumbia"},"arcs":[0]}]},"roads":{"type":"GeometryCollection","geometries":[]},"earth":{"type":"GeometryCollection","geometries":[]},"landuse":{"type":"GeometryCollection","geometries":[]}},"type":"Topology","transform":{"translate":[-75.9375,11.1784018737],"scale":[0.0003433228,0.000335977]},"arcs":[[[4096,777],[-1172,-422],[-487,-355]],[[4096,0],[-4096,0],[0,4096],[4096,0],[0,-4096]]]}