{"objects":{"water":{"type":"GeometryCollection","geometries":[{"type":"MultiPolygon","properties":{"source":"naturalearthdata.com","kind":"ocean","area":1576712559132672,"sort_rank":200,"min_zoom":0.0,"id":1},"arcs":[[[16]],[[17],[18]]]},{"type":"MultiLineString","properties":{"source":"naturalearthdata.com","kind":"ocean","sort_rank":205,"boundary":true,"min_zoom":0.0,"id":76},"arcs":[[19],[20]]},{"type":"LineString","properties":{"source":"naturalearthdata.com","kind":"ocean","sort_rank":205,"boundary":true,"min_zoom":0.0,"id":3942},"arcs":[21]}]},"buildings":{"type":"GeometryCollection","geometries":[]},"places":{"type":"GeometryCollection","geometries":[{"type":"Point","properties":{"kind":"region","name":"Atl\u00e1ntico","kind_detail":"state","name:eo":"Atlantiko","source":"openstreetmap.org","min_zoom":4.0,"name:ru":"\u0410\u0442\u043b\u0430\u043d\u0442\u0438\u043a\u043e","id":306394557,"population":2365663},"coordinates":[2731,2827]},{"type":"Point","properties":{"source":"openstreetmap.org","kind":"locality","name":"Barranquilla","kind_detail":"city","population":1109000,"min_zoom":8.0,"id":4184235225},"coordinates":[3308,3508]},{"type":"Point","properties":{"kind":"locality","name":"Cartagena","kind_detail":"city","min_zoom":8.0,"official_name":"Cartagena de Indias","source":"openstreetmap.org","name:fr":"Carthag\u00e8ne","name:uk":"\u041a\u0430\u0440\u0442\u0430\u0445\u0435\u043d\u0430","name:ru":"\u041a\u0430\u0440\u0442\u0430\u0445\u0435\u043d\u0430","id":266642215,"population":895400},"coordinates":[1195,1848]},{"type":"Point","properties":{"source":"openstreetmap.org","kind":"locality","name":"Soledad","kind_detail":"town","population":582156,"min_zoom":8.0,"id":1037712072},"coordinates":[3365,3316]},{"type":"Point","properties":{"source":"openstreetmap.org","kind":"locality","name":"Puerto Colombia","kind_detail":"town","population":42631,"min_zoom":8.0,"id":536971730},"coordinates":[2861,3535]},{"type":"Point","properties":{"source":"openstreetmap.org","kind":"locality","name":"Villanueva","kind_detail":"town","population":17622,"min_zoom":8.0,"id":313910111},"coordinates":[1935,1922]}]},"transit":{"type":"GeometryCollection","geometries":[]},"pois":{"type":"GeometryCollection","geometries":[]},"boundaries":{"type":"GeometryCollection","geometries":[{"type":"LineString","properties":{"name:pt":"Col\u00f4mbia","name:ka":"\u10d9\u10dd\u10da\u10e3\u10db\u10d1\u10d8\u10d0","name:rm":"Columbia","name:ko":"\ucf5c\ub86c\ube44\uc544","name:cv":"\u041a\u043e\u043b\u0443\u043c\u0431\u0438","name:km":"\u1780\u17bc\u17a1\u17bb\u17c6\u1794\u17ca\u17b8","name:cs":"Kolumbie","name:tt":"\u041a\u043e\u043b\u0443\u043c\u0431\u0438\u044f","name:kw":"Kolombi","name:ku":"Kolombiya","name:az":"Kolumbiya","name:pa":"\u0a15\u0a4b\u0a32\u0a70\u0a2c\u0a40\u0a06","name:os":"\u041a\u043e\u043b\u0443\u043c\u0431\u0438","name:or":"\u0b15\u0b32\u0b4b\u0b2e\u0b4d\u0b2c\u0b3f\u0b06","name:ce":"\u041a\u043e\u043b\u0443\u043c\u0431\u0438","name:ta":"\u0b95\u0bca\u0bb2\u0bca\u0bae\u0bcd\u0baa\u0bbf\u0baf\u0bbe","name:tg":"\u041a\u0443\u043b\u0443\u043c\u0431\u0438\u044f","name:ca":"Col\u00f2mbia","name:te":"\u0c15\u0c4a\u0c32\u0c02\u0c2c\u0c3f\u0c2f\u0c3e","source":"openstreetmap.org","sort_rank":262,"name:qu":"Kulumbya","name:de":"Kolumbien","name:dz":"\u0f40\u0f7c\u0f0b\u0f63\u0f7c\u0f58\u0f0b\u0f56\u0f72\u0f0b\u0f61","name:tr":"Kolombiya","name:nv":"Kol\u00e1mbiya","name:xh":"IsiColombia","name:kn":"\u0c95\u0cca\u0cb2\u0cca\u0c82\u0cac\u0cbf\u0caf","name:dv":"\u0786\u07ae\u078d\u07a6\u0782\u07b0\u0784\u07a8\u0787\u07a7","name:ba":"\u041a\u043e\u043b\u0443\u043c\u0431\u0438\u044f","name:lv":"Kolumbija","name:lt":"Kolumbija","name:uz":"Kolumbiya","name:kk":"\u041a\u043e\u043b\u0443\u043c\u0431\u0438\u044f \u0420\u0435\u0441\u043f\u0443\u0431\u043b\u0438\u043a\u0430\u0441\u044b","name:he":"\u05e7\u05d5\u05dc\u05d5\u05de\u05d1\u05d9\u05d4","name:eo":"Kolombio","name:ur":"\u06a9\u0648\u0644\u0645\u0628\u06cc\u0627","name:lb":"Kolumbien","name:la":"Columbia","name:io":"Kolumbia","name:uk":"\u041a\u043e\u043b\u0443\u043c\u0431\u0456\u044f","name:hy":"\u053f\u0578\u056c\u0578\u0582\u0574\u0562\u056b\u0561","name:ug":"\u0643\u0648\u0644\u0648\u0645\u0628\u0649\u064a\u06d5","name:hu":"Kolumbia","name:ln":"Kolombi","name:oc":"Col\u00f3mbia","name:el":"\u039a\u03bf\u03bb\u03bf\u03bc\u03b2\u03af\u03b1","kind":"country","name":"Colombia","min_zoom":8.0,"name:th":"\u0e1b\u0e23\u0e30\u0e40\u0e17\u0e28\u0e42\u0e04\u0e25\u0e2d\u0e21\u0e40\u0e1a\u0e35\u0e22","name:eu":"Kolonbia","name:jv":"Kolombia","name:yo":"K\u00f2l\u00f3mb\u00ec\u00e0","name:ay":"Kuluwya","name:mt":"Kolombja","name:ro":"Columbia","name:ie":"Columbia","name:id":"Kolombia","name:mr":"\u0915\u094b\u0932\u0902\u092c\u093f\u092f\u093e","name:ar":"\u0643\u0648\u0644\u0648\u0645\u0628\u064a\u0627","name:my":"\u1000\u102d\u102f\u101c\u1036\u1018\u102e\u101a\u102c\u1014\u102d\u102f\u1004\u103a\u1004\u1036","official_name":"Rep\u00fablica de Colombia","name:is":"K\u00f3lumb\u00eda","name:am":"\u12ae\u120e\u121d\u1262\u12eb","name:ru":"\u041a\u043e\u043b\u0443\u043c\u0431\u0438\u044f","id":-120027,"name:ml":"\u0d15\u0d4a\u0d33\u0d02\u0d2c\u0d3f\u0d2f","name:rw":"Kolombiya","name:pl":"Kolumbia","name:mk":"\u041a\u043e\u043b\u0443\u043c\u0431\u0438\u0458\u0430","name:vo":"Kolumb\u00e4n","name:zu":"IKolombiya","name:mn":"\u041a\u043e\u043b\u0443\u043c\u0431","kind_detail":"2","name:hi":"\u0915\u094b\u0932\u092e\u094d\u092c\u093f\u092f\u093e","name:mg":"Kolombia","name:fo":"Kolumbia","name:fr":"Colombie","name:zh-yue":"\u54e5\u502b\u6bd4\u4e9e","name:fy":"Kolombia","name:zh":"\u54e5\u4f26\u6bd4\u4e9a","name:hr":"Kolumbija","name:so":"Kolombiya","name:sl":"Kolumbija","name:sk":"Kolumbia","name:ja":"\u30b3\u30ed\u30f3\u30d3\u30a2","name:sh":"Kolumbija","name:na":"Korombiya","name:se":"Kolombia","name:ne":"\u0915\u094b\u0932\u092e\u094d\u092c\u093f\u092f\u093e","name:sa":"\u0915\u094b\u0932\u094b\u092e\u094d\u092c\u093f\u092f\u093e","name:bs":"Kolumbija","name:yi":"\u05e7\u05d0\u05dc\u05d0\u05de\u05d1\u05d9\u05e2","name:bn":"\u0995\u09b2\u09ae\u09cd\u09ac\u09bf\u09af\u09bc\u09be","name:bo":"\u0f41\u0f7c\u0f0b\u0f63\u0f7c\u0f58\u0f0b\u0f56\u0f72\u0f0b\u0f61\u0f0d","name:br":"Kolombia","name:sw":"Kolombia","name:be":"\u041a\u0430\u043b\u0443\u043c\u0431\u0456\u044f","name:su":"Kolombia","name:bg":"\u041a\u043e\u043b\u0443\u043c\u0431\u0438\u044f","name:wo":"Koloombi","name:sr":"\u041a\u043e\u043b\u0443\u043c\u0431\u0438\u0458\u0430","osm_relation":true,"name:sq":"Kolumbia","name:ga":"An Chol\u00f3im","name:gd":"Coloimbia","name:ht":"Kolonbi","name:gn":"Kol\u00f3mbia","name:fa":"\u06a9\u0644\u0645\u0628\u06cc\u0627","maritime_boundary":true,"name:gv":"Yn Cholombey","name:gu":"\u0a95\u0acb\u0ab2\u0aae\u0acd\u0aac\u0abf\u0aaf\u0abe","name:fi":"Kolumbia"},"arcs":[0]},{"type":"LineString","properties":{"kind":"region","name":"Sucre - Bol\u00edvar","sort_rank":256,"kind_detail":"4","id:right":-1316581,"source":"openstreetmap.org","min_zoom":8.0,"id:left":-1320759,"name:left":"Sucre","id":-1320759,"osm_relation":true,"name:right":"Bol\u00edvar"},"arcs":[1]},{"type":"LineString","properties":{"kind":"region","name":"Sucre","sort_rank":256,"kind_detail":"4","source":"openstreetmap.org","min_zoom":8.0,"id":-1320759,"osm_relation":true},"arcs":[2]},{"type":"LineString","properties":{"kind":"region","name":"Sucre","sort_rank":256,"kind_detail":"4","min_zoom":8.0,"source":"openstreetmap.org","maritime_boundary":true,"id":-1320759,"osm_relation":true},"arcs":[3]},{"type":"LineString","properties":{"kind":"region","name":"Magdalena - Bol\u00edvar","sort_rank":256,"kind_detail":"4","id:right":-1316581,"source":"openstreetmap.org","min_zoom":8.0,"id:left":-1319097,"name:left":"Magdalena","id":-1319097,"osm_relation":true,"name:right":"Bol\u00edvar"},"arcs":[4]},{"type":"MultiLineString","properties":{"kind":"region","name":"Magdalena","sort_rank":256,"kind_detail":"4","source":"openstreetmap.org","min_zoom":8.0,"id":-1319097,"osm_relation":true},"arcs":[[5],[6],[7],[8]]},{"type":"MultiLineString","properties":{"kind":"region","name":"Magdalena","sort_rank":256,"kind_detail":"4","min_zoom":8.0,"source":"openstreetmap.org","maritime_boundary":true,"id":-1319097,"osm_relation":true},"arcs":[[9],[10],[11],[12]]},{"type":"MultiLineString","properties":{"kind":"region","name":"Bol\u00edvar","sort_rank":256,"kind_detail":"4","source":"openstreetmap.org","min_zoom":8.0,"id":-1316581,"osm_relation":true},"arcs":[[13],[14]]},{"type":"LineString","properties":{"kind":"region","name":"Bol\u00edvar","sort_rank":256,"kind_detail":"4","min_zoom":8.0,"source":"openstreetmap.org","maritime_boundary":true,"id":-1316581,"osm_relation":true},"arcs":[15]}]},"roads":{"type":"GeometryCollection","geometries":[{"type":"MultiLineString","properties":{"kind":"major_road","network":"co:national","sort_rank":381,"landuse_kind":"urban_area","source":"openstreetmap.org","min_zoom":8.0,"kind_detail":"trunk","shield_text":"25","ref":"25","nat_name":"Troncal de Occidente"},"arcs":[[22],[23]]},{"type":"MultiLineString","properties":{"kind":"major_road","network":"co:national","sort_rank":380,"kind_detail":"primary","source":"openstreetmap.org","min_zoom":8.0,"shield_text":"90","ref":"90"},"arcs":[[24],[25],[26],[27],[28],[29],[30],[31],[32],[33],[34],[35],[36]]},{"type":"MultiLineString","properties":{"source":"openstreetmap.org","kind":"major_road","sort_rank":380,"kind_detail":"primary","ref":"90A","min_zoom":8.0},"arcs":[[37],[38]]},{"type":"MultiLineString","properties":{"kind":"major_road","sort_rank":381,"landuse_kind":"urban_area","is_bicycle_related":true,"source":"openstreetmap.org","min_zoom":8.0,"kind_detail":"trunk","ref":"90A"},"arcs":[[39],[40],[41],[42]]},{"type":"LineString","properties":{"kind":"major_road","sort_rank":381,"kind_detail":"trunk","is_bicycle_related":true,"bus_network":null,"source":"openstreetmap.org","min_zoom":8.0,"bus_shield_text":"A5-1","landuse_kind":"urban_area","ref":"90","id":401978489},"arcs":[43]},{"type":"MultiLineString","properties":{"source":"openstreetmap.org","kind":"major_road","network":"co:national","sort_rank":380,"kind_detail":"primary","min_zoom":8.0,"shield_text":null},"arcs":[[44],[45]]},{"type":"MultiLineString","properties":{"kind":"major_road","sort_rank":381,"landuse_kind":"urban_area","is_bicycle_related":true,"official_name":"Avenida Sim\u00f3n Bol\u00edvar","source":"openstreetmap.org","min_zoom":8.0,"kind_detail":"trunk","ref":"90"},"arcs":[[46],[47]]},{"type":"LineString","properties":{"kind":"major_road","network":"co:national","sort_rank":380,"kind_detail":"primary","is_bicycle_related":true,"source":"openstreetmap.org","min_zoom":8.0,"landuse_kind":"urban_area","shield_text":"90","ref":"90"},"arcs":[48]},{"type":"MultiLineString","properties":{"bus_network":null,"sort_rank":380,"kind_detail":"primary","kind":"major_road","source":"openstreetmap.org","min_zoom":8.0,"bus_shield_text":"A3-4","landuse_kind":"urban_area"},"arcs":[[49],[50]]},{"type":"LineString","properties":{"kind":"major_road","sort_rank":381,"kind_detail":"trunk","is_bicycle_related":true,"bus_network":null,"source":"openstreetmap.org","min_zoom":8.0,"bus_shield_text":"A8-1","landuse_kind":"urban_area","id":402578452},"arcs":[51]},{"type":"MultiLineString","properties":{"bus_network":null,"sort_rank":380,"kind_detail":"primary","is_bicycle_related":true,"kind":"major_road","source":"openstreetmap.org","min_zoom":8.0,"bus_shield_text":"A9-3","landuse_kind":"urban_area"},"arcs":[[52],[53],[54]]},{"type":"LineString","properties":{"cycleway_right":"lane","sort_rank":380,"kind_detail":"primary","is_bicycle_related":true,"kind":"major_road","source":"openstreetmap.org","min_zoom":8.0,"id":215311861},"arcs":[55]},{"type":"LineString","properties":{"source":"openstreetmap.org","kind":"major_road","network":"co:national","sort_rank":380,"kind_detail":"primary","min_zoom":8.0,"shield_text":"90"},"arcs":[56]},{"type":"MultiLineString","properties":{"kind":"major_road","network":"co:national","sort_rank":381,"kind_detail":"trunk","is_bicycle_related":true,"source":"openstreetmap.org","min_zoom":8.0,"nat_name":"Troncal de Occidente","shield_text":"25","landuse_kind":"urban_area","ref":"25"},"arcs":[[57],[58],[59],[60]]},{"type":"LineString","properties":{"kind":"major_road","sort_rank":380,"kind_detail":"primary","bus_network":null,"source":"openstreetmap.org","min_zoom":8.0,"bus_shield_text":"A5-3","landuse_kind":"urban_area","id":401965768},"arcs":[61]},{"type":"MultiLineString","properties":{"source":"openstreetmap.org","kind":"major_road","landuse_kind":"urban_area","sort_rank":380,"kind_detail":"primary","ref":"90A","min_zoom":8.0},"arcs":[[62],[63],[64],[65],[66],[67],[68],[69],[70],[71],[72]]},{"type":"MultiLineString","properties":{"source":"openstreetmap.org","kind":"major_road","kind_detail":"trunk","sort_rank":381,"landuse_kind":"urban_area","is_bicycle_related":true,"min_zoom":8.0},"arcs":[[73],[74],[75],[76],[77],[78],[79],[80],[81],[82],[83],[84],[85],[86],[87],[88],[89],[90],[91],[92],[93],[94],[95],[96],[97],[98],[99],[100],[101],[102],[103],[104],[105],[106],[107],[108],[109],[110],[111],[112],[113]]},{"type":"MultiLineString","properties":{"bus_network":"Transmetro","sort_rank":381,"landuse_kind":"urban_area","is_bicycle_related":true,"kind":"major_road","source":"openstreetmap.org","min_zoom":8.0,"bus_shield_text":"A3-2","kind_detail":"trunk"},"arcs":[[114],[115]]},{"type":"MultiLineString","properties":{"kind":"major_road","network":"co:national","sort_rank":380,"kind_detail":"primary","source":"openstreetmap.org","min_zoom":8.0,"landuse_kind":"urban_area","shield_text":"90","ref":"90"},"arcs":[[116],[117],[118],[119],[120]]},{"type":"MultiLineString","properties":{"bus_network":"Transmetro","sort_rank":381,"landuse_kind":"urban_area","is_bicycle_related":true,"kind":"major_road","source":"openstreetmap.org","min_zoom":8.0,"bus_shield_text":"S2","kind_detail":"trunk"},"arcs":[[121],[122],[123],[124]]},{"type":"MultiLineString","properties":{"bus_network":"Transmetro","sort_rank":380,"kind_detail":"primary","is_bicycle_related":true,"kind":"major_road","source":"openstreetmap.org","min_zoom":8.0,"bus_shield_text":"A6-1","landuse_kind":"urban_area"},"arcs":[[125],[126]]},{"type":"LineString","properties":{"kind":"major_road","network":"co:national","sort_rank":380,"kind_detail":"primary","source":"openstreetmap.org","min_zoom":8.0,"nat_name":"Troncal del Caribe","shield_text":"90","ref":"90"},"arcs":[127]},{"type":"MultiLineString","properties":{"bus_network":null,"sort_rank":380,"kind_detail":"primary","is_bicycle_related":true,"kind":"major_road","source":"openstreetmap.org","min_zoom":8.0,"bus_shield_text":"U30","landuse_kind":"urban_area"},"arcs":[[128],[129],[130],[131],[132],[133]]},{"type":"MultiLineString","properties":{"source":"openstreetmap.org","kind":"major_road","landuse_kind":"urban_area","sort_rank":380,"kind_detail":"primary","min_zoom":8.0},"arcs":[[134],[135],[136],[137],[138],[139],[140],[141],[142],[143],[144],[145],[146],[147],[148],[149],[150],[151],[152],[153],[154],[155],[156],[157],[158],[159],[160]]},{"type":"MultiLineString","properties":{"sort_rank":355,"source":"openstreetmap.org","min_zoom":8.0,"kind":"ferry"},"arcs":[[161],[162],[163],[164],[165],[166],[167],[168],[169]]},{"type":"LineString","properties":{"sort_rank":355,"landuse_kind":"urban_area","min_zoom":8.0,"kind":"ferry","source":"openstreetmap.org"},"arcs":[170]},{"type":"LineString","properties":{"kind":"major_road","sort_rank":381,"kind_detail":"trunk","is_bicycle_related":true,"bus_network":null,"official_name":"name","source":"openstreetmap.org","min_zoom":8.0,"bus_shield_text":"D8 - 4165","landuse_kind":"urban_area","id":46761137},"arcs":[171]},{"type":"LineString","properties":{"bus_network":"Transmetro","sort_rank":381,"landuse_kind":"urban_area","is_bicycle_related":true,"kind":"major_road","source":"openstreetmap.org","min_zoom":8.0,"bus_shield_text":"A8-3","kind_detail":"trunk"},"arcs":[172]},{"type":"LineString","properties":{"kind":"major_road","network":"co:national","sort_rank":381,"kind_detail":"trunk","source":"openstreetmap.org","min_zoom":8.0,"shield_text":"25","ref":"25"},"arcs":[173]},{"type":"LineString","properties":{"bus_network":"Transmetro","sort_rank":381,"landuse_kind":"urban_area","is_bicycle_related":true,"kind":"major_road","source":"openstreetmap.org","min_zoom":8.0,"bus_shield_text":"A7-4","kind_detail":"trunk","ref":"90A"},"arcs":[174]},{"type":"LineString","properties":{"bus_network":null,"sort_rank":380,"kind_detail":"primary","is_bicycle_related":true,"kind":"major_road","source":"openstreetmap.org","min_zoom":8.0,"bus_shield_text":"A7-3","landuse_kind":"urban_area","ref":"Avenida de los Estudiantes"},"arcs":[175]},{"type":"MultiLineString","properties":{"bus_network":"Transmetro","sort_rank":380,"kind_detail":"primary","is_bicycle_related":true,"kind":"major_road","source":"openstreetmap.org","min_zoom":8.0,"bus_shield_text":"A8-3","landuse_kind":"urban_area"},"arcs":[[176],[177]]},{"type":"MultiLineString","properties":{"bus_network":null,"sort_rank":380,"kind_detail":"primary","is_bicycle_related":true,"kind":"major_road","source":"openstreetmap.org","min_zoom":8.0,"bus_shield_text":"A3-4","landuse_kind":"urban_area"},"arcs":[[178],[179],[180],[181]]},{"type":"MultiLineString","properties":{"kind":"major_road","network":"co:national","sort_rank":381,"kind_detail":"trunk","is_bicycle_related":true,"source":"openstreetmap.org","min_zoom":8.0,"shield_text":"90A","ref":"90A"},"arcs":[[182],[183],[184],[185]]},{"type":"MultiLineString","properties":{"sort_rank":355,"landuse_kind":"park","min_zoom":8.0,"kind":"ferry","source":"openstreetmap.org"},"arcs":[[186],[187],[188]]},{"type":"MultiLineString","properties":{"source":"openstreetmap.org","kind":"major_road","landuse_kind":"urban_area","sort_rank":380,"kind_detail":"primary","is_bicycle_related":true,"min_zoom":8.0},"arcs":[[189],[190],[191],[192],[193],[194],[195],[196],[197],[198],[199],[200],[201],[202],[203],[204],[205],[206],[207],[208],[209],[210],[211],[212],[213],[214],[215],[216],[217],[218],[219],[220],[221],[222],[223],[224],[225],[226],[227]]},{"type":"MultiLineString","properties":{"sort_rank":380,"kind_detail":"primary","min_zoom":8.0,"kind":"major_road","source":"openstreetmap.org"},"arcs":[[228],[229],[230],[231],[232],[233],[234],[235],[236],[237],[238],[239],[240],[241]]},{"type":"MultiLineString","properties":{"bus_network":null,"sort_rank":381,"landuse_kind":"urban_area","is_bicycle_related":true,"kind":"major_road","source":"openstreetmap.org","min_zoom":8.0,"bus_shield_text":"D8 - 4165","kind_detail":"trunk"},"arcs":[[242],[243],[244],[245],[246],[247]]},{"type":"LineString","properties":{"kind":"major_road","sort_rank":381,"kind_detail":"trunk","is_bicycle_related":true,"bus_network":null,"source":"openstreetmap.org","min_zoom":8.0,"bus_shield_text":"A6-6","landuse_kind":"urban_area","ref":"90","id":402006040},"arcs":[248]},{"type":"MultiLineString","properties":{"bus_network":null,"network":"co:national","sort_rank":381,"kind_detail":"trunk","is_bicycle_related":true,"kind":"major_road","source":"openstreetmap.org","min_zoom":8.0,"bus_shield_text":"D8 - 4165","shield_text":"25","landuse_kind":"urban_area","ref":"25","nat_name":"Troncal de Occidente"},"arcs":[[249],[250]]},{"type":"MultiLineString","properties":{"kind":"major_road","network":"co:national","sort_rank":381,"kind_detail":"trunk","is_bicycle_related":true,"source":"openstreetmap.org","min_zoom":8.0,"shield_text":"25","ref":"25"},"arcs":[[251],[252],[253],[254],[255],[256],[257],[258],[259]]},{"type":"MultiLineString","properties":{"kind":"major_road","sort_rank":381,"landuse_kind":"urban_area","is_bicycle_related":true,"official_name":"name","source":"openstreetmap.org","min_zoom":8.0,"kind_detail":"trunk"},"arcs":[[260],[261]]},{"type":"MultiLineString","properties":{"bus_network":null,"sort_rank":380,"kind_detail":"primary","is_bicycle_related":true,"kind":"major_road","source":"openstreetmap.org","min_zoom":8.0,"bus_shield_text":"U30"},"arcs":[[262],[263],[264],[265],[266],[267],[268]]},{"type":"LineString","properties":{"kind":"major_road","network":"co:national","sort_rank":381,"kind_detail":"trunk","source":"openstreetmap.org","min_zoom":8.0,"shield_text":"90","ref":"90"},"arcs":[269]},{"type":"LineString","properties":{"bus_network":null,"sort_rank":380,"kind_detail":"primary","is_bicycle_related":true,"kind":"major_road","source":"openstreetmap.org","min_zoom":8.0,"bus_shield_text":"A7-3","landuse_kind":"urban_area"},"arcs":[270]},{"type":"MultiLineString","properties":{"kind":"major_road","network":"co:national","sort_rank":381,"nat_name":"Troncal del Caribe","is_bicycle_related":true,"source":"openstreetmap.org","min_zoom":8.0,"kind_detail":"trunk","shield_text":"90A","ref":"90A"},"arcs":[[271],[272],[273]]},{"type":"MultiLineString","properties":{"bus_network":"Transmetro","sort_rank":381,"landuse_kind":"urban_area","is_bicycle_related":true,"kind":"major_road","source":"openstreetmap.org","min_zoom":8.0,"bus_shield_text":"R1","kind_detail":"trunk"},"arcs":[[274],[275]]},{"type":"LineString","properties":{"kind":"major_road","network":"co:national","sort_rank":380,"kind_detail":"primary","source":"openstreetmap.org","min_zoom":8.0,"shield_text":"80","ref":"80"},"arcs":[276]},{"type":"MultiLineString","properties":{"source":"openstreetmap.org","kind":"major_road","kind_detail":"trunk","sort_rank":381,"landuse_kind":"urban_area","min_zoom":8.0},"arcs":[[277],[278],[279],[280],[281],[282],[283],[284],[285],[286],[287],[288],[289],[290],[291],[292],[293],[294],[295],[296],[297],[298],[299],[300],[301],[302],[303],[304],[305],[306],[307],[308],[309],[310],[311],[312],[313],[314],[315],[316],[317],[318],[319],[320],[321],[322],[323],[324],[325],[326],[327],[328],[329],[330],[331],[332]]},{"type":"LineString","properties":{"source":"openstreetmap.org","kind":"major_road","service":"driveway","sort_rank":380,"kind_detail":"primary","min_zoom":8.0,"id":219230344},"arcs":[333]},{"type":"LineString","properties":{"bus_network":null,"sort_rank":381,"nat_name":"Troncal de Occidente","is_bicycle_related":true,"kind":"major_road","source":"openstreetmap.org","min_zoom":8.0,"bus_shield_text":"D8 - 4165","kind_detail":"trunk","landuse_kind":"urban_area","ref":"25"},"arcs":[334]},{"type":"MultiLineString","properties":{"kind":"major_road","network":"co:national","sort_rank":381,"landuse_kind":"urban_area","is_bicycle_related":true,"source":"openstreetmap.org","min_zoom":8.0,"kind_detail":"trunk","shield_text":"90A","ref":"90A"},"arcs":[[335],[336],[337],[338]]},{"type":"LineString","properties":{"kind":"major_road","sort_rank":380,"kind_detail":"primary","is_bicycle_related":true,"bus_network":null,"source":"openstreetmap.org","min_zoom":8.0,"bus_shield_text":"A8-1","landuse_kind":"urban_area","id":402578445},"arcs":[339]},{"type":"MultiLineString","properties":{"bus_network":null,"sort_rank":381,"kind_detail":"trunk","is_bicycle_related":true,"kind":"major_road","source":"openstreetmap.org","min_zoom":8.0,"bus_shield_text":"D8 - 4165","landuse_kind":"urban_area","ref":"25"},"arcs":[[340],[341]]},{"type":"MultiLineString","properties":{"bus_network":null,"sort_rank":381,"landuse_kind":"urban_area","is_bicycle_related":true,"kind":"major_road","source":"openstreetmap.org","min_zoom":8.0,"bus_shield_text":"A2-1","kind_detail":"trunk","ref":"90"},"arcs":[[342],[343]]},{"type":"MultiLineString","properties":{"bus_network":null,"sort_rank":381,"landuse_kind":"urban_area","is_bicycle_related":true,"kind":"major_road","official_name":"Avenida Sim\u00f3n Bol\u00edvar","source":"openstreetmap.org","min_zoom":8.0,"bus_shield_text":"A2-1","kind_detail":"trunk","ref":"90"},"arcs":[[344],[345]]},{"type":"LineString","properties":{"bus_network":null,"network":"co:national","sort_rank":381,"kind_detail":"trunk","is_bicycle_related":true,"kind":"major_road","source":"openstreetmap.org","min_zoom":8.0,"bus_shield_text":"D13B","shield_text":"25","landuse_kind":"urban_area","ref":"25","id":407733081,"nat_name":"Troncal de Occidente"},"arcs":[346]},{"type":"LineString","properties":{"kind":"major_road","sort_rank":380,"kind_detail":"primary","is_bicycle_related":true,"source":"openstreetmap.org","min_zoom":8.0,"landuse_kind":"urban_area","ref":"Avenida los estydiantes","id":49238909},"arcs":[347]},{"type":"LineString","properties":{"kind":"major_road","network":"co:national","sort_rank":380,"kind_detail":"primary","source":"openstreetmap.org","min_zoom":8.0,"landuse_kind":"park","shield_text":"90","ref":"90"},"arcs":[348]},{"type":"LineString","properties":{"kind":"major_road","network":"co:national","sort_rank":380,"kind_detail":"primary","source":"openstreetmap.org","min_zoom":8.0,"nat_name":"Transversal del Caribe","shield_text":"90","ref":"90"},"arcs":[349]},{"type":"LineString","properties":{"kind":"major_road","sort_rank":381,"kind_detail":"trunk","is_bicycle_related":true,"bus_network":null,"source":"openstreetmap.org","min_zoom":8.0,"bus_shield_text":"A3-4","landuse_kind":"urban_area","id":178553840},"arcs":[350]},{"type":"LineString","properties":{"kind":"major_road","sort_rank":380,"kind_detail":"primary","is_bicycle_related":true,"bus_network":"Transmetro","source":"openstreetmap.org","min_zoom":8.0,"bus_shield_text":"A7-4","landuse_kind":"urban_area","id":110284789},"arcs":[351]},{"type":"LineString","properties":{"kind":"major_road","sort_rank":381,"kind_detail":"trunk","is_bicycle_related":true,"bus_network":"Transmetro","source":"openstreetmap.org","min_zoom":8.0,"bus_shield_text":"A 7-5","landuse_kind":"urban_area","id":178498540},"arcs":[352]},{"type":"LineString","properties":{"kind":"major_road","network":"co:national","sort_rank":380,"kind_detail":"primary","is_bicycle_related":true,"source":"openstreetmap.org","min_zoom":8.0,"nat_name":"Transversal del Caribe","shield_text":"90","landuse_kind":"urban_area","ref":"90","id":172278405},"arcs":[353]},{"type":"MultiLineString","properties":{"kind":"major_road","network":"co:national","sort_rank":381,"landuse_kind":"urban_area","is_bicycle_related":true,"source":"openstreetmap.org","min_zoom":8.0,"kind_detail":"trunk","shield_text":"90A","ref":"90A","nat_name":"Troncal del Caribe"},"arcs":[[354],[355]]},{"type":"LineString","properties":{"kind":"major_road","network":"co:national","sort_rank":380,"kind_detail":"primary","is_bicycle_related":true,"source":"openstreetmap.org","min_zoom":8.0,"shield_text":"90","ref":"90","id":243079767},"arcs":[356]},{"type":"MultiLineString","properties":{"bus_network":"Transmetro","sort_rank":381,"landuse_kind":"urban_area","is_bicycle_related":true,"kind":"major_road","source":"openstreetmap.org","min_zoom":8.0,"bus_shield_text":"S1","kind_detail":"trunk"},"arcs":[[357],[358],[359],[360]]},{"type":"MultiLineString","properties":{"kind":"major_road","network":"co:national","sort_rank":380,"kind_detail":"primary","source":"openstreetmap.org","min_zoom":8.0,"nat_name":"Transversal del Caribe","shield_text":"90","landuse_kind":"park","ref":"90"},"arcs":[[361],[362]]},{"type":"MultiLineString","properties":{"kind":"major_road","network":"co:national","sort_rank":381,"kind_detail":"trunk","is_bicycle_related":true,"source":"openstreetmap.org","min_zoom":8.0,"nat_name":"Troncal de Occidente","shield_text":"25","ref":"25"},"arcs":[[363],[364],[365],[366],[367],[368],[369],[370]]},{"type":"MultiLineString","properties":{"bus_network":null,"sort_rank":381,"landuse_kind":"urban_area","is_bicycle_related":true,"kind":"major_road","source":"openstreetmap.org","min_zoom":8.0,"bus_shield_text":"U30","kind_detail":"trunk","ref":"90A"},"arcs":[[371],[372]]},{"type":"MultiLineString","properties":{"kind":"major_road","sort_rank":381,"landuse_kind":"urban_area","is_bicycle_related":true,"source":"openstreetmap.org","min_zoom":8.0,"kind_detail":"trunk","ref":"90"},"arcs":[[373],[374],[375],[376],[377],[378]]},{"type":"MultiLineString","properties":{"kind":"major_road","network":"co:national","sort_rank":381,"nat_name":"Troncal del Caribe","source":"openstreetmap.org","min_zoom":8.0,"kind_detail":"trunk","shield_text":"90A","ref":"90A"},"arcs":[[379],[380],[381],[382],[383],[384],[385]]},{"type":"LineString","properties":{"kind":"major_road","sort_rank":380,"kind_detail":"primary","is_bicycle_related":true,"bus_network":"Transmetro","source":"openstreetmap.org","min_zoom":8.0,"bus_shield_text":"A 7-5","landuse_kind":"urban_area","id":111028975},"arcs":[386]},{"type":"MultiLineString","properties":{"kind":"major_road","network":"co:national","sort_rank":380,"kind_detail":"primary","source":"openstreetmap.org","min_zoom":8.0,"nat_name":"Troncal del Caribe","shield_text":"90A","ref":"90A"},"arcs":[[387],[388],[389]]},{"type":"MultiLineString","properties":{"source":"openstreetmap.org","kind":"major_road","landuse_kind":"urban_area","sort_rank":380,"kind_detail":"primary","ref":"90","min_zoom":8.0},"arcs":[[390],[391],[392]]},{"type":"MultiLineString","properties":{"source":"openstreetmap.org","kind":"major_road","sort_rank":380,"kind_detail":"primary","is_bicycle_related":true,"min_zoom":8.0},"arcs":[[393],[394],[395],[396],[397],[398],[399],[400],[401],[402],[403]]},{"type":"MultiLineString","properties":{"kind":"major_road","network":"co:national","sort_rank":380,"kind_detail":"primary","source":"openstreetmap.org","min_zoom":8.0,"nat_name":"Transversal del Caribe","shield_text":"90","landuse_kind":"urban_area","ref":"90"},"arcs":[[404],[405]]},{"type":"MultiLineString","properties":{"kind":"major_road","sort_rank":380,"kind_detail":"primary","is_bicycle_related":true,"source":"openstreetmap.org","min_zoom":8.0,"landuse_kind":"urban_area","ref":"Avenida de los Estudiantes"},"arcs":[[406],[407],[408]]},{"type":"MultiLineString","properties":{"source":"openstreetmap.org","kind":"major_road","sort_rank":380,"kind_detail":"primary","ref":"90","min_zoom":8.0},"arcs":[[409],[410]]},{"type":"LineString","properties":{"cycleway_right":"lane","sort_rank":380,"kind_detail":"primary","is_bicycle_related":true,"kind":"major_road","source":"openstreetmap.org","min_zoom":8.0,"landuse_kind":"urban_area","id":215311861},"arcs":[411]},{"type":"MultiLineString","properties":{"kind":"major_road","sort_rank":380,"kind_detail":"primary","is_bicycle_related":true,"source":"openstreetmap.org","min_zoom":8.0,"landuse_kind":"urban_area","ref":"90"},"arcs":[[412],[413],[414]]}]},"earth":{"type":"GeometryCollection","geometries":[{"type":"MultiPolygon","properties":{"sort_rank":10,"source":"naturalearthdata.com","min_zoom":0.0,"kind":"earth","area":84975798864},"arcs":[[[415]],[[416]]]}]},"landuse":{"type":"GeometryCollection","geometries":[{"type":"MultiPolygon","properties":{"source":"openstreetmap.org","kind":"park","tier":2,"area":66650799,"sort_rank":24,"min_zoom":8.0},"arcs":[[[417]],[[418]],[[419]]]},{"type":"MultiPolygon","properties":{"source":"openstreetmap.org","kind":"park","tier":2,"area":880584637,"sort_rank":24,"min_zoom":6.0,"osm_relation":true},"arcs":[[[420]],[[421]],[[422]]]},{"type":"MultiPolygon","properties":{"source":"naturalearthdata.com","kind":"urban_area","name":"","area":356386735,"sort_rank":11,"min_zoom":4.0},"arcs":[[[423]],[[424]]]},{"type":"MultiPolygon","properties":{"source":"openstreetmap.org","kind":"park","tier":2,"area":5910572098,"sort_rank":24,"min_zoom":4.0,"osm_relation":true},"arcs":[[[425],[426],[427],[428]]]}]}},"type":"Topology","transform":{"translate":[-75.9375,9.7956775828],"scale":[0.0003433228,0.0003375792]},"arcs":[[[2437,4096],[-1161,-868],[-494,-553],[-782,-1100]],[[1749,0],[-36,43],[76,196],[-54,43],[-3,58],[-44,-14],[-1,-95],[-29,-11],[-285,94],[9,33],[-52,-22],[-1,74],[54,93],[-53,116],[-7,107],[-97,-35],[-82,62],[134,303],[-193,-77]],[[1085,968],[-13,0]],[[1072,968],[-31,13],[-6,-19],[37,-135],[-6,-170],[-34,-53],[21,-83],[-54,-105],[-11,-93],[-65,-90],[19,-72],[-28,-132],[-18,-29]],[[2999,1355],[-106,-312],[4,-77],[56,-36],[190,-41],[211,-261],[-11,-106],[-168,-46],[-75,-64],[71,-337],[78,-75]],[[3159,3883],[48,-147],[182,-142],[46,-81],[12,-136],[94,-69],[20,-43],[2,-72],[-61,-52],[-16,-56],[45,-192],[6,-297],[-68,-71],[49,-58],[14,-73],[-33,-65],[-8,-116],[-130,-85],[-75,-106],[-19,-152],[-239,-410],[-29,-105]],[[3170,3881],[-1,2]],[[3171,3879],[-1,1]],[[3174,3879],[-3,0]],[[3169,3883],[-10,0]],[[3170,3880],[0,1]],[[3171,3879]],[[4096,3541],[-38,7],[-308,97],[-576,234]],[[1104,990],[-19,-22]],[[2999,1355],[-211,261],[-62,52],[-123,49],[-86,99],[-167,-32],[-65,76],[-12,53],[-54,41],[32,28],[-16,27],[-130,25],[-54,-22],[-52,29],[81,195],[-40,57],[39,172],[-27,53],[-88,63],[-11,62],[112,211],[7,109]],[[2072,2963],[-104,14],[-27,-64],[-8,-186],[-24,-23],[-110,-43],[-217,-34],[-21,-63],[-148,-102],[-28,-106],[-151,-63],[-6,-26],[60,-71],[-21,-105],[32,-39],[-58,-97],[-124,-89],[6,-49],[-42,-37],[63,-19],[-29,23],[25,40],[-16,22],[8,10],[27,-48],[46,-4],[-1,-24],[-8,10],[-10,-6],[14,-34],[56,-7],[-19,-4],[26,-119],[-23,-9],[19,-25],[-20,-40],[31,-16],[-5,-32],[-59,-20],[-18,41],[16,-50],[-13,24],[-6,3],[-4,0],[11,-27],[-37,-25],[17,8],[3,-27],[-36,10],[-55,-56],[3,30],[-50,25],[8,61],[-23,-7],[-27,-56],[3,-33],[31,-18],[-83,-5],[-28,-26],[99,-46],[6,-30],[-54,39],[-77,-144],[-22,-4],[-26,-34],[-21,1],[2,-42],[-79,-13],[-28,-49],[-19,3],[12,5],[-2,13],[-31,-25],[37,-32],[37,38],[-7,-16],[37,0],[93,150],[-3,-34],[50,58],[50,8],[183,133],[53,-26],[-68,-20],[-11,-37],[43,33],[32,-19],[11,-142],[-43,-2],[-2,44],[-53,-27],[34,-15],[-7,-42],[38,14],[-78,-100]],[[4096,2846],[-37,17],[-5,110],[5,29],[-29,1],[-20,12],[-10,21],[0,31],[-29,-32],[-13,-52],[-17,-47],[-41,-14],[-18,21],[-5,43],[4,90],[6,40],[18,60],[22,50],[23,10],[41,-20],[70,0],[20,-28],[15,15],[0,-357]],[[4096,3562],[-120,31],[-213,73],[-284,117],[-156,52],[-66,23],[-73,34],[-17,-18],[6,-16],[3,-52],[5,-54],[-47,-40],[-99,-9],[-82,0],[-6,-51],[-71,-56],[-37,-44],[-56,-22],[-53,-3],[-41,-17],[-27,-19],[-12,-26],[-15,-67],[-13,-30],[4,-47],[-40,-46],[-59,-35],[-111,-27],[-185,-123],[-31,-13],[-33,-8],[-33,-2],[-32,-13],[-46,-57],[-104,-36],[-24,-52],[16,-55],[60,-34],[13,22],[45,39],[0,-30],[3,-24],[6,-21],[12,-24],[-62,-59],[-17,-24],[-20,0],[0,8],[0,12],[-19,20],[2,11],[11,9],[6,12],[-6,18],[-14,8],[-16,4],[-15,9],[-17,-5],[-23,-27],[-28,-48],[-29,-23],[-192,-49],[-71,-33],[-18,-5],[0,-15],[-19,-31],[-22,-26],[-11,-2],[-8,-35],[-19,-6],[-26,2],[-25,-12],[-8,-6],[-22,-9],[-9,-5],[-3,-14],[23,-30],[0,-15],[-26,-25],[-34,-20],[-37,-13],[-34,-5],[-29,-12],[-29,-28],[-14,-28],[12,-13],[36,-9],[10,-24],[1,-32],[4,-34],[-4,-7],[-16,-38],[-2,-17],[29,-3],[21,-5],[12,-13],[8,-60],[-2,-74],[-18,-63],[-39,-27],[-45,22],[10,51],[31,61],[15,50],[-27,-18],[-83,-94],[-19,-17],[-35,-15],[-18,-18],[-12,-23],[-15,-54],[-11,-26],[26,6],[15,10],[10,18],[8,29],[20,0],[20,-79],[15,-19],[25,15],[20,0],[6,-68],[15,-80],[3,-67],[-34,-28],[-105,-66],[-60,-14],[-24,60],[-16,-25],[-5,-26],[5,-25],[16,-25],[-67,3],[-8,-25],[12,-37],[-8,-33],[-26,-35],[-16,-36],[-20,-29],[-25,-31],[-40,-27],[-84,-48],[-43,-100],[55,-8],[120,68],[115,123],[120,80],[94,52],[-14,-30],[-3,-28],[1,-30],[-4,-33],[-10,-33],[-9,-18],[-21,-30],[-30,-66],[-11,-17],[-20,-11],[-23,-5],[-11,-9],[-16,-23],[2,-59],[43,-102],[-7,-95],[-40,-169],[2,-61],[-13,-60],[-32,-99],[-37,-82],[-18,-63],[2,-69],[-38,-126],[-557,0],[-2,3],[-9,-1],[-11,2],[-16,5],[-18,2],[-12,3],[-7,-5],[-16,-9],[-230,0],[0,4096],[4096,0],[0,-534]],[[1010,1550],[25,0],[11,21],[7,37],[25,15],[33,-9],[29,-4],[31,34],[-7,36],[-53,15],[-35,15],[-23,15],[-32,-30],[-16,-23],[-10,-37],[4,-49],[11,-36]],[[878,0],[38,126],[-2,69],[18,63],[37,82],[32,99],[13,60],[-2,61],[40,169],[7,95],[-43,102],[-2,59],[16,23],[11,9],[23,5],[20,11],[11,17],[30,66],[21,30],[9,18],[10,33],[4,33],[-1,30],[3,28],[14,30],[-94,-52],[-120,-80],[-115,-123],[-120,-68],[-55,8],[43,100],[84,48],[40,27],[25,31],[20,29],[16,36],[26,35],[8,33],[-12,37],[8,25],[67,-3],[-16,25],[-5,25],[5,26],[16,25],[24,-60],[60,14],[105,66],[34,28],[-3,67],[-15,80],[-6,68],[-20,0],[-25,-15],[-15,19],[-20,79],[-20,0],[-8,-29],[-10,-18],[-15,-10],[-26,-6],[11,26],[15,54],[12,23],[18,18],[35,15],[19,17],[83,94],[27,18],[-15,-50],[-31,-61],[-10,-51],[45,-22],[39,27],[18,63],[2,74],[-8,60],[-12,13],[-21,5],[-29,3],[2,17],[16,38],[4,7],[-4,34],[-1,32],[-10,24],[-36,9],[-12,13],[14,28],[29,28],[29,12],[34,5],[37,13],[34,20],[26,25],[0,15],[-23,30],[3,14],[9,5],[22,9],[8,6],[25,12],[26,-2],[19,6],[8,35],[11,2],[22,26],[19,31],[0,15],[18,5],[71,33],[192,49],[29,23],[28,48],[23,27],[17,5],[15,-9],[16,-4],[14,-8],[6,-18],[-6,-12],[-11,-9],[-2,-11],[19,-20],[0,-12],[0,-8],[20,0],[17,24],[62,59],[-12,24],[-6,21],[-3,24],[0,30],[-45,-39],[-13,-22],[-60,34],[-16,55],[24,52],[104,36],[46,57],[32,13],[33,2],[33,8],[31,13],[185,123],[111,27],[59,35],[40,46],[-4,47],[13,30],[15,67],[12,26],[27,19],[41,17],[53,3],[56,22],[37,44],[71,56],[6,51],[82,0],[99,9],[47,40],[-5,54],[-3,52],[-6,16],[17,18],[73,-34],[66,-23],[156,-52],[284,-117],[213,-73],[120,-31]],[[4096,3203],[-15,-15],[-20,28],[-70,0],[-41,20],[-23,-10],[-22,-50],[-18,-60],[-6,-40],[-4,-90],[5,-43],[18,-21],[41,14],[17,47],[13,52],[29,32],[0,-31],[10,-21],[20,-12],[29,-1],[-5,-29],[5,-110],[37,-17]],[[1021,1695],[32,30],[23,-15],[35,-15],[53,-15],[7,-36],[-31,-34],[-29,4],[-33,9],[-25,-15],[-7,-37],[-11,-21],[-25,0],[-11,36],[-4,49],[10,37],[16,23]],[[3403,3279]],[[3403,3279]],[[1381,1727],[9,-7],[45,-53],[7,-8]],[[1442,1659],[16,-18],[64,-37]],[[1522,1604],[-58,28],[-22,27]],[[1442,1659],[-52,62],[-8,6]],[[1591,2198],[-73,-292],[-73,-71]],[[1446,1834],[73,72],[72,292]],[[1522,1604],[35,-49]],[[1557,1555],[147,-162]],[[3032,3119],[-55,-122],[28,-36],[-26,-134],[30,-214],[-60,-117],[-95,5],[-138,50],[-116,3],[-165,-66],[-44,-95],[-109,43],[-100,-24],[-85,54],[-172,-34],[-145,-143],[-28,5],[-66,-63],[-95,-33]],[[1706,1385],[-2,8]],[[1706,1385],[28,-76]],[[2023,1004],[-94,18],[-71,66],[15,25],[-21,46],[-118,150]],[[3165,3386],[-72,-59],[-57,-193]],[[1223,1926],[-3,-8]],[[1224,1929],[16,25],[-12,-13]],[[3235,3582],[-33,16]],[[3203,3598],[11,-7]],[[3290,3554],[5,-1]],[[3297,3551],[-2,2],[-4,1]],[[3301,3340],[7,0]],[[2023,1004],[209,-4],[39,-102],[59,-64],[98,-34],[63,41],[18,-32]],[[2510,810],[-1,0]],[[3365,3366],[24,50]],[[3388,3418],[-4,-6],[-14,-34]],[[3216,3400],[-21,-4]],[[3303,3239],[-1,5]],[[3303,3234],[0,3]],[[3302,3646],[9,-10]],[[3230,3600],[10,-5]],[[3305,3569],[-69,39]],[[3243,3594],[49,-21]],[[1229,1944],[1,0]],[[2982,2553],[2,7]],[[3389,3315],[14,-36]],[[3403,3279],[-13,36]],[[3403,3279],[-3,-98]],[[3400,3182],[3,97]],[[3303,3237],[0,2]],[[1220,1918],[-3,0]],[[1217,1918],[-1,0],[-5,-1],[-3,-1]],[[1208,1916],[-20,-10]],[[1188,1906],[-49,-23],[-18,-36]],[[1121,1847],[67,59]],[[1188,1906],[8,8],[12,2]],[[1208,1916],[8,1],[1,1]],[[1217,1918],[6,10]],[[1223,1928],[1,1]],[[1228,1941],[-4,-4],[-1,-9]],[[1223,1928],[0,-2]],[[3221,3665],[-25,-64],[0,-1]],[[3196,3600],[9,-60]],[[3205,3540],[0,-2],[3,-20],[0,-3],[-1,-23],[-2,-8],[-3,-10],[-1,-5],[0,-8],[14,-61]],[[3215,3400],[-7,123],[-2,14],[-1,3]],[[3205,3540],[-2,4],[-10,28],[-2,10],[3,13],[2,5]],[[3196,3600],[4,12],[6,13],[1,5],[15,34]],[[3222,3664],[1,2],[-1,1],[-2,-1],[2,-2]],[[3235,3681],[-13,-14]],[[3223,3666],[12,15]],[[3330,3611],[-95,72]],[[3235,3683],[67,-37]],[[3295,3553],[1,-2]],[[3311,3636],[16,-21]],[[3341,3591],[3,-5]],[[3344,3586],[4,-5],[10,-16]],[[3358,3565],[5,-9]],[[3363,3556],[1,0]],[[3364,3556],[14,-24]],[[3378,3532],[-14,24]],[[3364,3556],[-1,0]],[[3363,3556],[-5,9]],[[3358,3565],[-14,21]],[[3344,3586],[-3,5]],[[3364,3557],[-1,-1]],[[3363,3556]],[[3363,3556],[0,-1],[-3,-18],[-3,-7]],[[3357,3530],[3,7],[3,12]],[[3358,3411],[-4,13],[24,70]],[[3378,3494],[1,3],[2,2]],[[3381,3500],[-2,-3],[-1,-3]],[[3378,3494],[-20,-85]],[[3360,3537],[3,12]],[[3363,3549],[0,6],[1,1]],[[3364,3556]],[[3364,3556],[1,1]],[[3379,3530],[1,-2]],[[3380,3530]],[[3380,3528],[0,-3]],[[3382,3526],[-2,2]],[[3235,3681],[0,1],[-1,1],[0,-1],[1,-1]],[[3379,3533],[-1,-2],[1,-1],[1,1],[-1,2]],[[3316,3296],[-5,-7]],[[3311,3289],[5,7]],[[1323,1770],[58,-43]],[[1382,1727],[-51,46]],[[1445,1835],[-24,-24],[25,23]],[[3481,3453],[-16,-24]],[[3481,3453],[6,6]],[[3357,3530],[-43,-122]],[[3314,3408],[1,-74]],[[3315,3332],[1,-36]],[[3383,3524],[-26,6]],[[3223,3400],[77,42]],[[3304,3445],[24,13]],[[3032,3119],[4,15]],[[3182,3616],[38,-13]],[[3189,3617],[-7,0]],[[3196,3631],[-2,-1]],[[3224,3613],[-28,18]],[[3240,3596],[-20,7]],[[3224,3611],[0,2]],[[1122,1845],[-1,2]],[[1146,1870],[-25,-23],[1,-2]],[[1123,1846],[9,10]],[[1124,1849],[1,1]],[[1146,1870],[-13,-11]],[[1146,1870],[-2,-1]],[[1191,1812]],[[1196,1914],[4,0],[3,3]],[[1200,1917],[0,-2]],[[1200,1912],[5,4]],[[1205,1916],[2,0]],[[1205,1916],[0,2]],[[1215,1805],[-1,3]],[[1279,1657],[0,-1]],[[1282,1655],[0,1]],[[1322,1769],[3,0]],[[1329,1767],[1,1]],[[1330,1772],[-1,1]],[[1358,1785],[-8,-3]],[[1350,1781],[8,4]],[[1366,1788],[-8,-3]],[[1371,1790],[13,5]],[[1391,1796],[-1,1]],[[1423,1812],[-1,1]],[[3206,3627],[-2,-2]],[[3240,3595],[3,-1]],[[3301,3234],[2,0]],[[614,1150],[-6,-7]],[[1132,1830],[52,-232],[-145,-54],[-203,-163],[-193,-201]],[[1132,1829],[54,-232],[-145,-54],[-126,-201]],[[1109,1773],[-51,-46]],[[1081,1706],[28,67]],[[1111,1773],[8,-70]],[[1114,1749],[30,-62]],[[1116,1732],[9,-42]],[[1306,2047],[3,-25],[-6,25]],[[1132,1830],[-5,21],[5,-22]],[[3369,3375],[-2,2]],[[3344,3534],[39,-10]],[[2358,0],[33,92],[-11,40],[49,246],[66,135],[1,257],[157,313],[67,69],[139,43],[105,111],[4,71]],[[3278,3561],[12,-7]],[[3266,3528],[29,-8],[-18,5]],[[3299,3577],[42,-31]],[[3345,3546],[-15,9]],[[3311,3289],[-2,-10]],[[3309,3279],[-8,-45]],[[3302,3244],[7,35]],[[3309,3279],[2,10]],[[3178,3607],[-29,7]],[[3149,3614],[-10,2]],[[3139,3616],[10,-2]],[[3149,3614],[29,-7]],[[643,1180],[-29,-30]],[[915,1342],[26,-94]],[[916,1338],[42,-70]],[[3206,3516],[-36,-12]],[[3220,3603],[-31,14]],[[3189,3630],[5,1]],[[3194,3631],[-4,0]],[[3194,3630],[2,1]],[[3195,3630],[28,-18]],[[3198,3615],[2,-3]],[[3200,3612],[7,-1]],[[3205,3612],[-4,3]],[[3209,3516],[15,8],[-15,-7]],[[3220,3399],[3,1]],[[3220,3603],[10,-3]],[[3224,3613],[-1,-1]],[[3223,3612],[1,-1]],[[3224,3611],[12,-3]],[[3236,3608],[-11,4]],[[3260,3530],[-27,-5]],[[3233,3610]],[[3234,3610],[-1,1]],[[3263,3585],[-23,11]],[[3254,3561],[4,11]],[[3284,3606],[11,22]],[[3345,3543],[-39,20],[-12,16]],[[3330,3555],[-25,14]],[[3328,3458],[31,22],[6,23]],[[3365,3503],[7,23]],[[3341,3546],[4,0]],[[3351,3508],[14,-5]],[[3365,3503],[7,-3],[7,-3],[6,-2]],[[3385,3495]],[[3355,3522]],[[3383,3524],[2,0]],[[3385,3524],[-2,1]],[[3385,3495]],[[3385,3495],[0,-31],[0,-1],[4,-44]],[[3391,3419],[-6,76]],[[3385,3495],[9,-2]],[[3208,3517],[-1,-1],[2,0]],[[3209,3516],[0,1],[-1,0]],[[1126,1837],[2,-4]],[[1128,1833],[0,-1],[-2,-17],[-29,-33]],[[1122,1845],[4,-11]],[[1122,1845],[4,-8]],[[1126,1812],[2,20],[0,1]],[[1128,1833],[-5,10],[0,3]],[[1126,1837],[0,-3]],[[1126,1834],[-1,-1],[3,0]],[[1128,1833]],[[1128,1833]],[[1363,2130],[200,22]],[[1418,2302],[-1,0]],[[3106,3628],[-1,0],[0,-1],[1,1]],[[3127,3623],[0,1],[-1,-1],[1,0]],[[3327,3615],[14,-24]],[[3341,3591],[-11,20]],[[3367,3377],[-3,13]],[[3364,3390],[-6,20],[0,1]],[[3358,3409],[2,-9],[4,-10]],[[3364,3390],[5,-15]],[[3277,3339],[-6,0]],[[3390,3315],[-20,58]],[[3385,3325],[4,-9]],[[2968,1377],[100,185]],[[3091,1626],[22,80]],[[3119,1744],[27,59],[56,33],[38,231]],[[3354,2327],[79,161]],[[3397,3073],[36,-100]],[[3433,2973],[-36,101]],[[3426,2528],[38,135],[-12,99]],[[3433,2973],[4,-11]],[[3439,2891],[1,36]],[[3381,3499],[4,13],[-5,18]],[[3381,3524],[0,-24]],[[3106,3627],[20,-4]],[[3127,3624],[-21,4]],[[3127,3623],[11,-4],[23,0]],[[3161,3620],[-34,3]],[[3162,3619],[20,-3]],[[3182,3617],[-20,3]],[[3161,3620],[0,-1],[1,0],[-1,1]],[[1326,0],[20,18],[15,55],[105,3],[202,263],[75,7],[207,207],[73,451]],[[3295,3520],[56,-12]],[[2614,3255],[53,70],[-4,55],[58,41]],[[2892,3545],[96,51],[151,20]],[[3139,3616],[-70,-9]],[[3357,3530],[-60,21]],[[3316,3296],[-2,114],[43,120]],[[4096,194],[-140,35],[-57,-49],[-185,-15],[-126,-61],[-6,-41],[-56,-31],[-223,-32]],[[1146,1870],[14,-7]],[[1161,1864],[-9,7],[-6,-1]],[[1166,1859],[-1,1]],[[1165,1860],[-3,3]],[[1162,1863],[-1,0]],[[1161,1863],[-4,3]],[[1161,1862],[4,-2]],[[1165,1860],[26,-19],[17,-13],[8,-5],[85,-46],[1,-1]],[[1302,1776]],[[1302,1776],[14,-3],[7,-3]],[[1162,1863],[-1,1],[0,-1]],[[1161,1863],[-1,0]],[[1160,1863],[1,-1],[1,1]],[[1162,1863]],[[1217,1824],[-55,39]],[[1195,1812],[-5,0]],[[1199,1809],[-4,3]],[[1198,1809],[12,-51],[46,-15],[66,26]],[[1228,1756],[-13,49],[-16,4]],[[1329,1773],[-15,-7],[-47,-10],[-38,3],[-14,46]],[[1269,1809],[-52,15]],[[1250,1753],[-2,-5]],[[1257,1811],[-8,1]],[[1267,1753],[-12,1]],[[1263,1810],[6,-1]],[[1269,1809],[1,-1]],[[1264,1731],[21,-106]],[[1289,1623],[-21,110]],[[1331,1773],[-6,-2],[-10,3],[-13,3]],[[1302,1777],[-1,0]],[[1301,1777],[-1,0],[-5,6],[-26,26]],[[1269,1809]],[[1293,1787],[9,-10]],[[1302,1777],[0,-1]],[[1302,1776],[1,-1]],[[1302,1776]],[[1302,1776],[-1,1]],[[1301,1777],[-7,9]],[[1332,1774],[-3,-1]],[[1331,1773],[-2,0]],[[1331,1773],[15,7]],[[1346,1780],[4,2],[-4,-2]],[[1346,1780],[-14,-6]],[[1331,1773],[15,6]],[[1346,1779],[0,1]],[[1346,1780]],[[1346,1780]],[[1343,1779],[-11,-5]],[[1333,1774],[13,5]],[[1346,1779],[4,2]],[[3219,3659],[4,5]],[[3221,3662],[0,1]],[[3222,3664],[8,-4]],[[3230,3660],[-7,5]],[[3356,3530],[1,-1]],[[3357,3530]],[[3158,3385],[-65,-58]],[[3370,3373],[15,-48]],[[3197,3601],[-2,1],[-1,0]],[[3194,3602],[-16,5]],[[3178,3607],[12,-2],[4,-3]],[[3194,3602],[1,0],[2,-1]],[[3258,3572],[26,34]],[[3369,3375],[1,-2]],[[3370,3373],[-1,2]],[[3360,3365],[3,0]],[[3363,3366],[-2,0]],[[3370,3378],[-7,-12]],[[3363,3365],[2,1]],[[3389,3316],[0,-1]],[[3400,3492],[2,-1]],[[3781,3604],[-45,-18]],[[3609,3560],[-102,-76]],[[3311,3289]],[[3266,3528],[-6,2]],[[3324,3539],[2,0]],[[3424,3421],[-24,-2]],[[3197,3601],[6,-3]],[[3202,3598],[-5,3]],[[3195,3396],[-30,-10]],[[3296,3551],[28,-12]],[[3314,3408]],[[3315,3334],[0,-2]],[[3326,3539],[18,-5]],[[3736,3586],[-81,1],[-46,-27]],[[4096,3527],[-103,19],[-133,58],[-79,0]],[[3091,1626],[-23,-64]],[[3113,1706],[6,38]],[[3240,2067],[114,260]],[[3400,3181],[-3,-108]],[[3397,3074],[3,108]],[[3433,2488],[-7,40]],[[3437,2962],[3,-35]],[[3452,2762],[-13,129]],[[3214,3591],[32,-15],[18,-7],[14,-8]],[[3291,3554],[-27,16],[-29,12]],[[3215,3400],[-2,-28],[5,-10],[48,-24],[35,2]],[[3271,3339],[-53,24],[-3,37]],[[3360,3364],[-83,-25]],[[3308,3340],[16,1],[19,5],[19,17]],[[3361,3366],[-1,-1]],[[3363,3365],[0,1]],[[3069,3607],[-170,-48],[-8,-25]],[[2891,3534],[-19,-53]],[[2872,3481],[-3,-8],[-77,-2],[-2,0]],[[2790,3471],[-47,-1],[-22,-49],[23,49],[45,1],[1,0]],[[2790,3471],[82,10]],[[2872,3481],[12,1],[7,52]],[[2891,3534],[1,11]],[[3300,3442],[4,3]],[[1240,1954],[104,135]],[[1344,2089],[78,237]],[[1422,2326],[14,68],[-22,42],[135,65],[32,42],[146,18],[158,107],[166,208],[127,51],[19,47],[139,135],[278,146]],[[1401,1803],[-35,-15]],[[1401,1803],[20,8]],[[1421,1812],[-20,-9]],[[3088,3618],[12,11]],[[3100,3629],[5,-2]],[[3105,3628],[-5,1]],[[3170,3504],[-29,-14]],[[3161,3630],[9,-1]],[[3170,3630],[-8,1]],[[3171,3629],[18,1]],[[3190,3631],[-19,-1]],[[3175,3617],[0,-1]],[[3175,3616]],[[3171,3630],[-1,0],[0,-1],[1,0],[0,1]],[[3465,3429],[-41,-8]],[[3507,3484],[-20,-25]],[[3233,3525],[33,3]],[[3277,3525],[-11,3]],[[3394,3493],[6,-1]],[[1869,1102],[4,-28]],[[3043,3193],[-11,-74]],[[1185,1906],[44,38]],[[3216,3400],[4,-1]],[[3391,3417],[9,2],[-9,-1]],[[3391,3418],[-1,1],[-2,-2],[2,-1],[1,2]],[[4096,2846],[0,-2846],[-3218,0],[38,126],[-2,69],[18,63],[37,82],[32,99],[13,60],[-2,61],[40,169],[7,95],[-43,102],[-2,59],[16,23],[11,9],[23,5],[20,11],[11,17],[30,66],[21,30],[9,18],[10,33],[4,33],[-1,30],[3,28],[14,30],[-94,-52],[-120,-80],[-115,-123],[-120,-68],[-55,8],[43,100],[84,48],[40,27],[25,31],[20,29],[16,36],[26,35],[8,33],[-12,37],[8,25],[67,-3],[-16,25],[-5,25],[5,26],[16,25],[24,-60],[60,14],[105,66],[34,28],[-3,67],[-15,80],[-6,68],[-20,0],[-25,-15],[-15,19],[-20,79],[-20,0],[-8,-29],[-10,-18],[-15,-10],[-26,-6],[11,26],[15,54],[12,23],[18,18],[35,15],[19,17],[83,94],[27,18],[-15,-50],[-31,-61],[-10,-51],[45,-22],[39,27],[18,63],[2,74],[-8,60],[-12,13],[-21,5],[-29,3],[2,17],[16,38],[4,7],[-4,34],[-1,32],[-10,24],[-36,9],[-12,13],[14,28],[29,28],[29,12],[34,5],[37,13],[34,20],[26,25],[0,15],[-23,30],[3,14],[9,5],[22,9],[8,6],[25,12],[26,-2],[19,6],[8,35],[11,2],[22,26],[19,31],[0,15],[18,5],[71,33],[192,49],[29,23],[28,48],[23,27],[17,5],[15,-9],[16,-4],[14,-8],[6,-18],[-6,-12],[-11,-9],[-2,-11],[19,-20],[0,-12],[0,-8],[20,0],[17,24],[62,59],[-12,24],[-6,21],[-3,24],[0,30],[-45,-39],[-13,-22],[-60,34],[-16,55],[24,52],[104,36],[46,57],[32,13],[33,2],[33,8],[31,13],[185,123],[111,27],[59,35],[40,46],[-4,47],[13,30],[15,67],[12,26],[27,19],[41,17],[53,3],[56,22],[37,44],[71,56],[6,51],[82,0],[99,9],[47,40],[-5,54],[-3,52],[-6,16],[17,18],[73,-34],[66,-23],[156,-52],[284,-117],[213,-73],[120,-31],[0,-359],[-15,-15],[-20,28],[-70,0],[-41,20],[-23,-10],[-22,-50],[-18,-60],[-6,-40],[-4,-90],[5,-43],[18,-21],[41,14],[17,47],[13,52],[29,32],[0,-31],[10,-21],[20,-12],[29,-1],[-5,-29],[5,-110],[37,-17]],[[1171,1644],[-31,-34],[-29,4],[-33,9],[-25,-15],[-7,-37],[-11,-21],[-25,0],[-11,36],[-4,49],[10,37],[16,23],[32,30],[23,-15],[35,-15],[53,-15],[7,-36]],[[2361,421],[50,65],[46,5],[19,-27],[-47,-85],[-68,42]],[[1040,607],[27,62],[0,113],[68,-1],[10,-24],[54,20],[98,-19],[-23,-13],[27,-26],[-136,-77],[-25,-53],[-100,18]],[[2056,2520],[87,88],[22,-25],[3,-91],[-33,21],[-18,-42],[-31,-6],[-30,55]],[[4096,2480],[0,-62],[-10,4],[-15,30],[25,28]],[[4096,2792],[0,-297],[-40,13],[11,-16],[-50,-5],[2,-19],[-25,16],[37,94],[-67,-15],[-1,84],[26,11],[-32,45],[33,1],[-41,32],[19,-9],[21,8],[-43,31],[83,1],[2,81],[53,-17],[12,-39]],[[4096,3588],[0,-292],[-24,-11],[2,-40],[-46,13],[0,51],[-20,-56],[-42,-30],[-36,58],[31,135],[-140,15],[-25,58],[19,61],[-71,34],[-91,-1],[-130,-68],[-54,-61],[-46,140],[-142,116],[-56,16],[-34,78],[21,40],[-45,36],[2,42],[46,-8],[169,-80],[95,16],[140,83],[98,4],[98,-100],[20,-104],[49,-67],[212,-78]],[[1258,1851],[155,10],[35,-28],[2,-47],[-99,-85],[0,-66],[-32,0],[-6,-150],[-27,-47],[-76,97],[19,15],[-24,215],[-45,-15],[-35,98],[-79,-63],[38,103],[182,162],[-56,-162],[48,-37]],[[3390,3577],[32,0],[0,-33],[32,0],[0,-33],[65,-33],[-20,-81],[-45,-18],[0,-131],[-32,0],[-32,-99],[-88,69],[-74,95],[0,34],[-33,0],[0,65],[-37,48],[37,18],[-32,33],[30,50],[-30,16],[65,132],[162,-99],[0,-33]],[[250,0],[-239,0],[48,61],[38,2],[44,84],[0,532],[-52,-6],[-39,76],[170,164],[69,111],[12,34],[-43,-10],[-3,-22],[-54,0],[28,70],[319,209],[72,2],[-3,-125],[102,-7],[136,60],[-1,49],[42,59],[56,-2],[19,-32],[-12,-42],[-133,-172],[-80,-12],[-29,-47],[-30,-3],[30,-24],[36,25],[25,-17],[-2,-590],[-19,-172],[-102,-171],[-36,-38],[-46,31],[-1,-77],[-263,0],[-33,10],[-8,-10],[-7,0],[-10,28],[-1,-28]],[[549,1146],[14,-35],[60,31],[-6,8],[-68,-4]],[[523,1124],[4,-3],[7,-2],[9,7],[0,10],[-20,-12]],[[543,1136],[5,-10],[-1,-3],[3,17],[-7,-4]]]}