{"objects":{"water":{"type":"GeometryCollection","geometries":[{"type":"Polygon","properties":{"source":"naturalearthdata.com","kind":"ocean","area":1576712559132672,"sort_rank":200,"min_zoom":0.0,"id":1},"arcs":[[0],[1],[2]]},{"type":"MultiLineString","properties":{"source":"naturalearthdata.com","kind":"ocean","sort_rank":205,"boundary":true,"min_zoom":0.0,"id":610},"arcs":[[3],[4]]},{"type":"LineString","properties":{"source":"naturalearthdata.com","kind":"ocean","sort_rank":205,"boundary":true,"min_zoom":0.0,"id":622},"arcs":[5]},{"type":"MultiLineString","properties":{"source":"naturalearthdata.com","kind":"ocean","sort_rank":205,"boundary":true,"min_zoom":0.0,"id":643},"arcs":[[6],[7]]},{"type":"LineString","properties":{"source":"naturalearthdata.com","kind":"ocean","sort_rank":205,"boundary":true,"min_zoom":0.0,"id":3699},"arcs":[8]}]},"buildings":{"type":"GeometryCollection","geometries":[]},"places":{"type":"GeometryCollection","geometries":[{"type":"Point","properties":{"name:ka":"\u10d1\u10d0\u10f0\u10d0\u10db\u10d8\u10e1 \u10d9\u10e3\u10dc\u10eb\u10e3\u10da\u10d4\u10d1\u10d8","name:ko":"\ubc14\ud558\ub9c8","name:kn":"\u0cac\u0cb9\u0cbe\u0cae\u0cbe\u0cb8\u0ccd","name:km":"\u1794\u17b6\u17a0\u17b6\u1798\u17c9\u17b6","name:cs":"Bahamy","name:ki":"Bahama","name:ku":"Bahama","name:ti":"\u1263\u1203\u121b\u1235","name:ks":"\u0628\u064e\u06c1\u0627\u0645\u064e\u0633","name:to":"Pahama","name:or":"\u0b2c\u0b3e\u0b39\u0b3e\u0b2e\u0b3e\u0b38\u0b4d","name:pl":"Bahamy","name:ta":"\u0baa\u0bb9\u0bbe\u0bae\u0bbe\u0bb8\u0bcd","name:ca":"Bahames","name:te":"\u0c2c\u0c39\u0c3e\u0c2e\u0c3e\u0c38\u0c4d","name:hu":"Bahama-szigetek","name:cy":"Y Bahamas","source":"openstreetmap.org","name:hr":"Bahami","name:dz":"\u0f56\u0fb7\u0f0b\u0f67\u0f0b\u0f58\u0f66\u0f84","name:tr":"Bahamalar","name:lv":"Bahamu salas","name:lt":"Bahamos","name:uz":"Bagam orollari","name:he":"\u05d1\u05d4\u05de\u05d4","kind":"country","name:ur":"\u0628\u06c1\u0627\u0645\u0627\u0633","name:la":"Insulae Bahamenses","name:lg":"Bahamasi","name:uk":"\u0411\u0430\u0433\u0430\u043c\u0441\u044c\u043a\u0456 \u041e\u0441\u0442\u0440\u043e\u0432\u0438","name:hy":"\u0532\u0561\u0570\u0561\u0574\u0576\u0565\u0580","min_zoom":2.0,"name:li":"Bahama-eilen","name:ln":"Bahamas\u025b","name:lo":"\u0e9a\u0eb2\u0eae\u0eb2\u0ea1\u0ea1\u0eb2\u0eaa","population":353658,"name:el":"\u039c\u03c0\u03b1\u03c7\u03ac\u03bc\u03b5\u03c2","name:eo":"Bahamoj","name":"Bahamas","name:is":"Bahamaeyjar","name:ee":"Bahamas nutome","name:th":"\u0e1b\u0e23\u0e30\u0e40\u0e17\u0e28\u0e1a\u0e32\u0e2e\u0e32\u0e21\u0e32\u0e2a","name:eu":"Bahamak","name:et":"Bahama","name:nl":"Bahama's","name:yo":"Or\u00edl\u1eb9\u0301\u00e8de B\u00e0h\u00e1m\u00e1s\u00ec","name:mt":"Ba\u0127amas","name:rn":"Bahamasi","name:az":"Baham adalar\u0131","name:id":"Bahama","name:mr":"\u092c\u0939\u093e\u092e\u093e\u091c","name:ar":"\u062c\u0632\u0631 \u0627\u0644\u0628\u0647\u0627\u0645\u0627","name:my":"\u1018\u101f\u102c\u1038\u1019\u102c\u1038","name:io":"Bahama","name:ak":"Bahama","name:am":"\u1263\u1203\u121b\u1235","name:ml":"\u0d2c\u0d39\u0d3e\u0d2e\u0d3e\u0d38\u0d4d","name:ru":"\u0411\u0430\u0433\u0430\u043c\u044b","name:mn":"\u0411\u0430\u0433\u0430\u043c\u044b\u043d \u0430\u0440\u043b\u0443\u0443\u0434","id":249399296,"name:mk":"\u0411\u0430\u0445\u0430\u043c\u0438","name:vo":"Bahamu\u00e4ns","name:zu":"i-Bahamas","name:ff":"Bahamaas","name:fi":"Bahama","name:hi":"\u092c\u0939\u093e\u092e\u093e\u0938","official_name":"Commonwealth of The Bahamas","name:fy":"de Bahama's","name:zh":"\u5df4\u54c8\u9a6c","name:so":"Bahaamas","name:sn":"Bahama","name:sl":"Bahami","name:sk":"Bahamy","name:ja":"\u30d0\u30cf\u30de","name:si":"\u0db6\u0dc4\u0db8\u0dcf\u0dc3\u0dca","name:fa":"\u0628\u0627\u0647\u0627\u0645\u0627","name:sg":"Bah\u00e2masa","name:ne":"\u092c\u0939\u093e\u092e\u093e\u0938","name:bs":"Bahami","name:bm":"Bahamasi","name:bn":"\u09ac\u09be\u09b9\u09be\u09ae\u09be \u09a6\u09cd\u09ac\u09c0\u09aa\u09aa\u09c1\u099e\u09cd\u099c","name:bo":"\u0f56\u0fb7\u0f71\u0f0b\u0f58\u0f66\u0f84\u0f0d","name:sw":"Bahama","name:be":"\u0411\u0430\u0433\u0430\u043c\u044b","name:bg":"\u0411\u0430\u0445\u0430\u043c\u0438","name:sr":"\u0411\u0430\u0445\u0430\u043c\u0438","name:ga":"Na Bah\u00e1ma\u00ed","name:gd":"Na h-Eileanan Bhathama","name:gv":"Ny Bahamaghyn","name:gu":"\u0aac\u0ab9\u0abe\u0aae\u0abe\u0ab8","name:tt":"\u0411\u0430\u0433\u0430\u043c\u0430\u043b\u0430\u0440"},"coordinates":[2184,793]}]},"transit":{"type":"GeometryCollection","geometries":[]},"pois":{"type":"GeometryCollection","geometries":[]},"boundaries":{"type":"GeometryCollection","geometries":[]},"roads":{"type":"GeometryCollection","geometries":[{"type":"MultiLineString","properties":{"sort_rank":380,"kind_detail":"primary","min_zoom":8.0,"kind":"major_road","source":"openstreetmap.org"},"arcs":[[9],[10],[11],[12],[13],[14],[15],[16],[17],[18],[19],[20],[21],[22],[23],[24],[25],[26],[27],[28],[29],[30],[31],[32],[33],[34],[35],[36],[37],[38],[39],[40],[41],[42],[43],[44],[45],[46],[47],[48],[49],[50],[51],[52],[53],[54],[55],[56],[57],[58],[59],[60],[61],[62],[63],[64],[65],[66],[67],[68],[69],[70],[71],[72],[73],[74]]},{"type":"LineString","properties":{"bus_network":"jitney","sort_rank":380,"kind_detail":"primary","kind":"major_road","source":"openstreetmap.org","min_zoom":8.0,"bus_shield_text":"17A","landuse_kind":"urban_area"},"arcs":[75]},{"type":"MultiLineString","properties":{"source":"openstreetmap.org","kind":"major_road","landuse_kind":"urban_area","sort_rank":380,"kind_detail":"primary","min_zoom":8.0},"arcs":[[76],[77],[78],[79],[80],[81],[82],[83],[84],[85],[86],[87],[88],[89],[90],[91],[92],[93],[94],[95],[96],[97],[98],[99],[100],[101],[102],[103],[104],[105],[106],[107],[108],[109],[110],[111],[112],[113],[114],[115],[116],[117],[118],[119],[120],[121],[122],[123],[124],[125],[126],[127],[128],[129],[130],[131],[132],[133],[134],[135],[136],[137],[138],[139],[140],[141],[142],[143],[144],[145],[146],[147],[148],[149],[150]]},{"type":"LineString","properties":{"kind":"major_road","name:lt":"Kunigaik\u0161\u010dio g.","sort_rank":380,"landuse_kind":"urban_area","source":"openstreetmap.org","min_zoom":8.0,"kind_detail":"primary","id":378373147},"arcs":[151]},{"type":"LineString","properties":{"kind":"major_road","name:lt":"Kunigaik\u0161\u010dio g.","sort_rank":380,"kind_detail":"primary","bus_network":"jitney","source":"openstreetmap.org","min_zoom":8.0,"bus_shield_text":"17A","landuse_kind":"urban_area","id":476286538},"arcs":[152]}]},"earth":{"type":"GeometryCollection","geometries":[{"type":"MultiPolygon","properties":{"sort_rank":10,"source":"naturalearthdata.com","min_zoom":0.0,"kind":"earth","area":7226761038},"arcs":[[[153]],[[154]],[[155]],[[156]]]}]},"landuse":{"type":"GeometryCollection","geometries":[{"type":"MultiPolygon","properties":{"source":"naturalearthdata.com","kind":"urban_area","name":"","area":66753365,"sort_rank":11,"min_zoom":4.0},"arcs":[[[157]]]}]}},"type":"Topology","transform":{"translate":[-78.75,24.5271348226],"scale":[0.0003433228,0.0003107315]},"arcs":[[[4096,0],[-1103,0],[-3,26],[-64,136],[-24,79],[17,61],[18,44],[11,74],[5,79],[-3,58],[-27,46],[-108,109],[-35,21],[-50,23],[-48,52],[-129,194],[-177,443],[-38,48],[-44,27],[-53,8],[-17,35],[11,79],[37,127],[-48,38],[-23,53],[8,57],[43,50],[-32,45],[-39,28],[-41,22],[-37,27],[-50,22],[-45,-22],[-42,-35],[-45,-19],[-48,12],[-24,28],[-20,36],[-36,34],[-44,19],[-106,20],[-49,3],[-34,-71],[39,-123],[61,-134],[32,-102],[27,-144],[6,-91],[-23,-40],[-26,-19],[-22,-43],[-16,-44],[-6,-26],[12,-28],[24,-34],[10,-25],[-26,-3],[-9,-45],[-40,-78],[-9,-41],[-16,-19],[-76,-15],[-27,-20],[12,-79],[-45,-64],[-64,-53],[-44,-47],[-27,-97],[-8,-55],[5,-24],[40,-21],[23,-48],[19,-53],[27,-34],[2,123],[-11,50],[-31,27],[42,16],[18,-30],[8,-51],[12,-45],[18,-24],[45,-42],[18,-24],[3,-20],[-6,-49],[3,-19],[25,-28],[30,-25],[21,-32],[2,-47],[-15,-16],[-26,8],[-30,18],[-28,12],[13,-62],[-6,-71],[-28,-40],[-48,30],[-9,56],[15,68],[0,58],[-57,27],[8,-71],[-24,-25],[-43,-13],[-79,-50],[-21,11],[-14,29],[-6,31],[9,8],[51,36],[27,41],[18,43],[11,49],[4,55],[-17,67],[-40,43],[-46,2],[-38,-56],[21,-36],[-5,-30],[-23,-24],[-31,-20],[-24,7],[-27,22],[-22,4],[-9,-45],[-24,-28],[-55,-34],[-61,-28],[-39,-10],[37,-73],[55,-67],[174,-162],[19,-11],[-1179,0],[0,4096],[4096,0],[0,-2304],[-35,0],[-123,-23],[-125,5],[-44,-5],[-99,-36],[-42,-8],[-66,-28],[-70,-53],[-31,-62],[47,-54],[37,-4],[54,2],[56,-6],[44,-26],[39,-14],[40,24],[34,39],[16,27],[93,-41],[71,-2],[104,49],[0,-1576]],[[2513,4037],[20,-40],[59,-66],[47,-85],[36,-44],[36,-3],[-5,29],[-109,195],[-28,33],[-37,7],[-19,-26]],[[2629,2892],[-34,-21],[-46,-3],[-33,3],[-18,-2],[-22,-10],[-17,-15],[-3,-6],[54,-1],[25,-3],[45,1],[35,15],[29,34],[16,36],[-8,2],[-23,-30]],[[1155,425],[-24,7],[-27,22],[-22,4],[-9,-45],[-24,-28],[-55,-34],[-61,-28],[-39,-10],[37,-73],[55,-67],[174,-162],[19,-11]],[[2993,0],[-3,26],[-64,136],[-24,79],[17,61],[18,44],[11,74],[5,79],[-3,58],[-27,46],[-108,109],[-35,21],[-50,23],[-48,52],[-129,194],[-177,443],[-38,48],[-44,27],[-53,8],[-17,35],[11,79],[37,127],[-48,38],[-23,53],[8,57],[43,50],[-32,45],[-39,28],[-41,22],[-37,27],[-50,22],[-45,-22],[-42,-35],[-45,-19],[-48,12],[-24,28],[-20,36],[-36,34],[-44,19],[-106,20],[-49,3],[-34,-71],[39,-123],[61,-134],[32,-102],[27,-144],[6,-91],[-23,-40],[-26,-19],[-22,-43],[-16,-44],[-6,-26],[12,-28],[24,-34],[10,-25],[-26,-3],[-9,-45],[-40,-78],[-9,-41],[-16,-19],[-76,-15],[-27,-20],[12,-79],[-45,-64],[-64,-53],[-44,-47],[-27,-97],[-8,-55],[5,-24],[40,-21],[23,-48],[19,-53],[27,-34],[2,123],[-11,50],[-31,27],[42,16],[18,-30],[8,-51],[12,-45],[18,-24],[45,-42],[18,-24],[3,-20],[-6,-49],[3,-19],[25,-28],[30,-25],[21,-32],[2,-47],[-15,-16],[-26,8],[-30,18],[-28,12],[13,-62],[-6,-71],[-28,-40],[-48,30],[-9,56],[15,68],[0,58],[-57,27],[8,-71],[-24,-25],[-43,-13],[-79,-50],[-21,11],[-14,29],[-6,31],[9,8],[51,36],[27,41],[18,43],[11,49],[4,55],[-17,67],[-40,43],[-46,2],[-38,-56],[21,-36],[-5,-30],[-23,-24],[-31,-20]],[[2711,3799],[-5,29],[-109,195],[-28,33],[-37,7],[-19,-26],[20,-40],[59,-66],[47,-85],[36,-44],[36,-3]],[[3699,1494],[39,-14],[40,24],[34,39],[16,27],[93,-41],[71,-2],[104,49]],[[4096,1792],[-35,0],[-123,-23],[-125,5],[-44,-5],[-99,-36],[-42,-8],[-66,-28],[-70,-53],[-31,-62],[47,-54],[37,-4],[54,2],[56,-6],[44,-26]],[[2580,2835],[35,15],[29,34],[16,36],[-8,2],[-23,-30],[-34,-21],[-46,-3],[-33,3],[-18,-2],[-22,-10],[-17,-15],[-3,-6],[54,-1],[25,-3],[45,1]],[[3601,1631],[49,45]],[[3651,1677],[8,2]],[[3659,1679],[2,0]],[[3661,1678],[-2,1]],[[3662,1679]],[[3662,1679],[0,-1]],[[3662,1679],[78,17]],[[3742,1697],[-2,-1]],[[3740,1696],[2,0]],[[3747,1695],[-4,1]],[[3743,1696],[4,0]],[[3748,1696],[9,3]],[[3757,1699],[-8,-4]],[[3758,1700],[24,15]],[[3783,1714],[-25,-15]],[[3992,1586],[-223,-60]],[[3783,1716],[40,14]],[[3823,1729],[-39,-14]],[[3825,1730],[117,-33]],[[3942,1696],[-117,33]],[[3938,1729],[0,9]],[[3941,1708],[-2,21]],[[3939,1738],[0,-8]],[[3949,1739],[-10,0]],[[3939,1739],[9,1]],[[3939,1729],[3,-20]],[[3942,1697],[1,0],[0,-1],[-1,0]],[[3942,1696],[0,1]],[[3942,1697],[0,10]],[[3943,1708],[0,-11]],[[3962,1710],[-19,-14]],[[3943,1697],[19,13]],[[3950,1740],[6,5]],[[3957,1745],[-7,-5]],[[3964,1745],[-7,0]],[[3957,1746],[7,0]],[[3963,1711],[7,4]],[[3970,1714],[-7,-3]],[[3981,1627],[5,10]],[[3995,1587]],[[3995,1587],[-14,39]],[[3986,1636],[-4,-9]],[[3982,1626],[14,-38],[0,-1]],[[3996,1587]],[[3992,1586],[3,1]],[[3995,1587],[1,0]],[[3996,1587],[1,1]],[[4034,1609],[-37,-21]],[[3600,1630],[0,1],[1,0],[0,-1],[-1,0]],[[3650,1677],[1,0],[-1,-1],[0,1]],[[3661,1679],[1,-1]],[[3662,1678],[-1,0],[0,1]],[[3742,1697],[1,-1],[-1,0],[0,1]],[[3748,1696],[1,-1],[-1,-1],[-1,1],[1,1]],[[3757,1700],[1,0],[0,-1],[-1,0],[0,1]],[[3783,1716],[1,-1],[-1,-1],[-1,1],[1,1]],[[3824,1730],[1,0],[0,-1],[-2,0],[1,1]],[[3938,1739],[1,1],[0,-1]],[[3939,1739],[-1,0]],[[3939,1730],[1,-1],[-1,0],[-1,0],[1,1]],[[3942,1709],[1,-1],[-1,-1],[-1,1],[1,1]],[[3948,1740],[1,1],[1,-1]],[[3950,1740],[-1,-1],[-1,1]],[[3956,1746],[1,0],[0,-1],[-1,0],[0,1]],[[3962,1711],[1,0],[0,-1],[-1,0],[0,1]],[[3981,1626],[1,1],[0,-1],[-1,0]],[[4093,1767],[0,7],[3,-1]],[[3964,1746],[7,0]],[[3971,1745],[-7,0]],[[3970,1715],[6,2]],[[3976,1717],[-6,-3]],[[3971,1746],[12,8]],[[3983,1754],[-12,-9]],[[3988,1717],[-11,0]],[[3977,1717],[11,0]],[[4008,1772],[-25,-18]],[[3986,1637],[17,33]],[[4003,1670],[-17,-34]],[[4006,1715],[-17,1]],[[3989,1717],[17,-1]],[[4003,1671],[10,26]],[[4014,1697],[-11,-26]],[[4044,1667],[-40,3]],[[4004,1671],[40,-4]],[[4013,1698],[-7,16]],[[4006,1716],[1,2]],[[4007,1714],[7,-15]],[[4011,1771],[-4,-53]],[[4007,1718],[0,-2]],[[4011,1715],[-3,0]],[[4008,1715],[3,0]],[[4008,1772],[1,1]],[[4009,1772],[-1,0]],[[4010,1773],[1,1]],[[4011,1771],[-1,1]],[[4011,1774],[-1,-1]],[[4010,1773],[1,-2]],[[4011,1715],[29,-10],[24,23]],[[4092,1772],[-81,2]],[[4073,1631],[-39,-22]],[[4076,1664],[-31,2]],[[4045,1667],[31,-2]],[[4064,1728]],[[4064,1728],[1,0]],[[4065,1729],[1,-1]],[[4066,1728],[-1,1]],[[4085,1720],[-19,8]],[[4077,1664],[-3,-33],[-1,0]],[[4073,1631]],[[4073,1631],[1,1]],[[4074,1632]],[[4073,1631]],[[4073,1631],[1,1]],[[4074,1632],[2,32]],[[4076,1665],[2,11]],[[4078,1676],[-1,-11]],[[4096,1667],[-18,-3]],[[4078,1665],[18,3]],[[4078,1677],[7,43]],[[4096,1763],[0,-2],[-4,-42]],[[4092,1719],[0,-1],[-6,-41],[-7,-1]],[[4085,1720],[7,48]],[[4096,1718],[-4,1]],[[4092,1719],[-7,1]],[[4092,1772]],[[4092,1772]],[[3971,1746],[1,-1],[-1,0],[0,1]],[[3976,1718],[1,0],[0,-1],[-1,0],[0,1]],[[3988,1717],[1,0],[-1,-1],[0,1]],[[4003,1671]],[[4003,1671],[1,-1]],[[4004,1670],[-2,0],[1,1]],[[4007,1714],[-1,2],[1,0]],[[4007,1716],[1,-1],[-1,-1]],[[4009,1773],[1,0],[0,-1]],[[4010,1772],[-1,0],[0,1]],[[4013,1699],[1,-1],[0,-1],[-1,1],[0,1]],[[4044,1668],[1,-1]],[[4045,1667],[-1,-1],[0,1],[0,1]],[[4064,1728],[0,1],[1,1],[0,-1],[-1,-1]],[[4077,1665],[1,-1],[-1,-1],[-1,1],[1,1]],[[4078,1677],[1,-1],[-1,0],[0,1]],[[4093,1767],[-1,0]],[[4096,1767],[-3,0]],[[1873,2047],[48,-12],[45,19],[42,35],[45,22],[50,-22],[37,-27],[41,-22],[39,-28],[32,-45],[-43,-50],[-8,-57],[23,-53],[48,-38],[-37,-127],[-11,-79],[17,-35],[53,-8],[44,-27],[38,-48],[177,-443],[129,-194],[48,-52],[50,-23],[35,-21],[108,-109],[27,-46],[3,-58],[-5,-79],[-11,-74],[-18,-44],[-17,-61],[24,-79],[64,-136],[3,-26],[-1814,0],[-19,11],[-174,162],[-55,67],[-37,73],[39,10],[61,28],[55,34],[24,28],[9,45],[22,-4],[27,-22],[24,-7],[31,20],[23,24],[5,30],[-21,36],[38,56],[46,-2],[40,-43],[17,-67],[-4,-55],[-11,-49],[-18,-43],[-27,-41],[-51,-36],[-9,-8],[6,-31],[14,-29],[21,-11],[79,50],[43,13],[24,25],[-8,71],[57,-27],[0,-58],[-15,-68],[9,-56],[48,-30],[28,40],[6,71],[-13,62],[28,-12],[30,-18],[26,-8],[15,16],[-2,47],[-21,32],[-30,25],[-25,28],[-3,19],[6,49],[-3,20],[-18,24],[-45,42],[-18,24],[-12,45],[-8,51],[-18,30],[-42,-16],[31,-27],[11,-50],[-2,-123],[-27,34],[-19,53],[-23,48],[-40,21],[-5,24],[8,55],[27,97],[44,47],[64,53],[45,64],[-12,79],[27,20],[76,15],[16,19],[9,41],[40,78],[9,45],[26,3],[-10,25],[-24,34],[-12,28],[6,26],[16,44],[22,43],[26,19],[23,40],[-6,91],[-27,144],[-32,102],[-61,134],[-39,123],[34,71],[49,-3],[106,-20],[44,-19],[36,-34],[20,-36],[24,-28]],[[4096,1792],[0,-216],[-104,-49],[-71,2],[-93,41],[-16,-27],[-34,-39],[-40,-24],[-39,14],[-44,26],[-56,6],[-54,-2],[-37,4],[-47,54],[31,62],[70,53],[66,28],[42,8],[99,36],[44,5],[125,-5],[123,23],[35,0]],[[2706,3828],[5,-29],[-36,3],[-36,44],[-47,85],[-59,66],[-20,40],[19,26],[37,-7],[28,-33],[109,-195]],[[2644,2884],[-29,-34],[-35,-15],[-45,-1],[-25,3],[-54,1],[3,6],[17,15],[22,10],[18,2],[33,-3],[46,3],[34,21],[23,30],[8,-2],[-16,-36]],[[4096,1790],[0,-180],[-6,-2],[-98,1],[-34,164],[138,17]]]}