{"objects":{"water":{"type":"GeometryCollection","geometries":[{"type":"Polygon","properties":{"source":"naturalearthdata.com","kind":"ocean","area":1576712559132672,"sort_rank":200,"min_zoom":0.0,"id":1},"arcs":[[1]]},{"type":"LineString","properties":{"source":"naturalearthdata.com","kind":"ocean","sort_rank":205,"boundary":true,"min_zoom":0.0,"id":584},"arcs":[2]}]},"buildings":{"type":"GeometryCollection","geometries":[]},"places":{"type":"GeometryCollection","geometries":[{"type":"Point","properties":{"name:ps":"\u062c\u0645\u06cc\u06a9\u0627","name:ka":"\u10d8\u10d0\u10db\u10d0\u10d8\u10d9\u10d0","name:mt":"\u0120amajka","name:tr":"Jamaika","name:kn":"\u0c9c\u0cae\u0cc8\u0c95\u0cbe","name:km":"\u17a0\u17d2\u179f\u17b6\u1798\u17c9\u17b6\u17a2\u17c9\u17b7\u1782","name:cs":"Jamajka","name:ki":"Jamaika","name:ku":"Jama\u00eeka","name:ti":"\u1303\u121b\u12ed\u12ab","name:ks":"\u062c\u064e\u0645\u0627\u06cc\u06a9\u0627","name:to":"Samaika","name:tl":"Hamayka","name:or":"\u0b1c\u0b3e\u0b2e\u0b3e\u0b07\u0b15\u0b3e","name:pl":"Jamajka","name:ta":"\u0b9c\u0bae\u0bc8\u0b95\u0bbe","name:te":"\u0c1c\u0c2e\u0c48\u0c15\u0c3e","name:hr":"Jamajka","name:de":"Jamaika","name:dz":"\u0f47\u0f71\u0f0b\u0f58\u0f7b\u0f0b\u0f40","source":"openstreetmap.org","name:lv":"Jamaika","name:lt":"Jamaika","name:hi":"\u091c\u092e\u0948\u0915\u093e","name:he":"\u05d2'\u05de\u05d9\u05d9\u05e7\u05d4","kind":"country","name:ur":"\u062c\u0645\u0627\u0626\u06cc\u06a9\u0627","name:lb":"Jamaika","name:la":"Iamaica","name:lg":"Jamayika","name:uk":"\u042f\u043c\u0430\u0439\u043a\u0430","name:hy":"\u054b\u0561\u0574\u0561\u0575\u056f\u0561","min_zoom":2.0,"name:ln":"Zamaiki","name:lo":"\u0e88\u0eb2\u0ec4\u0ea1\u0e81\u0eb2","population":2804332,"name:el":"\u03a4\u03b6\u03b1\u03bc\u03ac\u03b9\u03ba\u03b1","name:eo":"Jamajko","name":"Jamaica","name:ee":"Dzamaika nutome","name:th":"\u0e1b\u0e23\u0e30\u0e40\u0e17\u0e28\u0e08\u0e32\u0e40\u0e21\u0e01\u0e32","name:gu":"\u0a9c\u0aae\u0ac8\u0a95\u0abe","name:eu":"Jamaika","name:yo":"Or\u00edl\u1eb9\u0301\u00e8de Jamaika","name:rm":"Giamaica","name:rn":"Jamayika","name:az":"Yamayka","name:id":"Jamaika","name:ms":"Jamaika","name:mr":"\u091c\u092e\u0948\u0915\u093e","name:ar":"\u062c\u0627\u0645\u0627\u064a\u0643\u0627","name:my":"\u1002\u103b\u1019\u1031\u1014\u102e\u1000\u102c","name:io":"Jamaika","name:is":"Jama\u00edka","name:am":"\u1303\u121b\u12ed\u12ab","name:it":"Giamaica","name:ml":"\u0d1c\u0d2e\u0d48\u0d15\u0d4d\u0d15","name:ru":"\u042f\u043c\u0430\u0439\u043a\u0430","name:mn":"\u042f\u043c\u0430\u0439\u043a\u0430","id":424313591,"name:mk":"\u0408\u0430\u043c\u0430\u0458\u043a\u0430","name:af":"Jamaika","name:zu":"i-Jamaica","name:ha":"Jamaika","name:ff":"Jamayka","name:fi":"Jamaika","name:mg":"Jama\u00efka","name:fo":"Jameika","name:fr":"Jama\u00efque","name:fy":"Jamaika","name:vo":"Cameke\u00e4n","name:zh":"\u7259\u4e70\u52a0","name:so":"Jameyka","name:sl":"Jamajka","name:sk":"Jamajka","name:ja":"\u30b8\u30e3\u30de\u30a4\u30ab","name:si":"\u0da2\u0dd0\u0db8\u0dd9\u0dba\u0dd2\u0d9a\u0dcf\u0dc0","name:fa":"\u062c\u0627\u0645\u0627\u0626\u06cc\u06a9\u0627","name:sg":"Zama\u00eeka","name:ne":"\u091c\u092e\u093e\u0907\u0915\u093e","name:br":"Jamaika","name:bs":"Jamajka","name:bm":"Zamayiki","name:bn":"\u099c\u09cd\u09af\u09be\u09ae\u09c7\u0995\u09be","name:bo":"\u0f5b\u0f0b\u0f58\u0f7a\u0f0b\u0f40\u0f0d","name:sw":"Jamaika","name:be":"\u042f\u043c\u0430\u0439\u043a\u0430","name:bg":"\u042f\u043c\u0430\u0439\u043a\u0430","name:sr":"\u0408\u0430\u043c\u0430\u0458\u043a\u0430","name:sq":"Xhamajk\u00eb","name:ko":"\uc790\uba54\uc774\uce74","name:ga":"Iam\u00e1ice","name:gd":"Iaimeuca","name:gl":"Xamaica","name:gv":"Yn Yamaicey","name:ak":"Gyameka","name:tt":"\u042f\u043c\u0430\u0439\u043a\u0430"},"coordinates":[3947,634]},{"type":"Point","properties":{"source":"openstreetmap.org","kind":"locality","name":"Montego Bay","kind_detail":"city","population":110115,"min_zoom":8.0,"id":3766105257},"coordinates":[2412,1518]},{"type":"Point","properties":{"source":"openstreetmap.org","kind":"locality","name":"Anchovy","kind_detail":"town","population":3633,"min_zoom":8.0,"id":3951676015},"coordinates":[2377,1324]},{"type":"Point","properties":{"source":"openstreetmap.org","kind":"locality","name":"Cambridge","kind_detail":"town","population":3384,"min_zoom":8.0,"id":3951676017},"coordinates":[2470,1038]},{"type":"Point","properties":{"source":"openstreetmap.org","kind":"locality","name":"Bethel Town","kind_detail":"town","population":2768,"min_zoom":8.0,"id":3951676016},"coordinates":[2324,996]},{"type":"Point","properties":{"source":"openstreetmap.org","kind":"locality","name":"Petersfield","kind_detail":"town","population":2045,"min_zoom":8.0,"id":3951676019},"coordinates":[1979,871]},{"type":"Point","properties":{"source":"openstreetmap.org","kind":"locality","name":"Darliston","kind_detail":"town","population":1435,"min_zoom":8.0,"id":3951685711},"coordinates":[2256,789]},{"type":"Point","properties":{"source":"openstreetmap.org","kind":"locality","name":"Cascade","kind_detail":"town","population":1220,"min_zoom":8.0,"id":3951676018},"coordinates":[1883,1287]}]},"transit":{"type":"GeometryCollection","geometries":[]},"pois":{"type":"GeometryCollection","geometries":[]},"boundaries":{"type":"GeometryCollection","geometries":[{"type":"LineString","properties":{"name:sk":"Jamajka","name:cs":"Jamajka","name:eo":"Jamajko","name:io":"Jamaika","min_zoom":8.0,"name:uk":"\u042f\u043c\u0430\u0439\u043a\u0430","name:ru":"\u042f\u043c\u0430\u0439\u043a\u0430","name:pl":"Jamajka","name:ta":"\u0b9c\u0bae\u0bc7\u0b95\u0bcd\u0b95\u0bbe","name:hr":"Jamajka","id":-555017,"osm_relation":true,"name:vo":"Cameke\u00e4n","kind":"country","name":"Jamaica","sort_rank":262,"kind_detail":"2","name:fr":"Jama\u00efque","name:de":"Jamaika","source":"openstreetmap.org","maritime_boundary":true,"name:fy":"Jamaika"},"arcs":[0]}]},"roads":{"type":"GeometryCollection","geometries":[{"type":"MultiLineString","properties":{"sort_rank":380,"kind_detail":"primary","min_zoom":8.0,"kind":"major_road","source":"openstreetmap.org"},"arcs":[[3],[4],[5],[6],[7],[8],[9],[10],[11],[12],[13],[14]]},{"type":"MultiLineString","properties":{"source":"openstreetmap.org","kind":"major_road","landuse_kind":"residential","sort_rank":380,"kind_detail":"primary","ref":"A2","min_zoom":8.0},"arcs":[[15],[16],[17],[18],[19],[20],[21],[22],[23],[24],[25],[26]]},{"type":"MultiLineString","properties":{"source":"openstreetmap.org","kind":"major_road","sort_rank":380,"kind_detail":"primary","ref":"A2","min_zoom":8.0},"arcs":[[27],[28],[29],[30],[31],[32],[33],[34],[35],[36],[37],[38],[39],[40],[41],[42],[43],[44]]},{"type":"MultiLineString","properties":{"source":"openstreetmap.org","kind":"major_road","sort_rank":380,"kind_detail":"primary","ref":"A1","min_zoom":8.0},"arcs":[[45],[46],[47],[48],[49],[50],[51],[52],[53],[54],[55],[56],[57],[58],[59],[60],[61],[62],[63],[64],[65],[66],[67],[68],[69],[70],[71],[72],[73],[74],[75]]},{"type":"LineString","properties":{"source":"openstreetmap.org","kind":"major_road","sort_rank":381,"kind_detail":"trunk","ref":"A1","min_zoom":8.0},"arcs":[76]},{"type":"MultiLineString","properties":{"source":"openstreetmap.org","kind":"major_road","landuse_kind":"residential","sort_rank":380,"kind_detail":"primary","min_zoom":8.0},"arcs":[[77],[78]]}]},"earth":{"type":"GeometryCollection","geometries":[{"type":"Polygon","properties":{"sort_rank":10,"source":"naturalearthdata.com","kind":"earth","min_zoom":0.0,"id":2551},"arcs":[[79]]}]},"landuse":{"type":"GeometryCollection","geometries":[{"type":"MultiPolygon","properties":{"source":"openstreetmap.org","kind":"residential","tier":2,"area":52122584,"sort_rank":20,"min_zoom":8.0},"arcs":[[[80]]]}]}},"type":"Topology","transform":{"translate":[-78.75,17.9787330956],"scale":[0.0003433228,0.0003252955]},"arcs":[[[4096,2147],[-1433,149],[-282,-30],[-940,-196],[-161,-57],[-445,-323],[-123,-125],[-126,-253],[-86,-420],[102,-892]],[[0,0],[0,4096],[4096,0],[0,-2601],[-95,0],[-93,-24],[-60,37],[-76,19],[-202,15],[-125,30],[-283,6],[-207,45],[-235,51],[-133,6],[-118,-20],[-51,-23],[-30,-28],[-66,-85],[-18,-32],[0,-23],[-2,-21],[-30,-21],[-33,-5],[-32,8],[-23,9],[-31,11],[-63,1],[-189,-24],[-66,14],[-54,20],[-46,-1],[-43,-52],[-75,58],[-104,-35],[-90,-83],[-30,-87],[-48,17],[-30,-25],[-24,-36],[-28,-19],[-45,-3],[-11,-12],[-2,-24],[-22,-36],[-6,-26],[4,-93],[-8,-40],[-20,-26],[-44,-31],[-16,-25],[13,-54],[37,-47],[49,-34],[51,-12],[51,-7],[89,-29],[41,-6],[7,-5],[72,-29],[20,-4],[22,13],[27,25],[48,-1],[131,-22],[215,5],[72,-41],[55,-111],[18,-73],[14,-37],[18,-16],[23,-6],[29,-15],[25,-17],[23,-34],[69,-161],[46,-17],[202,-2],[74,-27],[18,-65],[-3,-53],[-2649,0]],[[4096,1495],[-95,0],[-93,-24],[-60,37],[-76,19],[-202,15],[-125,30],[-283,6],[-207,45],[-235,51],[-133,6],[-118,-20],[-51,-23],[-30,-28],[-66,-85],[-18,-32],[0,-23],[-2,-21],[-30,-21],[-33,-5],[-32,8],[-23,9],[-31,11],[-63,1],[-189,-24],[-66,14],[-54,20],[-46,-1],[-43,-52],[-75,58],[-104,-35],[-90,-83],[-30,-87],[-48,17],[-30,-25],[-24,-36],[-28,-19],[-45,-3],[-11,-12],[-2,-24],[-22,-36],[-6,-26],[4,-93],[-8,-40],[-20,-26],[-44,-31],[-16,-25],[13,-54],[37,-47],[49,-34],[51,-12],[51,-7],[89,-29],[41,-6],[7,-5],[72,-29],[20,-4],[22,13],[27,25],[48,-1],[131,-22],[215,5],[72,-41],[55,-111],[18,-73],[14,-37],[18,-16],[23,-6],[29,-15],[25,-17],[23,-34],[69,-161],[46,-17],[202,-2],[74,-27],[18,-65],[-3,-53]],[[1176,923]],[[1196,1183],[2,2]],[[1778,767],[1,0]],[[1779,766],[21,-3]],[[1799,757],[2,1]],[[2394,1473]],[[2606,287],[-95,-13],[-39,-44]],[[3733,277],[1,1]],[[3773,1486],[3,-1]],[[3898,1481],[176,-6]],[[1175,922],[0,1],[1,-1],[-1,-1],[0,1]],[[2668,381],[0,1],[0,-1]],[[3552,185],[-21,-40]],[[3553,187],[-1,-2]],[[3552,185],[0,2]],[[3552,188],[1,3]],[[3594,253],[-45,-35],[4,-27]],[[3553,191],[1,-3]],[[3667,267],[-70,-11]],[[3736,278],[1,0]],[[3737,278],[-1,0]],[[3744,274],[-7,4]],[[3554,188],[0,-1],[-1,0],[0,1],[1,0]],[[3595,255],[1,1],[1,-2],[-2,-1],[0,2]],[[1176,922],[140,-13],[52,-64],[212,-34],[137,-50],[61,6]],[[1800,763],[0,-5]],[[1810,755],[-10,3]],[[1810,755],[111,-16],[50,31],[83,-93],[51,-128],[-14,-17],[156,-147],[86,-158],[98,-33],[41,36]],[[2472,230],[80,-28],[71,-64],[-13,192],[57,50]],[[2668,381],[-1,-1]],[[2667,380],[1,1]],[[2668,382],[2,0]],[[2670,382],[-2,-1]],[[3531,145],[-62,-91],[-23,3],[-48,66],[6,-48],[-196,174],[-82,-31],[-85,17],[-96,73],[-51,-7],[-56,63],[-100,49],[-68,-31]],[[3732,277],[-65,-10]],[[3736,278],[-1,0]],[[3735,278],[1,0]],[[4045,0],[-96,170],[-96,18],[-109,86]],[[2472,230]],[[3734,277],[0,1],[1,0]],[[3735,278]],[[3735,278],[-1,-1]],[[1176,923],[39,212],[-29,29],[10,19]],[[1198,1185],[29,23],[48,-34],[49,101],[83,-6],[97,152],[36,2],[37,41],[106,-26]],[[1684,1433],[-1,5]],[[1684,1433],[9,-25],[41,10],[26,61],[96,-21],[9,-32],[21,25],[263,18],[152,-29]],[[1779,767],[0,-1]],[[2301,1440],[30,-6],[3,-1]],[[2334,1433],[62,-10]],[[2396,1423],[9,16]],[[2405,1439],[11,21]],[[2416,1460],[0,1]],[[2416,1461]],[[2416,1461]],[[2416,1461],[0,-2]],[[2416,1459],[-11,-20]],[[2405,1439],[-9,-16]],[[2396,1423],[0,-1],[-62,11]],[[2334,1433],[-33,7]],[[2405,1532],[-10,23],[29,28]],[[2416,1461]],[[2416,1461]],[[2416,1461],[-22,12],[11,59]],[[2405,1532],[1,-33],[-12,-26],[22,-12]],[[2416,1459]],[[2416,1459],[0,1]],[[2416,1460],[-1,1]],[[2424,1583],[-1,2]],[[2425,1585],[-1,-2]],[[2776,1654],[178,-18],[264,-118],[135,36],[22,-27],[158,3],[104,-38],[42,38],[51,0],[43,-44]],[[3776,1485],[21,44],[33,5],[68,-53]],[[4074,1475],[22,4]],[[2423,1585],[1,2],[3,1],[-1,-3],[-3,0]],[[2427,1587],[68,47],[72,31],[51,4],[113,-6],[45,-9],[-209,11],[-141,-80]],[[3595,253],[0,1]],[[3596,256],[1,-1]],[[3848,1508],[60,-37],[93,24],[95,0],[0,-1495],[-1447,0],[3,53],[-18,65],[-74,27],[-202,2],[-46,17],[-69,161],[-23,34],[-25,17],[-29,15],[-23,6],[-18,16],[-14,37],[-18,73],[-55,111],[-72,41],[-215,-5],[-131,22],[-48,1],[-27,-25],[-22,-13],[-20,4],[-72,29],[-7,5],[-41,6],[-89,29],[-51,7],[-51,12],[-49,34],[-37,47],[-13,54],[16,25],[44,31],[20,26],[8,40],[-4,93],[6,26],[22,36],[2,24],[11,12],[45,3],[28,19],[24,36],[30,25],[48,-17],[30,87],[90,83],[104,35],[75,-58],[43,52],[46,1],[54,-20],[66,-14],[189,24],[63,-1],[31,-11],[23,-9],[32,-8],[33,5],[30,21],[2,21],[0,23],[18,32],[66,85],[30,28],[51,23],[118,20],[133,-6],[235,-51],[207,-45],[283,-6],[125,-30],[202,-15],[76,-19]],[[3487,172],[18,63],[74,52],[87,-7],[1,-23],[59,-6],[-2,-20],[25,-13],[-14,64],[60,-58],[-30,-14],[20,-20],[-19,-10],[-37,45],[-7,-30],[-48,17],[-6,-41],[34,-6],[2,-34],[-64,21],[-142,-9],[-11,29]]]}