{"objects":{"water":{"type":"GeometryCollection","geometries":[{"type":"Polygon","properties":{"kind":"lake","name":"Kauno marios","reservoir":true,"area":141026384,"sort_rank":200,"source":"naturalearthdata.com","min_zoom":0.0,"id":1261},"arcs":[[171]]},{"type":"Point","properties":{"label_placement":true,"kind":"lake","name":"Kauno marios","reservoir":true,"area":141026384,"sort_rank":200,"source":"naturalearthdata.com","min_zoom":0.0,"id":1261},"coordinates":[2447,1739]},{"type":"LineString","properties":{"source":"naturalearthdata.com","kind":"lake","reservoir":true,"sort_rank":367,"boundary":true,"min_zoom":0.0,"id":1261},"arcs":[172]}]},"buildings":{"type":"GeometryCollection","geometries":[]},"places":{"type":"GeometryCollection","geometries":[{"type":"Point","properties":{"name:ka":"\u10da\u10d8\u10e2\u10d5\u10d0","name:ko":"\ub9ac\ud22c\uc544\ub2c8\uc544","name:cv":"\u041b\u0438\u0442\u0432\u0430","name:cu":"\u041b\u0438\u0442\u044a\u0432\u0430","name:kl":"Litaueni","name:cs":"Litva","name:ki":"Litwania","name:co":"Lituania","name:kv":"\u041b\u0438\u0442\u0432\u0430","name:ku":"L\u00eetvanya","name:ti":"\u120a\u1271\u12cc\u1292\u12eb","name:ks":"\u0644\u0650\u062a\u06be\u064f\u0648\u0627\u0646\u0650\u06cc\u0627","name:to":"Lifiuenia","name:tl":"Litwaniya","name:ch":"Lituania","name:ce":"\u041b\u0438\u0442\u0432\u0430","name:ta":"\u0bb2\u0bbf\u0ba4\u0bc1\u0bb5\u0bc7\u0ba9\u0bbf\u0baf\u0bbe","name:tg":"\u041b\u0438\u0442\u0432\u0430","name:ca":"Litu\u00e0nia","name:te":"\u0c32\u0c3f\u0c25\u0c41\u0c2f\u0c47\u0c28\u0c3f\u0c2f\u0c3e","name:cy":"Lithwania","name:hr":"Litva","name:da":"Litauen","name:de":"Litauen","name:dz":"\u0f63\u0f72\u0f0b\u0f50\u0f74\u0f0b\u0f5d\u0f7a\u0f0b\u0f53\u0f72\u0f0b\u0f61","source":"openstreetmap.org","name:kn":"\u0cb2\u0cbf\u0ca5\u0cc1\u0cb5\u0cc7\u0ca8\u0cbf\u0caf\u0cbe","name:dv":"\u078d\u07a8\u078c\u07aa\u0787\u07ad\u0782\u07a8\u0787\u07a7","name:km":"\u179b\u17b8\u1791\u17bb\u1799\u17a2\u17b6\u1793\u17b8","name:uz":"Litva","name:kk":"\u041b\u0438\u0442\u0432\u0430","name:ur":"\u0644\u062a\u06be\u0648\u0627\u0646\u06cc\u0627","name:lb":"Litauen","name:la":"Lituania","name:lg":"Lisuwenya","name:uk":"\u041b\u0438\u0442\u0432\u0430","name:ug":"\u0644\u0649\u062a\u06cb\u0627","name:li":"Litauwe","name:ln":"Litwani","name:lo":"\u0ea5\u0eb4\u0ec0\u0e97\u0eb5\u0ec0\u0e99\u0e8d","name:el":"\u039b\u03b9\u03b8\u03bf\u03c5\u03b1\u03bd\u03af\u03b1","name:eo":"Litovujo","name:en":"Lithuania","name":"Lietuva","name:tk":"Litwa","name:ee":"Lituania nutome","name:th":"\u0e1b\u0e23\u0e30\u0e40\u0e17\u0e28\u0e25\u0e34\u0e17\u0e31\u0e27\u0e40\u0e19\u0e35\u0e22","name:eu":"Lituania","name:et":"Leedu","name:es":"Lituania","name:ay":"Litua\u00f1a","name:rm":"Lituania","name:rn":"Lituwaniya","name:az":"Litva","name:ie":"Lituania","name:id":"Lituania","name:ar":"\u0644\u064a\u062a\u0648\u0627\u0646\u064a\u0627","name:io":"Lituania","name:ak":"Lituwenia","name:am":"\u120a\u1271\u12cc\u1292\u12eb","name:it":"Lituania","name:an":"Lituania","name:ru":"\u041b\u0438\u0442\u0432\u0430","name:ab":"\u041b\u0438\u0442\u0432\u0430","name:af":"Litaue","name:zu":"i-Lithuania","name:ky":"\u041b\u0438\u0442\u0432\u0430","name:zh-yue":"\u7acb\u9676\u5b9b","name:zh":"\u7acb\u9676\u5b9b","name:so":"Lituweeniya","name:sn":"Lithuania","name:sl":"Litva","name:sk":"Litva","name:ja":"\u30ea\u30c8\u30a2\u30cb\u30a2","name:si":"\u0dbd\u0dd2\u0dad\u0dd4\u0dc0\u0dda\u0db1\u0dd2\u0dba\u0dcf\u0dc0","name:sh":"Litvanija","name:sg":"Lituan\u00efi","name:sc":"Litu\u00e0nia","name:sa":"\u0932\u0947\u0924\u0941\u0935\u093e","name:bs":"Litvanija","name:bm":"Lituyani","name:bn":"\u09b2\u09bf\u09a4\u09cd\u09ad\u09be","name:bo":"\u0f63\u0f72\u0f0b\u0f50\u0f74\u0f0b\u0f68\u0f7a\u0f0b\u0f53\u0f72\u0f0b\u0f61\u0f0d","name:br":"Lituania","name:sw":"Litwania","name:be":"\u041b\u0456\u0442\u0432\u0430","name:su":"Lituania","name:bg":"\u041b\u0438\u0442\u0432\u0430","name:ss":"Lithuwani","name:ba":"\u041b\u0438\u0442\u0432\u0430","name:sq":"Lituani","name:jv":"Lituania","name:bi":"Litwania","name:ia":"Lituania","name:pt":"Litu\u00e2nia","name:ps":"\u0644\u06d0\u062a\u0648\u0627\u0646\u064a\u0627","name:oc":"Litu\u00e0nia","min_zoom":2.0,"name:ro":"Lituania","name:sv":"Litauen","name:os":"\u041b\u0438\u0442\u0432\u0430","name:or":"\u0b32\u0b3f\u0b25\u0b3e\u0b06\u0b28\u0b3f\u0b06","name:pl":"Litwa","name:st":"Lituania","name:sr":"\u041b\u0438\u0442\u0432\u0430\u043d\u0438\u0458\u0430","name:tr":"Litvanya","name:hi":"\u0932\u093f\u0925\u0941\u0906\u0928\u093f\u092f\u093e","name:he":"\u05dc\u05d8\u05d1\u05d9\u05d4","name:ha":"Lituweniya","name:hy":"\u053c\u056b\u057f\u057e\u0561","name:ht":"Lityani","name:hu":"Litv\u00e1nia","name:qu":"Lituwa","population":3565205,"kind":"country","name:ts":"Lithuania","name:is":"Lith\u00e1en","name:yi":"\u05dc\u05d9\u05d8\u05e2","name:iu":"\u14d5\u140b\u1450\u1559","name:yo":"Or\u00edl\u1eb9\u0301\u00e8de Lituania","name:mt":"Litwanja","alt_name:eo":"Litovio","name:ms":"Lithuania","name:mr":"\u0932\u093f\u0925\u0941\u0906\u0928\u093f\u092f\u093e","name:my":"\u101c\u1005\u103a\u101e\u1030\u101a\u1031\u1038\u1014\u102e\u1038\u101a\u102c\u1038","official_name":"Lietuvos Respublika","name:kw":"Lithouani","name:mg":"Litoania","name:ve":"Lituania","name:ml":"\u0d32\u0d3f\u0d24\u0d4d\u0d35\u0d3e\u0d28\u0d3f\u0d2f","name:vi":"Litva","name:mn":"\u041b\u0438\u0442\u0432\u0430","name:mi":"Ritu\u0101nia","id":424297773,"name:mk":"\u041b\u0438\u0442\u0432\u0430\u043d\u0438\u0458\u0430","name:vo":"Lietuv\u00e4n","name:fa":"\u0644\u06cc\u062a\u0648\u0627\u0646\u06cc","name:rw":"Lituwaniya","name:ff":"Lituaanii","name:fi":"Liettua","name:fj":"Lituani","name:fo":"Litava","name:fr":"Lituanie","name:fy":"Litouwen","int_name":"Lithuania","name:nl":"Litouwen","name:nn":"Litauen","name:no":"Litauen","name:na":"Rituainiya","name:ne":"\u0932\u093f\u0925\u0941\u0905\u0928\u093f\u092f\u093e","name:ny":"Lithuania","name:wa":"Litwaneye","name:wo":"Lituwaani","name:nv":"\u0141it\u02bcoow\u0119\u0301\u0119ya","name:ga":"An Liotu\u00e1in","name:gd":"Liotu\u00e0inia","name:gn":"Litua\u00f1a","name:gl":"Lituania","name:gv":"Yn Litaan","name:gu":"\u0ab2\u0abf\u0aa5\u0ac1\u0a86\u0aa8\u0abf\u0aaf\u0abe","name:tt":"\u041b\u0438\u0442\u0432\u0430"},"coordinates":[1820,3014]},{"type":"Point","properties":{"kind":"region","name:en":"Marijampol\u0117 County","name":"Marijampol\u0117s apskritis","kind_detail":"state","min_zoom":4.0,"name:de":"Bezirk Marijampol\u0117","source":"openstreetmap.org","name:fr":"Apskritis de Marijampol\u0117","int_name":"Marijampol\u0117s county","name:uk":"\u041c\u0430\u0440\u0456\u044f\u043c\u043f\u043e\u043b\u044c\u0441\u044c\u043a\u0438\u0439 \u043f\u043e\u0432\u0456\u0442","name:be":"\u041c\u0430\u0440\u044b\u044f\u043c\u043f\u0430\u043b\u044c\u0441\u043a\u0456 \u043f\u0430\u0432\u0435\u0442","name:ru":"\u041c\u0430\u0440\u0438\u044f\u043c\u043f\u043e\u043b\u044c\u0441\u043a\u0438\u0439 \u0443\u0435\u0437\u0434","name:pl":"okr\u0119g mariampolski","id":783737730},"coordinates":[1038,1367]},{"type":"Point","properties":{"kind":"region","name:en":"Vilnius County","name":"Vilniaus apskritis","kind_detail":"state","min_zoom":4.0,"name:de":"Bezirk Wilna","source":"openstreetmap.org","name:fr":"Apskritis de Vilnius","name:uk":"\u0412\u0456\u043b\u044c\u043d\u044e\u0441\u044c\u043a\u0438\u0439 \u043f\u043e\u0432\u0456\u0442","name:be":"\u0412\u0456\u043b\u044c\u043d\u044e\u0441\u043a\u0456 \u043f\u0430\u0432\u0435\u0442","name:ru":"\u0412\u0438\u043b\u044c\u043d\u044e\u0441\u0441\u043a\u0438\u0439 \u0443\u0435\u0437\u0434","name:pl":"okr\u0119g wile\u0144ski","id":564957290},"coordinates":[3985,981]},{"type":"Point","properties":{"kind":"region","name:en":"Alytus County","name":"Alytaus apskritis","kind_detail":"state","min_zoom":4.0,"name:de":"Bezirk Alitten","source":"openstreetmap.org","name:fr":"Apskritis d'Alytus","name:uk":"\u0410\u043b\u0456\u0442\u0443\u0441\u044c\u043a\u0438\u0439 \u043f\u043e\u0432\u0456\u0442","name:be":"\u0410\u043b\u0456\u0442\u0443\u0441\u043a\u0456 \u043f\u0430\u0432\u0435\u0442","name:ru":"\u0410\u043b\u0438\u0442\u0443\u0441\u0441\u043a\u0438\u0439 \u0443\u0435\u0437\u0434","name:pl":"okr\u0119g olicki","id":825447812},"coordinates":[2382,142]},{"type":"Point","properties":{"kind":"region","name:en":"Kaunas County","name":"Kauno apskritis","kind_detail":"state","min_zoom":4.0,"name:de":"Bezirk Kauen","source":"openstreetmap.org","name:fr":"Apskritis de Kaunas","int_name":"Kaunas County","name:uk":"\u041a\u0430\u0443\u043d\u0430\u0441\u044c\u043a\u0438\u0439 \u043f\u043e\u0432\u0456\u0442","name:be":"\u041a\u0430\u045e\u043d\u0430\u0441\u043a\u0456 \u043f\u0430\u0432\u0435\u0442","name:ru":"\u041a\u0430\u0443\u043d\u0430\u0441\u0441\u043a\u0438\u0439 \u0443\u0435\u0437\u0434","name:pl":"okr\u0119g kowie\u0144ski","id":816425956},"coordinates":[1994,2384]},{"type":"Point","properties":{"source":"naturalearthdata.com","kind":"locality","name":"Kaunas","population":374643,"min_zoom":7.0,"id":2675},"coordinates":[2010,2000]}]},"transit":{"type":"GeometryCollection","geometries":[{"type":"LineString","properties":{"kind":"train","name":"Warszawa - \u0160e\u0161tokai","name:lt":"Var\u0161uva - \u0160e\u0161tokai","sort_rank":275,"name:de":"Warschau - Schestoken","source":"openstreetmap.org","min_zoom":6.0,"name:pl":"Warszawa - Szostak\u00f3w","ref":"Warszawa - \u0160e\u0161tokai","osm_relation":true},"arcs":[125]},{"type":"LineString","properties":{"source":"openstreetmap.org","kind":"train","sort_rank":275,"ref":"Stotis - Oro uostas","min_zoom":6.0,"osm_relation":true,"id":-1562141},"arcs":[126]},{"type":"MultiLineString","properties":{"kind":"train","name":"\u041a\u0430\u043b\u0438\u043d\u0438\u043d\u0433\u0440\u0430\u0434 - \u0425\u0430\u0440\u044c\u043a\u043e\u0432","name:lt":"Karaliau\u010dius - Charkovas","sort_rank":275,"name:de":"Kaliningrad - Charkiw","source":"openstreetmap.org","min_zoom":6.0,"ref":"\u041a\u0430\u043b\u0438\u043d\u0438\u043d\u0433\u0440\u0430\u0434 - \u0425\u0430\u0440\u044c\u043a\u043e\u0432","osm_relation":true},"arcs":[[127],[128],[129],[130],[131],[132],[133]]},{"type":"MultiLineString","properties":{"kind":"train","name:en":"Moscow - Kaliningrad","name":"\u041c\u043e\u0441\u043a\u0432\u0430 - \u041a\u0430\u043b\u0438\u043d\u0438\u043d\u0433\u0440\u0430\u0434","name:lt":"Maskva - Karaliau\u010dius","sort_rank":275,"name:de":"Moskau - Kaliningrad","source":"openstreetmap.org","min_zoom":6.0,"ref":"\u041c\u043e\u0441\u043a\u0432\u0430 - \u041a\u0430\u043b\u0438\u043d\u0438\u043d\u0433\u0440\u0430\u0434","osm_relation":true},"arcs":[[134],[135],[136],[137],[138],[139],[140]]},{"type":"MultiLineString","properties":{"kind":"train","name":"\u0421\u0430\u043d\u043a\u0442-\u041f\u0435\u0442\u0435\u0440\u0431\u0443\u0440\u0433 - \u041a\u0430\u043b\u0438\u043d\u0438\u043d\u0433\u0440\u0430\u0434","name:lt":"Sankt Peterburgas - Karaliau\u010dius","sort_rank":275,"name:de":"Sankt Petersburg - Kaliningrad","source":"openstreetmap.org","min_zoom":6.0,"ref":"\u0421\u0430\u043d\u043a\u0442-\u041f\u0435\u0442\u0435\u0440\u0431\u0443\u0440\u0433 - \u041a\u0430\u043b\u0438\u043d\u0438\u043d\u0433\u0440\u0430\u0434","osm_relation":true},"arcs":[[141],[142],[143],[144],[145],[146],[147]]},{"type":"MultiLineString","properties":{"kind":"train","name":"Klaip\u0117da - Vilnius","sort_rank":275,"name:de":"Memel - Wilna","source":"openstreetmap.org","min_zoom":6.0,"ref":"Klaip\u0117da - Vilnius","osm_relation":true},"arcs":[[148],[149],[150],[151],[152]]},{"type":"MultiLineString","properties":{"source":"openstreetmap.org","kind":"train","sort_rank":275,"ref":"Vilnius - Marcinkonys","min_zoom":6.0,"osm_relation":true},"arcs":[[153],[154],[155]]},{"type":"LineString","properties":{"kind":"train","name":"Vilnius - Ignalina","sort_rank":275,"name:de":"Wilna - Ingelin","source":"openstreetmap.org","min_zoom":6.0,"ref":"Vilnius - Ignalina","osm_relation":true},"arcs":[156]},{"type":"MultiLineString","properties":{"kind":"train","name":"\u041a\u0430\u043b\u0438\u043d\u0438\u043d\u0433\u0440\u0430\u0434 - \u0410\u0434\u043b\u0435\u0440","name:lt":"Karaliau\u010dius - Adleris","sort_rank":275,"name:de":"Kaliningrad - Adler","source":"openstreetmap.org","min_zoom":6.0,"ref":"\u041a\u0430\u043b\u0438\u043d\u0438\u043d\u0433\u0440\u0430\u0434 - \u0410\u0434\u043b\u0435\u0440","osm_relation":true},"arcs":[[157],[158],[159],[160],[161],[162],[163]]},{"type":"LineString","properties":{"source":"openstreetmap.org","kind":"train","name":"Vilnius - Turmantas","sort_rank":275,"ref":"Vilnius - Turmantas","min_zoom":6.0,"osm_relation":true},"arcs":[164]},{"type":"MultiLineString","properties":{"kind":"train","name":"Vilnius - \u0160e\u0161tokai","sort_rank":275,"name:de":"Wilna - Schestoken","source":"openstreetmap.org","min_zoom":6.0,"ref":"Vilnius - \u0160e\u0161tokai","osm_relation":true},"arcs":[[165],[166]]},{"type":"LineString","properties":{"kind":"train","name":"Vilnius - D\u016bk\u0161tas","sort_rank":275,"name:de":"Wilna - Dukschten","source":"openstreetmap.org","min_zoom":6.0,"ref":"Vilnius - D\u016bk\u0161tas","osm_relation":true},"arcs":[167]},{"type":"MultiLineString","properties":{"source":"openstreetmap.org","kind":"train","name":"Vilnius - Trakai","sort_rank":275,"ref":"Vilnius - Trakai","min_zoom":6.0,"osm_relation":true},"arcs":[[168],[169],[170]]}]},"pois":{"type":"GeometryCollection","geometries":[{"type":"Point","properties":{"kind":"nature_reserve","name:en":"Rominta Forest Landscape Park","protect_class":"5","name:lt":"Romintos girios kra\u0161tovaizd\u017eio parkas","area":434860000,"name:de":"Landschaftsschutzpark Rominter Heide","source":"openstreetmap.org","min_zoom":7.91,"tier":2,"name:ru":"\u041b\u0430\u043d\u0434\u0448\u0430\u0444\u0442\u043d\u044b\u0439 \u043f\u0430\u0440\u043a \"\u0420\u043e\u043c\u0438\u043d\u0442\u0435\u043d\u0441\u043a\u0430\u044f \u043f\u0443\u0449\u0430\"","id":-4515680,"osm_relation":true,"name":"Park Krajobrazowy Puszczy Rominckiej"},"coordinates":[62,405]},{"type":"Point","properties":{"kind":"nature_reserve","name":"\u041f\u0440\u0438\u0440\u043e\u0434\u043d\u044b\u0439 \u043f\u0430\u0440\u043a \u00ab\u0412\u0438\u0448\u0442\u044b\u043d\u0435\u0446\u043a\u0438\u0439\u00bb","name:lt":"Vi\u0161ty\u010dio gamtos parkas","area":694343000,"name:de":"Wischtynezki-Naturpark","source":"openstreetmap.org","min_zoom":7.57,"tier":2,"name:pl":"Wisztyniecki park przyrody","id":-3735158,"osm_relation":true},"coordinates":[101,602]},{"type":"Point","properties":{"kind":"protected_area","name":"\u017duvinto biosferos rezervatas","area":542609000,"source":"openstreetmap.org","min_zoom":7.0,"tier":2,"name:pl":"\u017buwincki Rezerwat Biosfery","id":-2888043,"osm_relation":true},"coordinates":[1589,776]},{"type":"Point","properties":{"name:nl":"Nationaal Park Trakai","name:ka":"\u10e2\u10e0\u10d0\u10d9\u10d0\u10d8\u10e1 \u10d8\u10e1\u10e2\u10dd\u10e0\u10d8\u10e3\u10da\u10d8 \u10d4\u10e0\u10dd\u10d5\u10dc\u10e3\u10da\u10d8 \u10de\u10d0\u10e0\u10d9\u10d8","name:no":"Trakai historiske nasjonalpark","name:tr":"Trakai Tarihi Mill\u00ee Park\u0131","name:cs":"N\u00e1rodn\u00ed park Trakai","min_zoom":6.83,"name:sv":"Trakais historiska nationalpark","tier":1,"name:sk":"Trakai (n\u00e1rodn\u00fd park)","name:pl":"Trocki Historyczny Park Narodowy","id":-1502006,"name:ca":"Parc Nacional Hist\u00f2ric de Trakai","name":"Trak\u0173 istorinis nacionalinis parkas","kind":"national_park","name:en":"Trakai Historical National Park","protect_class":"2","area":242142000,"name:fi":"Trakain historiallinen kansallispuisto","name:da":"Trakai historiske nationalpark","name:de":"Nationalpark Trakai","source":"openstreetmap.org","name:fr":"Parc historique national de Trakai","osm_relation":true,"name:zh":"\u7279\u62c9\u51f1\u6b77\u53f2\u570b\u5bb6\u516c\u5712","name:es":"Parque nacional hist\u00f3rico de Trakai"},"coordinates":[3529,1255]}]},"boundaries":{"type":"GeometryCollection","geometries":[{"type":"MultiLineString","properties":{"source":"naturalearthdata.com","kind":"country","sort_rank":262,"kind_detail":"2","min_zoom":0.0,"id":320},"arcs":[[0],[1]]},{"type":"MultiLineString","properties":{"source":"naturalearthdata.com","kind":"country","sort_rank":262,"kind_detail":"2","min_zoom":0.0,"id":56},"arcs":[[2],[3],[4]]},{"type":"MultiLineString","properties":{"source":"naturalearthdata.com","kind":"country","sort_rank":262,"kind_detail":"2","min_zoom":0.0,"id":116},"arcs":[[5],[6],[7],[8],[9],[10]]},{"type":"MultiLineString","properties":{"source":"naturalearthdata.com","kind":"country","sort_rank":262,"kind_detail":"2","min_zoom":0.0,"id":235},"arcs":[[11],[12],[13],[14]]},{"type":"MultiLineString","properties":{"source":"naturalearthdata.com","kind":"region","name":"Panevezio - Utenos","sort_rank":256,"kind_detail":"4","min_zoom":6.7,"id":2469},"arcs":[[15],[16],[17],[18],[19],[20],[21],[22],[23],[24],[25],[26],[27]]},{"type":"MultiLineString","properties":{"source":"naturalearthdata.com","kind":"region","name":"Panevezio - Kauno","sort_rank":256,"kind_detail":"4","min_zoom":6.7,"id":3191},"arcs":[[28],[29],[30],[31],[32],[33],[34],[35],[36]]},{"type":"MultiLineString","properties":{"source":"naturalearthdata.com","kind":"region","name":"Vilniaus - Kauno","sort_rank":256,"kind_detail":"4","min_zoom":6.7,"id":2470},"arcs":[[37],[38],[39],[40],[41],[42],[43]]},{"type":"MultiLineString","properties":{"source":"naturalearthdata.com","kind":"region","name":"Panevezio - Vilniaus","sort_rank":256,"kind_detail":"4","min_zoom":6.7,"id":2471},"arcs":[[44],[45],[46],[47],[48]]},{"type":"MultiLineString","properties":{"source":"naturalearthdata.com","kind":"region","name":"Utenos - Vilniaus","sort_rank":256,"kind_detail":"4","min_zoom":6.7,"id":2472},"arcs":[[49],[50],[51],[52],[53],[54],[55],[56],[57]]},{"type":"MultiLineString","properties":{"source":"naturalearthdata.com","kind":"region","name":"Alytaus - Kauno","sort_rank":256,"kind_detail":"4","min_zoom":6.7,"id":2473},"arcs":[[58],[59],[60],[61],[62],[63],[64],[65]]},{"type":"MultiLineString","properties":{"source":"naturalearthdata.com","kind":"region","name":"Vilniaus - Alytaus","sort_rank":256,"kind_detail":"4","min_zoom":6.7,"id":2474},"arcs":[[66],[67],[68],[69],[70],[71],[72]]},{"type":"MultiLineString","properties":{"source":"naturalearthdata.com","kind":"region","name":"Marijampoles - Kauno","sort_rank":256,"kind_detail":"4","min_zoom":6.7,"id":2475},"arcs":[[73],[74],[75],[76],[77],[78],[79],[80],[81],[82],[83]]},{"type":"MultiLineString","properties":{"source":"naturalearthdata.com","kind":"region","name":"Marijampoles - Taurages","sort_rank":256,"kind_detail":"4","min_zoom":6.7,"id":2476},"arcs":[[84],[85],[86],[87],[88],[89],[90]]},{"type":"MultiLineString","properties":{"source":"naturalearthdata.com","kind":"region","name":"Alytaus - Marijampoles","sort_rank":256,"kind_detail":"4","min_zoom":6.7,"id":2477},"arcs":[[91],[92]]},{"type":"MultiLineString","properties":{"source":"naturalearthdata.com","kind":"region","name":"Tel\u0161iai - \u0160iauliai","sort_rank":256,"kind_detail":"4","min_zoom":6.7,"id":3188},"arcs":[[93],[94]]},{"type":"MultiLineString","properties":{"source":"naturalearthdata.com","kind":"region","name":"Kauno - \u0160iauliai","sort_rank":256,"kind_detail":"4","min_zoom":6.7,"id":3189},"arcs":[[95],[96],[97],[98],[99],[100],[101],[102],[103]]},{"type":"MultiLineString","properties":{"source":"naturalearthdata.com","kind":"region","name":"\u0160iauliai - Panevezio","sort_rank":256,"kind_detail":"4","min_zoom":6.7,"id":3190},"arcs":[[104],[105],[106],[107],[108]]},{"type":"MultiLineString","properties":{"source":"naturalearthdata.com","kind":"region","name":"\u0160iauliai - Taurages","sort_rank":256,"kind_detail":"4","min_zoom":6.7,"id":3193},"arcs":[[109],[110]]},{"type":"MultiLineString","properties":{"source":"naturalearthdata.com","kind":"region","name":"Taurages - Kauno","sort_rank":256,"kind_detail":"4","min_zoom":6.7,"id":3194},"arcs":[[111],[112],[113],[114],[115],[116],[117],[118],[119],[120],[121],[122],[123]]},{"type":"LineString","properties":{"source":"naturalearthdata.com","kind":"region","name":"Warmian-Masurian - Podlachian","sort_rank":256,"kind_detail":"4","min_zoom":5.5,"id":6553},"arcs":[124]}]},"roads":{"type":"GeometryCollection","geometries":[{"type":"LineString","properties":{"kind":"highway","network":"e-road","sort_rank":383,"kind_detail":"motorway","source":"naturalearthdata.com","min_zoom":4.0,"all_networks":["e-road"],"shield_text":"85","ref":"85","id":4216,"all_shield_texts":["85"]},"arcs":[173]},{"type":"LineString","properties":{"kind":"highway","network":"e-road","sort_rank":383,"kind_detail":"motorway","source":"naturalearthdata.com","min_zoom":4.0,"all_networks":["e-road"],"shield_text":"85","ref":"85","id":4639,"all_shield_texts":["85"]},"arcs":[174]},{"type":"LineString","properties":{"kind":"major_road","network":"e-road","sort_rank":380,"kind_detail":"primary","source":"naturalearthdata.com","min_zoom":4.0,"landuse_kind":"urban_area","shield_text":"28","ref":"28","id":4713},"arcs":[175]},{"type":"LineString","properties":{"kind":"major_road","network":"e-road","sort_rank":380,"kind_detail":"primary","source":"naturalearthdata.com","min_zoom":4.0,"landuse_kind":"urban_area","shield_text":"85","ref":"85","id":4715},"arcs":[176]},{"type":"LineString","properties":{"kind":"major_road","network":"e-road","sort_rank":380,"kind_detail":"primary","source":"naturalearthdata.com","min_zoom":4.0,"shield_text":"85","ref":"85","id":4715},"arcs":[177]},{"type":"LineString","properties":{"kind":"highway","network":"e-road","sort_rank":383,"kind_detail":"motorway","source":"naturalearthdata.com","min_zoom":4.0,"all_networks":["e-road"],"landuse_kind":"park","shield_text":"85","ref":"85","id":4716,"all_shield_texts":["85"]},"arcs":[178]},{"type":"LineString","properties":{"kind":"highway","network":"e-road","sort_rank":383,"kind_detail":"motorway","source":"naturalearthdata.com","min_zoom":4.0,"all_networks":["e-road"],"landuse_kind":"urban_area","shield_text":"85","ref":"85","id":4716,"all_shield_texts":["85"]},"arcs":[179]},{"type":"MultiLineString","properties":{"kind":"highway","network":"e-road","sort_rank":383,"kind_detail":"motorway","source":"naturalearthdata.com","min_zoom":4.0,"all_networks":["e-road"],"shield_text":"85","ref":"85","id":4716,"all_shield_texts":["85"]},"arcs":[[180],[181],[182]]},{"type":"LineString","properties":{"source":"naturalearthdata.com","kind":"major_road","kind_detail":"primary","sort_rank":380,"landuse_kind":"urban_area","min_zoom":4.0,"id":4717},"arcs":[183]},{"type":"MultiLineString","properties":{"source":"naturalearthdata.com","kind":"major_road","sort_rank":380,"kind_detail":"primary","min_zoom":4.0,"id":4717},"arcs":[[184],[185]]},{"type":"MultiLineString","properties":{"kind":"major_road","network":"e-road","sort_rank":380,"kind_detail":"primary","source":"naturalearthdata.com","min_zoom":3.0,"landuse_kind":"urban_area","shield_text":"67","ref":"67","id":4721},"arcs":[[186],[187]]},{"type":"LineString","properties":{"kind":"major_road","network":"e-road","sort_rank":380,"kind_detail":"primary","source":"naturalearthdata.com","min_zoom":3.0,"landuse_kind":"urban_area","shield_text":"67","ref":"67","id":4721},"arcs":[188]},{"type":"MultiLineString","properties":{"kind":"major_road","network":"e-road","sort_rank":380,"kind_detail":"primary","source":"naturalearthdata.com","min_zoom":3.0,"shield_text":"67","ref":"67","id":4721},"arcs":[[189],[190],[191]]},{"type":"LineString","properties":{"kind":"major_road","network":"e-road","sort_rank":380,"kind_detail":"primary","source":"naturalearthdata.com","min_zoom":3.0,"shield_text":"67","ref":"67","id":4722},"arcs":[192]},{"type":"LineString","properties":{"kind":"major_road","network":"e-road","sort_rank":380,"kind_detail":"primary","source":"naturalearthdata.com","min_zoom":3.0,"landuse_kind":"urban_area","shield_text":"67","ref":"67","id":4723},"arcs":[193]},{"type":"MultiLineString","properties":{"kind":"major_road","network":"e-road","sort_rank":380,"kind_detail":"primary","source":"naturalearthdata.com","min_zoom":3.0,"shield_text":"67","ref":"67","id":4723},"arcs":[[194],[195]]},{"type":"LineString","properties":{"kind":"major_road","network":"e-road","sort_rank":380,"kind_detail":"primary","source":"naturalearthdata.com","min_zoom":3.0,"landuse_kind":"urban_area","shield_text":"67","ref":"67","id":4724},"arcs":[196]},{"type":"LineString","properties":{"kind":"major_road","network":"e-road","sort_rank":380,"kind_detail":"primary","source":"naturalearthdata.com","min_zoom":3.0,"shield_text":"67","ref":"67","id":4724},"arcs":[197]},{"type":"LineString","properties":{"kind":"major_road","network":"e-road","sort_rank":380,"kind_detail":"primary","source":"naturalearthdata.com","min_zoom":3.0,"landuse_kind":"park","shield_text":"77","ref":"77","id":5057},"arcs":[198]},{"type":"LineString","properties":{"kind":"major_road","network":"e-road","sort_rank":380,"kind_detail":"primary","source":"naturalearthdata.com","min_zoom":3.0,"shield_text":"77","ref":"77","id":5057},"arcs":[199]},{"type":"LineString","properties":{"kind":"major_road","network":"e-road","sort_rank":380,"kind_detail":"primary","source":"naturalearthdata.com","min_zoom":3.0,"shield_text":"28","ref":"28","id":5060},"arcs":[200]},{"type":"LineString","properties":{"kind":"major_road","network":"e-road","sort_rank":380,"kind_detail":"primary","source":"naturalearthdata.com","min_zoom":4.0,"landuse_kind":"urban_area","shield_text":"262","ref":"262","id":5065},"arcs":[201]},{"type":"LineString","properties":{"kind":"major_road","network":"e-road","sort_rank":380,"kind_detail":"primary","source":"naturalearthdata.com","min_zoom":4.0,"landuse_kind":"urban_area","shield_text":"262","ref":"262","id":5065},"arcs":[202]},{"type":"LineString","properties":{"kind":"major_road","network":"e-road","sort_rank":380,"kind_detail":"primary","source":"naturalearthdata.com","min_zoom":4.0,"landuse_kind":"urban_area","shield_text":"262","ref":"262","id":5065},"arcs":[203]},{"type":"LineString","properties":{"kind":"major_road","network":"e-road","sort_rank":380,"kind_detail":"primary","source":"naturalearthdata.com","min_zoom":4.0,"landuse_kind":"urban_area","shield_text":"262","ref":"262","id":5065},"arcs":[204]},{"type":"MultiLineString","properties":{"kind":"major_road","network":"e-road","sort_rank":380,"kind_detail":"primary","source":"naturalearthdata.com","min_zoom":4.0,"shield_text":"262","ref":"262","id":5065},"arcs":[[205],[206],[207],[208]]},{"type":"LineString","properties":{"kind":"major_road","network":"e-road","sort_rank":380,"kind_detail":"primary","source":"naturalearthdata.com","min_zoom":3.0,"shield_text":"28","ref":"28","id":5066},"arcs":[209]},{"type":"LineString","properties":{"kind":"major_road","network":"e-road","sort_rank":380,"kind_detail":"primary","source":"naturalearthdata.com","min_zoom":4.0,"landuse_kind":"urban_area","shield_text":"67","ref":"67","id":5077},"arcs":[210]},{"type":"LineString","properties":{"kind":"major_road","network":"e-road","sort_rank":380,"kind_detail":"primary","source":"naturalearthdata.com","min_zoom":4.0,"shield_text":"67","ref":"67","id":5077},"arcs":[211]},{"type":"LineString","properties":{"kind":"highway","network":"e-road","sort_rank":383,"kind_detail":"motorway","source":"naturalearthdata.com","min_zoom":6.0,"all_networks":["e-road"],"shield_text":"85","ref":"85","id":5437,"all_shield_texts":["85"]},"arcs":[212]},{"type":"LineString","properties":{"kind":"highway","network":"e-road","sort_rank":383,"kind_detail":"motorway","source":"naturalearthdata.com","min_zoom":6.0,"all_networks":["e-road"],"shield_text":"85","ref":"85","id":5438,"all_shield_texts":["85"]},"arcs":[213]},{"type":"LineString","properties":{"kind":"major_road","network":"e-road","sort_rank":380,"kind_detail":"primary","source":"naturalearthdata.com","min_zoom":6.0,"landuse_kind":"urban_area","shield_text":"28","ref":"28","id":5511},"arcs":[214]},{"type":"LineString","properties":{"kind":"major_road","network":"e-road","sort_rank":380,"kind_detail":"primary","source":"naturalearthdata.com","min_zoom":6.0,"shield_text":"28","ref":"28","id":5511},"arcs":[215]},{"type":"MultiLineString","properties":{"kind":"major_road","network":"e-road","sort_rank":380,"kind_detail":"primary","source":"naturalearthdata.com","min_zoom":6.0,"landuse_kind":"national_park","shield_text":"28","ref":"28","id":5653},"arcs":[[216],[217],[218],[219]]},{"type":"LineString","properties":{"kind":"major_road","network":"e-road","sort_rank":380,"kind_detail":"primary","source":"naturalearthdata.com","min_zoom":6.0,"landuse_kind":"urban_area","shield_text":"28","ref":"28","id":5653},"arcs":[220]},{"type":"MultiLineString","properties":{"kind":"major_road","network":"e-road","sort_rank":380,"kind_detail":"primary","source":"naturalearthdata.com","min_zoom":6.0,"shield_text":"28","ref":"28","id":5653},"arcs":[[221],[222],[223],[224],[225],[226]]},{"type":"LineString","properties":{"kind":"highway","network":"e-road","sort_rank":383,"kind_detail":"motorway","source":"naturalearthdata.com","min_zoom":7.0,"all_networks":["e-road"],"landuse_kind":"urban_area","shield_text":"272","ref":"272","id":5927,"all_shield_texts":["272"]},"arcs":[227]},{"type":"LineString","properties":{"kind":"highway","network":"e-road","sort_rank":383,"kind_detail":"motorway","source":"naturalearthdata.com","min_zoom":7.0,"all_networks":["e-road"],"shield_text":"272","ref":"272","id":5927,"all_shield_texts":["272"]},"arcs":[228]},{"type":"LineString","properties":{"kind":"highway","network":"e-road","sort_rank":383,"kind_detail":"motorway","source":"naturalearthdata.com","min_zoom":7.0,"all_networks":["e-road"],"shield_text":"272","ref":"272","id":5928,"all_shield_texts":["272"]},"arcs":[229]},{"type":"LineString","properties":{"kind":"major_road","network":"e-road","sort_rank":380,"kind_detail":"primary","source":"naturalearthdata.com","min_zoom":6.0,"landuse_kind":"urban_area","shield_text":"28","ref":"28","id":6021},"arcs":[230]},{"type":"LineString","properties":{"kind":"major_road","network":"e-road","sort_rank":380,"kind_detail":"primary","source":"naturalearthdata.com","min_zoom":6.0,"shield_text":"28","ref":"28","id":6021},"arcs":[231]},{"type":"MultiLineString","properties":{"kind":"major_road","network":"e-road","sort_rank":380,"kind_detail":"primary","source":"naturalearthdata.com","min_zoom":7.0,"shield_text":"272","ref":"272","id":6114},"arcs":[[232],[233]]},{"type":"LineString","properties":{"source":"naturalearthdata.com","kind":"major_road","sort_rank":380,"kind_detail":"primary","min_zoom":7.0,"id":6213},"arcs":[234]}]},"earth":{"type":"GeometryCollection","geometries":[{"type":"Polygon","properties":{"sort_rank":10,"source":"naturalearthdata.com","min_zoom":0.0,"kind":"earth","area":392091543542},"arcs":[[235]]}]},"landuse":{"type":"GeometryCollection","geometries":[{"type":"MultiPolygon","properties":{"kind":"national_park","protect_class":"2","area":721529747,"sort_rank":18,"source":"openstreetmap.org","min_zoom":5.0,"tier":1,"osm_relation":true},"arcs":[[[236]]]},{"type":"MultiPolygon","properties":{"kind":"national_park","protect_class":"2","area":3287021832,"sort_rank":18,"source":"openstreetmap.org","min_zoom":3.0,"tier":1,"osm_relation":true},"arcs":[[[237]]]},{"type":"Polygon","properties":{"kind":"nature_reserve","area":694342976,"sort_rank":23,"source":"openstreetmap.org","min_zoom":6.0,"tier":2,"id":-3735158,"osm_relation":true},"arcs":[[238]]},{"type":"MultiPolygon","properties":{"source":"openstreetmap.org","kind":"park","tier":2,"area":563835442,"sort_rank":24,"min_zoom":6.0,"osm_relation":true},"arcs":[[[239],[240]]]},{"type":"MultiPolygon","properties":{"kind":"park","protect_class":"4","area":3358997253,"sort_rank":24,"source":"openstreetmap.org","min_zoom":6.0,"tier":2,"osm_relation":true},"arcs":[[[241]],[[242]],[[243]],[[244]],[[245]],[[246]],[[247]],[[248]]]},{"type":"MultiPolygon","properties":{"source":"naturalearthdata.com","kind":"urban_area","name":"","area":3992395219,"sort_rank":11,"min_zoom":4.0},"arcs":[[[249]],[[250]],[[251]],[[252]],[[253]],[[254]],[[255]],[[256]],[[257]],[[258]]]},{"type":"Polygon","properties":{"kind":"protected_area","area":542609024,"sort_rank":17,"source":"openstreetmap.org","min_zoom":6.0,"tier":2,"id":-2888043,"osm_relation":true},"arcs":[[259]]},{"type":"Polygon","properties":{"kind":"nature_reserve","protect_class":"5","area":434860000,"sort_rank":23,"source":"openstreetmap.org","min_zoom":6.0,"tier":2,"id":-4515680,"osm_relation":true},"arcs":[[260]]}]}},"type":"Topology","transform":{"translate":[22.5,54.1624339681],"scale":[0.0006866455,0.0003940769]},"arcs":[[[289,458],[-274,15],[-15,1]],[[389,492],[-100,-34]],[[4060,210],[36,2]],[[3967,244],[93,-34]],[[3839,0],[30,34],[24,53],[30,119],[18,33],[26,5]],[[626,553],[-16,2],[-87,46],[-31,4]],[[492,605],[-37,-17],[-2,-4],[-36,-69],[-28,-23]],[[801,336],[-26,37],[0,27],[9,29],[5,24],[-9,14],[-50,6],[-17,12],[-9,16],[-6,20],[-9,19],[-15,16],[-15,4]],[[659,560],[-33,-7]],[[1370,0],[-12,17],[-13,9],[-32,8],[-15,11],[-13,20],[-27,51],[-14,23],[-27,23],[-29,25],[-117,46],[-56,35],[-90,77],[-26,13]],[[899,358],[-30,-7],[-34,-15],[-34,0]],[[60,2318],[35,-21],[9,-9],[13,-16],[16,-51],[25,-115],[19,-57],[17,-30],[24,-13]],[[0,2300],[60,18]],[[300,2006],[14,-4],[9,-11],[11,-17],[14,-16],[19,-7],[-16,-35],[12,-19],[87,-41],[18,-21],[12,-33],[21,-102],[6,-47],[-3,-45],[-19,-44],[-22,-24],[-46,-34],[-19,-34],[-12,-14],[-26,-14],[-15,-13],[-13,-3],[-5,-5],[-3,-12],[3,-12],[4,-11],[0,-10],[-32,-48],[-6,-18],[-1,-26],[9,-58],[2,-27],[-6,-46],[-32,-121],[-11,-197],[9,-99],[38,-88],[88,-158]],[[218,2006],[82,0]],[[4059,3937],[9,6],[2,18],[-9,38],[11,18],[10,12],[14,8]],[[3575,3996],[92,-7],[6,-2],[21,-16],[4,-5],[11,-19],[10,-11],[21,-18],[4,-11],[-4,-22],[2,-8],[13,-5]],[[3484,3968],[20,3],[27,14],[44,11]],[[3437,3972],[47,-4]],[[3395,3936],[12,9],[6,8],[4,9],[8,7],[12,3]],[[3340,3956],[42,-18],[13,-2]],[[3284,3941],[16,4],[22,9],[18,2]],[[3188,3956],[96,-15]],[[3194,3795],[16,4],[13,13],[7,18],[-1,12],[-7,15],[-30,23],[-8,12],[3,20],[3,11],[-2,33]],[[4014,3949],[32,-10],[13,-2]],[[3755,3872],[22,1],[42,8],[167,65],[12,2],[16,1]],[[3158,3819],[10,-5],[10,-11],[16,-8]],[[3103,3452],[28,47],[0,16],[-5,9],[-2,9],[-2,10],[-1,43],[4,23],[12,22],[15,15],[27,21],[4,12],[0,17],[-10,32],[-15,22],[-16,15],[-19,12],[-14,11],[-5,10],[11,10],[43,11]],[[1991,3570],[28,-1],[11,-3],[11,-7],[8,-16],[5,-18],[6,-44],[7,-22],[14,-16],[21,-9]],[[2154,3448],[17,-6],[29,-27],[16,-20],[43,-43],[7,-19],[1,-22],[-3,-21],[-9,-39],[1,-13],[7,-7]],[[2102,3434],[27,3],[12,10],[13,1]],[[2490,3323],[12,-5],[18,-22],[14,-21],[17,-15],[31,-10]],[[2360,3263],[28,8],[72,35],[14,12],[16,5]],[[2625,3284],[69,-37],[20,-16],[18,-22],[19,-46],[39,-40]],[[2582,3250],[20,0],[10,9],[1,12],[2,13],[10,0]],[[2336,3270],[24,-7]],[[2263,3231],[15,6],[26,25],[14,6],[18,2]],[[2790,3123],[-23,-75],[-6,-15],[-6,-24],[2,-25],[-4,-24],[-2,-31],[9,-30],[28,-46],[12,-89],[12,-22],[18,-16],[57,-20],[19,-14],[2,-9],[-9,-5],[-15,-4],[-10,-11],[-5,-19],[5,-36],[10,-23],[15,-19],[12,-12],[24,-17],[13,-11],[3,-15],[-2,-20],[2,-31],[15,-29],[17,-11]],[[3030,2436],[13,-3],[8,-11],[19,-67],[44,-21],[15,-27],[5,-27],[0,-12],[-4,-13],[-8,-10],[-13,-9],[-25,-15],[-9,-6],[-7,-11],[-8,-6],[-18,-12],[-7,-7],[-6,-7],[-8,-15],[-9,-21],[-28,-42],[12,-5],[20,-24],[74,-38],[78,-74],[27,-11],[63,-4],[26,-11],[26,-21],[32,-43],[8,-16],[-43,-33],[-25,-53],[-19,-20],[-96,-54],[-17,-14],[-9,-13],[-5,-15],[-10,-48],[-4,-12],[-9,-21],[-7,-19],[-5,-24],[-2,-24],[-1,-25],[-4,-29],[-10,-12],[-16,-4]],[[2983,2420],[18,1],[29,15]],[[3068,1427],[-54,13],[-16,0]],[[2998,1440],[-9,-8],[-18,-31],[-60,-18],[-24,-15],[-13,-20],[-2,-24],[4,-20],[5,-21],[4,-19],[1,-13],[-3,-30],[21,-24],[1,-11],[1,-14],[-4,-15],[-4,-24],[-7,-14],[-11,-11],[-14,-2]],[[2866,1106],[-13,3],[-11,6]],[[2842,1115],[-14,-3],[-8,-15],[-4,-24],[-4,-54],[-6,-19],[-5,-12],[-15,-20]],[[3075,3344],[23,5],[9,11],[-2,12],[-10,11],[-27,20],[-8,13],[-1,13],[8,9],[7,5],[29,9]],[[3007,3369],[16,-3],[34,-18],[18,-4]],[[2865,3150],[13,7],[52,56],[17,27],[10,24],[9,45],[9,25],[17,28],[15,7]],[[2842,3157],[11,0],[12,-7]],[[2790,3123],[41,32],[11,2]],[[3103,3452],[201,-152],[36,-40],[9,-22],[0,-15],[-8,-8],[-21,-13],[-8,-11],[-6,-14],[-1,-17],[1,-15],[5,-16],[8,-17],[8,-16],[18,-13],[24,-9],[70,-2],[15,-5],[7,-15],[0,-16],[-2,-16],[5,-9],[13,-3]],[[3574,3045],[7,-5],[6,-17],[2,-21],[-1,-20],[-1,-18],[0,-12],[14,-7],[14,-4]],[[3477,3008],[28,8],[58,28],[11,1]],[[3726,2950],[-4,-50],[7,-11],[13,-14],[40,-31],[18,-27],[15,-7]],[[3615,2941],[111,9]],[[3865,2822],[24,-5],[8,-11],[2,-14],[-6,-17],[-7,-15],[-22,-28],[-7,-16],[5,-30],[10,-11],[15,-1]],[[3815,2810],[13,2],[18,7],[19,3]],[[3901,2678],[17,-1],[71,-42],[19,-15],[-2,-11],[-11,-7],[-18,-5],[-14,-7],[-16,-21],[-25,-16],[-21,-18],[-13,-8],[-50,-20],[3,-51],[-8,-39],[-9,-29],[4,-14],[10,-9],[59,-14],[22,-12],[25,-19],[8,-19],[4,-12],[9,-58],[69,-2],[62,-22]],[[3887,2674],[14,4]],[[2656,951],[-20,4],[-27,12],[-13,18],[-31,21],[-23,5]],[[2542,1011],[-28,-5],[-29,-11],[-160,-33]],[[2325,962],[-13,2],[-14,5],[-13,8],[-28,8],[-29,1]],[[2228,986],[-33,-11],[-11,-7],[-9,-9],[-5,-6],[-4,-8],[-3,-8],[0,-10],[2,-9],[2,-8],[3,-6],[3,-5],[12,-12],[3,-5],[2,-7],[0,-8],[-3,-6],[-6,-4],[-85,-33],[-49,-41],[-39,-24],[-20,-6]],[[2786,968],[-130,-17]],[[1845,764],[-15,16]],[[1988,753],[-7,1],[3,9],[-3,7]],[[1981,770],[-136,-6]],[[2786,968],[14,-58],[-3,-16],[-1,-23],[-8,-8],[-4,-8],[2,-7],[25,-27],[7,-19],[-7,-38],[-6,-21],[0,-21],[6,-17],[29,-19],[129,-17]],[[3635,733],[3,-116],[-2,-11],[-4,-17],[-27,-14],[-39,-8],[-15,-9],[-6,-7],[-5,-12],[-6,-35],[-9,-78],[-10,-38],[-52,-69],[-157,-159],[-5,-25],[7,-20],[14,-13],[36,-17],[14,-9],[9,-14],[6,-16],[11,-37],[4,-9]],[[3359,629],[15,2],[69,51],[119,45],[73,6]],[[3140,730],[40,-8],[43,-21],[9,-8],[4,-14],[-2,-15],[-5,-17],[3,-16],[10,-13],[16,-1]],[[2969,669],[24,1],[48,15],[19,13],[34,15],[26,16],[20,1]],[[3311,641],[29,-6],[19,-6]],[[3258,617],[12,5],[23,15],[18,4]],[[1465,2250],[-32,4],[-74,62],[-30,9]],[[1435,2085],[14,2],[11,4],[9,7],[8,12],[16,32],[10,14],[6,6],[7,4],[9,2],[19,0],[11,3],[11,11],[1,23],[-9,22],[-27,25],[-32,3]],[[1499,2255],[-34,-5]],[[1373,2092],[62,-7]],[[1448,1862],[-32,104],[-13,17],[-16,17],[-72,19],[-6,14],[2,14],[9,15],[11,11],[10,9],[16,7],[16,3]],[[1637,1560],[-10,1],[-5,9],[3,13],[15,19],[6,16],[6,11],[3,7],[17,9],[-6,26],[-4,13],[-9,21],[-4,29],[0,14],[3,16],[1,14],[-5,14],[-11,16],[-31,33],[-40,31],[-26,14],[-22,2]],[[1518,1888],[-34,-19],[-36,-7]],[[1788,969],[-17,4],[-15,14],[-17,24],[-33,26],[-10,12],[-2,15],[8,19],[13,14],[10,14],[0,14],[-11,17],[-42,16],[-7,7],[-6,8],[-7,6],[-9,6],[-7,7],[1,10],[10,13],[15,8],[36,13],[14,8],[8,23],[2,25],[-28,118],[4,32],[0,19],[-8,17],[-6,7],[-7,13],[-5,16],[2,27],[-11,15],[-11,4]],[[1652,1560],[-15,0]],[[1830,780],[8,20],[8,15],[13,17],[3,18],[-2,26],[-26,75],[-9,17],[-10,5]],[[1815,973],[-27,-4]],[[1194,2306],[-463,87]],[[731,2393],[-45,-12],[-28,-13],[-18,-17],[-21,-14]],[[619,2337],[-79,23]],[[540,2360],[-74,-10],[-73,-25],[-16,-13],[-44,-19],[-123,-23]],[[1329,2325],[-135,-19]],[[210,2270],[-19,1],[-8,3],[-27,20],[-11,13]],[[145,2307],[-41,-19]],[[1830,780],[-76,21],[-27,28],[-12,21],[-24,25],[-16,5]],[[1675,880],[-13,-4],[-123,-99],[-12,-14],[-9,-19],[-4,-22],[1,-20],[3,-27],[0,-9],[-2,-18],[-111,-42],[-13,-13],[-11,-18],[7,-10],[17,-12],[4,-7],[-2,-14],[-13,-7],[-46,-8],[-35,-15],[-21,-17],[-26,-34],[-16,-43],[-5,-22],[-11,-27],[-4,-18],[0,-17],[5,-17],[1,-16],[-14,-82],[-4,-46],[-1,-1]],[[0,3898],[7,9],[2,20],[-8,41],[-1,7]],[[0,4002],[1,9],[4,24],[4,34],[-4,23],[-2,4]],[[1095,3501],[-13,7],[-10,16],[-12,41],[-7,14],[-10,7],[-26,6],[-32,2]],[[985,3594],[-91,-11],[-30,-23],[-26,-43],[-5,-19],[-9,-15],[-13,-14],[-53,-35],[-224,-89]],[[1991,3570],[-198,-98],[-67,-47],[-28,-29],[-15,-19],[-22,-43],[-9,-4]],[[1417,3439],[-24,0],[-50,14],[-31,19],[-111,93]],[[1201,3565],[-74,-45],[-13,-12],[-19,-7]],[[1652,3330],[-12,5],[-24,15],[-42,2],[-17,40],[4,13],[6,18],[9,15],[7,19],[-1,11],[-8,5],[-28,10],[-19,19],[-15,8],[-12,2]],[[1500,3512],[-10,-3],[-6,-5],[-6,-7],[-9,-7],[-9,-4],[-17,-3],[-5,-5],[-3,-7],[-1,-15],[-2,-11],[-15,-6]],[[534,3345],[-38,10],[-10,10],[-4,15],[-4,19],[-10,11],[-18,5]],[[450,3415],[-109,-16],[-84,-32],[-45,-38]],[[2169,3740],[14,1],[9,13],[0,22],[-20,76],[3,29],[12,13],[16,11],[14,15],[7,19],[-2,37],[1,21],[-7,63],[-8,16],[-17,20]],[[2155,3742],[14,-2]],[[2108,3714],[14,6],[20,19],[13,3]],[[2076,3716],[32,-2]],[[1991,3570],[13,31],[6,9],[17,23],[22,42],[12,33],[15,8]],[[0,3752],[0,-1],[0,-1]],[[0,3671],[4,-9],[9,-18],[20,-19],[68,-42],[16,-17],[55,-82],[14,-10],[10,-10],[3,-11],[-31,-47],[9,-59],[35,-18]],[[369,3116],[-8,2],[-31,28],[-3,26],[6,22],[-4,16],[-8,8],[-31,6],[-29,21],[-16,21],[-33,63]],[[536,2870],[-9,3],[-6,12],[-2,15],[-4,14],[-27,31],[-28,22],[-14,18],[-8,20],[0,18],[5,37],[1,21],[-2,20],[-9,19],[-10,6]],[[423,3126],[-12,0],[-24,-10],[-18,0]],[[778,2787],[-37,1],[-16,10],[-3,15],[9,16],[19,21],[2,11],[-5,10],[-99,77],[-18,21],[-9,6],[-7,0]],[[614,2975],[-2,-4],[0,-7],[1,-8],[0,-9],[-3,-8],[-5,-4],[-7,-4],[-4,-5],[-4,-8],[-4,-7],[-8,-6],[-8,-4],[-5,-5],[-6,-9],[-8,-9],[-15,-8]],[[1145,2738],[-92,0],[-27,9],[-8,11],[-6,31],[-8,17],[-25,19],[-14,6]],[[965,2831],[-10,0],[-8,-7],[-11,-7],[-15,-5],[-27,-3]],[[894,2809],[-20,8],[-15,1]],[[859,2818],[-13,-3],[-6,-4],[-11,-11],[-9,-4],[-42,-9]],[[1275,2694],[-13,2],[-11,11],[-7,16],[-24,20],[-17,5]],[[1203,2748],[-58,-10]],[[1329,2325],[16,79],[24,45],[18,26],[5,20],[1,24],[-3,27],[-2,46],[2,25],[7,21],[27,33],[-29,36],[-37,6]],[[1358,2713],[-83,-19]],[[0,252],[241,35],[96,66],[83,89],[37,123],[-4,19]],[[795,0],[34,33],[166,106],[77,131],[10,114],[30,34],[60,-15],[101,20],[76,35],[26,46]],[[4043,1215],[-20,53],[40,24]],[[2089,1709],[-68,-90],[-138,-42],[-637,-143],[-203,7],[-493,-190],[-253,-63],[-297,-24]],[[2093,1844],[-22,-30],[18,-104]],[[2867,1774],[-545,157],[-103,-72],[-123,-12]],[[3616,1398],[-68,100],[-160,52],[-75,67],[-264,90],[-103,69],[-79,-2]],[[3890,1184],[-204,48],[-70,164]],[[3867,1186],[11,-2],[4,-1],[1,0],[3,0],[10,2],[9,2],[70,27],[22,49],[11,7],[33,10]],[[4037,1279],[12,3],[14,10]],[[2089,1709],[-68,-90],[-138,-42],[-637,-143],[-203,7],[-493,-190],[-253,-63],[-297,-24]],[[2093,1844],[-22,-30],[18,-104]],[[2867,1774],[-545,157],[-103,-72],[-123,-12]],[[3616,1398],[-68,100],[-160,52],[-75,67],[-264,90],[-103,69],[-79,-2]],[[3890,1184],[-204,48],[-70,164]],[[3867,1186],[16,-3],[13,2],[9,2],[70,27],[22,49],[11,7],[33,10]],[[4037,1279],[12,3],[14,10]],[[2089,1709],[-68,-90],[-138,-42],[-637,-143],[-203,7],[-493,-190],[-253,-63],[-297,-24]],[[2093,1844],[-22,-30],[18,-104]],[[2867,1774],[-545,157],[-103,-72],[-123,-12]],[[3616,1398],[-68,100],[-160,52],[-75,67],[-264,90],[-103,69],[-79,-2]],[[3890,1184],[-204,48],[-70,164]],[[3867,1186],[11,-2],[4,-1],[1,0],[3,0],[10,2],[9,2],[70,27],[22,49],[11,7],[33,10]],[[4037,1279],[12,3],[14,10]],[[1607,4079],[-19,17]],[[2867,1774],[-37,18],[-66,128],[-74,47],[-19,239],[-112,218],[-96,67],[-118,145],[-184,251],[-44,117],[-77,69],[-114,222],[-105,489],[-61,72],[-27,89],[-65,38],[-80,113]],[[3890,1184],[-206,50],[-32,109],[-107,157],[-157,50],[-75,67],[-264,90],[-101,68],[-81,-1]],[[3867,1186],[16,-3],[13,2],[9,2],[70,27],[22,49],[11,7],[33,10]],[[4037,1279],[12,3],[14,10]],[[3609,1141],[-131,-105],[-67,-105],[-107,-232],[-153,-484],[-32,-49],[-115,-56],[-52,-58],[-16,-52]],[[3721,1224],[-40,-4],[-72,-79]],[[3696,1225],[-2,0],[-2,0],[-3,-1],[-3,-1],[-3,-1],[-2,-2],[-4,-3],[-68,-76]],[[4052,1286],[44,-1]],[[2089,1709],[-68,-90],[-138,-42],[-637,-143],[-203,7],[-493,-190],[-253,-63],[-297,-24]],[[2093,1844],[-22,-30],[18,-104]],[[2867,1774],[-545,157],[-103,-72],[-123,-12]],[[3616,1398],[-68,100],[-160,52],[-75,67],[-264,90],[-103,69],[-79,-2]],[[3890,1184],[-204,48],[-70,164]],[[3867,1186],[11,-2],[4,-1],[1,0],[3,0],[10,2],[9,2],[70,27],[22,49],[11,7],[33,10]],[[4037,1279],[12,3],[14,10]],[[4052,1286],[44,-1]],[[2078,1830],[12,-138],[-80,-78],[-130,-38],[-135,-22],[-116,-34],[-198,-37],[-183,-48],[-241,-9]],[[1376,504],[-76,92],[-189,99],[-24,96],[152,162],[56,98],[135,427],[44,13]],[[4052,1286],[44,-1]],[[3890,1184],[-197,41],[-91,-87],[-53,47]],[[3867,1186],[16,-3],[13,2],[9,2],[70,27],[22,49],[11,7],[33,10]],[[4037,1279],[12,3],[14,10]],[[2481,1749],[31,-43],[13,-52],[-23,-43],[-73,33],[-39,-3],[-8,-65],[-7,-1],[-2,4],[0,6],[-2,8],[-3,60],[41,17],[54,0],[39,11],[-18,19],[-8,12],[-4,11],[-8,9],[-15,-4],[-27,-13],[-6,6],[-6,12],[-9,12],[-42,11],[-3,13],[6,17],[0,16],[-8,15],[-2,11],[-7,6],[-19,2],[-29,18],[-15,0],[-90,-86],[-12,19],[-6,18],[1,16],[8,15],[25,-4],[75,58],[34,16],[32,-22],[61,-96],[36,-20],[35,-19]],[[2481,1749],[31,-43],[13,-52],[-23,-43],[-73,33],[-39,-3],[-8,-65],[-7,-1],[-2,4],[0,6],[-2,8],[-3,60],[41,17],[54,0],[39,11],[-18,19],[-8,12],[-4,11],[-8,9],[-15,-4],[-27,-13],[-6,6],[-6,12],[-9,12],[-42,11],[-3,13],[6,17],[0,16],[-8,15],[-2,11],[-7,6],[-19,2],[-29,18],[-15,0],[-90,-86],[-12,19],[-6,18],[1,16],[8,15],[25,-4],[75,58],[34,16],[32,-22],[61,-96],[36,-20],[35,-19]],[[1928,2268],[19,-100],[14,-42],[21,-34]],[[2503,1811],[143,-57],[262,-65]],[[4010,1338],[50,-22],[24,-15],[12,-10]],[[2190,1971],[97,-49]],[[2287,1922],[216,-111]],[[3607,1430],[4,-4]],[[3747,1285],[28,-29],[3,-3]],[[2908,1689],[227,-49],[378,-137],[25,-13],[48,-38],[21,-22]],[[3611,1426],[136,-141]],[[3778,1253],[23,-20]],[[3802,1233],[69,-53],[8,-5]],[[3801,1233],[1,0]],[[3879,1175],[64,-39],[74,-31],[75,-14],[4,1]],[[2016,1712],[-26,-20]],[[2244,1975],[-40,-60],[-56,-71],[-89,-91]],[[2305,2079],[-37,-66]],[[1990,1692],[-318,-249],[-160,-64],[-28,-16],[-27,-21],[-27,-27],[-65,-98],[-180,-167],[-22,-26],[-21,-31],[-18,-36],[-16,-39],[-13,-43],[-11,-45],[-52,-293],[-13,-45],[-16,-40],[-19,-36],[-21,-33],[-24,-29]],[[2059,1753],[-28,-29],[-15,-12]],[[2268,2013],[-12,-20],[-12,-18]],[[946,356],[-242,-272],[-39,-60],[-13,-24]],[[2632,4060],[-15,-19]],[[2617,4041],[-5,-8],[-12,-12],[-36,-30]],[[2650,4096],[-1,-1],[-7,-18],[-10,-16],[0,-1]],[[2722,4096],[7,-35],[3,-49],[-1,-49],[-3,-33]],[[2728,3930],[-2,-20],[-49,-295],[-17,-154],[-10,-51],[-15,-47],[-42,-61],[-101,-74],[-46,-53],[-78,-153],[-211,-486],[-84,-136],[-100,-103],[-50,-32]],[[782,4096],[-25,-58],[-13,-23]],[[744,4015],[-62,-114],[-21,-52],[-47,-159],[-20,-48],[-19,-36],[-22,-32],[-23,-29],[-24,-26],[-53,-46],[-191,-129],[-50,-43],[-37,-41],[-84,-108],[-91,-92]],[[0,1485],[166,-20],[25,4],[27,8],[57,26],[14,3],[28,2],[27,-2],[27,-5],[208,-93]],[[2223,2032],[-11,-4],[-19,-13],[-18,-19],[-14,-25]],[[2337,2085],[-13,-9],[-67,-29]],[[2639,2368],[-9,-32],[-7,-17],[-9,-15],[-8,-9]],[[3297,2803],[-4,-3]],[[2257,2047],[-34,-15]],[[2606,2295],[-3,-3],[-91,-53],[-161,-145],[-14,-9]],[[3293,2800],[-355,-236],[-240,-119],[-30,-22],[-10,-10],[-5,-6],[-4,-8],[-4,-10],[-6,-21]],[[4096,3272],[-297,-137],[-502,-332]],[[579,1408],[73,-32],[5,-1],[6,0],[13,3],[7,0],[7,-1],[15,-6],[42,-31],[12,-14],[9,-19],[9,-20],[9,-18],[17,-23],[17,-19],[39,-32],[99,-56],[210,-91]],[[2047,2016],[2,-2],[47,-38],[69,-43]],[[1987,2114],[5,-21],[6,-18],[9,-15],[21,-25],[19,-19]],[[0,3382],[96,-16],[124,-42]],[[226,3314],[300,-187],[466,-181],[143,-92],[361,-142],[317,-237],[46,-47],[23,-28],[10,-17],[9,-18],[9,-23],[7,-24],[11,-50]],[[4010,1336],[-1,-14],[-4,-11],[-6,-9],[-20,-24],[-13,-12],[-15,-11],[-15,-8],[-31,-13],[-94,-21]],[[3811,1213],[-1,-1]],[[3435,1170],[13,0]],[[3452,1170],[19,0]],[[3521,1170],[43,0]],[[3570,1170],[38,0],[30,5]],[[1223,1024],[38,-24],[15,-7]],[[1159,1064],[64,-40]],[[1276,993],[20,-9],[39,-9],[39,0],[200,52],[41,4],[168,-3],[75,28],[142,98],[73,39],[17,5],[16,1],[16,-1],[16,-6],[16,-9],[108,-88],[32,-20],[33,-13],[37,-5],[228,27],[360,-9],[53,10],[211,72],[62,13],[157,0]],[[3448,1170],[4,0]],[[3471,1170],[50,0]],[[3564,1170],[6,0]],[[3638,1175],[140,26],[26,1]],[[3990,1478],[9,-19],[14,-48],[3,-15],[3,-15],[2,-16],[1,-16]],[[3387,2779],[2,-99],[4,-49],[10,-47],[37,-109],[65,-299],[12,-43],[21,-62],[17,-41],[10,-18],[55,-66],[7,-11],[6,-8],[6,-6],[13,-11],[56,-33],[15,-11],[14,-15],[221,-313],[22,-38],[10,-22]],[[2559,4023],[20,-35],[51,-120],[24,-34],[27,-24],[58,-43],[27,-27],[395,-491],[54,-91],[146,-302],[19,-56],[1,-9],[7,-40]],[[4095,1281],[-13,-72]],[[4082,1209],[-5,-31],[-3,-21],[-1,-22],[2,-22],[21,-128]],[[2565,3988],[-22,26],[-12,12],[-58,36],[-59,28],[-24,6]],[[2073,4096],[-225,-23],[-139,23]],[[2475,0],[10,25],[18,29],[27,29],[28,23],[30,17],[237,79],[53,26],[110,81],[91,112],[25,22],[52,34],[105,48],[285,78],[28,19],[22,32],[14,41],[8,46],[3,48],[1,115],[2,22],[7,31],[11,24],[15,17],[56,40],[16,20],[14,27],[29,72],[17,31],[21,24]],[[0,0],[0,4096],[4096,0],[0,-4096],[-4096,0]],[[3325,1326],[38,73],[77,-92],[45,21],[21,-21],[44,17],[82,-19],[21,24],[22,-67],[-45,-30],[8,-60],[-39,-14],[42,-22],[-1,30],[8,-26],[-30,-31],[-52,65],[-13,-29],[-36,0],[8,46],[-53,-5],[-1,-34],[-21,20],[-14,-14],[-4,89],[-67,28],[-40,51]],[[850,0],[-13,0],[13,21],[0,-21]],[[0,655],[47,32],[129,-34],[0,60],[-26,4],[40,33],[99,-11],[55,-27],[81,-202],[-425,-36],[0,181]],[[4096,3387],[0,-85],[-75,46],[-18,-6],[19,-52],[-26,-9],[-62,92],[-83,-59],[-75,74],[-25,-5],[-8,-41],[29,-36],[-22,-18],[19,-5],[-26,-49],[9,-46],[47,-34],[-31,-18],[-42,21],[7,-42],[-19,-11],[-18,46],[-36,-2],[10,-20],[4,-34],[-17,50],[-20,-25],[-5,4],[22,36],[-71,48],[-27,-23],[-16,19],[20,41],[73,14],[10,37],[-19,11],[56,42],[23,86],[56,8],[49,42],[-18,54],[-67,4],[-24,47],[-48,11],[52,-1],[10,38],[21,-41],[52,-24],[11,23],[14,3],[8,-56],[60,23],[-38,-20],[21,-22],[-32,-30],[28,-8],[-7,-29],[84,-10],[42,-32],[77,59],[42,-17],[0,-38],[-4,0],[4,-31]],[[3646,3199],[29,-29],[69,0],[-47,73],[-10,-24],[28,-23],[-37,23],[-32,-20]],[[1694,0],[-48,0],[11,15],[-33,18],[8,20],[76,-8],[-14,-45]],[[293,739],[1,51],[26,-25],[21,24],[28,-9],[-31,122],[69,72],[21,-31],[-21,-56],[33,-1],[-5,-48],[50,-7],[-7,-93],[22,-34],[20,17],[47,-32],[-9,-62],[-68,-8],[-65,-109],[-81,202],[-51,27]],[[1517,290],[60,62],[66,6],[-4,60],[56,26],[85,-54],[36,83],[49,-77],[31,-11],[41,39],[53,-65],[-12,-105],[-90,-33],[7,-75],[-40,-37],[-21,-1],[-4,50],[-53,16],[-7,44],[-85,27],[-6,46],[-79,-24],[-7,-75],[-65,19],[-11,79]],[[3406,1621],[44,72],[-27,26],[16,36],[73,-8],[5,-107],[84,108],[-9,-72],[68,-39],[-40,-40],[37,-15],[-7,-75],[29,-20],[18,29],[53,-15],[-17,-38],[28,-110],[-69,65],[-39,-23],[-27,39],[-17,-9],[-32,72],[-158,78],[-13,46]],[[954,4096],[-22,-35],[-35,1],[-53,-89],[-20,120],[-55,-76],[-61,-4],[-35,10],[6,32],[-25,-15],[-9,36],[-32,-12],[-41,32],[382,0]],[[760,3460],[13,3],[18,0],[-10,15],[17,-17],[-3,17],[16,-31],[25,8],[-5,94],[-34,25],[27,2],[-2,63],[39,17],[-19,-40],[13,-192],[34,-24],[9,32],[27,-1],[-26,-5],[15,-38],[-2,29],[57,-9],[-43,-35],[46,-3],[-11,-32],[15,-35],[26,23],[-7,-33],[46,12],[9,47],[-2,-45],[-19,-25],[28,-44],[8,18],[10,1],[10,-45],[83,7],[41,35],[26,-18],[1,-26],[-114,-18],[-8,-50],[14,-17],[21,19],[-15,-22],[40,-20],[5,8],[29,6],[-30,-14],[61,-67],[8,9],[-11,32],[5,6],[8,-28],[37,-6],[-41,-18],[51,-32],[-54,-32],[16,-40],[43,-8],[-2,21],[25,16],[-19,-53],[40,18],[25,-18],[29,31],[-32,17],[26,31],[-15,-29],[23,5],[11,-10],[-37,-56],[8,-44],[19,34],[11,-10],[-21,-30],[-17,-5],[-21,39],[-82,-1],[-6,21],[-28,-16],[16,27],[-17,10],[-49,-27],[32,69],[-19,31],[20,-6],[16,32],[-95,36],[-42,34],[31,-3],[-10,16],[-45,12],[-52,144],[-77,35],[-19,-30],[-96,21],[7,83],[-43,57],[11,25],[-31,-17],[24,20],[-40,12]],[[910,3539],[76,144],[-23,81],[46,55],[-22,20],[4,63],[38,-11],[20,26],[40,-43],[-72,-129],[4,-52],[110,-21],[21,36],[-26,67],[27,-21],[23,42],[28,-58],[39,15],[-1,52],[43,-42],[20,25],[62,-17],[-52,-65],[10,-72],[-33,-9],[-37,-90],[-33,0],[-23,-41],[-17,11],[-54,-67],[-23,25],[-45,-23],[0,-34],[-20,19],[-38,-15],[-11,56],[47,34],[-16,51],[-112,-12]],[[35,4096],[2,-20],[-37,-15],[0,35],[35,0]],[[636,0],[-60,0],[30,40],[33,-28],[-3,-12]],[[2255,535],[-41,41],[-22,85],[21,25],[108,-54],[-66,-97]],[[1253,971],[-28,22],[-4,62],[81,0],[-2,-37],[-47,-47]],[[4096,1431],[0,-216],[-43,-19],[-33,-84],[-48,84],[-81,28],[-18,-29],[34,-112],[-43,5],[-70,165],[-41,0],[-24,-29],[-19,19],[26,45],[25,-7],[-16,169],[28,-21],[21,-148],[39,1],[90,55],[-3,132],[35,-19],[17,28],[32,0],[32,85],[31,-68],[29,-64]],[[2203,2085],[46,-123],[40,-33],[-9,-35],[-80,-61],[-41,12],[-32,-28],[0,-57],[-111,-12],[-2,-101],[-25,23],[9,147],[-18,30],[-63,-2],[-65,113],[19,41],[127,-13],[16,28],[32,0],[16,57],[141,14]],[[2294,2012],[-38,2],[1,63],[15,37],[65,13],[0,-64],[-43,-51]],[[2629,2366],[64,15],[-6,-57],[-30,-32],[-77,4],[-32,56],[9,37],[34,11],[38,-34]],[[3366,2751],[-20,-22],[-43,24],[-11,51],[66,-13],[8,-40]],[[2200,2853],[24,-21],[46,50],[-46,-107],[-32,57],[-65,-29],[-4,117],[17,60],[36,21],[24,-148]],[[2731,3930],[-46,10],[-72,76],[7,37],[68,43],[59,0],[27,-137],[-43,-29]],[[1311,701],[38,54],[96,7],[-2,118],[41,-12],[15,105],[26,20],[99,-14],[5,-84],[66,-12],[44,-105],[-7,-29],[-98,-24],[-67,-122],[-156,15],[-37,-13],[-6,-45],[-57,141]],[[0,474],[274,28],[-4,-42],[38,8],[34,-29],[20,-64],[-79,-50],[-85,28],[-149,-45],[-49,33],[0,133]]]}