{"objects":{"water":{"type":"GeometryCollection","geometries":[]},"buildings":{"type":"GeometryCollection","geometries":[]},"places":{"type":"GeometryCollection","geometries":[{"type":"Point","properties":{"name:pt":"Rom\u00eania","name:cy":"Rwmania","name:mt":"Rumanija","name:tr":"Romanya","name:kn":"\u0cb0\u0cca\u0cae\u0ccd\u0caf\u0cbe\u0ca8\u0cbf\u0caf\u0cbe","name:km":"\u179a\u17bc\u1798\u17c9\u17b6\u1793\u17b8","name:kl":"Rum\u00e6nia","name:cs":"Rumunsko","alt_name:eo":"Rumanio","name:ki":"Romania","name:ku":"Romanya","name:ti":"\u122e\u121c\u1292\u12eb","name:ks":"\u0631\u0648\u0645\u0627\u0646\u0650\u06cc\u0627","name:to":"Lom\u0113nia","name:sv":"Rum\u00e4nien","name:or":"\u0b30\u0b4b\u0b2e\u0b3e\u0b28\u0b3f\u0b06","name:pl":"Rumunia","name:ta":"\u0bb0\u0bc1\u0bae\u0bc7\u0ba9\u0bbf\u0baf\u0bbe","name:tg":"\u0420\u0443\u043c\u0438\u043d\u0438\u044f","name:ca":"Romania","name:te":"\u0c30\u0c4b\u0c2e\u0c3e\u0c28\u0c3f\u0c2f\u0c3e","name:hu":"Rom\u00e1nia","name:ka":"\u10e0\u10e3\u10db\u10d8\u10dc\u10d4\u10d7\u10d8","source":"openstreetmap.org","name:hr":"Rumunjska","name:da":"Rum\u00e6nien","name:de":"Rum\u00e4nien","name:dz":"\u0f62\u0f7c\u0f0b\u0f58\u0f7a\u0f0b\u0f53\u0f72\u0f0b\u0f61","name:ko":"\ub8e8\ub9c8\ub2c8\uc544","name:lv":"Rum\u0101nija","name:lt":"Rumunija","name:uz":"Ruminiya","name:kk":"\u0420\u0443\u043c\u044b\u043d\u0438\u044f","name:he":"\u05e8\u05d5\u05de\u05e0\u05d9\u05d4","kind":"country","name:ur":"\u0631\u0648\u0645\u0627\u0646\u06cc\u0627","name:lb":"Rum\u00e4nien","name:la":"Romania","name:lg":"Lomaniya","name:uk":"\u0420\u0443\u043c\u0443\u043d\u0456\u044f","name:hy":"\u054c\u0578\u0582\u0574\u056b\u0576\u056b\u0561","min_zoom":2.0,"name:li":"Roemeni\u00eb","name:ln":"Romani","name:lo":"\u0ea5\u0eb9\u0ec0\u0ea1\u0ec0\u0e99\u0e8d","population":21498616,"name:el":"\u03a1\u03bf\u03c5\u03bc\u03b1\u03bd\u03af\u03b1","name:eo":"Rumanujo","name:en":"Romania","name":"Rom\u00e2nia","name:ee":"Romania nutome","name:th":"\u0e1b\u0e23\u0e30\u0e40\u0e17\u0e28\u0e42\u0e23\u0e21\u0e32\u0e40\u0e19\u0e35\u0e22","name:gu":"\u0ab0\u0acb\u0aae\u0abe\u0aa8\u0abf\u0aaf\u0abe","name:eu":"Errumania","name:et":"Rumeenia","name:nl":"Roemeni\u00eb","name:es":"Rumania","name:ia":"Romania","name:rm":"Rumenia","name:rn":"Rumaniya","name:az":"Rum\u0131niya","name:id":"Rumania","name:ms":"Romania","name:mr":"\u0930\u094b\u092e\u093e\u0928\u093f\u092f\u093e","name:ar":"\u0631\u0648\u0645\u0627\u0646\u064a\u0627","name:my":"\u101b\u102d\u102f\u1019\u1031\u1038\u1014\u102e\u1038\u101a\u102c\u1038","name:io":"Rumania","int_name":"Romania","name:is":"R\u00famen\u00eda","name:am":"\u122e\u121c\u1292\u12eb","name:it":"Romania","name:vi":"Romania","name:ru":"\u0420\u0443\u043c\u044b\u043d\u0438\u044f","name:mn":"\u0420\u0443\u043c\u044b\u043d","id":432425064,"name:mk":"\u0420\u043e\u043c\u0430\u043d\u0438\u0458\u0430","name:af":"Roemeni\u00eb","name:zu":"i-Romania","name:ha":"Romaniya","name:nn":"Romania","name:ff":"Rumanii","name:fi":"Romania","name:hi":"\u0930\u094b\u092e\u093e\u0928\u093f\u092f\u093e","name:mg":"Romania","name:fo":"Rumenia","alt_name:vi":"Rumani","name:fr":"Roumanie","name:fy":"Roemeenje","name:vo":"Rum\u00e4n","name:zh":"\u7f57\u9a6c\u5c3c\u4e9a","name:gv":"Yn Romaan","name:so":"Rumaaniya","name:sn":"Romania","name:sl":"Romunija","name:sk":"Rumunsko","name:ja":"\u30eb\u30fc\u30de\u30cb\u30a2","name:si":"\u0dbb\u0dd4\u0db8\u0dda\u0db1\u0dd2\u0dba\u0dcf\u0dc0","name:fa":"\u0631\u0648\u0645\u0627\u0646\u06cc","name:sg":"Ruman\u00efi","name:se":"Rom\u00e1nia","name:ne":"\u0930\u094b\u092e\u093e\u0928\u093f\u092f\u093e","name:br":"Roumania","name:bs":"Rumunija","name:bm":"Rumani","name:bn":"\u09b0\u09c1\u09ae\u09be\u09a8\u09bf\u09af\u09bc\u09be","name:bo":"\u0f62\u0f7c\u0f0b\u0f58\u0f71\u0f0b\u0f53\u0f72\u0f61\u0f0d","name:ml":"\u0d31\u0d41\u0d2e\u0d47\u0d28\u0d3f\u0d2f","name:no":"Romania","name:sw":"Romania","name:be":"\u0420\u0443\u043c\u044b\u043d\u0456\u044f","name:bg":"\u0420\u0443\u043c\u044a\u043d\u0438\u044f","name:sr":"\u0420\u0443\u043c\u0443\u043d\u0438\u0458\u0430","name:sq":"Rumani","name:ga":"An R\u00f3m\u00e1in","name:gd":"R\u00f2mainia","name:gl":"Roman\u00eda","name:yo":"Or\u00edl\u1eb9\u0301\u00e8de Romaniya","name:ak":"Romenia"},"coordinates":[3183,1881]},{"type":"Point","properties":{"source":"naturalearthdata.com","kind":"locality","name":"Cluj-Napoca","population":316748,"region_capital":true,"min_zoom":6.0,"id":5627},"coordinates":[1600,3567]},{"type":"Point","properties":{"source":"naturalearthdata.com","kind":"locality","name":"Tirgu Mures","population":149433,"region_capital":true,"min_zoom":7.0,"id":2560},"coordinates":[2997,3084]}]},"transit":{"type":"GeometryCollection","geometries":[{"type":"LineString","properties":{"kind":"train","name":"CFR line 905","sort_rank":275,"source":"openstreetmap.org","min_zoom":6.0,"ref":"905","id":-6762455,"osm_relation":true},"arcs":[114]},{"type":"MultiLineString","properties":{"kind":"train","name":"CFR line 300 Bucuresti - Episcopia Bihor","sort_rank":275,"source":"openstreetmap.org","min_zoom":6.0,"operator":"CFR","ref":"300","osm_relation":true},"arcs":[[115],[116],[117],[118],[119],[120],[121],[122],[123],[124],[125],[126]]},{"type":"LineString","properties":{"kind":"train","name":"CFR 208","sort_rank":275,"source":"openstreetmap.org","min_zoom":6.0,"ref":"208","id":-7152020,"osm_relation":true},"arcs":[127]},{"type":"MultiLineString","properties":{"kind":"train","name":"CFR line 200","sort_rank":275,"source":"openstreetmap.org","min_zoom":6.0,"operator":"CFR","ref":"200","osm_relation":true},"arcs":[[128],[129],[130],[131],[132],[133],[134],[135],[136],[137],[138],[139],[140],[141],[142],[143],[144],[145],[146],[147]]},{"type":"MultiLineString","properties":{"source":"openstreetmap.org","kind":"train","name":"CFR line 906","sort_rank":275,"ref":"906","min_zoom":6.0,"osm_relation":true},"arcs":[[148],[149],[150]]},{"type":"LineString","properties":{"kind":"train","name":"CFR 201","sort_rank":275,"source":"openstreetmap.org","min_zoom":6.0,"ref":"201","id":-7152038,"osm_relation":true},"arcs":[151]}]},"pois":{"type":"GeometryCollection","geometries":[{"type":"Point","properties":{"kind":"protected_area","protect_class":"97","area":2891580000,"source":"openstreetmap.org","min_zoom":7.0,"tier":2,"id":-2561748,"osm_relation":true,"name":"C\u0103limani - Gurghiu"},"coordinates":[3806,3835]},{"type":"Point","properties":{"kind":"protected_area","protect_class":"97","area":616431000,"source":"openstreetmap.org","min_zoom":7.0,"tier":2,"name:hu":"P\u00e1ring-hegys\u00e9g","id":-2201703,"osm_relation":true,"name":"Par\u00e2ng"},"coordinates":[1635,547]},{"type":"Point","properties":{"kind":"protected_area","protect_class":"97","area":349576000,"source":"openstreetmap.org","min_zoom":7.0,"tier":2,"id":-2201694,"osm_relation":true,"name":"Cozia - Buila - V\u00e2nturari\u021ba"},"coordinates":[2691,514]},{"type":"Point","properties":{"kind":"protected_area","protect_class":"97","area":4053200000,"source":"openstreetmap.org","min_zoom":7.0,"tier":2,"id":-2201635,"osm_relation":true,"name":"Mun\u021bii F\u0103g\u0103ra\u0219"},"coordinates":[3242,922]},{"type":"Point","properties":{"kind":"protected_area","protect_class":"97","area":1972530000,"source":"openstreetmap.org","min_zoom":7.0,"tier":2,"id":-2201620,"osm_relation":true,"name":"Mun\u021bii Apuseni - Vl\u0103deasa"},"coordinates":[454,3262]},{"type":"Point","properties":{"kind":"protected_area","protect_class":"97","area":881356000,"source":"openstreetmap.org","min_zoom":7.0,"tier":2,"id":-2196585,"osm_relation":true,"name":"Retezat"},"coordinates":[419,495]},{"type":"Point","properties":{"kind":"protected_area","protect_class":"97","area":322896000,"name:de":"K\u00f6nigsstein","source":"openstreetmap.org","min_zoom":7.0,"tier":2,"id":-2196572,"osm_relation":true,"name":"Piatra Craiului"},"coordinates":[3920,805]},{"type":"Point","properties":{"kind":"protected_area","protect_class":"97","area":1050720000,"source":"openstreetmap.org","min_zoom":7.0,"tier":2,"id":-2196506,"osm_relation":true,"name":"Trasc\u0103u"},"coordinates":[1441,2614]}]},"boundaries":{"type":"GeometryCollection","geometries":[{"type":"LineString","properties":{"source":"naturalearthdata.com","kind":"region","name":"Bistrita-Nasaud - Cluj","sort_rank":256,"kind_detail":"4","min_zoom":6.0,"id":2087},"arcs":[0]},{"type":"LineString","properties":{"source":"naturalearthdata.com","kind":"region","name":"V\u00e2lcea - Hunedoara","sort_rank":256,"kind_detail":"4","min_zoom":6.0,"id":2092},"arcs":[1]},{"type":"LineString","properties":{"source":"naturalearthdata.com","kind":"region","name":"D\u00e2mbovita - Brasov","sort_rank":256,"kind_detail":"4","min_zoom":6.0,"id":2101},"arcs":[2]},{"type":"LineString","properties":{"source":"naturalearthdata.com","kind":"region","name":"Arges - Sibiu","sort_rank":256,"kind_detail":"4","min_zoom":6.0,"id":2106},"arcs":[3]},{"type":"LineString","properties":{"source":"naturalearthdata.com","kind":"region","name":"Brasov - Mures","sort_rank":256,"kind_detail":"4","min_zoom":6.0,"id":2111},"arcs":[4]},{"type":"LineString","properties":{"source":"naturalearthdata.com","kind":"region","name":"Alba - V\u00e2lcea","sort_rank":256,"kind_detail":"4","min_zoom":6.0,"id":2123},"arcs":[5]},{"type":"LineString","properties":{"source":"naturalearthdata.com","kind":"region","name":"Arad - Alba","sort_rank":256,"kind_detail":"4","min_zoom":6.0,"id":2385},"arcs":[6]},{"type":"LineString","properties":{"source":"naturalearthdata.com","kind":"region","name":"Cluj - Bihor","sort_rank":256,"kind_detail":"4","min_zoom":6.0,"id":2643},"arcs":[7]},{"type":"MultiLineString","properties":{"source":"naturalearthdata.com","kind":"region","name":"Salaj - Cluj","sort_rank":256,"kind_detail":"4","min_zoom":6.0,"id":2088},"arcs":[[8],[9],[10],[11],[12],[13],[14],[15],[16],[17],[18],[19],[20],[21]]},{"type":"MultiLineString","properties":{"source":"naturalearthdata.com","kind":"region","name":"D\u00e2mbovita - Arges","sort_rank":256,"kind_detail":"4","min_zoom":6.0,"id":2090},"arcs":[[22],[23],[24],[25]]},{"type":"MultiLineString","properties":{"source":"naturalearthdata.com","kind":"region","name":"Hunedoara - Gorj","sort_rank":256,"kind_detail":"4","min_zoom":6.0,"id":2091},"arcs":[[26],[27],[28],[29],[30],[31],[32]]},{"type":"LineString","properties":{"source":"naturalearthdata.com","kind":"region","name":"Arges - V\u00e2lcea","sort_rank":256,"kind_detail":"4","min_zoom":6.0,"id":2093},"arcs":[33]},{"type":"MultiLineString","properties":{"source":"naturalearthdata.com","kind":"region","name":"V\u00e2lcea - Gorj","sort_rank":256,"kind_detail":"4","min_zoom":6.0,"id":2094},"arcs":[[34],[35],[36]]},{"type":"MultiLineString","properties":{"source":"naturalearthdata.com","kind":"region","name":"Brasov - Arges","sort_rank":256,"kind_detail":"4","min_zoom":6.0,"id":2102},"arcs":[[37],[38],[39],[40],[41],[42]]},{"type":"MultiLineString","properties":{"source":"naturalearthdata.com","kind":"region","name":"Sibiu - V\u00e2lcea","sort_rank":256,"kind_detail":"4","min_zoom":6.0,"id":2107},"arcs":[[43],[44],[45],[46],[47]]},{"type":"MultiLineString","properties":{"source":"naturalearthdata.com","kind":"region","name":"Brasov - Sibiu","sort_rank":256,"kind_detail":"4","min_zoom":6.0,"id":2108},"arcs":[[48],[49],[50]]},{"type":"LineString","properties":{"source":"naturalearthdata.com","kind":"region","name":"Cluj - Mures","sort_rank":256,"kind_detail":"4","min_zoom":6.0,"id":2109},"arcs":[51]},{"type":"MultiLineString","properties":{"source":"naturalearthdata.com","kind":"region","name":"Mures - Bistrita-Nasaud","sort_rank":256,"kind_detail":"4","min_zoom":6.0,"id":2110},"arcs":[[52],[53],[54],[55]]},{"type":"MultiLineString","properties":{"source":"naturalearthdata.com","kind":"region","name":"Sibiu - Mures","sort_rank":256,"kind_detail":"4","min_zoom":6.0,"id":2112},"arcs":[[56],[57],[58],[59],[60],[61],[62],[63],[64],[65]]},{"type":"LineString","properties":{"source":"naturalearthdata.com","kind":"region","name":"Brasov - Harghita","sort_rank":256,"kind_detail":"4","min_zoom":6.0,"id":2114},"arcs":[66]},{"type":"MultiLineString","properties":{"source":"naturalearthdata.com","kind":"region","name":"Mures - Harghita","sort_rank":256,"kind_detail":"4","min_zoom":6.0,"id":2115},"arcs":[[67],[68],[69]]},{"type":"MultiLineString","properties":{"source":"naturalearthdata.com","kind":"region","name":"Hunedoara - Alba","sort_rank":256,"kind_detail":"4","min_zoom":6.0,"id":2121},"arcs":[[70],[71],[72],[73],[74]]},{"type":"MultiLineString","properties":{"source":"naturalearthdata.com","kind":"region","name":"Cluj - Alba","sort_rank":256,"kind_detail":"4","min_zoom":6.0,"id":2122},"arcs":[[75],[76],[77],[78],[79],[80],[81],[82],[83],[84],[85],[86]]},{"type":"MultiLineString","properties":{"source":"naturalearthdata.com","kind":"region","name":"Alba - Sibiu","sort_rank":256,"kind_detail":"4","min_zoom":6.0,"id":2124},"arcs":[[87],[88],[89],[90],[91],[92],[93],[94],[95]]},{"type":"LineString","properties":{"source":"naturalearthdata.com","kind":"region","name":"Mures - Alba","sort_rank":256,"kind_detail":"4","min_zoom":6.0,"id":2125},"arcs":[96]},{"type":"LineString","properties":{"source":"naturalearthdata.com","kind":"region","name":"Mehedinti - Gorj","sort_rank":256,"kind_detail":"4","min_zoom":6.0,"id":2128},"arcs":[97]},{"type":"MultiLineString","properties":{"source":"naturalearthdata.com","kind":"region","name":"Timis - Hunedoara","sort_rank":256,"kind_detail":"4","min_zoom":6.0,"id":2130},"arcs":[[98],[99],[100]]},{"type":"MultiLineString","properties":{"source":"naturalearthdata.com","kind":"region","name":"Hunedoara - Arad","sort_rank":256,"kind_detail":"4","min_zoom":6.0,"id":2131},"arcs":[[101],[102],[103]]},{"type":"MultiLineString","properties":{"source":"naturalearthdata.com","kind":"region","name":"Caras-Severin - Hunedoara","sort_rank":256,"kind_detail":"4","min_zoom":6.0,"id":2625},"arcs":[[104],[105],[106]]},{"type":"LineString","properties":{"source":"naturalearthdata.com","kind":"region","name":"Gorj - Caras-Severin","sort_rank":256,"kind_detail":"4","min_zoom":6.0,"id":2626},"arcs":[107]},{"type":"LineString","properties":{"source":"naturalearthdata.com","kind":"region","name":"Mehedinti - Caras-Severin","sort_rank":256,"kind_detail":"4","min_zoom":6.0,"id":2627},"arcs":[108]},{"type":"LineString","properties":{"source":"naturalearthdata.com","kind":"region","name":"Bihor - Salaj","sort_rank":256,"kind_detail":"4","min_zoom":6.0,"id":2644},"arcs":[109]},{"type":"MultiLineString","properties":{"source":"naturalearthdata.com","kind":"region","name":"Alba - Bihor","sort_rank":256,"kind_detail":"4","min_zoom":6.0,"id":2645},"arcs":[[110],[111]]},{"type":"MultiLineString","properties":{"source":"naturalearthdata.com","kind":"region","name":"Arad - Bihor","sort_rank":256,"kind_detail":"4","min_zoom":6.0,"id":2646},"arcs":[[112],[113]]}]},"roads":{"type":"GeometryCollection","geometries":[{"type":"LineString","properties":{"kind":"highway","network":"e-road","sort_rank":383,"kind_detail":"motorway","source":"naturalearthdata.com","min_zoom":3.0,"all_networks":["e-road"],"landuse_kind":"urban_area","shield_text":"68","ref":"68","id":4635,"all_shield_texts":["68"]},"arcs":[152]},{"type":"MultiLineString","properties":{"kind":"highway","network":"e-road","sort_rank":383,"kind_detail":"motorway","source":"naturalearthdata.com","min_zoom":3.0,"all_networks":["e-road"],"shield_text":"68","ref":"68","id":4635,"all_shield_texts":["68"]},"arcs":[[153],[154]]},{"type":"LineString","properties":{"kind":"major_road","network":"e-road","sort_rank":380,"kind_detail":"primary","source":"naturalearthdata.com","min_zoom":3.0,"landuse_kind":"urban_area","shield_text":"68","ref":"68","id":4743},"arcs":[155]},{"type":"MultiLineString","properties":{"kind":"major_road","network":"e-road","sort_rank":380,"kind_detail":"primary","source":"naturalearthdata.com","min_zoom":3.0,"shield_text":"68","ref":"68","id":4743},"arcs":[[156],[157]]},{"type":"LineString","properties":{"kind":"major_road","network":"e-road","sort_rank":380,"kind_detail":"primary","source":"naturalearthdata.com","min_zoom":3.0,"shield_text":"68","ref":"68","id":4744},"arcs":[158]},{"type":"MultiLineString","properties":{"kind":"major_road","network":"e-road","sort_rank":380,"kind_detail":"primary","source":"naturalearthdata.com","min_zoom":3.0,"landuse_kind":"protected_area","shield_text":"81","ref":"81","id":4745},"arcs":[[159],[160]]},{"type":"LineString","properties":{"kind":"major_road","network":"e-road","sort_rank":380,"kind_detail":"primary","source":"naturalearthdata.com","min_zoom":3.0,"landuse_kind":"urban_area","shield_text":"81","ref":"81","id":4745},"arcs":[161]},{"type":"MultiLineString","properties":{"kind":"major_road","network":"e-road","sort_rank":380,"kind_detail":"primary","source":"naturalearthdata.com","min_zoom":3.0,"shield_text":"81","ref":"81","id":4745},"arcs":[[162],[163],[164],[165]]},{"type":"LineString","properties":{"kind":"major_road","network":"e-road","sort_rank":380,"kind_detail":"primary","source":"naturalearthdata.com","min_zoom":3.0,"shield_text":"68","ref":"68","id":4806},"arcs":[166]},{"type":"LineString","properties":{"kind":"highway","network":"e-road","sort_rank":383,"kind_detail":"motorway","source":"naturalearthdata.com","min_zoom":6.0,"all_networks":["e-road"],"shield_text":"60","ref":"60","id":5430,"all_shield_texts":["60"]},"arcs":[167]},{"type":"LineString","properties":{"kind":"highway","network":"e-road","sort_rank":383,"kind_detail":"motorway","source":"naturalearthdata.com","min_zoom":6.0,"all_networks":["e-road"],"landuse_kind":"urban_area","shield_text":"60","ref":"60","id":5431,"all_shield_texts":["60"]},"arcs":[168]},{"type":"MultiLineString","properties":{"kind":"highway","network":"e-road","sort_rank":383,"kind_detail":"motorway","source":"naturalearthdata.com","min_zoom":6.0,"all_networks":["e-road"],"shield_text":"60","ref":"60","id":5431,"all_shield_texts":["60"]},"arcs":[[169],[170]]},{"type":"LineString","properties":{"kind":"major_road","network":"e-road","sort_rank":380,"kind_detail":"primary","source":"naturalearthdata.com","min_zoom":6.0,"landuse_kind":"protected_area","shield_text":"79","ref":"79","id":5521},"arcs":[171]},{"type":"LineString","properties":{"kind":"major_road","network":"e-road","sort_rank":380,"kind_detail":"primary","source":"naturalearthdata.com","min_zoom":6.0,"landuse_kind":"urban_area","shield_text":"79","ref":"79","id":5521},"arcs":[172]},{"type":"MultiLineString","properties":{"kind":"major_road","network":"e-road","sort_rank":380,"kind_detail":"primary","source":"naturalearthdata.com","min_zoom":6.0,"shield_text":"79","ref":"79","id":5521},"arcs":[[173],[174],[175]]},{"type":"LineString","properties":{"kind":"major_road","network":"e-road","sort_rank":380,"kind_detail":"primary","source":"naturalearthdata.com","min_zoom":6.0,"shield_text":"79","ref":"79","id":5555},"arcs":[176]},{"type":"MultiLineString","properties":{"source":"naturalearthdata.com","kind":"major_road","kind_detail":"primary","sort_rank":380,"landuse_kind":"protected_area","min_zoom":6.0,"id":5580},"arcs":[[177],[178],[179],[180],[181]]},{"type":"LineString","properties":{"source":"naturalearthdata.com","kind":"major_road","kind_detail":"primary","sort_rank":380,"landuse_kind":"urban_area","min_zoom":6.0,"id":5580},"arcs":[182]},{"type":"LineString","properties":{"source":"naturalearthdata.com","kind":"major_road","kind_detail":"primary","sort_rank":380,"landuse_kind":"urban_area","min_zoom":6.0,"id":5580},"arcs":[183]},{"type":"MultiLineString","properties":{"source":"naturalearthdata.com","kind":"major_road","sort_rank":380,"kind_detail":"primary","min_zoom":6.0,"id":5580},"arcs":[[184],[185],[186],[187],[188],[189],[190]]},{"type":"LineString","properties":{"kind":"major_road","network":"e-road","sort_rank":380,"kind_detail":"primary","source":"naturalearthdata.com","min_zoom":6.0,"landuse_kind":"urban_area","shield_text":"60","ref":"60","id":5581},"arcs":[191]},{"type":"LineString","properties":{"kind":"major_road","network":"e-road","sort_rank":380,"kind_detail":"primary","source":"naturalearthdata.com","min_zoom":6.0,"shield_text":"60","ref":"60","id":5581},"arcs":[192]},{"type":"LineString","properties":{"kind":"major_road","network":"e-road","sort_rank":380,"kind_detail":"primary","source":"naturalearthdata.com","min_zoom":6.0,"shield_text":"68n","ref":"68n","id":5726},"arcs":[193]},{"type":"LineString","properties":{"kind":"major_road","network":"e-road","sort_rank":380,"kind_detail":"primary","source":"naturalearthdata.com","min_zoom":6.0,"landuse_kind":"urban_area","shield_text":"81","ref":"81","id":5727},"arcs":[194]},{"type":"LineString","properties":{"kind":"major_road","network":"e-road","sort_rank":380,"kind_detail":"primary","source":"naturalearthdata.com","min_zoom":6.0,"landuse_kind":"urban_area","shield_text":"81","ref":"81","id":5727},"arcs":[195]},{"type":"MultiLineString","properties":{"kind":"major_road","network":"e-road","sort_rank":380,"kind_detail":"primary","source":"naturalearthdata.com","min_zoom":6.0,"shield_text":"81","ref":"81","id":5727},"arcs":[[196],[197]]},{"type":"LineString","properties":{"source":"naturalearthdata.com","kind":"major_road","kind_detail":"primary","sort_rank":380,"landuse_kind":"protected_area","min_zoom":6.0,"id":5728},"arcs":[198]},{"type":"LineString","properties":{"source":"naturalearthdata.com","kind":"major_road","kind_detail":"primary","sort_rank":380,"landuse_kind":"urban_area","min_zoom":6.0,"id":5728},"arcs":[199]},{"type":"MultiLineString","properties":{"source":"naturalearthdata.com","kind":"major_road","sort_rank":380,"kind_detail":"primary","min_zoom":6.0,"id":5728},"arcs":[[200],[201],[202]]},{"type":"LineString","properties":{"kind":"major_road","network":"e-road","sort_rank":380,"kind_detail":"primary","source":"naturalearthdata.com","min_zoom":6.0,"landuse_kind":"urban_area","shield_text":"60","ref":"60","id":5760},"arcs":[203]},{"type":"LineString","properties":{"kind":"major_road","network":"e-road","sort_rank":380,"kind_detail":"primary","source":"naturalearthdata.com","min_zoom":6.0,"shield_text":"60","ref":"60","id":5760},"arcs":[204]},{"type":"LineString","properties":{"source":"naturalearthdata.com","kind":"major_road","sort_rank":380,"kind_detail":"primary","min_zoom":7.0,"id":5946},"arcs":[205]},{"type":"LineString","properties":{"kind":"major_road","network":"e-road","sort_rank":380,"kind_detail":"primary","source":"naturalearthdata.com","min_zoom":7.0,"landuse_kind":"urban_area","shield_text":"60","ref":"60","id":6042},"arcs":[206]},{"type":"LineString","properties":{"kind":"major_road","network":"e-road","sort_rank":380,"kind_detail":"primary","source":"naturalearthdata.com","min_zoom":7.0,"landuse_kind":"urban_area","shield_text":"60","ref":"60","id":6042},"arcs":[207]},{"type":"MultiLineString","properties":{"kind":"major_road","network":"e-road","sort_rank":380,"kind_detail":"primary","source":"naturalearthdata.com","min_zoom":7.0,"shield_text":"60","ref":"60","id":6042},"arcs":[[208],[209]]},{"type":"LineString","properties":{"kind":"major_road","network":"e-road","sort_rank":380,"kind_detail":"primary","source":"naturalearthdata.com","min_zoom":7.0,"landuse_kind":"urban_area","shield_text":"576","ref":"576","id":6308},"arcs":[210]},{"type":"LineString","properties":{"kind":"major_road","network":"e-road","sort_rank":380,"kind_detail":"primary","source":"naturalearthdata.com","min_zoom":7.0,"shield_text":"576","ref":"576","id":6308},"arcs":[211]},{"type":"LineString","properties":{"kind":"major_road","network":"e-road","sort_rank":380,"kind_detail":"primary","source":"naturalearthdata.com","min_zoom":6.0,"landuse_kind":"urban_area","shield_text":"81","ref":"81","id":8084},"arcs":[212]},{"type":"LineString","properties":{"kind":"major_road","network":"e-road","sort_rank":380,"kind_detail":"primary","source":"naturalearthdata.com","min_zoom":6.0,"shield_text":"81","ref":"81","id":8084},"arcs":[213]},{"type":"LineString","properties":{"source":"naturalearthdata.com","kind":"major_road","kind_detail":"secondary","sort_rank":379,"landuse_kind":"urban_area","min_zoom":6.0,"id":55780},"arcs":[214]},{"type":"LineString","properties":{"source":"naturalearthdata.com","kind":"major_road","sort_rank":379,"kind_detail":"secondary","min_zoom":6.0,"id":55780},"arcs":[215]},{"type":"LineString","properties":{"source":"naturalearthdata.com","kind":"major_road","kind_detail":"secondary","sort_rank":379,"landuse_kind":"urban_area","min_zoom":6.0,"id":55785},"arcs":[216]},{"type":"LineString","properties":{"source":"naturalearthdata.com","kind":"major_road","sort_rank":379,"kind_detail":"secondary","min_zoom":6.0,"id":55785},"arcs":[217]},{"type":"LineString","properties":{"source":"naturalearthdata.com","kind":"major_road","kind_detail":"secondary","sort_rank":379,"landuse_kind":"urban_area","min_zoom":6.0,"id":55806},"arcs":[218]},{"type":"LineString","properties":{"source":"naturalearthdata.com","kind":"major_road","sort_rank":379,"kind_detail":"secondary","min_zoom":6.0,"id":55806},"arcs":[219]},{"type":"LineString","properties":{"source":"naturalearthdata.com","kind":"major_road","sort_rank":379,"kind_detail":"secondary","min_zoom":6.0,"id":55859},"arcs":[220]}]},"earth":{"type":"GeometryCollection","geometries":[{"type":"Polygon","properties":{"sort_rank":10,"source":"naturalearthdata.com","min_zoom":0.0,"kind":"earth","area":392091543542},"arcs":[[221]]}]},"landuse":{"type":"GeometryCollection","geometries":[{"type":"MultiPolygon","properties":{"source":"naturalearthdata.com","kind":"urban_area","name":"","area":4525289470,"sort_rank":11,"min_zoom":4.0},"arcs":[[[222]],[[223]],[[224]],[[225]],[[226]],[[227]],[[228]],[[229]],[[230]],[[231]],[[232]],[[233]],[[234]],[[235]],[[236]],[[237]],[[238]]]},{"type":"MultiPolygon","properties":{"kind":"protected_area","protect_class":"97","area":4932945265,"sort_rank":17,"source":"openstreetmap.org","min_zoom":6.0,"tier":2,"osm_relation":true},"arcs":[[[239]],[[240]],[[241]],[[242],[243],[244]]]},{"type":"MultiPolygon","properties":{"kind":"protected_area","protect_class":"97","area":13599065542,"sort_rank":17,"source":"openstreetmap.org","min_zoom":4.0,"tier":2,"osm_relation":true},"arcs":[[[245],[246]],[[247]],[[248],[249],[250],[251],[252],[253],[254],[255],[256],[257],[258],[259],[260],[261]],[[262]],[[263],[264],[265],[266],[267],[268],[269],[270]]]}]}},"type":"Topology","transform":{"translate":[22.5,45.0890355648],"scale":[0.0006866455,0.0004763541]},"arcs":[[[2392,4096],[-5,-20],[-4,-27],[-1,-31],[12,-14],[25,-18],[3,-13],[-3,-15],[-2,-17],[2,-24],[10,-18],[18,-13],[51,-28],[27,-29],[7,-29],[-3,-33],[-8,-30],[-9,-87],[-9,-25],[-32,-66]],[[1579,752],[-5,-31],[4,-20],[20,-63],[4,-23],[-21,-62]],[[4096,630],[-5,-1]],[[3217,1070],[-265,-77]],[[3915,2213],[-73,-16],[-134,-6],[-21,-6],[-20,-12],[-33,-27],[-14,-17],[-9,-22],[-5,-17],[8,-44]],[[1579,752],[61,10]],[[372,2613],[-71,73]],[[320,3968],[-12,-29],[-31,-62],[-5,-19],[2,-14],[13,-10],[74,-28],[18,-15],[8,-22],[-6,-39],[-7,-24],[-8,-23],[-8,-17],[-10,-15],[-13,-10],[-53,-23],[-17,-12],[-12,-14],[-8,-16],[-3,-17],[4,-19],[17,-25],[59,-52],[19,-30],[19,-44],[25,-97],[13,-26],[14,-12],[16,-11],[14,-14],[6,-16],[-6,-53],[-1,-79]],[[1375,3980],[19,2],[21,6],[15,13],[5,20],[-2,16],[-13,47],[-6,12]],[[1342,3981],[33,-1]],[[1287,3926],[9,4],[5,26],[7,13],[17,10],[17,2]],[[320,3968],[17,-6],[174,-3],[25,-5],[16,-9],[15,-12],[11,-19],[24,-63],[16,-27],[15,-18],[18,-7],[54,-5],[14,-5],[10,-9],[7,-12],[8,-10],[11,-7],[14,-1]],[[1248,3935],[15,0],[24,-9]],[[1220,3784],[14,0],[13,10],[12,29],[1,19],[-6,20],[-16,15],[-13,16],[-5,18],[6,15],[22,9]],[[1081,3878],[12,-7],[10,-17],[9,-32],[8,-10],[13,-3]],[[996,3746],[18,2],[14,8],[4,17],[-3,17],[1,17],[4,15],[20,39],[9,15],[18,2]],[[1179,3820],[12,-5],[10,-10],[9,-12],[10,-9]],[[1133,3809],[30,10],[16,1]],[[946,3761],[17,-2],[33,-13]],[[872,3743],[25,3],[29,11],[20,4]],[[818,3757],[17,-3],[16,-6],[21,-5]],[[769,3750],[31,6],[18,1]],[[4091,629],[5,-9]],[[4096,440],[-8,-13],[-10,-23],[-8,-28],[-7,-33],[-3,-49],[-12,-44],[-13,-34],[-12,-21],[-13,-16],[-13,-9],[-13,-3]],[[3984,167],[-13,4],[-10,10],[-17,27],[-9,10],[-10,2]],[[3925,220],[-9,-5],[-7,-10],[-14,-38],[-8,-13],[-7,-28],[-2,-40],[16,-83],[2,-3]],[[1368,449],[14,5],[26,21],[83,47],[90,31]],[[1249,488],[37,0],[22,-7],[21,-11],[26,-19],[13,-2]],[[981,377],[23,7],[80,49],[23,8],[64,14],[50,24],[28,9]],[[572,435],[18,-10],[10,-14],[14,-10],[17,-7],[62,-4],[14,-6],[13,-10],[10,-11],[15,-6]],[[246,318],[309,114],[17,3]],[[897,402],[21,-3],[45,-21],[18,-1]],[[745,357],[22,1],[93,42],[37,2]],[[2952,993],[18,-68],[-20,-92],[-43,-83],[-3,-23],[0,-24],[30,-131],[3,-25],[-4,-20],[-11,-16],[-12,-15],[-9,-16],[-3,-19],[2,-23],[13,-51],[-4,-51],[-6,-43],[3,-27],[7,-21],[22,-26],[9,-15],[12,-25],[8,-31],[3,-49],[-22,-99]],[[1581,553],[44,-14],[71,-1],[16,-4],[28,-16],[22,-5],[26,-1]],[[1877,522],[14,0],[11,-5],[26,-21],[11,-17],[6,-22],[-18,-82],[-3,-41],[11,-56],[15,-39],[6,-29],[-1,-26],[-24,-70],[-6,-30],[5,-72],[0,-12]],[[1788,512],[89,10]],[[3309,1079],[22,-6],[19,-11],[23,-26],[11,-19],[11,-15],[11,-7]],[[3217,1070],[92,9]],[[3617,1031],[162,-22],[35,-21],[55,-49],[25,-16],[23,-9],[24,-17],[21,-27],[81,-183],[48,-58]],[[3527,1022],[90,9]],[[3484,1026],[43,-4]],[[3406,995],[18,5],[26,18],[17,6],[17,2]],[[2653,995],[299,-2]],[[2257,854],[27,1],[147,85],[20,8],[202,47]],[[2127,888],[55,-6],[52,-23],[23,-5]],[[1670,759],[17,7],[30,19],[45,35],[19,8],[25,1],[18,4],[14,11],[12,15],[12,13],[22,8],[243,8]],[[1640,762],[30,-3]],[[3614,2046],[-31,-43],[-86,-71],[-81,-44],[-9,-10],[-3,-13],[9,-28],[1,-16],[-4,-20],[-12,-7]],[[3398,1794],[-10,1],[-11,7],[-12,4]],[[3365,1806],[-17,-4],[-26,-13],[-21,-24],[-66,-34],[-9,-14],[0,-16],[5,-12],[20,-24],[6,-16],[-2,-23],[-1,-18],[4,-14],[9,-10],[10,-5],[10,-8],[4,-14],[-8,-22],[-19,-15],[-25,-11],[-27,-7],[-53,-23],[-22,-17],[-7,-18],[1,-22],[46,-97],[9,-25],[6,-25],[12,-70],[5,-60],[5,-32],[3,-43]],[[2178,2856],[-33,33],[-8,24],[6,25],[29,45],[20,19],[31,21],[9,11],[2,24],[-4,17],[-8,17],[-4,19],[3,24],[16,44],[14,30],[24,24],[19,8],[52,10],[14,13],[10,23],[-1,36],[-10,21],[-13,16],[-9,15],[0,18],[7,24],[54,104],[16,20],[13,13],[44,5]],[[3418,4096],[-45,-39],[-11,-15],[-20,-52],[-8,-15],[-36,-54],[-12,-27],[-8,-29],[-12,-59],[-10,-17],[-17,-8]],[[3239,3781],[-26,4],[-24,10],[-43,27],[-18,8],[-16,3]],[[3112,3833],[-18,-3],[-26,-12],[-36,-28],[-30,-39],[-14,-26],[-14,-39],[-9,-15],[-27,-34],[-9,-18],[-5,-22],[-2,-22],[-5,-22],[-7,-17],[-21,-13],[-28,-9],[-52,-7],[-66,-27],[-23,-5]],[[2720,3475],[-32,2],[-97,24],[-120,58]],[[3254,2081],[-19,0],[-20,10],[-26,32],[-15,47],[-8,54],[-7,120],[-10,56],[1,20],[7,17],[10,15],[4,12],[-5,6],[-13,2]],[[3153,2472],[-28,-14],[-22,-6]],[[3103,2452],[-27,3],[-39,12]],[[3037,2467],[-18,-1],[-18,-11],[-11,-12],[-11,-14],[-18,-9],[-28,-2]],[[2732,2400],[-27,3],[-80,34]],[[2625,2437],[-53,-11],[-108,-1]],[[2933,2418],[-102,7]],[[2831,2425],[-46,-10],[-24,-9],[-29,-6]],[[3614,2046],[-69,40],[-15,14],[-23,15],[-20,9],[-32,4]],[[3455,2128],[-20,-2],[-19,-5],[-12,-5],[-17,-3],[-45,-3],[-11,-4],[-16,-13],[-11,-6],[-34,0],[-16,-6]],[[4096,2264],[-23,-1],[-80,-37],[-78,-13]],[[3631,2403],[-28,9],[-27,24],[-115,140],[-9,19],[2,13],[10,12],[32,13],[14,10],[11,9],[12,8],[35,8],[17,9],[8,15],[1,22],[-11,13],[-40,29],[0,14],[10,14],[91,37],[16,14],[7,18],[7,79],[6,23],[12,19],[85,89],[19,13],[63,26],[24,16],[18,20],[53,79],[21,24],[62,51],[13,21],[3,20],[-4,57],[4,39],[8,46],[1,30],[-4,19],[-7,15],[-31,87],[-8,46],[23,142],[-4,128],[-5,33],[-10,25],[-14,19],[-33,33],[-13,23],[-7,17],[-1,4]],[[3915,2213],[-115,123],[-77,60],[-24,9]],[[3699,2405],[-68,-2]],[[456,2565],[-14,3],[-70,45]],[[861,2175],[7,8],[-2,21],[-23,62],[-18,33],[-19,26],[-16,12],[-17,7],[-66,11],[-17,6],[-10,12],[-25,93],[-22,59],[-16,31],[-14,18],[-14,4]],[[589,2578],[-133,-13]],[[840,2182],[11,-3],[10,-4]],[[1579,752],[2,70],[-3,16],[-5,20],[-9,13],[-73,70],[-31,38],[-25,18],[-56,27],[-35,28],[-17,26],[-16,37],[-5,21],[-2,18],[4,16],[6,15],[3,15],[-5,19],[-30,37],[-8,16],[-3,18],[4,39],[-5,31],[-12,45],[-33,88],[-37,161],[-13,24],[-37,47],[-25,39],[-56,148],[-17,13],[-28,5],[-35,16],[-140,186],[-10,18],[-4,14],[2,10],[6,6],[9,2]],[[441,3081],[44,-39],[205,-5],[33,-10],[21,-12],[13,-29],[8,-14],[13,-12],[18,-14],[12,-11],[7,-11],[3,-25],[2,-14],[10,-15],[11,-2]],[[1316,3019],[25,-6],[21,-11],[81,-60],[72,-29],[31,-6],[27,-1]],[[1070,2926],[19,3],[14,8],[14,14],[53,40],[146,28]],[[979,2951],[67,-22],[24,-3]],[[841,2868],[11,7],[15,23],[11,11],[60,36],[14,5],[27,1]],[[1621,2910],[16,-6],[9,-11],[0,-17],[-11,-21],[-12,-17],[-8,-17],[3,-18],[10,-21],[30,-20],[24,-8],[21,-1]],[[1573,2906],[48,4]],[[2003,2862],[30,-4],[90,-29],[19,0]],[[1928,2846],[22,3],[53,13]],[[2142,2829],[25,12],[11,15]],[[1863,2848],[65,-2]],[[1703,2753],[10,7],[2,11],[-2,15],[-4,13],[1,14],[9,9],[16,5],[68,0],[17,4],[28,13],[15,4]],[[2193,1917],[11,5],[6,12],[7,38],[10,31],[16,26],[122,131],[33,29],[21,24],[29,18],[16,16],[7,18],[1,21],[-8,139]],[[2099,1973],[16,-1],[13,-6],[14,-10],[25,-27],[14,-10],[12,-2]],[[1906,1738],[18,4],[21,13],[20,17],[22,27],[4,25],[-5,19],[-10,20],[-7,21],[1,34],[11,19],[17,14],[101,22]],[[1781,1763],[14,-3],[13,-8],[13,-10],[12,-6],[15,-3]],[[1737,1471],[14,1],[10,8],[10,13],[19,37],[50,78],[2,17],[-9,11],[-17,10],[-37,9],[-15,7],[-9,14],[-6,69],[6,11],[12,6],[14,1]],[[1881,1740],[11,-2],[14,0]],[[1848,1733],[23,7],[10,0]],[[1715,1476],[22,-5]],[[1640,762],[40,60],[-1,20],[-7,28],[-36,62],[-14,46],[4,33],[11,37],[12,62],[-3,40],[-9,34],[-11,31],[-10,53],[4,38],[33,107],[10,22],[8,13],[12,15],[12,8],[9,4],[11,1]],[[2178,2856],[46,-3],[21,-15],[17,-18],[6,-11],[2,-14],[-6,-19],[-11,-17],[-18,-17],[-11,-14],[-8,-25],[7,-16],[45,-50],[14,-9],[81,-34],[30,-25],[15,-32],[11,-66],[12,-19],[10,-11],[23,-16]],[[220,0],[-15,7]],[[4,1438],[-4,2]],[[0,1351],[48,44],[12,16],[4,16],[-5,14],[-16,9],[-10,1]],[[33,1451],[-11,-3],[-18,-10]],[[372,2613],[-96,-70],[-26,-56],[-12,-34],[-34,-55],[-30,-27],[-27,-16],[-36,-5]],[[111,2350],[-27,2],[-81,20]],[[3,2372],[-3,-1]],[[82,1004],[-12,0],[-8,6],[-2,17],[3,15],[-1,15],[-8,10],[-21,6],[-17,3],[-16,5]],[[246,318],[1,40],[4,15],[7,18],[31,49],[8,17],[4,16],[0,17],[-4,19],[-8,22],[-20,28],[-11,21],[-3,18],[5,14],[18,27],[8,22],[2,19],[-5,35],[0,23],[-1,23],[-5,25],[-17,61],[-14,29],[-23,29],[-48,38],[-28,18],[-18,16],[-9,17],[-9,10],[-15,3]],[[96,1007],[-14,-3]],[[246,318],[-99,-90],[-41,-56],[-12,-29],[-3,-22],[5,-16],[13,-10],[18,-7],[55,-3],[14,-4],[10,-12],[7,-17],[-8,-45]],[[205,7],[-6,-7]],[[320,3968],[-25,41],[-56,56],[-54,31]],[[441,3081],[-22,14],[-14,5],[-19,3]],[[386,3103],[-17,0],[-20,-4],[-17,-10],[-18,-21],[-19,-39],[-15,-53],[-8,-50],[2,-128],[27,-112]],[[240,2682],[-69,6],[-111,23],[-60,2]],[[301,2686],[-61,-4]],[[3714,389],[-61,-119],[-27,-124],[29,-146]],[[1579,3559],[-66,-7],[-170,75],[-43,-11],[-139,107],[-87,29],[-59,-14],[-39,23],[-156,-44],[-243,51],[-38,26],[-27,76],[-43,6],[-24,47],[-52,-15],[-64,23],[-9,-37],[-64,10],[-31,-49],[-50,-9],[-145,68],[-30,82]],[[1948,3387],[4,1]],[[1952,3388],[7,2],[2,3],[-3,11]],[[1958,3404],[-41,19],[-28,88],[-69,66],[-138,-32],[-87,17]],[[1952,3388],[1,1]],[[1958,3404],[-5,-15]],[[1953,3389],[-5,-2]],[[1948,3387],[-24,-19],[68,-41],[-35,-130],[54,-97],[2,-80],[-22,-27],[49,-185],[-281,-155],[41,-92],[-54,-73],[-18,-204],[130,24],[100,-33],[128,7],[198,-181],[35,-8],[105,47],[167,30],[85,72],[314,122],[243,24],[54,35],[41,-41],[248,41],[186,-124],[103,-13],[96,-118],[71,-47],[9,-78],[17,-40],[1,-4],[0,-3],[0,-3],[-15,-52],[10,-10]],[[4054,1931],[1,-1]],[[4096,1934],[-42,-3]],[[4058,2003],[-14,-62],[2,-5],[4,-4],[5,-2]],[[4055,1930],[5,-3],[2,-1],[4,0],[1,-1],[3,0],[2,1],[2,0]],[[2420,1493],[-130,98],[5,167],[66,118],[43,25],[13,73],[112,181]],[[766,1582],[-160,76],[-81,86],[-105,-33],[-46,56],[-374,25]],[[722,1603],[9,-4],[3,-2],[10,-5],[18,-8]],[[798,1573],[-1,0]],[[797,1573],[-1,0]],[[796,1573],[-2,0]],[[794,1573],[-2,1]],[[792,1574],[-1,0]],[[791,1574],[-7,1]],[[784,1575],[-2,0]],[[782,1575],[-1,0]],[[781,1575],[-1,1]],[[780,1576]],[[780,1576],[-1,0]],[[779,1576],[-1,0]],[[778,1576],[-1,1]],[[777,1577],[-7,3]],[[770,1580],[-4,2]],[[1441,1883],[-170,-107],[-91,-18],[-137,-135],[-48,2],[-98,-55],[-99,3]],[[2443,1468],[-49,49],[-55,-86],[-135,11],[-99,-39],[-1,63],[-133,79],[-62,9],[-18,74],[45,-12],[1,52],[-117,36],[-51,60],[-118,-15],[-86,95],[-74,57],[-26,-6]],[[2449,1461],[119,-205],[13,-63],[60,9],[13,39],[55,39],[11,61],[135,84],[79,-12],[52,48],[127,-2],[461,118],[37,-24],[241,-8],[10,-49],[161,-109],[57,-11],[16,14]],[[3163,88],[1,12]],[[3164,108],[-1,-20]],[[3163,88],[3,-88]],[[2619,1203],[7,-31],[-53,-38],[-21,-130],[23,-17],[24,-115],[29,-17],[-26,-68],[28,-38],[-22,-54],[10,-139],[-44,-5],[56,-136]],[[2338,1511],[7,2],[41,2],[41,-17],[23,-19],[21,-23]],[[2261,1488],[77,23]],[[2471,1456],[1,0],[19,-27],[18,-29],[12,-23],[10,-25],[9,-26],[6,-28]],[[578,1702],[18,-29],[24,-28],[16,-12]],[[206,1746],[35,-3],[123,-26],[17,0],[16,2],[17,5],[66,35],[15,3],[16,1],[15,-3],[15,-8],[10,-9],[8,-11],[19,-30]],[[636,1633],[12,-10],[29,-17],[33,-12],[34,-6],[204,3],[26,7],[25,13],[24,16],[86,81],[22,18],[27,17],[85,34],[26,14],[133,99],[12,6],[12,5],[12,3],[13,-2],[12,-6],[11,-8],[47,-47],[13,-11],[12,-8],[7,-3],[7,-2]],[[1554,1834],[41,-56],[52,-21],[112,-14],[34,-15],[33,-21],[213,-197],[30,-20],[31,-14],[33,-8],[32,0],[96,20]],[[2578,648],[-12,-81],[-4,-48]],[[2562,516],[3,-48],[8,-42],[12,-38],[5,-11]],[[2698,83],[7,-17],[11,-18],[12,-17],[13,-14],[21,-17]],[[2546,1298],[2,-20],[2,-20],[-1,-20],[-3,-20],[-4,-15],[-29,-76],[-10,-35],[-3,-37],[3,-39],[13,-44],[53,-119],[14,-45],[5,-47],[-1,-48],[-9,-65]],[[2562,519],[0,-1],[0,-2]],[[2590,377],[63,-135],[14,-40],[23,-98],[6,-17],[2,-4]],[[2762,0]],[[0,1844],[40,-3],[69,-13],[24,-8],[23,-10],[20,-11],[19,-15],[17,-18],[14,-24]],[[2109,2893],[-40,39],[-32,46],[-37,39],[-52,13]],[[1825,3097],[32,-28],[28,-19]],[[1374,3506],[-10,-66],[18,-60],[34,-50],[38,-39],[42,-32],[44,-25],[37,-12],[74,-10],[37,-10],[36,-19],[35,-26],[66,-60]],[[1885,3050],[6,-4],[37,-15],[38,-1]],[[1321,471],[0,30],[-2,46],[0,2]],[[1281,692],[-8,14],[-15,16]],[[1258,722],[-8,9],[-26,17],[-28,12],[-147,27],[-15,1],[-30,-3],[-15,2],[-16,5],[-14,9],[-77,63],[-13,8],[-58,21],[-5,3],[-79,58],[-16,17],[-13,22],[-8,26],[-2,18],[0,18],[0,18],[37,315],[19,97],[30,90]],[[1237,0],[32,82],[26,93],[8,46],[16,187],[2,63]],[[1319,549],[-5,41],[-8,42],[-14,39],[-11,21]],[[0,2913],[39,-71],[19,-40],[13,-43],[3,-24],[1,-24],[-1,-25],[-4,-24],[-10,-46],[-2,-24],[3,-23],[3,-7],[4,-7],[14,-19],[5,-9],[10,-19],[23,-62],[9,-19],[5,-9],[6,-7],[7,-7],[30,-21],[7,-8],[11,-17],[20,-38],[12,-16],[28,-20],[31,-9],[31,-6],[31,-10],[14,-10],[13,-12],[11,-15],[9,-18],[7,-20],[14,-64],[5,-17],[7,-16],[29,-44],[9,-17],[7,-19],[5,-21],[6,-50],[2,-51],[5,-50],[13,-47]],[[3883,3948],[-180,50],[-39,7],[-39,-1],[-133,-30],[-17,-6]],[[3913,3939],[-30,8]],[[3959,3928],[-14,2],[-4,1]],[[3983,3925],[-12,1]],[[4030,3918],[-46,6]],[[3078,3130],[-14,-15],[-17,-13],[-20,-10]],[[3233,3602],[-2,-12],[-1,-18],[2,-61]],[[3232,3511],[1,-4],[-1,-13],[-3,-13],[-101,-223],[-35,-102],[-13,-24],[-2,-2]],[[3475,3968],[-11,-4],[-26,-12],[-25,-16],[-23,-21],[-20,-24],[-19,-28],[-85,-163],[-18,-44],[-8,-23],[-6,-23],[-1,-8]],[[3883,3947],[0,1]],[[3941,3931],[-28,8]],[[3971,3926],[-12,2]],[[3984,3924],[-1,1]],[[4096,3908],[-66,10]],[[3036,3092],[-41,-60],[-51,-40],[-41,-27]],[[2903,2965],[-66,-43],[-53,-52],[-13,-10],[-13,-7],[-14,-5],[-37,-7],[-111,-4],[-78,6],[-56,11],[-34,11],[-89,49],[-16,5],[-15,3],[-16,0],[-17,-2],[-108,-36],[-29,-1],[-29,10]],[[4096,1398],[-5,-4],[-31,-9],[-30,8],[-29,19],[-80,70],[-29,17],[-31,11],[-31,2],[-199,-7],[-374,-55],[-101,-31],[-377,-50],[-40,-10],[-85,-36],[-14,-7],[-7,-3],[-85,-14]],[[1660,2186],[-8,-17],[-83,-119],[-14,-23]],[[1879,3063],[2,-14]],[[1555,2027],[-12,-19],[-10,-23],[-8,-23],[-4,-26],[1,-33],[8,-29],[10,-29],[8,-30]],[[1881,3049],[7,-48],[1,-10],[0,-9],[-3,-20],[-17,-56],[-2,-19],[3,-18],[7,-16],[10,-14],[22,-28],[10,-17],[3,-20],[-1,-8],[-5,-8],[-6,-5],[-11,-10],[-141,-82],[-11,-11],[-6,-15],[3,-17],[17,-36],[7,-20],[4,-21],[1,-30],[-5,-30],[-14,-57],[-43,-119],[-48,-114],[-3,-5]],[[1635,715],[-2,-15],[-8,-25],[-14,-19],[-25,-17],[-29,-7],[-29,1],[-28,6],[-30,12],[-63,34]],[[1302,738],[-16,5],[-25,3]],[[1261,746],[-9,1]],[[1407,685],[-89,48],[-16,5]],[[1548,1815],[2,-26],[-2,-51],[4,-25],[7,-18],[9,-16],[40,-58],[9,-16],[6,-18],[3,-14],[0,-15],[-7,-57],[0,-14],[3,-13],[4,-5],[4,-5],[4,-3],[5,-2],[7,-2],[1,-11],[0,-21],[-3,-28],[-7,-25],[-20,-46],[-9,-24],[-2,-23],[4,-24],[8,-24],[8,-17],[26,-46],[7,-17],[5,-18],[1,-19],[-1,-19],[-8,-35],[-13,-37],[-6,-36],[12,-33],[24,-23],[7,-9],[6,-16],[2,-18],[-2,-18],[-4,-17],[-6,-11],[-20,-24],[-6,-14],[-4,-17],[-11,-72]],[[1580,3554],[-84,-42]],[[1496,3512],[-14,-7],[-50,-14],[-52,1]],[[2786,4096],[1,-24],[-2,-24],[0,-14],[3,-14],[4,-13],[6,-12],[20,-36],[87,-105],[133,-199],[58,-73],[55,-54],[27,-17],[4,-2],[17,-5],[32,-19]],[[3336,2385],[8,0],[19,3],[24,8]],[[3027,3092],[19,-29],[10,-21]],[[3056,3042],[6,-14],[49,-146],[14,-34],[19,-29],[22,-17],[48,-19],[20,-18],[13,-31],[-1,-34],[-9,-35],[-15,-47],[-4,-16],[-1,-16],[1,-17],[1,-9],[3,-8],[3,-7],[4,-7],[6,-5],[6,-3],[7,-2],[19,-2],[7,-1],[6,-3],[7,-6],[5,-7],[5,-10],[4,-9],[5,-20],[1,-21],[-1,-55],[0,-5],[3,-2],[17,-2],[10,0]],[[3387,2396],[119,39],[27,3],[14,-1],[13,-2],[20,-15],[11,-26],[5,-31],[6,-55],[3,-11],[4,-11],[5,-9],[6,-7],[7,-5],[14,-7],[18,-5],[6,-2],[3,-1],[1,-3],[0,-6],[1,-5],[1,-10],[3,-10],[4,-9],[4,-8],[13,-21],[16,-18],[34,-30],[319,-184],[32,-24]],[[1689,3545],[-65,8],[-33,-1],[-31,-12]],[[1972,4096],[-15,-18],[-28,-26],[-33,-45],[-22,-57],[-15,-64],[-29,-187],[-17,-58],[-27,-49],[-21,-23],[-24,-15],[-25,-7],[-27,-2]],[[1583,3544],[-14,14],[-15,13],[-15,10],[-16,7],[-14,4],[-2,1]],[[1507,3593],[-100,14],[-29,13],[-24,22],[-18,46],[-2,54],[2,57],[-8,52],[-14,26],[-18,20],[-21,14],[-117,46],[-16,10],[-15,13],[-12,18],[-9,28],[-2,31],[2,32],[2,7]],[[2665,2329],[16,-54],[17,-31]],[[2536,2844],[22,-20],[1,-26],[-18,-26],[1,-29],[23,-81],[35,-22],[18,-30],[-8,-77],[0,-41],[23,-79],[5,-53],[26,-24],[1,-7]],[[2698,2244],[-15,-20]],[[2683,2224],[-42,-55],[-40,-19],[-60,-2]],[[2394,1558],[4,-10],[4,-42]],[[2541,2148],[-59,-73],[-52,-10],[-17,-14],[-25,-59],[-16,-57],[9,-54],[35,-29],[2,-35],[-11,-48],[11,-51],[-11,-28],[9,-39],[-26,-38],[-3,-33],[7,-22]],[[0,867],[57,-3],[29,-19],[43,0],[40,13],[56,-11],[107,-5],[51,22],[52,13],[34,18],[40,39],[54,73],[53,48],[59,35]],[[4096,0],[-4096,0],[0,3198],[0,898],[4096,0],[0,-4096]],[[1237,47],[-14,-47],[-49,0],[31,70],[32,-23]],[[2774,117],[-6,-117],[-91,0],[6,68],[99,96],[-8,-47]],[[1267,686],[-14,55],[49,29],[0,-70],[-35,-14]],[[1571,2018],[-52,27],[-7,78],[97,23],[32,72],[29,-48],[-99,-152]],[[2765,2390],[6,-61],[-13,27],[-32,0],[32,-116],[-113,-24],[-29,112],[45,-6],[56,97],[48,-29]],[[687,1726],[-7,-22],[-25,22],[-32,-19],[-17,89],[98,1],[16,-49],[-33,-22]],[[4096,2603],[0,-58],[-5,-6],[-31,8],[-8,43],[44,13]],[[3341,2333],[-23,14],[39,79],[-33,94],[49,0],[16,-140],[-48,-47]],[[653,1485],[2,-38],[59,42],[22,-19],[-16,-117],[-65,47],[-113,-24],[-45,34],[6,53],[87,30],[81,70],[-18,-78]],[[2516,1620],[31,-65],[-64,-15],[11,-45],[-43,-72],[-52,5],[-13,-28],[-49,23],[-2,84],[32,46],[51,10],[-8,43],[106,14]],[[3625,1583],[-9,-59],[-60,47],[-5,62],[34,-3],[40,-47]],[[639,1610],[-55,15],[-10,78],[54,-15],[11,-78]],[[3680,1610],[-55,39],[7,78],[38,-39],[10,-78]],[[1630,3657],[77,-88],[-35,-49],[-176,-44],[0,117],[97,0],[37,64]],[[3219,3506],[-62,48],[-11,62],[41,27],[61,-55],[12,-66],[-41,-16]],[[3088,3128],[42,-25],[-8,-27],[-218,-113],[-13,28],[29,65],[-32,70],[32,-23],[48,70],[1,-24],[119,-21]],[[1947,3193],[18,-90],[33,23],[32,-93],[-65,46],[-129,-46],[-18,107],[18,56],[83,-18],[14,41],[14,-26]],[[111,307],[35,44],[-4,99],[119,106],[64,-36],[26,23],[62,195],[44,-56],[-26,-19],[-2,-28],[12,-2],[66,65],[38,-16],[114,77],[18,-31],[43,7],[23,-43],[-23,-30],[32,-31],[-28,-6],[10,-29],[-24,-32],[-78,-17],[23,-49],[-18,-29],[53,-22],[-43,-36],[-130,-72],[-58,45],[-202,-40],[-43,-67],[-73,-47],[-30,77]],[[2440,441],[34,103],[111,-34],[-92,37],[95,113],[31,-5],[12,-43],[69,-23],[-6,-18],[67,15],[20,-19],[-30,-18],[41,-19],[13,-41],[-9,-66],[-58,37],[-64,-89],[-53,53],[29,-56],[-158,24],[-52,49]],[[1309,516],[11,36],[57,-26],[37,25],[-20,14],[20,23],[-52,22],[23,13],[-3,64],[148,-11],[31,-24],[89,76],[130,-37],[-1,-111],[81,-31],[-73,-48],[-59,-1],[-45,-134],[-36,28],[-37,3],[-7,-29],[-75,25],[6,76],[-23,43],[-134,-79],[-66,44],[-2,39]],[[4096,940],[0,-14],[-11,3],[-61,-30],[-69,-145],[60,-62],[63,7],[-1,-73],[-81,18],[-34,-65],[-58,38],[15,15],[-33,110],[28,-31],[-54,76],[-4,71],[60,53],[-19,26],[14,36],[79,57],[49,-6],[57,-84]],[[3931,674],[11,-22],[42,16],[-34,16],[-19,-10]],[[3912,656],[20,1],[-5,21],[2,-1],[3,4],[2,2],[0,1],[-18,-15],[-4,-13]],[[33,0],[22,35],[-25,33],[1,1],[-31,3],[0,746],[84,-90],[94,-6],[67,-104],[-15,-93],[-93,-82],[9,-92],[-35,-44],[14,-88],[-65,-120],[33,34],[53,125],[96,52],[-15,28],[228,46],[63,-35],[16,-41],[-120,-134],[37,-51],[-13,-123],[-405,0]],[[241,58],[5,-4],[14,9],[16,22],[-3,12],[-32,-39]],[[2551,1005],[19,101],[12,-28],[55,-20],[37,11],[19,56],[96,-10],[52,119],[23,-38],[15,24],[18,-18],[-1,67],[35,-39],[2,43],[29,-24],[-19,63],[44,-32],[3,-59],[6,13],[1,25],[4,4],[24,-48],[-5,56],[138,-12],[50,25],[11,-36],[25,46],[16,-28],[202,-17],[4,-42],[42,48],[26,-49],[5,61],[45,-19],[29,43],[14,-40],[26,41],[23,-62],[38,40],[6,-55],[16,39],[28,-34],[41,27],[7,77],[39,-16],[75,51],[34,-17],[19,17],[-47,-88],[9,-56],[-84,-46],[42,-39],[-31,-59],[-41,21],[-11,-35],[112,-66],[-37,-63],[-73,-73],[-36,4],[-27,-65],[-68,-53],[-59,-13],[-58,50],[-55,-17],[-82,-97],[-158,-46],[27,-68],[-8,-68],[-51,7],[-48,72],[-101,-18],[-69,26],[-9,-29],[-61,-10],[-93,46],[-24,202],[-35,37],[-3,50],[-141,-6],[-17,45],[-60,29],[-31,72]],[[4096,3561],[0,-1],[-25,-30],[-19,-136],[18,-36],[-205,-217],[-94,3],[24,58],[-43,-25],[13,73],[-44,21],[-22,-15],[-13,41],[-35,-26],[-45,6],[12,26],[62,9],[0,23],[-64,-31],[-7,50],[-58,0],[37,50],[-43,29],[70,16],[6,30],[40,-52],[71,-10],[14,119],[139,121],[-45,-8],[-65,57],[-126,45],[-15,-42],[-36,-8],[22,111],[-145,147],[-14,137],[560,0],[13,-21],[17,-150],[-20,-6],[-5,22],[5,-31],[-35,4],[2,-33],[34,21],[-26,-48],[40,-57],[-42,-118],[50,-12],[3,-80],[39,-26]],[[3761,3914],[19,-1],[16,9],[32,-4],[-39,20],[-28,-24]],[[3616,3953],[5,-6],[9,1],[19,13],[16,-11],[-6,11],[-10,1],[-17,-3],[25,23],[-41,-29]],[[3906,3944],[23,-18],[14,3],[-26,28],[-11,-13]],[[3580,3953],[20,-2],[6,4],[3,0],[-3,-17],[14,9],[-14,12],[-10,-5],[-16,-1]],[[3976,3902],[1,-6],[3,-3],[5,39],[-9,-30]],[[3955,3932],[10,-10],[18,11],[-16,10],[-12,-11]],[[3838,3941],[29,-2],[1,3],[14,4],[1,2],[-45,-7]],[[3578,3957],[17,-2],[11,5],[1,4],[-29,-7]],[[3782,3915],[16,-6],[6,6],[-9,6],[-13,-6]],[[3897,3313],[8,-3],[6,5],[-8,-2],[-6,0]],[[3669,3946],[3,-5],[9,1],[0,3],[-12,1]],[[3563,3957],[6,0],[0,4],[-4,2],[-2,-6]],[[3540,3948],[3,-8],[10,9],[-1,1],[-12,-2]],[[1034,2395],[38,17],[74,-61],[107,-5],[119,113],[-45,121],[87,28],[-38,147],[22,7],[-8,43],[24,38],[-71,41],[-19,-25],[-130,59],[3,56],[-30,6],[50,8],[25,60],[128,0],[28,-36],[5,-57],[-27,17],[19,-59],[26,-20],[47,23],[104,-20],[64,-53],[5,-113],[-37,-11],[-1,-42],[-114,-13],[-24,-62],[107,6],[53,-25],[26,27],[32,-9],[20,-28],[-12,-27],[61,-1],[-53,-18],[36,3],[-1,-77],[-51,21],[12,30],[-33,7],[-9,36],[-121,17],[-41,-61],[76,-62],[-48,-38],[-19,24],[-15,3],[-2,0],[-1,-1],[8,-2],[24,-23],[11,-4],[-15,-22],[23,-23],[-45,36],[-127,7],[-68,-77],[-19,-66],[37,-59],[-18,21],[-88,4],[7,-17],[-51,1],[-29,-40],[-58,98],[16,26],[-21,67],[-35,39]],[[55,2990],[49,58],[-3,68],[29,2],[-38,22],[26,9],[5,64],[-32,54],[109,37],[38,105],[70,59],[1,101],[47,19],[39,72],[41,-47],[59,-7],[54,43],[24,-35],[3,-172],[-31,0],[15,-37],[-81,-42],[24,-32],[83,9],[40,-6],[3,-13],[20,24],[59,1],[7,-30],[24,-3],[4,20],[52,8],[6,39],[45,0],[-52,-169],[-98,-77],[-16,-39],[19,-29],[-43,-24],[-27,-54],[7,38],[-8,2],[-19,-37],[17,-17],[-65,3],[64,-5],[-28,-25],[64,11],[10,-36],[-28,27],[-14,-17],[30,-3],[32,-52],[-156,-2],[-7,19],[-39,-25],[-52,3],[-22,19],[28,9],[-42,19],[-19,-26],[0,35],[-68,5],[-12,46],[-50,26],[-124,-82],[-36,10],[-37,57]],[[416,2944],[2,-9],[16,-18],[29,-16],[-4,-4],[17,-19],[-7,21],[-13,14],[-23,8],[4,19],[-16,-7],[15,14],[-20,-3]],[[116,3076],[8,-15],[13,-3],[-7,15],[-14,3]],[[796,3318],[9,-1],[4,-7],[-1,8],[-12,0]],[[765,3307],[6,9],[-4,4],[0,-7],[-2,-6]],[[321,2938],[4,-3],[11,-2],[3,4],[-18,1]],[[618,3298],[9,1],[-6,11],[-2,0],[-1,-12]],[[612,3324],[4,-4],[-1,9],[-2,-1],[-1,-4]]]}