{"objects":{"water":{"type":"GeometryCollection","geometries":[{"type":"Polygon","properties":{"source":"naturalearthdata.com","kind":"ocean","area":1576712559132672,"sort_rank":200,"min_zoom":0.0,"id":1},"arcs":[[0]]}]},"buildings":{"type":"GeometryCollection","geometries":[]},"places":{"type":"GeometryCollection","geometries":[]},"transit":{"type":"GeometryCollection","geometries":[]},"pois":{"type":"GeometryCollection","geometries":[]},"boundaries":{"type":"GeometryCollection","geometries":[]},"roads":{"type":"GeometryCollection","geometries":[]},"earth":{"type":"GeometryCollection","geometries":[{"type":"Point","properties":{"name:pt":"Ant\u00e1rtida","name:ps":"\u0627\u0646\u067c\u0627\u0631\u06a9\u067c\u064a\u06a9\u0627","name:ka":"\u10d0\u10dc\u10e2\u10d0\u10e0\u10e5\u10e2\u10d8\u10d3\u10d0","name:ko":"\ub0a8\uadf9","name:cv":"\u0410\u043d\u0442\u0430\u0440\u043a\u0442\u0438\u0434\u0430","name:cu":"\u0410\u043d\u0442\u0430\u0440\u043a\u0442\u0457\u043a\u0430","name:kl":"Qalasersuaq Kujalleq","name:cs":"Antarktida","name:tt":"\u0410\u043d\u0442\u0430\u0440\u043a\u0442\u0438\u0434\u0430","name:co":"Antartide","name:tk":"Antarktika","name:ku":"Antarkt\u00eeka","name:az":"Antarktida","name:to":"\u02bbAnet\u0101tika","name:tl":"Antartiko","name:pa":"\u0a05\u0a70\u0a1f\u0a3e\u0a30\u0a15\u0a1f\u0a3f\u0a15\u0a3e","name:os":"\u0410\u043d\u0442\u0430\u0440\u043a\u0442\u0438\u0434\u00e6","name:or":"\u0b06\u0b23\u0b4d\u0b1f\u0b30\u0b4d\u0b15\u0b1f\u0b3f\u0b15\u0b3e","name:ce":"\u0410\u043d\u0442\u0430\u0440\u043a\u0442\u0438\u0434\u0430","name:ta":"\u0b85\u0ba9\u0bcd\u0b9f\u0bbe\u0bb0\u0bcd\u0b95\u0bcd\u0b9f\u0bbf\u0b95\u0bcd\u0b95\u0bbe","name:tg":"\u0410\u043d\u0442\u0430\u0440\u043a\u0442\u0438\u0434\u0430","name:ca":"Ant\u00e0rtida","name:cy":"Yr Antarctig","name:hr":"Antarktika","name:da":"Antarktis","name:sw":"Antaktiki","name:de":"Antarktika","source":"openstreetmap.org","name:nv":"Sh\u00e1di\u02bc\u00e1\u00e1hj\u00ed k\u00e9yah yistin\u00edg\u00ed\u00ed","name:be":"\u0410\u043d\u0442\u0430\u0440\u043a\u0442\u044b\u0434\u0430","name:ba":"\u0410\u043d\u0442\u0430\u0440\u043a\u0442\u0438\u043a\u0430","name:lv":"Antarkt\u012bda","name:lt":"Antarktida","name:hi":"\u0905\u0902\u091f\u093e\u0930\u094d\u0915\u091f\u093f\u0915\u093e","name:kk":"\u0410\u043d\u0442\u0430\u0440\u043a\u0442\u0438\u0434\u0430","name:he":"\u05d0\u05e0\u05d8\u05d0\u05e8\u05e7\u05d8\u05d9\u05e7\u05d4","name:eo":"Antarkto","name:ur":"\u0627\u0646\u0679\u0627\u0631\u06a9\u0679\u06a9\u0627","name:lb":"Antarktis","name:uk":"\u0410\u043d\u0442\u0430\u0440\u043a\u0442\u0438\u0434\u0430","name:hy":"\u0410\u043d\u0442\u0430\u0440\u043a\u0442\u0438\u0434\u0430","name:ht":"Antatik","name:hu":"Antarktika","name:qu":"Antartika","name:lo":"\u0e97\u0eb0\u0ea7\u0eb5\u0e9a\u0ead\u0eb1\u0e87\u0e95\u0eb2\u0e81\u0e95\u0eb4\u0e81","name:oc":"Antartida","name:el":"\u0391\u03bd\u03c4\u03b1\u03c1\u03ba\u03c4\u03b9\u03ba\u03ae","kind":"continent","name":"Antarctica","name:bn":"\u0985\u09cd\u09af\u09be\u09a8\u09cd\u099f\u09be\u09b0\u09cd\u0995\u099f\u09bf\u0995\u09be","min_zoom":0.0,"name:th":"\u0e17\u0e27\u0e35\u0e1b\u0e41\u0e2d\u0e19\u0e15\u0e32\u0e23\u0e4c\u0e01\u0e15\u0e34\u0e01\u0e32","name:eu":"Antartika","name:et":"Antarktis","name:jv":"Antartika","name:es":"Ant\u00e1rtida","label_placement":true,"name:ro":"Antarctida","name:ie":"Antarctic","name:id":"Antarktika","name:ms":"Antartika","name:mr":"\u0905\u0902\u091f\u093e\u0930\u094d\u0915\u094d\u091f\u093f\u0915\u093e","name:as":"\u098f\u09a8\u09cd\u099f\u09be\u09f0\u09cd\u0995\u099f\u09bf\u0995\u09be","name:ar":"\u0627\u0644\u0642\u0627\u0631\u0629 \u0627\u0644\u0642\u0637\u0628\u064a\u0629 \u0627\u0644\u062c\u0646\u0648\u0628\u064a\u0629","name:an":"Antarctida","name:io":"Antarktika","name:kw":"Antarktika","name:is":"Su\u00f0urskautslandi\u00f0","name:am":"\u12a0\u1295\u1273\u122d\u12ad\u1272\u12ab","name:it":"Antartide","name:ml":"\u0d05\u0d28\u0d4d\u0d31\u0d3e\u0d7c\u0d1f\u0d4d\u0d1f\u0d3f\u0d15\u0d4d\u0d15","name:vi":"Ch\u00e2u Nam C\u1ef1c","name:rw":"Antarigitika","name:mi":"Te Tiri o Te Moana","name:pl":"Antarktyda","name:mk":"\u0410\u043d\u0442\u0430\u0440\u043a\u0442\u0438\u043a","name:af":"Antarktika","name:zu":"I-Antatika","name:mn":"\u0410\u043d\u0442\u0430\u0440\u043a\u0442\u0438\u0434","name:fi":"Etel\u00e4manner","name:uz":"Antarktida","name:mg":"Antartika","id":-2186646,"alt_name:vi":"Nam C\u1ef1c Ch\u00e2u","name:fr":"Antarctique","name:tr":"Antarktika","name:za":"Namzgigcouh","alt_name:vo":"Sul\u00fcdop","name:fy":"Antarktika","name:vo":"Lantarkop","name:zh":"\u5357\u6781\u6d32","name:se":"Ant\u00e1rktis","name:so":"Antiarktis","name:sm":"Anetatika","name:sl":"Antarktika","name:sk":"Antarkt\u00edda","name:ja":"\u5357\u6975\u5927\u9678","name:nn":"Antarktis","name:sh":"Antarktik","name:nb":"Antarktika","name:ne":"\u0905\u0928\u094d\u091f\u093e\u0930\u094d\u0915\u094d\u091f\u093f\u0915\u093e","name:sa":"\u0905\u0923\u094d\u091f\u093e\u0930\u094d\u0915\u094d\u091f\u093f\u0915\u093e","name:bs":"Antarktik","name:yi":"\u05d0\u05e0\u05d8\u05d0\u05e8\u05e7\u05d8\u05d9\u05e7\u05e2","name:wa":"Antartike","name:br":"Antarktika","name:no":"Antarktika","name:ru":"\u0410\u043d\u0442\u0430\u0440\u043a\u0442\u0438\u0434\u0430","name:sv":"Antarktis","name:su":"Antartika","name:bg":"\u0410\u043d\u0442\u0430\u0440\u043a\u0442\u0438\u0434\u0430","name:wo":"Goxub Dottub B\u00ebj-saalum","name:sr":"\u0410\u043d\u0442\u0430\u0440\u043a\u0442\u0438\u043a","osm_relation":true,"name:sq":"Antarktiku","name:ga":"Antartach","name:gd":"Antargtaga","name:yo":"Ant\u00e1rkt\u00eck\u00e0","name:gn":"Ant\u00e1rtida","name:gl":"Ant\u00e1rtida","name:fa":"\u062c\u0646\u0648\u0628\u06af\u0627\u0646","name:fo":"Antarktis","name:gv":"Yn Antarctagh","name:gu":"\u0a8d\u0aa8\u0acd\u0a9f\u0abe\u0ab0\u0acd\u0a95\u0a9f\u0abf\u0a95\u0abe"},"coordinates":[2556,689]},{"type":"Point","properties":{"name:pt":"Ant\u00e1rtida","name:ps":"\u0627\u0646\u067c\u0627\u0631\u06a9\u067c\u064a\u06a9\u0627","name:ka":"\u10d0\u10dc\u10e2\u10d0\u10e0\u10e5\u10e2\u10d8\u10d3\u10d0","name:ko":"\ub0a8\uadf9","name:cv":"\u0410\u043d\u0442\u0430\u0440\u043a\u0442\u0438\u0434\u0430","name:cu":"\u0410\u043d\u0442\u0430\u0440\u043a\u0442\u0457\u043a\u0430","name:kl":"Qalasersuaq Kujalleq","name:cs":"Antarktida","name:tt":"\u0410\u043d\u0442\u0430\u0440\u043a\u0442\u0438\u0434\u0430","name:co":"Antartide","name:tk":"Antarktika","name:ku":"Antarkt\u00eeka","name:az":"Antarktida","name:to":"\u02bbAnet\u0101tika","name:tl":"Antartiko","name:pa":"\u0a05\u0a70\u0a1f\u0a3e\u0a30\u0a15\u0a1f\u0a3f\u0a15\u0a3e","name:os":"\u0410\u043d\u0442\u0430\u0440\u043a\u0442\u0438\u0434\u00e6","name:or":"\u0b06\u0b23\u0b4d\u0b1f\u0b30\u0b4d\u0b15\u0b1f\u0b3f\u0b15\u0b3e","name:ce":"\u0410\u043d\u0442\u0430\u0440\u043a\u0442\u0438\u0434\u0430","name:ta":"\u0b85\u0ba9\u0bcd\u0b9f\u0bbe\u0bb0\u0bcd\u0b95\u0bcd\u0b9f\u0bbf\u0b95\u0bcd\u0b95\u0bbe","name:tg":"\u0410\u043d\u0442\u0430\u0440\u043a\u0442\u0438\u0434\u0430","name:ca":"Ant\u00e0rtida","name:cy":"Yr Antarctig","name:hr":"Antarktika","name:da":"Antarktis","name:sw":"Antaktiki","name:de":"Antarktika","source":"openstreetmap.org","name:nv":"Sh\u00e1di\u02bc\u00e1\u00e1hj\u00ed k\u00e9yah yistin\u00edg\u00ed\u00ed","name:be":"\u0410\u043d\u0442\u0430\u0440\u043a\u0442\u044b\u0434\u0430","name:ba":"\u0410\u043d\u0442\u0430\u0440\u043a\u0442\u0438\u043a\u0430","name:lv":"Antarkt\u012bda","name:lt":"Antarktida","name:hi":"\u0905\u0902\u091f\u093e\u0930\u094d\u0915\u091f\u093f\u0915\u093e","name:kk":"\u0410\u043d\u0442\u0430\u0440\u043a\u0442\u0438\u0434\u0430","name:he":"\u05d0\u05e0\u05d8\u05d0\u05e8\u05e7\u05d8\u05d9\u05e7\u05d4","name:eo":"Antarkto","name:ur":"\u0627\u0646\u0679\u0627\u0631\u06a9\u0679\u06a9\u0627","name:lb":"Antarktis","name:uk":"\u0410\u043d\u0442\u0430\u0440\u043a\u0442\u0438\u0434\u0430","name:hy":"\u0410\u043d\u0442\u0430\u0440\u043a\u0442\u0438\u0434\u0430","name:ht":"Antatik","name:hu":"Antarktika","name:qu":"Antartika","name:lo":"\u0e97\u0eb0\u0ea7\u0eb5\u0e9a\u0ead\u0eb1\u0e87\u0e95\u0eb2\u0e81\u0e95\u0eb4\u0e81","name:oc":"Antartida","name:el":"\u0391\u03bd\u03c4\u03b1\u03c1\u03ba\u03c4\u03b9\u03ba\u03ae","kind":"continent","name":"Antarctica","name:bn":"\u0985\u09cd\u09af\u09be\u09a8\u09cd\u099f\u09be\u09b0\u09cd\u0995\u099f\u09bf\u0995\u09be","min_zoom":0.0,"name:th":"\u0e17\u0e27\u0e35\u0e1b\u0e41\u0e2d\u0e19\u0e15\u0e32\u0e23\u0e4c\u0e01\u0e15\u0e34\u0e01\u0e32","name:eu":"Antartika","name:et":"Antarktis","name:jv":"Antartika","name:es":"Ant\u00e1rtida","label_placement":true,"name:ro":"Antarctida","name:ie":"Antarctic","name:id":"Antarktika","name:ms":"Antartika","name:mr":"\u0905\u0902\u091f\u093e\u0930\u094d\u0915\u094d\u091f\u093f\u0915\u093e","name:as":"\u098f\u09a8\u09cd\u099f\u09be\u09f0\u09cd\u0995\u099f\u09bf\u0995\u09be","name:ar":"\u0627\u0644\u0642\u0627\u0631\u0629 \u0627\u0644\u0642\u0637\u0628\u064a\u0629 \u0627\u0644\u062c\u0646\u0648\u0628\u064a\u0629","name:an":"Antarctida","name:io":"Antarktika","name:kw":"Antarktika","name:is":"Su\u00f0urskautslandi\u00f0","name:am":"\u12a0\u1295\u1273\u122d\u12ad\u1272\u12ab","name:it":"Antartide","name:ml":"\u0d05\u0d28\u0d4d\u0d31\u0d3e\u0d7c\u0d1f\u0d4d\u0d1f\u0d3f\u0d15\u0d4d\u0d15","name:vi":"Ch\u00e2u Nam C\u1ef1c","name:rw":"Antarigitika","name:mi":"Te Tiri o Te Moana","name:pl":"Antarktyda","name:mk":"\u0410\u043d\u0442\u0430\u0440\u043a\u0442\u0438\u043a","name:af":"Antarktika","name:zu":"I-Antatika","name:mn":"\u0410\u043d\u0442\u0430\u0440\u043a\u0442\u0438\u0434","name:fi":"Etel\u00e4manner","name:uz":"Antarktida","name:mg":"Antartika","id":-2186646,"alt_name:vi":"Nam C\u1ef1c Ch\u00e2u","name:fr":"Antarctique","name:tr":"Antarktika","name:za":"Namzgigcouh","alt_name:vo":"Sul\u00fcdop","name:fy":"Antarktika","name:vo":"Lantarkop","name:zh":"\u5357\u6781\u6d32","name:se":"Ant\u00e1rktis","name:so":"Antiarktis","name:sm":"Anetatika","name:sl":"Antarktika","name:sk":"Antarkt\u00edda","name:ja":"\u5357\u6975\u5927\u9678","name:nn":"Antarktis","name:sh":"Antarktik","name:nb":"Antarktika","name:ne":"\u0905\u0928\u094d\u091f\u093e\u0930\u094d\u0915\u094d\u091f\u093f\u0915\u093e","name:sa":"\u0905\u0923\u094d\u091f\u093e\u0930\u094d\u0915\u094d\u091f\u093f\u0915\u093e","name:bs":"Antarktik","name:yi":"\u05d0\u05e0\u05d8\u05d0\u05e8\u05e7\u05d8\u05d9\u05e7\u05e2","name:wa":"Antartike","name:br":"Antarktika","name:no":"Antarktika","name:ru":"\u0410\u043d\u0442\u0430\u0440\u043a\u0442\u0438\u0434\u0430","name:sv":"Antarktis","name:su":"Antartika","name:bg":"\u0410\u043d\u0442\u0430\u0440\u043a\u0442\u0438\u0434\u0430","name:wo":"Goxub Dottub B\u00ebj-saalum","name:sr":"\u0410\u043d\u0442\u0430\u0440\u043a\u0442\u0438\u043a","osm_relation":true,"name:sq":"Antarktiku","name:ga":"Antartach","name:gd":"Antargtaga","name:yo":"Ant\u00e1rkt\u00eck\u00e0","name:gn":"Ant\u00e1rtida","name:gl":"Ant\u00e1rtida","name:fa":"\u062c\u0646\u0648\u0628\u06af\u0627\u0646","name:fo":"Antarktis","name:gv":"Yn Antarctagh","name:gu":"\u0a8d\u0aa8\u0acd\u0a9f\u0abe\u0ab0\u0acd\u0a95\u0a9f\u0abf\u0a95\u0abe"},"coordinates":[542,689]}]},"landuse":{"type":"GeometryCollection","geometries":[]}},"type":"Topology","transform":{"translate":[22.5,-60.23981117],"scale":[0.0006866455,0.0003481615]},"arcs":[[[0,0],[0,4096],[4096,0],[0,-4096],[-4096,0]]]}