{"objects":{"water":{"type":"GeometryCollection","geometries":[{"type":"MultiPolygon","properties":{"source":"naturalearthdata.com","kind":"ocean","area":1576712559132672,"sort_rank":200,"min_zoom":0.0,"id":1},"arcs":[[[5],[6]],[[7],[8],[9],[10],[11],[12],[13],[14]],[[15]]]},{"type":"MultiLineString","properties":{"source":"naturalearthdata.com","kind":"ocean","sort_rank":205,"boundary":true,"min_zoom":0.0,"id":31},"arcs":[[16],[17],[18]]},{"type":"LineString","properties":{"source":"naturalearthdata.com","kind":"ocean","sort_rank":205,"boundary":true,"min_zoom":0.0,"id":1996},"arcs":[19]}]},"buildings":{"type":"GeometryCollection","geometries":[]},"places":{"type":"GeometryCollection","geometries":[{"type":"Point","properties":{"kind":"locality","name":"Sandakan","kind_detail":"city","source":"openstreetmap.org","min_zoom":8.0,"name:uk":"\u0421\u0430\u043d\u0434\u0430\u043a\u0430\u043d","name:ru":"\u0421\u0430\u043d\u0434\u0430\u043a\u0430\u043d","population":479121,"name:zh":"\u5c71\u6253\u6839","id":974358366,"name:ja":"\u30b5\u30f3\u30c0\u30ab\u30f3"},"coordinates":[4069,654]},{"type":"Point","properties":{"kind":"locality","name":"Kudat","kind_detail":"city","source":"openstreetmap.org","min_zoom":8.0,"name:zh":"\u53e4\u8fbe","id":369497486,"population":83140},"coordinates":[362,3732]}]},"transit":{"type":"GeometryCollection","geometries":[]},"pois":{"type":"GeometryCollection","geometries":[]},"boundaries":{"type":"GeometryCollection","geometries":[{"type":"LineString","properties":{"name:right:yo":"Filip\u00edn\u00ec","name:left:la":"Malaesia","name:right:qu":"Philipinakuna","name:right:dv":"\u078a\u07a8\u078d\u07a8\u0795\u07a9\u0782\u07b0\u0790\u07b0","name:right:yi":"\u05e4\u05d9\u05dc\u05d9\u05e4\u05d9\u05e0\u05e2\u05df","name:right:hy":"\u0556\u056b\u056c\u056b\u057a\u056b\u0576\u0576\u0565\u0580","name:left:li":"Maleisi\u00eb","name:right:hr":"Filipini","name:left:sq":"Malajzia","name:right:hu":"F\u00fcl\u00f6p-szigetek","name:left:ss":"IMaleshiya","name:left:lo":"\u0e9b\u0eb0\u0ec0\u0e97\u0e94\u0ea1\u0eb2\u0ec0\u0ea5\u0ec0\u0e8a\u0e8d","name:left:sl":"Malezija","name:left:so":"Malaysiya","name:left:lt":"Malaizija","name:left:sh":"Malezija","name:left:lv":"Malaizija","name:right:mr":"\u092b\u093f\u0932\u093f\u092a\u093e\u0908\u0928\u094d\u0938","name:left:se":"Malesia","name:left:sg":"Malez\u00efi","name:left:sa":"\u092e\u0932\u092f\u0947\u0936\u093f\u092f\u093e","name:right:he":"\u05d4\u05e4\u05d9\u05dc\u05d9\u05e4\u05d9\u05e0\u05d9\u05dd","name:right:la":"Philippinae","name:right:af":"Filippyne","name:left:ce":"\u041c\u0430\u043b\u0430\u0439\u0437\u0438","name:right:an":"Filipinas","name:right:am":"\u134a\u120a\u1352\u1295\u1235","name:left:ca":"Mal\u00e0isia","name:left:qu":"Malasya","source":"openstreetmap.org","name:right:ar":"\u0627\u0644\u0641\u0644\u0628\u064a\u0646","name:left:cv":"\u041c\u0430\u043b\u0430\u0439\u0437\u0438","name:right:az":"Filippin","name:left:cs":"Malajsie","name:left:ka":"\u10db\u10d0\u10da\u10d0\u10d8\u10d6\u10d8\u10d0","name:right:zh-yue":"\u83f2\u5f8b\u8cd3","name:left:km":"\u1798\u17c9\u17b6\u17a1\u17c1\u179f\u17ca\u17b8","name:right:ht":"Filipin","name:left:ko":"\ub9d0\ub808\uc774\uc2dc\uc544","name:left:kn":"\u0cae\u0cb2\u0cc7\u0cb6\u0cbf\u0caf","name:right:is":"Filippseyjar","name:left:ro":"Malaezia","name:left:kk":"\u041c\u0430\u043b\u0430\u0439\u0437\u0438\u044f","name:right:ru":"\u0424\u0438\u043b\u0438\u043f\u043f\u0438\u043d\u044b","name:left:ku":"Malezya","name:left:kw":"Malaysi","name:left:kv":"\u041c\u0430\u043b\u0430\u0439\u0437\u0438\u044f","name:right:ro":"Filipine","name:left:ru":"\u041c\u0430\u043b\u0430\u0439\u0437\u0438\u044f","name:right:ie":"Filipines","name:right:id":"Filipina","name:left:ky":"\u041c\u0430\u043b\u0430\u0439\u0437\u0438\u044f","name:right:ia":"Philippinas","name:right:bo":"\u0f67\u0fa5\u0f72\u0f0b\u0f63\u0f72\u0f0b\u0f54\u0f72\u0f53\u0f0d","name:right:bn":"\u09ab\u09bf\u09b2\u09bf\u09aa\u09be\u0987\u09a8","name":"Malaysia - Philippines","name:right:hi":"\u092b\u093c\u093f\u0932\u0940\u092a\u0940\u0928\u094d\u0938","name:right:bg":"\u0424\u0438\u043b\u0438\u043f\u0438\u043d\u0438","name:right:be":"\u0424\u0456\u043b\u0456\u043f\u0456\u043d\u044b","name:left:zh":"\u9a6c\u6765\u897f\u4e9a","name:right:za":"Feihlizbinh","name:right:br":"Filipinez","name:right:bs":"Filipini","name:right:zh":"\u83f2\u5f8b\u8cd3","name:left:za":"Majlaizsihya","name:right:nn":"Filippinane","name:left:uz":"Malayziya","name:right:nl":"Filipijnen","name:right:wa":"Filipenes","name:left:sk":"Malajzia","name:left:nv":"Mal\u00e9\u00edzha","name:left:ur":"\u0645\u0644\u0627\u0626\u06cc\u0634\u06cc\u0627","name:right:wo":"Filipiin","name:right:ne":"\u092b\u093f\u0932\u093f\u092a\u093f\u0928\u094d\u0938","id:right":-443174,"name:left:uk":"\u041c\u0430\u043b\u0430\u0439\u0437\u0456\u044f","name:left:nl":"Maleisi\u00eb","name:right:ps":"\u0641\u0644\u06d0\u067e\u064a\u0646","name:right:fa":"\u0641\u06cc\u0644\u06cc\u067e\u06cc\u0646","name:right:nv":"K\u00e9yah Da\u0144l\u00edinii","name:right:fo":"Filipsoyggjar","name:left:ne":"\u092e\u0932\u0947\u0936\u093f\u092f\u093e","name:left:ug":"\u0645\u0627\u0644\u0627\u064a\u0633\u0649\u064a\u0627","name:left:na":"Maraidja","name:left:eo":"Malajzio","name:right:kn":"\u0cab\u0cbf\u0cb2\u0cbf\u0caa\u0ccd\u0caa\u0cc0\u0ca8\u0ccd\u0cb8\u0ccd","name:left:el":"\u039c\u03b1\u03bb\u03b1\u03b9\u03c3\u03af\u03b1","kind_detail":"2","name:right:tt":"\u0424\u0438\u043b\u0438\u043f\u043f\u0438\u043d\u043d\u0430\u0440","name:left:hr":"Malezija","name:left:es":"Malasia","name:left:tr":"Malezya","name:left:et":"Malaisia","name:right:gu":"\u0aab\u0ac0\u0ab2\u0ac0\u0aaa\u0abe\u0a88\u0aa8\u0acd\u0ab8","name:right:zh-min-nan":"Hui-li\u030dp-pin","name:right:gv":"Ny h-Ellanyn Philippeenagh","name:right:pt":"Filipinas","name:left:mk":"\u041c\u0430\u043b\u0435\u0437\u0438\u0458\u0430","name:left:mi":"Mar\u0113hia","name:left:tt":"\u041c\u0430\u043b\u0430\u0439\u0437\u0438\u044f","name:left:mn":"\u041c\u0430\u043b\u0430\u0439\u0437","name:right:oc":"Filipinas","name:left:ml":"\u0d2e\u0d32\u0d47\u0d37\u0d4d\u0d2f","name:left:th":"\u0e1b\u0e23\u0e30\u0e40\u0e17\u0e28\u0e21\u0e32\u0e40\u0e25\u0e40\u0e0b\u0e35\u0e22","name:right:pa":"\u0a2b\u0a3c\u0a3f\u0a32\u0a2a\u0a40\u0a28\u0a1c\u0a3c","name:left:tk":"Mala\u00fdzi\u00fda","name:left:tl":"Malasya","name:right:ko":"\ud544\ub9ac\ud540","name:left:mt":"Mala\u017cja","name:left:sr":"\u041c\u0430\u043b\u0435\u0437\u0438\u0458\u0430","name:right:gl":"Filipinas","name:left:my":"\u1019\u101c\u1031\u1038\u101b\u103e\u102c\u1038\u1014\u102d\u102f\u1004\u103a\u1004\u1036","name:right:gn":"Filipina","name:right:pl":"Filipiny","name:left:te":"\u0c2e\u0c32\u0c47\u0c37\u0c3f\u0c2f\u0c3e","osm_relation":true,"name:left:tg":"\u041c\u0430\u043b\u0430\u0439\u0437\u0438\u044f","name:right:tl":"Pilipinas","name:left:mr":"\u092e\u0932\u0947\u0936\u093f\u092f\u093e","name:left:dz":"\u0f58\u0f0b\u0f63\u0f7a\u0f0b\u0f64\u0f72\u0f0b\u0f61\u0f0b","name:right:ga":"Na hOile\u00e1in Fhilip\u00edneacha","name:left:dv":"\u0789\u07ac\u078d\u07ad\u079d\u07a8\u0794\u07a7","name:right:ug":"\u0641\u0649\u0644\u0649\u067e\u067e\u0649\u0646","name:left:hi":"\u092e\u0932\u0947\u0936\u093f\u092f\u093e","name:right:lb":"Philippinen","name:right:no":"Filippinene","name:right:uk":"\u0424\u0456\u043b\u0456\u043f\u043f\u0456\u043d\u0438","name:left:he":"\u05de\u05dc\u05d6\u05d9\u05d4","name:right:tk":"Filippinler","name:right:li":"Filipiene","name:right:lt":"Filipinai","name:right:ur":"\u0641\u0644\u067e\u0627\u0626\u0646","name:right:lv":"Filip\u012bnas","name:left:hy":"\u0544\u0561\u056c\u0561\u0566\u056b\u0561","name:left:ta":"\u0bae\u0bb2\u0bc7\u0b9a\u0bbf\u0baf\u0bbe","name:left:ht":"Malezi","name:left:hu":"Malajzia","name:left:wo":"Maleesi","name:left:ga":"An Mhalaeisia","name:right:tg":"\u0424\u0438\u043b\u0438\u043f\u043f\u0438\u043d","name:left:gd":"Malaidhsia","sort_rank":262,"name:right:gd":"Na h-Eileanan Filipineach","name:left:gl":"Malaisia","name:left:gu":"\u0aae\u0ab2\u0ac7\u0ab6\u0abf\u0aaf\u0abe","name:right:os":"\u0424\u0438\u043b\u0438\u043f\u043f\u0438\u043d\u0442\u00e6","name:left:gv":"Yn Valaysia","official_name:right":"Rep\u00fablika ng Pilipinas","name:right:or":"\u0b2b\u0b3f\u0b32\u0b3f\u0b2a\u0b3e\u0b07\u0b28\u0b4d\u0b38","name:right:ku":"Fil\u00eep\u00een","name:left":"Malaysia","name:right:es":"Filipinas","name:left:an":"Malaisia","name:left:ja":"\u30de\u30ec\u30fc\u30b7\u30a2","name:right:mn":"\u0424\u0438\u043b\u0438\u043f\u043f\u0438\u043d","name:right:eu":"Filipinak","name:right:et":"Filipiinid","name:right:vo":"Filipu\u00e4ns","name:left:os":"\u041c\u0430\u043b\u0430\u0439\u0437\u0438","name:left:or":"\u0b2e\u0b3e\u0b32\u0b47\u0b38\u0b3f\u0b06","name:right:mg":"Filipina","name:right:my":"\u1016\u102d\u101c\u1005\u103a\u1015\u102d\u102f\u1004\u103a\u1014\u102d\u102f\u1004\u103a\u1004\u1036","name:right:uz":"Filippin","name:left:vo":"Malaysiy\u00e4n","name:left:oc":"Mal\u00e0isia","name:right:na":"Eben Piripin","name:right:eo":"Filipinoj","name:right:el":"\u03a6\u03b9\u03bb\u03b9\u03c0\u03c0\u03af\u03bd\u03b5\u03c2","kind":"country","name:left:fa":"\u0645\u0627\u0644\u0632\u06cc","name:left:fo":"Maleisia","name:right:sk":"Filip\u00edny","name:left:fi":"Malesia","name:right:te":"\u0c2b\u0c3f\u0c32\u0c3f\u0c2a\u0c4d\u0c2a\u0c40\u0c28\u0c4d\u0c38\u0c4d","name:left:fr":"Malaisie","name:right:sm":"Filipaina","name:right:fy":"Filipinen","name:left:fy":"Maleizje","name:left:bs":"Malezija","name:right:mk":"\u0424\u0438\u043b\u0438\u043f\u0438\u043d\u0438","name:right:ja":"\u30d5\u30a3\u30ea\u30d4\u30f3","name:right:sq":"Filipinet","name:right:ss":"IFiliphayi","name:right:sr":"\u0424\u0438\u043b\u0438\u043f\u0438\u043d\u0438","name:right:su":"Pilipina","name:right:sw":"Ufilipino","name:right:sv":"Filippinerna","name:right:si":"\u0db4\u0dd2\u0dbd\u0dd2\u0db4\u0dd3\u0db1\u0dba","name:right:sh":"Filipini","name:right:ms":"Filipina","name:left:ba":"\u041c\u0430\u043b\u0430\u0439\u0437\u0438\u044f","name:right:jv":"Filipina","name:left:bg":"\u041c\u0430\u043b\u0430\u0439\u0437\u0438\u044f","name:right:so":"Filibiin","name:left:be":"\u041c\u0430\u043b\u0430\u0439\u0437\u0456\u044f","name:right:sa":"\u0915\u0932\u093f\u0902\u0917\u0926\u094d\u0935\u0940\u092a","name:right:sl":"Filipini","name:right:se":"Filippiinnat","name:left:bo":"\u0f58\u0f0b\u0f63\u0f0b\u0f64\u0f72\u0f0b\u0f61\u0f0d","name:right:sg":"Filip\u00eeni","name:right":"Philippines","name:right:ca":"Filipines","name:left:bn":"\u09ae\u09be\u09b2\u09af\u09bc\u09c7\u09b6\u09bf\u09af\u09bc\u09be","name:right:ml":"\u0d2b\u0d3f\u0d32\u0d3f\u0d2a\u0d4d\u0d2a\u0d40\u0d7b\u0d38\u0d4d","name:right:ce":"\u0424\u0438\u043b\u0438\u043f\u043f\u0438\u043d","id":-2108121,"name:right:cy":"Pilipinas","name:left:yi":"\u05de\u05d0\u05dc\u05d9\u05d9\u05d6\u05d9\u05e2","id:left":-2108121,"min_zoom":8.0,"name:right:cs":"Filip\u00edny","name:right:fi":"Filippiinit","name:right:cv":"\u0424\u0438\u043b\u0438\u043f\u043f\u0438\u043d","name:right:ka":"\u10e4\u10d8\u10da\u10d8\u10de\u10d8\u10dc\u10d4\u10d1\u10d8","name:right:it":"Filippine","name:left:io":"Malaizia","name:left:ar":"\u0645\u0627\u0644\u064a\u0632\u064a\u0627","name:left:pl":"Malezja","name:right:kk":"\u0424\u0438\u043b\u0438\u043f\u043f\u0438\u043d\u0434\u0435\u0440","name:right:km":"\u17a0\u17d2\u179c\u17b8\u179b\u17b8\u1796\u17b8\u1793","name:left:az":"Malayziya","name:right:tr":"Filipinler","name:right:rw":"Filipine","name:left:pt":"Mal\u00e1sia","name:left:af":"Maleisi\u00eb","name:right:th":"\u0e1b\u0e23\u0e30\u0e40\u0e17\u0e28\u0e1f\u0e34\u0e25\u0e34\u0e1b\u0e1b\u0e34\u0e19\u0e2a\u0e4c","name:right:kw":"Filipinys","name:right:kv":"\u0424\u0438\u043b\u0438\u043f\u043f\u0438\u043d\u044a\u044f\u0441","name:left:zh-min-nan":"M\u00e1-l\u00e2i-se-a","name:left:am":"\u121b\u120c\u12e2\u12eb","name:left:it":"Malesia","name:left:is":"Malas\u00eda","name:right:ta":"\u0baa\u0bbf\u0bb2\u0bbf\u0baa\u0bcd\u0baa\u0bc0\u0ba9\u0bcd\u0b9a\u0bc1","name:right:io":"Filipini","name:right:de":"Philippinen","name:right:da":"Filippinerne","maritime_boundary":true,"name:left:zh-yue":"\u99ac\u4f86\u897f\u4e9e","name:left:pa":"\u0a2e\u0a32\u0a47\u0a38\u0a3c\u0a40\u0a06","name:left:rw":"Malesiya"},"arcs":[0]},{"type":"LineString","properties":{"name:pt":"Mal\u00e1sia","name:ka":"\u10db\u10d0\u10da\u10d0\u10d8\u10d6\u10d8\u10d0","name:ko":"\ub9d0\ub808\uc774\uc2dc\uc544","name:cv":"\u041c\u0430\u043b\u0430\u0439\u0437\u0438","name:km":"\u1798\u17c9\u17b6\u17a1\u17c1\u179f\u17ca\u17b8","name:cs":"Malajsie","name:tt":"\u041c\u0430\u043b\u0430\u0439\u0437\u0438\u044f","name:kw":"Malaysi","name:kv":"\u041c\u0430\u043b\u0430\u0439\u0437\u0438\u044f","name:ku":"Malezya","name:az":"Malayziya","name:tl":"Malasya","name:zh-min-nan":"M\u00e1-l\u00e2i-se-a","name:os":"\u041c\u0430\u043b\u0430\u0439\u0437\u0438","name:or":"\u0b2e\u0b3e\u0b32\u0b47\u0b38\u0b3f\u0b06","name:ce":"\u041c\u0430\u043b\u0430\u0439\u0437\u0438","name:ta":"\u0bae\u0bb2\u0bc7\u0b9a\u0bbf\u0baf\u0bbe","name:tg":"\u041c\u0430\u043b\u0430\u0439\u0437\u0438\u044f","name:ca":"Mal\u00e0isia","name:te":"\u0c2e\u0c32\u0c47\u0c37\u0c3f\u0c2f\u0c3e","name:li":"Maleisi\u00eb","name:fo":"Maleisia","sort_rank":262,"name:hr":"Malezija","name:ba":"\u041c\u0430\u043b\u0430\u0439\u0437\u0438\u044f","name:dz":"\u0f58\u0f0b\u0f63\u0f7a\u0f0b\u0f64\u0f72\u0f0b\u0f61\u0f0b","source":"openstreetmap.org","name:nv":"Mal\u00e9\u00edzha","name:kn":"\u0cae\u0cb2\u0cc7\u0cb6\u0cbf\u0caf","name:dv":"\u0789\u07ac\u078d\u07ad\u079d\u07a8\u0794\u07a7","name:za":"Majlaizsihya","name:ar":"\u0645\u0627\u0644\u064a\u0632\u064a\u0627","name:lv":"Malaizija","name:lt":"Malaizija","name:uz":"Malayziya","name:kk":"\u041c\u0430\u043b\u0430\u0439\u0437\u0438\u044f","name:he":"\u05de\u05dc\u05d6\u05d9\u05d4","name:eo":"Malajzio","name:ur":"\u0645\u0644\u0627\u0626\u06cc\u0634\u06cc\u0627","name:la":"Malaesia","name:uk":"\u041c\u0430\u043b\u0430\u0439\u0437\u0456\u044f","name:hy":"\u0544\u0561\u056c\u0561\u0566\u056b\u0561","name:ug":"\u0645\u0627\u0644\u0627\u064a\u0633\u0649\u064a\u0627","name:hu":"Malajzia","name:qu":"Malasya","name:lo":"\u0e9b\u0eb0\u0ec0\u0e97\u0e94\u0ea1\u0eb2\u0ec0\u0ea5\u0ec0\u0e8a\u0e8d","name:oc":"Mal\u00e0isia","name:el":"\u039c\u03b1\u03bb\u03b1\u03b9\u03c3\u03af\u03b1","kind":"country","name":"Malaysia","name:tk":"Mala\u00fdzi\u00fda","min_zoom":8.0,"name:th":"\u0e1b\u0e23\u0e30\u0e40\u0e17\u0e28\u0e21\u0e32\u0e40\u0e25\u0e40\u0e0b\u0e35\u0e22","name:yi":"\u05de\u05d0\u05dc\u05d9\u05d9\u05d6\u05d9\u05e2","name:et":"Malaisia","name:es":"Malasia","name:mt":"Mala\u017cja","name:ro":"Malaezia","name:mr":"\u092e\u0932\u0947\u0936\u093f\u092f\u093e","name:pa":"\u0a2e\u0a32\u0a47\u0a38\u0a3c\u0a40\u0a06","name:my":"\u1019\u101c\u1031\u1038\u101b\u103e\u102c\u1038\u1014\u102d\u102f\u1004\u103a\u1004\u1036","name:io":"Malaizia","name:is":"Malas\u00eda","name:am":"\u121b\u120c\u12e2\u12eb","name:it":"Malesia","name:an":"Malaisia","name:ml":"\u0d2e\u0d32\u0d47\u0d37\u0d4d\u0d2f","name:rw":"Malesiya","name:mi":"Mar\u0113hia","name:pl":"Malezja","name:mk":"\u041c\u0430\u043b\u0435\u0437\u0438\u0458\u0430","name:af":"Maleisi\u00eb","name:fa":"\u0645\u0627\u0644\u0632\u06cc","name:mn":"\u041c\u0430\u043b\u0430\u0439\u0437","name:ss":"IMaleshiya","kind_detail":"2","name:hi":"\u092e\u0932\u0947\u0936\u093f\u092f\u093e","id":-2108121,"name:fr":"Malaisie","name:tr":"Malezya","name:ky":"\u041c\u0430\u043b\u0430\u0439\u0437\u0438\u044f","name:zh-yue":"\u99ac\u4f86\u897f\u4e9e","name:fy":"Maleizje","name:vo":"Malaysiy\u00e4n","name:zh":"\u9a6c\u6765\u897f\u4e9a","name:so":"Malaysiya","name:sl":"Malezija","name:nl":"Maleisi\u00eb","name:ja":"\u30de\u30ec\u30fc\u30b7\u30a2","name:sh":"Malezija","name:sg":"Malez\u00efi","name:na":"Maraidja","name:se":"Malesia","name:ne":"\u092e\u0932\u0947\u0936\u093f\u092f\u093e","name:sa":"\u092e\u0932\u092f\u0947\u0936\u093f\u092f\u093e","name:bs":"Malezija","name:bn":"\u09ae\u09be\u09b2\u09af\u09bc\u09c7\u09b6\u09bf\u09af\u09bc\u09be","name:bo":"\u0f58\u0f0b\u0f63\u0f0b\u0f64\u0f72\u0f0b\u0f61\u0f0d","name:sk":"Malajzia","name:ru":"\u041c\u0430\u043b\u0430\u0439\u0437\u0438\u044f","name:be":"\u041c\u0430\u043b\u0430\u0439\u0437\u0456\u044f","name:bg":"\u041c\u0430\u043b\u0430\u0439\u0437\u0438\u044f","name:wo":"Maleesi","name:sr":"\u041c\u0430\u043b\u0435\u0437\u0438\u0458\u0430","osm_relation":true,"name:sq":"Malajzia","name:ga":"An Mhalaeisia","name:gd":"Malaidhsia","name:ht":"Malezi","name:gl":"Malaisia","maritime_boundary":true,"name:gv":"Yn Valaysia","name:gu":"\u0aae\u0ab2\u0ac7\u0ab6\u0abf\u0aaf\u0abe","name:fi":"Malesia"},"arcs":[1]},{"type":"LineString","properties":{"name:cy":"Pilipinas","name:ko":"\ud544\ub9ac\ud540","name:cv":"\u0424\u0438\u043b\u0438\u043f\u043f\u0438\u043d","name:km":"\u17a0\u17d2\u179c\u17b8\u179b\u17b8\u1796\u17b8\u1793","name:cs":"Filip\u00edny","name:tt":"\u0424\u0438\u043b\u0438\u043f\u043f\u0438\u043d\u043d\u0430\u0440","name:kw":"Filipinys","name:kv":"\u0424\u0438\u043b\u0438\u043f\u043f\u0438\u043d\u044a\u044f\u0441","name:ku":"Fil\u00eep\u00een","name:tl":"Pilipinas","name:ce":"\u0424\u0438\u043b\u0438\u043f\u043f\u0438\u043d","name:ta":"\u0baa\u0bbf\u0bb2\u0bbf\u0baa\u0bcd\u0baa\u0bc0\u0ba9\u0bcd\u0b9a\u0bc1","name:tg":"\u0424\u0438\u043b\u0438\u043f\u043f\u0438\u043d","name:ca":"Filipines","name:te":"\u0c2b\u0c3f\u0c32\u0c3f\u0c2a\u0c4d\u0c2a\u0c40\u0c28\u0c4d\u0c38\u0c4d","name:ka":"\u10e4\u10d8\u10da\u10d8\u10de\u10d8\u10dc\u10d4\u10d1\u10d8","name:qu":"Philipinakuna","name:da":"Filippinerne","name:de":"Philippinen","source":"openstreetmap.org","name:kn":"\u0cab\u0cbf\u0cb2\u0cbf\u0caa\u0ccd\u0caa\u0cc0\u0ca8\u0ccd\u0cb8\u0ccd","name:dv":"\u078a\u07a8\u078d\u07a8\u0795\u07a9\u0782\u07b0\u0790\u07b0","name:lv":"Filip\u012bnas","name:lt":"Filipinai","name:uz":"Filippin","name:kk":"\u0424\u0438\u043b\u0438\u043f\u043f\u0438\u043d\u0434\u0435\u0440","name:ur":"\u0641\u0644\u067e\u0627\u0626\u0646","name:lb":"Philippinen","name:la":"Philippinae","name:uk":"\u0424\u0456\u043b\u0456\u043f\u043f\u0456\u043d\u0438","name:ug":"\u0641\u0649\u0644\u0649\u067e\u067e\u0649\u0646","name:li":"Filipiene","name:el":"\u03a6\u03b9\u03bb\u03b9\u03c0\u03c0\u03af\u03bd\u03b5\u03c2","name:eo":"Filipinoj","name":"Philippines","name:tk":"Filippinler","name:th":"\u0e1b\u0e23\u0e30\u0e40\u0e17\u0e28\u0e1f\u0e34\u0e25\u0e34\u0e1b\u0e1b\u0e34\u0e19\u0e2a\u0e4c","name:eu":"Filipinak","name:et":"Filipiinid","name:es":"Filipinas","name:ia":"Philippinas","name:az":"Filippin","name:ie":"Filipines","name:id":"Filipina","name:ar":"\u0627\u0644\u0641\u0644\u0628\u064a\u0646","name:io":"Filipini","name:is":"Filippseyjar","name:am":"\u134a\u120a\u1352\u1295\u1235","name:it":"Filippine","name:an":"Filipinas","name:ru":"\u0424\u0438\u043b\u0438\u043f\u043f\u0438\u043d\u044b","name:rw":"Filipine","name:af":"Filippyne","kind_detail":"2","name:za":"Feihlizbinh","name:zh-yue":"\u83f2\u5f8b\u8cd3","name:zh":"\u83f2\u5f8b\u8cd3","name:so":"Filibiin","name:sm":"Filipaina","name:sl":"Filipini","name:sk":"Filip\u00edny","name:ja":"\u30d5\u30a3\u30ea\u30d4\u30f3","name:si":"\u0db4\u0dd2\u0dbd\u0dd2\u0db4\u0dd3\u0db1\u0dba","name:sh":"Filipini","name:sg":"Filip\u00eeni","name:se":"Filippiinnat","name:br":"Filipinez","name:bs":"Filipini","name:bn":"\u09ab\u09bf\u09b2\u09bf\u09aa\u09be\u0987\u09a8","name:bo":"\u0f67\u0fa5\u0f72\u0f0b\u0f63\u0f72\u0f0b\u0f54\u0f72\u0f53\u0f0d","name:sa":"\u0915\u0932\u093f\u0902\u0917\u0926\u094d\u0935\u0940\u092a","name:sw":"Ufilipino","name:be":"\u0424\u0456\u043b\u0456\u043f\u0456\u043d\u044b","name:su":"Pilipina","name:bg":"\u0424\u0438\u043b\u0438\u043f\u0438\u043d\u0438","name:ss":"IFiliphayi","name:sr":"\u0424\u0438\u043b\u0438\u043f\u0438\u043d\u0438","name:sq":"Filipinet","name:jv":"Filipina","name:pt":"Filipinas","name:ps":"\u0641\u0644\u06d0\u067e\u064a\u0646","name:oc":"Filipinas","min_zoom":8.0,"name:ro":"Filipine","name:zh-min-nan":"Hui-li\u030dp-pin","name:os":"\u0424\u0438\u043b\u0438\u043f\u043f\u0438\u043d\u0442\u00e6","name:or":"\u0b2b\u0b3f\u0b32\u0b3f\u0b2a\u0b3e\u0b07\u0b28\u0b4d\u0b38","name:pl":"Filipiny","sort_rank":262,"osm_relation":true,"name:pa":"\u0a2b\u0a3c\u0a3f\u0a32\u0a2a\u0a40\u0a28\u0a1c\u0a3c","name:tr":"Filipinler","name:hi":"\u092b\u093c\u093f\u0932\u0940\u092a\u0940\u0928\u094d\u0938","name:sv":"Filippinerna","name:he":"\u05d4\u05e4\u05d9\u05dc\u05d9\u05e4\u05d9\u05e0\u05d9\u05dd","name:hy":"\u0556\u056b\u056c\u056b\u057a\u056b\u0576\u0576\u0565\u0580","name:ht":"Filipin","name:hu":"F\u00fcl\u00f6p-szigetek","name:hr":"Filipini","kind":"country","name:yi":"\u05e4\u05d9\u05dc\u05d9\u05e4\u05d9\u05e0\u05e2\u05df","name:yo":"Filip\u00edn\u00ec","name:ms":"Filipina","name:mr":"\u092b\u093f\u0932\u093f\u092a\u093e\u0908\u0928\u094d\u0938","name:my":"\u1016\u102d\u101c\u1005\u103a\u1015\u102d\u102f\u1004\u103a\u1014\u102d\u102f\u1004\u103a\u1004\u1036","official_name":"Rep\u00fablika ng Pilipinas","name:mg":"Filipina","name:ml":"\u0d2b\u0d3f\u0d32\u0d3f\u0d2a\u0d4d\u0d2a\u0d40\u0d7b\u0d38\u0d4d","name:mn":"\u0424\u0438\u043b\u0438\u043f\u043f\u0438\u043d","id":-443174,"name:mk":"\u0424\u0438\u043b\u0438\u043f\u0438\u043d\u0438","name:vo":"Filipu\u00e4ns","name:fa":"\u0641\u06cc\u0644\u06cc\u067e\u06cc\u0646","name:fi":"Filippiinit","name:fo":"Filipsoyggjar","name:fy":"Filipinen","name:nl":"Filipijnen","name:nn":"Filippinane","name:no":"Filippinene","name:na":"Eben Piripin","name:ne":"\u092b\u093f\u0932\u093f\u092a\u093f\u0928\u094d\u0938","name:wa":"Filipenes","name:wo":"Filipiin","name:nv":"K\u00e9yah Da\u0144l\u00edinii","name:ga":"Na hOile\u00e1in Fhilip\u00edneacha","name:gd":"Na h-Eileanan Filipineach","name:gn":"Filipina","name:gl":"Filipinas","maritime_boundary":true,"name:gv":"Ny h-Ellanyn Philippeenagh","name:gu":"\u0aab\u0ac0\u0ab2\u0ac0\u0aaa\u0abe\u0a88\u0aa8\u0acd\u0ab8"},"arcs":[2]},{"type":"LineString","properties":{"kind":"region","name":"Sabah","name:lt":"Sabahas","sort_rank":256,"kind_detail":"4","min_zoom":8.0,"source":"openstreetmap.org","maritime_boundary":true,"name:zh":"\u6c99\u5df4\u5dde","id":-3879783,"osm_relation":true,"name:ja":"\u30b5\u30d0"},"arcs":[3]},{"type":"LineString","properties":{"kind":"region","name":"Tawi Tawi","sort_rank":256,"kind_detail":"4","min_zoom":8.0,"source":"openstreetmap.org","maritime_boundary":true,"id":-1513298,"osm_relation":true,"name:ja":"\u30bf\u30a6\u30a4\u30bf\u30a6\u30a4"},"arcs":[4]}]},"roads":{"type":"GeometryCollection","geometries":[{"type":"MultiLineString","properties":{"sort_rank":380,"kind_detail":"primary","min_zoom":8.0,"kind":"major_road","source":"openstreetmap.org"},"arcs":[[20],[21],[22],[23],[24],[25],[26],[27],[28],[29],[30],[31],[32],[33],[34],[35],[36],[37],[38],[39],[40],[41],[42],[43],[44],[45],[46],[47],[48],[49],[50],[51],[52],[53],[54],[55],[56],[57],[58],[59],[60],[61],[62],[63],[64],[65],[66],[67],[68],[69],[70],[71],[72],[73],[74],[75],[76],[77],[78],[79],[80],[81],[82],[83],[84],[85],[86],[87],[88],[89],[90],[91],[92],[93],[94],[95],[96],[97],[98],[99],[100],[101],[102],[103],[104],[105],[106],[107],[108],[109],[110],[111],[112],[113],[114],[115],[116],[117],[118],[119],[120],[121],[122],[123],[124],[125],[126],[127],[128],[129],[130],[131],[132],[133],[134],[135],[136],[137],[138],[139],[140],[141],[142],[143],[144],[145],[146],[147],[148],[149],[150],[151],[152],[153],[154],[155],[156],[157],[158],[159],[160],[161],[162]]},{"type":"LineString","properties":{"kind":"major_road","name:en":"Sri Labuk Roundabout","network":"my:federal","sort_rank":381,"kind_detail":"trunk","source":"openstreetmap.org","min_zoom":8.0,"shield_text":"1","ref":"22","id":165487098},"arcs":[163]},{"type":"MultiLineString","properties":{"source":"openstreetmap.org","kind":"major_road","network":"my:federal","sort_rank":381,"kind_detail":"trunk","min_zoom":8.0,"shield_text":"1"},"arcs":[[164],[165],[166]]},{"type":"LineString","properties":{"kind":"major_road","name:en":"Sibuga Roundabout","network":"my:federal","sort_rank":381,"kind_detail":"trunk","source":"openstreetmap.org","min_zoom":8.0,"shield_text":"1","ref":"22","id":165672735},"arcs":[167]},{"type":"LineString","properties":{"kind":"major_road","network":"AsianHighway","sort_rank":381,"kind_detail":"trunk","is_bicycle_related":true,"source":"openstreetmap.org","min_zoom":8.0,"shield_text":"150","ref":"13"},"arcs":[168]},{"type":"LineString","properties":{"source":"openstreetmap.org","kind":"major_road","name:en":"Pak Tak Roundabout","sort_rank":380,"kind_detail":"primary","min_zoom":8.0,"id":83673809},"arcs":[169]},{"type":"LineString","properties":{"kind":"major_road","network":"my:federal","sort_rank":381,"kind_detail":"trunk","is_bicycle_related":true,"source":"openstreetmap.org","min_zoom":8.0,"shield_text":"1","ref":"22","id":166188839},"arcs":[170]},{"type":"LineString","properties":{"kind":"major_road","name:en":"Rimba Roundabout","network":"my:federal","sort_rank":381,"kind_detail":"trunk","source":"openstreetmap.org","min_zoom":8.0,"shield_text":"1","ref":"22","id":83672618},"arcs":[171]},{"type":"MultiLineString","properties":{"kind":"major_road","network":"AsianHighway","sort_rank":381,"kind_detail":"trunk","is_bicycle_related":true,"source":"openstreetmap.org","min_zoom":8.0,"shield_text":"150","ref":"22"},"arcs":[[172],[173],[174],[175],[176],[177],[178],[179],[180],[181],[182],[183],[184],[185],[186]]},{"type":"MultiLineString","properties":{"kind":"major_road","network":"my:federal","sort_rank":381,"kind_detail":"trunk","source":"openstreetmap.org","min_zoom":8.0,"shield_text":"1","ref":"22"},"arcs":[[187],[188],[189],[190],[191],[192],[193],[194],[195],[196],[197],[198],[199],[200],[201],[202],[203],[204],[205],[206],[207],[208],[209],[210],[211],[212],[213],[214],[215],[216],[217],[218],[219],[220],[221],[222],[223],[224],[225],[226],[227]]},{"type":"MultiLineString","properties":{"source":"openstreetmap.org","kind":"major_road","sort_rank":380,"kind_detail":"primary","ref":"AH150","min_zoom":8.0},"arcs":[[228],[229],[230],[231],[232]]}]},"earth":{"type":"GeometryCollection","geometries":[{"type":"MultiPolygon","properties":{"sort_rank":10,"source":"naturalearthdata.com","min_zoom":0.0,"kind":"earth","area":23192662320},"arcs":[[[233]],[[234]]]}]},"landuse":{"type":"GeometryCollection","geometries":[{"type":"Polygon","properties":{"source":"openstreetmap.org","kind":"park","area":2307490048,"tier":2,"id":37121646,"min_zoom":4.0,"sort_rank":24},"arcs":[[235]]},{"type":"MultiPolygon","properties":{"kind":"park","area":779571008,"sort_rank":24,"source":"openstreetmap.org","min_zoom":6.0,"tier":2,"id":-7320366,"osm_relation":true},"arcs":[[[236]],[[237]]]},{"type":"Polygon","properties":{"source":"openstreetmap.org","kind":"park","area":484396992,"tier":2,"id":177600556,"min_zoom":6.0,"sort_rank":24},"arcs":[[238]]}]}},"type":"Topology","transform":{"translate":[116.71875,5.6159858192],"scale":[0.0003433228,0.000341231]},"arcs":[[[3857,1602],[-468,279],[11,728],[-732,600],[-743,563],[101,324]],[[4096,1478],[-239,124]],[[3857,1602],[239,-123]],[[4096,1478],[-707,403],[11,728],[-732,600],[-743,563],[101,324]],[[4096,2276],[-388,54],[-70,-24],[-2,-351],[460,-357]],[[4096,234],[-25,36],[-29,13],[-30,-6],[-28,-12],[-22,-5],[-27,10],[-20,25],[-24,5],[-49,-12],[-116,-54],[-45,-14],[-35,-7],[-16,-7],[-14,3],[-24,20],[-87,227],[-13,22],[-27,16],[6,36],[31,36],[49,16],[181,-16],[49,16],[54,-20],[68,4],[65,18],[43,26],[85,116],[0,-492]],[[3645,384],[98,-5],[14,25],[26,23],[9,39],[-7,4],[-17,-1],[-2,-2],[-1,13],[-11,5],[-17,-4],[-11,5],[-3,-10],[11,-8],[-8,-5],[-4,6],[-5,11],[-2,18],[1,6],[-11,-2],[-9,-9],[-5,-11],[-9,-7],[4,9],[14,16],[-20,13],[-7,-11],[-6,13],[-20,-10],[-6,-9],[-9,-3],[1,2],[4,11],[21,14],[-68,1],[-18,0],[-17,-5],[-34,-4],[-34,0],[5,-15],[50,-12],[54,-4],[19,-49],[30,-48]],[[4096,4096],[0,-3364],[-1,13],[-17,15],[-121,165],[-15,68],[4,60],[-7,35],[-51,27],[-3,26],[2,32],[-7,29],[-99,102],[-41,11],[-21,-9],[-12,-14],[-52,-27],[-95,-123],[-79,-56],[-40,-37],[-18,-37],[-29,-20],[-138,-26],[-52,-4],[-42,7],[-34,10],[-30,2],[-31,-19],[25,-73],[-18,-33],[-51,-6],[-144,16],[-195,-24],[-206,-1],[-75,-19],[-167,-72],[-51,-10],[70,77],[369,125],[102,62],[42,41],[17,48],[-19,72],[-41,18],[-42,11],[-19,48],[8,36],[22,12],[27,9],[24,25],[13,36],[-1,24],[-8,22],[-4,29],[-10,16],[-42,19],[-47,114],[-63,74],[-15,47],[26,50],[84,76],[53,35],[54,18],[96,-18],[44,6],[19,43],[27,194],[-30,78],[13,27],[21,27],[11,27],[-6,20],[-26,51],[-10,27],[-4,33],[0,27],[-3,22],[-13,20],[-18,14],[-17,2],[-14,-10],[-11,-26],[-20,0],[-29,64],[-31,46],[-70,81],[-28,15],[-31,-5],[-41,-21],[-38,6],[-28,14],[-43,40],[-12,5],[-38,10],[-10,5],[-2,14],[3,19],[7,13],[12,-4],[-68,68],[-12,2],[-2,80],[-9,45],[-24,0],[-46,-55],[-70,-116],[-32,-33],[-47,-11],[-48,16],[-50,37],[-73,67],[-63,73],[-39,34],[-45,15],[-118,-4],[-38,22],[-33,62],[-12,47],[-8,182],[-17,53],[-104,138],[-17,49],[-6,60],[13,51],[40,22],[13,29],[19,141],[-3,50],[-11,23],[-17,14],[-151,92],[-10,11],[-23,6],[-74,32],[-23,13],[-19,2],[-44,-38],[-26,-15],[-22,5],[-33,12],[-35,9],[-31,-6],[-11,-20],[-6,-33],[6,-31],[22,-14],[12,-10],[-8,-21],[-19,-21],[-25,-10],[-36,7],[-27,10],[-23,-3],[-24,-34],[-3,-62],[65,-128],[18,-61],[-16,-43],[-105,-108],[-40,-80],[-21,-16],[-19,-6],[-14,-12],[-11,-102],[-19,-36],[-95,-68],[-130,-125],[-39,-17],[-30,-23],[-35,-52],[-45,-55],[-61,-30],[-118,29],[-16,102],[41,127],[53,102],[97,140],[31,77],[11,115],[-18,61],[-41,26],[-46,16],[-34,29],[1,18],[19,91],[14,12],[32,-10],[54,-31],[-40,211],[-18,33],[-120,78],[-18,40],[3904,0]],[[3790,1459],[18,14],[-12,22],[-32,-22],[-16,-10],[20,-11],[22,7]],[[4048,1610],[-1,5],[-1,0],[0,2],[-6,-3],[3,-4],[2,-1],[3,1]],[[3899,1635],[4,10],[-11,-6],[7,-4]],[[3964,1974],[-23,3],[-16,-26],[3,-2],[36,25]],[[3756,2026],[-2,7],[-7,-4],[3,-6],[4,0],[2,3]],[[2185,3010],[110,89],[12,90],[-49,92],[-73,91],[-48,-29],[-119,-16],[-34,-35],[11,-40],[104,-5],[26,-26],[-13,-48],[-34,-27],[-46,-12],[-148,-7],[-31,-10],[-26,-21],[-7,-26],[10,-25],[27,-21],[74,-25],[89,-13],[90,2],[75,22]],[[2762,961],[36,-9],[21,44],[33,11],[29,34],[6,6],[20,24],[9,22],[-7,19],[-19,18],[-4,0],[-5,1],[-5,4],[-6,23],[-5,9],[-8,-5],[-21,-11],[-24,-5],[-4,-12],[18,-17],[2,-13],[-7,-18],[6,-21],[-4,-47],[-56,-32],[-5,-25]],[[0,3982],[0,114],[90,0],[-9,-9],[-16,-36],[-32,-47],[-12,-10],[-20,-10],[-1,-2]],[[4096,234],[-25,36],[-29,13],[-30,-6],[-28,-12],[-22,-5],[-27,10],[-20,25],[-24,5],[-49,-12],[-116,-54],[-45,-14],[-35,-7],[-16,-7],[-14,3],[-24,20],[-87,227],[-13,22],[-27,16],[6,36],[31,36],[49,16],[181,-16],[49,16],[54,-20],[68,4],[65,18],[43,26],[85,116]],[[4096,732],[-1,13],[-17,15],[-121,165],[-15,68],[4,60],[-7,35],[-51,27],[-3,26],[2,32],[-7,29],[-99,102],[-41,11],[-21,-9],[-12,-14],[-52,-27],[-95,-123],[-79,-56],[-40,-37],[-18,-37],[-29,-20],[-138,-26],[-52,-4],[-42,7],[-34,10],[-30,2],[-31,-19],[25,-73],[-18,-33],[-51,-6],[-144,16],[-195,-24],[-206,-1],[-75,-19],[-167,-72],[-51,-10],[70,77],[369,125],[102,62],[42,41],[17,48],[-19,72],[-41,18],[-42,11],[-19,48],[8,36],[22,12],[27,9],[24,25],[13,36],[-1,24],[-8,22],[-4,29],[-10,16],[-42,19],[-47,114],[-63,74],[-15,47],[26,50],[84,76],[53,35],[54,18],[96,-18],[44,6],[19,43],[27,194],[-30,78],[13,27],[21,27],[11,27],[-6,20],[-26,51],[-10,27],[-4,33],[0,27],[-3,22],[-13,20],[-18,14],[-17,2],[-14,-10],[-11,-26],[-20,0],[-29,64],[-31,46],[-70,81],[-28,15],[-31,-5],[-41,-21],[-38,6],[-28,14],[-43,40],[-12,5],[-38,10],[-10,5],[-2,14],[3,19],[7,13],[12,-4],[-68,68],[-12,2],[-2,80],[-9,45],[-24,0],[-46,-55],[-70,-116],[-32,-33],[-47,-11],[-48,16],[-50,37],[-73,67],[-63,73],[-39,34],[-45,15],[-118,-4],[-38,22],[-33,62],[-12,47],[-8,182],[-17,53],[-104,138],[-17,49],[-6,60],[13,51],[40,22],[13,29],[19,141],[-3,50],[-11,23],[-17,14],[-151,92],[-10,11],[-23,6],[-74,32],[-23,13],[-19,2],[-44,-38],[-26,-15],[-22,5],[-33,12],[-35,9],[-31,-6],[-11,-20],[-6,-33],[6,-31],[22,-14],[12,-10],[-8,-21],[-19,-21],[-25,-10],[-36,7],[-27,10],[-23,-3],[-24,-34],[-3,-62],[65,-128],[18,-61],[-16,-43],[-105,-108],[-40,-80],[-21,-16],[-19,-6],[-14,-12],[-11,-102],[-19,-36],[-95,-68],[-130,-125],[-39,-17],[-30,-23],[-35,-52],[-45,-55],[-61,-30],[-118,29],[-16,102],[41,127],[53,102],[97,140],[31,77],[11,115],[-18,61],[-41,26],[-46,16],[-34,29],[1,18],[19,91],[14,12],[32,-10],[54,-31],[-40,211],[-18,33],[-120,78],[-18,40]],[[90,4096],[-9,-9],[-16,-36],[-32,-47],[-12,-10],[-20,-10],[-1,-2]],[[2185,3372],[-48,-29],[-119,-16],[-34,-35],[11,-40],[104,-5],[26,-26],[-13,-48],[-34,-27],[-46,-12],[-148,-7],[-31,-10],[-26,-21],[-7,-26],[10,-25],[27,-21],[74,-25],[89,-13],[90,2],[75,22],[110,89],[12,90],[-49,92],[-73,91]],[[0,2871],[20,59],[93,145]],[[0,2596],[10,-9],[113,-9]],[[123,2578],[210,11],[63,166],[17,146],[106,103],[101,51],[43,72],[258,88],[21,37],[66,-8],[25,30],[122,-221],[267,-103],[33,-60],[-21,-110],[44,-76],[85,-80],[141,-47],[167,-211],[14,-82],[157,-64],[17,-99],[-102,-19],[-92,-99],[-84,0],[-38,-52]],[[157,2586],[8,-2]],[[372,3714],[1,0]],[[375,3706],[-1,3]],[[374,3709]],[[374,3709],[-1,2]],[[373,3711]],[[373,3711],[-1,2]],[[373,3714],[17,36]],[[373,3714]],[[373,3713],[2,-7]],[[375,3706]],[[375,3706]],[[375,3706]],[[388,3701],[-13,5]],[[389,3701],[5,30]],[[394,3731],[-5,-30]],[[389,3701]],[[389,3701]],[[394,3731],[-3,19]],[[391,3750],[3,-18]],[[1172,0],[27,31]],[[1199,32],[0,-1]],[[1199,31],[0,1]],[[1398,391],[28,-3],[8,-65],[41,-13],[-16,-70],[43,-39],[-19,-70]],[[2449,815],[-10,-75],[33,-80],[346,-169],[55,-44],[21,-61]],[[3739,786],[5,35]],[[3744,821],[-4,-35]],[[3744,822],[2,33]],[[3746,855],[-2,-33]],[[3746,856],[13,38]],[[3760,894],[-14,-38]],[[3759,895],[7,23]],[[3766,911],[-6,-16]],[[3766,919],[16,38]],[[3782,956],[-15,-37]],[[3795,961],[-13,-4]],[[3869,775],[-35,4]],[[3834,779],[-1,0]],[[3833,779],[-21,3]],[[3813,783],[20,-3]],[[3833,780],[1,0]],[[3834,780],[34,-5]],[[3860,679],[-27,100]],[[3833,779],[0,1]],[[3833,780],[-1,4]],[[3833,784],[1,-4]],[[3834,780],[0,-1]],[[3834,779],[27,-100]],[[3868,647],[-8,31]],[[3860,678],[9,-31]],[[3861,551],[7,95]],[[3869,647],[-8,-96]],[[3862,551],[90,31]],[[3952,581],[-90,-31]],[[3869,776],[24,3]],[[3893,778],[-23,-3]],[[3892,763],[1,15]],[[3894,764],[-1,-2]],[[3894,778],[0,-19]],[[3927,747],[-8,33]],[[3919,780],[-2,0]],[[3917,780],[-23,-2]],[[3894,779],[23,1]],[[3917,780],[2,0]],[[3919,780],[1,0],[8,-32]],[[3973,724],[-27,-9]],[[3946,715],[-1,0]],[[3945,715],[-1,0],[-16,32]],[[3928,747],[17,-32]],[[3945,715],[1,0]],[[3946,715],[26,10]],[[3952,582],[21,26]],[[3973,608],[-21,-26]],[[3959,585],[1,0]],[[3973,609],[15,20]],[[3973,726],[123,-10]],[[3988,628],[-15,-19]],[[4033,721],[-60,4]],[[3988,629],[36,19]],[[3988,628],[0,1]],[[3988,629],[0,-1]],[[4024,647],[-36,-18]],[[4024,648]],[[4024,648],[0,-1]],[[4024,647],[0,1]],[[4024,648],[44,6]],[[4067,653],[-43,-5]],[[4032,715],[1,6]],[[4096,715],[-63,6]],[[4033,721]],[[4033,721]],[[4033,721],[2,-6]],[[4067,653],[2,1]],[[4070,654],[-2,-1]],[[4070,654],[26,10]],[[4070,654]],[[4070,654],[-1,0]],[[4069,654],[1,0]],[[4096,663],[-26,-9]],[[123,2578]],[[123,2578],[0,-1],[0,1]],[[123,2578]],[[347,3782],[1,0],[-1,0]],[[373,3713],[-1,0],[1,1],[0,-1]],[[373,3711]],[[373,3711]],[[373,3711]],[[374,3709]],[[374,3709]],[[374,3709]],[[375,3706]],[[375,3706]],[[375,3706]],[[383,3762]],[[389,3701]],[[389,3701]],[[389,3701]],[[391,3750]],[[394,3731]],[[394,3731]],[[394,3731],[0,1]],[[394,3732],[0,-1]],[[3744,822],[0,-1],[0,1]],[[3746,856],[0,-1],[0,1]],[[3759,895],[1,0]],[[3760,895],[0,-1],[-1,0]],[[3759,894],[0,1]],[[3766,919],[1,0],[0,-1],[-1,0],[0,1]],[[3782,957],[0,-1],[0,1]],[[3860,678],[0,1],[1,-1],[-1,0]],[[3860,678]],[[3861,551],[1,0]],[[3862,551],[0,-1],[-1,0],[0,1]],[[3927,748],[1,0]],[[3928,748],[0,-1]],[[3928,747],[-1,1]],[[3952,582]],[[3952,582],[0,-1],[0,1]],[[3972,725],[1,1],[0,-1],[0,-1],[-1,1]],[[3972,609],[1,0],[0,-1],[-1,0],[0,1]],[[3892,763],[1,-1],[0,-1],[-1,1],[0,1]],[[3633,799],[1,0]],[[4052,709],[1,0],[-1,0]],[[4062,668],[-1,1],[1,0],[0,-1]],[[3915,718],[0,1],[0,-1]],[[3028,416],[36,16],[62,-30],[52,-84],[4,-85],[55,-124],[-21,-109]],[[3895,778],[-2,0],[0,1],[1,0],[1,-1]],[[3028,416],[110,185],[57,9],[128,109],[171,89],[94,-6]],[[3870,775],[-1,0],[0,1],[1,0],[0,-1]],[[0,1085],[203,-164],[1,-68],[42,-35],[-32,-17],[42,-43],[34,-100],[9,-206],[44,-88],[79,-64],[-12,-74],[63,-47],[56,12],[21,-34],[40,-1],[161,58],[66,-39],[12,-33],[194,-16],[24,-113],[86,1],[3,34],[62,-15]],[[1199,32],[-1,1]],[[1198,33],[1,0]],[[1201,31],[-2,1]],[[1200,32],[1,-1]],[[1201,31],[87,0],[107,98],[40,-24],[40,26],[272,-1],[249,111]],[[1997,241],[-1,0]],[[1996,241],[1,0]],[[1999,242],[-1,-1]],[[1998,242],[1,0]],[[1999,242],[207,12],[139,-34],[207,25],[78,52],[168,1],[100,91],[130,27]],[[1199,33],[1,-1],[-1,0],[0,1]],[[1997,242],[1,0],[0,-1]],[[1998,241],[-1,0]],[[1997,241],[0,1]],[[3589,801],[0,1]],[[3589,802],[1,0],[0,-1]],[[3590,801],[-1,0]],[[3591,801],[-1,0]],[[3590,802],[1,-1]],[[3591,801],[42,-2]],[[3634,799],[104,-15]],[[3740,785],[-2,-1]],[[3738,784],[1,1]],[[3740,786],[1,-1]],[[3741,785],[-1,0]],[[3741,785],[67,-1]],[[3811,782],[-3,2]],[[3808,784],[4,-1]],[[3812,783],[1,0],[-1,-1],[-1,0]],[[3811,782],[1,1]],[[3812,783],[2,1]],[[3814,784],[-1,-1]],[[3814,784],[6,0]],[[3820,784],[12,0]],[[3832,784],[-12,0]],[[3833,784],[2,0]],[[3835,784],[-2,0]],[[3835,784],[33,-7]],[[3869,776],[-1,1]],[[3868,777],[1,-1]],[[3870,774],[-1,1]],[[3870,775],[0,-1]],[[3870,774],[22,-11]],[[3915,718],[-23,43]],[[3893,761],[22,-42]],[[4052,709],[-52,16],[-47,-25],[-38,18]],[[3915,718],[35,-17],[50,24],[52,-16]],[[4062,669],[-9,39]],[[4053,709],[9,-40]],[[4068,654],[-7,14]],[[4062,668],[7,-13]],[[3739,786],[1,0],[0,-1]],[[3740,785],[-1,0],[0,1]],[[3832,784],[1,0]],[[3833,784],[-1,0]],[[113,3075],[-113,245]],[[0,3491],[5,8],[0,49],[-5,5]],[[0,3751],[87,68],[91,-35],[84,-9],[63,25],[21,-18]],[[348,3782],[34,-20]],[[384,3761],[7,-9]],[[4096,234],[0,-234],[-4096,0],[0,3982],[1,2],[20,10],[12,10],[32,47],[16,36],[9,9],[102,0],[18,-40],[120,-78],[18,-33],[40,-211],[-54,31],[-32,10],[-14,-12],[-19,-91],[-1,-18],[34,-29],[46,-16],[41,-26],[18,-61],[-11,-115],[-31,-77],[-97,-140],[-53,-102],[-41,-127],[16,-102],[118,-29],[61,30],[45,55],[35,52],[30,23],[39,17],[130,125],[95,68],[19,36],[11,102],[14,12],[19,6],[21,16],[40,80],[105,108],[16,43],[-18,61],[-65,128],[3,62],[24,34],[23,3],[27,-10],[36,-7],[25,10],[19,21],[8,21],[-12,10],[-22,14],[-6,31],[6,33],[11,20],[31,6],[35,-9],[33,-12],[22,-5],[26,15],[44,38],[19,-2],[23,-13],[74,-32],[23,-6],[10,-11],[151,-92],[17,-14],[11,-23],[3,-50],[-19,-141],[-13,-29],[-40,-22],[-13,-51],[6,-60],[17,-49],[104,-138],[17,-53],[8,-182],[12,-47],[33,-62],[38,-22],[118,4],[45,-15],[39,-34],[63,-73],[73,-67],[50,-37],[48,-16],[47,11],[32,33],[70,116],[46,55],[24,0],[9,-45],[2,-80],[12,-2],[68,-68],[-12,4],[-7,-13],[-3,-19],[2,-14],[10,-5],[38,-10],[12,-5],[43,-40],[28,-14],[38,-6],[41,21],[31,5],[28,-15],[70,-81],[31,-46],[29,-64],[20,0],[11,26],[14,10],[17,-2],[18,-14],[13,-20],[3,-22],[0,-27],[4,-33],[10,-27],[26,-51],[6,-20],[-11,-27],[-21,-27],[-13,-27],[30,-78],[-27,-194],[-19,-43],[-44,-6],[-96,18],[-54,-18],[-53,-35],[-84,-76],[-26,-50],[15,-47],[63,-74],[47,-114],[42,-19],[10,-16],[4,-29],[8,-22],[1,-24],[-13,-36],[-24,-25],[-27,-9],[-22,-12],[-8,-36],[19,-48],[42,-11],[41,-18],[19,-72],[-17,-48],[-42,-41],[-102,-62],[-369,-125],[-70,-77],[51,10],[167,72],[75,19],[206,1],[195,24],[144,-16],[51,6],[18,33],[-25,73],[31,19],[30,-2],[34,-10],[42,-7],[52,4],[138,26],[29,20],[18,37],[40,37],[79,56],[95,123],[52,27],[12,14],[21,9],[41,-11],[99,-102],[7,-29],[-2,-32],[3,-26],[51,-27],[7,-35],[-4,-60],[15,-68],[121,-165],[17,-15],[1,-13],[0,-6],[-85,-116],[-43,-26],[-65,-18],[-68,-4],[-54,20],[-49,-16],[-181,16],[-49,-16],[-31,-36],[-6,-36],[27,-16],[13,-22],[87,-227],[24,-20],[14,-3],[16,7],[35,7],[45,14],[116,54],[49,12],[24,-5],[20,-25],[27,-10],[22,5],[28,12],[30,6],[29,-13],[25,-36]],[[2110,2988],[-90,-2],[-89,13],[-74,25],[-27,21],[-10,25],[7,26],[26,21],[31,10],[148,7],[46,12],[34,27],[13,48],[-26,26],[-104,5],[-11,40],[34,35],[119,16],[48,29],[73,-91],[49,-92],[-12,-90],[-110,-89],[-75,-22]],[[3634,1941],[1,532],[383,1],[78,-54],[0,-815],[-462,336]],[[0,1894],[113,-4],[16,-425],[-129,-10],[0,439]],[[0,1409],[6,1],[28,-71],[-34,-12],[0,82]],[[2772,2812],[355,282],[509,-399],[0,-169],[-242,-188],[-622,474]]]}