{"objects":{"water":{"type":"GeometryCollection","geometries":[]},"buildings":{"type":"GeometryCollection","geometries":[]},"places":{"type":"GeometryCollection","geometries":[{"type":"Point","properties":{"name:pt":"Bol\u00edvia","name:ps":"\u0628\u0648\u0644\u06d0\u0648\u06cc\u0627","name:ka":"\u10d1\u10dd\u10da\u10d8\u10d5\u10d8\u10d0","name:mt":"Bolivja","name:ko":"\ubcfc\ub9ac\ube44\uc544","name:cv":"\u0411\u043e\u043b\u0438\u0432\u0438","name:km":"\u1794\u17bc\u179b\u17b8\u179c\u17b8","name:cs":"Bol\u00edvie","name:tt":"\u0411\u043e\u043b\u0438\u0432\u0438\u044f","name:kw":"Bolivi","name:tr":"Bolivya","name:ku":"Bol\u00eevya","name:ti":"\u1266\u120a\u126a\u12eb","name:ks":"\u0628\u0648\u0644\u0650\u0648\u0650\u06cc\u0627","name:to":"Pol\u012bvia","name:tl":"Bulibya","name:pa":"\u0a2c\u0a4b\u0a32\u0a40\u0a35\u0a40\u0a06","name:os":"\u0411\u043e\u043b\u0438\u0432\u0438","name:or":"\u0b2c\u0b4b\u0b32\u0b2d\u0b3f\u0b06","name:ce":"\u0411\u043e\u043b\u0438\u0432\u0438","name:ta":"\u0baa\u0bca\u0bb2\u0bbf\u0bb5\u0bbf\u0baf\u0bbe","name:tg":"\u0411\u043e\u043b\u0438\u0432\u0438\u044f","name:ca":"Bol\u00edvia","name:te":"\u0c2c\u0c4a\u0c32\u0c40\u0c35\u0c3f\u0c2f\u0c3e","name:cy":"Bolifia","name:ln":"Bolivi","name:de":"Bolivien","name:dz":"\u0f56\u0fb7\u0f7a\u0f0b\u0f63\u0f72\u0f0b\u0f56\u0f72\u0f0b\u0f61","source":"openstreetmap.org","name:rw":"Boliviya","name:nv":"Bol\u00edbiya","name:kn":"\u0cac\u0cc6\u0cc2\u0cb2\u0cbf\u0cb5\u0cbf\u0caf\u0cbe","name:dv":"\u0784\u07ae\u078d\u07a9\u0788\u07a8\u0787\u07a7","name:lv":"Bol\u012bvija","name:lt":"Bolivija","name:uz":"Boliviya","name:kk":"\u0411\u043e\u043b\u0438\u0432\u0438\u044f","name:he":"\u05d1\u05d5\u05dc\u05d9\u05d5\u05d5\u05d9\u05d4","min_zoom":2.0,"kind":"country","name:ur":"\u0628\u0648\u0644\u06cc\u0648\u06cc\u0627","name:lb":"Bolivien","name:lg":"Boliviya","name:uk":"\u0411\u043e\u043b\u0456\u0432\u0456\u044f","name:hy":"\u0532\u0578\u056c\u056b\u057e\u056b\u0561","name:ug":"\u0628\u0648\u0644\u0649\u06cb\u0649\u064a\u06d5","name:hu":"Bol\u00edvia","name:hr":"Bolivija","name:lo":"\u0ec2\u0e9a\u0ea5\u0eb4\u0ec0\u0ea7\u0e8d","name:oc":"Bol\u00edvia","population":10027254,"name:el":"\u0392\u03bf\u03bb\u03b9\u03b2\u03af\u03b1","name:eo":"Bolivio","name":"Bolivia","name:ee":"Bolivia nutome","name:th":"\u0e1b\u0e23\u0e30\u0e40\u0e17\u0e28\u0e42\u0e1a\u0e25\u0e34\u0e40\u0e27\u0e35\u0e22","name:eu":"Bolibia","name:et":"Boliivia","name:yo":"Or\u00edl\u1eb9\u0301\u00e8de B\u1ecd\u0300l\u00edf\u00edy\u00e0","name:ay":"Wuliwya","name:yi":"\u05d1\u05d0\u05dc\u05d9\u05d5\u05d5\u05d9\u05e2","name:rn":"Boliviya","name:az":"Boliviya","name:mr":"\u092c\u094b\u0932\u093f\u0935\u094d\u0939\u093f\u092f\u093e","name:qu":"Buliwya","name:ar":"\u0628\u0648\u0644\u064a\u0641\u064a\u0627","name:my":"\u1018\u102d\u102f\u101c\u102e\u1038\u1018\u102e\u1038\u101a\u102c\u1038","official_name":"Estado Plurinacional de Bolivia","name:gn":"Vol\u00edvia","name:is":"B\u00f3liv\u00eda","name:am":"\u1266\u120a\u126a\u12eb","name:ml":"\u0d2c\u0d4a\u0d33\u0d40\u0d35\u0d3f\u0d2f","name:ru":"\u0411\u043e\u043b\u0438\u0432\u0438\u044f","name:ab":"\u0411\u043e\u043b\u0438\u0432\u0438\u0430","name:mi":"Poriwia","name:pl":"Boliwia","name:mk":"\u0411\u043e\u043b\u0438\u0432\u0438\u0458\u0430","name:af":"Bolivi\u00eb","name:zu":"i-Bolivia","name:ha":"Bolibiya","name:mn":"\u0411\u043e\u043b\u0438\u0432","name:ff":"Boliwii","name:hi":"\u092c\u094b\u0932\u093f\u0935\u093f\u092f\u093e","id":424313730,"name:fr":"Bolivie","name:wo":"Boliibi","name:ky":"\u0411\u043e\u043b\u0438\u0432\u0438\u044f","name:zh-yue":"\u73bb\u5229\u7dad\u4e9e","name:vo":"Boliv\u00e4n","name:zh":"\u73bb\u5229\u7ef4\u4e9a","name:so":"Boliifiya","name:sr":"\u0411\u043e\u043b\u0438\u0432\u0438\u0458\u0430","name:sl":"Bolivija","name:sk":"Bol\u00edvia","name:ja":"\u30dc\u30ea\u30d3\u30a2","name:si":"\u0db6\u0ddc\u0dbd\u0dd3\u0dc0\u0dd2\u0dba\u0dcf\u0dc0","name:sh":"Bolivija","name:sg":"Boliv\u00efi","name:na":"Boribiya","name:ne":"\u092c\u094b\u0932\u093f\u092d\u093f\u092f\u093e","name:sa":"\u092c\u094b\u0932\u093f\u0935\u093f\u092f\u093e","name:bs":"Bolivija","name:bm":"Bolivi","name:bn":"\u09ac\u09cb\u09b2\u09bf\u09ad\u09bf\u09af\u09bc\u09be","name:bo":"\u0f56\u0f7c\u0f0b\u0f63\u0f72\u0f0b\u0f5d\u0f72\u0f61\u0f0d","name:be":"\u0411\u0430\u043b\u0456\u0432\u0456\u044f","name:bg":"\u0411\u043e\u043b\u0438\u0432\u0438\u044f","name:ss":"IBholiviya","name:ba":"\u0411\u043e\u043b\u0438\u0432\u0438\u044f","name:sq":"Bolivi","name:ga":"An Bholaiv","name:gd":"Boilibhia","name:ht":"Bolivi","name:wa":"Boliveye","name:fa":"\u0628\u0648\u0644\u06cc\u0648\u06cc","name:gv":"Yn Volivia","name:gu":"\u0aac\u0acb\u0ab2\u0abf\u0ab5\u0abf\u0aaf\u0abe"},"coordinates":[3211,2813]},{"type":"Point","properties":{"source":"openstreetmap.org","kind":"region","name":"Cochabamba","kind_detail":"state","min_zoom":4.0,"name:eo":"Ko\u0109apampio","id":2854906389},"coordinates":[1729,1969]},{"type":"Point","properties":{"kind":"locality","name":"Sacaba","kind_detail":"city","source":"openstreetmap.org","min_zoom":8.0,"old_name":"Villa de San Pedro de Sacaba","id":415162589,"population":150110},"coordinates":[156,1754]},{"type":"Point","properties":{"kind":"locality","name":"Punata","kind_detail":"town","source":"openstreetmap.org","min_zoom":8.0,"name:ru":"\u041f\u0443\u043d\u0430\u0442\u0430","id":794381207,"population":19601},"coordinates":[749,1323]},{"type":"Point","properties":{"source":"openstreetmap.org","kind":"locality","name":"Cliza","kind_detail":"town","population":8518,"min_zoom":8.0,"id":795493578},"coordinates":[465,1180]},{"type":"Point","properties":{"source":"openstreetmap.org","kind":"locality","name":"Ivirgarzama","kind_detail":"town","population":8255,"min_zoom":8.0,"id":495944629},"coordinates":[3599,2883]},{"type":"Point","properties":{"source":"openstreetmap.org","kind":"locality","name":"Chimor\u00e9","kind_detail":"town","population":6260,"min_zoom":8.0,"id":795493574},"coordinates":[2748,3005]},{"type":"Point","properties":{"source":"openstreetmap.org","kind":"locality","name":"Shinahota","kind_detail":"town","population":5669,"min_zoom":8.0,"id":795628868},"coordinates":[2471,2998]}]},"transit":{"type":"GeometryCollection","geometries":[{"type":"MultiLineString","properties":{"kind":"train","name":"Cochabamba - Aiquile","service":"regional","sort_rank":275,"min_zoom":6.0,"source":"openstreetmap.org","state":"connection","operator":"Empresa Ferroviaria Andina SA","osm_relation":true},"arcs":[[7],[8],[9],[10],[11],[12]]}]},"pois":{"type":"GeometryCollection","geometries":[{"type":"Point","properties":{"kind":"university","tier":3,"name":"Valle de Sajta","area":72771600,"source":"openstreetmap.org","min_zoom":8.0,"old_name":"Fundo Universitario Valle del Sacta","operator":"UMSS","id":-5970489,"osm_relation":true},"coordinates":[3921,2763]},{"type":"Point","properties":{"kind":"nature_reserve","tier":2,"protect_class":"4","area":383938000,"source":"openstreetmap.org","min_zoom":8.0,"old_name":"Reserva de Vida Silvestre German Busch","operator":"Servicio Nacional de \u00c1reas Protegidas","id":-446359,"osm_relation":true,"name":"\u00c1rea Natural de Manejo Integrado Ambor\u00f3"},"coordinates":[4034,498]}]},"boundaries":{"type":"GeometryCollection","geometries":[{"type":"MultiLineString","properties":{"name:right:uk":"\u041a\u043e\u0447\u0430\u0431\u0430\u043c\u0431\u0430","short_name:left":"PSI","id:right":-393562,"min_zoom":8.0,"name:left:ru":"\u041f\u043e\u0442\u043e\u0441\u0438","short_name:right":"CBA","id":-4509552,"osm_relation":true,"name:right":"Cochabamba","kind":"region","name":"Potos\u00ed - Cochabamba","sort_rank":256,"kind_detail":"4","source":"openstreetmap.org","id:left":-4509552,"official_name:right":"Departamento de Cochabamba","official_name:left":"Departamento de Potos\u00ed","name:left":"Potos\u00ed"},"arcs":[[0],[1]]},{"type":"MultiLineString","properties":{"name:right:uk":"\u041a\u043e\u0447\u0430\u0431\u0430\u043c\u0431\u0430","short_name:left":"SCZ","id:right":-393562,"min_zoom":8.0,"name:left:ru":"\u0421\u0430\u043d\u0442\u0430-\u041a\u0440\u0443\u0441","short_name:right":"CBA","id":-3360565,"osm_relation":true,"name:right":"Cochabamba","kind":"region","name":"Santa Cruz - Cochabamba","sort_rank":256,"kind_detail":"4","source":"openstreetmap.org","id:left":-3360565,"official_name:right":"Departamento de Cochabamba","official_name:left":"Departamento de Santa Cruz","name:left":"Santa Cruz"},"arcs":[[2],[3],[4],[5],[6]]}]},"roads":{"type":"GeometryCollection","geometries":[{"type":"MultiLineString","properties":{"kind":"major_road","network":"BO-roads","sort_rank":381,"kind_detail":"trunk","source":"openstreetmap.org","min_zoom":8.0,"shield_text":"24","ref":"F24"},"arcs":[[13],[14],[15]]},{"type":"MultiLineString","properties":{"kind":"major_road","network":"BO-roads","sort_rank":381,"landuse_kind":"urban_area","source":"openstreetmap.org","min_zoom":8.0,"kind_detail":"trunk","shield_text":"4","ref":"F4"},"arcs":[[16],[17],[18],[19]]},{"type":"MultiLineString","properties":{"kind":"major_road","network":"BO-roads","sort_rank":381,"kind_detail":"trunk","source":"openstreetmap.org","min_zoom":8.0,"shield_text":"7","ref":"F7"},"arcs":[[20],[21],[22],[23],[24],[25],[26],[27]]},{"type":"LineString","properties":{"bus_network":null,"sort_rank":380,"kind_detail":"primary","kind":"major_road","source":"openstreetmap.org","min_zoom":8.0,"bus_shield_text":"212","landuse_kind":"urban_area"},"arcs":[28]},{"type":"MultiLineString","properties":{"sort_rank":381,"source":"openstreetmap.org","min_zoom":8.0,"kind":"major_road","kind_detail":"trunk"},"arcs":[[29],[30]]},{"type":"LineString","properties":{"kind":"major_road","network":"BO-Roads","sort_rank":380,"kind_detail":"primary","source":"openstreetmap.org","min_zoom":8.0,"shield_text":"15","ref":"F15"},"arcs":[31]},{"type":"MultiLineString","properties":{"source":"openstreetmap.org","kind":"major_road","sort_rank":381,"kind_detail":"trunk","ref":"F23","min_zoom":8.0},"arcs":[[32],[33]]},{"type":"MultiLineString","properties":{"source":"openstreetmap.org","kind":"major_road","landuse_kind":"urban_area","sort_rank":380,"kind_detail":"primary","min_zoom":8.0},"arcs":[[34],[35],[36],[37],[38],[39],[40],[41],[42],[43],[44],[45],[46],[47],[48],[49]]},{"type":"MultiLineString","properties":{"sort_rank":380,"kind_detail":"primary","min_zoom":8.0,"kind":"major_road","source":"openstreetmap.org"},"arcs":[[50],[51],[52],[53],[54],[55],[56],[57],[58],[59],[60],[61],[62],[63],[64],[65],[66],[67],[68],[69],[70],[71],[72],[73],[74],[75],[76],[77],[78],[79],[80],[81],[82],[83],[84],[85],[86],[87],[88],[89],[90],[91],[92],[93],[94],[95],[96],[97],[98],[99],[100],[101],[102],[103],[104],[105],[106],[107],[108],[109],[110],[111],[112],[113],[114],[115],[116],[117],[118],[119],[120],[121],[122],[123],[124],[125],[126],[127],[128],[129],[130],[131],[132],[133],[134],[135],[136],[137],[138],[139],[140],[141],[142]]},{"type":"MultiLineString","properties":{"source":"openstreetmap.org","kind":"major_road","landuse_kind":"national_park","sort_rank":380,"kind_detail":"primary","min_zoom":8.0},"arcs":[[143],[144],[145]]},{"type":"MultiLineString","properties":{"kind":"major_road","network":"BO-roads","sort_rank":381,"kind_detail":"trunk","source":"openstreetmap.org","min_zoom":8.0,"shield_text":"4","ref":"F4"},"arcs":[[146],[147],[148],[149],[150],[151],[152],[153],[154],[155]]},{"type":"LineString","properties":{"kind":"major_road","sort_rank":380,"kind_detail":"primary","bus_network":null,"source":"openstreetmap.org","min_zoom":8.0,"bus_shield_text":"212","landuse_kind":"national_park","id":343120831},"arcs":[156]},{"type":"MultiLineString","properties":{"kind":"major_road","network":"BO-roads","sort_rank":381,"kind_detail":"trunk","source":"openstreetmap.org","min_zoom":8.0,"shield_text":"23","ref":"F23"},"arcs":[[157],[158],[159],[160],[161],[162]]},{"type":"MultiLineString","properties":{"kind":"major_road","network":"BO-roads","sort_rank":381,"kind_detail":"trunk","source":"openstreetmap.org","min_zoom":8.0,"landuse_kind":"nature_reserve","shield_text":"7","ref":"F7"},"arcs":[[163],[164],[165]]}]},"earth":{"type":"GeometryCollection","geometries":[{"type":"Polygon","properties":{"sort_rank":10,"source":"naturalearthdata.com","min_zoom":0.0,"kind":"earth","area":98022885885},"arcs":[[166]]}]},"landuse":{"type":"GeometryCollection","geometries":[{"type":"Polygon","properties":{"kind":"national_park","area":3627640064,"sort_rank":18,"operator":"SERNAP","source":"openstreetmap.org","min_zoom":3.0,"tier":1,"id":-443850,"osm_relation":true},"arcs":[[167]]},{"type":"Polygon","properties":{"kind":"nature_reserve","protect_class":"4","area":383937984,"sort_rank":23,"operator":"Servicio Nacional de \u00c1reas Protegidas","source":"openstreetmap.org","min_zoom":6.0,"tier":2,"id":-446359,"osm_relation":true},"arcs":[[168]]},{"type":"MultiPolygon","properties":{"source":"naturalearthdata.com","kind":"urban_area","name":"","area":508063090,"sort_rank":11,"min_zoom":4.0},"arcs":[[[169]]]},{"type":"MultiPolygon","properties":{"kind":"protected_area","area":743056000,"sort_rank":17,"source":"openstreetmap.org","min_zoom":6.0,"tier":2,"id":-446357,"osm_relation":true},"arcs":[[[170]],[[171]]]},{"type":"MultiPolygon","properties":{"source":"openstreetmap.org","kind":"nature_reserve","tier":2,"protect_class":"24","area":61388317,"sort_rank":23,"min_zoom":8.0},"arcs":[[[172]],[[173]]]},{"type":"MultiPolygon","properties":{"kind":"park","area":4481619968,"sort_rank":24,"source":"openstreetmap.org","min_zoom":4.0,"tier":2,"id":-446358,"osm_relation":true},"arcs":[[[174]]]}]}},"type":"Topology","transform":{"translate":[-66.09375,-17.9787330956],"scale":[0.0003433228,0.0003277689]},"arcs":[[[705,0],[-38,25],[-67,-25]],[[460,0],[-42,91],[-46,-15],[-59,49],[-173,309],[-140,91]],[[3796,4096],[22,0]],[[3843,4096],[54,-55],[5,-66],[-56,-29],[22,81],[-35,18],[-23,-103],[-73,-36],[12,-43],[77,-37],[-10,-76],[-124,78],[-60,-46],[51,-46],[-13,-69],[44,46],[43,-111],[40,10],[43,-30],[-50,-50],[10,-73],[54,-55],[26,33],[64,-7],[-4,-20],[-88,-28],[22,-23],[60,39],[20,-14],[-71,-67],[27,-19],[53,31],[17,-41],[-51,-12],[-17,-38],[49,11],[40,-39],[-47,12],[6,-47],[-39,-9],[49,-41],[61,41],[1,-38],[-27,-25],[24,-33],[19,6],[-7,57],[55,-32]],[[4096,794],[-43,7],[-39,-51],[-105,-29],[-76,-211],[7,-39],[-70,-92],[-27,-139],[-53,-75],[118,-165]],[[4096,3005],[0,-77]],[[4096,3093],[-24,-55],[-40,-12],[0,-43],[41,4],[-8,40],[31,9]],[[0,1460],[8,-10],[11,-83],[-19,6]],[[0,1318],[35,-12],[164,-176],[273,62]],[[476,1189],[-4,3]],[[476,1189],[73,-200],[52,-11],[-3,-66],[60,-76],[21,4],[-8,-41],[44,-29],[-6,-115],[305,-232],[93,17],[2,43],[63,-48],[44,-164],[-27,-74],[-44,6],[-21,-22],[55,-105],[87,-70],[0,-6]],[[2130,0],[125,88],[43,-88]],[[204,1130],[1,0],[-1,0]],[[1664,3503],[-141,45]],[[1664,3503],[12,-6]],[[2012,3074],[19,119],[-95,185],[-75,20],[-38,-55],[-13,67],[-54,56],[-80,31]],[[0,1802],[134,-35]],[[134,1767],[-134,36]],[[240,1752],[-106,15]],[[331,1751],[-28,-5]],[[0,1441],[29,-81],[92,-30],[135,-5],[430,92]],[[695,1417],[-9,0]],[[695,1417],[81,-2]],[[780,1415],[-4,0]],[[780,1415],[73,23],[23,45],[40,-3],[-1,28],[47,18],[-6,38],[108,29],[44,5],[51,-32],[55,17],[187,-81],[38,24],[144,-20],[66,27],[119,-5],[191,-72],[263,-216],[38,7],[112,-122],[143,-83],[75,8],[122,-59],[32,-52],[44,10],[140,-151],[87,-163],[55,-7],[24,80],[24,-20],[174,47],[133,1],[28,25],[47,-9],[-46,28],[55,-1],[70,-21],[13,-43],[80,6],[166,-197]],[[3861,497],[28,-36],[97,-21]],[[4041,415],[14,-6]],[[4093,458],[3,13]],[[14,1836],[-14,2]],[[256,1325],[1,0]],[[383,1361],[1,0]],[[3762,3467],[-74,-104],[22,-335],[-50,-114],[-58,-32]],[[2203,123],[-18,31]],[[2203,123],[4,-2]],[[0,1838],[16,-2]],[[0,1722],[123,0]],[[124,1722],[-10,2],[-59,5],[-55,-3]],[[102,1780],[-102,7]],[[27,1834],[73,-1]],[[99,1833],[-69,1]],[[117,1771],[24,2],[-24,-2]],[[117,1758],[0,12]],[[117,1771],[0,-13]],[[117,1758],[25,-13]],[[124,1767],[18,-8]],[[142,1759],[-13,7]],[[142,1759],[8,-4]],[[159,1751],[-7,4]],[[159,1748],[6,15]],[[167,1739],[17,18]],[[22,1391],[0,-1]],[[22,1390],[-9,-23],[-13,1]],[[0,1289],[145,-110]],[[23,1389],[-1,1]],[[123,1722],[29,-5],[0,1]],[[152,1718],[0,12],[0,1],[4,11]],[[156,1742],[3,6]],[[152,1718]],[[152,1718],[-16,2],[-12,2]],[[142,1745],[14,-3]],[[156,1742],[11,-3]],[[145,1179],[39,-40]],[[152,1755],[-2,0]],[[184,1139],[29,-16]],[[213,1123],[84,19],[1,0],[161,34],[1,7],[6,0]],[[466,1183],[8,1],[1,-2],[33,16],[75,53],[123,51]],[[250,1288],[-26,-89],[-11,-76]],[[213,1123]],[[250,1288],[6,37]],[[256,1325],[-6,-37]],[[256,1322]],[[383,1361],[1,-5]],[[384,1358]],[[384,1356]],[[384,1356],[28,-37],[23,-27]],[[384,1356],[0,5]],[[440,1289],[-56,67]],[[394,1339],[1,0]],[[396,1337],[0,1]],[[408,1323],[0,1]],[[410,1321]],[[416,1313],[1,0]],[[424,1303]],[[435,1292]],[[435,1292],[24,-31]],[[440,1289]],[[456,1279],[-12,7]],[[444,1286],[-4,3]],[[444,1286]],[[444,1286],[1,0]],[[456,1279],[0,-1]],[[460,1261],[-4,18]],[[457,1276],[1,0]],[[458,1275]],[[460,1261],[-1,0]],[[459,1261],[6,-44],[1,1]],[[466,1218]],[[460,1260]],[[467,1208],[-1,10]],[[466,1218],[-2,12]],[[464,1230],[-2,13]],[[462,1243],[0,5]],[[462,1248],[-2,13]],[[461,1253]],[[461,1253]],[[461,1248],[1,0]],[[462,1248]],[[462,1243]],[[462,1243]],[[464,1230]],[[464,1230]],[[465,1191],[1,8]],[[466,1199],[1,6]],[[467,1205],[0,3]],[[465,1194],[0,-3]],[[474,1160],[-9,19],[1,0],[0,2],[0,2]],[[466,1183],[-1,7],[0,1]],[[466,1199]],[[466,1199]],[[467,1205]],[[467,1205]],[[467,1208]],[[597,1398],[117,-59]],[[691,1417],[24,-78]],[[716,1338],[-25,79]],[[707,1302],[-1,0]],[[707,1302],[77,8]],[[714,1340],[0,-1]],[[714,1339],[1,0]],[[715,1339],[19,-12]],[[734,1327],[1,-1]],[[735,1327],[-1,0]],[[735,1326],[34,5],[-34,-4]],[[752,1316],[-1,11]],[[1066,1674],[-34,34],[-218,54],[-59,55]],[[895,1259],[23,-10]],[[918,1249],[-21,10]],[[918,1249],[60,-25]],[[1066,1674],[2,5]],[[1093,1596],[-9,86],[-18,-8]],[[2520,1041],[57,-228],[51,-68],[-46,-59],[13,-70],[60,-155],[43,-44],[13,-316],[63,-69],[-18,-24],[4,-8]],[[735,1327],[0,-1]],[[735,1326],[0,1]],[[16,1836],[11,-2]],[[30,1834],[-9,1]],[[100,1834],[-1,-1]],[[303,1746],[-63,6]],[[331,1751],[181,-66],[121,78],[127,29],[-17,75],[-102,136],[36,20],[-100,194],[26,46],[-38,195],[33,1],[38,-91],[37,-4],[-4,19],[20,-18],[14,28],[93,-53],[23,67],[21,1]],[[840,2408],[3,2]],[[843,2410],[74,52],[71,-50],[24,8],[41,119],[45,30],[17,-33],[112,205],[74,48],[-30,112],[46,66],[183,23],[54,-44],[188,-42],[150,58],[51,90]],[[1980,3069],[-37,-17]],[[1980,3069],[193,-4],[41,-60],[96,-57],[82,52],[67,6]],[[2479,3006],[-20,0]],[[2479,3006],[252,-8]],[[2753,2997],[-22,1]],[[2753,2997],[198,5],[102,-41],[478,-66],[160,-184],[57,-35],[348,-110]],[[21,1835],[-7,1]],[[761,1416],[1,-79]],[[960,1239],[-198,98]],[[960,1239],[23,-33],[11,20],[-4,-36],[47,44],[28,-4],[7,28],[156,59],[-2,-176],[133,-75],[171,-193],[60,-23],[148,-159],[28,-105],[-14,-46],[128,-114],[-36,-14],[264,-123],[92,-94],[-15,-41]],[[2302,159],[-95,-38]],[[2302,159],[3,-8]],[[2306,0],[-27,117],[26,34]],[[3838,524],[23,-27]],[[3986,440],[15,26],[40,-51]],[[4055,409],[26,2],[12,47]],[[0,4096],[4096,0],[0,-4096],[-4096,0],[0,4096]],[[0,2773],[44,-49],[65,-89],[-1,-43],[43,-7],[-36,-98],[38,7],[13,57],[29,1],[11,34],[49,-37],[10,-27],[-43,13],[26,-52],[15,17],[35,-74],[4,27],[22,-5],[94,-189],[131,-180],[-200,-113],[27,-7],[-88,-23],[27,-95],[-15,-94],[-168,86],[-112,1],[-20,7],[0,932]],[[3833,510],[90,230],[91,10],[39,51],[43,-7],[-4,-402],[-259,118]],[[0,1566],[0,395],[54,-1],[32,-102],[97,0],[65,-34],[33,34],[64,-68],[-17,-49],[-80,15],[-65,-34],[-32,34],[-151,-190]],[[0,3513],[121,-130],[-73,-67],[-48,55],[0,142]],[[0,3262],[24,-13],[77,-105],[10,-162],[-31,-10],[-19,34],[-61,12],[0,244]],[[3467,3372],[87,-6],[12,-55],[48,-50],[20,-115],[-67,80],[0,50],[-64,16],[-36,80]],[[3330,3495],[65,67],[260,-36],[18,-24],[-63,-52],[-12,-96],[-65,77],[-203,64]],[[0,4096],[230,0],[103,-83],[19,-91],[73,-87],[-16,-82],[24,-35],[-8,-59],[-34,-37],[20,-40],[-25,-71],[-35,-22],[-41,10],[-14,-55],[-108,-129],[53,-87],[-4,-44],[-121,-154],[-15,114],[-77,105],[-24,13],[0,109],[48,-55],[73,67],[-121,130],[0,583]]]}