{"objects":{"water":{"type":"GeometryCollection","geometries":[{"type":"MultiPolygon","properties":{"source":"naturalearthdata.com","kind":"ocean","area":1576712559132672,"sort_rank":200,"min_zoom":0.0,"id":1},"arcs":[[[4]]]},{"type":"LineString","properties":{"source":"naturalearthdata.com","kind":"ocean","sort_rank":205,"boundary":true,"min_zoom":0.0,"id":67},"arcs":[5]}]},"buildings":{"type":"GeometryCollection","geometries":[]},"places":{"type":"GeometryCollection","geometries":[]},"transit":{"type":"GeometryCollection","geometries":[]},"pois":{"type":"GeometryCollection","geometries":[{"type":"Point","properties":{"kind":"nature_reserve","protect_class":"1","area":413308000,"source":"openstreetmap.org","min_zoom":7.94,"tier":2,"id":-7707901,"osm_relation":true,"name":"R\u00e9serve \u00e9cologique de la Grande-Rivi\u00e8re"},"coordinates":[3905,2707]},{"type":"Point","properties":{"kind":"nature_reserve","protect_class":"7","area":374984000,"source":"openstreetmap.org","min_zoom":8.01,"tier":2,"id":-6989915,"osm_relation":true,"name":"ZEC des Anses"},"coordinates":[3565,1710]},{"type":"Point","properties":{"kind":"nature_reserve","protect_class":"4","area":140615000,"source":"openstreetmap.org","min_zoom":8.72,"tier":2,"id":475378355,"name":"R\u00e9serve faunique de Port-Daniel"},"coordinates":[3320,1310]},{"type":"Point","properties":{"kind":"nature_reserve","protect_class":"7","area":157877000,"source":"openstreetmap.org","min_zoom":8.64,"tier":2,"id":475416158,"name":"ZEC Baillargeon"},"coordinates":[3654,3475]}]},"boundaries":{"type":"GeometryCollection","geometries":[{"type":"LineString","properties":{"name:left:la":"Novum Brunsvicum","name:right:qu":"Quebec pruwinsya","name:right:ug":"Kw\u00e9b\u00e9k","name:right:la":"Quebecum","name:right:yi":"\u05e7\u05d5\u05d5\u05d9\u05d1\u05e2\u05e7","name:right:hy":"\u0554\u057e\u0565\u0562\u0565\u056f","name:right:uk":"\u041a\u0432\u0435\u0431\u0435\u043a","name:left:he":"\u05e0\u05d9\u05d5 \u05d1\u05e8\u05e0\u05d6\u05d5\u05d5\u05d9\u05e7","name:right:ln":"K\u00e9beki","name:right:lo":"\u0ec1\u0e82\u0ea7\u0e87\u0ec0\u0e81\u0ec1\u0e9a\u0eb1\u0e81","name:right:ht":"Keb\u00e8k","name:left:sr":"\u040a\u0443 \u0411\u0440\u0430\u043d\u0441\u0432\u0438\u043a","name:right:lt":"Kvebekas","name:left:sl":"Novi Brunswick","name:right:lv":"Kvebeka","name:left:lt":"Naujasis Bransvikas","name:left:sh":"Novi Brunswick","name:left:lv":"\u0145\u016bbransvika","name:right:uz":"Kvebek","name:right:he":"\u05e7\u05d5\u05d5\u05d9\u05d1\u05e7","name:left:hr":"Novi Brunswick","name:right:af":"Quebec","name:left:it":"Nuovo Brunswick","name:left:gd":"Brunswick Nuadh","sort_rank":256,"name:right:am":"\u12ac\u1260\u12ad","name:left:ca":"Nova Brunsvic","name:left:gl":"Nova Brunswick","source":"openstreetmap.org","name:right:ar":"\u0643\u064a\u0628\u0643","name:right:az":"\u0729\u071d\u0712\u0729","name:left:cs":"Nov\u00fd Brun\u0161vik","name:left":"New Brunswick","name:right:es":"Quebec","name:right:mk":"\u041a\u0432\u0435\u0431\u0435\u043a","name:right:mi":"Quebec","name:left:ja":"\u30cb\u30e5\u30fc\u30d6\u30e9\u30f3\u30ba\u30a6\u30a3\u30c3\u30af\u5dde","name:left:ka":"\u10dc\u10d8\u10e3-\u10d1\u10e0\u10d0\u10dc\u10e1\u10e3\u10d8\u10d9\u10d8","name:right:mn":"\u041a\u044d\u0431\u044d\u043a","name:right:eu":"Quebec","name:right:ml":"\u0d15\u0d4d\u0d2f\u0d42\u0d2c\u0d46\u0d15\u0d4d","name:left:ko":"\ub274\ube0c\ub7f0\uc988\uc705","min_zoom":8.0,"name:left:ro":"Noul Brunswick","name:right:ru":"\u041a\u0432\u0435\u0431\u0435\u043a","name:right:io":"Kebekia","name:left:kw":"Brunswick Nowydh","name:left:ru":"\u041d\u044c\u044e-\u0411\u0440\u0430\u043d\u0441\u0443\u0438\u043a","name:right:ms":"Quebec","name:right:mr":"\u0915\u094d\u0935\u0947\u092c\u0947\u0915","name:left:oc":"N\u00f2u Brunswick","name:right:id":"Quebec","name:right:eo":"Kebekio","name:right:en":"Quebec","name:right:el":"\u039a\u03b5\u03bc\u03c0\u03ad\u03ba","kind":"region","name:right:cr":"\u146f\u142f\u1483","name:right:bn":"\u0995\u09bf\u0989\u09ac\u09c7\u0995","name":"New Brunswick - Qu\u00e9bec","name:right:hi":"\u0915\u094d\u092f\u0942\u092c\u0947\u0915","name:left:fa":"\u0646\u06cc\u0648\u0628\u0631\u0627\u0646\u0632\u0648\u06cc\u06a9","name:right:bg":"\u041a\u0432\u0435\u0431\u0435\u043a","osm_relation":true,"name:right:be":"\u041f\u0440\u0430\u0432\u0456\u043d\u0446\u044b\u044f \u041a\u0432\u0435\u0431\u0435\u043a","name:left:zh":"\u65b0\u4f2f\u502b\u745e\u514b","name:left:fr":"Nouveau-Brunswick","name:right:br":"Kebek","name:left:af":"Nieu-Brunswyk","name:right:zh":"\u9b41\u5317\u514b","name:right:fy":"Kebek","name:left:fy":"Nij-Brunswyk","name:right:nn":"Quebec","name:left:bs":"Novi Brunswick","name:right:nl":"Quebec","name:right:ja":"\u30b1\u30d9\u30c3\u30af\u5dde","name:right:wa":"Kebek","name:right:sq":"Kebeku","name:right:sr":"\u041a\u0432\u0435\u0431\u0435\u043a","name:right:su":"Quebec","name:right:sw":"Quebec","id:right":-61549,"name:left:uk":"\u041d\u044c\u044e-\u0411\u0440\u0430\u043d\u0441\u0432\u0456\u043a","name:right:sk":"Quebec","name:right:jv":"Quebec","name:left:bg":"\u041d\u044e \u0411\u0440\u044a\u043d\u0437\u0443\u0438\u043a","name:right:fa":"\u06a9\u0628\u06a9","id":-68942,"name:right:fi":"Quebec","name:left:eo":"Nov-Brunsviko","name:right:co":"Quebec","name:left:el":"\u039d\u03ad\u03b1 \u0392\u03c1\u03bf\u03c5\u03bd\u03c3\u03b2\u03af\u03ba\u03b7","name:right:ca":"Quebec","kind_detail":"4","name:right:tt":"\u041a\u0432\u0435\u0431\u0435\u043a","id:left":-68942,"name:left:es":"Nuevo Brunswick","name:right:cs":"Quebec","name:right":"Qu\u00e9bec","name:right:iu":"\u146f\u1438\u1403\u1483","name:left:eu":"Brunswick Berria","name:right:gu":"\u0a95\u0acd\u0ab5\u0abf\u0aac\u0ac7\u0a95","name:right:pt":"Quebec","name:left:ar":"\u0646\u064a\u0648 \u0628\u0631\u0627\u0646\u0632\u0648\u064a\u0643","name:right:gd":"Quebec","name:left:pl":"Nowy Brunszwik","name:right:kk":"\u041a\u0432\u0435\u0431\u0435\u043a","name:left:mn":"\u041d\u044c\u044e-\u0411\u0440\u0430\u043d\u0441\u0432\u0438\u043a","name:right:oc":"Queb\u00e8c","name:left:az":"Nyu-Brunsvik","name:left:th":"\u0e23\u0e31\u0e10\u0e19\u0e34\u0e27\u0e1a\u0e23\u0e31\u0e19\u0e2a\u0e27\u0e34\u0e01","name:right:pa":"\u0a15\u0a47\u0a2c\u0a48\u0a71\u0a15","name:right:th":"\u0e23\u0e31\u0e10\u0e04\u0e27\u0e34\u0e40\u0e1a\u0e01","name:right:ko":"\ud018\ubca1","name:right:kw":"Kebek","name:right:gl":"Quebec","name:right:kn":"\u0c95\u0ccd\u0cb5\u0cbf\u0cac\u0cc6\u0c95\u0ccd","name:right:pl":"Quebec","name:right:ta":"\u0b95\u0bbf\u0baf\u0bc2\u0baa\u0bc6\u0b95\u0bcd","name:right:os":"\u041a\u0432\u0435\u0431\u0435\u043a","name:left:pt":"Novo Brunsvique","name:left:br":"Brunswick Nevez","name:right:ka":"\u10d9\u10d5\u10d4\u10d1\u10d4\u10d9\u10d8","name:left:mr":"\u0928\u094d\u092f\u0942 \u092c\u094d\u0930\u0941\u0928\u094d\u0938\u0935\u093f\u0915","name:right:ur":"\u06a9\u06cc\u0648\u0628\u06cc\u06a9","name:left:de":"Neubraunschweig","maritime_boundary":true},"arcs":[0]},{"type":"LineString","properties":{"name:pt":"Novo Brunsvique","name:az":"Nyu-Brunsvik","name:ka":"\u10dc\u10d8\u10e3-\u10d1\u10e0\u10d0\u10dc\u10e1\u10e3\u10d8\u10d9\u10d8","name:mr":"\u0928\u094d\u092f\u0942 \u092c\u094d\u0930\u0941\u0928\u094d\u0938\u0935\u093f\u0915","name:ko":"\ub274\ube0c\ub7f0\uc988\uc705","name:ar":"\u0646\u064a\u0648 \u0628\u0631\u0627\u0646\u0632\u0648\u064a\u0643","name:cs":"Nov\u00fd Brun\u0161vik","name:kw":"Brunswick Nowydh","min_zoom":8.0,"name:ro":"Noul Brunswick","name:it":"Nuovo Brunswick","name:ru":"\u041d\u044c\u044e-\u0411\u0440\u0430\u043d\u0441\u0443\u0438\u043a","name:pl":"Nowy Brunszwik","name:mn":"\u041d\u044c\u044e-\u0411\u0440\u0430\u043d\u0441\u0432\u0438\u043a","id":-68942,"name:ca":"Nova Brunsvic","name:af":"Nieu-Brunswyk","name:fa":"\u0646\u06cc\u0648\u0628\u0631\u0627\u0646\u0632\u0648\u06cc\u06a9","source":"openstreetmap.org","sort_rank":256,"kind_detail":"4","name:de":"Neubraunschweig","name:oc":"N\u00f2u Brunswick","name:fr":"Nouveau-Brunswick","name:fy":"Nij-Brunswyk","name:zh":"\u65b0\u4f2f\u502b\u745e\u514b","name:sl":"Novi Brunswick","name:lv":"\u0145\u016bbransvika","name:ja":"\u30cb\u30e5\u30fc\u30d6\u30e9\u30f3\u30ba\u30a6\u30a3\u30c3\u30af\u5dde","name:lt":"Naujasis Bransvikas","name:sh":"Novi Brunswick","name:he":"\u05e0\u05d9\u05d5 \u05d1\u05e8\u05e0\u05d6\u05d5\u05d5\u05d9\u05e7","name:eo":"Nov-Brunsviko","name:br":"Brunswick Nevez","name:bs":"Novi Brunswick","name:la":"Novum Brunsvicum","name:uk":"\u041d\u044c\u044e-\u0411\u0440\u0430\u043d\u0441\u0432\u0456\u043a","name:bg":"\u041d\u044e \u0411\u0440\u044a\u043d\u0437\u0443\u0438\u043a","name:hr":"Novi Brunswick","name:sr":"\u040a\u0443 \u0411\u0440\u0430\u043d\u0441\u0432\u0438\u043a","osm_relation":true,"name:el":"\u039d\u03ad\u03b1 \u0392\u03c1\u03bf\u03c5\u03bd\u03c3\u03b2\u03af\u03ba\u03b7","kind":"region","name":"New Brunswick","name:gd":"Brunswick Nuadh","name:th":"\u0e23\u0e31\u0e10\u0e19\u0e34\u0e27\u0e1a\u0e23\u0e31\u0e19\u0e2a\u0e27\u0e34\u0e01","name:gl":"Nova Brunswick","maritime_boundary":true,"name:eu":"Brunswick Berria","name:es":"Nuevo Brunswick"},"arcs":[1]},{"type":"MultiLineString","properties":{"name:pt":"Quebec","name:ka":"\u10d9\u10d5\u10d4\u10d1\u10d4\u10d9\u10d8","name:ko":"\ud018\ubca1","name:kn":"\u0c95\u0ccd\u0cb5\u0cbf\u0cac\u0cc6\u0c95\u0ccd","name:cs":"Quebec","name:cr":"\u146f\u142f\u1483","name:tt":"\u041a\u0432\u0435\u0431\u0435\u043a","name:kw":"Kebek","name:th":"\u0e23\u0e31\u0e10\u0e04\u0e27\u0e34\u0e40\u0e1a\u0e01","name:pa":"\u0a15\u0a47\u0a2c\u0a48\u0a71\u0a15","name:os":"\u041a\u0432\u0435\u0431\u0435\u043a","name:pl":"Quebec","name:ta":"\u0b95\u0bbf\u0baf\u0bc2\u0baa\u0bc6\u0b95\u0bcd","name:ug":"Kw\u00e9b\u00e9k","name:ca":"Quebec","sort_rank":256,"name:qu":"Quebec pruwinsya","name:mr":"\u0915\u094d\u0935\u0947\u092c\u0947\u0915","source":"openstreetmap.org","osm_relation":true,"name:lv":"Kvebeka","name:lt":"Kvebekas","name:hi":"\u0915\u094d\u092f\u0942\u092c\u0947\u0915","name:kk":"\u041a\u0432\u0435\u0431\u0435\u043a","name:he":"\u05e7\u05d5\u05d5\u05d9\u05d1\u05e7","name:eo":"Kebekio","name:ur":"\u06a9\u06cc\u0648\u0628\u06cc\u06a9","name:la":"Quebecum","name:uk":"\u041a\u0432\u0435\u0431\u0435\u043a","name:hy":"\u0554\u057e\u0565\u0562\u0565\u056f","name:ht":"Keb\u00e8k","name:ln":"K\u00e9beki","name:lo":"\u0ec1\u0e82\u0ea7\u0e87\u0ec0\u0e81\u0ec1\u0e9a\u0eb1\u0e81","name:oc":"Queb\u00e8c","name:co":"Quebec","kind":"region","name:en":"Quebec","name":"Qu\u00e9bec","name:bn":"\u0995\u09bf\u0989\u09ac\u09c7\u0995","min_zoom":8.0,"name:eu":"Quebec","name:am":"\u12ac\u1260\u12ad","name:es":"Quebec","name:az":"\u0729\u071d\u0712\u0729","name:id":"Quebec","name:ms":"Quebec","name:el":"\u039a\u03b5\u03bc\u03c0\u03ad\u03ba","name:ar":"\u0643\u064a\u0628\u0643","name:io":"Kebekia","name:iu":"\u146f\u1438\u1403\u1483","name:ml":"\u0d15\u0d4d\u0d2f\u0d42\u0d2c\u0d46\u0d15\u0d4d","name:ru":"\u041a\u0432\u0435\u0431\u0435\u043a","name:mn":"\u041a\u044d\u0431\u044d\u043a","name:mi":"Quebec","id":-61549,"name:mk":"\u041a\u0432\u0435\u0431\u0435\u043a","name:af":"Quebec","name:fa":"\u06a9\u0628\u06a9","kind_detail":"4","name:uz":"Kvebek","name:fy":"Kebek","name:zh":"\u9b41\u5317\u514b","name:nl":"Quebec","name:ja":"\u30b1\u30d9\u30c3\u30af\u5dde","name:nn":"Quebec","name:br":"Kebek","name:yi":"\u05e7\u05d5\u05d5\u05d9\u05d1\u05e2\u05e7","name:jv":"Quebec","name:sk":"Quebec","name:sw":"Quebec","name:be":"\u041f\u0440\u0430\u0432\u0456\u043d\u0446\u044b\u044f \u041a\u0432\u0435\u0431\u0435\u043a","name:su":"Quebec","name:bg":"\u041a\u0432\u0435\u0431\u0435\u043a","name:sr":"\u041a\u0432\u0435\u0431\u0435\u043a","name:sq":"Kebeku","name:gd":"Quebec","name:wa":"Kebek","name:gl":"Quebec","maritime_boundary":true,"name:gu":"\u0a95\u0acd\u0ab5\u0abf\u0aac\u0ac7\u0a95","name:fi":"Quebec"},"arcs":[[2],[3]]}]},"roads":{"type":"GeometryCollection","geometries":[{"type":"MultiLineString","properties":{"kind":"major_road","network":"CA:QC:R","sort_rank":380,"kind_detail":"primary","is_bicycle_related":true,"bicycle_shield_text":"1","cycleway":"lane","source":"openstreetmap.org","min_zoom":8.0,"shield_text":"132","bicycle_network":"rcn","ref":"R 132"},"arcs":[[6],[7]]},{"type":"LineString","properties":{"source":"openstreetmap.org","kind":"major_road","sort_rank":380,"kind_detail":"primary","ref":"132 TEMP","min_zoom":8.0},"arcs":[8]},{"type":"LineString","properties":{"kind":"major_road","network":"CA:QC:R","sort_rank":380,"kind_detail":"primary","source":"openstreetmap.org","min_zoom":8.0,"landuse_kind":"nature_reserve","shield_text":"299","ref":"299"},"arcs":[9]},{"type":"LineString","properties":{"source":"openstreetmap.org","kind":"major_road","sort_rank":380,"kind_detail":"primary","ref":"132-O;TEMP","min_zoom":8.0},"arcs":[10]},{"type":"LineString","properties":{"kind":"major_road","network":"CA:QC:R","sort_rank":380,"kind_detail":"primary","is_bicycle_related":true,"cycleway":"lane","source":"openstreetmap.org","min_zoom":8.0,"shield_text":"132","ref":"132"},"arcs":[11]},{"type":"LineString","properties":{"kind":"major_road","network":"CA:QC:R","sort_rank":380,"kind_detail":"primary","source":"openstreetmap.org","min_zoom":8.0,"landuse_kind":"nature_reserve","shield_text":"198","ref":"198"},"arcs":[12]},{"type":"MultiLineString","properties":{"kind":"major_road","network":"CA:QC:R","sort_rank":380,"kind_detail":"primary","is_bicycle_related":true,"bicycle_shield_text":"1","cycleway":"lane","source":"openstreetmap.org","min_zoom":8.0,"shield_text":"132","bicycle_network":"rcn","ref":"132"},"arcs":[[13],[14],[15],[16],[17],[18],[19],[20]]},{"type":"MultiLineString","properties":{"kind":"major_road","network":"CA:QC:R","sort_rank":380,"kind_detail":"primary","source":"openstreetmap.org","min_zoom":8.0,"shield_text":"132","ref":"132"},"arcs":[[21],[22],[23],[24],[25],[26],[27],[28],[29]]},{"type":"LineString","properties":{"kind":"major_road","network":"CA:QC:R","sort_rank":380,"kind_detail":"primary","source":"openstreetmap.org","min_zoom":8.0,"shield_text":"299","ref":"299"},"arcs":[30]},{"type":"LineString","properties":{"source":"openstreetmap.org","kind":"major_road","sort_rank":380,"kind_detail":"primary","ref":"132-E;TEMP","min_zoom":8.0},"arcs":[31]},{"type":"MultiLineString","properties":{"kind":"major_road","network":"CA:QC:R","sort_rank":380,"kind_detail":"primary","source":"openstreetmap.org","min_zoom":8.0,"shield_text":"198","ref":"198"},"arcs":[[32],[33]]}]},"earth":{"type":"GeometryCollection","geometries":[{"type":"MultiPolygon","properties":{"sort_rank":10,"source":"naturalearthdata.com","min_zoom":0.0,"kind":"earth","area":85552479857},"arcs":[[[34]]]}]},"landuse":{"type":"GeometryCollection","geometries":[{"type":"Polygon","properties":{"kind":"nature_reserve","protect_class":"2","area":1864710016,"sort_rank":23,"source":"openstreetmap.org","min_zoom":4.0,"tier":2,"id":-7485827,"osm_relation":true},"arcs":[[35]]},{"type":"MultiPolygon","properties":{"source":"openstreetmap.org","kind":"nature_reserve","tier":2,"protect_class":"1","area":31314584,"sort_rank":23,"min_zoom":8.0},"arcs":[[[36]]]},{"type":"MultiPolygon","properties":{"kind":"nature_reserve","protect_class":"4","area":4022983762,"sort_rank":23,"source":"openstreetmap.org","min_zoom":4.0,"tier":2,"osm_relation":true},"arcs":[[[37]]]},{"type":"Polygon","properties":{"kind":"nature_reserve","protect_class":"7","area":157876992,"sort_rank":23,"source":"openstreetmap.org","min_zoom":6.0,"tier":2,"id":475416158},"arcs":[[38]]},{"type":"MultiPolygon","properties":{"kind":"nature_reserve","protect_class":"1","area":413308000,"sort_rank":23,"source":"openstreetmap.org","min_zoom":6.0,"tier":2,"id":-7707901,"osm_relation":true},"arcs":[[[39]],[[40]]]},{"type":"Polygon","properties":{"kind":"nature_reserve","protect_class":"7","area":374984000,"sort_rank":23,"source":"openstreetmap.org","min_zoom":6.0,"tier":2,"id":-6989915,"osm_relation":true},"arcs":[[41],[42]]},{"type":"Polygon","properties":{"kind":"nature_reserve","protect_class":"4","area":140615008,"sort_rank":23,"source":"openstreetmap.org","min_zoom":7.0,"tier":2,"id":475378355},"arcs":[[43]]}]}},"type":"Topology","transform":{"translate":[-66.09375,47.9899216674],"scale":[0.0003433228,0.0002276801]},"arcs":[[[264,116],[-264,91]],[[261,0],[3,116]],[[264,116],[7,82],[415,-56],[268,-142]],[[3320,0],[776,509]],[[4096,1538],[0,-1538],[-4096,0],[0,472],[78,20],[61,58],[239,321],[32,31],[37,13],[47,0],[33,11],[24,35],[26,74],[14,-76],[-6,-90],[7,-75],[93,-50],[112,-129],[106,-63],[338,-87],[264,-139],[120,-19],[94,-34],[35,-23],[13,-24],[16,-67],[12,-27],[53,-40],[79,-33],[81,-8],[57,34],[289,15],[305,132],[376,259],[186,107],[111,104],[-27,49],[-13,62],[0,48],[9,8],[29,-30],[35,-16],[41,-5],[45,5],[377,117],[40,66],[26,91],[56,128],[18,67],[13,13],[17,10],[20,25],[19,30],[11,25],[6,42],[-8,29],[-21,24],[-33,27],[35,18],[69,3]],[[4096,1538],[-69,-3],[-35,-18],[33,-27],[21,-24],[8,-29],[-6,-42],[-11,-25],[-19,-30],[-20,-25],[-17,-10],[-13,-13],[-18,-67],[-56,-128],[-26,-91],[-40,-66],[-377,-117],[-45,-5],[-41,5],[-35,16],[-29,30],[-9,-8],[0,-48],[13,-62],[27,-49],[-111,-104],[-186,-107],[-376,-259],[-305,-132],[-289,-15],[-57,-34],[-81,8],[-79,33],[-53,40],[-12,27],[-16,67],[-13,24],[-35,23],[-94,34],[-120,19],[-264,139],[-338,87],[-106,63],[-112,129],[-93,50],[-7,75],[6,90],[-14,76],[-26,-74],[-24,-35],[-33,-11],[-47,0],[-37,-13],[-32,-31],[-239,-321],[-61,-58],[-78,-20]],[[3890,1131],[-1,-2]],[[4016,1354],[-31,-46]],[[537,1146],[48,6]],[[0,3711],[25,-63],[-25,-8]],[[397,908],[-4,107],[58,120],[-5,37],[91,-26]],[[4050,1560],[-107,-41],[34,-76],[51,-44],[-11,-19]],[[3794,3619],[-3,1]],[[547,965],[-161,-64],[-58,-85]],[[737,793],[35,-35],[8,-94],[41,-56],[246,-62]],[[2424,158],[-179,-70],[-260,-30],[-72,17]],[[3298,855],[-88,-220],[-58,-65],[-228,-134],[-194,-168],[-222,-85]],[[3369,896],[123,-6]],[[3889,1129],[-218,-214],[-151,-25]],[[3985,1308],[-46,-24],[-49,-153]],[[4017,1380],[-1,-26]],[[328,816],[-182,-215],[-14,-61],[-132,-58]],[[589,949],[126,-135]],[[716,813],[21,-20]],[[1067,546],[452,-190],[107,-7],[184,-132],[46,-140],[57,-2]],[[2508,183],[-84,-25]],[[3369,896],[-71,-41]],[[3520,890],[-28,0]],[[4096,1578],[-46,-18]],[[715,814],[-1,-1],[1,-1],[1,1],[-1,1]],[[0,2312],[71,-32],[105,-268],[76,-63],[8,-242],[96,-258],[54,-54],[39,-4],[32,-62],[114,-59],[-6,-321]],[[537,1146],[10,-181]],[[3791,3620],[-95,57],[-172,6],[-38,-49],[-185,-103],[-35,6],[-15,46],[-80,35],[-30,51],[-78,8],[1,67],[-134,97],[-52,127],[-63,37],[-78,11],[-225,-134],[-161,-9],[-64,132],[-111,91]],[[4096,3701],[-154,-34],[-51,-49],[-97,1]],[[4096,4096],[0,-2558],[-69,-3],[-35,-18],[33,-27],[21,-24],[8,-29],[-6,-42],[-11,-25],[-19,-30],[-20,-25],[-17,-10],[-13,-13],[-18,-67],[-56,-128],[-26,-91],[-40,-66],[-377,-117],[-45,-5],[-41,5],[-35,16],[-29,30],[-9,-8],[0,-48],[13,-62],[27,-49],[-111,-104],[-186,-107],[-376,-259],[-305,-132],[-289,-15],[-57,-34],[-81,8],[-79,33],[-53,40],[-12,27],[-16,67],[-13,24],[-35,23],[-94,34],[-120,19],[-264,139],[-338,87],[-106,63],[-112,129],[-93,50],[-7,75],[6,90],[-14,76],[-26,-74],[-24,-35],[-33,-11],[-47,0],[-37,-13],[-32,-31],[-239,-321],[-61,-58],[-78,-20],[0,3624],[4096,0]],[[0,4096],[678,0],[-84,-79],[-30,-70],[-564,-22],[0,171]],[[1006,2392],[145,-4],[13,-167],[-79,47],[-20,70],[-59,54]],[[762,4096],[865,0],[0,-426],[-765,-3],[25,-26],[-107,-40],[-22,-46],[-64,-41],[-221,7],[-42,-50],[-206,-82],[-225,226],[0,310],[564,22],[30,70],[84,79],[81,0],[-3,-7],[-8,1],[-5,-10],[-10,-2],[-29,-29],[-61,-13],[-21,-13],[-31,-46],[-25,-75],[57,120],[79,26],[53,37],[7,11]],[[3468,3602],[103,62],[21,-14],[47,24],[191,-67],[9,-253],[-370,-2],[-1,250]],[[3090,2738],[130,-19],[-83,65],[-36,1],[0,5],[69,-9],[48,-51],[7,54],[-100,71],[102,-60],[-36,24],[38,-8],[-17,56],[-85,45],[31,-7],[-28,46],[61,-61],[-12,57],[37,-77],[22,70],[-30,81],[46,-83],[-26,-46],[26,-86],[-21,-74],[51,105],[-22,-62],[45,-19],[-3,44],[40,-57],[38,-4],[6,36],[-45,26],[35,-9],[-4,24],[-26,2],[-53,122],[18,-11],[-9,42],[71,-141],[-9,109],[13,-32],[9,21],[21,-14],[33,67],[-19,-92],[-42,0],[24,-136],[29,-17],[0,115],[11,-71],[20,35],[-13,-61],[13,19],[-7,-25],[23,-6],[-16,-28],[64,2],[-18,58],[54,-80],[-70,150],[60,-39],[-36,74],[26,-10],[-37,30],[22,52],[25,-73],[5,55],[8,-45],[40,9],[-47,-35],[20,-103],[17,72],[-4,-40],[35,61],[20,-35],[-49,-41],[40,6],[-52,-45],[7,-32],[27,43],[11,-30],[-21,-21],[43,-1],[1,56],[32,-37],[-4,147],[18,3],[33,-102],[-19,-39],[29,18],[0,-32],[38,9],[-27,17],[26,19],[21,-12],[-8,27],[-41,-10],[22,25],[-31,5],[5,38],[12,-18],[16,20],[17,-41],[4,32],[31,-55],[-8,-54],[47,-1],[-16,20],[-16,-13],[15,31],[-26,54],[23,-36],[6,25],[18,-51],[-1,42],[21,-8],[11,-61],[2,61],[28,-61],[76,17],[-43,20],[3,19],[-35,-18],[44,35],[-32,3],[17,13],[-40,-4],[-38,35],[-24,-18],[-12,28],[63,-4],[-57,27],[28,-4],[-19,9],[18,11],[87,-25],[2,31],[-34,-1],[2,19],[40,-5],[25,-49],[-13,80],[-26,-9],[32,22],[-47,-8],[-3,27],[49,8],[6,31],[-51,0],[-45,-62],[15,-14],[-77,-31],[67,76],[-114,-65],[11,55],[111,38],[-88,4],[-13,-25],[-34,16],[11,-42],[-21,-6],[-7,22],[-32,-8],[32,14],[-23,21],[-34,-24],[13,-53],[-18,45],[-10,-50],[-4,38],[-22,-20],[0,42],[43,16],[-5,33],[46,-12],[3,53],[6,-47],[117,16],[-38,16],[22,28],[75,-68],[28,22],[129,-19],[0,-45],[-68,12],[4,-42],[28,24],[-10,-45],[-27,15],[27,-65],[39,77],[7,-35],[0,-77],[-57,-30],[53,-6],[-55,-14],[59,-30],[-17,-118],[17,-147],[-28,-7],[-21,23],[19,15],[-42,-10],[-2,25],[-45,9],[1,43],[63,-16],[-40,17],[35,27],[-86,-11],[-11,37],[-21,-47],[-16,25],[-49,-24],[-16,35],[-21,-7],[27,-49],[-48,5],[-4,26],[-15,-39],[-6,18],[-33,-25],[20,46],[-29,-44],[-6,27],[34,51],[-44,-63],[-49,49],[49,9],[-18,-1],[15,6],[-73,-11],[-14,17],[-13,-21],[-8,20],[-23,-20],[-15,21],[-20,-17],[3,22],[-47,-21],[-175,76],[-72,-64],[27,77],[-23,0],[-27,-6],[19,-26],[-42,7],[-6,-23],[-10,17],[-57,-80],[-39,61],[19,4],[24,-48],[15,38],[-38,45],[39,-34],[31,34],[-94,33]],[[4096,2449],[-24,-22],[14,36],[-25,9],[35,13],[0,-36]],[[2891,1893],[69,47],[30,-27],[46,52],[100,36],[37,-35],[7,-63],[73,-11],[54,-78],[37,-2],[53,-59],[166,21],[312,-22],[86,-60],[-40,-19],[31,-30],[-58,-12],[-13,-38],[33,-34],[-37,-36],[-61,62],[-48,10],[89,-74],[-37,-2],[-33,-37],[-345,-64],[-176,132],[-49,81],[15,25],[-63,92],[-30,18],[-108,-10],[-140,137]],[[3695,1581],[30,-30],[10,11],[-30,30],[-10,-11]],[[2766,1634],[4,7],[45,-38],[22,-35],[2,-32],[138,35],[35,-8],[52,-63],[-2,-28],[16,1],[40,-42],[-8,-20],[33,-14],[-9,-36],[178,131],[96,-84],[142,28],[-16,-36],[20,-20],[-68,-71],[51,-59],[-93,-70],[-69,-1],[-81,-60],[-3,-17],[-6,-1],[0,-8],[11,2],[14,-6],[5,-6],[2,1],[5,-29],[-13,-21],[-10,-9],[6,-4],[6,-8],[3,-6],[-8,-26],[-5,-3],[-15,-1],[27,28],[-20,20],[21,58],[-27,7],[-3,5],[0,5],[8,17],[-59,54],[4,33],[-36,20],[-75,127],[11,43],[-29,11],[3,25],[-53,38],[2,30],[-75,66],[-146,-36],[-29,71],[-44,35]]]}