{"objects":{"water":{"type":"GeometryCollection","geometries":[{"type":"Polygon","properties":{"source":"naturalearthdata.com","kind":"lake","name":"Grand Lake","area":365979424,"sort_rank":200,"min_zoom":0.0,"id":80},"arcs":[[6]]},{"type":"MultiPolygon","properties":{"source":"naturalearthdata.com","kind":"ocean","area":1576712559132672,"sort_rank":200,"min_zoom":0.0,"id":1},"arcs":[[[7]],[[8]],[[9]]]},{"type":"Point","properties":{"label_placement":true,"kind":"lake","name":"Grand Lake","area":365979424,"sort_rank":200,"source":"naturalearthdata.com","min_zoom":0.0,"id":80},"coordinates":[222,3726]},{"type":"MultiLineString","properties":{"source":"naturalearthdata.com","kind":"ocean","sort_rank":205,"boundary":true,"min_zoom":0.0,"id":67},"arcs":[[10],[11],[12],[13],[14],[15],[16]]},{"type":"MultiLineString","properties":{"source":"naturalearthdata.com","kind":"lake","sort_rank":367,"boundary":true,"min_zoom":0.0,"id":80},"arcs":[[17],[18],[19],[20]]}]},"buildings":{"type":"GeometryCollection","geometries":[]},"places":{"type":"GeometryCollection","geometries":[{"type":"Point","properties":{"kind":"locality","name":"Saint John","kind_detail":"city","name:ar":"\u0633\u0627\u0646\u062a \u062c\u0648\u0646","source":"openstreetmap.org","min_zoom":8.0,"name:uk":"\u0421\u0435\u043d\u0442-\u0414\u0436\u043e\u043d","name:ru":"\u0421\u0435\u043d\u0442-\u0414\u0436\u043e\u043d","id":129999186,"population":70063},"coordinates":[104,790]}]},"transit":{"type":"GeometryCollection","geometries":[{"type":"LineString","properties":{"kind":"train","name":"The Ocean","sort_rank":275,"colour":"#3098FC","description":"Halifax - Montreal","name:fr":"L'Oc\u00e9an","source":"openstreetmap.org","min_zoom":6.0,"operator":"VIA Rail Canada","ref":"The Ocean","osm_relation":true,"colour_name":"dodgerblue"},"arcs":[5]}]},"pois":{"type":"GeometryCollection","geometries":[]},"boundaries":{"type":"GeometryCollection","geometries":[{"type":"LineString","properties":{"name:right:la":"Novum Brunsvicum","name:left:uz":"Yangi Shotlandiya","name:right:uk":"\u041d\u044c\u044e-\u0411\u0440\u0430\u043d\u0441\u0432\u0456\u043a","name:left:he":"\u05e0\u05d5\u05d1\u05d4 \u05e1\u05e7\u05d5\u05d8\u05d9\u05d4","name:right:hr":"Novi Brunswick","name:left:sq":"Skocia e Re","name:left:sr":"\u041d\u043e\u0432\u0430 \u0428\u043a\u043e\u0442\u0441\u043a\u0430","name:right:lt":"Naujasis Bransvikas","name:left:sl":"Nova \u0160kotska","name:right:lv":"\u0145\u016bbransvika","name:left:lt":"Naujoji \u0160kotija","name:left:hy":"\u0546\u0578\u0580 \u0547\u0578\u057f\u056c\u0561\u0576\u0564\u056b\u0561","name:left:lv":"Jaunskotija","name:left:ta":"\u0ba8\u0bcb\u0bb5\u0bbe \u0bb8\u0bcd\u0b95\u0bcb\u0b9a\u0bbf\u0baf\u0bbe","name:left:hu":"\u00daj-Sk\u00f3cia","name:right:he":"\u05e0\u05d9\u05d5 \u05d1\u05e8\u05e0\u05d6\u05d5\u05d5\u05d9\u05e7","name:left:hr":"Nova \u0160kotska","name:left:ga":"Albain Nua","name:right:af":"Nieu-Brunswyk","name:left:gd":"Alba Nuadh","sort_rank":256,"name:left:ca":"Nova Esc\u00f2cia","name:left:gl":"Nova Escocia","source":"openstreetmap.org","name:right:ar":"\u0646\u064a\u0648 \u0628\u0631\u0627\u0646\u0632\u0648\u064a\u0643","name:left:gv":"Nalbin Noa","name:right:az":"Nyu-Brunsvik","name:left:cs":"Nov\u00e9 Skotsko","name:left":"Nova Scotia","name:right:es":"Nuevo Brunswick","name:right:sr":"\u040a\u0443 \u0411\u0440\u0430\u043d\u0441\u0432\u0438\u043a","name:left:ka":"\u10d0\u10ee\u10d0\u10da\u10d8 \u10e8\u10dd\u10e2\u10da\u10d0\u10dc\u10d3\u10d8\u10d0","name:right:mn":"\u041d\u044c\u044e-\u0411\u0440\u0430\u043d\u0441\u0432\u0438\u043a","name:right:eu":"Brunswick Berria","name:left:ko":"\ub178\ubc14\uc2a4\ucf54\uc0e4 \uc8fc","name:right:it":"Nuovo Brunswick","name:left:ro":"Noua Sco\u021bie","name:right:ru":"\u041d\u044c\u044e-\u0411\u0440\u0430\u043d\u0441\u0443\u0438\u043a","name:left:kw":"Alban Nowydh","name:right:ro":"Noul Brunswick","name:left:ru":"\u041d\u043e\u0432\u0430\u044f \u0428\u043e\u0442\u043b\u0430\u043d\u0434\u0438\u044f","name:left:bg":"\u041d\u043e\u0432\u0430 \u0421\u043a\u043e\u0442\u0438\u044f","name:right:mr":"\u0928\u094d\u092f\u0942 \u092c\u094d\u0930\u0941\u0928\u094d\u0938\u0935\u093f\u0915","name:left:oc":"N\u00f2va Esc\u00f2cia","id:right":-68942,"name:right:eo":"Nov-Brunsviko","name:right:el":"\u039d\u03ad\u03b1 \u0392\u03c1\u03bf\u03c5\u03bd\u03c3\u03b2\u03af\u03ba\u03b7","kind":"region","name":"Nova Scotia - New Brunswick","name:left:fa":"\u0646\u0648\u0627 \u0627\u0633\u06a9\u0648\u0634\u06cc\u0627","name:right:fa":"\u0646\u06cc\u0648\u0628\u0631\u0627\u0646\u0632\u0648\u06cc\u06a9","min_zoom":8.0,"name:left:zh":"\u65b0\u65af\u79d1\u820d\u7701","name:left:fr":"Nouvelle-\u00c9cosse","name:right:br":"Brunswick Nevez","name:right:bs":"Novi Brunswick","name:right:zh":"\u65b0\u4f2f\u502b\u745e\u514b","name:left:fy":"Nij-Skotl\u00e2n","name:left:br":"Skos Nevez","name:left:bs":"Nova \u0160kotska","name:right:ja":"\u30cb\u30e5\u30fc\u30d6\u30e9\u30f3\u30ba\u30a6\u30a3\u30c3\u30af\u5dde","name:right:fr":"Nouveau-Brunswick","name:left:sk":"Nov\u00e9 \u0160k\u00f3tsko","name:left:ur":"\u0646\u0648\u0648\u0627 \u0633\u06a9\u0648\u0634\u06cc\u0627","name:left:ja":"\u30ce\u30d0\u30b9\u30b3\u30b7\u30a2\u5dde","name:right:fy":"Nij-Brunswyk","name:left:uk":"\u041d\u043e\u0432\u0430 \u0428\u043e\u0442\u043b\u0430\u043d\u0434\u0456\u044f","name:right:sh":"Novi Brunswick","name:left:qu":"Nova Scotia pruwinsya","name:right:sl":"Novi Brunswick","name:left:be":"\u041f\u0440\u0430\u0432\u0456\u043d\u0446\u044b\u044f \u041d\u043e\u0432\u0430\u044f \u0428\u0430\u0442\u043b\u0430\u043d\u0434\u044b\u044f","name:left:ug":"Nowa Skotiye \u00d6lkisi","id":-390558,"name:right":"New Brunswick","name:left:eo":"Nov-Skotio","name:left:el":"\u039d\u03ad\u03b1 \u03a3\u03ba\u03c9\u03c4\u03af\u03b1","name:right:ca":"Nova Brunsvic","kind_detail":"4","name:left:mk":"\u041d\u043e\u0432\u0430 \u0428\u043a\u043e\u0442\u0441\u043a\u0430","name:left:yi":"\u05e0\u05d0\u05d5\u05d5\u05e2 \u05e1\u05e7\u05d0\u05e9\u05e2","id:left":-390558,"name:left:es":"Nueva Escocia","name:right:cs":"Nov\u00fd Brun\u0161vik","name:left:os":"\u041d\u043e\u0433 \u0428\u043e\u0442\u043b\u0430\u043d\u0434\u0438","name:left:eu":"Eskozia Berria","name:left:io":"Nova Skotia","name:right:pt":"Novo Brunsvique","name:left:ar":"\u0646\u0648\u0641\u0627 \u0633\u0643\u0648\u0634\u0627","name:left:pl":"Nowa Szkocja","name:left:tr":"Yeni \u0130sko\u00e7ya","name:left:mn":"\u041d\u043e\u0432\u0430 \u0421\u043a\u043e\u0448\u0430","name:right:oc":"N\u00f2u Brunswick","name:left:az":"Yeni \u015eotlandiya","name:left:th":"\u0e23\u0e31\u0e10\u0e42\u0e19\u0e27\u0e32\u0e2a\u0e42\u0e01\u0e40\u0e0a\u0e35\u0e22","name:left:mr":"\u0928\u094b\u0935\u094d\u0939\u093e \u0938\u094d\u0915\u0949\u0936\u093f\u092f\u093e","name:right:th":"\u0e23\u0e31\u0e10\u0e19\u0e34\u0e27\u0e1a\u0e23\u0e31\u0e19\u0e2a\u0e27\u0e34\u0e01","name:right:ko":"\ub274\ube0c\ub7f0\uc988\uc705","name:right:kw":"Brunswick Nowydh","name:right:gl":"Nova Brunswick","name:right:bg":"\u041d\u044e \u0411\u0440\u044a\u043d\u0437\u0443\u0438\u043a","name:left:it":"Nuova Scozia","name:right:pl":"Nowy Brunszwik","osm_relation":true,"name:left:pt":"Nova Esc\u00f3cia","name:right:ka":"\u10dc\u10d8\u10e3-\u10d1\u10e0\u10d0\u10dc\u10e1\u10e3\u10d8\u10d9\u10d8","name:right:gd":"Brunswick Nuadh","name:right:de":"Neubraunschweig","name:left:de":"Neuschottland","name:left:pa":"\u0a28\u0a4b\u0a35\u0a3e \u0a38\u0a15\u0a4b\u0a38\u0a3c\u0a3e"},"arcs":[0]},{"type":"LineString","properties":{"name:pt":"Nova Esc\u00f3cia","name:ka":"\u10d0\u10ee\u10d0\u10da\u10d8 \u10e8\u10dd\u10e2\u10da\u10d0\u10dc\u10d3\u10d8\u10d0","name:ko":"\ub178\ubc14\uc2a4\ucf54\uc0e4 \uc8fc","name:cs":"Nov\u00e9 Skotsko","name:kw":"Alban Nowydh","min_zoom":8.0,"name:ro":"Noua Sco\u021bie","name:pa":"\u0a28\u0a4b\u0a35\u0a3e \u0a38\u0a15\u0a4b\u0a38\u0a3c\u0a3e","name:os":"\u041d\u043e\u0433 \u0428\u043e\u0442\u043b\u0430\u043d\u0434\u0438","name:pl":"Nowa Szkocja","name:ta":"\u0ba8\u0bcb\u0bb5\u0bbe \u0bb8\u0bcd\u0b95\u0bcb\u0b9a\u0bbf\u0baf\u0bbe","name:ca":"Nova Esc\u00f2cia","sort_rank":256,"name:hr":"Nova \u0160kotska","name:de":"Neuschottland","source":"openstreetmap.org","name:sq":"Skocia e Re","name:lv":"Jaunskotija","name:tr":"Yeni \u0130sko\u00e7ya","name:uz":"Yangi Shotlandiya","name:he":"\u05e0\u05d5\u05d1\u05d4 \u05e1\u05e7\u05d5\u05d8\u05d9\u05d4","kind":"region","name:ur":"\u0646\u0648\u0648\u0627 \u0633\u06a9\u0648\u0634\u06cc\u0627","name:uk":"\u041d\u043e\u0432\u0430 \u0428\u043e\u0442\u043b\u0430\u043d\u0434\u0456\u044f","name:hy":"\u0546\u0578\u0580 \u0547\u0578\u057f\u056c\u0561\u0576\u0564\u056b\u0561","name:ug":"Nowa Skotiye \u00d6lkisi","name:hu":"\u00daj-Sk\u00f3cia","name:qu":"Nova Scotia pruwinsya","name:oc":"N\u00f2va Esc\u00f2cia","name:el":"\u039d\u03ad\u03b1 \u03a3\u03ba\u03c9\u03c4\u03af\u03b1","name:eo":"Nov-Skotio","name":"Nova Scotia","name:th":"\u0e23\u0e31\u0e10\u0e42\u0e19\u0e27\u0e32\u0e2a\u0e42\u0e01\u0e40\u0e0a\u0e35\u0e22","name:yi":"\u05e0\u05d0\u05d5\u05d5\u05e2 \u05e1\u05e7\u05d0\u05e9\u05e2","name:es":"Nueva Escocia","name:az":"Yeni \u015eotlandiya","name:mr":"\u0928\u094b\u0935\u094d\u0939\u093e \u0938\u094d\u0915\u0949\u0936\u093f\u092f\u093e","name:ar":"\u0646\u0648\u0641\u0627 \u0633\u0643\u0648\u0634\u0627","name:io":"Nova Skotia","name:it":"Nuova Scozia","name:ru":"\u041d\u043e\u0432\u0430\u044f \u0428\u043e\u0442\u043b\u0430\u043d\u0434\u0438\u044f","name:mn":"\u041d\u043e\u0432\u0430 \u0421\u043a\u043e\u0448\u0430","id":-390558,"name:mk":"\u041d\u043e\u0432\u0430 \u0428\u043a\u043e\u0442\u0441\u043a\u0430","name:fa":"\u0646\u0648\u0627 \u0627\u0633\u06a9\u0648\u0634\u06cc\u0627","name:lt":"Naujoji \u0160kotija","kind_detail":"4","name:fr":"Nouvelle-\u00c9cosse","name:fy":"Nij-Skotl\u00e2n","name:zh":"\u65b0\u65af\u79d1\u820d\u7701","name:sl":"Nova \u0160kotska","name:sk":"Nov\u00e9 \u0160k\u00f3tsko","name:ja":"\u30ce\u30d0\u30b9\u30b3\u30b7\u30a2\u5dde","name:br":"Skos Nevez","name:bs":"Nova \u0160kotska","name:eu":"Eskozia Berria","name:be":"\u041f\u0440\u0430\u0432\u0456\u043d\u0446\u044b\u044f \u041d\u043e\u0432\u0430\u044f \u0428\u0430\u0442\u043b\u0430\u043d\u0434\u044b\u044f","name:bg":"\u041d\u043e\u0432\u0430 \u0421\u043a\u043e\u0442\u0438\u044f","name:sr":"\u041d\u043e\u0432\u0430 \u0428\u043a\u043e\u0442\u0441\u043a\u0430","osm_relation":true,"name:ga":"Albain Nua","name:gd":"Alba Nuadh","name:gl":"Nova Escocia","name:gv":"Nalbin Noa"},"arcs":[1]},{"type":"LineString","properties":{"name:pt":"Nova Esc\u00f3cia","name:ka":"\u10d0\u10ee\u10d0\u10da\u10d8 \u10e8\u10dd\u10e2\u10da\u10d0\u10dc\u10d3\u10d8\u10d0","name:ko":"\ub178\ubc14\uc2a4\ucf54\uc0e4 \uc8fc","name:cs":"Nov\u00e9 Skotsko","name:kw":"Alban Nowydh","min_zoom":8.0,"name:az":"Yeni \u015eotlandiya","name:pa":"\u0a28\u0a4b\u0a35\u0a3e \u0a38\u0a15\u0a4b\u0a38\u0a3c\u0a3e","name:os":"\u041d\u043e\u0433 \u0428\u043e\u0442\u043b\u0430\u043d\u0434\u0438","name:pl":"Nowa Szkocja","name:ta":"\u0ba8\u0bcb\u0bb5\u0bbe \u0bb8\u0bcd\u0b95\u0bcb\u0b9a\u0bbf\u0baf\u0bbe","name:ca":"Nova Esc\u00f2cia","source":"openstreetmap.org","sort_rank":256,"name:qu":"Nova Scotia pruwinsya","name:de":"Neuschottland","name:tr":"Yeni \u0130sko\u00e7ya","osm_relation":true,"name:lv":"Jaunskotija","name:lt":"Naujoji \u0160kotija","name:uz":"Yangi Shotlandiya","name:he":"\u05e0\u05d5\u05d1\u05d4 \u05e1\u05e7\u05d5\u05d8\u05d9\u05d4","name:eo":"Nov-Skotio","name:ur":"\u0646\u0648\u0648\u0627 \u0633\u06a9\u0648\u0634\u06cc\u0627","name:uk":"\u041d\u043e\u0432\u0430 \u0428\u043e\u0442\u043b\u0430\u043d\u0434\u0456\u044f","name:hy":"\u0546\u0578\u0580 \u0547\u0578\u057f\u056c\u0561\u0576\u0564\u056b\u0561","name:ug":"Nowa Skotiye \u00d6lkisi","name:hu":"\u00daj-Sk\u00f3cia","name:hr":"Nova \u0160kotska","name:oc":"N\u00f2va Esc\u00f2cia","name:el":"\u039d\u03ad\u03b1 \u03a3\u03ba\u03c9\u03c4\u03af\u03b1","kind":"region","name":"Nova Scotia","name:th":"\u0e23\u0e31\u0e10\u0e42\u0e19\u0e27\u0e32\u0e2a\u0e42\u0e01\u0e40\u0e0a\u0e35\u0e22","name:yi":"\u05e0\u05d0\u05d5\u05d5\u05e2 \u05e1\u05e7\u05d0\u05e9\u05e2","name:es":"Nueva Escocia","name:ro":"Noua Sco\u021bie","name:mr":"\u0928\u094b\u0935\u094d\u0939\u093e \u0938\u094d\u0915\u0949\u0936\u093f\u092f\u093e","name:ar":"\u0646\u0648\u0641\u0627 \u0633\u0643\u0648\u0634\u0627","name:io":"Nova Skotia","name:it":"Nuova Scozia","name:ru":"\u041d\u043e\u0432\u0430\u044f \u0428\u043e\u0442\u043b\u0430\u043d\u0434\u0438\u044f","name:mn":"\u041d\u043e\u0432\u0430 \u0421\u043a\u043e\u0448\u0430","id":-390558,"name:mk":"\u041d\u043e\u0432\u0430 \u0428\u043a\u043e\u0442\u0441\u043a\u0430","name:fa":"\u0646\u0648\u0627 \u0627\u0633\u06a9\u0648\u0634\u06cc\u0627","kind_detail":"4","name:fr":"Nouvelle-\u00c9cosse","name:fy":"Nij-Skotl\u00e2n","name:zh":"\u65b0\u65af\u79d1\u820d\u7701","name:sl":"Nova \u0160kotska","name:sk":"Nov\u00e9 \u0160k\u00f3tsko","name:ja":"\u30ce\u30d0\u30b9\u30b3\u30b7\u30a2\u5dde","name:br":"Skos Nevez","name:bs":"Nova \u0160kotska","name:eu":"Eskozia Berria","name:be":"\u041f\u0440\u0430\u0432\u0456\u043d\u0446\u044b\u044f \u041d\u043e\u0432\u0430\u044f \u0428\u0430\u0442\u043b\u0430\u043d\u0434\u044b\u044f","name:bg":"\u041d\u043e\u0432\u0430 \u0421\u043a\u043e\u0442\u0438\u044f","name:sr":"\u041d\u043e\u0432\u0430 \u0428\u043a\u043e\u0442\u0441\u043a\u0430","name:sq":"Skocia e Re","name:ga":"Albain Nua","name:gd":"Alba Nuadh","name:gl":"Nova Escocia","maritime_boundary":true,"name:gv":"Nalbin Noa"},"arcs":[2]},{"type":"LineString","properties":{"name:pt":"Novo Brunsvique","name:az":"Nyu-Brunsvik","name:ka":"\u10dc\u10d8\u10e3-\u10d1\u10e0\u10d0\u10dc\u10e1\u10e3\u10d8\u10d9\u10d8","name:mr":"\u0928\u094d\u092f\u0942 \u092c\u094d\u0930\u0941\u0928\u094d\u0938\u0935\u093f\u0915","name:ko":"\ub274\ube0c\ub7f0\uc988\uc705","name:ar":"\u0646\u064a\u0648 \u0628\u0631\u0627\u0646\u0632\u0648\u064a\u0643","name:cs":"Nov\u00fd Brun\u0161vik","name:kw":"Brunswick Nowydh","min_zoom":8.0,"name:ro":"Noul Brunswick","name:it":"Nuovo Brunswick","name:ru":"\u041d\u044c\u044e-\u0411\u0440\u0430\u043d\u0441\u0443\u0438\u043a","name:pl":"Nowy Brunszwik","name:mn":"\u041d\u044c\u044e-\u0411\u0440\u0430\u043d\u0441\u0432\u0438\u043a","id":-68942,"name:ca":"Nova Brunsvic","name:af":"Nieu-Brunswyk","name:fa":"\u0646\u06cc\u0648\u0628\u0631\u0627\u0646\u0632\u0648\u06cc\u06a9","sort_rank":256,"kind_detail":"4","name:de":"Neubraunschweig","source":"openstreetmap.org","name:fr":"Nouveau-Brunswick","osm_relation":true,"name:fy":"Nij-Brunswyk","name:zh":"\u65b0\u4f2f\u502b\u745e\u514b","name:sl":"Novi Brunswick","name:lv":"\u0145\u016bbransvika","name:ja":"\u30cb\u30e5\u30fc\u30d6\u30e9\u30f3\u30ba\u30a6\u30a3\u30c3\u30af\u5dde","name:lt":"Naujasis Bransvikas","name:sh":"Novi Brunswick","name:he":"\u05e0\u05d9\u05d5 \u05d1\u05e8\u05e0\u05d6\u05d5\u05d5\u05d9\u05e7","kind":"region","name:br":"Brunswick Nevez","name:bs":"Novi Brunswick","name:la":"Novum Brunsvicum","name:uk":"\u041d\u044c\u044e-\u0411\u0440\u0430\u043d\u0441\u0432\u0456\u043a","name:bg":"\u041d\u044e \u0411\u0440\u044a\u043d\u0437\u0443\u0438\u043a","name:hr":"Novi Brunswick","name:sr":"\u040a\u0443 \u0411\u0440\u0430\u043d\u0441\u0432\u0438\u043a","name:oc":"N\u00f2u Brunswick","name:el":"\u039d\u03ad\u03b1 \u0392\u03c1\u03bf\u03c5\u03bd\u03c3\u03b2\u03af\u03ba\u03b7","name:eo":"Nov-Brunsviko","name":"New Brunswick","name:gd":"Brunswick Nuadh","name:th":"\u0e23\u0e31\u0e10\u0e19\u0e34\u0e27\u0e1a\u0e23\u0e31\u0e19\u0e2a\u0e27\u0e34\u0e01","name:gl":"Nova Brunswick","name:eu":"Brunswick Berria","name:es":"Nuevo Brunswick"},"arcs":[3]},{"type":"LineString","properties":{"name:pt":"Novo Brunsvique","name:az":"Nyu-Brunsvik","name:ka":"\u10dc\u10d8\u10e3-\u10d1\u10e0\u10d0\u10dc\u10e1\u10e3\u10d8\u10d9\u10d8","name:mr":"\u0928\u094d\u092f\u0942 \u092c\u094d\u0930\u0941\u0928\u094d\u0938\u0935\u093f\u0915","name:ko":"\ub274\ube0c\ub7f0\uc988\uc705","name:ar":"\u0646\u064a\u0648 \u0628\u0631\u0627\u0646\u0632\u0648\u064a\u0643","name:cs":"Nov\u00fd Brun\u0161vik","name:kw":"Brunswick Nowydh","min_zoom":8.0,"name:ro":"Noul Brunswick","name:it":"Nuovo Brunswick","name:ru":"\u041d\u044c\u044e-\u0411\u0440\u0430\u043d\u0441\u0443\u0438\u043a","name:pl":"Nowy Brunszwik","name:mn":"\u041d\u044c\u044e-\u0411\u0440\u0430\u043d\u0441\u0432\u0438\u043a","id":-68942,"name:ca":"Nova Brunsvic","name:af":"Nieu-Brunswyk","name:fa":"\u0646\u06cc\u0648\u0628\u0631\u0627\u0646\u0632\u0648\u06cc\u06a9","source":"openstreetmap.org","sort_rank":256,"kind_detail":"4","name:de":"Neubraunschweig","name:oc":"N\u00f2u Brunswick","name:fr":"Nouveau-Brunswick","name:fy":"Nij-Brunswyk","name:zh":"\u65b0\u4f2f\u502b\u745e\u514b","name:sl":"Novi Brunswick","name:lv":"\u0145\u016bbransvika","name:ja":"\u30cb\u30e5\u30fc\u30d6\u30e9\u30f3\u30ba\u30a6\u30a3\u30c3\u30af\u5dde","name:lt":"Naujasis Bransvikas","name:sh":"Novi Brunswick","name:he":"\u05e0\u05d9\u05d5 \u05d1\u05e8\u05e0\u05d6\u05d5\u05d5\u05d9\u05e7","name:eo":"Nov-Brunsviko","name:br":"Brunswick Nevez","name:bs":"Novi Brunswick","name:la":"Novum Brunsvicum","name:uk":"\u041d\u044c\u044e-\u0411\u0440\u0430\u043d\u0441\u0432\u0456\u043a","name:bg":"\u041d\u044e \u0411\u0440\u044a\u043d\u0437\u0443\u0438\u043a","name:hr":"Novi Brunswick","name:sr":"\u040a\u0443 \u0411\u0440\u0430\u043d\u0441\u0432\u0438\u043a","osm_relation":true,"name:el":"\u039d\u03ad\u03b1 \u0392\u03c1\u03bf\u03c5\u03bd\u03c3\u03b2\u03af\u03ba\u03b7","kind":"region","name":"New Brunswick","name:gd":"Brunswick Nuadh","name:th":"\u0e23\u0e31\u0e10\u0e19\u0e34\u0e27\u0e1a\u0e23\u0e31\u0e19\u0e2a\u0e27\u0e34\u0e01","name:gl":"Nova Brunswick","maritime_boundary":true,"name:eu":"Brunswick Berria","name:es":"Nuevo Brunswick"},"arcs":[4]}]},"roads":{"type":"GeometryCollection","geometries":[{"type":"MultiLineString","properties":{"kind":"major_road","network":"CA:NB","sort_rank":380,"kind_detail":"primary","source":"openstreetmap.org","min_zoom":8.0,"landuse_kind":"urban_area","shield_text":"100","ref":"100"},"arcs":[[21],[22],[23],[24],[25],[26],[27],[28],[29],[30],[31],[32]]},{"type":"LineString","properties":{"kind":"major_road","network":"CA:NB","sort_rank":380,"kind_detail":"primary","source":"openstreetmap.org","min_zoom":8.0,"shield_text":"121","id":179912587},"arcs":[33]},{"type":"LineString","properties":{"kind":"major_road","network":"CA:NB","sort_rank":380,"kind_detail":"primary","source":"openstreetmap.org","min_zoom":8.0,"landuse_kind":"park","shield_text":"114","ref":"114"},"arcs":[34]},{"type":"LineString","properties":{"source":"openstreetmap.org","kind":"major_road","network":"CA:NB","sort_rank":380,"kind_detail":"primary","min_zoom":8.0,"shield_text":"119"},"arcs":[35]},{"type":"LineString","properties":{"kind":"major_road","network":"CA:NB","sort_rank":380,"kind_detail":"primary","is_bicycle_related":true,"source":"openstreetmap.org","min_zoom":8.0,"landuse_kind":"urban_area","shield_text":"100","ref":"100","id":19752089},"arcs":[36]},{"type":"MultiLineString","properties":{"kind":"highway","name:en":"Trans-Canada Highway","network":"CA:NB","sort_rank":383,"kind_detail":"motorway","source":"openstreetmap.org","min_zoom":8.0,"all_networks":["CA:NB"],"shield_text":"2","ref":"2","all_shield_texts":["2"]},"arcs":[[37],[38],[39],[40],[41],[42]]},{"type":"LineString","properties":{"source":"openstreetmap.org","kind":"major_road","sort_rank":380,"kind_detail":"primary","ref":"100","min_zoom":8.0,"id":134658547},"arcs":[43]},{"type":"LineString","properties":{"kind":"highway","network":"CA:NB","sort_rank":383,"kind_detail":"motorway","source":"openstreetmap.org","min_zoom":8.0,"all_networks":["CA:NB"],"landuse_kind":"park","shield_text":"1","ref":"1","id":368224677,"all_shield_texts":["1"]},"arcs":[44]},{"type":"LineString","properties":{"kind":"major_road","network":"CA:NB","sort_rank":380,"kind_detail":"primary","source":"openstreetmap.org","min_zoom":8.0,"landuse_kind":"residential","shield_text":"106","ref":"106"},"arcs":[45]},{"type":"LineString","properties":{"source":"openstreetmap.org","kind":"major_road","sort_rank":380,"kind_detail":"primary","ref":"10","min_zoom":8.0,"id":319899465},"arcs":[46]},{"type":"MultiLineString","properties":{"kind":"major_road","network":"CA:NB","sort_rank":380,"kind_detail":"primary","source":"openstreetmap.org","min_zoom":8.0,"landuse_kind":"urban_area","shield_text":"114","ref":"114"},"arcs":[[47],[48],[49],[50]]},{"type":"LineString","properties":{"kind":"major_road","network":"CA:NB","sort_rank":380,"kind_detail":"primary","is_bicycle_related":true,"bicycle_shield_text":"TCT","cycleway":"lane","source":"openstreetmap.org","min_zoom":8.0,"shield_text":"100","bicycle_network":"ncn","ref":"100","id":61682965},"arcs":[51]},{"type":"MultiLineString","properties":{"kind":"major_road","sort_rank":377,"kind_detail":"tertiary","is_bicycle_related":true,"bicycle_shield_text":"TCT","bicycle_network":"ncn","source":"openstreetmap.org","min_zoom":8.0},"arcs":[[52],[53],[54],[55],[56],[57],[58]]},{"type":"LineString","properties":{"kind":"major_road","network":"CA:NB","sort_rank":380,"kind_detail":"primary","source":"openstreetmap.org","min_zoom":8.0,"landuse_kind":"urban_area","shield_text":"106","ref":"106"},"arcs":[59]},{"type":"LineString","properties":{"kind":"minor_road","service":"parking_aisle","sort_rank":356,"kind_detail":"service","is_bicycle_related":true,"bicycle_shield_text":"TCT","bicycle_network":"ncn","source":"openstreetmap.org","min_zoom":8.0,"id":531869574},"arcs":[60]},{"type":"MultiLineString","properties":{"kind":"major_road","network":"CA:NB","sort_rank":380,"kind_detail":"primary","source":"openstreetmap.org","min_zoom":8.0,"shield_text":"121","ref":"121"},"arcs":[[61],[62],[63],[64],[65],[66],[67],[68],[69]]},{"type":"LineString","properties":{"kind":"major_road","network":"CA:NB","sort_rank":380,"kind_detail":"primary","is_bicycle_related":true,"source":"openstreetmap.org","min_zoom":8.0,"shield_text":"124","id":150868970},"arcs":[70]},{"type":"LineString","properties":{"source":"openstreetmap.org","kind":"ferry","name":"Belleisle Bay Ferry","sort_rank":355,"is_bicycle_related":true,"min_zoom":8.0,"id":139192507},"arcs":[71]},{"type":"LineString","properties":{"source":"openstreetmap.org","kind":"ferry","name":"Digby-Saint John Ferry","sort_rank":355,"min_zoom":8.0,"id":84965689},"arcs":[72]},{"type":"MultiLineString","properties":{"kind":"minor_road","sort_rank":360,"kind_detail":"unclassified","is_bicycle_related":true,"bicycle_shield_text":"TCT","bicycle_network":"ncn","source":"openstreetmap.org","min_zoom":8.0},"arcs":[[73],[74]]},{"type":"LineString","properties":{"source":"openstreetmap.org","kind":"major_road","landuse_kind":"urban_area","sort_rank":380,"kind_detail":"primary","min_zoom":8.0},"arcs":[75]},{"type":"LineString","properties":{"kind":"major_road","network":"CA:NB","sort_rank":379,"kind_detail":"secondary","is_bicycle_related":true,"bicycle_shield_text":"TCT","bicycle_network":"ncn","source":"openstreetmap.org","min_zoom":8.0,"shield_text":"820","ref":"820"},"arcs":[76]},{"type":"MultiLineString","properties":{"kind":"major_road","network":"CA:NB","sort_rank":380,"kind_detail":"primary","source":"openstreetmap.org","min_zoom":8.0,"shield_text":"112","ref":"112"},"arcs":[[77],[78],[79]]},{"type":"LineString","properties":{"kind":"major_road","network":"CA:NB","sort_rank":380,"kind_detail":"primary","is_bicycle_related":true,"cycleway":"lane","source":"openstreetmap.org","min_zoom":8.0,"shield_text":"100","bicycle_network":"lcn","ref":"100"},"arcs":[80]},{"type":"MultiLineString","properties":{"kind":"path","footway":"sidewalk","sort_rank":354,"landuse_kind":"urban_area","is_bicycle_related":true,"bicycle_shield_text":"TCT","bicycle_network":"ncn","source":"openstreetmap.org","min_zoom":8.0,"kind_detail":"footway"},"arcs":[[81],[82]]},{"type":"LineString","properties":{"kind":"major_road","sort_rank":377,"kind_detail":"tertiary","is_bicycle_related":true,"bicycle_shield_text":"TCT","bicycle_network":"ncn","source":"openstreetmap.org","min_zoom":8.0,"landuse_kind":"urban_area","id":531827550},"arcs":[83]},{"type":"MultiLineString","properties":{"kind":"major_road","network":"CA:NB","sort_rank":380,"kind_detail":"primary","source":"openstreetmap.org","min_zoom":8.0,"shield_text":"111","ref":"111"},"arcs":[[84],[85],[86]]},{"type":"MultiLineString","properties":{"kind":"path","sort_rank":354,"kind_detail":"footway","is_bicycle_related":true,"bicycle_shield_text":"TCT","bicycle_network":"ncn","source":"openstreetmap.org","min_zoom":8.0},"arcs":[[87],[88],[89],[90],[91],[92],[93],[94],[95],[96],[97],[98]]},{"type":"LineString","properties":{"sort_rank":380,"kind_detail":"primary","min_zoom":8.0,"kind":"major_road","source":"openstreetmap.org"},"arcs":[99]},{"type":"MultiLineString","properties":{"kind":"minor_road","sort_rank":360,"kind_detail":"residential","is_bicycle_related":true,"bicycle_shield_text":"TCT","bicycle_network":"ncn","source":"openstreetmap.org","min_zoom":8.0},"arcs":[[100],[101],[102],[103],[104],[105],[106],[107],[108],[109]]},{"type":"LineString","properties":{"kind":"major_road","network":"CA:NB","sort_rank":380,"kind_detail":"primary","source":"openstreetmap.org","min_zoom":8.0,"landuse_kind":"urban_area","shield_text":"112","ref":"112"},"arcs":[110]},{"type":"MultiLineString","properties":{"kind":"major_road","network":"CA:NB","sort_rank":380,"kind_detail":"primary","source":"openstreetmap.org","min_zoom":8.0,"shield_text":"121","ref":"111"},"arcs":[[111],[112]]},{"type":"LineString","properties":{"source":"openstreetmap.org","kind":"major_road","sort_rank":380,"kind_detail":"primary","ref":"111","min_zoom":8.0},"arcs":[113]},{"type":"LineString","properties":{"kind":"highway","network":"CA:NB","sort_rank":383,"kind_detail":"motorway","source":"openstreetmap.org","min_zoom":8.0,"all_networks":["CA:NB"],"landuse_kind":"urban_area","shield_text":"1","id":19751080,"all_shield_texts":["1"]},"arcs":[114]},{"type":"MultiLineString","properties":{"source":"openstreetmap.org","kind":"major_road","landuse_kind":"urban_area","sort_rank":380,"kind_detail":"primary","ref":"100","min_zoom":8.0},"arcs":[[115],[116]]},{"type":"LineString","properties":{"kind":"major_road","network":"CA:NB","sort_rank":380,"kind_detail":"primary","source":"openstreetmap.org","min_zoom":8.0,"shield_text":"105","ref":"105"},"arcs":[117]},{"type":"LineString","properties":{"kind":"minor_road","sort_rank":360,"kind_detail":"residential","is_bicycle_related":true,"bicycle_shield_text":"TCT","bicycle_network":"ncn","source":"openstreetmap.org","min_zoom":8.0,"landuse_kind":"park","id":531827552},"arcs":[118]},{"type":"MultiLineString","properties":{"kind":"major_road","network":"CA:NB","sort_rank":380,"kind_detail":"primary","source":"openstreetmap.org","min_zoom":8.0,"shield_text":"10","ref":"10"},"arcs":[[119],[120]]},{"type":"MultiLineString","properties":{"kind":"major_road","network":"CA:NB","sort_rank":380,"kind_detail":"primary","source":"openstreetmap.org","min_zoom":8.0,"shield_text":"114","ref":"114"},"arcs":[[121],[122],[123],[124]]},{"type":"LineString","properties":{"kind":"major_road","network":"CA:NB","sort_rank":380,"kind_detail":"primary","is_bicycle_related":true,"bicycle_shield_text":"TCT","bicycle_network":"ncn","source":"openstreetmap.org","min_zoom":8.0,"shield_text":"100","ref":"100"},"arcs":[125]},{"type":"LineString","properties":{"kind":"major_road","network":"CA:NB","sort_rank":380,"kind_detail":"primary","source":"openstreetmap.org","min_zoom":8.0,"landuse_kind":"urban_area","shield_text":"114","ref":"112;114"},"arcs":[126]},{"type":"LineString","properties":{"kind":"major_road","network":"CA:NB","sort_rank":380,"kind_detail":"primary","min_zoom":8.0,"source":"openstreetmap.org","name:fr":"Rue Main","landuse_kind":"park","shield_text":"114","ref":"114","id":72142446},"arcs":[127]},{"type":"LineString","properties":{"kind":"major_road","network":"CA:NB","sort_rank":379,"kind_detail":"secondary","is_bicycle_related":true,"bicycle_shield_text":"TCT","bicycle_network":"ncn","source":"openstreetmap.org","min_zoom":8.0,"shield_text":"860","ref":"860","id":83394963},"arcs":[128]},{"type":"MultiLineString","properties":{"kind":"highway","network":"CA:NB","sort_rank":383,"landuse_kind":"urban_area","source":"openstreetmap.org","min_zoom":8.0,"all_networks":["CA:NB"],"kind_detail":"motorway","shield_text":"1","ref":"1","all_shield_texts":["1"]},"arcs":[[129],[130],[131],[132],[133],[134],[135]]},{"type":"LineString","properties":{"kind":"path","sort_rank":354,"kind_detail":"path","is_bicycle_related":true,"bicycle_shield_text":"TCT","bicycle_network":"ncn","source":"openstreetmap.org","min_zoom":8.0,"landuse_kind":"park"},"arcs":[136]},{"type":"MultiLineString","properties":{"source":"openstreetmap.org","kind":"highway","name:en":"Trans-Canada Highway","sort_rank":383,"kind_detail":"motorway","ref":"2","min_zoom":8.0},"arcs":[[137],[138]]},{"type":"LineString","properties":{"kind":"major_road","network":"CA:NB","sort_rank":381,"kind_detail":"trunk","source":"openstreetmap.org","min_zoom":8.0,"shield_text":"111","ref":"111"},"arcs":[139]},{"type":"MultiLineString","properties":{"kind":"major_road","network":"CA:NB","sort_rank":379,"kind_detail":"secondary","is_bicycle_related":true,"bicycle_shield_text":"TCT","bicycle_network":"ncn","source":"openstreetmap.org","min_zoom":8.0,"shield_text":"845","ref":"845"},"arcs":[[140],[141]]},{"type":"LineString","properties":{"source":"openstreetmap.org","kind":"ferry","name":"Summerville-Millidgeville","sort_rank":355,"min_zoom":8.0,"id":136415906},"arcs":[142]},{"type":"LineString","properties":{"kind":"major_road","network":"CA:NB","sort_rank":380,"kind_detail":"primary","min_zoom":8.0,"source":"openstreetmap.org","name:fr":"Rue Main","shield_text":"114","ref":"114"},"arcs":[143]},{"type":"LineString","properties":{"kind":"major_road","sort_rank":377,"kind_detail":"tertiary","is_bicycle_related":true,"bicycle_shield_text":"TCT","cycleway":"lane","source":"openstreetmap.org","min_zoom":8.0,"bicycle_network":"ncn"},"arcs":[144]},{"type":"MultiLineString","properties":{"kind":"path","sort_rank":354,"landuse_kind":"urban_area","is_bicycle_related":true,"bicycle_shield_text":"TCT","bicycle_network":"ncn","source":"openstreetmap.org","min_zoom":8.0,"kind_detail":"path"},"arcs":[[145],[146],[147],[148],[149]]},{"type":"MultiLineString","properties":{"kind":"highway","network":"CA:NB","sort_rank":383,"kind_detail":"motorway","source":"openstreetmap.org","min_zoom":8.0,"all_networks":["CA:NB"],"shield_text":"1","ref":"1","all_shield_texts":["1"]},"arcs":[[150],[151],[152],[153],[154],[155],[156],[157],[158],[159],[160],[161],[162],[163],[164],[165],[166]]},{"type":"MultiLineString","properties":{"kind":"major_road","network":"CA:NB","sort_rank":380,"kind_detail":"primary","source":"openstreetmap.org","min_zoom":8.0,"shield_text":"106","ref":"106"},"arcs":[[167],[168],[169]]},{"type":"MultiLineString","properties":{"kind":"major_road","network":"CA:NB","sort_rank":380,"kind_detail":"primary","source":"openstreetmap.org","min_zoom":8.0,"shield_text":"100","ref":"100"},"arcs":[[170],[171],[172],[173],[174],[175],[176],[177],[178]]},{"type":"MultiLineString","properties":{"kind":"path","sort_rank":354,"kind_detail":"path","is_bicycle_related":true,"bicycle_shield_text":"TCT","bicycle_network":"ncn","source":"openstreetmap.org","min_zoom":8.0},"arcs":[[179],[180],[181],[182],[183],[184],[185],[186],[187],[188]]},{"type":"MultiLineString","properties":{"kind":"highway","network":"CA:NB","sort_rank":383,"kind_detail":"motorway","name:fr":"Route Transcanadienne","source":"openstreetmap.org","min_zoom":8.0,"all_networks":["CA:NB"],"shield_text":"2","ref":"2","all_shield_texts":["2"]},"arcs":[[189],[190],[191],[192]]},{"type":"LineString","properties":{"kind":"major_road","network":"CA:NB","sort_rank":380,"kind_detail":"primary","source":"openstreetmap.org","min_zoom":8.0,"shield_text":"106","ref":"106;112","id":111021948},"arcs":[193]},{"type":"LineString","properties":{"kind":"major_road","network":"CA:NB","sort_rank":380,"kind_detail":"primary","source":"openstreetmap.org","min_zoom":8.0,"shield_text":"102","ref":"102"},"arcs":[194]},{"type":"LineString","properties":{"kind":"path","sort_rank":354,"kind_detail":"footway","is_bicycle_related":true,"bicycle_shield_text":"TCT","bicycle_network":"ncn","source":"openstreetmap.org","min_zoom":8.0,"landuse_kind":"park"},"arcs":[195]},{"type":"LineString","properties":{"kind":"minor_road","sort_rank":358,"kind_detail":"service","is_bicycle_related":true,"bicycle_shield_text":"TCT","bicycle_network":"ncn","source":"openstreetmap.org","min_zoom":8.0},"arcs":[196]},{"type":"LineString","properties":{"kind":"major_road","network":"CA:NB","sort_rank":380,"kind_detail":"primary","source":"openstreetmap.org","min_zoom":8.0,"shield_text":"119","ref":"119"},"arcs":[197]},{"type":"LineString","properties":{"kind":"path","sort_rank":354,"kind_detail":"footway","is_bicycle_related":true,"bicycle_shield_text":"TCT","bicycle_network":"ncn","source":"openstreetmap.org","min_zoom":8.0,"landuse_kind":"urban_area","id":66353160},"arcs":[198]},{"type":"MultiLineString","properties":{"kind":"major_road","network":"CA:NB","sort_rank":380,"kind_detail":"primary","source":"openstreetmap.org","min_zoom":8.0,"shield_text":"124","ref":"124"},"arcs":[[199],[200],[201]]}]},"earth":{"type":"GeometryCollection","geometries":[{"type":"MultiPolygon","properties":{"sort_rank":10,"source":"naturalearthdata.com","min_zoom":0.0,"kind":"earth","area":88342932293},"arcs":[[[202]],[[203]],[[204]],[[205]],[[206]]]}]},"landuse":{"type":"GeometryCollection","geometries":[{"type":"MultiPolygon","properties":{"kind":"nature_reserve","protect_class":"2","area":146841025,"sort_rank":23,"operator":"Department of Natural Resources","source":"openstreetmap.org","min_zoom":8.0,"tier":2},"arcs":[[[207]]]},{"type":"Polygon","properties":{"kind":"nature_reserve","protect_class":"2","area":14937300,"sort_rank":23,"source":"openstreetmap.org","min_zoom":8.0,"tier":2,"id":184955148},"arcs":[[208]]},{"type":"MultiPolygon","properties":{"source":"openstreetmap.org","kind":"park","tier":2,"area":926416731,"sort_rank":24,"min_zoom":6.0,"osm_relation":true},"arcs":[[[209]]]},{"type":"MultiPolygon","properties":{"kind":"residential","area":14688000,"sort_rank":20,"source":"openstreetmap.org","min_zoom":8.0,"tier":2,"id":-5519687,"osm_relation":true},"arcs":[[[210]],[[211]]]},{"type":"MultiPolygon","properties":{"source":"naturalearthdata.com","kind":"urban_area","name":"","area":380366312,"sort_rank":11,"min_zoom":4.0},"arcs":[[[212]],[[213]],[[214]]]},{"type":"Polygon","properties":{"kind":"nature_reserve","protect_class":"1","area":61216900,"sort_rank":23,"source":"openstreetmap.org","min_zoom":8.0,"tier":2,"id":-4854842,"osm_relation":true},"arcs":[[215]]},{"type":"MultiPolygon","properties":{"source":"openstreetmap.org","kind":"park","tier":2,"area":96514511,"sort_rank":24,"min_zoom":8.0,"osm_relation":true},"arcs":[[[216],[217]],[[218],[219]]]},{"type":"Polygon","properties":{"source":"openstreetmap.org","kind":"military","tier":3,"area":2208991694,"sort_rank":45,"min_zoom":8.0,"osm_relation":true},"arcs":[[220]]}]}},"type":"Topology","transform":{"translate":[-66.09375,45.0890355648],"scale":[0.0003433228,0.000240282]},"arcs":[[[4096,2143],[-345,-281]],[[3751,1862],[-10,-9]],[[3741,1853],[-362,-353],[-194,-735],[-76,-83],[-38,-663],[-32,-19]],[[3738,1862],[13,0]],[[0,437],[213,75],[99,-49],[100,37],[105,-104],[142,85],[229,216],[156,-50],[207,149],[293,92],[89,92],[60,108],[173,115],[100,100],[172,90],[84,93],[426,151],[26,74],[648,136],[416,15]],[[3671,4096],[4,-4],[20,4]],[[176,3374],[-1,-14],[-8,-11],[-29,-22],[-89,-28],[-49,-5],[0,178],[7,0],[12,6],[-1,15],[-3,18],[3,16],[60,93],[66,131],[33,126],[-39,75],[19,60],[59,-35],[29,35],[18,69],[7,15],[73,0],[5,-13],[16,-1],[26,12],[2,2],[80,0],[-67,-31],[-63,-60],[-4,-77],[42,-18],[197,42],[-44,-91],[-86,-61],[-95,-48],[-75,-52],[31,-20],[34,-7],[27,-12],[10,-34],[-15,-28],[-76,-40],[-29,-32],[11,-34],[-19,-30],[-33,-29],[-30,-33],[-12,-27]],[[4096,1197],[0,-754],[-77,-13],[-435,-220],[-294,-210],[-3290,0],[0,659],[30,20],[68,24],[-31,69],[-47,16],[-20,-2],[0,94],[158,-64],[61,-56],[37,-111],[30,-61],[41,-27],[61,-8],[91,-37],[58,-11],[61,14],[104,80],[76,36],[66,77],[31,20],[31,-13],[62,-61],[26,-12],[57,38],[103,132],[107,39],[93,76],[30,12],[173,38],[41,20],[18,32],[8,45],[20,40],[29,29],[88,29],[507,365],[381,213],[434,166],[58,10],[61,26],[150,204],[54,48],[57,36],[64,22],[190,16],[32,-8],[33,-34],[15,-36],[16,-23],[38,5],[45,56],[79,190],[45,41],[17,24],[32,111],[20,35],[7,2],[0,-764],[-55,-17],[-369,-220],[97,-55],[-44,-14],[-70,-35],[-44,-8],[-140,-113],[-38,-73],[-40,-122],[-20,-133],[19,-103],[92,84],[110,27],[108,-21],[89,-59],[17,-7],[36,4],[17,-13],[5,-21],[-19,-30],[4,-21],[13,-42],[-4,-20],[1,-2],[28,9],[39,28],[37,41],[44,35],[60,8],[-30,142],[57,67]],[[0,1030],[0,78],[12,17],[2,22],[-1,22],[5,20],[52,106],[33,94],[111,110],[25,46],[6,17],[13,-21],[13,-40],[6,-42],[3,-90],[-2,-47],[-10,-34],[-93,-117],[-175,-141]],[[4096,3963],[0,-238],[-17,17],[-30,47],[-13,36],[7,41],[26,61],[-39,71],[-100,98],[76,0],[42,-46],[41,-66],[7,-21]],[[3290,0],[294,210],[435,220],[77,13]],[[4096,1197],[-57,-67],[30,-142],[-60,-8],[-44,-35],[-37,-41],[-39,-28],[-28,-9],[-1,2],[4,20],[-13,42],[-4,21],[19,30],[-5,21],[-17,13],[-36,-4],[-17,7],[-89,59],[-108,21],[-110,-27],[-92,-84],[-19,103],[20,133],[40,122],[38,73],[140,113],[44,8],[70,35],[44,14],[-97,55],[369,220],[55,17]],[[4096,3963],[-7,21],[-41,66],[-42,46]],[[3930,4096],[100,-98],[39,-71],[-26,-61],[-7,-41],[13,-36],[30,-47],[17,-17]],[[4096,2645],[-7,-2],[-20,-35],[-32,-111],[-17,-24],[-45,-41],[-79,-190],[-45,-56],[-38,-5],[-16,23],[-15,36],[-33,34],[-32,8],[-190,-16],[-64,-22],[-57,-36],[-54,-48],[-150,-204],[-61,-26],[-58,-10],[-434,-166],[-381,-213],[-507,-365],[-88,-29],[-29,-29],[-20,-40],[-8,-45],[-18,-32],[-41,-20],[-173,-38],[-30,-12],[-93,-76],[-107,-39],[-103,-132],[-57,-38],[-26,12],[-62,61],[-31,13],[-31,-20],[-66,-77],[-76,-36],[-104,-80],[-61,-14],[-58,11],[-91,37],[-61,8],[-41,27],[-30,61],[-37,111],[-61,56],[-158,64]],[[0,1030],[175,141],[93,117],[10,34],[2,47],[-3,90],[-6,42],[-13,40],[-13,21],[-6,-17],[-25,-46],[-111,-110],[-33,-94],[-52,-106],[-5,-20],[1,-22],[-2,-22],[-12,-17]],[[0,786],[20,2],[47,-16],[31,-69],[-68,-24],[-30,-20]],[[176,3374],[-1,-14],[-8,-11],[-29,-22],[-89,-28],[-49,-5]],[[0,3472],[7,0],[12,6],[-1,15],[-3,18],[3,16],[60,93],[66,131],[33,126],[-39,75],[19,60],[59,-35],[29,35],[18,69],[7,15]],[[343,4096],[5,-13],[16,-1],[26,12],[2,2]],[[472,4096],[-67,-31],[-63,-60],[-4,-77],[42,-18],[197,42],[-44,-91],[-86,-61],[-95,-48],[-75,-52],[31,-20],[34,-7],[27,-12],[10,-34],[-15,-28],[-76,-40],[-29,-32],[11,-34],[-19,-30],[-33,-29],[-30,-33],[-12,-27]],[[0,693],[3,3]],[[3,696],[14,12]],[[23,712],[20,27]],[[43,739],[5,28]],[[48,767],[0,7]],[[48,774]],[[48,774]],[[135,825],[64,155]],[[191,999],[3,31]],[[191,999],[4,-12]],[[199,980],[-8,19]],[[197,985],[2,-5]],[[776,1817],[1,0],[0,1],[-1,0],[0,-1]],[[2744,2391],[63,-21],[126,-144],[73,23],[96,-47],[39,-49],[159,-14],[3,-30],[39,19]],[[330,1513],[2,2]],[[17,708],[6,4]],[[0,3119],[132,51],[64,80],[91,21],[122,76],[228,23],[201,237],[90,20],[89,-32],[137,-106],[180,-22],[374,128],[300,-42],[253,84],[197,-3],[81,51],[156,-7],[95,55]],[[2742,3718],[-50,-38],[-154,6],[-80,-50],[-56,6],[-142,-2],[-252,-84],[-190,35],[-111,7],[-90,-18],[-283,-110],[-179,22],[-138,104],[-16,9],[-72,24],[-92,-19],[-49,-45],[-151,-190],[-228,-24],[-96,-55],[-30,-25],[-87,-20],[-33,-15],[-32,-63],[-95,-30],[-36,-17]],[[2905,3899],[-83,-74],[-27,-32]],[[2814,3810],[93,88]],[[3186,4067],[-155,-57],[-78,-70]],[[2955,3938],[78,71],[153,53]],[[125,813],[2,1]],[[116,833],[-7,-8]],[[4005,4087],[-8,9]],[[1633,2670],[3,4]],[[3731,4096],[2,-3]],[[3733,4093],[0,3]],[[3755,4054],[-22,39]],[[3756,4057],[67,39]],[[196,1037],[85,203]],[[292,1367],[-4,-17]],[[341,1456],[-2,1]],[[434,1625],[-82,78]],[[570,1772],[100,92]],[[727,1738],[64,-54],[19,-79]],[[1008,1650],[63,13],[89,-33]],[[1567,1079],[282,174]],[[3627,4049],[97,47]],[[2008,1387],[-3,0]],[[762,1799],[14,18]],[[775,1819],[-27,74],[308,274],[86,130],[288,260],[183,90],[77,-5]],[[775,1819],[1,-1]],[[776,1818],[-1,1]],[[776,1817]],[[776,1818],[0,-1]],[[1690,2642],[8,-2]],[[1784,2588],[-86,52]],[[1785,2588],[-1,0]],[[1157,2282],[-2,3]],[[558,2171],[-30,13]],[[92,690],[20,7],[38,-81],[221,-616]],[[434,1625],[136,147]],[[1346,1573],[-30,86]],[[3818,4094],[-1,2]],[[1160,1630],[54,35],[102,-6]],[[863,3498],[98,58],[36,53],[203,80],[183,218],[196,101],[294,88]],[[2108,4096],[16,-7],[798,-29],[67,-33],[87,-120]],[[3068,3904],[49,-28],[76,61],[193,61],[154,-19],[137,37]],[[282,1240],[71,67]],[[3750,4063],[-14,33]],[[3820,4096]],[[158,946],[-2,-13]],[[557,1015],[33,-11],[63,47],[135,-54],[100,17],[47,-36],[107,53],[81,-13],[160,26],[40,-23],[184,37],[59,-10],[-65,156],[-23,172],[-134,194],[50,118],[159,188],[168,149],[-14,143],[44,82],[37,318]],[[1788,2570],[-4,18]],[[1784,2588],[71,54],[-21,33]],[[69,766],[8,8]],[[100,827],[-1,13]],[[101,802],[2,-2]],[[291,1398],[-10,-25]],[[288,1369],[4,-2]],[[315,1424],[-24,-26]],[[316,1423],[13,23]],[[333,1443],[8,13]],[[339,1457],[5,25]],[[750,1786],[2,4]],[[754,1811],[-2,-6]],[[1993,1390],[12,-3]],[[1784,2588],[-1,0],[1,0]],[[79,775],[-2,-1]],[[100,827],[1,-25]],[[104,798],[-1,2]],[[281,1373],[7,-4]],[[291,1398]],[[316,1423],[-1,1]],[[329,1446],[4,-3]],[[751,1780],[-1,0]],[[766,1881],[-15,0]],[[771,1847],[4,9]],[[3677,4016],[74,40]],[[1783,2589],[0,-1]],[[1784,2588],[0,-1]],[[1788,2568],[0,2]],[[184,975],[-38,-97]],[[191,987]],[[195,987],[2,-2]],[[0,3207],[32,-32],[34,8],[52,70],[141,44],[-35,100],[93,66],[-10,44],[23,44],[121,35]],[[123,866],[-8,-24]],[[1636,2674],[-57,0],[-76,145],[-289,237],[-109,59],[-114,151],[-49,21],[-79,211],[-97,51],[-315,37],[95,207],[30,21],[-14,42],[20,36],[82,59],[-95,105],[31,40]],[[99,4096],[-69,-45],[-30,-15]],[[2744,2391],[-48,44],[-21,146],[-90,71],[-180,28],[-225,224],[-346,-229]],[[3365,2158],[179,206],[104,-48],[294,406],[-7,22],[161,70]],[[4096,3648],[-80,270],[-67,129],[-77,49]],[[3823,4096]],[[727,1738],[24,42]],[[3751,4056],[5,1]],[[3342,2128],[2,2]],[[810,1605],[42,-17],[55,45],[101,17]],[[65,772],[-33,-76],[-32,-24]],[[0,670],[32,25],[26,33],[7,44]],[[146,878],[-3,-13],[-3,-3]],[[140,862],[-24,-29]],[[123,830],[8,8],[9,24]],[[140,862],[42,111],[10,6],[7,7],[11,24]],[[210,1011],[-26,-36]],[[151,920],[-28,-54]],[[2953,3940],[-48,-41]],[[2907,3898],[48,40]],[[340,1221],[126,-59],[91,-147]],[[319,1538],[28,17],[5,148]],[[670,1864],[80,39]],[[0,1008],[33,-44]],[[3344,2130],[21,28]],[[281,1240],[7,110]],[[156,933],[-5,-13]],[[3750,4063],[64,33]],[[3819,4096]],[[3818,4090],[1,5]],[[3819,4096],[1,0]],[[109,825],[-44,-53]],[[65,772],[58,58]],[[116,833]],[[2795,3793],[-1,-40]],[[2794,3753],[0,-38]],[[2794,3715],[0,-4],[19,-58],[-88,-122],[-109,-109],[-174,-215],[-111,-135],[-53,-161],[-115,-56],[-69,-54],[-61,-25],[-123,-118],[-179,31],[-68,-3],[-30,-22],[-27,-72],[-50,-44],[-74,-80],[-105,-41],[-202,-153],[-90,-107],[-95,-170],[-150,-96],[-47,-110],[6,-125],[-1,-1],[-89,-123]],[[709,1542]],[[709,1542],[-61,-26],[-7,-14]],[[641,1502],[-32,-73],[-6,-3],[-2,0]],[[601,1426],[-2,-1],[-6,-2],[-6,-2],[-90,-14],[-52,-44],[-187,-255],[-48,-97]],[[210,1010],[236,352],[50,43],[92,16],[12,3],[1,2]],[[601,1426],[40,76]],[[641,1502],[8,13],[60,27]],[[709,1542]],[[709,1542],[3,1],[88,122],[-5,127],[46,109],[150,95],[94,170],[92,106],[201,154],[104,41],[125,125],[56,94],[247,-29],[124,116],[60,24],[184,113],[55,161],[396,460],[85,122],[-10,30],[-2,8],[-8,24]],[[2794,3715],[-1,5],[-5,15],[6,18]],[[2794,3753],[20,57]],[[2701,3507],[-39,24],[27,57],[109,89],[77,119],[97,29],[40,60],[56,19]],[[3076,3907],[144,114],[219,34],[118,-30],[70,24]],[[4096,4019],[-91,68]],[[84,770],[0,1],[-2,4],[-7,6],[-27,-7]],[[48,774],[26,7],[7,-6],[3,-5]],[[84,770],[32,37]],[[116,807],[11,8]],[[127,815],[8,10]],[[194,1030],[2,7]],[[281,1240],[1,0]],[[353,1307],[80,112],[84,43],[117,218],[93,58]],[[751,1780],[47,12]],[[77,774]],[[750,1786],[0,-6]],[[752,1805],[0,-15]],[[765,1826],[-11,-15]],[[771,1847],[-9,-1]],[[766,1881],[9,-25]],[[2008,1383],[-146,-87],[-12,-72],[-10,27]],[[3795,3986],[37,25],[-14,79]],[[3909,4096],[11,-10]],[[3979,4096],[32,-54],[42,-12],[11,-60],[32,12]],[[2795,3793],[-21,-58],[-32,-17]],[[2790,3733],[24,77]],[[3186,4062],[51,34]],[[3231,4096],[-45,-29]],[[3068,3904],[8,3]],[[0,1776],[47,14],[132,174],[4,120],[-45,39],[-59,-2],[-46,94],[-33,24]],[[115,842],[-16,-2]],[[2008,1383],[0,4]],[[333,1511],[29,-52],[75,-45],[9,-55]],[[42,738],[27,28]],[[183,2084],[6,5]],[[200,2103],[113,28],[32,-14],[115,37],[50,45],[16,-14],[139,169],[17,-16],[37,54],[99,60],[44,-68],[158,-6],[94,-38],[41,-55]],[[1175,2272],[-18,10]],[[4096,3725],[0,-1080],[-7,-2],[-20,-35],[-32,-111],[-17,-24],[-45,-41],[-79,-190],[-45,-56],[-38,-5],[-16,23],[-15,36],[-33,34],[-32,8],[-190,-16],[-64,-22],[-57,-36],[-54,-48],[-150,-204],[-61,-26],[-58,-10],[-434,-166],[-381,-213],[-507,-365],[-88,-29],[-29,-29],[-20,-40],[-8,-45],[-18,-32],[-41,-20],[-173,-38],[-30,-12],[-93,-76],[-107,-39],[-103,-132],[-57,-38],[-26,12],[-62,61],[-31,13],[-31,-20],[-66,-77],[-76,-36],[-104,-80],[-61,-14],[-58,11],[-91,37],[-61,8],[-41,27],[-30,61],[-37,111],[-61,56],[-158,64],[0,150],[175,141],[93,117],[10,34],[2,47],[-3,90],[-6,42],[-13,40],[-13,21],[-6,-17],[-25,-46],[-111,-110],[-33,-94],[-52,-106],[-5,-20],[1,-22],[-2,-22],[-12,-17],[0,2988],[3930,0],[100,-98],[39,-71],[-26,-61],[-7,-41],[13,-36],[30,-47],[17,-17]],[[4096,4096],[0,-133],[-7,21],[-41,66],[-42,46],[90,0]],[[0,659],[0,127],[20,2],[47,-16],[31,-69],[-68,-24],[-30,-20]],[[3290,0],[294,210],[435,220],[77,13],[0,-443],[-806,0]],[[4096,1197],[-57,-67],[30,-142],[-60,-8],[-44,-35],[-37,-41],[-39,-28],[-28,-9],[-1,2],[4,20],[-13,42],[-4,21],[19,30],[-5,21],[-17,13],[-36,-4],[-17,7],[-89,59],[-108,21],[-110,-27],[-92,-84],[-19,103],[20,133],[40,122],[38,73],[140,113],[44,8],[70,35],[44,14],[-97,55],[369,220],[55,17],[0,-684]],[[3611,2888],[24,38],[69,-12],[2,23],[69,10],[6,52],[-60,-3],[-7,27],[33,5],[-29,39],[82,4],[7,-25],[-32,-27],[37,13],[0,57],[47,-18],[-28,78],[40,-16],[30,-72],[-30,-41],[41,-21],[-49,-14],[51,-2],[5,-21],[-40,-20],[10,-32],[-34,10],[28,-69],[-28,-44],[-29,42],[-41,7],[-46,-36],[-23,75],[-43,-43],[-31,50],[-31,-14]],[[2299,1692],[58,45],[55,-137],[-61,-18],[-52,110]],[[2744,2391],[63,-21],[80,19],[111,38],[40,57],[49,23],[229,73],[10,-111],[54,-124],[-10,-42],[-56,-17],[-40,-49],[75,-114],[-66,-87],[-2,-47],[-193,-123],[-182,-46],[3,114],[-36,28],[-30,190],[-56,112],[7,66],[-31,1],[-19,60]],[[4069,4096],[0,-59],[-19,59],[19,0]],[[4047,4096],[-54,-11],[-8,11],[62,0]],[[0,650],[0,131],[67,-9],[31,-69],[-98,-53]],[[0,880],[0,5],[101,1],[32,92],[59,54],[41,-49],[24,-109],[11,-251],[-49,137],[-61,56],[-158,64]],[[3545,4096],[278,0],[-73,-90],[-57,-23],[-19,39],[-129,74]],[[3613,1607],[162,116],[26,-18],[172,118],[123,37],[-2,-80],[-123,-30],[-40,-48],[-14,2],[-44,-6],[-82,-21],[-62,-22],[-16,-13],[-7,-3],[-3,-3],[227,65],[-80,-109],[-57,-11],[-19,38],[-109,11],[-52,-23]],[[45,919],[36,63],[74,-65],[-44,-94],[-66,96]],[[71,884],[7,-4],[15,13],[-14,7],[-8,-16]],[[3347,1010],[56,232],[-4,97],[56,33],[-42,1],[23,46],[53,-2],[5,-32],[-30,9],[-4,0],[-6,-4],[40,-6],[5,-22],[11,-11],[0,37],[39,-76],[-83,-5],[-45,-66],[31,21],[-33,-114],[54,-17],[4,25],[89,21],[68,56],[90,-40],[-5,-19],[-37,18],[32,-17],[-14,-90],[-77,20],[-234,-107],[-42,12]],[[3629,1180],[19,-31],[23,44],[-11,-13],[-31,0]],[[0,2023],[2,-1],[-2,-2],[0,3]]]}