{"objects":{"water":{"type":"GeometryCollection","geometries":[]},"buildings":{"type":"GeometryCollection","geometries":[]},"places":{"type":"GeometryCollection","geometries":[{"type":"Point","properties":{"name:kg":"Misiri","name:ka":"\u10d4\u10d2\u10d5\u10d8\u10de\u10e2\u10d4","name:ko":"\uc774\uc9d1\ud2b8","name:kn":"\u0c88\u0c9c\u0cbf\u0caa\u0ccd\u0c9f\u0ccd","name:cu":"\u0404\u0433\u0477\u043f\u0442\u044a","name:kl":"Egypten","name:cs":"Egypt","name:ki":"Misri","name:kw":"Ejyp","name:kv":"\u0415\u0433\u0438\u043f\u0435\u0442","name:ku":"Misir","name:ti":"\u130d\u1265\u133d","name:ks":"\u0645\u0650\u0633\u0631","name:to":"\u02bbIsipite","name:tl":"Ehipto","name:ce":"\u041c\u0438\u0441\u0440","name:ta":"\u0b8e\u0b95\u0bbf\u0baa\u0bcd\u0ba4\u0bc1","name:tg":"\u041c\u0438\u0441\u0440","name:ca":"Egipte","name:te":"\u0c08\u0c1c\u0c3f\u0c2a\u0c4d\u0c1f\u0c41","name:cy":"Yr Aifft","name:hr":"Egipat","name:da":"Egypten","name:de":"\u00c4gypten","name:dz":"\u0f68\u0f72\u0f0b\u0f47\u0f72\u0f56\u0f4a","source":"openstreetmap.org","name:ts":"Egypt","name:dv":"\u0789\u07a8\u079e\u07b0\u0783\u07aa","name:km":"\u17a2\u17c1\u17a0\u17d2\u179f\u17c9\u17b8\u1794","name:lv":"\u0112\u0123ipte","name:lt":"Egiptas","name:uz":"Misr","name:kk":"\u041c\u044b\u0441\u044b\u0440","name:lb":"Egypten","name:la":"Aegyptus","name:lg":"Misiri","name:uk":"\u0404\u0433\u0438\u043f\u0435\u0442","name:ug":"\u0645\u0649\u0633\u0649\u0631","name:li":"Egypte","name:ln":"Ejipte","name:lo":"\u0ead\u0eb5\u0ea2\u0eb4\u0e9a","name:el":"\u0391\u03af\u03b3\u03c5\u03c0\u03c4\u03bf\u03c2","name:eo":"Egiptujo","name:en":"Egypt","name":"\u0645\u0635\u0631","name:ee":"Egypte nutome","name:th":"\u0e1b\u0e23\u0e30\u0e40\u0e17\u0e28\u0e2d\u0e35\u0e22\u0e34\u0e1b\u0e15\u0e4c","name:eu":"Egipto","name:et":"Egiptus","name:es":"Egipto","name:ia":"Egypto","name:rm":"Egipta","name:rn":"Misiri","name:az":"Misir","name:ie":"Egypt","name:id":"Mesir","name:pa":"Egypt","name:io":"Egiptia","name:ak":"Nisrim","name:am":"\u130d\u1265\u1345","name:it":"Egitto","name:an":"Echipto","name:ru":"\u0415\u0433\u0438\u043f\u0435\u0442","name:af":"Egipte","name:zu":"i-Egypt","name:zh-yue":"\u57c3\u53ca","name:zh":"\u57c3\u53ca","name:so":"Masar","name:sn":"Egypt","name:sm":"Aikupito","name:sl":"Egipt","name:sk":"Egypt","name:ja":"\u30a8\u30b8\u30d7\u30c8","name:si":"\u0d8a\u0da2\u0dd2\u0db4\u0dca\u0dad\u0dd4\u0dc0","name:sh":"Egipat","name:sg":"K\u00e2mit\u00e2","name:se":"Egypta","name:br":"Egipt","name:bs":"Egipat","name:bm":"Misra","name:bn":"\u09ae\u09bf\u09b6\u09b0","name:bo":"\u0f68\u0f60\u0f72\u0f0b\u0f45\u0f72","name:sa":"\u0908\u091c\u093f\u092a\u094d\u091f","name:sw":"Misri","name:be":"\u0415\u0433\u0456\u043f\u0435\u0442","name:bg":"\u0415\u0433\u0438\u043f\u0435\u0442","name:ss":"IGibhithe","name:ba":"\u041c\u044b\u0441\u044b\u0440","name:sq":"Egjipti","name:jv":"Mesir","name:pt":"Egito","name:oc":"Egipte","min_zoom":2.0,"name:ro":"Egipt","name:zh-min-nan":"Ai-ki\u030dp","name:os":"\u041c\u044b\u0441\u044b\u0440","name:or":"\u0b07\u0b1c\u0b3f\u0b2a\u0b4d\u0b1f","name:pl":"Egipt","name:sr":"\u0415\u0433\u0438\u043f\u0430\u0442","name:tr":"M\u0131s\u0131r","name:hi":"\u092e\u093f\u0938\u094d\u0930","name:sv":"Egypten","name:he":"\u05de\u05e6\u05e8\u05d9\u05d9\u05dd","name:ha":"Masar, Misira","name:hy":"\u0535\u0563\u056b\u057a\u057f\u0578\u057d","name:ht":"Ejip","name:hu":"Egyiptom","name:qu":"Ihiptu","population":83082869,"kind":"country","name:is":"Egyptaland","name:yi":"\u05e2\u05d2\u05d9\u05e4\u05d8\u05df","name:yo":"Egypt","name:mt":"E\u0121ittu","alt_name:eo":"Egipto;Egiptio","name:ms":"Mesir","name:mr":"\u0907\u091c\u093f\u092a\u094d\u0924","name:my":"\u1021\u102e\u1002\u103b\u1005\u103a","official_name":"\u062c\u0645\u0647\u0648\u0631\u064a\u0629 \u0645\u0635\u0631 \u0627\u0644\u0639\u0631\u0628\u064a\u0629","int_name":"Egypt - \u0645\u0635\u0631","name:mg":"Ejipta","name:ml":"\u0d08\u0d1c\u0d3f\u0d2a\u0d4d\u0d31\u0d4d\u0d31\u0d4d\u200c","name:vi":"Ai C\u1eadp","name:mn":"\u0415\u0433\u0438\u043f\u0435\u0442","id":424316018,"name:mk":"\u0415\u0433\u0438\u043f\u0435\u0442","name:vo":"L\u00e4g\u00fcpt\u00e4n","name:ff":"Ejipt","name:fi":"Egypti","name:fj":"Ijipta","name:fo":"Egyptaland","name:fr":"\u00c9gypte","name:fy":"Egypte","name:nl":"Egypte","name:nn":"Egypt","name:no":"Egypt","name:na":"Egypt","name:ne":"\u0907\u091c\u093f\u092a\u094d\u091f","name:wa":"Edjipe","name:wo":"Isipt","name:ga":"An \u00c9igipt","name:gd":"An \u00c8ipheit","name:gl":"Exipto - \u0645\u0635\u0631","name:gv":"Yn Egypt","name:gu":"\u0a87\u0a9c\u0abf\u0aaa\u0acd\u0aa4","name:tt":"\u041c\u0438\u0441\u044b\u0440"},"coordinates":[1664,2794]},{"type":"Point","properties":{"source":"naturalearthdata.com","kind":"locality","name":"El Kharga","population":49991,"region_capital":true,"min_zoom":6.0,"id":5871},"coordinates":[3532,1477]},{"type":"Point","properties":{"source":"naturalearthdata.com","kind":"locality","name":"El Qasr","population":1716,"min_zoom":7.0,"id":3578},"coordinates":[1104,1898]}]},"transit":{"type":"GeometryCollection","geometries":[]},"pois":{"type":"GeometryCollection","geometries":[]},"boundaries":{"type":"GeometryCollection","geometries":[]},"roads":{"type":"GeometryCollection","geometries":[{"type":"LineString","properties":{"source":"naturalearthdata.com","kind":"major_road","sort_rank":379,"kind_detail":"secondary","min_zoom":4.0,"id":31763},"arcs":[0]},{"type":"LineString","properties":{"source":"naturalearthdata.com","kind":"major_road","kind_detail":"secondary","sort_rank":379,"landuse_kind":"urban_area","min_zoom":4.0,"id":31764},"arcs":[1]},{"type":"MultiLineString","properties":{"source":"naturalearthdata.com","kind":"major_road","sort_rank":379,"kind_detail":"secondary","min_zoom":4.0,"id":31764},"arcs":[[2],[3]]},{"type":"LineString","properties":{"source":"naturalearthdata.com","kind":"major_road","kind_detail":"secondary","sort_rank":379,"landuse_kind":"urban_area","min_zoom":4.0,"id":31784},"arcs":[4]},{"type":"LineString","properties":{"source":"naturalearthdata.com","kind":"major_road","sort_rank":379,"kind_detail":"secondary","min_zoom":4.0,"id":31784},"arcs":[5]},{"type":"LineString","properties":{"source":"naturalearthdata.com","kind":"major_road","kind_detail":"secondary","sort_rank":379,"landuse_kind":"urban_area","min_zoom":4.0,"id":31925},"arcs":[6]},{"type":"LineString","properties":{"source":"naturalearthdata.com","kind":"major_road","sort_rank":379,"kind_detail":"secondary","min_zoom":4.0,"id":31925},"arcs":[7]},{"type":"LineString","properties":{"source":"naturalearthdata.com","kind":"minor_road","sort_rank":355,"kind_detail":"tertiary","min_zoom":7.0,"id":33667},"arcs":[8]}]},"earth":{"type":"GeometryCollection","geometries":[{"type":"Polygon","properties":{"sort_rank":10,"source":"naturalearthdata.com","kind":"earth","min_zoom":0.0,"id":4715},"arcs":[[9]]}]},"landuse":{"type":"GeometryCollection","geometries":[{"type":"MultiPolygon","properties":{"source":"naturalearthdata.com","kind":"urban_area","name":"","area":438849117,"sort_rank":11,"min_zoom":4.0},"arcs":[[[10]],[[11]]]}]}},"type":"Topology","transform":{"translate":[28.125,24.5271348226],"scale":[0.0006866455,0.0006181619]},"arcs":[[[1265,1547],[30,33],[108,20],[72,33],[49,7],[48,20],[54,20],[24,-13]],[[1200,1656],[23,-63],[18,-40],[12,-3]],[[0,2253],[28,-6],[84,7],[30,7],[78,-47],[42,-20],[96,-27],[54,-13],[72,-20],[139,-7],[30,-13],[12,-14],[24,-46],[30,-27],[42,-13],[30,-47],[30,-27],[12,-13],[84,-13],[78,-20],[66,0],[36,13],[60,-7],[6,-13],[6,-67],[-24,-60],[0,-33],[12,-20],[36,-34],[7,-17]],[[1253,1550],[12,-3]],[[3506,1473],[30,54],[25,16]],[[3561,1543],[47,30],[18,34],[42,133],[6,54],[6,106],[18,87],[0,33],[-18,100],[6,34],[48,120],[30,27],[24,26],[12,34],[0,53],[-12,67],[-24,33],[-12,53],[-6,47],[0,80],[24,180],[12,74],[42,40],[24,60],[24,47],[18,86],[0,87],[12,67],[6,86],[6,54],[30,87],[18,46],[36,54],[18,46],[0,27],[24,67],[24,40],[24,27],[6,86],[2,3]],[[3501,1465],[5,8]],[[1650,1667],[36,-40],[60,-27],[24,-67],[12,-33],[60,-73],[54,-67],[48,-40],[24,-27],[30,-13],[30,-7],[36,-20],[54,-40],[84,-7],[60,-53],[30,-20],[60,-20],[36,-13],[79,-7],[144,40],[102,7],[48,-14],[36,0],[48,47],[36,13],[102,47],[48,40],[18,13],[96,20],[72,27],[72,47],[91,47],[42,-14],[30,27],[42,13],[7,12]],[[1265,1547],[-24,-54],[12,-73],[18,-67],[12,-47],[66,-260],[36,-140],[18,-33],[30,-14],[36,-26],[12,-40],[0,-74],[-30,-113],[-18,-33],[-30,-34],[-72,-33],[-42,-27],[-42,-40],[-78,-80],[-204,-254],[-36,-33],[-48,-7],[-132,-6],[-181,-34],[-54,-6],[-102,13],[-102,-13],[-114,6],[-60,0],[-42,-20],[-10,-5]],[[0,0],[0,4096],[4096,0],[0,-4096],[-4096,0]],[[1244,1537],[-39,15],[-6,111],[30,-49],[51,-22],[-36,-55]],[[3548,1440],[-83,44],[48,66],[81,-12],[-16,-90],[-30,-8]]]}