{"objects":{"water":{"type":"GeometryCollection","geometries":[]},"buildings":{"type":"GeometryCollection","geometries":[]},"places":{"type":"GeometryCollection","geometries":[{"type":"Point","properties":{"name:pt":"Sud\u00e3o","name:ka":"\u10e1\u10e3\u10d3\u10d0\u10dc\u10d8","name:mt":"Sudan","name:ko":"\uc218\ub2e8","name:kn":"\u0cb8\u0cc2\u0ca1\u0cbe\u0ca8\u0ccd","name:km":"\u179f\u17ca\u17bc\u178a\u1784\u17cb","name:kl":"Sudan","name:cs":"S\u00fad\u00e1n","name:ki":"Sudani","name:tr":"Sudan","name:ku":"S\u00fbdan","name:ti":"\u1231\u12f3\u1295","name:ks":"\u0633\u0648\u0657\u0688\u0627\u0646","name:to":"S\u016bteni","name:tl":"Sudan","name:sv":"Sudan","name:or":"\u0b38\u0b41\u0b26\u0b3e\u0b28\u0b4d","name:pl":"Sudan","name:ta":"\u0b9a\u0bc2\u0b9f\u0bbe\u0ba9\u0bcd","name:tg":"\u0421\u0443\u0434\u0430\u043d","name:ca":"Sudan","name:te":"\u0c38\u0c41\u0c21\u0c3e\u0c28\u0c4d","name:hu":"Szud\u00e1n","name:ro":"Sudan","name:cy":"Sudan","name:hr":"Sudan","name:da":"Sudan","name:fr":"Soudan","name:de":"Sudan","name:dz":"\u0f66\u0f74\u0f0b\u0f4c\u0f71\u0f53","source":"openstreetmap.org","name:lv":"Sud\u0101na","name:lt":"Sudanas","name:uz":"Sudan","name:he":"\u05e1\u05d5\u05d3\u05df","kind":"country","name:ur":"\u0633\u0648\u0688\u0627\u0646","name:lb":"Sudan","name:la":"Sudania","name:lg":"Sudaani","name:uk":"\u0421\u0443\u0434\u0430\u043d","name:hy":"\u054d\u0578\u0582\u0564\u0561\u0576","min_zoom":2.0,"name:li":"Soedaan","name:ln":"Sud\u00e1","name:lo":"\u0e8a\u0eb9\u0e94\u0eb2\u0e99","population":39379358,"name:el":"\u03a3\u03bf\u03c5\u03b4\u03ac\u03bd","name:eo":"Sudano","name:en":"Sudan","name":"\u0627\u0644\u0633\u0648\u062f\u0627\u0646","official_name":"\u062c\u0645\u0647\u0648\u0631\u064a\u0629 \u0627\u0644\u0633\u0648\u062f\u0627\u0646","name:ee":"Sudan nutome","name:th":"\u0e1b\u0e23\u0e30\u0e40\u0e17\u0e28\u0e0b\u0e39\u0e14\u0e32\u0e19","name:gu":"\u0ab8\u0ac1\u0aa6\u0abe\u0aa8","name:eu":"Sudan","name:et":"Sudaan","name:nl":"Soedan","name:es":"Sud\u00e1n","name:ia":"Sudan","name:rm":"Sudan","name:rn":"Sudani","name:az":"sudan","name:id":"Sudan","name:ms":"Sudan","name:mr":"\u0938\u0941\u0926\u093e\u0928","name:my":"\u1006\u1030\u1012\u1014\u103a","name:io":"Sudan","int_name":"Sudan","name:is":"S\u00fadan","name:am":"\u1231\u12f3\u1295","name:it":"Sudan","name:vi":"Sudan","name:ru":"\u0421\u0443\u0434\u0430\u043d","name:mn":"\u0421\u0443\u0434\u0430\u043d","id":424297973,"name:mk":"\u0421\u0443\u0434\u0430\u043d","name:af":"Soedan","name:zu":"i-Sudan","name:ha":"Sudan","name:nn":"Sudan","name:ff":"Sudaan","name:fi":"Sudan","name:hi":"\u0938\u0942\u0921\u093e\u0928","name:mg":"Sodan","name:fo":"Nor\u00f0ursudan","name:ba":"\u0421\u0443\u0434\u0430\u043d","name:fy":"S\u00fbdan","name:vo":"Sud\u00e4n","name:zh":"\u82cf\u4e39","name:gv":"Yn Toodaan","name:so":"Suudaan","name:sn":"Sudan","name:sl":"Sudan","name:sk":"Sud\u00e1n","name:ja":"\u30b9\u30fc\u30c0\u30f3","name:si":"\u0dc3\u0dd6\u0da9\u0dcf\u0db1\u0dba","name:fa":"\u0633\u0648\u062f\u0627\u0646","name:sg":"Sud\u00e4an","name:se":"Davvisudan","name:ne":"\u0938\u0941\u0921\u093e\u0928","name:br":"Soudan","name:bs":"Sudan","name:bm":"Suda\u014b","name:bn":"\u09b8\u09c1\u09a6\u09be\u09a8","name:bo":"\u0f66\u0f74\u0f0b\u0f51\u0f71\u0f53\u0f0d","name:ml":"\u0d38\u0d41\u0d21\u0d3e\u0d7b","name:no":"Sudan","name:sw":"Sudani","name:be":"\u0421\u0443\u0434\u0430\u043d","name:bg":"\u0421\u0443\u0434\u0430\u043d","name:sr":"\u0421\u0443\u0434\u0430\u043d","name:ga":"An tS\u00fad\u00e1in","name:gd":"Sudan","name:gl":"Sud\u00e1n","name:yo":"Or\u00edl\u1eb9\u0301\u00e8de Sudani","name:ak":"Sudan","name:tt":"\u0421\u0443\u0434\u0430\u043d"},"coordinates":[1991,998]},{"type":"Point","properties":{"kind":"region","name:en":"North Kurdufan State","name":"North Kurdufan State \u0634\u0645\u0627\u0644 \u0643\u0631\u062f\u0641\u0627\u0646","kind_detail":"state","name:ar":"\u0634\u0645\u0627\u0644 \u0643\u0631\u062f\u0641\u0627\u0646","min_zoom":4.0,"name:de":"Nord-Kurdufan","source":"openstreetmap.org","name:fr":"Kordofan du Nord","name:ru":"\u0421\u0435\u0432\u0435\u0440\u043d\u044b\u0439 \u041a\u043e\u0440\u0434\u043e\u0444\u0430\u043d","id":321446174,"population":1400000},"coordinates":[2731,1626]}]},"transit":{"type":"GeometryCollection","geometries":[]},"pois":{"type":"GeometryCollection","geometries":[]},"boundaries":{"type":"GeometryCollection","geometries":[{"type":"LineString","properties":{"source":"naturalearthdata.com","kind":"macroregion","name":"Northern - North Kordufan","sort_rank":257,"kind_detail":"3","min_zoom":3.0,"id":1816},"arcs":[0]}]},"roads":{"type":"GeometryCollection","geometries":[]},"earth":{"type":"GeometryCollection","geometries":[{"type":"Polygon","properties":{"sort_rank":10,"source":"naturalearthdata.com","kind":"earth","min_zoom":0.0,"id":4704},"arcs":[[1]]}]},"landuse":{"type":"GeometryCollection","geometries":[]}},"type":"Topology","transform":{"translate":[28.125,13.9234038977],"scale":[0.0006866455,0.0006623018]},"arcs":[[[982,4096],[3114,-105]],[[0,0],[0,4096],[4096,0],[0,-4096],[-4096,0]]]}