{"objects":{"water":{"type":"GeometryCollection","geometries":[{"type":"Polygon","properties":{"source":"naturalearthdata.com","kind":"lake","name":"Lake Bunyonyi","area":55774776,"sort_rank":200,"min_zoom":0.0,"id":719},"arcs":[[177]]},{"type":"Polygon","properties":{"source":"naturalearthdata.com","kind":"lake","name":"Lake Edward","area":2224672512,"sort_rank":200,"min_zoom":0.0,"id":504},"arcs":[[178]]},{"type":"Polygon","properties":{"source":"naturalearthdata.com","kind":"lake","name":"Lake Kivu","area":2423699712,"sort_rank":200,"min_zoom":0.0,"id":503},"arcs":[[179],[180]]},{"type":"Point","properties":{"label_placement":true,"kind":"lake","name":"Lake Kivu","area":2423699712,"sort_rank":200,"source":"naturalearthdata.com","min_zoom":0.0,"id":503},"coordinates":[1622,1138]},{"type":"Point","properties":{"label_placement":true,"kind":"lake","name":"Lake Edward","area":2224672512,"sort_rank":200,"source":"naturalearthdata.com","min_zoom":0.0,"id":504},"coordinates":[2139,3538]},{"type":"Point","properties":{"label_placement":true,"kind":"lake","name":"Lake Bunyonyi","area":55774776,"sort_rank":200,"source":"naturalearthdata.com","min_zoom":0.0,"id":719},"coordinates":[2620,2232]},{"type":"MultiLineString","properties":{"source":"naturalearthdata.com","kind":"lake","sort_rank":367,"boundary":true,"min_zoom":0.0,"id":503},"arcs":[[181],[182]]},{"type":"LineString","properties":{"source":"naturalearthdata.com","kind":"lake","sort_rank":367,"boundary":true,"min_zoom":0.0,"id":504},"arcs":[183]},{"type":"LineString","properties":{"source":"naturalearthdata.com","kind":"lake","sort_rank":367,"boundary":true,"min_zoom":0.0,"id":719},"arcs":[184]}]},"buildings":{"type":"GeometryCollection","geometries":[]},"places":{"type":"GeometryCollection","geometries":[{"type":"Point","properties":{"name:pt":"Ruanda","name:ps":"\u0631\u0648\u0646\u062f\u0627","name:ka":"\u10e0\u10e3\u10d0\u10dc\u10d3\u10d0","name:tr":"Ruanda","name:cv":"\u0420\u0443\u0430\u043d\u0434\u0430","name:km":"\u179a\u179c\u17c9\u17b6\u1793\u17cb\u178a\u17b6","name:kk":"\u0420\u0443\u0430\u043d\u0434\u0430","name:tt":"\u0420\u0443\u0430\u043d\u0434\u0430","name:tk":"Ruanda","name:th":"\u0e1b\u0e23\u0e30\u0e40\u0e17\u0e28\u0e23\u0e27\u0e31\u0e19\u0e14\u0e32","name:ti":"\u1229\u12cb\u1295\u12f3","name:ks":"\u0631\u0648\u0657\u0648\u0627\u0646\u065b\u0688\u0627","name:to":"Luanit\u0101","name:tl":"Ruwanda","name:pa":"\u0a30\u0a35\u0a3e\u0a02\u0a21\u0a3e","name:os":"\u0420\u0443\u0430\u043d\u0434\u00e6","name:or":"\u0b30\u0b3e\u0b71\u0b3e\u0b23\u0b4d\u0b21\u0b3e","name:ce":"\u0420\u0443\u0430\u043d\u0434\u0430","name:ta":"\u0bb0\u0bc1\u0bb5\u0bbe\u0ba9\u0bcd\u0b9f\u0bbe","name:tg":"\u0420\u0443\u0430\u043d\u0434\u0430","name:te":"\u0c30\u0c4d\u0c35\u0c3e\u0c02\u0c21\u0c3e","name:hu":"Ruanda","name:wo":"Ruwandaa","name:de":"Ruanda","name:dz":"\u0f62\u0f74\u0f0b\u0f5d\u0f53\u0f0b\u0f4c","source":"openstreetmap.org","name:nv":"W\u00e1nda Dine\u02bc\u00e9 Bik\u00e9yah","name:kn":"\u0cb0\u0cc1\u0cb5\u0cbe\u0c82\u0ca1\u0cbe","name:yi":"\u05e8\u05d5\u05d5\u05d0\u05e0\u05d3\u05e2","name:dv":"\u0783\u07aa\u0788\u07a7\u0782\u07b0\u0791\u07a7","name:lv":"Ruanda","name:lt":"Ruanda","name:uz":"Ruanda","name:he":"\u05e8\u05d5\u05d0\u05e0\u05d3\u05d4","kind":"country","name:ur":"\u0631\u0648\u0627\u0646\u0688\u0627","name:lb":"Ruanda","name:la":"Ruanda","official_name":"Republic of Rwanda;Repubulika y'u Rwanda;R\u00e9publique du Rwanda","name:uk":"\u0420\u0443\u0430\u043d\u0434\u0430","name:hy":"\u054c\u0578\u0582\u0561\u0576\u0564\u0561","name:ug":"\u0631\u06cb\u0627\u0646\u062f\u0627","name:li":"Roeanda","name:hr":"Ruanda","name:lo":"\u0ead\u0eb2\u0ea7\u0eb1\u0e99\u0e94\u0eb2","population":11400000,"name:el":"\u03a1\u03bf\u03c5\u03ac\u03bd\u03c4\u03b1","name:eo":"Ruando","name":"Rwanda","name:ee":"Rwanda nutome","min_zoom":2.0,"name:eu":"Ruanda","name:es":"Ruanda","name:ia":"Ruanda","name:rm":"Ruanda","name:rn":"u Rwanda","name:az":"Rvanda","name:mr":"\u0930\u0935\u093e\u0902\u0921\u093e","name:ar":"\u0631\u0648\u0627\u0646\u062f\u0627","name:my":"\u101b\u101d\u1014\u103a\u1012\u102b","name:io":"Ruanda","name:is":"R\u00faanda","name:am":"\u1229\u12cb\u1295\u12f3","name:it":"Ruanda","name:an":"Ruanda","name:ru":"\u0420\u0443\u0430\u043d\u0434\u0430","name:mn":"\u0420\u0443\u0430\u043d\u0434\u0430","id":424311738,"name:mk":"\u0420\u0443\u0430\u043d\u0434\u0430","name:vo":"Ruand\u00e4n","name:zu":"i-Rwanda","name:ha":"Ruwanda","name:ff":"Ruwanndaa","name:fi":"Ruanda","name:hi":"\u0930\u0942\u0906\u0923\u094d\u0921\u093e","name:mg":"Roanda","name:fo":"Ruanda","name:zh-yue":"\u76e7\u65fa\u9054","name:fy":"R\u00fbanda","name:zh":"\u5362\u65fa\u8fbe","name:gv":"Rooandey","name:so":"Ruwanda","name:sr":"\u0420\u0443\u0430\u043d\u0434\u0430","name:sl":"Ruanda","name:ja":"\u30eb\u30ef\u30f3\u30c0","name:si":"\u0dbb\u0dd4\u0dc0\u0db1\u0dca\u0da9\u0dcf\u0dc0","name:sh":"Ruanda","name:sg":"Ruand\u00e4a","name:sc":"Ruanda","name:ne":"\u0930\u0935\u093e\u0923\u094d\u0921\u093e","name:sa":"\u0930\u0935\u093e\u0923\u094d\u0921\u093e","name:bs":"Ruanda","name:bm":"Ruwanda","name:bn":"\u09b0\u09c1\u09af\u09bc\u09be\u09a8\u09cd\u09a1\u09be","name:bo":"\u0f62\u0f74\u0f0b\u0f5d\u0f53\u0f0b\u0f4c\u0f0d","name:ml":"\u0d31\u0d41\u0d35\u0d3e\u0d23\u0d4d\u0d1f","name:be":"\u0420\u0443\u0430\u043d\u0434\u0430","name:bg":"\u0420\u0443\u0430\u043d\u0434\u0430","name:ss":"IRuwanda","name:ba":"\u0420\u0443\u0430\u043d\u0434\u0430","name:sq":"Ruanda","name:ko":"\ub974\uc644\ub2e4","name:ga":"Ruanda","name:gd":"Ruanda","name:gl":"Ruanda","name:fa":"\u0631\u0648\u0627\u0646\u062f\u0627","name:yo":"Or\u00edl\u1eb9\u0301\u00e8de Ruwanda","name:gu":"\u0ab0\u0ab5\u0abe\u0a82\u0aa1\u0abe"},"coordinates":[2825,1234]},{"type":"Point","properties":{"admin_level":"4","kind":"region","name:en":"Western Province, Rwanda","name":"Iburengerazuba","kind_detail":"state","name:cs":"Z\u00e1padn\u00ed provincie (Rwanda)","name:de":"West Provinz","source":"openstreetmap.org","min_zoom":4.0,"id":4346193509},"coordinates":[1568,629]},{"type":"Point","properties":{"admin_level":"4","kind":"region","name:en":"Kigali City","name":"Umujyi wa Kigali","kind_detail":"state","name:de":"Kigali","source":"openstreetmap.org","min_zoom":4.0,"id":4353399472},"coordinates":[2920,1348]},{"type":"Point","properties":{"admin_level":"4","kind":"region","name:en":"Northern Province, Rwanda","name":"majyaruguru","alt_name:de":"Nordprovinz","kind_detail":"state","name:cs":"Severn\u00ed provincie (Rwanda)","source":"openstreetmap.org","min_zoom":4.0,"id":4346195932},"coordinates":[2624,1793]},{"type":"Point","properties":{"admin_level":"4","kind":"region","name:en":"North Kivu","name":"Nord-Kivu","kind_detail":"state","name:de":"Nordkivu","source":"openstreetmap.org","min_zoom":4.0,"id":4346329231},"coordinates":[846,3273]},{"type":"Point","properties":{"admin_level":"4","kind":"region","name":"Western Region","source":"openstreetmap.org","kind_detail":"state","min_zoom":4.0,"id":4345081630},"coordinates":[3709,3142]},{"type":"Point","properties":{"admin_level":"4","kind":"region","name:en":"Southern Province, Rwanda","name":"Amajvepfo","alt_name:de":"S\u00fcd Provinz","kind_detail":"state","name:cs":"Ji\u017en\u00ed provincie (Rwanda)","source":"openstreetmap.org","min_zoom":4.0,"id":4346189875},"coordinates":[2157,268]},{"type":"Point","properties":{"source":"openstreetmap.org","kind":"region","name":"Kirundo","kind_detail":"province","min_zoom":4.0,"id":1387564891},"coordinates":[2971,365]},{"type":"Point","properties":{"source":"openstreetmap.org","kind":"region","name":"Muyinga","kind_detail":"province","min_zoom":4.0,"id":1383494996},"coordinates":[3174,95]},{"type":"Point","properties":{"admin_level":"4","kind":"region","name":"Muyinga","source":"openstreetmap.org","kind_detail":"state","min_zoom":4.0,"id":4353406216},"coordinates":[3255,147]},{"type":"Point","properties":{"source":"naturalearthdata.com","kind":"locality","name":"Kigali","country_capital":true,"population":860000,"min_zoom":5.0,"id":6292},"coordinates":[2816,1253]},{"type":"Point","properties":{"source":"naturalearthdata.com","kind":"locality","name":"Goma","population":144124,"region_capital":true,"min_zoom":5.0,"id":6560},"coordinates":[1597,1650]},{"type":"Point","properties":{"source":"naturalearthdata.com","kind":"locality","name":"Bukavu","population":436779,"min_zoom":6.0,"id":5890},"coordinates":[1041,439]},{"type":"Point","properties":{"source":"naturalearthdata.com","kind":"locality","name":"Nyanza","population":225209,"min_zoom":7.0,"id":2538},"coordinates":[2352,673]},{"type":"Point","properties":{"source":"naturalearthdata.com","kind":"locality","name":"Gitarama","population":87613,"region_capital":true,"min_zoom":7.0,"id":2539},"coordinates":[2381,1081]},{"type":"Point","properties":{"source":"naturalearthdata.com","kind":"locality","name":"Ruhengeri","population":86685,"region_capital":true,"min_zoom":7.0,"id":2544},"coordinates":[2192,1911]},{"type":"Point","properties":{"source":"naturalearthdata.com","kind":"locality","name":"Mbarara","population":83700,"region_capital":true,"min_zoom":7.0,"id":2500},"coordinates":[3677,3222]},{"type":"Point","properties":{"source":"naturalearthdata.com","kind":"locality","name":"Gisenyi","population":83623,"region_capital":true,"min_zoom":7.0,"id":2541},"coordinates":[1657,1642]},{"type":"Point","properties":{"source":"naturalearthdata.com","kind":"locality","name":"Butare","population":77000,"region_capital":true,"min_zoom":7.0,"id":2540},"coordinates":[2337,323]},{"type":"Point","properties":{"source":"naturalearthdata.com","kind":"locality","name":"Byumba","population":70593,"region_capital":true,"min_zoom":7.0,"id":2543},"coordinates":[2818,1795]},{"type":"Point","properties":{"source":"naturalearthdata.com","kind":"locality","name":"Kabale","population":44600,"region_capital":true,"min_zoom":7.0,"id":2501},"coordinates":[2701,2275]},{"type":"Point","properties":{"source":"naturalearthdata.com","kind":"locality","name":"Cyangugu","population":19900,"region_capital":true,"min_zoom":7.0,"id":2542},"coordinates":[1129,483]},{"type":"Point","properties":{"source":"naturalearthdata.com","kind":"locality","name":"Ngara","population":16890,"min_zoom":7.0,"id":2492},"coordinates":[3677,498]},{"type":"Point","properties":{"source":"naturalearthdata.com","kind":"locality","name":"Katwe","population":1957,"min_zoom":7.0,"id":2499},"coordinates":[2614,3907]}]},"transit":{"type":"GeometryCollection","geometries":[]},"pois":{"type":"GeometryCollection","geometries":[{"type":"Point","properties":{"kind":"protected_area","protect_class":"2","area":168423000,"source":"openstreetmap.org","min_zoom":7.0,"tier":2,"id":-5987145,"osm_relation":true,"name":"Kyambura Game Reserve"},"coordinates":[2953,3913]},{"type":"Point","properties":{"kind":"national_park","tier":1,"protect_class":"2","area":370165000,"source":"openstreetmap.org","min_zoom":6.52,"operator":"Uganda Wildlife Authority","id":-3110475,"osm_relation":true,"name":"Lake Mburo National Park"},"coordinates":[4083,3204]},{"type":"Point","properties":{"kind":"national_park","name":"Akagera National Park","area":1086040000,"source":"openstreetmap.org","min_zoom":5.75,"tier":1,"id":-1708935,"osm_relation":true},"coordinates":[3812,1702]},{"type":"Point","properties":{"kind":"nature_reserve","name":"R\u00e9serve des primates de Kisimba-Ikobo","area":977143000,"source":"openstreetmap.org","min_zoom":7.32,"tier":2,"id":-1359815,"osm_relation":true},"coordinates":[972,3003]},{"type":"Point","properties":{"kind":"protected_area","name:en":"Tayna Gorilla Reserve","name":"R\u00e9serve des gorilles de Tayna","area":905785000,"source":"openstreetmap.org","min_zoom":7.0,"tier":2,"id":-1347461,"osm_relation":true},"coordinates":[947,3579]},{"type":"Point","properties":{"kind":"national_park","protect_class":"2","area":324864000,"source":"openstreetmap.org","min_zoom":6.62,"tier":1,"id":-934542,"osm_relation":true,"name":"Bwindi Impenetrable National Park"},"coordinates":[2219,2634]},{"type":"Point","properties":{"source":"openstreetmap.org","kind":"protected_area","name":"Gishwati Natural Reserve","area":194082000,"tier":2,"min_zoom":7.0,"id":125848631},"coordinates":[1886,1510]}]},"boundaries":{"type":"GeometryCollection","geometries":[{"type":"LineString","properties":{"source":"naturalearthdata.com","kind":"country","sort_rank":262,"kind_detail":"2","min_zoom":0.0,"id":268},"arcs":[0]},{"type":"MultiLineString","properties":{"source":"naturalearthdata.com","kind":"country","sort_rank":262,"kind_detail":"2","min_zoom":0.0,"id":163},"arcs":[[1],[2],[3],[4],[5],[6],[7],[8],[9],[10],[11],[12],[13],[14],[15],[16],[17],[18],[19],[20]]},{"type":"MultiLineString","properties":{"source":"naturalearthdata.com","kind":"country","sort_rank":262,"kind_detail":"2","min_zoom":0.0,"id":185},"arcs":[[21],[22],[23],[24],[25],[26],[27],[28],[29]]},{"type":"MultiLineString","properties":{"source":"naturalearthdata.com","kind":"country","sort_rank":262,"kind_detail":"2","min_zoom":0.0,"id":267},"arcs":[[30],[31],[32],[33],[34],[35],[36],[37],[38],[39],[40]]},{"type":"MultiLineString","properties":{"source":"naturalearthdata.com","kind":"country","sort_rank":262,"kind_detail":"2","min_zoom":0.0,"id":269},"arcs":[[41],[42],[43]]},{"type":"LineString","properties":{"source":"naturalearthdata.com","kind":"country","sort_rank":262,"kind_detail":"2","min_zoom":0.0,"id":270},"arcs":[44]},{"type":"MultiLineString","properties":{"source":"naturalearthdata.com","kind":"country","sort_rank":262,"kind_detail":"2","min_zoom":0.0,"id":271},"arcs":[[45],[46],[47]]},{"type":"MultiLineString","properties":{"source":"naturalearthdata.com","kind":"country","sort_rank":262,"kind_detail":"2","min_zoom":0.0,"id":362},"arcs":[[48],[49],[50],[51],[52],[53],[54]]},{"type":"LineString","properties":{"source":"naturalearthdata.com","kind":"country","sort_rank":262,"kind_detail":"2","min_zoom":0.0,"id":395},"arcs":[55]},{"type":"MultiLineString","properties":{"source":"naturalearthdata.com","kind":"region","name":"Nord-Kivu - Sud-Kivu","sort_rank":256,"kind_detail":"4","min_zoom":5.5,"id":4410},"arcs":[[56],[57],[58],[59],[60],[61],[62],[63]]},{"type":"LineString","properties":{"source":"naturalearthdata.com","kind":"region","name":"Ngozi - Kirundo","sort_rank":256,"kind_detail":"4","min_zoom":7.0,"id":7617},"arcs":[64]},{"type":"LineString","properties":{"source":"naturalearthdata.com","kind":"region","name":"Cibitoke - Kayanza","sort_rank":256,"kind_detail":"4","min_zoom":7.0,"id":7629},"arcs":[65]},{"type":"LineString","properties":{"source":"naturalearthdata.com","kind":"region","name":"Northern - Western","sort_rank":256,"kind_detail":"4","min_zoom":6.8,"id":7931},"arcs":[66]},{"type":"LineString","properties":{"source":"naturalearthdata.com","kind":"region","name":"Mbarara - Sheema","sort_rank":256,"kind_detail":"4","min_zoom":7.0,"id":5888},"arcs":[67]},{"type":"LineString","properties":{"source":"naturalearthdata.com","kind":"region","name":"Mbarara - Buhweju","sort_rank":256,"kind_detail":"4","min_zoom":7.0,"id":5889},"arcs":[68]},{"type":"LineString","properties":{"source":"naturalearthdata.com","kind":"region","name":"Kamwenge - Rubirizi","sort_rank":256,"kind_detail":"4","min_zoom":7.0,"id":5890},"arcs":[69]},{"type":"LineString","properties":{"source":"naturalearthdata.com","kind":"region","name":"Mbarara - Ibanda","sort_rank":256,"kind_detail":"4","min_zoom":7.0,"id":5373},"arcs":[70]},{"type":"MultiLineString","properties":{"source":"naturalearthdata.com","kind":"region","name":"Kamwenge - Ibanda","sort_rank":256,"kind_detail":"4","min_zoom":7.0,"id":5383},"arcs":[[71],[72]]},{"type":"LineString","properties":{"source":"naturalearthdata.com","kind":"region","name":"Ibanda - Mbarara","sort_rank":256,"kind_detail":"4","min_zoom":7.0,"id":5436},"arcs":[73]},{"type":"LineString","properties":{"source":"naturalearthdata.com","kind":"region","name":"Mbarara - Mbarara","sort_rank":256,"kind_detail":"4","min_zoom":7.0,"id":5437},"arcs":[74]},{"type":"MultiLineString","properties":{"source":"naturalearthdata.com","kind":"region","name":"Isingiro - Mbarara","sort_rank":256,"kind_detail":"4","min_zoom":7.0,"id":5440},"arcs":[[75],[76],[77],[78],[79]]},{"type":"MultiLineString","properties":{"source":"naturalearthdata.com","kind":"region","name":"Isingiro - Mbarara","sort_rank":256,"kind_detail":"4","min_zoom":7.0,"id":5441},"arcs":[[80],[81],[82]]},{"type":"MultiLineString","properties":{"source":"naturalearthdata.com","kind":"region","name":"Mbarara - Ntungamo","sort_rank":256,"kind_detail":"4","min_zoom":7.0,"id":5442},"arcs":[[83],[84],[85],[86],[87],[88]]},{"type":"LineString","properties":{"source":"naturalearthdata.com","kind":"region","name":"Isingiro - Ntungamo","sort_rank":256,"kind_detail":"4","min_zoom":7.0,"id":5443},"arcs":[89]},{"type":"LineString","properties":{"source":"naturalearthdata.com","kind":"region","name":"Ntungamo - Rukungiri","sort_rank":256,"kind_detail":"4","min_zoom":7.0,"id":5865},"arcs":[90]},{"type":"MultiLineString","properties":{"source":"naturalearthdata.com","kind":"region","name":"Kanungu - Rukungiri","sort_rank":256,"kind_detail":"4","min_zoom":7.0,"id":5866},"arcs":[[91],[92],[93],[94]]},{"type":"LineString","properties":{"source":"naturalearthdata.com","kind":"region","name":"Ntungamo - Rukungiri","sort_rank":256,"kind_detail":"4","min_zoom":7.0,"id":5879},"arcs":[95]},{"type":"MultiLineString","properties":{"source":"naturalearthdata.com","kind":"region","name":"Ntungamo - Kabale","sort_rank":256,"kind_detail":"4","min_zoom":7.0,"id":5880},"arcs":[[96],[97],[98]]},{"type":"MultiLineString","properties":{"source":"naturalearthdata.com","kind":"region","name":"Kanungu - Kabale","sort_rank":256,"kind_detail":"4","min_zoom":7.0,"id":5881},"arcs":[[99],[100],[101]]},{"type":"LineString","properties":{"source":"naturalearthdata.com","kind":"region","name":"Kabale - Rukungiri","sort_rank":256,"kind_detail":"4","min_zoom":7.0,"id":5882},"arcs":[102]},{"type":"MultiLineString","properties":{"source":"naturalearthdata.com","kind":"region","name":"Kisoro - Kanungu","sort_rank":256,"kind_detail":"4","min_zoom":7.0,"id":5883},"arcs":[[103],[104],[105]]},{"type":"LineString","properties":{"source":"naturalearthdata.com","kind":"region","name":"Kabale - Kisoro","sort_rank":256,"kind_detail":"4","min_zoom":7.0,"id":5884},"arcs":[106]},{"type":"MultiLineString","properties":{"source":"naturalearthdata.com","kind":"region","name":"Ibanda - Buhweju","sort_rank":256,"kind_detail":"4","min_zoom":7.0,"id":5887},"arcs":[[107],[108],[109]]},{"type":"MultiLineString","properties":{"source":"naturalearthdata.com","kind":"region","name":"Mitooma - Ntungamo","sort_rank":256,"kind_detail":"4","min_zoom":7.0,"id":5891},"arcs":[[110],[111],[112],[113]]},{"type":"MultiLineString","properties":{"source":"naturalearthdata.com","kind":"region","name":"Sheema - Ntungamo","sort_rank":256,"kind_detail":"4","min_zoom":7.0,"id":5892},"arcs":[[114],[115]]},{"type":"LineString","properties":{"source":"naturalearthdata.com","kind":"region","name":"Rukungiri - Bushenyi","sort_rank":256,"kind_detail":"4","min_zoom":7.0,"id":5893},"arcs":[116]},{"type":"LineString","properties":{"source":"naturalearthdata.com","kind":"region","name":"Rukungiri - Rubirizi","sort_rank":256,"kind_detail":"4","min_zoom":7.0,"id":5894},"arcs":[117]},{"type":"LineString","properties":{"source":"naturalearthdata.com","kind":"region","name":"Rukungiri - Mitooma","sort_rank":256,"kind_detail":"4","min_zoom":7.0,"id":5895},"arcs":[118]},{"type":"LineString","properties":{"source":"naturalearthdata.com","kind":"region","name":"Kamwenge - Kasese","sort_rank":256,"kind_detail":"4","min_zoom":7.0,"id":5975},"arcs":[119]},{"type":"MultiLineString","properties":{"source":"naturalearthdata.com","kind":"region","name":"Rubirizi - Kasese","sort_rank":256,"kind_detail":"4","min_zoom":7.0,"id":5976},"arcs":[[120],[121],[122]]},{"type":"MultiLineString","properties":{"source":"naturalearthdata.com","kind":"region","name":"Kirundo - Muyinga","sort_rank":256,"kind_detail":"4","min_zoom":7.0,"id":7618},"arcs":[[123],[124],[125]]},{"type":"LineString","properties":{"source":"naturalearthdata.com","kind":"region","name":"Ngozi - Muyinga","sort_rank":256,"kind_detail":"4","min_zoom":7.0,"id":7619},"arcs":[126]},{"type":"LineString","properties":{"source":"naturalearthdata.com","kind":"region","name":"Kayanza - Ngozi","sort_rank":256,"kind_detail":"4","min_zoom":7.0,"id":7620},"arcs":[127]},{"type":"LineString","properties":{"source":"naturalearthdata.com","kind":"region","name":"Kigali City - Southern","sort_rank":256,"kind_detail":"4","min_zoom":6.8,"id":7924},"arcs":[128]},{"type":"LineString","properties":{"source":"naturalearthdata.com","kind":"region","name":"Eastern - Southern","sort_rank":256,"kind_detail":"4","min_zoom":6.8,"id":7923},"arcs":[129]},{"type":"MultiLineString","properties":{"source":"naturalearthdata.com","kind":"region","name":"Kigali City - Eastern","sort_rank":256,"kind_detail":"4","min_zoom":6.8,"id":7925},"arcs":[[130],[131],[132],[133],[134]]},{"type":"LineString","properties":{"source":"naturalearthdata.com","kind":"region","name":"Kigali City - Northern","sort_rank":256,"kind_detail":"4","min_zoom":6.8,"id":7926},"arcs":[135]},{"type":"MultiLineString","properties":{"source":"naturalearthdata.com","kind":"region","name":"Kigali City - Northern","sort_rank":256,"kind_detail":"4","min_zoom":6.8,"id":7927},"arcs":[[136],[137],[138],[139],[140],[141]]},{"type":"MultiLineString","properties":{"source":"naturalearthdata.com","kind":"region","name":"Western - Southern","sort_rank":256,"kind_detail":"4","min_zoom":6.8,"id":7928},"arcs":[[142],[143],[144],[145],[146],[147],[148],[149],[150]]},{"type":"MultiLineString","properties":{"source":"naturalearthdata.com","kind":"region","name":"Northern - Southern","sort_rank":256,"kind_detail":"4","min_zoom":6.8,"id":7929},"arcs":[[151],[152],[153],[154],[155],[156]]},{"type":"MultiLineString","properties":{"source":"naturalearthdata.com","kind":"region","name":"Northern - Western","sort_rank":256,"kind_detail":"4","min_zoom":6.8,"id":7930},"arcs":[[157],[158],[159],[160],[161]]},{"type":"MultiLineString","properties":{"source":"naturalearthdata.com","kind":"region","name":"Northern - Eastern","sort_rank":256,"kind_detail":"4","min_zoom":6.8,"id":7932},"arcs":[[162],[163],[164]]},{"type":"LineString","properties":{"source":"naturalearthdata.com","kind":"region","name":"Geita - Kagera","sort_rank":256,"kind_detail":"4","min_zoom":6.8,"id":9129},"arcs":[165]},{"type":"LineString","properties":{"source":"naturalearthdata.com","kind":"region","name":"Ibanda - Rubirizi","sort_rank":256,"kind_detail":"4","min_zoom":7.0,"id":9173},"arcs":[166]},{"type":"LineString","properties":{"source":"naturalearthdata.com","kind":"region","name":"Buhweju - Rubirizi","sort_rank":256,"kind_detail":"4","min_zoom":6.8,"id":9174},"arcs":[167]},{"type":"MultiLineString","properties":{"source":"naturalearthdata.com","kind":"region","name":"Bushenyi - Rubirizi","sort_rank":256,"kind_detail":"4","min_zoom":6.8,"id":9175},"arcs":[[168],[169]]},{"type":"LineString","properties":{"source":"naturalearthdata.com","kind":"region","name":"Buhweju - Bushenyi","sort_rank":256,"kind_detail":"4","min_zoom":6.8,"id":9176},"arcs":[170]},{"type":"LineString","properties":{"source":"naturalearthdata.com","kind":"region","name":"Buhweju - Sheema","sort_rank":256,"kind_detail":"4","min_zoom":6.8,"id":9177},"arcs":[171]},{"type":"LineString","properties":{"source":"naturalearthdata.com","kind":"region","name":"Sheema - Bushenyi","sort_rank":256,"kind_detail":"4","min_zoom":6.8,"id":9178},"arcs":[172]},{"type":"LineString","properties":{"source":"naturalearthdata.com","kind":"region","name":"Mitooma - Sheema","sort_rank":256,"kind_detail":"4","min_zoom":6.8,"id":9179},"arcs":[173]},{"type":"MultiLineString","properties":{"source":"naturalearthdata.com","kind":"region","name":"Mitooma - Bushenyi","sort_rank":256,"kind_detail":"4","min_zoom":6.8,"id":9180},"arcs":[[174],[175],[176]]}]},"roads":{"type":"GeometryCollection","geometries":[{"type":"LineString","properties":{"source":"naturalearthdata.com","kind":"major_road","kind_detail":"secondary","sort_rank":379,"landuse_kind":"park","min_zoom":4.0,"id":41573},"arcs":[185]},{"type":"LineString","properties":{"source":"naturalearthdata.com","kind":"minor_road","sort_rank":355,"kind_detail":"tertiary","min_zoom":7.0,"id":41574},"arcs":[186]},{"type":"LineString","properties":{"source":"naturalearthdata.com","kind":"minor_road","sort_rank":355,"kind_detail":"tertiary","min_zoom":7.0,"id":41577},"arcs":[187]},{"type":"LineString","properties":{"source":"naturalearthdata.com","kind":"major_road","kind_detail":"secondary","sort_rank":379,"landuse_kind":"park","min_zoom":4.0,"id":41653},"arcs":[188]},{"type":"LineString","properties":{"source":"naturalearthdata.com","kind":"major_road","kind_detail":"secondary","sort_rank":379,"landuse_kind":"protected_area","min_zoom":4.0,"id":41653},"arcs":[189]},{"type":"LineString","properties":{"source":"naturalearthdata.com","kind":"major_road","sort_rank":379,"kind_detail":"secondary","min_zoom":4.0,"id":41653},"arcs":[190]},{"type":"LineString","properties":{"source":"naturalearthdata.com","kind":"minor_road","sort_rank":355,"kind_detail":"tertiary","min_zoom":7.0,"id":41661},"arcs":[191]},{"type":"LineString","properties":{"source":"naturalearthdata.com","kind":"major_road","sort_rank":379,"kind_detail":"secondary","min_zoom":4.0,"id":41662},"arcs":[192]},{"type":"LineString","properties":{"source":"naturalearthdata.com","kind":"major_road","sort_rank":379,"kind_detail":"secondary","min_zoom":3.0,"id":41666},"arcs":[193]},{"type":"LineString","properties":{"source":"naturalearthdata.com","kind":"major_road","sort_rank":379,"kind_detail":"secondary","min_zoom":4.0,"id":41667},"arcs":[194]},{"type":"MultiLineString","properties":{"source":"naturalearthdata.com","kind":"major_road","kind_detail":"secondary","sort_rank":379,"landuse_kind":"park","min_zoom":4.0,"id":41682},"arcs":[[195],[196]]},{"type":"LineString","properties":{"source":"naturalearthdata.com","kind":"major_road","sort_rank":379,"kind_detail":"secondary","min_zoom":4.0,"id":41682},"arcs":[197]},{"type":"LineString","properties":{"source":"naturalearthdata.com","kind":"major_road","sort_rank":379,"kind_detail":"secondary","min_zoom":4.0,"id":41689},"arcs":[198]},{"type":"LineString","properties":{"source":"naturalearthdata.com","kind":"major_road","sort_rank":379,"kind_detail":"secondary","min_zoom":3.0,"id":41723},"arcs":[199]},{"type":"LineString","properties":{"source":"naturalearthdata.com","kind":"minor_road","kind_detail":"tertiary","sort_rank":355,"landuse_kind":"park","min_zoom":6.0,"id":41726},"arcs":[200]},{"type":"LineString","properties":{"source":"naturalearthdata.com","kind":"minor_road","sort_rank":355,"kind_detail":"tertiary","min_zoom":6.0,"id":41726},"arcs":[201]},{"type":"LineString","properties":{"source":"naturalearthdata.com","kind":"major_road","sort_rank":379,"kind_detail":"secondary","min_zoom":3.0,"id":41754},"arcs":[202]},{"type":"LineString","properties":{"source":"naturalearthdata.com","kind":"minor_road","sort_rank":355,"kind_detail":"tertiary","min_zoom":6.0,"id":41801},"arcs":[203]},{"type":"LineString","properties":{"source":"naturalearthdata.com","kind":"minor_road","kind_detail":"tertiary","sort_rank":355,"landuse_kind":"park","min_zoom":7.0,"id":41806},"arcs":[204]},{"type":"LineString","properties":{"source":"naturalearthdata.com","kind":"minor_road","sort_rank":355,"kind_detail":"tertiary","min_zoom":7.0,"id":41806},"arcs":[205]},{"type":"LineString","properties":{"source":"naturalearthdata.com","kind":"minor_road","sort_rank":355,"kind_detail":"tertiary","min_zoom":7.0,"id":41814},"arcs":[206]},{"type":"LineString","properties":{"source":"naturalearthdata.com","kind":"major_road","sort_rank":379,"kind_detail":"secondary","min_zoom":4.0,"id":41839},"arcs":[207]},{"type":"LineString","properties":{"source":"naturalearthdata.com","kind":"major_road","sort_rank":379,"kind_detail":"secondary","min_zoom":4.0,"id":41857},"arcs":[208]},{"type":"LineString","properties":{"source":"naturalearthdata.com","kind":"major_road","sort_rank":379,"kind_detail":"secondary","min_zoom":3.0,"id":41863},"arcs":[209]},{"type":"LineString","properties":{"source":"naturalearthdata.com","kind":"major_road","sort_rank":379,"kind_detail":"secondary","min_zoom":4.0,"id":41908},"arcs":[210]},{"type":"LineString","properties":{"source":"naturalearthdata.com","kind":"major_road","sort_rank":379,"kind_detail":"secondary","min_zoom":3.0,"id":41928},"arcs":[211]},{"type":"LineString","properties":{"source":"naturalearthdata.com","kind":"major_road","kind_detail":"secondary","sort_rank":379,"landuse_kind":"park","min_zoom":4.0,"id":41932},"arcs":[212]},{"type":"MultiLineString","properties":{"source":"naturalearthdata.com","kind":"major_road","sort_rank":379,"kind_detail":"secondary","min_zoom":4.0,"id":41932},"arcs":[[213],[214]]},{"type":"LineString","properties":{"source":"naturalearthdata.com","kind":"major_road","sort_rank":379,"kind_detail":"secondary","min_zoom":4.0,"id":41952},"arcs":[215]},{"type":"LineString","properties":{"source":"naturalearthdata.com","kind":"minor_road","kind_detail":"tertiary","sort_rank":355,"landuse_kind":"urban_area","min_zoom":6.0,"id":41955},"arcs":[216]},{"type":"MultiLineString","properties":{"source":"naturalearthdata.com","kind":"minor_road","sort_rank":355,"kind_detail":"tertiary","min_zoom":6.0,"id":41955},"arcs":[[217],[218]]},{"type":"LineString","properties":{"source":"naturalearthdata.com","kind":"minor_road","sort_rank":355,"kind_detail":"tertiary","min_zoom":6.0,"id":41956},"arcs":[219]},{"type":"MultiLineString","properties":{"source":"naturalearthdata.com","kind":"minor_road","kind_detail":"tertiary","sort_rank":355,"landuse_kind":"park","min_zoom":7.0,"id":41961},"arcs":[[220],[221],[222]]},{"type":"LineString","properties":{"source":"naturalearthdata.com","kind":"minor_road","kind_detail":"tertiary","sort_rank":355,"landuse_kind":"urban_area","min_zoom":7.0,"id":41961},"arcs":[223]},{"type":"MultiLineString","properties":{"source":"naturalearthdata.com","kind":"minor_road","sort_rank":355,"kind_detail":"tertiary","min_zoom":7.0,"id":41961},"arcs":[[224],[225],[226],[227]]},{"type":"LineString","properties":{"source":"naturalearthdata.com","kind":"major_road","kind_detail":"secondary","sort_rank":379,"landuse_kind":"park","min_zoom":4.0,"id":41962},"arcs":[228]},{"type":"LineString","properties":{"source":"naturalearthdata.com","kind":"major_road","kind_detail":"secondary","sort_rank":379,"landuse_kind":"urban_area","min_zoom":4.0,"id":41962},"arcs":[229]},{"type":"MultiLineString","properties":{"source":"naturalearthdata.com","kind":"major_road","sort_rank":379,"kind_detail":"secondary","min_zoom":4.0,"id":41962},"arcs":[[230],[231]]},{"type":"LineString","properties":{"source":"naturalearthdata.com","kind":"major_road","kind_detail":"secondary","sort_rank":379,"landuse_kind":"urban_area","min_zoom":4.0,"id":41966},"arcs":[232]},{"type":"LineString","properties":{"source":"naturalearthdata.com","kind":"major_road","sort_rank":379,"kind_detail":"secondary","min_zoom":4.0,"id":41966},"arcs":[233]},{"type":"LineString","properties":{"source":"naturalearthdata.com","kind":"major_road","kind_detail":"secondary","sort_rank":379,"landuse_kind":"urban_area","min_zoom":4.0,"id":41967},"arcs":[234]},{"type":"MultiLineString","properties":{"source":"naturalearthdata.com","kind":"major_road","sort_rank":379,"kind_detail":"secondary","min_zoom":4.0,"id":41967},"arcs":[[235],[236]]},{"type":"LineString","properties":{"source":"naturalearthdata.com","kind":"major_road","sort_rank":379,"kind_detail":"secondary","min_zoom":3.0,"id":42000},"arcs":[237]},{"type":"LineString","properties":{"source":"naturalearthdata.com","kind":"major_road","sort_rank":379,"kind_detail":"secondary","min_zoom":4.0,"id":42002},"arcs":[238]},{"type":"LineString","properties":{"source":"naturalearthdata.com","kind":"major_road","kind_detail":"secondary","sort_rank":379,"landuse_kind":"urban_area","min_zoom":3.0,"id":42014},"arcs":[239]},{"type":"LineString","properties":{"source":"naturalearthdata.com","kind":"major_road","sort_rank":379,"kind_detail":"secondary","min_zoom":3.0,"id":42014},"arcs":[240]},{"type":"LineString","properties":{"source":"naturalearthdata.com","kind":"major_road","kind_detail":"secondary","sort_rank":379,"landuse_kind":"urban_area","min_zoom":3.0,"id":42017},"arcs":[241]},{"type":"LineString","properties":{"source":"naturalearthdata.com","kind":"major_road","sort_rank":379,"kind_detail":"secondary","min_zoom":3.0,"id":42017},"arcs":[242]},{"type":"LineString","properties":{"source":"naturalearthdata.com","kind":"major_road","kind_detail":"secondary","sort_rank":379,"landuse_kind":"urban_area","min_zoom":4.0,"id":42021},"arcs":[243]},{"type":"LineString","properties":{"source":"naturalearthdata.com","kind":"major_road","sort_rank":379,"kind_detail":"secondary","min_zoom":4.0,"id":42021},"arcs":[244]},{"type":"LineString","properties":{"source":"naturalearthdata.com","kind":"minor_road","kind_detail":"tertiary","sort_rank":355,"landuse_kind":"protected_area","min_zoom":7.0,"id":42034},"arcs":[245]},{"type":"MultiLineString","properties":{"source":"naturalearthdata.com","kind":"minor_road","sort_rank":355,"kind_detail":"tertiary","min_zoom":7.0,"id":42034},"arcs":[[246],[247]]},{"type":"LineString","properties":{"source":"naturalearthdata.com","kind":"major_road","kind_detail":"secondary","sort_rank":379,"landuse_kind":"urban_area","min_zoom":3.0,"id":42043},"arcs":[248]},{"type":"MultiLineString","properties":{"source":"naturalearthdata.com","kind":"major_road","sort_rank":379,"kind_detail":"secondary","min_zoom":3.0,"id":42043},"arcs":[[249],[250]]},{"type":"LineString","properties":{"source":"naturalearthdata.com","kind":"major_road","sort_rank":379,"kind_detail":"secondary","min_zoom":4.0,"id":42048},"arcs":[251]},{"type":"LineString","properties":{"source":"naturalearthdata.com","kind":"major_road","sort_rank":379,"kind_detail":"secondary","min_zoom":4.0,"id":42056},"arcs":[252]},{"type":"LineString","properties":{"source":"naturalearthdata.com","kind":"major_road","sort_rank":379,"kind_detail":"secondary","min_zoom":4.0,"id":42086},"arcs":[253]},{"type":"LineString","properties":{"source":"naturalearthdata.com","kind":"major_road","kind_detail":"secondary","sort_rank":379,"landuse_kind":"park","min_zoom":4.0,"id":42087},"arcs":[254]},{"type":"MultiLineString","properties":{"source":"naturalearthdata.com","kind":"major_road","sort_rank":379,"kind_detail":"secondary","min_zoom":4.0,"id":42087},"arcs":[[255],[256]]},{"type":"LineString","properties":{"source":"naturalearthdata.com","kind":"minor_road","sort_rank":355,"kind_detail":"tertiary","min_zoom":7.0,"id":42106},"arcs":[257]},{"type":"LineString","properties":{"source":"naturalearthdata.com","kind":"major_road","sort_rank":379,"kind_detail":"secondary","min_zoom":4.0,"id":42107},"arcs":[258]},{"type":"LineString","properties":{"source":"naturalearthdata.com","kind":"major_road","kind_detail":"secondary","sort_rank":379,"landuse_kind":"urban_area","min_zoom":4.0,"id":42116},"arcs":[259]},{"type":"MultiLineString","properties":{"source":"naturalearthdata.com","kind":"major_road","sort_rank":379,"kind_detail":"secondary","min_zoom":4.0,"id":42116},"arcs":[[260],[261]]},{"type":"LineString","properties":{"source":"naturalearthdata.com","kind":"minor_road","kind_detail":"tertiary","sort_rank":355,"landuse_kind":"urban_area","min_zoom":7.0,"id":42120},"arcs":[262]},{"type":"MultiLineString","properties":{"source":"naturalearthdata.com","kind":"minor_road","sort_rank":355,"kind_detail":"tertiary","min_zoom":7.0,"id":42120},"arcs":[[263],[264]]},{"type":"LineString","properties":{"source":"naturalearthdata.com","kind":"major_road","sort_rank":379,"kind_detail":"secondary","min_zoom":3.0,"id":42121},"arcs":[265]},{"type":"LineString","properties":{"source":"naturalearthdata.com","kind":"major_road","sort_rank":379,"kind_detail":"secondary","min_zoom":4.0,"id":42142},"arcs":[266]},{"type":"LineString","properties":{"source":"naturalearthdata.com","kind":"major_road","kind_detail":"secondary","sort_rank":379,"landuse_kind":"urban_area","min_zoom":3.0,"id":42145},"arcs":[267]},{"type":"MultiLineString","properties":{"source":"naturalearthdata.com","kind":"major_road","sort_rank":379,"kind_detail":"secondary","min_zoom":3.0,"id":42145},"arcs":[[268],[269]]},{"type":"LineString","properties":{"source":"naturalearthdata.com","kind":"minor_road","sort_rank":355,"kind_detail":"tertiary","min_zoom":7.0,"id":42151},"arcs":[270]},{"type":"LineString","properties":{"source":"naturalearthdata.com","kind":"major_road","kind_detail":"secondary","sort_rank":379,"landuse_kind":"urban_area","min_zoom":3.0,"id":42155},"arcs":[271]},{"type":"MultiLineString","properties":{"source":"naturalearthdata.com","kind":"major_road","sort_rank":379,"kind_detail":"secondary","min_zoom":3.0,"id":42155},"arcs":[[272],[273]]},{"type":"LineString","properties":{"source":"naturalearthdata.com","kind":"minor_road","sort_rank":355,"kind_detail":"tertiary","min_zoom":7.0,"id":42156},"arcs":[274]},{"type":"LineString","properties":{"source":"naturalearthdata.com","kind":"major_road","sort_rank":379,"kind_detail":"secondary","min_zoom":3.0,"id":42165},"arcs":[275]},{"type":"LineString","properties":{"source":"naturalearthdata.com","kind":"major_road","sort_rank":379,"kind_detail":"secondary","min_zoom":3.0,"id":42175},"arcs":[276]},{"type":"LineString","properties":{"source":"naturalearthdata.com","kind":"minor_road","sort_rank":355,"kind_detail":"tertiary","min_zoom":7.0,"id":42179},"arcs":[277]},{"type":"LineString","properties":{"source":"naturalearthdata.com","kind":"major_road","sort_rank":379,"kind_detail":"secondary","min_zoom":4.0,"id":42184},"arcs":[278]},{"type":"MultiLineString","properties":{"source":"naturalearthdata.com","kind":"minor_road","sort_rank":355,"kind_detail":"tertiary","min_zoom":7.0,"id":42186},"arcs":[[279],[280]]},{"type":"LineString","properties":{"source":"naturalearthdata.com","kind":"minor_road","sort_rank":355,"kind_detail":"tertiary","min_zoom":7.0,"id":42192},"arcs":[281]},{"type":"LineString","properties":{"source":"naturalearthdata.com","kind":"major_road","sort_rank":379,"kind_detail":"secondary","min_zoom":3.0,"id":42203},"arcs":[282]},{"type":"LineString","properties":{"source":"naturalearthdata.com","kind":"minor_road","sort_rank":355,"kind_detail":"tertiary","min_zoom":7.0,"id":42208},"arcs":[283]},{"type":"LineString","properties":{"source":"naturalearthdata.com","kind":"major_road","sort_rank":379,"kind_detail":"secondary","min_zoom":3.0,"id":42230},"arcs":[284]},{"type":"LineString","properties":{"source":"naturalearthdata.com","kind":"minor_road","sort_rank":355,"kind_detail":"tertiary","min_zoom":6.0,"id":42298},"arcs":[285]},{"type":"LineString","properties":{"source":"naturalearthdata.com","kind":"major_road","sort_rank":379,"kind_detail":"secondary","min_zoom":3.0,"id":42300},"arcs":[286]}]},"earth":{"type":"GeometryCollection","geometries":[{"type":"Polygon","properties":{"sort_rank":10,"source":"naturalearthdata.com","min_zoom":0.0,"kind":"earth","area":392091543542},"arcs":[[287]]}]},"landuse":{"type":"GeometryCollection","geometries":[{"type":"Polygon","properties":{"kind":"national_park","protect_class":"2","area":324864000,"sort_rank":18,"source":"openstreetmap.org","min_zoom":3.0,"tier":1,"id":-934542,"osm_relation":true},"arcs":[[288]]},{"type":"Polygon","properties":{"kind":"nature_reserve","area":977142976,"sort_rank":23,"source":"openstreetmap.org","min_zoom":6.0,"tier":2,"id":-1359815,"osm_relation":true},"arcs":[[289]]},{"type":"MultiPolygon","properties":{"source":"openstreetmap.org","kind":"park","tier":2,"area":1036043829,"sort_rank":24,"min_zoom":6.0,"osm_relation":true},"arcs":[[[290]],[[291]]]},{"type":"Polygon","properties":{"kind":"park","area":138600000,"sort_rank":24,"source":"openstreetmap.org","min_zoom":7.0,"tier":2,"id":-2984909,"osm_relation":true},"arcs":[[292]]},{"type":"Polygon","properties":{"kind":"protected_area","protect_class":"2","area":168423008,"sort_rank":17,"source":"openstreetmap.org","min_zoom":6.0,"tier":2,"id":-5987145,"osm_relation":true},"arcs":[[293]]},{"type":"MultiPolygon","properties":{"source":"naturalearthdata.com","kind":"urban_area","name":"","area":1305316740,"sort_rank":11,"min_zoom":4.0},"arcs":[[[294]],[[295]],[[296]],[[297]],[[298]],[[299]],[[300]],[[301]],[[302]],[[303]],[[304]],[[305]],[[306]],[[307]],[[308]],[[309]],[[310]],[[311]],[[312]],[[313]],[[314]],[[315]],[[316]],[[317]],[[318]],[[319]],[[320]]]},{"type":"MultiPolygon","properties":{"source":"openstreetmap.org","kind":"protected_area","tier":2,"area":405134397,"sort_rank":17,"min_zoom":6.0},"arcs":[[[321]]]},{"type":"MultiPolygon","properties":{"kind":"national_park","protect_class":"2","area":370164992,"sort_rank":18,"operator":"Uganda Wildlife Authority","source":"openstreetmap.org","min_zoom":3.0,"tier":1,"id":-3110475,"osm_relation":true},"arcs":[[[322]],[[323]]]},{"type":"Polygon","properties":{"kind":"national_park","area":1086040064,"sort_rank":18,"source":"openstreetmap.org","min_zoom":3.0,"tier":1,"id":-1708935,"osm_relation":true},"arcs":[[324]]},{"type":"Polygon","properties":{"kind":"park","area":3388300032,"sort_rank":24,"operator":"Uganda Wildlife Authorities","source":"openstreetmap.org","min_zoom":4.0,"tier":2,"id":-6712007,"osm_relation":true},"arcs":[[325]]},{"type":"Polygon","properties":{"kind":"park","area":7863309824,"sort_rank":24,"operator":"ICCN","source":"openstreetmap.org","min_zoom":4.0,"tier":2,"id":-404784,"osm_relation":true},"arcs":[[326]]},{"type":"Polygon","properties":{"kind":"protected_area","area":905785024,"sort_rank":17,"source":"openstreetmap.org","min_zoom":6.0,"tier":2,"id":-1347461,"osm_relation":true},"arcs":[[327]]},{"type":"MultiPolygon","properties":{"source":"openstreetmap.org","kind":"park","tier":2,"area":13117505325,"sort_rank":24,"min_zoom":4.0,"osm_relation":true},"arcs":[[[328]],[[329]],[[330]],[[331]]]}]}},"type":"Topology","transform":{"translate":[28.125,-2.8113711933],"scale":[0.0006866455,0.0006863699]},"arcs":[[[3418,2542],[1,1]],[[3282,741],[7,-4],[46,-11]],[[3113,660],[24,1],[28,6],[27,9],[21,10],[19,18],[6,8],[6,8],[15,14],[23,7]],[[3340,728],[7,-8],[8,-21],[8,-11],[79,-65],[48,-23],[48,-2]],[[3335,726],[5,2]],[[2646,721],[12,-7],[10,-8],[2,-3],[26,-22],[11,-1]],[[2444,64],[30,6],[27,16],[30,30],[19,26],[18,31],[14,31],[8,32],[0,17],[7,149],[31,110],[-10,112],[9,75],[0,13],[4,8],[15,1]],[[3033,688],[17,-2],[45,-22],[18,-4]],[[2901,553],[32,1],[25,18],[66,82],[3,10],[1,14],[5,10]],[[2719,681],[14,-1],[17,-5],[18,-14],[45,-54],[24,-20],[30,-21],[34,-13]],[[2707,680],[12,1]],[[1440,316],[23,-4],[89,-38],[32,-10],[62,-8],[30,-7],[27,-15],[18,-14],[1,-6],[-2,-18],[5,-19],[0,-2],[32,-29],[9,-18],[-3,-17],[-20,-25],[-5,-15],[3,-17],[13,-30],[2,-18],[3,-6]],[[1297,132],[25,146],[33,32],[85,6]],[[2376,75],[32,-10],[36,-1]],[[2290,5],[33,4],[14,8],[6,14],[5,30],[11,14],[17,0]],[[2176,35],[11,-1],[15,-5],[61,-20],[27,-4]],[[2110,8],[12,4],[11,7],[43,16]],[[1894,12],[28,-6],[34,-6]],[[1848,0],[20,9],[26,3]],[[2095,8],[15,0]],[[2057,0],[6,4],[32,4]],[[3380,2554],[22,-7],[16,-5]],[[3318,2537],[23,5],[19,9],[20,3]],[[3244,2551],[24,-4],[25,-7],[25,-3]],[[2610,1947],[31,3],[32,12],[99,55],[15,3],[13,32],[19,19],[8,4],[43,23],[59,24],[16,14],[8,22],[8,57],[11,20],[11,7],[12,2],[11,0],[11,4],[23,13],[64,62],[20,24],[15,26],[3,10],[3,21],[4,9],[5,4],[6,4],[24,11],[9,7],[7,23],[10,60],[12,21],[22,8]],[[2463,2169],[13,-2],[16,-8],[41,-59],[6,-31],[4,-60],[14,-31],[25,-23],[28,-8]],[[2403,2105],[12,8],[9,28],[13,16],[13,8],[13,4]],[[2344,2132],[18,-4],[31,-19],[10,-4]],[[2175,2070],[30,2],[27,8],[30,17],[23,16],[24,12],[35,7]],[[2116,2073],[59,-3]],[[3424,2404],[-13,9],[-2,8],[4,9],[5,9],[3,8],[-5,20],[-21,15],[-5,15],[5,17],[11,16],[12,12]],[[3906,1760],[-23,18],[-13,33],[-15,52],[-6,11],[-18,20],[-24,32],[-9,19],[8,8],[4,18],[3,37],[-8,39],[-29,17],[-28,4],[-96,35],[-14,9],[-22,20],[-15,11],[-43,18],[-19,14],[-7,23],[1,11],[4,9],[3,6],[1,5],[-3,12],[-13,17],[-9,30],[-26,44],[-9,21],[-6,38],[-6,9],[-18,13]],[[3451,2413],[-6,-2],[-9,-5],[-12,-2]],[[3920,1155],[19,85],[-4,38],[-44,7],[8,12],[8,9],[24,19],[-11,26],[8,22],[15,22],[8,25],[-12,58],[-5,16],[17,40],[-4,13],[-13,20],[-3,7],[1,16],[18,115],[2,38],[-11,30]],[[3941,1773],[-35,-13]],[[3836,627],[13,4],[11,6],[20,4],[22,13],[25,11],[19,14],[15,27],[6,30],[-6,100],[13,64],[50,162],[-13,42],[-15,21],[-22,23],[-27,13]],[[3947,1161],[-27,-6]],[[3732,672],[16,-5],[76,-37],[12,-3]],[[3629,602],[31,2],[16,13],[21,40],[16,13],[19,2]],[[3567,615],[31,-4],[31,-9]],[[3538,598],[29,17]],[[3538,598],[-48,-60],[-19,-31],[-56,-135],[-12,-46],[-6,-15],[-14,-18],[-35,-33],[-11,-18],[-6,-36],[16,-16],[28,0]],[[3492,236],[-10,-28],[-83,-88],[-12,-19],[-5,-22],[0,-37],[-31,-42]],[[3375,190],[31,10],[52,24],[34,12]],[[1297,132],[19,-35],[-30,-4],[-18,-16],[-10,-25],[-3,-31],[10,-21]],[[2116,2073],[-57,-20],[-58,-42],[-50,-52],[-29,-44],[-4,-8],[-3,-3],[-4,-2],[-3,-1],[-112,-5],[-22,-10],[-17,-21],[-40,-82],[-15,-20],[-70,-58],[-18,-26],[-31,-58],[-37,-60],[-54,-87],[-28,-64],[-7,-52],[3,-53],[39,-229],[3,-52],[-8,-61],[-23,-69],[-37,-57],[-50,-39],[-65,-18]],[[1319,780],[-42,2]],[[1277,782],[-12,-5],[-15,-14],[-2,-12],[-5,-16],[-11,-22],[-16,-26],[-21,-21],[-25,-15],[-31,-9],[-39,-13],[-20,-18],[-11,-38],[3,-31],[5,-29],[15,-27],[5,-17],[-25,-23],[-6,-19],[6,-19],[13,-9],[16,-7],[15,-16],[10,-34],[-10,-111],[11,-11],[55,-36],[19,-8],[44,-4],[29,-15],[23,-25]],[[3862,2660],[52,-13],[23,-12]],[[3661,2532],[18,16],[52,55],[21,11],[56,17],[54,29]],[[3937,2635],[94,0],[65,0]],[[3431,2553],[18,-2],[11,-7],[8,-8],[8,-4]],[[3419,2543],[12,10]],[[3594,2547],[32,-4],[35,-11]],[[3476,2532],[17,2],[27,6],[74,7]],[[2314,4096],[1,-11],[-8,-27],[-22,-54],[-25,-149],[-9,-52],[-24,-143],[-5,-25],[-31,-184],[4,-27],[4,-8],[15,-32],[7,-23],[4,-89],[-3,-20],[-12,-8],[-15,-1],[-14,-4],[-5,-16],[2,-9],[11,-16],[4,-8],[-2,-12],[-7,-7],[-8,-6],[-5,-7],[-18,-115],[-2,-31],[13,-56],[4,-31],[-4,-88],[-4,-21],[-17,-19],[-43,-15],[-16,-26],[-2,-13],[1,-14],[6,-28],[1,-21],[-5,-14],[-7,-13],[-1,0],[-4,-18],[4,-25],[22,-56],[6,-28],[-2,-27],[-18,-90],[1,-35],[12,-23],[14,-23],[9,-31],[-1,-12],[-14,-37],[1,-16],[17,-29],[5,-16],[1,-28],[-14,-86]],[[1097,1668],[15,-5],[7,-11],[20,-50],[8,-14],[17,-12],[26,-7]],[[906,1494],[32,12],[25,21],[71,98],[17,18],[28,21],[18,4]],[[1304,1580],[47,-1],[195,-17],[0,-1]],[[1190,1569],[114,11]],[[819,1499],[36,-4],[51,-1]],[[598,1282],[34,7],[29,11],[24,17],[19,26],[17,33],[33,91],[13,17],[23,13],[29,2]],[[378,1457],[17,0],[15,-7],[14,-9],[12,-13],[9,-16],[24,-84],[5,-11],[9,-4],[31,-10],[23,-11],[23,-6],[38,-4]],[[0,1127],[10,5],[53,19],[164,29],[32,10],[25,20],[12,22],[7,32],[5,108],[7,28],[10,24],[14,16],[20,13],[19,4]],[[2844,44],[-51,69],[-30,25],[-20,37],[-44,53],[-70,19],[-39,6]],[[1929,0],[-7,6]],[[1922,1915],[7,-9],[26,-36]],[[3415,3446],[-1,-60],[-33,-107],[-9,-46],[-22,-55],[-126,-123],[-96,-59]],[[3464,3723],[-16,-87],[6,-99],[-43,-42],[4,-49]],[[3031,3981],[-6,-13],[-6,-14],[75,-33]],[[3636,3765],[-88,-12],[-84,-30]],[[3337,3844],[34,15],[36,10],[-26,33],[-28,18],[-17,83],[-22,52],[24,41]],[[3094,3921],[42,-3],[41,-8],[120,-54],[40,-12]],[[3636,3765],[8,41],[26,28],[37,20],[-124,40],[29,97],[51,86],[20,19]],[[3636,3765],[-24,-88],[48,-51],[40,-10],[20,-31],[-6,-53],[35,-37],[161,-124],[-44,-67],[-8,-44],[-13,-45]],[[3845,3215],[-53,0]],[[3792,3215],[-31,-14],[-28,-4]],[[3733,3197],[-59,7]],[[3674,3204],[-12,-49],[2,-28],[-8,-27],[6,-62],[1,-128]],[[3663,2910],[-73,12]],[[3991,3083],[-17,23],[-12,31],[-51,47],[-66,31]],[[4096,3088],[-41,4]],[[4055,3092],[-32,-1],[-32,-8]],[[3128,2996],[-21,-38],[6,-28],[50,-17],[98,-8]],[[3333,2934],[30,-13],[32,-25],[39,-8]],[[3261,2905],[42,10],[30,19]],[[3501,2893],[15,3],[14,6],[10,10],[11,9],[39,1]],[[3480,2905],[21,-12]],[[3434,2888],[22,11],[24,6]],[[3590,2922],[-2,-79],[-19,-38],[-28,-34],[-23,-9],[-29,-42],[-19,-17],[-9,-23],[-4,-23],[-22,-52],[-30,-47],[-3,-11]],[[2815,2989],[6,-56],[-7,-57],[-24,-52],[-4,-41],[32,-20],[26,-24],[-4,-32],[2,-31],[-12,-26],[-29,-24],[-6,-23],[-2,-27]],[[2368,3200],[-35,8],[-26,39],[-6,48],[9,86],[-2,85]],[[2308,3466],[-117,-15]],[[2585,2575],[-102,175],[5,30],[19,27],[-5,33],[-28,31],[23,119],[-84,129],[-13,39],[4,44]],[[2404,3202],[-36,-2]],[[2793,2576],[9,-34],[28,-29]],[[2830,2513],[12,-42],[18,-36],[50,-16],[53,-4],[29,-15],[-3,-43]],[[3116,2418],[37,-1],[1,0]],[[2989,2357],[47,13],[36,35],[44,13]],[[2398,2603],[79,-5],[31,-32],[33,-20]],[[2373,2529],[2,19],[16,12],[7,43]],[[2541,2546],[19,25],[25,4]],[[2830,2513],[-199,53],[-46,9]],[[2270,2557],[-21,9],[-17,10],[-60,24],[-18,1],[-13,7],[-7,17],[-15,10],[-41,18]],[[2373,2529],[-67,29]],[[2306,2558],[-36,-1]],[[2373,2529],[-17,-26],[-22,-21],[4,-16],[52,-59],[45,-35],[-39,-29],[75,-163],[5,-13]],[[3202,3788],[123,-82],[10,-19],[16,-14]],[[3437,3734],[27,-11]],[[3351,3673],[22,4],[11,20],[6,19],[15,12],[32,6]],[[2959,3052],[44,-12]],[[2891,2992],[33,32],[35,28]],[[2852,2995],[39,-3]],[[2815,2989],[37,6]],[[3003,3040],[32,-36],[42,-9]],[[3077,2995],[51,1]],[[2647,3360],[5,22],[3,37],[-7,31],[-42,61]],[[2606,3511],[-100,46],[-294,17]],[[2815,2989],[-86,63],[-27,62],[-42,48],[-56,28],[-23,55],[20,11],[22,8],[4,22],[17,34],[3,40]],[[3048,4096],[-17,-115]],[[3031,3981],[-32,5],[-75,0]],[[2924,3986],[-187,-144],[-89,-1]],[[2648,3841],[-157,24],[-108,6],[-117,24]],[[3139,190],[104,92],[17,19],[15,21],[32,4],[29,16],[11,28],[4,31],[-10,30],[-11,24],[20,62],[-14,26],[-22,21],[-8,17],[-1,22],[-9,17],[-11,12],[-15,56],[-32,24]],[[3118,199],[11,-4],[10,-5]],[[2844,44],[59,11],[36,19],[9,32],[22,26],[33,14],[38,7],[30,22],[32,19],[15,5]],[[2896,0],[-15,26],[-37,18]],[[2204,0],[-2,20],[0,9]],[[2703,1314],[-1,-2],[3,-5],[5,-12],[4,-11],[3,-5],[4,-6],[4,-9],[5,-11],[4,-10],[-3,-7],[0,-2],[0,-6],[-1,-9],[-3,-9],[-5,-8],[14,-22],[9,-22],[-7,-11],[-5,-6],[-11,-4],[-11,-11],[-3,-14],[9,-18],[12,-8],[7,-1],[8,-2],[9,-3],[4,-3]],[[2757,1077],[-2,-14],[0,-26],[0,-17],[-10,-18],[-22,-24],[-15,-30],[2,-48],[-8,-72],[-17,-50],[-1,-3],[-1,-2],[-5,-28],[-3,-28],[-2,-3],[-2,-4],[-3,-4]],[[3035,1073],[10,14],[11,27],[10,52],[4,53],[1,17],[8,9],[21,9],[20,9],[7,12],[1,29],[-3,24],[-9,8],[-9,12],[1,20],[-6,21],[-10,14],[-1,8]],[[2972,1141],[17,-5],[16,-21],[10,-15],[11,-13],[9,-14]],[[2829,1088],[9,1],[4,1],[5,2],[8,1],[10,2],[8,3],[14,3],[11,1],[5,0],[4,1],[4,5],[9,8],[10,7],[8,5],[16,6],[18,7]],[[2804,1105],[6,-7],[6,-9],[13,-1]],[[2757,1077],[6,6],[14,6],[9,5],[8,8],[10,3]],[[3091,1411],[-11,1],[-24,8]],[[3056,1420],[-45,32],[-49,32],[-24,14],[-11,6]],[[2927,1504],[-7,-20],[-10,-24],[-8,-11]],[[2902,1449],[-14,3]],[[2888,1452],[-36,-7],[-29,-13],[-9,-11],[-15,-18],[-19,-11]],[[2780,1392],[-18,12],[-20,13]],[[2742,1417],[-14,-5],[-11,-18],[-12,-20],[-6,-15],[8,-22],[5,-17],[-5,-4],[-4,-2]],[[2218,1219],[17,5],[13,12],[4,16],[-7,12],[-6,16],[0,16],[6,11],[7,19],[-4,39],[-7,36],[1,17],[5,17],[4,41],[-5,49],[-6,26],[-4,15],[-4,5]],[[2196,1220],[22,-1]],[[2096,888],[11,4],[12,3],[10,6],[16,9],[12,7],[-1,20],[-5,20],[-5,9],[2,15],[13,24],[8,20],[1,11],[5,9],[4,7],[7,10],[10,16],[2,14],[1,12],[2,12],[-4,10],[-5,17],[1,30],[-5,32],[-7,15],[15,0]],[[2079,894],[8,-3],[9,-3]],[[1954,790],[21,22],[36,28],[20,11],[15,14],[19,11],[8,9],[6,9]],[[1945,791],[9,-1]],[[1827,756],[19,8],[27,21],[29,4],[26,1],[17,1]],[[1811,761],[16,-5]],[[1725,177],[28,14],[7,2],[13,7],[21,37],[5,53],[-17,25],[-8,10],[-2,11],[2,13],[3,14],[-6,10],[-7,14],[-11,14],[-9,19],[-3,22],[-12,16],[-20,9],[-27,8],[-18,10],[-1,10],[7,19],[12,18],[31,17],[30,16],[6,13],[-5,17],[-4,13],[12,20],[15,23],[1,14],[-10,20],[-9,24],[4,20],[14,17],[22,12],[22,3]],[[2257,1576],[17,-3],[24,-16],[27,-10]],[[2232,1571],[9,3],[16,2]],[[2343,1550],[11,-1],[6,-14],[14,-23],[20,-29],[17,-27],[20,-19],[8,-21],[27,-17],[40,-14]],[[2325,1547],[18,3]],[[2563,1391],[26,-1],[17,-5],[10,-7],[12,-7],[11,-7],[9,-8],[12,-12],[14,-15],[14,-10],[11,-2],[4,-3]],[[2506,1385],[28,0],[29,6]],[[1955,1870],[35,-41],[31,-11],[28,-9]],[[2070,1813],[6,-3],[8,-3],[24,-11],[27,-13]],[[2049,1809],[12,1],[9,3]],[[2164,1785],[29,-2],[6,-45],[2,-59],[-1,-43],[-2,-31],[18,-22],[16,-12]],[[2135,1783],[29,2]],[[2938,1875],[-1,14],[-3,22],[-7,14],[-12,27],[-13,24],[-16,24],[-19,31],[-9,8],[-8,11],[-5,15],[-8,6],[-4,1],[-6,3]],[[3091,1411],[5,4],[11,11],[12,8],[8,5],[0,22],[-11,45],[-15,50],[-6,31],[6,16],[5,17],[-9,19],[-20,23],[-29,35],[-26,34],[-19,20],[-15,26],[-11,30],[-6,32],[8,25],[11,10],[1,7],[-8,4]],[[2983,1885],[-14,0],[-18,-6],[-13,-4]],[[4096,348],[-40,-19],[-51,-144],[66,-71],[25,-21]],[[3094,3921],[32,-49],[16,-56],[21,-3],[39,-25]],[[3202,3788],[-59,-49],[-97,-22],[-69,-40],[-34,-29],[-12,-160]],[[2931,3488],[-68,23],[-52,63],[-45,11]],[[2766,3585],[-58,-29],[-57,-34],[-45,-11]],[[2931,3488],[109,-29],[103,-57],[63,-23]],[[3206,3379],[17,52],[192,15]],[[3206,3379],[0,-97],[-17,-86],[-98,-11],[-120,-12]],[[3003,3040],[14,53],[-46,80]],[[2760,3299],[-52,17],[-61,44]],[[2971,3173],[-57,17],[-17,41],[-11,45],[-35,35]],[[2851,3311],[-45,0],[-46,-12]],[[2612,2193],[0,5],[0,15],[-10,0],[5,-54],[-2,-23],[-13,-12],[-2,32],[-7,38],[0,32],[19,17],[-28,17],[-41,47],[-31,26],[-2,-9],[-7,-21],[-9,19],[1,16],[10,9],[39,-10],[14,-13],[11,-16],[13,-14],[15,-9],[33,-14],[12,-7],[17,-25],[20,-66],[13,-29],[-10,-9],[-24,48],[-6,21],[-7,-3],[-16,-5],[-7,-3]],[[1959,3199],[-26,13],[-21,-4],[2,-15],[-18,-24],[-23,-45],[-19,-21],[-2,5],[-7,13],[-16,-20],[-5,-10],[-11,0],[-1,17],[2,15],[4,15],[6,14],[0,36],[-3,20],[-8,15],[-21,9],[-54,-1],[-14,1],[3,39],[34,40],[15,35],[-52,25],[16,23],[16,9],[17,5],[21,12],[14,17],[20,33],[17,11],[-11,36],[12,31],[53,59],[14,24],[12,90],[25,60],[43,51],[56,38],[156,47],[24,3],[28,10],[16,21],[13,23],[18,16],[37,5],[32,-12],[22,-25],[9,-33],[7,-13],[17,-2],[18,1],[7,-6],[1,-17],[2,-13],[5,-9],[12,-6],[19,-2],[14,6],[12,9],[14,8],[37,9],[18,2],[-1,-12],[-18,-62],[-14,-94],[-17,-57],[-25,-50],[-29,-46],[-22,-20],[-48,-23],[-51,-44],[-28,-9],[-29,-4],[-32,-10],[-20,-17],[-33,-43],[-21,-9],[-13,-12],[-22,-79],[-34,-51],[-48,-33],[-109,-55],[-14,37]],[[1760,1107],[-11,-7],[-15,-5],[6,-14],[4,-16],[-2,-16],[-8,-14],[-16,32],[-11,9],[-13,0],[-10,-15],[-6,-22],[-4,-43],[-9,0],[-7,14],[0,16],[7,40],[-20,-11],[-9,-18],[-1,-47],[7,-7],[15,-9],[13,-14],[4,-25],[-32,31],[-41,-2],[-27,-27],[12,-42],[-30,4],[-15,-17],[-3,-27],[7,-30],[11,4],[9,7],[-5,-21],[-16,-7],[-21,5],[-18,12],[-60,-119],[3,18],[6,24],[1,18],[-10,0],[-5,-18],[-7,-12],[-18,-21],[1,7],[-6,4],[-9,1],[-6,-1],[-3,-8],[1,-19],[-3,-9],[-14,-23],[-7,-24],[-11,-22],[-23,-15],[17,29],[13,30],[-14,21],[-2,37],[-6,33],[-28,10],[-12,-8],[-8,-13],[-20,-69],[-6,-9],[-4,-4],[-4,-1],[-6,-6],[-28,-20],[-63,-25],[-29,-25],[-15,-38],[-10,-39],[-19,-23],[-46,11],[0,11],[-9,22],[-2,27],[2,54],[8,27],[20,19],[137,71],[15,2],[3,25],[15,42],[1,28],[-58,-66],[-32,-30],[-40,-23],[51,70],[10,38],[-20,42],[-12,-6],[-9,-9],[-7,-12],[-3,-14],[-4,3],[-12,4],[-4,3],[-5,-8],[-4,-4],[-5,-3],[-6,-5],[1,27],[3,12],[7,12],[-16,9],[-2,15],[9,19],[18,17],[-8,4],[-3,5],[-3,5],[-6,5],[38,7],[13,22],[-15,17],[-45,-6],[39,40],[69,42],[52,47],[-16,56],[-6,12],[-1,16],[-3,12],[-10,6],[-25,4],[-7,-4],[-3,-16],[-16,-18],[-3,-11],[14,-6],[3,-7],[-9,-17],[-15,-17],[-14,-10],[1,36],[-3,15],[-8,10],[16,17],[10,16],[15,38],[24,-7],[26,35],[69,161],[15,16],[17,13],[12,15],[6,25],[-20,-10],[0,60],[25,-4],[24,22],[65,99],[6,13],[1,19],[-4,15],[-17,36],[-6,-10],[-74,-83],[-11,-17],[-9,0],[5,38],[15,50],[22,44],[24,19],[25,-4],[16,-10],[28,-32],[19,-11],[44,-9],[16,-10],[17,-18],[32,-26],[16,-11],[59,-22],[12,-8],[2,-9],[-3,-8],[-6,-9],[-3,-9],[4,-4],[19,-5],[7,-5],[5,-16],[2,-19],[-4,-19],[-13,-17],[23,-29],[4,-72],[12,-28],[-18,-29],[13,-30],[35,-36],[4,10],[8,-11],[6,-17],[2,-7],[13,-31],[9,-8],[18,10],[-5,-28],[8,-24],[11,-22],[6,-22],[-4,-23],[-8,0],[-8,11],[0,7],[-15,-8],[-9,-10]],[[1419,1247],[26,18],[-3,22],[-12,13],[-15,1],[-9,-16],[-7,5],[-5,3],[-5,4],[-4,8],[-36,-52],[-10,-29],[-4,-39],[23,10],[6,-13],[-8,-47],[-8,-25],[-33,-55],[1,-3],[-9,-36],[-3,-6],[-1,-24],[-3,-10],[-5,-11],[-12,-17],[-15,-17],[-15,-20],[-7,-25],[9,3],[21,3],[9,3],[-4,-13],[-1,-8],[5,-8],[10,-10],[5,4],[3,1],[4,1],[8,3],[-12,-11],[-6,-14],[-3,-16],[1,-19],[32,-5],[47,24],[37,37],[-1,39],[-5,29],[29,58],[-4,23],[-12,19],[-7,18],[-8,16],[-18,13],[0,9],[13,0],[6,4],[2,7],[0,14],[4,6],[22,9],[8,5],[2,13],[-13,39],[-6,31],[-5,8],[-4,9],[1,15],[4,2]],[[1760,1107],[-11,-7],[-15,-5],[6,-14],[4,-16],[-2,-16],[-8,-14],[-16,32],[-11,9],[-13,0],[-10,-15],[-6,-22],[-4,-43],[-9,0],[-7,14],[0,16],[7,40],[-20,-11],[-9,-18],[-1,-47],[7,-7],[15,-9],[13,-14],[4,-25],[-32,31],[-41,-2],[-27,-27],[12,-42],[-30,4],[-15,-17],[-3,-27],[7,-30],[11,4],[9,7],[-5,-21],[-16,-7],[-21,5],[-18,12],[-60,-119],[3,18],[6,24],[1,18],[-10,0],[-5,-18],[-7,-12],[-18,-21],[1,7],[-6,4],[-9,1],[-6,-1],[-3,-8],[1,-19],[-3,-9],[-14,-23],[-7,-24],[-11,-22],[-23,-15],[17,29],[13,30],[-14,21],[-2,37],[-6,33],[-28,10],[-12,-8],[-8,-13],[-20,-69],[-6,-9],[-4,-4],[-4,-1],[-6,-6],[-28,-20],[-63,-25],[-29,-25],[-15,-38],[-10,-39],[-19,-23],[-46,11],[0,11],[-9,22],[-2,27],[2,54],[8,27],[20,19],[137,71],[15,2],[3,25],[15,42],[1,28],[-58,-66],[-32,-30],[-40,-23],[51,70],[10,38],[-20,42],[-12,-6],[-9,-9],[-7,-12],[-3,-14],[-4,3],[-12,4],[-4,3],[-5,-8],[-4,-4],[-5,-3],[-6,-5],[1,27],[3,12],[7,12],[-16,9],[-2,15],[9,19],[18,17],[-8,4],[-3,5],[-3,5],[-6,5],[38,7],[13,22],[-15,17],[-45,-6],[39,40],[69,42],[52,47],[-16,56],[-6,12],[-1,16],[-3,12],[-10,6],[-25,4],[-7,-4],[-3,-16],[-16,-18],[-3,-11],[14,-6],[3,-7],[-9,-17],[-15,-17],[-14,-10],[1,36],[-3,15],[-8,10],[16,17],[10,16],[15,38],[24,-7],[26,35],[69,161],[15,16],[17,13],[12,15],[6,25],[-20,-10],[0,60],[25,-4],[24,22],[65,99],[6,13],[1,19],[-4,15],[-17,36],[-6,-10],[-74,-83],[-11,-17],[-9,0],[5,38],[15,50],[22,44],[24,19],[25,-4],[16,-10],[28,-32],[19,-11],[44,-9],[16,-10],[17,-18],[32,-26],[16,-11],[59,-22],[12,-8],[2,-9],[-3,-8],[-6,-9],[-3,-9],[4,-4],[19,-5],[7,-5],[5,-16],[2,-19],[-4,-19],[-13,-17],[23,-29],[4,-72],[12,-28],[-18,-29],[13,-30],[35,-36],[4,10],[8,-11],[6,-17],[2,-7],[13,-31],[9,-8],[18,10],[-5,-28],[8,-24],[11,-22],[6,-22],[-4,-23],[-8,0],[-8,11],[0,7],[-15,-8],[-9,-10]],[[1419,1247],[26,18],[-3,22],[-12,13],[-15,1],[-9,-16],[-7,5],[-5,3],[-5,4],[-4,8],[-36,-52],[-10,-29],[-4,-39],[23,10],[6,-13],[-8,-47],[-8,-25],[-33,-55],[1,-3],[-9,-36],[-3,-6],[-1,-24],[-3,-10],[-5,-11],[-12,-17],[-15,-17],[-15,-20],[-7,-25],[9,3],[21,3],[9,3],[-4,-13],[-1,-8],[5,-8],[10,-10],[5,4],[3,1],[4,1],[8,3],[-12,-11],[-6,-14],[-3,-16],[1,-19],[32,-5],[47,24],[37,37],[-1,39],[-5,29],[29,58],[-4,23],[-12,19],[-7,18],[-8,16],[-18,13],[0,9],[13,0],[6,4],[2,7],[0,14],[4,6],[22,9],[8,5],[2,13],[-13,39],[-6,31],[-5,8],[-4,9],[1,15],[4,2]],[[1959,3199],[-26,13],[-21,-4],[2,-15],[-18,-24],[-23,-45],[-19,-21],[-2,5],[-7,13],[-16,-20],[-5,-10],[-11,0],[-1,17],[2,15],[4,15],[6,14],[0,36],[-3,20],[-8,15],[-21,9],[-54,-1],[-14,1],[3,39],[34,40],[15,35],[-52,25],[16,23],[16,9],[17,5],[21,12],[14,17],[20,33],[17,11],[-11,36],[12,31],[53,59],[14,24],[12,90],[25,60],[43,51],[56,38],[156,47],[24,3],[28,10],[16,21],[13,23],[18,16],[37,5],[32,-12],[22,-25],[9,-33],[7,-13],[17,-2],[18,1],[7,-6],[1,-17],[2,-13],[5,-9],[12,-6],[19,-2],[14,6],[12,9],[14,8],[37,9],[18,2],[-1,-12],[-18,-62],[-14,-94],[-17,-57],[-25,-50],[-29,-46],[-22,-20],[-48,-23],[-51,-44],[-28,-9],[-29,-4],[-32,-10],[-20,-17],[-33,-43],[-21,-9],[-13,-12],[-22,-79],[-34,-51],[-48,-33],[-109,-55],[-14,37]],[[2612,2193],[0,5],[0,15],[-10,0],[5,-54],[-2,-23],[-13,-12],[-2,32],[-7,38],[0,32],[19,17],[-28,17],[-41,47],[-31,26],[-2,-9],[-7,-21],[-9,19],[1,16],[10,9],[39,-10],[14,-13],[11,-16],[13,-14],[15,-9],[33,-14],[12,-7],[17,-25],[20,-66],[13,-29],[-10,-9],[-24,48],[-6,21],[-7,-3],[-16,-5],[-7,-3]],[[2839,3901],[-30,66],[-54,91],[-18,6],[-30,30],[1,2]],[[3428,3895],[6,36],[-6,49],[12,36],[18,30],[48,36],[5,14]],[[3386,3859],[30,24],[12,12]],[[2880,3826],[-23,45],[-18,30]],[[2881,3824],[-1,2]],[[2929,3325],[-24,12],[-6,36],[0,114],[12,48],[-6,18],[-18,30],[0,30],[6,84],[0,90],[-12,36],[0,1]],[[3590,3252],[0,67],[-6,36],[-36,108],[-6,60],[12,84],[-6,36],[-30,54],[-42,60],[-54,66],[-36,36]],[[3590,3252],[-60,6],[-48,12],[-132,-6],[-18,0],[-30,24],[-61,6],[-42,6],[-60,6],[-60,13],[-30,0],[-54,6],[-66,0]],[[4096,3408],[-14,-5],[-30,0],[-60,12],[-48,-18],[-36,-6],[-78,-6],[-30,-12],[-18,-18],[-48,-79],[-24,-30],[-48,-30],[-18,-6]],[[3644,3210],[-12,30],[-42,12]],[[2262,3120],[20,32]],[[2331,3251],[27,37],[49,73],[30,24],[6,36],[24,24],[36,18],[30,18],[6,18],[6,54],[0,60],[18,30],[72,54],[30,30],[48,54],[126,120]],[[2282,3152],[10,16],[30,72],[9,11]],[[1530,3078],[-18,24],[24,24],[0,18],[-18,30],[6,12],[-6,30],[18,60],[-55,49],[0,12],[25,24],[12,30],[24,30],[12,24],[-6,30],[-24,36],[-24,24],[-6,66],[6,54],[18,30],[36,48],[18,36],[-18,60],[18,12],[42,24],[12,36],[-12,30],[-18,30],[12,67],[36,36],[-3,32]],[[3644,3210],[-12,-6],[-66,-18],[-42,0],[-78,-18],[-114,-42],[-24,-24],[-67,-60],[-60,-42],[-30,-24],[-12,-30],[-6,-30],[6,-48],[-12,-42]],[[2266,3115],[-4,5]],[[2401,2820],[-31,48],[-48,108],[-30,96],[-26,43]],[[3127,2826],[-24,-36],[-54,-60],[-6,-30],[-18,-36]],[[2575,2465],[24,60],[-30,60],[-42,42],[-18,49],[-12,24],[-42,42],[-24,42],[-30,36]],[[2205,3043],[27,47],[30,30]],[[1908,2429],[6,54],[0,30],[-18,48],[0,30],[12,54],[18,31],[30,24],[60,6],[60,18],[6,24],[12,42],[24,48],[24,30],[6,78],[57,97]],[[1920,2375],[-12,54]],[[2575,2465],[24,-12],[24,-66],[0,-30],[24,-24],[18,-6],[24,-42],[18,-12]],[[2280,2219],[0,18],[72,12],[36,-6],[25,30],[30,12],[6,18],[-6,30],[18,6],[24,0],[12,60],[30,24],[12,30],[18,12],[18,0]],[[3025,2664],[-24,-55],[-12,-60],[6,-84],[-36,-24],[-42,0],[6,-36],[-24,-24],[12,-30],[-12,-18],[-42,-42],[0,-30],[18,-30],[0,-30],[-12,-12],[-60,30],[-36,42],[-30,18],[-30,-6]],[[2202,1912],[42,6],[12,12],[24,24],[18,43],[30,30],[30,60],[0,30],[-6,24],[-24,36],[-42,30],[-6,12]],[[2707,2273],[0,-30],[6,-30],[30,-96],[-12,-60],[0,-66],[12,-43],[36,-60],[42,-78]],[[1373,2205],[-6,-4],[-18,-30],[-15,-12]],[[1334,2159],[-15,-12],[-36,-90],[-6,-60],[0,-31],[6,-24],[54,-60],[12,-66],[0,-24]],[[1530,3078],[-6,-30],[-12,-54],[-12,-18],[-55,-6],[-12,-12],[-6,-54],[-18,-42],[0,-90],[-24,-84],[-6,-36],[18,-91],[6,-72],[0,-36],[-24,-84],[6,-30],[36,-18],[12,-24],[-6,-30],[-36,-48],[-18,-14]],[[0,1862],[22,-16],[108,-48],[18,-18],[30,-48],[12,-12]],[[2729,1810],[-42,-30]],[[2687,1780],[-76,-54],[-48,-48]],[[2821,1810],[-66,18],[-26,-18]],[[2563,1678],[-30,12],[-6,12],[-60,12],[-42,-24],[-18,12],[-12,42],[-13,12],[-18,0],[-18,12],[-6,30],[-30,12],[-42,12],[-6,18],[-60,72]],[[1656,1792],[18,30],[42,48],[12,24],[47,37]],[[1783,1960],[-7,18],[0,8]],[[1776,2009],[0,4]],[[1608,1660],[4,31]],[[1612,1691],[2,11],[42,90]],[[1775,1931],[7,5],[6,12],[-5,12]],[[1776,1986],[0,23]],[[1776,2013],[0,14],[36,42],[-6,30],[0,48],[18,60],[6,48],[18,60],[12,12],[48,30],[12,18]],[[1392,1782],[5,-2],[42,-6],[30,-6],[10,-5]],[[1585,1680],[23,-20]],[[1349,1792],[43,-10]],[[1479,1763],[33,-19],[73,-64]],[[1608,1660],[48,-24],[18,7]],[[1674,1643],[12,5],[42,-12]],[[1867,1730],[17,8],[30,6],[21,-5]],[[1728,1636],[36,6],[30,24],[30,42],[43,22]],[[1935,1739],[27,-7],[30,12],[30,30],[54,72],[42,42],[84,24]],[[2821,1810],[12,-120],[30,-78],[30,-18],[18,-30],[0,-30],[12,-36],[-6,-30],[-12,-12],[-42,6],[-18,-30],[6,-36]],[[190,1720],[36,-18],[30,-12],[30,0],[42,-30],[36,-72],[12,-48],[12,-30],[48,-48],[30,-78]],[[2803,1314],[0,-39]],[[2851,1396],[-36,-36],[-12,-24],[0,-22]],[[2803,1275],[-30,-12],[-11,0]],[[2762,1263],[-19,0]],[[2995,1216],[-36,41],[-18,0],[-48,-6],[-36,-12]],[[3470,1354],[-60,-6],[-24,-18],[0,-43],[-12,-18],[-30,6],[-30,-24],[-25,0],[-48,-24],[-24,24],[-30,67],[-18,6],[-30,0],[-12,-43],[-12,-18],[-24,-6],[-30,-24],[-36,-24],[-30,6],[0,1]],[[1785,1424],[-3,26],[-4,8]],[[1778,1458],[-14,28],[-18,18],[-24,60],[-6,30],[12,42]],[[1860,1113],[-6,66],[-24,84],[-18,36],[-42,49],[0,18],[18,30],[-3,28]],[[2485,1127],[-6,-2],[-36,-12],[-20,-11]],[[2423,1102],[-22,-13],[-31,-12],[-6,-12]],[[2743,1263],[-18,0],[-42,-30],[-30,-6],[-30,-30],[-12,-6],[-30,-18],[-30,-12],[-24,-24],[-42,-10]],[[1121,1041],[0,30],[-24,78],[12,54],[30,60],[24,24],[30,24],[36,43],[36,66],[18,42],[0,36],[12,42],[-18,48],[18,6],[0,30],[-6,48],[12,60],[12,24],[36,36]],[[3548,981],[12,54],[6,66],[0,30],[-18,72],[-6,12],[-48,30],[-6,30],[0,67],[-18,12]],[[947,747],[42,18],[12,18],[0,36],[18,60],[30,36],[6,18],[18,84],[12,12],[36,12]],[[916,766],[-47,5],[-24,24],[-78,12],[-13,5]],[[754,812],[-17,7],[-18,48],[-18,72],[-36,96],[-6,30],[-30,24],[-24,48],[-31,48],[-66,72],[-30,48],[-12,79]],[[947,747],[-18,18],[-13,1]],[[1860,1113],[-12,-24],[-18,-12],[-66,-6],[-36,-66],[-18,-18],[-60,-102],[-24,-18],[-48,-48],[-48,-60],[-61,-42],[-78,-73],[-24,-30],[-30,-48],[-6,-18]],[[1037,518],[-12,24],[0,42],[-6,12],[-30,12],[-6,36],[-30,25],[-18,30],[0,30],[12,18]],[[3821,739],[3,-4],[16,-59]],[[3548,981],[6,-18],[30,-6],[12,-30],[-30,-78],[18,-30],[42,-24],[42,12],[48,-12],[30,6],[30,-6],[18,6],[12,-6],[-6,-30],[21,-26]],[[3840,676],[2,-7],[30,-19],[6,-12],[12,-48],[72,-108]],[[1204,487],[29,12]],[[1121,452],[18,18],[54,12],[11,5]],[[1233,499],[32,13],[66,36]],[[1121,452],[-36,30],[-36,12],[-12,24]],[[3962,482],[48,-156]],[[2372,499],[10,-17],[-6,-60],[0,-26]],[[2376,396],[0,-4],[-6,-36],[-24,-48]],[[2364,1065],[-12,-42],[0,-30],[18,-30],[37,-48],[18,-48],[-6,-30],[12,-30],[-24,-30],[-19,-18],[13,-36],[-6,-30],[6,-30],[12,-31],[-25,-48],[-6,-42],[-18,-30],[8,-13]],[[3686,506],[-12,-36],[-24,-42],[-36,-24],[-126,-84],[-24,-54]],[[1162,352],[-7,34]],[[1155,386],[-4,18],[-12,36],[-18,12]],[[1229,236],[-24,30],[-6,42],[-36,36],[-1,8]],[[3356,224],[108,42]],[[701,116],[30,30],[12,0],[18,12],[42,66],[42,90],[30,24],[78,48],[6,12],[-6,30],[12,30],[42,48],[30,12]],[[1355,38],[-6,36],[-30,66],[-30,48],[-24,30],[-36,18]],[[3464,266],[42,-12],[42,-6],[30,-18],[36,-42],[24,-48],[30,-18],[18,-30],[30,-6],[36,6],[12,-6],[102,-42],[18,-24],[30,-6]],[[4010,326],[24,-54],[36,-24],[26,0]],[[4060,0],[-14,8],[-30,6],[-32,-14]],[[3914,0],[0,14]],[[3255,0],[10,32],[30,60],[13,18],[30,6],[6,18],[-12,30],[-12,36],[12,12],[24,12]],[[2346,308],[0,-42],[-6,-30],[-18,-30],[-6,-30],[-12,-30],[-12,-60],[-30,-18],[-12,-36],[-18,-30],[0,-2]],[[2920,0],[3,2],[2,-2]],[[683,0],[-6,56],[12,42],[12,18]],[[1248,0],[-7,14],[-6,30],[24,96],[-24,72],[-6,24]],[[1365,0],[-10,38]],[[0,0],[0,4096],[4096,0],[0,-4096],[-4096,0]],[[2126,2629],[8,38],[37,-16],[55,37],[39,-15],[34,59],[-46,74],[76,1],[18,-58],[80,-45],[-84,8],[-8,-41],[-49,10],[-6,-36],[75,-11],[30,-54],[97,-42],[11,-26],[-140,-59],[-55,14],[-40,32],[-27,-10],[-105,140]],[[258,2752],[55,23],[94,-9],[73,46],[71,6],[72,-33],[312,-12],[7,45],[-63,121],[-11,92],[-61,43],[-1,44],[55,5],[-7,50],[-115,82],[-9,40],[52,-14],[188,63],[36,-13],[-7,-94],[90,-32],[-35,-105],[41,-168],[29,-20],[31,66],[50,-10],[-204,-259],[-279,40],[-157,-10],[-29,-16],[-9,-52],[-114,-4],[111,78],[-172,-27],[-94,34]],[[1924,0],[-39,0],[22,13],[17,-13]],[[1853,1899],[77,3],[84,110],[75,62],[172,7],[33,34],[-12,-75],[-194,4],[-81,-55],[18,-125],[-42,-50],[-82,9],[-47,32],[-1,44]],[[1596,261],[65,20],[91,-51],[0,-51],[32,-17],[4,-51],[-28,-16],[30,-91],[-53,37],[-5,-41],[-7,0],[-38,19],[30,20],[0,47],[-121,175]],[[2814,3914],[186,89],[47,-19],[-5,-39],[79,-67],[-242,-54],[-19,65],[-46,25]],[[3254,128],[-45,31],[29,51],[24,-12],[-8,-70]],[[2931,128],[-84,46],[35,52],[25,-3],[24,-95]],[[1264,420],[-57,32],[-8,81],[22,-7],[43,-106]],[[1224,325],[-31,4],[-58,42],[25,19],[88,-35],[-24,-30]],[[3351,323],[-44,20],[12,45],[38,-27],[-6,-38]],[[2395,443],[34,-23],[-42,-33],[-55,49],[32,65],[26,-6],[5,-52]],[[3005,825],[-36,33],[10,48],[49,-65],[-23,-16]],[[2525,1103],[1,-19],[-113,0],[36,65],[76,-46]],[[1928,1259],[-17,-30],[-50,30],[39,36],[28,-36]],[[2228,1265],[-58,45],[6,9],[43,8],[25,-24],[7,-25],[-23,-13]],[[2871,1322],[27,-44],[89,-27],[8,-38],[-124,-50],[-118,34],[16,113],[102,12]],[[2813,1454],[-46,32],[2,35],[28,-1],[37,-48],[-21,-18]],[[3060,1618],[-54,17],[-11,48],[81,-33],[-16,-32]],[[1669,1618],[-24,5],[-74,44],[28,28],[44,-12],[32,-31],[-6,-34]],[[1910,1716],[-47,15],[10,23],[71,-6],[-34,-32]],[[2710,1766],[-47,29],[-7,33],[72,-16],[9,-32],[-27,-14]],[[2921,2144],[-39,8],[3,38],[62,59],[29,-31],[-55,-74]],[[2623,2314],[-81,16],[-12,58],[86,-49],[7,-25]],[[2805,2428],[-20,-1],[0,33],[28,43],[69,-11],[-77,-64]],[[3157,2767],[-24,73],[8,25],[33,-41],[-17,-57]],[[2089,2929],[-64,0],[6,35],[52,0],[6,-35]],[[1637,3140],[17,47],[47,17],[-17,-47],[-47,-17]],[[2251,3140],[-81,0],[47,58],[29,-10],[5,-48]],[[1879,2994],[-49,32],[81,33],[0,-20],[-32,-45]],[[2122,3042],[9,70],[34,6],[6,-68],[-49,-8]],[[2947,663],[32,0],[6,-58],[-87,9],[33,65],[16,-16]],[[3850,670],[-28,18],[-1,56],[81,-16],[-52,-58]],[[1769,1449],[80,80],[32,75],[-21,20],[12,30],[106,-6],[3,-69],[-37,-23],[41,-8],[20,-37],[-58,20],[-20,-30],[41,-22],[7,-110],[-27,-9],[-12,53],[-31,21],[-11,-25],[-76,11],[-16,-23],[-33,52]],[[3865,3265],[173,-8],[24,-52],[34,30],[0,-173],[-29,5],[-72,50],[-16,52],[-102,42],[-12,54]],[[4096,3318]],[[3522,1994],[29,68],[-7,134],[16,-50],[63,-17],[24,-51],[73,-14],[86,-74],[10,-113],[138,-186],[-27,-61],[13,-239],[-159,-186],[-8,34],[-44,18],[17,43],[-33,85],[35,109],[-35,29],[-38,117],[-27,185],[-126,169]],[[2184,3042],[57,143],[-15,105],[30,22],[20,109],[60,613],[24,19],[-21,28],[162,-166],[49,139],[59,42],[553,0],[-122,-141],[79,-87],[-242,-43],[9,-33],[-77,-112],[-16,-151],[-33,12],[-15,-81],[19,-43],[-59,40],[-8,-69],[-67,-27],[12,-51],[-28,-10],[11,-24],[-61,-71],[-144,64],[0,39],[-64,-95],[-29,43],[-92,-211],[-51,-3]],[[1313,2047],[48,83],[-37,39],[21,30],[48,10],[28,-24],[18,31],[72,-8],[84,52],[101,7],[-7,93],[37,33],[19,137],[-40,0],[-47,77],[-54,24],[-19,36],[39,122],[-94,24],[-4,31],[56,117],[-7,115],[100,146],[10,76],[-19,31],[26,16],[22,97],[151,193],[82,191],[47,36],[-68,16],[-35,-27],[-25,11],[7,96],[34,11],[93,-81],[35,84],[-19,65],[45,59],[273,0],[26,-43],[-24,-19],[-60,-613],[-20,-109],[-30,-22],[15,-105],[-55,-148],[-56,-55],[-39,-137],[-118,22],[-33,-18],[-49,-251],[-71,12],[-21,26],[-33,-41],[27,-28],[-17,-66],[57,-40],[4,-45],[45,-36],[-107,-200],[11,-29],[-59,-141],[50,3],[-9,-29],[43,11],[91,60],[47,72],[87,25],[113,-20],[-15,-65],[-45,7],[-48,-34],[-111,-138],[-117,-4],[4,48],[-42,17],[3,-27],[-109,-146],[-149,18],[-78,-87],[-52,51],[33,167],[-26,20],[13,11],[-78,23],[-19,54]],[[599,3432],[45,44],[168,46],[-140,252],[-67,52],[27,21],[15,-38],[26,-2],[-21,58],[97,15],[50,-64],[204,-82],[117,-15],[67,41],[36,-10],[-21,-73],[-49,-31],[-22,-57],[-161,-31],[-100,-154],[-18,-103],[-70,-20],[-61,19],[-122,132]],[[1869,0],[-77,0],[-32,95],[28,16],[-4,51],[-32,17],[0,51],[-158,62],[-91,79],[-28,-14],[-66,52],[-23,-11],[-35,114],[72,-4],[39,74],[40,-4],[64,-76],[22,4],[31,67],[72,10],[-24,53],[32,41],[-32,28],[11,20],[26,-20],[38,71],[39,-7],[15,-38],[15,14],[23,-35],[-17,-30],[19,-219],[89,-128],[-44,-44],[13,-64],[-18,-99],[-27,-12],[66,-94],[-46,-20]],[[0,1543],[73,-89],[-25,2],[-22,-78],[-26,-11],[0,176]],[[528,4096],[-68,-131],[-88,-3],[-22,-26],[-36,28],[-123,-89],[-81,14],[-59,-36],[-44,6],[-7,-61],[0,298],[528,0]],[[0,1290],[47,-67],[23,6],[7,-28],[56,-26],[51,-132],[-31,-65],[61,-90],[91,-17],[49,24],[103,-82],[9,-45],[-53,-36],[-34,-216],[34,-125],[22,-10],[87,16],[57,-37],[26,15],[196,258],[-44,89],[27,71],[-41,26],[88,182],[46,14],[8,51],[54,-7],[99,-117],[-31,-27],[-43,7],[-46,-132],[-11,-149],[-81,-168],[-133,-60],[8,-24],[-85,-143],[-7,47],[-111,-20],[-49,23],[-72,-63],[-29,8],[-3,29],[-60,11],[-9,-20],[-35,37],[-121,-56],[-120,18],[0,1030]]]}