{"objects":{"water":{"type":"GeometryCollection","geometries":[{"type":"Polygon","properties":{"source":"naturalearthdata.com","kind":"lake","name":"Tonle Sap","area":2687235840,"sort_rank":200,"min_zoom":0.0,"id":494},"arcs":[[133]]},{"type":"MultiLineString","properties":{"source":"naturalearthdata.com","kind":"lake","sort_rank":367,"boundary":true,"min_zoom":0.0,"id":494},"arcs":[[134],[135]]}]},"buildings":{"type":"GeometryCollection","geometries":[]},"places":{"type":"GeometryCollection","geometries":[{"type":"Point","properties":{"name:ka":"\u10d9\u10d0\u10db\u10d1\u10dd\u10ef\u10d0","name:ko":"\uce84\ubcf4\ub514\uc544","name:cv":"\u041a\u0430\u043c\u0431\u043e\u0434\u0436\u0430","name:kl":"Kambodia","name:cs":"Kambod\u017ea","name:ki":"Kambodia","name:kw":"Kamboji","name:kv":"\u041a\u0430\u043c\u0431\u043e\u0434\u0436\u0430","name:ku":"Kamboca","name:ti":"\u12ab\u121d\u1266\u12f2\u12eb","name:ks":"\u06a9\u064e\u0645\u0628\u0648\u0691\u0650\u06cc\u0627","name:to":"Kemip\u014dtia","name:tl":"Kambodya","name:ce":"\u041a\u0430\u043c\u0431\u043e\u0434\u0436\u0430","name:ta":"\u0b95\u0bae\u0bcd\u0baa\u0bcb\u0b9f\u0bbf\u0baf\u0bbe","name:tg":"\u041a\u0430\u043c\u0431\u043e\u04b7\u0430","name:ca":"Cambodja","name:te":"\u0c15\u0c02\u0c2c\u0c4b\u0c21\u0c3f\u0c2f\u0c3e","name:cy":"Cambodia","name:hr":"Kambod\u017ea","name:da":"Cambodja","name:de":"Kambodscha","name:dz":"\u0f40\u0f58\u0f0b\u0f56\u0fb7\u0f7c\u0f0b\u0f4c\u0f72\u0f0b\u0f61","source":"openstreetmap.org","name:kn":"\u0c95\u0cbe\u0c82\u0cac\u0ccb\u0ca1\u0cbf\u0caf\u0cbe","name:dv":"\u0786\u07ac\u0782\u07b0\u0784\u07af\u0791\u07a8\u0787\u07a7","name:lv":"Kambod\u017ea","name:lt":"Kambod\u017ea","name:uz":"Kambodja","name:kk":"\u041a\u0430\u043c\u0431\u043e\u0434\u0436\u0430","name:ur":"\u06a9\u0645\u0628\u0648\u0688\u06cc\u0627","name:lb":"Kambodscha","name:la":"Cambosia","name:lg":"Kambodya","name:uk":"\u041a\u0430\u043c\u0431\u043e\u0434\u0436\u0430","name:ug":"\u0643\u0627\u0645\u0628\u0648\u062c\u0627","name:li":"Cambodja","name:ln":"Kambodza","name:lo":"\u0ea3\u0eb2\u0e8a\u0ead\u0eb2\u0e99\u0eb2\u0e88\u0eb1\u0e81 \u0e81\u0eb3\u0e9b\u0eb9\u0ec0\u0e88\u0e8d","name:el":"\u039a\u03b1\u03bc\u03c0\u03cc\u03c4\u03b6\u03b7","name:eo":"Kambo\u011do","name:en":"Cambodia","name":"\u1780\u1798\u17d2\u1796\u17bb\u1787\u17b6","name:tk":"Kambo\u00e7i\u00fda","name:ee":"Kambodia nutome","name:th":"\u0e1b\u0e23\u0e30\u0e40\u0e17\u0e28 \u0e01\u0e31\u0e21\u0e1e\u0e39\u0e0a\u0e32","name:eu":"Kanbodia","name:et":"Kambod\u017ea","name:es":"Camboya","name:ia":"Cambodgia","name:rm":"Cambodscha","name:rn":"Kamboje","name:az":"Kamboca","name:ie":"Cambodja","name:id":"Kamboja","name:ar":"\u0643\u0645\u0628\u0648\u062f\u064a\u0627","name:io":"Kambodja","name:ak":"Kambodia","name:am":"\u12ab\u121d\u1266\u12f2\u12eb","name:it":"Cambogia","name:an":"Cambocha","name:ru":"\u041a\u0430\u043c\u0431\u043e\u0434\u0436\u0430","name:rw":"Kambodiya","name:af":"Kambodja","name:zu":"i-Cambodia","name:zh-yue":"\u67ec\u57d4\u5be8","name:zh":"\u67ec\u57d4\u5be8","name:so":"Kamboodiya","name:sn":"Kambodia","name:sl":"Kambod\u017ea","name:sk":"Kambod\u017ea","name:ja":"\u30ab\u30f3\u30dc\u30b8\u30a2","name:si":"\u0d9a\u0dcf\u0db8\u0dca\u0db6\u0ddd\u0da2\u0dba","name:sh":"Kambod\u017ea","name:sg":"K\u00e4mb\u00f4zi","name:se":"Kambod\u017ea","name:br":"Kambodja","name:bs":"Kambod\u017ea","name:bm":"Kamboji","name:bn":"\u0995\u09be\u09ae\u09cd\u09ac\u09cb\u099c","name:bo":"\u0f40\u0f58\u0f0b\u0f56\u0f7c\u0f0b\u0f4c\u0f72\u0f0b\u0f61\u0f0d","name:sw":"Kambodia","name:be":"\u041a\u0430\u043c\u0431\u043e\u0434\u0436\u0430","name:su":"Kamboja","name:bg":"\u041a\u0430\u043c\u0431\u043e\u0434\u0436\u0430","name:ss":"IKhambodiya","name:ba":"\u041a\u0430\u043c\u0431\u043e\u0434\u0436\u0430","name:sq":"Kamboxhi","name:jv":"Kamboja","name:pt":"Camboja","name:ps":"\u06a9\u0645\u0628\u0648\u062f\u06cc\u0627","name:oc":"Camb\u00f2tja","min_zoom":2.0,"name:ro":"Cambodgia","name:zh-min-nan":"Kampuchea","name:os":"\u041a\u0430\u043c\u0431\u043e\u0434\u0436\u00e6","name:or":"\u0b15\u0b3e\u0b2e\u0b4d\u0b2c\u0b4b\u0b21\u0b3f\u0b06","name:pl":"Kambod\u017ca","name:sr":"\u041a\u0430\u043c\u0431\u043e\u045f\u0430","name:pa":"\u0a15\u0a70\u0a2c\u0a4b\u0a21\u0a40\u0a06","name:tr":"Kambo\u00e7ya","name:hi":"\u0915\u092e\u094d\u092c\u094b\u0921\u093f\u092f\u093e","name:sv":"Kambodja","name:he":"\u05e7\u05de\u05d1\u05d5\u05d3\u05d9\u05d4","name:ha":"Kambodiya","name:hy":"\u053f\u0561\u0574\u0562\u0578\u057b\u0561","name:ht":"Kanb\u00f2dj","name:hu":"Kambodzsa","name:qu":"Kambuya","population":14138255,"kind":"country","name:is":"Kamb\u00f3d\u00eda","name:yi":"\u05e7\u05d0\u05de\u05d1\u05d0\u05d3\u05d9\u05e2","name:yo":"Or\u00edl\u1eb9\u0301\u00e8de K\u00e0m\u00f9b\u00f3d\u00ed\u00e0","name:mt":"Kambodja","name:ms":"Kemboja","name:mr":"\u0915\u0902\u092c\u094b\u0921\u093f\u092f\u093e","name:my":"\u1000\u1019\u1039\u1018\u1031\u102c\u1012\u102e\u1038\u101a\u102c\u1038","int_name":"Cambodia","name:mg":"Kamb\u00f4dja","name:ml":"\u0d15\u0d02\u0d2c\u0d4b\u0d21\u0d3f\u0d2f","name:vi":"Campuchia","name:mn":"\u041a\u0430\u043c\u0431\u043e\u0436","name:mi":"Kamap\u014dtia","id":432424952,"name:mk":"\u041a\u0430\u043c\u0431\u043e\u045f\u0430","name:vo":"Kamboc\u00e4n","name:fa":"\u06a9\u0627\u0645\u0628\u0648\u062c","name:ff":"Kambodso","name:fi":"Kambod\u017ea","old_name:vi":"Cao Mi\u00ean","name:fo":"Kambodja","alt_name:vi":"C\u0103m B\u1ed1t","name:fr":"Cambodge","name:fy":"Kambodja","name:nl":"Cambodja","name:nn":"Kambodsja","name:no":"Kambodsja","name:na":"Kambodja","name:ne":"\u0915\u092e\u094d\u092c\u094b\u0921\u093f\u092f\u093e","name:wo":"Kamboodi","name:ga":"An Chamb\u00f3id","name:gd":"Cambuidea","name:gn":"Kamboja","name:gl":"Camboxa - \u1780\u1798\u17d2\u1796\u17bb\u1787\u17b6","name:gv":"Yn Chamboyd","name:gu":"\u0a95\u0a82\u0aac\u0acb\u0aa1\u0abf\u0aaf\u0abe","name:tt":"\u041a\u0430\u043c\u0431\u043e\u0497\u0430"},"coordinates":[1175,3474]},{"type":"Point","properties":{"kind":"region","name:en":"Binh Duong Province","name":"B\u00ecnh D\u01b0\u01a1ng","kind_detail":"state","source":"openstreetmap.org","min_zoom":4.0,"name:vi":"T\u1ec9nh B\u00ecnh D\u01b0\u01a1ng","id":2579050159,"population":1691400},"coordinates":[3853,28]},{"type":"Point","properties":{"admin_level":"4","kind":"region","name:en":"Kandal","name":"\u1781\u17c1\u178f\u17d2\u178f\u1780\u178e\u17d2\u178a\u17b6\u179b","kind_detail":"state","source":"openstreetmap.org","min_zoom":4.0,"id":4353293608,"name:ja":"\u30ab\u30f3\u30c0\u30eb"},"coordinates":[1587,472]},{"type":"Point","properties":{"kind":"region","name:en":"Binh Phuoc province","name":"B\u00ecnh Ph\u01b0\u1edbc","kind_detail":"state","source":"openstreetmap.org","min_zoom":4.0,"name:uk":"\u0411\u0456\u043d\u044c\u0444\u0438\u043e\u043a","name:vi":"T\u1ec9nh B\u00ecnh Ph\u01b0\u1edbc","id":1536526761,"name:ja":"\u30d3\u30f3\u30d5\u30aa\u30c3\u30af"},"coordinates":[3983,747]},{"type":"Point","properties":{"kind":"region","name:en":"Tay Ninh province","name":"T\u00e2y Ninh","kind_detail":"state","min_zoom":4.0,"source":"openstreetmap.org","name:fr":"Province de T\u00e2y Ninh","name:uk":"\u0422\u0435\u0439\u043d\u0456\u043d\u044c","name:vi":"T\u1ec9nh T\u00e2y Ninh","id":1536593895,"name:ja":"\u30bf\u30a4\u30cb\u30f3"},"coordinates":[2827,338]},{"type":"Point","properties":{"kind":"region","name:en":"Binh Duong province","name":"B\u00ecnh D\u01b0\u01a1ng","kind_detail":"state","source":"openstreetmap.org","min_zoom":4.0,"name:vi":"T\u1ec9nh B\u00ecnh D\u01b0\u01a1ng","id":1541774633,"name:ja":"\u30d3\u30f3\u30ba\u30aa\u30f3"},"coordinates":[3794,68]},{"type":"Point","properties":{"admin_level":"4","kind":"region","name:en":"Kampong Thom","name":"\u1781\u17c1\u178f\u17d2\u178f\u200b\u1780\u17c6\u1796\u1784\u17cb\u1792\u17c6","kind_detail":"state","source":"openstreetmap.org","min_zoom":4.0,"name:ru":"\u041a\u0430\u043c\u043f\u043e\u043d\u0433\u0442\u0445\u043e\u043c","id":4344553820,"name:ja":"\u30b3\u30f3\u30dd\u30f3\u30c8\u30e0"},"coordinates":[1202,2224]},{"type":"Point","properties":{"admin_level":"4","kind":"region","name:en":"Kampong Chhnang","name":"\u1781\u17c1\u178f\u17d2\u178f\u200b\u1780\u17c6\u1796\u1784\u17cb\u1786\u17d2\u1793\u17b6\u17c6\u1784","kind_detail":"state","source":"openstreetmap.org","min_zoom":4.0,"id":4353291629,"name:ja":"\u30b3\u30f3\u30dd\u30f3\u30c1\u30e5\u30ca\u30f3"},"coordinates":[397,1432]},{"type":"Point","properties":{"source":"naturalearthdata.com","kind":"locality","name":"Phnom Penh","country_capital":true,"population":1466000,"min_zoom":5.0,"id":7066},"coordinates":[1241,557]},{"type":"Point","properties":{"source":"naturalearthdata.com","kind":"locality","name":"Kampong Cham","population":83233,"region_capital":true,"min_zoom":7.0,"id":4492},"coordinates":[2021,1227]},{"type":"Point","properties":{"source":"naturalearthdata.com","kind":"locality","name":"Kompong Chhnang","population":75244,"region_capital":true,"min_zoom":7.0,"id":4493},"coordinates":[880,1600]},{"type":"Point","properties":{"source":"naturalearthdata.com","kind":"locality","name":"Hon Quan","population":40279,"min_zoom":7.0,"id":2297},"coordinates":[3696,704]}]},"transit":{"type":"GeometryCollection","geometries":[]},"pois":{"type":"GeometryCollection","geometries":[{"type":"Point","properties":{"kind":"protected_area","protect_class":"3","area":6655810000,"source":"openstreetmap.org","min_zoom":7.0,"tier":2,"id":-5638557,"osm_relation":true,"name":"Boeung Tonle Sap Protected Area"},"coordinates":[19,2526]},{"type":"Point","properties":{"kind":"national_park","name:en":"Phnom Kulen National Park","protect_class":"2","area":389182000,"source":"openstreetmap.org","min_zoom":6.49,"tier":1,"id":165270969,"name":"\u17a7\u1791\u17d2\u1799\u17b6\u1793\u1787\u17b6\u178f\u17b7 \u1782\u17bc\u179b\u17c2\u1793"},"coordinates":[64,3633]},{"type":"Point","properties":{"kind":"national_park","name:en":"Prey Lang Wildlife Sanctuary","protect_class":"2","area":4596170000,"source":"openstreetmap.org","min_zoom":4.71,"tier":1,"id":418473145,"name":"\u178a\u17c2\u1793\u1787\u1798\u17d2\u179a\u1780\u179f\u178f\u17d2\u179c\u1796\u17d2\u179a\u17c3 \u1796\u17d2\u179a\u17c3\u17a1\u1784\u17cb"},"coordinates":[2267,3047]},{"type":"Point","properties":{"kind":"national_park","name:en":"Phnom Tbeng National Heritage","protect_class":"2","area":269314000,"source":"openstreetmap.org","min_zoom":6.75,"tier":1,"id":444217838,"name":"\u1794\u17c1\u178f\u17b7\u1780\u1797\u178e\u17d2\u178c\u1792\u1798\u17d2\u1798\u1787\u17b6\u178f\u17b7 \u1797\u17d2\u1793\u17c6\u178f\u17d2\u1794\u17c2\u1784"},"coordinates":[1205,3754]}]},"boundaries":{"type":"GeometryCollection","geometries":[{"type":"MultiLineString","properties":{"source":"naturalearthdata.com","kind":"country","sort_rank":262,"kind_detail":"2","min_zoom":0.0,"id":66},"arcs":[[0],[1],[2],[3],[4],[5],[6],[7],[8],[9],[10],[11],[12],[13]]},{"type":"MultiLineString","properties":{"source":"naturalearthdata.com","kind":"country","sort_rank":262,"kind_detail":"2","min_zoom":0.0,"id":291},"arcs":[[14],[15],[16],[17]]},{"type":"MultiLineString","properties":{"source":"naturalearthdata.com","kind":"region","name":"K\u00e2mp\u00f3ng Cham - K\u00e2mp\u00f3ng Chhnang","sort_rank":256,"kind_detail":"4","min_zoom":6.7,"id":4565},"arcs":[[18],[19],[20]]},{"type":"LineString","properties":{"source":"naturalearthdata.com","kind":"region","name":"Tak\u00eav - K\u00e2mp\u00f3ng Sp\u0153","sort_rank":256,"kind_detail":"4","min_zoom":6.7,"id":4585},"arcs":[21]},{"type":"LineString","properties":{"source":"naturalearthdata.com","kind":"region","name":"B\u00ecnh D\u01b0\u01a1ng - T\u00e2y Ninh","sort_rank":256,"kind_detail":"4","min_zoom":6.7,"id":787},"arcs":[22]},{"type":"MultiLineString","properties":{"source":"naturalearthdata.com","kind":"region","name":"B\u00ecnh Ph\u01b0\u1edbc - B\u00ecnh D\u01b0\u01a1ng","sort_rank":256,"kind_detail":"4","min_zoom":6.7,"id":791},"arcs":[[23],[24],[25],[26],[27]]},{"type":"LineString","properties":{"source":"naturalearthdata.com","kind":"region","name":"T\u00e2y Ninh - B\u00ecnh Ph\u01b0\u1edbc","sort_rank":256,"kind_detail":"4","min_zoom":6.7,"id":794},"arcs":[28]},{"type":"LineString","properties":{"source":"naturalearthdata.com","kind":"region","name":"K\u00e2mp\u00f3ng Chhnang - Pouthisat","sort_rank":256,"kind_detail":"4","min_zoom":6.7,"id":4550},"arcs":[29]},{"type":"LineString","properties":{"source":"naturalearthdata.com","kind":"region","name":"Pouthisat - K\u00e2mp\u00f3ng Thum","sort_rank":256,"kind_detail":"4","min_zoom":6.7,"id":4551},"arcs":[30]},{"type":"MultiLineString","properties":{"source":"naturalearthdata.com","kind":"region","name":"K\u00e2mp\u00f3ng Chhnang - K\u00e2mp\u00f3ng Thum","sort_rank":256,"kind_detail":"4","min_zoom":6.7,"id":4552},"arcs":[[31],[32],[33],[34],[35]]},{"type":"LineString","properties":{"source":"naturalearthdata.com","kind":"region","name":"St\u0153ng Tr\u00eang - K\u00e2mp\u00f3ng Thum","sort_rank":256,"kind_detail":"4","min_zoom":6.7,"id":4553},"arcs":[36]},{"type":"MultiLineString","properties":{"source":"naturalearthdata.com","kind":"region","name":"Preah Vih\u00e9ar - K\u00e2mp\u00f3ng Thum","sort_rank":256,"kind_detail":"4","min_zoom":6.7,"id":4554},"arcs":[[37],[38],[39]]},{"type":"MultiLineString","properties":{"source":"naturalearthdata.com","kind":"region","name":"Preah Vih\u00e9ar - St\u0153ng Tr\u00eang","sort_rank":256,"kind_detail":"4","min_zoom":6.7,"id":4555},"arcs":[[40],[41],[42],[43],[44]]},{"type":"LineString","properties":{"source":"naturalearthdata.com","kind":"region","name":"Pouthisat - Siemr\u00e9ab","sort_rank":256,"kind_detail":"4","min_zoom":6.7,"id":4558},"arcs":[45]},{"type":"MultiLineString","properties":{"source":"naturalearthdata.com","kind":"region","name":"Siemr\u00e9ab - K\u00e2mp\u00f3ng Thum","sort_rank":256,"kind_detail":"4","min_zoom":6.7,"id":4560},"arcs":[[46],[47],[48]]},{"type":"MultiLineString","properties":{"source":"naturalearthdata.com","kind":"region","name":"Ka\u00f4h Kong - K\u00e2mp\u00f3ng Sp\u0153","sort_rank":256,"kind_detail":"4","min_zoom":6.7,"id":4582},"arcs":[[49],[50]]},{"type":"MultiLineString","properties":{"source":"naturalearthdata.com","kind":"region","name":"K\u00e2mp\u00f3ng Sp\u0153 - Pouthisat","sort_rank":256,"kind_detail":"4","min_zoom":6.7,"id":4583},"arcs":[[51],[52],[53],[54]]},{"type":"MultiLineString","properties":{"source":"naturalearthdata.com","kind":"region","name":"Siemr\u00e9ab - Preah Vih\u00e9ar","sort_rank":256,"kind_detail":"4","min_zoom":6.7,"id":4561},"arcs":[[55],[56],[57]]},{"type":"LineString","properties":{"source":"naturalearthdata.com","kind":"region","name":"Kr\u00e2ch\u00e9h - K\u00e2mp\u00f3ng Thum","sort_rank":256,"kind_detail":"4","min_zoom":6.7,"id":4562},"arcs":[58]},{"type":"MultiLineString","properties":{"source":"naturalearthdata.com","kind":"region","name":"Kr\u00e2ch\u00e9h - St\u0153ng Tr\u00eang","sort_rank":256,"kind_detail":"4","min_zoom":6.7,"id":4563},"arcs":[[59],[60],[61],[62],[63],[64]]},{"type":"MultiLineString","properties":{"source":"naturalearthdata.com","kind":"region","name":"Svay Rieng - Prey V\u00eang","sort_rank":256,"kind_detail":"4","min_zoom":6.7,"id":4564},"arcs":[[65],[66],[67],[68],[69]]},{"type":"MultiLineString","properties":{"source":"naturalearthdata.com","kind":"region","name":"K\u00e2mp\u00f3ng Thum - K\u00e2mp\u00f3ng Cham","sort_rank":256,"kind_detail":"4","min_zoom":6.7,"id":4566},"arcs":[[70],[71],[72],[73],[74],[75],[76],[77],[78],[79],[80],[81],[82]]},{"type":"MultiLineString","properties":{"source":"naturalearthdata.com","kind":"region","name":"K\u00e2mp\u00f3ng Sp\u0153 - K\u00e2mp\u00f3ng Chhnang","sort_rank":256,"kind_detail":"4","min_zoom":6.7,"id":4584},"arcs":[[83],[84],[85],[86]]},{"type":"MultiLineString","properties":{"source":"naturalearthdata.com","kind":"region","name":"Kr\u00e2ch\u00e9h - K\u00e2mp\u00f3ng Cham","sort_rank":256,"kind_detail":"4","min_zoom":6.7,"id":4567},"arcs":[[87],[88],[89],[90],[91],[92],[93],[94],[95],[96],[97],[98],[99],[100]]},{"type":"MultiLineString","properties":{"source":"naturalearthdata.com","kind":"region","name":"Prey V\u00eang - K\u00e2mp\u00f3ng Cham","sort_rank":256,"kind_detail":"4","min_zoom":6.7,"id":4568},"arcs":[[101],[102],[103],[104]]},{"type":"MultiLineString","properties":{"source":"naturalearthdata.com","kind":"region","name":"M\u00f4nd\u00f3l Kiri - St\u0153ng Tr\u00eang","sort_rank":256,"kind_detail":"4","min_zoom":6.7,"id":4569},"arcs":[[105],[106]]},{"type":"MultiLineString","properties":{"source":"naturalearthdata.com","kind":"region","name":"M\u00f4nd\u00f3l Kiri - Kr\u00e2ch\u00e9h","sort_rank":256,"kind_detail":"4","min_zoom":6.7,"id":4570},"arcs":[[107],[108],[109]]},{"type":"LineString","properties":{"source":"naturalearthdata.com","kind":"region","name":"St\u0153ng Tr\u00eang - R\u00f4t\u00e2n\u00f4kiri","sort_rank":256,"kind_detail":"4","min_zoom":6.7,"id":4571},"arcs":[110]},{"type":"MultiLineString","properties":{"source":"naturalearthdata.com","kind":"region","name":"K\u00e2ndal - K\u00e2mp\u00f3ng Sp\u0153","sort_rank":256,"kind_detail":"4","min_zoom":6.7,"id":4586},"arcs":[[111],[112],[113]]},{"type":"LineString","properties":{"source":"naturalearthdata.com","kind":"region","name":"R\u00f4t\u00e2n\u00f4kiri - M\u00f4nd\u00f3l Kiri","sort_rank":256,"kind_detail":"4","min_zoom":6.7,"id":4572},"arcs":[114]},{"type":"LineString","properties":{"source":"naturalearthdata.com","kind":"region","name":"K\u00e2ndal - K\u00e2mp\u00f3ng Chhnang","sort_rank":256,"kind_detail":"4","min_zoom":6.7,"id":4574},"arcs":[115]},{"type":"MultiLineString","properties":{"source":"naturalearthdata.com","kind":"region","name":"Tak\u00eav - K\u00e2ndal","sort_rank":256,"kind_detail":"4","min_zoom":6.7,"id":4575},"arcs":[[116],[117],[118]]},{"type":"LineString","properties":{"source":"naturalearthdata.com","kind":"region","name":"Prey V\u00eang - K\u00e2ndal","sort_rank":256,"kind_detail":"4","min_zoom":6.7,"id":4576},"arcs":[119]},{"type":"MultiLineString","properties":{"source":"naturalearthdata.com","kind":"region","name":"K\u00e2mp\u00f3ng Cham - K\u00e2ndal","sort_rank":256,"kind_detail":"4","min_zoom":6.7,"id":4577},"arcs":[[120],[121],[122],[123],[124],[125],[126],[127],[128]]},{"type":"MultiLineString","properties":{"source":"naturalearthdata.com","kind":"region","name":"Phnom Penh - K\u00e2ndal","sort_rank":256,"kind_detail":"4","min_zoom":6.7,"id":4588},"arcs":[[129],[130],[131],[132]]}]},"roads":{"type":"GeometryCollection","geometries":[{"type":"LineString","properties":{"source":"naturalearthdata.com","kind":"minor_road","sort_rank":355,"kind_detail":"tertiary","min_zoom":7.0,"id":36374},"arcs":[136]},{"type":"LineString","properties":{"source":"naturalearthdata.com","kind":"minor_road","sort_rank":355,"kind_detail":"tertiary","min_zoom":5.0,"id":36375},"arcs":[137]},{"type":"LineString","properties":{"source":"naturalearthdata.com","kind":"minor_road","kind_detail":"tertiary","sort_rank":355,"landuse_kind":"park","min_zoom":7.0,"id":36417},"arcs":[138]},{"type":"LineString","properties":{"source":"naturalearthdata.com","kind":"minor_road","sort_rank":355,"kind_detail":"tertiary","min_zoom":7.0,"id":36420},"arcs":[139]},{"type":"LineString","properties":{"source":"naturalearthdata.com","kind":"minor_road","kind_detail":"tertiary","sort_rank":355,"landuse_kind":"park","min_zoom":7.0,"id":36426},"arcs":[140]},{"type":"LineString","properties":{"source":"naturalearthdata.com","kind":"minor_road","sort_rank":355,"kind_detail":"tertiary","min_zoom":7.0,"id":36426},"arcs":[141]},{"type":"LineString","properties":{"source":"naturalearthdata.com","kind":"minor_road","sort_rank":355,"kind_detail":"tertiary","min_zoom":5.0,"id":36587},"arcs":[142]},{"type":"LineString","properties":{"source":"naturalearthdata.com","kind":"minor_road","sort_rank":355,"kind_detail":"tertiary","min_zoom":5.0,"id":36644},"arcs":[143]},{"type":"LineString","properties":{"source":"naturalearthdata.com","kind":"minor_road","sort_rank":355,"kind_detail":"tertiary","min_zoom":5.0,"id":36656},"arcs":[144]},{"type":"LineString","properties":{"source":"naturalearthdata.com","kind":"minor_road","kind_detail":"tertiary","sort_rank":355,"landuse_kind":"national_park","min_zoom":5.0,"id":36658},"arcs":[145]},{"type":"MultiLineString","properties":{"source":"naturalearthdata.com","kind":"minor_road","sort_rank":355,"kind_detail":"tertiary","min_zoom":5.0,"id":36658},"arcs":[[146],[147]]},{"type":"LineString","properties":{"source":"naturalearthdata.com","kind":"minor_road","sort_rank":355,"kind_detail":"tertiary","min_zoom":5.0,"id":36686},"arcs":[148]},{"type":"LineString","properties":{"source":"naturalearthdata.com","kind":"major_road","sort_rank":379,"kind_detail":"secondary","min_zoom":4.0,"id":36727},"arcs":[149]},{"type":"LineString","properties":{"source":"naturalearthdata.com","kind":"minor_road","sort_rank":355,"kind_detail":"tertiary","min_zoom":5.0,"id":36729},"arcs":[150]},{"type":"LineString","properties":{"source":"naturalearthdata.com","kind":"minor_road","sort_rank":355,"kind_detail":"tertiary","min_zoom":5.0,"id":36886},"arcs":[151]},{"type":"MultiLineString","properties":{"source":"naturalearthdata.com","kind":"minor_road","kind_detail":"tertiary","sort_rank":355,"landuse_kind":"park","min_zoom":7.0,"id":36889},"arcs":[[152],[153]]},{"type":"MultiLineString","properties":{"source":"naturalearthdata.com","kind":"minor_road","sort_rank":355,"kind_detail":"tertiary","min_zoom":7.0,"id":36889},"arcs":[[154],[155]]},{"type":"LineString","properties":{"source":"naturalearthdata.com","kind":"minor_road","kind_detail":"tertiary","sort_rank":355,"landuse_kind":"park","min_zoom":5.0,"id":36927},"arcs":[156]},{"type":"MultiLineString","properties":{"source":"naturalearthdata.com","kind":"minor_road","sort_rank":355,"kind_detail":"tertiary","min_zoom":5.0,"id":36927},"arcs":[[157],[158]]},{"type":"LineString","properties":{"source":"naturalearthdata.com","kind":"major_road","sort_rank":379,"kind_detail":"secondary","min_zoom":4.0,"id":36928},"arcs":[159]},{"type":"LineString","properties":{"source":"naturalearthdata.com","kind":"minor_road","sort_rank":355,"kind_detail":"tertiary","min_zoom":5.0,"id":36947},"arcs":[160]},{"type":"LineString","properties":{"source":"naturalearthdata.com","kind":"major_road","sort_rank":379,"kind_detail":"secondary","min_zoom":4.0,"id":36964},"arcs":[161]},{"type":"LineString","properties":{"source":"naturalearthdata.com","kind":"major_road","sort_rank":379,"kind_detail":"secondary","min_zoom":3.0,"id":37024},"arcs":[162]},{"type":"LineString","properties":{"source":"naturalearthdata.com","kind":"major_road","sort_rank":379,"kind_detail":"secondary","min_zoom":4.0,"id":37030},"arcs":[163]},{"type":"LineString","properties":{"source":"naturalearthdata.com","kind":"minor_road","sort_rank":355,"kind_detail":"tertiary","min_zoom":5.0,"id":37043},"arcs":[164]},{"type":"LineString","properties":{"source":"naturalearthdata.com","kind":"major_road","sort_rank":379,"kind_detail":"secondary","min_zoom":4.0,"id":37124},"arcs":[165]},{"type":"LineString","properties":{"source":"naturalearthdata.com","kind":"minor_road","sort_rank":355,"kind_detail":"tertiary","min_zoom":5.0,"id":37133},"arcs":[166]},{"type":"LineString","properties":{"source":"naturalearthdata.com","kind":"minor_road","sort_rank":355,"kind_detail":"tertiary","min_zoom":7.0,"id":37137},"arcs":[167]},{"type":"LineString","properties":{"source":"naturalearthdata.com","kind":"major_road","sort_rank":379,"kind_detail":"secondary","min_zoom":4.0,"id":37139},"arcs":[168]},{"type":"LineString","properties":{"source":"naturalearthdata.com","kind":"major_road","sort_rank":379,"kind_detail":"secondary","min_zoom":3.0,"id":37152},"arcs":[169]},{"type":"LineString","properties":{"source":"naturalearthdata.com","kind":"major_road","sort_rank":379,"kind_detail":"secondary","min_zoom":4.0,"id":37173},"arcs":[170]},{"type":"LineString","properties":{"source":"naturalearthdata.com","kind":"minor_road","kind_detail":"tertiary","sort_rank":355,"landuse_kind":"park","min_zoom":5.0,"id":37185},"arcs":[171]},{"type":"MultiLineString","properties":{"source":"naturalearthdata.com","kind":"minor_road","sort_rank":355,"kind_detail":"tertiary","min_zoom":5.0,"id":37185},"arcs":[[172],[173]]},{"type":"LineString","properties":{"source":"naturalearthdata.com","kind":"minor_road","kind_detail":"tertiary","sort_rank":355,"landuse_kind":"park","min_zoom":5.0,"id":37201},"arcs":[174]},{"type":"LineString","properties":{"source":"naturalearthdata.com","kind":"minor_road","sort_rank":355,"kind_detail":"tertiary","min_zoom":5.0,"id":37201},"arcs":[175]},{"type":"LineString","properties":{"source":"naturalearthdata.com","kind":"minor_road","sort_rank":355,"kind_detail":"tertiary","min_zoom":5.0,"id":37216},"arcs":[176]},{"type":"LineString","properties":{"source":"naturalearthdata.com","kind":"major_road","sort_rank":379,"kind_detail":"secondary","min_zoom":4.0,"id":37227},"arcs":[177]},{"type":"LineString","properties":{"source":"naturalearthdata.com","kind":"major_road","sort_rank":379,"kind_detail":"secondary","min_zoom":3.0,"id":37248},"arcs":[178]},{"type":"LineString","properties":{"source":"naturalearthdata.com","kind":"minor_road","sort_rank":355,"kind_detail":"tertiary","min_zoom":6.0,"id":37255},"arcs":[179]},{"type":"LineString","properties":{"source":"naturalearthdata.com","kind":"minor_road","sort_rank":355,"kind_detail":"tertiary","min_zoom":5.0,"id":37264},"arcs":[180]},{"type":"LineString","properties":{"source":"naturalearthdata.com","kind":"major_road","sort_rank":379,"kind_detail":"secondary","min_zoom":3.0,"id":37283},"arcs":[181]},{"type":"LineString","properties":{"source":"naturalearthdata.com","kind":"minor_road","sort_rank":355,"kind_detail":"tertiary","min_zoom":5.0,"id":37289},"arcs":[182]},{"type":"LineString","properties":{"source":"naturalearthdata.com","kind":"minor_road","sort_rank":355,"kind_detail":"tertiary","min_zoom":7.0,"id":37301},"arcs":[183]},{"type":"LineString","properties":{"source":"naturalearthdata.com","kind":"major_road","sort_rank":379,"kind_detail":"secondary","min_zoom":3.0,"id":37326},"arcs":[184]},{"type":"LineString","properties":{"source":"naturalearthdata.com","kind":"minor_road","sort_rank":355,"kind_detail":"tertiary","min_zoom":5.0,"id":37328},"arcs":[185]},{"type":"LineString","properties":{"source":"naturalearthdata.com","kind":"minor_road","sort_rank":355,"kind_detail":"tertiary","min_zoom":5.0,"id":37329},"arcs":[186]},{"type":"LineString","properties":{"source":"naturalearthdata.com","kind":"minor_road","sort_rank":355,"kind_detail":"tertiary","min_zoom":5.0,"id":37330},"arcs":[187]},{"type":"LineString","properties":{"source":"naturalearthdata.com","kind":"minor_road","sort_rank":355,"kind_detail":"tertiary","min_zoom":5.0,"id":37333},"arcs":[188]},{"type":"LineString","properties":{"source":"naturalearthdata.com","kind":"minor_road","sort_rank":355,"kind_detail":"tertiary","min_zoom":5.0,"id":37346},"arcs":[189]},{"type":"LineString","properties":{"source":"naturalearthdata.com","kind":"minor_road","sort_rank":355,"kind_detail":"tertiary","min_zoom":5.0,"id":37347},"arcs":[190]},{"type":"LineString","properties":{"source":"naturalearthdata.com","kind":"minor_road","sort_rank":355,"kind_detail":"tertiary","min_zoom":7.0,"id":37367},"arcs":[191]},{"type":"LineString","properties":{"source":"naturalearthdata.com","kind":"minor_road","sort_rank":355,"kind_detail":"tertiary","min_zoom":7.0,"id":37378},"arcs":[192]},{"type":"LineString","properties":{"source":"naturalearthdata.com","kind":"minor_road","sort_rank":355,"kind_detail":"tertiary","min_zoom":5.0,"id":37381},"arcs":[193]},{"type":"LineString","properties":{"source":"naturalearthdata.com","kind":"minor_road","sort_rank":355,"kind_detail":"tertiary","min_zoom":5.0,"id":37383},"arcs":[194]},{"type":"LineString","properties":{"source":"naturalearthdata.com","kind":"minor_road","sort_rank":355,"kind_detail":"tertiary","min_zoom":7.0,"id":37386},"arcs":[195]},{"type":"LineString","properties":{"source":"naturalearthdata.com","kind":"minor_road","sort_rank":355,"kind_detail":"tertiary","min_zoom":7.0,"id":37393},"arcs":[196]},{"type":"LineString","properties":{"source":"naturalearthdata.com","kind":"major_road","kind_detail":"secondary","sort_rank":379,"landuse_kind":"urban_area","min_zoom":3.0,"id":37412},"arcs":[197]},{"type":"LineString","properties":{"source":"naturalearthdata.com","kind":"major_road","sort_rank":379,"kind_detail":"secondary","min_zoom":3.0,"id":37412},"arcs":[198]},{"type":"LineString","properties":{"source":"naturalearthdata.com","kind":"minor_road","sort_rank":355,"kind_detail":"tertiary","min_zoom":5.0,"id":37418},"arcs":[199]},{"type":"LineString","properties":{"source":"naturalearthdata.com","kind":"minor_road","kind_detail":"tertiary","sort_rank":355,"landuse_kind":"urban_area","min_zoom":5.0,"id":37421},"arcs":[200]},{"type":"LineString","properties":{"source":"naturalearthdata.com","kind":"minor_road","kind_detail":"tertiary","sort_rank":355,"landuse_kind":"urban_area","min_zoom":5.0,"id":37429},"arcs":[201]},{"type":"LineString","properties":{"source":"naturalearthdata.com","kind":"minor_road","kind_detail":"tertiary","sort_rank":355,"landuse_kind":"urban_area","min_zoom":5.0,"id":37433},"arcs":[202]},{"type":"LineString","properties":{"source":"naturalearthdata.com","kind":"minor_road","sort_rank":355,"kind_detail":"tertiary","min_zoom":5.0,"id":37433},"arcs":[203]},{"type":"LineString","properties":{"source":"naturalearthdata.com","kind":"minor_road","sort_rank":355,"kind_detail":"tertiary","min_zoom":5.0,"id":37437},"arcs":[204]},{"type":"LineString","properties":{"source":"naturalearthdata.com","kind":"minor_road","kind_detail":"tertiary","sort_rank":355,"landuse_kind":"urban_area","min_zoom":5.0,"id":37439},"arcs":[205]},{"type":"LineString","properties":{"source":"naturalearthdata.com","kind":"minor_road","kind_detail":"tertiary","sort_rank":355,"landuse_kind":"urban_area","min_zoom":5.0,"id":37440},"arcs":[206]},{"type":"LineString","properties":{"source":"naturalearthdata.com","kind":"minor_road","sort_rank":355,"kind_detail":"tertiary","min_zoom":5.0,"id":37454},"arcs":[207]},{"type":"LineString","properties":{"source":"naturalearthdata.com","kind":"minor_road","kind_detail":"tertiary","sort_rank":355,"landuse_kind":"urban_area","min_zoom":5.0,"id":37469},"arcs":[208]},{"type":"LineString","properties":{"source":"naturalearthdata.com","kind":"minor_road","sort_rank":355,"kind_detail":"tertiary","min_zoom":5.0,"id":37469},"arcs":[209]},{"type":"LineString","properties":{"source":"naturalearthdata.com","kind":"minor_road","sort_rank":355,"kind_detail":"tertiary","min_zoom":5.0,"id":37471},"arcs":[210]},{"type":"LineString","properties":{"source":"naturalearthdata.com","kind":"minor_road","sort_rank":355,"kind_detail":"tertiary","min_zoom":5.0,"id":37484},"arcs":[211]},{"type":"LineString","properties":{"source":"naturalearthdata.com","kind":"minor_road","sort_rank":355,"kind_detail":"tertiary","min_zoom":5.0,"id":37485},"arcs":[212]},{"type":"LineString","properties":{"source":"naturalearthdata.com","kind":"minor_road","sort_rank":355,"kind_detail":"tertiary","min_zoom":7.0,"id":37488},"arcs":[213]},{"type":"LineString","properties":{"source":"naturalearthdata.com","kind":"minor_road","sort_rank":355,"kind_detail":"tertiary","min_zoom":7.0,"id":37489},"arcs":[214]},{"type":"LineString","properties":{"source":"naturalearthdata.com","kind":"minor_road","sort_rank":355,"kind_detail":"tertiary","min_zoom":7.0,"id":37515},"arcs":[215]},{"type":"LineString","properties":{"source":"naturalearthdata.com","kind":"minor_road","sort_rank":355,"kind_detail":"tertiary","min_zoom":5.0,"id":37535},"arcs":[216]},{"type":"LineString","properties":{"source":"naturalearthdata.com","kind":"minor_road","sort_rank":355,"kind_detail":"tertiary","min_zoom":5.0,"id":37537},"arcs":[217]},{"type":"LineString","properties":{"source":"naturalearthdata.com","kind":"major_road","sort_rank":379,"kind_detail":"secondary","min_zoom":3.0,"id":37538},"arcs":[218]},{"type":"LineString","properties":{"source":"naturalearthdata.com","kind":"minor_road","sort_rank":355,"kind_detail":"tertiary","min_zoom":5.0,"id":37545},"arcs":[219]},{"type":"LineString","properties":{"source":"naturalearthdata.com","kind":"minor_road","sort_rank":355,"kind_detail":"tertiary","min_zoom":5.0,"id":37556},"arcs":[220]},{"type":"LineString","properties":{"source":"naturalearthdata.com","kind":"minor_road","kind_detail":"tertiary","sort_rank":355,"landuse_kind":"urban_area","min_zoom":5.0,"id":37562},"arcs":[221]},{"type":"LineString","properties":{"source":"naturalearthdata.com","kind":"minor_road","sort_rank":355,"kind_detail":"tertiary","min_zoom":5.0,"id":37562},"arcs":[222]},{"type":"LineString","properties":{"source":"naturalearthdata.com","kind":"major_road","sort_rank":379,"kind_detail":"secondary","min_zoom":3.0,"id":37565},"arcs":[223]},{"type":"LineString","properties":{"source":"naturalearthdata.com","kind":"minor_road","sort_rank":355,"kind_detail":"tertiary","min_zoom":7.0,"id":37624},"arcs":[224]},{"type":"LineString","properties":{"source":"naturalearthdata.com","kind":"minor_road","sort_rank":355,"kind_detail":"tertiary","min_zoom":7.0,"id":37635},"arcs":[225]},{"type":"LineString","properties":{"source":"naturalearthdata.com","kind":"major_road","sort_rank":379,"kind_detail":"secondary","min_zoom":3.0,"id":37661},"arcs":[226]},{"type":"LineString","properties":{"source":"naturalearthdata.com","kind":"minor_road","sort_rank":355,"kind_detail":"tertiary","min_zoom":5.0,"id":37669},"arcs":[227]},{"type":"LineString","properties":{"source":"naturalearthdata.com","kind":"minor_road","sort_rank":355,"kind_detail":"tertiary","min_zoom":5.0,"id":37693},"arcs":[228]},{"type":"LineString","properties":{"source":"naturalearthdata.com","kind":"minor_road","sort_rank":355,"kind_detail":"tertiary","min_zoom":5.0,"id":37724},"arcs":[229]}]},"earth":{"type":"GeometryCollection","geometries":[{"type":"MultiPolygon","properties":{"sort_rank":10,"source":"naturalearthdata.com","min_zoom":0.0,"kind":"earth","area":366071906441},"arcs":[[[230]]]}]},"landuse":{"type":"GeometryCollection","geometries":[{"type":"MultiPolygon","properties":{"kind":"national_park","protect_class":"2","area":15573033291,"sort_rank":18,"source":"openstreetmap.org","min_zoom":3.0,"tier":1,"osm_relation":true},"arcs":[[[231]]]},{"type":"Polygon","properties":{"kind":"park","area":189631008,"sort_rank":24,"source":"openstreetmap.org","min_zoom":6.0,"tier":2,"id":-7145523,"osm_relation":true},"arcs":[[232]]},{"type":"MultiPolygon","properties":{"source":"openstreetmap.org","kind":"national_park","tier":1,"protect_class":"2","area":5454496975,"sort_rank":18,"min_zoom":3.0},"arcs":[[[233]],[[234]]]},{"type":"Polygon","properties":{"kind":"park","protect_class":"1","area":2629050112,"sort_rank":24,"source":"openstreetmap.org","min_zoom":4.0,"tier":2,"id":165270838},"arcs":[[235]]},{"type":"MultiPolygon","properties":{"source":"naturalearthdata.com","kind":"urban_area","name":"","area":1372212646,"sort_rank":11,"min_zoom":4.0},"arcs":[[[236]]]},{"type":"MultiPolygon","properties":{"kind":"park","protect_class":"1","area":18386335273,"sort_rank":24,"source":"openstreetmap.org","min_zoom":4.0,"tier":2,"osm_relation":true},"arcs":[[[237]],[[238]],[[239]],[[240]],[[241]],[[242],[243]]]},{"type":"Polygon","properties":{"kind":"protected_area","protect_class":"3","area":6655810048,"sort_rank":17,"source":"openstreetmap.org","min_zoom":4.0,"tier":2,"id":-5638557,"osm_relation":true},"arcs":[[244]]},{"type":"Polygon","properties":{"kind":"national_park","protect_class":"2","area":269313984,"sort_rank":18,"source":"openstreetmap.org","min_zoom":5.0,"tier":1,"id":444217838},"arcs":[[245]]},{"type":"MultiPolygon","properties":{"kind":"park","protect_class":"1","area":3882793799,"sort_rank":24,"source":"openstreetmap.org","min_zoom":6.0,"tier":2,"osm_relation":true},"arcs":[[[246]],[[247]]]},{"type":"MultiPolygon","properties":{"kind":"national_park","protect_class":"2","area":894943756,"sort_rank":18,"source":"openstreetmap.org","min_zoom":5.0,"tier":1,"osm_relation":true},"arcs":[[[248]]]}]}},"type":"Topology","transform":{"translate":[104.0625,11.1784018737],"scale":[0.0006866455,0.0006701665]},"arcs":[[[3991,1328],[105,-8]],[[3813,1174],[30,8],[29,39],[17,48],[24,35],[33,20],[27,3],[18,1]],[[3447,1191],[18,-3],[14,-9],[6,-13],[7,-10],[20,-2]],[[3423,721],[19,1],[13,22],[0,2],[-13,33],[-39,68],[-2,24],[8,21],[12,19],[10,22],[2,13],[1,28],[1,10],[22,35],[4,4],[-9,36],[-43,82],[-11,34],[-3,6],[35,9],[17,1]],[[3740,1190],[73,-16]],[[3752,1168],[-12,22]],[[3556,1186],[70,-1],[126,-17]],[[3512,1154],[44,32]],[[2844,884],[67,-12],[76,-23],[60,-2],[100,-31],[29,-16],[11,-13],[21,-33],[13,-10],[19,-4]],[[2726,693],[17,21],[14,31],[40,43],[8,19],[4,20],[1,20],[34,37]],[[3338,764],[14,-3],[20,-7],[32,-23],[19,-10]],[[3240,740],[82,22],[16,2]],[[2615,721],[69,-26],[42,-2]],[[2803,0],[-19,18],[-78,19],[-30,23],[-15,41],[-4,33],[-20,11],[-23,7],[-19,14],[-1,22],[24,112],[16,50],[4,23],[-2,23],[-23,78],[3,39],[-1,20],[-7,17],[-16,12],[-39,7],[-18,10],[-15,25],[-4,6],[5,30],[17,26],[19,21],[4,4],[29,25],[25,5]],[[2931,4096],[-9,-10],[-29,-2]],[[2712,4087],[-36,8],[-3,1]],[[2893,4084],[-46,12]],[[2762,4096],[-14,-6],[-36,-3]],[[1201,1577],[19,-62],[2,-20],[-2,-7],[-24,-58],[-11,-44],[-13,-31],[0,-9],[2,-6],[11,-10],[21,-24],[3,-6],[1,-9],[2,-60],[2,-7],[2,-4],[13,-3],[7,-6],[1,-6],[-3,-3],[-7,-2]],[[1227,1200],[-35,7]],[[1192,1207],[-6,-1],[-7,-2],[-7,-3],[-7,-5],[-6,-7],[-11,-18],[-47,-107]],[[993,264],[-45,-41],[-12,-14],[-4,-16],[-20,-126],[-8,-44],[-5,-23]],[[3498,559],[-49,-89],[-27,-32],[-14,-12],[-23,-23],[-12,-17],[-37,-83],[-9,-26],[-5,-29],[-3,-59],[2,-24],[6,-24],[8,-22],[17,-32],[8,-12],[6,-11],[5,-13],[2,-13],[4,-11],[6,-10],[9,-9],[11,-8]],[[3498,559],[24,-21],[21,-15],[16,-16],[12,-14],[5,-12],[3,-17],[2,-6],[5,-5],[8,-4],[18,-3],[21,-6],[22,-10],[42,-26],[17,-14],[9,-13],[1,-10],[-2,-30],[-5,-24],[-1,-13],[1,-14],[5,-13],[16,-19],[5,-11],[1,-23],[7,-9],[14,-5]],[[3836,272],[14,-3],[22,-19],[6,-13],[-1,-11],[-14,-17],[-3,-10],[8,-7],[16,-3]],[[3765,206],[28,4],[15,9],[9,14],[4,18],[4,15],[11,6]],[[3954,234],[20,0],[30,-8],[92,-39]],[[3884,189],[35,11],[17,13],[11,12],[7,9]],[[3498,559],[16,5],[6,1],[8,2],[6,4],[1,19],[-4,28],[-23,91],[-16,24],[-37,13]],[[499,2049],[-4,-61],[0,-16],[-12,-53],[-1,-20],[7,-26],[-2,-8],[-6,-11],[-41,-38],[-8,-13],[-14,-40],[-8,-19],[-3,-5],[-7,-8],[-10,-10],[-27,-16],[-8,-3],[-5,-1],[-10,-4],[-12,-8],[-24,-21],[-7,-5],[-7,-4],[-44,-9],[-9,-4],[-3,-1],[-5,-5],[-41,-57],[-7,-22],[-10,-61],[27,-113]],[[499,2049],[-239,208],[-72,87]],[[1167,1789],[5,32],[0,11],[-4,10],[-34,60],[-9,22],[-10,18],[-7,17],[1,13],[9,49],[-87,18],[-151,68],[-54,16]],[[826,2123],[-8,0],[-32,-7],[-25,-11],[-20,-13],[-23,-10],[-30,-17],[-8,-6],[-3,-4],[-4,-11],[-6,-11],[-24,-32]],[[643,2001],[-61,5],[-24,5],[-17,6],[-42,32]],[[1201,1577],[-23,24],[-18,34],[-3,10],[-7,28],[26,11],[41,44],[9,14],[7,12],[7,19],[2,7],[-1,6],[-4,16],[-2,4],[-4,3],[-4,2]],[[1227,1811],[-15,-1],[-38,-20],[-3,-1],[-4,0]],[[2160,3417],[3,-113],[-3,-35],[8,-51],[39,-97]],[[1361,2890],[143,71],[101,88],[11,13],[19,30],[6,6],[288,203],[34,12],[197,104]],[[968,3253],[90,-2],[140,-27],[14,-5],[9,-7],[2,-12],[-5,-11],[-14,-31],[-8,-28],[-8,-68],[5,-58],[6,-30],[12,-30],[8,-11],[7,-8],[17,-15],[33,-11],[85,-9]],[[729,3142],[140,77],[51,20],[48,14]],[[2370,3996],[5,1],[14,5],[10,6],[4,6],[1,6],[-4,9],[-2,4],[-2,7],[-1,7],[2,16],[4,7],[5,5],[5,1],[11,3],[24,3],[171,1],[29,5],[15,5],[5,3]],[[2217,4029],[6,-1],[6,-1],[5,-2],[5,-3],[3,-3],[4,-4],[12,-20],[3,-4],[4,-3],[4,-2],[6,-1]],[[2160,3417],[31,41],[19,210],[-12,82],[-16,46],[-5,11],[-6,7],[-4,3],[-4,2],[-6,5],[-6,7],[-11,15],[-5,10],[-2,7],[0,6],[3,17],[-6,64],[1,10],[2,6],[3,5],[6,8],[10,8],[8,5],[4,3],[19,20],[9,6],[5,3],[4,2],[5,1],[11,2]],[[2340,4011],[6,-1],[4,-2],[7,-7],[4,-3],[4,-2],[5,0]],[[2275,3985],[4,2],[5,3],[11,12],[6,3],[6,1],[18,2],[10,3],[5,0]],[[188,2344],[-52,72],[-136,140]],[[589,2835],[4,5],[2,8],[-3,38],[12,131],[6,23],[4,10],[5,6],[8,5],[52,19],[13,7],[18,16],[8,10],[11,29]],[[561,2838],[8,-1],[7,-2],[13,0]],[[188,2344],[38,24],[13,45],[7,15],[62,69],[18,14],[37,20],[19,14],[4,3],[40,18],[25,16],[11,8],[6,5],[12,32],[20,78],[50,87],[2,9],[3,24],[2,9],[4,4]],[[111,0],[-37,107],[-9,12],[-13,14],[-3,3],[-5,9],[0,11],[0,16],[7,34],[4,17],[7,11],[11,11],[5,6],[3,7],[-2,16],[-8,20],[-19,38],[-13,19],[-19,20],[-6,9],[-14,30]],[[0,468],[16,22],[0,10],[-1,9],[-15,14]],[[198,1387],[-24,-26],[-8,-7],[-13,-5]],[[153,1349],[-25,7],[-12,0]],[[116,1356],[-32,-4],[-12,-5],[-13,-14],[-7,-13],[-16,-46],[-8,-13],[-28,-28]],[[0,1213],[14,-16],[2,-4],[-4,-4],[-12,-6]],[[833,3552],[-18,1],[-125,34],[-128,18],[-27,7],[-5,2],[-6,5],[-6,8],[-6,11],[-4,9],[-3,10],[-1,12],[2,15],[6,21],[16,32],[4,15],[2,17],[-9,75],[-4,12],[-6,12],[-5,8],[-5,9],[-4,14],[-6,29],[-5,6],[-6,4],[-5,4],[-3,5],[-11,27],[-5,9],[-6,5],[-8,3],[-17,2],[-6,5],[1,8],[54,75],[6,12],[1,3]],[[729,3142],[22,195],[9,28],[17,32],[123,166],[2,9],[-1,6],[-2,3]],[[899,3581],[-10,-1],[-15,-12],[-5,-3],[-36,-13]],[[2207,3121],[47,-196],[3,-4],[21,-19],[12,-17],[12,-20],[4,-10],[2,-9],[-3,-12],[-10,-25],[-1,-8],[0,-12],[16,-102],[4,-9],[3,-3],[8,-6],[5,-4],[5,-6],[8,-12],[4,-7],[0,-7],[-1,-6],[-4,-9],[-10,-13],[-3,-6],[-3,-9],[1,-6],[2,-5],[18,-16],[10,-16],[9,-20],[3,-11],[1,-9],[-1,-6],[-2,-5],[-4,-10],[-3,-4],[-3,-17],[3,-48],[-3,-30],[17,-61],[2,-33],[45,-133],[39,-177]],[[3348,3348],[-53,-4],[-24,-6],[-84,-37],[-11,-6],[-7,-5],[-15,-19],[-10,-10],[-9,-4],[-11,-1]],[[3124,3256],[-39,8]],[[3085,3264],[-67,-6],[-12,-3],[-13,-5],[-8,-6],[-17,-14],[-91,-134],[-4,-8],[-9,-49],[-3,-7],[-3,-4],[-3,-3],[-5,-2],[-5,-1],[-6,0]],[[2631,2891],[-12,3],[-32,14],[-47,25],[-131,103],[-19,10],[-56,14],[-127,61]],[[2839,3022],[-4,0],[-3,1],[-24,9],[-2,1],[-5,1],[-6,0]],[[2795,3034],[-10,-4],[-4,-6],[-1,-6],[-1,-20],[-4,-12],[-27,-49],[-10,-14],[-7,-8],[-5,-2],[-58,-20],[-21,-2],[-16,0]],[[2520,604],[-9,-7],[-5,-2],[-5,-2],[-5,-1],[-12,-1]],[[2484,591],[-25,0]],[[2459,591],[-6,-1],[-5,-2],[-16,-10],[-38,-7],[-9,-4],[-6,-7],[-7,-9],[-19,-48],[-20,-94],[-9,-32],[-7,-19],[-2,-7],[-1,-9],[-1,-119],[10,-76],[4,-10],[1,-5],[4,-10],[-2,-7]],[[2330,115],[-23,3]],[[2307,118],[-10,-5],[-3,-5],[-7,-12],[-11,-10],[-2,-3],[-3,-5],[-7,-38],[-4,-13],[-7,-14],[0,-13]],[[2105,1909],[14,4],[9,3],[7,5],[19,18],[22,12],[7,3],[277,29]],[[1998,1953],[19,-2],[17,-8],[8,-4],[3,-3],[17,-11],[23,-11],[11,-3],[9,-2]],[[1863,1750],[8,1],[11,6],[6,5],[11,20],[49,166],[50,5]],[[1678,1813],[12,-1],[6,-2],[13,0]],[[1644,1809],[12,1],[11,2],[11,1]],[[1621,1812],[23,-3]],[[1655,1513],[5,4],[2,2],[1,4],[0,5],[-2,11],[-4,10],[-49,111],[-1,32],[-2,8],[-2,6],[-34,53],[-4,12],[0,8],[4,3],[19,9],[22,17],[5,2],[6,2]],[[1752,1811],[5,-1],[5,-2],[5,-2],[11,-10],[5,-2],[5,-2],[6,-1],[19,-1],[6,-1],[5,-2],[5,-2],[4,-3],[3,-4],[3,-4],[4,-9],[3,-4],[3,-4],[3,-3],[5,-2],[6,-2]],[[1709,1810],[43,1]],[[1266,1616],[54,-4],[8,-1],[5,-2],[3,-3],[30,-32],[45,-14],[97,-8],[4,-2],[17,-14],[6,-3],[5,-1]],[[1201,1577],[35,29],[19,9],[11,1]],[[1606,1544],[36,-28],[13,-3]],[[1540,1532],[7,1],[8,3],[14,4],[37,4]],[[663,832],[-6,5],[-4,3],[-16,7],[-51,17],[-5,2],[-41,29],[-18,9],[-53,5],[-16,6],[-12,15],[-60,58],[-5,7],[-1,5],[-4,29],[-2,10],[-53,76],[-10,24],[-8,32],[-4,28],[-13,22],[-2,3],[-7,6],[-37,25],[-11,10],[-7,8],[-1,5],[-1,12],[-1,37],[-3,18],[-13,42]],[[1017,961],[-32,-6],[-25,-11],[-6,-1],[-11,0]],[[943,943],[-10,1]],[[933,944],[-27,-1],[-14,-1],[-68,-22],[-104,-48],[-42,-34],[-9,-4],[-6,-2]],[[2460,1983],[17,-55],[21,-116],[5,-75],[-3,-11],[-4,-14],[-14,-19],[-8,-9],[-7,-6],[-4,-7],[-2,-6],[-3,-45],[5,-1]],[[2471,1623],[73,-17],[26,-1]],[[2463,1619],[8,4]],[[2576,1606],[7,-6],[13,-61]],[[2570,1605],[6,1]],[[2670,1561],[9,-2],[11,-3],[44,-17],[49,-9],[21,-10],[38,-28],[5,-5],[3,-5],[7,-28],[20,-6]],[[2596,1539],[41,8],[4,2],[12,9],[5,2],[6,1],[6,0]],[[2888,1449],[7,-2],[7,-7],[11,-18],[4,-10],[2,-9],[-1,-6],[-1,-6],[-2,-5],[-5,-8],[-4,-4],[-3,-4],[-1,-4],[3,-4],[6,-5],[15,-6],[26,-14],[6,-2],[18,0],[6,-1],[8,-4],[26,-19],[16,-10],[9,-4],[5,-3],[8,-8],[9,-13],[23,-46],[0,-1],[0,-5],[-2,-5],[-4,-6],[-7,-8],[-4,-3],[-4,-4],[-3,-4],[-2,-4],[-2,-5],[-1,-5],[0,-6],[1,-5],[18,-7]],[[2877,1448],[5,1],[6,0]],[[3274,1150],[12,1],[102,24],[10,0]],[[3144,1159],[8,-11],[4,-3],[4,-3],[5,-2],[7,0]],[[3076,1159],[68,0]],[[3231,1158],[9,-1],[34,-7]],[[3172,1140],[11,2],[41,15],[7,1]],[[2516,762],[-4,0],[-17,4],[-12,3],[-11,5],[-12,7],[-35,27],[-41,39],[-105,1],[-181,32],[-53,5],[-10,3],[-16,6],[-5,3],[-4,4],[-8,9],[-4,7],[-17,41],[-22,32],[-86,34],[-28,6]],[[1845,1030],[-16,-3],[-12,-5],[-15,-9],[-26,-21],[-13,-13],[-56,-52],[-117,-78]],[[2561,691],[0,1],[1,6],[15,36],[2,24],[-3,9],[-8,4]],[[2568,771],[-52,-9]],[[3709,3219],[-94,41],[-19,3],[-18,6],[-26,13],[-91,64],[-30,6]],[[3431,3352],[-83,-4]],[[3348,3348],[4,-164],[-6,-28],[-1,-6],[8,-31],[20,-57],[15,-19],[44,-25],[14,-11],[8,-10],[3,-5],[2,-5],[2,-6],[1,-6],[0,-8],[-2,-6],[-3,-4],[-4,-2],[-6,-1]],[[3447,2954],[-83,2]],[[3364,2956],[-8,-3],[-7,-7],[-12,-14],[-5,-9],[-3,-8],[-1,-6],[2,-40],[2,-9],[4,-6],[7,-7],[44,-62],[4,-5],[4,-3],[4,-3],[18,-9],[5,-3],[3,-5],[11,-15],[9,-10],[13,-8],[16,-7],[4,-2],[5,-1],[25,0],[6,0],[12,-3],[4,-2],[5,-3],[18,-22],[87,-52],[53,-22],[11,-7],[5,-5],[4,-5],[3,-11],[1,-18],[7,-55],[-3,-18],[-3,-4],[-4,-3],[-4,-3],[-9,-3],[-8,-7],[-10,-10],[-18,-28],[-10,-11],[-8,-7],[-42,-19],[-30,-9],[-28,-16],[-35,-8],[-58,-36],[-22,-22],[-32,-54],[-38,-142],[-6,-38],[4,-23],[-1,-33],[2,-5],[1,-5],[5,-8],[8,-5],[42,-20],[69,-44],[19,-9],[30,-17],[11,-9],[6,-4],[9,-4],[21,-6],[5,-3],[4,-2],[36,-33],[5,-7],[7,-11],[16,-36],[19,-66],[5,-14],[5,-5],[7,-6],[22,-14],[23,-8],[37,-6],[61,-16],[19,-9],[17,-11],[14,-7],[5,-3],[5,-5],[15,-17],[10,-8],[12,-12],[11,-17],[6,-16],[21,-33],[1,-13],[-6,-100],[7,-65],[2,-9]],[[3709,3219],[10,25],[1,17],[-1,7],[-2,6],[-1,5],[-3,4],[-9,12],[-6,12],[-2,14],[4,56],[-1,16],[-4,15],[-15,23],[-12,57],[-23,38],[-5,12],[-6,9],[-5,10],[2,35],[9,40],[139,260],[3,9],[-2,35],[9,15],[-3,19],[-25,75],[-6,51]],[[1017,961],[1,-60],[-4,-18],[-7,-8],[-7,-6],[-9,-4],[-14,-6],[-14,-13],[-13,-15],[-6,-10],[-4,-7],[-11,-61],[-44,-106],[-6,-61],[-22,-187],[23,-33],[39,-14]],[[1035,355],[16,-2],[5,-6],[-63,-83]],[[919,352],[116,3]],[[3709,3219],[72,-71],[9,-8],[56,-36],[51,-53],[71,-48],[93,-35],[24,-3],[11,0]],[[1101,1064],[-24,-9],[-22,-6],[-7,-6],[-21,-42],[-10,-40]],[[1045,235],[-14,4],[-38,25]],[[1399,0],[-5,10],[-28,20],[-29,23],[-16,17],[-30,45],[-9,5],[-7,6],[-3,4],[-2,4],[-2,23],[3,68],[-6,8],[-3,2],[-9,4],[-51,12],[-8,3],[-5,3],[-4,3],[-8,1]],[[1177,261],[-9,0],[-44,-12],[-45,-4],[-19,-3],[-13,-6],[-2,-1]],[[1590,849],[4,-15],[1,-5],[0,-12],[-3,-9],[-5,-12],[-25,-36],[-1,-2],[-2,-1],[-2,-6],[-2,-7],[2,-13],[3,-13],[4,-11],[2,-6],[-6,-23],[-31,-56],[3,-14],[4,-10],[29,-52],[7,-9],[11,-10],[73,-39],[105,-89],[21,-13],[13,-16],[-1,-34],[-33,-18],[-12,-11],[8,-64],[30,-120],[1,-41],[-12,-34],[-43,-48]],[[1337,1067],[27,-7],[45,-64],[55,-27],[4,-3],[5,-6],[2,-9],[-2,-6],[-6,-3],[-13,-2],[-5,-1],[-4,-3],[-3,-5],[-1,-6],[-1,-6],[1,-25],[2,-8],[29,-14],[118,-23]],[[1324,1029],[7,6],[6,32]],[[1101,1064],[31,-50],[4,-27],[-1,-11],[2,-8],[5,-5]],[[1312,1035],[5,-1],[7,-5]],[[1257,952],[6,3],[6,8],[22,58],[5,7],[7,6],[9,1]],[[1158,972],[4,-1],[8,-9],[5,-4],[28,-6],[9,-9],[6,-1]],[[1142,963],[7,2],[3,2],[3,4],[3,1]],[[1252,953],[5,-1]],[[1218,942],[7,2],[12,7],[8,2],[7,0]],[[1254,400],[4,2],[4,4],[13,34],[18,15],[19,18],[3,18],[3,65],[-28,12],[-3,3],[-3,5],[-4,44],[-11,45],[-13,43],[-1,30],[-5,6],[-7,2],[-65,4]],[[1178,750],[-16,-4],[-1,-5],[1,-7],[6,-14],[7,-21],[-78,-1],[-39,-72],[-7,-30],[0,-38],[2,-13],[3,-9],[9,-15],[5,-10],[-2,-14],[-22,-79],[40,-36],[11,0]],[[1195,432],[9,-2],[30,-25],[20,-5]],[[1097,382],[15,0],[30,10],[9,4],[6,5],[16,21],[13,9],[9,1]],[[789,1872],[13,-25],[11,-55],[-16,7],[-2,9],[2,11],[-5,13],[-15,18],[-7,7],[-9,7],[-57,32],[-17,13],[-27,29],[-12,17],[-5,15],[-11,18],[-26,7],[-30,3],[-24,8],[-8,-7],[-41,-13],[-12,6],[-67,18],[-50,27],[-31,22],[-15,7],[-37,5],[-57,14],[-16,7],[-24,25],[-55,85],[-11,9],[-3,4],[2,10],[4,12],[2,10],[-4,13],[-9,0],[-10,-3],[-7,4],[-5,18],[2,15],[13,39],[-30,9],[-4,19],[15,55],[-23,-12],[-12,11],[-16,42],[-19,-31],[-21,-10],[-3,-1],[0,484],[16,-19],[78,-219],[9,0],[53,-89],[5,-36],[52,-79],[15,-65],[10,-26],[20,-28],[24,-12],[31,-2],[166,31],[48,-7],[46,-34],[15,-19],[9,-19],[5,-25],[1,-35],[-7,-27],[-27,-43],[-6,-17],[11,-16],[20,-11],[20,-14],[9,-25],[-10,-14],[-21,-2],[-24,4],[-16,6],[4,-13],[4,-10],[13,-18],[10,0],[10,10],[17,10],[16,1],[7,-15],[5,-6],[10,17],[14,35],[12,0],[-9,-41],[3,-15],[40,-11],[24,-14],[20,-15],[9,-12],[6,-17],[8,-14],[-1,-7],[-22,3],[-19,8],[-37,24],[-22,8],[12,-22],[22,-27],[26,-23],[23,-10],[32,-11]],[[789,1872],[13,-25],[11,-55],[-16,7],[-2,9],[2,11],[-5,13],[-15,18],[-7,7],[-9,7],[-57,32],[-17,13],[-27,29],[-12,17],[-5,15],[-11,18],[-26,7],[-30,3],[-24,8],[-8,-7],[-41,-13],[-12,6],[-67,18],[-50,27],[-31,22],[-15,7],[-37,5],[-57,14],[-16,7],[-24,25],[-55,85],[-11,9],[-3,4],[2,10],[4,12],[2,10],[-4,13],[-9,0],[-10,-3],[-7,4],[-5,18],[2,15],[13,39],[-30,9],[-4,19],[15,55],[-23,-12],[-12,11],[-16,42],[-19,-31],[-21,-10],[-3,-1]],[[0,2899],[16,-19],[78,-219],[9,0],[53,-89],[5,-36],[52,-79],[15,-65],[10,-26],[20,-28],[24,-12],[31,-2],[166,31],[48,-7],[46,-34],[15,-19],[9,-19],[5,-25],[1,-35],[-7,-27],[-27,-43],[-6,-17],[11,-16],[20,-11],[20,-14],[9,-25],[-10,-14],[-21,-2],[-24,4],[-16,6],[4,-13],[4,-10],[13,-18],[10,0],[10,10],[17,10],[16,1],[7,-15],[5,-6],[10,17],[14,35],[12,0],[-9,-41],[3,-15],[40,-11],[24,-14],[20,-15],[9,-12],[6,-17],[8,-14],[-1,-7],[-22,3],[-19,8],[-37,24],[-22,8],[12,-22],[22,-27],[26,-23],[23,-10],[32,-11]],[[3044,4096],[-35,-20],[-42,-18]],[[2967,4058],[12,12],[-18,18],[-24,0],[-25,8]],[[1082,4096],[5,-8],[30,-12],[6,-43],[-6,-18],[-24,-31],[-6,-37]],[[4096,4080],[-6,2],[-9,14]],[[1087,3947],[54,-12],[60,-7],[96,7],[20,4]],[[1317,3939],[10,2]],[[2799,3528],[18,25],[36,37],[66,43],[12,43],[0,19],[18,61],[0,37],[6,18],[30,37],[-6,37],[-18,25],[12,31],[-18,49],[0,49],[12,19]],[[2937,3368],[-12,13],[-42,24],[-30,31],[-18,12],[-42,7],[-12,18],[-6,37]],[[2937,3368],[42,25],[66,-12],[24,-13],[24,-18],[24,-6],[24,-19],[42,-6],[12,19],[36,6],[48,55],[37,25],[30,67],[30,31],[12,19],[30,24],[24,13],[24,18],[24,31],[30,6],[66,-6],[36,-25],[24,0],[36,13],[78,-50],[48,-24],[18,-6],[36,18],[18,18],[36,13],[18,-6],[36,12],[48,25],[30,0],[36,12],[12,9]],[[1364,3675],[6,-8]],[[1327,3941],[18,-31],[-6,-19],[-6,-55],[0,-37],[6,-31],[0,-18],[6,-43],[18,-31],[1,-1]],[[1370,3667],[23,-34],[6,-111],[0,-80],[-18,-55],[0,-37],[18,-43]],[[1369,3215],[18,49],[12,43]],[[0,3154],[72,-63],[18,0]],[[90,3091],[12,-12]],[[2937,3368],[0,-30],[12,-62],[30,-80],[6,-55],[6,-25],[18,-31],[6,-43],[0,-49],[18,-49],[24,-25],[18,-55],[24,-37],[-18,-86],[-12,-50],[0,-37],[12,-36],[24,-50],[6,-30],[0,-19]],[[3815,2525],[-25,0],[-14,9]],[[4096,2639],[-18,-9],[-36,-6],[-24,-13],[-12,-18],[-12,-55],[-18,-7],[-11,-1]],[[3776,2534],[-46,28],[-24,6],[-48,31],[-42,12],[-12,-6],[-42,6],[-60,13],[-18,-13],[-18,0],[-12,-24],[-24,-25],[-24,-55],[-18,6],[-42,-6],[-30,0],[-25,18],[-42,13],[-42,12],[-12,-19],[-42,-6],[-42,-6]],[[3965,2530],[-37,-5],[-30,-6],[-36,0],[-18,6],[-29,0]],[[1327,2796],[-18,43],[6,37],[36,43],[60,31],[12,18],[6,31],[-6,31],[-12,43],[-36,62],[5,40]],[[1231,2359],[54,55],[0,111],[6,56],[0,67],[-6,31],[6,6],[6,68],[30,43]],[[1380,3175],[1,9],[-12,31]],[[102,3079],[18,-12],[48,-12],[42,-25],[30,-31],[54,-37],[66,-31],[48,-30],[48,-43],[48,0],[103,-80],[60,0],[66,-62],[12,-80],[126,-178],[30,0],[114,-25],[54,-25],[24,0],[42,6],[72,-36],[24,-19]],[[3111,2519],[-24,-18],[-6,-56],[-24,-24],[-6,-25],[-30,-31],[-24,-31],[-30,-18],[-36,-6],[-42,-25],[-30,-31]],[[1231,2359],[-24,-68],[12,-30],[18,-31]],[[216,2008],[-156,0],[-60,0]],[[1237,2230],[18,-19],[54,0],[42,-43],[30,-24],[54,-74],[42,-12],[67,-74]],[[2859,2254],[12,-73],[6,-87],[-6,-18],[-24,-37],[-6,-18],[24,-37],[6,-37]],[[1544,1984],[48,-50],[24,-73],[12,-25],[36,-31],[30,-43],[48,-55],[24,-25]],[[3418,1645],[-48,12],[-24,0],[-30,-12],[-31,0],[-18,12],[-6,25],[-54,43],[-30,80],[-24,49],[-18,19],[-48,12],[-24,37],[-24,6],[-36,0],[-78,25],[-54,-6]],[[1237,2230],[-42,-99],[-72,-61],[-24,-25],[-6,-37],[6,-37],[-18,-43],[-18,-24],[-30,-43],[6,-19],[36,-18],[6,-13],[0,-49],[-6,-49],[-18,-19],[-24,-18],[-54,-31],[-24,-18]],[[1766,1682],[6,-61]],[[865,1584],[-18,18],[-24,12],[-30,0],[-12,7],[-54,67],[-48,43],[-60,50],[-18,30],[-19,50],[-12,12],[-42,37],[-42,18],[-36,-6],[-162,74],[-42,12],[-30,0]],[[1772,1621],[24,-50],[36,-74]],[[3481,1484],[3,7],[-6,25],[-16,28]],[[3462,1544],[-14,27],[0,31],[-6,25],[-24,18]],[[3472,1461],[9,23]],[[4096,1388],[-36,11],[-48,-31],[-24,6],[-54,31],[-36,6],[-54,19],[-36,-6],[-42,-25],[-102,-6],[-30,6],[-18,-18],[-24,24],[-30,56],[-30,-13],[-24,25],[-15,-5]],[[3493,1468],[-21,-7]],[[3448,1325],[-6,19],[30,117]],[[1832,1497],[30,-67],[6,-62],[18,-67]],[[961,1227],[-6,55],[-24,62],[-24,55],[-30,37],[-6,37],[0,37],[6,55],[-12,19]],[[2024,1214],[-12,13],[-96,61],[-30,13]],[[2072,1190],[-48,24]],[[949,1147],[12,80]],[[2072,1190],[60,-25],[42,-6],[12,-6],[24,-25]],[[3706,1073],[-30,18],[-18,13],[0,24],[-30,43],[-84,99],[-54,31],[-42,24]],[[949,1147],[-12,-62],[6,-24],[18,-50],[24,-55]],[[1057,980],[-36,-12],[-18,-12]],[[985,956],[18,0]],[[3087,962],[60,-18],[24,6],[42,-6],[30,24],[18,31],[18,37],[12,12],[25,6],[30,25],[24,31],[18,67],[24,44],[6,67],[30,37]],[[2210,1128],[36,-18],[30,-6],[60,-7],[169,-92],[18,-25],[18,-12],[36,0],[72,-37]],[[2649,931],[78,-49]],[[2727,882],[42,6],[48,25],[36,-13],[36,7],[30,6],[54,0],[60,43],[54,6]],[[3676,1048],[-18,-12],[-6,-37],[12,-31],[0,-31],[-24,-43],[-6,-61]],[[1003,956],[-6,-62],[-36,-92],[-30,-31]],[[1129,747],[-24,67],[-6,62],[-30,74],[-12,30]],[[2727,882],[30,-31],[12,-31],[6,-61],[18,-19]],[[1129,747],[-12,-7],[-114,-6],[-24,6],[-48,31]],[[3634,833],[0,-13],[24,-24],[6,-25],[12,-24],[12,-31],[-6,-25]],[[1231,605],[-1,4]],[[1230,609],[-11,51],[-30,31],[-24,6],[-18,19],[-18,31]],[[2210,1128],[-24,-55],[-30,-43],[0,-68],[-24,-6],[-48,-56],[-42,-61],[-12,-55],[-36,-37],[-12,-31],[0,-37],[0,-62],[0,-24]],[[1237,587],[-6,18]],[[1249,556],[-12,31]],[[1237,587],[-12,-7],[-19,0]],[[1206,580],[-23,0],[-30,-24],[-36,-19]],[[2793,740],[12,-12],[-6,-31],[24,-80],[12,-80]],[[1291,537],[0,-6]],[[1291,531],[-18,6],[-24,19]],[[847,470],[84,24],[90,19],[42,18],[54,6]],[[1249,509],[0,47]],[[1279,433],[-24,43],[-6,24],[0,9]],[[847,470],[-66,-13],[-42,-12],[-36,0],[-54,-18]],[[1201,390],[36,0],[24,30],[18,13]],[[649,427],[-24,-19],[-24,-31]],[[3688,371],[30,0],[60,25],[24,31],[12,37],[24,30],[24,19],[18,6],[48,6],[36,-12],[24,0],[102,24],[6,2]],[[3688,371],[0,80],[-6,80],[6,37],[-6,25],[6,43],[-6,24],[0,31]],[[3442,396],[60,6],[30,-6],[36,-31],[-6,-31],[18,-18],[48,12],[12,12],[48,31]],[[601,377],[-85,-30],[-30,-13],[-42,-43],[-60,-43],[-42,-24]],[[1982,593],[-24,-31],[-36,-25],[-48,-43],[-24,-37],[18,-30],[6,-31],[-6,-56],[-42,-92],[-30,-12],[-12,-12]],[[2072,1190],[0,-49],[-12,-31],[-24,-37],[-30,-19],[-30,-6],[-42,6],[-36,31],[-96,12],[-18,0],[-24,-18],[-18,-6],[-24,12],[-42,6],[-36,19],[-42,-37],[-24,-62],[-18,-31],[-30,-12],[-115,6],[-18,-12],[0,-18],[12,-50],[0,-30],[-54,-56],[-18,-61],[-24,-80],[-6,-31],[12,-37],[12,-19],[54,-6],[36,-12],[72,-31],[79,-43],[24,-18],[36,-19],[24,-24],[36,-7],[18,-24],[30,-43],[30,-68],[18,-61]],[[2835,537],[12,-37],[6,-12],[0,-24],[24,-93],[18,-80],[48,-43],[18,-37]],[[2961,211],[18,-31]],[[1291,531],[13,0]],[[1304,531],[17,0],[18,-6],[30,0],[42,-25],[60,-24],[18,6],[31,-31],[48,-18],[24,-25],[66,-37],[42,-31],[18,-43],[0,-49],[6,-37],[18,-49]],[[1784,224],[6,-93]],[[3442,396],[-6,-37],[-12,-62],[-48,-67],[-24,-86],[6,-19],[18,-25],[6,-18],[18,-18],[0,-37],[30,-13],[18,-14]],[[3669,0],[1,2],[30,31],[12,37],[6,30],[-6,56],[0,49],[12,31],[-6,24],[-24,37],[-6,25],[0,49]],[[1790,131],[36,-18],[42,-37],[48,-56],[40,-20]],[[2979,180],[18,-30],[6,-31],[18,-12],[36,-37],[12,-50],[36,-6],[23,-14]],[[342,224],[-132,-80],[-120,-87],[-54,-24],[-36,-10]],[[1042,0],[3,20],[6,25],[36,49],[42,68],[6,31],[30,49],[0,25],[-6,49],[24,68],[18,6]],[[4096,4096],[0,-4096],[-963,0],[-3133,0],[0,4096],[4096,0]],[[0,415],[0,13],[3,-10],[-3,-3]],[[2559,616],[50,93],[43,22],[122,-46],[-11,-72],[-54,-67],[52,0],[35,-60],[-103,-21],[-10,61],[-124,90]],[[1724,3402],[100,196],[185,-42],[41,57],[-55,68],[-82,-3],[-42,71],[95,47],[33,50],[60,-37],[21,44],[81,-28],[21,-41],[68,7],[43,-24],[27,75],[90,-39],[-9,-49],[-84,-30],[-12,-36],[18,-290],[298,-181],[38,-67],[-7,-494],[-58,1],[-2,-50],[-79,18],[-10,-69],[23,-14],[-44,0],[107,-204],[-40,-99],[-163,41],[-14,23],[-81,-6],[-109,39],[-16,120],[40,81],[101,31],[-341,366],[-69,-6],[0,34],[-22,0],[22,29],[-30,86],[30,0],[1,129],[-56,1],[57,60],[-1,109],[68,-17],[13,36],[-78,18],[-152,-29],[-25,18]],[[0,3575],[0,176],[29,4],[149,-132],[65,-18],[12,-76],[-96,-95],[-80,24],[-79,117]],[[466,3052],[148,292],[68,6],[81,-26],[208,-3],[19,-35],[60,33],[194,-114],[122,-10],[14,-21],[146,55],[50,-73],[117,0],[40,-39],[26,-98],[-25,11],[7,-34],[-33,3],[26,-49],[-30,-13],[-17,-65],[-41,-19],[6,-73],[-31,-79],[-36,27],[-149,3],[-32,68],[-90,-4],[-93,40],[-24,49],[-89,-37],[-14,61],[-61,46],[-4,76],[-74,-120],[-148,78],[-37,-1],[-32,-47],[-70,48],[-105,-31],[31,77],[-12,29],[-92,-35],[-24,24]],[[1266,671],[48,-99],[-16,-67],[-75,6],[-38,44],[70,82],[-6,67],[17,-33]],[[4096,1335],[-8,0],[-19,-7],[27,35],[0,-28]],[[3567,2941],[165,87],[5,242],[-45,120],[27,-17],[47,43],[58,-15],[136,30],[67,-74],[69,25],[0,-433],[-29,-38],[-57,-41],[-113,-3],[-36,41],[-133,-51],[-40,36],[-69,-4],[-52,52]],[[116,4096],[1209,0],[62,-87],[-67,-37],[-4,-41],[-58,-40],[-304,78],[41,19],[3,46],[-11,-21],[-105,9],[-58,-32],[-65,12],[-27,-5],[-10,-35],[-90,-14],[-26,-39],[-133,-20],[-51,-48],[-88,31],[-218,224]],[[1891,4096],[468,0],[44,-83],[-69,11],[-65,-27],[-58,46],[-112,-7],[-91,38],[-100,-31],[-17,53]],[[0,626],[0,904],[8,-6],[21,-97],[59,3],[72,152],[17,-27],[37,22],[20,-77],[47,-4],[14,-56],[102,-15],[13,-94],[-68,-25],[64,-26],[26,-73],[-105,-136],[-171,-21],[-18,-26],[18,-108],[-58,-61],[28,-65],[-26,-54],[37,-57],[-137,-53]],[[3406,1667],[47,81],[95,1],[146,141],[10,42],[32,14],[-6,85],[95,-45],[2,-1],[-76,44],[-103,10],[-38,66],[-43,6],[103,42],[-9,29],[50,89],[-4,95],[37,23],[-1,152],[123,-27],[96,8],[38,86],[96,38],[0,-551],[0,-581],[-29,17],[-45,-39],[-32,15],[3,29],[-111,24],[-69,-73],[-94,-36],[-63,35],[-19,-18],[-37,15],[-53,53],[-71,-56],[-31,146],[-39,41]],[[3942,1979],[107,55],[7,9],[-114,-64]],[[0,3002],[192,-205],[84,-205],[239,-23],[153,-149],[106,-264],[104,-48],[71,-231],[-18,-181],[-28,-16],[-20,70],[-122,134],[22,75],[-141,59],[-77,-41],[-116,-6],[-323,95],[-48,39],[-44,126],[-34,19],[0,752]],[[985,3912],[117,-42],[137,3],[92,-183],[38,-18],[10,-76],[-103,-2],[-30,105],[-53,-7],[-44,56],[-80,27],[65,75],[-106,4],[-43,58]],[[3488,1493],[59,43],[53,-53],[37,-15],[19,18],[47,-36],[110,37],[69,73],[111,-24],[-3,-29],[32,-15],[50,40],[24,-18],[0,-151],[-28,-39],[-92,26],[-104,-171],[-55,-5],[-41,37],[6,-37],[-29,14],[-12,-19],[7,47],[-56,54],[-132,54],[10,58],[-43,6],[7,36],[-37,23],[-9,46]],[[1335,4096],[560,0],[21,-54],[-14,-67],[-388,-18],[-72,31],[-27,53],[-54,-10],[-26,65]],[[0,47],[0,286],[10,-1],[54,-34],[33,-92],[-46,-151],[-51,-8]]]}