{"objects":{"water":{"type":"GeometryCollection","geometries":[{"type":"MultiPolygon","properties":{"sort_rank":200,"source":"naturalearthdata.com","min_zoom":0.0,"kind":"lake","area":1748337115},"arcs":[[[492]]]},{"type":"Polygon","properties":{"source":"naturalearthdata.com","kind":"lake","reservoir":true,"area":1410372352,"sort_rank":200,"min_zoom":0.0,"id":1056},"arcs":[[493]]},{"type":"MultiPolygon","properties":{"kind":"lake","name":"Kakhovka Reservoir","reservoir":true,"area":4480304640,"sort_rank":200,"source":"naturalearthdata.com","min_zoom":0.0,"id":1181},"arcs":[[[494]],[[495]]]},{"type":"MultiPolygon","properties":{"source":"naturalearthdata.com","kind":"ocean","area":1576712559132672,"sort_rank":200,"min_zoom":0.0,"id":1},"arcs":[[[496]],[[497]],[[498]],[[499],[500],[501],[502]]]},{"type":"Polygon","properties":{"kind":"lake","name":"Syvash","area":4842037760,"sort_rank":200,"alkaline":true,"source":"naturalearthdata.com","min_zoom":0.0,"id":1299},"arcs":[[503]]},{"type":"MultiLineString","properties":{"source":"naturalearthdata.com","kind":"ocean","sort_rank":205,"boundary":true,"min_zoom":0.0,"id":50},"arcs":[[504],[505],[506],[507],[508],[509]]},{"type":"LineString","properties":{"source":"naturalearthdata.com","kind":"ocean","sort_rank":205,"boundary":true,"min_zoom":0.0,"id":52},"arcs":[510]},{"type":"LineString","properties":{"source":"naturalearthdata.com","kind":"lake","sort_rank":367,"boundary":true,"min_zoom":0.0,"id":643},"arcs":[511]},{"type":"LineString","properties":{"source":"naturalearthdata.com","kind":"lake","reservoir":true,"sort_rank":367,"boundary":true,"min_zoom":0.0,"id":1056},"arcs":[512]},{"type":"MultiLineString","properties":{"source":"naturalearthdata.com","kind":"lake","reservoir":true,"sort_rank":367,"boundary":true,"min_zoom":0.0,"id":1181},"arcs":[[513],[514],[515]]},{"type":"LineString","properties":{"source":"naturalearthdata.com","kind":"lake","sort_rank":367,"alkaline":true,"boundary":true,"min_zoom":0.0,"id":1299},"arcs":[516]},{"type":"LineString","properties":{"source":"naturalearthdata.com","kind":"ocean","sort_rank":205,"boundary":true,"min_zoom":0.0,"id":1557},"arcs":[517]},{"type":"LineString","properties":{"source":"naturalearthdata.com","kind":"ocean","sort_rank":205,"boundary":true,"min_zoom":0.0,"id":1990},"arcs":[518]},{"type":"LineString","properties":{"source":"naturalearthdata.com","kind":"ocean","sort_rank":205,"boundary":true,"min_zoom":0.0,"id":1991},"arcs":[519]},{"type":"Point","properties":{"label_placement":true,"kind":"sea","name":"Karkinita Golfo","source":"openstreetmap.org","sort_rank":200,"min_zoom":3.0,"id":4338416556},"coordinates":[3897,2554]},{"type":"Point","properties":{"label_placement":true,"kind":"sea","name":"Perekopa Golfo","source":"openstreetmap.org","sort_rank":200,"min_zoom":3.0,"id":4795417474},"coordinates":[3436,2965]},{"type":"Point","properties":{"label_placement":true,"kind":"sea","name":"\u041e\u0434\u0435\u0441\u044c\u043a\u0430 \u0437\u0430\u0442\u043e\u043a\u0430","source":"openstreetmap.org","sort_rank":200,"min_zoom":3.0,"id":4820510080},"coordinates":[3031,2844]}]},"buildings":{"type":"GeometryCollection","geometries":[]},"places":{"type":"GeometryCollection","geometries":[{"type":"Point","properties":{"name:pt":"Rom\u00eania","name:cy":"Rwmania","name:mt":"Rumanija","name:tr":"Romanya","name:kn":"\u0cb0\u0cca\u0cae\u0ccd\u0caf\u0cbe\u0ca8\u0cbf\u0caf\u0cbe","name:km":"\u179a\u17bc\u1798\u17c9\u17b6\u1793\u17b8","name:kl":"Rum\u00e6nia","name:cs":"Rumunsko","alt_name:eo":"Rumanio","name:ki":"Romania","name:ku":"Romanya","name:ti":"\u122e\u121c\u1292\u12eb","name:ks":"\u0631\u0648\u0645\u0627\u0646\u0650\u06cc\u0627","name:to":"Lom\u0113nia","name:sv":"Rum\u00e4nien","name:or":"\u0b30\u0b4b\u0b2e\u0b3e\u0b28\u0b3f\u0b06","name:pl":"Rumunia","name:ta":"\u0bb0\u0bc1\u0bae\u0bc7\u0ba9\u0bbf\u0baf\u0bbe","name:tg":"\u0420\u0443\u043c\u0438\u043d\u0438\u044f","name:ca":"Romania","name:te":"\u0c30\u0c4b\u0c2e\u0c3e\u0c28\u0c3f\u0c2f\u0c3e","name:hu":"Rom\u00e1nia","name:ka":"\u10e0\u10e3\u10db\u10d8\u10dc\u10d4\u10d7\u10d8","source":"openstreetmap.org","name:hr":"Rumunjska","name:da":"Rum\u00e6nien","name:de":"Rum\u00e4nien","name:dz":"\u0f62\u0f7c\u0f0b\u0f58\u0f7a\u0f0b\u0f53\u0f72\u0f0b\u0f61","name:ko":"\ub8e8\ub9c8\ub2c8\uc544","name:lv":"Rum\u0101nija","name:lt":"Rumunija","name:uz":"Ruminiya","name:kk":"\u0420\u0443\u043c\u044b\u043d\u0438\u044f","name:he":"\u05e8\u05d5\u05de\u05e0\u05d9\u05d4","kind":"country","name:ur":"\u0631\u0648\u0645\u0627\u0646\u06cc\u0627","name:lb":"Rum\u00e4nien","name:la":"Romania","name:lg":"Lomaniya","name:uk":"\u0420\u0443\u043c\u0443\u043d\u0456\u044f","name:hy":"\u054c\u0578\u0582\u0574\u056b\u0576\u056b\u0561","min_zoom":2.0,"name:li":"Roemeni\u00eb","name:ln":"Romani","name:lo":"\u0ea5\u0eb9\u0ec0\u0ea1\u0ec0\u0e99\u0e8d","population":21498616,"name:el":"\u03a1\u03bf\u03c5\u03bc\u03b1\u03bd\u03af\u03b1","name:eo":"Rumanujo","name:en":"Romania","name":"Rom\u00e2nia","name:ee":"Romania nutome","name:th":"\u0e1b\u0e23\u0e30\u0e40\u0e17\u0e28\u0e42\u0e23\u0e21\u0e32\u0e40\u0e19\u0e35\u0e22","name:gu":"\u0ab0\u0acb\u0aae\u0abe\u0aa8\u0abf\u0aaf\u0abe","name:eu":"Errumania","name:et":"Rumeenia","name:nl":"Roemeni\u00eb","name:es":"Rumania","name:ia":"Romania","name:rm":"Rumenia","name:rn":"Rumaniya","name:az":"Rum\u0131niya","name:id":"Rumania","name:ms":"Romania","name:mr":"\u0930\u094b\u092e\u093e\u0928\u093f\u092f\u093e","name:ar":"\u0631\u0648\u0645\u0627\u0646\u064a\u0627","name:my":"\u101b\u102d\u102f\u1019\u1031\u1038\u1014\u102e\u1038\u101a\u102c\u1038","name:io":"Rumania","int_name":"Romania","name:is":"R\u00famen\u00eda","name:am":"\u122e\u121c\u1292\u12eb","name:it":"Romania","name:vi":"Romania","name:ru":"\u0420\u0443\u043c\u044b\u043d\u0438\u044f","name:mn":"\u0420\u0443\u043c\u044b\u043d","id":432425064,"name:mk":"\u0420\u043e\u043c\u0430\u043d\u0438\u0458\u0430","name:af":"Roemeni\u00eb","name:zu":"i-Romania","name:ha":"Romaniya","name:nn":"Romania","name:ff":"Rumanii","name:fi":"Romania","name:hi":"\u0930\u094b\u092e\u093e\u0928\u093f\u092f\u093e","name:mg":"Romania","name:fo":"Rumenia","alt_name:vi":"Rumani","name:fr":"Roumanie","name:fy":"Roemeenje","name:vo":"Rum\u00e4n","name:zh":"\u7f57\u9a6c\u5c3c\u4e9a","name:gv":"Yn Romaan","name:so":"Rumaaniya","name:sn":"Romania","name:sl":"Romunija","name:sk":"Rumunsko","name:ja":"\u30eb\u30fc\u30de\u30cb\u30a2","name:si":"\u0dbb\u0dd4\u0db8\u0dda\u0db1\u0dd2\u0dba\u0dcf\u0dc0","name:fa":"\u0631\u0648\u0645\u0627\u0646\u06cc","name:sg":"Ruman\u00efi","name:se":"Rom\u00e1nia","name:ne":"\u0930\u094b\u092e\u093e\u0928\u093f\u092f\u093e","name:br":"Roumania","name:bs":"Rumunija","name:bm":"Rumani","name:bn":"\u09b0\u09c1\u09ae\u09be\u09a8\u09bf\u09af\u09bc\u09be","name:bo":"\u0f62\u0f7c\u0f0b\u0f58\u0f71\u0f0b\u0f53\u0f72\u0f61\u0f0d","name:ml":"\u0d31\u0d41\u0d2e\u0d47\u0d28\u0d3f\u0d2f","name:no":"Romania","name:sw":"Romania","name:be":"\u0420\u0443\u043c\u044b\u043d\u0456\u044f","name:bg":"\u0420\u0443\u043c\u044a\u043d\u0438\u044f","name:sr":"\u0420\u0443\u043c\u0443\u043d\u0438\u0458\u0430","name:sq":"Rumani","name:ga":"An R\u00f3m\u00e1in","name:gd":"R\u00f2mainia","name:gl":"Roman\u00eda","name:yo":"Or\u00edl\u1eb9\u0301\u00e8de Romaniya","name:ak":"Romenia"},"coordinates":[796,2581]},{"type":"Point","properties":{"source":"naturalearthdata.com","kind":"locality","name":"Istanbul","population":10061000,"region_capital":true,"min_zoom":2.0,"id":7267},"coordinates":[2370,66]},{"type":"Point","properties":{"name:pt":"Bulg\u00e1ria","name:ps":"\u0628\u0644\u063a\u0627\u0631\u06cc\u0647","name:ka":"\u10d1\u10e3\u10da\u10d2\u10d0\u10e0\u10d4\u10d7\u10d8","name:mt":"Bulgarija","name:ko":"\ubd88\uac00\ub9ac\uc544","name:kn":"\u0cac\u0cb2\u0ccd\u0c97\u0cc7\u0cb0\u0cbf\u0caf\u0cbe","name:km":"\u1794\u17ca\u17bb\u179b\u17a0\u17d2\u1782\u17b6\u179a\u17b8","name:kl":"Bulgaria","name:cs":"Bulharsko","alt_name:eo":"Bulgario","name:ki":"Bulgaria","name:tr":"Bulgaristan","name:ku":"Bulgaristan","name:ti":"\u1261\u120d\u130c\u122a\u12eb","name:ks":"\u0628\u064e\u0644\u062c\u06cc\u0631\u0650\u06cc\u0627","name:to":"Pokalia","name:tl":"Bulgarya","name:sv":"Bulgarien","name:or":"\u0b2c\u0b41\u0b32\u0b17\u0b47\u0b30\u0b3f\u0b06","name:pl":"Bu\u0142garia","name:ta":"\u0baa\u0bb2\u0bcd\u0b95\u0bc7\u0bb0\u0bbf\u0baf\u0bbe","name:tg":"\u0411\u043e\u043b\u0433\u0430\u0440\u0438\u044f","name:ca":"Bulg\u00e0ria","name:te":"\u0c2c\u0c32\u0c4d\u0c17\u0c47\u0c30\u0c3f\u0c2f\u0c3e","name:hu":"Bulg\u00e1ria","name:ro":"Bulgaria","name:cy":"Bwlgaria","name:hr":"Bugarska","name:da":"Bulgarien","name:de":"Bulgarien","name:dz":"\u0f56\u0f74\u0f63\u0f0b\u0f42\u0f0b\u0f62\u0f72\u0f0b\u0f61","source":"openstreetmap.org","name:lv":"Bulg\u0101rija","name:lt":"Bulgarija","name:uz":"Bolgariya","name:kk":"\u0411\u043e\u043b\u0433\u0430\u0440\u0438\u044f","name:he":"\u05d1\u05d5\u05dc\u05d2\u05e8\u05d9\u05d4","kind":"country","name:ur":"\u0628\u0644\u063a\u0627\u0631\u06cc\u06c1","name:lb":"Bulgarien","name:la":"Bulgaria","name:lg":"Bulugariya","name:uk":"\u0411\u043e\u043b\u0433\u0430\u0440\u0456\u044f","name:hy":"\u0532\u0578\u0582\u056c\u0572\u0561\u0580\u056b\u0561","min_zoom":2.0,"name:li":"B\u00f6lgarie\u00eb","name:ln":"Biligari","name:lo":"\u0e9a\u0eb1\u0e87\u0e81\u0eb2\u0ec0\u0ea5\u0e8d","name:oc":"Bulgaria","population":7364570,"name:el":"\u0392\u03bf\u03c5\u03bb\u03b3\u03b1\u03c1\u03af\u03b1","name:eo":"Bulgarujo","name:en":"Bulgaria","name":"\u0411\u044a\u043b\u0433\u0430\u0440\u0438\u044f","official_name":"\u0420\u0435\u043f\u0443\u0431\u043b\u0438\u043a\u0430 \u0411\u044a\u043b\u0433\u0430\u0440\u0438\u044f","name:ee":"Bulgaria nutome","name:th":"\u0e1b\u0e23\u0e30\u0e40\u0e17\u0e28\u0e1a\u0e31\u0e25\u0e41\u0e01\u0e40\u0e23\u0e35\u0e22","name:gu":"\u0aac\u0ab2\u0acd\u0a97\u0ac7\u0ab0\u0abf\u0aaf\u0abe","name:eu":"Bulgaria","name:et":"Bulgaaria","name:nl":"Bulgarije","name:es":"Bulgaria","name:ia":"Bulgaria","name:rm":"Bulgaria","name:rn":"Buligariya","name:az":"Bolqar\u0131stan","name:id":"Bulgaria","name:ms":"Bulgaria","name:mr":"\u092c\u0932\u094d\u0917\u0947\u0930\u093f\u092f\u093e","name:ar":"\u0628\u0644\u063a\u0627\u0631\u064a\u0627","name:my":"\u1018\u1030\u1002\u1031\u1038\u101b\u102e\u1038\u101a\u102c\u1038","name:io":"Bulgaria","int_name":"Bulgaria","name:is":"B\u00falgar\u00eda","name:am":"\u1261\u120d\u130c\u122a\u12eb","name:it":"Bulgaria","name:vi":"Bulgaria","name:ru":"\u0411\u043e\u043b\u0433\u0430\u0440\u0438\u044f","name:mn":"\u0411\u043e\u043b\u0433\u0430\u0440","id":424315709,"name:mk":"\u0411\u0443\u0433\u0430\u0440\u0438\u0458\u0430","name:af":"Bulgarye","name:zu":"i-Bulgaria","name:nn":"Bulgaria","name:ff":"Bulgarii","name:fi":"Bulgaria","name:hi":"\u092c\u0941\u0932\u094d\u0917\u093e\u0930\u093f\u092f\u093e","name:mg":"Biolgaria","name:fo":"Bulgaria","name:fr":"Bulgarie","name:fy":"Bulgarije","name:vo":"Bulgar\u00e4n","name:zh":"\u4fdd\u52a0\u5229\u4e9a","name:gv":"Yn Vulgeyr","name:so":"Bulgaariya","name:sn":"Bulgaria","name:sl":"Bolgarija","name:sk":"Bulharsko","name:ja":"\u30d6\u30eb\u30ac\u30ea\u30a2","name:si":"\u0db6\u0dbd\u0dca\u0d9c\u0dda\u0dbb\u0dd2\u0dba\u0dcf\u0dc0","name:fa":"\u0628\u0644\u063a\u0627\u0631\u0633\u062a\u0627\u0646","name:sg":"Bulugar\u00efi","name:se":"Bulg\u00e1ria","name:ne":"\u092c\u0932\u094d\u0917\u0947\u0930\u093f\u092f\u093e","name:br":"Bulgaria","name:bs":"Bugarska","name:bm":"Buligari","name:bn":"\u09ac\u09c1\u09b2\u0997\u09c7\u09b0\u09bf\u09af\u09bc\u09be","name:bo":"\u0f56\u0f74\u0f63\u0f0b\u0f42\u0f0b\u0f62\u0f72\u0f0b\u0f61\u0f0d","name:ml":"\u0d2c\u0d7e\u0d17\u0d47\u0d31\u0d3f\u0d2f","name:no":"Bulgaria","name:sw":"Bulgaria","name:be":"\u0411\u0430\u043b\u0433\u0430\u0440\u044b\u044f","name:ha":"Bulgariya","name:sr":"\u0411\u0443\u0433\u0430\u0440\u0441\u043a\u0430","name:sq":"Bullgaria","name:ga":"An Bhulg\u00e1ir","name:gd":"Bulg\u00e0iria","name:gl":"Bulgaria","name:yo":"Or\u00edl\u1eb9\u0301\u00e8de B\u00f9\u00f9g\u00e1r\u00ed\u00e0","name:ak":"B\u0254lgeria"},"coordinates":[1087,839]},{"type":"Point","properties":{"name:pt":"Mold\u00e1via","name:ml":"\u0d2e\u0d7e\u0d21\u0d4b\u0d35","name:ka":"\u10db\u10dd\u10da\u10d3\u10dd\u10d5\u10d0","name:mt":"Maldova","name:ko":"\ubab0\ub3c4\ubc14","name:cv":"\u041c\u043e\u043b\u0434\u0430\u0432\u0438","name:cu":"\u041c\u043e\u043b\u0434\u043e\u0432\u0430","name:cs":"Moldavsko","alt_name:eo":"Moldavio","name:tt":"\u041c\u043e\u043b\u0434\u0430\u0432\u0438\u044f","name:co":"Moldavia","name:kv":"\u041c\u043e\u043b\u0434\u043e\u0432\u0430","name:th":"\u0e1b\u0e23\u0e30\u0e40\u0e17\u0e28\u0e21\u0e2d\u0e25\u0e42\u0e14\u0e27\u0e32","name:ti":"\u121e\u120d\u12f6\u126b","name:ks":"\u0645\u0648\u0644\u0691\u0627\u0648\u0650\u06cc\u0627","name:to":"Molotova","name:tl":"Moldavia","name:pa":"\u0a2e\u0a4b\u0a32\u0a26\u0a4b\u0a35\u0a3e","name:os":"\u041c\u043e\u043b\u0434\u0430\u0432\u0438","name:or":"\u0b2e\u0b3e\u0b32\u0b21\u0b4b\u0b2d\u0b3e","name:ce":"\u041c\u043e\u043b\u0434\u0430\u0432\u0438","name:ta":"\u0bae\u0bbe\u0bb2\u0bcd\u0b9f\u0bcb\u0bb5\u0bbe","name:tg":"\u041c\u043e\u043b\u0434\u043e\u0432\u0430","name:ca":"Mold\u00e0via","name:te":"\u0c2e\u0c4b\u0c32\u0c4d \u0c21\u0c4b\u0c35","name:vi":"Mondova","name:cy":"Moldofa","name:hr":"Moldavija","name:ln":"Molidavi","name:de":"Moldawien","name:dz":"\u0f58\u0f7c\u0f63\u0f0b\u0f51\u0f7c\u0f0b\u0f56\u0f71","source":"openstreetmap.org","name:rw":"Molidova","name:kn":"\u0cae\u0cca\u0cb2\u0ccd\u0ca1\u0ccb\u0cb5\u0cbe","name:yi":"\u05de\u05d0\u05dc\u05d3\u05d0\u05d5\u05d5\u05e2","name:dv":"\u0789\u07ae\u078d\u07b0\u0791\u07af\u0788\u07a7","name:km":"\u179f\u17b6\u1792\u17b6\u179a\u178e\u179a\u178a\u17d2\u178b\u1798\u17c9\u17bb\u179b\u178a\u17b6\u179c\u17b8","name:lt":"Moldavija","name:hi":"\u092e\u094b\u0932\u094d\u0921\u093e\u0935\u093f\u092f\u093e","name:kk":"\u041c\u043e\u043b\u0434\u043e\u0432\u0430","name:sv":"Moldavien","name:he":"\u05de\u05d5\u05dc\u05d3\u05d5\u05d1\u05d4","kind":"country","name:ur":"\u0645\u0627\u0644\u062f\u0648\u0648\u0627","name:lb":"Moldawien","name:la":"Respublica Moldavica","name:lg":"Molodova","name:uk":"\u041c\u043e\u043b\u0434\u043e\u0432\u0430","name:hy":"\u0544\u0578\u056c\u0564\u0578\u057e\u0561","name:ug":"\u0645\u0648\u0644\u062f\u0648\u06cb\u0627","name:li":"Moldavi\u00eb","name:qu":"Mulduwa","name:lo":"\u0ec2\u0ea1\u0e99\u0ec2\u0e94\u0ea7\u0eb2","name:oc":"Mold\u00e0via","population":4128047,"name:el":"\u039c\u03bf\u03bb\u03b4\u03b1\u03b2\u03af\u03b1","name:eo":"Moldavujo","name":"Moldova","name:is":"Mold\u00f3va","name:tk":"Moldawi\u00fda","name:ee":"Moldova nutome","min_zoom":2.0,"name:eu":"Moldavia","alt_name:cs":"Mold\u00e1vie","name:nl":"Moldavi\u00eb","name:es":"Moldavia","name:ia":"Moldavia","name:rm":"Moldavia","name:rn":"Moludavi","name:ro":"Republica Moldova","name:ie":"Moldavia","name:mr":"\u092e\u094b\u0932\u094d\u0921\u094b\u0935\u094d\u0939\u093e","name:ar":"\u062c\u0645\u0647\u0648\u0631\u064a\u0629 \u0645\u0648\u0644\u062f\u0648\u0641\u0627","name:my":"\u1019\u1031\u102c\u103a\u101c\u103a\u1012\u102d\u102f\u1017\u102c\u1014\u102d\u102f\u1004\u103a\u1004\u1036","official_name":"Republica Moldova","name:ak":"M\u0254ldova","name:am":"\u121e\u120d\u12f6\u126b","name:it":"Moldavia","name:an":"Republica de Moldavia","name:ru":"\u041c\u043e\u043b\u0434\u043e\u0432\u0430","name:ab":"\u041c\u043e\u043b\u0434\u043e\u0432\u0430","name:mi":"Morotawa","name:pl":"Mo\u0142dawia","name:mk":"\u041c\u043e\u043b\u0434\u0430\u0432\u0438\u0458\u0430","name:af":"Moldowa","name:zu":"i-Moldova","name:ha":"Maldoba","name:mn":"\u041c\u043e\u043b\u0434\u0430\u0432","name:ff":"Moldawii","name:mg":"M\u00f4ldavia","id":424316417,"name:fr":"Moldavie","name:wo":"Moldaawi","name:ky":"\u041c\u043e\u043b\u0434\u043e\u0432\u0430","name:zh-yue":"\u6469\u723e\u591a\u74e6","name:fy":"Moldaavje","name:vo":"Moldov\u00e4n","name:zh":"\u6469\u5c14\u591a\u74e6","name:so":"Moldofa","name:sr":"\u041c\u043e\u043b\u0434\u0430\u0432\u0438\u0458\u0430","name:sl":"Moldavija","name:sk":"Moldavsko","name:ja":"\u30e2\u30eb\u30c9\u30d0","name:si":"\u0db8\u0ddc\u0dbd\u0dca\u0da9\u0ddd\u0dc0\u0dcf\u0dc0","name:sh":"Moldavija","name:sg":"Moldav\u00f9ii","name:na":"Ripubrikin Mordowa","name:se":"Mold\u00e1via","name:ne":"\u092e\u093e\u0932\u094d\u0921\u094b\u092d\u093e","name:br":"Moldavia","name:bs":"Moldavija","name:bm":"Molidavi","name:bn":"\u09ae\u09cb\u09b2\u09cd\u09a6\u09be\u09ad\u09bf\u09af\u09bc\u09be","name:bo":"\u0f58\u0f7c\u0f63\u0f0b\u0f51\u0f7c\u0f0b\u0f5d\u0f0d","name:sa":"\u092e\u094b\u0932\u094d\u0926\u094b\u0935\u093e","name:be":"\u041c\u0430\u043b\u0434\u043e\u0432\u0430","name:bg":"\u041c\u043e\u043b\u0434\u043e\u0432\u0430","name:ss":"IMolidiva","name:ba":"\u041c\u043e\u043b\u0434\u043e\u0432\u0430","name:sq":"Moldavi","name:ga":"An Mhold\u00f3iv","name:gd":"Mold\u00e0ibhia","name:ht":"Moldavi","name:gl":"Moldavia - Moldova","name:fa":"\u0645\u0648\u0644\u062f\u0627\u0648\u06cc","name:yo":"Or\u00edl\u1eb9\u0301\u00e8de Modofia","name:gu":"\u0aae\u0acb\u0ab2\u0aa1\u0acb\u0ab5\u0abe"},"coordinates":[2189,3252]},{"type":"Point","properties":{"alt_name:eo":"Transdnestrio;Transnistrio","name:ro":"Nistrenia","official_name":"\u0420\u0435\u043f\u0443\u0431\u043b\u0438\u043a\u0430 \u041c\u043e\u043b\u0434\u043e\u0432\u0435\u043d\u044f\u0441\u043a\u044d \u041d\u0438\u0441\u0442\u0440\u044f\u043d\u044d - \u041f\u0440\u0438\u0434\u043d\u0435\u0441\u0442\u0440\u043e\u0432\u0441\u043a\u0430\u044f \u041c\u043e\u043b\u0434\u0430\u0432\u0441\u043a\u0430\u044f \u0420\u0435\u0441\u043f\u0443\u0431\u043b\u0438\u043a\u0430 - \u041f\u0440\u0438\u0434\u043d\u0456\u0441\u0442\u0440\u043e\u0432\u0441\u044c\u043a\u0430 \u041c\u043e\u043b\u0434\u0430\u0432\u0441\u044c\u043a\u0430 \u0420\u0435\u0441\u043f\u0443\u0431\u043b\u0456\u043a\u0430","name:is":"Transnistr\u00eda","alt_name:en":"Pridnestrovie","name:it":"Transnistria","name:sk":"Podnestersko","name:pl":"Naddniestrze","id":2043451343,"name:ca":"Transn\u00edstria","name:vo":"Transnistriy\u00e4n","name:fa":"\u062a\u0631\u0627\u0646\u0633\u200c\u0646\u06cc\u0633\u062a\u0631\u06cc\u0627","name:fi":"Transnistria","name:de":"Transnistrien","source":"openstreetmap.org","name:fr":"Transnistrie","name:zh":"\u5fb7\u6d85\u65af\u7279\u6cb3\u6cbf\u5cb8","name:nl":"Transnistri\u00eb","short_name":"\u041d\u0438\u0441\u0442\u0440\u0435\u043d\u0438\u044f - \u041f\u0440\u0438\u0434\u043d\u0435\u0441\u0442\u0440\u043e\u0432\u044c\u0435 - \u041f\u0440\u0438\u0434\u043d\u0456\u0441\u0442\u0440\u043e\u0432'\u044f","name:no":"Transnistria","name:he":"\u05d8\u05e8\u05e0\u05e1\u05e0\u05d9\u05e1\u05d8\u05e8\u05d9\u05d4","kind":"country","name:br":"Treuznistria","name:uk":"\u041f\u0440\u0438\u0434\u043d\u0456\u0441\u0442\u0440\u043e\u0432\u2019\u044f","name:sv":"Transnistrien","min_zoom":2.0,"name:sr":"\u041f\u0440\u0438\u0434\u045a\u0435\u0441\u0442\u0440\u043e\u0432\u0459\u0435","population":513400,"name:eo":"\u0108ednestrio","name:en":"Transnistria","name":"\u041f\u0440\u0438\u0434\u043d\u0435\u0441\u0442\u0440\u043e\u0432\u044c\u0435","name:ku":"Transn\u00eestriya","name:es":"Transnistria"},"coordinates":[2511,3204]},{"type":"Point","properties":{"source":"naturalearthdata.com","kind":"locality","name":"Bucharest","country_capital":true,"population":1942000,"min_zoom":4.0,"id":7127},"coordinates":[1310,1782]},{"type":"Point","properties":{"name:pt":"Sebastopol","name:ro":"Sevastopol","name:nl":"Sebastopol","name:lt":"Sevastopolis","name:tr":"Sivastopol","name:kn":"\u0cb8\u0cc6\u0cb5\u0cb8\u0ccd\u0ca4\u0ccb\u0caa\u0cca\u0cb2\u0ccd","name:cs":"Sevastopol","min_zoom":4.0,"int_name":"Sevastopol","name:sk":"Sevastopo\u013e","name:it":"Sebastopoli","name:lv":"Sevastopole","name:pl":"Sewastopol","name:hu":"Szevasztopol","name:hr":"Sevastopolj","id":3674772325,"name:ca":"Sebast\u00f2pol","population":402135,"name:el":"\u03a3\u03b5\u03b2\u03b1\u03c3\u03c4\u03bf\u03cd\u03c0\u03bf\u03bb\u03b7","kind":"region","name:en":"Sevastopol","name":"\u0421\u0435\u0432\u0430\u0441\u0442\u043e\u043f\u043e\u043b\u044c","kind_detail":"state","name:de":"Sewastopol","source":"openstreetmap.org","name:fr":"S\u00e9bastopol","name:la":"Sebastopolis","name:es":"Sebastopol"},"coordinates":[3995,1844]},{"type":"Point","properties":{"kind":"region","name:en":"Ivano-Frankivsk Oblast","name":"\u0406\u0432\u0430\u043d\u043e-\u0424\u0440\u0430\u043d\u043a\u0456\u0432\u0441\u044c\u043a\u0430 \u043e\u0431\u043b\u0430\u0441\u0442\u044c","name:lt":"Ivano Frankivsko sritis","kind_detail":"state","name:eo":"Ivano-Frankivska Provinco","name:de":"Oblast Iwano-Frankiwsk","source":"openstreetmap.org","min_zoom":4.0,"name:fr":"Oblast d'Ivano-Frankivsk","name:be":"\u0406\u0432\u0430\u043d\u0430-\u0424\u0440\u0430\u043d\u043a\u043e\u045e\u0441\u043a\u0430\u044f \u0432\u043e\u0431\u043b\u0430\u0441\u0446\u044c","name:ru":"\u0418\u0432\u0430\u043d\u043e-\u0424\u0440\u0430\u043d\u043a\u043e\u0432\u0441\u043a\u0430\u044f \u043e\u0431\u043b\u0430\u0441\u0442\u044c","name:pl":"obw\u00f3d iwanofrankowski","id":1757670352,"name:es":"\u00d3blast de Ivano-Frankivsk"},"coordinates":[736,4006]},{"type":"Point","properties":{"name:pt":"Oblast da Transcarp\u00e1tia","name:ro":"Regiunea Transcarpatia","name:cs":"Zakarpatsk\u00e1 oblast","name:eo":"Transkarpata Provinco","min_zoom":4.0,"name:be":"\u0417\u0430\u043a\u0430\u0440\u043f\u0430\u0446\u043a\u0430\u044f \u0432\u043e\u0431\u043b\u0430\u0441\u0446\u044c","name:ru":"\u0417\u0430\u043a\u0430\u0440\u043f\u0430\u0442\u0441\u043a\u0430\u044f \u043e\u0431\u043b\u0430\u0441\u0442\u044c","name:pl":"obw\u00f3d zakarpacki","id":683681593,"kind":"region","name:en":"Zakarpatska Oblast","name":"\u0417\u0430\u043a\u0430\u0440\u043f\u0430\u0442\u0441\u044c\u043a\u0430 \u043e\u0431\u043b\u0430\u0441\u0442\u044c","kind_detail":"state","name:de":"Oblast Transkarpatien","source":"openstreetmap.org","name:fr":"Oblast de Transcarpathie","name:es":"\u00d3blast de Transcarpatia"},"coordinates":[345,3773]},{"type":"Point","properties":{"name:pt":"Oblast de Chernivtsi","name:ro":"Regiunea Cern\u0103u\u021bi","name:eo":"\u0108ernivca Provinco","min_zoom":4.0,"name:be":"\u0427\u0430\u0440\u043d\u0430\u0432\u0456\u0446\u043a\u0430\u044f \u0432\u043e\u0431\u043b\u0430\u0441\u0446\u044c","name:ru":"\u0427\u0435\u0440\u043d\u043e\u0432\u0438\u0446\u043a\u0430\u044f \u043e\u0431\u043b\u0430\u0441\u0442\u044c","name:pl":"obw\u00f3d czerniowiecki","id":683681609,"kind":"region","name:en":"Chernivtsi Oblast","name":"\u0427\u0435\u0440\u043d\u0456\u0432\u0435\u0446\u044c\u043a\u0430 \u043e\u0431\u043b\u0430\u0441\u0442\u044c","kind_detail":"state","name:de":"Oblast Tschernowitz","source":"openstreetmap.org","name:fr":"Oblast de Tchernivtsi","name:es":"\u00d3blast de Chernivtsi"},"coordinates":[1314,3817]},{"type":"Point","properties":{"name:pt":"Rep\u00fablica Aut\u00f4noma da Crimeia","name:az":"Kr\u0131m Muxtar Respublikas\u0131","name:tr":"K\u0131r\u0131m \u00d6zerk Cumhuriyeti","name:cu":"\u041a\ua651\u0440\ua651\u043c\u044c\u0441\u043a\u0430 \u0410\u0475\u0442\u043e\u043d\u043e\u043c\u044c\u043d\u0430 \u0414\u0438\u043c\u043e\u043a\u0440\u0430\u0442\u0457\ua657","name:cs":"Autonomn\u00ed republika Krym","name:tt":"\u041a\u044b\u0440\u044b\u043c \u0410\u0432\u0442\u043e\u043d\u043e\u043c\u0438\u044f\u043b\u0435 \u0496\u04e9\u043c\u04bb\u04af\u0440\u0438\u044f\u0442\u0435","min_zoom":4.0,"name:ko":"\ud06c\ub9bc \ubc18\ub3c4","name:be":"\u0410\u045e\u0442\u0430\u043d\u043e\u043c\u043d\u0430\u044f \u0420\u044d\u0441\u043f\u0443\u0431\u043b\u0456\u043a\u0430 \u041a\u0440\u044b\u043c","name:os":"\u0425\u044a\u044b\u0440\u044b\u043c\u044b \u0410\u0432\u0442\u043e\u043d\u043e\u043c\u043e\u043d \u0420\u0435\u0441\u043f\u0443\u0431\u043b\u0438\u043a\u00e6","name:ru":"\u0410\u0432\u0442\u043e\u043d\u043e\u043c\u043d\u0430\u044f \u0420\u0435\u0441\u043f\u0443\u0431\u043b\u0438\u043a\u0430 \u041a\u0440\u044b\u043c","name:pl":"Republika Autonomiczna Krymu","id":681769605,"name:mk":"\u0410\u0432\u0442\u043e\u043d\u043e\u043c\u043d\u0430 \u0420\u0435\u043f\u0443\u0431\u043b\u0438\u043a\u0430 \u041a\u0440\u0438\u043c","name:fi":"Krimin autonominen tasavalta","name:de":"Autonome Republik Krim","source":"openstreetmap.org","name:fr":"R\u00e9publique Autonome de Crim\u00e9e","name:zh":"\u514b\u91cc\u7c73\u4e9a\u81ea\u6cbb\u5171\u548c\u56fd","name:nl":"Autonome Republiek van de Krim","name:ja":"\u30af\u30ea\u30df\u30a2\u81ea\u6cbb\u5171\u548c\u56fd","name:lt":"Krymo autonomin\u0117 respublika","kind":"region","name:hy":"\u0542\u0580\u056b\u0574\u056b \u053b\u0576\u0584\u0576\u0561\u057e\u0561\u0580 \u0540\u0561\u0576\u0580\u0561\u057a\u0565\u057f\u0578\u0582\u0569\u0575\u0578\u0582\u0576","name:sv":"Autonoma republiken Krim","name:hu":"Kr\u00edmi Auton\u00f3m K\u00f6zt\u00e1rsas\u00e1g","name:ba":"\u04a0\u044b\u0440\u044b\u043c \u0410\u0432\u0442\u043e\u043d\u043e\u043c\u0438\u044f\u043b\u044b \u0420\u0435\u0441\u043f\u0443\u0431\u043b\u0438\u043a\u0430\u04bb\u044b","name:el":"\u0391\u03c5\u03c4\u03cc\u03bd\u03bf\u03bc\u03b7 \u0394\u03b7\u03bc\u03bf\u03ba\u03c1\u03b1\u03c4\u03af\u03b1 \u03c4\u03b7\u03c2 \u039a\u03c1\u03b9\u03bc\u03b1\u03af\u03b1\u03c2","name:eo":"A\u016dtonoma Respubliko Krimeo","name:en":"Autonomous Republic of Crimea","name":"\u0410\u0432\u0442\u043e\u043d\u043e\u043c\u043d\u0430 \u0420\u0435\u0441\u043f\u0443\u0431\u043b\u0456\u043a\u0430 \u041a\u0440\u0438\u043c","kind_detail":"state","name:es":"Rep\u00fablica Aut\u00f3noma de Crimea"},"coordinates":[4041,2378]},{"type":"Point","properties":{"kind":"region","name:en":"Mykolaiv Oblast","name":"\u041c\u0438\u043a\u043e\u043b\u0430\u0457\u0432\u0441\u044c\u043a\u0430 \u043e\u0431\u043b\u0430\u0441\u0442\u044c","kind_detail":"state","name:pt":"Oblast de Mikolaiv","name:de":"Oblast Mykolajiw","source":"openstreetmap.org","min_zoom":4.0,"name:eo":"Mikolajiva Provinco","name:fr":"Oblast de Mykola\u00efv","name:be":"\u041c\u0456\u043a\u0430\u043b\u0430\u0435\u045e\u0441\u043a\u0430\u044f \u0432\u043e\u0431\u043b\u0430\u0441\u0446\u044c","name:ru":"\u041d\u0438\u043a\u043e\u043b\u0430\u0435\u0432\u0441\u043a\u0430\u044f \u043e\u0431\u043b\u0430\u0441\u0442\u044c","name:pl":"obw\u00f3d miko\u0142ajowski","id":683681629,"name:es":"\u00d3blast de Mykolaiv"},"coordinates":[3439,3305]},{"type":"Point","properties":{"kind":"region","name:en":"Kherson Oblast","name":"\u0425\u0435\u0440\u0441\u043e\u043d\u0441\u044c\u043a\u0430 \u043e\u0431\u043b\u0430\u0441\u0442\u044c","kind_detail":"state","name:pt":"Oblast de Kherson","name:de":"Oblast Cherson","source":"openstreetmap.org","min_zoom":4.0,"name:eo":"\u0124ersona Provinco","name:fr":"Oblast de Kherson","name:be":"\u0425\u0435\u0440\u0441\u043e\u043d\u0441\u043a\u0430\u044f \u0432\u043e\u0431\u043b\u0430\u0441\u0446\u044c","name:ru":"\u0425\u0435\u0440\u0441\u043e\u043d\u0441\u043a\u0430\u044f \u043e\u0431\u043b\u0430\u0441\u0442\u044c","name:pl":"obw\u00f3d cherso\u0144ski","id":681769596,"name:es":"\u00d3blast de Kherson"},"coordinates":[3971,2868]},{"type":"Point","properties":{"kind":"region","name:en":"Vinnytsya Oblast","name":"\u0412\u0456\u043d\u043d\u0438\u0446\u044c\u043a\u0430 \u043e\u0431\u043b\u0430\u0441\u0442\u044c","kind_detail":"state","name:pt":"Oblast de Vinnitsa","name:de":"Oblast Winnyzja","source":"openstreetmap.org","min_zoom":4.0,"name:eo":"Vinica Provinco","name:fr":"Oblast de Vinnitsa","name:be":"\u0412\u0456\u043d\u043d\u0456\u0446\u043a\u0430\u044f \u0432\u043e\u0431\u043b\u0430\u0441\u0446\u044c","name:ru":"\u0412\u0438\u043d\u043d\u0438\u0446\u043a\u0430\u044f \u043e\u0431\u043b\u0430\u0441\u0442\u044c","name:pl":"obw\u00f3d winnicki","id":681769610,"name:es":"\u00d3blast de Vinnytsia"},"coordinates":[2190,4084]},{"type":"Point","properties":{"kind":"region","name:en":"Kirovograd Oblast","name":"\u041a\u0456\u0440\u043e\u0432\u043e\u0433\u0440\u0430\u0434\u0441\u044c\u043a\u0430 \u043e\u0431\u043b\u0430\u0441\u0442\u044c","kind_detail":"state","name:pt":"Oblast de Kirovogrado","name:de":"Oblast Kirowohrad","source":"openstreetmap.org","min_zoom":4.0,"name:eo":"Kirovohrada Provinco","name:fr":"Oblast de Kirovohrad","name:be":"\u041a\u0456\u0440\u0430\u0432\u0430\u0433\u0440\u0430\u0434\u0441\u043a\u0430\u044f \u0432\u043e\u0431\u043b\u0430\u0441\u0446\u044c","name:ru":"\u041a\u0438\u0440\u043e\u0432\u043e\u0433\u0440\u0430\u0434\u0441\u043a\u0430\u044f \u043e\u0431\u043b\u0430\u0441\u0442\u044c","name:pl":"obw\u00f3d kirowohradzki","id":683681623,"name:es":"\u00d3blast de Kirovogrado"},"coordinates":[3380,3812]},{"type":"Point","properties":{"kind":"region","name":"Tekirda\u011f","kind_detail":"province","name:ar":"\u062a\u0643\u064a\u0631\u062f\u0627\u063a","source":"openstreetmap.org","min_zoom":4.0,"name:uk":"\u0422\u0435\u043a\u0456\u0440\u0434\u0430\u0433","name:ru":"\u0422\u0435\u043a\u0438\u0440\u0434\u0430\u0433","id":602447917},"coordinates":[1789,72]},{"type":"Point","properties":{"kind":"region","name:en":"Istanbul","name":"\u0130stanbul","kind_detail":"province","source":"openstreetmap.org","min_zoom":4.0,"name:uk":"\u0421\u0442\u0430\u043c\u0431\u0443\u043b","name:ru":"\u0421\u0442\u0430\u043c\u0431\u0443\u043b","id":2895014424},"coordinates":[2386,50]},{"type":"Point","properties":{"kind":"region","name":"Zonguldak","kind_detail":"province","source":"openstreetmap.org","min_zoom":4.0,"name:uk":"\u0417\u043e\u043d\u0433\u0443\u043b\u0434\u0430\u043a","name:ru":"\u0417\u043e\u043d\u0433\u0443\u043b\u0434\u0430\u043a","id":2908518389},"coordinates":[3400,139]},{"type":"Point","properties":{"kind":"region","name":"Bart\u0131n","kind_detail":"province","source":"openstreetmap.org","min_zoom":4.0,"name:uk":"\u0411\u0430\u0440\u0442\u0438\u043d","name:ru":"\u0411\u0430\u0440\u0442\u044b\u043d","id":3001762007},"coordinates":[3617,266]},{"type":"Point","properties":{"kind":"region","name":"Karab\u00fck","kind_detail":"province","source":"openstreetmap.org","min_zoom":4.0,"name:uk":"\u041a\u0430\u0440\u0430\u0431\u044e\u043a","name:ru":"\u041a\u0430\u0440\u0430\u0431\u044e\u043a","id":3042002357},"coordinates":[3684,68]},{"type":"Point","properties":{"kind":"region","name":"K\u0131rklareli","kind_detail":"province","source":"openstreetmap.org","min_zoom":4.0,"name:uk":"\u041a\u0438\u0440\u043a\u043b\u0430\u0440\u0435\u043b\u0456","name:ru":"\u041a\u044b\u0440\u043a\u043b\u0430\u0440\u0435\u043b\u0438","id":3042002358},"coordinates":[1859,375]},{"type":"Point","properties":{"kind":"region","name":"Edirne","kind_detail":"province","source":"openstreetmap.org","min_zoom":4.0,"name:uk":"\u0415\u0434\u0456\u0440\u043d\u0435","name:ru":"\u042d\u0434\u0438\u0440\u043d\u0435","id":3042002361},"coordinates":[1501,103]},{"type":"Point","properties":{"name:pt":"Oblast de Odessa","name:ro":"Regiunea Odesa","name:eo":"Odesa Provinco","min_zoom":4.0,"name:be":"\u0410\u0434\u044d\u0441\u043a\u0430\u044f \u0432\u043e\u0431\u043b\u0430\u0441\u0446\u044c","name:ru":"\u041e\u0434\u0435\u0441\u0441\u043a\u0430\u044f \u043e\u0431\u043b\u0430\u0441\u0442\u044c","name:pl":"obw\u00f3d odeski","id":681769612,"kind":"region","name:en":"Odessa Oblast","name":"\u041e\u0434\u0435\u0441\u044c\u043a\u0430 \u043e\u0431\u043b\u0430\u0441\u0442\u044c","kind_detail":"state","name:de":"Oblast Odessa","source":"openstreetmap.org","name:fr":"Oblast d'Odessa","name:es":"\u00d3blast de Odesa"},"coordinates":[2715,2648]},{"type":"Point","properties":{"source":"naturalearthdata.com","kind":"locality","name":"Sofia","country_capital":true,"population":1185000,"min_zoom":5.0,"id":7075},"coordinates":[297,879]},{"type":"Point","properties":{"source":"naturalearthdata.com","kind":"locality","name":"Odessa","population":991000,"region_capital":true,"min_zoom":5.0,"id":6265},"coordinates":[2988,2843]},{"type":"Point","properties":{"source":"naturalearthdata.com","kind":"locality","name":"Chisinau","country_capital":true,"population":688134,"min_zoom":5.0,"id":6866},"coordinates":[2315,3107]},{"type":"Point","properties":{"source":"naturalearthdata.com","kind":"locality","name":"Sevastapol","population":379200,"min_zoom":5.0,"id":6815},"coordinates":[3992,1867]},{"type":"Point","properties":{"source":"naturalearthdata.com","kind":"locality","name":"Iasi","population":325914,"region_capital":true,"min_zoom":5.0,"id":6300},"coordinates":[1848,3191]},{"type":"Point","properties":{"source":"naturalearthdata.com","kind":"locality","name":"Constanta","population":303399,"region_capital":true,"min_zoom":5.0,"id":6297},"coordinates":[2225,1662]}]},"transit":{"type":"GeometryCollection","geometries":[]},"pois":{"type":"GeometryCollection","geometries":[{"type":"Point","properties":{"kind":"national_park","protect_class":"2","area":1049210000,"source":"openstreetmap.org","min_zoom":5.77,"tier":1,"name:ru":"\u041d\u0430\u0446\u0438\u043e\u043d\u0430\u043b\u044c\u043d\u044b\u0439 \u043f\u0440\u0438\u0440\u043e\u0434\u043d\u044b\u0439 \u043f\u0430\u0440\u043a \u00ab\u0421\u0438\u043d\u0435\u0432\u0438\u0440\u00bb","id":225916132,"name":"\u041d\u0430\u0446\u0456\u043e\u043d\u0430\u043b\u044c\u043d\u0438\u0439 \u043f\u0440\u0438\u0440\u043e\u0434\u043d\u0438\u0439 \u043f\u0430\u0440\u043a \u00ab\u0421\u0438\u043d\u0435\u0432\u0438\u0440\u00bb"},"coordinates":[444,3886]}]},"boundaries":{"type":"GeometryCollection","geometries":[{"type":"MultiLineString","properties":{"source":"naturalearthdata.com","kind":"country","sort_rank":262,"kind_detail":"2","min_zoom":0.0,"id":90},"arcs":[[0],[1]]},{"type":"MultiLineString","properties":{"source":"naturalearthdata.com","kind":"country","sort_rank":262,"kind_detail":"2","min_zoom":0.0,"id":175},"arcs":[[2],[3],[4],[5],[6],[7]]},{"type":"MultiLineString","properties":{"source":"naturalearthdata.com","kind":"country","sort_rank":262,"kind_detail":"2","min_zoom":0.0,"id":223},"arcs":[[8],[9],[10]]},{"type":"MultiLineString","properties":{"source":"naturalearthdata.com","kind":"country","sort_rank":262,"kind_detail":"2","min_zoom":0.0,"id":225},"arcs":[[11],[12],[13],[14]]},{"type":"MultiLineString","properties":{"source":"naturalearthdata.com","kind":"country","sort_rank":262,"kind_detail":"2","min_zoom":0.0,"id":231},"arcs":[[15],[16],[17],[18],[19],[20],[21],[22],[23],[24],[25],[26],[27],[28],[29],[30],[31],[32],[33],[34],[35],[36],[37],[38],[39],[40],[41],[42],[43],[44],[45],[46],[47],[48],[49],[50],[51],[52],[53],[54],[55],[56],[57],[58],[59],[60],[61],[62],[63],[64],[65],[66],[67],[68],[69],[70],[71],[72]]},{"type":"MultiLineString","properties":{"source":"naturalearthdata.com","kind":"country","sort_rank":262,"kind_detail":"2","min_zoom":0.0,"id":142},"arcs":[[73],[74],[75],[76],[77],[78],[79],[80],[81],[82],[83],[84],[85],[86],[87],[88],[89],[90],[91],[92],[93],[94],[95],[96],[97],[98]]},{"type":"MultiLineString","properties":{"source":"naturalearthdata.com","kind":"country","sort_rank":262,"kind_detail":"2","min_zoom":0.0,"id":179},"arcs":[[99],[100],[101],[102],[103],[104],[105],[106],[107],[108],[109],[110],[111]]},{"type":"MultiLineString","properties":{"source":"naturalearthdata.com","kind":"country","sort_rank":262,"kind_detail":"2","min_zoom":0.0,"id":182},"arcs":[[112],[113],[114],[115],[116]]},{"type":"MultiLineString","properties":{"source":"naturalearthdata.com","kind":"country","sort_rank":262,"kind_detail":"2","min_zoom":0.0,"id":224},"arcs":[[117],[118],[119],[120],[121],[122],[123],[124],[125],[126],[127],[128],[129],[130],[131],[132],[133],[134],[135],[136]]},{"type":"MultiLineString","properties":{"source":"naturalearthdata.com","kind":"country","sort_rank":262,"kind_detail":"2","min_zoom":0.0,"id":226},"arcs":[[137],[138],[139],[140],[141],[142],[143],[144],[145],[146],[147],[148],[149],[150],[151],[152],[153],[154],[155],[156],[157],[158],[159],[160],[161],[162],[163],[164],[165],[166],[167],[168],[169],[170],[171],[172],[173],[174],[175],[176],[177],[178],[179],[180]]},{"type":"MultiLineString","properties":{"source":"naturalearthdata.com","kind":"country","sort_rank":262,"kind_detail":"2","min_zoom":0.0,"id":227},"arcs":[[181],[182],[183],[184],[185],[186]]},{"type":"MultiLineString","properties":{"source":"naturalearthdata.com","kind":"country","sort_rank":262,"kind_detail":"2","min_zoom":0.0,"id":229},"arcs":[[187],[188],[189],[190],[191],[192],[193],[194],[195],[196],[197],[198],[199],[200],[201],[202],[203],[204],[205],[206],[207],[208],[209],[210]]},{"type":"MultiLineString","properties":{"source":"naturalearthdata.com","kind":"country","sort_rank":262,"kind_detail":"2","min_zoom":0.0,"id":230},"arcs":[[211],[212],[213],[214],[215],[216],[217],[218],[219],[220],[221],[222],[223],[224],[225],[226],[227],[228],[229],[230],[231],[232],[233],[234],[235],[236],[237],[238],[239],[240],[241],[242]]},{"type":"MultiLineString","properties":{"source":"naturalearthdata.com","kind":"region","sort_rank":256,"kind_detail":"4","min_zoom":5.5,"id":995},"arcs":[[243],[244],[245],[246],[247],[248],[249],[250],[251],[252],[253],[254],[255],[256],[257],[258],[259],[260],[261],[262],[263]]},{"type":"MultiLineString","properties":{"source":"naturalearthdata.com","kind":"region","sort_rank":256,"kind_detail":"4","min_zoom":5.5,"id":996},"arcs":[[264],[265],[266],[267],[268],[269],[270],[271],[272],[273],[274],[275],[276],[277]]},{"type":"LineString","properties":{"source":"naturalearthdata.com","kind":"region","sort_rank":256,"kind_detail":"4","min_zoom":5.5,"id":999},"arcs":[278]},{"type":"MultiLineString","properties":{"source":"naturalearthdata.com","kind":"region","sort_rank":256,"kind_detail":"4","min_zoom":5.5,"id":1439},"arcs":[[279],[280],[281],[282],[283],[284],[285],[286],[287]]},{"type":"MultiLineString","properties":{"source":"naturalearthdata.com","kind":"region","sort_rank":256,"kind_detail":"4","min_zoom":5.5,"id":1441},"arcs":[[288],[289],[290]]},{"type":"MultiLineString","properties":{"source":"naturalearthdata.com","kind":"region","sort_rank":256,"kind_detail":"4","min_zoom":5.5,"id":1447},"arcs":[[291],[292],[293],[294],[295],[296]]},{"type":"MultiLineString","properties":{"source":"naturalearthdata.com","kind":"region","sort_rank":256,"kind_detail":"4","min_zoom":5.5,"id":992},"arcs":[[297],[298],[299],[300]]},{"type":"MultiLineString","properties":{"source":"naturalearthdata.com","kind":"region","sort_rank":256,"kind_detail":"4","min_zoom":5.5,"id":987},"arcs":[[301],[302],[303],[304],[305]]},{"type":"MultiLineString","properties":{"source":"naturalearthdata.com","kind":"region","sort_rank":256,"kind_detail":"4","min_zoom":5.5,"id":993},"arcs":[[306],[307],[308],[309],[310],[311],[312],[313],[314],[315],[316],[317],[318],[319]]},{"type":"MultiLineString","properties":{"source":"naturalearthdata.com","kind":"region","sort_rank":256,"kind_detail":"4","min_zoom":5.5,"id":994},"arcs":[[320],[321],[322],[323],[324],[325],[326],[327],[328],[329],[330],[331],[332],[333],[334],[335],[336],[337],[338],[339],[340],[341],[342],[343],[344],[345],[346],[347],[348],[349]]},{"type":"MultiLineString","properties":{"source":"naturalearthdata.com","kind":"region","sort_rank":256,"kind_detail":"4","min_zoom":5.5,"id":998},"arcs":[[350],[351],[352],[353],[354],[355]]},{"type":"MultiLineString","properties":{"source":"naturalearthdata.com","kind":"region","sort_rank":256,"kind_detail":"4","min_zoom":5.5,"id":1453},"arcs":[[356],[357],[358]]},{"type":"LineString","properties":{"source":"naturalearthdata.com","kind":"region","sort_rank":256,"kind_detail":"4","min_zoom":5.5,"id":1454},"arcs":[359]},{"type":"MultiLineString","properties":{"source":"naturalearthdata.com","kind":"region","sort_rank":256,"kind_detail":"4","min_zoom":5.5,"id":1455},"arcs":[[360],[361],[362],[363],[364],[365],[366],[367],[368]]},{"type":"MultiLineString","properties":{"source":"naturalearthdata.com","kind":"region","sort_rank":256,"kind_detail":"4","min_zoom":5.5,"id":1440},"arcs":[[369],[370],[371],[372],[373],[374],[375],[376],[377],[378],[379]]},{"type":"LineString","properties":{"source":"naturalearthdata.com","kind":"region","sort_rank":256,"kind_detail":"4","min_zoom":5.5,"id":1442},"arcs":[380]},{"type":"MultiLineString","properties":{"source":"naturalearthdata.com","kind":"region","sort_rank":256,"kind_detail":"4","min_zoom":5.5,"id":1443},"arcs":[[381],[382],[383],[384],[385],[386],[387]]},{"type":"MultiLineString","properties":{"source":"naturalearthdata.com","kind":"region","sort_rank":256,"kind_detail":"4","min_zoom":5.5,"id":1444},"arcs":[[388],[389],[390]]},{"type":"MultiLineString","properties":{"source":"naturalearthdata.com","kind":"region","sort_rank":256,"kind_detail":"4","min_zoom":5.5,"id":1445},"arcs":[[391],[392],[393],[394],[395],[396],[397],[398],[399],[400],[401],[402],[403],[404],[405],[406],[407],[408],[409],[410],[411],[412],[413],[414],[415],[416],[417],[418],[419],[420],[421],[422],[423],[424],[425],[426],[427]]},{"type":"MultiLineString","properties":{"source":"naturalearthdata.com","kind":"region","sort_rank":256,"kind_detail":"4","min_zoom":5.5,"id":1446},"arcs":[[428],[429],[430],[431],[432],[433],[434],[435],[436],[437],[438],[439],[440],[441],[442],[443],[444],[445],[446],[447],[448],[449],[450],[451],[452],[453],[454],[455],[456]]},{"type":"MultiLineString","properties":{"source":"naturalearthdata.com","kind":"region","sort_rank":256,"kind_detail":"4","min_zoom":5.5,"id":1448},"arcs":[[457],[458],[459],[460],[461],[462],[463],[464],[465],[466],[467],[468],[469],[470],[471],[472],[473]]},{"type":"MultiLineString","properties":{"source":"naturalearthdata.com","kind":"region","sort_rank":256,"kind_detail":"4","min_zoom":5.5,"id":1451},"arcs":[[474],[475],[476]]},{"type":"MultiLineString","properties":{"source":"naturalearthdata.com","kind":"region","sort_rank":256,"kind_detail":"4","min_zoom":5.5,"id":1452},"arcs":[[477],[478],[479],[480],[481],[482],[483]]},{"type":"MultiLineString","properties":{"source":"naturalearthdata.com","kind":"region","sort_rank":256,"kind_detail":"4","min_zoom":5.5,"id":8107},"arcs":[[484],[485]]},{"type":"MultiLineString","properties":{"source":"naturalearthdata.com","kind":"region","sort_rank":256,"kind_detail":"4","min_zoom":5.5,"id":8985},"arcs":[[486],[487],[488],[489],[490],[491]]}]},"roads":{"type":"GeometryCollection","geometries":[{"type":"LineString","properties":{"source":"naturalearthdata.com","kind":"highway","sort_rank":383,"kind_detail":"motorway","min_zoom":4.0,"id":4187},"arcs":[520]},{"type":"LineString","properties":{"kind":"highway","network":"e-road","sort_rank":383,"kind_detail":"motorway","source":"naturalearthdata.com","min_zoom":3.0,"shield_text":"75","id":4613},"arcs":[521]},{"type":"LineString","properties":{"kind":"highway","network":"e-road","sort_rank":383,"kind_detail":"motorway","source":"naturalearthdata.com","min_zoom":3.0,"shield_text":"90","id":4620},"arcs":[522]},{"type":"MultiLineString","properties":{"kind":"highway","network":"e-road","sort_rank":383,"kind_detail":"motorway","source":"naturalearthdata.com","min_zoom":3.0,"landuse_kind":"park","shield_text":"85","id":4621},"arcs":[[523],[524]]},{"type":"MultiLineString","properties":{"kind":"highway","network":"e-road","sort_rank":383,"kind_detail":"motorway","source":"naturalearthdata.com","min_zoom":3.0,"shield_text":"85","id":4621},"arcs":[[525],[526],[527]]},{"type":"LineString","properties":{"kind":"highway","network":"e-road","sort_rank":383,"kind_detail":"motorway","source":"naturalearthdata.com","min_zoom":3.0,"shield_text":"90","id":4622},"arcs":[528]},{"type":"LineString","properties":{"kind":"highway","network":"e-road","sort_rank":383,"kind_detail":"motorway","source":"naturalearthdata.com","min_zoom":3.0,"shield_text":"90","id":4623},"arcs":[529]},{"type":"LineString","properties":{"kind":"highway","network":"e-road","sort_rank":383,"kind_detail":"motorway","source":"naturalearthdata.com","min_zoom":3.0,"landuse_kind":"urban_area","shield_text":"80","id":4626},"arcs":[530]},{"type":"MultiLineString","properties":{"kind":"highway","network":"e-road","sort_rank":383,"kind_detail":"motorway","source":"naturalearthdata.com","min_zoom":3.0,"landuse_kind":"urban_area","shield_text":"80","id":4626},"arcs":[[531],[532]]},{"type":"MultiLineString","properties":{"kind":"highway","network":"e-road","sort_rank":383,"kind_detail":"motorway","source":"naturalearthdata.com","min_zoom":3.0,"shield_text":"80","id":4626},"arcs":[[533],[534],[535]]},{"type":"LineString","properties":{"kind":"highway","network":"e-road","sort_rank":383,"kind_detail":"motorway","source":"naturalearthdata.com","min_zoom":3.0,"shield_text":"80","id":4627},"arcs":[536]},{"type":"LineString","properties":{"kind":"highway","network":"e-road","sort_rank":383,"kind_detail":"motorway","source":"naturalearthdata.com","min_zoom":4.0,"shield_text":"80","id":4628},"arcs":[537]},{"type":"LineString","properties":{"kind":"highway","network":"e-road","sort_rank":383,"kind_detail":"motorway","source":"naturalearthdata.com","min_zoom":4.0,"shield_text":"80","id":4629},"arcs":[538]},{"type":"LineString","properties":{"kind":"highway","network":"e-road","sort_rank":383,"kind_detail":"motorway","source":"naturalearthdata.com","min_zoom":4.0,"shield_text":"83","id":4630},"arcs":[539]},{"type":"LineString","properties":{"kind":"highway","network":"e-road","sort_rank":383,"kind_detail":"motorway","source":"naturalearthdata.com","min_zoom":3.0,"landuse_kind":"urban_area","shield_text":"70","id":4631},"arcs":[540]},{"type":"LineString","properties":{"kind":"highway","network":"e-road","sort_rank":383,"kind_detail":"motorway","source":"naturalearthdata.com","min_zoom":3.0,"shield_text":"70","id":4631},"arcs":[541]},{"type":"LineString","properties":{"kind":"highway","network":"e-road","sort_rank":383,"kind_detail":"motorway","source":"naturalearthdata.com","min_zoom":3.0,"landuse_kind":"urban_area","shield_text":"70","id":4632},"arcs":[542]},{"type":"LineString","properties":{"kind":"highway","network":"e-road","sort_rank":383,"kind_detail":"motorway","source":"naturalearthdata.com","min_zoom":3.0,"landuse_kind":"urban_area","shield_text":"70","id":4632},"arcs":[543]},{"type":"LineString","properties":{"kind":"highway","network":"e-road","sort_rank":383,"kind_detail":"motorway","source":"naturalearthdata.com","min_zoom":3.0,"shield_text":"70","id":4632},"arcs":[544]},{"type":"LineString","properties":{"kind":"highway","network":"e-road","sort_rank":383,"kind_detail":"motorway","source":"naturalearthdata.com","min_zoom":4.0,"shield_text":"60","id":4633},"arcs":[545]},{"type":"LineString","properties":{"source":"naturalearthdata.com","kind":"highway","kind_detail":"motorway","sort_rank":383,"landuse_kind":"urban_area","min_zoom":4.0,"id":4634},"arcs":[546]},{"type":"LineString","properties":{"source":"naturalearthdata.com","kind":"highway","sort_rank":383,"kind_detail":"motorway","min_zoom":4.0,"id":4634},"arcs":[547]},{"type":"LineString","properties":{"kind":"highway","network":"e-road","sort_rank":383,"kind_detail":"motorway","source":"naturalearthdata.com","min_zoom":3.0,"shield_text":"68","id":4635},"arcs":[548]},{"type":"LineString","properties":{"source":"naturalearthdata.com","kind":"major_road","kind_detail":"primary","sort_rank":380,"landuse_kind":"urban_area","min_zoom":3.0,"id":4712},"arcs":[549]},{"type":"LineString","properties":{"source":"naturalearthdata.com","kind":"major_road","sort_rank":380,"kind_detail":"primary","min_zoom":3.0,"id":4712},"arcs":[550]},{"type":"LineString","properties":{"source":"naturalearthdata.com","kind":"major_road","sort_rank":379,"kind_detail":"secondary","min_zoom":4.0,"id":4737},"arcs":[551]},{"type":"LineString","properties":{"source":"naturalearthdata.com","kind":"major_road","sort_rank":380,"kind_detail":"primary","min_zoom":4.0,"id":4738},"arcs":[552]},{"type":"LineString","properties":{"source":"naturalearthdata.com","kind":"major_road","sort_rank":379,"kind_detail":"secondary","min_zoom":4.0,"id":4741},"arcs":[553]},{"type":"LineString","properties":{"source":"naturalearthdata.com","kind":"major_road","kind_detail":"primary","sort_rank":380,"landuse_kind":"urban_area","min_zoom":3.0,"id":4742},"arcs":[554]},{"type":"LineString","properties":{"source":"naturalearthdata.com","kind":"major_road","sort_rank":380,"kind_detail":"primary","min_zoom":3.0,"id":4742},"arcs":[555]},{"type":"LineString","properties":{"source":"naturalearthdata.com","kind":"major_road","sort_rank":380,"kind_detail":"primary","min_zoom":3.0,"id":4743},"arcs":[556]},{"type":"LineString","properties":{"source":"naturalearthdata.com","kind":"major_road","sort_rank":380,"kind_detail":"primary","min_zoom":3.0,"id":4744},"arcs":[557]},{"type":"LineString","properties":{"source":"naturalearthdata.com","kind":"major_road","sort_rank":380,"kind_detail":"primary","min_zoom":3.0,"id":4745},"arcs":[558]},{"type":"LineString","properties":{"source":"naturalearthdata.com","kind":"major_road","sort_rank":380,"kind_detail":"primary","min_zoom":4.0,"id":4753},"arcs":[559]},{"type":"LineString","properties":{"source":"naturalearthdata.com","kind":"major_road","sort_rank":379,"kind_detail":"secondary","min_zoom":4.0,"id":4754},"arcs":[560]},{"type":"LineString","properties":{"source":"naturalearthdata.com","kind":"major_road","sort_rank":380,"kind_detail":"primary","min_zoom":4.0,"id":4755},"arcs":[561]},{"type":"LineString","properties":{"source":"naturalearthdata.com","kind":"major_road","sort_rank":380,"kind_detail":"primary","min_zoom":4.0,"id":4756},"arcs":[562]},{"type":"LineString","properties":{"source":"naturalearthdata.com","kind":"major_road","sort_rank":379,"kind_detail":"secondary","min_zoom":4.0,"id":4757},"arcs":[563]},{"type":"LineString","properties":{"source":"naturalearthdata.com","kind":"major_road","sort_rank":380,"kind_detail":"primary","min_zoom":4.0,"id":4758},"arcs":[564]},{"type":"LineString","properties":{"source":"naturalearthdata.com","kind":"major_road","kind_detail":"secondary","sort_rank":379,"landuse_kind":"protected_area","min_zoom":4.0,"id":4759},"arcs":[565]},{"type":"LineString","properties":{"source":"naturalearthdata.com","kind":"major_road","sort_rank":379,"kind_detail":"secondary","min_zoom":4.0,"id":4759},"arcs":[566]},{"type":"LineString","properties":{"source":"naturalearthdata.com","kind":"major_road","kind_detail":"secondary","sort_rank":379,"landuse_kind":"urban_area","min_zoom":4.0,"id":4760},"arcs":[567]},{"type":"MultiLineString","properties":{"source":"naturalearthdata.com","kind":"major_road","sort_rank":379,"kind_detail":"secondary","min_zoom":4.0,"id":4760},"arcs":[[568],[569]]},{"type":"LineString","properties":{"source":"naturalearthdata.com","kind":"major_road","kind_detail":"primary","sort_rank":380,"landuse_kind":"urban_area","min_zoom":4.0,"id":4761},"arcs":[570]},{"type":"LineString","properties":{"source":"naturalearthdata.com","kind":"major_road","sort_rank":380,"kind_detail":"primary","min_zoom":4.0,"id":4761},"arcs":[571]},{"type":"LineString","properties":{"source":"naturalearthdata.com","kind":"major_road","kind_detail":"secondary","sort_rank":379,"landuse_kind":"urban_area","min_zoom":4.0,"id":4762},"arcs":[572]},{"type":"LineString","properties":{"source":"naturalearthdata.com","kind":"major_road","sort_rank":379,"kind_detail":"secondary","min_zoom":4.0,"id":4762},"arcs":[573]},{"type":"LineString","properties":{"source":"naturalearthdata.com","kind":"major_road","kind_detail":"primary","sort_rank":380,"landuse_kind":"urban_area","min_zoom":4.0,"id":4763},"arcs":[574]},{"type":"LineString","properties":{"source":"naturalearthdata.com","kind":"major_road","sort_rank":380,"kind_detail":"primary","min_zoom":4.0,"id":4763},"arcs":[575]},{"type":"LineString","properties":{"source":"naturalearthdata.com","kind":"major_road","kind_detail":"primary","sort_rank":380,"landuse_kind":"urban_area","min_zoom":3.0,"id":4764},"arcs":[576]},{"type":"LineString","properties":{"source":"naturalearthdata.com","kind":"major_road","kind_detail":"primary","sort_rank":380,"landuse_kind":"urban_area","min_zoom":3.0,"id":4764},"arcs":[577]},{"type":"MultiLineString","properties":{"source":"naturalearthdata.com","kind":"major_road","sort_rank":380,"kind_detail":"primary","min_zoom":3.0,"id":4764},"arcs":[[578],[579]]},{"type":"LineString","properties":{"source":"naturalearthdata.com","kind":"major_road","sort_rank":380,"kind_detail":"primary","min_zoom":3.0,"id":4765},"arcs":[580]},{"type":"LineString","properties":{"source":"naturalearthdata.com","kind":"major_road","kind_detail":"primary","sort_rank":380,"landuse_kind":"urban_area","min_zoom":4.0,"id":4766},"arcs":[581]},{"type":"LineString","properties":{"source":"naturalearthdata.com","kind":"major_road","sort_rank":380,"kind_detail":"primary","min_zoom":4.0,"id":4766},"arcs":[582]},{"type":"LineString","properties":{"source":"naturalearthdata.com","kind":"major_road","sort_rank":380,"kind_detail":"primary","min_zoom":4.0,"id":4767},"arcs":[583]},{"type":"LineString","properties":{"kind":"highway","network":"e-road","sort_rank":383,"kind_detail":"motorway","source":"naturalearthdata.com","min_zoom":4.0,"landuse_kind":"urban_area","shield_text":"60","id":4768},"arcs":[584]},{"type":"MultiLineString","properties":{"kind":"highway","network":"e-road","sort_rank":383,"kind_detail":"motorway","source":"naturalearthdata.com","min_zoom":4.0,"shield_text":"60","id":4768},"arcs":[[585],[586]]},{"type":"LineString","properties":{"kind":"highway","network":"e-road","sort_rank":383,"kind_detail":"motorway","source":"naturalearthdata.com","min_zoom":3.0,"shield_text":"75","id":4770},"arcs":[587]},{"type":"LineString","properties":{"source":"naturalearthdata.com","kind":"major_road","kind_detail":"primary","sort_rank":380,"landuse_kind":"protected_area","min_zoom":4.0,"id":4771},"arcs":[588]},{"type":"LineString","properties":{"source":"naturalearthdata.com","kind":"major_road","sort_rank":380,"kind_detail":"primary","min_zoom":4.0,"id":4771},"arcs":[589]},{"type":"MultiLineString","properties":{"source":"naturalearthdata.com","kind":"major_road","sort_rank":380,"kind_detail":"primary","min_zoom":4.0,"id":4802},"arcs":[[590],[591]]},{"type":"LineString","properties":{"source":"naturalearthdata.com","kind":"major_road","sort_rank":380,"kind_detail":"primary","min_zoom":3.0,"id":4806},"arcs":[592]},{"type":"LineString","properties":{"source":"naturalearthdata.com","kind":"major_road","kind_detail":"primary","sort_rank":380,"landuse_kind":"urban_area","min_zoom":4.0,"id":4966},"arcs":[593]},{"type":"MultiLineString","properties":{"source":"naturalearthdata.com","kind":"major_road","sort_rank":380,"kind_detail":"primary","min_zoom":4.0,"id":4966},"arcs":[[594],[595]]},{"type":"LineString","properties":{"source":"naturalearthdata.com","kind":"major_road","sort_rank":380,"kind_detail":"primary","min_zoom":3.0,"id":4967},"arcs":[596]},{"type":"LineString","properties":{"source":"naturalearthdata.com","kind":"major_road","sort_rank":380,"kind_detail":"primary","min_zoom":3.0,"id":4968},"arcs":[597]},{"type":"LineString","properties":{"source":"naturalearthdata.com","kind":"major_road","sort_rank":380,"kind_detail":"primary","min_zoom":3.0,"id":4969},"arcs":[598]},{"type":"LineString","properties":{"source":"naturalearthdata.com","kind":"major_road","kind_detail":"primary","sort_rank":380,"landuse_kind":"urban_area","min_zoom":3.0,"id":4970},"arcs":[599]},{"type":"MultiLineString","properties":{"source":"naturalearthdata.com","kind":"major_road","sort_rank":380,"kind_detail":"primary","min_zoom":3.0,"id":4970},"arcs":[[600],[601]]},{"type":"LineString","properties":{"source":"naturalearthdata.com","kind":"major_road","sort_rank":380,"kind_detail":"primary","min_zoom":4.0,"id":4971},"arcs":[602]},{"type":"LineString","properties":{"source":"naturalearthdata.com","kind":"major_road","sort_rank":379,"kind_detail":"secondary","min_zoom":4.0,"id":4972},"arcs":[603]},{"type":"LineString","properties":{"source":"naturalearthdata.com","kind":"major_road","sort_rank":380,"kind_detail":"primary","min_zoom":4.0,"id":4973},"arcs":[604]},{"type":"LineString","properties":{"source":"naturalearthdata.com","kind":"major_road","kind_detail":"secondary","sort_rank":379,"landuse_kind":"national_park","min_zoom":4.0,"id":4974},"arcs":[605]},{"type":"MultiLineString","properties":{"source":"naturalearthdata.com","kind":"major_road","sort_rank":379,"kind_detail":"secondary","min_zoom":4.0,"id":4974},"arcs":[[606],[607]]},{"type":"LineString","properties":{"source":"naturalearthdata.com","kind":"major_road","sort_rank":379,"kind_detail":"secondary","min_zoom":4.0,"id":4975},"arcs":[608]},{"type":"LineString","properties":{"source":"naturalearthdata.com","kind":"major_road","sort_rank":380,"kind_detail":"primary","min_zoom":4.0,"id":4976},"arcs":[609]},{"type":"LineString","properties":{"source":"naturalearthdata.com","kind":"major_road","kind_detail":"primary","sort_rank":380,"landuse_kind":"urban_area","min_zoom":4.0,"id":4984},"arcs":[610]},{"type":"LineString","properties":{"source":"naturalearthdata.com","kind":"major_road","sort_rank":380,"kind_detail":"primary","min_zoom":4.0,"id":4984},"arcs":[611]},{"type":"LineString","properties":{"source":"naturalearthdata.com","kind":"major_road","kind_detail":"primary","sort_rank":380,"landuse_kind":"urban_area","min_zoom":4.0,"id":4985},"arcs":[612]},{"type":"LineString","properties":{"source":"naturalearthdata.com","kind":"major_road","kind_detail":"primary","sort_rank":380,"landuse_kind":"urban_area","min_zoom":4.0,"id":4985},"arcs":[613]},{"type":"LineString","properties":{"source":"naturalearthdata.com","kind":"major_road","sort_rank":380,"kind_detail":"primary","min_zoom":4.0,"id":4985},"arcs":[614]},{"type":"LineString","properties":{"source":"naturalearthdata.com","kind":"major_road","sort_rank":380,"kind_detail":"primary","min_zoom":3.0,"id":4986},"arcs":[615]},{"type":"LineString","properties":{"source":"naturalearthdata.com","kind":"major_road","sort_rank":380,"kind_detail":"primary","min_zoom":4.0,"id":4988},"arcs":[616]},{"type":"LineString","properties":{"source":"naturalearthdata.com","kind":"major_road","sort_rank":380,"kind_detail":"primary","min_zoom":4.0,"id":4989},"arcs":[617]},{"type":"LineString","properties":{"source":"naturalearthdata.com","kind":"major_road","sort_rank":380,"kind_detail":"primary","min_zoom":3.0,"id":4990},"arcs":[618]},{"type":"LineString","properties":{"source":"naturalearthdata.com","kind":"major_road","sort_rank":380,"kind_detail":"primary","min_zoom":4.0,"id":5019},"arcs":[619]},{"type":"LineString","properties":{"source":"naturalearthdata.com","kind":"major_road","sort_rank":380,"kind_detail":"primary","min_zoom":4.0,"id":5020},"arcs":[620]},{"type":"LineString","properties":{"kind":"highway","network":"e-road","sort_rank":383,"kind_detail":"motorway","source":"naturalearthdata.com","min_zoom":4.0,"landuse_kind":"urban_area","shield_text":"871","id":5021},"arcs":[621]},{"type":"LineString","properties":{"kind":"highway","network":"e-road","sort_rank":383,"kind_detail":"motorway","source":"naturalearthdata.com","min_zoom":4.0,"shield_text":"871","id":5021},"arcs":[622]},{"type":"LineString","properties":{"source":"naturalearthdata.com","kind":"major_road","sort_rank":380,"kind_detail":"primary","min_zoom":4.0,"id":5024},"arcs":[623]},{"type":"LineString","properties":{"source":"naturalearthdata.com","kind":"major_road","kind_detail":"primary","sort_rank":380,"landuse_kind":"urban_area","min_zoom":3.0,"id":5025},"arcs":[624]},{"type":"LineString","properties":{"source":"naturalearthdata.com","kind":"major_road","kind_detail":"primary","sort_rank":380,"landuse_kind":"urban_area","min_zoom":3.0,"id":5025},"arcs":[625]},{"type":"LineString","properties":{"source":"naturalearthdata.com","kind":"major_road","kind_detail":"primary","sort_rank":380,"landuse_kind":"urban_area","min_zoom":3.0,"id":5025},"arcs":[626]},{"type":"MultiLineString","properties":{"source":"naturalearthdata.com","kind":"major_road","sort_rank":380,"kind_detail":"primary","min_zoom":3.0,"id":5025},"arcs":[[627],[628]]},{"type":"LineString","properties":{"source":"naturalearthdata.com","kind":"major_road","kind_detail":"primary","sort_rank":380,"landuse_kind":"urban_area","min_zoom":3.0,"id":5028},"arcs":[629]},{"type":"LineString","properties":{"source":"naturalearthdata.com","kind":"major_road","sort_rank":380,"kind_detail":"primary","min_zoom":3.0,"id":5028},"arcs":[630]},{"type":"LineString","properties":{"source":"naturalearthdata.com","kind":"major_road","sort_rank":380,"kind_detail":"primary","min_zoom":3.0,"id":5029},"arcs":[631]},{"type":"LineString","properties":{"source":"naturalearthdata.com","kind":"major_road","sort_rank":380,"kind_detail":"primary","min_zoom":3.0,"id":5034},"arcs":[632]},{"type":"LineString","properties":{"source":"naturalearthdata.com","kind":"major_road","sort_rank":380,"kind_detail":"primary","min_zoom":3.0,"id":5037},"arcs":[633]},{"type":"LineString","properties":{"source":"naturalearthdata.com","kind":"major_road","sort_rank":380,"kind_detail":"primary","min_zoom":3.0,"id":5038},"arcs":[634]},{"type":"LineString","properties":{"source":"naturalearthdata.com","kind":"major_road","kind_detail":"primary","sort_rank":380,"landuse_kind":"urban_area","min_zoom":3.0,"id":5040},"arcs":[635]},{"type":"LineString","properties":{"source":"naturalearthdata.com","kind":"major_road","sort_rank":380,"kind_detail":"primary","min_zoom":3.0,"id":5040},"arcs":[636]},{"type":"LineString","properties":{"source":"naturalearthdata.com","kind":"major_road","sort_rank":380,"kind_detail":"primary","min_zoom":3.0,"id":5041},"arcs":[637]},{"type":"LineString","properties":{"source":"naturalearthdata.com","kind":"major_road","sort_rank":380,"kind_detail":"primary","min_zoom":3.0,"id":5042},"arcs":[638]},{"type":"LineString","properties":{"source":"naturalearthdata.com","kind":"major_road","sort_rank":380,"kind_detail":"primary","min_zoom":3.0,"id":5049},"arcs":[639]},{"type":"LineString","properties":{"source":"naturalearthdata.com","kind":"major_road","kind_detail":"primary","sort_rank":380,"landuse_kind":"urban_area","min_zoom":4.0,"id":5050},"arcs":[640]},{"type":"LineString","properties":{"source":"naturalearthdata.com","kind":"major_road","kind_detail":"primary","sort_rank":380,"landuse_kind":"urban_area","min_zoom":4.0,"id":5050},"arcs":[641]},{"type":"LineString","properties":{"source":"naturalearthdata.com","kind":"major_road","sort_rank":380,"kind_detail":"primary","min_zoom":4.0,"id":5050},"arcs":[642]},{"type":"LineString","properties":{"source":"naturalearthdata.com","kind":"major_road","sort_rank":379,"kind_detail":"secondary","min_zoom":3.0,"id":5052},"arcs":[643]},{"type":"LineString","properties":{"source":"naturalearthdata.com","kind":"major_road","kind_detail":"primary","sort_rank":380,"landuse_kind":"urban_area","min_zoom":4.0,"id":5069},"arcs":[644]},{"type":"LineString","properties":{"source":"naturalearthdata.com","kind":"major_road","sort_rank":380,"kind_detail":"primary","min_zoom":4.0,"id":5069},"arcs":[645]},{"type":"LineString","properties":{"source":"naturalearthdata.com","kind":"major_road","kind_detail":"primary","sort_rank":380,"landuse_kind":"urban_area","min_zoom":4.0,"id":5070},"arcs":[646]},{"type":"MultiLineString","properties":{"source":"naturalearthdata.com","kind":"major_road","kind_detail":"secondary","sort_rank":379,"landuse_kind":"urban_area","min_zoom":3.0,"id":5071},"arcs":[[647],[648]]},{"type":"MultiLineString","properties":{"source":"naturalearthdata.com","kind":"major_road","sort_rank":379,"kind_detail":"secondary","min_zoom":3.0,"id":5071},"arcs":[[649],[650]]},{"type":"LineString","properties":{"source":"naturalearthdata.com","kind":"major_road","kind_detail":"primary","sort_rank":380,"landuse_kind":"urban_area","min_zoom":4.0,"id":5087},"arcs":[651]},{"type":"LineString","properties":{"source":"naturalearthdata.com","kind":"major_road","sort_rank":380,"kind_detail":"primary","min_zoom":4.0,"id":5087},"arcs":[652]},{"type":"LineString","properties":{"source":"naturalearthdata.com","kind":"major_road","kind_detail":"primary","sort_rank":380,"landuse_kind":"urban_area","min_zoom":4.0,"id":5089},"arcs":[653]},{"type":"MultiLineString","properties":{"source":"naturalearthdata.com","kind":"major_road","sort_rank":380,"kind_detail":"primary","min_zoom":4.0,"id":5089},"arcs":[[654],[655]]},{"type":"LineString","properties":{"source":"naturalearthdata.com","kind":"major_road","kind_detail":"primary","sort_rank":380,"landuse_kind":"urban_area","min_zoom":4.0,"id":5105},"arcs":[656]},{"type":"LineString","properties":{"source":"naturalearthdata.com","kind":"major_road","sort_rank":380,"kind_detail":"primary","min_zoom":4.0,"id":5105},"arcs":[657]},{"type":"LineString","properties":{"source":"naturalearthdata.com","kind":"major_road","kind_detail":"primary","sort_rank":380,"landuse_kind":"urban_area","min_zoom":4.0,"id":5140},"arcs":[658]},{"type":"LineString","properties":{"source":"naturalearthdata.com","kind":"major_road","sort_rank":380,"kind_detail":"primary","min_zoom":4.0,"id":5140},"arcs":[659]},{"type":"LineString","properties":{"source":"naturalearthdata.com","kind":"major_road","sort_rank":380,"kind_detail":"primary","min_zoom":3.0,"id":5149},"arcs":[660]},{"type":"LineString","properties":{"source":"naturalearthdata.com","kind":"major_road","sort_rank":379,"kind_detail":"secondary","min_zoom":4.0,"id":15690},"arcs":[661]},{"type":"LineString","properties":{"source":"naturalearthdata.com","kind":"major_road","sort_rank":379,"kind_detail":"secondary","min_zoom":3.0,"id":15737},"arcs":[662]},{"type":"LineString","properties":{"source":"naturalearthdata.com","kind":"major_road","sort_rank":379,"kind_detail":"secondary","min_zoom":3.0,"id":15742},"arcs":[663]},{"type":"LineString","properties":{"source":"naturalearthdata.com","kind":"major_road","sort_rank":379,"kind_detail":"secondary","min_zoom":4.0,"id":15755},"arcs":[664]},{"type":"LineString","properties":{"source":"naturalearthdata.com","kind":"major_road","sort_rank":379,"kind_detail":"secondary","min_zoom":4.0,"id":15766},"arcs":[665]},{"type":"LineString","properties":{"source":"naturalearthdata.com","kind":"major_road","sort_rank":379,"kind_detail":"secondary","min_zoom":4.0,"id":15807},"arcs":[666]},{"type":"LineString","properties":{"source":"naturalearthdata.com","kind":"major_road","kind_detail":"secondary","sort_rank":379,"landuse_kind":"urban_area","min_zoom":4.0,"id":15819},"arcs":[667]},{"type":"LineString","properties":{"source":"naturalearthdata.com","kind":"major_road","sort_rank":379,"kind_detail":"secondary","min_zoom":4.0,"id":15819},"arcs":[668]},{"type":"LineString","properties":{"source":"naturalearthdata.com","kind":"major_road","sort_rank":379,"kind_detail":"secondary","min_zoom":3.0,"id":15868},"arcs":[669]},{"type":"LineString","properties":{"source":"naturalearthdata.com","kind":"major_road","sort_rank":379,"kind_detail":"secondary","min_zoom":4.0,"id":15878},"arcs":[670]},{"type":"LineString","properties":{"source":"naturalearthdata.com","kind":"major_road","sort_rank":379,"kind_detail":"secondary","min_zoom":4.0,"id":15903},"arcs":[671]},{"type":"LineString","properties":{"source":"naturalearthdata.com","kind":"major_road","sort_rank":379,"kind_detail":"secondary","min_zoom":4.0,"id":16003},"arcs":[672]},{"type":"LineString","properties":{"source":"naturalearthdata.com","kind":"major_road","sort_rank":379,"kind_detail":"secondary","min_zoom":4.0,"id":16058},"arcs":[673]},{"type":"LineString","properties":{"source":"naturalearthdata.com","kind":"major_road","sort_rank":379,"kind_detail":"secondary","min_zoom":4.0,"id":16147},"arcs":[674]},{"type":"LineString","properties":{"source":"naturalearthdata.com","kind":"major_road","sort_rank":379,"kind_detail":"secondary","min_zoom":3.0,"id":16148},"arcs":[675]},{"type":"LineString","properties":{"source":"naturalearthdata.com","kind":"major_road","sort_rank":379,"kind_detail":"secondary","min_zoom":3.0,"id":16197},"arcs":[676]},{"type":"LineString","properties":{"source":"naturalearthdata.com","kind":"major_road","sort_rank":379,"kind_detail":"secondary","min_zoom":3.0,"id":16471},"arcs":[677]},{"type":"LineString","properties":{"source":"naturalearthdata.com","kind":"major_road","kind_detail":"secondary","sort_rank":379,"landuse_kind":"urban_area","min_zoom":3.0,"id":16491},"arcs":[678]},{"type":"LineString","properties":{"source":"naturalearthdata.com","kind":"major_road","sort_rank":379,"kind_detail":"secondary","min_zoom":3.0,"id":16491},"arcs":[679]},{"type":"LineString","properties":{"source":"naturalearthdata.com","kind":"major_road","sort_rank":379,"kind_detail":"secondary","min_zoom":3.0,"id":16501},"arcs":[680]},{"type":"LineString","properties":{"source":"naturalearthdata.com","kind":"major_road","kind_detail":"secondary","sort_rank":379,"landuse_kind":"urban_area","min_zoom":3.0,"id":16503},"arcs":[681]},{"type":"LineString","properties":{"source":"naturalearthdata.com","kind":"major_road","sort_rank":379,"kind_detail":"secondary","min_zoom":3.0,"id":16503},"arcs":[682]},{"type":"LineString","properties":{"source":"naturalearthdata.com","kind":"major_road","sort_rank":379,"kind_detail":"secondary","min_zoom":3.0,"id":16556},"arcs":[683]},{"type":"LineString","properties":{"source":"naturalearthdata.com","kind":"major_road","sort_rank":379,"kind_detail":"secondary","min_zoom":3.0,"id":16568},"arcs":[684]},{"type":"LineString","properties":{"source":"naturalearthdata.com","kind":"major_road","sort_rank":379,"kind_detail":"secondary","min_zoom":3.0,"id":16581},"arcs":[685]},{"type":"LineString","properties":{"source":"naturalearthdata.com","kind":"major_road","kind_detail":"secondary","sort_rank":379,"landuse_kind":"urban_area","min_zoom":3.0,"id":16589},"arcs":[686]},{"type":"LineString","properties":{"source":"naturalearthdata.com","kind":"major_road","sort_rank":379,"kind_detail":"secondary","min_zoom":3.0,"id":16589},"arcs":[687]},{"type":"LineString","properties":{"source":"naturalearthdata.com","kind":"major_road","sort_rank":379,"kind_detail":"secondary","min_zoom":3.0,"id":16592},"arcs":[688]},{"type":"LineString","properties":{"source":"naturalearthdata.com","kind":"major_road","sort_rank":379,"kind_detail":"secondary","min_zoom":3.0,"id":16593},"arcs":[689]},{"type":"LineString","properties":{"source":"naturalearthdata.com","kind":"major_road","kind_detail":"secondary","sort_rank":379,"landuse_kind":"urban_area","min_zoom":3.0,"id":16601},"arcs":[690]},{"type":"LineString","properties":{"source":"naturalearthdata.com","kind":"major_road","kind_detail":"secondary","sort_rank":379,"landuse_kind":"urban_area","min_zoom":3.0,"id":16619},"arcs":[691]},{"type":"LineString","properties":{"source":"naturalearthdata.com","kind":"major_road","sort_rank":379,"kind_detail":"secondary","min_zoom":3.0,"id":16619},"arcs":[692]},{"type":"LineString","properties":{"source":"naturalearthdata.com","kind":"major_road","kind_detail":"secondary","sort_rank":379,"landuse_kind":"urban_area","min_zoom":3.0,"id":16674},"arcs":[693]},{"type":"LineString","properties":{"source":"naturalearthdata.com","kind":"major_road","sort_rank":379,"kind_detail":"secondary","min_zoom":3.0,"id":16674},"arcs":[694]},{"type":"LineString","properties":{"source":"naturalearthdata.com","kind":"major_road","kind_detail":"secondary","sort_rank":379,"landuse_kind":"urban_area","min_zoom":3.0,"id":16708},"arcs":[695]},{"type":"LineString","properties":{"source":"naturalearthdata.com","kind":"major_road","sort_rank":379,"kind_detail":"secondary","min_zoom":3.0,"id":16708},"arcs":[696]},{"type":"LineString","properties":{"source":"naturalearthdata.com","kind":"major_road","kind_detail":"secondary","sort_rank":379,"landuse_kind":"urban_area","min_zoom":4.0,"id":16711},"arcs":[697]},{"type":"LineString","properties":{"source":"naturalearthdata.com","kind":"major_road","kind_detail":"secondary","sort_rank":379,"landuse_kind":"urban_area","min_zoom":3.0,"id":16731},"arcs":[698]},{"type":"LineString","properties":{"source":"naturalearthdata.com","kind":"major_road","sort_rank":379,"kind_detail":"secondary","min_zoom":3.0,"id":16731},"arcs":[699]},{"type":"LineString","properties":{"source":"naturalearthdata.com","kind":"major_road","kind_detail":"secondary","sort_rank":379,"landuse_kind":"urban_area","min_zoom":4.0,"id":17546},"arcs":[700]},{"type":"LineString","properties":{"source":"naturalearthdata.com","kind":"major_road","kind_detail":"secondary","sort_rank":379,"landuse_kind":"urban_area","min_zoom":4.0,"id":17547},"arcs":[701]},{"type":"LineString","properties":{"source":"naturalearthdata.com","kind":"major_road","sort_rank":379,"kind_detail":"secondary","min_zoom":4.0,"id":17547},"arcs":[702]},{"type":"LineString","properties":{"source":"naturalearthdata.com","kind":"major_road","kind_detail":"secondary","sort_rank":379,"landuse_kind":"urban_area","min_zoom":4.0,"id":17603},"arcs":[703]},{"type":"LineString","properties":{"source":"naturalearthdata.com","kind":"major_road","sort_rank":379,"kind_detail":"secondary","min_zoom":4.0,"id":17603},"arcs":[704]}]},"earth":{"type":"GeometryCollection","geometries":[{"type":"MultiPolygon","properties":{"sort_rank":10,"source":"naturalearthdata.com","min_zoom":0.0,"kind":"earth","area":5397125446760},"arcs":[[[705]],[[706]],[[707]],[[708]],[[709]],[[710]]]}]},"landuse":{"type":"GeometryCollection","geometries":[{"type":"Polygon","properties":{"kind":"protected_area","name":"Mun\u021bii \u021aarcu","area":1185709952,"sort_rank":17,"source":"openstreetmap.org","min_zoom":4.0,"tier":2,"id":-2195523,"osm_relation":true,"protect_class":"97"},"arcs":[[711]]},{"type":"Polygon","properties":{"kind":"nature_reserve","name":"\u041f\u043e\u043b\u043e\u043d\u0438\u043d\u0430 \u0411\u043e\u0440\u0436\u0430\u0432\u0430","area":1830530048,"sort_rank":23,"source":"openstreetmap.org","min_zoom":4.0,"tier":2,"id":362584617},"arcs":[[712]]},{"type":"Polygon","properties":{"kind":"national_park","name":"\u041d\u0430\u0446\u0456\u043e\u043d\u0430\u043b\u044c\u043d\u0438\u0439 \u043f\u0440\u0438\u0440\u043e\u0434\u043d\u0438\u0439 \u043f\u0430\u0440\u043a \u00ab\u0421\u0438\u043d\u0435\u0432\u0438\u0440\u00bb","area":1049209984,"sort_rank":18,"source":"openstreetmap.org","min_zoom":3.0,"tier":1,"id":225916132,"protect_class":"2"},"arcs":[[713]]},{"type":"Polygon","properties":{"kind":"park","name":"\u041d\u0430\u0446\u0438\u043e\u043d\u0430\u043b\u0435\u043d \u043f\u0430\u0440\u043a \u0420\u0438\u043b\u0430","area":1318119936,"sort_rank":24,"source":"openstreetmap.org","min_zoom":4.0,"tier":2,"id":-1417776,"osm_relation":true},"arcs":[[714]]},{"type":"Polygon","properties":{"kind":"protected_area","name":"\u041f\u0440\u0438\u0440\u043e\u0434\u0435\u043d \u043f\u0430\u0440\u043a \u0421\u0442\u0440\u0430\u043d\u0434\u0436\u0430","area":2116720000,"sort_rank":17,"source":"openstreetmap.org","min_zoom":4.0,"tier":2,"id":-1421265,"osm_relation":true,"protect_class":"5"},"arcs":[[715]]},{"type":"Polygon","properties":{"kind":"nature_reserve","name":"Zona Ramsar \"Nistrul de Jos\"","area":1291800064,"sort_rank":23,"source":"openstreetmap.org","min_zoom":4.0,"tier":2,"id":534343953},"arcs":[[716]]},{"type":"Polygon","properties":{"kind":"protected_area","name":"Danube Delta Biosphere Reserve","area":2563651221,"sort_rank":17,"source":"openstreetmap.org","min_zoom":4.0,"tier":2,"osm_relation":true},"arcs":[[717],[718],[719],[720],[721],[722]]},{"type":"Polygon","properties":{"kind":"nature_reserve","name":"\u0411\u0456\u043e\u0441\u0444\u0435\u0440\u043d\u0438\u0439 \u0437\u0430\u043f\u043e\u0432\u0456\u0434\u043d\u0438\u043a \u00ab\u0427\u043e\u0440\u043d\u043e\u043c\u043e\u0440\u0441\u044c\u043a\u0438\u0439\u00bb","area":1804230016,"sort_rank":23,"source":"openstreetmap.org","min_zoom":4.0,"tier":2,"id":342275948,"protect_class":"98"},"arcs":[[723]]},{"type":"MultiPolygon","properties":{"kind":"national_park","name":"\u041a\u0430\u0440\u043f\u0430\u0442\u0441\u044c\u043a\u0438\u0439 \u0431\u0456\u043e\u0441\u0444\u0435\u0440\u043d\u0438\u0439 \u0437\u0430\u043f\u043e\u0432\u0456\u0434\u043d\u0438\u043a","area":908270038,"sort_rank":18,"source":"openstreetmap.org","min_zoom":3.0,"tier":1,"osm_relation":true,"protect_class":"2"},"arcs":[[[724]],[[725]]]},{"type":"Polygon","properties":{"kind":"protected_area","name":"Mun\u021bii F\u0103g\u0103ra\u0219","area":4053199872,"sort_rank":17,"source":"openstreetmap.org","min_zoom":4.0,"tier":2,"id":-2201635,"osm_relation":true,"protect_class":"97"},"arcs":[[726]]},{"type":"Polygon","properties":{"kind":"nature_reserve","name":"\u0411\u0456\u043e\u0441\u0444\u0435\u0440\u043d\u0438\u0439 \u0437\u0430\u043f\u043e\u0432\u0456\u0434\u043d\u0438\u043a \u00ab\u0414\u0435\u043b\u044c\u0442\u0430 \u0414\u0443\u043d\u0430\u044e\u00bb","area":1123480064,"sort_rank":23,"source":"openstreetmap.org","min_zoom":4.0,"tier":2,"id":-4266845,"osm_relation":true},"arcs":[[727]]},{"type":"Polygon","properties":{"kind":"protected_area","name":"C\u0103limani - Gurghiu","area":2891579904,"sort_rank":17,"source":"openstreetmap.org","min_zoom":4.0,"tier":2,"id":-2561748,"osm_relation":true,"protect_class":"97"},"arcs":[[728],[729],[730]]},{"type":"Polygon","properties":{"kind":"national_park","name":"\u041a\u0430\u0440\u043f\u0430\u0442\u0441\u044c\u043a\u0438\u0439 \u0431\u0456\u043e\u0441\u0444\u0435\u0440\u043d\u0438\u0439 \u0437\u0430\u043f\u043e\u0432\u0456\u0434\u043d\u0438\u043a","area":187984992,"sort_rank":18,"source":"openstreetmap.org","min_zoom":5.0,"tier":1,"id":-1463495,"osm_relation":true,"protect_class":"2"},"arcs":[[731]]},{"type":"Polygon","properties":{"kind":"park","name":"\u041d\u0430\u0446\u0438\u043e\u043d\u0430\u043b\u0435\u043d \u043f\u0430\u0440\u043a \u0426\u0435\u043d\u0442\u0440\u0430\u043b\u0435\u043d \u0411\u0430\u043b\u043a\u0430\u043d","area":1332610048,"sort_rank":24,"source":"openstreetmap.org","min_zoom":4.0,"tier":2,"id":-1404501,"osm_relation":true},"arcs":[[732]]},{"type":"Polygon","properties":{"kind":"national_park","name":"\u0423\u0436\u0430\u043d\u0441\u044c\u043a\u0438\u0439 \u043d\u0430\u0446\u0456\u043e\u043d\u0430\u043b\u044c\u043d\u0438\u0439 \u043f\u0440\u0438\u0440\u043e\u0434\u043d\u0438\u0439 \u043f\u0430\u0440\u043a","area":887675008,"sort_rank":18,"source":"openstreetmap.org","min_zoom":3.0,"tier":1,"id":-6446164,"osm_relation":true,"protect_class":"2"},"arcs":[[733]]},{"type":"Polygon","properties":{"kind":"protected_area","name":"Trasc\u0103u","area":1050720000,"sort_rank":17,"source":"openstreetmap.org","min_zoom":4.0,"tier":2,"id":-2196506,"osm_relation":true,"protect_class":"97"},"arcs":[[734]]},{"type":"MultiPolygon","properties":{"source":"naturalearthdata.com","kind":"urban_area","name":"","area":68098943521,"sort_rank":11,"min_zoom":4.0},"arcs":[[[735]],[[736]],[[737]],[[738]],[[739]],[[740]],[[741]],[[742]],[[743]],[[744]],[[745]],[[746]],[[747]],[[748]],[[749]],[[750]],[[751]],[[752]],[[753]],[[754]],[[755]],[[756]],[[757]],[[758]],[[759]],[[760]],[[761]],[[762]],[[763]],[[764]],[[765]],[[766]],[[767]]]},{"type":"Polygon","properties":{"kind":"protected_area","name":"Mun\u021bii Maramure\u0219ului","area":2367239936,"sort_rank":17,"source":"openstreetmap.org","min_zoom":4.0,"tier":2,"id":-2405972,"osm_relation":true,"protect_class":"97"},"arcs":[[768],[769],[770],[771]]},{"type":"Polygon","properties":{"kind":"park","name":"\u03a5\u03b3\u03c1\u03cc\u03c4\u03bf\u03c0\u03bf\u03c2 \u039b\u03af\u03bc\u03bd\u03b7\u03c2 \u039a\u03b5\u03c1\u03ba\u03af\u03bd\u03b7\u03c2","area":1386259968,"sort_rank":24,"source":"openstreetmap.org","min_zoom":4.0,"tier":2,"id":-2453770,"osm_relation":true},"arcs":[[772]]},{"type":"MultiPolygon","properties":{"kind":"protected_area","name":"Domogled - Valea Cernei","area":1336310016,"sort_rank":17,"source":"openstreetmap.org","min_zoom":4.0,"tier":2,"id":-2201763,"osm_relation":true,"protect_class":"97"},"arcs":[[[773]]]},{"type":"Polygon","properties":{"kind":"protected_area","name":"Mun\u021bii Apuseni - Vl\u0103deasa","area":1972530048,"sort_rank":17,"source":"openstreetmap.org","min_zoom":4.0,"tier":2,"id":-2201620,"osm_relation":true,"protect_class":"97"},"arcs":[[774],[775]]},{"type":"MultiPolygon","properties":{"kind":"park","name":"\u0395\u03b8\u03bd\u03b9\u03ba\u03cc \u03c0\u03ac\u03c1\u03ba\u03bf \u0391\u03bd\u03b1\u03c4\u03bf\u03bb\u03b9\u03ba\u03ae\u03c2 \u039c\u03b1\u03ba\u03b5\u03b4\u03bf\u03bd\u03af\u03b1\u03c2 \u03ba\u03b1\u03b9 \u0398\u03c1\u03ac\u03ba\u03b7\u03c2","area":1672640000,"sort_rank":24,"source":"openstreetmap.org","min_zoom":4.0,"tier":2,"id":-1850516,"osm_relation":true},"arcs":[[[776]],[[777]]]}]}},"type":"Topology","transform":{"translate":[22.5,40.9798980696],"scale":[0.002746582,0.0019391116]},"arcs":[[[23,3495],[14,2],[13,5],[11,9],[9,12],[4,3],[8,3],[8,1],[2,1],[3,6],[-1,4],[-2,3],[0,5],[4,7],[6,4],[14,5],[6,5],[9,16],[6,7]],[[0,3502],[10,-5],[13,-2]],[[119,186],[33,-2]],[[75,82],[4,3],[4,11],[3,20],[2,41],[0,1],[3,15],[4,4],[7,6],[6,1],[11,2]],[[53,103],[4,-1],[2,-3],[2,-4],[2,-4],[7,-6],[5,-3]],[[18,71],[8,1],[6,2],[1,1],[6,5],[6,9],[1,4],[0,5],[1,4],[6,1]],[[6,73],[12,-2]],[[0,73],[6,0]],[[39,3670],[-1,0],[-2,2],[-6,13],[-5,16],[-5,11],[-20,25]],[[137,3593],[-13,10],[-3,6],[6,8],[1,8],[2,5],[2,5],[-3,10],[-4,7],[-4,6],[-11,9],[-13,7],[-2,3],[-6,3]],[[89,3680],[-6,-1],[-6,-4],[-7,-2],[-26,0],[-5,-3]],[[0,1924],[19,-21],[13,-11],[12,-6],[29,-3],[5,-4],[19,-21],[-3,-9],[-6,-7],[-8,-4],[-7,-1]],[[73,1837],[-8,2],[-13,9],[-8,3],[-7,0]],[[37,1851],[-8,-2],[-5,-5],[-2,-9],[-1,-9],[-3,-5],[-5,-2],[-13,0]],[[0,1786],[0,-1],[2,-3],[0,-4],[-1,-8],[1,-4],[6,-15],[10,-14],[12,-10],[14,-7],[15,-2],[7,-3],[3,-7],[-2,-25],[2,-8],[1,0]],[[1851,3871],[8,-1],[0,-14],[8,-3]],[[1785,3832],[6,3],[22,18],[9,11],[15,0],[4,1],[10,6]],[[1912,3853],[12,-5],[24,-16],[5,-6],[8,-11],[4,-5],[3,-3],[8,-12],[14,-5],[14,-2],[19,-2],[7,-3],[6,-7],[2,-9],[-7,-20],[5,-4],[9,-1]],[[1867,3853],[45,0]],[[1763,3845],[7,-2],[10,-9],[5,-2]],[[1714,3806],[14,7],[2,2],[20,24],[13,6]],[[1652,3826],[4,-1],[7,-4],[39,-14],[12,-1]],[[1648,3805],[2,1],[0,3],[-1,2],[0,3],[0,3],[-1,4],[0,4],[4,1]],[[1581,3823],[12,-5],[12,-9],[13,-8]],[[1572,3812],[3,3],[1,4],[1,3],[4,1]],[[1563,3814],[6,-2],[3,0]],[[1549,3768],[7,0],[4,4],[2,7],[0,9],[-2,10],[-2,6],[-1,5],[4,5],[2,0]],[[1635,3807],[3,0],[2,-2]],[[1618,3801],[14,3],[3,3]],[[1644,3806],[4,-1]],[[1640,3805],[4,1]],[[1522,3791],[7,-3],[5,-5],[4,-7],[4,-5],[7,-3]],[[1499,3754],[1,4],[2,8],[4,6],[12,8],[2,6],[2,5]],[[2067,3754],[3,-9],[1,-10],[4,-6],[6,-1]],[[2045,3742],[5,2],[12,9],[5,1]],[[2126,3744],[7,-1],[4,-4],[0,-10],[-2,-10],[-4,-5],[-5,-3],[-6,-7],[-3,-7],[1,-7],[4,-4]],[[2081,3728],[9,1],[8,5],[6,4],[6,4],[16,2]],[[2152,3708],[6,-3],[4,-7],[-1,-8],[-6,-7],[10,-20],[5,-4],[7,-5]],[[2122,3686],[8,1],[5,6],[4,8],[5,6],[8,1]],[[2200,3701],[11,-1],[34,-13],[25,0],[13,-3],[10,-6],[3,-4],[1,-4],[0,-3],[1,-4],[6,-13],[1,-14],[1,-3],[2,-3],[6,-6],[2,-3],[8,-13],[12,-12],[7,-6],[6,-3],[11,-5]],[[2177,3654],[4,0],[1,5],[0,9],[2,8],[1,2],[7,19],[8,4]],[[2400,3610],[7,0],[5,-2],[4,-4],[4,-7],[3,-8],[4,-17],[2,-8],[6,-4],[14,-4],[4,-2],[-2,-7],[-5,-8],[-7,-7],[-4,-5],[-4,-10],[0,-5],[4,-4],[12,-4],[5,-4],[1,-6],[-4,-6],[-11,-13],[-2,-17],[1,-18],[-4,-19],[-10,-16],[-9,-12],[-5,-13],[5,-21],[3,-5],[1,-2],[5,-15],[3,-6],[7,-5]],[[2360,3582],[13,3],[16,20],[11,5]],[[2446,3337],[5,-2],[7,-11],[11,-7],[3,-6],[1,-6],[3,-5],[5,-3],[6,-1],[5,-3],[5,-7],[2,-8],[0,-7],[1,-7],[2,-2],[3,-6],[5,-5],[6,-2],[6,-1]],[[2433,3326],[4,3],[3,6],[6,2]],[[2549,3280],[7,-1],[7,-2],[6,-5],[5,-9],[3,-12],[1,-12],[-4,-9],[-9,-5],[-2,-11],[4,-27],[-2,-13],[-5,-6],[-8,-2],[-10,-1],[-1,-1],[0,-2],[0,-1],[1,-2],[11,-20],[3,-4]],[[2522,3248],[5,2],[7,6],[2,7],[2,8],[4,8],[7,1]],[[2574,3152],[5,-3],[4,-6],[3,-7],[0,-8],[-3,-7],[-4,-5],[-4,-5],[-3,-20],[-1,-6],[-1,-2],[0,-6],[3,-6],[2,-1]],[[2556,3135],[4,4],[3,6],[4,6],[7,1]],[[2584,3071],[4,-1],[6,-7],[3,-3],[6,-2],[11,-1],[6,-2],[6,-5],[8,-14],[7,-5],[12,-1]],[[2575,3070],[9,1]],[[2663,3031],[11,-2],[10,-8],[2,-4],[3,-9],[1,-3],[4,0]],[[2653,3030],[10,1]],[[2701,3009],[4,-3],[0,-3],[0,-11],[1,-5],[1,-4],[4,-7],[2,-4],[0,-9],[-3,-32],[-1,-7],[-2,-4],[-1,-5],[0,-7],[1,-5],[5,-11],[0,-5],[-4,-11],[-8,-1],[-6,-1],[1,-11],[5,-7],[16,-6],[1,-2],[2,-4],[1,-2]],[[2694,3005],[3,2],[4,2]],[[2440,2773],[-7,5],[0,6],[3,5],[3,4],[2,5],[1,6],[0,44],[-3,11],[-5,7],[-1,0],[-7,0]],[[2426,2866],[-32,-17],[-7,-3],[-13,-5],[-27,-18],[-8,-11],[-2,-14],[3,-19],[7,-25],[0,-8],[-2,-9],[-3,-8],[0,-7],[7,-8],[12,-11],[9,-9],[2,-11],[-4,-12],[-8,-14],[-13,-14],[-3,-8],[1,-13],[7,-22],[-1,-10],[-9,-5],[-64,-16],[-6,-4],[-4,-8],[0,-8],[5,-18],[1,-9],[0,-10],[-3,-7],[-4,-4],[-7,-4],[-11,-3],[-3,-2],[0,-3],[1,-5],[1,-5],[-2,-5],[-9,-6],[-25,-2],[-5,-10],[1,-4],[1,-5],[-2,-4],[-11,-4],[-6,-4],[-4,-4],[-8,-13],[-3,-6],[3,-3],[6,-4],[5,-4],[2,-8],[0,-7],[2,-7],[5,-7],[-10,-4],[-2,-2],[0,-1],[-2,-4],[0,-1],[1,-1],[2,-17],[-2,-6],[-7,-4]],[[2727,2846],[2,0],[3,-2],[2,-3],[5,-9],[-3,-5],[17,-13],[6,-7]],[[2720,2842],[2,1],[5,3]],[[2591,2775],[-6,1],[-6,3],[-5,7],[-5,11],[-5,5],[-5,2],[-12,2],[-5,2],[-2,4],[-1,4],[1,4],[2,4],[2,3],[0,4],[0,3],[-2,3],[-9,2]],[[2533,2839],[-7,-4],[-7,-8],[-16,-24],[-5,0]],[[2498,2803],[-6,10],[-9,18],[-5,1]],[[2478,2832],[-6,-10],[-1,-6],[1,-11],[0,-5],[-2,-6],[-2,-1]],[[2668,2764],[-7,8],[-1,3],[0,10],[0,5],[-2,4],[-8,12],[-19,18],[-4,8]],[[2627,2832],[-1,-15],[-4,-7],[-7,-3],[-10,0],[-2,-3],[1,-13],[-2,-8],[-5,-5],[-6,-3]],[[2768,2811],[6,-1],[5,-3],[-9,-16],[-10,-9],[-16,-3]],[[2759,2807],[3,3],[6,1]],[[2468,2793],[-3,1]],[[2465,2794],[-4,-2],[-13,-14],[-8,-5]],[[2744,2779],[-43,3]],[[2701,2782],[-6,-2],[-6,-3],[-14,-12],[-7,-1]],[[2178,2332],[-24,1],[-27,7],[-26,2]],[[2101,2342],[-19,-14],[0,-1],[-4,-6],[-2,-6],[-1,-4]],[[1837,475],[-4,4],[-9,13],[-6,5],[-26,16],[-9,8],[-8,10],[-16,25],[-9,10],[-12,7],[-13,4]],[[1725,577],[-8,-2],[-4,-3],[-8,-12],[-1,-2],[-1,-2],[-1,-1]],[[1681,558],[-6,5],[-6,4],[-7,2],[-6,0],[-1,0]],[[1655,569],[-8,-5],[-8,-16],[-7,-5],[-6,-2],[-3,-6],[-3,-6],[-4,-5],[-3,-1]],[[1702,555],[-9,3],[-8,0]],[[1685,558],[-4,0]],[[1613,523],[-7,1]],[[1606,524],[-4,-1],[-4,-4]],[[1972,515],[-5,1],[-9,5],[-9,3],[-4,0]],[[1945,524],[-7,-1]],[[1938,523],[-1,0],[-2,1]],[[1935,524],[-1,-1],[-1,0],[-2,-5],[0,-7],[0,-6],[5,-3],[-1,-3],[-4,-2],[-5,0]],[[1598,519],[-3,0],[-3,1]],[[1592,520],[-4,0],[-4,-3],[-5,-4],[-3,-3],[-3,-2]],[[1573,508],[-4,2],[-7,6],[-3,2]],[[1559,518],[-5,-2],[-8,-8],[-3,-3],[-7,-1]],[[2009,512],[-13,3],[-6,2]],[[1990,517],[-18,-2]],[[1536,504],[-35,6]],[[1501,510],[-6,-1],[-6,-4],[-11,-12],[-2,-2],[-2,-3],[-2,-3],[1,-2],[4,-3],[1,-2],[0,-3],[-2,-4],[0,-3],[0,-3],[-1,-4],[-1,-9],[-3,-9],[-5,-8],[-18,-5]],[[1926,497],[-5,1],[-19,11],[-13,1]],[[1889,510],[-29,-8],[-1,-5],[-1,-3],[-2,0]],[[1856,494],[-3,3]],[[1853,497],[-3,-5],[-3,-2],[-8,-3],[0,-1],[1,-1],[2,-1],[1,0],[-2,-2],[-2,-1],[-1,-1],[5,-2],[-6,-3]],[[1448,430],[-37,1]],[[1411,431],[-15,-13],[-5,-13],[-2,-11],[3,-10],[4,-6]],[[27,1589],[7,1],[4,8],[0,5],[-2,11],[-1,5],[1,6],[4,15],[-1,0],[0,2],[-1,2],[1,3],[1,1],[5,7],[6,9],[3,4],[16,7]],[[20,1590],[7,-1]],[[39,1262],[-4,1],[-3,3],[-6,7],[-2,3],[-12,5],[-5,5],[-4,10],[-3,12]],[[0,1568],[1,0],[4,5],[3,8],[4,6],[8,3]],[[63,1245],[-3,1],[-2,3],[-1,1],[-4,9],[-3,3],[-3,1]],[[47,1263],[-8,-1]],[[61,976],[11,3],[11,4],[4,6],[0,1],[2,5],[7,25],[2,7],[3,4],[4,3],[10,2],[5,2],[5,8],[15,15],[2,4],[2,9],[2,4],[3,3],[7,3],[2,2],[8,12],[7,17],[3,17],[0,6],[-1,6],[-6,3],[-18,4],[-6,4],[-5,6],[-10,13],[-9,9],[-2,4],[-1,4],[-1,9],[-2,4],[-4,7],[-26,28],[-3,2],[-2,1],[-6,3],[-4,0]],[[70,1245],[-7,0]],[[33,983],[28,-7]],[[14,974],[2,1],[0,1],[2,3],[5,3],[10,1]],[[7,975],[7,-1]],[[0,733],[3,2],[4,8],[5,19],[1,11],[-1,8],[-3,7],[-5,6],[-4,3]],[[0,973],[2,2],[5,0]],[[82,548],[-2,1],[-2,2],[-1,2],[-2,2],[-11,2],[-18,10],[-3,2],[-32,24],[-7,8],[-1,2],[-3,4]],[[109,537],[-3,2],[-1,4],[-1,3],[-2,2],[-3,1]],[[99,549],[-17,-1]],[[152,184],[9,7],[1,9],[-2,11],[-1,11],[1,3],[5,6],[1,2],[-1,3],[-2,6],[-1,2],[0,36],[-1,8],[2,9],[0,3],[0,3],[-4,6],[-1,3],[-1,7],[1,7],[1,7],[2,6],[1,2],[6,2],[2,1],[1,3],[3,7],[3,6],[5,8],[4,12],[-1,12],[-6,11],[-4,2],[-9,0],[-4,2],[-2,4],[-8,19],[-4,18],[-2,6],[-2,2],[-4,3],[-1,1],[-1,4],[0,8],[-1,4],[-4,11],[-2,12],[-1,13],[-1,5],[-3,6],[0,7],[-1,4],[-2,2],[-4,3],[-2,0]],[[117,539],[-6,-2],[-2,0]],[[70,1675],[78,-54],[13,-6],[17,-2],[7,-4],[8,-4],[4,-15],[-7,-16],[-12,-7],[-8,-2],[-15,-4],[-7,-1],[-8,-5],[-4,-12],[-8,-39],[0,-11],[4,-10],[10,-8],[11,-3]],[[1648,1649],[27,-17],[38,-8],[8,-4]],[[1105,1387],[8,0],[7,4],[6,2],[9,3],[7,5],[6,6],[7,5],[22,0],[3,1],[15,6],[8,15],[1,2],[12,12],[11,7],[17,22],[3,8],[3,6],[44,33],[3,8],[6,10],[14,15],[12,7],[30,8],[28,13],[8,1],[31,4],[72,11],[12,5],[7,1],[4,1],[7,4],[4,1],[17,0],[13,4],[34,21],[43,5],[9,6]],[[1730,1621],[0,-1],[6,-5],[-1,-11],[7,-9],[21,-10],[4,-4],[7,-13],[4,-3]],[[1721,1620],[9,1]],[[1869,1573],[8,-3],[8,-16],[2,-3],[14,-20]],[[1778,1565],[70,1],[21,7]],[[1970,1554],[9,-15],[17,-59],[12,-10],[75,-35],[78,-14]],[[1901,1531],[24,6],[25,15],[20,2]],[[300,1499],[59,-3],[39,-22],[10,-2],[6,-1]],[[153,1472],[48,4],[29,3],[11,5],[13,3],[13,7],[33,5]],[[444,1478],[9,-2],[20,-12],[128,-33],[3,-1]],[[414,1471],[30,7]],[[716,1456],[12,-2],[59,-23],[16,-6],[17,-2]],[[604,1430],[65,3],[8,1],[6,2],[20,15],[13,5]],[[897,1428],[43,-15],[47,-4],[15,-4],[12,-7],[1,-1],[13,-10],[13,-8],[16,-2]],[[820,1423],[77,5]],[[2161,1421],[52,3]],[[1088,1388],[17,-1]],[[1057,1377],[8,2],[15,7],[6,1],[2,1]],[[1351,397],[6,0],[3,-2],[9,-12],[5,-4],[8,-2]],[[1316,194],[2,1],[5,7],[5,13],[4,13],[2,3],[2,1],[2,1],[1,4],[-1,3],[-5,5],[-2,3],[-4,9],[1,3],[4,5],[2,7],[0,5],[0,6],[-2,7],[-2,2],[-6,2],[-2,1],[-1,4],[1,8],[0,4],[-4,13],[-2,4],[-3,4],[-4,2],[-5,1],[-5,3],[-3,4],[-2,3],[-1,6],[-1,7],[0,8],[2,6],[2,3],[3,1],[2,0],[3,1],[10,9],[10,3],[19,0],[8,8]],[[1382,377],[14,1]],[[637,301],[6,-7],[7,-5],[1,-4],[-1,-5],[1,-3],[3,-1]],[[608,274],[1,2],[2,8],[1,3],[6,5],[0,1],[6,4],[7,3],[6,1]],[[732,300],[7,-7],[5,-14],[1,-14],[1,-4],[2,-3],[2,-2],[2,-3],[1,-1],[3,-3],[2,-1],[0,-3],[-1,-6],[0,-1],[6,-6],[5,-1]],[[700,281],[6,2],[7,11],[8,2],[11,4]],[[574,287],[15,-2],[10,-3],[3,-2],[2,-3],[1,-3],[3,0]],[[559,243],[4,2],[2,4],[0,5],[-1,11],[-1,16],[11,6]],[[693,283],[7,-2]],[[672,278],[3,0],[12,4],[6,1]],[[662,279],[10,-1]],[[654,276],[2,1],[3,1],[3,1]],[[508,250],[3,-1],[17,-13]],[[477,234],[8,1],[7,2],[6,3],[10,10]],[[546,250],[8,-6],[5,-1]],[[528,236],[5,0],[6,7],[2,1],[2,1],[2,1],[1,4]],[[470,234],[7,0]],[[451,215],[6,2],[8,15],[5,2]],[[781,231],[-2,-5]],[[768,231],[13,0]],[[787,226],[7,-1],[7,-4],[7,-7],[12,-17],[8,-7],[7,0]],[[779,226],[8,0]],[[439,218],[12,-3]],[[405,202],[5,3],[1,1],[9,9],[7,3],[12,0]],[[864,218],[5,-1],[11,-7],[59,-27]],[[835,190],[3,7],[-1,9],[2,7],[14,1],[7,3],[4,1]],[[333,217],[36,-2],[24,-13],[12,0]],[[301,201],[7,1],[7,4],[11,8],[7,3]],[[287,216],[7,-5],[3,-6],[4,-4]],[[224,172],[15,2],[8,2],[4,3],[4,3],[2,5],[0,10],[1,3],[6,6],[8,5],[8,4],[7,1]],[[1313,194],[3,0]],[[1256,172],[4,1],[8,4],[10,7],[4,3],[31,7]],[[1206,186],[8,-3],[10,-13],[7,-3]],[[1158,164],[4,0],[2,2],[3,3],[4,3],[5,2],[12,1],[14,10],[4,1]],[[945,184],[2,0],[1,-1],[3,-5],[2,-2],[13,-7],[2,-1],[7,-6],[15,-23],[7,-4],[9,-2]],[[939,183],[6,1]],[[152,184],[72,-12]],[[1246,173],[5,0],[5,-1]],[[1231,167],[6,1],[9,5]],[[1111,173],[32,-2],[4,-2],[7,-4],[4,-1]],[[1094,155],[4,2],[3,4],[2,5],[3,5],[5,2]],[[1085,157],[3,-1],[3,-1],[3,0]],[[1006,133],[8,1],[61,21],[10,2]],[[1405,379],[7,-2],[10,-10],[14,-4],[6,-3],[6,-1],[-1,-8],[-4,-6],[21,-17],[17,-9],[3,-4]],[[1396,378],[9,1]],[[1491,326],[0,-4],[0,-3],[1,-4],[2,-3],[-2,-6],[1,-13],[-2,-5],[4,-8],[2,-9],[2,-19],[5,-25],[2,-11],[0,-10],[-2,-11],[-3,-9],[-5,-5],[-6,-1]],[[1484,315],[7,11]],[[1490,180],[-8,2],[-7,5],[-4,5]],[[1471,192],[-19,-21],[-3,-1],[-2,-2],[-1,-2],[-2,-2],[-10,-7],[-10,-10],[-6,-3],[-23,-3],[-4,-4],[6,-9],[-4,-11],[-2,-10],[1,-9],[5,-9],[-7,-11],[0,-5],[5,-1],[3,-3],[-6,-13],[1,-7],[5,-12],[3,-6],[10,-5],[0,-6],[-3,-6],[-3,-2],[-5,-1],[-3,-2],[-1,-3],[1,-5],[0,-1]],[[1525,3762],[8,-7],[4,-1]],[[1499,3754],[18,8],[8,0]],[[1541,3760],[4,-8],[7,-1]],[[1537,3754],[4,6]],[[1567,3753],[7,-3],[8,-9]],[[1552,3751],[15,2]],[[1586,3743],[15,-15],[2,-4],[2,-9]],[[1582,3741],[4,2]],[[1616,3726],[4,-4],[2,-6],[3,-5],[13,-5],[0,-4],[-5,-4],[-7,-1],[0,-3],[10,-5],[7,-3]],[[1605,3715],[3,2],[5,6],[3,3]],[[1648,3690],[3,-1],[3,-3],[2,-3],[0,-3],[-4,-4],[-1,-3],[3,-13],[6,-10],[9,-7],[9,-5],[0,-4],[-7,-4],[0,-2],[1,-2],[0,-1],[1,-2]],[[1643,3686],[5,4]],[[1683,3627],[4,-6],[4,-8]],[[1673,3623],[10,4]],[[1696,3616],[4,-4],[0,-5],[-2,-5],[-5,-3],[8,-6],[2,-2],[0,-1],[0,-2],[-6,-8],[4,-5],[8,-4],[7,-8],[-1,-2],[1,-16],[0,-3],[4,-3],[4,-1],[4,-2],[3,-4],[-13,-8],[5,-3],[5,-8],[4,-7],[1,-5],[2,-2],[6,-5],[2,-1],[0,-1],[1,-5],[0,-5],[2,-4],[0,-3],[-9,-2],[4,-11],[8,-14],[24,-30],[10,-10],[11,-4],[1,-1],[0,-3],[2,-7],[1,-3],[1,-2],[0,-4],[0,-3],[2,-1],[4,0],[1,0],[2,-14],[3,-8],[4,-3],[3,-1],[2,-1],[1,-1],[2,-1],[9,0]],[[1691,3613],[5,3]],[[1833,3351],[5,-2],[5,-3],[5,-4],[3,-5],[-3,-2],[-2,-4],[-2,-6],[-1,-6],[7,-5],[-3,-16],[5,-3],[1,-1],[4,-3],[9,-21],[4,-7],[3,-2],[10,-2],[4,-2],[3,-2],[2,-2],[10,-2],[3,-4],[8,-13],[-1,-6],[4,-7],[9,-11],[5,-14],[1,-5],[1,-3],[0,-2],[-4,-1],[4,-6],[16,-8],[0,-4],[-2,-3],[1,-2],[4,-1],[3,-2],[11,-12],[11,-7],[4,-4],[0,-7],[9,-2],[9,-5],[8,-4]],[[1832,3351],[1,0]],[[2013,3122],[3,-9],[12,-14],[5,-9],[7,-19],[1,-8],[0,-1],[-3,-8],[6,-4],[0,-6],[0,-6],[4,-5],[0,-4],[-1,-6],[0,-4],[6,-14],[14,-25],[0,-10],[21,-40],[3,-13],[1,-2],[1,-6],[-1,-7],[-2,-6],[-4,-6],[-1,-7],[3,-9],[-4,-2],[-1,-4],[-1,-19],[1,-4],[5,-10],[1,-1]],[[2006,3118],[7,4]],[[2091,2835],[1,-1],[0,-4],[1,-16],[-1,-4],[-2,-4],[-5,-3],[2,-7],[-1,-3],[-1,0],[-3,-1],[-2,-3],[-2,-15],[-2,-3],[-4,-1],[-1,-4],[1,-10],[1,-7],[-1,-1],[-5,-11],[-4,-4],[-4,-2],[-4,-1],[-3,-2],[-2,-4],[1,-9],[0,-2],[-5,-1],[-4,-2],[1,-5],[7,-11],[2,-3],[2,-3],[1,-5],[-4,-12],[-2,-12],[-6,-18],[-1,-3],[-3,-7],[-3,-2],[-1,-2],[0,-3],[3,-2],[0,-2],[-5,-18],[0,-6],[1,-7],[9,-26],[0,-5],[1,-4],[2,-3],[2,-4],[-1,-4],[-1,-4],[-1,-4],[1,-4],[3,-7],[1,-1],[-1,-3],[-5,-3],[-1,-3],[1,-15],[5,-16],[7,-12],[3,-5],[3,-52],[-1,-8],[3,-7],[-6,-2]],[[2089,2834],[2,1]],[[2058,2397],[-12,0]],[[2046,2397],[-4,-2],[-6,-4],[-6,-6],[-5,-6],[20,-10],[9,-7],[6,-11],[1,-3],[1,-1],[1,-1],[0,-18],[2,-5],[10,-12]],[[1395,3728],[6,2],[12,5],[6,2],[17,1],[6,1],[46,10],[11,5]],[[1385,3730],[3,-2],[7,0]],[[1262,3602],[23,7],[27,0],[8,0],[17,8],[4,5],[8,18],[4,5],[10,8],[4,5],[6,11],[6,16],[4,16],[-1,12],[3,17]],[[233,3671],[8,-1],[25,-9],[7,-4],[15,-17],[17,-14],[8,-9],[3,-1],[2,-1]],[[184,3612],[5,0],[16,12],[5,9],[8,24],[7,10],[8,4]],[[387,3623],[7,-2],[23,-2],[15,-5],[9,-1]],[[350,3605],[7,1],[2,1],[1,1],[2,2],[2,3],[1,4],[4,3],[4,1],[14,2]],[[160,3623],[6,-3],[6,-3],[6,-4],[6,-1]],[[137,3593],[8,2],[6,4],[3,7],[-3,11],[3,6],[6,0]],[[325,3617],[1,0],[24,-12]],[[318,3615],[3,1],[3,1],[1,0]],[[466,3614],[6,-3],[19,-17],[2,-8]],[[441,3613],[25,1]],[[1244,3604],[18,-2]],[[873,3471],[11,2],[5,1],[28,4],[22,10],[16,14],[35,56],[16,10],[178,19],[24,9],[19,2],[11,5],[6,1]],[[538,3601],[11,-1],[6,-4],[18,-5],[8,-3],[13,-12],[6,-1]],[[493,3586],[8,0],[37,15]],[[702,3596],[21,-5]],[[630,3567],[25,12],[18,0],[14,12],[8,5],[7,0]],[[744,3591],[7,-1],[3,-2],[14,-8],[9,-7],[6,-7],[2,-8],[0,-7],[2,-6],[6,-7],[13,-8],[29,-11],[5,-4],[5,-6],[12,-21],[9,-13],[7,-4]],[[723,3591],[21,0]],[[601,3575],[21,-8],[8,0]],[[600,3575],[1,0]],[[2075,2311],[5,-6]],[[2089,2306],[11,-6],[7,-9],[-2,-11],[11,-27],[7,-13],[8,-6],[6,-1],[13,-8],[32,-8],[31,-16],[48,-11]],[[2080,2305],[1,0],[8,1]],[[2484,2302],[4,-1],[4,-2],[3,-1],[28,-3],[51,-18],[17,-15],[4,-3],[8,-7],[6,-18],[2,-20],[-4,-15],[2,-3],[0,-4],[-1,-4],[-1,-4]],[[2462,2291],[7,0],[3,1],[4,2],[2,3],[2,3],[4,2]],[[2456,2292],[6,-1]],[[2341,2217],[8,3],[2,4],[1,10],[2,4],[3,2],[3,1],[8,0],[5,3],[19,15],[15,4],[6,3],[5,6],[3,1],[9,1],[2,1],[1,4],[3,4],[6,4],[8,5],[6,0]],[[2300,2241],[5,-2],[10,-6],[8,-2],[5,-3],[6,-7],[7,-4]],[[2261,2190],[14,2],[11,0],[5,2],[4,5],[-11,5],[-2,2],[-2,4],[-1,5],[1,4],[10,5],[0,8],[0,7],[10,2]],[[1773,3945],[-4,-3],[-5,-8],[-4,-3],[-4,-1]],[[1756,3930],[-4,2],[-3,3],[-3,3],[-15,3]],[[1731,3941],[-7,-2],[0,-6],[4,-3],[3,0],[3,-3],[-1,-7],[-2,-3],[-2,-3],[-4,0],[-4,-1]],[[1587,3899],[-6,3],[-5,8],[-2,10],[2,11],[-4,2],[-3,1]],[[1569,3934],[-4,0],[-4,-3],[-2,-5],[3,-7],[-1,-6],[-5,-9],[-5,0]],[[1551,3904],[-4,6],[-1,9],[-2,5],[-4,3]],[[1540,3927],[-5,0],[-2,-5],[2,-4],[7,-7],[1,-3],[-1,-9],[-5,-3]],[[1721,3913],[-5,1],[-8,5],[-4,1]],[[1704,3920],[-12,0],[-2,-1],[-4,-7],[-3,-3],[-3,0]],[[1647,3910],[-2,1],[-5,6],[-14,3],[-8,0]],[[1618,3920],[-7,-3],[-5,-6],[-4,-6],[-5,-4],[-10,-2]],[[1680,3909],[-16,1],[-7,3],[-5,0]],[[1652,3913],[-2,-1],[-2,-2],[-1,0]],[[1537,3896],[-6,1],[-5,2],[-13,9],[-8,2]],[[1505,3910],[-8,-6],[1,-5],[7,-4],[14,-3],[6,-4],[6,-6],[1,-5],[-7,-3],[-13,0]],[[1495,3853],[-8,1],[-6,2],[-5,4],[-5,7],[-7,15],[-2,4],[-10,8],[-6,4]],[[1446,3898],[-18,-5]],[[1428,3893],[-7,3]],[[1421,3896],[-8,-9]],[[1512,3874],[-3,0],[-2,2],[-2,4],[-2,2]],[[1503,3882],[-5,0],[-3,-8],[6,-17],[-6,-4]],[[1180,3945],[-4,3],[-3,12],[-2,3],[-16,1],[-9,3],[-4,3]],[[1248,3923],[-6,1],[-18,6],[0,2],[1,4],[-2,3],[-7,10],[-7,4],[-4,8],[-6,5]],[[1199,3966],[-10,-7],[-2,-4],[-1,-5],[-1,-4],[-5,-1]],[[1296,3934],[1,10],[-1,7],[-4,3]],[[1292,3954],[-6,-2],[-1,-3],[-2,-8],[-1,-3],[-4,0]],[[1278,3938],[-9,4]],[[1269,3942],[-4,-4],[-5,-10],[-6,-4],[-6,-1]],[[1296,3938],[0,-4]],[[1310,3899],[-7,4],[-5,5],[-5,7],[0,6],[3,17]],[[1340,3892],[-11,7],[-2,14],[0,15],[-4,6],[-10,1]],[[1313,3935],[-1,-2],[0,-7],[1,-6],[3,-6],[6,-8],[-5,-6],[-7,-1]],[[1404,3883],[-11,1],[-12,4],[-9,6],[-4,1],[-7,1]],[[1361,3896],[-21,-4]],[[1413,3887],[-9,-4]],[[3392,2838],[13,20]],[[186,4061],[-5,0],[-3,1],[-2,1],[-2,2],[-2,2],[0,2],[-1,2],[-1,2],[-2,3],[-13,10],[-9,10]],[[276,4018],[-17,2],[-4,1],[-3,2],[-2,2],[-2,3],[-8,12],[-8,20],[-3,4],[-3,3],[-3,2],[-3,1]],[[220,4070],[-10,-2],[-15,-5],[-3,-1],[-3,-1],[-3,0]],[[294,4007],[0,1],[-1,1],[0,1],[-1,1],[0,2],[0,6],[0,1],[-1,3],[-2,0]],[[289,4023],[-1,0],[-4,-3],[-3,-1],[-5,-1]],[[344,3995],[-7,1],[-10,2],[-5,1],[-2,1],[-1,2],[-1,1],[-1,2],[0,2],[0,3],[0,2],[-2,2],[-3,4],[-2,0]],[[310,4018],[-2,0],[-1,-1],[-6,-7],[-2,-2],[-3,-1],[-2,0]],[[376,3993],[-9,4],[-3,0]],[[364,3997],[-20,-2]],[[1142,3970],[-14,-10],[-4,-4],[-4,-4],[-1,-2],[-2,-5],[-1,-2],[0,-3],[1,-6],[4,-14],[9,-25],[1,-6],[-2,-46],[-3,-13],[-1,-4],[-2,-3],[-1,-2],[-2,0],[-2,0]],[[1118,3821],[-3,0],[-3,1],[-3,2],[-8,3],[-4,1],[-7,0]],[[1090,3828],[-17,-1],[-15,-5],[-13,-6],[-28,-20],[-35,-43],[-3,-3],[-4,-1],[-6,-3],[-5,-4],[-2,-2],[-2,-2],[-1,-2],[0,-2],[0,-2],[-1,-5],[1,-2],[0,-2],[1,-1],[1,-4],[1,-2],[-1,-2],[-1,-1],[-2,-1],[-2,0],[-3,-1],[-4,-3],[-19,-21],[-1,-1],[-2,-1],[-7,-2],[-3,-2],[-7,-4],[-2,-3],[-2,-2],[0,-2],[-1,-9],[-2,-4],[-17,-30],[-1,-4],[-1,-4],[0,-2],[0,-2],[1,-10],[1,-8],[0,-4],[3,-8],[1,-2],[1,-1],[6,-7],[1,-1],[0,-2],[1,-2],[0,-2],[0,-11],[0,-2],[1,-3],[3,-6],[1,-2],[0,-2],[1,-2],[0,-2],[0,-2],[-2,-4],[-17,-37],[0,-2],[-2,-11],[0,-3],[0,-6]],[[2716,3728],[-2,1],[-2,1],[-5,4],[-2,1]],[[2705,3735],[-2,0],[-1,-2],[-2,-3],[-9,-14],[-1,-2],[-2,-1]],[[2837,3690],[-76,4],[-13,6],[-7,10],[-6,13],[-6,11]],[[2729,3734],[-4,-1],[-1,-1],[-5,-3],[-3,-1]],[[2688,3713],[-2,0],[-2,1],[-1,1],[-5,5],[-1,1],[-1,2],[-7,5],[-2,1],[-2,0]],[[2665,3729],[-1,0],[-6,-2],[-9,-2]],[[4023,4085],[-2,1],[-1,1],[-2,3],[-4,3],[-9,3]],[[4066,4068],[0,2],[-1,1],[0,2],[-1,3],[-3,7],[-1,1],[-4,4],[-2,2],[-14,6],[-1,0]],[[4036,4096],[-1,-1],[-4,-6],[-2,-2],[-2,-1],[-4,-1]],[[4096,4094],[-1,0],[-1,-2],[-2,-1],[-3,-1],[-7,-1],[-4,0],[-2,-2],[-1,-1],[-1,-2],[-2,-9],[0,-2],[-1,-3],[-3,-2],[-2,0]],[[1347,4096],[0,-1],[-1,-2],[0,-2],[-1,-2],[-1,-2],[1,-1],[0,-2],[3,0]],[[1353,4085],[2,0],[0,-2],[0,-3],[-1,-7],[-2,-16],[1,-2],[0,-3],[6,-7],[1,-1],[1,-1],[8,-3],[1,-2],[0,-1],[0,-2],[-2,-1],[-4,0],[-2,-1],[0,-1],[-1,-4],[-1,-2],[-2,-2],[0,-2],[0,-2],[1,-2],[4,-5],[2,-2],[1,-3],[-1,-2],[-1,-4],[-1,-2],[0,-2],[0,-10],[0,-2],[0,-3],[-2,-5],[-1,-2],[0,-2],[1,-3],[1,-3],[5,-4],[3,-1],[3,-1],[2,0],[2,-1],[1,-1],[0,-2],[-1,-3],[0,-2],[1,-2],[3,-2],[2,0]],[[1348,4084],[4,1],[1,0]],[[1388,3952],[1,0],[1,-4],[0,-2],[-1,-1],[0,-2],[-3,-4],[-1,-2],[0,-2],[1,-2],[3,-3],[2,-2],[8,-3],[1,-2],[4,-3],[5,-3],[1,-1],[-1,-2],[-2,-1],[-2,0],[-1,-1],[-1,-2],[1,-4],[3,-7],[6,-12]],[[1383,3949],[2,0],[2,3],[1,0]],[[4065,4037],[2,0],[2,-1],[3,0],[1,-2],[1,-1],[0,-2],[1,-3],[1,-2],[1,-1],[2,-1],[2,0]],[[4046,4024],[2,1],[15,11],[2,1]],[[4081,4024],[2,0],[3,2],[7,8],[1,2],[1,0],[1,1]],[[4038,4030],[1,0],[2,-1],[0,-2],[1,-1],[2,-1],[2,-1]],[[4032,3908],[2,1],[10,10],[2,1],[1,1],[39,17],[3,2],[7,7]],[[4096,3980],[-19,1],[-2,1],[-2,0],[-8,6],[-2,0],[-20,4],[-2,1],[-2,1],[-1,1],[-1,5],[-1,1],[-1,2],[-1,1],[-4,2],[-1,1],[-1,1],[-1,2],[-1,3],[0,2],[0,3],[5,8],[3,3],[2,1],[2,0]],[[4028,3911],[1,-1],[1,-2],[2,0]],[[3963,3709],[4,1],[3,1],[1,1],[4,4],[14,13],[1,1],[4,8],[2,1],[2,1],[3,0],[3,0],[4,1],[2,2],[1,2],[4,25],[0,2],[-1,2],[0,1],[-2,1],[-4,1],[-2,1],[-1,2],[0,1],[0,4],[-2,27],[-2,11],[0,2],[0,2],[0,2],[-1,1],[-1,1],[-2,1],[-1,1],[-1,1],[0,4],[0,3],[1,2],[3,3],[0,1],[0,2],[-7,17],[-1,4],[0,2],[0,4],[0,1],[-1,0],[-4,1],[-1,0],[0,1],[-1,1],[0,2],[0,3],[0,4],[1,2],[1,2],[11,6],[31,12]],[[3951,3716],[2,-1],[1,-1],[1,-1],[1,-2],[1,-1],[2,-1],[2,0],[2,0]],[[3921,3673],[1,1],[1,2],[3,8],[3,7],[1,2],[15,15],[2,4],[1,3],[2,1],[1,0]],[[3913,3711],[1,-1],[1,-1],[0,-1],[3,-14],[0,-2],[0,-1],[-1,-1],[-1,-2],[0,-2],[-1,-2],[1,-1],[1,-6],[0,-2],[1,-1],[3,-1]],[[3891,3661],[9,3],[2,1],[2,2],[1,4],[1,2],[0,4],[0,4],[-1,4],[0,4],[1,4],[2,6],[2,9],[1,2],[2,1]],[[3877,3662],[14,-1]],[[3836,3603],[4,17],[4,14],[1,1],[3,2],[3,1],[4,2],[3,4],[3,6],[2,3],[4,3],[5,4],[3,2],[2,0]],[[3497,4089],[6,1],[3,1],[2,2],[1,1],[0,2]],[[3391,4096],[10,-6],[2,-2],[1,-2],[2,-3],[1,-2],[1,-3],[2,-9],[1,-2],[2,-2],[5,-1]],[[3332,4093],[3,2],[1,1]],[[3474,4096],[0,-2],[1,-1],[3,0]],[[3418,4064],[3,1],[2,2],[2,3],[5,4],[2,2],[2,4],[3,2],[5,3],[16,6],[2,1],[4,4]],[[3304,4096],[6,-2],[22,-1]],[[3228,3999],[9,2],[7,3],[12,4],[4,2],[3,3],[3,8],[1,5],[1,3],[1,3],[1,3],[3,4],[10,7],[2,2],[2,3],[1,6],[1,3],[-1,10],[0,10],[0,6],[0,4],[2,3],[2,3]],[[3488,4095],[2,-1],[1,-1],[1,-2],[2,-1],[3,-1]],[[3478,4093],[10,2]],[[2993,4016],[4,-1]],[[2907,3906],[27,3],[3,1],[3,2],[1,4],[0,4],[0,10],[-1,2],[-1,1],[-1,1],[-8,3],[-1,1],[-1,2],[1,2],[3,4],[14,12],[3,3],[1,2],[3,14],[0,1],[0,2],[0,1],[-1,2],[-1,3],[1,3],[3,4],[8,5],[11,10],[12,7],[4,1],[3,0]],[[3003,4015],[2,0],[2,-1],[2,-1],[2,0],[3,-1]],[[2997,4015],[6,0]],[[3019,4013],[3,-1],[1,0],[2,-3],[1,-1],[3,-1]],[[3014,4012],[5,1]],[[3050,4010],[4,-1]],[[3029,4007],[5,0],[13,3],[3,0]],[[3072,4010],[5,0],[5,-3],[9,0],[11,-3],[7,-4],[4,-3],[2,-1],[2,-1],[2,0]],[[3054,4009],[18,1]],[[3176,4009],[5,-1],[8,-2],[2,0]],[[3119,3995],[3,1],[15,0],[6,2],[17,10],[3,1],[13,0]],[[3197,4006],[5,0],[5,-3],[2,-1],[1,0],[0,-2],[3,-4],[1,-2],[2,0]],[[3191,4006],[6,0]],[[3224,3999],[4,0]],[[3216,3994],[1,0],[4,4],[3,1]],[[2890,3916],[7,-1],[2,-1],[1,-1],[2,-3],[1,-2],[1,-1],[1,-1],[2,0]],[[2819,3866],[2,1],[1,1],[2,3],[47,23],[1,2],[0,2],[1,2],[0,4],[1,3],[1,2],[2,4],[3,1],[2,1],[8,1]],[[2801,3875],[2,-1],[2,-1],[1,-1],[1,-2],[1,-1],[3,-2],[5,-1],[3,0]],[[2770,3854],[5,2],[9,9],[10,8],[4,1],[3,1]],[[2758,3855],[12,-1]],[[3947,3360],[-3,0],[-4,3],[-3,2],[-2,3],[-1,1],[-1,2],[-1,2],[-1,5],[-1,3],[-4,2],[-6,2],[-27,5],[-3,2],[-5,5],[-2,1],[-28,7]],[[4039,3368],[-2,1],[-1,1],[-1,2],[-1,5],[-2,3],[0,2],[1,2],[1,1],[2,5],[1,2],[0,1],[0,2],[-2,2],[-3,3],[-2,1],[-2,0]],[[4028,3401],[-22,-4],[-2,-1],[-1,-1],[-1,-1],[0,-1],[0,-2],[1,-4],[0,-2],[0,-1],[-1,-2],[-1,-2],[-1,-1],[-3,-1],[-39,-8],[-2,0],[-1,-1],[-1,-1],[-1,-2],[0,-2],[0,-1],[-1,-1],[-1,-1],[-2,-1],[-2,0]],[[4096,3358],[-35,-2]],[[4061,3356],[-4,0],[-1,2],[-2,5],[-1,2],[-1,1],[-2,2],[-2,1]],[[4048,3369],[-9,-1]],[[2758,3855],[-8,-11],[-5,-3],[-13,-2],[-2,-1],[-2,-2],[-5,-8],[-8,-10],[-4,-3],[-2,-1]],[[2709,3814],[-1,1],[-1,2],[-1,1],[-2,9],[-1,2],[-2,3],[0,1],[-1,2],[1,2],[0,2],[-1,2],[-1,2],[-6,1]],[[2693,3844],[-3,0],[-2,-1],[-6,-5],[-3,-3],[-4,-5],[-2,-4],[-8,-9],[-11,-10],[-2,-3],[-2,-2],[0,-1],[0,-1],[0,-2],[0,-2],[0,-1],[0,-5],[-1,-4],[0,-2],[-3,-8],[-2,-4],[-7,-9],[-1,-2],[-1,-1],[1,-2],[0,-1],[2,-1],[2,-1],[9,-2],[1,-1],[2,-1],[1,-1],[0,-1],[-1,-3],[0,-1],[0,-2],[1,-1],[0,-2],[0,-2],[-1,-2],[-2,-3],[-1,-2],[-1,-2],[1,-4]],[[1773,3945],[15,-5],[10,-9],[7,-13],[6,-16],[7,-33],[4,-5]],[[2649,3725],[-21,-11],[-3,-1],[-4,0]],[[2621,3713],[-2,1],[-4,0]],[[2615,3714],[-4,-2],[-2,-2],[0,-3],[1,-1],[1,-3],[8,-9],[1,-2],[1,-1],[0,-3],[-1,-3],[-6,-17],[-2,-1]],[[2456,3664],[-2,0],[-6,4],[-20,7],[-3,2],[-3,4],[-1,1],[-5,3],[-7,5],[-1,2],[-2,1],[-2,1],[-3,1]],[[2401,3695],[-3,0],[-3,0],[-10,-4],[-2,-1],[-1,-2],[0,-2],[0,-3],[3,-13],[0,-2],[0,-2],[-1,-2],[-1,-1],[-4,-3],[-6,-3],[-3,-2],[-4,-5],[-5,-6],[-7,-5],[-31,-13],[-7,-5]],[[2580,3665],[-28,2],[-4,1],[-15,8],[-1,2],[-2,1]],[[2530,3679],[-5,0],[-35,-14],[-34,-1]],[[2612,3667],[-1,0],[-4,1],[-2,1]],[[2605,3669],[-1,-1],[-4,-1],[-20,-2]],[[971,4067],[-5,3],[-9,13],[-2,5],[0,6],[1,2]],[[992,4054],[-1,10],[2,14],[3,13],[3,5]],[[985,4096],[-3,-2],[-3,-4],[-2,-4],[-1,-4],[-1,-6],[-2,-6],[-2,-3]],[[1142,3970],[0,3],[2,3],[2,4],[-3,6],[-3,4],[-1,1],[0,1],[0,5],[2,3],[2,1],[0,3],[-4,8],[-2,2],[-10,6],[-11,9],[-6,3],[-9,1],[-7,2],[-8,5],[-8,6],[-4,5],[3,3],[2,4],[3,7],[-3,1],[-6,2],[-2,1]],[[1071,4069],[-4,-2],[0,-3],[1,-3],[-1,-3],[-6,-1]],[[1002,4020],[-5,13],[4,9],[21,5],[8,7],[-20,9],[-9,0]],[[1001,4063],[-9,-9]],[[1061,4057],[-5,1],[-4,3],[-5,1]],[[1047,4062],[-7,-1],[-2,-3],[1,-4],[1,-7],[-1,-7],[-1,0]],[[1038,4040],[-3,1]],[[1035,4041],[-5,-1],[-19,-17],[-9,-3]],[[387,4096],[-3,-14],[-2,-3],[0,-2],[0,-3],[1,-3],[4,-4],[2,-3],[1,-2],[0,-2],[1,-5],[1,-5],[-16,-57]],[[376,3993],[15,-4],[14,-6],[23,-25],[6,-5],[3,-1],[3,0]],[[454,3954],[5,0],[4,-1],[2,-2],[1,-2],[1,-4],[0,-3],[-1,-4],[0,-2],[0,-3],[1,-2],[1,-2],[2,-3],[20,-15],[4,-2],[3,-1],[4,-1],[2,0],[2,-1],[3,-2],[1,-2],[2,-2],[1,-2],[3,-6],[1,-3],[0,-3],[-1,-4],[-1,-2],[0,-2],[-1,-4],[-1,-2],[0,-2],[1,-2],[1,-1],[2,-2],[4,-2],[3,0]],[[440,3952],[6,2],[4,0],[4,0]],[[591,3896],[2,-1],[2,-1],[1,-2],[0,-3],[0,-3],[-1,-5],[0,-3],[0,-3],[1,-2],[1,-4],[0,-4],[0,-2],[0,-2],[0,-2],[-1,-2],[-2,-13],[0,-4],[0,-6],[3,-16],[0,-2],[2,-2],[2,-4],[5,-4],[2,-2],[3,-1],[11,-2],[9,0]],[[523,3863],[2,0],[4,1],[3,2],[1,1],[6,6],[8,5],[16,3],[7,3],[18,11],[1,0],[2,1]],[[657,3821],[2,-1],[1,-1],[3,-2],[4,-3],[1,-3],[2,-2],[1,-7],[0,-4],[1,-2],[1,-2],[2,0],[9,0],[2,-1],[3,-2],[3,-4],[4,-3],[7,-6],[23,-20],[2,-2],[1,-2],[7,-12],[7,-12],[1,-2],[0,-2],[-1,-3],[-2,-4],[-2,-3],[-2,-4],[0,-2],[-1,-2],[0,-2],[0,-3],[1,-3],[2,-4],[1,-3],[2,-3],[25,-24],[12,-16],[1,-3],[-1,-2],[-19,-27],[-2,-6],[-3,-18],[-1,-6]],[[631,3801],[9,1],[3,2],[2,0],[3,2],[2,3],[2,3],[1,2],[2,5],[1,1],[1,1]],[[3836,3603],[4,-3],[-1,-3],[-2,-5],[-3,-10],[0,-3],[1,-2],[2,-1],[2,0]],[[3843,3576],[3,0],[2,-2],[4,-5],[1,-2],[0,-3],[-1,-1],[-1,-1],[-1,-2],[-1,-3],[-1,-12],[0,-2],[-1,-2],[-1,-2],[0,-2],[-1,-4],[0,-28],[0,-4],[1,-2],[2,-1],[1,-1],[2,-3],[2,-3],[2,-6],[0,-3],[-2,-2],[-16,-1],[-13,-4],[-3,-1],[-3,-2],[-1,-1],[0,-2],[0,-2],[3,-4],[5,-10],[3,-7],[1,-2],[1,-3],[0,-5],[0,-3],[0,-3],[-2,-3],[-5,-4],[-1,-1],[-1,-2],[-1,-4],[0,-3],[1,-1],[1,-1],[3,-1],[30,-5]],[[3839,3576],[2,0],[2,0]],[[3220,3678],[-34,5],[-4,1],[-1,1],[0,1],[-1,1],[-1,1],[-1,2],[0,2],[1,8],[-1,1],[0,1],[-2,1],[-8,3],[-3,1],[-1,2],[0,2],[-1,13],[-1,2],[0,2],[-3,1],[-3,0],[-6,1],[-6,2],[-26,2]],[[3118,3734],[-8,-1],[-13,-4],[-4,-3],[-3,-3],[-1,-4],[-1,-2],[-1,-2],[-1,-1],[-3,-1],[-11,-4],[-3,-2],[-2,-2],[-1,-1],[-2,-2],[-1,0],[-2,-1]],[[3061,3701],[-3,1],[-5,1],[-2,2],[-1,2],[0,2],[0,2],[-1,2],[-1,1],[-1,1],[-2,1],[-2,0]],[[3043,3716],[-3,0],[-3,-2],[-2,-2],[-1,-2],[-2,-6],[-2,-1],[-2,-1]],[[3002,3713],[-11,1]],[[2991,3714],[-4,0],[-17,-5],[-4,-3],[-3,-2],[-1,-1],[-2,-4],[0,-2],[-1,-1],[-3,-1],[-3,0]],[[3028,3702],[-4,2],[-1,1],[-1,2],[0,2],[-1,2],[-3,1],[-5,1]],[[3013,3713],[-11,0]],[[2953,3695],[-14,3],[-16,5],[-3,1],[-4,0],[-3,1]],[[2913,3705],[-56,0],[-2,-2],[-2,-9],[-2,-3],[-3,-1]],[[2848,3690],[-11,0]],[[3246,3676],[-3,0],[-2,2],[-2,1],[-1,2],[-1,2],[-1,1],[-1,1]],[[3235,3685],[-6,-3],[-6,-4],[-3,0]],[[3283,3649],[-2,0],[-2,0],[-2,2],[0,2],[0,2],[0,1],[2,3],[1,1],[0,3],[1,10],[0,4],[-1,2],[-1,1],[-1,1],[-1,1]],[[3277,3682],[-21,-2],[-4,-1],[-3,-2],[-2,-1],[-1,0]],[[3334,3673],[-4,1],[-2,1],[-5,5],[-2,1],[-2,1]],[[3319,3682],[-6,-3],[-2,-1],[-1,-1],[-1,-2],[0,-2],[0,-6],[0,-1],[-1,-1],[-2,-1],[-6,-1]],[[3351,3668],[-2,1],[-2,0],[-4,3],[-2,1],[-3,0]],[[3338,3673],[-4,0]],[[3381,3591],[-2,1],[-5,4],[-4,5],[-12,19],[-5,9],[0,1],[0,2],[1,1],[14,6],[4,3],[2,1],[1,2],[1,2],[0,2],[0,2],[0,2],[0,2],[-1,1],[-1,3],[-2,9],[-1,1],[-2,2],[-3,0]],[[3366,3671],[-15,-3]],[[3300,3663],[-1,0],[-2,1],[-1,2],[-2,1],[-2,0]],[[3292,3667],[-3,-2],[-1,-2],[-1,-2],[0,-7],[0,-2],[-1,-2],[-1,-1],[-2,0]],[[3836,3603],[-6,4],[-1,2],[-1,1],[1,7],[0,1],[-1,2],[0,1],[-1,1],[-7,7],[-2,3],[0,2],[-1,1],[0,4],[-1,2],[-1,1],[-1,1]],[[3814,3643],[-2,0],[-8,-5],[-2,0]],[[3802,3638],[-9,1],[-4,1]],[[3789,3640],[-5,-2],[-2,-1],[-1,-2],[-1,-2],[0,-2],[-1,-2],[1,-3],[1,-5],[0,-1],[0,-1],[-1,-2],[-1,-1],[-1,-1],[-12,-2],[-1,-1],[-1,-2],[-1,-4],[-1,-1],[-1,-2],[-2,0]],[[3759,3603],[-2,0],[-4,2],[-3,1],[-1,2],[-3,4],[-1,2],[-1,0],[-2,1]],[[3742,3615],[-7,-3],[-15,-3],[-5,-2],[-3,-2],[-1,-1],[-1,-2],[-1,-1],[-1,-2],[-1,-2],[0,-2],[0,-2],[0,-2],[1,-2],[0,-1],[2,-1],[1,-1],[7,-1],[1,-1],[1,-2],[0,-3],[-1,-2],[0,-2],[-1,-1],[-2,-1],[-10,-1],[-3,-1],[-2,-1],[-1,-1],[-1,-2],[0,-2],[1,-1],[0,-2],[3,-4],[0,-2],[1,-2],[-1,-4],[0,-2],[1,-2],[1,-1],[1,-1],[1,-2],[0,-1],[0,-2],[-2,0],[-7,-2],[-2,-1],[0,-1],[-1,-4],[0,-2],[0,-9],[-1,-1],[0,-2],[-2,0],[-63,-10]],[[3411,3515],[-2,0],[-2,1],[-2,3],[0,2],[0,3],[0,2],[0,2],[0,2],[0,2],[-1,1],[-3,4],[0,2],[-1,2],[1,2],[0,2],[1,1],[7,9],[0,2],[1,2],[0,2],[0,1],[0,2],[-1,2],[-1,1],[-8,9],[-1,2],[0,1],[-1,2],[0,1],[-1,2],[0,2],[-1,3],[-2,3],[-2,1],[-2,0]],[[3390,3593],[-9,-2]],[[3586,3515],[-2,0],[-7,7],[-9,5],[-4,2],[-7,1]],[[3557,3530],[-13,-2],[-3,-2],[-1,-1],[-2,-1],[-1,-1],[-8,-13],[-4,-9],[-5,-6],[-2,-2],[-1,-1],[-4,-1],[-4,-1]],[[3509,3490],[-3,1],[-4,1],[-7,4],[-3,2],[-2,2],[-1,3],[-3,6],[-1,2],[-1,1],[-2,1],[-8,4],[-4,4],[-3,1],[-13,2]],[[3454,3524],[-4,-1],[-3,-1],[0,-2],[-1,-2],[0,-2],[-2,-1],[-1,0],[-32,0]],[[3629,3507],[-4,1],[-24,8],[-1,1],[-2,1],[-3,0]],[[3595,3518],[-3,-1],[-5,-2],[-1,0]],[[3855,3405],[0,-4],[0,-6],[0,-4],[0,-2],[0,-2],[1,-1],[1,-2],[6,-4],[2,-2],[1,-2],[0,-1],[0,-2],[-1,-2],[-1,-3],[-1,-2],[0,-2],[1,-1],[0,-2],[2,-4],[1,-1],[1,-2],[0,-2],[0,-1],[1,-2],[-1,-2],[0,-5],[-1,-4],[0,-2],[0,-2],[0,-2],[1,-1],[1,-2],[1,-3],[0,-2],[0,-2],[0,-1],[-2,-2],[-3,-1],[-7,0]],[[3858,3318],[-2,0],[-2,1],[-1,1],[-1,2],[-2,6],[-4,8],[-1,1],[-1,1]],[[3844,3338],[-1,-1],[-1,-3],[-1,-5],[-1,-2],[-6,-7],[-1,-3],[-1,-2],[1,-1],[0,-2],[1,-1],[1,-2],[1,-1],[1,-1],[1,-1],[2,-1],[2,-1],[13,0],[2,0],[1,-1],[1,-1],[8,-17],[0,-2],[1,-3],[0,-3],[0,-2],[0,-2],[-1,-4],[-4,-10],[-1,-6],[-1,-4],[0,-2],[0,-2],[1,-2],[0,-1],[2,-5],[8,-13],[1,-2],[0,-2],[-3,-4],[0,-2],[-1,-2],[-1,-2],[-1,-1]],[[3867,3209],[-3,0],[-2,1],[-5,2],[-1,1]],[[3856,3213],[-3,-1],[-2,-1],[-10,-12],[-2,-2],[-3,-1],[-5,-1]],[[3831,3195],[-9,1],[-1,0],[-4,5],[-1,0]],[[3816,3201],[-2,0],[-2,-3],[-3,-9],[-9,-19],[-7,-9],[0,-1],[-1,-2],[0,-2],[0,-1],[1,-2],[0,-3],[1,-4],[0,-2],[2,-1],[2,0]],[[3803,3144],[2,0],[2,-1],[21,-12],[17,-15],[0,-2],[0,-2],[0,-1],[-1,-2],[-3,-5],[-7,-7],[-1,-1],[0,-1],[0,-2],[0,-2],[-1,-1],[0,-1]],[[3798,3143],[5,1]],[[3832,3089],[-10,6],[-2,2],[-2,3],[-2,3],[-2,1],[0,1]],[[3814,3105],[-1,-1],[-3,-1],[-3,-3],[-2,-3],[0,-2],[0,-6],[0,-4],[1,-1],[0,-2],[1,-1],[2,-1],[2,-1],[12,0],[2,0],[1,-1],[1,-1],[1,-2],[0,-1],[-1,-2],[-4,-2],[-15,-4],[-5,-3],[-8,-9],[-3,-1],[-36,-6],[-2,-1],[-1,-2],[0,-2],[0,-2],[1,-1],[1,-1],[2,-1],[3,0],[8,-1]],[[3675,3032],[-4,1],[-3,1],[-1,1],[-3,1],[-2,1],[-1,1],[-1,1],[-2,1]],[[3658,3040],[-2,0],[-1,-1],[-1,-2],[0,-8],[0,-2],[0,-3],[-1,-2],[-1,-1],[-1,-1],[-2,-1],[-3,-1],[-12,-1]],[[3788,3038],[2,-1],[4,-2],[2,0]],[[3768,3036],[20,2]],[[3799,3035],[2,0],[0,-2],[-3,-2],[-6,-3],[-29,-10],[-1,-1],[-2,-1],[-2,-1]],[[3796,3035],[3,0]],[[3721,3014],[-4,0],[-1,0],[-2,1],[-1,1],[-1,1],[-1,1],[-2,5],[-1,1],[-2,1],[-1,1],[-9,3],[-1,1],[-2,1],[-1,1],[-3,1]],[[3689,3033],[-14,-1]],[[3634,3017],[-4,1],[-3,1],[0,1],[-2,3],[-1,2],[-1,0],[-2,1]],[[3621,3026],[-8,-1],[-12,-3],[-3,-2],[-3,-3],[-1,-2],[-5,-13],[0,-2],[-2,-1],[-3,0]],[[3758,3015],[-18,1]],[[3740,3016],[-19,-2]],[[3584,2999],[-10,0],[-21,8],[-4,0]],[[3549,3007],[-5,-1],[-2,-1],[-2,-1],[-3,-3],[-1,-2],[-2,-3],[-3,-9],[-4,-7],[-1,-1],[-2,-3],[-3,-2],[-6,-3],[-11,-3],[-4,0]],[[3500,2968],[-5,2],[-6,3],[-2,1],[-2,0]],[[3485,2974],[-2,0],[-3,-1],[-7,-5],[-2,-3],[-6,-2]],[[3465,2963],[-18,1]],[[3447,2964],[-1,-3]],[[2837,3690],[1,-9],[0,-2],[1,-2],[5,-2],[2,-2],[0,-3],[-1,-2],[-1,-1],[-2,-1]],[[2842,3666],[-1,1],[-2,0],[-3,1]],[[2836,3668],[-1,-1],[-2,-1],[-2,-2],[-2,-1]],[[2829,3663],[-5,1]],[[2824,3664],[-13,-6],[-1,0],[-3,-3],[0,-1],[0,-2],[5,-2],[1,-2],[0,-3],[0,-7],[0,-2],[0,-2],[0,-1],[-3,-5],[-1,-2],[0,-2],[0,-4],[1,-2],[1,-1],[2,-2],[9,-2],[2,-1],[1,-1],[1,-2],[4,-5],[7,-8],[1,-2],[1,-2],[9,-56],[0,-1],[1,-3],[1,-2],[1,-2],[6,-5],[4,-3],[10,-3],[2,-2],[1,-2],[2,-8],[0,-2],[0,-1],[-1,-2],[-1,-1],[-4,-3],[-1,-2],[-1,-2],[1,-2],[1,-2],[5,-5],[4,-4],[1,-1],[1,-2],[1,-4],[-1,-2],[-1,-2],[-2,-5],[-1,-2],[0,-2],[0,-2],[1,-2],[2,-7],[1,-5],[1,-2],[2,-2],[3,-3],[9,-4],[1,-1],[4,-4],[1,-1],[2,-1]],[[2947,3433],[2,0],[2,-1],[4,-3],[3,-1],[2,-1],[13,0],[2,-1],[2,-2],[1,-9],[2,-4],[2,-2],[2,-1],[1,0]],[[2931,3423],[2,0],[3,2],[5,4],[4,4],[2,0]],[[3015,3431],[1,-1],[2,-4],[1,-9],[-1,-4],[-1,-3],[0,-2],[0,-1],[1,-1],[13,-1],[2,-1],[3,-3],[4,-7],[5,-6],[2,-3],[1,-11],[0,-5],[0,-2],[-1,-2],[-1,-1],[-3,-1],[0,-1],[-1,-3],[0,-3],[0,-6],[-1,-5],[-2,-8],[-5,-11],[2,-9],[17,-49],[6,-13],[5,-8],[20,-3],[15,-1],[1,0],[1,-1],[4,-7],[2,-1],[2,0]],[[2985,3408],[1,1],[2,1],[1,4],[2,8],[1,2],[1,2],[1,1],[21,4]],[[2922,3428],[2,-1],[2,-1],[1,-2],[2,-1],[2,0]],[[2904,3425],[17,3],[1,0]],[[3149,3245],[2,0],[1,-1],[0,-1],[1,-1],[3,-6],[1,-3],[0,-4],[-1,-4],[-1,-2],[-5,-5],[-1,-1],[-4,-2],[-3,-1],[-2,0],[-1,-1],[-1,-2],[-1,-4],[0,-4],[0,-2],[0,-2],[2,-2],[1,-2],[2,-1],[9,-2],[3,-2],[4,-3],[1,-1],[2,0]],[[3109,3234],[11,5],[29,6]],[[3176,3190],[2,-1],[1,-3],[2,-5],[1,-2],[2,-2],[3,-3],[1,-2],[1,-2],[1,-2],[2,-4],[1,-3],[1,-1],[2,-1],[6,0],[2,-1],[1,-1],[1,-2],[0,-4],[-3,-9],[0,-5],[0,-3],[-1,-3],[-2,-4],[-2,-1],[-2,-3],[-2,-3],[-2,-8],[-2,-7],[-2,-1],[-7,-4],[-2,-1],[-1,-1],[-2,-5],[-1,-1],[-2,-1],[-22,-1],[-4,-1],[-1,0]],[[3161,3186],[2,0],[1,1],[5,2],[3,1],[4,0]],[[3146,3089],[-2,0],[-3,2],[-1,1],[-2,0]],[[3138,3092],[-2,0],[-1,-1],[-2,-1],[-3,-7],[-1,-1],[-2,0],[-19,-2],[-1,0],[-1,-2],[1,-5],[3,-11],[3,-7],[2,-3],[16,-11],[2,-2],[3,-4],[4,-10],[1,-1],[1,-1],[5,-3],[7,-5],[1,-5],[2,-41],[2,-5],[0,-3],[1,-3],[-1,-4],[-1,-2],[0,-10],[5,-29]],[[1789,4015],[2,0],[2,2],[1,2],[-1,2],[-1,1],[-1,2],[-2,3],[-2,6],[-2,8],[-1,27],[0,4],[-2,7],[-3,9],[-3,6],[-1,2]],[[1785,4015],[4,0]],[[1773,3945],[9,28],[2,13],[1,12],[-1,2],[0,3],[-1,5],[0,5],[1,2],[1,0]],[[2663,4015],[-13,1],[-2,1],[-2,4],[-6,32],[-2,5],[-2,1],[-9,2],[-1,1],[-1,1],[-1,2],[-1,3],[-1,4],[0,2],[1,3],[1,1],[5,3],[1,2],[0,2],[-2,4],[-1,3],[-1,2],[-2,2]],[[2731,3883],[1,0],[1,1],[2,2],[2,2],[0,2],[1,1],[0,2],[1,2],[-1,3],[-2,7],[-5,10],[-7,8],[-3,5],[-4,7],[0,2],[-1,4],[0,15],[-1,2],[-1,2],[-2,1],[-16,6],[-12,8],[-2,3],[-3,2],[0,3],[-1,2],[1,5],[1,3],[1,1],[7,4],[1,1],[1,1],[0,2],[-2,2],[-1,1],[-2,1],[-2,1],[-3,2],[-3,4],[-2,2],[-3,0]],[[2672,4015],[-9,0]],[[2729,3883],[2,0]],[[2718,3856],[-1,0],[-2,1],[0,2],[0,4],[1,1],[1,2],[6,5],[1,2],[2,2],[1,3],[1,3],[1,2]],[[2758,3855],[-5,5],[-3,3],[-2,1],[-2,0],[-2,1]],[[2744,3865],[-2,-1],[-4,-1],[-17,-7],[-3,0]],[[4067,2701],[17,-11],[12,-1]],[[4052,2653],[11,12],[4,13],[-3,19],[3,4]],[[4031,1997],[3,-17],[14,-2],[21,-12],[5,-20],[-28,-17],[5,-30]],[[4081,1901],[15,-22]],[[4096,1879],[-13,-22],[6,-14]],[[4051,1899],[30,2]],[[4096,1765],[-7,-2]],[[4089,1843],[7,1]],[[2906,2669],[4,-3],[2,-2],[1,-1],[0,-4],[-1,-6],[-3,-4],[-2,-3],[-1,-3],[-2,-3],[-9,-8],[-3,-2],[-4,2],[-3,4],[-21,43],[-9,14],[-14,11],[-26,10],[-8,2],[-6,3],[-25,27],[-4,8],[-1,4],[-1,5],[1,4],[2,3],[0,3],[4,9],[29,11],[4,0],[4,-1],[2,-3],[2,-3],[-2,-10],[3,-11],[6,-9],[6,-6],[7,-1],[2,8],[1,13],[2,12],[4,-7],[3,-9],[1,-11],[0,-10],[3,-7],[22,-12],[3,-3],[2,-3],[1,-3],[1,-5],[0,-5],[-1,-3],[-1,-4],[0,-4],[3,-7],[22,-20]],[[4096,4089],[-8,3],[-7,-4],[-2,-4],[-3,6],[-6,6],[26,0],[0,-7]],[[4096,3115],[-16,-18],[-2,-4],[-2,-8],[-2,-9],[1,-6],[7,-4],[9,-2],[5,1],[0,-4],[-24,-5],[-6,-4],[-5,-6],[-5,-9],[17,0],[7,-3],[0,-6],[-4,-2],[-7,4],[-4,-2],[-2,-1],[-2,-1],[-4,0],[-1,-1],[-3,-6],[-33,-1],[6,2],[3,6],[2,7],[2,7],[7,7],[1,1],[2,7],[3,22],[3,6],[7,10],[2,6],[-2,5],[-5,-2],[-8,0],[-7,2],[-3,5],[3,4],[14,0],[6,5],[-3,4],[3,6],[5,10],[2,5],[3,-6],[-1,-6],[-1,-6],[-1,-7],[10,8],[23,29],[0,-40]],[[4096,3199],[0,1],[0,-1]],[[920,0],[5,5],[-1,8],[7,2],[30,1],[4,-3],[7,-5],[-4,-1],[-4,-2],[-3,-3],[0,-2],[-41,0]],[[1822,0],[7,5],[78,12],[14,-1],[14,-4],[6,-4],[5,-5],[5,-3],[-129,0]],[[1987,0],[0,2],[3,6],[8,15],[4,4],[5,4],[6,4],[6,1],[20,9],[4,0],[2,2],[18,7],[3,-2],[3,-2],[6,1],[14,3],[3,-1],[4,-5],[3,-1],[12,0],[13,-2],[25,-10],[12,-3],[9,-5],[19,-20],[11,-2],[4,5],[2,7],[1,7],[0,5],[-3,9],[-7,9],[-2,7],[8,-2],[8,-7],[4,-11],[-3,-11],[3,-1],[3,-2],[4,-5],[-3,-15],[-232,0]],[[4096,1762],[0,-1244],[-50,5],[-18,7],[-8,2],[-39,0],[-27,5],[-13,-1],[-58,-32],[-57,-21],[-17,-12],[-13,-6],[-26,-7],[-4,2],[-6,-4],[-10,-2],[-11,-1],[-5,0],[-6,-3],[-22,-8],[-6,-1],[-8,5],[-10,-3],[-9,-6],[-4,-8],[-5,3],[-6,-1],[-4,-3],[-5,-3],[-25,-14],[-5,-5],[-8,-9],[-7,-4],[-1,1],[-3,5],[-2,1],[-2,-1],[-1,-2],[-1,-4],[-3,-2],[-3,-1],[-1,-3],[-20,-2],[-12,-3],[-6,-12],[-2,-2],[-23,-29],[-6,-13],[-10,-7],[-35,-12],[-3,-2],[-14,-11],[-44,-23],[-77,-55],[-55,-23],[-4,-1],[-2,-2],[-6,-10],[-2,-2],[-16,-1],[-8,-3],[-4,-7],[1,-4],[7,-5],[2,-3],[-1,-6],[-4,-11],[0,-4],[-1,-11],[-1,-8],[-3,-7],[-5,-8],[-20,-21],[-13,-8],[-15,-6],[-2,-2],[-1,-2],[0,-2],[-3,-1],[-2,0],[-3,3],[-3,0],[-15,-3],[-4,0],[-7,3],[-5,0],[-3,-1],[-9,-6],[-94,-2],[-31,6],[-6,4],[-12,11],[-120,31],[-12,10],[-15,3],[-4,5],[-5,-3],[-4,-8],[-4,-4],[-3,3],[-2,-4],[-3,-6],[-3,-3],[-5,-2],[-9,-6],[-5,-3],[-10,-1],[-92,2],[-97,16],[-73,18],[-68,14],[-6,-1],[-3,-5],[-3,0],[-11,2],[-14,-11],[-14,-17],[-8,-14],[8,-6],[-1,-6],[-5,-8],[-5,-19],[-6,-11],[-7,-9],[-7,-4],[3,-7],[1,-7],[2,-5],[4,-2],[0,-2],[0,-1],[-1,0],[-1,-1],[2,-1],[-59,0],[10,2],[7,5],[4,1],[1,1],[3,5],[2,1],[2,0],[3,-3],[8,-1],[2,1],[2,3],[0,2],[-1,2],[-1,3],[0,2],[1,2],[3,5],[3,2],[6,3],[3,2],[4,7],[3,8],[3,9],[1,10],[1,0],[2,3],[0,3],[-2,1],[0,1],[-3,3],[-2,5],[-3,4],[-1,3],[5,2],[6,3],[6,9],[5,10],[3,13],[-5,5],[-9,4],[-9,2],[-2,-1],[-3,-5],[-3,-1],[-2,0],[-1,1],[-1,1],[-2,1],[-36,9],[-112,57],[-79,36],[-55,37],[-20,20],[-8,14],[-5,7],[-10,7],[-6,8],[-5,9],[-3,8],[0,3],[2,1],[2,-1],[1,2],[0,3],[-1,2],[-1,1],[-2,5],[-3,4],[-7,7],[-4,6],[-7,24],[-6,9],[-6,8],[-6,9],[-2,14],[1,13],[3,7],[5,3],[6,0],[7,-3],[4,-1],[3,2],[0,4],[-1,4],[-2,3],[-2,2],[0,5],[-5,25],[-1,5],[2,6],[-1,7],[-2,7],[-4,5],[1,0],[1,0],[0,1],[0,3],[-4,3],[-3,4],[-2,5],[2,5],[-5,2],[-3,5],[-3,5],[-19,13],[-7,14],[-3,4],[-10,6],[0,2],[1,4],[1,2],[-4,2],[-5,5],[-4,5],[-2,3],[-2,4],[-13,9],[1,2],[2,2],[-9,7],[-2,10],[4,10],[9,7],[-3,3],[-2,3],[0,3],[3,3],[0,3],[-6,0],[-5,-2],[-4,-1],[-5,3],[-5,5],[-2,7],[1,7],[3,5],[-3,1],[-2,2],[-2,5],[5,2],[2,1],[0,4],[-4,-1],[-3,1],[-2,2],[-1,5],[-8,-6],[-6,1],[-4,6],[-2,9],[1,1],[1,0],[1,3],[-5,2],[-4,-2],[-4,-2],[-5,-2],[-3,2],[-3,3],[-3,1],[-3,-6],[-6,6],[-4,-2],[-3,-6],[-4,-5],[-4,2],[-12,12],[-2,-10],[1,-2],[0,-1],[-1,-4],[-2,8],[1,2],[1,4],[-5,5],[0,8],[4,5],[6,-4],[4,13],[3,13],[5,10],[10,7],[34,-1],[6,-3],[-3,8],[-4,15],[-1,13],[7,6],[8,2],[16,7],[10,2],[-6,3],[-3,4],[0,5],[1,5],[3,7],[2,4],[4,0],[16,0],[20,-4],[18,1],[1,4],[1,10],[0,24],[-2,14],[-3,11],[0,9],[8,5],[-2,8],[2,35],[-2,11],[-5,23],[-1,12],[2,5],[2,4],[4,4],[2,4],[5,25],[7,23],[1,6],[-3,4],[-12,10],[0,3],[3,0],[3,1],[4,3],[25,7],[6,5],[5,8],[20,55],[2,4],[10,15],[14,8],[7,1],[24,-1],[7,2],[13,7],[9,2],[17,-4],[9,-4],[4,-5],[3,-3],[17,-9],[5,-7],[0,9],[2,6],[3,5],[17,17],[4,2],[5,6],[7,14],[6,16],[3,13],[0,8],[-3,5],[-3,7],[-4,9],[-1,6],[1,63],[1,7],[2,5],[-1,6],[1,5],[0,5],[2,5],[-2,5],[1,5],[3,4],[5,29],[2,5],[9,18],[1,7],[5,15],[2,9],[3,5],[1,4],[0,3],[-6,27],[-6,42],[-3,9],[2,5],[4,4],[4,1],[5,-3],[-2,4],[1,5],[-1,7],[-5,16],[-6,11],[-2,7],[1,19],[1,8],[2,6],[4,6],[4,4],[6,3],[5,-4],[1,6],[4,12],[33,45],[17,13],[24,47],[3,8],[2,10],[-3,-9],[-4,-7],[-5,-6],[-6,-2],[-7,-3],[-6,-7],[-11,-15],[-8,-5],[-3,-4],[-2,-12],[-2,-6],[-3,-4],[-3,1],[-2,10],[3,14],[4,13],[3,7],[-4,4],[-6,3],[-1,-2],[-2,-2],[-2,-3],[0,8],[6,5],[14,5],[-5,2],[-3,3],[-2,4],[3,5],[-5,0],[1,7],[4,3],[4,1],[6,0],[-1,-6],[-7,-12],[5,5],[18,9],[6,4],[12,12],[7,5],[2,4],[1,2],[2,2],[2,-1],[5,-3],[7,2],[1,1],[-3,4],[0,4],[9,-5],[-1,-9],[-6,-10],[-7,-8],[9,2],[6,8],[3,11],[-1,9],[-6,4],[-26,8],[6,-10],[-8,-10],[-8,-8],[-9,-6],[-19,-3],[-3,2],[-1,9],[1,7],[7,2],[2,7],[-6,-5],[-2,3],[1,7],[3,7],[4,3],[22,14],[4,2],[16,0],[4,1],[4,3],[-5,4],[-3,6],[1,4],[4,3],[0,4],[-1,1],[-4,3],[4,0],[2,2],[4,5],[-17,18],[-9,4],[-2,3],[-3,4],[-1,4],[1,2],[1,1],[2,1],[1,3],[-1,4],[-4,2],[0,3],[2,11],[4,6],[13,13],[4,1],[8,1],[4,2],[2,4],[1,5],[2,3],[3,0],[12,-3],[11,0],[5,-2],[16,-11],[3,-5],[-4,-7],[-17,-6],[-4,-10],[1,-31],[1,-10],[5,-7],[4,1],[6,4],[5,-1],[0,5],[0,5],[-2,8],[10,-12],[5,-7],[2,-6],[-2,-12],[-7,-9],[-8,-6],[-14,-3],[-14,-7],[-8,-2],[-9,-3],[3,-8],[5,-10],[-1,-7],[3,-4],[9,13],[11,11],[36,25],[14,4],[45,3],[71,12],[3,1],[4,2],[4,0],[7,-4],[3,3],[5,8],[4,2],[3,0],[3,2],[3,7],[-5,9],[9,15],[-2,11],[2,5],[1,7],[1,8],[1,8],[5,14],[2,9],[2,45],[5,15],[8,9],[-12,1],[-6,7],[-4,9],[-5,8],[0,3],[9,0],[4,0],[5,-2],[7,2],[6,3],[7,7],[0,1],[0,1],[0,4],[0,5],[4,13],[1,4],[3,7],[1,4],[1,5],[-1,22],[-1,11],[-3,10],[-5,6],[7,-1],[3,7],[-1,10],[-2,8],[-6,7],[-3,-4],[-1,-9],[-3,-8],[-1,9],[-3,2],[-3,-1],[-3,1],[1,-2],[-2,-2],[-3,0],[-1,2],[0,12],[-6,-1],[0,-6],[0,-6],[-1,-4],[-4,-1],[-4,3],[-3,4],[-6,12],[0,4],[6,2],[2,2],[2,5],[2,5],[4,2],[4,4],[12,19],[5,6],[-9,-10],[-6,-3],[-6,-2],[-7,1],[-6,2],[-9,4],[4,24],[-1,25],[2,20],[13,9],[-3,6],[-2,4],[-1,4],[1,8],[2,6],[6,9],[2,4],[-1,2],[-5,7],[-2,4],[1,4],[2,2],[2,1],[1,-5],[2,-2],[8,-6],[1,-1],[1,-1],[2,-3],[3,-6],[0,-3],[-3,-4],[-2,-8],[2,-25],[-1,-3],[8,-5],[7,-11],[4,-13],[0,-14],[4,4],[10,4],[6,3],[-2,4],[0,2],[1,1],[1,3],[7,-3],[7,3],[5,5],[7,2],[2,2],[-3,4],[-5,5],[-10,4],[-5,3],[-3,7],[3,10],[7,6],[10,2],[9,0],[1,1],[1,2],[1,3],[2,1],[3,-1],[0,-2],[0,-2],[1,-2],[7,-6],[3,-3],[2,-5],[3,14],[-4,4],[-3,5],[-1,7],[0,9],[3,7],[3,1],[2,-3],[-3,-5],[0,-4],[4,-5],[4,-6],[1,12],[1,13],[3,10],[8,4],[9,-4],[17,-13],[3,1],[1,3],[2,-1],[2,-2],[1,-1],[3,0],[1,2],[0,3],[1,3],[1,4],[1,13],[2,6],[3,5],[3,4],[3,-1],[2,-29],[-1,-7],[24,19],[21,20],[40,53],[45,42],[3,8],[7,20],[3,4],[6,3],[5,7],[8,15],[26,36],[10,20],[2,5],[0,6],[-3,4],[-8,6],[-2,3],[3,3],[20,-2],[6,6],[15,19],[1,2],[3,16],[1,3],[1,3],[1,1],[2,1],[-1,3],[-3,3],[-2,0],[-2,10],[-6,13],[-1,7],[2,4],[11,15],[4,4],[3,0],[16,-4],[4,1],[22,15],[5,2],[4,-2],[3,0],[8,7],[4,2],[8,1],[15,5],[19,2],[19,6],[10,0],[25,-6],[7,-5],[3,4],[4,-3],[11,-2],[5,-2],[5,4],[16,9],[7,1],[5,5],[12,19],[6,4],[0,2],[7,11],[3,6],[-1,4],[-12,9],[-3,2],[-2,3],[-1,7],[-1,4],[-4,13],[6,-3],[4,-6],[5,-13],[5,-4],[5,-3],[4,1],[1,2],[1,2],[7,10],[2,3],[3,2],[7,3],[2,2],[3,7],[2,7],[3,3],[5,-7],[-17,-24],[-4,-4],[0,-5],[-5,-11],[-21,-33],[-3,-9],[1,-7],[3,-2],[4,0],[8,0],[3,-1],[5,-4],[3,-2],[9,1],[3,7],[3,7],[6,3],[22,2],[36,-14],[15,-2],[16,3],[5,2],[8,6],[2,3],[4,7],[-1,3],[-2,4],[-1,9],[3,23],[-2,3],[-13,18],[0,14],[4,11],[8,8],[9,2],[8,6],[7,14],[3,15],[-2,11],[-7,-4],[-8,-3],[-7,2],[-3,9],[2,8],[5,8],[11,12],[-12,2],[-17,-2],[-11,5],[2,23],[3,4],[5,8],[3,9],[-4,4],[-2,1],[-2,2],[-3,3],[-9,2],[-1,3],[0,30],[-4,6],[-16,4],[-7,4],[-6,6],[-2,6],[1,3],[5,9],[2,2],[4,-1],[0,-4],[-2,-11],[4,-6],[21,-10],[5,-5],[2,-4],[0,-6],[1,-9],[3,-8],[3,-3],[5,-1],[5,-4],[5,-14],[-1,-12],[-10,-22],[6,-6],[6,0],[16,2],[10,-1],[2,-4],[-2,-5],[-11,-16],[-1,-7],[3,-4],[18,-3],[4,-5],[1,-8],[-2,-10],[-8,-18],[-10,-15],[-6,-16],[1,-22],[4,-9],[4,-7],[3,-8],[2,-9],[2,-9],[4,-10],[6,-9],[5,-6],[6,-3],[23,-4],[6,-4],[5,-19],[5,-5],[9,10],[3,1],[8,2],[4,1],[3,2],[6,7],[4,1],[2,-1],[6,-9],[24,-13],[27,3],[49,27],[8,-1],[10,5],[10,7],[9,4],[-4,-9],[-6,-5],[-5,-4],[-6,-5],[-6,-5],[-17,-1],[-7,-5],[-26,-21],[-9,-13],[6,-10],[-10,-10],[-14,-6],[-16,-2],[-15,4],[-19,12],[-40,9],[-8,0],[-21,-3],[-31,7],[-31,0],[-4,1],[-2,1],[-21,12],[-12,4],[-64,-5],[-5,3],[-10,10],[-11,9],[6,-12],[42,-43],[6,-1],[2,-4],[9,-21],[-1,16],[1,5],[1,4],[2,3],[6,5],[5,3],[8,0],[9,-2],[50,-21],[16,-3],[14,2],[6,-3],[16,-22],[3,-6],[-2,-2],[-5,0],[-4,-1],[-19,-17],[-4,-2],[-27,-5],[-20,4],[-8,-1],[-6,-3],[-7,-5],[-5,-7],[2,-8],[5,-5],[5,-4],[7,-2],[23,-1],[3,2],[-1,6],[-1,7],[0,6],[30,-23],[18,-9],[12,4],[10,-8],[14,-18],[5,-3],[5,-1],[16,-6],[9,-2],[10,2],[11,4],[-1,-5],[-2,-3],[-7,-6],[2,-3],[1,-7],[2,-4],[1,-2],[1,-7],[0,-2],[2,-1],[5,1],[8,-6],[73,-21],[15,2],[2,2],[6,7],[4,2],[4,2],[46,8],[13,6],[6,2],[8,-1],[20,-7],[3,0],[9,0],[2,0],[3,-2],[3,-1],[5,0],[39,7],[5,7],[-4,14],[22,-10],[8,-6],[3,-1],[4,0],[4,2],[3,1],[12,6],[7,13],[6,14],[9,9],[-4,-36],[-1,-6],[-3,-7],[29,4],[8,-3],[1,-5],[-4,-7],[-6,-6],[2,-1],[2,0],[1,-1],[2,-2],[7,10],[10,-2],[10,-8],[11,-15],[3,-3],[23,0],[7,-3],[4,0],[-8,11],[4,6],[9,3],[10,1],[0,4],[-10,6],[1,8],[6,7],[8,7],[9,3],[6,-5],[11,-21],[2,-8],[-3,-6],[-4,-5],[0,-6],[5,-18],[0,-3],[-2,-5],[-2,-5],[0,-4],[4,-2],[1,-3],[-3,-6],[-6,-9],[4,-3],[3,2],[2,3],[4,2],[9,0],[21,-5],[4,-2],[0,-12],[-9,-2],[-6,-4],[-6,3],[0,-10],[0,-12],[0,-6],[-8,-1],[-4,0],[-2,3],[-1,3],[-3,3],[-5,2],[-3,1],[-4,-1],[-4,-1],[-7,-5],[-9,-11],[-9,-3],[-4,0],[-4,1],[-7,5],[-3,1],[-5,-2],[-15,-10],[-6,-3],[-11,-12],[-2,-3],[-13,-6],[-26,-16],[-13,-2],[-13,8],[-6,8],[-3,2],[-4,-3],[0,-6],[3,-3],[3,-1],[2,-2],[-2,-7],[-5,-3],[-82,-38],[-25,-17],[-11,-11],[-3,-4],[-1,-3],[-1,-4],[1,-4],[1,-5],[-1,-4],[-5,-2],[-4,1],[-7,3],[-4,0],[-5,-1],[-3,-2],[-2,-4],[-4,-4],[-5,-4],[-6,-3],[-6,-2],[-9,-1],[-7,-2],[-43,-33],[-11,-11],[-5,-14],[2,-7],[10,-28],[8,-2],[12,-6],[8,-3],[26,0],[5,3],[13,14],[6,4],[8,2],[54,-5],[15,-6],[13,-9],[25,-21],[3,-2],[6,-2],[4,-3],[4,-7],[3,-5],[9,-5],[13,-16],[5,-5],[16,-5],[8,-4],[4,-7],[3,-5],[9,2],[13,8],[13,5],[15,2],[6,-3],[21,-18],[25,-16],[9,-12],[6,-21],[1,-14],[1,-4],[6,-13],[1,-3],[2,-9],[4,-20],[0,-12],[-2,-10],[-2,-9],[-4,-6],[-14,-5],[-5,-7],[-3,-9],[-3,-11],[-1,-2],[-1,-2],[-3,-3],[3,-6],[2,-8],[2,-14],[4,-11],[1,-5],[-2,-8],[-3,-6],[-4,-5],[-4,-7],[1,-7],[3,-3],[12,-3],[5,-2],[-7,-3],[-19,0],[-5,-2],[-3,-2],[-4,0],[-8,0],[-3,0],[-8,-7],[-3,-1],[-12,-3],[-1,2],[0,-6],[3,-6],[39,-28],[5,-5],[6,-6],[8,1],[8,2],[7,1],[4,-4],[11,-14],[2,-5],[2,-10],[5,-4],[27,-13],[8,-2],[3,0]],[[2697,2417],[80,75],[-19,-10],[-57,-53],[-6,-5],[-11,-11],[-6,-5],[-4,-2],[-6,0],[-5,-2],[-2,-5],[-3,-5],[-7,-6],[-18,-10],[28,12],[36,27]],[[3844,2602],[-5,6],[-16,-1],[-4,4],[-4,5],[-9,0],[-15,-7],[-11,8],[-11,1],[-25,-5],[-52,7],[-3,3],[-2,0],[-3,-3],[154,-25],[6,7]],[[3485,2683],[-48,11],[-117,29],[-15,8],[-8,11],[-6,15],[-6,22],[-7,2],[1,-9],[3,-13],[3,-9],[10,-15],[11,-11],[57,-21],[133,-28],[15,-7],[8,-2],[-4,3],[-30,14]],[[4096,2659],[-3,2],[-3,3],[-17,30],[-3,3],[-4,4],[0,3],[10,0],[7,-2],[5,3],[5,6],[3,3],[0,-55]],[[4096,1762],[-3,0],[-8,2],[-27,13],[-5,4],[-2,10],[-2,5],[-11,14],[-4,4],[-7,-1],[-8,-2],[-8,-1],[-6,6],[-5,5],[-39,28],[-3,6],[0,6],[1,-2],[12,3],[3,1],[8,7],[3,0],[8,0],[4,0],[3,2],[5,2],[19,0],[7,3],[-5,2],[-12,3],[-3,3],[-1,7],[4,7],[4,5],[3,6],[2,8],[-1,5],[-4,11],[-2,14],[-2,8],[-3,6],[3,3],[1,2],[1,2],[3,11],[3,9],[5,7],[14,5],[4,6],[2,9],[2,10],[0,12],[-4,20],[-2,9],[-1,3],[-6,13],[-1,4],[-1,14],[-6,21],[-9,12],[-25,16],[-21,18],[-6,3],[-15,-2],[-13,-5],[-13,-8],[-9,-2],[-3,5],[-4,7],[-8,4],[-16,5],[-5,5],[-13,16],[-9,5],[-3,5],[-4,7],[-4,3],[-6,2],[-3,2],[-25,21],[-13,9],[-15,6],[-54,5],[-8,-2],[-6,-4],[-13,-14],[-5,-3],[-26,0],[-8,3],[-12,6],[-8,2],[-10,28],[-2,7],[5,14],[11,11],[43,33],[7,2],[9,1],[6,2],[6,3],[5,4],[4,4],[2,4],[3,2],[5,1],[4,0],[7,-3],[4,-1],[5,2],[1,4],[-1,5],[-1,4],[1,4],[1,3],[3,4],[11,11],[25,17],[82,38],[5,3],[2,7],[-2,2],[-3,1],[-3,3],[0,6],[4,3],[3,-2],[6,-8],[13,-8],[13,2],[26,16],[13,6],[2,3],[11,12],[6,3],[15,10],[5,2],[3,-1],[7,-5],[4,-1],[4,0],[9,3],[9,11],[7,5],[4,1],[4,1],[3,-1],[5,-2],[3,-3],[1,-3],[2,-3],[4,0],[8,1],[0,6],[0,12],[0,10],[6,-3],[6,4],[9,2]],[[4096,2560],[-4,2],[-21,5],[-9,0],[-4,-2],[-2,-3],[-3,-2],[-4,3],[6,9],[3,6],[-1,3],[-4,2],[0,4],[2,5],[2,5],[0,3],[-5,18],[0,6],[4,5],[3,6],[-2,8],[-11,21],[-6,5],[-9,-3],[-8,-7],[-6,-7],[-1,-8],[10,-6],[0,-4],[-10,-1],[-9,-3],[-4,-6],[8,-11],[-4,0],[-7,3],[-23,0],[-3,3],[-11,15],[-10,8],[-10,2],[-7,-10],[-2,2],[-1,1],[-2,0],[-2,1],[6,6],[4,7],[-1,5],[-8,3],[-29,-4],[3,7],[1,6],[4,36],[-9,-9],[-6,-14],[-7,-13],[-12,-6],[-3,-1],[-4,-2],[-4,0],[-3,1],[-8,6],[-22,10],[4,-14],[-5,-7],[-39,-7],[-5,0],[-3,1],[-3,2],[-2,0],[-9,0],[-3,0],[-20,7],[-8,1],[-6,-2],[-13,-6],[-46,-8],[-4,-2],[-4,-2],[-6,-7],[-2,-2],[-15,-2],[-73,21],[-8,6],[-5,-1],[-2,1],[0,2],[-1,7],[-1,2],[-2,4],[-1,7],[-2,3],[7,6],[2,3],[1,5],[-11,-4],[-10,-2],[-9,2],[-16,6],[-5,1],[-5,3],[-14,18],[-10,8],[-12,-4],[-18,9],[-30,23],[0,-6],[1,-7],[1,-6],[-3,-2],[-23,1],[-7,2],[-5,4],[-5,5],[-2,8],[5,7],[7,5],[6,3],[8,1],[20,-4],[27,5],[4,2],[19,17],[4,1],[5,0],[2,2],[-3,6],[-16,22],[-6,3],[-14,-2],[-16,3],[-50,21],[-9,2],[-8,0],[-5,-3],[-6,-5],[-2,-3],[-1,-4],[-1,-5],[1,-16],[-9,21],[-2,4],[-6,1],[-42,43],[-6,12],[11,-9],[10,-10],[5,-3],[64,5],[12,-4],[21,-12],[2,-1],[4,-1],[31,0],[31,-7],[21,3],[8,0],[40,-9],[19,-12],[15,-4],[16,2],[14,6],[10,10],[-6,10],[9,13],[26,21],[7,5],[17,1],[6,5],[6,5],[5,4],[6,5],[4,9],[-9,-4],[-10,-7],[-10,-5],[-8,1],[-49,-27],[-27,-3],[-24,13],[-6,9],[-2,1],[-4,-1],[-6,-7],[-3,-2],[-4,-1],[-8,-2],[-3,-1],[-9,-10],[-5,5],[-5,19],[-6,4],[-23,4],[-6,3],[-5,6],[-6,9],[-4,10],[-2,9],[-2,9],[-3,8],[-4,7],[-4,9],[-1,22],[6,16],[10,15],[8,18],[2,10],[-1,8],[-4,5],[-18,3],[-3,4],[1,7],[11,16],[2,5],[-2,4],[-10,1],[-16,-2],[-6,0],[-6,6],[10,22],[1,12],[-5,14],[-5,4],[-5,1],[-3,3],[-3,8],[-1,9],[0,6],[-2,4],[-5,5],[-21,10],[-4,6],[2,11],[0,4],[-4,1],[-2,-2],[-5,-9],[-1,-3],[2,-6],[6,-6],[7,-4],[16,-4],[4,-6],[0,-30],[1,-3],[9,-2],[3,-3],[2,-2],[2,-1],[4,-4],[-3,-9],[-5,-8],[-3,-4],[-2,-23],[11,-5],[17,2],[12,-2],[-11,-12],[-5,-8],[-2,-8],[3,-9],[7,-2],[8,3],[7,4],[2,-11],[-3,-15],[-7,-14],[-8,-6],[-9,-2],[-8,-8],[-4,-11],[0,-14],[13,-18],[2,-3],[-3,-23],[1,-9],[2,-4],[1,-3],[-4,-7],[-2,-3],[-8,-6],[-5,-2],[-16,-3],[-15,2],[-36,14],[-22,-2],[-6,-3],[-3,-7],[-3,-7],[-9,-1],[-3,2],[-5,4],[-3,1],[-8,0],[-4,0],[-3,2],[-1,7],[3,9],[21,33],[5,11],[0,5],[4,4],[17,24],[-5,7],[-3,-3],[-2,-7],[-3,-7],[-2,-2],[-7,-3],[-3,-2],[-2,-3],[-7,-10],[-1,-2],[-1,-2],[-4,-1],[-5,3],[-5,4],[-5,13],[-4,6],[-6,3],[4,-13],[1,-4],[1,-7],[2,-3],[3,-2],[12,-9],[1,-4],[-3,-6],[-7,-11],[0,-2],[-6,-4],[-12,-19],[-5,-5],[-7,-1],[-16,-9],[-5,-4],[-5,2],[-11,2],[-4,3],[-3,-4],[-7,5],[-25,6],[-10,0],[-19,-6],[-19,-2],[-15,-5],[-8,-1],[-4,-2],[-8,-7],[-3,0],[-4,2],[-5,-2],[-22,-15],[-4,-1],[-16,4],[-3,0],[-4,-4],[-11,-15],[-2,-4],[1,-7],[6,-13],[2,-10],[2,0],[3,-3],[1,-3],[-2,-1],[-1,-1],[-1,-3],[-1,-3],[-3,-16],[-1,-2],[-15,-19],[-6,-6],[-20,2],[-3,-3],[2,-3],[8,-6],[3,-4],[0,-6],[-2,-5],[-10,-20],[-26,-36],[-8,-15],[-5,-7],[-6,-3],[-3,-4],[-7,-20],[-3,-8],[-45,-42],[-40,-53],[-21,-20],[-24,-19],[1,7],[-2,29],[-3,1],[-3,-4],[-3,-5],[-2,-6],[-1,-13],[-1,-4],[-1,-3],[0,-3],[-1,-2],[-3,0],[-1,1],[-2,2],[-2,1],[-1,-3],[-3,-1],[-17,13],[-9,4],[-8,-4],[-3,-10],[-1,-13],[-1,-12],[-4,6],[-4,5],[0,4],[3,5],[-2,3],[-3,-1],[-3,-7],[0,-9],[1,-7],[3,-5],[4,-4],[-3,-14],[-2,5],[-3,3],[-7,6],[-1,2],[0,2],[0,2],[-3,1],[-2,-1],[-1,-3],[-1,-2],[-1,-1],[-9,0],[-10,-2],[-7,-6],[-3,-10],[3,-7],[5,-3],[10,-4],[5,-5],[3,-4],[-2,-2],[-7,-2],[-5,-5],[-7,-3],[-7,3],[-1,-3],[-1,-1],[0,-2],[2,-4],[-6,-3],[-10,-4],[-4,-4],[0,14],[-4,13],[-7,11],[-8,5],[1,3],[-2,25],[2,8],[3,4],[0,3],[-3,6],[-2,3],[-1,1],[-1,1],[-8,6],[-2,2],[-1,5],[-2,-1],[-2,-2],[-1,-4],[2,-4],[5,-7],[1,-2],[-2,-4],[-6,-9],[-2,-6],[-1,-8],[1,-4],[2,-4],[3,-6],[-13,-9],[-2,-20],[1,-25],[-4,-24],[9,-4],[6,-2],[7,-1],[6,2],[6,3],[9,10],[-5,-6],[-12,-19],[-4,-4],[-4,-2],[-2,-5],[-2,-5],[-2,-2],[-6,-2],[0,-4],[6,-12],[3,-4],[4,-3],[4,1],[1,4],[0,6],[0,6],[6,1],[0,-12],[1,-2],[3,0],[2,2],[-1,2],[3,-1],[3,1],[3,-2],[1,-9],[3,8],[1,9],[3,4],[6,-7],[2,-8],[1,-10],[-3,-7],[-7,1],[5,-6],[3,-10],[1,-11],[1,-22],[-1,-5],[-1,-4],[-3,-7],[-1,-4],[-4,-13],[0,-5],[0,-4],[0,-1],[0,-1],[-7,-7],[-6,-3],[-7,-2],[-5,2],[-4,0],[-9,0],[0,-3],[5,-8],[4,-9],[6,-7],[12,-1],[-8,-9],[-5,-15],[-2,-45],[-2,-9],[-5,-14],[-1,-8],[-1,-8],[-1,-7],[-2,-5],[2,-11],[-9,-15],[5,-9],[-3,-7],[-3,-2],[-3,0],[-4,-2],[-5,-8],[-3,-3],[-7,4],[-4,0],[-4,-2],[-3,-1],[-71,-12],[-45,-3],[-14,-4],[-36,-25],[-11,-11],[-9,-13],[-3,4],[1,7],[-5,10],[-3,8],[9,3],[8,2],[14,7],[14,3],[8,6],[7,9],[2,12],[-2,6],[-5,7],[-10,12],[2,-8],[0,-5],[0,-5],[-5,1],[-6,-4],[-4,-1],[-5,7],[-1,10],[-1,31],[4,10],[17,6],[4,7],[-3,5],[-16,11],[-5,2],[-11,0],[-12,3],[-3,0],[-2,-3],[-1,-5],[-2,-4],[-4,-2],[-8,-1],[-4,-1],[-13,-13],[-4,-6],[-2,-11],[0,-3],[4,-2],[1,-4],[-1,-3],[-2,-1],[-1,-1],[-1,-2],[1,-4],[3,-4],[2,-3],[9,-4],[17,-18],[-4,-5],[-2,-2],[-4,0],[4,-3],[1,-1],[0,-4],[-4,-3],[-1,-4],[3,-6],[5,-4],[-4,-3],[-4,-1],[-16,0],[-4,-2],[-22,-14],[-4,-3],[-3,-7],[-1,-7],[2,-3],[6,5],[-2,-7],[-7,-2],[-1,-7],[1,-9],[3,-2],[19,3],[9,6],[8,8],[8,10],[-6,10],[26,-8],[6,-4],[1,-9],[-3,-11],[-6,-8],[-9,-2],[7,8],[6,10],[1,9],[-9,5],[0,-4],[3,-4],[-1,-1],[-7,-2],[-5,3],[-2,1],[-2,-2],[-1,-2],[-2,-4],[-7,-5],[-12,-12],[-6,-4],[-18,-9],[-5,-5],[7,12],[1,6],[-6,0],[-4,-1],[-4,-3],[-1,-7],[5,0],[-3,-5],[2,-4],[3,-3],[5,-2],[-14,-5],[-6,-5],[0,-8],[2,3],[2,2],[1,2],[6,-3],[4,-4],[-3,-7],[-4,-13],[-3,-14],[2,-10],[3,-1],[3,4],[2,6],[2,12],[3,4],[8,5],[11,15],[6,7],[7,3],[6,2],[5,6],[4,7],[3,9],[-2,-10],[-3,-8],[-24,-47],[-17,-13],[-33,-45],[-4,-12],[-1,-6],[-5,4],[-6,-3],[-4,-4],[-4,-6],[-2,-6],[-1,-8],[-1,-19],[2,-7],[6,-11],[5,-16],[1,-7],[-1,-5],[2,-4],[-5,3],[-4,-1],[-4,-4],[-2,-5],[3,-9],[6,-42],[6,-27],[0,-3],[-1,-4],[-3,-5],[-2,-9],[-5,-15],[-1,-7],[-9,-18],[-2,-5],[-5,-29],[-3,-4],[-1,-5],[2,-5],[-2,-5],[0,-5],[-1,-5],[1,-6],[-2,-5],[-1,-7],[-1,-63],[1,-6],[4,-9],[3,-7],[3,-5],[0,-8],[-3,-13],[-6,-16],[-7,-14],[-5,-6],[-4,-2],[-17,-17],[-3,-5],[-2,-6],[0,-9],[-5,7],[-17,9],[-3,3],[-4,5],[-9,4],[-17,4],[-9,-2],[-13,-7],[-7,-2],[-24,1],[-7,-1],[-14,-8],[-10,-15],[-2,-4],[-20,-55],[-5,-8],[-6,-5],[-25,-7],[-4,-3],[-3,-1],[-3,0],[0,-3],[12,-10],[3,-4],[-1,-6],[-7,-23],[-5,-25],[-2,-4],[-4,-4],[-2,-4],[-2,-5],[1,-12],[5,-23],[2,-11],[-2,-35],[2,-8],[-8,-5],[0,-9],[3,-11],[2,-14],[0,-24],[-1,-10],[-1,-4],[-18,-1],[-20,4],[-16,0],[-4,0],[-2,-4],[-3,-7],[-1,-5],[0,-5],[3,-4],[6,-3],[-10,-2],[-16,-7],[-8,-2],[-7,-6],[1,-13],[4,-15],[3,-8],[-6,3],[-34,1],[-10,-7],[-5,-10],[-3,-13],[-4,-13],[-6,4],[-4,-5],[0,-8],[5,-5],[-1,-4],[-1,-2],[2,-8],[1,4],[0,1],[-1,2],[2,10],[12,-12],[4,-2],[4,5],[3,6],[4,2],[6,-6],[3,6],[3,-1],[3,-3],[3,-2],[5,2],[4,2],[4,2],[5,-2],[-1,-3],[-1,0],[-1,-1],[2,-9],[4,-6],[6,-1],[8,6],[1,-5],[2,-2],[3,-1],[4,1],[0,-4],[-2,-1],[-5,-2],[2,-5],[2,-2],[3,-1],[-3,-5],[-1,-7],[2,-7],[5,-5],[5,-3],[4,1],[5,2],[6,0],[0,-3],[-3,-3],[0,-3],[2,-3],[3,-3],[-9,-7],[-4,-10],[2,-10],[9,-7],[-2,-2],[-1,-2],[13,-9],[2,-4],[2,-3],[4,-5],[5,-5],[4,-2],[-1,-2],[-1,-4],[0,-2],[10,-6],[3,-4],[7,-14],[19,-13],[3,-5],[3,-5],[5,-2],[-2,-5],[2,-5],[3,-4],[4,-3],[0,-3],[0,-1],[-1,0],[-1,0],[4,-5],[2,-7],[1,-7],[-2,-6],[1,-5],[5,-25],[0,-5],[2,-2],[2,-3],[1,-4],[0,-4],[-3,-2],[-4,1],[-7,3],[-6,0],[-5,-3],[-3,-7],[-1,-13],[2,-14],[6,-9],[6,-8],[6,-9],[7,-24],[4,-6],[7,-7],[3,-4],[2,-5],[1,-1],[1,-2],[0,-3],[-1,-2],[-2,1],[-2,-1],[0,-3],[3,-8],[5,-9],[6,-8],[10,-7],[5,-7],[8,-14],[20,-20],[55,-37],[79,-36],[112,-57],[36,-9],[2,-1],[1,-1],[1,-1],[2,0],[3,1],[3,5],[2,1],[9,-2],[9,-4],[5,-5],[-3,-13],[-5,-10],[-6,-9],[-6,-3],[-5,-2],[1,-3],[3,-4],[2,-5],[3,-3],[0,-1],[2,-1],[0,-3],[-2,-3],[-1,0],[-1,-10],[-3,-9],[-3,-8],[-4,-7],[-3,-2],[-6,-3],[-3,-2],[-3,-5],[-1,-2],[0,-2],[1,-3],[1,-2],[0,-2],[-2,-3],[-2,-1],[-8,1],[-3,3],[-2,0],[-2,-1],[-3,-5],[-1,-1],[-4,-1],[-7,-5],[-10,-2]],[[2277,0],[-3,0],[-1,0]],[[2219,0],[3,15],[-4,5],[-3,2],[-3,1],[3,11],[-4,11],[-8,7],[-8,2],[2,-7],[7,-9],[3,-9],[0,-5],[-1,-7],[-2,-7],[-4,-5],[-11,2],[-19,20],[-9,5],[-12,3],[-25,10],[-13,2],[-12,0],[-3,1],[-4,5],[-3,1],[-14,-3],[-6,-1],[-3,2],[-3,2],[-18,-7],[-2,-2],[-4,0],[-20,-9],[-6,-1],[-6,-4],[-5,-4],[-4,-4],[-8,-15],[-3,-6],[0,-2]],[[1951,0],[-5,3],[-5,5],[-6,4],[-14,4],[-14,1],[-78,-12],[-7,-5]],[[961,0],[0,2],[3,3],[4,2],[4,1],[-7,5],[-4,3],[-30,-1],[-7,-2],[1,-8],[-5,-5]],[[4096,518],[-50,5],[-18,7],[-8,2],[-39,0],[-27,5],[-13,-1],[-58,-32],[-57,-21],[-17,-12],[-13,-6],[-26,-7],[-4,2],[-6,-4],[-10,-2],[-11,-1],[-5,0],[-6,-3],[-22,-8],[-6,-1],[-8,5],[-10,-3],[-9,-6],[-4,-8],[-5,3],[-6,-1],[-4,-3],[-5,-3],[-25,-14],[-5,-5],[-8,-9],[-7,-4],[-1,1],[-3,5],[-2,1],[-2,-1],[-1,-2],[-1,-4],[-3,-2],[-3,-1],[-1,-3],[-20,-2],[-12,-3],[-6,-12],[-2,-2],[-23,-29],[-6,-13],[-10,-7],[-35,-12],[-3,-2],[-14,-11],[-44,-23],[-77,-55],[-55,-23],[-4,-1],[-2,-2],[-6,-10],[-2,-2],[-16,-1],[-8,-3],[-4,-7],[1,-4],[7,-5],[2,-3],[-1,-6],[-4,-11],[0,-4],[-1,-11],[-1,-8],[-3,-7],[-5,-8],[-20,-21],[-13,-8],[-15,-6],[-2,-2],[-1,-2],[0,-2],[-3,-1],[-2,0],[-3,3],[-3,0],[-15,-3],[-4,0],[-7,3],[-5,0],[-3,-1],[-9,-6],[-94,-2],[-31,6],[-6,4],[-12,11],[-120,31],[-12,10],[-15,3],[-4,5],[-5,-3],[-4,-8],[-4,-4],[-3,3],[-2,-4],[-3,-6],[-3,-3],[-5,-2],[-9,-6],[-5,-3],[-10,-1],[-92,2],[-97,16],[-73,18],[-68,14],[-6,-1],[-3,-5],[-3,0],[-11,2],[-14,-11],[-14,-17],[-8,-14],[8,-6],[-1,-6],[-5,-8],[-5,-19],[-6,-11],[-7,-9],[-7,-4],[3,-7],[1,-7],[2,-5],[4,-2],[0,-2],[0,-1],[-1,0],[-1,-1],[2,-1]],[[2906,2669],[4,-3],[2,-2],[1,-1],[0,-4],[-1,-6],[-3,-4],[-2,-3],[-1,-3],[-2,-3],[-9,-8],[-3,-2],[-4,2],[-3,4],[-21,43],[-9,14],[-14,11],[-26,10],[-8,2],[-6,3],[-25,27],[-4,8],[-1,4],[-1,5],[1,4],[2,3],[0,3],[4,9],[29,11],[4,0],[4,-1],[2,-3],[2,-3],[-2,-10],[3,-11],[6,-9],[6,-6],[7,-1],[2,8],[1,13],[2,12],[4,-7],[3,-9],[1,-11],[0,-10],[3,-7],[22,-12],[3,-3],[2,-3],[1,-3],[1,-5],[0,-5],[-1,-3],[-1,-4],[0,-4],[3,-7],[22,-20]],[[4096,4089],[-8,3],[-7,-4],[-2,-4],[-3,6],[-6,6]],[[4096,3115],[-16,-18],[-2,-4],[-2,-8],[-2,-9],[1,-6],[7,-4],[9,-2],[5,1]],[[4096,3061],[-24,-5],[-6,-4],[-5,-6],[-5,-9],[17,0],[7,-3],[0,-6],[-4,-2],[-7,4],[-4,-2],[-2,-1],[-2,-1],[-4,0],[-1,-1],[-3,-6],[-33,-1],[6,2],[3,6],[2,7],[2,7],[7,7],[1,1],[2,7],[3,22],[3,6],[7,10],[2,6],[-2,5],[-5,-2],[-8,0],[-7,2],[-3,5],[3,4],[14,0],[6,5],[-3,4],[3,6],[5,10],[2,5],[3,-6],[-1,-6],[-1,-6],[-1,-7],[10,8],[23,29]],[[4096,3199],[0,1]],[[4096,2659],[-3,2],[-3,3],[-17,30],[-3,3],[-4,4],[0,3],[10,0],[7,-2],[5,3],[5,6],[3,3]],[[2701,2429],[-6,-5],[-11,-11],[-6,-5],[-4,-2],[-6,0],[-5,-2],[-2,-5],[-3,-5],[-7,-6],[-18,-10],[28,12],[36,27],[80,75],[-19,-10],[-57,-53]],[[3819,2611],[-4,5],[-9,0],[-15,-7],[-11,8],[-11,1],[-25,-5],[-52,7],[-3,3],[-2,0],[-3,-3],[154,-25],[6,7],[-5,6],[-16,-1],[-4,4]],[[3437,2694],[-117,29],[-15,8],[-8,11],[-6,15],[-6,22],[-7,2],[1,-9],[3,-13],[3,-9],[10,-15],[11,-11],[57,-21],[133,-28],[15,-7],[8,-2],[-4,3],[-30,14],[-48,11]],[[489,993],[-5,-4],[-4,-5],[-3,-5],[-2,-7],[-2,-13],[-1,-3],[-2,-6],[-2,-5],[-2,-4],[-3,-4],[-5,-7],[-7,-6],[-39,-21],[-8,-3],[-15,-2],[-36,0],[-5,-1],[1,-6]],[[0,94],[1,-1],[1,-2],[2,-1],[16,-6],[6,-3],[5,-5],[4,-5],[3,-8],[1,-2],[0,-2],[0,-3],[0,-2]],[[703,0],[2,2]],[[809,38],[24,6],[1,0]],[[941,74],[48,-2]],[[727,0],[17,8],[31,19],[7,4],[7,3],[20,4]],[[834,44],[52,24],[14,4],[19,3],[22,-1]],[[989,72],[23,-1]],[[1085,31],[5,-8],[5,-7],[6,-5],[7,-3],[19,-4],[7,-3],[1,-1]],[[1012,71],[44,-7],[3,-1],[3,-1],[3,-2],[3,-3],[5,-6],[14,-20]],[[2436,0],[-1,0],[-1,2],[-2,1],[-2,0],[-10,3],[-3,2],[-6,7],[-3,10],[-2,11],[-3,10],[-4,8],[-5,7],[-3,3]],[[2185,44],[-1,-2],[-14,-7],[-15,4],[-24,16]],[[2369,72],[-13,0],[-4,-1],[-6,-2],[-5,-3],[-5,-4],[-14,-13],[-5,-4],[-5,-2],[-13,-4],[-23,-3],[-11,0],[-6,1],[-6,3],[-5,5],[-15,18],[-4,3]],[[2131,55],[-3,2],[-7,4],[-8,2],[-24,3],[-8,2],[-7,4],[-7,6],[-15,21],[-5,6],[-8,7],[-9,4],[-9,2],[-38,5],[-10,3],[-8,4],[-67,52],[-110,64],[-10,4],[-10,3],[-38,5],[-11,3],[-1,0],[-16,-2],[-4,0],[-7,2],[-8,3],[-14,7]],[[2229,66],[-2,1],[-6,3],[-6,2],[-5,-1],[-5,-3],[-5,-4],[-12,-17],[-3,-3]],[[2391,64],[-2,3],[-7,3],[-3,1],[-7,1],[-3,0]],[[1669,271],[-42,16],[-39,24],[-13,6],[-57,18],[-48,20]],[[1358,409],[-7,7],[-14,14],[-7,5],[-9,3],[-18,3],[-8,4],[-11,10],[-4,2],[-5,2],[-13,1],[-8,3],[-7,6],[-5,8],[-4,10]],[[511,722],[-8,15],[-11,16],[-33,36],[-11,11],[-13,10],[-14,8],[-56,27],[-19,12]],[[598,1070],[-1,-8],[-3,-8],[-5,-6],[-5,-6],[-5,-4],[-27,-18],[-33,-15],[-10,-4],[-12,-3],[-3,-1],[-3,-3],[-3,-3]],[[1930,1167],[1,0],[6,-3],[4,-5],[4,-5],[3,-6],[3,-7]],[[1629,1197],[9,1],[32,9],[9,2],[5,0],[4,0],[5,-1],[9,-4],[23,-12],[11,-4],[7,-1],[4,-1],[19,2],[3,0],[3,-1],[4,-1],[3,-1],[11,-6],[6,-3],[5,0],[21,1],[9,-2],[26,-9],[9,-1],[9,0],[43,5],[6,-1],[6,-2]],[[1251,1787],[7,-3],[9,-7]],[[864,2009],[44,-40]],[[908,1969],[1,-1],[26,-18],[4,-3],[12,-13],[8,-7],[9,-5],[92,-38],[12,-10],[10,-15],[8,-15],[10,-14],[13,-12],[14,-7],[15,-5],[96,-14],[10,-3],[3,-2]],[[1605,1785],[332,-15],[12,-4],[5,-2],[6,-3],[11,-8],[32,-15],[9,-7],[5,-4]],[[1361,1787],[14,5]],[[1375,1792],[5,2],[20,3],[51,-2],[88,-17],[31,0],[20,3],[9,3],[2,0],[6,-2]],[[565,2485],[21,6],[11,0],[10,-4],[6,-5],[5,-5],[5,-7],[4,-7],[3,-6],[3,-6],[2,-6],[1,-7]],[[1296,2061],[-9,3],[-10,1],[-9,-3],[-4,-3]],[[1264,2059],[-3,-3]],[[13,1512],[-10,-6],[-3,-2],[0,-1]],[[126,1554],[4,6],[5,5],[5,2],[6,-2],[16,-9],[5,-3],[4,0],[4,0],[7,2],[19,7],[70,39],[8,3],[23,5],[37,18],[17,5],[15,3],[17,5],[15,2],[4,1],[3,2],[2,2],[3,3],[13,23],[5,7],[7,4],[6,2],[16,3],[2,1],[1,0],[2,2],[2,2],[2,3],[1,3],[1,3]],[[7,1511],[57,13],[8,3],[28,16],[19,6],[3,2],[2,2],[3,3]],[[842,2019],[4,0],[4,-2],[5,-2],[9,-6]],[[745,2075],[8,-1],[8,-1],[8,-3],[7,-4],[7,-5],[7,-6],[6,-7],[14,-20],[3,-4],[3,-3],[4,-2],[4,-1],[4,0],[13,1],[1,0]],[[51,2548],[9,-1],[31,-6],[4,0],[4,0],[4,2],[17,8],[4,1],[4,0],[4,-1],[3,-1],[3,-3],[2,-2],[9,-15],[6,-7],[7,-5],[7,-4],[9,-3],[8,-2],[51,1],[7,2],[6,3],[6,4],[21,20],[6,4],[6,4],[22,9],[6,3],[33,24],[3,2],[3,1],[4,1],[3,-1],[3,-1],[3,-2],[11,-12],[3,-2],[4,-2],[1,-1],[2,0]],[[388,2570],[11,-14],[13,-5],[28,-4],[8,-3],[8,-6],[54,-48],[7,-5],[8,-3],[8,-2],[8,0],[24,5]],[[636,2438],[1,-5],[0,-5],[0,-5],[-1,-5],[0,-3],[-8,-19],[-2,-9],[-1,-9],[1,-9],[3,-11],[13,-29],[4,-12],[1,-11],[0,-12],[-6,-36],[0,-12],[0,-12],[2,-10],[3,-10],[17,-36],[4,-9],[6,-24],[1,-5],[2,-5],[3,-4],[3,-4],[3,-4],[26,-20],[21,-21],[4,-3],[4,-3],[8,-4]],[[1358,409],[3,-2],[8,-9],[3,-3],[3,-2],[4,-1],[4,0]],[[1383,392],[11,0],[4,-1],[44,-16]],[[1442,375],[4,-1],[13,-6],[6,-5],[5,-5]],[[1238,487],[-14,6],[-14,4],[-7,1],[-6,0],[-7,-1],[-17,-5],[-17,-2],[-4,0],[-7,2],[-8,2],[-8,5],[-37,29],[-8,5],[-87,32],[-17,9],[-30,19],[-16,5],[-16,3],[-85,5],[-4,1],[-4,1]],[[825,608],[-1,0],[-11,7],[-4,1],[-5,1],[-21,-4],[-10,0],[-90,10],[-10,-1],[-28,-6],[-10,-1],[-9,2],[-39,11],[-5,1],[-30,-2],[-16,2],[-15,8],[-11,15],[-4,9],[-3,9],[-2,10],[0,10],[1,10],[5,29]],[[1673,266],[4,11],[15,35],[16,46],[17,34],[8,13],[2,3],[3,3],[7,4]],[[1806,512],[12,7]],[[1745,415],[1,1],[1,1],[1,2],[1,3],[1,3],[0,3],[0,3],[0,12],[0,6],[1,6],[2,3],[16,26],[2,2],[0,3],[1,8],[1,4],[3,3],[3,1],[4,-1],[3,0],[4,-1],[4,1],[12,8]],[[1801,772],[0,4],[2,5],[3,8],[4,8],[5,6],[1,1]],[[1817,751],[-7,3],[-3,3],[-3,3],[-2,5],[-1,5],[0,2]],[[1816,804],[4,3],[7,4],[21,9],[3,2],[3,2],[3,4],[1,4],[2,5],[2,15],[1,5],[2,5],[3,3],[4,2],[3,0],[4,0],[3,1]],[[1947,1138],[2,2],[2,2]],[[1882,868],[4,2],[2,3],[1,4],[1,10],[1,5],[2,4],[3,4],[3,3],[12,5],[3,3],[10,10],[3,3],[10,4],[4,3],[4,5],[2,3],[1,5],[3,17],[1,18],[0,4],[-1,4],[-1,4],[-3,4],[-3,3],[-8,6],[-6,6],[-4,7],[-2,8],[1,4],[1,4],[2,6],[4,8],[14,21],[3,7],[2,9],[0,5],[-1,4],[-1,3],[-1,4],[-3,6],[-2,3],[0,4],[-1,4],[1,5],[0,5],[1,4],[2,3],[1,3],[0,1]],[[1948,1147],[8,4],[30,13],[4,2],[3,3],[4,3],[7,8],[4,6]],[[2008,1186],[7,12],[3,5],[2,5],[1,5],[3,22],[1,5],[2,4],[2,5],[3,3],[3,2],[3,2],[3,2],[17,5]],[[2222,1635],[-1,19],[0,2]],[[2058,1263],[5,2],[6,4],[1,1],[1,0],[1,0],[2,1],[1,0],[1,0],[1,-1],[1,-1],[1,0],[2,-2],[1,0],[1,-1],[4,0],[3,0],[6,1],[66,22],[4,2],[8,7],[11,11],[9,16],[5,17],[-4,18],[-4,8],[-1,3],[-1,5],[0,5],[1,5],[0,5],[4,12],[4,12],[3,12],[9,55],[1,15],[1,18],[0,6],[1,6],[2,6],[5,11],[3,12],[2,12],[0,14],[-3,53]],[[1265,1533],[0,-1],[-3,-5],[-4,-3],[-8,-5],[-2,-2],[-1,-2],[0,-6],[0,-5],[0,-2],[0,-2],[3,-9],[9,-24]],[[1307,1739],[-3,-8]],[[1259,1467],[4,-8]],[[1304,1731],[-30,-80],[-3,-13],[-3,-14],[0,-14],[1,-42],[-3,-31],[-1,-4]],[[1261,1462],[48,-45],[31,-38],[6,-6],[10,-9],[14,-9],[23,-11],[61,-21],[29,-13],[14,-9],[5,-4],[5,-5],[4,-5],[12,-19],[4,-4],[6,-7],[8,-5],[38,-23],[27,-24],[8,-5],[7,-2],[9,0]],[[1257,1470],[-4,-6],[-1,-2]],[[1252,1462],[-3,-5],[-2,-7],[-2,-9],[-1,-11],[-1,-5],[1,-5],[0,-5],[1,-3],[-1,-2],[-1,-5],[-2,-4],[-32,-57],[-4,-9],[-3,-9],[-3,-9],[-2,-13],[-1,-14],[-25,-12],[-34,-12]],[[1137,1266],[-14,-4],[-110,-10],[-18,1],[-19,4],[-37,12],[-10,1],[-104,-10],[-10,1],[-55,11],[-9,0],[-9,-2],[-9,-5],[-92,-58],[-18,-15],[-3,-4],[-4,-6],[-4,-8],[-3,-8],[-2,-9],[-4,-20],[-3,-20],[-2,-47]],[[2217,1647],[2,0],[3,3],[3,5],[2,5],[0,6],[-1,6],[-4,9]],[[2017,1727],[16,-14],[8,-7],[8,-4],[8,-2],[8,0],[17,2],[15,0],[7,-1],[7,-2],[6,-3],[6,-3],[5,-5],[5,-5],[12,-16],[7,-7],[7,-7],[8,-4],[8,-4],[8,-2],[8,-1],[9,0],[8,1],[7,3],[2,1]],[[2222,1681],[-1,2],[-5,10],[-13,18]],[[45,0],[-2,9],[-1,15],[-1,30]],[[1795,612],[-1,-14],[-2,-43],[0,-1],[1,-1],[9,-6],[4,-4],[3,-4],[3,-5],[2,-5],[2,-7],[0,-6]],[[1816,747],[0,-57],[-1,-5],[-1,-5],[-1,-4],[-6,-11],[-1,-4],[-5,-17],[-5,-26],[-1,-6]],[[1835,0],[3,3],[8,5],[8,3],[16,2],[48,1],[8,-2],[29,-12],[2,0]],[[1976,0],[3,1],[7,5],[6,5],[18,21],[4,4],[5,5],[6,3],[12,6],[32,7],[2,1],[3,2],[6,6],[2,2]],[[0,2572],[10,-1],[17,-3],[6,-2],[6,-2],[5,-3],[5,-4],[4,-4],[3,-6]],[[1250,3766],[-14,33]],[[1236,3799],[-1,3]],[[1270,3718],[-20,48]],[[1287,3767],[-8,-4],[-5,-10],[-3,-13],[-1,-12],[-2,-27],[0,-14],[2,-13],[0,-4],[1,-5],[2,-4],[1,-4],[2,-3],[11,-15],[4,-8],[3,-10],[1,-10],[0,-12],[-3,-55],[0,-10],[2,-10],[6,-17],[9,-14],[11,-12],[11,-9],[13,-8],[16,-6],[4,-2],[0,-3],[0,-3],[1,-4],[3,-18],[1,-6]],[[1990,3490],[0,4],[-1,7],[0,4],[-3,4],[-3,3],[-4,2],[-4,1],[-18,-2],[-1,0],[-3,1],[-2,1],[-4,3],[-57,53],[-18,14],[-7,7],[-12,17]],[[1853,3609],[-21,35],[-12,16],[-14,13],[-17,10],[-47,42],[-42,29],[-4,5],[-4,5],[-4,5],[-2,7],[-3,13],[-3,6],[-4,4]],[[1272,3785],[-3,4],[-5,4],[-5,3],[-11,4],[-8,4]],[[1240,3804],[-11,6],[-34,12]],[[1676,3799],[-5,2],[-7,0],[-6,-1],[-12,-5],[-53,-30],[-8,-3],[-8,-1],[-8,0],[-8,2],[-23,10],[-10,2],[-9,-1],[-9,-3],[-22,-11],[-5,-2],[-48,-8],[-18,-7],[-9,-1],[-36,2],[-8,2],[-13,5],[-21,2],[-9,2],[-32,12],[-3,1],[-3,3],[-11,14]],[[1196,3822],[-35,-1],[-8,1],[-4,1],[-3,2],[-4,3],[-3,2],[-18,21],[-3,3],[-4,2],[-8,4],[-20,5],[-30,3],[-10,-1],[-19,-4],[-10,-1],[-5,1],[-5,1],[-59,31]],[[948,3895],[-53,28]],[[895,3923],[-10,2],[-29,2],[-20,0],[-17,-3],[-18,-5],[-16,-8],[-16,-12]],[[663,3744],[-5,-5],[-3,-4],[-4,-4],[-2,-5],[-3,-5],[-5,-12]],[[641,3709],[-11,-27],[-4,-8],[-5,-6],[-3,-2],[-3,-1],[-3,0],[-51,10],[-30,10],[-28,18],[-3,1],[-4,1],[-2,0],[-1,-1],[-2,-1],[-2,-1],[-7,-6],[-2,-1],[-3,-2],[-4,-2]],[[769,3899],[-7,-6],[-3,-4],[-6,-9],[-2,-5],[-2,-5],[-1,-5],[0,-5],[1,-5],[2,-3],[6,-5],[3,-3],[2,-3],[1,-4],[1,-7],[-2,-5],[-4,-4],[-4,-3],[-13,-5],[-1,-1],[0,-1],[0,-2],[0,-1],[0,-2],[1,-1],[1,-2],[2,-2],[4,-3],[1,-1],[1,-2],[0,-2],[-1,-2],[-3,-3],[-2,-2],[-3,-1],[-4,-2],[-17,-3],[-39,-22],[-16,-12],[-2,-2]],[[473,3691],[-7,0],[-7,1],[-7,2],[-26,14],[-7,2],[-15,3],[-65,0],[-11,1],[-19,4],[-16,0]],[[293,3718],[-42,1],[-17,4],[-15,9],[-5,6],[-8,16],[-5,7],[-4,2],[-4,2],[-22,2],[-5,1],[-8,4],[-7,5],[-3,3],[-2,2],[-1,1],[-1,3],[-5,11],[-1,2],[-2,1],[-1,2],[-2,1],[-4,2],[-3,3],[-3,3],[-3,5],[-7,15],[-4,5],[-3,3],[-7,5],[-2,1],[-2,2],[-8,13],[-3,3],[-4,2],[-4,1],[-5,0],[-46,-5],[-7,0],[-6,3],[-6,6],[-3,7],[-2,8],[-1,2]],[[2017,2218],[-7,1],[-5,-1]],[[2288,2165],[-20,-2],[-48,3],[-10,2],[-7,4],[-21,20],[-9,5],[-28,7],[-4,1],[-21,14],[-4,2],[-19,6],[-5,2],[-4,2],[-14,14],[-3,2],[-3,0],[-4,-1],[-3,-3],[-3,-3],[-2,-5],[-3,-6],[-1,-2],[-1,-3],[-2,-2],[-3,-1],[-2,-2],[-4,-1],[-5,-1],[-4,-1],[-14,2]],[[2012,2221],[-9,4],[-4,3],[-4,5],[-2,5],[-1,5],[0,5],[1,5],[1,3]],[[2002,2274],[3,9],[1,11]],[[1994,2256],[3,7],[4,10],[1,1]],[[1183,4096],[-3,-14],[-3,-10],[-8,-21],[-3,-10],[-2,-11],[0,-12],[0,-12],[3,-23],[2,-11],[3,-11],[4,-11],[3,-8],[5,-7],[5,-7],[9,-9],[1,-3],[2,-3],[1,-4],[0,-4],[-1,-4],[0,-4],[-3,-8],[-7,-16],[-2,-8],[-2,-11],[2,-11],[3,-10],[5,-10]],[[2332,4096],[1,0],[43,-3],[8,-2],[8,-4],[39,-26],[8,-4],[10,-2],[19,3],[10,-1],[6,-3],[12,-8],[7,-4],[9,-3],[10,0],[40,4],[10,0],[34,-8],[96,-5],[27,-7],[18,-7],[33,-16],[8,-4],[10,-2],[28,-2]],[[1962,2293],[-18,6],[-9,4],[-9,6],[-7,6],[-6,8],[-22,32],[-6,7],[-7,5],[-7,4],[-10,3],[-12,9],[-9,14],[-7,15],[-16,42],[-16,37],[-6,15],[-2,6],[-2,6],[0,6]],[[1788,2517],[-29,4],[-3,0],[-3,-1],[-3,-1],[-3,-2],[-9,-8],[-9,-5],[-4,-1],[-4,0],[-4,-1]],[[0,633],[2,1],[3,2],[6,6],[3,2],[5,3],[15,4]],[[34,651],[14,7],[3,2],[21,17],[3,2],[4,1],[10,-1],[2,0],[2,1],[2,1],[2,3],[50,78],[4,4],[10,9],[3,3],[2,4],[1,4],[1,4],[4,27],[1,3],[1,4],[2,2],[2,2],[3,1],[5,0],[7,-1]],[[266,867],[1,1],[4,3],[2,-2]],[[193,828],[15,-2],[3,0],[4,1],[6,3],[11,6],[14,11],[20,20]],[[2203,1711],[-6,23],[-2,23],[2,23],[5,23],[3,11],[9,21],[21,36],[5,10],[4,10],[3,11],[2,12],[2,11],[4,57],[1,6],[1,6],[2,6],[6,17],[1,5],[1,6],[0,5],[-1,5],[-2,10],[-1,6],[0,7],[0,6],[1,6],[5,21],[1,7],[2,17],[1,8],[2,7],[3,5],[5,10],[2,5],[2,6],[0,5],[0,6],[-1,6]],[[2931,2851],[5,-2],[14,-5]],[[2518,3041],[8,-10],[3,-4],[3,-3],[5,-2],[4,-1],[5,-1],[4,0],[21,3],[45,0]],[[2298,3122],[6,-8],[10,-17],[5,-7],[4,-3],[27,-16],[1,0]],[[2351,3071],[22,-9],[63,-16],[10,-1],[22,2],[2,-1],[4,-1],[10,-7],[4,-1],[3,0],[3,1],[4,1],[5,4],[3,2],[3,1],[3,0],[4,-2],[2,-3]],[[2616,3023],[37,-1],[10,-2],[14,-5],[9,-5],[8,-5],[4,-3],[3,-4],[3,-4],[7,-16],[2,-4],[3,-3],[2,-3],[3,-1],[7,-3],[22,-5],[4,-2],[8,-4],[42,-31],[4,-3],[4,-1],[13,-3],[4,-1],[4,-3],[3,-3],[6,-7],[14,-19],[3,-4],[3,-2],[7,-5],[15,-7],[47,-13]],[[1296,2060],[4,-2],[5,-1],[13,3],[6,0]],[[1324,2060],[4,0],[34,-6],[10,1],[9,3],[37,21],[74,24],[17,10],[20,16],[5,2],[3,2],[4,1],[12,1],[6,1],[5,3],[4,5],[0,1],[0,1],[0,1]],[[1569,2145],[19,47],[10,19],[12,17],[6,6],[5,6],[20,14],[4,5],[4,6],[3,6],[2,9],[4,19],[2,9],[12,32],[3,11],[5,28],[2,10],[4,8],[4,7],[13,17],[2,2],[0,2],[1,4],[0,4],[0,8],[1,12],[7,45],[2,21],[0,32],[-1,10],[-2,10],[-6,22],[-1,6],[-1,6],[-1,31],[-1,9],[-1,9],[-2,5],[-2,5],[-27,53],[-37,57],[-16,19],[-5,7],[-6,21],[0,22],[4,45]],[[2324,3163],[-34,14],[-17,11],[-4,2],[-4,0],[-15,0],[-8,2],[-6,5],[-3,9],[-1,8],[0,2],[-1,5],[-3,7],[-3,8],[-7,13],[-7,9],[-6,8],[-11,10],[-7,5],[-11,7],[-3,2],[-3,2],[-7,10],[-2,3],[-3,2],[-3,2],[-6,3],[-7,2],[-40,1],[-14,3],[-12,7],[-3,3],[-3,3],[-2,3],[-4,5],[-1,2],[0,2],[-1,2],[0,1],[-1,4],[-1,3],[-2,2],[-3,2],[-2,2],[-4,1],[-14,3],[-4,1],[-3,2],[-3,3],[-2,2],[-1,2],[-1,3],[-4,11],[-3,8],[-4,6],[-6,5],[-8,3],[-16,3],[-7,2],[-6,3],[-3,2],[-2,2],[-2,3],[-14,23],[-6,9],[-3,5],[-3,5],[0,6],[0,7],[2,6],[3,5],[7,9],[2,5],[2,6],[0,6]],[[1788,2520],[-2,10],[0,11],[9,51],[2,11],[3,9],[3,8],[4,8],[5,7],[27,30],[68,95],[6,10],[5,11],[3,12],[5,24],[3,12],[17,48],[4,8],[5,6],[23,17],[3,3],[3,4],[14,21],[3,3],[4,2],[4,2],[4,-1],[14,-4],[5,-1],[4,2],[4,4],[3,5],[1,6],[5,24],[2,6],[2,5],[3,5],[4,4],[7,8]],[[2067,3006],[6,6],[6,7],[2,4],[2,4],[7,29],[8,23],[1,4],[0,4],[-1,5],[-1,2],[-2,4],[-1,2],[0,2],[1,2],[0,2],[5,6],[1,2],[1,3],[1,4],[-1,5],[-3,12],[0,5],[0,4],[1,4],[1,4],[2,3],[2,2],[2,2],[5,1],[5,-2],[15,-7],[6,-2],[5,0],[5,3],[3,3],[4,8],[2,3],[4,3],[3,1],[4,-1],[3,-2],[3,-3],[3,-4],[14,-22],[4,-4],[5,-4],[17,-7],[6,-4],[17,-14],[4,-2],[5,-1],[4,0],[3,3],[5,7],[2,2],[2,1],[2,1],[2,-4]],[[2300,3104],[6,6],[3,3],[3,4],[2,5],[1,5],[1,5],[0,11],[1,6],[3,4]],[[2267,3116],[7,-8],[2,-11],[5,-2],[6,0],[5,3],[8,6]],[[1609,2888],[4,8],[1,9],[-2,10],[-3,8],[-6,18],[-3,11],[-2,11],[-2,12],[0,13],[0,12],[1,13],[2,11],[2,10],[5,17],[2,6],[0,16],[-4,16],[-5,15],[-4,16]],[[1366,3432],[1,-5],[2,-6],[1,-5],[2,-31],[1,-5],[6,-18],[2,-10],[2,-15],[1,-5],[2,-4],[3,-4],[3,-3],[3,-2],[9,-2],[2,-1],[4,-3],[12,-9],[56,-59],[6,-8],[6,-8],[25,-57],[5,-9],[8,-10],[8,-9],[9,-7],[10,-6],[10,-4],[9,-4],[11,-2],[10,-1]],[[1024,1899],[1,9],[3,8],[13,19],[2,3],[2,4],[2,5],[1,4],[1,5],[1,5],[0,5],[1,30],[1,1],[2,1],[5,4],[3,6],[7,21],[3,6],[4,5],[6,3],[8,-1],[7,-3],[15,-8],[5,-2],[81,-3],[10,2],[5,1],[4,3],[25,19],[4,2],[9,1],[4,1],[3,4]],[[493,1723],[-29,4]],[[865,2013],[0,-11],[-1,-12],[-3,-11],[0,-1]],[[861,1978],[-3,-10],[-4,-10],[-4,-10],[-6,-9],[-6,-8],[-7,-8],[-36,-30],[-15,-17],[-125,-102],[-54,-36],[-7,-3],[-6,-2],[-7,0],[-24,6],[-3,0],[-4,-1],[-3,-2],[-16,-11],[-3,-2],[-3,-1],[-4,-1],[-3,-1],[-25,3]],[[0,4012],[1,2],[0,2],[1,2],[0,2],[-1,5],[-1,4],[0,2]],[[1360,1760],[1,7],[1,6],[0,6]],[[1344,1736],[7,5],[5,7],[3,9],[1,3]],[[1362,1779],[0,5],[-1,6],[-1,5],[-2,5],[-3,5],[-2,4],[-12,15],[-14,11],[-15,5],[-15,0],[-8,-3],[-7,-4],[-7,-7],[-5,-8]],[[1270,1818],[-2,-4],[-1,-5],[-3,-16],[-1,-6],[0,-6],[1,-6],[2,-6],[2,-6],[5,-10],[3,-4],[4,-4],[8,-7],[7,-4],[5,-2]],[[1310,1729],[1,0],[1,0]],[[1300,1732],[3,-1],[7,-2]],[[1312,1729],[8,0],[6,1],[6,1],[6,2],[6,3]],[[293,854],[-5,2],[-10,6],[-3,3],[-3,4]],[[336,845],[-2,-2],[-4,0],[-6,-1],[-6,2],[-25,10]],[[349,867],[-2,-8],[-1,-1]],[[346,858],[-4,-7],[-6,-6]],[[349,891],[1,-6],[0,-6],[-1,-11],[0,-1]],[[2011,2294],[-12,-5],[-7,-4],[-2,-1],[-1,0],[-1,0]],[[1988,2284],[-1,0],[-3,0],[-22,9]],[[467,1722],[3,3]],[[471,1697],[-1,8],[-3,9],[-1,8],[1,0]],[[1582,315],[-3,-11],[-2,-12],[-2,-12],[-1,-41],[-1,-4],[0,-5],[-2,-5],[-4,-13],[-3,-11],[-1,-2],[-1,-2],[-1,-1],[-1,-1],[-2,-2],[-1,-1],[-2,-1],[-2,-1],[-10,-3],[-3,-2],[-4,-2],[-3,-3],[-2,-3],[-3,-4],[-2,-4],[-1,-4],[-2,-4],[0,-5],[-2,-11],[0,-2],[1,-22],[-1,-12],[0,-3],[-3,-11],[0,-2],[0,-15],[-1,-2],[-1,-5],[-6,-15],[-2,-9],[-1,-9],[1,-38]],[[3961,4094],[-1,2]],[[2817,4096],[5,-13],[6,-25],[2,-15],[-2,-9],[-4,-13],[-12,-12]],[[2812,4009],[3,-7]],[[3860,3975],[9,17],[7,8],[12,7],[2,4],[5,21],[9,21],[10,11],[6,4],[29,15],[9,4],[3,7]],[[3861,3966],[-7,-4],[-11,6],[-30,0],[-10,7],[-12,0],[-14,8],[-7,2],[-14,2],[-9,0],[-9,3],[-13,2],[-20,2],[-7,-2],[-17,-2]],[[3573,3907],[11,6],[21,17],[15,11],[7,10],[12,9],[27,17],[15,13]],[[3529,3880],[7,1],[18,11]],[[3513,3881],[8,-2],[8,1]],[[2815,4002],[7,-12],[5,-13],[0,-9],[-5,-23],[-3,-41],[-3,-14],[5,-32],[4,-39]],[[4096,3828],[-3,4],[-17,7],[-12,8],[-9,4],[-12,13],[-18,11],[-7,6],[-5,9],[-18,25],[-6,9],[-9,6],[-31,15],[-21,11],[-15,2],[-12,4],[-11,4],[-9,2],[-20,-2]],[[3327,3764],[4,11],[18,21],[18,17],[8,6],[24,9],[21,8],[26,13],[18,9],[28,15],[17,8],[4,0]],[[3123,3630],[7,13],[9,10],[32,28],[16,7],[14,4],[21,2],[12,2],[21,13],[12,8],[22,5],[11,8],[6,9],[21,25]],[[3055,3581],[6,4],[35,20],[13,10],[11,4],[1,7]],[[2831,3490],[24,6],[32,11],[18,6],[31,11],[8,0],[18,6],[13,7],[26,17],[11,2],[13,6],[30,19]],[[2825,3819],[3,-25],[6,-24],[3,-23],[11,-64],[-3,-36],[3,-11],[6,-12],[-3,-22],[0,-8],[3,-9],[-2,-8],[-7,-13],[-9,-15],[-9,-10],[-2,-11],[2,-19],[6,-13],[-2,-6]],[[2831,3490],[6,-30],[3,-6],[5,-32]],[[2845,3422],[0,-24],[3,-15],[-3,-40],[-3,-9],[-2,-17],[2,-8],[4,-34],[0,-17],[-4,-32],[1,-28],[5,-23],[0,-17],[-5,-30],[0,-8]],[[3461,3086],[-15,4],[-6,4],[-3,0]],[[3437,3094],[-7,0],[-7,-2],[-20,0]],[[3331,3075],[18,6],[20,2],[24,9],[10,0]],[[3474,3081],[14,-2],[7,2]],[[3495,3081],[5,0],[7,-4],[6,-4]],[[4000,3001],[12,2],[13,-2]],[[4025,3001],[24,-9]],[[4049,2992],[23,-9],[18,-2],[6,0]],[[3714,2971],[2,1]],[[3716,2972],[16,9],[9,-2],[9,-6],[17,0],[13,6],[15,2],[17,7],[19,2],[18,4],[15,9],[14,10],[12,11],[9,6],[14,-10],[9,-7],[10,-4],[15,0]],[[3968,2971],[14,8],[12,19],[6,3]],[[3947,3009],[8,-17],[7,-19],[6,-2]],[[3666,2958],[17,11],[22,4],[9,-2]],[[3654,2949],[5,0],[7,9]],[[3513,3073],[3,-7],[3,-8],[5,-11],[9,-6],[4,-4],[8,-19],[19,-24],[12,-8],[12,-5],[8,-6],[10,-17],[12,-9],[8,-2],[21,0],[7,2]],[[3004,2879],[11,2],[19,3],[11,4],[14,5]],[[3059,2893],[2,1],[15,2],[9,0],[14,7],[37,12],[11,7],[15,2],[9,11],[6,12],[9,11],[10,8],[15,20],[17,12],[12,13],[12,17],[10,26],[5,8],[10,11],[11,4],[9,-2],[12,-2],[9,0],[13,2]],[[2949,2889],[1,-1],[7,-9],[15,-21],[11,-21]],[[2843,3120],[2,-9],[6,-25],[7,-24],[12,-30],[5,-17],[7,-14],[6,-26],[5,-13],[10,-15],[9,-17],[6,-8],[12,-9],[6,-6],[6,-13],[7,-5]],[[2942,2839],[27,-2],[14,0]],[[2983,2837],[3,-7],[8,-12],[8,-12]],[[3002,2806],[1,-1]],[[4031,1856],[-13,7],[-9,-3]],[[4037,1907],[-3,-4],[3,-13],[2,-15],[-3,-12],[-5,-7]],[[4096,1920],[-3,-2],[-6,-4],[-32,0],[-10,-2],[-6,-3],[-2,-2]],[[4031,1856],[3,-10],[8,-11],[4,-1]],[[4046,1834],[17,-5],[6,-3],[3,-6],[3,-15],[19,-6],[2,-1]],[[4096,518],[0,-518],[-1717,0],[-2,1],[1,1],[1,0],[0,1],[0,2],[-4,2],[-2,5],[-1,7],[-3,7],[7,4],[7,9],[6,11],[5,19],[5,8],[1,6],[-8,6],[8,14],[14,17],[14,11],[11,-2],[3,0],[3,5],[6,1],[68,-14],[73,-18],[97,-16],[92,-2],[10,1],[5,3],[9,6],[5,2],[3,3],[3,6],[2,4],[3,-3],[4,4],[4,8],[5,3],[4,-5],[15,-3],[12,-10],[120,-31],[12,-11],[6,-4],[31,-6],[94,2],[9,6],[3,1],[5,0],[7,-3],[4,0],[15,3],[3,0],[3,-3],[2,0],[3,1],[0,2],[1,2],[2,2],[15,6],[13,8],[20,21],[5,8],[3,7],[1,8],[1,11],[0,4],[4,11],[1,6],[-2,3],[-7,5],[-1,4],[4,7],[8,3],[16,1],[2,2],[6,10],[2,2],[4,1],[55,23],[77,55],[44,23],[14,11],[3,2],[35,12],[10,7],[6,13],[23,29],[2,2],[6,12],[12,3],[20,2],[1,3],[3,1],[3,2],[1,4],[1,2],[2,1],[2,-1],[3,-5],[1,-1],[7,4],[8,9],[5,5],[25,14],[5,3],[4,3],[6,1],[5,-3],[4,8],[9,6],[10,3],[8,-5],[6,1],[22,8],[6,3],[5,0],[11,1],[10,2],[6,4],[4,-2],[26,7],[13,6],[17,12],[57,21],[58,32],[13,1],[27,-5],[39,0],[8,-2],[18,-7],[50,-5]],[[2661,2390],[-28,-12],[18,10],[7,6],[3,5],[2,5],[5,2],[6,0],[4,2],[6,5],[11,11],[6,5],[57,53],[19,10],[-80,-75],[-36,-27]],[[3692,2620],[52,-7],[25,5],[11,-1],[11,-8],[15,7],[9,0],[4,-5],[4,-4],[16,1],[5,-6],[-6,-7],[-154,25],[3,3],[2,0],[3,-3]],[[3515,2669],[4,-3],[-8,2],[-15,7],[-133,28],[-57,21],[-11,11],[-10,15],[-3,9],[-3,13],[-1,9],[7,-2],[6,-22],[6,-15],[8,-11],[15,-8],[117,-29],[48,-11],[30,-14]],[[4096,2548],[0,-786],[-3,0],[-8,2],[-27,13],[-5,4],[-2,10],[-2,5],[-11,14],[-4,4],[-7,-1],[-8,-2],[-8,-1],[-6,6],[-5,5],[-39,28],[-3,6],[0,6],[1,-2],[12,3],[3,1],[8,7],[3,0],[8,0],[4,0],[3,2],[5,2],[19,0],[7,3],[-5,2],[-12,3],[-3,3],[-1,7],[4,7],[4,5],[3,6],[2,8],[-1,5],[-4,11],[-2,14],[-2,8],[-3,6],[3,3],[1,2],[1,2],[3,11],[3,9],[5,7],[14,5],[4,6],[2,9],[2,10],[0,12],[-4,20],[-2,9],[-1,3],[-6,13],[-1,4],[-1,14],[-6,21],[-9,12],[-25,16],[-21,18],[-6,3],[-15,-2],[-13,-5],[-13,-8],[-9,-2],[-3,5],[-4,7],[-8,4],[-16,5],[-5,5],[-13,16],[-9,5],[-3,5],[-4,7],[-4,3],[-6,2],[-3,2],[-25,21],[-13,9],[-15,6],[-54,5],[-8,-2],[-6,-4],[-13,-14],[-5,-3],[-26,0],[-8,3],[-12,6],[-8,2],[-10,28],[-2,7],[5,14],[11,11],[43,33],[7,2],[9,1],[6,2],[6,3],[5,4],[4,4],[2,4],[3,2],[5,1],[4,0],[7,-3],[4,-1],[5,2],[1,4],[-1,5],[-1,4],[1,4],[1,3],[3,4],[11,11],[25,17],[82,38],[5,3],[2,7],[-2,2],[-3,1],[-3,3],[0,6],[4,3],[3,-2],[6,-8],[13,-8],[13,2],[26,16],[13,6],[2,3],[11,12],[6,3],[15,10],[5,2],[3,-1],[7,-5],[4,-1],[4,0],[9,3],[9,11],[7,5],[4,1],[4,1],[3,-1],[5,-2],[3,-3],[1,-3],[2,-3],[4,0],[8,1],[0,6],[0,12],[0,10],[6,-3],[6,4],[9,2]],[[0,4096],[4096,0],[0,-1536],[-4,2],[-21,5],[-9,0],[-4,-2],[-2,-3],[-3,-2],[-4,3],[6,9],[3,6],[-1,3],[-4,2],[0,4],[2,5],[2,5],[0,3],[-5,18],[0,6],[4,5],[3,6],[-2,8],[-11,21],[-6,5],[-9,-3],[-8,-7],[-6,-7],[-1,-8],[10,-6],[0,-4],[-10,-1],[-9,-3],[-4,-6],[8,-11],[-4,0],[-7,3],[-23,0],[-3,3],[-11,15],[-10,8],[-10,2],[-7,-10],[-2,2],[-1,1],[-2,0],[-2,1],[6,6],[4,7],[-1,5],[-8,3],[-29,-4],[3,7],[1,6],[4,36],[-9,-9],[-6,-14],[-7,-13],[-12,-6],[-3,-1],[-4,-2],[-4,0],[-3,1],[-8,6],[-22,10],[4,-14],[-5,-7],[-39,-7],[-5,0],[-3,1],[-3,2],[-2,0],[-9,0],[-3,0],[-20,7],[-8,1],[-6,-2],[-13,-6],[-46,-8],[-4,-2],[-4,-2],[-6,-7],[-2,-2],[-15,-2],[-73,21],[-8,6],[-5,-1],[-2,1],[0,2],[-1,7],[-1,2],[-2,4],[-1,7],[-2,3],[7,6],[2,3],[1,5],[-11,-4],[-10,-2],[-9,2],[-16,6],[-5,1],[-5,3],[-14,18],[-10,8],[-12,-4],[-18,9],[-30,23],[0,-6],[1,-7],[1,-6],[-3,-2],[-23,1],[-7,2],[-5,4],[-5,5],[-2,8],[5,7],[7,5],[6,3],[8,1],[20,-4],[27,5],[4,2],[19,17],[4,1],[5,0],[2,2],[-3,6],[-16,22],[-6,3],[-14,-2],[-16,3],[-50,21],[-9,2],[-8,0],[-5,-3],[-6,-5],[-2,-3],[-1,-4],[-1,-5],[1,-16],[-9,21],[-2,4],[-6,1],[-42,43],[-6,12],[11,-9],[10,-10],[5,-3],[64,5],[12,-4],[21,-12],[2,-1],[4,-1],[31,0],[31,-7],[21,3],[8,0],[40,-9],[19,-12],[15,-4],[16,2],[14,6],[10,10],[-6,10],[9,13],[26,21],[7,5],[17,1],[6,5],[4,4],[2,1],[5,4],[6,5],[4,9],[-9,-4],[-10,-7],[-10,-5],[-8,1],[-9,-4],[-40,-23],[-27,-3],[-24,13],[-6,9],[-2,1],[-4,-1],[-6,-7],[-3,-2],[-4,-1],[-8,-2],[-3,-1],[-9,-10],[-5,5],[-5,19],[-4,3],[-2,1],[-23,4],[-6,3],[-5,6],[-6,9],[-4,10],[-2,9],[-2,9],[-3,8],[-4,7],[-4,9],[-1,22],[6,16],[10,15],[8,18],[2,10],[-1,8],[-4,5],[-18,3],[-3,4],[1,7],[11,16],[2,5],[-2,4],[-10,1],[-16,-2],[-6,0],[-6,6],[10,22],[1,12],[-5,14],[-5,4],[-5,1],[-3,3],[-3,8],[-1,9],[0,6],[-2,4],[-5,5],[-21,10],[-4,6],[2,11],[0,4],[-4,1],[-2,-2],[-5,-9],[-1,-3],[2,-6],[6,-6],[7,-4],[16,-4],[4,-6],[0,-30],[1,-3],[9,-2],[3,-3],[2,-2],[2,-1],[4,-4],[-3,-9],[-5,-8],[-3,-4],[-2,-23],[11,-5],[17,2],[12,-2],[-11,-12],[-5,-8],[-2,-8],[3,-9],[7,-2],[8,3],[7,4],[2,-11],[-3,-15],[-7,-14],[-8,-6],[-9,-2],[-8,-8],[-4,-11],[0,-14],[13,-18],[2,-3],[-3,-23],[1,-9],[2,-4],[1,-3],[-4,-7],[-2,-3],[-8,-6],[-5,-2],[-16,-3],[-15,2],[-36,14],[-22,-2],[-6,-3],[-3,-7],[-3,-7],[-9,-1],[-3,2],[-5,4],[-3,1],[-8,0],[-4,0],[-3,2],[-1,7],[3,9],[21,33],[5,11],[0,5],[4,4],[17,24],[-5,7],[-3,-3],[-2,-7],[-3,-7],[-2,-2],[-7,-3],[-3,-2],[-2,-3],[-7,-10],[-1,-2],[-1,-2],[-4,-1],[-5,3],[-5,4],[-5,13],[-4,6],[-6,3],[4,-13],[1,-4],[1,-7],[2,-3],[3,-2],[12,-9],[1,-4],[-3,-6],[-7,-11],[0,-2],[-6,-4],[-12,-19],[-5,-5],[-7,-1],[-13,-7],[-3,-2],[-5,-4],[-5,2],[-11,2],[-2,2],[-2,1],[-1,-1],[-2,-3],[-4,3],[-3,2],[-25,6],[-10,0],[-19,-6],[-19,-2],[-1,0],[-14,-5],[-8,-1],[-4,-2],[-8,-7],[-3,0],[-4,2],[-5,-2],[-22,-15],[-4,-1],[-16,4],[-3,0],[-4,-4],[-11,-15],[-2,-4],[1,-7],[6,-13],[2,-10],[2,0],[3,-3],[1,-3],[-2,-1],[-1,-1],[-1,-3],[-1,-3],[-3,-16],[-1,-2],[-15,-19],[-6,-6],[-20,2],[-3,-3],[2,-3],[8,-6],[3,-4],[0,-6],[-2,-5],[-10,-20],[-26,-36],[-8,-15],[-5,-7],[-6,-3],[-3,-4],[-7,-20],[-3,-8],[-45,-42],[-40,-53],[-21,-20],[-24,-19],[1,7],[-2,29],[-3,1],[-3,-4],[-3,-5],[-2,-6],[-1,-13],[-1,-4],[-1,-3],[0,-3],[-1,-2],[-3,0],[-1,1],[-2,2],[-2,1],[-1,-3],[-3,-1],[-17,13],[-9,4],[-8,-4],[-3,-10],[-1,-13],[-1,-12],[-4,6],[-4,5],[0,4],[3,5],[-2,3],[-3,-1],[-3,-7],[0,-9],[1,-7],[3,-5],[4,-4],[-3,-14],[-2,5],[-3,3],[-7,6],[-1,2],[0,2],[0,2],[-3,1],[-2,-1],[-1,-3],[-1,-2],[-1,-1],[-9,0],[-10,-2],[-7,-6],[-3,-10],[3,-7],[5,-3],[10,-4],[5,-5],[3,-4],[-2,-2],[-7,-2],[-5,-5],[-7,-3],[-7,3],[-1,-3],[-1,-1],[0,-2],[2,-4],[-6,-3],[-10,-4],[-4,-4],[0,14],[-4,13],[-7,11],[-8,5],[1,3],[-2,25],[2,8],[3,4],[0,3],[-3,6],[-2,3],[-1,1],[-1,1],[-8,6],[-2,2],[-1,5],[-2,-1],[-2,-2],[-1,-4],[2,-4],[5,-7],[1,-2],[-2,-4],[-6,-9],[-2,-6],[-1,-8],[1,-4],[2,-4],[3,-6],[-13,-9],[-2,-20],[1,-25],[-4,-24],[9,-4],[6,-2],[7,-1],[6,2],[6,3],[9,10],[-5,-6],[-12,-19],[-4,-4],[-4,-2],[-2,-5],[-2,-5],[-2,-2],[-6,-2],[0,-4],[6,-12],[3,-4],[4,-3],[4,1],[1,4],[0,6],[0,6],[6,1],[0,-12],[1,-2],[3,0],[2,2],[-1,2],[3,-1],[3,1],[3,-2],[1,-9],[3,8],[1,9],[3,4],[6,-7],[2,-8],[1,-10],[-3,-7],[-7,1],[5,-6],[3,-10],[1,-11],[1,-22],[-1,-5],[-1,-4],[-3,-7],[-1,-4],[-4,-13],[0,-5],[0,-4],[0,-1],[0,-1],[-7,-7],[-6,-3],[-7,-2],[-5,2],[-4,0],[-9,0],[0,-3],[5,-8],[4,-9],[6,-7],[12,-1],[-8,-9],[-5,-15],[-2,-45],[-2,-9],[-5,-14],[-1,-8],[-1,-8],[-1,-7],[-2,-5],[2,-11],[-9,-15],[5,-9],[-3,-7],[-3,-2],[-3,0],[-4,-2],[-5,-8],[-3,-3],[-7,4],[-4,0],[-4,-2],[-3,-1],[-71,-12],[-45,-3],[-14,-4],[-36,-25],[-11,-11],[-9,-13],[-3,4],[1,7],[-5,10],[-3,8],[9,3],[8,2],[14,7],[14,3],[8,6],[7,9],[2,12],[-2,6],[-5,7],[-10,12],[2,-8],[0,-5],[0,-5],[-5,1],[-6,-4],[-4,-1],[-5,7],[-1,10],[-1,31],[4,10],[17,6],[4,7],[-3,5],[-16,11],[-5,2],[-11,0],[-12,3],[-3,0],[-2,-3],[-1,-5],[-2,-4],[-4,-2],[-8,-1],[-4,-1],[-13,-13],[-4,-6],[-2,-11],[0,-3],[4,-2],[1,-4],[-1,-3],[-2,-1],[-1,-1],[-1,-2],[1,-4],[3,-4],[2,-3],[9,-4],[17,-18],[-4,-5],[-2,-2],[-4,0],[4,-3],[1,-1],[0,-4],[-4,-3],[-1,-4],[3,-6],[5,-4],[-4,-3],[-4,-1],[-16,0],[-4,-2],[-22,-14],[-4,-3],[-3,-7],[-1,-7],[2,-3],[6,5],[-2,-7],[-7,-2],[-1,-7],[1,-9],[3,-2],[19,3],[9,6],[8,8],[8,10],[-6,10],[26,-8],[6,-4],[1,-9],[-3,-11],[-6,-8],[-9,-2],[7,8],[6,10],[1,9],[-9,5],[0,-4],[3,-4],[-1,-1],[-7,-2],[-5,3],[-2,1],[-2,-2],[-1,-2],[-2,-4],[-7,-5],[-12,-12],[-6,-4],[-18,-9],[-5,-5],[7,12],[1,6],[-6,0],[-4,-1],[-4,-3],[-1,-7],[5,0],[-3,-5],[2,-4],[3,-3],[5,-2],[-14,-5],[-6,-5],[0,-8],[2,3],[2,2],[1,2],[6,-3],[4,-4],[-3,-7],[-4,-13],[-3,-14],[2,-10],[3,-1],[3,4],[2,6],[2,12],[3,4],[8,5],[11,15],[6,7],[7,3],[6,2],[5,6],[4,7],[3,9],[-2,-10],[-3,-8],[-24,-47],[-17,-13],[-33,-45],[-4,-12],[-1,-6],[-5,4],[-6,-3],[-4,-4],[-4,-6],[-2,-6],[-1,-8],[-1,-19],[2,-7],[6,-11],[5,-16],[1,-7],[-1,-5],[2,-4],[-5,3],[-4,-1],[-4,-4],[-2,-5],[3,-9],[6,-42],[6,-27],[0,-3],[-1,-4],[-3,-5],[-2,-9],[-5,-15],[-1,-7],[-9,-18],[-2,-5],[-5,-29],[-3,-4],[-1,-5],[2,-5],[-2,-5],[0,-5],[-1,-5],[1,-6],[-2,-5],[-1,-7],[-1,-63],[1,-6],[4,-9],[3,-7],[3,-5],[0,-8],[-3,-13],[-6,-16],[-7,-14],[-5,-6],[-4,-2],[-17,-17],[-3,-5],[-2,-6],[0,-9],[-5,7],[-17,9],[-3,3],[-4,5],[-9,4],[-17,4],[-9,-2],[-13,-7],[-7,-2],[-24,1],[-7,-1],[-14,-8],[-10,-15],[-2,-4],[-20,-55],[-5,-8],[-6,-5],[-25,-7],[-4,-3],[-3,-1],[-3,0],[0,-3],[12,-10],[3,-4],[-1,-6],[-7,-23],[-5,-25],[-2,-4],[-4,-4],[-2,-4],[-2,-5],[1,-12],[5,-23],[2,-11],[-2,-35],[2,-8],[-8,-5],[0,-9],[3,-11],[2,-14],[0,-24],[-1,-10],[-1,-4],[-18,-1],[-20,4],[-16,0],[-4,0],[-2,-4],[-3,-7],[-1,-5],[0,-5],[3,-4],[6,-3],[-10,-2],[-16,-7],[-8,-2],[-7,-6],[1,-13],[4,-15],[3,-8],[-6,3],[-34,1],[-10,-7],[-5,-10],[-3,-13],[-4,-13],[-6,3],[0,1],[-4,-5],[0,-8],[4,-4],[1,-1],[-1,-2],[0,-2],[-1,-2],[1,-5],[1,-3],[1,4],[0,1],[-1,2],[2,10],[12,-12],[4,-2],[4,5],[3,6],[4,2],[6,-6],[3,6],[3,-1],[3,-3],[3,-2],[5,2],[4,2],[4,2],[5,-2],[-1,-3],[-1,0],[-1,-1],[2,-9],[4,-6],[6,-1],[8,6],[1,-5],[2,-2],[3,-1],[4,1],[0,-4],[-2,-1],[-5,-2],[2,-5],[2,-2],[3,-1],[-3,-5],[-1,-7],[2,-7],[5,-5],[5,-3],[4,1],[5,2],[6,0],[0,-3],[-3,-3],[0,-3],[2,-3],[3,-3],[-9,-7],[-4,-10],[2,-10],[9,-7],[-2,-2],[-1,-2],[13,-9],[2,-4],[2,-3],[4,-5],[5,-5],[4,-2],[-1,-2],[-1,-4],[0,-2],[10,-6],[3,-4],[7,-14],[19,-13],[3,-5],[3,-5],[5,-2],[-2,-5],[2,-5],[3,-4],[4,-3],[0,-3],[0,-1],[-1,0],[-1,0],[4,-5],[2,-7],[1,-7],[-2,-6],[1,-5],[5,-25],[0,-5],[2,-2],[2,-3],[1,-4],[0,-4],[-3,-2],[-4,1],[-7,3],[-6,0],[-5,-3],[-3,-7],[-1,-13],[2,-14],[6,-9],[6,-8],[6,-9],[7,-24],[4,-6],[7,-7],[3,-4],[2,-5],[1,-1],[1,-2],[0,-3],[-1,-2],[-2,1],[-2,-1],[0,-3],[3,-8],[5,-9],[6,-8],[10,-7],[5,-7],[8,-14],[20,-20],[55,-37],[79,-36],[112,-57],[36,-9],[2,-1],[1,-1],[1,-1],[2,0],[3,1],[3,5],[2,1],[9,-2],[9,-4],[5,-5],[-3,-13],[-5,-10],[-6,-9],[-6,-3],[-5,-2],[1,-3],[3,-4],[2,-5],[3,-3],[0,-1],[2,-1],[0,-3],[-2,-3],[-1,0],[-1,-10],[-3,-9],[-3,-8],[-4,-7],[-3,-2],[-6,-3],[-3,-2],[-3,-5],[-1,-2],[0,-2],[1,-3],[1,-2],[0,-2],[-2,-3],[-2,-1],[-8,1],[-3,3],[-2,0],[-2,-1],[-3,-5],[-1,-1],[-4,-1],[-7,-5],[-10,-2],[-43,0],[-3,0],[-1,0],[-54,0],[3,15],[-4,5],[-3,2],[-3,1],[3,11],[-4,11],[-8,7],[-8,2],[2,-7],[7,-9],[3,-9],[0,-5],[-1,-7],[-2,-7],[-4,-5],[-11,2],[-19,20],[-9,5],[-12,3],[-25,10],[-13,2],[-12,0],[-3,1],[-4,5],[-3,1],[-14,-3],[-6,-1],[-3,2],[-3,2],[-18,-7],[-2,-2],[-4,0],[-20,-9],[-6,-1],[-6,-4],[-5,-4],[-4,-4],[-8,-15],[-3,-6],[0,-2],[-36,0],[-5,3],[-5,5],[-6,4],[-14,4],[-14,1],[-78,-12],[-7,-5],[-15,0],[-846,0],[0,2],[3,3],[4,2],[4,1],[-7,5],[-4,3],[-30,-1],[-7,-2],[1,-8],[-5,-5],[-920,0],[0,2905],[0,1191]],[[0,2320],[61,-49],[-50,-135],[-11,1],[0,183]],[[212,3926],[23,59],[74,-27],[85,-139],[-59,-46],[-123,153]],[[386,3871],[35,90],[48,-10],[27,-53],[-28,-76],[-70,7],[-12,42]],[[241,632],[30,30],[56,-33],[119,29],[60,-58],[-35,-5],[12,16],[-6,12],[-21,-39],[-81,-19],[-5,-37],[-64,-33],[-17,32],[27,14],[-11,19],[43,-1],[27,33],[-30,30],[-104,10]],[[1732,622],[113,-18],[12,20],[79,-41],[28,17],[52,-82],[-64,11],[-9,-30],[-51,16],[-50,-38],[-105,100],[-5,45]],[[2541,2933],[69,45],[-1,-40],[93,-42],[-6,-41],[94,-53],[-66,-14],[-50,70],[-100,26],[-33,49]],[[2338,2156],[19,13],[50,-2],[-40,25],[-36,-20],[2,22],[-41,-4],[62,31],[114,-5],[2,63],[4,-33],[20,3],[-9,52],[53,-36],[-15,13],[40,5],[-66,-116],[-38,25],[-9,-25],[-24,16],[-12,-17],[77,-3],[23,-78],[-7,77],[105,-15],[-12,-58],[-93,-44],[-34,29],[18,10],[1,6],[-3,-6],[-22,1],[-30,14],[19,9],[1,6],[-8,-5],[-12,28],[-99,19]],[[2512,2076],[5,3],[6,-15],[0,10],[-8,7],[-3,-5]],[[2450,2120],[7,2],[-2,6],[-2,-5],[-3,-3]],[[2447,2129],[5,-4],[1,7],[-4,1],[-2,-4]],[[2475,2089],[4,-2],[6,3],[-4,2],[-6,-3]],[[2489,2277],[7,-3],[2,7],[-8,0],[-1,-4]],[[3300,2716],[47,5],[34,39],[-27,76],[95,-6],[32,-38],[-65,-44],[130,-65],[8,-38],[-254,71]],[[602,3692],[11,58],[38,4],[108,-85],[-69,-22],[15,28],[-56,37],[-47,-20]],[[394,3764],[9,23],[27,-6],[4,36],[30,-2],[-23,-87],[-32,25],[-10,-20],[-5,31]],[[638,2366],[5,25],[54,2],[39,48],[11,-22],[64,18],[73,-22],[111,38],[-41,-74],[19,-32],[-51,-46],[-30,9],[-73,-39],[5,-34],[-109,24],[-15,70],[-35,-1],[-27,36]],[[2508,2329],[36,36],[47,-48],[61,23],[3,-172],[-37,4],[-25,112],[-70,17],[36,1],[2,20],[-53,7]],[[864,3141],[71,48],[22,-18],[5,55],[13,-15],[23,18],[-14,-62],[45,23],[-35,-47],[23,-199],[-51,-53],[-78,52],[17,31],[28,-16],[38,59],[-72,11],[-35,113]],[[940,3081],[5,-1],[4,3],[8,-1],[-10,4],[-7,-5]],[[977,3088],[5,-5],[4,1],[-7,7],[-2,-3]],[[620,3593],[38,1],[-9,21],[23,7],[17,-28],[-60,-27],[-9,26]],[[612,921],[33,38],[17,-28],[65,17],[117,-35],[110,23],[-7,-23],[31,-24],[-110,-34],[-107,64],[-62,-26],[-87,28]],[[57,4096],[-27,-14],[-30,7],[0,7],[57,0]],[[258,2707],[55,-12],[30,28],[10,94],[-54,19],[12,32],[98,-51],[-8,-40],[-35,-19],[55,0],[13,-36],[-51,27],[0,-51],[-43,10],[-12,-49],[-45,-8],[-25,56]],[[2351,15],[-75,-15],[-157,45],[21,17],[40,-21],[130,66],[44,-13],[33,35],[-36,-114]],[[2391,63],[13,43],[93,-106],[-105,0],[-1,63]],[[3686,162],[38,10],[-14,-67],[-41,2],[17,55]],[[3438,198],[23,-58],[-33,-27],[-1,43],[11,42]],[[3470,238],[18,39],[28,-20],[-14,-92],[-18,0],[-14,73]],[[1778,794],[-42,13],[35,35],[53,-22],[-28,-59],[-18,33]],[[401,937],[-21,-33],[-35,13],[5,-59],[-63,-5],[-48,31],[74,85],[88,-32]],[[1127,1074],[14,52],[41,7],[-19,-42],[-36,-17]],[[1995,1161],[-19,-28],[-55,8],[19,53],[78,-9],[-23,-24]],[[1251,1539],[56,-26],[-54,-52],[-20,13],[18,65]],[[484,1703],[-42,46],[31,18],[34,-12],[-23,-52]],[[4002,1876],[17,44],[43,-32],[-26,-86],[-49,41],[15,33]],[[1346,1748],[-35,-19],[-50,13],[-28,125],[32,-7],[33,33],[74,-66],[4,-52],[-30,-27]],[[2233,1684],[7,-55],[-15,-1],[-20,49],[28,7]],[[1713,1613],[23,39],[-10,40],[38,13],[14,-53],[-33,-6],[5,-33],[-37,0]],[[1963,2248],[37,10],[18,-43],[-20,-23],[-31,-9],[-4,65]],[[1149,2426],[14,-35],[-55,13],[9,32],[32,-10]],[[2993,2778],[-20,-41],[-39,22],[27,52],[-37,27],[28,59],[60,39],[53,-49],[-44,-13],[-28,-96]],[[2031,2322],[10,-28],[-37,-21],[-32,21],[42,46],[17,-18]],[[1879,3178],[-38,-10],[-26,50],[46,13],[18,-53]],[[2323,3087],[-60,45],[33,33],[46,-13],[9,-85],[-28,20]],[[3437,3095],[-29,63],[25,-3],[0,-36],[83,0],[-74,-136],[-5,112]],[[3230,3414],[-27,-24],[-24,37],[25,15],[26,-28]],[[3666,2902],[-23,19],[21,50],[51,4],[23,-59],[-72,-14]],[[2612,3053],[12,-91],[-51,52],[-49,-7],[-11,27],[18,26],[81,-7]],[[895,2043],[23,-65],[-41,-33],[-37,79],[55,19]],[[1261,2070],[31,19],[38,-19],[-46,-79],[-23,79]],[[3068,3676],[4,-13],[-24,-32],[-26,25],[46,20]],[[1224,3772],[15,32],[31,8],[4,-53],[-50,13]],[[3521,3886],[27,30],[33,-24],[-27,-30],[-33,24]],[[3928,3460],[-29,-27],[-31,20],[30,37],[30,-30]],[[3162,3520],[-25,45],[65,-13],[-40,-32]],[[4011,3525],[-92,0],[-14,33],[51,131],[32,-6],[14,52],[46,-13],[-37,-197]],[[599,3571],[75,6],[31,28],[68,-10],[30,-57],[44,-10],[18,-61],[32,0],[-1,-54],[-36,0],[-5,11],[-27,-1],[-50,22],[-12,-3],[-6,2],[-5,-1],[-1,1],[-6,-3],[-17,-1],[-8,2],[-67,42],[-57,87]],[[637,3514],[19,-30],[44,-13],[13,7],[6,-2],[-25,38],[24,-4],[16,36],[-57,-1],[-40,-31]],[[699,3471],[4,-4],[3,-1],[1,-2],[2,-4],[0,-1],[0,-2],[0,-2],[1,0],[3,-3],[4,-5],[2,0],[7,-5],[11,1],[1,-1],[2,1],[1,0],[7,-2],[2,1],[4,2],[1,0],[2,0],[1,0],[2,0],[2,0],[4,-2],[3,2],[9,1],[26,-7],[12,-7],[1,-1],[0,-1],[1,-1],[6,-1],[4,-4],[13,2],[-26,10],[1,44],[-25,-28],[-68,-6],[-13,29],[17,-7],[0,14],[-8,-5],[-3,0],[-3,1],[-4,-3],[-8,-3],[-1,0],[-1,0]],[[613,3551],[7,0],[0,-7],[6,-11],[12,-12],[4,2],[6,22],[-17,-9],[-4,20],[-14,-5]],[[134,134],[4,52],[110,-11],[37,42],[57,-14],[-94,-130],[-114,61]],[[0,2113],[57,89],[72,3],[-26,-43],[6,-52],[-26,12],[-83,-89],[0,80]],[[14,2854],[9,68],[27,9],[49,87],[44,-11],[-17,-70],[85,12],[-71,-99],[33,-24],[-64,-1],[-46,32],[-31,-20],[-18,17]],[[104,2842],[0,-2],[5,-4],[7,-4],[-1,-1],[4,-5],[-10,17],[-5,-1]],[[770,0],[56,55],[41,-51],[-1,-4],[-96,0]],[[901,0],[24,24],[-4,47],[67,11],[7,-64],[70,-9],[-164,-9]]]}