{"objects":{"water":{"type":"GeometryCollection","geometries":[{"type":"Polygon","properties":{"source":"naturalearthdata.com","kind":"lake","name":"Lake Kwania","area":578515712,"sort_rank":200,"min_zoom":0.0,"id":667},"arcs":[[427]]},{"type":"Polygon","properties":{"source":"naturalearthdata.com","kind":"lake","name":"Lake Kyoga","area":1742183040,"sort_rank":200,"min_zoom":0.0,"id":545},"arcs":[[428],[429]]},{"type":"MultiPolygon","properties":{"source":"naturalearthdata.com","kind":"lake","name":"Lake Victoria","area":67519668224,"sort_rank":200,"min_zoom":0.0,"id":479},"arcs":[[[430]],[[431],[432],[433],[434]]]},{"type":"Polygon","properties":{"source":"naturalearthdata.com","kind":"lake","name":"Lake Albert","area":5421299200,"sort_rank":200,"min_zoom":0.0,"id":476},"arcs":[[435]]},{"type":"Point","properties":{"label_placement":true,"kind":"lake","name":"Lake Albert","area":5421299200,"sort_rank":200,"source":"naturalearthdata.com","min_zoom":0.0,"id":476},"coordinates":[3099,626]},{"type":"Point","properties":{"label_placement":true,"kind":"lake","name":"Lake Kyoga","area":1742183040,"sort_rank":200,"source":"naturalearthdata.com","min_zoom":0.0,"id":545},"coordinates":[3783,548]},{"type":"Point","properties":{"label_placement":true,"kind":"lake","name":"Lake Kwania","area":578515712,"sort_rank":200,"source":"naturalearthdata.com","min_zoom":0.0,"id":667},"coordinates":[3720,638]},{"type":"LineString","properties":{"source":"naturalearthdata.com","kind":"lake","sort_rank":367,"boundary":true,"min_zoom":0.0,"id":476},"arcs":[436]},{"type":"MultiLineString","properties":{"source":"naturalearthdata.com","kind":"lake","sort_rank":367,"boundary":true,"min_zoom":0.0,"id":479},"arcs":[[437],[438],[439],[440],[441],[442],[443],[444]]},{"type":"LineString","properties":{"source":"naturalearthdata.com","kind":"lake","sort_rank":367,"boundary":true,"min_zoom":0.0,"id":527},"arcs":[445]},{"type":"MultiLineString","properties":{"source":"naturalearthdata.com","kind":"lake","sort_rank":367,"boundary":true,"min_zoom":0.0,"id":545},"arcs":[[446],[447]]},{"type":"LineString","properties":{"source":"naturalearthdata.com","kind":"lake","sort_rank":367,"boundary":true,"min_zoom":0.0,"id":667},"arcs":[448]}]},"buildings":{"type":"GeometryCollection","geometries":[]},"places":{"type":"GeometryCollection","geometries":[{"type":"Point","properties":{"name:ka":"\u10e3\u10d2\u10d0\u10dc\u10d3\u10d0","name:ko":"\uc6b0\uac04\ub2e4","name:cv":"\u0423\u0433\u0430\u043d\u0434\u0430","name:km":"\u17a2\u17ca\u17bc\u17a0\u17d2\u1780\u1784\u17cb\u178a\u17b6","name:kk":"\u0423\u0433\u0430\u043d\u0434\u0430","name:tt":"\u0423\u0433\u0430\u043d\u0434\u0430","name:kw":"Ouganda","name:ku":"\u00dbganda","name:ti":"\u12e9\u130b\u1295\u12f3","name:ks":"\u06cc\u0648\u0657\u06af\u0627\u0646\u065b\u0691\u0627","name:to":"\u02bbIukanit\u0101","name:pa":"\u0a2f\u0a41\u0a17\u0a3e\u0a02\u0a21\u0a3e","name:os":"\u0423\u0433\u0430\u043d\u0434\u00e6","name:or":"\u0b09\u0b17\u0b3e\u0b23\u0b4d\u0b21\u0b3e","name:ce":"\u0423\u0433\u0430\u043d\u0434\u0430","name:ta":"\u0b89\u0b95\u0bbe\u0ba3\u0bcd\u0b9f\u0bbe","name:tg":"\u0423\u0433\u0430\u043d\u0434\u0430","name:te":"\u0c2f\u0c41\u0c17\u0c3e\u0c02\u0c21\u0c3e","name:wo":"Ugandaa","name:ba":"\u0423\u0433\u0430\u043d\u0434\u0430","name:dz":"\u0f61\u0f74\u0f0b\u0f42\u0fb7\u0f53\u0f0b\u0f4c","source":"openstreetmap.org","name:kn":"\u0c89\u0c97\u0cbe\u0c82\u0ca1\u0cbe","name:dv":"\u0794\u07aa\u078e\u07ac\u0782\u07b0\u0791\u07a7","name:hi":"\u092f\u0941\u0917\u093e\u0902\u0921\u093e","name:he":"\u05d0\u05d5\u05d2\u05e0\u05d3\u05d4","min_zoom":2.0,"kind":"country","name:ur":"\u06cc\u0648\u06af\u0627\u0646\u0688\u0627","name:lg":"Yuganda","name:uk":"\u0423\u0433\u0430\u043d\u0434\u0430","name:hy":"\u0548\u0582\u0563\u0561\u0576\u0564\u0561","name:ug":"\u0626\u06c7\u06af\u0627\u0646\u062f\u0627","name:li":"Oeganda","name:lo":"\u0ead\u0eb9\u0e81\u0eb2\u0e99\u0e94\u0eb2","name:oc":"Oganda","population":34509205,"name:el":"\u039f\u03c5\u03b3\u03ba\u03ac\u03bd\u03c4\u03b1","name:eo":"Ugando","name":"Uganda","name:ee":"Uganda nutome","name:th":"\u0e1b\u0e23\u0e30\u0e40\u0e17\u0e28\u0e22\u0e39\u0e01\u0e31\u0e19\u0e14\u0e32","name:yi":"\u05d0\u05d5\u05d2\u05d0\u05e0\u05d3\u05e2","name:yo":"Or\u00edl\u1eb9\u0301\u00e8de Uganda","name:rn":"Ubugande","name:az":"Uqanda","name:mr":"\u092f\u0941\u0917\u093e\u0902\u0921\u093e","name:ar":"\u0623\u0648\u063a\u0646\u062f\u0627","name:my":"\u101a\u1030\u1002\u1014\u1039\u1012\u102c","official_name":"Republic of Uganda;Jamhuri ya Uganda","name:is":"\u00daganda","name:am":"\u12e9\u130b\u1295\u12f3","name:ml":"\u0d09\u0d17\u0d3e\u0d23\u0d4d\u0d1f","name:ru":"\u0423\u0433\u0430\u043d\u0434\u0430","name:rw":"Ubugande","name:mi":"Uk\u0101nga","id":424317406,"name:mk":"\u0423\u0433\u0430\u043d\u0434\u0430","name:vo":"Luganday\u00e4n","name:zu":"i-Uganda","name:ha":"Yuganda","name:mn":"\u0423\u0433\u0430\u043d\u0434\u0430","name:ff":"Unganndaa","name:mg":"Oganda","name:fr":"Ouganda","name:zh-yue":"\u70cf\u5e72\u9054","name:zh":"\u4e4c\u5e72\u8fbe","name:so":"Ugaanda","name:nl":"Oeganda","name:ja":"\u30a6\u30ac\u30f3\u30c0","name:si":"\u0d8b\u0d9c\u0db1\u0dca\u0da9\u0dcf\u0dc0","name:fa":"\u0627\u0648\u06af\u0627\u0646\u062f\u0627","name:sg":"Ugand\u00e4a","name:ne":"\u092f\u0941\u0917\u093e\u0923\u094d\u0921\u093e","name:br":"Ouganda","name:bn":"\u0989\u0997\u09be\u09a8\u09cd\u09a1\u09be","name:bo":"\u0f61\u0f74\u0f0b\u0f42\u0f53\u0f0b\u0f4c\u0f0d","name:be":"\u0423\u0433\u0430\u043d\u0434\u0430","name:bg":"\u0423\u0433\u0430\u043d\u0434\u0430","name:ss":"IBuganda","name:sr":"\u0423\u0433\u0430\u043d\u0434\u0430","name:nv":"Yog\u00e9nda","name:ht":"Ouganda","name:gv":"Ooganda","name:gu":"\u0aaf\u0ac1\u0a97\u0abe\u0a82\u0aa1\u0abe"},"coordinates":[3538,562]},{"type":"Point","properties":{"name:pt":"Sud\u00e3o do Sul","name:ps":"\u0633\u0648\u06d0\u0644\u064a \u0633\u0648\u0689\u0627\u0646","name:cy":"De Swdan","name:ko":"\ub0a8\uc218\ub2e8","name:cv":"\u041a\u04d1\u043d\u0442\u04d1\u0440 \u0421\u0443\u0434\u0430\u043d","name:km":"\u179f\u17ca\u17bc\u178a\u1784\u17cb\u200b\u1781\u17b6\u1784\u200b\u178f\u17d2\u1794\u17bc\u1784","name:cs":"Ji\u017en\u00ed S\u00fad\u00e1n","name:tt":"\u041a\u04e9\u043d\u044c\u044f\u043a \u0421\u0443\u0434\u0430\u043d","name:kw":"Soudan Soth","name:kv":"\u041b\u0443\u043d\u0432\u044b\u0432 \u0421\u0443\u0434\u0430\u043d","name:ku":"S\u00fbdana Ba\u015f\u00fbr","name:ro":"Sudanul de Sud","name:to":"S\u016btani tonga","name:tl":"Timog Sudan","name:zh-min-nan":"L\u00e2m Sudan","name:or":"\u0b26\u0b15\u0b4d\u0b37\u0b3f\u0b28 \u0b38\u0b41\u0b26\u0b3e\u0b28","name:pl":"Sudan Po\u0142udniowy","name:ta":"\u0ba4\u0bc6\u0bb1\u0bcd\u0b95\u0bc1 \u0b9a\u0bc2\u0b9f\u0bbe\u0ba9\u0bcd","name:ca":"Sudan del Sud","name:te":"\u0c26\u0c15\u0c4d\u0c37\u0c3f\u0c23 \u0c38\u0c42\u0c21\u0c3e\u0c28\u0c4d","name:vi":"Nam Sudan","name:hu":"D\u00e9l-Szud\u00e1n","name:ka":"\u10e1\u10d0\u10db\u10ee\u10e0\u10d4\u10d7\u10d8 \u10e1\u10e3\u10d3\u10d0\u10dc\u10d8","name:ln":"Sudani ya Sidi","name:da":"Sydsudan","name:nv":"Sh\u00e1di\u02bc\u00e1\u00e1hj\u00ed Sood\u0105\u0301\u0105","name:de":"S\u00fcdsudan","name:dz":"\u0f66\u0f71\u0f60\u0f74\u0f50\u0f0b \u0f66\u0f74\u0f0b\u0f4c\u0f71\u0f53","source":"openstreetmap.org","name:yo":"G\u00fa\u00fas\u00f9 Sudan","name:kn":"\u0ca6\u0c95\u0ccd\u0cb7\u0cbf\u0ca3 \u0cb8\u0cc2\u0ca1\u0cbe\u0ca8\u0ccd","name:pa":"\u0a26\u0a71\u0a16\u0a23\u0a40 \u0a38\u0a41\u0a21\u0a3e\u0a28","name:lv":"Dienvidsud\u0101na","name:lt":"Piet\u0173 Sudanas","name:uz":"Janubiy Sudan","name:kk":"\u041e\u04a3\u0442\u04af\u0441\u0442\u0456\u043a \u0421\u0443\u0434\u0430\u043d","name:sv":"Sydsudan","name:he":"\u05d3\u05e8\u05d5\u05dd \u05e1\u05d5\u05d3\u05df","kind":"country","name:ur":"\u062c\u0646\u0648\u0628\u06cc \u0633\u0648\u0688\u0627\u0646","name:lb":"S\u00fcdsudan","name:la":"Sudania Australis","official_name":"Republic of South Sudan","name:uk":"\u041f\u0456\u0432\u0434\u0435\u043d\u043d\u0438\u0439 \u0421\u0443\u0434\u0430\u043d","name:hy":"\u0540\u0561\u0580\u0561\u057e\u0561\u0575\u056b\u0576 \u054d\u0578\u0582\u0564\u0561\u0576","min_zoom":2.0,"name:li":"Zuid-Soedan","name:hr":"Ju\u017eni Sudan","name:lo":"\u0e8a\u0eb9\u0e94\u0eb2\u0e99\u0ec3\u0e95\u0ec9","name:oc":"Sodan del Sud","population":8260490,"name:el":"\u039d\u03cc\u03c4\u03b9\u03bf \u03a3\u03bf\u03c5\u03b4\u03ac\u03bd","name:eo":"Sud-Sudano","name":"South Sudan","name:tk":"G\u00fcnorta Sudan","name:ee":"Anyiehe Sudan nutome","name:th":"\u0e0b\u0e39\u0e14\u0e32\u0e19\u0e43\u0e15\u0e49","name:eu":"Hego Sudan","name:et":"L\u00f5una-Sudaan","name:nl":"Zuid-Soedan","name:es":"Sud\u00e1n del Sur","name:ia":"Sudan del Sud","name:rm":"Sudan dal Sid","name:az":"C\u0259nubi Sudan","name:ie":"Sud-Sudan","name:id":"Sudan Selatan","name:ms":"Sudan Selatan","name:mr":"\u0926\u0915\u094d\u0937\u093f\u0923 \u0938\u0941\u0926\u093e\u0928","name:qu":"Urin Sudan","name:ar":"\u062c\u0646\u0648\u0628 \u0627\u0644\u0633\u0648\u062f\u0627\u0646","name:my":"\u1010\u1031\u102c\u1004\u103a\u1006\u1030\u1012\u1014\u103a\u1014\u102d\u102f\u1004\u103a\u1004\u1036","name:io":"Sud-Sudan","name:av":"\u042e\u0433\u0430\u043b\u044a\u0443\u043b\u0430\u0431 \u0421\u0443\u0434\u0430\u043d","name:is":"Su\u00f0ur-S\u00fadan","name:am":"\u12f0\u1261\u1265 \u1231\u12f3\u1295","name:it":"Sudan del Sud","name:an":"Sud\u00e1n d'o Sud","name:ru":"\u042e\u0436\u043d\u044b\u0439 \u0421\u0443\u0434\u0430\u043d","id":1356260631,"name:mk":"\u0408\u0443\u0436\u0435\u043d \u0421\u0443\u0434\u0430\u043d","name:af":"Suid-Soedan","name:zu":"Iningizimu Sudan","name:nn":"S\u00f8r-Sudan","name:fi":"Etel\u00e4-Sudan","name:hi":"\u0926\u0915\u094d\u0937\u093f\u0923 \u0938\u0942\u0921\u093e\u0928","name:fo":"Su\u00f0ursudan","name:fr":"Sud-Soudan","name:ky":"\u0422\u04af\u0448\u0442\u04af\u043a \u0421\u0443\u0434\u0430\u043d","name:zh-yue":"\u5357\u8607\u4e39","name:fy":"S\u00fad-S\u00fbdan","name:vo":"Sul\u00fcda-Sud\u00e4n","name:zh":"\u5357\u8607\u4e39","name:gv":"Yn Toodaan Yiass","name:so":"Koonfur Suudaan","name:sl":"Ju\u017eni Sudan","name:sk":"Ju\u017en\u00fd Sud\u00e1n","name:ja":"\u5357\u30b9\u30fc\u30c0\u30f3","name:si":"\u0daf\u0d9a\u0dd4\u0dab\u0dd4 \u0dc3\u0dd4\u0da9\u0dcf\u0db1\u0dba","name:sh":"Ju\u017eni Sudan","name:sg":"Sud\u00e4an-Mbongo","name:se":"M\u00e1ttasudan","name:sc":"Sudan Meridionali","name:ne":"\u0926\u0915\u094d\u0937\u093f\u0923\u0940 \u0938\u0941\u0921\u093e\u0928","name:br":"Soudan ar Su","name:bs":"Ju\u017eni Sudan","name:yi":"\u05d3\u05e8\u05d5\u05dd \u05e1\u05d5\u05d3\u05d0\u05df","name:bn":"\u09a6\u0995\u09cd\u09b7\u09bf\u09a8 \u09b8\u09c1\u09a6\u09be\u09a8","name:ml":"\u0d26\u0d15\u0d4d\u0d37\u0d3f\u0d23 \u0d38\u0d41\u0d21\u0d3e\u0d7b","name:no":"S\u00f8r-Sudan","name:sw":"Sudani Kusini","name:be":"\u041f\u0430\u045e\u0434\u043d\u0451\u0432\u044b \u0421\u0443\u0434\u0430\u043d","name:su":"Sudan Kidul","name:bg":"\u042e\u0436\u0435\u043d \u0421\u0443\u0434\u0430\u043d","name:sr":"\u0408\u0443\u0436\u043d\u0438 \u0421\u0443\u0434\u0430\u043d","name:sq":"Sudani i Jugut","name:ga":"An tS\u00fad\u00e1in Theas","name:gd":"Sud\u00e0n a Deas","name:jv":"Sudan Kidul","name:gl":"Sud\u00e1n do sur","name:fa":"\u0633\u0648\u062f\u0627\u0646 \u062c\u0646\u0648\u0628\u06cc","name:tr":"G\u00fcney Sudan","name:gu":"\u0aa6\u0a95\u0acd\u0ab7\u0abf\u0aa3 \u0ab8\u0ac1\u0aa6\u0abe\u0aa8"},"coordinates":[2609,2884]},{"type":"Point","properties":{"kind":"region","name":"Upper Nile State","kind_detail":"state","name:ar":"\u0623\u0639\u0627\u0644\u064a \u0627\u0644\u0646\u064a\u0644","min_zoom":4.0,"name:de":"Obernil","source":"openstreetmap.org","name:fr":"Nil sup\u00e9rieur","name:uk":"\u0412\u0435\u0440\u0445\u043d\u0456\u0439 \u041d\u0456\u043b","name:ru":"\u0412\u0435\u0440\u0445\u043d\u0438\u0439 \u041d\u0438\u043b","name:pl":"Nil G\u00f3rny","id":321446207,"population":1300000},"coordinates":[3823,3298]},{"type":"Point","properties":{"kind":"region","name:en":"South Kurdufan State","name":"South Kurdufan State \u062c\u0646\u0648\u0628 \u0643\u0631\u062f\u0641\u0627\u0646","kind_detail":"state","name:ar":"\u062c\u0646\u0648\u0628 \u0643\u0631\u062f\u0641\u0627\u0646","min_zoom":4.0,"name:de":"S\u00fcd-Kurdufan","source":"openstreetmap.org","name:fr":"Kordofan du Sud","name:ru":"\u042e\u0436\u043d\u044b\u0439 \u041a\u043e\u0440\u0434\u043e\u0444\u0430\u043d","id":321446201,"population":1100000},"coordinates":[3095,4031]},{"type":"Point","properties":{"kind":"region","name":"Jonglei State","kind_detail":"state","name:ar":"\u062c\u0648\u0646\u0642\u0644\u064a","min_zoom":4.0,"name:de":"Jonglei","source":"openstreetmap.org","name:fr":"Jonglei","name:uk":"\u0414\u0436\u043e\u043d\u0433\u043b\u0435\u0439","name:ru":"\u0414\u0436\u043e\u043d\u0433\u043b\u0438\u0439","name:pl":"Jonglei","id":321446210,"population":800000},"coordinates":[3459,2931]},{"type":"Point","properties":{"kind":"region","name":"Western Equatoria State","kind_detail":"state","name:ar":"\u063a\u0631\u0628 \u0627\u0644\u0627\u0633\u062a\u0648\u0627\u0626\u064a\u0629","min_zoom":4.0,"name:de":"West-\u00c4quatoria","source":"openstreetmap.org","name:fr":"\u00c9quatoria occidental","name:uk":"\u0417\u0430\u0445\u0456\u0434\u043d\u0430 \u0415\u043a\u0432\u0430\u0442\u043e\u0440\u0456\u044f","name:ru":"\u0417\u0430\u043f\u0430\u0434\u043d\u0430\u044f \u042d\u043a\u0432\u0430\u0442\u043e\u0440\u0438\u044f","name:pl":"Ekwatoria Zachodnia","name:hu":"Nyugat-Equatoria","id":435374897,"population":360000},"coordinates":[2291,1930]},{"type":"Point","properties":{"kind":"region","name":"Lakes State","kind_detail":"state","name:ar":"\u0627\u0644\u0628\u062d\u064a\u0631\u0627\u062a","min_zoom":4.0,"name:de":"Seen","source":"openstreetmap.org","name:fr":"Lacs","name:uk":"\u041e\u0437\u0435\u0440\u043d\u0438\u0439","name:ru":"\u041e\u0437\u0451\u0440\u043d\u044b\u0439 \u0448\u0442\u0430\u0442","name:pl":"Lakes","id":321446197,"population":350000},"coordinates":[2667,2507]},{"type":"Point","properties":{"alt_name:ru":"\u0417\u0430\u043f\u0430\u0434\u043d\u044b\u0439 \u0412\u0435\u0440\u0445\u043d\u0438\u0439 \u041d\u0438\u043b","kind":"region","name":"Unity State","kind_detail":"state","name:ar":"\u0627\u0644\u0648\u062d\u062f\u0629\u200e","min_zoom":4.0,"source":"openstreetmap.org","name:fr":"Unit\u00e9","name:uk":"\u0415\u043b\u044c-\u0412\u0430\u0445\u0434\u0430","name:ru":"\u0415\u0434\u0438\u043d\u0441\u0442\u0432\u043e","name:pl":"Unity","id":321446196,"population":175000},"coordinates":[2731,3481]},{"type":"Point","properties":{"admin_level":"4","kind":"region","name":"Tshopo","source":"openstreetmap.org","kind_detail":"state","min_zoom":4.0,"id":4346342540},"coordinates":[970,183]},{"type":"Point","properties":{"admin_level":"4","kind":"region","name:en":"Lower Uele","name":"Bas-Uele","kind_detail":"state","min_zoom":4.0,"name:de":"Nieder-Uelle","source":"openstreetmap.org","name:fr":"Bas Uele","name:ln":"W\u025bl\u025b ya Ns\u00e9","id":4346343635},"coordinates":[806,1027]},{"type":"Point","properties":{"kind":"region","name":"Haut-Mbomou","name:sg":"T\u00f6-Mb\u00f6m\u00fc","kind_detail":"state","name:de":"Obermbomou","source":"openstreetmap.org","min_zoom":4.0,"name:uk":"\u0412\u0435\u0440\u0445\u043d\u0454 \u041c\u0431\u043e\u043c\u0443","name:ru":"\u0412\u0435\u0440\u0445\u043d\u0435\u0435 \u041c\u0431\u043e\u043c\u0443","id":2222317700},"coordinates":[1147,2327]},{"type":"Point","properties":{"kind":"region","name":"Mbomou","name:sg":"Mb\u00f6m\u00fc","kind_detail":"state","source":"openstreetmap.org","min_zoom":4.0,"name:uk":"\u041c\u0431\u043e\u043c\u0443","name:ru":"\u041c\u0431\u043e\u043c\u0443","id":2222317715},"coordinates":[344,2024]},{"type":"Point","properties":{"admin_level":"4","kind":"region","name":"Central Region","source":"openstreetmap.org","kind_detail":"state","min_zoom":4.0,"id":4345055197},"coordinates":[3687,103]},{"type":"Point","properties":{"admin_level":"4","kind":"region","name":"Eastern Region","source":"openstreetmap.org","kind_detail":"state","min_zoom":4.0,"id":4345060071},"coordinates":[3885,155]},{"type":"Point","properties":{"kind":"region","name":"Eastern Equatoria State","kind_detail":"state","name:ar":"\u0648\u0644\u0627\u064a\u0629 \u0634\u0631\u0642 \u0627\u0644\u0627\u0633\u062a\u0648\u0627\u0626\u064a\u0629","min_zoom":4.0,"name:de":"Ost-\u00c4quatoria","source":"openstreetmap.org","name:fr":"\u00c9quatoria oriental","name:uk":"\u0421\u0445\u0456\u0434\u043d\u0430 \u0415\u043a\u0432\u0430\u0442\u043e\u0440\u0456\u044f","name:ru":"\u0412\u043e\u0441\u0442\u043e\u0447\u043d\u0430\u044f \u042d\u043a\u0432\u0430\u0442\u043e\u0440\u0438\u044f","name:pl":"Ekwatoria Wschodnia","name:hu":"Kelet-Equatoria","id":2222510065},"coordinates":[4038,1936]},{"type":"Point","properties":{"admin_level":"4","kind":"region","name:en":"Upper Uele","name":"Haut-Uele","kind_detail":"state","name:de":"Ober-Uelle","source":"openstreetmap.org","min_zoom":4.0,"id":4346341650},"coordinates":[1873,1024]},{"type":"Point","properties":{"admin_level":"4","kind":"region","name":"Ituri","source":"openstreetmap.org","kind_detail":"state","min_zoom":4.0,"id":4346337654},"coordinates":[2548,672]},{"type":"Point","properties":{"admin_level":"4","kind":"region","name":"Northern Region","source":"openstreetmap.org","kind_detail":"state","min_zoom":4.0,"id":4345061984},"coordinates":[3555,1025]},{"type":"Point","properties":{"kind":"region","name":"Western Bahr el Ghazal State","kind_detail":"state","name:ar":"\u063a\u0631\u0628 \u0628\u062d\u0631 \u0627\u0644\u063a\u0632\u0627\u0644","min_zoom":4.0,"source":"openstreetmap.org","name:fr":"Bahr el Ghazal occidental","name:uk":"\u0417\u0430\u0445\u0456\u0434\u043d\u0438\u0439 \u0411\u0430\u0445\u0440-\u0435\u043b\u044c-\u0413\u0430\u0437\u0430\u043b\u044c","name:ru":"\u0417\u0430\u043f\u0430\u0434\u043d\u044b\u0439 \u0411\u0430\u0445\u0440-\u044d\u043b\u044c-\u0413\u0430\u0437\u0430\u043b\u044c","name:pl":"Bahr el Ghazal Zachodni","id":321446173},"coordinates":[1582,2657]},{"type":"Point","properties":{"kind":"region","name":"Central Equatoria State","kind_detail":"state","name:ar":"\u0627\u0644\u0627\u0633\u062a\u0648\u0627\u0626\u064a\u0629 \u0627\u0644\u0648\u0633\u0637\u0649","min_zoom":4.0,"name:de":"Zentral-\u00c4quatoria","source":"openstreetmap.org","name:fr":"\u00c9quatoria central","name:uk":"\u0426\u0435\u043d\u0442\u0440\u0430\u043b\u044c\u043d\u0430 \u0415\u043a\u0432\u0430\u0442\u043e\u0440\u0456\u044f","old_name":"Wil\u0101yat Ba\u1e29r al Jabal","name:ru":"\u0426\u0435\u043d\u0442\u0440\u0430\u043b\u044c\u043d\u0430\u044f \u042d\u043a\u0432\u0430\u0442\u043e\u0440\u0438\u044f","name:pl":"Ekwatoria \u015arodkowa","name:hu":"K\u00f6z\u00e9p-Equatoria","id":321446179,"old_name:ar":"\u062d\u0631 \u0627\u0644\u062c\u0628\u0644"},"coordinates":[3277,1832]},{"type":"Point","properties":{"kind":"region","name":"Warrap State","kind_detail":"state","name:ar":"\u0648\u0627\u0631\u0627\u0628","min_zoom":4.0,"name:de":"Warrap","source":"openstreetmap.org","name:fr":"Warab","name:uk":"\u0412\u0430\u0440\u0430\u0431","name:ru":"\u0412\u0430\u0440\u0430\u0431","name:pl":"Warrap","id":321446194},"coordinates":[2185,3115]},{"type":"Point","properties":{"kind":"region","name:en":"South Darfur State","name":"South Darfur State \u062c\u0646\u0648\u0628 \u062f\u0627\u0631\u0641\u0648\u0631","kind_detail":"state","name:ar":"\u062c\u0646\u0648\u0628 \u062f\u0627\u0631\u0641\u0648\u0631","min_zoom":4.0,"name:de":"S\u00fcd-Darfur","source":"openstreetmap.org","name:fr":"Darfour du Sud","name:ru":"\u042e\u0436\u043d\u044b\u0439 \u0414\u0430\u0440\u0444\u0443\u0440","id":321446200},"coordinates":[910,4031]},{"type":"Point","properties":{"kind":"region","name":"Haute-Kotto","name:sg":"T\u00f6-K\u00f6t\u00f6","kind_detail":"state","name:de":"Oberkotto","source":"openstreetmap.org","min_zoom":4.0,"name:uk":"\u0412\u0435\u0440\u0445\u043d\u0454 \u041a\u043e\u0442\u0442\u043e","name:ru":"\u0412\u0435\u0440\u0445\u043d\u0435\u0435 \u041a\u043e\u0442\u0442\u043e","id":2222317711},"coordinates":[156,2698]},{"type":"Point","properties":{"kind":"region","name":"Northern Bahr el Ghazal State","kind_detail":"state","name:ar":"\u0634\u0645\u0627\u0644 \u0628\u062d\u0631 \u0627\u0644\u063a\u0632\u0627\u0644","min_zoom":4.0,"source":"openstreetmap.org","name:fr":"Bahr el Ghazal du Nord","name:uk":"\u041f\u0456\u0432\u043d\u0456\u0447\u043d\u0438\u0439 \u0411\u0430\u0445\u0440-\u0435\u043b\u044c-\u0413\u0430\u0437\u0430\u043b\u044c","name:ru":"\u0421\u0435\u0432\u0435\u0440\u043d\u044b\u0439 \u0411\u0430\u0445\u0440-\u044d\u043b\u044c-\u0413\u0430\u0437\u0430\u043b\u044c","name:pl":"Bahr el Ghazal P\u00f3\u0142nocny","id":321446192},"coordinates":[1638,3298]},{"type":"Point","properties":{"source":"naturalearthdata.com","kind":"locality","name":"Kampala","country_capital":true,"population":1420000,"min_zoom":5.0,"id":6829},"coordinates":[3671,117]},{"type":"Point","properties":{"source":"naturalearthdata.com","kind":"locality","name":"Kisangani","population":578470,"region_capital":true,"min_zoom":5.0,"id":6505},"coordinates":[990,191]},{"type":"Point","properties":{"source":"naturalearthdata.com","kind":"locality","name":"Butembo","population":286403,"min_zoom":5.0,"id":6559},"coordinates":[2469,48]},{"type":"Point","properties":{"source":"naturalearthdata.com","kind":"locality","name":"Malakal","population":160765,"region_capital":true,"min_zoom":5.0,"id":6321},"coordinates":[3334,3495]},{"type":"Point","properties":{"source":"naturalearthdata.com","kind":"locality","name":"Gulu","population":146858,"region_capital":true,"min_zoom":5.0,"id":6291},"coordinates":[3561,1019]},{"type":"Point","properties":{"source":"naturalearthdata.com","kind":"locality","name":"Wau","population":127384,"region_capital":true,"min_zoom":5.0,"id":6846},"coordinates":[1999,2821]},{"type":"Point","properties":{"source":"naturalearthdata.com","kind":"locality","name":"Juba","country_capital":true,"population":111975,"min_zoom":5.0,"id":6320},"coordinates":[3306,1770]},{"type":"Point","properties":{"source":"naturalearthdata.com","kind":"locality","name":"Obo","population":12887,"region_capital":true,"min_zoom":5.0,"id":7046},"coordinates":[1456,1979]}]},"transit":{"type":"GeometryCollection","geometries":[{"type":"MultiLineString","properties":{"distance":"683","kind":"train","name:en":"Vicicongo line","name":"Aketi-Isiro-Mungbere","service":"long_distance","sort_rank":275,"source":"openstreetmap.org","min_zoom":5.0,"operator":"CFU","osm_relation":true,"network":"Vicicongo"},"arcs":[[422],[423],[424],[425]]},{"type":"LineString","properties":{"kind":"train","name":"Bumba-Aketi","service":"long_distance","sort_rank":275,"source":"openstreetmap.org","min_zoom":5.0,"operator":"CFU","osm_relation":true},"arcs":[426]}]},"pois":{"type":"GeometryCollection","geometries":[{"type":"Point","properties":{"kind":"national_park","tier":1,"protect_class":"2","area":1002870000,"source":"openstreetmap.org","min_zoom":5.81,"operator":"Uganda Wildlife Authorities","id":-4576934,"osm_relation":true,"name":"Rwenzori Mountains National Park"},"coordinates":[2726,154]}]},"boundaries":{"type":"GeometryCollection","geometries":[{"type":"MultiLineString","properties":{"source":"naturalearthdata.com","kind":"country","sort_rank":262,"kind_detail":"2","min_zoom":0.0,"id":266},"arcs":[[0],[1],[2],[3],[4],[5],[6],[7],[8],[9],[10],[11],[12],[13],[14],[15],[16],[17],[18],[19],[20],[21],[22],[23],[24],[25],[26],[27],[28],[29],[30],[31],[32],[33],[34],[35],[36],[37],[38],[39],[40],[41],[42],[43],[44],[45],[46],[47],[48],[49],[50],[51],[52],[53],[54],[55],[56],[57],[58],[59],[60],[61],[62],[63],[64],[65],[66],[67],[68],[69],[70],[71],[72],[73],[74],[75],[76],[77],[78],[79],[80],[81],[82],[83],[84],[85],[86],[87]]},{"type":"MultiLineString","properties":{"source":"naturalearthdata.com","kind":"country","sort_rank":262,"kind_detail":"2","min_zoom":0.0,"id":274},"arcs":[[88],[89],[90],[91],[92],[93],[94]]},{"type":"MultiLineString","properties":{"source":"naturalearthdata.com","kind":"country","sort_rank":262,"kind_detail":"2","min_zoom":0.0,"id":103},"arcs":[[95],[96],[97],[98],[99],[100],[101],[102],[103],[104],[105],[106],[107],[108],[109],[110],[111],[112]]},{"type":"MultiLineString","properties":{"source":"naturalearthdata.com","kind":"country","sort_rank":262,"kind_detail":"2","min_zoom":0.0,"id":104},"arcs":[[113],[114],[115],[116],[117],[118],[119],[120],[121],[122],[123],[124],[125],[126],[127],[128],[129],[130],[131],[132],[133],[134],[135],[136],[137],[138],[139],[140],[141],[142]]},{"type":"MultiLineString","properties":{"source":"naturalearthdata.com","kind":"country","sort_rank":262,"kind_detail":"2","min_zoom":0.0,"id":105},"arcs":[[143],[144],[145],[146],[147],[148],[149],[150],[151],[152],[153],[154],[155],[156],[157],[158],[159],[160],[161],[162],[163],[164],[165],[166],[167],[168],[169],[170],[171],[172],[173],[174],[175],[176],[177],[178],[179],[180],[181],[182],[183]]},{"type":"MultiLineString","properties":{"source":"naturalearthdata.com","kind":"country","sort_rank":262,"kind_detail":"2","min_zoom":0.0,"id":273},"arcs":[[184],[185],[186],[187],[188],[189],[190],[191],[192],[193],[194],[195],[196],[197],[198]]},{"type":"LineString","properties":{"source":"naturalearthdata.com","kind":"country","sort_rank":262,"kind_detail":"2","min_zoom":0.0,"id":357},"arcs":[199]},{"type":"MultiLineString","properties":{"source":"naturalearthdata.com","kind":"country","sort_rank":262,"kind_detail":"2","min_zoom":0.0,"id":384},"arcs":[[200],[201],[202],[203],[204],[205],[206],[207],[208]]},{"type":"MultiLineString","properties":{"source":"naturalearthdata.com","kind":"country","sort_rank":262,"kind_detail":"2","min_zoom":0.0,"id":395},"arcs":[[209],[210],[211],[212],[213],[214],[215],[216],[217],[218],[219],[220]]},{"type":"MultiLineString","properties":{"source":"naturalearthdata.com","kind":"disputed","sort_rank":261,"kind_detail":"2","min_zoom":0.0,"id":404},"arcs":[[221],[222]]},{"type":"MultiLineString","properties":{"source":"naturalearthdata.com","kind":"country","sort_rank":262,"kind_detail":"2","min_zoom":0.0,"id":401},"arcs":[[223],[224],[225],[226]]},{"type":"MultiLineString","properties":{"source":"naturalearthdata.com","kind":"country","sort_rank":262,"kind_detail":"2","min_zoom":0.0,"id":405},"arcs":[[227],[228],[229],[230],[231],[232],[233],[234],[235],[236],[237],[238],[239],[240],[241],[242],[243],[244],[245],[246],[247]]},{"type":"LineString","properties":{"source":"naturalearthdata.com","kind":"region","sort_rank":256,"kind_detail":"4","min_zoom":3.0,"id":1831},"arcs":[248]},{"type":"MultiLineString","properties":{"source":"naturalearthdata.com","kind":"macroregion","sort_rank":257,"kind_detail":"3","min_zoom":3.0,"id":1848},"arcs":[[249],[250],[251]]},{"type":"LineString","properties":{"source":"naturalearthdata.com","kind":"macroregion","sort_rank":257,"kind_detail":"3","min_zoom":3.0,"id":1849},"arcs":[252]},{"type":"LineString","properties":{"source":"naturalearthdata.com","kind":"macroregion","sort_rank":257,"kind_detail":"3","min_zoom":3.0,"id":1851},"arcs":[253]},{"type":"MultiLineString","properties":{"source":"naturalearthdata.com","kind":"region","sort_rank":256,"kind_detail":"4","min_zoom":5.5,"id":4405},"arcs":[[254],[255],[256],[257],[258],[259],[260],[261],[262],[263],[264],[265],[266],[267],[268],[269],[270],[271],[272],[273],[274],[275],[276],[277],[278],[279],[280],[281],[282],[283],[284],[285],[286],[287],[288],[289]]},{"type":"MultiLineString","properties":{"source":"naturalearthdata.com","kind":"region","sort_rank":256,"kind_detail":"4","min_zoom":5.5,"id":4844},"arcs":[[290],[291],[292],[293],[294]]},{"type":"MultiLineString","properties":{"source":"naturalearthdata.com","kind":"region","sort_rank":256,"kind_detail":"4","min_zoom":5.5,"id":4849},"arcs":[[295],[296],[297],[298],[299],[300],[301],[302],[303],[304],[305],[306],[307]]},{"type":"MultiLineString","properties":{"source":"naturalearthdata.com","kind":"region","sort_rank":256,"kind_detail":"4","min_zoom":3.0,"id":1845},"arcs":[[308],[309]]},{"type":"MultiLineString","properties":{"source":"naturalearthdata.com","kind":"macroregion","sort_rank":257,"kind_detail":"3","min_zoom":3.0,"id":1817},"arcs":[[310],[311],[312]]},{"type":"LineString","properties":{"source":"naturalearthdata.com","kind":"macroregion","sort_rank":257,"kind_detail":"3","min_zoom":3.0,"id":1818},"arcs":[313]},{"type":"MultiLineString","properties":{"source":"naturalearthdata.com","kind":"region","sort_rank":256,"kind_detail":"4","min_zoom":3.0,"id":1819},"arcs":[[314],[315],[316]]},{"type":"MultiLineString","properties":{"source":"naturalearthdata.com","kind":"region","sort_rank":256,"kind_detail":"4","min_zoom":3.0,"id":1820},"arcs":[[317],[318]]},{"type":"MultiLineString","properties":{"source":"naturalearthdata.com","kind":"macroregion","sort_rank":257,"kind_detail":"3","min_zoom":3.0,"id":1821},"arcs":[[319],[320]]},{"type":"LineString","properties":{"source":"naturalearthdata.com","kind":"macroregion","sort_rank":257,"kind_detail":"3","min_zoom":3.0,"id":1822},"arcs":[321]},{"type":"LineString","properties":{"source":"naturalearthdata.com","kind":"region","sort_rank":256,"kind_detail":"4","min_zoom":3.0,"id":1846},"arcs":[322]},{"type":"LineString","properties":{"source":"naturalearthdata.com","kind":"region","sort_rank":256,"kind_detail":"4","min_zoom":3.0,"id":1828},"arcs":[323]},{"type":"MultiLineString","properties":{"source":"naturalearthdata.com","kind":"macroregion","sort_rank":257,"kind_detail":"3","min_zoom":3.0,"id":1841},"arcs":[[324],[325],[326]]},{"type":"MultiLineString","properties":{"source":"naturalearthdata.com","kind":"region","sort_rank":256,"kind_detail":"4","min_zoom":3.0,"id":1842},"arcs":[[327],[328],[329],[330],[331],[332],[333],[334],[335],[336],[337],[338],[339],[340],[341]]},{"type":"MultiLineString","properties":{"source":"naturalearthdata.com","kind":"region","sort_rank":256,"kind_detail":"4","min_zoom":3.0,"id":1843},"arcs":[[342],[343],[344],[345],[346]]},{"type":"MultiLineString","properties":{"source":"naturalearthdata.com","kind":"macroregion","sort_rank":257,"kind_detail":"3","min_zoom":3.0,"id":1844},"arcs":[[347],[348],[349]]},{"type":"MultiLineString","properties":{"source":"naturalearthdata.com","kind":"macroregion","sort_rank":257,"kind_detail":"3","min_zoom":3.0,"id":1847},"arcs":[[350],[351],[352]]},{"type":"MultiLineString","properties":{"source":"naturalearthdata.com","kind":"region","sort_rank":256,"kind_detail":"4","min_zoom":3.0,"id":1850},"arcs":[[353],[354],[355]]},{"type":"LineString","properties":{"source":"naturalearthdata.com","kind":"region","sort_rank":256,"kind_detail":"4","min_zoom":3.0,"id":1852},"arcs":[356]},{"type":"MultiLineString","properties":{"source":"naturalearthdata.com","kind":"region","sort_rank":256,"kind_detail":"4","min_zoom":5.5,"id":4408},"arcs":[[357],[358],[359],[360],[361],[362],[363],[364],[365],[366],[367],[368],[369],[370],[371],[372],[373],[374],[375],[376],[377],[378],[379],[380]]},{"type":"MultiLineString","properties":{"source":"naturalearthdata.com","kind":"region","sort_rank":256,"kind_detail":"4","min_zoom":5.5,"id":4846},"arcs":[[381],[382],[383],[384],[385],[386],[387]]},{"type":"MultiLineString","properties":{"source":"naturalearthdata.com","kind":"region","sort_rank":256,"kind_detail":"4","min_zoom":5.5,"id":4850},"arcs":[[388],[389],[390],[391],[392],[393],[394],[395],[396],[397],[398],[399],[400],[401],[402],[403],[404],[405],[406],[407],[408],[409],[410],[411],[412],[413],[414],[415],[416],[417],[418],[419],[420]]},{"type":"LineString","properties":{"source":"naturalearthdata.com","kind":"region","sort_rank":256,"kind_detail":"4","min_zoom":3.0,"id":9791},"arcs":[421]}]},"roads":{"type":"GeometryCollection","geometries":[{"type":"LineString","properties":{"source":"naturalearthdata.com","kind":"major_road","sort_rank":379,"kind_detail":"secondary","min_zoom":4.0,"id":37696},"arcs":[449]},{"type":"LineString","properties":{"source":"naturalearthdata.com","kind":"major_road","sort_rank":379,"kind_detail":"secondary","min_zoom":4.0,"id":37706},"arcs":[450]},{"type":"LineString","properties":{"source":"naturalearthdata.com","kind":"major_road","sort_rank":379,"kind_detail":"secondary","min_zoom":4.0,"id":37716},"arcs":[451]},{"type":"LineString","properties":{"source":"naturalearthdata.com","kind":"major_road","sort_rank":379,"kind_detail":"secondary","min_zoom":4.0,"id":37720},"arcs":[452]},{"type":"LineString","properties":{"source":"naturalearthdata.com","kind":"major_road","sort_rank":379,"kind_detail":"secondary","min_zoom":4.0,"id":37722},"arcs":[453]},{"type":"LineString","properties":{"source":"naturalearthdata.com","kind":"major_road","sort_rank":379,"kind_detail":"secondary","min_zoom":4.0,"id":37781},"arcs":[454]},{"type":"LineString","properties":{"source":"naturalearthdata.com","kind":"major_road","sort_rank":379,"kind_detail":"secondary","min_zoom":4.0,"id":37920},"arcs":[455]},{"type":"LineString","properties":{"source":"naturalearthdata.com","kind":"minor_road","sort_rank":355,"kind_detail":"tertiary","min_zoom":5.0,"id":37957},"arcs":[456]},{"type":"LineString","properties":{"source":"naturalearthdata.com","kind":"minor_road","sort_rank":355,"kind_detail":"tertiary","min_zoom":5.0,"id":38049},"arcs":[457]},{"type":"LineString","properties":{"source":"naturalearthdata.com","kind":"major_road","sort_rank":379,"kind_detail":"secondary","min_zoom":4.0,"id":38051},"arcs":[458]},{"type":"LineString","properties":{"source":"naturalearthdata.com","kind":"minor_road","sort_rank":355,"kind_detail":"tertiary","min_zoom":5.0,"id":38140},"arcs":[459]},{"type":"LineString","properties":{"source":"naturalearthdata.com","kind":"major_road","sort_rank":379,"kind_detail":"secondary","min_zoom":4.0,"id":38215},"arcs":[460]},{"type":"LineString","properties":{"source":"naturalearthdata.com","kind":"major_road","sort_rank":379,"kind_detail":"secondary","min_zoom":4.0,"id":38412},"arcs":[461]},{"type":"LineString","properties":{"source":"naturalearthdata.com","kind":"major_road","sort_rank":379,"kind_detail":"secondary","min_zoom":4.0,"id":38476},"arcs":[462]},{"type":"LineString","properties":{"source":"naturalearthdata.com","kind":"major_road","sort_rank":379,"kind_detail":"secondary","min_zoom":4.0,"id":38490},"arcs":[463]},{"type":"LineString","properties":{"source":"naturalearthdata.com","kind":"major_road","sort_rank":379,"kind_detail":"secondary","min_zoom":4.0,"id":38529},"arcs":[464]},{"type":"LineString","properties":{"source":"naturalearthdata.com","kind":"major_road","sort_rank":379,"kind_detail":"secondary","min_zoom":4.0,"id":38552},"arcs":[465]},{"type":"LineString","properties":{"source":"naturalearthdata.com","kind":"major_road","sort_rank":379,"kind_detail":"secondary","min_zoom":4.0,"id":38602},"arcs":[466]},{"type":"LineString","properties":{"source":"naturalearthdata.com","kind":"minor_road","sort_rank":355,"kind_detail":"tertiary","min_zoom":5.0,"id":38603},"arcs":[467]},{"type":"LineString","properties":{"source":"naturalearthdata.com","kind":"major_road","sort_rank":379,"kind_detail":"secondary","min_zoom":4.0,"id":38616},"arcs":[468]},{"type":"LineString","properties":{"source":"naturalearthdata.com","kind":"major_road","sort_rank":379,"kind_detail":"secondary","min_zoom":4.0,"id":38917},"arcs":[469]},{"type":"LineString","properties":{"source":"naturalearthdata.com","kind":"major_road","sort_rank":379,"kind_detail":"secondary","min_zoom":4.0,"id":39071},"arcs":[470]},{"type":"LineString","properties":{"source":"naturalearthdata.com","kind":"minor_road","sort_rank":355,"kind_detail":"tertiary","min_zoom":5.0,"id":39099},"arcs":[471]},{"type":"LineString","properties":{"source":"naturalearthdata.com","kind":"major_road","sort_rank":379,"kind_detail":"secondary","min_zoom":4.0,"id":39263},"arcs":[472]},{"type":"LineString","properties":{"source":"naturalearthdata.com","kind":"major_road","sort_rank":379,"kind_detail":"secondary","min_zoom":4.0,"id":39349},"arcs":[473]},{"type":"LineString","properties":{"source":"naturalearthdata.com","kind":"major_road","sort_rank":379,"kind_detail":"secondary","min_zoom":4.0,"id":39445},"arcs":[474]},{"type":"LineString","properties":{"source":"naturalearthdata.com","kind":"minor_road","sort_rank":355,"kind_detail":"tertiary","min_zoom":5.0,"id":39514},"arcs":[475]},{"type":"LineString","properties":{"source":"naturalearthdata.com","kind":"major_road","sort_rank":379,"kind_detail":"secondary","min_zoom":4.0,"id":39617},"arcs":[476]},{"type":"LineString","properties":{"source":"naturalearthdata.com","kind":"major_road","sort_rank":379,"kind_detail":"secondary","min_zoom":4.0,"id":39654},"arcs":[477]},{"type":"LineString","properties":{"source":"naturalearthdata.com","kind":"major_road","sort_rank":379,"kind_detail":"secondary","min_zoom":4.0,"id":39782},"arcs":[478]},{"type":"LineString","properties":{"source":"naturalearthdata.com","kind":"minor_road","sort_rank":355,"kind_detail":"tertiary","min_zoom":5.0,"id":39784},"arcs":[479]},{"type":"LineString","properties":{"source":"naturalearthdata.com","kind":"major_road","kind_detail":"secondary","sort_rank":379,"landuse_kind":"protected_area","min_zoom":4.0,"id":39913},"arcs":[480]},{"type":"MultiLineString","properties":{"source":"naturalearthdata.com","kind":"major_road","sort_rank":379,"kind_detail":"secondary","min_zoom":4.0,"id":39913},"arcs":[[481],[482]]},{"type":"LineString","properties":{"source":"naturalearthdata.com","kind":"major_road","sort_rank":379,"kind_detail":"secondary","min_zoom":4.0,"id":39959},"arcs":[483]},{"type":"LineString","properties":{"source":"naturalearthdata.com","kind":"major_road","kind_detail":"secondary","sort_rank":379,"landuse_kind":"protected_area","min_zoom":4.0,"id":39966},"arcs":[484]},{"type":"MultiLineString","properties":{"source":"naturalearthdata.com","kind":"major_road","sort_rank":379,"kind_detail":"secondary","min_zoom":4.0,"id":39966},"arcs":[[485],[486]]},{"type":"LineString","properties":{"source":"naturalearthdata.com","kind":"minor_road","sort_rank":355,"kind_detail":"tertiary","min_zoom":5.0,"id":40088},"arcs":[487]},{"type":"LineString","properties":{"source":"naturalearthdata.com","kind":"minor_road","sort_rank":355,"kind_detail":"tertiary","min_zoom":5.0,"id":40101},"arcs":[488]},{"type":"LineString","properties":{"source":"naturalearthdata.com","kind":"minor_road","sort_rank":355,"kind_detail":"tertiary","min_zoom":5.0,"id":40108},"arcs":[489]},{"type":"LineString","properties":{"source":"naturalearthdata.com","kind":"minor_road","sort_rank":355,"kind_detail":"tertiary","min_zoom":5.0,"id":40109},"arcs":[490]},{"type":"LineString","properties":{"source":"naturalearthdata.com","kind":"major_road","sort_rank":379,"kind_detail":"secondary","min_zoom":4.0,"id":40119},"arcs":[491]},{"type":"LineString","properties":{"source":"naturalearthdata.com","kind":"major_road","sort_rank":379,"kind_detail":"secondary","min_zoom":4.0,"id":40175},"arcs":[492]},{"type":"LineString","properties":{"source":"naturalearthdata.com","kind":"major_road","sort_rank":379,"kind_detail":"secondary","min_zoom":4.0,"id":40212},"arcs":[493]},{"type":"LineString","properties":{"source":"naturalearthdata.com","kind":"major_road","sort_rank":379,"kind_detail":"secondary","min_zoom":4.0,"id":40213},"arcs":[494]},{"type":"LineString","properties":{"source":"naturalearthdata.com","kind":"major_road","sort_rank":379,"kind_detail":"secondary","min_zoom":4.0,"id":40246},"arcs":[495]},{"type":"LineString","properties":{"source":"naturalearthdata.com","kind":"major_road","sort_rank":379,"kind_detail":"secondary","min_zoom":4.0,"id":40263},"arcs":[496]},{"type":"LineString","properties":{"source":"naturalearthdata.com","kind":"major_road","sort_rank":379,"kind_detail":"secondary","min_zoom":4.0,"id":40287},"arcs":[497]},{"type":"LineString","properties":{"source":"naturalearthdata.com","kind":"major_road","sort_rank":379,"kind_detail":"secondary","min_zoom":4.0,"id":40288},"arcs":[498]},{"type":"LineString","properties":{"source":"naturalearthdata.com","kind":"major_road","sort_rank":379,"kind_detail":"secondary","min_zoom":4.0,"id":40305},"arcs":[499]},{"type":"LineString","properties":{"source":"naturalearthdata.com","kind":"major_road","sort_rank":379,"kind_detail":"secondary","min_zoom":4.0,"id":40309},"arcs":[500]},{"type":"LineString","properties":{"source":"naturalearthdata.com","kind":"minor_road","sort_rank":355,"kind_detail":"tertiary","min_zoom":5.0,"id":40311},"arcs":[501]},{"type":"LineString","properties":{"source":"naturalearthdata.com","kind":"major_road","sort_rank":379,"kind_detail":"secondary","min_zoom":4.0,"id":40331},"arcs":[502]},{"type":"LineString","properties":{"source":"naturalearthdata.com","kind":"minor_road","sort_rank":355,"kind_detail":"tertiary","min_zoom":5.0,"id":40334},"arcs":[503]},{"type":"LineString","properties":{"source":"naturalearthdata.com","kind":"minor_road","sort_rank":355,"kind_detail":"tertiary","min_zoom":5.0,"id":40345},"arcs":[504]},{"type":"LineString","properties":{"source":"naturalearthdata.com","kind":"major_road","sort_rank":379,"kind_detail":"secondary","min_zoom":4.0,"id":40374},"arcs":[505]},{"type":"MultiLineString","properties":{"source":"naturalearthdata.com","kind":"major_road","kind_detail":"secondary","sort_rank":379,"landuse_kind":"protected_area","min_zoom":4.0,"id":40375},"arcs":[[506],[507]]},{"type":"MultiLineString","properties":{"source":"naturalearthdata.com","kind":"major_road","sort_rank":379,"kind_detail":"secondary","min_zoom":4.0,"id":40375},"arcs":[[508],[509],[510]]},{"type":"LineString","properties":{"source":"naturalearthdata.com","kind":"major_road","sort_rank":379,"kind_detail":"secondary","min_zoom":4.0,"id":40381},"arcs":[511]},{"type":"LineString","properties":{"source":"naturalearthdata.com","kind":"major_road","sort_rank":379,"kind_detail":"secondary","min_zoom":4.0,"id":40411},"arcs":[512]},{"type":"LineString","properties":{"source":"naturalearthdata.com","kind":"major_road","sort_rank":379,"kind_detail":"secondary","min_zoom":4.0,"id":40430},"arcs":[513]},{"type":"LineString","properties":{"source":"naturalearthdata.com","kind":"major_road","sort_rank":379,"kind_detail":"secondary","min_zoom":4.0,"id":40439},"arcs":[514]},{"type":"LineString","properties":{"source":"naturalearthdata.com","kind":"major_road","sort_rank":379,"kind_detail":"secondary","min_zoom":4.0,"id":40442},"arcs":[515]},{"type":"LineString","properties":{"source":"naturalearthdata.com","kind":"major_road","sort_rank":379,"kind_detail":"secondary","min_zoom":4.0,"id":40449},"arcs":[516]},{"type":"LineString","properties":{"source":"naturalearthdata.com","kind":"minor_road","sort_rank":355,"kind_detail":"tertiary","min_zoom":5.0,"id":40465},"arcs":[517]},{"type":"LineString","properties":{"source":"naturalearthdata.com","kind":"minor_road","sort_rank":355,"kind_detail":"tertiary","min_zoom":5.0,"id":40467},"arcs":[518]},{"type":"LineString","properties":{"source":"naturalearthdata.com","kind":"major_road","sort_rank":379,"kind_detail":"secondary","min_zoom":4.0,"id":40478},"arcs":[519]},{"type":"LineString","properties":{"source":"naturalearthdata.com","kind":"major_road","sort_rank":379,"kind_detail":"secondary","min_zoom":4.0,"id":40498},"arcs":[520]},{"type":"LineString","properties":{"source":"naturalearthdata.com","kind":"major_road","sort_rank":379,"kind_detail":"secondary","min_zoom":4.0,"id":40502},"arcs":[521]},{"type":"LineString","properties":{"source":"naturalearthdata.com","kind":"major_road","sort_rank":379,"kind_detail":"secondary","min_zoom":4.0,"id":40505},"arcs":[522]},{"type":"LineString","properties":{"source":"naturalearthdata.com","kind":"major_road","sort_rank":379,"kind_detail":"secondary","min_zoom":4.0,"id":40514},"arcs":[523]},{"type":"LineString","properties":{"source":"naturalearthdata.com","kind":"major_road","sort_rank":379,"kind_detail":"secondary","min_zoom":4.0,"id":40521},"arcs":[524]},{"type":"LineString","properties":{"source":"naturalearthdata.com","kind":"major_road","sort_rank":379,"kind_detail":"secondary","min_zoom":4.0,"id":40528},"arcs":[525]},{"type":"LineString","properties":{"source":"naturalearthdata.com","kind":"major_road","sort_rank":379,"kind_detail":"secondary","min_zoom":4.0,"id":40553},"arcs":[526]},{"type":"LineString","properties":{"source":"naturalearthdata.com","kind":"major_road","sort_rank":379,"kind_detail":"secondary","min_zoom":4.0,"id":40561},"arcs":[527]},{"type":"LineString","properties":{"source":"naturalearthdata.com","kind":"major_road","sort_rank":379,"kind_detail":"secondary","min_zoom":4.0,"id":40586},"arcs":[528]},{"type":"LineString","properties":{"source":"naturalearthdata.com","kind":"major_road","sort_rank":379,"kind_detail":"secondary","min_zoom":4.0,"id":40593},"arcs":[529]},{"type":"LineString","properties":{"source":"naturalearthdata.com","kind":"major_road","sort_rank":379,"kind_detail":"secondary","min_zoom":4.0,"id":40650},"arcs":[530]},{"type":"LineString","properties":{"source":"naturalearthdata.com","kind":"major_road","sort_rank":379,"kind_detail":"secondary","min_zoom":4.0,"id":40652},"arcs":[531]},{"type":"LineString","properties":{"source":"naturalearthdata.com","kind":"major_road","sort_rank":379,"kind_detail":"secondary","min_zoom":4.0,"id":40655},"arcs":[532]},{"type":"LineString","properties":{"source":"naturalearthdata.com","kind":"major_road","sort_rank":379,"kind_detail":"secondary","min_zoom":4.0,"id":40682},"arcs":[533]},{"type":"LineString","properties":{"source":"naturalearthdata.com","kind":"major_road","sort_rank":379,"kind_detail":"secondary","min_zoom":4.0,"id":40714},"arcs":[534]},{"type":"LineString","properties":{"source":"naturalearthdata.com","kind":"major_road","sort_rank":379,"kind_detail":"secondary","min_zoom":4.0,"id":40740},"arcs":[535]},{"type":"LineString","properties":{"source":"naturalearthdata.com","kind":"minor_road","sort_rank":355,"kind_detail":"tertiary","min_zoom":5.0,"id":40767},"arcs":[536]},{"type":"LineString","properties":{"source":"naturalearthdata.com","kind":"major_road","sort_rank":379,"kind_detail":"secondary","min_zoom":4.0,"id":40773},"arcs":[537]},{"type":"LineString","properties":{"source":"naturalearthdata.com","kind":"minor_road","sort_rank":355,"kind_detail":"tertiary","min_zoom":5.0,"id":40783},"arcs":[538]},{"type":"LineString","properties":{"source":"naturalearthdata.com","kind":"minor_road","sort_rank":355,"kind_detail":"tertiary","min_zoom":5.0,"id":40794},"arcs":[539]},{"type":"LineString","properties":{"source":"naturalearthdata.com","kind":"major_road","sort_rank":379,"kind_detail":"secondary","min_zoom":4.0,"id":40796},"arcs":[540]},{"type":"LineString","properties":{"source":"naturalearthdata.com","kind":"major_road","sort_rank":379,"kind_detail":"secondary","min_zoom":4.0,"id":40802},"arcs":[541]},{"type":"MultiLineString","properties":{"source":"naturalearthdata.com","kind":"major_road","kind_detail":"secondary","sort_rank":379,"landuse_kind":"park","min_zoom":4.0,"id":40834},"arcs":[[542],[543]]},{"type":"MultiLineString","properties":{"source":"naturalearthdata.com","kind":"major_road","sort_rank":379,"kind_detail":"secondary","min_zoom":4.0,"id":40834},"arcs":[[544],[545],[546]]},{"type":"LineString","properties":{"source":"naturalearthdata.com","kind":"minor_road","sort_rank":355,"kind_detail":"tertiary","min_zoom":5.0,"id":40836},"arcs":[547]},{"type":"LineString","properties":{"source":"naturalearthdata.com","kind":"minor_road","sort_rank":355,"kind_detail":"tertiary","min_zoom":5.0,"id":40845},"arcs":[548]},{"type":"LineString","properties":{"source":"naturalearthdata.com","kind":"major_road","sort_rank":379,"kind_detail":"secondary","min_zoom":4.0,"id":40854},"arcs":[549]},{"type":"LineString","properties":{"source":"naturalearthdata.com","kind":"major_road","sort_rank":379,"kind_detail":"secondary","min_zoom":4.0,"id":40869},"arcs":[550]},{"type":"LineString","properties":{"source":"naturalearthdata.com","kind":"major_road","sort_rank":379,"kind_detail":"secondary","min_zoom":4.0,"id":40871},"arcs":[551]},{"type":"LineString","properties":{"source":"naturalearthdata.com","kind":"major_road","sort_rank":379,"kind_detail":"secondary","min_zoom":4.0,"id":40880},"arcs":[552]},{"type":"LineString","properties":{"source":"naturalearthdata.com","kind":"minor_road","sort_rank":355,"kind_detail":"tertiary","min_zoom":5.0,"id":40886},"arcs":[553]},{"type":"LineString","properties":{"source":"naturalearthdata.com","kind":"minor_road","sort_rank":355,"kind_detail":"tertiary","min_zoom":5.0,"id":40894},"arcs":[554]},{"type":"LineString","properties":{"source":"naturalearthdata.com","kind":"major_road","sort_rank":379,"kind_detail":"secondary","min_zoom":4.0,"id":40897},"arcs":[555]},{"type":"LineString","properties":{"source":"naturalearthdata.com","kind":"major_road","sort_rank":379,"kind_detail":"secondary","min_zoom":4.0,"id":40898},"arcs":[556]},{"type":"LineString","properties":{"source":"naturalearthdata.com","kind":"major_road","sort_rank":379,"kind_detail":"secondary","min_zoom":4.0,"id":40900},"arcs":[557]},{"type":"LineString","properties":{"source":"naturalearthdata.com","kind":"major_road","sort_rank":379,"kind_detail":"secondary","min_zoom":4.0,"id":40904},"arcs":[558]},{"type":"LineString","properties":{"source":"naturalearthdata.com","kind":"major_road","sort_rank":379,"kind_detail":"secondary","min_zoom":4.0,"id":40930},"arcs":[559]},{"type":"LineString","properties":{"source":"naturalearthdata.com","kind":"major_road","sort_rank":379,"kind_detail":"secondary","min_zoom":4.0,"id":40935},"arcs":[560]},{"type":"LineString","properties":{"source":"naturalearthdata.com","kind":"major_road","sort_rank":379,"kind_detail":"secondary","min_zoom":4.0,"id":40938},"arcs":[561]},{"type":"LineString","properties":{"source":"naturalearthdata.com","kind":"major_road","sort_rank":379,"kind_detail":"secondary","min_zoom":4.0,"id":40939},"arcs":[562]},{"type":"LineString","properties":{"source":"naturalearthdata.com","kind":"major_road","sort_rank":379,"kind_detail":"secondary","min_zoom":4.0,"id":40945},"arcs":[563]},{"type":"LineString","properties":{"source":"naturalearthdata.com","kind":"major_road","sort_rank":379,"kind_detail":"secondary","min_zoom":4.0,"id":40949},"arcs":[564]},{"type":"MultiLineString","properties":{"source":"naturalearthdata.com","kind":"major_road","kind_detail":"secondary","sort_rank":379,"landuse_kind":"nature_reserve","min_zoom":4.0,"id":40968},"arcs":[[565],[566],[567]]},{"type":"MultiLineString","properties":{"source":"naturalearthdata.com","kind":"major_road","sort_rank":379,"kind_detail":"secondary","min_zoom":4.0,"id":40968},"arcs":[[568],[569],[570],[571]]},{"type":"LineString","properties":{"source":"naturalearthdata.com","kind":"major_road","sort_rank":379,"kind_detail":"secondary","min_zoom":4.0,"id":40971},"arcs":[572]},{"type":"LineString","properties":{"source":"naturalearthdata.com","kind":"minor_road","sort_rank":355,"kind_detail":"tertiary","min_zoom":5.0,"id":40992},"arcs":[573]},{"type":"LineString","properties":{"source":"naturalearthdata.com","kind":"major_road","sort_rank":379,"kind_detail":"secondary","min_zoom":4.0,"id":40994},"arcs":[574]},{"type":"LineString","properties":{"source":"naturalearthdata.com","kind":"major_road","sort_rank":379,"kind_detail":"secondary","min_zoom":4.0,"id":40995},"arcs":[575]},{"type":"LineString","properties":{"source":"naturalearthdata.com","kind":"major_road","sort_rank":379,"kind_detail":"secondary","min_zoom":4.0,"id":41004},"arcs":[576]},{"type":"LineString","properties":{"source":"naturalearthdata.com","kind":"major_road","sort_rank":379,"kind_detail":"secondary","min_zoom":4.0,"id":41005},"arcs":[577]},{"type":"LineString","properties":{"source":"naturalearthdata.com","kind":"major_road","sort_rank":379,"kind_detail":"secondary","min_zoom":4.0,"id":41007},"arcs":[578]},{"type":"LineString","properties":{"source":"naturalearthdata.com","kind":"major_road","sort_rank":379,"kind_detail":"secondary","min_zoom":4.0,"id":41009},"arcs":[579]},{"type":"LineString","properties":{"source":"naturalearthdata.com","kind":"major_road","sort_rank":379,"kind_detail":"secondary","min_zoom":4.0,"id":41010},"arcs":[580]},{"type":"LineString","properties":{"source":"naturalearthdata.com","kind":"major_road","sort_rank":379,"kind_detail":"secondary","min_zoom":4.0,"id":41013},"arcs":[581]},{"type":"LineString","properties":{"source":"naturalearthdata.com","kind":"major_road","sort_rank":379,"kind_detail":"secondary","min_zoom":4.0,"id":41019},"arcs":[582]},{"type":"LineString","properties":{"source":"naturalearthdata.com","kind":"minor_road","sort_rank":355,"kind_detail":"tertiary","min_zoom":5.0,"id":41024},"arcs":[583]},{"type":"LineString","properties":{"source":"naturalearthdata.com","kind":"major_road","sort_rank":379,"kind_detail":"secondary","min_zoom":4.0,"id":41027},"arcs":[584]},{"type":"LineString","properties":{"source":"naturalearthdata.com","kind":"major_road","sort_rank":379,"kind_detail":"secondary","min_zoom":4.0,"id":41033},"arcs":[585]},{"type":"LineString","properties":{"source":"naturalearthdata.com","kind":"major_road","sort_rank":379,"kind_detail":"secondary","min_zoom":4.0,"id":41072},"arcs":[586]},{"type":"LineString","properties":{"source":"naturalearthdata.com","kind":"major_road","sort_rank":379,"kind_detail":"secondary","min_zoom":4.0,"id":41083},"arcs":[587]},{"type":"LineString","properties":{"source":"naturalearthdata.com","kind":"major_road","sort_rank":379,"kind_detail":"secondary","min_zoom":4.0,"id":41092},"arcs":[588]},{"type":"LineString","properties":{"source":"naturalearthdata.com","kind":"major_road","kind_detail":"secondary","sort_rank":379,"landuse_kind":"nature_reserve","min_zoom":4.0,"id":41100},"arcs":[589]},{"type":"MultiLineString","properties":{"source":"naturalearthdata.com","kind":"major_road","sort_rank":379,"kind_detail":"secondary","min_zoom":4.0,"id":41100},"arcs":[[590],[591]]},{"type":"LineString","properties":{"source":"naturalearthdata.com","kind":"major_road","sort_rank":379,"kind_detail":"secondary","min_zoom":4.0,"id":41116},"arcs":[592]},{"type":"LineString","properties":{"source":"naturalearthdata.com","kind":"major_road","sort_rank":379,"kind_detail":"secondary","min_zoom":4.0,"id":41120},"arcs":[593]},{"type":"LineString","properties":{"source":"naturalearthdata.com","kind":"major_road","sort_rank":379,"kind_detail":"secondary","min_zoom":4.0,"id":41122},"arcs":[594]},{"type":"LineString","properties":{"source":"naturalearthdata.com","kind":"major_road","sort_rank":379,"kind_detail":"secondary","min_zoom":4.0,"id":41126},"arcs":[595]},{"type":"LineString","properties":{"source":"naturalearthdata.com","kind":"major_road","sort_rank":379,"kind_detail":"secondary","min_zoom":4.0,"id":41154},"arcs":[596]},{"type":"LineString","properties":{"source":"naturalearthdata.com","kind":"major_road","sort_rank":379,"kind_detail":"secondary","min_zoom":4.0,"id":41162},"arcs":[597]},{"type":"LineString","properties":{"source":"naturalearthdata.com","kind":"major_road","sort_rank":379,"kind_detail":"secondary","min_zoom":4.0,"id":41164},"arcs":[598]},{"type":"LineString","properties":{"source":"naturalearthdata.com","kind":"major_road","sort_rank":379,"kind_detail":"secondary","min_zoom":4.0,"id":41175},"arcs":[599]},{"type":"LineString","properties":{"source":"naturalearthdata.com","kind":"major_road","sort_rank":379,"kind_detail":"secondary","min_zoom":4.0,"id":41188},"arcs":[600]},{"type":"LineString","properties":{"source":"naturalearthdata.com","kind":"major_road","sort_rank":379,"kind_detail":"secondary","min_zoom":4.0,"id":41195},"arcs":[601]},{"type":"LineString","properties":{"source":"naturalearthdata.com","kind":"major_road","sort_rank":379,"kind_detail":"secondary","min_zoom":4.0,"id":41196},"arcs":[602]},{"type":"LineString","properties":{"source":"naturalearthdata.com","kind":"major_road","sort_rank":379,"kind_detail":"secondary","min_zoom":4.0,"id":41208},"arcs":[603]},{"type":"LineString","properties":{"source":"naturalearthdata.com","kind":"major_road","sort_rank":379,"kind_detail":"secondary","min_zoom":4.0,"id":41213},"arcs":[604]},{"type":"LineString","properties":{"source":"naturalearthdata.com","kind":"major_road","kind_detail":"secondary","sort_rank":379,"landuse_kind":"protected_area","min_zoom":4.0,"id":41215},"arcs":[605]},{"type":"MultiLineString","properties":{"source":"naturalearthdata.com","kind":"major_road","sort_rank":379,"kind_detail":"secondary","min_zoom":4.0,"id":41215},"arcs":[[606],[607]]},{"type":"LineString","properties":{"source":"naturalearthdata.com","kind":"major_road","sort_rank":379,"kind_detail":"secondary","min_zoom":4.0,"id":41220},"arcs":[608]},{"type":"LineString","properties":{"source":"naturalearthdata.com","kind":"major_road","sort_rank":379,"kind_detail":"secondary","min_zoom":4.0,"id":41222},"arcs":[609]},{"type":"LineString","properties":{"source":"naturalearthdata.com","kind":"major_road","sort_rank":379,"kind_detail":"secondary","min_zoom":4.0,"id":41287},"arcs":[610]},{"type":"LineString","properties":{"source":"naturalearthdata.com","kind":"major_road","sort_rank":379,"kind_detail":"secondary","min_zoom":4.0,"id":41303},"arcs":[611]},{"type":"LineString","properties":{"source":"naturalearthdata.com","kind":"major_road","sort_rank":379,"kind_detail":"secondary","min_zoom":4.0,"id":41304},"arcs":[612]},{"type":"LineString","properties":{"source":"naturalearthdata.com","kind":"major_road","sort_rank":379,"kind_detail":"secondary","min_zoom":4.0,"id":41320},"arcs":[613]},{"type":"LineString","properties":{"source":"naturalearthdata.com","kind":"major_road","sort_rank":379,"kind_detail":"secondary","min_zoom":4.0,"id":41366},"arcs":[614]},{"type":"LineString","properties":{"source":"naturalearthdata.com","kind":"major_road","sort_rank":379,"kind_detail":"secondary","min_zoom":4.0,"id":41369},"arcs":[615]},{"type":"LineString","properties":{"source":"naturalearthdata.com","kind":"major_road","sort_rank":379,"kind_detail":"secondary","min_zoom":4.0,"id":41372},"arcs":[616]},{"type":"LineString","properties":{"source":"naturalearthdata.com","kind":"major_road","sort_rank":379,"kind_detail":"secondary","min_zoom":4.0,"id":41376},"arcs":[617]},{"type":"LineString","properties":{"source":"naturalearthdata.com","kind":"major_road","sort_rank":379,"kind_detail":"secondary","min_zoom":4.0,"id":41377},"arcs":[618]},{"type":"LineString","properties":{"source":"naturalearthdata.com","kind":"major_road","sort_rank":379,"kind_detail":"secondary","min_zoom":3.0,"id":41380},"arcs":[619]},{"type":"LineString","properties":{"source":"naturalearthdata.com","kind":"major_road","sort_rank":379,"kind_detail":"secondary","min_zoom":3.0,"id":41401},"arcs":[620]},{"type":"LineString","properties":{"source":"naturalearthdata.com","kind":"major_road","sort_rank":379,"kind_detail":"secondary","min_zoom":4.0,"id":41403},"arcs":[621]},{"type":"LineString","properties":{"source":"naturalearthdata.com","kind":"major_road","sort_rank":379,"kind_detail":"secondary","min_zoom":4.0,"id":41408},"arcs":[622]},{"type":"LineString","properties":{"source":"naturalearthdata.com","kind":"major_road","sort_rank":379,"kind_detail":"secondary","min_zoom":4.0,"id":41409},"arcs":[623]},{"type":"LineString","properties":{"source":"naturalearthdata.com","kind":"major_road","sort_rank":379,"kind_detail":"secondary","min_zoom":4.0,"id":41411},"arcs":[624]},{"type":"LineString","properties":{"source":"naturalearthdata.com","kind":"major_road","sort_rank":379,"kind_detail":"secondary","min_zoom":3.0,"id":41419},"arcs":[625]},{"type":"LineString","properties":{"source":"naturalearthdata.com","kind":"major_road","sort_rank":379,"kind_detail":"secondary","min_zoom":4.0,"id":41423},"arcs":[626]},{"type":"LineString","properties":{"source":"naturalearthdata.com","kind":"major_road","sort_rank":379,"kind_detail":"secondary","min_zoom":4.0,"id":41424},"arcs":[627]},{"type":"LineString","properties":{"source":"naturalearthdata.com","kind":"major_road","sort_rank":379,"kind_detail":"secondary","min_zoom":4.0,"id":41425},"arcs":[628]},{"type":"LineString","properties":{"source":"naturalearthdata.com","kind":"major_road","sort_rank":379,"kind_detail":"secondary","min_zoom":3.0,"id":41431},"arcs":[629]},{"type":"LineString","properties":{"source":"naturalearthdata.com","kind":"major_road","sort_rank":379,"kind_detail":"secondary","min_zoom":4.0,"id":41436},"arcs":[630]},{"type":"LineString","properties":{"source":"naturalearthdata.com","kind":"major_road","sort_rank":379,"kind_detail":"secondary","min_zoom":4.0,"id":41441},"arcs":[631]},{"type":"LineString","properties":{"source":"naturalearthdata.com","kind":"major_road","kind_detail":"secondary","sort_rank":379,"landuse_kind":"urban_area","min_zoom":3.0,"id":41452},"arcs":[632]},{"type":"LineString","properties":{"source":"naturalearthdata.com","kind":"major_road","sort_rank":379,"kind_detail":"secondary","min_zoom":3.0,"id":41452},"arcs":[633]},{"type":"LineString","properties":{"source":"naturalearthdata.com","kind":"major_road","sort_rank":379,"kind_detail":"secondary","min_zoom":4.0,"id":41458},"arcs":[634]},{"type":"LineString","properties":{"source":"naturalearthdata.com","kind":"major_road","kind_detail":"secondary","sort_rank":379,"landuse_kind":"urban_area","min_zoom":3.0,"id":41459},"arcs":[635]},{"type":"LineString","properties":{"source":"naturalearthdata.com","kind":"major_road","kind_detail":"secondary","sort_rank":379,"landuse_kind":"urban_area","min_zoom":4.0,"id":41460},"arcs":[636]},{"type":"LineString","properties":{"source":"naturalearthdata.com","kind":"major_road","sort_rank":379,"kind_detail":"secondary","min_zoom":4.0,"id":41460},"arcs":[637]},{"type":"LineString","properties":{"source":"naturalearthdata.com","kind":"major_road","kind_detail":"secondary","sort_rank":379,"landuse_kind":"urban_area","min_zoom":3.0,"id":41470},"arcs":[638]},{"type":"LineString","properties":{"source":"naturalearthdata.com","kind":"major_road","sort_rank":379,"kind_detail":"secondary","min_zoom":3.0,"id":41470},"arcs":[639]},{"type":"LineString","properties":{"source":"naturalearthdata.com","kind":"major_road","sort_rank":379,"kind_detail":"secondary","min_zoom":4.0,"id":41471},"arcs":[640]},{"type":"LineString","properties":{"source":"naturalearthdata.com","kind":"major_road","sort_rank":379,"kind_detail":"secondary","min_zoom":3.0,"id":41498},"arcs":[641]},{"type":"LineString","properties":{"source":"naturalearthdata.com","kind":"major_road","sort_rank":379,"kind_detail":"secondary","min_zoom":4.0,"id":41500},"arcs":[642]},{"type":"LineString","properties":{"source":"naturalearthdata.com","kind":"major_road","kind_detail":"secondary","sort_rank":379,"landuse_kind":"park","min_zoom":4.0,"id":41533},"arcs":[643]},{"type":"MultiLineString","properties":{"source":"naturalearthdata.com","kind":"major_road","sort_rank":379,"kind_detail":"secondary","min_zoom":4.0,"id":41533},"arcs":[[644],[645]]},{"type":"LineString","properties":{"source":"naturalearthdata.com","kind":"major_road","sort_rank":379,"kind_detail":"secondary","min_zoom":4.0,"id":41573},"arcs":[646]},{"type":"LineString","properties":{"source":"naturalearthdata.com","kind":"major_road","sort_rank":379,"kind_detail":"secondary","min_zoom":3.0,"id":41602},"arcs":[647]},{"type":"LineString","properties":{"source":"naturalearthdata.com","kind":"major_road","sort_rank":379,"kind_detail":"secondary","min_zoom":4.0,"id":41689},"arcs":[648]},{"type":"LineString","properties":{"source":"naturalearthdata.com","kind":"major_road","sort_rank":379,"kind_detail":"secondary","min_zoom":4.0,"id":41696},"arcs":[649]},{"type":"LineString","properties":{"source":"naturalearthdata.com","kind":"major_road","sort_rank":379,"kind_detail":"secondary","min_zoom":4.0,"id":42234},"arcs":[650]}]},"earth":{"type":"GeometryCollection","geometries":[{"type":"MultiPolygon","properties":{"sort_rank":10,"source":"naturalearthdata.com","min_zoom":0.0,"kind":"earth","area":5884203654491},"arcs":[[[651]]]}]},"landuse":{"type":"GeometryCollection","geometries":[{"type":"Polygon","properties":{"kind":"protected_area","name":"Ez Zeraf Game Reserve","area":10399599616,"sort_rank":17,"source":"openstreetmap.org","min_zoom":4.0,"tier":2,"id":234502678,"protect_class":"6"},"arcs":[[652]]},{"type":"Polygon","properties":{"kind":"protected_area","name":"Shambe National Park","area":1811180032,"sort_rank":17,"source":"openstreetmap.org","min_zoom":4.0,"tier":2,"id":-3117891,"osm_relation":true,"protect_class":"2"},"arcs":[[653]]},{"type":"Polygon","properties":{"kind":"protected_area","name":"Mushra Game Reserve","area":4927589888,"sort_rank":17,"source":"openstreetmap.org","min_zoom":4.0,"tier":2,"id":237889740,"protect_class":"6"},"arcs":[[654]]},{"type":"Polygon","properties":{"kind":"park","name":"R\u00e9serve de chasse de Mondo Missa","area":1881949952,"sort_rank":24,"source":"openstreetmap.org","min_zoom":4.0,"tier":2,"id":-7731419,"osm_relation":true},"arcs":[[655]]},{"type":"Polygon","properties":{"kind":"park","name":"Parc National de la Garamba","area":5052100096,"sort_rank":24,"source":"openstreetmap.org","min_zoom":4.0,"tier":2,"id":-401345,"osm_relation":true},"arcs":[[656]]},{"type":"Polygon","properties":{"kind":"national_park","name":"Semliki National Park","area":221864992,"sort_rank":18,"operator":"Uganda Wildlife Authorities","source":"openstreetmap.org","min_zoom":5.0,"tier":1,"id":-4576935,"osm_relation":true,"protect_class":"2"},"arcs":[[657]]},{"type":"Polygon","properties":{"kind":"nature_reserve","name":"Kidepo Valley National Park","area":1651410048,"sort_rank":23,"operator":"Uganda Wildlife Authorities","source":"openstreetmap.org","min_zoom":4.0,"tier":2,"id":-2270428,"osm_relation":true,"protect_class":"2"},"arcs":[[658]]},{"type":"Polygon","properties":{"kind":"park","name":"R\u00e9serve de chasse d'Azande","area":4559300096,"sort_rank":24,"source":"openstreetmap.org","min_zoom":4.0,"tier":2,"id":-7737577,"osm_relation":true},"arcs":[[659]]},{"type":"Polygon","properties":{"kind":"protected_area","name":"Chelkou Game Reserve","area":6691299840,"sort_rank":17,"source":"openstreetmap.org","min_zoom":4.0,"tier":2,"id":-3205792,"osm_relation":true,"protect_class":"4"},"arcs":[[660]]},{"type":"Polygon","properties":{"kind":"protected_area","name":"Boma National Park","area":19556499456,"sort_rank":17,"source":"openstreetmap.org","min_zoom":4.0,"tier":2,"id":-2315387,"osm_relation":true},"arcs":[[661]]},{"type":"Polygon","properties":{"kind":"national_park","name":"Gambela National Park","area":4489659904,"sort_rank":18,"source":"openstreetmap.org","min_zoom":3.0,"tier":1,"id":-3307578,"osm_relation":true,"protect_class":"2"},"arcs":[[662]]},{"type":"Polygon","properties":{"kind":"park","name":"Parc National de la Maiko","area":11042599936,"sort_rank":24,"source":"openstreetmap.org","min_zoom":4.0,"tier":2,"id":-401960,"osm_relation":true},"arcs":[[663]]},{"type":"MultiPolygon","properties":{"source":"naturalearthdata.com","kind":"urban_area","name":"","area":6631590786,"sort_rank":11,"min_zoom":4.0},"arcs":[[[664]]]},{"type":"Polygon","properties":{"kind":"protected_area","name":"Numatina Game Reserve","area":3095079936,"sort_rank":17,"source":"openstreetmap.org","min_zoom":4.0,"tier":2,"id":237889701,"protect_class":"6"},"arcs":[[665]]},{"type":"Polygon","properties":{"kind":"protected_area","name":"Sudd","area":24266700800,"sort_rank":17,"source":"openstreetmap.org","min_zoom":4.0,"tier":2,"id":-3418592,"osm_relation":true,"protect_class":"98"},"arcs":[[666],[667],[668]]},{"type":"Polygon","properties":{"kind":"nature_reserve","name":"Murchison Falls National Park","area":3903439872,"sort_rank":23,"operator":"Uganda Wildlife Authority","source":"openstreetmap.org","min_zoom":4.0,"tier":2,"id":-2316689,"osm_relation":true,"protect_class":"2"},"arcs":[[669]]},{"type":"Polygon","properties":{"kind":"park","name":"Lantoto National Park","area":1455289984,"sort_rank":24,"source":"openstreetmap.org","min_zoom":4.0,"tier":2,"id":-3189400,"osm_relation":true},"arcs":[[670]]},{"type":"Polygon","properties":{"kind":"national_park","name":"Rwenzori Mountains National Park","area":1002870016,"sort_rank":18,"operator":"Uganda Wildlife Authorities","source":"openstreetmap.org","min_zoom":3.0,"tier":1,"id":-4576934,"osm_relation":true,"protect_class":"2"},"arcs":[[671]]},{"type":"Polygon","properties":{"kind":"park","name":"R\u00e9serve de chasse de Gangala na Bodio","area":3894550016,"sort_rank":24,"source":"openstreetmap.org","min_zoom":4.0,"tier":2,"id":-7746867,"osm_relation":true},"arcs":[[672]]},{"type":"MultiPolygon","properties":{"kind":"park","name":"Queen Elizabeth National Park","area":3388300032,"sort_rank":24,"operator":"Uganda Wildlife Authorities","source":"openstreetmap.org","min_zoom":4.0,"tier":2,"id":-6712007,"osm_relation":true},"arcs":[[[673]]]},{"type":"Polygon","properties":{"kind":"protected_area","name":"Southern National Park","area":19614500864,"sort_rank":17,"source":"openstreetmap.org","min_zoom":4.0,"tier":2,"id":-2316733,"osm_relation":true,"protect_class":"2"},"arcs":[[674]]},{"type":"Polygon","properties":{"kind":"park","name":"Parc National des Virunga","area":7863309824,"sort_rank":24,"operator":"ICCN","source":"openstreetmap.org","min_zoom":4.0,"tier":2,"id":-404784,"osm_relation":true},"arcs":[[675]]},{"type":"Polygon","properties":{"kind":"protected_area","name":"R\u00e9serve de faune \u00e0 okapis","area":14033899520,"sort_rank":17,"source":"openstreetmap.org","min_zoom":4.0,"tier":2,"id":-401017,"osm_relation":true},"arcs":[[676]]},{"type":"Polygon","properties":{"kind":"protected_area","name":"Badingilo National Park","area":9092299776,"sort_rank":17,"source":"openstreetmap.org","min_zoom":4.0,"tier":2,"id":-2314986,"osm_relation":true},"arcs":[[677]]}]}},"type":"Topology","transform":{"translate":[22.5,-0.0],"scale":[0.002746582,0.002729102]},"arcs":[[[1108,1970],[7,-1]],[[1094,1958],[9,3],[4,1],[-3,6],[4,2]],[[1122,1969],[3,-4],[1,-5],[3,-3]],[[1115,1969],[5,0],[2,0]],[[1086,1963],[1,-1],[4,-4],[3,0]],[[1061,1951],[8,2],[16,9],[1,1]],[[1137,1957],[-1,-1],[-1,-2],[-1,-1],[-2,-1],[0,-3],[5,-3]],[[1129,1957],[8,0]],[[1054,1954],[7,-3]],[[970,1834],[23,2],[4,2],[4,3],[16,1],[5,2],[4,4],[1,3],[0,9],[2,4],[5,7],[1,2],[0,4],[2,7],[0,3],[-3,2],[-7,1],[-2,2],[-3,8],[3,6],[5,5],[2,5],[1,8],[2,8],[5,5],[7,2],[-4,7],[2,2],[6,2],[3,4]],[[1147,1949],[2,0],[3,-4],[1,0],[1,-1],[8,-2],[5,-4],[10,-11],[4,-3],[5,-2]],[[1137,1946],[3,0],[2,3],[5,0]],[[1194,1931],[5,-3],[1,-9]],[[1186,1922],[5,0],[4,5],[-5,2],[4,2]],[[1322,1927],[5,-3],[2,-4],[3,-3]],[[1315,1919],[3,2],[2,2],[2,4]],[[1307,1922],[1,-1],[2,-1],[2,0],[3,-1]],[[1309,1909],[-1,3],[-1,10]],[[1207,1922],[-1,-5],[1,-4],[1,-2],[3,-8]],[[1200,1919],[1,1],[4,1],[2,1]],[[1347,1919],[3,-11],[2,-3]],[[1341,1915],[4,3],[2,1]],[[1337,1919],[1,-1],[2,-2],[1,-1]],[[1332,1917],[5,2]],[[1264,1916],[5,-1],[4,-3],[6,-7],[5,-3]],[[1259,1904],[0,7],[2,3],[3,2]],[[1219,1912],[9,0],[4,-5],[3,-7],[7,-6]],[[1211,1903],[4,2],[3,5],[1,2]],[[1302,1911],[4,0],[3,-2]],[[1297,1905],[2,1],[1,4],[2,1]],[[1357,1907],[-1,-2],[1,-6]],[[1352,1905],[5,2]],[[1254,1907],[5,-3]],[[1242,1894],[0,8],[5,4],[7,1]],[[1665,1907],[16,-2],[15,-5],[30,-15],[8,-2],[8,-1],[6,-2],[5,-3],[5,-4],[5,-4],[3,-1],[4,-1],[7,0],[4,-1],[5,-4],[3,0],[10,-4]],[[1590,1846],[2,1],[4,5],[2,3],[4,9],[1,3],[11,11],[10,10],[11,7],[13,7],[17,5]],[[1293,1905],[4,0]],[[1284,1902],[4,3],[5,0]],[[1364,1902],[3,-7],[7,-5],[7,-3],[9,-1]],[[1357,1899],[1,1],[4,1],[2,1]],[[1417,1887],[3,-6],[5,-4],[6,-3],[4,-4],[7,-14],[1,-2],[4,-1],[10,-4],[7,0]],[[1406,1882],[3,2],[8,3]],[[1397,1887],[6,-1],[3,-4]],[[1390,1886],[7,1]],[[690,1877],[2,-4],[4,-11],[2,-3],[5,-2]],[[638,1806],[3,0],[3,3],[0,2],[0,4],[2,4],[4,10],[0,1],[4,3],[26,4],[7,3],[4,5],[0,5],[-9,2],[-4,3],[2,8],[5,9],[5,5]],[[713,1871],[8,-1],[3,-1],[9,-5],[7,-5],[2,-3],[3,-7],[3,-3],[3,-1],[9,-2],[5,-1],[3,-4],[0,-7],[2,-4],[5,-3],[10,-4],[5,-4],[-4,-6],[-2,-4],[4,-2],[24,-2]],[[703,1857],[1,3],[0,5],[1,4],[8,2]],[[1544,1867],[5,-1],[2,-2],[15,-16],[3,-2]],[[1514,1859],[3,2],[5,4],[4,2],[18,0]],[[1492,1862],[6,-1],[3,-4]],[[1481,1854],[4,5],[7,3]],[[1509,1861],[5,-2]],[[1501,1857],[3,0],[2,4],[3,0]],[[1479,1857],[2,-3]],[[1464,1849],[3,1],[4,2],[5,2],[3,3]],[[1577,1852],[3,-1],[2,-2],[1,-2],[1,-1],[6,0]],[[1569,1846],[2,1],[4,4],[2,1]],[[957,1839],[4,0],[3,-2],[2,-1],[4,-2]],[[938,1814],[3,1],[2,8],[4,7],[2,2],[3,1],[3,2],[2,4]],[[899,1829],[14,-4],[12,-7],[13,-4]],[[855,1809],[7,3],[13,8],[9,2],[2,1],[6,5],[3,1],[4,0]],[[630,1818],[6,-3],[2,-9]],[[602,1796],[3,2],[11,14],[6,4],[8,2]],[[845,1812],[2,-1],[4,-2],[4,0]],[[829,1802],[5,1],[3,3],[4,4],[4,2]],[[825,1806],[4,-4]],[[812,1802],[7,0],[6,4]],[[586,1804],[4,-2],[7,-5],[5,-1]],[[538,1779],[7,4],[18,8],[10,8],[6,4],[7,1]],[[531,1785],[2,-1],[5,-5]],[[527,1765],[0,5],[-2,4],[0,4],[2,3],[1,3],[3,1]],[[169,1772],[5,-1],[3,-2],[4,-10],[4,-8],[1,-6],[2,-4],[5,-2],[5,-1],[4,-2],[4,-3],[4,-3],[8,-4]],[[156,1766],[5,2],[4,2],[4,2]],[[503,1769],[16,-4],[8,0]],[[493,1764],[4,1],[4,3],[2,1]],[[148,1768],[3,-1],[5,-1]],[[129,1726],[4,10],[8,7],[3,3],[-3,4],[-2,5],[0,4],[3,5],[3,3],[3,1]],[[479,1766],[5,0],[7,-2],[2,0]],[[333,1682],[3,1],[2,3],[0,3],[0,3],[1,4],[2,7],[4,4],[6,3],[9,1],[6,3],[22,17],[8,4],[17,4],[14,8],[7,2],[17,2],[8,3],[14,10],[6,2]],[[243,1736],[6,-5],[9,-12],[4,-3],[2,-1],[10,-6],[4,-11],[3,-1],[9,-1],[1,-1],[1,-2],[4,-4],[1,-1],[7,0],[7,-1],[6,-2],[6,-4]],[[218,1726],[9,2],[16,8]],[[110,1733],[6,-2],[7,-4],[6,-1]],[[56,1643],[8,0],[5,3],[2,3],[1,4],[0,9],[1,2],[5,4],[1,2],[1,2],[3,6],[1,3],[0,3],[-3,8],[0,4],[6,3],[4,4],[3,5],[3,5],[4,13],[3,5],[6,2]],[[326,1682],[7,0]],[[323,1681],[3,1]],[[40,1643],[16,0]],[[0,1532],[4,4],[3,5],[1,2],[7,6],[2,4],[0,3],[-3,7],[0,5],[11,19],[3,4],[4,1],[4,3],[4,4],[1,4],[0,3],[-7,7],[-2,7],[0,10],[2,9],[6,4]],[[20,4023],[-7,0],[-9,8]],[[4,4031],[-3,-3]],[[1,4028],[-1,0]],[[50,4021],[-3,1],[-7,3],[-3,1]],[[37,4026],[-9,-1],[-8,-2]],[[131,4001],[-20,2],[-22,7],[-9,8],[-13,3],[-4,0]],[[63,4021],[-13,0]],[[131,4001],[1,-10],[52,-75],[38,-27],[66,-64],[61,-97],[60,-98],[8,-16],[10,-63],[-1,-14],[-5,-11],[-14,-21],[-4,-10],[0,-4],[3,-9],[1,-5],[0,-12],[1,-3],[3,-5]],[[413,3457],[2,-1],[2,-2],[1,-3],[-10,-28],[0,-7],[4,-11],[0,-6],[-3,-4],[-5,-4],[-14,-17],[-8,-8],[-4,-3],[-6,-1]],[[411,3457],[2,0]],[[372,3362],[-12,1]],[[360,3363],[-5,-3],[-4,-6],[-2,-3],[-8,-46],[1,-9],[4,-8],[10,-5]],[[380,3297],[6,-1],[3,-7],[-1,-13],[-4,-21],[-7,-10],[-15,-17],[-4,-10],[-1,-8],[3,-10],[6,-8],[7,-4]],[[356,3283],[10,1],[14,13]],[[399,3200],[6,0],[6,-3],[6,-4],[4,-1]],[[373,3188],[6,2],[8,6],[5,3],[7,1]],[[475,3196],[23,-5]],[[445,3189],[6,1],[11,6],[13,0]],[[518,3193],[14,-6],[7,-1]],[[498,3191],[20,2]],[[433,3192],[12,-3]],[[421,3192],[12,0]],[[550,3187],[38,-6]],[[539,3186],[11,1]],[[588,3181],[20,3]],[[625,3185],[7,-4],[-1,-5],[-7,-10],[-1,-5],[3,-5],[10,-8],[1,-4],[-2,-4],[-15,-9],[-4,-5],[-20,-34],[-4,-12],[-2,-12],[4,-11],[8,-9],[10,-8],[9,-5],[6,-2],[13,-3],[2,0],[6,-1]],[[608,3184],[4,0],[13,1]],[[703,3031],[9,-9],[1,-3],[2,-2],[3,-2],[3,-1],[12,-7],[11,0]],[[667,3021],[24,9],[12,1]],[[654,3029],[2,0],[3,-2],[6,-5],[2,-1]],[[648,3029],[6,0]],[[770,3011],[20,-4],[8,0],[7,-1],[11,-6],[21,-3],[12,-5],[31,-29],[4,-6],[1,-13],[7,-7],[1,-7],[2,-3],[2,-2],[3,-2],[3,-2],[18,-19],[11,-9],[11,-4]],[[744,3007],[26,4]],[[964,2892],[9,-1],[3,-2],[2,-2],[2,-2],[9,-3],[5,-5],[3,-6],[4,-11],[6,-10],[1,-6],[1,-6],[-2,-15],[2,-6],[2,-5],[1,-5],[-2,-7],[-8,-7],[-24,-8],[-8,-8],[0,-4],[2,-6],[8,-18],[21,-12],[5,-3],[2,-3],[4,-5],[2,-3],[3,-2],[6,-1],[2,-2],[3,-5],[3,-11],[2,-5],[3,-6],[5,-3],[21,-10],[14,-11],[9,-5]],[[943,2889],[5,1],[11,2],[5,0]],[[1092,2665],[6,-1],[6,-4],[16,-15],[6,-3],[22,-5],[7,-3],[9,-7],[3,-1]],[[1085,2662],[7,3]],[[1174,2626],[4,-2],[5,-5],[4,-1],[9,-1],[2,-3],[0,-5],[4,-6],[5,-1],[17,-2],[6,-3],[1,-3],[1,-7],[2,-3],[11,-7],[4,-1],[7,-1],[4,-1],[2,-3],[0,-2],[1,-3],[4,-1],[17,-1],[2,-9],[1,-19],[4,-8],[2,-1]],[[1167,2626],[7,0]],[[1300,2528],[1,-1],[0,-2],[-1,-3],[0,-2],[2,-5],[0,-4],[2,-4],[4,-4],[8,-5],[6,-2],[6,-3],[11,-14],[15,-10],[6,-7],[13,-6],[21,-8],[18,-10],[0,-8],[1,-4],[-3,-4],[-6,-11],[-12,-16],[-7,-14],[-3,-3],[-3,-2],[-4,-3],[-2,-4],[7,-2],[0,-6],[-2,-6],[-1,-7],[3,-8],[4,-3],[5,-2],[7,-4],[6,-6],[9,-12],[7,-4],[15,-4],[6,-4],[1,-9],[0,-9],[4,-2]],[[1293,2527],[2,0],[2,1],[3,0]],[[1449,2281],[6,-1],[5,-6],[0,-7],[-4,-7],[-6,-5],[-6,-4],[-7,-5],[-6,-6],[-3,-7],[1,-8]],[[1444,2281],[5,0]],[[1449,2237],[7,-2],[4,-6],[3,-8],[4,-7],[5,-4],[22,-8],[11,-1]],[[1429,2225],[6,2],[14,10]],[[1531,2202],[26,-10],[7,-4],[3,-5],[3,-17],[2,-6],[9,-4]],[[1505,2201],[26,1]],[[1595,2159],[5,-1],[3,-8],[5,-7],[8,0]],[[1581,2156],[8,1],[6,2]],[[1632,2147],[3,-4],[5,-11],[6,-5],[3,-5],[3,-2],[3,0]],[[1616,2143],[16,4]],[[1665,2122],[15,-6],[3,-2],[3,-6],[0,-4],[2,-3],[7,-2],[5,-3],[5,-5],[3,-5],[1,-6],[0,-3],[1,-3],[2,-1],[6,-4],[0,-2],[-1,-3],[0,-6],[-2,-5],[0,-3],[3,-3],[1,-1]],[[1655,2120],[7,2],[3,0]],[[1729,2049],[3,-2],[1,-3],[0,-7],[0,-3],[-14,-40],[-1,-6],[1,-5],[2,-9],[2,-18],[2,-5],[10,-24],[6,-10],[7,-10],[21,-14],[10,-8],[6,-15],[10,-7],[4,-5]],[[1719,2046],[2,1],[2,0],[1,1],[2,1],[3,0]],[[1799,1858],[1,-5],[-3,-16],[2,-2],[2,-2],[3,-1],[2,-1],[12,-9],[3,-3],[1,-4],[2,-8],[2,-3],[6,-6],[8,-2],[32,-4],[6,-4],[5,-9],[3,-15],[2,-6],[5,-4]],[[1906,1756],[3,-2],[3,-3],[3,-5],[1,-3],[2,-8],[-3,-21],[0,-15],[2,-9],[3,-6],[1,0],[9,-2],[3,-1],[4,-3],[6,-7],[5,-3],[2,0]],[[1893,1754],[3,0],[7,2],[3,0]],[[2539,1712],[7,-1],[2,-1],[4,-4],[1,-1]],[[2471,1606],[6,2],[6,8],[3,9],[4,5],[19,17],[4,6],[3,8],[3,8],[2,4],[7,6],[0,5],[0,3],[1,7],[1,12],[3,5],[6,1]],[[2561,1708],[5,-1],[11,-5],[10,0],[5,-1],[15,-7],[4,-3],[11,-10],[5,-3],[3,0]],[[2553,1705],[6,2],[2,1]],[[2638,1680],[2,-1],[9,-5],[3,-2],[5,-3],[-2,-3],[-1,-3],[-2,-2],[-2,-3],[0,-4],[3,-6],[0,-3],[0,-4],[-4,-11],[0,-16],[4,-13],[10,-8]],[[2630,1678],[8,2]],[[1977,1675],[2,-1],[3,-4],[3,-1]],[[1969,1667],[2,0],[1,2],[0,1],[1,1],[-1,1],[1,1],[4,2]],[[1989,1670],[19,-3],[1,-4],[-2,-6],[-1,-8],[0,-4],[1,-3],[1,-3],[1,-4],[12,-16]],[[1985,1669],[4,1]],[[1961,1670],[2,-1],[6,-2]],[[1950,1668],[11,2]],[[2278,1669],[5,-2],[5,-7],[0,-8],[2,-7],[9,-4]],[[2202,1602],[3,1],[3,3],[1,4],[1,4],[5,3],[15,3],[5,4],[6,8],[15,29],[3,0],[7,0],[5,3],[3,3],[4,2]],[[2362,1647],[2,-3],[18,-11],[4,-2],[1,-5]],[[2331,1641],[8,1],[23,5]],[[2314,1642],[17,-1]],[[2299,1641],[4,0],[11,1]],[[2034,1628],[6,0],[2,-3],[1,-7],[11,-13],[6,-7],[7,-5],[14,-2]],[[2021,1619],[3,1],[6,6],[4,2]],[[2388,1626],[14,-6],[5,-3],[23,-24],[8,-4]],[[2387,1626],[1,0]],[[2464,1608],[7,-2]],[[2438,1589],[9,2],[3,5],[1,7],[4,5],[9,0]],[[2192,1603],[3,0],[4,-1],[3,0]],[[2141,1567],[9,0],[7,5],[7,7],[14,18],[5,4],[9,2]],[[2113,1595],[12,-9],[3,-8],[2,-5],[3,-4],[8,-2]],[[2081,1591],[17,3],[15,1]],[[2680,1593],[8,-1],[9,-6],[8,-7],[4,-8],[-1,-3],[-3,-4],[-2,-4],[0,-4],[3,-4],[4,-1]],[[2663,1593],[17,0]],[[2714,1551],[4,0],[9,-6],[5,-6],[9,-17],[5,-8],[6,-3],[15,-3],[8,-5],[4,-7],[2,-8],[3,-9],[9,-10],[3,-4],[0,-4],[0,-4],[1,-4],[3,-3],[6,-2],[23,-1],[25,-8],[29,-17],[14,-5],[3,0],[8,-1]],[[2710,1551],[4,0]],[[2918,1418],[4,-1],[5,-9],[9,-54],[-1,-7],[-2,-15],[-2,-4],[-2,-2],[-1,-2],[4,-3],[3,-1],[4,-1]],[[2908,1416],[3,1],[4,1],[3,0]],[[3003,1347],[6,-5],[2,-4],[1,-12],[2,-6],[5,-4],[11,-4],[6,-7],[-4,-18],[4,-8]],[[2983,1331],[8,4],[6,7],[6,5]],[[2973,1331],[10,0]],[[2939,1319],[7,1],[5,2],[11,6],[7,2],[4,1]],[[4093,3066],[3,0]],[[4007,3105],[6,-3],[5,-5],[6,-2]],[[3973,3096],[25,3],[3,2],[0,1],[-2,3],[8,0]],[[4041,3101],[8,-1],[11,-9],[7,-13],[9,-10],[17,-2]],[[4024,3095],[7,1],[5,3],[5,2]],[[3915,3099],[39,-8]],[[3867,2852],[-5,1],[-8,3],[-10,1],[-2,1],[-2,3],[-1,3],[-1,3],[-7,4],[-3,6],[-9,24],[2,4],[4,5],[1,1],[1,3],[2,2],[2,3],[1,7],[2,4],[5,6],[21,21],[2,4],[1,4],[1,3],[2,2],[11,1],[6,3],[4,4],[3,5],[1,7],[-1,2],[-5,4],[-1,2],[0,5],[1,4],[1,3],[3,4],[3,3],[4,1],[2,2],[1,4],[-5,2],[-3,2],[-3,4],[-3,3],[-2,4],[-1,4],[0,3],[3,7],[1,4],[0,1],[-4,3],[0,1],[0,2],[2,2],[0,2],[0,6],[1,3],[1,3],[5,2],[6,1],[3,3],[-2,2],[0,1],[11,9],[6,1]],[[3969,3097],[4,-1]],[[3954,3091],[4,1],[5,4],[3,1],[3,0]],[[3949,2828],[-20,6],[-6,5],[-6,7],[-6,5],[-3,1],[-12,2],[-10,4],[-3,0]],[[3883,2858],[-12,-2],[-2,-1],[-2,-3]],[[4031,2816],[-8,2],[-3,3],[-5,7],[-4,3],[-4,2],[-6,2],[-3,2],[-7,3]],[[3991,2840],[-9,-1],[-16,-3],[-3,-2],[-9,-5],[-5,-1]],[[4096,2790],[-7,10],[-5,6],[-4,1],[-11,4],[-10,6],[-4,1]],[[4055,2818],[-24,-2]],[[131,4001],[15,52],[2,3],[6,7],[1,4],[0,7],[1,7],[2,7],[4,8]],[[4096,1463],[-18,-18],[-34,-35],[-27,-27],[-2,-1],[-13,-8],[-16,-2]],[[3986,1372],[-59,3],[-33,2],[-11,2],[-8,4],[-46,38],[-7,3]],[[3822,1424],[-7,-3],[-22,-16],[-28,-15],[-31,-9],[-57,-5],[-67,-5],[-16,-4],[-67,-41],[-4,-5],[0,-5],[1,-13],[0,-5],[-1,-6],[-1,-2],[-2,-3],[-4,0]],[[3516,1287],[-23,4],[-6,4],[-6,5],[-2,4],[-5,8],[-4,2],[-3,0],[-29,2],[-5,3],[-2,6],[-1,17],[-2,7],[-5,8],[-26,29],[-8,8],[-3,1],[-7,3],[-1,0]],[[3378,1398],[-1,-2],[-29,-32],[-3,-4],[-7,-2],[-38,-6],[-6,-3],[-4,-6],[-1,0],[-4,-3]],[[3285,1340],[-6,1],[-47,25],[-30,17],[-14,5],[-15,2],[-17,0]],[[3156,1390],[-10,-3],[-13,-11],[-10,-7],[-3,-2],[-7,-1],[-4,-1],[-11,-9],[-5,-3],[-3,0]],[[3090,1353],[-8,0]],[[3082,1353],[-3,-1],[-4,-4],[-2,-4],[-1,-4],[-2,-4],[-24,-36],[-8,-15],[-2,-6]],[[3057,1290],[5,-9],[0,-3],[-3,-11],[1,-4],[4,-7],[0,-5],[-2,-8],[-2,-2],[-3,-4],[-10,-12],[-7,-12],[-1,-2],[0,-4],[-2,-2],[-1,-1],[-5,-1],[-1,-1],[-7,-13],[-14,-45],[-6,-17],[-2,-7],[1,-7],[4,-6],[17,-12],[7,-6],[8,-14],[4,-15],[-1,-14],[-9,-25],[-2,-4],[-2,0],[-4,-1],[-1,-1],[-1,-2],[0,-4],[-1,-2],[-12,-33],[-1,-5],[0,-1],[-1,-3],[-7,-11],[-2,-4],[0,-7],[1,-13],[0,-7],[-3,-6],[-4,-7],[-4,-8],[1,-6],[6,-2],[25,0],[4,-2],[1,-4],[-1,-6],[1,-5],[4,-6],[6,-8],[7,-6],[6,-2]],[[3036,1279],[8,3],[7,6],[6,2]],[[3070,881],[13,0],[6,-4],[21,-23],[1,-1],[0,-3],[0,-2],[-2,-1],[-1,-2],[2,-3],[5,-3],[16,-3],[5,0]],[[3048,855],[11,5],[5,11],[6,10]],[[3159,844],[1,-16],[1,-8],[3,-6],[8,-6],[20,-12],[4,-6],[1,-1],[0,-1],[-3,-17],[-11,-19],[-22,-28],[-23,-29],[-8,-11],[-26,-32],[-26,-22],[-50,-40],[-49,-40],[-31,-40],[-16,-21],[-27,-35],[-7,-6],[-5,-4],[-5,-2],[-7,-2],[-5,0]],[[3136,836],[6,1],[17,7]],[[2876,440],[-8,1]],[[2868,441],[-4,-1],[-7,-4],[-4,-8],[-4,-4]],[[2849,424],[-7,2],[-4,4],[-3,0]],[[2835,430],[-3,-1],[-3,-1],[-11,-12],[-1,-2],[-1,-8],[-1,-4],[-1,-3],[-5,-4],[0,-7],[2,-15],[-2,-7],[-9,-9],[-1,-6],[-1,-1],[-7,-12],[-4,-5],[-3,-2],[-39,-9],[-16,-7],[-5,-4],[-8,-6],[-5,-3],[-6,-14],[-1,-4],[2,-19],[-4,-31],[-1,-8],[7,-29],[1,-14],[-5,-12],[-1,-2],[-7,-8],[-20,-23],[-4,-7],[-2,-8],[-12,-60],[-1,-3],[-4,-2]],[[2653,58],[-2,1],[-3,2],[-4,2]],[[2644,63],[-2,-4],[-16,-23],[-3,-9],[-1,-7],[4,-16],[1,-4]],[[2310,3417],[-1,0],[-145,1],[-145,1],[-18,20],[-37,77]],[[2363,3513],[-28,-21],[-23,-23],[-8,-15],[0,-15],[1,-13],[5,-9]],[[4096,3780],[-23,19],[-79,65],[-29,34],[-3,3],[-4,2],[-80,29],[-4,3],[0,4],[3,6],[10,17],[1,4],[1,7],[-16,123]],[[3603,4096],[14,-26],[-1,-9],[-6,-12],[-86,-72],[-86,-73],[-5,-6],[-24,-61],[-22,-35],[-10,-10],[-40,-49],[-78,-78],[-79,-77],[-25,-10],[-78,-4],[0,-1],[-42,-1],[-4,-1],[-7,-2],[-5,-4],[-5,-3]],[[3014,3562],[-5,1],[-6,4],[-96,87],[-86,55],[-86,54]],[[2735,3763],[-16,-10],[-97,-47],[-20,-12],[-11,-8],[-1,-53],[-17,-27],[-31,-29],[-84,-19],[-43,-16],[-45,-23],[-7,-6]],[[1523,3472],[-21,2],[-9,4],[-16,10],[-69,81],[-68,80],[-28,11],[-6,5],[-4,6],[-22,35],[-2,3],[-1,1],[-2,2],[-1,1],[-10,3],[-6,2],[-13,8],[-3,2],[-2,3],[-1,1],[-1,2],[-2,57],[0,2],[-1,2],[-2,3],[-16,19],[-1,1]],[[1216,3818],[-4,0],[-16,-4],[-8,-4],[-3,-1],[-3,0]],[[1182,3809],[-15,0]],[[1167,3809],[-2,0],[-6,-2],[-8,-1],[-12,0],[-2,0],[-15,-4],[-27,-10],[-2,0],[-4,-1],[-4,-1]],[[1085,3790],[-15,1]],[[1070,3791],[-4,-1],[-4,0],[-6,-2],[-3,-2],[-4,-1],[-4,-1],[-3,0],[-4,0],[-2,-1],[-7,-3],[-2,0],[-2,0]],[[1014,3778],[-2,1],[-2,0],[-3,1],[-3,1],[-2,1],[-5,1]],[[997,3783],[-2,-1],[-3,0],[-3,-2],[-2,0]],[[987,3780],[-5,1]],[[982,3781],[-2,0],[-8,-4],[-5,-1]],[[1025,3780],[-4,0]],[[1021,3780],[-2,0],[-3,-1],[-2,-1]],[[967,3776],[-9,1]],[[958,3777],[-4,-1],[-5,-2],[-6,-1],[-2,-1],[-3,-3],[-3,-4],[-19,-39],[-1,-4],[0,-3],[1,-4],[1,-2],[3,-7],[1,-4],[0,-2],[0,-2],[-1,-2],[-4,-11],[-9,-20],[-2,-6],[-3,-7],[-3,-4],[-5,-5],[-10,-14],[-5,-5],[-13,-7],[-12,-11],[-3,-2],[-4,-1],[-3,-1],[-4,0],[-1,0],[-2,-2],[-1,-2],[-1,-8],[0,-97],[0,-5],[-3,-8],[-22,-25],[-11,-10],[-3,-4],[-2,-6],[-7,-70],[-1,-2],[-1,-4],[-33,-56],[-2,-5],[-1,-3],[0,-39],[-2,-2],[-3,-2],[-18,-6],[-33,-4],[-8,-1],[-40,-25],[-11,-6],[-21,-16],[-2,-3],[-1,-5],[-2,-2]],[[1779,3519],[-17,3]],[[1762,3522],[-94,-2],[-141,-47],[-4,-1]],[[1860,3516],[-29,4]],[[1831,3520],[-52,-1]],[[1919,3512],[-47,6]],[[1872,3518],[-2,0],[-8,-2],[-2,0]],[[1964,3516],[-3,-2],[-6,-1],[-36,-1]],[[330,4096],[-40,-26],[-106,-154]],[[3029,2270],[18,-1],[68,-57],[45,-20],[123,-22],[24,-13],[14,-2]],[[2889,2243],[81,6],[32,7],[27,14]],[[3321,2155],[18,17]],[[3339,2172],[196,-11]],[[4096,2126],[-561,35]],[[149,1412],[-8,1],[-17,4],[-2,2],[-12,4],[-4,3],[-4,4],[-5,6],[-4,23],[-3,2],[-4,1],[-8,0],[-5,1],[-3,2],[-2,1],[-45,36],[-6,4],[-4,1],[-13,3]],[[248,1425],[-4,0],[-3,2],[-5,3]],[[236,1430],[-5,-3],[-6,-1],[-12,-1],[-5,-1],[-12,-9]],[[196,1415],[-12,8],[-7,2]],[[177,1425],[-3,-4],[-25,-9]],[[310,1397],[-2,1],[-2,2],[-2,2],[-7,1],[-6,1],[-4,1],[-6,2],[-11,8],[-9,4],[-5,5],[-4,1]],[[252,1425],[-4,0]],[[358,1399],[-5,1],[-14,3],[-2,1],[-6,2]],[[331,1406],[-6,-2],[-7,-4],[-8,-3]],[[308,1323],[4,0],[5,2],[4,3],[4,5],[14,18],[4,5],[12,10],[4,4],[2,4],[2,3],[2,6],[3,10],[1,6],[-1,1],[-3,1]],[[365,1401],[-4,-1],[-3,-1]],[[249,1347],[4,-1],[4,-3],[4,-4],[5,-3],[4,-2],[5,0]],[[177,1295],[4,1],[3,0],[4,1],[8,4],[4,3],[32,34],[8,7],[4,2],[5,0]],[[283,1334],[4,0],[5,-1],[4,-2],[8,-6],[4,-2]],[[275,1334],[8,0]],[[156,1299],[15,-3],[6,-1]],[[119,1097],[-3,1],[-3,1],[-1,2],[-3,3],[-4,7],[-2,6],[-1,6],[0,9],[6,42],[0,7],[-1,10],[-3,6],[-3,5],[-5,3],[-4,2],[-8,2],[-19,4],[-4,1],[-4,2],[-5,4],[-4,7],[-2,6],[0,8],[3,6],[3,5],[3,4],[3,4],[3,3],[4,2],[36,12],[27,7],[4,2],[10,5],[5,4],[5,2],[4,2]],[[232,917],[-4,0],[-4,1],[-6,2],[-4,2],[-4,3],[-5,3],[-9,9],[-20,26],[-5,9],[-2,6],[1,5],[2,5],[8,13],[1,6],[-4,33],[0,7],[1,4],[3,4],[6,9],[2,5],[2,4],[1,13],[1,5],[2,4],[10,21],[4,12],[2,6],[0,7],[0,9],[-3,6],[-4,4],[-4,2],[-4,0]],[[196,1162],[-4,0],[-5,-2],[-3,-1],[-3,-2],[-8,-5],[-8,-8],[-29,-36],[-7,-7],[-1,-1],[-2,-1],[-3,-1],[-4,-1]],[[411,800],[4,1],[3,3],[0,7],[-3,27],[-2,9],[-3,7],[-4,3],[-27,20],[-34,16],[-9,6],[-5,5],[-7,8],[-3,4],[-1,2],[-3,3],[-4,3],[-4,2],[-3,2],[-3,1],[-8,0]],[[295,929],[-6,-1],[-52,-11],[-5,0]],[[311,825],[57,-10],[8,-3],[22,-10],[4,-1],[4,-1],[5,0]],[[215,768],[5,1],[9,4],[35,20],[38,29],[5,2],[4,1]],[[174,800],[2,0],[2,-1],[1,-1],[23,-25],[4,-3],[5,-2],[4,0]],[[169,790],[2,1],[1,1],[0,1],[0,3],[0,3],[1,1],[1,0]],[[165,791],[4,-1]],[[150,769],[2,0],[2,1],[1,1],[3,4],[1,2],[0,2],[-1,5],[1,2],[0,2],[3,1],[1,1],[1,0],[1,1]],[[35,776],[5,-1],[15,-7],[3,-2],[2,-1],[2,-3],[8,-12],[2,-3],[2,-2],[1,-1]],[[0,668],[4,27],[3,7],[22,43],[1,4],[0,6],[-3,9],[0,5],[1,4],[3,2],[4,1]],[[144,770],[2,0],[2,-1],[2,0]],[[122,744],[2,1],[2,3],[1,1],[2,1],[2,0],[1,0],[0,2],[0,1],[1,2],[0,1],[2,1],[3,0],[1,1],[1,0],[1,1],[0,2],[0,5],[0,2],[0,1],[2,1],[1,0]],[[80,745],[2,-1],[2,0],[1,-1],[2,-1],[2,-3],[2,-1],[1,-1],[1,0],[1,0]],[[75,744],[1,0],[2,1],[2,0]],[[116,744],[6,0]],[[94,737],[2,0],[3,2],[6,1],[4,1],[3,2],[2,1],[2,0]],[[280,0],[-8,12],[-38,44],[-7,11],[-15,33],[-4,6],[-27,32],[-9,14],[-9,23],[-3,12],[-3,20],[-5,13],[-1,3],[-6,6],[-10,13],[-4,7],[-2,6],[-1,5],[1,20],[2,11],[-2,6],[-6,12],[-2,8],[-5,10],[-1,2],[1,1],[0,2],[0,3],[-2,9],[0,2],[0,3],[2,5],[0,3],[-1,4],[-1,5],[-2,3],[-9,12],[-2,4],[-1,4],[-1,3],[-1,4],[-2,3],[-2,2],[-1,1],[-1,2],[-2,7],[-4,8],[-2,8],[-10,16],[-2,2],[-4,4],[-3,4],[-5,12],[-3,6],[-10,23],[-3,4],[-3,2],[-2,1],[-3,2],[-4,6],[-3,2],[-2,2],[-3,2],[-2,1],[-6,8],[-3,2],[-10,5],[-2,1],[-1,1]],[[343,3386],[4,0],[3,-2],[1,-1],[-2,-4],[-2,-8],[0,-9],[3,-8],[1,0]],[[196,3207],[4,1],[4,3],[5,8],[1,8],[2,23],[4,9],[7,8],[26,19],[7,5],[7,2],[13,1],[4,1],[3,1],[3,1],[5,5],[5,6],[3,5],[2,7],[8,39],[3,7],[3,6],[3,4],[3,3],[4,2],[4,3],[5,1],[5,1],[4,0]],[[186,3210],[10,-3]],[[0,3145],[3,0],[3,1],[4,3],[20,19],[6,4],[18,10],[14,4],[46,7],[68,17],[4,0]],[[0,3145]],[[735,2655],[-1,1],[0,2],[1,5],[0,2],[0,3],[0,1],[-1,2],[-1,2],[0,2],[-1,3],[1,4],[2,7],[6,14],[4,6],[2,6],[5,6],[6,15],[2,4],[3,2],[-1,1],[-1,1],[-3,2],[-3,1],[-2,2],[-2,0],[-1,2],[0,2],[1,2],[-1,2],[-1,1],[-2,1],[-2,0],[-1,2],[-5,14],[-2,4],[-4,4],[-2,3],[-1,2],[-3,9],[1,31],[0,1],[-1,3],[-1,1],[-1,1],[-1,3],[-1,4],[1,9],[0,4],[-2,5],[-3,6],[-2,7],[-2,9],[-1,15],[-1,4],[-1,3],[-1,4],[8,36],[0,10],[-1,5],[-4,3],[-3,2],[-3,4],[-2,2],[-3,1],[-2,3],[-1,3],[-2,8],[-1,5],[-3,3],[-2,1],[-7,2],[-4,1],[-6,4],[-19,16],[-14,14]],[[743,2568],[1,1],[4,8],[0,3],[0,2],[-1,7],[0,2],[-3,5],[0,2],[0,2],[3,11],[1,2],[0,3],[0,2],[0,2],[-1,2],[0,3],[1,3],[2,6],[0,4],[0,2],[-1,2],[-1,1],[-4,1],[-1,1],[-1,2],[0,2],[1,2],[0,3],[0,1],[-1,2],[-2,0]],[[740,2657],[-3,-1],[-2,-1]],[[737,2569],[4,-1],[2,0]],[[711,2554],[7,1],[8,2],[1,1],[6,9],[2,2],[2,0]],[[696,2557],[4,-1]],[[684,2552],[10,4],[2,1]],[[704,2556],[2,0],[2,-1],[2,-1],[1,0]],[[700,2556],[4,0]],[[678,2553],[4,-1],[2,0]],[[651,2482],[5,1],[2,2],[0,1],[-1,1],[-1,1],[-2,3],[-1,2],[-1,1],[-1,2],[0,3],[1,1],[1,1],[5,1],[2,1],[2,1],[4,4],[0,1],[-1,5],[1,4],[2,2],[2,1],[2,1],[1,1],[-1,1],[-1,1],[-2,1],[-2,1],[-1,1],[-1,4],[-2,8],[2,2],[7,8],[3,2],[3,1]],[[648,2483],[3,-1]],[[641,2474],[3,8],[2,0],[2,1]],[[1312,3660],[1,-30],[-12,-125],[-1,-242],[19,-124],[2,-51],[7,-50],[14,-41],[22,-31],[21,-20],[120,-78],[14,-5],[13,-2]],[[1532,2861],[10,0],[9,2],[9,4],[23,12],[40,27],[219,104],[51,13]],[[2325,3412],[-2,1],[-2,1],[-4,1],[-2,0],[-5,2]],[[2306,3309],[4,11],[9,39],[6,11],[7,7],[17,6],[8,4],[8,6],[1,3],[0,1],[-3,3],[-5,4],[-3,3],[-6,3],[-4,2],[-3,0],[-3,2],[-3,1]],[[2336,3415],[-3,-1],[-3,-1],[-3,-1],[-2,0]],[[3028,2595],[-176,4],[-43,13],[-116,240],[-4,5],[-6,3],[-6,1],[-56,5]],[[2306,3309],[-158,-11],[0,-1],[-6,-2],[-3,-1]],[[2139,3294],[-4,0],[-24,3],[-3,1],[-63,3]],[[2045,3301],[-41,-4],[-16,-4],[-10,-5],[-8,-5],[-7,-11],[-7,-21],[-5,-56],[-5,-16],[-10,-19],[-11,-15],[-8,-17],[-24,-105]],[[2621,2866],[-47,-72],[-120,-133],[-23,-34],[-7,-14],[-45,-147],[-4,-8],[-7,-10],[-11,-7],[-13,-5],[-12,-3],[-13,-2],[-12,0]],[[2307,2431],[-13,2],[-29,12],[-30,23]],[[2381,3315],[20,-6],[93,-142],[104,-72],[6,-8],[4,-7],[13,-214]],[[2306,3309],[75,6]],[[1964,3516],[-25,54],[-54,117],[-7,29],[-128,315],[-16,65]],[[2235,2468],[-14,84],[-4,46],[7,57],[1,60],[-2,14],[-4,9],[-15,11],[-2,7],[1,8],[4,9],[1,10],[-5,8],[-12,7],[-15,5],[-47,25],[-30,24],[-26,16],[-18,8],[-55,9],[-7,3],[-5,4],[-9,8],[-23,29],[-47,77],[-16,17]],[[3072,3487],[5,86]],[[3028,2595],[1,-3],[10,-15],[2,-1],[3,-1],[3,-1],[10,-2],[2,-1],[25,-21],[12,-5],[5,-4],[4,-2],[9,-2],[4,-2],[2,-4],[1,-8],[2,-3],[2,-2],[6,-3],[3,-2],[5,-5],[3,-3],[7,-2],[5,-5],[9,-9],[5,-10],[4,-5],[5,-2],[6,-2],[3,-5],[1,-7],[3,-6],[11,-11],[2,-3],[0,-4],[1,-3],[2,-2],[5,-3],[2,-7],[2,-17],[2,-8],[3,-5],[5,-4],[6,-1],[6,-3],[2,-7],[1,-15],[4,-10],[24,-28],[3,-4],[2,-6],[2,-7],[1,-14],[9,-19],[4,-17],[3,-9],[4,-4],[4,-2],[4,-5],[4,-6],[11,-29],[1,-7],[1,-4],[3,-5],[3,-4],[3,-3]],[[3335,2177],[2,0],[2,-5]],[[3330,2176],[2,0],[3,1]],[[3028,3481],[-16,2],[-46,11],[-45,2]],[[2921,3496],[-7,-2],[-6,-3],[-3,-4],[-4,-5],[-4,-4],[-5,-2],[-7,-1],[-3,-4],[-4,-12],[-4,-5],[-5,-3],[-4,-5],[-2,-9],[-3,-6],[-7,-2],[-4,-4],[4,-9],[4,-3],[3,-1],[3,-2],[0,-5],[0,-24],[-1,-3],[-3,-2],[0,-2],[2,-3],[-4,-4],[-5,-3],[-5,-4],[-4,-7],[-2,-12],[-1,-4],[-4,-4],[-3,-2],[-5,-1],[-2,-2],[-1,-2],[-1,-6],[-1,-2],[0,-1],[-7,-6],[-2,-1],[-6,-1],[-2,-1],[-3,-3],[-2,-5],[-1,-6],[1,-6],[2,-4],[4,-8],[2,-6],[0,-2],[-1,-5],[1,-3],[1,-2],[5,-5],[1,-3],[1,-6],[-1,-13],[2,-6]],[[3072,3487],[-5,-2],[-5,-3],[-5,-1],[-29,0]],[[2821,3228],[2,-6],[-1,-4],[-4,-4],[-5,-4],[3,-5],[3,-4],[15,-14],[2,0],[3,-1],[2,-1],[2,-3],[0,-5],[-2,-5],[-7,-10],[-2,-3],[-2,-5],[-1,-5],[0,-4]],[[2818,3225],[3,3]],[[2831,3150],[4,-2],[-1,-3],[-2,-4],[-1,-5],[1,-3],[5,-6],[2,-4],[1,-1],[11,-7],[0,-2],[0,-4],[0,-2],[1,0]],[[2829,3145],[2,0],[0,1],[0,3],[0,1]],[[2857,3107],[1,0],[4,-7],[-1,-5],[-1,-5],[-2,-10],[-3,-2],[-2,-1],[-2,-2],[-2,-10],[3,-4],[2,-10],[2,-4],[-7,-4],[-3,-1],[7,-12],[1,-6],[-7,-2],[0,-2],[3,-4],[1,-5],[-6,-2],[-2,-7],[1,-16],[5,-11]],[[2852,3107],[5,0]],[[2858,2979],[0,-7],[4,0]],[[2849,2975],[9,4]],[[2866,2974],[5,0],[2,-4],[0,-5],[0,-6],[1,-5],[4,-7],[8,-8],[4,-7],[-4,-3],[22,-26],[3,-13],[4,-2],[1,-3],[0,-10],[2,-3],[5,-3],[3,-2],[-5,-3],[0,-3],[3,0],[7,-2],[-2,-1],[-2,-1],[-1,0],[-3,-1],[0,-2],[3,-3],[-1,-3],[-2,-2],[-2,-2],[-2,-3],[-2,-2],[-1,-2],[-3,-17],[3,-6],[-2,-3],[-3,-2],[0,-3],[2,-3],[5,-5],[3,-2],[0,-3],[0,-5],[0,-3],[8,-4],[5,-5],[3,-7],[1,-7],[0,-5],[-1,-2],[-3,-2],[-4,0],[-3,-2],[3,-3],[4,-4],[2,-1],[1,-1],[4,-4],[0,-1],[-1,-5],[1,-1],[3,-1]],[[2862,2972],[4,2]],[[2947,2730],[3,-1],[1,-5],[2,-7],[11,-12],[4,-7],[2,-15],[2,-6],[6,-7],[3,-9],[3,-8],[4,-4],[2,-4],[2,-12],[1,-2],[5,-3],[8,-10],[17,-10],[3,-4],[1,-7],[1,-2]],[[2944,2730],[3,0]],[[3072,3487],[8,-1],[16,-5],[44,-25],[58,-15],[16,-2],[8,-2],[3,-5],[3,-2],[7,-3],[7,-3],[6,0]],[[3282,3432],[2,0],[2,-1],[5,-4],[121,-161],[12,-11],[15,-6]],[[3248,3424],[16,2],[16,5],[2,1]],[[3575,3309],[7,0],[7,-4],[7,-10],[13,-26],[6,-16],[65,-113],[21,-26],[31,-26],[39,-19],[9,-8],[5,-11],[2,-18],[-1,-15],[-3,-15],[-5,-14],[-12,-24],[-2,-10],[1,-10],[9,-9],[8,-5],[43,-19],[1,0]],[[3439,3249],[14,0],[12,3],[48,24],[44,27],[9,4],[9,2]],[[2235,2468],[-9,-49],[3,-16],[-4,-13],[2,-15],[-5,-12],[4,-12],[4,-21],[-2,-13],[1,-12],[3,-8],[14,-22],[7,-14],[6,-19],[10,-11],[16,-9],[22,-23],[9,-16],[27,-35],[10,-9],[12,-3],[10,-5],[8,-4],[6,-5],[6,-8],[12,-7],[13,-3],[159,-16]],[[2798,2373],[6,-3],[7,-5],[13,-12],[12,-16],[37,-75],[16,-19]],[[2579,2088],[26,0],[18,11],[4,18],[12,33],[7,14],[26,33],[14,13],[6,10],[6,17],[7,36],[0,17],[-4,14],[-4,23],[1,32],[4,7],[6,4],[74,1],[16,2]],[[2051,2453],[-5,0],[-5,1],[-3,2],[-59,42]],[[1979,2498],[-557,-67],[-10,-1]],[[2235,2468],[-184,-15]],[[2889,2243],[44,-41],[40,-31],[15,-14],[8,-11],[10,-17],[8,-8],[21,-15],[26,-25],[11,-18],[8,-18],[2,-16],[-4,-13],[-17,-26],[-7,-15],[-3,-18],[-6,-109],[-1,-7],[-2,-5],[-2,-4],[-4,-4],[-8,-5],[-51,-16],[-41,-21],[-17,-13],[-48,-47],[-13,-7],[-12,-2]],[[2846,1717],[-9,2],[-9,6],[-24,22],[-8,5],[-8,3],[-9,1]],[[2779,1756],[-8,-2],[-9,-4],[-9,-5],[-8,-8],[-14,-16],[-67,-52],[-10,-6]],[[3535,2161],[-9,-41],[3,-231],[8,-32],[5,-14],[30,-51],[5,-13],[4,-13],[-1,-11],[-4,-13],[-7,-13],[-21,-31],[-34,-75],[-14,-54],[-7,-15],[-8,-11],[-13,-12],[-38,-27],[-7,-9],[-6,-13],[-24,-67],[-9,-14],[-2,-6]],[[2676,352],[3,-1],[3,-3],[7,-14],[4,-5],[3,-4],[5,-2],[23,-12]],[[2623,322],[5,1],[6,2],[5,4],[12,13],[4,2],[17,7],[4,1]],[[2613,324],[10,-2]],[[2599,322],[14,2]],[[2588,323],[11,-1]],[[2562,300],[6,0],[6,2],[2,4],[2,9],[2,6],[4,1],[4,1]],[[2518,314],[5,0],[5,-1],[25,-12],[4,-1],[5,0]],[[2513,227],[7,2],[11,5],[6,5],[4,6],[-1,4],[-2,4],[-4,2],[-19,5],[-4,3],[-4,2],[-4,4],[-3,4],[-2,4],[0,4],[1,5],[1,5],[5,9],[5,9],[4,3],[4,2]],[[2130,271],[5,-1],[5,-1],[4,-3],[9,-8],[25,-28],[7,-5],[7,-5],[5,-2],[4,-2],[5,-1],[4,0]],[[1936,213],[18,3],[5,1],[5,2],[5,2],[4,4],[16,17],[4,3],[13,6],[19,6],[100,14],[5,0]],[[2428,252],[6,-1],[5,-1],[4,-2],[5,-3],[8,-6],[1,-1],[2,0]],[[2372,225],[6,2],[8,4],[19,13],[11,5],[5,2],[7,1]],[[2479,241],[4,-1],[5,-3],[14,-8],[5,-2],[6,0]],[[2459,238],[4,0],[11,3],[5,0]],[[2300,231],[41,-2],[15,-3],[16,-1]],[[2210,215],[5,0],[56,14],[29,2]],[[1924,214],[12,-1]],[[1958,177],[-2,0],[-3,1],[-2,1],[-6,1],[-2,1],[-1,1],[-1,1],[-5,4],[-10,6],[-13,5],[-2,1],[-2,3],[-1,5],[1,3],[2,1],[4,1],[2,0],[4,2],[3,0]],[[1989,174],[-2,0],[-2,0],[-5,3],[-4,1],[-2,1],[-1,1],[-1,0]],[[1972,180],[-2,0],[-1,-1],[-1,-1]],[[1968,178],[-2,0],[-1,1],[-1,1]],[[1964,180],[-2,-1],[-3,-2],[-1,0]],[[2037,0],[-2,5],[0,2],[2,8],[0,3],[1,8],[0,4],[1,2],[2,7],[1,2],[2,1],[4,2],[3,3],[1,4],[2,5],[0,3],[-1,3],[-1,1],[-1,2],[-1,1],[-2,2],[-1,2],[-1,2],[1,6],[0,3],[-2,1],[-1,1],[-6,2],[-2,1],[-1,0],[-3,3],[-1,1],[-1,1],[-1,2],[-1,2],[-2,5],[-4,14],[0,3],[1,16],[0,2],[-1,2],[-1,2],[-3,2],[-1,2],[0,4],[0,3],[2,2],[0,2],[0,2],[-2,1],[-4,3],[-1,2],[-1,2],[0,2],[-1,2],[-1,1],[-1,1],[-2,0],[-2,1],[-1,1],[-1,2],[-1,1],[-2,0]],[[1999,175],[-10,-1]],[[641,2474],[-294,-165],[-5,-4],[-1,-2],[-4,-3],[-3,-5],[0,-2],[-1,-2],[0,-4],[-1,-3],[-2,-3],[-4,-4],[-3,-1],[-2,-1],[-3,0],[-4,-1],[-2,0]],[[270,2233],[-95,24],[-27,9],[-12,8],[-6,7],[-4,9],[-2,3],[-2,1],[-2,2],[-3,2],[-4,0]],[[113,2298],[-6,0],[-15,-3],[-6,0]],[[86,2295],[-11,2],[-7,0]],[[68,2297],[-46,-9],[-7,-4],[-5,-6],[-7,-13],[-3,-13]],[[312,2274],[-2,0],[-4,2],[-2,1]],[[304,2277],[-4,-1],[-2,-1],[-1,-2],[-2,-4],[-4,-4],[-1,-2],[-1,-2],[0,-2],[0,-2],[1,-2],[0,-2],[0,-1],[-1,-2],[0,-2],[0,-2],[0,-4],[0,-2],[-1,-3],[-7,-3],[-11,-1]],[[641,2474],[103,-112],[25,-20]],[[862,2380],[7,-1],[5,-3],[9,-8],[6,-5],[10,-4],[13,-9],[16,-14],[5,-5],[3,-5],[1,-4],[0,-7],[-1,-5],[-3,-3],[-4,-1],[-7,0],[-4,-1],[-3,-3],[-2,-4],[-3,-10],[-1,-2],[-2,-1],[-7,-2],[-4,-2],[-8,-5],[-5,-1]],[[794,2344],[5,1],[6,5],[23,21],[8,5],[5,2],[21,2]],[[783,2345],[11,-1]],[[769,2342],[4,2],[4,1],[6,0]],[[883,2275],[-6,0],[-7,2],[-12,4]],[[858,2281],[-2,0],[0,-2],[4,-7],[47,-41],[6,-9],[3,-1]],[[922,2221],[4,-1],[2,-2],[1,-3],[0,-2],[1,-3],[2,-3],[6,-7],[2,-4],[2,-4],[2,-3],[2,-4],[4,-1]],[[916,2221],[6,0]],[[957,2184],[4,0],[7,-3],[7,-10],[2,-5],[-1,-6],[-6,-9],[-3,-10],[-1,-7],[0,-4],[0,-2],[0,-2],[-1,-1],[0,-2],[-1,-5],[-1,-2],[0,-1]],[[950,2184],[3,0],[4,0]],[[963,2115],[-2,0],[-4,10],[-1,1],[-1,1],[-2,1]],[[953,2128],[-2,-1],[-1,-1],[-1,-1],[-3,-5],[-1,-1],[-1,-1],[-2,-1],[-2,-1],[-6,0],[-2,-1],[-2,-2],[-2,0],[-2,-2],[0,-2],[1,-5],[1,-3],[-1,-2],[-2,-3],[0,-2],[0,-3],[0,-4],[0,-3],[-1,-2],[-1,-3],[-1,-2],[1,-4],[1,-5],[0,-2],[-1,-2],[-1,-1],[-1,-1],[-1,-2],[1,-3],[1,-4],[1,-2],[3,-1],[0,-1],[0,-1],[-7,-3],[-1,-2],[0,-1],[1,-1],[4,-1],[3,-1],[1,0],[0,-1],[-3,-2],[-3,-2],[-2,-1],[-1,-1],[0,-2],[0,-2],[0,-3],[0,-2],[-1,-1],[-1,-2],[-1,-1],[-1,-1],[-4,-2],[-1,-1],[-1,-1],[0,-2],[-1,-1],[-1,-1],[-1,0],[-1,0]],[[904,2010],[-2,0]],[[902,2010],[-1,0],[-2,0],[-1,-1],[-1,-1],[-1,-2],[0,-3],[2,-2],[2,-2],[1,-1],[0,-1],[-1,-1],[-1,0],[-1,-1],[-2,-1],[-3,0],[-1,-1],[-1,0],[-2,-3],[-1,0]],[[888,1990],[-2,0],[-4,2]],[[882,1992],[-2,0],[-1,0],[0,-4],[0,-2],[-1,-1],[-5,-2],[-1,-1],[-1,-1],[0,-2],[0,-4],[-1,-1],[-1,-1]],[[869,1973],[-1,1],[-1,1],[-1,1]],[[866,1976],[0,-1],[0,-10],[-2,-10],[-1,-1],[-1,0]],[[862,1954],[-3,1],[-1,0],[-2,1],[-1,1],[-1,1],[-2,1],[-1,0]],[[851,1959],[-2,0],[-1,-2],[-4,-7],[-1,-1],[-1,0],[-1,-1],[-3,-1],[-3,0],[-1,-1],[-1,-1],[0,-2],[-1,-4],[0,-1],[-1,-1],[-1,0]],[[830,1937],[-2,0],[-1,1],[-2,1],[-1,1],[-2,0],[-1,1],[-1,0]],[[820,1941],[-1,0],[-6,-2],[-1,-1],[0,-1],[-3,-4],[-1,-1],[-2,-2],[-3,-1],[-2,-1],[0,-1],[-2,0]],[[774,1928],[-1,0],[-2,1],[-2,3],[-1,0],[-1,0]],[[767,1932],[-1,0],[0,-1],[0,-2],[-1,-2],[-1,-1],[-1,-2],[-1,0],[-2,-2],[0,-1],[0,-6],[0,-1],[-1,0],[-1,-2],[-2,-2],[-1,-1],[0,-1],[0,-9],[-1,-1],[-1,-1]],[[799,1927],[-1,0],[-5,2],[-5,0]],[[788,1929],[-4,0]],[[784,1929],[-4,0]],[[780,1929],[-2,0],[-2,0],[-2,-1]],[[753,1897],[-1,1],[-1,2],[-1,1],[-1,1],[-2,1],[-1,0]],[[746,1903],[-2,-1],[-1,-1],[0,-2],[-1,-3],[1,-2],[1,-1],[0,-2],[0,-1],[-1,-1],[-2,-2],[0,-2],[1,-2],[2,-1],[4,-1],[1,-1],[1,0],[0,-1],[0,-1],[-1,-2],[0,-1],[-1,0],[-3,-2],[-1,-1],[-2,-1]],[[742,1871],[-2,1],[-2,1],[-5,4],[-1,1],[-1,0]],[[731,1878],[-1,0],[-1,0],[0,-1],[-1,0],[0,-1],[-2,-2],[-5,-4]],[[1216,3818],[1,40],[-33,101],[-53,137]],[[469,1001]],[[469,1002],[128,82],[58,-31],[197,-7],[122,-40],[72,44],[50,72],[66,-41],[119,3],[26,-33],[60,2]],[[1373,1052],[64,-6]],[[1445,1038],[30,-34],[166,-15],[406,56],[98,-28],[38,-53]],[[0,799],[112,10],[140,156],[217,39]],[[3656,596],[5,2],[3,3],[-8,0],[-10,2],[-9,3],[-10,7],[-5,2],[-4,1],[-5,0],[-5,-1],[-3,-1],[-2,-2],[-3,-1],[-2,-1],[-21,-9],[1,-5],[8,-3],[9,-2],[7,-2],[2,4],[4,-1],[4,-3],[6,-7],[1,-1],[18,1],[6,-2],[4,-4],[0,-6],[-4,-1],[-6,2],[-5,3],[0,-5],[-27,6],[-3,5],[-2,3],[-3,3],[-5,2],[-8,1],[-5,1],[-10,4],[0,5],[-8,5],[-17,7],[5,1],[4,-1],[9,-2],[20,-2],[4,1],[7,6],[9,5],[13,3],[11,-3],[10,-5],[12,-3],[6,1],[13,2],[5,2],[4,4],[9,11],[0,3],[10,5],[8,21],[6,4],[-2,-5],[1,-4],[3,-9],[3,0],[3,6],[14,7],[6,5],[1,5],[0,7],[1,6],[5,2],[-2,-5],[4,1],[2,1],[2,2],[4,1],[4,-1],[4,-3],[2,0],[0,4],[4,1],[1,2],[5,-13],[3,0],[0,3],[2,0],[2,-3],[2,-2],[3,-2],[3,-1],[5,12],[4,8],[5,3],[6,2],[9,10],[6,3],[7,-1],[-2,-5],[-10,-13],[-9,-7],[-4,-4],[8,-1],[1,-5],[0,-5],[3,-2],[4,1],[3,3],[3,0],[1,-5],[-1,-1],[-2,-4],[-1,-1],[-4,-1],[-1,-3],[1,-2],[0,-2],[-1,-5],[-1,-10],[0,-5],[-2,0],[-3,7],[-1,10],[-1,8],[-6,5],[-2,-2],[-3,1],[-5,0],[-3,-1],[-2,-2],[-1,-1],[-4,0],[-7,3],[-3,-1],[-4,-2],[-2,0],[-1,4],[-13,14],[-1,-4],[-2,-2],[-5,-3],[-3,-3],[0,-1],[0,-2],[-2,-9],[1,-3],[1,-2],[1,-4],[3,-3],[0,-1],[-4,-1],[-16,-1],[-4,-1],[-1,-3],[2,-8],[-2,1],[-5,1],[-3,1],[-4,-5],[-17,-7],[-7,-13],[-18,-4],[-6,-4],[2,-1],[1,-1],[-4,-1],[-3,-1],[-3,-1],[-3,-2],[1,2],[0,1],[1,0],[1,2],[-4,4],[3,3]],[[4001,608],[3,-2],[-3,0],[2,-3],[0,-2],[1,-2],[-3,0],[-13,3],[-18,2],[-19,-2],[-12,-11],[-11,4],[-10,-4],[-17,-15],[-6,1],[-8,-4],[-7,-5],[-6,-10],[-5,-2],[-6,-1],[-5,-3],[-1,-5],[5,-4],[8,-3],[6,-2],[9,0],[5,2],[6,3],[8,3],[-3,-5],[16,4],[7,-1],[0,-6],[-6,3],[-4,-2],[-2,-5],[2,-6],[-11,0],[-7,-1],[-8,-3],[-9,-6],[4,-5],[6,0],[7,0],[8,-2],[0,-3],[-3,1],[-5,1],[-2,1],[3,-5],[7,-1],[8,2],[4,4],[8,-4],[3,3],[2,11],[3,1],[6,1],[6,-1],[2,-4],[-3,-4],[-5,1],[-3,-1],[1,-8],[1,-2],[2,0],[2,1],[1,0],[2,-2],[0,-1],[-2,-1],[-1,-1],[1,-4],[3,-3],[3,-3],[3,-2],[-4,-3],[-2,-5],[-2,-2],[-4,3],[-12,-5],[-6,-4],[-3,-3],[2,-6],[1,-6],[2,-5],[-2,-6],[-3,2],[-2,2],[-2,0],[-3,-2],[0,7],[-3,9],[-4,8],[-3,6],[-1,0],[-1,-1],[-2,0],[-1,-2],[-5,6],[-4,-2],[-8,-8],[-1,1],[-2,-1],[-5,0],[0,-1],[-2,-1],[-2,-1],[-3,0],[6,15],[0,3],[-2,1],[-8,7],[-1,1],[-2,-1],[-7,5],[-2,2],[-3,-1],[-2,-1],[-3,-1],[-2,2],[-3,2],[-2,2],[-2,1],[-3,1],[-13,5],[-14,10],[-15,7],[-17,-5],[2,0],[1,-1],[2,-1],[3,0],[-3,-5],[-2,-5],[-3,0],[-1,3],[0,1],[-2,1],[-2,2],[2,-11],[13,-16],[5,-10],[-3,0],[-1,2],[-1,1],[-2,1],[-3,1],[1,-6],[2,-2],[2,-3],[-8,5],[-4,10],[-6,23],[-7,0],[-10,8],[-7,-3],[-8,1],[-6,-6],[-2,-8],[7,-4],[3,-1],[3,-6],[4,-1],[2,-1],[1,-4],[1,-5],[0,-5],[-4,4],[-8,12],[-2,2],[-7,1],[-11,5],[-5,2],[-3,0],[-8,2],[-10,0],[-6,2],[-6,4],[-5,4],[-3,5],[-2,1],[-3,2],[-1,3],[-2,4],[-1,0],[0,1],[-1,2],[1,1],[4,3],[3,11],[0,6],[-5,3],[6,3],[4,-4],[4,-5],[7,-3],[22,-3],[7,0],[5,3],[16,15],[7,12],[7,4],[7,3],[5,3],[2,0],[1,-3],[0,-4],[-1,-3],[-2,-2],[-2,1],[-2,2],[-1,2],[-3,-5],[0,-5],[3,-4],[5,-1],[3,1],[5,3],[3,2],[4,-1],[7,2],[5,-1],[5,0],[5,6],[9,-7],[8,2],[8,4],[5,-4],[-1,-1],[-1,-2],[-2,-4],[9,1],[9,7],[14,14],[2,2],[2,1],[2,2],[1,1],[0,4],[-1,2],[0,1],[1,2],[6,3],[3,-1],[0,-4],[-4,-3],[0,-2],[3,-2],[2,-2],[2,-2],[3,1],[2,1],[4,5],[3,2],[1,-1],[-2,-2],[6,2],[2,4],[0,4],[3,6],[3,2],[2,1],[1,-1],[3,-1],[-1,-1],[3,-3],[3,-1],[2,4],[1,1],[4,6],[0,2],[4,1],[2,-1],[0,-2],[0,-1],[-3,-2],[0,-7],[3,-6],[6,-2],[4,2],[9,9],[5,4],[19,2],[6,3],[10,22],[6,9],[7,-4],[-6,-3],[-2,-8],[1,-23],[2,2],[5,3],[7,2],[-1,-3],[-1,-3],[0,-7],[2,0],[2,2],[1,0],[2,0]],[[3774,528],[0,3],[-42,-1],[-3,1],[-2,1],[-1,2],[-2,2],[-5,0],[7,-8],[6,-4],[9,0],[10,2],[8,-4],[4,1],[4,3],[7,2]],[[3565,0],[0,1],[-4,6],[-12,9],[3,3],[11,-5],[14,-4],[10,-7],[0,-3],[-22,0]],[[4096,70],[0,-70],[-344,0],[2,7],[-8,7],[0,-8],[-2,0],[-4,2],[-2,-4],[0,-4],[-145,0],[2,20],[-3,11],[7,3],[6,-5],[7,1],[7,6],[3,8],[4,-4],[0,-5],[-3,-5],[-4,-4],[-7,-6],[0,-2],[6,-6],[5,-1],[4,4],[4,6],[3,4],[1,3],[2,3],[2,0],[2,-1],[3,-11],[3,2],[3,6],[2,2],[3,-2],[3,-3],[4,-8],[4,6],[-9,15],[2,7],[4,-3],[6,-2],[4,1],[-6,9],[7,2],[3,0],[0,3],[-4,1],[-6,4],[1,5],[-4,6],[2,3],[4,1],[3,-2],[2,0],[2,4],[6,1],[4,11],[3,12],[4,7],[6,-1],[2,-5],[-2,-5],[-5,-5],[0,-6],[3,-4],[6,6],[3,-6],[-9,-14],[2,-4],[10,-2],[3,3],[3,5],[3,7],[4,-1],[2,-3],[2,-5],[2,-3],[-5,-3],[-6,-8],[-3,-2],[-6,1],[-2,-1],[-4,-1],[-3,-1],[-3,0],[2,-5],[1,-8],[2,-2],[5,-1],[5,2],[3,2],[3,2],[3,0],[4,1],[5,2],[2,3],[2,1],[6,-2],[9,-5],[0,7],[1,5],[1,4],[3,4],[2,0],[2,-4],[4,0],[5,1],[5,-2],[-2,3],[0,3],[-1,6],[3,0],[1,-4],[5,8],[6,2],[-1,-2],[-1,-1],[-1,-3],[4,0],[1,0],[-3,-3],[-2,-4],[1,-3],[4,-2],[-4,-2],[-4,-2],[-2,-3],[2,-5],[4,-3],[2,0],[0,-1],[0,-5],[3,-5],[7,1],[24,8],[8,4],[25,20],[3,3],[2,4],[5,13],[-12,1],[-10,2],[10,6],[3,2],[0,2],[-3,0],[0,2],[3,-1],[7,-3],[9,-1],[0,-3],[-4,-5],[2,-4],[3,1],[3,2],[2,2],[0,2],[0,2],[-1,3],[2,1],[3,0],[2,1],[4,3],[-4,5],[-2,8],[1,7],[6,3],[7,2],[11,6],[7,2],[1,1],[8,5],[2,2],[0,5],[-1,1],[-3,0],[-10,2],[-8,1],[-6,3],[-2,8],[9,-2],[9,2],[5,4],[-3,8],[12,6],[3,2],[3,-16],[10,-1],[10,7],[2,7],[5,8],[7,-2],[2,-2],[-7,-9],[-8,-14],[2,-3],[3,-1],[1,-2],[-6,-5],[-8,-1],[-6,-3],[3,-11],[4,3],[13,5],[2,-4],[-1,-3],[-1,-3],[-2,-3],[6,2],[7,-1],[6,-2],[6,-4],[-1,3],[-1,2],[-1,2],[-2,1],[10,4],[5,0],[5,-2],[-5,-2],[4,-6],[6,-2],[4,-2],[-2,-5],[7,-2],[0,-6],[-5,-5],[-7,3],[3,1],[2,1],[-5,2],[-6,2],[-5,0],[-4,-1],[-3,1],[-3,1],[-6,0],[2,-3],[2,-2],[8,-2],[-5,-3],[5,-3],[2,-1],[3,-1],[-8,-5],[5,-6],[9,-6],[7,-8],[2,0],[-1,10],[0,5],[2,3],[3,-2],[1,-4],[0,-9],[3,2],[4,6],[3,1],[0,-4],[-2,-4],[-3,-7],[3,1],[2,1],[2,2],[0,4],[3,0],[1,-6],[3,-2],[4,1],[2,6],[3,3],[7,3],[7,4],[3,7],[-3,20],[1,4],[3,4],[5,0],[5,-1],[4,-3],[7,5],[3,2],[5,1],[4,-1],[6,-2],[5,-2],[0,-3],[-6,-2],[-7,-3],[-5,-5],[-2,-8],[4,2],[4,1],[5,-1],[4,-2],[0,-2],[-3,-3],[-5,-6],[-4,-6],[0,-5],[5,-3],[10,-1]],[[3890,55],[4,4],[-7,0],[-4,-5],[0,-8],[3,-7],[3,4],[1,12]],[[3931,11],[3,5],[-8,0],[1,2],[1,4],[1,1],[-10,-2],[-5,-3],[-1,-5],[3,-9],[11,4],[4,3]],[[3964,92],[5,2],[-5,6],[-2,5],[-4,4],[-7,0],[0,-2],[3,-1],[2,-2],[2,-2],[0,-3],[-2,0],[-3,2],[-3,-3],[-1,-5],[2,-4],[-3,1],[-1,1],[-1,1],[-3,-4],[-4,0],[-2,3],[2,3],[0,2],[-8,0],[-1,4],[4,6],[5,3],[-7,3],[-8,0],[-14,-3],[-2,-1],[-8,-10],[-2,-4],[1,-2],[5,-3],[12,-13],[1,-2],[2,-1],[-1,-3],[-2,-2],[-4,-2],[-3,1],[-10,2],[7,-13],[3,0],[4,4],[6,-4],[6,-8],[1,-9],[4,1],[3,3],[1,4],[0,4],[2,0],[0,-14],[2,-6],[6,-2],[2,0],[2,1],[0,1],[-7,5],[-2,8],[2,8],[5,4],[-5,3],[-2,4],[-1,4],[3,5],[-2,5],[2,3],[4,0],[3,-6],[3,3],[3,3],[2,0],[2,-1],[3,4],[1,5],[2,4]],[[3228,832],[-2,-3],[-1,-3],[1,-17],[0,-3],[5,-6],[6,-8],[1,-9],[-5,-6],[9,-23],[0,-12],[-7,-10],[7,-16],[1,-6],[0,-8],[-1,-2],[-1,-2],[-1,-2],[-2,-13],[-4,-10],[-8,-5],[-11,4],[-3,-8],[-2,-19],[-3,-8],[-5,-10],[-5,-6],[-14,-10],[-21,-19],[-22,-12],[-5,-1],[-5,0],[-4,2],[-4,0],[-4,-2],[-3,1],[-2,1],[-5,-11],[-10,-5],[-13,-3],[-10,-6],[-6,-9],[-11,-22],[-61,-71],[-4,-5],[-1,-6],[0,-6],[-1,-6],[-40,-43],[1,-2],[0,-2],[-2,-1],[-4,0],[3,-2],[2,-1],[0,-2],[-5,-2],[-5,1],[-4,2],[-4,4],[-3,-3],[-2,-3],[-1,-3],[-2,-2],[-1,3],[0,4],[1,4],[1,5],[-7,-6],[-4,-3],[-3,0],[-2,4],[1,3],[3,4],[2,3],[0,8],[-1,5],[-3,5],[-4,7],[3,7],[-3,8],[0,6],[8,4],[0,3],[-6,2],[-9,10],[-1,2],[-2,4],[-2,2],[-1,-4],[0,-11],[-1,0],[0,1],[-1,1],[-4,-4],[-1,-1],[-1,6],[-3,6],[-5,2],[-5,-1],[-1,4],[0,3],[1,4],[2,3],[-5,5],[3,5],[6,4],[4,2],[11,22],[5,8],[4,7],[3,8],[1,9],[1,3],[3,5],[4,4],[3,1],[3,2],[6,10],[3,4],[17,8],[9,5],[4,8],[2,8],[6,6],[26,16],[3,4],[4,11],[2,1],[6,3],[18,15],[35,40],[15,8],[11,1],[4,1],[4,2],[2,3],[2,3],[3,4],[15,13],[16,10],[4,2],[8,2],[3,1],[3,4],[6,9],[2,4],[7,6],[4,2],[4,0],[5,2],[1,3],[0,4],[1,4],[19,16],[3,5],[1,8],[3,7],[4,6],[16,17],[6,5],[20,7],[4,2],[4,5],[1,4],[2,10],[2,3],[-1,-18],[-2,-8],[-6,-4],[-7,-1],[-7,-5],[-12,-9],[-3,-2],[-2,-3]],[[3228,832],[-2,-3],[-1,-3],[1,-17],[0,-3],[5,-6],[6,-8],[1,-9],[-5,-6],[9,-23],[0,-12],[-7,-10],[7,-16],[1,-6],[0,-8],[-1,-2],[-1,-2],[-1,-2],[-2,-13],[-4,-10],[-8,-5],[-11,4],[-3,-8],[-2,-19],[-3,-8],[-5,-10],[-5,-6],[-14,-10],[-21,-19],[-22,-12],[-5,-1],[-5,0],[-4,2],[-4,0],[-4,-2],[-3,1],[-2,1],[-5,-11],[-10,-5],[-13,-3],[-10,-6],[-6,-9],[-11,-22],[-61,-71],[-4,-5],[-1,-6],[0,-6],[-1,-6],[-40,-43],[1,-2],[0,-2],[-2,-1],[-4,0],[3,-2],[2,-1],[0,-2],[-5,-2],[-5,1],[-4,2],[-4,4],[-3,-3],[-2,-3],[-1,-3],[-2,-2],[-1,3],[0,4],[1,4],[1,5],[-7,-6],[-4,-3],[-3,0],[-2,4],[1,3],[3,4],[2,3],[0,8],[-1,5],[-3,5],[-4,7],[3,7],[-3,8],[0,6],[8,4],[0,3],[-6,2],[-9,10],[-1,2],[-2,4],[-2,2],[-1,-4],[0,-11],[-1,0],[0,1],[-1,1],[-4,-4],[-1,-1],[-1,6],[-3,6],[-5,2],[-5,-1],[-1,4],[0,3],[1,4],[2,3],[-5,5],[3,5],[6,4],[4,2],[11,22],[5,8],[4,7],[3,8],[1,9],[1,3],[3,5],[4,4],[3,1],[3,2],[6,10],[3,4],[17,8],[9,5],[4,8],[2,8],[6,6],[26,16],[3,4],[4,11],[2,1],[6,3],[18,15],[35,40],[15,8],[11,1],[4,1],[4,2],[2,3],[2,3],[3,4],[15,13],[16,10],[4,2],[8,2],[3,1],[3,4],[6,9],[2,4],[7,6],[4,2],[4,0],[5,2],[1,3],[0,4],[1,4],[19,16],[3,5],[1,8],[3,7],[4,6],[16,17],[6,5],[20,7],[4,2],[4,5],[1,4],[2,10],[2,3],[-1,-18],[-2,-8],[-6,-4],[-7,-1],[-7,-5],[-12,-9],[-3,-2],[-2,-3]],[[3531,0],[-1,1],[-1,4],[1,2],[5,7],[-1,-3],[0,-1],[0,-2],[-2,-2],[4,-6]],[[3565,0],[0,1],[-4,6],[-12,9],[3,3],[11,-5],[14,-4],[10,-7],[0,-3]],[[3593,0],[2,20],[-3,11],[7,3],[6,-5],[7,1],[7,6],[3,8],[4,-4],[0,-5],[-3,-5],[-4,-4],[-7,-6],[0,-2],[6,-6],[5,-1],[4,4],[4,6],[3,4],[1,3],[2,3],[2,0],[2,-1],[3,-11],[3,2],[3,6],[2,2],[3,-2],[3,-3],[4,-8],[4,6],[-9,15],[2,7],[4,-3],[6,-2],[4,1],[-6,9],[7,2],[3,0],[0,3],[-4,1],[-6,4],[1,5],[-4,6],[2,3],[4,1],[3,-2],[2,0],[2,4],[6,1],[4,11],[3,12],[4,7],[6,-1],[2,-5],[-2,-5],[-5,-5],[0,-6],[3,-4],[6,6],[3,-6],[-9,-14],[2,-4],[10,-2],[3,3],[3,5],[3,7],[4,-1],[2,-3],[2,-5],[2,-3],[-5,-3],[-6,-8],[-3,-2],[-6,1],[-2,-1],[-4,-1],[-3,-1],[-3,0],[2,-5],[1,-8],[2,-2],[5,-1],[5,2],[3,2],[3,2],[3,0],[4,1],[5,2],[2,3],[2,1],[6,-2],[9,-5],[0,7],[1,5],[1,4],[3,4],[2,0],[2,-4],[4,0],[5,1],[5,-2],[-2,3],[0,3],[-1,6],[3,0],[1,-4],[5,8],[6,2],[-1,-2],[-1,-1],[-1,-3],[4,0],[1,0],[-3,-3],[-2,-4],[1,-3],[4,-2],[-4,-2],[-4,-2],[-2,-3],[2,-5],[4,-3],[2,0],[0,-1],[0,-5],[3,-5],[7,1],[24,8],[8,4],[25,20],[3,3],[2,4],[5,13],[-12,1],[-10,2],[10,6],[3,2],[0,2],[-3,0],[0,2],[3,-1],[7,-3],[9,-1],[0,-3],[-4,-5],[2,-4],[3,1],[3,2],[2,2],[0,2],[0,2],[-1,3],[2,1],[3,0],[2,1],[4,3],[-4,5],[-2,8],[1,7],[6,3],[7,2],[11,6],[7,2],[1,1],[8,5],[2,2],[0,5],[-1,1],[-3,0],[-10,2],[-8,1],[-6,3],[-2,8],[9,-2],[9,2],[5,4],[-3,8],[12,6],[3,2],[3,-16],[10,-1],[10,7],[2,7],[5,8],[7,-2],[2,-2],[-7,-9],[-8,-14],[2,-3],[3,-1],[1,-2],[-6,-5],[-8,-1],[-6,-3],[3,-11],[4,3],[13,5],[2,-4],[-1,-3],[-1,-3],[-2,-3],[6,2],[7,-1],[6,-2],[6,-4],[-1,3],[-1,2],[-1,2],[-2,1],[10,4],[5,0],[5,-2],[-5,-2],[4,-6],[6,-2],[4,-2],[-2,-5],[7,-2],[0,-6],[-5,-5],[-7,3],[3,1],[2,1],[-5,2],[-6,2],[-5,0],[-4,-1],[-3,1],[-3,1],[-6,0],[2,-3],[2,-2],[8,-2],[-5,-3],[5,-3],[2,-1],[3,-1],[-8,-5],[5,-6],[9,-6],[7,-8],[2,0],[-1,10],[0,5],[2,3],[3,-2],[1,-4],[0,-9],[3,2],[4,6],[3,1],[0,-4],[-2,-4],[-3,-7],[3,1],[2,1],[2,2],[0,4],[3,0],[1,-6],[3,-2],[4,1],[2,6],[3,3],[7,3],[7,4],[3,7],[-3,20],[1,4],[3,4],[5,0],[5,-1],[4,-3],[7,5],[3,2],[5,1],[4,-1],[6,-2],[5,-2]],[[4096,114],[-6,-2],[-7,-3],[-5,-5],[-2,-8],[4,2],[4,1],[5,-1],[4,-2],[0,-2],[-3,-3],[-5,-6],[-4,-6],[0,-5],[5,-3],[10,-1]],[[3752,0],[2,7],[-8,7],[0,-8],[-2,0],[-4,2],[-2,-4],[0,-4]],[[3890,55],[4,4],[-7,0],[-4,-5],[0,-8],[3,-7],[3,4],[1,12]],[[3931,11],[3,5],[-8,0],[1,2],[1,4],[1,1],[-10,-2],[-5,-3],[-1,-5],[3,-9],[11,4],[4,3]],[[3964,92],[5,2],[-5,6],[-2,5],[-4,4],[-7,0],[0,-2],[3,-1],[2,-2],[2,-2],[0,-3],[-2,0],[-3,2],[-3,-3],[-1,-5],[2,-4],[-3,1],[-1,1],[-1,1],[-3,-4],[-4,0],[-2,3],[2,3],[0,2],[-8,0],[-1,4],[4,6],[5,3],[-7,3],[-8,0],[-14,-3],[-2,-1],[-8,-10],[-2,-4],[1,-2],[5,-3],[12,-13],[1,-2],[2,-1],[-1,-3],[-2,-2],[-4,-2],[-3,1],[-10,2],[7,-13],[3,0],[4,4],[6,-4],[6,-8],[1,-9],[4,1],[3,3],[1,4],[0,4],[2,0],[0,-14],[2,-6],[6,-2],[2,0],[2,1],[0,1],[-7,5],[-2,8],[2,8],[5,4],[-5,3],[-2,4],[-1,4],[3,5],[-2,5],[2,3],[4,0],[3,-6],[3,3],[3,3],[2,0],[2,-1],[3,4],[1,5],[2,4]],[[3880,598],[1,1],[-1,-2],[-1,1],[1,0]],[[4001,608],[3,-2],[-3,0],[2,-3],[0,-2],[1,-2],[-3,0],[-13,3],[-18,2],[-19,-2],[-12,-11],[-11,4],[-10,-4],[-17,-15],[-6,1],[-8,-4],[-7,-5],[-6,-10],[-5,-2],[-6,-1],[-5,-3],[-1,-5],[5,-4],[8,-3],[6,-2],[9,0],[5,2],[6,3],[8,3],[-3,-5],[16,4],[7,-1],[0,-6],[-6,3],[-4,-2],[-2,-5],[2,-6],[-11,0],[-7,-1],[-8,-3],[-9,-6],[4,-5],[6,0],[7,0],[8,-2],[0,-3],[-3,1],[-5,1],[-2,1],[3,-5],[7,-1],[8,2],[4,4],[8,-4],[3,3],[2,11],[3,1],[6,1],[6,-1],[2,-4],[-3,-4],[-5,1],[-3,-1],[1,-8],[1,-2],[2,0],[2,1],[1,0],[2,-2],[0,-1],[-2,-1],[-1,-1],[1,-4],[3,-3],[3,-3],[3,-2],[-4,-3],[-2,-5],[-2,-2],[-4,3],[-12,-5],[-6,-4],[-3,-3],[2,-6],[1,-6],[2,-5],[-2,-6],[-3,2],[-2,2],[-2,0],[-3,-2],[0,7],[-3,9],[-4,8],[-3,6],[-1,0],[-1,-1],[-2,0],[-1,-2],[-5,6],[-4,-2],[-8,-8],[-1,1],[-2,-1],[-5,0],[0,-1],[-2,-1],[-2,-1],[-3,0],[6,15],[0,3],[-2,1],[-8,7],[-1,1],[-2,-1],[-7,5],[-2,2],[-3,-1],[-2,-1],[-3,-1],[-2,2],[-3,2],[-2,2],[-2,1],[-3,1],[-13,5],[-14,10],[-15,7],[-17,-5],[2,0],[1,-1],[2,-1],[3,0],[-3,-5],[-2,-5],[-3,0],[-1,3],[0,1],[-2,1],[-2,2],[2,-11],[13,-16],[5,-10],[-3,0],[-1,2],[-1,1],[-2,1],[-3,1],[1,-6],[2,-2],[2,-3],[-8,5],[-4,10],[-6,23],[-7,0],[-10,8],[-7,-3],[-8,1],[-6,-6],[-2,-8],[7,-4],[3,-1],[3,-6],[4,-1],[2,-1],[1,-4],[1,-5],[0,-5],[-4,4],[-8,12],[-2,2],[-7,1],[-11,5],[-5,2],[-3,0],[-8,2],[-10,0],[-6,2],[-6,4],[-5,4],[-3,5],[-2,1],[-3,2],[-1,3],[-2,4],[-1,0],[0,1],[-1,2],[1,1],[4,3],[3,11],[0,6],[-5,3],[6,3],[4,-4],[4,-5],[7,-3],[22,-3],[7,0],[5,3],[16,15],[7,12],[7,4],[7,3],[5,3],[2,0],[1,-3],[0,-4],[-1,-3],[-2,-2],[-2,1],[-2,2],[-1,2],[-3,-5],[0,-5],[3,-4],[5,-1],[3,1],[5,3],[3,2],[4,-1],[7,2],[5,-1],[5,0],[5,6],[9,-7],[8,2],[8,4],[5,-4],[-1,-1],[-1,-2],[-2,-4],[9,1],[9,7],[14,14],[2,2],[2,1],[2,2],[1,1],[0,4],[-1,2],[0,1],[1,2],[6,3],[3,-1],[0,-4],[-4,-3],[0,-2],[3,-2],[2,-2],[2,-2],[3,1],[2,1],[4,5],[3,2],[1,-1],[-2,-2],[6,2],[2,4],[0,4],[3,6],[3,2],[2,1],[1,-1],[3,-1],[-1,-1],[3,-3],[3,-1],[2,4],[1,1],[4,6],[0,2],[4,1],[2,-1],[0,-2],[0,-1],[-3,-2],[0,-7],[3,-6],[6,-2],[4,2],[9,9],[5,4],[19,2],[6,3],[10,22],[6,9],[7,-4],[-6,-3],[-2,-8],[1,-23],[2,2],[5,3],[7,2],[-1,-3],[-1,-3],[0,-7],[2,0],[2,2],[1,0],[2,0]],[[3774,528],[0,3],[-42,-1],[-3,1],[-2,1],[-1,2],[-2,2],[-5,0],[7,-8],[6,-4],[9,0],[10,2],[8,-4],[4,1],[4,3],[7,2]],[[3656,596],[5,2],[3,3],[-8,0],[-10,2],[-9,3],[-10,7],[-5,2],[-4,1],[-5,0],[-5,-1],[-3,-1],[-2,-2],[-3,-1],[-2,-1],[-21,-9],[1,-5],[8,-3],[9,-2],[7,-2],[2,4],[4,-1],[4,-3],[6,-7],[1,-1],[18,1],[6,-2],[4,-4],[0,-6],[-4,-1],[-6,2],[-5,3],[0,-5],[-27,6],[-3,5],[-2,3],[-3,3],[-5,2],[-8,1],[-5,1],[-10,4],[0,5],[-8,5],[-17,7],[5,1],[4,-1],[9,-2],[20,-2],[4,1],[7,6],[9,5],[13,3],[11,-3],[10,-5],[12,-3],[6,1],[13,2],[5,2],[4,4],[9,11],[0,3],[10,5],[8,21],[6,4],[-2,-5],[1,-4],[3,-9],[3,0],[3,6],[14,7],[6,5],[1,5],[0,7],[1,6],[5,2],[-2,-5],[4,1],[2,1],[2,2],[4,1],[4,-1],[4,-3],[2,0],[0,4],[4,1],[1,2],[5,-13],[3,0],[0,3],[2,0],[2,-3],[2,-2],[3,-2],[3,-1],[5,12],[4,8],[5,3],[6,2],[9,10],[6,3],[7,-1],[-2,-5],[-10,-13],[-9,-7],[-4,-4],[8,-1],[1,-5],[0,-5],[3,-2],[4,1],[3,3],[3,0],[1,-5],[-1,-1],[-2,-4],[-1,-1],[-4,-1],[-1,-3],[1,-2],[0,-2],[-1,-5],[-1,-10],[0,-5],[-2,0],[-3,7],[-1,10],[-1,8],[-6,5],[-2,-2],[-3,1],[-5,0],[-3,-1],[-2,-2],[-1,-1],[-4,0],[-7,3],[-3,-1],[-4,-2],[-2,0],[-1,4],[-13,14],[-1,-4],[-2,-2],[-5,-3],[-3,-3],[0,-1],[0,-2],[-2,-9],[1,-3],[1,-2],[1,-4],[3,-3],[0,-1],[-4,-1],[-16,-1],[-4,-1],[-1,-3],[2,-8],[-2,1],[-5,1],[-3,1],[-4,-5],[-17,-7],[-7,-13],[-18,-4],[-6,-4],[2,-1],[1,-1],[-4,-1],[-3,-1],[-3,-1],[-3,-2],[1,2],[0,1],[1,0],[1,2],[-4,4],[3,3]],[[1930,4096],[-3,-6],[-3,-13],[-6,-15],[0,-17]],[[2613,4096],[-2,-15],[1,-24],[8,-16]],[[1918,4045],[-4,-7],[-5,-2],[-6,-1]],[[2620,4041],[6,-10]],[[2626,4031],[1,-1]],[[2696,3994],[-30,4],[-9,2],[-7,6],[-18,18],[-5,6]],[[2869,3905],[-8,7],[-13,3],[-12,6],[-27,24],[-14,6],[-25,17],[-15,8],[-24,13],[-9,3],[-8,2],[-18,0]],[[516,4096],[0,-1],[-2,-12],[-21,-36],[-9,-19],[-6,-13],[-12,-5],[-9,-1],[-3,-5],[-6,-16],[-10,-9],[-2,-12],[-3,-10],[-3,-4],[-16,-17],[-11,-4],[-12,-3],[-4,-5],[-12,-25],[-5,-8],[-6,-6]],[[364,3885],[-16,-8],[-30,-16],[-9,-5],[-12,-12],[-6,-7],[-3,-2]],[[3712,4096],[1,-7],[-2,-6],[-1,-9],[-2,-15],[5,-20],[4,-14],[2,-7],[-2,-11],[-6,-10],[-12,-6],[-9,-11],[-6,-12],[-4,-11],[-3,-10],[0,-14],[-5,-13],[0,-20],[-4,-18],[3,-14],[0,-4],[-6,-23],[-3,-3],[-8,-4]],[[288,3835],[-12,-9],[-9,-3],[-11,-2],[-11,-6],[-12,2],[-12,-6],[-15,0],[-12,-3],[-13,-5],[-17,-9],[-16,-12],[-5,-1],[-16,-2],[-12,2],[-8,-6]],[[1903,4035],[-1,-20],[-5,-17],[-1,-9],[6,-9],[7,-13],[5,-5],[7,-12],[8,-21],[16,-27],[15,-17],[5,-11],[-2,-6],[2,-22],[6,-14],[4,-9],[12,-12],[3,-3],[3,-17],[6,-21],[6,-14],[17,-16],[13,-20],[15,-15]],[[2050,3705],[8,-9],[4,-5],[25,-31],[7,-14],[0,-4],[6,-14],[6,-9],[12,-9],[3,-3],[8,-20],[13,-19],[8,-8],[12,-6]],[[2162,3554],[0,-9],[1,-18],[-1,-8],[4,-9],[3,-13]],[[3654,3834],[-1,-4],[-3,-18],[-2,-15],[2,-12],[-2,-3],[-7,-7],[-11,-8],[-7,-5],[-14,-9],[-3,-4],[-3,-11],[-12,-10],[-12,-9],[-7,-11],[-5,-3],[-7,-11],[-5,-10],[-7,-20],[-2,-4],[2,-17],[-3,-9],[0,-18],[-3,-8],[-15,-24],[-8,-3],[-12,0],[-10,-1],[-15,-5],[-17,-3],[-16,-6],[-11,-1],[-9,-4],[-8,-6],[-10,-4],[-11,-11],[-15,-1],[-10,-5],[-8,-4],[-18,-9],[-6,-6],[-6,-18],[0,-11]],[[3337,3486],[0,-15],[-3,-8],[-9,-7]],[[3306,3463],[-11,-12],[-13,-9],[-27,-7],[-9,0],[-15,7],[-21,6],[-24,8],[-8,1],[-15,8],[-13,3],[-18,1],[-20,6],[-13,9],[-9,8],[-24,27],[-26,32],[-9,12],[-7,15],[-9,12],[-6,17],[-5,21],[-6,23],[-6,12],[-1,13],[0,9],[0,14],[3,9],[-2,8],[-6,13],[-3,29],[-3,14],[-5,7],[-24,29],[-10,6],[-9,1],[-14,5],[-9,9],[-10,14],[-12,7],[-5,9],[-4,21],[-9,25]],[[3325,3456],[-6,-8],[-4,-10],[1,-28],[2,-6]],[[107,3772],[3,-19],[-1,-13],[-9,-17],[-14,-19],[-12,-13],[-6,-9],[-6,-18],[-3,-13],[-3,-14],[0,-24],[-3,-14],[-6,-18],[-1,-18],[3,-15],[7,-24],[-1,-21],[4,-14],[2,-20],[9,-22],[1,-20],[0,-24]],[[3318,3404],[3,-7]],[[2169,3497],[8,-13],[-2,-7],[-10,-15],[-3,-8],[1,-9],[5,-4],[10,-5],[5,-11],[3,-13],[-3,-18],[-3,-2],[-14,-3],[-3,-6],[0,-18],[-1,-14],[-5,-7],[-6,-3],[-3,-3],[-1,-15],[-2,-9],[-6,-8],[-10,-21],[-8,-17],[-12,-18],[-18,-18],[-15,-12],[-5,-5],[-7,-15],[-6,-21],[-5,-16],[-9,-19],[-9,-22]],[[3243,2978],[0,8],[-2,7],[-4,8],[-5,4],[-3,8],[-1,9],[0,17],[-3,16],[-5,11],[-1,13],[-3,9],[0,7],[4,10],[3,3],[5,5],[0,7],[0,15],[9,20],[6,20],[1,7],[3,17],[-1,13],[1,12],[5,11],[9,17],[10,19],[11,5],[4,12],[12,6],[3,8],[6,6],[3,15],[8,22],[4,20],[5,23],[0,4]],[[71,3403],[3,-18],[3,-23],[3,-30],[5,-23],[3,-9],[12,-24],[10,-12],[2,-5],[-29,-16],[-4,-8],[0,-15],[-6,-32],[-3,-6],[-5,-3],[-9,-4],[-10,-6],[-5,-10],[-7,-18],[-6,-15],[-12,-27],[-8,-21],[-7,-23],[-1,-2]],[[2035,3122],[-1,-5],[-8,-13],[-18,-23],[-6,-11],[-3,-9],[-3,-10],[-1,-25],[1,-10],[3,-9],[8,-12],[3,-9],[-2,-8],[-7,-18],[-3,-26],[0,-15],[-2,-9],[-3,-13],[-3,-17],[0,-9],[3,-15],[5,-14],[1,-6],[-3,-3],[0,-8],[2,-6]],[[3271,2748],[-4,16],[-6,10],[-2,11],[-4,9],[-3,12],[-5,13],[-3,14],[0,8],[3,19],[0,18],[2,12],[3,17],[0,12],[-2,12],[-3,21],[-4,19],[0,7]],[[2004,2819],[7,-3],[17,-3],[10,-4],[11,-14],[3,-3],[7,2],[6,-3],[6,-8],[19,-6],[7,-9],[8,-15],[3,-3],[10,-8],[6,-7],[6,-15],[3,-3],[18,-6],[8,-3],[10,-8],[5,-1],[10,1],[18,-11],[18,-15],[12,-7],[14,-5],[7,-1],[11,3],[7,-2],[5,-1]],[[0,2742],[22,-24],[6,-7],[7,-12],[2,-8],[3,-9],[25,-23],[5,-3],[25,-21],[30,-24]],[[3271,2748],[-9,-6],[-18,-9],[-3,-4],[-6,-15],[-7,-14],[1,-20],[0,-12],[-1,-15],[-2,-10],[-4,-9],[-5,-8],[5,-14],[-3,-15],[1,-10],[0,-6],[-6,-9],[0,-12],[9,-22],[2,-9]],[[2276,2661],[21,-12],[12,-5],[7,-6],[18,-10],[17,-8],[25,-11],[27,-15],[21,-10],[20,-6],[12,-3],[28,-9],[27,-10],[18,-7],[13,-6],[24,-18],[18,-6],[10,-5],[11,-6],[7,-6],[8,-10]],[[2620,2492],[-2,-11],[-6,-24],[-4,-17],[-6,-35],[-5,-15]],[[125,2611],[26,-20],[21,-21],[12,-14],[27,-42],[9,-13],[7,-8],[8,-11],[6,-7],[4,-12],[8,-9],[12,-9],[3,-14],[6,-9],[-3,-23],[6,-9]],[[3256,2452],[3,-4]],[[3225,2529],[4,-6],[2,-7],[1,-14],[2,-10],[4,-11],[8,-12],[6,-12],[4,-5]],[[3259,2448],[2,-3],[7,-6],[5,-6],[1,-16],[8,-13],[3,-23],[3,-7],[7,-11],[2,-12],[0,-23],[7,-30],[2,-11],[-2,-15]],[[3304,2272],[0,-15],[14,-36]],[[2645,2234],[3,-4]],[[2597,2390],[-6,-22],[-1,-8],[4,-11],[-3,-13],[8,-15],[1,-6],[0,-8],[-10,-16],[1,-11],[3,-5],[8,-4],[7,-5],[15,-4],[6,-6],[11,-15],[4,-7]],[[2648,2230],[11,-15],[6,-6],[16,-5],[8,0],[7,5],[9,9]],[[0,2117],[1,0],[9,-2],[9,-4],[12,-8],[12,-3],[12,-9],[4,-1],[9,4],[12,-1],[23,-7]],[[103,2086],[15,-4],[22,-2],[12,0],[14,-1],[12,-5],[7,-4],[9,-8]],[[277,2390],[-1,-10],[-3,-3],[-14,-12],[-5,-3],[-10,-46],[-5,-16],[-9,-14],[-6,-15],[2,-17],[3,-7],[-3,-18],[3,-14],[3,-11],[7,-12],[3,-3],[14,-7],[11,-12],[7,0],[14,-2],[4,-1],[5,-9],[0,-19],[-6,-13],[-3,-8],[3,-10],[4,-8],[6,-9],[2,-8],[-2,-9],[-3,-12],[0,-9]],[[194,2062],[21,0],[11,-1],[13,-5],[5,2],[12,7],[14,2],[3,-2],[12,-9],[4,-1],[9,-2]],[[2004,2819],[4,-10],[3,-14],[5,-7],[0,-8],[-2,-7],[-6,-11],[0,-11],[-1,-4],[-6,-11],[-3,-10],[0,-12],[-5,-11],[-6,-21],[-4,-8],[-2,-6],[5,-10],[-2,-8],[-4,-9],[0,-7],[-6,-25],[6,-21],[0,-6],[-2,-6],[-10,-20],[-5,-10],[9,-21],[3,-11],[-1,-10],[-3,-8],[-5,-6],[-7,-6],[-11,-5],[-7,-10],[-8,-3],[-3,-3],[-9,-14],[-10,-13],[-2,-11],[2,-17],[-3,-6],[-14,-19],[-4,-8],[0,-6],[6,-39],[0,-14],[-2,-12],[-6,-12],[0,-27],[0,-9],[-9,-37],[-10,-31],[-6,-14],[-5,-21],[-9,-11],[-6,-13],[-3,-15],[-6,-14],[-7,-12],[-8,-11],[-4,-12],[-9,-18]],[[1806,2047],[-2,-4],[-4,-17],[-9,-9],[-11,0],[-6,-3],[-4,-3],[-8,-14],[-6,-7],[-6,-5],[-10,-1],[-8,-3],[-3,-3]],[[2822,1947],[8,0],[13,6],[14,10],[13,10],[5,6]],[[2708,2219],[5,-1],[13,-18],[18,-15],[11,-9],[0,-3],[-3,-11],[3,-8],[4,-7],[3,-8],[3,-19],[-6,-11],[-1,-4],[4,-11],[9,-18],[2,-8],[7,-24],[0,-6],[-3,-3],[-6,-7],[-1,-6],[0,-8],[3,-11],[0,-7],[-2,-12],[3,-14],[11,-18],[7,-3],[17,-3],[13,1]],[[1729,1978],[-10,1],[-6,-3],[-5,-13],[-9,-10],[-7,-3],[-8,2],[-16,11],[-26,3],[-15,0],[-3,-2],[-18,-14],[-5,-9],[-13,-6],[-14,-15],[-10,-4],[-8,-5],[-19,-3],[-17,-1],[-4,1],[-11,0],[-6,5],[-3,7],[-6,8],[-16,12],[-6,7],[-5,14],[-6,11],[-3,1]],[[1454,1973],[-4,-3],[-8,-20],[-12,-9],[-18,-10],[-19,-9],[-11,-3],[-9,-2],[-15,2],[-6,3],[-7,0],[-5,7],[-10,0],[-5,6],[-15,5],[-10,-3],[-8,1],[-10,8],[-8,1],[-18,-1],[-10,1],[-5,6],[-7,5],[-27,-9],[-5,0],[-10,4],[-9,11],[-17,5],[-9,7],[-3,6],[1,6],[-9,11],[-3,0],[-12,-12],[-15,-8],[-13,-1],[-11,-5],[-15,5],[-7,-2],[-8,-3],[-3,-3],[-10,-3],[-5,-4],[-16,-20],[-3,-3],[-11,-3],[-3,-3],[-6,-17],[-15,-16],[-3,-6],[-10,-11]],[[2984,1863],[13,4],[7,5],[18,7],[12,5],[11,0],[9,-11],[6,0],[7,6]],[[2875,1979],[10,-7],[8,-12],[4,-11],[9,-8],[9,-21],[8,-7],[13,-9],[21,-20],[14,-12],[10,-8],[3,-1]],[[977,1884],[-9,-20],[3,-10],[-3,-11],[-3,-3]],[[965,1840],[-3,-1],[-6,3],[-11,7],[-18,6],[-18,9],[-13,5],[-24,4],[-27,2],[-11,3],[-24,-8],[-7,-1],[-32,0],[-18,-9],[-7,3],[-11,7],[-20,8]],[[2822,1947],[-1,-4],[-12,-21],[-11,-9],[-10,-12],[-12,-9],[-21,-10],[-21,-4],[-24,-8],[-15,-3],[-8,-1],[-10,-5],[-12,-3],[-15,-3],[-3,-1],[-20,-17]],[[715,1878],[-15,4],[-12,-1],[-3,-3],[-4,-6],[-5,-11],[-7,-6],[-15,-7],[-11,-8],[-15,-3],[-15,-10],[-13,-5],[-12,0],[-11,3],[-25,-6],[-11,-3],[-7,-2],[-6,3],[-14,11],[-4,2]],[[1729,1978],[5,-6],[3,-8],[0,-6],[6,-8],[4,-10],[6,-5],[3,-4],[2,-11],[7,-4],[9,-8],[3,-6],[14,-9],[3,-3],[3,-11],[9,-7],[4,-8],[5,-10],[6,-3],[18,1],[10,-1],[17,-9],[13,-6],[15,-9],[3,-8],[6,-5],[8,0],[18,14],[10,2],[15,-6],[9,1],[15,-3],[11,2],[7,3],[8,0],[4,-3]],[[2627,1837],[-13,-10],[-15,-10],[-20,-4],[-33,-11],[-15,-4]],[[3067,1879],[8,6],[7,5],[9,2],[11,0],[7,4],[11,2],[12,-5],[16,-15],[6,-2],[15,11],[12,2],[21,6],[5,-2],[12,-8],[22,-9],[8,-3],[7,-6],[5,-7],[6,-17],[7,-18],[6,-11],[27,-21],[3,-3],[8,-13],[3,-3]],[[3368,1859],[-4,-11],[-6,-6],[0,-11],[2,-9],[-2,-5],[-16,-16],[-3,-3],[-1,-9]],[[3366,2148],[6,-12],[6,-15],[6,-27]],[[3338,1789],[-1,-5],[-3,-6],[-7,-4],[-6,0]],[[3321,2215],[10,-23],[6,-6],[6,-6],[6,-10],[17,-22]],[[3384,2094],[3,-14],[4,-7],[3,-11],[2,-31],[0,-26],[3,-17],[-6,-10],[-3,-12],[3,-14],[1,-12],[-9,-26],[-9,-18],[-6,-18],[0,-11],[-2,-8]],[[510,1830],[-3,-3],[-6,4],[-8,0],[-12,-4],[-13,-3],[-5,-3],[-12,-4],[-15,0],[-13,-6],[-23,-3],[-10,-7],[-20,-11],[-7,-1],[-18,-8],[-12,-3],[-12,2],[-11,-2],[-10,-6],[-8,-1],[-15,0],[-29,0],[-21,1],[-28,3],[-17,0],[-21,5],[-7,-3]],[[154,1777],[-8,-2],[-7,-6],[-9,-9],[-5,-11],[-4,-10]],[[3343,1718],[-4,3],[-8,12],[-3,10],[-1,16],[-3,12],[-3,3]],[[4061,1706],[-6,13],[-6,6],[-4,8],[-2,10],[-4,6]],[[118,1734],[-8,5],[-12,-3],[-6,0],[-7,-3],[-3,3],[-8,-3],[-6,1],[-7,-1],[-5,-5],[-4,-10],[-2,-15]],[[50,1703],[-4,-3],[-11,0],[-7,9],[-8,1],[-7,0],[-13,-5]],[[2148,1674],[-7,3],[-17,3],[-7,3],[-6,5],[-6,7],[-12,15],[-19,30],[0,11],[-6,11],[0,3],[5,15],[-6,16],[0,6],[-5,6],[-7,2],[-14,-3],[-6,3],[-10,-3],[-8,-2],[-3,3]],[[2531,1798],[-14,0],[-10,4],[-8,0],[-7,-1],[-18,-17],[-15,-9],[-15,-7],[-8,-9],[-9,-5],[-21,-5],[-7,-1],[-14,1],[-12,3],[-19,-1],[-11,1],[-15,0],[-9,2],[-19,-5],[-9,2],[-9,6],[-18,-14],[-17,-3],[-10,-9],[-11,-9],[-7,0],[-11,-7],[-7,-11],[-5,-1],[-10,-9],[-5,-2],[-6,0],[-4,3],[-5,-6],[-1,-8],[-5,-6],[-12,-1]],[[4034,1751],[-7,-5],[-18,-4],[-8,-5],[-10,-13],[-3,-12],[-3,-6],[-8,-11],[-19,-17],[-17,-10],[-7,-9]],[[3840,1621],[-10,8],[-12,13],[-6,6],[-8,2],[-13,-3],[-11,-9],[-7,-2]],[[3648,1618],[-15,5],[-13,4],[-15,9],[-20,8],[-16,4],[-11,11],[-3,1],[-16,5],[-14,7],[-13,12],[-18,14],[-17,0],[-7,11],[-14,6],[-26,10],[-7,2],[-6,-2],[-3,-3],[-5,-7],[-4,-8],[-11,-6],[-4,-1],[-11,3],[-6,7],[-30,8]],[[3773,1636],[-8,0],[-10,5],[-9,10],[-3,0],[-14,-7],[-18,-6],[-15,-6],[-7,-9],[-18,-7],[-8,-1],[-15,3]],[[3934,1659],[-2,-8],[5,-13],[12,-35],[-2,-2]],[[3321,1774],[-12,1],[-3,-3],[-3,-7],[-11,0],[-7,-8],[-20,-14],[-3,-4],[-10,-6],[-11,-8],[-3,-7],[-3,-14],[-3,-4],[-12,-2],[-6,-7],[-3,-8],[-1,-21],[-2,-3],[-7,-3],[-14,-6],[-4,-8],[-8,-3],[-13,-15],[-9,-14],[-12,-7],[-8,-8],[-13,-6]],[[3947,1601],[-12,-9],[-25,-6],[-34,-12],[-7,3],[-9,9],[-5,8],[-10,19],[-5,8]],[[4096,1693],[-2,1],[-12,7],[-21,5]],[[3120,1589],[-8,-7],[-7,-14],[-12,-15],[-11,-8],[-16,-6],[-18,-13],[-6,-2]],[[3042,1524],[-20,-12],[-15,-3],[-10,-3],[-13,-6],[-10,-3]],[[0,1500],[7,2],[24,6],[15,6],[16,10],[11,3],[9,6],[9,3],[16,-1],[8,1],[4,3]],[[2974,1497],[-18,-10],[-11,-7],[-18,-16],[-1,-6],[-3,-8],[-3,-1],[-17,-3],[-15,0],[-19,-6],[-8,0],[-15,0],[-3,-2],[-9,-9],[-9,-4],[-10,-8]],[[3444,1414],[-8,5],[-6,6],[-7,19],[1,8],[9,10],[3,6],[4,22],[3,7],[6,8],[3,7],[0,12],[3,14],[7,18],[2,15],[-2,8],[-6,9],[-9,9],[-9,3],[-8,4],[-18,5],[-6,7],[-1,7],[3,12],[-3,6],[1,7],[-4,8],[-24,22],[-12,14],[-5,8],[-6,4],[-6,8],[-6,6]],[[119,1539],[12,0],[11,-1],[15,3],[9,-5],[3,0],[18,2],[24,-3],[3,-3],[4,-12],[11,-6],[9,-9],[44,-6],[7,-2],[14,-10],[13,-5],[3,-3],[5,-6],[3,-12],[3,-5],[10,-7],[18,-8],[24,-13],[18,-3],[11,-8],[16,-6]],[[2815,1417],[-17,-5],[-7,-3],[-15,-3],[-17,-6],[-7,0],[-29,-7],[-13,4],[-8,2],[-7,-2],[-8,-1],[-10,-6],[-6,-2],[-12,-1],[-6,1],[-8,0],[-6,-3],[-13,-13]],[[3479,1316],[-3,15],[-9,10],[-9,11],[-3,11],[-2,21],[-1,12],[-5,10],[-3,8]],[[432,1394],[1,-7],[9,-8],[3,-7],[-1,-8],[-9,-10],[6,-14],[1,-8],[-3,-19],[0,-14],[5,-15],[6,-11]],[[1324,1328],[15,-5],[13,-6],[6,-6],[11,-6],[6,-6],[10,-6],[6,-7],[6,-4],[8,-6],[7,-1],[8,1],[4,-1],[12,-9],[6,1],[12,5],[11,0],[12,-3],[9,-5],[4,-3],[15,2],[9,-3],[8,-5],[3,0],[10,-6],[30,-6]],[[450,1273],[16,-16],[14,-9],[16,-9],[11,-6]],[[1565,1243],[5,-1],[6,-8],[7,-3],[18,3],[23,-12]],[[1101,1204],[9,3],[8,6],[4,11],[11,13],[9,5],[15,16],[7,8],[17,7],[20,6],[12,7],[22,10],[9,11],[20,16],[10,6],[8,2],[13,-3],[8,3],[9,0],[12,-3]],[[3501,1198],[-4,18],[-8,11],[-3,7],[-3,15],[0,8],[5,18],[0,15],[-3,17],[-6,9]],[[3503,1190],[-2,8]],[[2623,1268],[-11,-5],[-7,-18],[0,-5]],[[2626,1370],[0,-16],[-2,-11],[-3,-11],[8,-10],[4,-24],[2,-8],[-1,-6]],[[2605,1240],[1,-3],[-3,-7],[-7,-6],[-5,-14],[-7,-5],[-3,-6],[1,-12],[-1,-7],[-3,-6],[0,-12],[-8,-17]],[[2634,1284],[-1,-6],[-4,-8],[-6,-2]],[[2626,1372],[0,-2]],[[1624,1222],[-6,-6],[0,-8],[-6,-6],[-2,-3],[2,-7],[4,-8],[-1,-9],[1,-7],[5,-6],[-2,-8],[-9,-3],[-4,8],[-8,-3],[-1,-8],[1,-5]],[[969,1118],[3,3],[11,1],[9,-4],[7,0],[8,-3],[7,0],[11,13],[15,8],[4,10],[3,3],[9,11],[8,6],[6,6],[6,3],[4,8],[12,9],[9,12]],[[520,1236],[9,-9],[12,-6],[18,-3],[17,-8],[3,-9],[-2,-8],[3,-7],[0,-15],[3,-8],[8,-14],[1,-7],[-1,-6],[3,-11],[-5,-7],[0,-11],[2,-7],[9,-14],[4,-5]],[[2570,1145],[-3,-9],[-4,-12],[-2,-9],[5,-14],[3,-4],[3,-11],[3,-1],[-2,-4],[0,-9],[-7,-6],[-3,-6]],[[2563,1060],[-8,-1],[-7,4],[-3,0],[-16,-4],[-7,1],[-6,6],[-11,12],[-7,-1],[-6,0],[-11,6],[-6,2],[-15,0],[-7,3],[0,-2]],[[604,1081],[8,2],[6,-2],[16,-15],[6,-1],[8,0],[13,1],[17,-3],[15,-1],[7,-3],[14,3],[8,-2],[12,-7],[10,-3],[8,-6],[6,-2],[16,-1],[15,0],[6,-2],[9,-3]],[[812,1032],[12,-3],[12,1],[10,8],[6,7],[9,9],[2,6],[0,12],[3,5],[6,4],[18,7],[7,0],[6,3],[9,0],[14,1],[7,-3],[8,-11],[7,2],[3,5],[9,13],[6,15],[3,5]],[[1598,1143],[3,-1],[9,-5],[9,-9],[3,-3],[10,-1],[7,-6],[11,-2],[13,5],[8,-2],[10,-6],[3,0],[8,6],[10,-1],[2,-8],[3,-1],[7,-2],[3,-6],[-3,-3],[2,-6],[-5,-7],[9,-2],[17,2],[9,0],[22,-10],[12,-3],[26,0],[10,-6],[14,-4],[6,-6],[1,-11],[12,-16],[11,-8]],[[2106,1039],[-10,2],[-8,6],[-11,3],[-10,-2],[-18,5],[-11,-5],[-10,-13],[-3,0],[-6,6],[-6,3],[-8,-2],[-7,-4],[-6,-11],[-3,-3],[-8,0],[-7,-4]],[[3564,1021],[-10,-1],[-14,0],[-7,4],[-6,8],[-5,9],[-3,3],[-4,12],[-3,12],[-3,10],[1,16],[8,18],[1,6],[-3,10],[0,15],[0,14],[0,8],[-3,10],[-9,12],[-1,3]],[[3564,1021],[3,-3]],[[1974,1020],[-8,4],[-7,0],[-11,9],[-3,-1],[-3,-8],[-6,-1],[-7,3],[-2,7],[-4,6],[-5,2],[-9,-3],[-13,-3],[-8,-3],[-13,-11],[-9,-4]],[[2171,965],[-5,11],[-7,6],[-2,10],[-3,8],[-3,10],[-3,3],[-3,8],[-3,3],[-10,3],[-5,8],[-4,3],[-14,3],[-3,-2]],[[1866,1013],[9,-18],[3,-18],[1,-6],[3,-1],[5,3],[12,-6],[21,-8],[7,-3]],[[3450,953],[5,2],[1,7],[6,6],[17,-4],[18,3],[7,-2],[11,-4],[3,1],[19,18],[12,21],[15,20]],[[2453,1086],[-3,-1],[-8,-17],[-3,-3],[-3,-8],[-9,-7],[-7,-2],[-12,-1],[-5,-3],[-4,-8],[-3,-15],[-5,-8],[-13,-13],[-9,-12],[-9,-15],[-8,-2],[-6,-13],[-4,-5],[-3,-1],[-9,9],[-8,0],[-7,3],[-14,-3],[-7,1],[-8,5],[-7,-3],[-18,9],[-3,0],[-9,-8],[-12,-1]],[[3567,1018],[3,-3],[2,-12],[0,-11],[1,-10],[8,-27],[4,-11]],[[1927,956],[6,-6],[9,-9],[11,6],[6,8],[3,1],[7,-1]],[[3288,902],[7,1],[5,3],[4,15]],[[3312,930],[7,2],[18,1],[9,-1],[8,4],[4,7]],[[3371,945],[4,-4]],[[3271,906],[14,-4],[3,0]],[[3304,921],[3,8],[5,1]],[[3358,943],[2,4],[4,1],[6,-3],[1,0]],[[3375,941],[3,-3],[6,-6],[7,-3],[9,1],[8,-1],[10,4],[8,17],[3,3],[6,3],[15,-3]],[[3129,912],[10,5],[11,-5],[6,0],[7,-12],[8,-6],[7,-1],[5,1],[13,9],[8,3],[9,0],[16,-4],[11,0],[15,4],[16,0]],[[604,1081],[-19,0],[-12,-3],[-18,-13],[-8,-6],[-12,-9],[-7,-2],[-17,-1],[-9,-2],[-18,-15],[-24,-26],[-7,2],[-8,6],[-4,6],[-11,-1],[-12,1],[-7,-3],[-51,-12],[-12,-5],[-15,-9],[-9,-10],[-20,-15],[-12,-17],[-1,-8],[1,-21],[-6,-7],[-15,-8],[-12,-10],[-9,-3],[-11,6],[-9,-2],[-13,-6],[-6,-9],[-8,-11],[-1,-7],[-5,-6],[-7,-3]],[[1969,955],[3,-2],[3,-12],[5,-8],[3,-6],[-6,-10],[3,-8],[6,-19],[3,-8],[-8,-14],[-1,-13],[1,-5]],[[3102,849],[7,15],[-4,13],[4,5],[3,12],[6,14],[11,4]],[[3078,832],[1,5],[6,6],[14,3],[3,3]],[[3711,835],[5,2],[21,4],[7,-3],[6,-4],[30,-5],[8,-1]],[[3788,828],[3,0]],[[3585,944],[6,-17],[8,-36],[1,-18],[-1,-12],[-3,-11],[-8,-13],[-7,-12],[-2,0]],[[3579,825],[-6,1],[-18,11],[-3,0]],[[3019,819],[21,3],[5,6],[7,3],[11,-5],[15,6]],[[3579,825],[2,-14],[18,1],[18,7],[22,3],[11,0],[13,-13],[3,0],[11,0],[18,3],[7,5],[9,18]],[[190,852],[-12,-2],[-6,-6],[-2,-3],[6,-13],[-1,-8],[-8,-6],[-10,-3],[-12,-3],[-29,-3],[-21,0],[-18,1],[-7,-1],[-12,-5],[-8,-1],[-7,-6],[-11,4],[-6,6],[-16,2],[-10,-3]],[[3791,828],[16,-2],[18,-6],[9,2],[15,0],[14,4],[9,6],[7,2],[3,-3],[9,-22],[2,-7],[11,-15]],[[2959,785],[4,9],[3,2],[8,-3],[14,7],[9,9],[10,5],[12,5]],[[2909,707],[-3,7],[3,11],[9,13],[23,25],[1,7],[6,6],[8,5],[3,4]],[[3904,787],[3,-5],[6,-4],[15,-3],[7,-6],[8,-9],[24,-8],[13,-3],[3,-2],[5,-7],[10,-11],[-1,-10],[-3,-12],[-3,-15]],[[2891,675],[6,4],[5,11],[7,11],[0,6]],[[3551,835],[-2,-3],[0,-6]],[[3549,826],[-1,-12],[-8,-36],[-16,-43],[-5,-6],[-13,-15],[-14,-12],[-18,-21],[-12,-14],[0,-3]],[[3552,837],[-1,-2]],[[3462,664],[-12,-4],[-6,-3],[-20,1],[-3,2],[-19,-8],[-11,-1],[-19,-8],[-6,-7]],[[3991,692],[1,-5],[17,-18],[9,-11],[12,-15],[10,-10],[3,-2]],[[2840,631],[9,3],[8,9],[7,2],[6,6],[0,10],[8,6],[13,8]],[[3462,664],[3,-10],[3,-30]],[[3468,624],[2,-13],[0,-18],[1,-18],[3,-4]],[[812,1032],[-5,-6],[2,-5],[6,-6],[3,-11],[4,-7],[11,-6],[1,-8],[5,-4],[-2,-11],[3,-7],[5,-19],[0,-10],[1,-5],[6,-6],[2,-10],[4,-12],[9,-8],[2,-7],[12,-13],[9,-15],[24,-13],[16,-11],[3,0],[17,0],[7,-1],[8,-5],[9,-9],[7,-3],[9,-8],[15,-7],[11,-3],[13,-8],[5,-7],[0,-11],[-3,-10],[-2,-8],[-1,-8],[6,-16],[6,-6],[9,-3],[3,-5],[3,-10],[0,-15],[-2,-16],[-3,-16],[2,-11],[-9,-12],[-8,-13],[0,-3],[3,-11],[0,-8],[-6,-18],[-4,-7],[-11,-14]],[[2824,560],[0,3],[-3,11],[0,6],[6,7],[1,6],[-3,11],[8,15],[1,8],[6,4]],[[4043,631],[8,-3],[6,0],[10,-10],[8,-5],[10,-3],[11,-2]],[[2726,528],[14,8],[10,3],[9,0],[15,3],[20,8],[10,0],[11,3],[7,3],[2,4]],[[1981,850],[-1,-13],[0,-8],[6,-10],[1,-8],[5,-8],[3,-7],[4,-6],[3,-6],[-9,-14],[-13,-10],[-2,-8],[-6,-6],[-3,-11],[-3,-6],[0,-6],[5,-9],[1,-10],[3,-11],[-3,-12],[-9,-11],[-3,-13],[-6,-6],[-6,-17],[-1,-9],[-6,-10],[-14,-8],[-7,-5],[-14,-10],[-10,-5],[-3,-3],[0,-10],[-3,-6],[-3,-11],[-6,-9],[-12,-14],[-3,-3],[-2,-12]],[[3358,615],[-3,-16],[-10,-10],[-8,-5],[-12,-4],[-4,-5],[-5,-10],[-10,-8],[-18,-9],[-24,-8],[-6,-4],[-5,-8],[-12,-7],[-10,-2]],[[2648,503],[3,1],[8,9],[6,3],[7,8],[6,3],[6,6],[11,1],[10,0],[11,-6],[7,-1],[3,1]],[[2387,500],[4,-5],[8,2],[7,-2],[8,3],[16,-4],[6,3],[11,-6],[13,3],[3,3],[8,3],[10,13],[3,2],[8,0],[9,-5],[6,5],[7,-3],[6,-5],[8,0],[12,-6],[8,-1],[10,3],[15,-5],[12,0],[9,3],[17,-1],[12,6],[10,0],[15,-3]],[[1997,516],[10,3],[10,0],[11,-6],[10,3],[8,2],[7,3],[23,4],[18,-1],[11,3],[10,-2],[8,-4],[15,1],[10,-6],[8,-1],[10,3],[6,0],[18,-6],[14,-2],[7,5],[3,0],[11,-8],[7,2],[3,6],[20,6],[4,-6],[8,-5],[4,-7],[21,-15],[18,1],[5,4]],[[1864,519],[3,2],[24,-5],[23,3],[12,6],[3,-1],[10,1],[14,-6],[10,-1],[11,1],[9,-4],[10,0],[4,1]],[[2315,493],[4,4],[9,9],[3,1],[8,-3],[10,0],[8,-7],[10,6],[11,-2],[7,0],[2,-1]],[[3474,571],[2,-2],[10,-4],[21,-6],[11,-8],[10,0],[11,-9],[19,-5],[8,-4],[18,-8],[10,-7],[18,-17],[8,-4],[6,-12]],[[3626,485],[0,-3]],[[1864,519],[-10,-13],[-8,-6],[-6,-8],[5,-10],[-2,-7],[-7,-7],[-5,-11],[-4,-7],[-8,-5],[-15,-9],[-9,-9],[-4,-3],[-6,-1],[-15,-5],[-23,-15],[-13,-12],[-15,-2],[-17,-9]],[[1017,560],[0,-1],[2,-14],[-6,-11],[-6,-18],[-2,-18],[2,-16],[4,-28],[-1,-13],[-6,-8],[-2,-7],[5,-9],[1,-13],[3,-6],[-1,-21],[-6,-4],[-2,-8],[-10,-3],[-3,-3],[-2,-7],[-3,-7]],[[3222,521],[-5,-9],[-4,-15],[-3,-8],[-8,5],[-12,3],[-6,-5],[-12,-7],[-25,-14],[-8,0],[-9,-11],[-3,-7],[-7,-11],[-5,-9],[-9,-3],[-9,-10],[-15,-19],[-19,-21],[-12,-15],[-21,-20]],[[1702,380],[-6,-12],[-4,-6],[-12,-13],[-6,-7],[-8,-1],[-10,-5],[-8,-10],[-4,-3],[-14,-5],[-9,-6]],[[2836,240],[-3,-2]],[[3626,482],[1,-5],[-3,-15],[2,-15],[0,-26],[0,-30],[1,-20],[5,-13],[0,-8],[-3,-9],[1,-12],[5,-14],[6,-15],[3,-9],[4,-20],[2,-10],[-2,-15],[3,-11]],[[2920,243],[-14,6],[-13,-3],[-11,-6],[-7,-3],[-11,-2],[-7,-4],[-3,0],[-6,7],[-12,2]],[[3030,345],[-6,-4],[-17,-8],[-6,-6],[-3,-6],[3,-13],[-1,-8],[3,-7],[0,-8],[-6,-11],[-13,-7],[-12,-21],[-3,-8],[-3,-12]],[[2966,226],[-9,5],[-21,7],[-7,0],[-9,5]],[[4013,229],[-15,-6]],[[4096,208],[-2,1],[-15,10],[-10,4],[-15,6],[-26,3],[-15,-3]],[[984,345],[3,-7],[-6,-12],[2,-8],[9,-10],[1,-14],[-4,-17],[-3,-18],[-6,-19],[-2,-12],[0,-19],[2,-7],[-2,-8],[-1,-6]],[[3238,206],[-6,-3],[-10,-9],[-8,-4],[-6,-6],[-6,-2],[-6,0],[-22,-3],[-12,3]],[[2648,503],[-1,-6],[-11,-20],[-7,-5],[-6,-9],[0,-22],[-3,-12],[-5,-9],[-7,-8],[-21,-17],[-5,-12],[0,-6],[-3,-7],[-1,-8],[6,-7],[1,-14],[5,-14],[1,-7],[-6,-11],[-3,-6],[0,-12],[-3,-7],[-7,-3],[-5,-13],[-6,-7],[-10,-11],[-3,-6],[-5,-18],[-3,-21],[5,-11],[-5,-10],[-7,-5]],[[3162,182],[-3,0],[-11,-4],[-12,1],[-7,0],[-15,2],[-20,6],[-6,4],[-13,6],[-23,6],[-19,3],[-11,-1],[-10,6],[-11,2],[-7,4],[-2,3],[-11,2],[-15,4]],[[3998,223],[-10,-4],[-15,-13],[-9,-12],[-9,0],[-12,-3],[-9,-6],[-14,-7],[-12,-9]],[[977,188],[6,2],[13,0],[11,-3],[9,-8],[13,-9],[11,-1],[4,-3]],[[1621,312],[-5,-1],[-7,-2],[-18,5],[-3,3],[-9,9],[-3,7],[-8,3],[-21,0],[-7,2],[-14,-3],[-7,0],[-33,0],[-29,-8],[-13,-4],[-21,0],[-17,-5],[-12,-3],[-18,-7],[-15,-9],[-18,-14],[-12,-4],[-10,-17],[-2,-3],[0,-14],[-3,-3],[-16,-1],[-21,-6],[-5,-3],[-15,-6],[-21,-20],[-3,-2],[-13,7],[-6,-2],[-3,-3],[-6,-9],[-6,-3],[-5,-6],[-13,-8],[-16,-3],[-12,-3],[-3,0],[-16,-4],[-14,0],[-13,-6],[-23,-2],[-31,3],[-11,-1]],[[3430,166],[-10,-5],[-8,2],[-18,6],[-6,0],[-10,1],[-8,0],[-21,-4],[-3,0],[-10,4],[-21,5],[-23,6],[-7,0],[-8,1],[-6,11],[-9,1],[-4,8],[-11,4],[-9,0]],[[3908,169],[-6,-6],[-15,-2],[-15,-6]],[[3471,149],[-24,9],[-11,6],[-6,2]],[[791,149],[-17,-5],[-6,2],[-10,6],[-8,2],[-9,-5]],[[3743,132],[-2,-1],[-12,0],[-3,1]],[[3872,155],[-8,-3],[-15,-1],[-16,-3],[-35,-13],[-18,2],[-10,7],[-8,0],[-6,-3],[-12,-9],[-1,0]],[[972,178],[-4,-14],[-2,-3],[-7,-3],[-14,-10],[-15,0],[-12,-5],[-10,-8],[-11,-1],[-6,-6],[-7,-3],[-6,-2],[-15,-4],[-11,1],[-18,6],[-27,8],[-6,7],[-6,3],[-4,5]],[[3726,132],[-4,3],[-8,0],[-7,-4],[-9,1],[-8,-3],[-18,-13]],[[3660,141],[12,-25]],[[3651,235],[2,-13],[0,-23],[-6,-26],[0,-3],[4,-7],[6,-17],[3,-5]],[[3672,116],[-15,-2],[-7,-5]],[[3650,109],[0,-1]],[[3650,108],[-8,12],[-3,3],[-7,2],[-17,-3],[-7,0],[-11,1],[-15,6],[-10,0],[-14,9],[-10,5],[-8,1],[-31,-3],[-11,0],[-9,2],[-18,6]],[[3650,108],[-12,-3],[-14,0],[-6,-3],[-12,-7],[-18,-8],[-9,-4],[-12,-10],[-10,-9],[-14,-4],[-10,-11],[-8,-1]],[[2523,172],[-4,-8],[-5,-15],[-7,-11],[-6,-7],[-3,-12],[-11,-18],[2,-8],[-8,-10],[0,-8],[-4,-2],[-3,-12],[-5,-6],[3,-9]],[[2746,27],[0,-1]],[[2746,26],[-15,-19]],[[2833,238],[-9,-7],[-8,0],[-10,-15],[-6,-7],[-6,-7],[3,-15],[0,-15],[3,-14],[4,-15],[-1,-11],[-3,-15],[-6,-12],[-3,-3],[-8,-1],[-9,-9],[-6,-22],[-12,-12],[-3,-13],[-7,-18]],[[2725,0],[1,2],[5,5]],[[3525,48],[-10,-11],[-9,-6],[-14,-12],[-10,-6],[-15,-11],[-2,-2]],[[2458,0],[-1,8],[14,32],[1,6]],[[1044,166],[5,-9],[3,-16],[4,-7],[17,-14],[9,-13],[9,-11],[12,-18],[3,-15],[1,-14],[3,-13],[0,-11],[-3,-20],[4,-5]],[[644,0],[-5,4],[-2,8],[0,10],[2,3],[13,11],[5,6],[4,10],[3,11],[3,4],[12,8],[6,8],[3,6],[2,10],[18,18],[15,6],[9,6],[6,6],[0,8],[3,6]],[[0,4096],[4096,0],[0,-4096],[-2289,0],[-1807,0],[0,2854],[0,1242]],[[2823,3264],[54,179],[51,46],[131,-15],[84,-46],[-87,-202],[-45,-40],[-41,-287],[-124,6],[-23,359]],[[2903,2544],[61,86],[33,1],[46,-56],[104,-48],[-68,-49],[-71,34],[-101,-21],[-4,53]],[[2317,2815],[77,170],[116,61],[83,-27],[-5,-65],[-86,-160],[-77,-51],[-100,32],[-8,40]],[[2568,1463],[77,76],[91,5],[17,-30],[37,-5],[20,-68],[-54,-16],[-44,26],[-109,-48],[-35,60]],[[2347,1403],[61,36],[34,-17],[38,153],[61,63],[19,69],[108,-37],[-10,-68],[56,-22],[18,-37],[-87,-4],[-40,-62],[-37,-13],[22,-52],[-24,-36],[-72,-21],[-15,25],[-71,-31],[-61,54]],[[2718,285],[9,25],[63,12],[-52,-54],[-20,17]],[[4010,1376],[86,87],[0,-129],[-4,-3],[-24,34],[-23,-15],[-35,26]],[[2208,1328],[66,106],[-26,59],[32,32],[17,122],[82,-1],[68,-55],[46,20],[60,107],[-12,-80],[-61,-63],[-40,-155],[-32,19],[-41,-33],[-44,12],[-12,-56],[-29,-14],[-27,22],[2,-25],[-49,-17]],[[1157,3543],[20,17],[11,258],[48,-3],[14,-85],[102,-96],[66,-130],[-1,-74],[-83,-59],[-117,-2],[-60,174]],[[3894,2650],[17,15],[-5,54],[9,12],[59,-56],[46,20],[76,-70],[0,-445],[-28,14],[-23,58],[-33,4],[-83,128],[20,116],[-51,62],[-4,88]],[[3884,3002],[18,54],[66,-46],[107,12],[21,-13],[0,-104],[-90,30],[-18,-52],[108,-14],[0,-63],[-4,-10],[-98,45],[-53,-17],[-42,24],[20,78],[-35,76]],[[1959,0],[0,28],[61,26],[62,-27],[41,20],[80,-13],[-23,-34],[-221,0]],[[3694,93],[-20,-21],[-29,45],[29,47],[69,-32],[-49,-39]],[[1737,2702],[18,44],[129,107],[85,-45],[-14,-64],[-141,-132],[-42,12],[-35,78]],[[2564,3381],[87,10],[8,15],[34,32],[-3,36],[129,9],[1,35],[212,-25],[-116,-105],[66,-34],[-23,-29],[172,85],[-48,-37],[17,-238],[-56,-126],[6,-121],[27,-151],[72,-184],[88,-111],[25,13],[-13,-28],[45,-128],[-33,-15],[-15,38],[-15,-11],[-25,103],[-227,176],[-13,64],[-27,16],[-49,-48],[28,117],[-36,-11],[-6,52],[-46,10],[-9,43],[-47,17],[-1,65],[60,-32],[23,16],[-41,82],[17,28],[-30,119],[-44,43],[-5,27],[34,-8],[0,25],[-47,30],[15,96],[53,29],[-49,44],[27,18],[-113,-26],[-4,-4],[-20,-14],[-23,-11],[-30,-28],[-32,32]],[[2660,3405],[1,-5],[5,2],[2,-1],[3,7],[-11,-3]],[[2833,3010],[8,-9],[7,-2],[-9,19],[-6,-8]],[[3224,828],[97,112],[55,5],[-11,-33],[78,-3],[101,-45],[9,-38],[-46,-3],[-59,-109],[-74,14],[-10,26],[-63,-29],[-11,105],[-58,-32],[-8,30]],[[2557,1726],[38,21],[73,-63],[57,5],[69,-51],[-73,-95],[-7,36],[-57,24],[11,67],[-111,56]],[[2648,60],[71,151],[72,56],[-49,-170],[-67,-57],[-27,20]],[[2206,1325],[51,20],[-2,25],[27,-22],[29,14],[12,56],[85,-69],[71,31],[9,-24],[37,-1],[62,58],[37,-34],[13,-90],[-57,-88],[-15,27],[-76,-25],[-89,124],[-71,-27],[-123,25]],[[2730,0],[37,63],[79,12],[-8,-75],[-108,0]],[[1929,2260],[49,69],[-5,57],[40,87],[66,-37],[47,56],[50,-24],[292,-12],[68,-150],[114,-75],[-53,-46],[-18,-58],[-14,-172],[-47,46],[-64,11],[-100,107],[-63,27],[-111,152],[-20,0],[5,-92],[-171,-134],[-46,55],[6,78],[-25,55]],[[2563,0],[-26,114],[13,99],[60,35],[34,62],[57,-4],[15,36],[3,-56],[-82,-50],[19,-44],[63,19],[4,-22],[-54,-114],[-32,38],[12,46],[-65,10],[-8,-26],[38,-49],[-14,-60],[32,-34],[-69,0]],[[1997,587],[3,122],[29,32],[86,4],[-27,28],[15,59],[-44,40],[96,-3],[101,39],[52,-113],[-3,-48],[86,-121],[-7,-94],[-74,-19],[18,-77],[-38,-4],[-50,-67],[-128,-11],[-12,55],[-18,-22],[-44,5],[-6,48],[-35,33],[0,114]],[[3331,1799],[28,60],[67,0],[-27,58],[38,50],[-25,2],[2,117],[-26,0],[-33,62],[379,1],[-4,-228],[-76,0],[-70,-81],[-238,-63],[-15,22]]]}