{"objects":{"water":{"type":"GeometryCollection","geometries":[{"type":"MultiPolygon","properties":{"source":"naturalearthdata.com","kind":"lake","name":"Lake Bangweulu","area":2212633088,"sort_rank":200,"min_zoom":0.0,"id":500},"arcs":[[[588]],[[589]]]},{"type":"MultiPolygon","properties":{"source":"naturalearthdata.com","kind":"playa","name":"Makgadikgadi Pans","area":6102797723,"sort_rank":200,"min_zoom":0.0},"arcs":[[[590]],[[591]]]},{"type":"Polygon","properties":{"source":"naturalearthdata.com","kind":"lake","name":"Lake Xau","area":89177360,"sort_rank":200,"min_zoom":0.0,"id":683},"arcs":[[592]]},{"type":"Polygon","properties":{"kind":"lake","name":"Lake Kariba","reservoir":true,"area":5176569856,"sort_rank":200,"source":"naturalearthdata.com","min_zoom":0.0,"id":1186},"arcs":[[593]]},{"type":"Polygon","properties":{"kind":"lake","name":"Lago de Cahora Bassa","reservoir":true,"area":1682553472,"sort_rank":200,"source":"naturalearthdata.com","min_zoom":0.0,"id":1205},"arcs":[[594]]},{"type":"Point","properties":{"label_placement":true,"kind":"lake","name":"Lake Kariba","reservoir":true,"area":5176569856,"sort_rank":200,"source":"naturalearthdata.com","min_zoom":0.0,"id":1186},"coordinates":[1852,1792]},{"type":"Point","properties":{"label_placement":true,"kind":"playa","name":"Makgadikgadi Pans","area":3146463488,"sort_rank":200,"source":"naturalearthdata.com","min_zoom":0.0,"id":23},"coordinates":[1030,518]},{"type":"Point","properties":{"label_placement":true,"kind":"playa","name":"Makgadikgadi Pans","area":2956334080,"sort_rank":200,"source":"naturalearthdata.com","min_zoom":0.0,"id":24},"coordinates":[1264,457]},{"type":"Point","properties":{"label_placement":true,"kind":"lake","name":"Lago de Cahora Bassa","reservoir":true,"area":1682553472,"sort_rank":200,"source":"naturalearthdata.com","min_zoom":0.0,"id":1205},"coordinates":[3482,2380]},{"type":"Point","properties":{"label_placement":true,"kind":"lake","name":"Lake Xau","area":89177360,"sort_rank":200,"source":"naturalearthdata.com","min_zoom":0.0,"id":683},"coordinates":[817,248]},{"type":"LineString","properties":{"source":"naturalearthdata.com","kind":"playa","sort_rank":367,"boundary":true,"min_zoom":0.0,"id":23},"arcs":[595]},{"type":"LineString","properties":{"source":"naturalearthdata.com","kind":"playa","sort_rank":367,"boundary":true,"min_zoom":0.0,"id":24},"arcs":[596]},{"type":"MultiLineString","properties":{"source":"naturalearthdata.com","kind":"lake","sort_rank":367,"boundary":true,"min_zoom":0.0,"id":500},"arcs":[[597],[598],[599]]},{"type":"LineString","properties":{"source":"naturalearthdata.com","kind":"lake","sort_rank":367,"boundary":true,"min_zoom":0.0,"id":683},"arcs":[600]},{"type":"LineString","properties":{"source":"naturalearthdata.com","kind":"lake","reservoir":true,"sort_rank":367,"boundary":true,"min_zoom":0.0,"id":1186},"arcs":[601]},{"type":"LineString","properties":{"source":"naturalearthdata.com","kind":"lake","reservoir":true,"sort_rank":367,"boundary":true,"min_zoom":0.0,"id":1205},"arcs":[602]}]},"buildings":{"type":"GeometryCollection","geometries":[]},"places":{"type":"GeometryCollection","geometries":[{"type":"Point","properties":{"name:pt":"Zimb\u00e1bue","name:ps":"\u0632\u06d0\u0645\u0628\u0627\u0628\u0648\u06d0","name:ka":"\u10d6\u10d8\u10db\u10d1\u10d0\u10d1\u10d5\u10d4","name:mt":"\u017bimbabwe","name:ko":"\uc9d0\ubc14\ube0c\uc6e8","name:cv":"\u0417\u0438\u043c\u0431\u0430\u0431\u0432\u0435","name:km":"\u17a0\u17d2\u179f\u17ca\u17b8\u1798\u1794\u17b6\u1794\u179c\u17c9\u17c1","name:kk":"\u0417\u0438\u043c\u0431\u0430\u0431\u0432\u0435","name:tt":"\u0417\u0438\u043c\u0431\u0430\u0431\u0432\u0435","name:tr":"Zimbabve","name:ku":"Z\u00eembabwe","name:ti":"\u12da\u121d\u1267\u1264","name:ks":"\u0632\u0650\u0645\u0628\u0627\u0628\u06d2","name:to":"Simipapuei","name:tl":"Simbabwe","name:pa":"\u0a1c\u0a3c\u0a3f\u0a70\u0a2c\u0a3e\u0a2c\u0a35\u0a47","name:os":"\u0417\u0438\u043c\u0431\u0430\u0431\u0432\u0435","name:or":"\u0b1c\u0b3f\u0b2e\u0b4d\u0b2c\u0b3e\u0b71\u0b47","name:ce":"\u0417\u0438\u043c\u0431\u0430\u0431\u0432\u0435","name:ta":"\u0b9c\u0bbf\u0bae\u0bcd\u0baa\u0bbe\u0baa\u0bcd\u0bb5\u0bc7","name:tg":"\u0417\u0438\u043c\u0431\u0430\u0431\u0432\u0435","name:te":"\u0c1c\u0c3f\u0c02\u0c2c\u0c3e\u0c2c\u0c4d\u0c35\u0c47","name:hr":"Zimbabve","name:de":"Simbabwe","name:dz":"\u0f5b\u0f72\u0f58\u0f0b\u0f56\u0fb7\u0f56\u0f0b\u0f5d\u0f7a","source":"openstreetmap.org","name:nv":"Hooghan Ts\u00e9 Bee \u00c1daalyaa\u00ed Bik\u00e9yah","name:kn":"\u0c9c\u0cbf\u0c82\u0cac\u0cbe\u0cac\u0ccd\u0cb5\u0cc6","name:dv":"\u0792\u07a8\u0789\u07b0\u0784\u07a7\u0784\u07aa\u0788\u07ad","name:lv":"Zimbabve","name:lt":"Zimbabv\u0117","name:uz":"Zimbabve","name:he":"\u05d6\u05d9\u05de\u05d1\u05d0\u05d1\u05d5\u05d5\u05d4","min_zoom":2.0,"kind":"country","name:ur":"\u0632\u0645\u0628\u0627\u0628\u0648\u06d2","name:lb":"Simbabwe","name:la":"Zimbabua","name:uk":"\u0417\u0456\u043c\u0431\u0430\u0431\u0432\u0435","name:hy":"\u0536\u056b\u0574\u0562\u0561\u0562\u057e\u0565","name:ug":"\u0632\u0649\u0645\u0628\u0627\u0628\u06cb\u06d0","name:qu":"Simbabwi","name:lo":"\u0e8a\u0eb4\u0ea1\u0e9a\u0eb1\u0e9a\u0ec0\u0ea7","population":12521000,"name:el":"\u0396\u03b9\u03bc\u03c0\u03ac\u03bc\u03c0\u03bf\u03c5\u03b5","name:eo":"Zimbabvo","name":"Zimbabwe","name:ee":"Zimbabwe nutome","name:th":"\u0e0b\u0e34\u0e21\u0e1a\u0e31\u0e1a\u0e40\u0e27","name:gu":"\u0a9d\u0abf\u0aae\u0acd\u0aac\u0abe\u0aac\u0acd\u0ab5\u0ac7","name:yi":"\u05d6\u05d9\u05de\u05d1\u05d0\u05d1\u05d5\u05d5\u05e2","name:es":"Zimbabue","name:rm":"Simbabwe","name:az":"Zimbabve","name:mr":"\u091d\u093f\u092e\u094d\u092c\u093e\u092c\u094d\u0935\u0947","name:ar":"\u0632\u064a\u0645\u0628\u0627\u0628\u0648\u064a","name:my":"\u1007\u1004\u103a\u1018\u102c\u1018\u103d\u1031","name:is":"Simbabve","name:am":"\u12da\u121d\u1267\u1264","name:ve":"Zimbagwe","name:ml":"\u0d38\u0d3f\u0d02\u0d2c\u0d3e\u0d2c\u0d4d\u0d35\u0d47","name:ru":"\u0417\u0438\u043c\u0431\u0430\u0431\u0432\u0435","name:mn":"\u0417\u0438\u043c\u0431\u0430\u0431\u0432\u0435","id":1640880787,"name:mk":"\u0417\u0438\u043c\u0431\u0430\u0431\u0432\u0435","name:vo":"Zimbabiy\u00e4n","name:zu":"i-Zimbabwe","name:ha":"Zimbabuwe","name:ff":"Simbaabuwe","name:hi":"\u091c\u093f\u092e\u094d\u092c\u093e\u092c\u094d\u0935\u0947","name:mg":"Zimbaboe","name:fo":"Simbabvi","name:zh-yue":"\u6d25\u5df4\u5e03\u97cb","name:fy":"Simbabwe","name:zh":"\u6d25\u5df4\u5e03\u97e6","name:gv":"Yn \u00c7himbabwe","name:so":"Simbaabwe","name:sr":"\u0417\u0438\u043c\u0431\u0430\u0431\u0432\u0435","name:sl":"Zimbabve","name:ja":"\u30b8\u30f3\u30d0\u30d6\u30a8","name:si":"\u0dc3\u0dd2\u0db8\u0dca\u0db6\u0dcf\u0db6\u0dca\u0dc0\u0dda","name:sh":"Zimbabve","name:sg":"Zimb\u00e4bwe","name:ne":"\u091c\u093f\u092e\u094d\u092c\u093e\u092c\u0947","name:sa":"\u091c\u093f\u092e\u094d\u092c\u093e\u092c\u0935\u0947","name:bs":"Zimbabve","name:bm":"Zimbabuwe","name:bn":"\u099c\u09bf\u09ae\u09cd\u09ac\u09be\u09ac\u09c1\u09af\u09bc\u09c7","name:bo":"\u0f5b\u0f72\u0f58\u0f0b\u0f56\u0fb7\u0f71\u0f0b\u0f56\u0f7a\u0f0d","name:be":"\u0417\u0456\u043c\u0431\u0430\u0431\u0432\u044d","name:su":"Zimbabw\u00e9","name:bg":"\u0417\u0438\u043c\u0431\u0430\u0431\u0432\u0435","name:ss":"IZimbabhwe","name:ba":"\u0417\u0438\u043c\u0431\u0430\u0431\u0432\u0435","name:sq":"Zimbabve","name:ga":"An tSiomb\u00e1ib","name:gd":"An t-S\u00ecombab","name:wo":"Simbaawee","name:gl":"Cimbabue","name:fa":"\u0632\u06cc\u0645\u0628\u0627\u0628\u0648\u0647","name:yo":"Or\u00edl\u1eb9\u0301\u00e8de \u1e63imibabe","name:ak":"Zembabwe"},"coordinates":[2638,1327]},{"type":"Point","properties":{"name:pt":"Z\u00e2mbia","name:ps":"\u0632\u06d0\u0645\u0628\u064a\u0627","name:ka":"\u10d6\u10d0\u10db\u10d1\u10d8\u10d0","name:mt":"\u017bambja","name:tr":"Zambiya","name:cv":"\u0417\u0430\u043c\u0431\u0438","name:km":"\u17a0\u17d2\u179f\u17b6\u17c6\u1794\u17ca\u17b8","name:cs":"Zambie","name:tt":"\u0417\u0430\u043c\u0431\u0438\u044f","name:kw":"Zambi","name:tk":"Zambi\u00fda","name:ku":"Zambiya","name:ti":"\u12db\u121d\u1262\u12eb","name:ks":"\u062c\u0627\u0645\u0628\u0650\u06cc\u0627","name:to":"Semipia","name:tl":"Sambya","name:pa":"\u0a1c\u0a3c\u0a3e\u0a02\u0a2c\u0a40\u0a06","name:os":"\u0417\u0430\u043c\u0431\u0438","name:or":"\u0b1c\u0b3e\u0b2e\u0b4d\u0b2c\u0b3f\u0b06","name:ce":"\u0417\u0430\u043c\u0431\u0438","name:ta":"\u0b9a\u0bbe\u0bae\u0bcd\u0baa\u0bbf\u0baf\u0bbe","name:tg":"\u0417\u0430\u043c\u0431\u0438\u044f","name:ca":"Z\u00e0mbia","name:te":"\u0c1c\u0c3e\u0c02\u0c2c\u0c3f\u0c2f\u0c3e","name:ln":"Zambi","name:de":"Sambia","name:dz":"\u0f5b\u0f58\u0f0b\u0f56\u0fb7\u0f72\u0f0b\u0f61","source":"openstreetmap.org","name:kn":"\u0c9d\u0cbe\u0c82\u0cac\u0cbf\u0caf\u0cbe","name:dv":"\u0792\u07ac\u0789\u07b0\u0784\u07a8\u0787\u07a7","name:lv":"Zambija","name:lt":"Zambija","name:uz":"Zambiya","name:kk":"\u0417\u0430\u043c\u0431\u0438\u044f","name:he":"\u05d6\u05de\u05d1\u05d9\u05d4","min_zoom":2.0,"kind":"country","name:ur":"\u0632\u0627\u0645\u0628\u06cc\u0627","name:lb":"Sambia","name:lg":"Zambya","name:uk":"\u0417\u0430\u043c\u0431\u0456\u044f","name:hy":"\u0536\u0561\u0574\u0562\u056b\u0561","name:ug":"\u0632\u0627\u0645\u0628\u0649\u064a\u06d5","name:hr":"Zambija","name:lo":"\u0ec1\u0e8a\u0ea1\u0ec0\u0e9a\u0e8d","population":11668000,"name:el":"\u0396\u03ac\u03bc\u03c0\u03b9\u03b1","name:eo":"Zambio","name":"Zambia","name:ee":"Zambia nutome","name:th":"\u0e1b\u0e23\u0e30\u0e40\u0e17\u0e28\u0e41\u0e0b\u0e21\u0e40\u0e1a\u0e35\u0e22","name:yi":"\u05d6\u05d0\u05de\u05d1\u05d9\u05e2","name:et":"Sambia","name:yo":"Or\u00edl\u1eb9\u0301\u00e8de \u1e63amibia","name:rm":"Sambia","name:rn":"Zambiya","name:az":"Zambiya","name:mr":"\u091d\u093e\u092e\u094d\u092c\u093f\u092f\u093e","name:qu":"Sambya","name:ar":"\u0632\u0627\u0645\u0628\u064a\u0627","name:my":"\u1007\u1019\u103a\u1018\u102e\u101a\u102c","official_name":"Republic of Zambia","name:is":"Samb\u00eda","name:am":"\u12db\u121d\u1262\u12eb","name:ml":"\u0d38\u0d3e\u0d02\u0d2c\u0d3f\u0d2f","name:ru":"\u0417\u0430\u043c\u0431\u0438\u044f","name:rw":"Zambiya","id":432425123,"name:mk":"\u0417\u0430\u043c\u0431\u0438\u0458\u0430","name:af":"Zambi\u00eb","name:zu":"i-Zambia","name:ha":"Zambiya","name:mn":"\u0417\u0430\u043c\u0431\u0438","name:ff":"Sammbi","name:fi":"Sambia","name:hi":"\u091c\u093e\u092e\u094d\u092c\u093f\u092f\u093e","name:fo":"Sambia","name:fr":"Zambie","name:wo":"Saambi","name:zh-yue":"\u8d0a\u6bd4\u4e9e","name:fy":"Sambia","name:vo":"Zambiy\u00e4n","name:zh":"\u8d5e\u6bd4\u4e9a","name:so":"Saambiya","name:sr":"\u0417\u0430\u043c\u0431\u0438\u0458\u0430","name:sl":"Zambija","name:ja":"\u30b6\u30f3\u30d3\u30a2","name:si":"\u0dc3\u0dd0\u0db8\u0dca\u0db6\u0dd2\u0dba\u0dcf\u0dc0","name:sh":"Zambija","name:sg":"Zamb\u00efi","name:se":"Z\u00e1mbia","name:sc":"Z\u00e0mbia","name:ne":"\u091c\u093e\u092e\u094d\u092c\u093f\u092f\u093e","name:sa":"\u091c\u093e\u092e\u094d\u092c\u093f\u092f\u093e","name:bs":"Zambija","name:bm":"Zanbi","name:bn":"\u099c\u09be\u09ae\u09cd\u09ac\u09bf\u09af\u09bc\u09be","name:bo":"\u0f5b\u0f58\u0f0b\u0f56\u0f72\u0f0b\u0f61\u0f0d","name:be":"\u0417\u0430\u043c\u0431\u0456\u044f","name:bg":"\u0417\u0430\u043c\u0431\u0438\u044f","name:ss":"IZambiya","name:ba":"\u0417\u0430\u043c\u0431\u0438\u044f","name:sq":"Zambi","name:ko":"\uc7a0\ube44\uc544","name:ga":"An tSaimbia","name:gd":"Saimbia","name:ht":"Zanbi","name:fa":"\u0632\u0627\u0645\u0628\u06cc\u0627","name:gv":"Yn Tambia","name:gu":"\u0a9d\u0abe\u0aae\u0acd\u0aac\u0abf\u0aaf\u0abe"},"coordinates":[1842,2825]},{"type":"Point","properties":{"source":"openstreetmap.org","kind":"region","name":"Manicaland","kind_detail":"state","min_zoom":4.0,"id":2702989753},"coordinates":[3593,1113]},{"type":"Point","properties":{"source":"openstreetmap.org","kind":"region","name":"Manica","kind_detail":"state","min_zoom":4.0,"id":2651758328},"coordinates":[3980,1105]},{"type":"Point","properties":{"source":"openstreetmap.org","kind":"region","name":"Tete","kind_detail":"state","min_zoom":4.0,"id":2651758333},"coordinates":[3739,2444]},{"type":"Point","properties":{"source":"openstreetmap.org","kind":"region","name":"Matabeleland South","id":2702989789,"kind_detail":"state","min_zoom":4.0,"name:de":"S\u00fcdmatabeleland"},"coordinates":[2345,459]},{"type":"Point","properties":{"source":"openstreetmap.org","kind":"region","name":"Central District","id":2671914051,"kind_detail":"state","min_zoom":4.0,"name:de":"Zentral-Distrikt"},"coordinates":[1353,177]},{"type":"Point","properties":{"source":"openstreetmap.org","kind":"region","name":"Eastern Province","id":2696418787,"kind_detail":"state","min_zoom":4.0,"name:de":"Ostprovinz"},"coordinates":[3627,3429]},{"type":"Point","properties":{"source":"openstreetmap.org","kind":"region","name":"North-West District","id":2671914038,"kind_detail":"state","min_zoom":4.0,"name:de":"Nordwest-Distrikt"},"coordinates":[280,972]},{"type":"Point","properties":{"kind":"region","name":"Zambezi Region","kind_detail":"state","name:de":"Region Sambesi","source":"openstreetmap.org","min_zoom":4.0,"name:uk":"\u0417\u0430\u043c\u0431\u0435\u0437\u0456","name:ru":"\u041a\u0430\u043f\u0440\u0438\u0432\u0438","id":2671914046},"coordinates":[596,1618]},{"type":"Point","properties":{"source":"openstreetmap.org","kind":"region","name":"Western Province","id":2696418902,"kind_detail":"state","min_zoom":4.0,"name:de":"Westprovinz"},"coordinates":[474,2317]},{"type":"Point","properties":{"source":"openstreetmap.org","kind":"region","name":"North-Western Province","id":2696418781,"kind_detail":"state","min_zoom":4.0,"name:de":"Nordwestprovinz"},"coordinates":[1079,3397]},{"type":"Point","properties":{"source":"openstreetmap.org","kind":"region","name":"North-East District","id":2671914037,"kind_detail":"state","min_zoom":4.0,"name:de":"Nordost-Distrikt"},"coordinates":[1826,350]},{"type":"Point","properties":{"source":"openstreetmap.org","kind":"region","name":"Matabeleland North","id":2702989775,"kind_detail":"state","min_zoom":4.0,"name:de":"Nordmatabeleland"},"coordinates":[1820,1147]},{"type":"Point","properties":{"source":"openstreetmap.org","kind":"region","name":"Bulawayo","kind_detail":"state","min_zoom":4.0,"id":2702989687},"coordinates":[2200,699]},{"type":"Point","properties":{"source":"openstreetmap.org","kind":"region","name":"Southern Province","id":2696418890,"kind_detail":"state","min_zoom":4.0,"name:de":"S\u00fcdprovinz"},"coordinates":[1543,2057]},{"type":"Point","properties":{"source":"openstreetmap.org","kind":"region","name":"Copperbelt Province","id":2696418793,"kind_detail":"state","min_zoom":4.0,"name:de":"Provinz Kupferg\u00fcrtel"},"coordinates":[1962,3395]},{"type":"Point","properties":{"source":"openstreetmap.org","kind":"region","name":"Central Province","id":2696418906,"kind_detail":"state","min_zoom":4.0,"name:de":"Zentralprovinz"},"coordinates":[2380,2953]},{"type":"Point","properties":{"admin_level":"4","kind":"region","name":"Haut-Katanga","kind_detail":"state","min_zoom":4.0,"name:de":"Ober-Katange","source":"openstreetmap.org","name:fr":"Haut-Katange","id":4346362818},"coordinates":[1789,3934]},{"type":"Point","properties":{"source":"openstreetmap.org","kind":"region","name":"Lusaka Province","id":2696418803,"kind_detail":"state","min_zoom":4.0,"name:de":"Provinz Lusaka"},"coordinates":[2427,2506]},{"type":"Point","properties":{"source":"openstreetmap.org","kind":"region","name":"Masvingo","kind_detail":"state","min_zoom":4.0,"id":2702989756},"coordinates":[3216,456]},{"type":"Point","properties":{"source":"openstreetmap.org","kind":"region","name":"Midlands","kind_detail":"state","min_zoom":4.0,"id":2702989759},"coordinates":[2687,1014]},{"type":"Point","properties":{"source":"openstreetmap.org","kind":"region","name":"Mashonaland West","id":2702989801,"kind_detail":"state","min_zoom":4.0,"name:de":"Westmaschonaland"},"coordinates":[2668,1826]},{"type":"Point","properties":{"source":"openstreetmap.org","kind":"region","name":"Harare","kind_detail":"state","min_zoom":4.0,"id":2702989718},"coordinates":[3117,1555]},{"type":"Point","properties":{"source":"openstreetmap.org","kind":"region","name":"Mashonaland East","id":2702989781,"kind_detail":"state","min_zoom":4.0,"name:de":"Ostmaschonaland"},"coordinates":[3374,1579]},{"type":"Point","properties":{"source":"openstreetmap.org","kind":"region","name":"Mashonaland Central","id":2702989813,"kind_detail":"state","min_zoom":4.0,"name:de":"Zentralmaschonaland"},"coordinates":[3202,1979]},{"type":"Point","properties":{"source":"naturalearthdata.com","kind":"locality","name":"Harare","country_capital":true,"population":1572000,"min_zoom":5.0,"id":6820},"coordinates":[3110,1570]},{"type":"Point","properties":{"source":"naturalearthdata.com","kind":"locality","name":"Lubumbashi","population":1352000,"min_zoom":5.0,"id":6967},"coordinates":[1812,3906]},{"type":"Point","properties":{"source":"naturalearthdata.com","kind":"locality","name":"Lusaka","country_capital":true,"population":1328000,"min_zoom":5.0,"id":6819},"coordinates":[2105,2484]},{"type":"Point","properties":{"source":"naturalearthdata.com","kind":"locality","name":"Bulawayo","population":699385,"min_zoom":5.0,"id":6821},"coordinates":[2214,675]},{"type":"Point","properties":{"source":"naturalearthdata.com","kind":"locality","name":"Kitwe","population":404901,"min_zoom":5.0,"id":6280},"coordinates":[2083,3475]},{"type":"Point","properties":{"source":"naturalearthdata.com","kind":"locality","name":"Chitungwiza","population":340360,"min_zoom":5.0,"id":6282},"coordinates":[3131,1500]},{"type":"Point","properties":{"source":"naturalearthdata.com","kind":"locality","name":"Kabwe","population":188979,"region_capital":true,"min_zoom":5.0,"id":6278},"coordinates":[2166,2855]},{"type":"Point","properties":{"source":"naturalearthdata.com","kind":"locality","name":"Livingstone","population":165480,"region_capital":true,"min_zoom":5.0,"id":6281},"coordinates":[1223,1554]},{"type":"Point","properties":{"source":"naturalearthdata.com","kind":"locality","name":"Mufulira","population":153624,"min_zoom":5.0,"id":6279},"coordinates":[2097,3574]},{"type":"Point","properties":{"source":"naturalearthdata.com","kind":"locality","name":"Tete","population":129316,"region_capital":true,"min_zoom":5.0,"id":6336},"coordinates":[4034,2197]},{"type":"Point","properties":{"source":"naturalearthdata.com","kind":"locality","name":"Francistown","population":89979,"min_zoom":5.0,"id":6723},"coordinates":[1820,294]}]},"transit":{"type":"GeometryCollection","geometries":[]},"pois":{"type":"GeometryCollection","geometries":[{"type":"Point","properties":{"kind":"national_park","protect_class":"2","area":1533720000,"source":"openstreetmap.org","min_zoom":5.5,"tier":1,"id":-6185332,"osm_relation":true,"name":"Matusadona National Park"},"coordinates":[2232,1892]},{"type":"Point","properties":{"kind":"national_park","tier":1,"protect_class":"2","area":10593900000,"name:de":"S\u00fcdluangwa-Nationalpark","source":"openstreetmap.org","min_zoom":4.1,"operator":"Zambia Wildlife Authority","id":-5682380,"osm_relation":true,"name":"South Luangwa National Park"},"coordinates":[3271,3369]},{"type":"Point","properties":{"kind":"nature_reserve","name":"Hwange National Park","area":16584600000,"min_zoom":5.28,"name:de":"Hwange-Nationalpark","source":"openstreetmap.org","name:fr":"Parc national Hwange","name:it":"Parco nazionale Hwange","old_name":"Wankie Game Reserve","tier":2,"name:es":"Parque Nacional Hwange","id":-3692962,"osm_relation":true},"coordinates":[1544,1048]},{"type":"Point","properties":{"kind":"nature_reserve","name":"Chobe National Park","area":11757200000,"source":"openstreetmap.org","min_zoom":5.53,"tier":2,"id":-3618382,"osm_relation":true},"coordinates":[692,1290]},{"type":"Point","properties":{"kind":"nature_reserve","name:nl":"Nationaal park Gonarezhou","name":"Gonarezhou National Park","area":6199330000,"name:es":"Parque nacional de Gonarezhou","name:de":"Gonarezhou-Nationalpark","source":"openstreetmap.org","min_zoom":5.99,"name:it":"Parco nazionale di Gonarezhou","tier":2,"id":-2454840,"osm_relation":true,"name:af":"Gonarezhou Nasionale Park"},"coordinates":[3377,101]},{"type":"Point","properties":{"kind":"national_park","name:nl":"Nationaal Park Kasungu","protect_class":"2","area":2583030000,"name:de":"Kasungu-Nationalpark","source":"openstreetmap.org","min_zoom":5.12,"tier":1,"id":30133248,"name:es":"Parque Nacional Kasungu","name":"Kasungu National Park"},"coordinates":[3890,3419]}]},"boundaries":{"type":"GeometryCollection","geometries":[{"type":"MultiLineString","properties":{"source":"naturalearthdata.com","kind":"country","sort_rank":262,"kind_detail":"2","min_zoom":0.0,"id":370},"arcs":[[0],[1],[2],[3]]},{"type":"MultiLineString","properties":{"source":"naturalearthdata.com","kind":"country","sort_rank":262,"kind_detail":"2","min_zoom":0.0,"id":389},"arcs":[[4],[5],[6],[7],[8],[9],[10],[11],[12],[13],[14],[15],[16],[17],[18],[19],[20],[21],[22],[23],[24],[25],[26],[27],[28],[29],[30],[31],[32],[33],[34],[35],[36],[37],[38],[39],[40],[41],[42],[43],[44],[45],[46],[47],[48],[49],[50],[51],[52],[53],[54],[55],[56],[57],[58],[59],[60],[61],[62],[63]]},{"type":"MultiLineString","properties":{"source":"naturalearthdata.com","kind":"country","sort_rank":262,"kind_detail":"2","min_zoom":0.0,"id":98},"arcs":[[64],[65],[66],[67],[68],[69],[70],[71],[72],[73],[74],[75],[76],[77],[78],[79],[80],[81],[82],[83],[84]]},{"type":"MultiLineString","properties":{"source":"naturalearthdata.com","kind":"country","sort_rank":262,"kind_detail":"2","min_zoom":0.0,"id":140},"arcs":[[85],[86],[87],[88],[89],[90],[91],[92],[93],[94],[95],[96],[97]]},{"type":"MultiLineString","properties":{"source":"naturalearthdata.com","kind":"country","sort_rank":262,"kind_detail":"2","min_zoom":0.0,"id":265},"arcs":[[98],[99],[100],[101],[102],[103],[104],[105],[106],[107],[108],[109],[110],[111],[112],[113],[114],[115],[116],[117],[118],[119],[120],[121]]},{"type":"LineString","properties":{"source":"naturalearthdata.com","kind":"country","sort_rank":262,"kind_detail":"2","min_zoom":0.0,"id":371},"arcs":[122]},{"type":"MultiLineString","properties":{"source":"naturalearthdata.com","kind":"country","sort_rank":262,"kind_detail":"2","min_zoom":0.0,"id":372},"arcs":[[123],[124],[125],[126],[127],[128],[129],[130],[131],[132],[133],[134],[135],[136]]},{"type":"MultiLineString","properties":{"source":"naturalearthdata.com","kind":"country","sort_rank":262,"kind_detail":"2","min_zoom":0.0,"id":373},"arcs":[[137],[138],[139],[140],[141],[142],[143],[144],[145],[146],[147],[148],[149],[150],[151],[152],[153],[154],[155],[156],[157],[158],[159],[160],[161],[162],[163],[164],[165],[166],[167],[168],[169]]},{"type":"MultiLineString","properties":{"source":"naturalearthdata.com","kind":"country","sort_rank":262,"kind_detail":"2","min_zoom":0.0,"id":376},"arcs":[[170],[171],[172],[173],[174],[175],[176],[177],[178],[179],[180],[181],[182],[183],[184],[185],[186],[187]]},{"type":"LineString","properties":{"source":"naturalearthdata.com","kind":"country","sort_rank":262,"kind_detail":"2","min_zoom":0.0,"id":388},"arcs":[188]},{"type":"MultiLineString","properties":{"source":"naturalearthdata.com","kind":"country","sort_rank":262,"kind_detail":"2","min_zoom":0.0,"id":393},"arcs":[[189],[190],[191]]},{"type":"MultiLineString","properties":{"source":"naturalearthdata.com","kind":"region","sort_rank":256,"kind_detail":"4","min_zoom":5.5,"id":626},"arcs":[[192],[193],[194],[195],[196],[197],[198],[199],[200],[201],[202],[203],[204]]},{"type":"LineString","properties":{"source":"naturalearthdata.com","kind":"region","sort_rank":256,"kind_detail":"4","min_zoom":5.5,"id":631},"arcs":[205]},{"type":"MultiLineString","properties":{"source":"naturalearthdata.com","kind":"region","sort_rank":256,"kind_detail":"4","min_zoom":5.0,"id":636},"arcs":[[206],[207],[208]]},{"type":"LineString","properties":{"source":"naturalearthdata.com","kind":"region","sort_rank":256,"kind_detail":"4","min_zoom":5.0,"id":640},"arcs":[209]},{"type":"MultiLineString","properties":{"source":"naturalearthdata.com","kind":"region","sort_rank":256,"kind_detail":"4","min_zoom":5.0,"id":641},"arcs":[[210],[211],[212],[213],[214],[215],[216],[217]]},{"type":"MultiLineString","properties":{"source":"naturalearthdata.com","kind":"region","sort_rank":256,"kind_detail":"4","min_zoom":5.0,"id":642},"arcs":[[218],[219],[220]]},{"type":"LineString","properties":{"source":"naturalearthdata.com","kind":"region","sort_rank":256,"kind_detail":"4","min_zoom":5.0,"id":646},"arcs":[221]},{"type":"LineString","properties":{"source":"naturalearthdata.com","kind":"region","sort_rank":256,"kind_detail":"4","min_zoom":5.0,"id":9033},"arcs":[222]},{"type":"MultiLineString","properties":{"source":"naturalearthdata.com","kind":"region","sort_rank":256,"kind_detail":"4","min_zoom":5.5,"id":613},"arcs":[[223],[224],[225],[226],[227],[228],[229],[230],[231],[232],[233],[234],[235]]},{"type":"LineString","properties":{"source":"naturalearthdata.com","kind":"region","sort_rank":256,"kind_detail":"4","min_zoom":5.5,"id":614},"arcs":[236]},{"type":"MultiLineString","properties":{"source":"naturalearthdata.com","kind":"region","sort_rank":256,"kind_detail":"4","min_zoom":5.5,"id":615},"arcs":[[237],[238],[239],[240]]},{"type":"MultiLineString","properties":{"source":"naturalearthdata.com","kind":"region","sort_rank":256,"kind_detail":"4","min_zoom":5.5,"id":616},"arcs":[[241],[242],[243],[244]]},{"type":"MultiLineString","properties":{"source":"naturalearthdata.com","kind":"region","sort_rank":256,"kind_detail":"4","min_zoom":5.5,"id":617},"arcs":[[245],[246],[247],[248],[249],[250],[251],[252],[253],[254],[255],[256],[257],[258],[259]]},{"type":"MultiLineString","properties":{"source":"naturalearthdata.com","kind":"region","sort_rank":256,"kind_detail":"4","min_zoom":5.5,"id":618},"arcs":[[260],[261],[262]]},{"type":"MultiLineString","properties":{"source":"naturalearthdata.com","kind":"region","sort_rank":256,"kind_detail":"4","min_zoom":5.5,"id":619},"arcs":[[263],[264],[265]]},{"type":"MultiLineString","properties":{"source":"naturalearthdata.com","kind":"region","sort_rank":256,"kind_detail":"4","min_zoom":5.5,"id":623},"arcs":[[266],[267],[268],[269],[270],[271],[272]]},{"type":"MultiLineString","properties":{"source":"naturalearthdata.com","kind":"region","sort_rank":256,"kind_detail":"4","min_zoom":5.5,"id":620},"arcs":[[273],[274],[275],[276],[277],[278],[279],[280],[281],[282],[283],[284]]},{"type":"MultiLineString","properties":{"source":"naturalearthdata.com","kind":"region","sort_rank":256,"kind_detail":"4","min_zoom":5.5,"id":624},"arcs":[[285],[286],[287],[288],[289],[290],[291],[292],[293],[294],[295],[296],[297],[298],[299]]},{"type":"MultiLineString","properties":{"source":"naturalearthdata.com","kind":"region","sort_rank":256,"kind_detail":"4","min_zoom":5.5,"id":621},"arcs":[[300],[301],[302],[303],[304],[305],[306],[307],[308]]},{"type":"MultiLineString","properties":{"source":"naturalearthdata.com","kind":"region","sort_rank":256,"kind_detail":"4","min_zoom":5.5,"id":622},"arcs":[[309],[310],[311],[312],[313],[314],[315],[316],[317],[318],[319],[320],[321]]},{"type":"MultiLineString","properties":{"source":"naturalearthdata.com","kind":"region","sort_rank":256,"kind_detail":"4","min_zoom":5.5,"id":625},"arcs":[[322],[323],[324],[325],[326],[327],[328],[329],[330],[331]]},{"type":"MultiLineString","properties":{"source":"naturalearthdata.com","kind":"region","sort_rank":256,"kind_detail":"4","min_zoom":5.5,"id":627},"arcs":[[332],[333],[334],[335],[336],[337]]},{"type":"MultiLineString","properties":{"source":"naturalearthdata.com","kind":"region","sort_rank":256,"kind_detail":"4","min_zoom":5.0,"id":633},"arcs":[[338],[339],[340],[341],[342],[343],[344],[345],[346],[347],[348],[349]]},{"type":"MultiLineString","properties":{"source":"naturalearthdata.com","kind":"region","sort_rank":256,"kind_detail":"4","min_zoom":5.0,"id":634},"arcs":[[350],[351],[352],[353],[354],[355],[356]]},{"type":"MultiLineString","properties":{"source":"naturalearthdata.com","kind":"region","sort_rank":256,"kind_detail":"4","min_zoom":5.5,"id":628},"arcs":[[357],[358],[359],[360],[361],[362],[363],[364],[365],[366],[367],[368],[369],[370],[371],[372],[373],[374],[375]]},{"type":"MultiLineString","properties":{"source":"naturalearthdata.com","kind":"region","sort_rank":256,"kind_detail":"4","min_zoom":5.5,"id":629},"arcs":[[376],[377],[378],[379],[380],[381],[382],[383]]},{"type":"MultiLineString","properties":{"source":"naturalearthdata.com","kind":"region","sort_rank":256,"kind_detail":"4","min_zoom":5.5,"id":630},"arcs":[[384],[385],[386],[387],[388],[389],[390],[391],[392],[393],[394],[395],[396],[397],[398],[399],[400],[401],[402],[403],[404]]},{"type":"MultiLineString","properties":{"source":"naturalearthdata.com","kind":"region","sort_rank":256,"kind_detail":"4","min_zoom":5.5,"id":632},"arcs":[[405],[406],[407]]},{"type":"MultiLineString","properties":{"source":"naturalearthdata.com","kind":"region","sort_rank":256,"kind_detail":"4","min_zoom":5.0,"id":635},"arcs":[[408],[409],[410],[411],[412],[413],[414],[415],[416]]},{"type":"MultiLineString","properties":{"source":"naturalearthdata.com","kind":"region","sort_rank":256,"kind_detail":"4","min_zoom":5.0,"id":637},"arcs":[[417],[418],[419],[420],[421]]},{"type":"MultiLineString","properties":{"source":"naturalearthdata.com","kind":"region","sort_rank":256,"kind_detail":"4","min_zoom":5.0,"id":638},"arcs":[[422],[423],[424],[425],[426],[427],[428],[429],[430],[431],[432],[433],[434],[435],[436],[437]]},{"type":"MultiLineString","properties":{"source":"naturalearthdata.com","kind":"region","sort_rank":256,"kind_detail":"4","min_zoom":5.0,"id":639},"arcs":[[438],[439],[440]]},{"type":"MultiLineString","properties":{"source":"naturalearthdata.com","kind":"region","sort_rank":256,"kind_detail":"4","min_zoom":5.0,"id":643},"arcs":[[441],[442],[443],[444],[445],[446],[447],[448],[449],[450],[451],[452],[453],[454],[455],[456],[457],[458],[459],[460],[461],[462],[463],[464],[465],[466],[467],[468],[469],[470],[471],[472],[473],[474],[475],[476],[477],[478],[479],[480],[481],[482],[483],[484],[485],[486],[487],[488],[489]]},{"type":"MultiLineString","properties":{"source":"naturalearthdata.com","kind":"region","sort_rank":256,"kind_detail":"4","min_zoom":5.0,"id":644},"arcs":[[490],[491],[492],[493],[494]]},{"type":"MultiLineString","properties":{"source":"naturalearthdata.com","kind":"region","sort_rank":256,"kind_detail":"4","min_zoom":5.0,"id":645},"arcs":[[495],[496],[497],[498],[499],[500],[501],[502],[503],[504],[505],[506],[507],[508],[509],[510]]},{"type":"MultiLineString","properties":{"source":"naturalearthdata.com","kind":"region","sort_rank":256,"kind_detail":"4","min_zoom":5.0,"id":647},"arcs":[[511],[512],[513],[514],[515],[516],[517],[518],[519],[520],[521],[522],[523],[524],[525],[526]]},{"type":"MultiLineString","properties":{"source":"naturalearthdata.com","kind":"region","sort_rank":256,"kind_detail":"4","min_zoom":5.0,"id":2970},"arcs":[[527],[528],[529]]},{"type":"MultiLineString","properties":{"source":"naturalearthdata.com","kind":"region","sort_rank":256,"kind_detail":"4","min_zoom":5.0,"id":2974},"arcs":[[530],[531],[532],[533],[534],[535],[536],[537],[538]]},{"type":"MultiLineString","properties":{"source":"naturalearthdata.com","kind":"region","sort_rank":256,"kind_detail":"4","min_zoom":5.0,"id":2979},"arcs":[[539],[540],[541],[542],[543]]},{"type":"MultiLineString","properties":{"source":"naturalearthdata.com","kind":"region","sort_rank":256,"kind_detail":"4","min_zoom":5.0,"id":2981},"arcs":[[544],[545],[546],[547]]},{"type":"LineString","properties":{"source":"naturalearthdata.com","kind":"region","sort_rank":256,"kind_detail":"4","min_zoom":5.0,"id":2982},"arcs":[548]},{"type":"MultiLineString","properties":{"source":"naturalearthdata.com","kind":"region","sort_rank":256,"kind_detail":"4","min_zoom":5.0,"id":4656},"arcs":[[549],[550],[551],[552],[553],[554],[555],[556],[557]]},{"type":"LineString","properties":{"source":"naturalearthdata.com","kind":"region","sort_rank":256,"kind_detail":"4","min_zoom":5.0,"id":4646},"arcs":[558]},{"type":"LineString","properties":{"source":"naturalearthdata.com","kind":"region","sort_rank":256,"kind_detail":"4","min_zoom":5.0,"id":4655},"arcs":[559]},{"type":"MultiLineString","properties":{"source":"naturalearthdata.com","kind":"region","sort_rank":256,"kind_detail":"4","min_zoom":5.0,"id":8132},"arcs":[[560],[561],[562],[563],[564]]},{"type":"MultiLineString","properties":{"source":"naturalearthdata.com","kind":"region","sort_rank":256,"kind_detail":"4","min_zoom":5.0,"id":9021},"arcs":[[565],[566],[567],[568]]},{"type":"MultiLineString","properties":{"source":"naturalearthdata.com","kind":"region","sort_rank":256,"kind_detail":"4","min_zoom":5.0,"id":9017},"arcs":[[569],[570],[571],[572]]},{"type":"MultiLineString","properties":{"source":"naturalearthdata.com","kind":"region","sort_rank":256,"kind_detail":"4","min_zoom":5.0,"id":9019},"arcs":[[573],[574]]},{"type":"MultiLineString","properties":{"source":"naturalearthdata.com","kind":"region","sort_rank":256,"kind_detail":"4","min_zoom":5.0,"id":9025},"arcs":[[575],[576]]},{"type":"MultiLineString","properties":{"source":"naturalearthdata.com","kind":"region","sort_rank":256,"kind_detail":"4","min_zoom":5.0,"id":9026},"arcs":[[577],[578],[579]]},{"type":"LineString","properties":{"source":"naturalearthdata.com","kind":"region","sort_rank":256,"kind_detail":"4","min_zoom":5.0,"id":9027},"arcs":[580]},{"type":"LineString","properties":{"source":"naturalearthdata.com","kind":"region","sort_rank":256,"kind_detail":"4","min_zoom":5.0,"id":9028},"arcs":[581]},{"type":"LineString","properties":{"source":"naturalearthdata.com","kind":"region","sort_rank":256,"kind_detail":"4","min_zoom":5.0,"id":9029},"arcs":[582]},{"type":"LineString","properties":{"source":"naturalearthdata.com","kind":"region","sort_rank":256,"kind_detail":"4","min_zoom":5.0,"id":9030},"arcs":[583]},{"type":"LineString","properties":{"source":"naturalearthdata.com","kind":"region","sort_rank":256,"kind_detail":"4","min_zoom":5.0,"id":9031},"arcs":[584]},{"type":"LineString","properties":{"source":"naturalearthdata.com","kind":"region","sort_rank":256,"kind_detail":"4","min_zoom":5.0,"id":9032},"arcs":[585]},{"type":"LineString","properties":{"source":"naturalearthdata.com","kind":"region","sort_rank":256,"kind_detail":"4","min_zoom":5.0,"id":9034},"arcs":[586]},{"type":"LineString","properties":{"source":"naturalearthdata.com","kind":"region","sort_rank":256,"kind_detail":"4","min_zoom":5.0,"id":9035},"arcs":[587]}]},"roads":{"type":"GeometryCollection","geometries":[{"type":"LineString","properties":{"source":"naturalearthdata.com","kind":"minor_road","sort_rank":355,"kind_detail":"tertiary","min_zoom":5.0,"id":43678},"arcs":[603]},{"type":"LineString","properties":{"source":"naturalearthdata.com","kind":"major_road","sort_rank":379,"kind_detail":"secondary","min_zoom":3.0,"id":43742},"arcs":[604]},{"type":"LineString","properties":{"source":"naturalearthdata.com","kind":"minor_road","sort_rank":355,"kind_detail":"tertiary","min_zoom":5.0,"id":43743},"arcs":[605]},{"type":"LineString","properties":{"source":"naturalearthdata.com","kind":"major_road","sort_rank":379,"kind_detail":"secondary","min_zoom":4.0,"id":43748},"arcs":[606]},{"type":"LineString","properties":{"source":"naturalearthdata.com","kind":"minor_road","sort_rank":355,"kind_detail":"tertiary","min_zoom":5.0,"id":43754},"arcs":[607]},{"type":"LineString","properties":{"source":"naturalearthdata.com","kind":"major_road","sort_rank":379,"kind_detail":"secondary","min_zoom":4.0,"id":43762},"arcs":[608]},{"type":"LineString","properties":{"source":"naturalearthdata.com","kind":"major_road","sort_rank":379,"kind_detail":"secondary","min_zoom":4.0,"id":43794},"arcs":[609]},{"type":"LineString","properties":{"source":"naturalearthdata.com","kind":"minor_road","sort_rank":355,"kind_detail":"tertiary","min_zoom":5.0,"id":43808},"arcs":[610]},{"type":"LineString","properties":{"source":"naturalearthdata.com","kind":"major_road","kind_detail":"secondary","sort_rank":379,"landuse_kind":"urban_area","min_zoom":3.0,"id":43829},"arcs":[611]},{"type":"MultiLineString","properties":{"source":"naturalearthdata.com","kind":"major_road","sort_rank":379,"kind_detail":"secondary","min_zoom":3.0,"id":43829},"arcs":[[612],[613]]},{"type":"LineString","properties":{"source":"naturalearthdata.com","kind":"minor_road","sort_rank":355,"kind_detail":"tertiary","min_zoom":5.0,"id":43834},"arcs":[614]},{"type":"LineString","properties":{"source":"naturalearthdata.com","kind":"major_road","sort_rank":379,"kind_detail":"secondary","min_zoom":4.0,"id":43844},"arcs":[615]},{"type":"LineString","properties":{"source":"naturalearthdata.com","kind":"major_road","sort_rank":379,"kind_detail":"secondary","min_zoom":3.0,"id":43845},"arcs":[616]},{"type":"LineString","properties":{"source":"naturalearthdata.com","kind":"major_road","kind_detail":"secondary","sort_rank":379,"landuse_kind":"urban_area","min_zoom":3.0,"id":43879},"arcs":[617]},{"type":"MultiLineString","properties":{"source":"naturalearthdata.com","kind":"major_road","sort_rank":379,"kind_detail":"secondary","min_zoom":3.0,"id":43879},"arcs":[[618],[619]]},{"type":"LineString","properties":{"source":"naturalearthdata.com","kind":"major_road","kind_detail":"secondary","sort_rank":379,"landuse_kind":"urban_area","min_zoom":3.0,"id":43906},"arcs":[620]},{"type":"LineString","properties":{"source":"naturalearthdata.com","kind":"major_road","sort_rank":379,"kind_detail":"secondary","min_zoom":3.0,"id":43906},"arcs":[621]},{"type":"LineString","properties":{"source":"naturalearthdata.com","kind":"major_road","sort_rank":379,"kind_detail":"secondary","min_zoom":3.0,"id":43907},"arcs":[622]},{"type":"LineString","properties":{"source":"naturalearthdata.com","kind":"major_road","sort_rank":379,"kind_detail":"secondary","min_zoom":3.0,"id":43908},"arcs":[623]},{"type":"LineString","properties":{"source":"naturalearthdata.com","kind":"major_road","sort_rank":379,"kind_detail":"secondary","min_zoom":3.0,"id":43910},"arcs":[624]},{"type":"LineString","properties":{"source":"naturalearthdata.com","kind":"minor_road","sort_rank":355,"kind_detail":"tertiary","min_zoom":5.0,"id":43927},"arcs":[625]},{"type":"LineString","properties":{"source":"naturalearthdata.com","kind":"minor_road","sort_rank":355,"kind_detail":"tertiary","min_zoom":5.0,"id":43972},"arcs":[626]},{"type":"MultiLineString","properties":{"source":"naturalearthdata.com","kind":"major_road","sort_rank":379,"kind_detail":"secondary","min_zoom":4.0,"id":43976},"arcs":[[627],[628]]},{"type":"LineString","properties":{"source":"naturalearthdata.com","kind":"major_road","sort_rank":379,"kind_detail":"secondary","min_zoom":3.0,"id":43977},"arcs":[629]},{"type":"LineString","properties":{"source":"naturalearthdata.com","kind":"major_road","sort_rank":379,"kind_detail":"secondary","min_zoom":3.0,"id":43978},"arcs":[630]},{"type":"LineString","properties":{"source":"naturalearthdata.com","kind":"major_road","kind_detail":"secondary","sort_rank":379,"landuse_kind":"urban_area","min_zoom":3.0,"id":43983},"arcs":[631]},{"type":"LineString","properties":{"source":"naturalearthdata.com","kind":"major_road","sort_rank":379,"kind_detail":"secondary","min_zoom":3.0,"id":43983},"arcs":[632]},{"type":"LineString","properties":{"source":"naturalearthdata.com","kind":"major_road","sort_rank":379,"kind_detail":"secondary","min_zoom":3.0,"id":43985},"arcs":[633]},{"type":"LineString","properties":{"source":"naturalearthdata.com","kind":"minor_road","sort_rank":355,"kind_detail":"tertiary","min_zoom":5.0,"id":44076},"arcs":[634]},{"type":"LineString","properties":{"source":"naturalearthdata.com","kind":"minor_road","kind_detail":"tertiary","sort_rank":355,"landuse_kind":"protected_area","min_zoom":5.0,"id":44112},"arcs":[635]},{"type":"MultiLineString","properties":{"source":"naturalearthdata.com","kind":"minor_road","sort_rank":355,"kind_detail":"tertiary","min_zoom":5.0,"id":44112},"arcs":[[636],[637]]},{"type":"LineString","properties":{"source":"naturalearthdata.com","kind":"major_road","kind_detail":"secondary","sort_rank":379,"landuse_kind":"urban_area","min_zoom":3.0,"id":44142},"arcs":[638]},{"type":"LineString","properties":{"source":"naturalearthdata.com","kind":"major_road","sort_rank":379,"kind_detail":"secondary","min_zoom":3.0,"id":44142},"arcs":[639]},{"type":"LineString","properties":{"source":"naturalearthdata.com","kind":"major_road","kind_detail":"secondary","sort_rank":379,"landuse_kind":"nature_reserve","min_zoom":3.0,"id":44143},"arcs":[640]},{"type":"LineString","properties":{"source":"naturalearthdata.com","kind":"major_road","kind_detail":"secondary","sort_rank":379,"landuse_kind":"urban_area","min_zoom":3.0,"id":44143},"arcs":[641]},{"type":"MultiLineString","properties":{"source":"naturalearthdata.com","kind":"major_road","sort_rank":379,"kind_detail":"secondary","min_zoom":3.0,"id":44143},"arcs":[[642],[643]]},{"type":"LineString","properties":{"source":"naturalearthdata.com","kind":"minor_road","kind_detail":"tertiary","sort_rank":355,"landuse_kind":"urban_area","min_zoom":5.0,"id":44145},"arcs":[644]},{"type":"LineString","properties":{"source":"naturalearthdata.com","kind":"minor_road","sort_rank":355,"kind_detail":"tertiary","min_zoom":5.0,"id":44145},"arcs":[645]},{"type":"LineString","properties":{"source":"naturalearthdata.com","kind":"major_road","kind_detail":"secondary","sort_rank":379,"landuse_kind":"urban_area","min_zoom":3.0,"id":44238},"arcs":[646]},{"type":"LineString","properties":{"source":"naturalearthdata.com","kind":"major_road","sort_rank":379,"kind_detail":"secondary","min_zoom":3.0,"id":44238},"arcs":[647]},{"type":"LineString","properties":{"source":"naturalearthdata.com","kind":"major_road","sort_rank":379,"kind_detail":"secondary","min_zoom":3.0,"id":44276},"arcs":[648]},{"type":"LineString","properties":{"source":"naturalearthdata.com","kind":"major_road","sort_rank":379,"kind_detail":"secondary","min_zoom":3.0,"id":44292},"arcs":[649]},{"type":"LineString","properties":{"source":"naturalearthdata.com","kind":"major_road","sort_rank":379,"kind_detail":"secondary","min_zoom":4.0,"id":44293},"arcs":[650]},{"type":"LineString","properties":{"source":"naturalearthdata.com","kind":"major_road","sort_rank":379,"kind_detail":"secondary","min_zoom":3.0,"id":44306},"arcs":[651]},{"type":"LineString","properties":{"source":"naturalearthdata.com","kind":"major_road","sort_rank":379,"kind_detail":"secondary","min_zoom":4.0,"id":44315},"arcs":[652]},{"type":"LineString","properties":{"source":"naturalearthdata.com","kind":"major_road","sort_rank":379,"kind_detail":"secondary","min_zoom":4.0,"id":44324},"arcs":[653]},{"type":"LineString","properties":{"source":"naturalearthdata.com","kind":"major_road","sort_rank":379,"kind_detail":"secondary","min_zoom":3.0,"id":44327},"arcs":[654]},{"type":"LineString","properties":{"source":"naturalearthdata.com","kind":"major_road","sort_rank":379,"kind_detail":"secondary","min_zoom":4.0,"id":44356},"arcs":[655]},{"type":"LineString","properties":{"source":"naturalearthdata.com","kind":"major_road","sort_rank":379,"kind_detail":"secondary","min_zoom":3.0,"id":44418},"arcs":[656]},{"type":"LineString","properties":{"source":"naturalearthdata.com","kind":"major_road","sort_rank":379,"kind_detail":"secondary","min_zoom":3.0,"id":44429},"arcs":[657]},{"type":"LineString","properties":{"source":"naturalearthdata.com","kind":"major_road","sort_rank":379,"kind_detail":"secondary","min_zoom":4.0,"id":44432},"arcs":[658]},{"type":"LineString","properties":{"source":"naturalearthdata.com","kind":"major_road","sort_rank":379,"kind_detail":"secondary","min_zoom":3.0,"id":44437},"arcs":[659]},{"type":"LineString","properties":{"source":"naturalearthdata.com","kind":"major_road","sort_rank":379,"kind_detail":"secondary","min_zoom":4.0,"id":44456},"arcs":[660]},{"type":"LineString","properties":{"source":"naturalearthdata.com","kind":"major_road","sort_rank":379,"kind_detail":"secondary","min_zoom":4.0,"id":44465},"arcs":[661]},{"type":"LineString","properties":{"source":"naturalearthdata.com","kind":"major_road","sort_rank":379,"kind_detail":"secondary","min_zoom":4.0,"id":44471},"arcs":[662]},{"type":"LineString","properties":{"source":"naturalearthdata.com","kind":"minor_road","sort_rank":355,"kind_detail":"tertiary","min_zoom":5.0,"id":44474},"arcs":[663]},{"type":"LineString","properties":{"source":"naturalearthdata.com","kind":"minor_road","sort_rank":355,"kind_detail":"tertiary","min_zoom":5.0,"id":44475},"arcs":[664]},{"type":"LineString","properties":{"source":"naturalearthdata.com","kind":"minor_road","sort_rank":355,"kind_detail":"tertiary","min_zoom":5.0,"id":44495},"arcs":[665]},{"type":"LineString","properties":{"source":"naturalearthdata.com","kind":"major_road","sort_rank":379,"kind_detail":"secondary","min_zoom":3.0,"id":44496},"arcs":[666]},{"type":"LineString","properties":{"source":"naturalearthdata.com","kind":"major_road","sort_rank":379,"kind_detail":"secondary","min_zoom":3.0,"id":44500},"arcs":[667]},{"type":"LineString","properties":{"source":"naturalearthdata.com","kind":"major_road","sort_rank":379,"kind_detail":"secondary","min_zoom":3.0,"id":44523},"arcs":[668]},{"type":"LineString","properties":{"source":"naturalearthdata.com","kind":"major_road","sort_rank":379,"kind_detail":"secondary","min_zoom":3.0,"id":44525},"arcs":[669]},{"type":"LineString","properties":{"source":"naturalearthdata.com","kind":"major_road","sort_rank":379,"kind_detail":"secondary","min_zoom":4.0,"id":44530},"arcs":[670]},{"type":"LineString","properties":{"source":"naturalearthdata.com","kind":"major_road","sort_rank":379,"kind_detail":"secondary","min_zoom":3.0,"id":44533},"arcs":[671]},{"type":"LineString","properties":{"source":"naturalearthdata.com","kind":"major_road","sort_rank":379,"kind_detail":"secondary","min_zoom":4.0,"id":44536},"arcs":[672]},{"type":"LineString","properties":{"source":"naturalearthdata.com","kind":"major_road","sort_rank":379,"kind_detail":"secondary","min_zoom":3.0,"id":44542},"arcs":[673]},{"type":"LineString","properties":{"source":"naturalearthdata.com","kind":"major_road","sort_rank":379,"kind_detail":"secondary","min_zoom":4.0,"id":44548},"arcs":[674]},{"type":"LineString","properties":{"source":"naturalearthdata.com","kind":"major_road","kind_detail":"secondary","sort_rank":379,"landuse_kind":"protected_area","min_zoom":4.0,"id":44558},"arcs":[675]},{"type":"LineString","properties":{"source":"naturalearthdata.com","kind":"major_road","sort_rank":379,"kind_detail":"secondary","min_zoom":3.0,"id":44567},"arcs":[676]},{"type":"LineString","properties":{"source":"naturalearthdata.com","kind":"major_road","sort_rank":379,"kind_detail":"secondary","min_zoom":3.0,"id":44590},"arcs":[677]},{"type":"LineString","properties":{"source":"naturalearthdata.com","kind":"major_road","sort_rank":379,"kind_detail":"secondary","min_zoom":4.0,"id":44591},"arcs":[678]},{"type":"LineString","properties":{"source":"naturalearthdata.com","kind":"major_road","sort_rank":379,"kind_detail":"secondary","min_zoom":4.0,"id":44599},"arcs":[679]},{"type":"LineString","properties":{"source":"naturalearthdata.com","kind":"major_road","sort_rank":379,"kind_detail":"secondary","min_zoom":3.0,"id":44600},"arcs":[680]},{"type":"LineString","properties":{"source":"naturalearthdata.com","kind":"major_road","sort_rank":379,"kind_detail":"secondary","min_zoom":4.0,"id":44608},"arcs":[681]},{"type":"LineString","properties":{"source":"naturalearthdata.com","kind":"major_road","kind_detail":"secondary","sort_rank":379,"landuse_kind":"urban_area","min_zoom":3.0,"id":44615},"arcs":[682]},{"type":"LineString","properties":{"source":"naturalearthdata.com","kind":"major_road","sort_rank":379,"kind_detail":"secondary","min_zoom":3.0,"id":44615},"arcs":[683]},{"type":"LineString","properties":{"source":"naturalearthdata.com","kind":"major_road","kind_detail":"secondary","sort_rank":379,"landuse_kind":"protected_area","min_zoom":4.0,"id":44617},"arcs":[684]},{"type":"LineString","properties":{"source":"naturalearthdata.com","kind":"major_road","kind_detail":"secondary","sort_rank":379,"landuse_kind":"urban_area","min_zoom":4.0,"id":44626},"arcs":[685]},{"type":"LineString","properties":{"source":"naturalearthdata.com","kind":"major_road","sort_rank":379,"kind_detail":"secondary","min_zoom":4.0,"id":44626},"arcs":[686]},{"type":"LineString","properties":{"source":"naturalearthdata.com","kind":"major_road","kind_detail":"secondary","sort_rank":379,"landuse_kind":"urban_area","min_zoom":3.0,"id":44627},"arcs":[687]},{"type":"LineString","properties":{"source":"naturalearthdata.com","kind":"major_road","kind_detail":"secondary","sort_rank":379,"landuse_kind":"protected_area","min_zoom":4.0,"id":44631},"arcs":[688]},{"type":"LineString","properties":{"source":"naturalearthdata.com","kind":"major_road","sort_rank":379,"kind_detail":"secondary","min_zoom":4.0,"id":44631},"arcs":[689]},{"type":"LineString","properties":{"source":"naturalearthdata.com","kind":"major_road","kind_detail":"secondary","sort_rank":379,"landuse_kind":"protected_area","min_zoom":4.0,"id":44632},"arcs":[690]},{"type":"LineString","properties":{"source":"naturalearthdata.com","kind":"major_road","kind_detail":"secondary","sort_rank":379,"landuse_kind":"urban_area","min_zoom":4.0,"id":44642},"arcs":[691]},{"type":"LineString","properties":{"source":"naturalearthdata.com","kind":"major_road","sort_rank":379,"kind_detail":"secondary","min_zoom":4.0,"id":44642},"arcs":[692]},{"type":"LineString","properties":{"source":"naturalearthdata.com","kind":"major_road","kind_detail":"secondary","sort_rank":379,"landuse_kind":"protected_area","min_zoom":4.0,"id":44643},"arcs":[693]},{"type":"LineString","properties":{"source":"naturalearthdata.com","kind":"major_road","kind_detail":"secondary","sort_rank":379,"landuse_kind":"protected_area","min_zoom":4.0,"id":44654},"arcs":[694]},{"type":"LineString","properties":{"source":"naturalearthdata.com","kind":"major_road","kind_detail":"secondary","sort_rank":379,"landuse_kind":"urban_area","min_zoom":3.0,"id":44676},"arcs":[695]},{"type":"LineString","properties":{"source":"naturalearthdata.com","kind":"major_road","sort_rank":379,"kind_detail":"secondary","min_zoom":3.0,"id":44676},"arcs":[696]},{"type":"LineString","properties":{"source":"naturalearthdata.com","kind":"major_road","kind_detail":"secondary","sort_rank":379,"landuse_kind":"park","min_zoom":4.0,"id":44689},"arcs":[697]},{"type":"LineString","properties":{"source":"naturalearthdata.com","kind":"major_road","kind_detail":"secondary","sort_rank":379,"landuse_kind":"protected_area","min_zoom":4.0,"id":44689},"arcs":[698]},{"type":"LineString","properties":{"source":"naturalearthdata.com","kind":"major_road","sort_rank":379,"kind_detail":"secondary","min_zoom":3.0,"id":44693},"arcs":[699]},{"type":"LineString","properties":{"source":"naturalearthdata.com","kind":"major_road","sort_rank":379,"kind_detail":"secondary","min_zoom":3.0,"id":44697},"arcs":[700]},{"type":"LineString","properties":{"source":"naturalearthdata.com","kind":"major_road","sort_rank":379,"kind_detail":"secondary","min_zoom":3.0,"id":44701},"arcs":[701]},{"type":"LineString","properties":{"source":"naturalearthdata.com","kind":"major_road","sort_rank":379,"kind_detail":"secondary","min_zoom":3.0,"id":44708},"arcs":[702]},{"type":"LineString","properties":{"source":"naturalearthdata.com","kind":"major_road","kind_detail":"secondary","sort_rank":379,"landuse_kind":"protected_area","min_zoom":4.0,"id":44716},"arcs":[703]},{"type":"LineString","properties":{"source":"naturalearthdata.com","kind":"major_road","sort_rank":379,"kind_detail":"secondary","min_zoom":3.0,"id":44721},"arcs":[704]},{"type":"LineString","properties":{"source":"naturalearthdata.com","kind":"major_road","kind_detail":"secondary","sort_rank":379,"landuse_kind":"protected_area","min_zoom":4.0,"id":44726},"arcs":[705]},{"type":"LineString","properties":{"source":"naturalearthdata.com","kind":"major_road","sort_rank":379,"kind_detail":"secondary","min_zoom":3.0,"id":44731},"arcs":[706]},{"type":"LineString","properties":{"source":"naturalearthdata.com","kind":"major_road","kind_detail":"secondary","sort_rank":379,"landuse_kind":"protected_area","min_zoom":4.0,"id":44732},"arcs":[707]},{"type":"LineString","properties":{"source":"naturalearthdata.com","kind":"major_road","kind_detail":"secondary","sort_rank":379,"landuse_kind":"protected_area","min_zoom":4.0,"id":44733},"arcs":[708]},{"type":"LineString","properties":{"source":"naturalearthdata.com","kind":"major_road","kind_detail":"secondary","sort_rank":379,"landuse_kind":"protected_area","min_zoom":4.0,"id":44734},"arcs":[709]},{"type":"LineString","properties":{"source":"naturalearthdata.com","kind":"major_road","kind_detail":"secondary","sort_rank":379,"landuse_kind":"protected_area","min_zoom":4.0,"id":44759},"arcs":[710]},{"type":"LineString","properties":{"source":"naturalearthdata.com","kind":"major_road","sort_rank":379,"kind_detail":"secondary","min_zoom":3.0,"id":44762},"arcs":[711]},{"type":"LineString","properties":{"source":"naturalearthdata.com","kind":"major_road","sort_rank":379,"kind_detail":"secondary","min_zoom":3.0,"id":44765},"arcs":[712]},{"type":"LineString","properties":{"source":"naturalearthdata.com","kind":"major_road","kind_detail":"secondary","sort_rank":379,"landuse_kind":"protected_area","min_zoom":4.0,"id":44769},"arcs":[713]},{"type":"LineString","properties":{"source":"naturalearthdata.com","kind":"major_road","kind_detail":"secondary","sort_rank":379,"landuse_kind":"protected_area","min_zoom":4.0,"id":44770},"arcs":[714]},{"type":"LineString","properties":{"source":"naturalearthdata.com","kind":"major_road","kind_detail":"secondary","sort_rank":379,"landuse_kind":"urban_area","min_zoom":3.0,"id":44772},"arcs":[715]},{"type":"LineString","properties":{"source":"naturalearthdata.com","kind":"major_road","sort_rank":379,"kind_detail":"secondary","min_zoom":3.0,"id":44772},"arcs":[716]},{"type":"LineString","properties":{"source":"naturalearthdata.com","kind":"major_road","sort_rank":379,"kind_detail":"secondary","min_zoom":3.0,"id":44773},"arcs":[717]},{"type":"LineString","properties":{"source":"naturalearthdata.com","kind":"major_road","sort_rank":379,"kind_detail":"secondary","min_zoom":4.0,"id":44789},"arcs":[718]},{"type":"LineString","properties":{"source":"naturalearthdata.com","kind":"major_road","kind_detail":"secondary","sort_rank":379,"landuse_kind":"protected_area","min_zoom":4.0,"id":44803},"arcs":[719]},{"type":"LineString","properties":{"source":"naturalearthdata.com","kind":"major_road","kind_detail":"secondary","sort_rank":379,"landuse_kind":"nature_reserve","min_zoom":4.0,"id":44813},"arcs":[720]},{"type":"LineString","properties":{"source":"naturalearthdata.com","kind":"major_road","kind_detail":"secondary","sort_rank":379,"landuse_kind":"protected_area","min_zoom":4.0,"id":44813},"arcs":[721]},{"type":"LineString","properties":{"source":"naturalearthdata.com","kind":"major_road","sort_rank":379,"kind_detail":"secondary","min_zoom":3.0,"id":44838},"arcs":[722]},{"type":"LineString","properties":{"source":"naturalearthdata.com","kind":"major_road","kind_detail":"secondary","sort_rank":379,"landuse_kind":"protected_area","min_zoom":4.0,"id":44839},"arcs":[723]},{"type":"LineString","properties":{"source":"naturalearthdata.com","kind":"major_road","sort_rank":379,"kind_detail":"secondary","min_zoom":3.0,"id":44840},"arcs":[724]},{"type":"LineString","properties":{"source":"naturalearthdata.com","kind":"major_road","sort_rank":379,"kind_detail":"secondary","min_zoom":4.0,"id":44841},"arcs":[725]},{"type":"LineString","properties":{"source":"naturalearthdata.com","kind":"major_road","kind_detail":"secondary","sort_rank":379,"landuse_kind":"protected_area","min_zoom":4.0,"id":44847},"arcs":[726]},{"type":"LineString","properties":{"source":"naturalearthdata.com","kind":"major_road","sort_rank":379,"kind_detail":"secondary","min_zoom":3.0,"id":44848},"arcs":[727]},{"type":"LineString","properties":{"source":"naturalearthdata.com","kind":"major_road","sort_rank":379,"kind_detail":"secondary","min_zoom":3.0,"id":44849},"arcs":[728]},{"type":"LineString","properties":{"source":"naturalearthdata.com","kind":"major_road","sort_rank":379,"kind_detail":"secondary","min_zoom":4.0,"id":44863},"arcs":[729]},{"type":"LineString","properties":{"source":"naturalearthdata.com","kind":"major_road","sort_rank":379,"kind_detail":"secondary","min_zoom":3.0,"id":44871},"arcs":[730]},{"type":"LineString","properties":{"source":"naturalearthdata.com","kind":"major_road","sort_rank":379,"kind_detail":"secondary","min_zoom":3.0,"id":44873},"arcs":[731]},{"type":"LineString","properties":{"source":"naturalearthdata.com","kind":"major_road","sort_rank":379,"kind_detail":"secondary","min_zoom":3.0,"id":44874},"arcs":[732]},{"type":"LineString","properties":{"source":"naturalearthdata.com","kind":"major_road","sort_rank":379,"kind_detail":"secondary","min_zoom":3.0,"id":44881},"arcs":[733]},{"type":"LineString","properties":{"source":"naturalearthdata.com","kind":"major_road","sort_rank":379,"kind_detail":"secondary","min_zoom":3.0,"id":44882},"arcs":[734]},{"type":"LineString","properties":{"source":"naturalearthdata.com","kind":"major_road","sort_rank":379,"kind_detail":"secondary","min_zoom":3.0,"id":44888},"arcs":[735]},{"type":"LineString","properties":{"source":"naturalearthdata.com","kind":"major_road","sort_rank":379,"kind_detail":"secondary","min_zoom":3.0,"id":44890},"arcs":[736]},{"type":"LineString","properties":{"source":"naturalearthdata.com","kind":"major_road","sort_rank":379,"kind_detail":"secondary","min_zoom":3.0,"id":44902},"arcs":[737]},{"type":"LineString","properties":{"source":"naturalearthdata.com","kind":"major_road","sort_rank":379,"kind_detail":"secondary","min_zoom":3.0,"id":44922},"arcs":[738]},{"type":"LineString","properties":{"source":"naturalearthdata.com","kind":"major_road","sort_rank":379,"kind_detail":"secondary","min_zoom":3.0,"id":44938},"arcs":[739]},{"type":"LineString","properties":{"source":"naturalearthdata.com","kind":"major_road","sort_rank":379,"kind_detail":"secondary","min_zoom":4.0,"id":44947},"arcs":[740]},{"type":"LineString","properties":{"source":"naturalearthdata.com","kind":"major_road","sort_rank":379,"kind_detail":"secondary","min_zoom":3.0,"id":44948},"arcs":[741]},{"type":"LineString","properties":{"source":"naturalearthdata.com","kind":"minor_road","sort_rank":355,"kind_detail":"tertiary","min_zoom":5.0,"id":44958},"arcs":[742]},{"type":"LineString","properties":{"source":"naturalearthdata.com","kind":"major_road","sort_rank":379,"kind_detail":"secondary","min_zoom":3.0,"id":44970},"arcs":[743]},{"type":"LineString","properties":{"source":"naturalearthdata.com","kind":"major_road","sort_rank":379,"kind_detail":"secondary","min_zoom":4.0,"id":44976},"arcs":[744]},{"type":"LineString","properties":{"source":"naturalearthdata.com","kind":"major_road","sort_rank":379,"kind_detail":"secondary","min_zoom":3.0,"id":45011},"arcs":[745]},{"type":"LineString","properties":{"source":"naturalearthdata.com","kind":"minor_road","sort_rank":355,"kind_detail":"tertiary","min_zoom":5.0,"id":45052},"arcs":[746]},{"type":"LineString","properties":{"source":"naturalearthdata.com","kind":"minor_road","sort_rank":355,"kind_detail":"tertiary","min_zoom":5.0,"id":45069},"arcs":[747]},{"type":"LineString","properties":{"source":"naturalearthdata.com","kind":"minor_road","sort_rank":355,"kind_detail":"tertiary","min_zoom":5.0,"id":45077},"arcs":[748]},{"type":"LineString","properties":{"source":"naturalearthdata.com","kind":"major_road","kind_detail":"secondary","sort_rank":379,"landuse_kind":"protected_area","min_zoom":4.0,"id":45082},"arcs":[749]},{"type":"LineString","properties":{"source":"naturalearthdata.com","kind":"major_road","sort_rank":379,"kind_detail":"secondary","min_zoom":4.0,"id":45082},"arcs":[750]},{"type":"LineString","properties":{"source":"naturalearthdata.com","kind":"major_road","sort_rank":379,"kind_detail":"secondary","min_zoom":3.0,"id":45085},"arcs":[751]},{"type":"LineString","properties":{"source":"naturalearthdata.com","kind":"major_road","sort_rank":379,"kind_detail":"secondary","min_zoom":3.0,"id":45090},"arcs":[752]},{"type":"LineString","properties":{"source":"naturalearthdata.com","kind":"minor_road","sort_rank":355,"kind_detail":"tertiary","min_zoom":5.0,"id":45091},"arcs":[753]},{"type":"LineString","properties":{"source":"naturalearthdata.com","kind":"minor_road","sort_rank":355,"kind_detail":"tertiary","min_zoom":5.0,"id":45092},"arcs":[754]},{"type":"LineString","properties":{"source":"naturalearthdata.com","kind":"minor_road","sort_rank":355,"kind_detail":"tertiary","min_zoom":5.0,"id":45095},"arcs":[755]},{"type":"LineString","properties":{"source":"naturalearthdata.com","kind":"major_road","kind_detail":"secondary","sort_rank":379,"landuse_kind":"urban_area","min_zoom":4.0,"id":45103},"arcs":[756]},{"type":"LineString","properties":{"source":"naturalearthdata.com","kind":"major_road","sort_rank":379,"kind_detail":"secondary","min_zoom":4.0,"id":45103},"arcs":[757]},{"type":"LineString","properties":{"source":"naturalearthdata.com","kind":"major_road","kind_detail":"secondary","sort_rank":379,"landuse_kind":"urban_area","min_zoom":3.0,"id":45106},"arcs":[758]},{"type":"LineString","properties":{"source":"naturalearthdata.com","kind":"major_road","sort_rank":379,"kind_detail":"secondary","min_zoom":3.0,"id":45106},"arcs":[759]},{"type":"LineString","properties":{"source":"naturalearthdata.com","kind":"major_road","kind_detail":"secondary","sort_rank":379,"landuse_kind":"urban_area","min_zoom":4.0,"id":45107},"arcs":[760]},{"type":"LineString","properties":{"source":"naturalearthdata.com","kind":"major_road","kind_detail":"secondary","sort_rank":379,"landuse_kind":"urban_area","min_zoom":4.0,"id":45111},"arcs":[761]},{"type":"LineString","properties":{"source":"naturalearthdata.com","kind":"major_road","kind_detail":"secondary","sort_rank":379,"landuse_kind":"nature_reserve","min_zoom":4.0,"id":45113},"arcs":[762]},{"type":"LineString","properties":{"source":"naturalearthdata.com","kind":"major_road","kind_detail":"secondary","sort_rank":379,"landuse_kind":"protected_area","min_zoom":4.0,"id":45113},"arcs":[763]},{"type":"LineString","properties":{"source":"naturalearthdata.com","kind":"minor_road","sort_rank":355,"kind_detail":"tertiary","min_zoom":5.0,"id":45140},"arcs":[764]},{"type":"LineString","properties":{"source":"naturalearthdata.com","kind":"minor_road","sort_rank":355,"kind_detail":"tertiary","min_zoom":5.0,"id":45147},"arcs":[765]},{"type":"LineString","properties":{"source":"naturalearthdata.com","kind":"major_road","sort_rank":379,"kind_detail":"secondary","min_zoom":3.0,"id":45161},"arcs":[766]},{"type":"LineString","properties":{"source":"naturalearthdata.com","kind":"minor_road","sort_rank":355,"kind_detail":"tertiary","min_zoom":5.0,"id":45165},"arcs":[767]},{"type":"LineString","properties":{"source":"naturalearthdata.com","kind":"major_road","kind_detail":"secondary","sort_rank":379,"landuse_kind":"urban_area","min_zoom":4.0,"id":45170},"arcs":[768]},{"type":"LineString","properties":{"source":"naturalearthdata.com","kind":"major_road","sort_rank":379,"kind_detail":"secondary","min_zoom":4.0,"id":45170},"arcs":[769]},{"type":"LineString","properties":{"source":"naturalearthdata.com","kind":"major_road","kind_detail":"secondary","sort_rank":379,"landuse_kind":"urban_area","min_zoom":3.0,"id":45186},"arcs":[770]},{"type":"LineString","properties":{"source":"naturalearthdata.com","kind":"major_road","sort_rank":379,"kind_detail":"secondary","min_zoom":3.0,"id":45186},"arcs":[771]},{"type":"LineString","properties":{"source":"naturalearthdata.com","kind":"minor_road","sort_rank":355,"kind_detail":"tertiary","min_zoom":5.0,"id":45192},"arcs":[772]},{"type":"LineString","properties":{"source":"naturalearthdata.com","kind":"major_road","sort_rank":379,"kind_detail":"secondary","min_zoom":3.0,"id":45258},"arcs":[773]},{"type":"LineString","properties":{"source":"naturalearthdata.com","kind":"major_road","kind_detail":"secondary","sort_rank":379,"landuse_kind":"protected_area","min_zoom":4.0,"id":45269},"arcs":[774]},{"type":"LineString","properties":{"source":"naturalearthdata.com","kind":"major_road","sort_rank":379,"kind_detail":"secondary","min_zoom":4.0,"id":45269},"arcs":[775]},{"type":"LineString","properties":{"source":"naturalearthdata.com","kind":"major_road","sort_rank":379,"kind_detail":"secondary","min_zoom":4.0,"id":45284},"arcs":[776]},{"type":"LineString","properties":{"source":"naturalearthdata.com","kind":"major_road","sort_rank":379,"kind_detail":"secondary","min_zoom":4.0,"id":45293},"arcs":[777]},{"type":"LineString","properties":{"source":"naturalearthdata.com","kind":"major_road","sort_rank":379,"kind_detail":"secondary","min_zoom":4.0,"id":45306},"arcs":[778]},{"type":"LineString","properties":{"source":"naturalearthdata.com","kind":"major_road","sort_rank":379,"kind_detail":"secondary","min_zoom":4.0,"id":45320},"arcs":[779]},{"type":"LineString","properties":{"source":"naturalearthdata.com","kind":"major_road","sort_rank":379,"kind_detail":"secondary","min_zoom":3.0,"id":45325},"arcs":[780]},{"type":"LineString","properties":{"source":"naturalearthdata.com","kind":"major_road","sort_rank":379,"kind_detail":"secondary","min_zoom":3.0,"id":45338},"arcs":[781]},{"type":"LineString","properties":{"source":"naturalearthdata.com","kind":"major_road","sort_rank":379,"kind_detail":"secondary","min_zoom":3.0,"id":45341},"arcs":[782]},{"type":"LineString","properties":{"source":"naturalearthdata.com","kind":"major_road","sort_rank":379,"kind_detail":"secondary","min_zoom":3.0,"id":45375},"arcs":[783]},{"type":"LineString","properties":{"source":"naturalearthdata.com","kind":"major_road","sort_rank":379,"kind_detail":"secondary","min_zoom":4.0,"id":45395},"arcs":[784]},{"type":"LineString","properties":{"source":"naturalearthdata.com","kind":"major_road","sort_rank":379,"kind_detail":"secondary","min_zoom":3.0,"id":45408},"arcs":[785]},{"type":"LineString","properties":{"source":"naturalearthdata.com","kind":"major_road","sort_rank":379,"kind_detail":"secondary","min_zoom":3.0,"id":45480},"arcs":[786]},{"type":"LineString","properties":{"source":"naturalearthdata.com","kind":"major_road","sort_rank":379,"kind_detail":"secondary","min_zoom":4.0,"id":45483},"arcs":[787]},{"type":"LineString","properties":{"source":"naturalearthdata.com","kind":"major_road","sort_rank":379,"kind_detail":"secondary","min_zoom":3.0,"id":45525},"arcs":[788]},{"type":"LineString","properties":{"source":"naturalearthdata.com","kind":"major_road","sort_rank":379,"kind_detail":"secondary","min_zoom":4.0,"id":45526},"arcs":[789]},{"type":"LineString","properties":{"source":"naturalearthdata.com","kind":"major_road","sort_rank":379,"kind_detail":"secondary","min_zoom":3.0,"id":45591},"arcs":[790]}]},"earth":{"type":"GeometryCollection","geometries":[{"type":"MultiPolygon","properties":{"sort_rank":10,"source":"naturalearthdata.com","min_zoom":0.0,"kind":"earth","area":4728203749954},"arcs":[[[791]]]}]},"landuse":{"type":"GeometryCollection","geometries":[{"type":"Polygon","properties":{"kind":"park","name":"North Luangwa National Park","area":5291319808,"sort_rank":24,"operator":"Zambia Wildlife Authority","source":"openstreetmap.org","min_zoom":4.0,"tier":2,"id":31714931},"arcs":[[792]]},{"type":"Polygon","properties":{"kind":"nature_reserve","name":"Mana Pools National Park","area":2403120128,"sort_rank":23,"operator":"Zimbabwe Parks and Wildlife Management Authority","source":"openstreetmap.org","min_zoom":4.0,"tier":2,"id":-6182892,"osm_relation":true,"protect_class":"4"},"arcs":[[793]]},{"type":"Polygon","properties":{"kind":"park","name":"Bwabwata National Park","area":6963460096,"sort_rank":24,"source":"openstreetmap.org","min_zoom":4.0,"tier":2,"id":-3634270,"osm_relation":true},"arcs":[[794]]},{"type":"Polygon","properties":{"kind":"national_park","name":"South Luangwa National Park","area":10593899520,"sort_rank":18,"operator":"Zambia Wildlife Authority","source":"openstreetmap.org","min_zoom":3.0,"tier":1,"id":-5682380,"osm_relation":true,"protect_class":"2"},"arcs":[[795]]},{"type":"Polygon","properties":{"kind":"park","name":"Lukusuzi National Park","area":2743569920,"sort_rank":24,"operator":"Zambia Wildlife Authority","source":"openstreetmap.org","min_zoom":4.0,"tier":2,"id":98744797},"arcs":[[796]]},{"type":"Polygon","properties":{"kind":"nature_reserve","name":"Gonarezhou National Park","area":6199329792,"sort_rank":23,"source":"openstreetmap.org","min_zoom":4.0,"tier":2,"id":-2454840,"osm_relation":true},"arcs":[[797]]},{"type":"Polygon","properties":{"kind":"nature_reserve","area":6149700096,"sort_rank":23,"source":"openstreetmap.org","min_zoom":4.0,"tier":2,"id":-6790686,"osm_relation":true},"arcs":[[798]]},{"type":"Polygon","properties":{"kind":"nature_reserve","name":"Sapi Safari Area","area":1251650048,"sort_rank":23,"operator":"PWMA","source":"openstreetmap.org","min_zoom":4.0,"tier":2,"id":-6170510,"osm_relation":true,"protect_class":"2"},"arcs":[[799]]},{"type":"Polygon","properties":{"kind":"national_park","name":"Kasungu National Park","area":2583030016,"sort_rank":18,"source":"openstreetmap.org","min_zoom":3.0,"tier":1,"id":30133248,"protect_class":"2"},"arcs":[[800]]},{"type":"Polygon","properties":{"kind":"park","name":"Lavushi Manda National Park","area":1671209984,"sort_rank":24,"source":"openstreetmap.org","min_zoom":4.0,"tier":2,"id":98744844},"arcs":[[801]]},{"type":"Polygon","properties":{"kind":"park","name":"Sioma Ngwezi National Park","area":5027630080,"sort_rank":24,"source":"openstreetmap.org","min_zoom":4.0,"tier":2,"id":98745025},"arcs":[[802]]},{"type":"Polygon","properties":{"kind":"park","name":"Moremi Game Reserve","area":5514919936,"sort_rank":24,"source":"openstreetmap.org","min_zoom":4.0,"tier":2,"id":-3638339,"osm_relation":true},"arcs":[[803]]},{"type":"MultiPolygon","properties":{"source":"naturalearthdata.com","kind":"urban_area","name":"","area":3991133350,"sort_rank":11,"min_zoom":4.0},"arcs":[[[804]],[[805]],[[806]],[[807]],[[808]],[[809]],[[810]]]},{"type":"Polygon","properties":{"kind":"nature_reserve","name":"Makgadikgadi Pans Game Reserve","area":5274379776,"sort_rank":23,"source":"openstreetmap.org","min_zoom":4.0,"tier":2,"id":-3841029,"osm_relation":true},"arcs":[[811]]},{"type":"Polygon","properties":{"kind":"nature_reserve","name":"Chizarira National Park","area":2098380032,"sort_rank":23,"source":"openstreetmap.org","min_zoom":4.0,"tier":2,"id":-2589234,"osm_relation":true},"arcs":[[812]]},{"type":"Polygon","properties":{"kind":"nature_reserve","name":"Chirisa Safari Area","area":1899879936,"sort_rank":23,"source":"openstreetmap.org","min_zoom":4.0,"tier":2,"id":-2589233,"osm_relation":true,"protect_class":"6"},"arcs":[[813]]},{"type":"Polygon","properties":{"kind":"nature_reserve","name":"Sibuyu Forest Reserve","area":1306210048,"sort_rank":23,"source":"openstreetmap.org","min_zoom":4.0,"tier":2,"id":79604888},"arcs":[[814]]},{"type":"Polygon","properties":{"kind":"park","name":"Chobe Forest Reserve","area":1538380032,"sort_rank":24,"source":"openstreetmap.org","min_zoom":4.0,"tier":2,"id":-3618515,"osm_relation":true},"arcs":[[815]]},{"type":"Polygon","properties":{"kind":"nature_reserve","name":"Hwange National Park","area":16584599552,"sort_rank":23,"source":"openstreetmap.org","min_zoom":4.0,"tier":2,"id":-3692962,"osm_relation":true},"arcs":[[816]]},{"type":"Polygon","properties":{"kind":"protected_area","name":"Kafue National Park","area":23264999424,"sort_rank":17,"source":"openstreetmap.org","min_zoom":4.0,"tier":2,"id":-4626459,"osm_relation":true,"protect_class":"2"},"arcs":[[817]]},{"type":"Polygon","properties":{"kind":"nature_reserve","name":"Chobe National Park","area":11757200384,"sort_rank":23,"source":"openstreetmap.org","min_zoom":4.0,"tier":2,"id":-3618382,"osm_relation":true},"arcs":[[818]]},{"type":"Polygon","properties":{"kind":"protected_area","name":"Kavango Zambezi (KAZA) Transfrontier Conservation Area","area":577102020608,"sort_rank":17,"source":"openstreetmap.org","min_zoom":4.0,"tier":2,"id":-4626458,"osm_relation":true,"protect_class":"98"},"arcs":[[819]]},{"type":"Polygon","properties":{"kind":"park","name":"Central Kalahari Game Reserve","area":61329899520,"sort_rank":24,"source":"openstreetmap.org","min_zoom":4.0,"tier":2,"id":-3385545,"osm_relation":true},"arcs":[[820]]},{"type":"Polygon","properties":{"kind":"nature_reserve","name":"Lower Zambezi National Park","area":4738339840,"sort_rank":23,"source":"openstreetmap.org","min_zoom":4.0,"tier":2,"id":-6190711,"osm_relation":true},"arcs":[[821]]},{"type":"Polygon","properties":{"kind":"national_park","name":"Matusadona National Park","area":1533720064,"sort_rank":18,"source":"openstreetmap.org","min_zoom":3.0,"tier":1,"id":-6185332,"osm_relation":true,"protect_class":"2"},"arcs":[[822]]}]}},"type":"Topology","transform":{"translate":[22.5,-21.9430455334],"scale":[0.002746582,0.0026280868]},"arcs":[[[0,3402],[37,0],[45,0],[45,0],[46,0],[45,0],[45,0],[45,0],[46,0],[45,0],[45,0],[45,0],[46,0],[11,0],[-4,14],[-6,12],[-8,11],[-20,21],[-7,11],[-4,12],[3,15],[7,17],[7,28],[6,27],[5,11],[16,24],[12,19],[3,6],[1,7],[-3,17],[-2,23],[-3,10],[-10,10],[-8,12],[-1,17],[2,53],[2,49],[8,18],[1,4],[-2,10],[-2,28],[-3,9],[-4,8],[-2,7],[0,10],[2,7],[6,15],[10,16],[2,5],[0,6],[-1,9],[0,5],[1,4],[4,6],[11,9],[4,5],[-1,5],[-16,36],[-2,10],[1,36]],[[257,1675],[-6,2],[-4,4],[-1,6],[1,6],[-1,6],[-4,4],[-16,6],[-8,7],[-9,11],[-7,11],[-3,10],[-2,5],[-15,16],[-6,3],[-17,5],[-22,9],[-10,7],[-14,13],[-12,6],[-4,4],[-4,6],[-4,18],[-5,10],[-7,10],[-17,18],[-5,3],[-21,9],[-5,0],[-2,2],[-2,3],[0,7],[-1,3],[-4,5],[-12,3],[-5,4],[-3,4]],[[321,1637],[-2,5],[0,5],[2,5],[-8,7],[-7,8],[-7,6],[-6,3],[-5,1],[-12,1]],[[276,1678],[-6,-1],[-6,-1],[-7,-1]],[[2175,4096],[0,-1],[0,-4],[0,-13],[-7,-14],[-3,-5],[-4,-5],[-1,-8],[3,-15],[-2,-1],[-9,-6],[-1,-2],[-19,-28],[0,-7],[0,-20],[2,-6],[2,-3],[4,-11],[3,-4],[5,-6],[2,-3],[6,-23],[0,-4],[-1,-1],[2,-4],[6,-5],[1,-4],[3,-26],[3,-5],[6,-2],[4,-4],[3,-18],[4,-6]],[[717,3987],[-8,0],[-8,4],[-12,12],[-8,5],[-7,1],[-15,0],[-6,3],[-3,7],[5,4],[15,5],[4,5],[12,19],[3,6],[1,7],[1,8],[0,8],[-2,7],[-3,3],[-5,5]],[[1041,3918],[-3,0],[-2,2],[-3,3],[-4,6],[-9,31],[-1,7],[0,4],[1,3],[5,6],[1,4],[-3,7],[-8,14],[-3,8],[-1,9],[3,5],[5,3],[3,7],[-2,3],[-4,4],[-2,3],[4,3],[8,3],[3,3],[0,4],[-1,7],[0,10],[0,9],[-5,4]],[[1023,4090],[-11,-2],[-35,-18],[-22,-5],[-52,-5]],[[903,4060],[-14,2]],[[889,4062],[-15,-5],[-27,-14],[-14,-3],[-27,0],[-14,-6],[-4,-4],[-7,-9],[-4,-4],[-3,-2],[-9,-2],[-3,-1],[-3,-3],[-2,-3],[-2,-4],[-1,-4],[-2,-3],[-4,-1]],[[748,3994],[-4,0]],[[744,3994],[-4,0],[-15,-6],[-8,-1]],[[1897,3667],[-16,1],[-10,4],[-16,17],[-2,2],[-19,16],[-6,8],[-18,53],[-1,15],[-17,30],[-68,43],[-9,33],[1,13],[-2,19],[-4,17],[-6,9]],[[1704,3947],[-2,0],[-11,-4],[-15,-2],[-14,-4],[-4,0]],[[1658,3937],[-8,1]],[[1650,3938],[-3,-1],[-5,-5],[0,-7],[5,-16],[-1,-11],[-4,-5],[-5,-6],[-5,-8],[-4,-15],[-1,-31],[-8,-15],[-12,-13],[-14,-8],[-16,-3]],[[1091,3868],[-6,3],[-2,5],[3,10],[0,2],[0,2],[-1,2],[-6,6],[-21,10],[-3,3],[-2,3],[-2,3],[-5,1]],[[1046,3918],[-5,0]],[[1202,3858],[-21,0],[-7,1],[-14,9],[-11,10],[-13,9],[-16,0]],[[1120,3887],[-3,-2],[-1,-4],[-2,-4],[-3,-1],[-5,-1],[-3,-2],[-2,-2],[-3,-2],[-7,-1]],[[1272,3820],[-5,0],[-6,3],[-5,12],[-5,4],[-8,3],[-20,17],[-1,2],[-2,1],[-4,1]],[[1216,3863],[-3,-1],[-7,-4],[-4,0]],[[2192,3834],[4,0],[3,-2],[4,-3],[1,-2],[5,-7],[1,-4]],[[2187,3832],[5,2]],[[2218,3821],[5,-3],[7,-15],[4,-3],[18,-11],[8,-2]],[[2210,3816],[8,5]],[[1358,3809],[-7,3],[-8,5],[-8,4]],[[1335,3821],[-63,-1]],[[1528,3777],[-6,3],[-6,5],[-7,4],[-14,3],[-30,2],[-13,4],[-6,6],[-6,5],[-6,5],[-9,3]],[[1425,3817],[-14,0],[-13,-3],[-4,-1],[-7,-5],[-4,-2]],[[1383,3806],[-4,0],[-8,4]],[[1371,3810],[-13,-1]],[[1577,3794],[-17,1]],[[1560,3795],[-9,0],[-6,-4],[-4,-7],[-5,-6],[-8,-1]],[[2273,3789],[3,-3],[1,-10],[2,-6],[5,-4],[13,-7],[5,-4],[5,-7],[3,-7],[2,-7],[3,-5],[22,-12],[9,-12],[30,-56],[1,-4],[1,-5],[1,-1]],[[2260,3787],[13,2]],[[2658,3725],[0,-1],[0,-1],[0,-41],[0,-44],[-1,-63],[0,-57],[0,-67],[0,-57],[0,-54],[0,-57],[0,-42],[-6,-12],[-5,-1]],[[2597,3701],[6,1],[19,9],[12,10],[8,2],[16,2]],[[2582,3712],[4,-2],[7,-7],[4,-2]],[[2542,3610],[7,1],[5,3],[4,6],[1,7],[-2,7],[-4,2],[-6,0],[-5,3],[-11,14],[-2,3],[1,3],[1,3],[2,9],[4,15],[2,5],[6,4],[16,6],[7,4],[5,5],[4,2],[5,0]],[[1996,3641],[-9,2],[-2,9],[-1,9],[-6,7],[-20,13],[-8,3],[-9,0]],[[1941,3684],[-5,-3],[-4,-5],[-7,-5],[-11,-3],[-17,-1]],[[2459,3644],[4,-2],[7,-7],[4,-4],[4,-2],[4,0],[14,-1],[3,0],[15,-9],[10,-4],[2,0]],[[2407,3634],[6,4],[8,3],[9,2],[29,1]],[[2050,3620],[-9,7],[-1,4],[-1,3],[-1,4],[-4,2],[-26,2]],[[2008,3642],[-6,0],[-6,-1]],[[2403,3641],[4,-7]],[[2391,3637],[6,3],[6,1]],[[2382,3639],[4,-2],[5,0]],[[2379,3639],[3,0]],[[2089,3617],[-6,5],[-6,5],[-7,3]],[[2070,3630],[-9,-2],[-5,-6],[-6,-2]],[[2209,3443],[-5,0],[-4,3],[-1,20],[-6,9],[-8,8],[-7,10],[-3,10],[4,6],[6,4],[4,6],[0,10],[-4,7],[-12,14],[-5,8],[-7,19],[-5,8],[-30,27],[-6,4],[-7,2],[-7,0]],[[2106,3618],[-7,-1],[-10,0]],[[2532,3616],[2,-1],[2,-1],[1,-1],[2,-2],[3,-1]],[[2526,3615],[6,1]],[[2370,3251],[-6,1],[-4,6],[-11,11],[-6,16],[-12,56],[-4,6],[-3,1],[-7,1],[-4,2],[-3,13],[-1,1],[-2,0],[-2,1],[-2,2],[0,2],[0,4],[0,1],[0,2],[2,4],[0,2],[-1,2],[-5,2],[-2,1],[-3,14],[-3,4],[-6,6],[-25,33],[-14,15],[-17,4]],[[2229,3464],[-5,-3],[-5,-11],[-4,-5],[-6,-2]],[[2600,3303],[-4,0],[-7,5],[-7,5],[-6,4],[-9,1]],[[2567,3318],[-8,-4],[-21,-21],[-8,-4],[-51,-21],[-21,-14],[-9,-4],[-5,-2],[-7,-9],[-3,-2]],[[2646,3228],[-24,1],[-14,4],[-8,3],[-5,3],[-4,4],[-2,3],[-2,5],[-1,4],[0,5],[2,2],[4,1],[2,1],[1,4],[-1,7],[1,4],[2,3],[7,1],[2,2],[2,3],[2,4],[0,4],[-1,4],[-3,4],[-3,0]],[[2603,3304],[-3,-1]],[[2434,3237],[-6,1],[-3,4],[-3,6],[-3,5],[-8,4]],[[2411,3257],[-9,0],[-9,-2],[-3,0],[-6,0],[-7,-3],[-7,-1]],[[3919,4003],[4,5],[0,5],[-1,5],[1,5],[1,2],[6,3],[2,2],[0,2],[-1,4],[1,3],[25,40],[5,11],[2,6]],[[3910,4011],[9,-8]],[[3914,3944],[-6,0],[-6,2],[-2,3],[6,12],[2,7],[0,5],[-1,32],[3,6]],[[3963,3654],[-13,5],[-7,11],[-6,26],[-5,13],[-4,5],[-10,10],[-3,6],[-1,13],[2,13],[14,34],[3,20],[3,6],[1,6],[-2,5],[-4,9],[0,6],[5,14],[1,14],[-4,62],[-2,6],[-5,6],[-6,1]],[[3920,3945],[-6,-1]],[[4004,3657],[-14,5]],[[3990,3662],[-27,-8]],[[3942,3579],[9,2],[8,5],[7,8],[6,9],[4,3],[11,5],[3,5],[1,9],[1,3],[6,1],[3,6],[9,6],[2,1],[3,6],[-1,8],[-4,1]],[[4010,3657],[-6,0]],[[3928,3584],[5,0],[4,-2],[3,-2],[2,-1]],[[3882,3547],[4,0],[2,2],[1,3],[2,2],[2,1],[2,2],[2,1],[3,1],[6,4],[6,13],[4,5],[3,1],[9,2]],[[3844,3561],[2,0],[2,-2],[2,-3],[3,-3]],[[3717,3184],[5,1],[10,8],[5,3],[13,3],[5,3],[1,8],[0,7],[1,6],[3,5],[7,1],[10,5],[7,15],[5,20],[5,22],[6,15],[9,11],[11,4],[2,5],[-1,4],[-6,9],[-3,6],[-1,7],[0,6],[5,43],[10,23],[2,10],[-3,10],[-9,8],[-10,6],[-2,5],[-3,27],[2,7],[5,10],[13,20],[11,23],[4,5],[5,5],[3,1]],[[3870,3561],[4,-1],[2,-2],[5,-9],[1,-2]],[[3853,3553],[3,2],[3,3],[3,1],[6,2],[2,0]],[[3705,3187],[6,-1],[6,-2]],[[3803,3048],[-3,2],[-3,6],[0,6],[-2,6],[-18,23],[-5,4],[-11,5],[-14,2],[-10,5],[-2,10],[4,5],[13,6],[3,4],[-2,5],[-14,20],[-9,4],[-14,0],[-11,3],[-5,12],[2,8],[3,3]],[[3897,3017],[-6,8],[-12,22],[-5,4]],[[3874,3051],[-4,-2],[-3,-10],[-3,-3],[-13,-4],[-5,-3],[-5,-5],[-11,-19],[-7,-2]],[[3823,3003],[-9,11],[-2,6],[2,19],[0,2],[0,2],[-2,4],[-3,1]],[[3809,3048],[-6,0]],[[1005,1579],[-15,-33],[0,-11],[3,-9],[10,-26],[15,-26],[10,-10],[12,-8],[11,-9],[8,-14],[12,-29],[12,-19],[2,-8],[4,-16],[2,-5],[4,-8],[24,-25],[13,-8],[5,-5],[17,-25],[10,-9],[15,-7],[9,-8],[4,-14],[2,-28],[13,-28],[46,-41],[9,-30],[1,-1],[-2,-7],[-6,-15],[-1,-7],[2,-9],[2,-8],[9,-15],[11,-14],[9,-17],[35,-98],[9,-14],[14,-8],[16,-5],[20,0],[4,-2],[3,-2],[3,-3],[4,-5],[1,-3],[-3,-8],[-3,-5],[-2,-1],[0,-1],[4,-3],[3,-1],[11,-2],[9,-5],[10,-15],[7,-6],[6,-3],[15,-3],[7,-3],[14,-9],[7,-7],[3,-7],[2,-9],[5,-5],[7,-3],[16,-4],[6,-3],[1,-2],[3,-3],[5,-6],[5,-6],[6,-3],[8,-2],[8,0],[14,-2],[41,-21],[13,-2]],[[1636,737],[12,-2],[12,-6],[4,-4],[6,-9],[4,-3],[4,-2],[4,0]],[[1624,737],[12,0]],[[1686,712],[4,-1],[8,-1],[7,-2],[7,-4],[5,-7],[18,-47],[7,-44],[-6,-55]],[[1682,711],[4,1]],[[1762,559],[42,0],[29,-3]],[[1736,551],[14,7],[12,1]],[[1854,559],[12,-6],[15,0],[6,-2],[6,-5],[2,-7],[-1,-15],[-4,-14],[-3,-13],[9,-30],[1,-16],[-6,-30],[-2,-5],[-2,-3],[-2,-3],[-1,-5],[0,-5],[-1,-8],[0,-4],[3,-21],[0,-8],[-5,-21],[0,-6],[3,-7],[13,-17],[5,-6],[25,-18],[11,-13],[10,-15],[13,-15],[3,-6],[1,-3],[0,-6],[0,-2],[3,-4],[6,-6],[10,-22],[1,-4],[-1,-3],[-3,-4],[0,-4],[1,-1],[2,-1],[2,-2],[-2,-5],[1,-3],[2,-1]],[[1833,556],[21,3]],[[1989,165],[3,-2],[2,-3],[3,-8],[2,-3],[4,-5],[6,-3],[5,-2],[22,-1],[27,-6],[43,0],[14,-3],[14,-5],[30,-15],[8,-1]],[[1987,164],[2,1]],[[2204,117],[12,-3],[11,-1],[5,-2],[14,-11],[17,-5],[53,-24],[11,-3],[22,-2],[11,-2],[6,-4],[15,-5],[6,-4],[1,-8],[-5,-9],[-6,-9],[-4,-8],[-1,-16],[0,-1]],[[2172,108],[6,1],[6,2],[12,3],[4,2],[4,1]],[[2735,2396],[-16,2],[-31,8],[-17,2]],[[2671,2408],[-8,-2],[-15,-7],[-16,-2],[-20,-8],[-9,-1]],[[2806,2393],[-4,2],[-9,6],[-15,4]],[[2778,2405],[-15,-3],[-14,-4],[-14,-2]],[[2850,2394],[-11,5],[-6,2],[-10,2]],[[2823,2403],[-3,-2],[-5,-4],[-3,-2],[-6,-2]],[[2875,2400],[-14,-6],[-11,0]],[[2603,2388],[-8,1],[-7,2],[-8,1]],[[2580,2392],[-8,-2],[-14,-12],[-6,-4],[-32,-3],[-5,-1],[-81,-37],[-12,-14],[-4,-2],[-7,-2],[-7,-5],[-6,-5],[-4,-4],[-7,-15],[-5,-4],[-9,-2],[-16,0],[-8,-2],[-2,0],[-5,-3],[-12,-12],[-8,-10],[-1,-3],[-5,-7],[-1,-5],[0,-3],[2,-3],[2,-2],[1,-2],[-2,-13],[-5,-16],[-2,-15],[6,-11],[-9,-20],[-1,-8],[2,-7],[6,-16],[0,-8],[-9,-15],[-2,-3],[-2,-14],[-5,-6],[-14,-11],[-3,-6],[-8,-7],[-3,-3],[-5,-1],[-10,0],[-17,-3],[-133,-52],[-24,-16],[-36,-31],[-33,-14],[-56,-24],[-19,-12],[-15,-16],[-49,-75],[-6,-13],[-8,-30],[-9,-19],[-20,-20],[-37,-34],[-96,-101],[-4,-5],[-1,-4],[1,-10],[1,-9],[-13,-15],[-13,-13],[-11,-10],[-10,-6],[-5,-1],[-17,-1],[-4,-2],[-14,-9]],[[1036,1560],[-4,1],[-7,3],[-11,9],[-7,3],[-2,3]],[[1262,1500],[-15,1],[-22,10],[-4,5],[-3,6],[1,5],[6,2],[-5,7],[-17,7],[-3,6],[-4,4],[-7,4],[-8,4],[-14,4],[-4,4],[-5,3]],[[1158,1572],[-9,-1],[-19,-8],[-24,-5],[-2,-1],[-4,-3],[-2,-1]],[[1063,1556],[-4,0],[-12,5]],[[1047,1561],[-11,-1]],[[1098,1553],[-2,0],[-3,2],[-2,1]],[[1091,1556],[-28,0]],[[1393,1525],[-3,0],[-2,3],[-3,2],[-4,1],[-16,2],[-4,2],[-2,2],[-2,3],[-2,4],[-4,1]],[[1351,1545],[-3,-2],[-13,-10],[-3,-2],[-8,-1],[-7,-4],[-6,-1],[-2,-1],[0,-2],[0,-4],[0,-2],[-5,-1],[-7,-1],[-6,-1],[-2,-4]],[[1529,1474],[-5,1],[-21,7],[-6,3],[-5,4],[-5,6],[-5,4],[-6,3],[-10,1],[-15,5],[-28,16],[-17,3]],[[1406,1527],[-13,-2]],[[1289,1509],[-2,2]],[[1287,1511],[-20,-10],[-5,-1]],[[1606,1503],[-8,3]],[[1598,1506],[-35,-16],[-8,-1],[-6,-1],[-5,-3],[-10,-10],[-5,-1]],[[321,1637],[-30,-6],[-75,-15],[-74,-14],[-74,-15],[-68,-14]],[[754,1678],[-3,0],[-6,3],[-3,2],[-2,3],[-3,2],[-9,1],[-7,4],[-11,2],[-16,5],[-6,2]],[[688,1702],[-7,-1],[-15,-5],[-3,-1]],[[663,1695],[-4,2],[-19,1],[-7,1]],[[633,1699],[-7,-1],[-10,-2],[-16,-3],[-16,-3],[-15,-3],[-16,-4],[-15,-3],[-16,-3],[-15,-3],[-16,-4],[-16,-3],[-15,-3],[-16,-3],[-15,-3],[-16,-4],[-15,-3],[-16,-3],[-16,-3],[-11,-2],[-6,-1],[-13,-2],[-15,-3]],[[836,1683],[-3,1],[-3,2],[-2,2],[-2,1],[-31,4]],[[795,1693],[-16,0],[-4,-1],[-2,-2],[-2,-3],[-4,-2],[-6,-5],[-3,-2],[-4,0]],[[888,1667],[-5,7],[-10,5],[-25,5]],[[848,1684],[-12,-1]],[[913,1657],[-3,0],[-6,4],[-4,6],[-1,1],[-4,3]],[[895,1671],[-7,-4]],[[955,1615],[-1,3],[-2,2],[-2,3],[-4,0],[0,2],[-4,11],[-1,1],[-6,6],[-1,1],[-5,0],[-2,1],[-2,1],[-2,3],[0,3],[2,6],[-1,2]],[[924,1660],[-4,-1],[-7,-2]],[[1005,1579],[-2,4],[-5,5],[-4,3],[-5,1],[-7,0],[-2,1],[-5,7],[-2,1],[-4,2],[-2,2],[0,2],[0,5],[-1,2],[-5,6]],[[961,1620],[-3,0],[-3,-5]],[[2877,2261],[0,26],[-1,46],[-1,36],[0,31]],[[3236,2204],[-1,1],[-3,2],[-1,4],[-1,3],[-4,3],[-7,4],[-5,5],[-7,13],[-5,7],[-6,4],[-7,2],[-37,9],[-16,2]],[[3136,2263],[-9,-6],[-3,-6]],[[3091,2237],[-6,1],[-5,4],[-6,6],[-15,11],[-16,3]],[[3043,2262],[-39,0],[-60,-1],[-26,0],[-41,0]],[[3124,2251],[-3,1],[-2,2],[-4,1]],[[3115,2255],[-5,-3],[-7,-8],[-4,-4],[-8,-3]],[[3464,2092],[-38,6],[-6,3],[-3,6],[-2,14],[-3,7],[-4,4],[-15,8],[-7,6],[-22,24],[-10,8],[-9,5],[-61,4],[-14,7],[-6,4],[-7,1],[-8,0],[-7,1],[-1,1],[1,2],[0,1],[-2,1]],[[3240,2205],[-1,0],[-3,-1]],[[3725,1992],[-2,1],[-10,7],[-3,15],[-1,9],[-1,5],[-5,4],[-43,18],[-58,23],[-37,15],[-29,5]],[[3536,2094],[-72,-2]],[[3819,1343],[7,11],[11,8],[2,4],[-3,8],[-7,7],[-17,14],[-5,8],[-2,6],[1,3],[2,3],[3,5],[3,8],[0,3],[-1,12],[-13,39],[-1,9],[2,8],[1,3],[-5,5],[-1,4],[2,3],[3,2],[3,2],[2,5],[-1,7],[-4,10],[-1,8],[1,7],[2,8],[4,7],[6,2],[10,7],[1,14],[-1,16],[1,15],[6,14],[2,7],[-2,8],[-5,7],[-13,6],[-7,5],[-1,3],[-4,13],[0,4],[2,3],[3,2],[3,3],[14,28],[5,8],[2,2],[2,6],[0,6],[-3,4],[-8,4],[-3,3],[-4,7],[-1,9],[0,4],[-1,14],[-5,23],[-9,22],[-15,27],[-21,37],[0,3],[26,25],[5,8],[7,12],[10,40],[2,11]],[[3811,2002],[-4,-1],[-6,-2],[-11,-7],[-6,-2]],[[3784,1990],[-11,1],[-23,5],[-11,1]],[[3739,1997],[-6,-1],[-5,-2],[-3,-2]],[[3818,1343],[1,0]],[[3772,1200],[9,1],[6,5],[4,8],[3,10],[1,13],[-3,10],[-11,22],[-5,13],[-1,8],[1,6],[4,6],[7,2],[7,2],[6,4],[7,4],[8,4],[7,5],[2,7],[-1,4],[-5,6],[0,3]],[[3757,1201],[15,-1]],[[3722,1110],[-5,0],[-4,1],[-3,3],[0,5],[0,5],[0,4],[-3,9],[0,5],[4,3],[5,2],[3,3],[-4,3],[-2,6],[-3,20],[1,4],[35,16],[11,2]],[[3748,938],[-7,1],[-4,4],[-1,8],[3,16],[-1,11],[1,3],[13,16],[6,8],[3,7],[1,6],[0,10],[11,47],[-3,13],[-3,4],[-3,2],[-3,3],[-2,5],[-1,4],[-1,3],[-2,2],[-4,1],[-6,1]],[[3745,1113],[-23,-3]],[[3776,857],[-8,1],[-7,1],[-4,4],[-1,9],[1,4],[2,3],[2,4],[-1,4],[-1,4],[0,4],[3,27],[0,7],[-3,9],[-5,1]],[[3754,939],[-6,-1]],[[3826,727],[-1,3],[-3,9],[2,28],[7,23],[0,15],[3,9],[1,7],[-4,5],[-8,3],[-8,5],[-6,6],[-3,7],[3,14],[0,8],[-7,4]],[[3802,873],[-7,-2],[-10,-12],[-9,-2]],[[3806,728],[20,-1]],[[3679,524],[15,3],[9,10],[12,23],[12,22],[23,29],[17,19],[2,5],[2,6],[3,11],[0,3],[-3,5],[0,3],[1,4],[5,9],[1,6],[3,18],[3,4],[6,1],[6,1],[3,6],[2,12],[5,4]],[[3661,527],[18,-3]],[[3595,297],[-2,0],[-3,4],[-5,3],[-2,4],[28,35],[18,23],[9,17],[2,15],[-5,39],[-5,41],[0,16],[4,16],[12,15],[15,2]],[[3622,239],[-1,2],[0,2],[-27,44],[1,2],[1,2],[1,2],[0,3],[-1,1]],[[3596,297],[-1,0]],[[3608,248],[14,-9]],[[3379,0],[7,8],[19,21],[19,20],[19,21],[19,21],[20,21],[19,20],[19,21],[19,21],[19,20],[19,21],[18,19],[13,14]],[[1005,1579],[-24,4],[-15,0]],[[966,1583],[-12,-12],[-12,-5],[-11,0]],[[904,1569],[-3,1],[-2,4],[-4,2],[2,6]],[[897,1582],[-4,-1],[-1,-2],[-2,-3],[-2,-2],[-3,-2],[-27,-8],[-7,-1],[-6,-1],[-9,-8],[-7,-1],[-2,-1],[-3,-6],[-3,-1],[-3,-1],[-3,-1],[-3,-2],[-2,-1],[-10,-13],[-12,-8],[-6,-4],[-18,-23],[-1,0],[-1,-2],[-6,-7],[-1,-2],[-3,-1],[-17,-1],[-5,-2]],[[931,1566],[-3,8]],[[928,1574],[-11,-7],[-4,0]],[[913,1567],[-3,4]],[[910,1571],[-6,-2]],[[730,1477],[-12,12],[-1,6],[-2,2],[-2,1],[-3,3],[-6,12],[-4,4],[-8,1],[-13,1]],[[679,1519],[-5,-2],[-6,-6],[-11,-18],[-3,-3]],[[335,1425],[-4,0],[-3,1],[-2,2],[0,1],[0,7],[0,2],[-2,4],[-11,13],[-4,9],[-4,6],[-1,2],[-1,3],[1,9],[-2,1],[-2,0],[-3,1],[-1,3],[0,5],[-1,3],[-2,1],[-4,3],[-14,0]],[[275,1501],[-25,-2],[-32,-3],[-43,-3],[-32,-6],[-30,-6],[-31,-6],[-31,-6],[-30,-6],[-21,-4]],[[654,1490],[-3,1],[-7,3],[-3,2],[-8,1]],[[633,1497],[-7,-1],[-13,-7],[-18,-21],[-12,-9],[-13,-2],[-3,-2],[-11,-10],[-2,-2],[-11,-5],[-4,-3],[-2,-2],[-1,-3]],[[536,1430],[-2,2],[-2,1],[-2,0]],[[530,1433],[-2,0],[-12,-9],[-2,-13],[-5,-6],[-11,-7],[-5,-4],[-6,-10],[-4,-4],[-6,-2],[-34,-37],[-6,-3],[-7,-2],[-9,-10],[-2,-2],[-2,-1],[-13,-4],[-6,-1]],[[398,1318],[-5,4],[-3,16],[-6,17],[-3,5],[5,8],[-3,8],[-12,13],[3,6],[-2,3],[-4,3],[-2,4],[-1,5],[-4,2],[-5,0],[-5,3],[-2,3],[-5,6],[-6,5]],[[338,1429],[-3,-4]],[[3897,3017],[-27,-9],[-31,-11],[-46,-16],[-63,-22],[-61,-21],[-55,-20],[-39,-13],[-33,-12],[-30,-5],[-14,-4],[-27,-13],[-37,-13],[-47,-16],[-53,-17],[-25,-14],[-33,-18],[-32,-12],[-38,-9],[-46,-12],[-38,-9],[-7,0],[-51,-12],[-36,-9],[-51,-19],[-31,-11],[-39,-15],[-33,-17],[-27,-14],[-32,-3],[-6,-2],[0,-3],[2,-11],[0,-17],[2,-17],[13,-47],[10,-18],[11,-8],[6,-2],[4,-5],[4,-7],[3,-7],[1,-8],[1,-24],[1,-5],[6,-7],[1,-4],[-1,-4],[-7,-13],[-2,-8],[0,-6],[11,-11],[2,-3],[4,-11],[-1,-1],[-5,-2]],[[4064,2791],[-6,2],[-5,4],[-3,5],[-2,7],[-5,14],[-3,5],[-4,3],[-10,5],[-4,3],[-3,5],[-2,5],[-3,4],[-4,5],[-16,7],[-5,4],[-6,9],[-19,38],[-6,9],[-5,10],[-1,2],[-3,2],[-3,1],[-5,4],[-3,3],[-9,16],[-2,7],[2,18],[-4,11],[-8,7],[-20,11]],[[4096,2828],[-11,8]],[[4085,2836],[-7,-2],[-6,-9],[-3,-11],[0,-13],[-1,-7],[-4,-3]],[[1971,668],[-11,0],[-15,3],[-5,1],[-4,3],[-2,2],[-1,2],[-1,1],[-2,1],[-8,5],[-6,4],[-27,26],[-6,5],[-7,4],[-3,2],[-12,14],[-8,11],[-2,2],[-2,2],[-2,3],[-1,1],[-1,2],[-1,7],[0,5],[-1,2],[0,2],[-1,2],[-2,2],[-4,3],[-3,3],[-1,1],[-2,3],[-3,2],[-5,1],[-9,1],[-8,2],[-6,3],[-12,8],[-7,4],[-7,2],[-20,2]],[[1753,817],[-3,0],[-2,0],[-3,-2],[-5,-5],[-3,0],[-3,-1]],[[1712,810],[-4,1],[-3,1],[-2,1],[-2,1],[-2,0],[-2,0],[-9,2]],[[1688,816],[-51,-6]],[[1637,810],[-8,1],[-6,1]],[[1623,812],[-7,0],[-71,-17],[-6,-3],[-12,-6],[-6,-4]],[[1734,809],[-6,1],[-7,1]],[[1721,811],[-5,0],[-4,-1]],[[2003,693],[-1,0],[-2,1],[-13,20],[-2,2]],[[1985,716],[-1,-1],[-2,-3],[-5,-15],[-2,-12],[-1,-11],[-1,-4],[-2,-2]],[[2123,611],[-1,2],[-4,7],[-2,6],[-1,4],[-1,2],[-5,6],[-4,4],[0,1],[-1,2],[-1,2],[-1,1],[-2,1],[-2,1],[-1,1],[-2,2],[0,1],[-1,3],[-1,1],[-7,6],[-8,9],[-1,1],[0,5],[-1,2],[-1,1],[-2,3],[-1,2],[0,2],[-1,2],[-1,2],[-1,1],[-2,1],[-5,2],[-2,1],[-1,2],[-1,1],[-2,4],[-1,2],[-1,0],[-1,1]],[[2053,708],[-1,-1],[-13,-5],[-3,-1],[-16,0],[-3,-1],[-14,-7]],[[2184,652],[-9,-4],[-49,-36],[-3,-1]],[[3088,1606],[-4,-12],[-10,-11],[-4,-4],[-4,-1],[-4,-1],[-1,-2],[-1,-2],[-1,-5],[0,-3],[1,-2],[1,-2],[1,-2],[0,-4],[-2,-5],[-1,-4],[1,-2],[2,-1],[8,-5],[2,-2],[1,-3],[1,-3],[0,-2],[-2,-2],[-11,-4],[-10,-2]],[[3122,3122],[-1,-1],[-6,-6],[2,-6],[-4,-3],[-10,-2],[-5,-2],[-9,-7],[-5,-1],[-3,-3],[0,-6],[-1,-7],[-8,-2],[0,-2],[-6,-9],[-6,-5],[-3,-3],[-1,-5],[-4,-2],[-3,-1],[-283,-1],[0,-1],[1,-1],[2,-1],[4,-1],[8,-1],[2,-1],[2,-1],[2,-4],[9,-30],[2,-3],[2,-1],[9,-4],[17,-5],[4,-2],[2,-1],[4,-4],[2,-1],[1,-1],[2,-1],[1,-1],[2,-4],[2,-3],[0,-2],[1,-2],[0,-4],[0,-3],[0,-3],[-2,-5],[-2,-4],[-4,-6],[-2,-3],[-4,-4],[-10,-5],[-3,-2],[-5,-5],[-3,-2],[-2,-2],[-1,-2],[-2,-4],[-1,-3],[-3,-3],[-11,-9],[-14,-19],[-3,-3],[-2,-2],[-2,0]],[[2771,2879],[-2,0],[-4,1]],[[2765,2880],[-2,0],[-2,-1],[-1,-3],[-2,-3],[-1,-5],[-1,-4],[-2,-2],[-2,-1],[-2,-1],[-3,-2],[-4,-4],[-1,-3],[-1,-4],[-1,-8],[-2,-7],[-1,-1],[-2,-2],[-1,-4],[-3,-14],[-2,-20],[2,-4],[7,-7],[10,-10],[1,-3]],[[2658,3724],[1,1],[1,1],[2,2],[1,2],[1,3],[-2,3],[1,5],[1,6],[0,4],[-3,5],[-7,8],[-3,5],[-1,7],[1,17],[-2,12],[-1,7],[2,6],[4,4],[10,1],[2,1],[154,26],[6,2],[5,5],[63,82],[0,3],[-1,1],[-1,2],[-1,2],[0,2],[0,5],[3,8],[1,2],[0,4],[0,2],[0,1],[2,2]],[[1748,2359],[-4,5],[-4,1],[0,5],[-19,83],[-9,5],[-85,5],[-4,1],[2,2],[9,8],[0,2],[-4,3],[-48,29],[-15,3],[-21,3],[-518,14]],[[1890,2387],[-2,3],[-2,3],[-2,3],[-1,2],[-2,1],[-5,5],[-1,1],[0,2],[1,2],[1,1],[2,1],[1,1],[1,1],[0,2],[-2,1],[0,2],[0,2],[0,8],[0,2],[-2,1],[-5,3],[-2,1],[0,2],[0,2],[-1,2],[-1,2],[-2,1],[-18,7],[-2,0],[0,1],[-1,1],[1,4],[-1,2],[-2,1]],[[1843,2460],[-6,-1],[-2,-1],[-2,-2],[-1,-2],[0,-3],[-1,-1],[-5,-3],[-1,-1],[0,-2],[0,-3],[-1,-2],[-1,-1],[-1,-2],[-1,-1],[-2,-1],[-3,-3],[-1,-1],[-2,-1],[-1,-1],[-2,0],[-2,-1],[-1,-2],[0,-2],[-1,-2],[-2,0]],[[1804,2421],[-2,0],[-6,3],[-6,2]],[[1790,2426],[-2,0],[-2,-2],[-1,-3],[-30,-56],[-1,-3],[-6,-3]],[[1914,2395],[-1,-1],[-3,-4],[-1,0]],[[1909,2390],[-3,0],[-4,2],[-2,0]],[[1900,2392],[-4,0],[-2,-1],[-4,-4]],[[1054,2590],[3,0],[3,2],[1,2],[0,2],[0,11],[0,4],[1,2],[6,6],[5,8],[2,4],[1,3],[1,17],[-1,2],[0,2],[-11,20],[-1,3],[0,3],[0,8],[1,4],[1,2],[3,4],[2,4],[1,3],[1,5],[0,2],[1,2],[1,2],[2,1],[1,1],[4,2],[2,1],[1,2],[0,2],[0,5],[1,12],[-2,7],[-1,6],[1,4],[1,2],[1,4],[2,1],[1,2],[3,9],[2,5],[7,10],[2,3],[1,1],[2,1],[1,1],[3,1]],[[1048,2591],[2,0],[2,-1],[2,0]],[[1028,2528],[1,26],[-2,14],[0,4],[1,2],[1,1],[11,10],[3,3],[1,2],[2,0],[2,1]],[[2809,2649],[-1,0],[0,46],[-2,11],[-2,1],[-4,4],[-2,5],[-4,4],[-3,3],[-6,2],[-2,2],[-2,2],[-14,19],[-1,2],[-2,1],[-8,3],[-3,3],[-1,2],[-1,5],[-2,3]],[[3263,3242],[6,-1],[7,-2],[7,0]],[[3701,1978],[7,1],[6,3],[10,9],[1,1]],[[3618,1991],[50,-6],[3,-1],[6,-3],[3,-1],[21,-2]],[[3568,1972],[5,1],[9,3],[18,11],[9,3],[9,1]],[[3553,1973],[15,-1]],[[3508,1957],[8,0],[9,2],[8,3],[7,4],[6,5],[3,1],[4,1]],[[3496,1961],[3,-1],[6,-2],[3,-1]],[[3269,1667],[2,3],[2,3],[4,8],[4,6],[2,3],[33,17],[6,7],[1,3],[6,9],[31,31],[6,8],[4,9],[-1,10],[-1,6],[-1,8],[1,6],[3,6],[4,3],[9,6],[4,3],[2,3],[3,6],[3,2],[2,2],[7,4],[5,5],[5,7],[9,13],[1,4],[2,13],[3,7],[3,6],[5,6],[5,4],[12,6],[3,3],[2,4],[4,18],[3,6],[3,6],[4,4],[10,6],[6,3],[6,1]],[[3150,1703],[57,-6],[3,0],[0,-3],[0,-2],[-13,-32],[0,-4],[0,-4],[1,-4],[2,-4],[3,-3]],[[3127,1627],[7,32],[0,3],[-1,3],[-2,1],[-3,1],[-2,5],[1,2],[7,9],[6,12],[5,5],[5,3]],[[3262,1669],[2,0],[2,-1],[3,-1]],[[3231,1642],[4,2],[4,3],[19,19],[4,3]],[[3218,1648],[13,-6]],[[3203,1641],[3,1],[8,4],[4,2]],[[2863,1173],[19,-5],[7,-3],[5,-6],[10,-6],[15,-7],[7,-2],[6,-2],[7,-7],[3,-1],[2,-1],[4,0],[5,-1],[10,0],[8,-1],[3,-2],[3,-1],[2,-1],[3,-1],[-1,-2],[-4,-6],[0,-2],[0,-2],[1,-4],[7,-12],[9,-12],[2,-3],[1,-3],[1,-3],[0,-2],[0,-2],[-2,0],[-1,-1],[-2,-1],[-2,-5],[0,-1],[0,-2],[1,-2],[0,-1],[0,-1],[0,-1],[0,-2],[0,-2],[2,-1],[7,-6],[5,-6],[8,-6],[5,-7],[5,-4],[1,0],[9,-3],[10,-5]],[[3116,1601],[2,0],[3,2],[2,2],[3,6],[1,16]],[[3088,1606],[6,-5],[2,-1],[2,-1],[3,0]],[[3109,1601],[7,0]],[[3101,1599],[5,1],[3,1]],[[3127,1627],[7,0],[2,-1],[1,-1],[0,-3],[1,-3],[2,-2],[3,-2],[6,-1]],[[3161,1615],[4,-1],[1,-2],[2,-4],[0,-4],[0,-5],[-2,-6],[0,-3],[1,-2],[1,-3],[1,-2],[1,-2],[0,-5],[0,-2],[1,-4],[1,-3],[3,-7],[1,-2],[0,-1],[-1,-2],[-2,-3],[-3,-3],[-2,-3],[-1,-2],[0,-4],[-2,-3],[-3,-2],[-13,-6],[-1,-1],[0,-1],[1,-4],[1,-2],[0,-5],[0,-1],[-1,-7],[-4,-4],[-5,-2],[-1,-3],[-1,-2],[2,-2],[3,-2],[0,-1],[-1,-2],[-6,-4],[-2,-1],[-5,-1],[-2,0],[-2,-1],[-3,-2],[-1,-1],[-2,0],[-1,0]],[[3149,1614],[12,1]],[[3118,1480],[-2,0],[-4,2],[-8,7],[-18,12],[-14,6],[-4,1],[-8,3],[-9,9]],[[2527,785],[-4,1],[-4,8],[-1,4],[-1,3],[0,5],[4,19],[0,3],[-2,3],[-2,7],[-3,4],[-10,10],[-3,4],[-2,9],[-1,3],[-1,2],[-2,3],[-8,7],[-2,2],[-1,3],[-9,16],[-3,10],[-5,6],[-19,17]],[[2593,763],[-3,0],[-2,1],[-16,13],[-24,12],[-3,0],[-6,1]],[[2539,790],[-6,-3],[-6,-2]],[[2627,748],[-3,1],[-2,4],[-2,12],[-2,4],[-2,0]],[[2616,769],[-1,0],[-4,-2],[-2,0],[-16,-4]],[[2664,739],[-1,1],[-3,10],[-2,4],[-5,0]],[[2653,754],[-26,-6]],[[2616,542],[3,2],[3,2],[6,8],[3,5],[3,7],[1,4],[0,3],[-1,13],[0,3],[1,2],[21,52],[1,3],[2,18],[1,2],[24,50],[1,4],[0,4],[-12,19],[-1,0]],[[2672,743],[-1,0],[-6,-3],[-1,-1]],[[2598,553],[3,-1],[12,-9],[3,-1]],[[2594,484],[-2,1],[-2,5],[-1,3],[-2,3],[-4,3],[-1,2],[0,2],[1,3],[0,2],[1,2],[3,1],[2,2],[3,2],[-1,5],[4,8],[1,4],[0,20],[2,1]],[[2589,342],[-15,1],[-13,3],[-10,1],[-2,0],[-7,2],[-4,2],[-1,1],[0,2],[5,4],[51,35],[2,2],[1,3],[19,89],[0,3],[-2,0]],[[2613,490],[-16,-5],[-3,-1]],[[2632,350],[-6,0]],[[2626,350],[-11,-2],[-26,-6]],[[2221,649],[-5,3],[-4,1],[-3,1],[-1,0]],[[2208,654],[-2,0],[-12,-10],[-2,0]],[[2192,644],[-1,1],[-7,7]],[[3082,1061],[12,-1],[2,-1],[1,0],[0,-2],[0,-3],[-1,-3],[-1,-2],[0,-1],[0,-1],[0,-1],[-1,-1],[0,-1],[-2,-5],[0,-4],[1,-5],[0,-2],[1,-2],[16,-2]],[[3044,1016],[15,15],[1,8],[-1,3],[-1,3],[1,2],[2,0],[5,1],[3,2],[3,2],[4,6],[2,2],[4,1]],[[3110,1024],[57,1]],[[3167,1025],[5,-6],[59,-36],[13,-11],[5,-3],[4,-2],[2,0]],[[3263,970],[4,0],[2,-1],[2,-1],[4,-4],[2,-1],[2,-1],[7,-1],[3,-2],[10,-7],[3,-2],[2,-3],[1,-2],[2,-3],[3,-1],[2,-1]],[[3255,967],[2,1],[2,1],[2,1],[2,0]],[[3318,942],[3,0],[1,-1],[3,-2],[3,-2],[5,-2],[4,-1],[9,-2],[2,-1],[2,-1],[0,-1],[0,-4],[1,-3],[2,-4],[11,-11],[1,-1],[1,-2],[1,-2],[0,-2],[1,-3],[1,-2],[3,-3],[3,-3],[17,-9],[4,-3],[3,-2],[0,-2],[3,-7],[1,-2],[1,-2],[8,-10],[12,-10],[2,-3],[2,-3],[4,-11],[1,-2],[1,-3],[3,-4],[2,-1],[2,-2],[9,-4],[3,-2],[1,-2],[3,-5],[3,-4],[6,-5],[8,-6],[4,-2],[4,-1],[3,0],[4,-2],[3,-1],[2,-2],[3,-4],[3,-1],[2,-1]],[[3312,940],[2,1],[4,1]],[[3517,773],[3,-1],[4,-1],[5,-2],[24,-18],[19,-9],[6,-5],[1,-3],[3,-4],[-1,-37],[-18,-108],[-2,-53],[-3,-18],[-5,-8],[-4,-22],[-7,-10],[-4,-6],[-1,-6],[-1,-8],[-7,-20],[-13,-24],[-2,-8],[-1,-4],[-5,-9],[0,-3],[3,-4],[2,-4],[3,-18],[1,-3],[2,-3],[8,-7],[2,-4],[-5,-5],[26,-13],[2,-2],[2,-9],[13,-31],[0,-5],[6,-8],[35,-22]],[[3502,771],[8,1],[7,1]],[[3044,1016],[-51,-41],[-3,-3],[-1,-2],[2,-1],[2,-1],[11,-3],[3,-1],[2,-2],[0,-3],[-2,-3],[-4,-3],[-4,-2],[-3,-2],[0,-3],[-1,-31],[-4,-20],[1,-6],[2,-6],[0,-4],[0,-3],[-6,-31],[-1,-3],[1,-10],[-1,-2],[-4,-12],[-1,-7],[0,-5],[1,-4],[0,-2],[1,-1],[1,-1],[1,-1],[1,-1],[-1,-2],[-3,-2],[-2,-1],[-11,-2],[-5,0]],[[2965,789],[-4,0],[-11,3],[-10,5],[-3,1],[-3,1]],[[2934,799],[-31,-1],[-4,-2],[-4,-8],[0,-2],[0,-1],[1,-1],[0,-2],[1,-1],[1,-1],[0,-1],[0,-2],[0,-1],[1,-1],[0,-1],[1,-1],[0,-1],[0,-1],[-1,-2],[-2,-2],[-9,-6],[-1,-2],[-1,-4],[0,-2],[1,-1],[0,-1],[0,-2],[-1,-2],[0,-1],[0,-1],[2,0],[2,-1],[-2,-1],[-2,-1],[-2,0],[-57,-3],[-2,0],[-2,-1],[-27,-13],[-3,-2],[-2,-2],[3,-2],[1,-3],[0,-5],[-2,-14],[-5,-8],[-2,-16],[0,-10],[1,-1]],[[2796,667],[6,-1],[6,-2],[5,-3],[2,-2],[2,-5],[1,-6],[0,-8],[0,-7],[-3,-10],[0,-4],[1,-2],[2,-1],[1,-1],[5,-9],[1,-1],[3,-2],[2,-1],[2,-1],[4,-1],[7,-1],[2,0],[1,-1],[1,-2],[0,-2],[0,-2],[0,-2],[0,-2],[1,-2],[3,-3],[1,-1],[2,-1],[2,-1],[4,0],[2,-1],[1,-1],[1,-2],[1,-2],[1,-2],[1,-1],[1,-2],[2,-1],[8,-5],[1,-2],[1,-1],[1,-2],[0,-5],[1,-2],[0,-2],[1,0],[14,-17],[1,-2],[0,-3],[-2,-4],[0,-3],[0,-3],[1,-4],[1,-2],[0,-2],[-1,-7],[0,-2],[1,-3],[1,-2],[1,-1],[1,-2],[1,-1],[3,-2],[1,-2],[1,-2],[1,-4],[1,-2],[0,-2],[0,-2],[0,-2],[-5,-9],[-1,-2],[-1,-2],[0,-2],[2,-8],[0,-2],[0,-3],[-4,-7],[-2,-9],[-1,-3],[-2,-2],[-4,-5],[-1,-2],[0,-2],[2,-27],[-1,-6],[-3,-5],[-36,-32],[-4,-1]],[[2787,662],[3,1],[6,4]],[[2801,345],[-9,1],[-4,1],[-2,1],[-1,1],[-3,2],[-2,2],[-1,2],[-2,1],[-9,2],[-4,3],[-3,3],[-6,8],[-2,1],[-2,1],[-6,2],[-1,1],[-3,2],[-2,2],[-3,2],[-3,2],[-2,2],[-2,2],[-2,1],[-3,1],[-4,0]],[[2720,391],[-4,0],[-4,-1],[-4,-3],[-43,-35],[-8,-4],[-4,-1],[-3,0]],[[2848,344],[-2,1],[-2,1],[-3,0],[-7,4],[-2,0]],[[2832,350],[-1,0],[-4,-3],[-1,-1],[-2,0],[-1,-1],[-1,-1],[-2,-1],[-3,0]],[[2650,347],[-18,3]],[[2817,343],[-10,2]],[[2807,345],[-6,0]],[[2093,1725],[-1,-14],[-1,-3],[-3,-8],[0,-5],[-1,-2],[-1,-1],[-1,-1],[0,-1],[-2,-6],[-3,-6],[0,-3],[0,-2],[0,-4],[1,-4],[0,-4],[0,-2],[0,-2],[-2,-3],[-1,-2],[-2,-9],[-2,-6],[0,-3],[2,-8],[0,-3],[0,-3],[-10,-11],[-6,-5],[-3,-2],[-1,-1],[-1,-1]],[[2055,1600],[-2,1],[-1,1],[-2,1],[-1,1],[-2,0]],[[2047,1604],[-2,-1],[-1,-1],[-10,-8],[-1,-2],[-1,-5],[-1,-4],[-1,-2],[0,-3],[5,-18],[0,-3],[-1,-3],[-5,-9],[-2,-7],[-1,-3],[0,-2],[1,-4],[0,-2],[-1,-2],[-2,-1],[-2,-1],[-1,-1],[-1,-1],[-1,-2],[-1,-5],[0,-2],[-1,-2],[-1,-1],[-2,-1],[-6,-5],[-1,-1],[-1,-2],[0,-1],[0,-1],[0,-3],[2,-6],[1,-5],[1,-2],[1,-2],[4,-2],[2,-1]],[[2023,1479],[2,-1],[1,-1],[1,-3],[0,-8],[0,-4],[2,-5],[1,-2],[0,-2],[-1,-2],[-1,-2],[-1,-1],[-3,-3],[-2,-1],[-1,-1],[-1,-2],[1,-3],[1,-2],[4,-3],[3,-1],[8,-1],[2,-1],[2,-2],[0,-3],[0,-1],[-2,-1],[-20,-2],[-10,-2],[-2,-1],[-1,-2],[-2,-112],[1,-5],[1,-5],[4,-4],[3,-2],[3,-1],[2,0],[5,0]],[[2017,1477],[2,1],[2,0],[2,1]],[[2045,1289],[2,0],[5,-3],[5,-1],[15,-1],[5,-1],[6,-1],[37,-2],[4,-1],[3,0]],[[2023,1287],[19,2],[3,0]],[[2249,1289],[3,0],[2,-1],[4,-2],[6,-2],[5,0]],[[2225,1285],[2,0],[6,0],[4,1],[8,3],[2,0],[2,0]],[[2406,1285],[3,0],[3,-2],[4,-9],[2,-4],[0,-4],[-1,-4],[-4,-2],[-64,-27],[-19,-5],[-4,-2],[-2,-3],[-1,-7],[22,-96],[1,-5],[2,-4],[3,-3],[3,-1],[4,-2],[3,-2],[2,-5],[8,-13],[2,-3],[0,-3],[-1,-3],[0,-3],[-1,-1],[-3,-3],[-1,-2],[-1,-2],[0,-2],[-1,-11],[1,-1],[0,-1],[3,-5],[5,-3],[32,-35],[3,-4],[1,-2],[0,-5],[-1,-3],[-8,-12],[1,-3],[46,-44]],[[2269,1284],[137,1]],[[2202,1285],[23,0]],[[2170,1279],[15,1],[3,1],[12,3],[2,1]],[[2139,1281],[19,0],[7,-1],[5,-1]],[[2127,1279],[4,0],[8,2]],[[2632,350],[5,-18],[3,-6],[16,-19],[2,-1],[3,-1],[9,-5],[1,-2],[0,-1],[0,-2],[0,-4],[4,-8],[2,-3],[2,-2],[3,0],[2,-1],[3,-2],[2,-2],[1,-3],[0,-11],[1,-2],[1,-1],[1,0],[2,-1],[3,-1],[1,-1],[1,-2],[0,-2],[1,-3],[1,-1],[1,-1],[2,-1],[2,-1],[0,-1],[6,-13],[2,-3],[1,-3],[2,-1],[4,-1],[3,-3],[1,-1],[2,-1],[4,-3],[2,-1],[4,-4],[6,-10],[1,-2],[4,-2],[7,-6],[3,-5],[2,-3],[2,-1],[2,-1],[3,-2],[2,-2],[1,-3],[2,-1],[1,-1]],[[2777,169],[2,0],[4,-2],[3,0],[5,0],[3,-2],[1,-2],[2,-5],[1,-2],[2,0],[3,-1],[7,-4],[3,-2],[3,0],[2,-2],[1,-1],[1,-2],[0,-2],[-1,-5],[1,-2],[2,-1],[2,-1],[29,-3],[5,-1],[2,-1]],[[2774,168],[1,1],[1,0],[1,0]],[[2867,130],[9,-4],[9,-6],[8,-3],[3,-3],[11,-4],[7,-1],[3,-1],[1,-1],[0,-2],[-2,-3],[-1,-1],[0,-2],[4,-4],[7,-8],[2,-3],[3,-5],[2,0],[2,0]],[[2860,128],[2,1],[1,1],[2,0],[2,0]],[[2937,79],[2,-1],[4,-2],[9,-4],[2,0]],[[2935,79],[2,0]],[[2959,74],[3,0],[1,-1],[0,-2],[0,-2],[0,-3],[1,-1],[5,-3],[1,-1],[1,-3],[0,-2],[0,-2],[2,-8],[1,-3],[2,-1],[9,-6],[2,-2],[2,-2],[1,-2],[16,-21],[1,-1],[0,-4],[0,-3],[0,-1]],[[2954,72],[2,1],[3,1]],[[3618,1621],[3,1],[3,2],[6,6],[4,6],[2,2],[13,6],[7,1],[2,0],[3,2],[4,1],[2,1],[3,1],[4,3],[15,16],[1,2],[1,3],[1,2],[0,7],[1,2],[1,2],[2,2],[12,4],[4,1],[5,3],[2,1],[3,2],[1,4],[1,2],[0,5],[1,2],[10,21],[2,2],[1,2],[25,18],[8,8],[4,3],[27,10],[7,2],[3,1]],[[3610,1623],[2,0],[2,0],[4,-2]],[[3453,1070],[3,6],[-2,10],[0,4],[1,8],[0,7],[1,16],[0,2],[0,2],[-2,3],[-2,3],[-3,5],[-1,2],[-1,1],[0,2],[-1,2],[-1,2],[-4,2],[-1,1],[-1,1],[-1,2],[-1,2],[-7,33],[-8,20],[-1,2],[-1,1],[-2,1],[-2,0],[-2,1],[-7,0],[-2,1],[-2,1],[-1,1],[-1,1],[-1,2],[-2,4],[-1,8],[-1,2],[-1,2],[-3,4],[-4,5],[-4,4],[-1,1],[-1,2],[-3,7],[-4,4],[0,2],[-1,4],[-1,2],[-1,2],[0,2],[2,6],[2,3],[-1,3],[-3,7],[-1,6],[-4,7],[-2,3],[3,2],[1,1],[1,1],[2,2],[1,3],[1,3],[0,4],[1,4],[1,3],[3,2],[3,1],[17,4],[3,1],[3,2],[0,4],[-1,7],[1,4],[6,11],[-1,4],[0,1],[-1,4],[-1,7],[0,12],[1,2],[0,3],[14,18],[3,5],[1,4],[-1,6],[0,3],[1,2],[85,87],[1,2],[1,2],[-1,6],[0,5],[3,14],[0,2],[1,2],[2,2],[2,1],[10,4],[8,4],[8,3],[2,2],[2,2],[2,3],[4,7],[2,3],[2,2],[3,3],[8,4],[3,3],[15,15],[6,4],[7,3],[4,1],[3,0]],[[3315,1111],[8,-2],[12,-6],[7,0]],[[3290,1060],[2,1],[7,7],[2,3],[3,5],[5,11],[3,8],[2,5],[1,2],[-1,2],[0,1],[-3,3],[-1,2],[2,1],[3,0]],[[3366,1106],[7,-2],[5,-3],[13,-14],[6,-4],[13,-4],[15,-7],[7,-1]],[[3342,1103],[18,3],[6,0]],[[3256,1085],[3,-2],[2,-1],[7,-7],[1,-1],[1,-2],[0,-2],[0,-2],[1,-2],[2,-1],[3,-1],[4,0],[2,0],[2,-1],[2,-1],[1,-1],[3,-1]],[[3245,1078],[3,1],[2,1],[3,3],[1,1],[2,1]],[[3228,1083],[4,0],[4,-1],[3,-2],[4,-2],[2,0]],[[3167,1025],[36,4],[4,2],[0,19],[4,9],[0,15],[1,2],[1,2],[1,2],[4,2],[10,1]],[[3445,1073],[3,-1],[3,-1],[2,-1]],[[3432,1071],[4,0],[6,2],[3,0]],[[2184,715],[-4,1],[-21,11],[-2,1]],[[2157,728],[-2,0],[-1,-1],[0,-2],[0,-4],[3,-14],[0,-4],[0,-2],[-2,-3],[0,-3],[-1,-3],[0,-4],[-1,-2],[-2,-2],[-5,-3],[-1,-1],[0,-2],[2,-2],[4,-1],[3,-1]],[[2231,703],[-3,0],[-3,1],[-3,3],[-2,1],[-2,1],[-2,0],[-2,0],[-1,1],[0,1],[-1,1],[0,1],[1,1],[0,5],[0,2],[1,3],[0,1],[-1,0]],[[2213,725],[-2,0],[-7,-2],[-8,-1],[-3,-1],[-4,-4],[-3,-1],[-2,-1]],[[2221,649],[24,6],[6,2],[3,2],[2,2],[1,3],[1,2],[0,2],[-1,1],[-1,2],[-7,5],[-2,1],[-1,1],[0,2],[0,2],[1,1],[2,4],[1,3],[1,3],[0,1],[-2,2],[-2,0],[-3,1],[-1,2],[0,1],[-1,5],[-1,1]],[[2241,706],[-3,0],[-5,-2],[-2,-1]],[[2180,675],[2,-1],[3,-4],[3,-4],[1,-4],[-5,-10]],[[2170,673],[2,0],[5,2],[3,0]],[[2159,675],[3,-1],[6,-1],[2,0]],[[2154,674],[5,1]],[[2448,934],[-3,-6],[-2,-2],[-4,-3],[-2,0]],[[2437,923],[-3,0],[-3,2],[-2,1],[-3,2],[-4,2],[-12,2],[-2,0]],[[2408,932],[-3,0],[-2,-1],[-2,-1],[-1,-3],[0,-4],[1,-3],[2,-2],[5,-5],[3,-3],[1,-3],[1,-3],[-1,-3],[-1,-6],[-2,-3],[-3,-4],[-16,-14],[-1,-2],[-1,-2],[0,-3],[2,-2],[5,-5],[3,-2],[2,-2],[3,-2],[1,-2],[0,-5],[0,-15],[-1,-3],[-2,-6],[-2,-7],[0,-2],[-1,-3],[-3,-3],[-8,-6],[-5,-2],[-4,-1]],[[2378,799],[-22,4]],[[2356,803],[-2,0],[-1,-1],[0,-3],[0,-2],[2,-4],[5,-20],[3,-8],[0,-1],[0,-2],[-1,-2],[-6,-10],[-4,-3],[-26,-15],[-16,-6],[-1,-1],[-1,-2],[-2,-3],[0,-2],[1,-2],[2,-8],[0,-2],[-1,-2],[-36,-43],[-7,-6],[-6,-5],[-2,-6],[-10,-10],[-5,0]],[[2242,634],[-2,0],[-19,15]],[[2390,3255],[-1,-3],[0,-1],[-2,-2],[-14,-14],[-23,-30],[-2,-1],[-1,-1],[-14,-6],[-13,-7],[-3,-3],[-8,-8],[-6,-9],[-3,-3],[-52,-41],[-1,-1],[-1,-2],[-1,-2],[3,-42],[-2,-2],[-4,-1],[-29,-1],[-14,-3],[-2,-1],[-5,-2],[-3,-2],[-2,-1],[-2,0],[-24,-2]],[[1985,3052],[-3,1],[-4,2],[-7,6],[-5,7],[-4,7],[-24,62],[-5,5],[-7,2],[-31,3],[-4,1],[-4,2],[-6,4],[-2,1],[-3,1],[-6,0]],[[1870,3156],[-5,-5],[0,-5],[1,-5],[-1,-5],[-1,-1]],[[1864,3135],[-3,0]],[[1861,3135],[-3,0],[-3,-2],[-1,-3],[1,-3],[1,-2],[-1,-2],[-3,-6],[-12,-15],[0,-3],[0,-3],[0,-3],[-2,-2]],[[1790,3053],[-4,3],[-1,1],[-2,2],[-1,2],[-2,8],[-1,7],[-1,2],[-1,3],[-1,7],[0,2],[-1,1],[-1,2],[-5,5],[-1,1],[-1,2],[-3,9],[0,2],[0,3],[1,2],[0,2],[0,2],[-32,4],[-148,5]],[[1838,3091],[-2,1],[-3,2],[-2,2],[-2,7],[-4,1]],[[1825,3104],[-5,-1],[-3,-3],[-2,-4],[1,-6],[2,-8],[-3,-9],[-9,-10],[-10,-7],[-6,-3]],[[2105,3066],[-5,1],[-22,6],[-3,0],[-3,0]],[[2072,3073],[-5,0],[-2,-2],[-2,-1],[-1,-2],[-2,-1],[-3,-2],[-2,-1],[-1,0],[-13,-2],[-20,0],[-5,-1],[-3,-1],[-1,-1],[-3,0],[-10,0],[-3,-1],[-3,-1],[-4,-3],[-2,-1],[-2,-1]],[[2161,3064],[-7,1],[-17,5],[-3,0]],[[2134,3070],[-12,0],[-7,-2],[-7,-2],[-3,0]],[[1585,3130],[3,-1],[3,-2],[2,-3],[2,-3],[2,-3],[2,-4],[1,-6],[1,-1],[1,-2],[2,-3],[2,-1],[3,-2],[11,-6],[1,-1],[1,-2],[0,-2],[-1,-2],[0,-2],[-4,-8],[-8,-11],[-3,-8],[-1,-11],[0,-9],[0,-15],[0,-2],[0,-1],[-2,-2],[-4,-2],[-7,-2],[-3,-2],[-2,-3],[0,-2],[2,-1],[14,-8],[4,-4],[18,-23],[3,-5],[3,-7],[1,-4],[0,-5],[0,-2],[-1,-2],[0,-2],[-1,-2],[-7,-10],[-2,-3],[0,-2],[0,-2],[1,-2],[0,-42],[-2,-6],[-2,-2],[-6,-6],[-45,-2],[-5,-2],[-13,-8],[-7,-2]],[[1542,2852],[-30,2]],[[1512,2854],[-4,-1],[-1,-2],[-1,-1],[-3,-1]],[[1503,2849],[-4,0],[-7,4],[-3,1]],[[1489,2854],[-7,-1],[-5,-2],[-5,-4],[-3,-4],[-15,-23],[-24,-18],[-15,-18],[-4,-8],[-2,-20],[-13,-5],[-3,-1]],[[1393,2750],[-4,1],[-3,3],[-2,3],[-3,3],[-16,8],[-9,2],[-5,1],[-5,2],[-2,4],[-3,5],[-1,2],[-2,2],[-202,25]],[[1136,2811],[-6,0],[-7,-1],[-4,-4],[-9,-6]],[[2775,2201],[-1,1],[-2,1],[-1,1],[-2,3],[-1,2],[0,2],[0,2],[0,2],[0,1],[-3,2],[-1,2],[-1,1],[-1,2],[0,4],[0,3],[1,10],[0,3],[-1,2],[-8,4],[-2,0],[-2,3],[-1,1],[-1,2],[-1,2],[0,2],[0,2],[1,1],[1,1],[95,83],[3,5],[1,5],[-2,9],[-2,4],[-5,5],[-1,5],[0,15],[1,5]],[[2759,2110],[-2,0],[-4,1],[-2,1],[-2,1],[-1,2],[1,4],[6,15],[2,3],[2,2],[5,3],[1,2],[1,2],[1,3],[0,5],[-2,13],[0,2],[0,3],[2,3],[4,8],[2,1],[9,7],[1,1],[1,2],[0,4],[-1,2],[-2,2],[-2,0]],[[2779,2202],[-1,-1],[-3,0]],[[2856,2132],[-2,0],[-2,1],[-1,1],[-6,7],[-1,3],[-4,10],[-1,3],[-2,2],[-2,1],[-5,0]],[[2830,2160],[-2,0],[-13,-1],[-4,-2],[-1,-1],[-2,-2],[0,-1],[-1,-3],[1,-2],[1,-7],[0,-3],[0,-2],[-1,-2],[-1,-1],[-1,-1],[-2,-1],[-1,-1],[-9,-2],[-1,-1],[-2,-1],[-2,-3],[-1,-2],[-2,0]],[[2938,1859],[-3,0],[-2,0],[-1,1],[-1,2],[-2,8],[0,10],[0,1],[1,1],[2,1],[1,1],[1,1],[1,2],[-2,2],[-1,1],[-6,5],[-1,1],[-1,2],[-1,3],[-2,33],[0,3],[1,2],[1,2],[0,2],[6,7],[2,4],[0,2],[0,3],[-1,3],[-2,5],[-2,3],[-2,1],[-2,1],[-2,1],[-1,1],[-2,1],[1,2],[1,2],[0,3],[0,2],[-5,13],[-1,1],[-1,0],[-3,2],[-12,7],[-2,1],[-4,0],[-2,1],[-3,2],[-2,1],[-5,3],[-2,1],[-1,2],[-3,5],[-4,6],[0,2],[0,4],[2,16],[3,9],[1,1],[2,4],[2,3],[2,12],[1,10],[0,2],[2,3],[5,8],[0,2],[0,4],[0,4],[-3,8],[-2,5],[-2,5],[-3,2],[-2,0]],[[2877,2133],[-21,-1]],[[2786,2121],[-2,0],[-8,2]],[[2776,2123],[-2,0],[-2,-1],[-4,-1],[-1,-1],[-1,-1],[-1,-2],[-2,-4],[-1,-2],[-1,-1],[-2,0]],[[2977,1856],[-1,0],[-2,1],[0,4],[-1,2],[-3,2]],[[2970,1865],[-1,-1],[-2,0],[-5,-3],[-5,-4],[-1,0]],[[2962,1667],[-1,0],[-2,2],[-1,9],[5,32],[0,5],[-1,6],[-5,22],[1,2],[1,2],[5,8],[14,27],[0,1],[0,2],[-1,2],[-2,2],[-1,1],[-1,2],[1,2],[2,1],[1,2],[6,5],[4,5],[5,7],[1,1],[1,4],[4,32],[0,2],[0,2],[-2,2],[-2,1],[-4,1],[-3,1],[-2,0]],[[2985,1860],[-1,-1],[-2,0],[-3,-3],[-2,0]],[[2956,1857],[-2,0],[-2,1],[-1,1],[-2,0],[-2,1]],[[2947,1860],[-9,-1]],[[3063,1618],[-3,0],[-2,1],[-5,3],[-17,10],[-20,8],[-4,2],[-1,3],[0,3],[1,3],[3,7],[1,7],[-1,1],[-2,1]],[[3013,1667],[-51,0]],[[3088,1606],[-10,17],[-7,3]],[[3071,1626],[-2,-2],[-2,-2],[-2,-2],[-2,-2]],[[3030,1529],[1,0],[3,-1],[10,-4],[5,-3],[2,-1]],[[2968,1226],[1,1],[1,1],[16,28],[16,16],[2,3],[2,3],[1,5],[2,52],[1,3],[1,4],[2,3],[2,2],[4,2],[1,3],[1,2],[-1,2],[-2,3],[-2,3],[-9,12],[-16,13],[-2,3],[-1,2],[-1,2],[0,2],[-1,12],[0,4],[2,2],[1,1],[4,2],[1,1],[3,2],[3,4],[7,10],[2,5],[0,3],[0,2],[-1,2],[0,2],[4,12],[1,4],[2,2],[5,3],[1,2],[0,2],[-5,13],[-1,2],[0,3],[1,5],[1,2],[1,2],[1,0],[5,3],[2,1],[2,2],[1,1],[0,2],[0,3],[-2,3],[0,3],[-1,3],[1,5],[2,3],[1,0]],[[2896,1242],[2,-1],[1,-2],[1,-2],[4,-11],[1,-2],[1,-1],[0,-1],[6,-14],[2,0]],[[2863,1173],[6,6],[3,6],[3,17],[1,3],[15,32],[3,4],[2,1]],[[2954,1232],[2,0],[8,-2],[1,-1],[1,-1],[2,-2]],[[2948,1217],[4,0],[1,2],[1,1],[-1,1],[-1,6],[0,2],[0,3],[2,0]],[[2929,1224],[2,0],[7,-3],[2,-1],[3,-2],[2,-1],[3,0]],[[2914,1208],[3,0],[7,3],[3,2],[2,1],[-1,2],[-1,4],[0,2],[0,2],[2,0]],[[2336,1831],[2,0],[2,-2],[2,-2],[1,-4],[2,-6],[1,-1],[3,-5],[1,-2],[2,-5],[2,-3],[2,-3],[2,-1],[1,-1],[26,-9],[10,-8],[2,-1],[6,-1],[2,-1],[2,-1],[2,-1],[1,-2],[1,-1],[2,-1],[23,-8],[2,0],[4,-1]],[[2316,1821],[3,0],[2,0],[2,1],[11,9],[2,0]],[[2306,1822],[10,-1]],[[2254,1796],[3,0],[2,1],[2,2],[3,5],[2,2],[3,3],[10,6],[3,1],[17,6],[5,0],[2,0]],[[2247,1797],[7,-1]],[[2185,1731],[2,0],[2,0],[2,4],[2,2],[7,4],[2,2],[14,18],[3,8],[4,7],[15,17],[3,3],[3,1],[3,0]],[[2452,1764],[3,-1],[2,-1],[2,-1],[4,-3],[1,-1],[1,-2],[3,-5],[1,-3],[2,-9],[0,-2],[1,-1],[1,-2],[24,-28],[3,-2],[3,-1],[7,-2],[2,-2],[1,-2],[-3,-6],[0,-2],[-1,-1],[-2,-1],[-6,-4],[-3,-3],[-2,-3],[-1,-2],[-2,-3],[-2,-4],[-3,-2],[-1,-1],[-2,-2],[-1,-1],[-1,-1],[-1,-2],[0,-3],[1,-2],[5,-4],[1,-2],[0,-2],[1,-9],[-1,-9],[0,-10],[-1,-2],[-1,-2],[0,-2],[-1,-2],[-2,-1],[-6,-5],[-1,-1],[0,-2],[0,-2],[4,-4],[2,-2],[0,-3],[0,-2],[-2,-3],[-3,-3],[-4,-4],[-1,-1],[-1,-2],[-1,-2],[-2,-10],[-1,-2],[-1,-2],[-4,-5],[-1,-2],[-3,-6],[-4,-7],[-9,-24],[-3,-3],[-1,-2],[0,-2],[-1,-4],[0,-1],[-1,-1],[0,-1],[-1,-1],[0,-2],[1,-3],[1,-2],[1,-4],[0,-2],[0,-5],[0,-2],[1,-2],[1,-1],[0,-2],[1,-4],[1,-2],[2,-3],[5,-5],[2,-2],[0,-2],[0,-2],[0,-2],[1,-2],[1,-2],[10,-9],[1,-1],[1,-2],[1,-4],[2,-2],[9,-11],[3,-2],[8,-4],[2,-1],[2,-2],[3,-5],[3,-4],[3,-2],[6,-1],[4,-1],[50,-33],[14,-6],[2,-2],[1,-2],[0,-2],[0,-2],[-1,-3],[-4,-10],[0,-2],[0,-2],[0,-4],[-1,-2],[0,-1],[-1,-1],[-3,-2],[-1,-2],[-1,-2],[0,-2],[2,-18],[-1,-7],[0,-2],[0,-3],[1,-2],[1,-3],[3,-5],[2,-2],[3,-1],[3,-1],[5,-2],[14,-8],[3,-2]],[[2442,1761],[3,1],[4,1],[3,1]],[[2177,1736],[1,0],[2,-2],[2,-1],[3,-2]],[[2170,1733],[3,1],[2,0],[2,2]],[[2157,1736],[5,-1],[8,-2]],[[2104,1723],[5,1],[5,2],[37,9],[6,1]],[[2093,1725],[11,-2]],[[2614,1263],[9,-2],[2,0],[3,-1],[3,-1],[5,-2],[2,-3],[3,-3],[2,-1],[2,0]],[[2606,1261],[2,1],[4,1],[2,0]],[[2649,1251],[3,0],[8,-4],[3,-1],[2,0],[1,-2],[1,-2],[2,-3],[2,-1],[2,-1],[5,-1],[12,-6],[2,0],[14,-3]],[[2645,1250],[2,1],[2,0]],[[2723,1233],[3,0],[12,-6],[7,0],[2,-1],[9,-5],[2,0],[5,-1],[4,-1]],[[2706,1227],[2,0],[2,1],[3,3],[1,1],[6,1],[3,0]],[[2777,1220],[2,-1],[13,-3],[4,-2],[5,-2],[3,-3],[8,-8],[3,-2],[2,-1],[6,-2],[8,-4],[8,-2],[5,-1],[3,-2],[3,-2],[13,-12]],[[2767,1219],[10,1]],[[2038,1828],[-2,1],[-2,2],[-1,2],[-2,5],[-1,2],[-2,2],[-5,2],[-3,2],[-1,1],[-1,2],[0,1],[1,7],[5,13],[0,4],[-3,2],[-5,3],[-2,2],[0,1],[1,2],[1,3],[2,14],[-6,28],[-1,3]],[[2093,1725],[-5,17],[-1,2],[-3,2],[-2,1],[-3,2],[-5,2],[-3,5],[-7,5],[-2,2],[-1,3],[0,4],[-2,7],[0,6],[0,3],[-1,3],[-3,3],[-1,2],[0,2],[2,4],[0,4],[-1,3],[-2,3],[-1,2],[-1,3],[1,2],[1,5],[0,2],[-1,2],[-2,1],[-4,1],[-2,0]],[[2044,1828],[-1,0],[-2,0],[-3,0]],[[1824,3669],[5,7],[6,2],[1,1],[16,11],[1,1]],[[1794,3691],[3,-3],[6,-4],[5,-4],[0,-2],[-1,-2],[2,-3],[10,-1],[4,-2],[1,-1]],[[1739,3652],[2,1],[3,1],[4,6],[2,2],[5,2],[1,2],[6,2],[5,7],[2,1],[2,1],[3,1],[2,1],[3,2],[5,5],[3,2],[2,1],[5,2]],[[1659,3657],[1,0],[9,-2],[10,-1]],[[1657,3403],[-3,1],[-2,1],[-1,4],[-1,1],[-2,1],[-1,1],[-1,1],[-2,4],[-1,1],[-1,2],[-2,1],[-1,0],[-1,0],[-7,1],[-2,0],[-1,1],[-3,3],[-2,1],[-10,4],[-1,1],[-2,1],[-2,3],[-2,1],[-3,2],[-4,2],[-2,1],[-1,2],[-1,2],[-1,2],[1,2],[3,5],[4,8],[1,3],[1,3],[1,2],[-1,2],[-1,2],[-7,8],[-2,1],[-1,1],[-2,2],[-1,3],[-1,3],[-1,1],[-2,1],[-2,2],[-1,2],[-1,3],[0,3],[2,4],[2,3],[3,16],[1,3],[1,2],[3,5],[3,3],[3,2],[2,0],[2,1],[7,0],[1,1],[4,1],[3,2],[3,3],[3,4],[4,7],[13,17],[3,2],[3,1],[15,3],[2,1],[1,1],[0,1],[0,2],[-3,3],[-3,9],[-1,2],[-1,3],[0,6],[1,3],[1,2],[1,3],[1,3],[0,12],[0,2],[-4,13],[-1,3],[0,2],[2,1]],[[1693,3656],[46,-4]],[[1679,3654],[3,1],[7,1],[4,0]],[[1585,3130],[-13,9],[-5,4],[-2,3],[-1,3],[-2,5],[0,4],[1,25],[2,6],[2,6],[2,4],[1,1],[7,6],[2,2],[0,1],[2,3],[4,19],[1,3],[1,2],[2,1],[3,1],[7,3],[4,2],[1,1],[2,3],[4,10],[1,1],[2,1],[8,4],[2,3],[2,3],[4,6],[1,4],[1,4],[0,2],[0,7],[-1,3],[-4,9],[-1,3],[-1,3],[0,6],[1,4],[1,3],[1,1],[1,2],[1,1],[3,3],[20,13],[3,2],[3,4],[3,4],[1,3],[1,3],[10,44],[-2,1],[-2,0],[-2,1],[-2,0]],[[1665,3405],[-8,-2]],[[3198,3206],[1,1],[4,4],[15,12],[8,4],[17,4],[8,6]],[[3192,3208],[3,0],[3,-2]],[[3171,3181],[5,0],[3,10],[7,8],[2,6],[1,2],[3,1]],[[3161,3183],[10,-2]],[[3122,3122],[9,9],[2,6],[6,27],[5,8],[10,4],[4,6],[3,1]],[[2844,3685],[-2,1],[-2,1],[-5,3],[-2,0],[-9,2],[-4,2],[-5,3],[-6,2],[-1,1],[-2,1],[-2,1],[-2,0],[-4,1],[-8,3],[-2,2],[-4,7],[-2,2],[-2,1],[-4,1],[-3,1],[-4,2],[-5,3],[-3,2],[-2,3],[-1,3],[-6,8],[-1,2],[-1,2],[0,2],[-1,7],[0,2],[-1,2],[-6,12],[-7,8],[-3,4],[-2,1]],[[2730,3783],[-2,0],[-8,-1],[-8,-2],[-30,-12],[-1,-2],[-2,-1],[-1,-1],[-1,-2],[0,-2],[-2,-20],[0,-2],[-1,-2],[-2,-4],[-3,-4],[-1,-2],[-2,-1],[-1,-1],[-7,-1]],[[2868,3679],[-2,0],[-4,1],[-5,3],[-4,1],[-2,1]],[[2851,3685],[-7,0]],[[2896,3666],[-2,0],[-3,2],[-2,2],[-2,2],[-2,4],[-2,2],[-2,1],[-2,1],[-5,0]],[[2874,3680],[-6,-1]],[[2962,3545],[-4,2],[-5,2],[-10,9],[-4,4],[-3,3],[0,2],[0,2],[0,2],[3,8],[1,3],[-1,3],[-1,5],[-2,3],[-2,2],[-3,2],[-10,4],[-4,3],[-2,2],[-2,2],[-1,2],[0,2],[-1,4],[0,5],[1,2],[0,2],[4,7],[1,5],[0,17],[0,3],[0,3],[-2,4],[-2,2],[-2,1],[-5,1]],[[2906,3668],[-4,-1],[-3,-1],[-3,0]],[[3047,3428],[-5,0],[-2,0],[-3,2],[-4,2],[-7,4],[-22,16],[-3,2],[-1,3],[2,9],[0,3],[-1,4],[-5,19],[-1,2],[1,2],[4,10],[1,1],[4,6],[3,3],[1,2],[0,2],[1,3],[0,3],[-2,3],[-1,2],[-2,2],[-7,3],[-4,3],[-2,2],[-3,4],[-5,12],[-1,1],[-2,1]],[[2981,3559],[-2,0],[-2,-1],[-4,-6],[-3,-2],[-3,-2],[-5,-3]],[[3096,3422],[-3,0],[-10,3],[-2,1],[-5,0],[-13,4],[-2,0],[-3,0]],[[3058,3430],[-11,-2]],[[3251,3237],[0,19],[0,13],[-1,6],[0,4],[-5,6],[-8,10],[-7,14],[-2,7],[-6,83],[-1,6],[-2,5],[-2,2],[-2,1],[-3,2],[-12,7],[-2,0],[-5,1]],[[3193,3423],[-16,0],[-2,0],[-8,-3],[-3,-2],[-1,-1],[-1,-1],[-1,-2],[0,-7],[-1,-4],[-4,-9],[-1,-1],[-1,-2],[-1,-1],[-1,-1],[-2,-1],[-2,0],[-2,-1],[-5,0]],[[3141,3387],[-2,0],[-5,4],[-27,27],[-5,4],[-4,0]],[[3098,3422],[-2,0]],[[2670,4013],[13,83]],[[2897,3973],[0,1],[0,1],[0,3],[-1,2],[0,1],[-2,2],[-113,84],[-6,3],[-6,2],[-45,0]],[[2724,4072],[-5,-1],[-3,-1],[-3,-3],[-1,-8],[-4,-6],[-13,-9],[-2,-3],[-2,-4],[-2,-4],[0,-4],[-2,-3],[-11,-4],[-3,-6],[-3,-3]],[[77,3026],[-5,1],[-3,2],[-4,2],[-4,3],[-8,2],[-5,1],[-2,3],[0,3],[-2,3],[-2,3],[-2,1],[-6,2],[-3,3],[-7,0],[-4,0],[-3,1],[-2,1],[-9,6],[-1,1],[-3,7],[-1,2],[-1,0]],[[186,3025],[-2,0],[-2,0],[-1,1],[-1,1],[0,2],[-1,4],[-3,5],[-2,4],[-5,5],[-32,21],[-9,4],[-3,0]],[[125,3072],[-2,0],[-1,-1],[-9,-9],[-2,-1],[-2,-1],[-17,-1],[-2,-1],[-1,-1],[-1,-2],[-4,-22],[-1,-2],[-2,-4],[-4,-1]],[[685,3038],[-14,5],[-3,1],[-2,2],[0,5],[0,2],[-1,3],[-2,2],[-3,4],[-3,1]],[[657,3063],[-1,0],[0,-1],[-1,-2],[-1,-2],[-1,-1],[-1,-1],[0,-2],[1,-2],[2,-1],[1,-2],[0,-2],[-1,-1],[-2,-1]],[[653,3045],[-3,0],[-4,1],[-3,2],[-7,5],[-5,5],[-2,0]],[[629,3058],[-2,0],[-5,-3],[-3,-1],[-2,-1],[-2,-3],[-2,0],[-2,-1]],[[748,3029],[-1,1],[-1,2],[-3,4],[-5,3],[-2,2],[-2,2],[-2,2],[-8,9]],[[724,3054],[-1,-1],[-1,-1],[-1,-2],[-2,-1],[-3,-1],[-1,-1],[1,-1],[1,-2],[1,-1],[0,-1],[0,-2],[-2,0],[-2,0]],[[611,3049],[-4,1]],[[607,3050],[-2,0],[-2,-1],[-1,-1],[-2,-4],[-1,-1],[-2,-1],[-3,-2],[-2,-1],[-2,0]],[[590,3039],[-3,0],[-3,1],[-2,3],[-2,0]],[[580,3043],[-2,0],[-1,-1],[-1,-2],[-1,-2],[-1,-2],[-1,-3],[-1,-2],[-2,-1]],[[698,3036],[-2,1],[-1,2],[-1,2],[-1,2]],[[693,3043],[-1,0],[-1,-1],[-1,-2],[-1,-1],[-2,-1],[-2,0]],[[714,3040],[-5,0],[-3,1]],[[706,3041],[-2,-1],[-1,-1],[-2,-1],[-1,-2],[-2,0]],[[494,3026],[-6,1],[-3,5],[1,7]],[[486,3039],[-4,-2],[-9,-8],[-4,-2],[-4,-1],[-4,-1],[-12,-7]],[[917,2939],[-4,1],[-6,2],[-41,21],[-3,1],[-8,1],[-9,2],[-7,1],[-18,7],[-3,2],[-2,1],[-2,4],[-1,2],[-2,3],[0,2],[-1,2],[0,2],[1,10],[-1,2],[-2,7],[-1,4],[-1,2],[-1,1],[-2,2],[-4,4],[-9,11],[-2,2],[-1,0]],[[787,3038],[-1,0],[-3,-2],[-2,-1],[-2,0],[-1,-1],[-2,-1],[0,-2],[-1,-3],[0,-4],[-1,-1],[0,-1],[-2,0]],[[768,3036],[-4,1],[-2,0]],[[762,3037],[-1,-1],[0,-1],[1,-4],[0,-2],[-1,-1],[-1,-1]],[[772,3022],[-1,0],[-1,1],[0,1],[0,2],[1,7],[-1,2],[-1,1]],[[769,3036],[-1,0]],[[570,3030],[-2,1],[-3,4],[-1,0]],[[564,3035],[-2,0],[-3,-5],[-4,-4],[-3,-2],[-2,-1],[-3,-1],[-4,0]],[[249,2963],[1,8],[8,13],[5,6],[1,1],[1,2],[-2,1],[-2,1],[-28,3],[-4,1],[-1,1],[-3,2],[-3,3],[0,2],[-1,2],[-1,4],[-1,4],[0,5],[0,1],[-1,2],[-1,2],[-5,3],[-3,1],[-3,0]],[[206,3031],[-2,0],[-2,-1],[-9,-4],[-7,-1]],[[760,3027],[-2,0],[-4,2],[-2,0]],[[752,3029],[-4,0]],[[543,3022],[-4,0],[-4,2],[-5,2],[-3,1]],[[527,3027],[-2,0],[-3,-2],[-2,-1],[-2,0],[-1,-1],[-2,-1],[-1,0]],[[514,3022],[-3,0],[-3,1],[-7,3]],[[501,3026],[-7,0]],[[449,3018],[-6,2],[-6,4],[-6,2]],[[431,3026],[-6,-2],[-13,-7],[-14,-3],[-13,-11],[-7,-3],[-37,-10],[-10,-6],[-11,-10],[-4,-3],[-5,-1]],[[311,2970],[-3,0],[-4,1],[-4,0]],[[300,2971],[-7,-1],[-9,-9],[-6,-3],[-15,0]],[[263,2958],[2,4],[0,2],[0,2],[-2,3]],[[263,2969],[-14,-6]],[[925,2780],[-3,1],[-2,1],[-3,1],[-3,2],[-3,2],[-8,9],[-4,6],[-1,2],[-1,4],[-1,2],[0,2],[2,12],[0,2],[-1,9],[0,3],[0,2],[1,2],[1,0],[0,1],[1,1],[3,1],[8,3],[9,4],[1,1],[3,3],[4,4],[1,2],[0,2],[1,17],[2,8],[0,1],[1,2],[0,1],[1,2],[2,3],[3,5],[2,4],[1,5],[0,2],[0,14],[0,3],[-2,3],[-4,5],[-3,2],[-2,1]],[[931,2942],[-14,-3]],[[1075,2793],[-4,0],[-2,1],[-2,1],[-1,1],[-2,1],[-4,2],[-6,2],[-24,2]],[[1030,2803],[-5,0],[-2,-1],[-7,-3],[-3,-2],[-16,-3],[-5,-2],[-4,-2],[-1,-1],[-8,-3],[-14,-3],[-3,0]],[[1110,2800],[-9,0]],[[1101,2800],[-5,-1],[-2,-2],[-8,-3],[-6,-1],[-5,0]],[[962,2783],[-17,1]],[[945,2784],[-4,0],[-3,-1],[-7,-2],[-3,0],[-3,-1]],[[1028,2528],[2,-5],[5,-7],[0,-1],[1,-2],[0,-3],[-1,-2],[-2,-4],[-3,-3],[-3,-3],[-1,-1],[0,-3],[-1,-3],[1,-5],[0,-4],[-1,-5],[-2,-3],[-5,-10],[-1,-2],[-1,0]],[[1016,2462],[-2,0],[-1,1],[-2,0]],[[1011,2463],[-2,0],[-7,-3],[-2,-1],[-1,-2],[0,-2],[0,-2],[1,-1],[0,-1],[6,-6],[2,-3],[1,-2],[-1,-3],[-2,-5],[-1,-2],[-2,-2],[-10,-8],[-1,-2],[0,-2],[0,-4],[1,-2],[2,-1],[8,-6],[3,-1],[2,-1],[1,-1],[1,-2],[1,-1],[1,-2],[0,-3],[0,-2],[-1,-2],[-1,-3],[-2,-1],[-5,-3],[-1,-2],[0,-3],[1,-4],[0,-2],[1,-2],[5,-8],[3,-3],[2,-2],[2,-2],[2,0],[2,-1],[3,0]],[[1042,2367],[2,-1],[1,0],[2,-1],[3,-3],[3,-3],[1,-1],[0,-2],[1,-2],[0,-5],[-6,-41],[-3,-10],[-3,-4],[-2,-2],[-2,-1],[-1,-2],[-1,-3],[0,-5],[1,-3],[1,-2],[2,-1],[0,-2],[-2,-3],[-2,-1],[-3,-3],[-1,-1],[-1,-3],[0,-4],[1,-5],[0,-2],[2,-4],[1,-1],[2,-1],[7,-6],[3,-3],[1,-1],[2,-1],[1,-1],[3,-1],[4,0],[3,-1],[2,0],[1,-1],[1,-2],[0,-2],[-2,-3],[-3,-3],[-1,-2],[-2,-1],[-1,-1],[-2,-1],[-1,-1],[-2,-1],[-1,-1],[-2,-1],[-1,-1],[-1,-2],[-2,-3],[-3,-3],[-2,-3],[-2,-3],[-4,-10],[-3,-6],[-2,-1],[-9,-22],[-2,-4],[-2,-3],[-5,-2],[-6,-2],[-2,-1],[-1,0],[-2,-2],[-1,-1],[-1,-1],[-5,-6],[-5,-3],[-2,-1],[-2,0],[-2,-1],[-2,0],[-2,-1],[-5,-5],[-2,-1],[-6,-4],[-3,-2],[-37,-50],[-1,-2],[-3,-2],[-2,-1],[-2,0],[-5,-1],[-2,-1],[-1,-1],[0,-2],[1,-5],[1,0],[0,-1],[1,-1],[10,-9],[13,-9],[1,-1],[2,-1],[0,-2],[1,-6],[1,-4],[5,-10],[2,-2],[2,-1],[39,-4],[4,-2],[2,-1],[4,-2],[3,-2],[1,-1],[0,-3],[0,-5],[-3,-18],[-1,-6],[1,-3],[0,-2],[2,-3],[11,-36],[-1,-4],[-2,-5],[-6,-11],[-3,-4],[-3,-3],[-19,-9],[-4,-1],[-3,-2],[-3,-2],[-1,-6],[1,-3],[0,-2],[1,-2],[1,-2],[0,-2],[-1,-4],[-2,-4],[-4,-7],[-3,-3],[-2,-2],[-10,-5],[-3,-3],[-1,-3],[-2,-4],[-1,-10],[0,-4],[1,-3],[2,-1],[1,-2],[1,-3],[0,-2],[0,-3],[-7,-12],[-4,-4],[-6,-11],[-1,-1],[-6,-5],[-3,-3],[-1,-2],[0,-4],[0,-21],[0,-3],[1,-4],[1,-2],[-1,-3],[-1,-3],[-2,-4],[-2,-2],[-3,-3],[-1,-1],[-2,-2],[-2,-2],[-1,-2],[-2,-8],[-4,-26]],[[1023,2352],[2,0],[2,1],[2,0],[1,2],[3,2],[3,5],[2,3],[2,1],[2,1]],[[2718,2775],[2,0],[2,0],[2,-1],[3,-4],[4,-2],[18,-1]],[[2703,2770],[3,1],[4,1],[3,2],[3,1],[2,0]],[[2698,2774],[1,-1],[1,-2],[3,-1]],[[2677,2755],[6,1],[3,1],[2,1],[1,2],[1,1],[1,2],[3,7],[2,3],[2,1]],[[2665,2757],[6,-1],[3,-1],[3,0]],[[2649,2748],[2,1],[2,1],[7,6],[2,1],[3,0]],[[2641,2749],[8,-1]],[[2565,2714],[11,1],[2,1],[3,2],[22,13],[3,2],[2,3],[2,1],[29,12],[2,0]],[[2562,2715],[3,-1]],[[2480,2650],[30,1],[24,5],[10,19],[4,16],[2,8],[1,5],[6,8],[3,2],[2,1]],[[2450,2658],[30,-8]],[[2210,2570],[31,1],[32,4],[29,10],[45,41],[20,9],[19,3],[64,20]],[[2150,2586],[60,-16]],[[2097,2508],[11,4],[10,18],[9,26],[12,24],[11,6]],[[1952,2543],[63,-10],[61,-21],[21,-4]],[[1914,2395],[15,33],[39,12],[7,5],[3,4],[1,2],[0,2],[0,4],[-1,6],[-5,18],[-10,18],[-5,5],[-5,2],[-20,3],[-8,2],[-5,3],[-2,6],[1,4],[3,4],[18,13],[3,1],[5,1],[4,0]],[[1930,2395],[8,-1],[7,-4],[-1,-4],[1,-2],[2,-3],[3,-2]],[[1914,2395],[16,0]],[[1977,2389],[15,-1],[13,-6],[5,-6],[3,-7],[4,-6],[7,-2],[8,-1],[35,-14],[7,-4],[11,-9],[3,-3]],[[1950,2379],[12,7],[15,3]],[[2145,2343],[7,-1],[4,-3],[7,-5],[5,-2],[13,-2],[6,-2],[6,-4],[16,-17],[6,-4],[7,-1]],[[2088,2330],[4,1],[11,8],[6,2],[36,2]],[[2237,2304],[7,-1],[5,-2],[25,-20],[3,-1],[2,-1]],[[2222,2302],[15,2]],[[2326,2289],[8,-1],[8,-6],[5,-4]],[[2319,2283],[7,6]],[[2311,2286],[4,-1],[4,-2]],[[2307,2280],[1,4],[3,2]],[[2303,2283],[4,-3]],[[2297,2278],[2,1],[1,3],[3,1]],[[2286,2280],[2,0],[6,-2],[3,0]],[[2279,2279],[7,1]],[[4074,2099],[6,1],[16,6]],[[4038,2103],[36,-4]],[[3827,1735],[10,4],[2,10],[0,3],[-1,2],[-1,3],[-1,3],[1,2],[3,5],[3,4],[14,27],[1,3],[0,3],[-3,9],[-1,4],[1,3],[2,4],[1,3],[0,8],[5,12],[4,7],[3,3],[4,4],[3,2],[1,1],[2,4],[2,1],[1,1],[2,0],[13,3],[3,0],[2,2],[3,3],[2,2],[0,2],[1,4],[2,9],[12,35],[1,2],[12,18],[2,4],[0,3],[0,2],[0,2],[2,7],[0,2],[-1,5],[1,4],[1,3],[1,2],[6,7],[5,3],[1,1],[4,2],[3,1],[0,3],[1,3],[1,2],[21,26],[2,4],[0,3],[0,2],[-2,3],[0,2],[1,6],[0,2],[-1,9],[3,2],[12,19],[8,7],[9,6],[10,4],[12,2]],[[3621,241],[16,-13],[20,-13],[6,-2]],[[3687,214],[7,-1],[14,-6],[41,-31],[6,-3],[6,-1],[7,-1]],[[3663,213],[24,1]],[[3789,174],[5,0],[5,-2],[7,-4],[5,-6],[3,-5],[1,-11],[3,-4]],[[3768,171],[21,3]],[[3902,174],[9,-2],[13,-5]],[[3848,132],[4,6],[2,7],[6,7],[7,7],[7,4],[22,9],[6,2]],[[3823,143],[9,-1],[2,-3],[7,-5],[7,-2]],[[3818,142],[5,1]],[[4096,1227],[-9,0],[-4,9],[0,5],[4,13],[2,4],[5,7],[2,2]],[[4064,765],[2,-1],[1,-1],[1,-2],[2,-7],[1,-1],[1,-1],[4,-2],[2,-1],[2,-2],[7,-8],[1,0],[1,-1],[1,0],[5,0],[1,0]],[[4048,758],[2,0],[2,1],[8,5],[2,1],[2,0]],[[4041,758],[7,0]],[[4096,484],[-3,2],[-91,94],[-2,5],[0,5],[0,4],[0,4],[0,2],[0,4],[1,5],[7,19],[0,2],[0,3],[-1,2],[-2,4],[-4,6],[-1,2],[-1,4],[-1,8],[-1,2],[0,2],[-1,2],[-3,2],[-10,3],[-1,1],[-1,2],[-9,32],[0,2],[1,3],[34,27],[2,3],[3,3],[2,1],[1,1],[2,1],[5,2],[3,1],[2,1],[4,4],[1,2],[2,0],[4,2],[3,0]],[[4096,206],[-3,-1]],[[4093,205],[-63,3]],[[4030,208],[-15,-1],[-13,-5],[-25,-19],[-7,-5],[-15,-3],[-14,-7],[-7,-2]],[[3934,166],[-9,0],[-1,1]],[[3924,167],[-2,-8],[-2,-4],[-2,-4],[-11,-13],[-5,-10],[-3,-2],[-2,-3],[-6,-5],[-7,-9],[-3,-5],[-1,-1],[-2,-3],[-1,-2],[0,-2],[-1,-3],[0,-2],[0,-2],[5,-20],[1,-5],[0,-3],[-2,-4],[-1,-4],[0,-4],[1,-3],[2,-3],[35,-43]],[[730,590],[233,19],[4,2],[2,3],[0,5],[3,88],[-1,4],[-2,3],[-60,25],[-1,1],[-1,1],[0,379],[3,0],[352,0]],[[603,664],[6,-3],[4,-4],[9,-10],[7,-3]],[[518,619],[4,0],[22,6],[1,2],[0,2],[-1,2],[1,2],[8,10],[3,2],[3,1],[5,1],[4,2],[6,6],[4,2],[14,2],[4,2],[4,2],[3,1]],[[639,647],[10,-19],[5,-6],[14,-11],[10,-15],[6,-7],[9,-3]],[[629,644],[5,3],[5,0]],[[504,626],[9,-5],[5,-2]],[[503,359],[-1,260],[2,7]],[[720,591],[6,0],[4,-1]],[[693,586],[7,1],[13,4],[7,0]],[[503,359],[-503,0]],[[776,0],[-273,359]],[[1736,551],[1,-26],[-7,-21],[-8,-33],[-5,-26],[0,-27],[5,-38],[15,-22],[13,-24],[16,-38],[13,-34],[7,-35],[13,-25],[18,-21],[29,-14]],[[1871,167],[31,-8]],[[1846,167],[25,0]],[[1951,162],[21,-11],[27,-2]],[[1902,159],[23,3],[26,0]],[[1345,527],[-18,4],[-7,1]],[[1320,532],[-2,-9],[10,-4],[19,-6],[19,-1]],[[1366,512],[2,14],[-9,3]],[[1359,529],[-8,-1],[-6,-1]],[[1835,277],[6,1],[1,3],[-1,2],[0,5],[0,4],[-1,3],[-4,2],[-2,1],[-1,5],[2,6],[4,3],[0,3],[-2,3],[-3,0]],[[1834,318],[-3,-2],[-8,-4],[-4,-1],[-3,-4],[-2,-3],[-5,-4],[-4,0],[0,-2],[1,-3],[-2,-2],[-3,-1],[-1,-4],[0,-5],[1,-3],[6,-1],[8,-1]],[[1817,283],[6,-1],[10,-5],[2,0]],[[1815,278],[2,5]],[[1956,0],[1,3],[-2,4],[-1,1]],[[1954,8],[-4,-1],[-2,-3],[0,-3],[-1,-1]],[[3595,3700],[21,0],[19,19],[6,23],[15,16],[22,0],[46,3],[82,25],[49,16],[15,35],[25,42],[0,18],[7,11],[14,6],[18,5]],[[3565,3707],[30,-7]],[[3011,4096],[-10,-13],[-8,-17],[-3,-9],[-2,-4],[-9,-7],[-2,-2],[-3,-5],[-2,-1]],[[2972,4038],[-9,2],[-4,0]],[[2959,4040],[-3,-2],[-3,-3],[-2,-4],[-3,-8],[-1,-3],[-2,-3],[-3,-2],[-5,0],[-7,-3],[-3,-7],[-2,-9],[-4,-8],[-9,-6],[-5,-5],[-10,-4]],[[3431,3430],[2,-1]],[[3417,3387],[3,1],[3,2],[4,1],[-2,8],[0,7],[1,8],[1,6],[0,2],[0,4],[0,2],[2,1],[2,1]],[[3412,3389],[5,-2]],[[3375,3362],[6,4],[8,4],[5,4],[3,5],[2,1],[8,1],[3,2],[1,2],[1,4]],[[3372,3368],[1,-2],[1,-2],[1,-2]],[[3283,3239],[6,2],[29,22],[9,12],[4,15],[3,15],[7,22],[2,3],[7,2],[3,2],[2,3],[1,3],[2,8],[6,5],[5,6],[1,9],[2,0]],[[3251,3237],[4,3],[8,2]],[[3433,3429],[2,1],[5,5],[1,2],[1,4],[4,0],[8,2],[7,3],[4,4],[1,7],[6,17],[3,6],[3,2],[3,1],[3,2],[1,8],[4,7],[0,5],[1,4],[2,13],[0,13],[1,3],[2,3],[1,3],[2,9],[3,5],[8,37],[0,17],[1,3],[4,5],[0,2],[1,6],[1,2],[3,2],[3,4],[3,4],[4,12],[5,5],[18,14],[1,4],[6,8],[3,8],[2,8],[1,8]],[[2705,4096],[1,-2],[1,-6],[6,-12],[1,-7],[-2,-10],[-4,-6],[-13,-9],[-2,-3],[-2,-4],[-2,-4],[0,-4],[-2,-3],[-11,-4],[-10,-18],[-4,-3],[-9,2],[-6,4],[-6,3],[-9,-3],[-2,-2],[-4,-4],[-2,-2],[-3,2],[-2,0],[-2,0],[-3,-2],[-9,4],[-18,5],[-8,4],[-7,6],[-4,7],[-2,9],[0,12],[19,45],[2,5],[118,0]],[[2585,4096],[-4,-9],[-8,-12],[-1,-5],[-2,-3],[-4,0],[-16,4],[-4,7],[-5,17],[1,1],[15,0],[0,-5],[-4,-11],[1,-6],[5,9],[4,9],[2,4],[20,0]],[[1336,556],[-24,-22],[-6,-13],[13,-11],[0,-10],[-4,-13],[-17,-43],[-6,-22],[7,2],[6,-1],[13,-7],[17,-6],[20,-10],[11,-14],[-7,-19],[-8,-5],[-8,-4],[-7,-5],[-3,-9],[1,-6],[4,-6],[2,-7],[-1,-7],[-3,-3],[-5,-2],[-8,-3],[-25,-18],[-8,-2],[-7,1],[-3,4],[-2,5],[-3,6],[-6,5],[-5,3],[-13,4],[-13,5],[-11,9],[-9,12],[-5,16],[0,14],[7,29],[0,13],[-7,12],[-9,6],[-2,6],[12,10],[10,5],[4,3],[3,5],[0,4],[-3,7],[-1,4],[7,27],[0,11],[-6,19],[-1,9],[4,11],[10,14],[12,13],[14,10],[5,6],[8,21],[3,4],[5,-2],[23,-17],[7,-2],[8,-1],[33,11],[12,0],[2,-10],[-3,-7],[-6,-5],[-19,-13],[-3,-4],[-2,-4],[-2,-9],[-2,-4]],[[1091,631],[25,19],[29,11],[-7,-17],[-30,-27],[-11,-15],[-2,-21],[13,-12],[17,-11],[10,-16],[-2,-10],[-6,-10],[-14,-17],[-5,-11],[-1,-9],[1,-9],[3,-11],[16,-39],[4,-21],[-7,-14],[-17,-3],[-14,9],[-12,13],[-14,9],[-14,1],[-15,-3],[-13,2],[-11,14],[-3,9],[-1,7],[-3,5],[-10,3],[-8,1],[-9,-2],[-8,-3],[-7,-4],[-7,-4],[-5,-6],[-15,-19],[-1,-3],[-1,-5],[1,-3],[4,-9],[0,-5],[-17,-12],[-9,-5],[-9,-1],[-8,7],[-2,9],[3,10],[4,10],[2,20],[-8,16],[-26,31],[-6,10],[-1,6],[3,5],[9,6],[9,4],[7,2],[7,1],[20,-3],[7,0],[6,3],[16,14],[8,5],[8,2],[10,0],[24,2],[19,11],[74,83]],[[839,249],[-15,-13],[-17,-5],[-12,6],[0,9],[6,6],[8,4],[7,2],[1,0],[4,-2],[2,0],[2,1],[3,3],[4,3],[2,3],[3,2],[6,-2],[-4,-17]],[[2357,2034],[6,-2],[4,-5],[-5,0],[-11,-3],[-4,-2],[-4,-3],[-2,-3],[1,-2],[7,0],[-4,-4],[-4,-5],[-2,-7],[0,-8],[-12,17],[-4,2],[-6,-2],[-5,-6],[-2,-5],[6,-3],[3,-6],[-2,-12],[-8,-9],[-14,4],[1,-7],[-2,-4],[-4,-3],[-3,-4],[-7,1],[-9,0],[-8,1],[-3,7],[-1,4],[-3,2],[-3,1],[-1,3],[1,4],[7,7],[2,4],[-8,0],[0,6],[1,7],[-5,5],[-9,-2],[-6,-13],[-8,1],[-3,-3],[-6,1],[-4,0],[3,-8],[-5,2],[-4,0],[-4,0],[-2,4],[-5,-3],[3,-5],[-2,-2],[-4,-3],[-2,0],[-7,0],[-6,-6],[-9,-15],[-3,-1],[-2,1],[-2,0],[-1,-3],[1,-3],[2,-2],[2,-2],[1,-1],[3,-2],[4,-18],[-6,4],[-3,13],[-5,3],[-5,1],[-7,1],[-7,3],[-2,4],[-1,3],[-2,4],[0,4],[2,2],[3,2],[2,4],[1,4],[-4,4],[-6,-2],[-4,-6],[-1,-7],[-6,2],[-4,-3],[-2,-5],[-1,-6],[-3,0],[-17,-4],[0,8],[-12,-1],[-22,-9],[-12,-2],[-6,-3],[-5,-10],[-3,-5],[-1,-5],[6,-4],[-7,-4],[-5,-4],[-3,-6],[-2,-9],[-2,-4],[-2,-2],[1,-1],[7,-1],[5,1],[8,4],[6,0],[-4,-4],[-6,-2],[-3,-3],[4,-6],[0,-1],[-1,-2],[2,0],[0,-3],[-7,-1],[-7,-3],[-4,-6],[-2,-8],[-3,2],[-7,9],[-2,-1],[-2,0],[-1,2],[0,3],[0,2],[-1,1],[-3,0],[-12,4],[-2,0],[0,-3],[0,-3],[1,0],[1,-1],[0,-2],[-1,-3],[-3,0],[-2,1],[-2,1],[-2,1],[-3,-1],[0,-3],[2,-4],[-6,-11],[-3,-3],[-6,-4],[-8,-3],[-15,-5],[3,-5],[5,-5],[-6,-2],[-3,3],[-3,4],[-3,3],[-5,-1],[-13,-10],[-18,-8],[-6,-4],[7,-1],[-3,-3],[-6,-6],[-1,-4],[-8,3],[0,-5],[4,-11],[-4,-1],[-4,-3],[-3,-4],[1,-4],[2,-4],[-2,-3],[-6,-5],[-7,-10],[-13,-44],[-2,0],[1,10],[0,3],[-4,3],[0,-7],[-3,-16],[-2,-2],[-7,-2],[-12,-2],[-10,0],[-3,-1],[-1,-2],[0,-3],[0,-2],[-12,-16],[6,1],[4,3],[3,4],[4,3],[-2,-6],[-5,-6],[-7,-4],[-5,3],[-3,-3],[-8,6],[-14,-11],[-48,-51],[-2,-3],[0,-5],[1,-1],[3,-1],[3,-2],[0,-5],[-6,2],[-5,-1],[-16,-12],[0,-3],[3,-3],[2,-6],[-6,-9],[-21,-18],[-1,-7],[-4,2],[-3,-1],[-3,-4],[-2,-5],[3,-1],[3,-1],[2,-3],[2,-3],[-6,2],[-2,1],[-1,-2],[-3,-2],[-1,-1],[-5,1],[-5,-3],[-2,4],[1,9],[11,11],[3,9],[4,-2],[3,0],[1,1],[-1,3],[0,3],[3,1],[4,2],[2,2],[-1,3],[4,2],[4,4],[3,4],[1,6],[-4,-2],[-5,-4],[-4,-2],[-4,0],[-3,3],[1,4],[2,3],[2,3],[-2,0],[0,2],[7,3],[-2,1],[-3,3],[-2,1],[5,5],[13,15],[3,5],[3,6],[3,4],[5,-1],[2,4],[0,1],[-2,3],[4,2],[6,7],[8,3],[0,5],[1,3],[6,1],[0,2],[0,3],[0,3],[4,-4],[3,-1],[3,-1],[5,2],[1,2],[0,3],[3,8],[-1,3],[1,1],[4,2],[1,0],[11,-5],[1,1],[0,1],[1,1],[0,2],[-5,3],[0,4],[5,1],[5,-3],[3,6],[1,4],[-1,5],[0,6],[2,6],[2,3],[0,2],[-7,2],[-4,0],[-4,-2],[-4,-2],[-2,-1],[-4,4],[1,5],[3,5],[8,5],[15,19],[18,14],[5,6],[-7,2],[2,4],[1,1],[-8,7],[6,3],[9,2],[5,0],[4,4],[7,4],[6,6],[-1,8],[1,2],[0,2],[1,2],[0,3],[1,4],[4,1],[3,1],[2,1],[1,3],[0,3],[-1,2],[0,3],[1,1],[5,3],[2,0],[0,4],[1,2],[0,3],[2,3],[2,2],[5,1],[2,1],[8,12],[4,4],[8,-9],[1,-3],[-4,-7],[6,1],[6,3],[11,7],[-10,8],[-4,3],[-6,2],[5,6],[15,4],[7,6],[2,5],[-3,5],[-6,3],[-8,0],[3,4],[7,5],[3,4],[2,0],[4,-7],[10,1],[19,8],[9,2],[6,2],[2,3],[-3,2],[-17,4],[-4,3],[-10,8],[0,2],[4,2],[1,3],[-1,3],[0,3],[2,3],[1,0],[24,-5],[3,3],[1,8],[-2,3],[-4,4],[5,1],[4,0],[9,-1],[1,0],[2,2],[2,1],[2,-1],[0,-1],[0,-3],[0,-1],[0,-1],[-2,-7],[5,2],[6,2],[5,-1],[4,-3],[0,-6],[-2,-4],[-1,-4],[5,-4],[10,-2],[12,2],[11,6],[7,9],[-5,2],[-1,-1],[-1,-1],[-2,4],[1,2],[2,1],[1,2],[0,8],[2,7],[6,1],[7,-2],[5,-4],[1,2],[1,3],[1,6],[1,4],[2,1],[3,0],[4,1],[8,5],[5,4],[1,5],[-11,-6],[0,6],[2,8],[-5,5],[0,2],[7,2],[5,-2],[7,-10],[3,5],[6,-3],[2,5],[-1,7],[0,7],[7,-4],[5,2],[5,3],[9,2],[4,2],[-2,6],[-6,6],[-9,1],[0,3],[4,0],[1,0],[0,2],[-3,1],[-5,2],[7,1],[7,0],[5,-3],[1,-7],[2,-1],[8,4],[3,1],[3,-1],[1,-2],[-1,-2],[-3,-3],[3,-3],[7,-4],[2,-3],[4,3],[9,13],[2,6],[3,1],[6,0],[6,3],[3,7],[6,-3],[2,-6],[0,-6],[0,-3],[5,2],[4,3],[5,2],[5,-2],[2,2],[1,2],[1,2],[1,2],[-4,0],[-4,0],[-4,1],[-3,2],[5,2],[27,5],[9,7],[5,1],[7,-1],[2,-3],[-1,-5],[1,-6],[5,-5],[5,0],[6,0],[4,-3],[6,3],[9,1],[24,-2],[5,-2],[4,-4],[7,-4],[-2,0],[0,-1],[-1,-1],[-4,2],[-5,0],[-5,0],[-3,-2],[10,-5],[6,-1],[6,0],[6,3],[14,8],[3,-3],[-4,-6],[-4,-7],[6,0],[7,-1]],[[3715,2424],[1,0],[2,-9],[-3,-4],[-6,-1],[-6,5],[-10,11],[-5,2],[-14,-4],[-7,0],[-7,1],[-6,1],[3,-6],[-2,-5],[-4,-3],[-7,-1],[-7,-1],[-4,3],[-11,8],[-6,-6],[-8,-4],[-5,-5],[1,-8],[-10,-1],[-7,-2],[-5,-3],[-2,-2],[-4,-1],[-7,3],[-3,-4],[-5,-3],[-6,-1],[-4,2],[-4,1],[-6,-1],[-22,-9],[-4,0],[-3,-3],[0,-5],[-1,-5],[-5,-3],[-6,1],[-13,4],[-20,3],[-5,2],[-8,5],[-9,1],[-10,4],[-9,2],[-14,4],[-6,1],[-3,-1],[-3,-3],[-5,-3],[-10,-4],[-10,-3],[-41,-4],[-10,1],[-8,4],[-5,7],[-3,2],[-6,1],[-2,-3],[-3,-5],[-3,-2],[-7,4],[2,2],[2,4],[1,2],[-3,2],[-4,0],[-4,-1],[-1,-3],[-1,-4],[-3,-1],[-3,2],[-3,0],[-8,-1],[-9,1],[-8,3],[-7,5],[-3,-9],[-2,-4],[-3,1],[-6,5],[-7,4],[-3,-5],[-1,-13],[-6,4],[-5,3],[-6,-1],[-6,-2],[-2,-3],[1,-3],[2,-2],[3,-1],[2,-2],[-2,-3],[-5,-6],[-4,-6],[-4,-4],[-11,-5],[-5,-5],[-12,-19],[-4,5],[-2,9],[0,10],[2,6],[4,2],[10,0],[5,2],[3,4],[1,4],[1,5],[0,5],[-9,-4],[-3,-1],[-5,0],[-29,5],[-19,8],[-16,3],[-12,5],[-19,3],[-6,1],[-14,6],[-6,1],[-4,-1],[-5,1],[-5,5],[4,3],[3,1],[4,0],[63,-19],[15,-3],[20,-7],[10,-2],[6,0],[6,1],[5,2],[4,5],[6,4],[10,-4],[3,6],[7,-2],[7,11],[6,0],[7,-1],[5,4],[3,6],[0,8],[6,-3],[7,-1],[24,2],[2,-1],[3,-4],[3,0],[4,3],[4,1],[3,0],[6,-2],[3,-1],[3,1],[6,4],[3,1],[8,0],[6,-1],[6,-3],[3,-7],[2,4],[3,4],[3,0],[2,-4],[-1,-10],[2,-2],[5,4],[4,5],[3,2],[4,1],[55,7],[10,3],[10,4],[5,0],[5,-2],[8,-9],[4,-1],[12,12],[9,-4],[10,-7],[10,-4],[5,1],[3,2],[5,6],[4,3],[5,1],[20,1],[37,9],[4,1],[10,11],[4,2],[4,3],[6,2],[-1,-2],[-1,-4],[-1,-2],[15,-5],[4,-1],[5,1],[6,6],[5,1],[3,0],[3,-4],[2,-1],[3,0],[4,2],[3,1],[4,-1],[10,-3],[3,-2],[3,5],[3,0],[3,-1],[4,1],[1,1],[3,4],[1,1],[3,-1],[2,-2],[1,-1],[1,-1],[14,-3],[7,1],[7,4],[0,-10],[0,-2],[0,-2],[0,-1],[2,0],[6,0]],[[1091,631],[25,19],[29,11],[-7,-17],[-30,-27],[-11,-15],[-2,-21],[13,-12],[17,-11],[10,-16],[-2,-10],[-6,-10],[-14,-17],[-5,-11],[-1,-9],[1,-9],[3,-11],[16,-39],[4,-21],[-7,-14],[-17,-3],[-14,9],[-12,13],[-14,9],[-14,1],[-15,-3],[-13,2],[-11,14],[-3,9],[-1,7],[-3,5],[-10,3],[-8,1],[-9,-2],[-8,-3],[-7,-4],[-7,-4],[-5,-6],[-15,-19],[-1,-3],[-1,-5],[1,-3],[4,-9],[0,-5],[-17,-12],[-9,-5],[-9,-1],[-8,7],[-2,9],[3,10],[4,10],[2,20],[-8,16],[-26,31],[-6,10],[-1,6],[3,5],[9,6],[9,4],[7,2],[7,1],[20,-3],[7,0],[6,3],[16,14],[8,5],[8,2],[10,0],[24,2],[19,11],[74,83]],[[1336,556],[-24,-22],[-6,-13],[13,-11],[0,-10],[-4,-13],[-17,-43],[-6,-22],[7,2],[6,-1],[13,-7],[17,-6],[20,-10],[11,-14],[-7,-19],[-8,-5],[-8,-4],[-7,-5],[-3,-9],[1,-6],[4,-6],[2,-7],[-1,-7],[-3,-3],[-5,-2],[-8,-3],[-25,-18],[-8,-2],[-7,1],[-3,4],[-2,5],[-3,6],[-6,5],[-5,3],[-13,4],[-13,5],[-11,9],[-9,12],[-5,16],[0,14],[7,29],[0,13],[-7,12],[-9,6],[-2,6],[12,10],[10,5],[4,3],[3,5],[0,4],[-3,7],[-1,4],[7,27],[0,11],[-6,19],[-1,9],[4,11],[10,14],[12,13],[14,10],[5,6],[8,21],[3,4],[5,-2],[23,-17],[7,-2],[8,-1],[33,11],[12,0],[2,-10],[-3,-7],[-6,-5],[-19,-13],[-3,-4],[-2,-4],[-2,-9],[-2,-4]],[[2705,4096],[1,-2],[1,-6],[6,-12],[1,-7],[-2,-10],[-4,-6],[-13,-9],[-2,-3],[-2,-4],[-2,-4],[0,-4],[-2,-3],[-11,-4],[-10,-18],[-4,-3],[-9,2],[-6,4],[-6,3],[-9,-3],[-2,-2],[-4,-4],[-2,-2],[-3,2],[-2,0],[-2,0],[-3,-2],[-9,4],[-18,5],[-8,4],[-7,6],[-4,7],[-2,9],[0,12],[19,45],[2,5]],[[2585,4096],[-4,-9],[-8,-12],[-1,-5],[-2,-3],[-4,0],[-16,4],[-4,7],[-5,17],[1,1]],[[2557,4096],[0,-5],[-4,-11],[1,-6],[5,9],[4,9],[2,4]],[[839,249],[-15,-13],[-17,-5],[-12,6],[0,9],[6,6],[8,4],[7,2],[1,0],[4,-2],[2,0],[2,1],[3,3],[4,3],[2,3],[3,2],[6,-2],[-4,-17]],[[2357,2034],[6,-2],[4,-5],[-5,0],[-11,-3],[-4,-2],[-4,-3],[-2,-3],[1,-2],[7,0],[-4,-4],[-4,-5],[-2,-7],[0,-8],[-12,17],[-4,2],[-6,-2],[-5,-6],[-2,-5],[6,-3],[3,-6],[-2,-12],[-8,-9],[-14,4],[1,-7],[-2,-4],[-4,-3],[-3,-4],[-7,1],[-9,0],[-8,1],[-3,7],[-1,4],[-3,2],[-3,1],[-1,3],[1,4],[7,7],[2,4],[-8,0],[0,6],[1,7],[-5,5],[-9,-2],[-6,-13],[-8,1],[-3,-3],[-6,1],[-4,0],[3,-8],[-5,2],[-4,0],[-4,0],[-2,4],[-5,-3],[3,-5],[-2,-2],[-4,-3],[-2,0],[-7,0],[-6,-6],[-9,-15],[-3,-1],[-2,1],[-2,0],[-1,-3],[1,-3],[2,-2],[2,-2],[1,-1],[3,-2],[4,-18],[-6,4],[-3,13],[-5,3],[-5,1],[-7,1],[-7,3],[-2,4],[-1,3],[-2,4],[0,4],[2,2],[3,2],[2,4],[1,4],[-4,4],[-6,-2],[-4,-6],[-1,-7],[-6,2],[-4,-3],[-2,-5],[-1,-6],[-3,0],[-17,-4],[0,8],[-12,-1],[-22,-9],[-12,-2],[-6,-3],[-5,-10],[-3,-5],[-1,-5],[6,-4],[-7,-4],[-5,-4],[-3,-6],[-2,-9],[-2,-4],[-2,-2],[1,-1],[7,-1],[5,1],[8,4],[6,0],[-4,-4],[-6,-2],[-3,-3],[4,-6],[0,-1],[-1,-2],[2,0],[0,-3],[-7,-1],[-7,-3],[-4,-6],[-2,-8],[-3,2],[-7,9],[-2,-1],[-2,0],[-1,2],[0,3],[0,2],[-1,1],[-3,0],[-12,4],[-2,0],[0,-3],[0,-3],[1,0],[1,-1],[0,-2],[-1,-3],[-3,0],[-2,1],[-2,1],[-2,1],[-3,-1],[0,-3],[2,-4],[-6,-11],[-3,-3],[-6,-4],[-8,-3],[-15,-5],[3,-5],[5,-5],[-6,-2],[-3,3],[-3,4],[-3,3],[-5,-1],[-13,-10],[-18,-8],[-6,-4],[7,-1],[-3,-3],[-6,-6],[-1,-4],[-8,3],[0,-5],[4,-11],[-4,-1],[-4,-3],[-3,-4],[1,-4],[2,-4],[-2,-3],[-6,-5],[-7,-10],[-13,-44],[-2,0],[1,10],[0,3],[-4,3],[0,-7],[-3,-16],[-2,-2],[-7,-2],[-12,-2],[-10,0],[-3,-1],[-1,-2],[0,-3],[0,-2],[-12,-16],[6,1],[4,3],[3,4],[4,3],[-2,-6],[-5,-6],[-7,-4],[-5,3],[-3,-3],[-8,6],[-14,-11],[-48,-51],[-2,-3],[0,-5],[1,-1],[3,-1],[3,-2],[0,-5],[-6,2],[-5,-1],[-16,-12],[0,-3],[3,-3],[2,-6],[-6,-9],[-21,-18],[-1,-7],[-4,2],[-3,-1],[-3,-4],[-2,-5],[3,-1],[3,-1],[2,-3],[2,-3],[-6,2],[-2,1],[-1,-2],[-3,-2],[-1,-1],[-5,1],[-5,-3],[-2,4],[1,9],[11,11],[3,9],[4,-2],[3,0],[1,1],[-1,3],[0,3],[3,1],[4,2],[2,2],[-1,3],[4,2],[4,4],[3,4],[1,6],[-4,-2],[-5,-4],[-4,-2],[-4,0],[-3,3],[1,4],[2,3],[2,3],[-2,0],[0,2],[7,3],[-2,1],[-3,3],[-2,1],[5,5],[13,15],[3,5],[3,6],[3,4],[5,-1],[2,4],[0,1],[-2,3],[4,2],[6,7],[8,3],[0,5],[1,3],[6,1],[0,2],[0,3],[0,3],[4,-4],[3,-1],[3,-1],[5,2],[1,2],[0,3],[3,8],[-1,3],[1,1],[4,2],[1,0],[11,-5],[1,1],[0,1],[1,1],[0,2],[-5,3],[0,4],[5,1],[5,-3],[3,6],[1,4],[-1,5],[0,6],[2,6],[2,3],[0,2],[-7,2],[-4,0],[-4,-2],[-4,-2],[-2,-1],[-4,4],[1,5],[3,5],[8,5],[15,19],[18,14],[5,6],[-7,2],[2,4],[1,1],[-8,7],[6,3],[9,2],[5,0],[4,4],[7,4],[6,6],[-1,8],[1,2],[0,2],[1,2],[0,3],[1,4],[4,1],[3,1],[2,1],[1,3],[0,3],[-1,2],[0,3],[1,1],[5,3],[2,0],[0,4],[1,2],[0,3],[2,3],[2,2],[5,1],[2,1],[8,12],[4,4],[8,-9],[1,-3],[-4,-7],[6,1],[6,3],[11,7],[-10,8],[-4,3],[-6,2],[5,6],[15,4],[7,6],[2,5],[-3,5],[-6,3],[-8,0],[3,4],[7,5],[3,4],[2,0],[4,-7],[10,1],[19,8],[9,2],[6,2],[2,3],[-3,2],[-17,4],[-4,3],[-10,8],[0,2],[4,2],[1,3],[-1,3],[0,3],[2,3],[1,0],[24,-5],[3,3],[1,8],[-2,3],[-4,4],[5,1],[4,0],[9,-1],[1,0],[2,2],[2,1],[2,-1],[0,-1],[0,-3],[0,-1],[0,-1],[-2,-7],[5,2],[6,2],[5,-1],[4,-3],[0,-6],[-2,-4],[-1,-4],[5,-4],[10,-2],[12,2],[11,6],[7,9],[-5,2],[-1,-1],[-1,-1],[-2,4],[1,2],[2,1],[1,2],[0,8],[2,7],[6,1],[7,-2],[5,-4],[1,2],[1,3],[1,6],[1,4],[2,1],[3,0],[4,1],[8,5],[5,4],[1,5],[-11,-6],[0,6],[2,8],[-5,5],[0,2],[7,2],[5,-2],[7,-10],[3,5],[6,-3],[2,5],[-1,7],[0,7],[7,-4],[5,2],[5,3],[9,2],[4,2],[-2,6],[-6,6],[-9,1],[0,3],[4,0],[1,0],[0,2],[-3,1],[-5,2],[7,1],[7,0],[5,-3],[1,-7],[2,-1],[8,4],[3,1],[3,-1],[1,-2],[-1,-2],[-3,-3],[3,-3],[7,-4],[2,-3],[4,3],[9,13],[2,6],[3,1],[6,0],[6,3],[3,7],[6,-3],[2,-6],[0,-6],[0,-3],[5,2],[4,3],[5,2],[5,-2],[2,2],[1,2],[1,2],[1,2],[-4,0],[-4,0],[-4,1],[-3,2],[5,2],[27,5],[9,7],[5,1],[7,-1],[2,-3],[-1,-5],[1,-6],[5,-5],[5,0],[6,0],[4,-3],[6,3],[9,1],[24,-2],[5,-2],[4,-4],[7,-4],[-2,0],[0,-1],[-1,-1],[-4,2],[-5,0],[-5,0],[-3,-2],[10,-5],[6,-1],[6,0],[6,3],[14,8],[3,-3],[-4,-6],[-4,-7],[6,0],[7,-1]],[[3715,2424],[1,0],[2,-9],[-3,-4],[-6,-1],[-6,5],[-10,11],[-5,2],[-14,-4],[-7,0],[-7,1],[-6,1],[3,-6],[-2,-5],[-4,-3],[-7,-1],[-7,-1],[-4,3],[-11,8],[-6,-6],[-8,-4],[-5,-5],[1,-8],[-10,-1],[-7,-2],[-5,-3],[-2,-2],[-4,-1],[-7,3],[-3,-4],[-5,-3],[-6,-1],[-4,2],[-4,1],[-6,-1],[-22,-9],[-4,0],[-3,-3],[0,-5],[-1,-5],[-5,-3],[-6,1],[-13,4],[-20,3],[-5,2],[-8,5],[-9,1],[-10,4],[-9,2],[-14,4],[-6,1],[-3,-1],[-3,-3],[-5,-3],[-10,-4],[-10,-3],[-41,-4],[-10,1],[-8,4],[-5,7],[-3,2],[-6,1],[-2,-3],[-3,-5],[-3,-2],[-7,4],[2,2],[2,4],[1,2],[-3,2],[-4,0],[-4,-1],[-1,-3],[-1,-4],[-3,-1],[-3,2],[-3,0],[-8,-1],[-9,1],[-8,3],[-7,5],[-3,-9],[-2,-4],[-3,1],[-6,5],[-7,4],[-3,-5],[-1,-13],[-6,4],[-5,3],[-6,-1],[-6,-2],[-2,-3],[1,-3],[2,-2],[3,-1],[2,-2],[-2,-3],[-5,-6],[-4,-6],[-4,-4],[-11,-5],[-5,-5],[-12,-19],[-4,5],[-2,9],[0,10],[2,6],[4,2],[10,0],[5,2],[3,4],[1,4],[1,5],[0,5],[-9,-4],[-3,-1],[-5,0],[-29,5],[-19,8],[-16,3],[-12,5],[-19,3],[-6,1],[-14,6],[-6,1],[-4,-1],[-5,1],[-5,5],[4,3],[3,1],[4,0],[63,-19],[15,-3],[20,-7],[10,-2],[6,0],[6,1],[5,2],[4,5],[6,4],[10,-4],[3,6],[7,-2],[7,11],[6,0],[7,-1],[5,4],[3,6],[0,8],[6,-3],[7,-1],[24,2],[2,-1],[3,-4],[3,0],[4,3],[4,1],[3,0],[6,-2],[3,-1],[3,1],[6,4],[3,1],[8,0],[6,-1],[6,-3],[3,-7],[2,4],[3,4],[3,0],[2,-4],[-1,-10],[2,-2],[5,4],[4,5],[3,2],[4,1],[55,7],[10,3],[10,4],[5,0],[5,-2],[8,-9],[4,-1],[12,12],[9,-4],[10,-7],[10,-4],[5,1],[3,2],[5,6],[4,3],[5,1],[20,1],[37,9],[4,1],[10,11],[4,2],[4,3],[6,2],[-1,-2],[-1,-4],[-1,-2],[15,-5],[4,-1],[5,1],[6,6],[5,1],[3,0],[3,-4],[2,-1],[3,0],[4,2],[3,1],[4,-1],[10,-3],[3,-2],[3,5],[3,0],[3,-1],[4,1],[1,1],[3,4],[1,1],[3,-1],[2,-2],[1,-1],[1,-1],[14,-3],[7,1],[7,4],[0,-10],[0,-2],[0,-2],[0,-1],[2,0],[6,0]],[[2328,4093],[0,3]],[[3255,3837],[4,8],[2,3],[0,16],[6,22],[9,25],[7,15],[9,7],[8,4],[15,21],[10,11],[8,6],[19,13],[12,6],[3,5],[2,9],[4,8],[8,8],[12,18],[3,8],[0,21],[3,12],[10,13]],[[3255,3837],[-14,5],[-13,14],[-8,12],[-3,14],[0,29],[0,3],[-7,17],[-6,11],[-3,8],[6,16],[-3,7],[-8,7],[-6,12],[-12,13],[-3,12],[2,19],[3,8],[9,22],[10,30]],[[4043,3829],[8,5],[10,-2],[8,6],[12,-6],[0,-8],[9,0],[4,-7],[2,0]],[[2271,3793],[5,8],[-3,12],[0,8],[1,11],[2,10],[0,12],[-2,22],[-4,47],[1,8],[3,11],[12,33],[11,16],[7,17],[6,30],[9,23],[6,13],[3,9],[0,10]],[[4055,3766],[-1,14],[-5,8],[-1,13],[-3,8],[-3,12],[1,8]],[[4055,3766],[5,0],[3,-8],[-2,-7],[0,-8],[5,-13],[1,-8],[3,-1],[0,-16],[-3,-8],[-4,-6]],[[2141,3628],[13,10],[6,12],[5,24],[0,12],[1,8],[6,8],[18,22],[30,28],[11,5],[12,0],[7,6],[11,17],[10,13]],[[1820,3927],[-1,-10],[2,-13],[3,-11]],[[1670,4096],[7,-6],[12,-10],[13,-8],[20,-8],[15,-4],[10,-7],[8,-7],[10,-16],[3,-9],[6,-16],[6,-13],[12,-11],[5,-3],[10,-11],[5,-5],[7,-12],[2,-14],[-1,-9]],[[1824,3893],[-2,-4],[-6,-16],[-6,-16],[-6,-12],[-1,-11],[0,-8],[3,-8],[13,-20],[5,-10],[1,-8],[2,-20],[3,-11],[9,-3],[15,0],[15,-6],[21,-8],[12,-7],[13,-4],[8,-5],[1,-9],[0,-21],[3,-15],[11,-18],[3,-8],[3,-12],[1,-11],[-1,-6],[-6,-25],[0,-7],[4,-3]],[[706,3881],[11,3],[11,2],[7,3],[8,0],[7,-2],[12,-8],[14,0],[9,2],[12,-2],[6,-3],[15,-1],[3,1],[9,10],[13,4],[8,0],[4,-6],[11,-2],[7,-3],[8,0],[7,7],[3,1],[11,-3],[9,-11],[6,-5],[1,-6],[8,3],[4,-3],[6,-8],[12,-8],[17,3],[4,0],[11,-11],[13,-9],[18,-9],[12,-3],[9,-7],[11,-1],[15,-7],[6,-9],[15,-27],[9,-15],[15,-15],[3,-7],[10,-30],[5,-8],[4,-3],[8,0],[6,6],[6,3],[12,-1],[4,-8],[6,-5],[7,-8],[7,-3],[12,5],[15,-3],[14,-10],[12,-4],[19,-15],[11,-12],[3,-2],[12,5],[7,0],[12,-11],[8,2],[16,0],[8,4],[7,8],[5,0],[12,-5],[10,2],[6,16],[5,3],[3,12],[7,15],[5,12],[3,13],[1,4],[9,5],[8,3],[21,-1],[16,-5],[15,-8],[5,0],[13,3],[15,-1],[8,-3],[15,-10],[9,-1],[16,0],[8,-2],[6,-6],[16,-7],[18,-6],[21,-6],[23,-2],[15,-3],[33,-8],[24,0],[23,-4],[15,-7],[24,-8],[9,-3],[16,-19],[12,-6],[23,-9],[15,-8],[12,-9],[13,-7],[12,-4],[8,0],[9,1],[7,5],[12,3],[12,-2],[8,2],[4,3]],[[2044,3512],[14,22],[15,22],[6,6],[23,14]],[[1942,3581],[12,-5],[11,-6],[7,-6],[15,-10],[27,-17],[15,-11],[15,-14]],[[2065,3494],[8,-5],[3,-5],[0,-8],[3,-8],[15,-14],[5,-3]],[[2044,3512],[3,-3],[8,-5],[6,-8],[4,-2]],[[2099,3451],[4,-2],[15,-3],[3,-5],[8,-7],[15,-19],[22,-24],[5,-8]],[[2246,3388],[-2,2],[-3,7],[-1,8],[1,10]],[[2253,3306],[0,8],[3,25],[3,16],[2,13],[-2,11],[-12,8],[-1,1]],[[2171,3383],[6,-6],[4,-8],[11,-9],[7,-8],[14,-20],[6,-8],[15,-10],[19,-8]],[[2821,3305],[0,6]],[[2821,3305],[4,-2],[8,5],[12,8],[6,8],[4,12],[8,5],[1,5],[-3,6],[3,8],[15,23],[15,13],[17,3],[18,-6],[12,-2],[18,-11],[6,7],[3,7],[1,19],[5,5],[10,0],[10,5],[7,7],[2,8],[4,11],[5,8],[12,10],[19,4],[12,0],[5,8],[3,13],[6,7],[7,8],[12,7],[9,7],[2,8],[0,21],[7,15],[3,8],[0,11],[2,13],[10,15],[3,11],[5,10],[9,28],[3,3],[9,8],[4,11],[0,16],[2,3],[16,13],[6,10],[8,2],[4,2],[0,12],[2,5],[16,19],[21,20],[23,21],[4,7],[0,5],[-4,6],[3,13]],[[666,3247],[-2,5],[-9,11],[-6,15],[-9,11],[-6,14],[0,22],[-4,11],[-2,11],[2,27],[-2,8],[5,23],[0,11],[6,27],[3,16],[0,15],[7,4],[3,4],[0,7],[-6,7],[-3,14],[-6,7],[-1,8],[0,11],[-2,12],[-3,8],[0,14],[-7,3],[-6,8],[0,6],[3,8],[-2,8],[-9,22],[17,11],[7,8],[2,11],[3,3],[1,8],[11,34],[1,21],[3,11],[0,19],[3,11],[8,18],[12,10],[3,9],[0,13],[-3,17],[0,8],[3,11],[0,8],[1,8],[11,9],[13,8]],[[429,3074],[1,0],[8,0],[15,5],[10,-3],[6,0],[17,6],[16,9],[15,13],[15,16],[15,11],[8,1],[15,-1],[15,-5],[0,3],[-5,11],[0,8],[3,11],[5,6],[7,7],[8,3],[19,6],[11,8],[16,17],[11,9],[4,7],[2,8],[1,11],[-1,6]],[[4063,3691],[-3,-16],[1,-8],[-4,-6],[-14,0],[-7,-5],[-8,-7],[-4,-8],[-2,-8],[0,-8],[-1,-11],[-9,-12],[0,-10],[1,-14],[-1,-8],[-8,-11],[3,-17],[-3,-8],[-1,-16],[-2,-4],[-7,-11],[-3,-10],[-8,-11],[-1,-9],[7,-14],[0,-10],[9,-15],[2,-13],[-3,-8],[-2,-8],[2,-8],[6,-10],[3,-18],[-2,-15],[8,-21],[-2,-14],[3,-13],[-1,-9],[12,-8],[7,-8],[8,-9],[1,-8],[9,-22],[6,-12],[24,-18],[12,-6],[3,-9],[2,-5]],[[4096,3176],[0,-1],[0,-1]],[[2247,3051],[15,4],[20,5],[16,0],[12,2],[8,3],[10,4],[9,8],[8,8],[7,11],[11,11],[19,8],[27,11],[8,5],[19,9],[21,6],[11,4],[12,0],[48,6],[8,1],[22,15],[8,-4],[12,4],[16,14],[15,4],[14,5],[13,3],[11,6],[13,16],[9,11],[21,33],[8,8],[7,2],[15,-4],[8,4],[24,18],[7,5],[9,2],[38,4],[12,0],[3,2]],[[2247,3051],[-3,3],[-4,15],[-5,49],[-1,32],[1,36],[0,7],[5,11],[10,26],[2,12],[0,17],[3,27],[0,8],[-2,12]],[[4082,3033],[9,2],[5,-1]],[[3686,3167],[7,-6],[6,-8],[12,-8],[12,-6],[8,-5],[6,-8],[9,-3],[21,-17],[4,-4],[12,-1],[12,1],[12,0],[12,-4],[14,-7],[9,-11],[7,-12],[8,-3],[19,-3],[8,-3],[12,-13],[5,-3],[13,-6],[5,-2],[10,-13],[8,-3],[9,-3],[12,0],[9,2],[12,-2],[13,2],[12,-5],[8,3],[13,10],[15,6],[9,-2],[12,-6],[21,9]],[[3477,3002],[9,13],[5,3],[15,6],[18,13],[19,9],[8,2],[18,9],[12,8],[7,9],[24,30],[11,11],[12,19],[10,6],[18,11],[15,14],[8,2]],[[806,2698],[-17,3],[-6,6],[-4,11],[-8,3],[-3,8],[-3,11],[-3,5],[-7,4],[-5,8],[-6,21],[-3,6],[-10,8],[-22,8],[-36,20],[-18,8],[-22,6],[-8,6],[-24,29],[-12,9],[-9,3],[-12,2],[-15,-3],[-15,-5],[-12,1],[-10,-1],[-8,-6],[-15,0],[-7,0],[-12,7],[-6,0],[-18,7],[-11,-2],[-10,0],[-12,2],[-18,-3],[-15,-2],[-11,-5],[-7,0],[-15,-12],[-8,-2],[-6,3],[-9,-1],[-13,-5],[-6,0],[-14,5],[-4,6],[-11,0],[-4,2],[-3,6],[0,9],[4,18],[-1,12],[7,11],[9,11],[15,3],[11,10],[7,3],[6,6],[12,8],[11,3],[15,0],[7,8],[11,8],[7,8],[8,6],[7,5],[2,14],[4,14],[9,16],[3,14],[0,11],[2,1]],[[984,2699],[23,-3],[24,-5],[19,-4],[18,-2],[23,-6],[3,-2],[15,-5],[6,-3],[9,-1],[19,-10],[17,-1],[18,-2],[12,-1],[8,0],[16,6],[29,5],[10,1],[18,-3],[14,-3],[37,-11],[27,-5],[14,-1],[22,-2],[9,0],[14,3],[15,5],[18,1],[7,0],[8,-3],[36,5],[18,3],[16,2],[18,-2],[6,0]],[[869,2704],[15,0],[10,1],[17,0],[18,-1],[12,-5],[12,-1],[28,1],[3,0]],[[1550,2655],[9,-1],[8,-5],[9,-5],[19,-19],[8,-3],[9,0],[18,3],[14,5]],[[2112,2489],[-3,3],[-4,13],[-3,10]],[[2102,2515],[-2,10],[0,5],[-1,15],[-5,11],[0,7],[-4,20],[-3,8],[-8,16],[-3,7],[-2,21],[-3,3],[-7,1],[-12,5],[-8,5],[-10,11],[-6,9],[-5,13],[-1,12],[1,13],[2,14],[4,22],[8,13],[7,6],[14,9],[26,21],[15,9],[13,6],[35,22],[7,8],[11,14],[15,13],[4,8],[9,19],[17,42],[6,13],[6,15],[0,8],[3,8],[10,14],[11,11],[7,13],[2,3],[-5,15],[-6,13],[3,5]],[[2468,2571],[16,1],[14,11]],[[2112,2489],[17,6],[25,6],[8,4]],[[2162,2505],[4,1],[12,2],[9,3],[12,1],[8,-3],[15,3],[12,4],[12,-2],[7,2],[9,6],[11,12],[12,5],[15,-6],[9,1],[16,7],[29,4],[7,0],[8,-3],[9,0],[4,3],[20,0],[13,3],[21,8],[12,7],[8,6],[4,1],[8,1]],[[2498,2583],[13,2],[17,4],[12,2],[8,3],[16,-2],[3,2],[6,8],[8,6],[21,5],[12,0],[12,5],[7,1],[17,-6],[27,5],[9,6],[21,3],[7,5],[15,14],[14,6],[7,2],[9,0],[5,-4],[18,0],[19,2],[32,5],[7,8],[12,7],[17,5],[13,5],[2,11],[6,8],[16,1],[8,2],[7,-6],[8,1],[4,8],[0,13],[12,9],[9,6],[9,-1],[17,7],[4,16],[11,14],[8,7],[25,31],[3,2],[36,6],[12,3],[17,0],[7,5],[8,12],[13,13],[18,11],[9,6],[8,8],[9,12],[18,15],[12,6],[9,3],[12,2],[24,0],[19,3],[14,0],[19,-7],[12,-1],[5,1],[15,11],[12,5],[13,10],[26,7],[12,2],[12,6],[3,5],[6,12],[9,8],[7,3],[14,4],[27,11],[9,9]],[[2086,2485],[7,-1],[7,2],[12,3]],[[1644,2630],[13,3],[12,0],[12,-4],[9,-5],[6,-8],[12,-9],[17,-8],[7,-3],[23,-4],[7,-1],[26,0],[9,-2],[13,-4],[5,-4],[16,-6],[9,-5],[20,-6],[24,-9],[4,0],[30,-13],[12,-5],[17,4],[12,-5],[9,-6],[27,-22],[13,-10],[12,-8],[9,-6],[14,3],[13,0],[9,-1],[5,-2],[11,2],[5,-1]],[[2094,2456],[0,3],[5,11],[13,19]],[[2088,2313],[-6,-2],[-3,4],[9,18],[-3,5],[-11,2],[-7,4],[-3,5],[3,3],[9,3],[11,11],[7,16],[5,10],[-2,11],[5,12],[0,9],[-2,11],[-4,8],[-2,13]],[[2258,2246],[-9,1],[-12,5],[-14,-3],[-13,0],[-15,-5],[-6,-5],[-14,-1],[-6,4],[-9,22],[-9,11],[-13,13],[-9,6],[-9,3],[-12,8],[-9,6],[-11,2]],[[4048,2202],[16,9],[17,3],[13,-1],[2,1]],[[4048,2202],[-8,9],[-1,5],[-6,6],[-6,17],[-8,16],[0,20],[-9,27],[-7,17],[-8,21],[-15,14],[-12,16],[-4,14],[-5,8],[-9,11],[-6,12],[-7,11],[-12,8],[-6,8],[-5,15],[0,8],[-6,11],[-7,19],[-8,6],[-3,4],[-8,3],[-16,-5],[-9,0],[-11,11],[-7,6],[-9,13],[-3,15],[-5,11],[-15,15],[-3,4],[-3,11],[-1,14],[-8,18],[-10,12],[-9,8],[-8,5],[-12,4],[-19,4],[-15,4],[-17,8],[-7,8],[-14,20],[-3,4],[-4,14],[0,17],[-2,6],[-4,8],[-9,11],[-3,11],[-3,39],[-5,33],[-1,11],[-8,17],[-10,11],[-9,7],[-6,1],[-29,3],[-6,5],[-3,10],[2,25],[-3,17],[-9,3],[-8,0],[-7,-1],[-12,-8],[-15,-7],[-14,0],[-15,-4],[-6,6],[-1,13],[1,12],[-4,9],[-3,4],[-3,7],[0,19],[-2,5]],[[2417,2188],[-6,3],[-14,3],[-15,11],[-10,6],[-17,14],[-15,6],[-9,8],[-9,2],[-9,1],[-18,4],[-18,-2],[-19,2]],[[1821,2159],[0,3],[1,10],[3,8],[5,4],[13,8],[6,10],[3,9],[2,14],[6,11],[3,13],[0,19],[4,11],[6,11],[11,14],[9,7],[7,4],[14,-2],[9,-6],[10,-11],[17,-16],[10,-5],[18,-17],[14,-9],[18,-2],[13,3],[12,13],[18,12],[14,8],[10,10],[11,20]],[[4016,2145],[2,6],[7,11],[11,15],[4,11],[2,9],[6,5]],[[2457,2144],[-10,1],[-11,5],[-4,6],[-6,10],[-6,18],[-3,4]],[[1818,2095],[-2,14],[2,14],[3,14],[-2,8],[2,14]],[[2590,1987],[-3,14],[1,14],[-3,12],[-4,16],[-8,8],[-7,3],[-20,17],[-6,5],[-4,11],[-7,5],[0,9],[-6,8],[-15,6],[-10,7],[-9,1],[-8,5],[-10,9],[-6,5],[-8,2]],[[2594,1969],[-4,18]],[[1818,2095],[-6,-9],[-14,-8],[-19,-11],[-3,-3],[0,-8],[-3,-10],[-2,-19],[-3,-7],[-3,-15],[-4,-4],[-8,-5],[-7,-13],[-11,-10],[-7,-2],[-8,-2],[-4,0],[-17,5],[-10,2],[-8,-2],[-16,-9],[-14,0],[-7,-3],[-8,-8]],[[3926,1944],[0,10],[3,9],[8,17],[6,16],[6,14],[7,32],[17,25],[7,14],[24,31],[9,19],[3,14]],[[3719,1886],[13,2],[14,6],[22,3],[20,-1],[12,4],[21,10],[7,4],[15,4],[8,3],[16,4],[18,2],[14,0],[23,14],[4,3]],[[3684,1866],[17,14],[10,5],[8,1]],[[1457,1869],[9,-8],[6,-3],[15,-2],[11,0],[15,4],[12,3],[13,7],[21,15],[12,9],[14,13],[13,12],[8,14],[12,8],[3,8],[6,5],[9,0]],[[4096,1872],[-15,-3],[-9,-6],[-12,-14],[-3,-8],[-3,-3]],[[4054,1838],[-14,0],[-7,-4]],[[4033,1834],[-9,-17],[-9,-6],[-14,-8],[-16,-9],[-6,-4]],[[3979,1790],[0,10],[-3,22],[-3,8],[-8,17],[-6,11],[-10,16],[-8,7],[-3,7],[-4,22],[-9,20],[1,14]],[[2741,1783],[-3,1],[-13,14],[-2,8],[-4,6],[-3,8],[-9,7],[-6,9],[-5,11],[-4,5],[-6,15],[-15,16],[-23,30],[-1,3],[-15,20],[-15,18],[-14,8],[-9,7]],[[2800,1745],[-8,5],[-12,9],[-10,6],[-11,10],[-6,3],[-12,5]],[[2806,1745],[-6,0]],[[3569,1739],[6,4],[19,29],[6,15],[6,10],[3,8],[-3,12],[3,10],[9,6],[11,5],[4,4],[11,7],[10,4],[23,8],[7,5]],[[2876,1734],[-4,0],[-8,-3],[-4,0],[-14,9],[-10,5],[-5,0],[-7,-3],[-18,3]],[[3546,1728],[23,11]],[[2888,1723],[-12,11]],[[3528,1712],[14,13],[4,3]],[[649,1693],[8,6],[16,4],[9,6],[15,5],[9,0],[17,6],[8,0],[24,1],[12,2],[13,2],[11,-2]],[[2941,1685],[-5,10],[-9,6],[-7,9],[-3,2],[-11,0],[-9,8],[-9,3]],[[2998,1635],[-10,11],[-11,6],[-8,8],[-6,5],[-7,8],[-12,4],[-3,8]],[[3382,1635],[8,-1],[3,1],[6,10],[4,1],[12,3],[15,6],[19,7],[7,3],[12,9],[23,13],[16,11],[21,14]],[[3262,1615],[24,19],[15,6],[8,3],[10,-2],[8,4],[10,-2],[9,2],[9,-2],[17,-6],[9,0]],[[3920,1612],[3,18],[-3,18],[6,20],[9,17],[9,13],[6,14],[11,22],[12,30],[6,26]],[[3166,1597],[14,0],[12,4],[19,1],[17,3],[15,0],[10,5],[9,5]],[[3108,1582],[-14,6],[-10,7]],[[3084,1595],[-47,31],[-15,3],[-18,3],[-6,3]],[[791,1723],[21,-6],[12,-5],[25,-19],[9,-1],[8,1],[18,8],[12,3],[21,3],[22,-4],[9,1],[9,-3],[15,-11],[17,-16],[3,-11],[7,-8],[3,-7],[2,-13],[3,-12],[6,-15],[1,-12],[2,-14],[1,-3]],[[3112,1569],[9,0],[15,11],[15,10],[5,2]],[[3156,1592],[10,5]],[[3112,1569],[-4,13]],[[1229,1557],[-1,17],[-2,14],[-1,8],[1,14],[3,8],[14,-3],[4,6],[5,11],[10,11],[11,9],[6,11],[4,18],[11,9],[15,6],[4,5],[11,17],[10,5],[8,8],[4,6],[9,19],[2,2],[9,3],[1,3],[3,8],[11,11],[3,6],[0,14],[6,16],[6,4],[7,2],[8,5],[12,14],[10,9],[2,2]],[[1435,1855],[6,6],[6,5],[10,3]],[[1229,1557],[-9,3],[-30,9],[-12,5],[-8,8],[-4,1],[-18,-1],[-14,3],[-49,3],[-20,-2],[-18,-1],[-18,0],[-9,-2],[-3,-4]],[[3112,1569],[38,-5],[10,-2]],[[3160,1562],[6,-2],[9,-7],[15,-7],[14,-10]],[[319,1575],[2,-3],[9,-17],[7,-8],[12,-4],[14,1],[31,-8],[11,0],[10,3],[6,5],[24,22],[17,11],[22,19],[15,5],[14,1],[13,0],[9,2],[14,6],[12,8],[10,6],[27,8],[9,5],[12,9],[8,9],[7,13],[8,8],[4,9]],[[1217,1527],[9,3],[8,3],[-2,8],[-7,2],[-3,7],[7,7]],[[3056,1571],[19,0],[15,-2],[22,0]],[[2920,1486],[18,9],[9,8],[19,18],[15,15],[10,7],[12,4],[19,11],[8,8],[7,3],[14,2],[5,0]],[[0,1483],[1,0],[3,5],[6,11],[12,26],[18,41],[4,2],[14,0],[19,-5],[20,-3],[10,4],[14,0],[15,-1],[13,1],[17,7],[12,4],[9,-3],[3,-1],[13,-3],[12,-7],[9,2],[11,-3],[3,1],[7,10],[12,14],[5,6],[9,-1],[32,-8],[9,-2],[3,-2]],[[315,1578],[4,-3]],[[2798,1451],[17,15],[7,4],[6,3],[9,2],[35,-3],[15,-2],[10,0],[11,5],[12,11]],[[2788,1448],[10,3]],[[3204,1536],[4,-3],[6,-20],[6,-18],[2,-18],[4,-7],[8,-3],[16,-11],[12,-5],[30,-9]],[[3292,1442],[6,-2],[6,-10],[6,-4],[20,2],[9,5],[10,1],[9,-1],[9,1],[8,-3],[12,5],[9,0],[6,4],[3,8]],[[1294,1415],[-12,19],[-14,8],[-13,8],[-14,3],[-10,6],[-8,8],[-3,27],[-3,12],[-4,11],[0,5],[4,5]],[[3405,1448],[16,-6],[9,-2],[5,-6],[8,-1],[6,-7],[7,-17],[3,-1],[23,-11]],[[1373,1389],[-12,14],[-6,5],[-10,0],[-12,-2],[-9,2],[-11,6],[-15,0],[-4,1]],[[2704,1370],[9,5],[9,7],[16,15],[17,20],[16,14],[12,14],[5,3]],[[1444,1370],[-6,-5],[-3,8],[-5,2],[-18,-2],[-10,2],[-20,7],[-9,7]],[[1456,1364],[-3,4],[-9,2]],[[1478,1368],[-10,5],[-3,-3],[-5,-6],[-4,0]],[[1613,1317],[-10,12],[-21,11],[-5,6],[-9,2],[-6,5],[-9,7],[-6,0],[-18,-1],[-15,3],[-10,5],[-26,1]],[[2678,1312],[-1,11],[-3,8],[0,4],[7,14],[5,7],[7,3],[8,8],[3,3]],[[3482,1397],[25,-11],[9,-8],[3,-7],[3,-14],[0,-14],[-1,-9],[-6,-14],[-6,-19]],[[995,1572],[-5,-6],[-1,-19],[1,-9],[3,-8],[9,-16],[5,-19],[1,-4],[3,-16],[6,-11],[12,-8],[17,-6],[4,-5],[12,-25],[5,-11],[3,-17],[4,-14],[6,-14],[14,-18],[15,-18],[10,-13],[17,-16],[4,-9]],[[1654,1285],[-12,10],[-6,7],[-12,7],[-11,8]],[[3090,1521],[3,11],[6,6],[6,12],[6,11],[1,8]],[[3051,1277],[-2,5],[3,35],[3,18],[-1,13],[-6,11],[-5,5],[0,9],[2,9],[-3,13],[0,9],[6,10],[1,5],[-1,9],[0,9],[7,14],[12,26],[12,20],[3,8],[8,14],[0,2]],[[2677,1273],[1,9],[2,19],[-2,11]],[[3509,1301],[0,-3],[7,-8],[3,-17],[6,-15],[3,-12],[-1,-8]],[[1843,1204],[-12,1],[-43,17],[-11,7],[-12,14],[-12,9],[-13,8],[-15,6],[-9,3],[-27,-3],[-5,0],[-7,3],[-23,16]],[[1128,1217],[-1,-4],[0,-27]],[[1140,1290],[0,-6],[-1,-21],[-5,-23],[-6,-23]],[[2665,1149],[-3,14],[0,4],[-2,15],[2,9],[6,20],[0,5],[-5,13],[0,14],[6,15],[8,15]],[[1918,1147],[-15,17],[-7,3],[-12,10],[-12,14],[-14,8],[-15,5]],[[3527,1238],[-2,-6],[9,-13],[3,-12],[5,-5],[7,-16],[5,-4],[15,-16],[24,-8],[4,-2],[17,-6],[13,-3],[14,2],[12,3],[9,-3],[13,-2],[6,0]],[[3681,1147],[5,-2]],[[1920,1142],[-2,5]],[[3063,1141],[3,8],[0,9],[-2,14],[11,33],[3,28],[-2,5],[-4,9],[-11,11],[-10,19]],[[3922,1139],[1,13],[14,34],[3,19],[0,14],[3,11],[-5,38],[-3,6],[-6,21],[3,12],[-1,10],[-5,11],[-12,18],[-4,11],[-5,7],[-3,33],[3,29],[0,10],[-3,12],[-14,33],[-1,10],[1,3],[14,23],[2,10],[1,20],[-1,10],[4,11],[2,18],[3,7],[3,8],[4,11]],[[3686,1145],[10,-7],[6,-10]],[[3702,1128],[5,-6],[6,-6],[7,-2],[12,5],[6,9],[6,16],[5,6],[7,3],[14,2],[27,-21],[16,4],[11,0],[15,0],[7,-4],[15,-1],[9,-6],[6,-11]],[[3058,1114],[3,24],[2,3]],[[3876,1116],[11,-5]],[[3925,1100],[-3,14],[-2,14],[2,11]],[[3887,1111],[9,-2],[29,-9]],[[3925,1100],[21,-5],[25,-8],[12,-4],[12,-3]],[[3995,1080],[3,-5]],[[3998,1075],[6,-8],[9,2],[9,0],[6,4],[11,7],[9,6],[7,3],[8,-2],[7,-9],[8,0],[13,8],[5,1]],[[2927,1012],[2,5],[10,11],[11,11],[10,20],[11,11],[10,6],[16,10],[22,9],[6,5],[8,2],[9,6],[12,3],[4,3]],[[2939,982],[-6,11],[-6,19]],[[2669,949],[11,5],[24,6],[10,5],[11,6],[10,10],[8,3],[7,3],[21,0],[18,6],[9,0],[11,-4],[9,-4],[15,2],[21,3],[9,2],[16,4],[11,7],[18,4]],[[2669,949],[-3,18],[-3,12],[-7,19],[-2,8],[-1,14],[3,14],[7,20],[-1,8],[-8,14],[0,5],[5,11],[6,11],[1,9],[-1,15],[0,18],[0,4]],[[3702,1128],[-9,-6],[-3,-6],[-3,-14],[-4,-40],[-8,-23],[-1,-10],[0,-15],[-5,-13],[5,-11],[0,-6],[-5,-11],[-1,-8],[-3,-9],[0,-10],[-9,-16]],[[3003,897],[-2,7],[-1,12],[-5,7],[-12,4],[-9,7],[-8,4],[-16,25],[-6,10],[-5,9]],[[2623,888],[3,3],[7,16],[12,8],[2,4],[0,10],[3,8],[4,4],[12,5],[3,3]],[[2442,825],[8,8],[9,0],[16,-6],[9,3],[14,-3],[9,1],[12,11],[3,0],[11,0],[7,2],[12,11],[12,8],[14,1],[12,5],[13,11],[20,11]],[[3656,930],[-2,-1],[-7,-24],[-8,-18],[-4,-13],[-6,-14],[-12,-16],[-3,-8],[0,-11],[-5,-31],[-3,-9],[-4,-11],[-3,-13],[-3,-6]],[[3564,758],[-9,0],[-9,-2],[-10,0],[-12,5],[-14,3],[-28,-1],[-18,-5],[-20,-10],[-17,-4],[-19,-2],[-17,5],[-19,8],[-18,9],[-5,2],[-13,-2],[-5,-1],[-13,-13],[-3,-13],[-15,2]],[[3300,739],[-14,-3],[-15,1],[-10,10],[-8,3],[-10,0],[-11,-5],[-13,-8],[-15,-9],[-11,-6],[-10,-3]],[[2041,1009],[-4,1],[-6,10],[1,9],[-3,8],[-7,5],[-5,5],[-9,12],[-9,11],[-9,8],[-15,6],[-9,7],[-16,15],[-20,22],[-10,14]],[[2204,714],[-2,8],[2,9],[-3,17],[-8,10],[-1,12],[-5,21],[-7,9],[-5,10],[-4,12],[-9,16],[-6,9],[-3,13],[-2,12],[-3,8],[-10,22],[-15,39],[-5,7],[-22,15],[-12,10],[-16,16],[-24,18],[-3,2]],[[3034,712],[-1,3],[-9,8],[-8,11],[-4,13],[-3,22],[-3,12],[-8,19],[-1,13],[4,22],[-1,14],[1,20],[2,28]],[[3034,706],[0,6]],[[3183,719],[-11,-2],[-21,-9],[-10,-4]],[[3141,704],[-20,-3],[-21,2],[-30,3],[-9,2],[-21,6],[-6,-2]],[[3034,712],[-12,5],[-13,-3],[-5,1],[-13,8],[-14,0],[-9,-1],[-33,-10],[-5,0],[-15,7],[-6,0],[-6,-4],[-15,-12],[-12,-3],[-4,-3]],[[2219,686],[-3,12],[-2,3]],[[2214,701],[-10,13]],[[2220,682],[16,14]],[[2236,696],[1,1],[6,3],[13,3],[11,5],[13,7],[8,-1],[6,-5],[15,2],[7,8],[20,6],[6,5],[7,7],[8,5],[21,21],[12,7],[4,8],[0,10],[5,6],[12,3],[10,5],[6,11],[5,1],[9,7],[1,4]],[[2220,682],[-1,4]],[[2214,668],[2,7],[4,7]],[[1127,1186],[6,-15],[9,-18],[12,-19],[7,-15]],[[1161,1119],[6,-13],[5,-14],[18,-39],[14,-22],[4,-11],[11,-16],[13,-28],[14,-27],[10,-20],[14,-22],[6,-14],[13,-24],[6,-9],[9,-13],[11,-14],[3,-8],[6,-42],[7,-24],[8,-33],[3,-11],[6,-14],[-2,-9],[-9,-14],[0,-5],[3,-9]],[[2867,693],[-21,-9],[-6,-5],[-33,-25],[-15,-6],[-10,-11],[-14,-2],[-12,-9],[-3,-6]],[[2753,620],[-4,-8],[-6,-3],[-15,1],[-5,-1]],[[2981,585],[-1,6],[3,15],[0,11],[-3,6],[1,9],[-1,5],[6,16],[3,12],[5,8],[7,2],[17,11],[10,9],[6,11]],[[2723,609],[-9,-7],[-9,0],[-7,-9],[-3,-8],[-6,-5],[-9,0],[-21,0],[-11,0]],[[2220,682],[12,-6],[9,0],[4,-2]],[[2245,674],[4,-2],[12,-4],[13,-7],[11,-11],[10,-7],[15,-6],[14,-5],[15,0],[7,-4],[5,-16],[4,-10],[15,-17],[12,-9],[2,-5]],[[2201,650],[4,1],[6,11],[3,6]],[[1936,554],[21,-2],[15,0],[11,-1],[10,-5],[21,-2],[12,8],[14,3],[7,4],[8,7],[10,5],[12,-3],[11,1],[12,4],[11,4],[6,3],[4,13],[6,5],[11,4],[15,11],[31,29],[9,6],[8,2]],[[2648,580],[-10,-4],[-30,-7],[-24,-6],[-20,-8],[-12,-1],[-10,1],[-13,-1],[-10,0],[-36,-11],[-11,-5],[-9,0],[-9,6],[-13,18],[-9,7],[-15,0],[-6,-3],[-6,0],[-8,3],[-13,2]],[[3018,433],[6,8],[3,6],[-2,5],[-7,8],[-5,17],[-13,12],[-9,18],[-11,15],[-5,11],[-1,8],[3,14],[0,10],[3,12],[1,8]],[[1340,664],[8,-5],[27,-8],[4,-5],[5,-6],[4,-16],[0,-9],[6,-16],[3,-6],[15,-6],[3,-3],[6,-15],[3,-17],[3,-6],[5,-6],[7,-3],[2,-2]],[[1441,535],[4,-5],[14,-17],[6,-11],[6,-3],[9,0],[15,-3],[21,-2],[13,-5],[54,-22],[26,-12],[24,-9],[23,-16],[12,-5],[21,-6],[6,-5],[13,-5]],[[2384,571],[1,-3],[-4,-13],[-9,-29],[-6,-22],[0,-10],[6,-9],[-6,-21],[-2,-11],[2,-7],[6,-10],[1,-9],[2,-10],[-8,-20],[2,-8],[1,-5]],[[2370,384],[3,-11],[5,-6],[6,-3]],[[2384,364],[15,-3],[13,1],[26,-1],[13,-5],[11,0],[19,-19],[8,-3],[9,2]],[[1708,409],[18,-12],[12,-14],[12,-11],[8,-3],[12,-8],[7,-10],[9,-6],[5,-6],[10,-25],[5,-8]],[[1827,295],[12,9],[10,18],[5,15],[1,10],[12,34],[0,10],[6,28],[-1,12],[-8,15],[-6,15],[3,14],[6,10],[8,9],[1,8],[0,14],[5,6],[13,2],[11,11],[3,3],[16,3],[12,13]],[[3000,273],[7,39],[0,10],[-1,14],[-6,15],[-2,8],[2,10],[7,18],[5,13],[1,14],[-1,11],[6,8]],[[3000,270],[0,3]],[[2989,210],[9,11],[-1,21],[3,28]],[[2498,336],[4,-3],[14,-7],[26,-33],[7,-8],[20,-23],[12,-16],[6,-9],[10,-11],[6,-5],[21,-27],[11,-9]],[[2948,149],[8,17],[6,11],[19,24],[8,9]],[[1761,9],[4,7],[3,7],[3,24],[0,36],[2,9],[3,10],[9,17],[12,27],[4,19],[5,15],[6,11],[6,11],[6,16],[6,22],[3,14],[3,19],[-2,9],[-7,13]],[[1755,3],[6,6]],[[2816,0],[5,3],[4,5],[21,15],[26,22],[31,29],[6,11],[6,14],[15,17],[11,11],[4,11],[3,11]],[[2635,185],[3,-3],[6,-14],[9,-11],[13,-14],[8,-10],[12,-23],[1,-8],[2,-14],[0,-5],[-5,-11],[3,-17],[-1,-10],[1,-9],[9,-16],[5,-15],[2,-5]],[[1753,0],[2,3]],[[0,4096],[4096,0],[0,-4096],[-2289,0],[-1807,0],[0,2821],[0,1275]],[[3374,3783],[48,57],[-11,30],[78,70],[-4,48],[92,8],[100,-75],[-114,-179],[-24,-80],[-63,11],[-102,110]],[[2415,2325],[159,61],[2,-149],[72,23],[-42,-41],[28,-67],[-151,42],[25,50],[-93,81]],[[0,1568],[327,68],[6,-3],[-44,-133],[-289,-44],[0,112]],[[3050,3122],[6,102],[37,4],[88,209],[52,13],[11,87],[47,76],[44,27],[99,-31],[60,-69],[-35,-84],[54,-58],[-77,17],[-47,-52],[-25,5],[-36,-97],[-38,-33],[-10,-81],[-160,-58],[-70,23]],[[3597,3503],[76,111],[82,-32],[15,-127],[-29,-59],[-98,-27],[-40,38],[-6,96]],[[3210,77],[63,9],[-2,30],[96,46],[79,136],[14,-17],[97,37],[49,-77],[-217,-241],[-132,0],[14,9],[-61,68]],[[3389,0],[218,239],[146,-70],[-172,-169],[-192,0]],[[2570,2371],[13,21],[108,13],[-31,-75],[9,-51],[-28,-28],[-65,-14],[-6,134]],[[3795,3263],[30,60],[5,117],[-30,51],[51,64],[37,-15],[39,34],[2,-116],[24,-38],[-53,-104],[-105,-53]],[[2951,3645],[6,20],[57,-1],[-3,44],[35,9],[-30,78],[113,-80],[8,-50],[-60,11],[5,-52],[-94,-82],[-37,103]],[[204,1754],[10,53],[75,105],[134,-2],[72,-119],[-108,-142],[-48,-10],[-72,36],[-63,79]],[[20,1122],[10,2],[22,-41],[109,21],[60,-43],[66,16],[169,-23],[33,29],[14,-90],[-72,0],[-28,-70],[-27,-4],[-53,56],[-37,-32],[-10,-54],[-211,80],[-18,36],[25,31],[-46,43],[-6,43]],[[2254,653],[-52,-5],[-31,39],[60,19],[23,-53]],[[3172,1577],[-44,-54],[9,-34],[-27,-5],[-10,34],[-36,10],[-8,46],[35,26],[42,15],[39,-38]],[[2079,2509],[39,9],[48,0],[-18,-58],[-46,-29],[-23,78]],[[4096,3074],[0,-63],[-20,5],[19,58],[1,0]],[[2217,3441],[33,-16],[9,-42],[-40,15],[-2,43]],[[2065,3504],[41,-24],[-9,-39],[-31,21],[-1,42]],[[1838,3929],[-6,-34],[-31,-9],[-2,38],[39,5]],[[641,648],[61,22],[115,-42],[137,26],[3,-232],[-211,0],[-7,66],[-45,0],[40,92],[-49,10],[-44,58]],[[1858,1591],[185,87],[35,1],[-71,-179],[-29,-5],[-10,40],[-84,0],[-26,56]],[[2006,1496],[36,72],[136,56],[12,-38],[-36,-76],[-77,-86],[-55,7],[6,46],[-22,19]],[[1092,1119],[0,100],[108,-5],[70,-95],[-178,0]],[[611,1362],[140,83],[58,78],[-3,-109],[-62,-100],[-133,48]],[[1193,1265],[138,50],[97,-36],[34,24],[91,-12],[255,-210],[-3,-37],[-88,-45],[-103,-8],[-84,-210],[-29,3],[-22,38],[-85,45],[-6,34],[-53,13],[-74,165],[8,51],[-58,52],[-18,83]],[[988,2414],[46,95],[-8,62],[53,58],[-13,63],[58,123],[-16,130],[26,46],[237,-17],[48,-43],[-21,-50],[23,-7],[6,-66],[52,39],[77,-145],[-4,-30],[-96,1],[-38,-34],[-131,44],[-46,-12],[44,-37],[-32,-49],[33,-264],[-28,-76],[46,-54],[-18,-193],[-128,47],[-2,143],[-63,1],[-63,54],[24,116],[-40,-6],[-26,61]],[[503,993],[1,405],[240,-84],[62,100],[8,129],[82,38],[17,-19],[49,11],[-24,-169],[39,-86],[-90,15],[-33,-213],[-296,-1],[-55,-126]],[[0,2353],[91,-109],[117,-17],[59,-43],[95,-145],[156,65],[31,54],[-19,145],[46,91],[233,84],[7,62],[75,22],[-30,62],[16,73],[75,-14],[77,38],[29,45],[-16,33],[-80,-18],[-57,15],[-3,33],[56,78],[-10,31],[-40,9],[19,23],[72,58],[48,8],[73,85],[172,10],[48,-93],[61,-10],[-22,46],[37,24],[-13,48],[26,55],[74,59],[-27,61],[10,47],[42,-3],[31,-67],[84,90],[88,-33],[64,-391],[-84,-84],[-231,-34],[69,-109],[-4,-79],[45,-32],[1,-50],[-43,-51],[44,-21],[-100,-95],[-127,-45],[-10,-39],[-71,21],[-28,-83],[48,-72],[4,31],[73,-30],[37,20],[52,-46],[-10,-178],[-68,-22],[11,-57],[43,-28],[-20,-47],[22,-43],[-97,-203],[176,-117],[127,45],[222,313],[88,86],[337,163],[49,-6],[49,64],[62,5],[39,-26],[12,-42],[-29,-36],[28,-43],[-51,-44],[-13,16],[-48,-22],[28,-138],[-72,-53],[-6,-51],[-44,3],[66,-165],[-28,-37],[-113,70],[-71,-102],[-13,-125],[-101,-2],[-37,25],[-170,-31],[-37,-113],[90,-40],[87,-94],[101,-51],[-259,-219],[49,-88],[-6,-26],[-39,28],[-23,-22],[14,-20],[-28,-44],[-39,-22],[-31,78],[-64,31],[-132,-66],[-152,-255],[12,-93],[23,0],[21,-51],[-113,-32],[-199,-2],[-38,2],[1,43],[-67,0],[-1,-58],[-43,-24],[-236,-3],[26,78],[-66,23],[-25,59],[24,19],[3,103],[47,103],[-53,8],[-44,65],[-39,9],[-57,-43],[-39,3],[-1,-30],[-179,12],[-61,-144],[-185,-33],[7,88],[-65,-12],[27,108],[-49,52],[0,1688]],[[108,0],[0,359],[125,0],[271,-1],[273,-358],[-669,0]],[[2425,2403],[66,50],[-12,50],[-52,48],[68,33],[80,-29],[20,-35],[119,51],[16,-39],[66,-31],[6,-108],[-138,17],[-172,-42],[-67,35]],[[2143,1861],[23,29],[-10,60],[22,-6],[22,35],[47,3],[51,-61],[9,-41],[-33,-1],[-94,-78],[-37,60]]]}