{"objects":{"water":{"type":"GeometryCollection","geometries":[{"type":"MultiPolygon","properties":{"sort_rank":200,"source":"naturalearthdata.com","min_zoom":0.0,"kind":"lake","area":47471912627},"arcs":[[[325]],[[326]],[[327],[328]],[[329]],[[330]],[[331]],[[332]],[[333]],[[334]],[[335]],[[336]],[[337]],[[338]],[[339]],[[340]],[[341]],[[342]],[[343]],[[344]],[[345]]]},{"type":"MultiPolygon","properties":{"source":"naturalearthdata.com","kind":"lake","name":"Pijnne","area":19294957568,"sort_rank":200,"min_zoom":0.0,"id":491},"arcs":[[[346]],[[347]]]},{"type":"MultiPolygon","properties":{"source":"naturalearthdata.com","kind":"ocean","area":1576712559132672,"sort_rank":200,"min_zoom":0.0,"id":1},"arcs":[[[348]],[[349],[350],[351],[352],[353],[354],[355],[356],[357],[358],[359],[360],[361],[362],[363],[364],[365],[366],[367],[368],[369],[370],[371],[372],[373],[374],[375],[376],[377],[378],[379],[380],[381],[382],[383],[384],[385],[386],[387],[388],[389]]]},{"type":"MultiPolygon","properties":{"source":"naturalearthdata.com","kind":"lake","name":"Lake Saimaa","area":42419965952,"sort_rank":200,"min_zoom":0.0,"id":485},"arcs":[[[390],[391],[392],[393],[394],[395]],[[396]],[[397]],[[398]]]},{"type":"Polygon","properties":{"source":"naturalearthdata.com","kind":"lake","name":"Lake Peipus","area":10219008000,"sort_rank":200,"min_zoom":0.0,"id":502},"arcs":[[399],[400]]},{"type":"Polygon","properties":{"kind":"lake","name":"Lake Il'Men'","reservoir":true,"area":3236982528,"sort_rank":200,"source":"naturalearthdata.com","min_zoom":0.0,"id":1063},"arcs":[[401]]},{"type":"Polygon","properties":{"source":"naturalearthdata.com","kind":"lake","name":"Pskoyskoye Ozero","area":2952729344,"sort_rank":200,"min_zoom":0.0,"id":495},"arcs":[[402]]},{"type":"MultiPolygon","properties":{"source":"naturalearthdata.com","kind":"lake","name":"Lake Ladoga","area":74210271232,"sort_rank":200,"min_zoom":0.0,"id":473},"arcs":[[[403],[404],[405],[406],[407],[408],[409],[410],[411],[412]]]},{"type":"Polygon","properties":{"source":"naturalearthdata.com","kind":"lake","name":"Pyhjrvi","area":4755436032,"sort_rank":200,"min_zoom":0.0,"id":554},"arcs":[[413]]},{"type":"Polygon","properties":{"source":"naturalearthdata.com","kind":"lake","name":"V\u00f5rtsj\u00e4rv","area":994452864,"sort_rank":200,"min_zoom":0.0,"id":587},"arcs":[[414]]},{"type":"Point","properties":{"label_placement":true,"kind":"lake","name":"Lake Ladoga","area":74210271232,"sort_rank":200,"source":"naturalearthdata.com","min_zoom":0.0,"id":473},"coordinates":[3332,3567]},{"type":"Point","properties":{"label_placement":true,"kind":"lake","name":"Lake Peipus","area":10219008000,"sort_rank":200,"source":"naturalearthdata.com","min_zoom":0.0,"id":502},"coordinates":[1817,2004]},{"type":"Point","properties":{"label_placement":true,"kind":"lake","name":"Lake Il'Men'","reservoir":true,"area":3236982528,"sort_rank":200,"source":"naturalearthdata.com","min_zoom":0.0,"id":1063},"coordinates":[3210,1784]},{"type":"Point","properties":{"label_placement":true,"kind":"lake","name":"Pskoyskoye Ozero","area":2952729344,"sort_rank":200,"source":"naturalearthdata.com","min_zoom":0.0,"id":495},"coordinates":[1946,1596]},{"type":"Point","properties":{"label_placement":true,"kind":"lake","name":"V\u00f5rtsj\u00e4rv","area":994452864,"sort_rank":200,"source":"naturalearthdata.com","min_zoom":0.0,"id":587},"coordinates":[1295,1745]},{"type":"LineString","properties":{"source":"naturalearthdata.com","kind":"ocean","sort_rank":205,"boundary":true,"min_zoom":0.0,"id":48},"arcs":[415]},{"type":"MultiLineString","properties":{"source":"naturalearthdata.com","kind":"ocean","sort_rank":205,"boundary":true,"min_zoom":0.0,"id":49},"arcs":[[416],[417]]},{"type":"MultiLineString","properties":{"source":"naturalearthdata.com","kind":"lake","sort_rank":367,"boundary":true,"min_zoom":0.0,"id":473},"arcs":[[418],[419],[420],[421],[422],[423],[424],[425],[426],[427],[428],[429],[430]]},{"type":"MultiLineString","properties":{"source":"naturalearthdata.com","kind":"lake","sort_rank":367,"boundary":true,"min_zoom":0.0,"id":485},"arcs":[[431],[432],[433],[434],[435],[436],[437],[438],[439],[440],[441],[442],[443],[444],[445]]},{"type":"MultiLineString","properties":{"source":"naturalearthdata.com","kind":"lake","sort_rank":367,"boundary":true,"min_zoom":0.0,"id":491},"arcs":[[446],[447],[448]]},{"type":"LineString","properties":{"source":"naturalearthdata.com","kind":"lake","sort_rank":367,"boundary":true,"min_zoom":0.0,"id":495},"arcs":[449]},{"type":"MultiLineString","properties":{"source":"naturalearthdata.com","kind":"lake","sort_rank":367,"boundary":true,"min_zoom":0.0,"id":502},"arcs":[[450],[451]]},{"type":"LineString","properties":{"source":"naturalearthdata.com","kind":"lake","sort_rank":367,"boundary":true,"min_zoom":0.0,"id":508},"arcs":[452]},{"type":"LineString","properties":{"source":"naturalearthdata.com","kind":"lake","sort_rank":367,"boundary":true,"min_zoom":0.0,"id":529},"arcs":[453]},{"type":"LineString","properties":{"source":"naturalearthdata.com","kind":"lake","sort_rank":367,"boundary":true,"min_zoom":0.0,"id":551},"arcs":[454]},{"type":"MultiLineString","properties":{"source":"naturalearthdata.com","kind":"lake","sort_rank":367,"boundary":true,"min_zoom":0.0,"id":553},"arcs":[[455],[456]]},{"type":"MultiLineString","properties":{"source":"naturalearthdata.com","kind":"lake","sort_rank":367,"boundary":true,"min_zoom":0.0,"id":554},"arcs":[[457],[458],[459]]},{"type":"LineString","properties":{"source":"naturalearthdata.com","kind":"lake","sort_rank":367,"boundary":true,"min_zoom":0.0,"id":555},"arcs":[460]},{"type":"MultiLineString","properties":{"source":"naturalearthdata.com","kind":"lake","sort_rank":367,"boundary":true,"min_zoom":0.0,"id":558},"arcs":[[461],[462],[463]]},{"type":"LineString","properties":{"source":"naturalearthdata.com","kind":"lake","sort_rank":367,"boundary":true,"min_zoom":0.0,"id":587},"arcs":[464]},{"type":"MultiLineString","properties":{"source":"naturalearthdata.com","kind":"lake","sort_rank":367,"boundary":true,"min_zoom":0.0,"id":635},"arcs":[[465],[466]]},{"type":"LineString","properties":{"source":"naturalearthdata.com","kind":"lake","sort_rank":367,"boundary":true,"min_zoom":0.0,"id":641},"arcs":[467]},{"type":"LineString","properties":{"source":"naturalearthdata.com","kind":"lake","sort_rank":367,"boundary":true,"min_zoom":0.0,"id":642},"arcs":[468]},{"type":"LineString","properties":{"source":"naturalearthdata.com","kind":"lake","sort_rank":367,"boundary":true,"min_zoom":0.0,"id":952},"arcs":[469]},{"type":"LineString","properties":{"source":"naturalearthdata.com","kind":"lake","sort_rank":367,"boundary":true,"min_zoom":0.0,"id":955},"arcs":[470]},{"type":"LineString","properties":{"source":"naturalearthdata.com","kind":"lake","sort_rank":367,"boundary":true,"min_zoom":0.0,"id":956},"arcs":[471]},{"type":"LineString","properties":{"source":"naturalearthdata.com","kind":"lake","sort_rank":367,"boundary":true,"min_zoom":0.0,"id":961},"arcs":[472]},{"type":"LineString","properties":{"source":"naturalearthdata.com","kind":"lake","sort_rank":367,"boundary":true,"min_zoom":0.0,"id":1027},"arcs":[473]},{"type":"LineString","properties":{"source":"naturalearthdata.com","kind":"lake","sort_rank":367,"boundary":true,"min_zoom":0.0,"id":1028},"arcs":[474]},{"type":"MultiLineString","properties":{"source":"naturalearthdata.com","kind":"lake","sort_rank":367,"boundary":true,"min_zoom":0.0,"id":1029},"arcs":[[475],[476]]},{"type":"LineString","properties":{"source":"naturalearthdata.com","kind":"lake","sort_rank":367,"boundary":true,"min_zoom":0.0,"id":1031},"arcs":[477]},{"type":"LineString","properties":{"source":"naturalearthdata.com","kind":"lake","sort_rank":367,"boundary":true,"min_zoom":0.0,"id":1033},"arcs":[478]},{"type":"LineString","properties":{"source":"naturalearthdata.com","kind":"lake","sort_rank":367,"boundary":true,"min_zoom":0.0,"id":1034},"arcs":[479]},{"type":"LineString","properties":{"source":"naturalearthdata.com","kind":"lake","reservoir":true,"sort_rank":367,"boundary":true,"min_zoom":0.0,"id":1063},"arcs":[480]},{"type":"LineString","properties":{"source":"naturalearthdata.com","kind":"ocean","sort_rank":205,"boundary":true,"min_zoom":0.0,"id":1275},"arcs":[481]},{"type":"MultiLineString","properties":{"source":"naturalearthdata.com","kind":"ocean","sort_rank":205,"boundary":true,"min_zoom":0.0,"id":1276},"arcs":[[482],[483],[484]]},{"type":"LineString","properties":{"source":"naturalearthdata.com","kind":"ocean","sort_rank":205,"boundary":true,"min_zoom":0.0,"id":1277},"arcs":[485]},{"type":"LineString","properties":{"source":"naturalearthdata.com","kind":"ocean","sort_rank":205,"boundary":true,"min_zoom":0.0,"id":1690},"arcs":[486]},{"type":"LineString","properties":{"source":"naturalearthdata.com","kind":"ocean","sort_rank":205,"boundary":true,"min_zoom":0.0,"id":1695},"arcs":[487]},{"type":"LineString","properties":{"source":"naturalearthdata.com","kind":"ocean","sort_rank":205,"boundary":true,"min_zoom":0.0,"id":1696},"arcs":[488]},{"type":"LineString","properties":{"source":"naturalearthdata.com","kind":"ocean","sort_rank":205,"boundary":true,"min_zoom":0.0,"id":1704},"arcs":[489]},{"type":"LineString","properties":{"source":"naturalearthdata.com","kind":"ocean","sort_rank":205,"boundary":true,"min_zoom":0.0,"id":1705},"arcs":[490]},{"type":"LineString","properties":{"source":"naturalearthdata.com","kind":"ocean","sort_rank":205,"boundary":true,"min_zoom":0.0,"id":1707},"arcs":[491]},{"type":"LineString","properties":{"source":"naturalearthdata.com","kind":"ocean","sort_rank":205,"boundary":true,"min_zoom":0.0,"id":1710},"arcs":[492]},{"type":"LineString","properties":{"source":"naturalearthdata.com","kind":"ocean","sort_rank":205,"boundary":true,"min_zoom":0.0,"id":1711},"arcs":[493]},{"type":"LineString","properties":{"source":"naturalearthdata.com","kind":"ocean","sort_rank":205,"boundary":true,"min_zoom":0.0,"id":1712},"arcs":[494]},{"type":"LineString","properties":{"source":"naturalearthdata.com","kind":"ocean","sort_rank":205,"boundary":true,"min_zoom":0.0,"id":1718},"arcs":[495]},{"type":"LineString","properties":{"source":"naturalearthdata.com","kind":"ocean","sort_rank":205,"boundary":true,"min_zoom":0.0,"id":1985},"arcs":[496]},{"type":"LineString","properties":{"source":"naturalearthdata.com","kind":"ocean","sort_rank":205,"boundary":true,"min_zoom":0.0,"id":1986},"arcs":[497]},{"type":"LineString","properties":{"source":"naturalearthdata.com","kind":"ocean","sort_rank":205,"boundary":true,"min_zoom":0.0,"id":1987},"arcs":[498]},{"type":"LineString","properties":{"source":"naturalearthdata.com","kind":"ocean","sort_rank":205,"boundary":true,"min_zoom":0.0,"id":1988},"arcs":[499]},{"type":"MultiLineString","properties":{"source":"naturalearthdata.com","kind":"ocean","sort_rank":205,"boundary":true,"min_zoom":0.0,"id":1989},"arcs":[[500],[501]]},{"type":"LineString","properties":{"source":"naturalearthdata.com","kind":"ocean","sort_rank":205,"boundary":true,"min_zoom":0.0,"id":3456},"arcs":[502]},{"type":"LineString","properties":{"source":"naturalearthdata.com","kind":"ocean","sort_rank":205,"boundary":true,"min_zoom":0.0,"id":3626},"arcs":[503]},{"type":"Point","properties":{"label_placement":true,"kind":"sea","name":"Suomenlahti","source":"openstreetmap.org","sort_rank":200,"min_zoom":3.0,"id":305639199},"coordinates":[1264,2936]}]},"buildings":{"type":"GeometryCollection","geometries":[]},"places":{"type":"GeometryCollection","geometries":[{"type":"Point","properties":{"name:pt":"Let\u00f4nia","name:cy":"Latfia","name:mt":"Latvja","name:ko":"\ub77c\ud2b8\ube44\uc544","name:kn":"\u0cb2\u0cbe\u0c9f\u0ccd\u0cb5\u0cbf\u0caf\u0cbe","name:km":"\u17a1\u17b6\u178f\u179c\u17b8\u1799\u17c9\u17b6","name:kl":"Letlandi","name:cs":"Loty\u0161sko","alt_name:eo":"Latvio","name:ki":"Lativia","name:ku":"Letonya","name:ti":"\u120b\u1275\u126a\u12eb","name:ks":"\u0644\u06cc\u065b\u0679\u0648\u0650\u06cc\u0627","name:to":"Lativia","name:sv":"Lettland","name:or":"\u0b32\u0b3e\u0b1f\u0b2d\u0b3f\u0b06","name:pl":"\u0141otwa","name:ta":"\u0bb2\u0bbe\u0b9f\u0bcd\u0bb5\u0bbf\u0baf\u0bbe","name:tg":"\u041b\u0430\u0442\u0432\u0438\u044f","name:ca":"Let\u00f2nia","name:te":"\u0c32\u0c3e\u0c1f\u0c4d\u0c35\u0c3f\u0c2f","name:hu":"Lettorsz\u00e1g","name:ka":"\u10da\u10d0\u10e2\u10d5\u10d8\u10d0","name:da":"Letland","name:de":"Lettland","name:dz":"\u0f63\u0f4a\u0f0b\u0f56\u0f72\u0f0b\u0f61","source":"openstreetmap.org","name:ro":"Letonia","name:tr":"Letonya","name:uz":"Latviya","name:kk":"\u041b\u0430\u0442\u0432\u0438\u044f","name:he":"\u05dc\u05d8\u05d1\u05d9\u05d4","kind":"country","name:ur":"\u0644\u0679\u0648\u06cc\u0627","name:lb":"Lettland","name:la":"Latvia","name:lg":"Lativya","name:uk":"\u041b\u0430\u0442\u0432\u0456\u044f","name:hy":"\u053c\u0561\u057f\u057e\u056b\u0561","min_zoom":2.0,"name:li":"Letland","name:ln":"Letoni","name:lo":"\u0ea5\u0ebc\u0eb2\u0e94\u0ec0\u0ea7\u0e8d","population":2027000,"name:el":"\u039b\u03b5\u03c4\u03c4\u03bf\u03bd\u03af\u03b1","name:eo":"Latvujo","name:en":"Latvia","name":"Latvija","official_name":"Latvijas Republika","name:ee":"Latvia nutome","name:th":"\u0e1b\u0e23\u0e30\u0e40\u0e17\u0e28\u0e25\u0e31\u0e15\u0e40\u0e27\u0e35\u0e22","name:gu":"\u0ab2\u0abe\u0aa4\u0acd\u0ab5\u0abf\u0aaf\u0abe","name:eu":"Letonia","name:et":"L\u00e4ti","name:nl":"Letland","name:es":"Letonia","name:ia":"Lettonia","name:rm":"Lettonia","name:rn":"Lativa","name:az":"Latviya","name:id":"Latvia","name:ms":"Latvia","name:mr":"\u0932\u093e\u091f\u094d\u200c\u0935\u093f\u092f\u093e","name:ar":"\u0644\u0627\u062a\u0641\u064a\u0627","name:my":"\u101c\u1010\u103a\u1017\u102e\u1038\u101a\u102c\u1038","name:io":"Latvia","int_name":"Latvia","name:is":"Lettland","name:am":"\u120b\u1275\u126a\u12eb","name:it":"Lettonia","name:vi":"Latvia","name:ru":"\u041b\u0430\u0442\u0432\u0438\u044f","name:mn":"\u041b\u0430\u0442\u0432\u0438","id":432425019,"name:mk":"\u041b\u0430\u0442\u0432\u0438\u0458\u0430","name:af":"Letland","name:zu":"i-Latvia","name:ha":"latibiya","name:nn":"Latvia","name:ff":"Letonii","name:fi":"Latvia","name:hi":"\u0932\u093e\u0924\u094d\u0935\u093f\u092f\u093e","name:mg":"Letonia","name:fo":"Lettland","name:fr":"Lettonie","name:fy":"Letl\u00e2n","name:vo":"Latviy\u00e4n","name:zh":"\u62c9\u8131\u7ef4\u4e9a","name:gv":"Yn Latvey","name:so":"Latfiya","name:sn":"Latvia","name:sk":"Loty\u0161sko","name:ja":"\u30e9\u30c8\u30d3\u30a2","name:si":"\u0dbd\u0dd0\u0da7\u0dca\u0dc0\u0dd2\u0dba\u0dcf\u0dc0","name:fa":"\u0644\u062a\u0648\u0646\u06cc","name:sg":"Leton\u00f9ii","name:se":"L\u00e1tvia","name:ne":"\u0932\u093e\u091f\u094d\u092d\u093f\u092f\u093e","name:br":"Latvia","name:bs":"Letonija","name:bm":"Letoni","name:bn":"\u09b2\u09be\u09a4\u09cd\u09ad\u09bf\u09af\u09bc\u09be","name:bo":"\u0f63\u0f4f\u0f0b\u0f56\u0f72\u0f0b\u0f61\u0f0d","name:ml":"\u0d32\u0d3e\u0d24\u0d4d\u0d35\u0d3f\u0d2f","name:no":"Latvia","name:sw":"Lativia","name:be":"\u041b\u0430\u0442\u0432\u0456\u044f","name:bg":"\u041b\u0430\u0442\u0432\u0438\u044f","name:sr":"\u041b\u0435\u0442\u043e\u043d\u0438\u0458\u0430","name:sq":"Letoni","name:ga":"An Laitvia","name:gd":"An Laitbhe","name:gl":"Letonia","name:yo":"Or\u00edl\u1eb9\u0301\u00e8de Latifia","name:ak":"Latvia"},"coordinates":[821,748]},{"type":"Point","properties":{"name:pt":"Est\u00f4nia","name:cy":"Estonia","name:mt":"Estonja","name:ko":"\uc5d0\uc2a4\ud1a0\ub2c8\uc544","name:kn":"\u0c8e\u0cb8\u0ccd\u0ca4\u0cca\u0ca8\u0cbf\u0caf","name:km":"\u17a2\u17c1\u179f\u17d2\u178f\u17bc\u1793\u17b8","name:kl":"Estlandi","name:cs":"Estonsko","alt_name:eo":"Estonio","name:ki":"Estonia","name:tr":"Estonya","name:ku":"Estonya","name:ti":"\u12a4\u1235\u1276\u1292\u12eb","name:ks":"\u0627\u06cc\u0633\u0679\u0648\u0646\u0650\u06cc\u0627","name:to":"\u02bbEsit\u014dnia","name:tl":"Estonya","name:sv":"Estland","name:or":"\u0b0f\u0b38\u0b4d\u0b24\u0b4b\u0b28\u0b3f\u0b06","name:pl":"Estonia","name:ta":"\u0b8e\u0bb8\u0bcd\u0b9f\u0bcb\u0ba9\u0bbf\u0baf\u0bbe","name:ca":"Est\u00f2nia","name:te":"\u0c0e\u0c38\u0c4d\u0c1f\u0c4b\u0c28\u0c3f\u0c2f\u0c3e","name:hu":"\u00c9sztorsz\u00e1g","name:ro":"Estonia","name:ka":"\u10d4\u10e1\u10e2\u10dd\u10dc\u10d4\u10d7\u10d8","name:hr":"Estonija","name:da":"Estland","name:de":"Estland","name:dz":"\u0f68\u0f7a\u0f66\u0f0b\u0f4a\u0f7c\u0f0b\u0f53\u0f72\u0f0b\u0f61","source":"openstreetmap.org","name:lv":"Igaunija","name:lt":"Estija","name:uz":"Estoniya","name:he":"\u05d0\u05e1\u05d8\u05d5\u05e0\u05d9\u05d4","kind":"country","name:ur":"\u0627\u0633\u0679\u0648\u0646\u06cc\u0627","name:lb":"Estland","name:la":"Estonia","name:lg":"Esitoniya","name:uk":"\u0415\u0441\u0442\u043e\u043d\u0456\u044f","name:hy":"\u0537\u057d\u057f\u0578\u0576\u056b\u0561","min_zoom":2.0,"name:li":"Esland","name:ln":"Esitoni","name:lo":"\u0ec0\u0ead\u0eaa\u0ec2\u0e95\u0ec0\u0e99\u0e8d","population":1307605,"name:el":"\u0395\u03c3\u03b8\u03bf\u03bd\u03af\u03b1","name:eo":"Estonujo","name:en":"Estonia","name":"Eesti","official_name":"Eesti Vabariik","name:ee":"Estonia nutome","name:th":"\u0e1b\u0e23\u0e30\u0e40\u0e17\u0e28\u0e40\u0e2d\u0e2a\u0e42\u0e15\u0e40\u0e19\u0e35\u0e22","name:gu":"\u0a8f\u0ab8\u0acd\u0a9f\u0acb\u0aa8\u0abf\u0aaf\u0abe","name:eu":"Estonia","name:nl":"Estland","name:es":"Estonia","name:ia":"Estonia","name:rm":"Estonia","name:rn":"Esitoniya","name:az":"Estoniya","name:id":"Estonia","name:ms":"Estonia","name:mr":"\u090f\u0938\u094d\u091f\u094b\u0928\u093f\u092f\u093e","name:ar":"\u0625\u0633\u062a\u0648\u0646\u064a\u0627","name:my":"\u1021\u1000\u103a\u1005\u1010\u102d\u102f\u1038\u1014\u102e\u1038\u101a\u102c\u1038","name:io":"Estonia","int_name":"Estonia","name:is":"Eistland","name:am":"\u12a4\u1235\u1276\u1292\u12eb","name:it":"Estonia","name:vi":"Estonia","name:ru":"\u042d\u0441\u0442\u043e\u043d\u0438\u044f","name:mn":"\u042d\u0441\u0442\u043e\u043d","id":424313832,"name:mk":"\u0415\u0441\u0442\u043e\u043d\u0438\u0458\u0430","name:af":"Estland","name:zu":"i-Estonia","name:ha":"Estoniya","name:nn":"Estland","name:ff":"Estoni","name:fi":"Viro","name:hi":"\u090f\u0938\u094d\u091f\u094b\u0928\u093f\u092f\u093e","name:mg":"Estonia","name:fo":"Estland","name:fr":"Estonie","name:fy":"Estl\u00e2n","name:vo":"Lestiy\u00e4n","name:zh":"\u7231\u6c99\u5c3c\u4e9a","name:gv":"Yn Estaan","name:so":"Estooniya","name:sn":"Estonia","name:sr":"\u0415\u0441\u0442\u043e\u043d\u0438\u0458\u0430","name:sl":"Estonija","name:sk":"Est\u00f3nsko","name:ja":"\u30a8\u30b9\u30c8\u30cb\u30a2","name:si":"\u0d91\u0dc3\u0dca\u0dad\u0ddd\u0db1\u0dd2\u0dba\u0dcf\u0dc0","name:fa":"\u0627\u0633\u062a\u0648\u0646\u06cc","name:sg":"Eston\u00efi","name:se":"Estl\u00e1nda","name:ne":"\u0907\u0938\u094d\u091f\u094b\u0928\u093f\u092f\u093e","name:br":"Estonia","name:bs":"Estonija","name:bm":"Esetoni","name:bn":"\u098f\u09b8\u09cd\u09a4\u09cb\u09a8\u09bf\u09af\u09bc\u09be","name:bo":"\u0f68\u0f72\u0f66\u0f9f\u0f7c\u0f0b\u0f53\u0f72\u0f0b\u0f61\u0f0d","name:ml":"\u0d0e\u0d38\u0d4d\u0d31\u0d4d\u0d31\u0d4b\u0d23\u0d3f\u0d2f\u200d","name:no":"Estland","name:sw":"Estonia","name:be":"\u042d\u0441\u0442\u043e\u043d\u0456\u044f","name:bg":"\u0415\u0441\u0442\u043e\u043d\u0438\u044f","name:ba":"\u042d\u0441\u0442\u043e\u043d\u0438\u044f","name:sq":"Estoni","name:ga":"An East\u00f3in","name:gd":"East\u00f2inia","name:gl":"Estonia","name:yo":"Or\u00edl\u1eb9\u0301\u00e8de Esitonia","name:ak":"\u0190stonia","name:tt":"\u042d\u0441\u0442\u043e\u043d\u0438\u044f"},"coordinates":[1031,2091]},{"type":"Point","properties":{"kind":"region","name:en":"Saint Petersburg","name":"\u0421\u0430\u043d\u043a\u0442-\u041f\u0435\u0442\u0435\u0440\u0431\u0443\u0440\u0433","kind_detail":"state","name:eo":"Sankt-Peterburgo","name:de":"Sankt Petersburg","source":"openstreetmap.org","min_zoom":4.0,"name:os":"\u0411\u0435\u0442\u044a\u044b\u0440\u0431\u0443\u0445","name:ab":"\u0421\u0430\u043d\u049b\u0442-\u041f\u0435\u0442\u0435\u0440\u0431\u0443\u0440\u0433","id":2050243275,"population":5000000},"coordinates":[2788,2940]},{"type":"Point","properties":{"source":"naturalearthdata.com","kind":"locality","name":"St. Petersburg","population":4553000,"region_capital":true,"min_zoom":4.0,"id":7139},"coordinates":[2845,2926]},{"type":"Point","properties":{"source":"naturalearthdata.com","kind":"locality","name":"Helsinki","country_capital":true,"population":1115000,"min_zoom":4.0,"id":7196},"coordinates":[886,3092]},{"type":"Point","properties":{"admin_level":"4","name:sr":"\u041d\u043e\u0432\u0433\u043e\u0440\u043e\u0434\u0441\u043a\u0430 \u043e\u0431\u043b\u0430\u0441\u0442","name:sk":"Novgorodsk\u00e1 oblas\u0165","name:ja":"\u30ce\u30f4\u30b4\u30ed\u30c9\u5dde","name:lt":"Novgorodo sritis","name:cs":"Novgorodsk\u00e1 oblast","kind":"region","min_zoom":4.0,"name:uk":"\u041d\u043e\u0432\u0433\u043e\u0440\u043e\u0434\u0441\u044c\u043a\u0430 \u043e\u0431\u043b\u0430\u0441\u0442\u044c","name:be":"\u041d\u0430\u045e\u0433\u0430\u0440\u043e\u0434\u0441\u043a\u0430\u044f \u0432\u043e\u0431\u043b\u0430\u0441\u0446\u044c","name:pl":"Obw\u00f3d nowogrodzki","name:hu":"Velikij Novgorod","name:hr":"Novgorodska oblast","id":533634715,"name:eo":"Novgoroda Provinco","name:en":"Novgorod Oblast","name":"\u041d\u043e\u0432\u0433\u043e\u0440\u043e\u0434\u0441\u043a\u0430\u044f \u043e\u0431\u043b\u0430\u0441\u0442\u044c","kind_detail":"state","name:de":"Oblast Nowgorod","source":"openstreetmap.org","name:fr":"Oblast de Novgorod","name:et":"Novgorodi oblast","name:es":"\u00d3blast de N\u00f3vgorod"},"coordinates":[3647,1762]},{"type":"Point","properties":{"kind":"region","name:en":"Leningrad Oblast","name":"\u041b\u0435\u043d\u0438\u043d\u0433\u0440\u0430\u0434\u0441\u043a\u0430\u044f \u043e\u0431\u043b\u0430\u0441\u0442\u044c","kind_detail":"state","name:eo":"Leningrada Provinco","name:de":"Oblast Leningrad","source":"openstreetmap.org","min_zoom":4.0,"name:fr":"Oblast de L\u00e9ningrad","name:be":"\u041b\u0435\u043d\u0456\u043d\u0433\u0440\u0430\u0434\u0441\u043a\u0430\u044f \u0432\u043e\u0431\u043b\u0430\u0441\u0446\u044c","name:et":"Leningradi oblast","name:pl":"Obw\u00f3d leningradzki","id":610739435,"name:es":"\u00d3blast de Leningrado"},"coordinates":[3398,3088]},{"type":"Point","properties":{"name:lt":"Pskovo sritis","name:eo":"Pskova Provinco","min_zoom":4.0,"name:uk":"\u041f\u0441\u043a\u043e\u0432\u0441\u044c\u043a\u0430 \u043e\u0431\u043b\u0430\u0441\u0442\u044c","name:be":"\u041f\u0441\u043a\u043e\u045e\u0441\u043a\u0430\u044f \u0432\u043e\u0431\u043b\u0430\u0441\u0446\u044c","name:pl":"Obw\u00f3d pskowski","id":610739454,"kind":"region","name:en":"Pskov Oblast","name":"\u041f\u0441\u043a\u043e\u0432\u0441\u043a\u0430\u044f \u043e\u0431\u043b\u0430\u0441\u0442\u044c","kind_detail":"state","name:de":"Oblast Pskow","source":"openstreetmap.org","name:fr":"Oblast de Pskov","name:et":"Pihkva oblast","name:es":"\u00d3blast de Pskov"},"coordinates":[2315,1236]},{"type":"Point","properties":{"kind":"region","name:en":"Panev\u0117\u017eys County","name":"Panev\u0117\u017eio apskritis","kind_detail":"state","min_zoom":4.0,"name:de":"Bezirk Ponewiesch","source":"openstreetmap.org","name:fr":"Apskritis de Panev\u0117\u017eys","name:uk":"\u041f\u0430\u043d\u0435\u0432\u0435\u0436\u0438\u0441\u044c\u043a\u0438\u0439 \u043f\u043e\u0432\u0456\u0442","name:be":"\u041f\u0430\u043d\u044f\u0432\u0435\u0436\u0441\u043a\u0456 \u043f\u0430\u0432\u0435\u0442","name:ru":"\u041f\u0430\u043d\u044f\u0432\u0435\u0436\u0441\u043a\u0438\u0439 \u0443\u0435\u0437\u0434","name:pl":"okr\u0119g poniewieski","id":864663247},"coordinates":[820,180]},{"type":"Point","properties":{"kind":"region","name:en":"\u0160iauliai County","name":"\u0160iauli\u0173 apskritis","kind_detail":"state","min_zoom":4.0,"name:de":"Bezirk Schaulen","source":"openstreetmap.org","name:fr":"Apskritis de \u0160iauliai","name:uk":"\u0428\u044f\u0443\u043b\u044f\u0439\u0441\u044c\u043a\u0438\u0439 \u043f\u043e\u0432\u0456\u0442","name:be":"\u0428\u0430\u045e\u043b\u044f\u0439\u0441\u043a\u0456 \u043f\u0430\u0432\u0435\u0442","name:ru":"\u0428\u044f\u0443\u043b\u044f\u0439\u0441\u043a\u0438\u0439 \u0443\u0435\u0437\u0434","name:pl":"okr\u0119g szawelski","id":1055351031},"coordinates":[299,30]},{"type":"Point","properties":{"name:ja":"\u30e9\u30c8\u30ac\u30ec","name:ka":"\u10da\u10d0\u10e2\u10d2\u10d0\u10da\u10d8\u10d0","name:ko":"\ub77c\ud2b8\uac08\ub808","name:he":"\u05dc\u05d8\u05d2\u05dc\u05d9\u05d4","min_zoom":4.0,"name:it":"Latgallia","name:uk":"\u041b\u0430\u0442\u0433\u0430\u043b\u0456\u044f","name:be":"\u041b\u0430\u0442\u0433\u0430\u043b\u0456\u044f","name:ru":"\u041b\u0430\u0442\u0433\u0430\u043b\u0438\u044f","name:pl":"\u0141atgalia","name:bg":"\u041b\u0430\u0442\u0433\u0430\u043b\u0435","name:lt":"Latgala","id":1629678533,"kind":"region","name":"Latgale","kind_detail":"state","name:da":"Letgallen","name:de":"Lettgallen","source":"openstreetmap.org","name:fr":"Latgalie"},"coordinates":[1685,313]},{"type":"Point","properties":{"kind":"region","name":"Vidzeme","name:lt":"Vid\u017eem\u0117","kind_detail":"state","min_zoom":4.0,"name:de":"Livland","source":"openstreetmap.org","name:fr":"Livonie","name:uk":"\u0412\u0456\u0434\u0437\u0435\u043c\u0435","name:be":"\u0412\u0456\u0434\u0437\u044d\u043c\u044d","name:ru":"\u0412\u0438\u0434\u0437\u0435\u043c\u0435","name:pl":"Liwonia","name:bg":"\u0412\u0438\u0434\u0437\u0435\u043c\u0435","id":1629678544,"name:ja":"\u30f4\u30a3\u30c9\u30bc\u30e1"},"coordinates":[1153,1070]},{"type":"Point","properties":{"name:pt":"Semigola","name:ja":"\u30bc\u30e0\u30ac\u30ec","name:lt":"\u017diemgala","min_zoom":4.0,"name:it":"Semgallia","name:uk":"\u0417\u0435\u043c\u0433\u0430\u043b\u0435","name:ru":"\u0417\u0435\u043c\u0433\u0430\u043b\u0435","name:sv":"Semgallen","name:pl":"Semigalia","id":1629678548,"kind":"region","name":"Zemgale","kind_detail":"state","name:de":"Semgallen","source":"openstreetmap.org","name:fr":"S\u00e9migalie","name:be":"\u0417\u044d\u043c\u0433\u0430\u043b\u044d","name:es":"Semigalia"},"coordinates":[873,584]},{"type":"Point","properties":{"source":"naturalearthdata.com","kind":"locality","name":"Riga","country_capital":true,"population":742572,"min_zoom":5.0,"id":6926},"coordinates":[583,824]},{"type":"Point","properties":{"source":"naturalearthdata.com","kind":"locality","name":"Tallinn","country_capital":true,"population":394024,"min_zoom":5.0,"id":6955},"coordinates":[811,2570]},{"type":"Point","properties":{"source":"naturalearthdata.com","kind":"locality","name":"Tampere","population":259279,"min_zoom":5.0,"id":6611},"coordinates":[455,4021]},{"type":"Point","properties":{"source":"naturalearthdata.com","kind":"locality","name":"Pskov","population":201990,"region_capital":true,"min_zoom":5.0,"id":6356},"coordinates":[2123,1443]}]},"transit":{"type":"GeometryCollection","geometries":[{"type":"LineString","properties":{"kind":"train","name":"S2 Helsinki - Tampere","service":"high_speed","sort_rank":275,"source":"openstreetmap.org","min_zoom":5.0,"operator":"VR","ref":"S2","osm_relation":true,"network":"VR"},"arcs":[308]},{"type":"MultiLineString","properties":{"kind":"train","network":"VR","service":"high_speed","sort_rank":275,"source":"openstreetmap.org","min_zoom":5.0,"operator":"VR","ref":"1","osm_relation":true,"name":"Helsinki - Turku"},"arcs":[[309],[310],[311],[312],[313],[314],[315],[316],[317],[318],[319],[320],[321],[322],[323]]},{"type":"LineString","properties":{"kind":"train","network":"VR","service":"high_speed","sort_rank":275,"source":"openstreetmap.org","min_zoom":5.0,"operator":"VR","ref":"S2","osm_relation":true,"name":"S2 Tampere - Helsinki"},"arcs":[324]}]},"pois":{"type":"GeometryCollection","geometries":[{"type":"Point","properties":{"kind":"national_park","protect_class":"2","area":2905620000,"source":"openstreetmap.org","min_zoom":5.04,"tier":1,"id":-7035107,"osm_relation":true,"name":"Lahemaa rahvuspark"},"coordinates":[1275,2674]},{"type":"Point","properties":{"kind":"national_park","name:en":"\u0136emeri National Park","protect_class":"2","area":1277180000,"name:de":"Nationalpark \u0136emeri","source":"openstreetmap.org","min_zoom":5.63,"tier":1,"name:ru":"\u041d\u0430\u0446\u0438\u043e\u043d\u0430\u043b\u044c\u043d\u044b\u0439 \u043f\u0430\u0440\u043a \u041a\u0435\u043c\u0435\u0440\u0438","id":206559717,"name":"\u0136emeru nacion\u0101lais parks"},"coordinates":[361,805]}]},"boundaries":{"type":"GeometryCollection","geometries":[{"type":"MultiLineString","properties":{"source":"naturalearthdata.com","kind":"country","sort_rank":262,"kind_detail":"2","min_zoom":0.0,"id":62},"arcs":[[0],[1],[2],[3]]},{"type":"MultiLineString","properties":{"source":"naturalearthdata.com","kind":"country","sort_rank":262,"kind_detail":"2","min_zoom":0.0,"id":234},"arcs":[[4],[5],[6],[7],[8],[9]]},{"type":"MultiLineString","properties":{"source":"naturalearthdata.com","kind":"country","sort_rank":262,"kind_detail":"2","min_zoom":0.0,"id":61},"arcs":[[10],[11],[12],[13],[14],[15],[16],[17],[18],[19],[20],[21],[22],[23],[24],[25],[26],[27],[28],[29],[30],[31]]},{"type":"MultiLineString","properties":{"source":"naturalearthdata.com","kind":"country","sort_rank":262,"kind_detail":"2","min_zoom":0.0,"id":63},"arcs":[[32],[33],[34],[35],[36],[37],[38],[39],[40],[41],[42],[43],[44],[45],[46],[47],[48],[49],[50],[51],[52],[53]]},{"type":"LineString","properties":{"source":"naturalearthdata.com","kind":"country","sort_rank":262,"kind_detail":"2","min_zoom":0.0,"id":122},"arcs":[54]},{"type":"MultiLineString","properties":{"source":"naturalearthdata.com","kind":"country","sort_rank":262,"kind_detail":"2","min_zoom":0.0,"id":236},"arcs":[[55],[56],[57],[58],[59],[60],[61],[62],[63],[64],[65]]},{"type":"MultiLineString","properties":{"source":"naturalearthdata.com","kind":"country","sort_rank":262,"kind_detail":"2","min_zoom":0.0,"id":398},"arcs":[[66],[67],[68],[69],[70],[71],[72]]},{"type":"MultiLineString","properties":{"source":"naturalearthdata.com","kind":"region","sort_rank":256,"kind_detail":"4","min_zoom":5.5,"id":7590},"arcs":[[73],[74],[75],[76],[77],[78],[79],[80]]},{"type":"LineString","properties":{"source":"naturalearthdata.com","kind":"region","sort_rank":256,"kind_detail":"4","min_zoom":5.5,"id":465},"arcs":[81]},{"type":"LineString","properties":{"source":"naturalearthdata.com","kind":"region","sort_rank":256,"kind_detail":"4","min_zoom":5.5,"id":466},"arcs":[82]},{"type":"MultiLineString","properties":{"source":"naturalearthdata.com","kind":"region","sort_rank":256,"kind_detail":"4","min_zoom":2.0,"id":6412},"arcs":[[83],[84],[85],[86],[87],[88],[89],[90],[91],[92],[93],[94],[95],[96],[97],[98],[99],[100],[101],[102],[103],[104],[105],[106],[107],[108],[109],[110],[111]]},{"type":"MultiLineString","properties":{"source":"naturalearthdata.com","kind":"region","sort_rank":256,"kind_detail":"4","min_zoom":2.0,"id":6523},"arcs":[[112],[113],[114],[115],[116],[117],[118],[119],[120],[121],[122],[123],[124],[125],[126],[127]]},{"type":"MultiLineString","properties":{"source":"naturalearthdata.com","kind":"region","sort_rank":256,"kind_detail":"4","min_zoom":2.0,"id":6476},"arcs":[[128],[129],[130],[131],[132],[133],[134],[135]]},{"type":"MultiLineString","properties":{"source":"naturalearthdata.com","kind":"region","sort_rank":256,"kind_detail":"4","min_zoom":2.0,"id":6478},"arcs":[[136],[137],[138],[139],[140],[141],[142],[143],[144],[145],[146],[147],[148],[149],[150],[151],[152],[153],[154],[155],[156],[157],[158],[159],[160],[161],[162],[163],[164],[165]]},{"type":"MultiLineString","properties":{"source":"naturalearthdata.com","kind":"region","sort_rank":256,"kind_detail":"4","min_zoom":2.0,"id":6515},"arcs":[[166],[167],[168],[169]]},{"type":"MultiLineString","properties":{"source":"naturalearthdata.com","kind":"region","sort_rank":256,"kind_detail":"4","min_zoom":2.0,"id":6521},"arcs":[[170],[171],[172],[173],[174],[175]]},{"type":"MultiLineString","properties":{"source":"naturalearthdata.com","kind":"region","sort_rank":256,"kind_detail":"4","min_zoom":2.0,"id":6522},"arcs":[[176],[177],[178],[179],[180],[181],[182],[183],[184],[185],[186],[187],[188]]},{"type":"MultiLineString","properties":{"source":"naturalearthdata.com","kind":"region","sort_rank":256,"kind_detail":"4","min_zoom":2.0,"id":6550},"arcs":[[189],[190],[191],[192],[193],[194],[195]]},{"type":"MultiLineString","properties":{"source":"naturalearthdata.com","kind":"region","sort_rank":256,"kind_detail":"4","min_zoom":5.5,"id":7567},"arcs":[[196],[197],[198]]},{"type":"MultiLineString","properties":{"source":"naturalearthdata.com","kind":"region","sort_rank":256,"kind_detail":"4","min_zoom":5.5,"id":7569},"arcs":[[199],[200],[201],[202],[203],[204],[205],[206],[207],[208],[209],[210],[211],[212],[213]]},{"type":"MultiLineString","properties":{"source":"naturalearthdata.com","kind":"region","sort_rank":256,"kind_detail":"4","min_zoom":5.5,"id":7570},"arcs":[[214],[215],[216]]},{"type":"MultiLineString","properties":{"source":"naturalearthdata.com","kind":"region","sort_rank":256,"kind_detail":"4","min_zoom":5.5,"id":7571},"arcs":[[217],[218]]},{"type":"MultiLineString","properties":{"source":"naturalearthdata.com","kind":"region","sort_rank":256,"kind_detail":"4","min_zoom":5.5,"id":7572},"arcs":[[219],[220],[221],[222],[223],[224],[225]]},{"type":"MultiLineString","properties":{"source":"naturalearthdata.com","kind":"region","sort_rank":256,"kind_detail":"4","min_zoom":5.5,"id":7573},"arcs":[[226],[227]]},{"type":"MultiLineString","properties":{"source":"naturalearthdata.com","kind":"region","sort_rank":256,"kind_detail":"4","min_zoom":5.5,"id":7574},"arcs":[[228],[229],[230],[231],[232]]},{"type":"MultiLineString","properties":{"source":"naturalearthdata.com","kind":"region","sort_rank":256,"kind_detail":"4","min_zoom":5.5,"id":7575},"arcs":[[233],[234],[235],[236],[237]]},{"type":"MultiLineString","properties":{"source":"naturalearthdata.com","kind":"region","sort_rank":256,"kind_detail":"4","min_zoom":5.5,"id":7576},"arcs":[[238],[239],[240],[241],[242],[243],[244],[245],[246],[247],[248],[249],[250]]},{"type":"MultiLineString","properties":{"source":"naturalearthdata.com","kind":"region","sort_rank":256,"kind_detail":"4","min_zoom":5.5,"id":7577},"arcs":[[251],[252],[253],[254],[255],[256],[257],[258],[259],[260],[261]]},{"type":"MultiLineString","properties":{"source":"naturalearthdata.com","kind":"region","sort_rank":256,"kind_detail":"4","min_zoom":5.5,"id":7578},"arcs":[[262],[263],[264],[265],[266],[267]]},{"type":"MultiLineString","properties":{"source":"naturalearthdata.com","kind":"region","sort_rank":256,"kind_detail":"4","min_zoom":5.5,"id":7579},"arcs":[[268],[269],[270]]},{"type":"MultiLineString","properties":{"source":"naturalearthdata.com","kind":"region","sort_rank":256,"kind_detail":"4","min_zoom":5.5,"id":7593},"arcs":[[271],[272],[273],[274],[275],[276],[277],[278],[279]]},{"type":"MultiLineString","properties":{"source":"naturalearthdata.com","kind":"region","sort_rank":256,"kind_detail":"4","min_zoom":5.5,"id":7586},"arcs":[[280],[281],[282],[283],[284],[285],[286],[287],[288],[289],[290]]},{"type":"MultiLineString","properties":{"source":"naturalearthdata.com","kind":"region","sort_rank":256,"kind_detail":"4","min_zoom":5.5,"id":7587},"arcs":[[291],[292],[293],[294]]},{"type":"MultiLineString","properties":{"source":"naturalearthdata.com","kind":"region","sort_rank":256,"kind_detail":"4","min_zoom":5.5,"id":7588},"arcs":[[295],[296],[297],[298],[299]]},{"type":"MultiLineString","properties":{"source":"naturalearthdata.com","kind":"region","sort_rank":256,"kind_detail":"4","min_zoom":5.5,"id":7589},"arcs":[[300],[301],[302]]},{"type":"LineString","properties":{"source":"naturalearthdata.com","kind":"region","sort_rank":256,"kind_detail":"4","min_zoom":5.5,"id":7591},"arcs":[303]},{"type":"MultiLineString","properties":{"source":"naturalearthdata.com","kind":"region","sort_rank":256,"kind_detail":"4","min_zoom":5.5,"id":7595},"arcs":[[304],[305],[306],[307]]}]},"roads":{"type":"GeometryCollection","geometries":[{"type":"LineString","properties":{"kind":"highway","network":"e-road","sort_rank":383,"kind_detail":"motorway","source":"naturalearthdata.com","min_zoom":4.0,"shield_text":"63","id":4190},"arcs":[504]},{"type":"LineString","properties":{"kind":"highway","network":"e-road","sort_rank":383,"kind_detail":"motorway","source":"naturalearthdata.com","min_zoom":3.0,"shield_text":"18","id":4642},"arcs":[505]},{"type":"LineString","properties":{"kind":"highway","network":"e-road","sort_rank":383,"kind_detail":"motorway","source":"naturalearthdata.com","min_zoom":4.0,"shield_text":"63","id":4645},"arcs":[506]},{"type":"LineString","properties":{"kind":"highway","network":"e-road","sort_rank":383,"kind_detail":"motorway","source":"naturalearthdata.com","min_zoom":4.0,"shield_text":"12","id":4646},"arcs":[507]},{"type":"LineString","properties":{"kind":"highway","network":"e-road","sort_rank":383,"kind_detail":"motorway","source":"naturalearthdata.com","min_zoom":3.0,"shield_text":"18","id":4647},"arcs":[508]},{"type":"LineString","properties":{"kind":"highway","network":"e-road","sort_rank":383,"kind_detail":"motorway","source":"naturalearthdata.com","min_zoom":3.0,"shield_text":"18","id":4648},"arcs":[509]},{"type":"LineString","properties":{"kind":"highway","network":"e-road","sort_rank":383,"kind_detail":"motorway","source":"naturalearthdata.com","min_zoom":3.0,"shield_text":"75","id":4688},"arcs":[510]},{"type":"LineString","properties":{"source":"naturalearthdata.com","kind":"major_road","kind_detail":"primary","sort_rank":380,"landuse_kind":"park","min_zoom":3.0,"id":4708},"arcs":[511]},{"type":"MultiLineString","properties":{"source":"naturalearthdata.com","kind":"major_road","sort_rank":380,"kind_detail":"primary","min_zoom":3.0,"id":4708},"arcs":[[512],[513]]},{"type":"LineString","properties":{"source":"naturalearthdata.com","kind":"major_road","sort_rank":380,"kind_detail":"primary","min_zoom":3.0,"id":4709},"arcs":[514]},{"type":"LineString","properties":{"source":"naturalearthdata.com","kind":"major_road","sort_rank":380,"kind_detail":"primary","min_zoom":3.0,"id":4710},"arcs":[515]},{"type":"LineString","properties":{"source":"naturalearthdata.com","kind":"major_road","sort_rank":380,"kind_detail":"primary","min_zoom":3.0,"id":4711},"arcs":[516]},{"type":"LineString","properties":{"source":"naturalearthdata.com","kind":"major_road","sort_rank":380,"kind_detail":"primary","min_zoom":3.0,"id":4723},"arcs":[517]},{"type":"LineString","properties":{"source":"naturalearthdata.com","kind":"major_road","sort_rank":380,"kind_detail":"primary","min_zoom":3.0,"id":4724},"arcs":[518]},{"type":"LineString","properties":{"source":"naturalearthdata.com","kind":"major_road","sort_rank":380,"kind_detail":"primary","min_zoom":3.0,"id":4725},"arcs":[519]},{"type":"LineString","properties":{"source":"naturalearthdata.com","kind":"major_road","sort_rank":380,"kind_detail":"primary","min_zoom":4.0,"id":4823},"arcs":[520]},{"type":"LineString","properties":{"source":"naturalearthdata.com","kind":"major_road","sort_rank":380,"kind_detail":"primary","min_zoom":3.0,"id":4917},"arcs":[521]},{"type":"LineString","properties":{"source":"naturalearthdata.com","kind":"major_road","sort_rank":380,"kind_detail":"primary","min_zoom":3.0,"id":4918},"arcs":[522]},{"type":"LineString","properties":{"source":"naturalearthdata.com","kind":"major_road","kind_detail":"primary","sort_rank":380,"landuse_kind":"urban_area","min_zoom":3.0,"id":4920},"arcs":[523]},{"type":"MultiLineString","properties":{"source":"naturalearthdata.com","kind":"major_road","sort_rank":380,"kind_detail":"primary","min_zoom":3.0,"id":4920},"arcs":[[524],[525]]},{"type":"LineString","properties":{"source":"naturalearthdata.com","kind":"major_road","kind_detail":"primary","sort_rank":380,"landuse_kind":"urban_area","min_zoom":3.0,"id":4921},"arcs":[526]},{"type":"MultiLineString","properties":{"source":"naturalearthdata.com","kind":"major_road","sort_rank":380,"kind_detail":"primary","min_zoom":3.0,"id":4921},"arcs":[[527],[528]]},{"type":"LineString","properties":{"source":"naturalearthdata.com","kind":"major_road","sort_rank":380,"kind_detail":"primary","min_zoom":3.0,"id":4922},"arcs":[529]},{"type":"MultiLineString","properties":{"source":"naturalearthdata.com","kind":"major_road","kind_detail":"primary","sort_rank":380,"landuse_kind":"urban_area","min_zoom":3.0,"id":4929},"arcs":[[530],[531]]},{"type":"MultiLineString","properties":{"source":"naturalearthdata.com","kind":"major_road","sort_rank":380,"kind_detail":"primary","min_zoom":3.0,"id":4929},"arcs":[[532],[533]]},{"type":"LineString","properties":{"source":"naturalearthdata.com","kind":"major_road","kind_detail":"primary","sort_rank":380,"landuse_kind":"national_park","min_zoom":3.0,"id":4930},"arcs":[534]},{"type":"LineString","properties":{"source":"naturalearthdata.com","kind":"major_road","kind_detail":"primary","sort_rank":380,"landuse_kind":"urban_area","min_zoom":3.0,"id":4930},"arcs":[535]},{"type":"MultiLineString","properties":{"source":"naturalearthdata.com","kind":"major_road","sort_rank":380,"kind_detail":"primary","min_zoom":3.0,"id":4930},"arcs":[[536],[537]]},{"type":"LineString","properties":{"source":"naturalearthdata.com","kind":"major_road","kind_detail":"primary","sort_rank":380,"landuse_kind":"urban_area","min_zoom":3.0,"id":4931},"arcs":[538]},{"type":"LineString","properties":{"source":"naturalearthdata.com","kind":"major_road","sort_rank":380,"kind_detail":"primary","min_zoom":3.0,"id":4931},"arcs":[539]},{"type":"LineString","properties":{"source":"naturalearthdata.com","kind":"major_road","sort_rank":380,"kind_detail":"primary","min_zoom":3.0,"id":4932},"arcs":[540]},{"type":"LineString","properties":{"source":"naturalearthdata.com","kind":"major_road","sort_rank":380,"kind_detail":"primary","min_zoom":3.0,"id":4933},"arcs":[541]},{"type":"LineString","properties":{"source":"naturalearthdata.com","kind":"major_road","sort_rank":380,"kind_detail":"primary","min_zoom":3.0,"id":4934},"arcs":[542]},{"type":"LineString","properties":{"source":"naturalearthdata.com","kind":"major_road","kind_detail":"primary","sort_rank":380,"landuse_kind":"urban_area","min_zoom":3.0,"id":5026},"arcs":[543]},{"type":"MultiLineString","properties":{"source":"naturalearthdata.com","kind":"major_road","sort_rank":380,"kind_detail":"primary","min_zoom":3.0,"id":5026},"arcs":[[544],[545]]},{"type":"LineString","properties":{"source":"naturalearthdata.com","kind":"major_road","sort_rank":380,"kind_detail":"primary","min_zoom":3.0,"id":5027},"arcs":[546]},{"type":"LineString","properties":{"source":"naturalearthdata.com","kind":"major_road","sort_rank":380,"kind_detail":"primary","min_zoom":3.0,"id":5056},"arcs":[547]},{"type":"LineString","properties":{"source":"naturalearthdata.com","kind":"major_road","sort_rank":380,"kind_detail":"primary","min_zoom":3.0,"id":5057},"arcs":[548]},{"type":"LineString","properties":{"source":"naturalearthdata.com","kind":"major_road","sort_rank":380,"kind_detail":"primary","min_zoom":4.0,"id":5062},"arcs":[549]},{"type":"LineString","properties":{"source":"naturalearthdata.com","kind":"major_road","sort_rank":380,"kind_detail":"primary","min_zoom":4.0,"id":5063},"arcs":[550]},{"type":"LineString","properties":{"source":"naturalearthdata.com","kind":"major_road","sort_rank":380,"kind_detail":"primary","min_zoom":4.0,"id":5064},"arcs":[551]},{"type":"LineString","properties":{"source":"naturalearthdata.com","kind":"major_road","sort_rank":380,"kind_detail":"primary","min_zoom":4.0,"id":5065},"arcs":[552]},{"type":"LineString","properties":{"source":"naturalearthdata.com","kind":"major_road","sort_rank":380,"kind_detail":"primary","min_zoom":3.0,"id":5072},"arcs":[553]},{"type":"LineString","properties":{"source":"naturalearthdata.com","kind":"major_road","sort_rank":379,"kind_detail":"secondary","min_zoom":3.0,"id":5073},"arcs":[554]},{"type":"LineString","properties":{"source":"naturalearthdata.com","kind":"major_road","sort_rank":380,"kind_detail":"primary","min_zoom":3.0,"id":5074},"arcs":[555]},{"type":"LineString","properties":{"source":"naturalearthdata.com","kind":"major_road","sort_rank":380,"kind_detail":"primary","min_zoom":3.0,"id":5136},"arcs":[556]},{"type":"LineString","properties":{"source":"naturalearthdata.com","kind":"major_road","kind_detail":"primary","sort_rank":380,"landuse_kind":"urban_area","min_zoom":4.0,"id":5137},"arcs":[557]},{"type":"MultiLineString","properties":{"source":"naturalearthdata.com","kind":"major_road","sort_rank":380,"kind_detail":"primary","min_zoom":4.0,"id":5137},"arcs":[[558],[559]]},{"type":"LineString","properties":{"source":"naturalearthdata.com","kind":"major_road","sort_rank":380,"kind_detail":"primary","min_zoom":4.0,"id":5538},"arcs":[560]},{"type":"LineString","properties":{"source":"naturalearthdata.com","kind":"major_road","sort_rank":380,"kind_detail":"primary","min_zoom":4.0,"id":5539},"arcs":[561]},{"type":"LineString","properties":{"source":"naturalearthdata.com","kind":"major_road","kind_detail":"primary","sort_rank":380,"landuse_kind":"urban_area","min_zoom":4.0,"id":5652},"arcs":[562]},{"type":"LineString","properties":{"source":"naturalearthdata.com","kind":"major_road","sort_rank":380,"kind_detail":"primary","min_zoom":4.0,"id":5652},"arcs":[563]},{"type":"LineString","properties":{"source":"naturalearthdata.com","kind":"major_road","sort_rank":380,"kind_detail":"primary","min_zoom":3.0,"id":8048},"arcs":[564]},{"type":"LineString","properties":{"kind":"highway","network":"e-road","sort_rank":383,"kind_detail":"motorway","source":"naturalearthdata.com","min_zoom":3.0,"shield_text":"20","id":8049},"arcs":[565]},{"type":"LineString","properties":{"source":"naturalearthdata.com","kind":"major_road","sort_rank":379,"kind_detail":"secondary","min_zoom":3.0,"id":11522},"arcs":[566]},{"type":"LineString","properties":{"source":"naturalearthdata.com","kind":"major_road","sort_rank":379,"kind_detail":"secondary","min_zoom":3.0,"id":11526},"arcs":[567]},{"type":"LineString","properties":{"source":"naturalearthdata.com","kind":"major_road","sort_rank":379,"kind_detail":"secondary","min_zoom":3.0,"id":11553},"arcs":[568]},{"type":"LineString","properties":{"source":"naturalearthdata.com","kind":"major_road","sort_rank":379,"kind_detail":"secondary","min_zoom":3.0,"id":11554},"arcs":[569]},{"type":"LineString","properties":{"source":"naturalearthdata.com","kind":"major_road","sort_rank":379,"kind_detail":"secondary","min_zoom":4.0,"id":11558},"arcs":[570]},{"type":"LineString","properties":{"source":"naturalearthdata.com","kind":"major_road","sort_rank":379,"kind_detail":"secondary","min_zoom":3.0,"id":11592},"arcs":[571]},{"type":"LineString","properties":{"source":"naturalearthdata.com","kind":"major_road","sort_rank":379,"kind_detail":"secondary","min_zoom":3.0,"id":11596},"arcs":[572]},{"type":"LineString","properties":{"source":"naturalearthdata.com","kind":"major_road","sort_rank":379,"kind_detail":"secondary","min_zoom":3.0,"id":11620},"arcs":[573]},{"type":"LineString","properties":{"source":"naturalearthdata.com","kind":"major_road","sort_rank":379,"kind_detail":"secondary","min_zoom":4.0,"id":11631},"arcs":[574]},{"type":"LineString","properties":{"source":"naturalearthdata.com","kind":"major_road","sort_rank":379,"kind_detail":"secondary","min_zoom":3.0,"id":11640},"arcs":[575]},{"type":"LineString","properties":{"source":"naturalearthdata.com","kind":"major_road","sort_rank":379,"kind_detail":"secondary","min_zoom":3.0,"id":11642},"arcs":[576]},{"type":"LineString","properties":{"source":"naturalearthdata.com","kind":"major_road","sort_rank":379,"kind_detail":"secondary","min_zoom":3.0,"id":11652},"arcs":[577]},{"type":"LineString","properties":{"source":"naturalearthdata.com","kind":"major_road","kind_detail":"secondary","sort_rank":379,"landuse_kind":"urban_area","min_zoom":4.0,"id":11670},"arcs":[578]},{"type":"LineString","properties":{"source":"naturalearthdata.com","kind":"major_road","sort_rank":379,"kind_detail":"secondary","min_zoom":4.0,"id":11670},"arcs":[579]},{"type":"LineString","properties":{"source":"naturalearthdata.com","kind":"major_road","kind_detail":"secondary","sort_rank":379,"landuse_kind":"urban_area","min_zoom":4.0,"id":11673},"arcs":[580]},{"type":"LineString","properties":{"source":"naturalearthdata.com","kind":"major_road","kind_detail":"secondary","sort_rank":379,"landuse_kind":"urban_area","min_zoom":3.0,"id":11674},"arcs":[581]},{"type":"LineString","properties":{"source":"naturalearthdata.com","kind":"major_road","kind_detail":"secondary","sort_rank":379,"landuse_kind":"urban_area","min_zoom":3.0,"id":11674},"arcs":[582]},{"type":"MultiLineString","properties":{"source":"naturalearthdata.com","kind":"major_road","sort_rank":379,"kind_detail":"secondary","min_zoom":3.0,"id":11674},"arcs":[[583],[584]]},{"type":"LineString","properties":{"source":"naturalearthdata.com","kind":"major_road","sort_rank":379,"kind_detail":"secondary","min_zoom":3.0,"id":11675},"arcs":[585]},{"type":"LineString","properties":{"source":"naturalearthdata.com","kind":"major_road","sort_rank":379,"kind_detail":"secondary","min_zoom":3.0,"id":11678},"arcs":[586]},{"type":"LineString","properties":{"source":"naturalearthdata.com","kind":"major_road","kind_detail":"secondary","sort_rank":379,"landuse_kind":"urban_area","min_zoom":3.0,"id":11681},"arcs":[587]},{"type":"LineString","properties":{"source":"naturalearthdata.com","kind":"major_road","sort_rank":379,"kind_detail":"secondary","min_zoom":3.0,"id":11681},"arcs":[588]},{"type":"LineString","properties":{"source":"naturalearthdata.com","kind":"major_road","kind_detail":"secondary","sort_rank":379,"landuse_kind":"urban_area","min_zoom":3.0,"id":11682},"arcs":[589]},{"type":"LineString","properties":{"source":"naturalearthdata.com","kind":"major_road","sort_rank":379,"kind_detail":"secondary","min_zoom":4.0,"id":11683},"arcs":[590]},{"type":"LineString","properties":{"source":"naturalearthdata.com","kind":"major_road","sort_rank":379,"kind_detail":"secondary","min_zoom":3.0,"id":11685},"arcs":[591]},{"type":"LineString","properties":{"source":"naturalearthdata.com","kind":"major_road","kind_detail":"secondary","sort_rank":379,"landuse_kind":"urban_area","min_zoom":4.0,"id":11692},"arcs":[592]},{"type":"LineString","properties":{"source":"naturalearthdata.com","kind":"major_road","kind_detail":"secondary","sort_rank":379,"landuse_kind":"urban_area","min_zoom":3.0,"id":11693},"arcs":[593]},{"type":"LineString","properties":{"source":"naturalearthdata.com","kind":"major_road","kind_detail":"secondary","sort_rank":379,"landuse_kind":"urban_area","min_zoom":3.0,"id":11701},"arcs":[594]},{"type":"LineString","properties":{"source":"naturalearthdata.com","kind":"major_road","sort_rank":379,"kind_detail":"secondary","min_zoom":3.0,"id":11701},"arcs":[595]},{"type":"LineString","properties":{"source":"naturalearthdata.com","kind":"highway","kind_detail":"motorway","sort_rank":383,"landuse_kind":"urban_area","min_zoom":3.0,"id":11705},"arcs":[596]},{"type":"LineString","properties":{"source":"naturalearthdata.com","kind":"highway","sort_rank":383,"kind_detail":"motorway","min_zoom":3.0,"id":11705},"arcs":[597]},{"type":"LineString","properties":{"source":"naturalearthdata.com","kind":"major_road","sort_rank":379,"kind_detail":"secondary","min_zoom":3.0,"id":11706},"arcs":[598]},{"type":"LineString","properties":{"source":"naturalearthdata.com","kind":"highway","kind_detail":"motorway","sort_rank":383,"landuse_kind":"urban_area","min_zoom":3.0,"id":11707},"arcs":[599]},{"type":"MultiLineString","properties":{"source":"naturalearthdata.com","kind":"highway","sort_rank":383,"kind_detail":"motorway","min_zoom":3.0,"id":11707},"arcs":[[600],[601]]},{"type":"LineString","properties":{"source":"naturalearthdata.com","kind":"major_road","sort_rank":379,"kind_detail":"secondary","min_zoom":4.0,"id":11715},"arcs":[602]},{"type":"LineString","properties":{"source":"naturalearthdata.com","kind":"major_road","sort_rank":379,"kind_detail":"secondary","min_zoom":3.0,"id":11722},"arcs":[603]},{"type":"LineString","properties":{"source":"naturalearthdata.com","kind":"major_road","sort_rank":379,"kind_detail":"secondary","min_zoom":4.0,"id":11732},"arcs":[604]},{"type":"LineString","properties":{"source":"naturalearthdata.com","kind":"major_road","sort_rank":379,"kind_detail":"secondary","min_zoom":3.0,"id":11734},"arcs":[605]},{"type":"LineString","properties":{"source":"naturalearthdata.com","kind":"major_road","sort_rank":379,"kind_detail":"secondary","min_zoom":3.0,"id":11739},"arcs":[606]},{"type":"LineString","properties":{"source":"naturalearthdata.com","kind":"major_road","sort_rank":379,"kind_detail":"secondary","min_zoom":3.0,"id":11755},"arcs":[607]},{"type":"LineString","properties":{"source":"naturalearthdata.com","kind":"major_road","sort_rank":379,"kind_detail":"secondary","min_zoom":3.0,"id":11771},"arcs":[608]},{"type":"LineString","properties":{"source":"naturalearthdata.com","kind":"major_road","sort_rank":379,"kind_detail":"secondary","min_zoom":3.0,"id":11776},"arcs":[609]},{"type":"LineString","properties":{"source":"naturalearthdata.com","kind":"major_road","sort_rank":379,"kind_detail":"secondary","min_zoom":3.0,"id":11802},"arcs":[610]},{"type":"LineString","properties":{"source":"naturalearthdata.com","kind":"major_road","sort_rank":379,"kind_detail":"secondary","min_zoom":3.0,"id":11833},"arcs":[611]},{"type":"LineString","properties":{"source":"naturalearthdata.com","kind":"major_road","sort_rank":379,"kind_detail":"secondary","min_zoom":3.0,"id":11835},"arcs":[612]},{"type":"LineString","properties":{"source":"naturalearthdata.com","kind":"major_road","sort_rank":379,"kind_detail":"secondary","min_zoom":3.0,"id":11838},"arcs":[613]},{"type":"LineString","properties":{"source":"naturalearthdata.com","kind":"major_road","kind_detail":"secondary","sort_rank":379,"landuse_kind":"urban_area","min_zoom":3.0,"id":11853},"arcs":[614]},{"type":"LineString","properties":{"source":"naturalearthdata.com","kind":"major_road","sort_rank":379,"kind_detail":"secondary","min_zoom":3.0,"id":11853},"arcs":[615]},{"type":"LineString","properties":{"source":"naturalearthdata.com","kind":"major_road","kind_detail":"secondary","sort_rank":379,"landuse_kind":"urban_area","min_zoom":3.0,"id":11867},"arcs":[616]},{"type":"LineString","properties":{"source":"naturalearthdata.com","kind":"major_road","sort_rank":379,"kind_detail":"secondary","min_zoom":3.0,"id":11867},"arcs":[617]},{"type":"LineString","properties":{"source":"naturalearthdata.com","kind":"major_road","sort_rank":379,"kind_detail":"secondary","min_zoom":3.0,"id":11881},"arcs":[618]},{"type":"LineString","properties":{"source":"naturalearthdata.com","kind":"major_road","sort_rank":379,"kind_detail":"secondary","min_zoom":3.0,"id":11891},"arcs":[619]},{"type":"LineString","properties":{"source":"naturalearthdata.com","kind":"major_road","sort_rank":379,"kind_detail":"secondary","min_zoom":3.0,"id":11917},"arcs":[620]},{"type":"LineString","properties":{"source":"naturalearthdata.com","kind":"major_road","sort_rank":379,"kind_detail":"secondary","min_zoom":4.0,"id":11924},"arcs":[621]},{"type":"LineString","properties":{"source":"naturalearthdata.com","kind":"major_road","sort_rank":379,"kind_detail":"secondary","min_zoom":3.0,"id":11954},"arcs":[622]},{"type":"LineString","properties":{"source":"naturalearthdata.com","kind":"major_road","sort_rank":379,"kind_detail":"secondary","min_zoom":4.0,"id":11967},"arcs":[623]},{"type":"MultiLineString","properties":{"source":"naturalearthdata.com","kind":"major_road","kind_detail":"secondary","sort_rank":379,"landuse_kind":"park","min_zoom":3.0,"id":11969},"arcs":[[624],[625]]},{"type":"MultiLineString","properties":{"source":"naturalearthdata.com","kind":"major_road","sort_rank":379,"kind_detail":"secondary","min_zoom":3.0,"id":11969},"arcs":[[626],[627]]},{"type":"LineString","properties":{"source":"naturalearthdata.com","kind":"major_road","kind_detail":"secondary","sort_rank":379,"landuse_kind":"park","min_zoom":3.0,"id":12010},"arcs":[628]},{"type":"LineString","properties":{"source":"naturalearthdata.com","kind":"major_road","sort_rank":379,"kind_detail":"secondary","min_zoom":3.0,"id":12010},"arcs":[629]},{"type":"LineString","properties":{"source":"naturalearthdata.com","kind":"major_road","sort_rank":379,"kind_detail":"secondary","min_zoom":3.0,"id":12417},"arcs":[630]},{"type":"LineString","properties":{"source":"naturalearthdata.com","kind":"major_road","sort_rank":379,"kind_detail":"secondary","min_zoom":3.0,"id":12437},"arcs":[631]},{"type":"LineString","properties":{"source":"naturalearthdata.com","kind":"major_road","sort_rank":379,"kind_detail":"secondary","min_zoom":3.0,"id":12443},"arcs":[632]},{"type":"LineString","properties":{"source":"naturalearthdata.com","kind":"major_road","sort_rank":379,"kind_detail":"secondary","min_zoom":3.0,"id":12477},"arcs":[633]},{"type":"LineString","properties":{"source":"naturalearthdata.com","kind":"major_road","sort_rank":379,"kind_detail":"secondary","min_zoom":3.0,"id":12565},"arcs":[634]},{"type":"LineString","properties":{"source":"naturalearthdata.com","kind":"major_road","sort_rank":379,"kind_detail":"secondary","min_zoom":3.0,"id":12578},"arcs":[635]},{"type":"LineString","properties":{"source":"naturalearthdata.com","kind":"major_road","sort_rank":379,"kind_detail":"secondary","min_zoom":3.0,"id":12579},"arcs":[636]},{"type":"LineString","properties":{"source":"naturalearthdata.com","kind":"major_road","sort_rank":379,"kind_detail":"secondary","min_zoom":3.0,"id":12685},"arcs":[637]},{"type":"LineString","properties":{"source":"naturalearthdata.com","kind":"major_road","sort_rank":379,"kind_detail":"secondary","min_zoom":4.0,"id":12723},"arcs":[638]},{"type":"LineString","properties":{"source":"naturalearthdata.com","kind":"major_road","sort_rank":379,"kind_detail":"secondary","min_zoom":4.0,"id":12763},"arcs":[639]},{"type":"MultiLineString","properties":{"source":"naturalearthdata.com","kind":"highway","kind_detail":"motorway","sort_rank":383,"landuse_kind":"urban_area","min_zoom":3.0,"id":48649},"arcs":[[640],[641],[642]]},{"type":"LineString","properties":{"source":"naturalearthdata.com","kind":"highway","kind_detail":"motorway","sort_rank":383,"landuse_kind":"urban_area","min_zoom":3.0,"id":48649},"arcs":[643]},{"type":"MultiLineString","properties":{"source":"naturalearthdata.com","kind":"highway","sort_rank":383,"kind_detail":"motorway","min_zoom":3.0,"id":48649},"arcs":[[644],[645],[646],[647],[648]]},{"type":"LineString","properties":{"source":"naturalearthdata.com","kind":"highway","kind_detail":"motorway","sort_rank":383,"landuse_kind":"urban_area","min_zoom":3.0,"id":48650},"arcs":[649]},{"type":"LineString","properties":{"source":"naturalearthdata.com","kind":"highway","sort_rank":383,"kind_detail":"motorway","min_zoom":3.0,"id":48650},"arcs":[650]}]},"earth":{"type":"GeometryCollection","geometries":[{"type":"MultiPolygon","properties":{"sort_rank":10,"source":"naturalearthdata.com","min_zoom":0.0,"kind":"earth","area":5634398139589},"arcs":[[[651]],[[652]],[[653]],[[654]],[[655]],[[656]],[[657]],[[658]],[[659]],[[660]],[[661]],[[662]],[[663]],[[664]],[[665]],[[666]],[[667]],[[668]],[[669]],[[670]],[[671]]]}]},"landuse":{"type":"GeometryCollection","geometries":[{"type":"Polygon","properties":{"kind":"park","name":"Alam-Pedja looduskaitseala","area":1197139968,"sort_rank":24,"source":"openstreetmap.org","min_zoom":4.0,"tier":2,"id":-389529,"osm_relation":true},"arcs":[[672],[673]]},{"type":"Polygon","properties":{"kind":"nature_reserve","name":"\u0420\u0434\u0435\u0439\u0441\u043a\u0438\u0439 \u0437\u0430\u043f\u043e\u0432\u0435\u0434\u043d\u0438\u043a","area":1284540032,"sort_rank":23,"source":"openstreetmap.org","min_zoom":4.0,"tier":2,"id":-2122817,"osm_relation":true,"protect_class":"1"},"arcs":[[674]]},{"type":"Polygon","properties":{"kind":"park","name":"\u0136emeru nacion\u0101lais parks","area":1236979968,"sort_rank":24,"source":"openstreetmap.org","min_zoom":4.0,"tier":2,"id":-107251,"osm_relation":true},"arcs":[[675],[676],[677],[678],[679],[680]]},{"type":"Polygon","properties":{"kind":"park","name":"R\u0101znas nacion\u0101lais parks","area":1750480000,"sort_rank":24,"source":"openstreetmap.org","min_zoom":4.0,"tier":2,"id":-59305,"osm_relation":true},"arcs":[[681],[682],[683],[684],[685],[686],[687],[688],[689],[690],[691],[692],[693],[694],[695]]},{"type":"Polygon","properties":{"kind":"nature_reserve","name":"\u041b\u0438\u0441\u0438\u043d\u0441\u043a\u0438\u0439 \u0437\u0430\u043a\u0430\u0437\u043d\u0438\u043a","area":1129260032,"sort_rank":23,"source":"openstreetmap.org","min_zoom":4.0,"tier":2,"id":-933896,"osm_relation":true,"protect_class":"7"},"arcs":[[696]]},{"type":"Polygon","properties":{"kind":"park","name":"Saaristomeren kansallispuisto","area":12310800384,"sort_rank":24,"operator":"Mets\u00e4hallitus","source":"openstreetmap.org","min_zoom":4.0,"tier":2,"id":-3892923,"osm_relation":true},"arcs":[[697]]},{"type":"Polygon","properties":{"kind":"park","name":"Gaujas nacion\u0101lais parks","area":3152580096,"sort_rank":24,"source":"openstreetmap.org","min_zoom":4.0,"tier":2,"id":-1765346,"osm_relation":true},"arcs":[[698],[699]]},{"type":"Polygon","properties":{"kind":"nature_reserve","name":"\u041f\u043e\u043b\u0438\u0441\u0442\u043e\u0432\u0441\u043a\u0438\u0439 \u0437\u0430\u043f\u043e\u0432\u0435\u0434\u043d\u0438\u043a","area":1190729984,"sort_rank":23,"source":"openstreetmap.org","min_zoom":4.0,"tier":2,"id":-2122859,"osm_relation":true,"protect_class":"1"},"arcs":[[700]]},{"type":"Polygon","properties":{"kind":"nature_reserve","name":"\u041d\u0438\u0436\u043d\u0435-\u0421\u0432\u0438\u0440\u0441\u043a\u0438\u0439 \u0433\u043e\u0441\u0443\u0434\u0430\u0440\u0441\u0442\u0432\u0435\u043d\u043d\u044b\u0439 \u043f\u0440\u0438\u0440\u043e\u0434\u043d\u044b\u0439 \u0437\u0430\u043f\u043e\u0432\u0435\u0434\u043d\u0438\u043a","area":1912999936,"sort_rank":23,"source":"openstreetmap.org","min_zoom":4.0,"tier":2,"id":-6195129,"osm_relation":true,"protect_class":"1"},"arcs":[[701]]},{"type":"Polygon","properties":{"kind":"national_park","name":"Sl\u012bteres Nacion\u0101lais parks","area":571478016,"sort_rank":18,"source":"openstreetmap.org","min_zoom":3.0,"tier":1,"id":-2035889,"osm_relation":true,"protect_class":"2"},"arcs":[[702]]},{"type":"MultiPolygon","properties":{"source":"naturalearthdata.com","kind":"urban_area","name":"","area":23040256885,"sort_rank":11,"min_zoom":4.0},"arcs":[[[703]],[[704]],[[705]],[[706]],[[707]],[[708]],[[709]],[[710]]]},{"type":"Polygon","properties":{"kind":"park","name":"\u041a\u0443\u0440\u0433\u0430\u043b\u044c\u0441\u043a\u0438\u0439 \u0437\u0430\u043a\u0430\u0437\u043d\u0438\u043a","area":1963170048,"sort_rank":24,"source":"openstreetmap.org","min_zoom":4.0,"tier":2,"id":-5487586,"osm_relation":true},"arcs":[[711],[712],[713],[714]]},{"type":"Polygon","properties":{"kind":"park","name":"It\u00e4isen Suomenlahden kansallispuisto","area":3790650112,"sort_rank":24,"source":"openstreetmap.org","min_zoom":4.0,"tier":2,"id":-1631195,"osm_relation":true},"arcs":[[715]]},{"type":"Polygon","properties":{"kind":"nature_reserve","name":"\u0420\u0435\u043c\u0434\u043e\u0432\u0441\u043a\u0438\u0439 \u0437\u0430\u043a\u0430\u0437\u043d\u0438\u043a","area":2757619968,"sort_rank":23,"source":"openstreetmap.org","min_zoom":4.0,"tier":2,"id":476973338,"protect_class":"4"},"arcs":[[716]]},{"type":"Polygon","properties":{"kind":"protected_area","protect_class":"4","area":1710749952,"sort_rank":17,"source":"openstreetmap.org","min_zoom":4.0,"tier":2,"id":132055148},"arcs":[[717]]},{"type":"Polygon","properties":{"kind":"park","name":"\u041d\u0430\u0446\u0438\u043e\u043d\u0430\u043b\u044c\u043d\u044b\u0439 \u043f\u0430\u0440\u043a \u00ab\u0411\u0440\u0430\u0441\u043b\u0430\u0432\u0441\u043a\u0438\u0435 \u043e\u0437\u0451\u0440\u0430\u00bb","area":2072579968,"sort_rank":24,"source":"openstreetmap.org","min_zoom":4.0,"tier":2,"id":-4520555,"osm_relation":true},"arcs":[[718]]},{"type":"Polygon","properties":{"kind":"park","name":"\u0412\u0430\u043b\u0434\u0430\u0439\u0441\u043a\u0438\u0439 \u043d\u0430\u0446\u0438\u043e\u043d\u0430\u043b\u044c\u043d\u044b\u0439 \u043f\u0430\u0440\u043a","area":6696470016,"sort_rank":24,"source":"openstreetmap.org","min_zoom":4.0,"tier":2,"id":-229567,"osm_relation":true},"arcs":[[719],[720]]},{"type":"Polygon","properties":{"kind":"protected_area","name":"Aug\u0161daugava","area":1648509952,"sort_rank":17,"source":"openstreetmap.org","min_zoom":4.0,"tier":2,"id":132054113,"protect_class":"4"},"arcs":[[721]]},{"type":"Polygon","properties":{"kind":"park","name":"\u0411\u0435\u0440\u0435\u0437\u043e\u0432\u044b\u0435 \u043e\u0441\u0442\u0440\u043e\u0432\u0430","area":1941740032,"sort_rank":24,"source":"openstreetmap.org","min_zoom":4.0,"tier":2,"id":533310058},"arcs":[[722]]},{"type":"Polygon","properties":{"kind":"nature_reserve","name":"\u041e\u0441\u043e\u0431\u043e \u043e\u0445\u0440\u0430\u043d\u044f\u0435\u043c\u0430\u044f \u043f\u0440\u0438\u0440\u043e\u0434\u043d\u0430\u044f \u0442\u0435\u0440\u0440\u0438\u0442\u043e\u0440\u0438\u044f \u00ab\u041c\u0448\u0438\u043d\u0441\u043a\u043e\u0435 \u0431\u043e\u043b\u043e\u0442\u043e\u00bb","area":2210609920,"sort_rank":23,"source":"openstreetmap.org","min_zoom":4.0,"tier":2,"id":-5351287,"osm_relation":true},"arcs":[[723]]},{"type":"Polygon","properties":{"kind":"national_park","name":"Lahemaa rahvuspark","area":2905619968,"sort_rank":18,"source":"openstreetmap.org","min_zoom":3.0,"tier":1,"id":-7035107,"osm_relation":true,"protect_class":"2"},"arcs":[[724]]},{"type":"Polygon","properties":{"kind":"nature_reserve","protect_class":"2","area":1618987045,"sort_rank":23,"source":"openstreetmap.org","min_zoom":4.0,"tier":2,"osm_relation":true,"name":"\u0421\u0435\u0431\u0435\u0436\u0441\u043a\u0438\u0439 \u043d\u0430\u0446\u0438\u043e\u043d\u0430\u043b\u044c\u043d\u044b\u0439 \u043f\u0430\u0440\u043a"},"arcs":[[725]]},{"type":"Polygon","properties":{"kind":"national_park","name":"\u0136emeru nacion\u0101lais parks","area":1277180032,"sort_rank":18,"source":"openstreetmap.org","min_zoom":3.0,"tier":1,"id":206559717,"protect_class":"2"},"arcs":[[726]]}]}},"type":"Topology","transform":{"translate":[22.5,55.7765730187],"scale":[0.002746582,0.0014232967]},"arcs":[[[1831,1231],[-2,-26],[1,-16],[-4,-15],[-1,-12],[9,-10],[38,-19],[19,-23],[5,-6],[37,-24],[7,-6],[4,-10],[2,-17],[-1,-39],[-3,-22],[-3,-15],[-11,-11],[-34,-17],[-7,-11],[5,-12],[9,-6],[9,-7],[2,-18],[-2,-7],[-6,-16],[-2,-7],[-1,-7],[-1,-14],[-1,-8],[-24,-55],[-8,-25],[6,-2],[6,-1]],[[1767,1230],[64,1]],[[1925,769],[16,-5],[8,-7],[14,-17],[8,-7],[2,-10],[-7,-16],[-9,-16],[-3,-12],[6,-12],[36,-27],[3,-12],[1,-32],[2,-15],[4,-11],[7,-8],[29,-15],[6,-5],[3,-8],[-3,-7],[-9,-9],[-3,-9],[2,-6],[3,-7],[18,-26],[3,-5],[2,-8],[-2,-24],[1,-16],[3,-14],[15,-48],[1,-8],[-1,-10],[-2,-6],[-3,-4],[-3,-8],[-3,-16],[-2,-17],[-4,-15],[-7,-14]],[[1879,747],[30,18],[16,4]],[[2057,257],[-14,10]],[[2043,267],[-16,-6],[-6,-5],[-10,-8],[-15,-8],[-15,-4],[-5,-2],[-6,-7],[-3,-7],[-4,-9],[-4,-9],[-25,-21],[-11,-13],[-2,-16],[-12,-23],[-36,-26],[-10,-31],[-2,-34],[-4,-15],[-3,-11],[-10,-1]],[[1734,7],[-10,7],[-23,21],[-7,4],[-15,3]],[[1679,42],[-47,-7],[-1,0],[-8,-5],[-21,-28],[-1,-2]],[[1844,11],[-46,5],[-12,4],[-11,7],[-9,11]],[[1766,38],[-8,-9],[-17,-18],[-7,-4]],[[1032,1585],[-4,2],[-2,4],[-4,12],[-3,5],[-6,6],[-7,1]],[[1006,1615],[-5,-5],[0,-12],[10,-19],[3,-11],[-7,-10],[-12,-6],[-6,0]],[[989,1552],[-5,5],[-5,15],[-3,17],[-5,14],[-9,7]],[[962,1610],[-17,-1],[-9,-2],[-8,-5],[-5,-6],[-22,-23],[-9,-6],[-28,-5],[-9,-5],[-8,-8],[-3,-3]],[[1138,1499],[-9,1],[-8,6],[-8,10],[-1,6],[-1,4],[0,1],[0,4],[-4,5],[-3,3],[-13,3],[-14,9],[-22,27],[-15,9]],[[1040,1587],[-4,-1],[-2,-1],[-2,0]],[[844,1546],[-10,1],[-9,7],[-12,3]],[[813,1557],[-5,-8],[-7,-19],[-6,-5],[-22,-2]],[[773,1523],[-25,2]],[[748,1525],[-8,-1],[-19,-19],[-14,-7],[-5,-6],[-6,-17],[-4,-7],[-8,-5],[-11,0]],[[1456,1222],[-7,8],[-12,18],[-6,6],[-29,13],[-4,2],[-15,12],[-13,15],[-34,58],[-12,15],[-41,35],[-3,8],[-1,15],[1,6],[2,4],[2,5],[-2,6],[-2,4],[-5,2],[-76,7],[-9,9],[-5,14],[-3,14],[-6,10],[-5,0]],[[1171,1508],[-5,-1],[-19,-7],[-9,-1]],[[673,1463],[-15,7]],[[1606,1291],[-5,1],[-4,5],[-5,3]],[[1592,1300],[-7,-3],[-5,-9],[-4,-10],[-4,-10],[-8,-7],[-6,-2]],[[1755,1222],[-56,22],[-30,2],[-8,4],[-8,9],[-13,21],[-8,7],[-13,5],[-6,0]],[[1613,1292],[-7,-1]],[[1558,1259],[-29,2]],[[1529,1261],[-12,-5],[-12,-7],[-11,-10],[-2,-4],[-1,-6],[-2,-4],[-4,-2]],[[1485,1223],[-3,2],[-7,5],[-3,1]],[[1472,1231],[-5,-3],[-5,-5],[-6,-1]],[[1767,1230],[-12,-8]],[[863,468],[8,-3],[7,-12],[9,-29],[9,-43],[4,-13],[4,-7],[12,-14],[4,-7],[6,-23],[11,-21],[13,-10],[87,-17],[39,-7]],[[851,441],[3,0],[2,7],[1,7],[1,8],[5,5]],[[155,447],[11,-8],[9,-20],[13,-34],[17,-14]],[[61,402],[5,1],[52,23],[13,10],[11,8],[13,3]],[[843,444],[8,-3]],[[709,340],[12,6],[21,13],[7,8],[30,43],[14,12],[13,6],[33,16],[4,0]],[[4,435],[24,-6],[10,-6],[16,-18],[7,-3]],[[0,435],[4,0]],[[287,419],[8,-2],[25,-11],[37,-17],[13,-1]],[[205,371],[18,4],[18,22],[-3,7],[7,4],[42,11]],[[439,406],[3,-1],[3,-5],[1,-5],[0,-5],[0,-2],[11,-2]],[[429,404],[10,2]],[[404,406],[25,-2]],[[370,388],[22,14],[12,4]],[[482,392],[12,0],[5,-2],[40,-14],[34,-28],[13,-8],[11,-2]],[[457,386],[25,6]],[[662,367],[12,-5],[23,-18],[12,-4]],[[597,338],[10,2],[44,25],[11,2]],[[1101,267],[18,-10],[6,-1]],[[1076,262],[25,5]],[[1147,258],[4,-2],[3,-6],[7,-24],[3,-7],[4,-5],[21,-16],[11,-13],[27,-34],[33,-23],[21,-15],[22,-28],[36,-34],[9,-15],[9,-22],[7,-14]],[[1125,256],[22,2]],[[2656,4096],[-6,-9],[-52,-58],[-11,-8],[-24,-10],[-8,-7],[-7,-11],[-6,-18],[-7,-14],[-52,-53],[-11,-16],[-5,-8],[-5,-10],[-21,-31],[-27,-23],[-54,-32],[-20,-14],[-26,-25],[-21,-11],[-6,-7],[-11,-18],[-23,-24],[-6,-10],[-6,-15],[-15,-21],[-32,-8],[-16,-12],[-53,-52],[-34,-47],[-35,-24],[-52,-66],[-8,-10],[-32,-32],[-31,-36]],[[2116,187],[-8,3],[-7,8],[-12,17],[-25,30],[-7,12]],[[2297,111],[-28,9],[-9,9],[-4,14],[-2,17],[-4,16],[-3,7],[-13,20],[-6,12],[-3,4],[-6,3],[-21,4]],[[2198,226],[-54,-7],[-8,-6],[-12,-21],[-8,-5]],[[2524,86],[3,1],[1,5],[-1,5],[-3,7],[-7,9],[-6,7],[-7,5],[-56,17],[-11,9],[-17,14],[-21,8],[-21,1]],[[2378,174],[-18,-8],[-22,-14],[0,-1],[-22,-11],[-10,-10],[-1,-17],[-8,-2]],[[2522,87],[2,-1]],[[2493,0],[-1,7],[1,11],[9,24],[1,7],[2,18],[1,6],[3,6],[3,2],[3,1],[4,3],[3,2]],[[2904,0],[1,2],[-1,6],[-3,4],[-72,26],[-7,5],[-12,12],[-6,2]],[[2804,57],[-9,-4],[-16,-18],[-10,-3]],[[2769,32],[-43,17],[-14,1]],[[2712,50],[-15,-3],[-14,-9],[-9,-13],[-12,-25]],[[2069,2515],[1,13],[-4,5],[-9,8],[-4,5],[-4,6],[-8,21],[-8,9],[-16,8],[-8,13]],[[2060,2521],[9,-6]],[[2029,2489],[-26,10],[11,6],[30,2],[16,14]],[[2030,2479],[8,10]],[[2038,2489],[-9,0]],[[1988,2480],[42,-1]],[[1767,1230],[-3,8],[-3,11],[-3,11],[0,9],[3,6],[4,2],[5,0],[5,3],[3,3],[1,3],[0,15],[0,2],[-1,2],[-1,10],[-1,2],[0,4],[1,7],[1,5],[3,4],[6,7],[30,11],[6,7],[1,9],[-4,20],[1,11],[4,7],[5,4],[10,5],[-8,7],[-3,2],[5,3],[7,1],[53,8],[22,10],[9,6],[4,10],[-3,13],[-6,7],[-37,16],[-2,4],[-3,10],[2,8],[2,8],[2,9],[-2,17],[-7,5],[-7,3],[0,20],[2,19],[-2,20],[-19,27],[-14,32],[-7,16],[-9,19],[-5,33],[4,36],[22,53],[-20,98],[-18,87],[-7,36],[-7,32],[13,44],[11,40],[47,42],[32,29],[1,1],[6,10],[4,16],[16,29],[6,15],[21,59],[11,53],[7,15],[-3,12],[8,11],[20,11]],[[437,3285],[29,-2],[5,-11],[0,-11],[-3,-18],[-7,-12],[-7,-3],[-5,-19],[-3,-17],[-15,-16],[-16,-10],[-4,-6],[-1,-9]],[[410,3151],[-3,1]],[[407,3152],[-4,0],[-5,-3],[2,-3],[5,-3],[7,-8],[5,-11],[2,-7],[-3,-11],[-5,0]],[[411,3106],[-20,4],[-4,1]],[[387,3111],[-8,-3],[-19,-18],[-18,-8],[-17,-2]],[[325,3080],[-15,2],[-7,2],[-6,4],[2,5],[1,4],[-5,1]],[[295,3098],[-5,-3],[-38,-41],[-28,-20],[-17,-4]],[[207,3030],[-15,9],[-2,3]],[[1476,3383]],[[190,3042]],[[4096,1669],[-11,4]],[[4085,1673],[-15,-3],[-6,-5],[-8,-12],[-1,-4],[2,-3],[2,-3],[1,-3],[-2,-6],[-2,-2],[-3,0]],[[4053,1632],[-3,1]],[[4050,1633],[-9,-2],[-15,-16],[-7,-13],[2,-7],[11,-7],[5,-2],[3,0]],[[4052,1588],[3,-3],[8,-11],[5,-4],[3,-4],[2,-2],[0,-2],[2,-10],[1,-4],[0,-3],[-1,-3],[-2,-2],[-1,-4],[1,-7],[3,-11],[2,-7],[1,-5],[0,-3],[-2,-6],[-2,-5],[-9,-15],[-2,-1],[-2,-1],[-6,-2],[-9,-5],[-10,-4],[-3,-2],[-1,-3],[-2,-4],[-1,-26],[-1,-6],[-1,-4],[-2,-7],[-1,-6],[0,-4],[1,-17],[-4,-14],[-4,-6],[-14,-17],[-4,-4],[-3,-2]],[[4040,1586],[12,2]],[[3997,1342],[-15,1]],[[3982,1343],[-10,-4],[-31,-19],[-3,-9],[1,-5],[4,-10],[2,-6],[0,-3],[-1,-4],[0,-3],[-9,-23],[-1,-2],[-2,-2],[-14,-2],[-4,-1],[-4,-3],[-1,-3],[-1,-3],[3,-25],[1,-5],[2,-7],[13,-29],[2,-5],[1,-7],[-17,-3]],[[3913,1160],[-4,3],[-3,9],[-2,5],[-2,1],[-46,10]],[[3856,1188],[-1,-1],[0,-2],[1,-2],[0,-2],[1,-2],[0,-3],[-1,-3],[-3,-3],[-7,-3],[-4,0],[-2,0]],[[3781,1178],[-3,0],[-16,6],[-5,1]],[[3757,1185],[-3,-1],[-1,-1],[-12,-15],[-5,-9],[-4,-3],[-10,-5],[-12,-7],[-3,-6],[0,-5],[1,-2],[0,-3],[-1,-5],[-1,-6],[-4,-14],[-2,-6],[-3,-4],[-14,-11],[-7,-3],[-11,-2],[-7,-4],[-7,-5],[-2,-3],[-2,-4],[-1,-3],[-1,-1],[-2,-1]],[[3840,1167],[-25,6],[-11,6],[-4,1],[-3,0]],[[3797,1180],[-16,-2]],[[3643,1056],[-9,0]],[[3634,1056],[-5,-1],[-9,-5],[-12,-22],[-5,-3]],[[3603,1025],[-13,3],[-5,2],[-4,3],[-3,3],[-4,8],[-1,2],[-2,3],[-3,2],[-9,3]],[[3559,1054],[-4,0],[-3,-1],[0,-2],[0,-3],[0,-3],[1,-2],[1,-2],[4,-5],[1,-2],[0,-3],[1,-2],[0,-5],[1,-19],[-1,-3],[0,-4],[-2,-1],[-10,-2],[-11,-5],[-3,0]],[[3534,990],[-8,1]],[[3526,991],[-19,-2],[-3,-2],[-2,-1],[-1,-2],[-1,-3],[-2,-7],[-2,-4],[-2,-2],[-2,-1],[-13,-2],[-2,-2],[-20,-17],[-10,-4],[-2,-2],[-1,-3],[-1,-4],[-1,-5],[-3,-7],[-3,-2],[-2,-1]],[[3434,918],[-2,2],[-9,15],[-1,2],[-3,4]],[[3419,941],[-24,-14],[-9,-2]],[[3386,925],[-18,7],[-10,2]],[[3358,934],[-3,-1],[-1,-2],[-1,-3],[0,-2],[-1,-1],[-1,-2],[-7,-8],[-2,-5],[-1,-2],[-1,-3],[-2,-5],[-1,-6],[0,-3],[0,-3],[1,-5],[3,-9],[1,-5],[-1,-3],[0,-1],[-2,-1],[-6,-1],[-2,-1],[-2,-2],[-3,-6],[-6,-9],[-3,-4],[-15,-10],[-2,-3],[-7,-11],[-2,-1],[-3,0]],[[3257,814],[-11,2],[-16,5],[-3,2],[-5,7],[-8,5],[-4,2],[-3,1]],[[3207,838],[-19,-5],[-50,-22],[-4,0]],[[3134,811],[-2,1],[-1,2],[-3,8],[-7,5],[-26,8]],[[3288,816],[-10,3],[-4,0]],[[3274,819],[-7,0],[-10,-5]],[[1979,2262],[-4,1],[-3,2],[-11,10]],[[1961,2275],[-5,0],[-47,-25],[-17,-1]],[[2025,2255],[-32,12]],[[1993,2267],[-3,-1],[-4,-2],[-4,-2],[-3,0]],[[2107,2160],[-3,1],[-3,3],[-8,12],[-13,15],[-8,12],[-1,3],[-8,26],[-4,10],[-7,13],[-2,3],[-3,2],[-4,0]],[[2043,2260],[-7,-3],[-11,-2]],[[2551,1939],[-2,1],[-3,2],[-3,6],[-2,4],[-1,4],[-2,12],[-3,7],[-2,3],[-3,2],[-70,18],[-3,2],[0,4],[2,3],[4,1],[8,1],[4,1],[2,2],[0,3],[-1,3],[-7,8],[-1,3],[-3,7],[-5,14],[-3,4],[-6,4],[-46,18],[-5,4],[-8,7],[-8,9],[-3,6],[-4,3],[-5,2],[-15,3],[-3,2],[-1,4],[5,9],[1,3],[0,4],[-12,6],[-46,5],[-23,0],[-75,27],[-12,0]],[[2191,2170],[-35,-5]],[[2156,2165],[-36,1]],[[2120,2166],[-13,-6]],[[2606,1879],[-14,4],[-15,9],[-7,3],[-5,2],[-2,2],[-4,6],[-2,4],[1,2],[1,2],[1,0],[3,4],[1,2],[1,3],[0,3],[2,3],[4,4],[1,3],[-2,2],[-3,2],[-7,1]],[[2560,1940],[-9,-1]],[[2653,1872],[-26,10],[-5,0]],[[2622,1882],[-16,-3]],[[2722,1875],[-38,1]],[[2684,1876],[-23,-4],[-8,0]],[[2576,3790],[-8,4],[-4,6],[-1,6],[-3,7],[-7,15],[-4,6],[-4,4],[-30,13],[-4,4],[-3,5],[-3,5],[-4,4],[-3,3],[-28,11],[-3,1]],[[4096,3830],[-78,-5],[-32,-37],[-2,-9],[0,-3],[1,-4],[1,-4],[1,-4],[3,-5],[2,-3],[4,-2],[13,-5],[5,-4],[12,-18],[5,-5],[5,-2]],[[3715,3421],[-1032,373]],[[2683,3794],[-107,-4]],[[4093,3757],[3,0]],[[4036,3720],[16,3],[3,2],[2,3],[2,3],[4,12],[2,3],[2,3],[6,4],[3,2],[17,2]],[[4096,3631],[-69,16],[-9,4],[-2,3],[-3,4],[-5,4],[-10,7],[-8,3],[-6,1]],[[3984,3673],[-5,-1],[-4,-2],[-1,-1],[-2,-3],[-1,-4],[-1,-4],[0,-4],[1,-4],[1,-4],[4,-14],[1,-4],[0,-3],[-2,-3],[-3,-2],[-57,-21],[-6,-4],[-2,-3],[-2,-3],[-1,-3],[-3,-5],[-4,-6],[-10,-7],[-4,-6],[-4,-4],[-2,-8],[0,-3],[0,-3],[3,-2],[14,-3],[3,-2],[1,-3],[-3,-5],[-18,-9],[-5,-5],[-2,-4],[0,-5],[-2,-5],[-2,-4],[-5,-6],[-10,-5],[-61,-10],[-3,-3],[-2,-4],[-1,-4],[-4,-10],[-16,-18],[-16,-9],[-24,-6],[-9,-1]],[[3849,2533],[-3,2],[-4,3],[-11,25],[-4,4],[-12,1]],[[3815,2568],[-4,-1],[-2,-2],[-3,-4],[-1,-6],[-1,-5],[0,-10],[-2,-4],[-3,-4],[-12,-14],[-5,-4],[-11,-3],[-3,-2],[-20,-30],[-19,-20],[-2,-3],[-2,-3],[0,-5],[1,-5],[4,-14],[2,-3],[2,-3],[2,-4],[2,-2],[0,-4],[-2,-7],[-4,-10],[-16,-32],[-7,-7],[-12,-5]],[[3458,2527],[-4,1],[-8,4],[-3,3],[-3,8],[-3,1]],[[3437,2544],[-9,-4],[-10,-9],[-2,-2],[-11,-29],[-2,-4],[-4,-6],[-3,-4],[-3,-1],[-4,-1]],[[3545,2468],[-3,1],[-1,2],[0,2],[0,3],[-1,12],[-1,4],[-1,3],[-2,4],[-2,2],[-18,12],[-2,3],[-3,6],[-3,11],[-1,6],[-1,2],[-2,1]],[[3504,2542],[-5,-2],[-7,-5],[-7,-3],[-23,-5],[-4,0]],[[3934,2489],[-18,3],[-4,2],[-4,8],[-3,5],[-21,16],[-25,10]],[[3859,2533],[-10,0]],[[4096,2455],[-1,2],[-6,14],[-2,3],[-3,3],[-8,3],[-15,1],[-4,3],[-4,3],[-3,8],[-6,11],[-17,9],[-10,9],[-5,3],[-55,5]],[[3957,2532],[-5,-2],[-1,-3],[0,-4],[0,-5],[0,-8],[-1,-13],[-1,-4],[-2,-3],[-4,-1],[-9,0]],[[3389,2484],[-20,3],[-12,11],[-10,4],[-8,5],[-22,11],[-9,4],[-8,2]],[[3300,2524],[-4,-1],[-4,-1],[-2,-3],[-2,-6],[0,-5],[1,-4],[3,-16],[0,-4],[0,-4],[0,-5],[0,-5],[-1,-4],[-2,-8],[-1,-4],[-1,-4],[1,-4],[1,-4],[1,-3],[2,-3],[5,-5],[1,-3],[1,-4],[0,-4],[-1,-4],[-2,-3],[-4,-2],[-8,-2],[-2,-2],[-2,-1],[-2,-4],[-2,-6],[-4,-11],[-1,-7],[0,-6],[0,-4],[0,-4],[0,-4],[-1,-4],[-7,-16],[-1,-5],[-3,-6],[-4,-5],[-10,-8],[-12,-7],[-3,-2],[-2,-5],[-7,-12],[-9,-10],[-3,-7],[-1,-5],[1,-2],[0,-1],[0,-1],[0,-2],[1,-2],[-2,-3],[-2,-3],[-17,-3]],[[3576,2402],[-3,1],[-4,2],[-4,5],[-1,5],[1,3],[7,7],[1,4],[1,4],[0,5],[-1,4],[-1,4],[-3,5],[-5,5],[-3,3],[-3,7],[-3,1],[-5,2]],[[3550,2469],[-5,-1]],[[3630,2400],[-4,0],[-4,2],[-6,4],[-6,3],[-25,3]],[[3585,2412],[-4,-1],[-2,-1],[-1,-3],[-1,-3],[-1,-2]],[[3697,2352],[-4,13],[-2,13],[-2,5],[-6,3],[-12,6],[-15,2],[-15,7]],[[3641,2401],[-11,-1]],[[3132,2316],[-4,0],[-3,1],[-4,6],[-3,1]],[[3118,2324],[-7,0],[-8,-2],[-8,-5],[-7,-10],[-1,-22],[0,-9],[0,-2],[0,-3],[-2,-8],[0,-3],[-2,-7],[-1,-3],[-1,-3],[-18,-28],[-55,-55],[-12,-20],[-1,-4],[-1,-6],[0,-4],[0,-4],[-1,-8],[-1,-22],[-1,-4],[-3,-3],[-7,-3],[-33,-6]],[[3189,2251],[-23,31],[-12,21],[0,4],[0,5],[-1,4],[-2,3],[-6,0]],[[3145,2319],[-13,-3]],[[2816,2092],[-18,9],[-4,0]],[[2794,2101],[-3,-1],[-3,-2],[-17,-16],[-2,-3],[-2,-4],[1,-7],[2,-5],[3,-7],[0,-4],[0,-4],[-5,-12],[-1,-3],[-2,-5],[-1,-9],[-1,-7],[0,-7],[1,-4],[1,-4],[1,-4],[2,-3],[1,-4],[6,-13],[8,-16],[4,-10],[1,-3],[2,-3],[2,-2],[0,-2],[-6,-3],[-7,-1],[-3,-2],[-3,-3],[-1,-5],[0,-5],[2,-2],[1,-2],[1,-1],[1,-1],[0,-3],[-2,-3],[-6,-5],[-9,-4],[-6,-6],[-8,-18]],[[2873,2061],[-4,1],[-3,1],[-8,12],[-2,2],[-3,1],[-8,2],[-3,1],[-1,1],[-2,3],[-2,2],[-2,3],[-2,2],[-4,1],[-4,1]],[[2825,2094],[-9,-2]],[[2948,2080],[-7,1],[-9,0]],[[2932,2081],[-20,-4],[-11,-4],[-9,-7],[-11,-4],[-8,-1]],[[2746,1873],[-14,4]],[[2732,1877],[-10,-2]],[[4096,117],[-5,3],[-4,1]],[[4087,121],[-7,-3],[-5,0]],[[4075,118],[-8,2]],[[4067,120],[-4,-1],[-2,-4],[-1,-3],[1,-4],[6,-9],[3,-7],[1,-7],[-2,-7],[-2,-16],[-5,-10],[-7,-9],[-19,-10],[-3,-2],[-3,-3],[0,-5],[-1,-3],[-2,-4],[-8,-7],[-5,-9]],[[2722,1875],[-10,-17],[-5,-13],[-3,-7],[-9,-9],[-28,-22],[-8,-9],[-4,-9],[-4,-10],[-4,-5],[-28,-26],[-13,-15],[-1,-3],[0,-6],[-1,-4],[3,-11],[12,-21],[0,-8],[-3,-48],[-2,-16],[1,-2],[1,-2],[5,-1]],[[2657,1627],[4,-2],[4,-4],[14,-19],[3,-3],[8,-11],[7,-5],[7,-4],[2,0]],[[2621,1611],[3,0],[3,1],[3,3],[10,10],[2,1],[2,1],[13,0]],[[2728,1590],[2,-1],[1,-1],[1,-3],[0,-2],[0,-3],[-1,-2],[-3,-5],[-27,-28],[0,-4],[0,-4],[0,-2],[1,-2],[1,-4],[2,-2],[1,-2],[2,-1],[5,-1],[44,-2],[4,-1],[19,-10],[12,-10],[132,-18],[2,-3],[2,-4],[1,-2],[1,-5],[1,-3],[0,-3],[-1,-3],[-1,-5],[-2,-7],[-3,-8],[-3,-8],[-2,-4],[-3,-4],[-2,-3],[-2,0],[-20,-8],[-10,-2],[-1,-2],[0,-2],[3,-4],[3,-2],[24,-10],[7,-4],[1,-2],[1,-3],[0,-5],[-3,-8],[-2,-4],[-1,-3],[-4,-4],[-8,-12],[1,-6],[9,-14],[7,-8],[33,-24],[-23,-59],[-19,-32],[-1,-3],[-1,-4],[0,-8],[0,-5],[0,-17],[3,-15],[0,-2],[0,-3],[-1,-12],[-4,-7],[-15,-10],[2,-5],[7,-11],[3,-3],[15,-14],[94,-42],[-1,-11],[-1,-3],[-2,-2],[-2,-2],[-7,-3],[-2,-2],[-1,-3],[0,-3],[0,-3],[-2,-2],[-14,-4],[-8,-4],[-4,-3],[-2,-2],[-1,-3],[-1,-2],[1,-6],[6,-11],[3,-6],[0,-3],[1,-2],[0,-3],[-1,-6],[0,-3],[-2,-8],[-2,-10],[-2,-24],[-1,-4],[-1,-6],[0,-2],[0,-9],[-1,-11],[0,-15],[0,-1],[1,-4],[-1,-8],[1,-6],[0,-2],[2,-2],[2,-3],[10,-3],[42,-4],[4,-2],[4,-6],[3,-3],[2,-1]],[[2706,1579],[3,0],[2,0],[4,3],[7,6],[1,1],[3,1],[2,0]],[[3035,815],[3,0],[8,6],[6,8],[9,3],[34,3]],[[3095,835],[-2,-11],[-3,-13],[0,-2],[-3,-8],[-2,-3],[-3,-3],[-7,-5],[-5,-1],[-3,-1]],[[3067,788],[-6,1]],[[3061,789],[-2,0],[-2,-2],[0,-4],[0,-3],[2,-10],[1,-5],[0,-11],[-1,-6],[0,-6],[-3,-12],[-1,-6],[-1,-2],[-2,-1]],[[3052,721],[-10,4]],[[3042,725],[-7,0],[-14,-6],[-2,-4],[-2,-5],[-2,-6],[0,-3],[0,-3],[1,-3],[3,-3],[3,-1]],[[3026,692],[2,-1],[2,-2],[0,-3],[0,-3],[-2,-9],[-1,-3],[0,-3],[1,-3],[0,-2],[5,-12],[11,-26],[7,-8],[3,-2],[4,0]],[[3022,691],[4,1]],[[3075,638],[2,0],[2,-2],[1,-2],[2,-3],[1,-2],[2,-1],[1,0]],[[3058,615],[2,0],[2,1],[1,2],[2,5],[4,10],[1,2],[1,2],[2,1],[2,0]],[[3112,638],[2,-1],[1,-1],[2,-3],[1,-3],[2,-10],[1,-3],[2,-12],[1,-2],[0,-6],[0,-2],[-4,-16],[-19,-57],[-1,-6],[-1,-12],[0,-5],[1,-3],[1,-2],[1,-2],[2,-2],[5,-1],[8,0],[21,-11],[9,-4],[16,0],[3,-1],[3,-3],[4,-7],[1,-3],[2,-7],[0,-2],[0,-11],[0,-14],[1,-19],[1,-5],[1,-2],[2,-2],[3,-1]],[[3086,628],[24,10],[2,0]],[[3201,402],[2,-1],[2,-4],[1,-5],[1,-2],[0,-2],[3,-4],[6,-7],[3,-3],[55,-5],[1,-7],[1,-3],[0,-7],[-4,-48],[-1,-9],[-1,-6],[-2,-32],[-1,-8],[0,-4],[1,-4],[1,-7],[1,-4],[2,-5],[0,-3],[1,-2],[1,-8],[0,-2],[1,-2],[1,-3],[1,-2],[2,-3],[2,-6],[-2,-4],[-1,-4],[-1,-5],[-1,-4],[-7,-3],[-3,-2],[-2,-4],[-6,-2],[-3,-2],[-2,-3],[-4,-9],[-1,-2],[-19,-13],[-5,-2],[-4,-3],[4,-8],[9,-13],[12,-31],[-2,-35],[0,-6],[5,-20],[8,-19]],[[3184,397],[6,0],[3,1],[6,4],[2,0]],[[2975,2752],[28,23],[3,36],[-63,37],[-26,23],[0,49],[6,27],[-10,18],[-46,28],[-9,18],[4,25],[11,18],[-26,11],[-27,1],[-24,5],[-199,83]],[[2597,3154],[-24,-2],[-23,-15],[-21,-22],[-9,-19],[-1,-10]],[[2620,2932],[-6,-57],[12,-13],[25,-18],[12,-1]],[[2676,2846],[11,-27],[22,-13],[15,-15],[13,-20],[35,-40],[39,-26],[7,-6],[7,-6],[41,-4]],[[2663,2843],[13,3]],[[2948,2757],[27,-5]],[[2866,2689],[36,12],[12,7],[19,39],[15,10]],[[848,4069],[-3,8],[-7,13],[-2,6]],[[895,3990],[-6,22],[-2,21],[-6,16],[-7,4],[-1,3],[5,9],[-2,13],[-11,2]],[[865,4080],[-9,-8],[-8,-3]],[[839,3858],[28,12],[4,6],[-1,4],[2,7],[3,5],[5,4]],[[814,3888],[3,-4],[7,-19],[6,-6],[9,-1]],[[797,3863],[9,6],[4,10],[4,9]],[[747,3878],[12,-1],[26,-11],[12,-3]],[[597,3758],[-1,8],[0,2],[18,5],[15,8],[20,18],[4,8],[-2,1],[-5,5],[-3,8],[1,12],[4,4],[23,0],[14,4],[50,33],[12,4]],[[578,3761],[19,-3]],[[475,3689],[-3,1],[1,2],[1,9],[1,3],[-2,3],[-12,3],[4,8],[8,5],[49,12],[36,20],[20,6]],[[492,3632],[5,9],[-1,6],[-4,9],[-5,7],[-4,3],[0,4],[9,6],[7,6],[3,7],[-5,6],[-4,0]],[[493,3695],[-18,-6]],[[282,3683],[24,-8],[35,-26],[12,-4]],[[254,3670],[28,13]],[[439,3675],[6,-3],[21,-7],[20,-30],[6,-3]],[[395,3660],[29,13],[15,2]],[[355,3660],[40,0]],[[353,3645],[-3,10],[-1,2],[6,3]],[[1390,4072],[1,3],[0,3],[0,11],[0,7]],[[1377,4075],[13,-3]],[[1462,3862],[-6,19],[-7,8],[-28,9],[-11,7],[-20,19],[-5,3],[-4,3],[4,11],[3,5],[2,3],[-1,4],[-11,8],[-7,8],[-3,9],[1,5],[7,16],[2,7],[-1,4],[-2,3],[-5,7],[-1,3],[2,8],[4,5],[4,3],[1,0],[1,5],[0,7],[-1,9],[-2,8],[-2,4],[1,3]],[[898,3987],[159,23],[9,4],[6,10],[6,16],[6,26],[4,30]],[[895,3990],[3,-3]],[[907,3866],[-8,2],[-7,4],[-5,0],[-5,3],[-2,14],[0,7]],[[996,3680],[6,10],[13,33],[0,19],[-8,8],[-9,5],[0,5],[0,3],[-1,4],[2,7],[2,4],[3,7],[1,7],[0,5],[-3,8],[-10,9],[-6,10],[-1,7],[-6,8],[-41,9],[-16,0],[-4,7],[-2,8],[-4,5]],[[912,3868],[-5,-2]],[[994,3680],[2,0]],[[944,3544],[-2,6],[-1,6],[1,7],[4,5],[16,38],[8,15],[10,13],[10,10],[7,4],[6,6],[0,3],[-2,6],[-2,2],[-6,6],[-5,4],[-2,2],[5,2],[3,1]],[[950,3543],[-2,1],[-3,1]],[[945,3545],[-1,-1]],[[895,3990],[-32,13]],[[863,4003],[-4,-6],[2,-8],[6,-13],[5,-10],[3,-9],[0,-17],[-1,-16],[0,-15],[6,-13]],[[1497,3872],[8,-4],[4,-6],[3,-7],[3,-5],[2,-6],[-8,-16],[-2,-2],[4,-7],[5,-2]],[[1462,3862],[35,10]],[[1592,3869],[4,-8],[1,-8],[4,-8],[4,-6],[4,-10],[1,-11],[0,-5],[1,-9],[1,-4],[6,-10],[21,-14]],[[1516,3817],[13,3],[12,9],[11,9],[3,5],[5,14],[4,5],[8,4],[7,2],[13,1]],[[1639,3776],[77,8]],[[1462,3862],[-18,-5],[-8,-5],[-4,-4],[-5,-24],[-9,-14],[-34,-31],[-38,-16]],[[1346,3763],[-11,2],[-13,11]],[[1322,3776],[-17,-9],[-9,-12],[-3,-9],[2,-13],[4,-1],[6,-4],[5,-5],[4,-6],[2,-7],[1,-7],[3,-8],[2,-3],[2,-5],[-7,-22],[-2,-5],[-6,-3]],[[1309,3657],[-14,3]],[[1295,3660],[-4,-1],[-1,-21],[12,-11],[25,-6],[5,-7],[-3,-6],[-6,-9],[-3,-10],[-1,-6],[-1,-6],[-3,-1],[-5,-3],[-4,-7],[-1,-10],[3,-5],[23,-3],[9,-8],[6,-11],[4,-14],[3,-17]],[[2328,4045],[58,0],[50,10],[20,8],[10,9],[17,24]],[[2308,4049],[20,-4]],[[2240,4000],[36,8],[21,12],[3,7],[-1,16],[2,5],[7,1]],[[2182,4030],[6,-3],[10,-19],[9,-6],[33,-2]],[[1835,3923],[234,9],[58,32],[20,20],[4,8],[3,6],[1,6],[2,4],[8,12],[8,8],[9,2]],[[1730,3954],[19,-3],[86,-28]],[[1672,3931],[8,1],[32,19],[18,3]],[[1645,3934],[27,-3]],[[1691,3901],[-61,11],[-3,11],[6,6],[12,5]],[[1770,3819],[-9,4],[-4,8],[3,5],[-1,12],[-20,25],[-13,11],[-5,8],[6,2],[5,4],[-6,4]],[[1726,3902],[-35,-1]],[[1716,3784],[43,4],[6,2],[7,7],[0,4],[0,4],[3,3],[3,2],[2,3],[0,1],[-1,4],[0,2]],[[1779,3820],[-9,-1]],[[1716,3784],[1,-12],[-3,-9],[-7,-13],[0,-6]],[[1710,3744],[5,-1],[3,-1],[4,-4],[-4,-5],[-6,-2],[-12,-10],[-7,-14],[1,-10],[3,-8],[-6,-9],[2,-4],[2,-1],[13,-3],[5,-2],[4,-6],[2,-6],[4,-5],[4,-3],[-1,-7],[-6,-3],[-11,-2]],[[1707,3744],[3,0]],[[1709,3638],[-12,3],[-5,3],[-6,1]],[[1686,3645],[0,-4],[4,-8],[26,-27],[12,-8],[46,-17],[12,-11],[17,-24],[10,-12],[11,-6]],[[1889,3529],[11,-15],[4,-9],[14,-3]],[[1824,3528],[65,1]],[[1934,3504],[15,-6],[3,-6],[6,-19],[4,-8],[6,-6],[18,-13],[2,-4],[-1,-2],[-1,-1],[-1,-1],[1,-1],[9,-2]],[[1918,3502],[16,2]],[[1998,3436],[6,-2]],[[1995,3435],[3,1]],[[1353,3498],[1,-5],[0,-5],[1,-4],[1,-1],[-4,-13],[-7,-8],[-8,-5],[-17,-2]],[[1266,3463],[-11,2],[-5,5],[-3,6],[-5,5],[-8,2]],[[1234,3483],[-102,-32]],[[1320,3455],[-33,8]],[[1287,3463],[-21,0]],[[1132,3451],[-14,1],[-17,10]],[[1360,3496],[-7,2]],[[1476,3383],[-4,3],[-15,2],[-10,11],[-9,14],[-12,12],[-25,14],[-7,12],[0,9],[0,11],[-3,4],[-7,15],[-5,6],[-6,2]],[[1373,3498],[-13,-2]],[[67,4096],[-8,-17],[-22,-21],[-1,-14],[15,-23],[12,-11],[10,-3],[9,-6],[-1,-5],[-1,-9],[2,-7],[1,-3],[-1,-4],[-18,-4],[-2,-2],[0,-2],[0,-1],[1,-6],[-2,-3],[-3,-1],[-3,-2],[-3,-4],[-1,-4],[-5,-2]],[[46,3942],[-9,4],[-11,2]],[[26,3948],[-2,-5],[7,-25],[2,-4],[0,-5],[-8,-5],[1,-6],[3,-5],[21,-28],[2,-6],[1,-6],[2,-6],[4,-5],[7,-2]],[[89,3841],[45,-9],[20,-14],[7,-10],[3,-14]],[[66,3840],[23,1]],[[164,3794],[-11,0]],[[153,3794],[-1,-8],[2,-8],[4,-13],[6,-8],[5,-3],[2,-4],[-9,-8],[-5,-6],[-3,-4],[2,-7],[5,0]],[[179,3728],[3,-3],[0,-5],[-4,-1],[-5,-3],[-3,-6],[1,-8]],[[161,3725],[18,3]],[[950,3543],[3,-10],[4,-7],[8,-7],[2,-5],[0,-4],[-6,-4],[-6,-2],[-10,-5],[-7,-9],[-4,-7],[-2,-9],[1,-3]],[[955,3483],[18,-4],[4,-3],[-29,-13],[-4,-5],[4,-19],[1,-3],[-4,-2]],[[933,3471],[13,10],[9,2]],[[945,3434],[-25,10],[-12,1]],[[908,3445],[-11,-2],[-19,-8],[-59,-8]],[[819,3427],[-50,4]],[[769,3431],[-7,-3],[-7,-13],[-2,-14],[1,-19],[-2,-8],[-15,-14],[-22,-4]],[[650,3365],[-12,22],[-6,7],[-16,9],[-89,23]],[[527,3426],[-18,-3]],[[715,3356],[-18,7],[-3,10],[-3,13],[-6,2],[-15,2]],[[670,3390],[-11,-5],[-2,-9],[0,-9],[-7,-2]],[[981,3551],[5,-3],[1,-1],[2,-6],[4,-7],[19,-23],[9,-8],[9,-4]],[[950,3543],[31,8]],[[1071,3524],[12,0],[7,-9],[6,-15],[4,-19],[1,-19]],[[1030,3499],[17,5],[24,20]],[[254,3670],[15,-19],[9,-8],[6,-2],[6,-8],[-1,-8],[-2,-10],[-5,-4],[-4,0],[-3,-1],[1,-2],[3,-11],[0,-2],[-6,-1]],[[273,3594],[-21,2]],[[252,3596],[-13,-3],[-7,-14],[2,-17],[8,-8],[17,-4],[2,-7],[-5,-4],[-7,-8],[-5,-10],[-3,-6],[5,-11],[21,-17],[12,-8],[15,-4]],[[356,3492],[13,-14],[5,-10],[16,-10],[30,-6],[19,-20],[22,-6],[48,-3]],[[294,3475],[18,3],[34,13],[10,1]],[[194,3690],[-9,1],[-5,1],[-9,10]],[[254,3670],[-10,6],[-8,9],[-9,7],[-16,2]],[[211,3694],[-17,-4]],[[437,3285],[7,17],[9,7],[39,11],[5,7],[-1,12],[-2,9],[2,10],[4,2],[7,8],[6,12],[2,7],[-3,8],[-5,2],[-4,6],[0,9],[6,11]],[[171,3702],[-17,6],[-30,26]],[[124,3734],[-5,-1],[0,-8],[3,-4],[1,-9],[-4,-10],[-3,-4],[3,-19],[-9,-11],[-16,-7],[-13,-3]],[[81,3658],[-55,2]],[[26,3660],[-8,-3],[-5,-8],[11,-13],[3,-3],[-4,-3],[-23,-2]],[[889,3088],[56,142],[1,67],[-92,120],[-33,129],[-51,86],[-95,78],[-208,100],[-3,210]],[[215,3244],[-164,48],[-51,-28]],[[405,3015],[-155,105],[-35,124]],[[628,3066],[-102,-56],[-120,5]],[[692,3050],[-64,16]],[[702,3052],[-9,-1]],[[733,3064],[-10,-9],[-5,-5],[-1,0],[-1,-1],[-1,0],[-1,0],[-1,0],[-11,3]],[[733,3064],[-31,-12]],[[812,3116],[-2,0],[-1,-1],[-2,0],[-2,-2],[-1,0],[-1,0],[-2,0],[-1,0],[-1,0],[-3,-1],[-1,0],[-1,0],[-2,1],[-1,0],[-1,0],[-1,0],[-11,-4],[-2,-1],[-1,0],[-1,-1],[-1,0],[-4,-4],[-8,-5],[-5,-1],[-1,0],[-1,0],[-1,-1],[-1,-1],[-2,-2],[-1,-1],[-4,-5],[-12,-23]],[[812,3116],[-79,-52]],[[813,3116]],[[813,3116]],[[889,3090],[-1,1],[0,4],[-2,7],[0,1],[0,2],[0,1],[-1,3],[0,1],[-1,1],[-3,3],[-4,3],[0,1],[-1,0],[-2,1],[-5,3],[-1,1],[-1,0],[-1,1],[-3,-1],[-5,2],[-1,0],[-1,0],[-1,-1],[-6,-3],[-1,0],[-6,1],[-1,0],[-6,-1],[-1,0],[-5,-1],[-1,0],[-4,0],[-1,0],[-1,0],[-1,-1],[-4,-2],[-2,0]],[[888,3093],[-21,30],[-4,0],[-6,2],[-7,-4],[-35,-4]],[[889,3090],[-1,3]],[[889,3088],[0,2]],[[889,3088],[56,142],[0,67],[-91,119],[-33,130],[-51,86],[-95,78],[-208,100],[-3,210]],[[1825,393],[1,-10],[0,-10],[-4,-10],[-10,-2],[-17,5],[-4,13],[-7,5],[-8,2],[-8,4],[0,5],[16,4],[8,5],[0,8],[-2,6],[2,4],[3,0],[8,-11],[4,-1],[4,1],[4,-1],[7,-8],[3,-9]],[[1623,720],[2,-2],[11,-5],[-60,-50],[-13,-7],[-7,4],[3,22],[9,22],[11,17],[11,7],[6,2],[11,7],[6,0],[4,-2],[3,-3],[2,-5],[1,-7]],[[3889,992],[8,-9],[5,-10],[-7,-5],[-8,4],[-7,7],[-8,4],[-8,-5],[-1,-10],[-8,0],[-9,2],[-7,-2],[-3,-9],[-3,-13],[-4,-9],[-6,5],[-10,15],[-1,8],[7,3],[10,10],[7,5],[3,3],[2,6],[-9,14],[-3,6],[-1,6],[-1,14],[-2,6],[-4,3],[-6,2],[-6,3],[-5,15],[-7,3],[-13,0],[2,-9],[-2,-3],[-5,1],[-9,6],[-4,-1],[-3,-2],[-4,-1],[-15,0],[-3,-2],[-5,-3],[-4,-2],[-3,2],[-1,5],[2,4],[4,4],[2,1],[8,2],[9,7],[13,2],[18,9],[8,1],[6,-3],[6,-4],[8,-4],[14,3],[24,21],[11,0],[6,-9],[8,-7],[16,-8],[-12,1],[-5,-2],[-5,-4],[4,-2],[4,-3],[3,-4],[4,-5],[-4,-3],[-10,-4],[-4,-3],[-3,-5],[-1,-3],[2,-2],[21,-40],[4,-3]],[[3848,1050],[8,7],[8,-2],[-3,7],[-8,4],[-1,13],[-15,-8],[-9,-6],[-4,-8],[2,-9],[5,-11],[6,-11],[4,-5],[2,17],[5,12]],[[1017,1377],[3,-13],[7,-11],[-2,-3],[-1,0],[-4,3],[-8,1],[-10,4],[-9,6],[-4,6],[-2,13],[-7,15],[-7,12],[-6,6],[8,3],[19,-15],[11,-3],[0,-3],[-1,-1],[-1,0],[-1,0],[11,-8],[4,-12]],[[2170,2490],[7,-3],[5,-7],[-2,-3],[-6,-2],[-50,0],[-11,-2],[-4,-8],[3,-19],[-10,3],[-5,3],[-2,6],[1,8],[1,5],[0,5],[-5,4],[-7,-2],[-15,-25],[-8,-7],[-2,-6],[-3,-14],[-2,-30],[-4,-12],[-8,-9],[-9,-6],[-6,0],[4,4],[4,6],[3,8],[1,9],[0,21],[1,5],[3,8],[1,4],[-5,23],[-12,-4],[-13,-14],[-10,-7],[-3,4],[-8,16],[-4,6],[-7,2],[-4,-8],[-3,-10],[-5,-5],[-6,-10],[-4,-20],[-6,-21],[-10,-8],[11,53],[7,15],[-4,13],[8,10],[21,11],[42,0],[8,9],[-9,0],[-26,10],[11,6],[30,3],[16,13],[7,-4],[17,-19],[19,-12],[16,-3],[3,2],[2,3],[4,9],[2,2],[5,3],[6,1],[6,-1],[10,-13],[7,-1],[6,2]],[[540,3120],[-9,-7],[-1,-6],[3,-11],[-15,0],[-6,3],[1,7],[-4,4],[-5,1],[-5,-1],[-4,-4],[10,-15],[-1,-12],[-6,-5],[-10,8],[4,1],[2,4],[3,4],[1,5],[-9,5],[-6,-3],[-12,-11],[-8,-2],[-4,3],[-11,13],[4,-3],[2,0],[4,3],[-2,2],[-4,6],[-1,2],[1,3],[2,4],[0,4],[1,3],[-7,0],[4,10],[14,13],[6,8],[7,7],[29,5],[-7,-7],[-7,-6],[-16,-6],[2,-4],[-1,-3],[-1,-3],[0,-4],[17,10],[36,10],[17,13],[5,-6],[3,-7],[4,-3],[6,7],[-8,20],[-3,4],[-5,-2],[-5,-5],[-6,-4],[-5,4],[4,6],[10,10],[11,3],[7,-12],[7,-24],[-2,-9],[-4,-4],[-9,-6],[-18,-20]],[[2885,1008],[2,-9],[1,-8],[-5,-7],[-12,-11],[-4,-1],[-3,1],[-3,2],[-3,3],[1,2],[-2,6],[-2,6],[-1,4],[3,6],[5,8],[6,7],[6,4],[9,2],[2,-6],[0,-9]],[[2486,3385],[18,-30],[6,-16],[-6,-7],[-4,3],[-11,16],[-5,5],[-23,8],[-7,7],[8,14],[7,10],[6,1],[9,-11],[2,0]],[[2741,3440],[-12,-13],[-55,7],[-16,-3],[-12,-8],[-16,2],[-16,7],[-13,8],[-5,6],[-10,21],[-2,4],[0,1],[15,3],[7,-2],[8,-6],[6,-9],[4,-7],[4,-6],[8,-2],[33,5],[17,-6],[9,0],[9,6],[-8,11],[-9,7],[-34,11],[-4,4],[-3,8],[0,5],[2,5],[1,7],[0,15],[-1,6],[-4,3],[-5,1],[-4,3],[-3,7],[1,8],[0,4],[-1,5],[1,3],[2,2],[5,-1],[1,1],[2,3],[4,4],[2,2],[7,-14],[-3,-5],[-1,-5],[0,-6],[3,-6],[2,-6],[0,-7],[-1,-7],[0,-6],[4,-17],[6,-6],[18,-6],[12,-12],[9,-4],[8,-10],[3,-3],[10,2],[21,12],[12,1],[69,-22],[50,-27],[8,-9],[14,-28],[6,-6],[-1,-4],[-7,2],[-6,6],[-6,6],[-4,7],[-14,16],[-34,13],[-14,14],[-16,10],[-27,5],[-25,-1],[-11,-9]],[[263,3983],[3,-9],[12,-21],[-13,1],[-26,8],[-13,-4],[-3,-3],[-10,-14],[-4,-10],[-4,-1],[-3,4],[2,9],[-11,12],[-9,-14],[-9,-20],[-7,-11],[-57,-13],[-6,-4],[-5,-5],[-12,-8],[-8,-8],[-10,-5],[-2,-3],[-7,-17],[-9,-12],[-1,-7],[4,-12],[-1,-5],[-9,1],[-16,6],[17,0],[-3,9],[0,5],[1,5],[2,6],[12,20],[29,34],[13,6],[9,9],[3,3],[26,-3],[3,4],[6,2],[12,1],[4,3],[3,5],[17,39],[8,13],[8,3],[2,-4],[0,-6],[3,-5],[7,1],[13,8],[6,1],[5,3],[3,7],[2,6],[4,4],[79,0],[0,-5],[-5,-4],[-11,1],[-6,-2],[-31,0],[-7,-4]],[[1464,4096],[12,0],[-1,-1],[-3,-3],[-5,2],[-3,2]],[[1436,4096],[10,0],[-3,-4],[-5,-3],[-2,6],[0,1]],[[1272,4096],[65,0],[-8,-20],[-2,-18],[9,-9],[0,-3],[0,-1],[-1,-2],[-1,-3],[-7,5],[-9,3],[-17,1],[-6,2],[-10,10],[-6,3],[2,3],[0,1],[-2,1],[-1,11],[-2,7],[-3,6],[-1,3]],[[1557,4096],[38,0],[1,-2],[3,-4],[4,-2],[-3,-3],[-4,-2],[-3,0],[-5,1],[4,-5],[5,-3],[4,-2],[5,0],[-5,-9],[-7,-5],[-8,-1],[-8,5],[-2,7],[-2,8],[-2,6],[-6,3],[6,-21],[1,-3],[-3,-5],[-6,0],[-5,3],[-4,4],[-1,14],[3,14],[0,2]],[[1844,3650],[-6,-2],[-2,-4],[2,-16],[-2,-7],[-3,0],[-3,6],[-2,8],[-7,-7],[-3,3],[-2,8],[-3,6],[-7,1],[-8,-4],[-7,-1],[-7,6],[-3,10],[-1,8],[-2,6],[-6,3],[-6,-5],[-5,-9],[-5,-7],[-5,2],[1,2],[0,2],[1,5],[2,8],[3,7],[4,5],[3,5],[-1,7],[4,6],[5,0],[4,-12],[10,-7],[4,-4],[-3,-17],[8,-8],[13,-4],[33,3],[21,7],[8,12],[5,2],[2,-16],[2,-3],[2,0],[2,0],[3,2],[0,4],[-2,9],[0,5],[0,4],[0,4],[4,8],[6,3],[12,-5],[6,4],[-6,5],[-4,7],[-5,5],[-5,2],[0,-4],[2,0],[-2,-5],[-4,3],[-11,8],[-3,4],[0,7],[4,1],[6,-3],[4,-3],[3,0],[5,4],[5,4],[4,-4],[5,-5],[6,-2],[13,1],[-3,-7],[-1,-2],[-3,-1],[8,-12],[8,-13],[8,-11],[11,-2],[-7,-12],[-11,-6],[-21,-2],[-4,-2],[-10,-7],[-8,-7],[-30,-6],[-4,0],[-5,3],[-4,5],[-3,6],[-2,6],[-5,2]],[[2751,3684],[10,-26],[1,-6],[-6,-7],[-7,-4],[-5,-5],[2,-10],[-18,-2],[-21,13],[-20,23],[-11,29],[27,-13],[14,-2],[2,15],[3,1],[11,1],[3,2],[1,6],[-3,5],[-4,3],[-12,4],[-7,7],[-13,18],[17,-3],[17,-11],[14,-18],[5,-20]],[[672,4096],[40,0],[-12,-17],[56,-32],[9,-16],[-8,2],[-17,-1],[-13,13],[-9,3],[-10,0],[-8,-3],[-2,-2],[-1,-6],[-2,-2],[-8,-3],[-8,-1],[-26,4],[-8,-4],[5,-10],[-19,-4],[-3,-10],[-4,-2],[-3,-3],[-2,-5],[1,-5],[-3,-7],[-12,-4],[-2,-6],[1,-9],[2,-4],[12,0],[-17,-9],[-3,-5],[1,-7],[6,-12],[0,-10],[-3,-10],[-6,-1],[-6,2],[-5,0],[-3,-6],[-1,-6],[2,-6],[5,-6],[9,7],[18,9],[8,8],[4,-7],[1,-3],[0,-7],[2,-2],[26,-18],[6,-6],[3,-10],[-7,0],[-4,4],[-3,6],[-3,5],[-7,4],[-21,0],[-2,3],[-2,4],[-2,3],[-2,-2],[-14,-28],[-5,-4],[-8,0],[-2,2],[-26,-3],[-6,-5],[-5,-8],[-3,-10],[9,-12],[23,-21],[21,-10],[2,0],[3,4],[5,12],[3,3],[7,-2],[6,-5],[6,-2],[7,4],[-5,19],[5,-1],[7,-7],[10,-4],[9,-9],[13,-5],[6,-8],[8,-23],[-8,3],[-8,9],[-8,5],[-4,-8],[2,-5],[3,-15],[1,-4],[4,-2],[7,-6],[5,-8],[5,-10],[11,-17],[12,-6],[6,-4],[4,-9],[-10,-1],[-11,2],[-10,9],[-4,16],[-4,9],[-17,17],[-6,20],[-5,0],[-5,-4],[-3,-6],[0,-7],[1,-17],[-1,-4],[-7,-2],[-11,7],[-22,25],[-6,10],[-4,5],[-11,1],[-5,4],[-3,5],[-13,9],[-5,1],[-9,-4],[-1,3],[-6,6],[-72,25],[-10,10],[6,5],[-8,41],[-3,22],[3,19],[6,-21],[9,-37],[9,-24],[1,-5],[2,-3],[6,-2],[18,0],[6,-3],[8,-7],[8,-4],[7,5],[-6,4],[-4,9],[-5,21],[3,2],[3,-1],[3,-1],[4,0],[2,1],[6,7],[3,1],[4,3],[5,8],[7,13],[3,21],[-2,19],[-8,13],[-11,5],[-2,4],[-4,10],[-3,11],[0,9],[4,8],[8,1],[14,-4],[1,-2],[2,-4],[2,-3],[3,-2],[3,2],[5,6],[14,13],[11,14],[-1,10],[43,46],[14,5],[13,7],[8,19],[-3,1],[-7,7],[2,4]],[[657,4096],[3,0],[-2,-1],[-1,1]],[[955,3947],[15,-8],[-32,0],[-17,-5],[-1,-15],[-11,-2],[-7,8],[-5,12],[-7,11],[-3,2],[-5,1],[-2,2],[-2,4],[1,7],[-2,4],[-15,14],[-22,8],[-7,8],[2,17],[6,10],[9,8],[11,2],[9,-4],[-8,-6],[8,-6],[11,-1],[20,3],[4,1],[7,7],[4,2],[12,-6],[4,0],[15,-16],[5,-7],[-4,-3],[-12,-6],[-4,-1],[-5,1],[-10,9],[-23,13],[-12,1],[-12,-5],[2,-3],[2,-3],[3,-8],[-13,5],[-4,0],[7,-17],[13,-15],[27,-17],[48,-6]],[[1511,4096],[12,0],[9,-6],[4,-6],[4,-11],[0,-8],[-2,-18],[1,-11],[1,-7],[-1,-7],[-13,-25],[-4,-11],[1,-9],[3,-3],[3,0],[10,5],[6,7],[1,1],[8,-1],[13,-11],[66,-22],[-8,0],[-7,-1],[-4,-7],[-1,-16],[-10,13],[-1,6],[4,10],[-93,12],[-12,-8],[14,-14],[6,-5],[16,-4],[5,-17],[8,-11],[19,-16],[7,-14],[-7,-12],[-9,-21],[-5,-21],[3,-14],[6,16],[8,6],[4,-3],[-3,-14],[3,0],[-4,-13],[0,-11],[5,-7],[9,-2],[-3,-4],[-1,-1],[-1,-1],[14,-9],[9,-2],[6,5],[8,5],[4,-10],[0,-11],[-11,4],[-7,-5],[-7,-7],[-6,-3],[-6,3],[-6,6],[-8,15],[-10,25],[-4,4],[-2,-5],[0,-11],[3,-13],[2,-7],[3,-8],[2,-9],[0,-8],[-4,-6],[-6,-1],[-18,3],[-4,2],[1,20],[-1,10],[-2,7],[-12,10],[-13,6],[0,6],[3,-1],[10,1],[0,4],[-14,6],[-6,5],[-6,8],[-2,8],[-1,8],[-1,6],[-6,3],[0,4],[9,0],[13,-6],[6,2],[1,2],[1,5],[2,4],[4,3],[17,0],[0,-5],[-8,-19],[18,8],[13,23],[1,26],[-17,15],[-13,-3],[-3,1],[-2,6],[-1,6],[-2,6],[-3,6],[-26,17],[-2,4],[-2,6],[-1,2],[-2,2],[8,12],[8,3],[6,6],[3,20],[-2,6],[-2,7],[-1,6],[2,3],[4,-3],[4,-4],[3,-2],[4,3],[2,6],[1,24],[5,17],[1,8],[-2,4],[-8,4],[-8,11],[-3,7]],[[1385,3961],[9,10],[10,2],[-3,-7],[-13,-20],[-3,-7],[-5,-15],[-3,-7],[-4,-5],[-17,-7],[-3,-4],[-9,-15],[4,-8],[4,1],[4,4],[5,3],[3,-1],[0,-7],[2,-2],[3,1],[6,4],[4,0],[-7,-15],[-1,1],[1,-5],[1,-7],[2,-4],[1,1],[-1,-6],[-4,-8],[-3,-7],[-4,-3],[-6,4],[-2,9],[0,18],[-1,7],[-5,-2],[-6,-6],[-5,-1],[1,3],[1,9],[0,3],[-5,1],[-3,-2],[-5,-12],[-3,-4],[-3,-3],[-8,-5],[4,-7],[9,-5],[9,-2],[8,0],[0,-5],[-2,-12],[9,-24],[0,-13],[-2,4],[-3,4],[-2,2],[-6,-9],[-3,-5],[1,-7],[3,-12],[3,7],[4,5],[3,2],[5,-4],[-3,-12],[6,-9],[17,-13],[-16,2],[-7,-2],[-15,-22],[-3,-8],[1,-9],[3,5],[4,3],[4,0],[4,-3],[-22,-22],[-5,-12],[-4,-10],[-7,-22],[-5,-11],[-2,9],[-4,24],[-4,6],[-4,-6],[-3,-14],[-3,-10],[-6,3],[-2,12],[5,9],[21,15],[5,5],[19,39],[4,13],[2,13],[-4,-1],[-8,6],[-13,12],[-1,4],[-1,11],[-1,4],[-2,3],[-8,6],[-3,3],[-6,8],[-18,18],[-5,-22],[-6,6],[-7,15],[-7,6],[-2,-5],[-10,-28],[-5,-9],[-5,-6],[-4,-2],[-4,7],[4,5],[11,19],[-3,2],[-3,0],[-2,-2],[-2,0],[-3,3],[-10,15],[-1,3],[-1,2],[-5,1],[-8,-4],[-3,-1],[-1,4],[12,18],[-3,6],[-44,25],[-8,1],[-7,-3],[-3,-5],[-2,-7],[0,-7],[5,-17],[13,-6],[14,-3],[10,-6],[-14,-17],[-48,-12],[-1,-2],[0,-11],[-1,-3],[-4,-7],[-14,-15],[16,-18],[8,-11],[3,-10],[3,0],[0,9],[2,7],[2,4],[3,0],[2,-4],[3,-14],[3,-6],[-2,-5],[-3,-14],[4,-2],[2,-4],[2,-6],[-1,-7],[-2,-5],[-3,-1],[-8,0],[-3,2],[-6,10],[-4,3],[-4,0],[-5,2],[-4,3],[-3,5],[7,10],[3,6],[2,7],[-9,8],[-10,12],[-10,8],[-9,-6],[-1,-6],[3,-5],[4,-5],[2,-6],[-2,-10],[-5,-4],[-5,0],[-3,2],[-6,16],[-14,-1],[-15,-4],[-7,7],[4,10],[23,6],[8,7],[-3,-1],[-4,1],[-3,0],[7,27],[15,15],[18,5],[17,1],[0,6],[-9,4],[-6,7],[0,11],[3,16],[5,9],[2,6],[-1,6],[-4,4],[-5,1],[-3,3],[1,10],[-5,3],[-5,-2],[-10,-6],[2,-8],[6,-7],[2,-7],[-3,-6],[-8,-3],[-7,0],[-5,2],[-5,14],[1,18],[5,17],[4,14],[-8,6],[-9,-7],[-10,-10],[-10,-4],[5,22],[-9,6],[-13,2],[-8,13],[8,2],[7,3],[-4,3],[-13,6],[10,5],[13,0],[4,2],[-12,12],[-45,30],[0,5],[20,-3],[4,3],[3,8],[-5,5],[-7,1],[-5,0],[6,6],[6,4],[0,4],[-6,2],[-7,5],[-6,8],[-6,9],[7,4],[7,0],[22,-5],[5,2],[9,14],[-2,4],[-1,3],[-1,2],[-3,1],[0,5],[10,4],[8,-4],[17,-15],[6,-2],[7,3],[5,7],[4,12],[-5,-1],[-4,1],[-5,1],[-4,3],[5,4],[6,3],[5,1],[54,0],[-5,-8],[8,-7],[16,6],[9,-3],[-4,-10],[-7,-5],[-8,-2],[-6,-3],[4,-6],[2,-6],[1,-7],[-2,-5],[1,-2],[3,-5],[1,-2],[-6,-4],[-6,1],[-5,0],[-6,-7],[10,-11],[13,-8],[14,-4],[11,4],[0,5],[-2,0],[-6,4],[6,3],[8,2],[6,-2],[3,-10],[-3,-13],[2,-5],[8,-4],[-7,-5],[-6,2],[-5,5],[-19,6],[-4,-1],[1,-7],[-42,5],[3,-5],[1,-6],[0,-7],[-2,-7],[28,-10],[5,-4],[-2,-8],[-15,-10],[-6,-6],[3,-1],[4,-3],[3,-1],[-7,-19],[-5,-24],[6,6],[4,12],[6,7],[9,-6],[-3,-3],[-5,-7],[-2,-4],[1,-3],[5,-9],[2,-2],[15,14],[60,-31],[22,2],[-2,1],[-6,4],[6,13],[9,-3],[10,-8],[10,-2],[-2,-5],[7,-4],[15,2],[7,-3],[5,-6],[2,-6],[-3,-7],[-6,-5],[6,-9],[14,-10],[6,-7],[7,-3],[8,5],[8,10],[6,9],[-9,9],[-9,6],[-6,8],[1,16],[7,12],[35,41],[4,3],[12,3],[3,5],[1,6],[3,7],[14,27]],[[1174,4096],[11,-6],[12,-16],[-25,16],[-18,6],[20,0]],[[0,3230],[16,-1],[13,2],[16,17],[3,-7],[-2,-10],[-11,-8],[-18,-21],[-2,-11],[-12,-12],[-3,-5],[0,56]],[[0,3141],[1,0],[9,4],[17,13],[9,3],[18,2],[-17,-7],[-4,-4],[-7,-14],[1,-6],[7,-2],[-20,-13],[-5,-6],[10,0],[21,11],[46,13],[51,44],[24,11],[20,-7],[5,12],[8,14],[10,9],[7,-1],[1,-7],[-4,-5],[-9,-8],[-3,-5],[-3,-12],[-2,-7],[-6,-11],[-24,-22],[-8,-10],[-19,-34],[4,-4],[2,-6],[0,-6],[-4,-8],[5,-3],[8,-9],[12,-3],[6,-4],[3,-8],[1,-11],[3,3],[7,3],[3,3],[1,3],[4,12],[2,4],[8,-9],[-12,-14],[-6,-9],[-2,-8],[2,-11],[6,-7],[8,-5],[9,-4],[17,0],[36,7],[19,-7],[-6,-4],[-9,-18],[-5,-7],[-27,-11],[-6,-6],[-1,-3],[-3,-21],[1,-7],[2,-5],[3,1],[1,7],[4,6],[14,-4],[-1,5],[4,3],[4,1],[4,-1],[3,-3],[0,-3],[-1,-5],[-1,-2],[7,0],[10,13],[24,52],[6,5],[-2,-14],[-6,-21],[-6,-15],[-9,-15],[-8,-10],[-9,-5],[-12,0],[-4,1],[-5,1],[-1,-6],[2,-15],[-15,-1],[-51,-25],[-15,-2],[-5,-4],[-9,-16],[-7,-5],[7,-1],[21,5],[7,3],[9,2],[22,-4],[4,5],[63,10],[0,5],[-7,2],[-4,11],[0,13],[5,9],[33,17],[14,16],[12,20],[4,5],[8,5],[3,4],[2,8],[2,9],[1,7],[4,3],[5,3],[3,6],[2,7],[2,6],[5,3],[13,4],[-3,-7],[-1,-7],[0,-6],[3,-6],[-1,-5],[-5,-4],[-11,-3],[-5,-6],[-16,-27],[-4,-11],[9,0],[15,8],[25,7],[4,0],[4,-3],[3,-9],[5,-3],[60,8],[10,-8],[27,25],[25,5],[5,3],[5,6],[5,7],[3,7],[3,4],[7,1],[0,-5],[-6,-8],[3,-7],[6,-1],[7,11],[4,-3],[4,0],[14,8],[3,0],[6,-3],[6,-4],[6,-2],[7,4],[-9,7],[0,6],[6,3],[10,-1],[13,-5],[5,0],[3,2],[12,7],[-5,6],[6,8],[9,3],[17,-2],[-2,-8],[-1,-7],[0,-6],[-1,-5],[-5,-7],[-5,-3],[-4,-6],[-2,-11],[6,4],[8,9],[6,4],[3,-12],[16,21],[10,9],[6,-1],[-4,-6],[-10,-23],[-3,-10],[10,1],[9,3],[7,6],[14,21],[25,18],[0,4],[-8,5],[7,8],[4,5],[2,6],[-25,-9],[3,8],[4,4],[5,2],[5,5],[3,9],[-2,3],[-5,2],[-6,5],[-4,8],[2,2],[5,-1],[23,-13],[4,-5],[1,-6],[2,-8],[2,-6],[5,0],[2,4],[-2,8],[1,5],[3,4],[3,1],[12,5],[18,2],[5,3],[10,9],[5,3],[-7,19],[13,3],[9,-10],[1,-13],[-13,-4],[4,-9],[7,-2],[31,2],[4,6],[9,33],[5,10],[7,-1],[3,-9],[-2,-10],[-4,-10],[-5,-5],[5,-8],[7,-3],[6,7],[5,-1],[3,5],[-7,4],[4,6],[15,9],[-1,-3],[0,-2],[-1,-5],[8,0],[22,5],[7,5],[-6,7],[5,0],[3,3],[-4,6],[-13,8],[0,5],[7,-4],[4,-2],[2,3],[0,1],[0,8],[0,3],[2,1],[34,0],[11,4],[0,3],[-2,9],[-1,3],[14,-4],[5,-5],[-1,-10],[51,0],[3,2],[2,4],[2,12],[3,2],[2,1],[2,2],[2,10],[0,9],[-2,8],[-5,3],[0,4],[28,8],[9,7],[6,6],[9,6],[8,-2],[5,-15],[-20,0],[0,-5],[7,-5],[-4,-3],[-3,-6],[0,-10],[2,-5],[29,-32],[10,-5],[6,4],[0,4],[25,10],[-24,12],[-13,9],[-3,13],[6,5],[6,-5],[11,-15],[7,-3],[8,0],[7,-3],[5,-8],[-2,-5],[5,-7],[4,-4],[5,-3],[8,0],[-3,14],[-11,18],[-3,11],[0,9],[9,15],[3,14],[-6,4],[-8,8],[-13,17],[9,-4],[8,-5],[21,-22],[3,-2],[5,0],[3,2],[3,3],[3,4],[4,0],[-3,-9],[15,-23],[1,-16],[19,5],[3,4],[2,8],[1,8],[-3,4],[-4,2],[-4,5],[-7,12],[-13,9],[-4,5],[-2,9],[4,1],[5,-1],[3,4],[0,6],[-2,7],[-2,6],[-9,5],[-8,12],[-4,5],[-20,9],[0,5],[11,0],[12,-6],[12,-10],[13,-17],[5,-4],[12,-6],[14,-15],[3,-4],[3,1],[7,8],[3,1],[35,-6],[-11,15],[-5,10],[1,9],[5,0],[6,-7],[6,-8],[4,-4],[3,-5],[4,-12],[5,-12],[7,-5],[2,2],[0,5],[1,5],[4,3],[4,0],[3,2],[1,4],[0,8],[7,-10],[4,-3],[4,-1],[-3,11],[2,3],[11,0],[3,3],[3,5],[6,11],[-11,22],[4,23],[32,59],[14,26],[8,10],[16,6],[15,-8],[12,-19],[8,-27],[-32,22],[-15,3],[-17,-13],[-4,-7],[-1,-6],[1,-16],[-1,-5],[-10,-19],[-7,-7],[-10,-6],[-6,-7],[3,-14],[7,-10],[9,-10],[10,-4],[7,2],[1,8],[7,3],[8,1],[7,-2],[5,-6],[7,-10],[7,-7],[5,1],[3,5],[8,5],[2,2],[1,5],[-1,12],[2,5],[5,6],[7,5],[8,2],[6,-1],[-3,-10],[-2,-5],[-3,-4],[11,0],[33,12],[4,-6],[11,-12],[3,-1],[1,7],[-4,8],[-9,11],[17,-1],[8,3],[5,15],[3,4],[2,4],[-1,6],[0,5],[4,4],[4,3],[3,1],[3,-3],[6,-10],[4,-2],[2,2],[4,10],[2,3],[5,-3],[5,-10],[4,-2],[7,2],[2,-3],[1,-9],[8,8],[-1,10],[-5,10],[-2,11],[5,9],[9,3],[4,-3],[-5,-14],[26,-17],[9,-7],[-19,2],[-10,-2],[1,-10],[6,-3],[28,-1],[16,-6],[32,-24],[18,-4],[-2,5],[-3,4],[-4,3],[-4,2],[3,3],[3,5],[2,2],[-3,7],[-1,2],[-4,1],[14,5],[30,-25],[14,-5],[-4,9],[-3,6],[-1,6],[3,8],[6,7],[7,1],[14,-3],[-5,-5],[-11,-6],[-4,-8],[25,-5],[5,3],[13,12],[-3,0],[-5,4],[2,1],[6,4],[-5,8],[-3,10],[1,8],[7,3],[-2,2],[-2,6],[-1,2],[8,4],[6,-5],[4,-8],[7,-6],[-4,-11],[-1,-3],[8,-4],[5,9],[5,12],[7,7],[3,-19],[10,-8],[49,-2],[6,2],[11,6],[6,1],[3,0],[8,-3],[4,-1],[3,2],[1,5],[1,5],[2,2],[4,-1],[7,-3],[8,0],[2,0],[7,9],[9,14],[8,8],[1,2],[1,3],[3,2],[4,1],[5,-1],[5,-2],[4,-3],[-1,6],[-2,5],[-2,4],[-3,4],[7,4],[8,-3],[7,1],[3,15],[3,14],[9,4],[19,-1],[4,2],[8,6],[4,2],[19,-1],[5,3],[6,9],[13,12],[6,8],[13,7],[11,-12],[5,-20],[-8,-16],[-6,2],[-8,5],[-7,1],[-4,-8],[2,-10],[10,-19],[3,-9],[-8,-1],[-2,-14],[2,-12],[-1,-16],[0,-14],[9,-12],[5,-12],[3,-15],[-2,-13],[-7,-3],[-9,5],[-15,18],[-27,15],[-7,8],[-2,7],[-2,14],[-2,6],[-5,3],[-7,1],[-8,-1],[-5,-3],[6,-15],[23,-35],[32,-70],[4,-5],[5,-5],[23,-9],[6,-8],[5,-4],[8,-2],[15,-1],[3,5],[0,9],[2,6],[5,-6],[6,-13],[5,-18],[6,-15],[10,-7],[12,-4],[9,-11],[15,-33],[10,-14],[14,-9],[14,-5],[60,0],[59,-6],[14,6],[25,16],[64,0],[54,-23],[13,-13],[5,-11],[0,-7],[-2,-7],[-1,-9],[2,-9],[5,-9],[5,-6],[3,0],[6,-26],[19,-12],[76,-8],[9,-7],[4,-11],[-3,-6],[-7,-6],[-4,-10],[6,-8],[-3,-18],[-8,-19],[-11,-8],[-17,1],[-92,34],[-22,15],[-110,20],[-85,21],[-39,3],[-15,-6],[-11,-10],[-17,-25],[-10,-10],[-3,-1],[-10,1],[19,-20],[1,-10],[-8,-21],[-13,-18],[-4,-3],[-2,-1],[-10,-7],[-5,-1],[-9,3],[-4,-2],[-14,-18],[-4,-3],[-7,2],[-11,7],[-6,1],[-12,-8],[-6,-1],[-7,4],[-2,3],[-3,8],[-2,3],[-4,3],[-8,2],[-10,6],[-14,4],[-10,13],[-6,5],[-7,2],[-6,-1],[-9,-7],[-10,-12],[-8,-15],[-3,-16],[1,-39],[-1,-19],[-5,-17],[-11,-12],[-14,1],[-41,16],[-5,14],[-4,18],[-5,16],[-9,12],[-13,11],[-14,5],[-10,-6],[-19,-22],[-1,-11],[-3,-20],[-1,-8],[3,-16],[5,-15],[13,-24],[8,-33],[-6,-35],[-14,-33],[-13,-24],[-10,-13],[-15,-10],[-15,-5],[-57,14],[-56,3],[-56,14],[-48,-3],[-58,-4],[-65,6],[-8,3],[-15,9],[-18,7],[-16,18],[-16,16],[-13,11],[-14,8],[-14,4],[-15,1],[-5,-2],[-12,-10],[-6,-2],[-8,0],[-15,4],[-20,12],[-23,6],[-15,9],[-7,2],[-69,-1],[-3,1],[0,6],[-1,4],[-2,2],[-13,14],[-13,6],[-5,1],[-4,-2],[-5,-7],[0,-6],[1,-6],[0,-5],[-8,-1],[-6,7],[-8,13],[-8,5],[-5,-16],[2,-5],[-5,-10],[-6,-7],[-3,0],[-4,-1],[-7,4],[-5,7],[-3,17],[-4,9],[2,5],[-20,22],[-11,3],[-9,-11],[2,-1],[3,-2],[3,-1],[-2,-15],[3,-9],[6,-7],[3,-12],[-5,-13],[-10,-3],[-12,5],[-8,6],[-11,18],[-6,7],[-8,3],[-7,6],[-12,23],[-6,5],[-3,-12],[2,-29],[5,-28],[11,-13],[3,-2],[3,-5],[0,-5],[-4,-2],[-34,0],[-8,-4],[-5,-9],[2,-16],[-78,22],[-18,12],[-8,0],[-5,-8],[3,-18],[-7,-3],[-8,2],[-15,10],[-8,2],[-29,-7],[-9,2],[-24,30],[-14,12],[-12,-8],[2,-5],[1,-5],[0,-5],[0,-7],[1,-6],[3,-4],[4,-3],[2,-4],[3,-10],[-1,-4],[-8,-18],[-2,-3],[-5,-3],[-10,-2],[-6,8],[-4,12],[-7,11],[-4,3],[-4,0],[-3,-2],[-2,-8],[-1,-7],[-4,-2],[-9,1],[0,-5],[6,-3],[6,-6],[2,-7],[-7,-3],[-6,2],[-21,15],[-7,2],[-6,-4],[-6,-6],[-6,-3],[-8,3],[-13,15],[-7,5],[-8,1],[-24,-6],[-2,-4],[-4,-23],[-4,-9],[-13,-5],[-32,-2],[-7,-5],[8,-8],[10,-13],[3,-12],[-10,-5],[-11,5],[-20,21],[-11,8],[-6,1],[-5,-2],[-5,-4],[-5,-8],[-1,-7],[3,-7],[24,-32],[3,-12],[-8,-17],[-15,16],[-18,-2],[-19,-7],[-17,-1],[-16,4],[-32,-1],[-8,-4],[-4,-9],[4,-4],[3,-6],[-1,-8],[-4,-6],[-4,0],[-1,1],[-20,18],[-7,0],[-5,-6],[-5,-5],[-8,-5],[-5,-6],[-4,-2],[-4,1],[-8,3],[-4,1],[-20,-13],[6,-27],[12,-34],[0,-37],[-6,9],[-4,2],[-4,-3],[-17,-20],[-2,-9],[3,-12],[-3,0],[-5,-1],[-2,1],[9,-16],[10,-8],[23,-6],[3,-2],[2,-4],[2,-3],[3,0],[2,8],[0,4],[1,3],[7,9],[3,2],[7,1],[3,2],[-5,9],[-11,11],[-4,9],[8,-6],[8,-8],[6,-12],[3,-17],[0,-9],[-1,-4],[-3,-4],[-12,-10],[-7,-2],[-6,0],[-6,4],[-8,-10],[-24,1],[-8,-10],[0,-14],[12,-18],[3,-14],[23,-31],[-3,-5],[-12,-2],[-7,-6],[-14,-25],[21,8],[7,2],[11,-4],[3,1],[2,4],[4,3],[7,5],[9,2],[26,-2],[16,5],[7,-1],[7,-9],[10,11],[11,-1],[12,-8],[9,-12],[-7,1],[-14,8],[-6,1],[-5,-5],[-2,-8],[1,-8],[6,-3],[2,-2],[1,-5],[-1,-5],[-1,-2],[-11,0],[-6,2],[-14,9],[-7,3],[-14,-2],[-14,-5],[-13,-2],[-14,7],[-5,-1],[-2,-8],[1,-9],[6,-6],[0,-3],[-1,-4],[-3,-1],[-8,3],[-3,-1],[-3,-6],[-1,-17],[2,-18],[5,-18],[2,-13],[-2,-7],[-3,-7],[-3,-8],[2,-7],[5,-5],[3,3],[3,8],[5,7],[5,2],[2,-4],[0,-8],[3,-10],[4,-5],[7,-6],[7,-5],[4,-1],[11,6],[5,-9],[2,-17],[0,-21],[-2,-17],[0,-7],[2,-9],[4,-7],[5,-4],[4,-5],[2,-11],[0,-6],[2,-9],[2,-8],[2,-6],[3,-3],[2,1],[3,3],[2,4],[3,4],[4,-2],[3,-3],[3,-1],[3,1],[2,2],[2,2],[4,0],[1,-2],[4,-6],[2,-2],[7,-3],[15,-2],[24,-10],[10,-13],[17,-15],[11,-20],[3,-4],[7,-2],[3,2],[7,16],[6,7],[7,0],[13,-4],[6,2],[6,4],[4,7],[12,20],[1,6],[1,11],[1,9],[3,9],[4,8],[4,6],[13,6],[15,-1],[15,-7],[31,-24],[8,-12],[3,-15],[-4,-17],[-10,-9],[-11,-7],[-7,-11],[-2,-7],[1,-8],[-1,-8],[-4,-15],[0,-8],[2,-7],[2,-7],[2,-7],[0,-9],[-3,-15],[0,-34],[-6,-13],[-18,-21],[-6,-28],[-17,-44],[-2,-8],[0,-8],[-2,-8],[-3,-7],[-3,-6],[-4,-8],[-3,-9],[-1,-8],[1,-17],[4,-33],[0,-13],[5,-13],[16,-28],[2,-9],[5,-41],[-5,-26],[-1,-19],[2,-8],[4,-7],[1,-16],[1,-26],[9,-87],[1,-33],[-3,-28],[-8,-20],[-24,-29],[-9,-7],[-3,-5],[0,-7],[-7,-3],[-8,-5],[-7,-8],[-3,-10],[-36,-25],[-14,-10],[-14,-4],[-5,-7],[-4,-9],[-7,-10],[-14,-13],[-9,-5],[-23,-11],[-62,-16],[-23,2],[-17,6],[-2,2],[-4,3],[-17,28],[-5,4],[-31,6],[-30,13],[-17,21],[-7,3],[-5,4],[-4,11],[-10,65],[-3,7],[-6,5],[-3,13],[-3,25],[-2,13],[-4,12],[-2,3],[-8,18],[-1,7],[0,7],[-2,5],[-4,2],[-13,3],[-19,12],[-29,27],[-26,34],[-81,73],[-20,31],[-4,11],[-1,14],[1,29],[4,26],[1,5],[2,2],[0,1],[-3,2],[-6,1],[-5,-2],[-4,-3],[-4,-1],[-8,-1],[-10,-3],[0,264],[11,16],[0,4],[-2,1],[-1,3],[0,5],[-1,3],[-1,0],[-1,1],[0,4],[-2,1],[-3,1],[0,33],[2,0],[1,1],[1,2],[2,2],[4,12],[3,5],[5,-5],[4,-7],[2,-2],[2,3],[5,6],[6,3],[7,1],[7,-2],[5,-4],[6,-16],[19,3],[12,11],[-16,11],[4,9],[7,3],[17,-2],[8,1],[5,4],[11,14],[6,4],[6,2],[6,3],[24,34],[-8,9],[3,6],[8,0],[16,-13],[8,6],[7,10],[9,7],[-1,3],[-1,4],[0,5],[-1,4],[2,8],[3,1],[3,-1],[3,0],[5,4],[3,3],[2,5],[2,4],[2,10],[0,2],[2,4],[1,2],[6,0],[3,-2],[3,-5],[1,-5],[1,-3],[8,-8],[7,-4],[15,-2],[-2,7],[-4,3],[-4,3],[-4,1],[8,6],[23,-16],[3,10],[-5,11],[-11,11],[-12,9],[-9,3],[-15,4],[-15,8],[-5,5],[-3,4],[-5,15],[-8,10],[-20,10],[-17,12],[-16,6],[-8,5],[-8,2],[-20,-5],[-13,7],[-7,-6],[-12,-15],[-8,-4],[-6,3],[-6,4],[-8,2],[-2,-1],[-6,-7],[-4,-2],[-3,2],[-4,6],[-2,2],[-4,4],[-7,16],[-4,4],[-12,-3],[-18,-15],[0,61],[1,-1],[19,-5],[20,2],[16,9],[10,15],[12,41],[8,17],[6,6],[9,6],[9,5],[6,-1],[3,-7],[-6,-6],[-8,-6],[-4,-7],[5,-8],[9,-4],[11,1],[6,4],[4,4],[3,0],[2,2],[0,8],[0,7],[-2,3],[-2,2],[-3,0],[4,9],[6,2],[6,0],[6,3],[5,-4],[2,3],[1,4],[2,3],[4,-1],[4,-2],[15,-10],[5,1],[3,7],[-1,14],[-1,1],[-3,0],[-2,1],[-1,5],[0,8],[0,4],[-1,3],[-3,4],[-5,6],[-2,4],[-3,4],[-8,6],[-3,7],[-1,6],[2,11],[-1,7],[-6,10],[-35,17],[-37,-3],[-6,5],[-7,9],[-3,12],[8,20],[-6,6],[-11,4],[-10,2],[-15,2],[-4,-2],[-3,-6],[-1,-6],[0,-6],[-1,-6],[-5,-10],[-6,-6],[-6,-3],[-8,0],[-2,-2],[0,593],[2,1],[3,4],[-1,1],[-4,1],[0,4],[2,1],[4,0],[2,2],[2,3],[2,4],[-3,2],[-9,-5],[0,78],[11,3],[6,9],[13,13],[4,5],[-1,-10],[-4,-5],[-2,-6],[2,-8],[4,4],[3,-2],[1,-7],[0,-10],[2,0],[-1,8],[1,3],[2,2],[12,14],[3,7],[6,-11],[4,-13],[5,5],[4,1],[9,-1],[2,2],[4,13],[4,4],[-5,4],[-2,2],[-3,-1],[0,5],[30,25],[12,20],[-5,22],[1,3],[2,7],[-6,4],[-2,1],[2,1],[2,2],[1,1],[3,1],[-2,8],[-1,8],[3,6],[10,4],[2,6],[1,7],[3,7],[8,8],[9,7],[7,9],[2,16],[-13,3],[-11,-8],[-9,-14],[-8,-17],[-10,-10],[-71,-11],[-7,-4],[-13,-9],[-24,-4],[0,42]],[[227,2007],[-1,-3],[-5,-3],[-11,4],[-5,-4],[-1,-15],[8,-9],[19,-7],[33,-32],[4,0],[10,6],[5,2],[13,-1],[7,-2],[5,-5],[6,-2],[3,5],[3,6],[8,5],[-1,6],[-6,12],[-3,4],[-6,9],[-3,6],[-1,6],[1,6],[0,7],[-2,7],[-5,6],[-15,9],[-33,10],[-8,1],[-8,-4],[-7,-10],[-1,-5],[-3,-15]],[[524,1659],[2,-17],[9,-10],[12,6],[7,15],[-3,17],[-11,3],[-10,-4],[-6,-10]],[[266,1416],[7,-5],[7,1],[2,9],[-1,6],[-4,4],[-8,7],[-5,0],[-2,-4],[0,-6],[-1,-6],[5,-6]],[[226,2276],[10,-29],[5,-4],[4,0],[14,3],[1,3],[1,3],[2,1],[8,-1],[12,-8],[8,0],[11,8],[4,1],[4,-1],[4,-3],[4,-1],[4,3],[3,11],[-1,8],[-9,15],[-8,7],[-8,0],[-16,-4],[-25,8],[-14,1],[-8,-1],[-6,-3],[-5,-5],[-1,-8],[2,-4]],[[724,2658],[10,-11],[10,3],[2,7],[-7,18],[-5,10],[-6,-1],[-4,-13],[0,-13]],[[15,2898],[2,-3],[2,3],[2,2],[0,2],[-5,1],[-1,-5]],[[126,3025],[6,-1],[3,1],[10,-1],[6,3],[5,4],[2,-1],[-1,-2],[2,-2],[4,1],[3,3],[3,5],[-1,6],[-1,4],[-3,6],[-5,4],[-7,0],[-9,-4],[-5,-4],[-2,-2],[-3,-7],[-3,-6],[-4,-4],[0,-3]],[[132,3004],[5,0],[3,-3],[0,-3],[-10,-2],[-2,-9],[3,-12],[5,-3],[2,3],[2,6],[3,10],[3,3],[2,0],[2,3],[2,5],[1,6],[2,5],[-3,3],[-11,-1],[-9,-4],[-3,-5],[3,-2]],[[147,2977],[2,-3],[3,0],[1,-1],[2,-2],[1,0],[2,5],[3,4],[3,1],[2,2],[2,3],[4,4],[0,3],[-3,7],[-3,2],[-4,1],[-5,-4],[-3,-6],[-2,-5],[0,-3],[1,-2],[-2,-1],[-3,-1],[-1,-4]],[[112,3003],[-2,1],[-1,-5],[2,-7],[2,-2],[2,4],[0,7],[-3,2]],[[42,2960],[-3,-7],[-1,-4],[1,-2],[1,-1],[1,-1],[8,-5],[4,1],[1,3],[-7,13],[-3,4],[-2,-1]],[[46,2939],[-4,2],[-6,0],[-4,-3],[15,-13],[5,-3],[0,3],[-1,4],[1,1],[3,1],[1,2],[-2,1],[-4,1],[-3,1],[0,2],[-1,1]],[[219,2912],[0,-4],[-1,-3],[1,-2],[1,-2],[0,-3],[2,-3],[6,0],[1,5],[-2,2],[0,1],[1,3],[-5,2],[-2,4],[-2,0]],[[2,2952],[-1,-6],[0,-4],[2,-4],[14,6],[2,2],[2,3],[-1,5],[-4,3],[-10,1],[-4,-6]],[[24,2934],[-3,-6],[7,3],[4,5],[-4,-1],[-4,-1]],[[159,2811],[-1,-5],[3,-1],[0,-1],[1,-1],[1,-1],[1,2],[0,4],[-2,2],[-3,1]],[[391,2840],[0,9],[-2,-1],[-1,1],[-4,-3],[3,-4],[2,1],[2,-3]],[[1717,2865],[-8,7],[-5,-1],[-2,-4],[0,-6],[1,-5],[4,-5],[5,1],[6,4],[-1,9]],[[316,2870],[16,4],[2,4],[3,3],[1,2],[1,0],[0,1],[-1,2],[-2,1],[-20,0],[-2,-1],[-1,-2],[1,-2],[2,-1],[1,-2],[-1,-2],[-1,0],[-1,-2],[2,-4],[0,-1]],[[301,2887],[1,2],[-3,2],[-3,1],[-8,0],[-2,-2],[5,-4],[7,-1],[3,2]],[[508,2933],[0,2],[5,0],[4,4],[0,6],[1,1],[-3,3],[-8,2],[-8,-3],[-6,-7],[-2,-6],[1,-1],[2,1],[5,-5],[6,1],[3,1],[0,1]],[[1963,2964],[0,6],[-2,5],[-6,2],[-10,9],[-8,3],[-4,-7],[0,-8],[-2,-7],[0,-7],[6,-5],[20,9],[6,0]],[[1648,2986],[0,8],[-2,3],[-1,4],[-4,7],[-4,6],[-3,7],[-4,8],[-5,8],[-5,0],[-2,-5],[7,-23],[0,-9],[2,-2],[3,-13],[3,-5],[4,-3],[4,0],[5,3],[2,6]],[[2134,2989],[1,-1],[-2,-2],[2,-1],[-1,-1],[1,-3],[2,-2],[2,-6],[4,-3],[1,2],[2,4],[-1,3],[-2,4],[1,5],[-6,5],[-2,0],[-1,1],[-1,-2],[0,-3]],[[2628,2972],[4,-4],[2,-3],[19,-15],[2,2],[2,4],[1,1],[-1,3],[-2,4],[-2,1],[-27,18],[-16,4],[-4,-2],[15,-10],[7,-3]],[[933,3076],[-6,0],[-5,-5],[-2,-5],[1,-3],[0,-2],[3,0],[3,3],[5,0],[1,1],[0,2],[1,2],[2,0],[1,3],[-4,4]],[[1229,3120],[-13,1],[-6,-2],[-3,-6],[2,-7],[5,-1],[6,3],[4,3],[5,9]],[[1141,3121],[4,7],[5,4],[7,3],[2,5],[-31,32],[-6,4],[-6,-13],[2,-14],[8,-11],[11,-3],[-5,-11],[-2,-5],[3,-3],[9,-5],[-1,10]],[[2225,3204],[-3,3],[-3,-2],[-3,1],[-2,7],[-2,0],[-2,-4],[-5,0],[-4,3],[-1,-1],[1,-4],[1,-5],[-2,-5],[1,-8],[2,-9],[7,-7],[20,-16],[8,-3],[4,-1],[5,0],[8,-2],[2,2],[0,6],[1,5],[5,3],[2,2],[-2,4],[-1,2],[-11,3],[-22,21],[-4,5]],[[1754,3168],[-2,2],[-4,-1],[-1,-3],[4,-4],[3,6]],[[2189,3211],[-3,5],[-7,6],[-7,2],[-4,1],[-10,-1],[-1,-3],[7,-12],[3,-3],[3,-1],[3,-3],[1,-3],[4,-6],[8,-7],[5,1],[2,9],[0,4],[-1,2],[-1,3],[-1,2],[-1,4]],[[1354,3204],[-4,6],[-8,3],[-5,-1],[-2,-1],[1,-3],[3,-5],[5,-11],[2,-2],[10,0],[3,0],[1,1],[2,4],[-1,5],[-7,4]],[[1556,3209],[2,-1],[1,3],[2,1],[0,3],[0,2],[-1,5],[-3,2],[-6,5],[-6,-6],[7,-9],[4,-5]],[[2188,3226],[0,-4],[2,-3],[3,-1],[2,-2],[2,1],[-3,5],[-3,5],[-3,9],[2,0],[2,-1],[2,-3],[1,-2],[2,0],[1,2],[0,3],[-8,11],[-7,19],[-1,3],[0,4],[-1,1],[0,4],[-7,11],[-9,7],[-1,-1],[0,-7],[-1,-2],[1,-2],[2,-2],[4,-11],[4,-4],[2,-1],[0,2],[1,-1],[2,-10],[3,-8],[0,-6],[2,-7],[3,-6],[1,-3]],[[1661,3252],[-13,5],[-2,-2],[0,-2],[2,-8],[5,-10],[5,-3],[4,-1],[1,2],[2,16],[-4,3]],[[1483,3252],[23,7],[5,5],[1,3],[-3,4],[-15,10],[-4,0],[-3,-4],[-1,-4],[0,-5],[-2,-4],[-5,-4],[-18,-4],[-2,-5],[7,-13],[4,-5],[4,0],[4,14],[5,5]],[[1938,3320],[-2,1],[-11,-1],[-2,-1],[1,-3],[0,-5],[5,-3],[2,1],[1,4],[1,0],[2,-6],[0,-4],[1,-4],[8,3],[2,2],[1,4],[-4,6],[-4,4],[-1,2]],[[2222,3316],[30,-19],[4,1],[0,3],[-2,3],[-2,0],[-18,15],[-4,7],[-2,6],[-17,10],[-1,-3],[-1,-5],[1,-6],[4,-5],[8,-7]],[[2223,3421],[-6,0],[-5,-2],[-5,-9],[-2,-13],[2,-12],[5,-10],[9,-2],[13,17],[-2,11],[-3,8],[-2,7],[-4,5]],[[2203,3399],[0,5],[1,-1],[0,2],[-1,4],[-2,3],[-3,4],[-7,8],[-2,-4],[2,-6],[4,-6],[1,-2],[2,-6],[5,-1]],[[2023,3732],[4,1],[3,-1],[-8,6],[-10,5],[-9,1],[-5,-8],[3,-3],[2,-5],[2,-4],[-4,-2],[-3,1],[-1,3],[-2,2],[-5,-1],[-2,-3],[-2,-5],[-2,-5],[-4,-2],[-3,1],[-9,9],[1,6],[3,5],[8,8],[-4,9],[-4,0],[-6,-2],[-5,5],[-7,16],[-4,4],[-7,2],[-3,0],[-3,1],[-2,1],[-2,2],[6,4],[13,-3],[4,2],[9,14],[4,6],[5,2],[5,2],[11,6],[6,1],[7,-1],[14,-6],[13,-2],[5,-2],[7,-7],[9,-6],[2,-2],[0,-9],[0,-4],[2,-4],[9,-6],[11,2],[22,13],[-3,3],[-3,2],[-2,4],[1,7],[-30,0],[-7,3],[-4,7],[-2,10],[-5,8],[-6,5],[-7,3],[-7,6],[-5,27],[-6,1],[-15,-8],[-3,0],[-4,4],[-3,1],[-4,-2],[-6,-6],[-3,-2],[-4,0],[-8,1],[-3,-1],[-3,-3],[-3,-5],[-2,-4],[-4,-2],[-68,14],[11,-9],[2,-7],[-1,-13],[-4,-11],[-6,-3],[-54,19],[-13,0],[2,8],[0,8],[-2,5],[-5,3],[1,-10],[1,-4],[-6,1],[-3,7],[-2,7],[-3,4],[-5,-2],[-13,-12],[4,18],[12,6],[13,-1],[11,-4],[-5,10],[-25,19],[-9,11],[-3,3],[-5,2],[-9,0],[-4,3],[1,4],[-1,1],[0,1],[0,3],[-3,-4],[-2,-5],[0,-5],[3,-4],[0,-6],[-8,0],[-8,-4],[-7,-1],[-8,5],[5,1],[4,1],[3,3],[4,5],[-4,4],[-2,1],[6,9],[-2,1],[-1,1],[-3,3],[8,10],[-4,-1],[-4,1],[-4,2],[-3,3],[4,8],[10,7],[21,8],[-3,5],[-2,1],[3,3],[3,3],[3,2],[3,1],[-2,9],[-6,4],[-6,0],[-5,-3],[1,-3],[1,-7],[-4,-1],[-5,1],[-9,5],[2,7],[1,3],[-5,-1],[-5,1],[-5,2],[-5,3],[11,21],[5,3],[7,-10],[1,4],[3,7],[1,3],[6,-12],[7,-9],[19,-12],[-3,12],[5,0],[11,-7],[6,0],[6,2],[6,2],[6,-4],[-1,10],[-5,4],[-11,0],[-25,13],[-16,4],[-7,5],[-6,7],[-5,7],[0,8],[2,10],[0,12],[-6,11],[5,8],[17,0],[0,-1],[4,-4],[2,4],[0,1],[13,0],[-4,-6],[-6,-7],[-6,-9],[3,-5],[-2,-2],[-1,-3],[-2,-5],[-2,2],[-3,-3],[-4,-6],[-3,-7],[10,-1],[34,-16],[6,0],[12,3],[23,0],[0,4],[-5,-1],[-4,3],[-7,8],[5,9],[-20,1],[-7,4],[16,5],[4,3],[-1,6],[-1,7],[1,6],[0,6],[-1,4],[8,0],[-2,-5],[-1,-11],[4,-9],[7,-3],[10,-1],[9,0],[6,4],[6,7],[22,6],[14,12],[88,0],[-2,-4],[2,-5],[2,-5],[3,-4],[3,-4],[18,-21],[6,-15],[1,-27],[6,3],[4,0],[5,1],[5,6],[1,3],[0,11],[2,5],[2,1],[10,-1],[-1,3],[-2,6],[-1,5],[0,3],[2,1],[4,4],[3,4],[0,3],[4,-3],[0,-6],[0,-7],[1,-8],[8,-12],[7,10],[5,18],[8,13],[-2,1],[-4,3],[-2,1],[3,7],[6,10],[135,0],[3,-4],[5,-1],[9,5],[54,0],[7,-3],[-2,0],[-1,-1],[-2,-6],[5,-6],[7,-4],[5,-2],[-6,-4],[-4,3],[-7,11],[-7,4],[-6,1],[-25,-3],[-7,-2],[-5,-5],[-3,-9],[1,-4],[12,-7],[-2,-5],[-3,-4],[-4,-1],[-3,0],[3,-2],[4,-2],[4,0],[4,0],[-14,-11],[-4,-6],[6,-3],[3,2],[0,3],[2,1],[7,-10],[2,-4],[0,-4],[-2,-6],[-13,-12],[-35,26],[-15,0],[3,-6],[3,-4],[3,-3],[4,-1],[-2,-11],[1,-9],[4,-8],[4,-6],[-11,-19],[-20,-7],[-56,3],[-3,-4],[0,-13],[2,-1],[6,-3],[10,-1],[20,4],[10,-3],[-10,-14],[-10,-2],[-42,13],[-3,-2],[1,-6],[4,-6],[13,-14],[6,0],[9,3],[7,-2],[11,-7],[6,-1],[11,4],[16,20],[11,4],[-2,-5],[0,-2],[1,-2],[1,-5],[10,10],[11,2],[24,-2],[-4,3],[-2,4],[-2,5],[-2,7],[6,-3],[7,-6],[17,-22],[6,-5],[6,-2],[7,-1],[3,-11],[26,-12],[6,-13],[-1,-19],[-6,-11],[-7,-6],[-31,-14],[-4,-5],[-4,-4],[-4,-4],[-11,-3],[-10,-7],[-29,-7],[-29,-20],[-10,-3],[-21,-2],[-10,-5],[-10,-8],[-12,-16],[-5,-3],[-5,0],[-6,3],[-5,0],[-5,-5],[-8,-5],[-42,-3],[-27,8],[-3,2],[-1,5],[1,4],[4,1]],[[2208,3843],[-2,-3],[4,-7],[4,-6],[2,-2],[7,-9],[6,-4],[7,3],[7,8],[4,-5],[3,5],[-8,2],[-4,6],[-5,7],[-6,5],[-5,-3],[-14,3]],[[1985,4010],[8,-3],[-7,9],[-1,6],[3,9],[-5,10],[-5,-1],[-5,-6],[-4,-3],[-23,-2],[-6,2],[-2,3],[-1,8],[-2,3],[-3,1],[-11,-1],[-3,2],[-7,5],[-3,0],[-10,-7],[2,-9],[0,-9],[-1,-9],[5,-6],[11,1],[5,-6],[-8,-1],[1,-5],[6,-8],[6,-6],[-17,-1],[-8,1],[-7,5],[2,5],[-5,8],[-7,-1],[-7,-5],[-8,-2],[-8,3],[-11,10],[-9,1],[-4,-4],[-5,0],[-11,4],[0,-4],[18,-10],[-3,-5],[84,-14],[11,-5],[-8,-6],[-16,-4],[-8,-10],[38,1],[12,4],[8,7],[11,12],[6,12],[-8,8],[1,5],[-1,3],[-1,3],[-4,3],[7,2],[18,-3]],[[1882,3871],[18,-9],[-15,10],[2,12],[-9,12],[5,9],[-6,4],[-3,1],[-4,0],[1,2],[1,3],[1,2],[2,2],[0,5],[-3,2],[-1,3],[-1,10],[-7,4],[-24,2],[-8,-2],[2,10],[-12,3],[-18,13],[-11,4],[-12,-5],[-20,-18],[-12,-2],[0,-5],[40,-21],[14,-3],[26,1],[13,-6],[10,-13],[-22,4],[-21,9],[-5,1],[-4,-10],[6,-10],[22,-22],[13,-4],[6,-2],[4,-5],[2,-5],[4,-3],[6,-2],[4,3],[8,13],[4,4],[4,-1]],[[2090,3947],[10,-2],[8,6],[-1,11],[49,0],[6,2],[18,9],[15,1],[5,3],[-3,7],[-7,10],[-3,8],[-1,-1],[-1,0],[-2,1],[-3,5],[2,4],[-9,3],[-2,4],[-1,7],[-8,4],[-10,1],[-8,-3],[1,-12],[-7,1],[-3,2],[-3,3],[6,-18],[2,-6],[-6,-10],[-7,-4],[-17,-1],[-32,10],[-8,-5],[10,0],[2,-6],[0,-11],[0,-12],[8,-11]],[[2091,4049],[-6,-18],[5,-1],[5,2],[5,3],[5,5],[3,-10],[5,3],[5,7],[4,5],[1,-2],[3,-4],[4,-4],[5,0],[1,2],[1,5],[1,5],[3,2],[1,3],[0,5],[0,5],[3,2],[2,-1],[7,-8],[2,-3],[4,-2],[5,5],[5,7],[2,7],[2,4],[1,3],[0,3],[-7,3],[-9,2],[-17,0],[-5,-4],[-11,-13],[-5,-3],[-11,-1],[-10,-4],[-9,-10]],[[2461,4096],[-2,-3],[-5,-3],[-7,2],[-5,4],[19,0]],[[2407,4096],[5,-4],[-7,-2],[-8,4],[-3,2],[13,0]],[[2386,4096],[0,-1],[16,-11],[2,-4],[2,-4],[2,-4],[4,-3],[-8,-4],[-16,10],[-6,-1],[-2,3],[-3,3],[-3,3],[-6,2],[0,1],[0,3],[-1,3],[-3,4],[22,0]],[[1808,1717],[0,22],[-1,4],[-4,3],[-15,21],[3,8],[-1,7],[-3,6],[-1,8],[0,15],[1,5],[3,3],[1,4],[-3,4],[-5,5],[-26,14],[-16,0],[-8,3],[-8,11],[-3,15],[1,35],[-1,18],[-12,62],[-13,38],[-23,45],[-8,12],[-35,24],[-9,12],[-3,17],[2,20],[5,20],[5,13],[11,20],[13,15],[13,11],[75,29],[91,10],[72,-16],[1,-8],[-3,-11],[-4,-11],[3,-25],[24,-37],[3,-30],[-1,-6],[-5,-12],[-1,-6],[-1,-7],[1,-15],[0,-7],[-6,-35],[-1,-19],[3,-8],[5,-6],[17,-52],[1,-15],[1,-44],[-1,-12],[-3,-12],[-5,-11],[-10,-12],[-1,6],[2,15],[0,12],[-28,-35],[-6,-18],[-12,-21],[-3,-2],[-7,-1],[-1,-2],[1,-7],[2,-3],[2,-2],[2,-5],[2,-9],[1,-5],[-2,-3],[-8,-2],[-8,1],[-12,11],[-6,3],[-6,-3],[-3,-8],[0,-10],[0,-11],[-1,-8],[-3,-8],[-6,-15],[-15,-12]],[[1809,1835],[-1,-5],[11,-7],[6,0],[6,2],[-3,5],[-4,4],[-7,5],[-1,0],[-2,0],[-3,-1],[-2,-3]],[[3331,1717],[-4,3],[-17,-6],[-8,5],[-10,9],[-10,4],[-16,-13],[-9,-5],[-6,-7],[4,-12],[-11,0],[-5,-2],[-4,-7],[11,-18],[4,-11],[0,-15],[-3,3],[-3,4],[-5,10],[-4,3],[-12,1],[-5,3],[-1,13],[-12,-2],[-25,-8],[-5,4],[-6,2],[-21,3],[-15,6],[-7,2],[-4,2],[-14,10],[-10,11],[-7,3],[-14,2],[-3,2],[-2,7],[-2,1],[-4,0],[-2,-2],[-6,-5],[-6,-3],[-16,4],[18,13],[35,36],[8,13],[3,16],[18,-8],[21,5],[20,15],[15,19],[17,28],[4,14],[10,57],[2,-7],[0,-7],[0,-14],[5,-18],[7,-16],[9,-8],[18,7],[6,-4],[6,-7],[6,-3],[14,-1],[6,-4],[3,-9],[-2,0],[-5,-1],[-3,1],[4,-12],[6,-7],[8,-2],[6,4],[16,26],[5,5],[0,-11],[2,-6],[4,-2],[6,0],[3,-4],[0,-9],[-2,-10],[-3,-6],[-2,6],[-3,5],[-4,3],[-3,0],[-3,-3],[0,-3],[2,-5],[3,-17],[8,-21],[2,-11],[2,-14],[3,-8],[5,-8],[5,-11],[3,-11],[1,-13],[3,-12],[6,-7],[-7,-6],[-5,9],[-5,26],[-3,5],[-9,12]],[[1823,1729],[8,-7],[17,5],[6,-5],[3,-12],[1,-13],[-2,-11],[-5,-5],[7,-2],[1,-8],[-1,-8],[2,-6],[5,2],[13,14],[13,6],[7,5],[7,3],[8,-4],[4,0],[12,11],[6,1],[0,-2],[1,-4],[2,-6],[2,-2],[4,-2],[4,-1],[4,0],[17,9],[7,1],[7,-2],[2,-5],[6,-14],[4,-6],[19,-17],[5,-2],[0,-5],[5,-20],[2,-6],[27,-32],[4,-7],[3,-7],[-1,-9],[-4,-6],[-1,-7],[2,-9],[7,-15],[1,-15],[-2,-15],[-7,-15],[-4,-8],[-2,-3],[-61,-3],[-7,5],[-3,18],[-5,11],[-9,6],[-19,7],[17,7],[3,3],[1,8],[-3,6],[-6,4],[-9,2],[-13,7],[-4,4],[-1,3],[-5,4],[-3,15],[-2,4],[-9,9],[-14,7],[-13,1],[-6,-9],[0,-7],[0,-3],[-7,-9],[-2,-5],[-6,-21],[-5,15],[-3,16],[-2,18],[0,15],[1,17],[-1,7],[-11,6],[-4,7],[-5,19],[-19,39],[-5,14],[-1,7],[15,12]],[[3210,4096],[29,0],[5,-9],[9,-6],[18,-26],[9,-9],[5,-6],[4,-9],[2,-6],[0,-6],[1,-8],[4,-8],[4,-7],[3,-7],[2,-9],[5,-12],[12,-13],[10,-5],[0,12],[-4,9],[-9,9],[-4,7],[-3,10],[-1,9],[2,5],[7,-2],[8,-10],[22,-41],[11,-13],[13,-11],[14,-7],[19,-5],[3,-5],[6,-14],[6,-8],[5,-6],[108,-61],[109,-62],[9,-13],[13,-26],[5,-15],[1,-19],[-1,-11],[-1,-8],[0,-5],[4,-5],[6,0],[5,4],[3,-1],[1,-15],[4,-10],[28,-40],[21,-17],[10,-12],[4,-17],[-4,-43],[-1,-22],[4,-17],[12,-11],[17,-6],[14,-9],[8,-19],[-2,-20],[-8,-19],[-23,-40],[-15,-20],[-4,-11],[-6,-21],[-4,-9],[-4,9],[1,8],[2,8],[-1,9],[-6,5],[-15,5],[-16,17],[-14,5],[-13,-5],[-6,-18],[3,-13],[9,-18],[9,-15],[6,-7],[4,-3],[4,-7],[1,-10],[1,-9],[-2,-6],[-4,-9],[-9,-14],[-6,-4],[-4,1],[-4,2],[-6,1],[-3,-2],[-2,-4],[1,-7],[15,-37],[2,-8],[0,-11],[-1,-10],[-2,-7],[-18,-34],[-26,-17],[-75,-23],[-10,3],[-9,11],[-23,38],[-4,6],[-5,-1],[-4,-2],[-6,0],[-4,3],[-6,8],[-5,4],[-12,5],[-99,5],[-5,2],[-6,4],[-4,2],[-2,-4],[-1,-7],[-2,-5],[-49,-48],[-7,-23],[4,4],[5,4],[4,0],[2,-5],[-1,-7],[-4,-4],[-7,-6],[-11,-17],[-2,-6],[-1,-7],[-1,-7],[-3,-7],[8,-11],[6,-19],[4,-21],[-3,-20],[-12,-17],[-19,-13],[-21,-6],[-15,4],[-5,8],[-3,9],[-5,7],[-9,3],[-19,-2],[-11,-3],[-7,-7],[-13,-7],[-22,2],[-20,9],[-11,13],[16,5],[4,4],[2,4],[1,9],[1,4],[2,3],[5,3],[7,8],[4,3],[1,5],[0,9],[-3,6],[-6,7],[-6,5],[-5,2],[-6,6],[2,13],[6,16],[3,13],[-5,16],[-9,9],[-19,11],[-14,18],[-10,22],[-29,112],[-9,27],[-12,21],[-6,-10],[-4,-7],[-5,-1],[-5,8],[-3,10],[0,10],[2,10],[3,9],[-6,10],[-11,12],[-5,11],[-1,3],[0,5],[0,5],[-2,6],[-4,5],[-59,30],[-3,7],[1,23],[-2,9],[-8,20],[-2,10],[1,6],[3,2],[9,-1],[2,3],[-2,13],[2,16],[0,15],[-2,15],[-2,6],[-3,2],[-6,10],[-4,2],[-5,1],[-11,5],[-5,4],[6,8],[3,4],[4,2],[-7,6],[-25,39],[-6,6],[-23,20],[-17,30],[-7,8],[-123,85],[-29,31],[-8,6],[5,4],[6,1],[6,-3],[11,-11],[15,1],[6,-4],[3,-6],[2,-6],[2,-4],[4,-6],[6,-5],[6,-5],[7,-1],[6,1],[-6,23],[-4,10],[-5,6],[-10,5],[-21,3],[-9,7],[3,2],[3,1],[3,0],[3,-3],[-4,8],[-7,5],[-16,6],[9,4],[4,10],[3,11],[4,9],[7,-1],[44,-42],[7,-5],[7,-2],[3,5],[4,6],[8,5],[-10,11],[-2,12],[5,11],[12,5],[27,-10],[14,1],[9,13],[-6,3],[-13,3],[-6,4],[12,-1],[5,3],[3,8],[-9,5],[-29,-1],[7,11],[12,9],[9,12],[-5,17],[5,6],[10,15],[6,3],[17,-9],[10,-2],[4,6],[-31,20],[-10,1],[-4,5],[0,11],[0,16],[10,-7],[6,-2],[10,4],[7,0],[7,-2],[14,-14],[15,-6],[16,-2],[10,4],[-5,16],[-8,14],[8,-2],[9,-4],[8,-2],[15,13],[21,0],[10,4],[-23,22],[-3,2],[-3,1],[-3,2],[-1,5],[1,7],[1,3],[2,0],[1,0],[7,-4],[3,1],[2,3],[249,0],[4,-5],[7,-3],[0,8]],[[2961,4074],[7,-7],[7,-4],[6,1],[-3,5],[-9,10],[-13,5],[5,-10]],[[2936,4035],[-5,0],[5,-10],[7,-4],[7,3],[6,11],[-3,5],[-17,-5]],[[2853,4011],[6,-7],[6,-5],[7,-3],[6,1],[-3,5],[-4,5],[-9,5],[-4,1],[-5,-2]],[[3080,3960],[-27,-17],[9,-16],[16,-6],[12,6],[-2,21],[2,0],[2,1],[1,2],[2,2],[3,0],[1,3],[2,2],[3,1],[-10,5],[-14,-4]],[[3290,3947],[-3,-13],[2,-10],[5,-9],[11,-14],[15,-16],[10,-3],[5,9],[-3,9],[-7,8],[-3,7],[8,9],[-18,19],[-7,5],[-8,2],[-7,-3]],[[3342,3938],[-5,-4],[11,-3],[4,-4],[3,-8],[-5,0],[5,-4],[10,-4],[5,-4],[23,-24],[7,-2],[17,0],[-4,5],[-9,2],[-4,3],[-2,4],[-2,11],[-1,4],[-9,7],[-18,8],[-8,9],[-3,0],[-5,4],[-5,1],[-5,-1]],[[2826,3934],[22,8],[10,1],[-5,5],[-11,-2],[-6,2],[2,0],[-12,2],[-4,-3],[-6,-8],[10,-5]],[[2716,3838],[7,0],[-3,5],[-14,11],[-5,2],[-3,1],[5,-12],[6,-5],[7,-2]],[[2957,3597],[-5,2],[-6,-5],[-6,-8],[-5,-8],[11,-9],[5,3],[3,10],[3,15]],[[379,3989],[-14,-24],[-5,-15],[4,-12],[14,-14],[6,-8],[5,-9],[6,-4],[15,2],[6,-2],[5,-4],[4,1],[3,1],[15,0],[2,0],[1,-6],[-2,-4],[-2,-2],[-1,2],[-1,-2],[-1,-4],[-1,-4],[0,-5],[1,0],[4,-2],[3,-3],[2,-4],[1,-10],[-2,-7],[-3,-7],[-6,-5],[-3,7],[-4,7],[4,10],[-3,9],[-7,8],[-5,2],[-44,5],[2,-3],[2,-3],[3,-8],[-5,0],[-10,4],[-5,0],[2,2],[2,5],[1,3],[-14,21],[-3,8],[4,8],[-6,9],[-14,9],[-7,-7],[-9,-4],[-10,-1],[-8,5],[7,2],[5,3],[2,5],[1,12],[3,7],[7,0],[14,-5],[5,3],[34,44],[7,6],[15,7],[15,3],[17,-7],[7,3],[3,16],[-4,3],[-18,9],[-5,4],[-3,12],[0,12],[-1,10],[-6,5],[7,8],[47,0],[1,0],[3,-4],[3,3],[0,1],[11,0],[-4,-3],[-8,-9],[4,-10],[6,-15],[2,-13],[-6,-6],[-11,-4],[-7,-10],[-6,-11],[-7,-8],[-11,-4],[-33,-1],[-9,-4],[-9,-9]],[[1319,1835],[10,-17],[1,-18],[-4,-45],[0,-22],[-1,-9],[-3,-10],[-6,-7],[-6,-7],[-6,-8],[-3,-11],[2,-13],[3,-9],[2,-8],[-3,-12],[-5,-5],[-2,5],[-2,10],[-6,18],[-1,20],[-3,8],[-7,9],[-6,6],[-3,7],[1,17],[-19,27],[-3,9],[-1,5],[-3,5],[-2,5],[-1,9],[1,6],[10,13],[5,15],[3,12],[5,9],[10,5],[11,-1],[12,-2],[10,-6],[7,-10],[3,0]],[[2234,3390],[-13,-17],[-9,2],[-5,10],[-2,12],[2,13],[5,9],[5,2],[6,0],[4,-5],[2,-7],[3,-8],[2,-11]],[[0,1383],[10,3],[8,1],[4,1],[4,3],[5,2],[6,-1],[3,-2],[0,-1],[-2,-2],[-1,-5],[-4,-26],[-1,-29],[1,-14],[4,-11],[20,-31],[81,-73],[26,-34],[29,-27],[19,-12],[13,-3],[4,-2],[2,-5],[0,-7],[1,-7],[8,-18],[2,-3],[4,-12],[2,-13],[3,-25],[3,-13],[6,-5],[3,-7],[10,-65],[4,-11],[5,-4],[7,-3],[17,-21],[30,-13],[31,-6],[5,-4],[17,-28],[4,-3],[2,-2],[17,-6],[23,-2],[62,16],[23,11],[9,5],[14,13],[7,10],[4,9],[5,7],[14,4],[14,10],[36,25],[3,10],[7,8],[8,5],[7,3],[0,7],[3,5],[9,7],[24,29],[8,20],[3,28],[-1,33],[-9,87],[-1,26],[-1,16],[-4,7],[-2,8],[1,19],[5,26],[-5,41],[-2,9],[-16,28],[-5,13],[0,13],[-4,33],[-1,17],[1,8],[3,9],[4,8],[3,6],[3,7],[2,8],[0,8],[2,8],[17,44],[6,28],[18,21],[6,13],[0,34],[3,15],[0,9],[-2,7],[-2,7],[-2,7],[0,8],[4,15],[1,8],[-1,8],[2,7],[7,11],[11,7],[10,9],[4,17],[-3,15],[-8,12],[-31,24],[-15,7],[-15,1],[-13,-6],[-4,-6],[-4,-8],[-3,-9],[-1,-9],[-1,-11],[-1,-6],[-12,-20],[-4,-7],[-6,-4],[-6,-2],[-13,4],[-7,0],[-6,-7],[-7,-16],[-3,-2],[-7,2],[-3,4],[-11,20],[-17,15],[-10,13],[-24,10],[-15,2],[-7,3],[-2,2],[-4,6],[-1,2],[-4,0],[-2,-2],[-2,-2],[-3,-1],[-3,1],[-3,3],[-4,2],[-3,-4],[-2,-4],[-3,-3],[-2,-1],[-3,3],[-2,6],[-2,8],[-2,9],[0,6],[-2,11],[-4,5],[-5,4],[-4,7],[-2,9],[0,7],[2,17],[0,21],[-2,17],[-5,9],[-11,-6],[-4,1],[-7,5],[-7,6],[-4,5],[-3,10],[0,8],[-2,4],[-5,-2],[-5,-7],[-3,-8],[-3,-3],[-5,5],[-2,7],[3,8],[3,7],[2,7],[-2,13],[-5,18],[-2,18],[1,17],[3,6],[3,1],[8,-3],[3,1],[1,4],[0,3],[-6,6],[-1,9],[2,8],[5,1],[14,-7],[13,2],[14,5],[14,2],[7,-3],[14,-9],[6,-2],[11,0],[1,2],[1,5],[-1,5],[-2,2],[-6,3],[-1,8],[2,8],[5,5],[6,-1],[14,-8],[7,-1],[-9,12],[-12,8],[-11,1],[-10,-11],[-7,9],[-7,1],[-16,-5],[-26,2],[-9,-2],[-7,-5],[-4,-3],[-2,-4],[-3,-1],[-11,4],[-7,-2],[-21,-8],[14,25],[7,6],[12,2],[3,5],[-23,31],[-3,14],[-12,18],[0,14],[8,10],[24,-1],[8,10],[6,-4],[6,0],[7,2],[12,10],[3,4],[1,4],[0,9],[-3,17],[-6,12],[-8,8],[-8,6],[4,-9],[11,-11],[5,-9],[-3,-2],[-7,-1],[-3,-2],[-7,-9],[-1,-3],[0,-4],[-2,-8],[-3,0],[-2,3],[-2,4],[-3,2],[-23,6],[-10,8],[-9,16],[2,-1],[5,1],[3,0],[-3,12],[2,9],[17,20],[4,3],[4,-2],[6,-9],[0,37],[-12,34],[-6,27],[20,13],[4,-1],[8,-3],[4,-1],[4,2],[5,6],[8,5],[5,5],[5,6],[7,0],[20,-18],[1,-1],[4,0],[4,6],[1,8],[-3,6],[-4,4],[4,9],[8,4],[32,1],[16,-4],[17,1],[19,7],[18,2],[15,-16],[8,17],[-3,12],[-24,32],[-3,7],[1,7],[5,8],[5,4],[5,2],[6,-1],[11,-8],[20,-21],[11,-5],[10,5],[-3,12],[-10,13],[-8,8],[7,5],[32,2],[13,5],[4,9],[4,23],[2,4],[24,6],[8,-1],[7,-5],[13,-15],[8,-3],[6,3],[6,6],[6,4],[7,-2],[21,-15],[6,-2],[7,3],[-2,7],[-6,6],[-6,3],[0,5],[9,-1],[4,2],[1,7],[2,8],[3,2],[4,0],[4,-3],[7,-11],[4,-12],[6,-8],[10,2],[5,3],[2,3],[8,18],[1,4],[-3,10],[-2,4],[-4,3],[-3,4],[-1,6],[0,7],[0,5],[-1,5],[-2,5],[12,8],[14,-12],[24,-30],[9,-2],[29,7],[8,-2],[15,-10],[8,-2],[7,3],[-3,18],[5,8],[8,0],[18,-12],[78,-22],[-2,16],[5,9],[8,4],[34,0],[4,2],[0,5],[-3,5],[-3,2],[-11,13],[-5,28],[-2,29],[3,12],[6,-5],[12,-23],[7,-6],[8,-3],[6,-7],[11,-18],[8,-6],[12,-5],[10,3],[5,13],[-3,12],[-6,7],[-3,9],[2,15],[-3,1],[-3,2],[-2,1],[9,11],[11,-3],[20,-22],[-2,-5],[4,-9],[3,-17],[5,-7],[7,-4],[4,1],[3,0],[6,7],[5,10],[-2,5],[5,16],[8,-5],[8,-13],[6,-7],[8,1],[0,5],[-1,6],[0,6],[5,7],[4,2],[5,-1],[13,-6],[13,-14],[2,-2],[1,-4],[0,-6],[3,-1],[69,1],[7,-2],[15,-9],[23,-6],[20,-12],[15,-4],[8,0],[6,2],[12,10],[5,2],[15,-1],[14,-4],[14,-8],[13,-11],[16,-16],[16,-18],[18,-7],[15,-9],[8,-3],[65,-6],[58,4],[48,3],[56,-14],[56,-3],[57,-14],[15,5],[15,10],[10,13],[13,24],[14,33],[6,35],[-8,33],[-13,24],[-5,15],[-3,16],[1,8],[3,20],[1,11],[19,22],[10,6],[14,-5],[13,-11],[9,-12],[5,-16],[4,-18],[5,-14],[41,-16],[14,-1],[11,12],[5,17],[1,19],[-1,39],[3,16],[8,15],[10,12],[9,7],[6,1],[7,-2],[6,-5],[10,-13],[14,-4],[10,-6],[8,-2],[4,-3],[2,-3],[3,-8],[2,-3],[7,-4],[6,1],[12,8],[6,-1],[11,-7],[7,-2],[4,3],[14,18],[4,2],[9,-3],[5,1],[10,7],[2,1],[4,3],[13,18],[8,21],[-1,10],[-19,20],[10,-1],[3,1],[10,10],[17,25],[11,10],[15,6],[39,-3],[85,-21],[110,-20],[22,-15],[92,-34],[17,-1],[11,8],[8,19],[3,18],[-6,8],[4,10],[7,6],[3,6],[-4,11],[-9,7],[-76,8],[-19,12],[-6,26],[-3,0],[-5,6],[-5,9],[-2,9],[1,9],[2,7],[0,7],[-5,11],[-13,13],[-54,23],[-64,0],[-25,-16],[-14,-6],[-59,6],[-60,0],[-14,5],[-14,9],[-10,14],[-15,33],[-9,11],[-12,4],[-10,7],[-6,15],[-5,18],[-6,13],[-5,6],[-2,-6],[0,-9],[-3,-5],[-15,1],[-8,2],[-5,4],[-6,8],[-23,9],[-5,5],[-4,5],[-32,70],[-23,35],[-6,15],[5,3],[8,1],[7,-1],[5,-3],[2,-6],[2,-14],[2,-7],[7,-8],[27,-15],[15,-18],[9,-5],[7,3],[2,13],[-3,15],[-5,12],[-9,12],[0,14],[1,16],[-2,12],[2,14],[8,1],[-3,9],[-10,19],[-2,10],[4,8],[7,-1],[8,-5],[6,-2],[8,16],[-5,20],[-11,12],[-13,-7],[-6,-8],[-13,-12],[-6,-9],[-5,-3],[-19,1],[-4,-2],[-8,-6],[-4,-2],[-19,1],[-9,-4],[-3,-14],[-3,-15],[-7,-1],[-8,3],[-7,-4],[3,-4],[2,-4],[2,-5],[1,-6],[-4,3],[-5,2],[-5,1],[-4,-1],[-3,-2],[-1,-3],[-1,-2],[-8,-8],[-9,-14],[-7,-9],[-2,0],[-8,0],[-7,3],[-4,1],[-2,-2],[-1,-5],[-1,-5],[-3,-2],[-4,1],[-8,3],[-3,0],[-6,-1],[-11,-6],[-6,-2],[-49,2],[-10,8],[-3,19],[-7,-7],[-5,-12],[-5,-9],[-8,4],[1,3],[4,11],[-7,6],[-4,8],[-6,5],[-8,-4],[1,-2],[2,-6],[2,-2],[-7,-3],[-1,-8],[3,-10],[5,-8],[-6,-4],[-2,-1],[5,-4],[3,0],[-13,-12],[-5,-3],[-25,5],[4,8],[11,6],[5,5],[-14,3],[-7,-1],[-6,-7],[-3,-8],[1,-6],[3,-6],[4,-9],[-14,5],[-30,25],[-14,-5],[4,-1],[1,-2],[3,-7],[-2,-2],[-3,-5],[-3,-3],[4,-2],[4,-3],[3,-4],[2,-5],[-18,4],[-32,24],[-16,6],[-28,1],[-6,3],[-1,10],[10,2],[19,-2],[-9,7],[-26,17],[5,14],[-4,3],[-9,-3],[-5,-9],[2,-11],[5,-10],[1,-10],[-8,-8],[-1,9],[-2,3],[-7,-2],[-4,2],[-5,10],[-5,3],[-2,-3],[-4,-10],[-2,-2],[-4,2],[-6,10],[-3,3],[-3,-1],[-4,-3],[-4,-4],[0,-5],[1,-6],[-2,-4],[-3,-4],[-5,-15],[-8,-3],[-17,1],[9,-11],[4,-8],[-1,-7],[-3,1],[-11,12],[-4,6],[-33,-12],[-11,0],[3,4],[2,5],[3,10],[-6,1],[-8,-2],[-7,-5],[-5,-6],[-2,-5],[1,-12],[-1,-5],[-2,-2],[-8,-5],[-3,-5],[-5,-1],[-7,7],[-7,10],[-5,6],[-7,2],[-8,-1],[-7,-3],[-1,-8],[-7,-2],[-10,4],[-9,10],[-7,10],[-3,14],[6,7],[10,6],[7,7],[10,19],[1,5],[-1,16],[1,6],[4,7],[17,13],[15,-3],[32,-22],[-8,27],[-12,19],[-15,8],[-16,-6],[-8,-10],[-14,-26],[-32,-59],[-4,-23],[11,-22],[-6,-11],[-3,-5],[-3,-3],[-11,0],[-2,-3],[3,-11],[-4,1],[-4,3],[-7,10],[0,-8],[-1,-4],[-3,-2],[-4,0],[-4,-3],[-1,-5],[0,-5],[-2,-2],[-7,5],[-5,12],[-4,12],[-3,5],[-4,4],[-6,8],[-6,7],[-5,0],[-1,-9],[5,-10],[11,-15],[-35,6],[-3,-1],[-7,-8],[-3,-1],[-3,4],[-14,15],[-12,6],[-5,4],[-13,17],[-12,10],[-12,6],[-11,0],[0,-5],[20,-9],[4,-5],[8,-12],[9,-5],[2,-6],[2,-7],[0,-6],[-3,-4],[-5,1],[-4,-1],[2,-9],[4,-5],[13,-9],[7,-12],[4,-5],[4,-2],[3,-4],[-1,-8],[-2,-8],[-3,-4],[-19,-5],[-1,16],[-15,23],[3,9],[-4,0],[-3,-4],[-3,-3],[-3,-2],[-5,0],[-3,2],[-21,22],[-8,5],[-9,4],[13,-17],[8,-8],[6,-4],[-3,-14],[-9,-15],[0,-9],[3,-11],[11,-18],[3,-14],[-8,0],[-5,3],[-4,4],[-5,7],[2,5],[-5,8],[-7,3],[-8,0],[-7,3],[-11,15],[-6,5],[-6,-5],[3,-13],[13,-9],[24,-12],[-25,-10],[0,-4],[-6,-4],[-10,5],[-29,32],[-2,5],[0,10],[3,6],[4,3],[-7,5],[0,5],[20,0],[-5,15],[-8,2],[-9,-6],[-6,-6],[-9,-7],[-28,-8],[0,-4],[5,-3],[2,-8],[0,-9],[-2,-10],[-2,-2],[-2,-1],[-3,-2],[-2,-12],[-2,-4],[-3,-2],[-51,0],[1,10],[-5,5],[-14,4],[1,-3],[2,-9],[0,-3],[-11,-4],[-34,0],[-2,-1],[0,-3],[0,-8],[0,-1],[-2,-3],[-4,2],[-7,4],[0,-5],[13,-8],[4,-6],[-3,-3],[-5,0],[6,-7],[-7,-5],[-22,-5],[-8,0],[1,5],[0,2],[1,3],[-15,-9],[-4,-6],[7,-4],[-3,-5],[-5,1],[-6,-7],[-7,3],[-5,8],[5,5],[4,10],[2,10],[-3,9],[-7,1],[-5,-10],[-9,-33],[-4,-6],[-31,-2],[-7,2],[-4,9],[13,4],[-1,13],[-9,10],[-13,-3],[7,-19],[-5,-3],[-10,-9],[-5,-3],[-18,-2],[-12,-5],[-3,-1],[-3,-4],[-1,-5],[2,-8],[-2,-4],[-5,0],[-2,6],[-2,8],[-1,6],[-4,5],[-23,13],[-5,1],[-2,-2],[4,-8],[6,-5],[5,-2],[2,-3],[-3,-9],[-5,-5],[-5,-2],[-4,-4],[-3,-8],[25,9],[-2,-6],[-4,-5],[-7,-8],[8,-5],[0,-4],[-25,-18],[-14,-21],[-7,-6],[-9,-3],[-10,-1],[3,10],[10,23],[4,6],[-6,1],[-10,-9],[-16,-21],[-3,12],[-6,-4],[-8,-9],[-6,-4],[2,11],[4,6],[5,3],[5,7],[1,5],[0,6],[1,7],[2,8],[-17,2],[-9,-3],[-6,-8],[5,-6],[-12,-7],[-3,-2],[-5,0],[-13,5],[-10,1],[-6,-3],[0,-6],[9,-7],[-7,-4],[-6,2],[-6,4],[-6,3],[-3,0],[-14,-8],[-4,0],[-4,3],[-7,-11],[-6,1],[-3,7],[6,8],[0,5],[-7,-1],[-3,-4],[-3,-7],[-5,-7],[-5,-6],[-5,-3],[-25,-5],[-27,-25],[-10,8],[-60,-8],[-5,3],[-3,9],[-4,3],[-4,0],[-25,-7],[-15,-8],[-9,0],[4,11],[16,27],[5,6],[11,3],[5,4],[1,5],[-3,6],[0,6],[1,7],[3,7],[-13,-4],[-5,-3],[-2,-6],[-2,-7],[-3,-6],[-5,-3],[-4,-3],[-1,-7],[-2,-9],[-2,-8],[-3,-4],[-8,-5],[-4,-5],[-12,-20],[-14,-16],[-33,-17],[-5,-9],[0,-13],[4,-11],[7,-2],[0,-5],[-63,-10],[-4,-5],[-22,4],[-9,-2],[-7,-3],[-21,-5],[-7,1],[7,5],[9,16],[5,4],[15,2],[51,25],[15,1],[-2,15],[1,6],[5,-1],[4,-1],[12,0],[9,5],[8,10],[9,15],[6,15],[6,21],[2,14],[-6,-5],[-24,-52],[-10,-13],[-7,0],[1,2],[1,5],[0,3],[-3,3],[-4,1],[-4,-1],[-4,-3],[1,-5],[-14,4],[-4,-6],[-1,-7],[-3,-1],[-2,5],[-1,7],[3,21],[1,3],[6,6],[27,11],[5,7],[9,18],[6,4],[-19,7],[-36,-7],[-17,0],[-9,4],[-8,5],[-6,7],[-2,11],[2,8],[6,9],[12,14],[-8,9],[-2,-4],[-4,-12],[-1,-3],[-3,-3],[-7,-3],[-3,-3],[-1,11],[-3,8],[-6,4],[-12,3],[-8,9],[-5,3],[4,8],[0,6],[-2,6],[-4,4],[19,34],[8,10],[24,22],[6,11],[2,7],[3,12],[3,5],[9,8],[4,5],[-1,7],[-7,1],[-10,-9],[-8,-14],[-5,-12],[-20,7],[-24,-11],[-51,-44],[-46,-13],[-21,-11],[-10,0],[5,6],[20,13],[-7,2],[-1,6],[7,14],[4,4],[17,7],[-18,-2],[-9,-3],[-17,-13],[-9,-4],[-1,0]],[[0,3174],[3,5],[12,12],[2,11],[18,21],[11,8],[2,10],[-3,7],[-16,-17],[-13,-2],[-16,1]],[[2759,3841],[4,6],[8,5],[-10,11],[-2,12],[5,11],[12,5],[27,-10],[14,1],[9,13],[-6,3],[-13,3],[-6,4],[12,-1],[5,3],[3,8],[-9,5],[-29,-1],[7,11],[12,9],[9,12],[-5,17],[5,6],[10,15],[6,3],[17,-9],[10,-2],[4,6],[-31,20],[-10,1],[-4,5],[0,11],[0,16],[10,-7],[6,-2],[10,4],[7,0],[7,-2],[14,-14],[15,-6],[16,-2],[10,4],[-5,16],[-8,14],[8,-2],[9,-4],[8,-2],[15,13],[21,0],[10,4],[-23,22],[-3,2],[-3,1],[-3,2],[-1,5],[1,7],[1,3],[2,0]],[[2938,4096],[7,-4],[3,1],[2,3]],[[3199,4096],[4,-5],[7,-3],[0,8]],[[3239,4096],[5,-9],[9,-6],[18,-26],[9,-9],[5,-6],[4,-9],[2,-6],[0,-6],[1,-8],[4,-8],[4,-7],[3,-7],[2,-9],[5,-12],[12,-13],[10,-5],[0,12],[-4,9],[-9,9],[-4,7],[-3,10],[-1,9],[2,5],[7,-2],[8,-10],[22,-41],[11,-13],[13,-11],[14,-7],[19,-5],[3,-5],[6,-14],[6,-8],[5,-6],[108,-61],[109,-62],[9,-13],[13,-26],[5,-15],[1,-19],[-1,-11],[-1,-8],[0,-5],[4,-5],[6,0],[5,4],[3,-1],[1,-15],[4,-10],[28,-40],[21,-17],[10,-12],[4,-17],[-4,-43],[-1,-22],[4,-17],[12,-11],[17,-6],[14,-9],[8,-19],[-2,-20],[-8,-19],[-23,-40],[-15,-20],[-4,-11],[-6,-21],[-4,-9],[-4,9],[1,8],[2,8],[-1,9],[-6,5],[-15,5],[-16,17],[-14,5],[-13,-5],[-6,-18],[3,-13],[9,-18],[9,-15],[6,-7],[4,-3],[4,-7],[1,-10],[1,-9],[-2,-6],[-4,-9],[-9,-14],[-6,-4],[-4,1],[-4,2],[-6,1],[-3,-2],[-2,-4],[1,-7],[15,-37],[2,-8],[0,-11],[-1,-10],[-2,-7],[-18,-34],[-26,-17],[-75,-23],[-10,3],[-9,11],[-23,38],[-4,6],[-5,-1],[-4,-2],[-6,0],[-4,3],[-6,8],[-5,4],[-12,5],[-99,5],[-5,2],[-6,4],[-4,2],[-2,-4],[-1,-7],[-2,-5],[-49,-48],[-7,-23],[4,4],[5,4],[4,0],[2,-5],[-1,-7],[-4,-4],[-7,-6],[-11,-17],[-2,-6],[-1,-7],[-1,-7],[-3,-7],[8,-11],[6,-19],[4,-21],[-3,-20],[-12,-17],[-19,-13],[-21,-6],[-15,4],[-5,8],[-3,9],[-5,7],[-9,3],[-19,-2],[-11,-3],[-7,-7],[-13,-7],[-22,2],[-20,9],[-11,13],[16,5],[4,4],[2,4],[1,9],[1,4],[2,3],[5,3],[7,8],[4,3],[1,5],[0,9],[-3,6],[-6,7],[-6,5],[-5,2],[-6,6],[2,13],[6,16],[3,13],[-5,16],[-9,9],[-19,11],[-14,18],[-10,22],[-29,112],[-9,27],[-12,21],[-6,-10],[-4,-7],[-5,-1],[-5,8],[-3,10],[0,10],[2,10],[3,9],[-6,10],[-11,12],[-5,11],[-1,3],[0,5],[0,5],[-2,6],[-4,5],[-59,30],[-3,7],[1,23],[-2,9],[-8,20],[-2,10],[1,6],[3,2],[9,-1],[2,3],[-2,13],[2,16],[0,15],[-2,15],[-2,6],[-3,2],[-6,10],[-4,2],[-5,1],[-11,5],[-5,4],[6,8],[3,4],[4,2],[-7,6],[-25,39],[-6,6],[-23,20],[-17,30],[-7,8],[-123,85],[-29,31],[-8,6],[5,4],[6,1],[6,-3],[11,-11],[15,1],[6,-4],[3,-6],[2,-6],[2,-4],[4,-6],[6,-5],[6,-5],[7,-1],[6,1],[-6,23],[-4,10],[-5,6],[-10,5],[-21,3],[-9,7],[3,2],[3,1],[3,0],[3,-3],[-4,8],[-7,5],[-16,6],[9,4],[4,10],[3,11],[4,9],[7,-1],[44,-42],[7,-5],[7,-2],[3,5]],[[2961,4074],[7,-7],[7,-4],[6,1],[-3,5],[-9,10],[-13,5],[5,-10]],[[2936,4035],[-5,0],[5,-10],[7,-4],[7,3],[6,11],[-3,5],[-17,-5]],[[2853,4011],[6,-7],[6,-5],[7,-3],[6,1],[-3,5],[-4,5],[-9,5],[-4,1],[-5,-2]],[[3080,3960],[-27,-17],[9,-16],[16,-6],[12,6],[-2,21],[2,0],[2,1],[1,2],[2,2],[3,0],[1,3],[2,2],[3,1],[-10,5],[-14,-4]],[[3290,3947],[-3,-13],[2,-10],[5,-9],[11,-14],[15,-16],[10,-3],[5,9],[-3,9],[-7,8],[-3,7],[8,9],[-18,19],[-7,5],[-8,2],[-7,-3]],[[3342,3938],[-5,-4],[11,-3],[4,-4],[3,-8],[-5,0],[5,-4],[10,-4],[5,-4],[23,-24],[7,-2],[17,0],[-4,5],[-9,2],[-4,3],[-2,4],[-2,11],[-1,4],[-9,7],[-18,8],[-8,9],[-3,0],[-5,4],[-5,1],[-5,-1]],[[2826,3934],[22,8],[10,1],[-5,5],[-11,-2],[-6,2],[2,0],[-12,2],[-4,-3],[-6,-8],[10,-5]],[[2716,3838],[7,0],[-3,5],[-14,11],[-5,2],[-3,1],[5,-12],[6,-5],[7,-2]],[[2957,3597],[-5,2],[-6,-5],[-6,-8],[-5,-8],[11,-9],[5,3],[3,10],[3,15]],[[2023,3732],[4,1],[3,-1],[-8,6],[-10,5],[-9,1],[-5,-8],[3,-3],[2,-5],[2,-4],[-4,-2],[-3,1],[-1,3],[-2,2],[-5,-1],[-2,-3],[-2,-5],[-2,-5],[-4,-2],[-3,1],[-9,9],[1,6],[3,5],[8,8],[-4,9],[-4,0],[-6,-2],[-5,5],[-7,16],[-4,4],[-7,2],[-3,0],[-3,1],[-2,1],[-2,2],[6,4],[13,-3],[4,2],[9,14],[4,6],[5,2],[5,2],[11,6],[6,1],[7,-1],[14,-6],[13,-2],[5,-2],[7,-7],[9,-6],[2,-2],[0,-9],[0,-4],[2,-4],[9,-6],[11,2],[22,13],[-3,3],[-3,2],[-2,4],[1,7],[-30,0],[-7,3],[-4,7],[-2,10],[-5,8],[-6,5],[-7,3],[-7,6],[-5,27],[-6,1],[-15,-8],[-3,0],[-4,4],[-3,1],[-4,-2],[-6,-6],[-3,-2],[-4,0],[-8,1],[-3,-1],[-3,-3],[-3,-5],[-2,-4],[-4,-2],[-68,14],[11,-9],[2,-7],[-1,-13],[-4,-11],[-6,-3],[-54,19],[-13,0],[2,8],[0,8],[-2,5],[-5,3],[1,-10],[1,-4],[-6,1],[-3,7],[-2,7],[-3,4],[-5,-2],[-13,-12],[4,18],[12,6],[13,-1],[11,-4],[-5,10],[-25,19],[-9,11],[-3,3],[-5,2],[-9,0],[-4,3],[1,4],[-1,1],[0,1],[0,3],[-3,-4],[-2,-5],[0,-5],[3,-4],[0,-6],[-8,0],[-8,-4],[-7,-1],[-8,5],[5,1],[4,1],[3,3],[4,5],[-4,4],[-2,1],[6,9],[-2,1],[-1,1],[-3,3],[8,10],[-4,-1],[-4,1],[-4,2],[-3,3],[4,8],[10,7],[21,8],[-3,5],[-2,1],[3,3],[3,3],[3,2],[3,1],[-2,9],[-6,4],[-6,0],[-5,-3],[1,-3],[1,-7],[-4,-1],[-5,1],[-9,5],[2,7],[1,3],[-5,-1],[-5,1],[-5,2],[-5,3],[11,21],[5,3],[7,-10],[1,4],[3,7],[1,3],[6,-12],[7,-9],[19,-12],[-3,12],[5,0],[11,-7],[6,0],[6,2],[6,2],[6,-4],[-1,10],[-5,4],[-11,0],[-25,13],[-16,4],[-7,5],[-6,7],[-5,7],[0,8],[2,10],[0,12],[-6,11],[5,8]],[[1757,4096],[0,-1],[4,-4],[2,4],[0,1]],[[1776,4096],[-4,-6],[-6,-7],[-6,-9],[3,-5],[-2,-2],[-1,-3],[-2,-5],[-2,2],[-3,-3],[-4,-6],[-3,-7],[10,-1],[34,-16],[6,0],[12,3],[23,0],[0,4],[-5,-1],[-4,3],[-7,8],[5,9],[-20,1],[-7,4],[16,5],[4,3],[-1,6],[-1,7],[1,6],[0,6],[-1,4]],[[1819,4096],[-2,-5],[-1,-11],[4,-9],[7,-3],[10,-1],[9,0],[6,4],[6,7],[22,6],[14,12]],[[1982,4096],[-2,-4],[2,-5],[2,-5],[3,-4],[3,-4],[18,-21],[6,-15],[1,-27],[6,3],[4,0],[5,1],[5,6],[1,3],[0,11],[2,5],[2,1],[10,-1],[-1,3],[-2,6],[-1,5],[0,3],[2,1],[4,4],[3,4],[0,3],[4,-3],[0,-6],[0,-7],[1,-8],[8,-12],[7,10],[5,18],[8,13],[-2,1],[-4,3],[-2,1],[3,7],[6,10]],[[2461,4096],[-2,-3],[-5,-3],[-7,2],[-5,4]],[[2407,4096],[5,-4],[-7,-2],[-8,4],[-3,2]],[[2386,4096],[0,-1],[16,-11],[2,-4],[2,-4],[2,-4],[4,-3],[-8,-4],[-16,10],[-6,-1],[-2,3],[-3,3],[-3,3],[-6,2],[0,1],[0,3],[-1,3],[-3,4]],[[2224,4096],[3,-4],[5,-1],[9,5]],[[2295,4096],[7,-3],[-2,0],[-1,-1],[-2,-6],[5,-6],[7,-4],[5,-2],[-6,-4],[-4,3],[-7,11],[-7,4],[-6,1],[-25,-3],[-7,-2],[-5,-5],[-3,-9],[1,-4],[12,-7],[-2,-5],[-3,-4],[-4,-1],[-3,0],[3,-2],[4,-2],[4,0],[4,0],[-14,-11],[-4,-6],[6,-3],[3,2],[0,3],[2,1],[7,-10],[2,-4],[0,-4],[-2,-6],[-13,-12],[-35,26],[-15,0],[3,-6],[3,-4],[3,-3],[4,-1],[-2,-11],[1,-9],[4,-8],[4,-6],[-11,-19],[-20,-7],[-56,3],[-3,-4],[0,-13],[2,-1],[6,-3],[10,-1],[20,4],[10,-3],[-10,-14],[-10,-2],[-42,13],[-3,-2],[1,-6],[4,-6],[13,-14],[6,0],[9,3],[7,-2],[11,-7],[6,-1],[11,4],[16,20],[11,4],[-2,-5],[0,-2],[1,-2],[1,-5],[10,10],[11,2],[24,-2],[-4,3],[-2,4],[-2,5],[-2,7],[6,-3],[7,-6],[17,-22],[6,-5],[6,-2],[7,-1],[3,-11],[26,-12],[6,-13],[-1,-19],[-6,-11],[-7,-6],[-31,-14],[-4,-5],[-4,-4],[-4,-4],[-11,-3],[-10,-7],[-29,-7],[-29,-20],[-10,-3],[-21,-2],[-10,-5],[-10,-8],[-12,-16],[-5,-3],[-5,0],[-6,3],[-5,0],[-5,-5],[-8,-5],[-42,-3],[-27,8],[-3,2],[-1,5],[1,4],[4,1]],[[2208,3843],[-2,-3],[4,-7],[4,-6],[2,-2],[7,-9],[6,-4],[7,3],[7,8],[4,-5],[3,5],[-8,2],[-4,6],[-5,7],[-6,5],[-5,-3],[-14,3]],[[1985,4010],[8,-3],[-7,9],[-1,6],[3,9],[-5,10],[-5,-1],[-5,-6],[-4,-3],[-23,-2],[-6,2],[-2,3],[-1,8],[-2,3],[-3,1],[-11,-1],[-3,2],[-7,5],[-3,0],[-10,-7],[2,-9],[0,-9],[-1,-9],[5,-6],[11,1],[5,-6],[-8,-1],[1,-5],[6,-8],[6,-6],[-17,-1],[-8,1],[-7,5],[2,5],[-5,8],[-7,-1],[-7,-5],[-8,-2],[-8,3],[-11,10],[-9,1],[-4,-4],[-5,0],[-11,4],[0,-4],[18,-10],[-3,-5],[84,-14],[11,-5],[-8,-6],[-16,-4],[-8,-10],[38,1],[12,4],[8,7],[11,12],[6,12],[-8,8],[1,5],[-1,3],[-1,3],[-4,3],[7,2],[18,-3]],[[1882,3871],[18,-9],[-15,10],[2,12],[-9,12],[5,9],[-6,4],[-3,1],[-4,0],[1,2],[1,3],[1,2],[2,2],[0,5],[-3,2],[-1,3],[-1,10],[-7,4],[-24,2],[-8,-2],[2,10],[-12,3],[-18,13],[-11,4],[-12,-5],[-20,-18],[-12,-2],[0,-5],[40,-21],[14,-3],[26,1],[13,-6],[10,-13],[-22,4],[-21,9],[-5,1],[-4,-10],[6,-10],[22,-22],[13,-4],[6,-2],[4,-5],[2,-5],[4,-3],[6,-2],[4,3],[8,13],[4,4],[4,-1]],[[2090,3947],[10,-2],[8,6],[-1,11],[49,0],[6,2],[18,9],[15,1],[5,3],[-3,7],[-7,10],[-3,8],[-1,-1],[-1,0],[-2,1],[-3,5],[2,4],[-9,3],[-2,4],[-1,7],[-8,4],[-10,1],[-8,-3],[1,-12],[-7,1],[-3,2],[-3,3],[6,-18],[2,-6],[-6,-10],[-7,-4],[-17,-1],[-32,10],[-8,-5],[10,0],[2,-6],[0,-11],[0,-12],[8,-11]],[[2091,4049],[-6,-18],[5,-1],[5,2],[5,3],[5,5],[3,-10],[5,3],[5,7],[4,5],[1,-2],[3,-4],[4,-4],[5,0],[1,2],[1,5],[1,5],[3,2],[1,3],[0,5],[0,5],[3,2],[2,-1],[7,-8],[2,-3],[4,-2],[5,5],[5,7],[2,7],[2,4],[1,3],[0,3],[-7,3],[-9,2],[-17,0],[-5,-4],[-11,-13],[-5,-3],[-11,-1],[-10,-4],[-9,-10]],[[1385,3961],[9,10],[10,2],[-3,-7],[-13,-20],[-3,-7],[-5,-15],[-3,-7],[-4,-5],[-17,-7],[-3,-4],[-9,-15],[4,-8],[4,1],[4,4],[5,3],[3,-1],[0,-7],[2,-2],[3,1],[6,4],[4,0],[-7,-15],[-1,1],[1,-5],[1,-7],[2,-4],[1,1],[-1,-6],[-4,-8],[-3,-7],[-4,-3],[-6,4],[-2,9],[0,18],[-1,7],[-5,-2],[-6,-6],[-5,-1],[1,3],[1,9],[0,3],[-5,1],[-3,-2],[-5,-12],[-3,-4],[-3,-3],[-8,-5],[4,-7],[9,-5],[9,-2],[8,0],[0,-5],[-2,-12],[9,-24],[0,-13],[-2,4],[-3,4],[-2,2],[-6,-9],[-3,-5],[1,-7],[3,-12],[3,7],[4,5],[3,2],[5,-4],[-3,-12],[6,-9],[17,-13],[-16,2],[-7,-2],[-15,-22],[-3,-8],[1,-9],[3,5],[4,3],[4,0],[4,-3],[-22,-22],[-5,-12],[-4,-10],[-7,-22],[-5,-11],[-2,9],[-4,24],[-4,6],[-4,-6],[-3,-14],[-3,-10],[-6,3],[-2,12],[5,9],[21,15],[5,5],[19,39],[4,13],[2,13],[-4,-1],[-8,6],[-13,12],[-1,4],[-1,11],[-1,4],[-2,3],[-8,6],[-3,3],[-6,8],[-18,18],[-5,-22],[-6,6],[-7,15],[-7,6],[-2,-5],[-10,-28],[-5,-9],[-5,-6],[-4,-2],[-4,7],[4,5],[11,19],[-3,2],[-3,0],[-2,-2],[-2,0],[-3,3],[-10,15],[-1,3],[-1,2],[-5,1],[-8,-4],[-3,-1],[-1,4],[12,18],[-3,6],[-44,25],[-8,1],[-7,-3],[-3,-5],[-2,-7],[0,-7],[5,-17],[13,-6],[14,-3],[10,-6],[-14,-17],[-48,-12],[-1,-2],[0,-11],[-1,-3],[-4,-7],[-14,-15],[16,-18],[8,-11],[3,-10],[3,0],[0,9],[2,7],[2,4],[3,0],[2,-4],[3,-14],[3,-6],[-2,-5],[-3,-14],[4,-2],[2,-4],[2,-6],[-1,-7],[-2,-5],[-3,-1],[-8,0],[-3,2],[-6,10],[-4,3],[-4,0],[-5,2],[-4,3],[-3,5],[7,10],[3,6],[2,7],[-9,8],[-10,12],[-10,8],[-9,-6],[-1,-6],[3,-5],[4,-5],[2,-6],[-2,-10],[-5,-4],[-5,0],[-3,2],[-6,16],[-14,-1],[-15,-4],[-7,7],[4,10],[23,6],[8,7],[-3,-1],[-4,1],[-3,0],[7,27],[15,15],[18,5],[17,1],[0,6],[-9,4],[-6,7],[0,11],[3,16],[5,9],[2,6],[-1,6],[-4,4],[-5,1],[-3,3],[1,10],[-5,3],[-5,-2],[-10,-6],[2,-8],[6,-7],[2,-7],[-3,-6],[-8,-3],[-7,0],[-5,2],[-5,14],[1,18],[5,17],[4,14],[-8,6],[-9,-7],[-10,-10],[-10,-4],[5,22],[-9,6],[-13,2],[-8,13],[8,2],[7,3],[-4,3],[-13,6],[10,5],[13,0],[4,2],[-12,12],[-45,30],[0,5],[20,-3],[4,3],[3,8],[-5,5],[-7,1],[-5,0],[6,6],[6,4],[0,4],[-6,2],[-7,5],[-6,8],[-6,9],[7,4],[7,0],[22,-5],[5,2],[9,14],[-2,4],[-1,3],[-1,2],[-3,1],[0,5],[10,4],[8,-4],[17,-15],[6,-2],[7,3],[5,7],[4,12],[-5,-1],[-4,1],[-5,1],[-4,3],[5,4],[6,3],[5,1]],[[1174,4096],[11,-6],[12,-16],[-25,16],[-18,6]],[[1114,4096],[-5,-8],[8,-7],[16,6],[9,-3],[-4,-10],[-7,-5],[-8,-2],[-6,-3],[4,-6],[2,-6],[1,-7],[-2,-5],[1,-2],[3,-5],[1,-2],[-6,-4],[-6,1],[-5,0],[-6,-7],[10,-11],[13,-8],[14,-4],[11,4],[0,5],[-2,0],[-6,4],[6,3],[8,2],[6,-2],[3,-10],[-3,-13],[2,-5],[8,-4],[-7,-5],[-6,2],[-5,5],[-19,6],[-4,-1],[1,-7],[-42,5],[3,-5],[1,-6],[0,-7],[-2,-7],[28,-10],[5,-4],[-2,-8],[-15,-10],[-6,-6],[3,-1],[4,-3],[3,-1],[-7,-19],[-5,-24],[6,6],[4,12],[6,7],[9,-6],[-3,-3],[-5,-7],[-2,-4],[1,-3],[5,-9],[2,-2],[15,14],[60,-31],[22,2],[-2,1],[-6,4],[6,13],[9,-3],[10,-8],[10,-2],[-2,-5],[7,-4],[15,2],[7,-3],[5,-6],[2,-6],[-3,-7],[-6,-5],[6,-9],[14,-10],[6,-7],[7,-3],[8,5],[8,10],[6,9],[-9,9],[-9,6],[-6,8],[1,16],[7,12],[35,41],[4,3],[12,3],[3,5],[1,6],[3,7],[14,27]],[[1823,1729],[8,-7],[17,5],[6,-5],[3,-12],[1,-13],[-2,-11],[-5,-5],[7,-2],[1,-8],[-1,-8],[2,-6],[5,2],[13,14],[13,6],[7,5],[7,3],[8,-4],[4,0],[12,11],[6,1],[0,-2],[1,-4],[2,-6],[2,-2],[4,-2],[4,-1],[4,0],[17,9],[7,1],[7,-2],[2,-5],[6,-14],[4,-6],[19,-17],[5,-2],[0,-5],[5,-20],[2,-6],[27,-32],[4,-7],[3,-7],[-1,-9],[-4,-6],[-1,-7],[2,-9],[7,-15],[1,-15],[-2,-15],[-7,-15],[-4,-8],[-2,-3],[-61,-3],[-7,5],[-3,18],[-5,11],[-9,6],[-19,7],[17,7],[3,3],[1,8],[-3,6],[-6,4],[-9,2],[-13,7],[-4,4],[-1,3],[-5,4],[-3,15],[-2,4],[-9,9],[-14,7],[-13,1],[-6,-9],[0,-7],[0,-3],[-7,-9],[-2,-5],[-6,-21],[-5,15],[-3,16],[-2,18],[0,15],[1,17],[-1,7],[-11,6],[-4,7],[-5,19],[-19,39],[-5,14],[-1,7],[15,12]],[[1808,1717],[0,22],[-1,4],[-4,3],[-15,21],[3,8],[-1,7],[-3,6],[-1,8],[0,15],[1,5],[3,3],[1,4],[-3,4],[-5,5],[-26,14],[-16,0],[-8,3],[-8,11],[-3,15],[1,35],[-1,18],[-12,62],[-13,38],[-23,45],[-8,12],[-35,24],[-9,12],[-3,17],[2,20],[5,20],[5,13],[11,20],[13,15],[13,11],[75,29],[91,10],[72,-16],[1,-8],[-3,-11],[-4,-11],[3,-25],[24,-37],[3,-30],[-1,-6],[-5,-12],[-1,-6],[-1,-7],[1,-15],[0,-7],[-6,-35],[-1,-19],[3,-8],[5,-6],[17,-52],[1,-15],[1,-44],[-1,-12],[-3,-12],[-5,-11],[-10,-12],[-1,6],[2,15],[0,12],[-28,-35],[-6,-18],[-12,-21],[-3,-2],[-7,-1],[-1,-2],[1,-7],[2,-3],[2,-2],[2,-5],[2,-9],[1,-5],[-2,-3],[-8,-2],[-8,1],[-12,11],[-6,3],[-6,-3],[-3,-8],[0,-10],[0,-11],[-1,-8],[-3,-8],[-6,-15],[-15,-12]],[[1809,1835],[-1,-5],[11,-7],[6,0],[6,2],[-3,5],[-4,4],[-7,5],[-1,0],[-2,0],[-3,-1],[-2,-3]],[[1844,3650],[-6,-2],[-2,-4],[2,-16],[-2,-7],[-3,0],[-3,6],[-2,8],[-7,-7],[-3,3],[-2,8],[-3,6],[-7,1],[-8,-4],[-7,-1],[-7,6],[-3,10],[-1,8],[-2,6],[-6,3],[-6,-5],[-5,-9],[-5,-7],[-5,2],[1,2],[0,2],[1,5],[2,8],[3,7],[4,5],[3,5],[-1,7],[4,6],[5,0],[4,-12],[10,-7],[4,-4],[-3,-17],[8,-8],[13,-4],[33,3],[21,7],[8,12],[5,2],[2,-16],[2,-3],[2,0],[2,0],[3,2],[0,4],[-2,9],[0,5],[0,4],[0,4],[4,8],[6,3],[12,-5],[6,4],[-6,5],[-4,7],[-5,5],[-5,2],[0,-4],[2,0],[-2,-5],[-4,3],[-11,8],[-3,4],[0,7],[4,1],[6,-3],[4,-3],[3,0],[5,4],[5,4],[4,-4],[5,-5],[6,-2],[13,1],[-3,-7],[-1,-2],[-3,-1],[8,-12],[8,-13],[8,-11],[11,-2],[-7,-12],[-11,-6],[-21,-2],[-4,-2],[-10,-7],[-8,-7],[-30,-6],[-4,0],[-5,3],[-4,5],[-3,6],[-2,6],[-5,2]],[[2323,4096],[-1,-4],[5,-1],[2,0],[3,1],[0,-4],[-20,5],[4,2],[1,1]],[[1595,4096],[1,-2],[3,-4],[4,-2],[-3,-3],[-4,-2],[-3,0],[-5,1],[4,-5],[5,-3],[4,-2],[5,0],[-5,-9],[-7,-5],[-8,-1],[-8,5],[-2,7],[-2,8],[-2,6],[-6,3],[6,-21],[1,-3],[-3,-5],[-6,0],[-5,3],[-4,4],[-1,14],[3,14],[0,2]],[[712,4096],[-12,-17],[56,-32],[9,-16],[-8,2],[-17,-1],[-13,13],[-9,3],[-10,0],[-8,-3],[-2,-2],[-1,-6],[-2,-2],[-8,-3],[-8,-1],[-26,4],[-8,-4],[5,-10],[-19,-4],[-3,-10],[-4,-2],[-3,-3],[-2,-5],[1,-5],[-3,-7],[-12,-4],[-2,-6],[1,-9],[2,-4],[12,0],[-17,-9],[-3,-5],[1,-7],[6,-12],[0,-10],[-3,-10],[-6,-1],[-6,2],[-5,0],[-3,-6],[-1,-6],[2,-6],[5,-6],[9,7],[18,9],[8,8],[4,-7],[1,-3],[0,-7],[2,-2],[26,-18],[6,-6],[3,-10],[-7,0],[-4,4],[-3,6],[-3,5],[-7,4],[-21,0],[-2,3],[-2,4],[-2,3],[-2,-2],[-14,-28],[-5,-4],[-8,0],[-2,2],[-26,-3],[-6,-5],[-5,-8],[-3,-10],[9,-12],[23,-21],[21,-10],[2,0],[3,4],[5,12],[3,3],[7,-2],[6,-5],[6,-2],[7,4],[-5,19],[5,-1],[7,-7],[10,-4],[9,-9],[13,-5],[6,-8],[8,-23],[-8,3],[-8,9],[-8,5],[-4,-8],[2,-5],[3,-15],[1,-4],[4,-2],[7,-6],[5,-8],[5,-10],[11,-17],[12,-6],[6,-4],[4,-9],[-10,-1],[-11,2],[-10,9],[-4,16],[-4,9],[-17,17],[-6,20],[-5,0],[-5,-4],[-3,-6],[0,-7],[1,-17],[-1,-4],[-7,-2],[-11,7],[-22,25],[-6,10],[-4,5],[-11,1],[-5,4],[-3,5],[-13,9],[-5,1],[-9,-4],[-1,3],[-6,6],[-72,25],[-10,10],[6,5],[-8,41],[-3,22],[3,19],[6,-21],[9,-37],[9,-24],[1,-5],[2,-3],[6,-2],[18,0],[6,-3],[8,-7],[8,-4],[7,5],[-6,4],[-4,9],[-5,21],[3,2],[3,-1],[3,-1],[4,0],[2,1],[6,7],[3,1],[4,3],[5,8],[7,13],[3,21],[-2,19],[-8,13],[-11,5],[-2,4],[-4,10],[-3,11],[0,9],[4,8],[8,1],[14,-4],[1,-2],[2,-4],[2,-3],[3,-2],[3,2],[5,6],[14,13],[11,14],[-1,10],[43,46],[14,5],[13,7],[8,19],[-3,1],[-7,7],[2,4]],[[660,4096],[-2,-1],[-1,1]],[[379,3989],[-14,-24],[-5,-15],[4,-12],[14,-14],[6,-8],[5,-9],[6,-4],[15,2],[6,-2],[5,-4],[4,1],[3,1],[15,0],[2,0],[1,-6],[-2,-4],[-2,-2],[-1,2],[-1,-2],[-1,-4],[-1,-4],[0,-5],[1,0],[4,-2],[3,-3],[2,-4],[1,-10],[-2,-7],[-3,-7],[-6,-5],[-3,7],[-4,7],[4,10],[-3,9],[-7,8],[-5,2],[-44,5],[2,-3],[2,-3],[3,-8],[-5,0],[-10,4],[-5,0],[2,2],[2,5],[1,3],[-14,21],[-3,8],[4,8],[-6,9],[-14,9],[-7,-7],[-9,-4],[-10,-1],[-8,5],[7,2],[5,3],[2,5],[1,12],[3,7],[7,0],[14,-5],[5,3],[34,44],[7,6],[15,7],[15,3],[17,-7],[7,3],[3,16],[-4,3],[-18,9],[-5,4],[-3,12],[0,12],[-1,10],[-6,5],[7,8]],[[460,4096],[1,0],[3,-4],[3,3],[0,1]],[[478,4096],[-4,-3],[-8,-9],[4,-10],[6,-15],[2,-13],[-6,-6],[-11,-4],[-7,-10],[-6,-11],[-7,-8],[-11,-4],[-33,-1],[-9,-4],[-9,-9]],[[263,3983],[3,-9],[12,-21],[-13,1],[-26,8],[-13,-4],[-3,-3],[-10,-14],[-4,-10],[-4,-1],[-3,4],[2,9],[-11,12],[-9,-14],[-9,-20],[-7,-11],[-57,-13],[-6,-4],[-5,-5],[-12,-8],[-8,-8],[-10,-5],[-2,-3],[-7,-17],[-9,-12],[-1,-7],[4,-12],[-1,-5],[-9,1],[-16,6],[17,0],[-3,9],[0,5],[1,5],[2,6],[12,20],[29,34],[13,6],[9,9],[3,3],[26,-3],[3,4],[6,2],[12,1],[4,3],[3,5],[17,39],[8,13],[8,3],[2,-4],[0,-6],[3,-5],[7,1],[13,8],[6,1],[5,3],[3,7],[2,6],[4,4],[79,0],[0,-5],[-5,-4],[-11,1],[-6,-2],[-31,0],[-7,-4]],[[1476,4096],[-1,-1],[-3,-3],[-5,2],[-3,2]],[[1446,4096],[-3,-4],[-5,-3],[-2,6],[0,1]],[[1337,4096],[-8,-20],[-2,-18],[9,-9],[0,-3],[0,-1],[-1,-2],[-1,-3],[-7,5],[-9,3],[-17,1],[-6,2],[-10,10],[-6,3],[2,3],[0,1],[-2,1],[-1,11],[-2,7],[-3,6],[-1,3]],[[1319,1835],[10,-17],[1,-18],[-4,-45],[0,-22],[-1,-9],[-3,-10],[-6,-7],[-6,-7],[-6,-8],[-3,-11],[2,-13],[3,-9],[2,-8],[-3,-12],[-5,-5],[-2,5],[-2,10],[-6,18],[-1,20],[-3,8],[-7,9],[-6,6],[-3,7],[1,17],[-19,27],[-3,9],[-1,5],[-3,5],[-2,5],[-1,9],[1,6],[10,13],[5,15],[3,12],[5,9],[10,5],[11,-1],[12,-2],[10,-6],[7,-10],[3,0]],[[1622,3768],[0,-11],[-11,4],[-7,-5],[-7,-7],[-6,-3],[-6,3],[-6,6],[-8,15],[-10,25],[-4,4],[-2,-5],[0,-11],[3,-13],[2,-7],[3,-8],[2,-9],[0,-8],[-4,-6],[-6,-1],[-18,3],[-4,2],[1,20],[-1,10],[-2,7],[-12,10],[-13,6],[0,6],[3,-1],[10,1],[0,4],[-14,6],[-6,5],[-6,8],[-2,8],[-1,8],[-1,6],[-6,3],[0,4],[9,0],[13,-6],[6,2],[1,2],[1,5],[2,4],[4,3],[17,0],[0,-5],[-8,-19],[18,8],[13,23],[1,26],[-17,15],[-13,-3],[-3,1],[-2,6],[-1,6],[-2,6],[-3,6],[-26,17],[-2,4],[-2,6],[-1,2],[-2,2],[8,12],[8,3],[6,6],[3,20],[-2,6],[-2,7],[-1,6],[2,3],[4,-3],[4,-4],[3,-2],[4,3],[2,6],[1,24],[5,17],[1,8],[-2,4],[-8,4],[-8,11],[-3,7]],[[1523,4096],[9,-6],[4,-6],[4,-11],[0,-8],[-2,-18],[1,-11],[1,-7],[-1,-7],[-13,-25],[-4,-11],[1,-9],[3,-3],[3,0],[10,5],[6,7],[1,1],[8,-1],[13,-11],[66,-22],[-8,0],[-7,-1],[-4,-7],[-1,-16],[-10,13],[-1,6],[4,10],[-93,12],[-12,-8],[14,-14],[6,-5],[16,-4],[5,-17],[8,-11],[19,-16],[7,-14],[-7,-12],[-9,-21],[-5,-21],[3,-14],[6,16],[8,6],[4,-3],[-3,-14],[3,0],[-4,-13],[0,-11],[5,-7],[9,-2],[-3,-4],[-1,-1],[-1,-1],[14,-9],[9,-2],[6,5],[8,5],[4,-10]],[[2741,3440],[-12,-13],[-55,7],[-16,-3],[-12,-8],[-16,2],[-16,7],[-13,8],[-5,6],[-10,21],[-2,4],[0,1],[15,3],[7,-2],[8,-6],[6,-9],[4,-7],[4,-6],[8,-2],[33,5],[17,-6],[9,0],[9,6],[-8,11],[-9,7],[-34,11],[-4,4],[-3,8],[0,5],[2,5],[1,7],[0,15],[-1,6],[-4,3],[-5,1],[-4,3],[-3,7],[1,8],[0,4],[-1,5],[1,3],[2,2],[5,-1],[1,1],[2,3],[4,4],[2,2],[7,-14],[-3,-5],[-1,-5],[0,-6],[3,-6],[2,-6],[0,-7],[-1,-7],[0,-6],[4,-17],[6,-6],[18,-6],[12,-12],[9,-4],[8,-10],[3,-3],[10,2],[21,12],[12,1],[69,-22],[50,-27],[8,-9],[14,-28],[6,-6],[-1,-4],[-7,2],[-6,6],[-6,6],[-4,7],[-14,16],[-34,13],[-14,14],[-16,10],[-27,5],[-25,-1],[-11,-9]],[[2170,2490],[7,-3],[5,-7],[-2,-3],[-6,-2],[-50,0],[-11,-2],[-4,-8],[3,-19],[-10,3],[-5,3],[-2,6],[1,8],[1,5],[0,5],[-5,4],[-7,-2],[-15,-25],[-8,-7],[-2,-6],[-3,-14],[-2,-30],[-4,-12],[-8,-9],[-9,-6],[-6,0],[4,4],[4,6],[3,8],[1,9],[0,21],[1,5],[3,8],[1,4],[-5,23],[-12,-4],[-13,-14],[-10,-7],[-3,4],[-8,16],[-4,6],[-7,2],[-4,-8],[-3,-10],[-5,-5],[-6,-10],[-4,-20],[-6,-21],[-10,-8],[11,53],[7,15],[-4,13],[8,10],[21,11],[42,0],[8,9],[-9,0],[-26,10],[11,6],[30,3],[16,13],[7,-4],[17,-19],[19,-12],[16,-3],[3,2],[2,3],[4,9],[2,2],[5,3],[6,1],[6,-1],[10,-13],[7,-1],[6,2]],[[955,3947],[15,-8],[-32,0],[-17,-5],[-1,-15],[-11,-2],[-7,8],[-5,12],[-7,11],[-3,2],[-5,1],[-2,2],[-2,4],[1,7],[-2,4],[-15,14],[-22,8],[-7,8],[2,17],[6,10],[9,8],[11,2],[9,-4],[-8,-6],[8,-6],[11,-1],[20,3],[4,1],[7,7],[4,2],[12,-6],[4,0],[15,-16],[5,-7],[-4,-3],[-12,-6],[-4,-1],[-5,1],[-10,9],[-23,13],[-12,1],[-12,-5],[2,-3],[2,-3],[3,-8],[-13,5],[-4,0],[7,-17],[13,-15],[27,-17],[48,-6]],[[540,3120],[-9,-7],[-1,-6],[3,-11],[-15,0],[-6,3],[1,7],[-4,4],[-5,1],[-5,-1],[-4,-4],[10,-15],[-1,-12],[-6,-5],[-10,8],[4,1],[2,4],[3,4],[1,5],[-9,5],[-6,-3],[-12,-11],[-8,-2],[-4,3],[-11,13],[4,-3],[2,0],[4,3],[-2,2],[-4,6],[-1,2],[1,3],[2,4],[0,4],[1,3],[-7,0],[4,10],[14,13],[6,8],[7,7],[29,5],[-7,-7],[-7,-6],[-16,-6],[2,-4],[-1,-3],[-1,-3],[0,-4],[17,10],[36,10],[17,13],[5,-6],[3,-7],[4,-3],[6,7],[-8,20],[-3,4],[-5,-2],[-5,-5],[-6,-4],[-5,4],[4,6],[10,10],[11,3],[7,-12],[7,-24],[-2,-9],[-4,-4],[-9,-6],[-18,-20]],[[2486,3385],[18,-30],[6,-16],[-6,-7],[-4,3],[-11,16],[-5,5],[-23,8],[-7,7],[8,14],[7,10],[6,1],[9,-11],[2,0]],[[2751,3684],[10,-26],[1,-6],[-6,-7],[-7,-4],[-5,-5],[2,-10],[-18,-2],[-21,13],[-20,23],[-11,29],[27,-13],[14,-2],[2,15],[3,1],[11,1],[3,2],[1,6],[-3,5],[-4,3],[-12,4],[-7,7],[-13,18],[17,-3],[17,-11],[14,-18],[5,-20]],[[2854,996],[0,-1],[-1,0],[1,1]],[[2885,1008],[2,-9],[1,-8],[-5,-7],[-12,-11],[-4,-1],[-3,1],[-3,2],[-3,3],[1,2],[-2,6],[-2,6],[-1,4],[3,6],[5,8],[6,7],[6,4],[9,2],[2,-6],[0,-9]],[[3889,992],[8,-9],[5,-10],[-7,-5],[-8,4],[-7,7],[-8,4],[-8,-5],[-1,-10],[-8,0],[-9,2],[-7,-2],[-3,-9],[-3,-13],[-4,-9],[-6,5],[-10,15],[-1,8],[7,3],[10,10],[7,5],[3,3],[2,6],[-9,14],[-3,6],[-1,6],[-1,14],[-2,6],[-4,3],[-6,2],[-6,3],[-5,15],[-7,3],[-13,0],[2,-9],[-2,-3],[-5,1],[-9,6],[-4,-1],[-3,-2],[-4,-1],[-15,0],[-3,-2],[-5,-3],[-4,-2],[-3,2],[-1,5],[2,4],[4,4],[2,1],[8,2],[9,7],[13,2],[18,9],[8,1],[6,-3],[6,-4],[8,-4],[14,3],[24,21],[11,0],[6,-9],[8,-7],[16,-8],[-12,1],[-5,-2],[-5,-4],[4,-2],[4,-3],[3,-4],[4,-5],[-4,-3],[-10,-4],[-4,-3],[-3,-5],[-1,-3],[2,-2],[21,-40],[4,-3]],[[3848,1050],[8,7],[8,-2],[-3,7],[-8,4],[-1,13],[-15,-8],[-9,-6],[-4,-8],[2,-9],[5,-11],[6,-11],[4,-5],[2,17],[5,12]],[[1623,720],[2,-2],[11,-5],[-60,-50],[-13,-7],[-7,4],[3,22],[9,22],[11,17],[11,7],[6,2],[11,7],[6,0],[4,-2],[3,-3],[2,-5],[1,-7]],[[1825,393],[1,-10],[0,-10],[-4,-10],[-10,-2],[-17,5],[-4,13],[-7,5],[-8,2],[-8,4],[0,5],[16,4],[8,5],[0,8],[-2,6],[2,4],[3,0],[8,-11],[4,-1],[4,1],[4,-1],[7,-8],[3,-9]],[[1017,1377],[3,-13],[7,-11],[-2,-3],[-1,0],[-4,3],[-8,1],[-10,4],[-9,6],[-4,6],[-2,13],[-7,15],[-7,12],[-6,6],[8,3],[19,-15],[11,-3],[0,-3],[-1,-1],[-1,0],[-1,0],[11,-8],[4,-12]],[[3331,1717],[-4,3],[-17,-6],[-8,5],[-10,9],[-10,4],[-16,-13],[-9,-5],[-6,-7],[4,-12],[-11,0],[-5,-2],[-4,-7],[11,-18],[4,-11],[0,-15],[-3,3],[-3,4],[-5,10],[-4,3],[-12,1],[-5,3],[-1,13],[-12,-2],[-25,-8],[-5,4],[-6,2],[-21,3],[-15,6],[-7,2],[-4,2],[-14,10],[-10,11],[-7,3],[-14,2],[-3,2],[-2,7],[-2,1],[-4,0],[-2,-2],[-6,-5],[-6,-3],[-16,4],[18,13],[35,36],[8,13],[3,16],[18,-8],[21,5],[20,15],[15,19],[17,28],[4,14],[10,57],[2,-7],[0,-7],[0,-14],[5,-18],[7,-16],[9,-8],[18,7],[6,-4],[6,-7],[6,-3],[14,-1],[6,-4],[3,-9],[-2,0],[-5,-1],[-3,1],[4,-12],[6,-7],[8,-2],[6,4],[16,26],[5,5],[0,-11],[2,-6],[4,-2],[6,0],[3,-4],[0,-9],[-2,-10],[-3,-6],[-2,6],[-3,5],[-4,3],[-3,0],[-3,-3],[0,-3],[2,-5],[3,-17],[8,-21],[2,-11],[2,-14],[3,-8],[5,-8],[5,-11],[3,-11],[1,-13],[3,-12],[6,-7],[-7,-6],[-5,9],[-5,26],[-3,5],[-9,12]],[[1137,3135],[-5,-11],[-2,-5],[3,-3],[9,-5],[-1,10],[4,7],[5,4],[7,3],[2,5],[-31,32],[-6,4],[-6,-13],[2,-14],[8,-11],[11,-3]],[[125,3137],[-10,-10],[-71,-11],[-7,-4],[-13,-9],[-24,-4]],[[0,3070],[37,-3],[0,-5],[-37,0]],[[0,2970],[11,3],[6,9],[13,13],[4,5],[-1,-10],[-4,-5],[-2,-6],[2,-8],[4,4],[3,-2],[1,-7],[0,-10],[2,0],[-1,8],[1,3],[2,2],[12,14],[3,7],[6,-11],[4,-13],[5,5],[4,1],[9,-1],[2,2],[4,13],[4,4],[-5,4],[-2,2],[-3,-1],[0,5],[30,25],[12,20],[-5,22],[1,3],[2,7],[-6,4],[-2,1],[2,1],[2,2],[1,1],[3,1],[-2,8],[-1,8],[3,6],[10,4],[2,6],[1,7],[3,7],[8,8],[9,7],[7,9],[2,16],[-13,3],[-11,-8],[-9,-14],[-8,-17]],[[1207,3113],[2,-7],[5,-1],[6,3],[4,3],[5,9],[-13,1],[-6,-2],[-3,-6]],[[1494,3281],[-4,0],[-3,-4],[-1,-4],[0,-5],[-2,-4],[-5,-4],[-18,-4],[-2,-5],[7,-13],[4,-5],[4,0],[4,14],[5,5],[23,7],[5,5],[1,3],[-3,4],[-15,10]],[[2191,3205],[-1,2],[-1,4],[-3,5],[-7,6],[-7,2],[-4,1],[-10,-1],[-1,-3],[7,-12],[3,-3],[3,-1],[3,-3],[1,-3],[4,-6],[8,-7],[5,1],[2,9],[0,4],[-1,2],[-1,3]],[[2262,3175],[-11,3],[-22,21],[-4,5],[-3,3],[-3,-2],[-3,1],[-2,7],[-2,0],[-2,-4],[-5,0],[-4,3],[-1,-1],[1,-4],[1,-5],[-2,-5],[1,-8],[2,-9],[7,-7],[20,-16],[8,-3],[4,-1],[5,0],[8,-2],[2,2],[0,6],[1,5],[5,3],[2,2],[-2,4],[-1,2]],[[167,3045],[-3,6],[-5,4],[-7,0],[-9,-4],[-5,-4],[-2,-2],[-3,-7],[-3,-6],[-4,-4],[0,-3],[6,-1],[3,1],[10,-1],[6,3],[5,4],[2,-1],[-1,-2],[2,-2],[4,1],[3,3],[3,5],[-1,6],[-1,4]],[[1646,2997],[-1,4],[-4,7],[-4,6],[-3,7],[-4,8],[-5,8],[-5,0],[-2,-5],[7,-23],[0,-9],[2,-2],[3,-13],[3,-5],[4,-3],[4,0],[5,3],[2,6],[0,8],[-2,3]],[[141,3015],[-9,-4],[-3,-5],[3,-2],[5,0],[3,-3],[0,-3],[-10,-2],[-2,-9],[3,-12],[5,-3],[2,3],[2,6],[3,10],[3,3],[2,0],[2,3],[2,5],[1,6],[2,5],[-3,3],[-11,-1]],[[1961,2975],[-6,2],[-10,9],[-8,3],[-4,-7],[0,-8],[-2,-7],[0,-7],[6,-5],[20,9],[6,0],[0,6],[-2,5]],[[2655,2964],[-2,1],[-27,18],[-16,4],[-4,-2],[15,-10],[7,-3],[4,-4],[2,-3],[19,-15],[2,2],[2,4],[1,1],[-1,3],[-2,4]],[[515,2949],[-8,2],[-8,-3],[-6,-7],[-2,-6],[1,-1],[2,1],[5,-5],[6,1],[3,1],[0,1],[0,2],[5,0],[4,4],[0,6],[1,1],[-3,3]],[[734,2685],[-6,-1],[-4,-13],[0,-13],[10,-11],[10,3],[2,7],[-7,18],[-5,10]],[[315,2285],[-8,7],[-8,0],[-16,-4],[-25,8],[-14,1],[-8,-1],[-6,-3],[-5,-5],[-1,-8],[2,-4],[10,-29],[5,-4],[4,0],[14,3],[1,3],[1,3],[2,1],[8,-1],[12,-8],[8,0],[11,8],[4,1],[4,-1],[4,-3],[4,-1],[4,3],[3,11],[-1,8],[-9,15]],[[321,1970],[-3,4],[-6,9],[-3,6],[-1,6],[1,6],[0,7],[-2,7],[-5,6],[-15,9],[-33,10],[-8,1],[-8,-4],[-7,-10],[-1,-5],[-3,-15],[-1,-3],[-5,-3],[-11,4],[-5,-4],[-1,-15],[8,-9],[19,-7],[33,-32],[4,0],[10,6],[5,2],[13,-1],[7,-2],[5,-5],[6,-2],[3,5],[3,6],[8,5],[-1,6],[-6,12]],[[526,1642],[9,-10],[12,6],[7,15],[-3,17],[-11,3],[-10,-4],[-6,-10],[2,-17]],[[0,2051],[1,-1],[19,-5],[20,2],[16,9],[10,15],[12,41],[8,17],[6,6],[9,6],[9,5],[6,-1],[3,-7],[-6,-6],[-8,-6],[-4,-7],[5,-8],[9,-4],[11,1],[6,4],[4,4],[3,0],[2,2],[0,8],[0,7],[-2,3],[-2,2],[-3,0],[4,9],[6,2],[6,0],[6,3],[5,-4],[2,3],[1,4],[2,3],[4,-1],[4,-2],[15,-10],[5,1],[3,7],[-1,14],[-1,1],[-3,0],[-2,1],[-1,5],[0,8],[0,4],[-1,3],[-3,4],[-5,6],[-2,4],[-3,4],[-8,6],[-3,7],[-1,6],[2,11],[-1,7],[-6,10],[-35,17],[-37,-3],[-6,5],[-7,9],[-3,12],[8,20],[-6,6],[-11,4],[-10,2],[-15,2],[-4,-2],[-3,-6],[-1,-6],[0,-6],[-1,-6],[-5,-10],[-6,-6],[-6,-3],[-8,0],[-2,-2]],[[266,1917],[-15,4],[-15,8],[-5,5],[-3,4],[-5,15],[-8,10],[-20,10],[-17,12],[-16,6],[-8,5],[-8,2],[-20,-5],[-13,7],[-7,-6],[-12,-15],[-8,-4],[-6,3],[-6,4],[-8,2],[-2,-1],[-6,-7],[-4,-2],[-3,2],[-4,6],[-2,2],[-4,4],[-7,16],[-4,4],[-12,-3],[-18,-15]],[[0,1719],[2,0],[1,1],[1,2],[2,2],[4,12],[3,5],[5,-5],[4,-7],[2,-2],[2,3],[5,6],[6,3],[7,1],[7,-2],[5,-4],[6,-16],[19,3],[12,11],[-16,11],[4,9],[7,3],[17,-2],[8,1],[5,4],[11,14],[6,4],[6,2],[6,3],[24,34],[-8,9],[3,6],[8,0],[16,-13],[8,6],[7,10],[9,7],[-1,3],[-1,4],[0,5],[-1,4],[2,8],[3,1],[3,-1],[3,0],[5,4],[3,3],[2,5],[2,4],[2,10],[0,2],[2,4],[1,2],[6,0],[3,-2],[3,-5],[1,-5],[1,-3],[8,-8],[7,-4],[15,-2],[-2,7],[-4,3],[-4,3],[-4,1],[8,6],[23,-16],[3,10],[-5,11],[-11,11],[-12,9],[-9,3]],[[277,1431],[-8,7],[-5,0],[-2,-4],[0,-6],[-1,-6],[5,-6],[7,-5],[7,1],[2,9],[-1,6],[-4,4]],[[0,2874],[2,1],[3,4],[-1,1],[-4,1]],[[524,4022],[-6,-4],[-7,-1],[-18,-2],[-9,2],[-4,0],[-3,-3]],[[1572,3317],[95,57],[20,6],[11,2],[14,0],[15,-3]],[[470,3941],[-2,6],[1,9],[7,24],[0,4],[1,7],[0,23]],[[470,3960],[0,-34],[6,-30],[8,-29],[21,-45],[6,-10],[6,-7],[21,-15],[130,-77],[26,-23],[33,-41],[14,-22],[3,-5],[4,-10],[11,-38],[2,-3],[3,-7],[78,-119],[6,-9],[4,-11],[4,-11],[1,-7],[1,-8],[0,-3],[0,-10],[0,-7],[0,-6],[-2,-13],[-17,-78],[-1,-13],[0,-12],[0,-14],[1,-7],[2,-6],[2,-7],[2,-6],[5,-11]],[[746,3147],[-8,20],[-1,2],[-2,2],[-15,12],[-18,9],[-19,5],[-19,2],[-19,-2],[-18,-5],[-36,-17],[-9,-2],[-10,0],[-16,7],[-54,47],[-8,4],[-9,3],[-130,6],[-142,42],[-213,-23]],[[1050,3199],[26,16],[117,39],[13,7],[16,11],[7,8],[10,14],[2,4],[7,13],[3,6],[5,3]],[[971,3216],[8,54],[2,18],[1,7],[2,12],[2,6],[2,6],[8,22],[10,21],[11,18],[54,75],[42,70],[35,68],[24,54],[12,30],[0,1],[108,144],[11,22],[2,5],[1,7],[2,14]],[[1015,1026],[-184,-68]],[[831,958],[-49,-18],[-18,-10],[-63,-54],[-16,-8]],[[1465,1214],[-34,-29],[-7,-3],[-50,-6],[-148,-62],[-39,-25],[-172,-63]],[[641,746],[-6,-6],[-2,-2],[-5,-2],[-5,-2],[-5,-1],[-14,1]],[[604,734],[-52,25]],[[696,841],[1,-6],[1,-7],[0,-6],[0,-7],[-1,-7],[-1,-6],[-2,-6],[-2,-5],[-4,-10],[-5,-8],[-6,-6],[-36,-21]],[[637,746],[3,-18],[1,-18],[0,-19],[-1,-19],[-13,-62],[-15,-58],[-5,-18],[-2,-6],[-1,-14],[0,-13],[1,-13],[3,-13],[3,-13],[4,-11],[9,-22],[12,-20],[22,-33],[26,-29],[11,-19],[10,-22],[7,-26],[3,-14],[2,-15],[1,-5],[0,-5],[0,-4],[0,-5],[-2,-9],[-4,-8],[-14,-23],[-11,-20],[-6,-16],[-3,-12],[-3,-12],[-4,-26],[-1,-13],[-2,-62],[0,-7],[-1,-6],[-1,-6],[-2,-6],[-2,-6]],[[676,14],[4,-11],[1,-3]],[[557,755],[-23,-30],[-35,-57],[-8,-17],[-6,-9],[-12,-13],[-4,-6],[-2,-2],[-7,-5]],[[595,4096],[-47,-56],[-13,-12],[-11,-6]],[[2669,215],[-23,28],[-363,351],[-11,16],[-10,18],[-5,10],[-2,5],[-3,12],[-1,6],[-1,7],[-1,6],[-1,13],[1,26],[4,57],[0,14],[-1,14],[-1,15],[-4,27],[-5,24],[-13,47],[-80,204]],[[744,3143],[17,17],[51,31],[55,24],[60,16],[49,0],[41,-10],[21,-12],[8,-8],[3,-1],[2,0]],[[2154,1425],[0,-6]],[[2154,1419],[-13,-118],[-1,-12],[1,-13],[10,-122],[-1,-7],[0,-7],[-2,-6],[-1,-6]],[[2159,1466],[-5,-41]],[[2140,1450],[-31,-22]],[[2109,1428],[-88,-62],[-14,-6],[-7,-2],[-7,1],[-45,10],[-7,0],[-16,-2],[-27,-12],[-93,-17],[-6,-2],[-33,-24],[-38,-18],[-106,-34]],[[2156,1461],[-16,-11]],[[1622,1260],[-157,-46]],[[2781,2810],[-28,-21]],[[2907,2880],[-8,-11],[-3,-4],[-7,-6],[-7,-4],[-7,-3],[-42,-9],[-12,-5]],[[2753,2789],[-22,-16],[-107,-46],[-170,-44],[-28,-12],[-149,-95],[-45,-14],[-116,7],[-28,-6],[-90,-35],[-28,-5],[-39,0],[-95,14],[-4,-1],[-23,-10],[-8,-3],[-8,1],[-8,4]],[[2821,2838],[-1,0],[-39,-28]],[[1261,2591],[-2,0],[-63,-1],[-57,8]],[[915,2591],[-23,4],[-30,0],[-20,-5],[-2,-2],[-10,-6],[-7,-5]],[[1139,2598],[-6,0],[-147,-21],[-71,14]],[[1783,2524],[-30,29],[-33,4],[-67,-10],[-16,0],[-31,8],[-39,19],[-9,2],[-8,0],[-9,-2],[-8,-4],[-52,-42],[-8,-5],[-8,-2],[-8,-1],[-8,1],[-8,3],[-44,29],[-117,35],[-19,3]],[[823,2577],[-28,-35]],[[795,2542],[-21,-27],[-22,-35],[-10,-18],[-4,-10],[-4,-11],[-2,-5],[-1,-4],[-25,-264],[-1,-54],[0,-29],[1,-13],[2,-7],[1,-5],[13,-24],[7,-16],[3,-5],[1,-7],[0,-6],[-1,-13],[0,-6],[1,-6],[1,-6],[13,-35],[1,-6],[0,-7],[0,-11],[-3,-10],[-11,-27],[-4,-11],[-2,-11],[-1,-12],[0,-3],[24,-19],[4,-4],[4,-6],[4,-7],[2,-8],[1,-10],[-1,-9],[-3,-9],[-3,-8],[-5,-11],[-22,-32],[-2,-3],[-1,-3],[-1,-4],[-1,-5],[-1,-4],[0,-4],[0,-15],[0,-14],[4,-40],[0,-13],[0,-13],[-2,-12],[-1,-3],[-2,-5],[-2,-4],[-2,-4],[-2,-4],[-1,-1],[-5,-11],[-23,-66]],[[690,1487],[-8,-27],[-4,-13],[-2,-15],[0,-7],[-1,-7],[0,-8],[1,-7],[1,-6],[7,-43],[2,-13],[0,-13],[-1,-3],[0,-3],[-1,-2],[0,-3],[-1,-2],[-1,-2],[-1,-2],[1,-1],[12,-22],[4,-9],[4,-9],[2,-11],[2,-12],[0,-17],[0,-17],[-5,-53],[0,-19],[0,-17],[4,-39],[0,-11],[-1,-11],[-4,-15],[-40,-114],[-1,-3],[0,-1],[-1,-1],[0,-5],[0,-3],[0,-3],[1,-7],[1,-6],[3,-5],[27,-44],[3,-7],[3,-8]],[[1253,3317],[15,-1],[88,-23],[195,17],[21,7]],[[1727,3379],[129,-23],[28,2],[73,26],[88,14]],[[3216,1977],[-58,-56],[-1,-2]],[[3157,1919],[-56,-75],[-50,-57],[-41,-39],[-53,-42],[-108,-60],[-690,-197]],[[3236,2000],[-12,-15],[-8,-8]],[[460,616],[-13,-12],[-3,-4],[-1,-6],[-2,-6],[-1,-6],[-9,-124],[-2,-13],[-2,-13],[-12,-46]],[[415,386],[-2,-14],[-3,-13],[-8,-24],[-80,-185],[-8,-15],[-9,-13]],[[305,122],[-15,-18],[-15,-13],[-44,-27],[-6,-4],[-5,-6],[-4,-5],[-3,-6],[-17,-43]],[[2147,1128],[-6,-14],[-6,-11],[-38,-55],[-61,-119],[-21,-55],[-2,-5],[-5,-9],[-7,-8],[-9,-11],[-39,-59],[-7,-8],[-8,-4]],[[1940,766],[-15,-22],[-23,-27],[-25,-23],[-8,-9],[-24,-36],[-46,-54],[-34,-50]],[[1764,544],[-26,-70],[-25,-51],[-55,-86],[-11,-20],[-4,-5],[-3,-4],[-4,-4],[-4,-3],[-23,-12],[-8,-6],[-28,-30],[-14,-18],[-8,-12],[-3,-5],[-4,-10],[-10,-40],[-2,-5],[-2,-5],[-2,-5],[-2,-3],[-3,-3],[-107,-99]],[[1419,54],[-2,-5],[-2,-5],[-10,-29],[-3,-6],[-2,-4],[-3,-4],[-2,-1]],[[1783,2523],[-6,-23],[-5,-37],[-6,-32],[-1,-6],[0,-6],[1,-6],[1,-3],[1,-3],[5,-7],[1,-2],[1,-6],[-2,-5],[-6,-8],[-1,-3],[-4,-16],[-4,-17],[-2,-5],[-3,-6],[-11,-21],[-3,-5],[-14,-15],[-42,-35],[-28,-16],[-32,-28],[-6,-7],[-6,-9],[-4,-10],[-4,-11],[-1,-14],[0,-12],[2,-13],[1,-13],[-2,-12],[-5,-12],[-6,-8],[-14,-15],[-6,-9],[-4,-12],[-4,-12],[-4,-27],[-4,-25],[0,-13],[-1,-15],[1,-14],[0,-3],[1,-2],[7,-33],[1,-6],[0,-4],[0,-3],[-1,-6],[0,-3],[-1,-3],[-1,-3],[-2,-2],[-2,-4],[-19,-24],[-2,-4],[-3,-5],[-1,-2]],[[1532,1845],[1,-3],[1,-2],[0,-3],[1,-3],[0,-4],[-1,-3],[-2,-9],[-7,-22],[-1,-6],[0,-6],[0,-6],[2,-6],[1,-6],[4,-11]],[[1531,1755],[2,-6],[1,-6],[1,-6],[0,-6],[0,-7],[-1,-21],[0,-17],[0,-2],[9,-71],[2,-11],[3,-11],[9,-26],[1,-6],[2,-13],[1,-6],[4,-12],[5,-9],[13,-14],[6,-5],[67,-36],[2,-2],[6,-8],[15,-28],[6,-9],[6,-5],[8,-4],[28,-10],[13,-7],[3,-2],[4,-2],[2,-4],[3,-4],[2,-6],[1,-5],[1,-7],[2,-27],[1,-4],[1,-4],[2,-8]],[[1308,3870],[0,22],[-4,20],[-5,18],[-21,50],[-5,17],[-4,20],[0,11],[0,11],[1,11],[1,10],[2,9],[9,27]],[[188,3571],[7,9],[9,8],[9,6],[6,3]],[[0,3400],[33,43],[8,7],[54,35],[6,5],[9,10],[6,9],[3,4],[7,5],[30,18],[8,7],[24,28]],[[219,3597],[88,38],[27,18],[13,13],[6,7],[5,9],[11,19],[12,33],[5,9],[6,6],[7,4],[21,7],[6,4],[5,7],[5,9],[3,9],[3,11],[6,38],[7,62],[2,17],[4,16],[6,12]],[[1764,544],[117,-8],[69,-21],[13,-6],[16,-10],[35,-31],[13,-8],[3,-1],[1,-1],[0,-1],[0,-4],[1,-5],[1,-4],[1,-4],[3,-6],[3,-5],[3,-4],[4,-3],[11,-3],[10,0],[55,19],[5,0],[4,-1],[81,4],[169,-48],[60,-4],[170,36],[144,-23],[88,-33],[13,-3],[21,1],[4,1],[3,2],[33,26],[7,4],[7,1],[7,0],[7,-1],[43,-16],[26,-4],[32,2],[120,37],[56,-1],[115,-31],[241,-20]],[[1217,507],[75,36],[9,1],[18,-2],[4,-2],[3,-3],[5,-7],[3,-2],[3,-2],[2,0],[2,2],[7,8],[3,3],[1,1],[2,1],[3,1],[11,1],[10,-1],[50,-10],[9,0],[9,1],[10,4],[54,35],[19,9],[20,4],[21,0],[19,-4],[117,-52],[13,-3],[13,0],[13,3],[5,2],[4,3],[4,4],[4,5]],[[631,786],[-41,32]],[[1323,441],[-6,9],[-10,25],[-6,9],[-4,4],[-5,3],[-18,5],[-66,37],[-3,3],[-3,3],[-3,5],[-2,5],[-2,8],[-1,10],[-1,33],[-2,2],[-9,1],[-11,0],[-53,-14],[-9,1],[-4,3],[-4,3],[-4,4],[-3,6],[-6,10],[-3,5],[-3,3],[-8,3],[-8,0],[-8,-2],[-8,-5],[-32,-24],[-7,-4],[-4,-2],[-4,0],[-5,0],[-4,2],[-25,15],[-5,1],[-10,1],[-48,-7],[-4,1],[-4,2],[-3,3],[-4,4],[-3,5],[-17,37],[-7,10],[-8,8],[-9,4],[-18,4],[-9,5],[-8,8],[-13,20],[-8,7],[-4,3],[-20,6],[-21,14],[-69,28],[-34,7],[-7,4],[-5,4]],[[2045,3398],[13,5],[71,46],[71,30],[12,7],[3,3],[3,3],[13,20],[3,4],[7,5],[7,4],[7,3],[7,2],[14,-2],[14,-8],[13,-12],[42,-58],[5,-6],[6,-5],[40,-25]],[[2396,3414],[14,-9],[26,-27],[9,-13],[33,-63],[23,-31],[12,-13],[13,-10],[27,-12],[47,-12],[23,-9],[30,-20],[3,-3]],[[3810,3654],[0,6],[9,9],[9,6],[5,6],[0,2],[-6,12],[-15,12],[-3,8],[0,12],[4,12],[6,5],[11,9],[3,6],[4,20],[3,6],[11,9],[6,8],[19,12],[6,9],[3,17],[5,12],[8,8],[3,12],[3,11],[13,18],[0,3],[-4,14],[4,15],[-4,17],[4,12],[3,14],[8,12],[9,6],[22,17],[23,12],[9,11],[40,20],[8,6],[9,26],[0,10]],[[3810,3654],[3,0],[15,-8],[8,-9],[15,-6],[7,-8]],[[4046,3489],[17,6],[21,9],[3,3],[1,14],[3,12],[5,7]],[[3858,3623],[30,0],[7,-6],[3,-9],[6,-6],[7,-8],[5,-12],[18,-23],[6,-20],[9,-12],[9,-9],[21,-11],[15,-6],[15,-3],[19,0],[17,-3],[1,-6]],[[4046,3489],[-27,-5]],[[3854,3295],[1,6],[0,23],[5,12],[7,8],[20,27],[8,14],[16,20],[23,18],[12,14],[6,15],[10,14],[11,9],[10,6],[15,3],[21,0]],[[3834,3272],[6,12],[14,11]],[[2627,3107],[6,14],[14,18],[9,26],[3,6]],[[2659,3171],[3,-12],[9,-12],[13,-11],[12,-6],[11,-12],[12,-5],[16,-6],[12,-3],[26,-9],[16,-8],[12,-18],[8,-11]],[[3584,3029],[12,5],[18,6],[12,6],[18,17],[10,6],[26,26],[7,9],[29,17],[10,15],[5,8],[13,21],[15,17],[23,12],[13,11],[6,6],[12,29],[17,15],[4,17]],[[3584,3029],[-18,-15]],[[3566,3014],[-17,-12],[-12,-11],[-24,-17]],[[2852,2927],[-6,32],[-3,29],[-4,17],[-6,15],[-10,14]],[[2823,3034],[-8,12],[-6,12]],[[2833,2913],[15,5],[4,9]],[[2833,2913],[-2,14],[-10,23],[-12,12],[-11,3],[-24,9],[-6,1]],[[2725,2994],[-6,8],[-11,18],[-1,11],[1,6],[9,23],[-4,9],[-9,3],[-7,4]],[[2697,3076],[-28,16],[-16,9],[-26,6]],[[2768,2975],[-15,4],[-21,6],[-7,9]],[[3099,2910],[-14,3]],[[2975,2895],[49,9],[33,3],[19,3],[9,3]],[[2903,2881],[17,6],[9,1]],[[2929,2888],[46,7]],[[2833,2913],[-12,-9],[-8,-15],[-6,-14]],[[3099,2910],[1,-23],[-6,-12]],[[3099,2910],[3,6],[16,-18],[11,-6],[13,-3],[12,0],[30,3],[14,3],[4,0],[15,-11],[15,-9],[15,0],[21,3],[24,11],[14,15],[16,12],[29,8],[9,0],[27,-3],[27,6],[18,9],[26,9],[49,26],[6,3]],[[2848,2843],[0,35],[1,20],[5,23],[-2,6]],[[2848,2843],[-11,9],[-30,23]],[[2892,2806],[-29,26],[-15,11]],[[2908,2791],[-16,15]],[[2779,2777],[-8,2],[-9,0]],[[2830,2768],[-32,3],[-19,6]],[[2933,2765],[-25,26]],[[2879,2761],[-1,0]],[[2878,2761],[-18,-2],[-8,0],[-22,9]],[[2933,2765],[-12,-3],[-33,0],[-9,-1]],[[3584,3029],[4,-18],[12,-11],[23,-9],[25,-12],[11,0],[22,15],[6,-3],[12,-9],[15,0],[6,-6],[5,-17],[9,-17],[0,-15],[7,-6],[8,-11],[6,-15],[10,-6],[18,-17],[14,-20],[10,-12],[11,-17],[7,-26],[6,-23],[26,-21],[13,-6],[9,-2],[11,2],[24,3],[15,3],[18,0],[29,-14],[19,-6],[14,-12]],[[3006,2695],[-3,3],[-15,15],[-28,23],[-19,20],[-8,9]],[[4012,2721],[10,-5],[12,0],[23,-9],[28,-23],[11,-12]],[[3042,2640],[-23,26],[-9,18],[-4,11]],[[2732,2634],[-1,0]],[[3174,2510],[-20,29],[-7,9],[-29,20],[-15,9],[-10,8],[-24,23],[-27,32]],[[3283,2385],[-12,12],[-7,9],[-15,11],[-21,29],[-18,17],[-36,47]],[[3324,2342],[-5,11],[-21,21],[-15,11]],[[3289,2208],[3,24],[-4,26],[1,11],[15,29],[6,15],[11,17],[3,12]],[[2681,2075],[-1,-11]],[[3238,2052],[18,46],[3,12],[11,26],[12,41],[7,31]],[[3237,2043],[1,9]],[[3198,1945],[10,26],[11,22]],[[3219,1993],[6,13],[12,37]],[[3206,1940],[-8,5]],[[3319,1901],[-27,32],[-7,3],[-32,3],[-21,-3],[-13,0],[-12,3],[-1,1]],[[3400,1846],[-28,9],[-17,9],[-16,11],[-11,12],[-9,14]],[[3461,1829],[-32,6],[-29,11]],[[3645,1742],[-18,12],[-13,5],[-44,32],[-24,9],[-16,11],[-14,9],[-33,3],[-22,6]],[[2966,1727],[3,0],[19,-14],[6,-3]],[[3807,1588],[-15,12],[-13,17],[-14,15],[-24,20],[-9,9],[-13,8],[-9,9],[-29,32],[-12,12],[-24,20]],[[2600,1528],[-1,5],[4,3]],[[3905,1544],[-4,4],[-13,8],[-27,12],[-12,3],[-20,7]],[[3932,1525],[-13,5],[-8,8]],[[3829,1578],[-4,2],[-18,8]],[[3911,1538],[-6,6]],[[3989,1511],[-12,2],[-28,6],[-17,6]],[[4096,1460],[-6,7],[-9,11],[-21,12],[-8,9],[-9,5],[-16,3],[-17,0],[-21,4]],[[3339,383],[10,-3],[21,0],[35,3],[18,6],[18,0],[14,-9],[22,-9],[33,-8]],[[3510,363],[33,-3],[62,8],[25,-5],[50,-18],[33,-3],[22,0]],[[3735,342],[32,-3],[19,3],[63,3],[15,0],[18,0],[32,3],[15,0],[77,-17]],[[4006,331],[15,0],[30,-9],[45,-6]],[[2699,171],[-7,12],[-9,6]],[[2720,157],[-18,9],[-3,5]],[[2720,157],[11,-6]],[[2731,12],[-17,23],[-4,12],[3,6],[9,14],[3,6],[1,11],[-4,15],[3,49],[-5,9]],[[2735,151],[11,-6],[15,-17],[13,-6],[18,-6],[27,-14],[15,-12],[17,-8],[18,-15],[16,-9],[17,-17],[22,-26],[16,-15]],[[2736,0],[-2,6],[-3,6]],[[2842,3055],[17,0]],[[2913,2958],[4,-11],[12,-39]],[[2957,2825],[0,-2],[3,-38],[-8,-6]],[[2711,3004],[6,4],[15,6]],[[2648,2953],[9,18],[54,33]],[[2732,3014],[45,17],[24,24],[41,0]],[[2859,3055],[2,0],[32,-47],[20,-50]],[[2952,2779],[-23,-17]],[[2929,2908],[12,-39],[16,-44]],[[2753,2791]],[[2753,2791],[-40,17],[-24,15],[-24,0],[-24,23],[-8,38],[8,23],[7,46]],[[280,1412],[-7,-1],[-7,5],[-5,6],[1,6],[0,6],[2,4],[5,0],[8,-7],[4,-4],[1,-6],[-2,-9]],[[547,1638],[-12,-6],[-9,10],[-2,17],[6,10],[10,4],[11,-3],[3,-17],[-7,-15]],[[51,1976],[3,-2],[4,2],[6,7],[2,1],[8,-2],[6,-4],[6,-3],[8,4],[12,15],[7,6],[13,-7],[20,5],[8,-2],[8,-5],[16,-6],[17,-12],[20,-10],[8,-10],[5,-15],[3,-4],[5,-5],[15,-8],[15,-4],[9,-3],[12,-9],[11,-11],[5,-11],[-3,-10],[-23,16],[-8,-6],[4,-1],[4,-3],[4,-3],[2,-7],[-15,2],[-7,4],[-8,8],[-1,3],[-1,5],[-3,5],[-3,2],[-6,0],[-1,-2],[-2,-4],[0,-2],[-2,-10],[-2,-4],[-2,-5],[-3,-3],[-5,-4],[-3,0],[-3,1],[-3,-1],[-2,-8],[1,-4],[0,-5],[1,-4],[1,-3],[-9,-7],[-7,-10],[-8,-6],[-16,13],[-8,0],[-3,-6],[8,-9],[-24,-34],[-6,-3],[-6,-2],[-6,-4],[-11,-14],[-5,-4],[-8,-1],[-17,2],[-7,-3],[-4,-9],[16,-11],[-12,-11],[-19,-3],[-6,16],[-5,4],[-7,2],[-7,-1],[-6,-3],[-5,-6],[-2,-3],[-2,2],[-4,7],[-5,5],[-3,-5],[-4,-12],[-2,-2],[-1,-2],[-1,-1],[-2,0],[0,271],[18,15],[12,3],[4,-4],[7,-16],[4,-4],[2,-2],[4,-6]],[[309,2001],[-1,-6],[1,-6],[3,-6],[6,-9],[3,-4],[6,-12],[1,-6],[-8,-5],[-3,-6],[-3,-5],[-6,2],[-5,5],[-7,2],[-13,1],[-5,-2],[-10,-6],[-4,0],[-33,32],[-19,7],[-8,9],[1,15],[5,4],[11,-4],[5,3],[1,3],[3,15],[1,5],[7,10],[8,4],[8,-1],[33,-10],[15,-9],[5,-6],[2,-7],[0,-7]],[[80,2273],[6,-5],[37,3],[35,-17],[6,-10],[1,-7],[-2,-11],[1,-6],[3,-7],[8,-6],[3,-4],[2,-4],[5,-6],[3,-4],[1,-3],[0,-4],[0,-8],[1,-5],[2,-1],[3,0],[1,-1],[1,-14],[-3,-7],[-5,-1],[-15,10],[-4,2],[-4,1],[-2,-3],[-1,-4],[-2,-3],[-5,4],[-6,-3],[-6,0],[-6,-2],[-4,-9],[3,0],[2,-2],[2,-3],[0,-7],[0,-8],[-2,-2],[-3,0],[-4,-4],[-6,-4],[-11,-1],[-9,4],[-5,8],[4,7],[8,6],[6,6],[-3,7],[-6,1],[-9,-5],[-9,-6],[-6,-6],[-8,-17],[-12,-41],[-10,-15],[-16,-9],[-20,-2],[-19,5],[-1,1],[0,230],[2,2],[8,0],[6,3],[6,6],[5,10],[1,6],[0,6],[1,6],[3,6],[4,2],[15,-2],[10,-2],[11,-4],[6,-6],[-8,-20],[3,-12],[7,-9]],[[258,2296],[25,-8],[16,4],[8,0],[8,-7],[9,-15],[1,-8],[-3,-11],[-4,-3],[-4,1],[-4,3],[-4,1],[-4,-1],[-11,-8],[-8,0],[-12,8],[-8,1],[-2,-1],[-1,-3],[-1,-3],[-14,-3],[-4,0],[-5,4],[-10,29],[-2,4],[1,8],[5,5],[6,3],[8,1],[14,-1]],[[744,2650],[-10,-3],[-10,11],[0,13],[4,13],[6,1],[5,-10],[7,-18],[-2,-7]],[[2234,3390],[-13,-17],[-9,2],[-5,10],[-2,12],[2,13],[5,9],[5,2],[6,0],[4,-5],[2,-7],[3,-8],[2,-11]],[[517,2939],[-4,-4],[-5,0],[0,-2],[0,-1],[-3,-1],[-6,-1],[-5,5],[-2,-1],[-1,1],[2,6],[6,7],[8,3],[8,-2],[3,-3],[-1,-1],[0,-6]],[[2655,2952],[-2,-2],[-19,15],[-2,3],[-4,4],[-7,3],[-15,10],[4,2],[16,-4],[27,-18],[2,-1],[2,-4],[1,-3],[-1,-1],[-2,-4]],[[1957,2964],[-20,-9],[-6,5],[0,7],[2,7],[0,8],[4,7],[8,-3],[10,-9],[6,-2],[2,-5],[0,-6],[-6,0]],[[138,2975],[-2,-3],[-5,3],[-3,12],[2,9],[10,2],[0,3],[-3,3],[-5,0],[-3,2],[3,5],[9,4],[11,1],[3,-3],[-2,-5],[-1,-6],[-2,-5],[-2,-3],[-2,0],[-3,-3],[-3,-10],[-2,-6]],[[169,3035],[-3,-5],[-3,-3],[-4,-1],[-2,2],[1,2],[-2,1],[-5,-4],[-6,-3],[-10,1],[-3,-1],[-6,1],[0,3],[4,4],[3,6],[3,7],[2,2],[5,4],[9,4],[7,0],[5,-4],[3,-6],[1,-4],[1,-6]],[[121,3103],[1,-8],[2,-8],[-3,-1],[-1,-1],[-2,-2],[-2,-1],[2,-1],[6,-4],[-2,-7],[-1,-3],[5,-22],[-12,-20],[-30,-25],[0,-5],[3,1],[2,-2],[5,-4],[-4,-4],[-4,-13],[-2,-2],[-9,1],[-4,-1],[-5,-5],[-4,13],[-6,11],[-3,-7],[-12,-14],[-2,-2],[-1,-3],[1,-8],[-2,0],[0,10],[-1,7],[-3,2],[-4,-4],[-2,8],[2,6],[4,5],[1,10],[-4,-5],[-13,-13],[-6,-9],[-11,-3],[0,92],[37,0],[0,5],[-37,3],[0,29],[24,4],[13,9],[7,4],[71,11],[10,10],[8,17],[9,14],[11,8],[13,-3],[-2,-16],[-7,-9],[-9,-7],[-8,-8],[-3,-7],[-1,-7],[-2,-6],[-10,-4],[-3,-6]],[[1646,2980],[-5,-3],[-4,0],[-4,3],[-3,5],[-3,13],[-2,2],[0,9],[-7,23],[2,5],[5,0],[5,-8],[4,-8],[3,-7],[4,-6],[4,-7],[1,-4],[2,-3],[0,-8],[-2,-6]],[[2191,3187],[-5,-1],[-8,7],[-4,6],[-1,3],[-3,3],[-3,1],[-3,3],[-7,12],[1,3],[10,1],[4,-1],[7,-2],[7,-6],[3,-5],[1,-4],[1,-2],[1,-3],[1,-2],[0,-4],[-2,-9]],[[1474,3233],[-4,0],[-4,5],[-7,13],[2,5],[18,4],[5,4],[2,4],[0,5],[1,4],[3,4],[4,0],[15,-10],[3,-4],[-1,-3],[-5,-5],[-23,-7],[-5,-5],[-4,-14]],[[1220,3108],[-6,-3],[-5,1],[-2,7],[3,6],[6,2],[13,-1],[-5,-9],[-4,-3]],[[1141,3121],[1,-10],[-9,5],[-3,3],[2,5],[5,11],[-11,3],[-8,11],[-2,14],[6,13],[6,-4],[31,-32],[-2,-5],[-7,-3],[-5,-4],[-4,-7]],[[2214,3213],[2,-7],[3,-1],[3,2],[3,-3],[4,-5],[22,-21],[11,-3],[1,-2],[2,-4],[-2,-2],[-5,-3],[-1,-5],[0,-6],[-2,-2],[-8,2],[-5,0],[-4,1],[-8,3],[-20,16],[-7,7],[-2,9],[-1,8],[2,5],[-1,5],[-1,4],[1,1],[4,-3],[5,0],[2,4],[2,0]],[[0,4096],[4096,0],[0,-4096],[-2289,0],[-1807,0],[0,1383],[10,3],[8,1],[4,1],[4,3],[5,2],[6,-1],[3,-2],[0,-1],[-2,-2],[-1,-5],[-4,-26],[-1,-29],[1,-14],[4,-11],[20,-31],[81,-73],[26,-34],[29,-27],[19,-12],[13,-3],[4,-2],[2,-5],[0,-7],[1,-7],[8,-18],[2,-3],[4,-12],[2,-13],[3,-25],[3,-13],[6,-5],[3,-7],[10,-65],[4,-11],[5,-4],[7,-3],[17,-21],[30,-13],[31,-6],[5,-4],[17,-28],[4,-3],[2,-2],[17,-6],[23,-2],[62,16],[23,11],[9,5],[14,13],[7,10],[4,9],[5,7],[14,4],[14,10],[36,25],[3,10],[7,8],[8,5],[7,3],[0,7],[3,5],[9,7],[24,29],[8,20],[3,28],[-1,33],[-9,87],[-1,26],[-1,16],[-4,7],[-2,8],[1,19],[5,26],[-5,41],[-2,9],[-16,28],[-5,13],[0,13],[-4,33],[-1,17],[1,8],[3,9],[4,8],[3,6],[3,7],[2,8],[0,8],[2,8],[17,44],[6,28],[18,21],[6,13],[0,34],[3,15],[0,9],[-2,7],[-2,7],[-2,7],[0,8],[4,15],[1,8],[-1,8],[2,7],[7,11],[11,7],[10,9],[4,17],[-3,15],[-8,12],[-31,24],[-15,7],[-15,1],[-13,-6],[-4,-6],[-4,-8],[-3,-9],[-1,-9],[-1,-11],[-1,-6],[-12,-20],[-4,-7],[-6,-4],[-6,-2],[-13,4],[-7,0],[-6,-7],[-7,-16],[-3,-2],[-7,2],[-3,4],[-11,20],[-17,15],[-10,13],[-24,10],[-15,2],[-7,3],[-2,2],[-4,6],[-1,2],[-4,0],[-2,-2],[-2,-2],[-3,-1],[-3,1],[-3,3],[-4,2],[-3,-4],[-2,-4],[-3,-3],[-2,-1],[-3,3],[-2,6],[-2,8],[-2,9],[0,6],[-2,11],[-4,5],[-5,4],[-4,7],[-2,9],[0,7],[2,17],[0,21],[-2,17],[-5,9],[-11,-6],[-4,1],[-7,5],[-7,6],[-4,5],[-3,10],[0,8],[-2,4],[-5,-2],[-5,-7],[-3,-8],[-3,-3],[-5,5],[-2,7],[3,8],[3,7],[2,7],[-2,13],[-5,18],[-2,18],[1,17],[3,6],[3,1],[8,-3],[3,1],[1,4],[0,3],[-6,6],[-1,9],[2,8],[5,1],[14,-7],[13,2],[14,5],[14,2],[7,-3],[14,-9],[6,-2],[11,0],[1,2],[1,5],[-1,5],[-2,2],[-6,3],[-1,8],[2,8],[5,5],[6,-1],[14,-8],[7,-1],[-9,12],[-12,8],[-11,1],[-10,-11],[-7,9],[-7,1],[-16,-5],[-26,2],[-9,-2],[-7,-5],[-4,-3],[-2,-4],[-3,-1],[-11,4],[-7,-2],[-21,-8],[14,25],[7,6],[12,2],[3,5],[-23,31],[-3,14],[-12,18],[0,14],[8,10],[24,-1],[8,10],[6,-4],[6,0],[7,2],[12,10],[3,4],[1,4],[0,9],[-3,17],[-6,12],[-8,8],[-8,6],[4,-9],[11,-11],[5,-9],[-3,-2],[-7,-1],[-3,-2],[-7,-9],[-1,-3],[0,-4],[-2,-8],[-3,0],[-2,3],[-2,4],[-3,2],[-23,6],[-10,8],[-9,16],[2,-1],[5,1],[3,0],[-3,12],[2,9],[17,20],[4,3],[4,-2],[6,-9],[0,37],[-12,34],[-6,27],[20,13],[4,-1],[8,-3],[4,-1],[4,2],[5,6],[8,5],[5,5],[5,6],[7,0],[20,-18],[1,-1],[4,0],[4,6],[1,8],[-3,6],[-4,4],[4,9],[8,4],[32,1],[16,-4],[17,1],[19,7],[18,2],[15,-16],[8,17],[-3,12],[-24,32],[-3,7],[1,7],[5,8],[5,4],[5,2],[6,-1],[11,-8],[20,-21],[11,-5],[10,5],[-3,12],[-10,13],[-8,8],[7,5],[32,2],[13,5],[4,9],[4,23],[2,4],[24,6],[8,-1],[7,-5],[13,-15],[8,-3],[6,3],[6,6],[6,4],[7,-2],[21,-15],[6,-2],[7,3],[-2,7],[-6,6],[-6,3],[0,5],[9,-1],[4,2],[1,7],[2,8],[3,2],[4,0],[4,-3],[7,-11],[4,-12],[6,-8],[10,2],[5,3],[2,3],[8,18],[1,4],[-3,10],[-2,4],[-4,3],[-3,4],[-1,6],[0,7],[0,5],[-1,5],[-2,5],[12,8],[14,-12],[24,-30],[9,-2],[29,7],[8,-2],[15,-10],[8,-2],[7,3],[-3,18],[5,8],[8,0],[18,-12],[78,-22],[-2,16],[5,9],[8,4],[34,0],[4,2],[0,5],[-3,5],[-3,2],[-11,13],[-5,28],[-2,29],[3,12],[6,-5],[12,-23],[7,-6],[8,-3],[6,-7],[11,-18],[8,-6],[12,-5],[10,3],[5,13],[-3,12],[-6,7],[-3,9],[2,15],[-3,1],[-3,2],[-2,1],[9,11],[11,-3],[20,-22],[-2,-5],[4,-9],[3,-17],[5,-7],[7,-4],[4,1],[3,0],[6,7],[5,10],[-2,5],[5,16],[8,-5],[8,-13],[6,-7],[8,1],[0,5],[-1,6],[0,6],[5,7],[4,2],[5,-1],[13,-6],[13,-14],[2,-2],[1,-4],[0,-6],[3,-1],[69,1],[7,-2],[15,-9],[23,-6],[20,-12],[15,-4],[8,0],[6,2],[12,10],[5,2],[15,-1],[14,-4],[14,-8],[13,-11],[16,-16],[16,-18],[18,-7],[15,-9],[8,-3],[65,-6],[58,4],[48,3],[20,-5],[36,-9],[56,-3],[57,-14],[15,5],[15,10],[10,13],[13,24],[14,33],[6,35],[-8,33],[-13,24],[-5,15],[-3,16],[1,8],[3,20],[1,11],[19,22],[10,6],[14,-5],[13,-11],[9,-12],[5,-16],[4,-18],[5,-14],[41,-16],[14,-1],[11,12],[5,17],[1,19],[-1,39],[3,16],[8,15],[10,12],[9,7],[6,1],[7,-2],[6,-5],[10,-13],[14,-4],[10,-6],[8,-2],[4,-3],[2,-3],[3,-8],[2,-3],[7,-4],[6,1],[12,8],[6,-1],[11,-7],[7,-2],[4,3],[14,18],[4,2],[9,-3],[5,1],[10,7],[2,1],[4,3],[13,18],[8,21],[-1,10],[-17,19],[-2,1],[10,-1],[3,1],[10,10],[17,25],[11,10],[15,6],[39,-3],[85,-21],[110,-20],[12,-8],[10,-7],[92,-34],[17,-1],[11,8],[8,19],[3,15],[0,3],[-6,8],[4,10],[7,6],[3,6],[-4,11],[-9,7],[-76,8],[-19,12],[-6,26],[-3,0],[-5,6],[-5,9],[-2,9],[1,9],[2,7],[0,7],[-5,11],[-13,13],[-54,23],[-64,0],[-25,-16],[-14,-6],[-59,6],[-60,0],[-14,5],[-14,9],[-10,14],[-15,33],[-9,11],[-12,4],[-10,7],[-6,15],[-5,18],[-6,13],[-5,6],[-2,-6],[0,-9],[-3,-5],[-15,1],[-8,2],[-5,4],[-6,8],[-23,9],[-5,5],[-4,5],[-32,70],[-23,35],[-6,15],[5,3],[8,1],[7,-1],[5,-3],[2,-6],[2,-14],[2,-7],[7,-8],[27,-15],[15,-18],[9,-5],[7,3],[2,13],[-3,15],[-5,12],[-9,12],[0,14],[1,16],[-2,12],[2,14],[8,1],[-3,9],[-10,19],[-2,10],[4,8],[7,-1],[8,-5],[6,-2],[8,16],[-5,20],[-11,12],[-13,-7],[-6,-8],[-13,-12],[-6,-9],[-5,-3],[-19,1],[-4,-2],[-8,-6],[-4,-2],[-19,1],[-9,-4],[-3,-14],[-3,-15],[-7,-1],[-8,3],[-7,-4],[3,-4],[2,-4],[2,-5],[1,-6],[-4,3],[-5,2],[-5,1],[-4,-1],[-3,-2],[-1,-3],[-1,-2],[-8,-8],[-9,-14],[-7,-9],[-2,0],[-8,0],[-7,3],[-4,1],[-2,-2],[-1,-5],[-1,-5],[-3,-2],[-4,1],[-8,3],[-3,0],[-6,-1],[-11,-6],[-6,-2],[-49,2],[-10,8],[-3,19],[-7,-7],[-5,-12],[-5,-9],[-8,4],[1,3],[4,11],[-7,6],[-4,8],[-6,5],[-8,-4],[1,-2],[2,-6],[2,-2],[-7,-3],[-1,-8],[3,-10],[5,-8],[-6,-4],[-2,-1],[5,-4],[3,0],[-13,-12],[-5,-3],[-25,5],[4,8],[11,6],[5,5],[-14,3],[-7,-1],[-6,-7],[-3,-8],[1,-6],[3,-6],[4,-9],[-14,5],[-30,25],[-14,-5],[4,-1],[1,-2],[3,-7],[-2,-2],[-3,-5],[-3,-3],[4,-2],[4,-3],[3,-4],[2,-5],[-16,4],[-2,0],[-32,24],[-16,6],[-28,1],[-6,3],[-1,10],[10,2],[19,-2],[-9,7],[-26,17],[5,14],[-4,3],[-9,-3],[-5,-9],[2,-11],[5,-10],[1,-10],[-8,-8],[-1,9],[-2,3],[-7,-2],[-4,2],[-5,10],[-5,3],[-2,-3],[-4,-10],[-2,-2],[-4,2],[-6,10],[-3,3],[-3,-1],[-4,-3],[-4,-4],[0,-5],[1,-6],[-2,-4],[-3,-4],[-5,-15],[-8,-3],[-17,1],[9,-11],[4,-8],[-1,-7],[-3,1],[-11,12],[-4,6],[-33,-12],[-11,0],[3,4],[2,5],[3,10],[-6,1],[-8,-2],[-7,-5],[-5,-6],[-2,-5],[1,-12],[-1,-5],[-2,-2],[-8,-5],[-3,-5],[-5,-1],[-7,7],[-7,10],[-5,6],[-7,2],[-8,-1],[-7,-3],[-1,-8],[-7,-2],[-10,4],[-9,10],[-7,10],[-3,14],[6,7],[10,6],[7,7],[10,19],[1,5],[-1,16],[1,6],[4,7],[17,13],[15,-3],[32,-22],[-8,27],[-12,19],[-15,8],[-16,-6],[-8,-10],[-14,-26],[-32,-59],[-4,-23],[11,-22],[-6,-11],[-3,-5],[-3,-3],[-11,0],[-2,-3],[3,-11],[-4,1],[-4,3],[-7,10],[0,-8],[-1,-4],[-3,-2],[-4,0],[-4,-3],[-1,-5],[0,-5],[-2,-2],[-7,5],[-5,12],[-4,12],[-3,5],[-4,4],[-6,8],[-6,7],[-5,0],[-1,-9],[5,-10],[11,-15],[-35,6],[-3,-1],[-7,-8],[-3,-1],[-3,4],[-14,15],[-12,6],[-5,4],[-13,17],[-12,10],[-12,6],[-11,0],[0,-5],[20,-9],[4,-5],[8,-12],[9,-5],[2,-6],[2,-7],[0,-6],[-3,-4],[-5,1],[-4,-1],[2,-9],[4,-5],[13,-9],[7,-12],[4,-5],[4,-2],[3,-4],[-1,-8],[-2,-8],[-3,-4],[-19,-5],[-1,16],[-15,23],[3,9],[-4,0],[-3,-4],[-3,-3],[-3,-2],[-5,0],[-3,2],[-21,22],[-8,5],[-9,4],[13,-17],[8,-8],[6,-4],[-3,-14],[-9,-15],[0,-9],[3,-11],[11,-18],[3,-14],[-8,0],[-5,3],[-4,4],[-5,7],[2,5],[-5,8],[-7,3],[-8,0],[-7,3],[-11,15],[-6,5],[-6,-5],[3,-13],[13,-9],[24,-12],[-25,-10],[0,-4],[-6,-4],[-10,5],[-29,32],[-2,5],[0,10],[3,6],[4,3],[-7,5],[0,5],[20,0],[-5,15],[-8,2],[-9,-6],[-6,-6],[-9,-7],[-28,-8],[0,-4],[5,-3],[2,-8],[0,-9],[-2,-10],[-2,-2],[-2,-1],[-3,-2],[-2,-12],[-2,-4],[-3,-2],[-51,0],[1,10],[-5,5],[-14,4],[1,-3],[2,-9],[0,-3],[-11,-4],[-34,0],[-2,-1],[0,-3],[0,-8],[0,-1],[-2,-3],[-4,2],[-7,4],[0,-5],[13,-8],[4,-6],[-3,-3],[-5,0],[6,-7],[-7,-5],[-22,-5],[-8,0],[1,5],[0,2],[1,3],[-15,-9],[-4,-6],[7,-4],[-3,-5],[-5,1],[-6,-7],[-7,3],[-5,8],[5,5],[4,10],[2,10],[-3,9],[-7,1],[-5,-10],[-9,-33],[-4,-6],[-31,-2],[-7,2],[-4,9],[13,4],[-1,13],[-9,10],[-13,-3],[7,-19],[-5,-3],[-10,-9],[-5,-3],[-18,-2],[-12,-5],[-3,-1],[-3,-4],[-1,-5],[2,-8],[-2,-4],[-5,0],[-2,6],[-2,8],[-1,6],[-4,5],[-23,13],[-5,1],[-2,-2],[4,-8],[6,-5],[5,-2],[2,-3],[-3,-9],[-5,-5],[-5,-2],[-4,-4],[-3,-8],[25,9],[-2,-6],[-4,-5],[-7,-8],[8,-5],[0,-4],[-25,-18],[-14,-21],[-7,-6],[-9,-3],[-10,-1],[3,10],[10,23],[4,6],[-6,1],[-10,-9],[-16,-21],[-3,12],[-6,-4],[-8,-9],[-6,-4],[2,11],[4,6],[5,3],[5,7],[1,5],[0,6],[1,7],[2,8],[-17,2],[-9,-3],[-6,-8],[5,-6],[-12,-7],[-3,-2],[-5,0],[-13,5],[-10,1],[-6,-3],[0,-6],[9,-7],[-7,-4],[-6,2],[-6,4],[-6,3],[-3,0],[-14,-8],[-4,0],[-4,3],[-7,-11],[-6,1],[-3,7],[6,8],[0,5],[-7,-1],[-3,-4],[-3,-7],[-5,-7],[-5,-6],[-5,-3],[-25,-5],[-27,-25],[-10,8],[-60,-8],[-5,3],[-3,9],[-4,3],[-4,0],[-25,-7],[-15,-8],[-9,0],[4,11],[16,27],[5,6],[11,3],[5,4],[1,5],[-3,6],[0,6],[1,7],[3,7],[-13,-4],[-5,-3],[-2,-6],[-2,-7],[-3,-6],[-5,-3],[-4,-3],[-1,-7],[-2,-9],[-2,-8],[-3,-4],[-8,-5],[-4,-5],[-12,-20],[-11,-12],[-3,-4],[-33,-17],[-5,-9],[0,-13],[4,-11],[7,-2],[0,-5],[-63,-10],[-4,-5],[-22,4],[-9,-2],[-7,-3],[-21,-5],[-7,1],[7,5],[9,16],[5,4],[15,2],[51,25],[15,1],[-2,15],[1,6],[5,-1],[4,-1],[12,0],[9,5],[3,4],[5,6],[9,15],[6,15],[6,21],[2,14],[-6,-5],[-24,-52],[-10,-13],[-7,0],[1,2],[1,5],[0,3],[-3,3],[-4,1],[-4,-1],[-4,-3],[1,-5],[-14,4],[-4,-6],[-1,-4],[0,-3],[-3,-1],[-2,4],[0,1],[-1,7],[3,21],[1,3],[6,6],[27,11],[5,7],[9,18],[6,4],[-19,7],[-36,-7],[-17,0],[-9,4],[-8,5],[-6,7],[-2,11],[2,8],[6,9],[12,14],[-8,9],[-2,-4],[-4,-12],[-1,-3],[-3,-3],[-7,-3],[-3,-3],[-1,11],[-3,8],[-6,4],[-12,3],[-8,9],[-5,3],[4,8],[0,6],[-2,6],[-4,4],[19,34],[8,10],[24,22],[6,11],[2,7],[3,12],[3,5],[9,8],[4,5],[-1,7],[-7,1],[-10,-9],[-8,-14],[-5,-12],[-20,7],[-24,-11],[-51,-44],[-46,-13],[-21,-11],[-10,0],[5,6],[20,13],[-7,2],[-1,6],[7,14],[4,4],[17,7],[-18,-2],[-9,-3],[-17,-13],[-9,-4],[-1,0],[0,33],[3,5],[12,12],[2,11],[18,21],[11,8],[2,10],[-3,7],[-16,-17],[-13,-2],[-16,1],[0,866]],[[1262,1953],[90,24],[31,-27],[17,-96],[51,9],[5,-23],[-26,-17],[-70,23],[-5,-40],[-93,147]],[[1346,1937],[4,-6],[22,1],[-11,11],[-15,-6]],[[2930,1072],[141,52],[8,-50],[-40,-12],[-1,-42],[25,-14],[-64,-45],[-9,-111],[-9,114],[-21,18],[42,63],[-72,27]],[[273,861],[33,32],[57,-2],[47,-91],[-19,-56],[-67,-30],[-15,120],[-36,27]],[[357,880],[5,-22],[26,-20],[-27,44],[-4,-2]],[[398,801],[7,-4],[4,0],[-9,8],[-2,-4]],[[379,747],[3,-7],[8,4],[-5,6],[-6,-3]],[[354,822],[6,-6],[9,8],[-9,1],[-6,-3]],[[375,811],[1,-6],[6,0],[-1,8],[-6,-2]],[[1730,409],[0,3],[3,1],[0,5],[7,3],[4,13],[10,-2],[-1,27],[31,-5],[32,-47],[70,-5],[26,-44],[-11,-57],[-50,-53],[-45,29],[-11,-18],[-36,1],[-15,28],[-1,1],[1,1],[1,2],[1,1],[-1,4],[33,9],[-2,4],[6,33],[-22,44],[-3,-2],[-5,0],[-21,19],[-1,2],[0,1],[0,1],[0,1]],[[1834,273],[10,-7],[21,-2],[-8,11],[21,9],[-10,-1],[-1,0],[-1,1],[0,1],[1,0],[1,-1],[0,2],[0,1],[-1,-1],[0,1],[-1,1],[0,-1],[0,1],[-1,0],[-1,1],[-2,-4],[-1,4],[-8,-13],[-12,-5],[-1,0],[-1,1],[-1,0],[-1,0],[-1,1],[-2,0]],[[1776,304],[10,-9],[12,6],[-13,18],[0,-8],[-9,-7]],[[1864,293],[5,-6],[-1,-3],[-1,1],[-1,-1],[4,0],[0,3],[4,0],[4,-3],[-2,-3],[2,0],[5,12],[-19,0]],[[1829,391],[4,-10],[8,4],[-1,8],[-11,-2]],[[1786,365],[16,-13],[18,2],[-27,16],[-7,-5]],[[1742,410],[3,-4],[5,5],[-6,4],[-2,-5]],[[1857,340],[1,-7],[9,6],[-3,3],[-7,-2]],[[1830,283],[3,-9],[12,0],[-2,10],[-13,-1]],[[1763,273],[22,-6],[-1,23],[-16,-1],[-5,-16]],[[1730,409],[5,-6],[3,10],[-8,-1],[0,-3]],[[1786,428],[2,-5],[7,0],[-7,10],[-2,-5]],[[1758,389],[5,-4],[1,-1],[2,0],[-3,7],[-5,-2]],[[1770,384],[4,-3],[6,2],[-7,6],[-3,-5]],[[1744,289],[8,-4],[9,8],[-13,2],[-4,-6]],[[2883,2613],[35,58],[16,4],[-22,-66],[97,20],[4,-49],[31,-14],[-27,0],[3,-27],[-10,21],[-18,-8],[27,-18],[-3,-41],[-32,-24],[3,35],[-45,-22],[-3,83],[-56,48]],[[0,2859],[36,38],[78,-16],[-26,-94],[-88,-16],[0,88]],[[782,943],[115,168],[78,14],[24,57],[54,33],[38,-159],[-168,-68],[20,-71],[-52,23],[4,37],[-113,-34]],[[993,1078],[21,-16],[13,19],[-30,15],[-4,-18]],[[2866,931],[68,65],[-29,31],[-31,-7],[7,33],[19,-11],[30,30],[72,-27],[-42,-63],[21,-18],[-3,-97],[-22,8],[19,24],[-11,54],[-16,-50],[-61,-8],[-21,36]],[[3746,3349],[49,122],[85,20],[6,33],[33,5],[21,-80],[-91,-74],[13,-34],[-90,-38],[-26,46]],[[0,1381],[39,12],[-12,-58],[-27,-2],[0,48]],[[532,876],[51,46],[63,-138],[-116,9],[2,83]],[[2092,1474],[41,-11],[24,-43],[-39,-16],[-26,70]],[[3197,1911],[-46,9],[28,98],[41,-27],[-23,-80]],[[759,2585],[107,47],[56,-12],[-12,-51],[-52,-54],[-27,27],[-75,-1],[-13,46],[16,-2]],[[2788,2900],[6,37],[-31,24],[14,35],[46,4],[0,44],[32,18],[74,-134],[0,-89],[22,-18],[24,18],[-14,-71],[-60,71],[-23,-80],[-14,62],[-46,18],[-37,-27],[-4,-62],[-24,9],[-2,128],[24,-8],[13,21]],[[2722,2986],[-46,74],[11,19],[62,-17],[-27,-76]],[[895,3078],[-45,-1],[-24,117],[97,35],[26,-59],[-8,-75],[-46,-17]],[[146,3604],[40,11],[39,-11],[-28,-34],[-46,7],[-5,27]],[[1945,2794],[62,15],[20,33],[-20,71],[18,3],[21,-83],[71,-79],[-38,-6],[-27,-48],[13,-73],[-26,-18],[-5,19],[-12,-36],[-6,74],[-71,128]],[[2011,2749],[4,-6],[4,2],[-5,4],[-3,0]],[[2030,2716],[10,0],[2,2],[-12,1],[0,-3]],[[2066,2804],[1,-11],[5,-2],[-1,6],[-5,7]],[[1485,3169],[36,64],[38,-28],[68,17],[7,27],[26,-49],[48,-22],[-26,-10],[19,-10],[28,14],[1,48],[23,-21],[88,81],[57,-2],[4,-36],[-76,-94],[-81,-40],[-196,10],[-40,-18],[-24,69]],[[1816,1772],[13,29],[58,-20],[42,33],[114,15],[27,-78],[-6,-35],[-98,-1],[-31,-22],[-2,-39],[-57,-29],[-60,96],[0,51]],[[1528,649],[64,88],[-30,31],[27,29],[-25,16],[27,3],[-21,55],[4,28],[17,-18],[-4,42],[23,-33],[-13,-40],[56,-8],[2,-107],[40,-3],[6,-12],[-27,2],[-20,-44],[-19,23],[6,-70],[-20,4],[4,54],[-12,-60],[-34,13],[-21,-25],[-30,32]],[[1627,0],[82,13],[3,24],[30,-33],[50,-2],[-165,-2]],[[3756,1377],[27,149],[76,86],[34,0],[-37,126],[38,52],[47,-6],[17,-41],[-18,-75],[53,-14],[37,-75],[-7,-49],[-102,-58],[-40,-78],[13,-121],[-18,-19],[31,-18],[3,-87],[-41,37],[-28,-24],[-49,10],[16,193],[-52,12]],[[3898,1554],[10,-16],[17,-2],[-8,30],[-19,-12]],[[1503,67],[28,41],[88,-1],[137,-23],[53,-67],[58,14],[-6,-24],[-66,6],[-23,14],[-29,-21],[-56,47],[-68,-45],[-85,19],[-31,40]],[[2096,3190],[50,120],[60,-98],[60,-43],[-72,-73],[-81,40],[-17,54]],[[2758,2146],[19,203],[94,22],[14,-169],[-55,-54],[-72,-2]],[[1076,2614],[10,113],[91,-60],[-42,98],[237,-92],[-13,-30],[-104,-22],[7,-35],[-117,4],[-30,38],[-8,-29],[-31,15]],[[2056,272],[67,26],[4,47],[87,20],[52,-137],[-126,7],[-1,-36],[-20,-1],[-63,74]],[[273,861],[33,32],[57,-2],[47,-91],[-19,-56],[-67,-30],[-15,120],[-36,27]]]}