{"objects":{"water":{"type":"GeometryCollection","geometries":[{"type":"Polygon","properties":{"source":"naturalearthdata.com","kind":"ocean","area":1576712559132672,"sort_rank":200,"min_zoom":0.0,"id":1},"arcs":[[2]]},{"type":"LineString","properties":{"source":"naturalearthdata.com","kind":"ocean","sort_rank":205,"boundary":true,"min_zoom":0.0,"id":63},"arcs":[3]}]},"buildings":{"type":"GeometryCollection","geometries":[]},"places":{"type":"GeometryCollection","geometries":[{"type":"Point","properties":{"source":"naturalearthdata.com","kind":"locality","name":"Lismore","population":31430,"min_zoom":6.0,"id":5580},"coordinates":[35,2391]},{"type":"Point","properties":{"source":"naturalearthdata.com","kind":"locality","name":"Ballina","population":14242,"min_zoom":7.0,"id":4682},"coordinates":[835,2243]},{"type":"Point","properties":{"source":"naturalearthdata.com","kind":"locality","name":"Byron Bay","population":6764,"min_zoom":7.0,"id":4685},"coordinates":[966,2924]},{"type":"Point","properties":{"source":"naturalearthdata.com","kind":"locality","name":"Yamba","population":1806,"min_zoom":7.0,"id":4681},"coordinates":[210,374]},{"type":"Point","properties":{"source":"openstreetmap.org","kind":"locality","name":"Ballina","kind_detail":"town","population":7875,"min_zoom":8.0,"id":25989580},"coordinates":[818,2235]},{"type":"Point","properties":{"source":"openstreetmap.org","kind":"locality","name":"Murwillumbah","kind_detail":"town","population":6342,"min_zoom":8.0,"id":21379761},"coordinates":[338,4022]},{"type":"Point","properties":{"source":"openstreetmap.org","kind":"locality","name":"Yamba","kind_detail":"town","population":6032,"min_zoom":8.0,"id":2351725421},"coordinates":[228,317]},{"type":"Point","properties":{"kind":"locality","name":"Byron Bay","name:ko":"\ubc14\uc774\ub7f0\ubca0\uc774","kind_detail":"town","source":"openstreetmap.org","min_zoom":8.0,"id":26010100,"population":4959},"coordinates":[980,2951]},{"type":"Point","properties":{"source":"openstreetmap.org","kind":"locality","name":"Mullumbimby","kind_detail":"town","population":2000,"min_zoom":8.0,"id":229992592},"coordinates":[640,3284]},{"type":"Point","properties":{"source":"openstreetmap.org","kind":"locality","name":"Brunswick Heads","kind_detail":"town","population":2000,"min_zoom":8.0,"id":21678881},"coordinates":[778,3316]}]},"transit":{"type":"GeometryCollection","geometries":[]},"pois":{"type":"GeometryCollection","geometries":[{"type":"Point","properties":{"kind":"nature_reserve","protect_class":"1","area":232932000,"source":"openstreetmap.org","min_zoom":8.36,"tier":2,"ref":"N0041","id":-5815155,"osm_relation":true,"name":"Bundjalung National Park"},"coordinates":[91,911]},{"type":"Point","properties":{"kind":"protected_area","name":"Gondwana Rainforests of Australia World Heritage Area","area":63677300,"name:de":"Weltkulturerbegebiet Gondwana-Regenw\u00e4lder Australiens","source":"openstreetmap.org","min_zoom":8.0,"tier":2,"id":-361693,"osm_relation":true},"coordinates":[76,3287]}]},"boundaries":{"type":"GeometryCollection","geometries":[{"type":"LineString","properties":{"name:ty":"Autereraria","name:ka":"\u10d0\u10d5\u10e1\u10e2\u10e0\u10d0\u10da\u10d8\u10d0","name:tr":"Avustralya","name:kn":"\u0c86\u0cb8\u0ccd\u0c9f\u0ccd\u0cb0\u0cc7\u0cb2\u0cbf\u0caf","name:km":"\u17a2\u17bc\u179f\u17d2\u178f\u17d2\u179a\u17b6\u179b\u17b8","name:kk":"\u0410\u0443\u0441\u0442\u0440\u0430\u043b\u0438\u044f","name:tt":"\u0410\u0432\u0441\u0442\u0440\u0430\u043b\u0438\u044f","name:kw":"Ostrali","name:tk":"Awstrali\u00fda","name:ku":"Awistralya","name:ti":"\u12a3\u12cd\u1235\u1275\u122b\u120a\u12eb","name:tl":"Australya","name:ce":"\u0410\u0432\u0441\u0442\u0440\u0430\u0301\u043b\u0438","name:ta":"\u0b86\u0bb8\u0bcd\u0ba4\u0bbf\u0bb0\u0bc7\u0bb2\u0bbf\u0baf\u0bbe","name:tg":"\u0410\u0432\u0441\u0442\u0440\u0430\u043b\u0438\u044f","name:ky":"\u0410\u0432\u0441\u0442\u0440\u0430\u043b\u0438\u044f","name:te":"\u0c06\u0c38\u0c4d\u0c1f\u0c4d\u0c30\u0c47\u0c32\u0c3f\u0c2f\u0c3e","alt_name:ca":"Mancomunitat d'Austr\u00e0lia","name:hr":"Australija","name:da":"Australien","name:de":"Australien","name:dz":"\u0f68\u0f66\u0f0b\u0f4a\u0f7a\u0f61\u0f7a\u0f0b\u0f63\u0f72\u0f0b\u0f61","source":"openstreetmap.org","alt_name:ta":"\u0b85\u0bb5\u0bc1\u0bb8\u0bcd\u0ba4\u0bbf\u0bb0\u0bc7\u0bb2\u0bbf\u0baf\u0bbe","name:cv":"\u0410\u0432\u0441\u0442\u0440\u0430\u043b\u0438","name:be":"\u0410\u045e\u0441\u0442\u0440\u0430\u0301\u043b\u0456\u044f","name:dv":"\u0787\u07ae\u0790\u07b0\u0793\u07a6\u0783\u07aa\u078d\u07a8\u0794\u07a7","name:cu":"\u0410\u0475\u0441\u0442\u0440\u0430\u043b\u0457\ua657","name:za":"Audaihleihya","name:lv":"Austr\u0101lija","name:lt":"Australija","name:uz":"Avstraliya","name:cs":"Austr\u00e1lie","name:ur":"\u0622\u0633\u0679\u0631\u06cc\u0644\u06cc\u0627","name:lb":"Australien","name:uk":"\u0410\u0432\u0441\u0442\u0440\u0430\u0301\u043b\u0456\u044f","name:ug":"\u0626\u0627\u06cb\u0633\u062a\u0649\u0631\u0627\u0644\u0649\u064a\u06d5","name:li":"Australi\u00eb","name:lo":"\u0e9b\u0eb0\u0ec0\u0e97\u0e94\u0ead\u0ebb\u0e94\u0eaa\u0eb0\u0e95\u0eb2\u0ea5\u0eb5","name:el":"\u0391\u03c5\u03c3\u03c4\u03c1\u03b1\u03bb\u03af\u03b1","name:eo":"A\u016dstralio","name":"Australia","name:kv":"\u0410\u0432\u0441\u0442\u0440\u0430\u043b\u0438\u044f","name:th":"\u0e2d\u0e2d\u0e2a\u0e40\u0e15\u0e23\u0e40\u0e25\u0e35\u0e22","name:et":"Austraalia","name:ay":"Australla","name:rn":"Australiya","name:az":"Avstraliya","name:ig":"Ostraliya","alt_name:zu":"I-Australiya","name:as":"\u0985\u09b7\u09cd\u099f\u09cd\u09f0\u09c7\u09b2\u09bf\u09af\u09bc\u09be","name:ar":"\u0623\u0633\u062a\u0631\u0627\u0644\u064a\u0627","name:is":"\u00c1stral\u00eda","name:iu":"\u140a\u1505\u1466\u154c\u14d5\u140a","name:ru":"\u0410\u0432\u0441\u0442\u0440\u0430\u0301\u043b\u0438\u044f","name:ab":"\u0410\u0432\u0441\u0442\u0440\u0430\u043b\u0438\u0430","name:af":"Australi\u00eb","name:zu":"I-Ostreliya","alt_name:rw":"Australiya","alt_name:gn":"Auter\u00e1lia","kind_detail":"2","name:zh-min-nan":"\u00d2-chiu","name:ca":"Austr\u00e0lia","name:zh-yue":"\u6fb3\u6d32","name:zh":"\u6fb3\u5927\u5229\u4e9a","name:sm":"Ausetalia","name:sl":"Avstralija","name:sk":"Austr\u00e1lia","name:ja":"\u30aa\u30fc\u30b9\u30c8\u30e9\u30ea\u30a2","name:si":"\u0d95\u0dc3\u0dca\u0da7\u0dca\u200d\u0dbb\u0dda\u0dbd\u0dd2\u0dba\u0dcf\u0dc0","name:sh":"Australija","name:sg":"Ostral\u00efi","name:sd":"\u0622\u0633\u067d\u0631\u064a\u0644\u064a\u0627","name:sc":"Austr\u00e0lia","name:br":"Aostralia","name:bs":"Australija","name:bm":"Ostralia","name:bn":"\u0985\u09b8\u09cd\u099f\u09cd\u09b0\u09c7\u09b2\u09bf\u09af\u09bc\u09be","name:bo":"\u0f68\u0f7c\u0f0b\u0f66\u0f7a\u0f0b\u0f50\u0f7a\u0f0b\u0f63\u0f72\u0f0b\u0f61\u0f0d","name:sa":"\u0906\u0938\u094d\u091f\u094d\u0930\u0947\u0932\u093f\u092f\u093e","name:sv":"Australien","name:bg":"\u0410\u0432\u0441\u0442\u0440\u0430\u043b\u0438\u044f","name:sr":"\u0410\u0443\u0441\u0442\u0440\u0430\u043b\u0438\u0458\u0430","osm_relation":true,"alt_name:sv":"Samv\u00e4ldet Australien","name:jv":"Ostrali","alt_name:sk":"Austr\u00e1lske spolo\u010denstvo","name:bi":"Ostrelia","name:pt":"Austr\u00e1lia","name:ps":"\u0622\u0633\u067c\u0631\u0627\u0644\u064a\u0627","name:om":"Awustireliyaa","name:oc":"Austr\u00e0lia","min_zoom":8.0,"name:ko":"\uc624\uc2a4\ud2b8\ub808\uc77c\ub9ac\uc544","name:pa":"\u0a06\u0a38\u0a1f\u0a4d\u0a30\u0a47\u0a32\u0a40\u0a06","name:os":"\u0410\u0432\u0441\u0442\u0440\u0430\u043b\u0438","name:or":"\u0b05\u0b37\u0b4d\u0b1f\u0b4d\u0b30\u0b47\u0b32\u0b3f\u0b06","name:pi":"\u0906\u0938\u094d\u091f\u094d\u0930\u0947\u0932\u093f\u092f\u093e","sort_rank":262,"name:ba":"\u0410\u0432\u0441\u0442\u0440\u0430\u043b\u0438\u044f","name:hi":"\u0911\u0938\u094d\u091f\u094d\u0930\u0947\u0932\u093f\u092f\u093e","name:he":"\u05d0\u05d5\u05e1\u05d8\u05e8\u05dc\u05d9\u05d4","name:ha":"Asturaliya","name:hy":"\u0531\u057e\u057d\u057f\u0580\u0561\u056c\u056b\u0561","name:ht":"Ostrali","name:hu":"Ausztr\u00e1lia","name:qu":"Awstralya","kind":"country","name:cy":"Awstralia","name:yi":"\u05d0\u05d5\u05d9\u05e1\u05d8\u05e8\u05d0\u05b7\u05dc\u05d9\u05e2","name:am":"\u12a0\u12cd\u1235\u1275\u122b\u120d\u12eb","name:yo":"Austr\u00e1l\u00ed\u00e0","name:mt":"Awstralja","name:mr":"\u0911\u0938\u094d\u091f\u094d\u0930\u0947\u0932\u093f\u092f\u093e","name:my":"\u1029\u1005\u1010\u103c\u1031\u1038\u101c\u103b\u1014\u102d\u102f\u1004\u103a\u1004\u1036","official_name":"Commonwealth of Australia","name:mg":"Aostralia","name:ml":"\u0d13\u0d38\u0d4d\u0d1f\u0d4d\u0d30\u0d47\u0d32\u0d3f\u0d2f","name:vi":"\u00dac","name:mn":"\u0410\u0432\u0441\u0442\u0440\u0430\u043b\u0438","name:mi":"Ahitereiria","id":-80500,"name:mk":"\u0410\u0432\u0441\u0442\u0440\u0430\u043b\u0438\u0458\u0430","name:vo":"Laustral\u00e4n","name:fa":"\u0627\u0633\u062a\u0631\u0627\u0644\u06cc\u0627","name:rw":"Ositaraliya","alt_name:mi":"Whenua Moemoe\u0101","name:fo":"Avstralia","name:fr":"Australie","name:fy":"Austraalje","alt_name:af":"Gemenebes van Australi\u00eb","name:nl":"Australi\u00eb","alt_name:nv":"Bich\u02bc\u00e1h Yiisdiis\u00ed Bik\u00e9yah","name:na":"Otereiriya","name:ne":"\u0905\u0937\u094d\u091f\u094d\u0930\u0947\u0932\u093f\u092f\u093e","name:wa":"Ostraleye","name:wo":"\u00d3straali","name:nv":"Nahat\u02bce\u02bciitsoh Bik\u00e9yah","name:ga":"Astr\u00e1il","name:gd":"Astr\u00e0ilia","name:gn":"Autaralia","maritime_boundary":true,"name:gv":"Austrail","name:gu":"\u0a91\u0ab8\u0acd\u0a9f\u0acd\u0ab0\u0ac7\u0ab2\u0abf\u0aaf\u0abe"},"arcs":[0]},{"type":"LineString","properties":{"alt_name:eo":"Novsudkimrujo;Nova Sud-Kimrio","name:sl":"Novi ju\u017eni Wales","name:nl":"Nieuw-Zuid-Wales","name:ja":"\u30cb\u30e5\u30fc\u30b5\u30a6\u30b9\u30a6\u30a7\u30fc\u30eb\u30ba","name:lt":"Naujasis Piet\u0173 Velsas","name:cs":"Nov\u00fd Ji\u017en\u00ed Wales","kind":"region","min_zoom":8.0,"name:ru":"\u041d\u043e\u0432\u044b\u0439 \u042e\u0436\u043d\u044b\u0439 \u0423\u044d\u043b\u044c\u0441","id":-2316593,"osm_relation":true,"name:vo":"Nula-Sul\u00fcda-Vels\u00e4n","name:eo":"Nova Sud-Kimrujo","name":"New South Wales","sort_rank":256,"kind_detail":"4","short_name":"NSW","name:de":"Neus\u00fcdwales","source":"openstreetmap.org","maritime_boundary":true,"name:zh":"\u65b0\u5357\u5a01\u5c14\u58eb\u5dde"},"arcs":[1]}]},"roads":{"type":"GeometryCollection","geometries":[{"type":"MultiLineString","properties":{"kind":"major_road","network":"B","sort_rank":380,"kind_detail":"primary","source":"openstreetmap.org","min_zoom":8.0,"shield_text":"62","ref":"B62"},"arcs":[[4],[5],[6],[7],[8],[9],[10],[11],[12],[13],[14]]},{"type":"LineString","properties":{"kind":"major_road","network":"B","sort_rank":380,"kind_detail":"primary","source":"openstreetmap.org","min_zoom":8.0,"landuse_kind":"urban_area","shield_text":"62","id":308510883},"arcs":[15]},{"type":"MultiLineString","properties":{"kind":"highway","cycleway_left":"lane","network":"M","sort_rank":383,"kind_detail":"motorway","is_bicycle_related":true,"source":"openstreetmap.org","min_zoom":8.0,"all_networks":["M"],"shield_text":"1","ref":"M1","all_shield_texts":["1"]},"arcs":[[16],[17],[18],[19],[20],[21],[22],[23],[24]]},{"type":"MultiLineString","properties":{"sort_rank":380,"kind_detail":"primary","min_zoom":8.0,"kind":"major_road","source":"openstreetmap.org"},"arcs":[[25],[26],[27],[28],[29],[30],[31],[32],[33],[34],[35],[36],[37],[38]]},{"type":"MultiLineString","properties":{"kind":"highway","cycleway_left":"shoulder","network":"M","sort_rank":383,"kind_detail":"motorway","is_bicycle_related":true,"source":"openstreetmap.org","min_zoom":8.0,"all_networks":["M","NR"],"shield_text":"1","all_shield_texts":["1","1"]},"arcs":[[39],[40]]},{"type":"MultiLineString","properties":{"kind":"highway","network":"M","sort_rank":383,"kind_detail":"motorway","source":"openstreetmap.org","min_zoom":8.0,"all_networks":["M","A"],"shield_text":"1","all_shield_texts":["1","1"]},"arcs":[[41],[42]]},{"type":"LineString","properties":{"kind":"major_road","network":"B","sort_rank":380,"kind_detail":"primary","source":"openstreetmap.org","min_zoom":8.0,"landuse_kind":"urban_area","shield_text":"60","ref":"B60","id":187792288},"arcs":[43]},{"type":"LineString","properties":{"kind":"highway","network":"A","sort_rank":383,"kind_detail":"motorway","source":"openstreetmap.org","min_zoom":8.0,"all_networks":["A","A"],"shield_text":"1","all_shield_texts":["1","1"]},"arcs":[44]},{"type":"LineString","properties":{"source":"openstreetmap.org","kind":"major_road","network":"A","sort_rank":380,"kind_detail":"primary","min_zoom":8.0,"shield_text":"62;T"},"arcs":[45]},{"type":"MultiLineString","properties":{"kind":"major_road","network":"B","sort_rank":380,"kind_detail":"primary","source":"openstreetmap.org","min_zoom":8.0,"shield_text":"62","ref":"B62;T 28"},"arcs":[[46],[47],[48]]},{"type":"LineString","properties":{"source":"openstreetmap.org","kind":"ferry","name":"Yamba Iluka Ferry Service","sort_rank":355,"min_zoom":8.0,"id":390573758},"arcs":[49]},{"type":"LineString","properties":{"source":"openstreetmap.org","kind":"major_road","sort_rank":380,"kind_detail":"primary","ref":"B62","min_zoom":8.0},"arcs":[50]},{"type":"MultiLineString","properties":{"source":"openstreetmap.org","kind":"major_road","landuse_kind":"urban_area","sort_rank":380,"kind_detail":"primary","ref":"B60","min_zoom":8.0},"arcs":[[51],[52]]},{"type":"MultiLineString","properties":{"kind":"major_road","network":"B","sort_rank":380,"kind_detail":"primary","source":"openstreetmap.org","min_zoom":8.0,"landuse_kind":"urban_area","shield_text":"60"},"arcs":[[53],[54],[55]]},{"type":"LineString","properties":{"source":"openstreetmap.org","kind":"ferry","name":"Yamba - Iluka Ferry","sort_rank":355,"min_zoom":8.0,"id":50597621},"arcs":[56]},{"type":"MultiLineString","properties":{"kind":"highway","cycleway_left":"lane","network":"M","sort_rank":383,"kind_detail":"motorway","is_bicycle_related":true,"source":"openstreetmap.org","min_zoom":8.0,"all_networks":["M","A"],"shield_text":"1","all_shield_texts":["1","1"]},"arcs":[[57],[58]]},{"type":"LineString","properties":{"kind":"highway","cycleway_left":"shoulder","network":"M","sort_rank":383,"kind_detail":"motorway","is_bicycle_related":true,"source":"openstreetmap.org","min_zoom":8.0,"all_networks":["M"],"shield_text":"1","ref":"M1","id":287034087,"all_shield_texts":["1"]},"arcs":[59]},{"type":"MultiLineString","properties":{"kind":"highway","network":"M","sort_rank":383,"kind_detail":"motorway","source":"openstreetmap.org","min_zoom":8.0,"all_networks":["M"],"shield_text":"1","ref":"M1","all_shield_texts":["1"]},"arcs":[[60],[61]]},{"type":"MultiLineString","properties":{"kind":"highway","network":"M","sort_rank":383,"kind_detail":"motorway","source":"openstreetmap.org","min_zoom":8.0,"all_networks":["M","NR"],"shield_text":"1","all_shield_texts":["1","1"]},"arcs":[[62],[63],[64]]},{"type":"MultiLineString","properties":{"kind":"highway","network":"M","sort_rank":383,"kind_detail":"motorway","is_bicycle_related":true,"cycleway":"shoulder","source":"openstreetmap.org","min_zoom":8.0,"all_networks":["M"],"shield_text":"1","ref":"M1","all_shield_texts":["1"]},"arcs":[[65],[66]]},{"type":"LineString","properties":{"source":"openstreetmap.org","kind":"major_road","sort_rank":381,"kind_detail":"trunk","min_zoom":8.0,"id":183842452},"arcs":[67]},{"type":"MultiLineString","properties":{"kind":"major_road","network":"A","sort_rank":381,"kind_detail":"trunk","source":"openstreetmap.org","min_zoom":8.0,"shield_text":"1","ref":"A1"},"arcs":[[68],[69]]},{"type":"LineString","properties":{"source":"openstreetmap.org","kind":"ferry","name":"Yamba - Iluka Ferry","sort_rank":355,"min_zoom":8.0,"osm_relation":true,"id":-5892196},"arcs":[70]},{"type":"MultiLineString","properties":{"source":"openstreetmap.org","kind":"major_road","network":"A","sort_rank":381,"kind_detail":"trunk","min_zoom":8.0,"shield_text":"1"},"arcs":[[71],[72],[73],[74],[75],[76],[77],[78]]},{"type":"LineString","properties":{"source":"openstreetmap.org","kind":"major_road","sort_rank":380,"kind_detail":"primary","ref":"T 28","min_zoom":8.0,"id":381681457},"arcs":[79]},{"type":"LineString","properties":{"kind":"highway","network":"M","sort_rank":383,"kind_detail":"motorway","is_bicycle_related":true,"cycleway":"shoulder","source":"openstreetmap.org","min_zoom":8.0,"all_networks":["M","NR"],"shield_text":"1","all_shield_texts":["1","1"]},"arcs":[80]},{"type":"LineString","properties":{"kind":"major_road","network":"A","sort_rank":381,"kind_detail":"trunk","source":"openstreetmap.org","min_zoom":8.0,"landuse_kind":"nature_reserve","shield_text":"1"},"arcs":[81]},{"type":"MultiLineString","properties":{"source":"openstreetmap.org","kind":"major_road","network":"A","sort_rank":380,"kind_detail":"primary","min_zoom":8.0,"shield_text":"28"},"arcs":[[82],[83]]},{"type":"MultiLineString","properties":{"kind":"major_road","network":"B","sort_rank":380,"kind_detail":"primary","source":"openstreetmap.org","min_zoom":8.0,"shield_text":"62","ref":"B62;T 28;T 30"},"arcs":[[84],[85],[86],[87]]},{"type":"MultiLineString","properties":{"kind":"major_road","network":"B","sort_rank":380,"kind_detail":"primary","source":"openstreetmap.org","min_zoom":8.0,"landuse_kind":"urban_area","shield_text":"62","ref":"B62"},"arcs":[[88],[89],[90],[91],[92],[93],[94],[95],[96]]},{"type":"MultiLineString","properties":{"source":"openstreetmap.org","kind":"major_road","network":"B","sort_rank":380,"kind_detail":"primary","min_zoom":8.0,"shield_text":"60"},"arcs":[[97],[98],[99],[100],[101],[102],[103],[104],[105],[106],[107],[108],[109],[110],[111],[112],[113],[114],[115],[116],[117],[118],[119]]},{"type":"LineString","properties":{"kind":"major_road","network":"B","sort_rank":380,"kind_detail":"primary","source":"openstreetmap.org","min_zoom":8.0,"shield_text":"60;T","id":144338586},"arcs":[120]},{"type":"MultiLineString","properties":{"kind":"highway","cycleway_left":"lane","network":"M","sort_rank":383,"kind_detail":"motorway","is_bicycle_related":true,"source":"openstreetmap.org","min_zoom":8.0,"all_networks":["M","NR"],"shield_text":"1","all_shield_texts":["1","1"]},"arcs":[[121],[122],[123],[124],[125]]},{"type":"LineString","properties":{"source":"openstreetmap.org","kind":"major_road","sort_rank":380,"kind_detail":"primary","ref":"B60","min_zoom":8.0},"arcs":[126]}]},"earth":{"type":"GeometryCollection","geometries":[{"type":"MultiPolygon","properties":{"sort_rank":10,"source":"naturalearthdata.com","min_zoom":0.0,"kind":"earth","area":54079332908},"arcs":[[[127]]]}]},"landuse":{"type":"GeometryCollection","geometries":[{"type":"Polygon","properties":{"kind":"nature_reserve","natural":"wetland","protect_class":"1","area":12464300,"sort_rank":23,"source":"openstreetmap.org","min_zoom":8.0,"operator":"National Parks & Wildife Service NSW","tier":2,"id":-5939038,"osm_relation":true},"arcs":[[128]]},{"type":"MultiPolygon","properties":{"source":"openstreetmap.org","kind":"protected_area","tier":2,"area":199014477,"sort_rank":17,"min_zoom":8.0,"osm_relation":true},"arcs":[[[129]],[[130]]]},{"type":"Polygon","properties":{"kind":"nature_reserve","protect_class":"1","area":232932000,"sort_rank":23,"source":"openstreetmap.org","min_zoom":6.0,"tier":2,"id":-5815155,"osm_relation":true},"arcs":[[131]]},{"type":"MultiPolygon","properties":{"kind":"nature_reserve","tier":2,"protect_class":"2","area":236623692,"sort_rank":23,"source":"openstreetmap.org","min_zoom":8.0,"operator":"National Parks & Wildife Service NSW","osm_relation":true},"arcs":[[[132]],[[133]]]},{"type":"MultiPolygon","properties":{"kind":"nature_reserve","natural":"wood","protect_class":"1","area":191921475,"sort_rank":23,"operator":"National Parks & Wildife Service NSW","source":"openstreetmap.org","min_zoom":8.0,"tier":2,"osm_relation":true},"arcs":[[[134]]]},{"type":"MultiPolygon","properties":{"kind":"nature_reserve","natural":"wood","protect_class":"2","area":932076266,"sort_rank":23,"source":"openstreetmap.org","min_zoom":8.0,"operator":"National Parks & Wildife Service NSW","tier":2,"osm_relation":true},"arcs":[[[135]],[[136]],[[137]],[[138]],[[139],[140]]]},{"type":"MultiPolygon","properties":{"source":"naturalearthdata.com","kind":"urban_area","name":"","area":2335179865,"sort_rank":11,"min_zoom":4.0},"arcs":[[[141]]]},{"type":"Polygon","properties":{"kind":"nature_reserve","natural":"wood","protect_class":"1","area":11312900,"sort_rank":23,"source":"openstreetmap.org","min_zoom":8.0,"operator":"National Parks & Wildife Service NSW","tier":2,"id":395479855},"arcs":[[142]]}]}},"type":"Topology","transform":{"translate":[153.28125,-29.5352295629],"scale":[0.0003433228,0.0003005002]},"arcs":[[[902,0],[31,286],[0,386],[149,153],[97,198],[27,210],[-44,236],[291,348],[128,265],[36,177],[-9,218],[94,463],[-5,151],[-38,150],[-79,178],[-111,139],[58,259],[-4,241],[6,38]],[[902,0],[31,286],[0,386],[149,153],[97,198],[27,210],[-44,236],[291,348],[128,265],[36,177],[-9,218],[94,463],[-5,151],[-38,150],[-79,178],[-111,139],[58,259],[13,279]],[[183,0],[23,151],[34,65],[-8,29],[-10,61],[-3,64],[11,40],[28,51],[-9,46],[-50,72],[-27,128],[30,139],[59,131],[129,219],[9,36],[13,13],[55,19],[12,13],[-2,38],[-28,154],[2,29],[8,40],[44,125],[63,118],[133,188],[178,158],[69,95],[12,138],[-29,142],[3,73],[54,106],[0,40],[-7,39],[-1,34],[8,30],[27,64],[5,19],[-29,57],[-106,121],[-24,62],[-40,283],[3,145],[80,474],[0,47],[3194,0],[0,-4096],[-3913,0]],[[902,4096],[0,-47],[-80,-474],[-3,-145],[40,-283],[24,-62],[106,-121],[29,-57],[-5,-19],[-27,-64],[-8,-30],[1,-34],[7,-39],[0,-40],[-54,-106],[-3,-73],[29,-142],[-12,-138],[-69,-95],[-178,-158],[-133,-188],[-63,-118],[-44,-125],[-8,-40],[-2,-29],[28,-154],[2,-38],[-12,-13],[-55,-19],[-13,-13],[-9,-36],[-129,-219],[-59,-131],[-30,-139],[27,-128],[50,-72],[9,-46],[-28,-51],[-11,-40],[3,-64],[10,-61],[8,-29],[-34,-65],[-23,-151]],[[702,2822],[-117,-100],[-89,25],[-122,-52],[-20,-38],[-102,-20],[-100,-117],[-135,-77]],[[703,2823],[-1,-1]],[[702,2822],[1,1]],[[703,2824],[7,25]],[[703,2823],[0,1]],[[703,2824],[0,-1]],[[705,2824],[-2,-1]],[[707,2866],[3,-17]],[[710,2849],[-2,15]],[[703,2823]],[[703,2823]],[[9,2431],[0,-1],[-1,0],[0,1],[1,0]],[[721,2523],[11,273],[46,180]],[[780,3004],[-1,-62],[-3,-33],[-44,-113],[5,-50],[-1,-37],[-5,-34],[3,-15],[3,-98],[-16,-41]],[[751,3331],[0,-1]],[[767,3127],[0,35]],[[767,3162],[-1,14],[-5,37]],[[761,3213],[-2,16],[1,19]],[[760,3248],[0,-19],[1,-16]],[[761,3213],[6,-51]],[[767,3162],[0,-6],[1,-29]],[[191,2407],[-1,0]],[[193,2406],[-1,1]],[[211,2408],[1,0]],[[213,2408],[1,0]],[[703,2823],[30,15]],[[730,2846],[5,-7]],[[734,2839],[-2,3]],[[734,2838],[-1,0]],[[733,2838],[1,1]],[[735,2840],[1,0]],[[736,2840],[-1,-1]],[[736,2840],[4,3]],[[192,2407],[0,-1],[-1,1],[1,0]],[[212,2409],[1,-1],[-1,0],[0,1]],[[721,3443],[5,-18]],[[726,3423],[-4,17]],[[671,2235],[28,11]],[[699,2245],[-19,-8]],[[1,2399],[1,0],[-1,-1],[0,1]],[[680,2237],[-26,-7],[17,5]],[[708,2864],[28,63],[42,30]],[[774,2991],[1,1]],[[774,2991],[1,-51]],[[775,2991],[-1,0]],[[190,413],[-12,-44]],[[711,2854],[0,7]],[[25,2394],[-23,4]],[[34,2392],[-7,2]],[[1,2398],[-1,0]],[[0,2399],[1,0]],[[2,2399],[35,-5]],[[189,437],[15,-71],[-25,4],[2,-21],[40,-17]],[[699,2246],[11,58],[14,41],[-3,178]],[[721,2521],[3,-176],[0,-5],[-13,-36],[-5,-40],[-7,-19]],[[778,2976],[2,26]],[[780,3002],[-13,125]],[[768,3127],[3,-30]],[[691,3477],[1,-2]],[[692,3475],[-15,19],[-37,100],[65,123],[-9,379]],[[698,4096],[5,-182]],[[771,3097],[9,-84]],[[780,3009],[0,-5]],[[177,1542]],[[579,2106],[-26,-112]],[[625,2224],[29,6]],[[189,437],[15,-71],[-25,4],[2,-21],[40,-17]],[[0,1209],[121,141]],[[5,1214],[-5,-6]],[[121,1350],[-9,-29],[-23,-25],[-26,-18],[-55,-61]],[[122,1354],[-1,-4]],[[122,1354],[40,46]],[[162,1400],[13,142]],[[184,1544],[-9,-2]],[[184,1544],[105,45],[170,190],[63,23],[12,136],[91,286]],[[735,2840],[1,-1],[-1,-1],[-1,1],[1,1]],[[703,3914],[2,-197],[-65,-119],[51,-121]],[[8,1217],[-3,-3]],[[707,2866],[23,-20]],[[732,2842],[-24,22]],[[776,2992],[8,0]],[[784,2992],[-8,0]],[[776,2992],[0,-1],[-1,1],[1,1],[0,-1]],[[784,2992],[1,1],[1,-1],[-1,-1],[-1,1]],[[1,2417],[-1,0]],[[0,2417],[0,1]],[[1,2418],[0,1]],[[1,2419],[0,-1]],[[1,2418],[0,-1]],[[1,2417],[-1,1]],[[0,2418],[1,0]],[[8,2430],[-7,-11]],[[17,2443],[-9,-12]],[[60,2410],[-23,-16]],[[61,2410],[-1,0]],[[60,2410],[1,0]],[[61,2411],[3,0]],[[64,2411],[3,1],[40,-18]],[[66,2412],[-2,-1]],[[64,2411],[-2,-1]],[[137,2385],[-29,8]],[[108,2394],[0,-1],[-1,1],[1,0]],[[108,2394],[30,-9]],[[138,2385]],[[138,2385]],[[160,2390],[-22,-5]],[[138,2385],[21,5]],[[159,2390],[1,1],[0,-1]],[[160,2390],[-1,0]],[[160,2391],[32,16]],[[192,2407],[20,1]],[[213,2408],[116,-5],[116,-109],[151,-63],[83,12]],[[694,2243],[-15,0]],[[679,2243],[16,1]],[[61,2411],[1,0],[0,-1],[-1,0]],[[61,2410],[0,1]],[[694,2242],[1,2],[2,-1],[-1,-2],[-2,1]],[[722,3440],[-30,35]],[[692,3475],[29,-32]],[[760,3248],[-22,43],[0,9],[13,30],[0,7],[-21,25],[-10,36],[6,25]],[[726,3425],[4,-63],[14,-11],[7,-14],[0,-6]],[[751,3330],[-12,-39],[21,-43]],[[107,2393],[-41,19]],[[0,0],[0,4096],[902,0],[0,-47],[-80,-474],[-3,-145],[40,-283],[24,-62],[106,-121],[29,-57],[-5,-19],[-27,-64],[-8,-30],[1,-34],[7,-39],[0,-40],[-54,-106],[-3,-73],[29,-142],[-12,-138],[-69,-95],[-178,-158],[-133,-188],[-63,-118],[-44,-125],[-8,-40],[-2,-29],[28,-154],[2,-38],[-12,-13],[-55,-19],[-13,-13],[-9,-36],[-129,-219],[-59,-131],[-30,-139],[27,-128],[50,-72],[9,-46],[-28,-51],[-11,-40],[3,-64],[10,-61],[8,-29],[-34,-65],[-23,-151],[-183,0]],[[250,1903],[12,75],[33,10],[-4,-17],[3,-29],[5,-5],[-3,50],[35,-5],[-29,-48],[59,-84],[-78,-2],[5,25],[-38,30]],[[0,3281],[0,124],[29,-5],[64,-82],[58,16],[1,-36],[36,-5],[6,-53],[-70,-17],[0,-27],[-27,-5],[14,-41],[-47,4],[15,50],[-60,8],[12,25],[-27,43],[-4,1]],[[0,3696],[0,199],[29,-9],[-10,-56],[18,-9],[-27,-45],[70,2],[-13,-46],[-62,10],[0,-47],[-5,1]],[[0,932],[36,39],[-16,18],[18,104],[174,-12],[9,60],[30,-5],[14,53],[50,8],[-10,48],[15,-15],[4,-2],[-41,66],[7,46],[26,-4],[-6,-38],[58,-9],[-4,72],[28,-27],[64,44],[-43,-45],[57,-40],[20,21],[21,1],[-170,-214],[-161,-323],[4,-144],[28,-44],[26,8],[40,-34],[-12,-109],[-20,16],[-24,-27],[32,69],[-14,38],[9,1],[6,3],[7,4],[2,5],[-24,-12],[-36,40],[-98,15],[-12,62],[-9,16],[10,27],[-5,7],[9,11],[2,9],[-9,36],[-11,4],[19,-38],[-17,-28],[6,-11],[-5,-17],[8,-45],[-92,14],[0,278]],[[76,0],[23,4],[-12,49],[27,13],[-13,43],[38,13],[0,52],[27,-12],[43,46],[13,-31],[33,-5],[-29,-44],[5,-112],[-155,-16]],[[308,1512],[56,160],[91,21],[-59,-123],[3,-15],[58,137],[3,-19],[21,3],[14,-21],[1,-2],[3,1],[1,11],[-7,-3],[-11,15],[-16,5],[37,3],[8,51],[-32,-3],[11,35],[58,-22],[-106,-298],[-41,90],[9,-58],[-43,-25],[-32,27],[16,24],[-43,6]],[[0,1141],[0,55],[6,21],[54,-12],[46,-45],[-16,-31],[-45,7],[-3,-19],[-42,24]],[[493,3757],[7,133],[67,-12],[-8,-51],[48,-8],[-5,-32],[-27,4],[1,-61],[-16,31],[-67,-4]],[[63,3594],[70,-1],[28,-35],[62,-10],[6,34],[1,0],[-1,1],[0,2],[61,-10],[0,76],[48,-7],[7,42],[42,-31],[13,39],[20,-3],[-17,-39],[-90,-59],[23,-44],[34,0],[-5,-29],[-69,39],[-4,-24],[-33,25],[-4,-121],[112,-71],[-8,-53],[26,-25],[-6,-17],[1,5],[-3,5],[-3,3],[-6,0],[-4,5],[-1,11],[0,-11],[52,-60],[-63,29],[9,46],[-35,76],[-88,3],[9,-25],[61,-6],[-11,-70],[-25,45],[-101,12],[-9,58],[38,-2],[15,50],[-28,5],[-21,57],[-50,12],[7,38],[-60,35]],[[0,3696],[0,197],[29,-7],[-10,-56],[18,-9],[-27,-45],[70,2],[-13,-46],[-62,10],[0,-47],[-5,1]],[[125,3008],[9,94],[30,-26],[79,0],[-23,-52],[-47,25],[-15,-75],[-33,34]],[[0,3281],[0,124],[29,-4],[64,-83],[57,17],[2,-37],[36,-5],[-8,-23],[43,9],[-1,-52],[-10,-8],[14,2],[62,-57],[39,-91],[-55,36],[3,-73],[-34,-49],[21,93],[-98,-4],[-35,47],[-1,-58],[-39,7],[17,29],[-28,5],[8,46],[-28,12],[21,40],[-60,8],[12,25],[-27,43],[-4,1]],[[130,3146],[28,69],[-28,-49],[0,-20]],[[0,2351],[0,121],[7,-4],[51,-127],[-58,10]],[[774,3282],[22,24],[87,-290],[-58,30],[6,39],[-23,18],[26,1],[-60,178]]]}