{"objects":{"water":{"type":"GeometryCollection","geometries":[{"type":"MultiPolygon","properties":{"source":"naturalearthdata.com","kind":"ocean","area":1576712559132672,"sort_rank":200,"min_zoom":0.0,"id":1},"arcs":[[[8],[9],[10],[11],[12]],[[13]]]},{"type":"MultiLineString","properties":{"source":"naturalearthdata.com","kind":"ocean","sort_rank":205,"boundary":true,"min_zoom":0.0,"id":27},"arcs":[[14],[15],[16]]},{"type":"LineString","properties":{"source":"naturalearthdata.com","kind":"ocean","sort_rank":205,"boundary":true,"min_zoom":0.0,"id":1809},"arcs":[17]},{"type":"LineString","properties":{"source":"naturalearthdata.com","kind":"ocean","sort_rank":205,"boundary":true,"min_zoom":0.0,"id":1849},"arcs":[18]},{"type":"LineString","properties":{"source":"naturalearthdata.com","kind":"ocean","sort_rank":205,"boundary":true,"min_zoom":0.0,"id":1850},"arcs":[19]},{"type":"LineString","properties":{"source":"naturalearthdata.com","kind":"ocean","sort_rank":205,"boundary":true,"min_zoom":0.0,"id":4081},"arcs":[20]},{"type":"LineString","properties":{"source":"naturalearthdata.com","kind":"ocean","sort_rank":205,"boundary":true,"min_zoom":0.0,"id":4082},"arcs":[21]}]},"buildings":{"type":"GeometryCollection","geometries":[]},"places":{"type":"GeometryCollection","geometries":[{"type":"Point","properties":{"kind":"locality","name:en":"Yuzhno-Kurilsk","name":"\u042e\u0436\u043d\u043e-\u041a\u0443\u0440\u0438\u043b\u044c\u0441\u043a","name:ko":"\uc720\uc988\ub178\ucfe0\ub9b4\uc2a4\ud06c","kind_detail":"town","name:de":"Juschno-Kurilsk","source":"openstreetmap.org","min_zoom":8.0,"name:pl":"Ju\u017cno-Kurilsk","population":7518,"id":1373610125,"name:ja":"\u30e6\u30b8\u30ce=\u30af\u30ea\u30ea\u30b9\u30af"},"coordinates":[2964,3853]},{"type":"Point","properties":{"kind":"locality","name:en":"Rausu","name":"\u7f85\u81fc\u753a","kind_detail":"town","source":"openstreetmap.org","min_zoom":8.0,"name:uk":"\u0420\u0430\u0443\u0441\u0443","name:ru":"\u0420\u0430\u0443\u0441\u0443","population":6202,"id":405211118,"name:ja":"Rausu-ch\u014d"},"coordinates":[875,3922]}]},"transit":{"type":"GeometryCollection","geometries":[]},"pois":{"type":"GeometryCollection","geometries":[{"type":"Point","properties":{"kind":"nature_reserve","name:en":"Small Kurils","tier":2,"protect_class":"4","area":418492000,"official_name":"\u0413\u043e\u0441\u0443\u0434\u0430\u0440\u0441\u0442\u0432\u0435\u043d\u043d\u044b\u0439 \u043f\u0440\u0438\u0440\u043e\u0434\u043d\u044b\u0439 \u0437\u0430\u043a\u0430\u0437\u043d\u0438\u043a \u0444\u0435\u0434\u0435\u0440\u0430\u043b\u044c\u043d\u043e\u0433\u043e \u0437\u043d\u0430\u0447\u0435\u043d\u0438\u044f \u00ab\u041c\u0430\u043b\u044b\u0435 \u041a\u0443\u0440\u0438\u043b\u044b\u00bb","name:de":"Kleine Kurilen","source":"openstreetmap.org","min_zoom":7.94,"operator":"\u0424\u0413\u0423 \u00ab\u0413\u043e\u0441\u0443\u0434\u0430\u0440\u0441\u0442\u0432\u0435\u043d\u043d\u044b\u0439 \u043f\u0440\u0438\u0440\u043e\u0434\u043d\u044b\u0439 \u0437\u0430\u043f\u043e\u0432\u0435\u0434\u043d\u0438\u043a \u00ab\u041a\u0443\u0440\u0438\u043b\u044c\u0441\u043a\u0438\u0439\u00bb","id":-3176560,"osm_relation":true,"name":"\u041c\u0430\u043b\u044b\u0435 \u043a\u0443\u0440\u0438\u043b\u044b"},"coordinates":[3697,1545]}]},"boundaries":{"type":"GeometryCollection","geometries":[{"type":"LineString","properties":{"name:right:yo":"R\u1ecd\u0301s\u00ed\u00e0","name:left:ch":"Chapan","name:left:sd":"\u062c\u0627\u067e\u0627\u0646","name:right:yi":"\u05e8\u05d5\u05e1\u05dc\u05d0\u05e0\u05d3","name:left:la":"Iaponia","name:right:qu":"Rusiya","old_name:right:ru":"\u0420\u0443\u0441\u044c;\u0417\u043e\u043b\u043e\u0442\u0430\u044f \u041e\u0440\u0434\u0430;\u0420\u0443\u0441\u0441\u043a\u043e\u0435 \u0426\u0430\u0440\u0441\u0442\u0432\u043e;\u0420\u043e\u0441\u0441\u0438\u0439\u0441\u043a\u0430\u044f \u0418\u043c\u043f\u0435\u0440\u0438\u044f;\u0421\u043e\u044e\u0437 \u0421\u043e\u0432\u0435\u0442\u0441\u043a\u0438\u0445 \u0421\u043e\u0446\u0438\u0430\u043b\u0438\u0441\u0442\u0438\u0447\u0435\u0441\u043a\u0438\u0445 \u0420\u0435\u0441\u043f\u0443\u0431\u043b\u0438\u043a","name:left:vi":"Nh\u1eadt B\u1ea3n","name:left:sw":"Japani","name:left:ka":"\u10d8\u10d0\u10de\u10dd\u10dc\u10d8\u10d0","name:left:km":"\u1787\u1794\u17c9\u17bb\u1793","name:left:kl":"Japani","name:left:ko":"\uc77c\ubcf8","name:left:kn":"\u0c9c\u0caa\u0cbe\u0ca8\u0ccd","name:left:ki":"Japan","name:right:rw":"Uburusiya","name:left:kk":"\u0416\u0430\u043f\u043e\u043d\u0438\u044f","name:left:rm":"Giapun","name:left:ku":"Japon","name:left:kw":"Nihon","name:left:kv":"\u042f\u043f\u043e\u043d\u0438\u044f","name:right:rn":"Uburusiya","name:right:ro":"Rusia","name:left:ru":"\u042f\u043f\u043e\u043d\u0438\u044f","name:right:ig":"Mpaghara Russia","name:right:ie":"Russia","name:right:id":"Rusia","name:left:ky":"\u0416\u0430\u043f\u043e\u043d\u0438\u044f","name:right:ia":"Russia","name:right:bi":"Rusia","name:right:bn":"\u09b0\u09be\u09b6\u09bf\u09af\u09bc\u09be","name:right:bo":"\u0f68\u0f74\u0f0b\u0f62\u0f74\u0f0b\u0f66\u0f74\u0f0d","name:right:bm":"Risila","name:right:ba":"\u0420\u04d9\u0441\u04d9\u0439","name:right:bg":"\u0420\u0443\u0441\u0438\u044f","name:right:be":"\u0420\u0430\u0441\u0456\u0439\u0441\u043a\u0430\u044f \u0424\u0435\u0434\u044d\u0440\u0430\u0446\u044b\u044f","name:right:br":"Rusia","name:left:lt":"Japonija","name:right:nn":"Russland","name:right:xh":"IRashiya","name:right:nl":"Russische Federatie","name:right:wa":"Feder\u00e5cion d' R\u00fbsseye","name:left:lv":"Jap\u0101na","name:right:wo":"Federaasio\u014b bu Riisi","name:right:ne":"\u0930\u0941\u0938","name:right:na":"Ratsiya","name:right:ps":"\u0631\u0648\u0633\u06cc\u0647","alt_name:left:vi":"Nh\u1eadt","name:right:nv":"Bi\u02bc\u00e9\u00e9\u02bc \u0141ich\u00ed\u00ed\u02bc\u00ed Bik\u00e9yah","name:left:mg":"Japana","kind_detail":"2","name:left:tr":"Japonya","name:right:gu":"\u0ab0\u0ab6\u0abf\u0aaf\u0abe","name:left:ty":"T\u0101p\u014dn\u0113","name:right:gv":"Yn Roosh","name:right:pt":"R\u00fassia","name:left:mk":"\u0408\u0430\u043f\u043e\u043d\u0438\u0458\u0430","name:left:mi":"Nipono","name:left:tt":"\u042f\u043f\u043e\u043d\u0438\u044f","name:left:mn":"\u042f\u043f\u043e\u043d","name:left:ml":"\u0d1c\u0d2a\u0d4d\u0d2a\u0d3e\u0d7b","name:left:th":"\u0e1b\u0e23\u0e30\u0e40\u0e17\u0e28\u0e0d\u0e35\u0e48\u0e1b\u0e38\u0e48\u0e19","name:left:mr":"\u091c\u092a\u093e\u0928","name:left:tk":"\u00ddaponi\u00fda","name:left:tl":"Hapon","name:left:mt":"\u0120appun","name:right:gl":"Rusia","name:left:my":"\u1002\u103b\u1015\u1014\u103a\u1014\u102d\u102f\u1004\u103a\u1004\u1036","name:right:gn":"Rrusia","name:right:pl":"Rosja","name:left:te":"\u0c1c\u0c2a\u0c3e\u0c28\u0c4d","name:left:tg":"\u0416\u043e\u043f\u0443\u043d","name:left:ms":"Jepun","name:left:ti":"\u1303\u1353\u1295","name:right:tr":"Rusya Federasyonu","name:left:da":"Japan","name:left:de":"Japan","name:left:dz":"\u0f47\u0f71\u0f0b\u0f54\u0f71\u0f53\u0f0d","name:right:ga":"An R\u00fais","name:left:dv":"\u0796\u07a6\u0795\u07a7\u0782\u07aa","name:right:lg":"Rwasha","name:right:ug":"\u0631\u0648\u0633\u0649\u064a\u06d5","name:left:hi":"\u091c\u093e\u092a\u093e\u0928","name:right:lb":"Russland","name:right:uk":"\u0420\u043e\u0441\u0456\u044f","name:left:ca":"Jap\u00f3","name:right:ln":"Rus\u00ed","name:right:lo":"\u0ea5\u0eb1\u0e94\u0ec0\u0e8a\u0eb1\u0ebd","name:left:ha":"Japan","name:right:lt":"Rusija","name:right:ur":"\u0631\u0648\u0633","name:right:lv":"Krievija","name:left:hy":"\u0543\u0561\u057a\u0578\u0576\u056b\u0561","name:left:ta":"\u0b9c\u0baa\u0bcd\u0baa\u0bbe\u0ba9\u0bcd","name:left:ht":"Japon","name:left:hu":"Jap\u00e1n","name:left:hr":"Japan","source":"openstreetmap.org","sort_rank":262,"name:right:gd":"An Ruis","name:right:os":"\u0423\u00e6\u0440\u00e6\u0441\u0435","name:left:cy":"Japan","name:right:es":"Rusia","name:right:sr":"\u0420\u0443\u0441\u0438\u0458\u0430","name:right:eu":"Errusia","name:right:et":"Venemaa","name:left:os":"\u042f\u043f\u043e\u043d","name:left:or":"\u0b1c\u0b3e\u0b2a\u0b3e\u0b28","name:left:om":"Jaappaan","name:right:pa":"\u0a30\u0a42\u0a38","name:right:ee":"Russia","name:left:vo":"Yap\u00e4n","name:left:oc":"Japon","name:right:eo":"Rusujo","name:right:en":"Russia","name:right:el":"\u03a1\u03c9\u03c3\u03af\u03b1","name:right:tt":"\u0420\u0443\u0441\u0438\u044f","name:left:fa":"\u0698\u0627\u067e\u0646","name:left:fo":"Japan","name:right:sk":"Rusko","name:left:fi":"Japani","name:left:fr":"Japon","name:left:cs":"Japonsko","name:right:jv":"Rusia","name:left:fy":"Japan","name:right:ja":"\u30ed\u30b7\u30a2","name:right:sq":"Rusia","name:right:ss":"IRashiya","name:left:ja":"Nippon","name:right:su":"Rusia","name:right:st":"Russia","name:right:sw":"Shirikisho la Urusi","name:right:sv":"Ryssland","name:right:si":"\u0dbb\u0dd4\u0dc3\u0dd2\u0dba\u0dcf\u0dc0","name:right:sh":"Rusija","name:left:qu":"Nihun","name:right:sm":"Lusia","name:right:sl":"Rusija","name:right:so":"Ruushka","name:right:sn":"Russia","name:right:sc":"R\u00f9ssia","name:left:jv":"Jepang","id":-382313,"name:right:sg":"Rus\u00efi","name:right:ch":"Russia","name:right:co":"Russia","name:right:ca":"R\u00fassia","name:right:se":"Ruo\u0161\u0161a","name:right:ce":"\u0420\u043e\u0441\u0441\u0438","name:right:sd":"\u0631\u0648\u0633","name:right:cy":"Rwsia","name:right:zh-yue":"\u4fc4\u7f85\u65af","name:right:cs":"Rusko","name:right:cu":"\u0420\u0461\u0441\u0457\ua657","name:right:iu":"\u1405\u14db\u14f4","name:right:cv":"\u0420\u0430\u00e7\u00e7\u0435\u0439 \u041f\u0430\u0442\u0448\u0430\u043b\u0103\u0445\u0115","name:right:it":"Russia","name:left:ar":"\u0627\u0644\u064a\u0627\u0628\u0627\u0646","old_name:left:vi":"Nh\u1eadt B\u1ed5n","name:right:is":"R\u00fassland","name:left:az":"Yaponiya","name:left:ay":"Nihun","name:left:ro":"Japonia","name:left:af":"Japan","name:left:ab":"\u0418\u0430\u043f\u043e\u043d\u0438\u0430","name:left:an":"Chap\u00f3n","name:left:am":"\u1303\u1353\u1295","name:right:io":"Rusia","name:right:ik":"Russia","name:left:rw":"Ubuyapani","name:right:hy":"\u054c\u0578\u0582\u057d\u0561\u057d\u057f\u0561\u0576","name:left:lb":"Japan","alt_name:left:eo":"Japanio","name:left:su":"Jepang","name:left:li":"Japan","name:right:hr":"Ruska Federacija","name:left:sv":"Japan","name:left:sq":"Japonia","name:right:hu":"Oroszorsz\u00e1g","name:left:ss":"IJaphani","name:left:sr":"\u0408\u0430\u043f\u0430\u043d","name:left:sm":"Iapani","name:right:hi":"\u0930\u0942\u0938","name:left:so":"Jabaan","name:left:si":"\u0da2\u0db4\u0dcf\u0db1\u0dba","name:left:sh":"Japan","name:left:sk":"Japonsko","name:left:se":"J\u00e1hpan","name:right:ha":"Rasha","name:left:sa":"\u0938\u0942\u0930\u094d\u092f\u092e\u0942\u0932","name:right:he":"\u05e8\u05d5\u05e1\u05d9\u05d4","name:left:sc":"Giappone","name:right:la":"Russia","name:right:af":"Rusland","name:right:ab":"\u0423\u0440\u044b\u0441\u0442\u04d9\u044b\u043b\u0430","name:left:ce":"\u042f\u043f\u043e\u043d\u0438","name:right:an":"Rusia","name:right:am":"\u1229\u1232\u12eb","name:right:ak":"Russia","name:right:av":"\u0420\u043e\u0441\u0441\u0438\u044f\u043b\u044a\u0443\u043b \u0424\u0435\u0434\u0435\u0440\u0430\u0446\u0438\u044f","name:right:as":"\u09f0\u09c1\u09b6\u09bf\u09af\u09be","name:right:ar":"\u0631\u0648\u0633\u064a\u0627","name:left:he":"\u05d9\u05e4\u05df","name:left:cu":"\ua656\u043f\u0461\u043d\u0457\ua657","name:left:cv":"\u042f\u043f\u043e\u043d\u0438","name:right:az":"Rusiya","name:right:ay":"Rusiya","name:right:li":"Rusland","name:right:rm":"Russia","name":"\u65e5\u672c - \u0420\u043e\u0441\u0441\u0438\u044f","name:right:zu":"IRashiya","name:left:zu":"IJapani","name:right:za":"Ezlozswh Lienzbangh","name:right:zh":"\u4fc4\u7f57\u65af","name:left:za":"Nditbonj","name:left:uz":"Yaponiya","name:right:fr":"F\u00e9d\u00e9ration de Russie","name:left:ps":"\u062c\u0627\u067e\u0627\u0646","name:left:nv":"Bina\u02bcadaa\u0142tz\u00f3z\u00ed Din\u00e9\u02bci\u02bc Bik\u00e9yah","name:left:ur":"\u062c\u0627\u067e\u0627\u0646","id:right":-60189,"name:left:uk":"\u042f\u043f\u043e\u043d\u0456\u044f","name:left:no":"Japan","name:left:nl":"Japan","alt_name:right:eo":"Rusio;Ruslando","name:right:fa":"\u0631\u0648\u0633\u06cc\u0647","name:right:fo":"Russland","name:left:ne":"\u091c\u093e\u092a\u093e\u0928","name:left:ug":"\u064a\u0627\u067e\u0648\u0646\u0649\u064a\u06d5","name:right:fi":"Ven\u00e4j\u00e4","name:left:eo":"Japanujo","name:left:en":"Japan","name:left:el":"\u0399\u03b1\u03c0\u03c9\u03bd\u03af\u03b1","name:left:ee":"Japan","name:left:pl":"Japonia","name:left:es":"Jap\u00f3n","name:left:ie":"Japan","name:left:eu":"Japonia","name:left:et":"Jaapan","name:right:om":"Raashiyaa","name:right:zh-min-nan":"L\u014d\u0358-se-a","name:left:id":"Jepang","old_name:right":"\u0420\u0443\u0441\u044c;\u0417\u043e\u043b\u043e\u0442\u0430\u044f \u041e\u0440\u0434\u0430;\u0420\u0443\u0441\u0441\u043a\u043e\u0435 \u0426\u0430\u0440\u0441\u0442\u0432\u043e;\u0420\u043e\u0441\u0441\u0438\u0439\u0441\u043a\u0430\u044f \u0418\u043c\u043f\u0435\u0440\u0438\u044f;\u0421\u043e\u044e\u0437 \u0421\u043e\u0432\u0435\u0442\u0441\u043a\u0438\u0445 \u0421\u043e\u0446\u0438\u0430\u043b\u0438\u0441\u0442\u0438\u0447\u0435\u0441\u043a\u0438\u0445 \u0420\u0435\u0441\u043f\u0443\u0431\u043b\u0438\u043a","name:right:oc":"Russia","name:left:ia":"Japon","name:right:bs":"Rusija","short_name:right":"\u0420\u0424","name:right:ts":"Russia","name:right:uz":"Rossiya Federatsiyasi","osm_relation":true,"name:right:or":"\u0b0b\u0b37\u0b3f\u0b06","name:left:pt":"Jap\u00e3o","name:right:ku":"R\u00fbsya","name:right:no":"Rusland","name:right:kv":"\u0420\u043e\u0447\u043c\u0443","name:left:gl":"Xap\u00f3n","min_zoom":8.0,"name:left:sl":"Japonska","name:left:zh-min-nan":"Ji\u030dt-p\u00fan","name:left:ln":"Zap\u0254\u0301","name:left:wo":"Sapo\u014b","name:left:ga":"An tSeap\u00e1in","name:left:it":"Giappone","name:left:gd":"An t-Seapan","int_name:right":"Russia","name:left:gn":"Hap\u00f5","name:left:gu":"\u0a9c\u0abe\u0aaa\u0abe\u0aa8","name:left:gv":"Yn \u00c7hapaan","name:left:lo":"\u0e9b\u0eb0\u0ec0\u0e97\u0e94\u0e8d\u0eb5\u0ec8\u0e9b\u0eb8\u0ec8\u0e99","name:left":"\u65e5\u672c","name:right:mk":"\u0420\u0443\u0441\u0438\u0458\u0430","name:right:mi":"R\u016bhia","name:right:ve":"Rashia","name:right:mn":"\u041e\u0440\u043e\u0441\u044b\u043d \u0425\u043e\u043b\u0431\u043e\u043e\u043d\u044b \u0423\u043b\u0441","name:right:ml":"\u0d31\u0d37\u0d4d\u0d2f","name:right:vo":"Rus\u00e4n","name:right:mg":"Rosia","name:right:vi":"Li\u00ean bang Nga","official_name:right":"\u0420\u043e\u0441\u0441\u0438\u0439\u0441\u043a\u0430\u044f \u0424\u0435\u0434\u0435\u0440\u0430\u0446\u0438\u044f","name:right:my":"\u101b\u102f\u101b\u103e\u102c\u1038\u1014\u102d\u102f\u1004\u103a\u1004\u1036","name:right:ms":"Rusia","name:right:mr":"\u0930\u0936\u093f\u092f\u093e","name:right:fy":"Rusl\u00e2n","name:right:mt":"Russja","name:left:nn":"Japan","kind":"country","name:left:tw":"Yapan","name:left:br":"Japan","name:left:bs":"Japan","old_name:right:pl":"Zwi\u0105zek Socjalistycznych Republik Radzieckich","name:right:ny":"Russia","name:left:ba":"\u042f\u043f\u043e\u043d\u0438\u044f","name:left:bg":"\u042f\u043f\u043e\u043d\u0438\u044f","name:left:be":"\u042f\u043f\u043e\u043d\u0456\u044f","name:right:ff":"Roosiya","name:left:bn":"\u099c\u09be\u09aa\u09be\u09a8","name:left:bo":"\u0f62\u0f72\u0f0b\u0f54\u0f72\u0f53\u0f0d","name:right":"\u0420\u043e\u0441\u0441\u0438\u044f","name:left:yo":"Japan","name:left:yi":"\u05d9\u05d0\u05e4\u05d0\u05df","id:left":-382313,"name:left:na":"Djapan","name:right:ka":"\u10e0\u10e3\u10e1\u10d4\u10d7\u10d8","name:left:io":"Japonia","name:right:ty":"R\u016btia","name:right:kg":"Rusia","name:right:ki":"Russia","name:right:kk":"\u0420\u0435\u0441\u0435\u0439","name:right:tw":"Russia","name:right:km":"\u179a\u17bb\u179f\u17d2\u179f\u17ca\u17b8","name:right:kl":"Ruslandi","name:right:ko":"\ub7ec\uc2dc\uc544","name:right:kn":"\u0cb0\u0cb7\u0ccd\u0caf\u0cbe","name:right:tl":"Pederasyong Ruso","name:right:ks":"\u0631\u0648\u0657\u0633","name:right:to":"L\u016bsia","name:right:th":"\u0e1b\u0e23\u0e30\u0e40\u0e17\u0e28\u0e23\u0e31\u0e2a\u0e40\u0e0b\u0e35\u0e22","name:right:ti":"\u122b\u123b","name:right:kw":"Russi","name:right:tk":"Russi\u00fda","name:right:ky":"\u041e\u0440\u0443\u0441\u0438\u044f","name:right:te":"\u0c30\u0c37\u0c4d\u0c2f\u0c3e","name:left:iu":"\u14c3\u1449\u140a\u14d0","name:right:tg":"\u0420\u0443\u0441\u0438\u044f","name:left:is":"Japan","name:right:ta":"\u0b89\u0bb0\u0bc1\u0b9a\u0bbf\u0baf\u0bbe","name:right:de":"Russland","name:right:da":"Rusland","name:right:dz":"\u0f62\u0f0b\u0f64\u0f72\u0f0b\u0f61\u0f71\u0f53\u0f0b\u0f55\u0f7a\u0f0b\u0f4c\u0f72\u0f0b\u0f62\u0f7a\u0f0b\u0f64\u0f71\u0f53","name:left:pa":"\u0a1c\u0a2a\u0a3e\u0a28","name:right:dv":"\u0783\u07ab\u0790\u07a9\u0788\u07a8\u078d\u07a7\u078c\u07b0","name:right:ht":"Risi"},"arcs":[0]},{"type":"LineString","properties":{"name:ty":"T\u0101p\u014dn\u0113","name:ka":"\u10d8\u10d0\u10de\u10dd\u10dc\u10d8\u10d0","name:ko":"\uc77c\ubcf8","name:cv":"\u042f\u043f\u043e\u043d\u0438","name:cu":"\ua656\u043f\u0461\u043d\u0457\ua657","name:kl":"Japani","name:cs":"Japonsko","name:tw":"Yapan","name:ki":"Japan","name:kw":"Nihon","name:kv":"\u042f\u043f\u043e\u043d\u0438\u044f","name:th":"\u0e1b\u0e23\u0e30\u0e40\u0e17\u0e28\u0e0d\u0e35\u0e48\u0e1b\u0e38\u0e48\u0e19","name:ti":"\u1303\u1353\u1295","name:tl":"Hapon","name:ch":"Chapan","name:ce":"\u042f\u043f\u043e\u043d\u0438","name:ta":"\u0b9c\u0baa\u0bcd\u0baa\u0bbe\u0ba9\u0bcd","name:tg":"\u0416\u043e\u043f\u0443\u043d","name:ca":"Jap\u00f3","name:te":"\u0c1c\u0c2a\u0c3e\u0c28\u0c4d","name:cy":"Japan","name:qu":"Nihun","name:da":"Japan","name:de":"Japan","name:dz":"\u0f47\u0f71\u0f0b\u0f54\u0f71\u0f53\u0f0d","source":"openstreetmap.org","name:kn":"\u0c9c\u0caa\u0cbe\u0ca8\u0ccd","name:dv":"\u0796\u07a6\u0795\u07a7\u0782\u07aa","name:km":"\u1787\u1794\u17c9\u17bb\u1793","name:lv":"Jap\u0101na","name:lt":"Japonija","name:uz":"Yaponiya","name:kk":"\u0416\u0430\u043f\u043e\u043d\u0438\u044f","name:ur":"\u062c\u0627\u067e\u0627\u0646","name:lb":"Japan","name:la":"Iaponia","name:tt":"\u042f\u043f\u043e\u043d\u0438\u044f","name:uk":"\u042f\u043f\u043e\u043d\u0456\u044f","name:ug":"\u064a\u0627\u067e\u0648\u0646\u0649\u064a\u06d5","name:li":"Japan","name:ln":"Zap\u0254\u0301","name:lo":"\u0e9b\u0eb0\u0ec0\u0e97\u0e94\u0e8d\u0eb5\u0ec8\u0e9b\u0eb8\u0ec8\u0e99","name:el":"\u0399\u03b1\u03c0\u03c9\u03bd\u03af\u03b1","name:eo":"Japanujo","name:en":"Japan","name":"\u65e5\u672c","name:tk":"\u00ddaponi\u00fda","name:ee":"Japan","name:ku":"Japon","name:eu":"Japonia","name:et":"Jaapan","name:es":"Jap\u00f3n","name:ay":"Nihun","name:rm":"Giapun","name:az":"Yaponiya","name:ie":"Japan","name:id":"Jepang","name:ar":"\u0627\u0644\u064a\u0627\u0628\u0627\u0646","name:io":"Japonia","name:is":"Japan","name:am":"\u1303\u1353\u1295","name:it":"Giappone","name:an":"Chap\u00f3n","name:ru":"\u042f\u043f\u043e\u043d\u0438\u044f","name:ab":"\u0418\u0430\u043f\u043e\u043d\u0438\u0430","name:af":"Japan","name:zu":"IJapani","kind_detail":"2","name:za":"Nditbonj","name:so":"Jabaan","name:sm":"Iapani","name:sl":"Japonska","name:sk":"Japonsko","name:ja":"Nippon","name:si":"\u0da2\u0db4\u0dcf\u0db1\u0dba","name:sh":"Japan","name:se":"J\u00e1hpan","name:sd":"\u062c\u0627\u067e\u0627\u0646","name:sc":"Giappone","name:br":"Japan","name:bs":"Japan","name:bn":"\u099c\u09be\u09aa\u09be\u09a8","name:bo":"\u0f62\u0f72\u0f0b\u0f54\u0f72\u0f53\u0f0d","name:sa":"\u0938\u0942\u0930\u094d\u092f\u092e\u0942\u0932","name:sw":"Japani","name:be":"\u042f\u043f\u043e\u043d\u0456\u044f","name:su":"Jepang","name:bg":"\u042f\u043f\u043e\u043d\u0438\u044f","name:ss":"IJaphani","name:ba":"\u042f\u043f\u043e\u043d\u0438\u044f","name:sq":"Japonia","name:jv":"Jepang","name:ia":"Japon","name:pt":"Jap\u00e3o","name:ps":"\u062c\u0627\u067e\u0627\u0646","name:om":"Jaappaan","name:oc":"Japon","min_zoom":8.0,"name:ro":"Japonia","name:zh-min-nan":"Ji\u030dt-p\u00fan","name:os":"\u042f\u043f\u043e\u043d","name:or":"\u0b1c\u0b3e\u0b2a\u0b3e\u0b28","name:pl":"Japonia","sort_rank":262,"name:sr":"\u0408\u0430\u043f\u0430\u043d","osm_relation":true,"name:pa":"\u0a1c\u0a2a\u0a3e\u0a28","name:tr":"Japonya","name:hi":"\u091c\u093e\u092a\u093e\u0928","name:sv":"Japan","name:he":"\u05d9\u05e4\u05df","name:ha":"Japan","name:hy":"\u0543\u0561\u057a\u0578\u0576\u056b\u0561","name:ht":"Japon","name:hu":"Jap\u00e1n","name:hr":"Japan","kind":"country","name:yi":"\u05d9\u05d0\u05e4\u05d0\u05df","name:iu":"\u14c3\u1449\u140a\u14d0","name:yo":"Japan","name:mt":"\u0120appun","alt_name:eo":"Japanio","name:ms":"Jepun","name:mr":"\u091c\u092a\u093e\u0928","name:my":"\u1002\u103b\u1015\u1014\u103a\u1014\u102d\u102f\u1004\u103a\u1004\u1036","name:mg":"Japana","name:vi":"Nh\u1eadt B\u1ea3n","name:ml":"\u0d1c\u0d2a\u0d4d\u0d2a\u0d3e\u0d7b","name:mn":"\u042f\u043f\u043e\u043d","name:mi":"Nipono","id":-382313,"name:mk":"\u0408\u0430\u043f\u043e\u043d\u0438\u0458\u0430","name:vo":"Yap\u00e4n","name:fa":"\u0698\u0627\u067e\u0646","name:rw":"Ubuyapani","name:fi":"Japani","name:ky":"\u0416\u0430\u043f\u043e\u043d\u0438\u044f","old_name:vi":"Nh\u1eadt B\u1ed5n","name:fo":"Japan","alt_name:vi":"Nh\u1eadt","name:fr":"Japon","name:fy":"Japan","name:nl":"Japan","name:nn":"Japan","name:no":"Japan","name:na":"Djapan","name:ne":"\u091c\u093e\u092a\u093e\u0928","name:wo":"Sapo\u014b","name:nv":"Bina\u02bcadaa\u0142tz\u00f3z\u00ed Din\u00e9\u02bci\u02bc Bik\u00e9yah","name:ga":"An tSeap\u00e1in","name:gd":"An t-Seapan","name:gn":"Hap\u00f5","name:gl":"Xap\u00f3n","maritime_boundary":true,"name:gv":"Yn \u00c7hapaan","name:gu":"\u0a9c\u0abe\u0aaa\u0abe\u0aa8"},"arcs":[1]},{"type":"LineString","properties":{"name:kg":"Rusia","name:ty":"R\u016btia","name:cy":"Rwsia","name:ko":"\ub7ec\uc2dc\uc544","name:cv":"\u0420\u0430\u00e7\u00e7\u0435\u0439 \u041f\u0430\u0442\u0448\u0430\u043b\u0103\u0445\u0115","name:cu":"\u0420\u0461\u0441\u0457\ua657","name:kl":"Ruslandi","name:cs":"Rusko","name:tw":"Russia","name:ki":"Russia","name:co":"Russia","name:kv":"\u0420\u043e\u0447\u043c\u0443","name:th":"\u0e1b\u0e23\u0e30\u0e40\u0e17\u0e28\u0e23\u0e31\u0e2a\u0e40\u0e0b\u0e35\u0e22","name:ti":"\u122b\u123b","name:ks":"\u0631\u0648\u0657\u0633","name:to":"L\u016bsia","name:tl":"Pederasyong Ruso","name:ch":"Russia","name:ce":"\u0420\u043e\u0441\u0441\u0438","name:ta":"\u0b89\u0bb0\u0bc1\u0b9a\u0bbf\u0baf\u0bbe","name:tg":"\u0420\u0443\u0441\u0438\u044f","name:ca":"R\u00fassia","name:te":"\u0c30\u0c37\u0c4d\u0c2f\u0c3e","name:ka":"\u10e0\u10e3\u10e1\u10d4\u10d7\u10d8","old_name:pl":"Zwi\u0105zek Socjalistycznych Republik Radzieckich","name:hr":"Ruska Federacija","name:da":"Rusland","name:de":"Russland","name:dz":"\u0f62\u0f0b\u0f64\u0f72\u0f0b\u0f61\u0f71\u0f53\u0f0b\u0f55\u0f7a\u0f0b\u0f4c\u0f72\u0f0b\u0f62\u0f7a\u0f0b\u0f64\u0f71\u0f53","source":"openstreetmap.org","name:kn":"\u0cb0\u0cb7\u0ccd\u0caf\u0cbe","name:dv":"\u0783\u07ab\u0790\u07a9\u0788\u07a8\u078d\u07a7\u078c\u07b0","name:km":"\u179a\u17bb\u179f\u17d2\u179f\u17ca\u17b8","name:lv":"Krievija","name:lt":"Rusija","name:uz":"Rossiya Federatsiyasi","name:kk":"\u0420\u0435\u0441\u0435\u0439","name:ur":"\u0631\u0648\u0633","name:lb":"Russland","name:la":"Russia","name:lg":"Rwasha","name:uk":"\u0420\u043e\u0441\u0456\u044f","name:ug":"\u0631\u0648\u0633\u0649\u064a\u06d5","name:li":"Rusland","name:ln":"Rus\u00ed","name:lo":"\u0ea5\u0eb1\u0e94\u0ec0\u0e8a\u0eb1\u0ebd","name:el":"\u03a1\u03c9\u03c3\u03af\u03b1","name:eo":"Rusujo","name:en":"Russia","name":"\u0420\u043e\u0441\u0441\u0438\u044f","name:tk":"Russi\u00fda","name:ee":"Russia","name:ku":"R\u00fbsya","name:eu":"Errusia","name:et":"Venemaa","name:es":"Rusia","name:ay":"Rusiya","name:rm":"Russia","name:rn":"Uburusiya","name:az":"Rusiya","name:ie":"Russia","name:id":"Rusia","name:ig":"Mpaghara Russia","name:as":"\u09f0\u09c1\u09b6\u09bf\u09af\u09be","name:ar":"\u0631\u0648\u0633\u064a\u0627","name:io":"Rusia","name:av":"\u0420\u043e\u0441\u0441\u0438\u044f\u043b\u044a\u0443\u043b \u0424\u0435\u0434\u0435\u0440\u0430\u0446\u0438\u044f","name:ak":"Russia","name:am":"\u1229\u1232\u12eb","name:it":"Russia","name:an":"Rusia","name:ab":"\u0423\u0440\u044b\u0441\u0442\u04d9\u044b\u043b\u0430","name:af":"Rusland","name:zu":"IRashiya","kind_detail":"2","old_name:ru":"\u0420\u0443\u0441\u044c;\u0417\u043e\u043b\u043e\u0442\u0430\u044f \u041e\u0440\u0434\u0430;\u0420\u0443\u0441\u0441\u043a\u043e\u0435 \u0426\u0430\u0440\u0441\u0442\u0432\u043e;\u0420\u043e\u0441\u0441\u0438\u0439\u0441\u043a\u0430\u044f \u0418\u043c\u043f\u0435\u0440\u0438\u044f;\u0421\u043e\u044e\u0437 \u0421\u043e\u0432\u0435\u0442\u0441\u043a\u0438\u0445 \u0421\u043e\u0446\u0438\u0430\u043b\u0438\u0441\u0442\u0438\u0447\u0435\u0441\u043a\u0438\u0445 \u0420\u0435\u0441\u043f\u0443\u0431\u043b\u0438\u043a","name:za":"Ezlozswh Lienzbangh","name:zh-yue":"\u4fc4\u7f85\u65af","name:zh":"\u4fc4\u7f57\u65af","name:so":"Ruushka","name:sn":"Russia","name:sm":"Lusia","name:sl":"Rusija","name:sk":"Rusko","name:ja":"\u30ed\u30b7\u30a2","name:si":"\u0dbb\u0dd4\u0dc3\u0dd2\u0dba\u0dcf\u0dc0","name:sh":"Rusija","name:sg":"Rus\u00efi","name:se":"Ruo\u0161\u0161a","name:sd":"\u0631\u0648\u0633","name:sc":"R\u00f9ssia","name:br":"Rusia","name:bs":"Rusija","name:bm":"Risila","name:bn":"\u09b0\u09be\u09b6\u09bf\u09af\u09bc\u09be","name:bo":"\u0f68\u0f74\u0f0b\u0f62\u0f74\u0f0b\u0f66\u0f74\u0f0d","name:bi":"Rusia","name:sw":"Shirikisho la Urusi","name:be":"\u0420\u0430\u0441\u0456\u0439\u0441\u043a\u0430\u044f \u0424\u0435\u0434\u044d\u0440\u0430\u0446\u044b\u044f","name:su":"Rusia","name:bg":"\u0420\u0443\u0441\u0438\u044f","name:ss":"IRashiya","name:ba":"\u0420\u04d9\u0441\u04d9\u0439","name:sq":"Rusia","name:jv":"Rusia","name:ia":"Russia","name:pt":"R\u00fassia","name:ps":"\u0631\u0648\u0633\u06cc\u0647","name:om":"Raashiyaa","name:oc":"Russia","min_zoom":8.0,"name:ro":"Rusia","name:zh-min-nan":"L\u014d\u0358-se-a","name:os":"\u0423\u00e6\u0440\u00e6\u0441\u0435","name:or":"\u0b0b\u0b37\u0b3f\u0b06","name:pl":"Rosja","name:st":"Russia","sort_rank":262,"name:sr":"\u0420\u0443\u0441\u0438\u0458\u0430","osm_relation":true,"name:xh":"IRashiya","name:pa":"\u0a30\u0a42\u0a38","name:ik":"Russia","name:tr":"Rusya Federasyonu","name:hi":"\u0930\u0942\u0938","name:sv":"Ryssland","name:he":"\u05e8\u05d5\u05e1\u05d9\u05d4","name:ha":"Rasha","old_name":"\u0420\u0443\u0441\u044c;\u0417\u043e\u043b\u043e\u0442\u0430\u044f \u041e\u0440\u0434\u0430;\u0420\u0443\u0441\u0441\u043a\u043e\u0435 \u0426\u0430\u0440\u0441\u0442\u0432\u043e;\u0420\u043e\u0441\u0441\u0438\u0439\u0441\u043a\u0430\u044f \u0418\u043c\u043f\u0435\u0440\u0438\u044f;\u0421\u043e\u044e\u0437 \u0421\u043e\u0432\u0435\u0442\u0441\u043a\u0438\u0445 \u0421\u043e\u0446\u0438\u0430\u043b\u0438\u0441\u0442\u0438\u0447\u0435\u0441\u043a\u0438\u0445 \u0420\u0435\u0441\u043f\u0443\u0431\u043b\u0438\u043a","name:ht":"Risi","name:hu":"Oroszorsz\u00e1g","name:qu":"Rusiya","kind":"country","name:ts":"Russia","name:is":"R\u00fassland","name:yi":"\u05e8\u05d5\u05e1\u05dc\u05d0\u05e0\u05d3","name:iu":"\u1405\u14db\u14f4","name:yo":"R\u1ecd\u0301s\u00ed\u00e0","name:mt":"Russja","alt_name:eo":"Rusio;Ruslando","name:ms":"Rusia","name:mr":"\u0930\u0936\u093f\u092f\u093e","name:my":"\u101b\u102f\u101b\u103e\u102c\u1038\u1014\u102d\u102f\u1004\u103a\u1004\u1036","official_name":"\u0420\u043e\u0441\u0441\u0438\u0439\u0441\u043a\u0430\u044f \u0424\u0435\u0434\u0435\u0440\u0430\u0446\u0438\u044f","name:kw":"Russi","name:mg":"Rosia","name:ve":"Rashia","name:ml":"\u0d31\u0d37\u0d4d\u0d2f","name:vi":"Li\u00ean bang Nga","name:mn":"\u041e\u0440\u043e\u0441\u044b\u043d \u0425\u043e\u043b\u0431\u043e\u043e\u043d\u044b \u0423\u043b\u0441","name:mi":"R\u016bhia","id":-60189,"name:mk":"\u0420\u0443\u0441\u0438\u0458\u0430","name:vo":"Rus\u00e4n","name:fa":"\u0631\u0648\u0633\u06cc\u0647","name:rw":"Uburusiya","short_name":"\u0420\u0424","name:ff":"Roosiya","name:fi":"Ven\u00e4j\u00e4","name:ky":"\u041e\u0440\u0443\u0441\u0438\u044f","name:fo":"Russland","name:fr":"F\u00e9d\u00e9ration de Russie","name:fy":"Rusl\u00e2n","name:hy":"\u054c\u0578\u0582\u057d\u0561\u057d\u057f\u0561\u0576","int_name":"Russia","name:nl":"Russische Federatie","name:nn":"Russland","name:no":"Rusland","name:na":"Ratsiya","name:ne":"\u0930\u0941\u0938","name:ny":"Russia","name:wa":"Feder\u00e5cion d' R\u00fbsseye","name:wo":"Federaasio\u014b bu Riisi","name:nv":"Bi\u02bc\u00e9\u00e9\u02bc \u0141ich\u00ed\u00ed\u02bc\u00ed Bik\u00e9yah","name:ga":"An R\u00fais","name:gd":"An Ruis","name:gn":"Rrusia","name:gl":"Rusia","name:gv":"Yn Roosh","name:gu":"\u0ab0\u0ab6\u0abf\u0aaf\u0abe","name:tt":"\u0420\u0443\u0441\u0438\u044f"},"arcs":[2]},{"type":"LineString","properties":{"name:kg":"Rusia","name:ty":"R\u016btia","name:cy":"Rwsia","name:ko":"\ub7ec\uc2dc\uc544","name:cv":"\u0420\u0430\u00e7\u00e7\u0435\u0439 \u041f\u0430\u0442\u0448\u0430\u043b\u0103\u0445\u0115","name:cu":"\u0420\u0461\u0441\u0457\ua657","name:kl":"Ruslandi","name:cs":"Rusko","name:tw":"Russia","name:ki":"Russia","name:co":"Russia","name:kv":"\u0420\u043e\u0447\u043c\u0443","name:th":"\u0e1b\u0e23\u0e30\u0e40\u0e17\u0e28\u0e23\u0e31\u0e2a\u0e40\u0e0b\u0e35\u0e22","name:ti":"\u122b\u123b","name:ks":"\u0631\u0648\u0657\u0633","name:to":"L\u016bsia","name:tl":"Pederasyong Ruso","name:ch":"Russia","name:ce":"\u0420\u043e\u0441\u0441\u0438","name:ta":"\u0b89\u0bb0\u0bc1\u0b9a\u0bbf\u0baf\u0bbe","name:tg":"\u0420\u0443\u0441\u0438\u044f","name:ca":"R\u00fassia","name:te":"\u0c30\u0c37\u0c4d\u0c2f\u0c3e","name:ka":"\u10e0\u10e3\u10e1\u10d4\u10d7\u10d8","old_name:pl":"Zwi\u0105zek Socjalistycznych Republik Radzieckich","name:qu":"Rusiya","name:da":"Rusland","name:de":"Russland","name:dz":"\u0f62\u0f0b\u0f64\u0f72\u0f0b\u0f61\u0f71\u0f53\u0f0b\u0f55\u0f7a\u0f0b\u0f4c\u0f72\u0f0b\u0f62\u0f7a\u0f0b\u0f64\u0f71\u0f53","source":"openstreetmap.org","name:kn":"\u0cb0\u0cb7\u0ccd\u0caf\u0cbe","name:dv":"\u0783\u07ab\u0790\u07a9\u0788\u07a8\u078d\u07a7\u078c\u07b0","name:km":"\u179a\u17bb\u179f\u17d2\u179f\u17ca\u17b8","name:lv":"Krievija","name:lt":"Rusija","name:uz":"Rossiya Federatsiyasi","name:kk":"\u0420\u0435\u0441\u0435\u0439","name:ur":"\u0631\u0648\u0633","name:lb":"Russland","name:la":"Russia","name:lg":"Rwasha","name:uk":"\u0420\u043e\u0441\u0456\u044f","name:ug":"\u0631\u0648\u0633\u0649\u064a\u06d5","name:li":"Rusland","name:ln":"Rus\u00ed","name:lo":"\u0ea5\u0eb1\u0e94\u0ec0\u0e8a\u0eb1\u0ebd","name:el":"\u03a1\u03c9\u03c3\u03af\u03b1","name:eo":"Rusujo","name:en":"Russia","name":"\u0420\u043e\u0441\u0441\u0438\u044f","name:tk":"Russi\u00fda","name:ee":"Russia","name:ku":"R\u00fbsya","name:eu":"Errusia","name:et":"Venemaa","name:es":"Rusia","name:ay":"Rusiya","name:rm":"Russia","name:rn":"Uburusiya","name:az":"Rusiya","name:ie":"Russia","name:id":"Rusia","name:ig":"Mpaghara Russia","name:as":"\u09f0\u09c1\u09b6\u09bf\u09af\u09be","name:ar":"\u0631\u0648\u0633\u064a\u0627","name:io":"Rusia","name:av":"\u0420\u043e\u0441\u0441\u0438\u044f\u043b\u044a\u0443\u043b \u0424\u0435\u0434\u0435\u0440\u0430\u0446\u0438\u044f","name:ak":"Russia","name:am":"\u1229\u1232\u12eb","name:it":"Russia","name:an":"Rusia","name:ab":"\u0423\u0440\u044b\u0441\u0442\u04d9\u044b\u043b\u0430","name:af":"Rusland","name:zu":"IRashiya","kind_detail":"2","old_name:ru":"\u0420\u0443\u0441\u044c;\u0417\u043e\u043b\u043e\u0442\u0430\u044f \u041e\u0440\u0434\u0430;\u0420\u0443\u0441\u0441\u043a\u043e\u0435 \u0426\u0430\u0440\u0441\u0442\u0432\u043e;\u0420\u043e\u0441\u0441\u0438\u0439\u0441\u043a\u0430\u044f \u0418\u043c\u043f\u0435\u0440\u0438\u044f;\u0421\u043e\u044e\u0437 \u0421\u043e\u0432\u0435\u0442\u0441\u043a\u0438\u0445 \u0421\u043e\u0446\u0438\u0430\u043b\u0438\u0441\u0442\u0438\u0447\u0435\u0441\u043a\u0438\u0445 \u0420\u0435\u0441\u043f\u0443\u0431\u043b\u0438\u043a","name:za":"Ezlozswh Lienzbangh","name:zh-yue":"\u4fc4\u7f85\u65af","name:zh":"\u4fc4\u7f57\u65af","name:so":"Ruushka","name:sn":"Russia","name:sm":"Lusia","name:sl":"Rusija","name:sk":"Rusko","name:ja":"\u30ed\u30b7\u30a2","name:si":"\u0dbb\u0dd4\u0dc3\u0dd2\u0dba\u0dcf\u0dc0","name:sh":"Rusija","name:sg":"Rus\u00efi","name:se":"Ruo\u0161\u0161a","name:sd":"\u0631\u0648\u0633","name:sc":"R\u00f9ssia","name:br":"Rusia","name:bs":"Rusija","name:bm":"Risila","name:bn":"\u09b0\u09be\u09b6\u09bf\u09af\u09bc\u09be","name:bo":"\u0f68\u0f74\u0f0b\u0f62\u0f74\u0f0b\u0f66\u0f74\u0f0d","name:bi":"Rusia","name:sw":"Shirikisho la Urusi","name:be":"\u0420\u0430\u0441\u0456\u0439\u0441\u043a\u0430\u044f \u0424\u0435\u0434\u044d\u0440\u0430\u0446\u044b\u044f","name:su":"Rusia","name:bg":"\u0420\u0443\u0441\u0438\u044f","name:ss":"IRashiya","name:ba":"\u0420\u04d9\u0441\u04d9\u0439","name:sq":"Rusia","name:jv":"Rusia","name:ia":"Russia","name:pt":"R\u00fassia","name:ps":"\u0631\u0648\u0633\u06cc\u0647","name:om":"Raashiyaa","name:oc":"Russia","min_zoom":8.0,"name:ro":"Rusia","name:zh-min-nan":"L\u014d\u0358-se-a","name:os":"\u0423\u00e6\u0440\u00e6\u0441\u0435","name:or":"\u0b0b\u0b37\u0b3f\u0b06","name:pl":"Rosja","name:st":"Russia","sort_rank":262,"name:sr":"\u0420\u0443\u0441\u0438\u0458\u0430","osm_relation":true,"name:xh":"IRashiya","name:pa":"\u0a30\u0a42\u0a38","name:ik":"Russia","name:tr":"Rusya Federasyonu","name:hi":"\u0930\u0942\u0938","name:sv":"Ryssland","name:he":"\u05e8\u05d5\u05e1\u05d9\u05d4","name:ha":"Rasha","old_name":"\u0420\u0443\u0441\u044c;\u0417\u043e\u043b\u043e\u0442\u0430\u044f \u041e\u0440\u0434\u0430;\u0420\u0443\u0441\u0441\u043a\u043e\u0435 \u0426\u0430\u0440\u0441\u0442\u0432\u043e;\u0420\u043e\u0441\u0441\u0438\u0439\u0441\u043a\u0430\u044f \u0418\u043c\u043f\u0435\u0440\u0438\u044f;\u0421\u043e\u044e\u0437 \u0421\u043e\u0432\u0435\u0442\u0441\u043a\u0438\u0445 \u0421\u043e\u0446\u0438\u0430\u043b\u0438\u0441\u0442\u0438\u0447\u0435\u0441\u043a\u0438\u0445 \u0420\u0435\u0441\u043f\u0443\u0431\u043b\u0438\u043a","name:ht":"Risi","name:hu":"Oroszorsz\u00e1g","name:hr":"Ruska Federacija","kind":"country","name:ts":"Russia","name:is":"R\u00fassland","name:yi":"\u05e8\u05d5\u05e1\u05dc\u05d0\u05e0\u05d3","name:iu":"\u1405\u14db\u14f4","name:yo":"R\u1ecd\u0301s\u00ed\u00e0","name:mt":"Russja","alt_name:eo":"Rusio;Ruslando","name:ms":"Rusia","name:mr":"\u0930\u0936\u093f\u092f\u093e","name:my":"\u101b\u102f\u101b\u103e\u102c\u1038\u1014\u102d\u102f\u1004\u103a\u1004\u1036","official_name":"\u0420\u043e\u0441\u0441\u0438\u0439\u0441\u043a\u0430\u044f \u0424\u0435\u0434\u0435\u0440\u0430\u0446\u0438\u044f","name:kw":"Russi","name:mg":"Rosia","name:ve":"Rashia","name:vi":"Li\u00ean bang Nga","name:ml":"\u0d31\u0d37\u0d4d\u0d2f","name:mn":"\u041e\u0440\u043e\u0441\u044b\u043d \u0425\u043e\u043b\u0431\u043e\u043e\u043d\u044b \u0423\u043b\u0441","name:mi":"R\u016bhia","id":-60189,"name:mk":"\u0420\u0443\u0441\u0438\u0458\u0430","name:vo":"Rus\u00e4n","name:fa":"\u0631\u0648\u0633\u06cc\u0647","name:rw":"Uburusiya","short_name":"\u0420\u0424","name:ff":"Roosiya","name:fi":"Ven\u00e4j\u00e4","name:ky":"\u041e\u0440\u0443\u0441\u0438\u044f","name:fo":"Russland","name:fr":"F\u00e9d\u00e9ration de Russie","name:fy":"Rusl\u00e2n","name:hy":"\u054c\u0578\u0582\u057d\u0561\u057d\u057f\u0561\u0576","int_name":"Russia","name:nl":"Russische Federatie","name:nn":"Russland","name:no":"Rusland","name:na":"Ratsiya","name:ne":"\u0930\u0941\u0938","name:ny":"Russia","name:wa":"Feder\u00e5cion d' R\u00fbsseye","name:wo":"Federaasio\u014b bu Riisi","name:nv":"Bi\u02bc\u00e9\u00e9\u02bc \u0141ich\u00ed\u00ed\u02bc\u00ed Bik\u00e9yah","name:ga":"An R\u00fais","name:gd":"An Ruis","name:gn":"Rrusia","name:gl":"Rusia","maritime_boundary":true,"name:gv":"Yn Roosh","name:gu":"\u0ab0\u0ab6\u0abf\u0aaf\u0abe","name:tt":"\u0420\u0443\u0441\u0438\u044f"},"arcs":[3]},{"type":"LineString","properties":{"name:left:io":"Hokkaido","name:right:ja":"\u30b5\u30cf\u30ea\u30f3\u5dde","alt_name:left:eo":"Hokkajdo","name:left:pl":"Prefektura Hokkaido","name:left:ko":"\ud64b\uce74\uc774\ub3c4","name:left:ja":"Hokkaid\u014d","name:left:ia":"Hokkaido","id:right":-394235,"name:left:uk":"\u041f\u0440\u0435\u0444\u0435\u043a\u0442\u0443\u0440\u0430 \u0425\u043e\u043a\u043a\u0430\u0439\u0434\u043e","min_zoom":8.0,"id:left":-3795658,"name:left:ru":"\u0425\u043e\u043a\u043a\u0430\u0439\u0434\u043e","name:right:pl":"Obw\u00f3d sachali\u0144ski","id":-3795658,"osm_relation":true,"name:right":"\u0421\u0430\u0445\u0430\u043b\u0438\u043d\u0441\u043a\u0430\u044f \u043e\u0431\u043b\u0430\u0441\u0442\u044c","name:right:lt":"Sachalino sritis","kind":"region","sort_rank":256,"name:left:eo":"Hokajdo","name":"\u5317\u6d77\u9053 - \u0421\u0430\u0445\u0430\u043b\u0438\u043d\u0441\u043a\u0430\u044f \u043e\u0431\u043b\u0430\u0441\u0442\u044c","source":"openstreetmap.org","name:right:ca":"Prov\u00edncia de Sakhal\u00edn","kind_detail":"4","name:left:de":"Hokkaid\u014d","name:right:en":"Sakhalin Oblast","name:left:en":"Hokkaido","name:right:de":"Oblast Sachalin","name:left":"\u5317\u6d77\u9053"},"arcs":[4]},{"type":"LineString","properties":{"name:ia":"Hokkaido","alt_name:eo":"Hokkajdo","name:ja":"Hokkaid\u014d","name:ko":"\ud64b\uce74\uc774\ub3c4","kind":"region","name:io":"Hokkaido","min_zoom":8.0,"name:uk":"\u041f\u0440\u0435\u0444\u0435\u043a\u0442\u0443\u0440\u0430 \u0425\u043e\u043a\u043a\u0430\u0439\u0434\u043e","name:ru":"\u0425\u043e\u043a\u043a\u0430\u0439\u0434\u043e","name:pl":"Prefektura Hokkaido","id":-3795658,"osm_relation":true,"name:eo":"Hokajdo","name:en":"Hokkaido","name":"\u5317\u6d77\u9053","sort_rank":256,"kind_detail":"4","name:de":"Hokkaid\u014d","source":"openstreetmap.org","maritime_boundary":true},"arcs":[5]},{"type":"LineString","properties":{"kind":"region","name:en":"Sakhalin Oblast","name":"\u0421\u0430\u0445\u0430\u043b\u0438\u043d\u0441\u043a\u0430\u044f \u043e\u0431\u043b\u0430\u0441\u0442\u044c","name:lt":"Sachalino sritis","sort_rank":256,"kind_detail":"4","name:de":"Oblast Sachalin","source":"openstreetmap.org","min_zoom":8.0,"name:ca":"Prov\u00edncia de Sakhal\u00edn","name:pl":"Obw\u00f3d sachali\u0144ski","id":-394235,"osm_relation":true,"name:ja":"\u30b5\u30cf\u30ea\u30f3\u5dde"},"arcs":[6]},{"type":"LineString","properties":{"kind":"region","name:en":"Sakhalin Oblast","name":"\u0421\u0430\u0445\u0430\u043b\u0438\u043d\u0441\u043a\u0430\u044f \u043e\u0431\u043b\u0430\u0441\u0442\u044c","name:lt":"Sachalino sritis","sort_rank":256,"kind_detail":"4","min_zoom":8.0,"name:de":"Oblast Sachalin","source":"openstreetmap.org","maritime_boundary":true,"osm_relation":true,"name:pl":"Obw\u00f3d sachali\u0144ski","id":-394235,"name:ca":"Prov\u00edncia de Sakhal\u00edn","name:ja":"\u30b5\u30cf\u30ea\u30f3\u5dde"},"arcs":[7]}]},"roads":{"type":"GeometryCollection","geometries":[{"type":"LineString","properties":{"kind":"major_road","name:en":"Shunbetsu Bridge","network":"JP:national","sort_rank":381,"kind_detail":"trunk","source":"openstreetmap.org","min_zoom":8.0,"shield_text":"244","ref":"244","id":156751947,"name:ja":"Shunbetsu Bashi"},"arcs":[22]},{"type":"LineString","properties":{"kind":"major_road","name:en":"Yausubetsu Bridge","network":"JP:national","sort_rank":381,"kind_detail":"trunk","source":"openstreetmap.org","min_zoom":8.0,"shield_text":"243","ref":"243","id":156751891,"name:ja":"Yausubetsu Bashi"},"arcs":[23]},{"type":"MultiLineString","properties":{"kind":"major_road","name:en":"National Highway Route 243","network":"JP:national","sort_rank":381,"kind_detail":"trunk","source":"openstreetmap.org","min_zoom":8.0,"shield_text":"243","ref":"243"},"arcs":[[24],[25],[26],[27],[28],[29],[30]]},{"type":"LineString","properties":{"sort_rank":355,"source":"openstreetmap.org","min_zoom":8.0,"name":"\u041a\u043e\u0440\u0441\u0430\u043a\u043e\u0432 - \u042e\u0436\u043d\u043e-\u041a\u0443\u0440\u0438\u043b\u044c\u0441\u043a(\u043e. \u041a\u0443\u043d\u0430\u0448\u0438\u0440) - \u041c\u0430\u043b\u043e\u043a\u0443\u0440\u0438\u043b\u044c\u0441\u043a\u043e\u0435(\u043e. \u0428\u0438\u043a\u043e\u0442\u0430\u043d) - \u041a\u0443\u0440\u0438\u043b\u044c\u0441\u043a(\u043e. \u0418\u0442\u0443\u0440\u0443\u043f)","kind":"ferry"},"arcs":[31]},{"type":"LineString","properties":{"kind":"major_road","name:en":"National Route 44","name:ja":"Kokud\u014d 44 g\u014d","sort_rank":381,"kind_detail":"trunk","source":"openstreetmap.org","min_zoom":8.0,"shield_text":"44","ref":"44","network":"JP:national"},"arcs":[32]},{"type":"MultiLineString","properties":{"kind":"major_road","name:en":"Shibetsu Bridge","name:ja":"Shibetsu Bashi","sort_rank":381,"kind_detail":"trunk","source":"openstreetmap.org","min_zoom":8.0,"shield_text":"244","ref":"244","network":"JP:national"},"arcs":[[33],[34]]},{"type":"LineString","properties":{"kind":"major_road","name:en":"Nishimarubetsu Bridge","network":"JP:national","sort_rank":381,"kind_detail":"trunk","source":"openstreetmap.org","min_zoom":8.0,"shield_text":"244","ref":"244","id":156751913,"name:ja":"Nishimarubetsu Bashi"},"arcs":[35]},{"type":"MultiLineString","properties":{"kind":"major_road","name:en":"National Route 44","network":"JP:national","sort_rank":381,"kind_detail":"trunk","source":"openstreetmap.org","min_zoom":8.0,"shield_text":"44","ref":"44","name:ja":"\u6839\u91e7\u56fd\u9053"},"arcs":[[36],[37],[38],[39]]},{"type":"LineString","properties":{"source":"openstreetmap.org","kind":"major_road","landuse_kind":"urban_area","sort_rank":380,"kind_detail":"primary","ref":"69","min_zoom":8.0},"arcs":[40]},{"type":"LineString","properties":{"kind":"major_road","name:en":"Ichani Bridge","network":"JP:national","sort_rank":381,"kind_detail":"trunk","source":"openstreetmap.org","min_zoom":8.0,"shield_text":"244","ref":"244","id":447609935,"name:ja":"Ichani Bashi"},"arcs":[41]},{"type":"LineString","properties":{"source":"openstreetmap.org","kind":"major_road","sort_rank":380,"kind_detail":"primary","ref":"69","min_zoom":8.0},"arcs":[42]},{"type":"MultiLineString","properties":{"source":"openstreetmap.org","kind":"major_road","sort_rank":381,"kind_detail":"trunk","ref":"334","min_zoom":8.0},"arcs":[[43],[44]]},{"type":"MultiLineString","properties":{"kind":"major_road","name:en":"Nemuro peninsula line","name:ja":"Nemuro hant\u014d sen","sort_rank":380,"kind_detail":"primary","source":"openstreetmap.org","min_zoom":8.0,"ref":"35"},"arcs":[[45],[46],[47],[48],[49],[50],[51],[52]]},{"type":"LineString","properties":{"kind":"major_road","name:en":"Mannen Bridge","network":"JP:national","sort_rank":381,"kind_detail":"trunk","source":"openstreetmap.org","min_zoom":8.0,"shield_text":"244","ref":"244","id":156751924,"name:ja":"Mannen Bashi"},"arcs":[53]},{"type":"LineString","properties":{"kind":"major_road","name:en":"Okuyukiusu Bridge","network":"JP:national","sort_rank":381,"kind_detail":"trunk","source":"openstreetmap.org","min_zoom":8.0,"shield_text":"243","ref":"243","id":156751890,"name:ja":"Okuyukiusu Bashi"},"arcs":[54]},{"type":"LineString","properties":{"kind":"major_road","name:en":"National Route 44","network":"JP:national","sort_rank":381,"kind_detail":"trunk","source":"openstreetmap.org","min_zoom":8.0,"shield_text":"44","ref":"44"},"arcs":[55]},{"type":"LineString","properties":{"kind":"major_road","name:en":"Utoro Tunnel","network":"JP:national","sort_rank":381,"kind_detail":"trunk","source":"openstreetmap.org","min_zoom":8.0,"shield_text":"334","ref":"334","id":248427027,"name:ja":"Utoro Tonneru"},"arcs":[56]},{"type":"LineString","properties":{"kind":"major_road","name:en":"Shin-takimi Bridge","network":"JP:national","sort_rank":381,"kind_detail":"trunk","source":"openstreetmap.org","min_zoom":8.0,"shield_text":"334","ref":"334","id":387923793,"name:ja":"Shin-takimi Bashi"},"arcs":[57]},{"type":"LineString","properties":{"kind":"major_road","name:en":"Kunbetsu Tunnel","network":"JP:national","sort_rank":381,"kind_detail":"trunk","source":"openstreetmap.org","min_zoom":8.0,"shield_text":"335","ref":"335","id":294019527,"name:ja":"Kunbetsu Tonneru"},"arcs":[58]},{"type":"LineString","properties":{"kind":"major_road","name:en":"Oshinkoshin Tunnel","network":"JP:national","sort_rank":381,"kind_detail":"trunk","source":"openstreetmap.org","min_zoom":8.0,"shield_text":"334","ref":"334","id":34418544,"name:ja":"Oshinkoshin Tonneru"},"arcs":[59]},{"type":"LineString","properties":{"kind":"major_road","name:en":"Bekkai Bridge","network":"JP:national","sort_rank":381,"kind_detail":"trunk","source":"openstreetmap.org","min_zoom":8.0,"shield_text":"244","ref":"244","id":156751940,"name:ja":"Bekkai Bashi"},"arcs":[60]},{"type":"LineString","properties":{"source":"openstreetmap.org","kind":"major_road","landuse_kind":"urban_area","sort_rank":380,"kind_detail":"primary","ref":"13","min_zoom":8.0},"arcs":[61]},{"type":"MultiLineString","properties":{"kind":"major_road","name:en":"Nemuro peninsula line","name:ja":"Nemuro hant\u014d sen","sort_rank":380,"kind_detail":"primary","source":"openstreetmap.org","min_zoom":8.0,"name:ru":"\u041b\u0438\u043d\u0438\u044f \u041f\u043e\u043b\u0443\u043e\u0441\u0442\u0440\u043e\u0432\u0430 \u041d\u0435\u043c\u0443\u0440\u043e","ref":"35"},"arcs":[[62],[63],[64],[65]]},{"type":"LineString","properties":{"kind":"major_road","name:en":"Betsukai Akkeshi line","name:ja":"Betsukai Akkeshi sen","sort_rank":380,"kind_detail":"primary","source":"openstreetmap.org","min_zoom":8.0,"ref":"123","id":55893360},"arcs":[66]},{"type":"LineString","properties":{"source":"openstreetmap.org","kind":"major_road","landuse_kind":"park","sort_rank":381,"kind_detail":"trunk","ref":"334","min_zoom":8.0},"arcs":[67]},{"type":"LineString","properties":{"kind":"major_road","name:en":"Tohoro Bridge","network":"JP:national","sort_rank":381,"kind_detail":"trunk","source":"openstreetmap.org","min_zoom":8.0,"shield_text":"244","ref":"244","id":156751911,"name:ja":"Tohoro Bashi"},"arcs":[68]},{"type":"LineString","properties":{"kind":"major_road","name:en":"Shunkarikotan Bridge","network":"JP:national","sort_rank":381,"kind_detail":"trunk","source":"openstreetmap.org","min_zoom":8.0,"shield_text":"335","ref":"335","id":448058460,"name:ja":"Shunkarikotan Bashi"},"arcs":[69]},{"type":"MultiLineString","properties":{"kind":"major_road","name:en":"National Highway Route 244","network":"JP:national","sort_rank":381,"kind_detail":"trunk","source":"openstreetmap.org","min_zoom":8.0,"shield_text":"244","ref":"244"},"arcs":[[70],[71],[72],[73],[74],[75],[76],[77],[78],[79],[80],[81],[82],[83],[84],[85],[86],[87],[88]]},{"type":"LineString","properties":{"kind":"major_road","name:en":"Onneto Ohashi Bridge","network":"JP:national","sort_rank":381,"kind_detail":"trunk","source":"openstreetmap.org","min_zoom":8.0,"shield_text":"44","ref":"44","id":294630401,"name:ja":"Onnet\u014d \u014dhashi"},"arcs":[89]},{"type":"LineString","properties":{"kind":"major_road","name:en":"Bekanbeushi Bridge","network":"JP:national","sort_rank":381,"kind_detail":"trunk","source":"openstreetmap.org","min_zoom":8.0,"shield_text":"44","ref":"44","id":159075224,"name:ja":"Bekanbeushi bashi"},"arcs":[90]},{"type":"LineString","properties":{"kind":"major_road","name:en":"Shikarinai Bridge","network":"JP:national","sort_rank":381,"kind_detail":"trunk","source":"openstreetmap.org","min_zoom":8.0,"shield_text":"243","ref":"243","id":156751889,"name:ja":"Shikarinai Bashi"},"arcs":[91]},{"type":"LineString","properties":{"kind":"major_road","name:en":"Omei Bridge","network":"JP:national","sort_rank":381,"kind_detail":"trunk","source":"openstreetmap.org","min_zoom":8.0,"shield_text":"335","ref":"335","id":116910447,"name:ja":"\u014cmei Bashi"},"arcs":[92]},{"type":"LineString","properties":{"kind":"major_road","name:en":"Churui Bridge","network":"JP:national","sort_rank":381,"kind_detail":"trunk","source":"openstreetmap.org","min_zoom":8.0,"shield_text":"335","ref":"335","id":448058470,"name:ja":"Ch\u016brui Bashi"},"arcs":[93]},{"type":"MultiLineString","properties":{"kind":"major_road","name:en":"National Highway Route 272","network":"JP:national","sort_rank":381,"kind_detail":"trunk","source":"openstreetmap.org","min_zoom":8.0,"shield_text":"272","ref":"272"},"arcs":[[94],[95],[96],[97],[98]]},{"type":"MultiLineString","properties":{"sort_rank":380,"kind_detail":"primary","min_zoom":8.0,"kind":"major_road","source":"openstreetmap.org"},"arcs":[[99],[100],[101]]},{"type":"LineString","properties":{"kind":"major_road","name:en":"Onnechashikotsu Bridge","network":"JP:national","sort_rank":381,"kind_detail":"trunk","source":"openstreetmap.org","min_zoom":8.0,"shield_text":"244","ref":"244","id":447609937,"name:ja":"Onnechashikotsu Bashi"},"arcs":[102]},{"type":"LineString","properties":{"kind":"major_road","name:en":"Kotanuka Bridge","network":"JP:national","sort_rank":381,"kind_detail":"trunk","source":"openstreetmap.org","min_zoom":8.0,"shield_text":"335","ref":"335","id":448058468,"name:ja":"Kotanuka Bashi"},"arcs":[103]},{"type":"LineString","properties":{"source":"openstreetmap.org","kind":"major_road","landuse_kind":"urban_area","sort_rank":380,"kind_detail":"primary","ref":"8","min_zoom":8.0},"arcs":[104]},{"type":"LineString","properties":{"kind":"major_road","name:en":"Tsuna Bridge","network":"JP:national","sort_rank":381,"kind_detail":"trunk","source":"openstreetmap.org","min_zoom":8.0,"shield_text":"272","ref":"272","id":208005677,"name:ja":"Tsuna Bashi"},"arcs":[105]},{"type":"LineString","properties":{"kind":"major_road","name:en":"Orumappu Bridge","network":"JP:national","sort_rank":381,"kind_detail":"trunk","source":"openstreetmap.org","min_zoom":8.0,"shield_text":"335","ref":"335","id":448058465,"name:ja":"Orumappu Bashi"},"arcs":[106]},{"type":"LineString","properties":{"kind":"major_road","name:en":"Onnebetsu Bridge","network":"JP:national","sort_rank":381,"kind_detail":"trunk","source":"openstreetmap.org","min_zoom":8.0,"shield_text":"334","ref":"334","id":185275567,"name:ja":"Onnebetsu Bashi"},"arcs":[107]},{"type":"LineString","properties":{"kind":"major_road","name:en":"Kunbetsu Bridge","network":"JP:national","sort_rank":381,"kind_detail":"trunk","source":"openstreetmap.org","min_zoom":8.0,"shield_text":"335","ref":"335","id":448058467,"name:ja":"Kunbetsu Bashi"},"arcs":[108]},{"type":"LineString","properties":{"kind":"major_road","name:en":"Shin-nishishunbetsu Bridge","network":"JP:national","sort_rank":381,"kind_detail":"trunk","source":"openstreetmap.org","min_zoom":8.0,"shield_text":"272","ref":"272","id":156752000,"name:ja":"Shin-nishishunbetsu Bashi"},"arcs":[109]},{"type":"LineString","properties":{"kind":"major_road","name:en":"Tobikari Bridge","network":"JP:national","sort_rank":381,"kind_detail":"trunk","source":"openstreetmap.org","min_zoom":8.0,"shield_text":"244","ref":"244","id":156751912,"name:ja":"Tobikari Bashi"},"arcs":[110]},{"type":"LineString","properties":{"source":"openstreetmap.org","kind":"major_road","sort_rank":380,"kind_detail":"primary","ref":"123","min_zoom":8.0},"arcs":[111]},{"type":"LineString","properties":{"sort_rank":355,"source":"openstreetmap.org","min_zoom":8.0,"name":"\u042e\u0436\u043d\u043e-\u041a\u0443\u0440\u0438\u043b\u044c\u0441\u043a (\u043e. \u041a\u0443\u043d\u0430\u0448\u0438\u0440) - \u041c\u0430\u043b\u043e\u043a\u0443\u0440\u0438\u043b\u044c\u0441\u043a\u043e\u0435 (\u043e. \u0428\u0438\u043a\u043e\u0442\u0430\u043d)","kind":"ferry"},"arcs":[112]},{"type":"LineString","properties":{"source":"openstreetmap.org","kind":"major_road","sort_rank":380,"kind_detail":"primary","ref":"142","min_zoom":8.0},"arcs":[113]},{"type":"LineString","properties":{"kind":"major_road","name:en":"Furen Bridge","network":"JP:national","sort_rank":381,"kind_detail":"trunk","source":"openstreetmap.org","min_zoom":8.0,"shield_text":"243","ref":"243","id":156751892,"name:ja":"F\u016bren Bashi"},"arcs":[114]},{"type":"LineString","properties":{"kind":"major_road","name:en":"Tokotan Bridge","network":"JP:national","sort_rank":381,"kind_detail":"trunk","source":"openstreetmap.org","min_zoom":8.0,"shield_text":"244","ref":"244","id":156751914,"name:ja":"Tokotan Bashi"},"arcs":[115]},{"type":"MultiLineString","properties":{"kind":"major_road","name:en":"National Highway Route 272","network":"JP:national","sort_rank":381,"landuse_kind":"urban_area","source":"openstreetmap.org","min_zoom":8.0,"kind_detail":"trunk","shield_text":"272","ref":"272"},"arcs":[[116],[117]]},{"type":"LineString","properties":{"kind":"major_road","name:en":"Pongawa Bridge","network":"JP:national","sort_rank":381,"kind_detail":"trunk","source":"openstreetmap.org","min_zoom":8.0,"shield_text":"244","ref":"244","id":156751935,"name:ja":"Pongawa Bashi"},"arcs":[118]},{"type":"LineString","properties":{"kind":"major_road","name:en":"Oshamappu Bridge","network":"JP:national","sort_rank":381,"kind_detail":"trunk","source":"openstreetmap.org","min_zoom":8.0,"shield_text":"334","ref":"334","id":134124020,"name:ja":"Oshamappu Bashi"},"arcs":[119]},{"type":"MultiLineString","properties":{"kind":"major_road","name:en":"National Highway Route 334","network":"JP:national","sort_rank":381,"kind_detail":"trunk","source":"openstreetmap.org","min_zoom":8.0,"shield_text":"334","ref":"334"},"arcs":[[120],[121],[122],[123],[124],[125],[126],[127]]},{"type":"LineString","properties":{"kind":"major_road","name:en":"\u014cbetsu Bridge","network":"JP:national","sort_rank":381,"kind_detail":"trunk","source":"openstreetmap.org","min_zoom":8.0,"shield_text":"44","ref":"44","id":159075228,"name:ja":"\u014cbetsu bashi"},"arcs":[128]},{"type":"LineString","properties":{"kind":"major_road","name:en":"Kanayama Bridge","network":"JP:national","sort_rank":381,"kind_detail":"trunk","source":"openstreetmap.org","min_zoom":8.0,"shield_text":"334","ref":"334","id":134124022,"name:ja":"Kanayama Bashi"},"arcs":[129]},{"type":"LineString","properties":{"kind":"major_road","name:en":"Horomoe Bridge","network":"JP:national","sort_rank":381,"kind_detail":"trunk","source":"openstreetmap.org","min_zoom":8.0,"shield_text":"335","ref":"335","id":116910453,"name:ja":"Horomoe Bashi"},"arcs":[130]},{"type":"LineString","properties":{"kind":"major_road","name:en":"Nishibetsugawa Bridge","network":"JP:national","sort_rank":381,"kind_detail":"trunk","source":"openstreetmap.org","min_zoom":8.0,"shield_text":"243","ref":"243","id":156751893,"name:ja":"Nishibetsugawa Bashi"},"arcs":[131]},{"type":"LineString","properties":{"kind":"major_road","name:en":"Sanju Bridge","network":"JP:national","sort_rank":381,"kind_detail":"trunk","source":"openstreetmap.org","min_zoom":8.0,"shield_text":"334","ref":"334","id":387923775,"name:ja":"Sanju Bashi"},"arcs":[132]},{"type":"LineString","properties":{"kind":"major_road","name:en":"Chitose Bridge","network":"JP:national","sort_rank":381,"kind_detail":"trunk","source":"openstreetmap.org","min_zoom":8.0,"shield_text":"243","ref":"243","id":156751894,"name:ja":"Chitose Bashi"},"arcs":[133]},{"type":"LineString","properties":{"kind":"major_road","name:en":"Yorozu Bridge","network":"JP:national","sort_rank":381,"kind_detail":"trunk","source":"openstreetmap.org","min_zoom":8.0,"shield_text":"244","ref":"244","id":156751917,"name:ja":"Yorozu Bashi"},"arcs":[134]},{"type":"LineString","properties":{"kind":"major_road","name:en":"National Highway Route 334","network":"JP:national","sort_rank":381,"kind_detail":"trunk","source":"openstreetmap.org","min_zoom":8.0,"landuse_kind":"park","shield_text":"334","ref":"334"},"arcs":[135]},{"type":"LineString","properties":{"kind":"major_road","name:en":"Uebetsu Bridge","network":"JP:national","sort_rank":381,"kind_detail":"trunk","source":"openstreetmap.org","min_zoom":8.0,"shield_text":"335","ref":"335","id":432578154,"name:ja":"Uebetsu Bashi"},"arcs":[136]},{"type":"LineString","properties":{"kind":"major_road","name:en":"Raitokotan Bridge","network":"JP:national","sort_rank":381,"kind_detail":"trunk","source":"openstreetmap.org","min_zoom":8.0,"shield_text":"244","ref":"244","id":156751922,"name:ja":"Raitokotan Bashi"},"arcs":[137]},{"type":"LineString","properties":{"kind":"major_road","name:en":"Toyooka Bridge","network":"JP:national","sort_rank":381,"kind_detail":"trunk","source":"openstreetmap.org","min_zoom":8.0,"shield_text":"272","ref":"272","id":208005676,"name:ja":"Toyooka Bashi"},"arcs":[138]},{"type":"LineString","properties":{"kind":"major_road","name:en":"Kaibo Bridge","network":"JP:national","sort_rank":381,"kind_detail":"trunk","source":"openstreetmap.org","min_zoom":8.0,"shield_text":"335","ref":"335","id":116910402,"name:ja":"Kaib\u014d Bashi"},"arcs":[139]},{"type":"LineString","properties":{"source":"openstreetmap.org","kind":"major_road","sort_rank":380,"kind_detail":"primary","ref":"13","min_zoom":8.0},"arcs":[140]},{"type":"LineString","properties":{"kind":"major_road","name:en":"Rindo ohashi Bridge","network":"JP:national","sort_rank":381,"kind_detail":"trunk","source":"openstreetmap.org","min_zoom":8.0,"landuse_kind":"urban_area","shield_text":"272","ref":"272","id":134022209,"name:ja":"Rind\u014d \u014dhashi"},"arcs":[141]},{"type":"LineString","properties":{"kind":"major_road","name:en":"Shiretoko Crossing the road","name:ja":"Shiretoko \u014cdan D\u014dro","sort_rank":381,"kind_detail":"trunk","source":"openstreetmap.org","min_zoom":8.0,"landuse_kind":"park","ref":"334"},"arcs":[142]},{"type":"LineString","properties":{"kind":"major_road","name:en":"Rikushibetsu Bridge","network":"JP:national","sort_rank":381,"kind_detail":"trunk","source":"openstreetmap.org","min_zoom":8.0,"shield_text":"335","ref":"335","id":448058462,"name:ja":"Rikushibetsu Bashi"},"arcs":[143]},{"type":"LineString","properties":{"kind":"major_road","name:en":"Ochika Bridge","network":"JP:national","sort_rank":381,"kind_detail":"trunk","source":"openstreetmap.org","min_zoom":8.0,"shield_text":"334","ref":"334","id":134124023,"name:ja":"Ochika Bashi"},"arcs":[144]},{"type":"LineString","properties":{"source":"openstreetmap.org","kind":"major_road","sort_rank":380,"kind_detail":"primary","ref":"8","min_zoom":8.0},"arcs":[145]},{"type":"MultiLineString","properties":{"kind":"major_road","name:en":"National Highway Route 335","network":"JP:national","sort_rank":381,"kind_detail":"trunk","source":"openstreetmap.org","min_zoom":8.0,"shield_text":"335","ref":"335"},"arcs":[[146],[147],[148],[149],[150],[151],[152],[153],[154],[155],[156],[157]]},{"type":"LineString","properties":{"kind":"major_road","name:en":"Kumushi Bridge","network":"JP:national","sort_rank":381,"kind_detail":"trunk","source":"openstreetmap.org","min_zoom":8.0,"shield_text":"244","ref":"244","id":156751925,"name:ja":"Kumushi Bashi"},"arcs":[158]},{"type":"MultiLineString","properties":{"source":"openstreetmap.org","kind":"major_road","sort_rank":380,"kind_detail":"primary","ref":"87","min_zoom":8.0},"arcs":[[159],[160]]}]},"earth":{"type":"GeometryCollection","geometries":[{"type":"MultiPolygon","properties":{"sort_rank":10,"source":"naturalearthdata.com","min_zoom":0.0,"kind":"earth","area":34139205369},"arcs":[[[161]],[[162]],[[163]],[[164]],[[165]],[[166]]]},{"type":"Point","properties":{"label_placement":true,"name:pt":"Kunashir","name:az":"Kuna\u015fir","name:id":"Kunashir","name:ka":"\u10d9\u10e3\u10dc\u10d0\u10e8\u10d8\u10e0\u10d8","name:ko":"\ucfe0\ub098\uc2dc\ub974 \uc12c","name:cs":"Kuna\u0161ir","min_zoom":7.0,"name:it":"Kuna\u0161ir","name:vi":"Kunashir","name:pl":"Kunaszyr","id":-2409701,"name:ca":"Kunaixir","area":2894909952,"name:fi":"Kuna\u0161ir","name:no":"Kunasjir","name:de":"Kunaschir","name:tr":"Kuna\u015fir Adas\u0131","name:fr":"Kounachir","name:zh":"\u570b\u5f8c\u5cf6","name:sl":"Kuna\u0161ir","name:nl":"Koenasjir","name:ja":"\u56fd\u5f8c\u5cf6","name:nn":"Kunasjir","name:uz":"Kuvashir","name:he":"\u05e7\u05d5\u05e0\u05e9\u05d9\u05e8","name:ur":"\u062c\u0632\u06cc\u0631\u06c1 \u06a9\u0646\u0627\u0634\u06cc\u0631","name:sk":"Kuna\u0161ir","name:be":"\u0412\u043e\u0441\u0442\u0440\u0430\u045e \u041a\u0443\u043d\u0430\u0448\u044b\u0440","osm_relation":true,"name:el":"\u039a\u03bf\u03c5\u03bd\u03b1\u03c3\u03af\u03c1","kind":"island","name:en":"Kunashir Island","name":"\u041a\u0443\u043d\u0430\u0448\u0438\u0440","source":"openstreetmap.org","name:eu":"Kunaxir","name:et":"Kuna\u0161ir","name:es":"Kunashir"},"coordinates":[2823,4091]}]},"landuse":{"type":"GeometryCollection","geometries":[{"type":"Polygon","properties":{"kind":"nature_reserve","protect_class":"3","area":46450700,"sort_rank":23,"source":"openstreetmap.org","min_zoom":8.0,"tier":2,"id":-5166475,"osm_relation":true},"arcs":[[167]]},{"type":"Polygon","properties":{"source":"openstreetmap.org","kind":"military","area":309744992,"tier":3,"id":401269296,"min_zoom":8.0,"sort_rank":45},"arcs":[[168]]},{"type":"MultiPolygon","properties":{"source":"naturalearthdata.com","kind":"urban_area","name":"","area":211498547,"sort_rank":11,"min_zoom":4.0},"arcs":[[[169]]]},{"type":"Polygon","properties":{"kind":"nature_reserve","protect_class":"4","area":112761000,"sort_rank":23,"operator":"\u0424\u0413\u0423 \u00ab\u0413\u043e\u0441\u0443\u0434\u0430\u0440\u0441\u0442\u0432\u0435\u043d\u043d\u044b\u0439 \u043f\u0440\u0438\u0440\u043e\u0434\u043d\u044b\u0439 \u0437\u0430\u043f\u043e\u0432\u0435\u0434\u043d\u0438\u043a \u00ab\u041a\u0443\u0440\u0438\u043b\u044c\u0441\u043a\u0438\u0439\u00bb","source":"openstreetmap.org","min_zoom":7.0,"tier":2,"id":-3176560,"osm_relation":true},"arcs":[[170]]},{"type":"MultiPolygon","properties":{"kind":"nature_reserve","protect_class":"4","area":564006162,"sort_rank":23,"operator":"\u0424\u0413\u0423 \u00ab\u0413\u043e\u0441\u0443\u0434\u0430\u0440\u0441\u0442\u0432\u0435\u043d\u043d\u044b\u0439 \u043f\u0440\u0438\u0440\u043e\u0434\u043d\u044b\u0439 \u0437\u0430\u043f\u043e\u0432\u0435\u0434\u043d\u0438\u043a \u00ab\u041a\u0443\u0440\u0438\u043b\u044c\u0441\u043a\u0438\u0439\u00bb","source":"openstreetmap.org","min_zoom":6.0,"tier":2,"osm_relation":true},"arcs":[[[171]],[[172]]]},{"type":"Polygon","properties":{"kind":"protected_area","area":59584800,"sort_rank":17,"source":"openstreetmap.org","min_zoom":8.0,"tier":2,"id":-5172909,"osm_relation":true},"arcs":[[173]]},{"type":"MultiPolygon","properties":{"source":"openstreetmap.org","kind":"protected_area","tier":2,"area":919747912,"sort_rank":17,"min_zoom":6.0,"osm_relation":true},"arcs":[[[174]]]},{"type":"MultiPolygon","properties":{"kind":"nature_reserve","protect_class":"1","area":954766101,"sort_rank":23,"operator":"\u0424\u0413\u0423 \u00ab\u0413\u043e\u0441\u0443\u0434\u0430\u0440\u0441\u0442\u0432\u0435\u043d\u043d\u044b\u0439 \u043f\u0440\u0438\u0440\u043e\u0434\u043d\u044b\u0439 \u0437\u0430\u043f\u043e\u0432\u0435\u0434\u043d\u0438\u043a \u00ab\u041a\u0443\u0440\u0438\u043b\u044c\u0441\u043a\u0438\u0439\u00bb","source":"openstreetmap.org","min_zoom":6.0,"tier":2,"osm_relation":true},"arcs":[[[175]]]},{"type":"Polygon","properties":{"kind":"park","area":1176790016,"sort_rank":24,"source":"openstreetmap.org","min_zoom":4.0,"tier":2,"id":-5664674,"osm_relation":true},"arcs":[[176]]},{"type":"Polygon","properties":{"kind":"nature_reserve","protect_class":"1","area":47998400,"sort_rank":23,"operator":"\u0424\u0413\u0423 \u00ab\u0413\u043e\u0441\u0443\u0434\u0430\u0440\u0441\u0442\u0432\u0435\u043d\u043d\u044b\u0439 \u043f\u0440\u0438\u0440\u043e\u0434\u043d\u044b\u0439 \u0437\u0430\u043f\u043e\u0432\u0435\u0434\u043d\u0438\u043a \u00ab\u041a\u0443\u0440\u0438\u043b\u044c\u0441\u043a\u0438\u0439\u00bb","source":"openstreetmap.org","min_zoom":8.0,"tier":2,"id":-3176561,"osm_relation":true},"arcs":[[177]]}]}},"type":"Topology","transform":{"translate":[144.84375,43.0688877742],"scale":[0.0003433228,0.0002487054]},"arcs":[[[3392,629],[-486,628],[-239,485],[-909,487],[-491,452],[-7,418],[128,405],[433,592]],[[2796,0],[596,629]],[[3392,629],[8,-10]],[[3400,619],[141,-182],[169,1],[386,171]],[[3392,629],[-486,628],[-239,485],[-909,487],[-491,452],[-7,418],[128,405],[433,592]],[[2796,0],[596,629]],[[3392,629],[8,-10]],[[3400,619],[141,-182],[169,1],[386,171]],[[907,0],[11,6],[27,36],[-47,21],[-48,-1],[-37,16],[-10,72],[18,56],[37,32],[46,17],[224,35],[79,34],[64,63],[65,34],[296,6],[91,28],[50,7],[75,-47],[60,-17],[58,-6],[35,10],[-40,25],[83,108],[18,32],[17,46],[25,99],[18,44],[22,33],[78,77],[26,41],[17,36],[23,26],[43,9],[85,-17],[32,9],[43,48],[28,17],[112,26],[38,17],[51,78],[30,17],[65,1],[24,14],[19,37],[-34,20],[-97,30],[-37,5],[-8,5],[-9,9],[-13,10],[-19,4],[-18,-10],[-37,-39],[-25,-9],[-137,9],[-42,-9],[-36,-24],[-16,-28],[-10,-28],[-19,-27],[-38,-21],[-75,-20],[-37,-29],[-121,-137],[-109,-97],[-19,-28],[13,-55],[35,-32],[25,-31],[-14,-49],[-73,62],[-68,34],[-247,24],[-95,26],[-86,44],[-51,62],[49,17],[-17,28],[-50,26],[-52,11],[-45,18],[-19,42],[7,46],[28,32],[84,-21],[183,-160],[92,16],[-139,110],[-99,137],[-61,155],[-77,339],[-36,99],[-15,65],[-42,38],[-10,33],[-8,87],[-22,80],[-32,69],[-37,56],[-189,204],[-41,62],[-120,269],[-7,31],[-3,53],[10,46],[42,59],[27,88],[33,77],[18,83],[-29,73],[47,146],[64,145],[74,130],[265,338],[25,63],[2,10],[1424,0],[-4,-33],[-33,-73],[-50,-70],[-61,-53],[-66,-21],[-15,-20],[-54,-120],[-293,-212],[-27,-50],[-29,-27],[-173,-98],[-25,-34],[-64,-118],[-28,-25],[-63,-27],[-28,-31],[-3,-29],[16,-34],[21,-31],[15,-28],[6,-33],[-6,-106],[45,-187],[92,4],[115,41],[109,-78],[-22,-28],[13,-25],[-14,-64],[1,-50],[9,-30],[13,-38],[13,-21],[5,21],[42,290],[26,417],[22,56],[91,78],[80,94],[43,31],[188,34],[56,26],[52,35],[42,44],[39,64],[29,76],[12,79],[22,78],[53,54],[65,19],[57,-27],[30,35],[11,50],[-1,122],[18,42],[20,31],[1019,0],[0,-4096],[-3189,0]],[[1251,1823],[30,-18],[40,19],[20,49],[23,30],[111,30],[37,21],[-7,40],[-47,45],[-95,70],[-72,31],[-246,51],[377,-195],[-39,-30],[-89,-42],[-32,-37],[-11,-64]],[[3751,1898],[-152,-94],[61,-68],[38,-31],[29,-13],[9,-15],[8,-70],[14,-22],[52,-1],[167,83],[-12,71],[28,44],[35,35],[8,42],[-25,23],[-47,7],[-86,-2],[-51,33],[-76,-22]],[[3044,1446],[-3,-14],[10,1],[15,-5],[5,-17],[-6,-10],[12,6],[27,24],[22,2],[17,-8],[31,-3],[39,7],[1,19],[-21,21],[-15,22],[-7,19],[7,13],[19,14],[-9,17],[-33,-1],[-64,-27],[-23,2],[-17,17],[-14,26],[-25,2],[-37,-16],[-1,-16],[76,-29],[7,-29],[-6,-26],[-7,-11]],[[3614,1477],[-11,-21],[-40,-11],[-19,25],[-18,-26],[-27,14],[-42,-53],[-13,-11],[1,-19],[11,-13],[30,-22],[13,3],[35,54],[21,7],[48,-8],[14,16],[20,36],[12,12],[19,4],[4,23],[-15,34],[-21,4],[-23,-13],[-4,-13],[5,-22]],[[486,4096],[-184,-215],[-302,-330],[0,545],[486,0]],[[2690,1280],[-8,5],[-9,9],[-13,10],[-19,4],[-18,-10],[-37,-39],[-25,-9],[-137,9],[-42,-9],[-36,-24],[-16,-28],[-10,-28],[-19,-27],[-38,-21],[-75,-20],[-37,-29],[-121,-137],[-109,-97],[-19,-28],[13,-55],[35,-32],[25,-31],[-14,-49],[-73,62],[-68,34],[-247,24],[-95,26],[-86,44],[-51,62],[49,17],[-17,28],[-50,26],[-52,11],[-45,18],[-19,42],[7,46],[28,32],[84,-21],[183,-160],[92,16],[-139,110],[-99,137],[-61,155],[-77,339],[-36,99],[-15,65],[-42,38],[-10,33],[-8,87],[-22,80],[-32,69],[-37,56],[-189,204],[-41,62],[-120,269],[-7,31],[-3,53],[10,46],[42,59],[27,88],[33,77],[18,83],[-29,73],[47,146],[64,145],[74,130],[265,338],[25,63],[2,10]],[[486,4096],[-184,-215],[-302,-330]],[[907,0],[11,6],[27,36],[-47,21],[-48,-1],[-37,16],[-10,72],[18,56],[37,32],[46,17],[224,35],[79,34],[64,63],[65,34],[296,6],[91,28],[50,7],[75,-47],[60,-17],[58,-6],[35,10],[-40,25],[83,108],[18,32],[17,46],[25,99],[18,44],[22,33],[78,77],[26,41],[17,36],[23,26],[43,9],[85,-17],[32,9],[43,48],[28,17],[112,26],[38,17],[51,78],[30,17],[65,1],[24,14],[19,37],[-34,20],[-97,30],[-37,5]],[[1363,2109],[-72,31],[-246,51],[377,-195],[-39,-30],[-89,-42],[-32,-37],[-11,-64],[30,-18],[40,19],[20,49],[23,30],[111,30],[37,21],[-7,40],[-47,45],[-95,70]],[[2665,4096],[-4,-33],[-33,-73],[-50,-70],[-61,-53],[-66,-21],[-15,-20],[-54,-120],[-293,-212],[-27,-50],[-29,-27],[-173,-98],[-25,-34],[-64,-118],[-28,-25],[-63,-27],[-28,-31],[-3,-29],[16,-34],[21,-31],[15,-28],[6,-33],[-6,-106],[45,-187],[92,4],[115,41],[109,-78],[-22,-28],[13,-25],[-14,-64],[1,-50],[9,-30],[13,-38],[13,-21],[5,21],[42,290],[26,417],[22,56],[91,78],[80,94],[43,31],[188,34],[56,26],[52,35],[42,44],[39,64],[29,76],[12,79],[22,78],[53,54],[65,19],[57,-27],[30,35],[11,50],[-1,122],[18,42],[20,31]],[[3878,1887],[-51,33],[-76,-22],[-152,-94],[61,-68],[38,-31],[29,-13],[9,-15],[8,-70],[14,-22],[52,-1],[167,83],[-12,71],[28,44],[35,35],[8,42],[-25,23],[-47,7],[-86,-2]],[[3636,1525],[21,-4],[15,-34],[-4,-23],[-19,-4],[-12,-12],[-20,-36],[-14,-16],[-48,8],[-21,-7],[-35,-54],[-13,-3],[-30,22],[-11,13],[-1,19],[13,11],[42,53],[27,-14],[18,26],[19,-25],[40,11],[11,21],[-5,22],[4,13],[23,13]],[[3178,1491],[15,-22],[21,-21],[-1,-19],[-39,-7],[-31,3],[-17,8],[-22,-2],[-27,-24],[-12,-6],[6,10],[-5,17],[-15,5],[-10,-1],[3,14],[7,11],[6,26],[-7,29],[-76,29],[1,16],[37,16],[25,-2],[14,-26],[17,-17],[23,-2],[64,27],[33,1],[9,-17],[-19,-14],[-7,-13],[7,-19]],[[1150,1823],[0,2]],[[914,1138],[2,-2]],[[0,1253],[38,-15],[372,-46],[110,15]],[[521,1207],[98,12],[162,75]],[[784,1296],[39,-1]],[[824,1292],[90,-154]],[[916,1136],[96,-63]],[[1013,1072],[64,-88],[44,-147]],[[1123,836],[58,-93],[7,-97]],[[2933,3825],[85,-10],[38,20],[410,261]],[[2055,992],[105,59]],[[823,2419],[-2,8]],[[822,2427],[2,-8]],[[1262,1341],[-1,1]],[[0,49],[53,60]],[[55,110],[84,45]],[[141,155],[26,-22],[123,6],[332,203],[197,242],[202,56],[74,-37],[203,108],[364,65],[102,-17],[73,49],[41,-15]],[[1892,795],[163,197]],[[377,1927],[-15,18]],[[788,2503],[1,-1]],[[362,1945],[-31,79]],[[264,3898]],[[1015,3819],[-67,46]],[[2139,1038],[-14,15],[49,63],[213,172],[168,-32],[81,34],[96,-20]],[[2546,1079],[-170,-59],[-139,14],[-52,31]],[[2185,1065],[-25,-14]],[[2185,1065]],[[2185,1065],[-24,-14]],[[2741,1269],[5,-1]],[[2755,1269],[6,4]],[[2760,1187],[-2,-1]],[[1081,1112],[0,-4]],[[1012,1073],[1,-1]],[[2161,1051],[-106,-59]],[[400,4007],[-9,-8]],[[264,3898],[0,-1]],[[629,2908],[-6,-23]],[[279,3903],[-15,-5]],[[1284,1247],[1,5]],[[338,1877],[39,50]],[[2758,1186],[-120,-99],[-92,-8]],[[2732,1270],[9,-1]],[[2746,1268],[9,1]],[[2761,1273],[59,-4],[-25,-63],[-35,-19]],[[664,394],[95,-79],[29,-83],[-23,-78],[12,-99],[-71,-55]],[[948,3865],[-19,5]],[[999,2173],[1,-1]],[[820,3498],[-1,-2]],[[0,2746],[18,-5],[155,-3],[74,-60],[541,-175]],[[789,2502],[30,-68]],[[821,2427],[-2,7]],[[819,2434],[3,-7]],[[826,2412],[-3,7]],[[824,2419],[2,-7]],[[826,2412],[28,-74],[104,-80]],[[959,2257],[40,-84]],[[1000,2172],[68,-84]],[[1069,2086],[8,-42]],[[1077,984],[4,124]],[[1150,1825],[-72,217]],[[1095,1188],[-14,-76]],[[1095,1189],[27,5]],[[1284,1247],[-47,-79],[-114,27]],[[1177,1710],[-27,113]],[[1177,1708],[4,-41]],[[1261,1342],[-77,322]],[[1285,1252],[-23,89]],[[1878,793],[14,2]],[[139,155],[2,0]],[[520,1207],[1,0]],[[760,3389],[-3,-3]],[[702,2642],[0,-6]],[[53,1250],[-53,-48]],[[310,1738],[-33,-172],[-207,-191],[-15,-123]],[[315,1861],[-26,-11],[21,-110]],[[545,2073],[-65,-91]],[[852,2342],[-150,-166],[-156,-102]],[[1065,3877],[-14,-13]],[[1933,857],[97,-42],[61,28]],[[2385,1032],[-34,-9]],[[958,2258],[1,-1]],[[632,2788],[1,-5]],[[377,1927],[83,-74]],[[546,2074],[-1,-1]],[[728,3214],[0,-1]],[[218,3796],[-1,-1]],[[631,2912],[-2,-3]],[[55,1252],[-2,-2]],[[1068,2088],[1,-2]],[[676,409],[-111,98],[162,231],[-39,513]],[[4096,3766],[-1049,9],[-114,50]],[[788,232],[53,78],[122,32],[40,-23],[130,12],[163,87],[97,15],[3,111],[244,55],[194,4],[136,-94],[62,90],[-16,112],[17,130],[98,139]],[[1121,837],[2,-1]],[[1181,1667],[3,-3]],[[345,1876],[-30,-15]],[[480,1982],[-129,-108]],[[1095,1188],[0,1]],[[113,3690],[-1,-2]],[[16,3637],[-16,-36]],[[112,3688],[-94,-51]],[[129,3706],[-16,-16]],[[217,3795],[-86,-89]],[[264,3897],[-46,-101]],[[319,3926],[-40,-23]],[[391,3999],[-71,-72]],[[474,4072],[-74,-65]],[[53,109],[2,1]],[[131,3706],[-2,0]],[[764,3424],[-1,-4]],[[823,1295],[1,-3]],[[320,3927],[-1,-1]],[[781,1294],[3,2]],[[1122,1194],[1,1]],[[484,4096],[-10,-24]],[[739,3187],[-1,-4]],[[1177,1710],[0,-2]],[[310,1740],[0,-2]],[[768,3433],[-1,-2]],[[0,1734],[46,22],[153,18],[90,76]],[[351,1874],[-6,2]],[[929,3870],[-47,11],[-11,-20],[-20,6],[-21,33],[-34,-24],[2,18],[-28,-6],[-1,-20],[-22,26],[13,73],[-30,-3],[0,26],[-157,72],[10,14],[-32,20]],[[734,3256],[0,-3]],[[18,3637],[-2,0]],[[816,1309],[-205,352],[-151,192]],[[623,2885],[9,-97]],[[629,2909],[0,-1]],[[738,3183],[-43,-158],[-57,-44],[-7,-69]],[[633,2783],[69,-141]],[[702,2636],[80,-123]],[[734,3253],[-6,-39]],[[728,3213],[11,-26]],[[757,3386],[-36,-87],[13,-43]],[[763,3420],[-3,-31]],[[767,3431],[-3,-7]],[[819,3496],[-51,-63]],[[1015,3819],[-149,-203],[-46,-118]],[[1077,2044],[1,-2]],[[1151,4096],[-4,-106],[-45,-89],[-94,-100]],[[1158,4053],[-5,32]],[[2665,4096],[412,0],[-20,-31],[-18,-42],[1,-122],[-11,-50],[-30,-35],[-57,27],[-65,-19],[-53,-54],[-22,-78],[-12,-79],[-29,-76],[-39,-64],[-42,-44],[-52,-35],[-56,-26],[-188,-34],[-43,-31],[-80,-94],[-91,-78],[-22,-56],[-26,-417],[-42,-290],[-5,-21],[-13,21],[-13,38],[-9,30],[-1,50],[14,64],[-13,25],[22,28],[-109,78],[-115,-41],[-92,-4],[-45,187],[6,106],[-6,33],[-15,28],[-21,31],[-16,34],[3,29],[28,31],[63,27],[28,25],[64,118],[25,34],[173,98],[29,27],[27,50],[293,212],[54,120],[15,20],[66,21],[61,53],[50,70],[33,73],[4,33]],[[3637,1448],[-20,-36],[-14,-16],[-48,8],[-21,-7],[-35,-54],[-13,-3],[-30,22],[-11,13],[-1,19],[13,11],[42,53],[27,-14],[18,26],[19,-25],[40,11],[11,21],[-5,22],[4,13],[23,13],[21,-4],[15,-34],[-4,-23],[-19,-4],[-12,-12]],[[3068,1528],[23,-2],[64,27],[33,1],[9,-17],[-19,-14],[-7,-13],[7,-19],[15,-22],[21,-21],[-1,-19],[-39,-7],[-31,3],[-17,8],[-22,-2],[-27,-24],[-12,-6],[6,10],[-5,17],[-15,5],[-10,-1],[3,14],[7,11],[6,26],[-7,29],[-76,29],[1,16],[37,16],[25,-2],[14,-26],[17,-17]],[[3827,1920],[51,-33],[86,2],[47,-7],[25,-23],[-8,-42],[-35,-35],[-28,-44],[12,-71],[-167,-83],[-52,1],[-14,22],[-8,70],[-9,15],[-29,13],[-38,31],[-61,68],[152,94],[76,22]],[[1321,1824],[-40,-19],[-30,18],[11,64],[32,37],[89,42],[39,30],[-377,195],[246,-51],[72,-31],[95,-70],[47,-45],[7,-40],[-37,-21],[-111,-30],[-23,-30],[-20,-49]],[[486,4096],[755,0],[-2,-10],[-25,-63],[-265,-338],[-74,-130],[-64,-145],[-47,-146],[29,-73],[-18,-83],[-33,-77],[-27,-88],[-42,-59],[-10,-46],[3,-53],[7,-31],[120,-269],[41,-62],[189,-204],[37,-56],[32,-69],[22,-80],[8,-87],[10,-33],[42,-38],[15,-65],[36,-99],[77,-339],[61,-155],[99,-137],[139,-110],[-92,-16],[-183,160],[-84,21],[-28,-32],[-7,-46],[19,-42],[45,-18],[52,-11],[50,-26],[17,-28],[-49,-17],[51,-62],[86,-44],[95,-26],[247,-24],[68,-34],[73,-62],[14,49],[-25,31],[-35,32],[-13,55],[19,28],[109,97],[121,137],[37,29],[75,20],[38,21],[19,27],[10,28],[16,28],[36,24],[42,9],[137,-9],[25,9],[37,39],[18,10],[19,-4],[13,-10],[9,-9],[8,-5],[37,-5],[97,-30],[34,-20],[-19,-37],[-24,-14],[-65,-1],[-30,-17],[-51,-78],[-38,-17],[-112,-26],[-28,-17],[-43,-48],[-32,-9],[-85,17],[-43,-9],[-23,-26],[-17,-36],[-26,-41],[-78,-77],[-22,-33],[-18,-44],[-25,-99],[-17,-46],[-18,-32],[-83,-108],[40,-25],[-35,-10],[-58,6],[-60,17],[-75,47],[-50,-7],[-91,-28],[-296,-6],[-65,-34],[-64,-63],[-79,-34],[-224,-35],[-46,-17],[-37,-32],[-18,-56],[10,-72],[37,-16],[48,1],[47,-21],[-27,-36],[-11,-6],[-907,0],[0,3551],[302,330],[184,215]],[[2533,3565],[29,116],[-8,128],[155,-10],[-17,-115],[-77,-127],[-82,8]],[[0,1018],[162,-6],[116,-57],[27,-40],[133,14],[41,-75],[48,-27],[1,-37],[-108,-136],[-113,69],[-76,1],[-26,-44],[-131,-1],[-34,91],[-24,7],[-15,-42],[-1,0],[0,283]],[[384,1821],[-83,48],[17,67],[111,24],[34,44],[55,-68],[-44,-77],[-90,-38]],[[4081,2240],[3,25],[12,20],[0,-88],[-15,43]],[[2887,1314],[59,62],[73,-26],[-32,105],[-87,76],[36,80],[111,28],[63,-48],[91,32],[72,-44],[-9,-89],[27,-26],[2,-69],[-48,-36],[-102,-4],[-58,-32],[38,-63],[-35,-65],[-49,-10],[-115,58],[-37,71]],[[3263,1196],[42,81],[98,26],[-30,54],[37,97],[64,55],[84,18],[87,57],[-30,81],[-53,40],[-16,48],[-59,34],[12,87],[279,117],[84,-60],[154,-21],[19,-76],[-58,-70],[30,-59],[-46,-94],[-213,-109],[-8,-86],[-92,-92],[-68,-3],[-84,-56],[0,-66],[-70,-91],[-49,-9],[-75,30],[-39,67]],[[2238,3651],[189,142],[-5,58],[70,25],[17,-132],[-46,-58],[15,-18],[-59,-118],[-125,25],[-56,76]],[[1550,3039],[21,89],[52,50],[67,15],[106,200],[141,69],[29,56],[84,55],[39,-58],[-79,-50],[13,-49],[-191,-80],[-90,-191],[-105,-58],[58,-225],[-8,-68],[73,-26],[-5,127],[81,26],[51,203],[37,-10],[38,65],[71,-17],[45,129],[96,-35],[47,25],[12,20],[-38,51],[36,21],[65,-26],[-18,62],[29,27],[10,-23],[31,14],[12,-46],[-49,-33],[-39,-73],[-29,-3],[-28,-59],[-40,4],[-42,-99],[-12,-293],[-50,-401],[-31,-78],[-27,76],[43,233],[-97,24],[-193,-38],[-48,-19],[38,-5],[-72,-59],[-56,88],[-22,93],[25,107],[-81,193]],[[1635,3040],[10,56],[111,67],[76,173],[191,80],[-13,49],[166,74],[6,65],[34,38],[35,-1],[50,-70],[110,-21],[15,-30],[-36,-118],[-33,-12],[-9,37],[-31,-14],[-10,23],[-29,-27],[18,-62],[-65,26],[-36,-21],[38,-51],[-12,-20],[-47,-25],[-96,35],[-45,-129],[-71,17],[-38,-65],[-37,10],[-51,-203],[-81,-26],[5,-127],[-73,26],[8,68],[-60,178]],[[986,4096],[-13,-20],[-55,-20],[-7,-55],[25,-39],[-32,4],[27,-50],[33,-9],[-31,-86],[-160,-14],[-80,29],[1,-107],[-19,-27],[-36,11],[17,-40],[-80,9],[-4,82],[-43,4],[-80,59],[52,33],[6,62],[34,2],[-35,157],[-54,-16],[-4,31],[538,0]],[[3740,1360],[32,74],[85,66],[45,8],[54,-35],[1,-67],[-93,-100],[-88,-8],[-36,62]]]}