{"objects":{"water":{"type":"GeometryCollection","geometries":[{"type":"MultiPolygon","properties":{"source":"naturalearthdata.com","kind":"ocean","area":1576712559132672,"sort_rank":200,"min_zoom":0.0,"id":1},"arcs":[[[1],[2],[3]],[[4]]]},{"type":"MultiLineString","properties":{"source":"naturalearthdata.com","kind":"ocean","sort_rank":205,"boundary":true,"min_zoom":0.0,"id":1306},"arcs":[[5],[6],[7]]},{"type":"LineString","properties":{"source":"naturalearthdata.com","kind":"ocean","sort_rank":205,"boundary":true,"min_zoom":0.0,"id":1307},"arcs":[8]},{"type":"LineString","properties":{"source":"naturalearthdata.com","kind":"ocean","sort_rank":205,"boundary":true,"min_zoom":0.0,"id":1308},"arcs":[9]},{"type":"LineString","properties":{"source":"naturalearthdata.com","kind":"ocean","sort_rank":205,"boundary":true,"min_zoom":0.0,"id":3405},"arcs":[10]}]},"buildings":{"type":"GeometryCollection","geometries":[]},"places":{"type":"GeometryCollection","geometries":[{"type":"Point","properties":{"name:pt":"Ilhas Feroe","name:ka":"\u10e4\u10d0\u10e0\u10d4\u10e0\u10d8\u10e1 \u10d9\u10e3\u10dc\u10eb\u10e3\u10da\u10d4\u10d1\u10d8","alt_name:el":"\u039d\u03b7\u03c3\u03b9\u03ac \u03a6\u03b5\u03c1\u03cc\u03b5\u03c2","name:ko":"\ud398\ub85c \uc81c\ub3c4","name:kn":"\u0cab\u0cb0\u0ccb \u0ca6\u0ccd\u0cb5\u0cc0\u0caa\u0c97\u0cb3\u0cc1","name:km":"\u1780\u17c4\u17c7\u200b\u17a0\u17d2\u179c\u17b6\u179a\u17c9\u17bc","name:kl":"Savalimmiut","name:cs":"Faersk\u00e9 ostrovy","name:tt":"\u0424\u0430\u0440\u0435\u0440 \u0443\u0442\u0440\u0430\u0443\u043b\u0430\u0440\u044b","name:kw":"Ynysow Faroe","name:kv":"\u0424\u0430\u0440\u0435\u0440 \u0434\u0456\u044f\u0441","name:ku":"Girav\u00ean Faroe","name:ti":"\u12e8\u134b\u122e\u12ed \u12f0\u1234\u1276\u127d","name:to":"\u02bbOtumotu Felou","name:tl":"Kapuluang Peroe","name:zh-min-nan":"M\u00ee-i\u00fb\u207f K\u00fbn-t\u00f3","name:os":"\u0424\u0430\u0440\u0435\u0440\u0430\u0433 \u0441\u0430\u043a\u044a\u0430\u0434\u00e6\u0445\u0442\u00e6","name:or":"\u0b2b\u0b3e\u0b30\u0b4b\u0b07 \u0b26\u0b4d\u0b2c\u0b40\u0b2a\u0b2a\u0b41\u0b1e\u0b4d\u0b1c","name:ce":"\u0424\u0430\u0440\u0435\u0440\u0438\u0439\u043d \u0433\u0406\u0430\u0439\u0440\u0435\u043d\u0430\u0448","name:ta":"\u0baa\u0bb0\u0bcb\u0baf\u0bc7 \u0ba4\u0bc0\u0bb5\u0bc1\u0b95\u0bb3\u0bcd","name:tg":"\u04b6\u0430\u0437\u0438\u0440\u0430\u04b3\u043e\u0438 \u0424\u0430\u0440\u043e","name:ca":"Illes F\u00e8roe","name:te":"\u0c2b\u0c3e\u0c30\u0c4b \u0c26\u0c40\u0c35\u0c41\u0c32\u0c41","name:vi":"Qu\u1ea7n \u0111\u1ea3o Faroe","name:hu":"Fer\u00f6er","name:ro":"Insulele Feroe","name:cy":"Ynysoedd Ffaroe","name:qu":"Pharuy","name:da":"F\u00e6r\u00f8erne","name:de":"F\u00e4r\u00f6er","name:dz":"\u0f55\u0f71\u0f60\u0f7a\u0f0b\u0f62\u0f7c\u0f0b\u0f42\u0fb3\u0f72\u0f44\u0f0b\u0f5a\u0f7c\u0f58","source":"openstreetmap.org","name:yo":"\u00c0w\u1ecdn Er\u00e9k\u00f9\u1e63\u00f9 F\u00e0r\u00f3\u00e8","name:dv":"\u078a\u07a6\u0783\u07ae\u0787\u07ad \u0796\u07a6\u0792\u07a9\u0783\u07a7","name:lv":"Far\u0113ru (F\u0113ru) salas","name:lt":"Farerai","name:hi":"\u092b\u093c\u0930\u094b \u0926\u094d\u0935\u0940\u092a","name:kk":"\u0424\u0430\u0440\u0435\u0440 \u0430\u0440\u0430\u043b\u0434\u0430\u0440\u044b","name:sv":"F\u00e4r\u00f6arna","name:he":"\u05d0\u05d9\u05d9 \u05e4\u05d0\u05e8\u05d5","kind":"country","name:ur":"\u0641\u0631\u0648\u0626\u06cc \u0622\u0626\u0644\u06cc\u0646\u0688\u0632","name:la":"Insulae Faeroae","name:uk":"\u0424\u0430\u0440\u0435\u0440\u0441\u044c\u043a\u0456 \u043e\u0441\u0442\u0440\u043e\u0432\u0438","name:hy":"\u0556\u0561\u0580\u0565\u0580\u0575\u0561\u0576 \u056f\u0572\u0566\u056b\u0576\u0565\u0580","min_zoom":2.0,"name:li":"Faer\u00f6er","name:ln":"Bisanga ya F\u025br\u00f3a","name:lo":"\u0eab\u0ea1\u0eb9\u0ec8\u0ec0\u0e81\u0eb2\u0eb0\u0ec1\u0e9f\u0ec2\u0ea3","name:oc":"Illas Fer\u00f2e","population":48565,"name:el":"\u039d\u03ae\u03c3\u03bf\u03b9 \u03a6\u03b5\u03c1\u03cc\u03b5\u03c2","name:eo":"Ferooj","name:en":"Faroe Islands","name":"F\u00f8royar","name:ee":"Faroe \u0192udomekpowo nutome","name:th":"\u0e2b\u0e21\u0e39\u0e48\u0e40\u0e01\u0e32\u0e30\u0e41\u0e1f\u0e42\u0e23","name:eu":"Faroe Uharteak","name:et":"F\u00e4\u00e4ri saared","name:nl":"Faer\u00f6er","name:es":"Islas Feroe","name:ia":"Insulas Feroe","name:rm":"Inslas Feroe","name:az":"Farer adalar\u0131","name:id":"Kepulauan Faroe","name:ms":"Kepulauan Faroe","name:mr":"\u092b\u0947\u0930\u094b \u0926\u094d\u0935\u0940\u092a\u0938\u092e\u0942\u0939","name:ar":"\u062c\u0632\u0631 \u0641\u0627\u0631\u0648","name:my":"\u1016\u102c\u101b\u102d\u102f\u1038 \u1000\u103b\u103d\u1014\u103a\u1038\u1005\u102f\u1019\u103b\u102c\u1038","name:io":"Faero","int_name":"Faroe Islands","name:is":"F\u00e6reyjar","name:am":"\u134b\u122e \u12f0\u1234\u1276\u127d","name:it":"Isole F\u00e6r \u00d8er","name:an":"Islas Feroe","name:ru":"\u0424\u0430\u0440\u0435\u0440\u0441\u043a\u0438\u0435 \u041e\u0441\u0442\u0440\u043e\u0432\u0430","name:rw":"Ibirwa bya Farowe","name:mi":"Moutere Faroe","name:pl":"Wyspy Owcze","name:mk":"\u0424\u0430\u0440\u0441\u043a\u0438 \u041e\u0441\u0442\u0440\u043e\u0432\u0438","name:af":"Faro\u00ebreilande","name:zu":"i-Faroe Islands","name:mn":"\u0424\u0430\u0440\u0435\u0440\u044b\u043d \u0410\u0440\u043b\u0443\u0443\u0434","name:nn":"F\u00e6r\u00f8yane","name:fi":"F\u00e4rsaaret","name:no":"F\u00e6r\u00f8yene","id":424312044,"name:mt":"G\u017cejjer Faroe","name:fr":"\u00celes F\u00e9ro\u00e9","name:zh-yue":"\u6cd5\u7f85\u7fa4\u5cf6","name:fy":"Faer\u00f6er","name:zh":"\u6cd5\u7f57\u7fa4\u5c9b","name:gv":"Ellanyn ny Geyrragh","name:so":"Jasiiradaha Feroe","name:sl":"Ferski otoki","name:sk":"Faersk\u00e9 ostrovy","name:ja":"\u30d5\u30a7\u30ed\u30fc\u8af8\u5cf6","name:si":"\u0dc6\u0dd0\u0dbb\u0ddd \u0daf\u0dd6\u0db4\u0dad\u0dca","name:sh":"Farski Otoci","name:se":"Fearsullot","name:ne":"\u092b\u093e\u0930\u094b\u0930 \u091f\u093e\u092a\u0941","name:br":"Inizi Faero","name:bs":"Farska ostrva","name:bn":"\u09ab\u09cd\u09af\u09be\u09b0\u0993 \u09a6\u09cd\u09ac\u09c0\u09aa\u09aa\u09c1\u099e\u09cd\u099c","name:bi":"Faroe aelan","name:sw":"Visiwa vya Faroe","name:be":"\u0424\u0430\u0440\u044d\u0440\u0441\u043a\u0456\u044f \u0430\u0441\u0442\u0440\u0430\u0432\u044b","name:su":"Kapuloan Faroe","name:bg":"\u0424\u0430\u0440\u044c\u043e\u0440\u0441\u043a\u0438 \u043e\u0441\u0442\u0440\u043e\u0432\u0438","name:wo":"Duni Faarow","name:sr":"\u0424\u0430\u0440\u0441\u043a\u0430 \u041e\u0441\u0442\u0440\u0432\u0430","name:sq":"Ishujt Faroe","name:ga":"Na Scigir\u00ed","name:gd":"Na h-Eileanan F\u00e0ro","name:ml":"\u0d2b\u0d31\u0d4b\u0d2f\u0d3f \u0d26\u0d4d\u0d35\u0d40\u0d2a\u0d41\u0d15\u0d7e","name:jv":"Kapuloan Faroe","name:gl":"Illas Feroe","name:fa":"\u0641\u0627\u0631\u0648","name:tr":"Faroe Adalar\u0131","name:gu":"\u0aab\u0ac5\u0ab0\u0acb \u0a86\u0a87\u0ab2\u0ac7\u0aa8\u0acd\u0aa1\u0acd\u0ab8"},"coordinates":[4093,2715]}]},"transit":{"type":"GeometryCollection","geometries":[]},"pois":{"type":"GeometryCollection","geometries":[]},"boundaries":{"type":"GeometryCollection","geometries":[{"type":"LineString","properties":{"name:pt":"Ilhas Feroe","name:ka":"\u10e4\u10d0\u10e0\u10d4\u10e0\u10d8\u10e1 \u10d9\u10e3\u10dc\u10eb\u10e3\u10da\u10d4\u10d1\u10d8","name:rm":"Inslas Feroe","name:ko":"\ud398\ub85c \uc81c\ub3c4","name:tr":"Faroe Adalar\u0131","name:kl":"Savalimmiut","name:cs":"Faersk\u00e9 ostrovy","name:tt":"\u0424\u0430\u0440\u0435\u0440 \u0443\u0442\u0440\u0430\u0443\u043b\u0430\u0440\u044b","name:kw":"Ynysow Faroe","name:kv":"\u0424\u0430\u0440\u0435\u0440 \u0434\u0456\u044f\u0441","name:ku":"Girav\u00ean Feroe","name:az":"Farer adalar\u0131","name:tl":"Kapuluang Peroe","name:zh-min-nan":"M\u00ee-i\u00fb\u207f K\u00fbn-t\u00f3","name:os":"\u0424\u0430\u0440\u0435\u0440\u044b \u0441\u0430\u043a\u044a\u0430\u0434\u00e6\u0445\u0442\u00e6","name:ce":"\u0424\u0430\u0440\u0435\u0440\u0438\u0439\u043d \u0433\u0406\u0430\u0439\u0440\u0435\u043d\u0430\u0448","name:ta":"\u0baa\u0bb0\u0bcb\u0baf\u0bc7 \u0ba4\u0bc0\u0bb5\u0bc1\u0b95\u0bb3\u0bcd","name:tg":"\u04b6\u0430\u0437\u0438\u0440\u0430\u04b3\u043e\u0438 \u0424\u0430\u0440\u043e","name:ca":"Illes F\u00e8roe","name:li":"Faer\u00f6er","sort_rank":262,"name:hr":"Ferojski Otoci","name:da":"F\u00e6r\u00f8erne","name:sw":"Visiwa vya Faroe","name:de":"F\u00e4r\u00f6er","source":"openstreetmap.org","name:sq":"Ishujt Faroe","name:be":"\u0424\u0430\u0440\u044d\u0440\u0441\u043a\u0456\u044f \u0430\u0441\u0442\u0440\u0430\u0432\u044b","name:dv":"\u078a\u07a6\u0783\u07ae\u0787\u07ad \u0796\u07a6\u0792\u07a9\u0783\u07a7","name:lv":"F\u0113ru Salas","name:lt":"Farerai","name:hi":"\u092b\u093c\u0930\u094b \u0926\u094d\u0935\u0940\u092a\u0938\u092e\u0942\u0939","name:kk":"\u0424\u0430\u0440\u0435\u0440 \u0430\u0440\u0430\u043b\u0434\u0430\u0440\u044b","name:he":"\u05d0\u05d9\u05d9 \u05e4\u05d0\u05e8\u05d5","name:eo":"Ferooj","name:ur":"\u062c\u0632\u0627\u0626\u0631\u0641\u0627\u0631\u0648","name:la":"Faeroae insulae","name:uk":"\u0424\u0430\u0440\u0435\u0440\u0441\u044c\u043a\u0456 \u043e\u0441\u0442\u0440\u043e\u0432\u0438","name:hy":"\u0556\u0561\u0580\u0565\u0580\u0575\u0561\u0576 \u056f\u0572\u0566\u056b\u0576\u0565\u0580","name:hu":"Fer\u00f6er","name:qu":"Pharuy","name:oc":"Illas Fer\u00f2e","name:el":"\u039d\u03ae\u03c3\u03bf\u03b9 \u03a6\u03b5\u03c1\u03cc\u03b5\u03c2","kind":"country","name:en":"Faroe Islands","name":"F\u00f8royar","name:ee":"Faroe Islands","min_zoom":8.0,"name:th":"\u0e2b\u0e21\u0e39\u0e48\u0e40\u0e01\u0e32\u0e30\u0e41\u0e1f\u0e42\u0e23","name:eu":"Faroeak","name:et":"F\u00e4\u00e4ri saared","name:yo":"\u00c0w\u1ecdn Er\u00e9k\u00f9\u1e63\u00f9 F\u00e0r\u00f3\u00e8","name:ia":"Insulas Feroe","name:mt":"G\u017cejjer Faroe","name:ro":"Insulele Feroe","name:id":"Kepulauan Faroe","name:ms":"Kepulauan Faroe","name:mr":"\u092b\u0947\u0930\u094b \u0926\u094d\u0935\u0940\u092a\u0938\u092e\u0942\u0939","name:ar":"\u062c\u0632\u0631 \u0641\u0627\u0631\u0648","name:io":"Faero","int_name":"Faroe Islands","name:is":"F\u00e6reyjar","name:am":"\u134b\u122e \u12f0\u1234\u1276\u127d","name:it":"F\u00e6r \u00d8er","name:an":"Islas Feroe","name:vi":"Qu\u1ea7n \u0111\u1ea3o Faroe","name:rw":"Ibirwa bya Farowe","name:mi":"Moutere Faroe","name:pl":"Wyspy Owcze","name:mk":"\u0424\u0430\u0440\u0441\u043a\u0438 \u041e\u0441\u0442\u0440\u043e\u0432\u0438","name:af":"Faro\u00ebreilande","name:fa":"\u062c\u0632\u0627\u06cc\u0631 \u0641\u0627\u0631\u0648","name:mn":"\u0424\u0430\u0440\u0435\u0440\u044b\u043d \u0430\u0440\u043b\u0443\u0443\u0434","name:si":"\u0dc6\u0dcf\u0dbb\u0ddd \u0daf\u0dd2\u0dc0\u0dba\u0dd2\u0db1\u0dca","kind_detail":"2","name:sh":"Farski Otoci","id":-52939,"name:fr":"\u00celes F\u00e9ro\u00e9","name:zh-yue":"\u6cd5\u7f85\u7fa4\u5cf6","name:fy":"Faer\u00f6er","name:zh":"\u6cd5\u7f57\u7fa4\u5c9b","name:gv":"Ellanyn ny Geyrragh","name:so":"Jasiiradaha Feroe","name:sl":"Ferski otoki","name:nl":"Faer\u00f6er","name:ja":"\u30d5\u30a7\u30ed\u30fc\u8af8\u5cf6","name:nn":"F\u00e6r\u00f8yane","name:no":"F\u00e6r\u00f8yene","name:se":"Fearsullot","name:ne":"\u092b\u0930\u094b\u0907 \u091f\u093e\u092a\u0941","name:br":"Faero","name:bs":"Farska ostrva","name:jv":"Kapuloan Faroe","name:sk":"Faersk\u00e9 ostrovy","name:bi":"Faroe aelan","name:ru":"\u0424\u0430\u0440\u0435\u0440\u0441\u043a\u0438\u0435 \u043e\u0441\u0442\u0440\u043e\u0432\u0430","name:sv":"F\u00e4r\u00f6arna","name:su":"Kapuloan Faroe","name:bg":"\u0424\u0435\u0440\u044c\u043e\u0440\u0441\u043a\u0438 \u043e\u0441\u0442\u0440\u043e\u0432\u0438","name:wo":"Duni Faarow","name:sr":"\u0424\u0430\u0440\u0441\u043a\u0430 \u041e\u0441\u0442\u0440\u0432\u0430","osm_relation":true,"name:ga":"Oile\u00e1in Fhar\u00f3","name:gd":"Na h-Eileanan F\u00e0ro","name:gl":"Illas Feroe","maritime_boundary":true,"name:es":"Islas Feroe","name:gu":"\u0aab\u0ab0\u0acb \u0aa6\u0acd\u0ab5\u0abf\u0aaa\u0ab8\u0aae\u0ac2\u0ab9","name:fi":"F\u00e4rsaaret"},"arcs":[0]}]},"roads":{"type":"GeometryCollection","geometries":[{"type":"MultiLineString","properties":{"sort_rank":380,"kind_detail":"primary","min_zoom":8.0,"kind":"major_road","source":"openstreetmap.org"},"arcs":[[11],[12],[13]]},{"type":"LineString","properties":{"bus_network":null,"sort_rank":380,"kind_detail":"primary","kind":"major_road","source":"openstreetmap.org","min_zoom":8.0,"bus_shield_text":"100","ref":"11"},"arcs":[14]},{"type":"MultiLineString","properties":{"source":"openstreetmap.org","bus_network":null,"bus_shield_text":"100","sort_rank":380,"kind_detail":"primary","min_zoom":8.0,"kind":"major_road"},"arcs":[[15],[16],[17]]},{"type":"MultiLineString","properties":{"bus_network":null,"sort_rank":380,"kind_detail":"primary","kind":"major_road","source":"openstreetmap.org","min_zoom":8.0,"bus_shield_text":"100","ref":"21"},"arcs":[[18],[19]]},{"type":"LineString","properties":{"source":"openstreetmap.org","kind":"major_road","name:en":"G\u00e1sadalur Tunnel","sort_rank":380,"kind_detail":"primary","min_zoom":8.0,"id":40269227},"arcs":[20]},{"type":"LineString","properties":{"source":"openstreetmap.org","kind":"major_road","sort_rank":380,"kind_detail":"primary","ref":"23","min_zoom":8.0},"arcs":[21]},{"type":"MultiLineString","properties":{"bus_network":null,"sort_rank":380,"kind_detail":"primary","kind":"major_road","source":"openstreetmap.org","min_zoom":8.0,"bus_shield_text":"300","ref":"11"},"arcs":[[22],[23]]},{"type":"MultiLineString","properties":{"source":"openstreetmap.org","bus_network":null,"bus_shield_text":"300","sort_rank":380,"kind_detail":"primary","min_zoom":8.0,"kind":"major_road"},"arcs":[[24],[25],[26]]},{"type":"LineString","properties":{"source":"openstreetmap.org","kind":"ferry","name":"Mykines - S\u00f8rv\u00e1gur","sort_rank":355,"ref":"36","min_zoom":8.0,"id":150332975},"arcs":[27]}]},"earth":{"type":"GeometryCollection","geometries":[{"type":"MultiPolygon","properties":{"sort_rank":10,"source":"naturalearthdata.com","min_zoom":0.0,"kind":"earth","area":5389549128},"arcs":[[[28]],[[29]],[[30]],[[31]]]},{"type":"Point","properties":{"label_placement":true,"kind":"island","name":"V\u00e1gar","area":803683968,"source":"openstreetmap.org","min_zoom":8.0,"id":-2154112,"osm_relation":true},"coordinates":[3497,2996]}]},"landuse":{"type":"GeometryCollection","geometries":[]}},"type":"Topology","transform":{"translate":[-8.4375,61.6063963714],"scale":[0.0003433228,0.0001615054]},"arcs":[[[2847,4096],[-878,-825],[-92,-142],[-14,-122],[43,-135],[1793,-2872]],[[4096,0],[-4096,0],[0,4096],[3581,0],[0,-85],[55,-91],[-46,-24],[-13,-43],[-3,-63],[-16,-85],[-16,-21],[-20,-2],[-16,-17],[-7,-66],[3,-46],[9,-24],[28,-36],[26,-36],[81,-76],[31,-15],[48,25],[47,42],[40,7],[25,-74],[-47,-24],[-2,-59],[29,-59],[51,-27],[228,-38],[0,-3159]],[[3717,2732],[52,40],[47,-6],[48,-24],[52,-10],[62,31],[35,64],[26,80],[36,79],[-57,90],[-72,16],[-77,-5],[-72,26],[-30,43],[-46,102],[-32,20],[-38,10],[-112,78],[0,47],[19,0],[0,38],[-204,-53],[-51,-60],[-34,-14],[-8,-13],[-3,-29],[-7,-29],[-23,-14],[-67,-4],[-22,4],[-36,21],[-103,106],[-70,-11],[6,-122],[55,-141],[78,-67],[149,-34],[74,-39],[65,-51],[-278,0],[0,-42],[41,-4],[118,-84],[181,-39],[130,-91],[31,7],[5,53],[-26,53],[-36,43],[-24,20],[43,30],[41,-37],[33,-76],[20,-86],[-13,-22],[-25,-67],[51,43],[170,84],[-29,2],[-25,7],[-24,15],[-24,22]],[[2557,3104],[-83,46],[-85,-4],[-78,-46],[10,-45],[239,-23],[36,6],[28,11],[-27,18],[-40,37]],[[4071,4096],[25,-76],[0,-103],[-41,83],[-24,96],[40,0]],[[3539,3493],[26,-36],[81,-76],[31,-15],[48,25],[47,42],[40,7],[25,-74],[-47,-24],[-2,-59],[29,-59],[51,-27],[228,-38]],[[4096,3917],[-41,83],[-24,96]],[[3581,4096],[0,-85],[55,-91],[-46,-24],[-13,-43],[-3,-63],[-16,-85],[-16,-21],[-20,-2],[-16,-17],[-7,-66],[3,-46],[9,-24],[28,-36]],[[3069,3025],[149,-34],[74,-39],[65,-51],[-278,0],[0,-42],[41,-4],[118,-84],[181,-39],[130,-91],[31,7],[5,53],[-26,53],[-36,43],[-24,20],[43,30],[41,-37],[33,-76],[20,-86],[-13,-22],[-25,-67],[51,43],[170,84],[-29,2],[-25,7],[-24,15],[-24,22],[52,40],[47,-6],[48,-24],[52,-10],[62,31],[35,64],[26,80],[36,79],[-57,90],[-72,16],[-77,-5],[-72,26],[-30,43],[-46,102],[-32,20],[-38,10],[-112,78],[0,47],[19,0],[0,38],[-204,-53],[-51,-60],[-34,-14],[-8,-13],[-3,-29],[-7,-29],[-23,-14],[-67,-4],[-22,4],[-36,21],[-103,106],[-70,-11],[6,-122],[55,-141],[78,-67]],[[4071,4096],[25,-76]],[[2557,3104],[-83,46],[-85,-4],[-78,-46],[10,-45],[239,-23],[36,6],[28,11],[-27,18],[-40,37]],[[2942,3096],[-14,-11],[-12,34]],[[3291,2880],[-181,101],[-58,-1],[-41,75]],[[4029,3153],[13,-2]],[[4096,3212],[-29,-9]],[[3767,3374],[-2,7]],[[4058,3187],[-1,-5]],[[4068,3202],[-1,1],[-1,-1],[1,-1],[1,1]],[[4057,3182],[-15,-31],[-40,-1],[-45,61],[-19,-44],[-67,-16],[-118,65],[-29,44],[37,20],[-36,33],[5,42],[37,19]],[[4067,3201],[-9,-14]],[[3011,3055],[-69,41]],[[4096,3900],[-46,48],[-51,148]],[[3580,2725],[-28,-6],[-61,61],[-41,104],[-76,-15]],[[4065,3202],[-141,-142],[-70,-12],[-87,25],[12,-36],[-49,-93],[24,-106],[-38,-91],[-135,-21]],[[3291,2880],[83,-11]],[[4066,3203],[-1,-1]],[[3580,2726],[0,-1],[1,0],[0,1],[-1,0]],[[2299,3068],[67,-59],[97,-20],[478,-1],[264,-75],[31,-37]],[[2596,3038],[-36,-6],[-239,23],[-10,45],[78,46],[85,4],[83,-46],[40,-37],[27,-18],[-28,-11]],[[3721,3258],[46,-102],[30,-43],[72,-26],[77,5],[72,-16],[57,-90],[-36,-79],[-26,-80],[-35,-64],[-62,-31],[-52,10],[-48,24],[-47,6],[-52,-40],[24,-22],[24,-15],[25,-7],[29,-2],[-170,-84],[-51,-43],[25,67],[13,22],[-20,86],[-33,76],[-41,37],[-43,-30],[24,-20],[36,-43],[26,-53],[-5,-53],[-31,-7],[-130,91],[-181,39],[-118,84],[-41,4],[0,42],[278,0],[-65,51],[-74,39],[-149,34],[-78,67],[-55,141],[-6,122],[70,11],[103,-106],[36,-21],[22,-4],[67,4],[23,14],[7,29],[3,29],[8,13],[34,14],[51,60],[204,53],[0,-38],[-19,0],[0,-47],[112,-78],[38,-10],[32,-20]],[[4096,3917],[0,-758],[-228,38],[-51,27],[-29,59],[2,59],[47,24],[-25,74],[-40,-7],[-47,-42],[-48,-25],[-31,15],[-81,76],[-26,36],[-28,36],[-9,24],[-3,46],[7,66],[16,17],[20,2],[16,21],[16,85],[3,63],[13,43],[46,24],[-55,91],[0,85],[450,0],[24,-96],[41,-83]],[[4071,4096],[25,0],[0,-76],[-25,76]]]}