{"objects":{"water":{"type":"GeometryCollection","geometries":[{"type":"MultiPolygon","properties":{"source":"naturalearthdata.com","kind":"ocean","area":1576712559132672,"sort_rank":200,"min_zoom":0.0,"id":1},"arcs":[[[53]],[[54]]]},{"type":"MultiLineString","properties":{"source":"naturalearthdata.com","kind":"ocean","sort_rank":205,"boundary":true,"min_zoom":0.0,"id":19},"arcs":[[55],[56]]}]},"buildings":{"type":"GeometryCollection","geometries":[]},"places":{"type":"GeometryCollection","geometries":[{"type":"Point","properties":{"admin_level":"6","name:pt":"Corunha","name:lt":"La Korunja","name:eo":"Korunjo","min_zoom":8.0,"name:uk":"\u041b\u0430-\u041a\u043e\u0440\u0443\u043d\u044c\u044f","name:be":"\u041b\u0430-\u041a\u0430\u0440\u0443\u043d\u044c\u044f","name:ru":"\u041b\u0430-\u041a\u043e\u0440\u0443\u043d\u044c\u044f","id":1235110932,"name:ca":"la Corunya","population":244810,"kind":"locality","name":"A Coru\u00f1a","kind_detail":"city","name:sr":"\u041a\u043e\u0440\u0443\u045a\u0430","source":"openstreetmap.org","name:fr":"La Corogne","name:eu":"Coru\u00f1a"},"coordinates":[121,1216]},{"type":"Point","properties":{"admin_level":"8","kind":"locality","name":"Ferrol","kind_detail":"town","source":"openstreetmap.org","min_zoom":8.0,"id":91254710,"population":74000},"coordinates":[595,1672]},{"type":"Point","properties":{"admin_level":"8","kind":"locality","name":"Nar\u00f3n","kind_detail":"town","source":"openstreetmap.org","min_zoom":8.0,"population":38910,"id":136791599,"name:ja":"\u30ca\u30ed\u30f3"},"coordinates":[714,1738]},{"type":"Point","properties":{"admin_level":"8","kind":"locality","name":"Viveiro","kind_detail":"town","source":"openstreetmap.org","min_zoom":8.0,"id":263207297,"population":16000},"coordinates":[2454,2386]},{"type":"Point","properties":{"admin_level":"8","kind":"locality","name":"Betanzos","kind_detail":"town","source":"openstreetmap.org","min_zoom":8.0,"id":171484343,"population":10746},"coordinates":[661,846]},{"type":"Point","properties":{"admin_level":"8","kind":"locality","name":"Sada","kind_detail":"town","source":"openstreetmap.org","min_zoom":8.0,"id":3123043260,"population":9563},"coordinates":[536,1137]},{"type":"Point","properties":{"admin_level":"8","kind":"locality","name":"Burela","kind_detail":"town","source":"openstreetmap.org","min_zoom":8.0,"id":263207857,"population":9536},"coordinates":[3142,2379]},{"type":"Point","properties":{"admin_level":"8","kind":"locality","name":"As Pontes de Garc\u00eda Rodr\u00edguez","kind_detail":"town","source":"openstreetmap.org","min_zoom":8.0,"id":263206945,"population":9513},"coordinates":[1702,1533]},{"type":"Point","properties":{"admin_level":"8","kind":"locality","name":"Cedeira","kind_detail":"town","source":"openstreetmap.org","min_zoom":8.0,"id":163784717,"population":7062},"coordinates":[1115,2377]},{"type":"Point","properties":{"admin_level":"8","kind":"locality","name":"Ribadeo","kind_detail":"town","source":"openstreetmap.org","min_zoom":8.0,"id":127766530,"population":6466},"coordinates":[4060,1879]},{"type":"Point","properties":{"admin_level":"8","kind":"locality","name":"Vilalba","kind_detail":"town","source":"openstreetmap.org","min_zoom":8.0,"id":275191075,"population":5942},"coordinates":[2210,914]},{"type":"Point","properties":{"admin_level":"8","kind":"locality","name":"Ordes","kind_detail":"town","source":"openstreetmap.org","min_zoom":8.0,"id":968356697,"population":5823},"coordinates":[86,32]},{"type":"Point","properties":{"admin_level":"8","kind":"locality","name":"Foz","kind_detail":"town","source":"openstreetmap.org","min_zoom":8.0,"id":263207987,"population":5021},"coordinates":[3444,2010]},{"type":"Point","properties":{"admin_level":"8","kind":"locality","name":"Pontedeume","kind_detail":"town","source":"openstreetmap.org","min_zoom":8.0,"id":136798686,"population":4624},"coordinates":[774,1361]},{"type":"Point","properties":{"admin_level":"8","kind":"locality","name":"Cambre","kind_detail":"town","source":"openstreetmap.org","min_zoom":8.0,"id":1112903495,"population":3876},"coordinates":[274,895]},{"type":"Point","properties":{"admin_level":"8","kind":"locality","name":"Ares","kind_detail":"town","source":"openstreetmap.org","min_zoom":8.0,"id":286401609,"population":3814},"coordinates":[563,1437]},{"type":"Point","properties":{"admin_level":"8","kind":"locality","name":"Cari\u00f1o","kind_detail":"town","source":"openstreetmap.org","min_zoom":8.0,"id":388551570,"population":3127},"coordinates":[1654,2703]},{"type":"Point","properties":{"admin_level":"8","kind":"locality","name":"Mugardos","kind_detail":"town","source":"openstreetmap.org","min_zoom":8.0,"id":286402210,"population":2575},"coordinates":[525,1580]},{"type":"Point","properties":{"admin_level":"8","kind":"locality","name":"Mi\u00f1o","kind_detail":"town","source":"openstreetmap.org","min_zoom":8.0,"id":163791911,"population":2252},"coordinates":[667,1118]},{"type":"Point","properties":{"admin_level":"8","kind":"locality","name":"Mondo\u00f1edo","kind_detail":"town","name:pt":"Mondonhedo","source":"openstreetmap.org","min_zoom":8.0,"id":275192751,"population":1986},"coordinates":[3127,1451]},{"type":"Point","properties":{"admin_level":"8","kind":"locality","name":"Fene","kind_detail":"town","source":"openstreetmap.org","min_zoom":8.0,"id":136794154,"population":1730},"coordinates":[801,1628]},{"type":"Point","properties":{"admin_level":"8","kind":"locality","name":"Ortigueira","kind_detail":"town","source":"openstreetmap.org","min_zoom":8.0,"id":163785415,"population":1692},"coordinates":[1698,2475]},{"type":"Point","properties":{"admin_level":"8","kind":"locality","name":"Guitiriz","kind_detail":"town","source":"openstreetmap.org","min_zoom":8.0,"id":1459284637,"population":1654},"coordinates":[1583,450]},{"type":"Point","properties":{"admin_level":"8","kind":"locality","name":"Culleredo","kind_detail":"town","source":"openstreetmap.org","min_zoom":8.0,"id":3123043242,"population":1483},"coordinates":[140,883]},{"type":"Point","properties":{"admin_level":"8","kind":"locality","name":"A Fonsagrada","kind_detail":"town","source":"openstreetmap.org","min_zoom":8.0,"id":828410655,"population":1229},"coordinates":[3990,225]},{"type":"Point","properties":{"source":"openstreetmap.org","kind":"locality","name":"Valdovi\u00f1o","kind_detail":"town","population":1056,"min_zoom":8.0,"id":413409602},"coordinates":[859,2163]}]},"transit":{"type":"GeometryCollection","geometries":[{"type":"LineString","properties":{"kind":"train","name":"Cercanias El Ferrol - Ortigueira","sort_rank":275,"source":"openstreetmap.org","min_zoom":6.0,"operator":"Renfe","id":-7391591,"osm_relation":true},"arcs":[5]},{"type":"MultiLineString","properties":{"source":"openstreetmap.org","kind":"train","name":"A Coru\u00f1a - Lugo","sort_rank":275,"ref":"IR","min_zoom":6.0,"osm_relation":true},"arcs":[[6],[7],[8],[9],[10],[11],[12],[13],[14],[15],[16],[17],[18],[19],[20],[21],[22],[23],[24]]},{"type":"LineString","properties":{"kind":"train","name":"A Coru\u00f1a-Lugo","sort_rank":275,"source":"openstreetmap.org","min_zoom":6.0,"operator":"Renfe","id":-2123392,"osm_relation":true},"arcs":[25]},{"type":"MultiLineString","properties":{"osm_relation":true,"source":"openstreetmap.org","kind":"train","name":"LAV Santiago de Compostela - A Coru\u00f1a","sort_rank":275,"min_zoom":6.0,"operator":"adif"},"arcs":[[26],[27]]},{"type":"MultiLineString","properties":{"source":"openstreetmap.org","kind":"train","name":"R","sort_rank":275,"min_zoom":6.0,"osm_relation":true},"arcs":[[28],[29]]},{"type":"MultiLineString","properties":{"source":"openstreetmap.org","kind":"train","name":"Ferrol - A Coruna","sort_rank":275,"ref":"HOT","min_zoom":6.0,"osm_relation":true},"arcs":[[30],[31],[32],[33],[34],[35],[36],[37],[38],[39],[40],[41],[42],[43]]},{"type":"LineString","properties":{"kind":"train","name":"A Coru\u00f1a-Ourense","sort_rank":275,"source":"openstreetmap.org","min_zoom":6.0,"operator":"Renfe","id":-2123396,"osm_relation":true},"arcs":[44]},{"type":"LineString","properties":{"osm_relation":true,"source":"openstreetmap.org","kind":"train","name":"Regional El Ferrol - Oviedo","sort_rank":275,"min_zoom":6.0,"operator":"Renfe"},"arcs":[45]},{"type":"LineString","properties":{"kind":"train","name":"Cercanias Ortigueira - El Ferrol","sort_rank":275,"source":"openstreetmap.org","min_zoom":6.0,"operator":"Renfe","id":-7391592,"osm_relation":true},"arcs":[46]},{"type":"MultiLineString","properties":{"source":"openstreetmap.org","kind":"train","name":"A Coru\u00f1a - Vigo","sort_rank":275,"ref":"R","min_zoom":6.0,"osm_relation":true},"arcs":[[47],[48],[49]]},{"type":"LineString","properties":{"kind":"train","name":"A Coru\u00f1a-Vigo","sort_rank":275,"source":"openstreetmap.org","min_zoom":6.0,"operator":"Renfe","id":-2123395,"osm_relation":true},"arcs":[50]},{"type":"LineString","properties":{"osm_relation":true,"source":"openstreetmap.org","kind":"train","name":"Regional Oviedo - El Ferrol","sort_rank":275,"min_zoom":6.0,"operator":"Renfe"},"arcs":[51]},{"type":"LineString","properties":{"kind":"train","name":"A Coru\u00f1a-Ferrol","sort_rank":275,"source":"openstreetmap.org","min_zoom":6.0,"operator":"Renfe","id":-2123393,"osm_relation":true},"arcs":[52]}]},"pois":{"type":"GeometryCollection","geometries":[{"type":"Point","properties":{"kind":"nature_reserve","name:en":"Fragas do Eume Natural Park","name":"Parque Natural Fragas do Eume","area":170566000,"source":"openstreetmap.org","min_zoom":8.58,"tier":2,"id":290507087},"coordinates":[1416,1245]}]},"boundaries":{"type":"GeometryCollection","geometries":[{"type":"LineString","properties":{"name:kg":"Espania","name:ty":"Paniora","name:ka":"\u10d4\u10e1\u10de\u10d0\u10dc\u10d4\u10d7\u10d8","name:ko":"\uc2a4\ud398\uc778","name:cv":"\u0418\u0441\u043f\u0430\u043d\u0438","name:cu":"\u0407\u0441\u043f\u0430\u043d\u0457\ua657","name:kl":"Spania","name:cs":"\u0160pan\u011blsko","name:tt":"\u0418\u0441\u043f\u0430\u043d\u0438\u044f","name:co":"Spagna","name:kv":"\u0418\u0441\u043f\u0430\u043d\u0438\u044f","name:ku":"Spanya","name:to":"Sepeni","name:tl":"Espanya","name:ce":"\u0418\u0441\u043f\u0430\u043d\u0438","name:ta":"\u0b8e\u0b9a\u0bc1\u0baa\u0bcd\u0baa\u0bbe\u0ba9\u0bbf\u0baf\u0bbe","name:tg":"\u0418\u0441\u043f\u043e\u043d\u0438\u0451","name:ca":"Espanya","name:te":"\u0c38\u0c4d\u0c2a\u0c46\u0c2f\u0c3f\u0c28\u0c4d","name:cy":"Sbaen","name:qu":"Ispa\u00f1a","name:da":"Spanien","name:de":"Spanien","name:dz":"\u0f66\u0f72\u0f54\u0f71\u0f7a\u0f53\u0f0b","source":"openstreetmap.org","name:kn":"\u0cb8\u0ccd\u0caa\u0cc7\u0ca8\u0ccd","name:dv":"\u0787\u07a8\u0790\u07b0\u0795\u07ac\u0787\u07a8\u0782\u07b0","name:km":"\u17a2\u17c1\u179f\u17d2\u1794\u17c9\u17b6\u1789","name:lv":"Sp\u0101nija","name:lt":"Ispanija","name:uz":"Ispaniya","name:kk":"\u0418\u0441\u043f\u0430\u043d\u0438\u044f","name:ur":"\u06c1\u0633\u067e\u0627\u0646\u06cc\u06c1","name:lb":"Spuenien","name:la":"Hispania","name:uk":"\u0406\u0441\u043f\u0430\u043d\u0456\u044f","name:ug":"Ispaniye","name:li":"Spanje","name:ln":"Espania","name:el":"\u0399\u03c3\u03c0\u03b1\u03bd\u03af\u03b1","name:eo":"Hispanujo","name:en":"Spain","name":"Espa\u00f1a","name:tk":"Ispani\u00fda","name:ee":"Spain","name:th":"\u0e1b\u0e23\u0e30\u0e40\u0e17\u0e28\u0e2a\u0e40\u0e1b\u0e19","name:eu":"Espainia","name:et":"Hispaania","name:ay":"Ispa\u00f1a","name:rm":"Spagna","name:rn":"Esipanye","name:az":"\u0130spaniya","name:ie":"Hispania","name:id":"Spanyol","name:ig":"Spain","name:ik":"Spa\u00f1a","name:ar":"\u0625\u0633\u0628\u0627\u0646\u064a\u0627","name:io":"Hispania","name:is":"Sp\u00e1nn","name:am":"\u12a5\u1235\u1353\u1295\u12eb","name:it":"Spagna","name:an":"Espanya","name:ru":"\u0418\u0441\u043f\u0430\u043d\u0438\u044f","name:rw":"Esipanye","name:af":"Spanje","name:zu":"ISpeyini","kind_detail":"2","name:za":"Sihbanhyaz","name:zh-yue":"\u897f\u73ed\u7259","name:zh":"\u897f\u73ed\u7259","name:so":"Isbania","name:sm":"Spania","name:sl":"\u0160panija","name:sk":"\u0160panielsko","name:ja":"\u30b9\u30da\u30a4\u30f3","name:sh":"\u0160panija","name:se":"Sp\u00e1nia","name:sc":"Ispagna","name:br":"Spagn","name:bs":"\u0160panija","name:bn":"\u09b8\u09cd\u09aa\u09c7\u09a8","name:bo":"\u0f5e\u0f72\u0f0b\u0f54\u0f53\u0f0b\u0f61\u0f0d","name:bi":"Spain","name:sw":"Hispania","name:be":"\u0406\u0441\u043f\u0430\u043d\u0456\u044f","name:su":"Spanyol","name:bg":"\u0418\u0441\u043f\u0430\u043d\u0438\u044f","name:ss":"Sipeyini","name:ba":"\u0418\u0441\u043f\u0430\u043d\u0438\u044f","name:sq":"Spanja","name:jv":"Spanyol","name:sa":"\u0938\u094d\u092a\u0947\u0928\u094d","name:ia":"Espania","name:pt":"Espanha","name:ps":"\u0627\u0633\u067e\u0627\u0646\u06cc\u0627","name:oc":"Espanha","min_zoom":8.0,"name:ro":"Spania","name:zh-min-nan":"Se-pan-g\u00e2","name:os":"\u0418\u0441\u043f\u0430\u043d\u0438","name:or":"\u0b38\u0b4d\u0b2a\u0b47\u0b28","name:pl":"Hiszpania","name:st":"Spain","sort_rank":262,"name:sr":"\u0428\u043f\u0430\u043d\u0438\u0458\u0430","osm_relation":true,"name:pa":"\u0a38\u0a2a\u0a47\u0a28","name:tr":"\u0130spanya","name:hi":"\u0938\u094d\u092a\u0947\u0928","name:sv":"Spanien","name:he":"\u05e1\u05e4\u05e8\u05d3","name:hy":"\u053b\u057d\u057a\u0561\u0576\u056b\u0561","name:ht":"Espay","name:hu":"Spanyolorsz\u00e1g","name:hr":"\u0160panjolska","kind":"country","name:ts":"Spaniya","name:yi":"\u05e9\u05e4\u05d0\u05e0\u05d9\u05e2","name:iu":"\u14ef\u1438\u1403\u14d0","name:yo":"Sp\u00e9\u00ecn","name:mt":"Spanja","alt_name:eo":"Hispanio","name:ms":"Sepanyol","name:mr":"\u0938\u094d\u092a\u0947\u0928","name:my":"\u1005\u1015\u102d\u1014\u103a\u1014\u102d\u102f\u1004\u103a\u1004\u1036","official_name":"Reino de Espa\u00f1a","name:kw":"Spayn","name:mg":"Espaina","name:vi":"T\u00e2y Ban Nha","name:ml":"\u0d38\u0d4d\u0d2a\u0d46\u0d2f\u0d3f\u0d7b","name:mn":"\u0418\u0441\u043f\u0430\u043d\u0438","name:mi":"P\u0101niora","id":-1311341,"name:mk":"\u0428\u043f\u0430\u043d\u0438\u0458\u0430","name:vo":"Spany\u00e4n","name:fa":"\u0627\u0633\u067e\u0627\u0646\u06cc\u0627","name:fi":"Espanja","name:ky":"\u0418\u0441\u043f\u0430\u043d\u0438\u044f","name:fo":"Spania","name:fr":"Espagne","name:fy":"Spanje","int_name":"Spain","name:nl":"Spanje","name:nn":"Spania","name:no":"Spania","name:na":"Pain","name:ne":"\u0938\u094d\u092a\u0947\u0928","name:wa":"Espagne","name:wo":"Ispaa\u00f1","name:nv":"Dib\u00e9 Din\u00ed\u00ed Bik\u00e9yah","name:ga":"An Sp\u00e1inn","name:gd":"An Sp\u00e0inn","maritime_boundary":true,"name:gv":"Yn Spaainey","name:gu":"\u0ab8\u0acd\u0aaa\u0ac7\u0aa8"},"arcs":[0]},{"type":"MultiLineString","properties":{"name:right:fr":"Asturies","id:right":-349033,"min_zoom":8.0,"name:left:lt":"Galisija","name:left:be":"\u0413\u0430\u043b\u0456\u0441\u0456\u044f","id":-349036,"name:right":"Asturias","name:right:ca":"Ast\u00faries","kind_detail":"4","name:left:ca":"Gal\u00edcia","source":"openstreetmap.org","name:right:ar":"\u0623\u0633\u062a\u0648\u0631\u064a\u0627\u0633","id:left":-349036,"name:right:cs":"Asturie","name:left:cs":"Galicie","name:left":"Galicia","name:right:pt":"Ast\u00farias","name:left:pl":"Galicja","name:left:pt":"Galiza","name:left:de":"Galicien","name:left:ru":"\u0413\u0430\u043b\u0438\u0441\u0438\u044f","name:left:it":"Galizia","osm_relation":true,"kind":"region","name":"Galicia - Asturias","name:right:de":"Asturien","name:left:nl":"Galici\u00eb","name:right:be":"\u0410\u0441\u0442\u0443\u0440\u044b\u044f","sort_rank":256,"name:left:fr":"Galice","name:left:eu":"Galizia","alt_name:left:gl":"Galiza","official_name:left":"Comunidade Aut\u00f3noma de Galicia"},"arcs":[[1],[2]]},{"type":"LineString","properties":{"name:pt":"Galiza","name:nl":"Galici\u00eb","name:lt":"Galisija","alt_name:gl":"Galiza","name:cs":"Galicie","official_name":"Comunidade Aut\u00f3noma de Galicia","min_zoom":8.0,"name:it":"Galizia","name:ru":"\u0413\u0430\u043b\u0438\u0441\u0438\u044f","name:be":"\u0413\u0430\u043b\u0456\u0441\u0456\u044f","name:pl":"Galicja","id":-349036,"name:ca":"Gal\u00edcia","kind":"region","name":"Galicia","sort_rank":256,"kind_detail":"4","name:fr":"Galice","name:de":"Galicien","source":"openstreetmap.org","maritime_boundary":true,"osm_relation":true,"name:eu":"Galizia"},"arcs":[3]},{"type":"LineString","properties":{"kind":"region","name":"Asturias","sort_rank":256,"kind_detail":"4","name:ar":"\u0623\u0633\u062a\u0648\u0631\u064a\u0627\u0633","name:cs":"Asturie","name:pt":"Ast\u00farias","name:de":"Asturien","source":"openstreetmap.org","min_zoom":8.0,"name:fr":"Asturies","name:ca":"Ast\u00faries","name:be":"\u0410\u0441\u0442\u0443\u0440\u044b\u044f","id":-349033,"osm_relation":true},"arcs":[4]}]},"roads":{"type":"GeometryCollection","geometries":[{"type":"MultiLineString","properties":{"source":"openstreetmap.org","kind":"major_road","sort_rank":380,"kind_detail":"primary","ref":"LU-540","min_zoom":8.0},"arcs":[[57],[58],[59],[60],[61],[62],[63],[64],[65],[66],[67],[68],[69],[70]]},{"type":"LineString","properties":{"kind":"major_road","sort_rank":380,"kind_detail":"primary","name:ga":"Avenida do Ex\u00e9rcito","source":"openstreetmap.org","min_zoom":8.0,"landuse_kind":"urban_area","ref":"AC-12","id":18087345},"arcs":[71]},{"type":"MultiLineString","properties":{"source":"openstreetmap.org","kind":"major_road","landuse_kind":"urban_area","sort_rank":380,"kind_detail":"primary","min_zoom":8.0},"arcs":[[72],[73],[74],[75],[76],[77],[78],[79],[80],[81],[82],[83],[84],[85],[86],[87],[88],[89],[90],[91],[92],[93],[94],[95],[96],[97],[98],[99],[100],[101],[102],[103],[104],[105],[106],[107],[108],[109],[110],[111],[112],[113],[114],[115],[116],[117],[118],[119]]},{"type":"MultiLineString","properties":{"kind":"highway","network":"e-road","sort_rank":383,"kind_detail":"motorway","name:es":"Autov\u00eda del Noroeste","source":"openstreetmap.org","min_zoom":8.0,"all_networks":["e-road","ES:A-road"],"shield_text":"70","ref":"A-6","all_shield_texts":["70","6"]},"arcs":[[120],[121],[122],[123],[124],[125],[126],[127],[128],[129],[130],[131],[132],[133],[134],[135],[136],[137],[138],[139],[140],[141],[142],[143],[144],[145]]},{"type":"LineString","properties":{"kind":"major_road","sort_rank":380,"kind_detail":"primary","bus_network":null,"source":"openstreetmap.org","min_zoom":8.0,"bus_shield_text":"169","ref":"AC-162","id":26140255},"arcs":[146]},{"type":"LineString","properties":{"kind":"major_road","sort_rank":380,"kind_detail":"primary","source":"openstreetmap.org","min_zoom":8.0,"old_name":"C-640","ref":"LU-170 antigua","id":155226428},"arcs":[147]},{"type":"LineString","properties":{"source":"openstreetmap.org","kind":"major_road","landuse_kind":"urban_area","sort_rank":380,"kind_detail":"primary","ref":"AC-862","min_zoom":8.0},"arcs":[148]},{"type":"MultiLineString","properties":{"source":"openstreetmap.org","kind":"highway","landuse_kind":"urban_area","sort_rank":383,"kind_detail":"motorway","ref":"AG-64","min_zoom":8.0},"arcs":[[149],[150]]},{"type":"MultiLineString","properties":{"kind":"major_road","sort_rank":380,"kind_detail":"primary","source":"openstreetmap.org","min_zoom":8.0,"landuse_kind":"residential","ref":"AC-862","name:es":"Carretera de Castilla"},"arcs":[[151],[152],[153],[154],[155],[156],[157],[158],[159],[160],[161],[162]]},{"type":"LineString","properties":{"kind":"major_road","sort_rank":380,"kind_detail":"primary","bus_network":null,"source":"openstreetmap.org","min_zoom":8.0,"bus_shield_text":"1","landuse_kind":"urban_area","id":291943364,"name:es":"Avenida del Ej\u00e9rcito"},"arcs":[163]},{"type":"MultiLineString","properties":{"source":"openstreetmap.org","kind":"major_road","landuse_kind":"residential","sort_rank":380,"kind_detail":"primary","ref":"AC-116","min_zoom":8.0},"arcs":[[164],[165],[166]]},{"type":"MultiLineString","properties":{"bus_network":null,"sort_rank":381,"landuse_kind":"urban_area","kind":"major_road","source":"openstreetmap.org","min_zoom":8.0,"bus_shield_text":"184","kind_detail":"trunk","ref":"N-550"},"arcs":[[167],[168],[169],[170],[171],[172],[173],[174],[175],[176],[177],[178],[179],[180],[181]]},{"type":"MultiLineString","properties":{"source":"openstreetmap.org","kind":"major_road","sort_rank":380,"kind_detail":"primary","ref":"LU-132","min_zoom":8.0},"arcs":[[182],[183],[184],[185],[186],[187]]},{"type":"MultiLineString","properties":{"source":"openstreetmap.org","kind":"major_road","sort_rank":381,"kind_detail":"trunk","ref":"N-VI","min_zoom":8.0},"arcs":[[188],[189],[190],[191],[192],[193],[194],[195],[196],[197],[198],[199],[200]]},{"type":"MultiLineString","properties":{"source":"openstreetmap.org","kind":"major_road","sort_rank":381,"kind_detail":"trunk","ref":"FE-11","min_zoom":8.0,"name:es":"Carretera de la Trinchera"},"arcs":[[201],[202],[203],[204],[205],[206],[207]]},{"type":"MultiLineString","properties":{"source":"openstreetmap.org","kind":"major_road","landuse_kind":"urban_area","sort_rank":380,"kind_detail":"primary","ref":"AC-861","min_zoom":8.0},"arcs":[[208],[209],[210],[211],[212],[213],[214],[215],[216],[217],[218]]},{"type":"MultiLineString","properties":{"bus_network":null,"sort_rank":380,"kind_detail":"primary","kind":"major_road","source":"openstreetmap.org","min_zoom":8.0,"bus_shield_text":"171","ref":"AC-161"},"arcs":[[219],[220],[221],[222],[223]]},{"type":"MultiLineString","properties":{"source":"openstreetmap.org","kind":"major_road","sort_rank":380,"kind_detail":"primary","ref":"AC-110","min_zoom":8.0},"arcs":[[224],[225]]},{"type":"MultiLineString","properties":{"bus_network":null,"sort_rank":381,"kind_detail":"trunk","kind":"major_road","source":"openstreetmap.org","min_zoom":8.0,"bus_shield_text":"171","ref":"N-VIa"},"arcs":[[226],[227]]},{"type":"MultiLineString","properties":{"source":"openstreetmap.org","kind":"major_road","sort_rank":381,"kind_detail":"trunk","ref":"N-634a","min_zoom":8.0},"arcs":[[228],[229],[230]]},{"type":"MultiLineString","properties":{"source":"openstreetmap.org","kind":"major_road","landuse_kind":"urban_area","sort_rank":380,"kind_detail":"primary","ref":"AC-105","min_zoom":8.0},"arcs":[[231],[232],[233],[234],[235]]},{"type":"MultiLineString","properties":{"kind":"highway","network":"e-road","sort_rank":383,"landuse_kind":"residential","source":"openstreetmap.org","min_zoom":8.0,"name:es":"Autopista del Atl\u00e1ntico","kind_detail":"motorway","shield_text":"01","ref":"AP-9F","all_shield_texts":["01"],"all_networks":["e-road"]},"arcs":[[236],[237],[238],[239],[240]]},{"type":"MultiLineString","properties":{"source":"openstreetmap.org","kind":"major_road","sort_rank":380,"kind_detail":"primary","ref":"AC-125","min_zoom":8.0},"arcs":[[241],[242]]},{"type":"LineString","properties":{"source":"openstreetmap.org","kind":"major_road","sort_rank":380,"kind_detail":"primary","ref":"AC-526","min_zoom":8.0,"id":130867799},"arcs":[243]},{"type":"MultiLineString","properties":{"source":"openstreetmap.org","kind":"major_road","ref":"N-642","sort_rank":381,"kind_detail":"trunk","is_bicycle_related":true,"min_zoom":8.0},"arcs":[[244],[245],[246]]},{"type":"MultiLineString","properties":{"sort_rank":380,"kind_detail":"primary","min_zoom":8.0,"kind":"major_road","source":"openstreetmap.org"},"arcs":[[247],[248],[249],[250],[251],[252],[253],[254],[255],[256],[257],[258],[259],[260],[261],[262],[263],[264],[265],[266],[267],[268]]},{"type":"MultiLineString","properties":{"source":"openstreetmap.org","kind":"major_road","sort_rank":380,"kind_detail":"primary","ref":"AC-840","min_zoom":8.0},"arcs":[[269],[270],[271],[272]]},{"type":"MultiLineString","properties":{"source":"openstreetmap.org","kind":"major_road","sort_rank":381,"kind_detail":"trunk","ref":"FE-13","min_zoom":8.0},"arcs":[[273],[274],[275]]},{"type":"MultiLineString","properties":{"bus_network":null,"sort_rank":380,"kind_detail":"primary","kind":"major_road","source":"openstreetmap.org","min_zoom":8.0,"bus_shield_text":"176","ref":"AC-214"},"arcs":[[276],[277]]},{"type":"MultiLineString","properties":{"source":"openstreetmap.org","kind":"major_road","sort_rank":380,"kind_detail":"primary","ref":"AS-21","min_zoom":8.0},"arcs":[[278],[279],[280],[281],[282],[283]]},{"type":"MultiLineString","properties":{"source":"openstreetmap.org","kind":"major_road","landuse_kind":"urban_area","sort_rank":380,"kind_detail":"primary","ref":"AC-211","min_zoom":8.0},"arcs":[[284],[285],[286],[287]]},{"type":"MultiLineString","properties":{"source":"openstreetmap.org","kind":"major_road","sort_rank":381,"kind_detail":"trunk","ref":"N-634","min_zoom":8.0},"arcs":[[288],[289],[290],[291],[292],[293],[294],[295],[296],[297],[298],[299],[300],[301],[302],[303],[304],[305],[306],[307],[308],[309],[310],[311],[312],[313],[314],[315],[316],[317],[318],[319],[320],[321],[322],[323],[324],[325],[326],[327],[328],[329],[330],[331],[332],[333],[334],[335],[336],[337],[338],[339],[340],[341],[342],[343],[344],[345],[346],[347],[348],[349],[350],[351],[352],[353],[354],[355],[356],[357],[358],[359],[360],[361],[362],[363],[364],[365],[366],[367],[368],[369],[370],[371],[372],[373],[374],[375],[376],[377],[378],[379],[380],[381],[382],[383],[384]]},{"type":"MultiLineString","properties":{"source":"openstreetmap.org","kind":"major_road","sort_rank":380,"kind_detail":"primary","ref":"LU-120","min_zoom":8.0},"arcs":[[385],[386],[387],[388]]},{"type":"MultiLineString","properties":{"source":"openstreetmap.org","kind":"highway","sort_rank":383,"kind_detail":"motorway","ref":"AP-9SF","min_zoom":8.0,"name:es":"Autopista del Atl\u00e1ntico"},"arcs":[[389],[390],[391],[392],[393]]},{"type":"LineString","properties":{"source":"openstreetmap.org","kind":"major_road","sort_rank":380,"kind_detail":"primary","ref":"LU-P-5101","min_zoom":8.0,"id":61581496},"arcs":[394]},{"type":"MultiLineString","properties":{"kind":"highway","network":"e-road","sort_rank":383,"kind_detail":"motorway","source":"openstreetmap.org","min_zoom":8.0,"all_networks":["e-road","ES:A-road"],"shield_text":"70","ref":"A-8","all_shield_texts":["70","8"]},"arcs":[[395],[396],[397],[398]]},{"type":"MultiLineString","properties":{"kind":"major_road","network":null,"sort_rank":381,"kind_detail":"trunk","source":"openstreetmap.org","min_zoom":8.0,"shield_text":"640","ref":"N-640"},"arcs":[[399],[400],[401],[402],[403],[404],[405],[406],[407],[408]]},{"type":"LineString","properties":{"bus_network":null,"sort_rank":381,"landuse_kind":"urban_area","kind":"major_road","name:gl":"Avenida do Alcalde Alfonso Molina","source":"openstreetmap.org","min_zoom":8.0,"bus_shield_text":"443","kind_detail":"trunk","ref":"AC-11","name:es":"Avenida del Alcalde Alfonso Molina"},"arcs":[409]},{"type":"MultiLineString","properties":{"source":"openstreetmap.org","kind":"major_road","landuse_kind":"urban_area","sort_rank":380,"kind_detail":"primary","ref":"DP-0512","min_zoom":8.0},"arcs":[[410],[411],[412],[413]]},{"type":"MultiLineString","properties":{"source":"openstreetmap.org","kind":"major_road","kind_detail":"trunk","sort_rank":381,"landuse_kind":"urban_area","ref":"N-VI","min_zoom":8.0},"arcs":[[414],[415]]},{"type":"MultiLineString","properties":{"bus_network":null,"sort_rank":380,"kind_detail":"primary","name:pt":"Costa da T\u00e1pia","source":"openstreetmap.org","min_zoom":8.0,"bus_shield_text":"167","landuse_kind":"urban_area","ref":"AC-211","kind":"major_road","name:es":"Cuesta de la Tapia"},"arcs":[[416],[417]]},{"type":"MultiLineString","properties":{"bus_network":null,"sort_rank":380,"kind_detail":"primary","kind":"major_road","source":"openstreetmap.org","min_zoom":8.0,"bus_shield_text":"1-A","landuse_kind":"urban_area","ref":"AC-10"},"arcs":[[418],[419],[420]]},{"type":"LineString","properties":{"source":"openstreetmap.org","kind":"major_road","sort_rank":380,"kind_detail":"primary","ref":"AC-221","min_zoom":8.0,"id":70068628},"arcs":[421]},{"type":"LineString","properties":{"kind":"major_road","sort_rank":380,"kind_detail":"primary","bus_network":null,"source":"openstreetmap.org","min_zoom":8.0,"bus_shield_text":"14","landuse_kind":"urban_area","ref":"AC-12","id":291943382,"name:es":"Avenida del Ej\u00e9rcito"},"arcs":[422]},{"type":"MultiLineString","properties":{"source":"openstreetmap.org","kind":"major_road","kind_detail":"trunk","sort_rank":381,"landuse_kind":"urban_area","ref":"AC-12","min_zoom":8.0},"arcs":[[423],[424],[425],[426],[427]]},{"type":"MultiLineString","properties":{"source":"openstreetmap.org","kind":"major_road","sort_rank":381,"kind_detail":"trunk","ref":"N-642","min_zoom":8.0},"arcs":[[428],[429],[430],[431],[432],[433],[434],[435],[436],[437],[438],[439],[440],[441],[442],[443],[444],[445],[446],[447],[448],[449],[450],[451],[452],[453],[454],[455],[456],[457],[458],[459],[460],[461],[462],[463],[464],[465],[466],[467],[468],[469],[470],[471],[472],[473],[474],[475],[476],[477],[478]]},{"type":"MultiLineString","properties":{"source":"openstreetmap.org","kind":"highway","landuse_kind":"residential","sort_rank":383,"kind_detail":"motorway","ref":"AG-64","min_zoom":8.0},"arcs":[[479],[480]]},{"type":"MultiLineString","properties":{"bus_network":null,"sort_rank":380,"kind_detail":"primary","kind":"major_road","source":"openstreetmap.org","min_zoom":8.0,"bus_shield_text":"178","landuse_kind":"urban_area","ref":"DP-1704"},"arcs":[[481],[482],[483],[484],[485],[486],[487]]},{"type":"MultiLineString","properties":{"source":"openstreetmap.org","kind":"major_road","landuse_kind":"residential","sort_rank":380,"kind_detail":"primary","ref":"AC-566","min_zoom":8.0},"arcs":[[488],[489],[490]]},{"type":"MultiLineString","properties":{"kind":"highway","network":"e-road","sort_rank":383,"landuse_kind":"urban_area","source":"openstreetmap.org","min_zoom":8.0,"name:es":"Autopista del Atl\u00e1ntico","kind_detail":"motorway","shield_text":"01","ref":"AP-9F","all_shield_texts":["01"],"all_networks":["e-road"]},"arcs":[[491],[492],[493],[494],[495],[496],[497],[498],[499],[500],[501],[502]]},{"type":"MultiLineString","properties":{"kind":"highway","network":"e-road","sort_rank":383,"landuse_kind":"urban_area","source":"openstreetmap.org","min_zoom":8.0,"all_networks":["e-road","ES:A-road"],"kind_detail":"motorway","shield_text":"01","ref":"AP-9","all_shield_texts":["01","9"]},"arcs":[[503],[504]]},{"type":"LineString","properties":{"kind":"major_road","sort_rank":380,"landuse_kind":"nature_reserve","source":"openstreetmap.org","min_zoom":8.0,"kind_detail":"primary","ref":"LU-111","id":181145507},"arcs":[505]},{"type":"LineString","properties":{"bus_network":null,"sort_rank":380,"kind_detail":"primary","name:ga":"Avenida da Pasaxe","source":"openstreetmap.org","min_zoom":8.0,"bus_shield_text":"EP","landuse_kind":"urban_area","ref":"AC-12","kind":"major_road"},"arcs":[506]},{"type":"LineString","properties":{"kind":"highway","sort_rank":383,"kind_detail":"motorway","source":"openstreetmap.org","min_zoom":8.0,"ref":"A-8","id":128632413,"name:es":"Autov\u00eda del Cant\u00e1brico"},"arcs":[507]},{"type":"MultiLineString","properties":{"source":"openstreetmap.org","kind":"major_road","landuse_kind":"urban_area","sort_rank":380,"kind_detail":"primary","ref":"AC-566","min_zoom":8.0},"arcs":[[508],[509],[510],[511],[512],[513],[514],[515],[516]]},{"type":"LineString","properties":{"kind":"major_road","sort_rank":380,"kind_detail":"primary","name:pt":"Ponte do Burgo","bus_network":null,"source":"openstreetmap.org","min_zoom":8.0,"bus_shield_text":"167","landuse_kind":"urban_area","ref":"AC-211","id":293330177},"arcs":[517]},{"type":"MultiLineString","properties":{"name:ga":"Avenida da Pasaxe","sort_rank":380,"kind_detail":"primary","kind":"major_road","source":"openstreetmap.org","min_zoom":8.0,"landuse_kind":"urban_area","ref":"AC-12"},"arcs":[[518],[519]]},{"type":"MultiLineString","properties":{"source":"openstreetmap.org","kind":"major_road","sort_rank":380,"kind_detail":"primary","ref":"AC-564","min_zoom":8.0},"arcs":[[520],[521],[522],[523],[524],[525],[526],[527],[528],[529],[530],[531],[532],[533],[534],[535]]},{"type":"LineString","properties":{"kind":"major_road","sort_rank":380,"kind_detail":"primary","bus_network":null,"source":"openstreetmap.org","min_zoom":8.0,"bus_shield_text":"167","landuse_kind":"urban_area","ref":"AC-12","id":97211234},"arcs":[536]},{"type":"LineString","properties":{"source":"openstreetmap.org","kind":"major_road","sort_rank":380,"kind_detail":"primary","ref":"R\u00faa do Portelo","min_zoom":8.0,"id":384818390},"arcs":[537]},{"type":"LineString","properties":{"source":"openstreetmap.org","kind":"major_road","sort_rank":381,"kind_detail":"trunk","ref":"CG-2.3","min_zoom":8.0},"arcs":[538]},{"type":"LineString","properties":{"kind":"major_road","sort_rank":380,"kind_detail":"primary","source":"openstreetmap.org","min_zoom":8.0,"landuse_kind":"urban_area","ref":"AC-12","id":97216764,"name:es":"Avenida del Ej\u00e9rcito"},"arcs":[539]},{"type":"MultiLineString","properties":{"source":"openstreetmap.org","kind":"major_road","sort_rank":380,"kind_detail":"primary","ref":"LU-862","min_zoom":8.0},"arcs":[[540],[541],[542],[543],[544],[545],[546],[547],[548],[549],[550],[551],[552],[553],[554],[555],[556],[557],[558],[559],[560],[561],[562],[563],[564],[565],[566],[567],[568],[569],[570],[571],[572]]},{"type":"LineString","properties":{"source":"openstreetmap.org","kind":"major_road","ref":"N-651","sort_rank":381,"kind_detail":"trunk","is_bicycle_related":true,"min_zoom":8.0},"arcs":[573]},{"type":"MultiLineString","properties":{"source":"openstreetmap.org","kind":"major_road","sort_rank":380,"kind_detail":"primary","ref":"LU-170","min_zoom":8.0},"arcs":[[574],[575],[576],[577],[578],[579],[580],[581]]},{"type":"MultiLineString","properties":{"kind":"major_road","sort_rank":381,"landuse_kind":"urban_area","source":"openstreetmap.org","min_zoom":8.0,"kind_detail":"trunk","ref":"FE-11","name:es":"Carretera de la Trinchera"},"arcs":[[582],[583],[584],[585],[586],[587],[588],[589],[590],[591],[592],[593],[594],[595],[596],[597],[598]]},{"type":"MultiLineString","properties":{"source":"openstreetmap.org","kind":"highway","landuse_kind":"residential","sort_rank":383,"kind_detail":"motorway","ref":"FE-12","min_zoom":8.0},"arcs":[[599],[600],[601]]},{"type":"MultiLineString","properties":{"source":"openstreetmap.org","kind":"major_road","sort_rank":380,"kind_detail":"primary","ref":"LU-861","min_zoom":8.0},"arcs":[[602],[603],[604],[605],[606],[607],[608],[609],[610],[611],[612],[613],[614],[615],[616],[617]]},{"type":"LineString","properties":{"bus_network":null,"sort_rank":380,"kind_detail":"primary","kind":"major_road","source":"openstreetmap.org","min_zoom":8.0,"bus_shield_text":"6","landuse_kind":"urban_area","ref":"AC-415"},"arcs":[618]},{"type":"MultiLineString","properties":{"bus_network":null,"sort_rank":380,"kind_detail":"primary","kind":"major_road","source":"openstreetmap.org","min_zoom":8.0,"bus_shield_text":"174","ref":"AC-173"},"arcs":[[619],[620],[621]]},{"type":"MultiLineString","properties":{"source":"openstreetmap.org","kind":"major_road","sort_rank":381,"kind_detail":"trunk","ref":"N-655","min_zoom":8.0},"arcs":[[622],[623],[624],[625],[626],[627]]},{"type":"LineString","properties":{"kind":"major_road","sort_rank":380,"kind_detail":"primary","bus_network":null,"source":"openstreetmap.org","min_zoom":8.0,"bus_shield_text":"179","landuse_kind":"urban_area","ref":"AC-213","id":242798776},"arcs":[628]},{"type":"LineString","properties":{"source":"openstreetmap.org","kind":"major_road","sort_rank":380,"kind_detail":"primary","ref":"DP-5802","min_zoom":8.0,"id":537274894},"arcs":[629]},{"type":"MultiLineString","properties":{"source":"openstreetmap.org","kind":"major_road","sort_rank":380,"kind_detail":"primary","ref":"LU-111","min_zoom":8.0},"arcs":[[630],[631],[632],[633],[634],[635],[636],[637],[638],[639]]},{"type":"MultiLineString","properties":{"kind":"highway","network":"e-road","sort_rank":383,"kind_detail":"motorway","source":"openstreetmap.org","min_zoom":8.0,"all_networks":["e-road","ES:A-road"],"shield_text":"01","ref":"AP-9","all_shield_texts":["01","9"]},"arcs":[[640],[641],[642],[643],[644]]},{"type":"LineString","properties":{"kind":"major_road","sort_rank":380,"kind_detail":"primary","bus_network":null,"name:gl":"R\u00faa Cant\u00f3n Pequeno","source":"openstreetmap.org","min_zoom":8.0,"bus_shield_text":"1","landuse_kind":"urban_area","id":291943388,"name:es":"Calle Cant\u00f3n Peque\u00f1o"},"arcs":[645]},{"type":"LineString","properties":{"kind":"major_road","sort_rank":380,"landuse_kind":"urban_area","source":"openstreetmap.org","min_zoom":8.0,"kind_detail":"primary","ref":"AC-173","id":51149334},"arcs":[646]},{"type":"LineString","properties":{"source":"openstreetmap.org","kind":"major_road","sort_rank":380,"kind_detail":"primary","ref":"AC-161","min_zoom":8.0},"arcs":[647]},{"type":"LineString","properties":{"kind":"major_road","sort_rank":381,"kind_detail":"trunk","source":"openstreetmap.org","min_zoom":8.0,"ref":"N-651","id":74042262,"name:es":"Avenida de A Coru\u00f1a"},"arcs":[648]},{"type":"MultiLineString","properties":{"bus_network":null,"sort_rank":380,"kind_detail":"primary","kind":"major_road","source":"openstreetmap.org","min_zoom":8.0,"bus_shield_text":"167","landuse_kind":"urban_area","ref":"AC-211"},"arcs":[[649],[650],[651],[652],[653],[654],[655],[656],[657],[658],[659],[660],[661],[662],[663],[664],[665],[666],[667],[668],[669],[670],[671],[672],[673]]},{"type":"MultiLineString","properties":{"bus_network":null,"sort_rank":381,"landuse_kind":"urban_area","kind":"major_road","source":"openstreetmap.org","min_zoom":8.0,"bus_shield_text":"443","kind_detail":"trunk","ref":"AC-11"},"arcs":[[674],[675],[676],[677],[678],[679]]},{"type":"LineString","properties":{"source":"openstreetmap.org","kind":"major_road","sort_rank":380,"kind_detail":"primary","ref":"LU-704","min_zoom":8.0},"arcs":[680]},{"type":"MultiLineString","properties":{"bus_network":null,"sort_rank":380,"kind_detail":"primary","kind":"major_road","source":"openstreetmap.org","min_zoom":8.0,"bus_shield_text":"171","ref":"AC-162"},"arcs":[[681],[682],[683],[684]]},{"type":"LineString","properties":{"bus_network":null,"sort_rank":381,"kind_detail":"trunk","kind":"major_road","source":"openstreetmap.org","min_zoom":8.0,"bus_shield_text":"180","ref":"N-550"},"arcs":[685]},{"type":"MultiLineString","properties":{"kind":"highway","network":"ES:A-road","sort_rank":383,"kind_detail":"motorway","source":"openstreetmap.org","min_zoom":8.0,"name:es":"Autov\u00eda del Noroeste","shield_text":"6","ref":"A-6","all_shield_texts":["6"],"all_networks":["ES:A-road"]},"arcs":[[686],[687],[688],[689],[690],[691],[692],[693]]},{"type":"MultiLineString","properties":{"kind":"highway","network":"e-road","sort_rank":383,"kind_detail":"motorway","source":"openstreetmap.org","min_zoom":8.0,"all_shield_texts":["01"],"shield_text":"01","ref":"AP-9F","name:es":"Puente del r\u00edo Eume","all_networks":["e-road"]},"arcs":[[694],[695]]},{"type":"MultiLineString","properties":{"bus_network":null,"sort_rank":381,"kind_detail":"trunk","is_bicycle_related":true,"kind":"major_road","source":"openstreetmap.org","min_zoom":8.0,"bus_shield_text":"171","ref":"N-VIa"},"arcs":[[696],[697]]},{"type":"LineString","properties":{"kind":"major_road","sort_rank":380,"kind_detail":"primary","source":"openstreetmap.org","min_zoom":8.0,"landuse_kind":"urban_area","ref":"AC-12","id":18087344,"name:es":"T\u00fanel de Os Castros"},"arcs":[698]},{"type":"MultiLineString","properties":{"kind":"major_road","sort_rank":380,"kind_detail":"primary","source":"openstreetmap.org","min_zoom":8.0,"landuse_kind":"residential","ref":"AC-116","name:es":"Carretera de Catabois"},"arcs":[[699],[700],[701],[702],[703]]},{"type":"MultiLineString","properties":{"source":"openstreetmap.org","kind":"major_road","sort_rank":381,"kind_detail":"trunk","ref":"N-651","min_zoom":8.0,"name:es":"Avenida de La Coru\u00f1a"},"arcs":[[704],[705],[706],[707],[708],[709],[710]]},{"type":"MultiLineString","properties":{"source":"openstreetmap.org","kind":"major_road","landuse_kind":"urban_area","sort_rank":380,"kind_detail":"primary","ref":"AC-101","min_zoom":8.0},"arcs":[[711],[712],[713]]},{"type":"MultiLineString","properties":{"source":"openstreetmap.org","kind":"major_road","sort_rank":380,"kind_detail":"primary","ref":"AC-162","min_zoom":8.0},"arcs":[[714],[715],[716],[717],[718],[719],[720],[721]]},{"type":"MultiLineString","properties":{"source":"openstreetmap.org","kind":"major_road","ref":"LU-170","sort_rank":380,"kind_detail":"primary","is_bicycle_related":true,"min_zoom":8.0},"arcs":[[722],[723]]},{"type":"MultiLineString","properties":{"bus_network":null,"sort_rank":380,"kind_detail":"primary","kind":"major_road","source":"openstreetmap.org","min_zoom":8.0,"bus_shield_text":"EP","ref":"AC-163"},"arcs":[[724],[725],[726]]},{"type":"LineString","properties":{"kind":"major_road","sort_rank":381,"kind_detail":"trunk","source":"openstreetmap.org","min_zoom":8.0,"old_name":"N-VI","ref":"N-651","id":71959811},"arcs":[727]},{"type":"LineString","properties":{"kind":"highway","sort_rank":383,"landuse_kind":"urban_area","source":"openstreetmap.org","min_zoom":8.0,"kind_detail":"motorway","ref":"AP-9","id":327250975},"arcs":[728]},{"type":"LineString","properties":{"source":"openstreetmap.org","kind":"major_road","sort_rank":381,"kind_detail":"trunk","ref":"A-8","min_zoom":8.0,"id":73266801},"arcs":[729]},{"type":"LineString","properties":{"source":"openstreetmap.org","kind":"major_road","sort_rank":380,"kind_detail":"primary","ref":"LU-121","min_zoom":8.0},"arcs":[730]},{"type":"MultiLineString","properties":{"kind":"highway","network":"e-road","sort_rank":383,"kind_detail":"motorway","name:es":"Autov\u00eda del Cant\u00e1brico","source":"openstreetmap.org","min_zoom":8.0,"all_networks":["e-road","ES:A-road"],"shield_text":"70","all_shield_texts":["70","8"]},"arcs":[[731],[732],[733]]},{"type":"MultiLineString","properties":{"source":"openstreetmap.org","kind":"major_road","sort_rank":380,"kind_detail":"primary","ref":"VG-1.2","min_zoom":8.0},"arcs":[[734],[735],[736],[737],[738],[739]]},{"type":"LineString","properties":{"kind":"major_road","sort_rank":380,"landuse_kind":"urban_area","source":"openstreetmap.org","min_zoom":8.0,"kind_detail":"primary","ref":"AC-118","id":32254331},"arcs":[740]},{"type":"LineString","properties":{"kind":"highway","sort_rank":383,"landuse_kind":"urban_area","source":"openstreetmap.org","min_zoom":8.0,"kind_detail":"motorway","ref":"FE-12","id":17319003},"arcs":[741]},{"type":"MultiLineString","properties":{"source":"openstreetmap.org","kind":"major_road","sort_rank":380,"kind_detail":"primary","ref":"AC-563","min_zoom":8.0},"arcs":[[742],[743],[744],[745],[746],[747]]},{"type":"LineString","properties":{"kind":"major_road","sort_rank":380,"kind_detail":"primary","bus_network":null,"source":"openstreetmap.org","min_zoom":8.0,"bus_shield_text":"178","landuse_kind":"urban_area","ref":"DP-1706","id":93197031},"arcs":[748]},{"type":"LineString","properties":{"kind":"major_road","sort_rank":381,"kind_detail":"trunk","bus_network":null,"source":"openstreetmap.org","min_zoom":8.0,"bus_shield_text":"180","landuse_kind":"urban_area","ref":"N-550","id":29005384},"arcs":[749]},{"type":"MultiLineString","properties":{"source":"openstreetmap.org","kind":"major_road","sort_rank":380,"kind_detail":"primary","ref":"LU-122","min_zoom":8.0},"arcs":[[750],[751],[752],[753],[754],[755],[756],[757],[758],[759],[760],[761],[762],[763],[764],[765],[766],[767],[768],[769],[770],[771],[772],[773],[774],[775],[776]]},{"type":"MultiLineString","properties":{"source":"openstreetmap.org","kind":"major_road","kind_detail":"trunk","sort_rank":381,"landuse_kind":"urban_area","ref":"N-550","min_zoom":8.0},"arcs":[[777],[778]]},{"type":"MultiLineString","properties":{"source":"openstreetmap.org","kind":"major_road","sort_rank":380,"kind_detail":"primary","ref":"AC-141","min_zoom":8.0},"arcs":[[779],[780]]},{"type":"MultiLineString","properties":{"kind":"major_road","network":"e-road","sort_rank":381,"landuse_kind":"urban_area","source":"openstreetmap.org","min_zoom":8.0,"kind_detail":"trunk","shield_text":"01","ref":"FE-15"},"arcs":[[781],[782],[783]]},{"type":"MultiLineString","properties":{"kind":"major_road","sort_rank":380,"kind_detail":"primary","source":"openstreetmap.org","min_zoom":8.0,"landuse_kind":"urban_area","ref":"AC-862","name:es":"Carretera de Castilla"},"arcs":[[784],[785],[786],[787],[788],[789],[790],[791],[792],[793],[794],[795],[796],[797],[798],[799]]},{"type":"MultiLineString","properties":{"source":"openstreetmap.org","kind":"major_road","kind_detail":"trunk","sort_rank":381,"landuse_kind":"urban_area","ref":"FE-13","min_zoom":8.0},"arcs":[[800],[801],[802],[803],[804],[805],[806],[807],[808],[809],[810],[811],[812],[813],[814],[815],[816],[817],[818],[819],[820],[821],[822],[823],[824],[825],[826],[827]]},{"type":"MultiLineString","properties":{"source":"openstreetmap.org","kind":"major_road","landuse_kind":"urban_area","sort_rank":380,"kind_detail":"primary","ref":"AC-12","min_zoom":8.0},"arcs":[[828],[829],[830],[831],[832],[833],[834]]},{"type":"MultiLineString","properties":{"source":"openstreetmap.org","kind":"highway","sort_rank":383,"kind_detail":"motorway","ref":"AG-13","min_zoom":8.0},"arcs":[[835],[836]]},{"type":"MultiLineString","properties":{"bus_network":null,"sort_rank":381,"kind_detail":"trunk","kind":"major_road","source":"openstreetmap.org","min_zoom":8.0,"bus_shield_text":"L\u00ednea 17","ref":"N-VI"},"arcs":[[837],[838],[839],[840],[841],[842],[843],[844],[845],[846],[847],[848],[849],[850],[851],[852],[853],[854],[855],[856],[857],[858],[859],[860],[861]]},{"type":"LineString","properties":{"kind":"highway","sort_rank":383,"landuse_kind":"urban_area","source":"openstreetmap.org","min_zoom":8.0,"kind_detail":"motorway","ref":"AG-55","id":26041616},"arcs":[862]},{"type":"MultiLineString","properties":{"bus_network":null,"sort_rank":381,"landuse_kind":"urban_area","kind":"major_road","source":"openstreetmap.org","min_zoom":8.0,"bus_shield_text":"EP","kind_detail":"trunk","ref":"AC-12"},"arcs":[[863],[864]]},{"type":"LineString","properties":{"bus_network":null,"sort_rank":380,"kind_detail":"primary","kind":"major_road","source":"openstreetmap.org","min_zoom":8.0,"bus_shield_text":"6A","landuse_kind":"urban_area","ref":"AC-415"},"arcs":[865]},{"type":"MultiLineString","properties":{"bus_network":null,"sort_rank":381,"landuse_kind":"urban_area","kind":"major_road","source":"openstreetmap.org","min_zoom":8.0,"bus_shield_text":"UDC","kind_detail":"trunk","ref":"AC-11"},"arcs":[[866],[867],[868],[869],[870],[871]]},{"type":"MultiLineString","properties":{"source":"openstreetmap.org","kind":"highway","sort_rank":383,"kind_detail":"motorway","ref":"AG-64","min_zoom":8.0},"arcs":[[872],[873],[874],[875],[876],[877],[878],[879]]},{"type":"MultiLineString","properties":{"kind":"highway","network":"e-road","sort_rank":383,"kind_detail":"motorway","name:es":"Autov\u00eda del Cant\u00e1brico","source":"openstreetmap.org","min_zoom":8.0,"all_networks":["e-road","ES:A-road"],"shield_text":"70","ref":"A-8","all_shield_texts":["70","8"]},"arcs":[[880],[881],[882],[883],[884],[885],[886],[887],[888],[889],[890],[891],[892],[893],[894]]},{"type":"MultiLineString","properties":{"bus_network":null,"sort_rank":380,"kind_detail":"primary","kind":"major_road","name:gl":"R\u00faa Cant\u00f3n Grande","source":"openstreetmap.org","min_zoom":8.0,"bus_shield_text":"1","landuse_kind":"urban_area","name:es":"Calle Cant\u00f3n Grande"},"arcs":[[895],[896]]},{"type":"LineString","properties":{"source":"openstreetmap.org","kind":"major_road","sort_rank":381,"kind_detail":"trunk","ref":"AC-14AL","min_zoom":8.0,"name:es":"Acceso al aeropuerto de Alvedro"},"arcs":[897]},{"type":"LineString","properties":{"kind":"major_road","sort_rank":380,"kind_detail":"primary","bus_network":null,"name:gl":"R\u00faa S\u00e1nchez Bregua","source":"openstreetmap.org","min_zoom":8.0,"bus_shield_text":"UDC","landuse_kind":"urban_area","id":291943387,"name:es":"Calle S\u00e1nchez Bregua"},"arcs":[898]},{"type":"LineString","properties":{"source":"openstreetmap.org","kind":"major_road","sort_rank":380,"kind_detail":"primary","ref":"DP-5901","min_zoom":8.0,"id":224146778},"arcs":[899]},{"type":"MultiLineString","properties":{"source":"openstreetmap.org","kind":"major_road","sort_rank":381,"kind_detail":"trunk","ref":"N-VIa","min_zoom":8.0},"arcs":[[900],[901],[902],[903],[904],[905],[906],[907],[908],[909],[910],[911]]},{"type":"MultiLineString","properties":{"bus_network":null,"sort_rank":380,"kind_detail":"primary","kind":"major_road","source":"openstreetmap.org","min_zoom":8.0,"bus_shield_text":"EP","ref":"AC-173"},"arcs":[[912],[913],[914],[915],[916],[917],[918]]},{"type":"MultiLineString","properties":{"kind":"highway","network":null,"sort_rank":383,"landuse_kind":"urban_area","source":"openstreetmap.org","min_zoom":8.0,"all_networks":[null],"kind_detail":"motorway","shield_text":"14","ref":"AC-14","all_shield_texts":["14"]},"arcs":[[919],[920],[921],[922],[923],[924],[925],[926]]},{"type":"LineString","properties":{"kind":"major_road","sort_rank":381,"kind_detail":"trunk","is_bicycle_related":true,"source":"openstreetmap.org","min_zoom":8.0,"ref":"N-634","id":176489218},"arcs":[927]},{"type":"MultiLineString","properties":{"source":"openstreetmap.org","bus_network":null,"bus_shield_text":"L\u00ednea 17","sort_rank":381,"kind_detail":"trunk","min_zoom":8.0,"kind":"major_road"},"arcs":[[928],[929]]},{"type":"MultiLineString","properties":{"sort_rank":381,"source":"openstreetmap.org","min_zoom":8.0,"kind":"major_road","kind_detail":"trunk"},"arcs":[[930],[931],[932],[933],[934],[935],[936],[937],[938],[939],[940],[941],[942],[943],[944],[945],[946],[947],[948],[949],[950],[951],[952],[953],[954],[955],[956],[957],[958],[959],[960],[961],[962],[963],[964],[965],[966],[967],[968],[969],[970]]},{"type":"LineString","properties":{"bus_network":null,"sort_rank":380,"kind_detail":"primary","kind":"major_road","source":"openstreetmap.org","min_zoom":8.0,"bus_shield_text":"12-A","landuse_kind":"urban_area","ref":"AC-10"},"arcs":[971]},{"type":"MultiLineString","properties":{"source":"openstreetmap.org","kind":"major_road","sort_rank":381,"kind_detail":"trunk","ref":"AC-840","min_zoom":8.0},"arcs":[[972],[973]]},{"type":"LineString","properties":{"source":"openstreetmap.org","kind":"major_road","sort_rank":381,"kind_detail":"trunk","ref":"Antiga N-634","min_zoom":8.0,"id":152414759},"arcs":[974]},{"type":"MultiLineString","properties":{"source":"openstreetmap.org","kind":"major_road","landuse_kind":"residential","sort_rank":381,"kind_detail":"trunk","ref":"N-655","min_zoom":8.0},"arcs":[[975],[976]]},{"type":"LineString","properties":{"source":"openstreetmap.org","kind":"major_road","sort_rank":380,"kind_detail":"primary","ref":"LU-170 antigua","min_zoom":8.0},"arcs":[977]},{"type":"MultiLineString","properties":{"source":"openstreetmap.org","kind":"major_road","sort_rank":381,"kind_detail":"trunk","ref":"FE-14","min_zoom":8.0},"arcs":[[978],[979],[980],[981]]},{"type":"MultiLineString","properties":{"bus_network":null,"sort_rank":380,"kind_detail":"primary","kind":"major_road","source":"openstreetmap.org","min_zoom":8.0,"bus_shield_text":"UDC","landuse_kind":"urban_area"},"arcs":[[982],[983],[984]]},{"type":"MultiLineString","properties":{"source":"openstreetmap.org","kind":"major_road","sort_rank":380,"kind_detail":"primary","ref":"AC-164","min_zoom":8.0},"arcs":[[985],[986],[987],[988],[989],[990],[991],[992],[993],[994],[995],[996],[997],[998],[999],[1000],[1001],[1002],[1003]]},{"type":"LineString","properties":{"kind":"major_road","sort_rank":380,"kind_detail":"primary","bus_network":null,"name:gl":"Cant\u00f3n Pequeno","source":"openstreetmap.org","min_zoom":8.0,"bus_shield_text":"1","landuse_kind":"urban_area","id":327842341},"arcs":[1004]},{"type":"MultiLineString","properties":{"bus_network":null,"sort_rank":381,"landuse_kind":"urban_area","kind":"major_road","source":"openstreetmap.org","min_zoom":8.0,"bus_shield_text":"L\u00ednea 17","kind_detail":"trunk","ref":"N-VI"},"arcs":[[1005],[1006]]},{"type":"MultiLineString","properties":{"bus_network":null,"sort_rank":381,"landuse_kind":"urban_area","kind":"major_road","source":"openstreetmap.org","min_zoom":8.0,"bus_shield_text":"178","kind_detail":"trunk","ref":"N-550"},"arcs":[[1007],[1008],[1009]]},{"type":"MultiLineString","properties":{"source":"openstreetmap.org","kind":"major_road","sort_rank":380,"kind_detail":"primary","ref":"AC-542","min_zoom":8.0},"arcs":[[1010],[1011],[1012],[1013],[1014],[1015],[1016],[1017],[1018],[1019],[1020],[1021],[1022],[1023]]},{"type":"MultiLineString","properties":{"source":"openstreetmap.org","kind":"highway","landuse_kind":"urban_area","sort_rank":383,"kind_detail":"motorway","min_zoom":8.0},"arcs":[[1024],[1025],[1026],[1027],[1028],[1029]]},{"type":"MultiLineString","properties":{"bus_network":null,"sort_rank":380,"kind_detail":"primary","kind":"major_road","source":"openstreetmap.org","min_zoom":8.0,"bus_shield_text":"11","landuse_kind":"urban_area","ref":"AC-552"},"arcs":[[1030],[1031],[1032],[1033],[1034],[1035]]},{"type":"MultiLineString","properties":{"bus_network":null,"sort_rank":380,"landuse_kind":"urban_area","kind":"major_road","name:gl":"Avenida da Mari\u00f1a","source":"openstreetmap.org","min_zoom":8.0,"bus_shield_text":"1","kind_detail":"primary"},"arcs":[[1036],[1037],[1038],[1039]]},{"type":"MultiLineString","properties":{"source":"openstreetmap.org","kind":"major_road","sort_rank":380,"kind_detail":"primary","ref":"AC-566","min_zoom":8.0},"arcs":[[1040],[1041],[1042],[1043],[1044],[1045],[1046],[1047],[1048],[1049],[1050],[1051],[1052],[1053],[1054],[1055],[1056],[1057]]},{"type":"MultiLineString","properties":{"bus_network":null,"sort_rank":381,"kind_detail":"trunk","kind":"major_road","source":"openstreetmap.org","min_zoom":8.0,"bus_shield_text":"L\u00ednea 17","ref":"N-VIa"},"arcs":[[1058],[1059]]},{"type":"MultiLineString","properties":{"bus_network":null,"sort_rank":380,"kind_detail":"primary","kind":"major_road","source":"openstreetmap.org","min_zoom":8.0,"bus_shield_text":"EP","landuse_kind":"urban_area","ref":"AC-12","name:es":"Avenida del Pasaje"},"arcs":[[1060],[1061]]},{"type":"MultiLineString","properties":{"source":"openstreetmap.org","kind":"major_road","sort_rank":380,"kind_detail":"primary","ref":"LU-541","min_zoom":8.0},"arcs":[[1062],[1063],[1064],[1065]]},{"type":"LineString","properties":{"source":"openstreetmap.org","kind":"major_road","ref":"LU-862","sort_rank":380,"kind_detail":"primary","is_bicycle_related":true,"min_zoom":8.0},"arcs":[1066]},{"type":"MultiLineString","properties":{"source":"openstreetmap.org","kind":"major_road","sort_rank":381,"kind_detail":"trunk","ref":"N-651","min_zoom":8.0},"arcs":[[1067],[1068],[1069],[1070],[1071],[1072],[1073],[1074],[1075],[1076],[1077],[1078]]},{"type":"MultiLineString","properties":{"bus_network":null,"network":"e-road","sort_rank":381,"kind_detail":"trunk","kind":"major_road","source":"openstreetmap.org","min_zoom":8.0,"bus_shield_text":"4","shield_text":"01","ref":"FE-15"},"arcs":[[1079],[1080],[1081]]},{"type":"LineString","properties":{"bus_network":null,"sort_rank":380,"kind_detail":"primary","kind":"major_road","source":"openstreetmap.org","min_zoom":8.0,"bus_shield_text":"12-A","landuse_kind":"urban_area"},"arcs":[1082]},{"type":"MultiLineString","properties":{"source":"openstreetmap.org","kind":"major_road","landuse_kind":"urban_area","sort_rank":380,"kind_detail":"primary","ref":"AC-552","min_zoom":8.0},"arcs":[[1083],[1084],[1085],[1086],[1087],[1088],[1089]]},{"type":"LineString","properties":{"kind":"major_road","sort_rank":381,"kind_detail":"trunk","is_bicycle_related":true,"bus_network":null,"source":"openstreetmap.org","min_zoom":8.0,"bus_shield_text":"L\u00ednea 17","id":239012684},"arcs":[1090]},{"type":"MultiLineString","properties":{"bus_network":null,"sort_rank":380,"kind_detail":"primary","kind":"major_road","source":"openstreetmap.org","min_zoom":8.0,"bus_shield_text":"178","landuse_kind":"urban_area","ref":"AC-214"},"arcs":[[1091],[1092],[1093]]},{"type":"LineString","properties":{"kind":"major_road","network":"e-road","sort_rank":381,"kind_detail":"trunk","source":"openstreetmap.org","min_zoom":8.0,"landuse_kind":"residential","shield_text":"01","ref":"FE-15","id":109416166},"arcs":[1094]},{"type":"MultiLineString","properties":{"source":"openstreetmap.org","kind":"major_road","kind_detail":"trunk","sort_rank":381,"landuse_kind":"urban_area","min_zoom":8.0},"arcs":[[1095],[1096],[1097],[1098]]},{"type":"MultiLineString","properties":{"bus_network":null,"sort_rank":380,"kind_detail":"primary","kind":"major_road","name:gl":"Avenida da Pasaxe","source":"openstreetmap.org","min_zoom":8.0,"bus_shield_text":"EP","landuse_kind":"urban_area","ref":"AC-12"},"arcs":[[1099],[1100]]},{"type":"LineString","properties":{"kind":"major_road","sort_rank":381,"kind_detail":"trunk","name:gl":"Estrada N-640 Vilagarc\u00eda - Barres","source":"openstreetmap.org","min_zoom":8.0,"ref":"N-640","id":18356413},"arcs":[1101]},{"type":"MultiLineString","properties":{"bus_network":null,"sort_rank":380,"kind_detail":"primary","kind":"major_road","source":"openstreetmap.org","min_zoom":8.0,"bus_shield_text":"178","landuse_kind":"urban_area","ref":"AC-211"},"arcs":[[1102],[1103]]},{"type":"MultiLineString","properties":{"source":"openstreetmap.org","kind":"major_road","sort_rank":381,"kind_detail":"trunk","ref":"AC-14AL","min_zoom":8.0},"arcs":[[1104],[1105],[1106],[1107]]},{"type":"MultiLineString","properties":{"source":"openstreetmap.org","kind":"major_road","landuse_kind":"residential","sort_rank":380,"kind_detail":"primary","min_zoom":8.0},"arcs":[[1108],[1109],[1110]]},{"type":"MultiLineString","properties":{"source":"openstreetmap.org","kind":"major_road","kind_detail":"trunk","sort_rank":381,"landuse_kind":"urban_area","ref":"AC-11","min_zoom":8.0},"arcs":[[1111],[1112],[1113],[1114],[1115],[1116],[1117],[1118],[1119]]},{"type":"MultiLineString","properties":{"source":"openstreetmap.org","kind":"highway","sort_rank":383,"kind_detail":"motorway","ref":"FE-12","min_zoom":8.0},"arcs":[[1120],[1121]]},{"type":"LineString","properties":{"kind":"major_road","sort_rank":380,"kind_detail":"primary","bus_network":null,"source":"openstreetmap.org","min_zoom":8.0,"bus_shield_text":"1","landuse_kind":"urban_area","ref":"AC-12","id":25414452},"arcs":[1122]},{"type":"MultiLineString","properties":{"kind":"major_road","network":"e-road","sort_rank":381,"kind_detail":"trunk","source":"openstreetmap.org","min_zoom":8.0,"shield_text":"01","ref":"FE-15"},"arcs":[[1123],[1124],[1125],[1126],[1127]]},{"type":"MultiLineString","properties":{"kind":"major_road","network":null,"sort_rank":381,"landuse_kind":"urban_area","source":"openstreetmap.org","min_zoom":8.0,"kind_detail":"trunk","shield_text":"14","ref":"V-14"},"arcs":[[1128],[1129],[1130],[1131],[1132],[1133],[1134]]},{"type":"LineString","properties":{"bus_network":null,"sort_rank":380,"kind_detail":"primary","kind":"major_road","source":"openstreetmap.org","min_zoom":8.0,"bus_shield_text":"14","landuse_kind":"urban_area"},"arcs":[1135]},{"type":"MultiLineString","properties":{"bus_network":null,"sort_rank":381,"landuse_kind":"urban_area","kind":"major_road","source":"openstreetmap.org","min_zoom":8.0,"bus_shield_text":"169","kind_detail":"trunk","ref":"AC-12"},"arcs":[[1136],[1137],[1138],[1139]]},{"type":"MultiLineString","properties":{"source":"openstreetmap.org","kind":"major_road","sort_rank":381,"kind_detail":"trunk","ref":"CG-1.3","min_zoom":8.0},"arcs":[[1140],[1141],[1142]]},{"type":"MultiLineString","properties":{"source":"openstreetmap.org","kind":"major_road","sort_rank":380,"kind_detail":"primary","ref":"AC-861","min_zoom":8.0},"arcs":[[1143],[1144],[1145],[1146],[1147],[1148],[1149],[1150],[1151],[1152],[1153],[1154],[1155]]},{"type":"MultiLineString","properties":{"kind":"highway","network":"e-road","sort_rank":383,"kind_detail":"motorway","source":"openstreetmap.org","min_zoom":8.0,"all_networks":["e-road","ES:A-road"],"all_shield_texts":["01","9"],"shield_text":"01","ref":"AP-9","name:es":"Autopista del Atl\u00e1ntico"},"arcs":[[1156],[1157],[1158],[1159],[1160],[1161],[1162],[1163],[1164]]},{"type":"MultiLineString","properties":{"source":"openstreetmap.org","kind":"major_road","sort_rank":381,"kind_detail":"trunk","ref":"N-640","min_zoom":8.0},"arcs":[[1165],[1166],[1167],[1168],[1169],[1170],[1171],[1172],[1173],[1174],[1175],[1176],[1177]]},{"type":"LineString","properties":{"bus_network":null,"sort_rank":381,"landuse_kind":"urban_area","kind":"major_road","source":"openstreetmap.org","min_zoom":8.0,"bus_shield_text":"20","kind_detail":"trunk","ref":"AC-11"},"arcs":[1178]},{"type":"MultiLineString","properties":{"source":"openstreetmap.org","kind":"major_road","ref":"N-VI","sort_rank":381,"kind_detail":"trunk","is_bicycle_related":true,"min_zoom":8.0},"arcs":[[1179],[1180]]},{"type":"MultiLineString","properties":{"source":"openstreetmap.org","kind":"major_road","landuse_kind":"residential","sort_rank":381,"kind_detail":"trunk","ref":"FE-13","min_zoom":8.0},"arcs":[[1181],[1182],[1183],[1184],[1185],[1186],[1187],[1188],[1189]]},{"type":"LineString","properties":{"kind":"major_road","sort_rank":380,"kind_detail":"primary","bus_network":null,"source":"openstreetmap.org","min_zoom":8.0,"bus_shield_text":"169","ref":"AC-163","id":26140253},"arcs":[1190]},{"type":"MultiLineString","properties":{"bus_network":null,"sort_rank":380,"kind_detail":"primary","kind":"major_road","source":"openstreetmap.org","min_zoom":8.0,"bus_shield_text":"170","landuse_kind":"urban_area","ref":"AC-173"},"arcs":[[1191],[1192],[1193],[1194],[1195]]},{"type":"MultiLineString","properties":{"source":"openstreetmap.org","kind":"major_road","landuse_kind":"urban_area","sort_rank":380,"kind_detail":"primary","ref":"AC-10","min_zoom":8.0},"arcs":[[1196],[1197],[1198],[1199],[1200],[1201],[1202]]},{"type":"MultiLineString","properties":{"bus_network":null,"sort_rank":380,"kind_detail":"primary","name:pt":"Costa da T\u00e1pia","source":"openstreetmap.org","min_zoom":8.0,"bus_shield_text":"167","landuse_kind":"urban_area","ref":"AC-211","kind":"major_road"},"arcs":[[1203],[1204]]},{"type":"LineString","properties":{"source":"openstreetmap.org","kind":"major_road","sort_rank":380,"kind_detail":"primary","ref":"AC-173","min_zoom":8.0,"id":39270072},"arcs":[1205]},{"type":"MultiLineString","properties":{"source":"openstreetmap.org","kind":"major_road","sort_rank":380,"kind_detail":"primary","ref":"AC-862","min_zoom":8.0},"arcs":[[1206],[1207],[1208],[1209],[1210],[1211],[1212],[1213],[1214],[1215],[1216],[1217],[1218],[1219],[1220],[1221],[1222],[1223],[1224],[1225],[1226],[1227],[1228],[1229],[1230],[1231],[1232]]},{"type":"LineString","properties":{"kind":"major_road","sort_rank":380,"kind_detail":"primary","bus_network":null,"source":"openstreetmap.org","min_zoom":8.0,"bus_shield_text":"20","landuse_kind":"urban_area","id":231224561},"arcs":[1233]},{"type":"MultiLineString","properties":{"source":"openstreetmap.org","kind":"major_road","sort_rank":381,"kind_detail":"trunk","ref":"VG-1.3","min_zoom":8.0},"arcs":[[1234],[1235],[1236],[1237],[1238],[1239],[1240],[1241],[1242],[1243]]},{"type":"MultiLineString","properties":{"source":"openstreetmap.org","kind":"major_road","sort_rank":381,"kind_detail":"trunk","ref":"N-550","min_zoom":8.0},"arcs":[[1244],[1245],[1246],[1247],[1248],[1249],[1250],[1251],[1252],[1253],[1254],[1255],[1256],[1257],[1258],[1259],[1260],[1261],[1262],[1263],[1264],[1265],[1266],[1267],[1268]]},{"type":"MultiLineString","properties":{"source":"openstreetmap.org","kind":"major_road","sort_rank":380,"kind_detail":"primary","ref":"AC-523","min_zoom":8.0},"arcs":[[1269],[1270],[1271],[1272],[1273],[1274],[1275],[1276],[1277],[1278],[1279],[1280],[1281],[1282],[1283],[1284],[1285]]},{"type":"MultiLineString","properties":{"source":"openstreetmap.org","kind":"major_road","kind_detail":"trunk","sort_rank":381,"landuse_kind":"urban_area","ref":"FE-14","min_zoom":8.0},"arcs":[[1286],[1287],[1288],[1289]]},{"type":"LineString","properties":{"kind":"major_road","sort_rank":381,"kind_detail":"trunk","bus_network":null,"source":"openstreetmap.org","min_zoom":8.0,"bus_shield_text":"1-A","landuse_kind":"urban_area","ref":"N-550","id":97211189},"arcs":[1290]},{"type":"MultiLineString","properties":{"source":"openstreetmap.org","kind":"major_road","sort_rank":380,"kind_detail":"primary","ref":"AC-214","min_zoom":8.0},"arcs":[[1291],[1292],[1293],[1294],[1295],[1296]]},{"type":"MultiLineString","properties":{"kind":"major_road","sort_rank":380,"kind_detail":"primary","source":"openstreetmap.org","min_zoom":8.0,"landuse_kind":"urban_area","ref":"AC-12","name:es":"Avenida del Pasaje"},"arcs":[[1297],[1298]]},{"type":"LineString","properties":{"source":"openstreetmap.org","kind":"major_road","sort_rank":380,"kind_detail":"primary","ref":"AC-400","min_zoom":8.0},"arcs":[1299]},{"type":"LineString","properties":{"bus_network":null,"sort_rank":380,"kind_detail":"primary","kind":"major_road","source":"openstreetmap.org","min_zoom":8.0,"bus_shield_text":"1","landuse_kind":"urban_area","name:es":"Plaza de Mina"},"arcs":[1300]},{"type":"MultiLineString","properties":{"bus_network":null,"sort_rank":381,"landuse_kind":"urban_area","kind":"major_road","source":"openstreetmap.org","min_zoom":8.0,"bus_shield_text":"L\u00ednea 17","kind_detail":"trunk","ref":"AC-12"},"arcs":[[1301],[1302]]},{"type":"LineString","properties":{"source":"openstreetmap.org","kind":"major_road","sort_rank":380,"kind_detail":"primary","ref":"DP-5404","min_zoom":8.0,"id":214252014},"arcs":[1303]},{"type":"LineString","properties":{"bus_network":null,"sort_rank":381,"kind_detail":"trunk","kind":"major_road","source":"openstreetmap.org","min_zoom":8.0,"bus_shield_text":"175","ref":"N-550"},"arcs":[1304]},{"type":"LineString","properties":{"kind":"major_road","sort_rank":380,"kind_detail":"primary","is_bicycle_related":true,"source":"openstreetmap.org","min_zoom":8.0,"ref":"LU-539","id":107488968},"arcs":[1305]},{"type":"MultiLineString","properties":{"source":"openstreetmap.org","kind":"major_road","sort_rank":380,"kind_detail":"primary","ref":"AC-116","min_zoom":8.0},"arcs":[[1306],[1307],[1308],[1309],[1310],[1311],[1312],[1313],[1314],[1315],[1316],[1317],[1318],[1319],[1320],[1321],[1322],[1323],[1324],[1325],[1326],[1327],[1328],[1329],[1330]]},{"type":"MultiLineString","properties":{"source":"openstreetmap.org","kind":"major_road","landuse_kind":"urban_area","sort_rank":380,"kind_detail":"primary","ref":"AC-214","min_zoom":8.0},"arcs":[[1331],[1332],[1333],[1334],[1335]]},{"type":"MultiLineString","properties":{"bus_network":null,"sort_rank":380,"kind_detail":"primary","kind":"major_road","source":"openstreetmap.org","min_zoom":8.0,"bus_shield_text":"21","landuse_kind":"urban_area"},"arcs":[[1336],[1337],[1338],[1339]]},{"type":"LineString","properties":{"kind":"major_road","sort_rank":380,"kind_detail":"primary","bus_network":null,"source":"openstreetmap.org","min_zoom":8.0,"bus_shield_text":"UDC","landuse_kind":"urban_area","ref":"DP-0512","id":166709760},"arcs":[1340]},{"type":"LineString","properties":{"kind":"major_road","sort_rank":380,"kind_detail":"primary","bus_network":null,"source":"openstreetmap.org","min_zoom":8.0,"bus_shield_text":"EP","landuse_kind":"urban_area","ref":"AC-12","id":163743892},"arcs":[1341]},{"type":"LineString","properties":{"source":"openstreetmap.org","kind":"highway","sort_rank":383,"kind_detail":"motorway","ref":"AP-9SF","min_zoom":8.0,"id":327163140},"arcs":[1342]},{"type":"MultiLineString","properties":{"source":"openstreetmap.org","kind":"major_road","sort_rank":380,"kind_detail":"primary","ref":"AS-11","min_zoom":8.0},"arcs":[[1343],[1344]]},{"type":"LineString","properties":{"source":"openstreetmap.org","kind":"major_road","sort_rank":380,"kind_detail":"primary","ref":"LU-P-1611","min_zoom":8.0,"id":39238465},"arcs":[1345]},{"type":"MultiLineString","properties":{"source":"openstreetmap.org","kind":"major_road","ref":"LU-540","sort_rank":380,"kind_detail":"primary","is_bicycle_related":true,"min_zoom":8.0},"arcs":[[1346],[1347],[1348]]},{"type":"MultiLineString","properties":{"bus_network":null,"sort_rank":380,"kind_detail":"primary","kind":"major_road","source":"openstreetmap.org","min_zoom":8.0,"bus_shield_text":"EP","landuse_kind":"urban_area","ref":"AC-173"},"arcs":[[1349],[1350],[1351],[1352],[1353],[1354],[1355]]},{"type":"MultiLineString","properties":{"source":"openstreetmap.org","kind":"major_road","sort_rank":380,"kind_detail":"primary","ref":"AC-524","min_zoom":8.0},"arcs":[[1356],[1357],[1358],[1359],[1360],[1361],[1362],[1363],[1364],[1365],[1366],[1367],[1368],[1369],[1370],[1371],[1372],[1373],[1374],[1375],[1376],[1377],[1378],[1379]]},{"type":"MultiLineString","properties":{"kind":"highway","network":"e-road","sort_rank":383,"kind_detail":"motorway","source":"openstreetmap.org","min_zoom":8.0,"all_shield_texts":["01"],"shield_text":"01","ref":"AP-9F","name:es":"Autopista del Atl\u00e1ntico","all_networks":["e-road"]},"arcs":[[1380],[1381],[1382],[1383],[1384],[1385],[1386],[1387],[1388],[1389],[1390]]},{"type":"MultiLineString","properties":{"bus_network":null,"sort_rank":380,"kind_detail":"primary","kind":"major_road","source":"openstreetmap.org","min_zoom":8.0,"bus_shield_text":"EP","landuse_kind":"urban_area"},"arcs":[[1391],[1392],[1393]]},{"type":"MultiLineString","properties":{"source":"openstreetmap.org","kind":"major_road","sort_rank":380,"kind_detail":"primary","ref":"AC-101","min_zoom":8.0},"arcs":[[1394],[1395],[1396],[1397],[1398],[1399],[1400],[1401],[1402],[1403],[1404],[1405],[1406],[1407],[1408],[1409],[1410]]},{"type":"MultiLineString","properties":{"bus_network":null,"sort_rank":380,"kind_detail":"primary","kind":"major_road","source":"openstreetmap.org","min_zoom":8.0,"bus_shield_text":"1","landuse_kind":"urban_area"},"arcs":[[1411],[1412],[1413]]},{"type":"MultiLineString","properties":{"source":"openstreetmap.org","kind":"major_road","ref":"LU-530","sort_rank":380,"kind_detail":"primary","is_bicycle_related":true,"min_zoom":8.0},"arcs":[[1414],[1415]]},{"type":"MultiLineString","properties":{"kind":"highway","network":null,"sort_rank":383,"kind_detail":"motorway","source":"openstreetmap.org","min_zoom":8.0,"all_networks":[null],"shield_text":"14","ref":"AC-14","all_shield_texts":["14"]},"arcs":[[1416],[1417],[1418],[1419],[1420]]},{"type":"MultiLineString","properties":{"source":"openstreetmap.org","kind":"major_road","sort_rank":380,"kind_detail":"primary","ref":"LU-530","min_zoom":8.0},"arcs":[[1421],[1422],[1423]]},{"type":"MultiLineString","properties":{"kind":"major_road","sort_rank":381,"kind_detail":"trunk","source":"openstreetmap.org","min_zoom":8.0,"landuse_kind":"residential","ref":"FE-11","name:es":"Carretera de la Trinchera"},"arcs":[[1424],[1425],[1426],[1427],[1428],[1429],[1430]]},{"type":"MultiLineString","properties":{"source":"openstreetmap.org","kind":"major_road","sort_rank":380,"kind_detail":"primary","ref":"LU-539","min_zoom":8.0},"arcs":[[1431],[1432],[1433]]},{"type":"MultiLineString","properties":{"source":"openstreetmap.org","kind":"major_road","sort_rank":380,"kind_detail":"primary","ref":"AC-163","min_zoom":8.0},"arcs":[[1434],[1435]]},{"type":"LineString","properties":{"kind":"major_road","sort_rank":380,"landuse_kind":"residential","source":"openstreetmap.org","min_zoom":8.0,"kind_detail":"primary","ref":"AC-862","id":23799878},"arcs":[1436]},{"type":"MultiLineString","properties":{"bus_network":null,"sort_rank":381,"kind_detail":"trunk","kind":"major_road","source":"openstreetmap.org","min_zoom":8.0,"bus_shield_text":"184","ref":"N-550"},"arcs":[[1437],[1438],[1439],[1440],[1441],[1442],[1443],[1444],[1445],[1446]]},{"type":"LineString","properties":{"source":"openstreetmap.org","kind":"major_road","network":null,"sort_rank":381,"kind_detail":"trunk","min_zoom":8.0,"shield_text":"14"},"arcs":[1447]},{"type":"LineString","properties":{"bus_network":null,"sort_rank":380,"kind_detail":"primary","kind":"major_road","source":"openstreetmap.org","min_zoom":8.0,"bus_shield_text":"178","ref":"AC-214"},"arcs":[1448]},{"type":"LineString","properties":{"source":"openstreetmap.org","kind":"major_road","sort_rank":380,"kind_detail":"primary","ref":"LU-119","min_zoom":8.0,"id":35194355},"arcs":[1449]},{"type":"LineString","properties":{"source":"openstreetmap.org","kind":"major_road","sort_rank":380,"kind_detail":"primary","ref":"AC-102","min_zoom":8.0},"arcs":[1450]},{"type":"MultiLineString","properties":{"source":"openstreetmap.org","kind":"major_road","sort_rank":380,"kind_detail":"primary","ref":"AC-413","min_zoom":8.0},"arcs":[[1451],[1452],[1453]]},{"type":"LineString","properties":{"kind":"major_road","sort_rank":380,"kind_detail":"primary","bus_network":null,"source":"openstreetmap.org","min_zoom":8.0,"bus_shield_text":"6","landuse_kind":"urban_area","ref":"AC-415","id":252821232,"name:es":"Lugar de San Jos\u00e9"},"arcs":[1454]}]},"earth":{"type":"GeometryCollection","geometries":[{"type":"Polygon","properties":{"sort_rank":10,"source":"naturalearthdata.com","min_zoom":0.0,"kind":"earth","area":25674608066},"arcs":[[1455]]}]},"landuse":{"type":"GeometryCollection","geometries":[{"type":"MultiPolygon","properties":{"source":"openstreetmap.org","kind":"nature_reserve","tier":2,"area":29984737,"sort_rank":23,"min_zoom":8.0},"arcs":[[[1456]],[[1457]]]},{"type":"Polygon","properties":{"kind":"nature_reserve","protect_class":"97","area":23768300,"sort_rank":23,"source":"openstreetmap.org","min_zoom":8.0,"tier":2,"id":328647140},"arcs":[[1458]]},{"type":"MultiPolygon","properties":{"source":"naturalearthdata.com","kind":"urban_area","name":"","area":540835940,"sort_rank":11,"min_zoom":4.0},"arcs":[[[1459]],[[1460]],[[1461]],[[1462]],[[1463]]]},{"type":"Polygon","properties":{"source":"openstreetmap.org","kind":"residential","area":13367700,"tier":2,"id":34581950,"min_zoom":8.0,"sort_rank":20},"arcs":[[1464]]},{"type":"Polygon","properties":{"source":"openstreetmap.org","kind":"nature_reserve","area":170566000,"tier":2,"id":290507087,"min_zoom":6.0,"sort_rank":23},"arcs":[[1465]]}]}},"type":"Topology","transform":{"translate":[-8.4375,43.0688877742],"scale":[0.0003433228,0.0002487054]},"arcs":[[[4096,3010],[-1627,652],[-312,55],[-622,-56],[-204,-60],[-619,-317],[-712,-530]],[[4096,614],[-88,90],[-29,110],[34,137],[-89,-22],[-39,21],[-35,82],[-47,28],[13,161],[-32,44],[-62,-35],[-51,30],[-17,42],[41,48],[-23,40],[11,64],[90,1],[42,-30],[72,15],[7,55],[36,17],[-7,40],[123,89],[2,122],[48,104]],[[4096,1898],[-2,15]],[[4094,1913],[-29,44],[-47,14],[-40,-24],[-133,38],[-16,-31],[-114,-2],[-43,39],[-171,21],[-39,-9],[19,-63],[-37,-18],[-16,15],[12,-15],[-25,-12],[6,25],[33,24],[-44,17],[26,0],[34,66],[-144,72],[-40,91],[-82,57],[-56,161],[-143,41],[6,21],[-35,23],[-55,0],[-4,36],[-60,-8],[-18,14],[13,31],[-4,8],[-36,-36],[-21,29],[13,28],[46,-7],[-31,14],[8,18],[-71,16],[-71,-30],[-24,67],[-27,-34],[-68,4],[14,-54],[-33,-24],[-64,4],[23,-72],[-76,-45],[27,-13],[-18,-2],[14,-18],[5,-23],[-24,-41],[17,60],[-47,-1],[-7,33],[30,78],[-30,16],[23,55],[-21,-12],[-48,28],[-8,116],[-43,3],[-15,-33],[-57,12],[-2,-45],[-28,-23],[-55,23],[40,23],[-2,61],[79,82],[-76,55],[1,-57],[-86,-48],[-22,-57],[-138,-43],[-12,-24],[-53,7],[-9,-48],[-48,4],[8,-41],[-49,0],[7,-51],[50,-16],[9,-14],[-1,-7],[-21,21],[-35,-37],[-34,0],[-20,35],[39,25],[-88,15],[-24,-36],[22,-59],[42,-24],[9,-26],[-25,-3],[10,25],[-1,4],[-48,-53],[-55,-4],[-62,34],[56,24],[42,-22],[1,34],[-58,15],[2,24],[39,-10],[-6,53],[29,25],[-22,24],[2,40],[37,-48],[39,-4],[-16,60],[-50,39],[16,16],[7,-15],[8,-3],[-13,42],[20,61],[-30,55],[-55,-43],[-47,21],[-49,-101],[-82,-6],[-6,-54],[-139,-93],[-92,38],[-91,-37],[-38,-181],[16,-20],[41,19],[12,-34],[-53,0],[9,-32],[-54,4],[14,-35],[-21,21],[18,44],[-32,58],[-23,-80],[-30,6],[-11,-34],[-23,16],[-91,-112],[-61,-13],[-17,40],[-22,-4],[-1,-34],[-25,-4],[15,-34],[-26,0],[-57,-97],[-117,-87],[-107,-5],[-48,52],[-35,-37],[87,-94],[-29,-50],[-51,6],[-24,-53],[36,-67],[-84,-130],[52,-42],[-12,22],[50,48],[58,-39],[90,28],[22,81],[33,22],[13,-16],[-37,-25],[21,-28],[25,-10],[1,22],[23,8],[-16,-16],[12,-24],[10,22],[16,-17],[35,46],[2,-24],[33,-4],[41,32],[-34,2],[-2,8],[76,40],[21,48],[-16,16],[7,10],[21,-14],[29,21],[-16,-60],[-39,-17],[21,-16],[-19,-55],[-17,-16],[-24,25],[-28,-33],[32,-12],[-32,0],[4,-28],[-30,-20],[-53,5],[-32,-25],[-6,32],[-46,-8],[-17,22],[-34,-47],[-12,36],[-122,-37],[28,-31],[-40,-6],[58,-39],[45,8],[107,-81],[17,48],[39,-5],[29,-37],[50,31],[72,-26],[-6,-33],[-88,-11],[-43,-70],[8,-97],[34,-9],[7,-22],[-5,-31],[-6,51],[-38,-45],[47,-59],[-27,2],[15,-44],[-124,88],[-4,18],[20,6],[4,10],[-17,-4],[-1,18],[25,2],[-53,28],[-23,60],[-84,2],[-29,82],[-128,-39],[19,-21],[-35,-35],[47,-1],[5,-41],[-20,0],[20,-12],[-39,-48],[14,-32],[-43,-28],[-74,-8],[17,26],[-15,20],[22,3],[-46,35],[20,3],[-47,9],[16,24],[70,-18],[-41,21],[-28,75],[-40,-15],[24,-43],[-16,-23],[-83,51]],[[4096,1913],[-2,0]],[[601,1687],[73,28],[93,86],[51,6],[45,97],[103,-25],[77,32],[24,47],[25,-46],[70,33],[35,-28],[74,73],[38,-7],[83,60],[40,0],[44,53],[11,-23],[-2,72],[33,47],[0,107],[39,99],[94,-16],[53,35],[13,71]],[[80,1140],[-30,-58],[37,-13],[56,54],[24,-97],[68,-57],[23,-92],[102,8],[53,-23],[63,43],[133,-74],[57,-110],[42,27],[30,-123],[-17,-127],[-28,-96],[-62,-48],[69,5],[7,-40],[83,-83],[57,-4]],[[847,232],[3,0],[3,1],[12,5]],[[865,238],[112,-30],[179,77]],[[1156,285],[16,19]],[[1172,304],[26,51],[184,139],[190,-52]],[[1572,442],[12,1],[4,0],[3,0],[3,-1]],[[1594,442],[47,-21],[46,-71],[109,67],[226,-1],[104,-34],[80,-86],[148,-77]],[[2354,219],[17,-11]],[[2371,208],[76,-40],[93,-120],[-1,-48]],[[194,1005],[13,-6]],[[201,1001],[6,-2]],[[207,999],[4,-2]],[[847,232],[4,1]],[[851,233],[13,5]],[[864,238],[1,0]],[[851,233],[2,0]],[[853,233],[10,4]],[[863,237],[1,1]],[[1594,442],[-22,0]],[[81,1141],[-22,-23]],[[0,892],[0,-45]],[[51,1111],[-51,-54]],[[0,892],[0,-45]],[[51,1111],[-51,-54]],[[49,1109],[-3,-21],[-15,-17]],[[52,1112],[-3,-3],[-2,-4],[-1,-4],[0,-5]],[[53,1112],[4,5]],[[80,1140],[-23,-23]],[[57,1117],[-8,-34],[33,-15],[63,54],[3,-56],[24,-48],[63,-49],[23,-92],[102,8],[53,-23],[63,43],[136,-80]],[[194,1005],[13,-6]],[[201,1001],[6,-2]],[[207,999],[4,-2]],[[602,1686],[62,28],[137,7]],[[801,1721],[4,-13]],[[805,1708],[-26,-79],[-76,-69],[9,-113],[75,-42],[-119,-63],[27,-81],[-21,-43],[23,-19],[-31,-82],[28,-61],[-42,-189]],[[652,867],[-11,1]],[[641,868],[-33,54],[4,-97]],[[616,813],[-4,12]],[[81,1141],[-22,-23]],[[4096,1701],[-36,-20],[-23,-56],[-17,8],[17,153],[-19,110],[-90,38],[-126,7],[-357,-23],[-67,79],[24,37],[-200,222],[-72,146],[-41,31],[-262,94],[-79,-67],[-108,46],[-159,-32],[18,-34],[-39,-11],[3,-47],[-27,-17],[-7,40],[-45,32],[9,40],[-49,17],[-51,162],[-150,3],[-53,56],[-108,-59],[-2,-48],[-34,-26],[-98,-6],[-61,-79],[-70,-9],[-13,-71],[-53,-35],[-93,18],[-40,-101],[-31,-226],[-11,23],[-44,-53],[-40,0],[-83,-60],[-38,7],[-74,-73],[-35,28],[-70,-33],[-25,46],[-24,-47],[-77,-32],[-103,25],[-45,-97],[-51,-6],[-93,-86],[-73,-28]],[[601,1687],[73,28],[93,86],[51,6],[45,97],[103,-25],[77,32],[24,47],[25,-46],[70,33],[35,-28],[74,73],[38,-7],[83,60],[40,0],[44,53],[11,-23],[-2,72],[33,47],[0,107],[39,99],[94,-16],[53,35],[13,71]],[[31,1071],[14,14],[7,27]],[[52,1112],[28,28]],[[52,1112],[-3,-3],[-2,-4],[-1,-4],[0,-5]],[[81,1141],[-22,-23]],[[4096,1701],[-36,-20],[-23,-56],[-17,8],[17,153],[-19,110],[-90,38],[-126,7],[-357,-23],[-67,79],[24,37],[-200,222],[-72,146],[-41,31],[-262,94],[-79,-67],[-108,46],[-159,-32],[18,-34],[-39,-11],[3,-47],[-27,-17],[-7,40],[-45,32],[9,40],[-49,17],[-51,162],[-150,3],[-53,56],[-108,-59],[-2,-48],[-34,-26],[-98,-6],[-61,-79],[-70,-9],[-13,-71],[-53,-35],[-93,18],[-40,-101],[-31,-226],[-11,23],[-44,-53],[-40,0],[-83,-60],[-38,7],[-74,-73],[-35,28],[-70,-33],[-25,46],[-24,-47],[-77,-32],[-103,25],[-45,-97],[-51,-6],[-93,-86],[-73,-28]],[[81,1141],[-22,-23]],[[4096,1746],[-4,-31],[-17,-65],[-16,0],[-2,0],[-26,69],[15,56],[31,48],[19,42],[0,-119]],[[4096,1887],[-3,60],[-35,25],[-50,9],[-52,28],[-48,-30],[-178,-7],[-111,17],[-60,21],[-42,-1],[-35,-15],[-22,-22],[-24,-11],[-39,18],[0,30],[18,12],[8,11],[6,13],[10,17],[-138,68],[-183,327],[-118,45],[-241,137],[-34,13],[-115,13],[-42,-16],[-28,-32],[-26,-21],[-35,14],[-24,-58],[-36,-50],[-26,-10],[8,63],[-71,140],[-10,54],[-50,-24],[-19,-3],[-23,-8],[-5,-19],[2,-19],[-5,-11],[-25,-12],[-22,-6],[-14,17],[2,58],[67,84],[12,23],[-8,42],[-21,30],[-21,12],[-9,-14],[-20,-60],[-50,-57],[-62,-43],[-116,-30],[-58,-34],[-53,-45],[-41,-45],[6,-15],[8,-29],[6,-14],[-72,26],[-35,-2],[-34,-24],[53,-88],[-26,-29],[-146,8],[0,27],[13,5],[8,6],[18,19],[23,-19],[9,-4],[30,23],[-18,30],[2,35],[13,35],[21,35],[15,-7],[30,-8],[16,-10],[0,25],[-43,53],[-22,71],[-35,58],[-80,12],[-57,-78],[-73,-67],[-82,-50],[-87,-24],[-97,1],[-43,-11],[-19,-34],[-10,-47],[-14,-43],[8,-43],[56,-45],[-13,-9],[-14,-14],[-13,-7],[0,-25],[10,-2],[30,2],[-34,-16],[-32,3],[-24,23],[-11,45],[-424,-326],[-84,-44],[-69,10],[-19,-9],[-51,9],[-11,0],[-2,-43],[15,-40],[23,-33],[23,-21],[-38,-55],[-33,14],[-15,-60],[-10,-85],[-23,-61],[129,6],[57,24],[35,52],[28,-17],[11,-10],[-20,-10],[-9,-6],[-10,-14],[177,30],[67,30],[14,-3],[5,-30],[-13,-26],[-21,-19],[-20,-7],[-294,-38],[-55,-44],[48,-20],[70,-76],[51,-17],[99,8],[53,-7],[57,-28],[-54,-38],[-31,-29],[-14,-36],[-2,-62],[21,-123],[2,-62],[-23,-65],[-21,61],[-29,40],[-67,67],[-19,43],[-11,46],[-19,36],[-42,15],[-84,54],[-59,10],[-27,-52],[8,-95],[-10,-37],[-38,-45],[-64,58],[-26,39],[-11,53],[-143,-39],[0,2860],[4096,0],[0,-2209]],[[0,1236],[143,39],[11,-53],[26,-39],[64,-58],[38,45],[10,37],[-8,95],[27,52],[59,-10],[84,-54],[42,-15],[19,-36],[11,-46],[19,-43],[67,-67],[29,-40],[21,-61],[23,65],[-2,62],[-21,123],[2,62],[14,36],[31,29],[54,38],[-57,28],[-53,7],[-99,-8],[-51,17],[-70,76],[-48,20],[55,44],[294,38],[20,7],[21,19],[13,26],[-5,30],[-14,3],[-67,-30],[-177,-30],[10,14],[9,6],[20,10],[-11,10],[-28,17],[-35,-52],[-57,-24],[-129,-6],[23,61],[10,85],[15,60],[33,-14],[38,55],[-23,21],[-23,33],[-15,40],[2,43],[11,0],[51,-9],[19,9],[69,-10],[84,44],[424,326],[11,-45],[24,-23],[32,-3],[34,16],[-30,-2],[-10,2],[0,25],[13,7],[14,14],[13,9],[-56,45],[-8,43],[14,43],[10,47],[19,34],[43,11],[97,-1],[87,24],[82,50],[73,67],[57,78],[80,-12],[35,-58],[22,-71],[43,-53],[0,-25],[-16,10],[-30,8],[-15,7],[-21,-35],[-13,-35],[-2,-35],[18,-30],[-30,-23],[-9,4],[-23,19],[-18,-19],[-8,-6],[-13,-5],[0,-27],[146,-8],[26,29],[-53,88],[34,24],[35,2],[72,-26],[-6,14],[-8,29],[-6,15],[41,45],[53,45],[58,34],[116,30],[62,43],[50,57],[20,60],[9,14],[21,-12],[21,-30],[8,-42],[-12,-23],[-67,-84],[-2,-58],[14,-17],[22,6],[25,12],[5,11],[-2,19],[5,19],[23,8],[19,3],[50,24],[10,-54],[71,-140],[-8,-63],[26,10],[36,50],[24,58],[35,-14],[26,21],[28,32],[42,16],[115,-13],[34,-13],[241,-137],[118,-45],[183,-327],[138,-68],[-10,-17],[-6,-13],[-8,-11],[-18,-12],[0,-30],[39,-18],[24,11],[22,22],[35,15],[42,1],[60,-21],[111,-17],[178,7],[48,30],[52,-28],[50,-9],[35,-25],[3,-60]],[[4096,1865],[-19,-42],[-31,-48],[-15,-56],[26,-69],[2,0],[16,0],[17,65],[4,31]],[[1906,1335],[-1,0]],[[1980,1411],[2,3]],[[2084,1550],[105,74],[7,87]],[[2194,1721],[24,52]],[[2196,1711],[-2,10]],[[2218,1773],[3,23]],[[2221,1796],[59,48],[16,106]],[[2296,1954],[16,37]],[[2296,1954],[0,-4]],[[2309,1997],[50,102],[40,9],[16,59],[21,5],[12,51],[-23,9]],[[2309,1997],[3,-6]],[[2426,2236],[20,114]],[[2446,2351],[-3,15]],[[2443,2367],[7,20]],[[135,1143],[-6,4]],[[9,1140],[1,2]],[[16,1143],[-4,0]],[[48,1124],[8,-10]],[[50,1125],[0,-1]],[[57,1115],[-6,10]],[[56,1114],[5,-3]],[[56,1114],[5,-3]],[[61,1111],[4,-2]],[[65,1109],[9,-7]],[[74,1102]],[[74,1102],[1,0]],[[83,1102],[-9,0]],[[74,1102]],[[74,1102],[-9,7]],[[65,1109],[-3,2]],[[62,1111],[-5,4]],[[62,1112],[-3,1]],[[59,1113],[-2,2]],[[80,1129],[-12,-14],[-1,-1],[-8,-1]],[[59,1113]],[[62,1112],[0,-1]],[[62,1111],[-1,0]],[[61,1111]],[[61,1111],[3,-3]],[[64,1108],[1,1]],[[65,1109]],[[65,1109],[0,1],[-3,2]],[[64,1108],[5,-4]],[[75,1120],[5,9]],[[86,1102],[-2,0]],[[86,1138],[15,14]],[[96,1086],[-4,-4]],[[118,1164],[-18,4]],[[102,1153],[15,10]],[[109,1162],[0,-2]],[[111,1163],[-2,-1]],[[111,1160],[0,2]],[[242,905],[0,-1]],[[727,1811],[4,19]],[[732,1831],[-1,0]],[[731,1831]],[[731,1831]],[[1553,1545]],[[119,1163],[-1,1],[-1,0],[1,-1],[1,0]],[[173,1069],[0,-1],[0,1]],[[732,1831],[-1,0]],[[731,1831]],[[731,1831],[0,-1],[1,1]],[[0,873],[135,-69],[11,4]],[[146,808],[63,19],[1,-1]],[[210,826],[46,-49],[86,-3],[77,16],[-3,-44],[9,-19],[5,-3],[5,-1],[173,70],[2,-8],[37,-19],[85,-2],[56,-72],[1,1]],[[789,693],[12,4]],[[801,697],[35,13],[76,-27],[40,7],[9,2],[1,0]],[[962,692],[26,5],[65,-36]],[[1053,661],[5,-3],[29,-10],[2,-5],[44,-66],[19,-17]],[[1152,560],[80,-69]],[[1232,491],[3,-3],[7,-3],[45,1],[6,1]],[[1293,487],[100,18],[112,-20]],[[1505,485],[26,-5],[77,12],[18,-2]],[[1626,490],[68,-9],[92,-21]],[[1786,460],[24,-5],[73,-37],[76,10],[18,14]],[[1972,439],[-88,-20],[-75,37],[-23,4]],[[1786,460],[-160,30]],[[1626,490],[-17,3],[-78,-12],[-26,4]],[[1505,485],[-76,12],[-136,-10]],[[1293,487],[-6,0],[-44,-2],[-8,4],[-3,2]],[[1232,491],[-50,31],[-30,38]],[[1152,560],[-62,83],[-2,5],[-19,11],[-11,0],[-5,2]],[[1053,661],[-40,16],[-51,15]],[[962,692],[-1,0],[-49,-8],[-77,27],[-34,-14]],[[801,697],[-12,-5],[0,1]],[[789,693],[-49,66],[-7,6],[-86,1],[-46,40],[-166,-83],[-15,67],[-164,-12],[-43,49],[-3,-1]],[[210,826],[-64,-18]],[[146,808],[-11,-3],[-135,69]],[[537,1135],[0,1],[0,-1]],[[1904,1306],[-15,4]],[[834,1801],[14,-29]],[[1581,1518],[-38,54],[-59,37],[-17,9]],[[1467,1618],[112,-100]],[[725,1752],[-1,-2]],[[725,1752],[1,0]],[[726,1753],[-1,-1]],[[728,1755],[-1,-1]],[[728,1753],[0,2]],[[747,1771],[-19,-16]],[[767,1787],[-18,-15]],[[784,1800],[-15,-12]],[[819,1801],[-34,-1]],[[726,1753],[1,-1],[1,1]],[[728,1753],[-2,1],[0,-1]],[[785,1800],[-1,0],[1,0]],[[104,1165],[5,-4]],[[631,1821],[0,-4]],[[632,1818],[-1,2]],[[633,1817],[-1,1],[-1,0],[1,-2],[1,1]],[[158,983],[-5,46]],[[177,960],[-5,-3]],[[177,960],[2,1]],[[178,962],[-1,-2]],[[181,964],[-2,-2]],[[179,962],[-1,0],[1,-1],[1,1]],[[180,962],[-1,0]],[[180,962],[1,2]],[[194,975],[-13,-11]],[[194,975],[4,0]],[[199,976],[-5,-1]],[[196,912],[5,61]],[[199,975],[2,-2]],[[201,973],[-2,2]],[[199,975],[0,1],[-1,-1],[1,0]],[[3324,1610],[24,-16],[72,32],[173,-106],[124,46],[41,-1],[24,-32]],[[3782,1533],[6,0]],[[3788,1533],[149,37]],[[3937,1570],[-4,-5]],[[3942,1575],[-5,-5]],[[3937,1570],[1,0]],[[430,989],[13,-2]],[[515,899],[-4,2]],[[621,842],[-17,13]],[[604,854],[17,-12]],[[747,800],[-62,-1],[-64,43]],[[747,800],[10,-1]],[[790,730],[-33,69]],[[951,636],[-142,58],[-18,35]],[[1399,499],[-46,-26],[-124,-1],[-119,111],[-69,19],[-42,-39],[-46,72]],[[1399,499],[-17,1]],[[1981,423],[-489,34],[-93,42]],[[2439,0],[-61,193],[-220,170],[-174,61]],[[1982,423],[0,1],[-1,-1],[1,0]],[[723,1711]],[[723,1708]],[[724,1708],[5,0]],[[730,1709],[-5,1]],[[730,1709],[-1,-1],[1,-2],[1,2],[-1,1]],[[732,1709],[-1,0]],[[731,1707]],[[1467,1628],[9,21]],[[1554,1542],[1,12],[-88,67]],[[1588,1517],[-36,23]],[[1553,1545],[0,-3]],[[1659,1501],[-18,-8]],[[1660,1503],[-1,-2]],[[1659,1501],[2,0]],[[1662,1501],[1,0]],[[1662,1502],[-1,1],[-1,-1],[1,-1],[1,1]],[[1764,1496],[-102,6]],[[1553,1540],[1,1],[-1,1],[-1,-1],[1,-1]],[[600,1010],[6,-74]],[[607,935],[22,-50]],[[629,885],[0,-1]],[[629,884],[0,-1]],[[630,884],[-1,0]],[[1463,2074],[-21,86],[-28,3]],[[1463,2073],[56,-75],[-82,-129],[-11,-101],[42,-45],[-23,-73]],[[659,849],[-5,9]],[[663,846],[-3,2]],[[3070,1423],[61,40]],[[3131,1463]],[[3131,1464],[0,-1]],[[1659,1544],[0,-1]],[[1659,1543]],[[1659,1543],[2,-39]],[[1661,1504],[0,-1]],[[1662,1503],[-1,1]],[[671,1740],[-7,-5]],[[668,1737],[3,2]],[[743,1748],[-21,4],[-10,1]],[[714,1752],[29,-4]],[[759,1744]],[[1171,1729],[0,-1]],[[1170,1730],[3,0],[0,1],[-3,1],[0,-2]],[[396,1294],[0,-30]],[[3180,2297],[-98,132]],[[3197,2275],[-16,20]],[[3230,2228],[-33,46]],[[99,904],[25,-43]],[[535,758],[75,36]],[[547,979],[1,2]],[[833,1426],[1,3]],[[1134,2277],[1,-1]],[[1134,2277]],[[1611,1493],[4,-2]],[[2253,955],[2,-1]],[[2255,954],[0,2]],[[2255,954],[7,-4]],[[2425,2234],[0,-2],[0,2]],[[2425,2234],[1,2],[-1,-1]],[[2514,2476],[3,0]],[[2517,2476],[1,0]],[[3141,1476],[30,35]],[[3170,1512],[2,1]],[[96,825],[2,-2],[1,2],[-2,2],[-1,-2]],[[2252,959],[-1,-3],[3,-1],[1,3],[-3,1]],[[2425,2235],[0,-1],[0,1]],[[2443,2367],[-1,0],[1,-1],[0,1]],[[2657,2481],[-1,-1],[1,0],[0,1]],[[2790,2476],[1,0],[-1,1],[0,-1]],[[654,827],[-1,1]],[[653,828],[1,-1]],[[654,827],[116,-313],[0,-68],[-36,-65],[84,-56],[12,-123]],[[853,172],[44,-57],[30,-115]],[[697,1673],[0,-1]],[[699,1673],[-1,0]],[[697,1672],[1,-4]],[[367,923],[-90,-24]],[[380,921],[-12,2]],[[4004,1212],[-192,-54]],[[4004,1212],[1,1]],[[4004,1213],[0,-1]],[[4005,1215],[-1,-1]],[[4041,1590],[10,-98],[-52,-44],[30,-123],[-24,-110]],[[4005,1214],[0,1]],[[153,1054],[4,-6]],[[155,1051],[-2,3]],[[200,999],[1,-1]],[[202,997],[1,0]],[[688,0],[129,172]],[[817,172],[8,5]],[[825,177],[16,-2]],[[841,175],[19,0]],[[1168,262],[4,1]],[[1172,263],[1,1]],[[1173,264],[-1,-1]],[[1175,266],[-1,-1]],[[1174,264],[1,2]],[[1175,266],[228,231]],[[1982,426],[-1,-2]],[[1987,441],[-5,-15]],[[1982,424],[0,2]],[[1991,452],[-3,-8]],[[1989,443],[3,8]],[[1992,456],[-1,-2]],[[1992,456],[64,199],[99,197],[67,-12],[40,59],[3,58],[521,220]],[[1993,453],[-1,3]],[[2786,1177],[1,1]],[[2787,1179],[-1,-2]],[[2790,1179],[-2,0]],[[2788,1179],[-1,0],[0,-1]],[[2787,1178],[2,0],[-1,1]],[[2789,1178],[1,1]],[[2790,1179],[154,79]],[[2944,1258],[1,0]],[[2944,1259],[0,-1]],[[2946,1260],[-1,-1]],[[2945,1259],[1,1]],[[2946,1260],[146,87],[14,73],[-59,5],[121,87]],[[3168,1512],[2,0]],[[3169,1513],[-1,-1]],[[3174,1517],[-3,-2]],[[3172,1514],[2,3]],[[3254,1562],[-80,-45]],[[3269,1606],[-20,-41]],[[3249,1565],[1,-1]],[[3250,1565],[-1,0]],[[3253,1562],[1,0]],[[3254,1562],[0,1]],[[3338,1673],[-66,-64]],[[3347,1683],[-9,-10]],[[3427,1865],[-46,-80],[21,-52],[-55,-50]],[[3431,1877],[-5,-4]],[[3426,1873],[1,-8]],[[3431,1877],[1,1]],[[3432,1878],[-1,-1]],[[3434,1879],[-1,0]],[[3433,1878],[1,1]],[[3453,1893],[-19,-14]],[[3448,1890],[12,5]],[[3453,1893],[0,1]],[[3453,1894],[0,-1]],[[3454,1895],[1,0]],[[3455,1895],[-1,0]],[[3546,1912],[-91,-17]],[[3559,1913],[-13,-1]],[[3723,1916],[-164,-3]],[[3723,1916],[21,7]],[[3744,1924],[-21,-8]],[[3754,1926],[-8,-2]],[[3746,1923],[8,3]],[[3962,1907],[-208,19]],[[3964,1907],[-2,0]],[[3962,1907],[2,-1]],[[3965,1906],[2,0]],[[3967,1906],[-2,1]],[[3988,1900],[-21,6]],[[3991,1898],[-1,1]],[[4015,1891],[0,-1],[1,1],[-1,0]],[[4015,1891],[0,-1]],[[4017,1891],[-1,0]],[[4016,1890],[1,1]],[[4023,1892],[-6,-1]],[[4023,1892],[3,0]],[[4026,1893],[-3,-1]],[[4030,1893],[-3,0]],[[4027,1892],[3,1]],[[4050,1901],[-20,-8]],[[4051,1902],[-1,-1]],[[4050,1901],[1,0]],[[1173,265],[0,-1]],[[1173,264],[1,0],[0,1],[-1,0]],[[1988,442],[1,1],[-1,1],[-1,-1],[1,-1]],[[2944,1259],[1,-1],[0,1],[-1,0]],[[3172,1515],[-2,0],[-1,-2],[2,0],[1,2]],[[3251,1562],[1,0],[1,3],[-1,0],[-1,-3]],[[3271,1607],[0,1],[-1,0],[0,-1],[1,0]],[[3433,1878],[0,1]],[[3433,1879],[-1,-1],[1,0]],[[3745,1923],[0,1],[-1,0],[0,-1]],[[3744,1923],[1,0]],[[3965,1906],[0,1],[-1,0],[0,-1]],[[3964,1906],[1,0]],[[3989,1900],[-1,-1],[1,-1],[1,1],[-1,1]],[[4026,1892],[1,0]],[[4027,1892],[-1,1],[0,-1]],[[2263,898],[498,-106]],[[2761,792],[13,-2]],[[2774,790],[196,-66],[27,-45],[205,-26],[52,-39]],[[3255,614],[0,-1]],[[477,862],[-18,21],[-1,1]],[[458,884],[-1,1],[13,26]],[[470,912],[-12,-28]],[[458,884],[-2,-4],[14,-14]],[[483,856],[-6,6]],[[2330,414],[0,-1]],[[3274,1614],[-3,-9]],[[3271,1605],[4,9]],[[4096,1907],[-19,-1]],[[4077,1906],[19,-2]],[[3933,1565],[-41,-92],[-122,-47],[-24,-45]],[[3943,1576],[-10,-11]],[[4017,1624],[-74,-48]],[[4017,1624],[1,0]],[[4018,1625],[-1,-1]],[[4018,1624],[2,-1]],[[4020,1623],[-1,2]],[[4096,1731],[-41,-56],[-9,-83],[-26,31]],[[4019,1624],[0,1],[-1,0],[0,-1]],[[4018,1624],[1,0]],[[94,1180],[-1,-16]],[[96,1085],[-41,-11]],[[55,1074],[34,6]],[[53,1074],[0,-1],[1,-1],[1,2]],[[55,1074],[-2,0]],[[249,1011],[6,7]],[[255,1018],[-2,-1]],[[239,1004],[-7,-8]],[[242,1007],[-3,-2]],[[95,1100],[12,2]],[[105,1102],[-10,-1]],[[94,1102],[0,-1],[1,-1],[0,1],[-1,1]],[[479,737],[1,-2]],[[114,1158],[-4,4]],[[163,1059],[-4,-2]],[[159,1057],[3,1]],[[238,1013],[11,-2]],[[253,1017],[-14,-4]],[[303,1031],[-48,-13]],[[2837,2487],[-4,-3]],[[2835,2485],[0,-1]],[[2948,2440],[-113,44]],[[2835,2484],[0,1]],[[2837,2487],[61,27]],[[2839,2485],[-2,2]],[[2898,2515],[12,16]],[[2910,2531],[5,5]],[[2949,2440],[-1,0]],[[2948,2440],[1,-1]],[[2950,2439],[1,0]],[[2951,2439],[-1,1]],[[3082,2429],[-131,10]],[[3137,2342],[4,-8]],[[3181,2295],[-1,2]],[[3197,2274],[0,1]],[[3340,2089],[-110,139]],[[3340,2089],[1,0]],[[3341,2089],[-1,0]],[[3354,2078],[-13,11]],[[3354,2078],[1,-1]],[[3356,2077],[-2,1]],[[3356,2076],[2,-2]],[[3358,2074],[-2,2]],[[3392,1986],[5,50],[-39,38]],[[3392,1986],[0,-1]],[[3393,1985],[-1,1]],[[3392,1984],[1,-1]],[[3393,1983],[0,1]],[[3408,1895],[-15,88]],[[3408,1895],[18,1]],[[3452,1896],[-26,0]],[[3990,1908],[52,-59]],[[4019,1626],[-1,-1]],[[4044,1846],[-32,-133],[7,-87]],[[4019,1625],[0,1]],[[4042,1849],[0,-1]],[[4043,1849],[-1,0]],[[4042,1848],[1,-1]],[[4043,1847],[1,1],[-1,1],[-1,-1]],[[4043,1847],[1,-1]],[[4044,1846],[0,1]],[[2835,2485],[1,0],[-1,0]],[[2898,2515]],[[2898,2515],[0,-1],[0,1]],[[2911,2531],[-1,0],[1,0]],[[2950,2439],[0,1],[-1,0],[0,-1],[1,0]],[[3356,2076],[0,1]],[[3356,2077],[-1,0]],[[3355,2077],[0,-1],[1,0]],[[3393,1984],[0,1],[-1,0],[1,-1]],[[633,1819],[-1,-1]],[[633,1818]],[[272,904],[-1,1],[1,-1]],[[272,904],[0,-1]],[[272,903],[0,1]],[[275,900],[-3,3]],[[275,900],[0,-1]],[[275,899],[0,1]],[[272,904]],[[724,1788],[3,-33]],[[727,1755],[-1,-1]],[[727,1754],[0,1]],[[656,1730],[12,7]],[[664,1735],[-8,-5]],[[712,1753],[-1,-1],[-5,-1]],[[706,1751],[-24,-6]],[[682,1745],[-3,0],[-8,-5]],[[671,1739],[11,6]],[[682,1745],[5,3]],[[688,1749],[18,2]],[[706,1751],[5,1],[3,0]],[[745,1747],[70,-41]],[[759,1744],[-14,4]],[[816,1707],[-4,6],[-4,4],[-37,23],[-12,4]],[[301,950],[-60,27],[-107,24],[-8,31],[-10,21],[-17,21]],[[101,1068],[32,-67],[167,-51]],[[2618,731],[-24,-42]],[[143,1096],[-3,-31]],[[2003,448],[-10,5]],[[726,1810],[-3,-15]],[[723,1794],[0,1]],[[723,1794],[0,-1]],[[723,1795],[4,15]],[[723,1793],[0,1]],[[723,1793],[1,-5]],[[731,1830],[-5,-19]],[[741,1862],[-9,-29]],[[726,1811],[0,-1],[1,1],[-1,0]],[[223,992],[-1,1]],[[136,1124],[2,-4]],[[139,1121],[-3,3]],[[806,1387],[2,0]],[[808,1387],[1,0]],[[809,1388],[-1,-1]],[[809,1387],[1,0],[0,1]],[[810,1388],[-1,0],[0,-1]],[[813,1390],[-3,-2]],[[810,1388],[3,2]],[[813,1390],[19,49],[132,56],[188,-33],[79,27]],[[1231,1489],[11,0]],[[1315,1479],[-73,10]],[[1315,1479],[23,6]],[[1374,1505],[-36,-20]],[[1374,1505],[7,3]],[[1381,1508],[225,-13]],[[1606,1495],[7,-2]],[[1612,1494],[-6,1]],[[140,1065],[8,-6]],[[402,1292],[1,1]],[[2518,2478],[274,-13]],[[123,1149],[12,-6]],[[2396,2449],[-59,69],[25,69],[-20,69],[-188,10]],[[2396,2449],[-1,-2]],[[2395,2445],[1,1]],[[2395,2446],[0,-1]],[[2400,2430],[-5,15]],[[2396,2447],[0,2]],[[2435,2395]],[[2454,2392],[-19,3]],[[2454,2392],[1,1]],[[2455,2394],[-1,-2]],[[2455,2396],[0,-2]],[[2458,2433],[-3,-37]],[[2455,2395],[0,1]],[[2458,2433],[5,4]],[[2482,2437],[-19,0]],[[2483,2444],[-1,-7]],[[2488,2479],[-21,-12],[16,-23]],[[2498,2477],[-10,2]],[[2514,2476],[-16,1]],[[2575,2486],[-57,-10]],[[2763,2469],[-97,9]],[[2666,2478],[-91,8]],[[2656,2481],[-81,5]],[[2683,2473],[-17,5]],[[2666,2478],[-9,2]],[[2763,2469],[15,4]],[[2790,2476],[-12,-3]],[[2827,2483],[-36,-7]],[[2827,2483],[14,1]],[[2835,2484],[-8,-1]],[[2396,2447],[-1,0],[1,-1]],[[2396,2446],[0,1]],[[2456,2394],[-1,0],[0,-1],[1,1]],[[664,854],[5,6]],[[1902,1331],[-59,-43],[-59,-150],[-98,-83]],[[1686,1055],[0,-1]],[[1686,1055],[0,-1],[1,0],[0,1],[-1,0]],[[1687,1054],[0,-1],[0,1]],[[1718,745],[0,-1]],[[1757,545],[27,-82]],[[1902,1331],[0,1]],[[1902,1332],[0,-1]],[[662,1700],[-23,-23]],[[639,1677],[23,22]],[[670,1706],[-7,-5]],[[663,1700],[8,6]],[[670,1706],[1,0]],[[671,1706],[1,0],[-1,1],[-1,-1]],[[723,1711],[-52,-4]],[[672,1706],[51,2]],[[725,1710],[-2,1]],[[723,1708],[1,0]],[[731,1707],[33,35]],[[763,1742],[-31,-33]],[[777,1767],[-14,-22]],[[764,1745],[12,18],[2,4]],[[782,1788],[-2,-14]],[[780,1774],[3,14]],[[762,1743],[3,-1],[0,1],[-2,1],[-1,-1]],[[715,1752],[-3,1]],[[714,1785],[-1,-31]],[[714,1754],[1,31]],[[1904,1337],[-3,73],[-59,30]],[[1903,1331],[0,-1]],[[1903,1330],[1,1]],[[2164,1006],[-251,161],[-10,163]],[[1904,1337],[-1,-1]],[[1904,1336],[0,1]],[[2164,1006],[0,-2]],[[2166,1004],[-2,2]],[[2167,999],[1,0]],[[2168,999],[0,1]],[[2168,999],[80,-40]],[[2248,959],[3,-2]],[[2252,959],[-4,0]],[[1906,1334],[-3,2]],[[1903,1336],[-1,-3],[2,-2],[2,3]],[[2163,1002],[1,-2],[5,1],[0,2],[-6,-1]],[[51,1167],[-45,-28]],[[301,1212],[-1,1],[0,-1]],[[301,1211]],[[301,1211],[0,1],[-1,0],[0,-1],[1,0]],[[623,1824],[-92,12],[-84,-126],[-128,-118]],[[319,1592],[1,-2]],[[321,1591],[-2,1]],[[690,1796],[-58,23]],[[711,1795],[-12,-1]],[[320,1590],[0,-1],[1,0],[0,1],[-1,0]],[[223,902]],[[396,1294],[6,-2]],[[2562,652],[-119,-170],[-39,-185],[-34,-52]],[[2585,678],[-22,-25]],[[2563,653],[-1,0],[0,-1],[1,1]],[[2585,678],[1,0]],[[2586,678],[-1,0]],[[2588,679],[-2,0]],[[2586,679],[0,-1],[1,0],[-1,1]],[[2587,678],[1,1]],[[2594,689],[-6,-10]],[[2652,814],[-34,-83]],[[300,950],[71,-33]],[[370,918],[-69,32]],[[467,869],[3,-3]],[[477,861],[0,1]],[[513,834],[-3,2]],[[99,1202],[-4,-6]],[[176,1070],[-3,-1]],[[599,1011],[1,0]],[[780,1362],[-1,1]],[[173,1015],[-14,30],[-4,6]],[[157,1048],[16,-33]],[[173,1014],[1,0]],[[174,1014],[0,1]],[[187,1005],[-13,9]],[[187,1005],[2,-1]],[[189,1004],[-2,1]],[[189,1004],[1,0]],[[190,1004],[-1,0]],[[202,998],[-12,6]],[[221,993],[-19,5]],[[222,993],[7,0]],[[232,996],[-3,-3]],[[229,993],[3,3]],[[244,1009],[-2,-2]],[[173,1015]],[[173,1015],[0,-1],[1,1]],[[174,1015],[-1,0]],[[189,1004]],[[202,998]],[[221,993],[0,-1],[1,1],[-1,0]],[[232,996]],[[232,996]],[[232,996]],[[239,1004],[0,1],[0,-1]],[[86,1121],[-2,-11]],[[84,1110],[2,11]],[[87,1132],[-1,-7]],[[87,1124],[1,8]],[[91,1155],[-1,-6]],[[97,1076],[4,-8]],[[3812,1158],[-19,-28],[-153,15],[-18,-34]],[[540,1130],[-3,5]],[[573,1091],[-33,39]],[[598,1013],[-24,77]],[[539,1130],[1,0],[-1,0]],[[160,956],[-2,27]],[[2519,0],[-147,243],[-141,94],[-159,97],[-46,5],[-14,6],[-3,0]],[[2009,445],[-3,1]],[[2006,446],[-16,2],[-1,0],[-4,-2]],[[1985,446],[-13,-7]],[[1977,442],[6,3],[2,1]],[[1985,446],[4,1],[1,0],[16,-1]],[[2006,446],[2,0],[1,-1]],[[2009,445],[13,-5],[4,-2],[46,-5],[158,-97],[137,-93],[5,-1],[146,-242]],[[818,1386],[-8,-22]],[[810,1364],[8,22]],[[638,863],[16,-6]],[[660,848],[-1,1]],[[138,1136],[-3,7]],[[631,1816],[1,-2]],[[632,1814],[0,2]],[[632,1814],[2,-34]],[[634,1780],[0,-4]],[[636,1776],[-2,4]],[[779,1363],[0,-1]],[[780,1361],[0,-1]],[[780,1360],[0,1]],[[780,1360],[1,-1]],[[782,1357],[11,-30]],[[780,1361],[-1,1],[0,-1],[1,0]],[[780,1361]],[[1660,1546],[-1,-1]],[[1660,1545],[0,1]],[[1698,1615],[-38,-69]],[[534,1148],[-2,1]],[[532,1146],[1,0]],[[537,1135],[2,-5]],[[540,1129],[0,-1]],[[574,1090]],[[599,1012],[-1,0]],[[574,1090]],[[574,1090]],[[1687,1053],[-16,-117],[47,-191]],[[1718,744],[39,-199]],[[395,1265],[-23,30],[-81,-46]],[[539,1178],[-127,51],[-16,35]],[[537,1136],[2,42]],[[669,860],[1,17]],[[119,1044],[0,-1]],[[3990,1909],[1,1],[-1,1],[-1,-1],[1,-1]],[[2741,909],[-89,-95]],[[3470,1869],[2,2]],[[3471,1871],[-1,-1]],[[3748,1884],[-1,0]],[[592,1561],[0,-5]],[[592,1556],[0,5]],[[749,1526],[-99,-35],[-58,65]],[[592,1561],[0,1],[0,-1]],[[592,1561]],[[617,1516],[1,-2],[1,1],[-2,2],[0,-1]],[[1659,1544],[1,0],[0,1],[-1,-1]],[[712,1753],[3,-1]],[[793,1534],[-2,0]],[[798,1533],[-4,0]],[[794,1533],[4,0]],[[898,1483],[-100,50]],[[794,1532],[0,1]],[[794,1533],[-1,1],[0,-1],[1,-1]],[[271,905],[-1,0]],[[158,983]],[[3256,615]],[[3256,615],[-50,296],[3,69],[60,121]],[[3256,615]],[[3256,612],[1,2],[-1,1]],[[3256,615],[-1,-2],[1,-1]],[[3256,612],[1,-1]],[[3257,611],[0,2]],[[3257,611],[2,-4]],[[3269,1101],[3,6]],[[3272,1107],[35,168]],[[3319,1451],[-34,-33]],[[3289,1411],[-4,7]],[[3289,1411],[6,-7]],[[3295,1404],[14,3]],[[3307,1275],[1,2]],[[3308,1277],[-1,-2]],[[3310,1279],[-1,-1]],[[3309,1278],[1,1]],[[3309,1407],[21,-4]],[[3333,1366],[19,-35],[-42,-52]],[[3319,1451],[12,5]],[[3327,1606],[20,-41],[-16,-109]],[[3330,1385],[-2,-9]],[[3328,1376],[5,-10]],[[3330,1403],[0,-18]],[[3309,1278],[-1,0],[0,-1]],[[3308,1277],[1,0],[0,1]],[[137,1052],[0,-1]],[[140,1043],[-2,9]],[[791,1415],[1,1]],[[833,1436],[-16,-32],[-24,12]],[[600,1708],[-5,0],[-12,-9],[-1,-1],[-7,-5]],[[576,1693],[80,37]],[[656,1730],[-55,-22]],[[626,1688],[31,17]],[[657,1705],[1,0]],[[658,1705],[-1,0]],[[659,1706],[-1,0]],[[658,1705],[1,1]],[[674,1714],[-15,-8]],[[675,1715],[-1,-1]],[[674,1714],[1,0]],[[676,1715]],[[676,1715]],[[724,1750],[-48,-35]],[[749,1772],[-2,-1]],[[769,1788],[-2,-1]],[[834,1801],[-15,0]],[[675,1715],[0,-1],[1,0],[0,1]],[[676,1715],[-1,0]],[[655,1729],[0,-11]],[[655,1731]],[[655,1717],[1,-8],[2,-4]],[[656,1718],[-1,11]],[[658,1706],[-2,11]],[[656,1731],[0,1]],[[658,1705],[4,-5]],[[663,1701],[-5,4]],[[663,1699],[5,-7]],[[663,1699],[6,-6]],[[669,1693],[-6,7]],[[669,1693],[-4,5]],[[669,1692],[2,-1]],[[671,1691],[14,-7]],[[669,1692],[2,-1]],[[671,1691],[16,-9]],[[687,1683],[-17,10]],[[688,1683],[-18,11]],[[688,1681],[9,-8]],[[698,1673],[-9,9]],[[654,1730],[0,-1],[2,1],[0,1],[-2,-1]],[[656,1718],[-1,0],[0,-1],[1,0],[0,1]],[[658,1706],[0,-1],[0,1]],[[663,1700],[0,1]],[[663,1701],[-1,-1],[1,-1]],[[663,1699],[0,1]],[[670,1693],[-1,0],[1,0]],[[688,1683],[-1,-1],[1,-1],[1,1],[-1,1]],[[112,1159],[11,-10]],[[129,1147],[-15,11]],[[135,1143],[3,-7]],[[140,1070],[3,-7]],[[143,1063],[1,-2],[9,-7]],[[153,1054],[-1,3],[-7,4],[-2,2]],[[143,1063],[-2,1]],[[395,1082],[0,-57]],[[396,1025],[1,62]],[[322,1029],[-1,0]],[[321,1029],[-9,1]],[[313,1030],[24,-5]],[[337,1025],[-2,1],[-14,3]],[[321,1029],[-1,0]],[[337,1025],[12,-12]],[[349,1013],[2,0]],[[351,1013],[20,-1],[7,0],[4,0]],[[382,1012],[14,0]],[[337,1025]],[[337,1025]],[[393,1012],[-11,0]],[[382,1012],[-4,0],[-5,0],[-22,1]],[[351,1013],[-2,0]],[[349,1013],[-5,4],[-7,8]],[[403,1011],[-5,3]],[[400,1012],[3,-1]],[[403,1011],[27,-22],[-26,23]],[[443,987],[34,-36]],[[490,938],[-13,13]],[[525,891],[-35,47]],[[525,891],[-10,8]],[[568,860],[-43,31]],[[568,860],[22,-9],[14,3]],[[604,855],[-36,5]],[[0,1109]],[[162,1058],[5,2]],[[167,1060],[-4,-1]],[[6,1139],[45,27]],[[84,1110],[1,-2]],[[85,1108],[9,-25],[3,-7]],[[91,1089],[-5,9],[-1,10]],[[85,1108],[-1,2]],[[90,1149],[-3,-17]],[[88,1132],[7,41],[-1,10]],[[1467,1618],[-106,63],[-185,50],[-8,0]],[[1168,1731],[-1,0],[-13,16]],[[1154,1747],[-27,32],[-81,14],[-26,42],[-2,0],[-46,-3],[-7,2],[-113,78],[-93,5],[-67,-42],[-59,-56]],[[633,1818],[126,98],[93,-5],[113,-78],[6,-1],[49,2],[26,-42],[80,-14],[28,-31]],[[1154,1747],[14,-16]],[[1168,1731],[193,-51],[106,-62]],[[1579,1518],[92,-95],[33,-20],[197,-67],[25,-146],[193,-92],[47,-94]],[[2168,1004],[-47,93],[-195,93],[-25,146],[-197,67],[-123,115]],[[3271,1605],[-76,-128],[-1,-65],[16,-75],[-29,-62],[-264,-37],[-48,-56],[-117,-27],[-41,-36],[-82,-6],[-120,-49],[-341,-62],[-21,-7],[-10,-12]],[[2137,983],[-5,-6]],[[2132,977],[-3,-4],[27,-100],[-85,-147],[-32,-118],[-12,-158]],[[2028,448],[25,206],[6,10],[91,190],[6,19],[-12,61],[0,1],[-12,42]],[[2132,977],[0,2],[5,4]],[[2137,983],[31,19],[15,-1],[11,2],[298,50],[17,10],[31,9],[89,41],[82,6],[41,36],[118,27],[47,55],[160,11],[104,27],[10,10],[19,52],[-15,74],[9,23],[1,5],[-9,38],[53,60],[22,68]],[[3470,1870],[-53,-48],[-24,-70],[-25,-24],[-82,-30],[-10,-10],[-2,-74]],[[3275,1614],[1,73],[10,10],[62,21],[20,10],[26,23],[9,15],[15,44],[0,12],[45,39],[7,8]],[[3747,1884],[-141,-9],[-3,0]],[[3603,1875],[-101,1]],[[3502,1876],[-3,1],[-13,0],[-15,-6]],[[3472,1871],[14,5],[12,0],[4,0]],[[3502,1876],[59,8],[42,-9]],[[3603,1875],[3,0],[141,9],[149,-24],[72,49],[45,-8],[64,5]],[[4077,1906],[-65,-5],[-23,10],[-22,-2],[-71,-49],[-148,24]],[[104,1205],[-5,-3]],[[99,1202],[5,3]],[[157,943],[-48,-39]],[[95,1191],[0,1]],[[27,1],[-2,2]],[[653,858],[1,0]],[[665,844],[18,-33],[68,-9]],[[750,801],[2,1]],[[752,802]],[[752,802]],[[752,802]],[[756,800],[-4,2]],[[752,802],[-1,0]],[[751,802],[1,0]],[[752,802],[2,-1]],[[752,802]],[[752,802],[-1,-1]],[[237,1089],[24,6]],[[261,1095],[1,0]],[[262,1096],[-1,-1]],[[265,1096],[-2,0]],[[263,1095],[2,1]],[[265,1096],[2,30],[67,45],[-37,19],[5,20]],[[300,1213],[-11,21]],[[47,1069],[-6,-20]],[[42,1048],[6,21],[-5,16],[4,13]],[[47,1098],[0,1],[1,0]],[[48,1099],[8,7],[14,9],[5,5]],[[47,1069],[-1,-5]],[[75,1120],[-6,-5],[-13,-9],[-8,-7]],[[48,1099],[-1,-1]],[[47,1098],[-3,-1],[-2,-12],[5,-16]],[[860,175],[178,31],[130,56]],[[658,849],[0,-1]],[[660,843],[5,1]],[[39,1049],[0,-1]],[[164,955],[-1,1]],[[171,343],[-2,-3]],[[173,343],[-1,0]],[[336,1611],[9,10]],[[340,1613],[0,-1]],[[342,1615]],[[342,1615]],[[372,1225],[3,-1]],[[709,1794],[2,-1]],[[783,1356],[-1,1]],[[789,1550],[8,27]],[[1390,501],[1,0]],[[1400,493],[-5,-3],[0,-6]],[[1396,489],[1,-1]],[[1397,488],[-1,1]],[[1397,488],[0,1]],[[1397,488]],[[1842,2533],[-1,23]],[[2160,857],[36,62]],[[2222,844],[0,2]],[[2261,899],[-1,1],[-1,-1]],[[2260,899],[1,1]],[[2384,187],[-6,6]],[[2798,118]],[[3133,1465],[-1,-1]],[[3132,1464],[1,1]],[[3133,1465],[5,9]],[[3138,1474],[2,1]],[[3139,1476],[-1,-2]],[[3140,1476],[1,0],[-1,0]],[[3168,2324],[-14,37]],[[3457,1895],[-10,1]],[[173,343],[-1,0]],[[172,343],[-1,0],[1,-1],[1,1]],[[782,1358],[0,-1]],[[782,1357],[0,1]],[[1795,2491],[0,-1],[1,0],[0,1],[-1,0]],[[1798,2490],[0,-1],[1,1],[-1,0]],[[3131,1464],[1,-1],[0,1],[-1,0]],[[3140,1475],[0,1],[-1,0],[0,-1],[1,0]],[[86,1101],[8,-1]],[[851,175],[0,-1]],[[852,174]],[[4014,1891],[-23,7]],[[632,1819],[-9,5]],[[699,1794],[-9,2]],[[1889,1310],[-6,3]],[[788,1634],[-56,39],[-36,-3],[-2,1]],[[694,1671],[-4,1]],[[692,1672],[2,-1]],[[694,1671],[3,-1],[35,3],[28,-32],[21,-9],[14,1]],[[94,1183],[1,8]],[[95,1192],[0,2]],[[96,1085],[1,0],[-1,0]],[[491,946],[48,28]],[[539,974],[13,12]],[[552,986],[44,23]],[[596,1009],[3,2]],[[598,1011],[-2,-2]],[[602,1013],[-3,-1]],[[600,1011],[2,2]],[[602,1013],[72,41]],[[673,1059],[1,-5]],[[674,1054],[1,3]],[[675,1057]],[[675,1057]],[[675,1057],[1,-1]],[[676,1056],[0,-1]],[[676,1056]],[[676,1056],[-1,-1]],[[675,1055],[1,-1]],[[599,1012],[-1,-1]],[[598,1011],[1,0],[1,0],[-1,1]],[[96,1196],[3,6]],[[312,1030],[-8,1]],[[304,1030],[9,0]],[[138,1052],[-7,-2]],[[140,1043],[3,-2]],[[153,1029],[-5,10],[-8,4]],[[172,342],[3,0]],[[175,342],[-2,1]],[[175,342],[88,75],[58,131],[112,92],[32,56]],[[465,697],[0,-1]],[[465,697],[70,61]],[[610,795],[0,-1],[1,0]],[[613,796],[-1,0]],[[612,795],[1,1]],[[613,796],[40,30]],[[652,828],[1,-2]],[[653,826],[0,2]],[[612,794],[0,1]],[[612,795],[-1,1],[-1,-1],[2,-1]],[[653,829],[-1,-1],[1,0],[0,1]],[[700,1751],[12,0]],[[814,1716],[-11,5]],[[812,1713],[1,2]],[[813,1715],[1,-1]],[[813,1715],[1,1]],[[816,1716],[-2,0]],[[28,1116],[-4,-1]],[[32,1118],[5,2]],[[51,1126],[5,4]],[[51,1126],[-1,1],[-1,-1],[1,-1],[1,1]],[[69,1154],[-11,-21]],[[70,1154],[3,9]],[[108,1208],[-4,-3]],[[104,1205],[4,3]],[[108,1208]],[[108,1208]],[[723,1795]],[[723,1795],[0,-1]],[[747,1882],[-6,-20]],[[747,1882],[1,1]],[[747,1883],[0,-1]],[[748,1885],[0,-2]],[[748,1883],[0,2]],[[837,2118],[-89,-233]],[[837,2118],[1,1]],[[837,2119],[0,-1]],[[838,2122],[-1,-2]],[[837,2120],[0,-1],[1,0]],[[838,2119],[0,1],[-1,0]],[[838,2120],[0,2]],[[859,2166],[-21,-44]],[[1139,2355],[-8,-83],[-78,24],[-17,-21],[-37,35],[-54,-90],[-49,29],[-37,-82]],[[1464,2299],[-111,7],[-39,12],[-13,35],[-55,-15],[-111,46]],[[748,1883],[-1,0],[1,0]],[[608,857],[21,27],[9,-21]],[[665,844],[-2,2]],[[138,1120],[5,-5]],[[144,1115],[-5,6]],[[2238,733],[-17,105]],[[2238,733],[4,-9]],[[2330,414],[-88,310]],[[2330,413],[39,-167]],[[2435,2395],[-35,35]],[[670,877],[15,123]],[[685,1000],[7,5]],[[692,1005],[-19,54],[12,69],[68,46],[40,153]],[[783,1378],[-4,-15]],[[781,1359],[1,-1]],[[783,1378],[1,3]],[[783,1382],[0,-4]],[[785,1386],[-1,-3]],[[784,1383],[-1,-1],[1,-1]],[[784,1381],[1,2],[-1,0]],[[785,1383],[0,3]],[[788,1634],[21,-44],[-15,-94],[33,-15],[-42,-95]],[[562,1685],[-10,-9]],[[553,1674],[7,8]],[[562,1685],[2,1]],[[69,1104],[17,-3]],[[0,1108],[15,2],[17,8]],[[24,1115],[-24,-6]],[[57,1132],[-5,-5],[-24,-11]],[[37,1120],[15,7],[6,5],[12,22]],[[58,1133],[-8,-6]],[[79,1181],[-10,-27]],[[73,1163],[7,19]],[[658,848],[2,-5]],[[276,899]],[[276,899]],[[276,899],[-1,0],[1,0]],[[601,1708],[-1,0]],[[626,1687],[-1,1]],[[667,1695],[1,-1]],[[676,1714],[0,-4]],[[689,1684],[-3,0]],[[141,1064],[3,51]],[[143,1115],[0,-19]],[[3658,1298],[30,-43],[-39,-34],[-12,-54]],[[218,993],[3,0]],[[229,993],[0,-1],[0,1]],[[106,903],[1,2]],[[157,943]],[[157,943],[1,0]],[[158,944],[-1,-1]],[[728,1755],[-1,-1]],[[784,1800]],[[785,1800],[1,0]],[[86,1125],[0,-4]],[[86,1121],[1,3]],[[93,1164],[-2,-9]],[[159,1057],[-12,-3]],[[147,1054],[-16,-4],[-11,1],[-15,12],[-3,5]],[[102,1068],[-3,6]],[[101,1068],[1,0]],[[102,1068],[45,-14]],[[147,1054],[12,3]],[[715,1829],[-1,-44]],[[715,1785],[0,44]],[[109,1161],[3,-2]],[[560,1682],[2,3]],[[575,1693],[-8,-5]],[[567,1688],[-5,-3]],[[564,1686],[3,2]],[[567,1688],[9,5]],[[0,1147],[2,-4],[8,-14],[4,-22],[3,-7],[28,-24],[-3,-21]],[[20,1196],[-20,-46]],[[43,1054],[7,15],[-48,74],[18,53]],[[37,1204],[-10,-4],[-6,-3]],[[21,1197],[-1,0],[0,-1]],[[20,1196],[1,0],[0,1]],[[21,1197],[16,6]],[[110,1162],[-7,-7]],[[239,1013],[-27,17]],[[212,1030],[-45,30]],[[167,1060],[45,-30]],[[212,1030],[26,-17]],[[1842,2533],[-45,-42],[-61,-128]],[[1839,2557],[3,-24]],[[1840,2556],[2,-23]],[[1173,1733],[-1,-1]],[[1173,1732],[0,1]],[[1445,1649],[-139,46],[-30,35],[-103,3]],[[1476,1649],[-30,0]],[[1467,1621],[0,7]],[[1617,1495],[-29,22]],[[1617,1495],[-2,0]],[[1616,1494],[1,1]],[[1641,1493],[-24,2]],[[1842,1440],[-47,56],[-31,0]],[[1445,1650],[0,-1]],[[1445,1649],[0,-1],[1,1],[-1,1]],[[1614,1496],[-2,-1],[1,-2],[2,1],[-1,2]],[[470,866],[22,-17],[35,-31]],[[527,818],[8,-7],[0,-2]],[[535,809],[-1,-64],[-8,-55],[-66,-120],[-88,-77],[-6,-62],[-42,-52],[-6,-166],[-59,-76],[-44,-137]],[[216,0],[44,138],[59,75],[5,164],[42,54],[7,62],[88,77],[65,118],[9,57],[2,61],[-2,3]],[[535,809],[-8,9]],[[527,818],[-14,16]],[[477,862],[-19,20],[-88,36]],[[371,917],[96,-48]],[[510,836],[-33,25]],[[2838,147],[-94,-147]],[[2838,147],[30,26]],[[2868,173],[8,8]],[[2876,181],[22,9]],[[2898,190],[167,165]],[[3071,367],[-6,-12]],[[3101,404],[-30,-37]],[[3101,404],[15,3]],[[3257,599],[-59,-110],[-82,-82]],[[3257,599],[10,5]],[[3637,1167],[-40,-134],[-132,-131],[-12,-92],[-68,-26],[-55,-193],[-63,13]],[[3746,1381],[-31,-3],[-57,-80]],[[4045,1592],[1,-1]],[[99,1074],[-8,15]],[[791,729],[-1,1]],[[953,635],[-2,1]],[[635,1774],[14,-8]],[[636,1774],[13,-7]],[[650,1767],[-14,8]],[[650,1765],[5,-34]],[[656,1732],[-5,34]],[[636,1776],[-1,0],[-1,-1],[1,-1]],[[635,1774],[1,2]],[[651,1767],[-2,0],[0,-2],[1,0]],[[650,1765],[1,2]],[[537,1136],[-3,12]],[[198,1096],[-1,-1],[1,0]],[[199,1096]],[[198,1097],[0,-1],[0,-1],[1,1]],[[199,1096],[-1,1]],[[228,1089],[-1,-1],[2,-1],[0,1],[-1,1]],[[94,1101],[-8,1]],[[131,1118],[-6,-2],[-12,-8],[-3,-5],[-5,-1]],[[107,1102],[3,1],[15,12],[6,3]],[[147,1137],[-16,-19]],[[147,1137],[0,1]],[[147,1139],[0,-2]],[[148,1140],[-1,-1],[0,-1],[1,0],[0,2]],[[232,996],[7,8]],[[239,1004],[6,4]],[[262,1096],[1,-1],[0,1],[-1,0]],[[848,1772],[90,16],[33,-23],[74,99],[22,-2]],[[1067,1862],[2,0]],[[1069,1863],[-2,-1]],[[1069,1862],[2,-2]],[[1071,1860],[-2,3]],[[1071,1860],[37,2],[46,90],[227,169],[27,60]],[[1408,2186],[0,-5]],[[1408,2186],[15,76],[54,47],[27,-19],[31,50],[12,75],[54,-37],[122,19]],[[1709,2477],[0,1]],[[1709,2478],[0,-1]],[[1726,2399],[13,25],[-30,53]],[[1710,2479],[0,-1]],[[1710,2478],[0,1]],[[1710,2479],[126,36],[-1,44]],[[1723,2397],[2,0]],[[1725,2397],[-2,0]],[[1725,2397],[1,0],[-1,1]],[[1725,2398],[0,-1]],[[1726,2399],[-1,-1]],[[1725,2398],[1,1]],[[1835,2561],[42,29]],[[1835,2561],[0,-1],[1,-1],[0,1],[-1,1]],[[1877,2590],[5,6]],[[1882,2596],[63,-4],[107,75],[52,-26],[26,44],[24,-19]],[[1068,1863],[1,-1],[0,1],[-1,0]],[[1709,2478]],[[1709,2478],[1,0],[-1,0]],[[84,1102],[-1,0]],[[394,1261],[-23,-33]],[[371,1228],[1,-1]],[[373,1227],[-2,1]],[[373,1226],[-11,-83],[34,-47]],[[394,1261],[2,2]],[[395,1264],[-1,-3]],[[396,1096],[-1,-14]],[[397,1087],[-1,9]],[[372,1227],[0,-1],[1,-1],[0,1],[-1,1]],[[395,1264],[0,-1],[1,0],[0,1],[-1,0]],[[76,0],[23,100]],[[99,101],[0,-1]],[[99,100],[1,1]],[[100,102],[-1,-1]],[[100,102],[47,211]],[[100,101],[0,1]],[[149,320],[-2,-7]],[[149,320],[2,6]],[[151,326],[1,1]],[[152,327],[-1,-1]],[[153,328],[-1,0]],[[152,327],[1,1]],[[153,328],[10,8]],[[163,336],[9,6]],[[169,340],[-6,-4]],[[176,349],[9,15]],[[185,364],[1,6]],[[186,370],[53,277]],[[201,894],[0,3]],[[212,832],[-1,2]],[[100,101],[-1,0],[1,0]],[[152,327]],[[152,327],[0,1],[0,-1]],[[152,327]],[[162,956],[4,-2]],[[0,428],[13,-7]],[[0,738],[60,30]],[[60,768],[2,2]],[[61,770],[-1,-2]],[[63,772],[-1,-1]],[[63,770],[0,2]],[[63,772],[7,11]],[[70,783],[1,1]],[[70,784],[0,-1]],[[72,786],[-1,-2]],[[71,784],[1,2]],[[72,786],[23,37]],[[95,823],[2,1]],[[96,825],[-1,-2]],[[63,770],[-1,1],[-1,-1],[1,0],[1,0]],[[71,784],[-1,0]],[[70,784],[1,0]],[[624,1687],[15,-6],[6,1],[4,-1]],[[649,1681],[4,0],[11,-1],[18,-3],[10,-5]],[[690,1672],[-41,9]],[[649,1681],[-4,1],[-6,-1],[-13,7]],[[137,1051],[3,-8]],[[216,897],[-14,-11]],[[380,921],[112,3]],[[493,926],[-1,-2]],[[492,924],[2,-1]],[[493,924]],[[367,923],[0,-1],[1,1],[-1,0]],[[138,1136],[-2,-12]],[[136,1124],[2,12]],[[202,886],[-115,-159],[-87,3]],[[95,1196],[0,-2]],[[255,1018],[48,12]],[[303,1031],[0,-1],[1,0],[0,1],[-1,0]],[[859,2167],[0,-1],[0,1]],[[214,742],[-2,84]],[[2430,2378],[2,-5]],[[631,1822],[12,49]],[[631,1822],[0,-1]],[[631,1820],[0,2]],[[643,1871],[0,1]],[[643,1872],[0,-1]],[[643,1872],[1,0],[0,1],[-1,0],[0,-1]],[[644,1874],[-1,-1]],[[644,1873],[0,1]],[[644,1874],[26,122],[74,72]],[[744,2068],[1,0]],[[744,2068]],[[745,2069]],[[745,2068],[0,1]],[[745,2068],[0,1],[-1,-1]],[[744,2068],[1,0]],[[745,2069],[44,39]],[[789,2108],[1,0]],[[790,2108],[-1,0]],[[792,2109],[-1,0]],[[791,2108],[1,1]],[[792,2109],[44,11]],[[836,2120],[1,-1]],[[837,2120],[-1,0]],[[790,2109],[0,-1]],[[790,2108],[1,0],[-1,1]],[[222,901],[-6,-4]],[[222,901],[1,1]],[[223,902],[-1,-1]],[[242,904],[-19,-2]],[[270,905],[-28,0]],[[68,1113],[7,7]],[[103,1155],[-11,-10],[-6,-7],[-5,-7]],[[81,1130],[5,8]],[[80,1130],[0,-1],[1,0],[0,2],[-1,-1]],[[89,1080],[7,5]],[[148,1059],[3,-3]],[[477,862]],[[4046,1592],[50,-69]],[[4096,1388],[-5,-10],[5,-9]],[[2431,448],[1,0],[0,1],[-1,0],[0,-1]],[[1907,1336],[73,75]],[[1982,1414],[2,41],[38,9],[62,86]],[[2446,2350],[0,1]],[[197,1095],[-24,-27]],[[201,1096],[25,-9]],[[227,1088],[-1,-1]],[[226,1087],[2,0]],[[231,1088],[-2,0]],[[229,1088],[2,0]],[[231,1088],[6,1]],[[81,13],[20,10]],[[101,23],[1,0]],[[102,24],[-1,-1]],[[104,25],[-1,0]],[[103,24],[1,1]],[[104,25],[17,3]],[[122,28],[-1,0]],[[121,28],[1,0]],[[124,28],[-1,0]],[[123,28],[1,0]],[[124,28],[8,4]],[[656,0],[-22,21],[-82,-3],[-62,57],[-128,-21],[-49,24],[-179,-45]],[[693,12],[-25,-12]],[[693,12],[1,0]],[[694,12]],[[696,16],[-3,-4]],[[693,12],[1,-1]],[[694,12]],[[694,12],[-1,0]],[[80,13],[0,1],[0,-1]],[[103,23],[0,1],[-1,1],[0,-1],[1,-1]],[[123,28],[0,1],[-1,-1]],[[122,28],[1,0]],[[133,32],[0,1],[0,-1]],[[810,1364],[-125,-194],[-1,-20],[15,-74],[-1,-3]],[[698,1073],[-1,-9],[-3,-5]],[[694,1059],[-1,-1],[-1,-2],[-5,-8],[-1,-5],[-21,-25],[-33,-35],[-20,-44],[-184,-54]],[[429,881],[184,58],[17,37],[2,7],[33,34],[21,26],[7,14],[1,2]],[[694,1059],[4,14]],[[698,1073],[1,3],[-13,94],[100,139],[19,36],[4,12],[1,7]],[[687,1748],[1,1]],[[743,1748],[2,-1]],[[745,1748],[-2,0]],[[815,1706],[-2,-66],[4,-32],[-39,-62],[-8,-37],[65,-76],[-17,-47]],[[818,1386],[15,23],[4,15],[-1,9],[-21,29],[-20,23],[-24,24],[7,37],[29,34],[7,15],[3,13],[-4,32],[5,26],[1,36],[-3,5]],[[155,1057],[-5,2]],[[173,1068],[-6,-8]],[[171,1064],[2,4]],[[1869,2082],[-17,-158],[-53,-167],[-101,-142]],[[1722,2356],[0,-2]],[[1724,2370],[-2,-11]],[[1722,2354],[1,3]],[[1722,2354],[2,-41],[64,-50],[-24,-91],[105,-82]],[[1724,2370],[1,1]],[[1724,2371],[0,-1]],[[1725,2373],[-1,-1]],[[1725,2372],[0,1]],[[1725,2373],[4,14]],[[1725,2397],[4,-10]],[[1729,2387],[-4,10]],[[1869,2090],[0,-8]],[[1723,2358],[-1,1]],[[1722,2359],[-2,-1],[2,-2]],[[1722,2356],[1,2]],[[1724,2372],[0,-1],[1,0],[0,1],[-1,0]],[[100,1168],[-6,15]],[[95,1194],[9,-29]],[[95,1194],[1,2]],[[3929,173],[55,39]],[[3991,230],[4,10]],[[41,1049],[1,-9],[4,-6]],[[99,826],[17,8],[11,18],[-1,8],[-45,162],[-9,6],[-17,1],[-13,19]],[[46,1034],[5,-5],[8,-2],[12,1]],[[46,1034],[8,-5],[17,-1]],[[71,1028],[54,-169],[-26,-32]],[[3679,0],[-6,36],[35,-12],[56,41],[35,-17],[-18,58],[148,67]],[[3984,212],[2,1]],[[3990,226],[1,4]],[[780,1774],[-3,-7]],[[778,1767],[2,7]],[[785,1796],[-3,-8]],[[783,1788],[2,8]],[[784,1800],[1,-4]],[[785,1796],[0,4]],[[785,1796]],[[2430,2378],[4,15]],[[2432,2373],[10,-6]],[[2435,2395],[-1,0]],[[534,1148],[0,2]],[[539,1178]],[[785,1800],[-1,0]],[[162,956],[-2,0]],[[172,957],[-6,-3]],[[200,899],[-4,13]],[[200,899],[0,-1]],[[201,898],[-1,1]],[[211,834],[-11,62]],[[201,898],[-1,0],[0,-2]],[[200,896],[1,1],[0,1]],[[212,826],[0,6]],[[239,647],[-25,95]],[[103,902],[2,0],[1,4],[-2,0],[-1,-4]],[[276,899]],[[2221,838],[0,2]],[[1134,2278],[46,-56],[156,11],[70,-49]],[[23,5],[-23,22]],[[23,5],[4,-3]],[[27,2],[-4,3]],[[2,1138],[-2,-1]],[[4096,0],[-4096,0],[0,1236],[143,39],[11,-53],[26,-39],[64,-58],[38,45],[10,37],[-8,95],[27,52],[59,-10],[84,-54],[42,-15],[19,-36],[11,-46],[19,-43],[67,-67],[29,-40],[21,-61],[23,65],[-2,62],[-21,123],[2,62],[14,36],[31,29],[54,38],[-57,28],[-53,7],[-99,-8],[-51,17],[-70,76],[-48,20],[55,44],[294,38],[20,7],[21,19],[13,26],[-5,30],[-14,3],[-67,-30],[-177,-30],[10,14],[9,6],[20,10],[-11,10],[-28,17],[-35,-52],[-57,-24],[-129,-6],[23,61],[10,85],[15,60],[33,-14],[38,55],[-23,21],[-23,33],[-15,40],[2,43],[11,0],[51,-9],[19,9],[69,-10],[84,44],[424,326],[11,-45],[24,-23],[32,-3],[34,16],[-30,-2],[-10,2],[0,25],[13,7],[14,14],[13,9],[-56,45],[-8,43],[14,43],[10,47],[19,34],[43,11],[97,-1],[87,24],[82,50],[73,67],[57,78],[80,-12],[35,-58],[22,-71],[43,-53],[0,-25],[-16,10],[-30,8],[-15,7],[-21,-35],[-13,-35],[-2,-35],[18,-30],[-30,-23],[-9,4],[-23,19],[-18,-19],[-8,-6],[-13,-5],[0,-27],[146,-8],[26,29],[-53,88],[34,24],[35,2],[72,-26],[-6,14],[-8,29],[-6,15],[41,45],[53,45],[58,34],[116,30],[62,43],[50,57],[20,60],[9,14],[21,-12],[21,-30],[8,-42],[-12,-23],[-67,-84],[-2,-58],[14,-17],[22,6],[25,12],[5,11],[-2,19],[5,19],[23,8],[19,3],[50,24],[10,-54],[71,-140],[-8,-63],[26,10],[36,50],[24,58],[35,-14],[26,21],[28,32],[42,16],[115,-13],[34,-13],[241,-137],[118,-45],[183,-327],[138,-68],[-10,-17],[-6,-13],[-8,-11],[-18,-12],[0,-30],[39,-18],[24,11],[22,22],[35,15],[42,1],[60,-21],[111,-17],[178,7],[48,30],[52,-28],[50,-9],[35,-25],[3,-60],[0,-22],[-19,-42],[-31,-48],[-15,-56],[26,-69],[2,0],[16,0],[17,65],[4,31],[0,-1746]],[[2527,729],[14,77],[44,-39],[44,26],[-8,20],[23,-6],[-43,-122],[-74,44]],[[1857,2630],[17,56],[51,-12],[72,52],[77,12],[29,27],[-6,32],[86,51],[-2,53],[79,-52],[-43,-51],[-3,39],[-42,-19],[-111,-129],[12,42],[-216,-101]],[[2530,2373],[34,34],[64,-10],[-21,-37],[34,-8],[-16,-26],[87,-60],[-4,-50],[-44,-8],[-74,37],[11,71],[-31,-21],[-17,18],[29,26],[-46,-3],[14,26],[-20,11]],[[2564,0],[3,37],[13,29],[19,-66],[-35,0]],[[269,885],[-54,12],[-43,33],[0,45],[-172,97],[0,164],[143,39],[11,-53],[83,-113],[0,-45],[97,-44],[-65,-135]],[[747,1624],[8,-68],[-130,0],[-5,48],[127,20]],[[1717,1459],[-56,7],[-33,45],[-120,18],[-40,34],[-1,82],[86,30],[81,-19],[156,-100],[-35,-78],[-38,-19]],[[723,1706],[-21,-32],[-110,-19],[-20,46],[151,62],[-1,105],[92,-29],[31,-36],[7,-69],[-66,-50],[-17,20],[-46,-20],[30,87],[-30,-64],[0,33],[0,-34]],[[600,1707],[29,51],[-7,71],[45,-45],[32,17],[-3,-43],[12,25],[120,35],[-16,-30],[-46,1],[16,-17],[-23,-29],[-11,31],[-5,-27],[-72,13],[0,-21],[-71,-32]],[[889,1468],[76,13],[33,-55],[38,20],[54,-30],[17,14],[56,-53],[85,38],[-59,13],[48,17],[-43,30],[35,7],[32,-41],[46,-8],[-55,-64],[16,-29],[88,-13],[9,-65],[56,38],[15,-27],[62,58],[-2,-58],[95,3],[31,-138],[-33,-88],[-59,-33],[-32,24],[78,140],[-9,39],[-55,-27],[-22,30],[-35,-41],[21,-34],[-23,-64],[-35,-9],[19,27],[-27,1],[9,24],[-61,-49],[-46,-6],[-11,-67],[-53,88],[32,26],[-33,28],[-12,95],[-47,11],[-21,-31],[-23,33],[-12,-15],[-1,40],[-65,87],[9,-44],[-34,7],[-14,-24],[-41,59],[-26,-6],[-18,48],[-45,10],[-8,51]]]}