{"objects":{"water":{"type":"GeometryCollection","geometries":[{"type":"Polygon","properties":{"source":"naturalearthdata.com","kind":"ocean","area":1576712559132672,"sort_rank":200,"min_zoom":0.0,"id":1},"arcs":[[10]]},{"type":"LineString","properties":{"source":"naturalearthdata.com","kind":"ocean","sort_rank":205,"boundary":true,"min_zoom":0.0,"id":58},"arcs":[11]},{"type":"MultiLineString","properties":{"source":"naturalearthdata.com","kind":"ocean","sort_rank":205,"boundary":true,"min_zoom":0.0,"id":1810},"arcs":[[12],[13],[14]]}]},"buildings":{"type":"GeometryCollection","geometries":[]},"places":{"type":"GeometryCollection","geometries":[]},"transit":{"type":"GeometryCollection","geometries":[]},"pois":{"type":"GeometryCollection","geometries":[]},"boundaries":{"type":"GeometryCollection","geometries":[{"type":"LineString","properties":{"name:ty":"T\u0101p\u014dn\u0113","name:ka":"\u10d8\u10d0\u10de\u10dd\u10dc\u10d8\u10d0","name:ko":"\uc77c\ubcf8","name:cv":"\u042f\u043f\u043e\u043d\u0438","name:cu":"\ua656\u043f\u0461\u043d\u0457\ua657","name:kl":"Japani","name:cs":"Japonsko","name:tw":"Yapan","name:ki":"Japan","name:kw":"Nihon","name:kv":"\u042f\u043f\u043e\u043d\u0438\u044f","name:th":"\u0e1b\u0e23\u0e30\u0e40\u0e17\u0e28\u0e0d\u0e35\u0e48\u0e1b\u0e38\u0e48\u0e19","name:ti":"\u1303\u1353\u1295","name:tl":"Hapon","name:ch":"Chapan","name:ce":"\u042f\u043f\u043e\u043d\u0438","name:ta":"\u0b9c\u0baa\u0bcd\u0baa\u0bbe\u0ba9\u0bcd","name:tg":"\u0416\u043e\u043f\u0443\u043d","name:ca":"Jap\u00f3","name:te":"\u0c1c\u0c2a\u0c3e\u0c28\u0c4d","name:cy":"Japan","name:qu":"Nihun","name:da":"Japan","name:de":"Japan","name:dz":"\u0f47\u0f71\u0f0b\u0f54\u0f71\u0f53\u0f0d","source":"openstreetmap.org","name:kn":"\u0c9c\u0caa\u0cbe\u0ca8\u0ccd","name:dv":"\u0796\u07a6\u0795\u07a7\u0782\u07aa","name:km":"\u1787\u1794\u17c9\u17bb\u1793","name:lv":"Jap\u0101na","name:lt":"Japonija","name:uz":"Yaponiya","name:kk":"\u0416\u0430\u043f\u043e\u043d\u0438\u044f","name:ur":"\u062c\u0627\u067e\u0627\u0646","name:lb":"Japan","name:la":"Iaponia","name:tt":"\u042f\u043f\u043e\u043d\u0438\u044f","name:uk":"\u042f\u043f\u043e\u043d\u0456\u044f","name:ug":"\u064a\u0627\u067e\u0648\u0646\u0649\u064a\u06d5","name:li":"Japan","name:ln":"Zap\u0254\u0301","name:lo":"\u0e9b\u0eb0\u0ec0\u0e97\u0e94\u0e8d\u0eb5\u0ec8\u0e9b\u0eb8\u0ec8\u0e99","name:el":"\u0399\u03b1\u03c0\u03c9\u03bd\u03af\u03b1","name:eo":"Japanujo","name:en":"Japan","name":"\u65e5\u672c","name:tk":"\u00ddaponi\u00fda","name:ee":"Japan","name:ku":"Japon","name:eu":"Japonia","name:et":"Jaapan","name:es":"Jap\u00f3n","name:ay":"Nihun","name:rm":"Giapun","name:az":"Yaponiya","name:ie":"Japan","name:id":"Jepang","name:ar":"\u0627\u0644\u064a\u0627\u0628\u0627\u0646","name:io":"Japonia","name:is":"Japan","name:am":"\u1303\u1353\u1295","name:it":"Giappone","name:an":"Chap\u00f3n","name:ru":"\u042f\u043f\u043e\u043d\u0438\u044f","name:ab":"\u0418\u0430\u043f\u043e\u043d\u0438\u0430","name:af":"Japan","name:zu":"IJapani","kind_detail":"2","name:za":"Nditbonj","name:so":"Jabaan","name:sm":"Iapani","name:sl":"Japonska","name:sk":"Japonsko","name:ja":"Nippon","name:si":"\u0da2\u0db4\u0dcf\u0db1\u0dba","name:sh":"Japan","name:se":"J\u00e1hpan","name:sd":"\u062c\u0627\u067e\u0627\u0646","name:sc":"Giappone","name:br":"Japan","name:bs":"Japan","name:bn":"\u099c\u09be\u09aa\u09be\u09a8","name:bo":"\u0f62\u0f72\u0f0b\u0f54\u0f72\u0f53\u0f0d","name:sa":"\u0938\u0942\u0930\u094d\u092f\u092e\u0942\u0932","name:sw":"Japani","name:be":"\u042f\u043f\u043e\u043d\u0456\u044f","name:su":"Jepang","name:bg":"\u042f\u043f\u043e\u043d\u0438\u044f","name:ss":"IJaphani","name:ba":"\u042f\u043f\u043e\u043d\u0438\u044f","name:sq":"Japonia","name:jv":"Jepang","name:ia":"Japon","name:pt":"Jap\u00e3o","name:ps":"\u062c\u0627\u067e\u0627\u0646","name:om":"Jaappaan","name:oc":"Japon","min_zoom":8.0,"name:ro":"Japonia","name:zh-min-nan":"Ji\u030dt-p\u00fan","name:os":"\u042f\u043f\u043e\u043d","name:or":"\u0b1c\u0b3e\u0b2a\u0b3e\u0b28","name:pl":"Japonia","sort_rank":262,"name:sr":"\u0408\u0430\u043f\u0430\u043d","osm_relation":true,"name:pa":"\u0a1c\u0a2a\u0a3e\u0a28","name:tr":"Japonya","name:hi":"\u091c\u093e\u092a\u093e\u0928","name:sv":"Japan","name:he":"\u05d9\u05e4\u05df","name:ha":"Japan","name:hy":"\u0543\u0561\u057a\u0578\u0576\u056b\u0561","name:ht":"Japon","name:hu":"Jap\u00e1n","name:hr":"Japan","kind":"country","name:yi":"\u05d9\u05d0\u05e4\u05d0\u05df","name:iu":"\u14c3\u1449\u140a\u14d0","name:yo":"Japan","name:mt":"\u0120appun","alt_name:eo":"Japanio","name:ms":"Jepun","name:mr":"\u091c\u092a\u093e\u0928","name:my":"\u1002\u103b\u1015\u1014\u103a\u1014\u102d\u102f\u1004\u103a\u1004\u1036","name:mg":"Japana","name:vi":"Nh\u1eadt B\u1ea3n","name:ml":"\u0d1c\u0d2a\u0d4d\u0d2a\u0d3e\u0d7b","name:mn":"\u042f\u043f\u043e\u043d","name:mi":"Nipono","id":-382313,"name:mk":"\u0408\u0430\u043f\u043e\u043d\u0438\u0458\u0430","name:vo":"Yap\u00e4n","name:fa":"\u0698\u0627\u067e\u0646","name:rw":"Ubuyapani","name:fi":"Japani","name:ky":"\u0416\u0430\u043f\u043e\u043d\u0438\u044f","old_name:vi":"Nh\u1eadt B\u1ed5n","name:fo":"Japan","alt_name:vi":"Nh\u1eadt","name:fr":"Japon","name:fy":"Japan","name:nl":"Japan","name:nn":"Japan","name:no":"Japan","name:na":"Djapan","name:ne":"\u091c\u093e\u092a\u093e\u0928","name:wo":"Sapo\u014b","name:nv":"Bina\u02bcadaa\u0142tz\u00f3z\u00ed Din\u00e9\u02bci\u02bc Bik\u00e9yah","name:ga":"An tSeap\u00e1in","name:gd":"An t-Seapan","name:gn":"Hap\u00f5","name:gl":"Xap\u00f3n","maritime_boundary":true,"name:gv":"Yn \u00c7hapaan","name:gu":"\u0a9c\u0abe\u0aaa\u0abe\u0aa8"},"arcs":[0]},{"type":"LineString","properties":{"name:ty":"T\u0101p\u014dn\u0113","name:ka":"\u10d8\u10d0\u10de\u10dd\u10dc\u10d8\u10d0","name:ko":"\uc77c\ubcf8","name:cv":"\u042f\u043f\u043e\u043d\u0438","name:cu":"\ua656\u043f\u0461\u043d\u0457\ua657","name:kl":"Japani","name:cs":"Japonsko","name:tw":"Yapan","name:ki":"Japan","name:kw":"Nihon","name:kv":"\u042f\u043f\u043e\u043d\u0438\u044f","name:th":"\u0e1b\u0e23\u0e30\u0e40\u0e17\u0e28\u0e0d\u0e35\u0e48\u0e1b\u0e38\u0e48\u0e19","name:ti":"\u1303\u1353\u1295","name:tl":"Hapon","name:ch":"Chapan","name:ce":"\u042f\u043f\u043e\u043d\u0438","name:ta":"\u0b9c\u0baa\u0bcd\u0baa\u0bbe\u0ba9\u0bcd","name:tg":"\u0416\u043e\u043f\u0443\u043d","name:ca":"Jap\u00f3","name:te":"\u0c1c\u0c2a\u0c3e\u0c28\u0c4d","name:cy":"Japan","name:qu":"Nihun","name:da":"Japan","name:de":"Japan","name:dz":"\u0f47\u0f71\u0f0b\u0f54\u0f71\u0f53\u0f0d","source":"openstreetmap.org","name:kn":"\u0c9c\u0caa\u0cbe\u0ca8\u0ccd","name:dv":"\u0796\u07a6\u0795\u07a7\u0782\u07aa","name:km":"\u1787\u1794\u17c9\u17bb\u1793","name:lv":"Jap\u0101na","name:lt":"Japonija","name:uz":"Yaponiya","name:kk":"\u0416\u0430\u043f\u043e\u043d\u0438\u044f","name:ur":"\u062c\u0627\u067e\u0627\u0646","name:lb":"Japan","name:la":"Iaponia","name:tt":"\u042f\u043f\u043e\u043d\u0438\u044f","name:uk":"\u042f\u043f\u043e\u043d\u0456\u044f","name:ug":"\u064a\u0627\u067e\u0648\u0646\u0649\u064a\u06d5","name:li":"Japan","name:ln":"Zap\u0254\u0301","name:lo":"\u0e9b\u0eb0\u0ec0\u0e97\u0e94\u0e8d\u0eb5\u0ec8\u0e9b\u0eb8\u0ec8\u0e99","name:el":"\u0399\u03b1\u03c0\u03c9\u03bd\u03af\u03b1","name:eo":"Japanujo","name:en":"Japan","name":"\u65e5\u672c","name:tk":"\u00ddaponi\u00fda","name:ee":"Japan","name:ku":"Japon","name:eu":"Japonia","name:et":"Jaapan","name:es":"Jap\u00f3n","name:ay":"Nihun","name:rm":"Giapun","name:az":"Yaponiya","name:ie":"Japan","name:id":"Jepang","name:ar":"\u0627\u0644\u064a\u0627\u0628\u0627\u0646","name:io":"Japonia","name:is":"Japan","name:am":"\u1303\u1353\u1295","name:it":"Giappone","name:an":"Chap\u00f3n","name:ru":"\u042f\u043f\u043e\u043d\u0438\u044f","name:ab":"\u0418\u0430\u043f\u043e\u043d\u0438\u0430","name:af":"Japan","name:zu":"IJapani","kind_detail":"2","name:za":"Nditbonj","name:so":"Jabaan","name:sm":"Iapani","name:sl":"Japonska","name:sk":"Japonsko","name:ja":"Nippon","name:si":"\u0da2\u0db4\u0dcf\u0db1\u0dba","name:sh":"Japan","name:se":"J\u00e1hpan","name:sd":"\u062c\u0627\u067e\u0627\u0646","name:sc":"Giappone","name:br":"Japan","name:bs":"Japan","name:bn":"\u099c\u09be\u09aa\u09be\u09a8","name:bo":"\u0f62\u0f72\u0f0b\u0f54\u0f72\u0f53\u0f0d","name:sa":"\u0938\u0942\u0930\u094d\u092f\u092e\u0942\u0932","name:sw":"Japani","name:be":"\u042f\u043f\u043e\u043d\u0456\u044f","name:su":"Jepang","name:bg":"\u042f\u043f\u043e\u043d\u0438\u044f","name:ss":"IJaphani","name:ba":"\u042f\u043f\u043e\u043d\u0438\u044f","name:sq":"Japonia","name:jv":"Jepang","name:ia":"Japon","name:pt":"Jap\u00e3o","name:ps":"\u062c\u0627\u067e\u0627\u0646","name:om":"Jaappaan","name:oc":"Japon","min_zoom":8.0,"name:ro":"Japonia","name:zh-min-nan":"Ji\u030dt-p\u00fan","name:os":"\u042f\u043f\u043e\u043d","name:or":"\u0b1c\u0b3e\u0b2a\u0b3e\u0b28","name:pl":"Japonia","sort_rank":262,"name:sr":"\u0408\u0430\u043f\u0430\u043d","osm_relation":true,"name:pa":"\u0a1c\u0a2a\u0a3e\u0a28","name:tr":"Japonya","name:hi":"\u091c\u093e\u092a\u093e\u0928","name:sv":"Japan","name:he":"\u05d9\u05e4\u05df","name:ha":"Japan","name:hy":"\u0543\u0561\u057a\u0578\u0576\u056b\u0561","name:ht":"Japon","name:hu":"Jap\u00e1n","name:hr":"Japan","kind":"country","name:yi":"\u05d9\u05d0\u05e4\u05d0\u05df","name:iu":"\u14c3\u1449\u140a\u14d0","name:yo":"Japan","name:mt":"\u0120appun","alt_name:eo":"Japanio","name:ms":"Jepun","name:mr":"\u091c\u092a\u093e\u0928","name:my":"\u1002\u103b\u1015\u1014\u103a\u1014\u102d\u102f\u1004\u103a\u1004\u1036","name:mg":"Japana","name:vi":"Nh\u1eadt B\u1ea3n","name:ml":"\u0d1c\u0d2a\u0d4d\u0d2a\u0d3e\u0d7b","name:mn":"\u042f\u043f\u043e\u043d","name:mi":"Nipono","id":-382313,"name:mk":"\u0408\u0430\u043f\u043e\u043d\u0438\u0458\u0430","name:vo":"Yap\u00e4n","name:fa":"\u0698\u0627\u067e\u0646","name:rw":"Ubuyapani","name:fi":"Japani","name:ky":"\u0416\u0430\u043f\u043e\u043d\u0438\u044f","old_name:vi":"Nh\u1eadt B\u1ed5n","name:fo":"Japan","alt_name:vi":"Nh\u1eadt","name:fr":"Japon","name:fy":"Japan","name:nl":"Japan","name:nn":"Japan","name:no":"Japan","name:na":"Djapan","name:ne":"\u091c\u093e\u092a\u093e\u0928","name:wo":"Sapo\u014b","name:nv":"Bina\u02bcadaa\u0142tz\u00f3z\u00ed Din\u00e9\u02bci\u02bc Bik\u00e9yah","name:ga":"An tSeap\u00e1in","name:gd":"An t-Seapan","name:gn":"Hap\u00f5","name:gl":"Xap\u00f3n","maritime_boundary":true,"name:gv":"Yn \u00c7hapaan","name:gu":"\u0a9c\u0abe\u0aaa\u0abe\u0aa8"},"arcs":[1]},{"type":"LineString","properties":{"name:ka":"\u10e1\u10d0\u10db\u10ee\u10e0\u10d4\u10d7\u10d8 \u10d9\u10dd\u10e0\u10d4\u10d0","name:tr":"G\u00fcney Kore","name:kn":"\u0ca6\u0c95\u0ccd\u0cb7\u0cbf\u0ca3 \u0c95\u0cca\u0cb0\u0cbf\u0caf\u0cbe","name:km":"\u1780\u17bc\u179a\u17c9\u17c1\u1781\u17b6\u1784\u178f\u17d2\u1794\u17bc\u1784","name:kl":"Korea Kujalleq","name:cs":"Ji\u017en\u00ed Korea","name:ki":"South Korea","name:kw":"Korea Dhyhow","name:kv":"\u041a\u043e\u0440\u0435\u044f \u0420\u0435\u0441\u043f\u0443\u0431\u043b\u0438\u043a\u0430","name:ku":"Kor\u00eaya Ba\u015f\u00fbr","name:ks":"\u0926\u0915\u094d\u0937\u093f\u0923 \u0915\u094b\u0930\u093f\u092f\u093e","name:tl":"Timog Korea","name:ce":"\u041a\u044a\u0438\u043b\u0431\u0435\u0440\u0430 \u041a\u043e\u0440\u0435\u0439","name:ta":"\u0ba4\u0bc6\u0ba9\u0bcd\u0b95\u0bca\u0bb0\u0bbf\u0baf\u0bbe","name:ca":"Corea del Sud","name:te":"\u0c26\u0c15\u0c4d\u0c37\u0c3f\u0c23 \u0c15\u0c4a\u0c30\u0c3f\u0c2f\u0c3e","name:cy":"De Corea","name:qu":"Urin Kuriya","name:da":"Sydkorea","name:de":"S\u00fcdkorea","name:dz":"\u0f63\u0fb7\u0f7c\u0f0b\u0f40\u0f7c\u0f0b\u0f62\u0f72\u0f0b\u0f61\u0f0b","source":"openstreetmap.org","name:dv":"\u078b\u07ac\u0786\u07aa\u0782\u07aa \u0786\u07ae\u0783\u07ac\u0787\u07a7","name:lv":"Dienvidkoreja","name:lt":"Piet\u0173 Kor\u0117ja","name:uz":"Janubiy Koreya","name:kk":"\u041e\u04a3\u0442\u04af\u0441\u0442\u0456\u043a \u041a\u043e\u0440\u0435\u044f","name:ur":"\u062c\u0646\u0648\u0628\u06cc \u06a9\u0648\u0631\u06cc\u0627","name:lb":"S\u00fcdkorea","name:la":"Corea Meridionalis","name:tt":"\u041a\u04e9\u043d\u044c\u044f\u043a \u041a\u043e\u0440\u0435\u044f","name:uk":"\u041f\u0456\u0432\u0434\u0435\u043d\u043d\u0430 \u041a\u043e\u0440\u0435\u044f","name:ug":"\u062c\u06d5\u0646\u06c7\u0628\u0649\u064a \u0686\u0627\u06cb\u0634\u064a\u06d5\u0646","name:li":"Zuud-Korea","name:ln":"Kore ya Sidi","name:lo":"\u0e9b\u0eb0\u0ec0\u0e97\u0e94\u0ec0\u0e81\u0ebb\u0eb2\u0eab\u0ebc\u0eb5\u0ec3\u0e95\u0ec9","name:el":"\u039d\u03cc\u03c4\u03b9\u03b1 \u039a\u03bf\u03c1\u03ad\u03b1","name:eo":"Sud-Koreujo","name:en":"South Korea","name":"\ub300\ud55c\ubbfc\uad6d","name:tk":"G\u00fcnorta Kore\u00fda","name:ee":"South Korea","name:th":"\u0e1b\u0e23\u0e30\u0e40\u0e17\u0e28\u0e40\u0e01\u0e32\u0e2b\u0e25\u0e35\u0e43\u0e15\u0e49","name:eu":"Hego Korea","name:et":"L\u00f5una-Korea","name:es":"Corea del Sur","name:ia":"Corea del Sud","name:rm":"Corea dal sid","name:az":"C\u0259nubi Koreya","name:ie":"Sud-Korea","name:id":"Korea Selatan","name:as":"\u09a6\u0995\u09cd\u09b7\u09bf\u09a3 \u0995\u09cb\u09f0\u09bf\u09af\u09bc\u09be","name:ar":"\u0643\u0648\u0631\u064a\u0627 \u0627\u0644\u062c\u0646\u0648\u0628\u064a\u0629","name:io":"Sud-Korea","name:ak":"Anaafo Koria","name:am":"\u12f0\u1261\u1265 \u12ae\u122d\u12eb","name:it":"Corea del Sud","name:an":"Corea d'o Sur","name:ru":"\u0420\u0435\u0441\u043f\u0443\u0431\u043b\u0438\u043a\u0430 \u041a\u043e\u0440\u0435\u044f","name:rw":"Koreya y\u2019Amajyepfo","name:af":"Suid-Korea","alt_name:ru":"\u042e\u0436\u043d\u0430\u044f \u041a\u043e\u0440\u0435\u044f","kind_detail":"2","name:za":"Hanzgoz","name:zh-yue":"\u5927\u97d3\u6c11\u570b","name:zh":"\u97e9\u56fd","name:so":"Koonfur Kuuriya","name:sn":"Korea, South","name:sm":"Kolea i Saute","name:sl":"Ju\u017ena Koreja","name:sk":"Ju\u017en\u00e1 K\u00f3rea","name:ja":"\u5927\u97d3\u6c11\u56fd","name:si":"\u0daf\u0d9a\u0dd4\u0dab\u0dd4 \u0d9a\u0ddc\u0dbb\u0dd2\u0dba\u0dcf\u0dc0","name:sh":"Ju\u017ena Koreja","name:sg":"Kor\u00ebe t\u00ee Mbongo","name:se":"M\u00e1tta-Korea","name:sc":"Corea de su Sud","name:sa":"\u0926\u0915\u094d\u0937\u093f\u0923 \u0915\u094b\u0930\u093f\u092f\u093e","name:bs":"Ju\u017ena Koreja","name:bn":"\u09a6\u0995\u09cd\u09b7\u09bf\u09a3 \u0995\u09cb\u09b0\u09bf\u09af\u09bc\u09be","name:bo":"\u0f63\u0fb7\u0f7c\u0f0b\u0f40\u0f7c\u0f0b\u0f62\u0f72\u0f0b\u0f61\u0f0d","name:br":"Korea ar Su","name:sw":"Korea Kusini","name:be":"\u041f\u0430\u045e\u0434\u043d\u0451\u0432\u0430\u044f \u041a\u0430\u0440\u044d\u044f","name:su":"Kor\u00e9a Kidul","name:bg":"\u042e\u0436\u043d\u0430 \u041a\u043e\u0440\u0435\u044f","name:ss":"IKhoriya leseNingizimu","name:ba":"\u041a\u04e9\u043d\u044c\u044f\u04a1 \u041a\u043e\u0440\u0435\u044f","name:sq":"Koreja e Jugut","name:jv":"Kor\u00e9a Kidul","name:bi":"Saot Koria","name:pt":"Coreia do Sul","name:ps":"\u0633\u0648\u06d0\u0644\u064a \u06a9\u0648\u0631\u064a\u0627","name:oc":"Cor\u00e8a del Sud","min_zoom":8.0,"name:ro":"Coreea de Sud","name:ko":"Daehan-minguk","name:zh-min-nan":"H\u00e2n-kok","name:os":"\u0425\u0443\u0441\u0441\u0430\u0440 \u041a\u043e\u0440\u0435\u0439","name:or":"\u0b26\u0b15\u0b4d\u0b37\u0b3f\u0b23 \u0b15\u0b4b\u0b30\u0b3f\u0b06","name:pl":"Korea Po\u0142udniowa","sort_rank":262,"name:sr":"\u0408\u0443\u0436\u043d\u0430 \u041a\u043e\u0440\u0435\u0458\u0430","osm_relation":true,"name:hi":"\u0926\u0915\u094d\u0937\u093f\u0923 \u0915\u094b\u0930\u093f\u092f\u093e","name:sv":"Sydkorea","name:he":"\u05e7\u05d5\u05e8\u05d9\u05d0\u05d4 \u05d4\u05d3\u05e8\u05d5\u05de\u05d9\u05ea","name:hy":"\u0540\u0561\u0580\u0561\u057e\u0561\u0575\u056b\u0576 \u053f\u0578\u0580\u0565\u0561","name:ht":"Kore disid","name:hu":"Koreai K\u00f6zt\u00e1rsas\u00e1g (D\u00e9l-Korea)","name:hr":"Ju\u017ena Koreja","kind":"country","name:is":"Su\u00f0ur-K\u00f3rea","name:yi":"\u05d3\u05e8\u05d5\u05dd \u05e7\u05d0\u05e8\u05e2\u05e2","name:yo":"K\u00f2r\u00e9\u00e0 G\u00fa\u00fas\u00f9","name:mt":"Korea t'Isfel","alt_name:eo":"Sud-Koreo;Sud-Koreio","alt_name:en":"Korea","name:ms":"Korea Selatan","name:mr":"\u0926\u0915\u094d\u0937\u093f\u0923 \u0915\u094b\u0930\u093f\u092f\u093e","name:my":"\u1010\u1031\u102c\u1004\u103a\u1000\u102d\u102f\u101b\u102e\u1038\u101a\u102c\u1038\u1014\u102d\u102f\u1004\u103a\u1004\u1036","name:mg":"Korea Atsimo","name:vi":"H\u00e0n Qu\u1ed1c","name:ml":"\u0d26\u0d15\u0d4d\u0d37\u0d3f\u0d23 \u0d15\u0d4a\u0d31\u0d3f\u0d2f","name:mn":"\u04e8\u043c\u043d\u04e9\u0434 \u0421\u043e\u043b\u043e\u043d\u0433\u043e\u0441","name:mi":"K\u014drea-ki-te-tonga","id":-307756,"name:mk":"\u0420\u0435\u043f\u0443\u0431\u043b\u0438\u043a\u0430 \u041a\u043e\u0440\u0435\u0458\u0430","name:vo":"Sul\u00fcda-Korey\u00e4n","name:fa":"\u06a9\u0631\u0647 \u062c\u0646\u0648\u0628\u06cc","name:fi":"Etel\u00e4-Korea","name:ky":"\u041a\u043e\u0440\u0435\u044f \u0420\u0435\u0441\u043f\u0443\u0431\u043b\u0438\u043a\u0430\u0441\u044b","name:fo":"Su\u00f0urkorea","alt_name:vi":"Nam H\u00e0n;Nam Tri\u1ec1u Ti\u00ean;\u0110\u1ea1i H\u00e0n","name:fr":"Cor\u00e9e du Sud","name:fy":"S\u00fad-Korea","name:nl":"Zuid-Korea","name:nn":"S\u00f8r-Korea","name:no":"S\u00f8r-Korea","name:na":"Ripubrikin Korea","name:ne":"\u0926\u0915\u094d\u0937\u093f\u0923 \u0915\u094b\u0930\u093f\u092f\u093e","name:wo":"Kore gu B\u00ebj-saalum","name:nv":"Kol\u00edya Bik\u00e9yah Sh\u00e1di\u02bc\u00e1\u00e1hj\u00ed Si\u02bc\u00e1n\u00edg\u00ed\u00ed","name:ga":"An Ch\u00f3ir\u00e9 Theas","name:gd":"Coirea a Deas","name:gn":"Yvykorea","name:gl":"Corea do Sur","maritime_boundary":true,"name:gv":"Yn Chorea Yiass","name:gu":"\u0aa6\u0a95\u0acd\u0ab7\u0abf\u0aa3 \u0a95\u0acb\u0ab0\u0abf\u0aaf\u0abe"},"arcs":[2]},{"type":"LineString","properties":{"name:right:ja":"Fukuoka-ken","name":"\u5c71\u53e3\u770c - \u798f\u5ca1\u770c","name:right:uk":"\u041f\u0440\u0435\u0444\u0435\u043a\u0442\u0443\u0440\u0430 \u0424\u0443\u043a\u0443\u043e\u043a\u0430","name:left:ko":"\uc57c\ub9c8\uad6c\uce58 \ud604","name:left:ja":"Yamaguchi-Ken","name:right:ko":"\ud6c4\ucfe0\uc624\uce74 \ud604","id:right":-1553735,"name:left:uk":"\u041f\u0440\u0435\u0444\u0435\u043a\u0442\u0443\u0440\u0430 \u042f\u043c\u0430\u0491\u0443\u0447\u0456","min_zoom":8.0,"name:left:pl":"Prefektura Yamaguchi","name:left:ru":"\u042f\u043c\u0430\u0433\u0443\u0442\u0438","name:right:ru":"\u0424\u0443\u043a\u0443\u043e\u043a\u0430","name:right:pl":"Prefektura Fukuoka","id":-4016543,"osm_relation":true,"name:right":"\u798f\u5ca1\u770c","kind":"region","name:left:en":"Yamaguchi","sort_rank":256,"kind_detail":"4","name:left:de":"Pr\u00e4fektur Yamaguchi","name:right:en":"Fukuoka Prefecture","source":"openstreetmap.org","maritime_boundary":true,"name:right:de":"Fukuoka","id:left":-4016543,"name:left":"\u5c71\u53e3\u770c"},"arcs":[3]},{"type":"LineString","properties":{"name:ja":"Yamaguchi-Ken","name:ko":"\uc57c\ub9c8\uad6c\uce58 \ud604","min_zoom":8.0,"name:uk":"\u041f\u0440\u0435\u0444\u0435\u043a\u0442\u0443\u0440\u0430 \u042f\u043c\u0430\u0491\u0443\u0447\u0456","name:ru":"\u042f\u043c\u0430\u0433\u0443\u0442\u0438","name:pl":"Prefektura Yamaguchi","id":-4016543,"osm_relation":true,"kind":"region","name:en":"Yamaguchi","name":"\u5c71\u53e3\u770c","sort_rank":256,"kind_detail":"4","name:de":"Pr\u00e4fektur Yamaguchi","source":"openstreetmap.org","maritime_boundary":true},"arcs":[4]},{"type":"LineString","properties":{"name:left:la":"Pusanum","name:left:hi":"\u092c\u0941\u0938\u093e\u0928","name:left:he":"\u05e4\u05d5\u05e1\u05df","name:left:sw":"Busan","name:left:sv":"Pusan","name:left:sr":"\u0411\u0443\u0441\u0430\u043d","name:right:lt":"Ulsanas","min_zoom":8.0,"name:left:lt":"Busanas","name:left:hy":"\u054a\u0578\u0582\u057d\u0561\u0576","name:left:lv":"Pusana","name:right:he":"\u05d0\u05d5\u05dc\u05e1\u05df","name:left:hr":"Busan","name:right:af":"Ulsan","name:left:it":"Busan","sort_rank":256,"name:right:eo":"Ulsan","name:left:ca":"Busan","name:left:gl":"Busan","source":"openstreetmap.org","name:right:ar":"\u0623\u0648\u0644\u0633\u0627\u0646","name:right:sv":"Ulsan","name:left:cs":"Pusan","name:left":"\ubd80\uc0b0\uad11\uc5ed\uc2dc","name:right:es":"Ulsan","name:right:mi":"Ulsan","name:left:ka":"\u10de\u10e3\u10e1\u10d0\u10dc\u10d8","name:right:mn":"\u04ae\u043b\u0441\u0430\u043d","name:right:eu":"Ulsan","name:right:et":"Ulsan","name:left:kl":"Busan","name:left:ko":"Busan-gwangyeoksi","name:right:it":"Ulsan","name:left:ro":"Busan","name:right:ru":"\u0423\u043b\u044c\u0441\u0430\u043d","name:right:io":"Ulsan","name:right:ro":"Ulsan","name:left:ru":"\u041f\u0443\u0441\u0430\u043d","name:right:mr":"\u0909\u0932\u094d\u0938\u093e\u0928","name:right:id":"Ulsan","name:left:os":"\u041f\u0443\u0441\u0430\u043d","name:right:en":"Ulsan","name:left:vi":"Busan","name:left:uk":"\u041f\u0443\u0441\u0430\u043d","kind":"region","name:right:bi":"Ulsan","name":"\ubd80\uc0b0\uad11\uc5ed\uc2dc - \uc6b8\uc0b0\uad11\uc5ed\uc2dc","name:left:fa":"\u0628\u0648\u0633\u0627\u0646","name:right:kl":"Ulsan","name:left:pt":"Busan","name:right:bg":"\u0423\u043b\u0441\u0430\u043d","name:left:fi":"Busan","name:left:zh":"\u91dc\u5c71\u5e7f\u57df\u5e02","name:left:fr":"Busan","name:right:de":"Ulsan","name:right:zh":"\u851a\u5c71\u5e7f\u57df\u5e02","name:right:no":"Ulsan","name:right:nl":"Ulsan","name:right:ja":"\u851a\u5c71\u5e83\u57df\u5e02","name:right:fr":"Ulsan","name:left:sk":"Pusan","name:left:ja":"\u91dc\u5c71\u5e83\u57df\u5e02","name:right:sw":"Ulsan","id:right":-2395867,"name:left:nn":"Pusan","name:left:no":"Busan","name:left:nl":"Busan","name:left:be":"\u041f\u0443\u0441\u0430\u043d","name:left:bg":"\u041f\u0443\u0441\u0430\u043d","name:right:fa":"\u0627\u0648\u0644\u0633\u0627\u0646","name:left:bi":"Busan","name:left:jv":"Busan","id":-2396450,"name:right:fi":"Ulsan","name:left:eo":"Pusano","name:left:en":"Busan","name:left:el":"\u03a0\u03bf\u03c5\u03c3\u03ac\u03bd","name:right:ca":"Ulsan","kind_detail":"4","name:right:da":"Ulsan","id:left":-2396450,"name:left:es":"Busan","name:right":"\uc6b8\uc0b0\uad11\uc5ed\uc2dc","name:left:tr":"Busan","name:left:eu":"Busan","name:left:et":"Pusan","name:left:io":"Busan","name:right:pt":"Ulsan","name:left:ar":"\u0628\u0633\u0627\u0646","name:left:pl":"Pusan","name:left:mi":"Busan","name:left:id":"Busan","name:left:mn":"\u041f\u04af\u0441\u0430\u043d","name:right:ko":"Ulsan-gwangyeoksi","name:left:ml":"\u0d2c\u0d41\u0d38\u0d3e\u0d7b","name:left:th":"\u0e1b\u0e39\u0e0b\u0e32\u0e19","name:left:mr":"\u092c\u0941\u0938\u093e\u0928","name:left:tl":"Busan","name:left:my":"\u1018\u1030\u1006\u1014\u103a\u1019\u103c\u102d\u102f\u1037","name:right:vi":"Ulsan","name:right:pl":"Ulsan","osm_relation":true,"name:right:tl":"Ulsan","name:left:af":"Busan","name:left:da":"Busan","name:left:de":"Busan","maritime_boundary":true,"name:right:th":"\u0e2d\u0e38\u0e25\u0e0b\u0e31\u0e19"},"arcs":[5]},{"type":"LineString","properties":{"name:pt":"Busan","name:ka":"\u10de\u10e3\u10e1\u10d0\u10dc\u10d8","name:tr":"Busan","name:kl":"Busan","name:cs":"Pusan","name:sw":"Busan","name:th":"\u0e1b\u0e39\u0e0b\u0e32\u0e19","name:tl":"Busan","name:sv":"Pusan","name:os":"\u041f\u0443\u0441\u0430\u043d","name:pl":"Pusan","name:ca":"Busan","sort_rank":256,"name:da":"Busan","name:de":"Busan","source":"openstreetmap.org","name:lv":"Pusana","name:lt":"Busanas","name:hi":"\u092c\u0941\u0938\u093e\u0928","name:he":"\u05e4\u05d5\u05e1\u05df","name:eo":"Pusano","name:la":"Pusanum","name:uk":"\u041f\u0443\u0441\u0430\u043d","name:hy":"\u054a\u0578\u0582\u057d\u0561\u0576","name:hr":"Busan","name:el":"\u03a0\u03bf\u03c5\u03c3\u03ac\u03bd","kind":"region","name:en":"Busan","name":"\ubd80\uc0b0\uad11\uc5ed\uc2dc","min_zoom":8.0,"name:eu":"Busan","name:et":"Pusan","name:es":"Busan","name:ro":"Busan","name:id":"Busan","name:mr":"\u092c\u0941\u0938\u093e\u0928","name:ar":"\u0628\u0633\u0627\u0646","name:my":"\u1018\u1030\u1006\u1014\u103a\u1019\u103c\u102d\u102f\u1037","name:io":"Busan","name:it":"Busan","name:ml":"\u0d2c\u0d41\u0d38\u0d3e\u0d7b","name:vi":"Busan","name:mn":"\u041f\u04af\u0441\u0430\u043d","name:mi":"Busan","id":-2396450,"name:af":"Busan","name:fa":"\u0628\u0648\u0633\u0627\u0646","kind_detail":"4","name:fr":"Busan","name:zh":"\u91dc\u5c71\u5e7f\u57df\u5e02","name:nl":"Busan","name:ja":"\u91dc\u5c71\u5e83\u57df\u5e02","name:nn":"Pusan","name:no":"Busan","name:jv":"Busan","name:sk":"Pusan","name:bi":"Busan","name:ru":"\u041f\u0443\u0441\u0430\u043d","name:be":"\u041f\u0443\u0441\u0430\u043d","name:bg":"\u041f\u0443\u0441\u0430\u043d","name:sr":"\u0411\u0443\u0441\u0430\u043d","osm_relation":true,"name:ko":"Busan-gwangyeoksi","name:gl":"Busan","maritime_boundary":true,"name:fi":"Busan"},"arcs":[6]},{"type":"LineString","properties":{"name:pt":"Ulsan","name:ro":"Ulsan","name:id":"Ulsan","name:mr":"\u0909\u0932\u094d\u0938\u093e\u0928","name:ko":"Ulsan-gwangyeoksi","name:ar":"\u0623\u0648\u0644\u0633\u0627\u0646","name:io":"Ulsan","name:th":"\u0e2d\u0e38\u0e25\u0e0b\u0e31\u0e19","name:it":"Ulsan","name:tl":"Ulsan","name:vi":"Ulsan","name:ru":"\u0423\u043b\u044c\u0441\u0430\u043d","name:pl":"Ulsan","name:mn":"\u04ae\u043b\u0441\u0430\u043d","name:mi":"Ulsan","id":-2395867,"name:ca":"Ulsan","name:af":"Ulsan","name:fa":"\u0627\u0648\u0644\u0633\u0627\u0646","sort_rank":256,"kind_detail":"4","name:da":"Ulsan","name:de":"Ulsan","source":"openstreetmap.org","name:fr":"Ulsan","name:zh":"\u851a\u5c71\u5e7f\u57df\u5e02","name:kl":"Ulsan","name:nl":"Ulsan","name:ja":"\u851a\u5c71\u5e83\u57df\u5e02","name:lt":"Ulsanas","name:no":"Ulsan","name:he":"\u05d0\u05d5\u05dc\u05e1\u05df","name:eo":"Ulsan","name:bi":"Ulsan","name:sw":"Ulsan","name:sv":"Ulsan","name:bg":"\u0423\u043b\u0441\u0430\u043d","osm_relation":true,"kind":"region","name:en":"Ulsan","name":"\uc6b8\uc0b0\uad11\uc5ed\uc2dc","min_zoom":8.0,"maritime_boundary":true,"name:fi":"Ulsan","name:eu":"Ulsan","name:et":"Ulsan","name:es":"Ulsan"},"arcs":[7]},{"type":"LineString","properties":{"name:ja":"Nagasaki-Ken","name:eo":"Nagasako","min_zoom":8.0,"name:uk":"\u041f\u0440\u0435\u0444\u0435\u043a\u0442\u0443\u0440\u0430 \u041d\u0430\u0491\u0430\u0441\u0430\u043a\u0456","name:ru":"\u041d\u0430\u0433\u0430\u0441\u0430\u043a\u0438","name:pl":"Prefektura Nagasaki","id":-1842151,"osm_relation":true,"kind":"region","name:en":"Nagasaki Prefecture","name":"\u9577\u5d0e\u770c","sort_rank":256,"kind_detail":"4","name:de":"Nagasaki","source":"openstreetmap.org","maritime_boundary":true},"arcs":[8]},{"type":"LineString","properties":{"name:ja":"Fukuoka-ken","name:ko":"\ud6c4\ucfe0\uc624\uce74 \ud604","min_zoom":8.0,"name:uk":"\u041f\u0440\u0435\u0444\u0435\u043a\u0442\u0443\u0440\u0430 \u0424\u0443\u043a\u0443\u043e\u043a\u0430","name:ru":"\u0424\u0443\u043a\u0443\u043e\u043a\u0430","name:pl":"Prefektura Fukuoka","id":-1553735,"osm_relation":true,"kind":"region","name:en":"Fukuoka Prefecture","name":"\u798f\u5ca1\u770c","sort_rank":256,"kind_detail":"4","name:de":"Fukuoka","source":"openstreetmap.org","maritime_boundary":true},"arcs":[9]}]},"roads":{"type":"GeometryCollection","geometries":[{"type":"MultiLineString","properties":{"source":"openstreetmap.org","kind":"major_road","sort_rank":381,"kind_detail":"trunk","ref":"382","min_zoom":8.0},"arcs":[[15],[16],[17],[18],[19],[20],[21]]},{"type":"LineString","properties":{"source":"openstreetmap.org","kind":"ferry","name":"Busan-Hitakatsu","sort_rank":355,"is_bicycle_related":true,"min_zoom":8.0,"id":467473103},"arcs":[22]},{"type":"MultiLineString","properties":{"source":"openstreetmap.org","kind":"major_road","name:ko":"\uad6d\ub3c4 382\ud638","kind_detail":"trunk","ref":"382","min_zoom":8.0,"sort_rank":381},"arcs":[[23],[24],[25],[26],[27],[28],[29]]},{"type":"MultiLineString","properties":{"sort_rank":355,"source":"openstreetmap.org","min_zoom":8.0,"kind":"ferry"},"arcs":[[30],[31]]},{"type":"LineString","properties":{"source":"openstreetmap.org","kind":"major_road","sort_rank":380,"kind_detail":"primary","ref":"56","min_zoom":8.0},"arcs":[32]},{"type":"MultiLineString","properties":{"source":"openstreetmap.org","kind":"major_road","sort_rank":380,"kind_detail":"primary","ref":"39","min_zoom":8.0},"arcs":[[33],[34],[35],[36]]},{"type":"LineString","properties":{"kind":"ferry","name:en":"Busan-Fukuoka","network":"AH","sort_rank":355,"name":"\u798f\u5ca1\/\ud6c4\ucfe0\uc624\uce74-\ubd80\uc0b0\/\u91dc\u5c71","source":"openstreetmap.org","min_zoom":8.0,"all_networks":["AH"],"name:ko":"\ubd80\uc0b0-\ud6c4\ucfe0\uc624\uce74","shield_text":"1","name:ru":"\u0424\u0443\u043a\u0443\u043e\u043a\u0430-\u041f\u0443\u0441\u0430\u043d","all_shield_texts":["1"],"name:ja":"\u91dc\u5c71-\u798f\u5ca1"},"arcs":[37]}]},"earth":{"type":"GeometryCollection","geometries":[{"type":"MultiPolygon","properties":{"sort_rank":10,"source":"naturalearthdata.com","min_zoom":0.0,"kind":"earth","area":7261615593},"arcs":[[[38]],[[39]],[[40]]]}]},"landuse":{"type":"GeometryCollection","geometries":[{"type":"MultiPolygon","properties":{"source":"naturalearthdata.com","kind":"urban_area","name":"","area":627294599,"sort_rank":11,"min_zoom":4.0},"arcs":[[[41]]]}]}},"type":"Topology","transform":{"translate":[129.375,34.3071438563],"scale":[0.0003433228,0.0002816226]},"arcs":[[[547,0],[358,385],[162,821],[1,162],[-49,209],[-208,346],[-157,153],[-654,-510]],[[4096,1927],[-2239,-1456],[-151,-43],[-157,-88],[-52,-43],[-62,-297]],[[0,2941],[289,-13],[85,216],[277,316],[26,305],[179,115],[86,216]],[[2979,1209],[221,-1209]],[[4096,1930],[-1117,-721]],[[374,3144],[-374,303]],[[0,2941],[289,-13],[85,216]],[[374,3144],[277,316],[26,305],[179,115],[86,216]],[[547,0],[358,385],[162,821],[1,162],[-49,209],[-208,346],[-157,153],[-654,-510]],[[2979,1209],[-1122,-738],[-151,-43],[-157,-88],[-52,-43],[-62,-297]],[[0,4090],[6,1],[15,5],[4075,0],[0,-4096],[-4096,0],[0,39],[12,23],[20,24],[43,23],[21,49],[-24,12],[-34,42],[-11,59],[13,22],[17,49],[-4,26],[-52,-58],[-1,-1],[0,79],[27,27],[-14,102],[67,103],[127,117],[53,141],[26,89],[6,32],[9,31],[-45,42],[-30,37],[27,9],[31,-19],[24,12],[22,56],[-1,36],[-29,17],[-26,7],[25,15],[16,21],[13,48],[-20,27],[-29,31],[-18,29],[-41,1],[-35,-26],[-44,4],[-15,-34],[22,-27],[-47,-9],[-56,-74],[-35,-34],[-10,2],[0,2889]],[[0,4090],[6,1],[15,5]],[[226,1109],[27,9],[31,-19],[24,12],[22,56],[-1,36],[-29,17],[-26,7],[25,15],[16,21],[13,48],[-20,27],[-29,31],[-18,29],[-41,1],[-35,-26],[-44,4],[-15,-34],[22,-27],[-47,-9],[-56,-74],[-35,-34],[-10,2]],[[0,39],[12,23],[20,24],[43,23],[21,49],[-24,12],[-34,42],[-11,59],[13,22],[17,49],[-4,26],[-52,-58],[-1,-1]],[[0,388],[27,27],[-14,102],[67,103],[127,117],[53,141],[26,89],[6,32],[9,31],[-45,42],[-30,37]],[[0,1116],[39,43]],[[64,1175],[1,2]],[[69,1182],[-2,0]],[[106,1244],[1,0]],[[155,1296]],[[159,1298],[1,0]],[[184,1283],[-1,1]],[[0,1960],[503,-519],[-10,-85],[-118,-131],[-47,-13],[-51,26]],[[39,1159],[25,16]],[[65,1177],[2,5]],[[106,1244],[-37,-62]],[[155,1296],[-48,-52]],[[155,1296],[4,2]],[[183,1284],[-23,14]],[[275,1241],[-39,-8],[-52,50]],[[236,1755],[-236,248]],[[0,2114],[1302,-958],[1635,-1156]],[[0,799],[74,-2],[53,-58],[40,-8]],[[0,533],[17,60],[49,18],[-7,25],[120,104],[43,85]],[[217,871],[20,17],[-74,78],[-2,56],[8,79],[59,76],[8,56]],[[217,871],[5,-46]],[[222,825],[13,31],[-18,15]],[[1382,0],[-760,1371],[-622,617]],[[261,1398],[18,-29],[29,-31],[20,-27],[-13,-48],[-16,-21],[-25,-15],[26,-7],[29,-17],[1,-36],[-22,-56],[-24,-12],[-31,19],[-27,-9],[30,-37],[45,-42],[-9,-31],[-6,-32],[-26,-89],[-53,-141],[-127,-117],[-67,-103],[14,-102],[-27,-27],[0,813],[10,-2],[35,34],[56,74],[47,9],[-22,27],[15,34],[44,-4],[35,26],[41,-1]],[[0,309],[1,1],[52,58],[4,-26],[-17,-49],[-13,-22],[11,-59],[34,-42],[24,-12],[-21,-49],[-43,-23],[-20,-24],[-12,-23],[0,270]],[[0,4096],[21,0],[-15,-5],[-6,-1],[0,6]],[[0,4096],[18,0],[-18,-6],[0,6]]]}