{"objects":{"water":{"type":"GeometryCollection","geometries":[{"type":"Polygon","properties":{"source":"naturalearthdata.com","kind":"ocean","area":1576712559132672,"sort_rank":200,"min_zoom":0.0,"id":1},"arcs":[[32],[33],[34],[35],[36],[37],[38],[39],[40],[41],[42],[43],[44],[45],[46],[47],[48],[49],[50],[51]]},{"type":"MultiLineString","properties":{"source":"naturalearthdata.com","kind":"ocean","sort_rank":205,"boundary":true,"min_zoom":0.0,"id":24},"arcs":[[52],[53],[54],[55]]},{"type":"LineString","properties":{"source":"naturalearthdata.com","kind":"ocean","sort_rank":205,"boundary":true,"min_zoom":0.0,"id":1826},"arcs":[56]},{"type":"LineString","properties":{"source":"naturalearthdata.com","kind":"ocean","sort_rank":205,"boundary":true,"min_zoom":0.0,"id":1827},"arcs":[57]},{"type":"LineString","properties":{"source":"naturalearthdata.com","kind":"ocean","sort_rank":205,"boundary":true,"min_zoom":0.0,"id":1828},"arcs":[58]},{"type":"LineString","properties":{"source":"naturalearthdata.com","kind":"ocean","sort_rank":205,"boundary":true,"min_zoom":0.0,"id":3529},"arcs":[59]},{"type":"LineString","properties":{"source":"naturalearthdata.com","kind":"ocean","sort_rank":205,"boundary":true,"min_zoom":0.0,"id":3530},"arcs":[60]}]},"buildings":{"type":"GeometryCollection","geometries":[]},"places":{"type":"GeometryCollection","geometries":[{"type":"Point","properties":{"kind":"region","name:en":"Kumamoto Prefecture","name":"\u718a\u672c\u770c (Kumamoto)","kind_detail":"province","min_zoom":4.0,"source":"openstreetmap.org","name:fr":"Pr\u00e9fecture de Kumamoto","name:uk":"\u041a\u0443\u043c\u0430\u043c\u043e\u0442\u043e","name:ru":"\u041a\u0443\u043c\u0430\u043c\u043e\u0442\u043e","name:pl":"Kumamoto","name:hu":"Kumamoto prefekt\u00fara","id":739281222,"name:ja":"\u718a\u672c\u770c"},"coordinates":[3667,2394]},{"type":"Point","properties":{"kind":"region","name:en":"Nagasaki Prefecture","name":"\u9577\u5d0e\u770c (Nagasaki Prefecture)","kind_detail":"province","min_zoom":4.0,"source":"openstreetmap.org","name:fr":"Pr\u00e9fecture de Nagasaki","name:uk":"\u041d\u0430\u0491\u0430\u0441\u0430\u043a\u0456","name:ru":"\u041d\u0430\u0433\u0430\u0441\u0430\u043a\u0438","name:pl":"Nagasaki","name:hu":"Nagaszaki prefekt\u00fara","id":1499608658,"name:ja":"\u9577\u5d0e\u770c"},"coordinates":[1201,4020]},{"type":"Point","properties":{"name:ja":"Kumamoto-shi","name:lt":"Kumamotas","name:ar":"\u0643\u0648\u0645\u0627\u0645\u0648\u062a\u0648\u060c \u0643\u0648\u0645\u0627\u0645\u0648\u062a\u0648","min_zoom":8.0,"name:uk":"\u041a\u0443\u043c\u0430\u043c\u043e\u0442\u043e","name:ru":"\u041a\u0443\u043c\u0430\u043c\u043e\u0442\u043e","name:pl":"Kumamoto","id":642042925,"population":670113,"kind":"locality","name:en":"Kumamoto","name":"\u718a\u672c\u5e02","kind_detail":"city","source":"openstreetmap.org","name:fr":"Kumamoto","name:et":"Kumamoto"},"coordinates":[3956,2872]},{"type":"Point","properties":{"name:ja":"Nagasaki-shi","name:lt":"Nagasakis","name:he":"\u05e0\u05d2\u05e1\u05d0\u05e7\u05d9","min_zoom":8.0,"name:uk":"\u041d\u0430\u0433\u0430\u0441\u0430\u043a\u0456","name:ru":"\u041d\u0430\u0433\u0430\u0441\u0430\u043a\u0438","name:sv":"Nagasaki","name:pl":"Nagasaki","id":568515366,"name:ca":"Nagasaki","population":434257,"kind":"locality","name:en":"Nagasaki","name":"\u9577\u5d0e\u5e02","kind_detail":"city","name:da":"Nagasaki","source":"openstreetmap.org","name:fr":"Nagasaki","name:et":"Nagasaki","name:zh":"\u957f\u5d0e\u5e02"},"coordinates":[1432,2872]},{"type":"Point","properties":{"kind":"locality","name:en":"Minamata","name":"\u6c34\u4fe3\u5e02","kind_detail":"city","min_zoom":8.0,"source":"openstreetmap.org","name:fr":"Minamata","name:uk":"\u041c\u0456\u043d\u0430\u043c\u0430\u0442\u0430","name:ru":"\u041c\u0438\u043d\u0430\u043c\u0430\u0442\u0430","name:pl":"Minamata","population":25815,"id":739281399,"name:ja":"Minamata-shi"},"coordinates":[3214,772]}]},"transit":{"type":"GeometryCollection","geometries":[{"type":"MultiLineString","properties":{"kind":"train","name:en":"Kamome","name":"\u304b\u3082\u3081","sort_rank":275,"source":"openstreetmap.org","min_zoom":6.0,"ref":"\u304b\u3082\u3081","osm_relation":true},"arcs":[[21],[22],[23],[24],[25],[26],[27],[28],[29],[30],[31]]}]},"pois":{"type":"GeometryCollection","geometries":[]},"boundaries":{"type":"GeometryCollection","geometries":[{"type":"LineString","properties":{"name:ty":"T\u0101p\u014dn\u0113","name:ka":"\u10d8\u10d0\u10de\u10dd\u10dc\u10d8\u10d0","name:ko":"\uc77c\ubcf8","name:cv":"\u042f\u043f\u043e\u043d\u0438","name:cu":"\ua656\u043f\u0461\u043d\u0457\ua657","name:kl":"Japani","name:cs":"Japonsko","name:tw":"Yapan","name:ki":"Japan","name:kw":"Nihon","name:kv":"\u042f\u043f\u043e\u043d\u0438\u044f","name:th":"\u0e1b\u0e23\u0e30\u0e40\u0e17\u0e28\u0e0d\u0e35\u0e48\u0e1b\u0e38\u0e48\u0e19","name:ti":"\u1303\u1353\u1295","name:tl":"Hapon","name:ch":"Chapan","name:ce":"\u042f\u043f\u043e\u043d\u0438","name:ta":"\u0b9c\u0baa\u0bcd\u0baa\u0bbe\u0ba9\u0bcd","name:tg":"\u0416\u043e\u043f\u0443\u043d","name:ca":"Jap\u00f3","name:te":"\u0c1c\u0c2a\u0c3e\u0c28\u0c4d","name:cy":"Japan","name:qu":"Nihun","name:da":"Japan","name:de":"Japan","name:dz":"\u0f47\u0f71\u0f0b\u0f54\u0f71\u0f53\u0f0d","source":"openstreetmap.org","name:kn":"\u0c9c\u0caa\u0cbe\u0ca8\u0ccd","name:dv":"\u0796\u07a6\u0795\u07a7\u0782\u07aa","name:km":"\u1787\u1794\u17c9\u17bb\u1793","name:lv":"Jap\u0101na","name:lt":"Japonija","name:uz":"Yaponiya","name:kk":"\u0416\u0430\u043f\u043e\u043d\u0438\u044f","name:ur":"\u062c\u0627\u067e\u0627\u0646","name:lb":"Japan","name:la":"Iaponia","name:tt":"\u042f\u043f\u043e\u043d\u0438\u044f","name:uk":"\u042f\u043f\u043e\u043d\u0456\u044f","name:ug":"\u064a\u0627\u067e\u0648\u0646\u0649\u064a\u06d5","name:li":"Japan","name:ln":"Zap\u0254\u0301","name:lo":"\u0e9b\u0eb0\u0ec0\u0e97\u0e94\u0e8d\u0eb5\u0ec8\u0e9b\u0eb8\u0ec8\u0e99","name:el":"\u0399\u03b1\u03c0\u03c9\u03bd\u03af\u03b1","name:eo":"Japanujo","name:en":"Japan","name":"\u65e5\u672c","name:tk":"\u00ddaponi\u00fda","name:ee":"Japan","name:ku":"Japon","name:eu":"Japonia","name:et":"Jaapan","name:es":"Jap\u00f3n","name:ay":"Nihun","name:rm":"Giapun","name:az":"Yaponiya","name:ie":"Japan","name:id":"Jepang","name:ar":"\u0627\u0644\u064a\u0627\u0628\u0627\u0646","name:io":"Japonia","name:is":"Japan","name:am":"\u1303\u1353\u1295","name:it":"Giappone","name:an":"Chap\u00f3n","name:ru":"\u042f\u043f\u043e\u043d\u0438\u044f","name:ab":"\u0418\u0430\u043f\u043e\u043d\u0438\u0430","name:af":"Japan","name:zu":"IJapani","kind_detail":"2","name:za":"Nditbonj","name:so":"Jabaan","name:sm":"Iapani","name:sl":"Japonska","name:sk":"Japonsko","name:ja":"Nippon","name:si":"\u0da2\u0db4\u0dcf\u0db1\u0dba","name:sh":"Japan","name:se":"J\u00e1hpan","name:sd":"\u062c\u0627\u067e\u0627\u0646","name:sc":"Giappone","name:br":"Japan","name:bs":"Japan","name:bn":"\u099c\u09be\u09aa\u09be\u09a8","name:bo":"\u0f62\u0f72\u0f0b\u0f54\u0f72\u0f53\u0f0d","name:sa":"\u0938\u0942\u0930\u094d\u092f\u092e\u0942\u0932","name:sw":"Japani","name:be":"\u042f\u043f\u043e\u043d\u0456\u044f","name:su":"Jepang","name:bg":"\u042f\u043f\u043e\u043d\u0438\u044f","name:ss":"IJaphani","name:ba":"\u042f\u043f\u043e\u043d\u0438\u044f","name:sq":"Japonia","name:jv":"Jepang","name:ia":"Japon","name:pt":"Jap\u00e3o","name:ps":"\u062c\u0627\u067e\u0627\u0646","name:om":"Jaappaan","name:oc":"Japon","min_zoom":8.0,"name:ro":"Japonia","name:zh-min-nan":"Ji\u030dt-p\u00fan","name:os":"\u042f\u043f\u043e\u043d","name:or":"\u0b1c\u0b3e\u0b2a\u0b3e\u0b28","name:pl":"Japonia","sort_rank":262,"name:sr":"\u0408\u0430\u043f\u0430\u043d","osm_relation":true,"name:pa":"\u0a1c\u0a2a\u0a3e\u0a28","name:tr":"Japonya","name:hi":"\u091c\u093e\u092a\u093e\u0928","name:sv":"Japan","name:he":"\u05d9\u05e4\u05df","name:ha":"Japan","name:hy":"\u0543\u0561\u057a\u0578\u0576\u056b\u0561","name:ht":"Japon","name:hu":"Jap\u00e1n","name:hr":"Japan","kind":"country","name:yi":"\u05d9\u05d0\u05e4\u05d0\u05df","name:iu":"\u14c3\u1449\u140a\u14d0","name:yo":"Japan","name:mt":"\u0120appun","alt_name:eo":"Japanio","name:ms":"Jepun","name:mr":"\u091c\u092a\u093e\u0928","name:my":"\u1002\u103b\u1015\u1014\u103a\u1014\u102d\u102f\u1004\u103a\u1004\u1036","name:mg":"Japana","name:vi":"Nh\u1eadt B\u1ea3n","name:ml":"\u0d1c\u0d2a\u0d4d\u0d2a\u0d3e\u0d7b","name:mn":"\u042f\u043f\u043e\u043d","name:mi":"Nipono","id":-382313,"name:mk":"\u0408\u0430\u043f\u043e\u043d\u0438\u0458\u0430","name:vo":"Yap\u00e4n","name:fa":"\u0698\u0627\u067e\u0646","name:rw":"Ubuyapani","name:fi":"Japani","name:ky":"\u0416\u0430\u043f\u043e\u043d\u0438\u044f","old_name:vi":"Nh\u1eadt B\u1ed5n","name:fo":"Japan","alt_name:vi":"Nh\u1eadt","name:fr":"Japon","name:fy":"Japan","name:nl":"Japan","name:nn":"Japan","name:no":"Japan","name:na":"Djapan","name:ne":"\u091c\u093e\u092a\u093e\u0928","name:wo":"Sapo\u014b","name:nv":"Bina\u02bcadaa\u0142tz\u00f3z\u00ed Din\u00e9\u02bci\u02bc Bik\u00e9yah","name:ga":"An tSeap\u00e1in","name:gd":"An t-Seapan","name:gn":"Hap\u00f5","name:gl":"Xap\u00f3n","maritime_boundary":true,"name:gv":"Yn \u00c7hapaan","name:gu":"\u0a9c\u0abe\u0aaa\u0abe\u0aa8"},"arcs":[0]},{"type":"LineString","properties":{"name:right:ja":"Kumamoto-ken","name:right:uk":"\u041f\u0440\u0435\u0444\u0435\u043a\u0442\u0443\u0440\u0430 \u041a\u0443\u043c\u0430\u043c\u043e\u0442\u043e","name:left:ja":"Kagoshima-Ken","id:right":-1842185,"name:left:uk":"\u041f\u0440\u0435\u0444\u0435\u043a\u0442\u0443\u0440\u0430 \u041a\u0430\u0491\u043e\u0448\u0456\u043c\u0430","min_zoom":8.0,"id:left":-1842186,"name:left:en":"Kagoshima Prefecture","name:left:ru":"\u041a\u0430\u0433\u043e\u0441\u0438\u043c\u0430","name:right:ru":"\u041a\u0443\u043c\u0430\u043c\u043e\u0442\u043e","name:right:pl":"Prefektura Kumamoto","id":-1842186,"osm_relation":true,"name:right":"\u718a\u672c\u770c","kind":"region","name:left:eo":"Kago\u015dimo","name":"\u9e7f\u5150\u5cf6\u770c - \u718a\u672c\u770c","source":"openstreetmap.org","sort_rank":256,"name:right:eo":"Kumamoto","name:left:de":"Kagoshima","name:right:en":"Kumamoto","name:left:pl":"Prefektura Kagoshima","name:right:de":"Kumamoto","kind_detail":"4","name:left":"\u9e7f\u5150\u5cf6\u770c"},"arcs":[1]},{"type":"LineString","properties":{"name:right:ja":"Kumamoto-ken","name:right:uk":"\u041f\u0440\u0435\u0444\u0435\u043a\u0442\u0443\u0440\u0430 \u041a\u0443\u043c\u0430\u043c\u043e\u0442\u043e","name:left:ja":"Kagoshima-Ken","id:right":-1842185,"name:left:uk":"\u041f\u0440\u0435\u0444\u0435\u043a\u0442\u0443\u0440\u0430 \u041a\u0430\u0491\u043e\u0448\u0456\u043c\u0430","min_zoom":8.0,"id:left":-1842186,"name:left:en":"Kagoshima Prefecture","name:left:ru":"\u041a\u0430\u0433\u043e\u0441\u0438\u043c\u0430","name:right:ru":"\u041a\u0443\u043c\u0430\u043c\u043e\u0442\u043e","name:right:pl":"Prefektura Kumamoto","id":-1842186,"osm_relation":true,"name:right":"\u718a\u672c\u770c","kind":"region","name:left:eo":"Kago\u015dimo","name":"\u9e7f\u5150\u5cf6\u770c - \u718a\u672c\u770c","source":"openstreetmap.org","sort_rank":256,"name:right:eo":"Kumamoto","name:left:de":"Kagoshima","name:right:en":"Kumamoto","name:left:pl":"Prefektura Kagoshima","name:right:de":"Kumamoto","kind_detail":"4","name:left":"\u9e7f\u5150\u5cf6\u770c"},"arcs":[2]},{"type":"MultiLineString","properties":{"name:right:ja":"Kumamoto-ken","name":"\u9e7f\u5150\u5cf6\u770c - \u718a\u672c\u770c","name:right:pl":"Prefektura Kumamoto","name:right:uk":"\u041f\u0440\u0435\u0444\u0435\u043a\u0442\u0443\u0440\u0430 \u041a\u0443\u043c\u0430\u043c\u043e\u0442\u043e","name:left:ja":"Kagoshima-Ken","id:right":-1842185,"name:left:uk":"\u041f\u0440\u0435\u0444\u0435\u043a\u0442\u0443\u0440\u0430 \u041a\u0430\u0491\u043e\u0448\u0456\u043c\u0430","min_zoom":8.0,"name:left:pl":"Prefektura Kagoshima","name:left:ru":"\u041a\u0430\u0433\u043e\u0441\u0438\u043c\u0430","name:right:ru":"\u041a\u0443\u043c\u0430\u043c\u043e\u0442\u043e","name:right:eo":"Kumamoto","id":-1842186,"osm_relation":true,"name:right":"\u718a\u672c\u770c","kind":"region","name:left:eo":"Kago\u015dimo","name:left:en":"Kagoshima Prefecture","sort_rank":256,"kind_detail":"4","name:left:de":"Kagoshima","name:right:en":"Kumamoto","source":"openstreetmap.org","maritime_boundary":true,"name:right:de":"Kumamoto","id:left":-1842186,"name:left":"\u9e7f\u5150\u5cf6\u770c"},"arcs":[[3],[4]]},{"type":"LineString","properties":{"name:right:ja":"Miyazaki-ken","name:right:fr":"Pr\u00e9fecture de Miyazaki","name:right:uk":"\u041f\u0440\u0435\u0444\u0435\u043a\u0442\u0443\u0440\u0430 \u041c\u0456\u044f\u0434\u0437\u0430\u043a\u0456","name:left:ja":"Kagoshima-Ken","id:right":-1842184,"name:left:uk":"\u041f\u0440\u0435\u0444\u0435\u043a\u0442\u0443\u0440\u0430 \u041a\u0430\u0491\u043e\u0448\u0456\u043c\u0430","min_zoom":8.0,"id:left":-1842186,"name:left:en":"Kagoshima Prefecture","name:left:ru":"\u041a\u0430\u0433\u043e\u0441\u0438\u043c\u0430","name:right:ru":"\u041c\u0438\u044f\u0434\u0437\u0430\u043a\u0438","name:right:pl":"Prefektura Miyazaki","id":-1842186,"osm_relation":true,"name:right":"\u5bae\u5d0e\u770c","kind":"region","name:left:eo":"Kago\u015dimo","name":"\u9e7f\u5150\u5cf6\u770c - \u5bae\u5d0e\u770c","source":"openstreetmap.org","sort_rank":256,"name:right:eo":"Mijazako","name:left:de":"Kagoshima","name:right:en":"Miyazaki Prefecture","name:left:pl":"Prefektura Kagoshima","name:right:de":"Miyazaki","kind_detail":"4","name:left":"\u9e7f\u5150\u5cf6\u770c"},"arcs":[5]},{"type":"LineString","properties":{"name:ja":"Kagoshima-Ken","name:eo":"Kago\u015dimo","min_zoom":8.0,"name:uk":"\u041f\u0440\u0435\u0444\u0435\u043a\u0442\u0443\u0440\u0430 \u041a\u0430\u0491\u043e\u0448\u0456\u043c\u0430","name:ru":"\u041a\u0430\u0433\u043e\u0441\u0438\u043c\u0430","name:pl":"Prefektura Kagoshima","id":-1842186,"osm_relation":true,"kind":"region","name:en":"Kagoshima Prefecture","name":"\u9e7f\u5150\u5cf6\u770c","sort_rank":256,"kind_detail":"4","name:de":"Kagoshima","source":"openstreetmap.org","maritime_boundary":true},"arcs":[6]},{"type":"LineString","properties":{"name:right:ja":"Miyazaki-ken","name:right:fr":"Pr\u00e9fecture de Miyazaki","name:right:uk":"\u041f\u0440\u0435\u0444\u0435\u043a\u0442\u0443\u0440\u0430 \u041c\u0456\u044f\u0434\u0437\u0430\u043a\u0456","name:left:ja":"Kumamoto-ken","id:right":-1842184,"name:left:uk":"\u041f\u0440\u0435\u0444\u0435\u043a\u0442\u0443\u0440\u0430 \u041a\u0443\u043c\u0430\u043c\u043e\u0442\u043e","min_zoom":8.0,"id:left":-1842185,"name:left:en":"Kumamoto","name:left:ru":"\u041a\u0443\u043c\u0430\u043c\u043e\u0442\u043e","name:right:ru":"\u041c\u0438\u044f\u0434\u0437\u0430\u043a\u0438","name:right:pl":"Prefektura Miyazaki","id":-1842185,"osm_relation":true,"name:right":"\u5bae\u5d0e\u770c","kind":"region","name:left:eo":"Kumamoto","name":"\u718a\u672c\u770c - \u5bae\u5d0e\u770c","source":"openstreetmap.org","sort_rank":256,"name:right:eo":"Mijazako","name:left:de":"Kumamoto","name:right:en":"Miyazaki Prefecture","name:left:pl":"Prefektura Kumamoto","name:right:de":"Miyazaki","kind_detail":"4","name:left":"\u718a\u672c\u770c"},"arcs":[7]},{"type":"LineString","properties":{"name:right:ja":"Nagasaki-Ken","name:right:uk":"\u041f\u0440\u0435\u0444\u0435\u043a\u0442\u0443\u0440\u0430 \u041d\u0430\u0491\u0430\u0441\u0430\u043a\u0456","name:left:ja":"Kumamoto-ken","id:right":-1842151,"name:left:uk":"\u041f\u0440\u0435\u0444\u0435\u043a\u0442\u0443\u0440\u0430 \u041a\u0443\u043c\u0430\u043c\u043e\u0442\u043e","min_zoom":8.0,"id:left":-1842185,"name:left:en":"Kumamoto","name:left:ru":"\u041a\u0443\u043c\u0430\u043c\u043e\u0442\u043e","name:right:ru":"\u041d\u0430\u0433\u0430\u0441\u0430\u043a\u0438","name:right:pl":"Prefektura Nagasaki","id":-1842185,"osm_relation":true,"name:right":"\u9577\u5d0e\u770c","kind":"region","name:left:eo":"Kumamoto","name":"\u718a\u672c\u770c - \u9577\u5d0e\u770c","source":"openstreetmap.org","sort_rank":256,"name:right:eo":"Nagasako","name:left:de":"Kumamoto","name:right:en":"Nagasaki Prefecture","name:left:pl":"Prefektura Kumamoto","name:right:de":"Nagasaki","kind_detail":"4","name:left":"\u718a\u672c\u770c"},"arcs":[8]},{"type":"LineString","properties":{"name:right:ja":"Nagasaki-Ken","name":"\u718a\u672c\u770c - \u9577\u5d0e\u770c","name:right:pl":"Prefektura Nagasaki","name:right:uk":"\u041f\u0440\u0435\u0444\u0435\u043a\u0442\u0443\u0440\u0430 \u041d\u0430\u0491\u0430\u0441\u0430\u043a\u0456","name:left:ja":"Kumamoto-ken","id:right":-1842151,"name:left:uk":"\u041f\u0440\u0435\u0444\u0435\u043a\u0442\u0443\u0440\u0430 \u041a\u0443\u043c\u0430\u043c\u043e\u0442\u043e","min_zoom":8.0,"name:left:pl":"Prefektura Kumamoto","name:left:ru":"\u041a\u0443\u043c\u0430\u043c\u043e\u0442\u043e","name:right:ru":"\u041d\u0430\u0433\u0430\u0441\u0430\u043a\u0438","name:right:eo":"Nagasako","id":-1842185,"osm_relation":true,"name:right":"\u9577\u5d0e\u770c","kind":"region","name:left:eo":"Kumamoto","name:left:en":"Kumamoto","sort_rank":256,"kind_detail":"4","name:left:de":"Kumamoto","name:right:en":"Nagasaki Prefecture","source":"openstreetmap.org","maritime_boundary":true,"name:right:de":"Nagasaki","id:left":-1842185,"name:left":"\u718a\u672c\u770c"},"arcs":[9]},{"type":"LineString","properties":{"name:right:ja":"Fukuoka-ken","name:right:uk":"\u041f\u0440\u0435\u0444\u0435\u043a\u0442\u0443\u0440\u0430 \u0424\u0443\u043a\u0443\u043e\u043a\u0430","name:left:ja":"Kumamoto-ken","name:right:ko":"\ud6c4\ucfe0\uc624\uce74 \ud604","id:right":-1553735,"name:left:uk":"\u041f\u0440\u0435\u0444\u0435\u043a\u0442\u0443\u0440\u0430 \u041a\u0443\u043c\u0430\u043c\u043e\u0442\u043e","min_zoom":8.0,"id:left":-1842185,"name:left:en":"Kumamoto","name:left:ru":"\u041a\u0443\u043c\u0430\u043c\u043e\u0442\u043e","name:right:ru":"\u0424\u0443\u043a\u0443\u043e\u043a\u0430","name:right:pl":"Prefektura Fukuoka","id":-1842185,"osm_relation":true,"name:right":"\u798f\u5ca1\u770c","kind":"region","name:left:eo":"Kumamoto","name":"\u718a\u672c\u770c - \u798f\u5ca1\u770c","source":"openstreetmap.org","sort_rank":256,"kind_detail":"4","name:left:de":"Kumamoto","name:right:en":"Fukuoka Prefecture","name:left:pl":"Prefektura Kumamoto","name:right:de":"Fukuoka","name:left":"\u718a\u672c\u770c"},"arcs":[10]},{"type":"MultiLineString","properties":{"name:right:ja":"Fukuoka-ken","name:right:uk":"\u041f\u0440\u0435\u0444\u0435\u043a\u0442\u0443\u0440\u0430 \u0424\u0443\u043a\u0443\u043e\u043a\u0430","name:left:ja":"Kumamoto-ken","name:right:ko":"\ud6c4\ucfe0\uc624\uce74 \ud604","id:right":-1553735,"name:left:uk":"\u041f\u0440\u0435\u0444\u0435\u043a\u0442\u0443\u0440\u0430 \u041a\u0443\u043c\u0430\u043c\u043e\u0442\u043e","min_zoom":8.0,"id:left":-1842185,"name:left:en":"Kumamoto","name:left:ru":"\u041a\u0443\u043c\u0430\u043c\u043e\u0442\u043e","name:right:ru":"\u0424\u0443\u043a\u0443\u043e\u043a\u0430","name:right:pl":"Prefektura Fukuoka","id":-1842185,"osm_relation":true,"name:right":"\u798f\u5ca1\u770c","kind":"region","name:left:eo":"Kumamoto","name":"\u718a\u672c\u770c - \u798f\u5ca1\u770c","source":"openstreetmap.org","sort_rank":256,"kind_detail":"4","name:left:de":"Kumamoto","name:right:en":"Fukuoka Prefecture","name:left:pl":"Prefektura Kumamoto","name:right:de":"Fukuoka","name:left":"\u718a\u672c\u770c"},"arcs":[[11],[12]]},{"type":"LineString","properties":{"name:right:ja":"Fukuoka-ken","name":"\u718a\u672c\u770c - \u798f\u5ca1\u770c","name:right:uk":"\u041f\u0440\u0435\u0444\u0435\u043a\u0442\u0443\u0440\u0430 \u0424\u0443\u043a\u0443\u043e\u043a\u0430","name:left:ja":"Kumamoto-ken","name:right:ko":"\ud6c4\ucfe0\uc624\uce74 \ud604","id:right":-1553735,"name:left:uk":"\u041f\u0440\u0435\u0444\u0435\u043a\u0442\u0443\u0440\u0430 \u041a\u0443\u043c\u0430\u043c\u043e\u0442\u043e","min_zoom":8.0,"name:left:pl":"Prefektura Kumamoto","name:left:ru":"\u041a\u0443\u043c\u0430\u043c\u043e\u0442\u043e","name:right:ru":"\u0424\u0443\u043a\u0443\u043e\u043a\u0430","name:right:pl":"Prefektura Fukuoka","id":-1842185,"osm_relation":true,"name:right":"\u798f\u5ca1\u770c","kind":"region","name:left:eo":"Kumamoto","name:left:en":"Kumamoto","sort_rank":256,"kind_detail":"4","name:left:de":"Kumamoto","name:right:en":"Fukuoka Prefecture","source":"openstreetmap.org","maritime_boundary":true,"name:right:de":"Fukuoka","id:left":-1842185,"name:left":"\u718a\u672c\u770c"},"arcs":[13]},{"type":"LineString","properties":{"name:right:ja":"Fukuoka-ken","name:right:uk":"\u041f\u0440\u0435\u0444\u0435\u043a\u0442\u0443\u0440\u0430 \u0424\u0443\u043a\u0443\u043e\u043a\u0430","name:left:ja":"Nagasaki-Ken","name:right:ko":"\ud6c4\ucfe0\uc624\uce74 \ud604","id:right":-1553735,"name:left:uk":"\u041f\u0440\u0435\u0444\u0435\u043a\u0442\u0443\u0440\u0430 \u041d\u0430\u0491\u0430\u0441\u0430\u043a\u0456","min_zoom":8.0,"id:left":-1842151,"name:left:en":"Nagasaki Prefecture","name:left:ru":"\u041d\u0430\u0433\u0430\u0441\u0430\u043a\u0438","name:right:ru":"\u0424\u0443\u043a\u0443\u043e\u043a\u0430","name:right:pl":"Prefektura Fukuoka","id":-1842151,"osm_relation":true,"name:right":"\u798f\u5ca1\u770c","kind":"region","name:left:eo":"Nagasako","name":"\u9577\u5d0e\u770c - \u798f\u5ca1\u770c","source":"openstreetmap.org","sort_rank":256,"kind_detail":"4","name:left:de":"Nagasaki","name:right:en":"Fukuoka Prefecture","name:left:pl":"Prefektura Nagasaki","name:right:de":"Fukuoka","name:left":"\u9577\u5d0e\u770c"},"arcs":[14]},{"type":"LineString","properties":{"kind":"region","name:en":"Nagasaki Prefecture","name":"\u9577\u5d0e\u770c","sort_rank":256,"kind_detail":"4","name:eo":"Nagasako","name:de":"Nagasaki","source":"openstreetmap.org","min_zoom":8.0,"name:uk":"\u041f\u0440\u0435\u0444\u0435\u043a\u0442\u0443\u0440\u0430 \u041d\u0430\u0491\u0430\u0441\u0430\u043a\u0456","name:ru":"\u041d\u0430\u0433\u0430\u0441\u0430\u043a\u0438","name:pl":"Prefektura Nagasaki","id":-1842151,"osm_relation":true,"name:ja":"Nagasaki-Ken"},"arcs":[15]},{"type":"LineString","properties":{"kind":"region","name:en":"Nagasaki Prefecture","name":"\u9577\u5d0e\u770c","sort_rank":256,"kind_detail":"4","name:eo":"Nagasako","name:de":"Nagasaki","source":"openstreetmap.org","min_zoom":8.0,"name:uk":"\u041f\u0440\u0435\u0444\u0435\u043a\u0442\u0443\u0440\u0430 \u041d\u0430\u0491\u0430\u0441\u0430\u043a\u0456","name:ru":"\u041d\u0430\u0433\u0430\u0441\u0430\u043a\u0438","name:pl":"Prefektura Nagasaki","id":-1842151,"osm_relation":true,"name:ja":"Nagasaki-Ken"},"arcs":[16]},{"type":"LineString","properties":{"name:ja":"Nagasaki-Ken","name:eo":"Nagasako","min_zoom":8.0,"name:uk":"\u041f\u0440\u0435\u0444\u0435\u043a\u0442\u0443\u0440\u0430 \u041d\u0430\u0491\u0430\u0441\u0430\u043a\u0456","name:ru":"\u041d\u0430\u0433\u0430\u0441\u0430\u043a\u0438","name:pl":"Prefektura Nagasaki","id":-1842151,"osm_relation":true,"kind":"region","name:en":"Nagasaki Prefecture","name":"\u9577\u5d0e\u770c","sort_rank":256,"kind_detail":"4","name:de":"Nagasaki","source":"openstreetmap.org","maritime_boundary":true},"arcs":[17]},{"type":"LineString","properties":{"kind":"region","name:en":"Fukuoka Prefecture","name":"\u798f\u5ca1\u770c","name:ko":"\ud6c4\ucfe0\uc624\uce74 \ud604","kind_detail":"4","sort_rank":256,"name:de":"Fukuoka","source":"openstreetmap.org","min_zoom":8.0,"name:uk":"\u041f\u0440\u0435\u0444\u0435\u043a\u0442\u0443\u0440\u0430 \u0424\u0443\u043a\u0443\u043e\u043a\u0430","name:ru":"\u0424\u0443\u043a\u0443\u043e\u043a\u0430","name:pl":"Prefektura Fukuoka","id":-1553735,"osm_relation":true,"name:ja":"Fukuoka-ken"},"arcs":[18]},{"type":"LineString","properties":{"kind":"region","name:en":"Fukuoka Prefecture","name":"\u798f\u5ca1\u770c","name:ko":"\ud6c4\ucfe0\uc624\uce74 \ud604","kind_detail":"4","sort_rank":256,"name:de":"Fukuoka","source":"openstreetmap.org","min_zoom":8.0,"name:uk":"\u041f\u0440\u0435\u0444\u0435\u043a\u0442\u0443\u0440\u0430 \u0424\u0443\u043a\u0443\u043e\u043a\u0430","name:ru":"\u0424\u0443\u043a\u0443\u043e\u043a\u0430","name:pl":"Prefektura Fukuoka","id":-1553735,"osm_relation":true,"name:ja":"Fukuoka-ken"},"arcs":[19]},{"type":"LineString","properties":{"name:ja":"Fukuoka-ken","name:ko":"\ud6c4\ucfe0\uc624\uce74 \ud604","min_zoom":8.0,"name:uk":"\u041f\u0440\u0435\u0444\u0435\u043a\u0442\u0443\u0440\u0430 \u0424\u0443\u043a\u0443\u043e\u043a\u0430","name:ru":"\u0424\u0443\u043a\u0443\u043e\u043a\u0430","name:pl":"Prefektura Fukuoka","id":-1553735,"osm_relation":true,"kind":"region","name:en":"Fukuoka Prefecture","name":"\u798f\u5ca1\u770c","sort_rank":256,"kind_detail":"4","name:de":"Fukuoka","source":"openstreetmap.org","maritime_boundary":true},"arcs":[20]}]},"roads":{"type":"GeometryCollection","geometries":[{"type":"MultiLineString","properties":{"source":"openstreetmap.org","kind":"major_road","landuse_kind":"urban_area","sort_rank":380,"kind_detail":"primary","ref":"30","min_zoom":8.0},"arcs":[[61],[62],[63],[64]]},{"type":"MultiLineString","properties":{"source":"openstreetmap.org","kind":"major_road","sort_rank":380,"kind_detail":"primary","ref":"55","min_zoom":8.0},"arcs":[[65],[66],[67],[68]]},{"type":"LineString","properties":{"source":"openstreetmap.org","kind":"major_road","sort_rank":380,"kind_detail":"primary","ref":"26","min_zoom":8.0},"arcs":[69]},{"type":"MultiLineString","properties":{"source":"openstreetmap.org","kind":"major_road","sort_rank":380,"kind_detail":"primary","ref":"43","min_zoom":8.0},"arcs":[[70],[71]]},{"type":"MultiLineString","properties":{"kind":"major_road","network":"JP:national","sort_rank":381,"landuse_kind":"urban_area","source":"openstreetmap.org","min_zoom":8.0,"kind_detail":"trunk","shield_text":"3","ref":"3"},"arcs":[[72],[73],[74],[75],[76],[77],[78],[79],[80],[81],[82],[83],[84],[85],[86],[87],[88],[89]]},{"type":"MultiLineString","properties":{"kind":"highway","network":"JP:national","sort_rank":383,"kind_detail":"motorway","source":"openstreetmap.org","min_zoom":8.0,"all_networks":["JP:national"],"shield_text":"34","ref":"E96","all_shield_texts":["34"]},"arcs":[[90],[91]]},{"type":"MultiLineString","properties":{"source":"openstreetmap.org","kind":"major_road","kind_detail":"trunk","sort_rank":381,"landuse_kind":"urban_area","ref":"205","min_zoom":8.0},"arcs":[[92],[93],[94],[95],[96]]},{"type":"MultiLineString","properties":{"source":"openstreetmap.org","kind":"major_road","landuse_kind":"urban_area","sort_rank":380,"kind_detail":"primary","ref":"36","min_zoom":8.0},"arcs":[[97],[98],[99],[100],[101],[102],[103]]},{"type":"MultiLineString","properties":{"source":"openstreetmap.org","kind":"major_road","kind_detail":"trunk","sort_rank":381,"landuse_kind":"urban_area","ref":"499","min_zoom":8.0},"arcs":[[104],[105],[106],[107]]},{"type":"MultiLineString","properties":{"source":"openstreetmap.org","kind":"major_road","kind_detail":"trunk","sort_rank":381,"landuse_kind":"urban_area","ref":"447","min_zoom":8.0},"arcs":[[108],[109]]},{"type":"LineString","properties":{"source":"openstreetmap.org","kind":"ferry","int_name":"Seto-Ikeshima ferry","name":"\u702c\u6238\u30fb\u6c60\u5cf6\u30d5\u30a7\u30ea\u30fc","sort_rank":355,"min_zoom":8.0,"id":166962935},"arcs":[110]},{"type":"LineString","properties":{"source":"openstreetmap.org","kind":"major_road","landuse_kind":"urban_area","sort_rank":380,"kind_detail":"primary","ref":"10","min_zoom":8.0},"arcs":[111]},{"type":"MultiLineString","properties":{"source":"openstreetmap.org","kind":"major_road","sort_rank":380,"kind_detail":"primary","ref":"6","min_zoom":8.0},"arcs":[[112],[113],[114]]},{"type":"MultiLineString","properties":{"source":"openstreetmap.org","kind":"highway","landuse_kind":"urban_area","sort_rank":383,"kind_detail":"motorway","ref":"208","min_zoom":8.0},"arcs":[[115],[116]]},{"type":"LineString","properties":{"kind":"highway","name:en":"GAMADASU ROAD","sort_rank":383,"landuse_kind":"urban_area","source":"openstreetmap.org","min_zoom":8.0,"int_name":"Gamadasu Road","kind_detail":"motorway","ref":"251"},"arcs":[117]},{"type":"LineString","properties":{"source":"openstreetmap.org","kind":"major_road","landuse_kind":"urban_area","sort_rank":380,"kind_detail":"primary","ref":"14","min_zoom":8.0},"arcs":[118]},{"type":"MultiLineString","properties":{"source":"openstreetmap.org","kind":"major_road","landuse_kind":"urban_area","sort_rank":380,"kind_detail":"primary","ref":"33","min_zoom":8.0},"arcs":[[119],[120],[121]]},{"type":"MultiLineString","properties":{"source":"openstreetmap.org","kind":"major_road","sort_rank":380,"kind_detail":"primary","ref":"29","min_zoom":8.0},"arcs":[[122],[123],[124]]},{"type":"LineString","properties":{"source":"openstreetmap.org","kind":"ferry","name":"Nagasaki to Gunkanjima Tourist Ferry","sort_rank":355,"min_zoom":8.0,"id":96772059},"arcs":[125]},{"type":"MultiLineString","properties":{"source":"openstreetmap.org","kind":"major_road","sort_rank":381,"kind_detail":"trunk","ref":"218","min_zoom":8.0},"arcs":[[126],[127]]},{"type":"LineString","properties":{"source":"openstreetmap.org","kind":"ferry","name":"\u718a\u672c-\u5cf6\u539f","sort_rank":355,"landuse_kind":"urban_area","min_zoom":8.0,"id":35565353},"arcs":[128]},{"type":"MultiLineString","properties":{"source":"openstreetmap.org","kind":"major_road","sort_rank":380,"kind_detail":"primary","ref":"1","min_zoom":8.0},"arcs":[[129],[130],[131],[132]]},{"type":"MultiLineString","properties":{"sort_rank":355,"landuse_kind":"urban_area","min_zoom":8.0,"kind":"ferry","source":"openstreetmap.org"},"arcs":[[133],[134]]},{"type":"MultiLineString","properties":{"source":"openstreetmap.org","kind":"major_road","landuse_kind":"urban_area","sort_rank":380,"kind_detail":"primary","ref":"37","min_zoom":8.0},"arcs":[[135],[136],[137],[138],[139],[140],[141],[142]]},{"type":"MultiLineString","properties":{"kind":"highway","int_name":"KYUSHU EXPWY","network":null,"sort_rank":383,"kind_detail":"motorway","source":"openstreetmap.org","min_zoom":8.0,"all_networks":[null],"shield_text":"3","ref":"E3","all_shield_texts":["3"]},"arcs":[[143],[144],[145],[146],[147],[148],[149],[150],[151],[152],[153]]},{"type":"MultiLineString","properties":{"source":"openstreetmap.org","kind":"major_road","landuse_kind":"urban_area","sort_rank":380,"kind_detail":"primary","ref":"29","min_zoom":8.0},"arcs":[[154],[155]]},{"type":"MultiLineString","properties":{"kind":"highway","name:en":"Nagasaki Motorway","network":null,"sort_rank":383,"kind_detail":"motorway","source":"openstreetmap.org","min_zoom":8.0,"int_name":"NAGASAKI EXPWY","all_networks":[null],"shield_text":"34","ref":"E34","all_shield_texts":["34"]},"arcs":[[156],[157]]},{"type":"MultiLineString","properties":{"source":"openstreetmap.org","kind":"major_road","sort_rank":381,"kind_detail":"trunk","ref":"3","min_zoom":8.0},"arcs":[[158],[159]]},{"type":"MultiLineString","properties":{"sort_rank":380,"kind_detail":"primary","min_zoom":8.0,"kind":"major_road","source":"openstreetmap.org"},"arcs":[[160],[161],[162],[163],[164],[165]]},{"type":"MultiLineString","properties":{"source":"openstreetmap.org","kind":"major_road","landuse_kind":"urban_area","sort_rank":380,"kind_detail":"primary","ref":"42","min_zoom":8.0},"arcs":[[166],[167],[168],[169],[170],[171],[172],[173],[174],[175],[176],[177],[178],[179],[180]]},{"type":"MultiLineString","properties":{"source":"openstreetmap.org","kind":"major_road","sort_rank":380,"kind_detail":"primary","ref":"51","min_zoom":8.0},"arcs":[[181],[182]]},{"type":"MultiLineString","properties":{"source":"openstreetmap.org","kind":"major_road","landuse_kind":"urban_area","sort_rank":380,"kind_detail":"primary","ref":"31","min_zoom":8.0},"arcs":[[183],[184],[185],[186]]},{"type":"MultiLineString","properties":{"source":"openstreetmap.org","kind":"major_road","sort_rank":380,"kind_detail":"primary","ref":"41","min_zoom":8.0},"arcs":[[187],[188],[189]]},{"type":"LineString","properties":{"kind":"major_road","network":"JP:national","sort_rank":381,"kind_detail":"trunk","source":"openstreetmap.org","min_zoom":8.0,"landuse_kind":"urban_area","shield_text":"3","ref":"3;57","id":66448805},"arcs":[190]},{"type":"MultiLineString","properties":{"source":"openstreetmap.org","kind":"major_road","sort_rank":380,"kind_detail":"primary","ref":"56","min_zoom":8.0},"arcs":[[191],[192],[193],[194],[195],[196],[197],[198],[199],[200]]},{"type":"MultiLineString","properties":{"source":"openstreetmap.org","kind":"major_road","sort_rank":381,"kind_detail":"trunk","ref":"251","min_zoom":8.0},"arcs":[[201],[202],[203],[204],[205],[206],[207]]},{"type":"MultiLineString","properties":{"source":"openstreetmap.org","kind":"major_road","landuse_kind":"urban_area","sort_rank":380,"kind_detail":"primary","ref":"94","min_zoom":8.0},"arcs":[[208],[209]]},{"type":"MultiLineString","properties":{"source":"openstreetmap.org","kind":"major_road","kind_detail":"trunk","sort_rank":381,"landuse_kind":"urban_area","ref":"219","min_zoom":8.0},"arcs":[[210],[211]]},{"type":"LineString","properties":{"source":"openstreetmap.org","kind":"major_road","kind_detail":"trunk","sort_rank":381,"landuse_kind":"urban_area","ref":"266;445","min_zoom":8.0},"arcs":[212]},{"type":"MultiLineString","properties":{"source":"openstreetmap.org","kind":"highway","sort_rank":383,"kind_detail":"motorway","ref":"E3A","min_zoom":8.0,"official_name":"\u5357\u4e5d\u5dde\u897f\u56de\u308a\u81ea\u52d5\u8eca\u9053"},"arcs":[[213],[214],[215],[216],[217],[218],[219],[220]]},{"type":"MultiLineString","properties":{"source":"openstreetmap.org","kind":"major_road","sort_rank":380,"kind_detail":"primary","ref":"52","min_zoom":8.0},"arcs":[[221],[222],[223]]},{"type":"MultiLineString","properties":{"source":"openstreetmap.org","kind":"major_road","kind_detail":"trunk","sort_rank":381,"landuse_kind":"urban_area","ref":"34","min_zoom":8.0},"arcs":[[224],[225],[226]]},{"type":"LineString","properties":{"source":"openstreetmap.org","kind":"major_road","sort_rank":380,"kind_detail":"primary","ref":"57","min_zoom":8.0},"arcs":[227]},{"type":"MultiLineString","properties":{"kind":"major_road","name:en":"National Highway Route 57","network":"JP:national","sort_rank":381,"landuse_kind":"urban_area","source":"openstreetmap.org","min_zoom":8.0,"kind_detail":"trunk","shield_text":"57","osm_relation":true},"arcs":[[228],[229],[230],[231],[232],[233],[234],[235],[236],[237],[238],[239],[240],[241],[242],[243],[244],[245],[246],[247],[248],[249],[250],[251],[252],[253],[254],[255],[256],[257],[258]]},{"type":"MultiLineString","properties":{"source":"openstreetmap.org","kind":"major_road","landuse_kind":"urban_area","sort_rank":380,"kind_detail":"primary","ref":"3","min_zoom":8.0},"arcs":[[259],[260],[261],[262],[263]]},{"type":"MultiLineString","properties":{"source":"openstreetmap.org","kind":"major_road","landuse_kind":"urban_area","sort_rank":380,"kind_detail":"primary","ref":"28","min_zoom":8.0},"arcs":[[264],[265],[266],[267],[268],[269],[270],[271],[272],[273]]},{"type":"LineString","properties":{"kind":"highway","sort_rank":383,"landuse_kind":"urban_area","source":"openstreetmap.org","min_zoom":8.0,"kind_detail":"motorway","ref":"324","id":173548782},"arcs":[274]},{"type":"MultiLineString","properties":{"source":"openstreetmap.org","kind":"major_road","sort_rank":380,"kind_detail":"primary","ref":"60","min_zoom":8.0},"arcs":[[275],[276],[277]]},{"type":"MultiLineString","properties":{"source":"openstreetmap.org","kind":"major_road","landuse_kind":"urban_area","sort_rank":380,"kind_detail":"primary","ref":"6","min_zoom":8.0},"arcs":[[278],[279],[280],[281]]},{"type":"LineString","properties":{"kind":"major_road","name:en":"National Highway Route 34","network":"JP:national","sort_rank":381,"kind_detail":"trunk","source":"openstreetmap.org","min_zoom":8.0,"shield_text":"34","osm_relation":true},"arcs":[282]},{"type":"MultiLineString","properties":{"source":"openstreetmap.org","kind":"major_road","landuse_kind":"urban_area","sort_rank":380,"kind_detail":"primary","ref":"50","min_zoom":8.0},"arcs":[[283],[284],[285],[286]]},{"type":"MultiLineString","properties":{"source":"openstreetmap.org","kind":"highway","landuse_kind":"urban_area","sort_rank":383,"kind_detail":"motorway","ref":"E34","min_zoom":8.0},"arcs":[[287],[288],[289],[290],[291],[292],[293]]},{"type":"MultiLineString","properties":{"source":"openstreetmap.org","kind":"highway","landuse_kind":"urban_area","sort_rank":383,"kind_detail":"motorway","ref":"E3A","min_zoom":8.0},"arcs":[[294],[295],[296],[297],[298]]},{"type":"LineString","properties":{"source":"openstreetmap.org","kind":"ferry","name":"\u5357\u56fd\u6d77\u904b","sort_rank":355,"min_zoom":8.0,"id":333054871},"arcs":[299]},{"type":"LineString","properties":{"source":"openstreetmap.org","kind":"ferry","name":"Nagasaki to Ioujima Ferry","sort_rank":355,"landuse_kind":"urban_area","min_zoom":8.0,"id":165379032},"arcs":[300]},{"type":"MultiLineString","properties":{"source":"openstreetmap.org","kind":"major_road","landuse_kind":"urban_area","sort_rank":380,"kind_detail":"primary","ref":"93","min_zoom":8.0},"arcs":[[301],[302],[303],[304]]},{"type":"MultiLineString","properties":{"kind":"highway","network":null,"sort_rank":383,"kind_detail":"motorway","source":"openstreetmap.org","min_zoom":8.0,"all_networks":[null],"shield_text":"3","ref":"E3","all_shield_texts":["3"]},"arcs":[[305],[306],[307],[308],[309],[310],[311],[312],[313],[314],[315],[316],[317],[318],[319],[320]]},{"type":"MultiLineString","properties":{"source":"openstreetmap.org","kind":"major_road","sort_rank":380,"kind_detail":"primary","ref":"4","min_zoom":8.0},"arcs":[[321],[322],[323],[324],[325],[326],[327]]},{"type":"MultiLineString","properties":{"source":"openstreetmap.org","kind":"major_road","sort_rank":380,"kind_detail":"primary","ref":"48","min_zoom":8.0},"arcs":[[328],[329],[330]]},{"type":"LineString","properties":{"kind":"highway","int_name":"KYUSHU EXPWY","sort_rank":383,"kind_detail":"motorway","source":"openstreetmap.org","min_zoom":8.0,"landuse_kind":"urban_area","ref":"E3","id":168817726},"arcs":[331]},{"type":"MultiLineString","properties":{"source":"openstreetmap.org","kind":"major_road","landuse_kind":"urban_area","sort_rank":380,"kind_detail":"primary","ref":"55","min_zoom":8.0},"arcs":[[332],[333],[334],[335],[336],[337]]},{"type":"LineString","properties":{"source":"openstreetmap.org","kind":"major_road","kind_detail":"trunk","sort_rank":381,"landuse_kind":"urban_area","ref":"387","min_zoom":8.0},"arcs":[338]},{"type":"MultiLineString","properties":{"source":"openstreetmap.org","kind":"major_road","landuse_kind":"urban_area","sort_rank":380,"kind_detail":"primary","ref":"22","min_zoom":8.0},"arcs":[[339],[340],[341]]},{"type":"LineString","properties":{"source":"openstreetmap.org","kind":"major_road","sort_rank":380,"kind_detail":"primary","ref":"27","min_zoom":8.0},"arcs":[342]},{"type":"LineString","properties":{"source":"openstreetmap.org","kind":"ferry","int_name":"Ikeshima-Kounoura Ferry","name":"\u6c60\u5cf6\u30fb\u795e\u6d66\u30d5\u30a7\u30ea\u30fc","sort_rank":355,"min_zoom":8.0,"id":166962936},"arcs":[343]},{"type":"LineString","properties":{"source":"openstreetmap.org","kind":"major_road","landuse_kind":"urban_area","sort_rank":380,"kind_detail":"primary","ref":"113","min_zoom":8.0},"arcs":[344]},{"type":"LineString","properties":{"source":"openstreetmap.org","kind":"major_road","landuse_kind":"urban_area","sort_rank":380,"kind_detail":"primary","ref":"24","min_zoom":8.0},"arcs":[345]},{"type":"MultiLineString","properties":{"source":"openstreetmap.org","kind":"major_road","landuse_kind":"urban_area","sort_rank":380,"kind_detail":"primary","ref":"45","min_zoom":8.0},"arcs":[[346],[347],[348],[349],[350],[351],[352]]},{"type":"MultiLineString","properties":{"source":"openstreetmap.org","kind":"major_road","landuse_kind":"urban_area","sort_rank":380,"kind_detail":"primary","ref":"5","min_zoom":8.0},"arcs":[[353],[354]]},{"type":"MultiLineString","properties":{"source":"openstreetmap.org","kind":"major_road","kind_detail":"trunk","sort_rank":381,"landuse_kind":"urban_area","ref":"208","min_zoom":8.0},"arcs":[[355],[356],[357],[358],[359],[360],[361],[362],[363],[364],[365],[366],[367],[368],[369]]},{"type":"MultiLineString","properties":{"kind":"highway","name:en":"Nagasaki Motorway","network":null,"sort_rank":383,"landuse_kind":"urban_area","source":"openstreetmap.org","min_zoom":8.0,"int_name":"NAGASAKI EXPWY","all_networks":[null],"kind_detail":"motorway","shield_text":"34","ref":"E34","all_shield_texts":["34"]},"arcs":[[370],[371],[372],[373],[374],[375],[376],[377],[378],[379],[380],[381],[382],[383]]},{"type":"MultiLineString","properties":{"source":"openstreetmap.org","kind":"major_road","kind_detail":"trunk","sort_rank":381,"landuse_kind":"urban_area","ref":"267","min_zoom":8.0},"arcs":[[384],[385],[386]]},{"type":"LineString","properties":{"source":"openstreetmap.org","kind":"major_road","landuse_kind":"urban_area","sort_rank":380,"kind_detail":"primary","ref":"25","min_zoom":8.0},"arcs":[387]},{"type":"MultiLineString","properties":{"kind":"major_road","network":"JP:national","sort_rank":381,"kind_detail":"trunk","source":"openstreetmap.org","min_zoom":8.0,"shield_text":"3","ref":"3"},"arcs":[[388],[389],[390],[391],[392],[393]]},{"type":"MultiLineString","properties":{"source":"openstreetmap.org","kind":"major_road","kind_detail":"trunk","sort_rank":381,"landuse_kind":"urban_area","ref":"206","min_zoom":8.0},"arcs":[[394],[395],[396],[397],[398],[399],[400],[401]]},{"type":"MultiLineString","properties":{"source":"openstreetmap.org","kind":"major_road","landuse_kind":"urban_area","sort_rank":380,"kind_detail":"primary","ref":"52","min_zoom":8.0},"arcs":[[402],[403],[404]]},{"type":"MultiLineString","properties":{"kind":"major_road","network":"JP:national","sort_rank":381,"landuse_kind":"urban_area","source":"openstreetmap.org","min_zoom":8.0,"kind_detail":"trunk","shield_text":"57","ref":"57"},"arcs":[[405],[406],[407],[408],[409],[410],[411],[412],[413]]},{"type":"MultiLineString","properties":{"source":"openstreetmap.org","kind":"major_road","landuse_kind":"urban_area","sort_rank":380,"kind_detail":"primary","ref":"1","min_zoom":8.0},"arcs":[[414],[415],[416],[417],[418]]},{"type":"MultiLineString","properties":{"source":"openstreetmap.org","kind":"major_road","landuse_kind":"urban_area","sort_rank":380,"kind_detail":"primary","ref":"53","min_zoom":8.0},"arcs":[[419],[420]]},{"type":"MultiLineString","properties":{"kind":"highway","network":null,"sort_rank":383,"landuse_kind":"urban_area","source":"openstreetmap.org","min_zoom":8.0,"all_networks":[null],"kind_detail":"motorway","shield_text":"3","ref":"E3","all_shield_texts":["3"]},"arcs":[[421],[422],[423],[424],[425],[426],[427],[428],[429],[430],[431],[432],[433],[434],[435],[436],[437],[438],[439],[440],[441],[442],[443],[444],[445]]},{"type":"MultiLineString","properties":{"source":"openstreetmap.org","kind":"major_road","kind_detail":"trunk","sort_rank":381,"landuse_kind":"urban_area","ref":"3","min_zoom":8.0},"arcs":[[446],[447],[448],[449],[450],[451],[452],[453]]},{"type":"MultiLineString","properties":{"source":"openstreetmap.org","kind":"major_road","kind_detail":"trunk","sort_rank":381,"landuse_kind":"urban_area","ref":"266","min_zoom":8.0},"arcs":[[454],[455]]},{"type":"LineString","properties":{"kind":"highway","network":"JP:national","sort_rank":383,"kind_detail":"motorway","official_name":"\u5357\u4e5d\u5dde\u897f\u56de\u308a\u81ea\u52d5\u8eca\u9053","source":"openstreetmap.org","min_zoom":8.0,"all_networks":["JP:national"],"shield_text":"3","ref":"E3A","id":400348567,"all_shield_texts":["3"]},"arcs":[456]},{"type":"MultiLineString","properties":{"source":"openstreetmap.org","kind":"major_road","sort_rank":380,"kind_detail":"primary","ref":"3","min_zoom":8.0},"arcs":[[457],[458],[459]]},{"type":"MultiLineString","properties":{"kind":"major_road","network":"JP:national","sort_rank":381,"landuse_kind":"urban_area","source":"openstreetmap.org","min_zoom":8.0,"kind_detail":"trunk","shield_text":"34","ref":"34"},"arcs":[[460],[461],[462],[463],[464],[465],[466],[467],[468],[469]]},{"type":"LineString","properties":{"source":"openstreetmap.org","kind":"major_road","kind_detail":"trunk","sort_rank":381,"landuse_kind":"urban_area","ref":"325","min_zoom":8.0},"arcs":[470]},{"type":"LineString","properties":{"source":"openstreetmap.org","kind":"highway","int_name":"KYUSHU EXPWY","sort_rank":383,"kind_detail":"motorway","ref":"E3","min_zoom":8.0},"arcs":[471]},{"type":"LineString","properties":{"kind":"major_road","name:ja":"\u56fd\u9053444\u53f7","sort_rank":381,"landuse_kind":"urban_area","source":"openstreetmap.org","min_zoom":8.0,"kind_detail":"trunk","ref":"444"},"arcs":[472]},{"type":"MultiLineString","properties":{"kind":"highway","int_name":"KYUSHU EXPWY","network":null,"sort_rank":383,"landuse_kind":"urban_area","source":"openstreetmap.org","min_zoom":8.0,"all_networks":[null],"kind_detail":"motorway","shield_text":"3","ref":"E3","all_shield_texts":["3"]},"arcs":[[473],[474],[475],[476],[477],[478],[479],[480],[481],[482],[483],[484],[485],[486],[487],[488],[489],[490],[491],[492],[493],[494],[495],[496],[497],[498],[499],[500],[501],[502],[503],[504],[505]]},{"type":"LineString","properties":{"source":"openstreetmap.org","kind":"major_road","sort_rank":380,"kind_detail":"primary","ref":"38","min_zoom":8.0},"arcs":[506]},{"type":"MultiLineString","properties":{"kind":"highway","network":"JP:national","sort_rank":383,"landuse_kind":"urban_area","source":"openstreetmap.org","min_zoom":8.0,"all_networks":["JP:national"],"kind_detail":"motorway","shield_text":"34","ref":"E96","all_shield_texts":["34"]},"arcs":[[507],[508],[509],[510],[511],[512],[513],[514],[515],[516],[517],[518],[519]]},{"type":"LineString","properties":{"source":"openstreetmap.org","kind":"major_road","kind_detail":"trunk","sort_rank":381,"landuse_kind":"urban_area","ref":"328","min_zoom":8.0},"arcs":[520]},{"type":"LineString","properties":{"source":"openstreetmap.org","kind":"major_road","sort_rank":381,"kind_detail":"trunk","ref":"444","min_zoom":8.0},"arcs":[521]},{"type":"LineString","properties":{"source":"openstreetmap.org","kind":"major_road","sort_rank":380,"kind_detail":"primary","ref":"37","min_zoom":8.0},"arcs":[522]},{"type":"MultiLineString","properties":{"source":"openstreetmap.org","kind":"major_road","sort_rank":381,"kind_detail":"trunk","ref":"202","min_zoom":8.0},"arcs":[[523],[524],[525],[526]]},{"type":"LineString","properties":{"source":"openstreetmap.org","kind":"major_road","landuse_kind":"urban_area","sort_rank":380,"kind_detail":"primary","ref":"49","min_zoom":8.0},"arcs":[527]},{"type":"MultiLineString","properties":{"source":"openstreetmap.org","kind":"major_road","sort_rank":380,"kind_detail":"primary","ref":"30","min_zoom":8.0},"arcs":[[528],[529],[530]]},{"type":"MultiLineString","properties":{"source":"openstreetmap.org","kind":"major_road","kind_detail":"trunk","sort_rank":381,"landuse_kind":"urban_area","ref":"443","min_zoom":8.0},"arcs":[[531],[532],[533],[534],[535]]},{"type":"LineString","properties":{"source":"openstreetmap.org","kind":"major_road","sort_rank":380,"kind_detail":"primary","ref":"25","min_zoom":8.0},"arcs":[536]},{"type":"MultiLineString","properties":{"source":"openstreetmap.org","kind":"major_road","sort_rank":380,"kind_detail":"primary","ref":"46","min_zoom":8.0},"arcs":[[537],[538]]},{"type":"MultiLineString","properties":{"source":"openstreetmap.org","kind":"major_road","sort_rank":380,"kind_detail":"primary","ref":"42","min_zoom":8.0},"arcs":[[539],[540]]},{"type":"MultiLineString","properties":{"source":"openstreetmap.org","kind":"major_road","sort_rank":381,"kind_detail":"trunk","ref":"499","min_zoom":8.0},"arcs":[[541],[542],[543],[544]]},{"type":"MultiLineString","properties":{"source":"openstreetmap.org","kind":"major_road","sort_rank":380,"kind_detail":"primary","ref":"9","min_zoom":8.0},"arcs":[[545],[546],[547],[548]]},{"type":"LineString","properties":{"source":"openstreetmap.org","kind":"major_road","sort_rank":380,"kind_detail":"primary","ref":"12","min_zoom":8.0},"arcs":[549]},{"type":"MultiLineString","properties":{"kind":"major_road","name:en":"National Highway Route 57","network":"JP:national","sort_rank":381,"kind_detail":"trunk","source":"openstreetmap.org","min_zoom":8.0,"shield_text":"57","osm_relation":true},"arcs":[[550],[551]]},{"type":"LineString","properties":{"kind":"highway","name:en":"GAMADASU ROAD","sort_rank":383,"landuse_kind":"urban_area","source":"openstreetmap.org","min_zoom":8.0,"kind_detail":"motorway","ref":"58"},"arcs":[552]},{"type":"MultiLineString","properties":{"kind":"major_road","network":"JP:national","sort_rank":381,"kind_detail":"trunk","source":"openstreetmap.org","min_zoom":8.0,"shield_text":"57","ref":"57"},"arcs":[[553],[554],[555]]},{"type":"MultiLineString","properties":{"source":"openstreetmap.org","kind":"major_road","sort_rank":381,"kind_detail":"trunk","ref":"268","min_zoom":8.0},"arcs":[[556],[557],[558]]},{"type":"MultiLineString","properties":{"kind":"major_road","name:en":"National Highway Route 34","network":"JP:national","sort_rank":381,"landuse_kind":"urban_area","source":"openstreetmap.org","min_zoom":8.0,"kind_detail":"trunk","shield_text":"34","osm_relation":true},"arcs":[[559],[560],[561],[562],[563],[564],[565],[566],[567],[568],[569]]},{"type":"LineString","properties":{"source":"openstreetmap.org","kind":"ferry","name":"\u9577\u6d32-\u591a\u6bd4\u826f","sort_rank":355,"min_zoom":8.0,"id":169099488},"arcs":[570]},{"type":"MultiLineString","properties":{"source":"openstreetmap.org","kind":"major_road","sort_rank":381,"kind_detail":"trunk","ref":"443","min_zoom":8.0},"arcs":[[571],[572],[573],[574],[575],[576]]},{"type":"MultiLineString","properties":{"source":"openstreetmap.org","kind":"major_road","sort_rank":381,"kind_detail":"trunk","ref":"324","min_zoom":8.0},"arcs":[[577],[578],[579],[580],[581]]},{"type":"MultiLineString","properties":{"kind":"major_road","network":"JP:national","sort_rank":381,"landuse_kind":"urban_area","source":"openstreetmap.org","min_zoom":8.0,"kind_detail":"trunk","shield_text":"324","ref":"324"},"arcs":[[582],[583],[584]]},{"type":"LineString","properties":{"source":"openstreetmap.org","kind":"major_road","sort_rank":380,"kind_detail":"primary","ref":"16","min_zoom":8.0},"arcs":[585]},{"type":"LineString","properties":{"source":"openstreetmap.org","kind":"major_road","landuse_kind":"urban_area","sort_rank":380,"kind_detail":"primary","ref":"9","min_zoom":8.0},"arcs":[586]},{"type":"MultiLineString","properties":{"kind":"major_road","network":"JP:national","sort_rank":381,"landuse_kind":"urban_area","source":"openstreetmap.org","min_zoom":8.0,"kind_detail":"trunk","shield_text":"57","ref":"34"},"arcs":[[587],[588]]},{"type":"LineString","properties":{"source":"openstreetmap.org","kind":"ferry","name":"Nagasaki to Ioujima Ferry","sort_rank":355,"min_zoom":8.0,"id":165379032},"arcs":[589]},{"type":"LineString","properties":{"kind":"highway","network":null,"sort_rank":383,"kind_detail":"motorway","official_name":"\u5357\u4e5d\u5dde\u897f\u56de\u308a\u81ea\u52d5\u8eca\u9053","source":"openstreetmap.org","min_zoom":8.0,"all_networks":[null],"shield_text":"3A","ref":"E3A","all_shield_texts":["3A"]},"arcs":[590]},{"type":"MultiLineString","properties":{"source":"openstreetmap.org","kind":"major_road","sort_rank":381,"kind_detail":"trunk","ref":"206","min_zoom":8.0},"arcs":[[591],[592],[593],[594]]},{"type":"MultiLineString","properties":{"source":"openstreetmap.org","kind":"major_road","landuse_kind":"urban_area","sort_rank":380,"kind_detail":"primary","ref":"34","min_zoom":8.0},"arcs":[[595],[596],[597],[598],[599],[600],[601]]},{"type":"MultiLineString","properties":{"kind":"major_road","network":"JP:national","sort_rank":381,"kind_detail":"trunk","source":"openstreetmap.org","min_zoom":8.0,"shield_text":"34","ref":"34"},"arcs":[[602],[603]]},{"type":"LineString","properties":{"source":"openstreetmap.org","kind":"highway","sort_rank":383,"kind_detail":"motorway","ref":"324","min_zoom":8.0},"arcs":[604]},{"type":"LineString","properties":{"source":"openstreetmap.org","kind":"major_road","sort_rank":380,"kind_detail":"primary","ref":"28","min_zoom":8.0},"arcs":[605]},{"type":"MultiLineString","properties":{"kind":"highway","int_name":"MINAMI-KYUSHU EXPWY","sort_rank":383,"landuse_kind":"urban_area","official_name":"\u5357\u4e5d\u5dde\u897f\u56de\u308a\u81ea\u52d5\u8eca\u9053","source":"openstreetmap.org","min_zoom":8.0,"kind_detail":"motorway","ref":"E3A"},"arcs":[[606],[607],[608],[609],[610]]},{"type":"MultiLineString","properties":{"kind":"highway","name:en":"GAMADASU ROAD","sort_rank":383,"landuse_kind":"urban_area","source":"openstreetmap.org","min_zoom":8.0,"kind_detail":"motorway","ref":"251"},"arcs":[[611],[612]]},{"type":"MultiLineString","properties":{"sort_rank":381,"source":"openstreetmap.org","min_zoom":8.0,"kind":"major_road","kind_detail":"trunk"},"arcs":[[613],[614],[615],[616],[617],[618],[619],[620],[621]]},{"type":"MultiLineString","properties":{"source":"openstreetmap.org","kind":"highway","sort_rank":383,"kind_detail":"motorway","ref":"E3A","min_zoom":8.0},"arcs":[[622],[623],[624],[625],[626]]},{"type":"MultiLineString","properties":{"kind":"highway","network":"JP:national","sort_rank":383,"landuse_kind":"urban_area","source":"openstreetmap.org","min_zoom":8.0,"all_networks":["JP:national"],"kind_detail":"motorway","shield_text":"34","all_shield_texts":["34"]},"arcs":[[627],[628],[629],[630],[631],[632],[633],[634],[635]]},{"type":"MultiLineString","properties":{"source":"openstreetmap.org","kind":"major_road","landuse_kind":"urban_area","sort_rank":380,"kind_detail":"primary","ref":"38","min_zoom":8.0},"arcs":[[636],[637],[638],[639],[640],[641],[642]]},{"type":"MultiLineString","properties":{"kind":"highway","int_name":"NAGASAKI EXPWY","sort_rank":383,"kind_detail":"motorway","source":"openstreetmap.org","min_zoom":8.0,"landuse_kind":"urban_area","ref":"E34"},"arcs":[[643],[644],[645],[646],[647],[648]]},{"type":"LineString","properties":{"source":"openstreetmap.org","kind":"major_road","sort_rank":381,"kind_detail":"trunk","ref":"328","min_zoom":8.0},"arcs":[649]},{"type":"MultiLineString","properties":{"sort_rank":355,"source":"openstreetmap.org","min_zoom":8.0,"kind":"ferry"},"arcs":[[650],[651],[652],[653],[654],[655],[656],[657],[658],[659],[660],[661]]},{"type":"MultiLineString","properties":{"source":"openstreetmap.org","kind":"highway","landuse_kind":"urban_area","sort_rank":383,"kind_detail":"motorway","min_zoom":8.0},"arcs":[[662],[663],[664],[665],[666],[667],[668],[669],[670],[671],[672],[673],[674],[675],[676],[677],[678],[679],[680],[681],[682],[683],[684],[685],[686],[687],[688],[689],[690],[691],[692],[693],[694],[695],[696],[697],[698],[699],[700],[701],[702],[703]]},{"type":"MultiLineString","properties":{"source":"openstreetmap.org","kind":"major_road","kind_detail":"trunk","sort_rank":381,"landuse_kind":"urban_area","ref":"251","min_zoom":8.0},"arcs":[[704],[705],[706],[707],[708],[709]]},{"type":"MultiLineString","properties":{"source":"openstreetmap.org","kind":"major_road","landuse_kind":"urban_area","sort_rank":380,"kind_detail":"primary","ref":"17","min_zoom":8.0},"arcs":[[710],[711]]},{"type":"LineString","properties":{"source":"openstreetmap.org","kind":"ferry","name":"Nagasaki to Gunkanjima Tourist Ferry","sort_rank":355,"landuse_kind":"urban_area","min_zoom":8.0,"id":96772059},"arcs":[712]},{"type":"MultiLineString","properties":{"source":"openstreetmap.org","kind":"major_road","landuse_kind":"urban_area","sort_rank":380,"kind_detail":"primary","ref":"32","min_zoom":8.0},"arcs":[[713],[714],[715]]},{"type":"MultiLineString","properties":{"source":"openstreetmap.org","kind":"major_road","sort_rank":380,"kind_detail":"primary","ref":"35","min_zoom":8.0},"arcs":[[716],[717]]},{"type":"MultiLineString","properties":{"source":"openstreetmap.org","kind":"major_road","sort_rank":381,"kind_detail":"trunk","ref":"267","min_zoom":8.0},"arcs":[[718],[719],[720]]},{"type":"MultiLineString","properties":{"source":"openstreetmap.org","kind":"major_road","kind_detail":"trunk","sort_rank":381,"landuse_kind":"urban_area","ref":"445","min_zoom":8.0},"arcs":[[721],[722],[723]]},{"type":"LineString","properties":{"source":"openstreetmap.org","kind":"major_road","landuse_kind":"urban_area","sort_rank":380,"kind_detail":"primary","ref":"15","min_zoom":8.0},"arcs":[724]},{"type":"MultiLineString","properties":{"source":"openstreetmap.org","kind":"major_road","sort_rank":380,"kind_detail":"primary","ref":"58","min_zoom":8.0},"arcs":[[725],[726],[727],[728]]},{"type":"LineString","properties":{"source":"openstreetmap.org","kind":"major_road","landuse_kind":"urban_area","sort_rank":380,"kind_detail":"primary","ref":"47","min_zoom":8.0},"arcs":[729]},{"type":"MultiLineString","properties":{"source":"openstreetmap.org","kind":"major_road","sort_rank":380,"kind_detail":"primary","ref":"17","min_zoom":8.0},"arcs":[[730],[731],[732]]},{"type":"LineString","properties":{"kind":"major_road","network":"JP:national","sort_rank":381,"kind_detail":"trunk","source":"openstreetmap.org","min_zoom":8.0,"shield_text":"57","id":158459336},"arcs":[733]},{"type":"LineString","properties":{"source":"openstreetmap.org","kind":"major_road","kind_detail":"trunk","sort_rank":381,"landuse_kind":"urban_area","ref":"498","min_zoom":8.0},"arcs":[734]},{"type":"LineString","properties":{"source":"openstreetmap.org","kind":"major_road","sort_rank":380,"kind_detail":"primary","ref":"40","min_zoom":8.0},"arcs":[735]},{"type":"MultiLineString","properties":{"source":"openstreetmap.org","kind":"major_road","landuse_kind":"urban_area","sort_rank":380,"kind_detail":"primary","ref":"18","min_zoom":8.0},"arcs":[[736],[737],[738],[739],[740],[741],[742],[743],[744],[745],[746],[747],[748]]},{"type":"MultiLineString","properties":{"sort_rank":383,"kind_detail":"motorway","min_zoom":8.0,"kind":"highway","source":"openstreetmap.org"},"arcs":[[749],[750],[751],[752],[753],[754],[755],[756]]},{"type":"MultiLineString","properties":{"source":"openstreetmap.org","kind":"major_road","sort_rank":380,"kind_detail":"primary","ref":"59","min_zoom":8.0},"arcs":[[757],[758],[759],[760]]},{"type":"MultiLineString","properties":{"source":"openstreetmap.org","kind":"major_road","kind_detail":"trunk","sort_rank":381,"landuse_kind":"urban_area","ref":"444","min_zoom":8.0},"arcs":[[761],[762],[763],[764]]},{"type":"LineString","properties":{"source":"openstreetmap.org","kind":"major_road","landuse_kind":"urban_area","sort_rank":380,"kind_detail":"primary","ref":"58","min_zoom":8.0},"arcs":[765]},{"type":"LineString","properties":{"source":"openstreetmap.org","kind":"major_road","landuse_kind":"urban_area","sort_rank":380,"kind_detail":"primary","ref":"56","min_zoom":8.0},"arcs":[766]},{"type":"MultiLineString","properties":{"source":"openstreetmap.org","kind":"major_road","landuse_kind":"urban_area","sort_rank":380,"kind_detail":"primary","ref":"41","min_zoom":8.0},"arcs":[[767],[768],[769],[770],[771],[772]]},{"type":"MultiLineString","properties":{"source":"openstreetmap.org","kind":"major_road","sort_rank":381,"kind_detail":"trunk","ref":"207","min_zoom":8.0},"arcs":[[773],[774],[775],[776],[777],[778],[779]]},{"type":"LineString","properties":{"kind":"highway","network":"JP:national","sort_rank":383,"kind_detail":"motorway","source":"openstreetmap.org","min_zoom":8.0,"all_networks":["JP:national"],"shield_text":"34","ref":"E96;34","id":35566367,"all_shield_texts":["34"]},"arcs":[780]},{"type":"LineString","properties":{"source":"openstreetmap.org","kind":"major_road","landuse_kind":"urban_area","sort_rank":380,"kind_detail":"primary","ref":"83","min_zoom":8.0},"arcs":[781]},{"type":"LineString","properties":{"source":"openstreetmap.org","kind":"ferry","name":"\u53e3\u4e4b\u6d25 - \u9b3c\u6c60","sort_rank":355,"min_zoom":8.0,"id":411009793},"arcs":[782]},{"type":"MultiLineString","properties":{"source":"openstreetmap.org","kind":"major_road","landuse_kind":"urban_area","sort_rank":380,"kind_detail":"primary","ref":"46","min_zoom":8.0},"arcs":[[783],[784]]},{"type":"LineString","properties":{"source":"openstreetmap.org","kind":"major_road","kind_detail":"trunk","sort_rank":381,"landuse_kind":"urban_area","ref":"218","min_zoom":8.0},"arcs":[785]},{"type":"LineString","properties":{"source":"openstreetmap.org","kind":"major_road","sort_rank":380,"kind_detail":"primary","ref":"45","min_zoom":8.0},"arcs":[786]},{"type":"MultiLineString","properties":{"source":"openstreetmap.org","kind":"major_road","kind_detail":"trunk","sort_rank":381,"landuse_kind":"urban_area","ref":"504","min_zoom":8.0},"arcs":[[787],[788]]},{"type":"LineString","properties":{"source":"openstreetmap.org","kind":"major_road","sort_rank":380,"kind_detail":"primary","ref":"32","min_zoom":8.0},"arcs":[789]},{"type":"LineString","properties":{"source":"openstreetmap.org","kind":"highway","sort_rank":383,"kind_detail":"motorway","ref":"504","min_zoom":8.0},"arcs":[790]},{"type":"MultiLineString","properties":{"kind":"highway","int_name":"MINAMI-KYUSHU EXPWY","sort_rank":383,"kind_detail":"motorway","official_name":"\u5357\u4e5d\u5dde\u897f\u56de\u308a\u81ea\u52d5\u8eca\u9053","source":"openstreetmap.org","min_zoom":8.0,"ref":"E3A"},"arcs":[[791],[792]]},{"type":"MultiLineString","properties":{"source":"openstreetmap.org","kind":"major_road","sort_rank":380,"kind_detail":"primary","ref":"243","min_zoom":8.0},"arcs":[[793],[794],[795],[796]]},{"type":"MultiLineString","properties":{"source":"openstreetmap.org","kind":"major_road","sort_rank":380,"kind_detail":"primary","ref":"44","min_zoom":8.0},"arcs":[[797],[798],[799]]},{"type":"MultiLineString","properties":{"source":"openstreetmap.org","kind":"major_road","landuse_kind":"urban_area","sort_rank":380,"kind_detail":"primary","ref":"51","min_zoom":8.0},"arcs":[[800],[801],[802],[803],[804],[805],[806],[807],[808],[809],[810],[811],[812],[813],[814],[815]]},{"type":"MultiLineString","properties":{"kind":"highway","network":"JP:national","sort_rank":383,"kind_detail":"motorway","source":"openstreetmap.org","min_zoom":8.0,"all_shield_texts":["34"],"shield_text":"34","osm_relation":true,"all_networks":["JP:national"]},"arcs":[[816],[817]]},{"type":"MultiLineString","properties":{"source":"openstreetmap.org","kind":"major_road","sort_rank":380,"kind_detail":"primary","ref":"47","min_zoom":8.0},"arcs":[[818],[819],[820],[821],[822],[823],[824],[825],[826],[827],[828]]},{"type":"LineString","properties":{"kind":"major_road","sort_rank":381,"landuse_kind":"urban_area","source":"openstreetmap.org","min_zoom":8.0,"kind_detail":"trunk","ref":"268; 447; 268; 268; 268; 268; 268","id":124152739},"arcs":[829]},{"type":"MultiLineString","properties":{"kind":"major_road","network":"JP:national","sort_rank":381,"landuse_kind":"urban_area","source":"openstreetmap.org","min_zoom":8.0,"kind_detail":"trunk","shield_text":"3","osm_relation":true},"arcs":[[830],[831],[832],[833],[834],[835]]},{"type":"MultiLineString","properties":{"source":"openstreetmap.org","kind":"major_road","landuse_kind":"urban_area","sort_rank":380,"kind_detail":"primary","ref":"54","min_zoom":8.0},"arcs":[[836],[837]]},{"type":"LineString","properties":{"source":"openstreetmap.org","kind":"major_road","sort_rank":380,"kind_detail":"primary","ref":"10","min_zoom":8.0},"arcs":[838]},{"type":"MultiLineString","properties":{"source":"openstreetmap.org","kind":"major_road","sort_rank":380,"kind_detail":"primary","ref":"53","min_zoom":8.0},"arcs":[[839],[840]]},{"type":"LineString","properties":{"source":"openstreetmap.org","kind":"major_road","sort_rank":380,"kind_detail":"primary","ref":"33","min_zoom":8.0},"arcs":[841]},{"type":"MultiLineString","properties":{"source":"openstreetmap.org","kind":"major_road","sort_rank":380,"kind_detail":"primary","ref":"18","min_zoom":8.0},"arcs":[[842],[843],[844],[845]]},{"type":"MultiLineString","properties":{"source":"openstreetmap.org","kind":"major_road","sort_rank":381,"kind_detail":"trunk","ref":"266","min_zoom":8.0},"arcs":[[846],[847],[848],[849],[850],[851],[852],[853],[854],[855],[856],[857],[858]]},{"type":"LineString","properties":{"kind":"highway","int_name":"MINAMI-KYUSHU EXPWY","network":null,"sort_rank":383,"kind_detail":"motorway","official_name":"\u5357\u4e5d\u5dde\u897f\u56de\u308a\u81ea\u52d5\u8eca\u9053","source":"openstreetmap.org","min_zoom":8.0,"all_networks":[null],"shield_text":"3A","ref":"E3A","id":479191501,"all_shield_texts":["3A"]},"arcs":[859]},{"type":"MultiLineString","properties":{"source":"openstreetmap.org","kind":"major_road","sort_rank":381,"kind_detail":"trunk","ref":"389","min_zoom":8.0},"arcs":[[860],[861],[862],[863],[864],[865]]},{"type":"LineString","properties":{"source":"openstreetmap.org","kind":"ferry","name":"\u725b\u6df1-\u9577\u5cf6","sort_rank":355,"min_zoom":8.0,"id":270360517},"arcs":[866]},{"type":"LineString","properties":{"source":"openstreetmap.org","kind":"major_road","kind_detail":"trunk","sort_rank":381,"landuse_kind":"urban_area","ref":"209","min_zoom":8.0},"arcs":[867]},{"type":"MultiLineString","properties":{"source":"openstreetmap.org","kind":"major_road","landuse_kind":"urban_area","sort_rank":380,"kind_detail":"primary","min_zoom":8.0},"arcs":[[868],[869],[870],[871],[872],[873],[874],[875],[876],[877]]},{"type":"MultiLineString","properties":{"source":"openstreetmap.org","kind":"major_road","sort_rank":380,"kind_detail":"primary","ref":"5","min_zoom":8.0},"arcs":[[878],[879]]},{"type":"LineString","properties":{"source":"openstreetmap.org","kind":"major_road","sort_rank":381,"kind_detail":"trunk","ref":"501","min_zoom":8.0},"arcs":[880]},{"type":"MultiLineString","properties":{"source":"openstreetmap.org","kind":"major_road","landuse_kind":"urban_area","sort_rank":380,"kind_detail":"primary","ref":"16","min_zoom":8.0},"arcs":[[881],[882],[883],[884],[885]]},{"type":"MultiLineString","properties":{"source":"openstreetmap.org","kind":"major_road","sort_rank":381,"kind_detail":"trunk","ref":"205","min_zoom":8.0},"arcs":[[886],[887],[888]]},{"type":"MultiLineString","properties":{"source":"openstreetmap.org","kind":"highway","sort_rank":383,"kind_detail":"motorway","ref":"251","min_zoom":8.0},"arcs":[[889],[890]]},{"type":"LineString","properties":{"kind":"highway","network":"JP:national","sort_rank":383,"kind_detail":"motorway","source":"openstreetmap.org","min_zoom":8.0,"all_networks":["JP:national"],"landuse_kind":"urban_area","shield_text":"34","ref":"E96;34","id":35566367,"all_shield_texts":["34"]},"arcs":[891]},{"type":"MultiLineString","properties":{"source":"openstreetmap.org","kind":"major_road","sort_rank":381,"kind_detail":"trunk","ref":"447","min_zoom":8.0},"arcs":[[892],[893],[894],[895],[896],[897],[898],[899],[900],[901],[902],[903],[904],[905],[906],[907]]},{"type":"MultiLineString","properties":{"source":"openstreetmap.org","kind":"major_road","sort_rank":381,"kind_detail":"trunk","ref":"504","min_zoom":8.0},"arcs":[[908],[909]]},{"type":"MultiLineString","properties":{"source":"openstreetmap.org","kind":"major_road","kind_detail":"trunk","sort_rank":381,"landuse_kind":"urban_area","min_zoom":8.0},"arcs":[[910],[911],[912],[913],[914],[915],[916],[917],[918],[919],[920],[921],[922],[923],[924],[925],[926]]},{"type":"MultiLineString","properties":{"source":"openstreetmap.org","kind":"major_road","landuse_kind":"urban_area","sort_rank":380,"kind_detail":"primary","ref":"4","min_zoom":8.0},"arcs":[[927],[928],[929]]},{"type":"MultiLineString","properties":{"kind":"highway","network":"JP:national","sort_rank":383,"landuse_kind":"urban_area","source":"openstreetmap.org","min_zoom":8.0,"all_shield_texts":["34"],"kind_detail":"motorway","shield_text":"34","osm_relation":true,"all_networks":["JP:national"]},"arcs":[[930],[931],[932],[933],[934],[935],[936],[937],[938],[939],[940],[941],[942],[943],[944],[945],[946]]},{"type":"MultiLineString","properties":{"source":"openstreetmap.org","kind":"major_road","kind_detail":"trunk","sort_rank":381,"landuse_kind":"urban_area","ref":"202","min_zoom":8.0},"arcs":[[947],[948],[949],[950],[951],[952],[953],[954]]},{"type":"LineString","properties":{"source":"openstreetmap.org","kind":"major_road","sort_rank":381,"kind_detail":"trunk","ref":"219","min_zoom":8.0},"arcs":[955]},{"type":"LineString","properties":{"source":"openstreetmap.org","kind":"major_road","landuse_kind":"urban_area","sort_rank":380,"kind_detail":"primary","ref":"44","min_zoom":8.0},"arcs":[956]},{"type":"LineString","properties":{"kind":"highway","network":"JP:national","sort_rank":383,"kind_detail":"motorway","source":"openstreetmap.org","min_zoom":8.0,"all_networks":["JP:national"],"landuse_kind":"urban_area","shield_text":"34","ref":"34","id":195059069,"all_shield_texts":["34"]},"arcs":[957]},{"type":"MultiLineString","properties":{"source":"openstreetmap.org","kind":"major_road","kind_detail":"trunk","sort_rank":381,"landuse_kind":"urban_area","ref":"207","min_zoom":8.0},"arcs":[[958],[959],[960],[961],[962],[963],[964],[965],[966],[967],[968],[969],[970],[971],[972],[973],[974],[975],[976],[977],[978],[979],[980],[981],[982]]},{"type":"MultiLineString","properties":{"source":"openstreetmap.org","kind":"major_road","kind_detail":"trunk","sort_rank":381,"landuse_kind":"urban_area","ref":"268","min_zoom":8.0},"arcs":[[983],[984],[985]]},{"type":"MultiLineString","properties":{"source":"openstreetmap.org","kind":"major_road","kind_detail":"trunk","sort_rank":381,"landuse_kind":"urban_area","ref":"324","min_zoom":8.0},"arcs":[[986],[987],[988],[989],[990]]},{"type":"MultiLineString","properties":{"source":"openstreetmap.org","kind":"major_road","sort_rank":380,"kind_detail":"primary","ref":"24","min_zoom":8.0},"arcs":[[991],[992],[993],[994],[995]]},{"type":"MultiLineString","properties":{"kind":"highway","sort_rank":383,"landuse_kind":"urban_area","official_name":"\u5357\u4e5d\u5dde\u897f\u56de\u308a\u81ea\u52d5\u8eca\u9053","source":"openstreetmap.org","min_zoom":8.0,"kind_detail":"motorway","ref":"E3A"},"arcs":[[996],[997]]},{"type":"MultiLineString","properties":{"source":"openstreetmap.org","kind":"major_road","kind_detail":"trunk","sort_rank":381,"landuse_kind":"urban_area","ref":"389","min_zoom":8.0},"arcs":[[998],[999],[1000],[1001],[1002],[1003],[1004]]},{"type":"LineString","properties":{"source":"openstreetmap.org","kind":"ferry","name":"\u9577\u6d32-\u591a\u6bd4\u826f","sort_rank":355,"landuse_kind":"urban_area","min_zoom":8.0,"id":169099488},"arcs":[1005]},{"type":"LineString","properties":{"source":"openstreetmap.org","kind":"major_road","sort_rank":380,"kind_detail":"primary","ref":"13","min_zoom":8.0},"arcs":[1006]},{"type":"LineString","properties":{"kind":"major_road","network":"JP:national","sort_rank":381,"kind_detail":"trunk","source":"openstreetmap.org","min_zoom":8.0,"shield_text":"3","id":152938859},"arcs":[1007]},{"type":"MultiLineString","properties":{"source":"openstreetmap.org","kind":"highway","sort_rank":383,"kind_detail":"motorway","ref":"E3A","min_zoom":8.0,"osm_relation":true},"arcs":[[1008],[1009]]},{"type":"MultiLineString","properties":{"source":"openstreetmap.org","kind":"major_road","sort_rank":380,"kind_detail":"primary","ref":"34","min_zoom":8.0},"arcs":[[1010],[1011],[1012],[1013],[1014],[1015],[1016]]},{"type":"MultiLineString","properties":{"source":"openstreetmap.org","kind":"major_road","sort_rank":380,"kind_detail":"primary","ref":"15","min_zoom":8.0},"arcs":[[1017],[1018],[1019],[1020],[1021]]},{"type":"LineString","properties":{"source":"openstreetmap.org","kind":"ferry","name":"\u718a\u672c-\u5cf6\u539f","sort_rank":355,"min_zoom":8.0,"id":35565353},"arcs":[1022]},{"type":"MultiLineString","properties":{"source":"openstreetmap.org","kind":"major_road","kind_detail":"trunk","sort_rank":381,"landuse_kind":"urban_area","ref":"501","min_zoom":8.0},"arcs":[[1023],[1024],[1025],[1026],[1027],[1028]]}]},"earth":{"type":"GeometryCollection","geometries":[{"type":"MultiPolygon","properties":{"sort_rank":10,"source":"naturalearthdata.com","min_zoom":0.0,"kind":"earth","area":49770064350},"arcs":[[[1029]],[[1030]],[[1031]],[[1032]],[[1033]],[[1034]],[[1035]],[[1036]],[[1037]]]},{"type":"Point","properties":{"label_placement":true,"kind":"island","name:en":"Shimoshima","name":"\u4e0b\u5cf6","area":807217024,"source":"openstreetmap.org","min_zoom":8.0,"id":-5738083,"osm_relation":true,"name:ja":"\u3057\u3082\u3057\u307e"},"coordinates":[2121,1443]}]},"landuse":{"type":"GeometryCollection","geometries":[{"type":"MultiPolygon","properties":{"source":"naturalearthdata.com","kind":"urban_area","name":"","area":12692667550,"sort_rank":11,"min_zoom":4.0},"arcs":[[[1038]],[[1039]],[[1040]],[[1041]],[[1042]],[[1043]],[[1044]],[[1045]],[[1046],[1047]],[[1048]],[[1049]],[[1050]],[[1051]]]}]}},"type":"Topology","transform":{"translate":[129.375,31.952162238],"scale":[0.0003433228,0.0002894016]},"arcs":[[[0,14],[16,-14]],[[2510,1305],[-149,-119],[-57,-69],[-12,-63],[-52,-25],[-28,-62],[-97,-37],[-31,-89]],[[3919,514],[-191,120],[-10,54],[-84,17],[-41,108],[-49,-5],[15,-35],[-41,-72],[-119,-19],[-5,-44],[-101,13],[-40,-24],[-43,19],[-10,-71],[-58,-20],[-149,26],[-46,94],[-79,74],[-148,23],[-8,22]],[[2084,841],[-56,-64],[30,-100],[-129,-381],[-90,-92],[-255,1],[-317,129],[-1267,389]],[[2712,794],[-38,106],[92,119],[-120,189],[-41,19],[-54,112],[-41,-34]],[[4096,125],[-11,96],[-117,109],[-99,37],[0,64],[50,83]],[[0,14],[16,-14]],[[3919,514],[43,28],[20,-38],[28,21],[22,-25],[48,17],[16,-3]],[[2841,3412],[383,-545],[-5,-143],[-213,-265],[-125,-89],[-85,-11],[-119,-59],[-44,-180],[-36,-27],[-147,51],[-201,5],[-93,75],[-187,51],[-113,83],[-269,-231],[-57,-108]],[[1530,2019],[-29,-186],[-61,-84],[-113,-133],[-301,-231],[-345,-239],[-681,-293]],[[2852,3420],[-11,-8]],[[4096,4049],[-30,1],[-49,46]],[[3766,4096],[-39,-82],[15,-15],[-242,19],[-43,-37],[11,-59],[-71,-18],[-29,-62],[-42,5],[-63,-55],[60,-123],[-10,-23],[-293,-20],[-58,-119]],[[2962,3507],[-110,-87]],[[2841,3412],[-93,62]],[[2748,3474],[-1,-1]],[[2428,3447],[-22,32],[-148,12],[-18,32],[-161,8],[-37,47],[-43,-6],[-97,92],[0,26],[-38,-9],[-41,29],[-13,66],[-39,42],[-127,55],[-18,52],[-32,8],[13,60],[72,8],[15,28],[-16,67]],[[2747,3473],[-194,-135],[-125,109]],[[2744,3486],[4,-12]],[[2849,4096],[0,-45],[-96,-117]],[[2753,3934],[-63,-26],[-54,-224],[108,-198]],[[1417,2881],[33,27],[147,-10],[71,19],[86,125],[55,-7]],[[1443,2765],[-4,10]],[[1439,2775],[-14,24],[-5,31]],[[1439,2775],[-1,2]],[[1438,2777]],[[1444,2765],[-6,12]],[[1795,3039],[91,29]],[[1894,3070],[26,3]],[[1945,3092],[-8,-17]],[[1944,3093],[-5,20]],[[1943,3102],[1,27],[92,-8],[113,125],[208,97],[45,53],[25,173],[-50,16],[-67,209],[-106,128],[-97,74],[30,80],[43,12],[1,8]],[[905,4096],[-6,-22],[-62,-16],[12,-87],[20,9],[22,38],[46,-2],[22,-9],[11,26],[10,63],[33,0],[3,-17],[14,-36],[49,53],[39,0],[4,-27],[-41,-17],[-2,-29],[11,-63],[-30,10],[-17,2],[27,-87],[12,-38],[43,-29],[40,4],[34,43],[32,23],[72,-51],[4,-67],[30,0],[55,38],[83,30],[89,-91],[98,-72],[6,-71],[-25,-79],[-27,-51],[4,-99],[159,-227],[51,-62],[-45,-12],[-152,65],[-153,52],[-25,-51],[-17,-27],[-40,-19],[-13,-21],[-15,-11],[-10,21],[-30,21],[-26,28],[-23,16],[-59,41],[38,38],[-11,57],[-40,33],[-9,123],[25,0],[15,-82],[17,-32],[24,27],[4,53],[-7,83],[7,31],[21,30],[-32,53],[-45,52],[-89,28],[-42,-76],[-30,-17],[-17,44],[8,53],[42,78],[19,21],[-12,25],[-15,7],[-17,-19],[-19,-19],[-9,2],[-2,8],[4,31],[-2,8],[-43,65],[-112,52],[-53,-87],[-8,-101],[-26,-21],[-6,-57],[11,-45],[-21,-50],[-40,-36],[-4,-78],[21,-104],[39,-13],[28,-28],[24,-34],[11,-43],[4,-41],[11,-35],[25,-54],[32,-53],[67,-43],[34,-74],[34,15],[29,29],[48,-15],[16,-37],[7,-42],[17,-22],[25,-16],[31,-27],[59,-125],[-1,-49],[103,9],[-39,-81],[-33,-24],[-25,37],[-30,-11],[-19,-26],[-35,-7],[0,-26],[18,-23],[31,19],[13,-21],[-11,-51],[-29,-52],[-30,-53],[-33,-86],[-22,-23],[-40,-16],[-35,-15],[-45,-37],[18,-44],[27,15],[40,25],[39,-12],[18,-10],[9,33],[66,50],[69,63],[16,55],[10,27],[41,2],[56,31],[59,47],[25,64],[39,59],[74,105],[37,57],[-16,43],[27,25],[10,-10],[2,-31],[22,-29],[60,8],[51,27],[70,16],[51,45],[41,43],[87,35],[94,-21],[35,0],[29,23],[88,-9],[35,-32],[-13,-32],[-9,-18],[12,-24],[26,-17],[34,-18],[8,-65],[-26,-31],[-33,-35],[-37,-31],[-30,-25],[-39,-41],[-33,-14],[-41,6],[2,-78],[2,-69],[51,-25],[24,-29],[41,-22],[11,-54],[-21,-37],[45,-2],[49,37],[72,10],[25,14],[14,43],[51,8],[18,28],[-3,38],[27,23],[109,3],[105,55],[55,71],[-28,56],[11,46],[55,75],[6,31],[-3,111],[-7,46],[-61,140],[-35,78],[-94,68],[-185,-3],[-142,-105],[-48,-9],[-72,0],[-62,47],[-29,44],[-50,25],[30,15],[56,30],[42,26],[42,44],[73,21],[44,47],[1,76],[44,14],[9,70],[-54,57],[-126,216],[-45,106],[-38,59],[-13,66],[68,-32],[80,80],[12,9],[536,0],[4,-9],[-1,-30],[14,-39],[21,-25],[60,-44],[13,-7],[15,-1],[15,-4],[17,-14],[4,-17],[-1,-44],[19,-67],[-5,-150],[19,-226],[24,-62],[84,-48],[134,-143],[224,-182],[37,-67],[5,-22],[11,-16],[5,-14],[-11,-19],[-32,-44],[-13,-26],[-5,-24],[7,-37],[20,-41],[32,-34],[40,-16],[0,-26],[-28,-1],[-24,-5],[-47,-18],[-45,5],[-33,-18],[-61,-57],[-201,-103],[-53,-41],[-27,-47],[40,-22],[48,24],[476,91],[78,1],[-35,-86],[-44,-57],[-207,-182],[-16,-29],[9,-42],[67,-54],[24,-45],[-84,0],[-33,-13],[-24,-35],[50,-48],[10,-89],[-27,-86],[-62,-38],[-75,-104],[-14,-26],[11,-97],[-4,-42],[-27,-38],[-76,75],[-22,-6],[-23,-69],[-3,-31],[9,-31],[-6,-32],[-13,-18],[-38,-24],[-9,-18],[-29,-88],[-211,-230],[-3,-12],[3,-50],[-5,-11],[-25,-10],[-10,-13],[-1,-4],[-27,-92],[-10,-22],[-36,-36],[-61,-43],[-58,-18],[-88,114],[-121,-45],[-79,-94],[71,-72],[0,-84],[-52,-74],[-39,-32],[4,-65],[46,-44],[12,-18],[32,-32],[23,-67],[-2441,0],[0,4096],[394,0],[7,-3],[26,-3],[25,-18],[28,19],[24,-4],[0,9],[364,0],[2,-3],[18,-6],[1,9],[16,0]],[[2326,595],[50,139],[10,41],[-20,69],[-33,24],[-67,1],[-61,27],[-32,4],[-23,-17],[-6,-50],[12,-61],[23,-58],[30,-33],[-16,-59],[20,-49],[42,-26],[53,13],[18,35]],[[1930,796],[-25,30],[-20,-13],[-15,-32],[0,-22],[0,-14],[2,-23],[14,-2],[29,39],[34,-53],[2,17],[3,9],[-11,36],[-17,18],[10,3],[-6,7]],[[1855,824],[73,32],[70,41],[41,31],[64,84],[24,25],[66,32],[16,12],[57,133],[14,23],[69,28],[27,18],[25,32],[12,21],[6,27],[8,92],[-4,28],[-8,22],[-8,27],[-7,292],[-28,144],[-84,85],[-60,5],[-57,-17],[-51,-22],[-76,-19],[-59,-34],[-39,-7],[-30,10],[-23,20],[-27,17],[-37,2],[65,-108],[15,-68],[-30,-75],[-40,-57],[-35,-69],[-16,-68],[19,-55],[-24,-19],[-19,-26],[-12,-31],[-4,-39],[13,-77],[35,-64],[50,-30],[63,27],[46,-19],[23,-4],[30,-1],[-33,-35],[-32,-7],[-35,2],[-39,-7],[-59,-38],[-91,-82],[-11,-21],[-10,-34],[1,-17],[51,29],[31,-5],[32,-1],[34,28],[-43,-181],[3,-32],[48,0]],[[1166,2053],[17,22],[15,4],[11,17],[2,15],[-3,7],[-23,6],[-15,-5],[-4,-66]],[[605,3725],[-19,-7],[-25,7],[-19,-1],[-5,-10],[3,-15],[9,-12],[9,-4],[-1,-11],[-23,-13],[-7,-11],[-47,5],[-12,-4],[10,-9],[5,-11],[21,-14],[33,-4],[16,13],[11,16],[37,19],[15,16],[8,22],[-4,13],[58,-5],[8,14],[44,34],[10,22],[3,14],[-6,10],[-1,9],[15,12],[6,16],[-17,2],[-21,-6],[-42,9],[-6,-10],[-4,-12],[-21,-19],[-41,-75]],[[633,3416],[24,-66],[46,-19],[26,42],[0,34],[-29,11],[-12,7],[-9,-3],[-6,2],[-2,-6],[0,-6],[2,-4],[-8,5],[-5,-5],[1,-3],[-11,11],[1,20],[0,5],[-7,-4],[-6,-4],[-5,-17]],[[634,3220],[0,-20],[27,9],[-8,27],[-19,-16]],[[1161,2575],[19,-27],[15,8],[-15,30],[-22,31],[-36,21],[14,-34],[9,-3],[6,-10],[1,-7],[9,-9]],[[1092,2431],[10,-23],[9,9],[1,39],[-27,12],[-10,-19],[17,-18]],[[3019,2148],[-14,-44],[7,-41],[36,-29],[18,-12],[-9,33],[21,10],[41,10],[15,37],[8,58],[-3,36],[-17,22],[9,22],[9,27],[-19,19],[-29,14],[-24,-10],[-24,-22],[-9,-5],[-1,14],[-9,-1],[-43,-71],[3,-23],[23,-17],[11,-27]],[[3215,2206],[9,-7],[18,6],[-4,-22],[1,-29],[30,15],[39,46],[-2,47],[-38,4],[-25,6],[-25,-10],[-8,-25],[10,-6],[-6,-10],[4,-7],[-3,-8]],[[3223,2150],[-19,37],[-22,-5],[-15,-15],[-6,-12],[5,-47],[2,-71],[14,10],[41,58],[0,45]],[[2466,1623],[59,-91],[67,28],[57,14],[117,7],[54,42],[31,8],[14,-39],[-2,-75],[2,-39],[11,-17],[89,77],[122,330],[98,65],[-33,48],[-49,-5],[-88,-43],[-53,-10],[-25,3],[-11,20],[-7,26],[-18,14],[-23,1],[-63,-44],[-106,-36],[-43,-21],[-65,-48],[-59,-67],[-25,-15],[-41,-7],[-19,-8],[-14,-19],[-2,-48],[25,-51]],[[3008,1524],[13,-44],[11,0],[0,-14],[-1,-28],[14,-5],[4,12],[16,10],[13,19],[-6,12],[-18,4],[3,19],[-24,25],[-10,13],[-15,-23]],[[2760,1428],[-5,9],[-8,-1],[-6,5],[-3,-3],[-5,-4],[-8,-21],[-18,5],[-16,-22],[36,-23],[15,5],[6,-6],[4,-4],[-22,-4],[1,-21],[13,1],[5,-6],[23,28],[40,17],[-18,8],[-6,13],[-19,9],[-8,-6],[-3,9],[2,12]],[[2796,1342],[-13,-46],[-3,-30],[-55,-27],[-15,-4],[-12,-13],[4,-5],[83,4],[70,58],[44,67],[-2,22],[-28,2],[-19,8],[-21,-4],[-33,-32]],[[2441,1121],[-6,-37],[-1,-36],[13,-10],[23,16],[28,5],[30,15],[31,30],[28,33],[10,20],[-18,28],[-48,23],[-34,-11],[-3,-12],[-8,-7],[-16,-4],[-17,-17],[-12,-36]],[[2367,1064],[-2,28],[-21,-26],[-29,-15],[-9,-19],[-8,-19],[-6,-10],[-13,-13],[8,-27],[9,-3],[13,-11],[18,21],[5,21],[8,42],[15,18],[12,13]],[[2383,953],[-14,-24],[31,-42],[9,18],[0,-20],[5,-18],[23,53],[-8,5],[-1,12],[5,14],[-26,30],[-11,24],[-16,1],[5,-28],[-2,-25]],[[905,4096],[-6,-22],[-62,-16],[12,-87],[20,9],[22,38],[46,-2],[22,-9],[11,26],[10,63]],[[1013,4096],[3,-17],[14,-36],[49,53]],[[1118,4096],[4,-27],[-41,-17],[-2,-29],[11,-63],[-30,10],[-17,2],[27,-87],[12,-38],[43,-29],[40,4],[34,43],[32,23],[72,-51],[4,-67],[30,0],[55,38],[83,30],[89,-91],[98,-72],[6,-71],[-25,-79],[-27,-51],[4,-99],[159,-227],[51,-62],[-45,-12],[-152,65],[-153,52],[-25,-51],[-17,-27],[-40,-19],[-13,-21],[-15,-11],[-10,21],[-30,21],[-26,28],[-23,16],[-59,41],[38,38],[-11,57],[-40,33],[-9,123],[25,0],[15,-82],[17,-32],[24,27],[4,53],[-7,83],[7,31],[21,30],[-32,53],[-45,52],[-89,28],[-42,-76],[-30,-17],[-17,44],[8,53],[42,78],[19,21],[-12,25],[-15,7],[-17,-19],[-19,-19],[-9,2],[-2,8],[4,31],[-2,8],[-43,65],[-112,52],[-53,-87],[-8,-101],[-26,-21],[-6,-57],[11,-45],[-21,-50],[-40,-36],[-4,-78],[21,-104],[39,-13],[28,-28],[24,-34],[11,-43],[4,-41],[11,-35],[25,-54],[32,-53],[67,-43],[34,-74],[34,15],[29,29],[48,-15],[16,-37],[7,-42],[17,-22],[25,-16],[31,-27],[59,-125],[-1,-49],[103,9],[-39,-81],[-33,-24],[-25,37],[-30,-11],[-19,-26],[-35,-7],[0,-26],[18,-23],[31,19],[13,-21],[-11,-51],[-29,-52],[-30,-53],[-33,-86],[-22,-23],[-40,-16],[-35,-15],[-45,-37],[18,-44],[27,15],[40,25],[39,-12],[18,-10],[9,33],[66,50],[69,63],[16,55],[10,27],[41,2],[56,31],[59,47],[25,64],[39,59],[74,105],[37,57],[-16,43],[27,25],[10,-10],[2,-31],[22,-29],[60,8],[51,27],[70,16],[51,45],[41,43],[87,35],[94,-21],[35,0],[29,23],[88,-9],[35,-32],[-13,-32],[-9,-18],[12,-24],[26,-17],[34,-18],[8,-65],[-26,-31],[-33,-35],[-37,-31],[-30,-25],[-39,-41],[-33,-14],[-41,6],[2,-78],[2,-69],[51,-25],[24,-29],[41,-22],[11,-54],[-21,-37],[45,-2],[49,37],[72,10],[25,14],[14,43],[51,8],[18,28],[-3,38],[27,23],[109,3],[105,55],[55,71],[-28,56],[11,46],[55,75],[6,31],[-3,111],[-7,46],[-61,140],[-35,78],[-94,68],[-185,-3],[-142,-105],[-48,-9],[-72,0],[-62,47],[-29,44],[-50,25],[30,15],[56,30],[42,26],[42,44],[73,21],[44,47],[1,76],[44,14],[9,70],[-54,57],[-126,216],[-45,106],[-38,59],[-13,66],[68,-32],[80,80],[12,9]],[[2888,4096],[4,-9],[-1,-30],[14,-39],[21,-25],[60,-44],[13,-7],[15,-1],[15,-4],[17,-14],[4,-17],[-1,-44],[19,-67],[-5,-150],[19,-226],[24,-62],[84,-48],[134,-143],[224,-182],[37,-67],[5,-22],[11,-16],[5,-14],[-11,-19],[-32,-44],[-13,-26],[-5,-24],[7,-37],[20,-41],[32,-34],[40,-16],[0,-26],[-28,-1],[-24,-5],[-47,-18],[-45,5],[-33,-18],[-61,-57],[-201,-103],[-53,-41],[-27,-47],[40,-22],[48,24],[476,91],[78,1],[-35,-86],[-44,-57],[-207,-182],[-16,-29],[9,-42],[67,-54],[24,-45],[-84,0],[-33,-13],[-24,-35],[50,-48],[10,-89],[-27,-86],[-62,-38],[-75,-104],[-14,-26],[11,-97],[-4,-42],[-27,-38],[-76,75],[-22,-6],[-23,-69],[-3,-31],[9,-31],[-6,-32],[-13,-18],[-38,-24],[-9,-18],[-29,-88],[-211,-230],[-3,-12],[3,-50],[-5,-11],[-25,-10],[-10,-13],[-1,-4],[-27,-92],[-10,-22],[-36,-36],[-61,-43],[-58,-18],[-88,114],[-121,-45],[-79,-94],[71,-72],[0,-84],[-52,-74],[-39,-32],[4,-65],[46,-44],[12,-18],[32,-32],[23,-67]],[[3015,1933],[-53,-10],[-25,3],[-11,20],[-7,26],[-18,14],[-23,1],[-63,-44],[-106,-36],[-43,-21],[-65,-48],[-59,-67],[-25,-15],[-41,-7],[-19,-8],[-14,-19],[-2,-48],[25,-51],[59,-91],[67,28],[57,14],[117,7],[54,42],[31,8],[14,-39],[-2,-75],[2,-39],[11,-17],[89,77],[122,330],[98,65],[-33,48],[-49,-5],[-88,-43]],[[2266,869],[-61,27],[-32,4],[-23,-17],[-6,-50],[12,-61],[23,-58],[30,-33],[-16,-59],[20,-49],[42,-26],[53,13],[18,35],[50,139],[10,41],[-20,69],[-33,24],[-67,1]],[[2288,2053],[-60,5],[-57,-17],[-51,-22],[-76,-19],[-59,-34],[-39,-7],[-30,10],[-23,20],[-27,17],[-37,2],[65,-108],[15,-68],[-30,-75],[-40,-57],[-35,-69],[-16,-68],[19,-55],[-24,-19],[-19,-26],[-12,-31],[-4,-39],[13,-77],[35,-64],[50,-30],[63,27],[46,-19],[23,-4],[30,-1],[-33,-35],[-32,-7],[-35,2],[-39,-7],[-59,-38],[-91,-82],[-11,-21],[-10,-34],[1,-17],[51,29],[31,-5],[32,-1],[34,28],[-43,-181],[3,-32],[48,0],[73,32],[70,41],[41,31],[64,84],[24,25],[66,32],[16,12],[57,133],[14,23],[69,28],[27,18],[25,32],[12,21],[6,27],[8,92],[-4,28],[-8,22],[-8,27],[-7,292],[-28,144],[-84,85]],[[3122,2228],[9,22],[9,27],[-19,19],[-29,14],[-24,-10],[-24,-22],[-9,-5],[-1,14],[-9,-1],[-43,-71],[3,-23],[23,-17],[11,-27],[-14,-44],[7,-41],[36,-29],[18,-12],[-9,33],[21,10],[41,10],[15,37],[8,58],[-3,36],[-17,22]],[[2531,1208],[-34,-11],[-3,-12],[-8,-7],[-16,-4],[-17,-17],[-12,-36],[-6,-37],[-1,-36],[13,-10],[23,16],[28,5],[30,15],[31,30],[28,33],[10,20],[-18,28],[-48,23]],[[3837,3284],[-1,-24],[76,5],[82,46],[81,-33]],[[4075,3278],[21,-9]],[[4070,3284],[5,-6]],[[4075,3278],[19,-28],[2,-1]],[[2071,2918],[-1,43]],[[3725,3446],[5,16]],[[3728,3446],[52,65]],[[3912,3],[3,-3]],[[1916,920],[33,-5],[3,-26],[95,13],[-18,42],[33,19],[-9,45],[33,-1],[-6,38],[52,3],[-1,31],[76,77],[42,118],[34,5],[-4,44],[18,-20],[57,58],[29,144],[24,14],[17,121],[-17,68]],[[795,3750],[33,6]],[[1033,3793],[-195,-55]],[[2548,419],[-84,-66]],[[2842,629],[-33,-62],[-148,-92]],[[3044,890],[-55,0],[-59,-61]],[[3855,2430],[10,-235],[-154,-275],[-110,-16],[-43,-154]],[[3774,2552],[38,-40],[43,-82]],[[3920,3045],[5,-13],[-30,-101]],[[3895,2931],[-29,-20]],[[3866,2911],[-37,-111],[-2,-92],[-29,-30],[-21,-107]],[[3827,3821],[-8,-188],[87,-115],[-71,-290],[85,-183]],[[3855,2430],[-8,11],[-14,9],[-6,7],[-15,54],[0,1],[-38,37],[5,34],[18,95],[30,30],[-1,13],[-1,23],[4,56],[36,111],[1,0]],[[3866,2911],[29,20]],[[3895,2931],[30,101],[-5,13]],[[4006,2982],[-11,59],[13,26]],[[4008,3067],[0,2]],[[4008,3069],[-38,34],[-11,9],[-18,14]],[[3941,3127],[18,-14],[49,-43],[0,-1]],[[4008,3069],[0,-2]],[[4008,3067],[-7,-44],[5,-12],[2,-6],[-1,-21]],[[1688,2983],[-50,-13],[-25,7]],[[1613,2979],[40,-1]],[[1193,4096],[6,-11]],[[1199,4085],[-7,11]],[[1199,4085],[34,-155],[102,-75]],[[1461,3832],[-41,24]],[[1511,3804],[-6,3]],[[3994,2888],[38,1]],[[4096,2900],[-4,-2]],[[4092,2898],[-4,-2],[-2,0]],[[4086,2896],[-54,-7]],[[4032,2889],[16,0],[35,6],[3,1]],[[4086,2896],[6,2]],[[4092,2898],[1,0],[3,2]],[[1382,2584],[-10,-34]],[[1403,2647],[39,66]],[[1450,2725],[-8,-12]],[[1442,2713],[8,13]],[[2811,571],[55,-117],[92,-29]],[[3740,396],[-106,-53]],[[678,3233],[51,69],[13,109],[26,1]],[[3361,3875],[-291,-61]],[[1765,3880],[92,-203],[7,-24],[-33,-20]],[[3713,4016],[-70,-132],[-4,-190],[-29,-3],[-46,-92]],[[3569,3574],[-2,19]],[[3077,3728],[4,11],[-14,85],[-1,56],[30,115],[-30,41]],[[3066,4036],[30,-41],[-30,-115],[15,-142],[-4,-10]],[[2898,2710],[9,67]],[[3601,1904],[136,225],[67,171],[-30,249]],[[1393,2934],[40,60],[85,8],[21,84],[70,31]],[[1612,3125],[-1,-2]],[[4069,912],[27,18]],[[1239,2526],[44,31]],[[1362,2525],[-59,13],[-20,19]],[[1283,2557],[20,-19],[14,4],[1,0],[4,-7],[29,-4],[11,-6]],[[1387,2667],[-176,-94],[-99,-137],[-19,-91],[-33,-14]],[[3971,2393],[18,-3]],[[3992,2389],[104,-1]],[[2911,2815],[-3,0]],[[1442,4096],[23,-8],[157,5],[100,-83]],[[3616,3046],[-43,32]],[[3656,3040],[-8,-7]],[[3660,3036],[4,1]],[[1210,3926],[-15,-13]],[[1209,3872],[-9,30]],[[1747,3246],[-10,-32]],[[1815,3106],[34,-6],[13,-41]],[[3906,2974],[18,34]],[[3939,3125],[-18,-82]],[[3925,3008],[0,1]],[[4006,3479],[-53,-334]],[[4005,3491],[7,5]],[[4009,3516],[86,221]],[[3377,3977],[0,3]],[[3378,3970],[0,3]],[[3378,3973],[0,-3]],[[3382,3956],[-4,12]],[[3378,3968],[4,-12]],[[3418,3852],[-36,103]],[[3383,3955],[35,-103]],[[3462,3773],[-41,67],[-3,10]],[[3418,3851],[44,-78]],[[4046,1047],[-15,58]],[[4032,1106],[25,-37],[-10,-22]],[[3096,3610],[59,23],[97,-13],[5,-29],[60,61]],[[3352,3759],[-17,-97]],[[1643,3709],[-37,34],[12,67],[11,25],[83,95]],[[1713,3929],[-21,-31],[-62,-64],[-11,-24],[-13,-67],[37,-34]],[[3239,1014],[-16,-14]],[[4077,2121],[0,2]],[[763,3752],[32,-2]],[[1403,2646],[-13,8]],[[2301,2917],[3,0]],[[3447,2465],[8,0]],[[3616,3046],[32,-13]],[[3656,3040],[4,-4]],[[3552,1972]],[[3552,1972],[16,-8]],[[3560,1924],[8,40]],[[3568,1964],[-8,-40]],[[3572,1756],[-38,82],[38,20],[-6,17],[-1,9]],[[3565,1884],[-1,10],[-1,7],[0,11]],[[3563,1913],[1,10]],[[3564,1912],[-1,-11],[1,-7],[1,-10]],[[3565,1884],[1,-8]],[[3564,1923],[0,-10]],[[3725,2130],[-25,10],[-116,-104],[-2,-5]],[[3582,2031],[-7,-20],[-23,-39]],[[3552,1972],[0,-1],[16,-7]],[[3581,2031],[1,0]],[[3582,2031],[1,0]],[[1397,2652],[6,-5]],[[3546,2806],[30,4]],[[3686,3343],[51,-93],[1,-2],[7,-40]],[[3745,3208],[1,-3],[-1,-1],[111,-80],[6,-149]],[[3749,3203],[-4,5]],[[3745,3208],[-5,8]],[[1884,3926],[58,35]],[[1900,2851],[10,76]],[[1965,3961],[32,0]],[[3777,2571],[-3,-19]],[[3006,927],[15,41],[76,-22]],[[3048,971],[4,0]],[[3054,969],[2,-1]],[[3056,968],[9,-5]],[[3057,967],[-1,1]],[[3056,968]],[[3078,954],[-4,5]],[[3115,975],[-52,45],[24,28]],[[3090,1046],[0,40],[48,44],[34,-11],[21,35],[80,-27]],[[3236,1306],[-43,-24],[1,-72],[66,-13]],[[1823,2861],[200,41]],[[2034,2905],[37,23],[76,-24],[52,29],[102,-16]],[[2427,3114],[-167,-120]],[[2292,3003],[-4,5]],[[2650,2423],[-81,4],[-12,-70],[-95,-98],[-36,-5],[-86,19],[-34,50],[-106,55],[2,122],[36,-6],[83,65],[0,32],[96,82]],[[2649,3192],[8,0]],[[2901,2891],[0,-1]],[[3116,4021],[48,-9]],[[3336,4035],[-131,-26]],[[3639,1898],[-7,-30],[55,-82]],[[3920,955],[65,-77],[111,-32]],[[3879,2919],[96,-166]],[[3282,1144],[-88,-139]],[[3307,1414],[-9,-237]],[[3339,1443],[-32,-29]],[[3398,1522],[-5,-39],[-54,-40]],[[3427,1559],[-29,-37]],[[3445,1577],[-18,-18]],[[3470,1650],[-7,-15]],[[3496,1685],[-17,-25]],[[3960,2123],[19,-6]],[[3979,2117],[-3,-9]],[[4002,2081],[3,-7]],[[1483,2766],[-1,0]],[[1747,3246],[-36,12],[-27,53]],[[1905,3126],[-24,-65]],[[889,3201],[94,26],[138,89],[69,-9]],[[1479,2766],[-25,-26]],[[1572,2785],[-93,-19]],[[1616,2788],[-44,-3]],[[1722,2977],[-55,-86],[1,-95],[-32,12]],[[1636,2808],[-1,0],[-19,-20]],[[1616,2788],[18,21],[2,-1]],[[1636,2808],[29,-16]],[[1881,3061],[-109,-32],[-50,-52]],[[1722,2977],[50,52],[130,43],[7,-2]],[[1909,3070],[68,-30]],[[1977,3040],[123,17]],[[2100,3057],[-122,-17],[-1,0]],[[1977,3040],[-62,32],[-6,-2]],[[1909,3070],[-28,-9]],[[2100,3057],[73,-7]],[[2785,2694],[48,20],[71,106]],[[3589,2589],[185,-40]],[[4096,3081],[-13,-31],[-2,-2]],[[4081,3048],[-4,-3]],[[4077,3045],[-70,-61],[-18,-113]],[[3989,2871],[-1,-10]],[[3988,2861],[0,-1],[-58,-42],[-101,-19],[-2,-93],[-12,-11]],[[3815,2695],[-17,-14],[0,-1]],[[3798,2680],[-24,-131]],[[3774,2549],[24,131]],[[3798,2680],[17,15]],[[3815,2695],[11,11],[3,94],[101,19],[58,42]],[[3988,2861],[0,1],[1,9]],[[3989,2871],[18,113],[70,61]],[[4077,3045],[4,3]],[[4081,3048],[15,42]],[[3123,3736],[27,-48],[233,-40]],[[3660,3512],[-72,24],[-12,37]],[[3836,3314],[-53,131],[-41,9]],[[3928,2148]],[[3946,2128],[1,0]],[[1192,3022],[89,-63],[95,-5]],[[1823,4033],[54,59]],[[1890,4087],[38,-26],[64,2]],[[3679,2854],[101,-7],[1,26],[44,3],[15,28],[2,0],[14,15],[0,1],[1,6]],[[3857,2926],[1,1],[2,0]],[[3825,2876],[15,28],[2,0]],[[3937,2907],[-36,29],[-25,-2],[-3,1],[-13,-9],[-1,0],[-1,0],[-1,0]],[[3857,2926]],[[3876,2934],[25,2],[3,-2]],[[4038,2855],[58,5]],[[1450,2725]],[[3325,1190],[49,38],[-1,-23],[59,81],[68,9],[14,73]],[[3689,1593],[-163,-69],[-91,-113]],[[3668,1591],[-1,-1]],[[1666,3542],[35,-15],[79,39],[51,67]],[[1765,3880],[-14,58]],[[3474,3383],[54,95]],[[3523,3475],[46,99]],[[1736,3907],[-33,-74],[-104,-45],[-2,-44],[36,-38]],[[3683,2692],[116,46],[12,-21],[-1,-6]],[[3810,2711],[-2,-5],[-1,-5],[-4,-15],[70,29],[134,-9]],[[3752,2702],[30,8],[28,1]],[[3810,2711],[1,0]],[[1537,2683],[-84,38],[-3,4]],[[1450,2725],[3,-3],[80,-36],[3,-2]],[[1536,2684],[1,0]],[[1537,2683],[-3,1]],[[1536,2685],[0,-1]],[[1536,2684],[1,-1]],[[1855,3045],[0,-1]],[[2553,404],[-60,-31],[-6,-36]],[[2487,337],[-1,-12]],[[2686,456],[-10,-5]],[[2686,456],[47,31]],[[2733,487],[49,39]],[[2315,258],[60,7]],[[1379,2666],[60,75]],[[3164,4012],[41,-3],[-37,-13]],[[3252,3865],[-44,29],[-7,108]],[[3254,3866],[-35,-78]],[[3220,3781],[26,-121]],[[3378,3973],[-1,4]],[[3378,3977],[0,-4]],[[3378,3968],[0,2]],[[3378,3970],[0,-2]],[[3382,3955],[0,1]],[[3382,3956],[1,-1]],[[3418,3850],[0,2]],[[3418,3852],[0,-1]],[[3462,3773],[58,-92],[0,-44],[72,-69]],[[3591,3568],[-71,68],[-1,47],[-57,90]],[[3660,3510],[92,-50]],[[3752,3460],[-92,49]],[[4031,1105],[-39,109],[37,73],[-81,53],[-102,248],[19,60],[-112,53],[-43,85]],[[3711,1786],[43,-84],[96,-33],[6,-4],[10,-16],[-2,-18],[-17,-43],[34,-64],[68,-183],[80,-54],[-36,-73],[39,-108]],[[3959,0],[35,47],[14,58],[23,41],[-7,55],[72,41]],[[4096,242],[-72,-41],[8,-55],[-5,-13],[-19,-28],[-14,-58],[-34,-47]],[[1421,3874],[-1,-7]],[[1499,4096],[-63,-154]],[[3403,3819],[13,30]],[[3544,3884],[-55,-37],[-66,-3]],[[3427,3670],[49,-131]],[[3445,3681],[3,107]],[[3461,4096],[1,-100],[39,-3],[43,-109]],[[3671,215],[-117,50],[-238,-5],[-213,153]],[[3683,211],[-12,4]],[[3687,214],[-4,-3]],[[3377,3986],[0,-5]],[[2002,3061],[-25,14]],[[2011,3047],[-9,14]],[[2070,2961],[-59,86]],[[3725,3446],[-7,-81],[-25,-18]],[[3725,3429],[3,17]],[[3816,3618],[-36,-107]],[[4096,3412],[-103,-214],[-87,-111]],[[3837,2894],[-7,1]],[[3830,2895],[7,-1]],[[3837,2894],[31,7]],[[3583,1163],[-44,-12],[-39,46],[-111,-59],[-120,79]],[[671,3235],[218,-28]],[[1448,2902],[-28,-38]],[[2297,1748],[88,-8]],[[1440,3040],[17,-39]],[[1512,2954],[8,38],[-2,10]],[[1514,2957],[81,15]],[[1597,2976],[-2,-4]],[[1595,2972],[0,2],[2,2]],[[1597,2976],[16,-1]],[[1642,2927],[25,-36]],[[3142,3752],[77,36],[133,-29],[3,29],[9,24],[20,27]],[[3361,3803],[37,14]],[[3096,3573],[3,92],[83,197],[-108,234]],[[3075,3781],[-3,0]],[[3096,3573],[-10,14]],[[3430,3427],[-63,-25],[-76,20],[-51,53],[-99,7],[-45,91]],[[3830,3261],[-88,44],[-28,45],[-129,-6],[-13,1],[0,1],[-51,9]],[[3521,3355],[-50,9],[-19,11],[-51,-7],[-82,41]],[[3488,3403],[-58,24]],[[3430,3427],[29,-8],[26,-12],[3,-4]],[[3496,3389],[-8,14]],[[3491,3398],[-3,5]],[[3488,3403],[3,-5]],[[3488,3403],[8,-13]],[[3491,3398],[5,-8]],[[3525,3349],[-4,6]],[[3521,3355],[-17,22],[-8,13]],[[1548,2691],[5,6]],[[1553,2697],[-4,-7]],[[1553,2697],[56,67]],[[1612,2771],[17,77],[91,89]],[[1734,3387],[-10,24],[-18,21],[-2,3],[-2,5],[-1,5],[0,7],[11,27],[-32,147],[5,22],[-42,61]],[[1643,3709],[42,-61],[27,-169],[-10,-38],[22,-29],[11,-25]],[[1712,3930],[76,152]],[[1788,4082],[-48,-106],[-14,-26],[-13,-21]],[[1855,3044],[-42,-38],[-53,-12],[-40,-57]],[[1720,2937],[17,31],[9,13],[5,5],[9,8],[12,7],[17,5],[24,0],[41,38]],[[1855,3045],[-2,12],[-3,13],[-3,16],[1,9],[-29,64],[-17,69],[-27,24],[-3,4],[-4,6],[-26,79],[-2,10],[-3,22],[-2,13]],[[1735,3386],[33,-124],[35,-34],[45,-133],[0,-9],[6,-29],[1,-12]],[[1789,4083],[7,13]],[[1796,4096],[-7,-13]],[[3622,455],[5,-69],[-39,-5],[-22,-33]],[[3578,391],[43,10]],[[4042,855],[15,-58]],[[3933,2005],[-26,50]],[[2464,353],[-15,-50],[-58,-44],[5,-122],[54,-137]],[[2661,475],[-113,-56]],[[2930,829],[5,-41],[-93,-159]],[[3223,1000],[-31,13],[-24,-45],[-44,4],[-36,-65],[-44,-17]],[[3558,1750],[-34,-68],[-98,-62],[8,-70],[-52,-89],[-61,-33],[-37,-71],[-47,-32],[36,-98],[-13,-65],[46,-106],[-67,-42]],[[3724,4011],[103,6],[33,-39],[-33,-157]],[[1200,3235],[-2,-95],[83,-2]],[[1290,3131],[38,-40]],[[1296,3125],[32,-34]],[[1328,3091],[46,-52],[-4,-76],[34,-54]],[[1436,2786],[-32,123]],[[1404,2909],[11,-12],[5,-33]],[[1419,2863],[1,1]],[[1420,2864],[17,-78]],[[3928,2148],[-5,8]],[[3928,2148],[18,-20]],[[3947,2128],[13,-5]],[[1881,3061],[35,11],[28,-24],[87,-2],[9,-2],[1,0],[1,0]],[[2042,3044],[8,-1],[50,14]],[[2100,3057],[-58,-13]],[[2042,3044],[-1,-1],[-97,5],[-29,24],[-34,-11]],[[2173,3048],[-73,9]],[[2785,2694],[119,126]],[[3774,2552],[-194,35]],[[3842,2800],[134,52],[31,132],[79,71],[10,35]],[[4096,3079],[-10,-24],[-79,-71],[-30,-132],[-133,-52]],[[1722,4010],[64,-43]],[[3498,3198],[-28,167]],[[3580,3098],[-61,81]],[[3578,3089],[-5,-11]],[[3664,3037],[21,5],[40,-49],[41,-8],[15,21],[122,-47]],[[3887,3425],[118,66]],[[4012,3496],[84,31]],[[3324,4088],[-1,1]],[[3324,4089],[0,-1]],[[3368,4007],[-2,3]],[[3366,4010],[2,-3]],[[3376,3986],[0,2]],[[3376,3988],[1,-2]],[[3660,3509],[-69,59]],[[3592,3568],[68,-58]],[[3710,1786],[-3,10],[-5,103]],[[3705,1927],[6,-141]],[[3735,1968],[6,4]],[[3872,2126],[-33,-56],[-6,-7],[-92,-91],[-6,-5]],[[4079,3068],[-109,86],[-111,224],[-107,82]],[[3752,3460],[57,-37],[50,-45],[111,-224],[39,-25],[53,-38],[17,-22]],[[3833,2063],[38,63]],[[3898,2169],[3,5]],[[3902,2173],[-4,-5]],[[3957,2528],[88,102]],[[4045,2630],[-88,-102]],[[4077,2688],[2,5]],[[4079,2692],[-2,-4]],[[4080,855],[-1,1]],[[4079,856],[1,-1]],[[4085,905],[5,7]],[[4090,911],[-5,-6]],[[3672,1899],[20,7]],[[3849,2438],[-8,6]],[[3841,2444],[-10,7]],[[3832,2452],[9,-8]],[[3841,2444],[10,-7]],[[3892,2926],[-1,-1]],[[3908,2057],[1,1]],[[3944,2067],[1,0]],[[2323,1669],[55,-2],[25,40]],[[3766,2405],[159,101],[51,128],[-1,119]],[[3298,1177],[-16,-33]],[[3383,3648],[62,33],[55,-10],[76,-98]],[[3742,3454],[-82,58]],[[3979,2117]],[[1479,2766],[-25,-26]],[[1479,2766],[93,19]],[[1616,2788],[-44,-3]],[[1722,2977],[-40,-69],[-17,-116],[-30,16],[-19,-20]],[[1616,2788],[18,21],[31,-17]],[[1638,3707],[25,-44]],[[1664,3648],[12,-325],[35,-64],[179,-68],[13,-101],[-22,-29]],[[1739,3004],[-17,-27]],[[1722,2977],[30,40],[128,44]],[[1790,4096],[-3,-11],[39,-61],[-88,-119]],[[4096,3543],[-73,27],[-32,53],[-175,47]],[[3377,3981],[1,-4]],[[1677,3378],[26,10]],[[3323,4089],[-1,7]],[[3322,4096],[2,-7]],[[3366,4010],[-42,78]],[[3324,4088],[42,-78]],[[3376,3988],[-8,19]],[[3368,4007],[8,-19]],[[3377,3980],[-1,6]],[[3702,1899],[3,29],[5,16],[25,24]],[[3735,1967],[-30,-40]],[[3871,2126],[27,43]],[[3898,2168],[-26,-42]],[[3901,2174],[30,104],[-26,28]],[[3905,2306],[-6,7]],[[3899,2313],[-1,1],[-15,91],[4,8],[7,32]],[[3894,2445],[8,35]],[[3902,2480],[1,2],[54,46]],[[3957,2528],[-55,-48]],[[3902,2480],[-8,-35]],[[3894,2445],[-7,-32],[-4,-9],[16,-91]],[[3899,2313],[6,-7]],[[3905,2306],[26,-27],[-26,-99],[-3,-7]],[[4045,2630],[32,58]],[[4077,2688],[-13,-34],[-19,-24]],[[4090,912],[-59,101],[15,34]],[[4047,1047],[-16,-34],[34,-45],[25,-57]],[[4096,3036],[-17,32]],[[4079,2693],[17,44]],[[4079,3069],[17,-32]],[[4079,856],[6,49]],[[4096,2736],[-17,-44]],[[4085,905],[-6,-49]],[[4096,816],[-16,39]],[[4080,855],[16,-38]],[[1604,3320],[36,27]],[[1451,2906]],[[1452,2907],[21,5]],[[1473,2912],[-21,-6]],[[1483,2916],[-9,-4]],[[1474,2913],[9,3]],[[1483,2911],[20,-86]],[[1495,2939],[5,6],[18,6],[3,-1],[2,0]],[[1523,2950],[42,8],[12,6],[29,16]],[[1606,2980],[3,2],[4,-3]],[[1613,2977],[-7,3]],[[1606,2980],[0,1],[-83,-31]],[[1523,2950],[-2,-1],[-20,-4],[-6,-6]],[[1725,2989],[-37,-6]],[[2775,548],[107,-189]],[[2029,3902],[7,-109],[-36,-178],[-121,-63],[-21,-58]],[[1815,3106],[-90,87],[12,21]],[[812,3692],[0,-2]],[[1168,3990],[-62,-67],[27,-69],[-15,-46],[-49,-38],[-124,53],[6,80],[-66,-8],[-75,-185],[26,-88],[-46,-42],[-16,-133],[0,-56],[69,-45],[-11,-38],[75,-182],[55,-73],[20,25],[35,-69],[127,13]],[[1242,2840],[22,-39]],[[1280,2767],[-4,-35],[16,11]],[[3933,3106],[34,-7],[129,108]],[[2364,2609],[-5,-4]],[[2407,2534],[10,31],[-71,28],[28,16]],[[2584,2424],[-107,20],[-31,60],[-59,0]],[[3376,3975],[-102,121]],[[3749,3703],[11,-26],[51,12]],[[3806,2091],[102,-34]],[[3909,2058],[35,9]],[[3945,2067],[2,0]],[[4096,1683],[-30,27],[-20,91],[-43,23],[31,54],[-11,77],[-71,14],[-19,36]],[[2391,237],[120,24]],[[2525,262],[94,-80],[49,-182]],[[3563,1912],[0,1]],[[3564,1913],[0,-1]],[[1181,2158],[-56,20],[11,41],[64,40],[14,72],[60,75],[50,12],[48,132]],[[1299,2419],[-2,-1]],[[1403,2647],[-21,-63]],[[2386,245],[5,0]],[[4035,3814],[-10,-70]],[[4035,3814],[-4,0]],[[4035,3814],[40,33]],[[4096,3872],[-17,-17]],[[792,3388],[185,154],[57,86]],[[2173,3050],[41,-4],[89,-131],[115,-42],[27,-43],[-34,-39],[25,-28],[-20,-98],[30,4],[20,-49],[98,61],[18,58],[123,-85],[21,47],[59,-7]],[[3191,2266],[-53,63],[139,95],[147,53],[12,63],[40,42],[113,7]],[[2811,2958],[18,-63]],[[2173,3048],[75,-27],[8,-61],[45,-43],[140,-74],[2,-34],[-32,-18],[25,-28],[-20,-97],[30,3],[20,-49],[98,61],[17,58],[41,-12],[6,-32],[60,-44],[41,50],[56,-7]],[[3180,2272],[-43,54],[139,98],[148,53],[12,63],[39,41],[105,6]],[[3191,2266],[-8,-4]],[[3044,890]],[[3066,846],[123,-111],[113,-17],[58,-61],[72,6],[11,-98],[97,-98]],[[3646,309],[70,-62],[74,-152],[122,-92],[55,29],[33,112],[-11,143],[107,82]],[[1479,2766],[-25,-26]],[[1572,2785],[-93,-19]],[[1616,2788],[-44,-3]],[[1722,2977],[-55,-86],[1,-95],[-32,12]],[[1636,2808],[-1,0],[-19,-20]],[[1616,2788],[18,21],[2,-1]],[[1636,2808],[29,-16]],[[1633,3706],[33,-35],[13,-94],[-26,-98],[24,-159],[57,-76],[152,-44],[19,-83],[-24,-56]],[[1722,2977],[50,52],[108,32]],[[1739,3004],[-17,-27]],[[1788,4096],[-3,-7],[37,-87],[-86,-95]],[[3104,3361],[-383,-168]],[[3376,3975],[17,-36],[6,-44],[3,-11],[16,-33]],[[3418,3851],[5,-11],[4,-34],[149,-56],[73,10],[100,-57]],[[3420,3852],[-2,-1]],[[3418,3851],[-1,0],[-1,-2],[4,-9],[-17,-21],[19,-5]],[[3947,2067],[130,54]],[[4077,2123],[19,19]],[[1918,1977],[25,-52],[69,20]],[[2012,1945],[163,105],[155,17],[47,-42],[-8,-125]],[[2012,1946],[0,-1]],[[2403,1714],[0,-7]],[[2420,1713],[237,134],[91,107],[63,-13],[51,32],[105,-87],[67,-18],[35,80]],[[1454,2740],[6,-3]],[[1460,2739],[1,0]],[[1515,2654],[-8,55],[-29,18]],[[3592,3568],[9,36],[97,20]],[[3991,3623],[34,121]],[[1881,3061],[-142,-57]],[[1880,3061],[1,0]],[[1178,2596],[176,38],[25,32]],[[3470,1650],[5,5]],[[1069,3770],[-35,-142],[29,-50],[40,25],[69,-32],[23,-123],[-13,-198],[18,-15]],[[1281,3138],[2,-1]],[[1283,3137],[7,-6]],[[1283,3137],[13,-12]],[[1561,2555],[6,73],[5,-2]],[[1572,2626],[25,-9],[19,50]],[[1566,2627],[3,8],[3,-9]],[[1572,2626],[1,-1]],[[1623,2679],[32,49],[26,0]],[[1655,2793],[29,-60]],[[1675,2764],[9,-21]],[[1738,3905],[-36,-72],[-113,-61],[49,-65]],[[1663,3663],[1,-15]],[[2717,1900],[37,27],[125,5],[74,-50]],[[1877,4092],[13,-5]],[[3547,1752],[-1,-1]],[[3578,1772],[-31,-20]],[[3547,1752],[50,42]],[[3597,1794],[-9,-13]],[[3645,1840],[-48,-46]],[[2907,2777],[-78,118]],[[2856,2658],[42,52]],[[771,3400],[0,26]],[[1166,3900],[1,2]],[[2089,3175]],[[2391,245],[-5,0]],[[2421,3482],[-4,10]],[[2901,2889],[0,1]],[[3848,580],[1,1]],[[3938,405],[1,1]],[[3989,2390],[3,-1]],[[2484,280],[-5,-13]],[[2484,280],[2,45]],[[2676,451],[-123,-47]],[[3463,1635],[-18,-58]],[[3497,1687],[4,5]],[[1451,2906],[1,1]],[[1452,2906],[-1,0]],[[1473,2912],[1,1]],[[1474,2912],[-1,0]],[[1483,2916],[7,4]],[[1491,2920],[-8,-4]],[[1494,2933],[1,5],[0,1]],[[1495,2939],[0,-1]],[[1503,2822],[1,0]],[[1677,3378],[-38,-8],[1,-23]],[[3770,2571],[56,14],[58,12]],[[3884,2597],[6,1]],[[3849,2604],[35,-7]],[[3884,2597],[41,-9],[17,-10]],[[3999,2556],[-54,27]],[[4035,2580],[61,-14]],[[1609,2764],[3,7]],[[1735,3386],[-1,1]],[[1735,3387],[0,-1]],[[1788,4082],[1,1]],[[1789,4083],[-1,-1]],[[1854,3044],[1,1]],[[2882,359],[105,-135],[9,-155],[32,-69]],[[0,3636],[105,63],[220,58],[217,-81],[17,17],[-17,-15],[-24,54],[66,90],[252,137]],[[836,3959],[3,1],[151,45],[-3,91]],[[983,4096],[3,-88],[-102,-33]],[[884,3975],[-52,-16]],[[832,3959],[-561,-180],[-271,6]],[[989,4096],[3,-93],[-151,-45],[-5,1]],[[836,3959],[-4,0]],[[832,3959],[-464,21],[-368,93]],[[144,4096],[164,-46],[529,-89],[47,14]],[[884,3975],[104,31],[-3,90]],[[991,4096],[3,-94],[-151,-45],[-50,-149],[-58,-62],[-36,-333],[69,-1]],[[1602,3317],[12,-44],[-44,8],[-50,59],[-311,532]],[[1167,3901]],[[1367,2683],[-1,1]],[[1366,2684],[-3,6],[-4,10],[-20,26],[1,2]],[[1366,2685],[-4,4]],[[1364,2676],[0,-9]],[[1366,2665],[-2,2]],[[1364,2667],[2,-2]],[[1365,2677],[-1,-1]],[[1364,2676],[1,1]],[[1365,2677],[1,3]],[[1367,2680],[-2,-3]],[[1366,2680],[0,5]],[[1366,2685],[0,-1]],[[1366,2684],[1,0],[0,-4]],[[1366,2680],[1,3]],[[1367,2683],[0,-3]],[[1404,2645],[-1,1]],[[1404,2646],[-1,1]],[[1450,2725]],[[1486,2920],[-2,2],[-39,13],[-16,7],[-53,55],[53,-54],[55,-21],[3,-3]],[[1727,2991],[-2,-2]],[[3066,4036],[-10,60]],[[3056,4096],[10,-60]],[[3811,3047],[58,112]],[[3811,3047],[5,-9]],[[3836,3031],[-20,7]],[[3880,2162],[14,2]],[[3890,2158],[-1,0]],[[3889,2158],[0,1],[-3,1]],[[3886,2160],[-6,2]],[[3894,2164],[-4,-5]],[[3890,2159],[-1,-1]],[[3889,2158],[-3,-4]],[[3886,2156],[0,4]],[[3886,2160],[1,1]],[[3888,2161],[1,-1],[1,-1]],[[3890,2159],[0,-1]],[[3952,3118],[0,1]],[[3980,2563],[-5,10]],[[3976,2573],[8,-7]],[[3991,2562],[-11,1]],[[3986,2567],[5,-5]],[[1665,2792],[84,15],[17,35],[57,19]],[[1681,2850],[75,-28]],[[2034,2905],[-11,-3]],[[2427,3114],[115,68],[107,10]],[[2650,2423],[177,70],[24,72],[-29,49],[78,135],[-4,50]],[[2657,3192],[58,-7],[89,-76],[97,-218]],[[1709,3312],[-15,-13]],[[4034,905],[-38,132]],[[1443,2750],[-56,-83]],[[3866,2197],[48,-39],[40,0],[26,15],[25,95]],[[4028,2475],[-29,81],[36,24],[-22,60]],[[4023,2701],[6,-15]],[[1970,1209],[-18,-34],[19,-47],[-57,-14],[-21,-68],[-47,-47],[18,-65],[-18,-50],[51,-48]],[[2035,1273],[48,126],[-32,72],[15,50],[22,-1],[-29,20],[-12,66]],[[3566,348],[5,-155],[-141,-158],[9,-35]],[[3848,580],[-184,-76],[-42,-49]],[[3849,581],[137,92],[71,124]],[[3970,912],[74,-6],[52,42]],[[3975,2753],[32,-47],[71,-13]],[[4096,2676],[-18,17]],[[3897,929],[59,-50],[29,11]],[[2671,3020],[-57,-27],[-21,25],[-62,-21],[-25,-52],[-71,24],[-52,-41],[-79,-11]],[[2670,3014],[55,-60],[16,-66]],[[2901,2890]],[[3553,2507]],[[2589,2545],[48,-39],[23,-80]],[[3732,1680],[51,-5]],[[3772,1688],[80,-36],[-5,-78],[30,-48]],[[3933,1431],[20,-11],[4,-91],[70,-41],[-29,-29],[19,-157],[-21,-65]],[[3183,2262],[-3,10]],[[2110,4040],[-112,17],[-4,39]],[[1942,3961],[23,0]],[[2925,4096],[37,-44]],[[2962,4052],[21,-26],[7,-5],[4,-7],[0,-1]],[[2994,4013],[1,-2]],[[2995,4011],[6,-11],[1,0],[34,-20]],[[2952,4096],[14,-37],[-4,-7]],[[2962,4052],[-5,-9]],[[2992,4019],[2,-6]],[[2994,4013],[1,-1],[-4,7]],[[3058,4054],[-37,-12],[-12,-10],[-14,-21]],[[2995,4011],[-4,-6],[6,3]],[[3058,4054],[1,2]],[[3059,4056],[26,0]],[[3110,3736],[10,83],[-40,87],[28,27],[-7,103]],[[1088,3772],[-10,5]],[[1167,3901],[-126,-214],[0,-79],[0,79],[125,213]],[[1403,2647],[-1,1],[-36,17]],[[1366,2665],[31,-13]],[[1403,2646],[-2,2]],[[2953,1882],[87,82]],[[3475,1655],[-11,-17]],[[3584,3578],[0,-1]],[[2833,1621],[9,9]],[[2842,1630],[-2,-8]],[[2890,1762],[28,-69],[-76,-63]],[[2903,1774],[-9,29],[36,37],[-31,90]],[[1703,3388],[136,71],[19,35]],[[2029,3902],[107,63]],[[2081,3941],[15,9]],[[2200,4096],[28,-3],[3,3]],[[2901,2890],[-160,-2]],[[3009,895],[-3,32]],[[1884,3926],[-40,6],[-39,50]],[[1880,3923],[-9,-21],[-13,25]],[[1899,2815],[1,36]],[[1910,2927],[12,94],[43,21],[-23,48]],[[1997,3961],[47,-2],[25,28]],[[2070,3999],[32,14]],[[1474,3179],[4,7]],[[1600,3145],[-63,47],[-14,-17]],[[1613,3140],[-12,8]],[[1631,3133],[61,-23]],[[2089,3175],[137,113]],[[2282,3821],[96,-235],[38,-4],[1,-90]],[[2295,3319],[54,12],[39,43],[33,108]],[[1653,2978],[35,5]],[[3098,4041],[10,55]],[[2366,2054],[40,195],[-42,28]],[[2511,261],[14,1]],[[3115,3374],[118,122],[24,95]],[[3858,2417],[113,-24]],[[1613,2975],[27,-2],[2,-46]],[[2537,414],[10,-5]],[[2555,404],[62,-29]],[[4005,2268],[-24,122],[47,85]],[[2703,270],[47,-89]],[[3497,1687],[-1,-2]],[[3546,1751],[-45,-59]],[[730,3752],[3,-2],[2,-1],[7,-3]],[[742,3746]],[[742,3746]],[[742,3746],[21,6]],[[1977,1929],[56,-127],[73,15],[-7,-39],[106,0]],[[2205,1778],[108,21]],[[2205,1778],[18,7]],[[1403,2647],[16,-13],[9,-3],[6,-1]],[[1434,2630]],[[1434,2630],[1,0],[100,33]],[[1444,2637],[-9,-7]],[[1435,2630],[-1,0]],[[1434,2630],[-1,-1]],[[1433,2629],[1,1]],[[1434,2630],[1,0]],[[1435,2630],[7,4]],[[3576,2810],[20,5]],[[3813,2801],[-217,14]],[[3596,2815],[214,-12],[6,-2]],[[3829,2799],[-7,-1],[-9,3]],[[3837,2799],[-15,0],[-9,2]],[[3816,2801],[21,-1]],[[3816,2801],[13,-1]],[[1690,2988],[-57,-20],[-20,9]],[[1613,2978],[77,10]],[[2224,2053],[-14,-17],[40,-83]],[[2254,1894],[-4,59]],[[2254,1894],[8,-59],[44,-36]],[[2304,537],[14,48],[-38,49],[49,65]],[[2318,977],[-2,0]],[[2316,977],[3,-103],[40,-74],[-26,-98]],[[2354,1049],[-36,-72]],[[2333,702],[-4,-3]],[[2358,1052],[-4,-3]],[[2355,1048],[-1,1]],[[2589,2545],[-54,64]],[[3644,319],[-19,36]],[[4006,2982],[2,70]],[[4008,3052],[0,17]],[[4008,3069],[-67,57]],[[3941,3127],[67,-57],[0,-1]],[[4008,3069],[0,-17]],[[4008,3052],[-1,-68]],[[4044,906],[7,38]],[[4052,944],[4,-1]],[[3418,3849],[-57,26]],[[3668,270],[86,-270]],[[4050,327],[46,-11]],[[1611,3123],[-2,-6]],[[3833,3999],[61,83],[24,-4],[113,-264]],[[4095,3783],[-14,73]],[[4096,3778],[-1,5]],[[4096,3778],[0,-33]],[[1899,833],[25,116]],[[2323,1669],[-114,-7],[-45,-72],[46,-218],[-170,-156],[-49,-122],[15,-21],[-82,-124]],[[2403,1707],[17,6],[36,-65],[74,-54],[72,13],[76,-60],[80,-6]],[[2758,1541],[5,4]],[[2763,1545],[2,5]],[[2765,1550],[74,73],[29,-30],[-19,-82],[16,-14],[68,4],[39,33]],[[2972,1534],[19,27]],[[2991,1561],[26,38],[-28,58],[88,113]],[[3077,1770],[0,14]],[[3077,1784],[1,2]],[[3078,1786],[11,24]],[[3089,1810],[60,139],[-46,36],[-31,-36],[-24,22],[2,81],[-39,74],[59,58],[56,120],[38,-30]],[[3766,2405],[-212,-82],[-190,9],[-85,-52],[-88,-14]],[[3501,1692],[-4,-5]],[[2064,1243],[-29,30],[-29,-55],[-67,36],[-80,0],[-54,43],[18,247],[21,0],[-10,78],[133,245],[-26,59]],[[2396,456],[-58,33],[-26,53],[-12,-45],[-32,10],[-79,71],[-70,236]],[[2370,2279],[7,54],[-26,34],[51,78],[-66,18],[55,27],[18,47],[122,64],[20,69]],[[2601,2736],[28,58]],[[2629,2794],[-24,42],[66,101],[-2,90]],[[2621,2803],[8,-9]],[[2122,817],[-220,20]],[[3155,3971],[38,125]],[[1405,2646],[-2,0]],[[1613,2661],[10,18]],[[3580,3098],[-2,-9]],[[3738,2130],[-13,0]],[[3818,3629],[2,0]],[[3827,3467],[15,-43]],[[3904,2934],[134,-79],[-101,52]],[[4006,3479],[-1,12]],[[4009,3516],[8,-15]],[[4051,944],[1,0]],[[3384,3839],[14,21]],[[3398,3817],[5,2]],[[3596,2915],[-69,133]],[[1942,3109],[2,1],[3,-10]],[[1942,3109],[2,0]],[[3462,3370],[64,44],[66,154]],[[3523,3475],[11,-6]],[[3698,3624],[95,14],[23,32]],[[1420,3856],[-56,-33],[-29,32]],[[1505,3807],[-44,25]],[[1511,3804],[86,-60]],[[2284,3011],[-30,7]],[[2254,3018],[19,0],[6,-1],[5,-5]],[[1688,2983],[37,6]],[[2958,425],[46,-25],[99,13],[74,43],[84,-14],[64,-72],[96,-33],[139,0]],[[3740,396]],[[3740,396],[6,0]],[[3760,399],[-14,-3]],[[3760,399],[7,0]],[[3788,412],[-21,-13]],[[3797,419],[-9,-7]],[[3799,419],[-2,0]],[[3804,420],[-5,-1]],[[3810,419],[-6,1]],[[3813,419],[-3,0]],[[3813,419],[7,-1]],[[3828,416],[-4,6],[-4,-4]],[[3828,416],[-8,2]],[[3828,416],[41,2],[51,-46],[18,33]],[[3939,406],[10,15],[38,-61],[62,-2],[1,-31]],[[2547,409],[8,-5]],[[2617,375],[84,0],[-3,-83],[62,-141],[92,-66],[16,-85]],[[1167,3902],[7,22]],[[1174,3924],[-7,-23]],[[1448,2742],[2,-17],[-2,17]],[[1449,2725],[0,1]],[[1536,2672],[5,8]],[[1684,2803],[-19,-11]],[[2010,3103],[0,1]],[[2065,3136],[9,20],[15,19]],[[2089,3175],[-14,-19],[-2,-9],[-3,-6],[-5,-5]],[[2145,3945],[1,6]],[[2904,2820],[-3,69]],[[3038,890],[5,0]],[[3650,2566],[14,-3]],[[3798,3271],[14,-46],[26,-5]],[[3858,2417],[-4,14]],[[3947,3123],[-60,16]],[[1426,2762],[15,-2],[8,0],[-23,-2],[0,4]],[[1420,3867],[1,-8]],[[1421,3874],[15,68]],[[3476,3539],[-25,-164]],[[1483,2911],[3,6]],[[1486,2917],[1,1]],[[1487,2918],[7,15]],[[1495,2938],[-9,-20]],[[1486,2918],[-1,-1]],[[1485,2917],[-2,-6]],[[1483,2911],[20,-86]],[[1613,2977],[-114,-33],[-3,-18],[-6,-8],[-2,-1],[-2,0]],[[1486,2917],[-1,0]],[[1485,2917],[-2,-1],[-5,-2],[-5,-2],[-13,-1],[-12,-9],[11,9],[3,1],[12,1],[12,5]],[[1486,2918],[1,0]],[[1487,2918],[3,2]],[[1493,2922],[6,23],[114,33]],[[1503,2822],[0,3]],[[1503,2825],[1,-3]],[[1725,2989],[-22,-19],[-13,18]],[[1690,2988],[13,-18],[24,22]],[[1144,3022],[47,-2],[-30,-73],[81,-107]],[[1222,4096],[-2,-72],[-52,-34]],[[1174,3924],[1,59],[-1,-59]],[[1264,2801],[16,-34]],[[1292,2743],[100,-14],[32,23],[1,27],[2,2],[6,3],[1,1],[2,1]],[[1436,2786],[1,0],[12,-27],[-1,-17],[6,-2]],[[1448,2742],[0,17],[-12,27]],[[1436,2786]],[[3687,1786],[57,-35],[-26,-23],[24,-32],[-15,-39],[-44,-8],[47,-154],[-49,-99],[-74,-31],[-31,-53],[30,-64],[-36,-67],[12,-45],[65,-67],[80,-32],[16,-34],[75,9],[102,-57]],[[2313,1799],[61,-63]],[[1725,2989],[2,3]],[[1376,3036],[64,4],[10,66]],[[1450,3106],[-6,-28],[0,-1],[-2,0]],[[1450,3106],[24,73]],[[1478,3186],[32,-29],[13,18]],[[1479,3147],[1,3]],[[1600,3145],[4,-9],[6,-9]],[[1610,3127],[2,-2],[19,8]],[[1610,3127]],[[1610,3127],[3,13]],[[1793,3034],[-55,51],[-57,7],[11,18]],[[1917,3072],[8,1]],[[1925,3073],[7,5]],[[1932,3078],[154,92]],[[2010,3104],[55,32]],[[2065,3136],[-12,-8],[-6,-6],[-20,-14],[-17,-5]],[[2070,3999],[5,14],[45,45]],[[2120,4058],[6,6]],[[2106,3935],[-36,64]],[[2085,3171],[4,4]],[[2106,3935],[111,-23],[65,-91]],[[2121,4060],[-1,-2]],[[2120,4058],[-10,-18],[-7,-21],[4,-32],[83,-62]],[[2136,4078],[-10,-14]],[[2136,4078],[36,18]],[[2295,3319],[-69,-31]],[[3044,890],[22,-44]],[[3625,355],[-27,3],[-58,109]],[[3646,309],[-2,10]],[[1515,2654],[46,-55]],[[1536,2672],[-1,-9]],[[2381,1824],[-17,-43]],[[2364,1781],[39,-67]],[[2381,1824],[12,27],[-24,49]],[[1834,1622],[32,10]],[[1840,1631],[26,1]],[[1866,1632],[156,-4],[25,-22],[48,16]],[[2095,1622],[92,-12]],[[2095,1622],[202,126]],[[3588,1781],[-10,-9]],[[3698,1894],[-10,-33],[-43,-21]],[[2396,456],[84,-77]],[[2669,3027],[47,155]],[[2719,3188],[-4,-3]],[[3120,3731],[-47,-46],[4,-139],[-3,46]],[[3079,3538],[-3,28]],[[3082,3536],[-3,2]],[[3114,3374],[-35,164]],[[3110,3368],[-6,-7]],[[3829,4096],[7,-25],[-14,-50]],[[3626,4096],[0,-5],[98,-80]],[[3470,1650],[5,5]],[[3501,1692],[-4,-5]],[[1108,2173],[17,5]],[[1175,2172],[59,35],[9,39],[38,4],[63,132],[40,-4],[111,69],[66,108]],[[1547,2532],[8,7]],[[1684,2733],[-3,-5]],[[2625,1627],[-29,-20]],[[2625,1627],[-20,-21]],[[2625,1627],[58,70],[48,4],[72,55],[65,-24],[35,42],[97,4],[34,90]],[[722,3766],[-65,-58],[-67,6],[-1,-7],[-3,-2],[-3,-1],[-11,-4],[1,-36],[-53,-28]],[[581,3686],[1,5],[-7,5]],[[3160,765],[303,-3],[85,-22],[37,18],[-39,90],[42,44],[7,52],[101,34],[14,52],[110,-38]],[[3876,948]],[[3876,948],[21,-19]],[[3541,2801],[-630,14]],[[3173,3345],[-59,29]],[[3114,3374],[30,-10],[29,-19]],[[3527,3048],[-8,131],[-21,19],[-93,18],[-15,34],[-217,95]],[[3596,2915],[32,-44],[47,-7]],[[3675,2864],[-1,0]],[[3709,2555],[-34,309]],[[2937,1926],[25,-3],[53,10],[88,43],[49,5],[33,-48],[-98,-65],[-122,-330],[-89,-77],[-11,17],[-2,39],[2,75],[-14,39],[-31,-8],[-54,-42],[-117,-7],[-57,-14],[-67,-28],[-59,91],[-25,51],[2,48],[14,19],[19,8],[41,7],[25,15],[59,67],[65,48],[43,21],[106,36],[63,44],[23,-1],[18,-14],[7,-26],[11,-20]],[[2308,560],[-53,-13],[-42,26],[-20,49],[16,59],[-30,33],[-23,58],[-12,61],[6,50],[23,17],[32,-4],[61,-27],[67,-1],[33,-24],[20,-69],[-10,-41],[-50,-139],[-18,-35]],[[2470,1054],[-23,-16],[-13,10],[1,36],[6,37],[12,36],[17,17],[16,4],[8,7],[3,12],[34,11],[48,-23],[18,-28],[-10,-20],[-28,-33],[-31,-30],[-30,-15],[-28,-5]],[[2372,1968],[28,-144],[7,-292],[8,-27],[8,-22],[4,-28],[-8,-92],[-6,-27],[-12,-21],[-25,-32],[-27,-18],[-69,-28],[-14,-23],[-57,-133],[-16,-12],[-66,-32],[-24,-25],[-64,-84],[-41,-31],[-70,-41],[-73,-32],[-48,0],[-3,32],[43,181],[-34,-28],[-32,1],[-31,5],[-51,-29],[-1,17],[10,34],[11,21],[91,82],[59,38],[39,7],[35,-2],[32,7],[33,35],[-30,1],[-23,4],[-46,19],[-63,-27],[-50,30],[-35,64],[-13,77],[4,39],[12,31],[19,26],[24,19],[-19,55],[16,68],[35,69],[40,57],[30,75],[-15,68],[-65,108],[37,-2],[27,-17],[23,-20],[30,-10],[39,7],[59,34],[76,19],[51,22],[57,17],[60,-5],[84,-85]],[[3140,2277],[-9,-27],[-9,-22],[17,-22],[3,-36],[-8,-58],[-15,-37],[-41,-10],[-21,-10],[9,-33],[-18,12],[-36,29],[-7,41],[14,44],[-11,27],[-23,17],[-3,23],[43,71],[9,1],[1,-14],[9,5],[24,22],[24,10],[29,-14],[19,-19]],[[2888,4096],[1208,0],[0,-4096],[-1655,0],[-23,67],[-32,32],[-12,18],[-46,44],[-4,65],[39,32],[52,74],[0,84],[-71,72],[79,94],[121,45],[88,-114],[58,18],[61,43],[36,36],[10,22],[27,92],[1,4],[10,13],[25,10],[5,11],[-3,50],[3,12],[211,230],[29,88],[9,18],[38,24],[13,18],[6,32],[-9,31],[3,31],[23,69],[22,6],[76,-75],[27,38],[4,42],[-11,97],[14,26],[75,104],[62,38],[27,86],[-10,89],[-50,48],[24,35],[33,13],[84,0],[-24,45],[-67,54],[-9,42],[16,29],[207,182],[44,57],[35,86],[-78,-1],[-476,-91],[-48,-24],[-40,22],[27,47],[53,41],[201,103],[61,57],[33,18],[45,-5],[47,18],[24,5],[28,1],[0,26],[-40,16],[-32,34],[-20,41],[-7,37],[5,24],[13,26],[32,44],[11,19],[-5,14],[-11,16],[-5,22],[-37,67],[-224,182],[-134,143],[-84,48],[-24,62],[-19,226],[5,150],[-19,67],[1,44],[-4,17],[-17,14],[-15,4],[-15,1],[-13,7],[-60,44],[-21,25],[-14,39],[1,30],[-4,9]],[[1118,4096],[1234,0],[-12,-9],[-80,-80],[-68,32],[13,-66],[38,-59],[45,-106],[126,-216],[54,-57],[-9,-70],[-44,-14],[-1,-76],[-44,-47],[-73,-21],[-42,-44],[-42,-26],[-56,-30],[-30,-15],[50,-25],[29,-44],[62,-47],[72,0],[48,9],[142,105],[185,3],[94,-68],[35,-78],[61,-140],[7,-46],[3,-111],[-6,-31],[-55,-75],[-11,-46],[28,-56],[-55,-71],[-105,-55],[-109,-3],[-27,-23],[3,-38],[-18,-28],[-51,-8],[-14,-43],[-25,-14],[-72,-10],[-49,-37],[-45,2],[21,37],[-11,54],[-41,22],[-24,29],[-51,25],[-2,69],[-2,78],[41,-6],[33,14],[39,41],[30,25],[37,31],[33,35],[26,31],[-8,65],[-34,18],[-26,17],[-12,24],[9,18],[13,32],[-35,32],[-88,9],[-29,-23],[-35,0],[-94,21],[-87,-35],[-41,-43],[-51,-45],[-70,-16],[-51,-27],[-60,-8],[-22,29],[-2,31],[-10,10],[-27,-25],[16,-43],[-37,-57],[-74,-105],[-39,-59],[-25,-64],[-59,-47],[-56,-31],[-41,-2],[-10,-27],[-16,-55],[-69,-63],[-66,-50],[-9,-33],[-18,10],[-39,12],[-40,-25],[-27,-15],[-18,44],[45,37],[35,15],[40,16],[22,23],[33,86],[30,53],[29,52],[11,51],[-13,21],[-31,-19],[-18,23],[0,26],[35,7],[19,26],[30,11],[25,-37],[33,24],[39,81],[-103,-9],[1,49],[-59,125],[-31,27],[-25,16],[-17,22],[-7,42],[-16,37],[-48,15],[-29,-29],[-34,-15],[-34,74],[-67,43],[-32,53],[-25,54],[-11,35],[-4,41],[-11,43],[-24,34],[-28,28],[-39,13],[-21,104],[4,78],[40,36],[21,50],[-11,45],[6,57],[26,21],[8,101],[53,87],[112,-52],[43,-65],[2,-8],[-4,-31],[2,-8],[9,-2],[19,19],[17,19],[15,-7],[12,-25],[-19,-21],[-42,-78],[-8,-53],[17,-44],[30,17],[42,76],[89,-28],[45,-52],[32,-53],[-21,-30],[-7,-31],[7,-83],[-4,-53],[-24,-27],[-17,32],[-15,82],[-25,0],[9,-123],[40,-33],[11,-57],[-38,-38],[59,-41],[23,-16],[26,-28],[30,-21],[10,-21],[15,11],[13,21],[40,19],[17,27],[25,51],[153,-52],[152,-65],[45,12],[-51,62],[-159,227],[-4,99],[27,51],[25,79],[-6,71],[-98,72],[-89,91],[-83,-30],[-55,-38],[-30,0],[-4,67],[-72,51],[-32,-23],[-34,-43],[-40,-4],[-43,29],[-12,38],[-27,87],[17,-2],[30,-10],[-11,63],[2,29],[41,17],[-4,27]],[[1013,4096],[66,0],[-49,-53],[-14,36],[-3,17]],[[905,4096],[75,0],[-10,-63],[-11,-26],[-22,9],[-46,2],[-22,-38],[-20,-9],[-12,87],[62,16],[6,22]],[[2547,404],[65,0],[8,-46],[-57,-112],[-16,43],[-32,-38],[-39,100],[-61,9],[0,56],[-35,36],[53,14],[115,-24],[-1,-38]],[[3025,785],[-137,64],[93,102],[85,-82],[0,-62],[-41,-22]],[[4096,1056],[0,-267],[-67,14],[-155,100],[119,133],[103,20]],[[3627,306],[-142,98],[40,64],[70,-2],[150,-62],[-48,-87],[-70,-11]],[[2876,356],[-84,8],[-78,41],[-52,65],[-9,49],[98,55],[53,82],[86,-60],[73,-156],[-17,-50],[-70,-34]],[[2373,1641],[-53,30],[-27,64],[27,90],[31,21],[1,55],[33,-1],[15,-76],[4,-161],[-31,-22]],[[2809,3125],[103,-264],[-3,-142],[-66,-121],[28,-56],[-55,-71],[-105,-55],[-55,-2],[-69,92],[2,41],[131,32],[82,54],[4,36],[-33,38],[58,47],[-7,69],[-82,38],[-5,130],[-28,23],[-75,24],[-54,53],[-149,-72],[-32,74],[131,97],[185,3],[94,-68]],[[1544,3914],[0,-93],[-35,-18],[-34,35],[-58,-21],[8,120],[62,30],[57,-53]],[[1900,3245],[126,-4],[69,-73],[129,115],[52,110],[45,5],[-33,-100],[-161,-106],[71,-56],[-31,-62],[24,-98],[-115,-7],[-46,-70],[-97,39],[-101,-46],[-61,7],[37,-36],[108,-14],[0,-58],[-182,-53],[-34,70],[-27,-25],[16,-43],[-126,-185],[-83,-1],[-137,-91],[67,206],[-103,-9],[1,49],[-59,125],[-73,65],[-41,85],[84,324],[30,-24],[11,-57],[-38,-38],[148,-127],[68,51],[42,78],[305,-117],[45,12],[-210,289],[-4,99],[52,130],[-6,71],[-38,28],[27,8],[135,-36],[49,-46],[65,-384]],[[1609,3124],[8,-67],[-8,-157],[70,58],[34,93],[-2,24],[-102,49]],[[1120,4096],[219,0],[-21,-83],[17,-164],[-17,-28],[-87,67],[-30,-22],[-35,23],[7,101],[-70,1],[38,60],[-21,45]],[[1023,4096],[56,0],[-49,-53],[-7,53]],[[4096,3744],[0,-1272],[-125,5],[0,-154],[59,-96],[-67,-90],[-32,-141],[-110,-33],[-77,-177],[-97,0],[-32,-38],[-134,6],[-7,62],[-50,48],[57,48],[84,0],[-91,99],[-9,42],[223,211],[79,143],[-63,-1],[-30,92],[-91,19],[-4,70],[65,11],[0,26],[-72,50],[-27,78],[61,113],[-20,46],[38,18],[88,239],[-217,-141],[-305,282],[-84,48],[-24,62],[-36,504],[-120,70],[-39,103],[501,0],[0,-83],[-40,-118],[73,-113],[-65,-230],[43,-42],[171,65],[77,-23],[33,-106],[49,0],[48,29],[4,47],[-88,87],[19,58],[32,0],[16,121],[17,33],[129,0],[0,38],[65,-38],[32,-77],[93,0]],[[1963,4096],[404,0],[-107,-89],[-68,32],[98,-238],[-84,87],[-86,-42],[-26,13],[0,38],[-65,0],[0,39],[-97,76],[-49,-31],[2,-91],[-98,-31],[-81,77],[-2,55],[51,53],[20,52],[93,0],[21,-9],[76,3],[-2,6]]]}