{"objects":{"water":{"type":"GeometryCollection","geometries":[]},"buildings":{"type":"GeometryCollection","geometries":[]},"places":{"type":"GeometryCollection","geometries":[{"type":"Point","properties":{"source":"naturalearthdata.com","kind":"locality","name":"Progress","population":146,"min_zoom":7.0,"id":3061},"coordinates":[704,3704]},{"type":"Point","properties":{"kind":"locality","name:en":"Raychikhinsk","name":"\u0420\u0430\u0439\u0447\u0438\u0445\u0438\u043d\u0441\u043a","kind_detail":"town","source":"openstreetmap.org","min_zoom":8.0,"population":17590,"id":1028723862,"name:ja":"\u30e9\u30a4\u30c1\u30d2\u30f3\u30b9\u30af"},"coordinates":[83,3912]},{"type":"Point","properties":{"kind":"locality","name:en":"Progress","name":"\u041f\u0440\u043e\u0433\u0440\u0435\u0441\u0441","kind_detail":"town","name:de":"Progress","source":"openstreetmap.org","min_zoom":8.0,"population":10078,"id":782369973,"name:ja":"\u30d7\u30ed\u30b0\u30ec\u30b9"},"coordinates":[876,3671]},{"type":"Point","properties":{"kind":"locality","name:en":"Wuyun","name":"\u4e4c\u4e91\u9547","kind_detail":"town","source":"openstreetmap.org","min_zoom":8.0,"name:ru":"\u0423\u044e\u043d\u044c","name:zh":"W\u016by\u00fan zh\u00e8n","id":2166826028,"population":10000},"coordinates":[767,1602]},{"type":"Point","properties":{"kind":"locality","name:en":"Arkhara","name":"\u0410\u0440\u0445\u0430\u0440\u0430","kind_detail":"town","name:de":"Archara","source":"openstreetmap.org","min_zoom":8.0,"int_name":"Arkhara","population":8842,"id":468060289,"name:ja":"\u30a2\u30eb\u30cf\u30e9"},"coordinates":[2070,2237]},{"type":"Point","properties":{"kind":"locality","int_name":"Novobureyskiy","name":"\u041d\u043e\u0432\u043e\u0431\u0443\u0440\u0435\u0439\u0441\u043a\u0438\u0439","kind_detail":"town","source":"openstreetmap.org","min_zoom":8.0,"population":7040,"id":277113009,"name:ja":"\u30ce\u30f4\u30a9\u30d6\u30ec\u30a4\u30b9\u30ad\u30fc"},"coordinates":[1452,3899]},{"type":"Point","properties":{"kind":"locality","name:en":"Xiangyang","name":"\u5411\u9633\u4e61","kind_detail":"town","source":"openstreetmap.org","min_zoom":8.0,"name:zh":"Xi\u00e0ngy\u00e1ng xi\u0101ng","id":3566066556,"population":6600},"coordinates":[1121,1151]},{"type":"Point","properties":{"kind":"locality","name":"\u5e38\u80dc\u4e61","kind_detail":"town","source":"openstreetmap.org","min_zoom":8.0,"name:ru":"\u0427\u0430\u043d\u0448\u044d\u043d","name:zh":"Ch\u00e1ngsh\u00e8ng xi\u0101ng","id":3566064552,"population":4000},"coordinates":[407,2175]},{"type":"Point","properties":{"kind":"locality","name":"\u6caa\u5609\u4e61","kind_detail":"town","source":"openstreetmap.org","min_zoom":8.0,"name:zh":"H\u00f9ji\u0101 xi\u0101ng","id":3566066557,"population":2000},"coordinates":[223,762]}]},"transit":{"type":"GeometryCollection","geometries":[{"type":"LineString","properties":{"kind":"train","name":"Pyongyang \u2014 Moscow","sort_rank":275,"name:de":"Pj\u00f6ngjang \u2014 Moskau","source":"openstreetmap.org","min_zoom":6.0,"name:ko":"\ud3c9\uc591\u2013\ubaa8\uc2a4\ucf54\ubc14","name:ru":"\u041f\u0445\u0435\u043d\u044c\u044f\u043d \u2014 \u041c\u043e\u0441\u043a\u0432\u0430","ref":"002 Pyongyang - Moscow","osm_relation":true},"arcs":[6]},{"type":"MultiLineString","properties":{"source":"openstreetmap.org","kind":"train","name":"\u0425\u0430\u0431\u0430\u0440\u043e\u0432\u0441\u043a - \u0411\u043b\u0430\u0433\u043e\u0432\u0435\u0449\u0435\u043d\u0441\u043a","sort_rank":275,"min_zoom":6.0,"osm_relation":true},"arcs":[[7],[8],[9]]}]},"pois":{"type":"GeometryCollection","geometries":[{"type":"Point","properties":{"kind":"nature_reserve","name:en":"Khingan Nature Reserve","name:nl":"Zapovednik Chinganski","protect_class":"1","area":1767590000,"name":"\u0425\u0438\u043d\u0433\u0430\u043d\u0441\u043a\u0438\u0439 \u0437\u0430\u043f\u043e\u0432\u0435\u0434\u043d\u0438\u043a","source":"openstreetmap.org","min_zoom":6.9,"tier":2,"name:be":"\u0425\u0456\u043d\u0433\u0430\u043d\u0441\u043a\u0456 \u0437\u0430\u043f\u0430\u0432\u0435\u0434\u043d\u0456\u043a","id":-5576379,"osm_relation":true,"name:ja":"\u30d2\u30f3\u30ac\u30f3\u30b9\u30ad\u30fc\u81ea\u7136\u4fdd\u8b77\u533a"},"coordinates":[3274,642]},{"type":"Point","properties":{"kind":"nature_reserve","name:en":"Hingano-Arkhaninskiy zakaznik","protect_class":"4","area":1271890000,"source":"openstreetmap.org","min_zoom":7.13,"tier":2,"id":376931582,"name":"\u0425\u0438\u043d\u0433\u0430\u043d\u043e-\u0410\u0440\u0445\u0430\u0440\u0438\u043d\u0441\u043a\u0438\u0439 \u0437\u0430\u043a\u0430\u0437\u043d\u0438\u043a"},"coordinates":[4074,2804]}]},"boundaries":{"type":"GeometryCollection","geometries":[{"type":"MultiLineString","properties":{"name:kg":"Sina","name:ty":"Tinit\u014d","name:ka":"\u10e9\u10d8\u10dc\u10d4\u10d7\u10d8","name:ko":"\uc911\ud654\uc778\ubbfc\uacf5\ud654\uad6d","name:cv":"\u041a\u0438\u0442\u0430\u0439 \u0425\u0430\u043b\u0103\u0445 \u0420\u0435\u0441\u043f\u0443\u0431\u043b\u0438\u043a\u0438","name:cu":"\u0421\u0440\u0463\u0434\u0438\u043d\ua657\u043d\u0454","name:kl":"Kina","name:cs":"\u010c\u00ednsk\u00e1 lidov\u00e1 republika","name:ki":"China","name:kw":"Repoblek Werin China","name:kv":"\u041a\u0438\u0442\u0430\u0439","name:ku":"\u00c7\u00een","name:ks":"\u0686\u06cc\u0656\u0646","name:tl":"Republikang Popular ng Tsina","name:ce":"\u041a\u0438\u0442\u0430\u0439\u043d \u0425\u0430\u043b\u043a\u044a\u0430\u043d \u0420\u0435\u0441\u043f\u0443\u0431\u043b\u0438\u043a\u0430","name:ta":"\u0b9a\u0bc0\u0ba9 \u0bae\u0b95\u0bcd\u0b95\u0bb3\u0bcd \u0b95\u0bc1\u0b9f\u0bbf\u0baf\u0bb0\u0b9a\u0bc1","name:tg":"\u04b6\u0443\u043c\u04b3\u0443\u0440\u0438\u0438 \u0425\u0430\u043b\u049b\u0438\u0438 \u0427\u0438\u043d","name:ky":"\u041a\u044b\u0442\u0430\u0439","name:te":"\u0c1a\u0c48\u0c28\u0c3e","name:cy":"Gweriniaeth Pobl Tsieina","name:qu":"Chunwa Runallaqta Republika","name:de":"China","source":"openstreetmap.org","name:kn":"\u0c9a\u0cc0\u0ca8\u0cbf \u0c9c\u0ca8\u0cb0 \u0c97\u0ca3\u0cb0\u0cbe\u0c9c\u0ccd\u0caf","name:dv":"\u0790\u07a9\u0782\u07aa\u0786\u07a6\u0783\u07a6","name:lv":"\u0136\u012bna","name:lt":"Kinijos Liaudies Respublika","name:uz":"Xitoy Xalq Respublikasi","name:kk":"\u049a\u044b\u0442\u0430\u0439 \u0425\u0430\u043b\u044b\u049b \u0420\u0435\u0441\u043f\u0443\u0431\u043b\u0438\u043a\u0430\u0441\u044b","name:ur":"\u0686\u06cc\u0646","name:lb":"Volleksrepublik China","name:tt":"\u041a\u044b\u0442\u0430\u0439","name:uk":"\u041a\u0438\u0442\u0430\u0439\u0441\u044c\u043a\u0430 \u041d\u0430\u0440\u043e\u0434\u043d\u0430 \u0420\u0435\u0441\u043f\u0443\u0431\u043b\u0456\u043a\u0430","name:ug":"\u062c\u06c7\u06ad\u062e\u06c7\u0627 \u062e\u06d5\u0644\u0642 \u062c\u06c7\u0645\u06be\u06c7\u0631\u0649\u064a\u0649\u062a\u0649","name:ln":"S\u00edna","name:lo":"\u0e9b\u0eb0\u0ec0\u0e97\u0e94\u0e88\u0eb5\u0e99","name:el":"\u039b\u03b1\u03ca\u03ba\u03ae \u0394\u03b7\u03bc\u03bf\u03ba\u03c1\u03b1\u03c4\u03af\u03b1 \u03c4\u03b7\u03c2 \u039a\u03af\u03bd\u03b1\u03c2","name:eo":"\u0108inujo","name:en":"China","name":"\u4e2d\u56fd","name:tk":"Hyta\u00fd Halk Respublikasy","name:ee":"China","name:th":"\u0e1b\u0e23\u0e30\u0e40\u0e17\u0e28\u0e08\u0e35\u0e19","name:eu":"Txinako Herri Errepublika","name:et":"Hiina","name:es":"Rep\u00fablica Popular China","name:ia":"China","name:ro":"Republica Popular\u0103 Chinez\u0103","name:ie":"China","name:id":"Republik Rakyat Cina","name:pa":"\u0a1a\u0a40\u0a28 \u0a26\u0a3e \u0a32\u0a4b\u0a15 \u0a30\u0a3e\u0a1c\u0a40 \u0a17\u0a23\u0a24\u0a70\u0a24\u0a30","name:io":"Chinia","name:is":"Al\u00fe\u00fd\u00f0ul\u00fd\u00f0veldi\u00f0 K\u00edna","name:am":"\u12e8\u127b\u12ed\u1293 \u1215\u12dd\u1263\u12ca \u122a\u1350\u1265\u120a\u12ad","name:it":"Cina","name:ru":"\u041a\u0438\u0442\u0430\u0439\u0441\u043a\u0430\u044f \u041d\u0430\u0440\u043e\u0434\u043d\u0430\u044f \u0420\u0435\u0441\u043f\u0443\u0431\u043b\u0438\u043a\u0430","name:ab":"\u0410\u0447\u044b\u043d\u04ad\u0430\u0442\u04d9\u0438 \u0410\u0436\u04d9\u043b\u0430\u0440\u0442\u04d9 \u0420\u0435\u0441\u043f\u0443\u0431\u043b\u0438\u043a\u0430","alt_name:ru":"\u041a\u0438\u0442\u0430\u0439","kind_detail":"2","name:zh":"Zh\u014dnggu\u00f3","name:so":"Shiinaha","name:sn":"China","name:sm":"Saina","name:sk":"\u010c\u00ednska \u013eudov\u00e1 republika","name:si":"\u0da0\u0dd3\u0db1\u0dba","name:sg":"S\u00een\u00e4","name:se":"Kiinn\u00e1","name:sc":"Cina","name:bm":"China","name:bn":"\u0997\u09a3\u099a\u09c0\u09a8","name:bo":"\u0f40\u0fb2\u0f74\u0f44\u0f0b\u0f67\u0fad\u0f0b\u0f58\u0f72\u0f0b\u0f51\u0f58\u0f44\u0f66\u0f0b\u0f66\u0fa4\u0fb1\u0f72\u0f0b\u0f58\u0f50\u0f74\u0f53\u0f0b\u0f62\u0f92\u0fb1\u0f63\u0f0b\u0f41\u0f56\u0f0d","name:bi":"China","name:sw":"Jamhuri ya Watu wa China","name:be":"\u041a\u0456\u0442\u0430\u0439","name:st":"Tjhaena","name:ss":"IShayina","name:sr":"\u041a\u0438\u043d\u0430","name:sq":"Kina","name:pt":"Rep\u00fablica Popular da China","name:ps":"\u0686\u064a\u0646 \u062f \u062e\u0644\u06a9\u0648 \u062c\u0645\u0647\u0648\u0631\u064a\u062a","min_zoom":8.0,"int_name":"People's Republic of China","name:zh-min-nan":"Tiong-ho\u00e2 J\u00een-b\u00een Ki\u014dng-h\u00f4-kok","name:os":"\u041a\u0438\u0442\u0430\u0439","name:or":"\u0b1a\u0b40\u0b28","name:pl":"Chiny","sort_rank":262,"name:ba":"\u04a0\u044b\u0442\u0430\u0439","osm_relation":true,"name:ar":"\u0627\u0644\u0635\u064a\u0646","name:tr":"\u00c7in Halk Cumhuriyeti","name:hi":"\u091a\u0940\u0928\u0940 \u091c\u0928\u0935\u093e\u0926\u0940 \u0917\u0923\u0930\u093e\u091c\u094d\u092f","name:he":"\u05d4\u05e8\u05e4\u05d5\u05d1\u05dc\u05d9\u05e7\u05d4 \u05d4\u05e2\u05de\u05de\u05d9\u05ea \u05e9\u05dc \u05e1\u05d9\u05df","name:ha":"Sin","old_name:eo":"\u0124inujo","name:hy":"\u0549\u056b\u0576\u0561\u057d\u057f\u0561\u0576\u056b \u053a\u0578\u0572\u0578\u057e\u0580\u0564\u0561\u056f\u0561\u0576 \u0540\u0561\u0576\u0580\u0561\u057a\u0565\u057f\u0578\u0582\u0569\u0575\u0578\u0582\u0576","name:hu":"K\u00ednai N\u00e9pk\u00f6zt\u00e1rsas\u00e1g","name:hr":"Kina","kind":"country","name:ts":"China","name:yi":"\u05db\u05d9\u05e0\u05e2","name:iu":"China","name:mt":"\u010aina","alt_name:eo":"\u0108inio","name:mr":"\u091a\u0940\u0928","name:my":"\u1010\u101b\u102f\u1010\u103a\u1015\u103c\u100a\u103a\u101e\u1030\u1037\u101e\u1019\u1039\u1019\u1010\u1014\u102d\u102f\u1004\u103a\u1004\u1036","official_name":"\u4e2d\u534e\u4eba\u6c11\u5171\u548c\u56fd","name:ml":"\u0d1a\u0d48\u0d28","name:vi":"C\u1ed9ng h\u00f2a Nh\u00e2n d\u00e2n Trung Hoa","name:mn":"\u0411\u04af\u0433\u0434 \u041d\u0430\u0439\u0440\u0430\u043c\u0434\u0430\u0445 \u0425\u044f\u0442\u0430\u0434 \u0410\u0440\u0434 \u0423\u043b\u0441","name:mi":"Haina","id":-270056,"name:mk":"\u041d\u0430\u0440\u043e\u0434\u043d\u0430 \u0420\u0435\u043f\u0443\u0431\u043b\u0438\u043a\u0430 \u041a\u0438\u043d\u0430","name:vo":"Tsyin\u00e4n","name:fa":"\u062c\u0645\u0647\u0648\u0631\u06cc \u062e\u0644\u0642 \u0686\u06cc\u0646","name:rw":"Ubushinwa","name:fi":"Kiina","name:fo":"F\u00f3lkal\u00fd\u00f0veldi\u00f0 Kina","name:fr":"R\u00e9publique populaire de Chine","name:fy":"Sina","name:zu":"IShayina","name:na":"Tsiene","name:ne":"\u091c\u0928\u092c\u093e\u0926\u0940 \u0917\u0923\u0924\u0928\u094d\u0924\u094d\u0930 \u091a\u0940\u0928","name:wo":"R\u00e9ewum Popileer bu Siin","name:ga":"Daon-Phoblacht na S\u00edne","name:gd":"Sluagh-Phoblachd na S\u00ecne","name:gn":"China Tekoha Tet\u00e3","name:gv":"Deynphobblaght ny Sheen","name:gu":"\u0a9a\u0ac0\u0aa8"},"arcs":[[0],[1]]},{"type":"MultiLineString","properties":{"name:right:nl":"Oblast Amoer","name:right:ja":"\u30a2\u30e0\u30fc\u30eb\u5dde","name:right:fr":"Oblast d'Amour","name:right:uk":"\u0410\u043c\u0443\u0440\u0441\u044c\u043a\u0430 \u043e\u0431\u043b\u0430\u0441\u0442\u044c","int_name:left":"Heilongjiang","name:left:ja":"\u9ed2\u7adc\u6c5f\u7701","name:right:sv":"Amur oblast","name:right:lt":"Am\u016bro sritis","min_zoom":8.0,"name:left:lt":"Heilongdziangas","id":-199073,"name:right":"\u0410\u043c\u0443\u0440\u0441\u043a\u0430\u044f \u043e\u0431\u043b\u0430\u0441\u0442\u044c","name:left:en":"Heilongjiang","sort_rank":256,"kind_detail":"4","int_name:right":"Amur Oblast","source":"openstreetmap.org","id:left":-199073,"name:left":"\u9ed1\u9f99\u6c5f\u7701","name:right:es":"\u00d3blast de Amur","name:right:pt":"Oblast de Amur","name:right:it":"Oblast' dell'Amur","name:right:vi":"Amur (t\u1ec9nh)","name:left:ru":"\u0425\u044d\u0439\u043b\u0443\u043d\u0446\u0437\u044f\u043d","id:right":-147166,"name:right:pl":"Obw\u00f3d amurski","name:right:en":"Amur Oblast","osm_relation":true,"name:left:vi":"H\u1eafc Long Giang","kind":"region","name":"\u9ed1\u9f99\u6c5f\u7701 - \u0410\u043c\u0443\u0440\u0441\u043a\u0430\u044f \u043e\u0431\u043b\u0430\u0441\u0442\u044c","name:right:de":"Oblast Amur","name:left:de":"Heilongjiang","name:right:ca":"Prov\u00edncia de l'Amur","name:left:zh":"H\u0113il\u00f3ngji\u0101ng","name:left:fr":"Heilongjiang","name:right:zh":"\u963f\u7a46\u5c14\u5dde"},"arcs":[[2],[3]]},{"type":"MultiLineString","properties":{"name:right:nl":"Oblast Amoer","name:right:ja":"\u30a2\u30e0\u30fc\u30eb\u5dde","name:right:fr":"Oblast d'Amour","name:right:uk":"\u0410\u043c\u0443\u0440\u0441\u044c\u043a\u0430 \u043e\u0431\u043b\u0430\u0441\u0442\u044c","int_name:left":"Jewish Autonomous Oblast","name:left:ja":"\u30e6\u30c0\u30e4\u81ea\u6cbb\u5dde","id:right":-147166,"name:right:lt":"Am\u016bro sritis","min_zoom":8.0,"name:left:hy":"\u0540\u0580\u0565\u0561\u056f\u0561\u0576 \u056b\u0576\u0584\u0576\u0561\u057e\u0561\u0580 \u0574\u0561\u0580\u0566","name:left:be":"\u042f\u045e\u0440\u044d\u0439\u0441\u043a\u0430\u044f \u0430\u045e\u0442\u0430\u043d\u043e\u043c\u043d\u0430\u044f \u0432\u043e\u0431\u043b\u0430\u0441\u0446\u044c","name:right:pt":"Oblast de Amur","id":-147167,"name:right":"\u0410\u043c\u0443\u0440\u0441\u043a\u0430\u044f \u043e\u0431\u043b\u0430\u0441\u0442\u044c","name:left:en":"Jewish Autonomous Oblast","name:left:el":"\u0395\u03b2\u03c1\u03b1\u03ca\u03ba\u03ae \u0391\u03c5\u03c4\u03cc\u03bd\u03bf\u03bc\u03b7 \u03a0\u03b5\u03c1\u03b9\u03c6\u03ad\u03c1\u03b5\u03b9\u03b1","name:right:ca":"Prov\u00edncia de l'Amur","kind_detail":"4","name:left:ca":"Prov\u00edncia Aut\u00f2noma dels Hebreus","int_name:right":"Amur Oblast","source":"openstreetmap.org","name:left:yi":"\u05d9\u05d9\u05d3\u05d9\u05e9\u05e2 \u05d0\u05d5\u05d9\u05d8\u05d0\u05e0\u05d0\u05de\u05e2 \u05d2\u05e2\u05d2\u05e0\u05d8","id:left":-147167,"name:left:es":"\u00d3blast Aut\u00f3nomo Hebreo","name:left:he":"\u05d4\u05de\u05d7\u05d5\u05d6 \u05d4\u05d9\u05d4\u05d5\u05d3\u05d9 \u05d4\u05d0\u05d5\u05d8\u05d5\u05e0\u05d5\u05de\u05d9","name:left:cs":"\u017didovsk\u00e1 autonomn\u00ed oblast","name:left":"\u0415\u0432\u0440\u0435\u0439\u0441\u043a\u0430\u044f \u0430\u0432\u0442\u043e\u043d\u043e\u043c\u043d\u0430\u044f \u043e\u0431\u043b\u0430\u0441\u0442\u044c","name:right:es":"\u00d3blast de Amur","name:left:sv":"Judiska autonoma l\u00e4net","name:left:ka":"\u10d4\u10d1\u10e0\u10d0\u10d4\u10da\u10d7\u10d0 \u10d0\u10d5\u10e2\u10dd\u10dc\u10dd\u10db\u10d8\u10e3\u10e0\u10d8 \u10dd\u10da\u10e5\u10d8","name:left:ar":"\u0627\u0644\u0623\u0648\u0628\u0644\u0627\u0633\u062a \u0627\u0644\u064a\u0647\u0648\u062f\u064a\u0629 \u0627\u0644\u0630\u0627\u062a\u064a\u0629","name:left:pl":"\u017bydowski Obw\u00f3d Autonomiczny","name:left:os":"\u0414\u0437\u0443\u0442\u0442\u044b \u0430\u0432\u0442\u043e\u043d\u043e\u043c\u043e\u043d \u043e\u0431\u043b\u00e6\u0441\u0442","name:right:it":"Oblast' dell'Amur","name:left:az":"Y\u0259hudi Muxtar Vilay\u0259ti","name:right:vi":"Amur (t\u1ec9nh)","name:left:pt":"Oblast Aut\u00f4nomo Judaico","name:right:sv":"Amur oblast","name:left:it":"Oblast' autonoma ebraica","name:right:pl":"Obw\u00f3d amurski","name:right:en":"Amur Oblast","osm_relation":true,"name:left:vi":"T\u1ec9nh t\u1ef1 tr\u1ecb Do Th\u00e1i","name:left:uk":"\u0404\u0432\u0440\u0435\u0439\u0441\u044c\u043a\u0430 \u0430\u0432\u0442\u043e\u043d\u043e\u043c\u043d\u0430 \u043e\u0431\u043b\u0430\u0441\u0442\u044c","kind":"region","name":"\u0415\u0432\u0440\u0435\u0439\u0441\u043a\u0430\u044f \u0430\u0432\u0442\u043e\u043d\u043e\u043c\u043d\u0430\u044f \u043e\u0431\u043b\u0430\u0441\u0442\u044c - \u0410\u043c\u0443\u0440\u0441\u043a\u0430\u044f \u043e\u0431\u043b\u0430\u0441\u0442\u044c","name:left:fa":"\u0627\u0633\u062a\u0627\u0646 \u062e\u0648\u062f\u06af\u0631\u062f\u0627\u0646 \u06cc\u0647\u0648\u062f\u06cc","name:right:de":"Oblast Amur","name:left:de":"J\u00fcdische Autonome Oblast","sort_rank":256,"name:left:zh":"\u72b9\u592a\u81ea\u6cbb\u5dde","name:left:fr":"Oblast autonome juif","name:right:zh":"\u963f\u7a46\u5c14\u5dde","name:left:nl":"Joodse Autonome Oblast"},"arcs":[[4],[5]]}]},"roads":{"type":"GeometryCollection","geometries":[{"type":"LineString","properties":{"sort_rank":380,"kind_detail":"primary","min_zoom":8.0,"kind":"major_road","source":"openstreetmap.org"},"arcs":[10]},{"type":"LineString","properties":{"kind":"major_road","network":"ru:regional","sort_rank":380,"kind_detail":"primary","source":"openstreetmap.org","min_zoom":8.0,"shield_text":"10\u041a","ref":"10\u041a-118"},"arcs":[11]},{"type":"LineString","properties":{"kind":"major_road","network":"ru:national","sort_rank":381,"kind_detail":"trunk","source":"openstreetmap.org","min_zoom":8.0,"shield_text":"297","ref":"\u0420-297","id":286007485},"arcs":[12]},{"type":"LineString","properties":{"kind":"major_road","network":"ru:regional","sort_rank":380,"kind_detail":"primary","source":"openstreetmap.org","min_zoom":8.0,"landuse_kind":"urban_area","shield_text":"10\u041a","ref":"10\u041a-237"},"arcs":[13]},{"type":"MultiLineString","properties":{"kind":"major_road","network":"ru:regional","sort_rank":380,"kind_detail":"primary","source":"openstreetmap.org","min_zoom":8.0,"shield_text":"10\u041a","ref":"10\u041a-022"},"arcs":[[14],[15]]},{"type":"LineString","properties":{"source":"openstreetmap.org","kind":"major_road","sort_rank":380,"kind_detail":"primary","ref":"S311","min_zoom":8.0},"arcs":[16]},{"type":"LineString","properties":{"kind":"major_road","network":"ru:regional","sort_rank":380,"kind_detail":"primary","source":"openstreetmap.org","min_zoom":8.0,"shield_text":"10\u041a","ref":"10\u041a-042","id":320182128},"arcs":[17]},{"type":"MultiLineString","properties":{"kind":"major_road","network":"ru:regional","sort_rank":380,"kind_detail":"primary","source":"openstreetmap.org","min_zoom":8.0,"shield_text":"10\u041a","ref":"10\u041a-237"},"arcs":[[18],[19]]},{"type":"LineString","properties":{"kind":"major_road","network":"ru:regional","sort_rank":380,"kind_detail":"primary","source":"openstreetmap.org","min_zoom":8.0,"landuse_kind":"urban_area","shield_text":"10\u041a","ref":"10\u041a-022","id":25992036},"arcs":[20]},{"type":"MultiLineString","properties":{"kind":"major_road","name:en":"Amur","network":"ru:national","sort_rank":381,"kind_detail":"trunk","source":"openstreetmap.org","min_zoom":8.0,"shield_text":"297","ref":"\u0420-297"},"arcs":[[21],[22]]}]},"earth":{"type":"GeometryCollection","geometries":[{"type":"Polygon","properties":{"sort_rank":10,"source":"naturalearthdata.com","kind":"earth","min_zoom":0.0,"id":4764},"arcs":[[23]]}]},"landuse":{"type":"GeometryCollection","geometries":[{"type":"MultiPolygon","properties":{"source":"naturalearthdata.com","kind":"urban_area","name":"","area":134023014,"sort_rank":11,"min_zoom":4.0},"arcs":[[[24]],[[25]],[[26]]]},{"type":"Polygon","properties":{"kind":"nature_reserve","protect_class":"1","area":1767590016,"sort_rank":23,"source":"openstreetmap.org","min_zoom":4.0,"tier":2,"id":-5576379,"osm_relation":true},"arcs":[[27]]},{"type":"Polygon","properties":{"kind":"nature_reserve","protect_class":"4","area":1271890048,"sort_rank":23,"source":"openstreetmap.org","min_zoom":4.0,"tier":2,"id":376931582},"arcs":[[28]]},{"type":"Polygon","properties":{"kind":"nature_reserve","protect_class":"1","area":488588000,"sort_rank":23,"source":"openstreetmap.org","min_zoom":6.0,"tier":2,"id":-5576379,"osm_relation":true},"arcs":[[29]]}]}},"type":"Topology","transform":{"translate":[129.375,48.9224992638],"scale":[0.0003433228,0.0002235066]},"arcs":[[[0,2042],[0,-66]],[[2272,0],[-304,222],[-90,166],[-64,48],[-204,57],[-41,44],[-13,70],[54,69],[-16,93],[-67,52],[-119,10],[-28,31],[33,195],[-51,82],[-171,-3],[-56,45],[-44,80],[-15,269],[-99,119],[-130,18],[-192,-86],[-66,10],[-52,51],[-32,87],[-14,302],[-54,154],[-71,62],[-205,76],[-65,-5],[-96,-72]],[[0,2042],[0,-66]],[[2272,0],[-304,222],[-90,166],[-64,48],[-204,57],[-41,44],[-13,70],[54,69],[-16,93],[-67,52],[-119,10],[-28,31],[33,195],[-51,82],[-171,-3],[-56,45],[-44,80],[-15,269],[-99,119],[-130,18],[-192,-86],[-66,10],[-52,51],[-32,87],[-14,302],[-54,154],[-71,62],[-205,76],[-65,-5],[-96,-72]],[[4096,208],[-4,2],[4,39]],[[4096,250],[-116,-78],[21,-60],[-107,-31],[-40,-67],[-53,8],[-27,-22]],[[4096,762],[-69,21],[-36,114],[48,85],[-63,-4],[-17,57],[16,65],[-82,-16],[-114,45],[-103,195],[-175,76],[-127,-74],[-108,-1],[-78,65],[-103,36],[-108,-3],[-119,136],[-70,5],[-72,-41],[-66,20],[-43,58],[-228,151],[-150,252],[-95,58],[-104,215],[-178,280],[-125,114],[-57,95],[8,360],[-124,608],[-193,189],[-152,93],[-39,80]],[[1169,4096],[39,-81],[153,-93],[192,-188],[125,-608],[-10,-357],[59,-98],[124,-114],[179,-280],[104,-215],[36,-26]],[[1630,3393],[0,5]],[[4096,761],[-68,20],[-37,116],[48,85],[-63,-4],[-17,60],[17,60],[-83,-14],[-114,45],[-103,195],[-175,76],[-127,-74],[-105,-1],[-81,65],[-103,36],[-102,-7],[-67,66]],[[1542,3934],[-130,-13],[-18,-21]],[[1383,3883],[-94,-14],[-42,63],[-45,10]],[[2975,1784],[-2,1]],[[998,3711],[-88,-12]],[[142,3712],[-52,-41],[-90,4]],[[617,3610],[-62,7],[-115,79],[-236,45]],[[0,1640],[10,-27],[34,13],[17,-20],[9,-72],[41,-62],[52,35],[44,-9],[29,37],[57,-16],[38,-78],[49,-16],[105,94],[370,79],[69,-5],[47,-40],[46,-122],[2,-174],[55,-51],[53,-274],[75,-125],[170,-72],[32,-71],[-15,-47],[64,-101],[-5,-114],[30,-70],[72,-58],[103,-13],[54,-36],[168,-14],[-3,-211]],[[1394,3900],[-11,-17]],[[910,3699],[-153,28],[-110,-65],[-30,-52]],[[1202,3942],[-130,-126],[-10,-72],[-64,-33]],[[204,3741],[-62,-29]],[[1508,4096],[41,-181],[89,-43],[19,-60],[95,-95],[164,-492],[152,-155],[36,-301],[148,-159],[29,-145],[202,-328],[270,-229],[96,-19],[124,-104]],[[4096,1077],[-44,1],[-64,38],[-28,35],[-8,81],[-195,109],[-81,93],[-380,104],[-155,89],[-166,157]],[[0,0],[0,4096],[4096,0],[0,-4096],[-4096,0]],[[897,3625],[15,87],[-15,212],[89,-44],[30,-105],[-30,-106],[-89,-44]],[[218,3675],[-63,15],[-69,118],[-63,16],[32,150],[120,-91],[43,-208]],[[140,4096],[211,0],[44,-81],[49,-41],[-16,-30],[-113,-21],[-65,150],[-40,-18],[-39,-82],[-50,0],[19,123]],[[2575,424],[34,46],[-20,79],[58,17],[1,29],[95,104],[10,74],[84,46],[7,70],[31,22],[49,122],[35,18],[24,128],[83,-141],[33,-16],[53,72],[50,7],[71,120],[-63,94],[157,-1],[132,77],[162,-71],[119,-207],[89,-23],[0,-28],[69,-1],[31,-135],[-10,-91],[19,-12],[-38,-176],[-65,32],[-147,-167],[-7,-84],[-70,-49],[-45,14],[-43,-49],[-7,-66],[-34,-9],[2,-45],[-51,-39],[-28,-159],[-38,-26],[-265,13],[-18,40],[-37,-10],[-71,101],[-117,-75],[-254,-10],[5,100],[-37,-17],[-23,51],[29,95],[-26,59],[19,29],[-37,48]],[[3469,2752],[84,78],[19,114],[89,100],[-84,94],[26,71],[62,1],[10,73],[267,-118],[24,-72],[-15,-77],[68,-24],[77,56],[0,-587],[-106,-99],[-49,14],[3,46],[-103,-18],[-78,34],[-15,50],[-31,-4],[-36,64],[47,61],[-14,90],[-29,2],[-15,47],[12,19],[-74,24],[-139,-39]],[[696,2246],[42,71],[-16,84],[32,30],[4,141],[22,48],[64,-9],[20,38],[-13,42],[168,62],[289,-48],[61,-329],[-71,-72],[22,-62],[-52,-90],[-107,-36],[-76,39],[-144,-64],[-191,66],[-54,89]]]}