{"objects":{"water":{"type":"GeometryCollection","geometries":[{"type":"MultiPolygon","properties":{"source":"naturalearthdata.com","kind":"ocean","area":1576712559132672,"sort_rank":200,"min_zoom":0.0,"id":1},"arcs":[[[7],[8],[9],[10],[11],[12]]]},{"type":"MultiLineString","properties":{"source":"naturalearthdata.com","kind":"ocean","sort_rank":205,"boundary":true,"min_zoom":0.0,"id":26},"arcs":[[13],[14]]},{"type":"LineString","properties":{"source":"naturalearthdata.com","kind":"ocean","sort_rank":205,"boundary":true,"min_zoom":0.0,"id":137},"arcs":[15]},{"type":"LineString","properties":{"source":"naturalearthdata.com","kind":"ocean","sort_rank":205,"boundary":true,"min_zoom":0.0,"id":138},"arcs":[16]},{"type":"LineString","properties":{"source":"naturalearthdata.com","kind":"ocean","sort_rank":205,"boundary":true,"min_zoom":0.0,"id":139},"arcs":[17]},{"type":"LineString","properties":{"source":"naturalearthdata.com","kind":"ocean","sort_rank":205,"boundary":true,"min_zoom":0.0,"id":1824},"arcs":[18]},{"type":"LineString","properties":{"source":"naturalearthdata.com","kind":"ocean","sort_rank":205,"boundary":true,"min_zoom":0.0,"id":1825},"arcs":[19]}]},"buildings":{"type":"GeometryCollection","geometries":[]},"places":{"type":"GeometryCollection","geometries":[]},"transit":{"type":"GeometryCollection","geometries":[{"type":"MultiLineString","properties":{"kind":"train","name:en":"Super Oki","name":"\u30b9\u30fc\u30d1\u30fc\u304a\u304d","sort_rank":275,"source":"openstreetmap.org","min_zoom":6.0,"ref":"\u30b9\u30fc\u30d1\u30fc\u304a\u304d","osm_relation":true},"arcs":[[5],[6]]}]},"pois":{"type":"GeometryCollection","geometries":[]},"boundaries":{"type":"GeometryCollection","geometries":[{"type":"MultiLineString","properties":{"name:ty":"T\u0101p\u014dn\u0113","name:ka":"\u10d8\u10d0\u10de\u10dd\u10dc\u10d8\u10d0","name:ko":"\uc77c\ubcf8","name:cv":"\u042f\u043f\u043e\u043d\u0438","name:cu":"\ua656\u043f\u0461\u043d\u0457\ua657","name:kl":"Japani","name:cs":"Japonsko","name:tw":"Yapan","name:ki":"Japan","name:kw":"Nihon","name:kv":"\u042f\u043f\u043e\u043d\u0438\u044f","name:th":"\u0e1b\u0e23\u0e30\u0e40\u0e17\u0e28\u0e0d\u0e35\u0e48\u0e1b\u0e38\u0e48\u0e19","name:ti":"\u1303\u1353\u1295","name:tl":"Hapon","name:ch":"Chapan","name:ce":"\u042f\u043f\u043e\u043d\u0438","name:ta":"\u0b9c\u0baa\u0bcd\u0baa\u0bbe\u0ba9\u0bcd","name:tg":"\u0416\u043e\u043f\u0443\u043d","name:ca":"Jap\u00f3","name:te":"\u0c1c\u0c2a\u0c3e\u0c28\u0c4d","name:cy":"Japan","name:qu":"Nihun","name:da":"Japan","name:de":"Japan","name:dz":"\u0f47\u0f71\u0f0b\u0f54\u0f71\u0f53\u0f0d","source":"openstreetmap.org","name:kn":"\u0c9c\u0caa\u0cbe\u0ca8\u0ccd","name:dv":"\u0796\u07a6\u0795\u07a7\u0782\u07aa","name:km":"\u1787\u1794\u17c9\u17bb\u1793","name:lv":"Jap\u0101na","name:lt":"Japonija","name:uz":"Yaponiya","name:kk":"\u0416\u0430\u043f\u043e\u043d\u0438\u044f","name:ur":"\u062c\u0627\u067e\u0627\u0646","name:lb":"Japan","name:la":"Iaponia","name:tt":"\u042f\u043f\u043e\u043d\u0438\u044f","name:uk":"\u042f\u043f\u043e\u043d\u0456\u044f","name:ug":"\u064a\u0627\u067e\u0648\u0646\u0649\u064a\u06d5","name:li":"Japan","name:ln":"Zap\u0254\u0301","name:lo":"\u0e9b\u0eb0\u0ec0\u0e97\u0e94\u0e8d\u0eb5\u0ec8\u0e9b\u0eb8\u0ec8\u0e99","name:el":"\u0399\u03b1\u03c0\u03c9\u03bd\u03af\u03b1","name:eo":"Japanujo","name:en":"Japan","name":"\u65e5\u672c","name:tk":"\u00ddaponi\u00fda","name:ee":"Japan","name:ku":"Japon","name:eu":"Japonia","name:et":"Jaapan","name:es":"Jap\u00f3n","name:ay":"Nihun","name:rm":"Giapun","name:az":"Yaponiya","name:ie":"Japan","name:id":"Jepang","name:ar":"\u0627\u0644\u064a\u0627\u0628\u0627\u0646","name:io":"Japonia","name:is":"Japan","name:am":"\u1303\u1353\u1295","name:it":"Giappone","name:an":"Chap\u00f3n","name:ru":"\u042f\u043f\u043e\u043d\u0438\u044f","name:ab":"\u0418\u0430\u043f\u043e\u043d\u0438\u0430","name:af":"Japan","name:zu":"IJapani","kind_detail":"2","name:za":"Nditbonj","name:so":"Jabaan","name:sm":"Iapani","name:sl":"Japonska","name:sk":"Japonsko","name:ja":"Nippon","name:si":"\u0da2\u0db4\u0dcf\u0db1\u0dba","name:sh":"Japan","name:se":"J\u00e1hpan","name:sd":"\u062c\u0627\u067e\u0627\u0646","name:sc":"Giappone","name:br":"Japan","name:bs":"Japan","name:bn":"\u099c\u09be\u09aa\u09be\u09a8","name:bo":"\u0f62\u0f72\u0f0b\u0f54\u0f72\u0f53\u0f0d","name:sa":"\u0938\u0942\u0930\u094d\u092f\u092e\u0942\u0932","name:sw":"Japani","name:be":"\u042f\u043f\u043e\u043d\u0456\u044f","name:su":"Jepang","name:bg":"\u042f\u043f\u043e\u043d\u0438\u044f","name:ss":"IJaphani","name:ba":"\u042f\u043f\u043e\u043d\u0438\u044f","name:sq":"Japonia","name:jv":"Jepang","name:ia":"Japon","name:pt":"Jap\u00e3o","name:ps":"\u062c\u0627\u067e\u0627\u0646","name:om":"Jaappaan","name:oc":"Japon","min_zoom":8.0,"name:ro":"Japonia","name:zh-min-nan":"Ji\u030dt-p\u00fan","name:os":"\u042f\u043f\u043e\u043d","name:or":"\u0b1c\u0b3e\u0b2a\u0b3e\u0b28","name:pl":"Japonia","sort_rank":262,"name:sr":"\u0408\u0430\u043f\u0430\u043d","osm_relation":true,"name:pa":"\u0a1c\u0a2a\u0a3e\u0a28","name:tr":"Japonya","name:hi":"\u091c\u093e\u092a\u093e\u0928","name:sv":"Japan","name:he":"\u05d9\u05e4\u05df","name:ha":"Japan","name:hy":"\u0543\u0561\u057a\u0578\u0576\u056b\u0561","name:ht":"Japon","name:hu":"Jap\u00e1n","name:hr":"Japan","kind":"country","name:yi":"\u05d9\u05d0\u05e4\u05d0\u05df","name:iu":"\u14c3\u1449\u140a\u14d0","name:yo":"Japan","name:mt":"\u0120appun","alt_name:eo":"Japanio","name:ms":"Jepun","name:mr":"\u091c\u092a\u093e\u0928","name:my":"\u1002\u103b\u1015\u1014\u103a\u1014\u102d\u102f\u1004\u103a\u1004\u1036","name:mg":"Japana","name:vi":"Nh\u1eadt B\u1ea3n","name:ml":"\u0d1c\u0d2a\u0d4d\u0d2a\u0d3e\u0d7b","name:mn":"\u042f\u043f\u043e\u043d","name:mi":"Nipono","id":-382313,"name:mk":"\u0408\u0430\u043f\u043e\u043d\u0438\u0458\u0430","name:vo":"Yap\u00e4n","name:fa":"\u0698\u0627\u067e\u0646","name:rw":"Ubuyapani","name:fi":"Japani","name:ky":"\u0416\u0430\u043f\u043e\u043d\u0438\u044f","old_name:vi":"Nh\u1eadt B\u1ed5n","name:fo":"Japan","alt_name:vi":"Nh\u1eadt","name:fr":"Japon","name:fy":"Japan","name:nl":"Japan","name:nn":"Japan","name:no":"Japan","name:na":"Djapan","name:ne":"\u091c\u093e\u092a\u093e\u0928","name:wo":"Sapo\u014b","name:nv":"Bina\u02bcadaa\u0142tz\u00f3z\u00ed Din\u00e9\u02bci\u02bc Bik\u00e9yah","name:ga":"An tSeap\u00e1in","name:gd":"An t-Seapan","name:gn":"Hap\u00f5","name:gl":"Xap\u00f3n","maritime_boundary":true,"name:gv":"Yn \u00c7hapaan","name:gu":"\u0a9c\u0abe\u0aaa\u0abe\u0aa8"},"arcs":[[0],[1]]},{"type":"LineString","properties":{"kind":"region","name:en":"Shimane","name":"\u5cf6\u6839\u770c","sort_rank":256,"kind_detail":"4","source":"openstreetmap.org","min_zoom":8.0,"name:uk":"\u041f\u0440\u0435\u0444\u0435\u043a\u0442\u0443\u0440\u0430 \u0428\u0456\u043c\u0430\u043d\u0435","name:ru":"\u0421\u0438\u043c\u0430\u043d\u044d","name:pl":"Prefektura Shimane","id":-3346137,"osm_relation":true,"name:ja":"Shimane-Ken"},"arcs":[2]},{"type":"MultiLineString","properties":{"kind":"region","name:en":"Shimane","name":"\u5cf6\u6839\u770c","sort_rank":256,"kind_detail":"4","min_zoom":8.0,"source":"openstreetmap.org","maritime_boundary":true,"name:uk":"\u041f\u0440\u0435\u0444\u0435\u043a\u0442\u0443\u0440\u0430 \u0428\u0456\u043c\u0430\u043d\u0435","name:ru":"\u0421\u0438\u043c\u0430\u043d\u044d","name:pl":"Prefektura Shimane","id":-3346137,"osm_relation":true,"name:ja":"Shimane-Ken"},"arcs":[[3],[4]]}]},"roads":{"type":"GeometryCollection","geometries":[{"type":"MultiLineString","properties":{"source":"openstreetmap.org","kind":"major_road","sort_rank":380,"kind_detail":"primary","ref":"43","min_zoom":8.0},"arcs":[[20],[21],[22],[23],[24]]},{"type":"MultiLineString","properties":{"source":"openstreetmap.org","kind":"major_road","sort_rank":381,"kind_detail":"trunk","ref":"485","min_zoom":8.0},"arcs":[[25],[26],[27],[28],[29],[30]]},{"type":"MultiLineString","properties":{"source":"openstreetmap.org","kind":"major_road","landuse_kind":"urban_area","sort_rank":380,"kind_detail":"primary","ref":"2","min_zoom":8.0},"arcs":[[31],[32]]},{"type":"LineString","properties":{"kind":"major_road","name:en":"National Route 431","name:ja":"\u7523\u696d\u9053\u8def; \u56fd\u9053431\u53f7","sort_rank":381,"kind_detail":"trunk","source":"openstreetmap.org","min_zoom":8.0,"ref":"431"},"arcs":[33]},{"type":"MultiLineString","properties":{"source":"openstreetmap.org","kind":"highway","landuse_kind":"urban_area","sort_rank":383,"kind_detail":"motorway","ref":"E9","min_zoom":8.0},"arcs":[[34],[35],[36]]},{"type":"LineString","properties":{"source":"openstreetmap.org","kind":"major_road","sort_rank":380,"kind_detail":"primary","ref":"2","min_zoom":8.0},"arcs":[37]},{"type":"LineString","properties":{"sort_rank":355,"landuse_kind":"urban_area","min_zoom":8.0,"kind":"ferry","source":"openstreetmap.org"},"arcs":[38]},{"type":"MultiLineString","properties":{"source":"openstreetmap.org","kind":"major_road","landuse_kind":"urban_area","sort_rank":380,"kind_detail":"primary","ref":"37","min_zoom":8.0},"arcs":[[39],[40],[41],[42],[43],[44]]},{"type":"MultiLineString","properties":{"kind":"major_road","name:en":"National Route 9","network":"JP:national","sort_rank":381,"landuse_kind":"urban_area","source":"openstreetmap.org","min_zoom":8.0,"kind_detail":"trunk","shield_text":"9","ref":"9","name:ja":"\u5c71\u9670\u9053; \u56fd\u90539\u53f7"},"arcs":[[45],[46],[47]]},{"type":"LineString","properties":{"kind":"major_road","name:en":"National Route 9","name:ja":"\u5c71\u9670\u9053;\u56fd\u90539\u53f7","sort_rank":381,"landuse_kind":"urban_area","source":"openstreetmap.org","min_zoom":8.0,"kind_detail":"trunk","shield_text":"9","ref":"9","network":"JP:national"},"arcs":[48]},{"type":"MultiLineString","properties":{"source":"openstreetmap.org","kind":"major_road","sort_rank":380,"kind_detail":"primary","ref":"23","min_zoom":8.0},"arcs":[[49],[50],[51],[52],[53],[54],[55],[56]]},{"type":"LineString","properties":{"kind":"ferry","name":"Donghae - Sakaiminato","sort_rank":355,"landuse_kind":"urban_area","source":"openstreetmap.org","min_zoom":8.0,"ref":"Donghae - Sakaiminato","id":-1144862,"osm_relation":true},"arcs":[57]},{"type":"LineString","properties":{"kind":"major_road","name:en":"National Route 9","network":"JP:national","sort_rank":381,"landuse_kind":"urban_area","source":"openstreetmap.org","min_zoom":8.0,"kind_detail":"trunk","shield_text":"9","ref":"9"},"arcs":[58]},{"type":"MultiLineString","properties":{"source":"openstreetmap.org","kind":"major_road","landuse_kind":"urban_area","sort_rank":380,"kind_detail":"primary","ref":"21","min_zoom":8.0},"arcs":[[59],[60],[61],[62],[63]]},{"type":"LineString","properties":{"kind":"major_road","name:en":"National Route 485","name:ja":"\u56fd\u9053485\u53f7","sort_rank":381,"kind_detail":"trunk","source":"openstreetmap.org","min_zoom":8.0,"ref":"485","id":113107095},"arcs":[64]},{"type":"LineString","properties":{"kind":"ferry","name":"Donghae - Sakaiminato","sort_rank":355,"source":"openstreetmap.org","min_zoom":8.0,"ref":"Donghae - Sakaiminato","id":-1144862,"osm_relation":true},"arcs":[65]},{"type":"MultiLineString","properties":{"source":"openstreetmap.org","kind":"major_road","sort_rank":380,"kind_detail":"primary","ref":"37","min_zoom":8.0},"arcs":[[66],[67],[68],[69],[70],[71],[72]]},{"type":"LineString","properties":{"source":"openstreetmap.org","kind":"major_road","sort_rank":380,"kind_detail":"primary","ref":"30","min_zoom":8.0},"arcs":[73]},{"type":"LineString","properties":{"source":"openstreetmap.org","kind":"ferry","name":"\u5800\u5ddd\u904a\u89a7\u8239","sort_rank":355,"landuse_kind":"urban_area","min_zoom":8.0,"id":142780299},"arcs":[74]},{"type":"MultiLineString","properties":{"source":"openstreetmap.org","kind":"major_road","kind_detail":"trunk","sort_rank":381,"landuse_kind":"urban_area","ref":"431","min_zoom":8.0},"arcs":[[75],[76]]},{"type":"MultiLineString","properties":{"source":"openstreetmap.org","kind":"major_road","landuse_kind":"urban_area","sort_rank":380,"kind_detail":"primary","ref":"22","min_zoom":8.0},"arcs":[[77],[78]]},{"type":"MultiLineString","properties":{"sort_rank":355,"source":"openstreetmap.org","min_zoom":8.0,"kind":"ferry"},"arcs":[[79],[80],[81],[82],[83],[84],[85],[86],[87],[88],[89]]},{"type":"LineString","properties":{"kind":"major_road","name:en":"National Route 9","network":"JP:national","sort_rank":381,"kind_detail":"trunk","source":"openstreetmap.org","min_zoom":8.0,"shield_text":"9","ref":"9","name:ja":"\u5c71\u9670\u9053; \u56fd\u90539\u53f7"},"arcs":[90]},{"type":"MultiLineString","properties":{"source":"openstreetmap.org","kind":"major_road","landuse_kind":"urban_area","sort_rank":380,"kind_detail":"primary","ref":"47","min_zoom":8.0},"arcs":[[91],[92],[93],[94],[95]]},{"type":"MultiLineString","properties":{"kind":"major_road","name:en":"National Route 431","name:ja":"\u56fd\u9053431\u53f7","sort_rank":381,"landuse_kind":"urban_area","source":"openstreetmap.org","min_zoom":8.0,"kind_detail":"trunk","ref":"431"},"arcs":[[96],[97],[98],[99]]},{"type":"MultiLineString","properties":{"source":"openstreetmap.org","kind":"major_road","sort_rank":380,"kind_detail":"primary","ref":"21","min_zoom":8.0},"arcs":[[100],[101],[102]]},{"type":"MultiLineString","properties":{"source":"openstreetmap.org","kind":"major_road","name:en":"National Route 431","sort_rank":381,"kind_detail":"trunk","ref":"431","min_zoom":8.0},"arcs":[[103],[104],[105],[106]]},{"type":"LineString","properties":{"kind":"major_road","name:en":"National Route 485","name:ja":"\u56fd\u9053485\u53f7","sort_rank":381,"landuse_kind":"urban_area","source":"openstreetmap.org","min_zoom":8.0,"kind_detail":"trunk","ref":"485"},"arcs":[107]},{"type":"MultiLineString","properties":{"source":"openstreetmap.org","kind":"major_road","sort_rank":380,"kind_detail":"primary","ref":"44","min_zoom":8.0},"arcs":[[108],[109],[110],[111]]},{"type":"LineString","properties":{"sort_rank":355,"source":"openstreetmap.org","min_zoom":8.0,"kind":"ferry","name":"Donghae - Sakaiminato"},"arcs":[112]},{"type":"MultiLineString","properties":{"source":"openstreetmap.org","kind":"major_road","sort_rank":380,"kind_detail":"primary","ref":"47","min_zoom":8.0},"arcs":[[113],[114],[115],[116]]},{"type":"MultiLineString","properties":{"kind":"major_road","name:en":"National Route 431","sort_rank":381,"landuse_kind":"urban_area","source":"openstreetmap.org","min_zoom":8.0,"kind_detail":"trunk","ref":"431"},"arcs":[[117],[118],[119],[120],[121],[122],[123],[124],[125],[126],[127],[128],[129],[130],[131],[132],[133],[134]]},{"type":"LineString","properties":{"source":"openstreetmap.org","kind":"highway","sort_rank":383,"kind_detail":"motorway","ref":"\uff259","min_zoom":8.0},"arcs":[135]},{"type":"LineString","properties":{"kind":"highway","network":"JP:national","sort_rank":383,"landuse_kind":"urban_area","source":"openstreetmap.org","min_zoom":8.0,"all_networks":["JP:national"],"kind_detail":"motorway","shield_text":"485","all_shield_texts":["485"]},"arcs":[136]},{"type":"MultiLineString","properties":{"source":"openstreetmap.org","kind":"highway","sort_rank":383,"kind_detail":"motorway","ref":"E9","min_zoom":8.0},"arcs":[[137],[138],[139],[140],[141]]},{"type":"LineString","properties":{"kind":"major_road","name:en":"Sankokumi Tunnel","sort_rank":381,"kind_detail":"trunk","source":"openstreetmap.org","min_zoom":8.0,"ref":"485","id":493676846},"arcs":[142]},{"type":"LineString","properties":{"source":"openstreetmap.org","kind":"ferry","name":"Donghae - Sakaiminato","sort_rank":355,"landuse_kind":"urban_area","min_zoom":8.0,"id":42256885},"arcs":[143]},{"type":"LineString","properties":{"source":"openstreetmap.org","kind":"major_road","sort_rank":380,"kind_detail":"primary","ref":"54","min_zoom":8.0},"arcs":[144]},{"type":"MultiLineString","properties":{"kind":"major_road","name:en":"National Route 431","name:ja":"\u7523\u696d\u9053\u8def; \u56fd\u9053431\u53f7","sort_rank":381,"landuse_kind":"urban_area","source":"openstreetmap.org","min_zoom":8.0,"kind_detail":"trunk","ref":"431"},"arcs":[[145],[146],[147],[148]]},{"type":"LineString","properties":{"source":"openstreetmap.org","kind":"major_road","sort_rank":380,"kind_detail":"primary","ref":"36","min_zoom":8.0},"arcs":[149]}]},"earth":{"type":"GeometryCollection","geometries":[{"type":"MultiPolygon","properties":{"sort_rank":10,"source":"naturalearthdata.com","min_zoom":0.0,"kind":"earth","area":44042711619},"arcs":[[[150]],[[151]],[[152]],[[153]],[[154]],[[155]],[[156]]]}]},"landuse":{"type":"GeometryCollection","geometries":[{"type":"MultiPolygon","properties":{"source":"naturalearthdata.com","kind":"urban_area","name":"","area":7616115222,"sort_rank":11,"min_zoom":4.0},"arcs":[[[157]],[[158]],[[159]]]}]}},"type":"Topology","transform":{"translate":[132.1875,35.4606699515],"scale":[0.0003433228,0.0002776414]},"arcs":[[[4096,969],[-191,-5],[-164,127],[-204,77],[-153,16],[-369,-25],[-218,69],[166,73],[137,107],[164,244],[159,181],[270,77],[235,190],[168,289]],[[4096,3338],[-41,78],[-138,155],[-330,252],[-137,71],[-239,49],[-222,-22],[-198,-85],[-308,-219],[-207,-256],[-95,-241],[-140,-64],[-180,-130],[-183,-192],[-115,-181],[-59,-175],[-1,-336],[51,-162],[71,-122],[325,-375],[207,-126],[223,-59],[-159,-79],[-151,-126],[-1037,-403],[-184,-113],[-175,-165],[-96,-157],[-48,-155]],[[3097,0],[-82,70],[-70,165],[7,34],[61,44],[148,24],[107,-130],[166,-1]],[[3434,206],[204,181],[150,259],[117,318],[-142,114],[-188,81],[-191,25],[-369,-25],[-218,69],[166,73],[137,107],[164,244],[159,181],[270,77],[235,190],[168,298]],[[4096,3345],[-5,11],[-174,215],[-431,308],[-171,53],[-214,9],[-252,-73],[-344,-229],[-229,-278],[-95,-241],[-166,-79],[-243,-196],[-176,-231],[-77,-177],[-29,-177],[7,-184],[43,-164],[85,-154],[325,-375],[207,-126],[223,-59],[-159,-79],[-151,-126],[-1037,-403],[-184,-113],[-175,-165],[-96,-157],[-48,-155]],[[2600,0],[-34,15],[-29,-15]],[[4096,214],[-30,6],[-249,-38],[-196,-182]],[[4096,4096],[0,-3845],[-40,12],[-159,-41],[-95,-43],[-150,-70],[-61,-109],[-178,0],[-86,17],[-103,54],[-87,57],[-12,50],[-18,42],[2,44],[8,8],[36,48],[49,15],[35,18],[41,12],[38,23],[-50,32],[-64,-4],[-60,-7],[-58,-25],[-20,-13],[-33,4],[-14,13],[20,35],[-16,17],[-51,-36],[-51,-3],[-97,-34],[-43,27],[-64,53],[-42,46],[-41,14],[1,-50],[-29,-44],[-49,18],[-38,-24],[-27,-44],[-26,-56],[-55,-18],[-67,13],[-53,-9],[-11,-90],[-68,6],[-70,-20],[-167,-8],[-79,-17],[-96,-40],[-86,-51],[-66,-14],[-48,-16],[-31,-7],[55,-26],[12,-10],[-1634,0],[0,4096],[4096,0]],[[2448,1920],[108,5],[41,-5],[-36,46],[-63,49],[-61,20],[-34,-39],[1,-25],[10,-25],[15,-19],[19,-7]],[[2596,2123],[1,-105],[59,60],[69,91],[36,96],[-41,73],[-81,-25],[-36,-82],[-7,-108]],[[2579,2331],[41,11],[3,27],[-1,31],[-39,3],[-51,-10],[-53,21],[-70,-72],[-131,-104],[-59,-72],[47,-46],[47,-34],[39,-6],[26,36],[-31,66],[-8,38],[28,17],[29,-1],[14,-6],[5,-18],[1,-35],[8,-16],[21,-16],[26,-8],[26,4],[32,24],[4,21],[-9,26],[-7,39],[20,63],[42,17]],[[2630,2367],[8,-29],[60,13],[-60,36],[-8,-20]],[[3316,2633],[24,26],[27,19],[26,-2],[23,-43],[38,22],[17,38],[8,178],[-43,59],[-10,18],[-13,34],[-15,22],[-16,10],[-38,12],[-18,15],[-8,16],[-9,32],[-10,13],[-26,9],[-30,5],[-24,17],[-2,43],[-240,-163],[-39,-69],[-25,-223],[15,-37],[29,-13],[137,-122],[19,-12],[64,0],[117,-24],[22,-1],[33,27],[12,34],[-11,34],[-34,26]],[[1634,0],[-12,10],[-55,26],[31,7],[48,16],[66,14],[86,51],[96,40],[79,17],[167,8],[70,20],[68,-6],[11,90],[53,9],[67,-13],[55,18],[26,56],[27,44],[38,24],[49,-18],[29,44],[-1,50],[41,-14],[42,-46],[64,-53],[43,-27],[97,34],[51,3],[51,36],[16,-17],[-20,-35],[14,-13],[33,-4],[20,13],[58,25],[60,7],[64,4],[50,-32],[-38,-23],[-41,-12],[-35,-18],[-49,-15],[-36,-48],[-8,-8],[-2,-44],[18,-42],[12,-50],[87,-57],[103,-54],[86,-17]],[[3591,0],[61,109],[150,70],[95,43],[159,41],[40,-12]],[[2720,2338],[-81,-25],[-36,-82],[-7,-108],[1,-105],[59,60],[69,91],[36,96],[-41,73]],[[2583,2403],[-51,-10],[-53,21],[-70,-72],[-131,-104],[-59,-72],[47,-46],[47,-34],[39,-6],[26,36],[-31,66],[-8,38],[28,17],[29,-1],[14,-6],[5,-18],[1,-35],[8,-16],[21,-16],[26,-8],[26,4],[32,24],[4,21],[-9,26],[-7,39],[20,63],[42,17],[41,11],[3,27],[-1,31],[-39,3]],[[2630,2367],[8,-29],[60,13],[-60,36],[-8,-20]],[[2403,1996],[1,-25],[10,-25],[15,-19],[19,-7],[108,5],[41,-5],[-36,46],[-63,49],[-61,20],[-34,-39]],[[3436,2930],[-10,18],[-13,34],[-15,22],[-16,10],[-38,12],[-18,15],[-8,16],[-9,32],[-10,13],[-26,9],[-30,5],[-24,17],[-2,43],[-240,-163],[-39,-69],[-25,-223],[15,-37],[29,-13],[137,-122],[19,-12],[64,0],[117,-24],[22,-1],[33,27],[12,34],[-11,34],[-34,26],[24,26],[27,19],[26,-2],[23,-43],[38,22],[17,38],[8,178],[-43,59]],[[3281,2582],[4,6],[5,3]],[[3281,2582],[-23,77],[27,24]],[[3281,2582],[53,-4]],[[3282,2583],[8,8]],[[3290,2591],[2,0]],[[2350,2278],[19,1]],[[2369,2279],[12,1],[5,-5],[1,-1],[8,-3],[5,1],[34,37]],[[2369,2279],[11,49],[54,-19]],[[2434,2309],[48,15]],[[3105,3000],[-5,-119],[102,-59],[83,-139],[57,-7]],[[3106,3030],[49,82],[44,20],[117,-84],[45,-64],[44,17]],[[3021,310],[1,-11]],[[3059,326],[220,47]],[[3136,132],[5,-6]],[[3643,0],[3,3]],[[3667,24],[-21,-21]],[[3646,3],[21,21]],[[3279,373],[30,7]],[[3156,321],[-53,-7],[50,5]],[[2353,265],[95,14],[6,25]],[[2368,216],[57,-91],[43,-2],[56,-67],[-6,-21]],[[2393,173],[0,-2],[1,-2],[0,-1]],[[2518,27],[4,-18],[1,-8],[0,-1]],[[2521,0],[-4,28]],[[3020,395],[-88,-25]],[[3616,10],[-9,-10]],[[3625,23],[-3,-5]],[[3648,75],[-23,-51]],[[3622,18],[-6,-8]],[[1693,35],[-19,-35]],[[1713,62],[-19,-26]],[[1815,74],[-85,-8]],[[1817,76],[-2,-2]],[[1815,74],[7,-5]],[[1896,145],[-49,-44],[11,-21],[-32,-9]],[[1896,145],[-9,11]],[[2027,0],[-2,168],[-129,-23]],[[3103,314],[60,10]],[[3625,24],[0,-1]],[[2543,0],[-5,35]],[[2556,16],[-4,55]],[[2556,16],[4,-16]],[[2556,0],[0,16]],[[2580,133],[29,-34]],[[3034,397],[-6,0]],[[3163,324],[222,40],[-139,146],[-3246,1848]],[[2332,223],[-12,7]],[[2332,223],[-22,12],[-5,2],[-10,0],[-9,38],[32,20],[35,-30]],[[2332,223],[36,-7]],[[2454,304],[8,26],[45,6]],[[2531,369],[-6,-6]],[[2932,370],[-85,-43],[-70,32],[-98,107],[-78,-83],[-67,-13]],[[2683,466],[12,-8]],[[4096,54],[-4,-54]],[[2500,63],[11,-28],[23,-1],[1,20],[-35,9]],[[2699,178],[33,2]],[[3082,293],[1,0]],[[2546,14],[-6,-1]],[[2546,14],[11,2]],[[3034,401],[63,31],[53,94],[-3150,1803]],[[2481,2034],[11,19]],[[2492,2053],[34,-16],[46,-26]],[[2572,2011],[216,-125],[226,-481],[380,-1048],[-238,-36]],[[2492,2053],[45,57]],[[2537,2110],[10,102],[-28,96],[-33,24]],[[2501,2331],[92,-11]],[[2537,2110],[35,-99]],[[2572,2011],[3,-9]],[[2564,2335],[109,65],[195,42],[468,15],[62,68],[-10,64]],[[3153,319],[251,30],[20,783],[96,1257],[-176,283]],[[4096,225],[-17,4],[-257,-40],[-174,-114]],[[3064,286],[-84,-40]],[[2980,246],[39,-75],[86,-43]],[[3064,286],[10,-1]],[[3110,124],[-5,4]],[[3105,128],[-29,-34],[6,-19],[93,-75]],[[2540,76],[12,6]],[[3303,0],[-31,12]],[[3273,12],[-1,1]],[[3272,13],[37,-13]],[[2507,336],[10,2]],[[2534,370],[-17,-32]],[[2517,338],[35,-34],[-22,-29],[11,-94],[39,-48]],[[2018,0],[260,73],[111,-17]],[[2657,171],[5,3]],[[2662,173],[12,0]],[[2960,285],[-45,-22],[-103,10],[-27,-56],[-73,-28]],[[3031,326],[-3,71]],[[2939,2946],[-26,-31]],[[2913,2915],[7,19],[19,12]],[[2913,2915],[24,-31],[2,-165],[29,19],[3,-28],[52,15],[84,-169],[30,60],[122,46]],[[2939,2946],[63,40],[89,-24]],[[3163,324],[222,40],[-139,146],[-3246,1848]],[[3319,2678],[34,63],[68,-10],[58,176],[-23,6],[9,17]],[[3405,3001],[19,-61],[37,-6]],[[3465,2930],[2,5],[-6,-1]],[[3461,2934],[4,-4]],[[2389,56],[111,-37]],[[2518,27],[-18,-8]],[[2517,28],[1,7]],[[2518,35],[0,-8]],[[2518,35],[20,0],[2,41]],[[2707,185],[-27,-13]],[[2680,172],[-48,-22],[-30,-71],[-50,-8]],[[2552,71],[50,8],[30,72],[48,22]],[[2680,173],[27,12]],[[2552,71],[0,11]],[[2674,173],[6,0]],[[2680,173],[0,-1]],[[2680,172],[11,0]],[[2707,185],[5,4]],[[2960,285],[116,42],[7,-26],[-1,-6],[0,-5]],[[3075,286],[7,4]],[[3082,290],[-7,-2]],[[3083,293],[45,-150]],[[3883,174],[22,1]],[[2642,0],[4,73],[-29,31]],[[3667,24],[10,10],[33,22],[11,6]],[[3721,62],[-54,-38]],[[3721,62],[162,112]],[[3966,171],[-61,4]],[[3966,171],[130,2]],[[3105,3000],[1,30]],[[3103,314],[60,10]],[[3944,0],[-74,192]],[[3128,143],[8,-11]],[[3141,126],[127,-108]],[[3272,13],[-4,5]],[[3268,18],[4,-5]],[[3761,139],[2,-57],[36,-59]],[[4096,251],[0,-251],[-505,0],[61,109],[150,70],[95,43],[159,41],[40,-12]],[[3413,0],[-1779,0],[-12,10],[-55,26],[31,7],[48,16],[66,14],[86,51],[96,40],[79,17],[167,8],[70,20],[68,-6],[11,90],[53,9],[67,-13],[55,18],[26,56],[27,44],[38,24],[49,-18],[29,44],[-1,50],[41,-14],[42,-46],[64,-53],[43,-27],[97,34],[51,3],[51,36],[16,-17],[-20,-35],[14,-13],[33,-4],[20,13],[58,25],[60,7],[64,4],[50,-32],[-38,-23],[-41,-12],[-35,-18],[-49,-15],[-36,-48],[-8,-8],[-2,-44],[18,-42],[12,-50],[87,-57],[103,-54],[86,-17]],[[2561,1966],[36,-46],[-41,5],[-108,-5],[-19,7],[-15,19],[-10,25],[-1,25],[34,39],[61,-20],[63,-49]],[[2656,2078],[-59,-60],[-1,105],[7,108],[36,82],[81,25],[41,-73],[-36,-96],[-69,-91]],[[2479,2414],[53,-21],[51,10],[39,-3],[1,-31],[-3,-27],[-41,-11],[-42,-17],[-20,-63],[7,-39],[9,-26],[-4,-21],[-32,-24],[-26,-4],[-26,8],[-21,16],[-8,16],[-1,35],[-5,18],[-14,6],[-29,1],[-28,-17],[8,-38],[31,-66],[-26,-36],[-39,6],[-47,34],[-47,46],[59,72],[131,104],[70,72]],[[2698,2351],[-60,-13],[-8,29],[8,20],[60,-36]],[[3471,2693],[-17,-38],[-38,-22],[-23,43],[-26,2],[-27,-19],[-24,-26],[34,-26],[11,-34],[-12,-34],[-33,-27],[-22,1],[-117,24],[-64,0],[-19,12],[-137,122],[-29,13],[-15,37],[25,223],[39,69],[240,163],[2,-43],[24,-17],[30,-5],[26,-9],[10,-13],[9,-32],[8,-16],[18,-15],[38,-12],[16,-10],[15,-22],[13,-34],[10,-18],[43,-59],[-8,-178]],[[2724,0],[-307,0],[-31,18],[8,108],[-52,176],[67,-13],[55,18],[24,-157],[35,-41],[205,87],[40,-7],[2,-62],[-67,-37],[1,-62],[20,-28]],[[3465,0],[-371,0],[-95,165],[-77,236],[99,39],[10,-65],[235,45],[50,-32],[-163,-68],[-44,-56],[-2,-44],[30,-92],[190,-111],[138,-17]],[[3675,0],[-84,0],[51,91],[33,-91]]]}