{"objects":{"water":{"type":"GeometryCollection","geometries":[{"type":"Polygon","properties":{"source":"naturalearthdata.com","kind":"ocean","area":1576712559132672,"sort_rank":200,"min_zoom":0.0,"id":1},"arcs":[[0]]}]},"buildings":{"type":"GeometryCollection","geometries":[]},"places":{"type":"GeometryCollection","geometries":[{"type":"Point","properties":{"name:ia":"Palau","name:io":"Palau","name:ku":"Palau","name:it":"Palau","name:vi":"Palau","name:ru":"\u041f\u0430\u043b\u0430\u0443","name:pl":"Palau","id":1511934680,"name:ca":"Palau","name:vo":"Palau\u00e4ns","name:fa":"\u067e\u0627\u0644\u0627\u0626\u0648","name:fi":"Palau","name:de":"Palau","source":"openstreetmap.org","name:fr":"Palaos","name:be":"\u041f\u0430\u043b\u0430\u0443","name:zh":"\u5e15\u52b3","name:sk":"Palau","name:ja":"\u30d1\u30e9\u30aa","name:no":"Palau","name:he":"\u05e4\u05dc\u05d0\u05d5","kind":"country","name:br":"Palau","official_name":"Beluu er a Belau","name:uk":"\u041f\u0430\u043b\u0430\u0443","name:sv":"Palau","name:hu":"Palau","name:sr":"\u041f\u0430\u043b\u0430\u0443","population":20750,"name:el":"\u03a0\u03b1\u03bb\u03ac\u03bf\u03c5","name:eo":"Pala\u016do","name:en":"Palau","name":"Belau","min_zoom":2.0,"name:gl":"Palau","name:gv":"Palau","name:nl":"Palau","name:es":"Palaos"},"coordinates":[3280,1411]}]},"transit":{"type":"GeometryCollection","geometries":[]},"pois":{"type":"GeometryCollection","geometries":[]},"boundaries":{"type":"GeometryCollection","geometries":[]},"roads":{"type":"GeometryCollection","geometries":[]},"earth":{"type":"GeometryCollection","geometries":[]},"landuse":{"type":"GeometryCollection","geometries":[]}},"type":"Topology","transform":{"translate":[132.1875,5.6159858192],"scale":[0.0003433228,0.000341231]},"arcs":[[[4096,0],[-4096,0],[0,4096],[4096,0],[0,-4096]]]}