{"objects":{"water":{"type":"GeometryCollection","geometries":[{"type":"Polygon","properties":{"source":"naturalearthdata.com","kind":"ocean","area":1576712559132672,"sort_rank":200,"min_zoom":0.0,"id":1},"arcs":[[1],[2]]},{"type":"LineString","properties":{"source":"naturalearthdata.com","kind":"ocean","sort_rank":205,"boundary":true,"min_zoom":0.0,"id":3140},"arcs":[3]}]},"buildings":{"type":"GeometryCollection","geometries":[]},"places":{"type":"GeometryCollection","geometries":[]},"transit":{"type":"GeometryCollection","geometries":[]},"pois":{"type":"GeometryCollection","geometries":[]},"boundaries":{"type":"GeometryCollection","geometries":[{"type":"LineString","properties":{"name:ia":"Palau","name:sl":"Palau","name:sk":"Palau","name:lt":"Palau","name:cs":"Palau","name:eo":"Pala\u016do","name:io":"Palau","min_zoom":8.0,"name:uk":"\u041f\u0430\u043b\u0430\u0443","name:vi":"Palau","name:ru":"\u041f\u0430\u043b\u0430\u0443","name:pl":"Palau","name:ta":"\u0baa\u0bb2\u0bbe\u0bb5\u0bc1","name:hr":"Palau","name:sr":"\u041f\u0430\u043b\u0430\u0443","osm_relation":true,"name:vo":"Palau\u00e4ns","kind":"country","name:en":"Palau","name":"Belau","sort_rank":262,"kind_detail":"2","name:fr":"Palaos","id":-571805,"source":"openstreetmap.org","maritime_boundary":true,"name:de":"Palau","name:zh":"\u5e1b\u7409"},"arcs":[0]}]},"roads":{"type":"GeometryCollection","geometries":[]},"earth":{"type":"GeometryCollection","geometries":[{"type":"Polygon","properties":{"sort_rank":10,"source":"naturalearthdata.com","kind":"earth","min_zoom":0.0,"id":2046},"arcs":[[4]]}]},"landuse":{"type":"GeometryCollection","geometries":[]}},"type":"Topology","transform":{"translate":[132.1875,4.2149431414],"scale":[0.0003433228,0.0003420514]},"arcs":[[[0,3124],[104,-45],[98,29],[51,70],[19,152],[-25,91],[-74,58],[-100,3],[-73,-47]],[[0,0],[0,4096],[4096,0],[0,-4096],[-4096,0]],[[114,3185],[-19,17],[-18,-9],[19,-44],[18,36]],[[96,3149],[-19,44],[18,9],[19,-17],[-18,-36]],[[114,3185],[-18,-36],[-19,44],[18,9],[19,-17]]]}