{"objects":{"water":{"type":"GeometryCollection","geometries":[]},"buildings":{"type":"GeometryCollection","geometries":[]},"places":{"type":"GeometryCollection","geometries":[{"type":"Point","properties":{"name:pt":"Territ\u00f3rio do Norte","name:ro":"Teritoriul de Nord","name:sk":"Severn\u00e9 terit\u00f3rium","name:ja":"\u30ce\u30fc\u30b6\u30f3\u30c6\u30ea\u30c8\u30ea\u30fc","name:lt":"\u0160iaurin\u0117 Teritorija","name:he":"\u05d4\u05d8\u05e8\u05d9\u05d8\u05d5\u05e8\u05d9\u05d4 \u05d4\u05e6\u05e4\u05d5\u05e0\u05d9\u05ea","alt_name:eo":"Nordteritorio","min_zoom":4.0,"name:it":"Territorio del Nord","name:uk":"\u041f\u0456\u0432\u043d\u0456\u0447\u043d\u0430 \u0442\u0435\u0440\u0438\u0442\u043e\u0440\u0456\u044f","name:vi":"L\u00e3nh th\u1ed5 B\u1eafc","name:ru":"\u0421\u0435\u0432\u0435\u0440\u043d\u0430\u044f \u0442\u0435\u0440\u0440\u0438\u0442\u043e\u0440\u0438\u044f","id":304951006,"name:af":"Noordelike Gebied","name:eo":"Norda Teritorio","name":"Northern Territory","alt_name:vi":"L\u00e3nh th\u1ed5 B\u1eafc \u00dac","kind_detail":"state","kind":"region","name:de":"Nordterritorium","source":"openstreetmap.org","name:fr":"Territoire du Nord","name:be":"\u041f\u0430\u045e\u043d\u043e\u0447\u043d\u0430\u044f \u0442\u044d\u0440\u044b\u0442\u043e\u0440\u044b\u044f","name:zh":"\u5317\u9886\u5730","name:es":"Territorio del Norte"},"coordinates":[3037,2421]}]},"transit":{"type":"GeometryCollection","geometries":[]},"pois":{"type":"GeometryCollection","geometries":[]},"boundaries":{"type":"GeometryCollection","geometries":[]},"roads":{"type":"GeometryCollection","geometries":[]},"earth":{"type":"GeometryCollection","geometries":[{"type":"Polygon","properties":{"sort_rank":10,"source":"naturalearthdata.com","min_zoom":0.0,"kind":"earth","area":98022885885},"arcs":[[0]]}]},"landuse":{"type":"GeometryCollection","geometries":[]}},"type":"Topology","transform":{"translate":[132.1875,-20.6327842504],"scale":[0.0003433228,0.0003226662]},"arcs":[[[0,0],[0,2885],[0,1211],[4096,0],[0,-4096],[-4096,0]]]}