{"objects":{"water":{"type":"GeometryCollection","geometries":[]},"buildings":{"type":"GeometryCollection","geometries":[]},"places":{"type":"GeometryCollection","geometries":[{"type":"Point","properties":{"name:sk":"\u017didovsk\u00e1 auton\u00f3mna oblas\u0165","name:ja":"\u30e6\u30c0\u30e4\u81ea\u6cbb\u5dde","name:lt":"\u017dyd\u0173 autonomin\u0117 sritis","name:he":"\u05d4\u05de\u05d7\u05d5\u05d6 \u05d4\u05d9\u05d4\u05d5\u05d3\u05d9 \u05d4\u05d0\u05d5\u05d8\u05d5\u05e0\u05d5\u05de\u05d9","kind":"region","min_zoom":4.0,"name:uk":"\u0404\u0432\u0440\u0435\u0439\u0441\u044c\u043a\u0430 \u0430\u0432\u0442\u043e\u043d\u043e\u043c\u043d\u0430 \u043e\u0431\u043b\u0430\u0441\u0442\u044c","name:be":"\u042f\u045e\u0440\u044d\u0439\u0441\u043a\u0430\u044f \u0430\u045e\u0442\u0430\u043d\u043e\u043c\u043d\u0430\u044f \u0432\u043e\u0431\u043b\u0430\u0441\u0446\u044c","name:nl":"Joodse Autonome Oblast","name:pl":"\u017bydowski Obw\u00f3d Autonomiczny","name:hu":"Zsid\u00f3 auton\u00f3m ter\u00fclet","name:hr":"\u017didovska autonomna oblast","id":508056667,"name:af":"Joodse Outonome Oblast","name:eo":"Hebrea A\u016dtonomio","name:en":"Jewish region","name":"\u0415\u0432\u0440\u0435\u0439\u0441\u043a\u0430\u044f \u0430\u0432\u0442\u043e\u043d\u043e\u043c\u043d\u0430\u044f \u043e\u0431\u043b\u0430\u0441\u0442\u044c","kind_detail":"state","name:da":"J\u00f8diske autonome oblast","name:de":"J\u00fcdisches Autonomes Gebiet","source":"openstreetmap.org","name:fr":"Oblast autonome juif","name:et":"Juudi autonoomne oblast","name:es":"\u00d3blast Aut\u00f3nomo Hebreo"},"coordinates":[262,2505]},{"type":"Point","properties":{"name:pt":"Birobidjan","name:az":"Birobican","name:id":"Birobidzhan","name:ko":"\ube44\ub85c\ube44\uc794","name:ar":"\u0628\u064a\u0631\u0648\u0628\u064a\u062c\u0627\u0646","name:cs":"Birobid\u017ean","min_zoom":8.0,"int_name":"Birobidzhan","name:it":"Birobid\u017ean","name:tl":"Birobidzhan","name:be":"\u0411\u0456\u0440\u0430\u0431\u0456\u0434\u0436\u0430\u043d","name:vi":"Birobidzhan","name:pl":"Birobid\u017can","id":191738860,"name:mk":"\u0411\u0438\u0440\u043e\u0431\u0438\u045f\u0430\u043d","name:af":"Birobidzjan","name:lv":"Birobid\u017eana","name:fa":"\u0628\u06cc\u0631\u0648\u0628\u06cc\u062c\u0627\u0646","name:lt":"Birobid\u017eanas","kind_detail":"city","name:da":"Birobidzjan","name:de":"Birobidschan","source":"openstreetmap.org","name:fr":"Birobidjan","name:ca":"Birobidjan","name:zh":"\u6bd4\u7f57\u6bd4\u8a79","admin_level":"4","name:ro":"Birobidjan","name:ja":"\u30d3\u30ed\u30d3\u30b8\u30e3\u30f3","name:nn":"Birobidzjan","name:no":"Birobidzjan","name:he":"\u05d1\u05d9\u05e8\u05d5\u05d1\u05d9\u05d2'\u05df","kind":"locality","name:bs":"Birobid\u017ean","name:lb":"Birobidjan","name:uk":"\u0411\u0456\u0440\u043e\u0431\u0456\u0434\u0436\u0430\u043d","name:sv":"Birobidzjan","name:hu":"Birobidzsan","name:hr":"Birobid\u017ean","name:sr":"\u0411\u0438\u0440\u043e\u0431\u0438\u045f\u0430\u043d","population":74777,"name:eo":"Birobi\u011dano","name:en":"Birobidzhan","name":"\u0411\u0438\u0440\u043e\u0431\u0438\u0434\u0436\u0430\u043d","name:ku":"B\u00eerob\u00eecan","name:fi":"Birobid\u017ean","name:yi":"\u05d1\u05d9\u05e8\u05d0\u05b8\u05d1\u05d9\u05d3\u05d6\u05e9\u05d0\u05b7\u05df","name:et":"Birobid\u017ean","name:nl":"Birobidzjan","name:es":"Birobidzh\u00e1n"},"coordinates":[2157,3506]}]},"transit":{"type":"GeometryCollection","geometries":[{"type":"MultiLineString","properties":{"source":"openstreetmap.org","kind":"train","name":"\u0425\u0430\u0431\u0430\u0440\u043e\u0432\u0441\u043a \u2014 \u0427\u0435\u0433\u0434\u043e\u043c\u044b\u043d","sort_rank":275,"min_zoom":6.0,"osm_relation":true},"arcs":[[3],[4]]},{"type":"LineString","properties":{"kind":"train","name":"Pyongyang \u2014 Moscow","sort_rank":275,"name:de":"Pj\u00f6ngjang \u2014 Moskau","source":"openstreetmap.org","min_zoom":6.0,"name:ko":"\ud3c9\uc591\u2013\ubaa8\uc2a4\ucf54\ubc14","name:ru":"\u041f\u0445\u0435\u043d\u044c\u044f\u043d \u2014 \u041c\u043e\u0441\u043a\u0432\u0430","ref":"002 Pyongyang - Moscow","osm_relation":true},"arcs":[5]},{"type":"MultiLineString","properties":{"source":"openstreetmap.org","kind":"train","name":"\u0425\u0430\u0431\u0430\u0440\u043e\u0432\u0441\u043a - \u041e\u0431\u043b\u0443\u0447\u044c\u0435","sort_rank":275,"min_zoom":6.0,"osm_relation":true},"arcs":[[6],[7]]},{"type":"LineString","properties":{"source":"openstreetmap.org","kind":"train","name":"\u0425\u0430\u0431\u0430\u0440\u043e\u0432\u0441\u043a - \u0411\u043b\u0430\u0433\u043e\u0432\u0435\u0449\u0435\u043d\u0441\u043a","sort_rank":275,"min_zoom":6.0,"osm_relation":true},"arcs":[8]}]},"pois":{"type":"GeometryCollection","geometries":[{"type":"Point","properties":{"kind":"nature_reserve","name:en":"Churki nature reserve","name":"\u0417\u0430\u043a\u0430\u0437\u043d\u0438\u043a \u0427\u0443\u0440\u043a\u0438","area":1812740000,"official_name":"\u0413\u043e\u0441\u0443\u0434\u0430\u0440\u0441\u0442\u0432\u0435\u043d\u043d\u044b\u0439 \u043f\u0440\u0438\u0440\u043e\u0434\u043d\u044b\u0439 \u0437\u0430\u043a\u0430\u0437\u043d\u0438\u043a \u043e\u0431\u043b\u0430\u0441\u0442\u043d\u043e\u0433\u043e \u0437\u043d\u0430\u0447\u0435\u043d\u0438\u044f \"\u0427\u0443\u0440\u043a\u0438\"","source":"openstreetmap.org","min_zoom":6.88,"tier":2,"id":289788414},"coordinates":[1415,916]}]},"boundaries":{"type":"GeometryCollection","geometries":[{"type":"LineString","properties":{"name:kg":"Sina","name:ty":"Tinit\u014d","name:ka":"\u10e9\u10d8\u10dc\u10d4\u10d7\u10d8","name:ko":"\uc911\ud654\uc778\ubbfc\uacf5\ud654\uad6d","name:cv":"\u041a\u0438\u0442\u0430\u0439 \u0425\u0430\u043b\u0103\u0445 \u0420\u0435\u0441\u043f\u0443\u0431\u043b\u0438\u043a\u0438","name:cu":"\u0421\u0440\u0463\u0434\u0438\u043d\ua657\u043d\u0454","name:kl":"Kina","name:cs":"\u010c\u00ednsk\u00e1 lidov\u00e1 republika","name:ki":"China","name:kw":"Repoblek Werin China","name:kv":"\u041a\u0438\u0442\u0430\u0439","name:ku":"\u00c7\u00een","name:ks":"\u0686\u06cc\u0656\u0646","name:tl":"Republikang Popular ng Tsina","name:ce":"\u041a\u0438\u0442\u0430\u0439\u043d \u0425\u0430\u043b\u043a\u044a\u0430\u043d \u0420\u0435\u0441\u043f\u0443\u0431\u043b\u0438\u043a\u0430","name:ta":"\u0b9a\u0bc0\u0ba9 \u0bae\u0b95\u0bcd\u0b95\u0bb3\u0bcd \u0b95\u0bc1\u0b9f\u0bbf\u0baf\u0bb0\u0b9a\u0bc1","name:tg":"\u04b6\u0443\u043c\u04b3\u0443\u0440\u0438\u0438 \u0425\u0430\u043b\u049b\u0438\u0438 \u0427\u0438\u043d","name:ky":"\u041a\u044b\u0442\u0430\u0439","name:te":"\u0c1a\u0c48\u0c28\u0c3e","name:cy":"Gweriniaeth Pobl Tsieina","name:qu":"Chunwa Runallaqta Republika","name:de":"China","source":"openstreetmap.org","name:kn":"\u0c9a\u0cc0\u0ca8\u0cbf \u0c9c\u0ca8\u0cb0 \u0c97\u0ca3\u0cb0\u0cbe\u0c9c\u0ccd\u0caf","name:dv":"\u0790\u07a9\u0782\u07aa\u0786\u07a6\u0783\u07a6","name:lv":"\u0136\u012bna","name:lt":"Kinijos Liaudies Respublika","name:uz":"Xitoy Xalq Respublikasi","name:kk":"\u049a\u044b\u0442\u0430\u0439 \u0425\u0430\u043b\u044b\u049b \u0420\u0435\u0441\u043f\u0443\u0431\u043b\u0438\u043a\u0430\u0441\u044b","name:ur":"\u0686\u06cc\u0646","name:lb":"Volleksrepublik China","name:tt":"\u041a\u044b\u0442\u0430\u0439","name:uk":"\u041a\u0438\u0442\u0430\u0439\u0441\u044c\u043a\u0430 \u041d\u0430\u0440\u043e\u0434\u043d\u0430 \u0420\u0435\u0441\u043f\u0443\u0431\u043b\u0456\u043a\u0430","name:ug":"\u062c\u06c7\u06ad\u062e\u06c7\u0627 \u062e\u06d5\u0644\u0642 \u062c\u06c7\u0645\u06be\u06c7\u0631\u0649\u064a\u0649\u062a\u0649","name:ln":"S\u00edna","name:lo":"\u0e9b\u0eb0\u0ec0\u0e97\u0e94\u0e88\u0eb5\u0e99","name:el":"\u039b\u03b1\u03ca\u03ba\u03ae \u0394\u03b7\u03bc\u03bf\u03ba\u03c1\u03b1\u03c4\u03af\u03b1 \u03c4\u03b7\u03c2 \u039a\u03af\u03bd\u03b1\u03c2","name:eo":"\u0108inujo","name:en":"China","name":"\u4e2d\u56fd","name:tk":"Hyta\u00fd Halk Respublikasy","name:ee":"China","name:th":"\u0e1b\u0e23\u0e30\u0e40\u0e17\u0e28\u0e08\u0e35\u0e19","name:eu":"Txinako Herri Errepublika","name:et":"Hiina","name:es":"Rep\u00fablica Popular China","name:ia":"China","name:ro":"Republica Popular\u0103 Chinez\u0103","name:ie":"China","name:id":"Republik Rakyat Cina","name:pa":"\u0a1a\u0a40\u0a28 \u0a26\u0a3e \u0a32\u0a4b\u0a15 \u0a30\u0a3e\u0a1c\u0a40 \u0a17\u0a23\u0a24\u0a70\u0a24\u0a30","name:io":"Chinia","name:is":"Al\u00fe\u00fd\u00f0ul\u00fd\u00f0veldi\u00f0 K\u00edna","name:am":"\u12e8\u127b\u12ed\u1293 \u1215\u12dd\u1263\u12ca \u122a\u1350\u1265\u120a\u12ad","name:it":"Cina","name:ru":"\u041a\u0438\u0442\u0430\u0439\u0441\u043a\u0430\u044f \u041d\u0430\u0440\u043e\u0434\u043d\u0430\u044f \u0420\u0435\u0441\u043f\u0443\u0431\u043b\u0438\u043a\u0430","name:ab":"\u0410\u0447\u044b\u043d\u04ad\u0430\u0442\u04d9\u0438 \u0410\u0436\u04d9\u043b\u0430\u0440\u0442\u04d9 \u0420\u0435\u0441\u043f\u0443\u0431\u043b\u0438\u043a\u0430","alt_name:ru":"\u041a\u0438\u0442\u0430\u0439","kind_detail":"2","name:zh":"Zh\u014dnggu\u00f3","name:so":"Shiinaha","name:sn":"China","name:sm":"Saina","name:sk":"\u010c\u00ednska \u013eudov\u00e1 republika","name:si":"\u0da0\u0dd3\u0db1\u0dba","name:sg":"S\u00een\u00e4","name:se":"Kiinn\u00e1","name:sc":"Cina","name:bm":"China","name:bn":"\u0997\u09a3\u099a\u09c0\u09a8","name:bo":"\u0f40\u0fb2\u0f74\u0f44\u0f0b\u0f67\u0fad\u0f0b\u0f58\u0f72\u0f0b\u0f51\u0f58\u0f44\u0f66\u0f0b\u0f66\u0fa4\u0fb1\u0f72\u0f0b\u0f58\u0f50\u0f74\u0f53\u0f0b\u0f62\u0f92\u0fb1\u0f63\u0f0b\u0f41\u0f56\u0f0d","name:bi":"China","name:sw":"Jamhuri ya Watu wa China","name:be":"\u041a\u0456\u0442\u0430\u0439","name:st":"Tjhaena","name:ss":"IShayina","name:sr":"\u041a\u0438\u043d\u0430","name:sq":"Kina","name:pt":"Rep\u00fablica Popular da China","name:ps":"\u0686\u064a\u0646 \u062f \u062e\u0644\u06a9\u0648 \u062c\u0645\u0647\u0648\u0631\u064a\u062a","min_zoom":8.0,"int_name":"People's Republic of China","name:zh-min-nan":"Tiong-ho\u00e2 J\u00een-b\u00een Ki\u014dng-h\u00f4-kok","name:os":"\u041a\u0438\u0442\u0430\u0439","name:or":"\u0b1a\u0b40\u0b28","name:pl":"Chiny","sort_rank":262,"name:ba":"\u04a0\u044b\u0442\u0430\u0439","osm_relation":true,"name:ar":"\u0627\u0644\u0635\u064a\u0646","name:tr":"\u00c7in Halk Cumhuriyeti","name:hi":"\u091a\u0940\u0928\u0940 \u091c\u0928\u0935\u093e\u0926\u0940 \u0917\u0923\u0930\u093e\u091c\u094d\u092f","name:he":"\u05d4\u05e8\u05e4\u05d5\u05d1\u05dc\u05d9\u05e7\u05d4 \u05d4\u05e2\u05de\u05de\u05d9\u05ea \u05e9\u05dc \u05e1\u05d9\u05df","name:ha":"Sin","old_name:eo":"\u0124inujo","name:hy":"\u0549\u056b\u0576\u0561\u057d\u057f\u0561\u0576\u056b \u053a\u0578\u0572\u0578\u057e\u0580\u0564\u0561\u056f\u0561\u0576 \u0540\u0561\u0576\u0580\u0561\u057a\u0565\u057f\u0578\u0582\u0569\u0575\u0578\u0582\u0576","name:hu":"K\u00ednai N\u00e9pk\u00f6zt\u00e1rsas\u00e1g","name:hr":"Kina","kind":"country","name:ts":"China","name:yi":"\u05db\u05d9\u05e0\u05e2","name:iu":"China","name:mt":"\u010aina","alt_name:eo":"\u0108inio","name:mr":"\u091a\u0940\u0928","name:my":"\u1010\u101b\u102f\u1010\u103a\u1015\u103c\u100a\u103a\u101e\u1030\u1037\u101e\u1019\u1039\u1019\u1010\u1014\u102d\u102f\u1004\u103a\u1004\u1036","official_name":"\u4e2d\u534e\u4eba\u6c11\u5171\u548c\u56fd","name:ml":"\u0d1a\u0d48\u0d28","name:vi":"C\u1ed9ng h\u00f2a Nh\u00e2n d\u00e2n Trung Hoa","name:mn":"\u0411\u04af\u0433\u0434 \u041d\u0430\u0439\u0440\u0430\u043c\u0434\u0430\u0445 \u0425\u044f\u0442\u0430\u0434 \u0410\u0440\u0434 \u0423\u043b\u0441","name:mi":"Haina","id":-270056,"name:mk":"\u041d\u0430\u0440\u043e\u0434\u043d\u0430 \u0420\u0435\u043f\u0443\u0431\u043b\u0438\u043a\u0430 \u041a\u0438\u043d\u0430","name:vo":"Tsyin\u00e4n","name:fa":"\u062c\u0645\u0647\u0648\u0631\u06cc \u062e\u0644\u0642 \u0686\u06cc\u0646","name:rw":"Ubushinwa","name:fi":"Kiina","name:fo":"F\u00f3lkal\u00fd\u00f0veldi\u00f0 Kina","name:fr":"R\u00e9publique populaire de Chine","name:fy":"Sina","name:zu":"IShayina","name:na":"Tsiene","name:ne":"\u091c\u0928\u092c\u093e\u0926\u0940 \u0917\u0923\u0924\u0928\u094d\u0924\u094d\u0930 \u091a\u0940\u0928","name:wo":"R\u00e9ewum Popileer bu Siin","name:ga":"Daon-Phoblacht na S\u00edne","name:gd":"Sluagh-Phoblachd na S\u00ecne","name:gn":"China Tekoha Tet\u00e3","name:gv":"Deynphobblaght ny Sheen","name:gu":"\u0a9a\u0ac0\u0aa8"},"arcs":[0]},{"type":"LineString","properties":{"name:right:hy":"\u0540\u0580\u0565\u0561\u056f\u0561\u0576 \u056b\u0576\u0584\u0576\u0561\u057e\u0561\u0580 \u0574\u0561\u0580\u0566","name:right:nl":"Joodse Autonome Oblast","name:right:ja":"\u30e6\u30c0\u30e4\u81ea\u6cbb\u5dde","name:right:fr":"Oblast autonome juif","name:right:yi":"\u05d9\u05d9\u05d3\u05d9\u05e9\u05e2 \u05d0\u05d5\u05d9\u05d8\u05d0\u05e0\u05d0\u05de\u05e2 \u05d2\u05e2\u05d2\u05e0\u05d8","name:right:uk":"\u0404\u0432\u0440\u0435\u0439\u0441\u044c\u043a\u0430 \u0430\u0432\u0442\u043e\u043d\u043e\u043c\u043d\u0430 \u043e\u0431\u043b\u0430\u0441\u0442\u044c","int_name:left":"Heilongjiang","name:left:ja":"\u9ed2\u7adc\u6c5f\u7701","id:right":-147167,"min_zoom":8.0,"name:left:lt":"Heilongdziangas","name:right:fa":"\u0627\u0633\u062a\u0627\u0646 \u062e\u0648\u062f\u06af\u0631\u062f\u0627\u0646 \u06cc\u0647\u0648\u062f\u06cc","name:right:he":"\u05d4\u05de\u05d7\u05d5\u05d6 \u05d4\u05d9\u05d4\u05d5\u05d3\u05d9 \u05d4\u05d0\u05d5\u05d8\u05d5\u05e0\u05d5\u05de\u05d9","name:right":"\u0415\u0432\u0440\u0435\u0439\u0441\u043a\u0430\u044f \u0430\u0432\u0442\u043e\u043d\u043e\u043c\u043d\u0430\u044f \u043e\u0431\u043b\u0430\u0441\u0442\u044c","name:left:en":"Heilongjiang","name:right:ca":"Prov\u00edncia Aut\u00f2noma dels Hebreus","kind_detail":"4","int_name:right":"Jewish Autonomous Oblast","id":-199073,"source":"openstreetmap.org","name:right:ar":"\u0627\u0644\u0623\u0648\u0628\u0644\u0627\u0633\u062a \u0627\u0644\u064a\u0647\u0648\u062f\u064a\u0629 \u0627\u0644\u0630\u0627\u062a\u064a\u0629","id:left":-199073,"name:right:cs":"\u017didovsk\u00e1 autonomn\u00ed oblast","name:right:el":"\u0395\u03b2\u03c1\u03b1\u03ca\u03ba\u03ae \u0391\u03c5\u03c4\u03cc\u03bd\u03bf\u03bc\u03b7 \u03a0\u03b5\u03c1\u03b9\u03c6\u03ad\u03c1\u03b5\u03b9\u03b1","name:right:az":"Y\u0259hudi Muxtar Vilay\u0259ti","name:left":"\u9ed1\u9f99\u6c5f\u7701","name:right:ka":"\u10d4\u10d1\u10e0\u10d0\u10d4\u10da\u10d7\u10d0 \u10d0\u10d5\u10e2\u10dd\u10dc\u10dd\u10db\u10d8\u10e3\u10e0\u10d8 \u10dd\u10da\u10e5\u10d8","name:right:pt":"Oblast Aut\u00f4nomo Judaico","name:right:it":"Oblast' autonoma ebraica","name:right:vi":"T\u1ec9nh t\u1ef1 tr\u1ecb Do Th\u00e1i","name:right:es":"\u00d3blast Aut\u00f3nomo Hebreo","name:left:ru":"\u0425\u044d\u0439\u043b\u0443\u043d\u0446\u0437\u044f\u043d","name:right:sv":"Judiska autonoma l\u00e4net","name:right:pl":"\u017bydowski Obw\u00f3d Autonomiczny","name:right:en":"Jewish Autonomous Oblast","name:right:os":"\u0414\u0437\u0443\u0442\u0442\u044b \u0430\u0432\u0442\u043e\u043d\u043e\u043c\u043e\u043d \u043e\u0431\u043b\u00e6\u0441\u0442","name:left:vi":"H\u1eafc Long Giang","kind":"region","name":"\u9ed1\u9f99\u6c5f\u7701 - \u0415\u0432\u0440\u0435\u0439\u0441\u043a\u0430\u044f \u0430\u0432\u0442\u043e\u043d\u043e\u043c\u043d\u0430\u044f \u043e\u0431\u043b\u0430\u0441\u0442\u044c","name:right:de":"J\u00fcdische Autonome Oblast","name:left:de":"Heilongjiang","osm_relation":true,"name:right:be":"\u042f\u045e\u0440\u044d\u0439\u0441\u043a\u0430\u044f \u0430\u045e\u0442\u0430\u043d\u043e\u043c\u043d\u0430\u044f \u0432\u043e\u0431\u043b\u0430\u0441\u0446\u044c","sort_rank":256,"name:left:zh":"H\u0113il\u00f3ngji\u0101ng","name:left:fr":"Heilongjiang","name:right:zh":"\u72b9\u592a\u81ea\u6cbb\u5dde"},"arcs":[1]},{"type":"LineString","properties":{"name:right:hy":"\u0540\u0580\u0565\u0561\u056f\u0561\u0576 \u056b\u0576\u0584\u0576\u0561\u057e\u0561\u0580 \u0574\u0561\u0580\u0566","name:right:nl":"Joodse Autonome Oblast","name:right:ja":"\u30e6\u30c0\u30e4\u81ea\u6cbb\u5dde","name:right:fr":"Oblast autonome juif","name:right:yi":"\u05d9\u05d9\u05d3\u05d9\u05e9\u05e2 \u05d0\u05d5\u05d9\u05d8\u05d0\u05e0\u05d0\u05de\u05e2 \u05d2\u05e2\u05d2\u05e0\u05d8","name:right:uk":"\u0404\u0432\u0440\u0435\u0439\u0441\u044c\u043a\u0430 \u0430\u0432\u0442\u043e\u043d\u043e\u043c\u043d\u0430 \u043e\u0431\u043b\u0430\u0441\u0442\u044c","int_name:left":"Khabarovsk Krai","name:left:ja":"\u30cf\u30d0\u30ed\u30d5\u30b9\u30af\u5730\u65b9","id:right":-147167,"name:left:uk":"\u0425\u0430\u0431\u0430\u0440\u043e\u0432\u0441\u044c\u043a\u0438\u0439 \u043a\u0440\u0430\u0439","min_zoom":8.0,"name:left:lt":"Chabarovsko kra\u0161tas","name:right:fa":"\u0627\u0633\u062a\u0627\u0646 \u062e\u0648\u062f\u06af\u0631\u062f\u0627\u0646 \u06cc\u0647\u0648\u062f\u06cc","name:right:he":"\u05d4\u05de\u05d7\u05d5\u05d6 \u05d4\u05d9\u05d4\u05d5\u05d3\u05d9 \u05d4\u05d0\u05d5\u05d8\u05d5\u05e0\u05d5\u05de\u05d9","name:right":"\u0415\u0432\u0440\u0435\u0439\u0441\u043a\u0430\u044f \u0430\u0432\u0442\u043e\u043d\u043e\u043c\u043d\u0430\u044f \u043e\u0431\u043b\u0430\u0441\u0442\u044c","name:left:en":"Khabarovsk Krai","name:right:ca":"Prov\u00edncia Aut\u00f2noma dels Hebreus","kind_detail":"4","name:left:ca":"Territori de Khab\u00e0rovsk","int_name:right":"Jewish Autonomous Oblast","id":-151223,"source":"openstreetmap.org","name:right:ar":"\u0627\u0644\u0623\u0648\u0628\u0644\u0627\u0633\u062a \u0627\u0644\u064a\u0647\u0648\u062f\u064a\u0629 \u0627\u0644\u0630\u0627\u062a\u064a\u0629","name:left:nl":"Kraj Chabarovsk","id:left":-151223,"name:left:es":"Krai de Jab\u00e1rovsk","name:right:cs":"\u017didovsk\u00e1 autonomn\u00ed oblast","name:right:el":"\u0395\u03b2\u03c1\u03b1\u03ca\u03ba\u03ae \u0391\u03c5\u03c4\u03cc\u03bd\u03bf\u03bc\u03b7 \u03a0\u03b5\u03c1\u03b9\u03c6\u03ad\u03c1\u03b5\u03b9\u03b1","name:right:az":"Y\u0259hudi Muxtar Vilay\u0259ti","name:left":"\u0425\u0430\u0431\u0430\u0440\u043e\u0432\u0441\u043a\u0438\u0439 \u043a\u0440\u0430\u0439","name:right:ka":"\u10d4\u10d1\u10e0\u10d0\u10d4\u10da\u10d7\u10d0 \u10d0\u10d5\u10e2\u10dd\u10dc\u10dd\u10db\u10d8\u10e3\u10e0\u10d8 \u10dd\u10da\u10e5\u10d8","name:left:sv":"Chabarovsk kraj","name:right:pt":"Oblast Aut\u00f4nomo Judaico","name:left:pl":"Kraj Chabarowski","name:right:it":"Oblast' autonoma ebraica","name:right:vi":"T\u1ec9nh t\u1ef1 tr\u1ecb Do Th\u00e1i","name:left:pt":"Krai de Khabarovsk","name:right:sv":"Judiska autonoma l\u00e4net","name:right:es":"\u00d3blast Aut\u00f3nomo Hebreo","name:left:it":"Territorio di Chabarovsk","name:right:pl":"\u017bydowski Obw\u00f3d Autonomiczny","name:right:en":"Jewish Autonomous Oblast","name:right:os":"\u0414\u0437\u0443\u0442\u0442\u044b \u0430\u0432\u0442\u043e\u043d\u043e\u043c\u043e\u043d \u043e\u0431\u043b\u00e6\u0441\u0442","name:left:vi":"Khabarovsk (v\u00f9ng)","kind":"region","name":"\u0425\u0430\u0431\u0430\u0440\u043e\u0432\u0441\u043a\u0438\u0439 \u043a\u0440\u0430\u0439 - \u0415\u0432\u0440\u0435\u0439\u0441\u043a\u0430\u044f \u0430\u0432\u0442\u043e\u043d\u043e\u043c\u043d\u0430\u044f \u043e\u0431\u043b\u0430\u0441\u0442\u044c","name:right:de":"J\u00fcdische Autonome Oblast","name:left:de":"Region Chabarowsk","osm_relation":true,"name:right:be":"\u042f\u045e\u0440\u044d\u0439\u0441\u043a\u0430\u044f \u0430\u045e\u0442\u0430\u043d\u043e\u043c\u043d\u0430\u044f \u0432\u043e\u0431\u043b\u0430\u0441\u0446\u044c","sort_rank":256,"name:left:zh":"\u54c8\u5df4\u7f57\u592b\u65af\u514b\u8fb9\u7586\u533a","name:left:fr":"Kra\u00ef de Khabarovsk","name:right:zh":"\u72b9\u592a\u81ea\u6cbb\u5dde"},"arcs":[2]}]},"roads":{"type":"GeometryCollection","geometries":[{"type":"MultiLineString","properties":{"sort_rank":380,"kind_detail":"primary","min_zoom":8.0,"kind":"major_road","source":"openstreetmap.org"},"arcs":[[9],[10],[11],[12]]},{"type":"MultiLineString","properties":{"kind":"major_road","network":"ru:regional","sort_rank":380,"kind_detail":"primary","source":"openstreetmap.org","min_zoom":8.0,"landuse_kind":"urban_area","shield_text":"99\u041a","ref":"99\u041a-2"},"arcs":[[13],[14],[15]]},{"type":"MultiLineString","properties":{"source":"openstreetmap.org","kind":"major_road","landuse_kind":"urban_area","sort_rank":380,"kind_detail":"primary","min_zoom":8.0},"arcs":[[16],[17],[18],[19],[20],[21],[22],[23],[24],[25],[26],[27],[28],[29],[30]]},{"type":"LineString","properties":{"kind":"major_road","network":"ru:regional","sort_rank":380,"kind_detail":"primary","source":"openstreetmap.org","min_zoom":8.0,"shield_text":"99\u041a","ref":"99\u041a-2"},"arcs":[31]},{"type":"LineString","properties":{"kind":"major_road","network":"ru:regional","sort_rank":380,"kind_detail":"primary","source":"openstreetmap.org","min_zoom":8.0,"landuse_kind":"urban_area","shield_text":"99\u041a","ref":"99\u041a-12"},"arcs":[32]},{"type":"LineString","properties":{"kind":"major_road","name:en":"Amur","network":"ru:national","sort_rank":381,"kind_detail":"trunk","source":"openstreetmap.org","min_zoom":8.0,"shield_text":"297","ref":"\u0420-297"},"arcs":[33]},{"type":"LineString","properties":{"kind":"major_road","network":"ru:regional","sort_rank":380,"kind_detail":"primary","source":"openstreetmap.org","min_zoom":8.0,"shield_text":"99\u041a","ref":"99\u041a-13"},"arcs":[34]},{"type":"LineString","properties":{"kind":"major_road","network":"ru:regional","sort_rank":380,"kind_detail":"primary","source":"openstreetmap.org","min_zoom":8.0,"shield_text":"99\u041a","ref":"99\u041a-12"},"arcs":[35]}]},"earth":{"type":"GeometryCollection","geometries":[{"type":"Polygon","properties":{"sort_rank":10,"source":"naturalearthdata.com","kind":"earth","min_zoom":0.0,"id":4764},"arcs":[[36]]}]},"landuse":{"type":"GeometryCollection","geometries":[{"type":"Polygon","properties":{"source":"openstreetmap.org","kind":"nature_reserve","area":1812739968,"tier":2,"id":289788414,"min_zoom":4.0,"sort_rank":23},"arcs":[[37]]},{"type":"Polygon","properties":{"source":"naturalearthdata.com","kind":"urban_area","name":"","area":83544208,"sort_rank":11,"min_zoom":4.0,"id":2928},"arcs":[[38]]},{"type":"Polygon","properties":{"kind":"nature_reserve","protect_class":"1","area":2137680000,"sort_rank":23,"source":"openstreetmap.org","min_zoom":4.0,"tier":2,"id":-3242054,"osm_relation":true},"arcs":[[39]]},{"type":"Polygon","properties":{"source":"openstreetmap.org","kind":"aerodrome","area":18653300,"tier":3,"id":252085514,"min_zoom":8.0,"sort_rank":60},"arcs":[[40]]},{"type":"MultiPolygon","properties":{"source":"openstreetmap.org","kind":"residential","tier":2,"area":61129725,"sort_rank":20,"min_zoom":8.0},"arcs":[[[41]]]}]}},"type":"Topology","transform":{"translate":[132.1875,47.9899216674],"scale":[0.0003433228,0.0002276801]},"arcs":[[[4096,915],[-1,0],[-43,-42],[-33,-229],[-300,-120],[-212,63],[-126,-37],[-179,-98],[-306,70],[-385,-17],[-122,-283],[-273,-117],[-148,-97],[-5,-8]],[[4096,915],[-1,0],[-43,-42],[-33,-229],[-70,-44],[-230,-76],[-212,63],[-126,-37],[-179,-98],[-306,70],[-385,-17],[-122,-283],[-273,-117],[-148,-97],[-5,-8]],[[3085,4096],[113,-211],[-12,-114],[530,-85],[56,-40],[69,-160],[66,3],[-20,-81],[49,4],[52,-34],[6,-34],[-22,-16],[77,-9],[1,-43],[33,-28],[13,10]],[[1477,4096],[93,-24],[114,-13],[202,-107],[8,-9],[237,-379],[2,-4],[4,-4],[3,-3],[5,-4],[114,-75],[238,-189],[5,-3],[7,-4],[6,-4],[8,-2],[49,-16],[5,-1],[8,-2],[215,-15],[19,-12],[435,-339],[6,-5],[8,-5],[5,-2],[37,-15],[63,-24],[7,-2],[5,-1],[5,-1],[7,0],[11,1],[59,8],[22,-2],[212,-81],[6,-1],[9,-1],[39,-2],[13,-3],[125,-75],[7,-3],[4,-2],[6,-2],[8,-2],[12,-2],[6,0],[5,0],[79,8],[49,-12],[3,0],[3,1],[18,5],[3,0]],[[4096,2668],[-72,5],[-8,0],[-75,-8],[-23,2],[-150,84],[-279,88],[-22,2],[-82,-8],[-117,44],[-14,10],[-173,136],[-262,204],[-10,7],[-9,4],[-9,4],[-18,3],[-188,8],[-72,22],[-258,202],[-112,74],[-239,377],[-10,15],[-3,4],[-5,5],[-4,3],[-198,104],[-206,37]],[[4096,2667],[-178,0],[-150,84],[-279,88],[-104,-6],[-117,44],[-468,361],[-293,41],[-370,277],[-251,396],[-202,107],[-206,37]],[[1477,4096],[93,-24],[114,-13],[202,-107],[251,-396],[8,-7],[114,-75],[250,-196],[6,-4],[8,-2],[62,-19],[215,-15],[19,-12],[435,-339],[14,-10],[117,-44],[104,6],[279,-88],[125,-75],[25,-9],[23,-2],[79,8],[76,-5]],[[4096,2668],[-72,5],[-8,0],[-75,-8],[-23,2],[-25,9],[-32,21],[-54,34],[-21,13],[-7,4],[-11,3],[-279,88],[-5,1],[-9,1],[-8,0],[-82,-8],[-117,44],[-14,10],[-173,136],[-262,204],[-10,7],[-9,4],[-9,4],[-8,2],[-10,1],[-188,8],[-72,22],[-258,202],[-112,74],[-239,377],[-10,15],[-3,4],[-5,5],[-4,3],[-131,76],[-67,28],[-26,8],[-10,3],[-5,0],[-73,2],[-92,24]],[[1477,4096],[207,-37],[202,-107],[251,-396],[372,-278],[291,-40],[468,-361],[117,-44],[104,6],[279,-88],[150,-84],[178,0]],[[2020,3428],[-39,-30],[-57,12]],[[2049,3583],[-28,19]],[[2646,3255],[94,9]],[[2932,0],[7,5],[169,25],[89,48],[73,264],[131,33],[226,-74],[49,-91],[235,181],[87,15],[61,93],[37,27]],[[2111,3494],[-94,-13]],[[2133,3524],[-16,-26]],[[2116,3495],[-1,1],[-1,-1],[1,-1],[1,1]],[[2079,3414],[-59,14]],[[2139,3534],[-90,49]],[[2088,3432],[-4,0]],[[2085,3415],[-1,17]],[[2088,3432],[116,-8]],[[2139,3534],[-3,-4]],[[2179,3506],[-40,28]],[[2174,3499],[5,7]],[[2174,3499],[10,-19]],[[2179,3506],[19,-43]],[[2184,3480],[14,-17]],[[2198,3463],[6,-39]],[[2204,3424],[7,-17]],[[2080,3412],[3,-1],[-1,3],[-2,-2]],[[2135,3526],[1,2],[-1,1],[-2,-3],[2,0]],[[2017,3481],[-74,-22],[-27,-62],[-67,-47],[-14,-103]],[[2211,3407],[55,16]],[[1686,4096],[164,-80],[46,-54],[231,-33],[51,-140],[562,-525],[54,-12],[336,-240],[53,-65],[58,-11],[30,-58],[116,-44],[96,12],[101,-41],[37,8],[294,-145],[96,27],[85,-22]],[[2021,3602],[-115,120],[-11,97],[30,83],[-29,60]],[[2266,3423],[53,0],[135,-166],[192,-2]],[[0,0],[0,4096],[4096,0],[0,-4096],[-4096,0]],[[669,933],[139,175],[275,199],[200,182],[174,224],[337,-30],[364,-785],[-165,-68],[-217,-136],[-98,-153],[-209,-122],[-23,-8],[-48,92],[-31,-16],[-197,-395],[-501,841]],[[2250,3389],[-130,-76],[-96,48],[-7,127],[39,117],[62,23],[57,-40],[108,-129],[-33,-70]],[[2897,4096],[-36,-97],[38,-47],[-34,-10],[43,-12],[9,-44],[-54,-67],[32,-19],[-38,-6],[41,-65],[-31,17],[14,-28],[-34,-6],[16,-12],[-19,-30],[32,-20],[-39,-21],[-14,-46],[-34,82],[-27,5],[12,18],[-40,31],[-10,72],[-61,-3],[-105,73],[-125,-13],[-58,-72],[-213,66],[-37,110],[-134,18],[6,59],[-44,11],[-16,-21],[-80,77],[1040,0]],[[1334,2037],[72,83],[36,-11],[21,-118],[-113,0],[-16,46]],[[789,553],[25,63],[64,-23],[37,-64],[-36,-26],[-90,50]]]}