{"objects":{"water":{"type":"GeometryCollection","geometries":[{"type":"Polygon","properties":{"source":"naturalearthdata.com","kind":"ocean","area":1576712559132672,"sort_rank":200,"min_zoom":0.0,"id":1},"arcs":[[5],[6],[7],[8]]},{"type":"MultiLineString","properties":{"source":"naturalearthdata.com","kind":"ocean","sort_rank":205,"boundary":true,"min_zoom":0.0,"id":79},"arcs":[[9],[10],[11]]},{"type":"LineString","properties":{"source":"naturalearthdata.com","kind":"ocean","sort_rank":205,"boundary":true,"min_zoom":0.0,"id":1758},"arcs":[12]},{"type":"LineString","properties":{"source":"naturalearthdata.com","kind":"ocean","sort_rank":205,"boundary":true,"min_zoom":0.0,"id":1759},"arcs":[13]}]},"buildings":{"type":"GeometryCollection","geometries":[]},"places":{"type":"GeometryCollection","geometries":[{"type":"Point","properties":{"admin_level":"4","kind":"region","name:en":"Trat Province","name":"\u0e08\u0e31\u0e07\u0e2b\u0e27\u0e31\u0e14\u0e15\u0e23\u0e32\u0e14","kind_detail":"state","source":"openstreetmap.org","min_zoom":4.0,"name:uk":"\u0422\u0440\u0430\u0442","name:ru":"\u0422\u0440\u0430\u0442","name:pl":"Trat","id":4352807241,"name:ja":"\u30c8\u30e9\u30fc\u30c8\u770c"},"coordinates":[3428,3217]},{"type":"Point","properties":{"kind":"locality","name:en":"Trat","name":"\u0e15\u0e23\u0e32\u0e14","kind_detail":"town","source":"openstreetmap.org","min_zoom":8.0,"name:ru":"\u0422\u0440\u0430\u0442","population":11454,"id":297591741,"name:ja":"\u30c8\u30e9\u30fc\u30c8"},"coordinates":[3675,3175]},{"type":"Point","properties":{"kind":"locality","name:en":"Khlung","name":"\u0e02\u0e25\u0e38\u0e07","kind_detail":"town","source":"openstreetmap.org","min_zoom":8.0,"name:ru":"\u041a\u0445\u043b\u0443\u043d\u0433","id":369496413,"population":11328},"coordinates":[2836,3814]}]},"transit":{"type":"GeometryCollection","geometries":[]},"pois":{"type":"GeometryCollection","geometries":[{"type":"Point","properties":{"kind":"national_park","name:en":"Mu Ko Chang National Park","protect_class":"2","area":632002000,"source":"openstreetmap.org","min_zoom":6.14,"tier":1,"id":-5625609,"osm_relation":true,"name":"\u0e2d\u0e38\u0e17\u0e22\u0e32\u0e19\u0e41\u0e2b\u0e48\u0e07\u0e0a\u0e32\u0e15\u0e34\u0e2b\u0e21\u0e39\u0e48\u0e40\u0e01\u0e32\u0e30\u0e0a\u0e49\u0e32\u0e07"},"coordinates":[3576,2354]}]},"boundaries":{"type":"GeometryCollection","geometries":[{"type":"LineString","properties":{"name:right:yo":"K\u00e0mb\u00f3d\u00ed\u00e0","name:right:yi":"\u05e7\u05d0\u05de\u05d1\u05d0\u05d3\u05d9\u05e2","name:right:hy":"\u053f\u0561\u0574\u0562\u0578\u057b\u0561","name:left:lb":"Thailand","name:right:ko":"\uce84\ubcf4\ub514\uc544","name:right:el":"\u039a\u03b1\u03bc\u03c0\u03cc\u03c4\u03b6\u03b7","name:right:hr":"Kambod\u017ea","name:left:ka":"\u10e2\u10d0\u10d8\u10da\u10d0\u10dc\u10d3\u10d8","name:left:km":"\u1790\u17c3","name:left:kl":"Thailandi","name:left:ko":"\ud0c0\uc774","name:left:kn":"\u0ca5\u0cc8\u0cb2\u0ccd\u0caf\u0cbe\u0c82\u0ca1\u0ccd","name:left:ki":"Thailand","name:right:rw":"Kambodiya","name:left:kk":"\u0422\u0430\u0439\u043b\u0430\u043d\u0434","name:right:ru":"\u041a\u0430\u043c\u0431\u043e\u0434\u0436\u0430","name:left:ku":"Taylenda","name:left:kw":"Pow Tay","name:left:kv":"\u0422\u0430\u0438\u043b\u0430\u043d\u0434","name:right:ro":"Cambodgia","name:left:ru":"\u0422\u0430\u0438\u043b\u0430\u043d\u0434","name:right:ie":"Cambodja","name:right:id":"Kamboja","name:right:ia":"Cambodgia","name:right:bn":"\u0995\u09ae\u09cd\u09ac\u09cb\u09a1\u09bf\u09af\u09bc\u09be","name:right:bo":"\u0f41\u0f58\u0f0b\u0f54\u0f7c\u0f0b\u0f5b\u0f0d","name:right:hi":"\u0915\u092e\u094d\u092c\u094b\u0921\u093f\u092f\u093e","name:right:ba":"\u041a\u0430\u043c\u0431\u043e\u0434\u0436\u0430","name:right:bg":"\u041a\u0430\u043c\u0431\u043e\u0434\u0436\u0430","name:right:be":"\u041a\u0430\u043c\u0431\u043e\u0434\u0436\u0430","name:right:br":"Kambodja","name:right:bs":"Kambod\u017ea","name:right:nn":"Kambodsja","name:right:no":"Kambodsja","name:right:nl":"Cambodja","name:left:sk":"Thajsko","name:right:wo":"Kamboodi","name:right:na":"Kambodja","name:right:ps":"\u06a9\u0645\u0628\u0648\u062f\u06cc\u0627","name:right:pt":"Camboja","kind_detail":"2","name:left:mi":"Tairana","name:right:gu":"\u0a95\u0aae\u0acd\u0aac\u0acb\u0aa1\u0ac0\u0aaf\u0abe","name:right:gv":"Yn Chamboyd","name:left:mg":"Tailandy","name:left:mk":"\u0422\u0430\u0458\u043b\u0430\u043d\u0434","name:left:tr":"Tayland","name:left:tt":"\u0422\u0430\u0438\u043b\u0430\u043d\u0434","name:left:mn":"\u0422\u0430\u0439\u043b\u0430\u043d\u0434","name:left:tw":"Thailand","name:left:ms":"Thailand","name:right:pa":"\u0a15\u0a70\u0a2c\u0a4b\u0a21\u0a40\u0a06","name:left:tk":"Tailand","name:left:tl":"Taylandiya","name:right:gl":"Camboxa - \u1780\u1798\u17d2\u1796\u17bb\u1787\u17b6","name:left:my":"\u1011\u102d\u102f\u1004\u103a\u1038\u1014\u102d\u102f\u1004\u103a\u1004\u1036","name:right:gn":"Kamboja","name:right:pl":"Kambod\u017ca","name:left:te":"\u0c25\u0c3e\u0c2f\u0c3f\u0c32\u0c3e\u0c02\u0c21\u0c4d","name:left:tg":"\u0422\u0430\u0438\u043b\u0430\u043d\u0434","name:left:mr":"\u0925\u093e\u092f\u0932\u0902\u0921","name:left:da":"Thailand","name:left:de":"Thailand","name:left:dz":"\u0f50\u0f71\u0f60\u0f72\u0f0b\u0f63\u0f7a\u0f53\u0f4c","name:right:ga":"An Chamb\u00f3id","name:left:dv":"\u0790\u07a8\u0794\u07a7\u0789\u07aa","name:right:ug":"\u0643\u0627\u0645\u0628\u0648\u062c\u0627","name:left:hi":"\u0925\u093e\u0908\u0932\u0948\u0923\u094d\u0921","name:right:lb":"Kambodscha","name:right:uk":"\u041a\u0430\u043c\u0431\u043e\u0434\u0436\u0430","name:left:he":"\u05ea\u05d0\u05d9\u05dc\u05e0\u05d3","name:right:ln":"Kamboji","name:right:lo":"\u0e9b\u0eb0\u0ec0\u0e97\u0e94\u0e81\u0eb3\u0e9b\u0eb9\u0ec0\u0e88\u0e8d","name:right:li":"Cambodja","name:right:lt":"Kambod\u017ea","name:right:ur":"\u06a9\u0645\u0628\u0648\u0688\u06cc\u0627","name:right:lv":"Kambod\u017ea","name:left:hy":"\u0539\u0561\u056b\u056c\u0561\u0576\u0564","name:left:ta":"\u0ba4\u0bbe\u0baf\u0bcd\u0bb2\u0bbe\u0ba8\u0bcd\u0ba4\u0bc1","name:left:ht":"Tayilann","name:left:hu":"Thaif\u00f6ld","name:left:hr":"Tajland","sort_rank":262,"name:right:gd":"Cambuidea","osm_relation":true,"name:right:es":"Camboya","name:left:ja":"\u30bf\u30a4\u738b\u56fd","name:right:eu":"Kanbodia","name:right:et":"Kambod\u017ea","name:left:os":"\u0422\u0430\u0438\u043b\u0430\u043d\u0434","name:left:or":"\u0b25\u0b3e\u0b07\u0b32\u0b3e\u0b23\u0b4d\u0b21","name:left:vo":"Tay\u00e4n","name:left:oc":"Tail\u00e0ndia","name:right:eo":"Kambo\u011do","name:right:en":"Cambodia","name:left:vi":"Th\u00e1i Lan","name:left:fa":"\u062a\u0627\u06cc\u0644\u0646\u062f","name:left:fo":"Teiland","name:left:qu":"Thaysuyu","name:left:fi":"Thaimaa","name:left:fr":"Tha\u00eflande","name:left:fy":"Tail\u00e2n","name:right:ja":"\u30ab\u30f3\u30dc\u30b8\u30a2","name:right:sq":"Kamboxhia","name:right:ss":"IKhambodiya","name:right:sr":"\u041a\u0430\u043c\u0431\u043e\u045f\u0430","name:right:su":"Kamboja","name:right:sw":"Kamboja","name:right:sv":"Kambodja","name:right:si":"\u0d9a\u0dcf\u0db8\u0dca\u0db6\u0ddd\u0da2\u0dba","name:right:sh":"Kambod\u017ea","name:right:sk":"Kambod\u017ea","name:right:jv":"Kamboja","name:right:sl":"Kambod\u017ea","name:right:so":"Kambodiya","name:left:jv":"Thailand","id":-2067731,"name:right:ca":"Cambodja","name:right:se":"Kampu\u010dea","name:right:ce":"\u041a\u0430\u043c\u0431\u043e\u0434\u0436\u0430","name:right:cy":"Cambodia","name:right:zh-yue":"\u67ec\u57d4\u5be8","name:right:cs":"Kambod\u017ea","name:right:cv":"\u041a\u0430\u043c\u0431\u043e\u0434\u0436\u0430","name:right:it":"Cambogia","name:left:ar":"\u062a\u0627\u064a\u0644\u0627\u0646\u062f","name:right:is":"Kamb\u00f3d\u00eda","name:left:az":"Tailand","name:left:ro":"Thailanda","name:left:af":"Thailand","name:left:an":"Tailandia","name:left:am":"\u1273\u12ed\u120b\u1295\u12f5","name:right:io":"Kambodja","name:left:zh-yue":"\u6cf0\u570b","name:left:rw":"Tayilande","name:left:la":"Thailandia","name:right:qu":"Kambuya","alt_name:left:eo":"Tajujo","name:left:su":"Thailand","name:left:li":"Thailand","name:left:sw":"Uthai","name:left:sv":"Thailand","name:left:sq":"Tajlanda","name:right:hu":"Kambodzsa","name:left:ss":"IThayilandi","name:left:lo":"\u0e9b\u0eb0\u0ec0\u0e97\u0e94\u0ec4\u0e97","name:left:sl":"Tajska","name:left:so":"Tayland","name:left:lt":"Tailandas","name:left:sh":"Tajland","name:left:lv":"Taizeme","name:left:se":"Thaieana","name:right:ha":"Kambodiya","name:left:sg":"Tail\u00e2nde","name:left:sa":"\u0936\u094d\u092f\u093e\u092e\u0926\u0947\u0936","name:right:he":"\u05e7\u05de\u05d1\u05d5\u05d3\u05d9\u05d4","name:right:la":"Cambosia","name:right:af":"Kambodja","name:left:ce":"\u0422\u0430\u0438\u043b\u0430\u043d\u0434","name:right:an":"Cambocha","name:right:am":"\u12ab\u121d\u1266\u12f2\u12eb","name:left:ca":"Tail\u00e0ndia","source":"openstreetmap.org","name:left:cy":"Gwlad Thai","name:right:ar":"\u0643\u0645\u0628\u0648\u062f\u064a\u0627","name:left:cv":"\u0422\u0430\u0438\u043b\u0430\u043d\u0434","name:right:az":"Kamboca","name:left:cs":"Thajsko","name:right:rm":"Cambodscha","name":"\u0e1b\u0e23\u0e30\u0e40\u0e17\u0e28\u0e44\u0e17\u0e22 - \u1796\u17d2\u179a\u17c7\u179a\u17b6\u1787\u17b6\u178e\u17b6\u1785\u1780\u17d2\u179a\u200b\u1780\u1798\u17d2\u1796\u17bb\u1787\u17b6","name:left:zh":"\u6cf0\u56fd","name:right:zh":"\u67ec\u57d4\u5be8","name:left:za":"Daigoz","official_name:left":"\u0e23\u0e32\u0e0a\u0e2d\u0e32\u0e13\u0e32\u0e08\u0e31\u0e01\u0e23\u0e44\u0e17\u0e22","name:left:uz":"Tailand","name:right:fr":"Cambodge","name:left:nv":"T\u02bc\u00e1\u00ed Bik\u00e9yah","name:left:ur":"\u062a\u06be\u0627\u0626\u06cc \u0644\u06cc\u0646\u0688","id:right":-49898,"name:left:uk":"\u0422\u0430\u0457\u043b\u0430\u043d\u0434","name:left:no":"Thailand","name:left:nl":"Thailand","name:right:fa":"\u06a9\u0627\u0645\u0628\u0648\u062c","name:right:fo":"Kambodja","name:left:ne":"\u0925\u093e\u0907\u0932\u094d\u092f\u093e\u0923\u094d\u0921","name:left:ug":"\u062a\u0627\u064a\u0644\u0627\u0646\u062f","name:left:na":"Thailand","name:left:ml":"\u0d24\u0d3e\u0d2f\u0d4d\u200c\u0d32\u0d3e\u0d28\u0d4d\u0d31\u0d4d","name:left:eo":"Tajlando","name:left:en":"Thailand","name:left:el":"\u03a4\u03b1\u03ca\u03bb\u03ac\u03bd\u03b4\u03b7","name:right:tt":"\u041a\u0430\u043c\u0431\u043e\u0497\u0430","name:left:es":"Tailandia","name:right:kk":"\u041a\u0430\u043c\u0431\u043e\u0434\u0436\u0430","name:left:eu":"Thailandia","name:left:et":"Tai","name:right:zh-min-nan":"Kampuchea","name:right:oc":"Camb\u00f2tja","name:right:tr":"Kambo\u00e7ya","name:left:sr":"\u0422\u0430\u0458\u043b\u0430\u043d\u0434","name:right:uz":"Kambodja","name:right:os":"\u041a\u0430\u043c\u0431\u043e\u0434\u0436\u00e6","name:right:or":"\u0b15\u0b2e\u0b4d\u0b2c\u0b4b\u0b21\u0b3c\u0b3f\u0b06","name:right:tl":"Kamboya","name:right:th":"\u0e1b\u0e23\u0e30\u0e40\u0e17\u0e28\u0e01\u0e31\u0e21\u0e1e\u0e39\u0e0a\u0e32","name:right:kv":"\u041a\u0430\u043c\u0431\u043e\u0434\u0436\u0430","int_name:right":"Cambodia","min_zoom":8.0,"name:right:te":"\u0c15\u0c02\u0c2c\u0c4b\u0c21\u0c3f\u0c2f\u0c3e","name:left:wo":"Taaylaand","name:left:ga":"An T\u00e9alainn","name:right:tg":"\u041a\u0430\u043c\u0431\u043e\u04b7\u0430","name:left:gd":"D\u00f9thaich nan T\u00e0idh","name:left:gl":"Tailandia","name:left:gn":"Tailandia","name:left:gu":"\u0aa5\u0abe\u0a87\u0ab2\u0ac7\u0aa8\u0acd\u0aa1","name:right:tk":"Kambo\u00e7i\u00fda","name:left:gv":"Yn \u00c7heer Thai","name:left":"\u0e1b\u0e23\u0e30\u0e40\u0e17\u0e28\u0e44\u0e17\u0e22","name:right:mk":"\u041a\u0430\u043c\u0431\u043e\u045f\u0430","name:right:mi":"Kamap\u014dtia","name:right:mn":"\u041a\u0430\u043c\u0431\u043e\u0436","name:right:ml":"\u0d15\u0d02\u0d2c\u0d4b\u0d21\u0d3f\u0d2f","name:right:vo":"Kamboc\u00e4n","name:right:mg":"Kambodia","name:right:vi":"Campuchia","name:right:my":"\u1000\u1019\u1039\u1018\u1031\u102c\u1012\u102e\u1038\u101a\u102c\u1038\u1014\u102d\u102f\u1004\u103a\u1004\u1036","name:right:ms":"Kemboja","name:right:mr":"\u0915\u0902\u092c\u094b\u0921\u093f\u092f\u093e","name:right:fy":"Kambodja","name:right:mt":"Kambodja","name:left:nn":"Thailand","kind":"country","name:left:br":"Thailand","name:left:bs":"Tajland","name:left:ba":"\u0422\u0430\u0438\u043b\u0430\u043d\u0434","name:left:bg":"\u0422\u0430\u0439\u043b\u0430\u043d\u0434","name:left:be":"\u0422\u0430\u0439\u043b\u0430\u043d\u0434","name:left:bn":"\u09a5\u09be\u0987\u09b2\u09cd\u09af\u09be\u09a8\u09cd\u09a1","name:left:bo":"\u0f50\u0f60\u0f72\u0f0b\u0f63\u0f7a\u0f53\u0f0d","name:right":"\u1796\u17d2\u179a\u17c7\u179a\u17b6\u1787\u17b6\u178e\u17b6\u1785\u1780\u17d2\u179a\u200b\u1780\u1798\u17d2\u1796\u17bb\u1787\u17b6","name:left:yo":"Th\u00e1\u00edl\u00e0nd\u00ec","name:left:yi":"\u05d8\u05d9\u05d9\u05dc\u05d0\u05e0\u05d3","id:left":-2067731,"name:right:fi":"Kambod\u017ea","name:right:ka":"\u10d9\u10d0\u10db\u10d1\u10dd\u10ef\u10d0","name:left:io":"Tailando","name:left:pa":"\u0a25\u0a3e\u0a08\u0a32\u0a48\u0a02\u0a21","name:left:pl":"Tajlandia","name:left:ie":"Thailand","name:left:id":"Thailand","name:right:km":"\u1796\u17d2\u179a\u17c7\u179a\u17b6\u1787\u17b6\u178e\u17b6\u1785\u1780\u17d2\u179a\u1780\u1798\u17d2\u1796\u17bb\u1787\u17b6","name:left:ia":"Thailanda","name:right:kn":"\u0c95\u0cbe\u0c82\u0cac\u0ccb\u0ca1\u0cbf\u0caf","name:left:pt":"Tail\u00e2ndia","name:right:ku":"Kamboca","name:right:kw":"Kamboji","name:left:ps":"\u062a\u0627\u064a\u0644\u0646\u0689","name:left:zh-min-nan":"Th\u00e0i-kok","name:left:it":"Thailandia","name:left:is":"Ta\u00edland","name:right:ta":"\u0b95\u0bae\u0bcd\u0baa\u0bcb\u0b9f\u0bbf\u0baf\u0bbe","name:right:de":"Kambodscha","name:right:da":"Cambodja","maritime_boundary":true,"name:right:dz":"\u0f40\u0f58\u0f0b\u0f56\u0f7c\u0f0b\u0f4c\u0f72\u0f0b\u0f61\u0f0b","name:right:dv":"\u0786\u07ac\u0782\u07b0\u0784\u07af\u0791\u07a8\u0787\u07a7","name:right:ht":"Kanb\u00f2dj"},"arcs":[0]},{"type":"LineString","properties":{"name:ka":"\u10e2\u10d0\u10d8\u10da\u10d0\u10dc\u10d3\u10d8","name:ko":"\ud0c0\uc774","name:cv":"\u0422\u0430\u0438\u043b\u0430\u043d\u0434","name:km":"\u1790\u17c3","name:kl":"Thailandi","name:cs":"Thajsko","name:tw":"Thailand","name:ki":"Thailand","name:kw":"Pow Tay","name:kv":"\u0422\u0430\u0438\u043b\u0430\u043d\u0434","name:ku":"Taylenda","name:tl":"Taylandiya","name:ce":"\u0422\u0430\u0438\u043b\u0430\u043d\u0434","name:ta":"\u0ba4\u0bbe\u0baf\u0bcd\u0bb2\u0bbe\u0ba8\u0bcd\u0ba4\u0bc1","name:tg":"\u0422\u0430\u0438\u043b\u0430\u043d\u0434","name:ca":"Tail\u00e0ndia","name:te":"\u0c25\u0c3e\u0c2f\u0c3f\u0c32\u0c3e\u0c02\u0c21\u0c4d","name:cy":"Gwlad Thai","name:qu":"Thaysuyu","name:da":"Thailand","name:de":"Thailand","name:dz":"\u0f50\u0f71\u0f60\u0f72\u0f0b\u0f63\u0f7a\u0f53\u0f4c","source":"openstreetmap.org","name:kn":"\u0ca5\u0cc8\u0cb2\u0ccd\u0caf\u0cbe\u0c82\u0ca1\u0ccd","name:dv":"\u0790\u07a8\u0794\u07a7\u0789\u07aa","name:lv":"Taizeme","name:lt":"Tailandas","name:uz":"Tailand","name:kk":"\u0422\u0430\u0439\u043b\u0430\u043d\u0434","name:ur":"\u062a\u06be\u0627\u0626\u06cc \u0644\u06cc\u0646\u0688","name:lb":"Thailand","name:la":"Thailandia","name:tt":"\u0422\u0430\u0438\u043b\u0430\u043d\u0434","name:uk":"\u0422\u0430\u0457\u043b\u0430\u043d\u0434","name:ug":"\u062a\u0627\u064a\u0644\u0627\u0646\u062f","name:li":"Thailand","name:lo":"\u0e9b\u0eb0\u0ec0\u0e97\u0e94\u0ec4\u0e97","name:el":"\u03a4\u03b1\u03ca\u03bb\u03ac\u03bd\u03b4\u03b7","name:eo":"Tajlando","name:en":"Thailand","name":"\u0e1b\u0e23\u0e30\u0e40\u0e17\u0e28\u0e44\u0e17\u0e22","name:tk":"Tailand","name:eu":"Thailandia","name:et":"Tai","name:es":"Tailandia","name:ia":"Thailanda","name:az":"Tailand","name:ie":"Thailand","name:id":"Thailand","name:ar":"\u062a\u0627\u064a\u0644\u0627\u0646\u062f","name:io":"Tailando","name:is":"Ta\u00edland","name:am":"\u1273\u12ed\u120b\u1295\u12f5","name:it":"Thailandia","name:an":"Tailandia","name:ru":"\u0422\u0430\u0438\u043b\u0430\u043d\u0434","name:rw":"Tayilande","name:af":"Thailand","kind_detail":"2","name:za":"Daigoz","name:zh-yue":"\u6cf0\u570b","name:zh":"\u6cf0\u56fd","name:so":"Tayland","name:sl":"Tajska","name:sk":"Thajsko","name:ja":"\u30bf\u30a4\u738b\u56fd","name:sh":"Tajland","name:sg":"Tail\u00e2nde","name:se":"Thaieana","name:br":"Thailand","name:bs":"Tajland","name:bn":"\u09a5\u09be\u0987\u09b2\u09cd\u09af\u09be\u09a8\u09cd\u09a1","name:bo":"\u0f50\u0f60\u0f72\u0f0b\u0f63\u0f7a\u0f53\u0f0d","name:sa":"\u0936\u094d\u092f\u093e\u092e\u0926\u0947\u0936","name:sw":"Uthai","name:be":"\u0422\u0430\u0439\u043b\u0430\u043d\u0434","name:su":"Thailand","name:bg":"\u0422\u0430\u0439\u043b\u0430\u043d\u0434","name:ss":"IThayilandi","name:ba":"\u0422\u0430\u0438\u043b\u0430\u043d\u0434","name:sq":"Tajlanda","name:jv":"Thailand","name:pt":"Tail\u00e2ndia","name:ps":"\u062a\u0627\u064a\u0644\u0646\u0689","name:oc":"Tail\u00e0ndia","min_zoom":8.0,"name:ro":"Thailanda","name:zh-min-nan":"Th\u00e0i-kok","name:os":"\u0422\u0430\u0438\u043b\u0430\u043d\u0434","name:or":"\u0b25\u0b3e\u0b07\u0b32\u0b3e\u0b23\u0b4d\u0b21","name:pl":"Tajlandia","sort_rank":262,"name:sr":"\u0422\u0430\u0458\u043b\u0430\u043d\u0434","osm_relation":true,"name:pa":"\u0a25\u0a3e\u0a08\u0a32\u0a48\u0a02\u0a21","name:tr":"Tayland","name:hi":"\u0925\u093e\u0908\u0932\u0948\u0923\u094d\u0921","name:sv":"Thailand","name:he":"\u05ea\u05d0\u05d9\u05dc\u05e0\u05d3","name:hy":"\u0539\u0561\u056b\u056c\u0561\u0576\u0564","name:ht":"Tayilann","name:hu":"Thaif\u00f6ld","name:hr":"Tajland","kind":"country","name:yi":"\u05d8\u05d9\u05d9\u05dc\u05d0\u05e0\u05d3","name:yo":"Th\u00e1\u00edl\u00e0nd\u00ec","alt_name:eo":"Tajujo","name:ms":"Thailand","name:mr":"\u0925\u093e\u092f\u0932\u0902\u0921","name:my":"\u1011\u102d\u102f\u1004\u103a\u1038\u1014\u102d\u102f\u1004\u103a\u1004\u1036","official_name":"\u0e23\u0e32\u0e0a\u0e2d\u0e32\u0e13\u0e32\u0e08\u0e31\u0e01\u0e23\u0e44\u0e17\u0e22","name:mg":"Tailandy","name:vi":"Th\u00e1i Lan","name:ml":"\u0d24\u0d3e\u0d2f\u0d4d\u200c\u0d32\u0d3e\u0d28\u0d4d\u0d31\u0d4d","name:mn":"\u0422\u0430\u0439\u043b\u0430\u043d\u0434","name:mi":"Tairana","id":-2067731,"name:mk":"\u0422\u0430\u0458\u043b\u0430\u043d\u0434","name:vo":"Tay\u00e4n","name:fa":"\u062a\u0627\u06cc\u0644\u0646\u062f","name:fi":"Thaimaa","name:fo":"Teiland","name:fr":"Tha\u00eflande","name:fy":"Tail\u00e2n","name:nl":"Thailand","name:nn":"Thailand","name:no":"Thailand","name:na":"Thailand","name:ne":"\u0925\u093e\u0907\u0932\u094d\u092f\u093e\u0923\u094d\u0921","name:wo":"Taaylaand","name:nv":"T\u02bc\u00e1\u00ed Bik\u00e9yah","name:ga":"An T\u00e9alainn","name:gd":"D\u00f9thaich nan T\u00e0idh","name:gn":"Tailandia","name:gl":"Tailandia","maritime_boundary":true,"name:gv":"Yn \u00c7heer Thai","name:gu":"\u0aa5\u0abe\u0a87\u0ab2\u0ac7\u0aa8\u0acd\u0aa1"},"arcs":[1]},{"type":"LineString","properties":{"name:cy":"Cambodia","name:ko":"\uce84\ubcf4\ub514\uc544","name:cv":"\u041a\u0430\u043c\u0431\u043e\u0434\u0436\u0430","name:km":"\u1796\u17d2\u179a\u17c7\u179a\u17b6\u1787\u17b6\u178e\u17b6\u1785\u1780\u17d2\u179a\u1780\u1798\u17d2\u1796\u17bb\u1787\u17b6","name:cs":"Kambod\u017ea","name:tt":"\u041a\u0430\u043c\u0431\u043e\u0497\u0430","name:kw":"Kamboji","name:kv":"\u041a\u0430\u043c\u0431\u043e\u0434\u0436\u0430","name:ku":"Kamboca","name:tl":"Kamboya","name:ce":"\u041a\u0430\u043c\u0431\u043e\u0434\u0436\u0430","name:ta":"\u0b95\u0bae\u0bcd\u0baa\u0bcb\u0b9f\u0bbf\u0baf\u0bbe","name:tg":"\u041a\u0430\u043c\u0431\u043e\u04b7\u0430","name:ca":"Cambodja","name:te":"\u0c15\u0c02\u0c2c\u0c4b\u0c21\u0c3f\u0c2f\u0c3e","name:ka":"\u10d9\u10d0\u10db\u10d1\u10dd\u10ef\u10d0","name:qu":"Kambuya","name:da":"Cambodja","name:de":"Kambodscha","name:dz":"\u0f40\u0f58\u0f0b\u0f56\u0f7c\u0f0b\u0f4c\u0f72\u0f0b\u0f61\u0f0b","source":"openstreetmap.org","name:kn":"\u0c95\u0cbe\u0c82\u0cac\u0ccb\u0ca1\u0cbf\u0caf","name:dv":"\u0786\u07ac\u0782\u07b0\u0784\u07af\u0791\u07a8\u0787\u07a7","name:lv":"Kambod\u017ea","name:lt":"Kambod\u017ea","name:uz":"Kambodja","name:kk":"\u041a\u0430\u043c\u0431\u043e\u0434\u0436\u0430","name:ur":"\u06a9\u0645\u0628\u0648\u0688\u06cc\u0627","name:lb":"Kambodscha","name:la":"Cambosia","name:uk":"\u041a\u0430\u043c\u0431\u043e\u0434\u0436\u0430","name:ug":"\u0643\u0627\u0645\u0628\u0648\u062c\u0627","name:li":"Cambodja","name:ln":"Kamboji","name:lo":"\u0e9b\u0eb0\u0ec0\u0e97\u0e94\u0e81\u0eb3\u0e9b\u0eb9\u0ec0\u0e88\u0e8d","name:el":"\u039a\u03b1\u03bc\u03c0\u03cc\u03c4\u03b6\u03b7","name:eo":"Kambo\u011do","name:en":"Cambodia","name":"\u1796\u17d2\u179a\u17c7\u179a\u17b6\u1787\u17b6\u178e\u17b6\u1785\u1780\u17d2\u179a\u200b\u1780\u1798\u17d2\u1796\u17bb\u1787\u17b6","name:tk":"Kambo\u00e7i\u00fda","name:th":"\u0e1b\u0e23\u0e30\u0e40\u0e17\u0e28\u0e01\u0e31\u0e21\u0e1e\u0e39\u0e0a\u0e32","name:eu":"Kanbodia","name:et":"Kambod\u017ea","name:es":"Camboya","name:ia":"Cambodgia","name:rm":"Cambodscha","name:az":"Kamboca","name:ie":"Cambodja","name:id":"Kamboja","name:ar":"\u0643\u0645\u0628\u0648\u062f\u064a\u0627","name:io":"Kambodja","name:is":"Kamb\u00f3d\u00eda","name:am":"\u12ab\u121d\u1266\u12f2\u12eb","name:it":"Cambogia","name:an":"Cambocha","name:ru":"\u041a\u0430\u043c\u0431\u043e\u0434\u0436\u0430","name:rw":"Kambodiya","name:af":"Kambodja","kind_detail":"2","name:zh-yue":"\u67ec\u57d4\u5be8","name:zh":"\u67ec\u57d4\u5be8","name:so":"Kambodiya","name:sl":"Kambod\u017ea","name:sk":"Kambod\u017ea","name:ja":"\u30ab\u30f3\u30dc\u30b8\u30a2","name:si":"\u0d9a\u0dcf\u0db8\u0dca\u0db6\u0ddd\u0da2\u0dba","name:sh":"Kambod\u017ea","name:se":"Kampu\u010dea","name:br":"Kambodja","name:bs":"Kambod\u017ea","name:bn":"\u0995\u09ae\u09cd\u09ac\u09cb\u09a1\u09bf\u09af\u09bc\u09be","name:bo":"\u0f41\u0f58\u0f0b\u0f54\u0f7c\u0f0b\u0f5b\u0f0d","name:sw":"Kamboja","name:be":"\u041a\u0430\u043c\u0431\u043e\u0434\u0436\u0430","name:su":"Kamboja","name:bg":"\u041a\u0430\u043c\u0431\u043e\u0434\u0436\u0430","name:ss":"IKhambodiya","name:ba":"\u041a\u0430\u043c\u0431\u043e\u0434\u0436\u0430","name:sq":"Kamboxhia","name:jv":"Kamboja","name:pt":"Camboja","name:ps":"\u06a9\u0645\u0628\u0648\u062f\u06cc\u0627","name:oc":"Camb\u00f2tja","min_zoom":8.0,"name:ro":"Cambodgia","name:zh-min-nan":"Kampuchea","name:os":"\u041a\u0430\u043c\u0431\u043e\u0434\u0436\u00e6","name:or":"\u0b15\u0b2e\u0b4d\u0b2c\u0b4b\u0b21\u0b3c\u0b3f\u0b06","name:pl":"Kambod\u017ca","sort_rank":262,"name:sr":"\u041a\u0430\u043c\u0431\u043e\u045f\u0430","osm_relation":true,"name:pa":"\u0a15\u0a70\u0a2c\u0a4b\u0a21\u0a40\u0a06","name:tr":"Kambo\u00e7ya","name:hi":"\u0915\u092e\u094d\u092c\u094b\u0921\u093f\u092f\u093e","name:sv":"Kambodja","name:he":"\u05e7\u05de\u05d1\u05d5\u05d3\u05d9\u05d4","name:ha":"Kambodiya","name:hy":"\u053f\u0561\u0574\u0562\u0578\u057b\u0561","name:ht":"Kanb\u00f2dj","name:hu":"Kambodzsa","name:hr":"Kambod\u017ea","kind":"country","name:yi":"\u05e7\u05d0\u05de\u05d1\u05d0\u05d3\u05d9\u05e2","name:yo":"K\u00e0mb\u00f3d\u00ed\u00e0","name:mt":"Kambodja","name:ms":"Kemboja","name:mr":"\u0915\u0902\u092c\u094b\u0921\u093f\u092f\u093e","name:my":"\u1000\u1019\u1039\u1018\u1031\u102c\u1012\u102e\u1038\u101a\u102c\u1038\u1014\u102d\u102f\u1004\u103a\u1004\u1036","int_name":"Cambodia","name:mg":"Kambodia","name:vi":"Campuchia","name:ml":"\u0d15\u0d02\u0d2c\u0d4b\u0d21\u0d3f\u0d2f","name:mn":"\u041a\u0430\u043c\u0431\u043e\u0436","name:mi":"Kamap\u014dtia","id":-49898,"name:mk":"\u041a\u0430\u043c\u0431\u043e\u045f\u0430","name:vo":"Kamboc\u00e4n","name:fa":"\u06a9\u0627\u0645\u0628\u0648\u062c","name:fi":"Kambod\u017ea","name:fo":"Kambodja","name:fr":"Cambodge","name:fy":"Kambodja","name:nl":"Cambodja","name:nn":"Kambodsja","name:no":"Kambodsja","name:na":"Kambodja","name:wo":"Kamboodi","name:ga":"An Chamb\u00f3id","name:gd":"Cambuidea","name:gn":"Kamboja","name:gl":"Camboxa - \u1780\u1798\u17d2\u1796\u17bb\u1787\u17b6","maritime_boundary":true,"name:gv":"Yn Chamboyd","name:gu":"\u0a95\u0aae\u0acd\u0aac\u0acb\u0aa1\u0ac0\u0aaf\u0abe"},"arcs":[2]},{"type":"LineString","properties":{"kind":"region","name:en":"Koh Kong","name":"\u1781\u17c1\u178f\u17d2\u178f\u1780\u17c4\u17c7\u1780\u17bb\u1784","sort_rank":256,"kind_detail":"4","min_zoom":8.0,"source":"openstreetmap.org","maritime_boundary":true,"name:ru":"\u041a\u043e\u0445\u043a\u043e\u043d\u0433","id":-2199066,"osm_relation":true,"name:ja":"\u30b3\u30b3\u30f3"},"arcs":[3]},{"type":"LineString","properties":{"kind":"region","name:en":"Rayong Province","name":"\u0e08\u0e31\u0e07\u0e2b\u0e27\u0e31\u0e14\u0e23\u0e30\u0e22\u0e2d\u0e07","sort_rank":256,"kind_detail":"4","min_zoom":8.0,"source":"openstreetmap.org","maritime_boundary":true,"name:uk":"\u0420\u0430\u0439\u043e\u043d\u0433","name:ru":"\u0420\u0430\u0439\u043e\u043d\u0433","name:pl":"Rayong","id":-1908812,"osm_relation":true,"name:ja":"\u30e9\u30e8\u30fc\u30f3\u770c"},"arcs":[4]}]},"roads":{"type":"GeometryCollection","geometries":[{"type":"LineString","properties":{"source":"openstreetmap.org","kind":"ferry","name":"Panan Speedboat","sort_rank":355,"landuse_kind":"national_park","min_zoom":8.0,"id":255274816},"arcs":[14]},{"type":"LineString","properties":{"kind":"ferry","name:en":"Ko Chang Speedboat","name":"\u0e40\u0e01\u0e32\u0e30\u0e0a\u0e49\u0e32\u0e07\u0e2a\u0e1b\u0e35\u0e14\u0e42\u0e1a\u0e4a\u0e15","sort_rank":355,"landuse_kind":"national_park","source":"openstreetmap.org","min_zoom":8.0,"id":255274812},"arcs":[15]},{"type":"LineString","properties":{"kind":"ferry","name:en":"Ferry Koh Chang","name":"\u0e40\u0e1f\u0e2d\u0e23\u0e4c\u0e23\u0e35\u0e48\u0e40\u0e01\u0e32\u0e30\u0e0a\u0e49\u0e32\u0e07","sort_rank":355,"source":"openstreetmap.org","min_zoom":8.0,"name:ru":"\u041f\u0430\u0440\u043e\u043c \u043d\u0430 \u041a\u043e \u0427\u0430\u043d\u0433","id":29563471},"arcs":[16]},{"type":"MultiLineString","properties":{"source":"openstreetmap.org","kind":"ferry","name":"Wooden Boat","sort_rank":355,"min_zoom":8.0,"id":255274817},"arcs":[[17],[18],[19]]},{"type":"LineString","properties":{"kind":"ferry","name:en":"Ferry Koh Chang","name":"\u0e40\u0e1f\u0e2d\u0e23\u0e4c\u0e23\u0e35\u0e48\u0e40\u0e01\u0e32\u0e30\u0e0a\u0e49\u0e32\u0e07","sort_rank":355,"landuse_kind":"national_park","source":"openstreetmap.org","min_zoom":8.0,"name:ru":"\u041f\u0430\u0440\u043e\u043c \u043d\u0430 \u041a\u043e \u0427\u0430\u043d\u0433","id":29563471},"arcs":[20]},{"type":"LineString","properties":{"sort_rank":381,"source":"openstreetmap.org","min_zoom":8.0,"kind":"major_road","kind_detail":"trunk"},"arcs":[21]},{"type":"LineString","properties":{"source":"openstreetmap.org","kind":"ferry","name":"Centrepoint Ferry","sort_rank":355,"min_zoom":8.0,"id":27994507},"arcs":[22]},{"type":"MultiLineString","properties":{"sort_rank":355,"source":"openstreetmap.org","min_zoom":8.0,"kind":"ferry"},"arcs":[[23],[24],[25],[26],[27],[28],[29],[30],[31],[32],[33],[34],[35],[36],[37],[38],[39],[40],[41],[42],[43]]},{"type":"MultiLineString","properties":{"kind":"major_road","name:en":"Sukhumvit Road","sort_rank":380,"kind_detail":"primary","source":"openstreetmap.org","min_zoom":8.0,"landuse_kind":"urban_area","ref":"3"},"arcs":[[44],[45]]},{"type":"MultiLineString","properties":{"source":"openstreetmap.org","kind":"ferry","name":"Lelawadee Speedboat","sort_rank":355,"min_zoom":8.0,"id":212550761},"arcs":[[46],[47]]},{"type":"MultiLineString","properties":{"source":"openstreetmap.org","kind":"ferry","name":"Panan Speedboat","sort_rank":355,"min_zoom":8.0,"id":255274816},"arcs":[[48],[49]]},{"type":"MultiLineString","properties":{"kind":"major_road","network":"AsianHighway","sort_rank":380,"kind_detail":"primary","source":"openstreetmap.org","min_zoom":8.0,"landuse_kind":"urban_area","shield_text":"123","ref":"3"},"arcs":[[50],[51]]},{"type":"MultiLineString","properties":{"source":"openstreetmap.org","kind":"ferry","name":"Wooden Boat","sort_rank":355,"landuse_kind":"national_park","min_zoom":8.0,"id":255274817},"arcs":[[52],[53]]},{"type":"LineString","properties":{"sort_rank":355,"source":"openstreetmap.org","min_zoom":8.0,"name":"Ko Chang Speedboat","kind":"ferry"},"arcs":[54]},{"type":"LineString","properties":{"source":"openstreetmap.org","kind":"ferry","name":"Speedboat","sort_rank":355,"min_zoom":8.0,"id":62221399},"arcs":[55]},{"type":"LineString","properties":{"source":"openstreetmap.org","kind":"ferry","name":"Ko Chang Speedboat","sort_rank":355,"landuse_kind":"national_park","min_zoom":8.0,"id":255274813},"arcs":[56]},{"type":"MultiLineString","properties":{"source":"openstreetmap.org","kind":"ferry","name":"Ko Wai Speedboat","sort_rank":355,"landuse_kind":"national_park","min_zoom":8.0,"id":397660806},"arcs":[[57],[58]]},{"type":"MultiLineString","properties":{"kind":"major_road","name:en":"Sukhumvit Road","network":"AsianHighway","sort_rank":381,"kind_detail":"trunk","source":"openstreetmap.org","min_zoom":8.0,"landuse_kind":"urban_area","shield_text":"123","ref":"3"},"arcs":[[59],[60]]},{"type":"LineString","properties":{"kind":"major_road","name:en":"Sukhumvit Road","network":"AsianHighway","sort_rank":380,"kind_detail":"primary","source":"openstreetmap.org","min_zoom":8.0,"landuse_kind":"urban_area","shield_text":"123","ref":"3","id":397870599},"arcs":[61]},{"type":"LineString","properties":{"source":"openstreetmap.org","kind":"ferry","name":"Lelawadee Speedboat","sort_rank":355,"landuse_kind":"national_park","min_zoom":8.0,"id":212550761},"arcs":[62]},{"type":"LineString","properties":{"source":"openstreetmap.org","kind":"ferry","name":"Speedboat","sort_rank":355,"landuse_kind":"national_park","min_zoom":8.0,"id":105841961},"arcs":[63]},{"type":"LineString","properties":{"source":"openstreetmap.org","kind":"ferry","name":"Centrepoint Ferry","sort_rank":355,"landuse_kind":"national_park","min_zoom":8.0,"id":27994507},"arcs":[64]},{"type":"MultiLineString","properties":{"source":"openstreetmap.org","kind":"ferry","name":"Ko Wai Speedboat","sort_rank":355,"min_zoom":8.0,"id":397660806},"arcs":[[65],[66]]},{"type":"MultiLineString","properties":{"source":"openstreetmap.org","kind":"major_road","landuse_kind":"urban_area","sort_rank":380,"kind_detail":"primary","ref":"3148","min_zoom":8.0},"arcs":[[67],[68]]},{"type":"MultiLineString","properties":{"sort_rank":355,"landuse_kind":"national_park","min_zoom":8.0,"kind":"ferry","source":"openstreetmap.org"},"arcs":[[69],[70],[71],[72]]},{"type":"MultiLineString","properties":{"kind":"major_road","name:en":"Sukhumvit Road","network":"AsianHighway","sort_rank":381,"kind_detail":"trunk","source":"openstreetmap.org","min_zoom":8.0,"shield_text":"123","ref":"3"},"arcs":[[73],[74]]},{"type":"MultiLineString","properties":{"kind":"major_road","network":"AsianHighway","sort_rank":380,"kind_detail":"primary","source":"openstreetmap.org","min_zoom":8.0,"shield_text":"123","ref":"3"},"arcs":[[75],[76]]},{"type":"LineString","properties":{"sort_rank":355,"source":"openstreetmap.org","min_zoom":8.0,"name":"Fantasea Catamaran","kind":"ferry"},"arcs":[77]}]},"earth":{"type":"GeometryCollection","geometries":[{"type":"MultiPolygon","properties":{"sort_rank":10,"source":"naturalearthdata.com","min_zoom":0.0,"kind":"earth","area":72003248784},"arcs":[[[78]],[[79]],[[80]],[[81]],[[82]]]}]},"landuse":{"type":"GeometryCollection","geometries":[{"type":"MultiPolygon","properties":{"kind":"national_park","protect_class":"2","area":9832166205,"sort_rank":18,"source":"openstreetmap.org","min_zoom":3.0,"tier":1,"osm_relation":true},"arcs":[[[83],[84],[85],[86],[87],[88],[89]]]},{"type":"MultiPolygon","properties":{"source":"naturalearthdata.com","kind":"urban_area","name":"","area":338268655,"sort_rank":11,"min_zoom":4.0},"arcs":[[[90]]]},{"type":"Polygon","properties":{"kind":"national_park","protect_class":"2","area":101785000,"sort_rank":18,"source":"openstreetmap.org","min_zoom":7.0,"tier":1,"id":-3277604,"osm_relation":true},"arcs":[[91]]},{"type":"Polygon","properties":{"kind":"park","natural":"wood","area":273632992,"sort_rank":24,"source":"openstreetmap.org","min_zoom":6.0,"tier":2,"id":226155852},"arcs":[[92]]},{"type":"Polygon","properties":{"kind":"park","natural":"wood","area":140092000,"sort_rank":24,"source":"openstreetmap.org","min_zoom":7.0,"tier":2,"id":27154202},"arcs":[[93]]}]}},"type":"Topology","transform":{"translate":[101.25,11.1784018737],"scale":[0.0003433228,0.000335977]},"arcs":[[[3993,628],[103,96]],[[0,3766],[96,-138],[194,-163],[265,-65],[239,29],[138,70],[242,52],[138,-15],[260,59],[164,-144],[283,-180],[79,-16],[235,-188],[-37,-432],[43,-263],[166,-389],[342,-573],[438,-550],[143,-99],[278,-113],[287,-20]],[[3993,628],[-121,-277],[4,-351]],[[4096,724],[-103,-96],[-121,-277],[4,-351]],[[0,3766],[96,-138],[194,-163],[265,-65],[239,29],[138,70],[242,52],[138,-15],[260,59],[36,169],[-21,332]],[[1936,4096],[96,-74],[-1,33],[-12,41],[51,0],[0,-52],[37,13],[55,-5],[49,-17],[39,-43],[100,-153],[2,86],[6,40],[14,37],[-62,2],[-34,31],[-26,41],[-28,20],[101,0],[-12,-12],[13,-24],[148,3],[-16,-6],[-14,-8],[-30,-27],[21,-16],[22,-3],[19,12],[16,29],[22,0],[-20,-42],[-39,-31],[-20,-24],[39,-27],[-21,7],[-16,2],[-12,8],[-11,24],[-18,-62],[44,-70],[67,-71],[46,-63],[-4,-28],[36,-26],[87,-48],[179,-184],[107,-52],[25,59],[-30,92],[-60,45],[15,33],[-2,29],[-13,29],[-20,33],[-61,-43],[-18,0],[14,32],[3,28],[-11,24],[-28,18],[14,6],[48,14],[17,-38],[42,-4],[46,17],[34,25],[-16,-32],[-3,-37],[7,-37],[12,-36],[19,0],[44,80],[18,23],[18,0],[-34,-61],[-18,-63],[-8,-132],[24,-69],[54,-5],[60,34],[42,51],[-8,19],[-12,17],[-17,15],[-23,10],[37,32],[43,-27],[23,-60],[-23,-69],[-46,-49],[-61,-48],[-74,-25],[-78,20],[7,-54],[52,-89],[20,-60],[-3,-14],[-6,-19],[-2,-23],[11,-25],[16,-12],[66,-29],[18,0],[34,51],[41,-5],[46,-29],[313,-110],[89,-47],[82,-59],[53,-67],[2,-24],[-3,-64],[11,-14],[28,-8],[30,-14],[25,0],[10,33],[-5,21],[-36,70],[-42,276],[13,55],[35,20],[45,10],[48,27],[0,-20],[-4,-32],[108,-84],[35,-49],[-68,7],[5,-28],[71,-69],[0,-2829],[-4096,0],[0,4096],[1936,0]],[[3927,1146],[-11,76],[8,28],[25,40],[-41,0],[0,20],[48,89],[-6,107],[-48,76],[-74,-6],[17,39],[2,35],[-7,34],[-12,33],[-26,14],[-16,-23],[-58,-215],[3,-29],[29,-67],[8,-28],[2,-37],[-5,-16],[-14,-14],[-23,-32],[94,-28],[28,-13],[15,-19],[23,-48],[20,-16],[19,0]],[[3614,1864],[45,18],[12,-1],[4,10],[4,36],[-21,2],[-56,2],[-31,24],[-14,-6],[6,-25],[-40,-23],[-9,-1],[-15,4],[-13,-17],[1,-15],[8,-6],[6,7],[40,8],[23,-9],[19,-22],[21,-19],[3,-13],[7,-8],[9,26],[-9,28]],[[3112,2330],[-13,30],[-9,11],[0,18],[111,-36],[38,-5],[41,11],[5,26],[-5,34],[9,35],[93,-93],[48,-31],[40,18],[5,49],[-32,50],[-44,51],[-30,56],[-20,20],[0,18],[-39,27],[-24,40],[-35,78],[-32,40],[-36,36],[-93,68],[-51,-3],[-79,21],[-49,2],[20,-12],[16,-14],[12,-16],[12,-21],[-40,0],[83,-194],[27,-30],[0,-184],[-11,-41],[0,-18],[27,-8],[20,-8],[17,-10],[18,-15]],[[1936,4096],[96,-74],[-1,33],[-12,41]],[[2070,4096],[0,-52],[37,13],[55,-5],[49,-17],[39,-43],[100,-153],[2,86],[6,40],[14,37],[-62,2],[-34,31],[-26,41],[-28,20]],[[2323,4096],[-12,-12],[13,-24],[148,3],[-16,-6],[-14,-8],[-30,-27],[21,-16],[22,-3],[19,12],[16,29],[22,0],[-20,-42],[-39,-31],[-20,-24],[39,-27],[-21,7],[-16,2],[-12,8],[-11,24],[-18,-62],[44,-70],[67,-71],[46,-63],[-4,-28],[36,-26],[87,-48],[179,-184],[107,-52],[25,59],[-30,92],[-60,45],[15,33],[-2,29],[-13,29],[-20,33],[-61,-43],[-18,0],[14,32],[3,28],[-11,24],[-28,18],[14,6],[48,14],[17,-38],[42,-4],[46,17],[34,25],[-16,-32],[-3,-37],[7,-37],[12,-36],[19,0],[44,80],[18,23],[18,0],[-34,-61],[-18,-63],[-8,-132],[24,-69],[54,-5],[60,34],[42,51],[-8,19],[-12,17],[-17,15],[-23,10],[37,32],[43,-27],[23,-60],[-23,-69],[-46,-49],[-61,-48],[-74,-25],[-78,20],[7,-54],[52,-89],[20,-60],[-3,-14],[-6,-19],[-2,-23],[11,-25],[16,-12],[66,-29],[18,0],[34,51],[41,-5],[46,-29],[313,-110],[89,-47],[82,-59],[53,-67],[2,-24],[-3,-64],[11,-14],[28,-8],[30,-14],[25,0],[10,33],[-5,21],[-36,70],[-42,276],[13,55],[35,20],[45,10],[48,27],[0,-20],[-4,-32],[108,-84],[35,-49],[-68,7],[5,-28],[71,-69]],[[3349,2574],[0,18],[-39,27],[-24,40],[-35,78],[-32,40],[-36,36],[-93,68],[-51,-3],[-79,21],[-49,2],[20,-12],[16,-14],[12,-16],[12,-21],[-40,0],[83,-194],[27,-30],[0,-184],[-11,-41],[0,-18],[27,-8],[20,-8],[17,-10],[18,-15],[-13,30],[-9,11],[0,18],[111,-36],[38,-5],[41,11],[5,26],[-5,34],[9,35],[93,-93],[48,-31],[40,18],[5,49],[-32,50],[-44,51],[-30,56],[-20,20]],[[3828,1576],[17,39],[2,35],[-7,34],[-12,33],[-26,14],[-16,-23],[-58,-215],[3,-29],[29,-67],[8,-28],[2,-37],[-5,-16],[-14,-14],[-23,-32],[94,-28],[28,-13],[15,-19],[23,-48],[20,-16],[19,0],[-11,76],[8,28],[25,40],[-41,0],[0,20],[48,89],[-6,107],[-48,76],[-74,-6]],[[3405,2663],[112,-272],[-4,-271]],[[3028,2529],[6,-139],[59,-96],[142,-40],[122,-90]],[[3063,3001],[-20,-44]],[[3311,2967],[126,-334]],[[3508,2448],[22,-67]],[[3554,2157],[144,-244],[-35,-46],[-56,-5]],[[3043,2957],[-41,-89]],[[3607,3281],[0,1]],[[3136,2911],[119,97]],[[3311,2967],[-159,-71]],[[3527,1891],[-27,-38]],[[3710,1408],[5,-143],[59,-41],[29,17]],[[3735,1410],[-26,10],[-11,53]],[[3698,1473],[0,1]],[[3698,1474],[9,93]],[[3707,1567],[5,44]],[[3771,1322],[-1,40],[-37,9],[2,39]],[[3735,1410],[-29,6],[-8,57]],[[3698,1473],[0,1]],[[3698,1474],[-4,29],[13,64]],[[3707,1567],[188,933]],[[3895,2500],[12,60]],[[3907,2560],[10,51]],[[3917,2611],[4,20],[-48,327],[-70,106]],[[3897,2554],[-2,-54]],[[3895,2500],[-48,-926]],[[3918,2607],[-1,4]],[[3917,2611],[-8,29],[-21,-7]],[[3895,2584],[12,-24]],[[3907,2560],[4,-9]],[[3668,3198],[1,-3]],[[3668,3195],[0,1]],[[3311,2967],[58,-270]],[[3489,2100],[-15,-213],[31,-27],[26,29]],[[3311,2967],[94,-304]],[[3513,2120],[39,-194]],[[3672,3199],[43,27],[18,6],[33,-10]],[[3766,3219],[-41,10],[-53,-31]],[[3437,2633],[71,-185]],[[3530,2381],[24,-224]],[[3457,2072],[15,-201],[36,-14],[23,32],[167,-462],[72,-65],[1,-40]],[[3771,1322],[-47,-8],[21,-23]],[[3357,2164],[65,-6],[35,-86]],[[3448,2311],[-91,-147]],[[3366,2699],[123,-322],[-35,-56]],[[3658,3213],[10,-15]],[[3667,3198],[-9,14]],[[3668,3196],[-1,2]],[[3369,2697],[138,-335],[-18,-262]],[[3101,2354],[240,-156],[16,-34]],[[3077,2863],[59,48]],[[3311,2967],[55,-268]],[[3454,2321],[-6,-10]],[[3669,3193],[-1,2]],[[3669,3195],[0,-1]],[[580,4050],[37,46]],[[3152,2896],[-75,-33]],[[3459,2310],[25,-10],[-16,-6]],[[3459,2311],[50,25]],[[3658,3212],[-91,137],[-53,94],[-51,38],[-46,47],[-101,22],[-310,244],[-108,-6],[-140,53],[-64,56],[-51,128],[6,71]],[[2650,4096],[-7,-71],[52,-128],[64,-56],[140,-53],[107,7],[311,-244],[100,-22],[97,-85],[144,-231]],[[4096,3053],[-31,62],[-94,74],[-101,4],[-104,26]],[[3766,3222],[205,-33],[94,-74],[31,-62]],[[3897,2554],[-143,-605],[-59,-69],[-88,-18],[218,-113],[30,-90],[-8,-85]],[[2960,2899],[79,-21],[51,3],[93,-68],[36,-36],[32,-40],[35,-78],[24,-40],[39,-27],[0,-18],[20,-20],[30,-56],[44,-51],[32,-50],[-5,-49],[-40,-18],[-48,31],[-93,93],[-9,-35],[5,-34],[-5,-26],[-41,-11],[-38,5],[-111,36],[0,-18],[9,-11],[13,-30],[-18,15],[-17,10],[-20,8],[-27,8],[0,18],[11,41],[0,184],[-27,30],[-83,194],[40,0],[-12,21],[-12,16],[-16,14],[-20,12],[49,-2]],[[3845,1615],[-17,-39],[74,6],[48,-76],[6,-107],[-48,-89],[0,-20],[41,0],[-25,-40],[-8,-28],[11,-76],[-19,0],[-20,16],[-23,48],[-15,19],[-28,13],[-94,28],[23,32],[14,14],[5,16],[-2,37],[-8,28],[-29,67],[-3,29],[58,215],[16,23],[26,-14],[12,-33],[7,-34],[-2,-35]],[[2323,4096],[1773,0],[0,-1267],[-71,69],[-5,28],[68,-7],[-35,49],[-108,84],[4,32],[0,20],[-48,-27],[-45,-10],[-35,-20],[-13,-55],[42,-276],[36,-70],[5,-21],[-10,-33],[-25,0],[-30,14],[-28,8],[-11,14],[3,64],[-2,24],[-53,67],[-82,59],[-89,47],[-313,110],[-46,29],[-41,5],[-34,-51],[-18,0],[-66,29],[-16,12],[-11,25],[2,23],[6,19],[3,14],[-20,60],[-52,89],[-7,54],[78,-20],[74,25],[61,48],[46,49],[23,69],[-23,60],[-43,27],[-37,-32],[23,-10],[17,-15],[12,-17],[8,-19],[-42,-51],[-60,-34],[-54,5],[-24,69],[8,132],[18,63],[34,61],[-18,0],[-18,-23],[-44,-80],[-19,0],[-12,36],[-7,37],[3,37],[16,32],[-34,-25],[-46,-17],[-42,4],[-17,38],[-48,-14],[-14,-6],[28,-18],[11,-24],[-3,-28],[-14,-32],[18,0],[61,43],[20,-33],[13,-29],[2,-29],[-15,-33],[60,-45],[30,-92],[-25,-59],[-107,52],[-179,184],[-87,48],[-36,26],[4,28],[-46,63],[-67,71],[-44,70],[18,62],[11,-24],[12,-8],[16,-2],[21,-7],[-39,27],[20,24],[39,31],[20,42],[-22,0],[-16,-29],[-19,-12],[-22,3],[-21,16],[30,27],[14,8],[16,6],[-148,-3],[-13,24],[12,12]],[[2070,4096],[152,0],[28,-20],[26,-41],[34,-31],[62,-2],[-14,-37],[-6,-40],[-2,-86],[-100,153],[-39,43],[-49,17],[-55,5],[-37,-13],[0,52]],[[1936,4096],[83,0],[12,-41],[1,-33],[-96,74]],[[2870,2958],[217,-1],[364,-336],[78,-240],[189,-1],[-1,-83],[-318,-275],[-6,-271],[-158,3],[3,268],[-363,547],[-5,389]],[[3197,2348],[37,-15],[56,16],[-11,46],[-27,37],[18,16],[90,-34],[-20,181],[-57,65],[-9,-73],[42,-32],[-56,-27],[-13,34],[18,9],[-46,32],[15,-88],[-28,-47],[70,-100],[-22,-23],[3,35],[-51,22],[-9,-54]],[[2974,2768],[10,-108],[51,-76],[-5,-61],[35,-2],[-15,36],[29,7],[4,62],[-62,19],[-21,104],[-26,19]],[[3073,2861],[27,-50],[82,-37],[56,-131],[28,34],[-39,102],[-154,82]],[[3038,2407],[57,-79],[-1,29],[53,19],[-22,61],[-9,-58],[-47,16],[-15,48],[-16,-36]],[[2955,2841],[23,-25],[84,-40],[-44,70],[-59,27],[-4,-32]],[[3388,2353],[53,-43],[18,1],[-22,42],[-36,17],[-13,-17]],[[3766,3157],[-64,1],[-37,28],[-28,104],[101,-29],[28,-38],[0,-66]],[[650,4096],[-2,-212],[-160,2],[2,210],[160,0]],[[4096,3882],[-3,-10],[-34,8],[-29,-27],[-29,15],[34,24],[-77,15],[92,20],[-9,27],[-86,13],[-23,32],[71,57],[-13,40],[106,0],[0,-214]],[[2669,4034],[2,62],[266,0],[-14,-140],[-30,-63],[-54,54],[-16,-21],[24,-47],[-22,-43],[-46,12],[-69,62],[-5,84],[-36,40]]]}