{"objects":{"water":{"type":"GeometryCollection","geometries":[{"type":"MultiPolygon","properties":{"source":"naturalearthdata.com","kind":"ocean","area":1576712559132672,"sort_rank":200,"min_zoom":0.0,"id":1},"arcs":[[[24],[25]]]},{"type":"LineString","properties":{"source":"naturalearthdata.com","kind":"ocean","sort_rank":205,"boundary":true,"min_zoom":0.0,"id":79},"arcs":[26]},{"type":"MultiLineString","properties":{"source":"naturalearthdata.com","kind":"ocean","sort_rank":205,"boundary":true,"min_zoom":0.0,"id":3576},"arcs":[[27],[28]]},{"type":"LineString","properties":{"source":"naturalearthdata.com","kind":"ocean","sort_rank":205,"boundary":true,"min_zoom":0.0,"id":3592},"arcs":[29]}]},"buildings":{"type":"GeometryCollection","geometries":[]},"places":{"type":"GeometryCollection","geometries":[{"type":"Point","properties":{"name:short":"KL","name:ja":"\u30af\u30a2\u30e9\u30eb\u30f3\u30d7\u30fc\u30eb\u9023\u90a6\u76f4\u8f44\u9818","name:ms":"Wilayah Persekutuan Kuala Lumpur","name:ko":"\ucfe0\uc54c\ub77c\ub8f8\ud478\ub974\uc5f0\ubc29\uc9c1\ud560\uad6c","name:th":"\u0e14\u0e34\u0e19\u0e41\u0e14\u0e19\u0e2a\u0e2b\u0e1e\u0e31\u0e19\u0e18\u0e4c\u0e01\u0e31\u0e27\u0e25\u0e32\u0e25\u0e31\u0e21\u0e40\u0e1b\u0e2d\u0e23\u0e4c","name:ru":"\u041a\u0443\u0430\u043b\u0430-\u041b\u0443\u043c\u043f\u0443\u0440 \u0421\u0442\u043e\u043b\u0438\u0447\u043d\u0430\u044f \u0442\u0435\u0440\u0440\u0438\u0442\u043e\u0440\u0438\u044f","name:ta":"\u0b95\u0bcb\u0bb2\u0bbe\u0bb2\u0bae\u0bcd\u0baa\u0bc2\u0bb0\u0bcd","id":4165116689,"population":1768000,"kind":"region","name":"Federal Territory of Kuala Lumpur","kind_detail":"state","short_name":"KUL","min_zoom":4.0,"source":"openstreetmap.org","name:zh":"\u5409\u9686\u5761\u8054\u90a6\u76f4\u8f96\u533a"},"coordinates":[1317,996]},{"type":"Point","properties":{"name:short":"N","name:ja":"\u30cc\u30b0\u30ea\u30fb\u30b9\u30f3\u30d3\u30e9\u30f3\u5dde","short_name":"NSN","name:hi":"\u0928\u0947\u0917\u0947\u0930\u0940 \u0938\u0947\u092e\u092c\u093f\u0932\u093e\u0928","name:ko":"\ub290\uadf8\ub9ac\uc2b4\ube4c\ub780 \uc8fc","name:he":"\u05e0\u05d2\u05e8\u05d9 \u05e1\u05de\u05d1\u05d9\u05dc\u05df","name:th":"\u0e23\u0e31\u0e10\u0e40\u0e19\u0e2d\u0e40\u0e01\u0e2d\u0e23\u0e35\u0e40\u0e0b\u0e34\u0e21\u0e1a\u0e35\u0e25\u0e31\u0e19","name:ru":"\u041d\u0435\u0433\u0440\u0438-\u0421\u0435\u043c\u0431\u0438\u043b\u0430\u043d","name:ta":"\u0ba8\u0bc6\u0b95\u0bbf\u0bb0\u0bbf \u0b9a\u0bc6\u0bae\u0bcd\u0baa\u0bbf\u0bb2\u0bbe\u0ba9\u0bcd","id":4556962889,"population":1098400,"kind":"region","name":"Negeri Sembilan","kind_detail":"state","min_zoom":4.0,"source":"openstreetmap.org","name:zh":"\u68ee\u7f8e\u5170\u5dde"},"coordinates":[2633,86]},{"type":"Point","properties":{"kind":"region","name:short":"F","name":"Federal Territory of Putrajaya","name:ms":"Wilayah Persekutuan Putrajaya","name:hi":"\u092a\u0941\u0924\u094d\u0930\u091c\u092f","name:ko":"\ud478\ud2b8\ub77c\uc790\uc57c","kind_detail":"state","source":"openstreetmap.org","min_zoom":4.0,"population":88300,"name:ru":"\u041f\u0443\u0442\u0440\u0430\u0434\u0436\u0430\u044f","name:ta":"\u0baa\u0bc1\u0ba4\u0bcd\u0bb0\u0bbe\u0b9c\u0bbe\u0baf\u0bbe","name:zh":"\u5e03\u57ce\u8054\u90a6\u76f4\u8f96\u533a","id":4534491713,"name:ja":"\u30d7\u30c8\u30e9\u30b8\u30e3\u30e4"},"coordinates":[1253,269]},{"type":"Point","properties":{"kind":"region","name":"Pahang","name:lt":"Pahangas","kind_detail":"state","source":"openstreetmap.org","min_zoom":4.0,"name:zh":"\u5f6d\u4ea8\u5dde","id":3222282161},"coordinates":[3895,2383]},{"type":"Point","properties":{"kind":"region","name":"Selangor","name:lt":"Selangoras","kind_detail":"state","source":"openstreetmap.org","min_zoom":4.0,"name:zh":"\u96ea\u5170\u83aa\u5dde","id":3665372243,"name:ja":"\u30bb\u30e9\u30f3\u30b4\u30fc\u30eb"},"coordinates":[158,1158]},{"type":"Point","properties":{"source":"naturalearthdata.com","kind":"locality","name":"Raub","population":40024,"min_zoom":7.0,"id":2712},"coordinates":[1725,2864]},{"type":"Point","properties":{"name:ps":"\u06a9\u0648\u0627\u0644\u0627\u0644\u0627\u0645\u067e\u0648\u0631","name:ka":"\u10d9\u10e3\u10d0\u10da\u10d0-\u10da\u10e3\u10db\u10de\u10e3\u10e0\u10d8","name:mr":"\u0915\u094d\u0935\u093e\u0932\u093e\u0932\u0902\u092a\u0942\u0930","name:ko":"\ucfe0\uc54c\ub77c\ub8f8\ud478\ub974","name:kn":"\u0c95\u0ccd\u0cb5\u0cbe\u0cb2 \u0cb2\u0cc1\u0c82\u0caa\u0cc1\u0cb0\u0ccd","name:ar":"\u0643\u0648\u0627\u0644\u0627\u0644\u0645\u0628\u0648\u0631","name:kk":"\u041a\u0443\u0430\u043b\u0430 \u041b\u0443\u043c\u043f\u0443\u0440","name:is":"K\u00faala L\u00famp\u00far","name:am":"\u12a9\u12cb\u120b \u1209\u121d\u1351\u122d","name:ml":"\u0d15\u0d4b\u0d32\u0d3e\u0d32\u0d2e\u0d4d\u0d2a\u0d42\u0d7c","name:os":"\u041a\u0443\u0430\u043b\u00e6-\u041b\u0443\u043c\u043f\u0443\u0440","name:ru":"\u041a\u0443\u0430\u043b\u0430-\u041b\u0443\u043c\u043f\u0443\u0440","name:ta":"\u0b95\u0bcb\u0bb2\u0bbe\u0bb2\u0bae\u0bcd\u0baa\u0bc2\u0bb0\u0bcd","id":1889910974,"name:mk":"\u041a\u0443\u0430\u043b\u0430 \u041b\u0443\u043c\u043f\u0443\u0440","name:fa":"\u06a9\u0648\u0627\u0644\u0627\u0644\u0627\u0645\u067e\u0648\u0631","name:mn":"\u041a\u0443\u0430\u043b\u0430 \u041b\u0443\u043c\u043f\u0443\u0440","name:lt":"Kvala Lump\u016bras","kind_detail":"city","source":"openstreetmap.org","name:zh-yue":"\u5409\u9686\u5761","name:zh":"\u5409\u9686\u5761","admin_level":"2","name:lv":"Kualalump\u016bra","name:ja":"\u30af\u30a2\u30e9\u30eb\u30f3\u30d7\u30fc\u30eb","short_name":"KL","name:hi":"\u0915\u0941\u0906 \u0932\u093e\u0932\u092e\u094d\u092a\u0941\u0930","name:my":"\u1000\u103d\u102c\u101c\u102c\u101c\u1019\u103a\u1015\u1030\u1019\u103c\u102d\u102f\u1037","name:he":"\u05e7\u05d5\u05d0\u05dc\u05d4 \u05dc\u05d5\u05de\u05e4\u05d5\u05e8","kind":"locality","name:ur":"\u06a9\u0648\u0627\u0644\u0627\u0644\u0645\u067e\u0648\u0631","name:bn":"\u0995\u09c1\u09af\u09bc\u09be\u09b2\u09be\u09b2\u09be\u09ae\u09aa\u09c1\u09b0","name:bo":"\u0f41\u0f63\u0f0b\u0f63\u0f74\u0f44\u0f0b\u0f55\u0f74\u0f0d","name:uk":"\u041a\u0443\u0430\u043b\u0430-\u041b\u0443\u043c\u043f\u0443\u0440","name:hy":"\u053f\u0578\u0582\u0561\u056c\u0561 \u053c\u0578\u0582\u0574\u057a\u0578\u0582\u0580","country_capital":true,"name:be":"\u041a\u0443\u0430\u043b\u0430-\u041b\u0443\u043c\u043f\u0443\u0440","name:ug":"\u0643\u06c7\u0626\u0627\u0644\u0627\u0644\u06c7\u0645\u067e\u06c7\u0631","name:bg":"\u041a\u0443\u0430\u043b\u0430 \u041b\u0443\u043c\u043f\u0443\u0440","name:sr":"\u041a\u0443\u0430\u043b\u0430 \u041b\u0443\u043c\u043f\u0443\u0440","population":1588750,"name:el":"\u039a\u03bf\u03c5\u03ac\u03bb\u03b1 \u039b\u03bf\u03c5\u03bc\u03c0\u03bf\u03cd\u03c1","name:eo":"Kuala-Lumpuro","name":"Kuala Lumpur","name:ht":"Kouala Loumpou","min_zoom":8.0,"name:th":"\u0e01\u0e31\u0e27\u0e25\u0e32\u0e25\u0e31\u0e21\u0e40\u0e1b\u0e2d\u0e23\u0e4c"},"coordinates":[1350,1002]},{"type":"Point","properties":{"kind":"locality","name":"Subang Jaya","kind_detail":"city","source":"openstreetmap.org","min_zoom":8.0,"population":948296,"name:zh":"\u68b3\u90a6\u518d\u4e5f","id":368878591,"name:ja":"\u30b9\u30d0\u30f3\u30fb\u30b8\u30e3\u30e4"},"coordinates":[977,716]},{"type":"Point","properties":{"name:he":"\u05e4\u05d5\u05d8\u05e8\u05d2'\u05d0\u05d9\u05d4","name:ja":"\u30d7\u30c8\u30e9\u30b8\u30e3\u30e4","name:hi":"\u092a\u0941\u0924\u094d\u0930\u091c\u092f","name:ko":"\ud478\ud2b8\ub77c\uc790\uc57c","name:ar":"\u0628\u0648\u062a\u0631\u0627\u062c\u0627\u064a","name:ur":"\u067e\u062a\u0631\u0627\u062c\u0627\u06cc\u0627","name:th":"\u0e1b\u0e39\u0e15\u0e23\u0e32\u0e08\u0e32\u0e22\u0e32","name:uk":"\u041f\u0443\u0442\u0440\u0430\u0434\u0436\u0430\u044f","name:ru":"\u041f\u0443\u0442\u0440\u0430\u0434\u0436\u0430\u044f","name:ta":"\u0baa\u0bc1\u0ba4\u0bcd\u0bb0\u0bbe\u0b9c\u0bbe\u0baf\u0bbe","id":2872238032,"population":883000,"name:el":"\u03a0\u03bf\u03c5\u03c4\u03c1\u03b1\u03c4\u03b6\u03ac\u03b3\u03b9\u03b1","kind":"locality","name":"Putrajaya","kind_detail":"city","min_zoom":8.0,"source":"openstreetmap.org","name:zh":"\u5e03\u57ce"},"coordinates":[1238,279]},{"type":"Point","properties":{"kind":"locality","name":"Klang","kind_detail":"city","source":"openstreetmap.org","min_zoom":8.0,"name:uk":"\u041a\u043b\u0430\u043d\u0433","name:ru":"\u041a\u043b\u0430\u043d\u0433","population":842146,"name:zh":"\u5df4\u751f","id":207539494,"name:ja":"\u30af\u30e9\u30f3"},"coordinates":[580,688]},{"type":"Point","properties":{"kind":"locality","name":"Shah Alam","name:ko":"\uc0e4\uc54c\ub78c","kind_detail":"city","source":"openstreetmap.org","min_zoom":8.0,"alt_name:zh":"\u6c99\u4e9a\u5357","population":723890,"name:ta":"\u0bb7\u0bbe \u0b86\u0bb2\u0bbe\u0bae\u0bcd","name:zh":"\u838e\u4e9a\u5357","id":142457861,"name:ja":"\u30b7\u30e3\u30fc\u30fb\u30a2\u30e9\u30e0"},"coordinates":[782,751]},{"type":"Point","properties":{"kind":"locality","name":"Petaling Jaya","kind_detail":"city","source":"openstreetmap.org","min_zoom":8.0,"population":638516,"name:zh":"\u516b\u6253\u7075\u518d\u4e5f","id":254073469,"name:ja":"\u30d7\u30bf\u30ea\u30f3\u30fb\u30b8\u30e3\u30e4"},"coordinates":[1144,859]},{"type":"Point","properties":{"kind":"locality","name":"Selayang","kind_detail":"town","source":"openstreetmap.org","min_zoom":8.0,"population":542409,"name:zh":"\u58eb\u62c9\u592e","id":275083336,"name:ja":"\u30b9\u30e9\u30e4\u30f3"},"coordinates":[1178,1306]},{"type":"Point","properties":{"kind":"locality","name":"Puchong","kind_detail":"town","source":"openstreetmap.org","min_zoom":8.0,"name:zh":"\u84b2\u79cd","id":254072844,"population":400000},"coordinates":[1060,625]},{"type":"Point","properties":{"kind":"locality","name":"Ampang","kind_detail":"city","source":"openstreetmap.org","min_zoom":8.0,"old_name":"Ampang Jaya","population":126285,"name:zh":"\u5b89\u90a6","id":254073391,"name:ja":"\u30a2\u30f3\u30d1\u30f3"},"coordinates":[1509,988]},{"type":"Point","properties":{"kind":"locality","name":"Jerantut","kind_detail":"town","source":"openstreetmap.org","min_zoom":8.0,"name:zh":"\u800c\u8fde\u7a81","id":254072923,"population":120000},"coordinates":[3248,3282]},{"type":"Point","properties":{"kind":"locality","name":"Banting","kind_detail":"town","source":"openstreetmap.org","min_zoom":8.0,"name:zh":"\u4e07\u6d25","id":197013994,"population":93497},"coordinates":[727,17]},{"type":"Point","properties":{"kind":"locality","name":"Raub","kind_detail":"town","source":"openstreetmap.org","min_zoom":8.0,"name:zh":"\u52b3\u52ff","id":254074208,"population":88600},"coordinates":[1758,2860]},{"type":"Point","properties":{"kind":"locality","name":"Tanjung Malim","kind_detail":"town","source":"openstreetmap.org","min_zoom":8.0,"name:ta":"\u0ba4\u0b9e\u0bcd\u0b9a\u0bc7\u0bbe\u0b99\u0bcd \u0bae\u0bbe\u0bb2\u0bbf\u0bae\u0bcd","name:zh":"\u4e39\u7ed2\u9a6c\u6797","id":254073489,"population":60971},"coordinates":[786,2582]},{"type":"Point","properties":{"kind":"locality","name":"Semenyih","kind_detail":"town","source":"openstreetmap.org","min_zoom":8.0,"population":45000,"name:zh":"\u58eb\u6bdb\u6708","id":254073128,"name:ja":"\u30b9\u30e1\u30cb"},"coordinates":[1726,400]},{"type":"Point","properties":{"kind":"locality","name":"Nilai","kind_detail":"city","source":"openstreetmap.org","min_zoom":8.0,"name:zh":"\u6c5d\u6765","id":560652347,"population":38612},"coordinates":[1589,16]},{"type":"Point","properties":{"kind":"locality","name":"Tapah","kind_detail":"town","source":"openstreetmap.org","min_zoom":8.0,"name:zh":"\u6253\u5df4","id":254073063,"population":27863},"coordinates":[29,4050]},{"type":"Point","properties":{"kind":"locality","name":"Kuala Kubu Bharu","kind_detail":"town","source":"openstreetmap.org","min_zoom":8.0,"name:zh":"\u65b0\u53e4\u6bdb","id":254073428,"population":22470},"coordinates":[1193,2197]},{"type":"Point","properties":{"kind":"locality","name":"Kuala Lipis","kind_detail":"town","source":"openstreetmap.org","min_zoom":8.0,"name:ru":"\u041a\u0443\u0430\u043b\u0430-\u041b\u0438\u043f\u0438\u0441","name:zh":"\u7acb\u5351","id":254073036,"population":20000},"coordinates":[2343,4014]},{"type":"Point","properties":{"kind":"locality","name":"Mantin","kind_detail":"town","source":"openstreetmap.org","min_zoom":8.0,"name:zh":"\u6587\u4e01","id":254073259,"population":15000},"coordinates":[1875,42]}]},"transit":{"type":"GeometryCollection","geometries":[{"type":"MultiLineString","properties":{"kind":"train","name":"Port Klang Line","sort_rank":275,"name:zh":"\u5df4\u751f\u6e2f\u7ebf","colour":"Red","source":"openstreetmap.org","min_zoom":6.0,"network":"KTM Komuter","operator":"KTMB","ref":"2","osm_relation":true,"colour_name":"red"},"arcs":[[8],[9],[10],[11],[12],[13],[14],[15],[16],[17],[18],[19],[20],[21],[22],[23]]}]},"pois":{"type":"GeometryCollection","geometries":[{"type":"Point","properties":{"kind":"protected_area","name:en":"Bukit Sungai Putih Forest Reserve","name":"Hutan Simpan Bukit Sungai Putih","area":980334000,"source":"openstreetmap.org","min_zoom":7.0,"tier":2,"name:zh":"\u767d\u6cb3\u5c71\u68ee\u6797\u4fdd\u7559\u5730","id":-4462678,"osm_relation":true},"coordinates":[2127,794]},{"type":"Point","properties":{"source":"openstreetmap.org","kind":"protected_area","name":"Bukit Sungai Putih Forest Reserve","area":20936100,"tier":2,"min_zoom":8.0,"id":130926979},"coordinates":[1583,899]}]},"boundaries":{"type":"GeometryCollection","geometries":[{"type":"LineString","properties":{"name:right:ja":"\u30d1\u30cf\u30f3","name:left:ko":"\ud398\ub77d \uc8fc","name:left:ja":"\u30da\u30e9","short_name:left":"PRK","id:right":-4444595,"name:left:ms":"Perak Darul Ridzuan","min_zoom":8.0,"name:right:th":"\u0e23\u0e31\u0e10\u0e1b\u0e30\u0e2b\u0e31\u0e07","name:right:ms":"Negeri Pahang","id":-4445076,"osm_relation":true,"name:right":"Pahang","name:left:short":"A","kind":"region","name:left:en":"Perak","sort_rank":256,"kind_detail":"4","name":"Perak \/ \u06a8\u064a\u0631\u0642 - Pahang","source":"openstreetmap.org","name:left:zh":"\u9739\u96f3\u5dde","id:left":-4445076,"name:right:zh":"\u5f6d\u4ea8\u5dde","name:left":"Perak \/ \u06a8\u064a\u0631\u0642"},"arcs":[0]},{"type":"MultiLineString","properties":{"name:right:ja":"\u30bb\u30e9\u30f3\u30b4\u30fc\u30eb","name:left:ko":"\ud398\ub77d \uc8fc","name:left:ja":"\u30da\u30e9","kind":"region","id:right":-2932285,"name:left:ms":"Perak Darul Ridzuan","min_zoom":8.0,"id":-4445076,"osm_relation":true,"name:left:en":"Perak","name:left:short":"A","short_name:left":"PRK","name":"Perak \/ \u06a8\u064a\u0631\u0642 - Selangor","sort_rank":256,"kind_detail":"4","source":"openstreetmap.org","name:left:zh":"\u9739\u96f3\u5dde","id:left":-4445076,"name:right:zh":"\u96ea\u5170\u83aa\u5dde","name:right":"Selangor","name:left":"Perak \/ \u06a8\u064a\u0631\u0642"},"arcs":[[1],[2]]},{"type":"LineString","properties":{"name:right:ja":"\u30cc\u30b0\u30ea\u30fb\u30b9\u30f3\u30d3\u30e9\u30f3","name:left:ja":"\u30d1\u30cf\u30f3","id:right":-2939674,"name:left:th":"\u0e23\u0e31\u0e10\u0e1b\u0e30\u0e2b\u0e31\u0e07","min_zoom":8.0,"alt_name:right:en":"Negri Sembilan","id":-4444595,"osm_relation":true,"name:right":"Negeri Sembilan","name:left:ms":"Negeri Pahang","kind":"region","name":"Pahang - Negeri Sembilan","sort_rank":256,"kind_detail":"4","source":"openstreetmap.org","name:left:zh":"\u5f6d\u4ea8\u5dde","id:left":-4444595,"name:right:zh":"\u68ee\u7f8e\u5170\u5dde","name:left":"Pahang"},"arcs":[3]},{"type":"LineString","properties":{"name:right:ja":"\u30bb\u30e9\u30f3\u30b4\u30fc\u30eb","name:left:ja":"\u30d1\u30cf\u30f3","id:right":-2932285,"name:left:th":"\u0e23\u0e31\u0e10\u0e1b\u0e30\u0e2b\u0e31\u0e07","min_zoom":8.0,"id":-4444595,"osm_relation":true,"name:right":"Selangor","name:left:ms":"Negeri Pahang","kind":"region","name":"Pahang - Selangor","sort_rank":256,"kind_detail":"4","source":"openstreetmap.org","name:left:zh":"\u5f6d\u4ea8\u5dde","id:left":-4444595,"name:right:zh":"\u96ea\u5170\u83aa\u5dde","name:left":"Pahang"},"arcs":[4]},{"type":"LineString","properties":{"name:right:ja":"\u30bb\u30e9\u30f3\u30b4\u30fc\u30eb","alt_name:left:en":"Negri Sembilan","name:left:ja":"\u30cc\u30b0\u30ea\u30fb\u30b9\u30f3\u30d3\u30e9\u30f3","id:right":-2932285,"min_zoom":8.0,"id":-2939674,"osm_relation":true,"name:right":"Selangor","kind":"region","name":"Negeri Sembilan - Selangor","sort_rank":256,"kind_detail":"4","source":"openstreetmap.org","name:left:zh":"\u68ee\u7f8e\u5170\u5dde","id:left":-2939674,"name:right:zh":"\u96ea\u5170\u83aa\u5dde","name:left":"Negeri Sembilan"},"arcs":[5]},{"type":"MultiLineString","properties":{"kind":"region","name":"Selangor","sort_rank":256,"kind_detail":"4","source":"openstreetmap.org","min_zoom":8.0,"name:zh":"\u96ea\u5170\u83aa\u5dde","id":-2932285,"osm_relation":true,"name:ja":"\u30bb\u30e9\u30f3\u30b4\u30fc\u30eb"},"arcs":[[6],[7]]}]},"roads":{"type":"GeometryCollection","geometries":[{"type":"LineString","properties":{"kind":"highway","name:en":"Damansara-Puchong Expressway","short_name":"LDP","sort_rank":383,"kind_detail":"motorway","source":"openstreetmap.org","min_zoom":8.0,"landuse_kind":"urban_area","ref":"E11","name:zh":"\u767d\u6c99\u7f57\uff0d\u84b2\u79cd\u5927\u9053","id":302861780},"arcs":[30]},{"type":"LineString","properties":{"source":"openstreetmap.org","kind":"major_road","sort_rank":380,"kind_detail":"primary","name:zh":"\u4e91\u9876\u5409\u51b7\u8def","min_zoom":8.0,"id":31229562},"arcs":[31]},{"type":"MultiLineString","properties":{"kind":"highway","ref":"E8","network":"AsianHighway","sort_rank":383,"landuse_kind":"protected_area","source":"openstreetmap.org","min_zoom":8.0,"all_networks":["AsianHighway",null],"kind_detail":"motorway","shield_text":"141","name:zh":"\u52a0\u53fb\u5927\u9053","all_shield_texts":["141","8"]},"arcs":[[32],[33],[34],[35]]},{"type":"MultiLineString","properties":{"source":"openstreetmap.org","kind":"highway","name:zh":"\u52a0\u5f71--\u8299\u84c9\u9ad8\u901f\u516c\u8def","sort_rank":383,"kind_detail":"motorway","ref":"E21","min_zoom":8.0},"arcs":[[36],[37]]},{"type":"LineString","properties":{"bus_network":null,"sort_rank":381,"landuse_kind":"urban_area","kind":"major_road","source":"openstreetmap.org","min_zoom":8.0,"bus_shield_text":"T608","kind_detail":"trunk","ref":"15"},"arcs":[38]},{"type":"LineString","properties":{"kind":"major_road","sort_rank":380,"kind_detail":"primary","bus_network":null,"source":"openstreetmap.org","min_zoom":8.0,"bus_shield_text":"U64","landuse_kind":"urban_area","ref":"MBSA 15","id":5028958},"arcs":[39]},{"type":"LineString","properties":{"kind":"highway","name:en":"Sprint Expressway (Kerinchi Link)","ref":"E23","sort_rank":383,"kind_detail":"motorway","source":"openstreetmap.org","min_zoom":8.0,"landuse_kind":"urban_area","name:zh":"3.154492 101.64558","id":27541803},"arcs":[40]},{"type":"MultiLineString","properties":{"kind":"major_road","name:zh":"\u5e03\u7279\u62c9\u67cf\u8fc8\u8def","sort_rank":380,"kind_detail":"primary","source":"openstreetmap.org","min_zoom":8.0,"landuse_kind":"urban_area","ref":"3215"},"arcs":[[41],[42]]},{"type":"MultiLineString","properties":{"source":"openstreetmap.org","kind":"major_road","landuse_kind":"urban_area","sort_rank":380,"kind_detail":"primary","ref":"B23","min_zoom":8.0},"arcs":[[43],[44]]},{"type":"LineString","properties":{"bus_network":null,"name:en":"Middle Ring Road 2","network":null,"short_name":"MRR2","sort_rank":381,"kind_detail":"trunk","kind":"major_road","source":"openstreetmap.org","min_zoom":8.0,"bus_shield_text":"147","shield_text":"28","landuse_kind":"urban_area","ref":"28"},"arcs":[45]},{"type":"LineString","properties":{"kind":"major_road","sort_rank":380,"kind_detail":"primary","is_bicycle_related":true,"source":"openstreetmap.org","min_zoom":8.0,"old_name":"Laluan B49","ref":"B49"},"arcs":[46]},{"type":"MultiLineString","properties":{"kind":"major_road","name:en":"Middle Ring Road 2","short_name":"JLT II;MRR II;JLT 2;MRR 2","sort_rank":381,"kind_detail":"trunk","source":"openstreetmap.org","min_zoom":8.0,"ref":"28","osm_relation":true},"arcs":[[47],[48]]},{"type":"MultiLineString","properties":{"source":"openstreetmap.org","kind":"major_road","landuse_kind":"urban_area","sort_rank":380,"kind_detail":"primary","ref":"MBSA 15","min_zoom":8.0},"arcs":[[49],[50]]},{"type":"MultiLineString","properties":{"kind":"major_road","name:en":"Pulau Indah Expressway","sort_rank":380,"kind_detail":"primary","source":"openstreetmap.org","min_zoom":8.0,"landuse_kind":"urban_area","ref":"181"},"arcs":[[51],[52],[53],[54]]},{"type":"LineString","properties":{"kind":"highway","name:en":"New Klang Valley Expressway","short_name":"NKVE","sort_rank":383,"kind_detail":"motorway","source":"openstreetmap.org","min_zoom":8.0,"landuse_kind":"urban_area","ref":"E1","id":157350034},"arcs":[55]},{"type":"MultiLineString","properties":{"source":"openstreetmap.org","kind":"major_road","name:en":"Northport-Westport Link","sort_rank":380,"kind_detail":"primary","ref":"180","min_zoom":8.0},"arcs":[[56],[57],[58],[59],[60],[61],[62],[63]]},{"type":"MultiLineString","properties":{"source":"openstreetmap.org","kind":"highway","landuse_kind":"urban_area","sort_rank":383,"kind_detail":"motorway","ref":"E9","min_zoom":8.0},"arcs":[[64],[65],[66],[67],[68],[69],[70],[71],[72],[73],[74],[75],[76]]},{"type":"LineString","properties":{"kind":"major_road","sort_rank":380,"kind_detail":"primary","is_bicycle_related":true,"source":"openstreetmap.org","min_zoom":8.0,"ref":"B49","id":24420806},"arcs":[77]},{"type":"MultiLineString","properties":{"source":"openstreetmap.org","kind":"major_road","sort_rank":380,"kind_detail":"primary","ref":"B42","min_zoom":8.0},"arcs":[[78],[79]]},{"type":"MultiLineString","properties":{"source":"openstreetmap.org","kind":"major_road","sort_rank":380,"kind_detail":"primary","ref":"1","min_zoom":8.0},"arcs":[[80],[81],[82],[83],[84],[85],[86],[87],[88],[89],[90],[91]]},{"type":"MultiLineString","properties":{"source":"openstreetmap.org","kind":"major_road","sort_rank":380,"kind_detail":"primary","ref":"B1","min_zoom":8.0},"arcs":[[92],[93],[94]]},{"type":"MultiLineString","properties":{"source":"openstreetmap.org","kind":"major_road","ref":"87","sort_rank":380,"kind_detail":"primary","is_bicycle_related":true,"min_zoom":8.0},"arcs":[[95],[96],[97],[98],[99],[100]]},{"type":"MultiLineString","properties":{"kind":"major_road","sort_rank":380,"kind_detail":"primary","source":"openstreetmap.org","min_zoom":8.0,"old_name":"Laluan B49","landuse_kind":"urban_area","ref":"B49"},"arcs":[[101],[102]]},{"type":"LineString","properties":{"kind":"highway","sort_rank":383,"landuse_kind":"urban_area","source":"openstreetmap.org","min_zoom":8.0,"kind_detail":"motorway","ref":"E6","id":4955062},"arcs":[103]},{"type":"MultiLineString","properties":{"kind":"highway","name:en":"North\u2013South Expressway Central Link","network":"AsianHighway","sort_rank":383,"kind_detail":"motorway","source":"openstreetmap.org","min_zoom":8.0,"all_networks":["AsianHighway"],"shield_text":"2","ref":"E6","all_shield_texts":["2"]},"arcs":[[104],[105]]},{"type":"MultiLineString","properties":{"source":"openstreetmap.org","kind":"highway","sort_rank":383,"kind_detail":"motorway","ref":"E13","min_zoom":8.0},"arcs":[[106],[107]]},{"type":"MultiLineString","properties":{"kind":"major_road","name:en":"Northport-Westport Link","sort_rank":380,"kind_detail":"primary","source":"openstreetmap.org","min_zoom":8.0,"landuse_kind":"urban_area","ref":"180"},"arcs":[[108],[109],[110],[111]]},{"type":"MultiLineString","properties":{"source":"openstreetmap.org","kind":"major_road","landuse_kind":"urban_area","sort_rank":380,"kind_detail":"primary","ref":"B16","min_zoom":8.0},"arcs":[[112],[113]]},{"type":"MultiLineString","properties":{"source":"openstreetmap.org","kind":"highway","landuse_kind":"urban_area","sort_rank":383,"kind_detail":"motorway","ref":"E33","min_zoom":8.0},"arcs":[[114],[115],[116],[117],[118],[119],[120],[121],[122],[123],[124]]},{"type":"LineString","properties":{"kind":"highway","name:en":"North\u2013South Expressway Central Link","sort_rank":383,"kind_detail":"motorway","source":"openstreetmap.org","min_zoom":8.0,"landuse_kind":"urban_area","ref":"E6"},"arcs":[125]},{"type":"MultiLineString","properties":{"bus_network":null,"sort_rank":380,"kind_detail":"primary","kind":"major_road","source":"openstreetmap.org","min_zoom":8.0,"bus_shield_text":"U81","ref":"15"},"arcs":[[126],[127]]},{"type":"MultiLineString","properties":{"bus_network":"Area 6","sort_rank":380,"kind_detail":"primary","kind":"major_road","source":"openstreetmap.org","min_zoom":8.0,"bus_shield_text":"T527","landuse_kind":"urban_area"},"arcs":[[128],[129],[130]]},{"type":"MultiLineString","properties":{"kind":"highway","name:short":"SKVE","short_name":"SKVE","sort_rank":383,"kind_detail":"motorway","source":"openstreetmap.org","min_zoom":8.0,"name:en":"South Klang Valley Expressway","ref":"E26"},"arcs":[[131],[132]]},{"type":"LineString","properties":{"kind":"major_road","name:en":"Federal Highway","network":null,"sort_rank":381,"kind_detail":"trunk","bus_network":"PJ02 Taman Jaya - SS2 - PPUM","source":"openstreetmap.org","min_zoom":8.0,"bus_shield_text":"PJ02","shield_text":"2","landuse_kind":"urban_area","ref":"2","id":236394291},"arcs":[133]},{"type":"MultiLineString","properties":{"sort_rank":380,"kind_detail":"primary","min_zoom":8.0,"kind":"major_road","source":"openstreetmap.org"},"arcs":[[134],[135],[136],[137],[138],[139],[140],[141],[142],[143],[144],[145],[146],[147],[148],[149],[150],[151],[152],[153],[154],[155],[156],[157],[158],[159],[160],[161],[162],[163],[164],[165],[166],[167],[168],[169],[170],[171],[172],[173],[174],[175],[176],[177],[178],[179],[180],[181],[182],[183],[184],[185],[186],[187],[188],[189],[190],[191],[192],[193],[194],[195],[196],[197],[198],[199],[200],[201],[202],[203],[204],[205],[206],[207],[208],[209],[210],[211],[212],[213],[214],[215],[216],[217],[218],[219],[220],[221],[222],[223],[224],[225],[226],[227],[228],[229],[230],[231],[232],[233],[234],[235],[236],[237],[238],[239],[240],[241],[242],[243],[244],[245],[246],[247],[248],[249],[250],[251],[252],[253],[254],[255],[256],[257],[258],[259],[260],[261],[262],[263],[264],[265],[266],[267],[268],[269],[270],[271],[272],[273],[274],[275],[276],[277],[278],[279],[280],[281],[282],[283],[284],[285],[286],[287],[288],[289],[290],[291],[292],[293],[294],[295],[296],[297],[298],[299],[300],[301],[302],[303],[304],[305],[306],[307],[308],[309],[310],[311],[312],[313],[314],[315],[316],[317],[318],[319],[320],[321],[322],[323],[324],[325],[326],[327],[328],[329],[330],[331],[332],[333],[334],[335],[336],[337],[338],[339],[340],[341],[342],[343],[344],[345],[346],[347],[348],[349],[350],[351],[352],[353],[354],[355],[356],[357],[358],[359],[360],[361],[362],[363],[364],[365],[366],[367],[368],[369],[370],[371],[372],[373],[374],[375],[376],[377],[378],[379],[380],[381],[382],[383],[384],[385],[386],[387],[388],[389],[390],[391],[392],[393],[394],[395],[396],[397],[398],[399],[400],[401],[402],[403],[404],[405],[406],[407],[408],[409],[410],[411],[412],[413],[414],[415],[416],[417],[418],[419],[420],[421],[422],[423],[424],[425],[426],[427],[428],[429],[430],[431],[432],[433],[434],[435],[436],[437],[438],[439],[440],[441],[442],[443],[444],[445],[446],[447],[448],[449],[450],[451],[452],[453],[454],[455],[456],[457],[458],[459],[460],[461],[462],[463],[464],[465],[466],[467],[468],[469],[470],[471],[472],[473],[474],[475],[476],[477],[478],[479],[480],[481],[482],[483],[484],[485],[486],[487],[488],[489],[490],[491],[492],[493],[494],[495],[496],[497],[498],[499],[500],[501],[502],[503],[504],[505],[506],[507],[508],[509],[510],[511],[512],[513],[514],[515],[516]]},{"type":"MultiLineString","properties":{"bus_network":null,"name:en":"Federal Highway","network":null,"sort_rank":381,"landuse_kind":"urban_area","kind":"major_road","source":"openstreetmap.org","min_zoom":8.0,"bus_shield_text":"U81","shield_text":"2","kind_detail":"trunk","ref":"2"},"arcs":[[517],[518],[519]]},{"type":"MultiLineString","properties":{"kind":"highway","name:en":"Kajang Dispersal Link Expressway","network":null,"short_name":"SILK","sort_rank":383,"kind_detail":"motorway","source":"openstreetmap.org","min_zoom":8.0,"all_networks":[null],"shield_text":"18","ref":"E18","all_shield_texts":["18"]},"arcs":[[520],[521]]},{"type":"MultiLineString","properties":{"source":"openstreetmap.org","kind":"major_road","sort_rank":380,"kind_detail":"primary","ref":"3217","min_zoom":8.0},"arcs":[[522],[523],[524],[525],[526]]},{"type":"MultiLineString","properties":{"source":"openstreetmap.org","kind":"major_road","sort_rank":380,"kind_detail":"primary","ref":"Exit 8","min_zoom":8.0},"arcs":[[527],[528]]},{"type":"MultiLineString","properties":{"kind":"major_road","network":null,"sort_rank":380,"kind_detail":"primary","source":"openstreetmap.org","min_zoom":8.0,"landuse_kind":"urban_area","shield_text":"2","ref":"2"},"arcs":[[529],[530],[531]]},{"type":"LineString","properties":{"kind":"major_road","sort_rank":380,"kind_detail":"primary","bus_network":"Area 6","source":"openstreetmap.org","min_zoom":8.0,"bus_shield_text":"T527","landuse_kind":"urban_area","ref":"MBSA 15","id":5028965},"arcs":[532]},{"type":"MultiLineString","properties":{"source":"openstreetmap.org","kind":"major_road","landuse_kind":"urban_area","sort_rank":380,"kind_detail":"primary","is_bicycle_related":true,"min_zoom":8.0},"arcs":[[533],[534]]},{"type":"LineString","properties":{"source":"openstreetmap.org","kind":"major_road","name:en":"Gohtong Jaya Roundabout","sort_rank":380,"kind_detail":"primary","min_zoom":8.0,"id":35358270},"arcs":[535]},{"type":"MultiLineString","properties":{"source":"openstreetmap.org","kind":"major_road","landuse_kind":"urban_area","sort_rank":380,"kind_detail":"primary","ref":"3214","min_zoom":8.0},"arcs":[[536],[537],[538],[539],[540],[541],[542],[543],[544]]},{"type":"LineString","properties":{"kind":"major_road","sort_rank":380,"landuse_kind":"urban_area","source":"openstreetmap.org","min_zoom":8.0,"kind_detail":"primary","name:zh":"\u8549\u8d56\u8def","id":22583051},"arcs":[545]},{"type":"MultiLineString","properties":{"kind":"major_road","sort_rank":380,"landuse_kind":"urban_area","source":"openstreetmap.org","min_zoom":8.0,"kind_detail":"primary","name:zh":"\u4e91\u9876\u5409\u51b7\u8def","id":31229562},"arcs":[[546],[547]]},{"type":"MultiLineString","properties":{"source":"openstreetmap.org","kind":"highway","name:en":"KLIA Expressway","sort_rank":383,"kind_detail":"motorway","ref":"E6; 26","min_zoom":8.0},"arcs":[[548],[549],[550],[551],[552],[553],[554],[555]]},{"type":"MultiLineString","properties":{"kind":"highway","name:en":"Guthrie Corridor Expressway","network":null,"sort_rank":383,"kind_detail":"motorway","source":"openstreetmap.org","min_zoom":8.0,"all_networks":[null],"shield_text":"35","ref":"E35","all_shield_texts":["35"]},"arcs":[[556],[557],[558],[559],[560],[561]]},{"type":"MultiLineString","properties":{"kind":"major_road","name:en":"Old Klang Road","sort_rank":380,"kind_detail":"primary","source":"openstreetmap.org","min_zoom":8.0,"old_name":"Jalan Kelang Lama","landuse_kind":"urban_area","ref":"B14"},"arcs":[[562],[563],[564]]},{"type":"LineString","properties":{"source":"openstreetmap.org","kind":"major_road","ref":"B33","sort_rank":380,"kind_detail":"primary","is_bicycle_related":true,"min_zoom":8.0},"arcs":[565]},{"type":"MultiLineString","properties":{"source":"openstreetmap.org","kind":"major_road","landuse_kind":"urban_area","sort_rank":380,"kind_detail":"primary","ref":"MBSA 7","min_zoom":8.0},"arcs":[[566],[567]]},{"type":"LineString","properties":{"source":"openstreetmap.org","kind":"highway","sort_rank":383,"kind_detail":"motorway","ref":"E25;25","min_zoom":8.0},"arcs":[568]},{"type":"LineString","properties":{"source":"openstreetmap.org","kind":"major_road","kind_detail":"trunk","sort_rank":381,"landuse_kind":"urban_area","ref":"3217","min_zoom":8.0},"arcs":[569]},{"type":"MultiLineString","properties":{"source":"openstreetmap.org","kind":"major_road","landuse_kind":"urban_area","sort_rank":380,"kind_detail":"primary","ref":"3215","min_zoom":8.0},"arcs":[[570],[571],[572],[573],[574],[575],[576],[577],[578],[579]]},{"type":"MultiLineString","properties":{"kind":"highway","name:en":"Damansara-Puchong Expressway","ref":"E11","sort_rank":383,"kind_detail":"motorway","source":"openstreetmap.org","min_zoom":8.0,"landuse_kind":"urban_area","name:zh":"\u767d\u6c99\u7f57-\u84b2\u79cd\u5927\u9053"},"arcs":[[580],[581]]},{"type":"MultiLineString","properties":{"kind":"highway","name:en":"North\u2013South Expressway","network":"AsianHighway","ref":"E2","sort_rank":383,"kind_detail":"motorway","source":"openstreetmap.org","min_zoom":8.0,"all_networks":["AsianHighway"],"shield_text":"2","name:zh":"\u5357\u5317\u5927\u9053","all_shield_texts":["2"]},"arcs":[[582],[583]]},{"type":"MultiLineString","properties":{"kind":"highway","name:en":"North\u2013South Expressway","network":"AsianHighway","ref":"E1","sort_rank":383,"kind_detail":"motorway","source":"openstreetmap.org","min_zoom":8.0,"all_networks":["AsianHighway"],"shield_text":"2","name:zh":"\u5357\u5317\u5927\u9053","all_shield_texts":["2"]},"arcs":[[584],[585],[586],[587],[588],[589],[590],[591],[592],[593],[594],[595],[596],[597],[598],[599],[600],[601],[602],[603]]},{"type":"LineString","properties":{"kind":"highway","name:en":"Shah Alam Expressway","sort_rank":383,"kind_detail":"motorway","source":"openstreetmap.org","min_zoom":8.0,"landuse_kind":"urban_area","ref":"E5"},"arcs":[604]},{"type":"MultiLineString","properties":{"kind":"highway","name:en":"Kuala Lumpur\u2013Seremban Expressway","sort_rank":383,"kind_detail":"motorway","source":"openstreetmap.org","min_zoom":8.0,"landuse_kind":"urban_area","ref":"E37"},"arcs":[[605],[606]]},{"type":"MultiLineString","properties":{"kind":"major_road","name:en":"Federal Highway 2","network":null,"sort_rank":381,"landuse_kind":"urban_area","source":"openstreetmap.org","min_zoom":8.0,"kind_detail":"trunk","shield_text":"2","name:zh":"\u8054\u90a6\u516c\u8def2\u53f7","ref":"2"},"arcs":[[607],[608]]},{"type":"MultiLineString","properties":{"kind":"highway","name:en":"Sprint Expressway (Penchala Link)","sort_rank":383,"kind_detail":"motorway","source":"openstreetmap.org","min_zoom":8.0,"landuse_kind":"urban_area","name:zh":"\u897f\u90e8\u758f\u6563\u5927\u9053\uff08\u672c\u67e5\u62c9\u7ebf\u8def\uff09","ref":"E23"},"arcs":[[609],[610]]},{"type":"MultiLineString","properties":{"source":"openstreetmap.org","kind":"major_road","sort_rank":380,"kind_detail":"primary","ref":"B148","min_zoom":8.0},"arcs":[[611],[612],[613],[614],[615]]},{"type":"MultiLineString","properties":{"kind":"highway","name:en":"Sprint Expressway (Kerinchi Link)","sort_rank":383,"kind_detail":"motorway","source":"openstreetmap.org","min_zoom":8.0,"landuse_kind":"urban_area","ref":"E23"},"arcs":[[616],[617]]},{"type":"MultiLineString","properties":{"kind":"highway","name:en":"Sprint Expressway (Damansara Link)","sort_rank":383,"kind_detail":"motorway","source":"openstreetmap.org","min_zoom":8.0,"landuse_kind":"urban_area","ref":"E23"},"arcs":[[618],[619]]},{"type":"MultiLineString","properties":{"source":"openstreetmap.org","kind":"highway","name:en":"North\u2013South Expressway Central Link (Putrajaya Link)","sort_rank":383,"kind_detail":"motorway","ref":"E6","min_zoom":8.0},"arcs":[[620],[621],[622],[623],[624],[625],[626]]},{"type":"MultiLineString","properties":{"kind":"highway","name:en":"North\u2013South Expressway","network":"AsianHighway","ref":"E1","sort_rank":383,"landuse_kind":"urban_area","source":"openstreetmap.org","min_zoom":8.0,"all_networks":["AsianHighway"],"kind_detail":"motorway","shield_text":"2","name:zh":"\u5357\u5317\u5927\u9053","all_shield_texts":["2"]},"arcs":[[627],[628],[629],[630],[631],[632]]},{"type":"MultiLineString","properties":{"kind":"major_road","sort_rank":380,"kind_detail":"primary","source":"openstreetmap.org","min_zoom":8.0,"old_name":"Jalan Duta","landuse_kind":"urban_area","name:zh":"\u5927\u4f7f\u8def"},"arcs":[[633],[634]]},{"type":"LineString","properties":{"source":"openstreetmap.org","kind":"major_road","name:en":"Federal Route 59","sort_rank":380,"kind_detail":"primary","ref":"59","min_zoom":8.0},"arcs":[635]},{"type":"MultiLineString","properties":{"bus_network":"PJ02 Taman Jaya - SS2 - PPUM","sort_rank":380,"kind_detail":"primary","kind":"major_road","source":"openstreetmap.org","min_zoom":8.0,"bus_shield_text":"PJ02","landuse_kind":"urban_area"},"arcs":[[636],[637],[638],[639],[640],[641],[642],[643],[644],[645],[646],[647],[648]]},{"type":"MultiLineString","properties":{"source":"openstreetmap.org","kind":"major_road","name:en":"Northport Highway","sort_rank":380,"kind_detail":"primary","ref":"103","min_zoom":8.0},"arcs":[[649],[650],[651],[652],[653]]},{"type":"LineString","properties":{"bus_network":null,"sort_rank":381,"kind_detail":"trunk","kind":"major_road","source":"openstreetmap.org","min_zoom":8.0,"bus_shield_text":"147","ref":"54"},"arcs":[654]},{"type":"MultiLineString","properties":{"kind":"highway","name:en":"New Pantai Expressway","short_name":"NPE","sort_rank":383,"landuse_kind":"urban_area","source":"openstreetmap.org","min_zoom":8.0,"kind_detail":"motorway","ref":"E10"},"arcs":[[655],[656],[657],[658],[659],[660],[661],[662],[663],[664],[665],[666]]},{"type":"LineString","properties":{"source":"openstreetmap.org","kind":"major_road","sort_rank":380,"kind_detail":"primary","ref":"B27","min_zoom":8.0},"arcs":[667]},{"type":"MultiLineString","properties":{"source":"openstreetmap.org","kind":"major_road","kind_detail":"trunk","sort_rank":381,"landuse_kind":"urban_area","ref":"15","min_zoom":8.0},"arcs":[[668],[669],[670],[671],[672],[673],[674],[675],[676],[677],[678]]},{"type":"LineString","properties":{"kind":"highway","name:en":"Kajang Dispersal Link Expressway","network":null,"sort_rank":383,"kind_detail":"motorway","source":"openstreetmap.org","min_zoom":8.0,"all_networks":[null],"landuse_kind":"urban_area","shield_text":"18","id":5204694,"all_shield_texts":["18"]},"arcs":[679]},{"type":"MultiLineString","properties":{"kind":"highway","short_name":"DUKE","sort_rank":383,"landuse_kind":"urban_area","source":"openstreetmap.org","min_zoom":8.0,"kind_detail":"motorway","ref":"E33"},"arcs":[[680],[681]]},{"type":"MultiLineString","properties":{"kind":"highway","name:en":"North\u2013South Expressway","ref":"E2","sort_rank":383,"landuse_kind":"urban_area","source":"openstreetmap.org","min_zoom":8.0,"kind_detail":"motorway","name:zh":"\u5357\u5317\u5927\u9053"},"arcs":[[682],[683],[684],[685]]},{"type":"MultiLineString","properties":{"source":"openstreetmap.org","kind":"highway","name:en":"Kuala Lumpur \u2013 Seremban Expressway","landuse_kind":"urban_area","sort_rank":383,"kind_detail":"motorway","min_zoom":8.0},"arcs":[[686],[687]]},{"type":"MultiLineString","properties":{"kind":"highway","name:en":"Guthrie Corridor Expressway","network":null,"sort_rank":383,"landuse_kind":"urban_area","source":"openstreetmap.org","min_zoom":8.0,"all_networks":[null],"kind_detail":"motorway","shield_text":"35","ref":"E35","all_shield_texts":["35"]},"arcs":[[688],[689]]},{"type":"MultiLineString","properties":{"bus_network":"Area 6","sort_rank":380,"kind_detail":"primary","kind":"major_road","source":"openstreetmap.org","min_zoom":8.0,"bus_shield_text":"T527","landuse_kind":"urban_area","ref":"MBSA 7"},"arcs":[[690],[691]]},{"type":"LineString","properties":{"kind":"major_road","sort_rank":380,"kind_detail":"primary","bus_network":null,"source":"openstreetmap.org","min_zoom":8.0,"bus_shield_text":"T528","landuse_kind":"urban_area","ref":"MBSA 15","id":26818425},"arcs":[692]},{"type":"MultiLineString","properties":{"source":"openstreetmap.org","kind":"major_road","kind_detail":"trunk","sort_rank":381,"landuse_kind":"urban_area","ref":"1","min_zoom":8.0},"arcs":[[693],[694],[695],[696],[697],[698],[699],[700],[701],[702],[703],[704],[705],[706],[707],[708]]},{"type":"LineString","properties":{"source":"openstreetmap.org","kind":"highway","landuse_kind":"urban_area","sort_rank":383,"kind_detail":"motorway","ref":"E11","min_zoom":8.0},"arcs":[709]},{"type":"LineString","properties":{"kind":"major_road","sort_rank":381,"kind_detail":"trunk","bus_network":null,"source":"openstreetmap.org","min_zoom":8.0,"bus_shield_text":"146B","ref":"54","id":198265744},"arcs":[710]},{"type":"LineString","properties":{"source":"openstreetmap.org","kind":"major_road","sort_rank":380,"kind_detail":"primary","ref":"B113","min_zoom":8.0},"arcs":[711]},{"type":"MultiLineString","properties":{"source":"openstreetmap.org","kind":"major_road","sort_rank":380,"kind_detail":"primary","ref":"B11","min_zoom":8.0},"arcs":[[712],[713],[714],[715],[716],[717]]},{"type":"LineString","properties":{"source":"openstreetmap.org","kind":"major_road","sort_rank":380,"kind_detail":"primary","ref":"64","min_zoom":8.0},"arcs":[718]},{"type":"MultiLineString","properties":{"kind":"highway","name:en":"Shah Alam Expressway","short_name":"KESAS","sort_rank":383,"kind_detail":"motorway","source":"openstreetmap.org","min_zoom":8.0,"ref":"E5"},"arcs":[[719],[720]]},{"type":"MultiLineString","properties":{"source":"openstreetmap.org","kind":"major_road","sort_rank":380,"kind_detail":"primary","ref":"3208","min_zoom":8.0},"arcs":[[721],[722],[723],[724],[725]]},{"type":"LineString","properties":{"kind":"highway","name:en":"Sprint Expressway (Penchala Tunnel)","sort_rank":383,"kind_detail":"motorway","source":"openstreetmap.org","min_zoom":8.0,"landuse_kind":"urban_area","ref":"E23","id":24954545},"arcs":[726]},{"type":"MultiLineString","properties":{"kind":"highway","name:en":"Kajang Dispersal Link Expressway","network":null,"short_name":"SILK","sort_rank":383,"landuse_kind":"urban_area","source":"openstreetmap.org","min_zoom":8.0,"all_networks":[null],"kind_detail":"motorway","shield_text":"18","all_shield_texts":["18"]},"arcs":[[727],[728],[729]]},{"type":"LineString","properties":{"bus_network":null,"sort_rank":380,"kind_detail":"primary","kind":"major_road","source":"openstreetmap.org","min_zoom":8.0,"bus_shield_text":"146B","ref":"B149"},"arcs":[730]},{"type":"MultiLineString","properties":{"kind":"highway","name:en":"New Klang Valley Expressway","network":null,"sort_rank":383,"landuse_kind":"urban_area","source":"openstreetmap.org","min_zoom":8.0,"all_networks":[null],"kind_detail":"motorway","shield_text":"1","ref":"E1","all_shield_texts":["1"]},"arcs":[[731],[732],[733],[734],[735],[736],[737],[738],[739],[740],[741],[742],[743],[744],[745],[746],[747],[748],[749],[750],[751]]},{"type":"MultiLineString","properties":{"source":"openstreetmap.org","kind":"major_road","name:en":"Behrang-Tanjung Malim Highway","sort_rank":380,"kind_detail":"primary","ref":"193","min_zoom":8.0},"arcs":[[752],[753]]},{"type":"MultiLineString","properties":{"source":"openstreetmap.org","kind":"major_road","kind_detail":"trunk","sort_rank":381,"landuse_kind":"urban_area","name:zh":"\u9a6c\u54c8\u62c9\u60f9\u4e50\u62c9\u8def","min_zoom":8.0},"arcs":[[754],[755]]},{"type":"MultiLineString","properties":{"kind":"highway","network":"AsianHighway","sort_rank":383,"landuse_kind":"urban_area","source":"openstreetmap.org","min_zoom":8.0,"all_networks":["AsianHighway",null],"kind_detail":"motorway","shield_text":"141","ref":"E8","all_shield_texts":["141","8"]},"arcs":[[756],[757],[758],[759]]},{"type":"MultiLineString","properties":{"source":"openstreetmap.org","kind":"major_road","ref":"2","sort_rank":381,"kind_detail":"trunk","is_bicycle_related":true,"min_zoom":8.0},"arcs":[[760],[761]]},{"type":"LineString","properties":{"kind":"major_road","sort_rank":380,"kind_detail":"primary","bus_network":null,"source":"openstreetmap.org","min_zoom":8.0,"bus_shield_text":"U81","landuse_kind":"urban_area","ref":"15","id":162530604},"arcs":[762]},{"type":"MultiLineString","properties":{"kind":"highway","name:en":"Damansara-Puchong Expressway","short_name":"LDP","sort_rank":383,"landuse_kind":"urban_area","source":"openstreetmap.org","min_zoom":8.0,"kind_detail":"motorway","ref":"E11"},"arcs":[[763],[764],[765],[766],[767],[768]]},{"type":"MultiLineString","properties":{"kind":"major_road","name:zh":"\u6b66\u5409\u67cf\u4f26\u4e1c\u8def","sort_rank":380,"kind_detail":"primary","source":"openstreetmap.org","min_zoom":8.0,"landuse_kind":"urban_area","ref":"3208"},"arcs":[[769],[770],[771]]},{"type":"MultiLineString","properties":{"source":"openstreetmap.org","kind":"major_road","sort_rank":381,"kind_detail":"trunk","ref":"1","min_zoom":8.0},"arcs":[[772],[773],[774],[775],[776],[777],[778],[779],[780],[781],[782],[783],[784],[785],[786],[787],[788],[789]]},{"type":"LineString","properties":{"bus_network":"PJ02 Taman Jaya - SS2 - PPUM","name:en":"Sultan Roundabout","sort_rank":380,"kind_detail":"primary","kind":"major_road","source":"openstreetmap.org","min_zoom":8.0,"bus_shield_text":"PJ02","landuse_kind":"urban_area"},"arcs":[790]},{"type":"MultiLineString","properties":{"source":"openstreetmap.org","kind":"major_road","landuse_kind":"urban_area","sort_rank":380,"kind_detail":"primary","ref":"1","min_zoom":8.0},"arcs":[[791],[792],[793]]},{"type":"LineString","properties":{"source":"openstreetmap.org","kind":"major_road","name:en":"Northport Highway","sort_rank":380,"kind_detail":"primary","min_zoom":8.0,"id":24328128},"arcs":[794]},{"type":"LineString","properties":{"kind":"major_road","sort_rank":381,"landuse_kind":"urban_area","source":"openstreetmap.org","min_zoom":8.0,"kind_detail":"trunk","ref":"3214","id":30158575},"arcs":[795]},{"type":"MultiLineString","properties":{"source":"openstreetmap.org","kind":"highway","landuse_kind":"urban_area","sort_rank":383,"kind_detail":"motorway","ref":"E7","min_zoom":8.0},"arcs":[[796],[797]]},{"type":"MultiLineString","properties":{"kind":"major_road","name:en":"Middle Ring Road 2","short_name":"JLT II;MRR II;JLT 2;MRR 2","sort_rank":381,"landuse_kind":"urban_area","source":"openstreetmap.org","min_zoom":8.0,"kind_detail":"trunk","ref":"28","osm_relation":true},"arcs":[[798],[799],[800],[801],[802],[803],[804],[805]]},{"type":"LineString","properties":{"source":"openstreetmap.org","kind":"major_road","name:en":"Federal Route 1","sort_rank":381,"kind_detail":"trunk","min_zoom":8.0,"id":500480020},"arcs":[806]},{"type":"LineString","properties":{"kind":"highway","name:en":"Sprint Expressway (Penchala Tunnel","sort_rank":383,"kind_detail":"motorway","source":"openstreetmap.org","min_zoom":8.0,"landuse_kind":"urban_area","ref":"E23","id":24589730},"arcs":[807]},{"type":"MultiLineString","properties":{"source":"openstreetmap.org","kind":"major_road","sort_rank":380,"kind_detail":"primary","name:zh":"\u5723\u6dd8\u6c99\u5927\u9053","min_zoom":8.0},"arcs":[[808],[809]]},{"type":"LineString","properties":{"kind":"major_road","sort_rank":380,"landuse_kind":"urban_area","source":"openstreetmap.org","min_zoom":8.0,"kind_detail":"primary","ref":"B148","id":201249424},"arcs":[810]},{"type":"LineString","properties":{"kind":"major_road","name:zh":"\u6b66\u5409\u67cf\u4f26\u4e1c\u8def","sort_rank":380,"kind_detail":"primary","source":"openstreetmap.org","min_zoom":8.0,"ref":"3208","id":177962942},"arcs":[811]},{"type":"LineString","properties":{"bus_network":null,"sort_rank":380,"kind_detail":"primary","kind":"major_road","source":"openstreetmap.org","min_zoom":8.0,"bus_shield_text":"RED","landuse_kind":"urban_area","name:zh":"\u5f6d\u4ea8\u8def"},"arcs":[812]},{"type":"LineString","properties":{"kind":"major_road","name:zh":"\u5e03\u7279\u62c9\u67cf\u8fc8\u8def","sort_rank":380,"kind_detail":"primary","source":"openstreetmap.org","min_zoom":8.0,"ref":"3215","id":277214219},"arcs":[813]},{"type":"MultiLineString","properties":{"source":"openstreetmap.org","kind":"highway","sort_rank":383,"kind_detail":"motorway","min_zoom":8.0,"osm_relation":true},"arcs":[[814],[815],[816],[817],[818],[819],[820],[821],[822],[823],[824],[825],[826],[827],[828],[829],[830],[831],[832],[833],[834],[835],[836],[837],[838],[839],[840],[841],[842],[843],[844],[845],[846],[847]]},{"type":"LineString","properties":{"source":"openstreetmap.org","kind":"major_road","sort_rank":380,"kind_detail":"primary","ref":"B23","min_zoom":8.0},"arcs":[848]},{"type":"MultiLineString","properties":{"source":"openstreetmap.org","kind":"major_road","name:en":"Pulau Indah Expressway","sort_rank":380,"kind_detail":"primary","ref":"181","min_zoom":8.0},"arcs":[[849],[850],[851],[852],[853],[854]]},{"type":"MultiLineString","properties":{"kind":"highway","name:en":"Damansara-Puchong Expressway","ref":"E11","sort_rank":383,"kind_detail":"motorway","source":"openstreetmap.org","min_zoom":8.0,"name:zh":"\u767d\u6c99\u7f57\uff0d\u84b2\u79cd\u5927\u9053"},"arcs":[[855],[856]]},{"type":"LineString","properties":{"kind":"major_road","sort_rank":380,"kind_detail":"primary","bus_network":null,"source":"openstreetmap.org","min_zoom":8.0,"bus_shield_text":"T528","landuse_kind":"urban_area","ref":"MBSA 7","id":4937384},"arcs":[857]},{"type":"MultiLineString","properties":{"kind":"highway","name:en":"Kajang Dispersal Link Expressway","network":null,"short_name":"SILK","sort_rank":383,"landuse_kind":"urban_area","source":"openstreetmap.org","min_zoom":8.0,"all_networks":[null],"kind_detail":"motorway","shield_text":"18","ref":"E18","all_shield_texts":["18"]},"arcs":[[858],[859],[860],[861],[862],[863],[864],[865],[866],[867],[868],[869],[870],[871],[872],[873]]},{"type":"MultiLineString","properties":{"kind":"highway","name:en":"North\u2013South Expressway Central Link","network":"AsianHighway","sort_rank":383,"landuse_kind":"urban_area","source":"openstreetmap.org","min_zoom":8.0,"all_networks":["AsianHighway"],"kind_detail":"motorway","shield_text":"2","ref":"E6","all_shield_texts":["2"]},"arcs":[[874],[875]]},{"type":"MultiLineString","properties":{"kind":"highway","name:en":"SMART Tunnel","sort_rank":383,"kind_detail":"motorway","source":"openstreetmap.org","min_zoom":8.0,"landuse_kind":"urban_area","ref":"E38"},"arcs":[[876],[877],[878]]},{"type":"MultiLineString","properties":{"source":"openstreetmap.org","kind":"major_road","name:en":"North Klang Straits Bypass","sort_rank":381,"kind_detail":"trunk","ref":"20","min_zoom":8.0},"arcs":[[879],[880],[881],[882],[883]]},{"type":"MultiLineString","properties":{"kind":"highway","name:zh":"\u897f\u90e8\u758f\u6563\u5927\u9053\uff08\u767d\u6c99\u7f57\u7ebf\u8def\uff09","sort_rank":383,"kind_detail":"motorway","source":"openstreetmap.org","min_zoom":8.0,"landuse_kind":"urban_area","ref":"E23"},"arcs":[[884],[885],[886]]},{"type":"LineString","properties":{"source":"openstreetmap.org","kind":"highway","sort_rank":383,"kind_detail":"motorway","ref":"25","min_zoom":8.0,"id":148923924},"arcs":[887]},{"type":"MultiLineString","properties":{"kind":"highway","name:en":"New Klang Valley Expressway","network":null,"sort_rank":383,"kind_detail":"motorway","source":"openstreetmap.org","min_zoom":8.0,"all_networks":[null],"shield_text":"1","ref":"E1","all_shield_texts":["1"]},"arcs":[[888],[889]]},{"type":"LineString","properties":{"source":"openstreetmap.org","kind":"major_road","landuse_kind":"urban_area","sort_rank":380,"kind_detail":"primary","ref":"N28","min_zoom":8.0},"arcs":[890]},{"type":"MultiLineString","properties":{"kind":"highway","name:en":"Damansara-Puchong Expressway","sort_rank":383,"kind_detail":"motorway","source":"openstreetmap.org","min_zoom":8.0,"landuse_kind":"urban_area","ref":"E11"},"arcs":[[891],[892],[893],[894],[895],[896],[897],[898],[899],[900],[901],[902],[903],[904],[905]]},{"type":"MultiLineString","properties":{"source":"openstreetmap.org","kind":"major_road","sort_rank":380,"kind_detail":"primary","ref":"B20","min_zoom":8.0},"arcs":[[906],[907],[908],[909],[910],[911]]},{"type":"MultiLineString","properties":{"bus_network":null,"sort_rank":380,"kind_detail":"primary","kind":"major_road","source":"openstreetmap.org","min_zoom":8.0,"bus_shield_text":"146B","landuse_kind":"urban_area"},"arcs":[[912],[913],[914],[915],[916],[917]]},{"type":"MultiLineString","properties":{"kind":"major_road","name:en":"Federal Highway","network":null,"sort_rank":381,"landuse_kind":"urban_area","source":"openstreetmap.org","min_zoom":8.0,"kind_detail":"trunk","shield_text":"2","name:zh":"\u8054\u90a6\u5927\u9053","ref":"2"},"arcs":[[918],[919]]},{"type":"LineString","properties":{"kind":"highway","name:en":"Kuala Lumpur\u2013Kuala Selangor Expressway LATAR","sort_rank":383,"kind_detail":"motorway","is_bicycle_related":true,"source":"openstreetmap.org","min_zoom":8.0,"ref":"E25"},"arcs":[920]},{"type":"MultiLineString","properties":{"source":"openstreetmap.org","kind":"major_road","old_name":"Lebuhraya Mahameru","sort_rank":380,"kind_detail":"primary","landuse_kind":"urban_area","min_zoom":8.0},"arcs":[[921],[922],[923],[924],[925],[926],[927],[928],[929],[930],[931]]},{"type":"MultiLineString","properties":{"kind":"highway","name:en":"Ampang-Kuala Lumpur Elevated Highway","network":null,"short_name":"AKLEH","sort_rank":383,"kind_detail":"motorway","source":"openstreetmap.org","min_zoom":8.0,"all_networks":[null],"shield_text":"12","ref":"E12","all_shield_texts":["12"]},"arcs":[[932],[933]]},{"type":"LineString","properties":{"kind":"major_road","network":null,"sort_rank":381,"kind_detail":"trunk","bus_network":null,"source":"openstreetmap.org","min_zoom":8.0,"bus_shield_text":"U81","shield_text":"2","landuse_kind":"urban_area","ref":"2","id":157198806},"arcs":[934]},{"type":"MultiLineString","properties":{"kind":"highway","name:en":"Sprint Expressway (Penchala Link)","sort_rank":383,"kind_detail":"motorway","source":"openstreetmap.org","min_zoom":8.0,"landuse_kind":"urban_area","ref":"E23"},"arcs":[[935],[936],[937],[938]]},{"type":"LineString","properties":{"kind":"highway","sort_rank":383,"landuse_kind":"urban_area","source":"openstreetmap.org","min_zoom":8.0,"kind_detail":"motorway","ref":"E5","id":142141205},"arcs":[939]},{"type":"LineString","properties":{"source":"openstreetmap.org","kind":"major_road","sort_rank":380,"kind_detail":"primary","ref":"N28","min_zoom":8.0,"id":28271135},"arcs":[940]},{"type":"MultiLineString","properties":{"source":"openstreetmap.org","kind":"highway","sort_rank":383,"kind_detail":"motorway","ref":"E26","min_zoom":8.0},"arcs":[[941],[942],[943],[944]]},{"type":"MultiLineString","properties":{"source":"openstreetmap.org","kind":"major_road","sort_rank":380,"kind_detail":"primary","ref":"B18","min_zoom":8.0},"arcs":[[945],[946],[947],[948],[949],[950],[951],[952],[953],[954],[955],[956],[957],[958],[959],[960]]},{"type":"MultiLineString","properties":{"kind":"highway","name:en":"Kajang Dispersal Link Expressway","network":null,"short_name":"SILK","sort_rank":383,"landuse_kind":"urban_area","source":"openstreetmap.org","min_zoom":8.0,"all_networks":[null],"kind_detail":"motorway","shield_text":"18","ref":"E18;B13","all_shield_texts":["18"]},"arcs":[[961],[962]]},{"type":"MultiLineString","properties":{"kind":"major_road","name:en":"Northport Highway","sort_rank":380,"kind_detail":"primary","source":"openstreetmap.org","min_zoom":8.0,"landuse_kind":"urban_area","ref":"103"},"arcs":[[963],[964]]},{"type":"MultiLineString","properties":{"source":"openstreetmap.org","kind":"major_road","sort_rank":380,"kind_detail":"primary","ref":"86","min_zoom":8.0},"arcs":[[965],[966]]},{"type":"LineString","properties":{"source":"openstreetmap.org","kind":"major_road","sort_rank":380,"kind_detail":"primary","name:zh":"\u4e91\u9876\u5df4\u751f\u8def","min_zoom":8.0,"id":23335046},"arcs":[967]},{"type":"LineString","properties":{"kind":"major_road","sort_rank":380,"kind_detail":"primary","bus_network":null,"source":"openstreetmap.org","min_zoom":8.0,"bus_shield_text":"BLUE","landuse_kind":"urban_area","name:zh":"\u5f6d\u4ea8\u8def","id":23062467},"arcs":[968]},{"type":"LineString","properties":{"kind":"highway","name:ms":"Lebuh Raya Besraya","sort_rank":383,"kind_detail":"motorway","source":"openstreetmap.org","min_zoom":8.0,"landuse_kind":"urban_area","ref":"E9","id":502518514},"arcs":[969]},{"type":"LineString","properties":{"source":"openstreetmap.org","kind":"major_road","sort_rank":380,"kind_detail":"primary","ref":"9","min_zoom":8.0},"arcs":[970]},{"type":"MultiLineString","properties":{"source":"openstreetmap.org","kind":"major_road","sort_rank":380,"kind_detail":"primary","ref":"98","min_zoom":8.0},"arcs":[[971],[972],[973]]},{"type":"MultiLineString","properties":{"kind":"major_road","name:zh":"\u8d5b\u5e03\u7279\u62c9\u8def\uff08\u8054\u90a6\u516c\u8def2\u53f7\uff09","network":null,"sort_rank":380,"kind_detail":"primary","source":"openstreetmap.org","min_zoom":8.0,"landuse_kind":"urban_area","shield_text":"2","ref":"2"},"arcs":[[974],[975]]},{"type":"MultiLineString","properties":{"source":"openstreetmap.org","kind":"highway","sort_rank":383,"kind_detail":"motorway","ref":"E25","min_zoom":8.0},"arcs":[[976],[977]]},{"type":"MultiLineString","properties":{"kind":"highway","name:en":"Damansara\u2013Puchong Expressway","sort_rank":383,"landuse_kind":"urban_area","source":"openstreetmap.org","min_zoom":8.0,"kind_detail":"motorway","name:zh":"\u767d\u6c99\u7f57\uff0d\u84b2\u79cd\u5927\u9053","ref":"E11"},"arcs":[[978],[979],[980],[981]]},{"type":"MultiLineString","properties":{"kind":"highway","name:zh":"\u9686\u5e03\u5927\u9053","short_name":"MEX","sort_rank":383,"kind_detail":"motorway","source":"openstreetmap.org","min_zoom":8.0,"ref":"E20"},"arcs":[[982],[983]]},{"type":"MultiLineString","properties":{"source":"openstreetmap.org","kind":"major_road","sort_rank":380,"kind_detail":"primary","ref":"87","min_zoom":8.0},"arcs":[[984],[985],[986],[987],[988]]},{"type":"LineString","properties":{"kind":"highway","network":null,"sort_rank":383,"kind_detail":"motorway","source":"openstreetmap.org","min_zoom":8.0,"all_networks":[null],"landuse_kind":"urban_area","shield_text":"12","ref":"E12","id":57016321,"all_shield_texts":["12"]},"arcs":[989]},{"type":"MultiLineString","properties":{"source":"openstreetmap.org","kind":"major_road","landuse_kind":"urban_area","sort_rank":380,"kind_detail":"primary","ref":"B27","min_zoom":8.0},"arcs":[[990],[991],[992],[993],[994],[995],[996],[997]]},{"type":"MultiLineString","properties":{"kind":"highway","name:en":"South Klang Valley Expressway","sort_rank":383,"landuse_kind":"urban_area","source":"openstreetmap.org","min_zoom":8.0,"kind_detail":"motorway","ref":"E26"},"arcs":[[998],[999]]},{"type":"MultiLineString","properties":{"kind":"highway","name:en":"Kajang Dispersal Link Expressway","sort_rank":383,"landuse_kind":"urban_area","source":"openstreetmap.org","min_zoom":8.0,"kind_detail":"motorway","ref":"E18;B13"},"arcs":[[1000],[1001]]},{"type":"MultiLineString","properties":{"kind":"major_road","name:en":"Middle Ring Road 2","network":null,"short_name":"MRR2","sort_rank":381,"kind_detail":"trunk","source":"openstreetmap.org","min_zoom":8.0,"shield_text":"28","ref":"28"},"arcs":[[1002],[1003],[1004],[1005],[1006],[1007]]},{"type":"MultiLineString","properties":{"source":"openstreetmap.org","kind":"major_road","name:en":"Seri Perdana Bridge","sort_rank":380,"kind_detail":"primary","min_zoom":8.0},"arcs":[[1008],[1009]]},{"type":"MultiLineString","properties":{"kind":"highway","name:en":"SMART Tunnel","sort_rank":383,"landuse_kind":"urban_area","source":"openstreetmap.org","min_zoom":8.0,"kind_detail":"motorway","name:zh":"\u7cbe\u660e\u96a7\u9053","ref":"E38"},"arcs":[[1010],[1011]]},{"type":"MultiLineString","properties":{"source":"openstreetmap.org","kind":"major_road","landuse_kind":"urban_area","sort_rank":380,"kind_detail":"primary","ref":"MBSA 17","min_zoom":8.0},"arcs":[[1012],[1013],[1014]]},{"type":"MultiLineString","properties":{"bus_network":"Area 6","sort_rank":380,"kind_detail":"primary","kind":"major_road","source":"openstreetmap.org","min_zoom":8.0,"bus_shield_text":"T527","landuse_kind":"urban_area","ref":"MBSA 17"},"arcs":[[1015],[1016]]},{"type":"MultiLineString","properties":{"kind":"highway","name:en":"Sungai Besi Expressway","network":null,"sort_rank":383,"landuse_kind":"urban_area","source":"openstreetmap.org","min_zoom":8.0,"all_networks":[null],"kind_detail":"motorway","shield_text":"9","ref":"E9","all_shield_texts":["9"]},"arcs":[[1017],[1018]]},{"type":"LineString","properties":{"source":"openstreetmap.org","kind":"ferry","sort_rank":355,"landuse_kind":"urban_area","min_zoom":8.0,"id":369837226},"arcs":[1019]},{"type":"LineString","properties":{"kind":"major_road","name:en":"Rawang Bypass","sort_rank":381,"kind_detail":"trunk","source":"openstreetmap.org","min_zoom":8.0,"landuse_kind":"urban_area","name:zh":"\u4e07\u6320\u7ed5\u9053","id":541320157},"arcs":[1020]},{"type":"MultiLineString","properties":{"kind":"major_road","name:en":"Federal Route 1","network":null,"sort_rank":381,"kind_detail":"trunk","source":"openstreetmap.org","min_zoom":8.0,"shield_text":"1","ref":"1"},"arcs":[[1021],[1022],[1023],[1024],[1025],[1026],[1027],[1028],[1029],[1030]]},{"type":"MultiLineString","properties":{"source":"openstreetmap.org","kind":"major_road","landuse_kind":"urban_area","sort_rank":380,"kind_detail":"primary","ref":"B13","min_zoom":8.0},"arcs":[[1031],[1032],[1033],[1034],[1035],[1036],[1037],[1038],[1039],[1040]]},{"type":"MultiLineString","properties":{"source":"openstreetmap.org","kind":"major_road","landuse_kind":"urban_area","sort_rank":380,"kind_detail":"primary","ref":"68","min_zoom":8.0},"arcs":[[1041],[1042],[1043],[1044],[1045],[1046],[1047]]},{"type":"MultiLineString","properties":{"kind":"highway","name:en":"Damansara\u2013Puchong Expressway","sort_rank":383,"landuse_kind":"urban_area","source":"openstreetmap.org","min_zoom":8.0,"kind_detail":"motorway","ref":"E11"},"arcs":[[1048],[1049]]},{"type":"MultiLineString","properties":{"source":"openstreetmap.org","kind":"major_road","sort_rank":381,"kind_detail":"trunk","ref":"5","min_zoom":8.0},"arcs":[[1050],[1051],[1052],[1053],[1054],[1055],[1056],[1057],[1058],[1059],[1060],[1061],[1062],[1063],[1064],[1065],[1066],[1067],[1068],[1069],[1070],[1071],[1072],[1073],[1074],[1075],[1076]]},{"type":"MultiLineString","properties":{"source":"openstreetmap.org","kind":"major_road","ref":"54","sort_rank":381,"kind_detail":"trunk","is_bicycle_related":true,"min_zoom":8.0},"arcs":[[1077],[1078]]},{"type":"MultiLineString","properties":{"kind":"major_road","name:en":"Federal Highway","network":null,"sort_rank":381,"landuse_kind":"urban_area","source":"openstreetmap.org","min_zoom":8.0,"kind_detail":"trunk","shield_text":"2","ref":"2"},"arcs":[[1079],[1080],[1081],[1082],[1083],[1084],[1085]]},{"type":"MultiLineString","properties":{"sort_rank":381,"source":"openstreetmap.org","min_zoom":8.0,"kind":"major_road","kind_detail":"trunk"},"arcs":[[1086],[1087],[1088],[1089],[1090],[1091],[1092],[1093],[1094],[1095],[1096],[1097],[1098],[1099],[1100],[1101],[1102],[1103],[1104],[1105],[1106],[1107],[1108],[1109],[1110],[1111],[1112],[1113],[1114],[1115]]},{"type":"MultiLineString","properties":{"source":"openstreetmap.org","kind":"major_road","name:en":"Federal Route 1","sort_rank":381,"kind_detail":"trunk","ref":"1","min_zoom":8.0},"arcs":[[1116],[1117],[1118],[1119],[1120],[1121],[1122],[1123]]},{"type":"MultiLineString","properties":{"source":"openstreetmap.org","kind":"major_road","name:en":"Putra Bridge","sort_rank":380,"kind_detail":"primary","name:zh":"\u5e03\u7279\u62c9\u6865","min_zoom":8.0},"arcs":[[1124],[1125]]},{"type":"MultiLineString","properties":{"source":"openstreetmap.org","kind":"major_road","landuse_kind":"urban_area","sort_rank":380,"kind_detail":"primary","ref":"B9","min_zoom":8.0},"arcs":[[1126],[1127],[1128],[1129],[1130],[1131],[1132],[1133]]},{"type":"MultiLineString","properties":{"source":"openstreetmap.org","kind":"major_road","name:en":"Putrajaya-Cyberjaya Expressway","sort_rank":381,"kind_detail":"trunk","ref":"29","min_zoom":8.0},"arcs":[[1134],[1135],[1136],[1137],[1138]]},{"type":"MultiLineString","properties":{"source":"openstreetmap.org","kind":"highway","landuse_kind":"urban_area","sort_rank":383,"kind_detail":"motorway","ref":"1","min_zoom":8.0},"arcs":[[1139],[1140]]},{"type":"MultiLineString","properties":{"ref":"E1","kind":"highway","name:en":"New Klang Valley Expressway","network":"AsianHighway","short_name":"NKVE","sort_rank":383,"landuse_kind":"urban_area","source":"openstreetmap.org","min_zoom":8.0,"all_networks":["AsianHighway",null],"kind_detail":"motorway","shield_text":"2","name:zh":"\u65b0\u5df4\u751f\u6cb3\u6d41\u57df\u5927\u9053","all_shield_texts":["2","1"]},"arcs":[[1141],[1142]]},{"type":"MultiLineString","properties":{"kind":"highway","name:en":"North Klang Straits Bypass","sort_rank":383,"kind_detail":"motorway","source":"openstreetmap.org","min_zoom":8.0,"landuse_kind":"urban_area","ref":"E30"},"arcs":[[1143],[1144],[1145],[1146]]},{"type":"MultiLineString","properties":{"source":"openstreetmap.org","kind":"major_road","name:en":"Old Klang Road","landuse_kind":"urban_area","sort_rank":380,"kind_detail":"primary","min_zoom":8.0},"arcs":[[1147],[1148],[1149],[1150],[1151],[1152]]},{"type":"MultiLineString","properties":{"sort_rank":355,"source":"openstreetmap.org","min_zoom":8.0,"kind":"ferry"},"arcs":[[1153],[1154]]},{"type":"MultiLineString","properties":{"source":"openstreetmap.org","kind":"highway","landuse_kind":"urban_area","sort_rank":383,"kind_detail":"motorway","min_zoom":8.0},"arcs":[[1155],[1156],[1157],[1158],[1159],[1160],[1161],[1162],[1163],[1164],[1165],[1166],[1167],[1168],[1169],[1170],[1171],[1172],[1173],[1174]]},{"type":"MultiLineString","properties":{"kind":"highway","name:en":"Guthrie Corridor Expressway","network":null,"ref":"E35","sort_rank":383,"kind_detail":"motorway","source":"openstreetmap.org","min_zoom":8.0,"all_networks":[null],"shield_text":"35","name:zh":"\u7259\u76f4\u5229\u5927\u9053","all_shield_texts":["35"]},"arcs":[[1175],[1176]]},{"type":"LineString","properties":{"source":"openstreetmap.org","kind":"major_road","sort_rank":380,"kind_detail":"primary","ref":"B48","min_zoom":8.0},"arcs":[1177]},{"type":"LineString","properties":{"kind":"major_road","name:en":"Federal Route 1","network":null,"sort_rank":381,"kind_detail":"trunk","source":"openstreetmap.org","min_zoom":8.0,"shield_text":"1","name:zh":"\u8054\u90a6\u516c\u8def1\u53f7","ref":"1"},"arcs":[1178]},{"type":"LineString","properties":{"kind":"major_road","name:en":"Old Klang Road","sort_rank":380,"kind_detail":"primary","source":"openstreetmap.org","min_zoom":8.0,"old_name":"Jalan Kelang Lama","landuse_kind":"urban_area","id":502729738},"arcs":[1179]},{"type":"MultiLineString","properties":{"kind":"highway","name:en":"North\u2013South Expressway","ref":"E2","sort_rank":383,"kind_detail":"motorway","source":"openstreetmap.org","min_zoom":8.0,"name:zh":"\u5357\u5317\u5927\u9053"},"arcs":[[1180],[1181],[1182],[1183],[1184],[1185],[1186],[1187]]},{"type":"MultiLineString","properties":{"source":"openstreetmap.org","kind":"major_road","landuse_kind":"urban_area","sort_rank":380,"kind_detail":"primary","ref":"32","min_zoom":8.0},"arcs":[[1188],[1189]]},{"type":"LineString","properties":{"kind":"highway","network":"AsianHighway","sort_rank":383,"kind_detail":"motorway","source":"openstreetmap.org","min_zoom":8.0,"all_networks":["AsianHighway",null],"shield_text":"141","id":157245682,"all_shield_texts":["141","8"]},"arcs":[1190]},{"type":"MultiLineString","properties":{"source":"openstreetmap.org","kind":"highway","landuse_kind":"urban_area","sort_rank":383,"kind_detail":"motorway","min_zoom":8.0,"osm_relation":true},"arcs":[[1191],[1192],[1193],[1194],[1195],[1196],[1197],[1198],[1199],[1200],[1201],[1202]]},{"type":"MultiLineString","properties":{"kind":"highway","name:en":"Guthrie Corridor Expressway","network":null,"short_name":"GCE","sort_rank":383,"kind_detail":"motorway","source":"openstreetmap.org","min_zoom":8.0,"all_networks":[null],"shield_text":"35","ref":"E35","all_shield_texts":["35"]},"arcs":[[1203],[1204]]},{"type":"MultiLineString","properties":{"kind":"highway","name:en":"Shah Alam Expressway","short_name":"KESAS","sort_rank":383,"kind_detail":"motorway","source":"openstreetmap.org","min_zoom":8.0,"landuse_kind":"urban_area","ref":"E5"},"arcs":[[1205],[1206],[1207],[1208]]},{"type":"MultiLineString","properties":{"source":"openstreetmap.org","kind":"major_road","landuse_kind":"urban_area","sort_rank":380,"kind_detail":"primary","ref":"15","min_zoom":8.0},"arcs":[[1209],[1210],[1211],[1212],[1213]]},{"type":"LineString","properties":{"kind":"major_road","name:en":"North Klang Straits Bypass","sort_rank":381,"landuse_kind":"urban_area","source":"openstreetmap.org","min_zoom":8.0,"kind_detail":"trunk","ref":"20"},"arcs":[1214]},{"type":"MultiLineString","properties":{"kind":"highway","name:en":"East Coast Expressway","network":"AsianHighway","sort_rank":383,"kind_detail":"motorway","source":"openstreetmap.org","min_zoom":8.0,"all_networks":["AsianHighway",null],"shield_text":"141","ref":"E8","all_shield_texts":["141","8"]},"arcs":[[1215],[1216]]},{"type":"MultiLineString","properties":{"source":"openstreetmap.org","kind":"major_road","kind_detail":"trunk","sort_rank":381,"landuse_kind":"urban_area","min_zoom":8.0},"arcs":[[1217],[1218],[1219],[1220],[1221],[1222],[1223],[1224],[1225],[1226],[1227],[1228],[1229],[1230],[1231],[1232],[1233],[1234],[1235],[1236],[1237],[1238],[1239],[1240],[1241],[1242],[1243],[1244],[1245],[1246],[1247],[1248],[1249],[1250],[1251],[1252],[1253],[1254],[1255],[1256],[1257],[1258]]},{"type":"MultiLineString","properties":{"source":"openstreetmap.org","kind":"major_road","short_name":"Jln Sg Besi","landuse_kind":"urban_area","sort_rank":380,"kind_detail":"primary","min_zoom":8.0},"arcs":[[1259],[1260]]},{"type":"LineString","properties":{"bus_network":null,"sort_rank":380,"kind_detail":"primary","kind":"major_road","source":"openstreetmap.org","min_zoom":8.0,"bus_shield_text":"BLUE","landuse_kind":"urban_area"},"arcs":[1261]},{"type":"MultiLineString","properties":{"kind":"highway","name:en":"New Klang Valley Expressway","network":"AsianHighway","sort_rank":383,"landuse_kind":"urban_area","source":"openstreetmap.org","min_zoom":8.0,"all_networks":["AsianHighway",null],"kind_detail":"motorway","shield_text":"2","ref":"E1","all_shield_texts":["2","1"]},"arcs":[[1262],[1263]]},{"type":"MultiLineString","properties":{"kind":"highway","ref":"E8","network":"AsianHighway","sort_rank":383,"kind_detail":"motorway","source":"openstreetmap.org","min_zoom":8.0,"all_networks":["AsianHighway",null],"shield_text":"141","name:zh":"\u52a0\u53fb\u5927\u9053","all_shield_texts":["141","8"]},"arcs":[[1264],[1265],[1266],[1267],[1268],[1269],[1270],[1271]]},{"type":"LineString","properties":{"source":"openstreetmap.org","kind":"major_road","sort_rank":380,"kind_detail":"primary","ref":"11","min_zoom":8.0},"arcs":[1272]},{"type":"MultiLineString","properties":{"sort_rank":383,"kind_detail":"motorway","min_zoom":8.0,"kind":"highway","source":"openstreetmap.org"},"arcs":[[1273],[1274],[1275],[1276],[1277],[1278],[1279],[1280],[1281],[1282],[1283],[1284],[1285],[1286],[1287],[1288],[1289]]},{"type":"LineString","properties":{"kind":"major_road","sort_rank":380,"kind_detail":"primary","is_bicycle_related":true,"source":"openstreetmap.org","min_zoom":8.0,"ref":"2","id":260279071},"arcs":[1290]},{"type":"MultiLineString","properties":{"kind":"highway","name:en":"Damansara-Puchong Expressway","ref":"E11","sort_rank":383,"landuse_kind":"urban_area","source":"openstreetmap.org","min_zoom":8.0,"kind_detail":"motorway","name:zh":"\u767d\u6c99\u7f57\uff0d\u84b2\u79cd\u5927\u9053"},"arcs":[[1291],[1292],[1293],[1294],[1295],[1296],[1297],[1298],[1299],[1300],[1301],[1302],[1303],[1304],[1305]]},{"type":"LineString","properties":{"kind":"major_road","name:zh":"\u9646\u4f51\u8857","sort_rank":380,"kind_detail":"primary","source":"openstreetmap.org","min_zoom":8.0,"ref":"8","id":144850842},"arcs":[1306]},{"type":"LineString","properties":{"kind":"major_road","sort_rank":380,"kind_detail":"primary","source":"openstreetmap.org","min_zoom":8.0,"old_name":"Jalan Batu Arang","landuse_kind":"urban_area","ref":"B49"},"arcs":[1307]},{"type":"LineString","properties":{"kind":"highway","name:en":"South Klang Valley Expressway (SKVE)","sort_rank":383,"kind_detail":"motorway","source":"openstreetmap.org","min_zoom":8.0,"ref":"E26","id":192402632},"arcs":[1308]},{"type":"MultiLineString","properties":{"kind":"major_road","name:en":"Middle Ring Road 2","short_name":"JLT II;MRR II;JLT 2;MRR 2","sort_rank":381,"landuse_kind":"protected_area","source":"openstreetmap.org","min_zoom":8.0,"kind_detail":"trunk","ref":"28","osm_relation":true},"arcs":[[1309],[1310],[1311],[1312]]},{"type":"MultiLineString","properties":{"source":"openstreetmap.org","kind":"major_road","sort_rank":381,"kind_detail":"trunk","ref":"15","min_zoom":8.0},"arcs":[[1313],[1314],[1315]]},{"type":"MultiLineString","properties":{"kind":"highway","name:en":"Damansara-Puchong Expressway","short_name":"LDP","sort_rank":383,"kind_detail":"motorway","source":"openstreetmap.org","min_zoom":8.0,"ref":"E11","name:zh":"\u767d\u6c99\u7f57\uff0d\u84b2\u79cd\u5927\u9053"},"arcs":[[1316],[1317]]},{"type":"MultiLineString","properties":{"source":"openstreetmap.org","kind":"major_road","sort_rank":380,"kind_detail":"primary","ref":"1210","min_zoom":8.0},"arcs":[[1318],[1319],[1320],[1321],[1322],[1323]]},{"type":"LineString","properties":{"source":"openstreetmap.org","kind":"major_road","kind_detail":"trunk","sort_rank":381,"landuse_kind":"urban_area","ref":"54","min_zoom":8.0},"arcs":[1324]},{"type":"MultiLineString","properties":{"kind":"highway","name:en":"Kuala Lumpur\u2013Kuala Selangor Expressway LATAR","ref":"E25","sort_rank":383,"kind_detail":"motorway","source":"openstreetmap.org","min_zoom":8.0,"name:zh":"\u74dc\u96ea\u5927\u9053"},"arcs":[[1325],[1326]]},{"type":"LineString","properties":{"kind":"major_road","sort_rank":380,"kind_detail":"primary","is_bicycle_related":true,"source":"openstreetmap.org","min_zoom":8.0,"ref":"1210","id":125160740},"arcs":[1327]},{"type":"MultiLineString","properties":{"source":"openstreetmap.org","kind":"highway","name:en":"North Klang Straits Bypass","sort_rank":383,"kind_detail":"motorway","ref":"E30","min_zoom":8.0},"arcs":[[1328],[1329],[1330],[1331]]},{"type":"MultiLineString","properties":{"kind":"major_road","name:en":"Middle Ring Road 2","network":null,"short_name":"MRR2","sort_rank":381,"landuse_kind":"urban_area","source":"openstreetmap.org","min_zoom":8.0,"kind_detail":"trunk","shield_text":"28","ref":"28"},"arcs":[[1332],[1333],[1334],[1335],[1336],[1337],[1338],[1339],[1340],[1341],[1342],[1343],[1344],[1345]]},{"type":"MultiLineString","properties":{"kind":"highway","ref":"E7","sort_rank":383,"kind_detail":"motorway","source":"openstreetmap.org","min_zoom":8.0,"landuse_kind":"urban_area","name:zh":"\u8549\u8d56\uff0d\u52a0\u5f71\u5927\u9053"},"arcs":[[1346],[1347],[1348],[1349],[1350]]},{"type":"MultiLineString","properties":{"kind":"major_road","name:en":"East\u2013West Link Expressway","sort_rank":381,"landuse_kind":"urban_area","source":"openstreetmap.org","min_zoom":8.0,"kind_detail":"trunk","ref":"E37"},"arcs":[[1351],[1352]]},{"type":"LineString","properties":{"source":"openstreetmap.org","kind":"major_road","sort_rank":380,"kind_detail":"primary","ref":"3265","min_zoom":8.0},"arcs":[1353]},{"type":"MultiLineString","properties":{"source":"openstreetmap.org","kind":"highway","name:en":"Kuala Lumpur\u2013Kuala Selangor Expressway","sort_rank":383,"kind_detail":"motorway","ref":"E25","min_zoom":8.0},"arcs":[[1354],[1355]]},{"type":"MultiLineString","properties":{"kind":"highway","name:en":"Kuala Lumpur-Karak Expressway","network":"AsianHighway","sort_rank":383,"kind_detail":"motorway","source":"openstreetmap.org","min_zoom":8.0,"all_networks":["AsianHighway",null],"shield_text":"141","ref":"E8","all_shield_texts":["141","8"]},"arcs":[[1356],[1357]]},{"type":"LineString","properties":{"kind":"major_road","name:en":"Subang Airport Highway","sort_rank":380,"kind_detail":"primary","source":"openstreetmap.org","min_zoom":8.0,"landuse_kind":"urban_area","ref":"15"},"arcs":[1358]},{"type":"LineString","properties":{"bus_network":null,"sort_rank":380,"kind_detail":"primary","kind":"major_road","source":"openstreetmap.org","min_zoom":8.0,"bus_shield_text":"146B","landuse_kind":"urban_area","name:zh":"\u6021\u4fdd\u8def"},"arcs":[1359]},{"type":"MultiLineString","properties":{"source":"openstreetmap.org","kind":"highway","name:en":"South Klang Valley Expressway","sort_rank":383,"kind_detail":"motorway","ref":"E26","min_zoom":8.0},"arcs":[[1360],[1361],[1362],[1363],[1364],[1365],[1366],[1367],[1368],[1369]]},{"type":"MultiLineString","properties":{"kind":"highway","name:en":"North\u2013South Expressway","ref":"E1","sort_rank":383,"kind_detail":"motorway","source":"openstreetmap.org","min_zoom":8.0,"name:zh":"\u5357\u5317\u5927\u9053","osm_relation":true},"arcs":[[1370],[1371]]},{"type":"MultiLineString","properties":{"source":"openstreetmap.org","kind":"major_road","old_name":"Laluan B49","sort_rank":380,"kind_detail":"primary","ref":"B49","min_zoom":8.0},"arcs":[[1372],[1373],[1374]]},{"type":"MultiLineString","properties":{"kind":"highway","network":"AsianHighway","sort_rank":383,"kind_detail":"motorway","source":"openstreetmap.org","min_zoom":8.0,"all_networks":["AsianHighway",null],"shield_text":"141","ref":"E8","all_shield_texts":["141","8"]},"arcs":[[1375],[1376],[1377],[1378]]},{"type":"LineString","properties":{"kind":"major_road","name:zh":"\u7164\u70ad\u5c71\u8def","sort_rank":380,"kind_detail":"primary","source":"openstreetmap.org","min_zoom":8.0,"ref":"B27","id":184865240},"arcs":[1379]},{"type":"MultiLineString","properties":{"source":"openstreetmap.org","kind":"highway","sort_rank":383,"kind_detail":"motorway","ref":"E33","min_zoom":8.0},"arcs":[[1380],[1381]]},{"type":"LineString","properties":{"source":"openstreetmap.org","kind":"major_road","ref":"FT54","sort_rank":381,"kind_detail":"trunk","is_bicycle_related":true,"min_zoom":8.0},"arcs":[1382]},{"type":"MultiLineString","properties":{"source":"openstreetmap.org","kind":"highway","landuse_kind":"urban_area","sort_rank":383,"kind_detail":"motorway","ref":"E21","min_zoom":8.0},"arcs":[[1383],[1384]]},{"type":"MultiLineString","properties":{"kind":"major_road","name:en":"Old Klang Road","sort_rank":380,"kind_detail":"primary","source":"openstreetmap.org","min_zoom":8.0,"landuse_kind":"urban_area","ref":"B14"},"arcs":[[1385],[1386],[1387],[1388]]},{"type":"MultiLineString","properties":{"source":"openstreetmap.org","kind":"major_road","sort_rank":380,"kind_detail":"primary","ref":"32","min_zoom":8.0},"arcs":[[1389],[1390],[1391],[1392]]},{"type":"LineString","properties":{"source":"openstreetmap.org","kind":"major_road","sort_rank":380,"kind_detail":"primary","ref":"B33","min_zoom":8.0},"arcs":[1393]},{"type":"LineString","properties":{"kind":"major_road","sort_rank":380,"landuse_kind":"protected_area","source":"openstreetmap.org","min_zoom":8.0,"kind_detail":"primary","ref":"86","id":57008478},"arcs":[1394]},{"type":"MultiLineString","properties":{"kind":"major_road","name:en":"Rawang Bypass","sort_rank":381,"kind_detail":"trunk","source":"openstreetmap.org","min_zoom":8.0,"name:zh":"\u4e07\u6320\u7ed5\u9053","ref":"37"},"arcs":[[1395],[1396]]},{"type":"MultiLineString","properties":{"kind":"highway","name:en":"Duta\u2013Ulu Klang Expressway","short_name":"DUKE","sort_rank":383,"landuse_kind":"urban_area","source":"openstreetmap.org","min_zoom":8.0,"kind_detail":"motorway","ref":"E33"},"arcs":[[1397],[1398],[1399],[1400]]},{"type":"MultiLineString","properties":{"source":"openstreetmap.org","kind":"highway","short_name":"DUKE","sort_rank":383,"kind_detail":"motorway","ref":"E33","min_zoom":8.0},"arcs":[[1401],[1402]]},{"type":"MultiLineString","properties":{"bus_network":null,"sort_rank":380,"kind_detail":"primary","kind":"major_road","source":"openstreetmap.org","min_zoom":8.0,"bus_shield_text":"B114","landuse_kind":"urban_area"},"arcs":[[1403],[1404],[1405]]},{"type":"LineString","properties":{"bus_network":null,"sort_rank":381,"landuse_kind":"urban_area","kind":"major_road","source":"openstreetmap.org","min_zoom":8.0,"bus_shield_text":"147","kind_detail":"trunk","ref":"54"},"arcs":[1406]},{"type":"MultiLineString","properties":{"source":"openstreetmap.org","kind":"major_road","sort_rank":380,"kind_detail":"primary","ref":"10","min_zoom":8.0},"arcs":[[1407],[1408],[1409]]},{"type":"MultiLineString","properties":{"source":"openstreetmap.org","kind":"highway","sort_rank":383,"kind_detail":"motorway","ref":"E21","min_zoom":8.0},"arcs":[[1410],[1411]]},{"type":"MultiLineString","properties":{"source":"openstreetmap.org","kind":"major_road","name:en":"Seri Setia Bridge","sort_rank":380,"kind_detail":"primary","min_zoom":8.0},"arcs":[[1412],[1413]]},{"type":"LineString","properties":{"kind":"major_road","sort_rank":381,"landuse_kind":"urban_area","source":"openstreetmap.org","min_zoom":8.0,"kind_detail":"trunk","ref":"28","id":259542581},"arcs":[1414]},{"type":"MultiLineString","properties":{"kind":"highway","name:en":"Sungai Besi Expressway","network":null,"sort_rank":383,"kind_detail":"motorway","source":"openstreetmap.org","min_zoom":8.0,"all_networks":[null,null],"landuse_kind":"urban_area","shield_text":"9","ref":"E18","all_shield_texts":["9","18"]},"arcs":[[1415],[1416]]},{"type":"LineString","properties":{"kind":"highway","name:en":"Kuala Lumpur\u2013Kuala Selangor Expressway","sort_rank":383,"kind_detail":"motorway","is_bicycle_related":true,"source":"openstreetmap.org","min_zoom":8.0,"ref":"E25"},"arcs":[1417]},{"type":"MultiLineString","properties":{"kind":"highway","name:short":"SKVE","sort_rank":383,"kind_detail":"motorway","source":"openstreetmap.org","min_zoom":8.0,"name:en":"South Klang Valley Expressway","ref":"E26"},"arcs":[[1418],[1419]]},{"type":"MultiLineString","properties":{"source":"openstreetmap.org","kind":"major_road","sort_rank":381,"kind_detail":"trunk","ref":"2","min_zoom":8.0},"arcs":[[1420],[1421],[1422],[1423],[1424],[1425],[1426]]},{"type":"MultiLineString","properties":{"kind":"major_road","sort_rank":380,"landuse_kind":"urban_area","source":"openstreetmap.org","min_zoom":8.0,"kind_detail":"primary","name:zh":"\u4e91\u9876\u5df4\u751f\u8def","id":23335046},"arcs":[[1427],[1428]]},{"type":"MultiLineString","properties":{"kind":"highway","name:zh":"\u9686\u5e03\u5927\u9053","short_name":"MEX","sort_rank":383,"landuse_kind":"urban_area","source":"openstreetmap.org","min_zoom":8.0,"kind_detail":"motorway","ref":"E20"},"arcs":[[1429],[1430]]},{"type":"LineString","properties":{"kind":"highway","ref":"E7","sort_rank":383,"kind_detail":"motorway","source":"openstreetmap.org","min_zoom":8.0,"landuse_kind":"urban_area","name:zh":"\u53cc\u6eaa\u6bdb\u7cef-\u52a0\u5f71\u7ebf","id":260224578},"arcs":[1431]},{"type":"LineString","properties":{"bus_network":null,"name:en":"Subang Airport Highway","sort_rank":380,"kind_detail":"primary","kind":"major_road","source":"openstreetmap.org","min_zoom":8.0,"bus_shield_text":"U81","landuse_kind":"urban_area","ref":"15"},"arcs":[1432]},{"type":"MultiLineString","properties":{"source":"openstreetmap.org","kind":"major_road","landuse_kind":"urban_area","sort_rank":380,"kind_detail":"primary","ref":"B11","min_zoom":8.0},"arcs":[[1433],[1434],[1435],[1436],[1437]]},{"type":"MultiLineString","properties":{"kind":"highway","name:en":"Kuala Lumpur \u2013 Seremban Expressway","sort_rank":383,"kind_detail":"motorway","source":"openstreetmap.org","min_zoom":8.0,"landuse_kind":"urban_area","ref":"E37"},"arcs":[[1438],[1439]]},{"type":"MultiLineString","properties":{"source":"openstreetmap.org","kind":"major_road","landuse_kind":"urban_area","sort_rank":380,"kind_detail":"primary","min_zoom":8.0},"arcs":[[1440],[1441],[1442],[1443],[1444],[1445],[1446],[1447],[1448],[1449],[1450],[1451],[1452],[1453],[1454],[1455],[1456],[1457],[1458],[1459],[1460],[1461],[1462],[1463],[1464],[1465],[1466],[1467],[1468],[1469],[1470],[1471],[1472],[1473],[1474],[1475],[1476],[1477],[1478],[1479],[1480],[1481],[1482],[1483],[1484],[1485],[1486],[1487],[1488],[1489],[1490],[1491],[1492],[1493],[1494],[1495],[1496],[1497],[1498],[1499],[1500],[1501],[1502],[1503],[1504],[1505],[1506],[1507],[1508],[1509],[1510],[1511],[1512],[1513],[1514],[1515],[1516],[1517],[1518],[1519],[1520],[1521],[1522],[1523],[1524],[1525],[1526],[1527],[1528],[1529],[1530],[1531],[1532],[1533],[1534],[1535],[1536],[1537],[1538],[1539],[1540],[1541],[1542],[1543],[1544],[1545],[1546],[1547],[1548],[1549],[1550],[1551],[1552],[1553],[1554],[1555],[1556],[1557],[1558],[1559],[1560],[1561],[1562],[1563],[1564],[1565],[1566],[1567],[1568],[1569],[1570],[1571],[1572],[1573],[1574],[1575],[1576],[1577],[1578],[1579],[1580],[1581],[1582],[1583],[1584],[1585],[1586],[1587],[1588],[1589],[1590],[1591],[1592],[1593],[1594],[1595],[1596],[1597],[1598],[1599],[1600],[1601],[1602],[1603],[1604],[1605],[1606],[1607],[1608],[1609],[1610],[1611],[1612],[1613],[1614],[1615],[1616],[1617],[1618],[1619],[1620],[1621],[1622],[1623],[1624],[1625],[1626],[1627],[1628],[1629],[1630],[1631],[1632],[1633],[1634],[1635],[1636],[1637],[1638],[1639],[1640],[1641],[1642],[1643],[1644],[1645],[1646],[1647],[1648],[1649],[1650],[1651],[1652],[1653],[1654],[1655],[1656],[1657],[1658],[1659],[1660],[1661],[1662],[1663],[1664],[1665],[1666],[1667],[1668],[1669],[1670],[1671],[1672],[1673],[1674],[1675],[1676],[1677],[1678],[1679],[1680],[1681],[1682],[1683],[1684],[1685],[1686],[1687],[1688],[1689],[1690],[1691],[1692],[1693],[1694],[1695],[1696],[1697],[1698],[1699],[1700],[1701],[1702],[1703],[1704],[1705],[1706],[1707],[1708],[1709],[1710],[1711],[1712],[1713],[1714],[1715],[1716],[1717],[1718],[1719],[1720],[1721],[1722],[1723],[1724],[1725],[1726],[1727],[1728],[1729],[1730],[1731],[1732],[1733],[1734],[1735],[1736],[1737],[1738],[1739],[1740],[1741],[1742],[1743],[1744],[1745],[1746],[1747],[1748],[1749],[1750],[1751],[1752],[1753],[1754],[1755],[1756],[1757],[1758],[1759],[1760],[1761],[1762],[1763],[1764],[1765],[1766],[1767],[1768],[1769],[1770],[1771],[1772],[1773],[1774],[1775],[1776],[1777],[1778],[1779],[1780],[1781],[1782],[1783],[1784],[1785],[1786],[1787],[1788],[1789],[1790],[1791],[1792],[1793],[1794],[1795],[1796],[1797],[1798],[1799],[1800],[1801],[1802],[1803],[1804],[1805],[1806],[1807],[1808],[1809],[1810],[1811],[1812],[1813],[1814],[1815],[1816],[1817],[1818],[1819],[1820],[1821],[1822],[1823],[1824],[1825],[1826],[1827],[1828],[1829],[1830],[1831],[1832],[1833],[1834],[1835],[1836],[1837],[1838],[1839],[1840],[1841],[1842],[1843],[1844]]},{"type":"MultiLineString","properties":{"source":"openstreetmap.org","kind":"major_road","kind_detail":"trunk","sort_rank":381,"landuse_kind":"urban_area","ref":"2","min_zoom":8.0},"arcs":[[1845],[1846],[1847],[1848],[1849],[1850]]},{"type":"MultiLineString","properties":{"source":"openstreetmap.org","kind":"highway","sort_rank":383,"kind_detail":"motorway","ref":"E6","min_zoom":8.0},"arcs":[[1851],[1852],[1853]]},{"type":"MultiLineString","properties":{"source":"openstreetmap.org","kind":"major_road","landuse_kind":"urban_area","sort_rank":380,"kind_detail":"primary","name:zh":"\u767d\u6c99\u7f57\u8def","min_zoom":8.0},"arcs":[[1854],[1855],[1856],[1857]]},{"type":"LineString","properties":{"kind":"major_road","sort_rank":380,"kind_detail":"primary","bus_network":null,"source":"openstreetmap.org","min_zoom":8.0,"bus_shield_text":"U80","landuse_kind":"urban_area","id":184246290},"arcs":[1858]},{"type":"MultiLineString","properties":{"bus_network":null,"sort_rank":381,"landuse_kind":"urban_area","kind":"major_road","source":"openstreetmap.org","min_zoom":8.0,"bus_shield_text":"146B","kind_detail":"trunk","ref":"54"},"arcs":[[1859],[1860],[1861]]},{"type":"MultiLineString","properties":{"source":"openstreetmap.org","kind":"major_road","landuse_kind":"urban_area","sort_rank":380,"kind_detail":"primary","ref":"3208","min_zoom":8.0},"arcs":[[1862],[1863],[1864]]},{"type":"MultiLineString","properties":{"bus_network":null,"sort_rank":380,"kind_detail":"primary","kind":"major_road","source":"openstreetmap.org","min_zoom":8.0,"bus_shield_text":"RED","landuse_kind":"urban_area"},"arcs":[[1865],[1866],[1867]]},{"type":"MultiLineString","properties":{"kind":"highway","name:en":"New Klang Valley Expressway","network":null,"short_name":"NKVE","sort_rank":383,"landuse_kind":"urban_area","source":"openstreetmap.org","min_zoom":8.0,"all_networks":[null],"kind_detail":"motorway","shield_text":"1","ref":"E1","all_shield_texts":["1"]},"arcs":[[1868],[1869],[1870],[1871],[1872],[1873],[1874],[1875],[1876]]},{"type":"MultiLineString","properties":{"source":"openstreetmap.org","kind":"major_road","kind_detail":"trunk","sort_rank":381,"landuse_kind":"urban_area","ref":"E37","min_zoom":8.0},"arcs":[[1877],[1878],[1879],[1880]]},{"type":"MultiLineString","properties":{"source":"openstreetmap.org","kind":"highway","name:en":"New North Klang Straits Bypass","sort_rank":383,"kind_detail":"motorway","ref":"E30","min_zoom":8.0},"arcs":[[1881],[1882],[1883],[1884],[1885],[1886],[1887],[1888],[1889],[1890]]},{"type":"MultiLineString","properties":{"kind":"highway","name:en":"Duta\u2013Ulu Klang Expressway","sort_rank":383,"kind_detail":"motorway","source":"openstreetmap.org","min_zoom":8.0,"landuse_kind":"urban_area","ref":"E33"},"arcs":[[1891],[1892]]},{"type":"MultiLineString","properties":{"source":"openstreetmap.org","kind":"major_road","sort_rank":381,"kind_detail":"trunk","ref":"3217","min_zoom":8.0},"arcs":[[1893],[1894]]},{"type":"LineString","properties":{"kind":"major_road","name:en":"Rawang Bypass","sort_rank":381,"kind_detail":"trunk","source":"openstreetmap.org","min_zoom":8.0,"name:zh":"\u4e07\u6320\u7ed5\u9053","id":541320157},"arcs":[1895]},{"type":"LineString","properties":{"source":"openstreetmap.org","kind":"major_road","name:en":"Batu Caves Roundabout","kind_detail":"trunk","sort_rank":381,"landuse_kind":"urban_area","min_zoom":8.0},"arcs":[1896]},{"type":"LineString","properties":{"source":"openstreetmap.org","kind":"major_road","ref":"98","sort_rank":380,"kind_detail":"primary","is_bicycle_related":true,"min_zoom":8.0},"arcs":[1897]},{"type":"MultiLineString","properties":{"kind":"major_road","network":null,"sort_rank":381,"kind_detail":"trunk","source":"openstreetmap.org","min_zoom":8.0,"shield_text":"1","ref":"1"},"arcs":[[1898],[1899],[1900],[1901],[1902]]},{"type":"LineString","properties":{"kind":"major_road","name:en":"Middle Ring Road 2","network":null,"short_name":"MRR2","sort_rank":381,"kind_detail":"trunk","bus_network":null,"source":"openstreetmap.org","min_zoom":8.0,"bus_shield_text":"146B","shield_text":"28","landuse_kind":"urban_area","ref":"28","id":25226847},"arcs":[1903]},{"type":"LineString","properties":{"kind":"highway","name:en":"Duta\u2013Ulu Klang Expressway","ref":"E33","sort_rank":383,"kind_detail":"motorway","source":"openstreetmap.org","min_zoom":8.0,"landuse_kind":"urban_area","name:zh":"\u6de1\u6c5f-\u5927\u4f7f\u8def\u5927\u9053","id":136605869},"arcs":[1904]},{"type":"MultiLineString","properties":{"kind":"highway","name:en":"Sprint Expressway (Damansara Link)","sort_rank":383,"landuse_kind":"urban_area","source":"openstreetmap.org","min_zoom":8.0,"kind_detail":"motorway","name:zh":"\u897f\u90e8\u758f\u6563\u5927\u9053\uff08\u767d\u6c99\u7f57\u7ebf\u8def\uff09","ref":"E23"},"arcs":[[1905],[1906],[1907],[1908]]},{"type":"MultiLineString","properties":{"kind":"major_road","name:en":"North Klang Straits Bypass","sort_rank":381,"landuse_kind":"urban_area","source":"openstreetmap.org","min_zoom":8.0,"kind_detail":"trunk","ref":"20;E30"},"arcs":[[1909],[1910]]},{"type":"LineString","properties":{"source":"openstreetmap.org","kind":"major_road","landuse_kind":"urban_area","sort_rank":380,"kind_detail":"primary","ref":"3213","min_zoom":8.0},"arcs":[1911]},{"type":"MultiLineString","properties":{"source":"openstreetmap.org","kind":"major_road","kind_detail":"trunk","sort_rank":381,"landuse_kind":"urban_area","name:zh":"\u53e4\u664b\u8def","min_zoom":8.0},"arcs":[[1912],[1913]]},{"type":"MultiLineString","properties":{"kind":"highway","name:en":"Ampang-Kuala Lumpur Elevated Highway","network":null,"short_name":"AKLEH","sort_rank":383,"landuse_kind":"urban_area","source":"openstreetmap.org","min_zoom":8.0,"all_networks":[null],"kind_detail":"motorway","shield_text":"12","ref":"E12","all_shield_texts":["12"]},"arcs":[[1914],[1915],[1916],[1917]]},{"type":"MultiLineString","properties":{"kind":"major_road","name:en":"Rawang Bypass","sort_rank":381,"landuse_kind":"urban_area","source":"openstreetmap.org","min_zoom":8.0,"kind_detail":"trunk","name:zh":"\u4e07\u6320\u7ed5\u9053","ref":"37"},"arcs":[[1918],[1919]]},{"type":"MultiLineString","properties":{"kind":"highway","ref":"E23","sort_rank":383,"kind_detail":"motorway","source":"openstreetmap.org","min_zoom":8.0,"landuse_kind":"urban_area","name:zh":"\u897f\u90e8\u758f\u6563\u5927\u9053\uff08\u53ef\u7075\u829d\u7ebf\u8def\uff09"},"arcs":[[1920],[1921]]},{"type":"MultiLineString","properties":{"source":"openstreetmap.org","kind":"major_road","kind_detail":"trunk","sort_rank":381,"landuse_kind":"urban_area","ref":"5","min_zoom":8.0},"arcs":[[1922],[1923],[1924],[1925],[1926],[1927],[1928],[1929],[1930]]},{"type":"LineString","properties":{"bus_network":"Area 6","name:en":"Federal Highway 2","network":null,"sort_rank":381,"landuse_kind":"urban_area","kind":"major_road","source":"openstreetmap.org","min_zoom":8.0,"bus_shield_text":"T527","shield_text":"2","kind_detail":"trunk","ref":"2"},"arcs":[1931]},{"type":"MultiLineString","properties":{"source":"openstreetmap.org","kind":"highway","ref":"E6","sort_rank":383,"kind_detail":"motorway","name:zh":"\u5e03\u57ce\u7ebf\u8def","min_zoom":8.0},"arcs":[[1932],[1933]]},{"type":"MultiLineString","properties":{"source":"openstreetmap.org","kind":"major_road","sort_rank":380,"kind_detail":"primary","ref":"B35","min_zoom":8.0},"arcs":[[1934],[1935],[1936]]},{"type":"MultiLineString","properties":{"source":"openstreetmap.org","kind":"highway","sort_rank":383,"kind_detail":"motorway","ref":"E9","min_zoom":8.0},"arcs":[[1937],[1938]]},{"type":"LineString","properties":{"source":"openstreetmap.org","kind":"highway","name:en":"Kuala Lumpur\u2013Kuala Selangor Expressway LATAR","sort_rank":383,"kind_detail":"motorway","ref":"E25","min_zoom":8.0},"arcs":[1939]},{"type":"MultiLineString","properties":{"kind":"major_road","name:zh":"\u8549\u8d56\u8def","sort_rank":381,"landuse_kind":"urban_area","source":"openstreetmap.org","min_zoom":8.0,"kind_detail":"trunk","ref":"1"},"arcs":[[1940],[1941],[1942],[1943],[1944],[1945],[1946],[1947]]},{"type":"MultiLineString","properties":{"source":"openstreetmap.org","kind":"major_road","name:en":"Selat Lumut Bridge","sort_rank":380,"kind_detail":"primary","ref":"181","min_zoom":8.0},"arcs":[[1948],[1949]]},{"type":"MultiLineString","properties":{"kind":"major_road","name:en":"Federal Highway 2","network":null,"sort_rank":381,"landuse_kind":"urban_area","source":"openstreetmap.org","min_zoom":8.0,"kind_detail":"trunk","shield_text":"2","ref":"2"},"arcs":[[1950],[1951],[1952],[1953],[1954],[1955]]},{"type":"MultiLineString","properties":{"kind":"highway","name:zh":"\u4e91\u9876\u68ee\u82ad\u96a7\u9053","network":"AsianHighway","sort_rank":383,"kind_detail":"motorway","source":"openstreetmap.org","min_zoom":8.0,"all_networks":["AsianHighway",null],"shield_text":"141","ref":"E8","all_shield_texts":["141","8"]},"arcs":[[1956],[1957]]},{"type":"LineString","properties":{"source":"openstreetmap.org","bus_network":null,"bus_shield_text":"U81","sort_rank":380,"kind_detail":"primary","min_zoom":8.0,"kind":"major_road"},"arcs":[1958]},{"type":"MultiLineString","properties":{"source":"openstreetmap.org","kind":"highway","landuse_kind":"urban_area","sort_rank":383,"kind_detail":"motorway","ref":"E13","min_zoom":8.0},"arcs":[[1959],[1960],[1961]]},{"type":"MultiLineString","properties":{"kind":"highway","name:en":"North\u2013South Expressway","network":"AsianHighway","ref":"E1","sort_rank":383,"kind_detail":"motorway","source":"openstreetmap.org","min_zoom":8.0,"all_networks":["AsianHighway",null],"shield_text":"2","name:zh":"\u5357\u5317\u5927\u9053","all_shield_texts":["2","1"]},"arcs":[[1962],[1963]]},{"type":"LineString","properties":{"kind":"highway","sort_rank":383,"kind_detail":"motorway","is_bicycle_related":true,"cycleway":"lane","source":"openstreetmap.org","min_zoom":8.0,"ref":"E25","id":159808157},"arcs":[1964]},{"type":"MultiLineString","properties":{"source":"openstreetmap.org","kind":"major_road","sort_rank":381,"kind_detail":"trunk","ref":"54","min_zoom":8.0},"arcs":[[1965],[1966],[1967],[1968],[1969],[1970],[1971],[1972]]},{"type":"MultiLineString","properties":{"source":"openstreetmap.org","kind":"highway","landuse_kind":"urban_area","sort_rank":383,"kind_detail":"motorway","ref":"E23","min_zoom":8.0},"arcs":[[1973],[1974],[1975],[1976],[1977],[1978],[1979],[1980],[1981],[1982],[1983],[1984],[1985]]},{"type":"LineString","properties":{"kind":"major_road","sort_rank":381,"kind_detail":"trunk","bus_network":null,"source":"openstreetmap.org","min_zoom":8.0,"bus_shield_text":"RED","landuse_kind":"urban_area","id":436312092},"arcs":[1986]},{"type":"LineString","properties":{"kind":"highway","name:en":"New Klang Valley Expressway","network":null,"ref":"E1","sort_rank":383,"kind_detail":"motorway","source":"openstreetmap.org","min_zoom":8.0,"all_networks":[null],"landuse_kind":"urban_area","shield_text":"1","name:zh":"\u65b0\u5df4\u751f\u6cb3\u6d41\u57df\u5927\u9053","id":319051205,"all_shield_texts":["1"]},"arcs":[1987]},{"type":"LineString","properties":{"kind":"highway","name:en":"Kajang Dispersal Link Expressway","short_name":"SILK","sort_rank":383,"kind_detail":"motorway","source":"openstreetmap.org","min_zoom":8.0,"landuse_kind":"urban_area","ref":"E18","id":23377099},"arcs":[1988]},{"type":"LineString","properties":{"source":"openstreetmap.org","kind":"major_road","sort_rank":380,"kind_detail":"primary","is_bicycle_related":true,"min_zoom":8.0,"id":250790441},"arcs":[1989]},{"type":"MultiLineString","properties":{"kind":"highway","name:en":"North\u2013South Expressway","network":"AsianHighway","ref":"E2","sort_rank":383,"landuse_kind":"urban_area","source":"openstreetmap.org","min_zoom":8.0,"all_networks":["AsianHighway"],"kind_detail":"motorway","shield_text":"2","name:zh":"\u5357\u5317\u5927\u9053","all_shield_texts":["2"]},"arcs":[[1990],[1991],[1992],[1993]]},{"type":"LineString","properties":{"source":"openstreetmap.org","kind":"major_road","ref":"8","sort_rank":380,"kind_detail":"primary","is_bicycle_related":true,"min_zoom":8.0},"arcs":[1994]},{"type":"LineString","properties":{"source":"openstreetmap.org","kind":"major_road","sort_rank":380,"kind_detail":"primary","ref":"B149","min_zoom":8.0},"arcs":[1995]},{"type":"MultiLineString","properties":{"source":"openstreetmap.org","kind":"major_road","sort_rank":380,"kind_detail":"primary","ref":"8","min_zoom":8.0},"arcs":[[1996],[1997],[1998],[1999],[2000]]},{"type":"MultiLineString","properties":{"kind":"highway","name:en":"New Pantai Expressway","short_name":"NPE","sort_rank":383,"landuse_kind":"urban_area","source":"openstreetmap.org","min_zoom":8.0,"kind_detail":"motorway","ref":"E10","name:zh":"\u65b0\u73ed\u5e95\u5927\u9053"},"arcs":[[2001],[2002],[2003],[2004],[2005],[2006],[2007],[2008],[2009],[2010],[2011],[2012],[2013],[2014],[2015],[2016],[2017],[2018],[2019],[2020],[2021],[2022],[2023],[2024]]},{"type":"MultiLineString","properties":{"source":"openstreetmap.org","kind":"major_road","old_name":"Jalan Duta","sort_rank":380,"kind_detail":"primary","landuse_kind":"urban_area","min_zoom":8.0},"arcs":[[2025],[2026]]},{"type":"LineString","properties":{"bus_network":null,"sort_rank":380,"kind_detail":"primary","kind":"major_road","source":"openstreetmap.org","min_zoom":8.0,"bus_shield_text":"T528","landuse_kind":"urban_area"},"arcs":[2027]},{"type":"MultiLineString","properties":{"source":"openstreetmap.org","kind":"major_road","sort_rank":380,"kind_detail":"primary","ref":"15","min_zoom":8.0},"arcs":[[2028],[2029]]},{"type":"LineString","properties":{"source":"openstreetmap.org","kind":"major_road","sort_rank":380,"kind_detail":"primary","ref":"31","min_zoom":8.0,"id":159469052},"arcs":[2030]},{"type":"MultiLineString","properties":{"kind":"highway","name:en":"New North Klang Straits Bypass","sort_rank":383,"kind_detail":"motorway","source":"openstreetmap.org","min_zoom":8.0,"landuse_kind":"urban_area","ref":"E30"},"arcs":[[2031],[2032],[2033],[2034],[2035],[2036],[2037]]}]},"earth":{"type":"GeometryCollection","geometries":[{"type":"MultiPolygon","properties":{"sort_rank":10,"source":"naturalearthdata.com","min_zoom":0.0,"kind":"earth","area":73409222408},"arcs":[[[2038]],[[2039]],[[2040]]]}]},"landuse":{"type":"GeometryCollection","geometries":[{"type":"MultiPolygon","properties":{"source":"naturalearthdata.com","kind":"urban_area","name":"","area":1251112661,"sort_rank":11,"min_zoom":4.0},"arcs":[[[2041]],[[2042]],[[2043]],[[2044],[2045],[2046]]]},{"type":"Polygon","properties":{"kind":"protected_area","natural":"wood","area":20936100,"sort_rank":17,"source":"openstreetmap.org","min_zoom":8.0,"tier":2,"id":130926979},"arcs":[[2047]]},{"type":"Polygon","properties":{"kind":"protected_area","natural":"wood","area":980334016,"sort_rank":17,"source":"openstreetmap.org","min_zoom":6.0,"tier":2,"id":-4462678,"osm_relation":true},"arcs":[[2048],[2049]]}]}},"type":"Topology","transform":{"translate":[101.25,2.8113711933],"scale":[0.0003433228,0.0003426689]},"arcs":[[[1092,2805],[-44,60],[-59,5],[12,78],[-19,35],[30,122],[-75,62],[-7,297],[-31,45],[-3,70],[41,130],[-118,126],[-50,-25],[-34,42],[-29,85],[33,136],[-123,18],[-3,5]],[[0,2523],[88,-24],[174,72],[21,55],[-61,216],[86,52],[52,-3],[40,-90],[107,-60],[50,6],[53,-106],[111,-50],[64,-62],[58,15],[23,55],[92,56],[7,143],[127,7]],[[0,2529],[0,-2]],[[1937,1300],[67,90],[48,-50],[54,8],[23,-99],[87,-41],[97,1],[53,-174],[41,-1],[13,47],[50,28],[46,-10],[6,28],[74,-1],[51,-53],[276,-91],[396,-89],[276,-320],[501,-329]],[[1092,2805],[97,-124],[70,-30],[11,-29],[161,-1],[0,-39],[79,-44],[56,-149],[82,-73],[-27,-162],[-60,-10],[-66,-110],[14,-89],[73,-156],[-81,-75],[-17,-79],[62,-43],[1,-51],[52,-22],[89,-118],[172,-95],[45,17],[32,-23]],[[1937,1300],[55,-13],[51,-113],[-27,-87],[69,-131],[-45,-77],[59,-234],[-81,-46],[5,-50],[-30,0],[-150,-387],[-382,8],[11,-170]],[[1063,998],[12,130],[50,52],[3,48],[77,35],[24,-48],[72,1],[53,-46],[26,48],[48,13],[-3,-52],[58,-80],[-27,-37],[-53,-4],[55,-38],[-45,-74],[12,-68],[40,-16],[-22,-65],[13,-84],[-55,0],[0,-56],[-23,-9],[-26,61],[-21,-24],[-112,-16],[-27,53],[-30,-4],[-7,42],[50,41],[-12,84],[-20,-13],[-27,26],[10,27],[-51,7],[-42,66]],[[1193,256],[36,48],[-21,83],[29,8],[-35,51],[133,53],[-25,-42],[44,-13],[1,-25],[46,0],[5,-75],[-73,0],[-20,-85],[-77,-68],[-26,9],[-17,56]],[[648,668],[-22,-20],[-79,36],[-18,-16],[-118,-111],[17,-34]],[[1259,1131],[33,-123],[-19,-64]],[[1273,944],[-5,-3]],[[1268,941],[-37,-47],[-7,-64]],[[1224,830],[-1,-1]],[[1223,829],[-54,-39],[-189,8],[-133,-69]],[[411,550],[2,-2],[-2,2]],[[444,588],[1,1],[-1,-1]],[[466,609],[1,0],[-1,0]],[[509,649],[0,1],[1,-1],[-1,0]],[[530,670],[1,0],[-1,0]],[[581,676],[0,1],[1,-1],[-1,0]],[[1223,830],[1,0]],[[1223,829],[0,1]],[[1268,943],[5,1]],[[1268,941],[0,2]],[[0,1481],[97,-82],[42,-47],[17,-58],[58,-380],[19,-37],[83,-66],[19,-38],[23,-140],[0,-76],[-33,-33],[-42,-16],[-42,-38],[-145,-179],[-6,-39],[66,-8],[-50,-132],[70,-47],[130,-13],[129,-30],[26,-22],[-461,0],[0,287],[17,8],[7,159],[-20,9],[-4,-4],[0,172],[28,8],[23,14],[11,33],[-25,29],[-37,-15],[0,781]],[[163,737],[-40,-61],[-70,-178],[-5,-31],[5,-18],[22,7],[17,14],[17,17],[43,30],[56,22],[40,38],[8,67],[-4,37],[3,21],[-4,38],[-37,18],[-51,-21]],[[0,1481],[97,-82],[42,-47],[17,-58],[58,-380],[19,-37],[83,-66],[19,-38],[23,-140],[0,-76],[-33,-33],[-42,-16],[-42,-38],[-145,-179],[-6,-39],[66,-8],[-50,-132],[70,-47],[130,-13],[129,-30],[26,-22]],[[62,686],[-25,29],[-37,-15]],[[0,631],[28,8],[23,14],[11,33]],[[255,702],[-4,38],[-37,18],[-51,-21],[-40,-61],[-70,-178],[-5,-31],[5,-18],[22,7],[17,14],[17,17],[43,30],[56,22],[40,38],[8,67],[-4,37],[3,21]],[[1075,1069],[0,50]],[[1370,1144],[34,33]],[[1411,1442],[4,18]],[[1416,1462],[-5,-20]],[[1525,1540],[-6,-9],[-6,1]],[[1514,1533],[10,6]],[[1839,0],[-104,66],[-19,37]],[[1717,103],[18,-36],[106,-67]],[[803,952],[-3,33]],[[791,735],[53,5]],[[1164,1015],[-17,-31]],[[1294,581],[-47,-38]],[[1268,548],[26,18]],[[1234,1238],[-3,69],[6,6],[-3,-75]],[[1279,1355],[-27,-31]],[[1072,1130],[18,0]],[[660,997],[11,-21],[10,-5],[-21,26]],[[1437,930],[14,84]],[[1451,1013],[-13,-83]],[[847,741],[20,19]],[[879,767],[-32,-27]],[[210,422],[61,11]],[[271,433],[5,1]],[[275,434],[-4,-1]],[[271,433],[-59,-9]],[[1117,1078],[49,-16]],[[438,541],[12,-18],[10,-1]],[[460,522]],[[460,522],[-8,-23]],[[452,499],[0,-1],[-4,-4],[1,-4]],[[449,490],[-1,4],[3,5],[1,0]],[[452,499],[5,4],[3,19]],[[460,522]],[[460,522],[-17,20]],[[1321,849],[3,3]],[[1324,852],[5,5]],[[1363,897]],[[1363,897],[-2,-4],[-25,-23],[-12,-18]],[[1324,852],[-1,-1]],[[1383,903],[-20,-6]],[[1363,897],[-1,0],[-36,11]],[[1328,908],[34,-11],[64,32]],[[1331,861],[43,39]],[[1426,929],[-36,-24]],[[1486,938],[-14,3],[-3,1],[-27,-7]],[[1442,935],[27,7],[4,-1]],[[1478,940],[16,-4]],[[654,1023],[6,-26]],[[471,1727],[9,-52]],[[481,1671],[0,-11]],[[1725,426],[15,-31]],[[1741,394],[1,-3]],[[1742,391],[2,-3]],[[1744,388],[15,-32]],[[1780,323],[-21,33]],[[1780,323],[3,-6]],[[1783,317],[1,-2]],[[1790,294],[-5,12],[-1,9]],[[1785,307],[7,-18]],[[1794,285],[9,-32]],[[1803,253],[-8,28]],[[1803,253],[6,-73]],[[551,954],[-16,174],[25,51]],[[551,948],[0,6]],[[551,954],[1,-6]],[[3106,1958],[2,-1]],[[3181,1951],[-38,21],[-36,-16],[36,16],[38,-21],[15,19]],[[3335,1901],[-59,34],[-11,-3]],[[3265,1932],[-21,-5],[-28,32]],[[3216,1960],[49,-28]],[[3265,1932],[116,-64]],[[741,933],[-13,3]],[[741,933],[56,-13]],[[873,822],[0,4]],[[1565,104],[-137,22],[-83,-31],[-156,14],[-250,372],[12,116]],[[951,597],[-12,-115],[251,-372],[57,0],[98,-15],[76,30],[6,2],[138,-14],[1,-13]],[[800,669],[5,-38]],[[805,631],[-3,4]],[[443,542],[-32,38]],[[411,580],[-7,8],[-2,3]],[[402,591],[3,-2],[6,-9]],[[411,580],[27,-39]],[[1294,571],[0,2]],[[1317,593],[1,2]],[[1212,1107],[-120,25]],[[1093,1133],[119,-25]],[[1374,1083],[-46,11],[-36,15]],[[1292,1109],[82,-26]],[[1309,1111],[-3,-4],[-6,0],[-5,1]],[[1297,1203],[0,-55]],[[1302,1139],[-10,17],[5,47]],[[1297,1108],[11,3]],[[1471,1074],[-5,3]],[[1475,1063],[-2,9]],[[1477,1065],[-2,-7]],[[873,826],[1,-17]],[[896,924],[17,-27]],[[914,895],[36,-19]],[[866,664],[-5,21]],[[846,739],[-2,1],[2,1],[1,-1],[-1,-1]],[[855,702],[-1,2],[2,2],[1,-2],[-2,-2]],[[1210,475],[-40,7]],[[1170,482],[40,-7]],[[1141,854],[9,5]],[[142,347],[8,12]],[[150,359],[-8,-12]],[[144,291],[-11,14]],[[133,305],[-6,8]],[[127,313],[-1,0],[5,9]],[[131,322],[28,46]],[[159,368],[1,1]],[[160,369],[-1,-1]],[[159,368],[-7,-8],[-21,-38]],[[131,322],[-4,-9]],[[127,313],[-1,-1],[7,-7]],[[133,305],[11,-14]],[[195,422],[4,0]],[[480,1675],[1,-4]],[[531,570],[1,1]],[[532,571],[1,0]],[[533,571],[1,0]],[[534,571],[25,7],[-25,-7]],[[534,571],[-1,0]],[[533,571],[-2,-1]],[[531,572],[1,-1]],[[532,571],[0,-1]],[[532,570],[-1,-1]],[[538,525],[-2,14]],[[536,539]],[[536,539],[-3,32]],[[533,571]],[[533,571],[-2,14]],[[532,586],[2,-15]],[[534,571]],[[534,571],[5,-31]],[[539,540],[0,-1]],[[539,539],[2,-14]],[[533,539],[3,0]],[[536,539],[3,1]],[[539,540],[27,3]],[[566,543],[1,0]],[[567,543],[-2,-1]],[[565,542],[-26,-3]],[[539,539],[-3,0]],[[536,539],[-2,0]],[[554,590],[-14,2]],[[540,593],[14,-3]],[[565,542]],[[565,542],[1,1]],[[566,543]],[[567,542],[-1,0]],[[723,588],[-31,0]],[[714,721],[-10,-1]],[[707,721],[7,1]],[[715,723],[-1,0]],[[764,706]],[[764,706],[-34,-1],[-15,16]],[[716,722],[14,-17],[33,1]],[[763,706]],[[755,724],[-39,-2]],[[717,723],[39,2]],[[770,611],[-4,-12],[-42,-11]],[[724,588],[46,23]],[[728,805],[8,4]],[[737,809],[-7,-3]],[[764,687],[-30,16]],[[735,703],[30,-15]],[[756,726],[-1,7]],[[756,733],[2,-8]],[[756,726],[3,-1]],[[759,725],[0,-2]],[[759,723],[-3,0],[0,3]],[[765,688],[-1,15],[0,1],[0,2]],[[764,706],[-1,0]],[[763,706],[-5,16]],[[759,723],[6,-19],[2,-16]],[[759,725],[9,2]],[[769,727],[-9,-3]],[[765,688],[2,-1],[-1,-2],[-2,1],[1,2]],[[801,686],[-35,0]],[[767,687],[34,0]],[[770,612],[8,11]],[[779,623],[-8,-11]],[[774,1480],[-14,-22],[22,-71]],[[778,625],[4,6]],[[782,630],[-3,-6]],[[788,1487],[-8,-4]],[[801,688],[-2,12]],[[800,700],[3,-11]],[[804,687],[-2,-27],[0,26]],[[804,689],[12,4]],[[815,691],[-11,-4]],[[804,687],[-2,-1]],[[802,686],[-1,1]],[[801,687],[2,2],[1,-2]],[[808,29],[3,2]],[[815,32],[4,2]],[[853,559],[-8,15]],[[845,574],[9,-15]],[[851,496],[9,26]],[[872,448],[-20,46]],[[861,521],[-8,-25]],[[853,494],[19,-46]],[[861,524],[-7,33]],[[855,558],[7,-35]],[[861,524],[1,-1],[-1,-2]],[[861,521],[-1,1],[1,2]],[[888,936],[-17,22]],[[877,579],[13,0]],[[890,579]],[[890,579],[14,0]],[[904,579],[1,0]],[[905,579],[11,0]],[[916,578],[-4,0]],[[912,578],[-20,0]],[[892,578],[-2,0]],[[890,578]],[[890,578],[-3,0],[-10,0]],[[886,1000],[-6,-19]],[[885,942],[-6,39],[6,19]],[[926,594],[1,-3]],[[927,591]],[[927,591],[5,-13],[-1,0]],[[931,578],[-6,-1]],[[925,577]],[[925,577],[-35,-7]],[[890,570],[-1,0],[0,1],[1,7]],[[890,578],[0,1]],[[890,579]],[[892,578]],[[892,578],[-2,-2]],[[890,579]],[[890,579],[0,-1]],[[890,578],[0,-7],[0,-1]],[[890,570],[35,6]],[[925,576]],[[925,576],[6,2]],[[931,578],[-4,12]],[[927,590],[-1,0]],[[926,590],[-1,4]],[[904,578],[0,1]],[[904,579],[0,13]],[[904,592],[1,-13]],[[905,579],[0,-1]],[[906,521],[-1,41]],[[905,562],[2,-41]],[[916,575],[-4,3]],[[912,578]],[[924,567],[1,9]],[[925,576],[0,1]],[[925,577],[1,13]],[[926,590],[1,1]],[[927,591],[0,3]],[[927,594],[0,-3]],[[927,591],[0,-1]],[[927,590],[-2,-13]],[[925,577],[0,-1]],[[925,576],[-1,-9]],[[944,1028],[-16,9]],[[928,1037],[16,-9]],[[968,597],[-1,2]],[[1065,498],[36,-35],[-36,35]],[[1091,468],[-15,-14]],[[1076,454],[0,-1]],[[1076,453]],[[1076,453],[-7,-9]],[[1069,444],[0,-1]],[[1069,444]],[[1069,444],[2,-1]],[[1071,443],[0,-1]],[[1070,441],[1,2]],[[1071,443],[5,10]],[[1076,453],[0,1]],[[1076,454]],[[1090,435],[-14,18]],[[1076,453],[0,1]],[[1076,454]],[[1076,454],[15,15]],[[1076,454]],[[1076,454],[14,-19]],[[1083,484],[31,22]],[[1114,506],[-3,-5],[-28,-18]],[[1093,301],[-6,31]],[[1087,332],[6,-31]],[[1090,435]],[[1090,435],[44,28],[20,-38]],[[1154,425],[6,1]],[[1160,426],[25,4]],[[1182,428],[-22,-2]],[[1160,426],[-6,-1]],[[1154,425],[-19,38],[-45,-28]],[[1094,301],[101,27],[2,-1]],[[1197,327],[1,0]],[[1198,327],[10,-1],[8,-20]],[[1216,306],[5,-16]],[[1221,290],[1,0],[-22,1],[-8,3],[-2,-1]],[[1190,293]],[[1190,293],[-54,-18]],[[1136,275],[-1,0]],[[1135,275],[-32,-10]],[[1104,265],[31,10]],[[1135,275],[0,1]],[[1135,276],[55,17]],[[1190,293],[0,1]],[[1190,294],[2,0],[8,-3],[21,-1]],[[1221,290],[1,0],[-6,16]],[[1216,306],[-8,20],[-11,-3]],[[1197,323],[-1,0]],[[1196,323],[-102,-22]],[[1127,1884],[70,-91]],[[1128,322],[1,1]],[[1183,417],[9,-16]],[[1192,401],[16,-27],[-10,-47]],[[1198,327],[-1,-4]],[[1197,323],[-7,-29]],[[1190,294],[0,-1]],[[1190,293],[-7,-30],[-31,-7]],[[1152,256],[-9,-2]],[[1143,254],[-1,-1],[-7,22]],[[1135,275]],[[1135,275],[-6,19]],[[1129,324],[2,-2]],[[1129,293],[6,-17]],[[1135,276],[1,-1]],[[1136,275],[7,-21]],[[1143,254],[0,-1],[9,3]],[[1152,256],[31,7],[7,30]],[[1190,293]],[[1190,293],[6,30]],[[1196,323],[1,4]],[[1197,327],[10,47],[-15,27]],[[1192,401],[-10,18]],[[1150,436],[0,-1]],[[1152,426]],[[1169,252]],[[1175,255],[-1,0]],[[1188,495],[-8,-35],[8,35],[59,42]],[[1214,389],[83,30],[8,-1],[4,1]],[[1309,419]],[[1309,419],[39,9]],[[1348,428]],[[1348,428],[10,2],[11,28]],[[1369,456],[-11,-27],[-9,-2]],[[1349,427],[-1,0]],[[1348,427],[-39,-9]],[[1309,418]],[[1309,418],[-4,-1],[-8,2],[-83,-30]],[[1217,236],[2,0],[3,1]],[[1222,237],[3,1],[21,10]],[[1246,248],[1,1],[11,-20]],[[1258,229]],[[1258,229],[2,-3],[2,-2]],[[1261,224],[-2,2],[-1,3]],[[1258,229],[-1,0]],[[1257,229],[-11,19]],[[1246,248],[-24,-11]],[[1222,237],[-3,-1],[-2,0]],[[1221,509],[1,-1]],[[1223,510],[-1,0]],[[1257,280]],[[1257,280],[0,1]],[[1257,281],[-13,12]],[[1244,293],[-1,1],[-3,9]],[[1240,303],[4,-9],[0,-1]],[[1244,293],[2,-4],[6,-6],[5,-2]],[[1257,281],[0,-1]],[[1257,280],[1,0]],[[1251,262],[0,3]],[[1252,264],[-1,-2]],[[1251,265],[4,10]],[[1252,264],[-1,1]],[[1256,274],[-4,-10]],[[1255,275],[2,5]],[[1257,280]],[[1257,280],[5,17]],[[1262,297],[1,1]],[[1263,298],[3,10],[12,36]],[[1255,275],[1,-1]],[[1274,290],[-11,7]],[[1263,297],[-1,0]],[[1262,297],[-7,5]],[[1255,302],[5,-1],[3,-3]],[[1263,298],[1,0]],[[1264,298],[11,-7]],[[1257,280],[-1,-6]],[[1277,379],[-20,1]],[[1258,280],[-1,0]],[[1262,278],[-5,2]],[[1258,381],[19,-2]],[[1279,344],[-9,-28],[-6,-18]],[[1264,298],[-1,-1]],[[1263,297],[-5,-17]],[[1258,280],[4,-1]],[[1262,411],[-1,1]],[[1262,412],[0,-1]],[[1349,365],[-5,-11],[-1,-1]],[[1343,353],[-2,-2]],[[1341,351],[-3,-3],[-50,-65],[-10,3]],[[1278,287],[10,-4],[54,72]],[[1342,355],[1,1]],[[1279,345],[2,6]],[[1281,351],[-2,-6]],[[1283,357],[1,2]],[[1284,359],[-1,-2]],[[1296,378],[-11,3]],[[1286,381],[11,1]],[[1315,397],[-5,19],[-1,2]],[[1309,418],[0,1]],[[1309,419],[-5,11],[0,1]],[[1304,431],[-1,9]],[[1303,440],[0,4],[-3,26],[-8,9]],[[1293,479],[7,-9],[3,-26],[0,-4]],[[1303,440],[0,-7],[1,-2]],[[1304,431],[0,-1],[5,-11]],[[1309,419],[0,-1]],[[1309,418],[1,-1],[11,-20]],[[1311,333],[-6,18],[-2,19]],[[1308,370],[3,-37]],[[1343,356],[9,66]],[[1352,422],[-4,5]],[[1348,427],[0,1]],[[1348,428],[-2,3]],[[1346,431],[2,-3]],[[1348,428],[1,-1]],[[1349,427],[3,-4],[0,-1]],[[1352,422],[-10,-67]],[[1342,355],[-1,-4]],[[1341,351],[-1,-9],[6,-15]],[[1346,327],[14,-35],[-9,-8]],[[1351,284],[-46,-40]],[[1305,244],[-1,-2],[-26,-3],[-2,-1],[-18,-9]],[[1258,229]],[[1258,229],[-17,-8],[-77,23],[77,-23],[16,8]],[[1257,229],[1,0]],[[1258,229],[18,9],[1,2],[27,3],[1,1]],[[1305,244],[48,25],[-2,15]],[[1351,284],[-5,43]],[[1346,327],[-3,26]],[[1343,353],[0,3]],[[1393,1159],[0,2]],[[1415,1019],[-3,12],[1,10],[10,42],[4,12],[-3,34],[16,11]],[[1440,1140],[-25,-121]],[[1528,1608],[15,17],[-21,41],[-9,46]],[[1513,1716],[39,7]],[[1552,1723],[-4,21]],[[1548,1744],[-1,8],[46,41],[1,-18]],[[1515,1713],[29,-88],[-15,-17]],[[1594,1774],[-46,-30]],[[1548,1744],[-1,0],[5,-21]],[[1552,1723],[0,-1],[-37,-6]],[[1554,1575],[5,14]],[[1559,1589],[2,5],[-33,13]],[[1529,1608],[33,-14],[-3,-5]],[[1559,1589],[-7,-16]],[[1543,263],[-63,37],[85,102],[4,69]],[[1736,397],[-136,-147]],[[1663,33],[11,8]],[[1736,397],[3,1]],[[1744,388],[150,-16],[-150,16]],[[1762,392]],[[1762,351],[0,1]],[[1765,390],[1,0]],[[1772,2870],[-3,-12]],[[1785,311],[0,-4]],[[1923,2075],[-12,9]],[[2309,3971],[-34,-8]],[[2282,3950],[58,41]],[[3196,1970]],[[3395,1841],[-5,12]],[[3390,1853],[27,-16]],[[3408,1861],[16,-15]],[[723,588],[1,1],[0,-1],[-1,0]],[[770,611],[1,1],[0,-1],[-1,0]],[[778,625],[1,-1],[-1,-1],[0,1],[0,1]],[[853,559],[1,0],[1,-1]],[[855,558],[-2,-1],[0,2]],[[913,897],[1,-2],[-2,-1],[-1,2],[2,1]],[[1094,301],[0,-1],[-2,0],[1,1]],[[1093,301],[1,0]],[[1279,345],[1,-1],[-1,0],[-1,1],[1,0]],[[1287,363],[-1,-4],[-3,2],[1,3],[3,-1]],[[1324,382],[-16,-12]],[[1308,370],[-12,7],[19,20]],[[1315,397],[9,-15]],[[1558,11],[1,2],[3,0],[-1,-3],[-3,1]],[[2104,3508],[-1,0],[1,0]],[[2341,3992],[0,-1],[-1,-1],[0,1],[1,1]],[[999,798],[105,14]],[[1105,812],[24,35]],[[1150,859],[45,26]],[[1670,498],[-11,-8],[-74,-7],[-6,0]],[[1579,483],[90,15]],[[552,943],[-1,5]],[[552,948],[0,-5]],[[552,943],[5,-54]],[[558,878],[-1,11]],[[557,889],[1,-11]],[[1208,383],[6,6]],[[1214,389],[-6,-6]],[[1245,887],[4,2]],[[1249,889],[-3,-2]],[[1296,959],[1,0]],[[845,739],[-7,0]],[[847,700],[-11,-21],[-15,13]],[[822,692],[23,7]],[[1513,1712],[-1,3],[3,1],[0,-3],[-2,-1]],[[889,774],[-6,33]],[[933,635],[-49,21]],[[884,807],[4,-16]],[[884,657],[25,-4],[25,-18]],[[934,635]],[[888,791],[2,-17]],[[950,638],[-36,-14]],[[933,635],[1,0]],[[934,635],[16,4]],[[1551,562],[11,-17]],[[1344,1118],[26,26]],[[1404,1177],[35,35]],[[1181,113],[12,-3]],[[1193,110]],[[1193,110],[0,-1]],[[1193,109],[0,-1],[5,-74],[20,-34]],[[1218,0],[-21,34],[-4,74],[0,2]],[[1193,110]],[[1193,110],[0,-1]],[[1193,109],[1,0]],[[788,1011],[-39,160],[6,31]],[[755,1202],[-5,-31],[33,-137],[5,-22]],[[813,1273],[6,10]],[[819,1283],[-5,-10]],[[891,1379],[-2,-13]],[[889,1367],[1,-2]],[[1092,797],[-33,-11]],[[1059,787],[33,11]],[[1180,789],[16,4]],[[31,1507],[95,87],[181,9],[77,30]],[[858,696],[-12,43]],[[847,740],[14,-55]],[[739,1340],[31,-1]],[[580,695],[1,49]],[[1247,537],[19,9]],[[1267,547],[1,1]],[[1294,566],[0,5]],[[1294,573],[5,14]],[[1299,587],[10,-1]],[[1309,586],[8,7]],[[1318,595],[4,12]],[[1322,608],[12,16]],[[1335,625],[8,7],[6,4]],[[1348,635],[-13,-10]],[[1009,874],[34,5]],[[1043,879],[-34,-5]],[[1573,86],[-8,18]],[[1566,100],[1,-6],[5,-8]],[[92,4044],[58,-123],[1,-34],[5,-125],[0,-104],[27,-75],[1,-3],[15,-131],[54,-64],[-1,-58],[55,-117],[67,-50],[65,-144],[53,-15],[6,-7],[97,-228],[1,-2],[66,-124],[14,-40],[154,-184],[0,-54],[-11,-6]],[[819,2356],[-26,-15]],[[793,2341],[-13,-55]],[[780,2286],[0,-2],[16,-39]],[[796,2245],[5,-10],[-19,-101],[47,-168],[24,-152]],[[853,1812],[-71,322],[18,102],[-4,9]],[[796,2245],[-16,41]],[[780,2286],[12,54],[1,1]],[[793,2341],[26,15]],[[819,2356],[11,6],[0,54],[-154,183],[-81,165],[-97,230],[-59,22],[-65,144],[-67,50],[-55,117],[1,58],[-54,64],[-44,209],[-6,263]],[[882,1562],[6,50],[7,28]],[[895,1640],[7,28]],[[902,1668],[-33,45],[-2,9]],[[868,1721],[34,-52],[0,-1]],[[902,1668],[-7,-28]],[[895,1640],[-7,-28],[-6,-50]],[[889,1310],[3,65],[-1,0]],[[891,1375],[-18,40]],[[873,1415],[19,-38],[-1,-2]],[[891,1375],[-7,-59],[4,-5]],[[1208,744],[1,0]],[[1327,665],[-7,76]],[[1320,741],[8,-76]],[[851,756],[-147,-21]],[[704,735],[181,34]],[[1152,1032],[29,3]],[[1182,1035],[-30,-3]],[[150,359],[29,54],[12,4]],[[191,417],[19,5]],[[199,422],[-5,0],[-3,-5]],[[191,417],[-33,-49],[-8,-9]],[[199,422],[12,1]],[[1147,984],[17,31],[16,19],[12,10]],[[1192,1044],[-28,-29]],[[1009,932],[91,1]],[[1120,937],[-110,6]],[[1033,325],[44,14],[15,9]],[[1092,348]],[[1092,348]],[[1113,386],[-21,-38]],[[1092,348],[-1,-3],[-14,-6],[-39,-13]],[[1091,347],[1,1]],[[1092,348],[21,38]],[[867,1722],[-14,90]],[[853,1814],[15,-93]],[[873,1415],[-14,31],[42,48],[-19,68]],[[882,1562],[19,-69],[-42,-47],[14,-31]],[[888,1311],[32,-39],[45,-93],[5,-28],[0,-42],[34,-20]],[[1008,1086],[-38,23],[-6,70],[-75,131]],[[1248,970],[-21,35]],[[1228,1005],[22,-39]],[[71,4096],[-39,-42]],[[1135,867],[-29,25]],[[1107,894],[32,3]],[[1135,851],[1,15]],[[1137,847],[-1,3]],[[1137,847],[-1,3]],[[1144,843],[-7,4]],[[1144,843],[-3,2]],[[1159,852],[-15,-9]],[[1155,842],[-10,1]],[[1156,896],[16,-24]],[[1156,862],[4,-9]],[[1159,849],[-3,-6]],[[1173,870],[-1,-31]],[[348,596],[-4,0],[-3,3]],[[341,599],[-9,8]],[[336,603],[5,-4]],[[341,599],[3,-3],[10,4]],[[355,594],[-8,-1],[-7,4]],[[766,1193],[51,-12]],[[967,765],[12,0]],[[975,764],[-7,0]],[[1060,768],[-77,-4]],[[983,765],[77,3]],[[1137,792],[-2,1]],[[1223,819],[-1,13]],[[1226,824],[4,1]],[[1226,823],[1,-2]],[[1226,824],[4,1]],[[1239,824],[-11,0]],[[1230,825],[9,0]],[[1233,900],[1,1]],[[771,1481],[29,5]],[[800,985],[-4,20]],[[800,1011],[31,5]],[[803,959],[15,-63]],[[818,896],[-15,56]],[[841,1009],[-10,7]],[[841,1009],[9,-6]],[[850,1003],[22,-3]],[[872,1000],[-22,3]],[[954,1079],[1,45],[6,28]],[[966,1150],[-11,-70]],[[961,1152],[-3,-15]],[[1490,492],[-7,0]],[[1466,1077],[-21,6]],[[1445,1084],[20,-5]],[[1471,347],[-2,16],[-4,15]],[[1465,378],[-1,3],[-33,125],[-104,159]],[[1328,665],[103,-158],[33,-125],[0,-1],[1,-3]],[[1465,378],[5,-32]],[[1320,741],[0,38]],[[1321,779],[-1,-38]],[[883,807],[-8,10],[-15,35],[-42,39],[-8,20],[-9,37],[-13,63]],[[788,1012],[31,-121],[41,-39],[24,-45]],[[843,750],[3,-9]],[[861,685],[-3,11]],[[838,739],[-47,-6]],[[1019,1604],[-7,-9]],[[1013,1597],[6,7]],[[1019,1604],[6,4]],[[1025,1608],[5,8]],[[1225,1091],[-1,47]],[[1224,1138],[1,-47]],[[1396,877],[-10,10]],[[1388,886],[9,-10]],[[1424,829],[-9,15]],[[1415,844],[2,-2],[6,-8],[1,-4]],[[1433,789],[-1,15]],[[1432,805],[1,-16]],[[1445,781],[12,-2]],[[1649,502],[-83,29]],[[1578,530],[71,-28]],[[1649,502],[2,-1]],[[1089,959],[-9,12]],[[817,1181],[37,-31]],[[1134,1919],[58,-27],[20,-39],[-25,-38]],[[1083,350],[-14,59],[0,2],[0,2]],[[1069,413],[0,15],[2,11],[-17,36]],[[1054,475],[-1,2],[18,41]],[[1071,518],[-17,-40],[0,-3]],[[1054,475],[15,-62]],[[1069,413],[0,-2],[0,-2],[14,-59]],[[4096,2571],[-6,5],[-2,70],[-45,91],[24,148],[-58,147],[-76,64],[-224,-16],[-165,63],[-54,55],[2,67],[-39,86],[-155,-74],[-55,9],[-40,-50],[-97,51],[-87,-51],[-120,92],[-62,-27],[-100,99],[-120,-11],[-67,75],[-83,5],[-71,53],[-156,0],[-80,-68],[-56,54]],[[564,503],[46,4],[103,-6],[91,56]],[[804,557],[-91,-56],[-149,2]],[[912,1619],[7,-13]],[[926,1603],[-7,3]],[[926,1603],[9,-3]],[[936,1599],[-1,1]],[[935,1600],[1,-1]],[[1132,1028],[-18,2]],[[1407,494],[-2,0]],[[1494,496],[-4,-4]],[[1524,604],[-9,-2]],[[808,1285],[-37,81]],[[632,744],[-1,-2]],[[631,742],[0,-1],[-1,0]],[[630,741]],[[630,741],[-15,3]],[[633,742],[-2,0]],[[631,742],[-1,-1]],[[630,741]],[[630,741],[2,3]],[[694,791],[-10,-8],[-14,-10]],[[684,783],[9,8]],[[887,823],[-8,-1],[-107,2]],[[773,824],[114,-1]],[[1019,1077],[3,4],[51,3],[5,0]],[[1078,1084],[-56,-14]],[[1116,1078],[1,0]],[[1193,1067],[-11,-4]],[[1196,1073],[2,-4]],[[1213,1033]],[[1213,1033],[-6,0],[-4,2]],[[1204,1035],[3,-1],[4,-1],[2,0]],[[1213,1033],[5,-2]],[[599,2736],[30,24],[84,-12],[86,-131],[-2,-53]],[[797,2565],[-85,183],[-83,12],[-22,-28],[-8,4]],[[1320,949],[-18,10]],[[1302,959],[18,-10]],[[1366,1253],[17,3]],[[1383,1256],[7,1],[7,39]],[[1397,1296],[-7,-39],[-7,-1]],[[1383,1256],[-7,-1]],[[3217,1867],[-20,5]],[[3102,1964],[10,-17]],[[950,876]],[[1061,1044],[9,7]],[[1070,1050],[-9,-7]],[[1065,996],[-3,39]],[[1062,1035],[3,-38]],[[1071,1052],[4,17]],[[1077,1105],[-1,-36],[-5,-18]],[[896,1702],[-2,113]],[[894,1815],[2,-113]],[[896,1702],[5,-25]],[[85,3874],[0,11]],[[588,2789],[-10,24]],[[708,2625],[93,-64]],[[946,2381],[86,-100]],[[1033,2276],[-1,5]],[[1108,2055],[35,118],[-110,103]],[[1034,1622],[17,13]],[[1034,1622],[-4,-6]],[[1051,1635],[7,6]],[[1058,1641],[7,6]],[[1076,1657],[-11,-10]],[[1076,1657],[28,49],[-7,87],[45,194],[-27,57]],[[1115,2044],[-7,11]],[[1651,501],[4,-5]],[[1655,496],[16,-7]],[[1671,489],[9,-5]],[[1680,484],[33,-48],[12,-10],[-45,58]],[[1809,180],[-24,-48],[21,-68],[129,-64]],[[1155,842],[1,0]],[[958,1480],[32,81]],[[1012,1595],[-22,-34]],[[990,1561],[23,36]],[[333,608],[3,-5]],[[888,791]],[[1530,699],[-2,3],[-4,27]],[[1524,729],[6,-30]],[[1395,1226],[-28,26],[-1,0]],[[1366,1252],[-216,-35],[-78,-87]],[[1072,1130],[77,87],[217,36],[0,-1]],[[1366,1252],[29,-27]],[[1329,743],[65,47],[46,84],[-3,56]],[[1438,930],[3,-56],[-47,-85],[-65,-46]],[[1451,1014],[37,124],[-67,62]],[[1421,1200],[67,-63],[-37,-124]],[[846,2475],[-14,16]],[[1114,1031],[18,-2]],[[1240,303],[22,108]],[[1262,411],[-22,-108]],[[211,423],[9,1]],[[901,1677],[11,-58]],[[1306,1041],[3,17]],[[1247,543],[-59,-48]],[[92,4044],[56,-112],[7,-272],[1,-2]],[[156,3658],[43,-207]],[[199,3451],[0,-2],[55,-68]],[[254,3381],[1,-1],[0,-4]],[[255,3376],[-1,-54],[59,-119]],[[313,3203],[1,-4],[78,-51],[47,-132],[50,-12],[39,-51],[141,-345]],[[669,2608],[34,-40]],[[703,2568],[127,-150],[0,-56],[-11,-6]],[[819,2356],[-26,-15]],[[793,2341],[-13,-55]],[[780,2286],[0,-2],[16,-39]],[[796,2245],[5,-10],[-18,-108],[4,-17]],[[787,2110],[68,-273]],[[860,1837],[-73,273]],[[787,2110],[-5,18],[18,108],[-4,9]],[[796,2245],[-16,41]],[[780,2286],[12,54],[1,1]],[[793,2341],[26,15]],[[819,2356],[11,6],[0,55],[-127,151]],[[703,2568],[-34,40]],[[669,2608],[-1,2],[-140,343],[-40,51],[-49,12],[-48,132],[-77,51],[-1,4]],[[313,3203],[-40,94],[-18,79]],[[255,3376],[-1,5]],[[254,3381],[-1,4],[-54,66]],[[199,3451],[-1,1],[-42,203],[0,3]],[[156,3658],[-7,263]],[[883,1563],[-2,5],[23,83]],[[904,1651],[-42,75]],[[862,1726],[-1,2],[0,2]],[[862,1729],[0,-3]],[[862,1726],[42,-75]],[[904,1651],[1,-1],[-22,-87]],[[891,1301],[-14,22],[15,52],[-20,40]],[[873,1415],[19,-40],[-2,-70]],[[1197,1793],[120,-275],[-38,-163]],[[212,424],[-13,-2]],[[210,422]],[[396,513],[-25,1],[-57,-70],[-39,-10]],[[276,434],[38,10],[57,70],[25,-1]],[[564,503],[-127,-16],[-27,4]],[[410,491],[154,12]],[[1125,495],[-13,12]],[[1113,507],[13,-11]],[[845,741],[-4,8]],[[1669,498],[28,53],[-65,80],[-70,28],[-136,-33],[-68,2]],[[1365,629],[61,-3],[83,28],[11,1],[10,-3],[4,2],[28,5],[3,0],[67,-27],[66,-82],[-15,-39],[-2,-4],[-11,-9]],[[1387,549],[1,8]],[[1388,557],[-1,-8]],[[1579,483],[-11,0],[-12,3],[-9,1],[-3,0],[-17,4]],[[1527,491],[-11,2],[-15,0]],[[1501,493],[-3,0],[-7,0],[-8,-1],[-48,4],[-20,-3],[-8,1]],[[1413,494],[22,2],[52,-3]],[[1487,493],[11,0],[3,0]],[[1501,493],[26,-2]],[[1527,491],[3,0],[49,-8]],[[1487,493],[40,40],[-14,66],[2,3],[1,0]],[[1516,602],[7,3],[2,-1],[1,-11]],[[1515,602],[-1,-3],[13,-60],[0,-6],[-33,-37]],[[1528,589],[-4,8],[-8,5]],[[1516,602],[-1,0]],[[874,809],[77,-212]],[[951,597],[-67,162],[-15,59],[18,5]],[[1308,856],[12,17]],[[1374,971],[-2,-7]],[[1372,966],[2,5]],[[520,743],[-16,-8]],[[520,743],[15,8]],[[535,751],[50,13]],[[588,763],[-3,1]],[[585,764],[3,-1]],[[1228,993],[-54,-49]],[[1174,944],[25,28]],[[1204,989],[22,4]],[[770,1339],[-4,0]],[[693,791],[80,33]],[[772,824],[-78,-33]],[[1663,33],[-39,-31]],[[1058,727],[-1,78],[-48,69]],[[1009,874],[49,-69],[1,-20],[0,-49]],[[1015,610],[3,0]],[[1017,610],[-2,0]],[[1065,997],[24,-38],[4,-22],[-1,-4],[-2,-7],[-13,-20],[-18,-22],[-16,-5]],[[1043,879],[46,47],[3,11],[-3,22]],[[1050,600],[3,-26]],[[1052,574],[-2,17]],[[1060,727],[3,-6]],[[1062,1035],[-1,9]],[[1061,1043],[1,-8]],[[1090,951],[-25,45]],[[1066,719],[4,-4]],[[1070,1051],[1,1]],[[1071,1051],[-1,-1]],[[1036,65],[11,2],[0,-4],[6,-50]],[[1053,13],[0,-1],[17,-5]],[[1070,7],[7,-2],[63,-4],[4,-1]],[[1143,0],[-66,4],[-7,3]],[[1070,7],[-17,6]],[[1053,13],[-1,0],[-6,52]],[[1099,1144],[19,30],[100,-26]],[[1272,1069],[-31,72]],[[1241,1141],[31,-72]],[[1294,1048],[-22,21]],[[1272,1069],[22,-21]],[[1295,1047],[6,-4]],[[1230,885],[-47,-8]],[[1195,885],[35,0]],[[896,1325],[46,55],[95,41]],[[1248,970],[0,4]],[[1249,975],[2,2]],[[1249,974],[1,-8]],[[1251,977],[-2,-3]],[[1252,978],[23,61]],[[1275,1039],[-22,-61]],[[1278,1041],[5,5]],[[1284,1046],[-6,-5]],[[1284,1047],[5,4]],[[1289,1051],[-4,-4]],[[1296,1055],[8,3]],[[1386,1032],[49,3],[10,-3]],[[1445,1031],[-59,0]],[[1104,812],[1,0]],[[1152,1032],[-20,-4]],[[1132,1029],[20,3]],[[1181,1035],[2,2]],[[1184,1037],[-2,-2]],[[852,620],[-2,-2]],[[1674,41],[-11,-8]],[[713,269],[-6,-3],[-44,-17],[91,43]],[[754,292],[-2,-1]],[[1270,472],[1,0]],[[1271,472],[-1,0]],[[812,31],[-7,-3]],[[811,31],[1,0]],[[812,31],[27,11]],[[843,44],[-4,-2]],[[843,44],[20,6]],[[863,50],[26,16]],[[889,66],[136,1]],[[1025,67],[35,-5]],[[1060,62],[41,-7],[71,67],[44,-10],[33,26]],[[1249,138],[5,-4]],[[1254,134],[16,0]],[[1421,226],[-119,-32]],[[1302,194],[-32,-60]],[[1270,134],[32,60]],[[1302,194],[0,1],[119,31]],[[1421,226],[36,11]],[[1406,493],[-20,39],[1,17]],[[1387,549],[17,-47]],[[354,600],[17,5],[31,-14]],[[402,591],[-47,3]],[[2165,0],[4,19]],[[2184,96],[95,177],[112,99],[143,79],[85,-2],[43,49],[59,10],[45,-12],[99,-98],[79,-10]],[[1404,1177],[-34,-33]],[[1310,1058],[-4,-18]],[[1390,905],[-7,-2]],[[3090,0],[60,117],[-36,126],[-170,145],[-11,157],[-70,88],[-44,135],[19,128],[-57,48],[-36,126],[-80,50],[-25,111],[-87,23],[-7,38],[-135,138],[-13,63],[-40,12],[13,90],[-13,53],[-53,35],[-6,71]],[[3321,1944],[18,196],[-42,97],[22,100],[-77,431],[77,433],[-31,74]],[[3300,1922],[10,17]],[[3321,1944],[-11,-5]],[[1249,889],[47,70]],[[1297,959],[-48,-70]],[[743,1340],[-112,3],[-11,2],[-24,10],[-61,38],[-151,10],[-20,36]],[[364,1439],[20,-36],[151,-10],[26,-13],[35,-24],[32,-12],[111,-4]],[[955,637],[-5,1]],[[950,639],[5,-1]],[[1007,610],[-45,15]],[[963,625],[44,-15]],[[1166,382],[11,51],[72,75]],[[1249,507],[-71,-74],[-12,-51]],[[3216,1959],[-35,-8]],[[3196,1970],[20,-10]],[[3390,1853],[-55,48]],[[3381,1868],[9,-15]],[[3417,1836],[-22,5]],[[1472,1008],[-1,-6]],[[800,1486],[1,0]],[[801,1486],[5,-1]],[[806,1485],[24,-16]],[[837,1462],[-7,7]],[[830,1469],[30,-26]],[[860,1443],[35,14]],[[895,1457],[-33,-14],[-2,0]],[[947,1476],[-52,-19]],[[1374,471],[31,24]],[[1405,494],[-31,-24]],[[1404,502],[3,-12]],[[1407,490],[-1,3]],[[1464,1157],[-22,5],[-2,3]],[[1441,1165],[19,-7]],[[1444,937],[8,74]],[[1452,1011],[-7,-74]],[[1468,1154],[-2,2]],[[1467,1156],[1,-2]],[[1277,379],[9,2]],[[1285,381],[-8,-2]],[[1372,964],[-47,-84],[-18,-27]],[[1320,873],[52,93]],[[890,774],[3,-51],[-36,-19]],[[890,767],[-1,7]],[[893,735],[-2,22]],[[856,705],[37,30]],[[891,757],[-1,10]],[[1388,558],[-41,78],[-51,165],[1,6],[17,12],[7,30]],[[1323,851],[-9,-33],[-10,-10],[-6,-1],[36,-80],[-2,-40],[33,-79],[-1,-3],[24,-38],[0,-9]],[[411,546],[-10,1]],[[1019,1473],[10,-16]],[[15,4089],[-15,7]],[[20,4084],[-5,5]],[[31,4056],[-11,28]],[[33,4050],[-2,6]],[[31,4056],[2,-6]],[[95,3807],[17,-15]],[[187,3437],[-73,248]],[[701,2629],[-69,40],[-54,144],[-116,150]],[[816,2540],[-15,21]],[[191,3429],[13,-15],[13,-35],[5,-7],[7,-14],[1,-2],[1,-1],[8,-27],[32,-38],[28,-77],[93,-93],[30,-109],[-30,108],[-108,103],[-93,207]],[[1342,604],[40,-45]],[[1387,554],[-5,5]],[[1382,559],[5,-5]],[[1428,385],[-6,8]],[[1422,393],[-23,33]],[[1399,426],[-1,3],[9,58]],[[1407,487],[3,-25],[-11,-36]],[[1399,426],[0,-1],[23,-32]],[[1422,393],[6,-8]],[[1436,384],[32,-2]],[[1327,1107],[-11,44],[32,26],[-2,54]],[[1351,1213],[-3,-35]],[[1348,1178],[0,-1],[-32,-26],[11,-38]],[[1348,1178]],[[1348,1178]],[[1351,1253],[20,11]],[[1371,1263],[-20,-10]],[[962,625],[-7,12]],[[955,638],[8,-13]],[[397,821],[-22,9],[-29,14],[-4,33],[1,24],[23,48],[-67,25],[-53,23],[-51,62],[-6,61],[2,147],[-29,41],[-48,118],[-56,53],[-58,59]],[[0,1538],[114,-111],[77,-160],[4,-208],[51,-62],[121,-48],[-21,-105],[51,-23]],[[0,1599],[7,-9],[6,-44],[-13,-5]],[[0,1542],[0,56]],[[538,742],[-66,18]],[[477,756],[61,-14]],[[541,739],[-3,3]],[[560,568],[-3,7]],[[557,575],[-3,10]],[[554,585],[-1,0]],[[554,585],[5,-14]],[[626,251],[24,76],[-14,95],[-49,83],[-29,68],[-1,2]],[[557,575],[-3,7],[0,3]],[[554,585],[-1,5],[2,16]],[[556,606],[81,-184],[13,-95],[-23,-76]],[[728,4],[27,7],[18,3],[30,26]],[[803,40],[16,13]],[[819,53],[-36,58],[-1,1],[-54,74],[-25,29]],[[703,215],[-14,16],[-59,18]],[[630,249],[-3,1]],[[627,251],[3,-2]],[[630,249],[73,-34]],[[703,215],[2,-1],[24,-28],[54,-74],[36,-58],[0,-1]],[[819,53],[-16,-13]],[[803,40],[-30,-26],[-45,-10]],[[721,0],[1,3]],[[724,3],[-3,-3]],[[560,1395],[-78,74],[-177,-28],[-108,14],[-81,-27]],[[640,1287],[10,-21]],[[594,694],[25,12]],[[619,706],[-25,-13]],[[888,769],[111,29]],[[1183,877],[-79,-66],[-216,-42]],[[1129,847],[12,7]],[[1230,885],[15,2]],[[1246,887],[-16,-2]],[[113,1428],[3,0]],[[558,872],[7,-2]],[[565,870],[120,-50]],[[685,820],[3,-1]],[[688,818],[-3,2]],[[685,820],[-46,35],[-74,15]],[[565,870],[-1,0],[-4,-19]],[[576,781],[2,-37]],[[702,1235],[3,-7]],[[706,1225],[4,-8]],[[728,4],[-6,-1]],[[722,3],[6,1]],[[749,160],[1,-2]],[[752,156]],[[794,1190],[-9,-5]],[[927,1037],[-16,8]],[[911,1046],[17,-8]],[[996,1442]],[[996,1442],[3,-1]],[[1159,1278],[-6,4]],[[1153,1282],[-2,1],[12,82],[-89,55],[-11,-4],[-20,11],[-46,14],[-1,1]],[[996,1442]],[[997,1443],[2,-2]],[[999,1441],[76,-20],[88,-56],[0,-48],[-9,-15],[-1,-20]],[[1153,1282],[-1,0],[7,-4]],[[1239,186],[-45,34]],[[3197,1872],[20,-5]],[[3417,1838],[1,-1]],[[627,251],[-1,-1],[0,1],[1,0]],[[3417,1837],[1,0],[-1,-1],[0,1]],[[112,3691],[0,-20]],[[155,3505],[11,-13]],[[173,3477],[4,-11]],[[191,3429],[-4,8]],[[440,2984],[17,-15]],[[808,2555],[9,-18]],[[817,2537],[-1,3]],[[817,2537],[15,-46],[109,-81],[5,-29]],[[1281,351],[2,6]],[[1283,357],[-2,-6]],[[846,781],[6,35],[4,-3]],[[856,813],[20,-11]],[[857,816],[-1,-3]],[[856,813],[-8,-32]],[[877,802],[0,-17],[-29,-6]],[[848,780],[27,21]],[[878,803],[13,71]],[[892,874],[7,-23],[-1,-3],[-14,-41],[-6,-4]],[[1194,220],[14,107],[-6,102]],[[1202,429],[-4,60]],[[1197,490],[5,-61]],[[1202,429],[7,-102],[-15,-107],[19,-29],[26,-5],[21,-15],[35,-35],[1,-136]],[[1296,0],[-4,39],[2,96],[-34,35],[-9,3],[-12,13]],[[1474,772],[-17,7]],[[1457,779],[17,-6]],[[1010,946],[11,123]],[[1022,1070],[-12,-125]],[[598,751],[2,-3],[3,0]],[[603,748],[43,-9]],[[645,739],[-40,6],[-2,3]],[[603,748],[-3,3]],[[1247,875],[-9,-55],[-21,-31],[-21,4]],[[1205,792],[35,40],[8,50],[1,4]],[[1249,886],[1,7]],[[1239,886],[10,1],[0,-1]],[[1249,886],[0,-2],[-2,-9]],[[1251,892],[-4,-17]],[[401,547],[-208,39],[-85,-30],[-48,60],[-52,-15]],[[3105,3673],[21,71]],[[622,750],[1,0]],[[796,711],[-5,16],[-4,18]],[[787,745],[9,-34]],[[835,591],[-6,7]],[[833,593],[2,-2]],[[1060,618],[-10,-16]],[[1063,629],[-2,-9]],[[1218,1031],[2,-3]],[[1230,1111],[-8,-8]],[[1230,692],[0,1]],[[1295,808],[1,2]],[[1297,818],[0,5]],[[1297,1203],[26,47]],[[1318,1238],[-20,-34]],[[1405,495],[2,0]],[[1473,941],[5,-1]],[[1560,482],[-1,3]],[[1634,549]],[[1676,501],[9,15]],[[1686,517],[-9,-16]],[[819,1283],[70,84]],[[889,1366],[-70,-83]],[[1417,225],[-15,-43],[45,-182]],[[462,2963],[-40,48]],[[1196,793],[9,-1]],[[1470,346],[3,-24]],[[1473,322],[2,-9],[0,-3],[31,-49],[6,-44],[35,-25]],[[1547,192],[22,-16]],[[1569,176],[1,-1],[-4,-75]],[[1565,104],[-1,24],[5,48]],[[1569,176],[-22,16]],[[1547,192],[-36,25],[-5,34],[-1,9],[-30,50],[-1,3],[-1,9]],[[1473,322],[-2,25]],[[1577,25],[50,23]],[[1627,48],[-49,-23]],[[2024,1963],[-1,0]],[[855,1837],[14,-56]],[[869,1781],[2,-5],[-9,-47]],[[861,1730],[8,51]],[[869,1781],[2,13],[-11,43]],[[872,1415],[-13,28],[1,1]],[[860,1444],[33,40]],[[893,1484],[8,10],[-18,69]],[[883,1563],[18,-70],[-8,-9]],[[893,1484],[-34,-38],[1,-2]],[[860,1444],[13,-29]],[[890,1305],[78,-132],[2,-64],[34,-20]],[[1008,1086],[-38,23],[-3,64],[-76,128]],[[755,1202],[58,71]],[[814,1273],[-59,-71]],[[804,557],[111,147],[41,31],[47,-1],[13,-2],[28,-9],[13,-10],[55,31],[54,7],[42,-7]],[[850,618],[-46,-61]],[[1329,743],[-9,-8],[-27,-3],[-43,4],[-84,15],[-110,-38],[-98,22],[-106,-115]],[[1209,744],[120,-1]],[[950,875]],[[985,649],[-27,-35]],[[958,611],[1,-3]],[[960,633],[25,16]],[[1001,797],[-6,19]],[[504,735],[-99,-58]],[[4096,2257],[-52,8],[-190,-21],[-97,-87],[-110,-17],[-124,-98],[-181,-13],[-143,4],[-84,49],[-163,24],[-237,-8],[-368,-176],[-113,-108],[-25,10]],[[2209,1824],[25,-10],[30,31],[83,78],[279,142],[89,34],[237,7],[164,-24],[83,-49],[143,-4],[4,1],[80,12],[23,2],[74,-1],[124,97],[110,18],[97,86],[190,21],[52,-8]],[[578,744],[2,-50]],[[654,719],[-2,1]],[[658,722],[-3,-3]],[[796,1005],[4,6]],[[951,1475],[46,-32]],[[996,1442],[-43,30]],[[969,1457],[-4,3]],[[972,1455],[4,-5]],[[994,1443],[2,-1]],[[995,808],[3,-8]],[[995,813],[0,-3]],[[1332,698],[-192,-4],[-41,2],[-20,12]],[[1088,703],[244,-4]],[[1095,1135],[-1,-3]],[[1159,1278],[5,-3]],[[1164,1275],[63,-35],[0,-4]],[[1227,1236],[0,-64]],[[1227,1172],[0,-20],[-3,-14]],[[1224,1138],[3,14],[0,20]],[[1227,1172],[1,64],[-1,0]],[[1227,1236],[-63,39]],[[1164,1275],[-5,3]],[[1226,1086],[-1,5]],[[1248,1069],[-20,6],[-3,14]],[[1225,1091],[28,-25]],[[1290,969],[12,-10]],[[1302,959],[-6,1],[-6,4],[-2,20],[2,10]],[[1291,994],[0,-23]],[[1359,913],[-39,36]],[[1320,949],[3,-1],[65,-62]],[[1359,913],[-7,2]],[[1386,887],[-27,26]],[[1436,789],[-6,0]],[[1431,790],[6,0]],[[1527,523],[-3,6]],[[1524,529],[3,-6]],[[1530,521],[-3,2]],[[1566,531],[-6,0],[-10,-6],[-20,-4]],[[1530,521],[48,9]],[[1332,698],[0,1]],[[1332,699],[1,-1],[-1,0]],[[1419,842],[2,-2],[-2,-2],[-2,2],[2,2]],[[1333,721],[2,18]],[[1335,739],[-2,-19]],[[1308,1058],[2,0]],[[1010,945],[-2,-21],[-11,-51],[-14,-19],[-2,0],[-94,-31]],[[887,823],[96,32],[27,91]],[[1398,1387],[13,55]],[[1411,1442],[-13,-55]],[[1415,1460],[99,73]],[[1513,1532],[-97,-70]],[[1524,1539],[18,32]],[[1542,1570],[-17,-30]],[[1563,1574],[17,7]],[[1665,1573],[-102,0]],[[3379,222],[519,-6],[129,53],[69,0]],[[240,302],[25,-32]],[[265,270],[-20,25]],[[265,270],[60,-82],[135,-10],[90,49],[113,22]],[[364,1439],[-2,11]],[[364,1450],[0,-11]],[[595,509],[-2,0]],[[766,1339],[-23,1]],[[802,635],[-6,76]],[[796,711],[4,-42]],[[856,1329],[-6,12]],[[851,1342],[17,4]],[[860,1337],[0,-2]],[[862,1336],[2,3]],[[1210,341],[-13,6]],[[1213,341],[7,-2]],[[1663,382],[9,-2]],[[3696,2146],[-3,3]],[[3108,1957],[0,-3]],[[1015,610],[-8,0]],[[1007,610],[8,0]],[[1070,715],[16,-11],[-2,-10],[-24,-76],[-40,-8]],[[1020,610],[-3,0]],[[1018,610],[2,0]],[[1020,610],[38,1],[27,86]],[[1050,591],[-1,13]],[[1112,507],[-60,67]],[[1053,574],[60,-67]],[[1071,714],[-8,6],[-5,7]],[[1059,736],[1,-7]],[[1060,729],[0,-2]],[[1060,729],[3,-9],[3,-1]],[[1063,721],[14,-10]],[[1075,1119],[2,-14]],[[1913,2086],[9,-11]],[[797,920],[8,1],[-8,-1]],[[752,291],[-39,-22]],[[1421,1200],[-2,3]],[[1419,1203],[-24,23]],[[1395,1225],[24,-22]],[[1419,1203],[2,-3]],[[955,1080],[-1,-4],[-52,-72],[-23,-5],[-7,1]],[[872,1000],[82,79]],[[938,1055],[8,11]],[[1198,489],[-73,6]],[[1126,496],[71,-6]],[[600,1235],[-23,-32]],[[577,1203],[-9,-14],[-8,-10],[17,24]],[[606,1243],[-6,-8]],[[616,1254],[-10,-11]],[[628,1263],[-12,-9]],[[644,1270],[-16,-7]],[[1072,1130],[-159,26]],[[770,1339],[100,-9]],[[870,1330],[-100,9]],[[647,1271],[-3,-1]],[[600,751],[-11,11]],[[589,762],[-1,1]],[[588,763],[1,-1]],[[589,762],[9,-11]],[[1440,1165],[-1,2],[-15,12],[-5,5],[-33,41],[-41,27],[-31,-13],[-59,-3],[-18,-11],[-4,-2],[-9,-2],[-6,-1],[-20,7],[-59,-23],[-20,-17],[-17,-37],[-1,-1]],[[1101,1149],[-14,-21],[-15,2]],[[1099,1144],[2,5]],[[1101,1149],[1,1],[1,3],[16,34],[20,18],[59,22],[147,25],[41,-26],[33,-42],[20,-17],[2,-2]],[[1329,743],[8,4]],[[1337,747],[33,35]],[[1370,782],[1,2],[25,12],[16,39],[34,55],[-2,47]],[[1445,937],[1,-47],[-49,-94],[-26,-13],[-1,-1]],[[1370,782],[-32,-23],[-1,-12]],[[1337,747],[0,-1],[-8,-3]],[[1452,1011],[42,115],[-26,28]],[[1468,1154],[27,-28],[-2,-8],[-20,-65],[-12,-29],[-9,-13]],[[1460,1158],[7,-2]],[[1466,1156],[-2,1]],[[1524,729],[-50,43]],[[1474,773],[25,-17],[25,-27]],[[1521,616],[-6,16],[-2,8],[17,59]],[[1550,561],[-25,34],[-2,16]],[[1530,699],[-2,-22],[-3,-9],[-12,-27],[2,-9],[8,-21],[2,-16],[25,-34]],[[1376,789],[-126,96]],[[1250,885],[91,-60],[35,-36]],[[1674,41],[11,52],[33,11],[89,-42]],[[870,1330],[7,-4]],[[897,1325],[-10,-2],[-10,2],[-7,5]],[[2024,1963],[91,-30],[94,-109]],[[2209,1824],[-55,63],[-39,46],[-91,30]],[[995,816],[-45,59]],[[1301,1043],[5,-5]],[[754,292],[15,3]],[[769,295],[52,9],[3,2]],[[824,306],[92,75],[68,2]],[[985,383],[-69,-3],[-89,-74],[-3,0]],[[824,306],[-55,-11]],[[769,295],[-15,-3]],[[1210,475],[4,1],[56,-4]],[[1270,472],[-60,3]],[[1271,472],[29,11],[74,-12]],[[1374,470],[-4,-3],[-5,-1],[-15,1],[-11,2],[-39,14],[-29,-11]],[[149,3921],[-99,175]],[[58,4096],[34,-52]],[[654,1023],[-42,61],[13,47],[-35,90]],[[681,971],[18,-27]],[[699,944],[29,-8]],[[1397,1296],[1,91]],[[1398,1387],[-1,-91]],[[1580,1581],[85,-8],[16,15],[49,11],[121,79],[3,1],[35,202],[18,40],[13,13],[20,13],[1,0],[83,16]],[[2023,1963],[-115,-42],[-53,-241],[-125,-81],[-65,-26]],[[481,1660],[84,57],[206,-236]],[[1374,1083],[39,9]],[[1413,1092],[-34,-10],[-5,1]],[[618,1315],[9,-12]],[[1550,561],[47,23],[91,-88]],[[1687,496],[-90,88],[-45,-23],[-2,0]],[[1092,798],[6,-1]],[[1108,796],[-16,1]],[[1168,789],[12,0]],[[1196,793],[-10,-4],[-16,-1]],[[1544,0],[14,11]],[[1559,10],[-14,-10]],[[1561,13],[16,12]],[[1578,25],[-16,-12]],[[384,1633],[97,27]],[[2169,19],[15,77]],[[1061,1415],[-8,4],[-8,8],[-17,29]],[[1050,1425],[13,-8]],[[1202,1084],[-1,-1]],[[1201,1083],[-8,-16]],[[1198,1071],[3,12]],[[1201,1083],[1,1]],[[1445,1083],[-32,9]],[[1413,1092],[32,-8]],[[1363,1026],[-27,25]],[[1336,1052],[5,-5]],[[1370,960],[0,54]],[[913,1156],[159,-26]],[[3389,0],[-10,317],[-59,30],[-63,218],[-16,383],[23,3],[81,152],[61,23],[8,122],[38,73],[56,1],[33,121],[-49,60],[-18,69],[-61,19],[46,81],[-65,65],[15,37],[46,18],[-27,47]],[[3425,1843],[2,-3]],[[3428,1839],[-4,7]],[[1716,103],[-37,122],[9,100],[-10,13],[-15,62],[43,78],[-19,18]],[[1688,496],[18,-18],[-43,-78],[25,-75],[-8,-100],[37,-122]],[[1278,286],[-4,4]],[[1275,291],[3,-4]],[[1337,754],[0,4]],[[1388,557],[0,1]],[[1388,558],[0,-1]],[[877,1326],[19,-1]],[[984,383],[40,1],[26,15],[15,4],[5,9],[11,32],[15,22],[47,22],[27,-6]],[[1170,482],[-74,-16],[-30,-63],[-39,-19],[-3,-1],[-12,-1],[-27,1]],[[2205,1830],[37,-38]],[[2242,1792],[-36,34]],[[3102,1964],[-89,54],[-153,-33],[-169,28],[-144,-90],[-67,-5],[-177,-164],[-61,38]],[[3112,1947],[85,-75]],[[3217,1867],[151,-68],[46,32]],[[3414,1831],[10,11]],[[3424,1842],[44,0],[67,52],[42,-16],[211,165],[103,25],[129,72],[53,-24],[23,21]],[[1370,1144],[-38,-37]],[[1440,1211],[-36,-34]],[[1249,508],[19,244],[21,44],[67,91],[10,55]],[[1367,942],[-10,-52],[-1,-3],[-66,-92],[-9,-25],[-13,-18],[5,-24],[-11,-190],[-13,-31]],[[1523,611],[-2,5]],[[950,876],[45,-70]],[[1071,518],[4,10],[-19,61],[1,13],[1,7]],[[1059,611],[16,-83],[-4,-10]],[[1089,703],[92,49]],[[1181,752],[-25,-21],[-66,-28]],[[1181,752],[32,36]],[[1320,779],[-18,27],[-1,3],[-4,22],[0,1],[31,54]],[[1328,885],[-31,-55],[24,-51]],[[484,607],[14,-7]],[[498,600],[1,0],[31,-6]],[[530,594]],[[530,594],[10,-2]],[[496,601],[2,-1]],[[498,600],[1,0],[31,-5]],[[530,595],[0,-1]],[[530,594],[10,-1]],[[518,631]],[[518,631],[-1,0]],[[524,619],[-6,12]],[[518,631],[0,1]],[[518,632],[6,-13]],[[524,619],[-1,-1]],[[531,585],[-1,9]],[[530,594],[0,1]],[[530,595],[-5,22]],[[525,617],[6,-22],[-1,-1]],[[530,594]],[[530,594],[2,-8]],[[553,651],[8,6]],[[562,655],[-9,-4]],[[563,656],[-4,-6]],[[579,686],[-3,-10],[-12,-19]],[[564,658],[15,29],[12,5]],[[655,712],[-66,-21]],[[647,737],[54,33],[1,-1]],[[702,769],[3,-5]],[[707,768],[-5,1]],[[702,769],[-1,0],[-51,-35]],[[704,720],[-49,-8]],[[655,712],[16,11],[31,-3]],[[702,720]],[[702,720],[1,0],[4,1]],[[656,714],[0,1]],[[702,720]],[[702,720],[0,15],[15,42]],[[717,777]],[[717,777],[11,28]],[[730,806],[-12,-30]],[[718,776]],[[718,776],[-15,-41],[-1,-15]],[[702,720]],[[703,733],[7,-6]],[[710,727],[4,-4]],[[714,723],[-4,4]],[[710,727],[-4,5]],[[746,755],[-28,21]],[[718,776],[-1,1]],[[717,777],[-4,3]],[[713,780],[4,-3]],[[717,777],[1,-1]],[[718,776],[28,-20]],[[714,723],[1,0]],[[715,723],[2,0]],[[736,809],[3,0]],[[739,809],[3,-1]],[[742,808]],[[742,808],[28,-1]],[[770,807]],[[770,807],[2,0],[11,-7],[11,-8]],[[794,792]],[[794,792],[22,-17],[8,-7]],[[824,767],[-30,24]],[[794,791],[-1,1]],[[793,792],[-10,8],[-16,3]],[[767,803]],[[767,803],[-24,5]],[[743,808],[-1,0]],[[742,808],[-3,1]],[[739,809],[-2,0]],[[748,783],[-6,25]],[[742,808]],[[742,808],[0,2]],[[742,810],[0,-2]],[[742,808],[1,0]],[[743,808],[6,-24]],[[746,757],[2,26]],[[749,782],[-2,-24]],[[755,733],[-8,22]],[[747,758],[12,9]],[[748,756],[8,-23]],[[759,766],[-11,-9]],[[750,782],[-2,1]],[[748,783],[1,1]],[[749,784],[2,-1]],[[751,783],[-1,-1]],[[760,768],[-10,14]],[[750,784],[17,19]],[[767,803],[3,4]],[[770,807],[1,0],[-1,0]],[[770,807],[-3,-4]],[[767,803],[-16,-20]],[[751,782],[10,-14]],[[777,779],[-18,14]],[[759,793],[19,-13]],[[825,766],[-43,0]],[[782,766]],[[782,766],[-21,0]],[[761,766]],[[761,766],[-1,0]],[[760,766]],[[761,766]],[[761,766],[4,-8],[15,-5]],[[761,768],[16,10]],[[778,778],[-16,-11]],[[768,727],[20,7]],[[788,732],[-19,-5]],[[781,780],[12,12]],[[793,792],[1,0]],[[794,792],[3,3]],[[797,795],[-3,-3]],[[794,792],[0,-1]],[[794,791],[-12,-12]],[[782,779],[-1,-1],[-2,0]],[[779,778]],[[779,778],[-2,0]],[[777,778],[1,2]],[[778,780],[1,0]],[[779,780]],[[779,780],[3,-1]],[[787,745],[-3,12],[-1,5],[0,1],[-1,3]],[[782,766],[-1,3],[-1,5],[0,3],[-1,1]],[[779,778],[0,2]],[[779,780],[-1,1],[-3,9],[4,-9],[0,-1]],[[779,780],[0,-2]],[[779,778],[1,-1],[2,-8],[0,-3]],[[782,766],[1,-2],[4,-19]],[[788,734],[2,1],[1,-2],[-2,-1],[-1,2]],[[800,926],[-3,23]],[[854,703],[-39,-12]],[[816,693],[38,11]],[[824,767],[1,2]],[[825,769],[1,-2],[-1,-1]],[[825,766],[-1,1]],[[825,769],[21,11]],[[846,779],[-20,-11]],[[826,768],[15,-13]],[[828,646],[-1,33]],[[827,679],[2,-33]],[[828,645],[0,1],[1,0]],[[829,646],[0,-1],[-1,0]],[[830,636],[-2,9]],[[829,645],[2,-9]],[[840,614],[-10,20]],[[831,634],[9,-20]],[[835,591],[4,-5],[6,-12]],[[845,574],[-9,16]],[[837,843],[5,17],[1,2],[20,9],[2,0]],[[865,871],[4,1],[2,1],[21,1]],[[891,874],[-21,-2],[-5,-2]],[[865,870],[-1,0]],[[864,870],[-20,-8],[-7,-19]],[[878,803],[-6,-4],[-23,6]],[[861,685],[23,-28]],[[865,849],[-1,21]],[[864,870],[0,1]],[[865,871]],[[865,871],[0,-1]],[[865,870],[3,-27]],[[884,656],[-18,8]],[[877,802],[1,1]],[[888,787],[-11,-3]],[[877,785],[11,2]],[[904,594]],[[904,594]],[[904,594],[12,0]],[[916,594],[-12,0]],[[904,594]],[[904,594]],[[904,592],[0,2]],[[904,594]],[[904,594],[0,6],[0,1],[8,23]],[[913,624],[-9,-23],[0,-1],[0,-6]],[[904,594]],[[904,594],[0,-2]],[[913,624],[-5,29]],[[909,653],[4,-28]],[[913,624],[0,1],[1,0],[0,-1]],[[914,624],[-1,0]],[[925,594],[-12,30]],[[913,625],[20,10]],[[914,624],[12,-30]],[[927,594],[1,12]],[[929,606],[-2,-12]],[[939,637],[-7,-3]],[[988,1004],[-37,-10]],[[951,994],[-2,1]],[[949,995]],[[949,995],[-4,2],[-2,4]],[[946,1027],[-2,1]],[[944,1028],[3,-1]],[[953,1483],[-3,-6]],[[950,1477]],[[950,1477]],[[950,1477],[-1,-1],[-2,0]],[[948,1482],[2,-5]],[[950,1477],[1,-2]],[[950,992],[0,1]],[[950,993]],[[950,993],[1,1]],[[951,994],[0,1],[36,10]],[[950,1477]],[[950,1477],[3,-4]],[[962,1503],[-11,-11]],[[952,1474],[-2,3]],[[950,1477],[-2,4],[-2,9],[5,2]],[[951,1492],[2,-8]],[[953,1483],[0,1]],[[953,1484],[1,0]],[[954,1484],[-1,-1]],[[954,1484],[5,-1]],[[959,1483]],[[1064,1001],[-50,-15],[-8,1],[-56,6]],[[950,993],[-1,0],[0,2]],[[949,995],[8,40]],[[957,1034],[-8,-39]],[[949,995],[0,-2],[1,0]],[[950,993],[61,-6],[3,0],[50,26]],[[971,614],[-14,22]],[[958,1481],[1,2]],[[959,1483],[4,21],[0,3]],[[967,599],[-8,9],[1,9]],[[963,618],[1,-1]],[[965,616],[-2,3]],[[985,649],[14,114]],[[1000,763],[-1,-30],[-14,-84]],[[999,741],[0,26],[0,20],[0,1]],[[999,788],[0,5],[-2,8],[-2,5]],[[995,806],[-1,2],[0,1]],[[995,810],[0,-4]],[[995,806],[0,-2],[4,-16]],[[999,788],[0,-1],[0,-43]],[[1029,1000],[-2,-5]],[[1223,1133],[-105,40],[-2,0],[-4,-3],[-12,-26]],[[1106,893],[1,1]],[[1107,1166],[1,4]],[[1108,1170],[36,42]],[[1143,1210],[-35,-40]],[[1154,924],[-37,12]],[[1137,829],[-15,2]],[[1122,832],[16,-3]],[[1132,1200],[0,3]],[[1133,858],[1,0]],[[1134,1200],[43,68],[3,4]],[[1180,1272],[-3,-4],[-43,-67]],[[1136,851],[14,18]],[[1136,866],[14,3]],[[1172,872],[-16,24],[-50,-3],[31,-25]],[[1139,829],[15,-5]],[[1153,823],[-14,6]],[[1139,897],[17,-1]],[[1154,924],[-11,2]],[[1150,869],[5,-5]],[[1166,936],[-12,-12]],[[1174,806],[-19,17]],[[1155,864],[1,-2]],[[1155,864],[4,-15]],[[1155,823],[19,-16]],[[1174,807],[0,-1]],[[1174,806],[5,-9],[3,-9]],[[1160,853],[-1,-1]],[[1172,839],[-2,-7],[0,-3],[0,-5]],[[1170,824],[0,-1]],[[1170,823],[2,-4],[5,-11],[-3,-2]],[[1174,806]],[[1174,806],[0,1]],[[1174,807],[-4,16]],[[1170,823],[0,1]],[[1170,824],[-1,2],[0,6],[3,6],[0,10],[4,14],[-3,8]],[[1181,788],[-7,18]],[[1213,788],[-17,-18]],[[1241,1141],[-17,3]],[[1230,1236],[23,4],[1,-1],[-1,-2]],[[1253,1237],[2,1]],[[1255,1238],[2,1],[7,-1],[15,-1]],[[1279,1237],[0,-1]],[[1279,1236],[14,-1]],[[1293,1235],[49,-4]],[[1342,1231],[3,-1]],[[1257,1239],[-2,-1]],[[1255,1238],[-2,-1]],[[1253,1237],[-23,-1]],[[1252,1324],[-15,-11]],[[1244,1072],[2,5],[4,4],[2,0]],[[1253,1081],[-7,-9]],[[1247,537]],[[1248,974],[1,1]],[[1249,974]],[[1251,977],[1,1]],[[1253,978],[-2,-1]],[[1258,1097],[-2,-10]],[[1266,546],[1,1]],[[1345,1229],[-3,2]],[[1342,1231],[-1,0],[-48,4]],[[1293,1235],[-14,1]],[[1279,1236]],[[1279,1236],[-13,1]],[[1272,1069]],[[1272,1069]],[[1275,1039],[3,2]],[[1278,1041],[-3,-2]],[[1285,1104],[-9,6]],[[1286,1055],[2,26],[-1,13]],[[1287,1094],[-2,14]],[[1285,1108],[-1,12],[-5,61],[0,27],[0,28]],[[1279,1236],[0,1]],[[1279,1237],[-1,1]],[[1279,1238],[0,-2]],[[1279,1236]],[[1279,1236],[1,-28],[0,-2],[0,-25],[5,-73]],[[1285,1108],[1,-13],[1,-1]],[[1287,1094],[6,-13]],[[1283,1046],[1,1]],[[1285,1047],[-1,-1]],[[1286,1081],[2,1]],[[1289,1081],[0,-22],[-1,-1],[-2,-3]],[[1327,908],[-40,40]],[[1287,948],[46,-41],[2,-5]],[[1335,902],[0,-6]],[[1289,1051],[1,1],[6,3]],[[1336,1051],[-47,0]],[[1291,1052],[-2,-1]],[[1294,1083],[1,-1]],[[1300,1042],[-6,6]],[[1304,1058],[5,0]],[[1309,1058],[5,-1],[22,-5]],[[1306,1040],[0,1]],[[1310,1058],[-1,0]],[[1309,1058]],[[1309,1060],[17,43],[18,15]],[[1332,1107],[-22,-47]],[[1321,604],[-1,-1]],[[1322,607],[0,1]],[[1325,758],[15,18],[-15,-18]],[[1328,886],[1,1],[6,15]],[[1335,902],[7,17],[28,41]],[[1329,883],[3,7]],[[1341,1047],[37,-63],[-11,-33],[-11,-14]],[[1356,937],[-3,-4],[-7,-9],[-4,-5],[-6,-23],[-6,-13]],[[1334,623],[2,-2]],[[1334,624],[1,1]],[[1335,625]],[[1335,625],[1,-3],[2,-14]],[[1338,608],[-1,0]],[[1338,608],[2,-4]],[[1340,603],[0,1]],[[1340,604],[1,0]],[[1355,571],[-14,6],[0,25]],[[1342,603],[13,-30]],[[1342,825],[7,26]],[[1349,851],[0,1]],[[1350,851],[0,-1]],[[1350,850],[-5,-31]],[[1346,1231],[5,22]],[[1348,635]],[[1349,851],[0,1]],[[1350,850]],[[1350,850],[-1,1]],[[1349,851]],[[1378,847],[-29,5]],[[1349,852],[29,-4]],[[1351,1253],[0,-40]],[[1370,1014],[-7,12]],[[1367,1023],[-3,2]],[[1365,1026],[1,-1]],[[1368,1022],[-1,-1]],[[1397,1275],[-1,0]],[[1396,1275],[-25,-11]],[[1371,1264],[26,11],[-1,0]],[[1396,1275],[-15,-18]],[[1398,1275],[-2,-1]],[[1428,385]],[[1490,655],[-7,58],[-43,-3]],[[1440,710],[43,3],[7,-58]],[[1462,442],[-8,56]],[[1454,498],[8,-56]],[[1493,648],[-3,7]],[[1495,641],[-2,7]],[[1493,648],[6,-5]],[[1551,562],[-34,72]],[[1562,545],[3,-3]],[[1572,515],[-9,16]],[[1566,531],[-1,11]],[[1565,542],[1,-11]],[[1566,531],[6,-16]],[[1569,471],[3,44]],[[1624,2],[39,31]],[[563,656],[-2,0],[2,2],[1,0]],[[564,658],[-1,-2]],[[746,757],[1,1],[1,-2],[-1,-1],[-1,2]],[[760,768],[2,-1],[-1,-1]],[[761,766],[-1,0]],[[760,766],[-1,1]],[[759,767],[1,1]],[[830,635],[0,1]],[[830,636],[2,0],[-1,-2]],[[831,634],[-1,1]],[[838,843],[-1,-1],[0,1],[1,0]],[[847,779],[-1,1],[1,1],[1,-1],[-1,-1]],[[1243,1070],[1,1],[2,0],[0,-2],[-3,1]],[[1341,604],[0,-2],[-1,0],[0,2],[1,0]],[[1356,937]],[[1356,937],[1,0]],[[1407,489],[1,0],[-1,-1],[0,1]],[[511,629],[13,7],[34,18]],[[558,654],[2,1],[1,8]],[[561,663],[1,1],[-1,3],[8,13],[7,9],[13,4]],[[589,693],[-13,-4],[-5,-8],[-9,-17],[-1,-1]],[[561,663],[-3,-9]],[[558,654],[-46,-25]],[[1038,326],[-5,-1]],[[1241,320],[-45,28]],[[1196,348],[17,-7],[24,-16],[2,-2]],[[1287,948],[-6,5],[-5,3]],[[1276,956],[-28,14]],[[1250,966],[26,-10]],[[1276,956],[5,-3],[6,-5]],[[780,753],[44,13]],[[854,1150],[4,-3]],[[876,1134],[-18,13]],[[876,1134],[37,22]],[[942,1596],[-6,3]],[[936,1599],[6,-3]],[[942,1596],[49,-33]],[[1297,1055],[-6,-3]],[[1294,1048],[1,-1]],[[1309,1058],[-1,0]],[[632,744],[15,12]],[[647,756],[37,27]],[[670,773],[-23,-17]],[[647,756],[-15,-12]],[[1182,1063],[-16,-1],[-88,22]],[[1078,1084],[38,-6]],[[1166,1062],[30,11]],[[1203,1035],[-10,32]],[[1198,1069],[6,-34]],[[1250,885],[-1,1]],[[1249,886],[1,-1]],[[1430,789],[-52,0],[-2,0]],[[1376,789],[55,1]],[[353,600],[1,3]],[[354,602],[0,-1]],[[489,744],[3,7],[8,13]],[[500,764],[16,25]],[[516,789],[1,1],[49,3],[11,-1],[2,-4]],[[579,788],[20,-37]],[[601,752],[-22,36]],[[579,788],[-2,3],[-11,2],[-50,-4]],[[516,789],[-1,0],[-15,-25]],[[500,764],[-8,-13],[-3,-7]],[[1292,1109],[-70,2],[-20,-27]],[[1209,1105],[5,4],[8,2],[26,2],[44,-4]],[[581,744],[-17,80],[-3,22],[-1,17],[-2,15]],[[558,878],[18,-97]],[[1029,1457],[21,-32]],[[1229,1221],[0,3],[1,0],[0,-4],[-1,1]],[[3299,1919]],[[33,4050],[-1,-9]],[[32,4041],[1,9]],[[32,4041],[63,-234]],[[114,3685],[-2,107]],[[801,2561],[-100,68]],[[1090,1130],[9,14]],[[1202,1084],[7,21]],[[1100,933],[47,-9]],[[1147,924],[1,0],[26,20]],[[1174,944],[-16,-16],[-10,-4],[-1,0]],[[1147,924],[-27,13]],[[657,714],[-12,25]],[[646,739],[11,-24]],[[992,829],[-58,-32],[-46,-6],[101,44]],[[1290,994],[-42,75]],[[1253,1066],[38,-72]],[[1318,1013],[38,20],[30,-1]],[[1386,1031],[-67,-19]],[[1445,1032],[11,-2],[16,-22]],[[1473,999],[-28,32]],[[1028,1456],[-11,20],[-9,107]],[[1008,1583],[11,-110]],[[1188,945],[-20,6]],[[1169,951],[19,-6]],[[472,760],[-15,4],[-6,31],[-54,26]],[[397,821],[54,-26],[26,-39]],[[571,714],[-30,25]],[[555,606],[1,8]],[[556,614],[6,41]],[[559,650],[-3,-36]],[[556,614],[0,-8]],[[579,694],[-8,20]],[[571,714],[9,-19]],[[881,767],[-30,-11]],[[1113,386],[58,-2],[25,-36]],[[1196,348],[-25,36],[-58,2]],[[468,1655],[-1,-27]],[[467,1628],[0,26]],[[486,1468],[-19,160]],[[1426,929],[6,3],[10,3]],[[1442,935],[-16,-6]],[[1039,1422],[-142,-97]],[[1415,844],[-19,33]],[[1397,876],[18,-32]],[[1432,804],[-8,25]],[[1424,830],[8,-25]],[[1457,779],[-23,9]],[[1434,788],[-1,1]],[[1433,789],[1,-1]],[[1434,788],[11,-7]],[[410,491],[-14,22]],[[396,513],[14,-22]],[[594,693],[-5,0]],[[589,693],[5,1]],[[619,706],[85,29]],[[704,735],[-85,-29]],[[888,769],[-7,-2]],[[885,769],[3,0]],[[1542,1571],[21,3]],[[1563,1573],[-21,-3]],[[880,981],[16,-57]],[[830,588],[-25,43]],[[805,631],[28,-38]],[[834,592],[1,-1]],[[149,3921],[-99,175]],[[62,4096],[29,-50],[1,-2]],[[364,1439],[0,3]],[[116,1428],[-1,-2]],[[618,1315],[-58,80]],[[640,1287],[-13,16]],[[689,1244],[-39,22]],[[689,1244],[10,-4]],[[753,1200],[-19,-7],[-35,47]],[[766,1193],[-13,7]],[[753,1200],[18,-11]],[[1072,1032],[42,-1]],[[1114,1030],[-39,1]],[[1168,951],[-21,26],[0,7]],[[1147,984],[19,-30]],[[1166,954],[3,-3]],[[1166,954],[7,-7],[2,-4]],[[1203,893],[-15,52]],[[1188,945],[17,-49]],[[1195,939],[5,-21]],[[1199,972],[-3,6]],[[1196,978],[-1,1]],[[1196,978]],[[1196,978],[5,9],[3,2]],[[1291,971],[-1,-2]],[[1021,1069],[-2,8]],[[1407,495],[6,-1]],[[644,1270],[3,1]],[[1572,86],[34,-57]],[[1606,29],[16,-27],[2,-2]],[[1624,0],[-2,1],[-16,28]],[[1606,29],[-33,57]],[[1869,2953],[3,12]],[[771,1366],[11,21]],[[1769,2858],[-12,-86],[48,-212],[97,-226],[-32,-91],[43,-157]],[[1869,2953],[-4,-38],[-93,-45]],[[2103,3508],[-148,-17],[-58,-86],[-24,-136],[-1,-304]],[[1922,2075],[15,-55],[79,-44]],[[2067,4096],[-7,-40],[34,-47],[186,-53],[-96,-161],[24,-64],[-20,-50],[-74,-52],[-10,-121]],[[983,764],[-8,0]],[[979,765],[4,0]],[[1135,793],[-35,4],[-4,-4]],[[1096,793],[-3,-3],[-9,-14],[-4,-2],[-20,-6]],[[1060,768],[33,26],[3,-1]],[[1096,793],[46,-2]],[[1142,791],[3,0],[27,-2],[14,0],[28,14],[9,16],[2,4]],[[1225,823],[1,1]],[[1226,824]],[[1233,900],[2,-33],[-13,-35],[4,-8]],[[1226,824]],[[1226,824],[1,-2]],[[1227,822],[0,-1],[-13,-18],[-28,-14],[-14,0],[-27,2],[-3,0]],[[1142,791],[-5,1]],[[1222,832],[8,27],[5,8],[-5,20],[3,13]],[[1228,824],[-1,-2]],[[1227,822],[0,-1]],[[1227,821],[-2,2]],[[1225,823],[-3,4]],[[1227,821]],[[1227,821],[-1,3]],[[1226,824]],[[1239,825],[58,2]],[[1301,826],[-62,-2]],[[1227,1005],[5,45],[20,31]],[[1252,1081],[-24,-76]],[[839,754],[-13,12]],[[911,896],[-23,40]],[[950,875],[-38,19]],[[1457,237],[52,28]],[[354,603],[45,68]],[[399,670],[-45,-68]],[[489,744],[0,-1],[-22,-9],[-43,-6],[-12,-45],[-13,-13]],[[399,671],[0,-1]],[[399,671],[24,57],[66,16]],[[599,751],[1,-3]],[[605,745],[-4,7]],[[75,456],[-22,-7],[-5,18],[5,31],[70,178],[40,61],[51,21],[37,-18],[4,-38],[-3,-21],[4,-37],[-8,-67],[-40,-38],[-56,-22],[-43,-30],[-17,-17],[-17,-14]],[[28,639],[-28,-8],[0,69],[37,15],[25,-29],[-11,-33],[-23,-14]],[[0,4096],[4096,0],[0,-4096],[-3635,0],[-26,22],[-129,30],[-130,13],[-70,47],[50,132],[-66,8],[6,39],[145,179],[42,38],[42,16],[33,33],[0,76],[-23,140],[-19,38],[-83,66],[-19,37],[-58,380],[-17,58],[-42,47],[-97,82],[0,2615]],[[1600,0],[-41,46],[-58,7],[17,33],[145,0],[0,-86],[-63,0]],[[211,381],[-44,-2],[135,136],[-11,-68],[-80,-66]],[[943,1419],[-82,-4],[-72,33],[18,63],[144,98],[-103,139],[6,89],[162,0],[-33,-93],[98,-264],[-138,-61]],[[1376,1302],[60,-16],[0,32],[66,-32],[-31,-71],[8,-41],[119,-18],[-31,-65],[64,-162],[-64,-130],[64,-32],[56,-165],[106,-62],[-29,-53],[-166,20],[-129,-162],[-39,11],[-58,119],[-127,34],[9,120],[-20,17],[-56,23],[-41,-16],[-24,-146],[-77,20],[-20,77],[-163,-18],[-31,-46],[-28,27],[23,132],[-60,35],[-70,-18],[-187,-157],[-73,-21],[-69,26],[-17,171],[49,0],[11,129],[79,-41],[-14,-56],[33,-33],[86,11],[205,86],[7,34],[-72,31],[3,43],[126,152],[0,65],[65,32],[-32,130],[129,0],[23,-35],[-23,-95],[88,29],[129,141],[107,-8],[36,-48]],[[1369,1104],[29,-123],[-26,-52],[64,0],[33,32],[-33,97],[33,97],[-97,33],[-3,-84]],[[951,864],[-19,145],[51,81],[-81,-30],[-39,-77],[13,-80],[75,-39]],[[1480,836],[11,31],[31,2],[11,36],[29,-5],[114,124],[-9,-71],[-22,0],[4,23],[-18,-12],[7,-48],[-33,-3],[20,-35],[-65,-49],[-8,-56],[-45,29],[-8,39],[-19,-5]],[[1374,1252],[52,5],[60,49],[-39,69],[-40,5],[18,64],[17,-10],[25,10],[-2,7],[-58,-9],[11,25],[155,106],[-10,-43],[67,9],[1,-29],[32,-18],[-14,-29],[23,31],[23,-12],[-3,-37],[62,33],[179,-130],[231,-83],[323,0],[130,-159],[24,-48],[-31,-3],[-23,-119],[35,-76],[-5,-134],[-92,36],[-60,116],[-36,-2],[-14,26],[-12,-33],[-50,-4],[-97,154],[-44,1],[-59,51],[-16,-22],[63,-65],[30,18],[23,-43],[21,9],[46,-60],[-8,-32],[16,14],[29,-49],[-113,-17],[93,-69],[24,-70],[0,-58],[-31,-16],[-85,16],[22,-21],[-21,-80],[-24,-1],[79,-75],[-41,-28],[-122,35],[59,-52],[3,26],[21,-18],[-28,-44],[42,4],[9,-21],[-37,-10],[42,-48],[-59,-73],[43,-3],[-47,-99],[-9,-104],[-49,27],[-38,121],[-28,13],[24,45],[-15,42],[-51,57],[-24,-14],[14,28],[-20,41],[-22,1],[-6,28],[-6,2],[-11,-31],[-4,45],[-17,-28],[-49,-2],[-1,27],[28,4],[-42,25],[28,59],[39,13],[36,104],[6,208],[-30,98],[106,-46],[12,27],[-141,103],[-6,65],[-94,-3],[20,73],[77,-13],[6,44],[-117,15],[-47,-36],[-19,19],[-23,-31],[31,-58],[-16,-32],[-53,-16],[-89,-103],[-19,25],[36,59],[-39,-34],[-9,39],[-29,-7],[17,21],[-10,74],[48,71],[-33,64],[-21,3],[-23,-50],[-76,28],[-8,-35],[-46,58]],[[1449,1247],[10,-10],[43,6],[43,67],[-39,-26],[2,43],[-10,1],[-1,-61],[-48,-20]]]}