{"objects":{"water":{"type":"GeometryCollection","geometries":[{"type":"MultiPolygon","properties":{"source":"naturalearthdata.com","kind":"ocean","area":1576712559132672,"sort_rank":200,"min_zoom":0.0,"id":1},"arcs":[[[68],[69],[70],[71],[72],[73],[74],[75],[76],[77],[78],[79],[80],[81]],[[82]]]},{"type":"LineString","properties":{"source":"naturalearthdata.com","kind":"ocean","sort_rank":205,"boundary":true,"min_zoom":0.0,"id":503},"arcs":[83]},{"type":"LineString","properties":{"source":"naturalearthdata.com","kind":"ocean","sort_rank":205,"boundary":true,"min_zoom":0.0,"id":504},"arcs":[84]},{"type":"LineString","properties":{"source":"naturalearthdata.com","kind":"ocean","sort_rank":205,"boundary":true,"min_zoom":0.0,"id":505},"arcs":[85]},{"type":"LineString","properties":{"source":"naturalearthdata.com","kind":"ocean","sort_rank":205,"boundary":true,"min_zoom":0.0,"id":506},"arcs":[86]},{"type":"MultiLineString","properties":{"source":"naturalearthdata.com","kind":"ocean","sort_rank":205,"boundary":true,"min_zoom":0.0,"id":507},"arcs":[[87],[88]]},{"type":"LineString","properties":{"source":"naturalearthdata.com","kind":"ocean","sort_rank":205,"boundary":true,"min_zoom":0.0,"id":508},"arcs":[89]},{"type":"LineString","properties":{"source":"naturalearthdata.com","kind":"ocean","sort_rank":205,"boundary":true,"min_zoom":0.0,"id":509},"arcs":[90]},{"type":"LineString","properties":{"source":"naturalearthdata.com","kind":"ocean","sort_rank":205,"boundary":true,"min_zoom":0.0,"id":519},"arcs":[91]},{"type":"MultiLineString","properties":{"source":"naturalearthdata.com","kind":"ocean","sort_rank":205,"boundary":true,"min_zoom":0.0,"id":551},"arcs":[[92],[93]]},{"type":"LineString","properties":{"source":"naturalearthdata.com","kind":"ocean","sort_rank":205,"boundary":true,"min_zoom":0.0,"id":627},"arcs":[94]},{"type":"LineString","properties":{"source":"naturalearthdata.com","kind":"ocean","sort_rank":205,"boundary":true,"min_zoom":0.0,"id":3717},"arcs":[95]},{"type":"LineString","properties":{"source":"naturalearthdata.com","kind":"ocean","sort_rank":205,"boundary":true,"min_zoom":0.0,"id":3718},"arcs":[96]},{"type":"LineString","properties":{"source":"naturalearthdata.com","kind":"ocean","sort_rank":205,"boundary":true,"min_zoom":0.0,"id":3721},"arcs":[97]},{"type":"LineString","properties":{"source":"naturalearthdata.com","kind":"ocean","sort_rank":205,"boundary":true,"min_zoom":0.0,"id":3722},"arcs":[98]},{"type":"LineString","properties":{"source":"naturalearthdata.com","kind":"ocean","sort_rank":205,"boundary":true,"min_zoom":0.0,"id":3723},"arcs":[99]},{"type":"LineString","properties":{"source":"naturalearthdata.com","kind":"ocean","sort_rank":205,"boundary":true,"min_zoom":0.0,"id":3724},"arcs":[100]}]},"buildings":{"type":"GeometryCollection","geometries":[]},"places":{"type":"GeometryCollection","geometries":[{"type":"Point","properties":{"name:pt":"Turks e Caicos","name:cy":"Ynysoedd Turks a Caicos","alt_name:el":"\u039d\u03b7\u03c3\u03b9\u03ac \u03a4\u03b5\u03c1\u03ba\u03c2 \u03ba\u03b1\u03b9 \u039a\u03ac\u03b9\u03ba\u03bf\u03c2","name:ko":"\ud130\ud06c\uc2a4 \ucf00\uc774\ucee4\uc2a4 \uc81c\ub3c4","name:cv":"\u0422\u04d7\u0440\u043a\u0441 \u0442\u0430\u0442\u0430 \u041a\u0430\u0439\u043a\u043e\u0441","name:km":"\u1780\u17c4\u17c7\u200b\u1780\u17c3\u1780\u17bc\u179f \u1793\u17b7\u1784\u1791\u17bc\u1780","name:cs":"Turks a Caicos","name:ki":"Visiwa vya Turki na Kaiko","name:kw":"Turks ha Kaykos","name:tr":"Turks ve Caicos Adalar\u0131","name:th":"\u0e2b\u0e21\u0e39\u0e48\u0e40\u0e01\u0e32\u0e30\u0e40\u0e15\u0e34\u0e23\u0e4c\u0e01\u0e41\u0e25\u0e30\u0e44\u0e04\u0e04\u0e2d\u0e2a","name:ti":"\u12e8\u1271\u122d\u12ae\u127d\u1293 \u12e8\u12ab\u12a2\u12ae\u1235 \u12f0\u1234\u1276\u127d","name:ks":"\u062a\u064f\u0631\u064f\u06a9 \u062a\u06c1\u0655 \u06a9\u06cc\u06a9\u0648\u0633 \u062c\u0654\u0632\u06cc\u0656\u0631\u0655","name:to":"\u02bbOtumotu Teki mo Keikosi","name:zh-min-nan":"Turks kap Caicos K\u00fbn-t\u00f3","name:or":"\u0b24\u0b41\u0b30\u0b4d\u0b15\u0b38\u0b4d \u0b0f\u0b2c\u0b02 \u0b38\u0b3e\u0b07\u0b15\u0b38\u0b4d \u0b26\u0b4d\u0b2c\u0b40\u0b2a\u0b2a\u0b41\u0b1e\u0b4d\u0b1c","name:pl":"Turks i Caicos","name:ta":"\u0ba4\u0bc1\u0bb0\u0bcd\u0b95\u0b9a\u0bc1 \u0b95\u0bc8\u0b95\u0bcb\u0b9a\u0bc1 \u0ba4\u0bc0\u0bb5\u0bc1\u0b95\u0bb3\u0bcd","name:ca":"Illes Turks i Caicos","name:te":"\u0c24\u0c41\u0c30\u0c4d\u0c15\u0c4d \u0c2e\u0c30\u0c3f\u0c2f\u0c41 \u0c15\u0c3e\u0c32\u0c3f\u0c15\u0c4b\u0c38\u0c4d \u0c26\u0c40\u0c35\u0c41\u0c32\u0c41","name:vi":"Qu\u1ea7n \u0111\u1ea3o Turks v\u00e0 Caicos","name:ro":"Insulele Turks \u015fi Caicos","name:hr":"Otoci Turks i Caicos","name:da":"Turks- og Caicos\u00f8erne","name:de":"Turks- und Caicosinseln","name:dz":"\u0f4f\u0f74\u0f62\u0f90\u0f66\u0f84\u0f0b \u0f68\u0f7a\u0f53\u0f4c\u0f0b \u0f40\u0f0b\u0f40\u0f7c\u0f66\u0f0b\u0f42\u0fb3\u0f72\u0f44\u0f0b\u0f5a\u0f7c\u0f58","source":"openstreetmap.org","name:kn":"\u0c9f\u0cb0\u0ccd\u0c95\u0ccd\u0cb8\u0ccd \u0cae\u0ca4\u0ccd\u0ca4\u0cc1 \u0c95\u0cc8\u0c95\u0ccb\u0cb8\u0ccd \u0ca6\u0ccd\u0cb5\u0cc0\u0caa\u0c97\u0cb3\u0cc1","name:dv":"\u0793\u07a7\u0786\u07a6\u0790\u07b0 \u0787\u07a6\u078b\u07a8 \u0786\u07a6\u0787\u07a8\u0786\u07af \u0796\u07a6\u0792\u07a9\u0783\u07a7","name:lv":"T\u0113rksas un Kaikosas","name:lt":"Terksas ir Kaikosas","name:hi":"\u091f\u0930\u094d\u0915\u094d\u0938 \u0914\u0930 \u0915\u0947\u0915\u094b\u0938 \u0926\u094d\u0935\u0940\u092a-\u0938\u092e\u0942\u0939","name:sv":"Turks- och Caicos\u00f6arna","name:he":"\u05d0\u05d9\u05d9 \u05d8\u05d5\u05e8\u05e7\u05e1 \u05d5\u05e7\u05d0\u05d9\u05e7\u05d5\u05e1","kind":"country","name:ur":"\u062a\u0631\u06a9\u0633 \u0627\u0648\u0631 \u06a9\u06cc\u06a9\u0627\u0624\u0633 \u062c\u0632\u0627\u0626\u0631","name:lg":"Bizinga by'eTaaka ne Kayikosi","name:uk":"\u041e\u0441\u0442\u0440\u043e\u0432\u0438 \u0422\u0435\u0440\u043a\u0441 \u0456 \u041a\u0430\u0439\u043a\u043e\u0441","name:ug":"Turks we Kaykos Taqim Aralliri","name:hu":"Turks- \u00e9s Caicos-szigetek","name:ln":"Bisanga bya Turki mp\u00e9 Kaiko","name:lo":"\u0ec0\u0e88\u0eb5 \u0ec1\u0ea5\u0eb0 \u0e84\u0eb2\u0e8d\u0e84\u0ead\u0e94 \u0ead\u0eb4\u0e94\u0ec1\u0ea5\u0e99","population":41000,"name:el":"\u039d\u03ae\u03c3\u03bf\u03b9 \u03a4\u03b5\u03c1\u03ba\u03c2 \u03ba\u03b1\u03b9 \u039a\u03ac\u03b9\u03ba\u03bf\u03c2","name:eo":"Turkoj kaj Kajkoj","name":"Turks and Caicos Islands","name:ee":"T\u025bks kple Kaikos \u0192udomekpowo nutome","min_zoom":2.0,"name:gu":"\u0a9f\u0ab0\u0acd\u0a95\u0acd\u0ab8 \u0a8f\u0aa8\u0acd\u0aa1 \u0a95\u0ac8\u0a95\u0acb\u0ab8 \u0a86\u0a87\u0ab2\u0ac7\u0aa8\u0acd\u0aa1\u0acd\u0ab8","name:eu":"Turks eta Caicos uharteak","name:et":"Turks ja Caicos","name:nl":"Turks- en Caicoseilanden","name:es":"Islas Turcas y Caicos","name:ia":"Insulas Turcos e Caicos","name:rm":"Inslas Turks e Caicos","name:rn":"Amazinga ya Turkisi na Cayikosi","name:az":"T\u00fcrk v\u0259 Kaykos Adalar\u0131","name:id":"Kepulauan Turks dan Caicos","name:ms":"Kepulauan Turks dan Caicos","name:mr":"\u091f\u0930\u094d\u0915\u094d\u0938 \u0906\u0923\u093f \u0915\u0948\u0915\u093e\u0938 \u0926\u094d\u0935\u0940\u092a\u0938\u092e\u0942\u0939","name:ar":"\u062c\u0632\u0631 \u062a\u0631\u0643\u0633 \u0648\u0643\u0627\u064a\u0643\u0648\u0633","name:io":"Turks e Kaikos-Insuli","name:is":"Turks- og Caicoseyjar","name:am":"\u12e8\u1271\u122d\u12ae\u127d\u1293 \u12e8\u12ab\u12a2\u12ae\u1235 \u12f0\u1234\u1276\u127d","name:it":"Turks e Caicos","name:an":"Islas Turcas e Caicos","name:ru":"\u041e\u0441\u0442\u0440\u043e\u0432\u0430 \u0422\u0451\u0440\u043a\u0441 \u0438 \u041a\u0430\u0439\u043a\u043e\u0441","name:mn":"\u0422\u0443\u0440\u043a\u0441 \u0431\u0430 \u041a\u0430\u0439\u043a\u043e\u0441\u044b\u043d \u0410\u0440\u043b\u0443\u0443\u0434","id":424311814,"name:mk":"\u0422\u0443\u0440\u043a \u0438 \u041a\u0430\u0438\u043a\u043e\u0441 \u041e\u0441\u0442\u0440\u043e\u0432\u0438","name:af":"Turks en Caicos Eilande","name:zu":"i-Turks and Caicos Islands","name:ha":"Turkis Da Tsibiran Kaikwas","name:nn":"Turks- og Caicos\u00f8yane","name:ff":"Duu\u0257e Turke e Keikoos","name:fi":"Turks- ja Caicossaaret","name:no":"Turks- og Caicos\u00f8yene","name:mg":"Nosy Turks sy Ca\u00efques","name:fo":"Turks- og Caicosoyggjarnar","name:fr":"\u00celes Turques-et-Ca\u00efques","name:fy":"Turks- en Kaikoseilannen","name:zh":"\u7279\u514b\u65af\u548c\u51f1\u79d1\u65af\u7fa4\u5cf6","name:gv":"Ellanyn ny Turkee as Caicos","name:sn":"Zvitsuwa zveTurk neCaico","name:sl":"Turks in Caicos","name:sk":"Turks a Caicos","name:ja":"\u30bf\u30fc\u30af\u30b9\u30fb\u30ab\u30a4\u30b3\u30b9\u8af8\u5cf6","name:si":"\u0da7\u0dbb\u0dca\u0d9a\u0dca\u0dc3\u0dca \u0dc3\u0dc4 \u0d9a\u0dba\u0dd2\u0d9a\u0ddc\u0dc3\u0dca \u0daf\u0dd6\u0db4\u0dad\u0dca","name:sh":"Turks i Caicos Otoci","name:sg":"\u00c2z\u00fb\u00e2 Turku na Ka\u00eeki","name:se":"Turks ja Caicos-sullot","name:ne":"\u0924\u0941\u0930\u094d\u0915 \u0930 \u0915\u093e\u0907\u0915\u094b\u0938 \u091f\u093e\u092a\u0941","name:br":"Inizi Turks ha Caicos","name:bs":"Ostrva Turks i Caicos","name:bm":"Turiki Gun ni Kayiki","name:bn":"\u099f\u09be\u09b0\u09cd\u0995\u09b8\u09cd\u200c \u0993 \u0995\u09c7\u0987\u0995\u09cb\u09b8 \u09a6\u09cd\u09ac\u09c0\u09aa\u09aa\u09c1\u099e\u09cd\u099c","name:ml":"\u0d1f\u0d7c\u0d15\u0d4d\u0d15\u0d4d\u0d38\u0d41\u0d02 \u0d15\u0d48\u0d15\u0d4d\u0d15\u0d4b \u0d26\u0d4d\u0d35\u0d40\u0d2a\u0d41\u0d15\u0d33\u0d41\u0d02","name:sw":"Visiwa vya Turks na Caicos","name:be":"\u0422\u044d\u0440\u043a\u0441 \u0456 \u041a\u0430\u0439\u043a\u0430\u0441 \u0430\u0441\u0442\u0440\u0430\u0432\u044b","name:bg":"\u0422\u044a\u0440\u043a\u0441 \u0438 \u041a\u0430\u0439\u043a\u043e\u0441","name:sr":"\u0422\u0443\u0440\u043a\u0441 \u0438 \u041a\u0430\u0458\u043a\u043e\u0441","name:sq":"Turks dhe Kaikos","name:ga":"Oile\u00e1in na dTurcach agus Caicos","name:gd":"Oile\u00e1in na dTurcach agus Caicos","name:jv":"Kapuloan Turks lan Caicos","name:gl":"Turks e Caicos","name:fa":"\u062c\u0632\u0627\u06cc\u0631 \u062a\u0648\u0631\u06a9\u0633 \u0648 \u06a9\u0627\u06cc\u06a9\u0648\u0633","name:yo":"Or\u00edl\u1eb9\u0301\u00e8de T\u1ecd\u1ecdki ati Etikun Kak\u1ecdsi","name:ak":"Turks ne Caicos Islands"},"coordinates":[2192,3751]},{"type":"Point","properties":{"source":"openstreetmap.org","kind":"region","name":"Santiago","kind_detail":"state","min_zoom":4.0,"id":2652225332},"coordinates":[3235,27]},{"type":"Point","properties":{"source":"openstreetmap.org","kind":"region","name":"Hermanas Mirabal","kind_detail":"state","min_zoom":4.0,"id":2652225276},"coordinates":[3979,152]},{"type":"Point","properties":{"source":"openstreetmap.org","kind":"region","name":"Espaillat","kind_detail":"state","min_zoom":4.0,"id":2652225274},"coordinates":[3849,413]},{"type":"Point","properties":{"source":"openstreetmap.org","kind":"region","name":"Puerto Plata","kind_detail":"state","min_zoom":4.0,"id":2652225309},"coordinates":[3386,674]},{"type":"Point","properties":{"source":"openstreetmap.org","kind":"region","name":"Dajab\u00f3n","kind_detail":"state","min_zoom":4.0,"id":2652225269},"coordinates":[2218,230]},{"type":"Point","properties":{"source":"openstreetmap.org","kind":"region","name":"Santiago Rodr\u00edguez","kind_detail":"state","min_zoom":4.0,"id":2652225329},"coordinates":[2643,112]},{"type":"Point","properties":{"source":"openstreetmap.org","kind":"region","name":"Valverde","kind_detail":"state","min_zoom":4.0,"id":2652225342},"coordinates":[3028,422]},{"type":"Point","properties":{"source":"openstreetmap.org","kind":"region","name":"Monte Cristi","kind_detail":"state","min_zoom":4.0,"id":2652225296},"coordinates":[2444,641]},{"type":"Point","properties":{"kind":"region","name":"Nord","kind_detail":"state","source":"openstreetmap.org","min_zoom":4.0,"name:pl":"Departament P\u00f3\u0142nocny","name:ru":"\u0421\u0435\u0432\u0435\u0440\u043d\u044b\u0439 \u0434\u0435\u043f\u0430\u0440\u0442\u0430\u043c\u0435\u043d\u0442","name:ht":"N\u00f2","id":618759492},"coordinates":[1245,490]},{"type":"Point","properties":{"kind":"region","name:en":"North-East","name":"Nord-Est","kind_detail":"state","name:de":"Nordost","source":"openstreetmap.org","min_zoom":4.0,"name:pl":"Departament P\u00f3\u0142nocno-Wschodni","name:ru":"\u0421\u0435\u0432\u0435\u0440\u043e-\u0412\u043e\u0441\u0442\u043e\u0447\u043d\u044b\u0439 \u0434\u0435\u043f\u0430\u0440\u0442\u0430\u043c\u0435\u043d\u0442","name:ht":"N\u00f2d\u00e8s","id":618760787},"coordinates":[1824,322]},{"type":"Point","properties":{"kind":"region","name:en":"North-West","name":"Nord-Ouest","kind_detail":"state","name:de":"Nordwest","source":"openstreetmap.org","min_zoom":4.0,"name:pl":"Departament P\u00f3\u0142nocno-Zachodni","name:ru":"\u0421\u0435\u0432\u0435\u0440\u043e-\u0417\u0430\u043f\u0430\u0434\u043d\u044b\u0439 \u0434\u0435\u043f\u0430\u0440\u0442\u0430\u043c\u0435\u043d\u0442","name:ht":"N\u00f2dw\u00e8s","id":618761050},"coordinates":[96,834]},{"type":"Point","properties":{"source":"naturalearthdata.com","kind":"locality","name":"Santiago","population":1550753,"region_capital":true,"min_zoom":5.0,"id":6493},"coordinates":[3575,294]},{"type":"Point","properties":{"source":"naturalearthdata.com","kind":"locality","name":"Cap-Haitien","population":281487,"region_capital":true,"min_zoom":6.0,"id":4949},"coordinates":[1329,697]},{"type":"Point","properties":{"source":"naturalearthdata.com","kind":"locality","name":"Gonaives","population":166678,"region_capital":true,"min_zoom":7.0,"id":2381},"coordinates":[643,217]},{"type":"Point","properties":{"source":"naturalearthdata.com","kind":"locality","name":"Monte Cristi","population":17001,"region_capital":true,"min_zoom":7.0,"id":3824},"coordinates":[2148,865]},{"type":"Point","properties":{"source":"naturalearthdata.com","kind":"locality","name":"Grand Turk","country_capital":true,"population":5801,"min_zoom":7.0,"id":4803},"coordinates":[2897,3354]}]},"transit":{"type":"GeometryCollection","geometries":[]},"pois":{"type":"GeometryCollection","geometries":[]},"boundaries":{"type":"GeometryCollection","geometries":[{"type":"LineString","properties":{"source":"naturalearthdata.com","kind":"country","sort_rank":262,"kind_detail":"2","min_zoom":0.0,"id":149},"arcs":[0]},{"type":"LineString","properties":{"source":"naturalearthdata.com","kind":"region","sort_rank":256,"kind_detail":"4","min_zoom":7.0,"id":114},"arcs":[1]},{"type":"LineString","properties":{"source":"naturalearthdata.com","kind":"region","sort_rank":256,"kind_detail":"4","min_zoom":7.0,"id":115},"arcs":[2]},{"type":"LineString","properties":{"source":"naturalearthdata.com","kind":"region","sort_rank":256,"kind_detail":"4","min_zoom":6.7,"id":220},"arcs":[3]},{"type":"LineString","properties":{"source":"naturalearthdata.com","kind":"region","sort_rank":256,"kind_detail":"4","min_zoom":6.7,"id":221},"arcs":[4]},{"type":"LineString","properties":{"source":"naturalearthdata.com","kind":"region","name":"Dajab\u00f3n - Santiago Rodr\u00edguez","sort_rank":256,"kind_detail":"4","min_zoom":7.0,"id":2521},"arcs":[5]},{"type":"MultiLineString","properties":{"source":"naturalearthdata.com","kind":"region","name":"Monte Cristi - Dajab\u00f3n","sort_rank":256,"kind_detail":"4","min_zoom":7.0,"id":2522},"arcs":[[6],[7],[8]]},{"type":"LineString","properties":{"source":"naturalearthdata.com","kind":"region","name":"Monte Cristi - Puerto Plata","sort_rank":256,"kind_detail":"4","min_zoom":7.0,"id":2513},"arcs":[9]},{"type":"MultiLineString","properties":{"source":"naturalearthdata.com","kind":"region","name":"Puerto Plata - Espaillat","sort_rank":256,"kind_detail":"4","min_zoom":7.0,"id":2514},"arcs":[[10],[11],[12],[13],[14]]},{"type":"MultiLineString","properties":{"source":"naturalearthdata.com","kind":"region","name":"Monte Cristi - Valverde","sort_rank":256,"kind_detail":"4","min_zoom":7.0,"id":2502},"arcs":[[15],[16],[17]]},{"type":"MultiLineString","properties":{"source":"naturalearthdata.com","kind":"region","name":"Santiago Rodr\u00edguez - Monte Cristi","sort_rank":256,"kind_detail":"4","min_zoom":7.0,"id":2503},"arcs":[[18],[19],[20],[21],[22],[23]]},{"type":"MultiLineString","properties":{"source":"naturalearthdata.com","kind":"region","name":"Espaillat - La Vega","sort_rank":256,"kind_detail":"4","min_zoom":7.0,"id":2504},"arcs":[[24],[25],[26],[27]]},{"type":"MultiLineString","properties":{"source":"naturalearthdata.com","kind":"region","name":"Hermanas - Espaillat","sort_rank":256,"kind_detail":"4","min_zoom":7.0,"id":2505},"arcs":[[28],[29],[30]]},{"type":"LineString","properties":{"source":"naturalearthdata.com","kind":"region","name":"Santiago - Espaillat","sort_rank":256,"kind_detail":"4","min_zoom":7.0,"id":2507},"arcs":[31]},{"type":"MultiLineString","properties":{"source":"naturalearthdata.com","kind":"region","name":"Puerto Plata - Santiago","sort_rank":256,"kind_detail":"4","min_zoom":7.0,"id":2511},"arcs":[[32],[33],[34]]},{"type":"LineString","properties":{"source":"naturalearthdata.com","kind":"region","name":"Puerto Plata - Valverde","sort_rank":256,"kind_detail":"4","min_zoom":7.0,"id":2512},"arcs":[35]},{"type":"LineString","properties":{"source":"naturalearthdata.com","kind":"region","name":"Nord-Est - Nord","sort_rank":256,"kind_detail":"4","min_zoom":6.7,"id":3803},"arcs":[36]},{"type":"LineString","properties":{"source":"naturalearthdata.com","kind":"region","name":"Nord-Est - Nord","sort_rank":256,"kind_detail":"4","min_zoom":6.7,"id":3790},"arcs":[37]},{"type":"LineString","properties":{"source":"naturalearthdata.com","kind":"region","name":"Nord-Est - Centre","sort_rank":256,"kind_detail":"4","min_zoom":6.7,"id":3791},"arcs":[38]},{"type":"LineString","properties":{"source":"naturalearthdata.com","kind":"region","name":"Nord - Nord-Est","sort_rank":256,"kind_detail":"4","min_zoom":6.7,"id":3802},"arcs":[39]},{"type":"MultiLineString","properties":{"source":"naturalearthdata.com","kind":"region","name":"L'Artibonite - Nord","sort_rank":256,"kind_detail":"4","min_zoom":6.7,"id":3804},"arcs":[[40],[41],[42],[43],[44],[45],[46]]},{"type":"LineString","properties":{"source":"naturalearthdata.com","kind":"region","name":"Nord - Centre","sort_rank":256,"kind_detail":"4","min_zoom":6.7,"id":3805},"arcs":[47]},{"type":"MultiLineString","properties":{"source":"naturalearthdata.com","kind":"region","name":"L'Artibonite - Nord-Ouest","sort_rank":256,"kind_detail":"4","min_zoom":6.7,"id":3806},"arcs":[[48],[49],[50],[51]]},{"type":"MultiLineString","properties":{"source":"naturalearthdata.com","kind":"region","name":"Nord-Ouest - Nord","sort_rank":256,"kind_detail":"4","min_zoom":6.7,"id":3807},"arcs":[[52],[53],[54]]},{"type":"LineString","properties":{"source":"naturalearthdata.com","kind":"region","name":"Hermanas - La Vega","sort_rank":256,"kind_detail":"4","min_zoom":7.0,"id":4193},"arcs":[55]},{"type":"LineString","properties":{"source":"naturalearthdata.com","kind":"region","name":"Hermanas - Duarte","sort_rank":256,"kind_detail":"4","min_zoom":7.0,"id":4197},"arcs":[56]},{"type":"LineString","properties":{"source":"naturalearthdata.com","kind":"region","name":"Santiago - La Vega","sort_rank":256,"kind_detail":"4","min_zoom":7.0,"id":4198},"arcs":[57]},{"type":"MultiLineString","properties":{"source":"naturalearthdata.com","kind":"region","name":"Valverde - Santiago","sort_rank":256,"kind_detail":"4","min_zoom":7.0,"id":4200},"arcs":[[58],[59],[60],[61],[62],[63]]},{"type":"MultiLineString","properties":{"source":"naturalearthdata.com","kind":"region","name":"Santiago - Santiago Rodr\u00edguez","sort_rank":256,"kind_detail":"4","min_zoom":7.0,"id":4202},"arcs":[[64],[65],[66]]},{"type":"LineString","properties":{"source":"naturalearthdata.com","kind":"region","name":"Santiago Rodr\u00edguez - Valverde","sort_rank":256,"kind_detail":"4","min_zoom":7.0,"id":4203},"arcs":[67]}]},"roads":{"type":"GeometryCollection","geometries":[{"type":"LineString","properties":{"source":"naturalearthdata.com","kind":"major_road","sort_rank":380,"kind_detail":"primary","min_zoom":7.0,"id":2829},"arcs":[101]},{"type":"LineString","properties":{"source":"naturalearthdata.com","kind":"major_road","kind_detail":"primary","sort_rank":380,"landuse_kind":"urban_area","min_zoom":7.0,"id":2832},"arcs":[102]},{"type":"MultiLineString","properties":{"source":"naturalearthdata.com","kind":"major_road","sort_rank":380,"kind_detail":"primary","min_zoom":7.0,"id":2832},"arcs":[[103],[104]]},{"type":"MultiLineString","properties":{"source":"naturalearthdata.com","kind":"major_road","sort_rank":380,"kind_detail":"primary","min_zoom":7.0,"id":2833},"arcs":[[105],[106]]},{"type":"LineString","properties":{"source":"naturalearthdata.com","kind":"major_road","sort_rank":380,"kind_detail":"primary","min_zoom":4.0,"id":2835},"arcs":[107]},{"type":"LineString","properties":{"source":"naturalearthdata.com","kind":"highway","sort_rank":383,"kind_detail":"motorway","min_zoom":4.0,"id":2858},"arcs":[108]},{"type":"LineString","properties":{"source":"naturalearthdata.com","kind":"major_road","sort_rank":380,"kind_detail":"primary","min_zoom":4.0,"id":2885},"arcs":[109]}]},"earth":{"type":"GeometryCollection","geometries":[{"type":"MultiPolygon","properties":{"sort_rank":10,"source":"naturalearthdata.com","min_zoom":0.0,"kind":"earth","area":78311944924},"arcs":[[[110]],[[111]],[[112]],[[113]],[[114]],[[115]],[[116]],[[117]],[[118]],[[119]],[[120]],[[121]],[[122]],[[123]],[[124]]]}]},"landuse":{"type":"GeometryCollection","geometries":[{"type":"MultiPolygon","properties":{"source":"openstreetmap.org","kind":"park","tier":2,"area":3657715219,"sort_rank":24,"min_zoom":4.0},"arcs":[[[125]]]},{"type":"MultiPolygon","properties":{"source":"openstreetmap.org","kind":"park","tier":2,"area":1205758036,"sort_rank":24,"min_zoom":6.0,"osm_relation":true},"arcs":[[[126]]]},{"type":"MultiPolygon","properties":{"source":"naturalearthdata.com","kind":"urban_area","name":"","area":415738635,"sort_rank":11,"min_zoom":4.0},"arcs":[[[127]]]},{"type":"Polygon","properties":{"kind":"nature_reserve","protect_class":"2","area":152004992,"sort_rank":23,"operator":"Bahamas National Trust","source":"openstreetmap.org","min_zoom":6.0,"tier":2,"id":-6482408,"osm_relation":true},"arcs":[[128]]}]}},"type":"Topology","transform":{"translate":[-73.125,19.3111433551],"scale":[0.0006866455,0.0006425542]},"arcs":[[[1992,621],[13,-43],[5,-27],[-2,-25],[-2,-41],[7,-35],[40,-98],[18,-121],[-1,-70],[-17,-36],[-8,-9],[-18,-47],[-14,-11],[-40,-23],[-9,-10],[6,-25]],[[2772,815]],[[4008,627]],[[6,495]],[[815,879]],[[2366,0],[-7,8],[-14,34],[71,32],[17,99],[12,33],[-4,35],[18,65],[34,57]],[[2008,526],[17,-4],[141,-61]],[[2319,480],[37,-10],[22,-41],[55,-37],[60,-29]],[[2166,461],[153,19]],[[2900,686],[-44,17],[-45,14],[-29,45],[-10,53]],[[3947,534],[24,8],[22,41],[15,44]],[[3921,534],[26,0]],[[3869,524],[26,3],[26,7]],[[3831,528],[19,0],[19,-4]],[[3753,322],[33,72],[12,83],[11,31],[22,20]],[[2879,490],[-4,52],[-4,51],[13,47],[16,46]],[[2843,494],[36,-4]],[[2826,351],[17,53],[-9,57],[9,33]],[[2582,353],[-44,16],[-25,19]],[[2513,388],[-20,-25]],[[2780,344],[-46,4],[-45,27]],[[2689,375],[-32,-4],[-28,-14],[-47,-4]],[[2826,351],[-25,8]],[[2801,359],[-21,-15]],[[3657,90],[35,-26],[46,-5]],[[3800,78],[30,-74]],[[3738,59],[32,13],[30,6]],[[3830,4],[41,8]],[[4096,365],[-8,-5],[-30,-44],[-35,-24]],[[4023,292],[-17,41],[-24,12],[-26,10]],[[3956,355],[-49,-61],[1,-103],[-6,-88],[-31,-91]],[[3657,90],[22,16],[22,18],[0,34],[-4,35],[9,39],[20,33],[21,25],[6,32]],[[3514,529],[78,-35],[30,-74],[43,-70],[88,-28]],[[3444,435],[65,3],[5,91]],[[3293,515],[45,-11],[40,-12],[33,-28],[33,-29]],[[2900,686],[49,-18],[47,-24],[33,-24],[39,-11],[59,-19],[49,-39],[55,-28],[62,-8]],[[1569,624],[-7,-15]],[[1562,609],[-6,-11]],[[1669,38],[52,-31],[16,-7]],[[1669,38],[-24,81],[-74,75],[-27,8],[-26,7],[14,23],[4,42],[-24,40],[-15,46],[-20,37],[-4,36],[6,20],[-2,22],[18,11],[23,5],[32,47],[6,60]],[[706,675],[-4,35],[-30,24],[-17,37]],[[988,339],[-52,22],[-44,36],[-41,40],[-24,63],[-20,62],[-35,16],[-18,26],[14,53],[-31,23]],[[737,680],[-31,-5]],[[1342,0],[-10,28],[-25,44],[-6,44],[7,43],[-24,56],[-59,29],[-56,52],[-7,99],[-28,15],[-21,11]],[[1113,421],[-25,-3],[-27,-25]],[[1061,393],[-29,0]],[[1032,393],[0,-40],[-44,-14]],[[1595,0],[74,38]],[[655,771],[-45,7]],[[610,778],[-36,-26],[-24,-15],[-30,-8],[-91,-78],[-110,-19]],[[319,632],[-59,11],[-60,5],[-59,14]],[[141,662],[-56,-5],[-69,-73],[-11,-85],[1,-4]],[[732,788],[19,17],[17,15],[12,9],[9,19],[15,22],[11,9]],[[679,805],[24,-6],[14,-9],[15,-2]],[[655,771],[-1,10],[5,18],[20,6]],[[3871,12],[4,-12]],[[4043,0],[12,72],[29,65],[12,7]],[[3466,0],[5,15],[36,10],[73,40],[77,25]],[[3225,410],[37,5],[21,47],[10,53]],[[3188,436],[37,-26]],[[3197,212],[64,0],[6,28],[-33,25],[10,45],[1,43],[-21,13],[-21,11],[-12,28],[-3,31]],[[2985,244],[41,-23],[42,-18],[21,-5]],[[3137,238],[60,-26]],[[3089,198],[22,3],[13,20],[13,17]],[[2985,244],[-19,-26],[-3,-31],[19,-14],[13,-15],[-56,-19],[-53,-26],[-27,-1]],[[2859,112],[-28,3]],[[2831,115],[-22,-16],[-18,-21],[-27,-22],[-20,-28],[-3,-28]],[[2985,244],[-107,20],[-52,87]],[[4096,4096],[0,-3548],[-10,5],[-24,17],[-54,57],[-89,95],[-56,18],[-15,-4],[-20,-11],[-17,-12],[-8,-10],[-7,-5],[-88,1],[-65,10],[-56,20],[-53,27],[-56,47],[-21,10],[-54,1],[7,14],[-5,15],[-64,77],[-18,13],[-17,0],[-43,-10],[-20,-2],[-71,12],[4,-9],[7,-24],[-11,0],[-28,11],[7,25],[-12,20],[-22,13],[-24,6],[-25,-3],[-47,-24],[-22,-6],[-18,-11],[-27,-52],[-15,-11],[-24,-3],[-19,-5],[-19,-1],[-23,9],[5,-11],[0,-4],[2,-2],[13,-4],[-4,-10],[-6,-9],[-9,-7],[-11,-7],[-16,41],[-13,14],[-17,-6],[-7,-17],[-1,-15],[-4,-12],[-17,-5],[-65,2],[-21,10],[-29,21],[-39,-15],[-41,9],[-139,72],[-37,14],[-38,6],[-150,-12],[-5,-3],[-10,-15],[-5,-3],[-11,2],[-18,8],[-11,1],[-19,-4],[-7,-13],[1,-17],[10,-20],[-16,-15],[-13,-6],[-13,-4],[-17,-7],[-9,-7],[-16,-20],[-10,-5],[-16,1],[-8,-2],[-6,-4],[-23,-26],[-16,-24],[5,-17],[39,-2],[0,-12],[-2,-15],[26,-60],[6,-31],[-26,14],[-28,6],[-61,1],[-38,9],[-17,1],[-11,-10],[-2,-15],[5,-14],[10,-9],[32,-9],[3,-11],[-7,-21],[-8,-5],[-16,10],[-26,22],[-22,-3],[-27,-8],[-25,3],[-16,29],[41,-1],[17,3],[13,8],[9,20],[-11,8],[-39,5],[-71,21],[-41,0],[-28,-21],[-17,-5],[-9,-11],[-7,-11],[-12,-6],[-13,4],[-20,14],[-13,7],[-5,7],[-6,7],[-12,4],[-50,0],[-15,4],[-21,22],[-10,7],[-8,2],[-5,0],[-57,-10],[-24,2],[-25,15],[13,38],[-20,16],[-29,0],[-14,-16],[-12,-23],[-27,-8],[-29,3],[-22,11],[-9,0],[6,-16],[3,-5],[0,-9],[-2,3],[-4,-6],[-3,-6],[0,-2],[5,-1],[9,1],[5,0],[-19,-22],[5,-14],[-5,-2],[-26,6],[-6,7],[-19,45],[23,-6],[7,-3],[0,9],[-70,66],[-9,25],[-19,-5],[-41,10],[-44,17],[-27,15],[-22,-15],[-40,15],[-39,27],[-31,38],[-5,6],[-86,27],[-31,15],[-36,23],[-149,35],[-45,2],[-49,-6],[-46,-12],[-39,-16],[-28,10],[-33,-3],[-28,-15],[-10,-24],[-16,15],[-20,7],[-22,2],[-22,-3],[-29,-8],[-10,-1],[-17,0],[-20,3],[-39,14],[-21,3],[-14,-2],[0,1688],[40,116],[93,117],[12,44],[29,166],[1,36],[-11,27],[-31,13],[-28,-17],[-22,-30],[-72,-114],[-11,-23],[0,1122],[1589,0],[-3,-7],[16,-9],[1,-14],[-3,-15],[6,-15],[13,-7],[17,-3],[14,3],[6,12],[35,40],[24,14],[11,-27],[-6,-19],[-22,-36],[-2,-20],[9,-15],[16,-14],[18,-10],[12,-4],[19,-9],[22,-18],[25,-6],[29,24],[-45,4],[-22,32],[-13,91],[5,24],[-1,4],[2326,0]],[[1856,3961],[4,-57],[5,-18],[13,-26],[11,-9],[37,4],[89,10],[38,-11],[23,-43],[9,0],[2,6],[8,16],[26,-37],[15,-10],[19,4],[-10,29],[-28,54],[-12,35],[17,-19],[13,-26],[16,-21],[25,-9],[-35,77],[-16,19],[-19,10],[-19,-1],[-41,-9],[-90,12],[-13,-2],[-13,-4],[-14,1],[-24,16],[-12,5],[-12,3],[-12,1]],[[2235,3801],[25,-28],[64,-28],[31,-19],[33,-46],[20,-21],[17,3],[12,40],[-15,33],[-28,22],[-29,13],[-36,10],[-25,10],[-49,32],[-3,-9],[-5,-4],[-6,-3],[-6,-5]],[[1007,3687],[0,45],[-40,-6],[1,-30],[-4,-33],[-10,-28],[-17,-16],[0,-10],[43,23],[27,55]],[[2364,3514],[-10,-27],[0,-37],[-10,-8],[-18,2],[-17,-12],[3,-26],[24,-16],[24,7],[12,21],[-1,36],[1,51],[-3,10],[-5,-1]],[[2883,3399],[-8,-35],[-1,-34],[10,-30],[16,23],[7,40],[-2,41],[-11,24],[-11,-29]],[[306,3383],[6,31],[-13,16],[-29,12],[-29,16],[-15,14],[-18,22],[-14,9],[-22,-15],[-25,-31],[-27,-17],[-34,-11],[-15,-12],[6,-32],[19,-30],[10,-30],[-4,-19],[3,-16],[13,1],[15,16],[50,24],[16,4],[26,24],[54,6],[27,18]],[[2789,3160],[-6,-14],[-8,-28],[9,-6],[18,19],[12,19],[-11,9],[-14,1]],[[2180,3111],[-1,22],[-8,-9],[-10,-24],[9,-13],[10,24]],[[2106,3094],[7,11],[-9,-3],[-11,-7],[-16,-12],[4,-3],[25,14]],[[326,1200],[-67,-23],[-9,-8],[-4,-2],[-6,0],[21,-19],[32,-17],[36,-12],[30,-6],[16,3],[17,7],[17,3],[24,-11],[71,-16],[57,-23],[123,-17],[24,-11],[16,37],[-58,37],[-138,55],[-33,20],[-25,11],[-28,4],[-42,-2],[-74,-10]],[[1491,3985],[2,-11],[10,4],[9,9],[0,12],[-4,7],[-8,-4],[-9,-17]],[[1143,3895],[4,-20],[9,9],[31,24],[-6,-21],[-18,-33],[-6,-21],[-5,3],[-2,0],[0,1],[-3,7],[-3,-9],[-1,-6],[1,-7],[3,-11],[20,6],[12,11],[4,16],[-5,21],[51,-23],[9,-9],[1,-16],[-10,-3],[-14,6],[-9,13],[-9,0],[16,-39],[27,4],[57,46],[0,-22],[21,5],[37,-5],[22,11],[-5,6],[-5,2],[-5,1],[-5,2],[41,21],[1,-9],[8,-23],[11,15],[39,38],[0,11],[-32,19],[-15,-4],[-12,-17],[-21,-20],[-19,-7],[-29,-5],[-28,0],[-19,7],[-92,85],[-33,16],[1,-27],[-15,-49]],[[1445,3948],[12,-2],[12,11],[-5,6],[-8,-5],[-11,-10]],[[0,0],[0,493],[4,2],[2,0],[15,-2],[28,-7],[15,-2],[91,-33],[14,6],[10,-2],[51,-44],[24,-12],[28,-6],[77,-49],[93,-43],[27,-20],[19,-23],[13,-21],[19,-14],[76,-5],[14,-8],[28,-57],[-18,0],[-14,8],[-10,9],[-7,4],[-21,4],[-4,1],[4,-6],[2,-36],[6,-13],[-1,-11],[-16,-12],[-15,-2],[-14,4],[-12,8],[-9,10],[-6,-19],[-3,-33],[6,-30],[17,-13],[30,-3],[15,-9],[7,-14],[-585,0]],[[967,3726],[1,-30],[-4,-33],[-10,-28],[-17,-16],[0,-10],[43,23],[27,55],[0,45],[-40,-6]],[[400,1210],[-74,-10],[-67,-23],[-9,-8],[-4,-2],[-6,0],[21,-19],[32,-17],[36,-12],[30,-6],[16,3],[17,7],[17,3],[24,-11],[71,-16],[57,-23],[123,-17],[24,-11],[16,37],[-58,37],[-138,55],[-33,20],[-25,11],[-28,4],[-42,-2]],[[1147,3875],[9,9],[31,24],[-6,-21],[-18,-33],[-6,-21],[-5,3],[-2,0],[0,1],[-3,7],[-3,-9],[-1,-6],[1,-7],[3,-11],[20,6],[12,11],[4,16],[-5,21],[51,-23],[9,-9],[1,-16],[-10,-3],[-14,6],[-9,13],[-9,0],[16,-39],[27,4],[57,46],[0,-22],[21,5],[37,-5],[22,11],[-5,6],[-5,2],[-5,1],[-5,2],[41,21],[1,-9],[8,-23],[11,15],[39,38],[0,11],[-32,19],[-15,-4],[-12,-17],[-21,-20],[-19,-7],[-29,-5],[-28,0],[-19,7],[-92,85],[-33,16],[1,-27],[-15,-49],[4,-20]],[[2355,3726],[33,-46],[20,-21],[17,3],[12,40],[-15,33],[-28,22],[-29,13],[-36,10],[-25,10],[-49,32],[-3,-9],[-5,-4],[-6,-3],[-6,-5],[25,-28],[64,-28],[31,-19]],[[1606,4036],[13,-7],[17,-3],[14,3],[6,12],[35,40],[24,14],[11,-27],[-6,-19],[-22,-36],[-2,-20],[9,-15],[16,-14],[18,-10],[12,-4],[19,-9],[22,-18],[25,-6],[29,24],[-45,4],[-22,32],[-13,91],[5,24],[-1,4]],[[1589,4096],[-3,-7],[16,-9],[1,-14],[-3,-15],[6,-15]],[[183,3331],[16,4],[26,24],[54,6],[27,18],[6,31],[-13,16],[-29,12],[-29,16],[-15,14],[-18,22],[-14,9],[-22,-15],[-25,-31],[-27,-17],[-34,-11],[-15,-12],[6,-32],[19,-30],[10,-30],[-4,-19],[3,-16],[13,1],[15,16],[50,24]],[[1926,3855],[89,10],[38,-11],[23,-43],[9,0],[2,6],[8,16],[26,-37],[15,-10],[19,4],[-10,29],[-28,54],[-12,35],[17,-19],[13,-26],[16,-21],[25,-9],[-35,77],[-16,19],[-19,10],[-19,-1],[-41,-9],[-90,12],[-13,-2],[-13,-4],[-14,1],[-24,16],[-12,5],[-12,3],[-12,1],[4,-57],[5,-18],[13,-26],[11,-9],[37,4]],[[2894,3428],[-11,-29],[-8,-35],[-1,-34],[10,-30],[16,23],[7,40],[-2,41],[-11,24]],[[4096,548],[-10,5],[-24,17],[-54,57],[-89,95],[-56,18],[-15,-4],[-20,-11],[-17,-12],[-8,-10],[-7,-5],[-88,1],[-65,10],[-56,20],[-53,27],[-56,47],[-21,10],[-54,1],[7,14],[-5,15],[-64,77],[-18,13],[-17,0],[-43,-10],[-20,-2],[-71,12],[4,-9],[7,-24],[-11,0],[-28,11],[7,25],[-12,20],[-22,13],[-24,6],[-25,-3],[-47,-24],[-22,-6],[-18,-11],[-27,-52],[-15,-11],[-24,-3],[-19,-5],[-19,-1],[-23,9],[5,-11],[0,-4],[2,-2],[13,-4],[-4,-10],[-6,-9],[-9,-7],[-11,-7],[-16,41],[-13,14],[-17,-6],[-7,-17],[-1,-15],[-4,-12],[-17,-5],[-65,2],[-21,10],[-29,21],[-39,-15],[-41,9],[-139,72],[-37,14],[-38,6],[-150,-12],[-5,-3],[-10,-15],[-5,-3],[-11,2],[-18,8],[-11,1],[-19,-4],[-7,-13],[1,-17],[10,-20],[-16,-15],[-13,-6],[-13,-4],[-17,-7],[-9,-7],[-16,-20],[-10,-5],[-16,1],[-8,-2],[-6,-4],[-23,-26],[-16,-24],[5,-17],[39,-2],[0,-12],[-2,-15],[26,-60],[6,-31],[-26,14],[-28,6],[-61,1],[-38,9],[-17,1],[-11,-10],[-2,-15],[5,-14],[10,-9],[32,-9],[3,-11],[-7,-21],[-8,-5],[-16,10],[-26,22],[-22,-3],[-27,-8],[-25,3],[-16,29],[41,-1],[17,3],[13,8],[9,20],[-11,8],[-39,5],[-71,21],[-41,0],[-28,-21],[-17,-5],[-9,-11],[-7,-11],[-12,-6],[-13,4],[-20,14],[-13,7],[-5,7],[-6,7],[-12,4],[-50,0],[-15,4],[-21,22],[-10,7],[-8,2],[-5,0],[-57,-10],[-24,2],[-25,15],[13,38],[-20,16],[-29,0],[-14,-16],[-12,-23],[-27,-8],[-29,3],[-22,11],[-9,0],[6,-16],[3,-5],[0,-9],[-2,3],[-4,-6],[-3,-6],[0,-2],[5,-1],[9,1],[5,0],[-19,-22],[5,-14],[-5,-2],[-26,6],[-6,7],[-19,45],[23,-6],[7,-3],[0,9],[-70,66],[-9,25],[-19,-5],[-41,10],[-44,17],[-27,15],[-22,-15],[-40,15],[-39,27],[-31,38],[-5,6],[-86,27],[-31,15],[-36,23],[-149,35],[-45,2],[-49,-6],[-46,-12],[-39,-16],[-28,10],[-33,-3],[-28,-15],[-10,-24],[-16,15],[-20,7],[-22,2],[-22,-3],[-29,-8],[-10,-1],[-17,0],[-20,3],[-39,14],[-21,3],[-14,-2]],[[0,493],[4,2],[2,0],[15,-2],[28,-7],[15,-2],[91,-33],[14,6],[10,-2],[51,-44],[24,-12],[28,-6],[77,-49],[93,-43],[27,-20],[19,-23],[13,-21],[19,-14],[76,-5],[14,-8],[28,-57],[-18,0],[-14,8],[-10,9],[-7,4],[-21,4],[-4,1],[4,-6],[2,-36],[6,-13],[-1,-11],[-16,-12],[-15,-2],[-14,4],[-12,8],[-9,10],[-6,-19],[-3,-33],[6,-30],[17,-13],[30,-3],[15,-9],[7,-14]],[[0,2639],[40,116],[93,117],[12,44],[29,166],[1,36],[-11,27],[-31,13],[-28,-17],[-22,-30],[-72,-114],[-11,-23]],[[1500,4002],[-9,-17],[2,-11],[10,4],[9,9],[0,12],[-4,7],[-8,-4]],[[1456,3958],[-11,-10],[12,-2],[12,11],[-5,6],[-8,-5]],[[2369,3515],[-5,-1],[-10,-27],[0,-37],[-10,-8],[-18,2],[-17,-12],[3,-26],[24,-16],[24,7],[12,21],[-1,36],[1,51],[-3,10]],[[2789,3160],[-6,-14],[-8,-28],[9,-6],[18,19],[12,19],[-11,9],[-14,1]],[[2171,3124],[-10,-24],[9,-13],[10,24],[-1,22],[-8,-9]],[[2093,3095],[-16,-12],[4,-3],[25,14],[7,11],[-9,-3],[-11,-7]],[[3592,611],[33,-54],[28,-59],[12,-89],[-7,-46],[-15,-27],[-21,-25],[-38,-24]],[[3591,269],[1,-2]],[[3584,287],[7,-18]],[[3592,267],[18,-48]],[[3592,611],[126,-35],[86,-35],[89,-51],[203,-139]],[[4096,35],[-1,1],[-63,35],[-137,56],[-280,95],[-5,-3]],[[3584,287],[-394,189],[-137,49],[-513,143],[-210,105],[-71,22],[-50,-3],[-23,-21],[-10,-41],[7,-140],[-30,-41],[-91,-35]],[[3610,219],[7,-56],[33,-84],[44,-79]],[[2062,514],[-71,-16],[-106,-14],[-109,-5],[-192,8],[-84,22],[-103,78],[-58,27],[-26,-8],[-25,-25],[-13,-2],[-197,16],[-23,-43],[-58,-71],[-18,-40],[13,-119],[-10,-24],[-53,-17],[-175,6],[-22,-60],[2,-64],[13,-76],[20,-87]],[[528,1177],[138,-55],[58,-37],[-16,-37],[-24,11],[-123,17],[-57,23],[-71,16],[-24,11],[-17,-3],[-17,-7],[-16,-3],[-30,6],[-36,12],[-32,17],[-21,19],[6,0],[4,2],[9,8],[67,23],[74,10],[42,2],[28,-4],[25,-11],[33,-20]],[[133,2872],[-93,-117],[-40,-116],[0,335],[11,23],[72,114],[22,30],[28,17],[31,-13],[11,-27],[-1,-36],[-29,-166],[-12,-44]],[[2106,3094],[-25,-14],[-4,3],[16,12],[11,7],[9,3],[-7,-11]],[[2180,3111],[-10,-24],[-9,13],[10,24],[8,9],[1,-22]],[[2802,3131],[-18,-19],[-9,6],[8,28],[6,14],[14,-1],[11,-9],[-12,-19]],[[2900,3323],[-16,-23],[-10,30],[1,34],[8,35],[11,29],[11,-24],[2,-41],[-7,-40]],[[4096,548],[0,-548],[-3511,0],[-7,14],[-15,9],[-30,3],[-17,13],[-6,30],[3,33],[6,19],[9,-10],[12,-8],[14,-4],[15,2],[16,12],[1,11],[-6,13],[-2,36],[-4,6],[4,-1],[21,-4],[7,-4],[10,-9],[14,-8],[18,0],[-28,57],[-14,8],[-76,5],[-19,14],[-13,21],[-19,23],[-27,20],[-93,43],[-77,49],[-28,6],[-24,12],[-51,44],[-10,2],[-14,-6],[-91,33],[-15,2],[-28,7],[-15,2],[-2,0],[-4,-2],[0,458],[14,2],[21,-3],[39,-14],[20,-3],[17,0],[10,1],[29,8],[22,3],[22,-2],[20,-7],[16,-15],[10,24],[28,15],[33,3],[28,-10],[39,16],[46,12],[49,6],[45,-2],[149,-35],[36,-23],[31,-15],[86,-27],[5,-6],[31,-38],[39,-27],[40,-15],[22,15],[27,-15],[44,-17],[41,-10],[19,5],[9,-25],[70,-66],[0,-9],[-7,3],[-23,6],[19,-45],[6,-7],[26,-6],[5,2],[-5,14],[19,22],[-5,0],[-9,-1],[-5,1],[0,2],[3,6],[4,6],[2,-3],[0,9],[-3,5],[-6,16],[9,0],[22,-11],[29,-3],[27,8],[12,23],[14,16],[29,0],[20,-16],[-13,-38],[25,-15],[24,-2],[57,10],[5,0],[8,-2],[10,-7],[21,-22],[15,-4],[50,0],[12,-4],[6,-7],[5,-7],[13,-7],[20,-14],[13,-4],[12,6],[7,11],[9,11],[17,5],[28,21],[41,0],[71,-21],[39,-5],[11,-8],[-9,-20],[-13,-8],[-17,-3],[-41,1],[16,-29],[25,-3],[27,8],[22,3],[26,-22],[16,-10],[8,5],[7,21],[-3,11],[-32,9],[-10,9],[-5,14],[2,15],[11,10],[17,-1],[38,-9],[61,-1],[28,-6],[26,-14],[-6,31],[-26,60],[2,15],[0,12],[-39,2],[-5,17],[16,24],[23,26],[6,4],[8,2],[16,-1],[10,5],[16,20],[9,7],[17,7],[13,4],[13,6],[16,15],[-10,20],[-1,17],[7,13],[19,4],[11,-1],[18,-8],[11,-2],[5,3],[10,15],[5,3],[150,12],[38,-6],[37,-14],[139,-72],[41,-9],[39,15],[29,-21],[21,-10],[65,-2],[17,5],[4,12],[1,15],[7,17],[17,6],[13,-14],[16,-41],[11,7],[9,7],[6,9],[4,10],[-13,4],[-2,2],[0,4],[-5,11],[23,-9],[19,1],[19,5],[24,3],[15,11],[27,52],[18,11],[22,6],[47,24],[25,3],[24,-6],[22,-13],[12,-20],[-7,-25],[28,-11],[11,0],[-7,24],[-4,9],[71,-12],[20,2],[43,10],[17,0],[18,-13],[64,-77],[5,-15],[-7,-14],[54,-1],[21,-10],[56,-47],[53,-27],[56,-20],[65,-10],[88,-1],[7,5],[8,10],[17,12],[20,11],[15,4],[56,-18],[89,-95],[54,-57],[24,-17],[10,-5]],[[980,3632],[-43,-23],[0,10],[17,16],[10,28],[4,33],[-1,30],[40,6],[0,-45],[-27,-55]],[[1916,3936],[14,-1],[13,4],[13,2],[90,-12],[41,9],[19,1],[19,-10],[16,-19],[35,-77],[-25,9],[-16,21],[-13,26],[-17,19],[12,-35],[28,-54],[10,-29],[-19,-4],[-15,10],[-26,37],[-8,-16],[-2,-6],[-9,0],[-23,43],[-38,11],[-89,-10],[-37,-4],[-11,9],[-13,26],[-5,18],[-4,57],[12,-1],[12,-3],[12,-5],[24,-16]],[[1190,3955],[92,-85],[19,-7],[28,0],[29,5],[19,7],[21,20],[12,17],[15,4],[32,-19],[0,-11],[-39,-38],[-11,-15],[-8,23],[-1,9],[-41,-21],[5,-2],[5,-1],[5,-2],[5,-6],[-22,-11],[-37,5],[-21,-5],[0,22],[-57,-46],[-27,-4],[-16,39],[9,0],[9,-13],[14,-6],[10,3],[-1,16],[-9,9],[-51,23],[5,-21],[-4,-16],[-12,-11],[-20,-6],[-3,11],[-1,7],[1,6],[3,9],[3,-7],[0,-1],[2,0],[5,-3],[6,21],[18,33],[6,21],[-31,-24],[-9,-9],[-4,20],[15,49],[-1,27],[33,-16]],[[1503,3978],[-10,-4],[-2,11],[9,17],[8,4],[4,-7],[0,-12],[-9,-9]],[[1770,4096],[1,-4],[-5,-24],[13,-91],[22,-32],[45,-4],[-29,-24],[-25,6],[-22,18],[-19,9],[-12,4],[-18,10],[-16,14],[-9,15],[2,20],[22,36],[6,19],[-11,27],[-24,-14],[-35,-40],[-6,-12],[-14,-3],[-17,3],[-13,7],[-6,15],[3,15],[-1,14],[-16,9],[3,7],[181,0]],[[2425,3662],[-17,-3],[-20,21],[-33,46],[-31,19],[-64,28],[-25,28],[6,5],[6,3],[5,4],[3,9],[49,-32],[25,-10],[36,-10],[29,-13],[28,-22],[15,-33],[-12,-40]],[[118,3291],[-13,-1],[-3,16],[4,19],[-10,30],[-19,30],[-6,32],[15,12],[34,11],[27,17],[25,31],[22,15],[14,-9],[18,-22],[15,-14],[29,-16],[29,-12],[13,-16],[-6,-31],[-27,-18],[-54,-6],[-26,-24],[-16,-4],[-50,-24],[-15,-16]],[[2371,3454],[1,-36],[-12,-21],[-24,-7],[-24,16],[-3,26],[17,12],[18,-2],[10,8],[0,37],[10,27],[5,1],[3,-10],[-1,-51]],[[2925,0],[-428,0],[-4,31],[-37,6],[67,84],[109,-2],[71,-37],[73,45],[78,-101],[63,-16],[8,-10]],[[1825,863],[2,35],[392,67],[-14,-90],[-66,-28],[-36,-274],[-75,16],[2,56],[-37,54],[-35,-10],[3,71],[-136,103]],[[3531,188],[-65,49],[-19,49],[76,15],[69,-32],[-10,-41],[-51,-40]],[[71,3418],[116,81],[122,-88],[-30,-45],[-43,-2],[-129,-75],[-36,129]]]}