{"objects":{"water":{"type":"GeometryCollection","geometries":[{"type":"MultiPolygon","properties":{"source":"naturalearthdata.com","kind":"ocean","area":1576712559132672,"sort_rank":200,"min_zoom":0.0,"id":1},"arcs":[[[109],[110]],[[111]]]},{"type":"Polygon","properties":{"kind":"lake","name":"Lago Enriquillo","area":318874176,"sort_rank":200,"alkaline":true,"source":"naturalearthdata.com","min_zoom":0.0,"id":1290},"arcs":[[112]]},{"type":"Polygon","properties":{"kind":"lake","name":"Etang Saum\u00e2tre","area":143084096,"sort_rank":200,"alkaline":true,"source":"naturalearthdata.com","min_zoom":0.0,"id":1295},"arcs":[[113]]},{"type":"Point","properties":{"label_placement":true,"kind":"lake","name":"Lago Enriquillo","area":318874176,"sort_rank":200,"alkaline":true,"source":"naturalearthdata.com","min_zoom":0.0,"id":1290},"coordinates":[2170,2829]},{"type":"Point","properties":{"label_placement":true,"kind":"lake","name":"Etang Saum\u00e2tre","area":143084096,"sort_rank":200,"alkaline":true,"source":"naturalearthdata.com","min_zoom":0.0,"id":1295},"coordinates":[1616,2962]},{"type":"LineString","properties":{"source":"naturalearthdata.com","kind":"ocean","sort_rank":205,"boundary":true,"min_zoom":0.0,"id":513},"arcs":[114]},{"type":"LineString","properties":{"source":"naturalearthdata.com","kind":"ocean","sort_rank":205,"boundary":true,"min_zoom":0.0,"id":549},"arcs":[115]},{"type":"MultiLineString","properties":{"source":"naturalearthdata.com","kind":"ocean","sort_rank":205,"boundary":true,"min_zoom":0.0,"id":551},"arcs":[[116],[117]]},{"type":"LineString","properties":{"source":"naturalearthdata.com","kind":"lake","sort_rank":367,"alkaline":true,"boundary":true,"min_zoom":0.0,"id":1290},"arcs":[118]},{"type":"LineString","properties":{"source":"naturalearthdata.com","kind":"lake","sort_rank":367,"alkaline":true,"boundary":true,"min_zoom":0.0,"id":1295},"arcs":[119]}]},"buildings":{"type":"GeometryCollection","geometries":[]},"places":{"type":"GeometryCollection","geometries":[{"type":"Point","properties":{"name:kg":"Ayiti","name:ps":"\u0647\u06d0\u064a\u0627\u062a\u064a","name:ka":"\u10f0\u10d0\u10d8\u10e2\u10d8","name:ko":"\uc544\uc774\ud2f0","name:cv":"\u0413\u0430\u0438\u0442\u0438","name:km":"\u17a0\u17c3\u1791\u17b8","name:kk":"\u0410\u0438\u0442\u0438","name:tt":"\u0413\u0430\u0438\u0442\u0438","name:kw":"Hayti","name:ku":"Ha\u00eet\u00ee","name:ti":"\u1200\u12ed\u1272","name:ks":"\u06c1\u0627\u06cc\u062a\u06cc","name:tl":"Hayti","name:pa":"\u0a39\u0a48\u0a24\u0a40","name:os":"\u0413\u0430\u0438\u0442\u0438","name:or":"\u0b39\u0b3e\u0b07\u0b24\u0b3f","name:ce":"\u0413\u0430\u0438\u0442\u0438 \u041f\u0430\u0447\u0445\u044c\u0430\u043b\u043a\u0445","name:ta":"\u0b8e\u0baf\u0bbf\u0b9f\u0bcd\u0b9f\u0bbf","name:ht":"Ayiti","name:ca":"Hait\u00ed","name:te":"\u0c39\u0c48\u0c1f\u0c3f","name:qu":"Ayti","name:dz":"\u0f67\u0f7a\u0f0b\u0f4a\u0f72","source":"openstreetmap.org","name:nv":"H\u00e9\u00edtii","name:kn":"\u0cb9\u0cc8\u0c9f\u0cbf","name:dv":"\u0780\u07a6\u0787\u07a8\u0793\u07a9","name:lt":"Haitis","name:uz":"Gaiti","name:he":"\u05d4\u05d0\u05d9\u05d8\u05d9","min_zoom":2.0,"kind":"country","name:ur":"\u06c1\u06cc\u0679\u06cc","name:la":"Haitia","name:lg":"Hayiti","name:uk":"\u0413\u0430\u0457\u0442\u0456","name:hy":"\u0540\u0561\u0575\u056b\u0569\u056b","name:ug":"\u06be\u0627\u064a\u062a\u0649","name:li":"Ha\u00efti","name:ln":"Ayiti","name:lo":"\u0ec4\u0eae\u0e95\u0eb4","name:oc":"Hait\u00ed","population":9801664,"name:el":"\u0391\u03ca\u03c4\u03ae","name:eo":"Haitio","name":"Haiti","name:is":"Ha\u00edt\u00ed","name:ee":"Haiti nutome","name:th":"\u0e1b\u0e23\u0e30\u0e40\u0e17\u0e28\u0e40\u0e2e\u0e15\u0e34","name:yi":"\u05d4\u05d0\u05d9\u05d8\u05d9","name:es":"Hait\u00ed","name:ay":"Ayti","name:mt":"\u0126aiti","name:rn":"Hayiti","name:az":"Haiti Respublikas\u0131","name:ig":"Hati","name:mr":"\u0939\u0948\u0924\u0940","name:ar":"\u0647\u0627\u064a\u062a\u064a","name:my":"\u101f\u1031\u1010\u102e","official_name":"Repiblik Ayiti","name:ak":"Heiti","name:am":"\u1200\u12ed\u1272","name:an":"Ait\u00ed","name:ru":"\u0413\u0430\u0438\u0442\u0438","name:rw":"Hayiti","id":424297281,"name:mk":"\u0425\u0430\u0438\u0442\u0438","name:af":"Ha\u00efti","name:zu":"i-Haiti","name:mn":"\u0413\u0430\u0439\u0442\u0438","name:ff":"Haytii","name:hi":"\u0939\u0948\u0924\u0940","name:fr":"Ha\u00efti","name:zh-yue":"\u6d77\u5730","name:fy":"Ha\u00efty","name:vo":"Haitiy\u00e4n","name:zh":"\u6d77\u5730","name:so":"Hayti","name:nl":"Ha\u00efti","name:ja":"\u30cf\u30a4\u30c1","name:si":"\u0dc4\u0dba\u0dd2\u0da7\u0dd2","name:fa":"\u0647\u0627\u0626\u06cc\u062a\u06cc","name:sg":"Hait\u00efi","name:na":"Aiti","name:ne":"\u0939\u0948\u091f\u0940","name:bm":"Ayiti","name:bn":"\u09b9\u09be\u0987\u09a4\u09bf","name:bo":"\u0f67\u0f60\u0f72\u0f0b\u0f4f\u0f72\u0f0d","name:ml":"\u0d39\u0d46\u0d2f\u0d4d\u0d31\u0d4d\u0d31\u0d3f","name:be":"\u0413\u0430\u0456\u0446\u0456","name:bg":"\u0425\u0430\u0438\u0442\u0438","name:ss":"IHayithi","name:sr":"\u0425\u0430\u0438\u0442\u0438","name:sq":"Haitia","name:ga":"H\u00e1it\u00ed","name:gd":"Haidhti","name:wo":"Ayiti","name:wa":"Ayiti","name:gl":"Hait\u00ed","name:yo":"H\u00e0\u00edt\u00ec","name:gu":"\u0ab9\u0ac8\u0aa4\u0ac0"},"coordinates":[1118,3834]},{"type":"Point","properties":{"source":"openstreetmap.org","kind":"region","name":"Peravia","kind_detail":"state","min_zoom":4.0,"id":2652225306},"coordinates":[4010,2595]},{"type":"Point","properties":{"source":"openstreetmap.org","kind":"region","name":"San Jos\u00e9 de Ocoa","kind_detail":"state","min_zoom":4.0,"id":2652225320},"coordinates":[3826,3023]},{"type":"Point","properties":{"source":"openstreetmap.org","kind":"region","name":"Monse\u00f1or Nouel","kind_detail":"state","min_zoom":4.0,"id":2652225292},"coordinates":[3942,3439]},{"type":"Point","properties":{"source":"openstreetmap.org","kind":"region","name":"Azua","name:ru":"\u0410\u0441\u0443\u0430","kind_detail":"state","min_zoom":4.0,"id":2652225266},"coordinates":[3337,2972]},{"type":"Point","properties":{"source":"openstreetmap.org","kind":"region","name":"La Vega","name:ru":"\u041b\u0430-\u0412\u0435\u0433\u0430","kind_detail":"state","min_zoom":4.0,"id":2652225284},"coordinates":[3631,3699]},{"type":"Point","properties":{"source":"openstreetmap.org","kind":"region","name":"Pedernales","kind_detail":"state","min_zoom":4.0,"id":2652225303},"coordinates":[2319,2025]},{"type":"Point","properties":{"source":"openstreetmap.org","kind":"region","name":"Independencia","kind_detail":"state","min_zoom":4.0,"id":2652225277},"coordinates":[2165,2676]},{"type":"Point","properties":{"source":"openstreetmap.org","kind":"region","name":"Bahoruco","kind_detail":"state","min_zoom":4.0,"id":2652225267},"coordinates":[2614,2875]},{"type":"Point","properties":{"source":"openstreetmap.org","kind":"region","name":"El\u00edas Pi\u00f1a","kind_detail":"state","min_zoom":4.0,"id":2652225273},"coordinates":[2081,3612]},{"type":"Point","properties":{"source":"openstreetmap.org","kind":"region","name":"Barahona","name:ru":"\u0411\u0430\u0440\u0430\u043e\u043d\u0430","kind_detail":"state","min_zoom":4.0,"id":2652225268},"coordinates":[2790,2351]},{"type":"Point","properties":{"source":"openstreetmap.org","kind":"region","name":"San Juan","name:ru":"\u0421\u0430\u043d-\u0425\u0443\u0430\u043d","kind_detail":"state","min_zoom":4.0,"id":2652225323},"coordinates":[2678,3435]},{"type":"Point","properties":{"kind":"region","name":"Centre","kind_detail":"state","source":"openstreetmap.org","min_zoom":4.0,"name:pl":"Departament Centralny","name:ru":"\u0426\u0435\u043d\u0442\u0440\u0430\u043b\u044c\u043d\u044b\u0439 \u0434\u0435\u043f\u0430\u0440\u0442\u0430\u043c\u0435\u043d\u0442","name:ht":"Sant","id":618755470},"coordinates":[1647,3606]},{"type":"Point","properties":{"kind":"region","name:en":"West","name":"Ouest","kind_detail":"state","name:de":"West","source":"openstreetmap.org","min_zoom":4.0,"name:pl":"Departament Zachodni","name:ru":"\u0417\u0430\u043f\u0430\u0434\u043d\u044b\u0439 \u0434\u0435\u043f\u0430\u0440\u0442\u0430\u043c\u0435\u043d\u0442","name:ht":"Lw\u00e8s","id":618762860},"coordinates":[999,3263]},{"type":"Point","properties":{"kind":"region","name:en":"South-East","name":"Sud-Est","kind_detail":"state","name:de":"S\u00fcdost","source":"openstreetmap.org","min_zoom":4.0,"name:pl":"Departament Po\u0142udniowo-Wschodni","name:ru":"\u042e\u0433\u043e-\u0412\u043e\u0441\u0442\u043e\u0447\u043d\u044b\u0439 \u0434\u0435\u043f\u0430\u0440\u0442\u0430\u043c\u0435\u043d\u0442","name:ht":"Sid\u00e8s","id":618769644},"coordinates":[1093,2544]},{"type":"Point","properties":{"source":"openstreetmap.org","kind":"region","name":"Artibonite","kind_detail":"state","min_zoom":4.0,"id":620051802},"coordinates":[788,3953]},{"type":"Point","properties":{"source":"naturalearthdata.com","kind":"locality","name":"Port-au-Prince","country_capital":true,"population":1998000,"min_zoom":5.0,"id":6827},"coordinates":[1146,2920]},{"type":"Point","properties":{"source":"naturalearthdata.com","kind":"locality","name":"San Juan","population":72950,"region_capital":true,"min_zoom":6.0,"id":5857},"coordinates":[2758,3327]},{"type":"Point","properties":{"source":"naturalearthdata.com","kind":"locality","name":"Barahona","population":90128,"region_capital":true,"min_zoom":7.0,"id":3825},"coordinates":[2949,2395]}]},"transit":{"type":"GeometryCollection","geometries":[]},"pois":{"type":"GeometryCollection","geometries":[]},"boundaries":{"type":"GeometryCollection","geometries":[{"type":"MultiLineString","properties":{"source":"naturalearthdata.com","kind":"country","sort_rank":262,"kind_detail":"2","min_zoom":0.0,"id":149},"arcs":[[0],[1],[2],[3],[4]]},{"type":"LineString","properties":{"source":"naturalearthdata.com","kind":"region","sort_rank":256,"kind_detail":"4","min_zoom":6.7,"id":218},"arcs":[5]},{"type":"LineString","properties":{"source":"naturalearthdata.com","kind":"region","sort_rank":256,"kind_detail":"4","min_zoom":6.7,"id":219},"arcs":[6]},{"type":"LineString","properties":{"source":"naturalearthdata.com","kind":"region","sort_rank":256,"kind_detail":"4","min_zoom":7.0,"id":278},"arcs":[7]},{"type":"LineString","properties":{"source":"naturalearthdata.com","kind":"region","name":"Santiago Rodr\u00edguez - La Estrelleta","sort_rank":256,"kind_detail":"4","min_zoom":7.0,"id":2519},"arcs":[8]},{"type":"LineString","properties":{"source":"naturalearthdata.com","kind":"region","name":"Independencia - La Estrelleta","sort_rank":256,"kind_detail":"4","min_zoom":7.0,"id":2520},"arcs":[9]},{"type":"LineString","properties":{"source":"naturalearthdata.com","kind":"region","name":"Dajab\u00f3n - Santiago Rodr\u00edguez","sort_rank":256,"kind_detail":"4","min_zoom":7.0,"id":2521},"arcs":[10]},{"type":"MultiLineString","properties":{"source":"naturalearthdata.com","kind":"region","name":"Bahoruco - Independencia","sort_rank":256,"kind_detail":"4","min_zoom":7.0,"id":2515},"arcs":[[11],[12],[13],[14]]},{"type":"LineString","properties":{"source":"naturalearthdata.com","kind":"region","name":"Azua - Bahoruco","sort_rank":256,"kind_detail":"4","min_zoom":7.0,"id":4211},"arcs":[15]},{"type":"MultiLineString","properties":{"source":"naturalearthdata.com","kind":"region","name":"Independencia - Barahona","sort_rank":256,"kind_detail":"4","min_zoom":7.0,"id":2516},"arcs":[[16],[17],[18],[19],[20]]},{"type":"LineString","properties":{"source":"naturalearthdata.com","kind":"region","name":"Pedernales - Independencia","sort_rank":256,"kind_detail":"4","min_zoom":7.0,"id":2517},"arcs":[21]},{"type":"MultiLineString","properties":{"source":"naturalearthdata.com","kind":"region","name":"La Estrelleta - San Juan","sort_rank":256,"kind_detail":"4","min_zoom":7.0,"id":2518},"arcs":[[22],[23],[24]]},{"type":"MultiLineString","properties":{"source":"naturalearthdata.com","kind":"region","name":"Barahona - Pedernales","sort_rank":256,"kind_detail":"4","min_zoom":7.0,"id":2501},"arcs":[[25],[26],[27]]},{"type":"MultiLineString","properties":{"source":"naturalearthdata.com","kind":"region","name":"La Estrelleta - Dajab\u00f3n","sort_rank":256,"kind_detail":"4","min_zoom":7.0,"id":2523},"arcs":[[28],[29],[30]]},{"type":"MultiLineString","properties":{"source":"naturalearthdata.com","kind":"region","name":"San Crist\u00f3bal - Monse\u00f1or Nouel","sort_rank":256,"kind_detail":"4","min_zoom":7.0,"id":4212},"arcs":[[31],[32]]},{"type":"MultiLineString","properties":{"source":"naturalearthdata.com","kind":"region","name":"Nord-Est - Centre","sort_rank":256,"kind_detail":"4","min_zoom":6.7,"id":3791},"arcs":[[33],[34],[35],[36]]},{"type":"MultiLineString","properties":{"source":"naturalearthdata.com","kind":"region","name":"Centre - L'Artibonite","sort_rank":256,"kind_detail":"4","min_zoom":6.7,"id":3792},"arcs":[[37],[38],[39]]},{"type":"LineString","properties":{"source":"naturalearthdata.com","kind":"region","name":"Nippes - Sud-Est","sort_rank":256,"kind_detail":"4","min_zoom":6.7,"id":3793},"arcs":[40]},{"type":"LineString","properties":{"source":"naturalearthdata.com","kind":"region","name":"Ouest - Nippes","sort_rank":256,"kind_detail":"4","min_zoom":6.7,"id":3794},"arcs":[41]},{"type":"MultiLineString","properties":{"source":"naturalearthdata.com","kind":"region","name":"Ouest - L'Artibonite","sort_rank":256,"kind_detail":"4","min_zoom":6.7,"id":3795},"arcs":[[42],[43],[44],[45]]},{"type":"MultiLineString","properties":{"source":"naturalearthdata.com","kind":"region","name":"Ouest - Centre","sort_rank":256,"kind_detail":"4","min_zoom":6.7,"id":3796},"arcs":[[46],[47],[48]]},{"type":"MultiLineString","properties":{"source":"naturalearthdata.com","kind":"region","name":"Sud-Est - Ouest","sort_rank":256,"kind_detail":"4","min_zoom":6.7,"id":3797},"arcs":[[49],[50],[51],[52],[53],[54],[55],[56],[57],[58],[59],[60],[61],[62],[63],[64]]},{"type":"LineString","properties":{"source":"naturalearthdata.com","kind":"region","name":"Sud - Nippes","sort_rank":256,"kind_detail":"4","min_zoom":6.7,"id":3799},"arcs":[65]},{"type":"LineString","properties":{"source":"naturalearthdata.com","kind":"region","name":"Sud-Est - Sud","sort_rank":256,"kind_detail":"4","min_zoom":6.7,"id":3800},"arcs":[66]},{"type":"LineString","properties":{"source":"naturalearthdata.com","kind":"region","name":"L'Artibonite - Nord","sort_rank":256,"kind_detail":"4","min_zoom":6.7,"id":3804},"arcs":[67]},{"type":"MultiLineString","properties":{"source":"naturalearthdata.com","kind":"region","name":"Nord - Centre","sort_rank":256,"kind_detail":"4","min_zoom":6.7,"id":3805},"arcs":[[68],[69]]},{"type":"LineString","properties":{"source":"naturalearthdata.com","kind":"region","name":"Peravia - San Jos\u00e9 de Ocoa","sort_rank":256,"kind_detail":"4","min_zoom":7.0,"id":4215},"arcs":[70]},{"type":"LineString","properties":{"source":"naturalearthdata.com","kind":"region","name":"Peravia - Azua","sort_rank":256,"kind_detail":"4","min_zoom":7.0,"id":4216},"arcs":[71]},{"type":"LineString","properties":{"source":"naturalearthdata.com","kind":"region","name":"San Crist\u00f3bal - San Jos\u00e9 de Ocoa","sort_rank":256,"kind_detail":"4","min_zoom":7.0,"id":4213},"arcs":[72]},{"type":"LineString","properties":{"source":"naturalearthdata.com","kind":"region","name":"S\u00e1nchez Ram\u00edrez - Monse\u00f1or Nouel","sort_rank":256,"kind_detail":"4","min_zoom":7.0,"id":4184},"arcs":[73]},{"type":"MultiLineString","properties":{"source":"naturalearthdata.com","kind":"region","name":"Monse\u00f1or Nouel - San Jos\u00e9 de Ocoa","sort_rank":256,"kind_detail":"4","min_zoom":7.0,"id":4185},"arcs":[[74],[75],[76]]},{"type":"MultiLineString","properties":{"source":"naturalearthdata.com","kind":"region","name":"Monse\u00f1or Nouel - La Vega","sort_rank":256,"kind_detail":"4","min_zoom":7.0,"id":4186},"arcs":[[77],[78]]},{"type":"LineString","properties":{"source":"naturalearthdata.com","kind":"region","name":"S\u00e1nchez Ram\u00edrez - La Vega","sort_rank":256,"kind_detail":"4","min_zoom":7.0,"id":4187},"arcs":[79]},{"type":"MultiLineString","properties":{"source":"naturalearthdata.com","kind":"region","name":"San Jos\u00e9 de Ocoa - La Vega","sort_rank":256,"kind_detail":"4","min_zoom":7.0,"id":4188},"arcs":[[80],[81],[82]]},{"type":"LineString","properties":{"source":"naturalearthdata.com","kind":"region","name":"La Vega - San Juan","sort_rank":256,"kind_detail":"4","min_zoom":7.0,"id":4189},"arcs":[83]},{"type":"LineString","properties":{"source":"naturalearthdata.com","kind":"region","name":"Hermanas - La Vega","sort_rank":256,"kind_detail":"4","min_zoom":7.0,"id":4193},"arcs":[84]},{"type":"LineString","properties":{"source":"naturalearthdata.com","kind":"region","name":"La Vega - Duarte","sort_rank":256,"kind_detail":"4","min_zoom":7.0,"id":4195},"arcs":[85]},{"type":"LineString","properties":{"source":"naturalearthdata.com","kind":"region","name":"Hermanas - Duarte","sort_rank":256,"kind_detail":"4","min_zoom":7.0,"id":4197},"arcs":[86]},{"type":"MultiLineString","properties":{"source":"naturalearthdata.com","kind":"region","name":"Santiago - La Vega","sort_rank":256,"kind_detail":"4","min_zoom":7.0,"id":4198},"arcs":[[87],[88],[89]]},{"type":"MultiLineString","properties":{"source":"naturalearthdata.com","kind":"region","name":"San Juan - Santiago","sort_rank":256,"kind_detail":"4","min_zoom":7.0,"id":4199},"arcs":[[90],[91],[92]]},{"type":"LineString","properties":{"source":"naturalearthdata.com","kind":"region","name":"Santiago Rodr\u00edguez - San Juan","sort_rank":256,"kind_detail":"4","min_zoom":7.0,"id":4201},"arcs":[93]},{"type":"LineString","properties":{"source":"naturalearthdata.com","kind":"region","name":"Santiago - Santiago Rodr\u00edguez","sort_rank":256,"kind_detail":"4","min_zoom":7.0,"id":4202},"arcs":[94]},{"type":"MultiLineString","properties":{"source":"naturalearthdata.com","kind":"region","name":"San Juan - Bahoruco","sort_rank":256,"kind_detail":"4","min_zoom":7.0,"id":4204},"arcs":[[95],[96],[97],[98],[99]]},{"type":"LineString","properties":{"source":"naturalearthdata.com","kind":"region","name":"Azua - San Jos\u00e9 de Ocoa","sort_rank":256,"kind_detail":"4","min_zoom":7.0,"id":4208},"arcs":[100]},{"type":"LineString","properties":{"source":"naturalearthdata.com","kind":"region","name":"Azua - La Vega","sort_rank":256,"kind_detail":"4","min_zoom":7.0,"id":4209},"arcs":[101]},{"type":"MultiLineString","properties":{"source":"naturalearthdata.com","kind":"region","name":"San Juan - Azua","sort_rank":256,"kind_detail":"4","min_zoom":7.0,"id":4210},"arcs":[[102],[103],[104]]},{"type":"LineString","properties":{"source":"naturalearthdata.com","kind":"region","name":"San Crist\u00f3bal - Peravia","sort_rank":256,"kind_detail":"4","min_zoom":7.0,"id":4217},"arcs":[105]},{"type":"MultiLineString","properties":{"source":"naturalearthdata.com","kind":"region","name":"Barahona - Bahoruco","sort_rank":256,"kind_detail":"4","min_zoom":7.0,"id":4221},"arcs":[[106],[107]]},{"type":"LineString","properties":{"source":"naturalearthdata.com","kind":"region","name":"Azua - Barahona","sort_rank":256,"kind_detail":"4","min_zoom":7.0,"id":4222},"arcs":[108]}]},"roads":{"type":"GeometryCollection","geometries":[{"type":"LineString","properties":{"source":"naturalearthdata.com","kind":"highway","sort_rank":383,"kind_detail":"motorway","min_zoom":4.0,"id":2858},"arcs":[120]},{"type":"LineString","properties":{"source":"naturalearthdata.com","kind":"major_road","sort_rank":380,"kind_detail":"primary","min_zoom":3.0,"id":2871},"arcs":[121]},{"type":"LineString","properties":{"source":"naturalearthdata.com","kind":"major_road","sort_rank":380,"kind_detail":"primary","min_zoom":3.0,"id":2884},"arcs":[122]},{"type":"LineString","properties":{"source":"naturalearthdata.com","kind":"major_road","sort_rank":380,"kind_detail":"primary","min_zoom":4.0,"id":2885},"arcs":[123]},{"type":"LineString","properties":{"source":"naturalearthdata.com","kind":"major_road","sort_rank":380,"kind_detail":"primary","ref":"2","min_zoom":4.0,"id":2906},"arcs":[124]}]},"earth":{"type":"GeometryCollection","geometries":[{"type":"MultiPolygon","properties":{"sort_rank":10,"source":"naturalearthdata.com","min_zoom":0.0,"kind":"earth","area":78311944924},"arcs":[[[125]],[[126]],[[127]]]},{"type":"Point","properties":{"osm_relation":true,"label_placement":true,"kind":"island","name":"Hispaniola","area":83121102848,"name:pt":"Ilha de S\u00e3o Domingos","source":"openstreetmap.org","min_zoom":7.0,"name:es":"La Espa\u00f1ola","name:ht":"Ispayola","id":-3478916,"alt_name:es":"Isla de Santo Domingo"},"coordinates":[3754,3287]}]},"landuse":{"type":"GeometryCollection","geometries":[{"type":"MultiPolygon","properties":{"source":"openstreetmap.org","kind":"park","tier":2,"area":3657715219,"sort_rank":24,"min_zoom":4.0},"arcs":[[[128]]]},{"type":"MultiPolygon","properties":{"source":"openstreetmap.org","kind":"park","tier":2,"area":2553540121,"sort_rank":24,"min_zoom":4.0,"osm_relation":true},"arcs":[[[129]]]},{"type":"MultiPolygon","properties":{"source":"naturalearthdata.com","kind":"urban_area","name":"","area":415738635,"sort_rank":11,"min_zoom":4.0},"arcs":[[[130]]]},{"type":"MultiPolygon","properties":{"source":"openstreetmap.org","kind":"park","tier":2,"area":908335947,"sort_rank":24,"min_zoom":6.0},"arcs":[[[131]],[[132]]]}]}},"type":"Topology","transform":{"translate":[-73.125,16.6361918784],"scale":[0.0006866455,0.0006530643]},"arcs":[[[1970,4096],[1,-5],[26,-37],[6,-6],[48,-49],[95,-46],[18,-9],[-7,-91],[-7,-26],[-18,-27],[-50,-36],[-22,-19],[-43,-61],[-64,-70],[-19,-12],[-74,-20],[-26,-17],[5,-26]],[[1901,3555],[34,-1],[13,-11],[21,-43],[13,-16],[34,-30],[11,-14],[8,-29],[1,-62],[12,-60],[-2,-29],[-7,-28],[-10,-26],[-18,-28],[-20,-17],[-39,-24],[-10,-6],[-4,-3],[-20,-22],[-30,-51],[-19,-20],[-56,-20]],[[1839,3539],[26,4],[36,12]],[[1813,3015],[-110,21]],[[1703,3036],[-54,-12],[-25,-19],[13,-25],[132,-135],[9,-14],[4,-23],[-8,-9],[-11,-6],[-5,-17],[8,-28],[22,-12],[57,-14],[12,-11],[22,-33],[12,-14],[55,-36],[78,-30],[21,-14],[14,-12],[3,-4],[-17,-30],[-1,-1],[-65,-111],[-12,-29],[-4,-30],[3,-15],[15,-44],[4,-17],[-1,-25],[3,-45],[-5,-26],[-18,-47]],[[101,2790]],[[170,2366]],[[3145,2490]],[[2384,4077],[60,-38],[45,-60],[65,-33],[64,-34]],[[2316,3085],[-92,20],[-93,7],[-99,15],[-80,10]],[[2384,4077],[-18,19]],[[2316,3085],[-48,-13],[-46,-15],[-7,-17],[2,-19],[-10,-35],[-16,-32],[41,-134],[149,-58],[56,-26],[53,-32],[56,-14]],[[2602,2712],[70,-5],[37,-71],[41,-33]],[[2546,2690],[56,22]],[[2750,2603],[52,3]],[[2860,3031],[69,-69],[91,-32],[46,-8],[39,-26],[-1,-27],[-31,-12]],[[2677,2521],[77,21],[48,64]],[[2604,2546],[73,-25]],[[2550,2356],[34,5],[-23,84],[-22,88],[65,13]],[[2513,2366],[37,-10]],[[2480,2296],[7,42],[26,28]],[[2480,2296],[-43,37],[-42,39],[-50,21],[-54,13],[-124,62],[-120,68],[-3,1]],[[2504,3781],[55,3],[46,35],[3,47],[10,46]],[[2409,3816],[49,-8],[46,-27]],[[2316,3085],[20,49],[-16,43],[-40,9],[-27,29],[0,38],[-10,35],[-30,26],[-33,21],[18,75],[-25,32],[12,82],[36,77],[32,29],[41,4],[45,13],[23,49],[17,65],[30,55]],[[2480,2296],[45,-26],[2,-62],[1,-28],[-3,-27],[-8,-17],[-14,-6],[-15,-5],[-10,-14],[31,-78],[72,-59]],[[2618,1983],[43,-3],[23,-53],[0,-60],[1,-3],[0,-1]],[[2581,1974],[37,9]],[[2384,4077],[-25,-26],[-30,-18]],[[2329,4033],[-35,12],[-35,10]],[[2259,4055],[-18,-22],[-11,-28],[-31,-11],[-29,-18],[-24,-23]],[[4096,3193],[-1,-3]],[[4095,3190],[-54,1]],[[1737,4096],[38,-17],[27,-23],[40,-6],[33,-6]],[[1953,4041],[50,7]],[[1902,4046],[51,-5]],[[1875,4044],[27,2]],[[1347,4082],[-67,-94],[-8,-110],[39,-39],[-13,-33],[3,-37],[10,-45],[-21,-78],[9,-77],[5,-40],[-20,-50],[-6,-48],[-34,-19]],[[1244,3412],[-69,8]],[[1175,3420],[-68,-4]],[[164,2427],[-3,33],[0,34],[19,43],[5,46]],[[101,2790],[8,-17],[1,-18],[-23,-38],[3,-42],[37,-1],[25,-26],[11,-37],[22,-28]],[[892,3555],[-34,4],[-110,16],[-93,3]],[[655,3578],[-24,-18],[-21,-26]],[[1107,3416],[-35,35],[-39,29],[-38,15],[-37,16],[-14,23],[-16,23]],[[928,3557],[-36,-2]],[[1484,3168],[-111,38],[-88,87],[-43,30],[-50,12],[-47,30],[-38,51]],[[1942,3131],[-1,0],[-10,12],[-55,33],[-61,16],[-49,18],[-49,17]],[[1717,3227],[-117,-22],[-116,-37]],[[1043,2667],[-28,14],[-38,19],[-53,3]],[[924,2703],[-48,-22],[-36,-44],[-15,-11],[-17,0],[-36,-16],[-34,-4],[-19,-2],[-17,-14],[-27,-4],[-29,-1],[-17,-15],[-16,-15]],[[1243,2616],[-120,7],[-20,23],[-18,24]],[[1085,2670],[-42,-3]],[[1620,2569],[-126,29],[-127,26]],[[1367,2624],[-124,-8]],[[224,2521],[-18,34],[-21,28]],[[613,2555],[-25,4],[-23,12]],[[565,2571],[-4,-22],[-8,-19],[-17,-14],[-12,-21]],[[1916,2516],[-76,47],[-98,8]],[[1742,2571],[-122,-2]],[[2045,2538],[-2,0],[-127,-22]],[[386,2491],[-32,16],[-16,24],[-22,1],[-23,2]],[[293,2534],[-38,-9],[-31,-4]],[[524,2495],[-48,12],[-49,17]],[[427,2524],[-25,-15],[-16,-18]],[[164,2427],[-37,50],[-12,67],[-46,43],[-56,45],[-13,4]],[[164,2427],[3,-27],[5,-27],[-2,-7]],[[1347,4082],[-5,14]],[[1435,4015],[29,3],[100,62],[31,16]],[[1347,4082],[43,-15],[32,-32],[13,-20]],[[4032,2859],[-31,-33],[-37,-26],[-71,-21],[-40,-58]],[[3853,2721],[10,-28],[-14,-28],[-11,-41],[3,-44],[-53,-60],[-81,-16]],[[4041,3191],[-27,-62],[-5,-66],[6,-54],[-16,-54],[11,-50],[22,-46]],[[3980,3730],[16,-36],[14,-35],[6,-42],[37,-18],[14,-17],[4,-22],[23,-30],[2,-2]],[[3774,3295],[61,-36],[59,-43]],[[3965,3233],[39,-16],[37,-26]],[[3894,3216],[36,4],[35,13]],[[3980,3730],[-11,40],[-35,21]],[[3934,3791],[-29,-11],[-15,-28],[-70,-19],[-30,-56],[-1,-105],[-87,-71],[-14,-106],[86,-100]],[[4096,3814],[-17,-9],[-58,-27],[-41,-48]],[[3774,3295],[-21,-68],[-38,-48],[-31,-29],[-22,-24]],[[3662,3126],[-64,0]],[[3598,3126],[-66,-1]],[[3217,3659],[24,-24],[12,-33]],[[3875,4096],[17,-40],[29,-49],[41,-39],[60,-4]],[[4096,3874],[-27,17],[-47,73]],[[4022,3964],[1,65],[20,66],[0,1]],[[3557,3904],[-4,44],[10,53],[-23,40],[-44,12],[-35,27],[5,16]],[[3519,3912],[38,-8]],[[3217,3659],[6,34],[-11,33],[43,21],[48,21],[90,43],[77,58],[18,41],[31,2]],[[3072,3659],[-65,20],[-65,42],[-28,25],[-4,38],[-13,22],[-24,13],[-60,29],[-54,32]],[[3217,3659],[-38,12],[-38,12]],[[3141,3683],[-35,-8],[-34,-16]],[[2618,3912],[63,-31],[78,-1]],[[2741,4096],[-2,-19],[-4,-47],[5,-32],[24,-23],[2,-47],[-7,-48]],[[2316,3085],[68,-25],[72,-15],[66,-33],[71,-6]],[[2807,3061],[53,-30]],[[2698,3034],[40,7],[69,20]],[[2657,3038],[41,-4]],[[2593,3006],[31,21],[33,11]],[[3853,2721],[-32,64],[-30,52],[-47,24],[-48,31],[-34,12],[-25,25],[-11,23],[-22,13],[-30,77],[-42,83]],[[3532,3125],[20,87],[-55,67],[-89,46],[-62,84],[-16,141],[-77,52]],[[3089,3242],[20,19],[11,26],[1,79],[10,75],[17,39],[36,25],[21,19],[6,30],[30,15],[12,33]],[[3056,3277],[12,-27],[21,-8]],[[2860,3031],[64,18],[38,57],[24,9],[27,13],[-3,19],[-10,17],[16,21],[1,19],[-9,58],[48,15]],[[4032,2859],[64,-27]],[[3073,2857],[-28,37]],[[3045,2894],[-20,-40],[-23,-38],[-37,-27],[-45,-17],[-23,-19],[-17,-25],[-23,-16],[-25,-16],[-25,-40],[-5,-50]],[[3073,2857],[15,-25],[5,-49],[-30,-38],[-44,-38],[7,-18],[7,-18],[13,-10],[19,-7],[47,-13],[42,-11],[-4,-22],[5,-32],[12,-50],[-22,-36]],[[4096,2453],[0,-2453],[-4096,0],[0,2379],[11,-2],[39,2],[153,-17],[56,-15],[51,-20],[38,-22],[40,15],[80,-8],[40,26],[11,-7],[8,-3],[22,-1],[-3,7],[-4,17],[-3,7],[35,-2],[171,16],[23,-4],[39,-16],[17,1],[14,15],[-10,58],[8,6],[18,-6],[29,-16],[114,21],[212,3],[152,-1],[116,19],[57,0],[47,-18],[48,-25],[114,-39],[51,-32],[45,-41],[101,-132],[24,-17],[82,-30],[53,-45],[25,-29],[11,-27],[-10,-58],[1,-18],[3,-9],[16,-24],[23,-44],[6,-23],[2,-33],[-10,-20],[-47,-48],[-14,-11],[50,-12],[117,15],[49,-19],[24,-26],[100,-166],[14,-13],[1,-6],[13,-12],[14,-7],[60,85],[15,28],[49,144],[18,26],[6,11],[9,30],[6,6],[11,3],[9,6],[8,10],[6,13],[-10,0],[5,5],[3,4],[2,11],[6,-5],[4,-3],[11,-4],[9,26],[10,18],[13,15],[18,15],[28,16],[14,9],[6,13],[12,34],[138,202],[24,62],[29,43],[0,18],[-8,14],[-24,84],[-10,17],[-10,9],[-7,11],[-3,20],[3,17],[13,22],[3,13],[9,23],[23,10],[29,-1],[64,-14],[15,-6],[15,-12],[10,-14],[7,-15],[10,-12],[14,-5],[34,4],[21,12],[39,46],[7,4],[19,6],[4,6],[2,7],[9,19],[4,6],[15,13],[6,4],[18,-2],[14,3],[20,14],[12,5],[13,-2],[30,-9],[17,-1],[16,5],[12,8],[43,42],[4,13],[-5,32],[13,27],[31,8],[36,-2],[29,-7],[34,-13],[19,-14],[32,-40],[8,-18],[4,-29],[-1,-32],[-6,-31],[-8,-10],[-10,-6],[-8,-7],[-4,-15],[6,-14],[28,-18],[11,-15],[10,-6],[10,-9],[4,-17],[-6,-9],[-14,-9],[-10,-10],[2,-14],[23,-9],[101,0],[34,7],[60,34],[31,10],[124,1]],[[2414,1446],[-37,35],[-21,16],[-20,11],[-16,-30],[-14,-39],[1,-33],[24,-14],[25,9],[36,38],[22,7]],[[0,4096],[585,0],[14,-27],[-17,3],[-24,-1],[-23,-5],[-16,-8],[-10,-14],[-16,-35],[-14,-13],[-1,-8],[1,-3],[-1,-3],[-10,-7],[10,-25],[35,-61],[15,-20],[24,-14],[27,-10],[21,-15],[8,-29],[-13,-22],[-31,-11],[-56,-3],[-61,-25],[7,-39],[152,-165],[27,-14],[25,-8],[31,-19],[29,-24],[21,-21],[74,-116],[13,-29],[12,-14],[50,-30],[35,4],[28,-22],[27,-32],[29,-25],[17,-5],[36,-1],[18,-4],[66,-32],[13,-9],[8,-19],[-5,-11],[-12,-12],[-10,-21],[-2,-17],[2,-94],[-3,-35],[-12,-26],[-26,-7],[-13,8],[-31,34],[-4,2],[-3,4],[-4,4],[-10,1],[-5,-3],[-2,-7],[-4,-7],[-8,-4],[-243,22],[-47,-10],[-35,-44],[-24,-54],[-29,-47],[-40,-33],[-56,-13],[-104,17],[-21,9],[-26,0],[-39,-13],[-27,-6],[7,25],[-126,31],[-102,-19],[-37,-6],[-25,1],[-22,9],[-17,10],[0,530],[128,-83],[46,-11],[44,-3],[130,-29],[33,-2],[11,-3],[13,-11],[13,-28],[10,-9],[16,6],[17,30],[4,39],[-5,40],[-12,33],[-42,52],[-103,43],[-111,56],[-100,33],[-92,38],[0,571]],[[2265,2872],[88,-55],[22,-18],[-23,-34],[-10,-9],[-16,-10],[-70,-15],[-9,-10],[-20,0],[-32,5],[-11,6],[-19,18],[-10,7],[-35,10],[-26,14],[-40,11],[-8,12],[-8,7],[-53,30],[-42,8],[-19,6],[-14,23],[-9,23],[0,16],[24,-13],[31,-27],[31,8],[29,26],[25,30],[31,18],[29,-8],[27,-16],[61,-28],[11,-9],[18,-13],[15,-4],[14,-3],[18,-6]],[[1714,2901],[25,-35],[37,-25],[-23,-10],[-33,-9],[-30,0],[-13,13],[-11,29],[-27,16],[-30,10],[-23,14],[-34,54],[-6,51],[18,47],[42,38],[13,-11],[5,-14],[2,-44],[5,-24],[12,-12],[16,-9],[18,-14],[19,-29],[18,-36]],[[2331,1392],[25,9],[36,38],[22,7],[-37,35],[-21,16],[-20,11],[-16,-30],[-14,-39],[1,-33],[24,-14]],[[0,3334],[128,-83],[46,-11],[44,-3],[130,-29],[33,-2],[11,-3],[13,-11],[13,-28],[10,-9],[16,6],[17,30],[4,39],[-5,40],[-12,33],[-42,52],[-103,43],[-111,56],[-100,33],[-92,38]],[[585,4096],[14,-27],[-17,3],[-24,-1],[-23,-5],[-16,-8],[-10,-14],[-16,-35],[-14,-13],[-1,-8],[1,-3],[-1,-3],[-10,-7],[10,-25],[35,-61],[15,-20],[24,-14],[27,-10],[21,-15],[8,-29],[-13,-22],[-31,-11],[-56,-3],[-61,-25],[7,-39],[152,-165],[27,-14],[25,-8],[31,-19],[29,-24],[21,-21],[74,-116],[13,-29],[12,-14],[50,-30],[35,4],[28,-22],[27,-32],[29,-25],[17,-5],[36,-1],[18,-4],[66,-32],[13,-9],[8,-19],[-5,-11],[-12,-12],[-10,-21],[-2,-17],[2,-94],[-3,-35],[-12,-26],[-26,-7],[-13,8],[-31,34],[-4,2],[-3,4],[-4,4],[-10,1],[-5,-3],[-2,-7],[-4,-7],[-8,-4],[-243,22],[-47,-10],[-35,-44],[-24,-54],[-29,-47],[-40,-33],[-56,-13],[-104,17],[-21,9],[-26,0],[-39,-13],[-27,-6],[7,25],[-126,31],[-102,-19],[-37,-6],[-25,1],[-22,9],[-17,10]],[[0,2379],[11,-2],[39,2],[153,-17],[56,-15],[51,-20],[38,-22],[40,15],[80,-8],[40,26],[11,-7],[8,-3],[22,-1],[-3,7],[-4,17],[-3,7],[35,-2],[171,16],[23,-4],[39,-16],[17,1],[14,15],[-10,58],[8,6],[18,-6],[29,-16],[114,21],[212,3],[152,-1],[116,19],[57,0],[47,-18],[48,-25],[114,-39],[51,-32],[45,-41],[101,-132],[24,-17],[82,-30],[53,-45],[25,-29],[11,-27],[-10,-58],[1,-18],[3,-9],[16,-24],[23,-44],[6,-23],[2,-33],[-10,-20],[-47,-48],[-14,-11],[50,-12],[117,15],[49,-19],[24,-26],[100,-166],[14,-13],[1,-6],[13,-12],[14,-7],[60,85],[15,28],[49,144],[18,26],[6,11],[9,30],[6,6],[11,3],[9,6],[8,10],[6,13],[-10,0],[5,5],[3,4],[2,11],[6,-5],[4,-3],[11,-4],[9,26],[10,18],[13,15],[18,15],[28,16],[14,9],[6,13],[12,34],[138,202],[24,62],[29,43],[0,18],[-8,14],[-24,84],[-10,17],[-10,9],[-7,11],[-3,20],[3,17],[13,22],[3,13],[9,23],[23,10],[29,-1],[64,-14],[15,-6],[15,-12],[10,-14],[7,-15],[10,-12],[14,-5],[34,4],[21,12],[39,46],[7,4],[19,6],[4,6],[2,7],[9,19],[4,6],[15,13],[6,4],[18,-2],[14,3],[20,14],[12,5],[13,-2],[30,-9],[17,-1],[16,5],[12,8],[43,42],[4,13],[-5,32],[13,27],[31,8],[36,-2],[29,-7],[34,-13],[19,-14],[32,-40],[8,-18],[4,-29],[-1,-32],[-6,-31],[-8,-10],[-10,-6],[-8,-7],[-4,-15],[6,-14],[28,-18],[11,-15],[10,-6],[10,-9],[4,-17],[-6,-9],[-14,-9],[-10,-10],[2,-14],[23,-9],[101,0],[34,7],[60,34],[31,10],[124,1]],[[2265,2872],[88,-55],[22,-18],[-23,-34],[-10,-9],[-16,-10],[-70,-15],[-9,-10],[-20,0],[-32,5],[-11,6],[-19,18],[-10,7],[-35,10],[-26,14],[-40,11],[-8,12],[-8,7],[-53,30],[-42,8],[-19,6],[-14,23],[-9,23],[0,16],[24,-13],[31,-27],[31,8],[29,26],[25,30],[31,18],[29,-8],[27,-16],[61,-28],[11,-9],[18,-13],[15,-4],[14,-3],[18,-6]],[[1714,2901],[25,-35],[37,-25],[-23,-10],[-33,-9],[-30,0],[-13,13],[-11,29],[-27,16],[-30,10],[-23,14],[-34,54],[-6,51],[18,47],[42,38],[13,-11],[5,-14],[2,-44],[5,-24],[12,-12],[16,-9],[18,-14],[19,-29],[18,-36]],[[3694,4096],[72,-127],[223,-343],[58,-149],[49,-96]],[[4096,2510],[-99,49],[-284,171],[-88,42],[-230,88],[-96,53],[-31,21],[-73,80],[-66,93],[-10,35],[-15,18],[-28,16],[-311,96],[-309,136],[-167,50],[-96,14],[-78,-6],[-68,-18],[-89,-40]],[[1958,3408],[-129,-56],[-253,-77],[-71,-38],[-53,-55],[-33,-59],[-32,-117],[-69,-61],[-76,-51]],[[767,4096],[48,-199],[-13,-229],[43,-135],[84,-104],[104,-80],[106,-72],[88,-71],[56,-88],[2,-115],[-43,-109]],[[1242,2894],[-43,-21],[-220,-74],[-288,-83],[-228,-56],[-50,-5],[-250,43],[-43,-14],[-86,-50],[-34,-12]],[[2356,1401],[-25,-9],[-24,14],[-1,33],[14,39],[16,30],[20,-11],[21,-16],[37,-35],[-22,-7],[-36,-38]],[[585,4096],[3511,0],[0,-1643],[-124,-1],[-31,-10],[-60,-34],[-34,-7],[-101,0],[-23,9],[-2,14],[10,10],[14,9],[6,9],[-4,17],[-10,9],[-10,6],[-11,15],[-28,18],[-6,14],[4,15],[8,7],[10,6],[8,10],[6,31],[1,32],[-4,29],[-8,18],[-32,40],[-19,14],[-34,13],[-29,7],[-36,2],[-31,-8],[-13,-27],[5,-32],[-4,-13],[-43,-42],[-12,-8],[-16,-5],[-17,1],[-30,9],[-13,2],[-12,-5],[-20,-14],[-14,-3],[-18,2],[-6,-4],[-15,-13],[-4,-6],[-9,-19],[-2,-7],[-4,-6],[-19,-6],[-7,-4],[-39,-46],[-21,-12],[-34,-4],[-14,5],[-10,12],[-7,15],[-10,14],[-15,12],[-15,6],[-64,14],[-29,1],[-23,-10],[-9,-23],[-3,-13],[-13,-22],[-3,-17],[3,-20],[7,-11],[10,-9],[10,-17],[24,-84],[8,-14],[0,-18],[-29,-43],[-24,-62],[-138,-202],[-12,-34],[-6,-13],[-14,-9],[-28,-16],[-18,-15],[-13,-15],[-10,-18],[-9,-26],[-11,4],[-4,3],[-6,5],[-2,-11],[-3,-4],[-5,-5],[10,0],[-6,-13],[-8,-10],[-9,-6],[-11,-3],[-6,-6],[-9,-30],[-6,-11],[-18,-26],[-49,-144],[-15,-28],[-60,-85],[-14,7],[-13,12],[-1,6],[-14,13],[-100,166],[-24,26],[-49,19],[-117,-15],[-50,12],[14,11],[47,48],[10,20],[-2,33],[-6,23],[-23,44],[-16,24],[-3,9],[-1,18],[10,58],[-11,27],[-25,29],[-53,45],[-82,30],[-24,17],[-101,132],[-45,41],[-51,32],[-114,39],[-48,25],[-47,18],[-57,0],[-116,-19],[-152,1],[-212,-3],[-114,-21],[-29,16],[-18,6],[-8,-6],[10,-58],[-14,-15],[-17,-1],[-39,16],[-23,4],[-171,-16],[-35,2],[3,-7],[4,-17],[3,-7],[-22,1],[-8,3],[-11,7],[-40,-26],[-80,8],[-40,-15],[-38,22],[-51,20],[-56,15],[-153,17],[-39,-2],[-11,2],[0,425],[17,-10],[22,-9],[25,-1],[37,6],[102,19],[126,-31],[-7,-25],[27,6],[39,13],[26,0],[21,-9],[104,-17],[56,13],[40,33],[29,47],[24,54],[35,44],[47,10],[243,-22],[8,4],[4,7],[2,7],[5,3],[10,-1],[4,-4],[3,-4],[4,-2],[31,-34],[13,-8],[26,7],[12,26],[3,35],[-2,94],[2,17],[10,21],[12,12],[5,11],[-8,19],[-13,9],[-66,32],[-18,4],[-36,1],[-17,5],[-29,25],[-27,32],[-28,22],[-35,-4],[-50,30],[-12,14],[-13,29],[-74,116],[-21,21],[-29,24],[-31,19],[-25,8],[-27,14],[-152,165],[-7,39],[61,25],[56,3],[31,11],[13,22],[-8,29],[-21,15],[-27,10],[-24,14],[-15,20],[-35,61],[-10,25],[10,7],[1,3],[-1,3],[1,8],[14,13],[16,35],[10,14],[16,8],[23,5],[24,1],[17,-3],[-14,27]],[[444,3161],[-16,-6],[-10,9],[-13,28],[-13,11],[-11,3],[-33,2],[-130,29],[-44,3],[-46,11],[-128,83],[0,191],[92,-38],[100,-33],[111,-56],[103,-43],[42,-52],[12,-33],[5,-40],[-4,-39],[-17,-30]],[[2497,4096],[428,0],[44,-52],[111,-58],[93,-164],[136,30],[57,-16],[9,-29],[-35,-39],[-62,-8],[20,-31],[-43,-37],[2,0],[39,-37],[29,15],[61,-27],[-12,-65],[-79,8],[-71,-117],[-50,-5],[-96,-72],[-131,41],[-87,-44],[-98,68],[-50,160],[-113,99],[-49,107],[22,63],[-126,121],[49,44],[9,-5],[-7,50]],[[1993,2102],[63,29],[98,-93],[208,-80],[45,-88],[-21,-49],[43,8],[94,-79],[128,113],[29,-2],[-2,-49],[-153,-326],[-89,-114],[-143,-98],[-167,-15],[-1,34],[105,137],[38,114],[-41,83],[-127,46],[-44,45],[83,132],[-146,252]],[[1140,3000],[44,-14],[25,-76],[-79,5],[10,85]],[[1933,2694],[6,67],[24,-24],[462,-82],[167,-85],[69,-97],[-87,-46],[-422,40],[-90,91],[26,50],[-155,86]],[[3343,3408],[14,25],[59,10],[3,26],[66,-42],[121,-6],[25,-40],[-19,-46],[-52,2],[-9,-41],[-71,-29],[-38,54],[-88,22],[-11,65]]]}