{"objects":{"water":{"type":"GeometryCollection","geometries":[{"type":"MultiPolygon","properties":{"source":"naturalearthdata.com","kind":"ocean","area":1576712559132672,"sort_rank":200,"min_zoom":0.0,"id":1},"arcs":[[[14]]]},{"type":"MultiLineString","properties":{"source":"naturalearthdata.com","kind":"ocean","sort_rank":205,"boundary":true,"min_zoom":0.0,"id":54},"arcs":[[15],[16],[17]]}]},"buildings":{"type":"GeometryCollection","geometries":[]},"places":{"type":"GeometryCollection","geometries":[{"type":"Point","properties":{"int_name":"Port Said","name:lt":"Port Saidas","name:eo":"Port Said","min_zoom":8.0,"name:ru":"\u041f\u043e\u0440\u0442-\u0421\u0430\u0438\u0434","name:pl":"Port Said","name:hu":"Port Sza\u00edd","id":27564975,"population":538378,"kind":"locality","name:en":"Port Said","name":"\u0628\u0648\u0631 \u0633\u0639\u064a\u062f","kind_detail":"city","name:de":"Port Said","source":"openstreetmap.org","name:fr":"Port Sa\u00efd","name:zh":"\u585e\u5f97\u6e2f"},"coordinates":[3985,1746]},{"type":"Point","properties":{"kind":"locality","name:en":"Mahalla al Kubra","name":"\u0627\u0644\u0645\u062d\u0644\u0629 \u0627\u0644\u0643\u0628\u0631\u0649","kind_detail":"city","name:ar":"\u0645\u062d\u0644\u0629 \u0627\u0644\u0643\u0628\u0631\u0649","min_zoom":8.0,"name:de":"Mahalla al Kubra","source":"openstreetmap.org","name:fr":"Mahalla al Kubra","int_name":"Mahalla el Kubra, Mahalla al Kubra","name:ru":"\u042d\u043b\u044c-\u041c\u0430\u0445\u0430\u043b\u043b\u0430-\u044d\u043b\u044c-\u041a\u0443\u0431\u0440\u0430","id":31582451,"population":431052},"coordinates":[672,754]},{"type":"Point","properties":{"name:pt":"Alman\u00e7ora","int_name":"Mansura","name:nl":"El-Mansoera","name:lt":"Mansura","name:eo":"El Mansura","min_zoom":8.0,"name:ru":"\u042d\u043b\u044c-\u041c\u0430\u043d\u0441\u0443\u0440\u0430","id":31582434,"population":420195,"kind":"locality","name:en":"Mansoura","name":"\u0627\u0644\u0645\u0646\u0635\u0648\u0631\u0629","kind_detail":"city","source":"openstreetmap.org","name:fr":"Mansourah","name:es":"El Mansur\u00e1"},"coordinates":[1308,976]},{"type":"Point","properties":{"kind":"locality","name:en":"Dumiat","name":"\u062f\u0645\u064a\u0627\u0637","kind_detail":"city","name:eo":"Dumjat","source":"openstreetmap.org","min_zoom":8.0,"int_name":"Damietta","name:ru":"\u0414\u0443\u043c\u044c\u044f\u0442","name:pl":"Damietta","name:hu":"Damietta","id":295029548,"population":267000},"coordinates":[2574,2270]},{"type":"Point","properties":{"kind":"locality","name:en":"Kafr Al-Sheikh","name":"\u0643\u0641\u0631 \u0627\u0644\u0634\u064a\u062e\u200e","kind_detail":"city","name:eo":"Kafr a\u015d-\u015cej\u0125","name:de":"Kafr asch-Scheich","source":"openstreetmap.org","min_zoom":8.0,"name:fr":"Kafr ash sheikh","name:ru":"\u041a\u0430\u0444\u0440-\u044d\u0448-\u0428\u044d\u0439\u0445","name:pl":"Kafr asz-Szajch","name:hu":"Kafr es-Sajh","id":31582454,"population":152000},"coordinates":[8,1228]},{"type":"Point","properties":{"kind":"locality","name:en":"Dekernes","name":"\u062f\u0643\u0631\u0646\u0633","kind_detail":"town","source":"openstreetmap.org","min_zoom":8.0,"int_name":"Dekernes","name:ru":"\u0414\u0438\u043a\u0438\u0440\u043d\u0438\u0441","id":332108921,"population":137542},"coordinates":[1915,1147]},{"type":"Point","properties":{"kind":"locality","name:en":"Port Fuad","name":"\u0628\u0648\u0631 \u0641\u0624\u0627\u062f","kind_detail":"town","min_zoom":8.0,"source":"openstreetmap.org","name:fr":"Port Fouad","id":376304399,"population":70417},"coordinates":[4027,1690]},{"type":"Point","properties":{"kind":"locality","name:en":"Samnud","name":"\u0633\u0645\u0646\u0648\u062f","kind_detail":"town","min_zoom":8.0,"name:de":"Samnud","source":"openstreetmap.org","name:fr":"Samnud","int_name":"Samn\u016bd, Samnud, Samannud","id":768600810,"population":65},"coordinates":[894,721]}]},"transit":{"type":"GeometryCollection","geometries":[{"type":"LineString","properties":{"source":"openstreetmap.org","kind":"train","network":"EG-railway","sort_rank":275,"min_zoom":6.0,"osm_relation":true,"name":"Alexandria-Aswan line"},"arcs":[5]},{"type":"MultiLineString","properties":{"source":"openstreetmap.org","kind":"train","network":"EG-railway","sort_rank":275,"min_zoom":6.0,"osm_relation":true,"name":"Mansoura-Cairo line"},"arcs":[[6],[7],[8],[9],[10],[11],[12],[13]]}]},"pois":{"type":"GeometryCollection","geometries":[]},"boundaries":{"type":"GeometryCollection","geometries":[{"type":"LineString","properties":{"name:kg":"Misiri","alt_name:ce":"\u0415\u0433\u0438\u0301\u043f\u0435\u0442","name:ty":"\u2019Aifiti","name:ka":"\u10d4\u10d2\u10d5\u10d8\u10de\u10e2\u10d4","name:tr":"M\u0131s\u0131r","name:ts":"Gibita","name:km":"\u17a2\u17c1\u17a0\u17ca\u17d2\u179f\u17b8\u1794","name:kl":"Egypt","name:kk":"\u041c\u044b\u0441\u044b\u0440","name:tw":"Egypt","name:tt":"\u041c\u0438\u0441\u044b\u0301\u0440","name:kw":"Ejyp","name:tk":"M\u00fcs\u00fcr","name:ku":"Misir","name:ti":"\u130d\u1265\u133d","name:ks":"\u0645\u0650\u0633\u0631","name:to":"\u02bbIsipite","name:tl":"Ehipto","name:ce":"\u041c\u0438\u0441\u0430\u0440","name:ta":"\u0b8e\u0b95\u0bbf\u0baa\u0bcd\u0ba4\u0bc1","name:tg":"\u041c\u0438\u0441\u0440","name:ky":"\u0415\u0433\u0438\u043f\u0435\u0442","name:te":"\u0c08\u0c1c\u0c3f\u0c2a\u0c4d\u0c1f\u0c41","alt_name:ts":"Egypt","alt_name:ln":"Ejipiti;Misiri","name:cy":"Yr Aifft","name:qu":"Ihiptu","alt_name:ty":"Egipt","name:de":"\u00c4gypten","source":"openstreetmap.org","name:kn":"\u0c88\u0c9c\u0cbf\u0caa\u0ccd\u0c9f\u0ccd","alt_name:th":"\u0e2d\u0e35\u0e22\u0e34\u0e1b\u0e15\u0e4c","name:dv":"\u0789\u07a8\u079e\u07b0\u0783\u07aa","name:cu":"\u0404\u0433\u0477\u043f\u0442\u044a","alt_name:da":"\u00c6gypten","name:lv":"\u0112\u0123ipte","name:lt":"Egiptas","name:uz":"Misr","name:cs":"Egypt","name:lb":"Egypten","name:la":"Aegyptus","name:ki":"Egypt","name:uk":"\u0404\u0433\u0438\u0301\u043f\u0435\u0442","name:ug":"\u0645\u0649\u0633\u0649\u0631","name:li":"Egypte","name:ln":"Ejipte","name:lo":"\u0ead\u0eb5\u0ea2\u0eb4\u0e9a","name:el":"\u0391\u03af\u03b3\u03c5\u03c0\u03c4\u03bf\u03c2","name:eo":"Egiptujo","name:en":"Egypt","name":"\u0645\u0635\u0631","name:kv":"\u0415\u0433\u0438\u043f\u0435\u0442","name:ee":"Edzipti","name:th":"\u0e1b\u0e23\u0e30\u0e40\u0e17\u0e28\u0e2d\u0e35\u0e22\u0e34\u0e1b\u0e15\u0e4c","name:eu":"Egipto","name:et":"Egiptus","name:es":"Egipto","name:ia":"Egypto","name:rm":"Egipta","name:rn":"Egipto","name:az":"Misir","name:ie":"Egiptia","name:id":"Mesir","name:ig":"Egypt","name:as":"\u0987\u099c\u09bf\u09aa\u09cd\u09a4","name:zh-min-nan":"Ai-ki\u030dp","name:io":"Egiptia","name:ak":"Igyipt","name:am":"\u130d\u1265\u1345","name:it":"Egitto","name:an":"Echipto","name:ru":"\u0415\u0433\u0438\u0301\u043f\u0435\u0442","name:ab":"\u041c\u044b\u0301\u0441\u0440\u044b","name:af":"Egipte","name:zu":"iGibhithe","kind_detail":"2","name:za":"Aehciz","name:zh-yue":"\u57c3\u53ca","alt_name:rn":"Misiri","name:zh":"\u57c3\u53ca","name:so":"Masar","name:sn":"Egypt","name:sm":"Aikupito","name:sl":"Egipt","name:sk":"Egypt","alt_name:ba":"\u0415\u0433\u0438\u043f\u0435\u0442","name:si":"\u0d8a\u0da2\u0dd3\u0db4\u0dca\u0dad\u0dd4\u0dc0","name:sh":"Egipat","name:sg":"K\u00e2mit\u00e2","name:se":"Egypta","name:sc":"Egittu","name:br":"Egipt","name:bs":"Egipat","name:bm":"Misra","name:bn":"\u09ae\u09bf\u09b6\u09b0","name:bo":"\u0f68\u0f60\u0f72\u0f0b\u0f45\u0f72\u0f0d","name:sa":"\u0908\u091c\u093f\u092a\u094d\u0924\u0926\u0947\u0936\u0903","alt_name:br":"Ejipt","name:sw":"Misri","name:be":"\u0415\u0433\u0456\u0301\u043f\u0435\u0442","name:su":"Mesir","name:bg":"\u0415\u0433\u0438\u043f\u0435\u0442","name:ss":"iGibhithe","name:sr":"\u0415\u0433\u0438\u043f\u0430\u0442","name:sq":"Egjipti","alt_name:sq":"Misiri","alt_name:kg":"Ngipiti","name:jv":"Mesir","alt_name:ky":"\u041c\u0438\u0441\u0438\u0440","alt_name:sl":"Misr","name:pt":"Egito","name:da":"Egypten","name:om":"Ijiipti","name:oc":"Egipte","alt_name:gd":"\u00c8iphit","min_zoom":8.0,"name:ro":"Egipt","name:ko":"\uc774\uc9d1\ud2b8","name:pa":"\u0a2e\u0a3f\u0a38\u0a30","name:os":"\u041c\u044b\u0441\u044b\u0440","name:or":"\u0b07\u0b1c\u0b3f\u0b2a\u0b4d\u0b1f","name:pl":"Egipt","alt_name:gv":"Eajipt","alt_name:gu":"\u0aae\u0abf\u0ab8\u0ab0","name:pi":"\u0908\u091c\u093f\u092a\u094d\u091f","name:st":"Egepeta","sort_rank":262,"name:ba":"\u041c\u044b\u0441\u044b\u0440","osm_relation":true,"alt_name:as":"\u09ae\u09bf\u099b\u09f0","name:hi":"\u092e\u093f\u0938\u094d\u0930","name:sv":"Egypten","name:he":"\u05de\u05e6\u05e8\u05d9\u05dd","name:ha":"Misra","name:ja":"\u30a8\u30b8\u30d7\u30c8","name:hy":"\u0535\u0563\u056b\u057a\u057f\u0578\u057d","name:ht":"Ejip","name:hu":"Egyiptom","name:hr":"Egipat","kind":"country","name:is":"Egyptaland","alt_name:is":"Egiptaland","name:yi":"\u05e2\u05d2\u05d9\u05e4\u05d8\u05df","name:yo":"\u1eb8\u0301g\u00edpt\u00ec","name:mt":"E\u0121ittu","alt_name:eo":"Egipto;Egiptio","name:ms":"Mesir","name:mr":"\u0907\u091c\u093f\u092a\u094d\u0924","alt_name:ee":"Egipte","name:my":"\u1021\u102e\u1002\u103b\u1005\u103a\u1014\u102d\u102f\u1004\u103a\u1004\u1036","official_name":"\u062c\u0645\u0647\u0648\u0631\u064a\u0629 \u0645\u0635\u0631 \u0627\u0644\u0639\u0631\u0628\u064a\u0629","int_name":"Egypt \u0645\u0635\u0631","name:mg":"Ejipta","name:ml":"\u0d08\u0d1c\u0d3f\u0d2a\u0d4d\u0d24\u0d4d","name:vi":"Ai C\u1eadp","name:mn":"\u0415\u0433\u0438\u043f\u0435\u0442","id":-1473947,"name:mk":"\u0415\u0433\u0438\u043f\u0435\u0442","name:vo":"L\u00e4g\u00fcpt\u00e4n","old_name:fi":"Yhdistynyt arabitasavalta","name:ff":"Ejipt","name:fi":"Egypti","name:fj":"Ijipta","name:fo":"Egyptaland","name:fr":"\u00c9gypte","name:ca":"Egipte","name:fy":"Egypte","alt_name:qu":"Misir","name:nl":"Egypte","name:nn":"Egypt","name:no":"Egypt","name:na":"Idjipt","name:ne":"\u092e\u093f\u0936\u094d\u0930","name:wa":"Edjipe","name:wo":"Isipt","name:nv":"\u00cd\u00edjip","name:ga":"An \u00c9igipt","name:gd":"An \u00c8ipheit","name:gn":"Ehipto","name:gl":"Exipto","maritime_boundary":true,"alt_name:wo":"Ejipt","name:gv":"Yn Egypt","name:gu":"\u0a87\u0a9c\u0abf\u0aaa\u0acd\u0aa4","name:lg":"Egypt"},"arcs":[0]},{"type":"LineString","properties":{"int_name:right":"Al-Gharbiyya","name:left:pl":"Muhafaza Kafr asz-Szajch","id:left":-4103405,"name:right:hu":"Nyugati korm\u00e1nyz\u00f3s\u00e1g","id:right":-3584607,"min_zoom":8.0,"name:left:ru":"\u043c\u0443\u0445\u0430\u0444\u0430\u0437\u0430 \u041a\u0430\u0444\u0440-\u044d\u0448-\u0428\u0435\u0439\u0445","name:left:hu":"Kafr es-Sajh korm\u00e1nyz\u00f3s\u00e1g","name:right:ru":"\u043c\u0443\u0445\u0430\u0444\u0430\u0437\u0430 \u0413\u0430\u0440\u0431\u0438\u044f","id":-4103405,"osm_relation":true,"name:right":"\u200f\u0645\u062d\u0627\u0641\u0638\u0629 \u0627\u0644\u063a\u0631\u0628\u064a","kind":"region","name:left:eo":"Provinco Kafr a\u015d-\u015cej\u0125","name":"\u0643\u0641\u0631 \u0627\u0644\u0634\u064a\u062e - \u200f\u0645\u062d\u0627\u0641\u0638\u0629 \u0627\u0644\u063a\u0631\u0628\u064a","source":"openstreetmap.org","sort_rank":256,"kind_detail":"4","name:left:de":"Gouvernement Kafr asch-Schaich","name:right:en":"Gharbiyya Governorate","name:left:en":"Kafr el-Sheikh Governorate","name:right:de":"Gouvernement al-Gharbiyya","name:left":"\u0643\u0641\u0631 \u0627\u0644\u0634\u064a\u062e"},"arcs":[1]},{"type":"LineString","properties":{"kind":"region","name:en":"Kafr el-Sheikh Governorate","name":"\u0643\u0641\u0631 \u0627\u0644\u0634\u064a\u062e","sort_rank":256,"kind_detail":"4","name:eo":"Provinco Kafr a\u015d-\u015cej\u0125","name:de":"Gouvernement Kafr asch-Schaich","source":"openstreetmap.org","min_zoom":8.0,"name:ru":"\u043c\u0443\u0445\u0430\u0444\u0430\u0437\u0430 \u041a\u0430\u0444\u0440-\u044d\u0448-\u0428\u0435\u0439\u0445","name:pl":"Muhafaza Kafr asz-Szajch","name:hu":"Kafr es-Sajh korm\u00e1nyz\u00f3s\u00e1g","id":-4103405,"osm_relation":true},"arcs":[2]},{"type":"LineString","properties":{"kind":"region","name:en":"Kafr el-Sheikh Governorate","name":"\u0643\u0641\u0631 \u0627\u0644\u0634\u064a\u062e","sort_rank":256,"kind_detail":"4","name:eo":"Provinco Kafr a\u015d-\u015cej\u0125","name:de":"Gouvernement Kafr asch-Schaich","source":"openstreetmap.org","maritime_boundary":true,"id":-4103405,"name:ru":"\u043c\u0443\u0445\u0430\u0444\u0430\u0437\u0430 \u041a\u0430\u0444\u0440-\u044d\u0448-\u0428\u0435\u0439\u0445","min_zoom":8.0,"name:hu":"Kafr es-Sajh korm\u00e1nyz\u00f3s\u00e1g","name:pl":"Muhafaza Kafr asz-Szajch","osm_relation":true},"arcs":[3]},{"type":"LineString","properties":{"kind":"region","name:en":"Gharbiyya Governorate","name":"\u200f\u0645\u062d\u0627\u0641\u0638\u0629 \u0627\u0644\u063a\u0631\u0628\u064a","sort_rank":256,"kind_detail":"4","name:de":"Gouvernement al-Gharbiyya","source":"openstreetmap.org","min_zoom":8.0,"int_name":"Al-Gharbiyya","name:ru":"\u043c\u0443\u0445\u0430\u0444\u0430\u0437\u0430 \u0413\u0430\u0440\u0431\u0438\u044f","name:hu":"Nyugati korm\u00e1nyz\u00f3s\u00e1g","id":-3584607,"osm_relation":true},"arcs":[4]}]},"roads":{"type":"GeometryCollection","geometries":[{"type":"MultiLineString","properties":{"source":"openstreetmap.org","kind":"major_road","kind_detail":"trunk","sort_rank":381,"landuse_kind":"urban_area","ref":"04","min_zoom":8.0},"arcs":[[18],[19],[20],[21]]},{"type":"MultiLineString","properties":{"source":"openstreetmap.org","kind":"major_road","sort_rank":381,"kind_detail":"trunk","ref":"05","min_zoom":8.0},"arcs":[[22],[23]]},{"type":"LineString","properties":{"kind":"major_road","name:en":"Happy Land Square","sort_rank":380,"landuse_kind":"urban_area","source":"openstreetmap.org","min_zoom":8.0,"kind_detail":"primary","id":180179455},"arcs":[24]},{"type":"MultiLineString","properties":{"source":"openstreetmap.org","kind":"major_road","name:en":"International Coastal Road","sort_rank":381,"kind_detail":"trunk","ref":"05","min_zoom":8.0},"arcs":[[25],[26],[27],[28],[29],[30],[31],[32],[33],[34],[35]]},{"type":"LineString","properties":{"kind":"major_road","name:en":"Tanta - El Mahalla","sort_rank":381,"kind_detail":"trunk","is_bicycle_related":true,"source":"openstreetmap.org","min_zoom":8.0,"landuse_kind":"residential"},"arcs":[36]},{"type":"MultiLineString","properties":{"source":"openstreetmap.org","kind":"major_road","sort_rank":381,"kind_detail":"trunk","is_bicycle_related":true,"min_zoom":8.0},"arcs":[[37],[38]]},{"type":"MultiLineString","properties":{"kind":"major_road","name:en":"Cairo - Alexandria Agricultural Road","sort_rank":381,"kind_detail":"trunk","source":"openstreetmap.org","min_zoom":8.0,"landuse_kind":"residential","ref":"01"},"arcs":[[39],[40],[41],[42],[43],[44]]},{"type":"LineString","properties":{"source":"openstreetmap.org","kind":"major_road","landuse_kind":"urban_area","sort_rank":380,"kind_detail":"primary","ref":"04","min_zoom":8.0},"arcs":[45]},{"type":"MultiLineString","properties":{"source":"openstreetmap.org","kind":"major_road","name:en":"Mansoura - International Coastal Road","sort_rank":381,"kind_detail":"trunk","name:ar":"\u0627\u0644\u0645\u0646\u0635\u0648\u0631\u0629 - \u062c\u0645\u0635\u0629","min_zoom":8.0},"arcs":[[46],[47]]},{"type":"LineString","properties":{"kind":"major_road","name:en":"Tanta - El Mahalla","sort_rank":381,"kind_detail":"trunk","is_bicycle_related":true,"source":"openstreetmap.org","min_zoom":8.0,"landuse_kind":"urban_area","id":305423468},"arcs":[48]},{"type":"MultiLineString","properties":{"sort_rank":380,"kind_detail":"primary","min_zoom":8.0,"kind":"major_road","source":"openstreetmap.org"},"arcs":[[49],[50],[51],[52],[53],[54],[55],[56],[57],[58],[59],[60],[61],[62],[63],[64],[65],[66],[67],[68],[69],[70],[71],[72],[73],[74],[75],[76],[77],[78],[79],[80],[81],[82],[83],[84],[85],[86],[87],[88],[89],[90],[91],[92],[93],[94],[95],[96],[97],[98],[99],[100],[101],[102],[103],[104],[105],[106],[107],[108]]},{"type":"LineString","properties":{"kind":"major_road","sort_rank":380,"landuse_kind":"urban_area","name:ar":"\u0634\u0627\u0631\u0639 23 \u064a\u0648\u0644\u064a\u0648","source":"openstreetmap.org","min_zoom":8.0,"kind_detail":"primary","id":245531478},"arcs":[109]},{"type":"MultiLineString","properties":{"source":"openstreetmap.org","kind":"major_road","name:en":"Kafr Al Zayat - Berket Al Sabea","sort_rank":381,"kind_detail":"trunk","min_zoom":8.0},"arcs":[[110],[111]]},{"type":"LineString","properties":{"source":"openstreetmap.org","kind":"major_road","name:en":"Teraat El Bohia El Qebleya Street","sort_rank":380,"kind_detail":"primary","min_zoom":8.0,"id":304163244},"arcs":[112]},{"type":"MultiLineString","properties":{"source":"openstreetmap.org","kind":"major_road","name:en":"Mostashfa Al Sadr","landuse_kind":"urban_area","sort_rank":380,"kind_detail":"primary","min_zoom":8.0},"arcs":[[113],[114]]},{"type":"LineString","properties":{"kind":"major_road","name:en":"El Harby Street","sort_rank":380,"landuse_kind":"urban_area","source":"openstreetmap.org","min_zoom":8.0,"kind_detail":"primary","id":87777501},"arcs":[115]},{"type":"MultiLineString","properties":{"source":"openstreetmap.org","kind":"major_road","name:en":"Fakhr Al-Deen Khaled Street","landuse_kind":"urban_area","sort_rank":380,"kind_detail":"primary","min_zoom":8.0},"arcs":[[116],[117]]},{"type":"LineString","properties":{"source":"openstreetmap.org","kind":"major_road","name:en":"Elmoahda Street","sort_rank":380,"kind_detail":"primary","min_zoom":8.0,"id":304163689},"arcs":[118]},{"type":"LineString","properties":{"kind":"major_road","name:en":"Gameat Al Dewal Al Arabiya Street","sort_rank":380,"landuse_kind":"urban_area","source":"openstreetmap.org","min_zoom":8.0,"kind_detail":"primary","id":180185671},"arcs":[119]},{"type":"MultiLineString","properties":{"source":"openstreetmap.org","kind":"major_road","name:en":"Cairo - Alexandria Agricultural Road","sort_rank":381,"kind_detail":"trunk","ref":"01","min_zoom":8.0},"arcs":[[120],[121]]},{"type":"LineString","properties":{"kind":"major_road","name:en":"Bank Misr Street","sort_rank":380,"landuse_kind":"urban_area","source":"openstreetmap.org","min_zoom":8.0,"kind_detail":"primary","id":95827938},"arcs":[122]},{"type":"MultiLineString","properties":{"kind":"major_road","name:en":"Shirbin - Damietta","sort_rank":381,"landuse_kind":"urban_area","source":"openstreetmap.org","min_zoom":8.0,"kind_detail":"trunk","ref":"05"},"arcs":[[123],[124]]},{"type":"LineString","properties":{"kind":"major_road","name:en":"Mansoura - El Mahalla","sort_rank":381,"kind_detail":"trunk","is_bicycle_related":true,"source":"openstreetmap.org","min_zoom":8.0,"landuse_kind":"urban_area","id":305428121},"arcs":[125]},{"type":"MultiLineString","properties":{"source":"openstreetmap.org","kind":"major_road","sort_rank":381,"kind_detail":"trunk","ref":"43","min_zoom":8.0},"arcs":[[126],[127],[128]]},{"type":"MultiLineString","properties":{"source":"openstreetmap.org","kind":"major_road","name:en":"Sandoub Bridge","landuse_kind":"urban_area","sort_rank":380,"kind_detail":"primary","min_zoom":8.0},"arcs":[[129],[130]]},{"type":"MultiLineString","properties":{"source":"openstreetmap.org","kind":"major_road","name:en":"Port Saeed Street","landuse_kind":"urban_area","sort_rank":380,"kind_detail":"primary","min_zoom":8.0},"arcs":[[131],[132]]},{"type":"MultiLineString","properties":{"source":"openstreetmap.org","kind":"major_road","name:en":"Al-Galaa","landuse_kind":"urban_area","sort_rank":380,"kind_detail":"primary","min_zoom":8.0},"arcs":[[133],[134]]},{"type":"MultiLineString","properties":{"source":"openstreetmap.org","kind":"major_road","name:en":"Al Gomhuria Street","landuse_kind":"urban_area","sort_rank":380,"kind_detail":"primary","min_zoom":8.0},"arcs":[[135],[136],[137],[138]]},{"type":"MultiLineString","properties":{"source":"openstreetmap.org","kind":"major_road","sort_rank":380,"kind_detail":"primary","ref":"4","min_zoom":8.0},"arcs":[[139],[140],[141]]},{"type":"LineString","properties":{"source":"openstreetmap.org","kind":"major_road","name:en":"Porsaeid Street","sort_rank":380,"kind_detail":"primary","min_zoom":8.0,"id":304163249},"arcs":[142]},{"type":"MultiLineString","properties":{"name:pt":"Ponte Canal de Suez","name:en":"Suez Canal Bridge","sort_rank":381,"kind_detail":"trunk","name:fr":"Pont du Canal de Suez","name:de":"Sueskanal-Br\u00fccke","source":"openstreetmap.org","min_zoom":8.0,"name:ru":"\u041c\u043e\u0441\u0442 \u0447\u0435\u0440\u0435\u0437 \u0421\u0443\u044d\u0446\u043a\u0438\u0439 \u041a\u0430\u043d\u0430\u043b","kind":"major_road","name:es":"Puente del Canal de Suez"},"arcs":[[143],[144]]},{"type":"LineString","properties":{"kind":"major_road","name:en":"Ahmed Maher","sort_rank":380,"kind_detail":"primary","source":"openstreetmap.org","min_zoom":8.0,"landuse_kind":"urban_area","ref":"Ahmed Maher Street","id":167439788},"arcs":[145]},{"type":"MultiLineString","properties":{"source":"openstreetmap.org","kind":"major_road","name:en":"Mansoura - El Mahalla","sort_rank":381,"kind_detail":"trunk","ref":"05","min_zoom":8.0},"arcs":[[146],[147]]},{"type":"MultiLineString","properties":{"source":"openstreetmap.org","kind":"major_road","name:en":"Al-Geish","kind_detail":"primary","sort_rank":380,"landuse_kind":"urban_area","min_zoom":8.0},"arcs":[[148],[149],[150],[151]]},{"type":"MultiLineString","properties":{"source":"openstreetmap.org","kind":"major_road","name:en":"Ring Road","kind_detail":"trunk","sort_rank":381,"landuse_kind":"urban_area","min_zoom":8.0},"arcs":[[152],[153]]},{"type":"MultiLineString","properties":{"source":"openstreetmap.org","kind":"major_road","name:en":"Shirbin - Damietta","sort_rank":381,"kind_detail":"trunk","ref":"05","min_zoom":8.0},"arcs":[[154],[155],[156],[157],[158],[159]]},{"type":"LineString","properties":{"kind":"major_road","name:en":"Al-Teraa","sort_rank":380,"kind_detail":"primary","is_bicycle_related":true,"source":"openstreetmap.org","min_zoom":8.0,"landuse_kind":"urban_area"},"arcs":[160]},{"type":"MultiLineString","properties":{"source":"openstreetmap.org","kind":"major_road","name:en":"Ismalia - Port Said","sort_rank":381,"kind_detail":"trunk","ref":"04","min_zoom":8.0},"arcs":[[161],[162],[163],[164],[165],[166],[167],[168],[169],[170]]},{"type":"LineString","properties":{"source":"openstreetmap.org","kind":"major_road","name:en":"International Highway","sort_rank":381,"kind_detail":"trunk","min_zoom":8.0,"id":99013602},"arcs":[171]},{"type":"MultiLineString","properties":{"kind":"major_road","name:en":"International Coastal Road","sort_rank":381,"landuse_kind":"urban_area","source":"openstreetmap.org","min_zoom":8.0,"kind_detail":"trunk","ref":"05"},"arcs":[[172],[173],[174],[175]]},{"type":"MultiLineString","properties":{"source":"openstreetmap.org","kind":"major_road","name:en":"Mansoura - International Coastal Road","sort_rank":381,"kind_detail":"trunk","name:ar":"\u062c\u0645\u0635\u0629 - \u0628\u0644\u0642\u0627\u0633","min_zoom":8.0},"arcs":[[176],[177]]},{"type":"LineString","properties":{"kind":"major_road","name:en":"Tanta - El Mahalla","sort_rank":381,"kind_detail":"trunk","source":"openstreetmap.org","min_zoom":8.0,"landuse_kind":"urban_area","ref":"05","id":305428118},"arcs":[178]},{"type":"LineString","properties":{"kind":"ferry","name:en":"\u0130skenderun - Damietta","name":"\u0130skenderun - \u062f\u0645\u064a\u0627\u0637","name:tr":"\u0130skenderun - Damietta","name:ar":"\u0625\u0633\u0643\u0646\u062f\u0631\u0648\u0646 - \u062f\u0645\u064a\u0627\u0637","source":"openstreetmap.org","min_zoom":8.0,"id":229499873,"sort_rank":355},"arcs":[179]},{"type":"MultiLineString","properties":{"source":"openstreetmap.org","kind":"major_road","name:en":"Abd Al-Salam Aref","landuse_kind":"urban_area","sort_rank":380,"kind_detail":"primary","min_zoom":8.0},"arcs":[[180],[181],[182]]},{"type":"MultiLineString","properties":{"source":"openstreetmap.org","kind":"major_road","landuse_kind":"residential","sort_rank":381,"kind_detail":"trunk","min_zoom":8.0},"arcs":[[183],[184],[185]]},{"type":"LineString","properties":{"kind":"major_road","name:en":"Mansoura - El Mahalla","sort_rank":381,"kind_detail":"trunk","is_bicycle_related":true,"source":"openstreetmap.org","min_zoom":8.0,"ref":"05"},"arcs":[186]},{"type":"LineString","properties":{"kind":"major_road","name:en":"Thawra Square","sort_rank":380,"landuse_kind":"urban_area","source":"openstreetmap.org","min_zoom":8.0,"kind_detail":"primary","id":263494988},"arcs":[187]},{"type":"LineString","properties":{"kind":"major_road","sort_rank":380,"landuse_kind":"urban_area","name:ar":"\u0634\u0627\u0631\u0639 \u0637\u0631\u062d \u0627\u0644\u0628\u062d\u0631","source":"openstreetmap.org","min_zoom":8.0,"kind_detail":"primary","id":174426551},"arcs":[188]},{"type":"LineString","properties":{"kind":"major_road","sort_rank":381,"landuse_kind":"urban_area","source":"openstreetmap.org","min_zoom":8.0,"kind_detail":"trunk","ref":"05","id":88230809},"arcs":[189]},{"type":"LineString","properties":{"source":"openstreetmap.org","kind":"major_road","name:en":"IInternational Coastal Road","sort_rank":381,"kind_detail":"trunk","min_zoom":8.0,"id":93884172},"arcs":[190]},{"type":"LineString","properties":{"kind":"major_road","name:en":"Al Mashaya Al Sofelya Street","sort_rank":380,"landuse_kind":"urban_area","source":"openstreetmap.org","min_zoom":8.0,"kind_detail":"primary","id":185970885},"arcs":[191]},{"type":"LineString","properties":{"name:pt":"Ponte Canal de Suez","name:en":"Suez Canal Bridge","sort_rank":381,"kind_detail":"trunk","name:fr":"Pont du Canal de Suez","name:de":"Sueskanal-Br\u00fccke","source":"openstreetmap.org","min_zoom":8.0,"kind":"major_road","name:es":"Puente del Canal de Suez"},"arcs":[192]},{"type":"MultiLineString","properties":{"kind":"major_road","name:en":"Tanta - El Mahalla","sort_rank":381,"kind_detail":"trunk","source":"openstreetmap.org","min_zoom":8.0,"landuse_kind":"residential","ref":"05"},"arcs":[[193],[194]]},{"type":"MultiLineString","properties":{"kind":"major_road","name:en":"Mansora - Shirbin","sort_rank":381,"landuse_kind":"urban_area","source":"openstreetmap.org","min_zoom":8.0,"kind_detail":"trunk","ref":"05"},"arcs":[[195],[196],[197],[198]]},{"type":"LineString","properties":{"kind":"major_road","name:en":"Mansoura - El Mahalla","sort_rank":381,"landuse_kind":"urban_area","is_bicycle_related":true,"source":"openstreetmap.org","min_zoom":8.0,"kind_detail":"trunk","ref":"05"},"arcs":[199]},{"type":"MultiLineString","properties":{"source":"openstreetmap.org","kind":"major_road","name:en":"Sabry Abo Alam Street","sort_rank":380,"kind_detail":"primary","min_zoom":8.0},"arcs":[[200],[201]]},{"type":"MultiLineString","properties":{"source":"openstreetmap.org","kind":"major_road","name:en":"Mansoura - Aga","sort_rank":381,"kind_detail":"trunk","min_zoom":8.0},"arcs":[[202],[203]]},{"type":"MultiLineString","properties":{"source":"openstreetmap.org","kind":"highway","name:en":"International Coastal Road","sort_rank":383,"kind_detail":"motorway","ref":"05","min_zoom":8.0},"arcs":[[204],[205],[206],[207],[208],[209],[210],[211],[212],[213],[214],[215],[216]]},{"type":"MultiLineString","properties":{"source":"openstreetmap.org","kind":"major_road","name:en":"Jihan Al Sadat","landuse_kind":"urban_area","sort_rank":380,"kind_detail":"primary","min_zoom":8.0},"arcs":[[217],[218],[219]]},{"type":"MultiLineString","properties":{"source":"openstreetmap.org","kind":"major_road","kind_detail":"trunk","sort_rank":381,"landuse_kind":"urban_area","ref":"43","min_zoom":8.0},"arcs":[[220],[221],[222],[223]]},{"type":"MultiLineString","properties":{"source":"openstreetmap.org","kind":"major_road","name:en":"Ring Road","sort_rank":381,"kind_detail":"trunk","min_zoom":8.0},"arcs":[[224],[225],[226],[227]]},{"type":"MultiLineString","properties":{"source":"openstreetmap.org","kind":"major_road","name:en":"Abd Al Salam Aref Street","landuse_kind":"urban_area","sort_rank":380,"kind_detail":"primary","min_zoom":8.0},"arcs":[[228],[229],[230],[231]]},{"type":"MultiLineString","properties":{"sort_rank":381,"source":"openstreetmap.org","min_zoom":8.0,"kind":"major_road","kind_detail":"trunk"},"arcs":[[232],[233],[234],[235],[236],[237],[238],[239],[240],[241],[242],[243],[244],[245],[246],[247],[248],[249],[250],[251],[252],[253],[254],[255],[256],[257],[258],[259],[260],[261],[262]]},{"type":"MultiLineString","properties":{"source":"openstreetmap.org","kind":"major_road","landuse_kind":"urban_area","sort_rank":380,"kind_detail":"primary","ref":"7","min_zoom":8.0},"arcs":[[263],[264],[265],[266]]},{"type":"MultiLineString","properties":{"name:pt":"Ponte Canal de Suez","name:en":"Suez Canal Bridge","sort_rank":381,"kind_detail":"trunk","name:fr":"Pont du Canal de Suez","name:de":"Sueskanal-Br\u00fccke","source":"openstreetmap.org","min_zoom":8.0,"landuse_kind":"urban_area","name:ru":"\u041c\u043e\u0441\u0442 \u0447\u0435\u0440\u0435\u0437 \u0421\u0443\u044d\u0446\u043a\u0438\u0439 \u041a\u0430\u043d\u0430\u043b","kind":"major_road","name:es":"Puente del Canal de Suez"},"arcs":[[267],[268]]},{"type":"MultiLineString","properties":{"source":"openstreetmap.org","kind":"major_road","name:en":"Ismalia - Port Said","sort_rank":381,"kind_detail":"trunk","min_zoom":8.0},"arcs":[[269],[270]]},{"type":"MultiLineString","properties":{"source":"openstreetmap.org","kind":"major_road","name:en":"Al-Mohandes Ahmed Al-Husseiny Eid","landuse_kind":"urban_area","sort_rank":380,"kind_detail":"primary","min_zoom":8.0},"arcs":[[271],[272]]},{"type":"MultiLineString","properties":{"source":"openstreetmap.org","kind":"major_road","name:en":"Mansoura - Aga","sort_rank":381,"kind_detail":"trunk","ref":"43","min_zoom":8.0},"arcs":[[273],[274]]},{"type":"MultiLineString","properties":{"source":"openstreetmap.org","kind":"major_road","name:en":"Mansoura - El Senbellawein","sort_rank":381,"kind_detail":"trunk","min_zoom":8.0},"arcs":[[275],[276]]},{"type":"LineString","properties":{"source":"openstreetmap.org","kind":"major_road","landuse_kind":"residential","sort_rank":380,"kind_detail":"primary","ref":"4","min_zoom":8.0},"arcs":[277]},{"type":"LineString","properties":{"kind":"ferry","name:en":"\u0130skenderun - Damietta","name":"\u0130skenderun - \u062f\u0645\u064a\u0627\u0637","name:tr":"\u0130skenderun - Damietta","landuse_kind":"urban_area","name:ar":"\u0625\u0633\u0643\u0646\u062f\u0631\u0648\u0646 - \u062f\u0645\u064a\u0627\u0637","source":"openstreetmap.org","min_zoom":8.0,"id":229499873,"sort_rank":355},"arcs":[278]},{"type":"LineString","properties":{"source":"openstreetmap.org","kind":"major_road","name:en":"El Shaheed Ahmed Abd El-Aziz Street","sort_rank":380,"kind_detail":"primary","min_zoom":8.0,"id":99687177},"arcs":[279]},{"type":"LineString","properties":{"source":"openstreetmap.org","kind":"major_road","name:en":"Al Galaa Street","landuse_kind":"urban_area","sort_rank":380,"kind_detail":"primary","min_zoom":8.0},"arcs":[280]},{"type":"MultiLineString","properties":{"source":"openstreetmap.org","kind":"major_road","kind_detail":"trunk","sort_rank":381,"landuse_kind":"urban_area","min_zoom":8.0},"arcs":[[281],[282],[283],[284],[285],[286],[287],[288],[289],[290],[291],[292],[293],[294],[295],[296],[297],[298],[299],[300],[301],[302],[303],[304],[305],[306],[307],[308]]},{"type":"LineString","properties":{"kind":"major_road","name:en":"Mansoura - El Mahalla","sort_rank":381,"kind_detail":"trunk","is_bicycle_related":true,"source":"openstreetmap.org","min_zoom":8.0,"id":305428121},"arcs":[309]},{"type":"LineString","properties":{"kind":"major_road","name:en":"Al-Teraa","sort_rank":380,"landuse_kind":"urban_area","source":"openstreetmap.org","min_zoom":8.0,"kind_detail":"primary","id":263200104},"arcs":[310]},{"type":"MultiLineString","properties":{"source":"openstreetmap.org","kind":"major_road","sort_rank":381,"kind_detail":"trunk","ref":"04","min_zoom":8.0},"arcs":[[311],[312],[313],[314],[315],[316],[317],[318]]},{"type":"MultiLineString","properties":{"kind":"highway","name:en":"International Coastal Road","sort_rank":383,"kind_detail":"motorway","source":"openstreetmap.org","min_zoom":8.0,"landuse_kind":"urban_area","ref":"05"},"arcs":[[319],[320]]},{"type":"MultiLineString","properties":{"source":"openstreetmap.org","kind":"highway","name:en":"International Highway","sort_rank":383,"kind_detail":"motorway","ref":"05","min_zoom":8.0},"arcs":[[321],[322]]},{"type":"MultiLineString","properties":{"source":"openstreetmap.org","kind":"major_road","name:en":"Qanaet Al-Seuz","landuse_kind":"urban_area","sort_rank":380,"kind_detail":"primary","min_zoom":8.0},"arcs":[[323],[324]]},{"type":"LineString","properties":{"kind":"major_road","name:en":"Saad Zaghloul","sort_rank":380,"landuse_kind":"urban_area","source":"openstreetmap.org","min_zoom":8.0,"kind_detail":"primary","id":55647855},"arcs":[325]},{"type":"LineString","properties":{"kind":"major_road","name:en":"International Highway","sort_rank":381,"landuse_kind":"urban_area","source":"openstreetmap.org","min_zoom":8.0,"kind_detail":"trunk","id":99013602},"arcs":[326]},{"type":"MultiLineString","properties":{"source":"openstreetmap.org","kind":"major_road","name:en":"Masaken El-Obur","landuse_kind":"urban_area","sort_rank":380,"kind_detail":"primary","min_zoom":8.0},"arcs":[[327],[328]]},{"type":"MultiLineString","properties":{"source":"openstreetmap.org","kind":"major_road","name:en":"Mansora - Shirbin","sort_rank":381,"kind_detail":"trunk","ref":"05","min_zoom":8.0},"arcs":[[329],[330],[331],[332],[333],[334]]},{"type":"MultiLineString","properties":{"source":"openstreetmap.org","kind":"major_road","name:en":"Mohamed Sabry Abou Alam Street","landuse_kind":"urban_area","sort_rank":380,"kind_detail":"primary","min_zoom":8.0},"arcs":[[335],[336]]},{"type":"LineString","properties":{"kind":"major_road","name:en":"Tanta - El Mahalla","sort_rank":381,"kind_detail":"trunk","source":"openstreetmap.org","min_zoom":8.0,"ref":"05","id":305428118},"arcs":[337]},{"type":"MultiLineString","properties":{"source":"openstreetmap.org","kind":"major_road","name:en":"Saad El Sherbiny Street","landuse_kind":"urban_area","sort_rank":380,"kind_detail":"primary","min_zoom":8.0},"arcs":[[338],[339]]},{"type":"MultiLineString","properties":{"source":"openstreetmap.org","kind":"major_road","name:en":"Mansoura - El Senbellawein","kind_detail":"trunk","sort_rank":381,"landuse_kind":"urban_area","min_zoom":8.0},"arcs":[[340],[341]]},{"type":"MultiLineString","properties":{"kind":"major_road","name:en":"Mansoura - Aga","sort_rank":381,"landuse_kind":"urban_area","source":"openstreetmap.org","min_zoom":8.0,"kind_detail":"trunk","ref":"43"},"arcs":[[342],[343]]},{"type":"LineString","properties":{"kind":"major_road","name:en":"Kolleyet Al-Adaab","sort_rank":380,"landuse_kind":"urban_area","source":"openstreetmap.org","min_zoom":8.0,"kind_detail":"primary","id":263203821},"arcs":[344]},{"type":"LineString","properties":{"kind":"major_road","name:en":"Tanta - El Mahalla","sort_rank":381,"kind_detail":"trunk","is_bicycle_related":true,"source":"openstreetmap.org","min_zoom":8.0,"id":305423468},"arcs":[345]},{"type":"MultiLineString","properties":{"kind":"major_road","name:en":"Mansoura - El Mahalla","sort_rank":381,"landuse_kind":"urban_area","source":"openstreetmap.org","min_zoom":8.0,"kind_detail":"trunk","ref":"05"},"arcs":[[346],[347]]},{"type":"LineString","properties":{"source":"openstreetmap.org","kind":"major_road","sort_rank":380,"kind_detail":"primary","ref":"7","min_zoom":8.0},"arcs":[348]},{"type":"MultiLineString","properties":{"source":"openstreetmap.org","kind":"major_road","landuse_kind":"urban_area","sort_rank":380,"kind_detail":"primary","ref":"05","min_zoom":8.0},"arcs":[[349],[350],[351],[352],[353],[354],[355],[356],[357],[358],[359],[360],[361]]},{"type":"MultiLineString","properties":{"kind":"major_road","name:en":"Cairo - Alexandria Agricultural Road","sort_rank":381,"landuse_kind":"urban_area","source":"openstreetmap.org","min_zoom":8.0,"kind_detail":"trunk","ref":"01"},"arcs":[[362],[363]]},{"type":"MultiLineString","properties":{"source":"openstreetmap.org","kind":"major_road","landuse_kind":"urban_area","sort_rank":380,"kind_detail":"primary","min_zoom":8.0},"arcs":[[364],[365],[366],[367],[368],[369],[370],[371],[372],[373],[374],[375],[376],[377],[378],[379],[380],[381],[382],[383],[384],[385],[386],[387],[388],[389],[390],[391],[392],[393],[394],[395],[396],[397],[398],[399],[400],[401],[402],[403],[404],[405],[406],[407],[408],[409],[410],[411],[412],[413],[414],[415],[416],[417],[418],[419],[420],[421],[422],[423],[424],[425],[426],[427],[428],[429],[430],[431],[432],[433],[434],[435],[436],[437],[438],[439],[440],[441],[442],[443],[444],[445],[446],[447],[448],[449],[450],[451],[452],[453],[454],[455],[456],[457],[458],[459],[460],[461],[462],[463],[464],[465],[466],[467],[468],[469],[470],[471],[472],[473],[474],[475],[476],[477],[478],[479],[480],[481],[482],[483],[484],[485],[486],[487],[488],[489],[490],[491],[492],[493],[494],[495],[496],[497],[498],[499],[500],[501],[502],[503],[504],[505],[506]]},{"type":"LineString","properties":{"kind":"major_road","name:en":"Midan Um Kolthoum","sort_rank":380,"kind_detail":"primary","name:ar":"\u0645\u064a\u062f\u0627\u0646 \u0627\u0644\u0634\u0647\u062f\u0627\u0621","source":"openstreetmap.org","min_zoom":8.0,"landuse_kind":"urban_area","id":95827921},"arcs":[507]},{"type":"LineString","properties":{"source":"openstreetmap.org","kind":"major_road","name:en":"El-Geish Street","landuse_kind":"urban_area","sort_rank":380,"kind_detail":"primary","min_zoom":8.0},"arcs":[508]},{"type":"LineString","properties":{"source":"openstreetmap.org","kind":"major_road","name:en":"Kolleyet Al Adaab Street","landuse_kind":"urban_area","sort_rank":380,"kind_detail":"primary","min_zoom":8.0},"arcs":[509]},{"type":"MultiLineString","properties":{"source":"openstreetmap.org","kind":"major_road","name:en":"International Coastal Road","sort_rank":381,"kind_detail":"trunk","min_zoom":8.0},"arcs":[[510],[511],[512],[513],[514],[515],[516],[517],[518],[519],[520],[521],[522],[523],[524]]},{"type":"MultiLineString","properties":{"source":"openstreetmap.org","kind":"major_road","name:en":"Mahmoud Shahin Street","landuse_kind":"urban_area","sort_rank":380,"kind_detail":"primary","min_zoom":8.0},"arcs":[[525],[526]]},{"type":"LineString","properties":{"source":"openstreetmap.org","kind":"major_road","name:en":"Railway Street","sort_rank":380,"kind_detail":"primary","min_zoom":8.0,"id":304163248},"arcs":[527]},{"type":"MultiLineString","properties":{"source":"openstreetmap.org","kind":"major_road","sort_rank":380,"kind_detail":"primary","ref":"05","min_zoom":8.0},"arcs":[[528],[529],[530],[531],[532],[533],[534],[535]]},{"type":"LineString","properties":{"kind":"major_road","name:en":"Zagazig - Senbellawein Road","sort_rank":381,"kind_detail":"trunk","is_bicycle_related":true,"source":"openstreetmap.org","min_zoom":8.0,"id":99687800},"arcs":[536]},{"type":"LineString","properties":{"name:pt":"Ponte Canal de Suez","name:en":"Suez Canal Bridge","sort_rank":381,"kind_detail":"trunk","name:fr":"Pont du Canal de Suez","name:de":"Sueskanal-Br\u00fccke","source":"openstreetmap.org","min_zoom":8.0,"ref":"30","kind":"major_road","name:es":"Puente del Canal de Suez"},"arcs":[537]},{"type":"MultiLineString","properties":{"kind":"major_road","name:en":"Ismalia - Port Said","sort_rank":381,"landuse_kind":"urban_area","source":"openstreetmap.org","min_zoom":8.0,"kind_detail":"trunk","ref":"04"},"arcs":[[538],[539]]},{"type":"MultiLineString","properties":{"source":"openstreetmap.org","kind":"major_road","name:en":"International Coastal Road","kind_detail":"trunk","sort_rank":381,"landuse_kind":"urban_area","min_zoom":8.0},"arcs":[[540],[541],[542],[543],[544],[545]]},{"type":"MultiLineString","properties":{"source":"openstreetmap.org","kind":"major_road","landuse_kind":"urban_area","sort_rank":380,"kind_detail":"primary","ref":"4","min_zoom":8.0},"arcs":[[546],[547],[548],[549],[550],[551],[552]]},{"type":"MultiLineString","properties":{"source":"openstreetmap.org","kind":"major_road","name:en":"El Senbellawein - Aga Road","sort_rank":380,"kind_detail":"primary","min_zoom":8.0},"arcs":[[553],[554]]},{"type":"MultiLineString","properties":{"source":"openstreetmap.org","kind":"highway","name:en":"International Coastal Road","sort_rank":383,"kind_detail":"motorway","min_zoom":8.0},"arcs":[[555],[556],[557],[558],[559],[560],[561],[562],[563]]},{"type":"MultiLineString","properties":{"source":"openstreetmap.org","kind":"major_road","name:en":"Ras Elbar - Mena Damietta","landuse_kind":"urban_area","sort_rank":380,"kind_detail":"primary","min_zoom":8.0},"arcs":[[564],[565]]},{"type":"LineString","properties":{"kind":"major_road","name:en":"Hussein Beik Street","sort_rank":380,"landuse_kind":"urban_area","source":"openstreetmap.org","min_zoom":8.0,"kind_detail":"primary","id":34423363},"arcs":[566]},{"type":"LineString","properties":{"kind":"major_road","name:en":"Ras Elbar - Mena Damietta","sort_rank":380,"kind_detail":"primary","source":"openstreetmap.org","min_zoom":8.0,"landuse_kind":"urban_area","ref":"506","id":305030738},"arcs":[567]},{"type":"LineString","properties":{"kind":"major_road","name:en":"Suez Canal Bridge","sort_rank":381,"kind_detail":"trunk","name:pt":"Ponte Canal de Suez","name:de":"Sueskanal-Br\u00fccke","source":"openstreetmap.org","name:fr":"Pont du Canal de Suez","landuse_kind":"urban_area","min_zoom":8.0,"id":208453721,"name:es":"Puente del Canal de Suez"},"arcs":[568]},{"type":"MultiLineString","properties":{"source":"openstreetmap.org","kind":"major_road","name:en":"Mansoura - Meit Ghamr","sort_rank":381,"kind_detail":"trunk","min_zoom":8.0},"arcs":[[569],[570],[571],[572]]},{"type":"LineString","properties":{"kind":"major_road","name:en":"Suez Canal Bridge","sort_rank":381,"kind_detail":"trunk","name:pt":"Ponte Canal de Suez","name:de":"Sueskanal-Br\u00fccke","source":"openstreetmap.org","name:fr":"Pont du Canal de Suez","landuse_kind":"urban_area","min_zoom":8.0,"ref":"30","id":208453726,"name:es":"Puente del Canal de Suez"},"arcs":[573]},{"type":"LineString","properties":{"source":"openstreetmap.org","kind":"major_road","name:en":"Salah Salem Street","sort_rank":380,"kind_detail":"primary","min_zoom":8.0,"id":304160403},"arcs":[574]}]},"earth":{"type":"GeometryCollection","geometries":[{"type":"MultiPolygon","properties":{"sort_rank":10,"source":"naturalearthdata.com","min_zoom":0.0,"kind":"earth","area":67897299458},"arcs":[[[575]],[[576]]]}]},"landuse":{"type":"GeometryCollection","geometries":[{"type":"MultiPolygon","properties":{"source":"naturalearthdata.com","kind":"urban_area","name":"","area":3477480964,"sort_rank":11,"min_zoom":4.0},"arcs":[[[577]],[[578]],[[579]],[[580]],[[581]],[[582]],[[583]],[[584]],[[585]],[[586]],[[587]],[[588]],[[589]],[[590]],[[591]],[[592]],[[593]]]},{"type":"MultiPolygon","properties":{"source":"openstreetmap.org","kind":"aerodrome","tier":3,"area":104227868,"sort_rank":60,"min_zoom":8.0},"arcs":[[[594]]]},{"type":"MultiPolygon","properties":{"source":"openstreetmap.org","kind":"residential","tier":2,"area":95607839,"sort_rank":20,"min_zoom":8.0},"arcs":[[[595]]]}]}},"type":"Topology","transform":{"translate":[30.9375,30.7512777763],"scale":[0.0003433228,0.0002931847]},"arcs":[[[4096,2575],[-303,70],[-370,435],[-352,226],[-258,51],[-251,-15],[-612,-244],[-1072,420],[-356,60],[-357,-7],[-165,-42]],[[0,803],[251,0],[93,223],[-32,134],[280,-49],[83,91],[127,-21],[55,-64]],[[857,1117],[213,113],[-79,134],[60,132],[-56,710],[169,-85],[78,174],[56,412]],[[1298,2707],[84,626],[-412,159],[-306,72],[-400,14],[-264,-49]],[[856,0],[-16,14],[32,97],[-59,167],[23,33],[82,12],[-14,75],[-43,32],[41,34],[-42,37],[81,63],[4,35],[-67,90],[47,52],[117,43],[18,46],[-173,7],[-104,-24],[-17,53],[70,139],[21,112]],[[0,153],[139,-33],[60,-49],[32,-71]],[[156,109],[17,-12]],[[173,97],[46,-97]],[[173,97],[498,643],[218,-21],[276,298],[55,11]],[[1220,1028],[23,2]],[[1243,1030],[29,3],[22,0]],[[1182,1025],[38,3]],[[1243,1030],[61,3],[10,-30]],[[1295,1034],[9,-1],[6,-5],[4,-25]],[[4096,4096],[0,-2421],[-29,42],[-7,57],[-33,4],[-18,0],[-39,30],[-128,25],[-70,14],[-38,3],[-36,5],[20,-58],[36,13],[59,-9],[62,-23],[44,-25],[-36,-26],[7,-30],[49,-63],[15,-58],[-1,-48],[-14,-101],[-7,2],[-3,0],[-70,-2],[53,-50],[8,-63],[-32,-60],[-70,-41],[-41,-7],[-46,1],[-37,14],[-32,56],[-32,-2],[-23,-25],[12,-37],[-17,2],[-13,-1],[-8,4],[-2,21],[-35,-23],[-4,-4],[4,-9],[-1,-5],[3,-3],[13,-3],[0,-25],[-15,1],[-46,-1],[23,-47],[-11,2],[-27,5],[-59,30],[-44,10],[10,-36],[18,-34],[29,-22],[42,-2],[0,-21],[-35,-23],[-39,1],[-37,18],[-29,25],[0,26],[20,0],[0,21],[-20,16],[-24,7],[-26,-5],[-28,-18],[-24,17],[-14,6],[10,29],[15,20],[21,13],[30,8],[0,26],[-28,10],[-17,19],[-7,20],[-2,8],[-4,36],[-18,0],[-9,-26],[-17,-15],[-24,-7],[-31,1],[0,24],[60,52],[-1,37],[-20,29],[0,21],[21,10],[10,12],[6,19],[5,29],[-9,-8],[-33,-15],[5,45],[5,12],[12,15],[0,21],[-42,23],[-13,-15],[-18,-15],[-8,-14],[-42,21],[0,23],[42,0],[-66,23],[-56,-39],[-45,-49],[-34,-5],[-16,-53],[-24,-2],[-14,32],[14,49],[-20,0],[0,-26],[-14,4],[-3,8],[1,8],[-4,6],[-11,-9],[-6,-8],[-8,-6],[-14,-3],[-3,23],[5,11],[8,5],[10,8],[-40,0],[0,23],[40,0],[-13,24],[-4,19],[5,21],[12,32],[-23,-17],[-15,-23],[-22,-56],[-28,33],[-44,31],[-46,23],[-32,9],[-11,14],[-1,31],[-4,31],[-24,14],[-27,2],[-20,4],[-41,18],[4,-13],[4,-3],[4,-2],[6,-6],[-5,-1],[-31,-15],[-32,8],[-18,30],[6,48],[25,22],[33,8],[20,12],[-16,33],[0,20],[36,16],[-4,13],[-20,12],[-12,17],[6,34],[14,21],[20,1],[19,-20],[18,0],[24,23],[27,-3],[31,-13],[39,-7],[0,25],[-62,2],[-27,22],[9,39],[41,52],[-18,25],[-11,11],[-13,10],[9,4],[9,0],[6,4],[-2,18],[20,0],[20,-22],[29,-7],[29,7],[21,22],[-31,1],[-22,9],[-17,14],[-11,20],[0,25],[21,0],[0,24],[-22,-2],[-17,7],[-20,16],[-12,-20],[-10,-4],[-18,3],[18,52],[21,23],[12,-3],[-11,-26],[40,-3],[30,-19],[19,-31],[10,-42],[20,0],[-4,17],[-9,16],[-7,16],[20,0],[0,21],[-20,0],[9,47],[-45,80],[16,38],[-59,0],[13,24],[6,19],[-1,27],[11,-7],[20,-7],[10,-7],[2,10],[-2,23],[0,11],[40,-23],[12,34],[19,12],[49,-23],[1,15],[33,-19],[42,-56],[31,-55],[147,-183],[-36,-5],[-38,0],[27,-22],[24,-33],[18,-40],[9,-46],[22,0],[12,1],[31,-27],[78,-42],[14,-14],[8,-16],[13,-12],[60,-7],[20,-7],[13,-15],[8,-25],[-23,20],[-8,4],[-13,-2],[-16,2],[288,-182],[89,-19],[-29,19],[-116,92],[-42,20],[-18,13],[-73,82],[-30,15],[-5,2],[-71,16],[-31,14],[-94,85],[-46,58],[-39,98],[-92,125],[-14,40],[-42,91],[-93,48],[-112,2],[-106,-35],[-261,-149],[-440,-127],[-75,-2],[-43,-1],[-97,21],[-303,142],[-119,93],[-84,38],[-375,171],[-269,86],[-91,10],[-248,-38],[-72,-27],[-28,-16],[132,-4],[138,-60],[118,-88],[56,-77],[-20,3],[-18,-7],[-18,-12],[52,-27],[-11,-23],[-18,-16],[-23,-6],[-28,4],[-5,13],[1,16],[-8,13],[-49,32],[-27,11],[-106,8],[-17,-4],[-17,-16],[1,-16],[3,-17],[-9,-21],[-46,-40],[-11,-23],[18,-28],[-33,-69],[-20,-27],[-27,-23],[-20,26],[-100,44],[-5,-11],[-1,-4],[0,405],[62,23],[44,6],[0,24],[-106,-38],[0,1284],[4096,0]],[[4096,1675],[-29,42],[-7,57],[-33,4],[-18,0],[-39,30],[-128,25],[-70,14],[-38,3],[-36,5],[20,-58],[36,13],[59,-9],[62,-23],[44,-25],[-36,-26],[7,-30],[49,-63],[15,-58],[-1,-48],[-14,-101],[-7,2],[-3,0],[-70,-2],[53,-50],[8,-63],[-32,-60],[-70,-41],[-41,-7],[-46,1],[-37,14],[-32,56],[-32,-2],[-23,-25],[12,-37],[-17,2],[-13,-1],[-8,4],[-2,21],[-35,-23],[-4,-4],[4,-9],[-1,-5],[3,-3],[13,-3],[0,-25],[-15,1],[-46,-1],[23,-47],[-11,2],[-27,5],[-59,30],[-44,10],[10,-36],[18,-34],[29,-22],[42,-2],[0,-21],[-35,-23],[-39,1],[-37,18],[-29,25],[0,26],[20,0],[0,21],[-20,16],[-24,7],[-26,-5],[-28,-18],[-24,17],[-14,6],[10,29],[15,20],[21,13],[30,8],[0,26],[-28,10],[-17,19],[-7,20],[-2,8],[-4,36],[-18,0],[-9,-26],[-17,-15],[-24,-7],[-31,1],[0,24],[60,52],[-1,37],[-20,29],[0,21],[21,10],[10,12],[6,19],[5,29],[-9,-8],[-33,-15],[5,45],[5,12],[12,15],[0,21],[-42,23],[-13,-15],[-18,-15],[-8,-14],[-42,21],[0,23],[42,0],[-66,23],[-56,-39],[-45,-49],[-34,-5],[-16,-53],[-24,-2],[-14,32],[14,49],[-20,0],[0,-26],[-14,4],[-3,8],[1,8],[-4,6],[-11,-9],[-6,-8],[-8,-6],[-14,-3],[-3,23],[5,11],[8,5],[10,8],[-40,0],[0,23],[40,0],[-13,24],[-4,19],[5,21],[12,32],[-23,-17],[-15,-23],[-22,-56],[-28,33],[-44,31],[-46,23],[-32,9],[-11,14],[-1,31],[-4,31],[-24,14],[-27,2],[-20,4],[-41,18],[4,-13],[4,-3],[4,-2],[6,-6],[-5,-1],[-31,-15],[-32,8],[-18,30],[6,48],[25,22],[33,8],[20,12],[-16,33],[0,20],[36,16],[-4,13],[-20,12],[-12,17],[6,34],[14,21],[20,1],[19,-20],[18,0],[24,23],[27,-3],[31,-13],[39,-7],[0,25],[-62,2],[-27,22],[9,39],[41,52],[-18,25],[-11,11],[-13,10],[9,4],[9,0],[6,4],[-2,18],[20,0],[20,-22],[29,-7],[29,7],[21,22],[-31,1],[-22,9],[-17,14],[-11,20],[0,25],[21,0],[0,24],[-22,-2],[-17,7],[-20,16],[-12,-20],[-10,-4],[-18,3],[18,52],[21,23],[12,-3],[-11,-26],[40,-3],[30,-19],[19,-31],[10,-42],[20,0],[-4,17],[-9,16],[-7,16],[20,0],[0,21],[-20,0],[9,47],[-45,80],[16,38],[-59,0],[13,24],[6,19],[-1,27],[11,-7],[20,-7],[10,-7],[2,10],[-2,23],[0,11],[40,-23],[12,34],[19,12],[49,-23],[1,15],[33,-19],[42,-56],[31,-55],[147,-183],[-36,-5],[-38,0],[27,-22],[24,-33],[18,-40],[9,-46],[22,0],[12,1],[31,-27],[78,-42],[14,-14],[8,-16],[13,-12],[60,-7],[20,-7],[13,-15],[8,-25],[-23,20],[-8,4],[-13,-2],[-16,2],[288,-182],[89,-19],[-29,19],[-116,92],[-42,20],[-18,13],[-73,82],[-30,15],[-5,2],[-71,16],[-31,14],[-94,85],[-46,58],[-39,98],[-92,125],[-14,40],[-42,91],[-93,48],[-112,2],[-106,-35],[-261,-149],[-440,-127],[-75,-2],[-43,-1],[-97,21],[-303,142],[-119,93],[-84,38],[-375,171],[-269,86],[-91,10],[-248,-38],[-72,-27],[-28,-16],[132,-4],[138,-60],[118,-88],[56,-77],[-20,3],[-18,-7],[-18,-12],[52,-27],[-11,-23],[-18,-16],[-23,-6],[-28,4],[-5,13],[1,16],[-8,13],[-49,32],[-27,11],[-106,8],[-17,-4],[-17,-16],[1,-16],[3,-17],[-9,-21],[-46,-40],[-11,-23],[18,-28],[-33,-69],[-20,-27],[-27,-23],[-20,26],[-100,44],[-5,-11],[-1,-4]],[[0,2364],[6,-3],[-6,-6]],[[0,2797],[62,23],[44,6],[0,24],[-106,-38]],[[3976,1756],[-35,-54],[6,-53]],[[3947,1649],[-6,53],[37,57]],[[3948,1640],[18,-57]],[[3967,1583],[-18,56]],[[2821,2216],[-200,50]],[[3736,1748],[0,2]],[[1313,1011],[1,1],[-1,1],[0,-1],[0,-1]],[[1791,2301],[-15,-5]],[[1776,2295],[15,6]],[[1800,2307],[-7,-5]],[[2800,2214],[420,-147],[355,-220]],[[3575,1848],[-338,213],[-416,155]],[[3969,1553],[-66,-15]],[[3903,1538],[-2,0]],[[3901,1538],[-115,55],[-50,155]],[[3737,1735],[48,-143],[115,-54],[1,0]],[[3901,1538],[2,0]],[[3903,1538],[59,9]],[[244,170],[17,23]],[[1523,400],[-18,43]],[[1505,444],[5,35]],[[38,146],[64,-9],[83,62],[21,6]],[[206,205],[3,1],[3,-7]],[[212,199],[10,-24],[24,-133]],[[246,42],[-26,148],[-8,9]],[[212,199],[-6,6]],[[206,205],[-3,3],[-19,-9],[-82,-61],[-64,9]],[[172,40],[-2,-40]],[[1323,1561],[2,-349],[-132,-162]],[[1194,1050],[91,108],[40,54],[2,127],[-2,206],[-2,16]],[[261,193],[1,2]],[[25,1126],[5,-21]],[[50,1063],[3,-18]],[[53,1051],[-1,0]],[[52,1048],[56,-430]],[[53,1048],[15,37],[0,1]],[[68,1086],[3,24]],[[77,1109],[-9,-23]],[[68,1086],[-11,-27],[-4,-9]],[[73,1291],[3,6]],[[76,1297],[5,7],[57,148],[-9,217],[-98,422],[7,90],[52,119],[8,6],[45,20]],[[143,2326],[36,15]],[[179,2341],[75,190]],[[254,2531],[23,61],[1,0]],[[278,2592],[94,14],[26,0],[72,110]],[[468,2717],[-70,-110],[-26,-1],[-94,-13],[0,-1]],[[278,2592],[-24,-61]],[[254,2531],[-75,-190]],[[179,2341],[-36,-15]],[[143,2326],[-46,-19],[-7,-7],[-52,-119],[-7,-91],[97,-421],[10,-217],[-57,-148],[-5,-7]],[[76,1297],[-3,-6]],[[421,2752],[4,-11]],[[450,2731],[-268,98],[277,-105]],[[1059,675],[-19,-27]],[[1040,648],[20,27]],[[1197,1064],[-112,99]],[[1180,1044],[13,4]],[[1208,1054],[-14,-4]],[[1195,1048],[13,6]],[[1199,1064],[-2,0]],[[1197,1064],[0,-1]],[[2251,1298],[97,-83],[-21,-48],[-214,-103],[-66,9],[-143,-126],[-155,17],[-192,-81],[-121,46],[-89,-5]],[[1394,238],[125,182]],[[1516,463]],[[1516,463],[-6,16]],[[1510,477],[6,-14]],[[1516,463]],[[1516,463],[1,-1]],[[1517,462]],[[1516,463]],[[1516,463]],[[1517,462]],[[1517,462]],[[1520,419],[0,1]],[[1526,453],[-4,-4]],[[1522,449],[4,3]],[[1522,449],[0,1],[-2,-3],[2,2]],[[1526,452],[99,37],[37,75],[210,80],[125,-27],[51,2],[34,30],[-3,96],[-103,217],[-27,13]],[[1528,452],[-2,0]],[[1572,423],[-44,29]],[[1559,463],[0,1]],[[1572,423],[75,-33]],[[1729,354],[-82,36]],[[1729,354],[161,-70]],[[1917,268],[-27,16]],[[1996,161],[-79,107]],[[2102,0],[-106,161]],[[2800,0],[231,75]],[[3735,1798],[-1,-40]],[[3736,1750],[3,48]],[[1040,648]],[[3984,1764],[-46,8]],[[0,8],[8,-8]],[[9,0],[-9,9]],[[1505,443],[-22,-58],[-74,-33],[-39,9],[-27,-56],[-71,-35],[-59,-149]],[[1278,975],[-9,-19]],[[1270,956],[9,19]],[[2543,2278],[-31,63],[32,-1]],[[1308,989],[24,7]],[[1332,997],[-24,-8]],[[1521,420],[36,9]],[[1301,964],[13,48]],[[0,154],[25,-6],[13,-2]],[[38,147],[-38,7]],[[1303,1011],[1,-7]],[[2546,2308],[-39,-17],[-92,-9],[-14,-7]],[[2401,2274],[96,8],[49,24]],[[588,681],[23,60]],[[1426,1145],[106,157],[134,91],[42,60],[174,10],[163,98],[138,150],[106,365],[80,96]],[[2390,2185],[-21,-13]],[[2390,2185],[52,18]],[[1329,925],[5,-2]],[[1334,923],[-5,2]],[[1278,975],[11,1],[4,14]],[[1288,1010],[-9,-35]],[[1279,975],[-25,10],[-1,0]],[[1254,985],[24,-10]],[[1207,1003],[104,10]],[[1310,1013],[-3,0]],[[1313,1016],[-2,-2]],[[1311,1013],[18,11]],[[52,1051],[-23,73]],[[52,1048],[1,2]],[[207,265],[21,188],[-126,171],[-49,424]],[[1528,452],[28,-23]],[[4063,264],[-107,-3]],[[3956,260],[108,4]],[[1247,972],[-13,-28]],[[588,682],[11,-31]],[[1192,1050],[-324,-305]],[[1329,925],[4,92]],[[1332,1026],[0,-9]],[[1333,1017],[2,9]],[[1335,923],[-1,0]],[[1196,1032],[12,-77],[66,-49]],[[1275,906],[-67,50],[-12,76]],[[2401,2275],[-54,-29],[-39,-30],[-1,-1],[-38,-17]],[[2269,2198],[-33,-16]],[[2236,2182],[-1,0],[-52,-133],[-340,-466],[-155,-67]],[[1688,1516],[156,68],[338,464],[54,134]],[[2236,2182],[0,1],[33,15]],[[2269,2198],[38,17],[1,0],[93,59]],[[1235,978],[39,-28]],[[3981,280],[-85,-125]],[[3897,154],[86,129]],[[3959,363],[-17,-22],[7,-11]],[[3949,330],[19,-28]],[[3968,302],[13,-19]],[[3983,286],[-15,16]],[[3968,302],[-22,24],[3,4]],[[3949,330],[13,20]],[[3969,1544],[32,-1089]],[[4001,456],[-31,1089]],[[1794,2301],[8,6]],[[1925,2347],[-39,-3]],[[1886,2344],[-43,-4],[-43,-33]],[[1859,2342],[27,2]],[[1886,2344],[43,3]],[[1769,2293],[-7,-40],[-89,-26],[-143,-130],[-19,-91],[-154,-180],[6,-30],[0,-1],[22,-61],[-15,-37],[-47,-136]],[[1323,1561],[63,171],[-29,94],[154,180],[20,90],[143,131],[88,26],[11,41]],[[262,195],[-1,-1]],[[2393,2509],[1083,1587]],[[1257,920],[2,16]],[[1258,919],[36,43]],[[1294,962],[-36,-25]],[[224,165],[-1,-7]],[[223,158],[3,-13]],[[223,158],[2,0]],[[868,745],[316,301]],[[1304,1003],[0,1],[0,-1]],[[4013,1756],[-5,3]],[[2621,2266],[-74,43]],[[184,2828],[1,1]],[[1290,1011],[-83,-8]],[[3947,230],[-14,23],[23,7]],[[261,194],[-35,-48]],[[226,145],[18,25]],[[1226,1061],[113,65]],[[1338,1126],[-112,-64]],[[1453,1379],[27,60]],[[1480,1439],[-27,-59]],[[769,760],[99,-15]],[[1526,452],[-10,11]],[[1517,462],[9,-10]],[[1057,676],[2,-1]],[[1059,675],[-2,1]],[[1979,2327],[146,-108]],[[2125,2219],[-145,108]],[[2129,2217],[192,-27]],[[2321,2191],[-191,26]],[[2429,2169],[-45,12],[-38,7],[-24,3]],[[2322,2190],[107,-21]],[[2654,2173],[-100,-41],[-120,35]],[[2434,2167],[23,-16],[44,-25],[53,6],[4,1],[96,40]],[[2675,2178],[-19,-5]],[[2675,2178],[28,12]],[[2703,2191],[-26,-12]],[[2801,2217],[-61,-10]],[[2740,2207],[60,7]],[[1226,969],[-9,-16]],[[1218,952],[17,25]],[[1246,1001],[-17,-29]],[[1324,906],[102,239]],[[2442,2203],[23,7]],[[2469,2214],[78,15]],[[2545,2228],[59,47]],[[1193,1048],[3,-16]],[[1196,1032],[-1,16]],[[1274,906],[23,-17]],[[1298,889],[-23,17]],[[1330,972],[-36,-10]],[[1294,962],[36,8]],[[1355,978],[-24,-6]],[[1331,970],[23,6]],[[634,821],[-101,79],[-91,21],[-42,104]],[[584,857],[42,-39]],[[1042,680],[-1,0]],[[1041,680],[1,0]],[[1073,691]],[[1208,1054],[-5,-1],[-8,-3]],[[1195,1050],[-2,-1]],[[1193,1049],[-9,-3],[-5,-2]],[[1184,1046],[9,3]],[[1193,1049],[2,0]],[[1195,1049],[8,3],[5,2]],[[1505,443],[0,1]],[[1520,418],[-2,3]],[[1666,1513],[6,-23],[23,-54]],[[1700,1442],[-34,71]],[[1674,1510],[3,1]],[[2143,2390],[-86,-17]],[[2057,2372],[86,17]],[[2222,1966],[4,-3]],[[2391,2320],[-84,-105]],[[2308,2216],[83,102]],[[2388,2362],[5,-4]],[[2393,2359],[-4,3]],[[2621,2266],[186,-49]],[[3983,308],[-2,-1]],[[3981,301],[2,-1]],[[1195,1048],[0,1]],[[1195,1049],[0,1]],[[1195,1050],[-1,0],[-1,0],[0,-1]],[[1193,1049]],[[1193,1049],[0,-1],[2,0]],[[57,1231],[-41,-11]],[[16,1220],[41,11]],[[57,1231]],[[58,1231],[43,-1]],[[4082,265],[-19,-1]],[[4064,264],[18,0]],[[3981,283],[0,-3]],[[3983,283],[0,3]],[[1201,986],[23,-15]],[[1224,972],[-22,15]],[[1059,675],[250,218]],[[1308,893],[-249,-218]],[[1329,893],[181,-416]],[[1510,479],[-180,415]],[[193,206],[4,13]],[[2406,2405],[-24,54],[11,50]],[[1527,452],[-22,-9]],[[1253,985],[-10,3]],[[626,818],[3,-7]],[[636,820],[-2,1]],[[2057,2373],[-132,-26]],[[1929,2347],[128,25]],[[2143,2389],[75,15],[118,-8]],[[2336,2396],[15,-1]],[[2351,2395],[37,-33]],[[2389,2362],[-35,33],[-3,0]],[[2351,2395],[-15,1]],[[2336,2396],[-117,9],[-76,-15]],[[2391,2318],[20,25]],[[2393,2358],[17,-15],[-19,-23]],[[2410,2344],[-17,15]],[[2546,2230],[-77,-15]],[[2546,2308],[1,-1],[6,-2]],[[2602,2277],[-55,-48]],[[2549,2307],[33,-1],[39,-40]],[[2554,2306],[-4,0]],[[3947,1635],[0,17]],[[3947,1649],[1,-9]],[[3949,1639],[-2,10]],[[3976,1760],[0,-4]],[[3976,1760],[8,3]],[[3977,1765],[-1,-5]],[[2410,2343],[1,0]],[[2411,2343],[0,1],[-1,0]],[[2410,2344],[0,-1]],[[2469,2214],[0,1],[-1,0],[0,-1],[1,0]],[[599,651],[-11,30]],[[1274,951],[-27,21]],[[3850,0],[-1,26]],[[3849,26],[-2,39],[47,83]],[[3894,148],[3,5],[0,1]],[[3896,155],[0,-2],[-2,-5]],[[3894,148],[-45,-122]],[[3849,26],[-4,-12],[2,-14]],[[3966,1583],[3,-39]],[[3970,1545],[-3,38]],[[1980,2327],[-25,19],[-14,1],[-16,0]],[[1929,2347],[50,-20]],[[2322,2190],[-1,0]],[[2322,2191],[-1,0]],[[1365,1048],[6,-20],[-38,-10]],[[1333,1016],[39,12],[-6,23]],[[1334,923],[1,-1]],[[1802,2307],[57,35]],[[1258,937],[-29,9]],[[1230,944],[29,-8]],[[1226,1062],[-18,-8]],[[1208,1054],[18,7]],[[1453,1380],[-115,-254]],[[1339,1126],[114,253]],[[1688,1516],[-122,-55],[-80,-7],[-6,-15]],[[1480,1439],[7,15],[80,7],[121,55]],[[1311,1013],[2,-1]],[[1313,1012],[-2,-10]],[[599,651],[-201,-239],[-3,-37],[-133,-180]],[[1316,1013],[-13,-48]],[[1316,1007],[1,6]],[[1324,906],[5,-13]],[[1330,894],[-6,13]],[[1323,906],[-15,-13]],[[1309,893],[15,13]],[[1254,984],[0,1]],[[262,195],[134,180],[2,36],[201,240]],[[611,741],[-23,-59]],[[868,745],[-99,15]],[[101,1230],[243,72],[-4,30],[91,114],[94,40],[173,-74],[142,10],[160,204],[326,-73]],[[1191,1027],[106,12],[32,67]],[[3334,2042],[-24,7]],[[3357,2036],[8,-2],[0,-1]],[[3365,2033],[222,-157]],[[3587,1876],[-219,157],[-3,0]],[[3365,2033],[-8,3]],[[3594,1873],[3,-1]],[[3598,1872],[-4,1]],[[3723,1824],[-16,6]],[[3707,1830],[16,-6]],[[3726,1823],[57,-13],[51,-9]],[[3834,1801],[-108,22]],[[3834,1801],[33,-8]],[[246,42],[8,-42]],[[254,0],[-8,42]],[[0,1239],[1,-2]],[[1,1237],[-1,2]],[[0,1260],[36,3]],[[36,1263],[3,0]],[[73,1291],[-16,-24],[-1,-1]],[[56,1266],[-1,-1],[-55,-5]],[[1,1237],[4,-8]],[[5,1229],[4,-11],[1,0]],[[10,1218],[4,1]],[[10,1218]],[[10,1218],[0,1]],[[10,1219],[-5,10]],[[14,1220],[-4,-1]],[[10,1219],[-1,0]],[[13,1219],[12,-14]],[[16,1219]],[[20,1154],[5,-28]],[[25,1205],[-5,-50]],[[27,1190],[-1,15]],[[27,1128],[-1,-1]],[[27,1194],[35,2],[1,0]],[[63,1196],[13,-39],[0,-2]],[[76,1155],[8,-29],[-7,-17]],[[27,1193],[36,3]],[[63,1196]],[[63,1196],[4,1]],[[36,1263]],[[36,1263],[0,-9]],[[36,1254],[19,11],[1,1]],[[56,1266],[17,25]],[[57,1231],[1,0]],[[63,1196]],[[63,1196],[13,-39],[0,-2]],[[76,1155],[-5,-45]],[[418,2760],[3,-8]],[[472,2723],[-22,8]],[[459,2724],[11,-3]],[[470,2721],[-2,-4]],[[470,2716],[2,4]],[[472,2720],[1,2],[-2,1],[-1,-2]],[[470,2721],[2,-1]],[[665,738],[-1,1]],[[665,740],[1,0]],[[669,748],[-1,0]],[[670,749],[-2,0]],[[1196,1002],[5,-16]],[[1207,1003],[-10,-1]],[[1201,987],[-4,15]],[[1197,1002],[10,1]],[[1200,986],[0,1]],[[1202,987],[-1,2]],[[1211,1005],[2,-1]],[[1224,971],[3,-2]],[[1229,972],[-5,0]],[[1289,1010],[-11,1]],[[1290,1035],[-1,-25]],[[1289,1010],[4,-20]],[[1290,1018],[59,59]],[[1290,1018],[0,17]],[[1295,1010],[-6,0],[1,8]],[[1332,1026],[-42,-15]],[[1303,988],[-2,0]],[[1307,1012],[-2,1]],[[1308,989],[-1,0]],[[1308,989],[7,13]],[[1312,1013],[-1,0]],[[1311,1002],[1,0]],[[1312,1013],[0,2]],[[1313,1005],[-1,0]],[[1317,1013],[-5,0]],[[1314,1012],[2,1]],[[1316,1013]],[[1316,1013],[1,0]],[[1329,1024],[2,-1]],[[1330,968],[1,0]],[[1334,1025],[-2,1]],[[1347,924],[-12,-1]],[[1354,976],[1,1]],[[1375,1034],[6,-2]],[[2422,2284],[-11,60]],[[2411,2343],[9,-60]],[[2554,2520],[-20,-5]],[[2534,2515],[-4,-1]],[[2530,2514],[-1,-1]],[[2529,2513],[-4,-1]],[[2546,2348],[0,-37]],[[2601,2470],[-55,-122]],[[2547,2311],[-1,37]],[[2553,2305],[21,-27],[-28,-48]],[[2547,2229],[28,49],[-21,28]],[[2554,2520],[7,2],[-7,-2]],[[3587,1876],[7,-3]],[[3594,1873],[-7,3]],[[3723,1824],[3,-1]],[[3726,1823],[-3,1]],[[3735,1821],[0,-23]],[[3739,1798],[2,22]],[[3938,1772],[-10,3],[-25,7]],[[3903,1782],[-60,17]],[[3867,1793],[10,-3],[26,-8]],[[3903,1782],[36,-11],[7,-5],[25,-16],[13,-8]],[[3984,1742],[1,-1]],[[3985,1741],[3,-2]],[[3949,1771],[-1,-1]],[[3948,1770],[-1,-4]],[[3947,1766],[-7,5],[1,0],[7,-1]],[[3948,1770],[2,0]],[[3950,1770],[34,-7]],[[3950,1765],[-3,1]],[[3947,1766]],[[3947,1766]],[[3947,1766],[3,4]],[[3950,1770]],[[3980,1735],[4,7]],[[3984,1742],[2,2],[7,18]],[[3993,1762]],[[3980,1734],[5,7]],[[3985,1741],[1,3],[8,17]],[[3994,1761]],[[3984,1763],[9,-1]],[[3993,1762],[1,-1]],[[3994,1761],[10,-2]],[[4004,1760],[-20,4]],[[4008,1759],[-4,0]],[[4008,1759],[5,-3]],[[4012,1763],[0,-6]],[[5,1229]],[[5,1229]],[[16,1220],[-1,1],[-1,-1],[1,-1],[1,1]],[[20,1154],[0,1],[0,-1]],[[26,1205],[-1,0],[1,0]],[[28,1135],[0,1],[-1,-1],[1,0]],[[1197,1002]],[[1197,1002],[-1,0]],[[1196,1002],[1,0]],[[1311,1013]],[[1311,1013]],[[1319,990]],[[2530,2513],[0,1]],[[2530,2514],[-1,0],[0,-1]],[[2529,2513],[1,0]],[[3984,1763],[0,1],[0,-1]],[[3984,1763]],[[1332,1017],[1,-1],[0,1],[0,1],[-1,-1]],[[1332,1017],[-3,-92]],[[1247,972],[6,13]],[[0,2782],[184,46]],[[197,2839],[-13,-11],[-71,-11],[-113,-34]],[[185,2829],[13,10]],[[514,2848],[187,-48],[171,-36],[284,-144]],[[1156,2621],[-128,76],[-156,68],[-160,35],[-11,0],[-170,48],[-17,1]],[[1342,2510],[-69,41]],[[1273,2550],[69,-40]],[[1754,2301],[22,-6]],[[1776,2296],[-21,5]],[[1793,2302],[-2,-1]],[[1791,2301],[3,0]],[[2821,2216],[-20,1]],[[3575,1847],[162,-112]],[[3736,1750],[-161,98]],[[3962,1547],[7,-3]],[[1288,976],[5,-14]],[[1293,963],[-4,13]],[[1528,452]],[[1120,972],[71,55]],[[3310,2049],[-27,7]],[[3283,2056],[-13,4],[-33,1]],[[3250,2047],[33,9]],[[3283,2056],[9,3],[65,-23]],[[3357,2036],[-23,6]],[[3597,1872],[110,-42]],[[3707,1830],[-109,42]],[[1532,0],[-9,400]],[[3956,261],[-24,-8],[12,-27]],[[4001,455],[1,-39],[-43,-53]],[[3962,350],[41,67],[-2,39]],[[514,2849],[-295,8],[-22,-18]],[[198,2839],[20,17],[296,-8]],[[1273,2551],[-117,70]],[[1156,2620],[117,-70]],[[1342,2510],[266,-158],[146,-51]],[[1755,2301],[-145,50],[-268,159]],[[26,1205],[-10,14]],[[20,1153]],[[20,1153],[7,37]],[[28,1136],[-8,17]],[[20,1153]],[[29,1124],[-1,11]],[[197,219],[10,46]],[[1040,648],[234,-45],[95,-82],[135,-65]],[[1505,455],[0,2]],[[2125,2219],[4,-2]],[[2130,2217],[-5,2]],[[2429,2169],[5,-2]],[[2434,2167],[-5,2]],[[2656,2173],[-2,0]],[[2654,2173],[2,0]],[[2677,2179],[-2,-1]],[[2740,2207],[-37,-16]],[[2703,2190],[37,17]],[[2414,2341],[57,53]],[[2488,2420],[1,72],[36,20]],[[1304,1003],[-4,-19]],[[2469,2392],[19,28]],[[4082,264],[14,-1]],[[1041,680],[-33,-3],[-4,-24],[-66,-467],[6,-186]],[[944,0],[-6,187],[71,489],[32,4]],[[1042,680],[15,-4]],[[1057,676],[-15,4]],[[4096,265],[-14,0]],[[1505,444],[15,3]],[[4096,1675],[0,-1675],[-4096,0],[0,2355],[6,6],[-6,3],[0,28],[1,4],[5,11],[100,-44],[20,-26],[27,23],[20,27],[33,69],[-18,28],[11,23],[46,40],[9,21],[-3,17],[-1,16],[17,16],[17,4],[106,-8],[27,-11],[49,-32],[8,-13],[-1,-16],[5,-13],[28,-4],[23,6],[18,16],[11,23],[-52,27],[18,12],[18,7],[20,-3],[-56,77],[-118,88],[-138,60],[-132,4],[28,16],[72,27],[248,38],[91,-10],[269,-86],[375,-171],[84,-38],[119,-93],[303,-142],[97,-21],[43,1],[75,2],[440,127],[261,149],[106,35],[112,-2],[93,-48],[42,-91],[14,-40],[92,-125],[39,-98],[46,-58],[94,-85],[31,-14],[71,-16],[5,-2],[30,-15],[73,-82],[18,-13],[42,-20],[116,-92],[29,-19],[-89,19],[-288,182],[16,-2],[13,2],[8,-4],[23,-20],[-8,25],[-13,15],[-20,7],[-60,7],[-13,12],[-8,16],[-14,14],[-78,42],[-31,27],[-12,-1],[-22,0],[-9,46],[-18,40],[-24,33],[-27,22],[38,0],[36,5],[-147,183],[-31,55],[-42,56],[-33,19],[-1,-15],[-49,23],[-19,-12],[-12,-34],[-40,23],[0,-11],[2,-23],[-2,-10],[-10,7],[-20,7],[-11,7],[1,-27],[-6,-19],[-13,-24],[59,0],[-16,-38],[45,-80],[-9,-47],[20,0],[0,-21],[-20,0],[7,-16],[9,-16],[4,-17],[-20,0],[-10,42],[-19,31],[-30,19],[-40,3],[11,26],[-12,3],[-21,-23],[-18,-52],[18,-3],[10,4],[12,20],[20,-16],[17,-7],[22,2],[0,-24],[-21,0],[0,-25],[11,-20],[17,-14],[22,-9],[31,-1],[-21,-22],[-29,-7],[-29,7],[-20,22],[-20,0],[2,-18],[-6,-4],[-9,0],[-9,-4],[13,-10],[11,-11],[18,-25],[-41,-52],[-9,-39],[27,-22],[62,-2],[0,-25],[-39,7],[-31,13],[-27,3],[-24,-23],[-18,0],[-19,20],[-20,-1],[-14,-21],[-6,-34],[12,-17],[20,-12],[4,-13],[-36,-16],[0,-20],[16,-33],[-20,-12],[-33,-8],[-25,-22],[-6,-48],[18,-30],[32,-8],[31,15],[5,1],[-6,6],[-4,2],[-4,3],[-4,13],[41,-18],[20,-4],[27,-2],[24,-14],[4,-31],[1,-31],[11,-14],[32,-9],[46,-23],[44,-31],[28,-33],[22,56],[15,23],[23,17],[-12,-32],[-5,-21],[4,-19],[13,-24],[-40,0],[0,-23],[40,0],[-10,-8],[-8,-5],[-5,-11],[3,-23],[14,3],[8,6],[6,8],[11,9],[4,-6],[-1,-8],[3,-8],[14,-4],[0,26],[20,0],[-14,-49],[14,-32],[24,2],[16,53],[34,5],[45,49],[56,39],[66,-23],[-42,0],[0,-23],[42,-21],[8,14],[18,15],[13,15],[42,-23],[0,-21],[-12,-15],[-5,-12],[-5,-45],[33,15],[9,8],[-5,-29],[-6,-19],[-10,-12],[-21,-10],[0,-21],[20,-29],[1,-37],[-60,-52],[0,-24],[31,-1],[24,7],[17,15],[9,26],[18,0],[4,-36],[2,-8],[7,-20],[17,-19],[28,-10],[0,-26],[-30,-8],[-21,-13],[-15,-20],[-10,-29],[14,-6],[24,-17],[28,18],[26,5],[24,-7],[20,-16],[0,-21],[-20,0],[0,-26],[29,-25],[37,-18],[39,-1],[35,23],[0,21],[-42,2],[-29,22],[-18,34],[-10,36],[44,-10],[59,-30],[27,-5],[11,-2],[-23,47],[46,1],[15,-1],[0,25],[-13,3],[-3,3],[1,5],[-4,9],[4,4],[35,23],[2,-21],[8,-4],[13,1],[17,-2],[-12,37],[23,25],[32,2],[32,-56],[37,-14],[46,-1],[41,7],[70,41],[32,60],[-8,63],[-53,50],[70,2],[3,0],[7,-2],[14,101],[1,48],[-15,58],[-49,63],[-7,30],[36,26],[-44,25],[-62,23],[-59,9],[-36,-13],[-20,58],[36,-5],[38,-3],[70,-14],[128,-25],[39,-30],[18,0],[33,-4],[7,-57],[29,-42]],[[0,2812],[106,38],[0,-24],[-44,-6],[-62,-23],[0,15]],[[4096,421],[0,-158],[-13,-5],[-67,22],[-52,60],[-17,91],[63,29],[70,-19],[16,-20]],[[647,621],[0,38],[-98,38],[41,104],[114,53],[118,-17],[51,-102],[-79,-11],[-93,-87],[-54,-16]],[[919,0],[-19,0],[5,15],[14,-15]],[[2568,0],[-102,0],[25,53],[49,-9],[26,-36],[2,-8]],[[295,0],[-194,0],[-37,14],[64,266],[48,6],[58,-40],[54,-97],[0,-84],[35,-12],[-9,-26],[-19,-27]],[[436,1801],[-59,-1],[-45,34],[-9,75],[108,34],[45,-34],[9,-75],[-49,-33]],[[3410,2068],[61,-69],[205,-144],[-89,19],[-288,182],[60,-24],[-21,40],[-66,12],[32,27],[106,-43]],[[4096,1677],[0,-75],[-57,-23],[-87,5],[-69,143],[36,26],[-106,48],[-95,-4],[-20,58],[144,-22],[218,-59],[36,-97]],[[1521,1414],[39,-12],[25,53],[32,-76],[-118,-107],[-76,-7],[28,51],[4,139],[66,-41]],[[3162,2220],[-3,-57],[-79,33],[-27,86],[-51,55],[67,4],[93,-121]],[[2702,2629],[0,-33],[-41,21],[-18,-70],[59,0],[-16,-38],[45,-80],[11,-117],[-20,0],[-29,73],[-70,22],[11,26],[-51,-72],[40,21],[59,-21],[-21,-49],[28,-34],[53,-10],[-21,-22],[-98,22],[-22,-26],[32,-33],[-174,-34],[-69,119],[3,70],[-175,-73],[-81,34],[10,104],[215,62],[261,149],[55,19],[24,-30]],[[1255,2630],[34,-149],[36,-3],[39,77],[343,-173],[215,-18],[122,36],[30,-62],[-348,-40],[-83,-87],[-58,2],[0,37],[-97,-38],[0,-37],[-33,75],[-162,38],[-64,114],[-97,0],[-129,181],[-1,47],[43,30],[62,-57],[57,-11],[-25,91],[116,-53]],[[504,2691],[-116,86],[-138,60],[-132,4],[100,43],[300,32],[-14,-225]],[[0,2812],[106,38],[0,-24],[-106,-14]],[[226,1985],[-139,-22],[-23,22],[-19,98],[32,49],[122,-20],[37,-46],[-10,-81]],[[1326,886],[-97,38],[-65,76],[114,113],[177,39],[2,-36],[-131,-230]],[[85,1275],[44,-124],[-37,-43],[-47,4],[-45,33],[0,163],[64,-5],[21,-28]],[[3158,107],[39,28],[27,72],[40,-3],[1,-69],[-30,-53],[-77,25]],[[38,146],[21,75],[23,-38],[40,48],[111,-18],[31,-21],[1,-146],[-61,-12],[-166,112]]]}