{"objects":{"water":{"type":"GeometryCollection","geometries":[{"type":"Polygon","properties":{"kind":"lake","name":"Great Bitter Lake","area":303559072,"sort_rank":200,"alkaline":true,"source":"naturalearthdata.com","min_zoom":0.0,"id":1329},"arcs":[[65]]},{"type":"MultiPolygon","properties":{"source":"naturalearthdata.com","kind":"ocean","area":1576712559132672,"sort_rank":200,"min_zoom":0.0,"id":1},"arcs":[[[66]]]},{"type":"LineString","properties":{"source":"naturalearthdata.com","kind":"ocean","sort_rank":205,"boundary":true,"min_zoom":0.0,"id":55},"arcs":[67]},{"type":"LineString","properties":{"source":"naturalearthdata.com","kind":"lake","sort_rank":367,"alkaline":true,"boundary":true,"min_zoom":0.0,"id":1329},"arcs":[68]}]},"buildings":{"type":"GeometryCollection","geometries":[]},"places":{"type":"GeometryCollection","geometries":[{"type":"Point","properties":{"kind":"region","name:en":"Ismailia Governorate","name":"\u0627\u0644\u0625\u0633\u0645\u0627\u0639\u064a\u0644\u064a\u0629","kind_detail":"state","name:de":"Gouvernement Ismailiya","source":"openstreetmap.org","min_zoom":4.0,"name:ru":"\u0418\u0441\u043c\u0430\u0438\u043b\u0438\u044f","name:hu":"Iszm\u00e1ilita korm\u00e1nyz\u00f3s\u00e1g","id":2373178213},"coordinates":[3551,2802]},{"type":"Point","properties":{"name:pt":"Cairo","old_name:vi":"K\u00ea Th\u00e0nh","name:ps":"\u0642\u0627\u0647\u0631\u0647","name:ka":"\u10d9\u10d0\u10d8\u10e0\u10dd","name:ko":"\uce74\uc774\ub85c","name:cv":"\u041a\u0430\u0438\u0440","name:kl":"Cairo","name:cs":"K\u00e1hira","name:tt":"\u041a\u0430\u04bb\u0438\u0440\u04d9","name:kw":"Cairo","name:kv":"\u041a\u0430\u0438\u0440","name:ku":"Qah\u00eere","name:ro":"Cairo","name:tl":"Cairo","name:sv":"Kairo","name:os":"\u041a\u0430\u0438\u0440","name:pl":"Kair","name:ta":"\u0b95\u0bc6\u0baf\u0bcd\u0bb0\u0bcb","name:tg":"\u049a\u043e\u04b3\u0438\u0440\u0430","name:ca":"el Caire","name:te":"\u0c15\u0c48\u0c30\u0c4b","name:vi":"Cairo","name:cy":"Cairo","name:qu":"Qahira","name:da":"Kairo","name:fr":"Le Caire","name:de":"Kairo","source":"openstreetmap.org","name:yo":"K\u00e1\u00edr\u00f2","name:kn":"\u0c95\u0cc8\u0cb0\u0ccb","admin_level":"2","name:lv":"Kaira","name:lt":"Kairas","name:uz":"Qohira","name:kk":"\u04d8\u043b-\u049a\u0430\u04bb\u0438\u0440\u0430","name:he":"\u05e7\u05d4\u05d9\u05e8","min_zoom":8.0,"kind":"locality","name:ur":"\u0642\u0627\u06c1\u0631\u06c1","name:la":"Cairus","name:uk":"\u041a\u0430\u0457\u0440","name:hy":"\u053f\u0561\u0570\u056b\u0580\u0565","country_capital":true,"name:ug":"\u0643\u0627\u064a\u0631\u0648","name:hu":"Kair\u00f3","name:hr":"Kairo","name:oc":"Lo Caire","population":9120350,"name:el":"\u039a\u03ac\u03b9\u03c1\u03bf","name:eo":"Kairo","name:en":"Cairo","name":"\u0627\u0644\u0642\u0627\u0647\u0631\u0629","name:tk":"Kair","name:th":"\u0e44\u0e04\u0e42\u0e23","name:yi":"\u05e7\u05d9\u05d9\u05e8\u05d0","name:et":"Kairo","name:nl":"Ca\u00efro","name:es":"El Cairo","name:ia":"Cairo","name:rm":"Cairo","name:az":"Qahir\u0259","name:ie":"Cairo","name:ms":"Kaherah","name:mr":"\u0915\u0948\u0930\u094b","name:zh-min-nan":"Cairo","name:my":"\u1000\u102d\u102f\u1004\u103a\u101b\u102d\u102f\u1019\u103c\u102d\u102f\u1037","name:io":"Kairo","int_name":"Cairo","name:is":"Ka\u00edr\u00f3","name:am":"\u12ab\u12ed\u122e","name:it":"Il Cairo","name:an":"O Caire","name:ru":"\u041a\u0430\u0438\u0440","name:mn":"\u041a\u0430\u0438\u0440","id":271613766,"name:mk":"\u041a\u0430\u0438\u0440\u043e","name:af":"Ka\u00efro","name:fa":"\u0642\u0627\u0647\u0631\u0647","kind_detail":"city","name:hi":"\u0915\u093e\u0939\u093f\u0930\u093e","name:fo":"Keiro","alt_name:vi":"Cai-r\u00f4","name:ba":"\u04a0\u04d9\u04bb\u0438\u0440","name:ky":"\u041a\u0430\u0438\u0440","name:zh-yue":"\u958b\u7f85","name:vo":"Kahir\u00e4","name:zh":"\u958b\u7f85","name:gv":"Cairo","name:so":"Qaahiro","name:sk":"K\u00e1hira","name:ja":"\u30ab\u30a4\u30ed","name:se":"Cairo","name:sc":"Cairo","name:br":"Kaero","name:bs":"Kairo","name:bn":"\u0995\u09be\u09af\u09bc\u09b0\u09cb","name:bo":"\u0f41\u0f0b\u0f61\u0f72\u0f0b\u0f62\u0f7c","name:ml":"\u0d15\u0d46\u0d2f\u0d4d\u0d31\u0d4b","name:be":"\u041a\u0430\u0456\u0440","name:bg":"\u041a\u0430\u0439\u0440\u043e","name:wo":"Xayra","name:sr":"\u041a\u0430\u0438\u0440\u043e","name:sq":"Kajro","name:ga":"Caireo","name:gd":"Cairo","name:ht":"Li K\u00e8","name:wa":"El Caire","name:gl":"O Cairo - \u0627\u0644\u0642\u0627\u0647\u0631\u0629","name:tr":"Kahire","name:ak":"Cairo","name:fi":"Kairo"},"coordinates":[892,1730]},{"type":"Point","properties":{"alt_name:eo":"Giza;Gizeh;\u011ciza","int_name":"Giza","name:cs":"G\u00edza","name:eo":"Gizo","min_zoom":8.0,"name:ru":"\u0413\u0438\u0437\u0430","name:pl":"Giza","name:hu":"G\u00edza","id":27565120,"population":2681863,"kind":"locality","name:en":"Giza","name":"\u0627\u0644\u062c\u064a\u0632\u0629","kind_detail":"city","name:de":"Giseh","source":"openstreetmap.org"},"coordinates":[804,1623]},{"type":"Point","properties":{"kind":"locality","name:en":"Shubra al Khayma","name":"\u0634\u0628\u0631\u0627 \u0627\u0644\u062e\u064a\u0645\u0629","kind_detail":"city","min_zoom":8.0,"name:de":"Shubra al Khayma","source":"openstreetmap.org","name:fr":"Shubra al Khayma","int_name":"Shubra al-Khayma, Shubra al Khayma","name:ru":"\u0428\u0443\u0431\u0440\u0430-\u044d\u043b\u044c-\u0425\u0435\u0439\u043c\u0430","id":768591737,"population":1016722},"coordinates":[888,1999]},{"type":"Point","properties":{"kind":"locality","name:en":"Helwan","int_name":"\u1e28elw\u0101n, Helwan","name":"\u062d\u0644\u0648\u0627\u0646","kind_detail":"town","alt_name:pl":"Hulwan","name:de":"Helwan","source":"openstreetmap.org","min_zoom":8.0,"name:eo":"Hel\u016dan","name:fr":"Helwan","name:pl":"Heluan","id":768775606,"population":643327},"coordinates":[1153,1060]},{"type":"Point","properties":{"kind":"locality","name:en":"Al-Zaqaziq\u200e","name":"\u0627\u0644\u0632\u0642\u0627\u0632\u064a\u0642\u200e","kind_detail":"city","name:eo":"Zagazig","source":"openstreetmap.org","min_zoom":8.0,"name:ru":"\u042d\u0437-\u0417\u0430\u043a\u0430\u0437\u0438\u043a","name:pl":"Az-Zakazik","id":299498464,"population":285097},"coordinates":[1649,3537]},{"type":"Point","properties":{"kind":"locality","name:en":"Al Ismailiya","name":"\u0627\u0644\u0625\u0633\u0645\u0627\u0639\u064a\u0644\u064a\u0629","kind_detail":"city","name:eo":"Ismailija","name:de":"Al Ismailiya","source":"openstreetmap.org","min_zoom":8.0,"int_name":"Al Ism\u0101\u2018\u012bl\u012bya, Al Ismailiya","name:fr":"Al Ismailiya","name:ru":"\u0418\u0441\u043c\u0430\u0438\u043b\u0438\u044f","name:pl":"Ismailia","name:hu":"el-Iszm\u00e1ilijja","id":768595872,"population":284813},"coordinates":[3902,3601]},{"type":"Point","properties":{"kind":"locality","name:en":"10th of Ramadan City","name":"\u0645\u062f\u064a\u0646\u0629 \u0627\u0644\u0639\u0627\u0634\u0631 \u0645\u0646 \u0631\u0645\u0636\u0627\u0646","kind_detail":"city","name:de":"Stadt des 10. Ramadan","source":"openstreetmap.org","min_zoom":8.0,"int_name":"10th of Ramadan City","name:ru":"\u042d\u043b\u044c-\u0410\u0448\u0438\u0440-\u043c\u0438\u043d-\u0420\u0430\u043c\u0430\u0434\u0430\u043d","id":768766246,"population":250000},"coordinates":[2365,2542]},{"type":"Point","properties":{"kind":"locality","name:en":"Shibin Al-Kom","name":"\u0634\u0628\u064a\u0646 \u0627\u0644\u0643\u0648\u0645","kind_detail":"city","name:eo":"\u015cibin al-Kaum","source":"openstreetmap.org","min_zoom":8.0,"name:ru":"\u0428\u0438\u0431\u0438\u043d-\u044d\u043b\u044c-\u041a\u043e\u043c","name:pl":"Szibin al-Kaum","id":299527803,"population":184097},"coordinates":[211,3433]},{"type":"Point","properties":{"kind":"locality","name:en":"6th of October","int_name":"6th October City","name":"\u0645\u062f\u064a\u0646\u0629 \u0627\u0644\u0633\u0627\u062f\u0633 \u0645\u0646 \u0623\u0643\u062a\u0648\u0628\u0631","kind_detail":"city","alt_name:pl":"Miasto 6. pa\u017adziernika","name:de":"Stadt des 6. Oktober","source":"openstreetmap.org","min_zoom":8.0,"name:eo":"Urbo 6-a de Oktobro","name:ru":"\u0413\u043e\u0440\u043e\u0434 \u0438\u043c. 6 \u041e\u043a\u0442\u044f\u0431\u0440\u044f","name:pl":"Madinat as-Sadis min Uktubar","id":299523927,"population":184000},"coordinates":[10,1472]},{"type":"Point","properties":{"kind":"locality","name:en":"Banha","name":"\u0628\u0646\u0647\u0627","kind_detail":"city","name:ar":"\u0628\u0646\u0647\u0627\u200e","alt_name:pl":"Benha","source":"openstreetmap.org","min_zoom":8.0,"name:eo":"Banha","name:ru":"\u0411\u0435\u043d\u0445\u0430","name:pl":"Banha","id":31353319,"population":167029},"coordinates":[718,3123]},{"type":"Point","properties":{"kind":"locality","name:en":"Bilbeis","name":"\u0628\u0644\u0628\u064a\u0633","kind_detail":"town","source":"openstreetmap.org","min_zoom":8.0,"name:ru":"\u0411\u0438\u043b\u044c\u0431\u0435\u0439\u0441","id":703527885,"population":141285},"coordinates":[1827,2976]},{"type":"Point","properties":{"kind":"locality","name:en":"Mit Ghamr","name":"\u0645\u064a\u062a \u063a\u0645\u0631","kind_detail":"town","min_zoom":8.0,"name:de":"Mit Ghamr","source":"openstreetmap.org","name:fr":"Mit Ghamr","int_name":"M\u012bt Ghamr, Mit Ghamr, Mit Ghamr wa Kafr al Batal","name:ru":"\u041c\u0438\u0442-\u0413\u0430\u043c\u0440","id":270227401,"population":119000},"coordinates":[933,3980]},{"type":"Point","properties":{"kind":"locality","name:en":"Al-Hawamidyah","name":"\u0627\u0644\u062d\u0648\u0627\u0645\u062f\u064a\u0629","kind_detail":"town","source":"openstreetmap.org","min_zoom":8.0,"id":299569009,"population":113000},"coordinates":[960,1205]},{"type":"Point","properties":{"kind":"locality","name:en":"Qalyub\u200e","name":"\u0642\u0644\u064a\u0648\u0628\u200e","kind_detail":"town","source":"openstreetmap.org","min_zoom":8.0,"id":299570446,"population":109000},"coordinates":[783,2168]},{"type":"Point","properties":{"kind":"locality","name:en":"Abu Kabir\u200e","name":"\u0623\u0628\u0648 \u0643\u0628\u064a\u0631\u200e","kind_detail":"city","source":"openstreetmap.org","min_zoom":8.0,"name:ru":"\u0410\u0431\u0443-\u041a\u0435\u0431\u0438\u0440","id":299571747,"population":106000},"coordinates":[2136,4008]},{"type":"Point","properties":{"kind":"locality","name:en":"Zifta","name":"\u0632\u0641\u062a\u0649","kind_detail":"town","min_zoom":8.0,"name:de":"Zifta","source":"openstreetmap.org","name:fr":"Zifta","int_name":"Zifta, Zifta","id":270227440,"population":93740},"coordinates":[902,3975]},{"type":"Point","properties":{"kind":"locality","name:en":"Fayed","name":"\u0641\u0627\u064a\u062f","kind_detail":"town","source":"openstreetmap.org","min_zoom":8.0,"id":3783957266,"population":81000},"coordinates":[3971,2672]}]},"transit":{"type":"GeometryCollection","geometries":[{"type":"MultiLineString","properties":{"kind":"subway","name:en":"Line 2","name":"\u0627\u0644\u062e\u0637 \u0627\u0644\u062b\u0627\u0646\u064a","sort_rank":275,"colour":"#FF7000","source":"openstreetmap.org","min_zoom":8.0,"network":"\u0627\u0644\u0634\u0631\u0643\u0629 \u0627\u0644\u0645\u0635\u0631\u064a\u0629 \u0644\u0625\u062f\u0627\u0631\u0629 \u0648\u062a\u0634\u063a\u064a\u0644 \u0627\u0644\u0645\u062a\u0631\u0648","ref":"2","osm_relation":true,"colour_name":"orangered"},"arcs":[[8],[9]]},{"type":"MultiLineString","properties":{"kind":"subway","name:en":"Line 3","name":"\u0627\u0644\u062e\u0637 \u0627\u0644\u062b\u0627\u0644\u062b","sort_rank":275,"colour":"#3EFF00","name:fr":"Ligne 3","source":"openstreetmap.org","min_zoom":8.0,"network":"\u0627\u0644\u0634\u0631\u0643\u0629 \u0627\u0644\u0645\u0635\u0631\u064a\u0629 \u0644\u0625\u062f\u0627\u0631\u0629 \u0648\u062a\u0634\u063a\u064a\u0644 \u0627\u0644\u0645\u062a\u0631\u0648","ref":"3","osm_relation":true,"colour_name":"lime"},"arcs":[[10],[11]]},{"type":"MultiLineString","properties":{"kind":"subway","name:en":"Metro First Line: New El-Marg =>Helwan","network":"\u0627\u0644\u0634\u0631\u0643\u0629 \u0627\u0644\u0645\u0635\u0631\u064a\u0629 \u0644\u0625\u062f\u0627\u0631\u0629 \u0648\u062a\u0634\u063a\u064a\u0644 \u0627\u0644\u0645\u062a\u0631\u0648","sort_rank":275,"colour":"red","name":"\u0627\u0644\u062e\u0637 \u0627\u0644\u0623\u0648\u0644","source":"openstreetmap.org","min_zoom":8.0,"ref":"1","osm_relation":true,"colour_name":"red"},"arcs":[[12],[13],[14],[15],[16],[17],[18],[19]]},{"type":"MultiLineString","properties":{"source":"openstreetmap.org","kind":"train","network":"EG-railway","sort_rank":275,"min_zoom":6.0,"osm_relation":true,"name":"Ismailia-Cairo line"},"arcs":[[20],[21],[22],[23],[24],[25],[26],[27],[28],[29],[30],[31],[32],[33],[34],[35],[36],[37],[38],[39],[40],[41],[42],[43],[44],[45],[46],[47],[48],[49],[50],[51]]},{"type":"MultiLineString","properties":{"source":"openstreetmap.org","kind":"train","network":"EG-railway","sort_rank":275,"min_zoom":6.0,"osm_relation":true,"name":"Alexandria-Aswan line"},"arcs":[[52],[53],[54],[55],[56]]},{"type":"MultiLineString","properties":{"source":"openstreetmap.org","kind":"train","network":"EG-railway","sort_rank":275,"min_zoom":6.0,"osm_relation":true,"name":"Mansoura-Cairo line"},"arcs":[[57],[58],[59],[60],[61]]},{"type":"MultiLineString","properties":{"kind":"subway","name:en":"Metro First Line: Helwan => New El-Marg","network":"\u0627\u0644\u0634\u0631\u0643\u0629 \u0627\u0644\u0645\u0635\u0631\u064a\u0629 \u0644\u0625\u062f\u0627\u0631\u0629 \u0648\u062a\u0634\u063a\u064a\u0644 \u0627\u0644\u0645\u062a\u0631\u0648","sort_rank":275,"colour":"red","name":"\u0627\u0644\u062e\u0637 \u0627\u0644\u0623\u0648\u0644","source":"openstreetmap.org","min_zoom":8.0,"ref":"1","osm_relation":true,"colour_name":"red"},"arcs":[[62],[63],[64]]}]},"pois":{"type":"GeometryCollection","geometries":[{"type":"Point","properties":{"kind":"aerodrome","name:en":"Cairo International Airport","name":"\u0645\u0637\u0627\u0631 \u0627\u0644\u0642\u0627\u0647\u0631\u0629 \u0627\u0644\u062f\u0648\u0644\u0649","area":34209100,"iata":"CAI","min_zoom":8.86,"name:de":"Flughafen Kairo","source":"openstreetmap.org","name:fr":"A\u00e9roport International du Caire","tier":3,"name:hu":"Kair\u00f3 nemzetk\u00f6zi rep\u00fcl\u0151t\u00e9r","id":135896473,"name:es":"El aeropuerto internacional de El Cairo"},"coordinates":[1418,1949]},{"type":"Point","properties":{"kind":"military","name:en":"Egyptian Armed Forces (Air Defence & Mechanized infantry) brigade","name":"\u0627\u0644\u0642\u0648\u0627\u062a \u0627\u0644\u0645\u0633\u0644\u062d\u0629 \u0627\u0644\u0645\u0635\u0631\u064a\u0629 (\u062f\u0641\u0627\u0639 \u062c\u0648\u0649 \u0648\u0645\u0634\u0627\u0647 \u0645\u064a\u0643\u0627\u0646\u064a\u0643\u0649)","area":48941600,"source":"openstreetmap.org","min_zoom":8.0,"tier":3,"id":277312732},"coordinates":[613,892]},{"type":"Point","properties":{"kind":"military","name:en":"Camp Huckstep","name":"\u0645\u062f\u064a\u0646\u0629 \u0627\u0644\u0647\u0627\u064a\u0643\u0633\u062a\u0628 \u0627\u0644\u0639\u0633\u0643\u0631\u064a\u0629","area":160070000,"source":"openstreetmap.org","min_zoom":8.0,"tier":3,"id":441525759},"coordinates":[1736,1992]},{"type":"Point","properties":{"source":"openstreetmap.org","kind":"aerodrome","name":"Kafr Masud","area":36037300,"tier":3,"min_zoom":8.82,"id":478204465},"coordinates":[2585,1748]}]},"boundaries":{"type":"GeometryCollection","geometries":[{"type":"LineString","properties":{"name:left:pl":"Muhafaza Al-Minufijja","id:left":-3824207,"name:right:hu":"G\u00edza korm\u00e1nyz\u00f3s\u00e1g","id:right":-3824206,"min_zoom":8.0,"name:left:ru":"\u043c\u0443\u0445\u0430\u0444\u0430\u0437\u0430 \u041c\u0438\u043d\u0443\u0444\u0438\u044f","name:left:hu":"el-Min\u00fafijja korm\u00e1nyz\u00f3s\u00e1g","name:right:ru":"\u043c\u0443\u0445\u0430\u0444\u0430\u0437\u0430 \u0413\u0438\u0437\u0430","name:right:pl":"Muhafaza Giza","id":-3824207,"osm_relation":true,"name:right":"\u0645\u062d\u0627\u0641\u0638\u0629 \u0627\u0644\u062c\u064a\u0632\u0629\u200e","kind":"region","name:left:eo":"Provinco Minufija","name":"\u0645\u062d\u0627\u0641\u0638\u0629 \u0627\u0644\u0645\u0646\u0648\u0641\u064a\u0629 - \u0645\u062d\u0627\u0641\u0638\u0629 \u0627\u0644\u062c\u064a\u0632\u0629\u200e","source":"openstreetmap.org","sort_rank":256,"name:right:eo":"Provinco Gizo","name:left:de":"Gouvernement al-Minufiyya","name:right:en":"Giza Governorate","name:left:en":"Monufia Governorate","name:right:de":"Gouvernement al-Dschiza","kind_detail":"4","name:left":"\u0645\u062d\u0627\u0641\u0638\u0629 \u0627\u0644\u0645\u0646\u0648\u0641\u064a\u0629"},"arcs":[0]},{"type":"LineString","properties":{"int_name:right":"Al-Gharbiyya","name:left:pl":"Muhafaza Al-Minufijja","id:left":-3824207,"name:right:hu":"Nyugati korm\u00e1nyz\u00f3s\u00e1g","id:right":-3584607,"min_zoom":8.0,"name:left:ru":"\u043c\u0443\u0445\u0430\u0444\u0430\u0437\u0430 \u041c\u0438\u043d\u0443\u0444\u0438\u044f","name:left:hu":"el-Min\u00fafijja korm\u00e1nyz\u00f3s\u00e1g","name:right:ru":"\u043c\u0443\u0445\u0430\u0444\u0430\u0437\u0430 \u0413\u0430\u0440\u0431\u0438\u044f","id":-3824207,"osm_relation":true,"name:right":"\u200f\u0645\u062d\u0627\u0641\u0638\u0629 \u0627\u0644\u063a\u0631\u0628\u064a","kind":"region","name:left:eo":"Provinco Minufija","name":"\u0645\u062d\u0627\u0641\u0638\u0629 \u0627\u0644\u0645\u0646\u0648\u0641\u064a\u0629 - \u200f\u0645\u062d\u0627\u0641\u0638\u0629 \u0627\u0644\u063a\u0631\u0628\u064a","source":"openstreetmap.org","sort_rank":256,"kind_detail":"4","name:left:de":"Gouvernement al-Minufiyya","name:right:en":"Gharbiyya Governorate","name:left:en":"Monufia Governorate","name:right:de":"Gouvernement al-Gharbiyya","name:left":"\u0645\u062d\u0627\u0641\u0638\u0629 \u0627\u0644\u0645\u0646\u0648\u0641\u064a\u0629"},"arcs":[1]},{"type":"LineString","properties":{"kind":"region","name:en":"Monufia Governorate","name":"\u0645\u062d\u0627\u0641\u0638\u0629 \u0627\u0644\u0645\u0646\u0648\u0641\u064a\u0629","sort_rank":256,"kind_detail":"4","name:eo":"Provinco Minufija","name:de":"Gouvernement al-Minufiyya","source":"openstreetmap.org","min_zoom":8.0,"name:ru":"\u043c\u0443\u0445\u0430\u0444\u0430\u0437\u0430 \u041c\u0438\u043d\u0443\u0444\u0438\u044f","name:pl":"Muhafaza Al-Minufijja","name:hu":"el-Min\u00fafijja korm\u00e1nyz\u00f3s\u00e1g","id":-3824207,"osm_relation":true},"arcs":[2]},{"type":"LineString","properties":{"name:left:pl":"Muhafaza Giza","id:left":-3824206,"name:right:hu":"el-Fajj\u00fam korm\u00e1nyz\u00f3s\u00e1g","id:right":-3726124,"min_zoom":8.0,"name:left:ru":"\u043c\u0443\u0445\u0430\u0444\u0430\u0437\u0430 \u0413\u0438\u0437\u0430","name:left:hu":"G\u00edza korm\u00e1nyz\u00f3s\u00e1g","name:right:ru":"\u043c\u0443\u0445\u0430\u0444\u0430\u0437\u0430 \u0424\u0430\u0439\u044e\u043c","id":-3824206,"osm_relation":true,"name:right":"\u0645\u062d\u0627\u0641\u0638\u0629 \u0627\u0644\u0641\u064a\u0648\u0645","kind":"region","name:left:eo":"Provinco Gizo","name":"\u0645\u062d\u0627\u0641\u0638\u0629 \u0627\u0644\u062c\u064a\u0632\u0629\u200e - \u0645\u062d\u0627\u0641\u0638\u0629 \u0627\u0644\u0641\u064a\u0648\u0645","source":"openstreetmap.org","sort_rank":256,"kind_detail":"4","name:left:de":"Gouvernement al-Dschiza","name:right:en":"Faiyum Governorate","name:left:en":"Giza Governorate","name:right:de":"Faiyum","name:left":"\u0645\u062d\u0627\u0641\u0638\u0629 \u0627\u0644\u062c\u064a\u0632\u0629\u200e"},"arcs":[3]},{"type":"LineString","properties":{"name:left:pl":"Muhafaza Giza","id:left":-3824206,"name:right:hu":"Szuez korm\u00e1nyz\u00f3s\u00e1g","id:right":-3062185,"min_zoom":8.0,"name:left:ru":"\u043c\u0443\u0445\u0430\u0444\u0430\u0437\u0430 \u0413\u0438\u0437\u0430","name:left:hu":"G\u00edza korm\u00e1nyz\u00f3s\u00e1g","name:right:ru":"\u043c\u0443\u0445\u0430\u0444\u0430\u0437\u0430 \u0421\u0443\u044d\u0446","id":-3824206,"osm_relation":true,"name:right":"\u0627\u0644\u063a\u0631\u0628\u064a\u0629","kind":"region","name:left:eo":"Provinco Gizo","name":"\u0645\u062d\u0627\u0641\u0638\u0629 \u0627\u0644\u062c\u064a\u0632\u0629\u200e - \u0627\u0644\u063a\u0631\u0628\u064a\u0629","source":"openstreetmap.org","sort_rank":256,"kind_detail":"4","name:left:de":"Gouvernement al-Dschiza","name:right:en":"Suez Governorate","name:left:en":"Giza Governorate","name:right:de":"Suez","name:left":"\u0645\u062d\u0627\u0641\u0638\u0629 \u0627\u0644\u062c\u064a\u0632\u0629\u200e"},"arcs":[4]},{"type":"LineString","properties":{"kind":"region","name:en":"Giza Governorate","name":"\u0645\u062d\u0627\u0641\u0638\u0629 \u0627\u0644\u062c\u064a\u0632\u0629\u200e","sort_rank":256,"kind_detail":"4","name:eo":"Provinco Gizo","name:de":"Gouvernement al-Dschiza","source":"openstreetmap.org","min_zoom":8.0,"name:ru":"\u043c\u0443\u0445\u0430\u0444\u0430\u0437\u0430 \u0413\u0438\u0437\u0430","name:pl":"Muhafaza Giza","name:hu":"G\u00edza korm\u00e1nyz\u00f3s\u00e1g","id":-3824206,"osm_relation":true},"arcs":[5]},{"type":"LineString","properties":{"kind":"region","name:en":"Gharbiyya Governorate","name":"\u200f\u0645\u062d\u0627\u0641\u0638\u0629 \u0627\u0644\u063a\u0631\u0628\u064a","sort_rank":256,"kind_detail":"4","name:de":"Gouvernement al-Gharbiyya","source":"openstreetmap.org","min_zoom":8.0,"int_name":"Al-Gharbiyya","name:ru":"\u043c\u0443\u0445\u0430\u0444\u0430\u0437\u0430 \u0413\u0430\u0440\u0431\u0438\u044f","name:hu":"Nyugati korm\u00e1nyz\u00f3s\u00e1g","id":-3584607,"osm_relation":true},"arcs":[6]},{"type":"LineString","properties":{"kind":"region","name:en":"Suez Governorate","name":"\u0627\u0644\u063a\u0631\u0628\u064a\u0629","sort_rank":256,"kind_detail":"4","name:de":"Suez","source":"openstreetmap.org","min_zoom":8.0,"name:ru":"\u043c\u0443\u0445\u0430\u0444\u0430\u0437\u0430 \u0421\u0443\u044d\u0446","name:hu":"Szuez korm\u00e1nyz\u00f3s\u00e1g","id":-3062185,"osm_relation":true},"arcs":[7]}]},"roads":{"type":"GeometryCollection","geometries":[{"type":"MultiLineString","properties":{"source":"openstreetmap.org","kind":"major_road","name:en":"El Sadat Street","sort_rank":380,"kind_detail":"primary","min_zoom":8.0},"arcs":[[69],[70],[71],[72],[73],[74],[75],[76],[77],[78],[79],[80]]},{"type":"MultiLineString","properties":{"kind":"major_road","name:en":"Autostrad","sort_rank":381,"landuse_kind":"urban_area","source":"openstreetmap.org","min_zoom":8.0,"kind_detail":"trunk","ref":"03"},"arcs":[[81],[82],[83],[84],[85],[86]]},{"type":"MultiLineString","properties":{"source":"openstreetmap.org","kind":"major_road","landuse_kind":"urban_area","sort_rank":380,"kind_detail":"primary","name:ar":"\u0637\u0631\u064a\u0642 \u0627\u0644\u0645\u0646\u0635\u0648\u0631\u064a\u0629","min_zoom":8.0},"arcs":[[87],[88]]},{"type":"LineString","properties":{"source":"openstreetmap.org","kind":"major_road","name:en":"Midan Juhayna","sort_rank":381,"kind_detail":"trunk","min_zoom":8.0,"id":44722410},"arcs":[89]},{"type":"LineString","properties":{"kind":"major_road","name:en":"Charles De Gaulle","sort_rank":380,"kind_detail":"primary","min_zoom":8.0,"source":"openstreetmap.org","name:fr":"Charles De Gaulle","alt_name:en":"El Giza","landuse_kind":"urban_area","id":50219737},"arcs":[90]},{"type":"LineString","properties":{"source":"openstreetmap.org","kind":"major_road","kind_detail":"trunk","sort_rank":381,"landuse_kind":"urban_area","ref":"04","min_zoom":8.0},"arcs":[91]},{"type":"MultiLineString","properties":{"source":"openstreetmap.org","kind":"major_road","name:en":"El Sudan","landuse_kind":"urban_area","sort_rank":380,"kind_detail":"primary","min_zoom":8.0},"arcs":[[92],[93],[94],[95]]},{"type":"LineString","properties":{"kind":"major_road","name:en":"Zagazig - Senbellawein Road","sort_rank":381,"kind_detail":"trunk","is_bicycle_related":true,"source":"openstreetmap.org","min_zoom":8.0,"landuse_kind":"urban_area","id":99687800},"arcs":[96]},{"type":"LineString","properties":{"source":"openstreetmap.org","kind":"major_road","name:en":"El Wahat Road","sort_rank":381,"kind_detail":"trunk","min_zoom":8.0,"id":76671048},"arcs":[97]},{"type":"MultiLineString","properties":{"source":"openstreetmap.org","kind":"major_road","kind_detail":"trunk","sort_rank":381,"landuse_kind":"urban_area","name:ar":"Salah Salem","min_zoom":8.0},"arcs":[[98],[99],[100],[101],[102],[103]]},{"type":"LineString","properties":{"kind":"highway","name:en":"Mehwar Saadeldin Al Shazly","sort_rank":383,"kind_detail":"motorway","source":"openstreetmap.org","min_zoom":8.0,"ref":"04","id":237844006},"arcs":[104]},{"type":"MultiLineString","properties":{"kind":"major_road","name:en":"Abou Baker El Sedeek","sort_rank":380,"kind_detail":"primary","source":"openstreetmap.org","min_zoom":8.0,"landuse_kind":"urban_area","ref":"4"},"arcs":[[105],[106]]},{"type":"LineString","properties":{"kind":"major_road","name:en":"Airport Bridge","sort_rank":381,"kind_detail":"trunk","source":"openstreetmap.org","min_zoom":8.0,"landuse_kind":"urban_area","ref":"04","id":29420824},"arcs":[107]},{"type":"LineString","properties":{"kind":"major_road","name:en":"El Khalifa El Daher","sort_rank":380,"landuse_kind":"urban_area","source":"openstreetmap.org","min_zoom":8.0,"kind_detail":"primary","id":25050607},"arcs":[108]},{"type":"MultiLineString","properties":{"kind":"major_road","name:en":"Al-Tunsi Bridge","sort_rank":381,"landuse_kind":"urban_area","source":"openstreetmap.org","min_zoom":8.0,"kind_detail":"trunk","ref":"\u0627\u0644\u0623\u0648\u062a\u0648\u0633\u062a\u0631\u0627\u062f"},"arcs":[[109],[110]]},{"type":"MultiLineString","properties":{"source":"openstreetmap.org","kind":"major_road","name:en":"El Gamaia","landuse_kind":"urban_area","sort_rank":380,"kind_detail":"primary","min_zoom":8.0},"arcs":[[111],[112],[113],[114]]},{"type":"MultiLineString","properties":{"source":"openstreetmap.org","kind":"major_road","name:en":"Abd Al-Qader Taha","kind_detail":"primary","sort_rank":380,"landuse_kind":"urban_area","min_zoom":8.0},"arcs":[[115],[116]]},{"type":"MultiLineString","properties":{"source":"openstreetmap.org","kind":"major_road","sort_rank":380,"kind_detail":"primary","ref":"21","min_zoom":8.0},"arcs":[[117],[118]]},{"type":"MultiLineString","properties":{"source":"openstreetmap.org","kind":"major_road","name:en":"Alex-Cairo Desert Rd Ext.","landuse_kind":"urban_area","sort_rank":380,"kind_detail":"primary","min_zoom":8.0},"arcs":[[119],[120]]},{"type":"LineString","properties":{"source":"openstreetmap.org","kind":"major_road","name:en":"Al-Saraya Street","landuse_kind":"urban_area","sort_rank":380,"kind_detail":"primary","min_zoom":8.0},"arcs":[121]},{"type":"MultiLineString","properties":{"source":"openstreetmap.org","kind":"major_road","name:en":"Airport Road","landuse_kind":"aerodrome","sort_rank":380,"kind_detail":"primary","min_zoom":8.0},"arcs":[[122],[123]]},{"type":"MultiLineString","properties":{"source":"openstreetmap.org","kind":"major_road","name:en":"Hassan El-Maamoun","kind_detail":"trunk","sort_rank":381,"landuse_kind":"urban_area","min_zoom":8.0},"arcs":[[124],[125]]},{"type":"LineString","properties":{"kind":"major_road","alt_name:en":"El Giza","sort_rank":380,"kind_detail":"primary","name:ar":"\u0634\u0627\u0631\u0644 \u062f\u064a\u062c\u0648\u0644","source":"openstreetmap.org","min_zoom":8.0,"landuse_kind":"urban_area","id":50219742},"arcs":[126]},{"type":"MultiLineString","properties":{"kind":"highway","name:en":"Ring Road","sort_rank":383,"kind_detail":"motorway","source":"openstreetmap.org","min_zoom":8.0,"int_name":"Ring Road","landuse_kind":"urban_area","ref":"06"},"arcs":[[127],[128]]},{"type":"MultiLineString","properties":{"source":"openstreetmap.org","kind":"major_road","name:en":"Cairo - Fayoum Road","sort_rank":381,"kind_detail":"trunk","ref":"22","min_zoom":8.0},"arcs":[[129],[130]]},{"type":"LineString","properties":{"kind":"major_road","name:en":"Emad Al-Din","sort_rank":380,"landuse_kind":"urban_area","source":"openstreetmap.org","min_zoom":8.0,"kind_detail":"primary","id":28705862},"arcs":[131]},{"type":"MultiLineString","properties":{"kind":"major_road","name:en":"Maglis Al-Madina","sort_rank":381,"landuse_kind":"urban_area","source":"openstreetmap.org","min_zoom":8.0,"kind_detail":"trunk","ref":"01"},"arcs":[[132],[133]]},{"type":"MultiLineString","properties":{"source":"openstreetmap.org","kind":"major_road","name:en":"Al-Nozha","landuse_kind":"urban_area","sort_rank":380,"kind_detail":"primary","min_zoom":8.0},"arcs":[[134],[135]]},{"type":"LineString","properties":{"kind":"major_road","name:en":"Al Walid Ibn Tallal","sort_rank":380,"landuse_kind":"urban_area","source":"openstreetmap.org","min_zoom":8.0,"kind_detail":"primary","id":4987232},"arcs":[136]},{"type":"MultiLineString","properties":{"source":"openstreetmap.org","kind":"major_road","name:en":"Zagazig - Minya Al-Kameh","sort_rank":381,"kind_detail":"trunk","ref":"42","min_zoom":8.0},"arcs":[[137],[138],[139],[140],[141],[142],[143],[144],[145]]},{"type":"LineString","properties":{"kind":"major_road","name:en":"El Qasr El Aini Street","sort_rank":381,"landuse_kind":"urban_area","source":"openstreetmap.org","min_zoom":8.0,"kind_detail":"trunk","id":11138518},"arcs":[146]},{"type":"LineString","properties":{"source":"openstreetmap.org","kind":"major_road","name:en":"El Azhar Tunnel","landuse_kind":"urban_area","sort_rank":380,"kind_detail":"primary","min_zoom":8.0},"arcs":[147]},{"type":"LineString","properties":{"kind":"major_road","name:en":"El Tahrir Square","sort_rank":381,"kind_detail":"trunk","alt_name:en":"Tahrir Square","min_zoom":8.0,"name:de":"Tahrir-Platz","source":"openstreetmap.org","name:fr":"Place Tahrir","int_name":"Maid\u0101n at-Ta\u1e25r\u012br","landuse_kind":"urban_area","id":10873186},"arcs":[148]},{"type":"LineString","properties":{"kind":"major_road","name:en":"Al-Bahr Al-Aazam","sort_rank":381,"kind_detail":"trunk","source":"openstreetmap.org","min_zoom":8.0,"landuse_kind":"urban_area","ref":"02","id":29883442},"arcs":[149]},{"type":"MultiLineString","properties":{"source":"openstreetmap.org","kind":"major_road","name:en":"Gamal Abdel-Nasser","kind_detail":"trunk","sort_rank":381,"landuse_kind":"urban_area","min_zoom":8.0},"arcs":[[150],[151]]},{"type":"MultiLineString","properties":{"source":"openstreetmap.org","kind":"major_road","name:en":"El Manzal Road","sort_rank":381,"kind_detail":"trunk","min_zoom":8.0},"arcs":[[152],[153]]},{"type":"MultiLineString","properties":{"source":"openstreetmap.org","kind":"major_road","name:en":"El Haram","kind_detail":"primary","sort_rank":380,"landuse_kind":"urban_area","min_zoom":8.0},"arcs":[[154],[155],[156]]},{"type":"MultiLineString","properties":{"kind":"major_road","name:en":"El Bahr El Aazam","sort_rank":381,"landuse_kind":"urban_area","source":"openstreetmap.org","min_zoom":8.0,"kind_detail":"trunk","ref":"02"},"arcs":[[157],[158]]},{"type":"MultiLineString","properties":{"source":"openstreetmap.org","kind":"major_road","landuse_kind":"urban_area","sort_rank":380,"kind_detail":"primary","ref":"04","min_zoom":8.0},"arcs":[[159],[160],[161],[162]]},{"type":"MultiLineString","properties":{"kind":"highway","name:en":"Suez Road","sort_rank":383,"kind_detail":"motorway","source":"openstreetmap.org","min_zoom":8.0,"landuse_kind":"military","ref":"03"},"arcs":[[163],[164],[165]]},{"type":"MultiLineString","properties":{"source":"openstreetmap.org","kind":"major_road","name:en":"El-Roda","landuse_kind":"urban_area","sort_rank":380,"kind_detail":"primary","min_zoom":8.0},"arcs":[[166],[167]]},{"type":"MultiLineString","properties":{"source":"openstreetmap.org","kind":"major_road","name:en":"El Mathaf El Zeraei","landuse_kind":"urban_area","sort_rank":380,"kind_detail":"primary","min_zoom":8.0},"arcs":[[168],[169]]},{"type":"LineString","properties":{"kind":"major_road","name:en":"Mostafa Al-Nahass","sort_rank":380,"landuse_kind":"urban_area","source":"openstreetmap.org","min_zoom":8.0,"kind_detail":"primary","id":28664632},"arcs":[170]},{"type":"LineString","properties":{"kind":"major_road","name:en":"Midan El Hegaz","sort_rank":380,"landuse_kind":"urban_area","source":"openstreetmap.org","min_zoom":8.0,"kind_detail":"primary","id":24836957},"arcs":[171]},{"type":"MultiLineString","properties":{"kind":"major_road","name:en":"Al-Zagazig - Belbes","sort_rank":381,"landuse_kind":"urban_area","source":"openstreetmap.org","min_zoom":8.0,"kind_detail":"trunk","ref":"45"},"arcs":[[172],[173]]},{"type":"LineString","properties":{"kind":"major_road","name:en":"Ahmed Said Bridge","sort_rank":380,"landuse_kind":"urban_area","source":"openstreetmap.org","min_zoom":8.0,"kind_detail":"primary","id":53853042},"arcs":[174]},{"type":"LineString","properties":{"source":"openstreetmap.org","kind":"ferry","sort_rank":355,"landuse_kind":"urban_area","min_zoom":8.0,"id":52480094},"arcs":[175]},{"type":"LineString","properties":{"kind":"major_road","name:en":"Alex-Cairo Desert Rd Ext.","sort_rank":380,"kind_detail":"primary","source":"openstreetmap.org","min_zoom":8.0,"landuse_kind":"urban_area","ref":"11","id":206505318},"arcs":[176]},{"type":"MultiLineString","properties":{"source":"openstreetmap.org","kind":"major_road","name:en":"26 of July","landuse_kind":"urban_area","sort_rank":380,"kind_detail":"primary","min_zoom":8.0},"arcs":[[177],[178]]},{"type":"MultiLineString","properties":{"source":"openstreetmap.org","kind":"highway","name:en":"Ein Sokhna Road","sort_rank":383,"kind_detail":"motorway","ref":"24","min_zoom":8.0},"arcs":[[179],[180]]},{"type":"LineString","properties":{"source":"openstreetmap.org","kind":"major_road","name:en":"Al Fardoos Square","sort_rank":380,"kind_detail":"primary","min_zoom":8.0,"id":40663537},"arcs":[181]},{"type":"MultiLineString","properties":{"source":"openstreetmap.org","kind":"major_road","name:en":"Mohamed Farid","landuse_kind":"urban_area","sort_rank":380,"kind_detail":"primary","min_zoom":8.0},"arcs":[[182],[183],[184]]},{"type":"LineString","properties":{"source":"openstreetmap.org","kind":"major_road","name:en":"AbdelMoneim Riad Square","sort_rank":380,"kind_detail":"primary","min_zoom":8.0,"id":33629340},"arcs":[185]},{"type":"MultiLineString","properties":{"source":"openstreetmap.org","kind":"major_road","name:en":"El-Oruba","kind_detail":"trunk","sort_rank":381,"landuse_kind":"urban_area","min_zoom":8.0},"arcs":[[186],[187]]},{"type":"MultiLineString","properties":{"source":"openstreetmap.org","kind":"major_road","name:en":"El Azhar Bridge","landuse_kind":"urban_area","sort_rank":380,"kind_detail":"primary","min_zoom":8.0},"arcs":[[188],[189],[190]]},{"type":"LineString","properties":{"source":"openstreetmap.org","kind":"major_road","name:en":"Mehwar El Shahid","sort_rank":381,"kind_detail":"trunk","min_zoom":8.0,"id":252981683},"arcs":[191]},{"type":"MultiLineString","properties":{"source":"openstreetmap.org","kind":"major_road","name:en":"Hassan Al Maamon","kind_detail":"primary","sort_rank":380,"landuse_kind":"urban_area","min_zoom":8.0},"arcs":[[192],[193]]},{"type":"MultiLineString","properties":{"source":"openstreetmap.org","kind":"major_road","sort_rank":380,"kind_detail":"primary","ref":"04","min_zoom":8.0},"arcs":[[194],[195],[196],[197],[198],[199],[200],[201],[202]]},{"type":"MultiLineString","properties":{"source":"openstreetmap.org","kind":"major_road","name:en":"Kobri El Tagnid","landuse_kind":"urban_area","sort_rank":380,"kind_detail":"primary","min_zoom":8.0},"arcs":[[203],[204]]},{"type":"MultiLineString","properties":{"kind":"major_road","name:en":"Autostrad","sort_rank":380,"kind_detail":"primary","source":"openstreetmap.org","min_zoom":8.0,"landuse_kind":"urban_area","ref":"\u0627\u0644\u0623\u062a\u0633\u062a\u0631\u0627\u062f"},"arcs":[[205],[206],[207]]},{"type":"LineString","properties":{"kind":"major_road","name:en":"Al-Sheikh Barakat","sort_rank":380,"landuse_kind":"urban_area","source":"openstreetmap.org","min_zoom":8.0,"kind_detail":"primary","id":305873959},"arcs":[208]},{"type":"MultiLineString","properties":{"sort_rank":380,"kind_detail":"primary","min_zoom":8.0,"kind":"major_road","source":"openstreetmap.org"},"arcs":[[209],[210],[211],[212],[213],[214],[215],[216],[217],[218],[219],[220],[221],[222],[223],[224],[225],[226],[227],[228],[229],[230],[231],[232],[233],[234],[235],[236],[237],[238],[239],[240],[241],[242],[243],[244],[245],[246],[247],[248],[249],[250],[251],[252],[253],[254],[255],[256],[257],[258],[259],[260],[261],[262],[263],[264],[265],[266],[267],[268],[269],[270],[271],[272],[273],[274],[275],[276],[277],[278],[279],[280],[281],[282],[283],[284],[285],[286],[287],[288],[289],[290],[291],[292],[293],[294],[295],[296],[297],[298],[299],[300],[301],[302],[303],[304],[305],[306],[307],[308],[309],[310],[311],[312],[313],[314],[315],[316],[317],[318],[319],[320],[321],[322],[323],[324],[325],[326],[327],[328],[329],[330],[331],[332],[333],[334],[335],[336],[337],[338],[339],[340],[341],[342],[343],[344],[345],[346],[347],[348],[349],[350],[351],[352],[353],[354],[355],[356],[357],[358],[359],[360],[361],[362],[363],[364],[365],[366],[367],[368],[369],[370],[371],[372],[373],[374],[375],[376],[377],[378],[379],[380],[381],[382],[383],[384],[385],[386],[387],[388],[389],[390],[391],[392],[393],[394],[395],[396],[397],[398]]},{"type":"LineString","properties":{"source":"openstreetmap.org","kind":"major_road","landuse_kind":"urban_area","sort_rank":380,"kind_detail":"primary","ref":"42","min_zoom":8.0},"arcs":[399]},{"type":"MultiLineString","properties":{"source":"openstreetmap.org","kind":"major_road","name:en":"Corniche Al-Nil","landuse_kind":"urban_area","sort_rank":380,"kind_detail":"primary","min_zoom":8.0},"arcs":[[400],[401],[402]]},{"type":"MultiLineString","properties":{"kind":"major_road","name:en":"Asyout Western Rd","network":null,"sort_rank":381,"kind_detail":"trunk","source":"openstreetmap.org","min_zoom":8.0,"shield_text":"20","ref":"20"},"arcs":[[403],[404]]},{"type":"MultiLineString","properties":{"source":"openstreetmap.org","kind":"major_road","name:en":"Kafr Al Zayat - Berket Al Sabea","sort_rank":381,"kind_detail":"trunk","min_zoom":8.0},"arcs":[[405],[406],[407],[408],[409],[410]]},{"type":"MultiLineString","properties":{"source":"openstreetmap.org","kind":"major_road","landuse_kind":"urban_area","sort_rank":380,"kind_detail":"primary","ref":"31","min_zoom":8.0},"arcs":[[411],[412],[413],[414],[415],[416],[417],[418],[419],[420],[421],[422],[423],[424],[425],[426]]},{"type":"LineString","properties":{"source":"openstreetmap.org","kind":"major_road","sort_rank":380,"kind_detail":"primary","ref":"41","min_zoom":8.0,"id":28822625},"arcs":[427]},{"type":"LineString","properties":{"kind":"major_road","name:en":"El Nasr","sort_rank":381,"kind_detail":"trunk","source":"openstreetmap.org","min_zoom":8.0,"alt_name:en":"\u0627\u0644\u0623\u0648\u062a\u0648\u0633\u062a\u0631\u0627\u062f","landuse_kind":"urban_area","ref":"03","id":233515008},"arcs":[428]},{"type":"MultiLineString","properties":{"kind":"highway","name:en":"Cairo - Ismailia Desert Road","sort_rank":383,"kind_detail":"motorway","source":"openstreetmap.org","min_zoom":8.0,"landuse_kind":"military","ref":"04"},"arcs":[[429],[430]]},{"type":"LineString","properties":{"kind":"major_road","name:en":"Charles De Gaulle","sort_rank":380,"kind_detail":"primary","alt_name:ar":"\u0627\u0644\u062c\u064a\u0632\u0629","min_zoom":8.0,"source":"openstreetmap.org","name:fr":"Charles De Gaulle","alt_name:en":"El Giza","landuse_kind":"urban_area","id":25048958},"arcs":[431]},{"type":"LineString","properties":{"source":"openstreetmap.org","kind":"major_road","name:en":"El Khamseen Str","sort_rank":381,"kind_detail":"trunk","min_zoom":8.0},"arcs":[432]},{"type":"MultiLineString","properties":{"source":"openstreetmap.org","kind":"major_road","sort_rank":381,"kind_detail":"trunk","ref":"02","min_zoom":8.0},"arcs":[[433],[434]]},{"type":"MultiLineString","properties":{"source":"openstreetmap.org","kind":"major_road","name:en":"Ahmed El Zomor","landuse_kind":"urban_area","sort_rank":380,"kind_detail":"primary","min_zoom":8.0},"arcs":[[435],[436]]},{"type":"MultiLineString","properties":{"kind":"major_road","sort_rank":380,"kind_detail":"primary","name:ar":"\u0623\u062d\u0645\u062f \u062d\u0644\u0645\u064a","source":"openstreetmap.org","min_zoom":8.0,"landuse_kind":"urban_area","ref":"01"},"arcs":[[437],[438]]},{"type":"LineString","properties":{"kind":"major_road","name:en":"Al-Khalig Al-Misry","sort_rank":380,"landuse_kind":"urban_area","source":"openstreetmap.org","min_zoom":8.0,"kind_detail":"primary","id":28739653},"arcs":[439]},{"type":"LineString","properties":{"source":"openstreetmap.org","kind":"major_road","name:en":"Mehwar El Shaheed","sort_rank":381,"kind_detail":"trunk","min_zoom":8.0,"id":221060897},"arcs":[440]},{"type":"MultiLineString","properties":{"source":"openstreetmap.org","kind":"highway","sort_rank":383,"kind_detail":"motorway","ref":"04","min_zoom":8.0},"arcs":[[441],[442],[443]]},{"type":"MultiLineString","properties":{"source":"openstreetmap.org","kind":"major_road","name:en":"Cairo - Alexandria Agricultural Road","sort_rank":381,"kind_detail":"trunk","ref":"01","min_zoom":8.0},"arcs":[[444],[445],[446],[447],[448]]},{"type":"MultiLineString","properties":{"source":"openstreetmap.org","kind":"major_road","name:en":"26 July Corridor","sort_rank":381,"kind_detail":"trunk","min_zoom":8.0},"arcs":[[449],[450],[451],[452],[453],[454],[455],[456]]},{"type":"LineString","properties":{"source":"openstreetmap.org","kind":"major_road","name:en":"Salah Salem (former Rabee Al-Gizy)","sort_rank":381,"kind_detail":"trunk","ref":"02","min_zoom":8.0},"arcs":[457]},{"type":"LineString","properties":{"kind":"major_road","name:en":"El Mugamma","sort_rank":380,"landuse_kind":"urban_area","source":"openstreetmap.org","min_zoom":8.0,"kind_detail":"primary","id":192591564},"arcs":[458]},{"type":"MultiLineString","properties":{"kind":"major_road","name:en":"Suez Road","sort_rank":381,"landuse_kind":"urban_area","source":"openstreetmap.org","min_zoom":8.0,"kind_detail":"trunk","ref":"03"},"arcs":[[459],[460],[461],[462]]},{"type":"MultiLineString","properties":{"source":"openstreetmap.org","kind":"major_road","name:en":"Kornish El Nil","kind_detail":"trunk","sort_rank":381,"landuse_kind":"urban_area","min_zoom":8.0},"arcs":[[463],[464],[465]]},{"type":"MultiLineString","properties":{"kind":"major_road","name:en":"Autostrad","sort_rank":381,"landuse_kind":"urban_area","source":"openstreetmap.org","min_zoom":8.0,"kind_detail":"trunk","ref":"\u0627\u0644\u0623\u062a\u0633\u062a\u0631\u0627\u062f"},"arcs":[[466],[467]]},{"type":"LineString","properties":{"source":"openstreetmap.org","kind":"major_road","name:en":"El Teseen Tunnel","sort_rank":380,"kind_detail":"primary","min_zoom":8.0,"id":493250128},"arcs":[468]},{"type":"MultiLineString","properties":{"source":"openstreetmap.org","kind":"major_road","name:en":"Ahmed Orabi","landuse_kind":"urban_area","sort_rank":380,"kind_detail":"primary","min_zoom":8.0},"arcs":[[469],[470]]},{"type":"LineString","properties":{"kind":"major_road","name:en":"Nubar","sort_rank":380,"landuse_kind":"urban_area","source":"openstreetmap.org","min_zoom":8.0,"kind_detail":"primary","id":28718739},"arcs":[471]},{"type":"LineString","properties":{"kind":"major_road","name:en":"Corniche El-Nil","sort_rank":381,"kind_detail":"trunk","source":"openstreetmap.org","min_zoom":8.0,"landuse_kind":"urban_area","ref":"01","id":79842489},"arcs":[472]},{"type":"MultiLineString","properties":{"source":"openstreetmap.org","kind":"major_road","landuse_kind":"aerodrome","sort_rank":381,"kind_detail":"trunk","ref":"24","min_zoom":8.0},"arcs":[[473],[474]]},{"type":"LineString","properties":{"kind":"major_road","name:en":"El Maahad El Ishtiraky","sort_rank":380,"kind_detail":"primary","name:ar":"\u0634\u0627\u0631\u0639 \u0627\u0644\u0645\u0639\u0647\u062f \u0627\u0644\u0625\u0634\u062a\u0631\u0627\u0643\u0649","source":"openstreetmap.org","min_zoom":8.0,"landuse_kind":"urban_area","id":24667122},"arcs":[475]},{"type":"MultiLineString","properties":{"source":"openstreetmap.org","kind":"major_road","name:en":"Ramses Extension","landuse_kind":"urban_area","sort_rank":380,"kind_detail":"primary","min_zoom":8.0},"arcs":[[476],[477],[478]]},{"type":"MultiLineString","properties":{"source":"openstreetmap.org","kind":"major_road","name:en":"Belbes - 10th of Ramadan Road","sort_rank":381,"kind_detail":"trunk","ref":"401","min_zoom":8.0},"arcs":[[479],[480]]},{"type":"LineString","properties":{"kind":"major_road","name:en":"El Galaa Bridge","sort_rank":381,"kind_detail":"trunk","source":"openstreetmap.org","min_zoom":8.0,"landuse_kind":"urban_area","ref":"04","id":29420462},"arcs":[481]},{"type":"LineString","properties":{"kind":"major_road","name:en":"Ali Amin","sort_rank":380,"kind_detail":"primary","name:ar":"\u0634\u0627\u0631\u0639 \u0639\u0644\u064a \u0623\u0645\u064a\u0646","source":"openstreetmap.org","min_zoom":8.0,"landuse_kind":"urban_area","id":29982808},"arcs":[482]},{"type":"LineString","properties":{"kind":"major_road","name:en":"Al-Sudan","sort_rank":380,"landuse_kind":"urban_area","source":"openstreetmap.org","min_zoom":8.0,"kind_detail":"primary","id":52035416},"arcs":[483]},{"type":"LineString","properties":{"source":"openstreetmap.org","kind":"major_road","name:en":"Cairo Alexandria Desert Road","sort_rank":380,"kind_detail":"primary","min_zoom":8.0},"arcs":[484]},{"type":"LineString","properties":{"kind":"major_road","name:en":"Midan Al-Falaky","sort_rank":380,"landuse_kind":"urban_area","source":"openstreetmap.org","min_zoom":8.0,"kind_detail":"primary","id":24943139},"arcs":[485]},{"type":"LineString","properties":{"source":"openstreetmap.org","kind":"major_road","name:en":"Saleh Al-Gaafary","landuse_kind":"urban_area","sort_rank":380,"kind_detail":"primary","min_zoom":8.0},"arcs":[486]},{"type":"MultiLineString","properties":{"source":"openstreetmap.org","kind":"major_road","kind_detail":"trunk","sort_rank":381,"landuse_kind":"urban_area","ref":"24","min_zoom":8.0},"arcs":[[487],[488],[489],[490],[491],[492],[493],[494],[495]]},{"type":"MultiLineString","properties":{"source":"openstreetmap.org","kind":"major_road","name:en":"Al-Galaa","landuse_kind":"urban_area","sort_rank":380,"kind_detail":"primary","min_zoom":8.0},"arcs":[[496],[497],[498],[499],[500]]},{"type":"LineString","properties":{"kind":"major_road","name:en":"Al Gezira","sort_rank":380,"landuse_kind":"urban_area","source":"openstreetmap.org","min_zoom":8.0,"kind_detail":"primary","id":24574572},"arcs":[501]},{"type":"MultiLineString","properties":{"source":"openstreetmap.org","kind":"highway","name:en":"Rod El Farag Highway","sort_rank":383,"kind_detail":"motorway","min_zoom":8.0},"arcs":[[502],[503]]},{"type":"LineString","properties":{"kind":"major_road","name:en":"Al-Ma'had Al-Diny","sort_rank":380,"kind_detail":"primary","source":"openstreetmap.org","min_zoom":8.0,"ref":"45","id":147344235},"arcs":[504]},{"type":"MultiLineString","properties":{"source":"openstreetmap.org","kind":"major_road","name:en":"Oruba Street","kind_detail":"trunk","sort_rank":381,"landuse_kind":"urban_area","min_zoom":8.0},"arcs":[[505],[506]]},{"type":"LineString","properties":{"kind":"major_road","name:en":"Bairam Al-Tunisi","sort_rank":380,"landuse_kind":"urban_area","source":"openstreetmap.org","min_zoom":8.0,"kind_detail":"primary","id":306166064},"arcs":[507]},{"type":"MultiLineString","properties":{"kind":"major_road","alt_name:en":"Autostrad","sort_rank":381,"landuse_kind":"urban_area","source":"openstreetmap.org","min_zoom":8.0,"name:en":"El Nasr Road","kind_detail":"trunk","ref":"03"},"arcs":[[508],[509]]},{"type":"LineString","properties":{"kind":"major_road","name:en":"Tereet El Ismailia","sort_rank":380,"landuse_kind":"urban_area","source":"openstreetmap.org","min_zoom":8.0,"kind_detail":"primary","id":29184192},"arcs":[510]},{"type":"LineString","properties":{"source":"openstreetmap.org","kind":"major_road","name:en":"Cairo - Alexandria Agricultural Road","kind_detail":"trunk","sort_rank":381,"landuse_kind":"urban_area","min_zoom":8.0},"arcs":[511]},{"type":"MultiLineString","properties":{"source":"openstreetmap.org","kind":"highway","name:en":"Mehwar Saadeldin Al Shazly","sort_rank":383,"kind_detail":"motorway","min_zoom":8.0},"arcs":[[512],[513]]},{"type":"LineString","properties":{"kind":"major_road","name:en":"Kornish El Nil","sort_rank":381,"kind_detail":"trunk","source":"openstreetmap.org","min_zoom":8.0,"landuse_kind":"urban_area","ref":"21","id":143052804},"arcs":[514]},{"type":"LineString","properties":{"kind":"major_road","name:en":"Kubri El Sayyala","sort_rank":380,"landuse_kind":"urban_area","source":"openstreetmap.org","min_zoom":8.0,"kind_detail":"primary","id":50432554},"arcs":[515]},{"type":"LineString","properties":{"source":"openstreetmap.org","kind":"highway","name:en":"Mehwar Saadeldin El Shazly","sort_rank":383,"kind_detail":"motorway","min_zoom":8.0,"id":240176429},"arcs":[516]},{"type":"LineString","properties":{"source":"openstreetmap.org","kind":"major_road","sort_rank":380,"kind_detail":"primary","ref":"401","min_zoom":8.0,"id":5020048},"arcs":[517]},{"type":"MultiLineString","properties":{"source":"openstreetmap.org","kind":"highway","name:en":"Wahat Road Connection","landuse_kind":"urban_area","sort_rank":383,"kind_detail":"motorway","min_zoom":8.0},"arcs":[[518],[519]]},{"type":"MultiLineString","properties":{"source":"openstreetmap.org","kind":"major_road","name:en":"Ahmed Helmy","landuse_kind":"urban_area","sort_rank":380,"kind_detail":"primary","min_zoom":8.0},"arcs":[[520],[521],[522],[523],[524],[525],[526]]},{"type":"LineString","properties":{"kind":"major_road","name:en":"Bab El-Shaaria Square (aka Mohamed Abdel Wahab)","sort_rank":380,"landuse_kind":"urban_area","source":"openstreetmap.org","min_zoom":8.0,"kind_detail":"primary","id":25026227},"arcs":[527]},{"type":"LineString","properties":{"kind":"major_road","name:en":"Bahy Al-Din Barakat Street","sort_rank":381,"landuse_kind":"urban_area","source":"openstreetmap.org","min_zoom":8.0,"kind_detail":"trunk","id":153834029},"arcs":[528]},{"type":"MultiLineString","properties":{"source":"openstreetmap.org","kind":"major_road","name:en":"Mehwar El Shahid","kind_detail":"trunk","sort_rank":381,"landuse_kind":"urban_area","min_zoom":8.0},"arcs":[[529],[530]]},{"type":"MultiLineString","properties":{"kind":"major_road","name:en":"26th July","sort_rank":381,"landuse_kind":"urban_area","min_zoom":8.0,"source":"openstreetmap.org","name:fr":"26 Juillet","kind_detail":"trunk"},"arcs":[[531],[532]]},{"type":"MultiLineString","properties":{"source":"openstreetmap.org","kind":"highway","name:en":"Cairo - Ismailia Desert Road","sort_rank":383,"kind_detail":"motorway","ref":"04","min_zoom":8.0},"arcs":[[533],[534],[535],[536]]},{"type":"MultiLineString","properties":{"source":"openstreetmap.org","kind":"major_road","name:en":"El Septiyya","landuse_kind":"urban_area","sort_rank":380,"kind_detail":"primary","min_zoom":8.0},"arcs":[[537],[538]]},{"type":"MultiLineString","properties":{"source":"openstreetmap.org","kind":"major_road","name:en":"Amraneya Bridge","landuse_kind":"urban_area","sort_rank":380,"kind_detail":"primary","min_zoom":8.0},"arcs":[[539],[540],[541]]},{"type":"LineString","properties":{"kind":"major_road","name:en":"Midan El Nahda","sort_rank":380,"landuse_kind":"urban_area","source":"openstreetmap.org","min_zoom":8.0,"kind_detail":"primary","id":24764157},"arcs":[542]},{"type":"MultiLineString","properties":{"source":"openstreetmap.org","kind":"major_road","name:en":"Gamal Abdel Nasser","kind_detail":"trunk","sort_rank":381,"landuse_kind":"urban_area","min_zoom":8.0},"arcs":[[543],[544],[545],[546],[547]]},{"type":"MultiLineString","properties":{"source":"openstreetmap.org","kind":"major_road","name:en":"Al-Tahrir","landuse_kind":"urban_area","sort_rank":380,"kind_detail":"primary","min_zoom":8.0},"arcs":[[548],[549]]},{"type":"LineString","properties":{"kind":"major_road","name:en":"Midan Heliopolis","sort_rank":380,"landuse_kind":"urban_area","source":"openstreetmap.org","min_zoom":8.0,"kind_detail":"primary","id":24848486},"arcs":[550]},{"type":"MultiLineString","properties":{"source":"openstreetmap.org","kind":"major_road","name:en":"Hassan El Maamon","landuse_kind":"urban_area","sort_rank":380,"kind_detail":"primary","min_zoom":8.0},"arcs":[[551],[552]]},{"type":"MultiLineString","properties":{"source":"openstreetmap.org","kind":"major_road","landuse_kind":"urban_area","sort_rank":380,"kind_detail":"primary","ref":"45","min_zoom":8.0},"arcs":[[553],[554],[555],[556]]},{"type":"MultiLineString","properties":{"source":"openstreetmap.org","kind":"major_road","name:en":"Zaker Hussein","landuse_kind":"urban_area","sort_rank":380,"kind_detail":"primary","min_zoom":8.0},"arcs":[[557],[558]]},{"type":"LineString","properties":{"kind":"major_road","name:en":"Al-Marazeeq Bridge","sort_rank":380,"landuse_kind":"urban_area","source":"openstreetmap.org","min_zoom":8.0,"kind_detail":"primary","id":28201140},"arcs":[559]},{"type":"LineString","properties":{"kind":"major_road","name:en":"El Gala","sort_rank":380,"landuse_kind":"urban_area","source":"openstreetmap.org","min_zoom":8.0,"kind_detail":"primary","id":305980142},"arcs":[560]},{"type":"MultiLineString","properties":{"source":"openstreetmap.org","kind":"major_road","name:en":"El Galaa","landuse_kind":"urban_area","sort_rank":380,"kind_detail":"primary","min_zoom":8.0},"arcs":[[561],[562],[563],[564]]},{"type":"MultiLineString","properties":{"kind":"major_road","name:en":"Zagazig - Minya Al-Kameh","sort_rank":381,"landuse_kind":"urban_area","source":"openstreetmap.org","min_zoom":8.0,"kind_detail":"trunk","ref":"42"},"arcs":[[565],[566]]},{"type":"MultiLineString","properties":{"source":"openstreetmap.org","kind":"major_road","name:en":"El Gamaia Bridge","landuse_kind":"urban_area","sort_rank":380,"kind_detail":"primary","min_zoom":8.0},"arcs":[[567],[568]]},{"type":"MultiLineString","properties":{"source":"openstreetmap.org","kind":"highway","name:en":"Suez Road","sort_rank":383,"kind_detail":"motorway","ref":"03","min_zoom":8.0},"arcs":[[569],[570],[571],[572],[573],[574],[575],[576],[577]]},{"type":"MultiLineString","properties":{"source":"openstreetmap.org","kind":"major_road","name:en":"Meit Ghamr - Benha","kind_detail":"trunk","sort_rank":381,"landuse_kind":"urban_area","min_zoom":8.0},"arcs":[[578],[579]]},{"type":"MultiLineString","properties":{"source":"openstreetmap.org","kind":"major_road","name:en":"Murad Street","kind_detail":"trunk","sort_rank":381,"landuse_kind":"urban_area","min_zoom":8.0},"arcs":[[580],[581]]},{"type":"MultiLineString","properties":{"source":"openstreetmap.org","kind":"major_road","name:en":"Meret Basha","kind_detail":"trunk","sort_rank":381,"landuse_kind":"urban_area","min_zoom":8.0},"arcs":[[582],[583]]},{"type":"LineString","properties":{"kind":"major_road","name:en":"Abbas El-Aqqad","sort_rank":380,"landuse_kind":"urban_area","source":"openstreetmap.org","min_zoom":8.0,"kind_detail":"primary","id":40821098},"arcs":[584]},{"type":"MultiLineString","properties":{"source":"openstreetmap.org","kind":"major_road","name:en":"El-Wafaa Wal-Amal","kind_detail":"trunk","sort_rank":381,"landuse_kind":"urban_area","min_zoom":8.0},"arcs":[[585],[586]]},{"type":"LineString","properties":{"kind":"major_road","name:en":"Charles De Gaulle","sort_rank":380,"kind_detail":"primary","source":"openstreetmap.org","min_zoom":8.0,"alt_name:en":"El Giza","landuse_kind":"urban_area","id":34888545},"arcs":[587]},{"type":"MultiLineString","properties":{"source":"openstreetmap.org","kind":"major_road","name:en":"El Thawra","landuse_kind":"urban_area","sort_rank":380,"kind_detail":"primary","min_zoom":8.0},"arcs":[[588],[589]]},{"type":"MultiLineString","properties":{"kind":"major_road","name:en":"Autostrad","sort_rank":381,"landuse_kind":"urban_area","source":"openstreetmap.org","min_zoom":8.0,"kind_detail":"trunk","ref":"Autostrad"},"arcs":[[590],[591],[592]]},{"type":"MultiLineString","properties":{"source":"openstreetmap.org","kind":"major_road","name:en":"Mansoura - Meit Ghamr","kind_detail":"trunk","sort_rank":381,"landuse_kind":"urban_area","min_zoom":8.0},"arcs":[[593],[594]]},{"type":"LineString","properties":{"source":"openstreetmap.org","kind":"major_road","name:en":"Al-Geish","kind_detail":"primary","sort_rank":380,"landuse_kind":"urban_area","min_zoom":8.0},"arcs":[595]},{"type":"MultiLineString","properties":{"source":"openstreetmap.org","kind":"major_road","name:en":"Ahmed Badawy","landuse_kind":"urban_area","sort_rank":380,"kind_detail":"primary","min_zoom":8.0},"arcs":[[596],[597]]},{"type":"LineString","properties":{"source":"openstreetmap.org","kind":"major_road","name:en":"Masr Was-Sudan","landuse_kind":"urban_area","sort_rank":380,"kind_detail":"primary","min_zoom":8.0},"arcs":[598]},{"type":"LineString","properties":{"kind":"highway","name:en":"Cairo Alexandria Desert Road","sort_rank":383,"kind_detail":"motorway","alt_name:ar":"\u0637\u0631\u064a\u0642 \u0627\u0644\u0642\u0627\u0647\u0631\u0629-\u0627\u0644\u0623\u0633\u0643\u0646\u062f\u0631\u064a\u0629 \u0627\u0644\u0635\u062d\u0631\u0627\u0648\u064a","source":"openstreetmap.org","min_zoom":8.0,"landuse_kind":"urban_area","ref":"11"},"arcs":[599]},{"type":"LineString","properties":{"source":"openstreetmap.org","kind":"major_road","name:en":"El Salaam","sort_rank":380,"kind_detail":"primary","min_zoom":8.0},"arcs":[600]},{"type":"LineString","properties":{"source":"openstreetmap.org","kind":"major_road","name:en":"Madkhal Al-Hay Al-Mutamayez","sort_rank":380,"kind_detail":"primary","min_zoom":8.0,"id":51792713},"arcs":[601]},{"type":"MultiLineString","properties":{"kind":"major_road","name:en":"Salah Salem","sort_rank":381,"landuse_kind":"urban_area","source":"openstreetmap.org","min_zoom":8.0,"kind_detail":"trunk","ref":"04"},"arcs":[[602],[603]]},{"type":"MultiLineString","properties":{"source":"openstreetmap.org","kind":"major_road","name:en":"Ali Basha Ibrahim","landuse_kind":"urban_area","sort_rank":380,"kind_detail":"primary","min_zoom":8.0},"arcs":[[604],[605]]},{"type":"LineString","properties":{"kind":"highway","name:en":"Ring Road","sort_rank":383,"landuse_kind":"military","source":"openstreetmap.org","min_zoom":8.0,"kind_detail":"motorway","id":338011307},"arcs":[606]},{"type":"MultiLineString","properties":{"source":"openstreetmap.org","kind":"major_road","name:en":"Magra El Oyoun","landuse_kind":"urban_area","sort_rank":380,"kind_detail":"primary","min_zoom":8.0},"arcs":[[607],[608],[609],[610],[611],[612],[613]]},{"type":"MultiLineString","properties":{"source":"openstreetmap.org","kind":"highway","name:en":"East Ring Road","landuse_kind":"military","sort_rank":383,"kind_detail":"motorway","min_zoom":8.0},"arcs":[[614],[615],[616],[617]]},{"type":"MultiLineString","properties":{"kind":"major_road","name:en":"Cairo - Fayoum Road","sort_rank":381,"kind_detail":"trunk","is_bicycle_related":true,"source":"openstreetmap.org","min_zoom":8.0,"ref":"22"},"arcs":[[618],[619],[620],[621]]},{"type":"MultiLineString","properties":{"source":"openstreetmap.org","kind":"major_road","name:en":"Zagazig - Meit Ghamr","kind_detail":"trunk","sort_rank":381,"landuse_kind":"urban_area","min_zoom":8.0},"arcs":[[622],[623],[624]]},{"type":"MultiLineString","properties":{"source":"openstreetmap.org","kind":"major_road","name:en":"Orabi","landuse_kind":"urban_area","sort_rank":380,"kind_detail":"primary","min_zoom":8.0},"arcs":[[625],[626],[627],[628],[629],[630]]},{"type":"MultiLineString","properties":{"source":"openstreetmap.org","kind":"major_road","name:en":"Madraset El Mamalik","landuse_kind":"urban_area","sort_rank":380,"kind_detail":"primary","min_zoom":8.0},"arcs":[[631],[632],[633]]},{"type":"LineString","properties":{"kind":"major_road","name:en":"El Nasr Rd","sort_rank":381,"kind_detail":"trunk","source":"openstreetmap.org","min_zoom":8.0,"alt_name:en":"Autostrad","landuse_kind":"urban_area","ref":"\u0637\u0631\u064a\u0642 \u0627\u0644\u0646\u0635\u0631","id":31590421},"arcs":[634]},{"type":"MultiLineString","properties":{"source":"openstreetmap.org","kind":"major_road","name:en":"El Nasr Street","sort_rank":380,"kind_detail":"primary","min_zoom":8.0},"arcs":[[635],[636]]},{"type":"MultiLineString","properties":{"source":"openstreetmap.org","kind":"major_road","name:en":"El Nozha","landuse_kind":"urban_area","sort_rank":380,"kind_detail":"primary","min_zoom":8.0},"arcs":[[637],[638],[639],[640],[641],[642],[643]]},{"type":"MultiLineString","properties":{"source":"openstreetmap.org","kind":"major_road","name:en":"Al-Zagazig - Belbes","kind_detail":"trunk","sort_rank":381,"landuse_kind":"urban_area","min_zoom":8.0},"arcs":[[644],[645]]},{"type":"MultiLineString","properties":{"kind":"major_road","name:en":"Corniche El Nil","sort_rank":381,"landuse_kind":"urban_area","source":"openstreetmap.org","min_zoom":8.0,"kind_detail":"trunk","ref":"01"},"arcs":[[646],[647],[648],[649],[650],[651],[652],[653],[654],[655]]},{"type":"MultiLineString","properties":{"source":"openstreetmap.org","kind":"major_road","name:en":"Abu Bakr El-Seddiq","landuse_kind":"urban_area","sort_rank":380,"kind_detail":"primary","min_zoom":8.0},"arcs":[[656],[657]]},{"type":"LineString","properties":{"source":"openstreetmap.org","kind":"major_road","name:en":"Katamia Tunnel","sort_rank":381,"kind_detail":"trunk","min_zoom":8.0,"id":41337872},"arcs":[658]},{"type":"MultiLineString","properties":{"kind":"major_road","name:en":"El Oruba","sort_rank":381,"landuse_kind":"urban_area","source":"openstreetmap.org","min_zoom":8.0,"kind_detail":"trunk","ref":"04"},"arcs":[[659],[660]]},{"type":"MultiLineString","properties":{"kind":"major_road","name:en":"Cairo - Belbes Desrt Road","sort_rank":381,"landuse_kind":"urban_area","source":"openstreetmap.org","min_zoom":8.0,"kind_detail":"trunk","ref":"45"},"arcs":[[661],[662],[663],[664],[665],[666]]},{"type":"LineString","properties":{"kind":"major_road","name:en":"Abou Baker El Sedeek","sort_rank":380,"kind_detail":"primary","name:ar":"\u0623\u0628\u0648 \u0628\u0643\u0631 \u0627\u0644\u0635\u062f\u064a\u0642","source":"openstreetmap.org","min_zoom":8.0,"landuse_kind":"urban_area","ref":"4","id":52095563},"arcs":[667]},{"type":"LineString","properties":{"kind":"major_road","name:en":"Al-Sanayee Bridge","sort_rank":380,"landuse_kind":"urban_area","source":"openstreetmap.org","min_zoom":8.0,"kind_detail":"primary","id":28833437},"arcs":[668]},{"type":"LineString","properties":{"kind":"major_road","name:en":"Al-Thawra","sort_rank":381,"landuse_kind":"urban_area","source":"openstreetmap.org","min_zoom":8.0,"kind_detail":"trunk","id":307057191},"arcs":[669]},{"type":"MultiLineString","properties":{"source":"openstreetmap.org","kind":"major_road","name:en":"Port Said","landuse_kind":"urban_area","sort_rank":380,"kind_detail":"primary","min_zoom":8.0},"arcs":[[670],[671],[672],[673],[674],[675],[676]]},{"type":"MultiLineString","properties":{"source":"openstreetmap.org","kind":"highway","name:en":"Regional Road","landuse_kind":"urban_area","sort_rank":383,"kind_detail":"motorway","min_zoom":8.0},"arcs":[[677],[678]]},{"type":"MultiLineString","properties":{"source":"openstreetmap.org","kind":"major_road","name:en":"Dawlateyan","landuse_kind":"urban_area","sort_rank":380,"kind_detail":"primary","min_zoom":8.0},"arcs":[[679],[680]]},{"type":"LineString","properties":{"kind":"major_road","name:en":"Abdul Moneim Riad Exit","sort_rank":380,"kind_detail":"primary","name:ar":"\u0645\u064a\u062f\u0627\u0646 \u0639\u0628\u062f \u0627\u0644\u0645\u0646\u0639\u0645 \u0631\u064a\u0627\u0636","source":"openstreetmap.org","min_zoom":8.0,"landuse_kind":"urban_area","id":10873190},"arcs":[681]},{"type":"MultiLineString","properties":{"source":"openstreetmap.org","kind":"major_road","name:en":"Lotfy El Sayed","landuse_kind":"urban_area","sort_rank":380,"kind_detail":"primary","min_zoom":8.0},"arcs":[[682],[683],[684],[685]]},{"type":"MultiLineString","properties":{"source":"openstreetmap.org","kind":"major_road","name:en":"Rod Al-Farag Bridge","kind_detail":"trunk","sort_rank":381,"landuse_kind":"urban_area","min_zoom":8.0},"arcs":[[686],[687],[688]]},{"type":"MultiLineString","properties":{"source":"openstreetmap.org","kind":"major_road","name:en":"Corniche El Nil","landuse_kind":"urban_area","sort_rank":380,"kind_detail":"primary","min_zoom":8.0},"arcs":[[689],[690]]},{"type":"MultiLineString","properties":{"kind":"major_road","name:en":"El Nozha El Gadida","sort_rank":381,"landuse_kind":"urban_area","source":"openstreetmap.org","min_zoom":8.0,"kind_detail":"trunk","ref":"04"},"arcs":[[691],[692]]},{"type":"LineString","properties":{"kind":"major_road","name:en":"Faisal Bridge","sort_rank":381,"landuse_kind":"urban_area","source":"openstreetmap.org","min_zoom":8.0,"kind_detail":"trunk","id":306589384},"arcs":[693]},{"type":"LineString","properties":{"kind":"major_road","sort_rank":380,"landuse_kind":"urban_area","source":"openstreetmap.org","min_zoom":8.0,"kind_detail":"primary","ref":"Autostrad","id":62334112},"arcs":[694]},{"type":"MultiLineString","properties":{"kind":"major_road","name:en":"Corniche Al-Nil","sort_rank":381,"landuse_kind":"urban_area","source":"openstreetmap.org","min_zoom":8.0,"kind_detail":"trunk","ref":"01"},"arcs":[[695],[696]]},{"type":"MultiLineString","properties":{"source":"openstreetmap.org","kind":"major_road","name:en":"Al-Zagazig - Belbes","sort_rank":381,"kind_detail":"trunk","min_zoom":8.0},"arcs":[[697],[698]]},{"type":"MultiLineString","properties":{"source":"openstreetmap.org","kind":"major_road","landuse_kind":"aerodrome","sort_rank":380,"kind_detail":"primary","min_zoom":8.0},"arcs":[[699],[700],[701],[702],[703],[704],[705],[706]]},{"type":"LineString","properties":{"kind":"major_road","name:en":"Cairo Alexandria Desert Road","sort_rank":380,"kind_detail":"primary","alt_name:ar":"\u0637\u0631\u064a\u0642 \u0627\u0644\u0642\u0627\u0647\u0631\u0629-\u0627\u0644\u0623\u0633\u0643\u0646\u062f\u0631\u064a\u0629 \u0627\u0644\u0635\u062d\u0631\u0627\u0648\u064a","source":"openstreetmap.org","min_zoom":8.0,"landuse_kind":"urban_area","ref":"11","id":305793258},"arcs":[707]},{"type":"MultiLineString","properties":{"source":"openstreetmap.org","kind":"major_road","name:en":"El Haram","kind_detail":"trunk","sort_rank":381,"landuse_kind":"urban_area","min_zoom":8.0},"arcs":[[708],[709],[710],[711],[712],[713]]},{"type":"LineString","properties":{"kind":"major_road","name:en":"Tereet Geziret Badran","sort_rank":380,"landuse_kind":"urban_area","source":"openstreetmap.org","min_zoom":8.0,"kind_detail":"primary","id":28844958},"arcs":[714]},{"type":"MultiLineString","properties":{"source":"openstreetmap.org","kind":"major_road","name:en":"Manshiyet Al-Gamal","landuse_kind":"urban_area","sort_rank":380,"kind_detail":"primary","min_zoom":8.0},"arcs":[[715],[716],[717],[718],[719]]},{"type":"MultiLineString","properties":{"source":"openstreetmap.org","kind":"major_road","name:en":"Salah Salem (former Rabee Al-Gizy)","kind_detail":"trunk","sort_rank":381,"landuse_kind":"urban_area","min_zoom":8.0},"arcs":[[720],[721],[722],[723]]},{"type":"MultiLineString","properties":{"source":"openstreetmap.org","kind":"major_road","name:en":"Ramsis","landuse_kind":"urban_area","sort_rank":380,"kind_detail":"primary","min_zoom":8.0},"arcs":[[724],[725],[726],[727],[728],[729]]},{"type":"LineString","properties":{"source":"openstreetmap.org","kind":"major_road","sort_rank":381,"kind_detail":"trunk","ref":"01","min_zoom":8.0,"id":147343339},"arcs":[730]},{"type":"LineString","properties":{"source":"openstreetmap.org","kind":"major_road","name:en":"El Rehab Square","sort_rank":380,"kind_detail":"primary","min_zoom":8.0,"id":156265950},"arcs":[731]},{"type":"MultiLineString","properties":{"source":"openstreetmap.org","kind":"major_road","name:en":"Sarwat Bridge","landuse_kind":"urban_area","sort_rank":380,"kind_detail":"primary","min_zoom":8.0},"arcs":[[732],[733]]},{"type":"LineString","properties":{"source":"openstreetmap.org","kind":"major_road","name:en":"Saad Zaghloul Square","sort_rank":380,"kind_detail":"primary","min_zoom":8.0,"id":156367216},"arcs":[734]},{"type":"LineString","properties":{"kind":"major_road","name:en":"El khalifa El Daher","sort_rank":380,"landuse_kind":"urban_area","source":"openstreetmap.org","min_zoom":8.0,"kind_detail":"primary","id":28664895},"arcs":[735]},{"type":"MultiLineString","properties":{"source":"openstreetmap.org","kind":"major_road","name:en":"El Tahrir","landuse_kind":"urban_area","sort_rank":380,"kind_detail":"primary","min_zoom":8.0},"arcs":[[736],[737],[738],[739]]},{"type":"MultiLineString","properties":{"source":"openstreetmap.org","kind":"major_road","name:en":"Ain El Sira","landuse_kind":"urban_area","sort_rank":380,"kind_detail":"primary","min_zoom":8.0},"arcs":[[740],[741]]},{"type":"MultiLineString","properties":{"source":"openstreetmap.org","kind":"major_road","name:en":"Abu Bakr El Saddiq","landuse_kind":"urban_area","sort_rank":380,"kind_detail":"primary","min_zoom":8.0},"arcs":[[742],[743]]},{"type":"LineString","properties":{"kind":"major_road","name:en":"Sherif","sort_rank":380,"kind_detail":"primary","name:ar":"\u0634\u0631\u064a\u0641","source":"openstreetmap.org","min_zoom":8.0,"landuse_kind":"urban_area","id":332162765},"arcs":[744]},{"type":"MultiLineString","properties":{"source":"openstreetmap.org","kind":"major_road","name:en":"El-Mokhayam El-Da'em","landuse_kind":"urban_area","sort_rank":380,"kind_detail":"primary","min_zoom":8.0},"arcs":[[745],[746],[747],[748]]},{"type":"LineString","properties":{"kind":"major_road","name:en":"El-Nil","sort_rank":380,"landuse_kind":"urban_area","source":"openstreetmap.org","min_zoom":8.0,"kind_detail":"primary","id":54733206},"arcs":[749]},{"type":"MultiLineString","properties":{"source":"openstreetmap.org","kind":"major_road","name:en":"Al-Teraa Al-Boulaqueya","landuse_kind":"urban_area","sort_rank":380,"kind_detail":"primary","min_zoom":8.0},"arcs":[[750],[751],[752],[753]]},{"type":"MultiLineString","properties":{"source":"openstreetmap.org","kind":"highway","landuse_kind":"urban_area","sort_rank":383,"kind_detail":"motorway","ref":"06","min_zoom":8.0},"arcs":[[754],[755]]},{"type":"MultiLineString","properties":{"source":"openstreetmap.org","kind":"major_road","sort_rank":381,"kind_detail":"trunk","ref":"24","min_zoom":8.0},"arcs":[[756],[757],[758],[759],[760],[761],[762],[763],[764],[765],[766]]},{"type":"MultiLineString","properties":{"kind":"major_road","name:en":"Autostrad","sort_rank":381,"landuse_kind":"urban_area","source":"openstreetmap.org","min_zoom":8.0,"kind_detail":"trunk","ref":"\u0627\u0644\u0623\u0648\u062a\u0648\u0633\u062a\u0631\u0627\u062f"},"arcs":[[767],[768],[769],[770],[771],[772],[773]]},{"type":"MultiLineString","properties":{"kind":"major_road","name:en":"Corniche El Nil","sort_rank":380,"kind_detail":"primary","source":"openstreetmap.org","min_zoom":8.0,"landuse_kind":"urban_area","ref":"01"},"arcs":[[774],[775]]},{"type":"MultiLineString","properties":{"source":"openstreetmap.org","kind":"major_road","name:en":"Mostafa El Nahass","landuse_kind":"urban_area","sort_rank":380,"kind_detail":"primary","min_zoom":8.0},"arcs":[[776],[777],[778]]},{"type":"LineString","properties":{"kind":"major_road","name:en":"Al-Ma'had Al-Diny","sort_rank":380,"kind_detail":"primary","source":"openstreetmap.org","min_zoom":8.0,"landuse_kind":"urban_area","ref":"45","id":147344235},"arcs":[779]},{"type":"MultiLineString","properties":{"kind":"highway","name:en":"Ismailia Road","sort_rank":383,"kind_detail":"motorway","source":"openstreetmap.org","min_zoom":8.0,"landuse_kind":"urban_area","ref":"04"},"arcs":[[780],[781],[782],[783],[784],[785],[786],[787]]},{"type":"LineString","properties":{"kind":"major_road","name:en":"Othman ibn Affan Sq.","sort_rank":380,"landuse_kind":"urban_area","source":"openstreetmap.org","min_zoom":8.0,"kind_detail":"primary","id":19501505},"arcs":[788]},{"type":"LineString","properties":{"kind":"major_road","name:en":"Kobri El Tagned","sort_rank":380,"landuse_kind":"urban_area","source":"openstreetmap.org","min_zoom":8.0,"kind_detail":"primary","id":151344693},"arcs":[789]},{"type":"MultiLineString","properties":{"kind":"major_road","name:en":"El Abageya Overpass","sort_rank":381,"landuse_kind":"urban_area","source":"openstreetmap.org","min_zoom":8.0,"kind_detail":"trunk","ref":"03"},"arcs":[[790],[791]]},{"type":"MultiLineString","properties":{"kind":"major_road","int_name":"K\u016bbr\u012b Qa\u1e63r an-N\u012bl","sort_rank":380,"kind_detail":"primary","source":"openstreetmap.org","min_zoom":8.0,"name:en":"Qasr El Nil Bridge","landuse_kind":"urban_area"},"arcs":[[792],[793]]},{"type":"MultiLineString","properties":{"source":"openstreetmap.org","kind":"major_road","name:en":"Cornish El Nil","kind_detail":"trunk","sort_rank":381,"landuse_kind":"urban_area","min_zoom":8.0},"arcs":[[794],[795]]},{"type":"MultiLineString","properties":{"source":"openstreetmap.org","kind":"major_road","name:en":"Ahmad Helmy","landuse_kind":"urban_area","sort_rank":380,"kind_detail":"primary","min_zoom":8.0},"arcs":[[796],[797],[798],[799],[800],[801],[802],[803],[804],[805]]},{"type":"LineString","properties":{"kind":"major_road","name:en":"Al-Ma'had Al-Diny","sort_rank":380,"landuse_kind":"urban_area","source":"openstreetmap.org","min_zoom":8.0,"kind_detail":"primary","id":304316805},"arcs":[806]},{"type":"MultiLineString","properties":{"source":"openstreetmap.org","kind":"major_road","name:en":"Midan Mostafa Mahmoud","landuse_kind":"urban_area","sort_rank":380,"kind_detail":"primary","min_zoom":8.0},"arcs":[[807],[808],[809]]},{"type":"MultiLineString","properties":{"source":"openstreetmap.org","kind":"highway","name:en":"Ain Sokhna Road","sort_rank":383,"kind_detail":"motorway","ref":"24","min_zoom":8.0},"arcs":[[810],[811],[812],[813],[814],[815],[816],[817]]},{"type":"LineString","properties":{"kind":"major_road","name:en":"Mahmoud Mokhtar","sort_rank":380,"landuse_kind":"urban_area","source":"openstreetmap.org","min_zoom":8.0,"kind_detail":"primary","id":4987193},"arcs":[818]},{"type":"LineString","properties":{"kind":"major_road","name:en":"Idarat Al-Morur","sort_rank":380,"landuse_kind":"urban_area","source":"openstreetmap.org","min_zoom":8.0,"kind_detail":"primary","id":28800561},"arcs":[819]},{"type":"LineString","properties":{"kind":"major_road","name:en":"Ismailia Road","sort_rank":381,"kind_detail":"trunk","source":"openstreetmap.org","min_zoom":8.0,"landuse_kind":"urban_area","ref":"4","id":148242254},"arcs":[820]},{"type":"LineString","properties":{"kind":"major_road","name:en":"Hassan El Maamon","sort_rank":381,"landuse_kind":"urban_area","source":"openstreetmap.org","min_zoom":8.0,"kind_detail":"trunk","id":41336031},"arcs":[821]},{"type":"MultiLineString","properties":{"source":"openstreetmap.org","kind":"major_road","name:en":"El Azhar Tunel","landuse_kind":"urban_area","sort_rank":380,"kind_detail":"primary","min_zoom":8.0},"arcs":[[822],[823]]},{"type":"MultiLineString","properties":{"source":"openstreetmap.org","kind":"major_road","name:en":"El Saraya","landuse_kind":"urban_area","sort_rank":380,"kind_detail":"primary","min_zoom":8.0},"arcs":[[824],[825]]},{"type":"MultiLineString","properties":{"source":"openstreetmap.org","kind":"major_road","name:en":"Airport Road","landuse_kind":"urban_area","sort_rank":380,"kind_detail":"primary","min_zoom":8.0},"arcs":[[826],[827],[828]]},{"type":"MultiLineString","properties":{"source":"openstreetmap.org","kind":"major_road","name:en":"Al-Kahrabaa","landuse_kind":"urban_area","sort_rank":380,"kind_detail":"primary","min_zoom":8.0},"arcs":[[829],[830]]},{"type":"MultiLineString","properties":{"source":"openstreetmap.org","kind":"major_road","name:en":"Mehwar Mubark","landuse_kind":"urban_area","sort_rank":380,"kind_detail":"primary","min_zoom":8.0},"arcs":[[831],[832]]},{"type":"MultiLineString","properties":{"source":"openstreetmap.org","kind":"major_road","name:en":"Abdul Moneim Riad Square","landuse_kind":"urban_area","sort_rank":380,"kind_detail":"primary","min_zoom":8.0},"arcs":[[833],[834]]},{"type":"MultiLineString","properties":{"kind":"major_road","sort_rank":380,"landuse_kind":"urban_area","name:ar":"\u0623\u0628\u0648 \u0628\u0643\u0631 \u0627\u0644\u0635\u062f\u064a\u0642","source":"openstreetmap.org","min_zoom":8.0,"kind_detail":"primary","ref":"4"},"arcs":[[835],[836],[837]]},{"type":"MultiLineString","properties":{"kind":"major_road","name:en":"Salah Salem (former Rabee Al-Gizy)","sort_rank":381,"landuse_kind":"urban_area","source":"openstreetmap.org","min_zoom":8.0,"kind_detail":"trunk","ref":"02"},"arcs":[[838],[839]]},{"type":"LineString","properties":{"kind":"major_road","name:en":"Autostrad","sort_rank":381,"landuse_kind":"urban_area","source":"openstreetmap.org","min_zoom":8.0,"kind_detail":"trunk","id":30117617},"arcs":[840]},{"type":"MultiLineString","properties":{"source":"openstreetmap.org","kind":"major_road","name:en":"Midan Ataba","landuse_kind":"urban_area","sort_rank":380,"kind_detail":"primary","min_zoom":8.0},"arcs":[[841],[842],[843]]},{"type":"LineString","properties":{"kind":"major_road","name:en":"Charle De Gaulle","sort_rank":381,"kind_detail":"trunk","min_zoom":8.0,"source":"openstreetmap.org","name:fr":"Charles De Gaulle","alt_name:en":"El Giza","landuse_kind":"urban_area","id":50219743},"arcs":[844]},{"type":"MultiLineString","properties":{"source":"openstreetmap.org","kind":"major_road","name:en":"Mehwar N. A.","kind_detail":"trunk","sort_rank":381,"landuse_kind":"urban_area","min_zoom":8.0},"arcs":[[845],[846]]},{"type":"MultiLineString","properties":{"source":"openstreetmap.org","kind":"major_road","name:en":"6th of October","kind_detail":"trunk","sort_rank":381,"landuse_kind":"urban_area","min_zoom":8.0},"arcs":[[847],[848]]},{"type":"LineString","properties":{"source":"openstreetmap.org","kind":"major_road","name:en":"Geziret Mohamed","landuse_kind":"urban_area","sort_rank":380,"kind_detail":"primary","min_zoom":8.0},"arcs":[849]},{"type":"LineString","properties":{"kind":"major_road","name:en":"Adly","sort_rank":380,"landuse_kind":"urban_area","source":"openstreetmap.org","min_zoom":8.0,"kind_detail":"primary","id":97394504},"arcs":[850]},{"type":"LineString","properties":{"source":"openstreetmap.org","kind":"highway","name:en":"Ein Sokhna Road","sort_rank":383,"kind_detail":"motorway","min_zoom":8.0,"id":5020074},"arcs":[851]},{"type":"LineString","properties":{"kind":"major_road","name:en":"El -Nozha","sort_rank":380,"landuse_kind":"urban_area","source":"openstreetmap.org","min_zoom":8.0,"kind_detail":"primary","id":24846650},"arcs":[852]},{"type":"MultiLineString","properties":{"source":"openstreetmap.org","kind":"major_road","name:en":"El Malik El Saleh Bridge","kind_detail":"trunk","sort_rank":381,"landuse_kind":"urban_area","min_zoom":8.0},"arcs":[[853],[854]]},{"type":"MultiLineString","properties":{"kind":"highway","name:en":"Cairo - El-Fayoum Road","sort_rank":383,"kind_detail":"motorway","is_bicycle_related":true,"source":"openstreetmap.org","min_zoom":8.0,"ref":"22"},"arcs":[[855],[856]]},{"type":"LineString","properties":{"source":"openstreetmap.org","kind":"major_road","name:en":"El Gezira","landuse_kind":"urban_area","sort_rank":380,"kind_detail":"primary","min_zoom":8.0},"arcs":[857]},{"type":"LineString","properties":{"kind":"major_road","sort_rank":381,"landuse_kind":"urban_area","name:ar":"\u0634\u0627\u0631\u0639 \u0627\u0644\u0647\u0631\u0645","source":"openstreetmap.org","min_zoom":8.0,"kind_detail":"trunk","id":46969566},"arcs":[858]},{"type":"MultiLineString","properties":{"source":"openstreetmap.org","kind":"major_road","name:en":"Airport Bridge","kind_detail":"trunk","sort_rank":381,"landuse_kind":"urban_area","min_zoom":8.0},"arcs":[[859],[860]]},{"type":"MultiLineString","properties":{"source":"openstreetmap.org","kind":"major_road","name:en":"Al-Zagazig - Belbes","sort_rank":381,"kind_detail":"trunk","ref":"45","min_zoom":8.0},"arcs":[[861],[862],[863],[864],[865],[866]]},{"type":"MultiLineString","properties":{"source":"openstreetmap.org","kind":"major_road","name:en":"Salah Salem","landuse_kind":"urban_area","sort_rank":380,"kind_detail":"primary","min_zoom":8.0},"arcs":[[867],[868],[869]]},{"type":"MultiLineString","properties":{"source":"openstreetmap.org","kind":"major_road","name:en":"El Haykesteb Bridge","kind_detail":"trunk","sort_rank":381,"landuse_kind":"urban_area","min_zoom":8.0},"arcs":[[870],[871]]},{"type":"MultiLineString","properties":{"sort_rank":381,"source":"openstreetmap.org","min_zoom":8.0,"kind":"major_road","kind_detail":"trunk"},"arcs":[[872],[873],[874],[875],[876],[877],[878],[879],[880],[881],[882],[883],[884],[885],[886],[887],[888],[889],[890],[891],[892],[893],[894],[895],[896],[897],[898],[899],[900],[901],[902],[903],[904],[905],[906],[907],[908],[909],[910],[911],[912],[913],[914],[915],[916],[917],[918],[919],[920],[921],[922],[923],[924],[925],[926],[927],[928],[929],[930],[931],[932],[933],[934],[935],[936],[937],[938],[939],[940],[941],[942],[943],[944],[945],[946],[947],[948],[949],[950],[951],[952],[953],[954],[955],[956],[957],[958],[959],[960],[961],[962],[963],[964],[965],[966],[967],[968],[969],[970],[971],[972],[973]]},{"type":"MultiLineString","properties":{"source":"openstreetmap.org","kind":"major_road","name:en":"Al-Abbasseya","landuse_kind":"urban_area","sort_rank":380,"kind_detail":"primary","min_zoom":8.0},"arcs":[[974],[975]]},{"type":"MultiLineString","properties":{"source":"openstreetmap.org","kind":"major_road","name:en":"Abdel-Aziz Fahmy","landuse_kind":"urban_area","sort_rank":380,"kind_detail":"primary","min_zoom":8.0},"arcs":[[976],[977],[978],[979],[980],[981],[982],[983]]},{"type":"LineString","properties":{"kind":"major_road","name:en":"El Khosous Qibli - El Saff Road","sort_rank":380,"kind_detail":"primary","is_bicycle_related":true,"source":"openstreetmap.org","min_zoom":8.0,"ref":"21","id":257166367},"arcs":[984]},{"type":"LineString","properties":{"kind":"major_road","name:en":"26th July","sort_rank":381,"landuse_kind":"urban_area","source":"openstreetmap.org","min_zoom":8.0,"kind_detail":"trunk","id":174550559},"arcs":[985]},{"type":"LineString","properties":{"source":"openstreetmap.org","kind":"major_road","name:en":"Ahmed Said","landuse_kind":"urban_area","sort_rank":380,"kind_detail":"primary","min_zoom":8.0},"arcs":[986]},{"type":"MultiLineString","properties":{"kind":"major_road","name:en":"Salah Salem Road","sort_rank":381,"landuse_kind":"urban_area","name:ar":"\u0634\u0627\u0631\u0639 \u0627\u0644\u0639\u0631\u0648\u0628\u0629","source":"openstreetmap.org","min_zoom":8.0,"kind_detail":"trunk","ref":"04"},"arcs":[[987],[988]]},{"type":"LineString","properties":{"source":"openstreetmap.org","kind":"major_road","name:en":"El Batal Ahmed Abdel-Aziz","landuse_kind":"urban_area","sort_rank":380,"kind_detail":"primary","min_zoom":8.0},"arcs":[989]},{"type":"LineString","properties":{"kind":"major_road","name:en":"15 May Bridge","sort_rank":381,"kind_detail":"trunk","is_bicycle_related":true,"min_zoom":8.0,"source":"openstreetmap.org","name:fr":"Pont du 15 Mai","landuse_kind":"urban_area","id":326374616},"arcs":[990]},{"type":"MultiLineString","properties":{"source":"openstreetmap.org","kind":"major_road","name:en":"El Nasr","kind_detail":"trunk","sort_rank":381,"landuse_kind":"urban_area","min_zoom":8.0},"arcs":[[991],[992],[993],[994]]},{"type":"LineString","properties":{"kind":"major_road","name:en":"Abbas El Aqqad","sort_rank":380,"landuse_kind":"urban_area","source":"openstreetmap.org","min_zoom":8.0,"kind_detail":"primary","id":28582639},"arcs":[995]},{"type":"MultiLineString","properties":{"source":"openstreetmap.org","kind":"major_road","name:en":"Abu El Atahia","landuse_kind":"urban_area","sort_rank":380,"kind_detail":"primary","min_zoom":8.0},"arcs":[[996],[997]]},{"type":"MultiLineString","properties":{"source":"openstreetmap.org","kind":"highway","landuse_kind":"urban_area","sort_rank":383,"kind_detail":"motorway","min_zoom":8.0},"arcs":[[998],[999]]},{"type":"LineString","properties":{"kind":"major_road","name:en":"Charles De Gaulle","sort_rank":381,"kind_detail":"trunk","source":"openstreetmap.org","min_zoom":8.0,"alt_name:en":"El Giza","landuse_kind":"urban_area","id":153834059},"arcs":[1000]},{"type":"MultiLineString","properties":{"source":"openstreetmap.org","kind":"major_road","name:en":"Zagazig - Meit Ghamr","sort_rank":381,"kind_detail":"trunk","min_zoom":8.0},"arcs":[[1001],[1002],[1003]]},{"type":"MultiLineString","properties":{"source":"openstreetmap.org","kind":"major_road","name:en":"Dokki","landuse_kind":"urban_area","sort_rank":380,"kind_detail":"primary","min_zoom":8.0},"arcs":[[1004],[1005]]},{"type":"MultiLineString","properties":{"kind":"highway","name:en":"Cairo Alexandria Desert Road","sort_rank":383,"kind_detail":"motorway","alt_name:ar":"\u0637\u0631\u064a\u0642 \u0627\u0644\u0642\u0627\u0647\u0631\u0629-\u0627\u0644\u0623\u0633\u0643\u0646\u062f\u0631\u064a\u0629 \u0627\u0644\u0635\u062d\u0631\u0627\u0648\u064a","source":"openstreetmap.org","min_zoom":8.0,"ref":"11"},"arcs":[[1006],[1007],[1008],[1009],[1010],[1011]]},{"type":"MultiLineString","properties":{"source":"openstreetmap.org","kind":"highway","name:en":"Ring Road","sort_rank":383,"kind_detail":"motorway","min_zoom":8.0,"id":338011307},"arcs":[[1012],[1013]]},{"type":"LineString","properties":{"kind":"major_road","name:en":"Al-Moqattam Road","sort_rank":380,"kind_detail":"primary","source":"openstreetmap.org","min_zoom":8.0,"landuse_kind":"urban_area","ref":"06"},"arcs":[1014]},{"type":"MultiLineString","properties":{"kind":"highway","name:en":"Ring Road;Munib Corridor","sort_rank":383,"kind_detail":"motorway","source":"openstreetmap.org","min_zoom":8.0,"landuse_kind":"urban_area","ref":"06"},"arcs":[[1015],[1016],[1017],[1018]]},{"type":"MultiLineString","properties":{"kind":"highway","name:en":"Ring Road","sort_rank":383,"kind_detail":"motorway","source":"openstreetmap.org","min_zoom":8.0,"landuse_kind":"urban_area","ref":"06"},"arcs":[[1019],[1020],[1021],[1022],[1023],[1024],[1025],[1026],[1027],[1028],[1029],[1030],[1031],[1032],[1033],[1034],[1035],[1036],[1037],[1038]]},{"type":"LineString","properties":{"kind":"major_road","sort_rank":380,"landuse_kind":"urban_area","source":"openstreetmap.org","min_zoom":8.0,"kind_detail":"primary","ref":"06","id":55356697},"arcs":[1039]},{"type":"MultiLineString","properties":{"source":"openstreetmap.org","kind":"major_road","name:en":"Tereet Al-Ismailia","landuse_kind":"urban_area","sort_rank":380,"kind_detail":"primary","min_zoom":8.0},"arcs":[[1040],[1041],[1042],[1043]]},{"type":"LineString","properties":{"kind":"major_road","name:en":"Abu El Farag","sort_rank":380,"landuse_kind":"urban_area","source":"openstreetmap.org","min_zoom":8.0,"kind_detail":"primary","id":28833414},"arcs":[1044]},{"type":"MultiLineString","properties":{"kind":"major_road","name:en":"Fieldmarshall Abu Ghazala Overpass","sort_rank":381,"landuse_kind":"urban_area","source":"openstreetmap.org","min_zoom":8.0,"old_name":"\u0643\u0648\u0628\u0631\u0649 \u0627\u0644\u0643\u064a\u0644\u0648 \u0623\u0631\u0628\u0639\u0629 \u0648\u0646\u0635 Kilo four and half Overpass","kind_detail":"trunk","ref":"03"},"arcs":[[1045],[1046],[1047],[1048]]},{"type":"MultiLineString","properties":{"source":"openstreetmap.org","kind":"highway","name:en":"Rod El Farag Highway","landuse_kind":"urban_area","sort_rank":383,"kind_detail":"motorway","min_zoom":8.0},"arcs":[[1049],[1050],[1051],[1052],[1053],[1054],[1055],[1056],[1057],[1058],[1059],[1060],[1061]]},{"type":"LineString","properties":{"kind":"major_road","name:en":"Al Khosous Qibli - Al Saff Road","sort_rank":380,"kind_detail":"primary","is_bicycle_related":true,"source":"openstreetmap.org","min_zoom":8.0,"landuse_kind":"urban_area","ref":"21","id":149030354},"arcs":[1062]},{"type":"MultiLineString","properties":{"source":"openstreetmap.org","kind":"major_road","name:en":"Cairo - Belbes Desrt Road","sort_rank":381,"kind_detail":"trunk","ref":"45","min_zoom":8.0},"arcs":[[1063],[1064]]},{"type":"MultiLineString","properties":{"source":"openstreetmap.org","kind":"major_road","name:en":"El Manzal Road","kind_detail":"trunk","sort_rank":381,"landuse_kind":"urban_area","min_zoom":8.0},"arcs":[[1065],[1066]]},{"type":"LineString","properties":{"kind":"highway","sort_rank":383,"landuse_kind":"urban_area","source":"openstreetmap.org","min_zoom":8.0,"kind_detail":"motorway","ref":"04","id":50293728},"arcs":[1067]},{"type":"MultiLineString","properties":{"source":"openstreetmap.org","kind":"major_road","name:en":"Ain Al-Sira","landuse_kind":"urban_area","sort_rank":380,"kind_detail":"primary","min_zoom":8.0},"arcs":[[1068],[1069]]},{"type":"MultiLineString","properties":{"source":"openstreetmap.org","kind":"highway","kind_detail":"motorway","sort_rank":383,"landuse_kind":"military","min_zoom":8.0},"arcs":[[1070],[1071],[1072],[1073],[1074],[1075],[1076],[1077]]},{"type":"MultiLineString","properties":{"source":"openstreetmap.org","kind":"major_road","name:en":"El Hegaz","landuse_kind":"urban_area","sort_rank":380,"kind_detail":"primary","min_zoom":8.0},"arcs":[[1078],[1079],[1080],[1081],[1082],[1083]]},{"type":"MultiLineString","properties":{"source":"openstreetmap.org","kind":"highway","name:en":"Sahari Pyramids Axis","sort_rank":383,"kind_detail":"motorway","ref":"11","min_zoom":8.0},"arcs":[[1084],[1085],[1086],[1087]]},{"type":"LineString","properties":{"kind":"major_road","name:en":"Faisal","sort_rank":380,"landuse_kind":"urban_area","source":"openstreetmap.org","min_zoom":8.0,"kind_detail":"primary","id":28884371},"arcs":[1088]},{"type":"MultiLineString","properties":{"source":"openstreetmap.org","kind":"major_road","name:en":"El Nasr Road","landuse_kind":"urban_area","sort_rank":380,"kind_detail":"primary","min_zoom":8.0},"arcs":[[1089],[1090]]},{"type":"MultiLineString","properties":{"source":"openstreetmap.org","kind":"major_road","name:en":"El Sayeda Aisha Bridge","kind_detail":"trunk","sort_rank":381,"landuse_kind":"urban_area","min_zoom":8.0},"arcs":[[1091],[1092]]},{"type":"MultiLineString","properties":{"source":"openstreetmap.org","kind":"major_road","name:en":"Gameat El Dowal El Arabeia","landuse_kind":"urban_area","sort_rank":380,"kind_detail":"primary","min_zoom":8.0},"arcs":[[1093],[1094],[1095],[1096],[1097]]},{"type":"LineString","properties":{"kind":"major_road","name:en":"El Gabalaya","sort_rank":380,"landuse_kind":"urban_area","source":"openstreetmap.org","min_zoom":8.0,"kind_detail":"primary","id":28845601},"arcs":[1098]},{"type":"LineString","properties":{"source":"openstreetmap.org","kind":"major_road","name:en":"Shubra","landuse_kind":"urban_area","sort_rank":380,"kind_detail":"primary","min_zoom":8.0},"arcs":[1099]},{"type":"MultiLineString","properties":{"kind":"major_road","name:en":"Charles De Gaulle","sort_rank":380,"kind_detail":"primary","name:fr":"Charles De Gaulle","source":"openstreetmap.org","min_zoom":8.0,"landuse_kind":"urban_area"},"arcs":[[1100],[1101]]},{"type":"MultiLineString","properties":{"source":"openstreetmap.org","kind":"highway","name:en":"Ring Road","sort_rank":383,"kind_detail":"motorway","ref":"06","min_zoom":8.0},"arcs":[[1102],[1103],[1104],[1105],[1106],[1107],[1108],[1109],[1110],[1111],[1112],[1113],[1114],[1115],[1116],[1117],[1118],[1119],[1120],[1121],[1122],[1123],[1124],[1125],[1126],[1127],[1128],[1129],[1130],[1131],[1132],[1133],[1134],[1135],[1136],[1137],[1138],[1139],[1140],[1141],[1142],[1143],[1144],[1145],[1146]]},{"type":"MultiLineString","properties":{"source":"openstreetmap.org","kind":"major_road","name:en":"El Salam","sort_rank":380,"kind_detail":"primary","min_zoom":8.0},"arcs":[[1147],[1148],[1149],[1150],[1151]]},{"type":"LineString","properties":{"kind":"major_road","name:en":"Al-Bustan","sort_rank":380,"landuse_kind":"urban_area","source":"openstreetmap.org","min_zoom":8.0,"kind_detail":"primary","id":28718874},"arcs":[1152]},{"type":"MultiLineString","properties":{"source":"openstreetmap.org","kind":"major_road","name:en":"Saad Selim","landuse_kind":"urban_area","sort_rank":380,"kind_detail":"primary","min_zoom":8.0},"arcs":[[1153],[1154]]},{"type":"MultiLineString","properties":{"source":"openstreetmap.org","kind":"major_road","name:en":"Meit Ghamr - Benha","sort_rank":381,"kind_detail":"trunk","min_zoom":8.0},"arcs":[[1155],[1156]]},{"type":"MultiLineString","properties":{"source":"openstreetmap.org","kind":"major_road","kind_detail":"trunk","sort_rank":381,"landuse_kind":"urban_area","min_zoom":8.0},"arcs":[[1157],[1158],[1159],[1160],[1161],[1162],[1163],[1164],[1165],[1166],[1167],[1168],[1169],[1170],[1171],[1172],[1173],[1174],[1175],[1176],[1177],[1178],[1179],[1180],[1181],[1182],[1183],[1184],[1185],[1186],[1187],[1188],[1189],[1190],[1191],[1192],[1193],[1194],[1195],[1196],[1197],[1198],[1199],[1200],[1201],[1202],[1203],[1204],[1205],[1206],[1207],[1208],[1209],[1210],[1211],[1212],[1213],[1214],[1215],[1216],[1217],[1218],[1219],[1220],[1221],[1222],[1223],[1224]]},{"type":"MultiLineString","properties":{"source":"openstreetmap.org","kind":"highway","name:en":"Ismailia Road","sort_rank":383,"kind_detail":"motorway","ref":"04","min_zoom":8.0},"arcs":[[1225],[1226],[1227],[1228]]},{"type":"MultiLineString","properties":{"source":"openstreetmap.org","kind":"major_road","name:en":"Shanan","landuse_kind":"urban_area","sort_rank":380,"kind_detail":"primary","min_zoom":8.0},"arcs":[[1229],[1230],[1231],[1232],[1233],[1234],[1235]]},{"type":"LineString","properties":{"kind":"major_road","name:en":"Abdel-Khaliq Tharwat","sort_rank":380,"landuse_kind":"urban_area","source":"openstreetmap.org","min_zoom":8.0,"kind_detail":"primary","id":305873961},"arcs":[1236]},{"type":"LineString","properties":{"kind":"major_road","name:en":"El Nil","sort_rank":381,"landuse_kind":"urban_area","source":"openstreetmap.org","min_zoom":8.0,"kind_detail":"trunk","id":50219744},"arcs":[1237]},{"type":"MultiLineString","properties":{"source":"openstreetmap.org","kind":"highway","name:en":"Eastern Cairo Asyout Road","landuse_kind":"urban_area","sort_rank":383,"kind_detail":"motorway","min_zoom":8.0},"arcs":[[1238],[1239]]},{"type":"LineString","properties":{"kind":"major_road","name:en":"El Nasr Rd","sort_rank":380,"kind_detail":"primary","source":"openstreetmap.org","min_zoom":8.0,"landuse_kind":"urban_area","ref":"\u0637\u0631\u064a\u0642 \u0627\u0644\u0646\u0635\u0631","id":46040366},"arcs":[1240]},{"type":"MultiLineString","properties":{"source":"openstreetmap.org","kind":"major_road","name:en":"Faisal Bridge","landuse_kind":"urban_area","sort_rank":380,"kind_detail":"primary","min_zoom":8.0},"arcs":[[1241],[1242],[1243],[1244]]},{"type":"LineString","properties":{"kind":"major_road","name:en":"Midan Al-Faransawy","sort_rank":380,"landuse_kind":"urban_area","source":"openstreetmap.org","min_zoom":8.0,"kind_detail":"primary","id":25026240},"arcs":[1245]},{"type":"LineString","properties":{"source":"openstreetmap.org","kind":"major_road","name:en":"El Teseen","sort_rank":380,"kind_detail":"primary","min_zoom":8.0,"id":220958711},"arcs":[1246]},{"type":"MultiLineString","properties":{"sort_rank":383,"kind_detail":"motorway","min_zoom":8.0,"kind":"highway","source":"openstreetmap.org"},"arcs":[[1247],[1248],[1249],[1250],[1251],[1252],[1253],[1254],[1255],[1256],[1257],[1258],[1259],[1260],[1261],[1262],[1263],[1264],[1265],[1266],[1267],[1268],[1269],[1270],[1271],[1272],[1273],[1274],[1275],[1276],[1277],[1278],[1279],[1280],[1281],[1282],[1283],[1284],[1285],[1286],[1287],[1288],[1289],[1290],[1291],[1292],[1293],[1294],[1295],[1296],[1297],[1298],[1299],[1300],[1301],[1302],[1303],[1304],[1305],[1306],[1307],[1308],[1309],[1310],[1311],[1312],[1313],[1314],[1315],[1316],[1317],[1318],[1319],[1320],[1321],[1322],[1323],[1324],[1325],[1326],[1327],[1328],[1329],[1330],[1331],[1332],[1333],[1334]]},{"type":"MultiLineString","properties":{"source":"openstreetmap.org","kind":"major_road","name:en":"El Roda","landuse_kind":"urban_area","sort_rank":380,"kind_detail":"primary","min_zoom":8.0},"arcs":[[1335],[1336]]},{"type":"MultiLineString","properties":{"source":"openstreetmap.org","kind":"major_road","name:en":"El Galaa Tunnel","kind_detail":"trunk","sort_rank":381,"landuse_kind":"urban_area","min_zoom":8.0},"arcs":[[1337],[1338]]},{"type":"LineString","properties":{"source":"openstreetmap.org","kind":"major_road","kind_detail":"trunk","sort_rank":381,"landuse_kind":"urban_area","ref":"49","min_zoom":8.0},"arcs":[1339]},{"type":"LineString","properties":{"kind":"major_road","name:en":"El Nozha El Gadida","sort_rank":380,"landuse_kind":"urban_area","source":"openstreetmap.org","min_zoom":8.0,"kind_detail":"primary","id":4987218},"arcs":[1340]},{"type":"MultiLineString","properties":{"source":"openstreetmap.org","kind":"major_road","sort_rank":381,"kind_detail":"trunk","ref":"04","min_zoom":8.0},"arcs":[[1341],[1342],[1343],[1344]]},{"type":"MultiLineString","properties":{"source":"openstreetmap.org","kind":"major_road","name:en":"El Tahrir Street","landuse_kind":"urban_area","sort_rank":380,"kind_detail":"primary","min_zoom":8.0},"arcs":[[1345],[1346]]},{"type":"MultiLineString","properties":{"source":"openstreetmap.org","kind":"major_road","name:en":"El Malik El Saleh","landuse_kind":"urban_area","sort_rank":380,"kind_detail":"primary","min_zoom":8.0},"arcs":[[1347],[1348]]},{"type":"MultiLineString","properties":{"source":"openstreetmap.org","kind":"major_road","kind_detail":"trunk","sort_rank":381,"landuse_kind":"aerodrome","min_zoom":8.0},"arcs":[[1349],[1350],[1351]]},{"type":"MultiLineString","properties":{"source":"openstreetmap.org","kind":"major_road","name:en":"El Orouba","sort_rank":380,"kind_detail":"primary","min_zoom":8.0},"arcs":[[1352],[1353]]},{"type":"MultiLineString","properties":{"kind":"major_road","alt_name:en":"Mehwar Almoshir Tantawy","sort_rank":381,"landuse_kind":"urban_area","source":"openstreetmap.org","min_zoom":8.0,"name:en":"Mehwar N. A.","kind_detail":"trunk"},"arcs":[[1354],[1355]]},{"type":"MultiLineString","properties":{"source":"openstreetmap.org","kind":"major_road","landuse_kind":"urban_area","sort_rank":380,"kind_detail":"primary","ref":"41","min_zoom":8.0},"arcs":[[1356],[1357]]},{"type":"LineString","properties":{"kind":"major_road","name:en":"Midan El Galaa","sort_rank":380,"landuse_kind":"urban_area","source":"openstreetmap.org","min_zoom":8.0,"kind_detail":"primary","id":24749394},"arcs":[1358]},{"type":"MultiLineString","properties":{"source":"openstreetmap.org","kind":"major_road","name:en":"Corniche El Nil","kind_detail":"trunk","sort_rank":381,"landuse_kind":"urban_area","min_zoom":8.0},"arcs":[[1359],[1360],[1361],[1362]]},{"type":"MultiLineString","properties":{"kind":"major_road","name:en":"15 May Bridge","sort_rank":381,"landuse_kind":"urban_area","min_zoom":8.0,"source":"openstreetmap.org","name:fr":"Pont du 15 Mai","kind_detail":"trunk"},"arcs":[[1363],[1364],[1365],[1366]]},{"type":"MultiLineString","properties":{"source":"openstreetmap.org","kind":"major_road","name:en":"Ahmed Helmi","landuse_kind":"urban_area","sort_rank":380,"kind_detail":"primary","min_zoom":8.0},"arcs":[[1367],[1368]]},{"type":"MultiLineString","properties":{"kind":"major_road","name:en":"Corniche Al-Nil","sort_rank":381,"landuse_kind":"urban_area","source":"openstreetmap.org","min_zoom":8.0,"kind_detail":"trunk","ref":"21"},"arcs":[[1369],[1370]]},{"type":"LineString","properties":{"kind":"major_road","name:en":"Bairam El Tunsi","sort_rank":380,"landuse_kind":"urban_area","source":"openstreetmap.org","min_zoom":8.0,"kind_detail":"primary","id":28864570},"arcs":[1371]},{"type":"MultiLineString","properties":{"source":"openstreetmap.org","kind":"major_road","name:en":"El Malik Abdel-Aziz Al-Suud","landuse_kind":"urban_area","sort_rank":380,"kind_detail":"primary","min_zoom":8.0},"arcs":[[1372],[1373]]},{"type":"LineString","properties":{"kind":"major_road","name:en":"El Nil","sort_rank":380,"landuse_kind":"urban_area","source":"openstreetmap.org","min_zoom":8.0,"kind_detail":"primary","id":153834046},"arcs":[1374]},{"type":"LineString","properties":{"kind":"major_road","name:en":"El Saraya;Al-Saraya Street","sort_rank":380,"landuse_kind":"urban_area","source":"openstreetmap.org","min_zoom":8.0,"kind_detail":"primary","id":261517703},"arcs":[1375]},{"type":"LineString","properties":{"source":"openstreetmap.org","kind":"major_road","landuse_kind":"urban_area","sort_rank":380,"kind_detail":"primary","ref":"21","min_zoom":8.0},"arcs":[1376]},{"type":"LineString","properties":{"source":"openstreetmap.org","kind":"major_road","name:en":"Zagazig - Minya Al-Kameh","sort_rank":381,"kind_detail":"trunk","min_zoom":8.0,"id":304318531},"arcs":[1377]},{"type":"MultiLineString","properties":{"source":"openstreetmap.org","kind":"major_road","alt_name:en":"Mehwar Almoshir Tantawy","name:en":"Mehwar N. A.","sort_rank":381,"kind_detail":"trunk","min_zoom":8.0},"arcs":[[1378],[1379]]},{"type":"MultiLineString","properties":{"kind":"highway","name:en":"Ring Road","sort_rank":383,"kind_detail":"motorway","source":"openstreetmap.org","min_zoom":8.0,"landuse_kind":"military","ref":"06"},"arcs":[[1380],[1381],[1382],[1383]]},{"type":"MultiLineString","properties":{"source":"openstreetmap.org","kind":"major_road","name:en":"North Tseen","sort_rank":380,"kind_detail":"primary","min_zoom":8.0},"arcs":[[1384],[1385]]},{"type":"LineString","properties":{"source":"openstreetmap.org","kind":"highway","name:en":"Colonel General Mohamed Fawzi Overpass","sort_rank":383,"kind_detail":"motorway","min_zoom":8.0,"id":391163642},"arcs":[1386]},{"type":"LineString","properties":{"kind":"major_road","name:en":"Al-Zagazig - Belbes","sort_rank":380,"kind_detail":"primary","source":"openstreetmap.org","min_zoom":8.0,"ref":"45","id":307018230},"arcs":[1387]},{"type":"LineString","properties":{"source":"openstreetmap.org","kind":"major_road","name:en":"Al-Ma'had Al-Diny","sort_rank":380,"kind_detail":"primary","min_zoom":8.0},"arcs":[1388]},{"type":"MultiLineString","properties":{"source":"openstreetmap.org","kind":"highway","name:en":"Regional Road","sort_rank":383,"kind_detail":"motorway","min_zoom":8.0},"arcs":[[1389],[1390],[1391],[1392],[1393],[1394],[1395],[1396],[1397],[1398],[1399],[1400],[1401],[1402],[1403],[1404]]},{"type":"MultiLineString","properties":{"source":"openstreetmap.org","kind":"major_road","name:en":"El Teseen Bridge","sort_rank":381,"kind_detail":"trunk","min_zoom":8.0},"arcs":[[1405],[1406]]},{"type":"LineString","properties":{"kind":"major_road","name:en":"Zainham bridge","sort_rank":380,"landuse_kind":"urban_area","source":"openstreetmap.org","min_zoom":8.0,"kind_detail":"primary","id":50206129},"arcs":[1407]},{"type":"MultiLineString","properties":{"kind":"major_road","name:en":"The Egyptian Army Overpass","sort_rank":381,"landuse_kind":"urban_area","source":"openstreetmap.org","min_zoom":8.0,"kind_detail":"trunk","ref":"03"},"arcs":[[1408],[1409]]},{"type":"MultiLineString","properties":{"source":"openstreetmap.org","kind":"major_road","name:en":"Ali Amin","landuse_kind":"urban_area","sort_rank":380,"kind_detail":"primary","min_zoom":8.0},"arcs":[[1410],[1411]]},{"type":"MultiLineString","properties":{"source":"openstreetmap.org","kind":"major_road","name:en":"El Malik Faisal","landuse_kind":"urban_area","sort_rank":380,"kind_detail":"primary","min_zoom":8.0},"arcs":[[1412],[1413]]},{"type":"MultiLineString","properties":{"source":"openstreetmap.org","kind":"major_road","name:en":"Saft Al Laban Corridor","landuse_kind":"urban_area","sort_rank":380,"kind_detail":"primary","min_zoom":8.0},"arcs":[[1414],[1415]]},{"type":"LineString","properties":{"kind":"major_road","name:en":"Midan Lazughly","sort_rank":380,"landuse_kind":"urban_area","source":"openstreetmap.org","min_zoom":8.0,"kind_detail":"primary","id":24943174},"arcs":[1416]},{"type":"MultiLineString","properties":{"source":"openstreetmap.org","kind":"major_road","sort_rank":381,"kind_detail":"trunk","ref":"50 M","min_zoom":8.0},"arcs":[[1417],[1418],[1419],[1420]]},{"type":"MultiLineString","properties":{"source":"openstreetmap.org","kind":"major_road","name:en":"Gohar El Qaed","landuse_kind":"urban_area","sort_rank":380,"kind_detail":"primary","min_zoom":8.0},"arcs":[[1421],[1422],[1423],[1424]]},{"type":"MultiLineString","properties":{"source":"openstreetmap.org","kind":"major_road","name:en":"El Teseen St","sort_rank":380,"kind_detail":"primary","min_zoom":8.0},"arcs":[[1425],[1426],[1427],[1428],[1429],[1430],[1431],[1432],[1433]]},{"type":"LineString","properties":{"source":"openstreetmap.org","kind":"major_road","name:en":"Manshiyet El Gamal","landuse_kind":"urban_area","sort_rank":380,"kind_detail":"primary","min_zoom":8.0},"arcs":[1434]},{"type":"MultiLineString","properties":{"source":"openstreetmap.org","kind":"major_road","name:en":"Corniche Al-Nil","kind_detail":"trunk","sort_rank":381,"landuse_kind":"urban_area","min_zoom":8.0},"arcs":[[1435],[1436],[1437]]},{"type":"MultiLineString","properties":{"source":"openstreetmap.org","kind":"major_road","name:en":"Gisr Al-Suez","landuse_kind":"urban_area","sort_rank":380,"kind_detail":"primary","min_zoom":8.0},"arcs":[[1438],[1439],[1440],[1441]]},{"type":"MultiLineString","properties":{"source":"openstreetmap.org","kind":"major_road","name:en":"Gisr El Suez","landuse_kind":"urban_area","sort_rank":380,"kind_detail":"primary","min_zoom":8.0},"arcs":[[1442],[1443],[1444],[1445],[1446],[1447]]},{"type":"LineString","properties":{"kind":"major_road","name:en":"El Nokrashy","sort_rank":380,"landuse_kind":"urban_area","source":"openstreetmap.org","min_zoom":8.0,"kind_detail":"primary","id":89670990},"arcs":[1448]},{"type":"MultiLineString","properties":{"kind":"major_road","name:en":"Joseph Tito St.","sort_rank":381,"landuse_kind":"urban_area","source":"openstreetmap.org","min_zoom":8.0,"kind_detail":"trunk","ref":"04"},"arcs":[[1449],[1450]]},{"type":"LineString","properties":{"kind":"major_road","name:en":"Al Nasr Rd","sort_rank":381,"kind_detail":"trunk","source":"openstreetmap.org","min_zoom":8.0,"alt_name:en":"Autostrad","landuse_kind":"urban_area","ref":"03","id":284147361},"arcs":[1451]},{"type":"MultiLineString","properties":{"source":"openstreetmap.org","kind":"major_road","name:en":"El Thawra","kind_detail":"trunk","sort_rank":381,"landuse_kind":"urban_area","min_zoom":8.0},"arcs":[[1452],[1453],[1454]]},{"type":"MultiLineString","properties":{"source":"openstreetmap.org","kind":"major_road","name:en":"Al-Azhar Bridge","landuse_kind":"urban_area","sort_rank":380,"kind_detail":"primary","min_zoom":8.0},"arcs":[[1455],[1456]]},{"type":"MultiLineString","properties":{"source":"openstreetmap.org","kind":"major_road","name:en":"Madinet Elkodah","landuse_kind":"urban_area","sort_rank":380,"kind_detail":"primary","min_zoom":8.0},"arcs":[[1457],[1458]]},{"type":"LineString","properties":{"kind":"major_road","name:en":"Al-Azhar Tunnel","sort_rank":380,"landuse_kind":"urban_area","source":"openstreetmap.org","min_zoom":8.0,"kind_detail":"primary","id":53337148},"arcs":[1459]},{"type":"MultiLineString","properties":{"source":"openstreetmap.org","kind":"major_road","name:en":"Al-Mustaqbal","sort_rank":380,"kind_detail":"primary","min_zoom":8.0},"arcs":[[1460],[1461],[1462],[1463],[1464],[1465]]},{"type":"LineString","properties":{"kind":"major_road","name:en":"El Wehda","sort_rank":380,"landuse_kind":"urban_area","source":"openstreetmap.org","min_zoom":8.0,"kind_detail":"primary","id":25054489},"arcs":[1466]},{"type":"LineString","properties":{"source":"openstreetmap.org","kind":"major_road","name:en":"Al-Wehda","landuse_kind":"urban_area","sort_rank":380,"kind_detail":"primary","min_zoom":8.0},"arcs":[1467]},{"type":"LineString","properties":{"kind":"major_road","name:en":"Meret Basha","sort_rank":380,"landuse_kind":"urban_area","source":"openstreetmap.org","min_zoom":8.0,"kind_detail":"primary","id":10873191},"arcs":[1468]},{"type":"LineString","properties":{"kind":"major_road","name:en":"6th October Bridge","sort_rank":381,"landuse_kind":"urban_area","source":"openstreetmap.org","min_zoom":8.0,"kind_detail":"trunk","id":22948105},"arcs":[1469]},{"type":"MultiLineString","properties":{"source":"openstreetmap.org","kind":"major_road","name:en":"Gami'at El Qahira","landuse_kind":"urban_area","sort_rank":380,"kind_detail":"primary","min_zoom":8.0},"arcs":[[1470],[1471],[1472],[1473]]},{"type":"MultiLineString","properties":{"source":"openstreetmap.org","kind":"major_road","name:en":"Al-Haram","kind_detail":"trunk","sort_rank":381,"landuse_kind":"urban_area","min_zoom":8.0},"arcs":[[1474],[1475],[1476],[1477]]},{"type":"LineString","properties":{"kind":"major_road","name:en":"Kornash Elnil","sort_rank":380,"landuse_kind":"urban_area","source":"openstreetmap.org","min_zoom":8.0,"kind_detail":"primary","id":64439683},"arcs":[1478]},{"type":"LineString","properties":{"kind":"major_road","name:en":"El Qawmeya El Arabeya","sort_rank":380,"landuse_kind":"urban_area","source":"openstreetmap.org","min_zoom":8.0,"kind_detail":"primary","id":29694572},"arcs":[1479]},{"type":"MultiLineString","properties":{"source":"openstreetmap.org","kind":"major_road","name:en":"Emtedad Ramsis","landuse_kind":"urban_area","sort_rank":380,"kind_detail":"primary","min_zoom":8.0},"arcs":[[1480],[1481],[1482]]},{"type":"MultiLineString","properties":{"source":"openstreetmap.org","kind":"major_road","name:en":"El Khalifa El Qaher","landuse_kind":"urban_area","sort_rank":380,"kind_detail":"primary","min_zoom":8.0},"arcs":[[1483],[1484]]},{"type":"MultiLineString","properties":{"source":"openstreetmap.org","kind":"major_road","name:en":"El Teseen Street","sort_rank":380,"kind_detail":"primary","min_zoom":8.0},"arcs":[[1485],[1486],[1487],[1488]]},{"type":"MultiLineString","properties":{"source":"openstreetmap.org","kind":"major_road","name:en":"El Nadi","landuse_kind":"urban_area","sort_rank":380,"kind_detail":"primary","min_zoom":8.0},"arcs":[[1489],[1490]]},{"type":"LineString","properties":{"source":"openstreetmap.org","kind":"major_road","name:en":"Mehwar El Shaheed","kind_detail":"trunk","sort_rank":381,"landuse_kind":"urban_area","min_zoom":8.0},"arcs":[1491]},{"type":"MultiLineString","properties":{"source":"openstreetmap.org","kind":"major_road","name:en":"Sarwat","landuse_kind":"urban_area","sort_rank":380,"kind_detail":"primary","min_zoom":8.0},"arcs":[[1492],[1493]]},{"type":"MultiLineString","properties":{"source":"openstreetmap.org","kind":"major_road","name:en":"Al-Kablat","landuse_kind":"urban_area","sort_rank":380,"kind_detail":"primary","min_zoom":8.0},"arcs":[[1494],[1495],[1496]]},{"type":"LineString","properties":{"source":"openstreetmap.org","kind":"major_road","name:en":"Al-Nasiriyya","landuse_kind":"urban_area","sort_rank":380,"kind_detail":"primary","min_zoom":8.0},"arcs":[1497]},{"type":"LineString","properties":{"kind":"major_road","name:en":"Autostrad","sort_rank":381,"kind_detail":"trunk","source":"openstreetmap.org","min_zoom":8.0,"ref":"\u0627\u0644\u0623\u0648\u062a\u0648\u0633\u062a\u0631\u0627\u062f","id":363055430},"arcs":[1498]},{"type":"MultiLineString","properties":{"kind":"major_road","name:en":"Cairo - Alexandria Agricultural Road","sort_rank":381,"landuse_kind":"urban_area","source":"openstreetmap.org","min_zoom":8.0,"kind_detail":"trunk","ref":"01"},"arcs":[[1499],[1500],[1501],[1502],[1503],[1504],[1505],[1506]]},{"type":"LineString","properties":{"source":"openstreetmap.org","kind":"major_road","landuse_kind":"urban_area","sort_rank":380,"kind_detail":"primary","name:ar":"\u0634\u0627\u0631\u0639 \u0627\u0644\u062a\u0631\u0639\u0629 \u0627\u0644\u0628\u0648\u0644\u0627\u0642\u064a\u0629","min_zoom":8.0},"arcs":[1507]},{"type":"MultiLineString","properties":{"source":"openstreetmap.org","kind":"major_road","name:en":"Ghamra Bridge","landuse_kind":"urban_area","sort_rank":380,"kind_detail":"primary","min_zoom":8.0},"arcs":[[1508],[1509]]},{"type":"MultiLineString","properties":{"source":"openstreetmap.org","kind":"major_road","name:en":"Maglis El Shaab","landuse_kind":"urban_area","sort_rank":380,"kind_detail":"primary","min_zoom":8.0},"arcs":[[1510],[1511]]},{"type":"MultiLineString","properties":{"source":"openstreetmap.org","kind":"major_road","landuse_kind":"urban_area","sort_rank":380,"kind_detail":"primary","min_zoom":8.0},"arcs":[[1512],[1513],[1514],[1515],[1516],[1517],[1518],[1519],[1520],[1521],[1522],[1523],[1524],[1525],[1526],[1527],[1528],[1529],[1530],[1531],[1532],[1533],[1534],[1535],[1536],[1537],[1538],[1539],[1540],[1541],[1542],[1543],[1544],[1545],[1546],[1547],[1548],[1549],[1550],[1551],[1552],[1553],[1554],[1555],[1556],[1557],[1558],[1559],[1560],[1561],[1562],[1563],[1564],[1565],[1566],[1567],[1568],[1569],[1570],[1571],[1572],[1573],[1574],[1575],[1576],[1577],[1578],[1579],[1580],[1581],[1582],[1583],[1584],[1585],[1586],[1587],[1588],[1589],[1590],[1591],[1592],[1593],[1594],[1595],[1596],[1597],[1598],[1599],[1600],[1601],[1602],[1603],[1604],[1605],[1606],[1607],[1608],[1609],[1610],[1611],[1612],[1613],[1614],[1615],[1616],[1617],[1618],[1619],[1620],[1621],[1622],[1623],[1624],[1625],[1626],[1627],[1628],[1629],[1630],[1631],[1632],[1633],[1634],[1635],[1636],[1637],[1638],[1639],[1640],[1641],[1642],[1643],[1644],[1645],[1646],[1647],[1648],[1649],[1650],[1651],[1652],[1653],[1654],[1655],[1656],[1657],[1658],[1659],[1660],[1661],[1662],[1663],[1664],[1665],[1666],[1667],[1668],[1669],[1670],[1671],[1672],[1673],[1674],[1675],[1676],[1677],[1678],[1679],[1680],[1681],[1682],[1683],[1684],[1685],[1686],[1687],[1688],[1689],[1690],[1691],[1692],[1693],[1694],[1695],[1696],[1697],[1698],[1699],[1700],[1701],[1702],[1703],[1704],[1705],[1706],[1707],[1708],[1709],[1710],[1711],[1712],[1713],[1714],[1715],[1716],[1717],[1718],[1719],[1720],[1721],[1722],[1723],[1724],[1725],[1726],[1727],[1728],[1729],[1730],[1731],[1732],[1733],[1734],[1735],[1736],[1737],[1738],[1739],[1740],[1741],[1742],[1743],[1744],[1745],[1746],[1747],[1748],[1749],[1750],[1751],[1752],[1753],[1754],[1755],[1756],[1757],[1758],[1759],[1760],[1761],[1762],[1763],[1764],[1765],[1766],[1767],[1768],[1769],[1770],[1771],[1772],[1773],[1774],[1775],[1776],[1777],[1778],[1779],[1780],[1781],[1782],[1783],[1784],[1785],[1786],[1787],[1788],[1789],[1790],[1791],[1792],[1793],[1794],[1795],[1796],[1797],[1798],[1799],[1800],[1801],[1802],[1803],[1804],[1805],[1806],[1807],[1808],[1809],[1810],[1811],[1812],[1813],[1814],[1815],[1816],[1817],[1818],[1819],[1820],[1821],[1822],[1823],[1824],[1825],[1826],[1827],[1828],[1829],[1830],[1831],[1832],[1833],[1834],[1835],[1836],[1837],[1838],[1839],[1840],[1841],[1842],[1843],[1844],[1845],[1846],[1847],[1848],[1849],[1850]]},{"type":"MultiLineString","properties":{"source":"openstreetmap.org","kind":"major_road","name:en":"Salah Salem","kind_detail":"trunk","sort_rank":381,"landuse_kind":"urban_area","min_zoom":8.0},"arcs":[[1851],[1852],[1853],[1854]]},{"type":"MultiLineString","properties":{"source":"openstreetmap.org","kind":"major_road","name:en":"Waly","kind_detail":"trunk","sort_rank":381,"landuse_kind":"urban_area","min_zoom":8.0},"arcs":[[1855],[1856]]},{"type":"LineString","properties":{"source":"openstreetmap.org","kind":"major_road","name:en":"El Sadd El Barrani","landuse_kind":"urban_area","sort_rank":380,"kind_detail":"primary","min_zoom":8.0},"arcs":[1857]},{"type":"LineString","properties":{"kind":"major_road","name:en":"Lebnan Square","sort_rank":380,"landuse_kind":"urban_area","source":"openstreetmap.org","min_zoom":8.0,"kind_detail":"primary","id":174545901},"arcs":[1858]},{"type":"MultiLineString","properties":{"source":"openstreetmap.org","kind":"major_road","name:en":"Al Madrasa El Thanawya Al Baharia","landuse_kind":"urban_area","sort_rank":380,"kind_detail":"primary","min_zoom":8.0},"arcs":[[1859],[1860]]},{"type":"MultiLineString","properties":{"kind":"highway","name:en":"Cairo Alexandria Desert Road","sort_rank":383,"kind_detail":"motorway","alt_name:ar":"\u0637\u0631\u064a\u0642 \u0627\u0644\u0642\u0627\u0647\u0631\u0629-\u0627\u0644\u0623\u0633\u0643\u0646\u062f\u0631\u064a\u0629 \u0627\u0644\u0635\u062d\u0631\u0627\u0648\u064a","source":"openstreetmap.org","min_zoom":8.0,"ref":"M75"},"arcs":[[1861],[1862],[1863]]},{"type":"MultiLineString","properties":{"source":"openstreetmap.org","kind":"major_road","name:en":"Al-Saraya","landuse_kind":"urban_area","sort_rank":380,"kind_detail":"primary","min_zoom":8.0},"arcs":[[1864],[1865]]},{"type":"MultiLineString","properties":{"source":"openstreetmap.org","kind":"major_road","name:en":"Mehwar Mubark","sort_rank":380,"kind_detail":"primary","min_zoom":8.0},"arcs":[[1866],[1867],[1868],[1869],[1870],[1871]]},{"type":"LineString","properties":{"kind":"major_road","name:en":"El Batal Ahmed Abdel-Aziz","sort_rank":380,"kind_detail":"primary","is_bicycle_related":true,"source":"openstreetmap.org","min_zoom":8.0,"landuse_kind":"urban_area","id":29202504},"arcs":[1872]},{"type":"LineString","properties":{"kind":"major_road","name:en":"Zagazig - Senbellawein Road","sort_rank":381,"kind_detail":"trunk","is_bicycle_related":true,"source":"openstreetmap.org","min_zoom":8.0,"id":99687800},"arcs":[1873]},{"type":"MultiLineString","properties":{"source":"openstreetmap.org","kind":"highway","name:en":"East Ring Road","sort_rank":383,"kind_detail":"motorway","min_zoom":8.0},"arcs":[[1874],[1875],[1876],[1877],[1878],[1879],[1880],[1881],[1882],[1883],[1884],[1885],[1886],[1887],[1888],[1889],[1890],[1891],[1892],[1893],[1894],[1895],[1896],[1897],[1898],[1899]]},{"type":"LineString","properties":{"source":"openstreetmap.org","kind":"major_road","name:en":"Al-Sadd Al-Barrani","landuse_kind":"urban_area","sort_rank":380,"kind_detail":"primary","min_zoom":8.0},"arcs":[1900]},{"type":"MultiLineString","properties":{"source":"openstreetmap.org","kind":"major_road","name:en":"Afriqia","landuse_kind":"urban_area","sort_rank":380,"kind_detail":"primary","min_zoom":8.0},"arcs":[[1901],[1902]]},{"type":"LineString","properties":{"kind":"major_road","name:en":"Fardus","sort_rank":380,"landuse_kind":"urban_area","source":"openstreetmap.org","min_zoom":8.0,"kind_detail":"primary","id":25026293},"arcs":[1903]},{"type":"LineString","properties":{"kind":"major_road","name:en":"Midan Kitkat","sort_rank":381,"landuse_kind":"urban_area","source":"openstreetmap.org","min_zoom":8.0,"kind_detail":"trunk","id":46717813},"arcs":[1904]},{"type":"MultiLineString","properties":{"kind":"major_road","name:en":"Cairo - Fayoum Road","sort_rank":381,"landuse_kind":"urban_area","source":"openstreetmap.org","min_zoom":8.0,"kind_detail":"trunk","ref":"22"},"arcs":[[1905],[1906]]},{"type":"MultiLineString","properties":{"source":"openstreetmap.org","kind":"major_road","name:en":"Kornash Elnil","kind_detail":"trunk","sort_rank":381,"landuse_kind":"urban_area","min_zoom":8.0},"arcs":[[1907],[1908]]},{"type":"MultiLineString","properties":{"source":"openstreetmap.org","kind":"major_road","name:en":"Abu Rawash road","sort_rank":380,"kind_detail":"primary","min_zoom":8.0},"arcs":[[1909],[1910]]},{"type":"LineString","properties":{"source":"openstreetmap.org","kind":"major_road","name:en":"Hassan El Maamoun","kind_detail":"trunk","sort_rank":381,"landuse_kind":"urban_area","min_zoom":8.0},"arcs":[1911]},{"type":"MultiLineString","properties":{"source":"openstreetmap.org","kind":"major_road","name:en":"El Bahr El Aazam","kind_detail":"trunk","sort_rank":381,"landuse_kind":"urban_area","min_zoom":8.0},"arcs":[[1912],[1913]]},{"type":"MultiLineString","properties":{"source":"openstreetmap.org","kind":"major_road","landuse_kind":"urban_area","sort_rank":380,"kind_detail":"primary","ref":"4","min_zoom":8.0},"arcs":[[1914],[1915]]},{"type":"LineString","properties":{"kind":"major_road","name:en":"Al-Zagazig - Belbes","sort_rank":380,"kind_detail":"primary","source":"openstreetmap.org","min_zoom":8.0,"landuse_kind":"urban_area","ref":"45","id":147344257},"arcs":[1916]},{"type":"LineString","properties":{"kind":"highway","name:en":"Ring Road","sort_rank":383,"kind_detail":"motorway","name:ar":"\u0627\u0644\u0637\u0631\u064a\u0642 \u0627\u0644\u062f\u0627\u0626\u0631\u064a","source":"openstreetmap.org","min_zoom":8.0,"landuse_kind":"urban_area","ref":"06","id":332892390},"arcs":[1917]},{"type":"LineString","properties":{"kind":"major_road","name:en":"Abu Al-Farag","sort_rank":380,"landuse_kind":"urban_area","source":"openstreetmap.org","min_zoom":8.0,"kind_detail":"primary","id":305775070},"arcs":[1918]},{"type":"LineString","properties":{"source":"openstreetmap.org","kind":"major_road","kind_detail":"trunk","sort_rank":381,"landuse_kind":"urban_area","ref":"02","min_zoom":8.0},"arcs":[1919]},{"type":"LineString","properties":{"source":"openstreetmap.org","kind":"major_road","name:en":"El Khamseen Str","kind_detail":"trunk","sort_rank":381,"landuse_kind":"urban_area","min_zoom":8.0},"arcs":[1920]},{"type":"LineString","properties":{"source":"openstreetmap.org","kind":"major_road","name:en":"Al-Septiyya","kind_detail":"primary","sort_rank":380,"landuse_kind":"urban_area","min_zoom":8.0},"arcs":[1921]},{"type":"MultiLineString","properties":{"source":"openstreetmap.org","kind":"major_road","name:en":"Ahmed El Zomor","sort_rank":380,"kind_detail":"primary","min_zoom":8.0},"arcs":[[1922],[1923]]},{"type":"MultiLineString","properties":{"kind":"major_road","alt_name:en":"Autostrad","sort_rank":381,"landuse_kind":"urban_area","source":"openstreetmap.org","min_zoom":8.0,"name:en":"El Nasr","kind_detail":"trunk","ref":"03"},"arcs":[[1924],[1925],[1926]]},{"type":"LineString","properties":{"kind":"highway","sort_rank":383,"kind_detail":"motorway","name:ar":"\u0645\u062d\u0648\u0631 \u0633\u0639\u062f \u0627\u0644\u062f\u064a\u0646 \u0627\u0644\u0634\u0627\u0630\u0644\u0649","source":"openstreetmap.org","min_zoom":8.0,"ref":"04","id":237844110},"arcs":[1927]},{"type":"LineString","properties":{"source":"openstreetmap.org","kind":"major_road","name:en":"El Nokrashy","sort_rank":380,"kind_detail":"primary","min_zoom":8.0,"id":89670990},"arcs":[1928]},{"type":"LineString","properties":{"kind":"major_road","name:en":"Mustafa Kamel","sort_rank":380,"landuse_kind":"urban_area","source":"openstreetmap.org","min_zoom":8.0,"kind_detail":"primary","id":271991457},"arcs":[1929]},{"type":"LineString","properties":{"kind":"major_road","name:en":"15 May Bridge","sort_rank":381,"kind_detail":"trunk","is_bicycle_related":true,"min_zoom":8.0,"name:de":"Br\u00fccke des 15. Mai","source":"openstreetmap.org","name:fr":"Pont du 15 Mai","landuse_kind":"urban_area","id":326374615},"arcs":[1930]},{"type":"LineString","properties":{"kind":"major_road","name:en":"Autostrad","sort_rank":381,"kind_detail":"trunk","source":"openstreetmap.org","min_zoom":8.0,"ref":"\u0627\u0644\u0623\u062a\u0633\u062a\u0631\u0627\u062f","id":155310310},"arcs":[1931]},{"type":"MultiLineString","properties":{"kind":"highway","name:en":"Cairo - Ismailia Desert Road","sort_rank":383,"kind_detail":"motorway","source":"openstreetmap.org","min_zoom":8.0,"landuse_kind":"urban_area","ref":"04"},"arcs":[[1932],[1933]]},{"type":"MultiLineString","properties":{"source":"openstreetmap.org","kind":"major_road","name:en":"26 July Corridor","kind_detail":"trunk","sort_rank":381,"landuse_kind":"urban_area","min_zoom":8.0},"arcs":[[1934],[1935]]},{"type":"LineString","properties":{"kind":"major_road","name:en":"Midan St. Fatima","sort_rank":380,"kind_detail":"primary","name:ar":"\u0645\u064a\u062f\u0627\u0646 \u0627\u0644\u0642\u062f\u064a\u0633\u0629 \u0641\u0627\u0637\u0645\u0629","source":"openstreetmap.org","min_zoom":8.0,"landuse_kind":"urban_area","id":4987205},"arcs":[1936]},{"type":"LineString","properties":{"kind":"major_road","name:en":"Zagazig - Minya Al-Kameh","sort_rank":381,"kind_detail":"trunk","is_bicycle_related":true,"source":"openstreetmap.org","min_zoom":8.0,"ref":"42","id":147344149},"arcs":[1937]},{"type":"MultiLineString","properties":{"source":"openstreetmap.org","kind":"major_road","name:en":"Maglis Al-Madina","kind_detail":"trunk","sort_rank":381,"landuse_kind":"urban_area","min_zoom":8.0},"arcs":[[1938],[1939]]},{"type":"MultiLineString","properties":{"source":"openstreetmap.org","kind":"major_road","name:en":"Al-Sowwah","landuse_kind":"urban_area","sort_rank":380,"kind_detail":"primary","min_zoom":8.0},"arcs":[[1940],[1941],[1942],[1943],[1944],[1945]]},{"type":"MultiLineString","properties":{"source":"openstreetmap.org","kind":"major_road","name:en":"Midan Al-Gezira","kind_detail":"primary","sort_rank":380,"landuse_kind":"urban_area","min_zoom":8.0},"arcs":[[1946],[1947],[1948]]},{"type":"MultiLineString","properties":{"kind":"major_road","name:en":"26th July","sort_rank":380,"kind_detail":"primary","min_zoom":8.0,"source":"openstreetmap.org","name:fr":"26 Juillet","landuse_kind":"urban_area"},"arcs":[[1949],[1950]]},{"type":"LineString","properties":{"kind":"major_road","name:en":"Cairo Alexandria Desert Road","sort_rank":380,"kind_detail":"primary","alt_name:ar":"\u0637\u0631\u064a\u0642 \u0627\u0644\u0642\u0627\u0647\u0631\u0629-\u0627\u0644\u0623\u0633\u0643\u0646\u062f\u0631\u064a\u0629 \u0627\u0644\u0635\u062d\u0631\u0627\u0648\u064a","source":"openstreetmap.org","min_zoom":8.0,"ref":"11","id":361942835},"arcs":[1951]},{"type":"LineString","properties":{"kind":"major_road","name:en":"Al Khosous Qibli - Al Saff Road","sort_rank":380,"kind_detail":"primary","is_bicycle_related":true,"source":"openstreetmap.org","min_zoom":8.0,"ref":"21"},"arcs":[1952]},{"type":"MultiLineString","properties":{"kind":"highway","alt_name:en":"Marioteya Overpass Connection Corridor","sort_rank":383,"landuse_kind":"urban_area","source":"openstreetmap.org","min_zoom":8.0,"name:en":"Ring Road","kind_detail":"motorway","ref":"06"},"arcs":[[1953],[1954],[1955],[1956]]},{"type":"MultiLineString","properties":{"source":"openstreetmap.org","kind":"major_road","name:en":"Suez Road","sort_rank":381,"kind_detail":"trunk","ref":"03","min_zoom":8.0},"arcs":[[1957],[1958]]},{"type":"MultiLineString","properties":{"source":"openstreetmap.org","kind":"major_road","name:en":"Dr. Abdel-Hamid Badawi","landuse_kind":"urban_area","sort_rank":380,"kind_detail":"primary","min_zoom":8.0},"arcs":[[1959],[1960]]},{"type":"LineString","properties":{"kind":"major_road","name:en":"El Galaa Bridge","sort_rank":381,"landuse_kind":"urban_area","source":"openstreetmap.org","min_zoom":8.0,"kind_detail":"trunk","id":29420455},"arcs":[1961]},{"type":"LineString","properties":{"kind":"major_road","name:en":"Al-Bahr Al-Aazam","sort_rank":381,"landuse_kind":"urban_area","source":"openstreetmap.org","min_zoom":8.0,"kind_detail":"trunk","id":54718819},"arcs":[1962]},{"type":"MultiLineString","properties":{"source":"openstreetmap.org","kind":"highway","name:en":"Eastern Cairo Asyout Road","sort_rank":383,"kind_detail":"motorway","min_zoom":8.0},"arcs":[[1963],[1964],[1965],[1966],[1967],[1968],[1969],[1970],[1971],[1972],[1973],[1974]]},{"type":"LineString","properties":{"kind":"highway","name:en":"Mehwar Saadeldin Al Shazly","sort_rank":383,"landuse_kind":"military","source":"openstreetmap.org","min_zoom":8.0,"kind_detail":"motorway","id":220650564},"arcs":[1975]},{"type":"MultiLineString","properties":{"source":"openstreetmap.org","kind":"major_road","name:en":"Mansoura - Meit Ghamr","sort_rank":381,"kind_detail":"trunk","min_zoom":8.0},"arcs":[[1976],[1977],[1978],[1979]]},{"type":"LineString","properties":{"kind":"major_road","name:en":"Khayrat","sort_rank":380,"kind_detail":"primary","is_bicycle_related":true,"source":"openstreetmap.org","min_zoom":8.0,"landuse_kind":"urban_area","id":24943183},"arcs":[1980]},{"type":"LineString","properties":{"kind":"highway","name:en":"Ring Road","sort_rank":383,"landuse_kind":"aerodrome","source":"openstreetmap.org","min_zoom":8.0,"kind_detail":"motorway","id":338011307},"arcs":[1981]},{"type":"LineString","properties":{"source":"openstreetmap.org","kind":"major_road","name:en":"Al-Mansuriyya","landuse_kind":"urban_area","sort_rank":380,"kind_detail":"primary","min_zoom":8.0},"arcs":[1982]},{"type":"LineString","properties":{"kind":"highway","name:en":"Mehwar Saadeldin El Shazly","sort_rank":383,"landuse_kind":"military","source":"openstreetmap.org","min_zoom":8.0,"kind_detail":"motorway","id":240176429},"arcs":[1983]},{"type":"MultiLineString","properties":{"source":"openstreetmap.org","kind":"major_road","name:en":"Al-Septiyya Tunnel","landuse_kind":"urban_area","sort_rank":380,"kind_detail":"primary","min_zoom":8.0},"arcs":[[1984],[1985]]},{"type":"MultiLineString","properties":{"source":"openstreetmap.org","kind":"major_road","sort_rank":380,"kind_detail":"primary","ref":"31","min_zoom":8.0},"arcs":[[1986],[1987]]},{"type":"MultiLineString","properties":{"source":"openstreetmap.org","kind":"major_road","name:en":"El Khalifa El Ma'moun","landuse_kind":"urban_area","sort_rank":380,"kind_detail":"primary","min_zoom":8.0},"arcs":[[1988],[1989]]},{"type":"MultiLineString","properties":{"source":"openstreetmap.org","kind":"major_road","name:en":"Dr. Abdel-Hamid Badawy","kind_detail":"trunk","sort_rank":381,"landuse_kind":"urban_area","min_zoom":8.0},"arcs":[[1990],[1991]]},{"type":"MultiLineString","properties":{"source":"openstreetmap.org","kind":"major_road","name:en":"El-Nil","kind_detail":"trunk","sort_rank":381,"landuse_kind":"urban_area","min_zoom":8.0},"arcs":[[1992],[1993]]},{"type":"MultiLineString","properties":{"source":"openstreetmap.org","kind":"major_road","name:en":"El Sayed El Merghani","landuse_kind":"urban_area","sort_rank":380,"kind_detail":"primary","min_zoom":8.0},"arcs":[[1994],[1995]]},{"type":"MultiLineString","properties":{"source":"openstreetmap.org","kind":"major_road","name:en":"El Nasr","kind_detail":"trunk","sort_rank":381,"landuse_kind":"aerodrome","min_zoom":8.0},"arcs":[[1996],[1997]]}]},"earth":{"type":"GeometryCollection","geometries":[{"type":"MultiPolygon","properties":{"sort_rank":10,"source":"naturalearthdata.com","min_zoom":0.0,"kind":"earth","area":67897299458},"arcs":[[[1998]]]}]},"landuse":{"type":"GeometryCollection","geometries":[{"type":"Polygon","properties":{"kind":"aerodrome","area":12766900,"sort_rank":60,"operator":"Military","source":"openstreetmap.org","min_zoom":8.0,"tier":3,"id":105569827},"arcs":[[1999]]},{"type":"MultiPolygon","properties":{"source":"openstreetmap.org","kind":"military","tier":3,"area":238975995,"sort_rank":45,"min_zoom":8.0},"arcs":[[[2000]],[[2001]],[[2002]],[[2003]]]},{"type":"MultiPolygon","properties":{"source":"naturalearthdata.com","kind":"urban_area","name":"","area":3477480964,"sort_rank":11,"min_zoom":4.0},"arcs":[[[2004]],[[2005]],[[2006]],[[2007]],[[2008]],[[2009]],[[2010]],[[2011]],[[2012]],[[2013]],[[2014]],[[2015]],[[2016]]]},{"type":"MultiPolygon","properties":{"source":"openstreetmap.org","kind":"aerodrome","tier":3,"area":104227868,"sort_rank":60,"min_zoom":8.0},"arcs":[[[2017],[2018]],[[2019]],[[2020]]]}]}},"type":"Topology","transform":{"translate":[30.9375,29.5352295629],"scale":[0.0003433228,0.0002968868]},"arcs":[[[0,2527],[51,-9],[39,-167],[65,-89],[67,-32],[112,73],[48,0],[215,-162]],[[900,3501],[-132,33],[-98,106],[-106,57],[-171,10],[-51,99],[-189,9],[-153,110]],[[597,2141],[-110,229],[34,93],[-80,53],[53,137],[-69,38],[-83,118],[32,24],[84,-41],[50,105],[-50,60],[6,29],[35,-6],[35,-78],[30,9],[9,70],[-24,62],[140,55],[25,108],[119,90],[2,115],[93,-20],[-41,73],[13,37]],[[0,595],[251,15],[186,-610]],[[2770,0],[52,718]],[[2822,718],[-314,17],[-194,53],[-589,-18],[-191,-35],[-391,-1],[-126,43],[28,125],[-36,367],[-38,103],[-101,71],[-45,170],[30,266],[-57,103],[-135,65],[-66,94]],[[900,3501],[46,45],[40,261],[-18,91],[-56,76],[9,66],[-65,56]],[[4096,2333],[-113,55],[-366,3],[-897,-52],[110,-802],[-8,-819]],[[889,1986],[19,-31],[-8,-27],[-1,-3],[2,-6],[-4,-5],[0,-5],[-1,-36],[1,-15],[-1,-38],[0,-15],[0,-19],[-1,-7],[0,-1],[6,-42],[-8,-19],[-48,-6],[-80,-25],[-5,-5],[-1,-2],[0,-3],[21,-64],[7,-16],[4,-73],[2,-9],[2,-4],[4,-7],[2,-4]],[[901,1930],[0,-11],[-4,-10],[0,-51],[-1,-72],[-1,-8],[6,-42],[-8,-19],[-134,-38],[28,-83],[14,-96]],[[1132,1875],[1,-47],[-27,-17],[-75,-13],[-2,1],[-15,13],[-3,-1],[-22,-25],[-68,-45],[-18,4]],[[903,1745],[18,-4],[26,24],[4,4],[12,6],[23,10],[3,1],[20,25],[2,1],[3,0],[12,-9],[3,-4],[2,-1],[18,10],[7,3],[8,3],[4,1],[16,7],[1,-1],[2,-1],[16,-10],[3,1],[14,9],[13,8],[-1,47]],[[1001,1354],[-51,52]],[[950,1406]],[[950,1406],[-2,2],[-1,1],[-2,3],[-77,123],[-16,20],[-3,8],[17,170],[193,147],[109,236]],[[1001,1354]],[[1001,1354],[155,-296]],[[933,1432],[2,-3],[-1,0],[-1,3]],[[949,1408],[1,-2]],[[950,1406],[-1,2]],[[710,3092],[-13,46]],[[710,3096],[21,19]],[[710,3096],[9,22],[114,-23],[113,69],[159,44],[85,106],[431,207]],[[1621,3521],[4,2]],[[1625,3523],[3,0]],[[1628,3523],[8,1],[14,4]],[[928,1843],[-4,90],[-68,115],[-146,1044]],[[710,3092],[0,4]],[[840,2165],[0,3]],[[840,2168],[-2,10]],[[838,2178],[1,29],[156,192],[99,217]],[[899,1777],[29,66]],[[904,1783],[24,60]],[[1094,2616],[16,9]],[[1110,2625],[700,389],[-94,397],[-90,112]],[[1626,3523],[-1,0]],[[1625,3523],[-2,-1]],[[1548,3486],[72,34]],[[1620,3520],[6,3]],[[1626,3523],[2,0]],[[1628,3523],[7,1],[13,3]],[[1648,3527],[2,1]],[[1620,3520],[1,1]],[[1621,3521],[2,1]],[[1623,3522],[3,1]],[[1626,3523],[23,5]],[[1626,3523],[10,2],[12,3]],[[1648,3528],[4,1]],[[1628,3523],[1,1],[2,0]],[[1628,3523],[7,1],[11,3],[2,0]],[[1648,3528],[1,0]],[[1649,3528],[60,32],[434,-189],[262,105],[262,-67],[330,69],[345,-49],[289,100],[154,-30],[110,69]],[[231,4096],[167,-367],[79,-68]],[[916,0],[-1,252],[76,171],[-64,199],[64,473],[-39,203],[-156,210],[-62,256],[67,63],[111,-41],[17,124],[-73,135],[-146,1047]],[[710,3092],[-209,518]],[[478,3660],[22,-49]],[[710,3092],[-13,46]],[[219,4096],[179,-367],[79,-68]],[[478,3660],[22,-49]],[[899,1777],[28,33],[1,108],[-72,127],[-146,1047]],[[710,3092],[-209,518]],[[710,3092],[-13,46]],[[1167,2116],[-108,-236],[-193,-147],[-18,-167],[144,-194],[163,-315]],[[934,1429],[-1,3],[1,-3]],[[948,1408],[2,-3],[-2,3]],[[4096,2573],[-36,36],[-63,89],[-38,35],[27,93],[13,22],[-14,64],[60,45],[51,20],[0,-404]],[[4096,238],[0,-60],[-18,15],[0,25],[18,20]],[[4096,178],[-18,15],[0,25],[18,20]],[[4096,2573],[-36,36],[-63,89],[-38,35],[27,93],[13,22],[-14,64],[60,45],[51,20]],[[1469,1746],[-38,-2],[-7,0]],[[1424,1744],[-20,-1],[-22,2]],[[1387,1746],[37,-2]],[[1424,1744],[7,-1],[38,-3]],[[1525,1746],[-55,-3]],[[1471,1737],[54,7]],[[1542,1748],[-14,-2]],[[1528,1744],[15,0]],[[1564,1751],[-16,-3]],[[1549,1745],[15,4]],[[1635,1746],[-68,5]],[[1567,1749],[67,-5]],[[971,1589],[10,-13]],[[981,1576],[42,-57],[-4,-77]],[[1019,1442],[0,-2],[0,-2]],[[1020,1438],[0,2],[-1,2]],[[1019,1442],[-10,94],[-28,40]],[[981,1576],[-10,13]],[[593,1520],[9,-29]],[[602,1491],[-8,30]],[[130,1593],[1,1],[-1,1],[-2,-1],[2,-1]],[[819,1690],[-7,-28]],[[3860,3764],[-34,-70]],[[760,1685],[-14,29]],[[747,1717],[-6,73],[26,16],[37,-17]],[[778,1615],[1,4],[-19,64]],[[804,1790],[-37,16],[-26,-16],[5,-76],[31,-90]],[[1578,3607],[-10,7]],[[468,1389],[-117,34]],[[864,1619],[1,0]],[[865,1619],[51,8]],[[916,1627]],[[926,1641],[-10,-14]],[[916,1627],[-8,-12],[-43,4]],[[865,1619],[-1,0]],[[1574,2117],[-8,-2]],[[2338,2586],[25,-75]],[[2363,2510],[5,-15]],[[1249,1930],[14,7]],[[1115,1737],[26,-25]],[[961,1605],[10,-16]],[[971,1589],[-9,16]],[[812,1662],[-16,-3]],[[798,1658],[14,2]],[[815,1662],[-2,0]],[[813,1661],[2,0]],[[860,1852],[14,-6]],[[866,1851],[-6,3]],[[1010,75],[-1,-75]],[[1010,75],[1,86]],[[556,1529],[21,-14]],[[568,1523],[9,-8]],[[847,1681],[4,-17]],[[1308,1923],[3,-5]],[[1312,1910],[-2,26]],[[1214,1683],[-2,-32]],[[1213,1654],[7,68]],[[819,1689],[3,11]],[[1403,2065],[7,-2]],[[1410,2063],[-7,3]],[[531,1507],[-58,-117]],[[473,1390],[59,116]],[[894,1732],[-1,3]],[[892,1977],[-7,-21]],[[885,1956],[6,13]],[[1175,1858],[-9,-61]],[[1169,1798],[7,59]],[[1183,1903],[-1,2],[-3,-1],[2,-3],[2,2]],[[784,3103],[50,-9],[106,67]],[[940,3161],[-106,-67],[-50,9]],[[940,3161],[22,7]],[[962,3168],[140,38],[1,1]],[[1103,3207],[16,17]],[[1119,3224],[12,13],[1,1]],[[1588,3505],[-394,-189],[-63,-79],[-12,-13]],[[1119,3224],[-15,-17],[-1,0]],[[1103,3207],[-141,-39]],[[852,1641],[18,73]],[[913,1735],[54,-21]],[[870,1715],[-1,1],[-2,-1],[1,-1],[2,1]],[[814,1616],[1,-3]],[[821,1708],[1,-5]],[[822,1703],[-1,4]],[[1585,3520],[3,-16]],[[1588,3505],[-3,15]],[[795,1616],[-13,-3]],[[816,1619],[-15,-2]],[[807,1617],[9,2]],[[815,1611],[-15,-102]],[[804,1517],[13,89]],[[170,4096],[-2,-31]],[[193,3586],[13,-61]],[[206,3525],[11,-135]],[[217,3390],[-11,135]],[[1748,1856],[-4,-1]],[[1946,1928],[-123,-45]],[[1832,1886],[114,42]],[[829,1619],[16,0]],[[845,1619],[-16,0]],[[808,1727],[-10,-1]],[[798,1723],[8,3]],[[1194,1750],[-4,0]],[[1190,1939],[0,1],[-1,2],[-1,-1],[2,-2]],[[1845,2990],[13,-13]],[[1858,2977],[-12,13]],[[965,1800],[13,4]],[[819,1668],[34,71]],[[554,1531],[2,-2]],[[804,1776],[-16,-3]],[[789,1769],[18,6]],[[2835,825],[-125,274],[-192,135],[-378,18]],[[2156,1250],[361,-18],[192,-136],[119,-269],[74,-41],[247,-39],[74,-92],[174,-107],[316,-52],[262,-153]],[[1636,1747],[-2,-2],[0,-2],[4,2],[-2,2]],[[893,1714],[1,18]],[[1147,1941],[35,10]],[[1182,1952],[-34,-10]],[[1480,1618],[1,2],[-2,1],[0,-2],[1,-1]],[[1172,1882],[-5,-3]],[[1189,1894],[-6,-4]],[[908,1738],[-5,0]],[[905,1735],[34,-13]],[[938,1723],[-28,13]],[[1238,1498],[-44,122]],[[1214,1805],[9,-52]],[[1223,1754],[-8,52]],[[168,4065],[25,-479]],[[217,3390],[1,-17]],[[218,3373],[-1,17]],[[285,3041],[-81,203],[26,44],[-12,85]],[[393,2516],[-106,281],[25,79],[-23,138]],[[393,2516],[9,-26]],[[398,2507],[-5,9]],[[402,2490],[-4,16]],[[499,2245],[-62,108],[-35,137]],[[1136,1934],[-17,-17]],[[1119,1916],[11,12]],[[1058,733],[20,-9]],[[1195,864],[-59,-115],[-78,-15]],[[1079,724],[58,25],[58,113]],[[861,1708],[-1,3]],[[0,1768],[128,-174]],[[130,1595],[-130,174]],[[125,1592],[-66,-61]],[[59,1531],[-19,-18]],[[41,1514],[18,17]],[[59,1531],[68,61]],[[114,1737],[6,-42]],[[135,1596],[187,118]],[[322,1716],[-187,-119]],[[199,1499],[-8,-22]],[[289,3014],[-4,27]],[[296,1605],[-1,0]],[[295,1605],[0,1]],[[295,1606]],[[295,1605]],[[295,1605],[1,0],[0,1]],[[354,1635],[-7,3],[-45,-27],[-7,-5]],[[295,1606],[0,-1]],[[295,1605],[2,-2]],[[296,1606],[58,29]],[[297,1603],[-1,3]],[[297,1603],[40,-56],[-14,-18]],[[329,1874],[-17,5]],[[312,1879],[-2,0]],[[310,1879],[-12,4]],[[300,1880],[9,-8]],[[311,1882],[-1,-3]],[[310,1879],[-1,-7]],[[309,1872],[2,-9],[1,0]],[[311,1869],[1,10]],[[312,1879],[0,4]],[[311,1865],[2,1]],[[313,1864],[30,9],[1,4],[-33,-12]],[[313,1866],[16,7]],[[354,1635],[19,16]],[[377,1609],[-2,-11]],[[378,1608],[-2,-7]],[[378,1623],[-1,-1]],[[377,1622],[0,2]],[[377,1622],[1,-12]],[[377,1624],[1,0]],[[382,1642],[-5,-18]],[[378,1622],[1,-13]],[[385,1641],[-7,-17]],[[378,1624],[0,-1]],[[378,1645],[47,-25]],[[378,1623],[3,0]],[[381,1623],[1,0]],[[382,1623],[3,1]],[[378,1623]],[[378,1623],[3,0]],[[381,1623]],[[381,1623],[4,0]],[[398,2506],[0,1]],[[588,3423],[10,-15]],[[598,3408],[-10,15]],[[678,3214],[6,-12]],[[684,3202],[-1,3]],[[877,4026],[-27,-51],[5,-1]],[[856,3976],[21,47]],[[878,4028],[0,-1]],[[878,4027],[0,-1]],[[1162,3277],[31,-4],[14,37]],[[1287,1715],[-3,-21]],[[1286,1694],[19,19],[50,-24]],[[1287,1715]],[[1288,1715],[4,0]],[[1355,1695],[-57,31]],[[1333,1736],[0,1]],[[1334,1737],[0,-1]],[[1353,1690],[1,2]],[[1379,1622],[1,0]],[[1391,1860],[26,-19],[4,3]],[[1421,1844],[26,15]],[[1447,1859],[15,9]],[[1467,1876],[-20,-17]],[[1447,1859],[-22,-18],[-4,3]],[[1421,1844],[-28,18]],[[1431,1744],[0,-1]],[[1435,2361],[23,-10]],[[1459,2351],[0,1]],[[1459,2352],[-23,14]],[[1450,1744],[0,-1]],[[1456,1744],[0,-1]],[[1458,2350],[-1,-112]],[[1458,2238],[2,111]],[[1460,2349],[0,1]],[[1513,2412],[-2,-3]],[[1511,2409],[-4,-4]],[[1507,2405],[-48,-53]],[[1459,2352]],[[1459,2350],[1,-1]],[[1460,2349],[54,-30]],[[1501,2436],[6,-31]],[[1507,2405],[0,-2]],[[1507,2403],[9,-46]],[[1517,2357],[-6,50]],[[1511,2407],[0,2]],[[1511,2409],[-4,33]],[[1511,2269],[3,-5]],[[1511,2270],[4,4]],[[1514,2323],[-54,28],[47,52]],[[1507,2403],[4,4]],[[1511,2407],[3,3]],[[1517,2357],[-1,-1],[1,-1],[0,1],[0,1]],[[1573,2128],[-17,42]],[[1589,3501],[0,4]],[[1640,1647],[14,-6]],[[1654,1641],[2,-1]],[[1657,1639],[-3,2]],[[1654,1641],[-13,7]],[[1655,1639],[46,-37]],[[1703,1605],[-46,33]],[[1664,3488],[5,27]],[[1665,3487],[17,22]],[[1682,3509],[0,1],[4,4]],[[1685,3515],[-4,-6]],[[1682,3509]],[[1682,3509],[111,-99]],[[1696,1720],[9,-13]],[[1706,1713],[-9,8]],[[1704,1600],[40,-62]],[[1747,1541],[-41,61]],[[1708,1710],[-2,2]],[[1726,3598],[49,43]],[[1731,3580],[44,61]],[[1926,3461],[-182,63]],[[1744,3524],[182,-63]],[[1746,1534],[14,-43]],[[1761,1491],[-13,45]],[[1775,3641],[129,168]],[[1904,3809],[24,32]],[[1928,3841],[20,25],[208,179],[239,32],[73,-20]],[[1881,3797],[23,12]],[[1904,3809],[20,10],[4,22]],[[1928,3841],[3,11]],[[1900,2167],[51,-241],[4,-7]],[[1915,3012],[337,244],[-3,113],[-28,19]],[[1926,3461],[7,-3]],[[1933,3458],[108,-51]],[[1958,1920],[-7,9]],[[1956,1718],[323,-3]],[[2317,1714],[-97,0]],[[2220,1714],[-261,-2]],[[1967,1714],[253,0]],[[2220,1714],[97,0]],[[2142,4036],[-40,60]],[[2041,3407],[106,-49]],[[2297,2574],[-59,-38]],[[2238,2535],[59,38]],[[2240,3384],[171,86],[234,-68],[134,8],[97,42],[274,0]],[[2278,2373],[164,-236]],[[2442,2140],[-41,61]],[[2401,2201],[-120,175]],[[4096,2096],[-144,41],[-425,4],[-221,105],[-118,-72],[-137,-44],[-136,35],[-164,-16],[-215,52],[-135,0]],[[2401,2201],[-2,0]],[[2463,2602],[-28,-4]],[[2436,2597],[27,5]],[[2442,2137],[-94,-110],[0,-1]],[[2348,2026],[10,-106],[-6,-16],[-4,121],[0,1]],[[2348,2026],[94,111]],[[2471,4044],[-5,5]],[[2496,4014],[-4,4]],[[2534,3998],[-8,0]],[[2582,4026],[218,70]],[[2611,4026],[-26,-14]],[[3638,3634],[-23,-45]],[[3617,3591],[23,42]],[[4033,3695],[47,186],[-47,-186]],[[378,1609],[-1,1],[2,0],[0,-1],[-1,0]],[[380,1623],[1,0]],[[381,1623],[0,1],[1,-1]],[[382,1623],[-1,0]],[[381,1623]],[[381,1623],[-1,0]],[[854,3975],[1,-1]],[[855,3974],[1,2],[-1,1],[-1,-2]],[[1439,1639],[-2,0],[-1,-2],[3,0],[0,2]],[[1460,2350],[-1,1]],[[1459,2351],[-1,0]],[[1458,2351],[1,-1]],[[1459,2350],[1,0]],[[1475,1657],[-3,2],[-2,-3],[3,-1],[2,2]],[[1528,1745],[-2,2],[-1,-2],[2,-2],[1,2]],[[1565,1748],[2,2],[-2,2],[-1,-2],[1,-2]],[[1573,2128],[-1,0],[0,-2],[1,0],[0,2]],[[1695,1720],[2,1],[-2,2],[-1,-2],[1,-1]],[[1701,1603],[1,-3],[4,1],[-2,3],[-3,-1]],[[1761,1491],[-2,-1],[1,-3],[2,2],[-1,2]],[[2089,1322],[-36,33],[30,36],[38,-30],[-32,-39]],[[714,3086],[19,23]],[[846,1567],[0,-2]],[[847,1559],[1,-1]],[[852,1746],[3,-9]],[[331,989],[11,-52],[-85,-211],[-10,-195],[-49,-107],[184,-424]],[[384,0],[-183,429],[48,101],[9,195],[86,213],[-1,86]],[[8,4096],[84,-89],[36,-28],[25,-16]],[[153,3964],[-144,132]],[[294,3958],[-2,12],[-10,1],[-117,-7]],[[165,3964],[92,5]],[[260,3969],[31,-4]],[[284,3971],[5,-3]],[[3912,3558],[-147,-77]],[[3886,3599],[10,-31]],[[3962,3602],[-76,-3]],[[3912,3558],[69,2],[12,16]],[[3980,3560],[-68,-2]],[[3983,3589],[-20,13]],[[3992,3577],[-12,-17]],[[3980,3560],[1,1]],[[3983,3587],[9,-10]],[[3993,3578],[-9,10]],[[4002,3549],[44,-6]],[[3984,3588],[0,1],[-2,0],[1,-2],[1,1]],[[3993,3577],[0,1]],[[3993,3578],[-1,-1]],[[3992,3577],[1,-1]],[[3993,3576],[0,1]],[[1507,2766],[306,166]],[[1129,1792],[106,35]],[[1605,2117],[24,4]],[[1622,2121],[-9,-2]],[[822,1699],[-3,-10]],[[1107,1454],[139,11]],[[913,144],[2,-144]],[[916,0],[-3,283],[78,129],[-48,160]],[[1301,1732],[-129,-15]],[[1172,1716],[129,16]],[[921,1937],[6,-23]],[[928,1914],[-7,23]],[[878,1679],[7,-4]],[[1191,1618],[21,-118]],[[2289,2385],[-17,-14]],[[2272,2371],[17,13]],[[3859,3764],[28,54],[-33,190]],[[263,4050],[7,-40],[150,-279],[59,-71],[22,-50],[88,-187],[7,-8],[88,-206],[3,-2]],[[687,3207],[-90,208],[-118,246],[-59,70],[-157,319]],[[742,3068],[-21,-49],[58,-268],[-1,-4],[2,-147]],[[820,2295],[-49,210],[22,47],[-14,198],[-58,270],[21,48]],[[780,2599],[12,-47],[-12,-11],[-10,-37],[49,-209]],[[128,1594],[-84,-63],[0,-2]],[[44,1529],[0,-3]],[[44,1526],[-1,-19],[48,-65]],[[92,1443],[-48,83]],[[44,1526],[-1,2],[1,1]],[[44,1529],[86,64]],[[135,1596],[201,128],[160,50]],[[496,1774],[-86,-15],[-74,-35],[-201,-127]],[[945,571],[48,-143],[-88,-187],[8,-97]],[[867,1715],[-6,-7]],[[1236,1835],[40,-4]],[[1276,1831],[-40,4]],[[1302,1835],[89,-1]],[[1391,1834],[-88,1]],[[859,1498],[-12,50]],[[856,1708],[-7,-83]],[[849,1625],[3,16]],[[1128,1192],[110,-96],[-37,-202]],[[1199,881],[-4,-17]],[[1386,1620],[6,3]],[[754,1799],[34,-30]],[[789,1772],[-34,28]],[[887,1717],[-5,-19]],[[894,1916],[-10,-8]],[[3911,2749],[5,-39],[17,-24]],[[3933,2687],[-21,60]],[[1117,1895],[-19,-18]],[[1005,1817],[1,0]],[[1065,1764],[-38,38]],[[1029,1800],[34,-38]],[[1816,2813],[204,-87],[250,-288],[5,-61]],[[2276,2381],[-5,58],[-252,289],[-203,86]],[[1172,1882],[12,7]],[[1168,1747],[-33,-4]],[[760,1685],[0,-2]],[[237,1793],[88,-63]],[[880,1716],[5,0]],[[981,1732],[-18,-5]],[[3764,3472],[-83,-3]],[[3683,3469],[74,2]],[[3765,3481],[-70,7]],[[3764,3471],[26,-34]],[[3792,3437],[-27,35]],[[4016,2562],[-71,107]],[[3945,2669],[-12,18]],[[3933,2686],[12,-17]],[[3945,2669],[73,-108]],[[1638,3530],[24,25]],[[1662,3555]],[[1662,3555]],[[1662,3555],[-21,-25]],[[1645,3534],[1,0]],[[842,1712],[-3,39]],[[0,1848],[148,81],[172,-56],[124,28],[101,-7],[80,5]],[[624,1900],[-181,2],[-124,-28],[-171,57],[-148,-81]],[[1629,3518],[17,-6]],[[1126,1853],[-1,-1]],[[1125,1852],[2,0]],[[879,1654],[18,-19]],[[1054,1757],[-77,-59]],[[978,1698],[76,58]],[[892,1933],[14,-7]],[[870,2011],[-16,45]],[[1566,2115],[-20,-16]],[[1561,2111],[2,1]],[[847,1548],[6,-41]],[[852,1663],[2,1]],[[1559,2103],[2,8]],[[1951,1929],[-43,239]],[[495,1552],[97,47]],[[593,1600],[-98,-47]],[[921,1937],[-23,34]],[[898,1971],[-6,9]],[[892,1978],[29,-41]],[[898,1971]],[[898,1971]],[[904,1784],[19,28]],[[926,1830],[-22,-46]],[[931,1749],[2,1],[1,3],[-1,-1],[-2,-3]],[[814,1619],[0,-1]],[[1194,1620],[-14,37],[-84,69]],[[1096,1725],[86,-79]],[[849,1758],[3,-2]],[[860,1753],[-10,5]],[[1538,2104],[67,13]],[[1613,2119],[-74,-14]],[[2272,2371],[-210,-166],[-440,-84]],[[1629,2121],[433,83],[210,167]],[[864,1786],[-20,12]],[[846,1796],[18,-11]],[[781,1561],[9,-5]],[[796,1567],[-14,-5]],[[790,1571],[-2,-7]],[[812,1660],[1,0],[-1,2],[0,-2]],[[764,1979],[75,-113],[-34,-76]],[[840,1844],[0,1]],[[840,1845],[0,21],[-69,109]],[[805,1790],[28,32],[7,23]],[[840,1845]],[[787,1691],[0,1]],[[870,1715],[10,1]],[[1168,1928],[0,2],[-1,0],[-1,-1],[2,-1]],[[1223,1753],[-3,-30]],[[1221,1723],[2,31]],[[1617,3518],[2,0]],[[1619,3519],[2,1],[-2,-1]],[[1619,3519]],[[1619,3519],[0,-1],[0,1]],[[1171,1716],[-30,-3]],[[1141,1712],[31,4]],[[1025,874],[24,-8]],[[901,1772],[-32,-31]],[[828,1702],[-4,-1]],[[824,1701],[4,1]],[[904,1774],[-47,-40]],[[868,1738],[2,3]],[[762,3107],[22,-4]],[[784,3103],[-22,4]],[[833,1661],[-18,1]],[[815,1661],[18,0]],[[1450,1833],[309,22],[73,31]],[[1744,1855],[-294,-21]],[[1823,1883],[-75,-27]],[[4096,1837],[-114,29]],[[3982,1866],[-58,15]],[[3924,1881],[-8,2],[-187,-33],[-111,-63],[-263,-1],[-327,64],[-964,113],[-118,-35]],[[1946,1928],[117,33],[121,-25],[473,-51],[371,-35],[324,-65],[266,1],[111,63],[195,32]],[[3924,1881],[13,2],[45,-17]],[[3982,1866],[114,-43]],[[778,3176],[-11,-12]],[[768,3164],[10,11]],[[812,1635],[-11,-18]],[[801,1616],[11,19]],[[865,1728],[3,-12]],[[867,1721],[-2,12]],[[1161,1796],[7,-49]],[[1216,1688],[-33,-39]],[[1185,1640],[32,47]],[[812,1662],[7,28]],[[1143,1865],[7,-4]],[[1152,1860],[-9,6]],[[962,1605],[-12,33]],[[951,1635],[10,-30]],[[952,1657],[9,19]],[[945,4070],[38,-155]],[[983,3915],[-38,154]],[[1671,3550],[-25,-21]],[[917,1789],[-2,2],[-16,6]],[[899,1796],[19,-9]],[[971,1803],[56,57]],[[459,1648],[92,-113],[-92,115]],[[1626,1662],[81,45],[37,58]],[[199,1474],[-68,120]],[[1125,1852],[-89,-50]],[[1040,1805],[85,47]],[[855,1664],[9,-2]],[[866,1662],[-7,3]],[[1534,2004],[1,1]],[[853,1641],[-1,0]],[[853,1643]],[[853,1643],[0,-2]],[[853,1643]],[[853,1643],[1,-1]],[[853,1641],[61,-15]],[[916,1628],[-63,13]],[[1889,1910],[2,-3]],[[1890,1910],[1,-3]],[[1892,1907],[-2,3]],[[1893,1907],[-2,4]],[[0,123],[83,250],[2,11]],[[84,384],[-84,-259]],[[473,1390],[-74,-252],[-208,-375],[-107,-378]],[[85,385],[108,380],[206,371],[74,254]],[[999,3962],[-25,12],[-4,43]],[[1535,3572],[39,-33]],[[1581,3541],[-44,34]],[[891,1777],[0,-2]],[[891,1775],[-2,-15],[0,-2]],[[890,1772],[1,3]],[[891,1775],[0,2]],[[896,1786],[-5,-8]],[[892,1778],[3,6]],[[897,1895]],[[906,1895],[-9,1]],[[897,1895],[9,-1]],[[1054,1756],[10,6]],[[1637,1744],[57,-22]],[[1695,1723],[-57,23]],[[1178,1885],[-4,-31]],[[1175,1854],[4,31]],[[1181,1902],[-2,-13]],[[1180,1889],[1,12]],[[1183,1920],[-2,-15]],[[1188,1939],[-5,-17]],[[1184,1921],[5,18]],[[1858,2977],[29,-35],[-43,-42]],[[1844,2900],[43,41],[-29,36]],[[884,1908],[-2,-3]],[[882,1905],[-20,-50]],[[862,1855],[-17,-41],[0,-8]],[[845,1806],[5,-41]],[[850,1765],[2,-19]],[[856,1734],[-6,31]],[[850,1765],[-7,34],[2,7]],[[845,1806],[17,49]],[[862,1855],[7,23],[12,26],[1,1]],[[882,1905],[12,11]],[[1181,1885],[16,-16]],[[1198,1869],[-17,17]],[[1212,1500],[-3,-6]],[[1177,1887],[-51,-34]],[[1127,1852],[45,30]],[[1410,2271],[-6,-21],[1,-4]],[[1405,2246],[28,-76],[-12,-27]],[[1421,2143],[-9,-20],[13,-54]],[[1432,2072],[-11,71]],[[1421,2143],[-16,103]],[[1405,2246],[-1,4],[6,21]],[[2368,2493],[9,-36]],[[858,1806],[-1,-1]],[[1152,1860],[-1,1]],[[886,1674],[11,2],[36,74]],[[931,1749],[-45,-74]],[[949,1788],[-16,-36]],[[944,1775],[-10,-22]],[[944,1776],[6,12]],[[1005,1929],[-47,-123]],[[958,1806],[49,125]],[[1111,574],[-85,-47]],[[1026,526],[85,47]],[[883,1905],[14,-10]],[[897,1897],[-13,9]],[[862,1734],[-2,-2]],[[1013,1815],[-1,0]],[[1012,1815],[-58,-18]],[[1012,1814],[0,1]],[[1012,1815],[-2,2]],[[844,1855],[-3,-4],[-1,-7]],[[840,1845],[14,9]],[[854,1854],[-8,1]],[[855,1737],[2,-24]],[[858,1713],[-1,10]],[[1246,1954],[13,-14]],[[1258,1942],[-5,6]],[[795,1616],[10,6]],[[1078,724],[1,0]],[[885,1956],[9,-32]],[[895,1924],[-10,32]],[[1844,2900],[-45,-43],[16,-43]],[[1816,2814],[-15,44],[43,42]],[[1305,1890],[-1,2]],[[1311,1918],[-6,-16]],[[1343,1875],[28,-1],[4,-3]],[[1375,1871],[15,-11]],[[1349,1996],[-1,0]],[[1348,1998],[2,0]],[[1393,1862],[-14,9],[-4,0]],[[1375,1871],[-24,1]],[[551,1535],[3,-4]],[[615,1530],[163,71]],[[619,1531],[159,70]],[[782,1603],[-5,-2]],[[778,1601],[4,2]],[[801,1617],[-6,-1],[-10,-10]],[[786,1605],[3,4]],[[862,1816],[-14,5]],[[921,1894],[76,-20]],[[986,1879],[-3,1]],[[983,1880],[-32,9],[-7,1],[-23,4]],[[997,1874],[-14,6]],[[983,1880],[-7,3],[-1,0]],[[791,1604],[-1,-42],[2,-20]],[[792,1542],[4,-32]],[[793,1521],[-1,21]],[[792,1542],[-1,62]],[[859,1729],[38,38],[79,36],[25,12]],[[1001,1815],[4,2]],[[866,1730],[3,6]],[[954,1797],[-53,-25]],[[997,1811],[4,4]],[[1001,1815],[1,1]],[[780,2600],[0,-1]],[[1549,1747],[-4,3],[-3,-4],[3,-3],[4,4]],[[776,1660],[-7,-2]],[[770,1658],[6,2]],[[1567,1663],[-2,2],[-2,-2],[2,-2],[2,2]],[[1140,1713],[-24,24]],[[821,1700],[-61,-15]],[[760,1683],[61,17]],[[868,1716],[-11,-2]],[[857,1713],[10,2]],[[912,1620],[11,-29],[-70,-18],[-6,-11]],[[847,1562],[77,28],[-11,34]],[[1125,1923],[52,-36]],[[1178,1888],[-52,36]],[[888,1738],[-1,-21]],[[1079,1771],[11,-35]],[[1091,1736],[-10,36]],[[1096,1725],[-6,10]],[[1096,1726],[-5,9]],[[824,1690],[0,9]],[[895,1784],[26,77]],[[928,1882],[-7,-19]],[[921,1861],[1,1],[-1,1],[0,-1],[0,-1]],[[922,1863],[6,15]],[[630,1414],[-8,-3]],[[622,1410],[8,3]],[[3790,3437],[36,-99],[85,-589]],[[3912,2747],[-86,591],[-34,99]],[[4096,2468],[-27,20]],[[4069,2488],[-4,4]],[[4065,2492],[-4,2],[-45,68]],[[4018,2561],[47,-69]],[[4065,2492],[1,-3],[3,-1]],[[4069,2488],[27,-7]],[[4058,196],[-71,125],[10,81],[76,52],[23,112]],[[4096,576],[-13,-14],[-12,-106],[-78,-54],[-9,-81],[74,-125]],[[4058,196],[38,-32]],[[950,1638],[2,19]],[[961,1677],[-10,-42]],[[1019,1438],[18,-129]],[[1037,1309],[-17,129]],[[1037,1307],[91,-115]],[[1201,894],[37,202],[-200,211]],[[1195,862],[4,19]],[[857,1723],[-1,11]],[[881,1904],[15,15]],[[1190,1750],[-22,-3]],[[1168,1746],[55,7]],[[1223,1754],[-29,-4]],[[1621,3520],[8,-2]],[[2475,2532],[-133,-105]],[[2343,2427],[131,103]],[[3826,3694],[-19,-25],[-12,-8]],[[3795,3661],[-63,-39]],[[3732,3622],[-6,-3],[-56,-86],[-6,-28],[0,-8],[0,-19],[1,-28],[-8,-8]],[[3658,3442],[8,7],[4,84],[62,89]],[[3732,3622],[1,2],[62,37]],[[3795,3661],[13,7],[7,9]],[[1197,1914],[-2,-1],[2,-1],[1,1],[-1,1]],[[1130,1928],[7,5]],[[977,1698],[-16,-21]],[[961,1676],[17,22]],[[857,1714],[-12,-2]],[[845,1712],[12,1]],[[1044,1050],[-29,249],[-66,97],[-69,62],[-21,40]],[[918,1416],[96,-117],[29,-249]],[[923,1812],[5,94]],[[928,1906],[0,7]],[[927,1913],[1,-7]],[[928,1906],[0,-24],[0,-6]],[[928,1876],[-1,-1]],[[927,1875],[-1,-45]],[[927,1876],[1,0]],[[928,1876]],[[928,1875],[-1,0]],[[927,1875]],[[1617,3518]],[[769,1746],[-1,-2]],[[771,1748],[-2,-2]],[[770,1743],[-1,3]],[[1230,1489],[14,-12]],[[1244,1477],[27,-22],[195,-41],[93,38],[151,-113],[117,-34],[38,4]],[[1865,1309],[66,8],[6,-2]],[[1937,1315],[138,-61],[81,-4]],[[2140,1252],[-63,2],[-127,61],[-13,0]],[[1937,1315],[-72,-6]],[[1865,1309],[-40,-3],[-116,34],[-151,113],[-93,-38],[-192,40],[-29,22]],[[1244,1477],[-8,6]],[[825,1715],[18,-3]],[[969,1744],[20,-2]],[[2380,2459],[-3,-3],[3,-3],[2,4],[-2,2]],[[1220,1722],[-4,-34]],[[903,1735],[-1,3]],[[972,1720],[5,5]],[[833,1661],[9,-1]],[[843,1660],[9,3]],[[1265,1934],[80,50],[-77,-42]],[[1304,1938],[4,-15]],[[1310,1936],[0,1]],[[1237,1784],[-2,-12]],[[1236,1772],[1,12]],[[1535,2208],[22,-44]],[[1539,2204],[-3,4]],[[861,1734],[-4,-4]],[[861,1731],[4,-3]],[[2364,2512],[-22,75]],[[2369,2495],[-5,15]],[[2380,2459],[-11,34]],[[797,1509],[-4,12]],[[796,1510],[151,-196],[62,-284],[-26,-34],[13,-109],[-30,-28],[-38,-240],[17,-48]],[[1037,1309],[0,-2]],[[902,1738],[-1,0]],[[901,1735],[2,0],[0,3],[-2,0]],[[901,1738],[0,-3]],[[819,1690],[3,8]],[[1227,1648],[-42,-8]],[[1186,1634],[26,8]],[[1074,1755],[-39,39],[-43,34],[-180,-101]],[[814,1727],[49,5],[129,96],[83,-75]],[[718,1931],[56,-8]],[[901,1738],[-13,0]],[[3972,346],[-254,150],[-326,55],[-173,109],[-69,89],[-248,39],[-67,37]],[[1182,1905],[2,15]],[[849,1625],[-2,-10]],[[848,1615],[1,10]],[[84,385],[0,-1]],[[85,384],[0,1]],[[839,1751],[-20,-11]],[[777,1601],[-183,-80]],[[1268,1942],[-18,-10]],[[1263,1937],[9,6]],[[1646,3511],[73,-114],[30,-119],[5,-14],[1,-4],[3,-9]],[[1758,3251],[66,-241]],[[1824,3010],[0,-1],[2,-1],[19,-18]],[[1846,2990],[-20,18],[-2,2]],[[1824,3010],[-10,12],[-56,229]],[[1758,3251],[-3,9],[-1,5],[-35,132],[-71,114]],[[910,1616],[-1,0]],[[910,1617]],[[1082,1823],[-40,-16]],[[1357,2048],[-18,-14]],[[1340,2033],[17,14]],[[0,1285],[44,112],[113,84]],[[157,1481],[2,2],[160,-50]],[[319,1433],[151,-48]],[[351,1423],[-32,10]],[[319,1433],[-162,48]],[[157,1481],[-4,1],[-109,-85],[-44,-111]],[[30,1369],[0,-1]],[[135,1597],[-5,-2]],[[130,1593],[5,3]],[[153,3963],[12,1]],[[165,3964],[-12,0]],[[257,3969],[3,0]],[[289,3968],[4,-7]],[[323,995],[8,-6]],[[595,2084],[-53,78],[-69,2]],[[1191,1618],[1,-2]],[[1193,1614],[68,-29],[-67,35]],[[1195,1621],[4,0]],[[1211,1495],[10,-3]],[[1221,1492],[19,-5],[7,0]],[[1211,1491],[4,0]],[[1249,1488],[-10,1],[-18,3]],[[1221,1492],[-6,1]],[[1222,1509],[0,-1]],[[1284,1692],[-2,-12]],[[1282,1680],[-2,-20],[-4,-2]],[[1276,1658],[-28,-13]],[[1256,1587],[0,-3]],[[1256,1643],[3,1]],[[1257,1583],[6,-49]],[[1263,1534],[0,-2]],[[1267,1652],[-2,-2]],[[1265,1650],[-5,-5]],[[1260,1645],[-1,-1],[-2,-5],[0,-51]],[[1263,1532],[0,2]],[[1263,1534],[-3,49]],[[1260,1587],[-2,52],[1,4],[1,2]],[[1260,1645],[5,5]],[[1265,1650],[1,1]],[[1263,1532],[-3,-4]],[[1341,1586],[-81,1]],[[1260,1646],[0,-1]],[[1260,1645]],[[1260,1645],[1,-3]],[[1260,1584],[74,-8]],[[1273,1533],[-10,1]],[[1263,1534]],[[1263,1534],[-1,0]],[[1271,1639],[5,19]],[[1276,1658],[6,22]],[[1282,1680],[3,12]],[[1282,1694],[4,-1]],[[1330,1583],[-1,1]],[[1563,2112],[7,0]],[[1582,3502],[7,-3],[11,-2]],[[1600,3497],[62,-10]],[[1662,3487],[2,-1]],[[1589,3501],[-2,3]],[[1589,3501],[-1,4]],[[1588,3499],[1,2]],[[1663,3488],[-1,-1]],[[1662,3487],[-13,-13],[-49,23]],[[1600,3497],[-11,5]],[[1807,2803],[-4,-6]],[[1804,2796],[4,6]],[[1814,3022]],[[1926,1616],[104,-12]],[[2030,1607],[-104,10]],[[1949,1658],[96,-39]],[[2045,1621],[-96,38]],[[2035,1603],[80,-8]],[[2115,1598],[-79,8]],[[2139,1633],[-88,-12]],[[2051,1618],[88,11]],[[2120,1594],[111,-29],[46,-55]],[[2280,1513],[-48,53],[-112,31]],[[2300,1553],[-43,52],[-5,2],[-108,26]],[[2144,1629],[108,-23],[46,-55]],[[2150,3174],[-1,2]],[[2183,1916],[-4,-189]],[[2184,1935],[-4,-207]],[[2180,1705],[4,230]],[[2182,1728],[2,189]],[[2224,2334],[1,-1]],[[2243,3244],[-2,3]],[[2282,1506],[69,-10],[117,88]],[[2435,1591],[19,15],[12,-20],[-114,-89],[-68,12]],[[2301,1546],[51,-17],[79,60]],[[2430,1590],[-79,-60],[-47,18]],[[2452,1609],[-19,-15]],[[2457,1826],[15,-54],[-20,-163]],[[2455,1611],[18,163],[-15,52]],[[2462,1614],[-6,-3]],[[2469,1588],[-12,19]],[[2457,1608],[6,5]],[[2468,1583],[7,-11]],[[2476,1573],[-5,13]],[[3134,2960],[1,-1]],[[3361,3444],[-83,-23],[-128,31]],[[3592,3493],[-223,-47]],[[1816,2814],[-1,0],[0,-1],[1,1]],[[2281,2378],[-3,2],[-3,-4],[4,-2],[2,4]],[[1006,1817],[23,-17]],[[1027,1802],[-18,17]],[[1145,1941],[21,-12]],[[1166,1930],[-20,12]],[[1168,1928],[14,-7]],[[1183,1921],[-15,9]],[[1184,1920],[11,-7]],[[1196,1914],[-11,7]],[[1197,1912],[6,-9]],[[1204,1903],[-6,10]],[[1048,281],[-37,-120]],[[852,1756],[1,-1]],[[979,1776],[-8,27]],[[1250,1932],[-70,-43]],[[1184,1889],[65,41]],[[775,1751],[23,-27]],[[840,1762],[-28,14]],[[1238,1841],[68,66]],[[1306,1907],[-68,-64]],[[1308,1918],[-13,26],[-29,-11]],[[1269,1931],[26,13],[13,-27]],[[1168,1747],[-6,49]],[[1168,1747],[3,-30]],[[1172,1717],[-4,30]],[[1028,1540],[38,-15]],[[1120,1512],[3,-1]],[[821,1698],[-2,-8]],[[1025,3949],[-26,13]],[[1025,3949],[510,-377]],[[1537,3575],[-512,374]],[[798,1724],[3,-57]],[[801,1667],[-3,57]],[[325,1730],[52,-84],[22,-1]],[[399,1645],[10,-1],[9,1],[21,2]],[[439,1647],[20,1]],[[459,1650],[-20,-3]],[[439,1647],[-38,-5],[-2,3]],[[399,1645],[-74,86]],[[1457,1856],[62,119]],[[1521,1979],[13,25]],[[972,1660],[30,-34]],[[690,1488],[-5,-3]],[[685,1484],[4,2]],[[867,1538],[-136,-17]],[[731,1521],[136,17]],[[495,1553],[-13,2]],[[482,1554],[13,-2]],[[592,1599],[74,23],[-7,49],[40,60],[-4,80],[55,49],[1,2]],[[751,1862],[5,30]],[[756,1892],[23,135],[31,35],[141,9],[90,52],[223,4],[139,-62]],[[1403,2066],[-140,62],[-223,-4],[-88,-53],[-141,-8],[-32,-34],[-23,-137]],[[756,1892],[-5,-30]],[[751,1862],[-56,-50],[3,-80],[-39,-61],[6,-49],[-72,-22]],[[615,1538],[70,-54]],[[689,1486],[42,35]],[[731,1521],[-41,-33]],[[974,1534],[-107,4]],[[867,1538],[92,-5],[15,0],[19,2],[34,5],[61,-22]],[[1142,1508],[-4,1]],[[1138,1509],[-41,6],[-69,26],[-8,0],[-27,-6]],[[1099,1513],[42,-6]],[[1110,1512],[28,-3]],[[1138,1509],[4,-1]],[[1410,2063],[29,5],[26,-46],[10,-4]],[[1475,2018],[-35,50],[-30,-5]],[[960,1666],[2,-1]],[[923,1917],[6,3],[33,10]],[[962,1930],[35,10]],[[1007,1931],[-45,-1]],[[962,1930],[-29,-1],[-2,-6]],[[857,1805],[-7,-12]],[[1238,1843],[0,-3]],[[1238,1840],[-3,-10]],[[1235,1827],[3,13]],[[1238,1840],[0,1]],[[879,1907],[-55,38],[-3,-2]],[[821,1943],[-41,-18]],[[780,1925],[-44,-19],[-33,-2]],[[703,1904],[-78,-4],[-1,0]],[[625,1899],[79,4]],[[704,1903],[33,2],[43,20]],[[780,1925],[40,19],[1,-1]],[[821,1943],[58,-38]],[[700,1906],[3,-2]],[[703,1904],[1,-1]],[[704,1903],[11,-5]],[[755,1913],[15,-7]],[[774,1942],[-10,-23]],[[1021,561],[29,-44]],[[1815,2813],[-378,-440],[-27,-102]],[[1410,2271],[28,102],[377,440]],[[1585,3520],[-4,21]],[[1581,3538],[4,-18]],[[3815,3677],[44,87]],[[847,1562],[0,-2]],[[849,1559],[-2,3]],[[1888,1913],[1,-3]],[[1902,2104],[-21,-56],[0,-11]],[[1881,2037],[5,-73]],[[1886,1964],[3,-51],[1,-3]],[[1890,1910],[0,3],[-4,51]],[[1886,1964],[-5,71],[0,2]],[[1881,2037],[22,65]],[[1891,1911],[0,2]],[[1099,1877],[67,51]],[[1166,1929],[-49,-34]],[[1188,1941],[-20,-11]],[[1168,1930],[20,9]],[[1218,1965],[-29,-23]],[[1190,1940],[31,24]],[[450,1561],[-45,75]],[[405,1636],[-4,6]],[[402,1641],[3,-5]],[[405,1636],[44,-78],[25,2]],[[782,1613],[-6,3]],[[959,1677],[22,25]],[[981,1702],[-21,-21]],[[936,1648],[-10,-7]],[[926,1641],[10,7]],[[746,1714],[24,29]],[[768,1744],[-21,-27]],[[771,1745],[1,3]],[[788,1769],[-16,-21]],[[772,1748],[17,24]],[[819,1740],[6,-25]],[[897,1895],[-1,-109]],[[812,1660],[0,-25]],[[812,1635],[0,25]],[[482,1555],[-35,6],[-3,-6]],[[444,1555],[-62,-113]],[[382,1442],[-10,-18]],[[387,1426],[-5,16]],[[382,1442],[-3,10],[65,103]],[[444,1555],[3,5],[35,-6]],[[1141,1507],[92,-13],[2,2]],[[1235,1496],[93,62],[7,16]],[[1335,1574],[3,7]],[[1338,1581],[9,19]],[[1347,1600],[1,2],[3,27]],[[1351,1629],[2,13],[3,15]],[[1356,1657],[16,77]],[[1372,1734],[0,1]],[[1372,1735],[1,2],[148,225]],[[1526,1975],[-154,-238],[0,-3]],[[1372,1734],[-1,-1]],[[1371,1733],[-14,-69]],[[1357,1664],[-5,-23],[-2,-16]],[[1350,1625],[-3,-25]],[[1347,1600],[0,-1],[-9,-18]],[[1338,1581],[-3,-6]],[[1335,1575],[-7,-16],[-94,-63]],[[1234,1496],[-2,-1],[-30,4]],[[1202,1499],[-60,9]],[[1142,1508],[10,-1]],[[1202,1499]],[[1202,1499],[32,-3]],[[1234,1496],[1,0]],[[1235,1496],[2,-1],[94,65],[4,14]],[[1335,1574],[0,1]],[[1335,1575],[15,50]],[[1350,1625],[1,4]],[[1351,1629],[1,3],[4,25]],[[1356,1657],[1,7]],[[1357,1664],[9,59],[2,5],[3,5]],[[1371,1733],[1,1]],[[1372,1734],[5,8],[3,4],[54,61]],[[1385,1755],[-13,-20]],[[1372,1735],[0,-1]],[[1372,1734],[-14,-20]],[[1475,2018],[10,-4]],[[1485,2014],[50,-20]],[[1534,1993],[-49,21]],[[1485,2014],[-10,4]],[[1437,1639],[-58,-1],[57,-1]],[[1439,1637],[33,18]],[[1470,1656],[-31,-17]],[[1566,1662],[60,0]],[[1743,1767],[-80,-91],[-96,-11]],[[885,1716],[8,-2]],[[897,1909],[26,8]],[[923,1917],[-22,3]],[[983,3915],[32,-88],[-49,-438],[-89,-63],[-21,-63],[-78,-87]],[[778,3175],[78,88],[21,63],[90,63],[48,438],[-31,88]],[[556,1529],[-1,-1]],[[764,1979],[-169,105]],[[717,1575],[0,-1]],[[736,1843],[5,-9],[7,-24],[6,-11]],[[737,1843],[4,-8]],[[754,1801],[-16,45]],[[762,3170],[6,-4]],[[789,1609],[2,2]],[[791,1611],[2,3]],[[791,1611]],[[791,1611],[0,-7]],[[791,1604],[2,10]],[[793,1614],[2,2]],[[796,1509],[1,0]],[[800,1725],[14,2]],[[814,1618],[0,-2]],[[846,1855],[-2,0]],[[848,1754],[1,-2]],[[853,2059],[-2,19]],[[856,1725],[0,-2]],[[857,1727],[5,2]],[[862,1729],[1,0]],[[859,1660],[1,3]],[[861,1729],[1,0]],[[862,1729],[3,-2]],[[903,1776],[-6,-4]],[[991,1560]],[[1038,1307],[-1,2]],[[1144,1863],[7,-3]],[[1181,1655],[-2,-1]],[[1182,1646],[13,-7]],[[1195,1622],[-7,6]],[[1190,1623],[0,-3]],[[1190,1619],[1,-1]],[[1194,1620],[0,1]],[[1194,1621],[-1,0]],[[1193,1620],[1,1]],[[1194,1621],[1,0]],[[1219,1645],[8,2]],[[1237,1838],[3,-1],[-3,0]],[[1237,1837],[-3,0]],[[1234,1837],[-4,0]],[[1230,1837],[-1,0]],[[1239,1845],[-9,-8]],[[1230,1837]],[[1231,1835],[3,-9]],[[1235,1830],[-2,5]],[[1234,1836],[0,1]],[[1234,1837],[1,2],[1,-1]],[[1235,1837],[2,0]],[[1237,1837]],[[1248,1834],[-12,2]],[[1253,1948],[2,6]],[[1255,1953],[-1,-8]],[[1256,1958],[2,7]],[[1258,1968],[-1,-9]],[[1265,1934],[-7,8]],[[1258,1935],[0,2]],[[1259,1940],[5,-6]],[[1492,2090],[0,1]],[[1495,2092],[0,-1]],[[1574,3539],[7,-1]],[[3639,3489],[-47,4]],[[3681,3469],[-16,-10]],[[3665,3457],[18,12]],[[3757,3471],[7,0]],[[1045,1049],[-1,1],[-1,-1],[1,-1],[1,1]],[[3764,3472],[0,-1],[1,0],[0,1],[-1,0]],[[2342,2427],[-53,-42]],[[2289,2384],[54,43]],[[2474,2530],[198,157],[554,326],[51,95],[381,334]],[[3657,3442],[-379,-333],[-53,-96],[-363,-207],[-190,-118],[-197,-156]],[[866,1780],[-2,6]],[[864,1785],[2,-5]],[[866,1780],[7,-10]],[[873,1770],[-3,4]],[[878,1767],[-5,3]],[[878,1767],[7,-8]],[[886,1759],[-8,8]],[[893,1735],[8,0]],[[821,1707],[-14,69]],[[1191,862],[13,-10]],[[1204,851],[-11,7]],[[1063,1762],[-9,-5]],[[777,1624],[-10,-9]],[[769,1615],[9,0]],[[777,1615],[18,1]],[[800,1616],[7,1]],[[979,1775],[0,1]],[[1360,1620],[26,0]],[[95,424],[94,-62]],[[192,363],[-95,68]],[[110,499],[1,0]],[[169,692],[-1,0]],[[168,694],[1,0]],[[230,360],[-7,0]],[[225,360],[6,-1]],[[344,1706],[1,1]],[[974,508],[-3,-2]],[[1240,1499],[-2,-1]],[[1238,1498],[-31,0]],[[1237,1496],[3,2]],[[1358,1714],[-33,-153],[-87,-63]],[[1238,1498]],[[1344,1585],[-21,-29]],[[1361,1712],[-4,-6]],[[2030,2550],[299,-383],[25,-21]],[[2354,2146],[14,-12]],[[2368,2134],[4,-3],[52,3],[22,3],[73,-40],[-4,-212],[-10,-16]],[[2505,1869],[-1,-1]],[[2504,1868],[-11,-19],[-169,-102]],[[2324,1747],[-3,-2]],[[2321,1745],[-5,-3],[-12,-25]],[[2304,1717],[-8,-18]],[[2296,1699],[-32,-70]],[[2264,1629],[-10,-23],[-21,-43],[-62,-138],[6,-27]],[[2177,1398],[29,-128],[-4,-42],[-2,-16]],[[2200,1212],[-11,-60],[-3,-3]],[[2186,1149],[-24,-26]],[[2162,1123],[-203,-219],[-84,-54]],[[1875,850],[-12,-8]],[[1863,842],[-5,-3],[-4,1]],[[1854,840],[-169,21],[-319,-250]],[[1366,611],[317,249],[137,-29],[34,9]],[[1854,840],[9,2]],[[1863,842],[1,1],[11,7]],[[1875,850],[50,34],[237,239]],[[2162,1123],[24,24],[0,2]],[[2186,1149],[14,63]],[[2200,1212],[3,16],[4,42],[-26,115]],[[2181,1385],[-9,40],[61,138],[22,43],[6,14]],[[2261,1620],[38,83]],[[2299,1703],[8,18]],[[2307,1721],[9,21],[4,2]],[[2320,1744],[4,2]],[[2324,1746],[169,103],[12,19]],[[2505,1868],[1,2]],[[2506,1870],[10,15],[4,213],[-74,39],[-22,-3],[-56,0]],[[2368,2134],[-1,0],[-13,12]],[[2354,2146],[-27,25],[-297,379]],[[1377,1736],[-3,-2]],[[1386,1750],[0,-1]],[[1432,1804],[9,11]],[[1955,1728],[-231,-368]],[[1907,2116],[-5,-12]],[[1903,2102],[5,15]],[[2511,1873],[-5,-3]],[[2506,1870],[-1,-1]],[[2505,1869],[-181,-118],[-3,-6]],[[2321,1745],[-1,-1]],[[2320,1744],[-13,-23]],[[2307,1721],[-3,-4]],[[2304,1717],[-24,-42],[-110,-250],[7,-27]],[[2177,1398],[4,-13]],[[2181,1385],[26,-97]],[[2209,1301],[-37,122],[84,183],[5,14]],[[2261,1620],[3,9]],[[2264,1629],[18,46],[14,24]],[[2296,1699],[3,4]],[[2299,1703],[25,43]],[[2324,1746],[0,1]],[[2324,1747],[1,2],[179,119]],[[2504,1868],[1,0]],[[2505,1868],[7,5]],[[3984,1875],[-254,-24],[-112,-63],[-259,-2],[-371,72],[-456,41]],[[2533,1898],[495,-49],[327,-65],[263,2],[113,63],[253,24]],[[2734,1854],[-83,-261]],[[2652,1594],[83,259]],[[3807,433],[-125,-251],[9,-75],[37,-28]],[[3728,79],[17,-12]],[[3745,67],[5,-3],[288,-35],[17,-29]],[[4057,0],[-19,31],[-293,36]],[[3745,67],[-1,0],[-16,12]],[[3728,79],[-36,29],[-7,77],[124,247]],[[3975,343],[-3,3]],[[4065,1850],[17,-5]],[[4082,1845],[3,6],[5,-4],[-3,-3],[-5,1]],[[4082,1845],[4,8]],[[845,1619],[3,0]],[[848,1619],[-3,0]],[[822,1703],[-1,-5]],[[822,1698],[0,5]],[[3695,3488],[-56,1]],[[1238,1960],[8,-6]],[[3854,4008],[-2,52]],[[3852,4060],[-2,36]],[[3847,4096],[5,-36]],[[3852,4060],[35,-242],[-27,-54]],[[843,1711],[-15,-9]],[[828,1702],[15,9]],[[848,1619],[16,0]],[[864,1619],[-16,0]],[[1255,1954],[1,4]],[[1257,1959],[-2,-6]],[[3369,3446],[-8,-2]],[[1409,1693],[-31,-72]],[[1382,1621],[34,72]],[[1212,1642],[16,-3]],[[1229,1650],[-16,4]],[[1456,2741],[51,25]],[[1813,2932],[40,37]],[[823,1700],[-1,1],[-1,-1],[1,-1],[1,1]],[[847,1615],[-4,-40]],[[843,1576],[5,39]],[[894,1924],[0,-8]],[[894,1916],[1,8]],[[812,1776],[-13,-3]],[[799,1773],[13,3]],[[840,1761],[9,-3]],[[850,1758],[-10,4]],[[895,1784],[8,0]],[[903,1784],[1,0],[-1,0]],[[847,1551],[0,-3]],[[853,1507],[65,-91]],[[875,1658],[3,-3]],[[835,1659],[-5,-36]],[[836,1663],[7,15]],[[816,1630],[2,32]],[[851,1664],[-14,-3]],[[1044,827],[14,-91],[-37,-175]],[[1298,3365],[285,136]],[[1228,1639],[106,-19]],[[1335,1620],[-106,30]],[[1521,1962],[16,30],[-1,1]],[[1536,1993],[-2,0]],[[1535,1994],[1,0],[0,-1]],[[1536,1993],[-10,-18]],[[1564,1664],[-91,-5]],[[1474,1658],[90,4]],[[1236,1483],[-12,19]],[[1646,3512],[0,-1]],[[1617,3518],[-29,-13]],[[0,277],[225,83]],[[223,360],[-153,-50],[-70,-32]],[[1026,527],[-166,-26],[-368,-145]],[[492,356],[-76,1]],[[416,357],[-186,3]],[[231,359],[185,-2]],[[416,357],[76,-1]],[[492,356],[3,0],[365,144],[83,2],[20,2],[24,5],[12,3],[27,14]],[[1111,573],[190,16],[6,1],[59,21]],[[1366,611],[-255,-37]],[[1799,2769],[-8,-60],[1,-3]],[[1792,2706],[5,-11]],[[1797,2695],[44,-95],[61,-39],[128,-11]],[[2030,2550],[-125,11],[-63,40],[-45,94]],[[1797,2695],[-5,11]],[[1792,2706],[8,62]],[[1334,1620],[26,0]],[[1360,1621],[-25,-1]],[[864,1662],[11,-4]],[[1276,1831],[26,4]],[[1303,1835],[-27,-4]],[[1135,1743],[-44,-7]],[[1091,1735],[77,11]],[[767,1615],[-193,-83]],[[576,1531],[193,84]],[[769,1658],[-57,10]],[[750,1659],[20,-1]],[[882,1698],[-1,-2],[1,0],[1,1],[-1,1]],[[4096,1857],[-8,-6]],[[4088,1851],[-7,-6]],[[4085,1843],[3,8]],[[4088,1851],[8,20]],[[968,1716],[-7,2]],[[961,1718],[-1,1],[-11,3],[-11,1]],[[939,1722],[11,0],[11,-4]],[[961,1718],[1,0]],[[1641,1648],[-129,3],[-34,-30],[-77,0]],[[1401,1621],[-6,0]],[[1395,1621],[-35,0]],[[1386,1620],[93,-1]],[[1394,1620],[1,1]],[[1395,1621]],[[1401,1621]],[[1401,1621],[0,-1]],[[1481,1619],[32,31],[127,-3]],[[908,1895],[13,-1]],[[843,1575],[4,-24]],[[847,1551],[-4,25]],[[858,1713]],[[1180,1974],[5,4]],[[1185,1978],[5,4]],[[1237,1998],[-52,-20]],[[1185,1978],[-3,-1]],[[1182,1977],[-95,-89]],[[1088,1887],[92,87]],[[1190,1982],[134,52]],[[1324,2034],[35,14]],[[1358,2048],[-34,-14]],[[1324,2034],[-87,-36]],[[1648,3517],[1,9]],[[1339,2034],[-92,-76]],[[1258,1965],[82,68]],[[1206,1802],[-2,0]],[[1151,1861],[-5,4]],[[1151,1860],[85,-25]],[[1236,1835],[-84,25]],[[903,1735],[2,0]],[[910,1736],[-2,2]],[[1231,1793],[-1,-39]],[[1231,1755],[1,38]],[[979,1728],[-7,-8]],[[120,1696],[-5,43]],[[123,1783],[2,-86]],[[126,1698],[-1,84]],[[126,1696],[57,-25]],[[187,1673],[-60,23]],[[127,1698],[-2,0],[0,-2],[2,0],[0,2]],[[831,1855],[-30,7]],[[801,1861],[34,-6]],[[869,1716],[-2,5]],[[812,1727],[-13,-2]],[[794,1665],[4,-48]],[[798,1659],[-4,7]],[[801,1617],[-6,46]],[[796,1657],[2,1]],[[578,1514],[16,7]],[[578,1514],[37,16]],[[782,1603],[4,2]],[[785,1606],[-3,-3]],[[923,1411]],[[739,1924],[64,-50]],[[1064,1762],[16,-50]],[[1078,1736],[-12,27]],[[1078,1735],[3,-23]],[[1090,1736],[-12,0]],[[1090,1735],[-12,0]],[[1760,1487],[3,-26]],[[1765,1462],[-4,25]],[[1764,1458],[14,-9]],[[1779,1450],[-12,10]],[[1092,1871],[12,-4]],[[1105,1867],[-13,5]],[[1180,1650],[11,-32]],[[807,1670],[-31,-10]],[[776,1660],[36,7]],[[1012,1949],[-7,-6]],[[1011,1948],[32,1]],[[1044,1948],[27,6]],[[886,1675],[1,6]],[[1199,881],[2,13]],[[254,4096],[9,-46]],[[263,4050],[-9,46]],[[687,3207],[28,-19],[47,-18]],[[742,3068],[17,36],[14,58],[-11,8],[-47,19],[-28,18]],[[768,3166],[-26,-98]],[[819,2295],[15,-122],[20,-120],[35,-69]],[[854,2056],[-20,117],[-11,105],[-3,17]],[[892,1980],[-22,31]],[[903,1808],[18,53]],[[958,1806],[-9,-18]],[[950,1788],[8,18]],[[881,1697],[-14,3]],[[906,1688],[-23,9]],[[712,1668],[-168,1]],[[544,1669],[110,-2]],[[594,1521],[-1,1]],[[593,1522],[-29,14],[-8,-7]],[[587,1518]],[[602,1491],[-9,-8]],[[593,1523],[0,-1]],[[593,1522],[0,-1]],[[597,2076],[-26,-88],[147,-57]],[[684,3202],[-11,-41]],[[673,3161],[11,41]],[[763,3120],[-18,19],[-72,22]],[[691,1937],[3,-1]],[[698,3151],[46,-12],[17,-25]],[[733,3109],[20,-3]],[[786,1773],[-41,-6]],[[745,1766],[42,2]],[[753,3106],[1,1]],[[753,3106],[1,0]],[[754,1799],[8,-6]],[[763,1794],[-6,11]],[[762,1679],[-1,-16]],[[792,1615],[-16,15]],[[776,1628],[12,-14]],[[778,1560],[3,1]],[[782,1562],[-4,0]],[[786,1770],[0,1]],[[793,1736],[1,0]],[[796,1655]],[[796,1654]],[[797,1659],[1,-1]],[[799,1625]],[[807,1776],[-3,0]],[[816,1619],[13,0]],[[829,1619],[-13,0]],[[818,1662],[6,28]],[[823,1701]],[[823,1700],[1,1]],[[828,1855],[13,-4]],[[829,1819],[16,-8]],[[835,1855],[-4,0]],[[850,1818],[-18,4]],[[841,1856],[-6,-1]],[[837,1855],[-2,0]],[[844,1712],[0,1]],[[845,1811],[-1,-1]],[[845,1811],[-1,0]],[[855,1755],[-9,4]],[[848,1819],[14,-3]],[[852,1663]],[[854,1641],[1,2]],[[872,1848],[-10,5],[-1,0],[0,1]],[[861,1854],[-1,1],[-6,-1]],[[854,1664],[1,0]],[[858,1734],[-2,-2]],[[856,1731],[1,-3]],[[856,1854],[6,-1]],[[857,1720]],[[857,1730],[6,0]],[[857,1715],[1,-1]],[[860,1714],[-2,-1]],[[862,1860],[-1,-2],[0,-4]],[[861,1854],[0,-1]],[[865,1733],[-2,2]],[[864,1619],[-1,0]],[[872,1848],[-6,3]],[[870,1713],[-3,0]],[[870,1774],[-1,1]],[[870,1741],[2,-2]],[[875,1847],[-3,1]],[[874,1846],[0,1]],[[877,4023],[1,3]],[[878,4026],[0,1]],[[943,4068],[-24,-10],[-22,-12],[-19,-18]],[[878,1655]],[[878,1655],[1,0]],[[879,1655],[0,-1]],[[879,4026],[72,28]],[[889,1984],[3,-6]],[[895,1765],[-5,7]],[[892,1674],[-1,-2]],[[896,1786],[-2,-3]],[[897,1837],[-1,0]],[[896,1837],[1,0]],[[896,1902],[1,0]],[[897,1902],[0,-1]],[[899,1928],[-2,-15],[0,-11]],[[897,1902],[0,-7]],[[897,1900],[0,1]],[[897,1834],[2,94]],[[898,1915],[-1,-1]],[[897,1910],[0,1]],[[904,1774],[-1,2]],[[905,1910],[0,-1]],[[907,1825],[1,0]],[[921,1894],[-13,1]],[[913,1627],[4,1]],[[918,1789],[-1,0]],[[918,1797]],[[919,1791],[-1,-4]],[[918,1797]],[[931,1923],[-7,-5]],[[938,1649],[-13,-9]],[[925,1824]],[[925,1640],[13,8]],[[928,1879],[-2,0]],[[927,1914],[0,-1]],[[928,1900]],[[928,1899]],[[928,1913],[0,1]],[[950,1795],[-3,-1]],[[955,1796],[10,4]],[[962,1718],[16,8]],[[968,1716],[5,7]],[[1004,1624],[-32,36]],[[978,1804],[19,7]],[[979,1776],[3,-6],[14,-17]],[[982,1868]],[[982,1869],[1,0]],[[987,1765]],[[996,1752],[-4,-7]],[[992,876],[33,-2]],[[992,1745],[6,5]],[[998,877],[-4,3]],[[996,1629],[0,-1]],[[996,1754]],[[997,1628]],[[1002,1760],[-4,-6]],[[998,1753],[5,8]],[[1000,1945],[7,1]],[[1010,1954],[-6,-24]],[[1007,1932],[3,22]],[[1014,1815],[-3,-3]],[[1044,1950],[-31,0]],[[1049,1949],[-5,1]],[[1049,1781]],[[1080,1712],[5,4]],[[1085,1716],[11,9]],[[1081,1712],[4,4]],[[1085,1716],[11,9]],[[1091,1736],[-1,0]],[[1090,1735],[1,0]],[[1094,1735],[1,1]],[[1126,1741],[0,-1]],[[1129,1741],[0,2]],[[1137,1916],[-1,-3]],[[1145,1941],[2,0]],[[1157,1953],[1,-1]],[[1167,1748],[1,1]],[[1172,1928],[-1,-1]],[[1177,1887],[1,-2]],[[1179,1885],[-1,3]],[[1179,1922],[0,2]],[[1179,1889],[2,-4]],[[1181,1886],[-1,3]],[[1182,1951],[1,1]],[[1184,1749],[0,-1]],[[1192,1958],[-1,1]],[[1196,1946],[0,-1]],[[1196,1963],[0,-1]],[[1204,1968]],[[1205,1968],[0,1]],[[1206,1953],[0,1]],[[1207,1954]],[[1210,1967],[0,1]],[[1210,1968],[0,-1]],[[1218,1962],[-1,0]],[[1218,1799],[1,-1]],[[1231,1795],[-9,-1]],[[1222,1794],[10,1]],[[1227,1963]],[[1228,1963],[0,-1]],[[1254,1788],[-21,-3]],[[1236,1785],[1,-1]],[[1253,1954],[-14,6]],[[1242,1959],[16,6]],[[1265,1941],[-6,0]],[[1279,1729],[0,1]],[[1280,1730]],[[1288,1730],[-1,-15]],[[1287,1953],[0,-1]],[[1289,1730],[-2,-15]],[[1292,1715],[-4,0]],[[1298,1726],[-9,5]],[[1304,1892],[-1,1]],[[1351,1872],[-46,18]],[[1305,1902],[-4,-13],[9,-12],[33,-2]],[[1390,1860],[1,0]],[[1457,2238],[0,-18]],[[1458,2220],[0,18]],[[1556,2170],[-17,34]],[[1578,3607],[79,-54]],[[1581,3536],[41,-4]],[[1622,3532],[17,-2]],[[1619,3519],[-1,2]],[[1624,3535],[-2,-3]],[[1622,3532],[-4,-10]],[[1619,3521],[18,8]],[[1658,3552],[-1,0]],[[1658,3554],[1,-1]],[[1658,3557],[2,-1],[-1,2]],[[1659,3557],[-1,0]],[[1662,3555],[10,-4]],[[1672,3551],[1,-1]],[[1673,3550],[7,-3],[10,-4],[54,-19]],[[1744,3524],[-54,19],[-10,4],[-7,3]],[[1673,3550],[-1,1]],[[1672,3551],[-10,4]],[[1669,3515],[-20,11],[16,13],[8,11]],[[1673,3550]],[[1673,3550],[0,1]],[[1671,3550],[1,1]],[[1672,3551]],[[1672,3551],[54,47]],[[1700,3539],[-15,-24]],[[1686,3514],[16,24]],[[1703,3540],[28,40]],[[1876,2991],[-40,-38]],[[1853,2969],[23,22]],[[1876,2991],[39,21]],[[2299,2575],[-2,-1]],[[2297,2573],[2,2]],[[2435,2598],[-134,-22]],[[2301,2575],[135,22]],[[2468,4057],[114,-31]],[[2492,4018],[-21,26]],[[2526,3998],[-30,16]],[[2585,4012],[-51,-14]],[[3615,3589],[-2,-3],[53,-60]],[[3666,3529],[-49,62]],[[3658,3528],[0,2]],[[3760,3471],[10,9]],[[3814,3656],[-22,-5]],[[3797,3651],[16,3],[19,-79],[30,-1],[10,-28]],[[3872,3546],[1,-1]],[[3873,3545],[-9,29],[-32,1],[-13,59]],[[3819,3634],[-5,19]],[[3818,3634],[1,0]],[[3819,3634],[61,13]],[[3880,3647],[1,0]],[[3881,3647],[59,12]],[[3940,3659],[1,0]],[[3941,3659],[1,1]],[[3942,3660],[2,0],[56,-44]],[[4000,3617],[-57,44]],[[3943,3661],[0,1],[-1,-1]],[[3942,3661],[-123,-25]],[[3861,3643],[0,1]],[[3862,3645],[1,-1]],[[3873,3546],[-1,0]],[[3872,3546],[-9,-4]],[[3880,3647]],[[3880,3647],[4,-15]],[[3884,3632],[0,-1]],[[3884,3631],[7,-28]],[[3891,3603],[0,-1],[0,-1]],[[3903,3570],[-10,35]],[[3893,3605],[-7,25]],[[3886,3630],[0,2]],[[3886,3632],[-5,15]],[[3881,3647],[0,1]],[[3914,3624],[-11,8],[-17,0]],[[3886,3632],[-2,0]],[[3884,3632],[-1,0]],[[3883,3631],[1,0]],[[3884,3631],[2,-1]],[[3886,3630],[27,-7]],[[3886,3599],[5,4]],[[3891,3603],[2,2]],[[3893,3605],[17,14]],[[3910,3619],[4,3],[1,1],[26,36]],[[3941,3659],[1,1]],[[3942,3660],[1,1]],[[3943,3661],[1,0]],[[3898,3603],[63,-1]],[[3943,3663],[-1,-2]],[[3942,3661],[-2,-1]],[[3940,3660],[0,-1]],[[3940,3659],[-26,-35],[-1,-1],[-3,-4]],[[3910,3619],[-12,-15]],[[3899,3652]],[[3899,3634],[1,0]],[[3900,3634]],[[3901,3653],[0,-1]],[[3904,3610],[-1,0]],[[3904,3611],[0,-1]],[[3905,3603],[0,1]],[[3905,3604],[0,-1]],[[3909,3616],[-1,0]],[[3909,3617],[1,0]],[[3911,3626]],[[3911,3626]],[[3914,3623],[11,-1]],[[3975,3635],[-60,-12]],[[3918,3603]],[[3919,3629],[-1,0]],[[3918,3603]],[[3919,3631],[1,-1]],[[3924,3657],[0,1]],[[3926,3639],[-1,0]],[[3926,3658],[0,-1]],[[3926,3640],[1,-1]],[[3929,3642],[-1,1]],[[3928,3622],[37,2]],[[3929,3643]],[[3933,3603]],[[3933,3603],[0,-1]],[[3940,3660]],[[3940,3660],[1,-1]],[[3941,3659]],[[3941,3659]],[[3941,3659]],[[3946,3621]],[[3947,3602],[0,1]],[[3947,3621]],[[3947,3603],[0,-1]],[[3958,3603],[0,-1]],[[3962,3601],[20,-13]],[[3966,3623],[10,11]],[[3984,3590],[-1,0]],[[3983,3590],[-1,-1]],[[4033,3695],[-15,-58],[-35,-47]],[[3983,3590],[0,-1]],[[3984,3588],[35,49],[14,58]],[[4013,3545],[-9,3]],[[577,1514],[1,0],[-1,0]],[[862,1816],[0,-1],[1,0],[0,1],[-1,0]],[[864,1786],[0,-1],[0,1]],[[879,1655],[0,1],[-1,-1]],[[878,1655],[1,-1],[0,1]],[[879,1655]],[[886,1675],[-1,0],[1,-1],[0,1]],[[997,1752],[1,0],[0,2],[-2,-1]],[[996,1753],[1,-1]],[[1172,1716],[0,1],[-1,0],[0,-1],[1,0]],[[1188,1957],[1,0],[0,-1],[-1,0],[0,1]],[[1618,3521]],[[3669,3526],[1,3]],[[3963,3602],[-1,0],[-1,-1],[1,0],[1,1]],[[916,1627],[10,14]],[[936,1648],[89,143]],[[1036,1802],[-8,-8],[-9,-10],[-54,-74],[-29,-62]],[[1028,1794],[12,11]],[[790,1480],[14,18]],[[813,1483],[14,-14]],[[855,1643],[8,7]],[[745,1766],[0,2],[-2,-1],[1,-2],[1,1]],[[1231,1820],[0,-27]],[[1232,1793],[3,33]],[[0,1811],[103,51],[222,-132]],[[325,1731],[-82,55],[-141,79],[-102,-53]],[[32,1825],[-3,-1]],[[833,1661],[2,0]],[[835,1661],[2,0]],[[1514,2319],[21,-111]],[[1516,2355],[-1,-31]],[[1517,2323],[0,32]],[[1536,2208],[-19,110]],[[1557,2164],[14,-36]],[[1518,2321],[-3,3],[0,-6],[2,0],[1,3]],[[798,1724],[-22,28]],[[1568,3614],[-48,33],[19,175],[-7,274]],[[1891,1907],[13,-26]],[[1904,1881],[26,-56]],[[1930,1825],[34,-74],[0,-2]],[[1964,1749],[-1,-2]],[[1963,1747],[-11,-27]],[[1952,1720],[-2,-4]],[[1950,1716],[-31,-75],[-154,-221]],[[1765,1420],[-6,-8]],[[1759,1412],[-43,-61]],[[1720,1348],[45,72]],[[1765,1420],[70,113]],[[1835,1533],[117,187]],[[1952,1720],[13,22],[-2,5]],[[1963,1747],[-47,105]],[[1916,1852],[-12,29]],[[1904,1881],[-12,26]],[[1731,1367],[28,45]],[[1759,1412],[76,121]],[[1835,1533],[115,183]],[[1950,1716],[17,27],[-3,6]],[[1964,1749],[-18,40]],[[1946,1789],[-16,36]],[[1930,1825],[-37,82]],[[1891,1907],[25,-55]],[[1916,1852],[30,-63]],[[1946,1789],[17,-37]],[[863,1650],[23,24]],[[1223,1753],[69,8]],[[1292,1763],[-69,-9]],[[997,1754],[-18,21]],[[804,1790],[0,-1],[1,0],[0,1],[-1,0]],[[555,1528],[-24,-21]],[[532,1506],[27,21]],[[847,1548],[0,3]],[[1043,1049],[1,-222],[17,89],[-17,133]],[[311,1863],[-61,-81]],[[256,1779],[56,85]],[[1206,1642],[13,3]],[[817,1615],[-1,11]],[[817,1606],[-1,4]],[[2364,2511],[-1,1],[-1,-1],[2,-1],[0,1]],[[2369,2494],[-1,1],[-1,-1],[2,-1],[0,1]],[[1619,3519],[-2,-1]],[[993,1535],[-19,-1]],[[863,1815],[-5,-9]],[[943,572],[-14,47],[80,413],[-57,273],[-148,212]],[[1089,1453],[18,1]],[[843,1798],[0,1]],[[1301,1732],[68,8],[18,6]],[[1382,1745],[-81,-13]],[[1204,1802],[-75,-9],[-66,-31]],[[1064,1762],[65,30]],[[1235,1830],[-29,-28]],[[1563,2112],[29,10]],[[1648,3511],[0,6]],[[894,1732],[-1,0],[1,0]],[[812,1776],[28,-15]],[[1201,894],[-2,-13]],[[1539,2105],[-182,-57]],[[1357,2047],[181,57]],[[496,1774],[93,17],[107,-18],[73,-4],[11,1],[19,3]],[[799,1773],[-210,19],[-93,-18]],[[1183,1919],[2,2],[-1,1],[-2,-1],[1,-2]],[[1132,3238],[92,92],[74,35]],[[872,2007],[20,-30]],[[891,1969],[1,9],[0,2]],[[997,1940],[7,-10]],[[1004,1930],[1,-1]],[[1001,1931],[3,-1]],[[1004,1930],[5,-2]],[[1006,1929],[53,-17]],[[1059,1913],[-52,18]],[[845,1712],[-1,0]],[[844,1712],[1,0]],[[844,1711],[0,1],[-1,0],[0,-1],[1,0]],[[875,1748],[-27,11]],[[848,1757],[26,-10]],[[325,1731],[-76,52]],[[1050,517],[24,-108],[-26,-128]],[[685,1485],[-60,34],[-26,63]],[[599,1582],[-7,17]],[[593,1600],[6,-18]],[[599,1582],[16,-44]],[[1391,1834],[59,-1]],[[1450,1834],[-59,0]],[[1239,1960],[-57,-8]],[[1183,1952],[55,8]],[[1183,1890],[-11,-8]],[[816,1610],[1,5]],[[1204,852],[1,-1]],[[1205,851],[61,-53],[87,-32],[16,-105]],[[1369,661],[14,-99]],[[1383,562],[2,-9],[82,-72]],[[1467,481],[11,-10],[-5,-6]],[[1473,465],[-91,-107],[-12,-220],[-59,-138]],[[1312,0],[59,136],[11,220],[94,99],[-3,10]],[[1473,465],[-6,16]],[[1467,481],[-6,18],[-78,63]],[[1383,562],[-1,1],[-19,68],[6,30]],[[1369,661],[9,49],[-24,57],[-149,84]],[[1205,851],[-1,0]],[[1546,2099],[-14,-81]],[[944,4096],[1,-26]],[[945,4069],[-1,27]],[[983,3915]],[[984,3915],[-1,0]],[[887,1681],[-5,15]],[[1519,1975],[2,4]],[[969,1744],[-9,-25]],[[1533,2018],[26,85]],[[891,1778],[0,-1]],[[891,1777],[1,1]],[[4046,3543],[9,-1]],[[4066,3544],[30,3]],[[1013,1814],[86,63]],[[1098,1877],[-54,-27],[-31,-35]],[[1264,1934],[6,-4]],[[1270,1931],[-5,3]],[[804,1789],[2,-13],[15,-68]],[[807,1776],[-2,13]],[[1104,1867],[48,-15],[25,19]],[[1177,1873],[-25,-20],[-47,14]],[[1306,1907],[5,4],[-3,7]],[[1308,1917],[-2,-10]],[[4096,178],[0,-178],[-4096,0],[0,4096],[4096,0],[0,-3858],[-18,-20],[0,-25],[18,-15]],[[3312,3528],[90,5],[33,-67],[-74,-22],[-42,32],[-7,52]],[[492,871],[7,46],[43,-4],[-35,63],[24,21],[52,-65],[68,43],[53,-4],[38,-102],[32,-8],[22,-49],[-104,-28],[-133,76],[-67,11]],[[2591,1658],[38,148],[41,-6],[5,-94],[-43,-68],[-41,20]],[[1442,2069],[175,51],[275,26],[55,-219],[-200,-72],[-163,1],[-5,27],[-110,-37],[70,157],[-73,20],[-24,46]],[[0,2068],[149,92],[18,-29],[-33,8],[-111,-77],[-8,-44],[87,-103],[-102,-61],[0,214]],[[2398,2430],[-69,-4],[-33,150],[97,38],[98,-38],[-44,-118],[-49,-28]],[[4096,3132],[0,-160],[-51,-15],[-60,-46],[11,-64],[-17,66],[65,112],[32,0],[0,112],[20,-5]],[[771,3071],[-92,-9],[-15,105],[47,83],[58,-50],[26,-71],[-24,-58]],[[1940,2943],[-32,-68],[-97,38],[5,50],[70,64],[35,-18],[19,-66]],[[1365,2487],[26,-24],[-33,-112],[33,-61],[43,-43],[118,-45],[8,-71],[-80,-98],[-57,-168],[-32,-1],[0,-37],[-33,0],[0,-37],[-32,0],[-32,-75],[-33,0],[0,-38],[-32,0],[0,-37],[-65,-37],[0,-75],[-60,-54],[28,-208],[141,-190],[21,-72],[-33,-75],[-64,-38],[32,-187],[-65,-37],[0,-38],[-32,0],[-42,-113],[-55,1],[-33,38],[-129,37],[0,561],[-65,113],[32,37],[-67,50],[-159,25],[0,37],[-33,0],[0,38],[-32,0],[0,37],[-66,61],[-31,127],[55,120],[139,67],[-86,138],[86,198],[-32,38],[81,69],[16,43],[46,0],[83,-75],[65,0],[114,-80],[71,18],[74,100],[-32,37],[76,276],[256,122],[36,38],[20,-61],[-82,-32],[-72,-129],[-1,-78]],[[4096,2574],[0,-53],[-166,85],[-24,94],[34,61],[31,13],[-12,-41],[137,-159]],[[948,2657],[-75,-6],[40,141],[45,41],[77,5],[-6,-87],[-29,-60],[-52,-34]],[[272,3509],[18,-147],[-109,42],[-53,-5],[65,187],[55,-21],[24,-56]],[[4040,3519],[-28,-45],[-98,0],[-67,-84],[-30,9],[0,38],[-175,5],[-51,32],[10,102],[216,198],[162,-38],[97,-75],[-36,-142]],[[1747,3511],[-186,10],[-41,28],[41,63],[87,18],[79,-32],[20,-87]],[[900,4096],[19,0],[74,-76],[7,-69],[-30,-65],[-18,-4],[-14,41],[-65,0],[-13,49],[40,124]],[[2466,4096],[102,0],[20,-98],[-73,0],[-43,37],[-9,56],[3,5]],[[101,4096],[194,0],[-69,-98],[-65,75],[-60,23]],[[2529,1646],[69,240],[59,-17],[1,-23],[-16,-3],[-3,-34],[23,34],[0,34],[68,-13],[-77,-254],[-124,36]],[[2591,1658],[41,-20],[43,68],[-5,94],[-41,6],[-38,-148]],[[1253,1956],[103,84],[52,-5],[56,-62],[37,22],[22,-17],[-135,-120],[-84,33],[7,46],[60,18],[-12,41],[-94,-55],[-12,15]],[[3766,2750],[74,41],[58,-4],[39,-112],[-45,-22],[-109,15],[-17,82]]]}