{"objects":{"water":{"type":"GeometryCollection","geometries":[{"type":"Polygon","properties":{"source":"naturalearthdata.com","kind":"ocean","area":1576712559132672,"sort_rank":200,"min_zoom":0.0,"id":1},"arcs":[[15]]},{"type":"LineString","properties":{"source":"naturalearthdata.com","kind":"ocean","sort_rank":205,"boundary":true,"min_zoom":0.0,"id":44},"arcs":[16]}]},"buildings":{"type":"GeometryCollection","geometries":[]},"places":{"type":"GeometryCollection","geometries":[{"type":"Point","properties":{"name:zu":"eThekwini","kind":"locality","name":"Durban","name:mr":"\u0921\u0930\u092c\u0928","kind_detail":"city","name:ar":"\u062f\u064a\u0631\u0628\u0627\u0646","id":27564996,"source":"openstreetmap.org","min_zoom":8.0,"name:kn":"\u0ca1\u0cb0\u0ccd\u0cac\u0ca8\u0ccd","population":3460000,"name:ru":"\u0414\u0443\u0440\u0431\u0430\u043d","name:hi":"\u0921\u0930\u092c\u0928","name:sr":"\u0414\u0443\u0440\u0431\u0430\u043d","name:te":"\u0c21\u0c30\u0c4d\u0c2c\u0c28\u0c4d"},"coordinates":[211,2996]}]},"transit":{"type":"GeometryCollection","geometries":[{"type":"LineString","properties":{"kind":"train","network":"Metrorail KwaZulu-Natal","sort_rank":275,"colour":"#176fc1","name":"Durban\u2013Kelso","source":"openstreetmap.org","min_zoom":6.0,"operator":"PRASA","id":-1112787,"osm_relation":true,"colour_name":"steelblue"},"arcs":[2]},{"type":"LineString","properties":{"kind":"train","network":"Metrorail KwaZulu-Natal","sort_rank":275,"source":"openstreetmap.org","min_zoom":6.0,"operator":"PRASA","id":-1959553,"osm_relation":true,"name":"Durban\u2013Pinetown"},"arcs":[3]},{"type":"MultiLineString","properties":{"kind":"train","name":"Durban\u2013Cato Ridge","sort_rank":275,"source":"openstreetmap.org","min_zoom":6.0,"operator":"PRASA","osm_relation":true,"network":"Metrorail KwaZulu-Natal"},"arcs":[[4],[5]]},{"type":"LineString","properties":{"kind":"train","network":"Metrorail KwaZulu-Natal","sort_rank":275,"source":"openstreetmap.org","min_zoom":6.0,"operator":"PRASA","id":-1994511,"osm_relation":true,"name":"Durban\u2013Bluff"},"arcs":[6]},{"type":"LineString","properties":{"kind":"train","network":"Metrorail KwaZulu-Natal","sort_rank":275,"source":"openstreetmap.org","min_zoom":6.0,"operator":"PRASA","id":-1994512,"osm_relation":true,"name":"Umlazi\u2013Bluff"},"arcs":[7]},{"type":"MultiLineString","properties":{"kind":"train","name":"kwaMashu\u2013Durban\u2013Umlazi","sort_rank":275,"source":"openstreetmap.org","min_zoom":6.0,"operator":"PRASA","osm_relation":true,"network":"Metrorail KwaZulu-Natal"},"arcs":[[8],[9],[10]]},{"type":"LineString","properties":{"kind":"train","network":"Metrorail KwaZulu-Natal","sort_rank":275,"source":"openstreetmap.org","min_zoom":6.0,"operator":"PRASA","id":-1994534,"osm_relation":true,"name":"Durban\u2013Chatsworth"},"arcs":[11]},{"type":"LineString","properties":{"kind":"train","network":"Metrorail KwaZulu-Natal","sort_rank":275,"source":"openstreetmap.org","min_zoom":6.0,"operator":"PRASA","id":-1994510,"osm_relation":true,"name":"Chatsworth\u2013Bluff"},"arcs":[12]},{"type":"LineString","properties":{"kind":"train","network":"Metrorail KwaZulu-Natal","sort_rank":275,"source":"openstreetmap.org","min_zoom":6.0,"operator":"PRASA","id":-1994719,"osm_relation":true,"name":"Durban\u2013Stanger (via Greenwood Park)"},"arcs":[13]},{"type":"LineString","properties":{"kind":"train","network":"Metrorail KwaZulu-Natal","sort_rank":275,"source":"openstreetmap.org","min_zoom":6.0,"operator":"PRASA","id":-1994718,"osm_relation":true,"name":"Durban\u2013Stanger (via Effingham)"},"arcs":[14]}]},"pois":{"type":"GeometryCollection","geometries":[]},"boundaries":{"type":"GeometryCollection","geometries":[{"type":"LineString","properties":{"name:kg":"Afelika ya Sudi","name:ka":"\u10e1\u10d0\u10db\u10ee\u10e0\u10d4\u10d7 \u10d0\u10e4\u10e0\u10d8\u10d9\u10d0","name:tr":"G\u00fcney Afrika","name:ts":"Afrika-Dzonga","name:km":"\u17a2\u17b6\u1796\u17d2\u179a\u17b7\u1780\u200b\u1797\u17b6\u1782\u200b\u1781\u17b6\u1784\u200b\u178f\u17d2\u1794\u17bc\u1784","name:kk":"\u041e\u04a3\u0442\u04af\u0441\u0442\u0456\u043a \u0410\u0444\u0440\u0438\u043a\u0430","name:tt":"\u041a\u04e9\u043d\u044c\u044f\u043a \u0410\u0444\u0440\u0438\u043a\u0430","name:kw":"Afrika Dhyhow","name:tk":"G\u00fcnorta Afrika","name:th":"\u0e41\u0e2d\u0e1f\u0e23\u0e34\u0e01\u0e32\u0e43\u0e15\u0e49","name:ti":"\u12f0\u1261\u1265 \u12a0\u134d\u122a\u12ab","name:tn":"Aferika Borwa","name:to":"\u02bbAfilika tonga","name:tl":"Timog Aprika","name:ce":"\u041a\u044a\u0438\u043b\u0431\u0430-\u0410\u0444\u0440\u0438\u043a\u0438\u043d \u0420\u0435\u0441\u043f\u0443\u0431\u043b\u0438\u043a\u0430","name:ta":"\u0ba4\u0bc6\u0ba9\u0bcd \u0b86\u0baa\u0bcd\u0baa\u0bbf\u0bb0\u0bbf\u0b95\u0bcd\u0b95\u0bbe","name:tg":"\u0410\u0444\u0440\u0438\u049b\u043e\u0438 \u04b6\u0430\u043d\u0443\u0431\u04e3","name:ky":"\u0410\u0444\u0440\u0438\u043a\u0430\u0430\u043d\u0441 \u0442\u0438\u043b\u0438","name:te":"\u0c26\u0c15\u0c4d\u0c37\u0c3f\u0c23 \u0c06\u0c2b\u0c4d\u0c30\u0c3f\u0c15\u0c3e \u0c30\u0c3e\u0c1c\u0c4d\u0c2f\u0c02","alt_name:ln":"Afr\u00edka ya S\u00fadi","name:cy":"De Affrica","name:hr":"Ju\u017ena Afrika","name:da":"Sydafrika","name:de":"S\u00fcdafrika","name:dz":"\u0f66\u0f71\u0f60\u0f74\u0f50\u0f0b \u0f68\u0f55\u0f0b\u0f62\u0f72\u0f0b\u0f40","source":"openstreetmap.org","name:kn":"\u0ca6\u0c95\u0ccd\u0cb7\u0cbf\u0ca3 \u0c86\u0cab\u0ccd\u0cb0\u0cbf\u0c95\u0cbe","name:dv":"\u078b\u07ac\u0786\u07aa\u0782\u07aa \u0787\u07ac\u078a\u07b0\u0783\u07a8\u0786\u07a7","name:lv":"Dienvid\u0101frika","name:lt":"Piet\u0173 Afrika","name:uz":"Janubiy Afrika","name:cs":"Jihoafrick\u00e1 republika","name:ur":"\u062c\u0646\u0648\u0628\u06cc \u0627\u0641\u0631\u06cc\u0642\u06c1","name:lb":"S\u00fcdafrika","name:la":"Africa Australis","name:ki":"Ab\u0129rika Kusini","name:uk":"\u041f\u0456\u0432\u0434\u0435\u043d\u043d\u0430 \u0410\u0444\u0440\u0438\u043a\u0430","name:ug":"\u062c\u06d5\u0646\u06c7\u0628\u0649\u064a \u0626\u0627\u0641\u0631\u0649\u0642\u0627","name:li":"Zuud-Afrika","name:ln":"Sidafr\u00edka","name:lo":"\u0ead\u0eb2\u0e9f\u0eb0\u0ea5\u0eb4\u0e81\u0eb2\u0ec3\u0e95\u0ec9","name:el":"\u039d\u03cc\u03c4\u03b9\u03b1 \u0391\u03c6\u03c1\u03b9\u03ba\u03ae","name:eo":"Sud-Afriko","name":"South Africa","name:kv":"\u041b\u0443\u043d\u0432\u044b\u0432 \u0410\u0444\u0440\u0438\u043a\u0430\u0441\u0430 \u0420\u0435\u0441\u043f\u0443\u0431\u043b\u0438\u043a\u0430","name:ee":"Anyiehe Afrika nutome","name:ku":"Afr\u00eekaya Ba\u015f\u00fbr","name:eu":"Hegoafrika","name:ks":"\u062c\u064e\u0646\u0648\u0657\u0628\u06cc \u0627\u064e\u0641\u0631\u06cc\u0656\u06a9\u0627","name:es":"Sud\u00e1frica","name:ia":"Africa del Sud","name:rm":"Africa dal Sid","name:rn":"Afurika y'Epfo","name:az":"C\u0259nub Afrika","name:ie":"Sudafrica","name:id":"Afrika Selatan","name:ar":"\u062c\u0646\u0648\u0628 \u0623\u0641\u0631\u064a\u0642\u064a\u0627","name:io":"Sud-Afrika","name:is":"Su\u00f0ur-Afr\u00edka","name:am":"\u12f0\u1261\u1265 \u12a0\u134d\u122a\u12ab","name:it":"Sudafrica","name:an":"Sudafrica","name:ru":"\u042e\u0436\u043d\u0430\u044f \u0410\u0444\u0440\u0438\u043a\u0430","name:rw":"Afurika y\u2019Epfo","name:af":"Suid-Afrika","name:zu":"iNingizimu Afrika","kind_detail":"2","name:ca":"Sud-\u00e0frica","name:zh-yue":"\u5357\u975e\u5171\u548c\u570b","name:zh":"\u5357\u975e","name:so":"Koonfur Afrika","name:sl":"Ju\u017ena Afrika","name:sk":"Ju\u017en\u00e1 Afrika","name:ja":"\u5357\u30a2\u30d5\u30ea\u30ab","name:si":"\u0daf\u0d9a\u0dd4\u0dab\u0dd4 \u0d85\u0db4\u0dca\u200d\u0dbb\u0dd2\u0d9a\u0dcf\u0dc0","name:sh":"Ju\u017ena Afrika","name:sg":"Afr\u00eeka-Mbongo","name:se":"Lulli-Afrihk\u00e1","name:sc":"Sud\u00e0frica","name:br":"Suafrika","name:bs":"Ju\u017ena Afrika","name:bm":"Worodugu Afriki","name:bn":"\u09a6\u0995\u09cd\u09b7\u09bf\u09a3 \u0986\u09ab\u09cd\u09b0\u09bf\u0995\u09be","name:bo":"\u0f63\u0fb7\u0f7c\u0f0b \u0f68\u0f55\u0fb2\u0f72\u0f0b\u0f40\u0f0d","name:sa":"\u0926\u0915\u094d\u0937\u093f\u0923-\u0906\u092b\u094d\u0930\u093f\u0915\u093e","name:et":"L\u00f5una-Aafrika","name:sw":"Afrika Kusini","name:be":"\u041f\u0430\u045e\u0434\u043d\u0451\u0432\u0430-\u0410\u0444\u0440\u044b\u043a\u0430\u043d\u0441\u043a\u0430\u044f \u0420\u044d\u0441\u043f\u0443\u0431\u043b\u0456\u043a\u0430","name:su":"Afrika Kidul","name:st":"Afrika Borwa","name:ss":"INingizimu Afrika","name:sr":"\u0408\u0443\u0436\u043d\u0430 \u0410\u0444\u0440\u0438\u043a\u0430","name:sq":"Afrika e Jugut","name:jv":"Afrika Kidul","name:pt":"\u00c1frica do Sul","name:ps":"\u0633\u0648\u06cc\u0644\u064a \u0627\u0641\u0631\u06cc\u0642\u0627","alt_name:gl":"\u00c1frica do Sur","name:oc":"Sud-Africa","alt_name:oc":"Africa del Sud","min_zoom":8.0,"name:ro":"Africa de Sud","name:ko":"\ub0a8\uc544\ud504\ub9ac\uce74","name:zh-min-nan":"L\u00e2m-hui-kok","name:os":"\u0425\u0443\u0441\u0441\u0430\u0440 \u0410\u0444\u0440\u0438\u043a\u00e6\u0439\u044b","name:or":"\u0b26\u0b15\u0b4d\u0b37\u0b3f\u0b23 \u0b06\u0b2b\u0b4d\u0b30\u0b3f\u0b15\u0b3e","name:pl":"Republika Po\u0142udniowej Afryki","name:bg":"\u042e\u0436\u043d\u0430 \u0410\u0444\u0440\u0438\u043a\u0430","sort_rank":262,"osm_relation":true,"name:xh":"uMzantsi Afrika","name:pa":"\u0a26\u0a71\u0a16\u0a23\u0a40 \u0a05\u0a2b\u0a3c\u0a30\u0a40\u0a15\u0a3e","name:cv":"\u041a\u0103\u043d\u0442\u0103\u0440 \u0410\u0444\u0440\u0438\u043a\u0430","name:hi":"\u0926\u0915\u094d\u0937\u093f\u0923 \u0905\u092b\u093c\u094d\u0930\u0940\u0915\u093e","name:sv":"Sydafrika","name:he":"\u05d3\u05e8\u05d5\u05dd \u05d0\u05e4\u05e8\u05d9\u05e7\u05d4","name:ha":"Afirka ta Kudu","name:hy":"\u0540\u0561\u0580\u0561\u057e\u0561\u0575\u056b\u0576 \u0531\u0586\u0580\u056b\u056f\u0561","name:ht":"Afrik disid","name:hu":"D\u00e9l-Afrika","name:qu":"Urin Aphrika","kind":"country","name:ak":"Afrika Anaafo","name:yi":"\u05d3\u05e8\u05d5\u05dd \u05d0\u05e4\u05e8\u05d9\u05e7\u05e2","name:yo":"G\u00fa\u00fas\u00f9 \u00c1fr\u00edk\u00e0","name:mt":"Afrika t\u2019Isfel","alt_name:eo":"Sudafriko","name:ms":"Afrika Selatan","name:mr":"\u0926\u0915\u094d\u0937\u093f\u0923 \u0905\u092b\u094d\u0930\u093f\u0915\u093e","name:my":"\u1010\u1031\u102c\u1004\u103a\u1021\u102c\u1016\u101b\u102d\u1000","official_name":"Republic of South Africa","name:mg":"Afrika Atsimo","name:ve":"Afurika Tshipembe","name:ml":"\u0d26\u0d15\u0d4d\u0d37\u0d3f\u0d23\u0d3e\u0d2b\u0d4d\u0d30\u0d3f\u0d15\u0d4d\u0d15","name:vi":"Nam Phi","name:mn":"\u04e8\u043c\u043d\u04e9\u0434 \u0410\u0444\u0440\u0438\u043a","name:mi":"\u0100wherika-ki-te-tonga","id":-87565,"name:mk":"\u0408\u0443\u0436\u043d\u0430 \u0410\u0444\u0440\u0438\u043a\u0430","name:vo":"Sul\u00fcdafrik\u00e4n","name:fa":"\u0622\u0641\u0631\u06cc\u0642\u0627\u06cc \u062c\u0646\u0648\u0628\u06cc","name:ff":"Afrik b\u014b Worgo","name:fi":"Etel\u00e4-Afrikka","name:fo":"Su\u00f0urafrika","name:fr":"Afrique du Sud","name:fy":"S\u00fad-Afrika","name:nl":"Zuid-Afrika","name:nn":"S\u00f8r-Afrika","name:no":"S\u00f8r-Afrika","name:ne":"\u0926\u0915\u094d\u0937\u093f\u0923 \u0905\u092b\u094d\u0930\u093f\u0915\u093e","name:wa":"Nonne-Afrike","name:wo":"Afrig gu B\u00ebj-saalum","name:nv":"K\u00e9yah Naakai \u0141izhinii Bik\u00e9yah Sh\u00e1di\u02bc\u00e1\u00e1hj\u00ed Si\u02bc\u00e1n\u00edg\u00ed\u00ed","name:ga":"An Afraic Theas","name:gd":"Afraga a Deas","name:gn":"Yvyafrika","name:gl":"Sud\u00e1frica","maritime_boundary":true,"alt_name:wo":"Afrig gu B\u00ebj-g\u00e0nnaar","name:gv":"Yn Affrick Yiass","name:gu":"\u0aa6\u0a95\u0acd\u0ab7\u0abf\u0aa3 \u0a86\u0aab\u0acd\u0ab0\u0abf\u0a95\u0abe","name:lg":"Sawusafirika"},"arcs":[0]},{"type":"LineString","properties":{"kind":"region","name":"KwaZulu-Natal","sort_rank":256,"kind_detail":"4","min_zoom":8.0,"source":"openstreetmap.org","maritime_boundary":true,"name:ru":"\u041a\u0432\u0430\u0437\u0443\u043b\u0443-\u041d\u0430\u0442\u0430\u043b\u044c","id":-349390,"osm_relation":true},"arcs":[1]}]},"roads":{"type":"GeometryCollection","geometries":[{"type":"MultiLineString","properties":{"source":"openstreetmap.org","kind":"major_road","sort_rank":380,"kind_detail":"primary","ref":"M65","min_zoom":8.0},"arcs":[[17],[18]]},{"type":"MultiLineString","properties":{"sort_rank":380,"kind_detail":"primary","min_zoom":8.0,"kind":"major_road","source":"openstreetmap.org"},"arcs":[[19],[20],[21]]},{"type":"MultiLineString","properties":{"source":"openstreetmap.org","kind":"major_road","landuse_kind":"urban_area","sort_rank":380,"kind_detail":"primary","ref":"M25","min_zoom":8.0},"arcs":[[22],[23]]},{"type":"MultiLineString","properties":{"kind":"highway","network":"za:national","sort_rank":383,"landuse_kind":"urban_area","source":"openstreetmap.org","min_zoom":8.0,"all_networks":["za:national"],"kind_detail":"motorway","shield_text":"2","ref":"N2","all_shield_texts":["2"]},"arcs":[[24],[25],[26],[27],[28],[29]]},{"type":"MultiLineString","properties":{"kind":"major_road","network":"za:regional","sort_rank":380,"kind_detail":"primary","source":"openstreetmap.org","min_zoom":8.0,"landuse_kind":"urban_area","shield_text":"102","ref":"R102"},"arcs":[[30],[31],[32],[33],[34],[35],[36],[37],[38],[39],[40],[41],[42],[43],[44],[45],[46]]},{"type":"LineString","properties":{"kind":"major_road","sort_rank":380,"landuse_kind":"urban_area","source":"openstreetmap.org","min_zoom":8.0,"kind_detail":"primary","ref":"M4","id":45471818},"arcs":[47]},{"type":"MultiLineString","properties":{"source":"openstreetmap.org","kind":"highway","sort_rank":383,"kind_detail":"motorway","ref":"M7","min_zoom":8.0},"arcs":[[48],[49]]},{"type":"MultiLineString","properties":{"kind":"major_road","network":"za:regional","sort_rank":380,"kind_detail":"primary","source":"openstreetmap.org","min_zoom":8.0,"shield_text":"102","ref":"R102"},"arcs":[[50],[51],[52],[53],[54],[55],[56]]},{"type":"MultiLineString","properties":{"source":"openstreetmap.org","kind":"highway","sort_rank":383,"kind_detail":"motorway","ref":"M4","min_zoom":8.0},"arcs":[[57],[58],[59],[60]]},{"type":"MultiLineString","properties":{"source":"openstreetmap.org","kind":"major_road","sort_rank":380,"kind_detail":"primary","ref":"M4","min_zoom":8.0},"arcs":[[61],[62],[63],[64],[65],[66],[67],[68],[69],[70],[71],[72],[73],[74],[75],[76],[77],[78],[79],[80],[81],[82],[83],[84],[85],[86],[87],[88],[89],[90],[91]]},{"type":"LineString","properties":{"kind":"major_road","sort_rank":380,"landuse_kind":"urban_area","source":"openstreetmap.org","min_zoom":8.0,"kind_detail":"primary","ref":"M9","id":39739544},"arcs":[92]},{"type":"MultiLineString","properties":{"source":"openstreetmap.org","kind":"major_road","sort_rank":380,"kind_detail":"primary","ref":"M1","min_zoom":8.0},"arcs":[[93],[94]]},{"type":"MultiLineString","properties":{"source":"openstreetmap.org","kind":"major_road","landuse_kind":"urban_area","sort_rank":380,"kind_detail":"primary","ref":"M41","min_zoom":8.0},"arcs":[[95],[96],[97],[98]]},{"type":"MultiLineString","properties":{"kind":"highway","network":"za:national","sort_rank":383,"kind_detail":"motorway","source":"openstreetmap.org","min_zoom":8.0,"all_networks":["za:national"],"shield_text":"2","ref":"N2","all_shield_texts":["2"]},"arcs":[[99],[100],[101],[102],[103],[104],[105],[106]]},{"type":"MultiLineString","properties":{"source":"openstreetmap.org","kind":"highway","landuse_kind":"urban_area","sort_rank":383,"kind_detail":"motorway","ref":"M7","min_zoom":8.0},"arcs":[[107],[108],[109],[110]]},{"type":"MultiLineString","properties":{"source":"openstreetmap.org","kind":"major_road","landuse_kind":"urban_area","sort_rank":380,"kind_detail":"primary","min_zoom":8.0},"arcs":[[111],[112],[113],[114],[115],[116],[117],[118],[119]]},{"type":"LineString","properties":{"kind":"major_road","sort_rank":380,"landuse_kind":"urban_area","source":"openstreetmap.org","min_zoom":8.0,"kind_detail":"primary","ref":"R102","id":163336249},"arcs":[120]},{"type":"MultiLineString","properties":{"source":"openstreetmap.org","kind":"highway","landuse_kind":"urban_area","sort_rank":383,"kind_detail":"motorway","min_zoom":8.0},"arcs":[[121],[122],[123]]},{"type":"MultiLineString","properties":{"source":"openstreetmap.org","kind":"highway","sort_rank":383,"kind_detail":"motorway","ref":"M13","min_zoom":8.0},"arcs":[[124],[125]]},{"type":"LineString","properties":{"kind":"major_road","network":"za:regional","sort_rank":380,"kind_detail":"primary","source":"openstreetmap.org","min_zoom":8.0,"old_name":"Gale Street","shield_text":"102","landuse_kind":"urban_area","ref":"R102","id":32827172},"arcs":[126]},{"type":"MultiLineString","properties":{"kind":"major_road","network":"za:regional","sort_rank":380,"kind_detail":"primary","source":"openstreetmap.org","min_zoom":8.0,"landuse_kind":"urban_area","shield_text":"102","ref":"M7"},"arcs":[[127],[128]]},{"type":"LineString","properties":{"kind":"major_road","network":"za:national","sort_rank":381,"kind_detail":"trunk","source":"openstreetmap.org","min_zoom":8.0,"old_name":"Pine Street","shield_text":"3","landuse_kind":"urban_area","ref":"N3","id":48573011},"arcs":[129]},{"type":"MultiLineString","properties":{"kind":"highway","network":"za:national","sort_rank":383,"kind_detail":"motorway","source":"openstreetmap.org","min_zoom":8.0,"all_networks":["za:national","sadc"],"shield_text":"3","ref":"N3","all_shield_texts":["3","36"]},"arcs":[[130],[131]]},{"type":"MultiLineString","properties":{"source":"openstreetmap.org","kind":"highway","landuse_kind":"urban_area","sort_rank":383,"kind_detail":"motorway","ref":"M13","min_zoom":8.0},"arcs":[[132],[133]]},{"type":"MultiLineString","properties":{"source":"openstreetmap.org","kind":"major_road","sort_rank":380,"kind_detail":"primary","ref":"P577","min_zoom":8.0},"arcs":[[134],[135]]},{"type":"MultiLineString","properties":{"source":"openstreetmap.org","kind":"major_road","landuse_kind":"urban_area","sort_rank":380,"kind_detail":"primary","ref":"P577","min_zoom":8.0},"arcs":[[136],[137]]},{"type":"MultiLineString","properties":{"kind":"major_road","sort_rank":380,"kind_detail":"primary","source":"openstreetmap.org","min_zoom":8.0,"old_name":"Francoise Road","landuse_kind":"urban_area","ref":"M9"},"arcs":[[138],[139]]},{"type":"MultiLineString","properties":{"kind":"major_road","network":"za:national","sort_rank":381,"landuse_kind":"urban_area","source":"openstreetmap.org","min_zoom":8.0,"kind_detail":"trunk","shield_text":"3","ref":"N3"},"arcs":[[140],[141]]},{"type":"LineString","properties":{"source":"openstreetmap.org","kind":"major_road","old_name":"West Street","sort_rank":380,"kind_detail":"primary","landuse_kind":"urban_area","min_zoom":8.0},"arcs":[142]},{"type":"LineString","properties":{"source":"openstreetmap.org","kind":"major_road","old_name":"Smith Street","sort_rank":380,"kind_detail":"primary","landuse_kind":"urban_area","min_zoom":8.0},"arcs":[143]},{"type":"MultiLineString","properties":{"source":"openstreetmap.org","kind":"highway","landuse_kind":"urban_area","sort_rank":383,"kind_detail":"motorway","ref":"M19","min_zoom":8.0},"arcs":[[144],[145]]},{"type":"MultiLineString","properties":{"source":"openstreetmap.org","kind":"highway","landuse_kind":"urban_area","sort_rank":383,"kind_detail":"motorway","ref":"M4","min_zoom":8.0},"arcs":[[146],[147],[148],[149],[150],[151],[152]]},{"type":"MultiLineString","properties":{"source":"openstreetmap.org","kind":"major_road","landuse_kind":"urban_area","sort_rank":380,"kind_detail":"primary","ref":"M7","min_zoom":8.0},"arcs":[[153],[154],[155],[156],[157],[158]]},{"type":"LineString","properties":{"kind":"major_road","sort_rank":380,"kind_detail":"primary","source":"openstreetmap.org","min_zoom":8.0,"old_name":"Jan Smuts Highway","landuse_kind":"urban_area","ref":"M13"},"arcs":[159]},{"type":"MultiLineString","properties":{"source":"openstreetmap.org","kind":"major_road","sort_rank":380,"kind_detail":"primary","ref":"M25","min_zoom":8.0},"arcs":[[160],[161]]},{"type":"MultiLineString","properties":{"source":"openstreetmap.org","kind":"major_road","landuse_kind":"urban_area","sort_rank":380,"kind_detail":"primary","ref":"M1","min_zoom":8.0},"arcs":[[162],[163],[164],[165]]},{"type":"MultiLineString","properties":{"kind":"major_road","sort_rank":380,"kind_detail":"primary","source":"openstreetmap.org","min_zoom":8.0,"old_name":"Edwin Swales VC Drive","landuse_kind":"urban_area","ref":"M7"},"arcs":[[166],[167]]},{"type":"MultiLineString","properties":{"source":"openstreetmap.org","kind":"major_road","landuse_kind":"urban_area","sort_rank":380,"kind_detail":"primary","ref":"M19","min_zoom":8.0},"arcs":[[168],[169]]},{"type":"MultiLineString","properties":{"source":"openstreetmap.org","kind":"major_road","sort_rank":380,"kind_detail":"primary","ref":"M41","min_zoom":8.0},"arcs":[[170],[171]]},{"type":"MultiLineString","properties":{"source":"openstreetmap.org","kind":"highway","sort_rank":383,"kind_detail":"motorway","ref":"M19","min_zoom":8.0},"arcs":[[172],[173]]},{"type":"MultiLineString","properties":{"kind":"highway","network":"za:national","sort_rank":383,"landuse_kind":"urban_area","source":"openstreetmap.org","min_zoom":8.0,"all_networks":["za:national","sadc"],"kind_detail":"motorway","shield_text":"3","ref":"N3","all_shield_texts":["3","36"]},"arcs":[[174],[175]]},{"type":"MultiLineString","properties":{"source":"openstreetmap.org","kind":"major_road","landuse_kind":"urban_area","sort_rank":380,"kind_detail":"primary","ref":"M13","min_zoom":8.0},"arcs":[[176],[177],[178],[179]]}]},"earth":{"type":"GeometryCollection","geometries":[{"type":"Polygon","properties":{"sort_rank":10,"source":"naturalearthdata.com","kind":"earth","min_zoom":0.0,"id":4684},"arcs":[[180]]}]},"landuse":{"type":"GeometryCollection","geometries":[{"type":"Polygon","properties":{"source":"naturalearthdata.com","kind":"urban_area","name":"","area":895790528,"sort_rank":11,"min_zoom":4.0,"id":10286},"arcs":[[181]]}]}},"type":"Topology","transform":{"translate":[30.9375,-30.7512777763],"scale":[0.0003433228,0.0002968868]},"arcs":[[[0,1071],[412,896],[311,344],[247,363],[57,204],[-6,239],[49,107],[193,349],[103,116],[264,407]],[[0,1071],[412,896],[311,344],[247,363],[57,204],[-6,239],[49,107],[193,349],[103,116],[264,407]],[[248,3053],[-108,-149],[-33,-119],[-107,-148]],[[0,2921],[117,-74],[131,206]],[[83,2848],[-83,17]],[[249,3053],[-130,-205],[-38,0]],[[339,2940],[-211,-153],[-20,54],[140,212]],[[339,2940],[-188,-148],[-38,7],[-113,-160]],[[223,3020],[-116,-179],[0,-56],[-107,-146]],[[222,3019],[1,1]],[[223,3020],[44,113],[-84,67],[-5,58],[35,91],[-12,64],[-101,-46]],[[248,3053],[-108,-149],[-32,-118],[-56,-79],[-8,50],[-44,21]],[[339,2940],[-188,-148],[-38,7],[-62,-93],[-7,51],[-44,21]],[[633,4096],[-127,-139],[-45,2],[-48,-113],[-76,-81],[-56,-233],[-64,-38],[-16,-37],[-7,-69],[65,-77],[-46,-133],[54,-45],[-48,-121]],[[633,4096],[-127,-139],[-45,2],[-48,-113],[-76,-81],[-56,-233],[-64,-38],[-16,-37],[-8,-82],[20,-26],[-35,-91],[5,-58],[84,-67],[-48,-121]],[[0,2515],[251,232],[75,91],[26,43],[9,24],[5,23],[0,25],[-37,-36],[-99,-33],[-44,-25],[14,89],[28,27],[117,-1],[-31,131],[30,134],[382,772],[61,85],[3309,0],[0,-4096],[-4096,0],[0,2515]],[[0,2515],[251,232],[75,91],[26,43],[9,24],[5,23],[0,25],[-37,-36],[-99,-33],[-44,-25],[14,89],[28,27],[117,-1],[-31,131],[30,134],[382,772],[61,85]],[[450,3808],[87,-36]],[[537,3774],[-2,2],[-4,9],[-78,23]],[[10,2675],[-10,-5]],[[0,2671],[10,4]],[[537,3772],[-3,-8]],[[1,3543],[49,3],[10,-37],[40,5],[93,-88],[24,-54]],[[217,3373],[-118,141],[-40,-5],[-9,37],[-49,-3]],[[10,2630],[23,45],[-3,11],[9,156],[4,19],[-10,78],[6,74],[24,73],[2,2]],[[65,3088],[36,66]],[[101,3154],[17,29],[8,11],[44,49],[7,34],[24,48],[146,117]],[[347,3441],[-147,-117],[-29,-81],[-53,-61],[-17,-28]],[[101,3154],[-34,-60],[-2,-6]],[[65,3088],[-6,-18],[-2,-5],[-5,-21],[-13,-31],[-6,-74],[10,-78],[-9,-186],[-24,-46]],[[10,2635],[10,16]],[[126,2854],[-2,-18],[-11,-37],[-11,-23]],[[102,2776],[-1,-2]],[[101,2774],[0,-1],[-81,-122]],[[20,2651],[8,32],[70,91],[3,0]],[[101,2774],[1,2]],[[102,2776],[11,22],[12,54]],[[122,2876],[0,3],[42,80]],[[215,2997],[-92,-120]],[[203,2996],[8,5]],[[251,3079],[1,78],[-28,16],[26,104]],[[250,3277],[10,40],[-43,48],[0,8]],[[217,3372],[0,-7],[22,-19],[21,-29],[-10,-40]],[[250,3277],[-27,-102]],[[249,3159],[8,-6],[5,-14],[-3,-20],[-7,-40]],[[285,3563],[-16,69],[0,2],[7,15]],[[277,3649],[14,-93]],[[391,3386],[8,17]],[[7,2942],[-7,0]],[[0,2943],[7,-1]],[[0,2620],[10,15]],[[276,3649],[30,66],[10,21]],[[316,3736],[7,17]],[[323,3753],[0,1],[125,94],[-119,-94],[-6,-1]],[[323,3753],[-1,-1],[-6,-16]],[[316,3736],[-9,-21],[-30,-66]],[[291,3556],[3,-12]],[[288,3134],[7,44],[5,13]],[[300,3191],[6,15]],[[306,3206],[-6,-15]],[[300,3191],[-5,-13],[-7,-44]],[[399,3403],[12,26]],[[440,3485],[-29,-56]],[[440,3485],[49,111]],[[489,3596],[-1,3]],[[488,3600],[0,4]],[[488,3604],[17,85],[116,123]],[[488,3604],[1,-4]],[[489,3599],[0,-3]],[[621,3812],[46,73]],[[669,3888],[-2,-3]],[[667,3885],[1,3]],[[669,3889],[2,3]],[[671,3892],[-1,-4]],[[671,3892],[3,7]],[[675,3900],[43,97]],[[751,4083],[-36,-77]],[[717,4000],[-2,6]],[[715,4006],[3,-6]],[[718,3997],[-1,2]],[[718,3999],[0,-2]],[[752,4084],[-1,-1]],[[751,4083],[0,2]],[[752,4086],[1,1]],[[753,4087],[1,9]],[[753,4087],[0,-2]],[[489,3600],[0,-1],[-1,1],[1,0]],[[621,3812],[1,0],[-1,0]],[[669,3889],[0,-1],[-1,0],[0,1],[1,0]],[[675,3900],[0,-1],[-2,0],[1,1],[1,0]],[[718,3999],[-1,0],[0,1],[1,0],[0,-1]],[[753,4085],[-2,-1],[0,2],[1,0],[1,-1]],[[83,2990],[33,-30]],[[9,2771],[-9,6]],[[0,2778],[9,-6]],[[291,3551],[-6,12]],[[381,3388],[-7,34]],[[374,3421],[7,-14]],[[381,3406],[9,-24]],[[10,2629],[-10,-18]],[[0,2612],[10,18]],[[347,3442],[34,85],[9,12]],[[390,3539],[11,14]],[[401,3553],[3,4],[1,1],[63,93],[7,15],[0,2],[14,43],[6,13],[79,115],[26,97],[50,62],[86,90],[2,8]],[[739,4096],[-3,-9],[-135,-151],[-27,-99],[-105,-187],[-63,-93],[-1,-1],[-4,-3]],[[401,3553],[-6,-4],[-5,-10]],[[390,3539],[-6,-13],[-37,-85]],[[7,2942],[9,-1]],[[16,2941],[19,-2]],[[32,2940],[-16,1]],[[16,2941],[-9,1]],[[10,2675]],[[10,2675]],[[183,3158],[-9,-45],[-20,-46],[-18,-26],[47,117]],[[194,3381],[9,4],[12,2],[-21,-6]],[[251,3158],[-30,2]],[[222,3161],[27,-2]],[[266,3117],[16,-11]],[[275,3008],[-6,67]],[[270,3074],[8,-65]],[[125,2852],[0,1]],[[226,3347],[-1,3]],[[230,3349],[0,2]],[[236,3351],[-4,-2]],[[5,3092],[-5,-2]],[[0,3091],[5,1]],[[164,2959],[39,37]],[[123,2854],[-4,6]],[[119,2861],[7,-7]],[[231,3007],[-3,1]],[[6,3052],[-6,-3]],[[0,3050],[6,2]],[[5,3092],[67,9]],[[72,3101],[-67,-9]],[[3,3323],[-3,-1]],[[0,3322],[3,1]],[[3,3323],[31,7],[103,-2],[57,53]],[[194,3381],[-56,-53],[-135,-5]],[[159,2932],[-43,28]],[[159,2932],[10,-6]],[[228,3009],[5,0]],[[233,3008],[-2,-1]],[[211,3001],[66,11]],[[278,3009],[-68,-12]],[[5,3159],[98,35]],[[103,3193],[-98,-35]],[[21,2649],[22,28]],[[43,2677],[1,2],[45,34],[42,167],[87,118]],[[221,2998],[-14,-20],[-76,-98],[-6,-88],[-1,-2],[-22,-51],[-12,-26],[-3,-3],[-18,-18],[-16,-10],[-9,-4],[-1,-1]],[[43,2677],[-14,-10],[-6,-11]],[[269,3075],[19,59]],[[288,3134],[-6,-31],[-12,-29]],[[306,3206],[36,89],[49,91],[-55,-101],[-30,-79]],[[119,2860],[-47,70]],[[72,2930],[47,-69]],[[179,2808],[-1,1]],[[178,2809],[0,1],[-1,1],[-4,8],[-1,1],[-49,34]],[[126,2854],[47,-34],[5,-9],[0,-1],[0,-1]],[[178,2809],[0,-1]],[[91,3094],[21,-21],[11,-33],[-32,54]],[[1,3543],[-1,0]],[[0,3543],[1,0]],[[9,2772],[28,-19],[6,-2],[12,-6]],[[55,2745],[15,-7],[0,-1]],[[71,2738],[-16,7]],[[55,2745],[-12,6],[-7,2],[-27,18]],[[72,2930],[-40,10]],[[35,2939],[37,-9]],[[103,3194],[119,-33]],[[221,3160],[-98,21],[-20,12]],[[374,3422],[-22,43],[-57,74],[-4,12]],[[294,3544],[58,-79],[22,-44]],[[5,3158],[-5,-2]],[[0,3157],[5,2]],[[6,3052],[49,15],[58,3],[4,-1],[12,-5],[11,-17],[72,-26],[16,-12]],[[226,3009],[-87,37],[-26,23],[-107,-17]],[[91,3094],[-19,7]],[[72,3101],[2,0],[17,-7]],[[123,3040],[20,-6]],[[135,3037],[1,4]],[[787,4096],[-61,-85],[-382,-772],[-30,-134],[31,-131],[-117,1],[-28,-27],[-14,-89],[44,25],[99,33],[37,36],[0,-25],[-5,-23],[-9,-24],[-26,-43],[-75,-91],[-251,-232],[0,1581],[787,0]],[[192,3654],[99,-6],[0,-112],[40,-83],[87,-64],[-80,-178],[-80,-12],[13,-51],[44,-37],[30,-137],[-117,1],[-28,-27],[-14,-89],[180,94],[0,-25],[-115,-181],[-240,-221],[-11,1122],[64,-74],[98,119],[31,-7],[-1,-32]]]}