{"objects":{"water":{"type":"GeometryCollection","geometries":[]},"buildings":{"type":"GeometryCollection","geometries":[]},"places":{"type":"GeometryCollection","geometries":[{"type":"Point","properties":{"alt_name:eo":"Gomel","int_name":"Homie\u013a","name:ka":"\u10d2\u10dd\u10db\u10d4\u10da\u10d8","name:ko":"\ud638\uba94","name:ar":"\u063a\u0648\u0645\u064a\u0644","name:tw":"\u6208\u6885\u5229","name:tr":"Gomel","name:th":"\u0e01\u0e2d\u0e40\u0e21\u0e25","name:sk":"Home\u013e","name:pl":"Homel","name:ta":"\u0b95\u0bcb\u0bae\u0bc6\u0bb2\u0bcd","id":26151301,"name:vo":"Homyel","name:fa":"\u06af\u0648\u0645\u0644","name:hu":"Homel","kind_detail":"city","name:de":"Homel","source":"openstreetmap.org","name:fr":"Homiel","alt_name:lv":"Gome\u013ca","name:lv":"Homje\u013ca","name:ja":"\u30db\u30e1\u30ea","name:lt":"Gomelis","name:no":"Homjel","name:sg":"\u6208\u6885\u5229","name:he":"\u05d4\u05d5\u05de\u05dc","kind":"locality","name:ur":"\u06af\u0648\u0645\u0644","name:uk":"\u0413\u043e\u043c\u0454\u043b\u044c","name:bg":"\u0413\u043e\u043c\u0435\u043b","name:sr":"\u0413\u043e\u043c\u0435\u0459","population":535229,"name:el":"\u0393\u03cc\u03bc\u03b5\u03bb","name:eo":"Homel","name:en":"Homel","name":"\u0413\u043e\u043c\u0435\u043b\u044c","min_zoom":8.0},"coordinates":[220,3817]},{"type":"Point","properties":{"kind":"locality","name:en":"Dobrush","name":"\u0414\u043e\u0431\u0440\u0443\u0448","name:lt":"Dobru\u0161as","kind_detail":"town","source":"openstreetmap.org","min_zoom":8.0,"int_name":"Dobru\u0161","name:pl":"Dobrusz","id":242978986,"population":18214},"coordinates":[1073,3751]},{"type":"Point","properties":{"kind":"locality","name:en":"Koriukivka","name":"\u041a\u043e\u0440\u044e\u043a\u0456\u0432\u043a\u0430","kind_detail":"town","name:eo":"Korjukivka","name:de":"Korjukiwka","source":"openstreetmap.org","min_zoom":8.0,"int_name":"Korukivka","name:ru":"\u041a\u043e\u0440\u044e\u043a\u043e\u0432\u043a\u0430","name:pl":"Koriukiwka","id":337505025,"population":14805},"coordinates":[3827,741]},{"type":"Point","properties":{"admin_level":"6","kind":"locality","name:en":"Klimovo","name":"\u041a\u043b\u0438\u043c\u043e\u0432\u043e","name:lt":"Klimovas","kind_detail":"town","name:de":"Klimowo","source":"openstreetmap.org","min_zoom":8.0,"int_name":"Klimovo","name:pl":"Klimowo","id":417625373,"population":13363},"coordinates":[3669,3605]},{"type":"Point","properties":{"kind":"locality","name:en":"Horodnia","name":"\u0413\u043e\u0440\u043e\u0434\u043d\u044f","kind_detail":"town","name:eo":"Horodnja","name:de":"Horodnja","source":"openstreetmap.org","min_zoom":8.0,"name:pl":"Horodnia","id":337504066,"population":12766},"coordinates":[1917,1296]},{"type":"Point","properties":{"old_name:uk":"\u0429\u043e\u0440\u0441","kind":"locality","name:en":"Snovsk","name":"\u0421\u043d\u043e\u0432\u0441\u044c\u043a","kind_detail":"town","old_name:ru":"\u0429\u043e\u0440\u0441","name:de":"Snowsk","source":"openstreetmap.org","min_zoom":8.0,"old_name":"\u0429\u043e\u0440\u0441","id":337504690,"name:ru":"\u0421\u043d\u043e\u0432\u0441\u043a","name:be":"\u0421\u043d\u043e\u045e\u0441\u043a","name:pl":"Snowsk","population":11393},"coordinates":[2928,975]},{"type":"Point","properties":{"kind":"locality","name:en":"Ripky","name":"\u0420\u0456\u043f\u043a\u0438","kind_detail":"town","name:de":"Ripky","source":"openstreetmap.org","min_zoom":8.0,"name:ru":"\u0420\u0435\u043f\u043a\u0438","name:be":"\u0420\u044d\u043f\u043a\u0456","name:pl":"Ripky","id":337504816,"population":7458},"coordinates":[453,879]},{"type":"Point","properties":{"kind":"locality","name:en":"Zlynka","name":"\u0417\u043b\u044b\u043d\u043a\u0430","kind_detail":"town","name:de":"Slynka","source":"openstreetmap.org","min_zoom":8.0,"name:uk":"\u0417\u043b\u0438\u043d\u043a\u0430","name:pl":"Z\u0142ynka","id":130201537,"population":5526},"coordinates":[2337,3828]}]},"transit":{"type":"GeometryCollection","geometries":[{"type":"LineString","properties":{"source":"openstreetmap.org","kind":"train","name":"\u0411\u0440\u0435\u0441\u0442 - \u0413\u043e\u043c\u0435\u043b\u044c - \u041c\u043e\u0441\u043a\u0432\u0430","sort_rank":275,"min_zoom":6.0,"osm_relation":true},"arcs":[16]},{"type":"LineString","properties":{"source":"openstreetmap.org","kind":"train","name":"\u0411\u0440\u044f\u043d\u0441\u043a - \u0413\u043e\u043c\u0435\u043b\u044c","sort_rank":275,"min_zoom":6.0,"osm_relation":true},"arcs":[17]},{"type":"MultiLineString","properties":{"osm_relation":true,"source":"openstreetmap.org","kind":"train","name":"\u0414\u043e\u0431\u0440\u0443\u0448 - \u0413\u043e\u043c\u0435\u043b\u044c","sort_rank":275,"min_zoom":6.0,"operator":"\u0411\u0427"},"arcs":[[18],[19],[20]]},{"type":"MultiLineString","properties":{"source":"openstreetmap.org","kind":"train","sort_rank":275,"ref":"\u041c\u043e\u0441\u043a\u0432\u0430 - \u041c\u043e\u0433\u0438\u043b\u0451\u0432 - \u0413\u043e\u043c\u0435\u043b\u044c","min_zoom":6.0,"osm_relation":true},"arcs":[[21],[22],[23],[24]]},{"type":"MultiLineString","properties":{"kind":"train","name":"\u0413\u043e\u043c\u0435\u043b\u044c - \u041a\u043b\u0451\u043d\u043a\u0438 - \u0413\u043e\u043c\u0435\u043b\u044c","sort_rank":275,"source":"openstreetmap.org","min_zoom":6.0,"operator":"\u0411\u0427","name:be":"\u0413\u043e\u043c\u0435\u043b\u044c - \u041a\u043b\u0451\u043d\u043a\u0456 - \u0413\u043e\u043c\u0435\u043b\u044c","osm_relation":true},"arcs":[[25],[26],[27],[28],[29],[30],[31],[32],[33]]},{"type":"MultiLineString","properties":{"osm_relation":true,"source":"openstreetmap.org","kind":"train","name":"\u0413\u043e\u043c\u0435\u043b\u044c - \u0414\u043e\u0431\u0440\u0443\u0448","sort_rank":275,"min_zoom":6.0,"operator":"\u0411\u0427"},"arcs":[[34],[35],[36],[37],[38],[39]]},{"type":"LineString","properties":{"kind":"train","network":"train","sort_rank":275,"source":"openstreetmap.org","min_zoom":6.0,"operator":"\u0420\u0416\u0414","ref":"\u041c\u043e\u0441\u043a\u0432\u0430 - \u041a\u043b\u0438\u043c\u043e\u0432","id":-1757300,"osm_relation":true,"name":"\u041c\u043e\u0441\u043a\u0432\u0430 \u2014 \u041a\u043b\u0438\u043c\u043e\u0432"},"arcs":[40]},{"type":"LineString","properties":{"source":"openstreetmap.org","kind":"train","name":"\u0413\u043e\u043c\u0435\u043b\u044c - \u0411\u043e\u0431\u0440\u0443\u0439\u0441\u043a","sort_rank":275,"min_zoom":6.0,"osm_relation":true,"id":-6344026},"arcs":[41]}]},"pois":{"type":"GeometryCollection","geometries":[]},"boundaries":{"type":"GeometryCollection","geometries":[{"type":"MultiLineString","properties":{"name:right:yo":"B\u1eb9\u0300l\u00e1r\u00f9s","old_name:right:eo":"Bjelorusio;Bjelorusujo","name:left:la":"Ucraina","name:right:qu":"Bilarus","name:right:yi":"\u05d1\u05e2\u05dc\u05d0\u05e8\u05d5\u05e1","name:left:li":"Oekra\u00efne","name:left:vi":"Ukraina","name:left:sw":"Ukraine","name:left:kg":"Ukrayina","name:left:ka":"\u10e3\u10d9\u10e0\u10d0\u10d8\u10dc\u10d0","name:left:km":"\u17a2\u17ca\u17bb\u1799\u1780\u17d2\u179a\u17c2\u1793","name:left:kl":"Ukraine","name:left:ko":"\uc6b0\ud06c\ub77c\uc774\ub098","name:left:kn":"\u0caf\u0cc1\u0c95\u0ccd\u0cb0\u0cc7\u0ca8\u0ccd","name:right:is":"Hv\u00edta-R\u00fassland","name:left:ro":"Ucraina","name:left:kk":"\u0423\u043a\u0440\u0430\u0438\u043d\u0430","name:left:rm":"Ucraina","name:left:ku":"\u00dbkrayna","name:left:kw":"Ukrayn","name:left:kv":"\u0423\u043a\u0440\u0430\u0438\u043d\u0430","name:left:pl":"Ukraina","name:right:ro":"Belarus","name:left:ru":"\u0423\u043a\u0440\u0430\u0438\u043d\u0430","name:right:ie":"Bielorussia","name:right:id":"Belarus","name:left:ky":"\u0423\u043a\u0440\u0430\u0438\u043d\u0430","name:right:ia":"Bielorussia","name:right:bi":"Belarus","name:right:bn":"\u09ac\u09c7\u09b2\u09be\u09b0\u09c1\u09b6","name:right:bo":"\u0f56\u0fb7\u0f7a\u0f0b\u0f63\u0f0b\u0f62\u0f66\u0f74\u0f0d","name:left:sl":"Ukrajina","name:right:bg":"\u0411\u0435\u043b\u0430\u0440\u0443\u0441","name:right:br":"Belarus","name:right:bs":"Bjelorusija","name:right:nn":"Kviterussland","name:right:no":"Hviterussland","name:right:nl":"Wit-Rusland","name:left:lv":"Ukraina","name:right:wo":"Belaarus","name:right:ne":"\u092c\u0947\u0932\u093e\u0930\u0941\u0938","name:right:na":"Berarut","name:right:gv":"Yn Velaroosh","alt_name:left:vi":"Uy Ki\u00ean","name:left:mg":"Okraina","kind_detail":"2","alt_name:right:vi":"B\u1ea1ch Nga","name:left:mi":"\u016akareinga","name:right:gu":"\u0aac\u0ac7\u0ab2\u0abe\u0ab0\u0ac1\u0ab8","name:right:ps":"\u0628\u06d0\u0644\u0627\u0631\u0648\u0633","name:right:pt":"Bielorr\u00fassia","name:left:mk":"\u0423\u043a\u0440\u0430\u0438\u043d\u0430","name:left:tr":"Ukrayna","name:left:ts":"Ukraine","name:left:tt":"\u0423\u043a\u0440\u0430\u0438\u043d\u0430","name:left:mn":"\u0423\u043a\u0440\u0430\u0439\u043d","name:left:ml":"\u0d09\u0d15\u0d4d\u0d30\u0d48\u0d7b","name:left:th":"\u0e1b\u0e23\u0e30\u0e40\u0e17\u0e28\u0e22\u0e39\u0e40\u0e04\u0e23\u0e19","name:left:mr":"\u092f\u0941\u0915\u094d\u0930\u0947\u0928","name:left:tk":"Ukraina","name:left:tl":"Ukranya","name:left:mt":"Ukrajna","name:right:gl":"Bielorrusia","name:left:my":"\u101a\u1030\u1000\u101b\u102d\u1014\u103a\u1038\u1014\u102d\u102f\u1004\u103a\u1004\u1036","name:right:gn":"Vielorrusia","name:right:pl":"Bia\u0142oru\u015b","name:left:te":"\u0c09\u0c15\u0c4d\u0c30\u0c46\u0c2f\u0c3f\u0c28\u0c4d","name:left:tg":"\u0423\u043a\u0440\u0430\u0439\u0438\u043d\u0430","name:left:ms":"Ukraine","name:right:gd":"A' Bhealaruis","name:left:da":"Ukraine","name:left:de":"Ukraine","name:right:ga":"An Bhealar\u00fais","name:left:dv":"\u0794\u07aa\u0786\u07b0\u0783\u07ac\u0787\u07a8\u0782\u07b0","name:right:ug":"\u0628\u06d0\u0644\u0648\u0631\u06c7\u0633\u0633\u0649\u064a\u06d5","name:left:hi":"\u092f\u0941\u0915\u094d\u0930\u0947\u0928","name:right:lb":"W\u00e4issrussland","name:right:uk":"\u0411\u0456\u043b\u043e\u0440\u0443\u0441\u044c","name:left:he":"\u05d0\u05d5\u05e7\u05e8\u05d0\u05d9\u05e0\u05d4","name:right:ln":"Bielorusia","name:right:li":"Wit-Rusland","name:right:lt":"Baltarusija","name:right:ur":"\u0628\u06cc\u0644\u0627\u0631\u0648\u0633","name:right:lv":"Baltkrievija","name:left:hy":"\u0548\u0582\u056f\u0580\u0561\u056b\u0576\u0561","name:left:ta":"\u0b89\u0b95\u0bcd\u0bb0\u0bc8\u0ba9\u0bcd","name:left:ht":"Ikr\u00e8n","name:left:hu":"Ukrajna","name:left:hr":"Ukrajina","sort_rank":262,"name:right:os":"\u0411\u0435\u043b\u043e\u0440\u0443\u0441\u0441\u0438","name:right:es":"Bielorrusia","name:right:sr":"\u0411\u0435\u043b\u043e\u0440\u0443\u0441\u0438\u0458\u0430","name:right:eu":"Bielorrusia","name:right:et":"Valgevene","name:left:os":"\u0423\u043a\u0440\u0430\u0438\u043d\u00e6","name:left:or":"\u0b5f\u0b41\u0b15\u0b4d\u0b30\u0b47\u0b28","name:right:ee":"Belarus","name:left:vo":"Lukray\u00e4n","name:left:oc":"Ucra\u00efna","name:right:eo":"Belorusujo","name:right:en":"Belarus","name:right:el":"\u039b\u03b5\u03c5\u03ba\u03bf\u03c1\u03c9\u03c3\u03af\u03b1","name:left:fa":"\u0627\u0648\u06a9\u0631\u0627\u06cc\u0646","name:left:ia":"Ukraina","name:left:fo":"Ukraina","name:right:sk":"Bielorusko","name:left:fi":"Ukraina","name:left:fr":"Ukraine","name:left:fy":"Oekra\u00efne","name:right:ja":"\u30d9\u30e9\u30eb\u30fc\u30b7","name:right:sq":"Bjellorusia","name:right:ss":"IBhelalasi","name:left:ja":"\u30a6\u30af\u30e9\u30a4\u30ca","name:right:su":"B\u00e9larus","name:right:sw":"Belarus","name:right:sv":"Vitryssland","name:right:si":"\u0db6\u0dd9\u0dbd\u0dcf\u0dbb\u0dc3\u0dca","name:right:sh":"Belorusija","name:left:qu":"Ukranya","name:right:jv":"B\u00e9larus","name:right:sl":"Belorusija","name:right:so":"Belarus","name:right:sa":"\u092c\u0947\u0932\u093e\u0930\u0942\u0938","name:left:jv":"Ukraina","id":-60199,"old_name:left:vi":"\u00d4 Kh\u1eafc Lan","name:right:co":"Bielorussia","name:right:ca":"Bielor\u00fassia","name:right:se":"Vilges-Ruo\u0161\u0161a","name:right:ce":"\u0411\u0435\u043b\u043e\u0440\u0443\u0441\u0441\u0438","name:right:cy":"Belarws","name:right:zh-yue":"\u767d\u4fc4\u7f85\u65af","name:right:cs":"B\u011blorusko","name:right:cu":"\u0411\u0463\u043b\u0430 \u0420\u043e\u0443\u0441\u044c","name:right:cv":"\u0411\u0435\u043b\u0430\u0440\u0443\u00e7","name:right:it":"Bielorussia","name:left:ar":"\u0623\u0648\u0643\u0631\u0627\u0646\u064a\u0627","name:left:az":"Ukrayna","name:right:rw":"Belarusi","name:left:af":"Oekra\u00efne","name:left:ab":"\u0423\u043a\u0440\u0430\u0438\u043d\u0430","name:left:an":"Ucra\u00edna","name:left:am":"\u12e9\u12ad\u122c\u1295","name:right:io":"Bielorusia","name:left:zh-yue":"\u70cf\u514b\u862d","name:left:rw":"Ikerene","name:right:hy":"\u0532\u0565\u056c\u0561\u057c\u0578\u0582\u057d","name:left:lb":"Ukrain","alt_name:left:eo":"Ukrainio","name:left:su":"Ukraina","int_name:left":"Ukraine","name:right:hr":"Bjelorusija","name:left:sv":"Ukraina","name:left:sq":"Ukraina","name:right:hu":"Feh\u00e9roroszorsz\u00e1g","name:left:ss":"IYukhureni","name:left:sr":"\u0423\u043a\u0440\u0430\u0458\u0438\u043d\u0430","name:left:sm":"Ukraine","name:right:hi":"\u092c\u0947\u0932\u093e\u0930\u0942\u0938","name:left:so":"Ukrain","name:left:sn":"Ukraine","name:left:lt":"Ukraina","name:left:sh":"Ukrajina","name:left:sk":"Ukrajina","name:left:se":"Ukraina","name:right:he":"\u05d1\u05dc\u05d0\u05e8\u05d5\u05e1","name:left:sc":"Ucraina","name:right:la":"Ruthenia Alba","name:right:af":"Wit-Rusland","name:left:ce":"\u0423\u043a\u0440\u0430\u0438\u043d\u0430","name:left:ca":"Ucra\u00efna","source":"openstreetmap.org","name:left:cy":"Wcr\u00e1in","name:right:ar":"\u0631\u0648\u0633\u064a\u0627 \u0627\u0644\u0628\u064a\u0636\u0627\u0621","name:left:cu":"\u041e\u0443\u043a\u0440\u0430\u0438\u043d\u0430","name:left:cv":"\u0423\u043a\u0440\u0430\u0438\u043d\u0430","name:right:az":"Belarus","name:left:cs":"Ukrajina","name:right:rm":"Bielorussia","name":"\u0423\u043a\u0440\u0430\u0457\u043d\u0430 - \u0411\u0435\u043b\u0430\u0440\u0443\u0441\u044c","name:right:zu":"IBelarusi","name:left:zh":"\u4e4c\u514b\u5170","name:right:zh":"\u767d\u4fc4\u7f57\u65af","name:left:uz":"Ukraina","name:right:fr":"B\u00e9larus","name:left:nv":"Y\u00f3\u00f3kwein","name:left:ur":"\u06cc\u0648\u06a9\u0631\u06cc\u0646","id:right":-59065,"name:right:ff":"Belaruusiya","name:left:no":"Ukraina","name:left:nl":"Oekra\u00efne","alt_name:right:eo":"Belorusio","name:left:gd":"An Ucr\u00e0in","name:right:fa":"\u0628\u0644\u0627\u0631\u0648\u0633","name:right:fo":"Hv\u00edtarussland","name:left:ne":"\u092f\u0941\u0915\u094d\u0930\u0947\u0928","name:left:ug":"\u0626\u06c7\u0643\u0631\u0627\u0626\u0649\u0646\u0627","name:left:na":"Ukraine","name:left:eo":"Ukrainujo","name:left:en":"Ukraine","name:left:el":"\u039f\u03c5\u03ba\u03c1\u03b1\u03bd\u03af\u03b1","name:left:ee":"Ukraine","name:left:ig":"Yukrain","name:left:es":"Ucrania","name:left:eu":"Ukraina","name:left:et":"Ukraina","name:right:zh-min-nan":"Belarus","name:right:oc":"Bielorussia","name:right:ko":"\ubca8\ub77c\ub8e8\uc2a4","name:right:ts":"Belarus","name:right:uz":"Belarus","osm_relation":true,"name:right:or":"\u0b2c\u0b47\u0b32\u0b3e\u0b0b\u0b37","name:left:pt":"Ucr\u00e2nia","name:right:ku":"Belar\u00fbs","name:left:ps":"\u0627\u0648\u06a9\u0631\u0627\u06cc\u0646","name:left:gl":"Ucra\u00edna","name:left:wa":"Oucrinne","min_zoom":8.0,"name:left:zh-min-nan":"Ukrayina","name:left:ln":"Ukraine","name:left:wo":"Ukreen","name:left:ga":"An \u00dacr\u00e1in","name:left:it":"Ucraina","alt_name:right:fr":"Bi\u00e9lorussie","int_name:right":"Belarus","name:left:gn":"Ukya\u00f1a","name:left:gu":"\u0aaf\u0ac1\u0a95\u0acd\u0ab0\u0ac7\u0aa8","name:left:gv":"Yn Ookraan","official_name:right":"\u0420\u044d\u0441\u043f\u0443\u0431\u043b\u0456\u043a\u0430 \u0411\u0435\u043b\u0430\u0440\u0443\u0441\u044c","name:left":"\u0423\u043a\u0440\u0430\u0457\u043d\u0430","name:right:mk":"\u0411\u0435\u043b\u043e\u0440\u0443\u0441\u0438\u0458\u0430","name:right:mi":"P\u0113rara","name:right:ml":"\u0d2c\u0d46\u0d32\u0d3e\u0d31\u0d41\u0d38\u0d4d","name:right:vo":"Belarus\u00e4n","name:right:vi":"Belarus","name:right:my":"\u1018\u102e\u101c\u102c\u101b\u102f\u1007\u103a\u1014\u102d\u102f\u1004\u103a\u1004\u1036","name:right:ms":"Belarus","name:right:mr":"\u092c\u0947\u0932\u093e\u0930\u0942\u0938","name:right:fy":"Wyt-Rusl\u00e2n","name:right:mt":"Belarus","name:left:nn":"Ukraina","kind":"country","name:left:tw":"Ukraine","name:left:br":"Ukraina","name:left:bs":"Ukrajina","name:left:ba":"\u0423\u043a\u0440\u0430\u0438\u043d\u0430","name:left:bg":"\u0423\u043a\u0440\u0430\u0439\u043d\u0430","name:left:be":"\u0423\u043a\u0440\u0430\u0456\u043d\u0430","name:left:bi":"Ukraine","name:left:bn":"\u0987\u0989\u0995\u09cd\u09b0\u09c7\u09a8","name:left:bo":"\u0f68\u0f74\u0f40\u0f0b\u0f62\u0f61\u0f72\u0f0b\u0f53\u0f72\u0f0d","name:right":"\u0411\u0435\u043b\u0430\u0440\u0443\u0441\u044c","name:left:yo":"Ukr\u00e9\u00ecn","name:left:yi":"\u05d0\u05d5\u05e7\u05e8\u05d0\u05d9\u05e0\u05e2","id:left":-60199,"name:right:fi":"Valko-Ven\u00e4j\u00e4","name:right:ka":"\u10d1\u10d4\u10da\u10d0\u10e0\u10e3\u10e1\u10d8","name:left:io":"Ukrainia","name:right:ty":"Belarus","name:right:kg":"Belarusia","name:right:tt":"\u0411\u0435\u043b\u0430\u0440\u0443\u0441\u0438\u044f","name:left:ie":"Ucraina","name:left:id":"Ukraina","name:right:kl":"Hvideruslandi","name:right:tr":"Beyaz Rusya","name:right:kn":"\u0cac\u0cc6\u0cb2\u0cbe\u0cb0\u0cc1\u0cb8\u0ccd","name:right:tl":"Biyelorusya","name:right:th":"\u0e1b\u0e23\u0e30\u0e40\u0e17\u0e28\u0e40\u0e1a\u0e25\u0e32\u0e23\u0e38\u0e2a","name:right:kw":"Belarussi","name:right:tk":"Belorussi\u00fda","name:right:ky":"\u0411\u0435\u043b\u0430\u0440\u0443\u0441\u0438\u044f","name:right:te":"\u0c2c\u0c46\u0c32\u0c3e\u0c30\u0c38\u0c4d","name:right:tg":"\u0411\u0435\u043b\u0430\u0440\u0443\u0441","name:left:is":"\u00dakra\u00edna","name:right:ta":"\u0baa\u0bc6\u0bb2\u0bb0\u0bc1\u0bb8\u0bcd","name:right:de":"Wei\u00dfrussland","name:right:da":"Hviderusland","name:right:dz":"\u0f56\u0f7a\u0f0b\u0f63\u0f0b\u0f62\u0f74\u0f0b\u0f66\u0f74\u0f0d","name:left:pa":"\u0a2f\u0a42\u0a15\u0a4d\u0a30\u0a47\u0a28","name:right:dv":"\u0784\u07ac\u078d\u07a6\u0783\u07ab\u0790\u07b0","name:right:ht":"Byelorisi"},"arcs":[[0],[1],[2]]},{"type":"MultiLineString","properties":{"name:kg":"Ukrayina","name:ka":"\u10e3\u10d9\u10e0\u10d0\u10d8\u10dc\u10d0","name:ko":"\uc6b0\ud06c\ub77c\uc774\ub098","name:cv":"\u0423\u043a\u0440\u0430\u0438\u043d\u0430","name:cu":"\u041e\u0443\u043a\u0440\u0430\u0438\u043d\u0430","name:kl":"Ukraine","name:cs":"Ukrajina","name:tw":"Ukraine","name:tt":"\u0423\u043a\u0440\u0430\u0438\u043d\u0430","name:kw":"Ukrayn","name:kv":"\u0423\u043a\u0440\u0430\u0438\u043d\u0430","name:th":"\u0e1b\u0e23\u0e30\u0e40\u0e17\u0e28\u0e22\u0e39\u0e40\u0e04\u0e23\u0e19","name:tl":"Ukranya","name:ce":"\u0423\u043a\u0440\u0430\u0438\u043d\u0430","name:ta":"\u0b89\u0b95\u0bcd\u0bb0\u0bc8\u0ba9\u0bcd","name:tg":"\u0423\u043a\u0440\u0430\u0439\u0438\u043d\u0430","name:ca":"Ucra\u00efna","name:te":"\u0c09\u0c15\u0c4d\u0c30\u0c46\u0c2f\u0c3f\u0c28\u0c4d","name:cy":"Wcr\u00e1in","name:hr":"Ukrajina","name:da":"Ukraine","name:de":"Ukraine","source":"openstreetmap.org","name:kn":"\u0caf\u0cc1\u0c95\u0ccd\u0cb0\u0cc7\u0ca8\u0ccd","name:dv":"\u0794\u07aa\u0786\u07b0\u0783\u07ac\u0787\u07a8\u0782\u07b0","name:km":"\u17a2\u17ca\u17bb\u1799\u1780\u17d2\u179a\u17c2\u1793","name:lv":"Ukraina","name:lt":"Ukraina","name:uz":"Ukraina","name:kk":"\u0423\u043a\u0440\u0430\u0438\u043d\u0430","name:ur":"\u06cc\u0648\u06a9\u0631\u06cc\u0646","name:lb":"Ukrain","name:la":"Ucraina","name:ug":"\u0626\u06c7\u0643\u0631\u0627\u0626\u0649\u0646\u0627","name:li":"Oekra\u00efne","name:ln":"Ukraine","name:el":"\u039f\u03c5\u03ba\u03c1\u03b1\u03bd\u03af\u03b1","name:eo":"Ukrainujo","name:en":"Ukraine","name":"\u0423\u043a\u0440\u0430\u0457\u043d\u0430","name:tk":"Ukraina","name:ee":"Ukraine","name:ku":"\u00dbkrayna","name:eu":"Ukraina","name:et":"Ukraina","name:es":"Ucrania","name:ia":"Ukraina","name:rm":"Ucraina","name:az":"Ukrayna","name:ie":"Ucraina","name:id":"Ukraina","name:ig":"Yukrain","name:ar":"\u0623\u0648\u0643\u0631\u0627\u0646\u064a\u0627","name:io":"Ukrainia","name:is":"\u00dakra\u00edna","name:am":"\u12e9\u12ad\u122c\u1295","name:it":"Ucraina","name:an":"Ucra\u00edna","name:ru":"\u0423\u043a\u0440\u0430\u0438\u043d\u0430","name:ab":"\u0423\u043a\u0440\u0430\u0438\u043d\u0430","name:af":"Oekra\u00efne","kind_detail":"2","name:ky":"\u0423\u043a\u0440\u0430\u0438\u043d\u0430","name:zh-yue":"\u70cf\u514b\u862d","name:zh":"\u4e4c\u514b\u5170","name:so":"Ukrain","name:sn":"Ukraine","name:sm":"Ukraine","name:sl":"Ukrajina","name:sk":"Ukrajina","name:ja":"\u30a6\u30af\u30e9\u30a4\u30ca","name:sh":"Ukrajina","name:se":"Ukraina","name:sc":"Ucraina","name:br":"Ukraina","name:bs":"Ukrajina","name:bn":"\u0987\u0989\u0995\u09cd\u09b0\u09c7\u09a8","name:bo":"\u0f68\u0f74\u0f40\u0f0b\u0f62\u0f61\u0f72\u0f0b\u0f53\u0f72\u0f0d","name:bi":"Ukraine","name:sw":"Ukraine","name:be":"\u0423\u043a\u0440\u0430\u0456\u043d\u0430","name:su":"Ukraina","name:bg":"\u0423\u043a\u0440\u0430\u0439\u043d\u0430","name:ss":"IYukhureni","name:ba":"\u0423\u043a\u0440\u0430\u0438\u043d\u0430","name:sq":"Ukraina","name:jv":"Ukraina","name:pt":"Ucr\u00e2nia","name:ps":"\u0627\u0648\u06a9\u0631\u0627\u06cc\u0646","name:oc":"Ucra\u00efna","min_zoom":8.0,"name:ro":"Ucraina","name:zh-min-nan":"Ukrayina","name:os":"\u0423\u043a\u0440\u0430\u0438\u043d\u00e6","name:or":"\u0b5f\u0b41\u0b15\u0b4d\u0b30\u0b47\u0b28","name:pl":"Ukraina","sort_rank":262,"name:sr":"\u0423\u043a\u0440\u0430\u0458\u0438\u043d\u0430","osm_relation":true,"name:pa":"\u0a2f\u0a42\u0a15\u0a4d\u0a30\u0a47\u0a28","name:tr":"Ukrayna","name:hi":"\u092f\u0941\u0915\u094d\u0930\u0947\u0928","name:sv":"Ukraina","name:he":"\u05d0\u05d5\u05e7\u05e8\u05d0\u05d9\u05e0\u05d4","name:hy":"\u0548\u0582\u056f\u0580\u0561\u056b\u0576\u0561","name:ht":"Ikr\u00e8n","name:hu":"Ukrajna","name:qu":"Ukranya","kind":"country","name:ts":"Ukraine","name:yi":"\u05d0\u05d5\u05e7\u05e8\u05d0\u05d9\u05e0\u05e2","name:yo":"Ukr\u00e9\u00ecn","name:mt":"Ukrajna","alt_name:eo":"Ukrainio","name:ms":"Ukraine","name:mr":"\u092f\u0941\u0915\u094d\u0930\u0947\u0928","name:my":"\u101a\u1030\u1000\u101b\u102d\u1014\u103a\u1038\u1014\u102d\u102f\u1004\u103a\u1004\u1036","int_name":"Ukraine","name:mg":"Okraina","name:ml":"\u0d09\u0d15\u0d4d\u0d30\u0d48\u0d7b","name:vi":"Ukraina","name:mn":"\u0423\u043a\u0440\u0430\u0439\u043d","name:mi":"\u016akareinga","id":-60199,"name:mk":"\u0423\u043a\u0440\u0430\u0438\u043d\u0430","name:vo":"Lukray\u00e4n","name:fa":"\u0627\u0648\u06a9\u0631\u0627\u06cc\u0646","name:rw":"Ikerene","name:fi":"Ukraina","old_name:vi":"\u00d4 Kh\u1eafc Lan","name:fo":"Ukraina","alt_name:vi":"Uy Ki\u00ean","name:fr":"Ukraine","name:fy":"Oekra\u00efne","name:nl":"Oekra\u00efne","name:nn":"Ukraina","name:no":"Ukraina","name:na":"Ukraine","name:ne":"\u092f\u0941\u0915\u094d\u0930\u0947\u0928","name:wa":"Oucrinne","name:wo":"Ukreen","name:nv":"Y\u00f3\u00f3kwein","name:ga":"An \u00dacr\u00e1in","name:gd":"An Ucr\u00e0in","name:gn":"Ukya\u00f1a","name:gl":"Ucra\u00edna","name:gv":"Yn Ookraan","name:gu":"\u0aaf\u0ac1\u0a95\u0acd\u0ab0\u0ac7\u0aa8"},"arcs":[[3],[4],[5]]},{"type":"LineString","properties":{"name:right:yo":"B\u1eb9\u0300l\u00e1r\u00f9s","old_name:right:eo":"Bjelorusio;Bjelorusujo","name:left:la":"Russia","name:right:qu":"Bilarus","name:right:yi":"\u05d1\u05e2\u05dc\u05d0\u05e8\u05d5\u05e1","name:left:li":"Rusland","name:left:vi":"Li\u00ean bang Nga","name:left:ik":"Russia","name:left:sw":"Shirikisho la Urusi","name:left:kg":"Rusia","name:left:ka":"\u10e0\u10e3\u10e1\u10d4\u10d7\u10d8","name:left:km":"\u179a\u17bb\u179f\u17d2\u179f\u17ca\u17b8","name:left:kl":"Ruslandi","name:left:ko":"\ub7ec\uc2dc\uc544","name:left:kn":"\u0cb0\u0cb7\u0ccd\u0caf\u0cbe","name:left:ki":"Russia","name:left:ro":"Rusia","name:left:kk":"\u0420\u0435\u0441\u0435\u0439","name:left:rm":"Russia","name:left:ku":"R\u00fbsya","name:left:kw":"Russi","name:left:kv":"\u0420\u043e\u0447\u043c\u0443","name:left:pl":"Rosja","name:right:ro":"Belarus","name:left:ks":"\u0631\u0648\u0657\u0633","name:right:rm":"Bielorussia","name:right:ie":"Bielorussia","name:right:id":"Belarus","name:left:ky":"\u041e\u0440\u0443\u0441\u0438\u044f","name:right:ia":"Bielorussia","name:right:bi":"Belarus","name:right:bn":"\u09ac\u09c7\u09b2\u09be\u09b0\u09c1\u09b6","name:right:bo":"\u0f56\u0fb7\u0f7a\u0f0b\u0f63\u0f0b\u0f62\u0f66\u0f74\u0f0d","name:left:sl":"Rusija","name:right:bg":"\u0411\u0435\u043b\u0430\u0440\u0443\u0441","name:right:br":"Belarus","name:left:lt":"Rusija","name:right:nn":"Kviterussland","name:right:no":"Hviterussland","name:right:nl":"Wit-Rusland","name:left:lv":"Krievija","name:right:wo":"Belaarus","name:right:ne":"\u092c\u0947\u0932\u093e\u0930\u0941\u0938","name:right:na":"Berarut","name:right:gv":"Yn Velaroosh","name:left:mg":"Rosia","kind_detail":"2","alt_name:right:vi":"B\u1ea1ch Nga","name:left:mi":"R\u016bhia","name:right:gu":"\u0aac\u0ac7\u0ab2\u0abe\u0ab0\u0ac1\u0ab8","name:left:ty":"R\u016btia","name:right:ps":"\u0628\u06d0\u0644\u0627\u0631\u0648\u0633","name:right:pt":"Bielorr\u00fassia","name:left:mk":"\u0420\u0443\u0441\u0438\u0458\u0430","name:left:tr":"Rusya Federasyonu","name:left:ts":"Russia","name:left:tt":"\u0420\u0443\u0441\u0438\u044f","name:left:mn":"\u041e\u0440\u043e\u0441\u044b\u043d \u0425\u043e\u043b\u0431\u043e\u043e\u043d\u044b \u0423\u043b\u0441","name:left:ml":"\u0d31\u0d37\u0d4d\u0d2f","name:left:th":"\u0e1b\u0e23\u0e30\u0e40\u0e17\u0e28\u0e23\u0e31\u0e2a\u0e40\u0e0b\u0e35\u0e22","name:left:ti":"\u122b\u123b","name:left:tk":"Russi\u00fda","name:left:tl":"Pederasyong Ruso","name:left:to":"L\u016bsia","name:right:gl":"Bielorrusia","name:left:my":"\u101b\u102f\u101b\u103e\u102c\u1038\u1014\u102d\u102f\u1004\u103a\u1004\u1036","name:right:gn":"Vielorrusia","name:right:pl":"Bia\u0142oru\u015b","name:left:te":"\u0c30\u0c37\u0c4d\u0c2f\u0c3e","name:left:tg":"\u0420\u0443\u0441\u0438\u044f","name:left:ms":"Rusia","name:left:mr":"\u0930\u0936\u093f\u092f\u093e","name:right:tr":"Beyaz Rusya","name:left:da":"Rusland","name:left:de":"Russland","name:left:dz":"\u0f62\u0f0b\u0f64\u0f72\u0f0b\u0f61\u0f71\u0f53\u0f0b\u0f55\u0f7a\u0f0b\u0f4c\u0f72\u0f0b\u0f62\u0f7a\u0f0b\u0f64\u0f71\u0f53","name:right:ga":"An Bhealar\u00fais","name:left:dv":"\u0783\u07ab\u0790\u07a9\u0788\u07a8\u078d\u07a7\u078c\u07b0","name:right:ug":"\u0628\u06d0\u0644\u0648\u0631\u06c7\u0633\u0633\u0649\u064a\u06d5","name:left:hi":"\u0930\u0942\u0938","name:right:lb":"W\u00e4issrussland","name:right:uk":"\u0411\u0456\u043b\u043e\u0440\u0443\u0441\u044c","name:left:he":"\u05e8\u05d5\u05e1\u05d9\u05d4","name:right:ln":"Bielorusia","name:left:mt":"Russja","name:left:ha":"Rasha","name:right:lt":"Baltarusija","name:right:ur":"\u0628\u06cc\u0644\u0627\u0631\u0648\u0633","name:right:lv":"Baltkrievija","name:left:hy":"\u054c\u0578\u0582\u057d\u0561\u057d\u057f\u0561\u0576","name:left:ta":"\u0b89\u0bb0\u0bc1\u0b9a\u0bbf\u0baf\u0bbe","name:left:ht":"Risi","name:left:hu":"Oroszorsz\u00e1g","name:left:hr":"Ruska Federacija","sort_rank":262,"name:right:gd":"A' Bhealaruis","name:right:os":"\u0411\u0435\u043b\u043e\u0440\u0443\u0441\u0441\u0438","name:right:es":"Bielorrusia","name:right:sr":"\u0411\u0435\u043b\u043e\u0440\u0443\u0441\u0438\u0458\u0430","name:right:eu":"Bielorrusia","name:right:et":"Valgevene","name:left:os":"\u0423\u00e6\u0440\u00e6\u0441\u0435","name:left:or":"\u0b0b\u0b37\u0b3f\u0b06","name:left:ve":"Rashia","name:left:om":"Raashiyaa","name:right:ee":"Belarus","name:left:vo":"Rus\u00e4n","name:left:oc":"Russia","name:right:eo":"Belorusujo","name:right:en":"Belarus","name:right:el":"\u039b\u03b5\u03c5\u03ba\u03bf\u03c1\u03c9\u03c3\u03af\u03b1","name:left:ff":"Roosiya","name:left:fa":"\u0631\u0648\u0633\u06cc\u0647","name:left:fo":"Russland","name:right:sk":"Bielorusko","name:left:fi":"Ven\u00e4j\u00e4","name:left:fr":"F\u00e9d\u00e9ration de Russie","name:left:fy":"Rusl\u00e2n","name:right:ja":"\u30d9\u30e9\u30eb\u30fc\u30b7","name:right:sq":"Bjellorusia","name:right:ss":"IBhelalasi","name:left:ja":"\u30ed\u30b7\u30a2","name:right:su":"B\u00e9larus","name:right:sw":"Belarus","name:right:sv":"Vitryssland","name:right:si":"\u0db6\u0dd9\u0dbd\u0dcf\u0dbb\u0dc3\u0dca","name:right:sh":"Belorusija","name:left:qu":"Rusiya","name:right:jv":"B\u00e9larus","name:right:sl":"Belorusija","name:right:so":"Belarus","name:right:sa":"\u092c\u0947\u0932\u093e\u0930\u0942\u0938","name:left:jv":"Rusia","id":-60189,"name:right:co":"Bielorussia","name:right:ca":"Bielor\u00fassia","name:right:se":"Vilges-Ruo\u0161\u0161a","name:right:ce":"\u0411\u0435\u043b\u043e\u0440\u0443\u0441\u0441\u0438","name:right:cy":"Belarws","name:right:zh-yue":"\u767d\u4fc4\u7f85\u65af","name:right:cs":"B\u011blorusko","name:right":"\u0411\u0435\u043b\u0430\u0440\u0443\u0441\u044c","name:right:cu":"\u0411\u0463\u043b\u0430 \u0420\u043e\u0443\u0441\u044c","name:right:cv":"\u0411\u0435\u043b\u0430\u0440\u0443\u00e7","name:left:av":"\u0420\u043e\u0441\u0441\u0438\u044f\u043b\u044a\u0443\u043b \u0424\u0435\u0434\u0435\u0440\u0430\u0446\u0438\u044f","name:right:it":"Bielorussia","name:left:as":"\u09f0\u09c1\u09b6\u09bf\u09af\u09be","name:left:ar":"\u0631\u0648\u0633\u064a\u0627","name:right:is":"Hv\u00edta-R\u00fassland","name:left:az":"Rusiya","name:left:ay":"Rusiya","name:right:rw":"Belarusi","name:left:af":"Rusland","name:left:ab":"\u0423\u0440\u044b\u0441\u0442\u04d9\u044b\u043b\u0430","name:left:an":"Rusia","name:left:am":"\u1229\u1232\u12eb","name:left:ak":"Russia","name:right:io":"Bielorusia","name:left:xh":"IRashiya","name:left:zh-yue":"\u4fc4\u7f85\u65af","name:left:rw":"Uburusiya","name:right:hy":"\u0532\u0565\u056c\u0561\u057c\u0578\u0582\u057d","name:left:lb":"Russland","alt_name:left:eo":"Rusio;Ruslando","name:left:lg":"Rwasha","name:left:su":"Rusia","name:left:st":"Russia","name:right:hr":"Bjelorusija","name:left:sv":"Ryssland","name:left:sq":"Rusia","name:right:hu":"Feh\u00e9roroszorsz\u00e1g","name:left:ss":"IRashiya","name:left:lo":"\u0ea5\u0eb1\u0e94\u0ec0\u0e8a\u0eb1\u0ebd","name:left:sm":"Lusia","name:right:hi":"\u092c\u0947\u0932\u093e\u0930\u0942\u0938","name:left:so":"Ruushka","name:left:sn":"Russia","name:left:si":"\u0dbb\u0dd4\u0dc3\u0dd2\u0dba\u0dcf\u0dc0","name:left:sh":"Rusija","name:left:sk":"Rusko","name:left:se":"Ruo\u0161\u0161a","name:left:sd":"\u0631\u0648\u0633","name:left:sg":"Rus\u00efi","name:right:he":"\u05d1\u05dc\u05d0\u05e8\u05d5\u05e1","name:left:sc":"R\u00f9ssia","name:right:la":"Ruthenia Alba","name:right:af":"Wit-Rusland","name:left:co":"Russia","name:left:ch":"Russia","name:left:ce":"\u0420\u043e\u0441\u0441\u0438","name:left:ca":"R\u00fassia","source":"openstreetmap.org","name:left:cy":"Rwsia","name:right:ar":"\u0631\u0648\u0633\u064a\u0627 \u0627\u0644\u0628\u064a\u0636\u0627\u0621","name:left:cu":"\u0420\u0461\u0441\u0457\ua657","name:left:cv":"\u0420\u0430\u00e7\u00e7\u0435\u0439 \u041f\u0430\u0442\u0448\u0430\u043b\u0103\u0445\u0115","name:right:az":"Belarus","name:left:cs":"Rusko","name:right:li":"Wit-Rusland","name":"\u0420\u043e\u0441\u0441\u0438\u044f - \u0411\u0435\u043b\u0430\u0440\u0443\u0441\u044c","name:right:zu":"IBelarusi","name:left:zu":"IRashiya","name:left:zh":"\u4fc4\u7f57\u65af","name:right:zh":"\u767d\u4fc4\u7f57\u65af","name:left:za":"Ezlozswh Lienzbangh","official_name:left":"\u0420\u043e\u0441\u0441\u0438\u0439\u0441\u043a\u0430\u044f \u0424\u0435\u0434\u0435\u0440\u0430\u0446\u0438\u044f","name:left:uz":"Rossiya Federatsiyasi","name:right:fr":"B\u00e9larus","name:left:ny":"Russia","name:left:nv":"Bi\u02bc\u00e9\u00e9\u02bc \u0141ich\u00ed\u00ed\u02bc\u00ed Bik\u00e9yah","name:left:ur":"\u0631\u0648\u0633","id:right":-59065,"name:left:nn":"Russland","name:left:no":"Rusland","name:left:nl":"Russische Federatie","alt_name:right:eo":"Belorusio","name:left:gd":"An Ruis","name:right:fa":"\u0628\u0644\u0627\u0631\u0648\u0633","name:right:fo":"Hv\u00edtarussland","name:left:ne":"\u0930\u0941\u0938","name:left:ug":"\u0631\u0648\u0633\u0649\u064a\u06d5","name:left:na":"Ratsiya","name:left:eo":"Rusujo","name:left:en":"Russia","name:left:el":"\u03a1\u03c9\u03c3\u03af\u03b1","name:left:ee":"Russia","name:right:tt":"\u0411\u0435\u043b\u0430\u0440\u0443\u0441\u0438\u044f","name:left:es":"Rusia","name:left:eu":"Errusia","name:left:et":"Venemaa","name:right:zh-min-nan":"Belarus","name:right:oc":"Bielorussia","name:right:ko":"\ubca8\ub77c\ub8e8\uc2a4","name:right:bs":"Bjelorusija","name:left:sr":"\u0420\u0443\u0441\u0438\u0458\u0430","name:right:ts":"Belarus","name:right:uz":"Belarus","osm_relation":true,"name:right:or":"\u0b2c\u0b47\u0b32\u0b3e\u0b0b\u0b37","name:left:pt":"R\u00fassia","name:right:ku":"Belar\u00fbs","old_name:left":"\u0420\u0443\u0441\u044c;\u0417\u043e\u043b\u043e\u0442\u0430\u044f \u041e\u0440\u0434\u0430;\u0420\u0443\u0441\u0441\u043a\u043e\u0435 \u0426\u0430\u0440\u0441\u0442\u0432\u043e;\u0420\u043e\u0441\u0441\u0438\u0439\u0441\u043a\u0430\u044f \u0418\u043c\u043f\u0435\u0440\u0438\u044f;\u0421\u043e\u044e\u0437 \u0421\u043e\u0432\u0435\u0442\u0441\u043a\u0438\u0445 \u0421\u043e\u0446\u0438\u0430\u043b\u0438\u0441\u0442\u0438\u0447\u0435\u0441\u043a\u0438\u0445 \u0420\u0435\u0441\u043f\u0443\u0431\u043b\u0438\u043a","old_name:left:ru":"\u0420\u0443\u0441\u044c;\u0417\u043e\u043b\u043e\u0442\u0430\u044f \u041e\u0440\u0434\u0430;\u0420\u0443\u0441\u0441\u043a\u043e\u0435 \u0426\u0430\u0440\u0441\u0442\u0432\u043e;\u0420\u043e\u0441\u0441\u0438\u0439\u0441\u043a\u0430\u044f \u0418\u043c\u043f\u0435\u0440\u0438\u044f;\u0421\u043e\u044e\u0437 \u0421\u043e\u0432\u0435\u0442\u0441\u043a\u0438\u0445 \u0421\u043e\u0446\u0438\u0430\u043b\u0438\u0441\u0442\u0438\u0447\u0435\u0441\u043a\u0438\u0445 \u0420\u0435\u0441\u043f\u0443\u0431\u043b\u0438\u043a","name:left:ps":"\u0631\u0648\u0633\u06cc\u0647","name:left:gl":"Rusia","name:left:wa":"Feder\u00e5cion d' R\u00fbsseye","min_zoom":8.0,"old_name:left:pl":"Zwi\u0105zek Socjalistycznych Republik Radzieckich","name:left:zh-min-nan":"L\u014d\u0358-se-a","name:left:ln":"Rus\u00ed","name:left:wo":"Federaasio\u014b bu Riisi","name:left:ga":"An R\u00fais","short_name:left":"\u0420\u0424","name:left:it":"Russia","alt_name:right:fr":"Bi\u00e9lorussie","int_name:right":"Belarus","name:left:gn":"Rrusia","name:left:gu":"\u0ab0\u0ab6\u0abf\u0aaf\u0abe","name:left:gv":"Yn Roosh","official_name:right":"\u0420\u044d\u0441\u043f\u0443\u0431\u043b\u0456\u043a\u0430 \u0411\u0435\u043b\u0430\u0440\u0443\u0441\u044c","name:left":"\u0420\u043e\u0441\u0441\u0438\u044f","name:right:mk":"\u0411\u0435\u043b\u043e\u0440\u0443\u0441\u0438\u0458\u0430","name:right:mi":"P\u0113rara","name:right:ml":"\u0d2c\u0d46\u0d32\u0d3e\u0d31\u0d41\u0d38\u0d4d","name:right:vo":"Belarus\u00e4n","name:right:vi":"Belarus","name:right:my":"\u1018\u102e\u101c\u102c\u101b\u102f\u1007\u103a\u1014\u102d\u102f\u1004\u103a\u1004\u1036","name:right:ms":"Belarus","name:right:mr":"\u092c\u0947\u0932\u093e\u0930\u0942\u0938","name:right:fy":"Wyt-Rusl\u00e2n","name:right:mt":"Belarus","name:left:uk":"\u0420\u043e\u0441\u0456\u044f","kind":"country","name:left:tw":"Russia","name:left:br":"Rusia","name:left:bs":"Rusija","int_name:left":"Russia","name:left:ba":"\u0420\u04d9\u0441\u04d9\u0439","name:left:bg":"\u0420\u0443\u0441\u0438\u044f","name:left:be":"\u0420\u0430\u0441\u0456\u0439\u0441\u043a\u0430\u044f \u0424\u0435\u0434\u044d\u0440\u0430\u0446\u044b\u044f","name:right:ff":"Belaruusiya","name:left:bi":"Rusia","name:left:bn":"\u09b0\u09be\u09b6\u09bf\u09af\u09bc\u09be","name:left:bo":"\u0f68\u0f74\u0f0b\u0f62\u0f74\u0f0b\u0f66\u0f74\u0f0d","name:left:bm":"Risila","name:left:yo":"R\u1ecd\u0301s\u00ed\u00e0","name:left:yi":"\u05e8\u05d5\u05e1\u05dc\u05d0\u05e0\u05d3","id:left":-60189,"name:right:fi":"Valko-Ven\u00e4j\u00e4","name:right:ka":"\u10d1\u10d4\u10da\u10d0\u10e0\u10e3\u10e1\u10d8","name:left:io":"Rusia","name:right:ty":"Belarus","name:right:kg":"Belarusia","name:left:ig":"Mpaghara Russia","name:left:ie":"Russia","name:left:id":"Rusia","name:right:kl":"Hvideruslandi","name:left:ia":"Russia","name:right:kn":"\u0cac\u0cc6\u0cb2\u0cbe\u0cb0\u0cc1\u0cb8\u0ccd","name:right:tl":"Biyelorusya","name:right:th":"\u0e1b\u0e23\u0e30\u0e40\u0e17\u0e28\u0e40\u0e1a\u0e25\u0e32\u0e23\u0e38\u0e2a","name:right:kw":"Belarussi","name:right:tk":"Belorussi\u00fda","name:right:ky":"\u0411\u0435\u043b\u0430\u0440\u0443\u0441\u0438\u044f","name:right:te":"\u0c2c\u0c46\u0c32\u0c3e\u0c30\u0c38\u0c4d","name:left:iu":"\u1405\u14db\u14f4","name:right:tg":"\u0411\u0435\u043b\u0430\u0440\u0443\u0441","name:left:is":"R\u00fassland","name:right:ta":"\u0baa\u0bc6\u0bb2\u0bb0\u0bc1\u0bb8\u0bcd","name:right:de":"Wei\u00dfrussland","name:right:da":"Hviderusland","name:left:rn":"Uburusiya","name:right:dz":"\u0f56\u0f7a\u0f0b\u0f63\u0f0b\u0f62\u0f74\u0f0b\u0f66\u0f74\u0f0d","name:left:pa":"\u0a30\u0a42\u0a38","name:right:dv":"\u0784\u07ac\u078d\u07a6\u0783\u07ab\u0790\u07b0","name:right:ht":"Byelorisi"},"arcs":[6]},{"type":"LineString","properties":{"name:kg":"Belarusia","name:ty":"Belarus","name:ka":"\u10d1\u10d4\u10da\u10d0\u10e0\u10e3\u10e1\u10d8","name:ko":"\ubca8\ub77c\ub8e8\uc2a4","name:cv":"\u0411\u0435\u043b\u0430\u0440\u0443\u00e7","name:cu":"\u0411\u0463\u043b\u0430 \u0420\u043e\u0443\u0441\u044c","name:kl":"Hvideruslandi","name:cs":"B\u011blorusko","name:tt":"\u0411\u0435\u043b\u0430\u0440\u0443\u0441\u0438\u044f","name:co":"Bielorussia","name:tk":"Belorussi\u00fda","name:ku":"Belar\u00fbs","name:tl":"Biyelorusya","name:ce":"\u0411\u0435\u043b\u043e\u0440\u0443\u0441\u0441\u0438","name:ta":"\u0baa\u0bc6\u0bb2\u0bb0\u0bc1\u0bb8\u0bcd","name:tg":"\u0411\u0435\u043b\u0430\u0440\u0443\u0441","name:ca":"Bielor\u00fassia","name:te":"\u0c2c\u0c46\u0c32\u0c3e\u0c30\u0c38\u0c4d","name:cy":"Belarws","name:hr":"Bjelorusija","name:da":"Hviderusland","name:de":"Wei\u00dfrussland","name:dz":"\u0f56\u0f7a\u0f0b\u0f63\u0f0b\u0f62\u0f74\u0f0b\u0f66\u0f74\u0f0d","source":"openstreetmap.org","name:kn":"\u0cac\u0cc6\u0cb2\u0cbe\u0cb0\u0cc1\u0cb8\u0ccd","name:dv":"\u0784\u07ac\u078d\u07a6\u0783\u07ab\u0790\u07b0","name:lv":"Baltkrievija","name:lt":"Baltarusija","name:uz":"Belarus","name:ur":"\u0628\u06cc\u0644\u0627\u0631\u0648\u0633","name:lb":"W\u00e4issrussland","name:la":"Ruthenia Alba","name:uk":"\u0411\u0456\u043b\u043e\u0440\u0443\u0441\u044c","name:ug":"\u0628\u06d0\u0644\u0648\u0631\u06c7\u0633\u0633\u0649\u064a\u06d5","name:li":"Wit-Rusland","name:ln":"Bielorusia","name:el":"\u039b\u03b5\u03c5\u03ba\u03bf\u03c1\u03c9\u03c3\u03af\u03b1","name:eo":"Belorusujo","name:en":"Belarus","name":"\u0411\u0435\u043b\u0430\u0440\u0443\u0441\u044c","name:ee":"Belarus","name:th":"\u0e1b\u0e23\u0e30\u0e40\u0e17\u0e28\u0e40\u0e1a\u0e25\u0e32\u0e23\u0e38\u0e2a","name:eu":"Bielorrusia","name:et":"Valgevene","name:es":"Bielorrusia","name:ia":"Bielorussia","name:rm":"Bielorussia","name:az":"Belarus","name:ie":"Bielorussia","name:id":"Belarus","name:ar":"\u0631\u0648\u0633\u064a\u0627 \u0627\u0644\u0628\u064a\u0636\u0627\u0621","name:io":"Bielorusia","name:is":"Hv\u00edta-R\u00fassland","name:it":"Bielorussia","name:rw":"Belarusi","name:af":"Wit-Rusland","name:zu":"IBelarusi","kind_detail":"2","name:ky":"\u0411\u0435\u043b\u0430\u0440\u0443\u0441\u0438\u044f","name:zh-yue":"\u767d\u4fc4\u7f85\u65af","name:zh":"\u767d\u4fc4\u7f57\u65af","name:so":"Belarus","name:sl":"Belorusija","name:sk":"Bielorusko","name:ja":"\u30d9\u30e9\u30eb\u30fc\u30b7","name:si":"\u0db6\u0dd9\u0dbd\u0dcf\u0dbb\u0dc3\u0dca","name:sh":"Belorusija","name:se":"Vilges-Ruo\u0161\u0161a","name:sa":"\u092c\u0947\u0932\u093e\u0930\u0942\u0938","name:bs":"Bjelorusija","name:bn":"\u09ac\u09c7\u09b2\u09be\u09b0\u09c1\u09b6","name:bo":"\u0f56\u0fb7\u0f7a\u0f0b\u0f63\u0f0b\u0f62\u0f66\u0f74\u0f0d","name:br":"Belarus","name:sw":"Belarus","name:sv":"Vitryssland","name:su":"B\u00e9larus","name:bg":"\u0411\u0435\u043b\u0430\u0440\u0443\u0441","name:ss":"IBhelalasi","name:sr":"\u0411\u0435\u043b\u043e\u0440\u0443\u0441\u0438\u0458\u0430","name:sq":"Bjellorusia","name:jv":"B\u00e9larus","name:bi":"Belarus","name:pt":"Bielorr\u00fassia","name:ps":"\u0628\u06d0\u0644\u0627\u0631\u0648\u0633","name:oc":"Bielorussia","min_zoom":8.0,"name:ro":"Belarus","name:zh-min-nan":"Belarus","name:os":"\u0411\u0435\u043b\u043e\u0440\u0443\u0441\u0441\u0438","name:or":"\u0b2c\u0b47\u0b32\u0b3e\u0b0b\u0b37","name:pl":"Bia\u0142oru\u015b","sort_rank":262,"osm_relation":true,"name:tr":"Beyaz Rusya","name:hi":"\u092c\u0947\u0932\u093e\u0930\u0942\u0938","name:he":"\u05d1\u05dc\u05d0\u05e8\u05d5\u05e1","old_name:eo":"Bjelorusio;Bjelorusujo","name:hy":"\u0532\u0565\u056c\u0561\u057c\u0578\u0582\u057d","name:ht":"Byelorisi","name:hu":"Feh\u00e9roroszorsz\u00e1g","name:qu":"Bilarus","kind":"country","name:ts":"Belarus","name:yi":"\u05d1\u05e2\u05dc\u05d0\u05e8\u05d5\u05e1","name:yo":"B\u1eb9\u0300l\u00e1r\u00f9s","name:mt":"Belarus","alt_name:eo":"Belorusio","name:ms":"Belarus","name:mr":"\u092c\u0947\u0932\u093e\u0930\u0942\u0938","name:my":"\u1018\u102e\u101c\u102c\u101b\u102f\u1007\u103a\u1014\u102d\u102f\u1004\u103a\u1004\u1036","official_name":"\u0420\u044d\u0441\u043f\u0443\u0431\u043b\u0456\u043a\u0430 \u0411\u0435\u043b\u0430\u0440\u0443\u0441\u044c","name:kw":"Belarussi","name:ml":"\u0d2c\u0d46\u0d32\u0d3e\u0d31\u0d41\u0d38\u0d4d","name:vi":"Belarus","name:mi":"P\u0113rara","id":-59065,"name:mk":"\u0411\u0435\u043b\u043e\u0440\u0443\u0441\u0438\u0458\u0430","name:vo":"Belarus\u00e4n","name:fa":"\u0628\u0644\u0627\u0631\u0648\u0633","name:ff":"Belaruusiya","name:fi":"Valko-Ven\u00e4j\u00e4","name:fo":"Hv\u00edtarussland","alt_name:vi":"B\u1ea1ch Nga","name:fr":"B\u00e9larus","name:fy":"Wyt-Rusl\u00e2n","int_name":"Belarus","name:nl":"Wit-Rusland","name:nn":"Kviterussland","name:no":"Hviterussland","name:na":"Berarut","name:ne":"\u092c\u0947\u0932\u093e\u0930\u0941\u0938","alt_name:fr":"Bi\u00e9lorussie","name:wo":"Belaarus","name:ga":"An Bhealar\u00fais","name:gd":"A' Bhealaruis","name:gn":"Vielorrusia","name:gl":"Bielorrusia","name:gv":"Yn Velaroosh","name:gu":"\u0aac\u0ac7\u0ab2\u0abe\u0ab0\u0ac1\u0ab8"},"arcs":[7]},{"type":"LineString","properties":{"name:right:fr":"Voblast de Homiel","name:right:uk":"\u0413\u043e\u043c\u0454\u043b\u044c\u0441\u044c\u043a\u0430 \u043e\u0431\u043b\u0430\u0441\u0442\u044c","name:left:ja":"\u30d6\u30ea\u30e3\u30f3\u30b9\u30af\u5dde","id:right":-59161,"name:right:lt":"Gomelio sritis","min_zoom":8.0,"name:left:ba":"\u0411\u0440\u044f\u043d\u0441\u043a \u04e9\u043b\u043a\u04d9\u04bb\u0435","name:left:lt":"Briansko sritis","name:left:sh":"Brjanska oblast","name:left:lv":"Brjanskas apgabals","name:left:be":"\u0411\u0440\u0430\u043d\u0441\u043a\u0430\u044f \u0432\u043e\u0431\u043b\u0430\u0441\u0446\u044c","name:right:eo":"Homela regiono","name:left:hu":"Brjanszki ter\u00fclet","id":-81997,"name:right":"\u0413\u043e\u043c\u0435\u043b\u044c\u0441\u043a\u0430\u044f \u043e\u0431\u043b\u0430\u0441\u0442\u044c","name:left:en":"Bryansk Oblast","name:left:el":"\u03a0\u03b5\u03c1\u03b9\u03c6\u03ad\u03c1\u03b5\u03b9\u03b1 \u039c\u03c0\u03c1\u03b9\u03ac\u03bd\u03c3\u03ba","sort_rank":256,"kind_detail":"4","name:left:ca":"Prov\u00edncia de Briansk","int_name:right":"Homie\u013askaja voblas\u0107","source":"openstreetmap.org","id:left":-81997,"name:left:es":"\u00d3blast de Briansk","name:left:os":"\u0411\u0440\u044f\u043d\u0441\u0447\u044b \u043e\u0431\u043b\u00e6\u0441\u0442","name:left:cs":"Brjansk\u00e1 oblast","name:left":"\u0411\u0440\u044f\u043d\u0441\u043a\u0430\u044f \u043e\u0431\u043b\u0430\u0441\u0442\u044c","name:left:ka":"\u10d1\u10e0\u10d8\u10d0\u10dc\u10e1\u10d9\u10d8\u10e1 \u10dd\u10da\u10e5\u10d8","name:left:ar":"\u0623\u0648\u0628\u0644\u0627\u0633\u062a \u0628\u0631\u064a\u0627\u0646\u0633\u0643","name:left:pl":"Obw\u00f3d bria\u0144ski","name:left:tr":"Bryansk Oblast\u0131","name:left:tt":"\u0411\u0440\u044f\u043d\u0441\u043a \u04e9\u043b\u043a\u04d9\u0441\u0435","name:left:az":"Bryansk vilay\u0259ti","name:left:ro":"Regiunea Briansk","old_name:right:uk":"\u0413\u043e\u043c\u0435\u043b\u044c\u0441\u044c\u043a\u0430 \u043e\u0431\u043b\u0430\u0441\u0442\u044c","name:left:kv":"\u0411\u0440\u044f\u043d\u0441\u043a \u043e\u0431\u043b\u0430\u0441\u044c\u0442","name:left:sr":"\u0411\u0440\u0458\u0430\u043d\u0441\u043a\u0430 \u043e\u0431\u043b\u0430\u0441\u0442","name:right:pl":"obw\u00f3d homelski","name:right:en":"Homel Region","osm_relation":true,"name:left:uk":"\u0411\u0440\u044f\u043d\u0441\u044c\u043a\u0430 \u043e\u0431\u043b\u0430\u0441\u0442\u044c","kind":"region","name":"\u0411\u0440\u044f\u043d\u0441\u043a\u0430\u044f \u043e\u0431\u043b\u0430\u0441\u0442\u044c - \u0413\u043e\u043c\u0435\u043b\u044c\u0441\u043a\u0430\u044f \u043e\u0431\u043b\u0430\u0441\u0442\u044c","name:right:de":"Woblast Homel","name:left:nl":"Oblast Brjansk","name:right:be":"\u0413\u043e\u043c\u0435\u043b\u044c\u0441\u043a\u0430\u044f \u0432\u043e\u0431\u043b\u0430\u0441\u0446\u044c","name:left:de":"Oblast Brjansk","name:left:zh":"\u5e03\u826f\u65af\u514b\u5dde","name:left:fr":"Oblast de Briansk","name:left:eu":"Briansk oblasta","name:left:et":"Brjanski oblast","name:left:hy":"\u0532\u0580\u0575\u0561\u0576\u057d\u056f\u056b \u0574\u0561\u0580\u0566"},"arcs":[8]},{"type":"MultiLineString","properties":{"name:right:hy":"\u0549\u0565\u057c\u0576\u056b\u0563\u0578\u057e\u056b \u0574\u0561\u0580\u0566","name:right:no":"Tsjernihiv oblast","name:right:hr":"\u010cernigivska oblast","name:right:hu":"Csernyihivi ter\u00fclet","name:left:sr":"\u0411\u0440\u0458\u0430\u043d\u0441\u043a\u0430 \u043e\u0431\u043b\u0430\u0441\u0442","name:right:lt":"\u010cernigovo sritis","min_zoom":8.0,"name:left:lt":"Briansko sritis","name:left:sh":"Brjanska oblast","name:left:lv":"Brjanskas apgabals","name:left:hu":"Brjanszki ter\u00fclet","name:right:he":"\u05de\u05d7\u05d5\u05d6 \u05e6'\u05e8\u05e0\u05d9\u05d4\u05d9\u05d1","name:right:os":"\u0427\u0435\u0440\u043d\u0438\u0433\u043e\u0432\u044b \u043e\u0431\u043b\u00e6\u0441\u0442","sort_rank":256,"name:left:ca":"Prov\u00edncia de Briansk","name:right:sk":"\u010cernihivsk\u00e1 oblas\u0165","source":"openstreetmap.org","name:right:ar":"\u062a\u0634\u0631\u0646\u064a\u0647\u064a\u0641 \u0623\u0648\u0628\u0644\u0627\u0633\u062a","name:left:cs":"Brjansk\u00e1 oblast","name:left":"\u0411\u0440\u044f\u043d\u0441\u043a\u0430\u044f \u043e\u0431\u043b\u0430\u0441\u0442\u044c","name:right:mk":"\u0427\u0435\u0440\u043d\u0438\u0433\u043e\u0432\u0441\u043a\u0430 \u043e\u0431\u043b\u0430\u0441\u0442","name:left:ka":"\u10d1\u10e0\u10d8\u10d0\u10dc\u10e1\u10d9\u10d8\u10e1 \u10dd\u10da\u10e5\u10d8","name:right:eu":"Txernihiveko oblasta","name:right:et":"T\u0161ernigivi oblast","name:left:os":"\u0411\u0440\u044f\u043d\u0441\u0447\u044b \u043e\u0431\u043b\u00e6\u0441\u0442","name:right:it":"Oblast' di \u010cernihiv","name:left:ro":"Regiunea Briansk","name:right:vi":"Chernihiv (t\u1ec9nh)","name:left:kv":"\u0411\u0440\u044f\u043d\u0441\u043a \u043e\u0431\u043b\u0430\u0441\u044c\u0442","name:right:ro":"Regiunea Cernig\u0103u","name:right:mr":"\u091a\u0947\u0930\u094d\u0928\u093f\u0939\u093f\u0935\u094d\u0939 \u0913\u092c\u094d\u0932\u093e\u0938\u094d\u0924","name:right:id":"Oblast Chernihiv","name:right:eo":"\u0108ernihiva provinco","name:right:en":"Chernihiv Oblast","kind":"region","name":"\u0411\u0440\u044f\u043d\u0441\u043a\u0430\u044f \u043e\u0431\u043b\u0430\u0441\u0442\u044c - \u0427\u0435\u0440\u043d\u0456\u0433\u0456\u0432\u0441\u044c\u043a\u0430 \u043e\u0431\u043b\u0430\u0441\u0442\u044c","name:right:fa":"\u0627\u0633\u062a\u0627\u0646 \u0686\u0631\u0646\u06cc\u0647\u06cc\u0648","name:right:lv":"\u010cer\u0146igovas apgabals","name:right:be":"\u0427\u0430\u0440\u043d\u0456\u0433\u0430\u045e\u0441\u043a\u0430\u044f \u0432\u043e\u0431\u043b\u0430\u0441\u0446\u044c","name:left:zh":"\u5e03\u826f\u65af\u514b\u5dde","name:left:fr":"Oblast de Briansk","name:right:zh":"\u5207\u723e\u5c3c\u6208\u592b\u5dde","name:left:hy":"\u0532\u0580\u0575\u0561\u0576\u057d\u056f\u056b \u0574\u0561\u0580\u0566","name:right:nn":"Tsjernihiv oblast","name:right:es":"\u00d3blast de Chernihiv","name:right:nl":"Oblast Tsjernihiv","name:right:ja":"\u30c1\u30a7\u30eb\u30cb\u30fc\u30d2\u30a6\u5dde","name:right:fr":"Oblast de Tchernihiv","name:left:ja":"\u30d6\u30ea\u30e3\u30f3\u30b9\u30af\u5dde","id:right":-71249,"name:left:uk":"\u0411\u0440\u044f\u043d\u0441\u044c\u043a\u0430 \u043e\u0431\u043b\u0430\u0441\u0442\u044c","name:right:sh":"\u010cernigivska oblast","name:left:nl":"Oblast Brjansk","name:left:ba":"\u0411\u0440\u044f\u043d\u0441\u043a \u04e9\u043b\u043a\u04d9\u04bb\u0435","name:left:be":"\u0411\u0440\u0430\u043d\u0441\u043a\u0430\u044f \u0432\u043e\u0431\u043b\u0430\u0441\u0446\u044c","id":-81997,"name:right":"\u0427\u0435\u0440\u043d\u0456\u0433\u0456\u0432\u0441\u044c\u043a\u0430 \u043e\u0431\u043b\u0430\u0441\u0442\u044c","name:left:en":"Bryansk Oblast","name:left:el":"\u03a0\u03b5\u03c1\u03b9\u03c6\u03ad\u03c1\u03b5\u03b9\u03b1 \u039c\u03c0\u03c1\u03b9\u03ac\u03bd\u03c3\u03ba","name:right:ca":"Prov\u00edncia de Txern\u00edhiv","kind_detail":"4","alt_name:right:ro":"Regiunea Cernigov","id:left":-81997,"name:left:es":"\u00d3blast de Briansk","name:right:cs":"\u010cernihovsk\u00e1 oblast","name:right:fi":"T\u0161ernihivin alue","name:left:eu":"Briansk oblasta","name:left:et":"Brjanski oblast","name:right:ka":"\u10e9\u10d4\u10e0\u10dc\u10d8\u10d2\u10dd\u10d5\u10d8\u10e1 \u10dd\u10da\u10e5\u10d8","name:right:zh-min-nan":"Chernigiv s\u00e9ng","name:right:pt":"Oblast de Chernigov","name:left:ar":"\u0623\u0648\u0628\u0644\u0627\u0633\u062a \u0628\u0631\u064a\u0627\u0646\u0633\u0643","name:left:pl":"Obw\u00f3d bria\u0144ski","name:left:tr":"Bryansk Oblast\u0131","name:left:tt":"\u0411\u0440\u044f\u043d\u0441\u043a \u04e9\u043b\u043a\u04d9\u0441\u0435","name:left:az":"Bryansk vilay\u0259ti","name:right:ko":"\uccb4\ub974\ub2c8\ud788\uc6b0 \uc8fc","name:right:bg":"\u0427\u0435\u0440\u043d\u0438\u0433\u043e\u0432\u0441\u043a\u0430 \u043e\u0431\u043b\u0430\u0441\u0442","name:right:sv":"Tjernihiv oblast","name:right:tr":"\u00c7ernigov Oblast\u0131","name:right:ru":"\u0427\u0435\u0440\u043d\u0438\u0433\u043e\u0432\u0441\u043a\u0430\u044f \u043e\u0431\u043b\u0430\u0441\u0442\u044c","name:right:pl":"Obw\u00f3d czernihowski","osm_relation":true,"name:right:de":"Oblast Tschernihiw","name:left:de":"Oblast Brjansk"},"arcs":[[9],[10],[11]]},{"type":"LineString","properties":{"name:right:fr":"Voblast de Homiel","name:right:uk":"\u0413\u043e\u043c\u0454\u043b\u044c\u0441\u044c\u043a\u0430 \u043e\u0431\u043b\u0430\u0441\u0442\u044c","name:left:ja":"\u30d6\u30ea\u30e3\u30f3\u30b9\u30af\u5dde","id:right":-59161,"name:right:lt":"Gomelio sritis","min_zoom":8.0,"name:left:ba":"\u0411\u0440\u044f\u043d\u0441\u043a \u04e9\u043b\u043a\u04d9\u04bb\u0435","name:left:lt":"Briansko sritis","name:left:sh":"Brjanska oblast","name:left:lv":"Brjanskas apgabals","name:left:be":"\u0411\u0440\u0430\u043d\u0441\u043a\u0430\u044f \u0432\u043e\u0431\u043b\u0430\u0441\u0446\u044c","name:right:eo":"Homela regiono","name:left:hu":"Brjanszki ter\u00fclet","id":-81997,"name:right":"\u0413\u043e\u043c\u0435\u043b\u044c\u0441\u043a\u0430\u044f \u043e\u0431\u043b\u0430\u0441\u0442\u044c","name:left:en":"Bryansk Oblast","name:left:el":"\u03a0\u03b5\u03c1\u03b9\u03c6\u03ad\u03c1\u03b5\u03b9\u03b1 \u039c\u03c0\u03c1\u03b9\u03ac\u03bd\u03c3\u03ba","sort_rank":256,"kind_detail":"4","name:left:ca":"Prov\u00edncia de Briansk","int_name:right":"Homie\u013askaja voblas\u0107","source":"openstreetmap.org","id:left":-81997,"name:left:es":"\u00d3blast de Briansk","name:left:os":"\u0411\u0440\u044f\u043d\u0441\u0447\u044b \u043e\u0431\u043b\u00e6\u0441\u0442","name:left:cs":"Brjansk\u00e1 oblast","name:left":"\u0411\u0440\u044f\u043d\u0441\u043a\u0430\u044f \u043e\u0431\u043b\u0430\u0441\u0442\u044c","name:left:ka":"\u10d1\u10e0\u10d8\u10d0\u10dc\u10e1\u10d9\u10d8\u10e1 \u10dd\u10da\u10e5\u10d8","name:left:ar":"\u0623\u0648\u0628\u0644\u0627\u0633\u062a \u0628\u0631\u064a\u0627\u0646\u0633\u0643","name:left:pl":"Obw\u00f3d bria\u0144ski","name:left:tr":"Bryansk Oblast\u0131","name:left:tt":"\u0411\u0440\u044f\u043d\u0441\u043a \u04e9\u043b\u043a\u04d9\u0441\u0435","name:left:az":"Bryansk vilay\u0259ti","name:left:ro":"Regiunea Briansk","old_name:right:uk":"\u0413\u043e\u043c\u0435\u043b\u044c\u0441\u044c\u043a\u0430 \u043e\u0431\u043b\u0430\u0441\u0442\u044c","name:left:kv":"\u0411\u0440\u044f\u043d\u0441\u043a \u043e\u0431\u043b\u0430\u0441\u044c\u0442","name:left:sr":"\u0411\u0440\u0458\u0430\u043d\u0441\u043a\u0430 \u043e\u0431\u043b\u0430\u0441\u0442","name:right:pl":"obw\u00f3d homelski","name:right:en":"Homel Region","osm_relation":true,"name:left:uk":"\u0411\u0440\u044f\u043d\u0441\u044c\u043a\u0430 \u043e\u0431\u043b\u0430\u0441\u0442\u044c","kind":"region","name":"\u0411\u0440\u044f\u043d\u0441\u043a\u0430\u044f \u043e\u0431\u043b\u0430\u0441\u0442\u044c - \u0413\u043e\u043c\u0435\u043b\u044c\u0441\u043a\u0430\u044f \u043e\u0431\u043b\u0430\u0441\u0442\u044c","name:right:de":"Woblast Homel","name:left:nl":"Oblast Brjansk","name:right:be":"\u0413\u043e\u043c\u0435\u043b\u044c\u0441\u043a\u0430\u044f \u0432\u043e\u0431\u043b\u0430\u0441\u0446\u044c","name:left:de":"Oblast Brjansk","name:left:zh":"\u5e03\u826f\u65af\u514b\u5dde","name:left:fr":"Oblast de Briansk","name:left:eu":"Briansk oblasta","name:left:et":"Brjanski oblast","name:left:hy":"\u0532\u0580\u0575\u0561\u0576\u057d\u056f\u056b \u0574\u0561\u0580\u0566"},"arcs":[12]},{"type":"MultiLineString","properties":{"name:right:uk":"\u0413\u043e\u043c\u0454\u043b\u044c\u0441\u044c\u043a\u0430 \u043e\u0431\u043b\u0430\u0441\u0442\u044c","name:left:he":"\u05de\u05d7\u05d5\u05d6 \u05e6'\u05e8\u05e0\u05d9\u05d4\u05d9\u05d1","name:left:sv":"Tjernihiv oblast","name:right:lt":"Gomelio sritis","min_zoom":8.0,"name:left:lt":"\u010cernigovo sritis","name:left:sh":"\u010cernigivska oblast","name:left:lv":"\u010cer\u0146igovas apgabals","name:left:hu":"Csernyihivi ter\u00fclet","name:left:hr":"\u010cernigivska oblast","sort_rank":256,"name:left:ca":"Prov\u00edncia de Txern\u00edhiv","int_name:right":"Homie\u013askaja voblas\u0107","source":"openstreetmap.org","name:left:cs":"\u010cernihovsk\u00e1 oblast","name:left":"\u0427\u0435\u0440\u043d\u0456\u0433\u0456\u0432\u0441\u044c\u043a\u0430 \u043e\u0431\u043b\u0430\u0441\u0442\u044c","name:left:ka":"\u10e9\u10d4\u10e0\u10dc\u10d8\u10d2\u10dd\u10d5\u10d8\u10e1 \u10dd\u10da\u10e5\u10d8","name:left:os":"\u0427\u0435\u0440\u043d\u0438\u0433\u043e\u0432\u044b \u043e\u0431\u043b\u00e6\u0441\u0442","name:left:ro":"Regiunea Cernig\u0103u","name:left:ru":"\u0427\u0435\u0440\u043d\u0438\u0433\u043e\u0432\u0441\u043a\u0430\u044f \u043e\u0431\u043b\u0430\u0441\u0442\u044c","name:right:eo":"Homela regiono","name:right:en":"Homel Region","name:left:vi":"Chernihiv (t\u1ec9nh)","kind":"region","name":"\u0427\u0435\u0440\u043d\u0456\u0433\u0456\u0432\u0441\u044c\u043a\u0430 \u043e\u0431\u043b\u0430\u0441\u0442\u044c - \u0413\u043e\u043c\u0435\u043b\u044c\u0441\u043a\u0430\u044f \u043e\u0431\u043b\u0430\u0441\u0442\u044c","name:left:fa":"\u0627\u0633\u062a\u0627\u0646 \u0686\u0631\u0646\u06cc\u0647\u06cc\u0648","name:left:fi":"T\u0161ernihivin alue","name:left:zh":"\u5207\u723e\u5c3c\u6208\u592b\u5dde","name:left:fr":"Oblast de Tchernihiv","name:left:hy":"\u0549\u0565\u057c\u0576\u056b\u0563\u0578\u057e\u056b \u0574\u0561\u0580\u0566","name:right:fr":"Voblast de Homiel","alt_name:left:ro":"Regiunea Cernigov","name:left:ja":"\u30c1\u30a7\u30eb\u30cb\u30fc\u30d2\u30a6\u5dde","id:right":-59161,"name:left:nn":"Tsjernihiv oblast","name:left:no":"Tsjernihiv oblast","name:left:nl":"Oblast Tsjernihiv","name:left:bg":"\u0427\u0435\u0440\u043d\u0438\u0433\u043e\u0432\u0441\u043a\u0430 \u043e\u0431\u043b\u0430\u0441\u0442","name:left:be":"\u0427\u0430\u0440\u043d\u0456\u0433\u0430\u045e\u0441\u043a\u0430\u044f \u0432\u043e\u0431\u043b\u0430\u0441\u0446\u044c","name:right:be":"\u0413\u043e\u043c\u0435\u043b\u044c\u0441\u043a\u0430\u044f \u0432\u043e\u0431\u043b\u0430\u0441\u0446\u044c","id":-71249,"name:right":"\u0413\u043e\u043c\u0435\u043b\u044c\u0441\u043a\u0430\u044f \u043e\u0431\u043b\u0430\u0441\u0442\u044c","name:left:eo":"\u0108ernihiva provinco","name:left:en":"Chernihiv Oblast","kind_detail":"4","name:left:sk":"\u010cernihivsk\u00e1 oblas\u0165","name:left:pl":"Obw\u00f3d czernihowski","id:left":-71249,"name:left:es":"\u00d3blast de Chernihiv","name:left:ko":"\uccb4\ub974\ub2c8\ud788\uc6b0 \uc8fc","name:left:eu":"Txernihiveko oblasta","name:left:et":"T\u0161ernigivi oblast","name:left:ar":"\u062a\u0634\u0631\u0646\u064a\u0647\u064a\u0641 \u0623\u0648\u0628\u0644\u0627\u0633\u062a","name:left:mk":"\u0427\u0435\u0440\u043d\u0438\u0433\u043e\u0432\u0441\u043a\u0430 \u043e\u0431\u043b\u0430\u0441\u0442","name:left:tr":"\u00c7ernigov Oblast\u0131","name:left:id":"Oblast Chernihiv","name:left:pt":"Oblast de Chernigov","name:left:mr":"\u091a\u0947\u0930\u094d\u0928\u093f\u0939\u093f\u0935\u094d\u0939 \u0913\u092c\u094d\u0932\u093e\u0938\u094d\u0924","old_name:right:uk":"\u0413\u043e\u043c\u0435\u043b\u044c\u0441\u044c\u043a\u0430 \u043e\u0431\u043b\u0430\u0441\u0442\u044c","name:left:zh-min-nan":"Chernigiv s\u00e9ng","name:left:it":"Oblast' di \u010cernihiv","name:right:pl":"obw\u00f3d homelski","osm_relation":true,"name:right:de":"Woblast Homel","name:left:de":"Oblast Tschernihiw"},"arcs":[[13],[14],[15]]}]},"roads":{"type":"GeometryCollection","geometries":[{"type":"MultiLineString","properties":{"kind":"major_road","int_name":"plo\u0161\u010da Lienina","sort_rank":380,"kind_detail":"primary","source":"openstreetmap.org","min_zoom":8.0,"landuse_kind":"urban_area","name:be":"\u043f\u043b\u043e\u0448\u0447\u0430 \u041b\u0435\u043d\u0456\u043d\u0430"},"arcs":[[42],[43]]},{"type":"LineString","properties":{"source":"openstreetmap.org","bus_network":null,"bus_shield_text":"\u041a\u0438\u0435\u0432-\u041c\u043e\u0441\u043a\u0432\u0430","sort_rank":380,"kind_detail":"primary","min_zoom":8.0,"kind":"major_road"},"arcs":[44]},{"type":"LineString","properties":{"kind":"major_road","int_name":"Centra\u013anaja vulica","sort_rank":380,"kind_detail":"primary","source":"openstreetmap.org","min_zoom":8.0,"name:be":"\u0426\u044d\u043d\u0442\u0440\u0430\u043b\u044c\u043d\u0430\u044f \u0432\u0443\u043b\u0456\u0446\u0430","id":62802648},"arcs":[45]},{"type":"LineString","properties":{"kind":"major_road","int_name":"vulica Ilji\u010da","network":"by:national","sort_rank":380,"kind_detail":"primary","bus_network":"regional","source":"openstreetmap.org","min_zoom":8.0,"bus_shield_text":"763\u044d","shield_text":"150","name:be":"\u0432\u0443\u043b\u0456\u0446\u0430 \u0406\u043b\u2019\u0456\u0447\u0430","ref":"\u0420150","id":129194984},"arcs":[46]},{"type":"LineString","properties":{"kind":"major_road","int_name":"Centra\u013anaja vul.","sort_rank":380,"kind_detail":"primary","source":"openstreetmap.org","min_zoom":8.0,"name:be":"\u0426\u044d\u043d\u0442\u0440\u0430\u043b\u044c\u043d\u0430\u044f \u0432\u0443\u043b\u0456\u0446\u0430","id":368178172},"arcs":[47]},{"type":"MultiLineString","properties":{"kind":"major_road","int_name":"vulica Frunze","sort_rank":380,"kind_detail":"primary","source":"openstreetmap.org","min_zoom":8.0,"landuse_kind":"urban_area","name:be":"\u0432\u0443\u043b\u0456\u0446\u0430 \u0424\u0440\u0443\u043d\u0437\u044d"},"arcs":[[48],[49]]},{"type":"LineString","properties":{"bus_network":"regional","network":"by:national","sort_rank":380,"kind_detail":"primary","kind":"major_road","source":"openstreetmap.org","min_zoom":8.0,"bus_shield_text":"763\u044d","shield_text":"150","ref":"\u0420150"},"arcs":[50]},{"type":"LineString","properties":{"source":"openstreetmap.org","kind":"major_road","kind_detail":"primary","sort_rank":380,"name:be":"\u0432\u0443\u043b\u0456\u0446\u0430 \u0426\u0456\u043c\u0456\u0440\u0430\u0437\u0435\u0432\u0430","min_zoom":8.0,"id":25233968},"arcs":[51]},{"type":"MultiLineString","properties":{"bus_network":"regional","int_name":"Re\u010dycki praspiekt","sort_rank":380,"kind_detail":"primary","kind":"major_road","source":"openstreetmap.org","min_zoom":8.0,"bus_shield_text":"671","name:be":"\u0420\u044d\u0447\u044b\u0446\u043a\u0456 \u043f\u0440\u0430\u0441\u043f\u0435\u043a\u0442","landuse_kind":"urban_area"},"arcs":[[52],[53],[54]]},{"type":"MultiLineString","properties":{"kind":"major_road","int_name":"praspiekt Kasmana\u016dta\u016d","network":"by:national","sort_rank":381,"kind_detail":"trunk","source":"openstreetmap.org","min_zoom":8.0,"landuse_kind":"urban_area","shield_text":"5","name:be":"\u043f\u0440\u0430\u0441\u043f\u0435\u043a\u0442 \u041a\u0430\u0441\u043c\u0430\u043d\u0430\u045e\u0442\u0430\u045e","ref":"\u041c5"},"arcs":[[55],[56]]},{"type":"LineString","properties":{"kind":"major_road","int_name":"Homie\u013askaja vulica","network":"by:national","sort_rank":381,"kind_detail":"trunk","source":"openstreetmap.org","min_zoom":8.0,"shield_text":"10","name:be":"\u0413\u043e\u043c\u0435\u043b\u044c\u0441\u043a\u0430\u044f \u0432\u0443\u043b\u0456\u0446\u0430","ref":"\u041c10","id":76750647},"arcs":[57]},{"type":"LineString","properties":{"kind":"major_road","sort_rank":380,"kind_detail":"primary","bus_network":"national","source":"openstreetmap.org","min_zoom":8.0,"bus_shield_text":null,"landuse_kind":"urban_area","id":38534395},"arcs":[58]},{"type":"LineString","properties":{"kind":"major_road","int_name":"vulica Vil'yamsa","network":"by:national","sort_rank":380,"kind_detail":"primary","source":"openstreetmap.org","min_zoom":8.0,"shield_text":"124","name:be":"\u0432\u0443\u043b\u0456\u0446\u0430 \u0412\u0456\u043b\u2019\u044f\u043c\u0441\u0430","ref":"\u0420124","id":80243105},"arcs":[59]},{"type":"MultiLineString","properties":{"kind":"major_road","int_name":"vulica Bahdana Chmia\u013anickaha","sort_rank":380,"kind_detail":"primary","source":"openstreetmap.org","min_zoom":8.0,"landuse_kind":"urban_area","name:be":"\u0432\u0443\u043b\u0456\u0446\u0430 \u0411\u0430\u0433\u0434\u0430\u043d\u0430 \u0425\u043c\u044f\u043b\u044c\u043d\u0456\u0446\u043a\u0430\u0433\u0430"},"arcs":[[60],[61],[62],[63],[64]]},{"type":"LineString","properties":{"bus_network":null,"network":"by:national","sort_rank":380,"kind_detail":"primary","kind":"major_road","source":"openstreetmap.org","min_zoom":8.0,"bus_shield_text":"\u041a\u0438\u0435\u0432-\u041c\u043e\u0441\u043a\u0432\u0430","shield_text":"124","ref":"\u0420124"},"arcs":[65]},{"type":"LineString","properties":{"kind":"major_road","int_name":"vulica Krupskaj","sort_rank":380,"kind_detail":"primary","source":"openstreetmap.org","min_zoom":8.0,"name:be":"\u0432\u0443\u043b\u0456\u0446\u0430 \u041a\u0440\u0443\u043f\u0441\u043a\u0430\u0439","id":95091393},"arcs":[66]},{"type":"LineString","properties":{"source":"openstreetmap.org","kind":"major_road","sort_rank":380,"kind_detail":"primary","ref":"\u0420124","min_zoom":8.0,"id":363177229},"arcs":[67]},{"type":"MultiLineString","properties":{"bus_network":"regional","int_name":"vulica Frunze","sort_rank":380,"kind_detail":"primary","kind":"major_road","source":"openstreetmap.org","min_zoom":8.0,"bus_shield_text":"763\u044d","name:be":"\u0432\u0443\u043b\u0456\u0446\u0430 \u0424\u0440\u0443\u043d\u0437\u044d","landuse_kind":"urban_area"},"arcs":[[68],[69]]},{"type":"LineString","properties":{"kind":"major_road","network":"ru:regional","sort_rank":380,"kind_detail":"primary","source":"openstreetmap.org","min_zoom":8.0,"shield_text":"15\u041a","ref":"15\u041a-1201"},"arcs":[70]},{"type":"MultiLineString","properties":{"kind":"major_road","network":"e-road","sort_rank":381,"kind_detail":"trunk","source":"openstreetmap.org","min_zoom":8.0,"shield_text":"95","ref":"\u041c-01"},"arcs":[[71],[72],[73],[74],[75]]},{"type":"LineString","properties":{"kind":"major_road","int_name":"Kastry\u010dnickaja vulica","network":"by:national","sort_rank":380,"kind_detail":"primary","source":"openstreetmap.org","min_zoom":8.0,"landuse_kind":"urban_area","shield_text":"124","name:be":"\u041a\u0430\u0441\u0442\u0440\u044b\u0447\u043d\u0456\u0446\u043a\u0430\u044f \u0432\u0443\u043b\u0456\u0446\u0430","ref":"\u0420124","id":75921232},"arcs":[76]},{"type":"LineString","properties":{"kind":"major_road","int_name":"vulica Fiadziuninskaha","sort_rank":380,"kind_detail":"primary","source":"openstreetmap.org","min_zoom":8.0,"name:be":"\u0432\u0443\u043b\u0456\u0446\u0430 \u0424\u044f\u0434\u0437\u044e\u043d\u0456\u043d\u0441\u043a\u0430\u0433\u0430","id":345025073},"arcs":[77]},{"type":"LineString","properties":{"bus_network":null,"int_name":"vulica Kirava","sort_rank":380,"kind_detail":"primary","kind":"major_road","source":"openstreetmap.org","min_zoom":8.0,"bus_shield_text":"15","name:be":"\u0432\u0443\u043b\u0456\u0446\u0430 \u041a\u0456\u0440\u0430\u0432\u0430","landuse_kind":"urban_area"},"arcs":[78]},{"type":"LineString","properties":{"kind":"major_road","int_name":"Internacyjana\u013anaja vulica","sort_rank":380,"kind_detail":"primary","bus_network":null,"source":"openstreetmap.org","min_zoom":8.0,"bus_shield_text":"1","name:be":"\u0406\u043d\u0442\u044d\u0440\u043d\u0430\u0446\u044b\u044f\u043d\u0430\u043b\u044c\u043d\u0430\u044f \u0432\u0443\u043b\u0456\u0446\u0430","landuse_kind":"urban_area","id":44582863},"arcs":[79]},{"type":"MultiLineString","properties":{"bus_network":"regional","int_name":"vulica Barykina","sort_rank":380,"kind_detail":"primary","kind":"major_road","source":"openstreetmap.org","min_zoom":8.0,"bus_shield_text":"671","name:be":"\u0432\u0443\u043b\u0456\u0446\u0430 \u0411\u0430\u0440\u044b\u043a\u0456\u043d\u0430","landuse_kind":"urban_area"},"arcs":[[80],[81]]},{"type":"LineString","properties":{"kind":"major_road","int_name":"Internacyjana\u013anaja vulica","network":"by:national","sort_rank":380,"kind_detail":"primary","source":"openstreetmap.org","min_zoom":8.0,"landuse_kind":"residential","shield_text":"124","name:be":"\u0406\u043d\u0442\u044d\u0440\u043d\u0430\u0446\u044b\u044f\u043d\u0430\u043b\u044c\u043d\u0430\u044f \u0432\u0443\u043b\u0456\u0446\u0430","ref":"\u0420124"},"arcs":[82]},{"type":"MultiLineString","properties":{"kind":"major_road","int_name":"vulica Chatajevi\u010da","sort_rank":380,"kind_detail":"primary","source":"openstreetmap.org","min_zoom":8.0,"landuse_kind":"urban_area","name:be":"\u0432\u0443\u043b\u0456\u0446\u0430 \u0425\u0430\u0442\u0430\u0435\u0432\u0456\u0447\u0430"},"arcs":[[83],[84]]},{"type":"LineString","properties":{"kind":"major_road","int_name":"Dobru\u0161skaja vulica","sort_rank":380,"kind_detail":"primary","source":"openstreetmap.org","min_zoom":8.0,"landuse_kind":"urban_area","name:be":"\u0414\u043e\u0431\u0440\u0443\u0448\u0441\u043a\u0430\u044f \u0432\u0443\u043b\u0456\u0446\u0430"},"arcs":[85]},{"type":"MultiLineString","properties":{"kind":"major_road","network":"by:national","sort_rank":380,"kind_detail":"primary","source":"openstreetmap.org","min_zoom":8.0,"shield_text":"124","ref":"\u0420124"},"arcs":[[86],[87],[88],[89],[90],[91],[92],[93],[94],[95],[96]]},{"type":"LineString","properties":{"sort_rank":381,"source":"openstreetmap.org","min_zoom":8.0,"kind":"major_road","kind_detail":"trunk"},"arcs":[97]},{"type":"MultiLineString","properties":{"kind":"major_road","int_name":"vulica Kirava","sort_rank":380,"kind_detail":"primary","source":"openstreetmap.org","min_zoom":8.0,"landuse_kind":"urban_area","name:be":"\u0432\u0443\u043b\u0456\u0446\u0430 \u041a\u0456\u0440\u0430\u0432\u0430"},"arcs":[[98],[99],[100],[101],[102],[103]]},{"type":"LineString","properties":{"bus_network":null,"int_name":"vulica Bahdana Chmia\u013anickaha","sort_rank":380,"kind_detail":"primary","kind":"major_road","source":"openstreetmap.org","min_zoom":8.0,"bus_shield_text":"15","name:be":"\u0432\u0443\u043b\u0456\u0446\u0430 \u0411\u0430\u0433\u0434\u0430\u043d\u0430 \u0425\u043c\u044f\u043b\u044c\u043d\u0456\u0446\u043a\u0430\u0433\u0430","landuse_kind":"urban_area"},"arcs":[104]},{"type":"LineString","properties":{"kind":"major_road","int_name":"vulica Babu\u0161kina","sort_rank":380,"kind_detail":"primary","source":"openstreetmap.org","min_zoom":8.0,"landuse_kind":"urban_area","name:be":"\u0432\u0443\u043b\u0456\u0446\u0430 \u0411\u0430\u0431\u0443\u0448\u043a\u0456\u043d\u0430"},"arcs":[105]},{"type":"LineString","properties":{"kind":"major_road","int_name":"Pryvakza\u013anaja plo\u0161\u010da","sort_rank":380,"landuse_kind":"urban_area","source":"openstreetmap.org","min_zoom":8.0,"kind_detail":"primary","name:be":"\u041f\u0440\u044b\u0432\u0430\u043a\u0437\u0430\u043b\u044c\u043d\u0430\u044f \u043f\u043b\u043e\u0448\u0447\u0430"},"arcs":[106]},{"type":"MultiLineString","properties":{"kind":"major_road","int_name":"vulica Jafremava","sort_rank":380,"kind_detail":"primary","source":"openstreetmap.org","min_zoom":8.0,"landuse_kind":"urban_area","name:be":"\u0432\u0443\u043b\u0456\u0446\u0430 \u042f\u0444\u0440\u044d\u043c\u0430\u0432\u0430"},"arcs":[[107],[108],[109]]},{"type":"LineString","properties":{"kind":"major_road","int_name":"1-ja vulica Luna\u010darskaha","sort_rank":380,"kind_detail":"primary","source":"openstreetmap.org","min_zoom":8.0,"landuse_kind":"urban_area","name:be":"1-\u044f \u0432\u0443\u043b\u0456\u0446\u0430 \u041b\u0443\u043d\u0430\u0447\u0430\u0440\u0441\u043a\u0430\u0433\u0430","id":25235465},"arcs":[110]},{"type":"LineString","properties":{"kind":"major_road","int_name":"vulica Ilji\u010da","sort_rank":380,"kind_detail":"primary","source":"openstreetmap.org","min_zoom":8.0,"landuse_kind":"urban_area","name:be":"\u0432\u0443\u043b\u0456\u0446\u0430 \u0406\u043b\u2019\u0456\u0447\u0430","id":130346940},"arcs":[111]},{"type":"MultiLineString","properties":{"kind":"major_road","network":"by:national","sort_rank":381,"kind_detail":"trunk","source":"openstreetmap.org","min_zoom":8.0,"shield_text":"10","ref":"\u041c10"},"arcs":[[112],[113],[114],[115],[116],[117],[118],[119]]},{"type":"MultiLineString","properties":{"kind":"major_road","network":"by:national","sort_rank":380,"kind_detail":"primary","source":"openstreetmap.org","min_zoom":8.0,"landuse_kind":"urban_area","shield_text":"150","ref":"\u0420150"},"arcs":[[120],[121]]},{"type":"LineString","properties":{"bus_network":"regional","network":"by:national","sort_rank":380,"kind_detail":"primary","kind":"major_road","source":"openstreetmap.org","min_zoom":8.0,"bus_shield_text":"763\u044d","shield_text":"124","ref":"\u0420124"},"arcs":[122]},{"type":"MultiLineString","properties":{"source":"openstreetmap.org","kind":"major_road","landuse_kind":"urban_area","sort_rank":380,"kind_detail":"primary","min_zoom":8.0},"arcs":[[123],[124],[125],[126],[127],[128],[129],[130],[131],[132],[133],[134],[135],[136],[137],[138],[139],[140],[141],[142],[143],[144],[145],[146],[147],[148],[149],[150],[151],[152]]},{"type":"LineString","properties":{"kind":"major_road","network":"ru:regional","sort_rank":380,"kind_detail":"primary","source":"openstreetmap.org","min_zoom":8.0,"shield_text":"15\u041a","id":363177235},"arcs":[153]},{"type":"MultiLineString","properties":{"source":"openstreetmap.org","kind":"major_road","sort_rank":381,"kind_detail":"trunk","ref":"\u041c8","min_zoom":8.0},"arcs":[[154],[155],[156],[157],[158],[159]]},{"type":"LineString","properties":{"bus_network":null,"int_name":"Savieckaja vulica","sort_rank":380,"kind_detail":"primary","kind":"major_road","source":"openstreetmap.org","min_zoom":8.0,"bus_shield_text":"1","name:be":"\u0421\u0430\u0432\u0435\u0446\u043a\u0430\u044f \u0432\u0443\u043b\u0456\u0446\u0430","landuse_kind":"urban_area"},"arcs":[160]},{"type":"LineString","properties":{"kind":"major_road","int_name":"Dobru\u0161skaja vulica","sort_rank":380,"kind_detail":"primary","source":"openstreetmap.org","min_zoom":8.0,"name:be":"\u0414\u043e\u0431\u0440\u0443\u0448\u0441\u043a\u0430\u044f \u0432\u0443\u043b\u0456\u0446\u0430","id":168739371},"arcs":[161]},{"type":"MultiLineString","properties":{"kind":"major_road","int_name":"Uschodni abychod","sort_rank":380,"kind_detail":"primary","source":"openstreetmap.org","min_zoom":8.0,"landuse_kind":"urban_area","name:be":"\u0423\u0441\u0445\u043e\u0434\u043d\u0456 \u0430\u0431\u044b\u0445\u043e\u0434"},"arcs":[[162],[163]]},{"type":"LineString","properties":{"kind":"major_road","int_name":"vulica Paskievi\u010da","network":"by:national","sort_rank":380,"kind_detail":"primary","source":"openstreetmap.org","min_zoom":8.0,"landuse_kind":"urban_area","shield_text":"124","name:be":"\u0432\u0443\u043b\u0456\u0446\u0430 \u041f\u0430\u0441\u043a\u0435\u0432\u0456\u0447\u0430","ref":"\u0420124","id":80243104},"arcs":[164]},{"type":"LineString","properties":{"bus_network":"regional","network":"by:national","sort_rank":381,"kind_detail":"trunk","kind":"major_road","source":"openstreetmap.org","min_zoom":8.0,"bus_shield_text":"763\u044d","shield_text":"10","ref":"\u041c10"},"arcs":[165]},{"type":"LineString","properties":{"kind":"major_road","int_name":"Novy Palieski most","sort_rank":380,"kind_detail":"primary","bus_network":null,"source":"openstreetmap.org","min_zoom":8.0,"bus_shield_text":"15","name:be":"\u041d\u043e\u0432\u044b \u041f\u0430\u043b\u0435\u0441\u043a\u0456 \u043c\u043e\u0441\u0442","landuse_kind":"urban_area","id":90646255},"arcs":[166]},{"type":"LineString","properties":{"bus_network":"regional","int_name":"Pryvakza\u013anaja plo\u0161\u010da","sort_rank":380,"kind_detail":"primary","kind":"major_road","source":"openstreetmap.org","min_zoom":8.0,"bus_shield_text":"763\u044d","name:be":"\u041f\u0440\u044b\u0432\u0430\u043a\u0437\u0430\u043b\u044c\u043d\u0430\u044f \u043f\u043b\u043e\u0448\u0447\u0430","landuse_kind":"urban_area"},"arcs":[167]},{"type":"LineString","properties":{"bus_network":"regional","int_name":"Kava\u013any-II most","sort_rank":380,"landuse_kind":"urban_area","kind":"major_road","source":"openstreetmap.org","min_zoom":8.0,"bus_shield_text":"671","kind_detail":"primary","name:be":"\u041a\u0430\u0432\u0430\u043b\u044c\u043d\u044b-II \u043c\u043e\u0441\u0442"},"arcs":[168]},{"type":"LineString","properties":{"kind":"major_road","network":"by:national","sort_rank":380,"kind_detail":"primary","source":"openstreetmap.org","min_zoom":8.0,"landuse_kind":"residential","shield_text":"124","ref":"\u0420124","id":176072261},"arcs":[169]},{"type":"LineString","properties":{"kind":"major_road","int_name":"Raha\u010do\u016dskaja vulica","sort_rank":380,"landuse_kind":"urban_area","source":"openstreetmap.org","min_zoom":8.0,"kind_detail":"primary","name:be":"\u0420\u0430\u0433\u0430\u0447\u043e\u045e\u0441\u043a\u0430\u044f \u0432\u0443\u043b\u0456\u0446\u0430"},"arcs":[170]},{"type":"LineString","properties":{"kind":"major_road","network":"by:national","sort_rank":380,"kind_detail":"primary","source":"openstreetmap.org","min_zoom":8.0,"landuse_kind":"urban_area","shield_text":"124","ref":"\u0420124","id":75921243},"arcs":[171]},{"type":"LineString","properties":{"kind":"major_road","network":"ua:national","sort_rank":380,"kind_detail":"primary","bus_network":null,"source":"openstreetmap.org","min_zoom":8.0,"bus_shield_text":"\u041a\u0438\u0435\u0432-\u041c\u043e\u0441\u043a\u0432\u0430","shield_text":"28","name:ru":"\u0410\u0440\u043c\u0435\u0439\u0441\u043a\u0430\u044f \u0443\u043b\u0438\u0446\u0430","ref":"\u041d-28","id":303581896},"arcs":[172]},{"type":"LineString","properties":{"bus_network":"regional","network":"by:national","sort_rank":381,"kind_detail":"trunk","kind":"major_road","source":"openstreetmap.org","min_zoom":8.0,"bus_shield_text":"763\u044d","shield_text":"8","ref":"\u041c8"},"arcs":[173]},{"type":"LineString","properties":{"bus_network":"regional","int_name":"praspiekt Lienina","sort_rank":380,"kind_detail":"primary","kind":"major_road","source":"openstreetmap.org","min_zoom":8.0,"bus_shield_text":"763\u044d","name:be":"\u043f\u0440\u0430\u0441\u043f\u0435\u043a\u0442 \u041b\u0435\u043d\u0456\u043d\u0430","landuse_kind":"urban_area"},"arcs":[174]},{"type":"MultiLineString","properties":{"bus_network":null,"network":"ua:national","sort_rank":380,"kind_detail":"primary","kind":"major_road","source":"openstreetmap.org","min_zoom":8.0,"bus_shield_text":"\u041a\u0438\u0435\u0432-\u041c\u043e\u0441\u043a\u0432\u0430","shield_text":"28","ref":"\u041d-28"},"arcs":[[175],[176],[177],[178],[179],[180],[181],[182]]},{"type":"LineString","properties":{"kind":"major_road","int_name":"vulica Barykina","sort_rank":380,"kind_detail":"primary","source":"openstreetmap.org","min_zoom":8.0,"landuse_kind":"urban_area","name:be":"\u0432\u0443\u043b\u0456\u0446\u0430 \u0411\u0430\u0440\u044b\u043a\u0456\u043d\u0430"},"arcs":[183]},{"type":"LineString","properties":{"kind":"major_road","int_name":"vulica Krupskaj","sort_rank":380,"kind_detail":"primary","source":"openstreetmap.org","min_zoom":8.0,"landuse_kind":"urban_area","name:be":"\u0432\u0443\u043b\u0456\u0446\u0430 \u041a\u0440\u0443\u043f\u0441\u043a\u0430\u0439"},"arcs":[184]},{"type":"LineString","properties":{"kind":"major_road","int_name":"Savieckaja vulica","sort_rank":380,"kind_detail":"primary","bus_network":"national","source":"openstreetmap.org","min_zoom":8.0,"bus_shield_text":null,"name:be":"\u0421\u0430\u0432\u0435\u0446\u043a\u0430\u044f \u0432\u0443\u043b\u0456\u0446\u0430","id":38534396},"arcs":[185]},{"type":"MultiLineString","properties":{"bus_network":null,"int_name":"Palieskaja vulica","sort_rank":380,"kind_detail":"primary","kind":"major_road","source":"openstreetmap.org","min_zoom":8.0,"bus_shield_text":"15","name:be":"\u041f\u0430\u043b\u0435\u0441\u043a\u0430\u044f \u0432\u0443\u043b\u0456\u0446\u0430","landuse_kind":"urban_area"},"arcs":[[186],[187]]},{"type":"MultiLineString","properties":{"sort_rank":380,"kind_detail":"primary","min_zoom":8.0,"kind":"major_road","source":"openstreetmap.org"},"arcs":[[188],[189],[190],[191]]},{"type":"LineString","properties":{"kind":"major_road","int_name":"Savieckaja vulica","sort_rank":380,"kind_detail":"primary","source":"openstreetmap.org","min_zoom":8.0,"landuse_kind":"urban_area","name:be":"\u0421\u0430\u0432\u0435\u0446\u043a\u0430\u044f \u0432\u0443\u043b\u0456\u0446\u0430","id":25235375},"arcs":[192]},{"type":"LineString","properties":{"bus_network":"regional","int_name":"vulica Ilji\u010da","sort_rank":380,"kind_detail":"primary","kind":"major_road","source":"openstreetmap.org","min_zoom":8.0,"bus_shield_text":"763\u044d","name:be":"\u0432\u0443\u043b\u0456\u0446\u0430 \u0406\u043b\u2019\u0456\u0447\u0430","landuse_kind":"urban_area"},"arcs":[193]},{"type":"MultiLineString","properties":{"bus_network":null,"int_name":"praspiekt Pieramohi","sort_rank":380,"kind_detail":"primary","kind":"major_road","source":"openstreetmap.org","min_zoom":8.0,"bus_shield_text":"15","name:be":"\u043f\u0440\u0430\u0441\u043f\u0435\u043a\u0442 \u041f\u0435\u0440\u0430\u043c\u043e\u0433\u0456","landuse_kind":"urban_area"},"arcs":[[194],[195]]},{"type":"LineString","properties":{"kind":"major_road","int_name":"vulica Lienina","network":"by:national","sort_rank":380,"kind_detail":"primary","source":"openstreetmap.org","min_zoom":8.0,"shield_text":"124","name:be":"\u0432\u0443\u043b\u0456\u0446\u0430 \u041b\u0435\u043d\u0456\u043d\u0430","ref":"\u0420124","id":140119481},"arcs":[196]},{"type":"LineString","properties":{"kind":"major_road","int_name":"vulica Paskievi\u010da","network":"by:national","sort_rank":380,"kind_detail":"primary","source":"openstreetmap.org","min_zoom":8.0,"landuse_kind":"residential","shield_text":"124","name:be":"\u0432\u0443\u043b\u0456\u0446\u0430 \u041f\u0430\u0441\u043a\u0435\u0432\u0456\u0447\u0430","ref":"\u0420124","id":80243104},"arcs":[197]},{"type":"LineString","properties":{"kind":"major_road","network":"by:national","sort_rank":380,"kind_detail":"primary","official_name":"\u0422\u0435\u0440\u0435\u0445\u043e\u0432\u043a\u0430 - \u041a\u0440\u0438\u043d\u0438\u0447\u043d\u044b\u0439","source":"openstreetmap.org","min_zoom":8.0,"shield_text":"124","name:be":"\u041d\u0430\u0431\u044f\u0440\u044d\u0436\u043d\u0430\u044f \u0432\u0443\u043b\u0456\u0446\u0430","ref":"\u0420124","id":282628719},"arcs":[198]},{"type":"LineString","properties":{"bus_network":null,"sort_rank":380,"kind_detail":"primary","kind":"major_road","source":"openstreetmap.org","min_zoom":8.0,"bus_shield_text":"15","landuse_kind":"urban_area"},"arcs":[199]},{"type":"MultiLineString","properties":{"kind":"major_road","network":"by:national","sort_rank":381,"kind_detail":"trunk","source":"openstreetmap.org","min_zoom":8.0,"shield_text":"8","ref":"\u041c8"},"arcs":[[200],[201],[202],[203],[204],[205],[206],[207],[208]]},{"type":"LineString","properties":{"kind":"major_road","int_name":"praspiekt Lienina","sort_rank":380,"landuse_kind":"urban_area","source":"openstreetmap.org","min_zoom":8.0,"kind_detail":"primary","name:be":"\u043f\u0440\u0430\u0441\u043f\u0435\u043a\u0442 \u041b\u0435\u043d\u0456\u043d\u0430"},"arcs":[209]},{"type":"LineString","properties":{"kind":"major_road","int_name":"Novaja vulica","network":"by:national","sort_rank":380,"kind_detail":"primary","source":"openstreetmap.org","min_zoom":8.0,"shield_text":"124","name:be":"\u041d\u043e\u0432\u0430\u044f \u0432\u0443\u043b\u0456\u0446\u0430","ref":"\u0420124","id":140119480},"arcs":[210]},{"type":"LineString","properties":{"kind":"major_road","network":"ua:national","sort_rank":380,"kind_detail":"primary","source":"openstreetmap.org","min_zoom":8.0,"shield_text":"28","name:ru":"\u0421\u0432\u044f\u0442\u043e-\u041d\u0438\u043a\u043e\u043b\u0430\u0435\u0432\u0441\u043a\u0430\u044f \u0443\u043b\u0438\u0446\u0430","ref":"\u041d-28","id":452074865},"arcs":[211]},{"type":"LineString","properties":{"kind":"major_road","int_name":"Kujby\u0161a\u016dski prajezd","sort_rank":380,"kind_detail":"primary","bus_network":"regional","source":"openstreetmap.org","min_zoom":8.0,"bus_shield_text":"671","name:be":"\u041a\u0443\u0439\u0431\u044b\u0448\u0430\u045e\u0441\u043a\u0456 \u043f\u0440\u0430\u0435\u0437\u0434","landuse_kind":"urban_area","id":38524076},"arcs":[212]},{"type":"LineString","properties":{"kind":"major_road","sort_rank":380,"kind_detail":"primary","bus_network":"regional","source":"openstreetmap.org","min_zoom":8.0,"bus_shield_text":"763\u044d","landuse_kind":"urban_area","id":25235924},"arcs":[213]},{"type":"MultiLineString","properties":{"kind":"major_road","int_name":"vulica Malaj\u010duka","sort_rank":380,"kind_detail":"primary","source":"openstreetmap.org","min_zoom":8.0,"landuse_kind":"urban_area","name:be":"\u0432\u0443\u043b\u0456\u0446\u0430 \u041c\u0430\u043b\u0430\u0439\u0447\u0443\u043a\u0430"},"arcs":[[214],[215],[216]]},{"type":"MultiLineString","properties":{"bus_network":"regional","sort_rank":380,"kind_detail":"primary","kind":"major_road","source":"openstreetmap.org","min_zoom":8.0,"bus_shield_text":"671","landuse_kind":"urban_area"},"arcs":[[217],[218],[219],[220]]},{"type":"MultiLineString","properties":{"kind":"major_road","network":"by:national","sort_rank":381,"landuse_kind":"urban_area","source":"openstreetmap.org","min_zoom":8.0,"kind_detail":"trunk","shield_text":"5","ref":"\u041c5"},"arcs":[[221],[222]]},{"type":"LineString","properties":{"kind":"major_road","network":"ua:national","sort_rank":380,"kind_detail":"primary","bus_network":null,"source":"openstreetmap.org","min_zoom":8.0,"bus_shield_text":"\u041a\u0438\u0435\u0432-\u041c\u043e\u0441\u043a\u0432\u0430","shield_text":"28","name:ru":"\u0421\u0432\u044f\u0442\u043e-\u041d\u0438\u043a\u043e\u043b\u0430\u0435\u0432\u0441\u043a\u0430\u044f \u0443\u043b\u0438\u0446\u0430","ref":"\u041d-28","id":303581892},"arcs":[223]},{"type":"LineString","properties":{"kind":"major_road","int_name":"vulica Ilji\u010da","sort_rank":380,"kind_detail":"primary","bus_network":"regional","source":"openstreetmap.org","min_zoom":8.0,"bus_shield_text":"763\u044d","name:be":"\u0432\u0443\u043b\u0456\u0446\u0430 \u0406\u043b\u2019\u0456\u0447\u0430","id":94513796},"arcs":[224]},{"type":"MultiLineString","properties":{"kind":"major_road","network":"ru:national","sort_rank":381,"kind_detail":"trunk","source":"openstreetmap.org","min_zoom":8.0,"shield_text":"240","ref":"\u0410-240"},"arcs":[[225],[226],[227]]},{"type":"LineString","properties":{"kind":"major_road","int_name":"vulica Fiadziuninskaha","sort_rank":380,"kind_detail":"primary","source":"openstreetmap.org","min_zoom":8.0,"landuse_kind":"urban_area","name:be":"\u0432\u0443\u043b\u0456\u0446\u0430 \u0424\u044f\u0434\u0437\u044e\u043d\u0456\u043d\u0441\u043a\u0430\u0433\u0430"},"arcs":[228]},{"type":"LineString","properties":{"kind":"major_road","int_name":"praspiekt Kasmana\u016dta\u016d","sort_rank":381,"kind_detail":"trunk","source":"openstreetmap.org","min_zoom":8.0,"landuse_kind":"urban_area","name:be":"\u043f\u0440\u0430\u0441\u043f\u0435\u043a\u0442 \u041a\u0430\u0441\u043c\u0430\u043d\u0430\u045e\u0442\u0430\u045e","id":25235325},"arcs":[229]},{"type":"LineString","properties":{"bus_network":null,"int_name":"vulica Fiadziuninskaha","sort_rank":380,"kind_detail":"primary","kind":"major_road","source":"openstreetmap.org","min_zoom":8.0,"bus_shield_text":"1","name:be":"\u0432\u0443\u043b\u0456\u0446\u0430 \u0424\u044f\u0434\u0437\u044e\u043d\u0456\u043d\u0441\u043a\u0430\u0433\u0430","landuse_kind":"urban_area"},"arcs":[230]},{"type":"LineString","properties":{"bus_network":"national","int_name":"Savieckaja vulica","sort_rank":380,"kind_detail":"primary","kind":"major_road","source":"openstreetmap.org","min_zoom":8.0,"bus_shield_text":null,"name:be":"\u0421\u0430\u0432\u0435\u0446\u043a\u0430\u044f \u0432\u0443\u043b\u0456\u0446\u0430","landuse_kind":"urban_area"},"arcs":[231]},{"type":"LineString","properties":{"kind":"major_road","int_name":"vulica Saveckaya","network":"by:national","sort_rank":380,"kind_detail":"primary","source":"openstreetmap.org","min_zoom":8.0,"shield_text":"124","name:be":"\u0421\u0430\u0432\u0435\u0446\u043a\u0430\u044f \u0432\u0443\u043b\u0456\u0446\u0430","ref":"\u0420124","id":176068669},"arcs":[232]},{"type":"LineString","properties":{"kind":"major_road","int_name":"praspiekt Kasmana\u016dta\u016d","sort_rank":380,"landuse_kind":"urban_area","source":"openstreetmap.org","min_zoom":8.0,"kind_detail":"primary","name:be":"\u043f\u0440\u0430\u0441\u043f\u0435\u043a\u0442 \u041a\u0430\u0441\u043c\u0430\u043d\u0430\u045e\u0442\u0430\u045e"},"arcs":[233]},{"type":"MultiLineString","properties":{"kind":"major_road","network":"e-road","sort_rank":381,"kind_detail":"trunk","source":"openstreetmap.org","min_zoom":8.0,"shield_text":"95","ref":"\u041c8"},"arcs":[[234],[235]]},{"type":"LineString","properties":{"kind":"major_road","int_name":"Savieckaja vulica","network":"by:national","sort_rank":380,"kind_detail":"primary","source":"openstreetmap.org","min_zoom":8.0,"shield_text":"124","name:be":"\u0421\u0430\u0432\u0435\u0446\u043a\u0430\u044f \u0432\u0443\u043b\u0456\u0446\u0430","ref":"\u0420124","id":140119479},"arcs":[236]},{"type":"MultiLineString","properties":{"kind":"major_road","network":"ua:national","sort_rank":380,"kind_detail":"primary","source":"openstreetmap.org","min_zoom":8.0,"shield_text":"28","ref":"\u041d-28"},"arcs":[[237],[238],[239],[240]]},{"type":"LineString","properties":{"kind":"major_road","network":"by:national","sort_rank":381,"kind_detail":"trunk","source":"openstreetmap.org","min_zoom":8.0,"shield_text":"10","id":50148636},"arcs":[241]},{"type":"LineString","properties":{"kind":"major_road","network":"ru:regional","sort_rank":380,"kind_detail":"primary","bus_network":null,"source":"openstreetmap.org","min_zoom":8.0,"bus_shield_text":"\u041a\u0438\u0435\u0432-\u041c\u043e\u0441\u043a\u0432\u0430","shield_text":"15\u041a","landuse_kind":"urban_area","ref":"15\u041a-1802","id":122519144},"arcs":[242]},{"type":"MultiLineString","properties":{"source":"openstreetmap.org","kind":"major_road","sort_rank":380,"kind_detail":"primary","ref":"15\u041a-1201","min_zoom":8.0},"arcs":[[243],[244]]},{"type":"LineString","properties":{"bus_network":null,"network":"ru:regional","sort_rank":380,"landuse_kind":"residential","kind":"major_road","source":"openstreetmap.org","min_zoom":8.0,"bus_shield_text":"\u041a\u0438\u0435\u0432-\u041c\u043e\u0441\u043a\u0432\u0430","shield_text":"15\u041a","kind_detail":"primary","ref":"15\u041a-1201"},"arcs":[245]},{"type":"MultiLineString","properties":{"bus_network":"national","int_name":"praspiekt Pieramohi","sort_rank":380,"kind_detail":"primary","kind":"major_road","source":"openstreetmap.org","min_zoom":8.0,"bus_shield_text":null,"name:be":"\u043f\u0440\u0430\u0441\u043f\u0435\u043a\u0442 \u041f\u0435\u0440\u0430\u043c\u043e\u0433\u0456","landuse_kind":"urban_area"},"arcs":[[246],[247]]},{"type":"LineString","properties":{"kind":"major_road","int_name":"Kastry\u010dnickaja vulica","network":"by:national","sort_rank":380,"kind_detail":"primary","source":"openstreetmap.org","min_zoom":8.0,"shield_text":"124","name:be":"\u041a\u0430\u0441\u0442\u0440\u044b\u0447\u043d\u0456\u0446\u043a\u0430\u044f \u0432\u0443\u043b\u0456\u0446\u0430","ref":"\u0420124","id":75921232},"arcs":[248]},{"type":"LineString","properties":{"kind":"major_road","sort_rank":380,"kind_detail":"primary","bus_network":"national","source":"openstreetmap.org","min_zoom":8.0,"bus_shield_text":null,"id":38534395},"arcs":[249]},{"type":"LineString","properties":{"kind":"major_road","int_name":"vulica Lienina","network":"by:national","sort_rank":380,"kind_detail":"primary","bus_network":"regional","source":"openstreetmap.org","min_zoom":8.0,"bus_shield_text":"763\u044d","shield_text":"124","name:be":"\u0432\u0443\u043b\u0456\u0446\u0430 \u041b\u0435\u043d\u0456\u043d\u0430","ref":"\u0420124","id":282628718},"arcs":[250]},{"type":"LineString","properties":{"bus_network":null,"int_name":"Pryvakza\u013anaja plo\u0161\u010da","sort_rank":380,"kind_detail":"primary","kind":"major_road","source":"openstreetmap.org","min_zoom":8.0,"bus_shield_text":"1","name:be":"\u041f\u0440\u044b\u0432\u0430\u043a\u0437\u0430\u043b\u044c\u043d\u0430\u044f \u043f\u043b\u043e\u0448\u0447\u0430","landuse_kind":"urban_area"},"arcs":[251]},{"type":"MultiLineString","properties":{"bus_network":null,"network":"ru:regional","sort_rank":380,"kind_detail":"primary","kind":"major_road","source":"openstreetmap.org","min_zoom":8.0,"bus_shield_text":"\u041a\u0438\u0435\u0432-\u041c\u043e\u0441\u043a\u0432\u0430","shield_text":"15\u041a","ref":"15\u041a-1201"},"arcs":[[252],[253],[254]]},{"type":"MultiLineString","properties":{"kind":"major_road","int_name":"vulica Karla Marksa","network":"by:national","sort_rank":380,"kind_detail":"primary","source":"openstreetmap.org","min_zoom":8.0,"landuse_kind":"urban_area","shield_text":"124","name:be":"\u0432\u0443\u043b\u0456\u0446\u0430 \u041a\u0430\u0440\u043b\u0430 \u041c\u0430\u0440\u043a\u0441\u0430","ref":"\u0420124"},"arcs":[[255],[256]]},{"type":"LineString","properties":{"bus_network":null,"network":"ru:regional","sort_rank":380,"kind_detail":"primary","kind":"major_road","source":"openstreetmap.org","min_zoom":8.0,"bus_shield_text":"\u041a\u0438\u0435\u0432-\u041c\u043e\u0441\u043a\u0432\u0430","shield_text":"15\u041a","ref":"15\u041a-1802"},"arcs":[257]},{"type":"MultiLineString","properties":{"source":"openstreetmap.org","kind":"major_road","sort_rank":381,"kind_detail":"trunk","ref":"\u041c-01","min_zoom":8.0},"arcs":[[258],[259],[260]]},{"type":"LineString","properties":{"kind":"major_road","int_name":"Pralietarskaja vulica","sort_rank":380,"kind_detail":"primary","source":"openstreetmap.org","min_zoom":8.0,"landuse_kind":"urban_area","name:be":"\u041f\u0440\u0430\u043b\u0435\u0442\u0430\u0440\u0441\u043a\u0430\u044f \u0432\u0443\u043b\u0456\u0446\u0430"},"arcs":[261]},{"type":"LineString","properties":{"bus_network":null,"network":"ru:regional","sort_rank":380,"kind_detail":"primary","kind":"major_road","source":"openstreetmap.org","min_zoom":8.0,"bus_shield_text":"\u041a\u0438\u0435\u0432-\u041c\u043e\u0441\u043a\u0432\u0430","shield_text":"15\u041a"},"arcs":[262]},{"type":"LineString","properties":{"kind":"major_road","network":"by:national","sort_rank":380,"kind_detail":"primary","source":"openstreetmap.org","min_zoom":8.0,"shield_text":"150","ref":"\u0420150"},"arcs":[263]},{"type":"LineString","properties":{"bus_network":"regional","int_name":"Internacyjana\u013anaja vulica","sort_rank":380,"kind_detail":"primary","kind":"major_road","source":"openstreetmap.org","min_zoom":8.0,"bus_shield_text":"763\u044d","name:be":"\u0406\u043d\u0442\u044d\u0440\u043d\u0430\u0446\u044b\u044f\u043d\u0430\u043b\u044c\u043d\u0430\u044f \u0432\u0443\u043b\u0456\u0446\u0430","landuse_kind":"urban_area"},"arcs":[264]},{"type":"LineString","properties":{"bus_network":null,"sort_rank":380,"kind_detail":"primary","kind":"major_road","source":"openstreetmap.org","min_zoom":8.0,"bus_shield_text":"\u041a\u0438\u0435\u0432-\u041c\u043e\u0441\u043a\u0432\u0430","landuse_kind":"urban_area"},"arcs":[265]},{"type":"LineString","properties":{"bus_network":null,"network":"ua:national","sort_rank":380,"kind_detail":"primary","kind":"major_road","source":"openstreetmap.org","min_zoom":8.0,"bus_shield_text":"\u041a\u0438\u0435\u0432-\u041c\u043e\u0441\u043a\u0432\u0430","shield_text":"28","name:ru":"1-\u0433\u043e \u041c\u0430\u044f \u0443\u043b\u0438\u0446\u0430","ref":"\u041d-28"},"arcs":[266]},{"type":"LineString","properties":{"kind":"major_road","int_name":"praspiekt Luna\u010darskaha","network":"by:national","sort_rank":380,"landuse_kind":"urban_area","source":"openstreetmap.org","min_zoom":8.0,"kind_detail":"primary","shield_text":"124","name:be":"\u043f\u0440\u0430\u0441\u043f\u0435\u043a\u0442 \u041b\u0443\u043d\u0430\u0447\u0430\u0440\u0441\u043a\u0430\u0433\u0430","ref":"\u0420124"},"arcs":[267]}]},"earth":{"type":"GeometryCollection","geometries":[{"type":"Polygon","properties":{"sort_rank":10,"source":"naturalearthdata.com","kind":"earth","min_zoom":0.0,"id":4755},"arcs":[[268]]}]},"landuse":{"type":"GeometryCollection","geometries":[{"type":"Polygon","properties":{"kind":"residential","name":"\u041d\u043e\u0432\u044b\u0439 \u0420\u043e\u043f\u0441\u043a","area":16900800,"sort_rank":20,"source":"openstreetmap.org","min_zoom":8.0,"tier":2,"id":120632581},"arcs":[[269]]},{"type":"MultiPolygon","properties":{"source":"naturalearthdata.com","kind":"urban_area","name":"","area":952781617,"sort_rank":11,"min_zoom":4.0},"arcs":[[[270]],[[271]],[[272]]]},{"type":"Polygon","properties":{"kind":"residential","name":"\u0427\u0443\u0440\u043e\u0432\u0438\u0447\u0438","area":12192100,"sort_rank":20,"source":"openstreetmap.org","min_zoom":8.0,"tier":2,"id":112559415},"arcs":[[273]]},{"type":"Polygon","properties":{"kind":"residential","name":"\u0421\u043f\u0438\u0440\u0438\u0434\u043e\u043d\u043e\u0432\u0430 \u0411\u0443\u0434\u0430","area":11406200,"sort_rank":20,"source":"openstreetmap.org","min_zoom":8.0,"tier":2,"id":128029666},"arcs":[[274]]},{"type":"MultiPolygon","properties":{"source":"openstreetmap.org","kind":"residential","tier":2,"area":57906389,"sort_rank":20,"min_zoom":8.0},"arcs":[[[275]]]}]}},"type":"Topology","transform":{"translate":[30.9375,51.6180165488],"scale":[0.0003433228,0.0002111239]},"arcs":[[[0,1960],[23,-26],[-23,-65]],[[0,2109],[33,-39],[-33,-53]],[[2459,2340],[-176,-73],[-27,53],[-154,47],[-152,-24],[-259,59],[-102,-40],[-55,23],[-35,89],[-145,10],[-66,-39],[30,-41],[-13,-27],[-168,-69],[-21,-71],[-28,-16],[30,-19],[-69,-148],[-130,-45],[-100,42],[-9,95],[-169,45],[-52,107],[-117,-61],[-97,4],[-217,-64],[-82,19],[5,40],[-20,4],[-27,-7],[6,-71],[-40,7]],[[4096,2953],[-56,-86],[56,-166]],[[4096,2666],[-26,-22],[-32,-117],[25,21],[33,-1]],[[4096,2474],[-26,0],[-15,-37],[-27,17],[-7,-67],[-69,-9],[12,-42],[-23,-38],[-111,-68],[-81,-8],[-6,-30],[-60,-30],[-7,-40],[-41,28],[-111,-13],[-1,-55],[-49,-41],[11,-26],[-94,9],[-16,-55],[-150,26],[-53,46],[-159,14],[-161,-46],[2,26],[31,-7],[-31,33],[11,18],[63,0],[44,55],[-12,63],[-38,-9],[-68,80],[-144,63],[-62,-1],[-88,-55],[-101,65]],[[1738,4096],[14,-48],[67,17],[40,-63],[17,72],[-15,22]],[[2459,2340],[32,66],[-25,44],[-9,238],[-127,34],[-85,-30],[-58,38],[-1,38],[62,59],[-18,98],[21,13],[-40,87],[46,44],[-84,55],[-100,12],[-24,53],[-33,31],[-8,-37],[-121,141],[-10,40],[86,-9],[37,34],[25,306],[-32,96],[-81,-17],[-2,30],[27,10],[-17,79],[38,4],[3,60],[-91,28],[81,35],[26,76]],[[1738,4096],[14,-48],[67,17],[40,-63],[17,72],[-15,22]],[[2459,2340],[101,-65],[88,55],[62,1],[144,-63],[68,-80],[38,9],[12,-63],[-44,-55],[-63,0],[-11,-18],[31,-33],[-31,7],[-2,-26],[161,46],[159,-14],[53,-46],[150,-26],[16,55],[94,-9],[-11,26],[49,41],[1,55],[111,13],[41,-28],[7,40],[60,30],[6,30],[81,8],[111,68],[23,38],[-12,42],[69,9],[7,67],[27,-17],[15,37],[26,0]],[[4096,2547],[-33,1],[-18,-29],[-7,8],[32,117],[26,22]],[[4096,2701],[-56,166],[56,86]],[[1977,4096],[-26,-76],[-81,-35],[91,-28],[-3,-60],[-38,-4],[17,-79],[-27,-10],[2,-30],[81,17],[32,-96],[-25,-306],[-37,-34],[-86,9],[10,-40],[121,-141],[8,37],[33,-31],[24,-53],[100,-12],[84,-55],[-46,-44],[40,-87],[-21,-13],[18,-98],[-62,-59],[1,-38],[58,-38],[85,30],[127,-34],[9,-238],[25,-44],[-32,-66]],[[0,1960],[23,-26],[-23,-65]],[[0,2109],[33,-39],[-33,-53]],[[2459,2340],[-176,-73],[-27,53],[-154,47],[-152,-24],[-259,59],[-102,-40],[-55,23],[-35,89],[-145,10],[-66,-39],[30,-41],[-13,-27],[-168,-69],[-21,-71],[-28,-16],[30,-19],[-69,-148],[-130,-45],[-100,42],[-9,95],[-169,45],[-52,107],[-117,-61],[-97,4],[-217,-64],[-82,19],[5,40],[-20,4],[-27,-7],[6,-71],[-40,7]],[[0,3874],[136,30],[58,-142],[125,-88],[720,-31],[204,158],[541,102],[381,175],[348,18]],[[2513,4096],[-348,-18],[-381,-175],[-541,-102],[-204,-158],[-720,31],[-124,88],[-42,103]],[[152,3873],[17,-77],[68,-61]],[[155,3849],[2,-12]],[[247,3728],[77,-55],[720,-29],[193,155],[543,103],[124,56]],[[99,4096],[42,-149]],[[141,3946],[4,-25]],[[145,3926],[8,-61]],[[151,3879],[4,-30]],[[99,4096],[5,-17]],[[104,4080],[16,-53]],[[119,4029],[1,-2]],[[120,4027],[31,-50],[0,-93]],[[151,3879],[6,-42]],[[152,3873],[9,-61],[8,-16],[68,-61]],[[152,3875],[6,-42]],[[247,3728],[69,-53],[113,-4],[24,142],[-28,123],[-179,160]],[[395,3968]],[[152,3873],[17,-77],[68,-61]],[[155,3849],[2,-12]],[[247,3728],[49,-40]],[[292,3689],[38,-53],[50,34],[125,-9]],[[383,3671],[122,-10]],[[1904,3958],[-124,-56],[-543,-103],[-189,-154],[-543,16]],[[3649,3563],[-125,95],[-183,263],[-188,175]],[[160,3822],[-15,150],[-46,124]],[[223,3815],[-2,1],[-2,0]],[[220,3815],[2,-1]],[[3697,3538],[-6,12]],[[378,3701],[-2,3]],[[271,3458],[0,9]],[[421,3696],[-43,5]],[[206,3766],[-23,16]],[[219,3758],[43,-36]],[[274,3168],[-3,290]],[[1077,3652],[-38,-16]],[[0,3747],[88,44]],[[88,3791],[3,1]],[[89,3794],[-1,-3]],[[20,4023],[5,-15]],[[26,4008],[-5,15]],[[1219,3625],[-103,-3]],[[105,4080],[-5,8]],[[1077,3652],[8,-21]],[[101,3790],[-3,-31]],[[99,3755],[18,-30]],[[102,3795],[5,31]],[[117,3725],[19,-20]],[[136,3705],[-19,20]],[[2459,2341],[-2,-2]],[[224,4093],[1,3]],[[2457,2342],[-1,0]],[[183,3782],[22,-17]],[[218,3758],[12,-8]],[[2487,2348],[-6,-4]],[[707,347],[117,-347]],[[91,2167],[-13,28]],[[91,2167],[5,-10]],[[707,347],[-113,332],[-162,235],[-229,1011],[-107,232]],[[825,0],[-118,347]],[[1142,3718],[-32,-31]],[[155,4090],[4,6]],[[192,3867],[-7,15]],[[210,3826],[-2,-3]],[[99,3795],[-8,1]],[[108,3793],[69,-11],[-72,12]],[[1078,3882],[35,-20]],[[245,3915],[-20,-5],[-45,-18]],[[180,3892],[66,23]],[[314,3728],[48,-14]],[[935,4096],[68,-48],[21,-109],[53,-56]],[[1079,3657],[-2,-5]],[[1085,3631],[11,-164],[55,-30],[61,-103],[25,-1]],[[1250,3317],[62,-126],[140,-117],[23,-228]],[[1486,2840],[-3,-16]],[[1819,2784],[136,13],[182,-94]],[[2182,2652],[53,-68],[-22,-45]],[[2217,2476],[222,-121]],[[2439,2355],[3,-4],[5,-2]],[[2447,2349],[-8,6]],[[2447,2349],[10,-8]],[[278,3167],[-7,0]],[[180,3893],[-23,77]],[[180,3890],[3,-5]],[[196,3857],[-3,9]],[[203,3842],[-6,14]],[[207,3833],[-4,9]],[[207,3833],[3,-7]],[[107,3826],[11,67]],[[291,3742],[23,-14]],[[164,3850],[1,3]],[[65,3967],[40,51]],[[128,4029],[-17,-6],[-6,-5]],[[105,4018],[24,10]],[[262,3722],[29,20]],[[233,3747],[-3,5]],[[321,3146],[-47,22]],[[753,3079],[147,246],[-49,154],[107,152]],[[957,3635],[1,-4]],[[958,3631],[3,4]],[[970,3636],[-9,2]],[[961,3635],[9,1]],[[1116,3622],[-146,14]],[[1958,3905],[-40,-13],[-161,-195],[-212,-48],[-326,-24]],[[136,3705],[47,-64],[12,-105]],[[196,3536],[1,24],[-7,61],[-6,21],[-48,63]],[[1516,2811],[158,19],[145,-46]],[[26,4007],[1,1]],[[89,3796],[0,-1]],[[89,3794],[2,-2]],[[97,3761],[-1,-3]],[[98,3756],[1,1]],[[100,3791],[2,0]],[[103,3794],[-2,0]],[[105,3791],[0,3]],[[156,3973],[-3,-6]],[[179,3891],[1,0]],[[180,3891],[0,1]],[[180,3892]],[[180,3890],[0,1]],[[184,3883],[1,0]],[[187,3883],[-2,0]],[[196,3773],[-2,0]],[[196,3600]],[[198,3772],[0,2],[-2,-1]],[[198,3771],[0,1]],[[219,3758],[-13,8]],[[226,3821],[-1,1]],[[243,3914],[21,-1]],[[265,3916],[-19,-1]],[[96,3758],[2,-2]],[[98,3756],[2,2],[-2,1],[-2,-1]],[[180,3891],[0,2],[-1,0],[0,-1],[1,-1]],[[196,3857],[1,-1],[0,1],[-1,0]],[[197,3773],[-1,0],[0,-2],[2,1],[-1,1]],[[203,3842]],[[207,3833]],[[2461,2340],[0,1]],[[83,2235],[6,10]],[[88,2250],[-2,-5]],[[86,2245],[-1,0]],[[88,2257],[-2,-12]],[[86,2245]],[[88,2245],[1,0]],[[224,3826],[-107,227]],[[362,3714],[3,0]],[[264,3913],[30,84]],[[293,3997],[-28,-81]],[[1103,3799],[-1,-8]],[[267,3132],[145,5],[247,-82],[94,24]],[[147,3889],[7,-1]],[[163,3854],[2,-5]],[[183,3782],[-6,0]],[[1077,3883],[1,-1]],[[185,3882],[12,5]],[[1102,3789],[-2,-18]],[[1922,1268],[30,6]],[[267,3132],[7,36]],[[208,3823],[-43,26]],[[1768,0],[52,111],[-24,38],[47,148],[-1,146],[114,142],[27,246],[-85,373],[24,64]],[[2069,1380],[76,75],[0,71],[31,48],[116,82],[31,57],[120,49],[19,175],[98,140],[-76,118],[-30,107]],[[2454,2302],[3,9]],[[2456,2320],[-2,-18]],[[2456,2320],[2,16]],[[2457,2312],[-1,8]],[[2457,2339],[1,-3]],[[2458,2336],[3,4]],[[91,3796],[-91,21]],[[193,4000],[31,93]],[[99,4090],[-4,6]],[[147,3889],[-29,4]],[[182,3883],[-28,5]],[[376,3704],[-11,10]],[[932,3637],[-159,31],[-135,-16],[-105,46],[-112,-2]],[[958,3638],[-26,-1]],[[932,3637],[25,-1]],[[224,3826],[1,-2]],[[230,3750],[39,-97],[1,-128]],[[192,3867],[-29,-13]],[[165,3853],[28,13]],[[2213,2539],[-19,-44]],[[1113,3862],[-10,-63]],[[1475,2846],[11,-6]],[[184,3883],[0,-1]],[[0,3198],[248,-40]],[[78,2195],[10,62]],[[88,2245],[0,12]],[[88,2257],[105,511]],[[193,2768],[4,18]],[[197,2786],[70,346]],[[274,3168],[-26,-10]],[[248,3158],[19,-24]],[[266,3139],[2,0]],[[208,3823],[14,-9]],[[2194,2495],[23,-19]],[[1951,1305],[-1,1]],[[92,3792],[7,-1]],[[205,3765],[13,-7]],[[161,3978],[-5,-5]],[[157,3970],[4,8]],[[161,3978],[32,22]],[[91,3796],[-2,-2]],[[91,3792],[1,0]],[[99,3791],[9,2]],[[105,3794],[-6,1]],[[0,4049],[20,-26]],[[21,4023],[-21,27]],[[1952,1274],[-1,31]],[[270,3525],[1,-58]],[[1958,3905],[54,-3]],[[2012,3902],[19,-1]],[[2031,3901],[302,27],[344,142],[198,26]],[[129,4059],[26,31]],[[26,4007],[1,1],[-1,0],[-1,0],[1,-1]],[[117,4053],[12,6]],[[117,4053],[-12,27]],[[1237,3333],[13,-16]],[[118,3893],[-90,110]],[[83,2237],[-3,-14]],[[85,2243],[3,2]],[[2137,2703],[45,-51]],[[2456,2317],[-1,-8]],[[2456,2310],[1,3]],[[2457,2311],[0,1]],[[2458,2337],[1,0]],[[957,3637],[2,-2],[3,1],[-2,2],[-3,-1]],[[3582,3643],[-20,18]],[[2481,2344],[6,1],[2,7]],[[2489,2352],[-2,-4]],[[3050,2654],[86,-9]],[[204,3872],[-12,-5]],[[193,3866],[12,5]],[[1110,3687],[-31,-30]],[[100,4088],[-1,2]],[[1483,2824],[33,-13]],[[165,3849],[-2,5]],[[2462,2341],[10,2]],[[2489,2352],[165,1],[44,250],[84,60],[268,-9]],[[3136,2645],[556,809],[5,84]],[[1100,3771],[1,-1]],[[1102,3791],[0,-2]],[[3562,3661],[-94,81],[-250,354]],[[91,2166],[5,-8]],[[92,2164],[3,-6]],[[97,2159],[1,2]],[[223,3815],[-25,-41]],[[2461,2340],[-2,1]],[[195,3536],[-2,-55],[67,-14],[11,0],[-77,14],[2,55]],[[208,3823],[-25,-41]],[[3691,3550],[-28,47],[-81,46]],[[1950,1306],[119,74]],[[1101,3770],[41,-52]],[[0,0],[0,4096],[4096,0],[0,-4096],[-4096,0]],[[3913,3206],[76,108],[40,-24],[4,-69],[37,-11],[-22,-29],[-135,25]],[[3753,3548],[-64,2],[-131,103],[41,89],[69,-5],[62,-72],[23,-117]],[[1147,3661],[-145,98],[36,88],[75,22],[69,-45],[15,-118],[-50,-45]],[[307,4096],[76,-86],[69,12],[0,-75],[-45,-74],[-84,-298],[-31,-46],[-47,-9],[-84,28],[-32,53],[-75,-6],[-32,25],[-22,84],[0,379],[307,13]],[[3038,2581],[13,77],[46,13],[40,-27],[-11,-24],[51,-8],[-51,-51],[-88,20]],[[2393,3161],[11,31],[43,-9],[10,22],[2,-30],[46,-17],[-26,-18],[29,-7],[-4,-32],[-88,-8],[12,41],[-32,-19],[-3,46]],[[1006,3749],[56,27],[-40,31],[32,8],[10,16],[-27,-6],[38,58],[39,-4],[14,-58],[-45,-38],[6,-26],[-65,-24],[-18,16]]]}