{"objects":{"water":{"type":"GeometryCollection","geometries":[{"type":"Polygon","properties":{"source":"naturalearthdata.com","kind":"lake","area":588678784,"sort_rank":200,"min_zoom":0.0,"id":661},"arcs":[[22]]},{"type":"Polygon","properties":{"kind":"lake","name":"Kremenchuk Reservoir","reservoir":true,"area":4472971264,"sort_rank":200,"source":"naturalearthdata.com","min_zoom":0.0,"id":1182},"arcs":[[23]]},{"type":"MultiLineString","properties":{"source":"naturalearthdata.com","kind":"lake","sort_rank":367,"boundary":true,"min_zoom":0.0,"id":661},"arcs":[[24],[25]]},{"type":"LineString","properties":{"source":"naturalearthdata.com","kind":"lake","reservoir":true,"sort_rank":367,"boundary":true,"min_zoom":0.0,"id":1182},"arcs":[26]}]},"buildings":{"type":"GeometryCollection","geometries":[]},"places":{"type":"GeometryCollection","geometries":[{"type":"Point","properties":{"name:pt":"Ucr\u00e2nia","name:ka":"\u10e3\u10d9\u10e0\u10d0\u10d8\u10dc\u10d0","name:mt":"Ukraina","name:ko":"\uc6b0\ud06c\ub77c\uc774\ub098","name:kn":"\u0c89\u0c95\u0ccd\u0cb0\u0cc8\u0ca8\u0ccd","name:km":"\u17a2\u17ca\u17bb\u1799\u1780\u17d2\u179a\u17c2\u1793","name:kl":"Ukraina","name:cs":"Ukrajina","alt_name:eo":"Ukrajno;Ukrainio","name:ki":"Ukraini","name:tr":"Ukrayna","name:ku":"\u00dbkrayna","name:ti":"\u12e9\u12ad\u122c\u1295","name:ks":"\u06cc\u0648\u0657\u0631\u0650\u06a9\u06cc\u0646","name:to":"\u02bbIukuleini","name:tl":"Ukraine","name:sv":"Ukraina","name:or":"\u0b5f\u0b41\u0b15\u0b4d\u0b30\u0b3e\u0b07\u0b28\u0b4d","name:pl":"Ukraina","name:ta":"\u0b89\u0b95\u0bcd\u0bb0\u0bc8\u0ba9\u0bcd","name:tg":"\u0423\u043a\u0440\u0430\u0438\u043d\u0430","name:ca":"Ucra\u00efna","name:te":"\u0c2f\u0c41\u0c15\u0c4d\u0c30\u0c46\u0c28\u0c4d","name:hu":"Ukrajna","name:ro":"Ucraina","name:cy":"Yr Wcr\u00e1in","name:hr":"Ukrajina","name:da":"Ukraine","name:de":"Ukraine","name:dz":"\u0f61\u0f74\u0f0b\u0f40\u0f62\u0f7a\u0f53","source":"openstreetmap.org","name:lv":"Ukraina","name:lt":"Ukraina","name:uz":"Ukraina","name:kk":"\u0423\u043a\u0440\u0430\u0438\u043d\u0430","name:he":"\u05d0\u05d5\u05e7\u05e8\u05d0\u05d9\u05e0\u05d4","kind":"country","name:ur":"\u06cc\u0648\u06a9\u0631\u06cc\u0646","name:lb":"Ukraine","name:la":"Ucraina","name:lg":"Yukurayine","name:hy":"\u0548\u0582\u056f\u0580\u0561\u056b\u0576\u0561","min_zoom":2.0,"name:li":"De Oekra\u00efne","name:ln":"Ikr\u025bni","name:lo":"\u0ea2\u0eb9\u0ec0\u0e84\u0ebc\u0e99","population":45665281,"name:el":"\u039f\u03c5\u03ba\u03c1\u03b1\u03bd\u03af\u03b1","name:eo":"Ukrainujo","name:en":"Ukraine","name":"\u0423\u043a\u0440\u0430\u0457\u043d\u0430","name:ee":"Ukraine nutome","name:th":"\u0e1b\u0e23\u0e30\u0e40\u0e17\u0e28\u0e22\u0e39\u0e40\u0e04\u0e23\u0e19","name:gu":"\u0aaf\u0ac2\u0a95\u0acd\u0ab0\u0ac7\u0aa8","name:eu":"Ukraina","name:et":"Ukraina","name:nl":"Oekra\u00efne","name:es":"Ucrania","name:ia":"Ukraina","name:rm":"Ucraina","name:rn":"Ikerene","name:az":"Ukrayna","name:id":"Ukraina","name:ms":"Ukraine","name:mr":"\u092f\u0942\u0915\u094d\u0930\u0947\u0928","name:ar":"\u0623\u0648\u0643\u0631\u0627\u0646\u064a\u0627","name:my":"\u101a\u1030\u1000\u101b\u102d\u1014\u103a\u1038","name:io":"Ukrainia","int_name":"Ukraine","name:is":"\u00dakra\u00edna","name:am":"\u12e9\u12ad\u122c\u1295","name:it":"Ucraina","name:vi":"Ukraina","name:ru":"\u0423\u043a\u0440\u0430\u0438\u043d\u0430","name:mn":"\u0423\u043a\u0440\u0430\u0439\u043d","id":1648342273,"name:mk":"\u0423\u043a\u0440\u0430\u0438\u043d\u0430","name:af":"Oekra\u00efne","name:zu":"i-Ukraine","name:ha":"Yukaran","name:nn":"Ukraina","name:ff":"Ukereen","name:fi":"Ukraina","name:hi":"\u092f\u0942\u0915\u094d\u0930\u0947\u0928","name:mg":"Okraina","name:fo":"Ukreina","name:fr":"Ukraine","name:fy":"de Oekra\u00efne","name:vo":"Lukray\u00e4n","name:zh":"\u4e4c\u514b\u5170","name:gv":"Yn Ookraan","name:so":"Ukrayn","name:sn":"Ukraine","name:sl":"Ukrajina","name:sk":"Ukrajina","name:ja":"\u30a6\u30af\u30e9\u30a4\u30ca","name:si":"\u0dba\u0dd4\u0d9a\u0dca\u0dbb\u0dda\u0db1\u0dba","name:fa":"\u0627\u0648\u06a9\u0631\u0627\u06cc\u0646","name:sg":"Ukr\u00eani","name:se":"Ukraina","name:ne":"\u092f\u0941\u0915\u094d\u0930\u0947\u0928","name:br":"Ukraina","name:bs":"Ukrajina","name:bm":"Uk\u025br\u025bni","name:bn":"\u0987\u0989\u0995\u09cd\u09b0\u09c7\u0987\u09a8","name:bo":"\u0f61\u0f74\u0f0b\u0f40\u0fb2\u0f53\u0f0d","name:ml":"\u0d09\u0d15\u0d4d\u0d30\u0d48\u0d7b","name:no":"Ukraina","name:sw":"Ukraini","name:be":"\u0423\u043a\u0440\u0430\u0456\u043d\u0430","name:bg":"\u0423\u043a\u0440\u0430\u0439\u043d\u0430","name:sr":"\u0423\u043a\u0440\u0430\u0458\u0438\u043d\u0430","name:sq":"Ukrain\u00eb","name:ga":"An \u00dacr\u00e1in","name:gd":"An \u00d9crain","name:gl":"Ucra\u00edna","name:yo":"Or\u00edl\u1eb9\u0301\u00e8de Ukarini","name:ak":"Ukren"},"coordinates":[974,2527]},{"type":"Point","properties":{"kind":"region","name:en":"Cherkasy Oblast","name":"\u0427\u0435\u0440\u043a\u0430\u0441\u044c\u043a\u0430 \u043e\u0431\u043b\u0430\u0441\u0442\u044c","kind_detail":"state","name:pt":"Oblast de Tcherk\u00e1ssi","name:de":"Oblast Tscherkassy","source":"openstreetmap.org","min_zoom":4.0,"name:eo":"\u0108erkasa Provinco","name:fr":"Oblast de Tcherkassy","name:be":"\u0427\u0430\u0440\u043a\u0430\u0441\u043a\u0430\u044f \u0432\u043e\u0431\u043b\u0430\u0441\u0446\u044c","name:ru":"\u0427\u0435\u0440\u043a\u0430\u0441\u0441\u043a\u0430\u044f \u043e\u0431\u043b\u0430\u0441\u0442\u044c","name:pl":"obw\u00f3d czerkaski","id":681769624,"name:es":"\u00d3blast de Cherkasy"},"coordinates":[844,1000]},{"type":"Point","properties":{"name:pt":"Tcherk\u00e1ssi","name:ro":"Cerkas\u00ee","name:tr":"\u00c7erkassi","name:cs":"\u010cerkasy","min_zoom":8.0,"name:la":"Czercases","name:be":"\u0427\u0430\u0440\u043a\u0430\u0441\u044b","name:ru":"\u0427\u0435\u0440\u043a\u0430\u0441\u0441\u044b","name:pl":"Czerkasy","name:hu":"Cserkaszi","id":265056942,"population":286037,"kind":"locality","name:en":"Cherkasy","name":"\u0427\u0435\u0440\u043a\u0430\u0441\u0438","kind_detail":"city","name:de":"Tscherkassy","source":"openstreetmap.org","name:fr":"Tcherkassy","name:fi":"T\u0161erkasy","name:es":"Cherkasy"},"coordinates":[3266,2337]},{"type":"Point","properties":{"kind":"locality","name:en":"Smila","name":"\u0421\u043c\u0456\u043b\u0430","kind_detail":"town","name:eo":"Smila","name:de":"Smila","source":"openstreetmap.org","min_zoom":8.0,"name:ru":"\u0421\u043c\u0435\u043b\u0430","name:pl":"Smi\u0142a","name:hu":"Smila","id":337566618,"population":68520},"coordinates":[2753,1392]},{"type":"Point","properties":{"kind":"locality","name:en":"Zolotonosha","name":"\u0417\u043e\u043b\u043e\u0442\u043e\u043d\u043e\u0448\u0430","kind_detail":"town","name:de":"Solotonoscha","source":"openstreetmap.org","min_zoom":8.0,"name:pl":"Z\u0142otonosza","id":1059862891,"population":28464},"coordinates":[3221,3339]},{"type":"Point","properties":{"name:ro":"Kaniv","name:cs":"Kaniv","min_zoom":8.0,"name:az":"Kanev","name:it":"Kaniv","name:sv":"Kaniv","name:ru":"\u041a\u0430\u043d\u0435\u0432","name:pl":"Kani\u00f3w","id":497690126,"population":25843,"kind":"locality","name:en":"Kaniv","name":"\u041a\u0430\u043d\u0456\u0432","kind_detail":"town","name:de":"Kaniw","source":"openstreetmap.org","name:fr":"Kaniv","name:be":"\u041a\u0430\u043d\u0435\u045e","name:es":"K\u00e1niv"},"coordinates":[1525,3725]},{"type":"Point","properties":{"kind":"locality","name:en":"Korsun-Shevchenkivskyi","name":"\u041a\u043e\u0440\u0441\u0443\u043d\u044c-\u0428\u0435\u0432\u0447\u0435\u043d\u043a\u0456\u0432\u0441\u044c\u043a\u0438\u0439","kind_detail":"town","name:de":"Korsun-Schewtschenkiwskyj","source":"openstreetmap.org","min_zoom":8.0,"name:ru":"\u041a\u043e\u0440\u0441\u0443\u043d\u044c-\u0428\u0435\u0432\u0447\u0435\u043d\u043a\u043e\u0432\u0441\u043a\u0438\u0439","name:pl":"Korsu\u0144","id":1628093208,"population":18266},"coordinates":[927,2217]},{"type":"Point","properties":{"kind":"locality","name:en":"Zvenyhorodka","name":"\u0417\u0432\u0435\u043d\u0438\u0433\u043e\u0440\u043e\u0434\u043a\u0430","kind_detail":"town","name:de":"Swenyhorodka","source":"openstreetmap.org","min_zoom":8.0,"name:pl":"Zwinogr\u00f3dka","id":337573399,"population":18219},"coordinates":[85,683]},{"type":"Point","properties":{"kind":"locality","name:en":"Shpola","name":"\u0428\u043f\u043e\u043b\u0430","kind_detail":"town","name:de":"Schpola","source":"openstreetmap.org","min_zoom":8.0,"name:pl":"Szpo\u0142a","id":337576193,"population":18112},"coordinates":[1327,406]},{"type":"Point","properties":{"kind":"locality","name:en":"Vatutine","name":"\u0412\u0430\u0442\u0443\u0442\u0456\u043d\u0435","kind_detail":"town","name:de":"Watutine","source":"openstreetmap.org","min_zoom":8.0,"name:ru":"\u0412\u0430\u0442\u0443\u0442\u0438\u043d\u043e","name:pl":"Watutine","id":337575997,"population":17805},"coordinates":[362,424]},{"type":"Point","properties":{"kind":"locality","name:en":"Horodysche","name":"\u0413\u043e\u0440\u043e\u0434\u0438\u0449\u0435","kind_detail":"town","name:de":"Horodyschtsche","source":"openstreetmap.org","min_zoom":8.0,"name:be":"\u0413\u0430\u0440\u0430\u0434\u0437\u0456\u0448\u0447\u0430","name:pl":"Horodyszcze","id":337564052,"population":14480},"coordinates":[1477,1647]},{"type":"Point","properties":{"kind":"locality","name:en":"Kamianka","name":"\u041a\u0430\u043c\u2019\u044f\u043d\u043a\u0430","kind_detail":"town","name:de":"Kamjanka","source":"openstreetmap.org","min_zoom":8.0,"name:ru":"\u041a\u0430\u043c\u0435\u043d\u043a\u0430","name:be":"\u041a\u0430\u043c\u0435\u043d\u043a\u0430","name:pl":"Kamionka","id":337574832,"population":12956},"coordinates":[3389,526]},{"type":"Point","properties":{"kind":"locality","name:en":"Myronivka","name":"\u041c\u0438\u0440\u043e\u043d\u0456\u0432\u043a\u0430","kind_detail":"town","name:de":"Myroniwka","source":"openstreetmap.org","min_zoom":8.0,"name:ru":"\u041c\u0438\u0440\u043e\u043d\u043e\u0432\u043a\u0430","name:pl":"Miron\u00f3wka","id":5119801550,"population":11999},"coordinates":[131,3292]},{"type":"Point","properties":{"kind":"locality","name:en":"Oleksandrivka","name":"\u041e\u043b\u0435\u043a\u0441\u0430\u043d\u0434\u0440\u0456\u0432\u043a\u0430","kind_detail":"town","name:de":"Olexandriwka","source":"openstreetmap.org","min_zoom":8.0,"name:ru":"\u0410\u043b\u0435\u043a\u0441\u0430\u043d\u0434\u0440\u043e\u0432\u043a\u0430","name:be":"\u0410\u043b\u044f\u043a\u0441\u0430\u043d\u0434\u0440\u0430\u045e\u043a\u0430","name:pl":"Aleksandr\u00f3wka","id":337578545,"population":9166},"coordinates":[3789,193]},{"type":"Point","properties":{"kind":"locality","name:en":"Chornobai","name":"\u0427\u043e\u0440\u043d\u043e\u0431\u0430\u0439","kind_detail":"town","name:de":"Tschornobaj","source":"openstreetmap.org","min_zoom":8.0,"name:ru":"\u0427\u0435\u0440\u043d\u043e\u0431\u0430\u0439","name:pl":"Czornobaj","id":337550427,"population":7573},"coordinates":[4036,3346]},{"type":"Point","properties":{"kind":"locality","name:en":"Katerynopil","name":"\u041a\u0430\u0442\u0435\u0440\u0438\u043d\u043e\u043f\u0456\u043b\u044c","kind_detail":"town","name:de":"Katerynopil","source":"openstreetmap.org","min_zoom":8.0,"name:ru":"\u041a\u0430\u0442\u0435\u0440\u0438\u043d\u043e\u043f\u043e\u043b\u044c","name:pl":"Katerynopol","id":337579618,"population":6092},"coordinates":[127,66]},{"type":"Point","properties":{"kind":"locality","name:en":"Stebliv","name":"\u0421\u0442\u0435\u0431\u043b\u0456\u0432","kind_detail":"town","source":"openstreetmap.org","min_zoom":8.0,"name:ru":"\u0421\u0442\u0435\u0431\u043b\u0451\u0432","name:pl":"Stebliw","id":337560375,"population":3791},"coordinates":[459,2136]},{"type":"Point","properties":{"kind":"locality","name:en":"Vilshana","name":"\u0412\u0456\u043b\u044c\u0448\u0430\u043d\u0430","kind_detail":"town","source":"openstreetmap.org","min_zoom":8.0,"name:ru":"\u041e\u043b\u044c\u0448\u0430\u043d\u0430","name:pl":"Olszana","id":337567024,"population":3256},"coordinates":[795,1318]}]},"transit":{"type":"GeometryCollection","geometries":[{"type":"LineString","properties":{"kind":"train","name":"\u041a\u0438\u0457\u0432 - \u041e\u0434\u0435\u0441\u0430","sort_rank":275,"source":"openstreetmap.org","min_zoom":6.0,"name:ru":"\u041a\u0438\u0435\u0432 - \u041e\u0434\u0435\u0441\u0441\u0430","ref":"\u041a\u0438\u0457\u0432 - \u041e\u0434\u0435\u0441\u0430","id":-6762054,"osm_relation":true},"arcs":[5]},{"type":"MultiLineString","properties":{"kind":"train","name":"\u041c\u043e\u0441\u043a\u0432\u0430 \u2014 \u041d\u0438\u043a\u043e\u043b\u0430\u0435\u0432","sort_rank":275,"name:de":"Moskau \u2014 Mykolajiw","source":"openstreetmap.org","min_zoom":6.0,"name:uk":"\u041c\u043e\u0441\u043a\u0432\u0430 \u2014 \u041c\u0438\u043a\u043e\u043b\u0430\u0457\u0432","ref":"061\u0425","osm_relation":true,"network":"\u0420\u0416\u0414"},"arcs":[[6],[7],[8],[9]]},{"type":"MultiLineString","properties":{"kind":"train","network":"\u0423\u043a\u0440\u0437\u0430\u043b\u0456\u0437\u043d\u0438\u0446\u044f","sort_rank":275,"name:de":"Kiew - Mykolajiw","source":"openstreetmap.org","min_zoom":6.0,"ref":"121\u041a","osm_relation":true,"name":"\u041a\u0438\u0457\u0432 - \u041c\u0438\u043a\u043e\u043b\u0430\u0457\u0432"},"arcs":[[10],[11],[12],[13]]},{"type":"MultiLineString","properties":{"kind":"train","network":"\u0420\u0416\u0414","sort_rank":275,"name:de":"Mykolajiw \u2014 Moskau","source":"openstreetmap.org","min_zoom":6.0,"name:uk":"\u041c\u0438\u043a\u043e\u043b\u0430\u0457\u0432 - \u041c\u043e\u0441\u043a\u0432\u0430","ref":"062\u041e","osm_relation":true,"name":"\u041d\u0438\u043a\u043e\u043b\u0430\u0435\u0432 \u2014 \u041c\u043e\u0441\u043a\u0432\u0430"},"arcs":[[14],[15],[16],[17]]},{"type":"MultiLineString","properties":{"kind":"train","name":"\u041c\u0438\u043a\u043e\u043b\u0430\u0457\u0432 - \u041a\u0438\u0457\u0432","sort_rank":275,"name:de":"Mykolajiw - Kiew","source":"openstreetmap.org","min_zoom":6.0,"ref":"122\u0428","osm_relation":true,"network":"\u0423\u043a\u0440\u0437\u0430\u043b\u0456\u0437\u043d\u0438\u0446\u044f"},"arcs":[[18],[19],[20],[21]]}]},"pois":{"type":"GeometryCollection","geometries":[{"type":"Point","properties":{"kind":"protected_area","name:en":"Botanical reserve of local importance \"Maslivskyi\"","protect_class":"4","area":13388700,"source":"openstreetmap.org","min_zoom":8.0,"tier":2,"name:ru":"\u0411\u043e\u0442\u0430\u043d\u0438\u0447\u0435\u0441\u043a\u0438\u0439 \u0437\u0430\u043a\u0430\u0437\u043d\u0438\u043a \u043c\u0435\u0441\u0442\u043d\u043e\u0433\u043e \u0437\u043d\u0430\u0447\u0435\u043d\u0438\u044f \"\u041c\u0430\u0441\u043b\u043e\u0432\u0441\u043a\u0438\u0439\"","id":-6201555,"osm_relation":true,"name":"\u0411\u043e\u0442\u0430\u043d\u0456\u0447\u043d\u0438\u0439 \u0437\u0430\u043a\u0430\u0437\u043d\u0438\u043a \u043c\u0456\u0441\u0446\u0435\u0432\u043e\u0433\u043e \u0437\u043d\u0430\u0447\u0435\u043d\u043d\u044f \"\u041c\u0430\u0441\u043b\u0456\u0432\u0441\u044c\u043a\u0438\u0439\""},"coordinates":[746,3461]}]},"boundaries":{"type":"GeometryCollection","geometries":[{"type":"MultiLineString","properties":{"name:right:hy":"\u0549\u0565\u0580\u056f\u0561\u057d\u056b\u056b \u0574\u0561\u0580\u0566","name:right:hr":"\u010cerka\u0161ka oblast","name:left:sv":"Kirovohrad oblast","name:right:hu":"Cserkaszi ter\u00fclet","name:left:sr":"\u041a\u0438\u0440\u043e\u0432\u043e\u0433\u0440\u0430\u0434\u0441\u043a\u0430 \u043e\u0431\u043b\u0430\u0441\u0442","name:right:lt":"\u010cerkas\u0173 sritis","name:right:lv":"\u010cerkasu apgabals","name:left:lt":"Kirovohrado sritis","name:left:sh":"Kirovogradska oblast","name:left:sk":"Kirovohradsk\u00e1 oblas\u0165","name:left:hu":"Kirovohradi ter\u00fclet","name:left:hr":"Kirovogradska oblast","name:right:vi":"Cherkasy (t\u1ec9nh)","sort_rank":256,"name:left:ca":"Prov\u00edncia de Kirovohrad","source":"openstreetmap.org","name:right:ar":"\u0645\u062d\u0627\u0641\u0638\u0629 \u062a\u0634\u064a\u0631\u0643\u0627\u0633\u064a","name:left:cs":"Kirovohradsk\u00e1 oblast","name:left":"\u041a\u0456\u0440\u043e\u0432\u043e\u0433\u0440\u0430\u0434\u0441\u044c\u043a\u0430 \u043e\u0431\u043b\u0430\u0441\u0442\u044c","name:right:es":"\u00d3blast de Cherkasy","name:right:sr":"\u0427\u0435\u0440\u043a\u0430\u0448\u043a\u0430 \u043e\u0431\u043b\u0430\u0441\u0442","name:left:ka":"\u10d9\u10d8\u10e0\u10dd\u10d5\u10dd\u10d2\u10e0\u10d0\u10d3\u10d8\u10e1 \u10dd\u10da\u10e5\u10d8","name:right:eu":"Txerkasyko oblasta","name:right:et":"T\u0161erkass\u00f5 oblast","name:left:ko":"\ud0a4\ub85c\ubcf4\ud750\ub77c\ub4dc \uc8fc","name:right:it":"Oblast' di \u010cerkasy","name:left:ro":"Regiunea Kirovohrad","name:right:ru":"\u0427\u0435\u0440\u043a\u0430\u0441\u0441\u043a\u0430\u044f \u043e\u0431\u043b\u0430\u0441\u0442\u044c","name:right:ro":"Regiunea Cerkas\u00ee","name:left:ru":"\u041a\u0438\u0440\u043e\u0432\u043e\u0433\u0440\u0430\u0434\u0441\u043a\u0430\u044f \u043e\u0431\u043b\u0430\u0441\u0442\u044c","name:right:ms":"Oblast Cherkasy","name:right:mr":"\u091a\u0947\u0930\u094d\u0915\u093e\u0938\u0940 \u0913\u092c\u094d\u0932\u093e\u0938\u094d\u0924","name:right:id":"Oblast Cherkasy","name:right:eo":"\u0108erkasa provinco","name:right:en":"Cherkasy Oblast","name:left:vi":"Kirovohrad (t\u1ec9nh)","kind":"region","name":"\u041a\u0456\u0440\u043e\u0432\u043e\u0433\u0440\u0430\u0434\u0441\u044c\u043a\u0430 \u043e\u0431\u043b\u0430\u0441\u0442\u044c - \u0427\u0435\u0440\u043a\u0430\u0441\u044c\u043a\u0430 \u043e\u0431\u043b\u0430\u0441\u0442\u044c","name:left:fa":"\u0627\u0633\u062a\u0627\u0646 \u06a9\u06cc\u0631\u0648\u0648\u0647\u0631\u0627\u062f","name:right:fa":"\u0627\u0633\u062a\u0627\u0646 \u0686\u0631\u06a9\u0627\u0633\u06cc","min_zoom":8.0,"name:right:be":"\u0427\u0430\u0440\u043a\u0430\u0441\u043a\u0430\u044f \u0432\u043e\u0431\u043b\u0430\u0441\u0446\u044c","name:left:zh":"\u57fa\u6d1b\u592b\u683c\u52d2\u5dde","name:left:fr":"Oblast de Kirovohrad","name:right:zh":"\u5207\u723e\u5361\u745f\u5dde","name:left:hy":"\u053f\u056b\u0580\u0578\u057e\u0578\u0563\u0580\u0561\u0564\u056b \u0574\u0561\u0580\u0566","name:right:nn":"Tsjerkasy oblast","name:right:no":"Tsjerkasy oblast","name:right:nl":"Oblast Tsjerkasy","name:right:ja":"\u30c1\u30a7\u30eb\u30ab\u30fc\u30b9\u30a3\u5dde","name:right:fr":"Oblast de Tcherkassy","name:left:lv":"Kirovogradas apgabals","name:left:ja":"\u30ad\u30ed\u30f4\u30a9\u30d5\u30e9\u30fc\u30c9\u5dde","name:right:sv":"Tjerkasy oblast","name:left:nn":"Kirovohrad oblast","name:right:sh":"\u010cerka\u0161ka oblast","name:right:sk":"\u010cerkask\u00e1 oblas\u0165","name:left:bg":"\u041a\u0438\u0440\u043e\u0432\u043e\u0433\u0440\u0430\u0434\u0441\u043a\u0430 \u043e\u0431\u043b\u0430\u0441\u0442","name:left:be":"\u041a\u0456\u0440\u0430\u0432\u0430\u0433\u0440\u0430\u0434\u0441\u043a\u0430\u044f \u0432\u043e\u0431\u043b\u0430\u0441\u0446\u044c","name:left:no":"Kirovohrad oblast","name:left:fi":"Kirovohradin alue","id":-101859,"name:right:fi":"T\u0161erkasyn alue","name:left:eo":"Kirovohrada provinco","name:left:en":"Kirovohrad Oblast","name:right:ca":"Prov\u00edncia de Txerkassy","kind_detail":"4","name:left:mk":"\u041a\u0438\u0440\u043e\u0432\u043e\u0433\u0440\u0430\u0434\u0441\u043a\u0430 \u043e\u0431\u043b\u0430\u0441\u0442","name:left:nl":"Oblast Kirovohrad","id:left":-101859,"name:left:es":"\u00d3blast de Kirovogrado","name:right:cs":"\u010cerkask\u00e1 oblast","name:right":"\u0427\u0435\u0440\u043a\u0430\u0441\u044c\u043a\u0430 \u043e\u0431\u043b\u0430\u0441\u0442\u044c","id:right":-91278,"name:left:eu":"Kirovohradeko oblasta","name:left:et":"Kirovogradi oblast","name:right:mk":"\u0427\u0435\u0440\u043a\u0430\u0441\u043a\u0430 \u043e\u0431\u043b\u0430\u0441\u0442","name:right:zh-min-nan":"Cherkasy s\u00e9ng","name:right:pt":"Oblast de Tcherk\u00e1ssi","name:left:ar":"\u0643\u064a\u0631\u0648\u0641\u0648\u0647\u0631\u0627\u062f \u0623\u0648\u0628\u0644\u0627\u0633\u062a","name:left:pl":"Obw\u00f3d kirowohradzki","name:left:tr":"Kirovograd Oblast\u0131","name:left:id":"Oblast Kirovohrad","name:right:tr":"\u00c7erkas\u0131 Oblast\u0131","name:right:bg":"\u0427\u0435\u0440\u043a\u0430\u0441\u043a\u0430 \u043e\u0431\u043b\u0430\u0441\u0442","name:left:pt":"Oblast de Kirovogrado","name:left:mr":"\u0915\u093f\u0930\u094b\u0935\u094d\u0939\u094b\u0930\u093e\u0926 \u0913\u092c\u094d\u0932\u093e\u0938\u094d\u0924","name:right:ga":"C\u00faige Cherkasy","name:right:ko":"\uccb4\ub974\uce74\uc2dc \uc8fc","name:left:zh-min-nan":"Kirovograd s\u00e9ng","name:left:it":"Oblast' di Kirovohrad","name:right:pl":"Obw\u00f3d czerkaski","osm_relation":true,"name:right:ka":"\u10e9\u10d4\u10e0\u10d9\u10d0\u10e1\u10d8\u10e1 \u10dd\u10da\u10e5\u10d8","name:right:de":"Oblast Tscherkassy","name:left:de":"Oblast Kirowohrad"},"arcs":[[0],[1],[2],[3]]},{"type":"LineString","properties":{"name:right:hy":"\u053f\u056b\u0587\u056b \u0574\u0561\u0580\u0566","name:right:no":"Kiev oblast","name:right:hr":"Kijevska oblast","name:left:sv":"Tjerkasy oblast","name:left:sr":"\u0427\u0435\u0440\u043a\u0430\u0448\u043a\u0430 \u043e\u0431\u043b\u0430\u0441\u0442","name:right:lt":"Kijevo sritis","name:right:lv":"Kijevas apgabals","name:left:lt":"\u010cerkas\u0173 sritis","name:left:sh":"\u010cerka\u0161ka oblast","name:left:sk":"\u010cerkask\u00e1 oblas\u0165","name:left:hu":"Cserkaszi ter\u00fclet","name:left:hr":"\u010cerka\u0161ka oblast","name:left:ga":"C\u00faige Cherkasy","name:right:vi":"Kiev (t\u1ec9nh)","sort_rank":256,"name:left:ca":"Prov\u00edncia de Txerkassy","source":"openstreetmap.org","name:right:ar":"\u0643\u064a\u064a\u0641 \u0623\u0648\u0628\u0644\u0627\u0633\u062a","name:left:cs":"\u010cerkask\u00e1 oblast","name:left":"\u0427\u0435\u0440\u043a\u0430\u0441\u044c\u043a\u0430 \u043e\u0431\u043b\u0430\u0441\u0442\u044c","name:right:es":"\u00d3blast de Kiev","name:right:sh":"Kijevska oblast","name:right:sr":"\u041a\u0438\u0458\u0435\u0432\u0441\u043a\u0430 \u043e\u0431\u043b\u0430\u0441\u0442","name:left:ka":"\u10e9\u10d4\u10e0\u10d9\u10d0\u10e1\u10d8\u10e1 \u10dd\u10da\u10e5\u10d8","name:right:eu":"Kieveko oblasta","name:right:et":"Kiievi oblast","name:left:ko":"\uccb4\ub974\uce74\uc2dc \uc8fc","name:right:it":"Oblast' di Kiev","name:left:ro":"Regiunea Cerkas\u00ee","name:right:ru":"\u041a\u0438\u0435\u0432\u0441\u043a\u0430\u044f \u043e\u0431\u043b\u0430\u0441\u0442\u044c","name:right:ro":"Regiunea Kiev","name:left:ru":"\u0427\u0435\u0440\u043a\u0430\u0441\u0441\u043a\u0430\u044f \u043e\u0431\u043b\u0430\u0441\u0442\u044c","name:right:ms":"Oblast Kiev","name:right:mr":"\u0915\u094d\u092f\u0940\u0935 \u0913\u092c\u094d\u0932\u093e\u0938\u094d\u0924","name:right:id":"Oblast Kiev","name:right:eo":"Kieva provinco","name:right:en":"Kyiv Oblast","name:left:vi":"Cherkasy (t\u1ec9nh)","kind":"region","name":"\u0427\u0435\u0440\u043a\u0430\u0441\u044c\u043a\u0430 \u043e\u0431\u043b\u0430\u0441\u0442\u044c - \u041a\u0438\u0457\u0432\u0441\u044c\u043a\u0430 \u043e\u0431\u043b\u0430\u0441\u0442\u044c","name:left:fa":"\u0627\u0633\u062a\u0627\u0646 \u0686\u0631\u06a9\u0627\u0633\u06cc","name:right:fa":"\u0627\u0633\u062a\u0627\u0646 \u06a9\u06cc\u0641","min_zoom":8.0,"name:right:be":"\u041a\u0456\u0435\u045e\u0441\u043a\u0430\u044f \u0432\u043e\u0431\u043b\u0430\u0441\u0446\u044c","name:left:zh":"\u5207\u723e\u5361\u745f\u5dde","name:left:fr":"Oblast de Tcherkassy","name:right:bs":"Kijevska oblast","name:right:zh":"\u57fa\u8f85\u5dde","name:left:et":"T\u0161erkass\u00f5 oblast","name:left:hy":"\u0549\u0565\u0580\u056f\u0561\u057d\u056b\u056b \u0574\u0561\u0580\u0566","name:right:nn":"Kiev oblast","name:right:mk":"\u041a\u0438\u0435\u0432\u0441\u043a\u0430 \u043e\u0431\u043b\u0430\u0441\u0442","name:right:nl":"Oblast Kiev","name:right:ja":"\u30ad\u30a8\u30d5\u5dde","name:right:fr":"Oblast de Kiev","name:left:lv":"\u010cerkasu apgabals","name:left:ja":"\u30c1\u30a7\u30eb\u30ab\u30fc\u30b9\u30a3\u5dde","id:right":-71248,"name:left:nn":"Tsjerkasy oblast","name:left:no":"Tsjerkasy oblast","name:right:sk":"Kyjevsk\u00e1 oblas\u0165","name:left:bg":"\u0427\u0435\u0440\u043a\u0430\u0441\u043a\u0430 \u043e\u0431\u043b\u0430\u0441\u0442","name:left:be":"\u0427\u0430\u0440\u043a\u0430\u0441\u043a\u0430\u044f \u0432\u043e\u0431\u043b\u0430\u0441\u0446\u044c","name:left:fi":"T\u0161erkasyn alue","id":-91278,"name:right:fi":"Kiovan alue","name:left:eo":"\u0108erkasa provinco","name:left:en":"Cherkasy Oblast","name:right:ca":"Prov\u00edncia de K\u00edev","kind_detail":"4","name:left:mk":"\u0427\u0435\u0440\u043a\u0430\u0441\u043a\u0430 \u043e\u0431\u043b\u0430\u0441\u0442","name:left:nl":"Oblast Tsjerkasy","id:left":-91278,"name:left:es":"\u00d3blast de Cherkasy","name:right:cs":"Kyjevsk\u00e1 oblast","name:right":"\u041a\u0438\u0457\u0432\u0441\u044c\u043a\u0430 \u043e\u0431\u043b\u0430\u0441\u0442\u044c","name:left:eu":"Txerkasyko oblasta","name:right:cv":"\u041a\u0435\u0439\u04f3 \u043e\u0431\u043b\u0430\u00e7\u0115","name:right:ka":"\u10d9\u10d8\u10d4\u10d5\u10d8\u10e1 \u10dd\u10da\u10e5\u10d8","name:right:zh-min-nan":"Kyyiv s\u00e9ng","name:right:pt":"Oblast de Kiev","name:left:ar":"\u0645\u062d\u0627\u0641\u0638\u0629 \u062a\u0634\u064a\u0631\u0643\u0627\u0633\u064a","name:left:pl":"Obw\u00f3d czerkaski","name:left:tr":"\u00c7erkas\u0131 Oblast\u0131","name:left:id":"Oblast Cherkasy","name:right:tr":"Kiev Oblast\u0131","name:right:bg":"\u041a\u0438\u0435\u0432\u0441\u043a\u0430 \u043e\u0431\u043b\u0430\u0441\u0442","name:left:ms":"Oblast Cherkasy","name:left:mr":"\u091a\u0947\u0930\u094d\u0915\u093e\u0938\u0940 \u0913\u092c\u094d\u0932\u093e\u0938\u094d\u0924","name:right:sv":"Kiev oblast","name:right:ko":"\ud0a4\uc608\ud504 \uc8fc","name:left:zh-min-nan":"Cherkasy s\u00e9ng","name:left:it":"Oblast' di \u010cerkasy","name:right:pl":"Obw\u00f3d kijowski","osm_relation":true,"name:left:pt":"Oblast de Tcherk\u00e1ssi","name:right:de":"Oblast Kiew","name:left:de":"Oblast Tscherkassy","name:right:os":"\u041a\u0438\u0435\u0432\u044b \u043e\u0431\u043b\u00e6\u0441\u0442"},"arcs":[4]}]},"roads":{"type":"GeometryCollection","geometries":[{"type":"LineString","properties":{"kind":"major_road","name:en":"Nezalezhnosti Street","network":"ua:national","sort_rank":380,"kind_detail":"primary","old_name:ru":"\u041b\u0435\u043d\u0438\u043d\u0430 \u0443\u043b\u0438\u0446\u0430","source":"openstreetmap.org","min_zoom":8.0,"old_name":"\u041b\u0435\u043d\u0456\u043d\u0430 \u0432\u0443\u043b\u0438\u0446\u044f","shield_text":"01","name:ru":"\u041d\u0435\u0437\u0430\u0432\u0438\u0441\u0438\u043c\u043e\u0441\u0442\u0438 \u0443\u043b\u0438\u0446\u0430","landuse_kind":"urban_area","ref":"\u041d-01;\u041d-16","id":140093966},"arcs":[27]},{"type":"LineString","properties":{"kind":"major_road","sort_rank":380,"landuse_kind":"urban_area","source":"openstreetmap.org","min_zoom":8.0,"kind_detail":"primary","ref":"\u041d-16","id":453663476},"arcs":[28]},{"type":"LineString","properties":{"kind":"major_road","name:en":"Kirova Street","network":"ua:national","sort_rank":380,"kind_detail":"primary","source":"openstreetmap.org","min_zoom":8.0,"shield_text":"01","name:ru":"\u041a\u0438\u0440\u043e\u0432\u0430 \u0443\u043b\u0438\u0446\u0430","ref":"\u041d-01","id":130279119},"arcs":[29]},{"type":"MultiLineString","properties":{"kind":"major_road","network":"ua:national","sort_rank":380,"kind_detail":"primary","source":"openstreetmap.org","min_zoom":8.0,"landuse_kind":"residential","shield_text":"01","ref":"\u041d-01"},"arcs":[[30],[31]]},{"type":"MultiLineString","properties":{"bus_network":null,"name:en":"Shevchenka Boulevard","network":"ua:regional","sort_rank":380,"kind_detail":"primary","kind":"major_road","source":"openstreetmap.org","min_zoom":8.0,"bus_shield_text":"2","shield_text":"10","name:ru":"\u0428\u0435\u0432\u0447\u0435\u043d\u043a\u043e \u0431\u0443\u043b\u044c\u0432\u0430\u0440","landuse_kind":"urban_area","ref":"\u0420-10"},"arcs":[[32],[33]]},{"type":"LineString","properties":{"kind":"major_road","network":"ua:regional","sort_rank":380,"kind_detail":"primary","is_bicycle_related":true,"source":"openstreetmap.org","min_zoom":8.0,"shield_text":"10","name:ru":"\u0427\u0438\u0433\u0438\u0440\u0438\u043d\u0441\u043a\u0438\u0439 \u0448\u043b\u044f\u0445 \u0443\u043b\u0438\u0446\u0430","ref":"\u0420-10"},"arcs":[34]},{"type":"LineString","properties":{"bus_network":null,"name:en":"Onopriienka Street","network":"ua:national","sort_rank":380,"kind_detail":"primary","kind":"major_road","source":"openstreetmap.org","min_zoom":8.0,"bus_shield_text":"2","shield_text":"16","name:ru":"\u041e\u043d\u043e\u043f\u0440\u0438\u0435\u043d\u043a\u043e \u0443\u043b\u0438\u0446\u0430","landuse_kind":"urban_area","ref":"\u041d-16"},"arcs":[35]},{"type":"MultiLineString","properties":{"kind":"major_road","network":"ua:national","sort_rank":380,"kind_detail":"primary","source":"openstreetmap.org","min_zoom":8.0,"shield_text":"01","ref":"\u041d-01"},"arcs":[[36],[37],[38],[39],[40],[41],[42],[43],[44]]},{"type":"LineString","properties":{"kind":"major_road","name:en":"Kanivska Street","network":"ua:regional","sort_rank":380,"kind_detail":"primary","source":"openstreetmap.org","min_zoom":8.0,"landuse_kind":"urban_area","shield_text":"10","name:ru":"\u041a\u0430\u043d\u0435\u0432\u0441\u043a\u0430\u044f \u0443\u043b\u0438\u0446\u0430","ref":"\u0420-10"},"arcs":[45]},{"type":"LineString","properties":{"kind":"major_road","network":"ua:regional","sort_rank":380,"kind_detail":"primary","source":"openstreetmap.org","min_zoom":8.0,"landuse_kind":"nature_reserve","shield_text":"09","ref":"\u0420-09","id":42139939},"arcs":[46]},{"type":"MultiLineString","properties":{"kind":"major_road","network":"ua:national","sort_rank":380,"kind_detail":"primary","is_bicycle_related":true,"source":"openstreetmap.org","min_zoom":8.0,"shield_text":"08","ref":"\u041d-08"},"arcs":[[47],[48]]},{"type":"LineString","properties":{"source":"openstreetmap.org","kind":"major_road","kind_detail":"primary","sort_rank":380,"name:ru":"\u0414\u0440\u0443\u0436\u0431\u044b \u0443\u043b\u0438\u0446\u0430","min_zoom":8.0,"id":23210814},"arcs":[49]},{"type":"LineString","properties":{"kind":"major_road","name:en":"Nezalezhnosti Street","network":"ua:national","sort_rank":380,"kind_detail":"primary","old_name:ru":"\u041b\u0435\u043d\u0438\u043d\u0430 \u0443\u043b\u0438\u0446\u0430","source":"openstreetmap.org","min_zoom":8.0,"old_name":"\u041b\u0435\u043d\u0456\u043d\u0430 \u0432\u0443\u043b\u0438\u0446\u044f","shield_text":"01","name:ru":"\u041d\u0435\u0437\u0430\u0432\u0438\u0441\u0438\u043c\u043e\u0441\u0442\u0438 \u0443\u043b\u0438\u0446\u0430","ref":"\u041d-01;\u041d-16"},"arcs":[50]},{"type":"LineString","properties":{"kind":"major_road","name:en":"Chyhyrynska Street","network":"ua:regional","sort_rank":380,"kind_detail":"primary","source":"openstreetmap.org","min_zoom":8.0,"old_name":"60-\u0440\u0456\u0447\u0447\u044f \u0421\u0420\u0421\u0420 \u0432\u0443\u043b\u0438\u0446\u044f","shield_text":"10","name:ru":"\u0427\u0438\u0433\u0438\u0440\u0438\u043d\u0441\u043a\u0430\u044f \u0443\u043b\u0438\u0446\u0430","landuse_kind":"urban_area","ref":"\u0420-10"},"arcs":[51]},{"type":"LineString","properties":{"kind":"major_road","name:en":"Onopriienka Street","network":"ua:national","sort_rank":380,"kind_detail":"primary","source":"openstreetmap.org","min_zoom":8.0,"landuse_kind":"urban_area","shield_text":"16","name:ru":"\u041e\u043d\u043e\u043f\u0440\u0438\u0435\u043d\u043a\u043e \u0443\u043b\u0438\u0446\u0430","ref":"\u041d-16"},"arcs":[52]},{"type":"LineString","properties":{"kind":"major_road","network":"ua:national","sort_rank":380,"kind_detail":"primary","source":"openstreetmap.org","min_zoom":8.0,"shield_text":"14","ref":"\u041d-14","id":380800628},"arcs":[53]},{"type":"MultiLineString","properties":{"kind":"major_road","network":"ua:national","sort_rank":380,"kind_detail":"primary","source":"openstreetmap.org","min_zoom":8.0,"landuse_kind":"urban_area","shield_text":"16","ref":"\u041d-16"},"arcs":[[54],[55],[56],[57],[58]]},{"type":"LineString","properties":{"source":"openstreetmap.org","kind":"major_road","kind_detail":"primary","sort_rank":380,"name:ru":"\u041e\u043b\u0435\u0433\u0430 \u041a\u043e\u0448\u0435\u0432\u043e\u0433\u043e \u0443\u043b\u0438\u0446\u0430","min_zoom":8.0,"id":107583426},"arcs":[59]},{"type":"LineString","properties":{"kind":"major_road","network":"ua:national","sort_rank":380,"kind_detail":"primary","source":"openstreetmap.org","min_zoom":8.0,"landuse_kind":"residential","shield_text":"08","ref":"\u041d-08"},"arcs":[60]},{"type":"LineString","properties":{"kind":"major_road","name:en":"Lenina Street","network":"ua:national","sort_rank":380,"kind_detail":"primary","source":"openstreetmap.org","min_zoom":8.0,"shield_text":"01","name:ru":"\u041b\u0435\u043d\u0438\u043d\u0430 \u0443\u043b\u0438\u0446\u0430","ref":"\u041d-01"},"arcs":[61]},{"type":"MultiLineString","properties":{"kind":"major_road","network":"ua:regional","sort_rank":380,"kind_detail":"primary","source":"openstreetmap.org","min_zoom":8.0,"shield_text":"09","ref":"\u0420-09"},"arcs":[[62],[63],[64],[65],[66],[67],[68],[69]]},{"type":"LineString","properties":{"source":"openstreetmap.org","kind":"major_road","landuse_kind":"urban_area","sort_rank":380,"kind_detail":"primary","min_zoom":8.0},"arcs":[70]},{"type":"LineString","properties":{"kind":"major_road","network":"ua:national","sort_rank":380,"kind_detail":"primary","source":"openstreetmap.org","min_zoom":8.0,"landuse_kind":"urban_area","shield_text":"01","ref":"\u041d-01"},"arcs":[71]},{"type":"LineString","properties":{"kind":"major_road","name:en":"Shevchenka Street","sort_rank":380,"kind_detail":"primary","source":"openstreetmap.org","min_zoom":8.0,"name:ru":"\u0428\u0435\u0432\u0447\u0435\u043d\u043a\u043e \u0443\u043b\u0438\u0446\u0430","id":160822060},"arcs":[72]},{"type":"MultiLineString","properties":{"kind":"major_road","network":"ua:national","sort_rank":380,"kind_detail":"primary","source":"openstreetmap.org","min_zoom":8.0,"shield_text":"16","ref":"\u041d-16"},"arcs":[[73],[74],[75],[76],[77],[78],[79],[80],[81],[82],[83],[84],[85],[86],[87],[88],[89]]},{"type":"LineString","properties":{"old_name:uk":"\u041b\u0435\u043d\u0456\u043d\u0430 \u0432\u0443\u043b\u0438\u0446\u044f","kind":"major_road","name:en":"Nezalezhnosti Ukrainy Street","sort_rank":380,"kind_detail":"primary","old_name:ru":"\u041b\u0435\u043d\u0438\u043d\u0430 \u0443\u043b\u0438\u0446\u0430","source":"openstreetmap.org","min_zoom":8.0,"old_name:en":"Lenina Street","old_name":"\u041b\u0435\u043d\u0456\u043d\u0430 \u0432\u0443\u043b\u0438\u0446\u044f","name:ru":"\u041d\u0435\u0437\u0430\u0432\u0438\u0441\u0438\u043c\u043e\u0441\u0442\u0438 \u0423\u043a\u0440\u0430\u0438\u043d\u044b \u0443\u043b\u0438\u0446\u0430","id":250775803},"arcs":[90]},{"type":"LineString","properties":{"kind":"major_road","name:en":"Umanska Street","network":"ua:national","sort_rank":380,"kind_detail":"primary","source":"openstreetmap.org","min_zoom":8.0,"landuse_kind":"urban_area","shield_text":"16","name:ru":"\u0423\u043c\u0430\u043d\u0441\u043a\u0430\u044f \u0443\u043b\u0438\u0446\u0430","ref":"\u041d-16","id":30385184},"arcs":[91]},{"type":"LineString","properties":{"kind":"major_road","network":"ua:regional","sort_rank":380,"kind_detail":"primary","source":"openstreetmap.org","min_zoom":8.0,"shield_text":"10","name:ru":"\u0427\u0438\u0433\u0438\u0440\u0438\u043d\u0441\u043a\u0438\u0439 \u0448\u043b\u044f\u0445 \u0443\u043b\u0438\u0446\u0430","ref":"\u0420-10","id":136840829},"arcs":[92]},{"type":"LineString","properties":{"bus_network":null,"name:en":"Odeska Street","network":"ua:national","sort_rank":380,"kind_detail":"primary","kind":"major_road","source":"openstreetmap.org","min_zoom":8.0,"bus_shield_text":"2","shield_text":"16","name:ru":"\u041e\u0434\u0435\u0441\u0441\u043a\u0430\u044f \u0443\u043b\u0438\u0446\u0430","name:be":"\u0410\u0434\u044d\u0441\u043a\u0430\u044f \u0432\u0443\u043b\u0456\u0446\u0430","landuse_kind":"urban_area","ref":"\u041d-16"},"arcs":[93]},{"type":"LineString","properties":{"kind":"major_road","network":"ua:national","sort_rank":380,"kind_detail":"primary","is_bicycle_related":true,"source":"openstreetmap.org","min_zoom":8.0,"landuse_kind":"urban_area","shield_text":"16","ref":"\u041d-16"},"arcs":[94]},{"type":"LineString","properties":{"kind":"major_road","network":"ua:regional","sort_rank":380,"kind_detail":"primary","source":"openstreetmap.org","min_zoom":8.0,"shield_text":"64","ref":"\u0420-64","id":299506175},"arcs":[95]},{"type":"LineString","properties":{"kind":"major_road","name:en":"Dobrovolskoho Street","network":"ua:regional","sort_rank":380,"kind_detail":"primary","source":"openstreetmap.org","min_zoom":8.0,"landuse_kind":"urban_area","shield_text":"10","name:ru":"\u0414\u043e\u0431\u0440\u043e\u0432\u043e\u043b\u044c\u0441\u043a\u043e\u0433\u043e \u0443\u043b\u0438\u0446\u0430","ref":"\u0420-10","id":38651392},"arcs":[96]},{"type":"LineString","properties":{"kind":"major_road","network":"ua:national","sort_rank":380,"kind_detail":"primary","old_name:ru":"60-\u043b\u0435\u0442\u0438\u044f \u0421\u0421\u0421\u0420 \u0443\u043b\u0438\u0446\u0430","source":"openstreetmap.org","min_zoom":8.0,"old_name":"60-\u0440\u0456\u0447\u0447\u044f \u0421\u0420\u0421\u0420 \u0432\u0443\u043b\u0438\u0446\u044f","shield_text":"01","name:ru":"\u0413\u0435\u0440\u043e\u0435\u0432 \u0425\u043e\u043b\u043e\u0434\u043d\u043e\u044f\u0440\u0446\u0435\u0432 \u0443\u043b\u0438\u0446\u0430","landuse_kind":"urban_area","ref":"\u041d-01"},"arcs":[97]},{"type":"MultiLineString","properties":{"kind":"major_road","name:en":"Shevchenka Boulevard","network":"ua:regional","sort_rank":380,"kind_detail":"primary","source":"openstreetmap.org","min_zoom":8.0,"shield_text":"10","name:ru":"\u0428\u0435\u0432\u0447\u0435\u043d\u043a\u043e \u0431\u0443\u043b\u044c\u0432\u0430\u0440","ref":"\u0420-10"},"arcs":[[98],[99]]},{"type":"MultiLineString","properties":{"sort_rank":380,"kind_detail":"primary","min_zoom":8.0,"kind":"major_road","source":"openstreetmap.org"},"arcs":[[100],[101],[102],[103],[104],[105],[106],[107],[108],[109]]},{"type":"LineString","properties":{"bus_network":null,"network":"ua:national","sort_rank":380,"kind_detail":"primary","kind":"major_road","source":"openstreetmap.org","min_zoom":8.0,"bus_shield_text":"2","shield_text":"16","landuse_kind":"urban_area","ref":"\u041d-16"},"arcs":[110]},{"type":"LineString","properties":{"kind":"major_road","network":"ua:regional","sort_rank":380,"kind_detail":"primary","source":"openstreetmap.org","min_zoom":8.0,"landuse_kind":"residential","shield_text":"10","ref":"\u0420-10","id":136840763},"arcs":[111]},{"type":"LineString","properties":{"kind":"major_road","network":"ua:national","sort_rank":380,"kind_detail":"primary","is_bicycle_related":true,"bus_network":null,"source":"openstreetmap.org","min_zoom":8.0,"bus_shield_text":"2","shield_text":"16","landuse_kind":"urban_area","ref":"\u041d-16","id":38651410},"arcs":[112]},{"type":"LineString","properties":{"kind":"major_road","name:en":"Sumhaitska Street","network":"ua:national","sort_rank":380,"kind_detail":"primary","source":"openstreetmap.org","min_zoom":8.0,"landuse_kind":"urban_area","shield_text":"16","name:ru":"\u0421\u0443\u043c\u0433\u0430\u0438\u0442\u0441\u043a\u0430\u044f \u0443\u043b\u0438\u0446\u0430","ref":"\u041d-16"},"arcs":[113]},{"type":"LineString","properties":{"kind":"major_road","name:en":"Sevastopolska Street","network":"ua:national","sort_rank":380,"kind_detail":"primary","source":"openstreetmap.org","min_zoom":8.0,"landuse_kind":"urban_area","shield_text":"01","name:ru":"\u0421\u0435\u0432\u0430\u0441\u0442\u043e\u043f\u043e\u043b\u044c\u0441\u043a\u0430\u044f \u0443\u043b\u0438\u0446\u0430","ref":"\u041d-01","id":77885991},"arcs":[114]},{"type":"MultiLineString","properties":{"kind":"major_road","network":"ua:regional","sort_rank":380,"kind_detail":"primary","source":"openstreetmap.org","min_zoom":8.0,"shield_text":"10","ref":"\u0420-10"},"arcs":[[115],[116],[117],[118],[119]]},{"type":"LineString","properties":{"source":"openstreetmap.org","kind":"major_road","name:en":"Enerhetykiv Street","name:ru":"\u042d\u043d\u0435\u0440\u0433\u0435\u0442\u0438\u043a\u043e\u0432 \u0443\u043b\u0438\u0446\u0430","sort_rank":380,"kind_detail":"primary","min_zoom":8.0},"arcs":[120]},{"type":"MultiLineString","properties":{"kind":"major_road","network":"ua:national","sort_rank":380,"kind_detail":"primary","is_bicycle_related":true,"source":"openstreetmap.org","min_zoom":8.0,"shield_text":"16","ref":"\u041d-16"},"arcs":[[121],[122]]},{"type":"LineString","properties":{"old_name:uk":"\u041b\u0435\u043d\u0456\u043d\u0430 \u0432\u0443\u043b\u0438\u0446\u044f","kind":"major_road","name:en":"Nebesnoi Sotni Street","sort_rank":380,"kind_detail":"primary","old_name:ru":"\u041b\u0435\u043d\u0438\u043d\u0430 \u0443\u043b\u0438\u0446\u0430","source":"openstreetmap.org","min_zoom":8.0,"old_name:en":"Lenina Street","old_name":"\u041b\u0435\u043d\u0456\u043d\u0430 \u0432\u0443\u043b\u0438\u0446\u044f","name:ru":"\u041d\u0435\u0431\u0435\u0441\u043d\u043e\u0439 \u0421\u043e\u0442\u043d\u0438 \u0443\u043b\u0438\u0446\u0430"},"arcs":[123]},{"type":"LineString","properties":{"old_name:uk":"\u041b\u0435\u043d\u0456\u043d\u0430 \u0432\u0443\u043b\u0438\u0446\u044f","kind":"major_road","name:en":"Enerhetykiv Street","network":"ua:national","sort_rank":380,"kind_detail":"primary","old_name:ru":"\u041b\u0435\u043d\u0438\u043d\u0430 \u0443\u043b\u0438\u0446\u0430","source":"openstreetmap.org","min_zoom":8.0,"old_name:en":"Lenina Street","old_name":"\u041b\u0435\u043d\u0456\u043d\u0430 \u0432\u0443\u043b\u0438\u0446\u044f","shield_text":"02","name:ru":"\u042d\u043d\u0435\u0440\u0433\u0435\u0442\u0438\u043a\u043e\u0432 \u0443\u043b\u0438\u0446\u0430","ref":"\u041d-02","id":94967796},"arcs":[124]},{"type":"LineString","properties":{"kind":"major_road","name:en":"Enerhetykiv Street","network":"ua:national","sort_rank":380,"kind_detail":"primary","source":"openstreetmap.org","min_zoom":8.0,"shield_text":"02","name:ru":"\u042d\u043d\u0435\u0440\u0433\u0435\u0442\u0438\u043a\u043e\u0432 \u0443\u043b\u0438\u0446\u0430","ref":"\u041d-02"},"arcs":[125]},{"type":"LineString","properties":{"kind":"major_road","name:en":"Nezalezhnosti Street","network":"ua:national","sort_rank":380,"kind_detail":"primary","old_name:ru":"\u041b\u0435\u043d\u0438\u043d\u0430 \u0443\u043b\u0438\u0446\u0430","source":"openstreetmap.org","min_zoom":8.0,"old_name":"\u041b\u0435\u043d\u0456\u043d\u0430 \u0432\u0443\u043b\u0438\u0446\u044f","shield_text":"01","name:ru":"\u041d\u0435\u0437\u0430\u0432\u0438\u0441\u0438\u043c\u043e\u0441\u0442\u0438 \u0443\u043b\u0438\u0446\u0430","ref":"\u041d-01","id":59838275},"arcs":[126]},{"type":"LineString","properties":{"kind":"major_road","name:en":"Dakhnivska Street","network":"ua:regional","sort_rank":380,"kind_detail":"primary","source":"openstreetmap.org","min_zoom":8.0,"landuse_kind":"urban_area","shield_text":"10","name:ru":"\u0414\u0430\u0445\u043d\u043e\u0432\u0441\u043a\u0430\u044f \u0443\u043b\u0438\u0446\u0430","ref":"\u0420-10"},"arcs":[127]},{"type":"LineString","properties":{"kind":"major_road","name:en":"Shevchenka Street","network":"ua:regional","sort_rank":380,"kind_detail":"primary","source":"openstreetmap.org","min_zoom":8.0,"shield_text":"64","name:ru":"\u0428\u0435\u0432\u0447\u0435\u043d\u043a\u043e \u0443\u043b\u0438\u0446\u0430","ref":"\u0420-64"},"arcs":[128]},{"type":"MultiLineString","properties":{"bus_network":null,"name:en":"Shevchenka Boulevard","network":"ua:regional","sort_rank":380,"kind_detail":"primary","kind":"major_road","source":"openstreetmap.org","min_zoom":8.0,"bus_shield_text":"7","shield_text":"10","name:ru":"\u0428\u0435\u0432\u0447\u0435\u043d\u043a\u043e \u0431\u0443\u043b\u044c\u0432\u0430\u0440","landuse_kind":"urban_area","ref":"\u0420-10"},"arcs":[[129],[130]]},{"type":"LineString","properties":{"kind":"major_road","name:en":"Peremohy Street","network":"ua:national","sort_rank":380,"landuse_kind":"urban_area","source":"openstreetmap.org","min_zoom":8.0,"kind_detail":"primary","shield_text":"01","name:ru":"\u041f\u043e\u0431\u0435\u0434\u044b \u0443\u043b\u0438\u0446\u0430","ref":"\u041d-01"},"arcs":[131]},{"type":"LineString","properties":{"kind":"major_road","name:en":"Nezalezhnosti Street","network":"ua:national","sort_rank":380,"kind_detail":"primary","old_name:ru":"\u041b\u0435\u043d\u0438\u043d\u0430 \u0443\u043b\u0438\u0446\u0430","source":"openstreetmap.org","min_zoom":8.0,"old_name":"\u041b\u0435\u043d\u0456\u043d\u0430 \u0432\u0443\u043b\u0438\u0446\u044f","shield_text":"01","name:ru":"\u041d\u0435\u0437\u0430\u0432\u0438\u0441\u0438\u043c\u043e\u0441\u0442\u0438 \u0443\u043b\u0438\u0446\u0430","landuse_kind":"urban_area","ref":"\u041d-01","id":23509572},"arcs":[132]},{"type":"LineString","properties":{"kind":"major_road","name:en":"Kanivska Street","network":"ua:regional","sort_rank":380,"kind_detail":"primary","source":"openstreetmap.org","min_zoom":8.0,"shield_text":"10","name:ru":"\u041a\u0430\u043d\u0435\u0432\u0441\u043a\u0430\u044f \u0443\u043b\u0438\u0446\u0430","ref":"\u0420-10","id":114443107},"arcs":[133]},{"type":"MultiLineString","properties":{"kind":"major_road","network":"ua:national","sort_rank":380,"kind_detail":"primary","source":"openstreetmap.org","min_zoom":8.0,"shield_text":"02","ref":"\u041d-02"},"arcs":[[134],[135],[136],[137]]},{"type":"MultiLineString","properties":{"kind":"major_road","network":"ua:regional","sort_rank":380,"kind_detail":"primary","is_bicycle_related":true,"source":"openstreetmap.org","min_zoom":8.0,"shield_text":"10","ref":"\u0420-10"},"arcs":[[138],[139]]},{"type":"MultiLineString","properties":{"kind":"major_road","network":"ua:national","sort_rank":380,"kind_detail":"primary","source":"openstreetmap.org","min_zoom":8.0,"shield_text":"08","ref":"\u041d-08"},"arcs":[[140],[141],[142],[143],[144],[145],[146],[147],[148],[149]]},{"type":"MultiLineString","properties":{"source":"openstreetmap.org","kind":"major_road","name:en":"Kyivska Street","name:ru":"\u041a\u0438\u0435\u0432\u0441\u043a\u0430\u044f \u0443\u043b\u0438\u0446\u0430","sort_rank":380,"kind_detail":"primary","min_zoom":8.0},"arcs":[[150],[151],[152]]},{"type":"MultiLineString","properties":{"kind":"major_road","name:en":"Shevchenka Boulevard","network":"ua:regional","sort_rank":380,"kind_detail":"primary","source":"openstreetmap.org","min_zoom":8.0,"landuse_kind":"urban_area","shield_text":"10","name:ru":"\u0428\u0435\u0432\u0447\u0435\u043d\u043a\u043e \u0431\u0443\u043b\u044c\u0432\u0430\u0440","ref":"\u0420-10"},"arcs":[[153],[154],[155]]},{"type":"MultiLineString","properties":{"bus_network":null,"name:en":"Shevchenka Boulevard","network":"ua:regional","sort_rank":380,"kind_detail":"primary","kind":"major_road","source":"openstreetmap.org","min_zoom":8.0,"bus_shield_text":"2","shield_text":"10","name:ru":"\u0428\u0435\u0432\u0447\u0435\u043d\u043a\u043e \u0431\u0443\u043b\u044c\u0432\u0430\u0440","ref":"\u0420-10"},"arcs":[[156],[157]]},{"type":"LineString","properties":{"kind":"major_road","network":"ua:regional","sort_rank":380,"kind_detail":"primary","is_bicycle_related":true,"source":"openstreetmap.org","min_zoom":8.0,"landuse_kind":"urban_area","shield_text":"10","name:ru":"\u0427\u0438\u0433\u0438\u0440\u0438\u043d\u0441\u043a\u0438\u0439 \u0448\u043b\u044f\u0445 \u0443\u043b\u0438\u0446\u0430","ref":"\u0420-10","id":38634804},"arcs":[158]},{"type":"MultiLineString","properties":{"kind":"major_road","network":"ua:national","sort_rank":380,"kind_detail":"primary","source":"openstreetmap.org","min_zoom":8.0,"shield_text":"01","name:ru":"\u041e\u0431\u044a\u0435\u0437\u0434\u043d\u0430\u044f \u0443\u043b\u0438\u0446\u0430","ref":"\u041d-01"},"arcs":[[159],[160]]}]},"earth":{"type":"GeometryCollection","geometries":[{"type":"Polygon","properties":{"sort_rank":10,"source":"naturalearthdata.com","kind":"earth","min_zoom":0.0,"id":4755},"arcs":[[161]]}]},"landuse":{"type":"GeometryCollection","geometries":[{"type":"MultiPolygon","properties":{"source":"openstreetmap.org","kind":"residential","tier":2,"area":74097714,"sort_rank":20,"min_zoom":8.0,"osm_relation":true},"arcs":[[[162]],[[163],[164],[165]],[[166],[167]],[[168],[169],[170],[171]]]},{"type":"Polygon","properties":{"kind":"residential","name":"\u041f\u0435\u0442\u0440\u043e\u043f\u0430\u0432\u043b\u0456\u0432\u043a\u0430","area":19553700,"sort_rank":20,"source":"openstreetmap.org","min_zoom":8.0,"tier":2,"id":198124666},"arcs":[[172]]},{"type":"Polygon","properties":{"kind":"residential","name":"\u0412\u2019\u044f\u0437\u0456\u0432\u043e\u043a","area":40142400,"sort_rank":20,"source":"openstreetmap.org","min_zoom":8.0,"tier":2,"id":-3920932,"osm_relation":true},"arcs":[[173]]},{"type":"MultiPolygon","properties":{"kind":"protected_area","protect_class":"4","area":23735116,"sort_rank":17,"source":"openstreetmap.org","min_zoom":8.0,"tier":2,"osm_relation":true},"arcs":[[[174]]]},{"type":"Polygon","properties":{"kind":"residential","name":"\u041c\u0435\u043b\u044c\u043d\u0438\u043a\u0438","area":10420500,"sort_rank":20,"source":"openstreetmap.org","min_zoom":8.0,"tier":2,"id":196348246},"arcs":[[175]]},{"type":"Polygon","properties":{"kind":"residential","name":"\u0427\u0435\u0440\u043d\u0435\u0449\u0438\u043d\u0430","area":14342300,"sort_rank":20,"source":"openstreetmap.org","min_zoom":8.0,"tier":2,"id":196745952},"arcs":[[176]]},{"type":"Polygon","properties":{"kind":"residential","name":"\u041a\u0440\u0443\u0442\u044c\u043a\u0438","area":13278500,"sort_rank":20,"source":"openstreetmap.org","min_zoom":8.0,"tier":2,"id":196348244},"arcs":[[177]]},{"type":"Polygon","properties":{"kind":"nature_reserve","natural":"wood","protect_class":"4","area":58013800,"sort_rank":23,"source":"openstreetmap.org","min_zoom":8.0,"tier":2,"id":117744411},"arcs":[[178]]},{"type":"MultiPolygon","properties":{"source":"openstreetmap.org","kind":"military","tier":3,"area":335789956,"sort_rank":45,"min_zoom":8.0},"arcs":[[[179]]]},{"type":"MultiPolygon","properties":{"source":"naturalearthdata.com","kind":"urban_area","name":"","area":1530034769,"sort_rank":11,"min_zoom":4.0},"arcs":[[[180]],[[181]]]},{"type":"Polygon","properties":{"kind":"residential","name":"\u0420\u043e\u0441\u0430\u0432\u0430","area":12962000,"sort_rank":20,"source":"openstreetmap.org","min_zoom":8.0,"tier":2,"id":-3842843,"osm_relation":true},"arcs":[[182]]},{"type":"Polygon","properties":{"kind":"nature_reserve","natural":"wood","area":85730600,"sort_rank":23,"source":"openstreetmap.org","min_zoom":8.0,"tier":2,"id":-7163372,"osm_relation":true},"arcs":[[183],[184],[185],[186],[187],[188],[189],[190]]},{"type":"MultiPolygon","properties":{"kind":"residential","name":"\u0417\u0435\u043b\u0435\u043d\u044c\u043a\u0438","area":25964300,"sort_rank":20,"source":"openstreetmap.org","min_zoom":8.0,"tier":2,"id":-3879862,"osm_relation":true},"arcs":[[[191]]]},{"type":"Polygon","properties":{"kind":"residential","name":"\u041f\u0456\u0449\u0430\u043d\u0435","area":35943000,"sort_rank":20,"source":"openstreetmap.org","min_zoom":8.0,"tier":2,"id":191590161},"arcs":[[192]]},{"type":"MultiPolygon","properties":{"source":"openstreetmap.org","kind":"residential","tier":2,"area":239015473,"sort_rank":20,"min_zoom":8.0},"arcs":[[[193]],[[194]]]},{"type":"Polygon","properties":{"kind":"residential","name":"\u041a\u043e\u0432\u0440\u0430\u0439","area":13953000,"sort_rank":20,"source":"openstreetmap.org","min_zoom":8.0,"tier":2,"id":196267929},"arcs":[[195]]}]}},"type":"Topology","transform":{"translate":[30.9375,48.9224992638],"scale":[0.0003433228,0.0002235066]},"arcs":[[[2713,0],[-86,58],[-51,5],[-48,58],[-23,-43],[-135,-62],[-77,35],[-77,-13],[2,-38]],[[3213,0],[-41,37],[-33,-37]],[[3223,0],[-6,0]],[[4096,703],[-84,7],[-5,-29],[-43,-6],[-3,27],[-43,23],[2,-24],[-67,-4],[6,-87],[-84,3],[-45,-325],[-95,37],[-23,-100],[-125,-30],[-11,-66],[66,-30],[-7,-99]],[[815,4096],[11,-25],[-91,-189],[78,-60],[-34,-87],[50,-108],[-30,-15],[-44,-126],[60,-31],[-17,-38],[-30,22],[-16,-31],[19,-40],[-193,-321],[-23,-93],[64,-10],[-34,-41],[31,-12],[10,-61],[-30,11],[-9,-26],[-52,38],[-32,-13],[-31,-51],[13,-63],[-28,-65],[0,-87],[-160,-109],[14,-73],[-44,66],[-70,-93],[3,-90],[-27,-28],[-173,-20]],[[2809,1248],[-28,-137],[0,-220],[-102,-153],[-32,-100],[-98,-49],[-60,-133],[-288,-135],[-86,-127],[-5,-45],[112,-149]],[[2827,1244],[68,-58],[18,-104],[77,-82],[84,-158],[27,-180],[58,-59],[34,-1],[40,-14],[34,-5],[57,-38]],[[2835,1234],[-109,57],[9,170],[93,143],[142,146],[143,323],[137,192],[-94,102],[-2,57],[224,271],[-5,55],[-65,108],[44,342],[-9,60],[-56,82],[91,61],[81,227],[243,419],[18,47]],[[3238,587],[23,-2],[4,-1],[4,-1],[61,-41],[139,-30],[151,-135],[112,-52],[150,-159],[26,-13]],[[3853,200],[165,-136],[27,-64]],[[0,3264],[144,-21],[97,-82],[34,-68],[204,-127],[47,-66],[84,-4],[75,-225],[99,-144],[67,-36],[44,-79],[139,-74],[96,-113],[58,-23],[6,-40],[-54,-80],[-14,-76],[147,-240],[176,-147],[-6,-97],[30,-95],[-19,-64],[162,-234],[124,-109],[121,-28],[211,40],[138,175],[5,80],[65,49],[265,18],[140,-40],[150,-80]],[[2827,1244],[3,-3]],[[3238,587],[231,-75],[151,-135],[112,-52],[150,-159],[26,-13]],[[3853,200],[165,-136],[27,-64]],[[2827,1244],[68,-58],[18,-104],[77,-82],[84,-158],[27,-180],[58,-59],[34,-1],[40,-14],[34,-5],[57,-38]],[[2835,1234],[-109,57],[9,170],[93,143],[142,146],[143,323],[137,192],[-94,102],[-2,57],[224,271],[-5,55],[-65,108],[44,342],[-9,60],[-56,82],[91,61],[81,227],[243,419],[18,47]],[[3238,587],[23,-2],[4,-1],[4,-1],[25,-14],[36,-27],[139,-30],[151,-135],[112,-52],[150,-159],[2,-3],[6,-3],[18,-7]],[[3790,272],[92,-106],[63,-29],[73,-73],[27,-64]],[[0,3264],[144,-21],[97,-82],[34,-68],[204,-127],[47,-66],[84,-4],[75,-225],[99,-144],[67,-36],[44,-79],[139,-74],[100,-112],[54,-24],[6,-40],[-53,-80],[-15,-76],[144,-236],[179,-151],[-6,-97],[30,-95],[-19,-64],[162,-234],[124,-109],[121,-28],[211,40],[138,175],[5,80],[65,49],[265,18],[140,-40],[150,-80]],[[2827,1244],[68,-58],[18,-104],[77,-82],[84,-158],[27,-180],[58,-59],[34,-1],[40,-14],[34,-5],[57,-38]],[[3238,587],[23,-2],[4,-1],[4,-1],[61,-41],[139,-30],[151,-135],[112,-52],[150,-159],[26,-13]],[[3790,272],[6,-6],[86,-100],[63,-29],[73,-73],[27,-64]],[[1426,3795],[11,114],[32,187],[424,0],[10,-41],[-32,-22],[-28,10],[-30,18],[-31,-6],[-21,-38],[-45,-120],[-23,-26],[-134,-120],[-92,-37],[-41,81]],[[4096,1826],[-279,102],[-116,74],[-250,256],[-92,50],[-99,19],[-36,31],[-116,201],[-45,49],[-60,5],[-241,218],[112,23],[62,33],[26,49],[22,91],[50,14],[59,-25],[49,-33],[81,-81],[105,-165],[92,-59],[208,-66],[109,4],[103,62],[152,-108],[37,-15],[36,-23],[31,-38],[0,-668]],[[1426,3795],[11,114],[32,187]],[[1893,4096],[10,-41],[-32,-22],[-28,10],[-30,18],[-31,-6],[-21,-38],[-45,-120],[-23,-26],[-134,-120],[-92,-37],[-41,81]],[[4096,1826],[-279,102],[-116,74],[-250,256],[-92,50],[-99,19],[-36,31],[-116,201],[-45,49],[-60,5],[-241,218],[112,23],[62,33],[26,49],[22,91],[50,14],[59,-25],[49,-33],[81,-81],[105,-165],[92,-59],[208,-66],[109,4],[103,62],[152,-108],[37,-15],[36,-23],[31,-38]],[[2662,1366],[-9,0]],[[3037,2360],[-4,-6]],[[3590,454],[81,-40]],[[0,3648],[31,-51]],[[63,3509],[-4,-108]],[[3257,2343],[25,-22]],[[3283,2322],[-23,20]],[[3492,2094],[82,-94]],[[3151,2376],[-12,-1]],[[31,3597],[32,-88]],[[59,3401],[7,-172],[156,-106],[35,-90],[148,-92],[149,-160],[34,-266],[281,-263]],[[869,2252],[7,-20]],[[876,2232],[24,-67],[105,-6],[99,-90],[98,-261],[221,-161]],[[1430,1637],[-1,1]],[[1487,1617],[62,8],[173,-172],[45,-77],[75,-15],[73,46],[146,-1],[277,-52],[244,-4]],[[2876,1297],[89,-127],[145,-22],[172,-229]],[[3310,856],[36,-194],[119,-143],[125,-65]],[[3671,414],[182,-176],[140,-44],[103,-101]],[[3109,2469],[-56,20]],[[1407,3649],[1,0]],[[3166,3481],[127,-61],[41,-66]],[[3336,3352],[84,-68]],[[3828,261],[-8,-18]],[[2653,1366],[-58,-14]],[[3382,2212],[78,-81]],[[3139,2375],[-102,-15]],[[3760,121],[4,-121]],[[2697,1393],[19,109]],[[2782,1576],[23,15],[25,29]],[[2829,1620],[-45,-41]],[[3155,2398],[-1,-2]],[[3170,2447],[2,2]],[[1550,3707],[-1,-2]],[[2591,3785],[152,-169]],[[3282,919],[28,-63]],[[1248,3499],[-197,3],[-48,25],[-18,-24],[-134,-3],[-164,57],[-147,-73],[-88,4],[-261,-145]],[[1253,3502],[-5,-3]],[[1248,3499],[2,-1]],[[1252,3499],[1,3]],[[1253,3502],[43,133],[111,14]],[[1408,3649],[41,3]],[[1252,3499],[0,1],[-2,0],[0,-2]],[[1250,3498],[2,1]],[[2665,1366]],[[2872,1303],[4,-6]],[[1549,3705],[-16,-2]],[[80,573],[-43,5],[-37,87]],[[122,586],[-42,-13]],[[1404,458],[-183,5],[-199,155],[-247,44],[-206,2],[-82,-56],[-56,-3],[-93,59],[-148,2],[-68,-80]],[[2579,1346],[-149,-225],[-197,-174],[-42,-21],[-181,83],[-122,-15],[-162,-152],[-145,-272],[-175,-112]],[[2579,1346],[16,6]],[[2601,1353],[-22,-7]],[[2716,1502],[11,30]],[[2725,1534],[3,0],[0,3],[-3,0],[0,-3]],[[2725,1534],[2,-2]],[[2727,1532],[0,2]],[[2784,1579],[-57,-42]],[[2728,1536],[54,40]],[[3094,2094],[-223,-278],[-14,-21],[-2,-3],[-26,-172]],[[2830,1620],[27,175],[197,246]],[[3172,2449],[52,58]],[[3420,3280],[2,0]],[[1407,458],[-2,1],[-1,-2],[2,-1],[1,2]],[[3808,220],[-2,-5]],[[2662,1366],[35,27]],[[3592,1979],[33,-57]],[[3152,2401],[-1,-25]],[[3037,2360],[-25,-66]],[[207,1394],[88,-31],[74,-156],[76,-4],[33,-147],[-72,-15],[-148,-102],[-29,-87],[38,-187]],[[3391,2223],[-9,-11]],[[2806,1405],[66,-102]],[[3249,2351],[-42,35]],[[3208,2385],[40,-35]],[[186,3342],[-48,10],[-70,101]],[[189,3341],[-3,1]],[[186,3342],[2,-1]],[[188,3341],[1,0]],[[1339,3758],[-27,-16],[12,-100]],[[1524,3727],[0,-4]],[[1528,3727],[-4,1]],[[1533,3719],[-5,6]],[[3806,215],[40,-72],[-86,-22]],[[3820,243],[-12,-23]],[[3150,2399],[5,-1]],[[3651,1875],[38,-47]],[[3152,2401],[-2,-2]],[[3170,2447],[-16,-51]],[[2736,1410],[0,-25]],[[1250,3497],[2,2]],[[1250,3498],[0,-1]],[[2447,2619],[-227,121],[-119,-4],[-255,172],[-238,92],[-192,144],[-25,139],[-169,158],[28,56]],[[3625,1922],[26,-47]],[[3689,1828],[335,-391],[72,-40]],[[1525,3722],[25,-15]],[[3012,2294],[-43,-129],[125,-71]],[[3224,2507],[155,189],[-4,52],[-66,109],[101,172],[60,33],[-47,214]],[[1533,3703],[-18,7]],[[1471,3731],[-132,27]],[[1524,3723],[-53,8]],[[2582,1350],[13,2]],[[3189,2402],[-80,67]],[[0,1580],[89,-8],[46,-58],[31,16],[70,-27],[-29,-109]],[[3282,2321],[85,-74]],[[3368,2248],[-85,74]],[[2736,1410],[70,-5]],[[2736,1385],[-74,-19]],[[3053,2489],[-78,6]],[[771,4096],[22,-59],[55,37],[150,-108],[213,-30],[126,-84],[32,-45],[-30,-49]],[[1528,3734],[-13,-10]],[[1524,3723],[4,11]],[[1528,3734],[159,165],[50,145],[299,-43],[217,47],[196,1]],[[2975,2495],[-28,-14],[-111,26],[-120,70],[-83,-7],[-7,90],[-53,22],[-126,-63]],[[3574,2000],[18,-21]],[[2412,4096],[37,-47],[68,-201],[74,-63]],[[2743,3616],[302,-135],[106,1]],[[3151,3482],[15,-1]],[[3422,3283],[-2,0]],[[3422,3283],[-2,-1],[0,-2],[2,0]],[[3422,3280],[0,3]],[[3422,3280],[3,-1]],[[3425,3279],[-3,3]],[[3425,3279],[119,-70],[171,-56],[178,-191],[203,-278]],[[3336,3353],[-2,1],[-1,-2],[2,-1],[1,2]],[[1449,3652],[64,58]],[[1513,3710],[3,0]],[[1515,3710],[-2,0]],[[3207,2386],[-18,16],[19,-17]],[[3367,2247],[24,-25]],[[3391,2223],[-23,25]],[[3248,2350],[9,-7]],[[3260,2342],[-11,9]],[[3460,2131],[32,-37]],[[1426,1643],[3,-5]],[[1430,1637],[57,-20]],[[0,0],[0,4096],[4096,0],[0,-4096],[-4096,0]],[[4096,815],[0,-10],[-3,-1],[3,11]],[[4096,919],[0,-67],[-52,-14],[22,71],[-17,42],[-21,-12],[20,27],[24,-44],[24,-3]],[[4086,864],[-1,5],[-7,-1],[1,-5],[7,1]],[[4073,897],[7,-4],[6,5],[-8,5],[-5,-6]],[[3647,1875],[110,-7],[42,-74],[-47,-36],[-105,117]],[[3717,1836],[18,-8],[6,11],[-6,7],[-18,-10]],[[2643,1865],[72,73],[-15,9],[68,3],[-6,33],[18,2],[12,-24],[-52,-93],[-19,-11],[-78,8]],[[2713,1927],[9,-3],[3,5],[-4,5],[-8,-7]],[[2712,1864],[8,-2],[-2,10],[0,-4],[-6,-4]],[[2692,1888],[8,-3],[4,6],[-7,1],[-5,-4]],[[1098,1498],[79,-13],[16,51],[30,-97],[33,69],[15,-76],[-19,3],[-13,-48],[11,-38],[34,22],[-35,-54],[-53,35],[24,-3],[-48,85],[-74,64]],[[1147,1062],[23,19],[27,1],[22,47],[-24,-1],[-1,7],[37,19],[-17,23],[44,-50],[104,48],[-40,35],[-8,26],[27,-27],[23,10],[71,-120],[63,29],[9,21],[23,6],[-30,16],[23,28],[33,-9],[-14,-60],[-37,14],[19,-54],[-69,-1],[45,-38],[-46,-7],[4,-54],[-13,19],[-45,-7],[39,14],[-33,51],[-64,-9],[-4,-55],[-14,43],[24,32],[-63,29],[-22,-36],[-26,20],[-10,-34],[-36,24],[-44,-19]],[[651,3493],[46,26],[120,-62],[-22,-33],[-22,22],[-18,-43],[-73,40],[-4,48],[-27,2]],[[3724,2796],[20,35],[46,-20],[1,38],[69,-72],[-41,-1],[24,-49],[-35,6],[-15,33],[-61,-7],[15,29],[-23,8]],[[3759,4006],[11,37],[32,0],[1,50],[22,3],[24,0],[16,-95],[-51,-32],[-3,-32],[-33,2],[6,64],[-25,3]],[[3639,2902],[81,18],[-10,21],[46,-85],[-7,65],[58,-59],[-19,11],[-11,-46],[-99,3],[-8,23],[34,19],[-65,30]],[[297,2465],[80,45],[81,5],[-7,-15],[63,-31],[-15,-36],[45,-35],[-12,-39],[59,-17],[6,-24],[-63,-47],[-27,27],[-60,-11],[3,58],[-42,-34],[-26,19],[-5,45],[-65,22],[-15,68]],[[2399,2370],[58,102],[271,5],[1,-19],[77,3],[11,-129],[-371,-19],[-47,57]],[[2805,1191],[-88,2],[-99,129],[35,21],[0,99],[118,111],[43,88],[83,-116],[17,-88],[-52,-193],[-57,-53]],[[3139,2507],[85,-150],[227,-99],[107,-120],[-11,-33],[-86,-17],[-125,-83],[-58,-9],[-76,43],[-163,243],[-128,55],[29,81],[166,-31],[-65,124],[0,75],[40,3],[58,-82]],[[0,3446],[31,-25],[-6,23],[30,17],[-14,44],[23,4],[1,-87],[21,-27],[-28,7],[-30,-33],[-28,28],[0,49]],[[1300,3497],[69,61],[-3,67],[26,-4],[15,28],[35,-17],[-26,-31],[69,3],[11,29],[104,27],[57,-53],[14,22],[51,-25],[50,-50],[-105,-14],[-21,-65],[-103,45],[-54,-143],[-46,-1],[24,-13],[-3,-8],[-56,22],[-23,-18],[-31,40],[101,-8],[-32,35],[-23,-21],[13,31],[-15,-15],[11,20],[-23,14],[24,1],[-18,22],[27,-17],[-1,22],[-94,-9],[-4,5],[16,-1],[22,11],[6,8],[-48,-16],[35,22],[-8,25],[-43,-31]],[[1353,3543],[17,1],[28,25],[-22,1],[-7,-13],[-7,-9],[-9,-5]],[[1426,3444],[21,-16],[9,1],[-7,7],[-23,8]],[[1415,3440],[9,-4],[2,4],[-1,2],[-10,-2]],[[1421,3534],[8,-8],[17,5],[-13,12],[-12,-9]],[[1444,3552],[13,7],[22,-14],[-22,17],[-13,-10]],[[1369,3603],[15,-8],[7,10],[-17,7],[-5,-9]],[[1398,3555],[3,-5],[4,1],[-3,6],[-4,-2]],[[0,3655],[27,-41],[23,-108],[-50,26],[0,123]],[[2515,3665],[31,14],[-11,87],[81,28],[107,-63],[-16,-40],[36,-75],[-31,4],[-37,-46],[-16,39],[22,12],[-29,27],[-39,-9],[-40,29],[-53,-26],[-5,19]],[[3484,3099],[42,46],[-7,-50],[20,-9],[33,-5],[53,42],[-20,-61],[48,-40],[-48,18],[-51,-55],[-70,114]],[[1781,3720],[48,56],[30,-138],[-26,-27],[-39,23],[-13,86]],[[2860,3874],[31,54],[-12,96],[88,72],[21,0],[-69,-64],[17,-25],[-20,-34],[34,-13],[-61,-82],[-29,-4]]]}