{"objects":{"water":{"type":"GeometryCollection","geometries":[{"type":"Polygon","properties":{"source":"naturalearthdata.com","kind":"ocean","area":1576712559132672,"sort_rank":200,"min_zoom":0.0,"id":1},"arcs":[[5]]},{"type":"Polygon","properties":{"source":"naturalearthdata.com","kind":"lake","name":"Beysehir","area":1045572480,"sort_rank":200,"min_zoom":0.0,"id":2},"arcs":[[6]]},{"type":"MultiLineString","properties":{"source":"naturalearthdata.com","kind":"lake","sort_rank":367,"boundary":true,"min_zoom":0.0,"id":2},"arcs":[[7],[8]]},{"type":"LineString","properties":{"source":"naturalearthdata.com","kind":"ocean","sort_rank":205,"boundary":true,"min_zoom":0.0,"id":52},"arcs":[9]}]},"buildings":{"type":"GeometryCollection","geometries":[]},"places":{"type":"GeometryCollection","geometries":[{"type":"Point","properties":{"name:fa":"\u0645\u0627\u0646\u0627\u0648\u06af\u0627\u062a","kind":"locality","name":"Manavgat","kind_detail":"town","source":"openstreetmap.org","min_zoom":8.0,"old_name":"D\u00fc\u015fenbe;Pazarc\u0131;M\u00e1naua;Manaba;M\u00e1nausa","name:ru":"\u041c\u0430\u043d\u0430\u0432\u0433\u0430\u0442","id":36540470,"population":224664},"coordinates":[1466,691]},{"type":"Point","properties":{"source":"openstreetmap.org","kind":"locality","name":"Serik","kind_detail":"town","population":120790,"min_zoom":8.0,"id":203340671},"coordinates":[477,1165]},{"type":"Point","properties":{"kind":"locality","name":"Bey\u015fehir","kind_detail":"town","source":"openstreetmap.org","min_zoom":8.0,"old_name":"Be\u011f\u015fehr;Bey Sheher;Bey Shehr;K\u00e1ralis;Karalia;Karallia","id":129981601,"population":72347},"coordinates":[2299,3938]},{"type":"Point","properties":{"source":"openstreetmap.org","kind":"locality","name":"Seydi\u015fehir","kind_detail":"town","population":64825,"min_zoom":8.0,"id":27152738},"coordinates":[2643,3005]},{"type":"Point","properties":{"source":"openstreetmap.org","kind":"locality","name":"Bozk\u0131r","kind_detail":"town","population":26437,"min_zoom":8.0,"id":205307640},"coordinates":[3817,2161]},{"type":"Point","properties":{"name:fa":"\u0627\u06a9\u0633\u06a9\u06cc","kind":"locality","name":"Akseki","kind_detail":"town","name:ur":"\u0622\u0642\u0633\u06cc\u06a9\u06cc","source":"openstreetmap.org","min_zoom":8.0,"name:ru":"\u0410\u043a\u0441\u0435\u043a\u0438","id":27154703,"population":10729},"coordinates":[2486,1643]},{"type":"Point","properties":{"kind":"locality","name":"G\u00fcndo\u011fmu\u015f","kind_detail":"town","source":"openstreetmap.org","min_zoom":8.0,"old_name":"Eksere","id":252134905,"population":7309},"coordinates":[3090,791]},{"type":"Point","properties":{"kind":"locality","name":"Derebucak","kind_detail":"town","name:ur":"\u062f\u06cc\u0631\u0628\u0648\u062c\u0627\u06a9","source":"openstreetmap.org","min_zoom":8.0,"id":204844679,"population":6551},"coordinates":[1670,2901]},{"type":"Point","properties":{"source":"openstreetmap.org","kind":"locality","name":"Ah\u0131rl\u0131","kind_detail":"town","population":4561,"min_zoom":8.0,"id":205314501},"coordinates":[3441,2342]},{"type":"Point","properties":{"kind":"locality","name":"\u0130brad\u0131","kind_detail":"town","source":"openstreetmap.org","min_zoom":8.0,"old_name":"Ayd\u0131nkent;\u0130vradi","id":202994576,"population":2678},"coordinates":[1921,1824]},{"type":"Point","properties":{"source":"openstreetmap.org","kind":"locality","name":"Yal\u0131h\u00fcy\u00fck","kind_detail":"town","population":1509,"min_zoom":8.0,"id":2377755863},"coordinates":[3344,2568]}]},"transit":{"type":"GeometryCollection","geometries":[]},"pois":{"type":"GeometryCollection","geometries":[]},"boundaries":{"type":"GeometryCollection","geometries":[{"type":"LineString","properties":{"name:kg":"Turki","name:ka":"\u10d7\u10e3\u10e0\u10e5\u10d4\u10d7\u10d8","name:ko":"\ud130\ud0a4","name:cv":"\u0422\u0443\u0440\u0446\u0438","name:cu":"\u0422\u0477\u0440\u0446\u0438","name:kl":"Tyrkia","name:cs":"Turecko","name:cr":"\u1450\u1552\u146d","name:ki":"Turkey","name:kw":"Turki","name:kv":"\u0422\u0443\u0440\u0446\u0438\u044f","name:ku":"Tirkiye","name:tl":"Turkiya","name:ce":"\u0422\u0443\u0440\u0446\u0438","name:ta":"\u0ba4\u0bc1\u0bb0\u0bc1\u0b95\u0bcd\u0b95\u0bbf","name:tg":"\u0422\u0443\u0440\u043a\u0438\u044f","name:ca":"Turquia","name:te":"\u0c1f\u0c30\u0c4d\u0c15\u0c40","name:cy":"Twrci","name:qu":"Turkiya","name:da":"Tyrkiet","name:de":"T\u00fcrkei","source":"openstreetmap.org","name:kn":"\u0c9f\u0cb0\u0ccd\u0c95\u0cbf","name:dv":"\u078c\u07aa\u0783\u07aa\u0786\u07a9\u0788\u07a8\u078d\u07a7\u078c\u07b0","name:lv":"Turcija","name:lt":"Turkija","name:uz":"Turkiya","name:kk":"\u0422\u04af\u0440\u043a\u0438\u044f","name:tw":"Turkey","name:lb":"Tierkei","name:la":"Turcia","name:lg":"Buturuki","name:uk":"\u0422\u0443\u0440\u0435\u0447\u0447\u0438\u043d\u0430","name:ug":"\u062a\u06c8\u0631\u0643\u0649\u064a\u06d5 \u062c\u06c7\u0645\u06be\u06c7\u0631\u0649\u064a\u0649\u062a\u0649","name:li":"Turkije","name:ln":"Turk\u00ed","name:el":"\u03a4\u03bf\u03c5\u03c1\u03ba\u03af\u03b1","name:eo":"Turkujo","name:en":"Turkey","name":"T\u00fcrkiye","name:tk":"T\u00fcrki\u00fde","name:ee":"Turkey","name:th":"\u0e1b\u0e23\u0e30\u0e40\u0e17\u0e28\u0e15\u0e38\u0e23\u0e01\u0e35","name:eu":"Turkia","name:et":"T\u00fcrgi","name:es":"Turqu\u00eda","name:ay":"Turkiya","name:rm":"Tirchia","name:rn":"Turukiya","name:az":"T\u00fcrkiy\u0259","name:ie":"Turcia","name:id":"Turki","name:ik":"Turkey","name:ar":"\u062a\u0631\u0643\u064a\u0627","name:io":"Turkia","name:av":"\u0422\u0443\u0440\u043a\u0438\u044f","name:ak":"Turki","name:am":"\u1271\u122d\u12ad","name:it":"Turchia","name:an":"Turqu\u00eda","name:ru":"\u0422\u0443\u0440\u0446\u0438\u044f","name:ab":"\u04ac\u044b\u0440\u049b\u04d9\u0442\u04d9\u044b\u043b\u0430","name:af":"Turkye","name:zu":"ITheki","kind_detail":"2","name:za":"Dujwjgiz","name:zh-yue":"\u571f\u8033\u5176","name:zh":"\u571f\u8033\u5176","name:so":"Turki","name:sl":"Tur\u010dija","name:sk":"Turecko","name:ja":"\u30c8\u30eb\u30b3","name:si":"\u0dad\u0dd4\u0dbb\u0dca\u0d9a\u0dd2\u0dba","name:sh":"Turska","name:se":"Durka","name:sc":"Turkia","name:br":"Turkia","name:bs":"Turska","name:bn":"\u09a4\u09c1\u09b0\u09b8","name:bo":"\u0f4f\u0f74\u0f62\u0f0b\u0f40\u0f72\u0f0d","name:bi":"Turkey","name:sw":"Uturuki","name:be":"\u0422\u0443\u0440\u0446\u044b\u044f","name:su":"Turki","name:bg":"\u0422\u0443\u0440\u0446\u0438\u044f","name:ss":"IThekhi","name:ba":"\u0422\u04e9\u0440\u043a\u0438\u04d9","name:sq":"Turqia","name:jv":"Turki","name:sa":"\u0924\u0941\u0930\u094d\u0915\u0940","name:ia":"Turchia","name:pt":"Turquia","name:ps":"\u062a\u0648\u0631\u06a9\u064a\u0647","name:oc":"Turquia","min_zoom":8.0,"name:ro":"Turcia","name:pa":"\u0a24\u0a41\u0a30\u0a15\u0a40","name:os":"\u0422\u0443\u0440\u043a","name:or":"\u0b24\u0b41\u0b30\u0b4d\u0b15\u0b40","name:pl":"Turcja","sort_rank":262,"name:sr":"\u0422\u0443\u0440\u0441\u043a\u0430","osm_relation":true,"alt_name:ar":"\u062a\u0631\u0643\u064a\u0627","name:hi":"\u0924\u0941\u0930\u094d\u0915\u0940","name:sv":"Turkiet","name:he":"\u05d8\u05d5\u05e8\u05e7\u05d9\u05d4","name:ha":"Turkiyya","name:hy":"\u0539\u0578\u0582\u0580\u0584\u056b\u0561","name:ht":"Tiki","name:hu":"T\u00f6r\u00f6korsz\u00e1g","name:hr":"Turska","kind":"country","name:is":"Tyrkland","name:yi":"\u05d8\u05e2\u05e8\u05e7\u05d9\u05d9","name:yo":"T\u00fark\u00ec","name:mt":"Turkija","alt_name:eo":"Turkio","name:ms":"Turki","name:mr":"\u0924\u0941\u0930\u094d\u0915\u0938\u094d\u0924\u093e\u0928","name:my":"\u1010\u1030\u101b\u1000\u102e\u1014\u102d\u102f\u1004\u103a\u1004\u1036","official_name":"T\u00fcrkiye Cumhuriyeti","int_name":"Turkey","name:mg":"Torkia","name:vi":"Th\u1ed5 Nh\u0129 K\u1ef3","name:ml":"\u0d24\u0d41\u0d7c\u0d15\u0d4d\u0d15\u0d3f","name:mn":"\u0422\u0443\u0440\u043a","name:mi":"T\u0101kei","id":-174737,"name:mk":"\u0422\u0443\u0440\u0446\u0438\u0458\u0430","name:vo":"T\u00fcrk\u00e4n","name:fa":"\u062a\u0631\u06a9\u06cc\u0647","name:rw":"Turukiya","name:fi":"Turkki","name:ky":"\u0422\u04af\u0440\u043a\u0438\u044f \u0420\u0435\u0441\u043f\u0443\u0431\u043b\u0438\u043a\u0430\u0441\u044b","name:fo":"Turkaland","name:fr":"Turquie","name:fy":"Turkije","name:nl":"Turkije","name:nn":"Tyrkia","name:no":"Tyrkia","name:na":"Terki","name:ne":"\u091f\u0930\u094d\u0915\u0940","name:wa":"Tourkeye","name:ur":"\u062a\u0631\u06a9\u06cc","name:wo":"Tirki","name:nv":"T\u02bc\u00f3ok Bik\u00e9yah","name:ga":"An Tuirc","name:gd":"An Tuirc","name:gn":"Tuykia","name:gl":"Turqu\u00eda","maritime_boundary":true,"name:gv":"Yn Turkee","name:gu":"\u0aa4\u0ac1\u0ab0\u0acd\u0a95\u0ab8\u0acd\u0aa4\u0abe\u0aa8","name:tt":"\u0422\u04e9\u0440\u043a\u0438\u044f"},"arcs":[0]},{"type":"LineString","properties":{"name:right:hy":"\u053f\u0578\u057f\u0561\u0575\u0584","name:right:uk":"\u041a\u043e\u043d\u044c\u044f","id:left":-223134,"name:right:ru":"\u041a\u043e\u043d\u044c\u044f","name:left:uk":"\u0418\u0441\u043f\u0430\u0440\u0442\u0430","min_zoom":8.0,"name:left:ru":"\u042b\u0441\u043f\u0430\u0440\u0442\u0430","id:right":-223133,"id":-223134,"osm_relation":true,"name:right":"Konya","kind":"region","name":"Isparta - Konya","sort_rank":256,"kind_detail":"4","source":"openstreetmap.org","name:right:de":"Kotajk","name:left":"Isparta"},"arcs":[1]},{"type":"LineString","properties":{"name:right:uk":"\u0410\u043d\u0442\u0430\u043b\u0456\u044f","name:right:ru":"\u0410\u043d\u0442\u0430\u043b\u044c\u044f","name:left:uk":"\u0418\u0441\u043f\u0430\u0440\u0442\u0430","min_zoom":8.0,"name:left:ru":"\u042b\u0441\u043f\u0430\u0440\u0442\u0430","id:right":-223132,"id":-223134,"osm_relation":true,"name:right":"Antalya","name:right:lt":"Antalija","kind":"region","name":"Isparta - Antalya","sort_rank":256,"kind_detail":"4","source":"openstreetmap.org","id:left":-223134,"name:left":"Isparta"},"arcs":[2]},{"type":"LineString","properties":{"name:right:uk":"\u0410\u043d\u0442\u0430\u043b\u0456\u044f","name:right:ru":"\u0410\u043d\u0442\u0430\u043b\u044c\u044f","name:left:uk":"\u041a\u043e\u043d\u044c\u044f","min_zoom":8.0,"name:left:hy":"\u053f\u0578\u057f\u0561\u0575\u0584","name:left:ru":"\u041a\u043e\u043d\u044c\u044f","id:right":-223132,"id":-223133,"osm_relation":true,"name:right":"Antalya","name:right:lt":"Antalija","kind":"region","name":"Konya - Antalya","sort_rank":256,"kind_detail":"4","name:left:de":"Kotajk","source":"openstreetmap.org","id:left":-223133,"name:left":"Konya"},"arcs":[3]},{"type":"LineString","properties":{"kind":"region","name":"Antalya","name:lt":"Antalija","sort_rank":256,"kind_detail":"4","min_zoom":8.0,"source":"openstreetmap.org","maritime_boundary":true,"name:uk":"\u0410\u043d\u0442\u0430\u043b\u0456\u044f","name:ru":"\u0410\u043d\u0442\u0430\u043b\u044c\u044f","id":-223132,"osm_relation":true},"arcs":[4]}]},"roads":{"type":"GeometryCollection","geometries":[{"type":"MultiLineString","properties":{"sort_rank":380,"kind_detail":"primary","min_zoom":8.0,"kind":"major_road","source":"openstreetmap.org"},"arcs":[[10],[11],[12]]},{"type":"MultiLineString","properties":{"sort_rank":381,"source":"openstreetmap.org","min_zoom":8.0,"kind":"major_road","kind_detail":"trunk"},"arcs":[[13],[14],[15],[16],[17],[18]]},{"type":"MultiLineString","properties":{"kind":"major_road","network":"TR-roads","sort_rank":381,"landuse_kind":"urban_area","source":"openstreetmap.org","min_zoom":8.0,"kind_detail":"trunk","shield_text":"400","name:ru":"\u041c\u0435\u0440\u0441\u0438\u043d\u2014\u0410\u043d\u0442\u0430\u043b\u044c\u044f","ref":"D400"},"arcs":[[19],[20],[21],[22]]},{"type":"LineString","properties":{"kind":"major_road","network":"TR-roads","sort_rank":381,"kind_detail":"trunk","source":"openstreetmap.org","min_zoom":8.0,"landuse_kind":"urban_area","shield_text":"400","ref":"D400 Antalya Mersin yolu","id":246175658},"arcs":[23]},{"type":"MultiLineString","properties":{"kind":"major_road","network":"TR-roads","sort_rank":381,"kind_detail":"trunk","source":"openstreetmap.org","min_zoom":8.0,"shield_text":"400","name:ru":"\u0410\u043d\u0442\u0430\u043b\u044c\u044f\u2014\u041c\u0435\u0440\u0441\u0438\u043d","ref":"D400"},"arcs":[[24],[25],[26],[27]]},{"type":"MultiLineString","properties":{"kind":"major_road","network":"TR-roads","sort_rank":380,"kind_detail":"primary","source":"openstreetmap.org","min_zoom":8.0,"shield_text":null,"ref":"D330"},"arcs":[[28],[29],[30]]},{"type":"MultiLineString","properties":{"kind":"major_road","network":"TR-roads","sort_rank":380,"kind_detail":"primary","source":"openstreetmap.org","min_zoom":8.0,"shield_text":null,"ref":"D330;D695"},"arcs":[[31],[32],[33]]},{"type":"MultiLineString","properties":{"source":"openstreetmap.org","kind":"major_road","sort_rank":381,"kind_detail":"trunk","ref":"D400","min_zoom":8.0},"arcs":[[34],[35]]},{"type":"MultiLineString","properties":{"kind":"major_road","network":"TR-roads","sort_rank":380,"kind_detail":"primary","source":"openstreetmap.org","min_zoom":8.0,"shield_text":null,"ref":"687"},"arcs":[[36],[37],[38],[39],[40]]},{"type":"MultiLineString","properties":{"kind":"major_road","network":"TR-roads","sort_rank":381,"landuse_kind":"urban_area","source":"openstreetmap.org","min_zoom":8.0,"kind_detail":"trunk","shield_text":null,"ref":"D695"},"arcs":[[41],[42],[43],[44],[45]]},{"type":"LineString","properties":{"source":"openstreetmap.org","kind":"major_road","sort_rank":381,"kind_detail":"trunk","ref":"D695","min_zoom":8.0,"id":325017762},"arcs":[46]},{"type":"MultiLineString","properties":{"kind":"major_road","network":"TR-roads","sort_rank":380,"kind_detail":"primary","source":"openstreetmap.org","min_zoom":8.0,"shield_text":null,"ref":"D695"},"arcs":[[47],[48],[49],[50],[51],[52],[53],[54],[55],[56],[57]]},{"type":"MultiLineString","properties":{"kind":"major_road","network":"TR-roads","sort_rank":381,"landuse_kind":"urban_area","source":"openstreetmap.org","min_zoom":8.0,"kind_detail":"trunk","shield_text":"400","ref":"D400"},"arcs":[[58],[59],[60],[61],[62],[63],[64],[65],[66],[67],[68],[69],[70],[71]]},{"type":"MultiLineString","properties":{"source":"openstreetmap.org","kind":"major_road","kind_detail":"trunk","sort_rank":381,"landuse_kind":"urban_area","min_zoom":8.0},"arcs":[[72],[73]]},{"type":"LineString","properties":{"kind":"major_road","network":"TR-roads","sort_rank":380,"kind_detail":"primary","source":"openstreetmap.org","min_zoom":8.0,"shield_text":null,"id":181319781},"arcs":[74]},{"type":"LineString","properties":{"source":"openstreetmap.org","kind":"major_road","kind_detail":"trunk","sort_rank":381,"landuse_kind":"urban_area","ref":"D695","min_zoom":8.0},"arcs":[75]},{"type":"MultiLineString","properties":{"kind":"major_road","network":"TR-roads","sort_rank":380,"kind_detail":"primary","source":"openstreetmap.org","min_zoom":8.0,"landuse_kind":"urban_area","shield_text":null,"ref":"D695"},"arcs":[[76],[77]]},{"type":"LineString","properties":{"source":"openstreetmap.org","kind":"major_road","sort_rank":380,"kind_detail":"primary","ref":"D696","min_zoom":8.0},"arcs":[78]},{"type":"MultiLineString","properties":{"kind":"major_road","network":"TR-roads","sort_rank":380,"kind_detail":"primary","source":"openstreetmap.org","min_zoom":8.0,"landuse_kind":"park","shield_text":null,"ref":"D687"},"arcs":[[79],[80],[81]]},{"type":"MultiLineString","properties":{"kind":"major_road","network":"TR-roads","sort_rank":381,"kind_detail":"trunk","source":"openstreetmap.org","min_zoom":8.0,"shield_text":null,"ref":"D695"},"arcs":[[82],[83],[84],[85],[86],[87],[88],[89],[90],[91],[92],[93]]},{"type":"LineString","properties":{"kind":"major_road","sort_rank":380,"landuse_kind":"urban_area","source":"openstreetmap.org","min_zoom":8.0,"kind_detail":"primary","ref":"D696","id":172934479},"arcs":[94]},{"type":"MultiLineString","properties":{"kind":"major_road","network":"TR-roads","sort_rank":381,"kind_detail":"trunk","source":"openstreetmap.org","min_zoom":8.0,"shield_text":null,"ref":"D687"},"arcs":[[95],[96],[97],[98],[99]]},{"type":"LineString","properties":{"kind":"major_road","network":"TR-roads","sort_rank":381,"kind_detail":"trunk","source":"openstreetmap.org","min_zoom":8.0,"shield_text":null,"id":181319880},"arcs":[100]},{"type":"LineString","properties":{"kind":"major_road","network":"TR-roads","sort_rank":381,"landuse_kind":"residential","source":"openstreetmap.org","min_zoom":8.0,"kind_detail":"trunk","shield_text":"400","name:ru":"\u0410\u043d\u0442\u0430\u043b\u044c\u044f\u2014\u041c\u0435\u0440\u0441\u0438\u043d","ref":"D400"},"arcs":[101]},{"type":"LineString","properties":{"kind":"major_road","sort_rank":381,"landuse_kind":"urban_area","source":"openstreetmap.org","min_zoom":8.0,"kind_detail":"trunk","ref":"D400","id":277826240},"arcs":[102]},{"type":"MultiLineString","properties":{"kind":"major_road","network":"TR-roads","sort_rank":381,"kind_detail":"trunk","source":"openstreetmap.org","min_zoom":8.0,"landuse_kind":"park","shield_text":null,"ref":"D687"},"arcs":[[103],[104],[105]]},{"type":"MultiLineString","properties":{"kind":"major_road","network":"TR-roads","sort_rank":381,"kind_detail":"trunk","source":"openstreetmap.org","min_zoom":8.0,"shield_text":"400","name:ru":"\u0431\u0443\u043b\u044c\u0432\u0430\u0440 \u0410\u043d\u0442\u0430\u043b\u044c\u044f","ref":"D400"},"arcs":[[106],[107]]},{"type":"MultiLineString","properties":{"kind":"major_road","network":"TR-roads","sort_rank":381,"kind_detail":"trunk","source":"openstreetmap.org","min_zoom":8.0,"landuse_kind":"residential","shield_text":"400","ref":"D400"},"arcs":[[108],[109],[110],[111]]},{"type":"MultiLineString","properties":{"kind":"major_road","network":"TR-roads","sort_rank":381,"kind_detail":"trunk","source":"openstreetmap.org","min_zoom":8.0,"shield_text":"400","ref":"D400"},"arcs":[[112],[113],[114],[115],[116],[117],[118],[119],[120],[121],[122],[123],[124],[125],[126],[127],[128],[129],[130],[131],[132],[133],[134]]},{"type":"LineString","properties":{"source":"openstreetmap.org","kind":"major_road","kind_detail":"trunk","sort_rank":381,"landuse_kind":"urban_area","ref":"D696","min_zoom":8.0},"arcs":[135]},{"type":"MultiLineString","properties":{"kind":"major_road","network":"TR-roads","sort_rank":380,"kind_detail":"primary","source":"openstreetmap.org","min_zoom":8.0,"shield_text":null,"ref":"D687"},"arcs":[[136],[137],[138],[139],[140],[141],[142],[143],[144],[145],[146],[147],[148],[149]]},{"type":"MultiLineString","properties":{"kind":"major_road","network":"TR-roads","sort_rank":381,"kind_detail":"trunk","source":"openstreetmap.org","min_zoom":8.0,"shield_text":"400","name:ru":"\u041c\u0435\u0440\u0441\u0438\u043d\u2014\u0410\u043d\u0442\u0430\u043b\u044c\u044f","ref":"D400"},"arcs":[[150],[151],[152],[153],[154]]},{"type":"MultiLineString","properties":{"kind":"major_road","network":"TR-roads","sort_rank":380,"kind_detail":"primary","source":"openstreetmap.org","min_zoom":8.0,"shield_text":"350","ref":"D350"},"arcs":[[155],[156],[157],[158],[159]]},{"type":"MultiLineString","properties":{"source":"openstreetmap.org","kind":"major_road","sort_rank":381,"kind_detail":"trunk","ref":"D696","min_zoom":8.0},"arcs":[[160],[161],[162],[163],[164],[165],[166],[167],[168],[169],[170],[171],[172],[173],[174]]},{"type":"MultiLineString","properties":{"kind":"major_road","network":"TR-roads","sort_rank":381,"landuse_kind":"urban_area","source":"openstreetmap.org","min_zoom":8.0,"kind_detail":"trunk","shield_text":"400","name:ru":"\u0410\u043d\u0442\u0430\u043b\u044c\u044f\u2014\u041c\u0435\u0440\u0441\u0438\u043d","ref":"D400"},"arcs":[[175],[176],[177],[178]]},{"type":"MultiLineString","properties":{"kind":"major_road","network":"TR-roads","sort_rank":380,"kind_detail":"primary","source":"openstreetmap.org","min_zoom":8.0,"shield_text":null,"ref":"D340"},"arcs":[[179],[180],[181],[182],[183],[184],[185],[186],[187],[188],[189]]},{"type":"LineString","properties":{"kind":"major_road","network":"TR-roads","sort_rank":381,"landuse_kind":"residential","source":"openstreetmap.org","min_zoom":8.0,"kind_detail":"trunk","shield_text":"400","name:ru":"\u041c\u0435\u0440\u0441\u0438\u043d\u2014\u0410\u043d\u0442\u0430\u043b\u044c\u044f","ref":"D400"},"arcs":[190]}]},"earth":{"type":"GeometryCollection","geometries":[{"type":"Polygon","properties":{"sort_rank":10,"source":"naturalearthdata.com","min_zoom":0.0,"kind":"earth","area":95830134375},"arcs":[[191]]}]},"landuse":{"type":"GeometryCollection","geometries":[{"type":"Polygon","properties":{"kind":"residential","name":"Manavgat","area":15087900,"sort_rank":20,"source":"openstreetmap.org","min_zoom":8.0,"tier":2,"name:ru":"\u041c\u0430\u043d\u0430\u0432\u0433\u0430\u0442","id":81614402},"arcs":[[192]]},{"type":"Polygon","properties":{"source":"openstreetmap.org","kind":"park","area":17992700,"tier":2,"id":126621034,"min_zoom":8.0,"sort_rank":24},"arcs":[[193]]},{"type":"MultiPolygon","properties":{"source":"openstreetmap.org","kind":"park","tier":2,"area":1741868547,"sort_rank":24,"min_zoom":6.0,"osm_relation":true},"arcs":[[[194]]]},{"type":"MultiPolygon","properties":{"kind":"park","area":1355160064,"sort_rank":24,"source":"openstreetmap.org","min_zoom":4.0,"tier":2,"id":-1715974,"osm_relation":true},"arcs":[[[195]],[[196]]]},{"type":"MultiPolygon","properties":{"source":"naturalearthdata.com","kind":"urban_area","name":"","area":523129124,"sort_rank":11,"min_zoom":4.0},"arcs":[[[197]],[[198]],[[199]],[[200]],[[201]],[[202]],[[203]]]},{"type":"MultiPolygon","properties":{"source":"openstreetmap.org","kind":"residential","tier":2,"area":70214915,"sort_rank":20,"min_zoom":8.0},"arcs":[[[204]]]},{"type":"Polygon","properties":{"source":"openstreetmap.org","kind":"park","area":454054016,"tier":2,"id":126608854,"min_zoom":6.0,"sort_rank":24},"arcs":[[205]]}]}},"type":"Topology","transform":{"translate":[30.9375,36.5978891331],"scale":[0.0003433228,0.0002736087]},"arcs":[[[0,206],[129,10],[663,-128],[109,-88]],[[1101,2989],[48,251],[35,69],[2,151],[-35,85],[5,60],[-63,95],[-66,14],[-50,71],[58,79],[165,72],[86,99],[154,13],[-9,48]],[[0,2826],[159,-105],[303,131],[240,29],[205,146],[194,-38]],[[1101,2989],[169,-174],[225,-137],[70,-17],[228,-171],[149,33],[133,-11],[-7,76],[105,46],[15,35],[-27,33],[65,24],[75,106],[121,-10],[8,-121],[205,-129],[-1,-41],[62,-32],[77,-108],[61,-15],[82,-94],[-45,-75],[27,-127],[95,-187],[168,-134],[116,-137],[346,-199],[261,-259],[212,-343]],[[0,939],[205,9],[210,-59],[413,-75],[73,15],[273,-66],[140,-102],[-7,-55],[388,-130],[339,-205],[106,-102],[40,19],[117,-42],[28,13],[112,-98],[-6,-32],[44,4],[51,-33]],[[0,947],[6,0],[1169,-177],[103,-61],[7,-89],[84,-15],[550,-247],[42,-50],[49,-41],[221,-100],[61,-9],[35,4],[38,-36],[57,-82],[103,-44],[-2525,0],[0,947]],[[1597,3701],[-60,-10],[-25,74],[8,153],[-22,65],[3,43],[18,67],[-1,3],[681,0],[29,-50],[12,-104],[-92,-39],[-89,-28],[-180,-61],[-164,-21],[-31,-27],[13,-41],[11,-45],[-45,-14],[-66,35]],[[1597,3701],[-60,-10],[-25,74],[8,153],[-22,65],[3,43],[18,67],[-1,3]],[[2199,4096],[29,-50],[12,-104],[-92,-39],[-89,-28],[-180,-61],[-164,-21],[-31,-27],[13,-41],[11,-45],[-45,-14],[-66,35]],[[0,947],[6,0],[1169,-177],[103,-61],[7,-89],[84,-15],[550,-247],[42,-50],[49,-41],[221,-100],[61,-9],[35,4],[38,-36],[57,-82],[103,-44]],[[792,1100],[0,2]],[[2385,1605],[-14,-31]],[[2503,1905],[8,11]],[[136,1210]],[[176,1200],[0,-1]],[[178,1199],[0,1]],[[289,1187]],[[290,1186],[0,1]],[[1379,718],[3,-2]],[[551,1156],[-23,1]],[[1171,833],[-50,23]],[[1210,807],[-38,25]],[[1232,800],[-20,6]],[[2534,0]],[[0,1247],[419,-88]],[[549,1155],[220,-44],[75,-42],[61,4],[118,-152]],[[1108,860],[6,-2]],[[1233,799],[15,-5]],[[2321,4050],[-27,-47]],[[2296,4003],[25,47]],[[2321,4050],[62,46]],[[2250,4096],[37,-92]],[[2287,4004],[7,-3]],[[2294,4003],[-7,1]],[[2321,163],[0,-1]],[[2322,162],[0,1]],[[809,1111],[-19,-10]],[[791,1101],[18,10]],[[809,1111],[58,50]],[[867,1161],[10,10]],[[948,1279],[-40,-22],[1,-61],[-32,-25]],[[1802,477],[-14,-8],[-12,-11]],[[1777,457],[25,20]],[[2691,3095],[-17,20],[41,-71]],[[1776,456],[1,0],[-1,2]],[[1776,458],[-1,-1],[1,-1]],[[2737,2999],[-22,45]],[[1803,478],[155,4],[39,82],[56,44],[91,12],[66,63]],[[2231,689],[-21,-6]],[[2231,689],[153,2],[-2,34],[37,-1],[-19,52],[65,53],[22,67],[-59,73],[-39,123],[24,83],[-88,249],[77,50],[-39,56],[22,75],[-35,76],[20,0],[-9,25],[30,11],[26,62],[-30,81],[33,37],[214,26],[30,41],[26,-7],[-5,19],[33,-15],[94,120],[93,32],[-56,143]],[[2295,4001],[9,-2]],[[2304,3999],[-8,4]],[[2304,3999],[23,-22]],[[2327,3977],[24,-26]],[[2351,3951],[104,-133],[66,-164]],[[2521,3654],[-9,-92]],[[2512,3562],[71,-368]],[[2583,3194],[25,-35]],[[1170,833],[2,-2]],[[1172,832],[-1,1]],[[1212,806],[-2,1]],[[1210,806],[2,0]],[[1481,650],[86,-12]],[[1567,638],[-47,17],[-38,-4]],[[1720,536],[77,-77]],[[1797,460],[-76,76]],[[1922,355],[153,-104]],[[2075,251],[4,-2],[2,-2],[70,-40]],[[2153,209],[-72,38],[-2,2],[-4,2]],[[2075,251],[-115,65]],[[2349,148],[100,-98],[84,-50]],[[2534,0],[-85,51],[-65,75],[-35,22]],[[539,1157],[0,-1]],[[541,1157],[-1,0]],[[2293,4002],[2,-1],[1,1],[-1,1],[-2,-1]],[[2715,3044],[-24,51]],[[2609,3159],[-1,0]],[[2609,3159],[65,-44]],[[2711,3185],[-15,-53]],[[1905,3740],[-2,-18]],[[1908,3682],[-5,40]],[[1905,3740],[11,20]],[[1802,477]],[[2715,3044],[21,-44],[-47,-87],[34,-104],[1,0]],[[2724,2809],[8,-8]],[[2732,2801],[26,-25],[3,-75],[-37,4],[35,-81]],[[2760,2624],[-36,80],[37,-3],[-3,78],[-26,22]],[[2732,2801],[-8,7],[0,1]],[[2724,2809],[-33,103],[46,87]],[[2773,2577],[22,-73],[19,-19]],[[2814,2485],[46,-45],[1,-1]],[[2861,2439],[9,-66],[-24,-64],[3,-53],[22,117],[-9,65],[-1,1]],[[2861,2439],[-47,46]],[[2814,2485],[-18,18],[-23,75]],[[2696,3132],[-4,-11]],[[2225,3879],[13,7],[36,53]],[[2271,3935],[-45,-55]],[[2286,3963],[-2,-10]],[[2284,3953],[1,2],[10,46]],[[2294,4001],[-7,-38]],[[2288,3963],[-1,0],[-1,-1],[1,0],[1,1]],[[419,1159],[109,-2]],[[2358,149],[0,-1]],[[2226,3880],[-55,-31],[-79,7],[-154,-62],[-22,-34],[24,33],[153,62],[79,-6],[53,30]],[[2284,3953],[-13,-18]],[[2274,3939],[10,14]],[[1248,794],[132,-78]],[[1381,719],[-132,76]],[[1482,651],[-53,19],[-3,1]],[[1426,671],[-19,7],[-4,7]],[[1406,691],[20,-20]],[[1426,671],[3,-2],[52,-19]],[[647,1140],[-11,3]],[[1023,921],[85,-61]],[[1108,861],[-84,60]],[[1380,716],[7,-6]],[[1387,710],[19,-19]],[[1403,685],[-16,25]],[[1387,710],[-6,9]],[[1567,638],[36,-14]],[[1603,624],[56,-20],[1,-1]],[[1660,603],[53,-60],[2,-1],[5,-6]],[[1721,536],[-55,65],[-6,2]],[[1660,603],[-57,21]],[[1603,624],[-36,14]],[[1797,459],[19,-18],[58,-54],[3,-2]],[[1877,385],[45,-30]],[[1960,316],[-19,11],[-64,58]],[[1877,385],[-61,56],[-4,3],[-15,16]],[[2151,207],[21,-12],[14,-3]],[[2186,192],[136,-30]],[[2322,162],[6,-1],[21,-13]],[[2349,148],[-22,14],[-5,0]],[[2322,162],[-92,7],[-44,23]],[[2186,192],[-33,17]],[[2686,3106],[-1,1]],[[1223,1363],[-52,7],[-117,-98],[-76,27],[9,-30],[-39,10]],[[1394,1609],[25,40],[48,-31],[49,155],[-19,22],[23,40],[-10,50],[47,69],[-11,25],[73,10],[-16,44],[94,51],[44,-47],[-21,92],[-60,22],[-41,70],[8,43],[-99,168],[-17,158],[-47,132],[-8,106],[95,48],[57,-14],[28,17]],[[1621,2966],[6,36]],[[1621,2966],[15,-87]],[[1627,3002],[3,10]],[[1876,3211],[-246,-199]],[[1876,3211],[0,1]],[[1876,3212],[0,-1]],[[1876,3214],[0,-2]],[[1908,3682],[-81,-174],[28,-156],[32,-39],[-11,-99]],[[1876,3213],[0,1]],[[1876,3212]],[[1876,3212],[0,1],[0,-1]],[[1876,3212]],[[418,1160],[-418,87]],[[636,1143],[-85,13]],[[1024,921],[-118,153],[-78,0],[-181,66]],[[1121,856],[-13,5]],[[1249,795],[-17,5]],[[3821,2137],[-21,-2]],[[3801,2135],[20,2]],[[3861,2185],[-40,-48]],[[3859,2205],[2,-20]],[[4096,2257],[-123,-108],[-89,1],[3,52],[-28,3]],[[2711,3185],[26,264]],[[2737,3449],[58,171],[76,79],[1,1],[1,3]],[[2873,3703],[27,72],[81,106]],[[2981,3881],[6,8]],[[2987,3889],[1,1],[29,-3]],[[3017,3887],[25,-2],[1,0],[206,181],[1,3]],[[3250,4069],[11,27]],[[3261,4096],[-11,-27]],[[3250,4069],[-162,-143],[-45,-40],[-1,0],[-25,1]],[[3017,3887],[-30,2]],[[2987,3889],[-1,0],[-5,-8]],[[2981,3881],[-108,-178]],[[2873,3703],[-2,-3],[-1,-1],[-75,-79],[-58,-171]],[[2759,2624],[14,-47]],[[2773,2578],[-13,46]],[[528,1157],[21,-2]],[[1114,858],[56,-25]],[[1172,831],[38,-25]],[[1212,806],[21,-7]],[[2732,2986],[5,-1]],[[2737,2985],[-5,2]],[[3278,2878],[-236,23],[-305,84]],[[3278,2878],[10,-3]],[[3638,2235],[-140,194],[-75,25],[-33,88],[14,98],[-116,235]],[[3638,2235],[14,-9]],[[3770,2152],[-118,74]],[[3778,2146],[-8,6]],[[3794,2136],[-16,10]],[[3794,2136],[10,-2]],[[4096,1471],[-31,2],[-43,274],[-50,140],[18,10],[-21,30],[-89,23],[-45,62],[28,38],[-59,84]],[[528,1157],[-110,3]],[[2525,0],[-103,44],[-57,82],[-38,36],[-35,-4],[-61,9],[-221,100],[-49,41],[-42,50],[-550,247],[-84,15],[-7,89],[-103,61],[-1169,177],[-6,0],[0,3149],[4096,0],[0,-4096],[-1571,0]],[[1377,725],[28,-15],[-4,34],[34,-22],[63,30],[-12,-26],[64,5],[9,-29],[-15,-42],[-68,-10],[-77,30],[14,21],[-36,24]],[[1914,1724],[65,10],[23,-63],[67,-7],[-8,-93],[-49,6],[-98,147]],[[1565,4096],[5,0],[54,-40],[4,-39],[-97,-55],[-37,36],[-115,28],[-71,-73],[10,-110],[-47,-41],[-189,8],[-40,26],[-2,238],[20,22],[376,0],[12,-23],[117,23]],[[2240,4096],[44,-145],[-60,-73],[-41,-143],[-87,-55],[-177,19],[-60,-84],[-31,-5],[-27,-68],[-111,-38],[-49,-70],[-170,28],[-147,158],[1,91],[-27,55],[26,103],[-26,45],[10,39],[71,73],[115,-28],[37,-36],[99,76],[-60,58],[670,0]],[[1565,4096],[-117,-23],[-12,23],[129,0]],[[2652,65],[98,24],[48,-89],[-273,0],[-103,44],[-77,101],[114,107],[42,-23],[42,-111],[109,-53]],[[2172,247],[-22,-43],[-140,63],[-89,87],[52,18],[171,-48],[28,-77]],[[1672,547],[142,-32],[-29,-97],[-177,79],[54,78],[10,-28]],[[1585,698],[-49,-168],[-105,47],[6,63],[-54,109],[8,112],[102,-23],[92,-140]],[[1240,732],[-65,38],[-114,17],[18,77],[149,-26],[12,-106]],[[776,1186],[-23,-67],[-106,67],[-130,-41],[-4,54],[101,27],[0,41],[162,-81]],[[2685,2973],[-69,14],[-28,71],[32,158],[88,-97],[7,-75],[-30,-71]],[[417,1165],[46,64],[68,-32],[-3,-41],[-39,-5],[15,-54],[-18,36],[-59,1],[-10,31]],[[344,2580],[101,120],[41,114],[79,38],[86,-6],[44,22],[0,63],[36,65],[53,-87],[15,-98],[34,-10],[-31,-105],[-98,-126],[70,-4],[12,29],[42,-12],[26,-47],[-7,-149],[-57,-119],[12,-19],[-65,-41],[-2,-31],[23,-42],[59,-13],[-29,-51],[33,-21],[-14,-42],[46,-16],[-23,-51],[-49,-2],[-81,71],[-10,47],[-84,91],[-81,22],[3,33],[-82,17],[-64,47],[13,42],[-27,40],[-24,231]]]}