{"objects":{"water":{"type":"GeometryCollection","geometries":[]},"buildings":{"type":"GeometryCollection","geometries":[]},"places":{"type":"GeometryCollection","geometries":[{"type":"Point","properties":{"name:ka":"\u10d7\u10e3\u10e0\u10e5\u10db\u10d4\u10dc\u10d4\u10d7\u10d8","name:ko":"\ud22c\ub974\ud06c\uba54\ub2c8\uc2a4\ud0c4","name:cv":"\u0422\u0443\u0440\u043a\u043c\u0435\u043d\u0438\u0441\u0442\u0430\u043d","name:km":"\u1791\u17bd\u1782\u1798\u17c1\u1793\u17b8\u179f\u17d2\u178f\u1784\u17cb","name:kl":"Turkmenistani","name:cs":"Turkmenist\u00e1n","name:ki":"Turukimenistani","name:co":"Turkmenistan","name:kv":"\u0422\u0443\u0440\u043a\u043c\u0435\u043d\u0438\u0441\u0442\u0430\u043d","name:ku":"Tirkmenistan","name:ti":"\u1271\u122d\u12ad\u121c\u1292\u1235\u1273\u1295","name:ks":"\u062a\u064f\u0631\u0645\u0650\u0646\u0650\u0633\u062a\u0627\u0646","name:to":"Tekimenisiteni","name:tl":"Turkmenistan","name:ta":"\u0ba4\u0bc1\u0bb0\u0bcd\u0b95\u0bcd\u0bae\u0bc6\u0ba9\u0bbf\u0bb8\u0bcd\u0ba4\u0bbe\u0ba9\u0bcd","name:tg":"\u0422\u0443\u0440\u043a\u043c\u0430\u043d\u0438\u0441\u0442\u043e\u043d","name:ca":"Turkmenistan","name:te":"\u0c24\u0c41\u0c30\u0c4d\u0c15\u0c2e\u0c46\u0c38\u0c4d\u0c24\u0c3e\u0c28\u0c4d","name:cy":"Tyrcmenistan","name:hr":"Turkmenistan","name:da":"Turkmenistan","name:de":"Turkmenistan","name:dz":"\u0f4a\u0f71\u0f62\u0f40\u0f0b\u0f58\u0f7a\u0f53\u0f60\u0f72\u0f0b\u0f66\u0f4f\u0f71\u0f53","source":"openstreetmap.org","name:kn":"\u0ca4\u0cc1\u0cb0\u0ccd\u0c95\u0cae\u0cc6\u0ca8\u0cbf\u0cb8\u0ccd\u0ca5\u0cbe\u0ca8\u0ccd","name:dv":"\u078c\u07aa\u0783\u07aa\u0786\u07aa\u0789\u07ac\u0782\u07a8\u0790\u07b0\u078c\u07a7\u0782\u07b0","name:lv":"Turkmenist\u0101na","name:lt":"Turkm\u0117nistanas","name:uz":"Turkmaniston","name:kk":"\u0422\u04af\u0440\u0456\u043a\u043c\u0435\u043d\u0441\u0442\u0430\u043d","name:ur":"\u062a\u0631\u06a9\u0645\u0627\u0646\u0633\u062a\u0627\u0646","name:la":"Turcomannia","name:lg":"Takimenesitaani","name:uk":"\u0422\u0443\u0440\u043a\u043c\u0435\u043d\u0456\u0441\u0442\u0430\u043d","name:ug":"\u062a\u06c8\u0631\u0643\u0645\u06d5\u0646\u0649\u0633\u062a\u0627\u0646","name:li":"Turkmenistan","name:ln":"Tik\u025bm\u00e9nisit\u00e1","name:lo":"\u0ec0\u0e95\u0ea3\u0eb5\u0e81\u0ec0\u0ea1\u0e99\u0eb4\u0eaa\u0eb0\u0e96\u0eb2\u0e99","name:el":"\u03a4\u03bf\u03c5\u03c1\u03ba\u03bc\u03b5\u03bd\u03b9\u03c3\u03c4\u03ac\u03bd","name:eo":"Turkmenujo","name:en":"Turkmenistan","name":"T\u00fcrkmenistan","name:ee":"T\u025bkmenistan nutome","name:th":"\u0e1b\u0e23\u0e30\u0e40\u0e17\u0e28\u0e40\u0e15\u0e34\u0e23\u0e4c\u0e01\u0e40\u0e21\u0e19\u0e34\u0e2a\u0e16\u0e32\u0e19","name:eu":"Turkmenistan","name:es":"Turkmenist\u00e1n","name:ia":"Turkmenistan","name:rm":"Turkmenistan","name:rn":"Turukumenisitani","name:az":"T\u00fcrkm\u0259nistan","name:ie":"Turkmenistan","name:id":"Turkmenistan","name:ar":"\u062a\u0631\u0643\u0645\u0627\u0646\u0633\u062a\u0627\u0646","name:io":"Turkmenistan","name:av":"\u0422\u0443\u0440\u043a\u043c\u0435\u043d\u0438\u0441\u0442\u0430\u043d","name:ak":"T\u025bkm\u025bnistan","name:am":"\u1271\u122d\u12ad\u121c\u1292\u1235\u1273\u1295","name:it":"Turkmenistan","name:an":"Turkmenist\u00e1n","name:ru":"\u0422\u0443\u0440\u043a\u043c\u0435\u043d\u0438\u044f","name:rw":"Turukimenisitani","name:pl":"Turkmenistan","name:af":"Turkmenistan","name:zu":"i-Turkmenistan","name:ky":"\u0422\u04af\u0440\u043a\u043c\u04e9\u043d\u0441\u0442\u0430\u043d","name:zh-yue":"\u571f\u5eab\u66fc","name:zh":"\u571f\u5e93\u66fc\u65af\u5766","name:so":"Turkmenistan","name:sn":"Turkmenistan","name:sl":"Turkmenistan","name:sk":"Turkm\u00e9nsko","name:ja":"\u30c8\u30eb\u30af\u30e1\u30cb\u30b9\u30bf\u30f3","name:si":"\u0dad\u0dd4\u0dbb\u0dca\u0d9a\u0dca\u0db8\u0dd9\u0db1\u0dd2\u0dc3\u0dca\u0dae\u0dcf\u0db1\u0dba","name:sh":"Turkmenistan","name:sg":"Turkumenist\u00e4an","name:se":"Turkmenistan","name:sa":"\u0924\u0941\u0930\u094d\u0915\u092e\u093f\u0928\u093f\u0938\u094d\u0925\u093e\u0928","name:bs":"Turkmenistan","name:bm":"Turikimenisitani","name:bn":"\u09a4\u09c1\u09b0\u09cd\u0995\u09ae\u09c7\u09a8\u09bf\u09af\u09bc\u09be","name:bo":"\u0f4f\u0f74\u0f62\u0f40\u0f0b\u0f58\u0f7a\u0f0b\u0f53\u0f72\u0f0b\u0f66\u0f74\u0f4f\u0f53\u0f0d","name:br":"Turkmenistan","name:sw":"Turukimenistani","name:be":"\u0422\u0443\u0440\u043a\u043c\u0435\u043d\u0456\u0441\u0442\u0430\u043d","name:su":"Turkm\u00e9nistan","name:bg":"\u0422\u0443\u0440\u043a\u043c\u0435\u043d\u0438\u0441\u0442\u0430\u043d","name:ss":"IThumekhi","name:ba":"\u0422\u04e9\u0440\u04e9\u043a\u043c\u04d9\u043d\u0441\u0442\u0430\u043d","name:sq":"Turkmenistani","name:jv":"Turkmenistan","name:pt":"Turcomenist\u00e3o","name:ps":"\u062a\u0631\u06a9\u0645\u0646\u0633\u062a\u0627\u0646","name:oc":"Turcmenistan","min_zoom":2.0,"name:ro":"Turkmenistan","name:zh-min-nan":"Turkmenistan","name:os":"\u0422\u0443\u0440\u043a\u043c\u0435\u043d\u0438","name:or":"\u0b24\u0b41\u0b30\u0b4d\u0b15\u0b2e\u0b47\u0b28\u0b3f\u0b38\u0b4d\u0b24\u0b3e\u0b28\u0b4d","alt_name:pt":"Turquemenist\u00e3o","name:sr":"\u0422\u0443\u0440\u043a\u043c\u0435\u043d\u0438\u0441\u0442\u0430\u043d","name:pa":"\u0a24\u0a41\u0a30\u0a15\u0a2e\u0a47\u0a28\u0a38\u0a24\u0a3e\u0a28","name:hi":"\u0924\u0941\u0930\u094d\u0915\u092e\u0947\u0928\u093f\u0938\u094d\u0924\u093e\u0928","name:sv":"Turkmenistan","name:he":"\u05d8\u05d5\u05e8\u05e7\u05de\u05e0\u05d9\u05e1\u05d8\u05df","name:ha":"Turkumenistan","name:hy":"\u0539\u0578\u0582\u0580\u0584\u0574\u0565\u0576\u057d\u057f\u0561\u0576","name:ht":"Tirkmenistan","name:hu":"T\u00fcrkmeniszt\u00e1n","name:qu":"Turkminsuyu","population":5110023,"kind":"country","name:is":"T\u00farkmenistan","name:yi":"\u05d8\u05d5\u05e8\u05e7\u05de\u05e2\u05e0\u05d9\u05e1\u05d8\u05d0\u05df","name:yo":"Or\u00edl\u1eb9\u0301\u00e8de T\u1ecd\u1ecdkimenisita","name:mt":"Turkmenistan","alt_name:eo":"Turkmenistano;Turkmenio","name:ms":"Turkmenistan","name:mr":"\u0924\u0941\u0930\u094d\u0915\u092e\u0947\u0928\u093f\u0938\u094d\u0924\u093e\u0928","name:my":"\u1010\u102c\u1037\u1001\u103a\u1019\u1004\u103a\u1014\u1005\u1039\u1005\u1010\u1014\u103a\u1014\u102d\u102f\u1004\u103a\u1004\u1036","name:kw":"Pow Turkmen","name:mg":"Torkmenistan","name:ml":"\u0d24\u0d41\u0d7c\u0d15\u0d4d\u0d15\u0d4d\u0d2e\u0d46\u0d28\u0d3f\u0d38\u0d4d\u0d25\u0d3e\u0d7b","name:vi":"Turkmenistan","name:mn":"\u0422\u0443\u0440\u043a\u043c\u0435\u043d\u0438\u0441\u0442\u0430\u043d","id":249399440,"name:mk":"\u0422\u0443\u0440\u043a\u043c\u0435\u043d\u0438\u0441\u0442\u0430\u043d","name:vo":"Turkmen\u00e4n","name:fa":"\u062a\u0631\u06a9\u0645\u0646\u0633\u062a\u0627\u0646","name:ff":"Turkmenistaan","name:fi":"Turkmenistan","name:fo":"Turkmenistan","name:fr":"Turkm\u00e9nistan","name:fy":"Turkmenistan","int_name":"Turkmenistan","name:nl":"Turkmenistan","name:nn":"Turkmenistan","name:no":"Turkmenistan","name:na":"Turkmenistan","name:ne":"\u0924\u0941\u0930\u094d\u0915\u092e\u0947\u0928\u093f\u0938\u094d\u0924\u093e\u0928","name:wo":"Turkumenistaan","name:nv":"T\u02bc\u00f3okmen Bik\u00e9yah","name:ga":"An Tuircm\u00e9anast\u00e1in","name:gd":"Turcmanast\u00e0n","name:gl":"Turkmenist\u00e1n","name:gv":"Yn Turkmenistaan","name:gu":"\u0aa4\u0ac1\u0ab0\u0acd\u0a95\u0acd\u0aae\u0aa8\u0abf\u0ab8\u0acd\u0aa4\u0abe\u0aa8","name:tt":"\u0422\u04e9\u0440\u0435\u043a\u043c\u04d9\u043d\u0441\u0442\u0430\u043d"},"coordinates":[2288,2597]},{"type":"Point","properties":{"name:ja":"\u5317\u30db\u30e9\u30fc\u30b5\u30fc\u30f3","min_zoom":4.0,"name:uk":"\u041f\u0456\u0432\u043d\u0456\u0447\u043d\u0438\u0439 \u0425\u043e\u0440\u0430\u0441\u0430\u043d","name:ru":"\u0421\u0435\u0432\u0435\u0440\u043d\u044b\u0439 \u0425\u043e\u0440\u0430\u0441\u0430\u043d","name:pl":"Chorasan P\u00f3\u0142nocny","name:hu":"\u00c9szak-Hor\u00e1sz\u00e1n","name:hr":"Sjeverni Horasan","id":475733367,"kind":"region","name:en":"North Khorasan","name":"\u062e\u0631\u0627\u0633\u0627\u0646 \u0634\u0645\u0627\u0644\u06cc","kind_detail":"state","name:ku":"Xorasana Bakur","name:de":"Nord-Chorasan","source":"openstreetmap.org","name:fr":"Khorasan septentrional"},"coordinates":[512,879]},{"type":"Point","properties":{"name:fa":"\u0622\u062e\u0627\u0644","kind":"region","name":"Ahal","kind_detail":"state","source":"openstreetmap.org","min_zoom":4.0,"name:ru":"\u0410\u0445\u0430\u043b","name:hu":"Ahal tartom\u00e1ny","id":677412018},"coordinates":[1901,2095]},{"type":"Point","properties":{"source":"naturalearthdata.com","kind":"locality","name":"Ashgabat","country_capital":true,"population":727700,"min_zoom":5.0,"id":6817},"coordinates":[1553,1264]},{"type":"Point","properties":{"source":"naturalearthdata.com","kind":"locality","name":"Mary","population":178708,"region_capital":true,"min_zoom":5.0,"id":6274},"coordinates":[4066,937]}]},"transit":{"type":"GeometryCollection","geometries":[{"type":"MultiLineString","properties":{"kind":"train","name:en":"Tehran-Mashhad Railway","network":"\u0634\u0631\u0642","sort_rank":275,"source":"openstreetmap.org","min_zoom":6.0,"osm_relation":true,"name":"\u0631\u0627\u0647 \u0622\u0647\u0646 \u062a\u0647\u0631\u0627\u0646-\u0645\u0634\u0647\u062f"},"arcs":[[73],[74],[75],[76],[77],[78],[79],[80],[81],[82]]},{"type":"MultiLineString","properties":{"kind":"train","alt_name:en":"New Eurasian Continental Bridge","network":"Eurasian Land Bridge","alt_name:de":"Zweite eurasische Kontinentalbr\u00fccke","sort_rank":275,"name:de":"Neue eurasische Kontinentalbr\u00fccke","source":"openstreetmap.org","min_zoom":6.0,"osm_relation":true,"name":"New Eurasian Land Bridge"},"arcs":[[83],[84],[85],[86],[87],[88],[89],[90]]},{"type":"MultiLineString","properties":{"source":"openstreetmap.org","kind":"train","name":"Trans-Caspian Railway","sort_rank":275,"min_zoom":6.0,"osm_relation":true},"arcs":[[91],[92],[93],[94],[95],[96],[97]]}]},"pois":{"type":"GeometryCollection","geometries":[]},"boundaries":{"type":"GeometryCollection","geometries":[{"type":"MultiLineString","properties":{"source":"naturalearthdata.com","kind":"country","sort_rank":262,"kind_detail":"2","min_zoom":0.0,"id":325},"arcs":[[0],[1],[2],[3],[4],[5],[6],[7],[8],[9],[10],[11],[12],[13],[14],[15],[16],[17],[18],[19],[20],[21],[22],[23],[24],[25],[26],[27]]},{"type":"MultiLineString","properties":{"source":"naturalearthdata.com","kind":"region","sort_rank":256,"kind_detail":"4","min_zoom":5.0,"id":1004},"arcs":[[28],[29]]},{"type":"MultiLineString","properties":{"source":"naturalearthdata.com","kind":"region","sort_rank":256,"kind_detail":"4","min_zoom":5.0,"id":1005},"arcs":[[30],[31],[32],[33],[34],[35],[36],[37],[38],[39],[40]]},{"type":"LineString","properties":{"source":"naturalearthdata.com","kind":"region","sort_rank":256,"kind_detail":"4","min_zoom":5.0,"id":1006},"arcs":[41]},{"type":"LineString","properties":{"source":"naturalearthdata.com","kind":"region","sort_rank":256,"kind_detail":"4","min_zoom":5.0,"id":1457},"arcs":[42]},{"type":"MultiLineString","properties":{"source":"naturalearthdata.com","kind":"region","sort_rank":256,"kind_detail":"4","min_zoom":5.0,"id":1458},"arcs":[[43],[44],[45],[46],[47],[48],[49]]},{"type":"MultiLineString","properties":{"source":"naturalearthdata.com","kind":"region","sort_rank":256,"kind_detail":"4","min_zoom":5.0,"id":1459},"arcs":[[50],[51],[52],[53],[54],[55],[56],[57],[58],[59],[60],[61]]},{"type":"LineString","properties":{"source":"naturalearthdata.com","kind":"region","sort_rank":256,"kind_detail":"4","min_zoom":5.0,"id":1460},"arcs":[62]},{"type":"MultiLineString","properties":{"source":"naturalearthdata.com","kind":"region","sort_rank":256,"kind_detail":"4","min_zoom":5.0,"id":7415},"arcs":[[63],[64]]},{"type":"MultiLineString","properties":{"source":"naturalearthdata.com","kind":"region","sort_rank":256,"kind_detail":"4","min_zoom":5.0,"id":7421},"arcs":[[65],[66]]},{"type":"MultiLineString","properties":{"source":"naturalearthdata.com","kind":"region","sort_rank":256,"kind_detail":"4","min_zoom":5.0,"id":7422},"arcs":[[67],[68],[69],[70],[71]]},{"type":"LineString","properties":{"source":"naturalearthdata.com","kind":"region","sort_rank":256,"kind_detail":"4","min_zoom":5.0,"id":7423},"arcs":[72]}]},"roads":{"type":"GeometryCollection","geometries":[{"type":"LineString","properties":{"source":"naturalearthdata.com","kind":"minor_road","sort_rank":355,"kind_detail":"tertiary","min_zoom":5.0,"id":19737},"arcs":[98]},{"type":"LineString","properties":{"source":"naturalearthdata.com","kind":"major_road","sort_rank":379,"kind_detail":"secondary","min_zoom":3.0,"id":20966},"arcs":[99]},{"type":"LineString","properties":{"source":"naturalearthdata.com","kind":"major_road","sort_rank":379,"kind_detail":"secondary","min_zoom":3.0,"id":21137},"arcs":[100]},{"type":"LineString","properties":{"source":"naturalearthdata.com","kind":"major_road","sort_rank":379,"kind_detail":"secondary","min_zoom":4.0,"id":21235},"arcs":[101]},{"type":"LineString","properties":{"source":"naturalearthdata.com","kind":"highway","kind_detail":"motorway","sort_rank":383,"landuse_kind":"urban_area","min_zoom":3.0,"id":21533},"arcs":[102]},{"type":"LineString","properties":{"source":"naturalearthdata.com","kind":"highway","kind_detail":"motorway","sort_rank":383,"landuse_kind":"urban_area","min_zoom":3.0,"id":21533},"arcs":[103]},{"type":"MultiLineString","properties":{"source":"naturalearthdata.com","kind":"highway","sort_rank":383,"kind_detail":"motorway","min_zoom":3.0,"id":21533},"arcs":[[104],[105]]},{"type":"MultiLineString","properties":{"source":"naturalearthdata.com","kind":"highway","kind_detail":"motorway","sort_rank":383,"landuse_kind":"urban_area","min_zoom":3.0,"id":21584},"arcs":[[106],[107]]},{"type":"LineString","properties":{"source":"naturalearthdata.com","kind":"highway","sort_rank":383,"kind_detail":"motorway","min_zoom":3.0,"id":21584},"arcs":[108]},{"type":"LineString","properties":{"source":"naturalearthdata.com","kind":"major_road","kind_detail":"secondary","sort_rank":379,"landuse_kind":"urban_area","min_zoom":4.0,"id":21781},"arcs":[109]},{"type":"LineString","properties":{"source":"naturalearthdata.com","kind":"major_road","sort_rank":379,"kind_detail":"secondary","min_zoom":4.0,"id":21781},"arcs":[110]},{"type":"LineString","properties":{"source":"naturalearthdata.com","kind":"major_road","kind_detail":"secondary","sort_rank":379,"landuse_kind":"urban_area","min_zoom":3.0,"id":21814},"arcs":[111]},{"type":"LineString","properties":{"source":"naturalearthdata.com","kind":"major_road","kind_detail":"secondary","sort_rank":379,"landuse_kind":"urban_area","min_zoom":3.0,"id":21949},"arcs":[112]},{"type":"LineString","properties":{"source":"naturalearthdata.com","kind":"major_road","sort_rank":379,"kind_detail":"secondary","min_zoom":3.0,"id":21949},"arcs":[113]},{"type":"LineString","properties":{"source":"naturalearthdata.com","kind":"major_road","sort_rank":379,"kind_detail":"secondary","min_zoom":4.0,"id":22029},"arcs":[114]},{"type":"LineString","properties":{"source":"naturalearthdata.com","kind":"major_road","kind_detail":"secondary","sort_rank":379,"landuse_kind":"urban_area","min_zoom":3.0,"id":22045},"arcs":[115]},{"type":"LineString","properties":{"source":"naturalearthdata.com","kind":"major_road","sort_rank":379,"kind_detail":"secondary","min_zoom":3.0,"id":22045},"arcs":[116]},{"type":"LineString","properties":{"source":"naturalearthdata.com","kind":"major_road","kind_detail":"secondary","sort_rank":379,"landuse_kind":"national_park","min_zoom":3.0,"id":22105},"arcs":[117]},{"type":"LineString","properties":{"source":"naturalearthdata.com","kind":"major_road","sort_rank":379,"kind_detail":"secondary","min_zoom":3.0,"id":22105},"arcs":[118]},{"type":"MultiLineString","properties":{"source":"naturalearthdata.com","kind":"major_road","kind_detail":"secondary","sort_rank":379,"landuse_kind":"urban_area","min_zoom":3.0,"id":22110},"arcs":[[119],[120]]},{"type":"MultiLineString","properties":{"source":"naturalearthdata.com","kind":"major_road","sort_rank":379,"kind_detail":"secondary","min_zoom":3.0,"id":22110},"arcs":[[121],[122]]},{"type":"LineString","properties":{"source":"naturalearthdata.com","kind":"major_road","kind_detail":"secondary","sort_rank":379,"landuse_kind":"urban_area","min_zoom":3.0,"id":22154},"arcs":[123]},{"type":"LineString","properties":{"source":"naturalearthdata.com","kind":"major_road","sort_rank":379,"kind_detail":"secondary","min_zoom":3.0,"id":22154},"arcs":[124]},{"type":"LineString","properties":{"source":"naturalearthdata.com","kind":"major_road","kind_detail":"secondary","sort_rank":379,"landuse_kind":"urban_area","min_zoom":3.0,"id":22169},"arcs":[125]},{"type":"LineString","properties":{"source":"naturalearthdata.com","kind":"major_road","kind_detail":"secondary","sort_rank":379,"landuse_kind":"urban_area","min_zoom":3.0,"id":22169},"arcs":[126]},{"type":"MultiLineString","properties":{"source":"naturalearthdata.com","kind":"major_road","sort_rank":379,"kind_detail":"secondary","min_zoom":3.0,"id":22169},"arcs":[[127],[128]]},{"type":"LineString","properties":{"source":"naturalearthdata.com","kind":"major_road","kind_detail":"secondary","sort_rank":379,"landuse_kind":"urban_area","min_zoom":3.0,"id":22171},"arcs":[129]},{"type":"LineString","properties":{"source":"naturalearthdata.com","kind":"major_road","sort_rank":379,"kind_detail":"secondary","min_zoom":3.0,"id":22171},"arcs":[130]},{"type":"LineString","properties":{"source":"naturalearthdata.com","kind":"major_road","kind_detail":"secondary","sort_rank":379,"landuse_kind":"urban_area","min_zoom":4.0,"id":22264},"arcs":[131]},{"type":"LineString","properties":{"source":"naturalearthdata.com","kind":"major_road","sort_rank":379,"kind_detail":"secondary","min_zoom":4.0,"id":22264},"arcs":[132]},{"type":"LineString","properties":{"source":"naturalearthdata.com","kind":"major_road","kind_detail":"secondary","sort_rank":379,"landuse_kind":"urban_area","min_zoom":3.0,"id":22265},"arcs":[133]},{"type":"LineString","properties":{"source":"naturalearthdata.com","kind":"major_road","kind_detail":"secondary","sort_rank":379,"landuse_kind":"urban_area","min_zoom":3.0,"id":22265},"arcs":[134]},{"type":"LineString","properties":{"source":"naturalearthdata.com","kind":"major_road","kind_detail":"secondary","sort_rank":379,"landuse_kind":"urban_area","min_zoom":3.0,"id":22265},"arcs":[135]},{"type":"MultiLineString","properties":{"source":"naturalearthdata.com","kind":"major_road","sort_rank":379,"kind_detail":"secondary","min_zoom":3.0,"id":22265},"arcs":[[136],[137]]},{"type":"LineString","properties":{"source":"naturalearthdata.com","kind":"highway","kind_detail":"motorway","sort_rank":383,"landuse_kind":"urban_area","min_zoom":3.0,"id":22330},"arcs":[138]},{"type":"LineString","properties":{"source":"naturalearthdata.com","kind":"highway","sort_rank":383,"kind_detail":"motorway","min_zoom":3.0,"id":22330},"arcs":[139]},{"type":"LineString","properties":{"source":"naturalearthdata.com","kind":"minor_road","sort_rank":355,"kind_detail":"tertiary","min_zoom":5.0,"id":22763},"arcs":[140]},{"type":"LineString","properties":{"source":"naturalearthdata.com","kind":"minor_road","sort_rank":355,"kind_detail":"tertiary","min_zoom":5.0,"id":22915},"arcs":[141]},{"type":"LineString","properties":{"source":"naturalearthdata.com","kind":"major_road","sort_rank":379,"kind_detail":"secondary","min_zoom":4.0,"id":23034},"arcs":[142]},{"type":"LineString","properties":{"source":"naturalearthdata.com","kind":"highway","sort_rank":383,"kind_detail":"motorway","min_zoom":3.0,"id":23148},"arcs":[143]},{"type":"LineString","properties":{"source":"naturalearthdata.com","kind":"major_road","sort_rank":379,"kind_detail":"secondary","min_zoom":3.0,"id":48452},"arcs":[144]}]},"earth":{"type":"GeometryCollection","geometries":[{"type":"Polygon","properties":{"sort_rank":10,"source":"naturalearthdata.com","min_zoom":0.0,"kind":"earth","area":1568366174169},"arcs":[[145]]}]},"landuse":{"type":"GeometryCollection","geometries":[{"type":"MultiPolygon","properties":{"source":"naturalearthdata.com","kind":"urban_area","name":"","area":12483498068,"sort_rank":11,"min_zoom":4.0},"arcs":[[[146]],[[147]],[[148]],[[149]],[[150]],[[151]],[[152]],[[153]],[[154]],[[155]],[[156]],[[157]],[[158]],[[159]],[[160]],[[161]]]},{"type":"Polygon","properties":{"kind":"national_park","protect_class":"2","area":1388290048,"sort_rank":18,"operator":"Department of Environment, Iran","source":"openstreetmap.org","min_zoom":3.0,"tier":1,"id":434996205},"arcs":[[162]]},{"type":"Polygon","properties":{"kind":"nature_reserve","area":29092700160,"sort_rank":23,"source":"openstreetmap.org","min_zoom":4.0,"tier":2,"id":-6313264,"osm_relation":true},"arcs":[[163]]}]}},"type":"Topology","transform":{"translate":[56.25,36.5978891331],"scale":[0.001373291,0.0010698264]},"arcs":[[[908,1238],[-105,42],[-19,25],[15,49],[1,16],[-3,16],[-16,23],[-8,28],[-24,26],[-8,13],[-14,32],[-16,29],[-4,8],[0,7],[-2,6],[-8,6],[-16,5],[-7,1]],[[674,1570],[-8,-1],[-13,-6],[-6,-7],[-3,-3],[-14,-25],[-9,-10],[-24,-16],[-10,-9],[-13,-7]],[[574,1486],[-15,2],[-29,12],[-109,21],[-11,4],[-25,14],[-29,24],[-7,1]],[[349,1564],[-35,-6],[-58,-26],[-12,-2]],[[244,1530],[-10,4],[-9,8],[-10,6],[-12,3]],[[203,1551],[-67,-2],[-27,-10],[-24,-18],[-46,-43],[-5,-12],[20,-23],[4,-17],[-3,-17],[-7,-15],[-12,-8],[-36,-7]],[[992,1233],[-37,11],[-12,1]],[[943,1245],[-13,-2],[-11,-3],[-11,-2]],[[1084,1215],[-3,1],[-3,0],[-10,6],[-9,8],[-10,6],[-11,0]],[[1038,1236],[-10,-3],[-36,0]],[[1129,1187],[-11,4],[-5,6],[-6,14],[-5,6],[-6,1]],[[1096,1218],[-12,-3]],[[1545,965],[-10,3],[-19,14],[-10,4],[-56,9],[-13,5],[-12,10],[-4,11],[0,13],[-2,17],[-2,7],[-12,22],[0,7],[1,7],[0,6],[-5,6],[-13,7],[-11,2],[-25,3],[-48,11],[-114,56],[-25,7]],[[1165,1192],[-12,-1],[-12,-3],[-12,-1]],[[1771,977],[-17,2],[-31,13],[-37,33],[-12,7]],[[1674,1032],[-14,-1],[-11,-9],[-9,-13],[-7,-16],[-9,-15],[-13,-6],[-66,-7]],[[2172,857],[-15,1],[-98,72],[-23,25],[-8,5],[-21,3],[-10,3],[-10,8],[-29,13],[-57,13],[-43,25]],[[1858,1025],[-4,-6],[-2,-14],[-10,-13],[-8,-2],[-7,-1]],[[1827,989],[-15,3]],[[1812,992],[-9,0],[-5,-4],[-5,-6],[-6,-4],[-16,-1]],[[2373,553],[-6,1],[-6,3],[-6,5],[-4,5],[-12,3],[-2,7],[2,7],[1,7],[1,2],[2,3],[1,5],[-4,6],[-14,16],[-45,39],[-9,12],[-14,65],[-2,19],[3,11],[4,9],[3,8],[-2,8],[-4,10],[2,21],[-3,12],[-15,20],[-14,15],[-17,4]],[[2213,876],[-41,-19]],[[2443,492],[-10,8],[-5,15],[-3,18],[-5,14],[-13,14],[-10,2]],[[2397,563],[-24,-10]],[[2980,37],[-24,14],[-15,27],[-21,57],[-16,26],[-77,97],[-33,52],[-28,60],[-21,30],[-28,12],[-59,11],[-27,16],[-48,42],[-105,35],[-8,0]],[[2470,516],[-6,-3],[-9,-14],[-5,-6],[-7,-1]],[[3587,0],[-1,4],[-6,32],[-30,4],[-36,7]],[[3514,47],[-75,-2],[-86,-1],[-156,-3],[-101,-2],[-116,-2]],[[3475,2726],[-337,-27]],[[3138,2699],[-31,3]],[[3475,2726],[-4,-147],[-9,-15],[-7,-18],[-47,-11],[-93,-28],[-24,-30],[-45,-256],[-5,-15],[-7,-17],[-13,-7],[-45,-7],[-13,-5],[-6,-12],[-4,-14],[-15,-96],[-4,-16],[-6,-15],[-12,-5],[-12,-1]],[[3104,2011],[-39,4]],[[3065,2015],[90,-380],[15,-42],[182,-192],[29,-44],[59,-119],[6,-20],[-8,-9],[-12,-5],[-30,-4],[-12,-4],[-6,-5],[2,-13],[36,-104],[6,-28],[-8,-10],[-12,-6],[-15,0],[-7,-28],[1,-48],[52,-212],[3,-3],[4,-2],[10,-3],[9,0]],[[3504,736],[64,-4],[11,-2],[5,-2],[4,-3],[4,-3],[7,-9],[37,-68],[2,-2]],[[3489,733],[15,3]],[[3473,735],[16,-2]],[[3459,734],[14,1]],[[3679,526],[-11,1],[-10,3],[-5,2],[-8,4],[-7,7],[-8,9],[-3,7],[-1,46],[-4,21],[-8,21],[-17,33],[-11,15],[-14,14],[-5,3],[-5,2],[-33,7]],[[3529,721],[-10,-1],[-15,-3],[-34,-1],[-5,-1],[-4,-3],[1,-6],[135,-226],[26,-43],[169,-291],[35,-84],[0,-62]],[[3706,665],[32,-7],[12,-6],[4,-3],[3,-4],[4,-6],[2,-5],[1,-5],[2,-10],[0,-12],[-1,-6],[-3,-11],[-5,-14],[-7,-13],[-9,-13],[-4,-4],[-19,-12],[-18,-6],[-10,-2],[-11,0]],[[3638,643],[3,2],[8,5],[9,5],[22,8],[5,1],[21,1]],[[3475,2726],[146,-13],[25,-25],[111,-114],[138,-142],[201,-212]],[[666,3266],[-12,39],[-3,5],[-5,7],[-21,12],[-21,15],[30,90],[6,30],[-32,85],[-31,121],[-10,28],[-42,53],[-21,18],[-18,22],[-5,9],[-3,7],[-9,32],[-84,211],[-3,4],[-23,23],[-13,19]],[[666,3266],[-87,-44],[-39,-29],[-4,-7],[-2,-7],[0,-8],[2,-7],[3,-8],[8,-16],[2,-7],[10,-56],[61,-231],[1,-10],[-4,-7],[-5,-6],[-9,-6],[-46,-17],[-18,-10],[-4,-4],[-6,-11],[-221,-722],[-4,-23],[-1,-13],[-2,-8],[-3,-7],[-20,-35],[-4,-9],[-1,-8],[3,-19],[-1,-10],[-2,-5],[-5,-4],[-12,-5],[-6,-4],[-5,-6],[-3,-7],[-1,-8],[-7,-86],[1,-15],[2,-6],[5,-7],[4,-3],[4,-2],[4,-1]],[[258,1763],[8,-1],[11,-4],[42,-20],[11,-4],[9,0]],[[254,1762],[4,1]],[[466,1747],[5,-2],[5,-6],[9,-30],[3,-8],[15,-24],[11,-11],[70,-48],[62,-62],[1,0]],[[426,1736],[7,1],[21,9],[12,1]],[[390,1747],[10,-2],[9,-4],[10,-5],[7,0]],[[339,1734],[37,11],[14,2]],[[2792,2791],[-6,1],[-5,3],[-42,49],[-5,9],[-2,11],[0,300],[-2,11],[-3,4],[-10,1],[-397,1],[-183,3],[-55,12],[-43,30],[-10,8],[-36,49],[-290,71],[-32,13],[-49,13],[-57,0]],[[1565,3380],[-6,-1],[-4,-1],[-3,-3],[-2,-4],[-1,-5],[-1,-5],[3,-24],[-2,-5],[-3,-5],[-14,-2]],[[1532,3325],[-79,8]],[[1453,3333],[-177,-51],[-86,-11]],[[1190,3271],[-295,5]],[[895,3276],[-45,-18],[-17,-10],[-27,-27],[-5,-4],[-6,-1],[-45,-6]],[[750,3210],[-7,1],[-5,2],[-4,2],[-4,3],[-3,3],[-5,7],[-6,6],[-3,3],[-5,2],[-27,7],[-4,2],[-3,3],[-3,4],[-5,11]],[[3014,2688],[-24,3],[-2,4],[-2,8],[-3,10],[-1,4],[-8,8],[-7,6],[-4,4],[-3,5],[-2,4],[-6,22],[-4,32],[-3,9],[-2,6],[-4,6],[-8,10],[-7,3],[-5,1]],[[2919,2833],[-4,-2],[-15,-9],[-8,-1]],[[2892,2821],[-10,0],[-20,6],[-10,0]],[[2852,2827],[-7,0],[-3,-3],[-3,-4],[-9,-11],[-4,-4],[-3,-3],[-8,-4],[-9,-4],[-14,-3]],[[3107,2702],[-93,-14]],[[3107,2702],[-6,7],[-3,171],[-5,300],[-4,282],[-2,12],[-3,10],[-10,3],[-144,5],[-10,2],[-4,6],[-1,10],[-4,586]],[[381,0],[-7,27],[-30,18],[-23,1]],[[321,46],[-14,-4]],[[0,107],[49,-44],[41,-14],[70,-12],[36,-15]],[[196,22],[111,20]],[[1353,326],[-13,26],[-20,23],[-36,26],[-3,32],[29,38],[44,132],[26,37],[7,28],[1,19],[7,16],[19,24],[16,30],[-4,38],[-21,42],[-66,63],[-16,39],[-10,31],[-13,18],[-327,16],[-28,20],[12,32],[8,35],[0,41],[28,28],[88,56]],[[1327,34],[55,14],[27,26],[25,73],[-6,30],[-26,15],[-10,15],[5,26],[43,48],[-3,22],[-24,12],[-14,23],[-7,24]],[[1392,362],[-9,-5],[-11,-28],[-19,-3]],[[527,347],[116,-6],[482,-275],[202,-32]],[[307,42],[2,25],[-5,33],[5,43],[42,58],[176,146]],[[0,914],[39,55],[-14,57],[-25,19]],[[515,151],[-321,-54]],[[194,97],[-194,-37]],[[975,0],[-274,112],[-94,24],[-132,22],[-4,0],[-277,-61]],[[3500,526],[0,-9]],[[3502,874],[11,19]],[[3558,150],[-41,61]],[[3568,110],[-9,40]],[[3570,105],[-2,5]],[[3609,0],[2,21],[-41,84]],[[4084,888],[-31,36],[23,7]],[[0,2232],[236,-122]],[[251,2085],[-15,24]],[[259,2077],[-8,7]],[[1236,1469],[130,-81],[32,9],[77,-43],[17,-42]],[[2245,886],[-253,181],[-257,144],[-169,45]],[[3447,840],[-323,-84],[-281,-165]],[[4063,937],[-427,18],[-189,-115]],[[4076,931],[20,2]],[[1492,1312],[-17,43],[-316,147],[-409,305],[-449,241],[-205,152],[-96,32]],[[1408,1362],[1,0]],[[1409,1362],[9,-6]],[[1418,1356],[2,-1]],[[3447,840],[-323,-84],[-281,-165]],[[4063,937],[-427,18],[-189,-115]],[[4076,931],[20,2]],[[4096,4027],[-1,14],[-3,23],[-11,32]],[[0,2245],[8,-8]],[[8,2237],[6,-4],[30,-4],[60,-19],[15,-8],[66,-39],[24,-15],[42,-31],[24,-11],[42,-27],[39,-35],[33,-23],[36,-27]],[[0,1874],[56,39],[9,7],[-9,24],[-18,30],[-12,39],[-9,15],[6,16],[9,8],[0,19],[-9,15],[-3,12],[15,19],[3,12],[-15,34],[-9,39],[-12,23],[6,12]],[[1455,1323],[-18,12],[-21,19],[-30,11],[-7,4]],[[1251,1446],[-6,4],[-33,16],[-4,2]],[[1208,1468],[-17,9],[-39,19],[-54,43],[-30,11],[-27,8],[-36,16],[-18,7],[-60,50],[-12,12],[-58,58],[-48,42],[-24,12]],[[1379,1369],[-26,16],[-27,15],[-33,15],[-42,31]],[[1455,1323],[12,-4]],[[1473,1316],[12,-5],[36,-34],[30,-20]],[[1467,1319],[6,-3]],[[1551,1257],[-3,-50],[0,-15]],[[1548,1192],[0,-16],[-3,-15],[-12,-39],[0,-15],[6,-15],[9,-43],[12,-15],[6,-27],[0,-16],[-9,-19]],[[4062,930],[24,4],[10,0]],[[788,814],[-12,19]],[[776,833],[-3,4],[-12,12],[-15,7],[-27,8],[-75,0],[-15,4],[-30,12],[-27,19],[-42,19]],[[1557,972],[24,-19],[3,-16],[-18,-42],[0,-15],[12,-16],[12,-11],[6,-12],[3,-31],[12,-11],[15,-4],[15,-12],[9,-50],[9,-4]],[[3107,729],[11,-2]],[[3118,727],[7,-2],[12,0],[24,-11]],[[32,704],[-32,-8]],[[530,918],[-9,-11],[-18,-24],[-39,-27],[-30,-19],[-60,-31],[-27,-15],[-15,-16],[-21,-3],[-39,7],[-21,4],[-42,-4],[-33,-23],[-21,-31],[-15,0],[-48,4],[-36,-27],[-15,4],[-9,-2]],[[4062,930],[6,-27],[6,-12],[1,0]],[[4082,884],[4,-4],[3,-2]],[[4075,891],[7,-7]],[[4089,878],[7,-2]],[[4062,930],[-21,-13]],[[4041,917],[-24,-14],[-21,-23],[-9,-12],[-18,-35],[-21,-27],[-12,-7],[-30,-8],[-15,-12],[-33,-27],[-36,-23],[-33,-11],[-18,-12],[-27,-31],[-24,-23],[-33,-19],[-12,-4],[-42,-8],[-3,-15],[-15,-16],[-16,-7],[-66,0],[-75,11],[-21,0],[-27,4],[-39,0],[-24,4],[-9,15],[-42,47],[-21,31],[-18,23],[-15,7],[-33,-3],[-27,-4],[-21,-4]],[[2449,706],[12,0],[11,-4]],[[1551,1257],[27,-15],[24,-12],[29,-9]],[[1631,1221],[16,-6],[45,-4],[30,-11],[39,-27],[18,-8],[28,0],[33,4],[21,-4],[18,-12],[36,-42],[18,-12],[54,-23],[39,-31],[30,-3],[21,-8],[30,-16],[15,-15],[21,-15],[21,-16],[42,-35],[57,-27],[27,-19],[15,-15],[30,-35],[39,-39],[24,-27],[27,-26],[15,-27],[0,-16],[9,0]],[[2472,702],[10,-4],[33,-19],[51,-31],[15,-11],[51,-23],[12,-8],[42,-16],[52,-11],[21,-12]],[[3077,721],[18,8],[12,0]],[[2759,567],[33,0],[30,12],[24,11],[21,12],[33,19],[39,20],[33,19],[51,35],[21,11],[33,15]],[[1641,485],[3,-14]],[[1659,729],[-21,-27],[-3,-15],[3,-31],[0,-15],[-15,-27],[0,-20],[3,-42],[9,-43],[6,-24]],[[1644,471],[-12,8],[-9,2]],[[1239,749],[-3,0],[-27,15],[-20,17]],[[818,819],[-3,-1],[-27,-4]],[[1189,781],[-7,6],[-12,4],[-45,8],[-30,0],[-33,3],[-57,12],[-27,15],[-30,12],[-12,12],[-15,7],[-34,-11],[-30,-16],[-39,-14]],[[1623,481],[-45,13],[-15,4],[-30,19],[-30,16],[-12,11],[-39,19],[-27,20],[-15,15],[-24,31],[-12,15],[-6,16],[-12,50],[-6,15],[-12,16],[-15,8],[-30,3],[-27,-3],[-27,0]],[[1651,462],[-7,9]],[[1671,421],[-15,35],[-5,6]],[[3590,70],[-39,108],[-12,19],[-24,39],[-36,42],[-42,50],[-24,31],[-18,31],[-63,69],[-21,27],[-9,20],[-36,50],[-18,27],[-27,31],[-33,61],[-27,39]],[[3612,0],[-10,35],[-12,35]],[[1671,421],[-3,-19],[0,-27],[0,-35],[6,-16],[12,-11],[6,-12],[-18,-11],[-12,-16],[0,-31],[-6,-15],[-24,-46],[-15,-43],[-6,-15],[-21,-27],[-21,-27],[-18,-12],[-30,-7],[-30,-20],[-36,-7],[-15,-12],[-33,-8],[-12,-3],[-1,-1]],[[1671,421],[3,-12],[39,-31],[51,-34],[15,-8],[37,-35],[42,-42],[54,-58],[21,-31],[36,-42],[51,-39],[24,-23],[54,-27],[30,-19],[21,-20]],[[785,1755],[-39,15],[-51,27],[-18,19],[-9,4],[-15,16],[-21,42],[-12,16],[-21,15],[-39,15],[-36,12],[-75,42],[-24,16]],[[0,0],[0,1623],[0,2473],[3615,0],[481,0],[0,-4096],[-4096,0]],[[3605,0],[-67,0],[10,22],[16,-20],[41,0],[0,-2]],[[612,74],[-5,-32],[-23,-15],[-17,42],[45,5]],[[935,448],[-17,-31],[-47,42],[53,-3],[11,-8]],[[1642,457],[-27,22],[48,11],[-3,-22],[-18,-11]],[[3168,573],[-91,-6],[-6,58],[121,0],[-24,-52]],[[3294,0],[-49,0],[-4,2],[16,41],[37,-42],[0,-1]],[[2108,43],[-17,7],[-7,56],[14,-6],[10,-57]],[[793,791],[-48,25],[-4,17],[89,0],[-37,-42]],[[1250,1462],[1,-17],[-49,11],[18,34],[39,7],[-9,-35]],[[1435,1439],[47,-104],[93,48],[8,-42],[40,-10],[0,-62],[36,5],[21,-37],[-152,-52],[-26,11],[-1,37],[-32,4],[16,63],[-16,21],[-56,-43],[-25,11],[33,21],[-41,52],[-8,73],[57,21],[6,-17]],[[2080,852],[28,-19],[-24,-63],[-49,53],[45,29]],[[4096,1018],[0,-110],[-6,-3],[-2,-53],[-30,-9],[24,41],[-64,52],[16,73],[62,9]],[[3039,2131],[-45,20],[-4,21],[33,0],[16,-41]],[[2462,736],[20,-24],[-26,-25],[-15,43],[7,19],[14,-13]],[[3079,791],[49,0],[5,-47],[-28,-33],[-50,18],[-6,38],[30,24]],[[1231,729],[-45,31],[8,52],[25,0],[25,-51],[-13,-32]],[[0,718],[29,-9],[4,-7],[-33,-12],[0,28]],[[1365,4096],[-66,-335],[-38,-114],[-55,-62],[-274,-95],[-293,-46],[-43,-26],[-108,312],[-81,78],[-134,288],[1092,0]]]}