{"objects":{"water":{"type":"GeometryCollection","geometries":[]},"buildings":{"type":"GeometryCollection","geometries":[]},"places":{"type":"GeometryCollection","geometries":[{"type":"Point","properties":{"kind":"region","name:en":"Uruzgan","name":"\u0627\u0631\u0648\u0632\u06af\u0627\u0646","kind_detail":"state","min_zoom":4.0,"name:de":"Urusgan","source":"openstreetmap.org","name:fr":"Orozg\u00e2n","name:uk":"\u0423\u0440\u0443\u0437\u0433\u0430\u043d","population":428000,"name:ru":"\u0423\u0440\u0443\u0437\u0433\u0430\u043d","name:pl":"Oruzgan","name:hu":"Uruzg\u00e1n","id":312470035,"name:ja":"\u30a6\u30eb\u30fc\u30ba\u30ac\u30fc\u30f3\u5dde"},"coordinates":[3876,2974]},{"type":"Point","properties":{"name:ps":"\u062a\u0631\u064a\u0646 \u06a9\u0648\u067c\u200e","name:tr":"Tarin Kot","name:ur":"\u062a\u0631\u06cc\u0646 \u06a9\u0648\u0679","min_zoom":8.0,"name:uk":"\u0422\u0430\u0440\u0456\u043d\u043a\u043e\u0442","name:ru":"\u0422\u0430\u0440\u0438\u043d\u043a\u043e\u0442","id":310090137,"name:ja":"\u30bf\u30ea\u30fc\u30f3\u30fb\u30b3\u30fc\u30c8","name:fa":"\u062a\u0631\u06cc\u0646\u200c\u06a9\u0648\u062a","kind":"locality","name:en":"Tarinkot","name":"\u062a\u0631\u064a\u0646 \u0643\u0648\u062a","kind_detail":"city","name:de":"Tarin Kut","source":"openstreetmap.org","population":10000},"coordinates":[3441,2314]}]},"transit":{"type":"GeometryCollection","geometries":[]},"pois":{"type":"GeometryCollection","geometries":[]},"boundaries":{"type":"GeometryCollection","geometries":[{"type":"LineString","properties":{"name:right:ja":"\u30d8\u30eb\u30de\u30f3\u30c9\u5dde","name:left:ar":"\u062f\u0627\u064a\u0643\u0646\u062f\u064a","name:right:uk":"\u0413\u0456\u043b\u044c\u043c\u0435\u043d\u0434","name:left:ps":"\u062f\u0627\u064a\u06a9\u0646\u062f\u064a \u0648\u0644\u0627\u064a\u062a","name:right:tr":"Helmend","id:right":-1674573,"name:left:uk":"\u0414\u0430\u0439\u043a\u0443\u043d\u0434\u0456","min_zoom":8.0,"name:right:ps":"\u0647\u0644\u0645\u0646\u062f \u0648\u0644\u0627\u064a\u062a","name:left:lt":"Daikond\u017eio provincija","id:left":-1674833,"name:right:fa":"\u0648\u0644\u0627\u06cc\u062a \u0647\u0644\u0645\u0646\u062f","name:right:ru":"\u0413\u0438\u043b\u044c\u043c\u0435\u043d\u0434","name:left:ja":"\u30c0\u30fc\u30a4\u30af\u30f3\u30c7\u30a3\u30fc\u5dde","id":-1674833,"osm_relation":true,"name:right":"\u0647\u0644\u0645\u0646\u062f","kind":"region","name":"\u062f\u0627\u06cc\u06a9\u0646\u062f\u06cc - \u0647\u0644\u0645\u0646\u062f","source":"openstreetmap.org","sort_rank":256,"kind_detail":"4","name:left:de":"Daikondi","name:right:en":"Helmand","name:left:en":"Daykundi","name:right:de":"Helmand","name:right:cs":"H\u00edlmand","name:left:pl":"Dajkondi","name:left:ru":"\u0414\u0430\u0439\u043a\u0443\u043d\u0434\u0438","name:left:cs":"D\u00e1jkund\u00ed","name:left":"\u062f\u0627\u06cc\u06a9\u0646\u062f\u06cc"},"arcs":[0]},{"type":"MultiLineString","properties":{"name:ja":"\u30c0\u30fc\u30a4\u30af\u30f3\u30c7\u30a3\u30fc\u5dde","name:lt":"Daikond\u017eio provincija","name:ar":"\u062f\u0627\u064a\u0643\u0646\u062f\u064a","name:cs":"D\u00e1jkund\u00ed","min_zoom":8.0,"name:uk":"\u0414\u0430\u0439\u043a\u0443\u043d\u0434\u0456","name:ru":"\u0414\u0430\u0439\u043a\u0443\u043d\u0434\u0438","name:pl":"Dajkondi","id":-1674833,"osm_relation":true,"name:ps":"\u062f\u0627\u064a\u06a9\u0646\u062f\u064a \u0648\u0644\u0627\u064a\u062a","kind":"region","name:en":"Daykundi","name":"\u062f\u0627\u06cc\u06a9\u0646\u062f\u06cc","sort_rank":256,"kind_detail":"4","name:de":"Daikondi","source":"openstreetmap.org"},"arcs":[[1],[2],[3]]},{"type":"LineString","properties":{"name:right:ja":"\u30d8\u30eb\u30de\u30f3\u30c9\u5dde","name:right:uk":"\u0413\u0456\u043b\u044c\u043c\u0435\u043d\u0434","name:left:ja":"\u30d5\u30a1\u30e9\u30fc\u5dde","name:right:tr":"Helmend","id:right":-1674573,"name:left:uk":"\u0424\u0430\u0440\u0430\u0445","min_zoom":8.0,"name:right:ps":"\u0647\u0644\u0645\u0646\u062f \u0648\u0644\u0627\u064a\u062a","name:left:lt":"Farahas","id:left":-1674802,"name:right:fa":"\u0648\u0644\u0627\u06cc\u062a \u0647\u0644\u0645\u0646\u062f","name:right:ru":"\u0413\u0438\u043b\u044c\u043c\u0435\u043d\u0434","id":-1674802,"osm_relation":true,"name:right":"\u0647\u0644\u0645\u0646\u062f","kind":"region","name":"\u0641\u0631\u0627\u0647 - \u0647\u0644\u0645\u0646\u062f","source":"openstreetmap.org","sort_rank":256,"kind_detail":"4","name:right:en":"Helmand","name:left:en":"Farah","name:right:de":"Helmand","name:right:cs":"H\u00edlmand","name:left:ru":"\u0424\u0430\u0440\u0430\u0445","name:left":"\u0641\u0631\u0627\u0647"},"arcs":[4]},{"type":"LineString","properties":{"name:right:ja":"\u30ab\u30f3\u30c0\u30cf\u30fc\u30eb\u5dde","name:right:uk":"\u041a\u0430\u043d\u0434\u0430\u0433\u0430\u0440","name:left:ja":"\u30d8\u30eb\u30de\u30f3\u30c9\u5dde","id:right":-1674567,"name:left:uk":"\u0413\u0456\u043b\u044c\u043c\u0435\u043d\u0434","name:right:ur":"\u0635\u0648\u0628\u06c1 \u0642\u0646\u062f\u06c1\u0627\u0631","min_zoom":8.0,"name:right:fa":"\u0648\u0644\u0627\u06cc\u062a \u0642\u0646\u062f\u0647\u0627\u0631","id":-1674573,"name:right":"\u06a9\u0646\u062f\u0647\u0627\u0631 - \u0642\u0646\u062f\u0647\u0627\u0631","name:left:en":"Helmand","sort_rank":256,"kind_detail":"4","source":"openstreetmap.org","name:right:ar":"\u0642\u0646\u062f\u0647\u0627\u0631","id:left":-1674573,"name:right:cs":"Kandah\u00e1r","name:left:cs":"H\u00edlmand","name:left":"\u0647\u0644\u0645\u0646\u062f","name:right:ps":"\u06a9\u0646\u062f\u0647\u0627\u0631 \u0648\u0644\u0627\u064a\u062a","name:left:tr":"Helmend","name:right:tr":"Kandehar","name:right:ru":"\u041a\u0430\u043d\u0434\u0430\u0433\u0430\u0440","name:left:ps":"\u0647\u0644\u0645\u0646\u062f \u0648\u0644\u0627\u064a\u062a","name:left:ru":"\u0413\u0438\u043b\u044c\u043c\u0435\u043d\u0434","name:right:en":"Kandahar","osm_relation":true,"name:right:lt":"Kandaharas","kind":"region","name":"\u0647\u0644\u0645\u0646\u062f - \u06a9\u0646\u062f\u0647\u0627\u0631 - \u0642\u0646\u062f\u0647\u0627\u0631","name:left:fa":"\u0648\u0644\u0627\u06cc\u062a \u0647\u0644\u0645\u0646\u062f","name:left:de":"Helmand"},"arcs":[5]},{"type":"LineString","properties":{"name:ja":"\u30d8\u30eb\u30de\u30f3\u30c9\u5dde","name:tr":"Helmend","name:cs":"H\u00edlmand","min_zoom":8.0,"name:uk":"\u0413\u0456\u043b\u044c\u043c\u0435\u043d\u0434","name:ru":"\u0413\u0438\u043b\u044c\u043c\u0435\u043d\u0434","id":-1674573,"osm_relation":true,"name:ps":"\u0647\u0644\u0645\u0646\u062f \u0648\u0644\u0627\u064a\u062a","name:fa":"\u0648\u0644\u0627\u06cc\u062a \u0647\u0644\u0645\u0646\u062f","kind":"region","name:en":"Helmand","name":"\u0647\u0644\u0645\u0646\u062f","sort_rank":256,"kind_detail":"4","name:de":"Helmand","source":"openstreetmap.org"},"arcs":[6]},{"type":"LineString","properties":{"name:ja":"\u30ab\u30f3\u30c0\u30cf\u30fc\u30eb\u5dde","name:lt":"Kandaharas","name:tr":"Kandehar","name:ar":"\u0642\u0646\u062f\u0647\u0627\u0631","name:cs":"Kandah\u00e1r","name:ur":"\u0635\u0648\u0628\u06c1 \u0642\u0646\u062f\u06c1\u0627\u0631","min_zoom":8.0,"name:uk":"\u041a\u0430\u043d\u0434\u0430\u0433\u0430\u0440","name:ru":"\u041a\u0430\u043d\u0434\u0430\u0433\u0430\u0440","id":-1674567,"osm_relation":true,"name:ps":"\u06a9\u0646\u062f\u0647\u0627\u0631 \u0648\u0644\u0627\u064a\u062a","name:fa":"\u0648\u0644\u0627\u06cc\u062a \u0642\u0646\u062f\u0647\u0627\u0631","kind":"region","name:en":"Kandahar","name":"\u06a9\u0646\u062f\u0647\u0627\u0631 - \u0642\u0646\u062f\u0647\u0627\u0631","sort_rank":256,"kind_detail":"4","source":"openstreetmap.org"},"arcs":[7]}]},"roads":{"type":"GeometryCollection","geometries":[]},"earth":{"type":"GeometryCollection","geometries":[{"type":"Polygon","properties":{"sort_rank":10,"source":"naturalearthdata.com","kind":"earth","min_zoom":0.0,"id":4731},"arcs":[[8]]}]},"landuse":{"type":"GeometryCollection","geometries":[]}},"type":"Topology","transform":{"translate":[64.6875,31.952162238],"scale":[0.0003433228,0.0002894016]},"arcs":[[[1963,4096],[18,-21],[-34,-16],[17,-58],[-22,-10]],[[1942,3991],[91,-38],[5,-30],[112,-90],[55,155],[92,77],[0,31]],[[2606,4096],[186,-129],[73,-15],[-13,-90],[89,-13],[16,-70],[83,1],[-16,-65],[28,-120],[201,-81],[69,-120],[51,-29],[47,31],[77,-16],[23,54],[45,2],[45,124],[94,128],[49,28],[-41,69],[34,11],[42,70],[-19,15],[45,49],[4,58],[-100,83],[-100,25]],[[3473,4096],[-58,-11],[-2,-20],[-104,13],[-18,18]],[[0,4025],[98,61],[-45,8],[2,2]],[[660,0],[35,80],[-27,118],[22,74],[131,48],[65,82],[120,-9],[70,-51],[144,-4],[53,135],[2,104],[36,48],[-65,65],[82,86],[18,123],[79,109],[67,50],[34,-15],[24,17],[-17,51],[60,105],[3,81]],[[1596,1297],[-14,144],[82,287],[59,467],[-52,112],[68,91],[-15,25],[-65,9],[-35,68],[-183,-93],[-42,56],[59,47],[142,327],[-85,35],[-12,121],[18,44],[-26,63],[24,61],[-66,63],[-5,43],[173,219],[31,81],[-18,34],[52,30],[17,57],[66,69],[2,82],[37,11],[29,64],[89,29],[16,48]],[[4096,1931],[-64,0],[-76,28],[-22,-4],[-23,-70],[-66,-28],[3,-50],[-430,25],[-88,38],[-98,7],[-66,-29],[-64,-103],[-75,-41],[-49,75],[-119,16],[-15,64],[30,36],[-9,80],[-49,85],[-62,21],[5,50],[-124,60],[-53,-35],[-87,-129],[-4,-52],[-50,-45],[-6,-60],[45,-43],[-21,-117],[-123,-17],[-80,-51],[29,-65],[-42,-65],[42,-78],[-88,-34],[24,-51],[-60,-48],[-17,-55],[93,-94],[-7,-25],[-210,-11],[-101,85],[-169,-38],[-88,40],[-8,39],[-35,10],[-23,45]],[[0,0],[0,4096],[4096,0],[0,-4096],[-4096,0]]]}