{"objects":{"water":{"type":"GeometryCollection","geometries":[]},"buildings":{"type":"GeometryCollection","geometries":[]},"places":{"type":"GeometryCollection","geometries":[]},"transit":{"type":"GeometryCollection","geometries":[]},"pois":{"type":"GeometryCollection","geometries":[{"type":"Point","properties":{"kind":"nature_reserve","protect_class":"4","area":74638500000,"source":"openstreetmap.org","min_zoom":4.2,"tier":2,"id":-7008430,"osm_relation":true,"name":"\u0421\u0435\u0432\u0435\u0440\u043e\u0437\u0435\u043c\u0435\u043b\u044c\u0441\u043a\u0438\u0439 \u0437\u0430\u043a\u0430\u0437\u043d\u0438\u043a"},"coordinates":[2470,4086]}]},"boundaries":{"type":"GeometryCollection","geometries":[]},"roads":{"type":"GeometryCollection","geometries":[]},"earth":{"type":"GeometryCollection","geometries":[{"type":"MultiPolygon","properties":{"sort_rank":10,"source":"naturalearthdata.com","min_zoom":0.0,"kind":"earth","area":251053383794},"arcs":[[[0]]]},{"type":"Point","properties":{"label_placement":true,"name:pt":"Ilha da Revolu\u00e7\u00e3o de Outubro","name:az":"Oktyabr \u0130nqilab\u0131 adas\u0131","name:id":"Pulau Revolusi Oktober","name:cy":"Ynys Oktyabrskoy Revolyutsii","name:ko":"\uc625\ud0f8\ube0c\ub9ac\uc2a4\ucf54\uc774\ub808\ubcfc\ub958\uce58 \uc12c","name:cs":"ostrov \u0158\u00edjnov\u00e9 revoluce","min_zoom":7.0,"name:it":"Isola della Rivoluzione d'Ottobre","name:vi":"\u0110\u1ea3o C\u00e1ch M\u1ea1ng Th\u00e1ng M\u01b0\u1eddi","name:pl":"Wyspa Rewolucji Pa\u017adziernikowej","id":-3542196,"name:ca":"Illa de la Revoluci\u00f3 d'Octubre","name:bg":"\u041e\u043a\u0442\u043e\u043c\u0432\u0440\u0438\u0439\u0441\u043a\u0430 \u0440\u0435\u0432\u043e\u043b\u044e\u0446\u0438\u044f","name:ka":"\u10dd\u10e5\u10e2\u10dd\u10db\u10d1\u10e0\u10d8\u10e1 \u10e0\u10d4\u10d5\u10dd\u10da\u10e3\u10ea\u10d8\u10d8\u10e1 \u10d9\u10e3\u10dc\u10eb\u10e3\u10da\u10d8","area":425101983744,"name:fi":"Lokakuun vallankumouksen saari","name:de":"Oktoberrevolutions-Insel","name:oc":"Illa de la Revolucion d'Oct\u00f2bre","name:fr":"\u00cele de la R\u00e9volution d'Octobre","name:zh":"\u5341\u6708\u9769\u547d\u5c9b","name:sk":"Ostrov Okt\u00f3brovej revol\u00facie","name:ja":"\u5341\u6708\u9769\u547d\u5cf6","name:nn":"Oktoberrevolusjon\u00f8ya","name:hu":"Okt\u00f3beri forradalom-sziget","name:lt":"Spalio Revoliucijos sala","name:sr":"\u041e\u0441\u0442\u0440\u0432\u043e \u041e\u043a\u0442\u043e\u0431\u0430\u0440\u0441\u043a\u0435 \u0440\u0435\u0432\u043e\u043b\u0443\u0446\u0438\u0458\u0435","osm_relation":true,"kind":"island","name:en":"October Revolution Island","name":"\u043e\u0441\u0442\u0440\u043e\u0432 \u041e\u043a\u0442\u044f\u0431\u0440\u044c\u0441\u043a\u043e\u0439 \u0420\u0435\u0432\u043e\u043b\u044e\u0446\u0438\u0438","name:gl":"Illa da Revoluci\u00f3n de Outubro","source":"openstreetmap.org","name:et":"Oktoobrirevolutsiooni saar","name:nl":"Oktoberrevolutie","name:es":"Isla Revoluci\u00f3n de Octubre"},"coordinates":[2073,2544]}]},"landuse":{"type":"GeometryCollection","geometries":[{"type":"Polygon","properties":{"kind":"nature_reserve","protect_class":"4","area":74638499840,"sort_rank":23,"source":"openstreetmap.org","min_zoom":4.0,"tier":2,"id":-7008430,"osm_relation":true},"arcs":[[1]]}]}},"type":"Topology","transform":{"translate":[95.625,79.1713346408],"scale":[0.0006866455,0.0001259398]},"arcs":[[[0,4096],[4096,0],[0,-4096],[-4096,0],[0,4096]],[[1173,3864],[23,59],[105,89],[10,84],[2320,0],[-9,-37],[-348,-970],[228,-1156],[594,-404],[0,-17],[-358,-222],[-115,-254],[28,-109],[-176,-236],[-208,303],[-501,320],[-300,-71],[-9,193],[-33,25],[-38,-10],[-63,58],[-9,56],[-42,34],[-142,278],[-59,223],[-167,200],[-159,117],[-124,251],[4,108],[-159,171],[-80,151],[-10,59],[-95,164],[-2,54],[65,8],[13,52],[-8,41],[-57,21],[-30,48],[13,253],[-102,66]]]}