{"objects":{"water":{"type":"GeometryCollection","geometries":[{"type":"MultiPolygon","properties":{"source":"naturalearthdata.com","kind":"ocean","area":1576712559132672,"sort_rank":200,"min_zoom":0.0,"id":1},"arcs":[[[72]],[[73]]]},{"type":"MultiLineString","properties":{"source":"naturalearthdata.com","kind":"ocean","sort_rank":205,"boundary":true,"min_zoom":0.0,"id":79},"arcs":[[74],[75]]}]},"buildings":{"type":"GeometryCollection","geometries":[]},"places":{"type":"GeometryCollection","geometries":[{"type":"Point","properties":{"name:ka":"\u10db\u10d8\u10d0\u10dc\u10db\u10d0\u10e0\u10d8","name:ko":"\ubbf8\uc580\ub9c8","name:cv":"\u041c\u044c\u044f\u043d\u043c\u0430","name:km":"\u1798\u17b8\u1799\u17c9\u17b6\u1793\u17cb\u1798\u17c9\u17b6","name:kl":"Burma","name:cs":"Myanmar","name:ki":"Myama","name:kw":"Byrmani","name:kv":"\u041c\u044c\u044f\u043d\u043c\u0430","name:ku":"Myanmar","name:ti":"\u121b\u12eb\u1295\u121b\u122d","name:ks":"\u0645\u064e\u06cc\u064e\u0646\u0645\u0627 \u0628\u0654\u0631\u0645\u0627","name:to":"Pema","name:tl":"Myanmar","name:ce":"\u041c\u044c\u044f\u043d\u043c\u0430","name:ta":"\u0bae\u0bbf\u0baf\u0bbe\u0ba9\u0bcd\u0bae\u0bbe\u0bb0\u0bcd [\u0baa\u0bb0\u0bcd\u0bae\u0bbe]","name:tg":"\u041c\u044f\u043d\u043c\u0430","name:ca":"Myanmar","name:te":"\u0c2e\u0c4d\u0c2f\u0c3e\u0c28\u0c4d\u0c2e\u0c3e\u0c30\u0c4d","name:cy":"Myanmar [Byrma]","name:hr":"Mijanmar (Burma)","name:da":"Myanmar","name:de":"Myanmar","name:dz":"\u0f58\u0f72\u0f0b\u0f61\u0f71\u0f53\u0f0b\u0f58\u0f62\u0f0b [\u0f56\u0fb7\u0f62\u0f0b\u0f58]","source":"openstreetmap.org","name:kn":"\u0cae\u0caf\u0ca8\u0ccd\u0cae\u0cbe\u0cb0\u0ccd","name:dv":"\u0784\u07a6\u0783\u07aa\u0789\u07a7","name:lv":"Mjanma","name:lt":"Mianmaras","name:uz":"Birma","name:kk":"\u041c\u0438\u0430\u043d\u043c\u0430","name:ur":"\u0645\u06cc\u0627\u0646\u0645\u0627\u0631 [\u0628\u0631\u0645\u0627]","name:lb":"Myanmar","name:la":"Birmania","name:lg":"Myanima","name:uk":"\u041c\u2019\u044f\u043d\u043c\u0430","name:ug":"\u0628\u0649\u0631\u0645\u0627","name:li":"Burma","name:lo":"\u0eaa\u0eb0\u0eab\u0eb0\u0e9e\u0eb2\u0e9a\u0ea1\u0ebd\u0e99\u0ea1\u0eb2","name:el":"\u039c\u03b9\u03b1\u03bd\u03bc\u03ac\u03c1","name:eo":"Birmo \/ Mjanmao","name:en":"Myanmar","name":"\u1019\u103c\u1014\u103a\u1019\u102c","name:tk":"M\u00fdanma","name:ee":"Myanmar [Burma] nutome","name:th":"\u0e1b\u0e23\u0e30\u0e40\u0e17\u0e28\u0e1e\u0e21\u0e48\u0e32","name:eu":"Myanmar","name:et":"Birma","name:es":"Birmania","name:ia":"Birmania\/Myanmar","name:rn":"Birimaniya","name:az":"Myanma","name:ie":"Myanmar","name:id":"Myanmar","name:ar":"\u0645\u064a\u0627\u0646\u0645\u0627\u0631","name:io":"Myanmar","name:ak":"Miyanma","name:am":"\u121b\u12ed\u1293\u121b\u122d[\u1260\u122d\u121b]","name:it":"Birmania","name:an":"Myanmar","name:ru":"\u041c\u044c\u044f\u043d\u043c\u0430","name:rw":"Mayanimari","name:af":"Mianmar","name:zu":"e-Myanmar [Burma]","old_name:ca":"Birm\u00e0nia","name:za":"Mienjdien","name:zh-yue":"\u7dec\u7538","old_name:cs":"Barma","name:zh":"\u7f05\u7538","name:so":"Burma","name:sl":"Mjanmar","name:sk":"Mjanmarsko","name:ja":"\u30df\u30e3\u30f3\u30de\u30fc","name:si":"\u0db8\u0dd2\u0dba\u0db1\u0dca\u0db8\u0dcf\u0dbb\u0dba","name:sh":"Mianmar","name:sg":"My\u00e4m\u00e2ra","name:se":"Burma","name:sc":"Birmania","name:sa":"\u092e\u094d\u092f\u093e\u0928\u094d\u092e\u093e\u0930","name:bs":"Mijanmar","name:bm":"Myanimari","name:bn":"\u09ae\u09be\u09af\u09bc\u09be\u09a8\u09ae\u09be\u09b0","name:bo":"\u0f60\u0f56\u0f62\u0f0b\u0f58\u0f0d","name:br":"Birmania","name:sw":"Myama","name:be":"\u041c'\u044f\u043d\u043c\u0430","name:su":"Myanmar","name:bg":"\u041c\u0438\u0430\u043d\u043c\u0430\u0440 [\u0411\u0438\u0440\u043c\u0430]","name:ss":"IMayanima","name:ba":"\u041c\u044c\u044f\u043d\u043c\u0430","name:sq":"Birmania","name:jv":"Myanmar","name:bi":"Burma","name:pt":"Mianmar [Birm\u00e2nia]","name:ps":"\u0645\u064a\u0627\u0646\u0645\u0627\u0631","name:oc":"Birmania","min_zoom":2.0,"name:ro":"Birmania","name:zh-min-nan":"Myanma","name:os":"\u041c\u044c\u044f\u043d\u043c\u00e6","name:or":"\u0b2e\u0b3f\u0b5f\u0b3e\u0b2e\u0b3e\u0b30\u0b4d","name:pl":"Birma","name:sr":"\u041c\u0458\u0430\u043d\u043c\u0430\u0440","name:pa":"\u0a2e\u0a3f\u0a06\u0a02\u0a2e\u0a3e\u0a30","name:tr":"Myanmar [Burma]","name:hi":"\u092e\u094d\u092f\u093e\u0928\u092e\u093e\u0930","name:sv":"Burma","name:he":"\u05de\u05d9\u05d0\u05e0\u05de\u05e8","name:ha":"Burma, Miyamar","name:hy":"\u0544\u0575\u0561\u0576\u0574\u0561","name:ht":"Bimani","name:hu":"Mianmar","name:qu":"Myanmar","population":55167330,"kind":"country","name:is":"Mjanmar","name:yi":"\u05de\u05d9\u05d0\u05e0\u05de\u05d0\u05e8","name:yo":"Or\u00edl\u1eb9\u0301\u00e8de Manamari","name:mt":"Mjanmar","name:ms":"Myanmar [Burma]","name:mr":"\u092e\u094d\u092f\u093e\u0928\u092e\u093e\u0930 [\u092c\u094d\u0930\u0939\u094d\u092e\u0926\u0947\u0936]","int_name":"Myanmar","name:mg":"Myanmara","name:ml":"\u0d2e\u0d4d\u0d2f\u0d3e\u0d7b\u0d2e\u0d3e\u0d7c","name:vi":"Myanma","old_name:fi":"Burma","id":424316478,"name:mk":"\u041c\u0458\u0430\u043d\u043c\u0430\u0440 [\u0411\u0443\u0440\u043c\u0430]","name:vo":"Mianmar\u00e4n","name:fa":"\u0645\u06cc\u0627\u0646\u0645\u0627\u0631","name:mn":"\u041c\u044c\u044f\u043d\u043c\u0430\u0440","name:ff":"Miyamaar","name:fi":"Myanmar","name:ky":"\u041c\u044c\u044f\u043d\u043c\u0430","name:fo":"Burma","alt_name:vi":"Mi\u1ebfn \u0110i\u1ec7n","name:fr":"Birmanie","name:fy":"Birma","name:nl":"Myanmar","name:nn":"Myanmar","name:no":"Burma","name:na":"Miyanmar","name:ne":"\u092e\u094d\u092f\u093e\u0928\u094d\u092e\u093e\u0930 [\u092c\u0930\u094d\u092e\u093e]","name:wo":"Miyanmaar","name:ga":"Maenmar","name:gd":"Mianmar","name:gl":"Myanmar [Birmania]","name:gv":"Myanmar","name:gu":"\u0aae\u0acd\u0aaf\u0abe\u0a82\u0aae\u0abe\u0ab0","name:tt":"\u041c\u044c\u044f\u043d\u043c\u0430"},"coordinates":[546,825]},{"type":"Point","properties":{"source":"naturalearthdata.com","kind":"locality","name":"Rangoon","country_capital":true,"population":4088000,"min_zoom":4.0,"id":7222},"coordinates":[786,228]},{"type":"Point","properties":{"admin_level":"4","kind":"region","name:en":"Kayin State","name":"Kayin","kind_detail":"state","name:my":"\u1000\u101b\u1004\u103a\u1015\u103c\u100a\u103a\u1014\u101a\u103a","source":"openstreetmap.org","min_zoom":4.0,"int_name":"Kayin State","name:ru":"\u041a\u0430\u0440\u0435\u043d","name:zh":"\u514b\u4f26\u90a6","id":4344695181,"name:ja":"\u30ab\u30ec\u30f3"},"coordinates":[3095,842]},{"type":"Point","properties":{"admin_level":"4","kind":"region","name:en":"Kayah State","name":"Kayah","kind_detail":"state","name:my":"\u1000\u101a\u102c\u1038\u1015\u103c\u100a\u103a\u1014\u101a\u103a\u200c","source":"openstreetmap.org","min_zoom":4.0,"int_name":"Kayah State","name:ru":"\u041a\u0430\u044f","name:zh":"\u514b\u8036\u90a6","id":4344686434,"name:ja":"\u30ab\u30e4\u30fc"},"coordinates":[2482,4050]},{"type":"Point","properties":{"admin_level":"4","kind":"region","int_name":"Yangon Region","name":"Yangon","kind_detail":"state","name:my":"\u101b\u1014\u103a\u1000\u102f\u1014\u103a\u1010\u102d\u102f\u1004\u103a\u1038","source":"openstreetmap.org","min_zoom":4.0,"name:zh":"\u4ef0\u5149\u7701","id":4353300190,"name:ja":"\u30e4\u30f3\u30b4\u30f3"},"coordinates":[711,17]},{"type":"Point","properties":{"admin_level":"4","kind":"region","name":"Bago Region","kind_detail":"state","name:my":"\u1015\u1032\u1001\u1030\u1038\u1010\u102d\u102f\u1004\u103a\u1038","source":"openstreetmap.org","min_zoom":4.0,"name:zh":"\u52c3\u56fa\u7701","id":4344643334,"name:ja":"\u30d0\u30b4\u30fc"},"coordinates":[692,2465]},{"type":"Point","properties":{"source":"naturalearthdata.com","kind":"locality","name":"Bago","population":284318,"region_capital":true,"min_zoom":6.0,"id":5611},"coordinates":[1296,1047]},{"type":"Point","properties":{"source":"naturalearthdata.com","kind":"locality","name":"Pyu","population":40386,"min_zoom":6.0,"id":5612},"coordinates":[1184,2820]},{"type":"Point","properties":{"source":"naturalearthdata.com","kind":"locality","name":"Letpadan","population":176571,"min_zoom":7.0,"id":4769},"coordinates":[170,1754]},{"type":"Point","properties":{"source":"naturalearthdata.com","kind":"locality","name":"Taungoo","population":106945,"min_zoom":7.0,"id":4770},"coordinates":[1155,3540]},{"type":"Point","properties":{"source":"naturalearthdata.com","kind":"locality","name":"Thongwa","population":52496,"min_zoom":7.0,"id":4771},"coordinates":[1302,181]},{"type":"Point","properties":{"source":"naturalearthdata.com","kind":"locality","name":"Yandoon","population":36172,"min_zoom":7.0,"id":4779},"coordinates":[26,623]}]},"transit":{"type":"GeometryCollection","geometries":[]},"pois":{"type":"GeometryCollection","geometries":[{"type":"Point","properties":{"kind":"national_park","name:en":"Salawin National Park","protect_class":"2","area":818432000,"source":"openstreetmap.org","min_zoom":5.95,"tier":1,"id":-5944550,"osm_relation":true,"name":"\u0e2d\u0e38\u0e17\u0e22\u0e32\u0e19\u0e41\u0e2b\u0e48\u0e07\u0e0a\u0e32\u0e15\u0e34\u0e2a\u0e32\u0e25\u0e30\u0e27\u0e34\u0e19"},"coordinates":[3227,2359]},{"type":"Point","properties":{"kind":"national_park","name:en":"Mae Moei National Park","protect_class":"2","area":180177000,"source":"openstreetmap.org","min_zoom":7.04,"tier":1,"id":-5911629,"osm_relation":true,"name":"\u0e2d\u0e38\u0e17\u0e22\u0e32\u0e19\u0e41\u0e2b\u0e48\u0e07\u0e0a\u0e32\u0e15\u0e34\u0e41\u0e21\u0e48\u0e40\u0e21\u0e22"},"coordinates":[3609,1273]},{"type":"Point","properties":{"kind":"national_park","name:en":"Namtok Mae Surin National Park","protect_class":"2","area":481603000,"source":"openstreetmap.org","min_zoom":6.33,"tier":1,"id":395926336,"name":"\u0e2d\u0e38\u0e17\u0e22\u0e32\u0e19\u0e41\u0e2b\u0e48\u0e07\u0e0a\u0e32\u0e15\u0e34\u0e19\u0e49\u0e33\u0e15\u0e01\u0e41\u0e21\u0e48\u0e2a\u0e38\u0e23\u0e34\u0e19\u0e17\u0e23\u0e4c"},"coordinates":[3526,3817]}]},"boundaries":{"type":"GeometryCollection","geometries":[{"type":"MultiLineString","properties":{"source":"naturalearthdata.com","kind":"country","sort_rank":262,"kind_detail":"2","min_zoom":0.0,"id":257},"arcs":[[0],[1],[2],[3],[4],[5],[6],[7],[8],[9],[10],[11],[12],[13],[14]]},{"type":"MultiLineString","properties":{"source":"naturalearthdata.com","kind":"region","name":"Bago - Yangon","sort_rank":256,"kind_detail":"4","min_zoom":6.0,"id":7780},"arcs":[[15],[16],[17],[18]]},{"type":"LineString","properties":{"source":"naturalearthdata.com","kind":"region","name":"Bago - Ayeyarwady","sort_rank":256,"kind_detail":"4","min_zoom":6.0,"id":7781},"arcs":[19]},{"type":"LineString","properties":{"source":"naturalearthdata.com","kind":"region","sort_rank":256,"kind_detail":"4","min_zoom":6.0,"id":469},"arcs":[20]},{"type":"LineString","properties":{"source":"naturalearthdata.com","kind":"region","sort_rank":256,"kind_detail":"4","min_zoom":6.0,"id":470},"arcs":[21]},{"type":"MultiLineString","properties":{"source":"naturalearthdata.com","kind":"macroregion","name":"Tak - Chiang Mai","sort_rank":257,"kind_detail":"3","min_zoom":6.0,"id":1362},"arcs":[[22],[23],[24],[25]]},{"type":"MultiLineString","properties":{"source":"naturalearthdata.com","kind":"region","name":"Mae Hong Son - Chiang Mai","sort_rank":256,"kind_detail":"4","min_zoom":6.7,"id":1374},"arcs":[[26],[27],[28],[29],[30],[31],[32],[33]]},{"type":"MultiLineString","properties":{"source":"naturalearthdata.com","kind":"macroregion","name":"Tak - Mae Hong Son","sort_rank":257,"kind_detail":"3","min_zoom":6.0,"id":1375},"arcs":[[34],[35],[36]]},{"type":"MultiLineString","properties":{"source":"naturalearthdata.com","kind":"region","name":"Kayah - Kayin","sort_rank":256,"kind_detail":"4","min_zoom":6.0,"id":4866},"arcs":[[37],[38],[39],[40],[41]]},{"type":"LineString","properties":{"source":"naturalearthdata.com","kind":"region","name":"Kayah - Shan","sort_rank":256,"kind_detail":"4","min_zoom":6.0,"id":4867},"arcs":[42]},{"type":"LineString","properties":{"source":"naturalearthdata.com","kind":"region","name":"Shan - Kayah","sort_rank":256,"kind_detail":"4","min_zoom":6.0,"id":4868},"arcs":[43]},{"type":"LineString","properties":{"source":"naturalearthdata.com","kind":"region","name":"Kayin - Shan","sort_rank":256,"kind_detail":"4","min_zoom":6.0,"id":7779},"arcs":[44]},{"type":"MultiLineString","properties":{"source":"naturalearthdata.com","kind":"region","name":"Magway - Bago","sort_rank":256,"kind_detail":"4","min_zoom":6.0,"id":7783},"arcs":[[45],[46],[47]]},{"type":"LineString","properties":{"source":"naturalearthdata.com","kind":"region","name":"Ayeyarwady - Yangon","sort_rank":256,"kind_detail":"4","min_zoom":6.0,"id":7790},"arcs":[48]},{"type":"MultiLineString","properties":{"source":"naturalearthdata.com","kind":"region","name":"Bago - Kayin","sort_rank":256,"kind_detail":"4","min_zoom":6.0,"id":7785},"arcs":[[49],[50],[51],[52],[53],[54],[55]]},{"type":"MultiLineString","properties":{"source":"naturalearthdata.com","kind":"region","name":"Mon - Kayin","sort_rank":256,"kind_detail":"4","min_zoom":6.0,"id":7786},"arcs":[[56],[57],[58],[59],[60],[61],[62],[63],[64]]},{"type":"MultiLineString","properties":{"source":"naturalearthdata.com","kind":"region","name":"Mon - Bago","sort_rank":256,"kind_detail":"4","min_zoom":6.0,"id":7787},"arcs":[[65],[66],[67],[68],[69],[70],[71]]}]},"roads":{"type":"GeometryCollection","geometries":[{"type":"LineString","properties":{"source":"naturalearthdata.com","kind":"minor_road","sort_rank":355,"kind_detail":"tertiary","min_zoom":5.0,"id":34427},"arcs":[76]},{"type":"LineString","properties":{"source":"naturalearthdata.com","kind":"minor_road","sort_rank":355,"kind_detail":"tertiary","min_zoom":5.0,"id":34491},"arcs":[77]},{"type":"LineString","properties":{"source":"naturalearthdata.com","kind":"minor_road","sort_rank":355,"kind_detail":"tertiary","min_zoom":5.0,"id":34500},"arcs":[78]},{"type":"LineString","properties":{"source":"naturalearthdata.com","kind":"highway","sort_rank":383,"kind_detail":"motorway","min_zoom":3.0,"id":34501},"arcs":[79]},{"type":"LineString","properties":{"source":"naturalearthdata.com","kind":"highway","sort_rank":383,"kind_detail":"motorway","min_zoom":3.0,"id":34527},"arcs":[80]},{"type":"LineString","properties":{"source":"naturalearthdata.com","kind":"minor_road","sort_rank":355,"kind_detail":"tertiary","min_zoom":6.0,"id":34528},"arcs":[81]},{"type":"LineString","properties":{"source":"naturalearthdata.com","kind":"minor_road","sort_rank":355,"kind_detail":"tertiary","min_zoom":7.0,"id":34676},"arcs":[82]},{"type":"LineString","properties":{"source":"naturalearthdata.com","kind":"minor_road","sort_rank":355,"kind_detail":"tertiary","min_zoom":7.0,"id":34682},"arcs":[83]},{"type":"LineString","properties":{"source":"naturalearthdata.com","kind":"minor_road","sort_rank":355,"kind_detail":"tertiary","min_zoom":7.0,"id":34689},"arcs":[84]},{"type":"LineString","properties":{"source":"naturalearthdata.com","kind":"major_road","sort_rank":379,"kind_detail":"secondary","min_zoom":3.0,"id":34896},"arcs":[85]},{"type":"LineString","properties":{"source":"naturalearthdata.com","kind":"major_road","sort_rank":379,"kind_detail":"secondary","min_zoom":3.0,"id":34897},"arcs":[86]},{"type":"LineString","properties":{"source":"naturalearthdata.com","kind":"highway","sort_rank":383,"kind_detail":"motorway","min_zoom":3.0,"id":34898},"arcs":[87]},{"type":"LineString","properties":{"source":"naturalearthdata.com","kind":"major_road","sort_rank":379,"kind_detail":"secondary","min_zoom":3.0,"id":34910},"arcs":[88]},{"type":"LineString","properties":{"source":"naturalearthdata.com","kind":"major_road","sort_rank":379,"kind_detail":"secondary","min_zoom":3.0,"id":34912},"arcs":[89]},{"type":"LineString","properties":{"source":"naturalearthdata.com","kind":"minor_road","sort_rank":355,"kind_detail":"tertiary","min_zoom":5.0,"id":34920},"arcs":[90]},{"type":"LineString","properties":{"source":"naturalearthdata.com","kind":"major_road","kind_detail":"secondary","sort_rank":379,"landuse_kind":"urban_area","min_zoom":3.0,"id":34958},"arcs":[91]},{"type":"MultiLineString","properties":{"source":"naturalearthdata.com","kind":"major_road","sort_rank":379,"kind_detail":"secondary","min_zoom":3.0,"id":34958},"arcs":[[92],[93]]},{"type":"LineString","properties":{"source":"naturalearthdata.com","kind":"major_road","sort_rank":379,"kind_detail":"secondary","min_zoom":3.0,"id":34987},"arcs":[94]},{"type":"LineString","properties":{"source":"naturalearthdata.com","kind":"highway","sort_rank":383,"kind_detail":"motorway","min_zoom":3.0,"id":35004},"arcs":[95]},{"type":"LineString","properties":{"source":"naturalearthdata.com","kind":"highway","sort_rank":383,"kind_detail":"motorway","min_zoom":3.0,"id":35036},"arcs":[96]},{"type":"LineString","properties":{"source":"naturalearthdata.com","kind":"minor_road","sort_rank":355,"kind_detail":"tertiary","min_zoom":5.0,"id":35037},"arcs":[97]},{"type":"LineString","properties":{"source":"naturalearthdata.com","kind":"major_road","sort_rank":379,"kind_detail":"secondary","min_zoom":3.0,"id":35093},"arcs":[98]},{"type":"LineString","properties":{"source":"naturalearthdata.com","kind":"major_road","sort_rank":379,"kind_detail":"secondary","min_zoom":3.0,"id":35104},"arcs":[99]},{"type":"LineString","properties":{"source":"naturalearthdata.com","kind":"major_road","sort_rank":379,"kind_detail":"secondary","min_zoom":3.0,"id":35115},"arcs":[100]},{"type":"LineString","properties":{"source":"naturalearthdata.com","kind":"major_road","sort_rank":379,"kind_detail":"secondary","min_zoom":3.0,"id":35149},"arcs":[101]},{"type":"LineString","properties":{"source":"naturalearthdata.com","kind":"minor_road","kind_detail":"tertiary","sort_rank":355,"landuse_kind":"urban_area","min_zoom":6.0,"id":35156},"arcs":[102]},{"type":"LineString","properties":{"source":"naturalearthdata.com","kind":"minor_road","sort_rank":355,"kind_detail":"tertiary","min_zoom":6.0,"id":35156},"arcs":[103]},{"type":"LineString","properties":{"source":"naturalearthdata.com","kind":"highway","kind_detail":"motorway","sort_rank":383,"landuse_kind":"urban_area","min_zoom":3.0,"id":35157},"arcs":[104]},{"type":"LineString","properties":{"source":"naturalearthdata.com","kind":"highway","sort_rank":383,"kind_detail":"motorway","min_zoom":3.0,"id":35157},"arcs":[105]},{"type":"LineString","properties":{"source":"naturalearthdata.com","kind":"major_road","kind_detail":"secondary","sort_rank":379,"landuse_kind":"urban_area","min_zoom":3.0,"id":35166},"arcs":[106]},{"type":"LineString","properties":{"source":"naturalearthdata.com","kind":"major_road","kind_detail":"secondary","sort_rank":379,"landuse_kind":"urban_area","min_zoom":3.0,"id":35180},"arcs":[107]},{"type":"LineString","properties":{"source":"naturalearthdata.com","kind":"major_road","sort_rank":379,"kind_detail":"secondary","min_zoom":3.0,"id":35180},"arcs":[108]},{"type":"LineString","properties":{"source":"naturalearthdata.com","kind":"major_road","sort_rank":379,"kind_detail":"secondary","min_zoom":3.0,"id":35208},"arcs":[109]},{"type":"LineString","properties":{"source":"naturalearthdata.com","kind":"major_road","sort_rank":379,"kind_detail":"secondary","min_zoom":3.0,"id":35227},"arcs":[110]},{"type":"LineString","properties":{"source":"naturalearthdata.com","kind":"minor_road","sort_rank":355,"kind_detail":"tertiary","min_zoom":7.0,"id":35240},"arcs":[111]},{"type":"LineString","properties":{"source":"naturalearthdata.com","kind":"major_road","sort_rank":379,"kind_detail":"secondary","min_zoom":3.0,"id":35291},"arcs":[112]}]},"earth":{"type":"GeometryCollection","geometries":[{"type":"Polygon","properties":{"sort_rank":10,"source":"naturalearthdata.com","min_zoom":0.0,"kind":"earth","area":389057620564},"arcs":[[113]]}]},"landuse":{"type":"GeometryCollection","geometries":[{"type":"MultiPolygon","properties":{"kind":"national_park","protect_class":"2","area":22707813564,"sort_rank":18,"source":"openstreetmap.org","min_zoom":3.0,"tier":1,"osm_relation":true},"arcs":[[[114],[115],[116],[117],[118],[119]],[[120]],[[121]],[[122],[123],[124]],[[125]],[[126]],[[127]]]},{"type":"MultiPolygon","properties":{"source":"openstreetmap.org","kind":"national_park","tier":1,"protect_class":"2","area":1075875842,"sort_rank":18,"min_zoom":3.0},"arcs":[[[128]]]},{"type":"MultiPolygon","properties":{"source":"naturalearthdata.com","kind":"urban_area","name":"","area":1227832804,"sort_rank":11,"min_zoom":4.0},"arcs":[[[129]],[[130]],[[131]]]},{"type":"MultiPolygon","properties":{"kind":"national_park","protect_class":"2","area":1862397431,"sort_rank":18,"source":"openstreetmap.org","min_zoom":5.0,"tier":1,"osm_relation":true},"arcs":[[[132]]]}]}},"type":"Topology","transform":{"translate":[95.625,16.6361918784],"scale":[0.0006866455,0.0006530643]},"arcs":[[[3151,4045],[14,5],[12,31],[-8,15]],[[3135,4046],[16,-1]],[[3084,2960],[4,3],[9,17],[12,62],[-10,62],[-17,61],[-7,57],[-1,34],[-4,27],[-18,57],[-2,13],[6,40],[-6,19],[-16,16],[-35,27],[-33,33],[-5,18],[14,15],[31,22],[21,22],[10,24],[10,59],[15,28],[91,70],[21,24],[9,21],[7,120],[-4,28],[-11,29],[-13,14],[-39,32],[-8,13],[6,17],[14,2]],[[3077,2962],[7,-2]],[[3008,2943],[69,19]],[[2931,2945],[77,-2]],[[2745,2841],[56,27],[101,67],[29,10]],[[2514,2932],[32,-4],[10,-1],[13,-8],[30,-48],[4,-12],[6,-11],[16,-10],[16,-2]],[[2772,2495],[-30,17],[-31,24],[-29,29],[-20,34],[-9,38],[0,35],[-5,34],[-37,58],[-34,70],[-6,23],[-16,29],[-32,29],[-9,17]],[[2677,2842],[68,-1]],[[2641,2836],[36,6]],[[3019,2181],[-5,2],[-3,13],[2,7],[6,15],[2,9],[-4,17],[-13,28],[-3,18],[0,13],[-2,9],[-6,10],[-74,105],[-17,31],[5,15],[21,10],[11,23],[1,28],[-9,23],[-19,11],[-74,30]],[[2838,2598],[-16,-4],[-3,-3],[-27,-74],[-7,-11],[-13,-11]],[[4096,572],[-2,3],[-27,27],[-26,17],[-29,8],[-72,2],[-25,8],[-20,19],[-19,35],[5,5],[8,14],[-1,12],[-38,0],[-4,13],[7,18],[12,13],[-33,23],[-51,75],[-28,23],[-23,13],[-125,120],[-11,15],[-3,20],[5,32],[1,19],[-9,22],[-17,11],[-21,7],[-20,11],[-19,20],[-11,21],[-15,44],[-32,51],[-6,23],[-13,15],[-16,10],[-34,16],[-22,14],[-37,36],[-203,190],[-14,19],[-9,21],[-2,20],[0,17],[-3,16],[-12,16],[-36,30],[-8,17],[-7,21],[-14,18],[-18,15],[-12,22],[34,4],[-20,73],[9,22],[41,73],[40,27],[5,5],[5,8],[-4,18],[-6,18],[-5,8],[-6,8],[-21,52],[-5,18],[-3,7],[-20,9],[-6,4]],[[3025,2183],[-6,-2]],[[621,1722],[13,-5],[10,-7],[10,-16],[45,-109],[264,-460],[11,-26],[51,-227],[9,-21],[10,-17],[22,-27],[28,-44],[16,-36],[13,-58],[1,-20],[-8,-70],[5,-38],[72,-6]],[[177,1265],[40,78],[28,30],[33,16],[48,39],[23,30],[37,69],[18,20],[84,47],[25,18],[17,16],[19,28],[37,47],[18,14],[17,5]],[[1382,547],[126,-11],[79,-15],[18,-6],[13,-7],[12,-10],[46,-54],[53,-47],[22,-8]],[[1193,535],[189,12]],[[0,1461],[36,-13],[33,-23],[31,-39],[77,-121]],[[1751,389]],[[1832,1257]],[[3849,1434],[-6,1],[-4,4],[-2,7],[-2,20],[-1,60],[2,12],[3,12],[4,8],[7,9],[26,18],[12,11],[12,27]],[[4073,939],[-9,1],[-7,2],[-5,3],[-7,6],[-6,8],[-5,3],[-4,3],[-15,6],[-4,3],[-4,3],[-10,11],[-3,3],[-5,3],[-25,10],[-7,7],[-4,3],[-3,4],[-2,4],[-2,7],[0,7],[3,12],[3,8],[1,11],[0,13],[-13,52],[-2,5],[-3,4],[-17,18],[-2,5],[0,5],[6,9],[5,5],[14,8],[3,4],[2,5],[1,6],[-1,7],[-6,7],[-5,4],[-11,4],[-5,3],[-3,6],[0,9],[12,52],[4,35],[-1,12],[-3,13],[-21,64],[-3,5],[-3,4],[-5,2],[-15,6],[-6,1]],[[3875,1440],[-5,-1],[-5,-1],[-5,-2],[-5,-2],[-6,0]],[[4096,945],[-2,-1],[-5,-2],[-7,-2],[-9,-1]],[[3756,3872],[5,-1],[5,-2],[4,-3],[6,-8],[4,-4],[4,-3],[5,-2],[12,-1],[5,-2],[5,-3],[8,-6],[20,-22],[3,-4],[15,-34],[3,-4],[3,-4],[4,-3],[20,-14],[7,-7],[6,-8],[5,-9],[17,-19],[6,-8],[7,-14],[3,-4],[7,-7],[4,-3],[10,-5],[5,-1],[12,-2]],[[3612,3274],[-6,1],[-3,3],[-5,10],[-15,46],[-2,15],[-1,11],[42,93],[13,46],[4,27],[0,10],[-1,7],[-5,17],[-14,37],[-2,11],[0,7],[1,5],[1,2],[32,61],[1,7],[-1,6],[-19,44],[-1,7],[2,5],[3,4],[8,6],[19,13],[7,7],[4,5],[3,5],[4,19],[5,31],[4,7],[5,2],[6,0],[5,2],[5,2],[10,11],[4,2],[5,3],[6,1],[20,0]],[[4022,3668],[25,-3],[24,-5],[21,-7],[4,-2]],[[3976,3665],[46,3]],[[3738,2758],[6,1],[5,2],[5,3],[5,6],[5,10],[0,6],[-2,5],[-8,6],[-9,5],[-16,12],[-5,3],[-10,3],[-6,2],[-6,1],[-9,5],[-4,3],[-40,51],[-22,33],[-3,8],[1,7],[3,11],[3,12],[-1,52],[-2,12],[-3,9],[-11,16],[-7,13],[-3,9],[0,7],[2,5],[3,5],[6,8],[3,4],[2,8],[-1,13],[-2,25],[0,22],[0,7],[-1,19],[1,13],[2,12],[5,16],[3,4],[6,14],[2,13],[-1,8],[-2,6],[-4,2],[-5,0]],[[3623,3275],[-11,-1]],[[3713,2765],[5,0],[9,-4],[5,-2],[6,-1]],[[3900,1623],[-83,34],[-18,16],[0,13],[-10,22],[-15,21],[-5,12],[-1,8],[2,5],[3,3],[6,2],[5,3],[3,5],[-2,12],[1,9],[2,6],[3,3],[12,10],[4,2],[4,5],[2,6],[0,13],[-4,10],[-7,10],[-7,9],[-5,6],[-6,3],[-5,2],[-8,5],[-10,9],[-31,41],[-7,7],[-37,47],[-4,3],[-45,26],[-29,28],[-7,8],[-5,10],[-10,27],[-5,27],[-1,8],[0,7],[2,5],[5,10],[2,5],[7,35],[2,5],[5,9],[7,8],[3,3],[9,6],[15,6],[4,3],[2,6],[1,9],[-1,16],[-2,9],[-4,10],[-19,28],[-5,13],[-1,10],[6,23],[0,6],[1,34],[-3,21],[-2,10],[-4,8],[-14,13],[-3,7],[0,7],[19,65],[8,20],[9,16],[3,9],[0,7],[-3,4],[-11,6],[-7,7],[-3,8],[-3,9],[-1,7],[0,7],[1,6],[1,5],[3,5],[3,4],[3,3],[61,52],[6,8],[10,18],[4,10],[3,18],[4,11],[3,4],[3,3],[4,2]],[[3900,1623],[-78,-17],[-9,-3],[-9,-5],[-15,-11],[-14,-12],[-15,-20],[-7,-8],[-6,-2],[-7,-2]],[[3740,1543],[-41,4]],[[3699,1547],[-53,-1],[-14,-3],[-20,-8],[-158,-78],[-22,-16],[-3,-4],[-18,-6],[-63,-3],[-23,-21]],[[1769,4061],[-5,-43],[4,-18],[12,-29],[4,-7],[12,-34],[4,-31],[4,-14],[4,-8],[15,-7],[4,-2],[12,-10],[4,-2],[6,-1],[7,-1],[10,-6],[13,-13],[25,-35],[8,-19],[5,-18],[4,-9],[5,-8],[10,-13],[4,-7],[1,-7],[-3,-16],[5,-37],[9,-30],[-1,-10],[1,-27],[4,-17],[11,-31],[11,-21],[14,-15],[10,-9],[19,-22],[3,-9],[1,-6],[-5,-12],[-4,-17],[1,-7],[3,-5],[3,-3],[5,-3],[5,-2],[15,-14],[32,-51],[5,-31],[84,-163],[13,-17],[5,-1]],[[2209,3146],[6,0],[46,-11],[51,-4]],[[2187,3143],[6,0],[16,3]],[[2441,3134],[15,-4],[7,-4],[5,-5],[8,-13],[7,-22],[6,-13],[13,-16],[5,-8],[3,-5],[17,-63],[18,-52],[1,-1]],[[2312,3131],[129,3]],[[1770,4064],[-1,-3]],[[1770,4064],[34,32]],[[1769,4061],[0,3],[-1,20],[1,12]],[[277,3869],[10,5],[2,3],[4,4],[1,6],[1,6],[0,36],[1,10],[2,7],[2,5],[6,8],[19,16],[4,4],[2,8],[8,56],[-1,42],[-1,11]],[[206,3898],[21,-3],[12,-3],[38,-23]],[[0,3874],[163,24],[43,0]],[[357,0],[-13,25],[20,11],[16,17],[20,50],[9,59],[-10,42],[-24,42],[-15,34],[0,36],[11,28],[1,7],[4,0],[31,61],[-5,42],[-30,38],[-30,29],[-11,18],[-3,13],[1,14],[-1,12],[0,29],[-12,21],[-19,20],[-23,40],[-13,31],[-12,19],[-36,36],[-31,23],[-14,17],[-8,15],[-6,14],[-8,10],[-27,20],[-21,100],[-2,44],[13,62],[9,29],[42,88],[17,69]],[[1569,3014],[-10,1],[-8,5],[-5,9],[-6,21],[-4,9],[-26,30],[-10,21],[-18,52],[-39,71],[1,26],[39,45],[-4,21],[-20,29],[-14,25],[-3,21],[6,16],[11,13],[20,14],[56,38],[8,19],[-3,7],[-5,7],[-14,12],[-5,8],[-8,21],[-6,9],[-7,7],[-44,40],[-46,34],[-56,55],[-30,42],[-9,16],[-6,14],[-2,11],[-3,15],[-5,8],[-11,5],[-7,22],[2,4],[6,6],[18,13],[28,28],[0,11],[-4,8],[-9,5],[-8,3],[-8,9],[-7,13],[-9,36],[-6,17],[-5,11],[-5,4],[-7,9],[-7,13],[-9,25],[-8,15],[-9,11],[-9,9],[-2,9],[0,4]],[[2122,2530],[-14,6],[-8,9],[-4,10],[-1,8],[3,22],[-2,13],[-5,9],[-22,21],[-7,7],[-9,5],[-25,10],[-16,9],[-11,12],[-12,17],[-21,37],[-7,20],[-2,16],[9,19],[4,10],[2,10],[1,14],[0,8],[1,10],[11,51],[0,30],[-9,37],[-1,11],[1,12],[-1,16],[-6,15],[-6,11],[-8,8],[-18,13],[-3,9],[-2,12],[-5,9],[-7,7],[-8,3],[-13,0]],[[1901,3076],[-70,-22],[-73,-40],[-16,-7],[-12,-1]],[[1730,3006],[-23,9],[-23,3],[-15,4],[-12,5],[-19,12],[-13,5]],[[1625,3044],[-10,0],[-9,-4],[-9,-7],[-10,-9],[-18,-10]],[[2343,1392],[-30,22],[0,18],[3,9],[2,7],[2,60],[-48,124],[-9,33],[-2,23],[5,9],[18,24],[4,9],[8,30],[3,33],[-1,18],[-5,13],[-7,5],[-9,5],[-8,5],[-6,12],[1,14],[-2,12],[-3,11],[-64,133],[-3,15],[0,11],[8,18],[5,9],[6,7],[12,12],[5,7],[5,8],[6,18],[5,8],[6,7],[6,8],[17,39],[4,12],[2,37],[1,7],[4,9],[12,23],[6,20],[0,14],[-3,12],[-6,8],[-8,6],[-56,42],[-22,26],[-1,25],[3,18],[0,40],[-6,28],[-12,39],[-10,15],[-11,6]],[[2170,2575],[-9,-2],[-8,-6],[-7,-7],[-4,-8],[-5,-14],[-6,-6],[-9,-2]],[[2699,599],[6,0],[4,2],[4,4],[3,5],[3,7],[3,12],[-2,8],[-3,8],[-6,11],[-1,7],[1,6],[3,3],[10,5],[7,4],[2,2],[5,9],[2,8],[2,6],[3,5],[5,2],[5,2],[6,4],[12,21],[3,9],[0,6],[-2,5],[-7,14],[-23,67],[17,25],[2,14],[-5,17],[-7,19],[-2,5],[-12,38],[-1,11],[1,8],[3,4],[9,8],[5,6],[8,13],[-1,9],[-2,10],[-11,26],[-4,6],[-3,4],[-3,3],[-9,7],[-3,4],[-5,8],[-15,34],[-7,8],[-3,3],[-5,9],[-16,52],[-5,32],[-5,17],[-5,10],[-7,10],[-3,7],[0,7],[19,86],[-1,8],[-2,5],[-3,4],[-11,10],[-9,5],[-15,6],[-4,3],[-15,14],[-6,7],[-5,9],[-33,82],[-3,11],[-1,8],[1,6],[10,32],[6,9],[31,24],[8,12],[1,6],[0,7],[-2,8],[-3,5],[-4,3]],[[2609,1645],[-4,-1],[-3,-3],[-5,-9],[-4,-3]],[[2593,1629],[-4,1],[-5,1],[-4,3],[-5,2],[-5,2]],[[2570,1638],[-7,0],[-6,-3],[-5,-4],[-2,-5],[-1,-5],[0,-7],[2,-17],[-1,-5],[-3,-4],[-11,-6],[-7,-6],[-5,-7],[-20,-36],[-2,-5],[-1,-6],[0,-6],[0,-6],[-1,-7],[-3,-10],[-13,-27],[-6,-5],[-6,-2]],[[2472,1459],[-35,16],[-6,1],[-9,0]],[[2422,1476],[-6,-2],[-22,-26],[-13,-8],[-7,-6],[-5,-5],[-1,-6],[-1,-5],[0,-14],[-2,-9],[-4,-3],[-5,-1]],[[2356,1391],[-13,1]],[[2694,600],[5,-1]],[[2934,0],[0,3],[-3,11],[-4,6],[-5,4],[-25,11],[-28,31],[-47,61],[-7,13],[-3,11],[-2,25],[-5,22],[4,17],[-2,22],[-24,31],[-2,6],[-1,10],[2,7],[0,13],[-1,6],[-3,5],[-16,12],[-10,9],[-6,14],[-7,10],[-11,14],[-3,8],[-1,6],[4,11],[1,6],[-3,31],[4,18],[0,12],[0,6],[-2,4],[-30,37],[-4,8],[-3,6],[-7,51],[1,13],[3,8],[6,1]],[[2002,1486],[-17,3],[-21,8],[-11,3],[-9,1]],[[1944,1501],[-4,-3],[-4,-3],[-4,-3],[-5,-2],[-6,-1]],[[1921,1489],[-19,1],[-16,5]],[[1886,1495],[-5,-1],[-12,-3],[-12,-5],[-14,-6],[-10,-51],[-1,-172]],[[2181,1295],[-4,2],[-6,3],[-5,20],[-1,2],[-1,6],[-1,5],[0,17],[-5,17],[-10,12],[-20,18],[-11,7],[-9,4],[-15,2],[-26,11],[-9,4],[-5,5],[-32,44],[-8,8],[-7,4]],[[2006,1486],[-4,0]],[[2343,1392],[-5,-18],[-20,-17],[-25,-18],[-82,-38],[-30,-6]],[[903,0],[-6,21],[-38,46],[-15,25],[-10,58],[-5,14],[-25,29],[-9,14],[52,9],[74,59],[43,-4],[-17,-16],[-59,-40],[-13,-23],[1,-34],[4,-32],[9,-32],[29,-62],[9,-25],[1,-7],[-25,0]],[[1569,0],[20,34],[14,16],[59,43],[25,24],[26,38],[-15,15],[-2,14],[10,9],[22,4],[21,53],[9,34],[21,36],[3,23],[-7,21],[-14,17],[-18,14],[-20,11],[0,11],[19,-2],[32,-7],[18,-2],[-10,12],[-9,13],[-6,13],[-4,15],[48,-12],[15,10],[12,69],[26,47],[9,22],[-1,64],[-22,54],[-58,103],[-9,67],[24,42],[36,32],[30,36],[-1,50],[-38,33],[-48,32],[-33,44],[-10,9],[4,6],[8,6],[8,6],[9,4],[4,-9],[11,-14],[5,-8],[12,23],[11,58],[17,25],[8,-21],[-2,-49],[4,-27],[8,-15],[13,-14],[159,-117],[-9,-32],[24,-16],[36,-11],[29,-14],[15,-31],[5,-33],[10,-25],[30,-6],[0,-11],[-20,-25],[7,-49],[20,-51],[24,-32],[16,30],[9,27],[15,19],[34,7],[31,-3],[28,-10],[57,-28],[-40,-18],[-46,16],[-40,10],[-26,-39],[2,-20],[9,-22],[11,-20],[9,-12],[25,-25],[4,-13],[1,-25],[-18,-77],[-5,-39],[12,-31],[16,8],[13,2],[12,-10],[-20,-41],[-2,-23],[1,-22],[6,-18],[15,-11],[2,22],[5,19],[13,33],[11,0],[-11,-39],[0,-14],[4,-16],[13,-18],[-21,-32],[0,-42],[14,-57],[23,-53],[44,-59],[37,-10],[27,42],[11,-37],[0,-30],[-925,0]],[[903,0],[-6,21],[-38,46],[-15,25],[-10,58],[-5,14],[-25,29],[-9,14],[52,9],[74,59],[43,-4],[-17,-16],[-59,-40],[-13,-23],[1,-34],[4,-32],[9,-32],[29,-62],[9,-25],[1,-7]],[[1569,0],[20,34],[14,16],[59,43],[25,24],[26,38],[-15,15],[-2,14],[10,9],[22,4],[21,53],[9,34],[21,36],[3,23],[-7,21],[-14,17],[-18,14],[-20,11],[0,11],[19,-2],[32,-7],[18,-2],[-10,12],[-9,13],[-6,13],[-4,15],[48,-12],[15,10],[12,69],[26,47],[9,22],[-1,64],[-22,54],[-58,103],[-9,67],[24,42],[36,32],[30,36],[-1,50],[-38,33],[-48,32],[-33,44],[-10,9],[4,6],[8,6],[8,6],[9,4],[4,-9],[11,-14],[5,-8],[12,23],[11,58],[17,25],[8,-21],[-2,-49],[4,-27],[8,-15],[13,-14],[159,-117],[-9,-32],[24,-16],[36,-11],[29,-14],[15,-31],[5,-33],[10,-25],[30,-6],[0,-11],[-20,-25],[7,-49],[20,-51],[24,-32],[16,30],[9,27],[15,19],[34,7],[31,-3],[28,-10],[57,-28],[-40,-18],[-46,16],[-40,10],[-26,-39],[2,-20],[9,-22],[11,-20],[9,-12],[25,-25],[4,-13],[1,-25],[-18,-77],[-5,-39],[12,-31],[16,8],[13,2],[12,-10],[-20,-41],[-2,-23],[1,-22],[6,-18],[15,-11],[2,22],[5,19],[13,33],[11,0],[-11,-39],[0,-14],[4,-16],[13,-18],[-21,-32],[0,-42],[14,-57],[23,-53],[44,-59],[37,-10],[27,42],[11,-37],[0,-30]],[[3410,4074],[5,22]],[[1583,4096],[-11,-22],[-30,-32],[-24,-6],[-48,-7],[-48,-56],[0,-32],[-24,-50],[-48,-19],[-30,-51],[-36,-38],[0,-12],[54,-95],[24,-19],[18,-25]],[[1194,3524],[60,19],[24,25],[30,19],[36,26],[36,19]],[[1194,3524],[-12,51],[-36,44],[-30,51],[-25,63],[-6,82],[-12,31],[-18,26],[-42,31],[-18,25],[-6,13],[-18,38],[-6,69],[-4,48]],[[1140,3354],[6,44],[18,50],[36,26],[0,19],[-6,31]],[[0,3453],[4,2],[42,-13],[60,0],[48,6],[43,-12],[36,12],[30,-12],[42,-13],[18,7],[6,18],[6,38],[6,26],[24,19],[24,-7],[42,7],[42,0],[54,-26],[24,-19],[42,0],[36,-25],[36,-31],[60,-7],[72,-25],[42,0],[18,-13],[0,-31],[18,0],[18,25],[30,-25],[24,12],[36,-6],[48,0],[60,-6],[49,0]],[[3362,2337],[6,69],[0,32],[-6,63],[-30,38],[-6,19],[6,32],[18,19],[18,56],[6,26],[0,50],[-12,44],[6,26],[-18,50],[12,38],[-6,44],[24,38],[-6,25],[0,51],[-12,38],[-12,19],[-30,63],[36,57],[12,38],[-12,50],[0,19],[24,51],[-12,63],[24,44],[30,107],[-6,19],[18,51],[6,31],[0,45],[-6,31],[-18,19],[-18,38],[12,32],[24,25],[6,38],[-36,76],[-6,37],[12,26]],[[4005,2305],[24,19],[48,7],[19,5]],[[3362,2337],[48,-6],[12,-19],[30,-7],[72,-6],[60,-19],[36,6],[60,-19],[48,13],[30,25],[30,26],[67,-19],[30,0],[48,-7],[12,7],[48,6],[12,-13]],[[1776,1289],[-72,50],[-24,6],[-60,0],[-54,-31],[-18,-25]],[[1824,1301],[-48,-12]],[[1332,1289],[0,37],[24,83],[24,50],[36,76],[0,25],[-6,57],[30,50],[42,57],[18,45],[54,82],[30,25],[30,19],[0,50],[6,64],[-6,12],[-30,6],[-24,51],[-48,76],[-6,25],[-30,51],[-24,56],[6,38],[-24,38],[-54,7],[-18,31],[6,25],[-30,7],[-12,19],[-54,101],[-42,101],[-24,38],[-30,63],[-6,38],[-6,50],[-12,32],[-6,57],[-6,107],[-6,32],[0,138],[6,102],[0,44]],[[1818,1251],[-24,12],[-18,26]],[[1548,1289],[-6,-13],[-66,-38],[-48,25],[-96,26]],[[377,1213],[-24,44],[-30,19],[-18,19],[-6,31],[12,51],[-6,25],[-18,32],[-30,95],[-18,56],[-6,38],[-6,101],[-18,38],[0,44],[-25,51],[-6,114],[-18,132],[-24,38],[0,32],[-18,101],[-24,38],[-42,19],[-18,19],[-12,44],[-22,129]],[[1306,1133],[-10,-34],[-27,-28]],[[1269,1071],[-9,-10]],[[1332,1289],[-6,-51],[-18,-101],[-2,-4]],[[2365,878],[-30,0],[-48,32],[-48,63],[-12,12],[-30,0],[-12,13],[-42,6],[-36,19],[-60,13],[-6,38],[-18,25],[-12,44],[-19,26],[-54,37],[-30,0],[-48,0],[6,51],[-12,38],[-30,6]],[[1260,1061],[-18,-12],[-6,-26],[0,-38],[-6,-63],[-12,-19],[-54,-31],[-42,-26],[-61,-44],[-30,-12]],[[1031,790],[-78,-38],[-60,-44],[-36,-19],[-78,-51],[-24,-19]],[[755,619],[-24,6],[-12,26],[-42,57],[-18,6],[-60,-6],[-30,12],[-42,76],[-18,50],[-12,57],[18,32],[-6,25],[-18,57],[-30,51],[-54,12],[-24,32],[12,63],[-18,38]],[[2545,436],[-24,82],[-24,51],[-42,145],[-12,63],[-18,44],[-36,44],[-24,13]],[[2930,392],[-43,6],[-30,19],[-42,44],[-18,25],[-18,13],[-42,6],[-30,26],[-30,-13],[-30,-32],[0,-37],[-24,-26],[-24,0],[-54,13]],[[2966,367],[-18,18],[-18,7]],[[3104,240],[-48,13],[-30,44],[-24,25],[-36,45]],[[791,215],[18,19],[42,76],[24,31]],[[875,341],[30,51],[72,88],[12,32],[6,69],[12,57],[12,76],[18,44],[-6,32]],[[739,460],[22,-100],[-6,-50],[18,-70],[18,-25]],[[755,619],[6,-50],[-24,-38],[0,-63],[2,-8]],[[791,196],[-18,0]],[[773,196],[-36,0],[-2,-2]],[[735,194],[-16,-17],[-30,-6],[-54,-44],[-54,-13]],[[3380,0],[-12,44],[-12,38],[-6,57],[-24,-6],[-36,31],[-24,45],[-30,19],[-66,0],[-66,12]],[[4096,99],[-19,-10],[-18,0],[-42,6],[-42,-19],[-48,6],[-30,-19],[-36,-12],[-30,-19],[-8,-32]],[[2668,0],[-3,7],[-30,101],[-18,75],[-36,82],[-24,114],[-12,57]],[[581,114],[-6,-19],[12,-32],[6,-38],[18,-25]],[[2494,0],[0,30],[-11,37],[-27,-42],[-37,10],[-44,59],[-23,53],[-14,57],[0,42],[21,32],[-13,18],[-4,16],[0,14],[11,39],[-11,0],[-13,-33],[-5,-19],[-2,-22],[-15,11],[-6,18],[-1,22],[2,23],[20,41],[-12,10],[-13,-2],[-16,-8],[-12,31],[5,39],[18,77],[-1,25],[-4,13],[-25,25],[-9,12],[-11,20],[-9,22],[-2,20],[26,39],[40,-10],[46,-16],[40,18],[-57,28],[-28,10],[-31,3],[-34,-7],[-15,-19],[-9,-27],[-16,-30],[-24,32],[-20,51],[-7,49],[20,25],[0,11],[-30,6],[-10,25],[-5,33],[-15,31],[-29,14],[-36,11],[-24,16],[9,32],[-159,117],[-13,14],[-8,15],[-4,27],[2,49],[-8,21],[-17,-25],[-11,-58],[-12,-23],[-5,8],[-11,14],[-4,9],[-9,-4],[-8,-6],[-8,-6],[-4,-6],[10,-9],[33,-44],[48,-32],[38,-33],[1,-50],[-30,-36],[-36,-32],[-24,-42],[9,-67],[58,-103],[22,-54],[1,-64],[-9,-22],[-26,-47],[-12,-69],[-15,-10],[-48,12],[4,-15],[6,-13],[9,-13],[10,-12],[-18,2],[-32,7],[-19,2],[0,-11],[20,-11],[18,-14],[14,-17],[7,-21],[-3,-23],[-21,-36],[-9,-34],[-21,-53],[-22,-4],[-10,-9],[2,-14],[15,-15],[-26,-38],[-25,-24],[-59,-43],[-14,-16],[-20,-34],[-641,0],[-1,7],[-9,25],[-29,62],[-9,32],[-4,32],[-1,34],[13,23],[59,40],[17,16],[-43,4],[-74,-59],[-52,-9],[9,-14],[25,-29],[5,-14],[10,-58],[15,-25],[38,-46],[6,-21],[-903,0],[0,3191],[0,905],[4096,0],[0,-4096],[-1602,0]],[[2889,2463],[45,66],[71,42],[5,47],[71,-19],[-93,53],[181,-23],[-17,-57],[60,-127],[-19,-51],[81,9],[33,-69],[-18,-32],[14,-136],[-36,5],[35,-25],[-105,-64],[-82,12],[-40,-26],[-42,107],[-40,28],[63,14],[22,44],[-65,-49],[-26,103],[24,11],[0,28],[47,-8],[129,12],[-96,4],[-11,23],[-16,-17],[19,-10],[-59,15],[-35,-47],[-100,137]],[[3092,2466],[29,-12],[44,5],[24,-17],[10,3],[-34,25],[-73,-4]],[[3088,2263],[51,-27],[23,6],[-59,22],[-15,-1]],[[3195,2163],[29,-22],[12,24],[-37,8],[-4,-10]],[[3168,2304],[5,3],[14,-4],[-10,14],[-9,-13]],[[3239,2133],[4,-6],[12,9],[-14,0],[-2,-3]],[[4096,2315],[0,-4],[-1,2],[1,2]],[[4096,2422],[0,-22],[-8,14],[8,8]],[[4096,2582],[0,-137],[-71,54],[-4,8],[9,16],[-15,17],[81,42]],[[4051,2499],[0,-8],[15,1],[2,5],[-17,2]],[[4023,2507],[4,-6],[8,1],[-10,6],[-2,-1]],[[3203,4096],[161,0],[-12,-37],[-141,23],[-8,14]],[[4096,2904],[0,-12],[-5,5],[5,7]],[[4096,3069],[0,-111],[-5,74],[-47,42],[52,-5]],[[3453,4096],[92,0],[0,-3],[43,-17],[-27,-144],[57,-81],[-23,-21],[15,-58],[-31,-12],[12,-78],[-51,-2],[25,-74],[-27,-32],[29,-81],[-21,3],[-1,-40],[-40,11],[8,-34],[-121,36],[28,107],[25,9],[-5,56],[123,86],[-106,72],[10,85],[-45,97],[46,40],[-59,25],[12,30],[76,-41],[30,41],[-69,2],[-5,18]],[[656,485],[3,-22],[77,-7],[20,24],[113,-68],[7,-82],[36,-3],[9,-52],[-74,-59],[-52,-9],[29,-50],[-80,15],[-43,98],[-74,40],[32,102],[-49,85],[18,14],[28,-26]],[[966,224],[-34,21],[40,58],[43,-61],[-49,-18]],[[1274,1041],[-17,102],[82,-17],[-5,-33],[-60,-52]],[[3514,1279],[11,23],[41,-5],[-27,18],[29,76],[29,-20],[-9,-24],[68,-20],[108,-94],[1,-50],[-78,-14],[-61,36],[-49,-51],[-52,65],[40,-17],[8,39],[-44,-2],[-15,40]]]}