{"objects":{"water":{"type":"GeometryCollection","geometries":[]},"buildings":{"type":"GeometryCollection","geometries":[]},"places":{"type":"GeometryCollection","geometries":[{"type":"Point","properties":{"kind":"region","name":"Warrap State","kind_detail":"state","name:ar":"\u0648\u0627\u0631\u0627\u0628","min_zoom":4.0,"name:de":"Warrap","source":"openstreetmap.org","name:fr":"Warab","name:uk":"\u0412\u0430\u0440\u0430\u0431","name:ru":"\u0412\u0430\u0440\u0430\u0431","name:pl":"Warrap","id":321446194},"coordinates":[1092,274]}]},"transit":{"type":"GeometryCollection","geometries":[]},"pois":{"type":"GeometryCollection","geometries":[]},"boundaries":{"type":"GeometryCollection","geometries":[{"type":"LineString","properties":{"name:right:yo":"Sudan","name:left:la":"Sudania Australis","name:left:lb":"S\u00fcdsudan","name:right:yi":"\u05e1\u05d5\u05d3\u05d0\u05df","name:right:hy":"\u054d\u0578\u0582\u0564\u0561\u0576","name:left:su":"Sudan Kidul","name:left:li":"Zuid-Soedan","name:right:hr":"Sudan","name:left:sv":"Sydsudan","name:left:sq":"Sudani i Jugut","name:right:hu":"Szud\u00e1n","name:left:sr":"\u0408\u0443\u0436\u043d\u0438 \u0421\u0443\u0434\u0430\u043d","name:left:sl":"Ju\u017eni Sudan","name:left:so":"Koonfur Suudaan","name:left:lt":"Piet\u0173 Sudanas","name:left:sh":"Ju\u017eni Sudan","name:left:lv":"Dienvidsud\u0101na","name:left:vo":"Sul\u00fcda-Sud\u00e4n","name:left:se":"Lulli-Sudan","name:right:ha":"Sudan","name:left:sg":"Sud\u00e4an-Mbongo","name:left:hu":"D\u00e9l-Szud\u00e1n","name:right:he":"\u05e1\u05d5\u05d3\u05d0\u05df","name:left:sc":"Sudan Meridionali","name:left:hi":"\u0926\u0915\u094d\u0937\u093f\u0923 \u0938\u0942\u0921\u093e\u0928","name:right:af":"Soedan","name:right:tr":"Sudan","name:right:an":"Sud\u00e1n","name:right:am":"\u1231\u12f3\u1295","name:left:ca":"Sudan del Sud","source":"openstreetmap.org","name:left:cy":"De Sudan","name:left:he":"\u05d3\u05e8\u05d5\u05dd \u05e1\u05d5\u05d3\u05d0\u05df","name:right:mt":"Sudan","name:right:az":"Sudan","name:left:cs":"Ji\u017en\u00ed S\u00fad\u00e1n","name:left:sw":"Sudan Kusini","name:left:ka":"\u10e1\u10d0\u10db\u10ee\u10e0\u10d4\u10d7\u10d8 \u10e1\u10e3\u10d3\u10d0\u10dc\u10d8","name:right:zh-yue":"\u8607\u4e39","name:right:ts":"Sudan","name:right:ht":"Soudan","name:left:ko":"\ub0a8\uc218\ub2e8","name:right:it":"Sudan","name:right:is":"S\u00fadan","name:left:ro":"Sudanul de Sud","name:left:kk":"\u041e\u04a3\u0442\u04af\u0441\u0442\u0456\u043a \u0421\u0443\u0434\u0430\u043d","name:left:rm":"Sudan dal Sid","name:left:ku":"S\u00fbdana Ba\u015f\u00fbr","name:left:kw":"Soudan Soth","name:left:kv":"\u041b\u0443\u043d\u0432\u044b\u0432 \u0421\u0443\u0434\u0430\u043d","name:left:pl":"Sudan Po\u0142udniowy","name:right:ro":"Sudan","name:left:ru":"\u042e\u0436\u043d\u044b\u0439 \u0421\u0443\u0434\u0430\u043d","name:right:ig":"Sudan","name:right:rm":"Sudan","name:right:id":"Sudan","name:left:ky":"\u0422\u04af\u0448\u0442\u04af\u043a \u0421\u0443\u0434\u0430\u043d","name:right:ia":"Sudan","name":"South Sudan - \u0627\u0644\u0633\u0648\u062f\u0627\u0646","name:right:bn":"\u09b8\u09c1\u09a6\u09be\u09a8","name:right:bo":"\u0f66\u0f74\u0f60\u0f74\u0f0b\u0f4f\u0f53\u0f0d","name:right:bm":"Sudan","name:right:ba":"\u0421\u0443\u0434\u0430\u043d","name:right:th":"\u0e1b\u0e23\u0e30\u0e40\u0e17\u0e28\u0e0b\u0e39\u0e14\u0e32\u0e19","name:right:bg":"\u0421\u0443\u0434\u0430\u043d","name:right:be":"\u0421\u0443\u0434\u0430\u043d","name:left:zh":"\u5357\u8607\u4e39","name:right:br":"Soudan","name:right:bs":"Sudan","name:right:zh":"\u82cf\u4e39\u5171\u548c\u56fd","name:right:nn":"Sudan","name:left:uz":"Janubiy Sudan","name:right:nl":"Soedan","name:right:fr":"Soudan","name:left:sk":"Ju\u017en\u00fd Sud\u00e1n","name:left:nv":"Sh\u00e1di\u02bc\u00e1\u00e1hj\u00ed Sood\u0105\u0301\u0105","name:left:ur":"\u062c\u0646\u0648\u0628\u06cc \u0633\u0648\u0688\u0627\u0646","name:right:wo":"Sudaan","id:right":-192789,"name:left:uk":"\u041f\u0456\u0432\u0434\u0435\u043d\u043d\u0438\u0439 \u0421\u0443\u0434\u0430\u043d","name:left:no":"S\u00f8r-Sudan","name:left:nl":"Zuid-Soedan","name:right:gv":"Yn Toodaan","name:right:hi":"\u0938\u0942\u0921\u093e\u0928","name:right:fa":"\u0633\u0648\u062f\u0627\u0646","name:right:nv":"Sood\u0105\u0301\u0105","name:right:fo":"Sudan","name:left:zu":"ISudan yaseNingizimu","name:right:fi":"Sudan","name:left:eo":"Suda Sudano","name:left:el":"\u039d\u03cc\u03c4\u03b9\u03bf \u03a3\u03bf\u03c5\u03b4\u03ac\u03bd","kind_detail":"2","alt_name:right:vi":"Xu-\u0111\u0103ng","name:right:ki":"S\u0169dana","name:left:es":"Sud\u00e1n del Sur","name:left:ie":"Sud-Sudan","name:left:eu":"Hego Sudan","name:left:et":"L\u00f5una-Sudaan","name:right:om":"Sudaan","name:right:zh-min-nan":"Sudan","name:right:ps":"\u0633\u0648\u0689\u0627\u0646","name:right:pt":"Sud\u00e3o","name:left:mk":"\u0408\u0443\u0436\u0435\u043d \u0421\u0443\u0434\u0430\u043d","name:left:tr":"G\u00fcney Sudan","name:left:tt":"\u041a\u04e9\u043d\u044c\u044f\u043a \u0421\u0443\u0434\u0430\u043d","name:right:oc":"Sodan","name:left:ml":"\u0d26\u0d15\u0d4d\u0d37\u0d3f\u0d23 \u0d38\u0d41\u0d21\u0d3e\u0d7b","name:left:ms":"Sudan Selatan","name:right:pa":"\u0a38\u0a41\u0a21\u0a3e\u0a28","name:left:zh-min-nan":"L\u00e2m Sudan","name:left:tk":"G\u00fcnorta Sudan","name:left:tl":"Timog Sudan","name:right:ko":"\uc218\ub2e8","name:right:gl":"Sud\u00e1n","name:left:my":"\u1010\u1031\u102c\u1004\u103a\u1006\u1030\u1012\u1014\u103a\u1014\u102d\u102f\u1004\u103a\u1004\u1036","name:right:kn":"\u0cb8\u0cc1\u0ca1\u0cbe\u0ca8\u0ccd","name:right:pl":"Sudan","name:left:te":"\u0c26\u0c15\u0c4d\u0c37\u0c3f\u0c23 \u0c38\u0c42\u0c21\u0c3e\u0c28\u0c4d","name:right:os":"\u0421\u0443\u0434\u0430\u043d","name:right:or":"\u0b38\u0b41\u0b26\u0b3e\u0b28","name:left:th":"\u0e1b\u0e23\u0e30\u0e40\u0e17\u0e28\u0e40\u0e0b\u0e32\u0e17\u0e4c\u0e0b\u0e39\u0e14\u0e32\u0e19","name:right:ka":"\u10e1\u10e3\u10d3\u10d0\u10dc\u10d8","name:left:mr":"\u0926\u0915\u094d\u0937\u093f\u0923 \u0938\u0941\u0926\u093e\u0928","name:left:da":"Sydsudan","name:left:de":"S\u00fcdsudan","name:left:it":"Sudan del Sud","name:right:ga":"An tS\u00fad\u00e1in","alt_name:left:vi":"Nam Xu-\u0111\u0103ng","name:right:ug":"\u0633\u06c7\u062f\u0627\u0646","name:right:la":"Sudania","name:right:lb":"Sudan","name:right:no":"Sudan","name:right:uk":"\u0421\u0443\u0434\u0430\u043d","name:right:ak":"Sudan","name:right:ln":"Sudani","name:right:tk":"Sudan","name:right:li":"Soedan","name:left:gl":"Sud\u00e1n do Sur","name:right:lt":"Sudanas","name:right:ur":"\u0633\u0648\u0688\u0627\u0646","name:right:lv":"Sud\u0101na","name:right:ie":"Sudan","name:left:hy":"\u0540\u0561\u0580\u0561\u057e\u0561\u0575\u056b\u0576 \u054d\u0578\u0582\u0564\u0561\u0576","name:left:ta":"\u0ba4\u0bc6\u0bb1\u0bcd\u0b95\u0bc1 \u0b9a\u0bc2\u0b9f\u0bbe\u0ba9\u0bcd","name:right:uz":"Sudan","name:left:hr":"Ju\u017eni Sudan","name:left:ga":"An tS\u00fad\u00e1in Theas","name:right:gn":"Sudano","name:left:gd":"Sud\u00e0n a Deas","sort_rank":262,"name:right:gd":"Sudan","name:right:ny":"Sudan","name:right:gu":"\u0ab8\u0ac1\u0aa6\u0abe\u0aa8","int_name:right":"Sudan","name:left:io":"Sud-Sudan","osm_relation":true,"name:left:gv":"Yn Toodaan Yiass","name:left":"South Sudan","name:right:es":"Sud\u00e1n","name:right:sr":"\u0421\u0443\u0434\u0430\u043d","name:right:mn":"\u0421\u0443\u0434\u0430\u043d","name:right:eu":"Sudan","name:right:et":"Sudaan","name:right:vo":"Sud\u00e4n","name:left:or":"\u0b26\u0b15\u0b4d\u0b37\u0b3f\u0b28 \u0b38\u0b41\u0b26\u0b3e\u0b28","name:right:vi":"Sudan","name:right:my":"\u1006\u1030\u1012\u1014\u103a\u1014\u102d\u102f\u1004\u103a\u1004\u1036","name:right:ee":"Sudan","name:right:ms":"Sudan","name:right:mr":"\u0938\u0941\u0926\u093e\u0928","name:left:oc":"Sodan del Sud","name:right:na":"Tudan","name:right:eo":"Sudano","name:right:en":"Sudan","name:left:vi":"Nam Sudan","name:left:nn":"S\u00f8r-Sudan","kind":"country","name:left:cv":"\u041a\u0103\u043d\u0442\u0103\u0440 \u0421\u0443\u0434\u0430\u043d","name:right:tl":"Sudan","name:left:fa":"\u0633\u0648\u062f\u0627\u0646 \u062c\u0646\u0648\u0628\u06cc","name:left:fo":"Su\u00f0ursudan","name:right:ru":"\u0421\u0443\u0434\u0430\u043d","name:left:qu":"Urin Sudan","name:left:fi":"Etel\u00e4-Sudan","name:right:te":"\u0c38\u0c42\u0c21\u0c3e\u0c28\u0c4d","name:left:fr":"Sud-Soudan","name:right:jv":"Sudan","name:right:fy":"S\u00fbdan","name:left:fy":"S\u00fad-S\u00fbdan","name:left:br":"Soudan ar Su","name:left:bs":"Ju\u017eni Sudan","name:right:ja":"\u30b9\u30fc\u30c0\u30f3","name:right:sq":"Sudani","name:right:ss":"ISudani","name:left:ja":"\u5357\u90e8\u30b9\u30fc\u30c0\u30f3","name:right:su":"Sudan","name:right:sw":"Sudan","name:right:sv":"Sudan","name:right:sh":"Sudan","name:right:sk":"Sud\u00e1n","name:right:cy":"Sudan","name:right:sm":"Sudan","name:left:bg":"\u042e\u0436\u0435\u043d \u0421\u0443\u0434\u0430\u043d","name:right:so":"Suudaan","name:left:be":"\u041f\u0430\u045e\u0434\u043d\u0451\u0432\u044b \u0421\u0443\u0434\u0430\u043d","name:right:sa":"\u0938\u0942\u0921\u093e\u0928","name:right:sl":"Sudan","name:right:sc":"Sudan","name:left:jv":"Sudan Kidul","id":-1656678,"name:right:sg":"Sud\u00e4an","name:right":"\u0627\u0644\u0633\u0648\u062f\u0627\u0646","name:right:ca":"Sudan","name:left:bn":"\u09a6\u0995\u09cd\u09b7\u09bf\u09a3 \u09b8\u09c1\u09a6\u09be\u09a8","name:right:ml":"\u0d38\u0d41\u0d21\u0d3e\u0d7b","name:right:ce":"\u0421\u0443\u0434\u0430\u043d","name:left:yo":"G\u00fa\u00fas\u00f9 Sudan","name:right:se":"Sudan","name:left:yi":"\u05d3\u05e8\u05d5\u05dd \u05e1\u05d5\u05d3\u05d0\u05df","id:left":-1656678,"min_zoom":8.0,"name:right:cs":"S\u00fad\u00e1n","name:right:cv":"\u0421\u0443\u0434\u0430\u043d","name:right:mk":"\u0421\u0443\u0434\u0430\u043d","name:left:av":"\u042e\u0433\u0430\u043b\u044a\u0443\u043b\u0430\u0431 \u0421\u0443\u0434\u0430\u043d","name:right:sn":"Sudan","name:left:ar":"\u062c\u0646\u0648\u0628 \u0627\u0644\u0633\u0648\u062f\u0627\u0646","name:right:kg":"Sudan","name:right:tt":"\u0421\u0443\u0434\u0430\u043d","name:right:kk":"\u0421\u0443\u0434\u0430\u043d","name:left:id":"Sudan Selatan","name:right:qu":"Sudan","name:left:az":"C\u0259nubi Sudan","name:left:ia":"Sudan del Sud","name:right:rw":"Sudani","name:left:pt":"Sud\u00e3o do Sul","name:left:af":"Suid-Soedan","name:right:ku":"S\u00fbdan","name:right:ti":"\u1231\u12f3\u1295","name:right:kw":"Soudan","name:left:ps":"\u0633\u0648\u06d0\u0644\u064a \u0633\u0648\u0689\u0627\u0646","name:right:ky":"\u0421\u0443\u0434\u0430\u043d","name:left:an":"Sud\u00e1n d'o Sud","name:left:am":"\u12f0\u1261\u1265 \u1231\u12f3\u1295","name:right:tg":"\u0421\u0443\u0434\u043e\u043d","name:left:is":"Su\u00f0ur-S\u00fadan","name:right:ta":"\u0b9a\u0bc2\u0b9f\u0bbe\u0ba9\u0bcd","name:right:io":"Sudan","name:right:de":"Sudan","name:right:da":"Sudan","name:right:el":"\u03a3\u03bf\u03c5\u03b4\u03ac\u03bd","name:left:zh-yue":"\u5357\u8607\u4e39","name:left:pa":"\u0a26\u0a71\u0a16\u0a23\u0a40 \u0a38\u0a41\u0a21\u0a3e\u0a28","name:right:dv":"\u0790\u07ab\u078b\u07a7\u0782\u07b0"},"arcs":[0]},{"type":"LineString","properties":{"name:pt":"Sud\u00e3o do Sul","name:ps":"\u0633\u0648\u06d0\u0644\u064a \u0633\u0648\u0689\u0627\u0646","name:ka":"\u10e1\u10d0\u10db\u10ee\u10e0\u10d4\u10d7\u10d8 \u10e1\u10e3\u10d3\u10d0\u10dc\u10d8","name:ko":"\ub0a8\uc218\ub2e8","name:cv":"\u041a\u0103\u043d\u0442\u0103\u0440 \u0421\u0443\u0434\u0430\u043d","name:cs":"Ji\u017en\u00ed S\u00fad\u00e1n","name:tt":"\u041a\u04e9\u043d\u044c\u044f\u043a \u0421\u0443\u0434\u0430\u043d","name:kw":"Soudan Soth","name:kv":"\u041b\u0443\u043d\u0432\u044b\u0432 \u0421\u0443\u0434\u0430\u043d","name:ku":"S\u00fbdana Ba\u015f\u00fbr","name:ro":"Sudanul de Sud","name:tl":"Timog Sudan","name:pa":"\u0a26\u0a71\u0a16\u0a23\u0a40 \u0a38\u0a41\u0a21\u0a3e\u0a28","name:or":"\u0b26\u0b15\u0b4d\u0b37\u0b3f\u0b28 \u0b38\u0b41\u0b26\u0b3e\u0b28","name:pl":"Sudan Po\u0142udniowy","name:ta":"\u0ba4\u0bc6\u0bb1\u0bcd\u0b95\u0bc1 \u0b9a\u0bc2\u0b9f\u0bbe\u0ba9\u0bcd","name:ca":"Sudan del Sud","name:te":"\u0c26\u0c15\u0c4d\u0c37\u0c3f\u0c23 \u0c38\u0c42\u0c21\u0c3e\u0c28\u0c4d","name:hu":"D\u00e9l-Szud\u00e1n","name:cy":"De Sudan","source":"openstreetmap.org","sort_rank":262,"name:hr":"Ju\u017eni Sudan","name:da":"Sydsudan","name:de":"S\u00fcdsudan","name:tr":"G\u00fcney Sudan","osm_relation":true,"name:lv":"Dienvidsud\u0101na","name:lt":"Piet\u0173 Sudanas","name:uz":"Janubiy Sudan","name:kk":"\u041e\u04a3\u0442\u04af\u0441\u0442\u0456\u043a \u0421\u0443\u0434\u0430\u043d","name:sv":"Sydsudan","name:he":"\u05d3\u05e8\u05d5\u05dd \u05e1\u05d5\u05d3\u05d0\u05df","kind":"country","name:ur":"\u062c\u0646\u0648\u0628\u06cc \u0633\u0648\u0688\u0627\u0646","name:lb":"S\u00fcdsudan","name:la":"Sudania Australis","name:uk":"\u041f\u0456\u0432\u0434\u0435\u043d\u043d\u0438\u0439 \u0421\u0443\u0434\u0430\u043d","name:hy":"\u0540\u0561\u0580\u0561\u057e\u0561\u0575\u056b\u0576 \u054d\u0578\u0582\u0564\u0561\u0576","name:li":"Zuid-Soedan","name:qu":"Urin Sudan","name:oc":"Sodan del Sud","name:el":"\u039d\u03cc\u03c4\u03b9\u03bf \u03a3\u03bf\u03c5\u03b4\u03ac\u03bd","name:eo":"Suda Sudano","name":"South Sudan","name:tk":"G\u00fcnorta Sudan","min_zoom":8.0,"name:th":"\u0e1b\u0e23\u0e30\u0e40\u0e17\u0e28\u0e40\u0e0b\u0e32\u0e17\u0e4c\u0e0b\u0e39\u0e14\u0e32\u0e19","name:eu":"Hego Sudan","name:et":"L\u00f5una-Sudaan","name:ru":"\u042e\u0436\u043d\u044b\u0439 \u0421\u0443\u0434\u0430\u043d","name:es":"Sud\u00e1n del Sur","name:ia":"Sudan del Sud","name:rm":"Sudan dal Sid","name:az":"C\u0259nubi Sudan","name:ie":"Sud-Sudan","name:id":"Sudan Selatan","name:ms":"Sudan Selatan","name:mr":"\u0926\u0915\u094d\u0937\u093f\u0923 \u0938\u0941\u0926\u093e\u0928","name:ar":"\u062c\u0646\u0648\u0628 \u0627\u0644\u0633\u0648\u062f\u0627\u0646","name:my":"\u1010\u1031\u102c\u1004\u103a\u1006\u1030\u1012\u1014\u103a\u1014\u102d\u102f\u1004\u103a\u1004\u1036","name:io":"Sud-Sudan","name:av":"\u042e\u0433\u0430\u043b\u044a\u0443\u043b\u0430\u0431 \u0421\u0443\u0434\u0430\u043d","name:is":"Su\u00f0ur-S\u00fadan","name:am":"\u12f0\u1261\u1265 \u1231\u12f3\u1295","name:it":"Sudan del Sud","name:an":"Sud\u00e1n d'o Sud","name:vi":"Nam Sudan","id":-1656678,"name:mk":"\u0408\u0443\u0436\u0435\u043d \u0421\u0443\u0434\u0430\u043d","name:af":"Suid-Soedan","name:zu":"ISudan yaseNingizimu","kind_detail":"2","name:hi":"\u0926\u0915\u094d\u0937\u093f\u0923 \u0938\u0942\u0921\u093e\u0928","name:fo":"Su\u00f0ursudan","name:zh-min-nan":"L\u00e2m Sudan","alt_name:vi":"Nam Xu-\u0111\u0103ng","name:fr":"Sud-Soudan","name:ky":"\u0422\u04af\u0448\u0442\u04af\u043a \u0421\u0443\u0434\u0430\u043d","name:zh-yue":"\u5357\u8607\u4e39","name:fy":"S\u00fad-S\u00fbdan","name:vo":"Sul\u00fcda-Sud\u00e4n","name:zh":"\u5357\u8607\u4e39","name:gv":"Yn Toodaan Yiass","name:so":"Koonfur Suudaan","name:sl":"Ju\u017eni Sudan","name:nl":"Zuid-Soedan","name:ja":"\u5357\u90e8\u30b9\u30fc\u30c0\u30f3","name:nn":"S\u00f8r-Sudan","name:sh":"Ju\u017eni Sudan","name:sg":"Sud\u00e4an-Mbongo","name:se":"Lulli-Sudan","name:sc":"Sudan Meridionali","name:br":"Soudan ar Su","name:bs":"Ju\u017eni Sudan","name:yi":"\u05d3\u05e8\u05d5\u05dd \u05e1\u05d5\u05d3\u05d0\u05df","name:bn":"\u09a6\u0995\u09cd\u09b7\u09bf\u09a3 \u09b8\u09c1\u09a6\u09be\u09a8","name:sk":"Ju\u017en\u00fd Sud\u00e1n","name:ml":"\u0d26\u0d15\u0d4d\u0d37\u0d3f\u0d23 \u0d38\u0d41\u0d21\u0d3e\u0d7b","name:no":"S\u00f8r-Sudan","name:sw":"Sudan Kusini","name:be":"\u041f\u0430\u045e\u0434\u043d\u0451\u0432\u044b \u0421\u0443\u0434\u0430\u043d","name:su":"Sudan Kidul","name:bg":"\u042e\u0436\u0435\u043d \u0421\u0443\u0434\u0430\u043d","name:sr":"\u0408\u0443\u0436\u043d\u0438 \u0421\u0443\u0434\u0430\u043d","name:nv":"Sh\u00e1di\u02bc\u00e1\u00e1hj\u00ed Sood\u0105\u0301\u0105","name:sq":"Sudani i Jugut","name:ga":"An tS\u00fad\u00e1in Theas","name:gd":"Sud\u00e0n a Deas","name:jv":"Sudan Kidul","name:gl":"Sud\u00e1n do Sur","name:fa":"\u0633\u0648\u062f\u0627\u0646 \u062c\u0646\u0648\u0628\u06cc","name:yo":"G\u00fa\u00fas\u00f9 Sudan","name:fi":"Etel\u00e4-Sudan"},"arcs":[1]},{"type":"LineString","properties":{"name:kg":"Sudan","name:ka":"\u10e1\u10e3\u10d3\u10d0\u10dc\u10d8","name:ko":"\uc218\ub2e8","name:cv":"\u0421\u0443\u0434\u0430\u043d","name:cs":"S\u00fad\u00e1n","name:ki":"S\u0169dana","name:kw":"Soudan","name:tk":"Sudan","name:ku":"S\u00fbdan","name:ti":"\u1231\u12f3\u1295","name:tl":"Sudan","name:ce":"\u0421\u0443\u0434\u0430\u043d","name:ta":"\u0b9a\u0bc2\u0b9f\u0bbe\u0ba9\u0bcd","name:tg":"\u0421\u0443\u0434\u043e\u043d","name:ca":"Sudan","name:te":"\u0c38\u0c42\u0c21\u0c3e\u0c28\u0c4d","name:cy":"Sudan","name:hr":"Sudan","name:da":"Sudan","name:de":"Sudan","source":"openstreetmap.org","name:kn":"\u0cb8\u0cc1\u0ca1\u0cbe\u0ca8\u0ccd","name:dv":"\u0790\u07ab\u078b\u07a7\u0782\u07b0","name:lv":"Sud\u0101na","name:lt":"Sudanas","name:uz":"Sudan","name:kk":"\u0421\u0443\u0434\u0430\u043d","name:ur":"\u0633\u0648\u0688\u0627\u0646","name:lb":"Sudan","name:la":"Sudania","name:tt":"\u0421\u0443\u0434\u0430\u043d","name:uk":"\u0421\u0443\u0434\u0430\u043d","name:ug":"\u0633\u06c7\u062f\u0627\u0646","name:li":"Soedan","name:ln":"Sudani","name:el":"\u03a3\u03bf\u03c5\u03b4\u03ac\u03bd","name:eo":"Sudano","name:en":"Sudan","name":"\u0627\u0644\u0633\u0648\u062f\u0627\u0646","name:ee":"Sudan","name:th":"\u0e1b\u0e23\u0e30\u0e40\u0e17\u0e28\u0e0b\u0e39\u0e14\u0e32\u0e19","name:eu":"Sudan","name:et":"Sudaan","name:es":"Sud\u00e1n","name:ia":"Sudan","name:rm":"Sudan","name:az":"Sudan","name:ie":"Sudan","name:id":"Sudan","name:ig":"Sudan","name:pa":"\u0a38\u0a41\u0a21\u0a3e\u0a28","name:io":"Sudan","name:ak":"Sudan","name:am":"\u1231\u12f3\u1295","name:it":"Sudan","name:an":"Sud\u00e1n","name:ru":"\u0421\u0443\u0434\u0430\u043d","name:rw":"Sudani","name:af":"Soedan","kind_detail":"2","name:ky":"\u0421\u0443\u0434\u0430\u043d","name:zh-yue":"\u8607\u4e39","name:zh":"\u82cf\u4e39\u5171\u548c\u56fd","name:so":"Suudaan","name:sn":"Sudan","name:sm":"Sudan","name:sl":"Sudan","name:sk":"Sud\u00e1n","name:ja":"\u30b9\u30fc\u30c0\u30f3","name:sh":"Sudan","name:sg":"Sud\u00e4an","name:se":"Sudan","name:sc":"Sudan","name:br":"Soudan","name:bs":"Sudan","name:bm":"Sudan","name:bn":"\u09b8\u09c1\u09a6\u09be\u09a8","name:bo":"\u0f66\u0f74\u0f60\u0f74\u0f0b\u0f4f\u0f53\u0f0d","name:sa":"\u0938\u0942\u0921\u093e\u0928","name:sw":"Sudan","name:be":"\u0421\u0443\u0434\u0430\u043d","name:su":"Sudan","name:bg":"\u0421\u0443\u0434\u0430\u043d","name:ss":"ISudani","name:ba":"\u0421\u0443\u0434\u0430\u043d","name:sq":"Sudani","name:jv":"Sudan","name:pt":"Sud\u00e3o","name:ps":"\u0633\u0648\u0689\u0627\u0646","name:om":"Sudaan","name:oc":"Sodan","min_zoom":8.0,"name:ro":"Sudan","name:zh-min-nan":"Sudan","name:os":"\u0421\u0443\u0434\u0430\u043d","name:or":"\u0b38\u0b41\u0b26\u0b3e\u0b28","name:pl":"Sudan","sort_rank":262,"name:sr":"\u0421\u0443\u0434\u0430\u043d","osm_relation":true,"name:tr":"Sudan","name:hi":"\u0938\u0942\u0921\u093e\u0928","name:sv":"Sudan","name:he":"\u05e1\u05d5\u05d3\u05d0\u05df","name:ha":"Sudan","name:hy":"\u054d\u0578\u0582\u0564\u0561\u0576","name:ht":"Soudan","name:hu":"Szud\u00e1n","name:qu":"Sudan","kind":"country","name:ts":"Sudan","name:is":"S\u00fadan","name:yi":"\u05e1\u05d5\u05d3\u05d0\u05df","name:yo":"Sudan","name:mt":"Sudan","name:ms":"Sudan","name:mr":"\u0938\u0941\u0926\u093e\u0928","name:my":"\u1006\u1030\u1012\u1014\u103a\u1014\u102d\u102f\u1004\u103a\u1004\u1036","int_name":"Sudan","name:ml":"\u0d38\u0d41\u0d21\u0d3e\u0d7b","name:vi":"Sudan","name:mn":"\u0421\u0443\u0434\u0430\u043d","id":-192789,"name:mk":"\u0421\u0443\u0434\u0430\u043d","name:vo":"Sud\u00e4n","name:fa":"\u0633\u0648\u062f\u0627\u0646","name:fi":"Sudan","name:fo":"Sudan","alt_name:vi":"Xu-\u0111\u0103ng","name:fr":"Soudan","name:fy":"S\u00fbdan","name:nl":"Soedan","name:nn":"Sudan","name:no":"Sudan","name:na":"Tudan","name:ny":"Sudan","name:wo":"Sudaan","name:nv":"Sood\u0105\u0301\u0105","name:ga":"An tS\u00fad\u00e1in","name:gd":"Sudan","name:gn":"Sudano","name:gl":"Sud\u00e1n","name:gv":"Yn Toodaan","name:gu":"\u0ab8\u0ac1\u0aa6\u0abe\u0aa8"},"arcs":[2]},{"type":"LineString","properties":{"name:right:uk":"\u0412\u0430\u0440\u0430\u0431","id:right":-2190521,"min_zoom":8.0,"name:right:ru":"\u0412\u0430\u0440\u0430\u0431","name:right:pl":"Warrap","id":-7329336,"osm_relation":true,"name:right":"\u0648\u0627\u0631\u0627\u0628","kind":"region","name":"\u0648\u0627\u0631\u0627\u0628","sort_rank":256,"kind_detail":"4","name:right:en":"Warrap","source":"openstreetmap.org","name:right:de":"Warrap","id:left":-7329336},"arcs":[3]},{"type":"LineString","properties":{"kind":"region","sort_rank":256,"name":"Unity State","name:right:uk":"\u0415\u043b\u044c-\u0412\u0430\u0445\u0434\u0430","kind_detail":"4","name:right:ru":"\u042d\u043b\u044c-\u0412\u0430\u0445\u0434\u0430","source":"openstreetmap.org","min_zoom":8.0,"name:right:ar":"\u0627\u0644\u0648\u062d\u062f\u0629\u200e","id:left":-7329336,"id:right":-2190519,"name:right:pl":"Unity","id":-7329336,"osm_relation":true,"name:right":"Unity State"},"arcs":[4]},{"type":"LineString","properties":{"name:right:uk":"\u0415\u043b\u044c-\u0412\u0430\u0445\u0434\u0430","name:right:ru":"\u042d\u043b\u044c-\u0412\u0430\u0445\u0434\u0430","name:left:uk":"\u0412\u0430\u0440\u0430\u0431","min_zoom":8.0,"name:left:ru":"\u0412\u0430\u0440\u0430\u0431","id:right":-2190519,"name:right:pl":"Unity","id":-2190521,"osm_relation":true,"name:right":"Unity State","kind":"region","name:left:en":"Warrap","source":"openstreetmap.org","sort_rank":256,"kind_detail":"4","name:left:de":"Warrap","name":"\u0648\u0627\u0631\u0627\u0628 - Unity State","name:left:pl":"Warrap","name:right:ar":"\u0627\u0644\u0648\u062d\u062f\u0629\u200e","id:left":-2190521,"name:left":"\u0648\u0627\u0631\u0627\u0628"},"arcs":[5]}]},"roads":{"type":"GeometryCollection","geometries":[{"type":"MultiLineString","properties":{"sort_rank":380,"kind_detail":"primary","min_zoom":8.0,"kind":"major_road","source":"openstreetmap.org"},"arcs":[[6],[7],[8],[9],[10]]},{"type":"LineString","properties":{"source":"openstreetmap.org","kind":"major_road","sort_rank":380,"kind_detail":"primary","ref":"B38","min_zoom":8.0},"arcs":[11]},{"type":"LineString","properties":{"source":"openstreetmap.org","kind":"major_road","sort_rank":380,"kind_detail":"primary","ref":"B-38","min_zoom":8.0},"arcs":[12]},{"type":"LineString","properties":{"source":"openstreetmap.org","kind":"major_road","name:en":"Abyei - Diffra","sort_rank":380,"kind_detail":"primary","name:ar":"\u0623\u0628\u064a\u064a - \u062f\u0641\u0631\u0627","min_zoom":8.0},"arcs":[13]}]},"earth":{"type":"GeometryCollection","geometries":[{"type":"Polygon","properties":{"sort_rank":10,"source":"naturalearthdata.com","kind":"earth","min_zoom":0.0,"id":4704},"arcs":[[14]]}]},"landuse":{"type":"GeometryCollection","geometries":[{"type":"MultiPolygon","properties":{"source":"openstreetmap.org","kind":"residential","tier":2,"area":47451823,"sort_rank":20,"min_zoom":8.0},"arcs":[[[15]]]}]}},"type":"Topology","transform":{"translate":[28.125,8.4071681636],"scale":[0.0003433228,0.0003389916]},"arcs":[[[4096,3961],[-1205,0],[-16,-37],[-57,23],[-25,-29],[-39,34],[12,-40],[-81,11],[-136,-187]],[[2549,3736],[0,360]],[[0,2774],[1804,-1],[-25,166],[127,164],[23,103],[557,450],[63,80]],[[2549,4096],[0,-360]],[[2549,3736],[136,187],[81,-11],[-12,40],[39,-34],[25,29],[57,-23],[16,37],[1205,0]],[[4096,407],[-71,39],[-548,373],[-176,350],[-362,617],[-199,229],[-248,30],[-625,-7],[-88,901],[127,164],[35,118],[545,435],[63,80]],[[0,659],[150,202],[112,297],[122,89],[16,187],[50,129],[39,35],[-8,74],[30,37],[152,35],[79,59],[154,222]],[[0,2649],[189,-13],[273,38],[395,290],[415,66]],[[896,2026],[43,115],[266,368],[13,56],[-23,27],[29,43],[-16,49],[79,9],[35,84]],[[4009,4096],[87,-117]],[[896,2025],[0,1],[0,-1]],[[4096,2884],[-514,-332],[-541,-142],[-101,-173],[-74,-264],[-51,-68]],[[877,1989],[134,-7],[152,93],[84,-23],[101,133],[-19,82],[26,82],[275,146],[56,99],[-367,184],[-69,397],[-130,-15],[-90,96],[16,52],[-143,229]],[[898,3528],[90,277],[32,202],[4,89]],[[0,0],[0,4096],[4096,0],[0,-4096],[-4096,0]],[[13,136],[85,31],[35,-114],[-90,-36],[-30,119]]]}