{"objects":{"water":{"type":"GeometryCollection","geometries":[{"type":"MultiPolygon","properties":{"sort_rank":200,"source":"naturalearthdata.com","min_zoom":0.0,"kind":"lake","area":1326014821},"arcs":[[[9]]]},{"type":"MultiPolygon","properties":{"source":"naturalearthdata.com","kind":"lake","name":"Lake Saimaa","area":42419965952,"sort_rank":200,"min_zoom":0.0,"id":485},"arcs":[[[10],[11],[12],[13]],[[14]],[[15]],[[16]]]},{"type":"MultiLineString","properties":{"source":"naturalearthdata.com","kind":"lake","sort_rank":367,"boundary":true,"min_zoom":0.0,"id":485},"arcs":[[17],[18],[19],[20],[21],[22],[23],[24],[25],[26],[27]]},{"type":"LineString","properties":{"source":"naturalearthdata.com","kind":"lake","sort_rank":367,"boundary":true,"min_zoom":0.0,"id":529},"arcs":[28]}]},"buildings":{"type":"GeometryCollection","geometries":[]},"places":{"type":"GeometryCollection","geometries":[{"type":"Point","properties":{"source":"naturalearthdata.com","kind":"locality","name":"Svetogorsk","population":30115,"min_zoom":7.0,"id":2849},"coordinates":[2309,1035]},{"type":"Point","properties":{"kind":"locality","name":"Lappeenranta","kind_detail":"city","old_name:sv":"Wilmanstrand","source":"openstreetmap.org","min_zoom":8.0,"name:ru":"\u041b\u0430\u043f\u043f\u0435\u044d\u043d\u0440\u0430\u043d\u0442\u0430","name:sv":"Villmanstrand","id":30969531,"population":72698},"coordinates":[182,774]},{"type":"Point","properties":{"kind":"locality","name":"Imatra","kind_detail":"town","source":"openstreetmap.org","min_zoom":8.0,"name:ru":"\u0418\u043c\u0430\u0442\u0440\u0430","id":30969505,"population":29357},"coordinates":[1881,1461]},{"type":"Point","properties":{"name:fi":"Enso","kind":"locality","name:en":"Svetogorsk","name":"\u0421\u0432\u0435\u0442\u043e\u0433\u043e\u0440\u0441\u043a","kind_detail":"town","name:et":"Svetogorsk","name:de":"Swetogorsk","source":"openstreetmap.org","min_zoom":8.0,"old_name":"Enso","name:sv":"Svetogorsk","id":34391623,"population":15827},"coordinates":[2170,1096]},{"type":"Point","properties":{"kind":"locality","name":"Joutseno","kind_detail":"town","source":"openstreetmap.org","min_zoom":8.0,"name:ru":"\u0419\u043e\u0443\u0442\u0441\u0435\u043d\u043e","id":30969605,"population":10849},"coordinates":[1041,1098]},{"type":"Point","properties":{"name:fi":"Antrea","kind":"locality","name:en":"Kamennogorsk","name":"\u041a\u0430\u043c\u0435\u043d\u043d\u043e\u0433\u043e\u0440\u0441\u043a","kind_detail":"town","name:de":"Kamennogorsk","source":"openstreetmap.org","min_zoom":8.0,"old_name":"Antrea","name:sv":"Sankt Andree","id":34391624,"population":6781},"coordinates":[2928,134]},{"type":"Point","properties":{"kind":"locality","name":"Parikkala","kind_detail":"town","source":"openstreetmap.org","min_zoom":8.0,"name:ru":"\u041f\u0430\u0440\u0438\u043a\u043a\u0430\u043b\u0430","id":30969746,"population":5768},"coordinates":[4005,3755]},{"type":"Point","properties":{"kind":"locality","name":"Ruokolahti","name:nn":"Ruokolax","name:no":"Ruokolax","kind_detail":"town","name:da":"Ruokolax","source":"openstreetmap.org","min_zoom":8.0,"name:ru":"\u0420\u0443\u043e\u043a\u043e\u043b\u0430\u0445\u0442\u0438","name:sv":"Ruokolax","id":30969770,"population":5658},"coordinates":[2052,2186]},{"type":"Point","properties":{"kind":"locality","name":"Simpele","kind_detail":"town","source":"openstreetmap.org","min_zoom":8.0,"name:ru":"\u0421\u0438\u043c\u043f\u0435\u043b\u0435","id":30969769,"population":3934},"coordinates":[3575,3039]},{"type":"Point","properties":{"kind":"locality","name":"Puumala","kind_detail":"town","source":"openstreetmap.org","min_zoom":8.0,"name:ru":"\u041f\u0443\u0443\u043c\u0430\u043b\u0430","id":164957287,"population":2416},"coordinates":[151,3592]}]},"transit":{"type":"GeometryCollection","geometries":[{"type":"LineString","properties":{"source":"openstreetmap.org","kind":"train","name":"\u0412\u044b\u0431\u043e\u0440\u0433 - \u0425\u0438\u0439\u0442\u043e\u043b\u0430","sort_rank":275,"ref":"\u0412\u044b\u0431\u043e\u0440\u0433 - \u0425\u0438\u0439\u0442\u043e\u043b\u0430","min_zoom":6.0,"osm_relation":true},"arcs":[5]},{"type":"MultiLineString","properties":{"source":"openstreetmap.org","kind":"train","name":"\u0412\u044b\u0431\u043e\u0440\u0433 - \u0421\u0432\u0435\u0442\u043e\u0433\u043e\u0440\u0441\u043a","sort_rank":275,"ref":"\u0412\u044b\u0431\u043e\u0440\u0433 - \u0421\u0432\u0435\u0442\u043e\u0433\u043e\u0440\u0441\u043a","min_zoom":6.0,"osm_relation":true},"arcs":[[6],[7]]},{"type":"LineString","properties":{"source":"openstreetmap.org","kind":"train","name":"\u0412\u044b\u0431\u043e\u0440\u0433 - \u042d\u043b\u0438\u0441\u0435\u043d\u0432\u0430\u0430\u0440\u0430","sort_rank":275,"ref":"\u0412\u044b\u0431\u043e\u0440\u0433 - \u042d\u043b\u0438\u0441\u0435\u043d\u0432\u0430\u0430\u0440\u0430","min_zoom":6.0,"osm_relation":true},"arcs":[8]}]},"pois":{"type":"GeometryCollection","geometries":[]},"boundaries":{"type":"GeometryCollection","geometries":[{"type":"LineString","properties":{"name:kg":"Finlandi","name:ka":"\u10e4\u10d8\u10dc\u10d4\u10d7\u10d8","name:ko":"\ud540\ub780\ub4dc","name:cv":"\u0424\u0438\u043d\u043b\u044f\u043d\u0434\u0438","name:cu":"\u0421\u043e\u0443\u043c\u044c","name:kl":"Finlandi","name:cs":"Finsko","name:ki":"Finland","name:co":"Finlandia","name:kv":"\u0424\u0438\u043d\u043b\u044f\u043d\u0434\u0438\u044f","name:ku":"F\u00eenland","name:ks":"\u092b\u093f\u0928\u094d\u0932\u0948\u0902\u0921","name:tl":"Pinlandiya","name:ce":"\u0424\u0438\u043d\u043b\u044f\u043d\u0434\u0438","name:ta":"\u0baa\u0bbf\u0ba9\u0bcd\u0bb2\u0bbe\u0ba8\u0bcd\u0ba4\u0bc1","name:tg":"\u0424\u0438\u043d\u043b\u0430\u043d\u0434","name:ca":"Finl\u00e0ndia","name:te":"\u0c2b\u0c3f\u0c28\u0c4d\u0c32\u0c46\u0c02\u0c21\u0c4d","name:cy":"Y Ffindir","name:hr":"Finska","name:da":"Finland","name:de":"Finnland","name:dz":"\u0f55\u0f72\u0f53\u0f0b\u0f63\u0f7a\u0f53\u0f4c\u0f0b","source":"openstreetmap.org","name:kn":"\u0cab\u0cbf\u0ca8\u0ccd\u200d\u0cb2\u0ccd\u0caf\u0cbe\u0c82\u0ca1\u0ccd","name:dv":"\u078a\u07a8\u0782\u07b0\u078d\u07ad\u0782\u07b0\u0791\u07aa","name:lv":"Somija","name:lt":"Suomija","name:uz":"Finlandiya","name:kk":"\u0424\u0438\u043d\u043b\u0430\u043d\u0434\u0438\u044f","name:ur":"\u0641\u0646 \u0644\u06cc\u0646\u0688","name:lb":"Finnland","name:la":"Finnia","name:lg":"Finilandi","name:uk":"\u0424\u0456\u043d\u043b\u044f\u043d\u0434\u0456\u044f","name:ug":"\u0641\u0649\u0646\u0644\u0627\u0646\u062f\u0649\u064a\u06d5","name:li":"Finland","name:ln":"Finilanda","name:zh_PY":"Fenlan","name:el":"\u03a6\u03b9\u03bd\u03bb\u03b1\u03bd\u03b4\u03af\u03b1","name:eo":"Finnlando","name:en":"Finland","name":"Suomi","name:tk":"Finl\u00fdandi\u00fda","name:ee":"Finland","name:th":"\u0e1b\u0e23\u0e30\u0e40\u0e17\u0e28\u0e1f\u0e34\u0e19\u0e41\u0e25\u0e19\u0e14\u0e4c","name:eu":"Finlandia","name:et":"Soome","name:es":"Finlandia","name:ay":"Phini suyu","name:rm":"Finlanda","name:az":"Finlandiya","name:ie":"Finland","name:id":"Finlandia","name:ig":"Finland","name:ar":"\u0641\u0646\u0644\u0646\u062f\u0627","name:io":"Finlando","name:is":"Finnland","name:am":"\u134a\u1295\u120b\u1295\u12f5","name:it":"Finlandia","name:an":"Finlandia","name:ru":"\u0424\u0438\u043d\u043b\u044f\u043d\u0434\u0438\u044f","name:ab":"\u0421\u0443\u043e\u043c\u0438","name:af":"Finland","name:zu":"IFinlandi","kind_detail":"2","name:za":"Finlan","name:zh-yue":"\u82ac\u862d","name:zh":"\u82ac\u5170","name:so":"Finland","name:sm":"Finalagi","name:sl":"Finska","name:sk":"F\u00ednsko","name:ja":"\u30d5\u30a3\u30f3\u30e9\u30f3\u30c9","name:si":"\u0dc6\u0dd2\u0db1\u0dca\u0dbd\u0db1\u0dca\u0dad\u0dba","name:sh":"Finska","name:se":"Suopma","name:sc":"Finlandia","name:br":"Finland","name:bs":"Finska","name:bm":"Finland","name:bn":"\u09ab\u09bf\u09a8\u09b2\u09cd\u09af\u09be\u09a8\u09cd\u09a1","name:bo":"\u0f67\u0fa5\u0f72\u0f53\u0f0b\u0f63\u0f53","name:bi":"Finland","name:sw":"Ufini","name:be":"\u0424\u0456\u043d\u043b\u044f\u043d\u0434\u044b\u044f","name:su":"Finlandia","name:bg":"\u0424\u0438\u043d\u043b\u0430\u043d\u0434\u0438\u044f","name:ss":"IFini","name:ba":"\u0424\u0438\u043d\u043b\u044f\u043d\u0434\u0438\u044f","name:sq":"Finlanda","name:jv":"Finlandia","name:sa":"\u092b\u093f\u0928\u094d\u0932\u0948\u0902\u0921","name:ia":"Finlandia","name:pt":"Finl\u00e2ndia","name:ps":"\u0641\u06d0\u0646\u0644\u0627\u0646\u0689","name:oc":"Finl\u00e0ndia","min_zoom":8.0,"name:ro":"Finlanda","name:pa":"\u0a2b\u0a3c\u0a3f\u0a28\u0a32\u0a48\u0a02\u0a21","name:os":"\u0424\u0438\u043d\u043b\u044f\u043d\u0434\u0438","name:or":"\u0b2b\u0b3f\u0b28\u0b32\u0b4d\u0b5f\u0b3e\u0b23\u0b4d\u0b21","name:pl":"Finlandia","name:st":"Finland","sort_rank":262,"name:sr":"\u0424\u0438\u043d\u0441\u043a\u0430","osm_relation":true,"name:tr":"Finlandiya","name:hi":"\u092b\u093c\u093f\u0928\u0932\u0948\u0902\u0921","name:sv":"Finland","name:he":"\u05e4\u05d9\u05e0\u05dc\u05e0\u05d3","name:hy":"\u0556\u056b\u0576\u056c\u0561\u0576\u0564\u056b\u0561","name:ht":"Fenlann","name:hu":"Finnorsz\u00e1g","name:qu":"Phinsuyu","kind":"country","name:yi":"\u05e4\u05d9\u05e0\u05dc\u05d0\u05e0\u05d3","name:yo":"Finlandi","name:mt":"Finlandja","alt_name:eo":"Finlando;Finnio;Finnujo;Suomio;Suomujo","name:ms":"Finland","name:mr":"\u092b\u093f\u0928\u0932\u0902\u0921","name:my":"\u1016\u1004\u103a\u101c\u1014\u103a\u1014\u102d\u102f\u1004\u103a\u1004\u1036","official_name":"Suomen tasavalta","name:kw":"Pow Finn","name:mg":"Finlandy","name:ml":"\u0d2b\u0d3f\u0d7b\u0d32\u0d3e\u0d28\u0d4d\u0d31\u0d4d","name:vi":"Ph\u1ea7n Lan","name:mn":"\u0424\u0438\u043d\u043b\u044f\u043d\u0434","name:mi":"Hinerangi","id":-54224,"name:mk":"\u0424\u0438\u043d\u0441\u043a\u0430","name:vo":"Suomiy\u00e4n","name:fa":"\u0641\u0646\u0644\u0627\u0646\u062f","name:rw":"Finilande","name:ky":"\u0424\u0438\u043d\u043b\u044f\u043d\u0434\u0438\u044f","name:fo":"Finnland","name:fr":"Finlande","name:fy":"Finl\u00e2n","int_name":"Finland","name:nl":"Finland","name:nn":"Finland","name:no":"Finland","name:na":"Finland","name:ne":"\u092b\u093f\u0928\u0932\u094d\u092f\u093e\u0923\u094d\u0921","name:wa":"Finlande","name:wo":"Finlaand","name:nv":"Nahodits\u02bc\u01eb\u02bc\u0142\u00e1n\u00ed","name:ga":"An Fhionlainn","name:gd":"Su\u00f2maidh","name:gn":"H\u0129landia","name:gl":"Finlandia","name:gv":"Finnlynn","name:gu":"\u0aab\u0ac0\u0aa8\u0ab2\u0ac7\u0a82\u0aa1","name:tt":"Finl\u00e2ndi\u00e4"},"arcs":[0]},{"type":"LineString","properties":{"name:left:sv":"\u00d6stra Finland","name:right:ru":"\u042e\u0436\u043d\u0430\u044f \u0424\u0438\u043d\u043b\u044f\u043d\u0434\u0438\u044f","min_zoom":8.0,"name:left:lt":"Ryt\u0173 Suomija","name:left:ru":"\u0412\u043e\u0441\u0442\u043e\u0447\u043d\u0430\u044f \u0424\u0438\u043d\u043b\u044f\u043d\u0434\u0438\u044f","name:right:sv":"S\u00f6dra Finland","id":-1702527,"osm_relation":true,"name:right":"Etel\u00e4-Suomi","kind":"region","name:left:en":"Eastern Finland","sort_rank":256,"kind_detail":"4","name:left:de":"Ostfinnland","name":"It\u00e4-Suomi - Etel\u00e4-Suomi","source":"openstreetmap.org","name:right:de":"S\u00fcdfinnland","name:right:en":"Southern Finland","id:left":-1702527,"id:right":-38090,"name:left":"It\u00e4-Suomi"},"arcs":[1]},{"type":"LineString","properties":{"name:right:hy":"\u053c\u0565\u0576\u056b\u0576\u0563\u0580\u0561\u0564\u056b \u0574\u0561\u0580\u0566","name:right:nl":"Oblast Leningrad","name:right:ja":"\u30ec\u30cb\u30f3\u30b0\u30e9\u30fc\u30c9\u5dde","name:right:fr":"Oblast de L\u00e9ningrad","name:right:uk":"\u041b\u0435\u043d\u0456\u043d\u0433\u0440\u0430\u0434\u0441\u044c\u043a\u0430 \u043e\u0431\u043b\u0430\u0441\u0442\u044c","name:right:ce":"\u041b\u0435\u043d\u0438\u043d\u0433\u0440\u0430\u0434\u0430\u043d \u043e\u0431\u043b\u0430\u0441\u0442\u044c","name:right:sr":"\u041b\u0435\u045a\u0438\u043d\u0433\u0440\u0430\u0434\u0441\u043a\u0430 \u043e\u0431\u043b\u0430\u0441\u0442","id:right":-176095,"name:right:lt":"Leningrado sritis","min_zoom":8.0,"name:left:ba":"\u041a\u0430\u0440\u0435\u043b\u0438\u044f","name:left:lt":"Karelijos Respublika","name:left:hy":"\u053f\u0561\u0580\u0565\u056c\u056b\u0561\u0575\u056b \u0540\u0561\u0576\u0580\u0561\u057a\u0565\u057f\u0578\u0582\u0569\u0575\u0578\u0582\u0576","name:left:be":"\u0420\u044d\u0441\u043f\u0443\u0431\u043b\u0456\u043a\u0430 \u041a\u0430\u0440\u044d\u043b\u0456\u044f","name:left:fi":"Karjalan tasavalta","id":-393980,"name:right":"\u041b\u0435\u043d\u0438\u043d\u0433\u0440\u0430\u0434\u0441\u043a\u0430\u044f \u043e\u0431\u043b\u0430\u0441\u0442\u044c","name:right:af":"Leningrad-oblast","name:left:en":"Republic of Karelia","name:right:ca":"Prov\u00edncia de Leningrad","kind_detail":"4","name:left:ca":"Rep\u00fablica de Car\u00e8lia","source":"openstreetmap.org","id:left":-393980,"name:right:cs":"Leningradsk\u00e1 oblast","name:left:cv":"\u041a\u0430\u0440\u0435\u043b \u0420\u0435\u0441\u043f\u0443\u0431\u043b\u0438\u043a\u0438","name:right:cu":"\u041b\u0454\u043d\u0438\u043d\u043e\u0433\u0440\u0430\u0434\u044c\u0441\u043a\u0430 \u043e\u0431\u043b\u0430\u0441\u0442\u044c","name:right:az":"Leninqrad vilay\u0259ti","name:left:cs":"Republika Kar\u00e9lie","name:left":"\u0420\u0435\u0441\u043f\u0443\u0431\u043b\u0438\u043a\u0430 \u041a\u0430\u0440\u0435\u043b\u0438\u044f","name:right:ka":"\u10da\u10d4\u10dc\u10d8\u10dc\u10d2\u10e0\u10d0\u10d3\u10d8\u10e1 \u10dd\u10da\u10e5\u10d8","name:right:fi":"Leningradin alue","name:left:sv":"Karelska republiken","name:left:ka":"\u10d9\u10d0\u10e0\u10d4\u10da\u10d8\u10d8\u10e1 \u10e0\u10d4\u10e1\u10de\u10e3\u10d1\u10da\u10d8\u10d9\u10d0","name:right:et":"Leningradi oblast","name:left:pl":"Republika Karelii","name:left:tr":"Karelya Cumhuriyeti","name:right:it":"Oblast' di Leningrado","name:left:az":"Kareliya Respublikas\u0131","name:right:vi":"Leningrad (t\u1ec9nh)","name:right:es":"\u00d3blast de Leningrado","name:left:kv":"\u041a\u0430\u0440\u0435\u043b\u0438\u044f","name:right:kv":"\u041b\u0435\u043d\u0438\u043d\u0433\u0440\u0430\u0434 \u043e\u0431\u043b\u0430\u0441\u044c\u0442","name:right:sv":"Leningrad oblast","name:right:pl":"Obw\u00f3d leningradzki","name:right:en":"Leningrad oblast","osm_relation":true,"name:right:el":"\u03a0\u03b5\u03c1\u03b9\u03c6\u03ad\u03c1\u03b5\u03b9\u03b1 \u039b\u03ad\u03bd\u03b9\u03bd\u03b3\u03ba\u03c1\u03b1\u03bd\u03c4","name:left:uk":"\u0420\u0435\u0441\u043f\u0443\u0431\u043b\u0456\u043a\u0430 \u041a\u0430\u0440\u0435\u043b\u0456\u044f","kind":"region","name:right:tt":"\u041b\u0435\u043d\u0438\u043d\u0433\u0440\u0430\u0434 \u04e9\u043b\u043a\u04d9\u0441\u0435","name":"\u0420\u0435\u0441\u043f\u0443\u0431\u043b\u0438\u043a\u0430 \u041a\u0430\u0440\u0435\u043b\u0438\u044f - \u041b\u0435\u043d\u0438\u043d\u0433\u0440\u0430\u0434\u0441\u043a\u0430\u044f \u043e\u0431\u043b\u0430\u0441\u0442\u044c","name:right:de":"Oblast Leningrad","name:right:ba":"\u041b\u0435\u043d\u0438\u043d\u0433\u0440\u0430\u0434 \u04e9\u043b\u043a\u04d9\u04bb\u0435","name:right:sk":"Leningradsk\u00e1 oblas\u0165","alt_name:left:cs":"Karelsk\u00e1 republika","name:right:be":"\u041b\u0435\u043d\u0456\u043d\u0433\u0440\u0430\u0434\u0441\u043a\u0430\u044f \u0432\u043e\u0431\u043b\u0430\u0441\u0446\u044c","name:left:de":"Republik Karelien","sort_rank":256,"name:left:fr":"R\u00e9publique de Car\u00e9lie","name:left:da":"Karelske Republik","name:right:zh":"\u5217\u5b81\u683c\u52d2\u5dde","name:left:et":"Karjala vabariik"},"arcs":[2]},{"type":"LineString","properties":{"name:left:sv":"Karelska republiken","name:right:sv":"S\u00f6dra Finland","name:left:uk":"\u0420\u0435\u0441\u043f\u0443\u0431\u043b\u0456\u043a\u0430 \u041a\u0430\u0440\u0435\u043b\u0456\u044f","min_zoom":8.0,"name:left:ba":"\u041a\u0430\u0440\u0435\u043b\u0438\u044f","name:left:lt":"Karelijos Respublika","name:left:hy":"\u053f\u0561\u0580\u0565\u056c\u056b\u0561\u0575\u056b \u0540\u0561\u0576\u0580\u0561\u057a\u0565\u057f\u0578\u0582\u0569\u0575\u0578\u0582\u0576","name:left:be":"\u0420\u044d\u0441\u043f\u0443\u0431\u043b\u0456\u043a\u0430 \u041a\u0430\u0440\u044d\u043b\u0456\u044f","id":-393980,"name:right":"Etel\u00e4-Suomi","name:left:en":"Republic of Karelia","sort_rank":256,"kind_detail":"4","name:left:ca":"Rep\u00fablica de Car\u00e8lia","source":"openstreetmap.org","id:left":-393980,"name:left:cv":"\u041a\u0430\u0440\u0435\u043b \u0420\u0435\u0441\u043f\u0443\u0431\u043b\u0438\u043a\u0438","name:left:cs":"Republika Kar\u00e9lie","name:left":"\u0420\u0435\u0441\u043f\u0443\u0431\u043b\u0438\u043a\u0430 \u041a\u0430\u0440\u0435\u043b\u0438\u044f","name:left:ka":"\u10d9\u10d0\u10e0\u10d4\u10da\u10d8\u10d8\u10e1 \u10e0\u10d4\u10e1\u10de\u10e3\u10d1\u10da\u10d8\u10d9\u10d0","name:left:pl":"Republika Karelii","name:left:tr":"Karelya Cumhuriyeti","name:left:az":"Kareliya Respublikas\u0131","name:right:ru":"\u042e\u0436\u043d\u0430\u044f \u0424\u0438\u043d\u043b\u044f\u043d\u0434\u0438\u044f","name:left:kv":"\u041a\u0430\u0440\u0435\u043b\u0438\u044f","id:right":-38090,"name:right:en":"Southern Finland","osm_relation":true,"kind":"region","name":"\u0420\u0435\u0441\u043f\u0443\u0431\u043b\u0438\u043a\u0430 \u041a\u0430\u0440\u0435\u043b\u0438\u044f - Etel\u00e4-Suomi","name:left:da":"Karelske Republik","name:left:de":"Republik Karelien","alt_name:left:cs":"Karelsk\u00e1 republika","name:left:fi":"Karjalan tasavalta","name:left:fr":"R\u00e9publique de Car\u00e9lie","name:right:de":"S\u00fcdfinnland","name:left:et":"Karjala vabariik"},"arcs":[3]},{"type":"LineString","properties":{"name:left:sv":"Leningrad oblast","name:right:sv":"S\u00f6dra Finland","name:left:uk":"\u041b\u0435\u043d\u0456\u043d\u0433\u0440\u0430\u0434\u0441\u044c\u043a\u0430 \u043e\u0431\u043b\u0430\u0441\u0442\u044c","min_zoom":8.0,"name:left:ba":"\u041b\u0435\u043d\u0438\u043d\u0433\u0440\u0430\u0434 \u04e9\u043b\u043a\u04d9\u04bb\u0435","name:left:lt":"Leningrado sritis","name:left:hy":"\u053c\u0565\u0576\u056b\u0576\u0563\u0580\u0561\u0564\u056b \u0574\u0561\u0580\u0566","name:left:sk":"Leningradsk\u00e1 oblas\u0165","name:left:be":"\u041b\u0435\u043d\u0456\u043d\u0433\u0440\u0430\u0434\u0441\u043a\u0430\u044f \u0432\u043e\u0431\u043b\u0430\u0441\u0446\u044c","id":-176095,"name:right":"Etel\u00e4-Suomi","name:left:en":"Leningrad oblast","name:left:el":"\u03a0\u03b5\u03c1\u03b9\u03c6\u03ad\u03c1\u03b5\u03b9\u03b1 \u039b\u03ad\u03bd\u03b9\u03bd\u03b3\u03ba\u03c1\u03b1\u03bd\u03c4","sort_rank":256,"kind_detail":"4","name:left:ca":"Prov\u00edncia de Leningrad","source":"openstreetmap.org","id:left":-176095,"name:left:es":"\u00d3blast de Leningrado","id:right":-38090,"name:left:cs":"Leningradsk\u00e1 oblast","name:left":"\u041b\u0435\u043d\u0438\u043d\u0433\u0440\u0430\u0434\u0441\u043a\u0430\u044f \u043e\u0431\u043b\u0430\u0441\u0442\u044c","name:left:ja":"\u30ec\u30cb\u30f3\u30b0\u30e9\u30fc\u30c9\u5dde","name:left:ka":"\u10da\u10d4\u10dc\u10d8\u10dc\u10d2\u10e0\u10d0\u10d3\u10d8\u10e1 \u10dd\u10da\u10e5\u10d8","name:left:pl":"Obw\u00f3d leningradzki","name:left:tt":"\u041b\u0435\u043d\u0438\u043d\u0433\u0440\u0430\u0434 \u04e9\u043b\u043a\u04d9\u0441\u0435","name:left:az":"Leninqrad vilay\u0259ti","name:right:ru":"\u042e\u0436\u043d\u0430\u044f \u0424\u0438\u043d\u043b\u044f\u043d\u0434\u0438\u044f","name:left:cu":"\u041b\u0454\u043d\u0438\u043d\u043e\u0433\u0440\u0430\u0434\u044c\u0441\u043a\u0430 \u043e\u0431\u043b\u0430\u0441\u0442\u044c","name:left:kv":"\u041b\u0435\u043d\u0438\u043d\u0433\u0440\u0430\u0434 \u043e\u0431\u043b\u0430\u0441\u044c\u0442","name:left:sr":"\u041b\u0435\u045a\u0438\u043d\u0433\u0440\u0430\u0434\u0441\u043a\u0430 \u043e\u0431\u043b\u0430\u0441\u0442","name:left:it":"Oblast' di Leningrado","name:right:en":"Southern Finland","osm_relation":true,"name:left:vi":"Leningrad (t\u1ec9nh)","kind":"region","name":"\u041b\u0435\u043d\u0438\u043d\u0433\u0440\u0430\u0434\u0441\u043a\u0430\u044f \u043e\u0431\u043b\u0430\u0441\u0442\u044c - Etel\u00e4-Suomi","name:left:af":"Leningrad-oblast","name:right:de":"S\u00fcdfinnland","name:left:nl":"Oblast Leningrad","name:left:fi":"Leningradin alue","name:left:de":"Oblast Leningrad","name:left:ce":"\u041b\u0435\u043d\u0438\u043d\u0433\u0440\u0430\u0434\u0430\u043d \u043e\u0431\u043b\u0430\u0441\u0442\u044c","name:left:zh":"\u5217\u5b81\u683c\u52d2\u5dde","name:left:fr":"Oblast de L\u00e9ningrad","name:left:et":"Leningradi oblast"},"arcs":[4]}]},"roads":{"type":"GeometryCollection","geometries":[{"type":"MultiLineString","properties":{"kind":"major_road","sort_rank":377,"kind_detail":"tertiary","is_bicycle_related":true,"bicycle_shield_text":null,"bicycle_network":"ncn","source":"openstreetmap.org","min_zoom":8.0,"ref":"4052"},"arcs":[[29],[30]]},{"type":"LineString","properties":{"kind":"major_road","sort_rank":381,"kind_detail":"trunk","is_bicycle_related":true,"bicycle_shield_text":"14","bicycle_network":"ncn","source":"openstreetmap.org","min_zoom":8.0,"ref":"6"},"arcs":[31]},{"type":"MultiLineString","properties":{"kind":"minor_road","sort_rank":360,"kind_detail":"unclassified","is_bicycle_related":true,"bicycle_shield_text":"62","bicycle_network":"ncn","source":"openstreetmap.org","min_zoom":8.0},"arcs":[[32],[33]]},{"type":"LineString","properties":{"kind":"major_road","sort_rank":377,"kind_detail":"tertiary","is_bicycle_related":true,"bicycle_shield_text":"SSK","bicycle_network":"ncn","source":"openstreetmap.org","min_zoom":8.0,"ref":"15176"},"arcs":[34]},{"type":"LineString","properties":{"kind":"major_road","sort_rank":377,"kind_detail":"tertiary","is_bicycle_related":true,"bicycle_shield_text":"62","bicycle_network":"ncn","source":"openstreetmap.org","min_zoom":8.0,"ref":"14879","id":169022893},"arcs":[35]},{"type":"LineString","properties":{"kind":"minor_road","sort_rank":358,"kind_detail":"service","is_bicycle_related":true,"bicycle_shield_text":"14","bicycle_network":"ncn","source":"openstreetmap.org","min_zoom":8.0,"id":171875181},"arcs":[36]},{"type":"LineString","properties":{"kind":"major_road","sort_rank":377,"kind_detail":"tertiary","is_bicycle_related":true,"bicycle_shield_text":"6","bicycle_network":"ncn","source":"openstreetmap.org","min_zoom":8.0,"ref":"14941"},"arcs":[37]},{"type":"LineString","properties":{"source":"openstreetmap.org","kind":"ferry","name":"Jussilansalmi","sort_rank":355,"is_bicycle_related":true,"min_zoom":8.0,"id":26231481},"arcs":[38]},{"type":"MultiLineString","properties":{"kind":"path","sort_rank":354,"kind_detail":"cycleway","is_bicycle_related":true,"bicycle_shield_text":"62","bicycle_network":"ncn","source":"openstreetmap.org","min_zoom":8.0,"cycleway":"track"},"arcs":[[39],[40],[41],[42]]},{"type":"LineString","properties":{"kind":"major_road","sort_rank":379,"kind_detail":"secondary","is_bicycle_related":true,"bicycle_shield_text":"14","bicycle_network":"ncn","source":"openstreetmap.org","min_zoom":8.0,"ref":"160","id":171834724},"arcs":[43]},{"type":"LineString","properties":{"kind":"minor_road","sort_rank":360,"kind_detail":"residential","is_bicycle_related":true,"bicycle_shield_text":"SSK","bicycle_network":"ncn","source":"openstreetmap.org","min_zoom":8.0,"landuse_kind":"urban_area","id":17041187},"arcs":[44]},{"type":"LineString","properties":{"kind":"path","sort_rank":354,"kind_detail":"path","is_bicycle_related":true,"bicycle_shield_text":"SSK","cycleway":"lane","source":"openstreetmap.org","min_zoom":8.0,"bicycle_network":"ncn","id":172300309},"arcs":[45]},{"type":"MultiLineString","properties":{"kind":"path","sort_rank":354,"kind_detail":"cycleway","is_bicycle_related":true,"bicycle_shield_text":"62","bicycle_network":"ncn","source":"openstreetmap.org","min_zoom":8.0},"arcs":[[46],[47]]},{"type":"LineString","properties":{"kind":"major_road","sort_rank":380,"kind_detail":"primary","bus_network":"Imatra","source":"openstreetmap.org","min_zoom":8.0,"bus_shield_text":"1","ref":"62","id":44351940},"arcs":[48]},{"type":"MultiLineString","properties":{"source":"openstreetmap.org","kind":"major_road","kind_detail":"trunk","sort_rank":381,"landuse_kind":"military","min_zoom":8.0},"arcs":[[49],[50]]},{"type":"LineString","properties":{"kind":"major_road","sort_rank":377,"kind_detail":"tertiary","is_bicycle_related":true,"bicycle_shield_text":"62","bicycle_network":"ncn","source":"openstreetmap.org","min_zoom":8.0,"ref":"14877","id":166811980},"arcs":[51]},{"type":"MultiLineString","properties":{"kind":"major_road","network":null,"sort_rank":381,"kind_detail":"trunk","source":"openstreetmap.org","min_zoom":8.0,"shield_text":"6","ref":"6"},"arcs":[[52],[53],[54],[55],[56]]},{"type":"LineString","properties":{"kind":"major_road","sort_rank":380,"kind_detail":"primary","bus_network":"Imatra","source":"openstreetmap.org","min_zoom":8.0,"bus_shield_text":"1","id":26006173},"arcs":[57]},{"type":"LineString","properties":{"kind":"major_road","sort_rank":377,"kind_detail":"tertiary","is_bicycle_related":true,"bicycle_shield_text":"14","bicycle_network":"ncn","source":"openstreetmap.org","min_zoom":8.0,"ref":"4063"},"arcs":[58]},{"type":"MultiLineString","properties":{"sort_rank":381,"source":"openstreetmap.org","min_zoom":8.0,"kind":"major_road","kind_detail":"trunk"},"arcs":[[59],[60],[61],[62],[63],[64],[65],[66],[67],[68],[69],[70],[71],[72],[73],[74],[75],[76],[77],[78],[79],[80],[81],[82],[83],[84],[85],[86],[87]]},{"type":"LineString","properties":{"kind":"major_road","network":"ru:regional","sort_rank":381,"kind_detail":"trunk","source":"openstreetmap.org","min_zoom":8.0,"shield_text":"41\u041a","ref":"41\u041a-084"},"arcs":[88]},{"type":"LineString","properties":{"kind":"minor_road","sort_rank":360,"kind_detail":"residential","is_bicycle_related":true,"bicycle_shield_text":"7","bicycle_network":"ncn","source":"openstreetmap.org","min_zoom":8.0,"landuse_kind":"urban_area","id":314651679},"arcs":[89]},{"type":"LineString","properties":{"source":"openstreetmap.org","kind":"major_road","landuse_kind":"military","sort_rank":380,"kind_detail":"primary","min_zoom":8.0},"arcs":[90]},{"type":"MultiLineString","properties":{"kind":"major_road","sort_rank":381,"kind_detail":"trunk","is_bicycle_related":true,"bicycle_shield_text":"SSK","bicycle_network":"ncn","source":"openstreetmap.org","min_zoom":8.0,"ref":"6"},"arcs":[[91],[92],[93]]},{"type":"LineString","properties":{"source":"openstreetmap.org","kind":"major_road","sort_rank":381,"kind_detail":"trunk","ref":"14","min_zoom":8.0},"arcs":[94]},{"type":"MultiLineString","properties":{"kind":"path","sort_rank":354,"kind_detail":"path","is_bicycle_related":true,"bicycle_shield_text":"SSK","cycleway":"track","source":"openstreetmap.org","min_zoom":8.0,"bicycle_network":"ncn"},"arcs":[[95],[96],[97]]},{"type":"LineString","properties":{"kind":"major_road","network":"ru:regional","sort_rank":380,"kind_detail":"primary","source":"openstreetmap.org","min_zoom":8.0,"shield_text":"41\u0410","ref":"41\u0410-183"},"arcs":[98]},{"type":"MultiLineString","properties":{"source":"openstreetmap.org","kind":"major_road","sort_rank":381,"kind_detail":"trunk","ref":"13","min_zoom":8.0},"arcs":[[99],[100]]},{"type":"MultiLineString","properties":{"kind":"path","sort_rank":354,"kind_detail":"cycleway","is_bicycle_related":true,"bicycle_shield_text":"SSK","cycleway":"track","source":"openstreetmap.org","min_zoom":8.0,"bicycle_network":"ncn"},"arcs":[[101],[102],[103],[104],[105],[106],[107],[108],[109],[110],[111],[112],[113],[114],[115],[116],[117]]},{"type":"MultiLineString","properties":{"sort_rank":355,"source":"openstreetmap.org","min_zoom":8.0,"kind":"ferry"},"arcs":[[118],[119],[120],[121],[122],[123]]},{"type":"LineString","properties":{"kind":"major_road","sort_rank":377,"kind_detail":"tertiary","is_bicycle_related":true,"bicycle_shield_text":"SSK","bicycle_network":"ncn","source":"openstreetmap.org","min_zoom":8.0,"ref":"3991"},"arcs":[124]},{"type":"MultiLineString","properties":{"kind":"major_road","sort_rank":377,"kind_detail":"tertiary","is_bicycle_related":true,"bicycle_shield_text":"SSK","bicycle_network":"ncn","source":"openstreetmap.org","min_zoom":8.0,"ref":"14851"},"arcs":[[125],[126]]},{"type":"LineString","properties":{"kind":"major_road","sort_rank":380,"kind_detail":"primary","is_bicycle_related":true,"bicycle_shield_text":"14","bicycle_network":"ncn","source":"openstreetmap.org","min_zoom":8.0,"ref":"62","id":171834714},"arcs":[127]},{"type":"MultiLineString","properties":{"kind":"path","sort_rank":354,"landuse_kind":"urban_area","is_bicycle_related":true,"bicycle_shield_text":"SSK","bicycle_network":"ncn","source":"openstreetmap.org","min_zoom":8.0,"kind_detail":"cycleway"},"arcs":[[128],[129],[130],[131],[132]]},{"type":"LineString","properties":{"kind":"major_road","sort_rank":377,"kind_detail":"tertiary","is_bicycle_related":true,"bus_network":"Imatra","bicycle_shield_text":"SSK","bicycle_network":"ncn","source":"openstreetmap.org","min_zoom":8.0,"bus_shield_text":"1","id":44333481},"arcs":[133]},{"type":"LineString","properties":{"source":"openstreetmap.org","kind":"major_road","sort_rank":381,"kind_detail":"trunk","ref":"6;13","min_zoom":8.0,"id":76107243},"arcs":[134]},{"type":"MultiLineString","properties":{"sort_rank":380,"kind_detail":"primary","min_zoom":8.0,"kind":"major_road","source":"openstreetmap.org"},"arcs":[[135],[136],[137]]},{"type":"LineString","properties":{"kind":"major_road","sort_rank":377,"kind_detail":"tertiary","is_bicycle_related":true,"bicycle_shield_text":"7","bicycle_network":"ncn","source":"openstreetmap.org","min_zoom":8.0,"ref":"14817"},"arcs":[138]},{"type":"MultiLineString","properties":{"kind":"major_road","sort_rank":377,"kind_detail":"tertiary","is_bicycle_related":true,"bicycle_shield_text":"SSK","bicycle_network":"ncn","source":"openstreetmap.org","min_zoom":8.0},"arcs":[[139],[140],[141],[142],[143],[144],[145],[146],[147],[148],[149],[150]]},{"type":"LineString","properties":{"kind":"major_road","sort_rank":377,"kind_detail":"tertiary","is_bicycle_related":true,"bicycle_shield_text":"SSK","bicycle_network":"ncn","source":"openstreetmap.org","min_zoom":8.0,"ref":"15139"},"arcs":[151]},{"type":"LineString","properties":{"kind":"minor_road","sort_rank":360,"kind_detail":"residential","is_bicycle_related":true,"bicycle_shield_text":"6","bicycle_network":"ncn","source":"openstreetmap.org","min_zoom":8.0,"id":27656015},"arcs":[152]},{"type":"LineString","properties":{"source":"openstreetmap.org","kind":"ferry","sort_rank":355,"is_bicycle_related":true,"min_zoom":8.0,"bicycle_shield_text":"SP","bicycle_network":"rcn"},"arcs":[153]},{"type":"LineString","properties":{"kind":"major_road","sort_rank":377,"kind_detail":"tertiary","is_bicycle_related":true,"bicycle_shield_text":"SSK","bicycle_network":"ncn","source":"openstreetmap.org","min_zoom":8.0,"ref":"14931","id":35110230},"arcs":[154]},{"type":"MultiLineString","properties":{"kind":"path","sort_rank":354,"kind_detail":"path","is_bicycle_related":true,"bicycle_shield_text":"SSK","bicycle_network":"ncn","source":"openstreetmap.org","min_zoom":8.0},"arcs":[[155],[156],[157]]},{"type":"LineString","properties":{"kind":"major_road","sort_rank":377,"kind_detail":"tertiary","is_bicycle_related":true,"bicycle_shield_text":"SSK","bicycle_network":"ncn","source":"openstreetmap.org","min_zoom":8.0,"ref":"15169"},"arcs":[158]},{"type":"LineString","properties":{"kind":"major_road","network":null,"sort_rank":381,"kind_detail":"trunk","is_bicycle_related":true,"bicycle_shield_text":"14","bicycle_network":"ncn","source":"openstreetmap.org","min_zoom":8.0,"shield_text":"6","ref":"6","id":171834712},"arcs":[159]},{"type":"MultiLineString","properties":{"kind":"major_road","sort_rank":380,"kind_detail":"primary","is_bicycle_related":true,"bicycle_shield_text":"62","bicycle_network":"ncn","source":"openstreetmap.org","min_zoom":8.0,"ref":"62"},"arcs":[[160],[161],[162],[163],[164]]},{"type":"MultiLineString","properties":{"kind":"major_road","network":null,"sort_rank":381,"kind_detail":"trunk","source":"openstreetmap.org","min_zoom":8.0,"shield_text":"6","ref":"6;13"},"arcs":[[165],[166],[167]]},{"type":"LineString","properties":{"kind":"major_road","sort_rank":377,"kind_detail":"tertiary","is_bicycle_related":true,"bicycle_shield_text":"7","bicycle_network":"ncn","source":"openstreetmap.org","min_zoom":8.0,"ref":"14820","id":185510726},"arcs":[168]},{"type":"LineString","properties":{"kind":"minor_road","service":"parking_aisle","sort_rank":356,"kind_detail":"service","is_bicycle_related":true,"bicycle_shield_text":"SSK","bicycle_network":"ncn","source":"openstreetmap.org","min_zoom":8.0},"arcs":[169]},{"type":"MultiLineString","properties":{"kind":"major_road","network":null,"sort_rank":381,"landuse_kind":"urban_area","source":"openstreetmap.org","min_zoom":8.0,"kind_detail":"trunk","shield_text":"6","ref":"6;13"},"arcs":[[170],[171]]},{"type":"MultiLineString","properties":{"kind":"minor_road","sort_rank":360,"kind_detail":"unclassified","is_bicycle_related":true,"bicycle_shield_text":"SSK","bicycle_network":"ncn","source":"openstreetmap.org","min_zoom":8.0},"arcs":[[172],[173],[174],[175]]},{"type":"LineString","properties":{"kind":"path","sort_rank":354,"kind_detail":"pedestrian","is_bicycle_related":true,"bicycle_shield_text":"SSK","bicycle_network":"ncn","source":"openstreetmap.org","min_zoom":8.0,"id":174067217},"arcs":[176]},{"type":"LineString","properties":{"kind":"major_road","sort_rank":377,"kind_detail":"tertiary","is_bicycle_related":true,"bicycle_shield_text":"SSK","bicycle_network":"ncn","source":"openstreetmap.org","min_zoom":8.0,"ref":"3995"},"arcs":[177]},{"type":"LineString","properties":{"source":"openstreetmap.org","kind":"major_road","sort_rank":381,"kind_detail":"trunk","ref":"41\u041a-084","min_zoom":8.0,"id":380036932},"arcs":[178]},{"type":"LineString","properties":{"kind":"path","sort_rank":354,"kind_detail":"cycleway","is_bicycle_related":true,"bicycle_shield_text":null,"bicycle_network":"ncn","source":"openstreetmap.org","min_zoom":8.0,"id":126084459},"arcs":[179]},{"type":"MultiLineString","properties":{"kind":"major_road","sort_rank":377,"landuse_kind":"urban_area","is_bicycle_related":true,"bicycle_shield_text":"7","bicycle_network":"ncn","source":"openstreetmap.org","min_zoom":8.0,"kind_detail":"tertiary","ref":"14817"},"arcs":[[180],[181]]},{"type":"MultiLineString","properties":{"kind":"minor_road","sort_rank":360,"kind_detail":"residential","is_bicycle_related":true,"bicycle_shield_text":"SSK","bicycle_network":"ncn","source":"openstreetmap.org","min_zoom":8.0},"arcs":[[182],[183],[184],[185],[186],[187],[188],[189],[190],[191],[192],[193],[194]]},{"type":"MultiLineString","properties":{"kind":"minor_road","sort_rank":358,"kind_detail":"service","is_bicycle_related":true,"bicycle_shield_text":"SSK","bicycle_network":"ncn","source":"openstreetmap.org","min_zoom":8.0},"arcs":[[195],[196],[197],[198],[199],[200],[201],[202],[203],[204]]},{"type":"LineString","properties":{"kind":"path","sort_rank":354,"kind_detail":"cycleway","is_bicycle_related":true,"bicycle_shield_text":"6","bicycle_network":"ncn","source":"openstreetmap.org","min_zoom":8.0},"arcs":[205]},{"type":"LineString","properties":{"kind":"major_road","sort_rank":377,"kind_detail":"tertiary","is_bicycle_related":true,"bicycle_shield_text":"SSK","bicycle_network":"ncn","source":"openstreetmap.org","min_zoom":8.0,"ref":"3981"},"arcs":[206]},{"type":"MultiLineString","properties":{"kind":"highway","network":null,"sort_rank":383,"kind_detail":"motorway","source":"openstreetmap.org","min_zoom":8.0,"all_networks":[null],"shield_text":"6","ref":"6","all_shield_texts":["6"]},"arcs":[[207],[208],[209],[210],[211],[212]]},{"type":"MultiLineString","properties":{"kind":"path","sort_rank":354,"kind_detail":"path","is_bicycle_related":true,"bicycle_shield_text":"14","cycleway":"track","source":"openstreetmap.org","min_zoom":8.0,"bicycle_network":"ncn"},"arcs":[[213],[214]]},{"type":"LineString","properties":{"kind":"minor_road","sort_rank":360,"kind_detail":"unclassified","is_bicycle_related":true,"bicycle_shield_text":"SSK","bicycle_network":"ncn","source":"openstreetmap.org","min_zoom":8.0,"landuse_kind":"urban_area","id":39816485},"arcs":[215]},{"type":"MultiLineString","properties":{"kind":"path","sort_rank":354,"kind_detail":"cycleway","is_bicycle_related":true,"bicycle_shield_text":"14","bicycle_network":"ncn","source":"openstreetmap.org","min_zoom":8.0},"arcs":[[216],[217],[218]]},{"type":"MultiLineString","properties":{"source":"openstreetmap.org","kind":"major_road","sort_rank":381,"kind_detail":"trunk","ref":"6","min_zoom":8.0},"arcs":[[219],[220],[221],[222]]},{"type":"MultiLineString","properties":{"kind":"major_road","sort_rank":380,"kind_detail":"primary","is_bicycle_related":true,"bicycle_shield_text":"SSK","bicycle_network":"ncn","source":"openstreetmap.org","min_zoom":8.0,"ref":"62"},"arcs":[[223],[224]]},{"type":"LineString","properties":{"kind":"major_road","sort_rank":380,"landuse_kind":"military","source":"openstreetmap.org","min_zoom":8.0,"kind_detail":"primary","ref":"62","id":31174472},"arcs":[225]},{"type":"LineString","properties":{"kind":"path","sort_rank":354,"kind_detail":"cycleway","is_bicycle_related":true,"bicycle_shield_text":"14","cycleway":"track","source":"openstreetmap.org","min_zoom":8.0,"bicycle_network":"ncn","id":226203541},"arcs":[226]},{"type":"LineString","properties":{"kind":"major_road","sort_rank":379,"kind_detail":"secondary","is_bicycle_related":true,"bicycle_shield_text":"7","bicycle_network":"ncn","source":"openstreetmap.org","min_zoom":8.0,"ref":"390"},"arcs":[227]},{"type":"MultiLineString","properties":{"kind":"path","sort_rank":354,"kind_detail":"cycleway","is_bicycle_related":true,"bicycle_shield_text":"SSK","bicycle_network":"ncn","source":"openstreetmap.org","min_zoom":8.0},"arcs":[[228],[229],[230],[231],[232],[233],[234],[235],[236],[237],[238],[239],[240],[241],[242],[243],[244],[245],[246],[247],[248],[249],[250],[251],[252],[253],[254],[255],[256],[257],[258],[259],[260],[261],[262],[263],[264],[265],[266]]},{"type":"MultiLineString","properties":{"kind":"minor_road","sort_rank":360,"kind_detail":"residential","is_bicycle_related":true,"bicycle_shield_text":"62","bicycle_network":"ncn","source":"openstreetmap.org","min_zoom":8.0},"arcs":[[267],[268]]},{"type":"LineString","properties":{"kind":"major_road","sort_rank":377,"kind_detail":"tertiary","is_bicycle_related":true,"bicycle_shield_text":null,"bicycle_network":"ncn","source":"openstreetmap.org","min_zoom":8.0,"ref":"4012","id":171673808},"arcs":[269]},{"type":"LineString","properties":{"kind":"minor_road","sort_rank":360,"kind_detail":"residential","is_bicycle_related":true,"bicycle_shield_text":"SSK","bicycle_network":"ncn","source":"openstreetmap.org","min_zoom":8.0,"old_name":"Rantatie","id":169384889},"arcs":[270]},{"type":"LineString","properties":{"kind":"path","sort_rank":354,"kind_detail":"path","is_bicycle_related":true,"bicycle_shield_text":"62","cycleway":"lane","source":"openstreetmap.org","min_zoom":8.0,"bicycle_network":"ncn"},"arcs":[271]},{"type":"LineString","properties":{"kind":"minor_road","sort_rank":358,"kind_detail":"service","is_bicycle_related":true,"bicycle_shield_text":"62","bicycle_network":"ncn","source":"openstreetmap.org","min_zoom":8.0,"id":169022925},"arcs":[272]},{"type":"LineString","properties":{"kind":"major_road","sort_rank":377,"kind_detail":"tertiary","is_bicycle_related":true,"bicycle_shield_text":"SSK","bicycle_network":"ncn","source":"openstreetmap.org","min_zoom":8.0,"ref":"14832"},"arcs":[273]},{"type":"LineString","properties":{"kind":"major_road","sort_rank":377,"kind_detail":"tertiary","is_bicycle_related":true,"bicycle_shield_text":"SSK","bicycle_network":"ncn","source":"openstreetmap.org","min_zoom":8.0,"ref":"4051"},"arcs":[274]},{"type":"MultiLineString","properties":{"source":"openstreetmap.org","kind":"major_road","sort_rank":380,"kind_detail":"primary","ref":"62","min_zoom":8.0},"arcs":[[275],[276],[277],[278],[279],[280],[281],[282],[283],[284],[285],[286],[287],[288],[289],[290],[291],[292],[293],[294],[295],[296],[297],[298],[299]]},{"type":"LineString","properties":{"kind":"major_road","sort_rank":377,"kind_detail":"tertiary","is_bicycle_related":true,"bicycle_shield_text":"SSK","bicycle_network":"ncn","source":"openstreetmap.org","min_zoom":8.0,"ref":"3951"},"arcs":[300]},{"type":"LineString","properties":{"kind":"path","sort_rank":354,"kind_detail":"path","is_bicycle_related":true,"bicycle_shield_text":"62","cycleway":"track","source":"openstreetmap.org","min_zoom":8.0,"bicycle_network":"ncn"},"arcs":[301]},{"type":"LineString","properties":{"source":"openstreetmap.org","kind":"major_road","kind_detail":"trunk","sort_rank":381,"landuse_kind":"urban_area","ref":"6;13","min_zoom":8.0},"arcs":[302]}]},"earth":{"type":"GeometryCollection","geometries":[{"type":"MultiPolygon","properties":{"sort_rank":10,"source":"naturalearthdata.com","min_zoom":0.0,"kind":"earth","area":92687946566},"arcs":[[[303]]]}]},"landuse":{"type":"GeometryCollection","geometries":[{"type":"MultiPolygon","properties":{"source":"naturalearthdata.com","kind":"urban_area","name":"","area":259073487,"sort_rank":11,"min_zoom":4.0},"arcs":[[[304]]]},{"type":"MultiPolygon","properties":{"source":"openstreetmap.org","kind":"military","tier":3,"area":2516711931,"sort_rank":45,"min_zoom":8.0,"osm_relation":true},"arcs":[[[305]]]}]}},"type":"Topology","transform":{"translate":[28.125,60.9304322029],"scale":[0.0003433228,0.0001650303]},"arcs":[[[1066,0],[98,162],[140,-33],[123,22],[118,-35],[83,176],[87,400],[264,295],[42,172],[157,84],[31,41],[92,6],[122,50],[84,134],[74,65],[482,345],[63,87],[122,75],[5,49],[69,92],[182,367],[510,663],[-19,183],[101,3]],[[0,2627],[377,98],[33,-24],[-17,47],[40,2],[35,42],[64,156],[94,-4],[7,94],[42,13],[-8,25],[209,114],[-18,168],[60,163],[28,-4],[38,-71],[82,87],[100,-93],[-5,-123],[165,-15],[24,-42],[131,8],[47,26],[-3,-55],[86,21],[18,50],[106,40],[208,-36],[1,115],[65,23],[14,216],[173,-72],[225,102],[48,-27],[222,-15],[499,159],[121,-14],[77,208],[73,87]],[[3440,2417],[178,-312],[167,-130],[223,-12],[42,-30],[17,-64],[29,4]],[[4096,3403],[-101,-3],[19,-183],[-510,-663],[-64,-137]],[[3440,2417],[-187,-322],[-5,-49],[-122,-75],[-63,-87],[-482,-345],[-74,-65],[-84,-134],[-122,-50],[-92,-6],[-31,-41],[-157,-84],[-42,-172],[-264,-295],[-87,-400],[-83,-176],[-118,35],[-123,-22],[-140,33],[-98,-162]],[[2521,0],[2,9],[131,147],[104,26],[138,10],[289,-73],[221,197],[118,10],[56,69],[98,17],[126,182],[-19,108],[54,117],[126,101],[131,187]],[[2520,0],[1,6],[133,150],[180,30]],[[2132,1095],[152,-163],[61,-251],[68,-36],[105,-113],[129,-33],[85,-81],[87,-5],[20,-98],[53,-90],[-10,-33]],[[2531,0],[123,156],[234,36],[297,-73],[221,197],[126,14],[56,70],[87,9],[55,73],[74,112],[-19,108],[54,117],[126,101],[131,187]],[[2197,4096],[-8,-30],[40,-15],[16,0],[26,15],[0,-38],[-157,41],[28,15],[13,12],[42,0]],[[0,1466],[26,-19],[11,-16],[0,-80],[5,-34],[14,-30],[76,-54],[85,20],[179,112],[-31,20],[-23,23],[-12,36],[4,53],[-237,0],[-56,27],[-29,64],[-12,43],[0,1985],[16,-2],[-9,29],[-7,24],[0,100],[31,33],[26,39],[-1,23],[35,-26],[0,-47],[-6,-60],[9,-74],[67,-103],[51,86],[47,157],[57,108],[-15,13],[-26,27],[-21,7],[26,57],[50,89],[1080,0],[24,-30],[41,-13],[67,43],[434,0],[54,-25],[-14,-3],[-4,-2],[-16,-56],[34,-50],[56,-37],[45,-20],[-50,-28],[-33,21],[-57,95],[-52,37],[-50,11],[-203,-25],[-54,-23],[-39,-41],[-28,-77],[13,-37],[94,-56],[-18,-48],[-24,-32],[-27,-12],[-30,5],[27,-20],[30,-16],[31,-5],[33,3],[-107,-90],[-34,-54],[49,-25],[19,18],[7,27],[12,5],[56,-89],[12,-29],[1,-35],[-15,-58],[-106,-96],[-278,223],[-117,-7],[22,-45],[24,-35],[25,-25],[29,-15],[-16,-89],[15,-84],[29,-69],[31,-52],[-88,-159],[-157,-58],[-451,23],[-20,-38],[-5,-109],[15,-10],[48,-22],[82,-14],[162,36],[76,-22],[-81,-121],[-80,-18],[-333,107],[-25,-12],[10,-54],[32,-48],[105,-123],[43,-2],[79,23],[48,-12],[95,-59],[47,-14],[88,36],[128,171],[82,41],[-10,-47],[1,-19],[6,-18],[3,-41],[83,86],[88,19],[189,-21],[-26,32],[-20,36],[-17,42],[-16,56],[52,-22],[52,-53],[139,-191],[46,-39],[48,-22],[61,-5],[23,-96],[206,-107],[51,-109],[-15,-164],[-41,-97],[-62,-55],[-242,-121],[-38,-38],[-29,-39],[-34,-30],[-89,-27],[-76,-59],[-233,-59],[-229,-176],[-80,-27],[-175,-18],[-79,-39],[-77,-70],[-98,-141],[-42,-25],[-36,6],[-44,21],[-45,2],[-42,-48],[-64,-40],[-334,-28],[-7,2],[0,682]],[[1283,1911],[-17,-27],[27,-57],[36,-50],[14,-14],[54,-86],[52,-28],[56,25],[55,64],[33,-37],[19,44],[-57,13],[-39,50],[-35,60],[-47,43],[-39,-23],[-112,23]],[[335,2810],[85,-18],[61,50],[-7,102],[390,0],[47,12],[143,75],[121,14],[38,24],[-23,64],[-58,82],[-19,68],[-8,-9],[-10,0],[-16,12],[-25,39],[20,38],[-71,25],[-22,32],[-8,66],[-59,32],[-84,11],[-61,-32],[5,-97],[-52,8],[-23,12],[-25,25],[48,-148],[12,-59],[-43,-78],[-57,-36],[-140,-11],[-258,82],[-61,-39],[83,-2],[18,-53],[-8,-88],[7,-105],[60,-98]],[[343,3688],[-50,-156],[45,-3],[41,12],[39,29],[36,44],[29,-87],[40,21],[40,66],[32,41],[6,-17],[24,-38],[34,-30],[35,0],[6,21],[9,43],[13,41],[22,18],[11,21],[-2,43],[1,45],[20,19],[20,-12],[54,-66],[16,-29],[32,-16],[41,41],[37,66],[20,57],[17,38],[3,21],[0,29],[-54,28],[-70,16],[-136,-3],[-45,-32],[-89,-113],[-36,-25],[-88,-9],[-84,-37],[-69,-87]],[[3308,4096],[-23,-28],[-33,-20],[-61,18],[-41,30],[158,0]],[[2870,4096],[41,-30],[-57,-23],[-61,35],[-22,18],[99,0]],[[2702,4096],[4,-7],[123,-98],[19,-32],[13,-38],[17,-34],[33,-25],[-61,-35],[-127,91],[-53,-15],[-17,31],[-20,28],[-23,20],[-49,16],[-5,16],[3,25],[-9,27],[-24,30],[176,0]],[[0,1466],[26,-19],[11,-16],[0,-80],[5,-34],[14,-30],[76,-54],[85,20],[179,112],[-31,20],[-23,23],[-12,36],[4,53],[-237,0],[-56,27],[-29,64],[-12,43]],[[0,3616],[16,-2],[-9,29],[-7,24]],[[0,3767],[31,33],[26,39],[-1,23],[35,-26],[0,-47],[-6,-60],[9,-74],[67,-103],[51,86],[47,157],[57,108],[-15,13],[-26,27],[-21,7],[26,57],[50,89]],[[3308,4096],[-23,-28],[-33,-20],[-61,18],[-41,30]],[[2870,4096],[41,-30],[-57,-23],[-61,35],[-22,18]],[[2702,4096],[4,-7],[123,-98],[19,-32],[13,-38],[17,-34],[33,-25],[-61,-35],[-127,91],[-53,-15],[-17,31],[-20,28],[-23,20],[-49,16],[-5,16],[3,25],[-9,27],[-24,30]],[[1410,4096],[24,-30],[41,-13],[67,43]],[[1976,4096],[54,-25],[-14,-3],[-4,-2],[-16,-56],[34,-50],[56,-37],[45,-20],[-50,-28],[-33,21],[-57,95],[-52,37],[-50,11],[-203,-25],[-54,-23],[-39,-41],[-28,-77],[13,-37],[94,-56],[-18,-48],[-24,-32],[-27,-12],[-30,5],[27,-20],[30,-16],[31,-5],[33,3],[-107,-90],[-34,-54],[49,-25],[19,18],[7,27],[12,5],[56,-89],[12,-29],[1,-35],[-15,-58],[-106,-96],[-278,223],[-117,-7],[22,-45],[24,-35],[25,-25],[29,-15],[-16,-89],[15,-84],[29,-69],[31,-52],[-88,-159],[-157,-58],[-451,23],[-20,-38],[-5,-109],[15,-10],[48,-22],[82,-14],[162,36],[76,-22],[-81,-121],[-80,-18],[-333,107],[-25,-12],[10,-54],[32,-48],[105,-123],[43,-2],[79,23],[48,-12],[95,-59],[47,-14],[88,36],[128,171],[82,41],[-10,-47],[1,-19],[6,-18],[3,-41],[83,86],[88,19],[189,-21],[-26,32],[-20,36],[-17,42],[-16,56],[52,-22],[52,-53],[139,-191],[46,-39],[48,-22],[61,-5],[23,-96],[206,-107],[51,-109],[-15,-164],[-41,-97],[-62,-55],[-242,-121],[-38,-38],[-29,-39],[-34,-30],[-89,-27],[-76,-59],[-233,-59],[-229,-176],[-80,-27],[-175,-18],[-79,-39],[-77,-70],[-98,-141],[-42,-25],[-36,6],[-44,21],[-45,2],[-42,-48],[-64,-40],[-334,-28],[-7,2]],[[1283,1911],[-17,-27],[27,-57],[36,-50],[14,-14],[54,-86],[52,-28],[56,25],[55,64],[33,-37],[19,44],[-57,13],[-39,50],[-35,60],[-47,43],[-39,-23],[-112,23]],[[335,2810],[85,-18],[61,50],[-7,102],[390,0],[47,12],[143,75],[121,14],[38,24],[-23,64],[-58,82],[-19,68],[-8,-9],[-10,0],[-16,12],[-25,39],[20,38],[-71,25],[-22,32],[-8,66],[-59,32],[-84,11],[-61,-32],[5,-97],[-52,8],[-23,12],[-25,25],[48,-148],[12,-59],[-43,-78],[-57,-36],[-140,-11],[-258,82],[-61,-39],[83,-2],[18,-53],[-8,-88],[7,-105],[60,-98]],[[343,3688],[-50,-156],[45,-3],[41,12],[39,29],[36,44],[29,-87],[40,21],[40,66],[32,41],[6,-17],[24,-38],[34,-30],[35,0],[6,21],[9,43],[13,41],[22,18],[11,21],[-2,43],[1,45],[20,19],[20,-12],[54,-66],[16,-29],[32,-16],[41,41],[37,66],[20,57],[17,38],[3,21],[0,29],[-54,28],[-70,16],[-136,-3],[-45,-32],[-89,-113],[-36,-25],[-88,-9],[-84,-37],[-69,-87]],[[2197,4096],[-8,-30],[40,-15],[16,0],[26,15],[0,-38],[-157,41],[28,15],[13,12]],[[3740,4096],[-66,-97],[-7,-63],[-115,-66],[-32,-70],[106,-142],[-116,-31],[-20,-48],[50,-160],[-34,-53],[10,-102],[74,-81],[81,-28],[18,-44]],[[3870,4071],[-96,25]],[[2409,2089],[85,53]],[[875,3164],[76,76],[98,15]],[[1109,3136],[118,-31],[35,-59],[-4,-72],[59,-64],[0,-41]],[[758,4082],[48,-104]],[[2016,2237],[2,4]],[[2150,1902],[-1,-1]],[[4043,3795],[53,38]],[[11,1791],[-11,-8]],[[1907,2488],[-26,21]],[[2002,2221],[14,16]],[[2032,2190],[10,-23]],[[2044,2161],[40,12]],[[2204,1994],[54,15]],[[172,795],[0,5]],[[1781,1469],[6,-1]],[[2002,2221],[-1,-27],[30,-8]],[[2042,2167],[2,-6]],[[2023,1238],[-48,121]],[[1134,160],[3,-4],[17,-8],[1,-1]],[[1156,148],[-16,13]],[[1109,3136],[8,87],[-68,32]],[[476,811],[140,98],[89,77],[116,53],[138,52],[85,37],[385,200],[437,249],[38,26]],[[1904,1603],[-861,-474],[-222,-89],[-117,-54],[-201,-151]],[[2251,1998],[24,11]],[[2275,2009],[-11,-5]],[[2275,2009],[74,37]],[[1937,1428],[0,1],[-1,0],[0,-2],[1,1]],[[2494,2142],[12,142],[50,151],[-47,299],[56,108],[0,318],[202,174],[-10,78],[-70,133],[126,265],[77,4],[103,142],[136,9],[82,131]],[[490,830],[-6,-2]],[[493,822],[11,12]],[[556,866],[2,-3]],[[1126,178],[6,-8]],[[1136,177],[-34,36],[32,-53]],[[1138,162],[-2,9]],[[1136,171],[-1,7]],[[1136,170],[0,1]],[[1136,171],[0,1],[0,1],[0,4]],[[1138,166],[-2,11]],[[1140,161],[-4,16]],[[1138,169],[-1,3]],[[1137,172],[0,3]],[[1138,170],[-1,5]],[[1137,175]],[[1138,168],[-1,4]],[[1137,172],[0,3]],[[1137,175],[0,1]],[[1155,147],[1,1]],[[1265,34],[-1,3]],[[1264,37],[1,-6]],[[1264,37],[18,-37]],[[1265,31],[0,3]],[[1274,5],[-8,24]],[[1266,29],[-1,5]],[[1265,31],[9,-26]],[[1281,0],[-15,29]],[[1266,29],[-1,2]],[[1279,0],[-5,5]],[[1182,130],[82,-88]],[[257,642],[-1,0]],[[2073,1186]],[[3336,2793],[190,154]],[[3872,3269]],[[3895,3305],[51,39],[33,124]],[[3953,4077],[-59,19]],[[1766,1471],[15,-2]],[[2350,1854],[6,-3]],[[2360,1850],[68,-36]],[[2226,0],[1,37],[56,182],[-1,117],[33,128],[-23,52],[3,115],[40,51],[-25,101],[30,45],[-11,52],[-148,146],[-84,139]],[[1102,213],[-28,66],[-195,163],[-224,260],[-171,126],[-12,-19]],[[486,818],[5,3]],[[668,967],[-5,15]],[[943,1194],[-23,0]],[[944,1194],[58,-33]],[[1004,1162],[46,-44]],[[1108,1145],[6,-6]],[[1117,1139],[-2,0]],[[1133,1192],[76,63]],[[1210,1258],[42,71],[74,25]],[[1337,1354],[33,0]],[[1374,1356],[49,-14]],[[2227,1875],[63,-9]],[[3570,3038],[28,19]],[[3598,2997],[-13,-14]],[[3588,3005],[8,-6]],[[3599,3056],[49,10]],[[3654,3073],[18,14]],[[3676,3088],[18,20]],[[0,2371],[256,403],[-97,359],[-124,114],[-27,75],[31,194],[43,102]],[[82,3618],[95,-69],[46,18],[40,150],[242,333],[262,46]],[[82,3618],[-82,-69]],[[465,4015],[-43,81]],[[810,4096],[81,0]],[[1382,1900],[32,27]],[[3336,2793],[50,-97],[-117,-134],[-25,-92],[12,-68],[-46,-49],[13,-95],[-74,-43]],[[1134,1188],[0,-1]],[[1135,1187],[-1,1]],[[2204,1994],[0,1]],[[162,799],[10,-4]],[[184,802],[-8,-1]],[[252,810],[52,6]],[[309,817],[8,-15]],[[360,794],[-39,5]],[[2141,1884],[12,-12]],[[0,642],[69,20]],[[2073,1186],[-5,6]],[[2073,1186],[24,-21],[-24,21]],[[2058,1195],[2,-1],[0,2],[-2,1],[0,-2]],[[282,425],[71,-78],[16,-111],[54,-4],[24,28]],[[413,881],[42,15]],[[507,867],[20,-55]],[[528,810],[29,-15]],[[539,841],[22,-34]],[[558,796],[-1,-1]],[[558,796],[4,5]],[[561,807],[1,-6]],[[758,4084],[0,-2]],[[1531,1407],[8,64],[78,-33]],[[3526,2947],[-1,0]],[[3986,3705],[-5,-7]],[[4012,3739],[-2,-2]],[[149,3672],[-9,81]],[[4043,3795],[-9,1]],[[0,2102],[159,17],[-159,-109]],[[3981,3698],[-21,-56],[19,-174]],[[2226,1874],[1,1]],[[2290,1866],[60,-12]],[[2356,1851],[4,-1]],[[367,3366],[89,186],[176,158],[-21,139],[33,75],[162,54]],[[2349,2046],[60,43]],[[367,3366],[246,-132],[159,0],[103,-70]],[[1317,2869],[161,-39],[56,-64],[20,-71],[42,-25]],[[1622,2645],[129,-84]],[[1881,2509],[-1,0]],[[2018,2241],[-79,105],[-32,142]],[[69,662],[-69,-19]],[[358,736],[118,75]],[[503,835],[-145,-98]],[[532,196],[-61,18],[-24,46]],[[154,3577],[1,-1]],[[358,737],[-137,-53],[-117,-12],[-35,-10]],[[104,671],[56,1],[61,11],[62,19],[75,34]],[[140,3753],[-17,171]],[[172,800],[-4,35]],[[1433,1341],[98,66]],[[3887,4078],[-15,18]],[[1875,1459],[9,-4]],[[3872,3269],[-28,-61]],[[1182,130],[-23,16]],[[3887,4078],[-17,-7]],[[246,659],[10,-17]],[[257,642],[3,-21]],[[11,1033],[-2,2]],[[395,846],[-6,12]],[[509,892],[21,-35]],[[918,1194]],[[1423,1342],[5,2]],[[1617,1438]],[[1661,1470],[-28,-6]],[[1898,1625],[4,8]],[[1907,1648],[3,12]],[[2141,1884],[-1,1]],[[3833,3206],[4,7]],[[3895,3305],[0,1]],[[3986,3705],[7,20]],[[37,996],[2,-6]],[[395,846]],[[413,881]],[[539,841],[0,1]],[[944,1194],[-1,0]],[[1898,1625],[1,-1]],[[3872,3269],[3,7]],[[3887,3295],[8,11]],[[3983,3979],[-8,16]],[[4010,3737]],[[4034,3796],[-26,-15]],[[2428,1814],[93,-12],[65,46],[36,-28],[71,41],[55,-45],[186,48],[58,82],[0,44],[49,48],[-1,83],[109,94]],[[2264,2004],[-18,-8],[-41,-35]],[[2205,1961],[-5,-4]],[[2200,1957],[-2,-2],[-88,-172],[-18,-103],[-188,-77]],[[1904,1603],[189,77],[18,103],[89,174]],[[2200,1957],[1,1],[4,3]],[[2205,1961],[46,37]],[[2195,1973],[11,22]],[[2208,1995],[-2,-1]],[[172,800]],[[2149,1901],[-9,-16]],[[2195,1973],[-30,-80],[-15,9]],[[2258,2009],[91,37]],[[2494,2142],[285,152],[168,190],[237,139],[152,170]],[[3526,2947],[175,65],[171,257]],[[3872,3269],[23,36]],[[3979,3468],[48,56],[25,86],[-7,159],[-90,292],[20,35]],[[0,3864],[123,60]],[[367,3366],[-226,183]],[[2073,1186]],[[2206,1994],[0,1]],[[532,196],[5,-129],[-36,-58],[5,-9]],[[0,1044],[9,-9]],[[11,1033],[26,-37]],[[162,799],[-48,18],[-39,54],[-36,119]],[[141,3549],[12,26]],[[155,3576],[-6,96]],[[176,801],[-8,34]],[[252,810],[-40,13],[-28,-21]],[[304,816],[5,1]],[[360,794],[35,52]],[[389,858],[24,23]],[[416,881],[50,18],[61,-87]],[[509,892],[58,5],[101,70]],[[530,857],[9,-15]],[[920,1194],[-2,0]],[[1002,1161],[2,1]],[[1108,1145],[-58,-27]],[[1115,1139],[-1,0]],[[1134,1188],[-1,4]],[[1209,1255],[1,3]],[[1326,1354],[11,0]],[[1370,1354],[4,2]],[[1633,1464],[-16,-26]],[[1661,1470],[105,1]],[[1787,1468],[88,-9]],[[1884,1455],[31,57],[-16,112]],[[1902,1633],[5,15]],[[2140,1885],[-89,-120],[-98,-70],[-43,16],[0,-51]],[[2152,1873],[14,-20],[60,21]],[[3585,2983],[-60,-36]],[[3570,3038],[18,-33]],[[3596,2999],[2,-2]],[[3598,3057],[1,-1]],[[3648,3066],[6,7]],[[3672,3087],[4,1]],[[3844,3208],[-7,5]],[[3875,3276],[12,19]],[[3975,3995],[-22,72],[-66,11]],[[4012,3739],[-15,105],[20,45],[-34,90]],[[4010,3737],[-17,-12]],[[1622,2645],[-26,25]],[[1880,2509],[-37,-19],[-92,71]],[[4060,3626],[36,-29]],[[1428,1344],[5,-3]],[[2095,2142],[-11,31]],[[1907,2488]],[[918,1194],[-142,-13],[-113,-199]],[[3833,3206],[-139,-98]],[[141,3549],[31,110],[-4,236],[-45,29]],[[875,3164],[259,-142],[13,-66],[45,-37],[125,-50]],[[1596,2670],[26,-25]],[[1751,2561],[129,-52]],[[1907,2488],[-26,21]],[[1975,1359],[-38,68]],[[1937,1429],[72,139],[-1,77]],[[2204,1995],[-121,191],[-65,55]],[[2027,1221],[-2,1]],[[2025,1222],[1,-1]],[[2025,1222],[3,-2]],[[2028,1220]],[[2028,1220],[12,-10]],[[2040,1210],[17,-14]],[[2027,1219],[0,-3]],[[2028,1219],[0,1]],[[2028,1220]],[[2028,1220],[-2,1]],[[2026,1221],[0,-2],[2,0]],[[2059,1197],[-19,13]],[[2040,1210],[-12,9]],[[2029,1220],[39,-28],[-8,3]],[[2029,1220],[30,-23]],[[2059,1194],[14,-8]],[[2214,1961],[-10,33]],[[1117,1139],[18,48]],[[2199,1994],[-104,148]],[[69,662],[35,9]],[[4096,4096],[0,-4096],[-4096,0],[0,4096],[4096,0]],[[358,728],[-77,-267],[-90,-62],[-57,26],[0,135],[-33,0],[0,68],[-32,0],[0,160],[291,35],[-2,-95]],[[4096,3419],[0,-16],[-101,-3],[19,-183],[-510,-663],[-18,-52],[-164,-315],[-69,-92],[11,-16],[-16,-33],[-122,-75],[-63,-87],[-482,-345],[-74,-65],[-84,-134],[-122,-50],[-92,-6],[-31,-41],[-72,-38],[-33,-19],[-52,-27],[-42,-172],[-264,-295],[-11,-108],[-76,-292],[-83,-176],[-118,35],[-123,-22],[-140,33],[-98,-162],[-80,0],[22,28],[61,12],[10,112],[147,22],[72,-15],[102,36],[21,-36],[113,-27],[44,83],[-14,25],[55,63],[-19,11],[39,67],[-11,62],[59,112],[3,151],[76,63],[68,112],[26,-4],[10,56],[110,83],[14,170],[41,-9],[-11,-17],[50,27],[-34,36],[10,20],[208,76],[42,56],[128,48],[11,37],[162,126],[151,91],[60,94],[178,133],[86,31],[111,119],[69,12],[-26,19],[10,30],[79,70],[19,90],[114,171],[29,107],[303,373],[13,49],[34,8],[118,186],[16,-11],[17,72],[26,3],[-40,188],[116,-16],[12,14]]]}