{"objects":{"water":{"type":"GeometryCollection","geometries":[]},"buildings":{"type":"GeometryCollection","geometries":[]},"places":{"type":"GeometryCollection","geometries":[{"type":"Point","properties":{"int_name":"Viciebskaja voblas\u0107","name:sk":"Vicebsk\u00e1 oblas\u0165","name:lt":"Vitebsko sritis","name:eo":"Vicebska Regiono","min_zoom":4.0,"name:uk":"\u0412\u0456\u0442\u0435\u0431\u0441\u044c\u043a\u0430 \u043e\u0431\u043b\u0430\u0441\u0442\u044c","name:be":"\u0412\u0456\u0446\u0435\u0431\u0441\u043a\u0430\u044f \u0432\u043e\u0431\u043b\u0430\u0441\u0446\u044c","name:pl":"obw\u00f3d witebski","id":566293550,"name:ca":"Prov\u00edncia de V\u00edtsiebsk","kind":"region","name:en":"Vitsebsk region","name":"\u0412\u0438\u0442\u0435\u0431\u0441\u043a\u0430\u044f \u043e\u0431\u043b\u0430\u0441\u0442\u044c","kind_detail":"state","name:de":"Woblast Wizebsk","source":"openstreetmap.org","name:fr":"Voblast de Vitebsk"},"coordinates":[1891,1336]},{"type":"Point","properties":{"name:sr":"\u041d\u0430\u0432\u0430\u043f\u043e\u043b\u0430\u0446\u043a","int_name":"Navapo\u0142ack","name:lt":"Navapolackas","name:eo":"Navapolack","min_zoom":8.0,"name:uk":"\u041d\u043e\u0432\u043e\u043f\u043e\u043b\u043e\u0446\u044c\u043a","name:be":"\u041d\u0430\u0432\u0430\u043f\u043e\u043b\u0430\u0446\u043a","name:pl":"Nowopo\u0142ock","id":119306895,"population":108193,"kind":"locality","name:en":"Navapolatsk","name":"\u041d\u043e\u0432\u043e\u043f\u043e\u043b\u043e\u0446\u043a","kind_detail":"city","name:de":"Nawapolazk","source":"openstreetmap.org","name:fr":"Navapolatsk","name:et":"Navapo\u0142ack"},"coordinates":[1515,2856]},{"type":"Point","properties":{"alt_name:be":"\u041f\u043e\u043b\u0430\u0446\u0430\u043a","name:ro":"Polo\u021bk","name:lt":"Polockas","name:eo":"Polack","min_zoom":8.0,"int_name":"Po\u0142ack","name:uk":"\u041f\u043e\u043b\u043e\u0446\u044c\u043a","name:be":"\u041f\u043e\u043b\u0430\u0446\u043a","name:pl":"Po\u0142ock","id":119310785,"population":84593,"kind":"locality","name:en":"Polatsk","name":"\u041f\u043e\u043b\u043e\u0446\u043a","kind_detail":"city","name:de":"Polazk","source":"openstreetmap.org","name:fr":"Polotsk","name:la":"Polotia"},"coordinates":[1874,2604]},{"type":"Point","properties":{"old_name:uk":"\u0414\u0456\u0441\u043d\u0430","kind":"locality","name:en":"Dzisna","name":"\u0414\u0438\u0441\u043d\u0430","name:lt":"Dysna","kind_detail":"town","name:eo":"Dzisna","source":"openstreetmap.org","min_zoom":8.0,"int_name":"Dzisna","name:uk":"\u0414\u0437\u0456\u0441\u043d\u0430","name:be":"\u0414\u0437\u0456\u0441\u043d\u0430","name:pl":"Dzisna","id":130206091,"population":1633},"coordinates":[262,2999]}]},"transit":{"type":"GeometryCollection","geometries":[{"type":"MultiLineString","properties":{"source":"openstreetmap.org","kind":"train","name":"\u0412\u0438\u0442\u0435\u0431\u0441\u043a - \u041f\u043e\u043b\u043e\u0446\u043a","sort_rank":275,"ref":"\u0412\u0438\u0442\u0435\u0431\u0441\u043a - \u041f\u043e\u043b\u043e\u0446\u043a","min_zoom":6.0,"osm_relation":true},"arcs":[[2],[3]]},{"type":"MultiLineString","properties":{"source":"openstreetmap.org","kind":"train","sort_rank":275,"ref":"\u041c\u043e\u0441\u043a\u0432\u0430 - \u041f\u043e\u043b\u043e\u0446\u043a","min_zoom":6.0,"osm_relation":true},"arcs":[[4],[5]]},{"type":"MultiLineString","properties":{"kind":"train","name":"\u0412\u0456\u0446\u0435\u0431\u0441\u043a - \u041b\u044b\u043d\u0442\u0443\u043f\u044b","name:lt":"Vitebskas - Lentupis","sort_rank":275,"source":"openstreetmap.org","min_zoom":6.0,"ref":"\u0412\u0456\u0446\u0435\u0431\u0441\u043a - \u041b\u044b\u043d\u0442\u0443\u043f\u044b","osm_relation":true},"arcs":[[6],[7],[8],[9]]},{"type":"MultiLineString","properties":{"kind":"train","name":"R\u012bga - Minsk","sort_rank":275,"name:de":"Riga - Minsk","source":"openstreetmap.org","min_zoom":6.0,"name:be":"\u0420\u044b\u0433\u0430 \u2014 \u041c\u0456\u043d\u0441\u043a","name:ru":"\u0420\u0438\u0433\u0430 \u2014 \u041c\u0438\u043d\u0441\u043a","ref":"R\u012bga - Minsk","osm_relation":true},"arcs":[[10],[11]]},{"type":"MultiLineString","properties":{"source":"openstreetmap.org","kind":"train","name":"\u041f\u043e\u043b\u0430\u0446\u043a - \u041c\u0456\u043d\u0441\u043a","sort_rank":275,"ref":"\u041f\u043e\u043b\u0430\u0446\u043a - \u041c\u0456\u043d\u0441\u043a","min_zoom":6.0,"osm_relation":true},"arcs":[[12],[13]]}]},"pois":{"type":"GeometryCollection","geometries":[{"type":"Point","properties":{"kind":"nature_reserve","protect_class":"4","area":802547000,"source":"openstreetmap.org","min_zoom":7.47,"tier":2,"name:be":"\u0420\u044d\u0441\u043f\u0443\u0431\u043b\u0456\u043a\u0430\u043d\u0441\u043a\u0456 \u043b\u0430\u043d\u0434\u0448\u0430\u0444\u0442\u043d\u044b \u0437\u0430\u043a\u0430\u0437\u043d\u0456\u043a \u00ab\u041a\u0430\u0437\u044c\u044f\u043d\u0441\u043a\u0456\u00bb","id":-7809745,"osm_relation":true,"name":"\u0420\u0435\u0441\u043f\u0443\u0431\u043b\u0438\u043a\u0430\u043d\u0441\u043a\u0438\u0439 \u043b\u0430\u043d\u0434\u0448\u0430\u0444\u0442\u043d\u044b\u0439 \u0437\u0430\u043a\u0430\u0437\u043d\u0438\u043a \u00ab\u041a\u043e\u0437\u044c\u044f\u043d\u0441\u043a\u0438\u0439\u00bb"},"coordinates":[3519,2528]}]},"boundaries":{"type":"GeometryCollection","geometries":[{"type":"LineString","properties":{"name:kg":"Belarusia","name:ty":"Belarus","name:ka":"\u10d1\u10d4\u10da\u10d0\u10e0\u10e3\u10e1\u10d8","name:ko":"\ubca8\ub77c\ub8e8\uc2a4","name:cv":"\u0411\u0435\u043b\u0430\u0440\u0443\u00e7","name:cu":"\u0411\u0463\u043b\u0430 \u0420\u043e\u0443\u0441\u044c","name:kl":"Hvideruslandi","name:cs":"B\u011blorusko","name:tt":"\u0411\u0435\u043b\u0430\u0440\u0443\u0441\u0438\u044f","name:co":"Bielorussia","name:tk":"Belorussi\u00fda","name:ku":"Belar\u00fbs","name:tl":"Biyelorusya","name:ce":"\u0411\u0435\u043b\u043e\u0440\u0443\u0441\u0441\u0438","name:ta":"\u0baa\u0bc6\u0bb2\u0bb0\u0bc1\u0bb8\u0bcd","name:tg":"\u0411\u0435\u043b\u0430\u0440\u0443\u0441","name:ca":"Bielor\u00fassia","name:te":"\u0c2c\u0c46\u0c32\u0c3e\u0c30\u0c38\u0c4d","name:cy":"Belarws","name:hr":"Bjelorusija","name:da":"Hviderusland","name:de":"Wei\u00dfrussland","name:dz":"\u0f56\u0f7a\u0f0b\u0f63\u0f0b\u0f62\u0f74\u0f0b\u0f66\u0f74\u0f0d","source":"openstreetmap.org","name:kn":"\u0cac\u0cc6\u0cb2\u0cbe\u0cb0\u0cc1\u0cb8\u0ccd","name:dv":"\u0784\u07ac\u078d\u07a6\u0783\u07ab\u0790\u07b0","name:lv":"Baltkrievija","name:lt":"Baltarusija","name:uz":"Belarus","name:ur":"\u0628\u06cc\u0644\u0627\u0631\u0648\u0633","name:lb":"W\u00e4issrussland","name:la":"Ruthenia Alba","name:uk":"\u0411\u0456\u043b\u043e\u0440\u0443\u0441\u044c","name:ug":"\u0628\u06d0\u0644\u0648\u0631\u06c7\u0633\u0633\u0649\u064a\u06d5","name:li":"Wit-Rusland","name:ln":"Bielorusia","name:el":"\u039b\u03b5\u03c5\u03ba\u03bf\u03c1\u03c9\u03c3\u03af\u03b1","name:eo":"Belorusujo","name:en":"Belarus","name":"\u0411\u0435\u043b\u0430\u0440\u0443\u0441\u044c","name:ee":"Belarus","name:th":"\u0e1b\u0e23\u0e30\u0e40\u0e17\u0e28\u0e40\u0e1a\u0e25\u0e32\u0e23\u0e38\u0e2a","name:eu":"Bielorrusia","name:et":"Valgevene","name:es":"Bielorrusia","name:ia":"Bielorussia","name:rm":"Bielorussia","name:az":"Belarus","name:ie":"Bielorussia","name:id":"Belarus","name:ar":"\u0631\u0648\u0633\u064a\u0627 \u0627\u0644\u0628\u064a\u0636\u0627\u0621","name:io":"Bielorusia","name:is":"Hv\u00edta-R\u00fassland","name:it":"Bielorussia","name:rw":"Belarusi","name:af":"Wit-Rusland","name:zu":"IBelarusi","kind_detail":"2","name:ky":"\u0411\u0435\u043b\u0430\u0440\u0443\u0441\u0438\u044f","name:zh-yue":"\u767d\u4fc4\u7f85\u65af","name:zh":"\u767d\u4fc4\u7f57\u65af","name:so":"Belarus","name:sl":"Belorusija","name:sk":"Bielorusko","name:ja":"\u30d9\u30e9\u30eb\u30fc\u30b7","name:si":"\u0db6\u0dd9\u0dbd\u0dcf\u0dbb\u0dc3\u0dca","name:sh":"Belorusija","name:se":"Vilges-Ruo\u0161\u0161a","name:sa":"\u092c\u0947\u0932\u093e\u0930\u0942\u0938","name:bs":"Bjelorusija","name:bn":"\u09ac\u09c7\u09b2\u09be\u09b0\u09c1\u09b6","name:bo":"\u0f56\u0fb7\u0f7a\u0f0b\u0f63\u0f0b\u0f62\u0f66\u0f74\u0f0d","name:br":"Belarus","name:sw":"Belarus","name:sv":"Vitryssland","name:su":"B\u00e9larus","name:bg":"\u0411\u0435\u043b\u0430\u0440\u0443\u0441","name:ss":"IBhelalasi","name:sr":"\u0411\u0435\u043b\u043e\u0440\u0443\u0441\u0438\u0458\u0430","name:sq":"Bjellorusia","name:jv":"B\u00e9larus","name:bi":"Belarus","name:pt":"Bielorr\u00fassia","name:ps":"\u0628\u06d0\u0644\u0627\u0631\u0648\u0633","name:oc":"Bielorussia","min_zoom":8.0,"name:ro":"Belarus","name:zh-min-nan":"Belarus","name:os":"\u0411\u0435\u043b\u043e\u0440\u0443\u0441\u0441\u0438","name:or":"\u0b2c\u0b47\u0b32\u0b3e\u0b0b\u0b37","name:pl":"Bia\u0142oru\u015b","sort_rank":262,"osm_relation":true,"name:tr":"Beyaz Rusya","name:hi":"\u092c\u0947\u0932\u093e\u0930\u0942\u0938","name:he":"\u05d1\u05dc\u05d0\u05e8\u05d5\u05e1","old_name:eo":"Bjelorusio;Bjelorusujo","name:hy":"\u0532\u0565\u056c\u0561\u057c\u0578\u0582\u057d","name:ht":"Byelorisi","name:hu":"Feh\u00e9roroszorsz\u00e1g","name:qu":"Bilarus","kind":"country","name:ts":"Belarus","name:yi":"\u05d1\u05e2\u05dc\u05d0\u05e8\u05d5\u05e1","name:yo":"B\u1eb9\u0300l\u00e1r\u00f9s","name:mt":"Belarus","alt_name:eo":"Belorusio","name:ms":"Belarus","name:mr":"\u092c\u0947\u0932\u093e\u0930\u0942\u0938","name:my":"\u1018\u102e\u101c\u102c\u101b\u102f\u1007\u103a\u1014\u102d\u102f\u1004\u103a\u1004\u1036","official_name":"\u0420\u044d\u0441\u043f\u0443\u0431\u043b\u0456\u043a\u0430 \u0411\u0435\u043b\u0430\u0440\u0443\u0441\u044c","name:kw":"Belarussi","name:ml":"\u0d2c\u0d46\u0d32\u0d3e\u0d31\u0d41\u0d38\u0d4d","name:vi":"Belarus","name:mi":"P\u0113rara","id":-59065,"name:mk":"\u0411\u0435\u043b\u043e\u0440\u0443\u0441\u0438\u0458\u0430","name:vo":"Belarus\u00e4n","name:fa":"\u0628\u0644\u0627\u0631\u0648\u0633","name:ff":"Belaruusiya","name:fi":"Valko-Ven\u00e4j\u00e4","name:fo":"Hv\u00edtarussland","alt_name:vi":"B\u1ea1ch Nga","name:fr":"B\u00e9larus","name:fy":"Wyt-Rusl\u00e2n","int_name":"Belarus","name:nl":"Wit-Rusland","name:nn":"Kviterussland","name:no":"Hviterussland","name:na":"Berarut","name:ne":"\u092c\u0947\u0932\u093e\u0930\u0941\u0938","alt_name:fr":"Bi\u00e9lorussie","name:wo":"Belaarus","name:ga":"An Bhealar\u00fais","name:gd":"A' Bhealaruis","name:gn":"Vielorrusia","name:gl":"Bielorrusia","name:gv":"Yn Velaroosh","name:gu":"\u0aac\u0ac7\u0ab2\u0abe\u0ab0\u0ac1\u0ab8"},"arcs":[0]},{"type":"LineString","properties":{"name:left:bs":"Pskovska oblast","name:left:la":"Regio Pscoviensis","old_name:right:en":"Vitebsk region","name:right:uk":"\u0412\u0456\u0442\u0435\u0431\u0441\u044c\u043a\u0430 \u043e\u0431\u043b\u0430\u0441\u0442\u044c","name:left:sr":"\u041f\u0441\u043a\u043e\u0432\u0441\u043a\u0430 \u043e\u0431\u043b\u0430\u0441\u0442","name:right:lt":"Vitebsko sritis","name:left:sl":"Pskovska oblast","min_zoom":8.0,"name:left:lt":"Pskovo sritis","name:left:sh":"Pskovska oblast","name:left:lv":"Pleskavas apgabals","name:left:hu":"Pszkovi ter\u00fclet","name:left:hr":"Pskovska oblast","old_name:right:fr":"Voblast de Vitebsk","sort_rank":256,"name:left:ca":"Prov\u00edncia de Pskov","int_name:right":"Viciebskaja voblas\u0107","source":"openstreetmap.org","name:left:cv":"\u041f\u0441\u043a\u043e\u0432 \u043e\u0431\u043b\u0430\u00e7\u0115","name:left:cs":"Pskovsk\u00e1 oblast","name:left":"\u041f\u0441\u043a\u043e\u0432\u0441\u043a\u0430\u044f \u043e\u0431\u043b\u0430\u0441\u0442\u044c","name:left:ka":"\u10e4\u10e1\u10d9\u10dd\u10d5\u10d8\u10e1 \u10dd\u10da\u10e5\u10d8","name:left:os":"\u041f\u0441\u043a\u043e\u0432\u044b \u043e\u0431\u043b\u00e6\u0441\u0442","name:left:ro":"Regiunea Pskov","name:left:kv":"\u041f\u0441\u043a\u043e\u0432 \u043e\u0431\u043b\u0430\u0441\u044c\u0442","name:right:eo":"Vicebska regiono","name:right:en":"Vitsebsk Voblast","kind":"region","name":"\u041f\u0441\u043a\u043e\u0432\u0441\u043a\u0430\u044f \u043e\u0431\u043b\u0430\u0441\u0442\u044c - \u0412\u0438\u0442\u0435\u0431\u0441\u043a\u0430\u044f \u043e\u0431\u043b\u0430\u0441\u0442\u044c","name:left:fa":"\u0627\u0633\u062a\u0627\u0646 \u067e\u0633\u06a9\u0648\u0641","name:right:sk":"Vicebsk\u00e1 oblas\u0165","name:left:fi":"Pihkovan alue","name:left:zh":"\u666e\u65af\u79d1\u592b\u5dde","name:left:fr":"Oblast de Pskov","name:left:da":"Pskov oblast","name:left:hy":"\u054a\u057d\u056f\u0578\u057e\u056b \u0574\u0561\u0580\u0566","name:left:uz":"Pskov viloyati","name:right:fr":"Voblast de Vitsebsk","name:left:ur":"\u067e\u0633\u06a9\u0648\u0641 \u0627\u0648\u0628\u0644\u0627\u0633\u062a","name:left:ja":"\u30d7\u30b9\u30b3\u30d5\u5dde","id:right":-59506,"name:left:uk":"\u041f\u0441\u043a\u043e\u0432\u0441\u044c\u043a\u0430 \u043e\u0431\u043b\u0430\u0441\u0442\u044c","name:left:nl":"Oblast Pskov","name:left:ba":"\u041f\u0441\u043a\u043e\u0432 \u04e9\u043b\u043a\u04d9\u04bb\u0435","name:left:bg":"\u041f\u0441\u043a\u043e\u0432\u0441\u043a\u0430 \u043e\u0431\u043b\u0430\u0441\u0442","name:left:be":"\u041f\u0441\u043a\u043e\u045e\u0441\u043a\u0430\u044f \u0432\u043e\u0431\u043b\u0430\u0441\u0446\u044c","name:right:be":"\u0412\u0456\u0446\u0435\u0431\u0441\u043a\u0430\u044f \u0432\u043e\u0431\u043b\u0430\u0441\u0446\u044c","id":-155262,"name:right":"\u0412\u0438\u0442\u0435\u0431\u0441\u043a\u0430\u044f \u043e\u0431\u043b\u0430\u0441\u0442\u044c","name:left:en":"Pskov Oblast","name:left:el":"\u03a0\u03b5\u03c1\u03b9\u03c6\u03ad\u03c1\u03b5\u03b9\u03b1 \u03a0\u03c3\u03ba\u03bf\u03c6","name:right:ca":"Prov\u00edncia de V\u00edtsiebsk","kind_detail":"4","name:left:pl":"Obw\u00f3d pskowski","id:left":-155262,"name:left:es":"\u00d3blast de Pskov","name:left:ko":"\ud504\uc2a4\ucf54\ud504 \uc8fc","name:left:eu":"Pskov oblasta","name:left:et":"Pihkva oblast","name:left:ar":"\u0628\u0633\u0643\u0648\u0641 \u0623\u0648\u0628\u0644\u0627\u0633\u062a","name:left:mk":"\u041f\u0441\u043a\u043e\u0432\u0441\u043a\u0430 \u043e\u0431\u043b\u0430\u0441\u0442","name:left:tr":"Pskov Oblast\u0131","name:left:id":"Oblast Pskov","name:left:tt":"\u041f\u0441\u043a\u043e\u0432 \u04e9\u043b\u043a\u04d9\u0441\u0435","name:left:az":"Pskov vilay\u0259ti","name:left:af":"Pskof-oblast","name:left:ta":"\u0baa\u0bbf\u0b9a\u0bc1\u0b95\u0bcd\u0b95\u0bcb\u0bb5\u0bcd \u0bae\u0bbe\u0b95\u0bbe\u0ba3\u0bae\u0bcd","name:left:it":"Oblast' di Pskov","name:right:pl":"obw\u00f3d witebski","osm_relation":true,"name:right:de":"Wizebskaja Woblasz","name:left:de":"Oblast Pskow","name:left:ce":"\u041f\u0441\u043a\u043e\u0432\u0430\u043d \u043e\u0431\u043b\u0430\u0441\u0442\u044c"},"arcs":[1]}]},"roads":{"type":"GeometryCollection","geometries":[{"type":"LineString","properties":{"kind":"major_road","int_name":"Viciebskaja vulica","network":"by:national","sort_rank":380,"kind_detail":"primary","source":"openstreetmap.org","min_zoom":8.0,"shield_text":"113","name:be":"\u0412\u0456\u0446\u0435\u0431\u0441\u043a\u0430\u044f \u0432\u0443\u043b\u0456\u0446\u0430","ref":"\u0420113","id":246684667},"arcs":[14]},{"type":"MultiLineString","properties":{"kind":"major_road","network":"by:national","sort_rank":380,"kind_detail":"primary","source":"openstreetmap.org","min_zoom":8.0,"landuse_kind":"urban_area","shield_text":"20","ref":"\u042020"},"arcs":[[15],[16],[17],[18],[19]]},{"type":"MultiLineString","properties":{"kind":"major_road","network":"by:national","sort_rank":380,"kind_detail":"primary","source":"openstreetmap.org","min_zoom":8.0,"landuse_kind":"urban_area","shield_text":"46"},"arcs":[[20],[21]]},{"type":"LineString","properties":{"kind":"major_road","int_name":"Lieninskaja vulica","network":"by:national","sort_rank":380,"kind_detail":"primary","source":"openstreetmap.org","min_zoom":8.0,"landuse_kind":"residential","shield_text":"113","name:be":"\u041b\u0435\u043d\u0456\u043d\u0441\u043a\u0430\u044f \u0432\u0443\u043b\u0456\u0446\u0430","ref":"\u0420113","id":25261349},"arcs":[22]},{"type":"MultiLineString","properties":{"source":"openstreetmap.org","kind":"major_road","sort_rank":380,"kind_detail":"primary","ref":"\u042045","min_zoom":8.0},"arcs":[[23],[24]]},{"type":"LineString","properties":{"kind":"major_road","network":"by:national","sort_rank":380,"kind_detail":"primary","source":"openstreetmap.org","min_zoom":8.0,"shield_text":"111","ref":"\u0420111"},"arcs":[25]},{"type":"MultiLineString","properties":{"sort_rank":380,"kind_detail":"primary","min_zoom":8.0,"kind":"major_road","source":"openstreetmap.org"},"arcs":[[26],[27],[28],[29],[30],[31]]},{"type":"LineString","properties":{"kind":"major_road","network":"by:national","sort_rank":381,"kind_detail":"trunk","source":"openstreetmap.org","min_zoom":8.0,"shield_text":"3","ref":"\u041c3"},"arcs":[32]},{"type":"MultiLineString","properties":{"bus_network":null,"network":"by:national","sort_rank":380,"kind_detail":"primary","kind":"major_road","source":"openstreetmap.org","min_zoom":8.0,"bus_shield_text":"5","shield_text":"46","landuse_kind":"urban_area"},"arcs":[[33],[34]]},{"type":"MultiLineString","properties":{"source":"openstreetmap.org","kind":"major_road","network":"by:national","sort_rank":380,"kind_detail":"primary","min_zoom":8.0,"shield_text":"20"},"arcs":[[35],[36]]},{"type":"LineString","properties":{"kind":"major_road","network":"by:national","sort_rank":380,"kind_detail":"primary","source":"openstreetmap.org","min_zoom":8.0,"shield_text":"14","ref":"\u042014"},"arcs":[37]},{"type":"LineString","properties":{"kind":"major_road","int_name":"vulica \u010carniacho\u016dskaha","network":"by:national","sort_rank":380,"kind_detail":"primary","source":"openstreetmap.org","min_zoom":8.0,"shield_text":"113","name:be":"\u0432\u0443\u043b\u0456\u0446\u0430 \u0427\u0430\u0440\u043d\u044f\u0445\u043e\u045e\u0441\u043a\u0430\u0433\u0430","ref":"\u0420113","id":78059977},"arcs":[38]},{"type":"LineString","properties":{"kind":"major_road","network":"by:national","sort_rank":380,"kind_detail":"primary","official_name":"\u0413\u043e\u0440\u043e\u0434\u043e\u043a \u2014 \u0423\u043b\u043b\u0430 \u2014 \u041a\u0430\u043c\u0435\u043d\u044c","source":"openstreetmap.org","min_zoom":8.0,"shield_text":"114","name:be":"\u041c\u0430\u043b\u0430\u0434\u0437\u0451\u0436\u043d\u0430\u044f \u0432\u0443\u043b\u0456\u0446\u0430","ref":"\u0420114","id":267243169},"arcs":[39]},{"type":"LineString","properties":{"kind":"major_road","network":"by:national","sort_rank":380,"kind_detail":"primary","official_name":"\u0413\u043e\u0440\u043e\u0434\u043e\u043a \u2014 \u0423\u043b\u043b\u0430 \u2014 \u041a\u0430\u043c\u0435\u043d\u044c","source":"openstreetmap.org","min_zoom":8.0,"shield_text":"114","ref":"\u0420114"},"arcs":[40]},{"type":"LineString","properties":{"kind":"major_road","int_name":"vulica Aliaksieja Zyhina","network":"by:national","sort_rank":380,"kind_detail":"primary","source":"openstreetmap.org","min_zoom":8.0,"landuse_kind":"urban_area","shield_text":"46","name:be":"\u0432\u0443\u043b\u0456\u0446\u0430 \u0410\u043b\u044f\u043a\u0441\u0435\u044f \u0417\u044b\u0433\u0456\u043d\u0430","ref":"\u042046"},"arcs":[41]},{"type":"MultiLineString","properties":{"kind":"major_road","network":"by:national","sort_rank":380,"kind_detail":"primary","source":"openstreetmap.org","min_zoom":8.0,"shield_text":"20","ref":"\u042020"},"arcs":[[42],[43],[44],[45],[46],[47],[48]]},{"type":"MultiLineString","properties":{"kind":"major_road","network":"by:national","sort_rank":380,"kind_detail":"primary","source":"openstreetmap.org","min_zoom":8.0,"shield_text":"24","ref":"\u042024"},"arcs":[[49],[50],[51]]},{"type":"LineString","properties":{"kind":"major_road","int_name":"Kastry\u010dnickaja vulica","sort_rank":380,"kind_detail":"primary","official_name":"\u0423\u0448\u0430\u0447\u0438 - \u0412\u0438\u043b\u0435\u0439\u043a\u0430","source":"openstreetmap.org","min_zoom":8.0,"landuse_kind":"residential","name:be":"\u041a\u0430\u0441\u0442\u0440\u044b\u0447\u043d\u0456\u0446\u043a\u0430\u044f \u0432\u0443\u043b\u0456\u0446\u0430","ref":"\u042029","id":79607191},"arcs":[52]},{"type":"LineString","properties":{"source":"openstreetmap.org","kind":"major_road","sort_rank":381,"kind_detail":"trunk","ref":"\u041c3","min_zoom":8.0},"arcs":[53]},{"type":"LineString","properties":{"kind":"major_road","int_name":"Lieninskaja vulica","sort_rank":380,"kind_detail":"primary","source":"openstreetmap.org","min_zoom":8.0,"landuse_kind":"residential","name:be":"\u041b\u0435\u043d\u0456\u043d\u0441\u043a\u0430\u044f \u0432\u0443\u043b\u0456\u0446\u0430","ref":"\u0420113"},"arcs":[54]},{"type":"LineString","properties":{"kind":"major_road","network":"by:national","sort_rank":380,"kind_detail":"primary","source":"openstreetmap.org","min_zoom":8.0,"shield_text":"113","ref":"\u0420114"},"arcs":[55]},{"type":"LineString","properties":{"kind":"major_road","network":"by:national","sort_rank":380,"kind_detail":"primary","source":"openstreetmap.org","min_zoom":8.0,"landuse_kind":"urban_area","shield_text":"45","ref":"\u042045"},"arcs":[56]},{"type":"LineString","properties":{"kind":"major_road","int_name":"vulica Lienina","network":"by:national","sort_rank":380,"kind_detail":"primary","source":"openstreetmap.org","min_zoom":8.0,"shield_text":"45","name:be":"\u0432\u0443\u043b\u0456\u0446\u0430 \u041b\u0435\u043d\u0456\u043d\u0430","ref":"\u042045","id":290235107},"arcs":[57]},{"type":"LineString","properties":{"kind":"major_road","int_name":"vulica Uryckaha","network":"by:national","sort_rank":380,"kind_detail":"primary","source":"openstreetmap.org","min_zoom":8.0,"shield_text":"111","name:be":"\u0432\u0443\u043b\u0456\u0446\u0430 \u0423\u0440\u044b\u0446\u043a\u0430\u0433\u0430","ref":"\u0420111"},"arcs":[58]},{"type":"LineString","properties":{"kind":"major_road","int_name":"Aziornaja vulica","network":"by:national","sort_rank":380,"kind_detail":"primary","source":"openstreetmap.org","min_zoom":8.0,"name:uk":"\u041e\u0437\u0435\u0440\u043d\u0430 \u0432\u0443\u043b\u0438\u0446\u044f","landuse_kind":"residential","shield_text":"116","name:be":"\u0410\u0437\u0451\u0440\u043d\u0430\u044f \u0432\u0443\u043b\u0456\u0446\u0430","ref":"\u0420116","id":126989500},"arcs":[59]},{"type":"LineString","properties":{"kind":"major_road","int_name":"Vilienskaja \u0161a\u0161a","network":"by:national","sort_rank":380,"kind_detail":"primary","source":"openstreetmap.org","min_zoom":8.0,"landuse_kind":"urban_area","shield_text":"45","name:be":"\u0412\u0456\u043b\u0435\u043d\u0441\u043a\u0430\u044f \u0448\u0430\u0448\u0430","ref":"\u042045","id":176333711},"arcs":[60]},{"type":"MultiLineString","properties":{"kind":"major_road","network":"by:national","sort_rank":380,"kind_detail":"primary","source":"openstreetmap.org","min_zoom":8.0,"shield_text":"116","ref":"\u0420116"},"arcs":[[61],[62]]},{"type":"MultiLineString","properties":{"kind":"major_road","network":"by:national","sort_rank":380,"kind_detail":"primary","source":"openstreetmap.org","min_zoom":8.0,"landuse_kind":"residential","shield_text":"45","ref":"\u042045"},"arcs":[[63],[64]]},{"type":"MultiLineString","properties":{"kind":"major_road","network":"by:national","sort_rank":380,"kind_detail":"primary","source":"openstreetmap.org","min_zoom":8.0,"shield_text":"114","ref":"\u0420114"},"arcs":[[65],[66],[67],[68],[69],[70],[71],[72],[73],[74]]},{"type":"LineString","properties":{"source":"openstreetmap.org","kind":"major_road","sort_rank":380,"kind_detail":"primary","ref":"\u042029","min_zoom":8.0},"arcs":[75]},{"type":"LineString","properties":{"source":"openstreetmap.org","kind":"major_road","sort_rank":380,"kind_detail":"primary","ref":"\u0420116","min_zoom":8.0},"arcs":[76]},{"type":"LineString","properties":{"kind":"major_road","int_name":"Savieckaja vulica","network":"by:national","sort_rank":380,"kind_detail":"primary","source":"openstreetmap.org","min_zoom":8.0,"landuse_kind":"residential","shield_text":"116","name:be":"\u0421\u0430\u0432\u0435\u0446\u043a\u0430\u044f \u0432\u0443\u043b\u0456\u0446\u0430","ref":"\u0420116","id":123388691},"arcs":[77]},{"type":"MultiLineString","properties":{"kind":"major_road","network":"by:national","sort_rank":380,"kind_detail":"primary","source":"openstreetmap.org","min_zoom":8.0,"shield_text":"113","ref":"\u0420113"},"arcs":[[78],[79],[80],[81],[82],[83]]},{"type":"LineString","properties":{"kind":"major_road","int_name":"Kastry\u010dnickaja vulica","sort_rank":380,"kind_detail":"primary","official_name":"\u0423\u0448\u0430\u0447\u0438 - \u0412\u0438\u043b\u0435\u0439\u043a\u0430","source":"openstreetmap.org","min_zoom":8.0,"name:be":"\u041a\u0430\u0441\u0442\u0440\u044b\u0447\u043d\u0456\u0446\u043a\u0430\u044f \u0432\u0443\u043b\u0456\u0446\u0430","ref":"\u042029","id":79607191},"arcs":[84]},{"type":"LineString","properties":{"kind":"major_road","int_name":"vulica Ramanava","network":"by:national","sort_rank":380,"kind_detail":"primary","source":"openstreetmap.org","min_zoom":8.0,"shield_text":"113","name:be":"\u0432\u0443\u043b\u0456\u0446\u0430 \u0420\u0430\u043c\u0430\u043d\u0430\u0432\u0430","ref":"\u0420113","id":78059962},"arcs":[85]},{"type":"MultiLineString","properties":{"kind":"major_road","int_name":"vulica Maksima Bahdanovi\u010da","network":"by:national","sort_rank":380,"kind_detail":"primary","source":"openstreetmap.org","min_zoom":8.0,"landuse_kind":"urban_area","shield_text":"46","name:be":"\u0432\u0443\u043b\u0456\u0446\u0430 \u041c\u0430\u043a\u0441\u0456\u043c\u0430 \u0411\u0430\u0433\u0434\u0430\u043d\u043e\u0432\u0456\u0447\u0430","ref":"\u042046"},"arcs":[[86],[87]]},{"type":"LineString","properties":{"kind":"major_road","network":"by:national","sort_rank":380,"kind_detail":"primary","source":"openstreetmap.org","min_zoom":8.0,"shield_text":"20","name:be":"\u0428\u0430\u0441\u044d\u0439\u043d\u0430\u044f \u0432\u0443\u043b\u0456\u0446\u0430","ref":"\u042020","id":123837861},"arcs":[88]},{"type":"MultiLineString","properties":{"source":"openstreetmap.org","kind":"major_road","network":"by:national","sort_rank":380,"kind_detail":"primary","min_zoom":8.0,"shield_text":"46"},"arcs":[[89],[90]]},{"type":"LineString","properties":{"kind":"major_road","int_name":"vulica Lienina","network":"by:national","sort_rank":380,"kind_detail":"primary","source":"openstreetmap.org","min_zoom":8.0,"landuse_kind":"residential","shield_text":"45","name:be":"\u0432\u0443\u043b\u0456\u0446\u0430 \u041b\u0435\u043d\u0456\u043d\u0430","ref":"\u042045","id":290235107},"arcs":[91]},{"type":"LineString","properties":{"kind":"major_road","int_name":"Lieninskaja vulica","network":"by:national","sort_rank":380,"kind_detail":"primary","source":"openstreetmap.org","min_zoom":8.0,"shield_text":"113","name:be":"\u041b\u0435\u043d\u0456\u043d\u0441\u043a\u0430\u044f \u0432\u0443\u043b\u0456\u0446\u0430","ref":"\u0420113","id":25261349},"arcs":[92]},{"type":"MultiLineString","properties":{"source":"openstreetmap.org","kind":"major_road","landuse_kind":"urban_area","sort_rank":380,"kind_detail":"primary","min_zoom":8.0},"arcs":[[93],[94]]},{"type":"MultiLineString","properties":{"kind":"major_road","network":"by:national","sort_rank":380,"kind_detail":"primary","source":"openstreetmap.org","min_zoom":8.0,"landuse_kind":"urban_area","shield_text":"20"},"arcs":[[95],[96]]},{"type":"MultiLineString","properties":{"kind":"major_road","network":"by:national","sort_rank":380,"kind_detail":"primary","source":"openstreetmap.org","min_zoom":8.0,"shield_text":"45","ref":"\u042045"},"arcs":[[97],[98],[99],[100]]},{"type":"LineString","properties":{"kind":"major_road","int_name":"vulica Svabody","network":"by:national","sort_rank":380,"kind_detail":"primary","source":"openstreetmap.org","min_zoom":8.0,"shield_text":"113","name:be":"\u0432\u0443\u043b\u0456\u0446\u0430 \u0421\u0432\u0430\u0431\u043e\u0434\u044b","ref":"\u0420113","id":176358979},"arcs":[101]},{"type":"MultiLineString","properties":{"kind":"major_road","network":"by:national","sort_rank":380,"kind_detail":"primary","source":"openstreetmap.org","min_zoom":8.0,"landuse_kind":"urban_area","shield_text":"46","ref":"\u042046"},"arcs":[[102],[103],[104],[105],[106]]},{"type":"LineString","properties":{"kind":"major_road","network":"by:national","sort_rank":380,"kind_detail":"primary","source":"openstreetmap.org","min_zoom":8.0,"landuse_kind":"residential","shield_text":"116","ref":"\u0420116","id":344356786},"arcs":[107]},{"type":"LineString","properties":{"kind":"major_road","int_name":"Kamunisty\u010dnaja vulica","network":"by:national","sort_rank":380,"kind_detail":"primary","source":"openstreetmap.org","min_zoom":8.0,"shield_text":"113","name:be":"\u041a\u0430\u043c\u0443\u043d\u0456\u0441\u0442\u044b\u0447\u043d\u0430\u044f \u0432\u0443\u043b\u0456\u0446\u0430","ref":"\u0420113","id":147135904},"arcs":[108]},{"type":"LineString","properties":{"kind":"major_road","int_name":"vulica Aliaksieja Zyhina","network":"by:national","sort_rank":380,"kind_detail":"primary","source":"openstreetmap.org","min_zoom":8.0,"shield_text":"46","name:be":"\u0432\u0443\u043b\u0456\u0446\u0430 \u0410\u043b\u044f\u043a\u0441\u0435\u044f \u0417\u044b\u0433\u0456\u043d\u0430","ref":"\u042046","id":25259739},"arcs":[109]},{"type":"LineString","properties":{"kind":"major_road","network":"by:national","sort_rank":380,"kind_detail":"primary","official_name":"\u0413\u043e\u0440\u043e\u0434\u043e\u043a \u2014 \u0423\u043b\u043b\u0430 \u2014 \u041a\u0430\u043c\u0435\u043d\u044c","source":"openstreetmap.org","min_zoom":8.0,"shield_text":"114","name:be":"\u0432\u0443\u043b\u0456\u0446\u0430 \u0420\u0430\u043c\u0430\u043d\u0430\u0432\u0430","ref":"\u0420114","id":75966507},"arcs":[110]},{"type":"LineString","properties":{"kind":"major_road","int_name":"Aziornaja vulica","network":"by:national","sort_rank":380,"kind_detail":"primary","source":"openstreetmap.org","min_zoom":8.0,"name:uk":"\u041e\u0437\u0435\u0440\u043d\u0430 \u0432\u0443\u043b\u0438\u0446\u044f","shield_text":"116","name:be":"\u0410\u0437\u0451\u0440\u043d\u0430\u044f \u0432\u0443\u043b\u0456\u0446\u0430","ref":"\u0420116","id":126989500},"arcs":[111]},{"type":"MultiLineString","properties":{"kind":"major_road","network":"by:national","sort_rank":380,"kind_detail":"primary","source":"openstreetmap.org","min_zoom":8.0,"shield_text":"46","ref":"\u042046"},"arcs":[[112],[113],[114],[115],[116],[117],[118]]},{"type":"LineString","properties":{"kind":"major_road","int_name":"Vilienskaja \u0161a\u0161a","network":"by:national","sort_rank":380,"kind_detail":"primary","source":"openstreetmap.org","min_zoom":8.0,"shield_text":"45","name:be":"\u0412\u0456\u043b\u0435\u043d\u0441\u043a\u0430\u044f \u0448\u0430\u0448\u0430","ref":"\u042045","id":176333711},"arcs":[119]}]},"earth":{"type":"GeometryCollection","geometries":[{"type":"Polygon","properties":{"sort_rank":10,"source":"naturalearthdata.com","kind":"earth","min_zoom":0.0,"id":4769},"arcs":[[120]]}]},"landuse":{"type":"GeometryCollection","geometries":[{"type":"MultiPolygon","properties":{"source":"naturalearthdata.com","kind":"urban_area","name":"","area":739159569,"sort_rank":11,"min_zoom":4.0},"arcs":[[[121]],[[122]],[[123]]]},{"type":"Polygon","properties":{"kind":"nature_reserve","protect_class":"1","area":2506360064,"sort_rank":23,"operator":"\u0413\u043e\u0441\u0443\u0434\u0430\u0440\u0441\u0442\u0432\u0435\u043d\u043d\u043e\u0435 \u043f\u0440\u0438\u0440\u043e\u0434\u043e\u043e\u0445\u0440\u0430\u043d\u043d\u043e\u0435 \u0443\u0447\u0440\u0435\u0436\u0434\u0435\u043d\u0438\u0435 \u00ab\u0411\u0435\u0440\u0435\u0437\u0438\u043d\u0441\u043a\u0438\u0439 \u0431\u0438\u043e\u0441\u0444\u0435\u0440\u043d\u044b\u0439 \u0437\u0430\u043f\u043e\u0432\u0435\u0434\u043d\u0438\u043a\u00bb","source":"openstreetmap.org","min_zoom":4.0,"tier":2,"id":-3400208,"osm_relation":true},"arcs":[[124]]},{"type":"MultiPolygon","properties":{"source":"openstreetmap.org","kind":"residential","tier":2,"area":301611055,"sort_rank":20,"min_zoom":8.0},"arcs":[[[125]],[[126]],[[127]]]},{"type":"MultiPolygon","properties":{"kind":"nature_reserve","protect_class":"4","area":1711941121,"sort_rank":23,"source":"openstreetmap.org","min_zoom":6.0,"tier":2,"osm_relation":true},"arcs":[[[128]]]}]}},"type":"Topology","transform":{"translate":[28.125,54.9776136707],"scale":[0.0003433228,0.0001950584]},"arcs":[[[4096,3754],[-46,-42],[-106,35],[-63,53],[-12,68],[-46,12],[-109,99],[-110,23],[-11,50],[28,44]],[[3621,4096],[-28,-44],[11,-50],[110,-23],[109,-99],[46,-12],[12,-68],[63,-53],[106,-35],[46,42]],[[1903,2648],[40,-36],[12,-8]],[[1940,2615],[232,-69],[247,-146],[82,-16],[276,-171],[158,-48],[103,-90],[284,-94],[84,-5],[304,-128],[138,-105],[248,-19]],[[1903,2648],[40,-36],[5,-4],[7,-4]],[[4096,1724],[-248,19],[-138,105],[-304,128],[-84,5],[-284,94],[-103,90],[-158,48],[-276,171],[-82,16],[-247,146],[-232,69]],[[0,1334],[118,76],[70,104],[114,82],[98,-2],[39,99],[107,-23],[10,39],[-30,55],[131,137],[29,64],[200,116],[153,139],[390,77],[514,230],[24,51]],[[1916,2637],[-24,22]],[[1903,2648],[40,-36],[12,-8]],[[1968,2583],[-8,18]],[[0,1334],[118,76],[70,104],[114,82],[98,-2],[39,99],[107,-23],[10,39],[-30,55],[131,137],[29,64],[200,116],[149,137],[391,78],[517,231],[25,64],[-8,10],[-14,9],[-43,38]],[[1916,2637],[-35,32],[-19,13],[-118,61],[-345,354],[-973,536],[-325,286],[-101,35]],[[0,1334],[118,76],[70,104],[114,82],[98,-2],[39,99],[107,-23],[10,39],[-30,55],[131,137],[29,64],[200,116],[149,137],[391,78],[517,231],[25,64],[-8,10],[-14,9],[-43,38]],[[1916,2637],[-24,22]],[[1488,1037],[-35,-2]],[[1581,2892],[-50,17]],[[1581,2892],[1,-4]],[[1586,2889],[-5,3]],[[1587,2882],[62,-4]],[[1649,2879],[-60,7]],[[1818,2549],[-1,-2]],[[1821,2546],[1,2]],[[1444,1035],[-20,0]],[[1385,2312],[20,5]],[[1586,2415],[39,29]],[[3849,262],[-30,-112],[-75,-150]],[[1815,2703],[1,0]],[[1816,2702]],[[1919,2834],[-1,-2]],[[1922,2832],[3,1],[-2,1]],[[1815,2702],[1,0],[0,1],[-1,0],[0,-1]],[[1919,2832],[3,1],[0,5],[-2,-1],[-1,-5]],[[2048,0],[75,69],[282,28],[130,84],[92,19],[258,-16],[105,-32],[80,53],[495,96],[134,-102],[175,1],[70,31],[107,118],[45,95]],[[1817,2547],[4,-1]],[[1822,2548],[-4,1]],[[1720,2882],[-6,1]],[[1714,2880],[6,0]],[[1586,2415],[-316,127],[-462,133],[-125,79],[-292,73],[-148,63],[-123,75],[-120,143]],[[3974,317],[-54,30]],[[3294,1342],[-8,-40]],[[3359,1380],[-65,-38]],[[1832,2672],[-8,15]],[[1531,2909],[-80,47],[-85,81],[-49,96],[-76,46],[-127,-10],[-116,46],[-68,70],[-111,-1],[-216,-64],[-230,88],[-108,210],[-131,73],[-134,121]],[[1649,2878],[65,2]],[[1714,2883],[-65,-4]],[[1720,2880],[198,-44],[169,-32]],[[2087,2804],[-367,78]],[[3793,1736],[-191,123],[-122,172],[-259,113],[-269,296],[-365,262],[-500,102]],[[4096,1707],[-227,29]],[[1918,2842],[-18,249],[160,107],[33,70],[-27,138],[18,54],[-35,75],[25,40],[-6,168],[28,190],[-67,163]],[[1918,2842],[1,-6]],[[1922,2838],[-4,4]],[[1392,1009],[12,33]],[[3358,270],[-10,-4]],[[1404,1042],[20,-7]],[[3228,1212],[-53,-83]],[[1817,2547],[1,-2]],[[1066,2248],[-5,-2]],[[3875,352],[-22,-76]],[[1428,964],[-1,-15]],[[1816,2546],[-3,-2]],[[1422,886],[-30,-133],[-42,-49],[16,-44]],[[1458,473],[80,-125],[-21,-155],[-55,-53],[83,-140]],[[972,2199],[-1,-2]],[[1107,2260],[-7,-2]],[[3175,1129],[-27,-113],[-238,-249],[-19,-74],[-360,-345],[-229,-97],[-184,-184]],[[3234,1223],[-6,-11]],[[3286,1302],[-11,-16]],[[3792,1734],[-235,-172],[-198,-182]],[[3792,1734],[3,0]],[[3795,1734],[2,0]],[[3793,1736],[-1,-2]],[[3795,1734]],[[3795,1734],[1,1]],[[3996,1727],[100,86]],[[194,0],[65,41],[45,79],[265,140],[51,82],[105,39],[72,-19],[162,102],[86,25],[32,103],[256,196],[50,195]],[[1366,660],[30,-18],[62,-169]],[[1424,1035],[5,-66]],[[3175,1129],[-103,-25],[-192,24],[-524,-63],[-157,-54],[-360,128],[-191,33],[-160,-135]],[[3229,1209],[-1,0]],[[3228,1209],[-1,1]],[[3805,370],[-191,87],[-254,182],[14,105],[-106,100],[20,70],[-6,38],[-54,257]],[[3228,1209],[0,3]],[[4096,240],[-122,77]],[[1383,983],[9,26]],[[3841,348],[-36,22]],[[1831,2671],[-17,-69]],[[1815,2602],[17,70]],[[3869,1736],[-76,0]],[[1714,2883],[0,-3]],[[1720,2880],[0,2]],[[1061,2246],[-89,-47]],[[1453,1035],[-9,0]],[[1586,2889],[-4,-1]],[[1587,2882],[2,4]],[[1582,2888],[5,-6]],[[1589,2886],[-3,3]],[[971,2197],[-76,-100],[-396,-214],[-119,-200],[-125,-34],[-255,-195]],[[1100,2258],[-34,-10]],[[1586,2415],[-41,-43],[-120,-49],[-318,-63]],[[1768,2521],[-175,-100]],[[3841,348],[34,4]],[[1814,2602],[4,-53]],[[1821,2549],[-6,53]],[[1819,2545],[3,-2]],[[1822,2543],[-1,3]],[[1838,2510],[-16,33]],[[1429,969],[-1,-5]],[[3875,352],[45,-5]],[[1824,2687],[-8,14]],[[3275,1286],[-41,-63]],[[1427,949],[-5,-63]],[[1714,2885],[-328,678],[6,104],[-54,84],[-2,83],[57,262]],[[1714,2885],[0,-2]],[[1718,2883],[-4,2]],[[1715,2880],[3,-2]],[[1718,2878],[1,2]],[[1815,2704],[-97,174]],[[1805,0],[-20,129],[43,289],[12,764],[70,473],[-11,63],[85,240],[22,144],[-168,408]],[[1813,2544],[-45,-23]],[[0,0],[0,4096],[4096,0],[0,-4096],[-4096,0]],[[2070,2702],[38,-192],[-67,12],[-160,-69],[0,57],[-64,0],[-12,106],[-21,8],[73,116],[112,32],[101,-70]],[[1334,2630],[-68,15],[-129,93],[90,149],[73,41],[64,-19],[13,-40],[19,-188],[-62,-51]],[[1642,2737],[-78,38],[-39,134],[36,3],[58,58],[36,-4],[-11,-155],[43,-16],[-45,-58]],[[296,0],[47,25],[1,-25],[-48,0]],[[1356,1021],[28,77],[30,1],[31,-65],[25,2],[-20,-26],[55,-19],[16,-62],[-91,14],[-33,71],[-16,-16],[-25,23]],[[901,2241],[36,4],[24,-26],[42,57],[73,-39],[29,27],[18,-42],[-22,-27],[-31,31],[-26,-13],[-4,-48],[-55,37],[-63,-21],[-21,60]],[[164,3025],[33,25],[91,-18],[-5,-37],[35,-31],[-14,-52],[-49,-2],[-6,63],[-85,52]],[[4096,2458],[0,-95],[-55,1],[-38,80],[-51,-5],[-23,39],[45,33],[-47,-5],[-64,39],[-44,-36],[18,-36],[-25,-73],[48,-28],[-26,-26],[38,-61],[55,38],[39,-10],[-3,-106],[-11,13],[-29,-46],[-80,-41],[-34,20],[-2,48],[-158,-60],[26,105],[-22,-4],[-9,41],[-76,73],[-40,-145],[47,-23],[40,-64],[-30,2],[-8,-37],[-77,7],[-17,-66],[-267,120],[-84,102],[-61,215],[-39,36],[29,7],[-7,67],[40,27],[1,70],[77,47],[88,-30],[-105,-122],[31,-49],[45,95],[23,-17],[40,46],[92,-4],[85,43],[103,1],[3,95],[192,0],[45,125],[-36,110],[35,16],[51,-31],[88,19],[19,-21],[13,-29],[-16,-4],[28,-19],[-51,8],[29,-38],[-39,-15],[17,-53],[42,-27],[-67,-64],[52,4],[31,-30],[37,28],[40,-33],[-9,-43],[18,-1],[0,-26],[-22,-37],[22,-22],[0,-37],[-9,-15],[6,-85],[3,-1]]]}