{"objects":{"water":{"type":"GeometryCollection","geometries":[]},"buildings":{"type":"GeometryCollection","geometries":[]},"places":{"type":"GeometryCollection","geometries":[{"type":"Point","properties":{"name:pt":"Jitomir","name:az":"Jitomir","name:id":"Zhytomyr","name:ka":"\u10df\u10d8\u10e2\u10dd\u10db\u10d8\u10e0\u10d8","name:ko":"\uc9c0\ud1a0\ubbf8\ub974","name:cu":"\u0416\u0438\u0442\u043e\u043c\u0438\u0440\u044a","name:ar":"\u062c\u064a\u062a\u0648\u0645\u064a\u0631","name:cs":"\u017dytomyr","min_zoom":8.0,"name:ro":"J\u00eetom\u00eer","name:it":"\u017dytomyr","name:be":"\u0416\u044b\u0442\u043e\u043c\u0456\u0440","name:vi":"Zhytomyr","name:pl":"\u017bytomierz","id":252098339,"name:ca":"Jit\u00f2mir","name:fa":"\u0698\u06cc\u062a\u0648\u0645\u06cc\u0631","name:ms":"Zhytomyr","kind_detail":"city","name:da":"Zjytomyr","name:de":"Schytomyr","source":"openstreetmap.org","name:fr":"Jytomyr","name:zh":"\u65e5\u6258\u7c73\u723e","name:lv":"\u017ditomira","name:ja":"\u30b8\u30c8\u30fc\u30e0\u30a3\u30eb","name:nn":"Zjytomyr","name:no":"Zjytomyr","name:he":"\u05d6'\u05d9\u05d8\u05d5\u05de\u05d9\u05e8","kind":"locality","name:br":"Jitomir","name:eu":"Zhytomyr","name:la":"Zitomiria","name:sk":"\u017dytomyr","name:hy":"\u053a\u056b\u057f\u0578\u0574\u056b\u0580","name:sv":"Zjytomyr","name:hu":"Zsitomir","name:hr":"\u017ditomir (Ukrajina)","name:oc":"Zhyt\u00f2myr","population":267610,"name:el":"\u0396\u03b9\u03c4\u03cc\u03bc\u03b9\u03c1","name:eo":"\u0134itomiro","name:en":"Zhytomyr","name":"\u0416\u0438\u0442\u043e\u043c\u0438\u0440","name:gd":"Zhytomyr","name:is":"Zjyt\u00f3m\u00fdr","name:gl":"Zhit\u00f3mir","name:lt":"\u017dytomyras","name:fi":"\u017dytomyr","name:yi":"\u05d6\u05e9\u05d9\u05d8\u05d0\u05de\u05d9\u05e8","name:et":"\u017d\u00f5tom\u00f5r","name:nl":"Zjytomyr","name:es":"Zhytomyr"},"coordinates":[1585,1923]},{"type":"Point","properties":{"alt_name:en":"Berdichev","name:lt":"Berdy\u010divas","alt_name:de":"Berditschew","name:eo":"Berdi\u0109iv","min_zoom":8.0,"name:ru":"\u0411\u0435\u0440\u0434\u0438\u0447\u0435\u0432","name:pl":"Berdycz\u00f3w","name:hu":"Berdichiv","id":337541446,"population":78774,"kind":"locality","name:en":"Berdychiv","name":"\u0411\u0435\u0440\u0434\u0438\u0447\u0456\u0432","kind_detail":"town","name:de":"Berdytschiw","source":"openstreetmap.org"},"coordinates":[1330,256]},{"type":"Point","properties":{"kind":"locality","name:en":"Korostyshiv","name":"\u041a\u043e\u0440\u043e\u0441\u0442\u0438\u0448\u0456\u0432","kind_detail":"town","name:eo":"Korosti\u015div","name:de":"Korostyschiw","source":"openstreetmap.org","min_zoom":8.0,"name:fr":"Korostychiv","name:ru":"\u041a\u043e\u0440\u043e\u0441\u0442\u044b\u0448\u0435\u0432","name:pl":"Korostesz\u00f3w","id":255260767,"population":25768},"coordinates":[2719,2198]},{"type":"Point","properties":{"old_name:fr":"Radomychl","name:ro":"Radom\u00ee\u0219l","name:ka":"\u10e0\u10d0\u10d3\u10dd\u10db\u10d8\u10e8\u10da\u10d8","name:hy":"\u054c\u0561\u0564\u0578\u0574\u056b\u0577\u056c","name:cs":"Radomy\u0161l","kind":"locality","min_zoom":8.0,"name:it":"Radomy\u0161l'","name:ru":"\u0420\u0430\u0434\u043e\u043c\u044b\u0448\u043b\u044c","name:vi":"Radomyshl","name:pl":"Radomy\u015bl","id":337520736,"population":15003,"name:eo":"Radomi\u015dl","name:en":"Radomyshl","name":"\u0420\u0430\u0434\u043e\u043c\u0438\u0448\u043b\u044c","kind_detail":"town","name:de":"Radomyschl","source":"openstreetmap.org","name:fr":"Radomyshl'","name:fi":"Radomy\u0161l","name:yi":"\u05e8\u05d0\u05d3\u05d0\u05de\u05d9\u05e9\u05dc","name:be":"\u0420\u0430\u0434\u0430\u043c\u044b\u0448\u043b\u044c","name:zh":"\u62c9\u591a\u6885\u4ec0\u5229","name:es":"Radomyshl"},"coordinates":[3216,3001]},{"type":"Point","properties":{"kind":"locality","name:en":"Cherniakhiv","name":"\u0427\u0435\u0440\u043d\u044f\u0445\u0456\u0432","kind_detail":"town","name:de":"Tschernjachiw","source":"openstreetmap.org","min_zoom":8.0,"name:ru":"\u0427\u0435\u0440\u043d\u044f\u0445\u043e\u0432","name:pl":"Czerniach\u00f3w","id":337521543,"population":9979},"coordinates":[1575,2804]},{"type":"Point","properties":{"kind":"locality","name:en":"Andrushivka","name":"\u0410\u043d\u0434\u0440\u0443\u0448\u0456\u0432\u043a\u0430","name:lt":"Andru\u0161ivka","kind_detail":"town","name:de":"Andruschiwka","source":"openstreetmap.org","min_zoom":8.0,"name:ru":"\u0410\u043d\u0434\u0440\u0443\u0448\u0451\u0432\u043a\u0430","name:pl":"Andrusz\u00f3wka","id":337536703,"population":9092},"coordinates":[2613,876]},{"type":"Point","properties":{"alt_name:pl":"Horoszki","min_zoom":8.0,"old_name:en":"Volodarsk-Volynskyi","old_name":"\u0412\u043e\u043b\u043e\u0434\u0430\u0440\u0441\u044c\u043a-\u0412\u043e\u043b\u0438\u043d\u0441\u044c\u043a\u0438\u0439","name:ru":"\u0425\u043e\u0440\u043e\u0448\u0435\u0432","name:pl":"Horosz\u00f3w","id":337519185,"population":7382,"old_name:uk":"\u0412\u043e\u043b\u043e\u0434\u0430\u0440\u0441\u044c\u043a-\u0412\u043e\u043b\u0438\u043d\u0441\u044c\u043a\u0438\u0439","kind":"locality","name:en":"Khoroshiv","old_name:de":"Wolodarsk-Wolynskyj","name":"\u0425\u043e\u0440\u043e\u0448\u0456\u0432","old_name:pl":"Wo\u0142odarsk Wo\u0142y\u0144ski","kind_detail":"town","old_name:ru":"\u0412\u043e\u043b\u043e\u0434\u0430\u0440\u0441\u043a-\u0412\u043e\u043b\u044b\u043d\u0441\u043a\u0438\u0439","name:de":"Choroschiw","source":"openstreetmap.org"},"coordinates":[933,3456]},{"type":"Point","properties":{"kind":"locality","name:en":"Popilnia","name":"\u041f\u043e\u043f\u0456\u043b\u044c\u043d\u044f","old_name:pl":"Popielnia","kind_detail":"town","name:de":"Popilnja","source":"openstreetmap.org","min_zoom":8.0,"name:ru":"\u041f\u043e\u043f\u0435\u043b\u044c\u043d\u044f","name:pl":"Popilnia","id":337539614,"population":6028},"coordinates":[3887,490]},{"type":"Point","properties":{"kind":"locality","name:en":"Ozerne","name":"\u041e\u0437\u0435\u0440\u043d\u0435","kind_detail":"town","name:de":"Oserne","source":"openstreetmap.org","min_zoom":8.0,"name:ru":"\u041e\u0437\u0451\u0440\u043d\u043e\u0435","name:pl":"Ozerne","id":337527379,"population":5968},"coordinates":[1777,1563]},{"type":"Point","properties":{"kind":"locality","name:en":"Nova Borova","name":"\u041d\u043e\u0432\u0430 \u0411\u043e\u0440\u043e\u0432\u0430","old_name:pl":"Bobryk Nowy","kind_detail":"town","source":"openstreetmap.org","min_zoom":8.0,"name:ru":"\u041d\u043e\u0432\u0430\u044f \u0411\u043e\u0440\u043e\u0432\u0430\u044f","name:pl":"Nowa Borowa","id":337517582,"population":5572},"coordinates":[1499,3899]},{"type":"Point","properties":{"min_zoom":8.0,"old_name:en":"Chervonoarmiisk","old_name":"\u0427\u0435\u0440\u0432\u043e\u043d\u043e\u0430\u0440\u043c\u0456\u0439\u0441\u044c\u043a","name:ru":"\u041f\u0443\u043b\u0438\u043d\u044b","name:pl":"Puliny","id":337521296,"population":5472,"old_name:uk":"\u0427\u0435\u0440\u0432\u043e\u043d\u043e\u0430\u0440\u043c\u0456\u0439\u0441\u044c\u043a","kind":"locality","name:en":"Pulyny","name":"\u041f\u0443\u043b\u0438\u043d\u0438","old_name:pl":"Czerwonoarmijsk","kind_detail":"town","old_name:ru":"\u0427\u0435\u0440\u0432\u043e\u043d\u043e\u0430\u0440\u043c\u0435\u0439\u0441\u043a","old_name:de":"Tscherwonoarmijsk","source":"openstreetmap.org"},"coordinates":[438,2871]},{"type":"Point","properties":{"kind":"locality","name:en":"Novohuivynske","name":"\u041d\u043e\u0432\u043e\u0433\u0443\u0439\u0432\u0438\u043d\u0441\u044c\u043a\u0435","kind_detail":"town","name:de":"Nowohujwynske","source":"openstreetmap.org","min_zoom":8.0,"name:ru":"\u041d\u043e\u0432\u043e\u0433\u0443\u0439\u0432\u0438\u043d\u0441\u043a\u043e\u0435","name:pl":"Nowohujwyn\u015bke","id":337526958,"population":5252},"coordinates":[1651,1682]},{"type":"Point","properties":{"kind":"locality","name:en":"Brusyliv","name":"\u0411\u0440\u0443\u0441\u0438\u043b\u0456\u0432","kind_detail":"town","name:de":"Brussyliw","source":"openstreetmap.org","min_zoom":8.0,"name:ru":"\u0411\u0440\u0443\u0441\u0438\u043b\u043e\u0432","name:pl":"Brusi\u0142\u00f3w","id":337525271,"population":5046},"coordinates":[4060,2029]},{"type":"Point","properties":{"kind":"locality","name:en":"Horodok","name":"\u0413\u043e\u0440\u043e\u0434\u043e\u043a","kind_detail":"town","source":"openstreetmap.org","min_zoom":8.0,"old_name":"\u041c\u0430\u043a\u0430\u0440\u0456\u0432-1","name:pl":"Gr\u00f3dek","id":2032662314,"population":2631},"coordinates":[3868,3442]}]},"transit":{"type":"GeometryCollection","geometries":[{"type":"LineString","properties":{"kind":"train","name":"141: \u041a\u0438\u0457\u0432-\u041b\u044c\u0432\u0456\u0432","service":"night","sort_rank":275,"source":"openstreetmap.org","min_zoom":6.0,"operator":"UZ","ref":"141: \u041a\u0438\u0457\u0432-\u041b\u044c\u0432\u0456\u0432","osm_relation":true},"arcs":[2]},{"type":"LineString","properties":{"kind":"train","name":"97: \u041a\u0438\u0457\u0432-\u041a\u043e\u0432\u0435\u043b\u044c","service":"night","sort_rank":275,"name:de":"97: Kiew-Kowel","source":"openstreetmap.org","min_zoom":6.0,"operator":"UZ","ref":"97: \u041a\u0438\u0457\u0432-\u041a\u043e\u0432\u0435\u043b\u044c","osm_relation":true},"arcs":[3]},{"type":"LineString","properties":{"kind":"train","name":"142: \u041b\u044c\u0432\u0456\u0432-\u041a\u0438\u0457\u0432","service":"night","sort_rank":275,"source":"openstreetmap.org","min_zoom":6.0,"operator":"UZ","ref":"142: \u041b\u044c\u0432\u0456\u0432-\u041a\u0438\u0457\u0432","osm_relation":true},"arcs":[4]},{"type":"LineString","properties":{"kind":"train","name":"98: \u041a\u043e\u0432\u0435\u043b\u044c-\u041a\u0438\u0457\u0432","service":"night","sort_rank":275,"name:de":"98: Kowel-Kiew","source":"openstreetmap.org","min_zoom":6.0,"operator":"UZ","ref":"98: \u041a\u043e\u0432\u0435\u043b\u044c-\u041a\u0438\u0457\u0432","osm_relation":true},"arcs":[5]},{"type":"LineString","properties":{"kind":"train","network":"train","sort_rank":275,"name:de":"Moskau - Kischinau","source":"openstreetmap.org","min_zoom":6.0,"name:uk":"\u041c\u043e\u0441\u043a\u0432\u0430 - \u041a\u0456\u0448\u0456\u043d\u0435\u0443","operator":"CFM","ref":"47\u0429: \u041c\u043e\u0441\u043a\u0432\u0430 - \u041a\u0438\u0448\u0438\u043d\u044d\u0443","osm_relation":true,"name":"\u041c\u043e\u0441\u043a\u0432\u0430 - \u041a\u0438\u0448\u0438\u043d\u044d\u0443"},"arcs":[6]}]},"pois":{"type":"GeometryCollection","geometries":[{"type":"Point","properties":{"source":"openstreetmap.org","kind":"military","name":"\u0416\u0438\u0442\u043e\u043c\u0438\u0440\u0441\u044c\u043a\u0438\u0439 \u0423\u0447\u0431\u043e\u0432\u0438\u0439 \u0426\u0435\u043d\u0442\u0440","area":204503000,"tier":3,"min_zoom":8.0,"id":509476059},"coordinates":[1042,1470]}]},"boundaries":{"type":"GeometryCollection","geometries":[{"type":"LineString","properties":{"name:right:hy":"\u053a\u056b\u057f\u0578\u0574\u056b\u0580\u056b \u0574\u0561\u0580\u0566","alt_name:left:en":"Vinnitsa Oblast","name:right:yi":"\u05d6\u05e9\u05d9\u05d8\u05d0\u05de\u05d9\u05e8\u05e2\u05e8 \u05d2\u05d5\u05d1\u05e2\u05e8\u05e0\u05d9\u05e2","name:left:he":"\u05de\u05d7\u05d5\u05d6 \u05d5\u05d9\u05e0\u05d9\u05e6\u05d4","name:right:hr":"\u017ditomirska oblast","name:left:sv":"Vinnytsja oblast","name:right:lt":"\u017dytomyro sritis","name:right:lv":"\u017ditomiras apgabals","name:left:lt":"Vinycios sritis","name:left:sh":"Vini\u010dka oblast","name:left:lv":"Vinnicas apgabals","name:left:hu":"Vinnicjai ter\u00fclet","name:left:hr":"Vini\u010dka oblast","name:right:vi":"Zhytomyr (t\u1ec9nh)","sort_rank":256,"name:left:ca":"Prov\u00edncia de V\u00ednnytsia","name:left:gl":"Oblast de Vinnitsia","source":"openstreetmap.org","name:right:ar":"\u0632\u064a\u062a\u0648\u0645\u064a\u0631 \u0623\u0648\u0628\u0644\u0627\u0633\u062a","name:left:cs":"Vinnyck\u00e1 oblast","name:left":"\u0412\u0456\u043d\u043d\u0438\u0446\u044c\u043a\u0430 \u043e\u0431\u043b\u0430\u0441\u0442\u044c","name:right:es":"\u00d3blast de Zhytomyr","name:right:sr":"\u0416\u0438\u0442\u043e\u043c\u0438\u0440\u0441\u043a\u0430 \u043e\u0431\u043b\u0430\u0441\u0442","name:left:ka":"\u10d5\u10d8\u10dc\u10d8\u10ea\u10d8\u10e1 \u10dd\u10da\u10e5\u10d8","name:right:eu":"Zhytomyrko oblasta","name:right:et":"\u017d\u00f5tom\u00f5ri oblast","name:left:ko":"\ube48\ub2c8\ucc28 \uc8fc","name:right:it":"Oblast' di \u017dytomyr","name:left:ro":"Regiunea Vinni\u021ba","name:right:ru":"\u0416\u0438\u0442\u043e\u043c\u0438\u0440\u0441\u043a\u0430\u044f \u043e\u0431\u043b\u0430\u0441\u0442\u044c","name:right:ro":"Regiunea J\u00eetom\u00eer","name:left:ru":"\u0412\u0438\u043d\u043d\u0438\u0446\u043a\u0430\u044f \u043e\u0431\u043b\u0430\u0441\u0442\u044c","name:right:mr":"\u091d\u093f\u0924\u094b\u092e\u093f\u0930 \u0913\u092c\u094d\u0932\u093e\u0938\u094d\u0924","name:right:id":"Oblast Zhytomyr","name:right:eo":"\u0134itomira provinco","name:right:en":"Zhytomyr Oblast","name:left:vi":"Vinnytsia (t\u1ec9nh)","kind":"region","name":"\u0412\u0456\u043d\u043d\u0438\u0446\u044c\u043a\u0430 \u043e\u0431\u043b\u0430\u0441\u0442\u044c - \u0416\u0438\u0442\u043e\u043c\u0438\u0440\u0441\u044c\u043a\u0430 \u043e\u0431\u043b\u0430\u0441\u0442\u044c","name:left:fa":"\u0627\u0633\u062a\u0627\u0646 \u0648\u06cc\u0646\u06cc\u062a\u0633\u06cc\u0627","name:right:fa":"\u0627\u0633\u062a\u0627\u0646 \u0698\u06cc\u062a\u0648\u0645\u06cc\u0631","min_zoom":8.0,"name:right:be":"\u0416\u044b\u0442\u043e\u043c\u0456\u0440\u0441\u043a\u0430\u044f \u0432\u043e\u0431\u043b\u0430\u0441\u0446\u044c","name:left:zh":"\u6587\u5c3c\u5bdf\u5dde","name:left:fr":"Oblast de Vinnytsia","name:right:bs":"\u017ditomirska oblast","name:right:zh":"\u65e5\u6258\u7c73\u723e\u5dde","name:left:et":"Vinn\u00f5tsja oblast","name:left:hy":"\u054e\u056b\u0576\u0576\u056b\u0581\u0561\u0575\u056b \u0574\u0561\u0580\u0566","name:right:nn":"Zjytomyr oblast","name:right:no":"Zjytomyr oblast","name:right:nl":"Oblast Zjytomyr","name:right:ja":"\u30b8\u30c8\u30fc\u30e0\u30a3\u30eb\u5dde","name:right:fr":"Oblast de Jytomyr","name:left:sk":"Vinnyck\u00e1 oblas\u0165","name:left:ja":"\u30f4\u30a3\u30fc\u30f3\u30cc\u30a3\u30c4\u30e3\u5dde","id:right":-71245,"name:left:nn":"Vinnytsia oblast","name:right:sh":"\u017ditomirska oblast","name:right:sk":"\u017dytomyrsk\u00e1 oblas\u0165","name:left:bg":"\u0412\u0438\u043d\u0438\u0446\u043a\u0430 \u043e\u0431\u043b\u0430\u0441\u0442","name:left:be":"\u0412\u0456\u043d\u043d\u0456\u0446\u043a\u0430\u044f \u0432\u043e\u0431\u043b\u0430\u0441\u0446\u044c","name:left:no":"Vinnytsia oblast","name:left:fi":"Vinnytsjan alue","id":-90726,"name:right:fi":"\u017dytomyrin alue","name:left:eo":"Vinica provinco","name:left:en":"Vinnytsia Oblast","name:right:ca":"Prov\u00edncia de Jyt\u00f3myr","kind_detail":"4","name:left:mk":"\u0412\u0438\u043d\u0438\u0447\u043a\u0430 \u043e\u0431\u043b\u0430\u0441\u0442","name:left:nl":"Oblast Vinnytsja","id:left":-90726,"name:left:es":"\u00d3blast de Vinnytsia","name:right:cs":"\u017dytomyrsk\u00e1 oblast","name:right":"\u0416\u0438\u0442\u043e\u043c\u0438\u0440\u0441\u044c\u043a\u0430 \u043e\u0431\u043b\u0430\u0441\u0442\u044c","name:right:cu":"\u0416\u0438\u0442\u043e\u043c\u0438\u0440\u044c\u0441\u043a\u0430 \u043e\u0431\u043b\u0430\u0441\u0442\u044c","name:left:os":"\u0412\u0438\u043d\u043d\u0438\u0446\u00e6\u0439\u044b \u043e\u0431\u043b\u00e6\u0441\u0442","name:left:eu":"Vinnytsiako oblasta","name:right:cv":"\u0416\u0438\u0442\u043e\u043c\u0438\u0440 \u043e\u0431\u043b\u0430\u00e7\u0115","name:right:mk":"\u0416\u0438\u0442\u043e\u043c\u0438\u0440\u0441\u043a\u0430 \u043e\u0431\u043b\u0430\u0441\u0442","name:right:zh-min-nan":"Zhytomyr s\u00e9ng","name:right:pt":"Oblast de Jitomir","name:left:ar":"\u0641\u064a\u0646\u064a\u062a\u0633\u0627 \u0623\u0648\u0628\u0644\u0627\u0633\u062a","name:left:pl":"Obw\u00f3d winnicki","name:left:tr":"Vinnitsa Oblast\u0131","name:left:id":"Oblast Vinnytsia","name:right:tr":"Jitomir Oblast\u0131","alt_name:left:de":"Oblast Winniza","name:left:pt":"Oblast de Vinnitsa","name:left:mr":"\u0935\u094d\u0939\u093f\u0928\u093f\u0924\u094d\u0938\u093f\u092f\u093e \u0913\u092c\u094d\u0932\u093e\u0938\u094d\u0924","name:right:sv":"Zjytomyr oblast","name:right:ko":"\uc9c0\ud1a0\ubbf8\ub974 \uc8fc","name:left:zh-min-nan":"Vinnycya s\u00e9ng","name:right:bg":"\u0416\u0438\u0442\u043e\u043c\u0438\u0440\u0441\u043a\u0430 \u043e\u0431\u043b\u0430\u0441\u0442","name:left:it":"Oblast' di Vinnycja","name:right:pl":"Obw\u00f3d \u017cytomierski","osm_relation":true,"name:right:ka":"\u10df\u10d8\u10e2\u10dd\u10db\u10d8\u10e0\u10d8\u10e1 \u10dd\u10da\u10e5\u10d8","name:right:de":"Oblast Schytomyr","name:left:de":"Oblast Winnyzja"},"arcs":[0]},{"type":"LineString","properties":{"name:right:hy":"\u053a\u056b\u057f\u0578\u0574\u056b\u0580\u056b \u0574\u0561\u0580\u0566","name:right:yi":"\u05d6\u05e9\u05d9\u05d8\u05d0\u05de\u05d9\u05e8\u05e2\u05e8 \u05d2\u05d5\u05d1\u05e2\u05e8\u05e0\u05d9\u05e2","name:right:no":"Zjytomyr oblast","name:right:hr":"\u017ditomirska oblast","name:left:sv":"Kiev oblast","name:left:sr":"\u041a\u0438\u0458\u0435\u0432\u0441\u043a\u0430 \u043e\u0431\u043b\u0430\u0441\u0442","name:right:lt":"\u017dytomyro sritis","name:right:lv":"\u017ditomiras apgabals","name:left:lt":"Kijevo sritis","name:left:sh":"Kijevska oblast","name:left:sk":"Kyjevsk\u00e1 oblas\u0165","name:left:hr":"Kijevska oblast","name:right:vi":"Zhytomyr (t\u1ec9nh)","sort_rank":256,"name:left:ca":"Prov\u00edncia de K\u00edev","source":"openstreetmap.org","name:right:ar":"\u0632\u064a\u062a\u0648\u0645\u064a\u0631 \u0623\u0648\u0628\u0644\u0627\u0633\u062a","name:left:cv":"\u041a\u0435\u0439\u04f3 \u043e\u0431\u043b\u0430\u00e7\u0115","name:left:cs":"Kyjevsk\u00e1 oblast","name:left":"\u041a\u0438\u0457\u0432\u0441\u044c\u043a\u0430 \u043e\u0431\u043b\u0430\u0441\u0442\u044c","name:right:es":"\u00d3blast de Zhytomyr","name:right:sr":"\u0416\u0438\u0442\u043e\u043c\u0438\u0440\u0441\u043a\u0430 \u043e\u0431\u043b\u0430\u0441\u0442","name:left:ka":"\u10d9\u10d8\u10d4\u10d5\u10d8\u10e1 \u10dd\u10da\u10e5\u10d8","name:right:eu":"Zhytomyrko oblasta","name:right:et":"\u017d\u00f5tom\u00f5ri oblast","name:left:ko":"\ud0a4\uc608\ud504 \uc8fc","name:right:it":"Oblast' di \u017dytomyr","name:left:ro":"Regiunea Kiev","name:right:ru":"\u0416\u0438\u0442\u043e\u043c\u0438\u0440\u0441\u043a\u0430\u044f \u043e\u0431\u043b\u0430\u0441\u0442\u044c","name:right:ro":"Regiunea J\u00eetom\u00eer","name:left:ru":"\u041a\u0438\u0435\u0432\u0441\u043a\u0430\u044f \u043e\u0431\u043b\u0430\u0441\u0442\u044c","name:right:mr":"\u091d\u093f\u0924\u094b\u092e\u093f\u0930 \u0913\u092c\u094d\u0932\u093e\u0938\u094d\u0924","name:right:id":"Oblast Zhytomyr","name:right:eo":"\u0134itomira provinco","name:right:en":"Zhytomyr Oblast","name:left:vi":"Kiev (t\u1ec9nh)","kind":"region","name":"\u041a\u0438\u0457\u0432\u0441\u044c\u043a\u0430 \u043e\u0431\u043b\u0430\u0441\u0442\u044c - \u0416\u0438\u0442\u043e\u043c\u0438\u0440\u0441\u044c\u043a\u0430 \u043e\u0431\u043b\u0430\u0441\u0442\u044c","name:left:fa":"\u0627\u0633\u062a\u0627\u0646 \u06a9\u06cc\u0641","name:right:fa":"\u0627\u0633\u062a\u0627\u0646 \u0698\u06cc\u062a\u0648\u0645\u06cc\u0631","min_zoom":8.0,"name:right:be":"\u0416\u044b\u0442\u043e\u043c\u0456\u0440\u0441\u043a\u0430\u044f \u0432\u043e\u0431\u043b\u0430\u0441\u0446\u044c","name:left:zh":"\u57fa\u8f85\u5dde","name:left:fr":"Oblast de Kiev","name:right:bs":"\u017ditomirska oblast","name:right:zh":"\u65e5\u6258\u7c73\u723e\u5dde","name:left:et":"Kiievi oblast","name:left:hy":"\u053f\u056b\u0587\u056b \u0574\u0561\u0580\u0566","name:right:nn":"Zjytomyr oblast","name:left:bs":"Kijevska oblast","name:right:nl":"Oblast Zjytomyr","name:right:ja":"\u30b8\u30c8\u30fc\u30e0\u30a3\u30eb\u5dde","name:right:fr":"Oblast de Jytomyr","name:left:lv":"Kijevas apgabals","name:left:ja":"\u30ad\u30a8\u30d5\u5dde","id:right":-71245,"name:left:nn":"Kiev oblast","name:right:sh":"\u017ditomirska oblast","name:right:sk":"\u017dytomyrsk\u00e1 oblas\u0165","name:left:bg":"\u041a\u0438\u0435\u0432\u0441\u043a\u0430 \u043e\u0431\u043b\u0430\u0441\u0442","name:left:be":"\u041a\u0456\u0435\u045e\u0441\u043a\u0430\u044f \u0432\u043e\u0431\u043b\u0430\u0441\u0446\u044c","name:left:no":"Kiev oblast","name:left:fi":"Kiovan alue","id":-71248,"name:right:fi":"\u017dytomyrin alue","name:left:eo":"Kieva provinco","name:left:en":"Kyiv Oblast","name:right:ca":"Prov\u00edncia de Jyt\u00f3myr","kind_detail":"4","name:left:mk":"\u041a\u0438\u0435\u0432\u0441\u043a\u0430 \u043e\u0431\u043b\u0430\u0441\u0442","name:left:nl":"Oblast Kiev","id:left":-71248,"name:left:es":"\u00d3blast de Kiev","name:right:cs":"\u017dytomyrsk\u00e1 oblast","name:right":"\u0416\u0438\u0442\u043e\u043c\u0438\u0440\u0441\u044c\u043a\u0430 \u043e\u0431\u043b\u0430\u0441\u0442\u044c","name:right:cu":"\u0416\u0438\u0442\u043e\u043c\u0438\u0440\u044c\u0441\u043a\u0430 \u043e\u0431\u043b\u0430\u0441\u0442\u044c","name:left:os":"\u041a\u0438\u0435\u0432\u044b \u043e\u0431\u043b\u00e6\u0441\u0442","name:left:eu":"Kieveko oblasta","name:right:cv":"\u0416\u0438\u0442\u043e\u043c\u0438\u0440 \u043e\u0431\u043b\u0430\u00e7\u0115","name:right:mk":"\u0416\u0438\u0442\u043e\u043c\u0438\u0440\u0441\u043a\u0430 \u043e\u0431\u043b\u0430\u0441\u0442","name:right:zh-min-nan":"Zhytomyr s\u00e9ng","name:right:pt":"Oblast de Jitomir","name:left:ar":"\u0643\u064a\u064a\u0641 \u0623\u0648\u0628\u0644\u0627\u0633\u062a","name:left:pl":"Obw\u00f3d kijowski","name:left:tr":"Kiev Oblast\u0131","name:left:id":"Oblast Kiev","name:right:tr":"Jitomir Oblast\u0131","name:right:bg":"\u0416\u0438\u0442\u043e\u043c\u0438\u0440\u0441\u043a\u0430 \u043e\u0431\u043b\u0430\u0441\u0442","name:left:ms":"Oblast Kiev","name:left:mr":"\u0915\u094d\u092f\u0940\u0935 \u0913\u092c\u094d\u0932\u093e\u0938\u094d\u0924","name:right:sv":"Zjytomyr oblast","name:right:ko":"\uc9c0\ud1a0\ubbf8\ub974 \uc8fc","name:left:zh-min-nan":"Kyyiv s\u00e9ng","name:left:it":"Oblast' di Kiev","name:right:pl":"Obw\u00f3d \u017cytomierski","osm_relation":true,"name:left:pt":"Oblast de Kiev","name:right:ka":"\u10df\u10d8\u10e2\u10dd\u10db\u10d8\u10e0\u10d8\u10e1 \u10dd\u10da\u10e5\u10d8","name:right:de":"Oblast Schytomyr","name:left:de":"Oblast Kiew"},"arcs":[1]}]},"roads":{"type":"GeometryCollection","geometries":[{"type":"MultiLineString","properties":{"old_name:uk":"\u0427\u0435\u0440\u043d\u044f\u0445\u043e\u0432\u0441\u044c\u043a\u043e\u0433\u043e \u0432\u0443\u043b\u0438\u0446\u044f","bus_network":null,"sort_rank":380,"kind_detail":"primary","old_name:ru":"\u0427\u0435\u0440\u043d\u044f\u0445\u043e\u0432\u0441\u043a\u043e\u0433\u043e \u0443\u043b\u0438\u0446\u0430","kind":"major_road","source":"openstreetmap.org","min_zoom":8.0,"old_name:en":"Cherniakhovskoho Street","old_name":"\u0427\u0435\u0440\u043d\u044f\u0445\u043e\u0432\u0441\u044c\u043a\u043e\u0433\u043e \u0432\u0443\u043b\u0438\u0446\u044f","name:ru":"\u0427\u0443\u0434\u043d\u043e\u0432\u0441\u043a\u0430\u044f \u0443\u043b\u0438\u0446\u0430","landuse_kind":"urban_area","bus_shield_text":"15"},"arcs":[[7],[8]]},{"type":"LineString","properties":{"kind":"major_road","name:en":"Soborna Square","network":"e-road","sort_rank":380,"kind_detail":"primary","source":"openstreetmap.org","min_zoom":8.0,"landuse_kind":"urban_area","shield_text":"583","name:ru":"\u0421\u043e\u0431\u043e\u0440\u043d\u0430\u044f \u043f\u043b\u043e\u0449\u0430\u0434\u044c","id":512508018},"arcs":[9]},{"type":"LineString","properties":{"bus_network":null,"name:en":"Peremohy Street","network":"e-road","sort_rank":380,"kind_detail":"primary","kind":"major_road","source":"openstreetmap.org","min_zoom":8.0,"bus_shield_text":"40","shield_text":"583","name:ru":"\u041f\u043e\u0431\u0435\u0434\u044b \u0443\u043b\u0438\u0446\u0430","landuse_kind":"urban_area"},"arcs":[10]},{"type":"LineString","properties":{"kind":"major_road","name:en":"Nezalezhnosti Avenue","sort_rank":380,"kind_detail":"primary","source":"openstreetmap.org","min_zoom":8.0,"landuse_kind":"residential","name:ru":"\u041d\u0435\u0437\u0430\u0432\u0438\u0441\u0438\u043c\u043e\u0441\u0442\u0438 \u043f\u0440\u043e\u0441\u043f\u0435\u043a\u0442","id":87905126},"arcs":[11]},{"type":"LineString","properties":{"bus_network":null,"name:en":"Velyka Berdychivska Street","network":"e-road","sort_rank":380,"kind_detail":"primary","kind":"major_road","source":"openstreetmap.org","min_zoom":8.0,"bus_shield_text":"1","shield_text":"583","name:ru":"\u0411\u043e\u043b\u044c\u0448\u0430\u044f \u0411\u0435\u0440\u0434\u0438\u0447\u0435\u0432\u0441\u043a\u0430\u044f \u0443\u043b\u0438\u0446\u0430","landuse_kind":"residential","ref":"\u041c-21"},"arcs":[12]},{"type":"MultiLineString","properties":{"kind":"major_road","name:en":"Soborna Square","network":"e-road","sort_rank":380,"kind_detail":"primary","source":"openstreetmap.org","min_zoom":8.0,"landuse_kind":"urban_area","shield_text":"583","name:ru":"\u0421\u043e\u0431\u043e\u0440\u043d\u0430\u044f \u043f\u043b\u043e\u0449\u0430\u0434\u044c","ref":"\u041c-21"},"arcs":[[13],[14],[15]]},{"type":"LineString","properties":{"old_name:uk":"\u0412\u0430\u0442\u0443\u0442\u0456\u043d\u0430 \u0432\u0443\u043b\u0438\u0446\u044f","kind":"major_road","sort_rank":380,"kind_detail":"primary","old_name:ru":"\u0412\u0430\u0442\u0443\u0442\u0438\u043d\u0430 \u0443\u043b\u0438\u0446\u0430","bus_network":null,"source":"openstreetmap.org","min_zoom":8.0,"old_name:en":"Vatutina Street","old_name":"\u0412\u0430\u0442\u0443\u0442\u0456\u043d\u0430 \u0432\u0443\u043b\u0438\u0446\u044f","name:ru":"\u041d\u0435\u0437\u0430\u0432\u0438\u0441\u0438\u043c\u043e\u0441\u0442\u0438 \u043f\u0440\u043e\u0441\u043f\u0435\u043a\u0442","landuse_kind":"residential","bus_shield_text":"1826\/1827; 1828\/1829 1830\/1831; 1832\/1833 1834\/1835; 1836\/1837 1838\/1839","id":14827170},"arcs":[16]},{"type":"LineString","properties":{"bus_network":null,"name:en":"Peremohy Street","network":"e-road","sort_rank":380,"kind_detail":"primary","kind":"major_road","source":"openstreetmap.org","min_zoom":8.0,"bus_shield_text":"2","shield_text":"583","name:ru":"\u041f\u043e\u0431\u0435\u0434\u044b \u0443\u043b\u0438\u0446\u0430","landuse_kind":"urban_area"},"arcs":[17]},{"type":"MultiLineString","properties":{"sort_rank":380,"kind_detail":"primary","min_zoom":8.0,"kind":"major_road","source":"openstreetmap.org"},"arcs":[[18],[19],[20],[21]]},{"type":"MultiLineString","properties":{"bus_network":null,"name:en":"Nezalezhnosti Avenue","sort_rank":380,"landuse_kind":"residential","bus_shield_text":"1826\/1827; 1828\/1829 1830\/1831; 1832\/1833 1834\/1835; 1836\/1837 1838\/1839","kind":"major_road","source":"openstreetmap.org","min_zoom":8.0,"old_name":"\u0412\u0430\u0442\u0443\u0442\u0456\u043d\u0430 \u0432\u0443\u043b\u0438\u0446\u044f","name:ru":"\u041d\u0435\u0437\u0430\u0432\u0438\u0441\u0438\u043c\u043e\u0441\u0442\u0438 \u043f\u0440\u043e\u0441\u043f\u0435\u043a\u0442","kind_detail":"primary"},"arcs":[[22],[23],[24]]},{"type":"MultiLineString","properties":{"bus_network":null,"network":"e-road","sort_rank":381,"kind_detail":"trunk","kind":"major_road","source":"openstreetmap.org","min_zoom":8.0,"bus_shield_text":"1408\/1409","shield_text":"40","ref":"\u041c-06"},"arcs":[[25],[26],[27]]},{"type":"LineString","properties":{"kind":"major_road","network":"ua:international","sort_rank":380,"kind_detail":"primary","bus_network":null,"source":"openstreetmap.org","min_zoom":8.0,"bus_shield_text":"1826\/1827; 1828\/1829 1830\/1831; 1832\/1833 1834\/1835; 1836\/1837 1838\/1839","shield_text":"21","landuse_kind":"urban_area","ref":"\u041c-21","id":482200507},"arcs":[28]},{"type":"LineString","properties":{"kind":"major_road","name:en":"Kyivska Street","sort_rank":380,"kind_detail":"primary","bus_network":null,"source":"openstreetmap.org","min_zoom":8.0,"bus_shield_text":"15","name:ru":"\u041a\u0438\u0435\u0432\u0441\u043a\u0430\u044f \u0443\u043b\u0438\u0446\u0430","landuse_kind":"urban_area","id":430287575},"arcs":[29]},{"type":"LineString","properties":{"kind":"major_road","name:en":"Nezalezhnosti Avenue","sort_rank":380,"kind_detail":"primary","source":"openstreetmap.org","min_zoom":8.0,"old_name":"\u0412\u0430\u0442\u0443\u0442\u0456\u043d\u0430 \u0432\u0443\u043b\u0438\u0446\u044f","name:ru":"\u041d\u0435\u0437\u0430\u0432\u0438\u0441\u0438\u043c\u043e\u0441\u0442\u0438 \u043f\u0440\u043e\u0441\u043f\u0435\u043a\u0442","landuse_kind":"residential","id":347640443},"arcs":[30]},{"type":"LineString","properties":{"old_name:uk":"\u0427\u0435\u0440\u043d\u044f\u0445\u043e\u0432\u0441\u044c\u043a\u043e\u0433\u043e \u0432\u0443\u043b\u0438\u0446\u044f","kind":"major_road","sort_rank":380,"kind_detail":"primary","old_name:ru":"\u0427\u0435\u0440\u043d\u044f\u0445\u043e\u0432\u0441\u043a\u043e\u0433\u043e \u0443\u043b\u0438\u0446\u0430","source":"openstreetmap.org","min_zoom":8.0,"old_name:en":"Cherniakhovskoho Street","old_name":"\u0427\u0435\u0440\u043d\u044f\u0445\u043e\u0432\u0441\u044c\u043a\u043e\u0433\u043e \u0432\u0443\u043b\u0438\u0446\u044f","name:ru":"\u041b\u0435\u0445\u0430 \u041a\u0430\u0447\u0438\u043d\u044c\u0441\u043a\u043e\u0433\u043e \u0443\u043b\u0438\u0446\u0430","landuse_kind":"residential","id":283139853},"arcs":[31]},{"type":"LineString","properties":{"kind":"major_road","network":"ua:regional","sort_rank":380,"kind_detail":"primary","source":"openstreetmap.org","min_zoom":8.0,"shield_text":"31","ref":"\u0420-31"},"arcs":[32]},{"type":"MultiLineString","properties":{"kind":"major_road","network":"e-road","sort_rank":381,"kind_detail":"trunk","source":"openstreetmap.org","min_zoom":8.0,"shield_text":"40","ref":"\u041c-06"},"arcs":[[33],[34],[35],[36],[37],[38],[39],[40],[41],[42],[43],[44],[45],[46],[47],[48],[49],[50],[51],[52],[53],[54],[55]]},{"type":"LineString","properties":{"kind":"major_road","name:en":"Skvyra Highway","network":"ua:regional","sort_rank":380,"kind_detail":"primary","source":"openstreetmap.org","min_zoom":8.0,"landuse_kind":"urban_area","shield_text":"18","ref":"\u0420-18","id":134560207},"arcs":[56]},{"type":"LineString","properties":{"kind":"major_road","name:en":"Starovilska Street","network":"e-road","sort_rank":380,"kind_detail":"primary","source":"openstreetmap.org","min_zoom":8.0,"landuse_kind":"urban_area","shield_text":"583","name:ru":"\u0421\u0442\u0430\u0440\u043e\u0432\u043e\u043b\u044c\u0441\u043a\u0430\u044f \u0443\u043b\u0438\u0446\u0430","id":234425574},"arcs":[57]},{"type":"MultiLineString","properties":{"bus_network":null,"network":"ua:international","sort_rank":380,"kind_detail":"primary","kind":"major_road","source":"openstreetmap.org","min_zoom":8.0,"bus_shield_text":"1826\/1827; 1828\/1829 1830\/1831; 1832\/1833 1834\/1835; 1836\/1837 1838\/1839","shield_text":"21","ref":"\u041c-21"},"arcs":[[58],[59],[60],[61]]},{"type":"LineString","properties":{"old_name:uk":"\u042f\u043a\u0456\u0440\u0430 \u0432\u0443\u043b\u0438\u0446\u044f","kind":"major_road","name:en":"Troianivska Street","network":"e-road","sort_rank":380,"kind_detail":"primary","old_name:ru":"\u042f\u043a\u0438\u0440\u0430 \u0443\u043b\u0438\u0446\u0430","source":"openstreetmap.org","min_zoom":8.0,"old_name:en":"Yakira Street","old_name":"\u042f\u043a\u0456\u0440\u0430 \u0432\u0443\u043b\u0438\u0446\u044f","shield_text":"583","name:ru":"\u0422\u0440\u043e\u044f\u043d\u043e\u0432\u0441\u043a\u0430\u044f \u0434\u043e\u0440\u043e\u0433\u0430","landuse_kind":"urban_area","id":36833654},"arcs":[62]},{"type":"LineString","properties":{"bus_network":null,"old_name":"\u0429\u043e\u0440\u0441\u0430 \u0432\u0443\u043b\u0438\u0446\u044f","min_zoom":8.0,"bus_shield_text":"1826\/1827; 1828\/1829 1830\/1831; 1832\/1833 1834\/1835; 1836\/1837 1838\/1839","name:ru":"\u041f\u043e\u043a\u0440\u043e\u0432\u0441\u043a\u0430\u044f \u0443\u043b\u0438\u0446\u0430","id":283594628,"kind":"major_road","name:en":"Pokrovska Street","network":"ua:international","sort_rank":380,"kind_detail":"primary","old_name:ru":"\u0429\u043e\u0440\u0441\u0430 \u0443\u043b\u0438\u0446\u0430","source":"openstreetmap.org","landuse_kind":"residential","shield_text":"21","ref":"\u041c-21"},"arcs":[63]},{"type":"MultiLineString","properties":{"old_name:uk":"\u0427\u0435\u0440\u043d\u044f\u0445\u043e\u0432\u0441\u044c\u043a\u043e\u0433\u043e \u0432\u0443\u043b\u0438\u0446\u044f","kind":"major_road","sort_rank":380,"landuse_kind":"urban_area","old_name:ru":"\u0427\u0435\u0440\u043d\u044f\u0445\u043e\u0432\u0441\u043a\u043e\u0433\u043e \u0443\u043b\u0438\u0446\u0430","source":"openstreetmap.org","min_zoom":8.0,"old_name:en":"Cherniakhovskoho Street","old_name":"\u0427\u0435\u0440\u043d\u044f\u0445\u043e\u0432\u0441\u044c\u043a\u043e\u0433\u043e \u0432\u0443\u043b\u0438\u0446\u044f","name:ru":"\u041b\u0435\u0445\u0430 \u041a\u0430\u0447\u0438\u043d\u044c\u0441\u043a\u043e\u0433\u043e \u0443\u043b\u0438\u0446\u0430","kind_detail":"primary"},"arcs":[[64],[65],[66]]},{"type":"LineString","properties":{"kind":"major_road","name:en":"40-richchya Peremohy Street","network":"ua:regional","sort_rank":380,"kind_detail":"primary","source":"openstreetmap.org","min_zoom":8.0,"shield_text":"18","name:ru":"40-\u043b\u0435\u0442\u0438\u044f \u041f\u043e\u0431\u0435\u0434\u044b \u0443\u043b\u0438\u0446\u0430","ref":"\u0420-18"},"arcs":[67]},{"type":"LineString","properties":{"source":"openstreetmap.org","kind":"major_road","landuse_kind":"urban_area","sort_rank":380,"kind_detail":"primary","min_zoom":8.0,"name:ru":"\u0421\u043e\u0431\u043e\u0440\u043d\u0430\u044f \u043f\u043b\u043e\u0449\u0430\u0434\u044c"},"arcs":[68]},{"type":"LineString","properties":{"old_name:uk":"\u0427\u0435\u0440\u043d\u044f\u0445\u043e\u0432\u0441\u044c\u043a\u043e\u0433\u043e \u0432\u0443\u043b\u0438\u0446\u044f","kind":"major_road","sort_rank":380,"kind_detail":"primary","old_name:ru":"\u0427\u0435\u0440\u043d\u044f\u0445\u043e\u0432\u0441\u043a\u043e\u0433\u043e \u0443\u043b\u0438\u0446\u0430","bus_network":null,"source":"openstreetmap.org","min_zoom":8.0,"old_name:en":"Cherniakhovskoho Street","old_name":"\u0427\u0435\u0440\u043d\u044f\u0445\u043e\u0432\u0441\u044c\u043a\u043e\u0433\u043e \u0432\u0443\u043b\u0438\u0446\u044f","name:ru":"\u0427\u0443\u0434\u043d\u043e\u0432\u0441\u043a\u0430\u044f \u0443\u043b\u0438\u0446\u0430","bus_shield_text":"15","id":283139851},"arcs":[69]},{"type":"LineString","properties":{"kind":"major_road","network":"ua:territorial:zht","sort_rank":380,"kind_detail":"primary","source":"openstreetmap.org","min_zoom":8.0,"landuse_kind":"urban_area","shield_text":"\u04220614","ref":"\u0422-06-14"},"arcs":[70]},{"type":"LineString","properties":{"old_name:uk":"\u0427\u0435\u0440\u043d\u044f\u0445\u043e\u0432\u0441\u044c\u043a\u043e\u0433\u043e \u0432\u0443\u043b\u0438\u0446\u044f","kind":"major_road","sort_rank":380,"kind_detail":"primary","old_name:ru":"\u0427\u0435\u0440\u043d\u044f\u0445\u043e\u0432\u0441\u043a\u043e\u0433\u043e \u0443\u043b\u0438\u0446\u0430","source":"openstreetmap.org","min_zoom":8.0,"old_name:en":"Cherniakhovskoho Street","old_name":"\u0427\u0435\u0440\u043d\u044f\u0445\u043e\u0432\u0441\u044c\u043a\u043e\u0433\u043e \u0432\u0443\u043b\u0438\u0446\u044f","name:ru":"\u0427\u0443\u0434\u043d\u043e\u0432\u0441\u043a\u0430\u044f \u0443\u043b\u0438\u0446\u0430","landuse_kind":"residential","id":33187411},"arcs":[71]},{"type":"LineString","properties":{"source":"openstreetmap.org","kind":"major_road","sort_rank":380,"kind_detail":"primary","is_bicycle_related":true,"min_zoom":8.0,"id":479748849},"arcs":[72]},{"type":"LineString","properties":{"kind":"major_road","int_name":"Zhytomirs'ka Str.","network":"ua:national","sort_rank":380,"kind_detail":"primary","source":"openstreetmap.org","min_zoom":8.0,"shield_text":"03","name:ru":"\u0416\u0438\u0442\u043e\u043c\u0438\u0440\u0441\u043a\u0430\u044f \u0443\u043b\u0438\u0446\u0430","ref":"\u041d-03","id":303146313},"arcs":[73]},{"type":"MultiLineString","properties":{"kind":"major_road","network":"e-road","sort_rank":380,"kind_detail":"primary","source":"openstreetmap.org","min_zoom":8.0,"landuse_kind":"urban_area","shield_text":"583","ref":"\u041c-21"},"arcs":[[74],[75]]},{"type":"MultiLineString","properties":{"bus_network":null,"name:en":"Nezalezhnosti Avenue","sort_rank":380,"landuse_kind":"urban_area","bus_shield_text":"1826\/1827; 1828\/1829 1830\/1831; 1832\/1833 1834\/1835; 1836\/1837 1838\/1839","kind":"major_road","source":"openstreetmap.org","min_zoom":8.0,"old_name":"\u0412\u0430\u0442\u0443\u0442\u0456\u043d\u0430 \u0432\u0443\u043b\u0438\u0446\u044f","name:ru":"\u041d\u0435\u0437\u0430\u0432\u0438\u0441\u0438\u043c\u043e\u0441\u0442\u0438 \u043f\u0440\u043e\u0441\u043f\u0435\u043a\u0442","kind_detail":"primary"},"arcs":[[76],[77]]},{"type":"LineString","properties":{"kind":"major_road","network":"e-road","sort_rank":381,"kind_detail":"trunk","source":"openstreetmap.org","min_zoom":8.0,"shield_text":"583","ref":"\u041c-06"},"arcs":[78]},{"type":"MultiLineString","properties":{"old_name:uk":"\u0427\u0435\u0440\u043d\u044f\u0445\u043e\u0432\u0441\u044c\u043a\u043e\u0433\u043e \u0432\u0443\u043b\u0438\u0446\u044f","bus_network":null,"sort_rank":380,"kind_detail":"primary","old_name:ru":"\u0427\u0435\u0440\u043d\u044f\u0445\u043e\u0432\u0441\u043a\u043e\u0433\u043e \u0443\u043b\u0438\u0446\u0430","kind":"major_road","source":"openstreetmap.org","min_zoom":8.0,"old_name:en":"Cherniakhovskoho Street","old_name":"\u0427\u0435\u0440\u043d\u044f\u0445\u043e\u0432\u0441\u044c\u043a\u043e\u0433\u043e \u0432\u0443\u043b\u0438\u0446\u044f","name:ru":"\u041b\u0435\u0445\u0430 \u041a\u0430\u0447\u0438\u043d\u044c\u0441\u043a\u043e\u0433\u043e \u0443\u043b\u0438\u0446\u0430","landuse_kind":"urban_area","bus_shield_text":"15"},"arcs":[[79],[80],[81],[82]]},{"type":"LineString","properties":{"kind":"major_road","name:en":"Korostenska Street","network":"ua:international","sort_rank":380,"kind_detail":"primary","bus_network":null,"source":"openstreetmap.org","min_zoom":8.0,"bus_shield_text":"1826\/1827; 1828\/1829 1830\/1831; 1832\/1833 1834\/1835; 1836\/1837 1838\/1839","shield_text":"21","name:ru":"\u041a\u043e\u0440\u043e\u0441\u0442\u0435\u043d\u0441\u043a\u0430\u044f \u0443\u043b\u0438\u0446\u0430","ref":"\u041c-21","id":169670279},"arcs":[83]},{"type":"LineString","properties":{"kind":"major_road","name:en":"Skvyra Highway","network":"ua:regional","sort_rank":380,"kind_detail":"primary","source":"openstreetmap.org","min_zoom":8.0,"shield_text":"18","ref":"\u0420-18","id":134560207},"arcs":[84]},{"type":"LineString","properties":{"bus_network":null,"old_name":"\u0429\u043e\u0440\u0441\u0430 \u0432\u0443\u043b\u0438\u0446\u044f","min_zoom":8.0,"bus_shield_text":"1826\/1827; 1828\/1829 1830\/1831; 1832\/1833 1834\/1835; 1836\/1837 1838\/1839","name:ru":"\u041f\u043e\u043a\u0440\u043e\u0432\u0441\u043a\u0430\u044f \u0443\u043b\u0438\u0446\u0430","id":283594628,"kind":"major_road","name:en":"Pokrovska Street","network":"ua:international","sort_rank":380,"kind_detail":"primary","old_name:ru":"\u0429\u043e\u0440\u0441\u0430 \u0443\u043b\u0438\u0446\u0430","source":"openstreetmap.org","landuse_kind":"urban_area","shield_text":"21","ref":"\u041c-21"},"arcs":[85]},{"type":"LineString","properties":{"kind":"major_road","sort_rank":380,"kind_detail":"primary","bus_network":null,"source":"openstreetmap.org","min_zoom":8.0,"bus_shield_text":"15","name:ru":"\u041a\u0438\u0435\u0432\u0441\u043a\u0430\u044f \u0443\u043b\u0438\u0446\u0430","landuse_kind":"urban_area","id":283139855},"arcs":[86]},{"type":"LineString","properties":{"bus_network":null,"name:en":"Myru Avenue","network":"e-road","sort_rank":380,"kind_detail":"primary","kind":"major_road","source":"openstreetmap.org","min_zoom":8.0,"bus_shield_text":"2","shield_text":"583","name:ru":"\u041c\u0438\u0440\u0430 \u043f\u0440\u043e\u0441\u043f\u0435\u043a\u0442","landuse_kind":"urban_area"},"arcs":[87]},{"type":"MultiLineString","properties":{"sort_rank":381,"source":"openstreetmap.org","min_zoom":8.0,"kind":"major_road","kind_detail":"trunk"},"arcs":[[88],[89]]},{"type":"MultiLineString","properties":{"kind":"major_road","network":"e-road","sort_rank":381,"kind_detail":"trunk","source":"openstreetmap.org","min_zoom":8.0,"shield_text":"583","ref":"\u041c-21"},"arcs":[[90],[91],[92],[93],[94],[95],[96]]},{"type":"LineString","properties":{"bus_network":null,"old_name":"\u0429\u043e\u0440\u0441\u0430 \u0432\u0443\u043b\u0438\u0446\u044f","min_zoom":8.0,"old_name:en":"Shchorsa Street","bus_shield_text":"1826\/1827; 1828\/1829 1830\/1831; 1832\/1833 1834\/1835; 1836\/1837 1838\/1839","name:ru":"\u041f\u043e\u043a\u0440\u043e\u0432\u0441\u043a\u0430\u044f \u0443\u043b\u0438\u0446\u0430","id":186300514,"old_name:uk":"\u0429\u043e\u0440\u0441\u0430 \u0432\u0443\u043b\u0438\u0446\u044f","kind":"major_road","network":"ua:international","sort_rank":380,"kind_detail":"primary","old_name:ru":"\u0429\u043e\u0440\u0441\u0430 \u0443\u043b\u0438\u0446\u0430","source":"openstreetmap.org","landuse_kind":"urban_area","shield_text":"21","ref":"\u041c-21"},"arcs":[97]},{"type":"LineString","properties":{"kind":"major_road","network":"ua:national","sort_rank":380,"kind_detail":"primary","source":"openstreetmap.org","min_zoom":8.0,"shield_text":"03","name:ru":"\u0427\u0443\u0434\u043d\u043e\u0432\u0441\u043a\u0430\u044f \u0443\u043b\u0438\u0446\u0430","ref":"\u041d-03","id":165484336},"arcs":[98]},{"type":"LineString","properties":{"kind":"major_road","network":"ua:regional","sort_rank":380,"kind_detail":"primary","source":"openstreetmap.org","min_zoom":8.0,"shield_text":"18","ref":"\u0420-18;\u041e-060101","id":359208050},"arcs":[99]},{"type":"LineString","properties":{"bus_network":null,"sort_rank":380,"kind_detail":"primary","kind":"major_road","source":"openstreetmap.org","min_zoom":8.0,"bus_shield_text":"40","name:ru":"\u041a\u0438\u0435\u0432\u0441\u043a\u0430\u044f \u0443\u043b\u0438\u0446\u0430","landuse_kind":"urban_area"},"arcs":[100]},{"type":"LineString","properties":{"kind":"major_road","network":"e-road","sort_rank":381,"kind_detail":"trunk","source":"openstreetmap.org","min_zoom":8.0,"shield_text":"583","id":181508924},"arcs":[101]},{"type":"LineString","properties":{"kind":"major_road","network":"ua:national","sort_rank":380,"kind_detail":"primary","source":"openstreetmap.org","min_zoom":8.0,"shield_text":"02","ref":"\u041d-02"},"arcs":[102]},{"type":"LineString","properties":{"kind":"major_road","name:en":"Kyivske Road","sort_rank":380,"kind_detail":"primary","source":"openstreetmap.org","min_zoom":8.0,"landuse_kind":"urban_area","name:ru":"\u041a\u0438\u0435\u0432\u0441\u043a\u043e\u0435 \u0448\u043e\u0441\u0441\u0435","id":181617722},"arcs":[103]},{"type":"LineString","properties":{"kind":"major_road","name:en":"Velyka Berdychivska Street","network":"e-road","sort_rank":380,"kind_detail":"primary","source":"openstreetmap.org","min_zoom":8.0,"landuse_kind":"urban_area","shield_text":"583","name:ru":"\u0411\u043e\u043b\u044c\u0448\u0430\u044f \u0411\u0435\u0440\u0434\u0438\u0447\u0435\u0432\u0441\u043a\u0430\u044f \u0443\u043b\u0438\u0446\u0430","ref":"\u041c-21","id":282920993},"arcs":[104]},{"type":"LineString","properties":{"bus_network":null,"name:en":"Velyka Berdychivska Street","network":"e-road","sort_rank":380,"kind_detail":"primary","kind":"major_road","source":"openstreetmap.org","min_zoom":8.0,"bus_shield_text":"1","shield_text":"583","name:ru":"\u0411\u043e\u043b\u044c\u0448\u0430\u044f \u0411\u0435\u0440\u0434\u0438\u0447\u0435\u0432\u0441\u043a\u0430\u044f \u0443\u043b\u0438\u0446\u0430","landuse_kind":"urban_area","ref":"\u041c-21"},"arcs":[105]},{"type":"LineString","properties":{"kind":"major_road","name:en":"Kyivske Road","sort_rank":380,"kind_detail":"primary","source":"openstreetmap.org","min_zoom":8.0,"name:ru":"\u041a\u0438\u0435\u0432\u0441\u043a\u043e\u0435 \u0448\u043e\u0441\u0441\u0435","id":181617722},"arcs":[106]},{"type":"MultiLineString","properties":{"kind":"major_road","network":"ua:regional","sort_rank":380,"kind_detail":"primary","source":"openstreetmap.org","min_zoom":8.0,"landuse_kind":"urban_area","shield_text":"18","ref":"\u0420-18"},"arcs":[[107],[108]]},{"type":"LineString","properties":{"source":"openstreetmap.org","kind":"major_road","landuse_kind":"residential","sort_rank":380,"kind_detail":"primary","min_zoom":8.0},"arcs":[109]},{"type":"LineString","properties":{"kind":"major_road","network":"e-road","sort_rank":380,"kind_detail":"primary","source":"openstreetmap.org","min_zoom":8.0,"landuse_kind":"residential","shield_text":"583","name:ru":"\u0416\u0443\u0439\u043a\u043e \u0443\u043b\u0438\u0446\u0430","ref":"\u041c-21"},"arcs":[110]},{"type":"MultiLineString","properties":{"kind":"major_road","network":"ua:national","sort_rank":380,"kind_detail":"primary","source":"openstreetmap.org","min_zoom":8.0,"shield_text":"03","ref":"\u041d-03"},"arcs":[[111],[112],[113],[114]]},{"type":"MultiLineString","properties":{"kind":"major_road","name:en":"Kyivska Street","network":"e-road","sort_rank":381,"kind_detail":"trunk","source":"openstreetmap.org","min_zoom":8.0,"shield_text":"40","ref":"\u041c-06"},"arcs":[[115],[116],[117]]},{"type":"MultiLineString","properties":{"old_name:uk":"\u0427\u0435\u0440\u043d\u044f\u0445\u043e\u0432\u0441\u044c\u043a\u043e\u0433\u043e \u0432\u0443\u043b\u0438\u0446\u044f","bus_network":null,"sort_rank":380,"kind_detail":"primary","old_name:ru":"\u0427\u0435\u0440\u043d\u044f\u0445\u043e\u0432\u0441\u043a\u043e\u0433\u043e \u0443\u043b\u0438\u0446\u0430","kind":"major_road","source":"openstreetmap.org","min_zoom":8.0,"old_name:en":"Cherniakhovskoho Street","old_name":"\u0427\u0435\u0440\u043d\u044f\u0445\u043e\u0432\u0441\u044c\u043a\u043e\u0433\u043e \u0432\u0443\u043b\u0438\u0446\u044f","name:ru":"\u0427\u0443\u0434\u043d\u043e\u0432\u0441\u043a\u0430\u044f \u0443\u043b\u0438\u0446\u0430","landuse_kind":"residential","bus_shield_text":"15"},"arcs":[[118],[119]]},{"type":"MultiLineString","properties":{"bus_network":null,"name:en":"Chudnivkyi Bridge","sort_rank":380,"kind_detail":"primary","kind":"major_road","source":"openstreetmap.org","min_zoom":8.0,"bus_shield_text":"15","name:ru":"\u0427\u0443\u0434\u043d\u043e\u0432\u0441\u043a\u0438\u0439 \u043c\u043e\u0441\u0442","landuse_kind":"urban_area"},"arcs":[[120],[121]]},{"type":"LineString","properties":{"bus_network":null,"name:en":"Peremohy Street","network":"e-road","sort_rank":380,"kind_detail":"primary","kind":"major_road","source":"openstreetmap.org","min_zoom":8.0,"bus_shield_text":"2","shield_text":"583","name:ru":"\u041f\u043e\u0431\u0435\u0434\u044b \u0443\u043b\u0438\u0446\u0430","landuse_kind":"residential"},"arcs":[122]},{"type":"LineString","properties":{"kind":"major_road","network":"e-road","sort_rank":381,"landuse_kind":"urban_area","source":"openstreetmap.org","min_zoom":8.0,"kind_detail":"trunk","shield_text":"40","ref":"\u041c-06"},"arcs":[123]},{"type":"MultiLineString","properties":{"kind":"major_road","network":"e-road","sort_rank":380,"kind_detail":"primary","source":"openstreetmap.org","min_zoom":8.0,"landuse_kind":"urban_area","shield_text":"583","name:ru":"\u0416\u0443\u0439\u043a\u043e \u0443\u043b\u0438\u0446\u0430","ref":"\u041c-21"},"arcs":[[124],[125],[126]]},{"type":"LineString","properties":{"kind":"major_road","name:en":"Korolenka Square","network":"e-road","sort_rank":380,"kind_detail":"primary","source":"openstreetmap.org","min_zoom":8.0,"landuse_kind":"urban_area","shield_text":"583","name:ru":"\u041a\u043e\u0440\u043e\u043b\u0435\u043d\u043a\u043e \u043f\u043b\u043e\u0449\u0430\u0434\u044c","id":87903223},"arcs":[127]},{"type":"MultiLineString","properties":{"kind":"major_road","network":"ua:regional","sort_rank":380,"kind_detail":"primary","source":"openstreetmap.org","min_zoom":8.0,"shield_text":"18","ref":"\u0420-18"},"arcs":[[128],[129],[130],[131]]},{"type":"LineString","properties":{"kind":"major_road","name:en":"Myru Avenue","network":"e-road","sort_rank":380,"kind_detail":"primary","bus_network":null,"source":"openstreetmap.org","min_zoom":8.0,"bus_shield_text":"2","shield_text":"583","name:ru":"\u041c\u0438\u0440\u0430 \u043f\u0440\u043e\u0441\u043f\u0435\u043a\u0442","id":460732120},"arcs":[132]},{"type":"LineString","properties":{"kind":"major_road","network":"ua:international","sort_rank":380,"kind_detail":"primary","source":"openstreetmap.org","min_zoom":8.0,"shield_text":"21","ref":"\u041c-21"},"arcs":[133]},{"type":"LineString","properties":{"kind":"major_road","network":"ua:regional","sort_rank":380,"kind_detail":"primary","source":"openstreetmap.org","min_zoom":8.0,"landuse_kind":"urban_area","shield_text":"18","ref":"P-18"},"arcs":[134]},{"type":"MultiLineString","properties":{"kind":"major_road","network":"ua:territorial:zht","sort_rank":380,"kind_detail":"primary","source":"openstreetmap.org","min_zoom":8.0,"shield_text":"\u04220614","ref":"\u0422-06-14"},"arcs":[[135],[136],[137],[138],[139],[140],[141],[142],[143],[144],[145],[146],[147],[148]]},{"type":"LineString","properties":{"kind":"major_road","name:en":"Peremohy Street","network":"e-road","sort_rank":380,"kind_detail":"primary","source":"openstreetmap.org","min_zoom":8.0,"landuse_kind":"urban_area","shield_text":"583","name:ru":"\u041f\u043e\u0431\u0435\u0434\u044b \u0443\u043b\u0438\u0446\u0430","id":512508014},"arcs":[149]},{"type":"MultiLineString","properties":{"old_name:uk":"\u0427\u0435\u0440\u043d\u044f\u0445\u043e\u0432\u0441\u044c\u043a\u043e\u0433\u043e \u0432\u0443\u043b\u0438\u0446\u044f","kind":"major_road","sort_rank":380,"kind_detail":"primary","old_name:ru":"\u0427\u0435\u0440\u043d\u044f\u0445\u043e\u0432\u0441\u043a\u043e\u0433\u043e \u0443\u043b\u0438\u0446\u0430","source":"openstreetmap.org","min_zoom":8.0,"old_name:en":"Cherniakhovskoho Street","old_name":"\u0427\u0435\u0440\u043d\u044f\u0445\u043e\u0432\u0441\u044c\u043a\u043e\u0433\u043e \u0432\u0443\u043b\u0438\u0446\u044f","name:ru":"\u0427\u0443\u0434\u043d\u043e\u0432\u0441\u043a\u0430\u044f \u0443\u043b\u0438\u0446\u0430"},"arcs":[[150],[151],[152]]},{"type":"MultiLineString","properties":{"kind":"major_road","network":"ua:international","sort_rank":381,"kind_detail":"trunk","source":"openstreetmap.org","min_zoom":8.0,"shield_text":"06","ref":"\u041c-06"},"arcs":[[153],[154],[155]]},{"type":"LineString","properties":{"kind":"major_road","name:en":"Kyivske Road","sort_rank":380,"kind_detail":"primary","bus_network":null,"source":"openstreetmap.org","min_zoom":8.0,"bus_shield_text":"40","name:ru":"\u041a\u0438\u0435\u0432\u0441\u043a\u043e\u0435 \u0448\u043e\u0441\u0441\u0435","landuse_kind":"urban_area","id":283360799},"arcs":[156]},{"type":"MultiLineString","properties":{"bus_network":null,"name:en":"Kyivska Street","network":"e-road","sort_rank":381,"kind_detail":"trunk","kind":"major_road","source":"openstreetmap.org","min_zoom":8.0,"bus_shield_text":"1408\/1409","shield_text":"40","ref":"\u041c-06"},"arcs":[[157],[158],[159]]},{"type":"MultiLineString","properties":{"kind":"major_road","network":"e-road","sort_rank":381,"landuse_kind":"urban_area","source":"openstreetmap.org","min_zoom":8.0,"kind_detail":"trunk","shield_text":"583","ref":"\u041c-21"},"arcs":[[160],[161],[162],[163],[164]]}]},"earth":{"type":"GeometryCollection","geometries":[{"type":"Polygon","properties":{"sort_rank":10,"source":"naturalearthdata.com","kind":"earth","min_zoom":0.0,"id":4755},"arcs":[[165]]}]},"landuse":{"type":"GeometryCollection","geometries":[{"type":"MultiPolygon","properties":{"source":"openstreetmap.org","kind":"residential","tier":2,"area":366527740,"sort_rank":20,"min_zoom":8.0,"osm_relation":true},"arcs":[[[166]]]},{"type":"Polygon","properties":{"source":"openstreetmap.org","kind":"nature_reserve","area":12309000,"tier":2,"id":464133172,"min_zoom":8.0,"sort_rank":23},"arcs":[[167]]},{"type":"Polygon","properties":{"kind":"residential","name:en":"Hryshkivtsi","name":"\u0413\u0440\u0438\u0448\u043a\u0456\u0432\u0446\u0456","area":10012800,"sort_rank":20,"name:de":"Hryschkiwzi","source":"openstreetmap.org","min_zoom":8.0,"tier":2,"name:ru":"\u0413\u0440\u0438\u0448\u043a\u043e\u0432\u0446\u044b","name:pl":"Hryszkowce","id":-2690016,"osm_relation":true},"arcs":[[168]]},{"type":"Polygon","properties":{"min_zoom":8.0,"old_name:en":"Chervonoarmiisk","old_name":"\u0427\u0435\u0440\u0432\u043e\u043d\u043e\u0430\u0440\u043c\u0456\u0439\u0441\u044c\u043a","tier":2,"name:ru":"\u041f\u0443\u043b\u0438\u043d\u044b","name:pl":"Puliny","id":-3886174,"osm_relation":true,"old_name:uk":"\u0427\u0435\u0440\u0432\u043e\u043d\u043e\u0430\u0440\u043c\u0456\u0439\u0441\u044c\u043a","kind":"residential","name:en":"Pulyny","name":"\u041f\u0443\u043b\u0438\u043d\u0438","area":22793500,"sort_rank":20,"old_name:ru":"\u0427\u0435\u0440\u0432\u043e\u043d\u043e\u0430\u0440\u043c\u0435\u0439\u0441\u043a","old_name:de":"Tscherwonoarmijsk","old_name:pl":"Czerwonoarmijsk","source":"openstreetmap.org"},"arcs":[[169]]},{"type":"Polygon","properties":{"kind":"residential","name":"\u0421\u043b\u043e\u0431\u043e\u0434\u0438\u0449\u0435","area":14977600,"sort_rank":20,"source":"openstreetmap.org","min_zoom":8.0,"tier":2,"id":-5488910,"osm_relation":true},"arcs":[[170]]},{"type":"MultiPolygon","properties":{"source":"openstreetmap.org","kind":"military","tier":3,"area":231932540,"sort_rank":45,"min_zoom":8.0},"arcs":[[[171]]]},{"type":"MultiPolygon","properties":{"source":"naturalearthdata.com","kind":"urban_area","name":"","area":2255272579,"sort_rank":11,"min_zoom":4.0},"arcs":[[[172]],[[173]]]},{"type":"MultiPolygon","properties":{"source":"openstreetmap.org","kind":"aerodrome","tier":3,"area":40323154,"sort_rank":60,"min_zoom":8.0},"arcs":[[[174]]]},{"type":"MultiPolygon","properties":{"source":"openstreetmap.org","kind":"residential","tier":2,"area":305485275,"sort_rank":20,"min_zoom":8.0},"arcs":[[[175]],[[176]],[[177]],[[178]]]}]}},"type":"Topology","transform":{"translate":[28.125,49.8379824531],"scale":[0.0003433228,0.0002193537]},"arcs":[[[2410,0],[3,10],[-48,59],[-100,39],[22,22],[-42,31],[10,40],[-53,29],[-70,2],[-38,-131],[-176,-39],[3,-41],[-98,8],[0,-29]],[[4096,3833],[-10,-3],[2,-67],[-60,-27],[-61,20],[-25,-22],[19,-47],[-61,-62],[27,-23],[-84,-32],[153,-134],[25,-86],[-7,-93],[-49,-69],[-78,9],[19,-53],[-22,-50],[137,-69],[9,-61],[-18,-19],[25,-57],[-84,-54],[-74,53],[-29,-86],[147,-12],[5,-43],[-52,-94],[-113,-12],[39,-73],[77,13],[-4,40],[147,28]],[[3627,4096],[58,-38],[411,-84]],[[3627,4096],[58,-38],[411,-84]],[[3627,4096],[58,-38],[411,-84]],[[3627,4096],[58,-38],[411,-84]],[[4096,530],[-289,-62],[-393,77],[-699,-411],[-121,-134]],[[1542,1863],[-2,-1]],[[1540,1862],[2,1]],[[1556,1898],[1,0]],[[1550,1907],[3,-5]],[[1523,1997],[-7,3]],[[1639,1847],[-52,39]],[[1557,1898],[-1,1]],[[1554,1902],[0,-3],[1,-2],[1,2]],[[1556,1899],[-2,3]],[[1656,1963],[-1,1]],[[1550,1907],[-29,79]],[[475,1667],[-5,-3]],[[480,1669],[-3,-2]],[[1837,2039],[-35,-1]],[[1970,2024],[16,19]],[[1573,1985],[-20,4]],[[1625,1995],[-26,-10]],[[1655,1964],[-13,14]],[[3632,2413],[-33,-10]],[[3599,2403],[21,6]],[[3623,2410],[12,3]],[[1607,2158],[-9,-12]],[[1657,1963],[-1,0]],[[1553,1989],[-30,8]],[[1554,1895],[1,2]],[[1250,247],[-125,-65],[-81,-112],[-175,-70]],[[0,2818],[169,-80],[482,-465],[63,-43],[375,-109],[52,17]],[[1141,2138],[-56,-15],[-361,105],[-556,511],[-168,80]],[[1141,2138],[165,75],[115,14]],[[1597,2211],[-11,2]],[[1597,2211],[56,-17]],[[1653,2194],[234,-16],[58,-92]],[[1945,2086],[58,-42],[286,9],[27,6],[17,7],[4,3],[49,67],[38,78],[37,32],[181,52],[31,8],[2,0],[4,1]],[[2679,2307],[34,8],[19,-3],[40,-17]],[[2772,2295],[1,-1],[5,-2],[2,-1]],[[2780,2291],[12,-8],[8,-13]],[[2800,2270],[34,-51],[27,-9]],[[2861,2210],[4,-1]],[[2865,2209],[2,-1],[607,162]],[[3474,2371],[-575,-154],[-34,-8]],[[2865,2209],[-2,-1],[-2,2]],[[2861,2210],[-61,60]],[[2800,2270],[-20,21]],[[2780,2291],[-2,1],[-4,3],[-2,0]],[[2772,2295],[-93,12]],[[2679,2307],[-2,1],[-42,-11],[-175,-50],[-37,-32],[-87,-145],[-49,-17],[-282,-8],[-60,41]],[[3620,2409],[3,1]],[[4096,2552],[-464,-139]],[[3635,2413],[461,138]],[[1708,1744],[-107,61]],[[1530,1933],[12,-19]],[[1589,2997],[-14,-107]],[[1579,2805],[35,-87],[24,-496]],[[1624,2183],[-17,-25]],[[1624,2183],[14,39]],[[1542,1914],[4,1]],[[1553,1990],[0,-1]],[[1550,1886],[4,9]],[[1554,1896],[-3,-6]],[[1555,1897]],[[3854,529],[113,-70]],[[1554,1898],[0,-2]],[[1429,1833],[23,7]],[[1810,1723],[37,38]],[[1437,1842],[-6,-6]],[[477,1667],[-2,0]],[[0,987],[3,41]],[[1598,1807],[-1,-7]],[[1597,1800],[1,6]],[[1599,1985],[-26,0]],[[1642,1978],[-17,17]],[[1115,2114],[249,-70],[-248,70]],[[1551,1890],[-5,-17]],[[1546,1873],[-3,-8]],[[1544,1865],[2,8]],[[1546,1873],[4,13]],[[1575,2890],[19,-45],[-15,-40]],[[1764,1711],[-56,33]],[[1552,2090],[1,-100]],[[1657,1963]],[[1516,2000],[-145,42]],[[1546,1585],[1,0]],[[1547,1606],[1,0]],[[1428,522],[7,52]],[[1547,212],[-16,199],[-103,111]],[[1450,653],[-15,-79]],[[1450,653],[43,211],[28,183],[-7,289],[72,416]],[[1586,1752],[-26,-89],[-11,-40],[0,-5],[-35,-282],[-14,-427],[-50,-256]],[[1446,0],[-15,38],[105,150]],[[1536,188],[11,24]],[[1598,2146],[-46,-56]],[[419,1616],[0,-31]],[[2513,1274],[214,-140],[48,-5]],[[1671,1973],[-14,-10]],[[1425,522],[2,12]],[[0,35],[161,-29],[11,-6]],[[1793,2034],[-106,-51]],[[1563,1896],[-6,2]],[[1587,1886],[-24,10]],[[1802,2038],[-9,-4]],[[1601,1805],[-2,2],[-1,0]],[[1600,1806],[2,-3]],[[1448,1853],[0,-1]],[[1615,1830],[24,17]],[[419,1585],[-27,-66],[-308,-340],[-81,-151]],[[470,1664],[-51,-48]],[[1288,1813],[-147,-88],[-198,-53],[-255,27],[-208,-30]],[[1288,1813],[79,17],[42,2],[-42,-2],[-79,-17]],[[3474,2370],[47,12]],[[3528,2385],[-54,-14]],[[3544,2388],[3,1]],[[1540,1862],[-103,-20]],[[1452,1840],[88,22]],[[1543,1865],[-1,-2]],[[1542,1863],[2,2]],[[1521,1986],[-5,14]],[[1421,2227],[165,-14]],[[1600,1811],[-2,-4]],[[1598,1806],[2,5]],[[1600,1811],[15,19]],[[1529,1936],[1,-3]],[[1806,1688],[-31,17],[-11,6],[11,-6],[31,-17]],[[1806,1688],[548,-284],[159,-130]],[[2775,1129],[182,-90],[71,9],[124,-29],[344,-144],[45,-156],[68,-79],[144,-40],[101,-71]],[[3967,459],[47,-44],[10,-69],[72,-110]],[[1371,2042],[-7,2]],[[1419,4096],[47,-134],[-54,-199],[49,-330],[66,-122],[15,-172],[47,-142]],[[1598,1807],[2,-1]],[[1766,1710],[21,-1]],[[1784,1708],[-16,1]],[[1784,1708],[-13,-2]],[[1787,1709],[-3,-1]],[[1787,1709],[23,14]],[[1847,1761],[64,50],[9,42]],[[1921,1855],[-2,0]],[[1919,1855],[1,-2]],[[1921,1861],[-2,-4]],[[1920,1853],[1,2]],[[1921,1861],[49,163]],[[1921,1857],[0,4]],[[1970,2024],[1,16]],[[1970,2040],[0,-16]],[[1554,1902],[-1,0]],[[1426,1832],[-17,0]],[[1426,1832],[3,1]],[[1431,1836],[-5,-4]],[[1116,2114],[-31,9]],[[1089,2121],[26,-7]],[[2005,2045],[-168,-6],[166,5]],[[1687,1983],[-16,-10]],[[3521,2382],[23,6]],[[3599,2403],[-71,-18]],[[3547,2389],[52,14]],[[1593,1775],[-7,-23]],[[1586,1752],[7,23]],[[1593,1775],[2,14]],[[1595,1789],[2,11]],[[1597,1800],[-2,-11]],[[0,0],[0,4096],[4096,0],[0,-4096],[-4096,0]],[[1516,2000],[74,-20],[34,16],[32,-33],[-103,-61],[-37,98]],[[782,45],[7,82],[90,16],[37,-69],[-134,-29]],[[1329,474],[9,21],[43,-28],[36,28],[18,-31],[11,16],[-7,-71],[-65,-3],[-32,24],[17,28],[-30,16]],[[292,2871],[64,67],[24,-32],[18,26],[115,-50],[-6,-27],[-41,-13],[11,-27],[-38,21],[-7,-34],[-140,69]],[[980,874],[11,20],[73,-12],[-16,-32],[44,-21],[-34,-8],[33,-56],[-69,-17],[-1,22],[-36,-1],[16,20],[-21,85]],[[749,1369],[44,81],[45,-33],[32,34],[-18,61],[77,112],[188,74],[119,14],[2,-83],[-31,-26],[0,-135],[-71,-16],[-20,-32],[61,-65],[-29,-73],[-173,-57],[-114,100],[-33,-28],[-79,72]],[[1299,487],[32,-50],[64,84],[25,-5],[73,-79],[-22,-166],[-145,-129],[-96,188],[-28,157],[17,-5],[15,56],[65,-51]],[[1849,1703],[-70,36],[-221,15],[-107,110],[-55,143],[-65,90],[0,62],[117,88],[73,14],[69,-51],[32,-102],[163,-50],[59,-165],[5,-190]],[[1708,1490],[12,33],[36,0],[42,-15],[7,-28],[11,26],[39,-17],[25,-45],[-17,-36],[-155,82]],[[2183,2283],[35,15],[-8,50],[122,-12],[-32,-82],[-36,-27],[-64,-6],[-17,62]],[[1963,1852],[4,24],[82,-15],[25,29],[51,5],[32,-14],[-12,-38],[27,-12],[-100,-52],[-49,23],[-21,-45],[20,-17],[-25,-1],[-16,67],[27,26],[-45,20]],[[1545,1864],[9,33],[33,-11],[78,83],[44,-55],[8,-84],[-51,-8],[-27,25],[-24,-17],[-70,34]],[[1418,1834],[36,111],[-25,13],[29,1],[89,-105],[-129,-20]]]}