{"objects":{"water":{"type":"GeometryCollection","geometries":[{"type":"MultiPolygon","properties":{"source":"naturalearthdata.com","kind":"ocean","area":1576712559132672,"sort_rank":200,"min_zoom":0.0,"id":1},"arcs":[[[2]]]}]},"buildings":{"type":"GeometryCollection","geometries":[]},"places":{"type":"GeometryCollection","geometries":[]},"transit":{"type":"GeometryCollection","geometries":[]},"pois":{"type":"GeometryCollection","geometries":[]},"boundaries":{"type":"GeometryCollection","geometries":[{"type":"MultiLineString","properties":{"name:kg":"Balgaria","name:ka":"\u10d1\u10e3\u10da\u10d2\u10d0\u10e0\u10d4\u10d7\u10d8","name:ko":"\ubd88\uac00\ub9ac\uc544","name:cv":"\u0422\u0103\u043d\u0430\u0439\u00e7\u0438 \u041f\u0103\u043b\u0445\u0430\u0440\u0115","name:cu":"\u0411\u043b\u044a\u0433\u0430\u0440\u0457\ua657","name:kl":"Bulgaria","name:cs":"Bulharsko","name:tt":"\u0411\u043e\u043b\u0433\u0430\u0440\u0438\u044f","name:co":"Bulgaria","name:kv":"\u0411\u043e\u043b\u0433\u0430\u0440\u0438\u044f","name:ku":"Bulgaristan","name:tl":"Bulgarya","name:ce":"\u0411\u043e\u043b\u0433\u0430\u0440\u0438","name:ta":"\u0baa\u0bb2\u0bcd\u0b95\u0bbe\u0bb0\u0bbf\u0baf\u0bbe","name:tg":"\u0411\u0443\u043b\u0493\u043e\u0440\u0438\u0441\u0442\u043e\u043d","name:ca":"Bulg\u00e0ria","name:te":"\u0c2c\u0c32\u0c4d\u0c17\u0c47\u0c30\u0c3f\u0c2f\u0c3e","name:cy":"Bwlgaria","name:qu":"Bulgarya","name:da":"Bulgarien","name:de":"Bulgarien","source":"openstreetmap.org","name:kn":"\u0cac\u0cb2\u0ccd\u0c97\u0cc7\u0cb0\u0cbf\u0caf","name:dv":"\u0784\u07a6\u078d\u07b0\u078e\u07ad\u0783\u07a8\u0787\u07a7","name:lv":"Bulg\u0101rija","name:lt":"Bulgarija","name:uz":"Bolgariya","name:kk":"\u0411\u043e\u043b\u0433\u0430\u0440\u0438\u044f","name:ur":"\u0628\u0644\u063a\u0627\u0631\u06cc\u06c1","name:lb":"Bulgarien","name:la":"Bulgaria","name:uk":"\u0411\u043e\u043b\u0433\u0430\u0440\u0456\u044f","name:ug":"\u0628\u06c7\u0644\u063a\u0627\u0631\u0649\u064a\u06d5","name:li":"B\u00f6lgarije","name:ln":"Bulgaria","name:el":"\u0392\u03bf\u03c5\u03bb\u03b3\u03b1\u03c1\u03af\u03b1","name:eo":"Bulgarujo","name:en":"Bulgaria","name":"\u0411\u044a\u043b\u0433\u0430\u0440\u0438\u044f","name:tk":"Bolgari\u00fda","name:ee":"Bulgaria","name:th":"\u0e1b\u0e23\u0e30\u0e40\u0e17\u0e28\u0e1a\u0e31\u0e25\u0e41\u0e01\u0e40\u0e23\u0e35\u0e22","name:eu":"Bulgaria","name:et":"Bulgaaria","name:es":"Bulgaria","name:ay":"Bulkariya","name:rm":"Bulgaria","name:rn":"Bulgaria","name:az":"Bolqar\u0131stan","name:ie":"Bulgaria","name:id":"Bulgaria","name:ar":"\u0628\u0644\u063a\u0627\u0631\u064a\u0627","name:io":"Bulgaria","name:is":"B\u00falgar\u00eda","name:am":"\u1261\u120d\u130b\u122a\u12eb","name:it":"Bulgaria","name:an":"Bulgaria","name:ru":"\u0411\u043e\u043b\u0433\u0430\u0440\u0438\u044f","name:ab":"\u0411\u044b\u043b\u0433\u0430\u0440\u0438\u0430","name:af":"Bulgarye","name:zu":"IBulgariya","kind_detail":"2","name:ky":"\u0411\u043e\u043b\u0433\u0430\u0440\u0438\u044f","name:zh-yue":"\u4fdd\u52a0\u5229\u4e9e","name:zh":"\u4fdd\u52a0\u5229\u4e9a","name:so":"Bulgaria","name:sm":"Bultalia","name:sl":"Bolgarija","name:sk":"Bulharsko","name:ja":"\u30d6\u30eb\u30ac\u30ea\u30a2","name:sh":"Bugarska","name:se":"Bulg\u00e1ria","name:sc":"Bulgaria","name:br":"Bulgaria","name:bs":"Bugarska","name:bn":"\u09ac\u09c1\u09b2\u0997\u09c7\u09b0\u09bf\u09af\u09bc\u09be","name:bo":"\u0f54\u0f74\u0f0b\u0f62\u0f0b\u0f42\u0f0b\u0f62\u0f72\u0f0b\u0f61\u0f0d","name:sa":"\u092c\u0941\u0932\u094d\u0917\u093e\u0930\u093f\u092f\u093e","name:sw":"Bulgaria","name:be":"\u0411\u0430\u043b\u0433\u0430\u0440\u044b\u044f","name:su":"Bulgaria","name:ss":"IBhulgariya","name:ba":"\u0411\u043e\u043b\u0433\u0430\u0440\u0438\u044f","name:sq":"Bullgaria","name:jv":"Bulgaria","name:bi":"Bulgaria","name:ia":"Bulgaria","name:pt":"Bulg\u00e1ria","name:ps":"\u0628\u0644\u063a\u0627\u0631\u06cc\u0627","name:oc":"Bulgaria","min_zoom":8.0,"name:ro":"Bulgaria","name:zh-min-nan":"Bulgariya","name:os":"\u0411\u043e\u043b\u0433\u0430\u0440\u0438","name:or":"\u0b2c\u0b41\u0b32\u0b17\u0b3e\u0b30\u0b3f\u0b06","name:pl":"Bu\u0142garia","sort_rank":262,"name:sr":"\u0411\u0443\u0433\u0430\u0440\u0441\u043a\u0430","osm_relation":true,"name:pa":"\u0a2c\u0a41\u0a32\u0a17\u0a3e\u0a30\u0a40\u0a06","name:tr":"Bulgaristan","name:hi":"\u092c\u0941\u0932\u094d\u0917\u093e\u0930\u093f\u092f\u093e","name:sv":"Bulgarien","name:he":"\u05d1\u05d5\u05dc\u05d2\u05e8\u05d9\u05d4","name:hy":"\u0532\u0578\u0582\u056c\u0572\u0561\u0580\u056b\u0561","name:ht":"Bilgari","name:hu":"Bulg\u00e1ria","name:hr":"Bugarska","kind":"country","name:yi":"\u05d1\u05d5\u05dc\u05d2\u05d0\u05e8\u05d9\u05e2","name:yo":"B\u00f9lg\u00e1r\u00ed\u00e0","name:mt":"Bulgarija","alt_name:eo":"Bulgario","name:ms":"Bulgaria","name:mr":"\u092c\u0932\u094d\u0917\u0947\u0930\u093f\u092f\u093e","name:my":"\u1018\u1030\u101c\u103a\u1002\u1031\u1038\u101b\u102e\u1038\u101a\u102c\u1038\u1014\u102d\u102f\u1004\u103a\u1004\u1036","official_name":"\u0420\u0435\u043f\u0443\u0431\u043b\u0438\u043a\u0430 \u0411\u044a\u043b\u0433\u0430\u0440\u0438\u044f","name:kw":"Bulgari","name:vi":"Bulgaria","name:ml":"\u0d2c\u0d7e\u0d17\u0d47\u0d31\u0d3f\u0d2f","name:mn":"\u0411\u043e\u043b\u0433\u0430\u0440","name:mi":"Puruk\u0101ria","id":-186382,"name:mk":"\u0411\u0443\u0433\u0430\u0440\u0438\u0458\u0430","name:vo":"Bulgar\u00e4n","name:fa":"\u0628\u0644\u063a\u0627\u0631\u0633\u062a\u0627\u0646","name:rw":"Bulugariya","name:ff":"Bulgariya","name:fi":"Bulgaria","name:fo":"Bulgaria","name:fr":"Bulgarie","name:fy":"Bulgarije","int_name":"Bulgaria","name:nl":"Bulgarije","name:nn":"Bulgaria","name:no":"Bulgaria","name:na":"Borgeriya","name:ne":"\u092c\u0941\u0932\u094d\u0917\u0947\u0930\u093f\u092f\u093e","name:wa":"Bulg\u00e5reye","name:wo":"Bulgaari","name:nv":"B\u00e1lgaa Bik\u00e9yah","name:ga":"An Bhulg\u00e1ir","name:gd":"Bulg\u00e0iria","name:gn":"Vugaria","name:gl":"Bulgaria - \u0411\u044a\u043b\u0433\u0430\u0440\u0438\u044f","maritime_boundary":true,"name:gv":"Yn Vulgeyr","name:gu":"\u0aac\u0ab2\u0acd\u0a97\u0ac7\u0ab0\u0abf\u0aaf\u0abe"},"arcs":[[0],[1]]}]},"roads":{"type":"GeometryCollection","geometries":[{"type":"LineString","properties":{"source":"openstreetmap.org","kind":"ferry","name:en":"Burgas - Poti","name":"\u0411\u0443\u0440\u0433\u0430\u0441 - \u041f\u043e\u0442\u0438","name:ka":"\u10d1\u10e3\u10e0\u10d2\u10d0\u10e1\u10d8 - \u10e4\u10dd\u10d7\u10d8","sort_rank":355,"min_zoom":8.0},"arcs":[3]},{"type":"LineString","properties":{"source":"openstreetmap.org","kind":"ferry","sort_rank":355,"ref":"\u0411\u0443\u0440\u0433\u0430\u0441 - \u041f\u043e\u0442\u0438","min_zoom":8.0,"osm_relation":true,"id":-300682},"arcs":[4]},{"type":"LineString","properties":{"kind":"ferry","name":"\u041e\u0434\u0435\u0441\u0430 - \u0421\u0442\u0430\u043c\u0431\u0443\u043b \/ Odessa - \u0130stanbul","source":"openstreetmap.org","name:tr":"Odessa - \u0130stanbul","sort_rank":355,"min_zoom":8.0,"name:uk":"\u041e\u0434\u0435\u0441\u0430 - \u0421\u0442\u0430\u043c\u0431\u0443\u043b","name:ru":"\u041e\u0434\u0435\u0441\u0441\u0430 - \u0421\u0442\u0430\u043c\u0431\u0443\u043b","osm_relation":true},"arcs":[5]},{"type":"LineString","properties":{"sort_rank":355,"source":"openstreetmap.org","min_zoom":8.0,"kind":"ferry","name":"\u0130stanbul - Odessa"},"arcs":[6]}]},"earth":{"type":"GeometryCollection","geometries":[]},"landuse":{"type":"GeometryCollection","geometries":[]}},"type":"Topology","transform":{"translate":[28.125,42.0329743324],"scale":[0.0003433228,0.0002529086]},"arcs":[[[519,0],[-9,51],[-83,207],[-212,353],[-92,114],[-123,97]],[[0,1884],[148,738],[-18,452],[31,461],[-49,221],[151,340]],[[4096,4096],[0,-4096],[-4096,0],[0,4096],[4096,0]],[[0,1676],[4096,-121]],[[0,1676],[4096,-121]],[[4096,1961],[-457,-1961]],[[4096,1963],[-458,-1963]]]}