{"objects":{"water":{"type":"GeometryCollection","geometries":[{"type":"Polygon","properties":{"source":"naturalearthdata.com","kind":"lake","name":"Hulun Nur","area":5398288896,"sort_rank":200,"min_zoom":0.0,"id":93},"arcs":[[5]]},{"type":"Polygon","properties":{"source":"naturalearthdata.com","kind":"lake","name":"Buyr Nuur (Buir Nur)","area":1120545792,"sort_rank":200,"min_zoom":0.0,"id":197},"arcs":[[6]]},{"type":"Polygon","properties":{"source":"naturalearthdata.com","kind":"lake","name":"Lake Khanka (Xingkai Hu,  Ozero Khanka)","area":7824256000,"sort_rank":200,"min_zoom":0.0,"id":69},"arcs":[[7]]},{"type":"Polygon","properties":{"source":"naturalearthdata.com","kind":"ocean","area":1444195503964160,"sort_rank":200,"min_zoom":0.0,"id":1},"arcs":[[8]]},{"type":"Point","properties":{"label_placement":true,"kind":"lake","name":"Lake Khanka (Xingkai Hu,  Ozero Khanka)","area":7824256000,"sort_rank":200,"source":"naturalearthdata.com","min_zoom":0.0,"id":69},"coordinates":[3624,1084]},{"type":"Point","properties":{"label_placement":true,"kind":"lake","name":"Hulun Nur","area":5398288896,"sort_rank":200,"source":"naturalearthdata.com","min_zoom":0.0,"id":93},"coordinates":[891,2205]},{"type":"Point","properties":{"label_placement":true,"kind":"lake","name":"Buyr Nuur (Buir Nur)","area":1120545792,"sort_rank":200,"source":"naturalearthdata.com","min_zoom":0.0,"id":197},"coordinates":[945,1888]},{"type":"LineString","properties":{"source":"naturalearthdata.com","kind":"lake","sort_rank":367,"boundary":true,"min_zoom":0.0,"id":69},"arcs":[9]},{"type":"LineString","properties":{"source":"naturalearthdata.com","kind":"lake","sort_rank":367,"boundary":true,"min_zoom":0.0,"id":93},"arcs":[10]},{"type":"LineString","properties":{"source":"naturalearthdata.com","kind":"lake","sort_rank":367,"boundary":true,"min_zoom":0.0,"id":197},"arcs":[11]},{"type":"LineString","properties":{"source":"naturalearthdata.com","kind":"ocean","sort_rank":205,"boundary":true,"min_zoom":0.0,"id":1388},"arcs":[12]}]},"buildings":{"type":"GeometryCollection","geometries":[]},"places":{"type":"GeometryCollection","geometries":[{"type":"Point","properties":{"source":"naturalearthdata.com","kind":"locality","name":"Shenyeng","population":4787000,"min_zoom":4.0,"id":7177},"coordinates":[1993,229]},{"type":"Point","properties":{"source":"naturalearthdata.com","kind":"locality","name":"Harbin","population":3621000,"region_capital":true,"min_zoom":4.0,"id":7186},"coordinates":[2576,1321]},{"type":"Point","properties":{"source":"naturalearthdata.com","kind":"locality","name":"Changchun","population":3183000,"region_capital":true,"min_zoom":4.0,"id":7184},"coordinates":[2337,799]},{"type":"Point","properties":{"name:he":"\u05de\u05d7\u05d5\u05d6 \u05e2\u05d1\u05e8 \u05d4\u05d1\u05d0\u05d9\u05e7\u05dc","name:sk":"Zabajkalsk\u00fd kraj","name:ja":"\u30b6\u30d0\u30a4\u30ab\u30ea\u30a8\u5730\u65b9","name:lt":"U\u017ebaikal\u0117s kra\u0161tas","name:ar":"\u0632\u0627\u0628\u0627\u064a\u0643\u0627\u0644\u0633\u0643\u064a \u0643\u0631\u0627\u064a","kind":"region","min_zoom":4.0,"name:uk":"\u0417\u0430\u0431\u0430\u0439\u043a\u0430\u043b\u044c\u0441\u044c\u043a\u0438\u0439 \u043a\u0440\u0430\u0439","name:be":"\u0417\u0430\u0431\u0430\u0439\u043a\u0430\u043b\u044c\u0441\u043a\u0456 \u043a\u0440\u0430\u0439","name:pl":"Kraj Zabajkalski","name:hu":"Bajk\u00e1lont\u00fali hat\u00e1rter\u00fclet","name:hr":"Zabajkalski kraj","id":503087444,"name:eo":"Transbajkalo Regiono","name:en":"Zabaykalsky Krai","name":"\u0417\u0430\u0431\u0430\u0439\u043a\u0430\u043b\u044c\u0441\u043a\u0438\u0439 \u043a\u0440\u0430\u0439","kind_detail":"state","name:de":"Region Transbaikalien","source":"openstreetmap.org","name:fr":"Kra\u00ef de Transba\u00efkalie","name:es":"Krai de Zabaikalie"},"coordinates":[629,3119]},{"type":"Point","properties":{"name:lt":"Liaoningas","name:he":"\u05dc\u05d9\u05d0\u05d5\u05e0\u05d9\u05e0\u05d2","kind":"region","min_zoom":4.0,"name:uk":"\u041b\u044f\u043e\u043d\u0456\u043d","name:ru":"\u041b\u044f\u043e\u043d\u0438\u043d","name:vi":"Li\u00eau Ninh","name:pl":"Liaoning","name:hu":"Liaoning","name:hr":"Ljaoning","id":244081110,"name:eo":"Lja\u016dningo","name:en":"Liaoning Province","name":"\u8fbd\u5b81\u7701","kind_detail":"state","name:da":"Liaoning","name:de":"Li\u00e1on\u00edng","source":"openstreetmap.org","name:fr":"Li\u00e1on\u00edng","name:zh":"Liaoning Sheng","name:es":"Liaoning"},"coordinates":[1911,5]},{"type":"Point","properties":{"kind":"region","name:en":"Dornod","name":"\u0414\u043e\u0440\u043d\u043e\u0434","kind_detail":"state","name:de":"Dornod","source":"openstreetmap.org","min_zoom":4.0,"name:pl":"Wschodni","name:hu":"Dornod","id":2704047256,"name:ja":"\u30c9\u30eb\u30ce\u30c9"},"coordinates":[495,1854]},{"type":"Point","properties":{"kind":"region","name:en":"Ryanggang","name":"\ub7c9\uac15\ub3c4","name:ko":"\u5169\u6c5f\u9053","kind_detail":"state","source":"openstreetmap.org","min_zoom":4.0,"name:zh":"\u4e24\u6c5f\u9053","id":4549708239,"name:ja":"\u4e21\u6c5f\u9053"},"coordinates":[2852,33]},{"type":"Point","properties":{"name:sk":"Amursk\u00e1 oblas\u0165","name:ja":"\u30a2\u30e0\u30fc\u30eb\u5dde","name:lt":"Am\u016bro sritis","name:he":"\u05de\u05d7\u05d5\u05d6 \u05d0\u05de\u05d5\u05e8","kind":"region","min_zoom":4.0,"name:uk":"\u0410\u043c\u0443\u0440\u0441\u044c\u043a\u0430 \u043e\u0431\u043b\u0430\u0441\u0442\u044c","name:be":"\u0410\u043c\u0443\u0440\u0441\u043a\u0430\u044f \u0432\u043e\u0431\u043b\u0430\u0441\u0446\u044c","name:pl":"Obw\u00f3d amurski","name:hu":"Amuri ter\u00fclet","name:hr":"Amurska oblast","id":502842672,"name:eo":"Amura Provinco","name:en":"Amur Oblast","name":"\u0410\u043c\u0443\u0440\u0441\u043a\u0430\u044f \u043e\u0431\u043b\u0430\u0441\u0442\u044c","kind_detail":"state","name:da":"Amur oblast","name:de":"Oblast Amur","source":"openstreetmap.org","name:fr":"Oblast d'Amour","name:es":"\u00d3blast de Amur"},"coordinates":[2901,3273]},{"type":"Point","properties":{"name:ja":"\u9ed2\u7adc\u6c5f\u7701","name:lt":"Heilongdziangas","kind":"region","min_zoom":4.0,"name:uk":"\u041f\u0440\u043e\u0432\u0456\u043d\u0446\u0456\u044f \u0425\u0435\u0439\u043b\u0443\u043d\u0446\u0437\u044f\u043d","name:ru":"\u0425\u044d\u0439\u043b\u0443\u043d\u0446\u0437\u044f\u043d","name:vi":"H\u1eafc Long Giang","name:pl":"Heilongjiang","name:hu":"Hejlungcsiang","name:hr":"Hejlung\u0111jang","id":244080473,"name:eo":"Hejlong\u011django","name:en":"Heilongjiang Province","name":"\u9ed1\u9f99\u6c5f\u7701","kind_detail":"state","name:da":"Heilongjiang","name:de":"Heilongjiang","source":"openstreetmap.org","name:fr":"H\u0113il\u00f3ngji\u0101ng","name:zh":"Heilongjiang Sheng","name:es":"Heilongjiang"},"coordinates":[2822,1943]},{"type":"Point","properties":{"name:sr":"\u0423\u043d\u0443\u0442\u0440\u0430\u0448\u045a\u0430 \u041c\u043e\u043d\u0433\u043e\u043b\u0438\u0458\u0430","name:sk":"Vn\u00fatorn\u00e9 Mongolsko","name:ja":"\u5185\u30e2\u30f3\u30b4\u30eb\u81ea\u6cbb\u533a","name:lt":"Vidin\u0117 Mongolija","kind":"region","min_zoom":4.0,"name:uk":"\u0412\u043d\u0443\u0442\u0440\u0456\u0448\u043d\u044f \u041c\u043e\u043d\u0433\u043e\u043b\u0456\u044f","name:vi":"N\u1ed9i M\u00f4ng","name:ru":"\u0412\u043d\u0443\u0442\u0440\u0435\u043d\u043d\u044f\u044f \u041c\u043e\u043d\u0433\u043e\u043b\u0438\u044f","name:pl":"Mongolia Wewn\u0119trzna","name:hu":"Bels\u0151-Mong\u00f3lia","name:hr":"Unutarnja Mongolija","id":244081449,"name:eo":"Interna Mongolio","name:en":"Inner Mongolia Autonomous Region","name":"\u5185\u8499\u53e4\u81ea\u6cbb\u533a (\u1826\u182a\u1826\u1837 \u182e\u1823\u1828\u182d\u182d\u1823\u182f) (\u04e8\u0432\u04e9\u0440 \u041c\u043e\u043d\u0433\u043e\u043b)","kind_detail":"state","name:da":"Indre Mongoliet","name:de":"Innere Mongolei","source":"openstreetmap.org","name:fr":"R\u00e9gion autonome de Mongolie-int\u00e9rieure","name:zh":"\u5185\u8499\u53e4\u81ea\u6cbb\u533a","name:es":"Mongolia Interior"},"coordinates":[332,627]},{"type":"Point","properties":{"kind":"region","name":"\ud568\uacbd\ubd81\ub3c4","name:ko":"\u54b8\u93e1\u5317\u9053","kind_detail":"state","source":"openstreetmap.org","min_zoom":4.0,"name:zh":"\u54b8\u955c\u5317\u9053","id":4549708240,"name:ja":"\u54b8\u93e1\u5317\u9053"},"coordinates":[3071,257]},{"type":"Point","properties":{"name:sk":"\u017didovsk\u00e1 auton\u00f3mna oblas\u0165","name:ja":"\u30e6\u30c0\u30e4\u81ea\u6cbb\u5dde","name:lt":"\u017dyd\u0173 autonomin\u0117 sritis","name:he":"\u05d4\u05de\u05d7\u05d5\u05d6 \u05d4\u05d9\u05d4\u05d5\u05d3\u05d9 \u05d4\u05d0\u05d5\u05d8\u05d5\u05e0\u05d5\u05de\u05d9","kind":"region","min_zoom":4.0,"name:uk":"\u0404\u0432\u0440\u0435\u0439\u0441\u044c\u043a\u0430 \u0430\u0432\u0442\u043e\u043d\u043e\u043c\u043d\u0430 \u043e\u0431\u043b\u0430\u0441\u0442\u044c","name:be":"\u042f\u045e\u0440\u044d\u0439\u0441\u043a\u0430\u044f \u0430\u045e\u0442\u0430\u043d\u043e\u043c\u043d\u0430\u044f \u0432\u043e\u0431\u043b\u0430\u0441\u0446\u044c","name:nl":"Joodse Autonome Oblast","name:pl":"\u017bydowski Obw\u00f3d Autonomiczny","name:hu":"Zsid\u00f3 auton\u00f3m ter\u00fclet","name:hr":"\u017didovska autonomna oblast","id":508056667,"name:af":"Joodse Outonome Oblast","name:eo":"Hebrea A\u016dtonomio","name:en":"Jewish region","name":"\u0415\u0432\u0440\u0435\u0439\u0441\u043a\u0430\u044f \u0430\u0432\u0442\u043e\u043d\u043e\u043c\u043d\u0430\u044f \u043e\u0431\u043b\u0430\u0441\u0442\u044c","kind_detail":"state","name:da":"J\u00f8diske autonome oblast","name:de":"J\u00fcdisches Autonomes Gebiet","source":"openstreetmap.org","name:fr":"Oblast autonome juif","name:et":"Juudi autonoomne oblast","name:es":"\u00d3blast Aut\u00f3nomo Hebreo"},"coordinates":[3600,2098]},{"type":"Point","properties":{"name:sk":"Pr\u00edmorsk\u00fd kraj","name:ja":"\u6cbf\u6d77\u5730\u65b9","name:lt":"Primor\u0117s kra\u0161tas","name:ko":"\ud504\ub9ac\ubaa8\ub974\uc2a4\ud0a4 \uc9c0\ubc29","name:he":"\u05de\u05d7\u05d5\u05d6 \u05e4\u05e8\u05d9\u05de\u05d5\u05e8\u05d9\u05d4","kind":"region","name:tt":"\u0414\u0438\u04a3\u0433\u0435\u0437 \u0431\u0443\u0435 \u043a\u0440\u0430\u0435","min_zoom":4.0,"name:uk":"\u041f\u0440\u0438\u043c\u043e\u0440\u0441\u044c\u043a\u0438\u0439 \u043a\u0440\u0430\u0439","name:be":"\u041f\u0440\u044b\u043c\u043e\u0440\u0441\u043a\u0456 \u043a\u0440\u0430\u0439","name:pl":"Kraj Nadmorski","name:hu":"Tengermell\u00e9ki hat\u00e1rter\u00fclet","name:hr":"Primorski kraj","id":502842538,"name:eo":"\u0108emara Regiono","name:en":"Primorsky Krai","name":"\u041f\u0440\u0438\u043c\u043e\u0440\u0441\u043a\u0438\u0439 \u043a\u0440\u0430\u0439","kind_detail":"state","name:da":"Primorskij kraj","name:de":"Region Primorje","source":"openstreetmap.org","name:fr":"Primorie","name:zh":"\u6ee8\u6d77\u8fb9\u7586\u533a","name:es":"Primorie"},"coordinates":[4046,1136]},{"type":"Point","properties":{"name:lt":"Dzilinas","name:eo":"\u011cilinio","min_zoom":4.0,"name:uk":"\u0426\u0437\u0456\u043b\u0456\u043d\u044c","name:vi":"C\u00e1t L\u00e2m","name:ru":"\u0413\u0438\u0440\u0438\u043d","name:pl":"Jilin","name:hu":"Csilin","name:hr":"Jilin","id":244080890,"kind":"region","name:en":"Jilin Province","name":"\u5409\u6797\u7701","kind_detail":"state","name:da":"Jilin","name:de":"J\u00edl\u00edn","source":"openstreetmap.org","name:fr":"J\u00edl\u00edn","name:zh":"Jilin Sheng","name:es":"Jilin"},"coordinates":[2454,559]},{"type":"Point","properties":{"kind":"region","name:en":"S\u00fckhbaatar","name":"\u0421\u04af\u0445\u0431\u0430\u0430\u0442\u0430\u0440","kind_detail":"state","name:de":"S\u00fcchbaatar","source":"openstreetmap.org","min_zoom":4.0,"name:ru":"\u0421\u0443\u0445\u044d-\u0411\u0430\u0442\u043e\u0440","name:pl":"Suchebatorski","name:hu":"Sz\u00fcheb\u00e1tor","id":2704047287,"name:ja":"\u30b9\u30d5\u30d0\u30fc\u30c8\u30eb"},"coordinates":[183,1448]}]},"transit":{"type":"GeometryCollection","geometries":[]},"pois":{"type":"GeometryCollection","geometries":[{"type":"Point","properties":{"kind":"prison","name:en":"Hwasong concentration camp","name":"\ud654\uc131 \uc81c16\ud638 \uad00\ub9ac\uc18c","area":991375000,"name:de":"Internierungslager Hwasong","source":"openstreetmap.org","min_zoom":4.86,"int_name":"Kwan-li-so 16","id":-7729427,"osm_relation":true},"coordinates":[3048,94]}]},"boundaries":{"type":"GeometryCollection","geometries":[{"type":"LineString","properties":{"source":"naturalearthdata.com","kind":"country","sort_rank":262,"kind_detail":"2","min_zoom":0.0,"id":171},"arcs":[0]},{"type":"LineString","properties":{"source":"naturalearthdata.com","kind":"country","sort_rank":262,"kind_detail":"2","min_zoom":0.0,"id":24},"arcs":[1]},{"type":"LineString","properties":{"source":"naturalearthdata.com","kind":"country","sort_rank":262,"kind_detail":"2","min_zoom":0.0,"id":168},"arcs":[2]},{"type":"LineString","properties":{"source":"naturalearthdata.com","kind":"country","sort_rank":262,"kind_detail":"2","min_zoom":0.0,"id":169},"arcs":[3]},{"type":"LineString","properties":{"source":"naturalearthdata.com","kind":"country","sort_rank":262,"kind_detail":"2","min_zoom":0.0,"id":170},"arcs":[4]}]},"roads":{"type":"GeometryCollection","geometries":[]},"earth":{"type":"GeometryCollection","geometries":[{"type":"Polygon","properties":{"sort_rank":10,"source":"naturalearthdata.com","kind":"earth","min_zoom":0.0,"id":1381},"arcs":[[13]]}]},"landuse":{"type":"GeometryCollection","geometries":[{"type":"Polygon","properties":{"kind":"nature_reserve","name":"\u0417\u0430\u043a\u0430\u0437\u043d\u0438\u043a \u0414\u0438\u0447\u0443\u043d","area":1140249984,"sort_rank":23,"source":"openstreetmap.org","min_zoom":4.0,"tier":2,"id":289783977},"arcs":[[14]]},{"type":"Polygon","properties":{"kind":"protected_area","name":"\u041d\u0430\u0446\u0438\u043e\u043d\u0430\u043b\u044c\u043d\u044b\u0439 \u043f\u0430\u0440\u043a \u00ab\u0410\u043b\u0445\u0430\u043d\u0430\u0439\u00bb","area":2889959936,"sort_rank":17,"source":"openstreetmap.org","min_zoom":4.0,"tier":2,"id":-5908560,"osm_relation":true,"protect_class":"2"},"arcs":[[15]]},{"type":"Polygon","properties":{"kind":"nature_reserve","name":"\u041e\u0440\u043b\u043e\u0432\u0441\u043a\u0438\u0439 \u0437\u0430\u043a\u0430\u0437\u043d\u0438\u043a","area":3324369920,"sort_rank":23,"source":"openstreetmap.org","min_zoom":4.0,"tier":2,"id":-5615008,"osm_relation":true,"protect_class":"4"},"arcs":[[16]]},{"type":"Polygon","properties":{"kind":"nature_reserve","name":"\u041a\u043e\u043d\u0434\u043e-\u0412\u0438\u0442\u0438\u043c\u0441\u043a\u0438\u0439 \u0437\u0430\u043a\u0430\u0437\u043d\u0438\u043a","area":1204070016,"sort_rank":23,"source":"openstreetmap.org","min_zoom":4.0,"tier":2,"id":-7778869,"osm_relation":true},"arcs":[[17]]},{"type":"Polygon","properties":{"kind":"nature_reserve","name":"\u041b\u0430\u0437\u043e\u0432\u0441\u043a\u0438\u0439 \u0437\u0430\u043f\u043e\u0432\u0435\u0434\u043d\u0438\u043a","area":2202289920,"sort_rank":23,"source":"openstreetmap.org","min_zoom":4.0,"tier":2,"id":-5568676,"osm_relation":true,"protect_class":"1"},"arcs":[[18]]},{"type":"Polygon","properties":{"kind":"nature_reserve","name":"\u0417\u0435\u0439\u0441\u043a\u0438\u0439 \u0437\u0430\u043f\u043e\u0432\u0435\u0434\u043d\u0438\u043a","area":2884720128,"sort_rank":23,"source":"openstreetmap.org","min_zoom":4.0,"tier":2,"id":374830445,"protect_class":"1"},"arcs":[[19]]},{"type":"Polygon","properties":{"kind":"nature_reserve","name":"\u041d\u0430\u0446\u0438\u043e\u043d\u0430\u043b\u044c\u043d\u044b\u0439 \u043f\u0430\u0440\u043a \u00ab\u0410\u043b\u0445\u0430\u043d\u0430\u0439\u00bb","area":3661750016,"sort_rank":23,"source":"openstreetmap.org","min_zoom":4.0,"tier":2,"id":505053541,"protect_class":"2"},"arcs":[[20]]},{"type":"Polygon","properties":{"kind":"protected_area","name":"\u041e\u0445\u0440\u0430\u043d\u043d\u0430\u044f \u0437\u043e\u043d\u0430 \u0433\u043e\u0441\u0443\u0434\u0430\u0440\u0441\u0442\u0432\u0435\u043d\u043d\u043e\u0433\u043e \u043f\u0440\u0438\u0440\u043e\u0434\u043d\u043e\u0433\u043e \u0431\u0438\u043e\u0441\u0444\u0435\u0440\u043d\u043e\u0433\u043e \u0437\u0430\u043f\u043e\u0432\u0435\u0434\u043d\u0438\u043a\u0430 \u00ab\u0414\u0430\u0443\u0440\u0441\u043a\u0438\u0439\u00bb","area":2007180032,"sort_rank":17,"source":"openstreetmap.org","min_zoom":4.0,"tier":2,"id":-5919573,"osm_relation":true,"protect_class":"1"},"arcs":[[21]]},{"type":"Polygon","properties":{"kind":"nature_reserve","name":"\u0411\u0443\u0440\u0435\u0438\u043d\u0441\u043a\u0438\u0439 \u0437\u0430\u043f\u043e\u0432\u0435\u0434\u043d\u0438\u043a","area":9386000384,"sort_rank":23,"source":"openstreetmap.org","min_zoom":4.0,"tier":2,"id":-3347534,"osm_relation":true,"protect_class":"1"},"arcs":[[22]]},{"type":"Polygon","properties":{"kind":"protected_area","name":"\u0413\u043e\u0441\u0443\u0434\u0430\u0440\u0441\u0442\u0432\u0435\u043d\u043d\u044b\u0439 \u043f\u0440\u0438\u0440\u043e\u0434\u043d\u044b\u0439 \u0431\u0438\u043e\u0441\u0444\u0435\u0440\u043d\u044b\u0439 \u0437\u0430\u043f\u043e\u0432\u0435\u0434\u043d\u0438\u043a \u00ab\u0414\u0430\u0443\u0440\u0441\u043a\u0438\u0439\u00bb","area":1013190016,"sort_rank":17,"source":"openstreetmap.org","min_zoom":4.0,"tier":2,"id":-5919572,"osm_relation":true,"protect_class":"1"},"arcs":[[23]]},{"type":"Polygon","properties":{"kind":"nature_reserve","name":"\u0417\u0430\u043a\u0430\u0437\u043d\u0438\u043a \u00ab\u0411\u043e\u043b\u044c\u0448\u043e\u0435 \u0422\u043e\u043a\u043a\u043e\u00bb (\u0422\u043e\u043a\u043a\u0438\u043d\u0441\u043a\u0438\u0439 \u0443\u0447\u0430\u0441\u0442\u043e\u043a)","area":3702089984,"sort_rank":23,"source":"openstreetmap.org","min_zoom":4.0,"tier":2,"id":-5637349,"osm_relation":true,"protect_class":"7"},"arcs":[[24]]},{"type":"Polygon","properties":{"kind":"nature_reserve","name":"\u0414\u0443\u0431\u043b\u0438\u043a\u0430\u043d\u0441\u043a\u0438\u0439 \u0437\u0430\u043a\u0430\u0437\u043d\u0438\u043a","area":3510889984,"sort_rank":23,"source":"openstreetmap.org","min_zoom":4.0,"tier":2,"id":409133536,"protect_class":"7"},"arcs":[[25]]},{"type":"MultiPolygon","properties":{"source":"naturalearthdata.com","kind":"urban_area","name":"","area":20665825762,"sort_rank":11,"min_zoom":4.0},"arcs":[[[26]],[[27]],[[28]],[[29]],[[30]],[[31]],[[32]],[[33]],[[34]],[[35]],[[36]],[[37]],[[38]],[[39]],[[40]],[[41]],[[42]],[[43]],[[44]],[[45]],[[46]],[[47]],[[48]],[[49]],[[50]],[[51]],[[52]],[[53]],[[54]],[[55]],[[56]],[[57]]]},{"type":"Polygon","properties":{"kind":"nature_reserve","name":"\u0425\u0438\u043d\u0433\u0430\u043d\u0441\u043a\u0438\u0439 \u0437\u0430\u043f\u043e\u0432\u0435\u0434\u043d\u0438\u043a","area":1767590016,"sort_rank":23,"source":"openstreetmap.org","min_zoom":4.0,"tier":2,"id":-5576379,"osm_relation":true,"protect_class":"1"},"arcs":[[58]]},{"type":"Polygon","properties":{"kind":"nature_reserve","name":"\u041d\u043e\u0440\u0441\u043a\u0438\u0439 \u0437\u0430\u043f\u043e\u0432\u0435\u0434\u043d\u0438\u043a","area":5490420224,"sort_rank":23,"source":"openstreetmap.org","min_zoom":4.0,"tier":2,"id":374831435,"protect_class":"1"},"arcs":[[59]]},{"type":"Polygon","properties":{"kind":"nature_reserve","name":"\u0417\u0430\u043a\u0430\u0437\u043d\u0438\u043a \u0427\u0443\u0440\u043a\u0438","area":1812739968,"sort_rank":23,"source":"openstreetmap.org","min_zoom":4.0,"tier":2,"id":289788414},"arcs":[[60]]},{"type":"Polygon","properties":{"kind":"nature_reserve","name":"\u0417\u0430\u043a\u0430\u0437\u043d\u0438\u043a \u00ab\u0412\u0430\u043d\u0430\u00bb","area":3178749952,"sort_rank":23,"source":"openstreetmap.org","min_zoom":4.0,"tier":2,"id":409602342,"protect_class":"7"},"arcs":[[61]]},{"type":"Polygon","properties":{"kind":"nature_reserve","name":"\u0425\u0438\u043d\u0433\u0430\u043d\u043e-\u0410\u0440\u0445\u0430\u0440\u0438\u043d\u0441\u043a\u0438\u0439 \u0437\u0430\u043a\u0430\u0437\u043d\u0438\u043a","area":1271890048,"sort_rank":23,"source":"openstreetmap.org","min_zoom":4.0,"tier":2,"id":376931582,"protect_class":"4"},"arcs":[[62]]},{"type":"Polygon","properties":{"kind":"nature_reserve","name":"\u0417\u0430\u043a\u0430\u0437\u043d\u0438\u043a \u00ab\u0426\u0430\u0441\u0443\u0447\u0435\u0439\u0441\u043a\u0438\u0439 \u0431\u043e\u0440\u00bb","area":1361200000,"sort_rank":23,"source":"openstreetmap.org","min_zoom":4.0,"tier":2,"id":505053540,"protect_class":"4"},"arcs":[[63]]},{"type":"Polygon","properties":{"kind":"protected_area","protect_class":"98","area":1204130048,"sort_rank":17,"source":"openstreetmap.org","min_zoom":4.0,"tier":2,"id":-2309201,"osm_relation":true},"arcs":[[64]]},{"type":"Polygon","properties":{"kind":"nature_reserve","name":"\u0417\u0430\u043f\u043e\u0432\u0435\u0434\u043d\u0438\u043a \u00ab\u0411\u0430\u0441\u0442\u0430\u043a\u00bb","area":2137680000,"sort_rank":23,"source":"openstreetmap.org","min_zoom":4.0,"tier":2,"id":-3242054,"osm_relation":true,"protect_class":"1"},"arcs":[[65]]},{"type":"Polygon","properties":{"kind":"park","name":"\u041d\u0430\u0446\u0438\u043e\u043d\u0430\u043b\u044c\u043d\u044b\u0439 \u043f\u0430\u0440\u043a \u00ab\u0417\u043e\u0432 \u0442\u0438\u0433\u0440\u0430\u00bb","area":1590720000,"sort_rank":24,"source":"openstreetmap.org","min_zoom":4.0,"tier":2,"id":-3471370,"osm_relation":true},"arcs":[[66]]},{"type":"Polygon","properties":{"kind":"nature_reserve","name":"\u0411\u0430\u0434\u0436\u0430\u043b\u044c\u0441\u043a\u0438\u0439 \u0437\u0430\u043a\u0430\u0437\u043d\u0438\u043a","area":5666509824,"sort_rank":23,"source":"openstreetmap.org","min_zoom":4.0,"tier":2,"id":166425173,"protect_class":"4"},"arcs":[[67]]}]}},"type":"Topology","transform":{"translate":[112.5,40.9798980696],"scale":[0.0054931641,0.0036124695]},"arcs":[[[3282,431],[5,-17],[11,-17],[6,-12],[2,-12],[5,-7]],[[762,2448],[-17,-38],[-35,-77],[-29,-66],[-15,-37],[-11,-28],[-12,-26],[-1,-16],[-13,-26],[-25,-31],[-5,-34],[1,-30],[-2,-27],[-26,-17],[-21,-15],[6,-52],[10,-19],[18,-21],[18,-17],[16,-14],[17,6],[15,22],[28,19],[16,0],[11,-4],[25,-1],[25,7],[20,1],[25,-4],[9,-5],[22,-8],[23,-19],[16,-20],[12,-4],[6,7],[13,18],[18,17],[22,29],[17,22],[13,3],[25,0],[12,6],[19,2],[17,-8],[47,-4],[13,-11],[22,-34],[13,-18],[22,-9],[13,-6],[11,-5],[12,-8],[3,-11],[5,-16],[7,-9],[13,-9],[10,-6],[3,-11],[4,-6],[9,-8],[27,-35],[14,-9],[20,-20],[8,-17],[1,-17],[5,-13],[13,-20],[7,-14],[-3,-18],[2,-16],[-5,-17],[-22,-13],[-7,-6],[-16,0],[-26,6],[-26,-3],[-31,6],[-25,15],[-13,12],[-20,7],[-10,-4],[-12,-15],[-14,3],[-12,-3],[-32,3],[-18,4],[-27,-10],[-16,-4],[-29,-13],[-18,-22],[-13,-6],[-13,1],[-9,8],[-13,11],[-20,-1],[-6,-4],[-2,-10],[-7,-27],[0,-13],[-4,-8],[-12,-3],[-20,1],[-33,2],[-21,7],[-14,-3],[-17,-15],[-13,-3],[-10,-6],[-9,-22],[-13,-14],[-16,-18],[-17,-37],[-9,-21],[3,-11],[2,-14],[-8,-15],[-16,-15],[-13,-3],[-19,-14],[-26,-25],[-20,-21],[-26,-5],[-18,-6],[-40,-6],[-10,-2],[-45,-3],[-32,11],[-18,-2],[-15,-6],[-8,-7],[-3,-14],[-2,-12],[-13,-19],[-25,-25],[-20,-17],[-16,-22],[-9,-8],[-19,-8],[-9,-5],[-23,-19],[-18,-18],[-12,-5],[-15,5],[-9,1],[-28,7],[-19,1],[-27,4],[-62,21],[-20,9],[-18,26]],[[0,2367],[36,-6],[20,4],[20,13],[25,13],[7,21],[13,29],[28,21],[23,19],[24,18],[28,15],[27,11],[35,29],[27,14],[14,5],[16,-5],[31,-4],[22,1],[12,-3],[25,-14],[23,-13],[17,-22],[32,-30],[17,-10],[11,-5],[29,-3],[24,-1],[14,7],[24,13],[38,16],[15,0],[24,-9],[36,-16],[15,-12],[10,-15]],[[762,2448],[37,-24],[24,-12],[41,-19],[42,-4],[40,-21],[21,-6],[11,0],[57,50],[48,42],[56,33],[41,4],[30,10],[21,14],[12,25],[3,34],[-8,21],[-20,7],[-5,7],[10,8],[7,14],[4,21],[12,20],[18,19],[11,22],[2,23],[11,23],[20,23],[11,22],[2,19],[10,25],[28,43],[19,49],[30,34],[50,35],[31,34],[13,34],[-1,30],[-15,27],[-2,26],[9,27],[-8,20],[-25,14],[-29,3],[-34,-7],[-19,9],[-5,23],[10,19],[22,15],[37,36],[52,56],[51,31],[76,9],[62,19],[63,18],[45,10],[8,-7],[24,-1],[42,3],[39,8],[36,13],[28,3],[21,-7],[12,0],[8,-1],[4,0],[9,6],[24,-10],[47,-29],[29,-13],[12,3],[13,-8],[14,-20],[17,-11],[32,-5],[31,-22],[13,-1],[5,12],[11,7],[19,2],[28,-11],[35,-22],[23,-10],[9,2],[10,-4],[7,-11],[1,-13],[-3,-7],[9,-11],[10,0],[16,-5],[13,-20],[11,-9],[8,-8],[2,-6],[1,-7],[-3,-5],[-4,-8],[-1,-10],[5,-10],[20,-7],[7,-8],[2,-9],[6,-11],[14,-13],[5,-10],[-3,-9],[4,-7],[6,-5],[2,-20],[0,-12],[12,-12],[2,-27],[8,-29],[26,-40],[8,-22],[-2,-25],[4,-12],[12,-6],[5,-11],[0,-16],[4,-10],[4,-11],[-3,-16],[4,-15],[6,-9],[5,-16],[2,-20],[17,-31],[33,-43],[20,-34],[7,-24],[0,-20],[-7,-15],[-1,-12],[7,-7],[2,-9],[-3,-12],[11,-14],[35,-25],[-14,-38],[-4,-27],[2,-28],[9,-20],[16,-11],[9,-12],[4,-13],[19,-14],[34,-14],[43,-3],[53,10],[32,1],[12,-6],[4,-10],[-4,-13],[9,-9],[22,-4],[14,-8],[9,-12],[10,-4],[11,6],[12,-1],[11,-7],[7,2],[7,8],[10,0],[10,0],[7,-18],[10,-11],[15,-2],[22,-22],[45,-63],[28,-22],[29,-7],[36,-1],[12,-25],[-9,-25],[-3,-22],[9,-8],[11,-25],[16,-15],[3,-11],[7,-13],[-3,-24],[-14,-35],[4,-30],[21,-25],[12,-24],[4,-23],[5,-14],[7,-5],[22,2],[36,8],[26,-1],[17,-12],[42,0],[66,10],[42,3],[18,-4],[15,15],[14,34],[13,16],[12,-2],[19,11],[26,23],[22,12],[29,-2],[30,-1],[19,10],[18,21],[31,18],[66,24],[16,4],[8,-2],[22,-3],[20,-10],[18,-18],[3,-12],[-2,-16],[-4,-9],[-8,-11],[-7,-16],[5,-14],[10,-28],[9,-20],[10,-23],[-5,-9],[-5,-17],[-19,-28],[-9,-10],[-11,-11],[-18,-2],[-8,-3],[-9,-4],[-6,-10],[-6,-7],[-11,-14],[0,-12],[4,-18],[3,-18],[-12,-16],[-9,-26],[-3,-7],[-5,-19],[-1,-7],[-3,-40],[-12,-27],[-16,-32],[3,-19],[3,-18],[-4,-8],[-1,-8],[-2,-17],[-5,-6],[-16,-11],[-9,-13],[2,-19],[-4,-17],[-7,-15],[-7,-9],[-11,-7],[-7,-5],[-5,-19],[-1,-14],[-5,-15],[3,-15],[-6,-13],[-14,-9],[-9,-5],[-7,-2],[-15,-14],[-13,-48],[-3,-28],[3,-25],[-19,-16],[-14,-12],[-8,5],[-9,4],[-21,5],[-11,4],[-21,8],[-34,10],[-33,12],[-21,6],[-16,5],[-13,9],[-10,14],[-10,-6],[-10,-17],[-16,-10],[-7,-19],[-7,-15],[-16,-20],[-8,-8],[-32,-13],[-8,-4],[-26,-3],[-9,-6],[-10,-12],[-2,-13],[7,-12],[10,-26],[5,-18],[7,-35],[23,-110],[-7,-19],[-7,-83],[1,-15],[0,-23],[0,-17],[5,-4],[6,-6],[3,-10],[0,-15],[-4,-11],[-5,-22],[-6,-32],[-7,-13],[-5,-10],[-4,-6],[-1,-23],[-3,-15],[-11,-5],[-12,-9],[-13,3],[-12,-1],[-15,-6],[-26,-7],[-15,-9],[-8,-7],[-5,-7],[-1,-8],[4,-4],[15,-3],[10,-14],[1,-16],[-10,-8]],[[3282,431],[-6,9],[-8,3],[-17,14],[-11,15],[-9,17],[0,35],[-1,5],[-17,7],[-5,11],[-7,5],[-11,-3],[-8,3],[-7,6],[-8,1],[-7,-9],[-3,-20],[-11,-33],[-1,-19],[-5,-28],[-5,-36],[-4,-8],[-13,-1],[-4,-2],[-7,-12],[-8,-2],[-7,7],[-11,7],[-11,1],[-9,-7],[-11,-16],[-7,-12],[-2,-12],[-2,-14],[-11,-14],[-10,-7],[-21,-21],[-7,-8],[-15,0],[-17,1],[-22,-6],[-37,-3],[-21,4],[-27,-3],[-21,-7],[-3,-10],[1,-15],[4,-9],[5,-7],[9,-20],[9,-19],[14,-12],[5,-13],[1,-13],[-7,-15],[-10,-21],[-9,-12],[-7,0],[-11,8],[-7,9],[-17,3],[-42,-6],[-21,4],[-10,8],[-18,0],[-27,10],[-17,4],[-7,6],[-2,15],[-8,10],[-4,12],[-10,15],[-10,8],[-9,3],[-10,-9],[-11,-9],[-8,2],[-4,-2],[-5,-7],[-17,-14],[-4,-13],[-7,-27],[-5,-28],[-4,-10],[-7,-2],[-7,-8],[-16,-27],[-13,-24],[-20,-17],[-9,-15],[-5,-12]],[[861,2105],[-21,-6],[-5,5],[3,14],[-1,20],[-15,23],[-5,15],[13,18],[30,27],[30,38],[26,36],[19,20],[10,2],[3,-8],[-4,-13],[0,-15],[6,-11],[6,-2],[5,-3],[6,-10],[16,-4],[20,-2],[5,-9],[-13,-10],[-16,-1],[-10,7],[-9,0],[-7,-8],[-3,-12],[-37,-38],[-34,-43],[-3,-16],[-15,-14]],[[925,1856],[-4,7],[-5,8],[0,10],[7,17],[12,18],[13,13],[10,4],[7,-4],[7,-10],[5,-13],[-2,-11],[-9,-15],[-14,-15],[-14,-10],[-8,-4],[-4,1],[-1,4]],[[3697,1127],[-12,-30],[-23,-64],[-28,-27],[-18,-23],[-16,11],[-7,10],[1,6],[-13,13],[-19,19],[3,30],[5,32],[-17,29],[0,15],[-2,24],[12,20],[29,12],[31,0],[32,-9],[27,-18],[15,-23],[0,-27]],[[3137,0],[-4,40],[10,50],[-1,24],[-14,28],[1,28],[12,33],[22,26],[10,25],[14,26],[11,15],[21,14],[10,24],[14,9],[26,24],[20,-3],[13,-5],[9,8],[8,7],[19,54],[-23,37],[8,5],[35,-11],[14,3],[25,-5],[15,19],[9,21],[18,14],[23,48],[37,57],[13,15],[27,13],[7,-2],[6,-4],[-21,-31],[-5,-20],[14,0],[15,6],[37,35],[14,19],[5,-21],[-6,-98],[32,7],[18,-10],[24,1],[28,-23],[11,3],[13,1],[12,-24],[18,-7],[31,19],[47,18],[22,0],[55,33],[26,26],[98,69],[41,37],[15,11],[0,-688],[-959,0]],[[3697,1127],[-12,-30],[-23,-64],[-28,-27],[-18,-23],[-16,11],[-7,10],[1,6],[-13,13],[-19,19],[3,30],[5,32],[-17,29],[0,15],[-2,24],[12,20],[29,12],[31,0],[32,-9],[27,-18],[15,-23],[0,-27]],[[861,2105],[-21,-6],[-5,5],[3,14],[-1,20],[-15,23],[-5,15],[13,18],[30,27],[30,38],[26,36],[19,20],[10,2],[3,-8],[-4,-13],[0,-15],[6,-11],[6,-2],[5,-3],[6,-10],[16,-4],[20,-2],[5,-9],[-13,-10],[-16,-1],[-10,7],[-9,0],[-7,-8],[-3,-12],[-37,-38],[-34,-43],[-3,-16],[-15,-14]],[[925,1856],[-4,7],[-5,8],[0,10],[7,17],[12,18],[13,13],[10,4],[7,-4],[7,-10],[5,-13],[-2,-11],[-9,-15],[-14,-15],[-14,-10],[-8,-4],[-4,1],[-1,4]],[[3137,0],[-4,40],[10,50],[-1,24],[-14,28],[1,28],[12,33],[22,26],[10,25],[14,26],[11,15],[21,14],[10,24],[14,9],[26,24],[20,-3],[13,-5],[9,8],[8,7],[19,54],[-23,37],[8,5],[35,-11],[14,3],[25,-5],[15,19],[9,21],[18,14],[23,48],[37,57],[13,15],[27,13],[7,-2],[6,-4],[-21,-31],[-5,-20],[14,0],[15,6],[37,35],[14,19],[5,-21],[-6,-98],[32,7],[18,-10],[24,1],[28,-23],[11,3],[13,1],[12,-24],[18,-7],[31,19],[47,18],[22,0],[55,33],[26,26],[98,69],[41,37],[15,11]],[[4096,688],[-15,-11],[-41,-37],[-98,-69],[-26,-26],[-55,-33],[-22,0],[-47,-18],[-31,-19],[-18,7],[-12,24],[-13,-1],[-11,-3],[-28,23],[-24,-1],[-18,10],[-32,-7],[6,98],[-5,21],[-14,-19],[-37,-35],[-15,-6],[-14,0],[5,20],[21,31],[-6,4],[-7,2],[-27,-13],[-13,-15],[-37,-57],[-23,-48],[-18,-14],[-9,-21],[-15,-19],[-25,5],[-14,-3],[-35,11],[-8,-5],[23,-37],[-19,-54],[-8,-7],[-9,-8],[-13,5],[-20,3],[-26,-24],[-14,-9],[-10,-24],[-21,-14],[-11,-15],[-14,-26],[-10,-25],[-22,-26],[-12,-33],[-1,-28],[14,-28],[1,-24],[-10,-50],[4,-40],[-3137,0],[0,4096],[4096,0],[0,-3408]],[[3321,2087],[54,33],[31,-37],[-54,-19],[-31,23]],[[55,2711],[14,53],[86,38],[32,-12],[-25,-24],[27,-19],[-19,-22],[-55,1],[-17,-33],[-43,18]],[[2948,3141],[4,15],[137,24],[-19,-100],[-109,33],[-13,28]],[[122,3386],[35,68],[32,11],[3,-57],[-70,-22]],[[3860,545],[37,114],[52,-26],[-25,-47],[13,-29],[-32,-25],[2,20],[-47,-7]],[[2589,3639],[19,44],[60,-25],[8,-30],[43,-21],[-5,-39],[-53,-2],[-9,37],[-63,36]],[[54,2712],[8,45],[94,46],[48,-31],[-6,-83],[-52,46],[-50,-44],[-42,21]],[[563,2484],[22,16],[-21,18],[54,15],[1,48],[42,-1],[14,-45],[-94,-70],[-18,19]],[[3938,3016],[43,140],[21,22],[21,-14],[-20,-27],[17,-62],[76,9],[-3,-143],[-30,-17],[-60,43],[-42,-15],[-23,64]],[[487,2502],[43,-9],[-6,45],[41,17],[-18,-23],[35,-32],[-13,-12],[-28,-13],[-54,27]],[[3354,4096],[5,-18],[-41,18],[36,0]],[[3659,2735],[26,30],[68,-33],[40,-35],[-14,-57],[-63,9],[-57,86]],[[126,8],[-13,-6],[-14,6],[13,21],[14,-21]],[[2045,57],[-23,11],[16,46],[44,-11],[-37,-46]],[[1569,52],[21,-12],[-21,-21],[-14,38],[14,-5]],[[2006,33],[-20,2],[-8,29],[20,-7],[8,-24]],[[1747,71],[14,-28],[-19,-14],[-34,39],[39,3]],[[1250,61],[3,29],[18,-1],[-6,-21],[-15,-7]],[[1950,50],[-13,14],[11,-38],[-46,-14],[-9,31],[41,53],[44,-32],[-28,-14]],[[2510,233],[-12,-31],[-62,3],[23,32],[51,-4]],[[2565,301],[-2,-33],[-37,-17],[-4,14],[43,36]],[[1661,293],[20,9],[17,5],[-25,-42],[-12,28]],[[1219,303],[26,-3],[-20,-28],[-10,17],[4,14]],[[1157,353],[12,28],[21,-7],[-44,-49],[11,28]],[[2013,219],[-44,-42],[-16,56],[33,24],[36,-17],[-9,-21]],[[2110,229],[-2,-6],[-77,3],[19,35],[55,11],[5,-43]],[[3526,586],[14,34],[19,-25],[-19,-9],[-14,0]],[[2355,806],[-17,-24],[-27,7],[19,36],[25,-19]],[[3110,1015],[17,30],[10,-42],[-31,-24],[4,36]],[[2577,789],[-30,-11],[-2,53],[41,-32],[-9,-10]],[[2237,1141],[2,24],[10,-1],[2,-34],[-14,11]],[[3340,1165],[14,21],[-30,18],[9,16],[62,-6],[10,-32],[-65,-17]],[[2612,1305],[-28,-35],[-37,35],[14,36],[32,7],[19,-43]],[[3384,1334],[-19,-21],[-30,10],[0,18],[49,-7]],[[2285,1531],[-22,14],[-19,-45],[1,65],[34,25],[65,-95],[-59,36]],[[3405,1590],[2,-34],[-12,-22],[-4,60],[14,-4]],[[3275,1622],[-21,-26],[-23,22],[13,11],[31,-7]],[[2972,1882],[23,4],[-2,-25],[-32,7],[11,14]],[[1309,2280],[1,13],[28,0],[-14,-28],[-15,15]],[[2105,1762],[-12,-18],[-18,-3],[7,32],[23,-11]],[[3257,1787],[-6,-40],[-24,-20],[0,39],[30,21]],[[1051,2511],[-53,7],[2,39],[51,-21],[0,-25]],[[2720,2577],[17,7],[13,-6],[-15,-23],[-15,22]],[[188,3097],[12,-52],[-55,3],[-5,14],[48,35]],[[3233,2225],[40,55],[45,-16],[-40,-72],[-45,33]],[[3175,3168],[20,26],[-16,45],[57,102],[81,-147],[-142,-26]],[[3626,1999],[49,49],[44,-51],[-62,-51],[-31,53]],[[3587,3598],[63,45],[94,-4],[-1,-46],[-137,-20],[-19,25]],[[3289,2369],[13,33],[21,-18],[32,23],[19,-57],[-38,-12],[-47,31]],[[402,2630],[90,6],[40,-23],[-89,-23],[-41,40]],[[3403,453],[10,35],[56,-5],[-6,-50],[-55,-3],[-5,23]],[[3700,2199],[23,83],[19,-2],[41,-51],[-19,-59],[-64,29]],[[3908,693],[25,57],[60,13],[-20,-33],[9,-74],[-42,43],[-32,-6]],[[3992,2764],[57,75],[20,-27],[27,5],[-1,-162],[-57,-8],[5,55],[-51,62]]]}