{"objects":{"water":{"type":"GeometryCollection","geometries":[{"type":"Polygon","properties":{"source":"naturalearthdata.com","kind":"playa","name":"Lake Disappointment","area":1418822016,"sort_rank":200,"min_zoom":0.0,"id":24},"arcs":[[0]]},{"type":"MultiPolygon","properties":{"source":"naturalearthdata.com","kind":"ocean","area":1444195503964160,"sort_rank":200,"min_zoom":0.0,"id":1},"arcs":[[[1]],[[2],[3]]]},{"type":"Polygon","properties":{"source":"naturalearthdata.com","kind":"playa","name":"Lake Mackay","area":4391392768,"sort_rank":200,"min_zoom":0.0,"id":25},"arcs":[[4]]},{"type":"Polygon","properties":{"source":"naturalearthdata.com","kind":"playa","name":"Lake Barlee","area":3209378048,"sort_rank":200,"min_zoom":0.0,"id":11},"arcs":[[5]]},{"type":"Point","properties":{"label_placement":true,"kind":"playa","name":"Lake Mackay","area":4391392768,"sort_rank":200,"source":"naturalearthdata.com","min_zoom":0.0,"id":25},"coordinates":[2972,4011]},{"type":"Point","properties":{"label_placement":true,"kind":"playa","name":"Lake Barlee","area":3209378048,"sort_rank":200,"source":"naturalearthdata.com","min_zoom":0.0,"id":11},"coordinates":[1228,2529]},{"type":"Point","properties":{"label_placement":true,"kind":"playa","name":"Lake Disappointment","area":1418822016,"sort_rank":200,"source":"naturalearthdata.com","min_zoom":0.0,"id":24},"coordinates":[1872,3760]},{"type":"MultiLineString","properties":{"source":"naturalearthdata.com","kind":"ocean","sort_rank":205,"boundary":true,"min_zoom":0.0,"id":7},"arcs":[[6],[7],[8]]},{"type":"LineString","properties":{"source":"naturalearthdata.com","kind":"playa","sort_rank":367,"boundary":true,"min_zoom":0.0,"id":11},"arcs":[9]},{"type":"LineString","properties":{"source":"naturalearthdata.com","kind":"playa","sort_rank":367,"boundary":true,"min_zoom":0.0,"id":24},"arcs":[10]},{"type":"LineString","properties":{"source":"naturalearthdata.com","kind":"playa","sort_rank":367,"boundary":true,"min_zoom":0.0,"id":25},"arcs":[11]},{"type":"LineString","properties":{"source":"naturalearthdata.com","kind":"ocean","sort_rank":205,"boundary":true,"min_zoom":0.0,"id":462},"arcs":[12]}]},"buildings":{"type":"GeometryCollection","geometries":[]},"places":{"type":"GeometryCollection","geometries":[{"type":"Point","properties":{"name:pt":"Austr\u00e1lia","old_name:vi":"\u00dac \u0110\u1ea1i L\u1ee3i","name:cy":"Awstralia","name:ko":"\uc624\uc2a4\ud2b8\ub808\uc77c\ub9ac\uc544","name:kn":"\u0c86\u0cb8\u0ccd\u0c9f\u0ccd\u0cb0\u0cc7\u0cb2\u0cbf\u0caf","name:km":"\u17a2\u17bc\u179f\u17d2\u178f\u17d2\u179a\u17b6\u179b\u17b8","name:cs":"Austr\u00e1lie","name:tr":"Avustralya","name:ku":"Awistralya","name:ti":"\u12a0\u12cd\u1235\u1275\u122c\u120a\u12eb","name:ks":"\u0622\u0633\u0679\u0631\u06cc\u0644\u0650\u06cc\u0627","name:to":"\u02bbAositel\u0113lia","name:sv":"Australien","name:or":"\u0b05\u0b37\u0b4d\u0b1f\u0b4d\u0b30\u0b47\u0b32\u0b3f\u0b06","name:ta":"\u0b86\u0bb8\u0bcd\u0ba4\u0bbf\u0bb0\u0bc7\u0bb2\u0bbf\u0baf\u0bbe","name:tg":"\u0410\u0432\u0441\u0442\u0440\u0430\u043b\u0438\u044f","name:ca":"Austr\u00e0lia","name:te":"\u0c06\u0c38\u0c4d\u0c1f\u0c4d\u0c30\u0c47\u0c32\u0c3f\u0c2f\u0c3e","name:vi":"\u00dac","name:hu":"Ausztr\u00e1lia","name:ka":"\u10d0\u10d5\u10e1\u10e2\u10e0\u10d0\u10da\u10d8\u10d0","name:hr":"Australija","name:da":"Australien","name:de":"Australien","name:dz":"\u0f68\u0f71\u0f7c\u0f66\u0f0b\u0f4a\u0fb2\u0f7a\u0f63\u0f0b\u0f63\u0f72\u0f0b\u0f61","source":"openstreetmap.org","name:iu":"\u140a\u1505\u1466\u154c\u14d5\u140a \/ astraalia","name:lv":"Austr\u0101lija","name:lt":"Australija","name:uz":"Avstraliya","name:kk":"\u0410\u0432\u0441\u0442\u0440\u0430\u043b\u0438\u044f","name:he":"\u05d0\u05d5\u05e1\u05d8\u05e8\u05dc\u05d9\u05d4","kind":"country","name:ur":"\u0622\u0633\u0679\u0631\u06cc\u0644\u06cc\u0627","name:lb":"Australien","name:lg":"Awusitureliya","name:uk":"\u0410\u0432\u0441\u0442\u0440\u0430\u043b\u0456\u044f","name:hy":"\u0531\u057e\u057d\u057f\u0580\u0561\u056c\u056b\u0561","min_zoom":2.0,"name:li":"Australi\u00eb","name:ln":"Osit\u00e1li","name:lo":"\u0ead\u0ead\u0e94\u0eaa\u0eb0\u0ec0\u0e95\u0ec0\u0ea5\u0e8d","population":20600856,"name:el":"\u0391\u03c5\u03c3\u03c4\u03c1\u03b1\u03bb\u03af\u03b1","name:eo":"A\u016dstralio","name":"Australia","name:ee":"Australia nutome","name:th":"\u0e1b\u0e23\u0e30\u0e40\u0e17\u0e28\u0e2d\u0e2d\u0e2a\u0e40\u0e15\u0e23\u0e40\u0e25\u0e35\u0e22","name:gu":"\u0a91\u0ab8\u0acd\u0a9f\u0acd\u0ab0\u0ac7\u0ab2\u0abf\u0aaf\u0abe","name:et":"Austraalia","name:nl":"Australi\u00eb","name:yo":"Or\u00edl\u1eb9\u0301\u00e8de \u00c1str\u00e0l\u00ec\u00e1","name:mt":"Awstralja","name:rn":"Ositaraliya","name:az":"Avstraliya","name:mr":"\u0911\u0938\u094d\u091f\u094d\u0930\u0947\u0932\u093f\u092f\u093e","name:ar":"\u0623\u0633\u062a\u0631\u0627\u0644\u064a\u0627","name:my":"\u1029\u1005\u1010\u103c\u1031\u1038\u101c\u103b\u103e\u102c\u1038","official_name":"Commonwealth of Australia","name:is":"\u00c1stral\u00eda","name:am":"\u12a0\u12cd\u1235\u1275\u122c\u120a\u12eb","name:ml":"\u0d13\u0d38\u0d4d\u0d1f\u0d4d\u0d30\u0d47\u0d32\u0d3f\u0d2f","name:ru":"\u0410\u0432\u0441\u0442\u0440\u0430\u043b\u0438\u044f","name:mn":"\u0410\u0432\u0441\u0442\u0440\u0430\u043b\u0438","name:mi":"Ahitereiria","id":424315584,"name:mk":"\u0410\u0432\u0441\u0442\u0440\u0430\u043b\u0438\u0458\u0430","name:af":"Australi\u00eb","name:zu":"i-Australia","name:ha":"Ostareliya","name:ff":"Ostaraalii","name:hi":"\u0911\u0938\u094d\u091f\u094d\u0930\u0947\u0932\u093f\u092f\u093e","name:mg":"Aostralia","name:fo":"Avstralia","name:fr":"Australie","name:fy":"Austraalje","name:vo":"Laustral\u00e4n","name:zh":"\u6fb3\u5927\u5229\u4e9a","name:so":"Awstaraaliya","name:sl":"Avstralija","name:sk":"Austr\u00e1lia","name:ja":"\u30aa\u30fc\u30b9\u30c8\u30e9\u30ea\u30a2","name:si":"\u0d95\u0dc3\u0dca\u0da7\u0dca\u200d\u0dbb\u0dda\u0dbd\u0dd2\u0dba\u0dcf\u0dc0","name:fa":"\u0627\u0633\u062a\u0631\u0627\u0644\u06cc\u0627","name:sg":"Ostral\u00efi, Sotral\u00efi","name:se":"Austr\u00e1lia","name:ne":"\u0905\u0937\u094d\u091f\u094d\u0930\u0947\u0932\u093f\u092f\u093e","name:br":"Aostralia","name:bs":"Australija","name:bm":"Ositirali","name:bn":"\u0985\u09b8\u09cd\u099f\u09cd\u09b0\u09c7\u09b2\u09bf\u09af\u09bc\u09be","name:bo":"\u0f68\u0f66\u0f9f\u0fb2\u0f7a\u0f0b\u0f63\u0f72\u0f0b\u0f61\u0f0d","name:be":"\u0410\u045e\u0441\u0442\u0440\u0430\u043b\u0456\u044f","name:bg":"\u0410\u0432\u0441\u0442\u0440\u0430\u043b\u0438\u044f","name:sr":"\u0410\u0443\u0441\u0442\u0440\u0430\u043b\u0438\u0458\u0430","name:sq":"Australi","name:ga":"An Astr\u00e1il","name:gd":"Astr\u00e0ilia","name:gv":"Yn Austrail","name:ak":"\u0186strelia"},"coordinates":[4051,3486]},{"type":"Point","properties":{"source":"naturalearthdata.com","kind":"locality","name":"Perth","population":1532000,"region_capital":true,"min_zoom":4.0,"id":7221},"coordinates":[608,1942]},{"type":"Point","properties":{"name:pt":"Austr\u00e1lia Ocidental","name:ro":"Australia de Vest","name:nl":"West-Australi\u00eb","name:ja":"\u897f\u30aa\u30fc\u30b9\u30c8\u30e9\u30ea\u30a2","name:lt":"Vakar\u0173 Australija","name:he":"\u05d0\u05d5\u05e1\u05d8\u05e8\u05dc\u05d9\u05d4 \u05d4\u05de\u05e2\u05e8\u05d1\u05d9\u05ea","name:cs":"Z\u00e1padn\u00ed Austr\u00e1lie","kind":"region","name:lb":"Westaustralien","min_zoom":4.0,"name:la":"Australia Occidentalis","name:sk":"Z\u00e1padn\u00e1 Austr\u00e1lia","name:it":"Australia Occidentale","name:uk":"\u0417\u0430\u0445\u0456\u0434\u043d\u0430 \u0410\u0432\u0441\u0442\u0440\u0430\u043b\u0456\u044f","name:ru":"\u0417\u0430\u043f\u0430\u0434\u043d\u0430\u044f \u0410\u0432\u0441\u0442\u0440\u0430\u043b\u0438\u044f","name:vi":"T\u00e2y \u00dac","name:pl":"Australia Zachodnia","name:hu":"Nyugat-Ausztr\u00e1lia","id":304951005,"name:af":"Wes-Australi\u00eb","name:eo":"Okcidenta A\u016dstralio","name":"Western Australia","kind_detail":"state","name:de":"Westaustralien","source":"openstreetmap.org","name:fr":"Australie occidentale","name:et":"L\u00e4\u00e4ne-Austraalia","name:be":"\u0417\u0430\u0445\u043e\u0434\u043d\u044f\u044f \u0410\u045e\u0441\u0442\u0440\u0430\u043b\u0456\u044f","name:vo":"Ves\u00fcda-Laustral\u00e4n","name:zh":"\u897f\u6fb3\u5927\u5229\u4e9a\u5dde","name:es":"Australia Occidental"},"coordinates":[1551,3389]}]},"transit":{"type":"GeometryCollection","geometries":[]},"pois":{"type":"GeometryCollection","geometries":[]},"boundaries":{"type":"GeometryCollection","geometries":[]},"roads":{"type":"GeometryCollection","geometries":[]},"earth":{"type":"GeometryCollection","geometries":[{"type":"MultiPolygon","properties":{"sort_rank":10,"source":"naturalearthdata.com","min_zoom":0.0,"kind":"earth","area":5814644535001},"arcs":[[[13]],[[14]]]}]},"landuse":{"type":"GeometryCollection","geometries":[{"type":"Polygon","properties":{"kind":"park","name":"Tallaringa Conservation Park","area":16610100224,"sort_rank":24,"operator":"Department of Environment, Water and Natural Resources (South Australia)","source":"openstreetmap.org","min_zoom":4.0,"tier":2,"id":-6195202,"osm_relation":true},"arcs":[[15]]},{"type":"Polygon","properties":{"kind":"park","name":"Nullarbor Regional Reserve","area":26268899328,"sort_rank":24,"operator":"Department of Environment, Water and Natural Resources (South Australia)","source":"openstreetmap.org","min_zoom":4.0,"tier":2,"id":-6196945,"osm_relation":true,"protect_class":"VI"},"arcs":[[16]]},{"type":"Polygon","properties":{"kind":"national_park","name":"D'Entrecasteaux National Park","area":1939739367,"sort_rank":18,"operator":"WA-Department of Parks and Wildlife (DPaW)","source":"openstreetmap.org","min_zoom":3.0,"tier":1,"osm_relation":true,"protect_class":"2"},"arcs":[[17]]},{"type":"Polygon","properties":{"kind":"nature_reserve","name":"Shark Bay","area":18685900800,"sort_rank":23,"source":"openstreetmap.org","min_zoom":4.0,"tier":2,"id":-2475496,"osm_relation":true},"arcs":[[18]]},{"type":"MultiPolygon","properties":{"kind":"park","name":"Lake Gairdner National Park","area":1592029952,"sort_rank":24,"operator":"Department of Environment, Water and Natural Resources (South Australia)","source":"openstreetmap.org","min_zoom":4.0,"tier":2,"id":-1204236,"osm_relation":true,"protect_class":"VI"},"arcs":[[[19]]]},{"type":"Polygon","properties":{"kind":"park","name":"Karlamilyi National Park","area":15468800000,"sort_rank":24,"source":"openstreetmap.org","min_zoom":4.0,"tier":2,"id":333428572},"arcs":[[20]]},{"type":"Polygon","properties":{"kind":"park","name":"Yellabinna Regional Reserve","area":27509499904,"sort_rank":24,"operator":"Department of Environment, Water and Natural Resources (South Australia)","source":"openstreetmap.org","min_zoom":4.0,"tier":2,"id":-6195423,"osm_relation":true},"arcs":[[21]]},{"type":"Polygon","properties":{"kind":"national_park","name":"West MacDonnell National Park","area":2453189888,"sort_rank":18,"source":"openstreetmap.org","min_zoom":3.0,"tier":1,"id":-5611722,"osm_relation":true,"protect_class":"2"},"arcs":[[22],[23],[24]]},{"type":"Polygon","properties":{"kind":"park","name":"Nullarbor Wilderness Area","area":11633899520,"sort_rank":24,"operator":"Department of Environment, Water and Natural Resources (South Australia)","source":"openstreetmap.org","min_zoom":4.0,"tier":2,"id":-6196953,"osm_relation":true,"protect_class":"1b"},"arcs":[[25]]},{"type":"Polygon","properties":{"kind":"park","name":"Kennedy Range National Park","area":1725779968,"sort_rank":24,"source":"openstreetmap.org","min_zoom":4.0,"tier":2,"id":424470416},"arcs":[[26]]},{"type":"Polygon","properties":{"kind":"protected_area","name":"Maralinga Tjarutja","area":139804999680,"sort_rank":17,"operator":"Council of Maralinga Tjarutja","source":"openstreetmap.org","min_zoom":4.0,"tier":2,"id":-6799756,"osm_relation":true,"protect_class":"24"},"arcs":[[27],[28]]},{"type":"MultiPolygon","properties":{"kind":"park","name":"Karijini National Park","area":6475214544,"sort_rank":24,"source":"openstreetmap.org","min_zoom":4.0,"tier":2,"osm_relation":true},"arcs":[[[29]],[[30]]]},{"type":"Polygon","properties":{"kind":"nature_reserve","name":"Jigalong Aboriginal Reserve","area":2955810048,"sort_rank":23,"source":"openstreetmap.org","min_zoom":4.0,"tier":2,"id":427007020},"arcs":[[31]]},{"type":"MultiPolygon","properties":{"source":"naturalearthdata.com","kind":"urban_area","name":"","area":4137196785,"sort_rank":11,"min_zoom":4.0},"arcs":[[[32]]]},{"type":"Polygon","properties":{"kind":"park","name":"Great Australian Bight Marine National Park","area":1269080064,"sort_rank":24,"operator":"Department of Environment, Water and Natural Resources (South Australia)","source":"openstreetmap.org","min_zoom":4.0,"tier":2,"id":-540817,"osm_relation":true,"protect_class":"II"},"arcs":[[33]]},{"type":"Polygon","properties":{"kind":"protected_area","name":"Ningaloo Coast","area":1272850048,"sort_rank":17,"source":"openstreetmap.org","min_zoom":4.0,"tier":2,"id":-4455266,"osm_relation":true},"arcs":[[34]]},{"type":"Polygon","properties":{"kind":"nature_reserve","name":"Gibson Desert Nature Reserve","area":22701600768,"sort_rank":23,"source":"openstreetmap.org","min_zoom":4.0,"tier":2,"id":353342897},"arcs":[[35]]},{"type":"Polygon","properties":{"kind":"park","name":"Pureba Conservation Park","area":3150259968,"sort_rank":24,"operator":"Department of Environment, Water and Natural Resources (South Australia)","source":"openstreetmap.org","min_zoom":4.0,"tier":2,"id":-540816,"osm_relation":true},"arcs":[[36]]},{"type":"Polygon","properties":{"kind":"park","name":"Yumbarra Conservation Park","area":4517250048,"sort_rank":24,"operator":"Department of Environment, Water and Natural Resources (South Australia)","source":"openstreetmap.org","min_zoom":4.0,"tier":2,"id":-6198702,"osm_relation":true},"arcs":[[37]]},{"type":"Polygon","properties":{"kind":"park","name":"Kalbarri National Park","area":2413870080,"sort_rank":24,"source":"openstreetmap.org","min_zoom":4.0,"tier":2,"id":194071706},"arcs":[[38]]},{"type":"Polygon","properties":{"kind":"park","name":"Mamungari Conservation Park","area":27901999104,"sort_rank":24,"source":"openstreetmap.org","min_zoom":4.0,"tier":2,"id":-6386456,"osm_relation":true,"protect_class":"1"},"arcs":[[39]]},{"type":"Polygon","properties":{"kind":"park","name":"Collier Range National Park","area":2858510080,"sort_rank":24,"source":"openstreetmap.org","min_zoom":4.0,"tier":2,"id":425879098},"arcs":[[40]]},{"type":"MultiPolygon","properties":{"kind":"national_park","protect_class":"2","area":1231016178,"sort_rank":18,"operator":"WA_Department of Parks and Wildlife (DPaW)","source":"openstreetmap.org","min_zoom":3.0,"tier":1,"osm_relation":true,"name":"Stirling Range National Park"},"arcs":[[[41]],[[42]]]},{"type":"Polygon","properties":{"kind":"protected_area","name":"Anangu Pitjantjatjara Yankunytjatjara","area":129201390592,"sort_rank":17,"source":"openstreetmap.org","min_zoom":4.0,"tier":2,"osm_relation":true,"protect_class":"24"},"arcs":[[43]]},{"type":"Polygon","properties":{"kind":"park","name":"Yellabinna WIlderness Protection Area","area":6877550080,"sort_rank":24,"operator":"Department of Environment, Water and Natural Resources (South Australia)","source":"openstreetmap.org","min_zoom":4.0,"tier":2,"id":-6195453,"osm_relation":true,"protect_class":"Ib"},"arcs":[[44]]}]}},"type":"Topology","transform":{"translate":[112.5,-40.9798980696],"scale":[0.0054931641,0.0046476691]},"arcs":[[[1879,3721],[-10,5],[-23,27],[-6,15],[16,31],[1,11],[10,2],[22,2],[10,-5],[3,-34],[-4,-34],[-9,-15],[-10,-5]],[[383,4096],[-34,-68],[-7,-18],[-14,-18],[-18,-6],[-11,-6],[4,34],[-13,31],[8,51],[85,0]],[[265,4096],[-29,-84],[-21,-65],[16,-38],[5,-22],[0,-24],[-6,-33],[1,-22],[-2,-29],[-37,-68],[-12,-30],[-12,-56],[-2,-26],[1,-39],[16,-35],[12,-21],[18,-61],[22,-40],[37,-82],[40,-66],[3,-25],[-5,-34],[2,-35],[-7,-11],[-15,-12],[-18,16],[-9,13],[-12,50],[-5,3],[-7,-22],[-9,-9],[-7,6],[-6,8],[-2,9],[3,10],[3,38],[-17,21],[-15,23],[-16,5],[-10,-10],[0,-14],[21,-40],[14,-43],[22,-27],[12,-7],[14,-16],[-3,-37],[-10,-13],[-8,-7],[-28,8],[-6,26],[-22,51],[-7,20],[-6,6],[-3,-10],[1,-18],[-4,-7],[-4,0],[-9,10],[-8,5],[-4,-2],[8,-13],[19,-38],[68,-92],[58,-108],[13,-42],[6,-93],[6,-23],[34,-46],[34,-53],[10,-27],[0,-22],[6,-22],[42,-58],[19,-63],[2,-23],[-5,-39],[4,-69],[5,-37],[15,-74],[18,-53],[22,-33],[29,-74],[44,-84],[7,-42],[-2,-110],[-3,-36],[-10,-6],[-6,-15],[9,-72],[2,-42],[-14,-38],[-16,-34],[-29,-24],[-32,0],[-15,13],[-19,14],[-3,-62],[-1,-53],[6,-20],[1,-24],[21,-19],[13,7],[15,1],[52,-26],[29,-21],[48,-58],[42,-15],[54,-27],[64,-8],[50,-2],[80,-13],[17,5],[34,4],[26,9],[24,6],[70,53],[68,56],[34,4],[30,1],[37,19],[34,57],[17,13],[23,14],[64,9],[38,-6],[21,9],[52,10],[107,10],[59,-8],[40,2],[21,-4],[16,-25],[114,21],[32,2],[21,-4],[25,-19],[29,18],[26,-2],[26,17],[40,52],[18,32],[28,68],[22,25],[23,12],[28,4],[43,12],[92,58],[36,12],[19,11],[64,45],[39,9],[117,-12],[56,3],[43,7],[65,25],[71,18],[87,38],[73,40],[44,9],[69,7],[102,11],[119,-6],[30,9],[15,7],[21,8],[26,-6],[19,-6],[60,-32],[90,-66],[20,-3],[59,15],[20,-1],[83,-49],[34,-1],[27,1],[21,-5],[22,-14],[26,-30],[56,-30],[2,-24],[-4,-15],[-12,-1],[-11,-3],[14,-50],[23,-40],[56,-5],[20,-14],[13,-16],[10,-25],[8,-39],[20,-23],[0,-1559],[-4096,0],[0,4096],[265,0]],[[120,3203],[4,9],[-6,17],[-3,4],[0,15],[-6,15],[-21,63],[-7,-2],[-7,-8],[11,-46],[35,-67]],[[2931,3944],[-39,11],[-13,23],[5,19],[16,7],[9,6],[22,7],[35,19],[21,22],[5,12],[12,12],[24,1],[15,-7],[-3,-10],[-23,-20],[-2,-21],[15,-13],[14,-7],[-1,-11],[-10,-7],[-11,-10],[-14,-14],[-23,-20],[-14,-5],[-40,6]],[[1329,2469],[-3,-16],[-10,0],[-17,6],[5,9],[5,12],[-4,14],[-6,11],[5,13],[1,14],[-7,6],[-9,-1],[-6,-6],[-1,-35],[-5,-27],[-13,-11],[-11,3],[10,66],[-11,4],[-9,-4],[-23,-25],[-11,15],[-2,36],[18,5],[15,17],[16,4],[27,-14],[19,7],[11,19],[9,11],[17,-3],[15,4],[12,-10],[-2,-11],[-8,-1],[-13,9],[-29,-27],[-6,-11],[12,-38],[7,-17],[6,-8],[-4,-20]],[[3107,2012],[-69,-7],[-44,-9],[-73,-40],[-87,-38],[-71,-18],[-65,-25],[-43,-7],[-56,-3],[-117,12],[-39,-9],[-64,-45],[-19,-11],[-36,-12],[-92,-58],[-43,-12],[-28,-4],[-23,-12],[-22,-25],[-28,-68],[-18,-32],[-40,-52],[-26,-17],[-26,2],[-29,-18],[-25,19],[-21,4],[-32,-2],[-114,-21],[-16,25],[-21,4],[-40,-2],[-59,8],[-107,-10],[-52,-10],[-21,-9],[-38,6],[-64,-9],[-23,-14],[-17,-13],[-34,-57],[-37,-19],[-30,-1],[-34,-4],[-68,-56],[-70,-53],[-24,-6],[-26,-9],[-34,-4],[-17,-5],[-80,13],[-50,2],[-64,8],[-54,27],[-42,15],[-48,58],[-29,21],[-52,26],[-15,-1],[-13,-7],[-21,19],[-1,24],[-6,20],[1,53],[3,62],[19,-14],[15,-13],[32,0],[29,24],[16,34],[14,38],[-2,42],[-9,72],[6,15],[10,6],[3,36],[2,110],[-7,42],[-44,84],[-29,74],[-22,33],[-18,53],[-15,74],[-5,37],[-4,69],[5,39],[-2,23],[-19,63],[-42,58],[-6,22],[0,22],[-10,27],[-34,53],[-34,46],[-6,23],[-6,93],[-13,42],[-58,108],[-68,92],[-19,38],[-8,13],[4,2],[8,-5],[9,-10],[4,0],[4,7],[-1,18],[3,10],[6,-6],[7,-20],[22,-51],[6,-26],[28,-8],[8,7],[10,13],[3,37],[-14,16],[-12,7],[-22,27],[-14,43],[-21,40],[0,14],[10,10],[16,-5],[15,-23],[17,-21],[-3,-38],[-3,-10],[2,-9],[6,-8],[7,-6],[9,9],[7,22],[5,-3],[12,-50],[9,-13],[18,-16],[15,12],[7,11],[-2,35],[5,34],[-3,25],[-40,66],[-37,82],[-22,40],[-18,61],[-12,21],[-16,35],[-1,39],[2,26],[12,56],[12,30],[37,68],[2,29],[-1,22],[6,33],[0,24],[-5,22],[-16,38],[21,65],[29,84]],[[298,4096],[-8,-51],[13,-31],[-4,-34],[11,6],[18,6],[14,18],[7,18],[34,68]],[[4096,1559],[-20,23],[-8,39],[-10,25],[-13,16],[-20,14],[-56,5],[-23,40],[-14,50],[11,3],[12,1],[4,15],[-2,24],[-56,30],[-26,30],[-22,14],[-21,5],[-27,-1],[-34,1],[-83,49],[-20,1],[-59,-15],[-20,3],[-90,66],[-60,32],[-19,6],[-26,6],[-21,-8],[-15,-7],[-30,-9],[-119,6],[-102,-11]],[[1329,2469],[-3,-16],[-10,0],[-17,6],[5,9],[5,12],[-4,14],[-6,11],[5,13],[1,14],[-7,6],[-9,-1],[-6,-6],[-1,-35],[-5,-27],[-13,-11],[-11,3],[10,66],[-11,4],[-9,-4],[-23,-25],[-11,15],[-2,36],[18,5],[15,17],[16,4],[27,-14],[19,7],[11,19],[9,11],[17,-3],[15,4],[12,-10],[-2,-11],[-8,-1],[-13,9],[-29,-27],[-6,-11],[12,-38],[7,-17],[6,-8],[-4,-20]],[[1879,3721],[-10,5],[-23,27],[-6,15],[16,31],[1,11],[10,2],[22,2],[10,-5],[3,-34],[-4,-34],[-9,-15],[-10,-5]],[[2931,3944],[-39,11],[-13,23],[5,19],[16,7],[9,6],[22,7],[35,19],[21,22],[5,12],[12,12],[24,1],[15,-7],[-3,-10],[-23,-20],[-2,-21],[15,-13],[14,-7],[-1,-11],[-10,-7],[-11,-10],[-14,-14],[-23,-20],[-14,-5],[-40,6]],[[115,3248],[-6,15],[-21,63],[-7,-2],[-7,-8],[11,-46],[35,-67],[4,9],[-6,17],[-3,4],[0,15]],[[124,3212],[-4,-9],[-35,67],[-11,46],[7,8],[7,2],[21,-63],[6,-15],[0,-15],[3,-4],[6,-17]],[[4096,4096],[0,-2537],[-20,23],[-8,39],[-10,25],[-13,16],[-20,14],[-56,5],[-23,40],[-14,50],[11,3],[12,1],[4,15],[-2,24],[-56,30],[-26,30],[-22,14],[-21,5],[-27,-1],[-34,1],[-83,49],[-20,1],[-59,-15],[-20,3],[-90,66],[-60,32],[-19,6],[-26,6],[-21,-8],[-15,-7],[-30,-9],[-119,6],[-102,-11],[-69,-7],[-44,-9],[-73,-40],[-87,-38],[-71,-18],[-65,-25],[-43,-7],[-56,-3],[-117,12],[-39,-9],[-64,-45],[-19,-11],[-36,-12],[-92,-58],[-43,-12],[-28,-4],[-23,-12],[-22,-25],[-28,-68],[-18,-32],[-40,-52],[-26,-17],[-26,2],[-29,-18],[-25,19],[-21,4],[-32,-2],[-114,-21],[-16,25],[-21,4],[-40,-2],[-59,8],[-107,-10],[-52,-10],[-21,-9],[-38,6],[-64,-9],[-23,-14],[-17,-13],[-34,-57],[-37,-19],[-30,-1],[-34,-4],[-68,-56],[-70,-53],[-24,-6],[-26,-9],[-34,-4],[-17,-5],[-80,13],[-50,2],[-64,8],[-54,27],[-42,15],[-48,58],[-29,21],[-52,26],[-15,-1],[-13,-7],[-21,19],[-1,24],[-6,20],[1,53],[3,62],[19,-14],[15,-13],[32,0],[29,24],[16,34],[14,38],[-2,42],[-9,72],[6,15],[10,6],[3,36],[2,110],[-7,42],[-44,84],[-29,74],[-22,33],[-18,53],[-15,74],[-5,37],[-4,69],[5,39],[-2,23],[-19,63],[-42,58],[-6,22],[0,22],[-10,27],[-34,53],[-34,46],[-6,23],[-6,93],[-13,42],[-58,108],[-68,92],[-19,38],[-8,13],[4,2],[8,-5],[9,-10],[4,0],[4,7],[-1,18],[3,10],[6,-6],[7,-20],[22,-51],[6,-26],[28,-8],[8,7],[10,13],[3,37],[-14,16],[-12,7],[-22,27],[-14,43],[-21,40],[0,14],[10,10],[16,-5],[15,-23],[17,-21],[-3,-38],[-3,-10],[2,-9],[6,-8],[7,-6],[9,9],[7,22],[5,-3],[12,-50],[9,-13],[18,-16],[15,12],[7,11],[-2,35],[5,34],[-3,25],[-40,66],[-37,82],[-22,40],[-18,61],[-12,21],[-16,35],[-1,39],[2,26],[12,56],[12,30],[37,68],[2,29],[-1,22],[6,33],[0,24],[-5,22],[-16,38],[21,65],[29,84],[33,0],[-8,-51],[13,-31],[-4,-34],[11,6],[18,6],[14,18],[7,18],[34,68],[3713,0]],[[3731,2768],[153,9],[0,-312],[-152,15],[-1,288]],[[3004,2197],[517,67],[44,-64],[1,-112],[-218,-2],[3,67],[-171,0],[-5,-75],[-171,0],[0,119]],[[646,1323],[0,1],[-9,-3],[-60,77],[20,14],[56,-64],[-1,-1],[-1,-1],[-1,0],[-1,0],[-1,-1],[-1,0],[0,-1],[-1,1],[-3,0],[-1,0],[-1,0],[-1,0],[-1,0],[-1,0],[-1,1],[-1,0],[-7,-1],[1,-2],[17,1],[7,4],[-1,-4],[4,10],[2,-5],[7,-14],[4,0],[-4,1],[-6,12],[7,3],[5,-8],[-2,-15],[30,-5],[14,-7],[11,-9],[-19,-7],[32,12],[11,-27],[-24,-2],[-79,40]],[[86,3335],[34,156],[46,58],[113,-247],[45,-49],[-11,-108],[-24,-23],[-21,27],[-17,86],[-9,-46],[-9,-12],[-14,3],[10,68],[-45,82],[-18,-48],[31,-79],[19,-27],[27,-13],[9,-19],[-13,-52],[-27,-13],[-6,45],[-7,-11],[3,-21],[-3,-6],[-42,134],[4,-44],[-15,44],[-6,-49],[-20,21],[14,12],[-48,131]],[[4043,2033],[18,36],[35,-10],[-10,-57],[-20,25],[12,27],[-35,-21]],[[1664,4013],[59,0],[21,-28],[113,111],[116,0],[-2,-119],[-57,-74],[-250,2],[0,108]],[[3521,2264],[327,-27],[-19,-43],[-45,-18],[0,-82],[88,-4],[0,-25],[103,0],[0,83],[-52,0],[-18,25],[0,-29],[-30,0],[0,32],[132,1],[31,-53],[-24,-104],[12,-59],[-90,0],[0,68],[-236,1],[0,58],[-63,0],[0,-55],[-68,0],[-4,167],[-44,64]],[[3601,3716],[40,10],[-21,65],[26,-36],[118,-27],[128,5],[-12,-20],[-279,3]],[[3672,3725],[2,-6],[4,-1],[1,6],[-7,1]],[[3651,3733],[10,-7],[1,14],[-7,-2],[-4,-5]],[[3004,2070],[171,2],[5,81],[171,0],[6,-88],[-57,-36],[-272,-24],[-24,5],[0,60]],[[440,3532],[14,70],[28,-11],[-4,-134],[-24,-1],[6,58],[-20,18]],[[3004,2768],[727,0],[3,-422],[18,-33],[-19,-73],[-273,19],[6,7],[10,22],[0,5],[-16,-34],[-362,-49],[-1,3],[-8,5],[-4,7],[-12,14],[-18,10],[-22,6],[-9,61],[-16,11],[24,-73],[65,-43],[-93,-13],[0,570]],[[3449,2319],[10,0],[0,85],[-10,0],[0,-85]],[[983,3951],[136,-70],[-12,-51],[-106,-9],[26,72],[-44,30],[0,28]],[[1016,3960],[5,0],[-1,9],[4,2],[1,2],[3,6],[11,7],[12,11],[0,2],[-23,-19],[-3,-7],[-5,-4],[-1,-2],[0,-5],[-3,0],[-24,62],[79,3],[56,-24],[7,-28],[-99,-14],[56,1],[16,-62],[-53,20],[-38,40]],[[1421,3705],[3,64],[36,23],[44,-18],[18,32],[-17,-47],[43,0],[0,-47],[-127,-7]],[[606,1874],[-18,-10],[-6,135],[67,-35],[-7,-66],[-35,0],[-1,-24]],[[3004,1999],[210,24],[107,-6],[-317,-29],[0,11]],[[203,3945],[55,151],[8,0],[-56,-137],[31,-80],[-12,-36],[7,-39],[-3,-38],[-4,-9],[-5,93],[8,33],[-29,62]],[[2212,3352],[1,215],[305,-3],[-33,-50],[33,0],[0,-165],[-306,3]],[[3887,1939],[6,19],[133,3],[44,-111],[-158,97],[-25,-8]],[[3731,2030],[205,-1],[0,-71],[-205,27],[0,45]],[[292,2825],[30,29],[-2,60],[80,-32],[-27,-75],[-81,18]],[[3004,2768],[364,0],[0,-136],[-273,0],[0,-305],[-91,0],[0,441]],[[1124,3492],[0,49],[105,-22],[7,43],[71,-11],[-18,-37],[-59,-11],[-10,-40],[-31,29],[-65,0]],[[1013,1399],[23,34],[37,0],[-13,-36],[-47,2]],[[942,1415],[6,21],[78,-12],[-41,-25],[-43,16]],[[3004,3223],[748,0],[-12,-136],[58,-18],[1,-1],[0,1],[69,0],[-19,-91],[-27,-1],[-20,49],[11,-139],[42,0],[0,-60],[-58,0],[0,-59],[-793,0],[0,455]],[[3784,2176],[78,60],[0,-49],[28,0],[-15,-43],[30,0],[0,29],[18,-25],[52,0],[0,-83],[-191,29],[0,82]]]}