{"objects":{"water":{"type":"GeometryCollection","geometries":[{"type":"Polygon","properties":{"source":"naturalearthdata.com","kind":"lake","name":"Lac Mai-Ndombe","area":2007383808,"sort_rank":200,"min_zoom":0.0,"id":702},"arcs":[[472]]},{"type":"Polygon","properties":{"source":"naturalearthdata.com","kind":"ocean","area":1576712559132672,"sort_rank":200,"min_zoom":0.0,"id":1},"arcs":[[473],[474]]},{"type":"Polygon","properties":{"source":"naturalearthdata.com","kind":"lake","name":"Lac Tumba","area":737009536,"sort_rank":200,"min_zoom":0.0,"id":566},"arcs":[[475]]},{"type":"Point","properties":{"label_placement":true,"kind":"lake","name":"Lac Mai-Ndombe","area":2007383808,"sort_rank":200,"source":"naturalearthdata.com","min_zoom":0.0,"id":702},"coordinates":[2587,3314]},{"type":"Point","properties":{"label_placement":true,"kind":"lake","name":"Lac Tumba","area":737009536,"sort_rank":200,"source":"naturalearthdata.com","min_zoom":0.0,"id":566},"coordinates":[2465,3796]},{"type":"LineString","properties":{"source":"naturalearthdata.com","kind":"ocean","sort_rank":205,"boundary":true,"min_zoom":0.0,"id":44},"arcs":[476]},{"type":"LineString","properties":{"source":"naturalearthdata.com","kind":"ocean","sort_rank":205,"boundary":true,"min_zoom":0.0,"id":47},"arcs":[477]},{"type":"LineString","properties":{"source":"naturalearthdata.com","kind":"lake","sort_rank":367,"boundary":true,"min_zoom":0.0,"id":566},"arcs":[478]},{"type":"LineString","properties":{"source":"naturalearthdata.com","kind":"lake","sort_rank":367,"boundary":true,"min_zoom":0.0,"id":702},"arcs":[479]},{"type":"LineString","properties":{"source":"naturalearthdata.com","kind":"ocean","sort_rank":205,"boundary":true,"min_zoom":0.0,"id":1385},"arcs":[480]}]},"buildings":{"type":"GeometryCollection","geometries":[]},"places":{"type":"GeometryCollection","geometries":[{"type":"Point","properties":{"name:kg":"Repubilika ya Kongo","name:ka":"\u10d9\u10dd\u10dc\u10d2\u10dd","name:ko":"\ucf69\uace0 \uacf5\ud654\uad6d","name:cv":"\u041a\u043e\u043d\u0433\u043e \u0420\u0435\u0441\u043f\u0443\u0431\u043b\u0438\u043a\u0438","name:km":"\u1780\u17bb\u1784\u17a0\u17d2\u1782\u17c4 [\u179f\u1792\u17b6\u179a\u178e\u17c8\u179a\u178a\u17d2\u178b]","name:kl":"Kongo-Brazzaville","name:cs":"Republika Kongo","name:ki":"Kongo","name:kw":"Repoblek Kongo","name:tk":"Kongo Respublikasy","name:ku":"Komara Kongoy\u00ea","name:ti":"\u12ae\u1295\u1310","name:ks":"\u06a9\u0648\u0646\u065b\u06af\u0648 \u0628\u0654\u0631\u065b\u0632\u0627\u0648\u0650\u0644\u06cc","name:to":"Lipapilika Kongo","name:tl":"Republika ng Konggo","name:ce":"\u0420\u0435\u0441\u043f\u0443\u0431\u043b\u0438\u043a\u0430 \u041a\u043e\u043d\u0433\u043e","name:ta":"\u0b95\u0bbe\u0b99\u0bcd\u0b95\u0bcb [\u0b95\u0bc1\u0b9f\u0bbf\u0baf\u0bb0\u0b9a\u0bc1]","name:tg":"\u04b6\u0443\u043c\u04b3\u04ef\u0440\u0438\u0438 \u041a\u043e\u043d\u0433\u043e","name:ca":"Rep\u00fablica del Congo","name:te":"\u0c15\u0c3e\u0c02\u0c17\u0c4b[\u0c17\u0c23\u0c30\u0c3e\u0c1c\u0c4d\u0c2f\u0c02]","name:cy":"Gweriniaeth y Congo","name:hr":"Republika Kongo","name:da":"Republikken Congo","name:de":"Republik Kongo","name:dz":"\u0f62\u0f72\u0f0b\u0f54\u0f56\u0f0b\u0f63\u0f72\u0f40\u0f0b \u0f68\u0f7c\u0f55\u0f0b \u0f40\u0f7c\u0f44\u0f0b\u0f42\u0fb7\u0f7c","source":"openstreetmap.org","name:kn":"\u0c95\u0ccb\u0c82\u0c97\u0ccb [\u0c97\u0ca3\u0cb0\u0cbe\u0c9c\u0ccd\u0caf]","name:dv":"\u0786\u07ae\u0782\u07b0\u078e\u07af (\u0796\u07aa\u0789\u07b0\u0780\u07ab\u0783\u07a8\u0787\u07b0\u0794\u07a7)","name:lv":"Kongo","name:lt":"Kongo Respublika","name:uz":"Kongo Respublikasi","name:kk":"\u041a\u043e\u043d\u0433\u043e \u0420\u0435\u0441\u043f\u0443\u0431\u043b\u0438\u043a\u0430\u0441\u044b","name:ur":"\u06a9\u0627\u0646\u06af\u0648 [\u062c\u0645\u06c1\u0648\u0631\u06cc\u06c1]","name:lb":"Republik Kongo","name:la":"Respublica Congensis","name:lg":"Kongo","name:uk":"\u0420\u0435\u0441\u043f\u0443\u0431\u043b\u0456\u043a\u0430 \u041a\u043e\u043d\u0433\u043e","name:ug":"\u0643\u0648\u0646\u06af\u0648 \u062c\u06c7\u0645\u06be\u06c7\u0631\u0649\u064a\u0649\u062a\u0649","name:li":"Rippebliek vaan de Kongo","name:ln":"Republiki ya Kong\u00f3","name:lo":"\u0e84\u0ead\u0e87\u0ec2\u0e81","name:el":"\u0394\u03b7\u03bc\u03bf\u03ba\u03c1\u03b1\u03c4\u03af\u03b1 \u03c4\u03bf\u03c5 \u039a\u03bf\u03bd\u03b3\u03ba\u03cc","name:eo":"Respubliko Kongo","name:en":"Republic of the Congo","name":"R\u00e9publique du Congo","name:ee":"Kongo rep\u0254blik nutome","name:th":"\u0e2a\u0e32\u0e18\u0e32\u0e23\u0e13\u0e23\u0e31\u0e10\u0e04\u0e2d\u0e07\u0e42\u0e01","name:eu":"Kongo [errepublika]","name:et":"Kongo Vabariik","name:es":"Rep\u00fablica del Congo","name:ia":"Congo","name:rm":"Congo","name:rn":"Kongo","name:az":"Konqo - Brazavil","name:ie":"Republic de Congo","name:id":"Republik Kongo","name:ar":"\u062c\u0645\u0647\u0648\u0631\u064a\u0629 \u0627\u0644\u0643\u0648\u0646\u063a\u0648 \u0627\u0644\u062f\u064a\u0645\u0642\u0631\u0627\u0637\u064a\u0629","name:io":"Republiko Kongo","name:ak":"Kongo","name:am":"\u12ae\u1295\u130e (\u122a\u1350\u1265\u120a\u12ad)","name:it":"Repubblica del Congo","name:an":"Republica d'o Congo","name:ru":"\u041a\u043e\u043d\u0433\u043e","name:rw":"Kongo","name:af":"Republiek van die Kongo","name:zu":"e-Congo [Republic]","name:zh-yue":"\u525b\u679c","name:zh":"\u521a\u679c\u5171\u548c\u56fd","name:so":"Kongo","name:sn":"Kongo","name:sl":"Kongo","name:sk":"Republika Kongo","name:ja":"\u30b3\u30f3\u30b4\u5171\u548c\u56fd","name:si":"\u0d9a\u0ddc\u0d82\u0d9c\u0ddd\u0dc0","name:sh":"Republika Kongo","name:sg":"Kong\u00f6","name:se":"Kongo-Brazzaville","name:sc":"Rep\u00f9brica de su Congo","name:br":"Republik Kongo","name:bs":"Republika Kongo","name:bm":"Kongo","name:bn":"\u0995\u0999\u09cd\u0997\u09cb [\u09aa\u09cd\u09b0\u099c\u09be\u09a4\u09a8\u09cd\u09a4\u09cd\u09b0]","name:bo":"\u0f40\u0f7c\u0f44\u0f0b\u0f42\u0f7c\u0f0b\u0f66\u0fa4\u0fb1\u0f72\u0f0b\u0f58\u0f50\u0f74\u0f53\u0f0b\u0f62\u0f92\u0fb1\u0f63\u0f0b\u0f41\u0f56\u0f0d","name:sw":"Kongo [Jamhuri ya]","name:be":"\u0420\u044d\u0441\u043f\u0443\u0431\u043b\u0456\u043a\u0430 \u041a\u043e\u043d\u0433\u0430","name:su":"R\u00e9publik Kongo","name:bg":"\u041a\u043e\u043d\u0433\u043e [\u0420\u0435\u043f\u0443\u0431\u043b\u0438\u043a\u0430]","name:ss":"Tibuse weKhongo","name:ba":"\u0420\u0435\u0441\u043f\u0443\u0431\u043b\u0438\u043a\u0430 \u041a\u043e\u043d\u0433\u043e","name:sq":"Kongo","name:jv":"Republik Kongo","name:pt":"Congo","name:ps":"\u062f \u06a9\u0627\u0646\u06ab\u0648 \u062c\u0645\u0647\u0648\u0631\u064a\u062a","name:oc":"Republica de C\u00f2ngo","min_zoom":2.0,"name:ro":"Republica Congo","name:zh-min-nan":"Congo Ki\u014dng-h\u00f4-kok","name:os":"\u041a\u043e\u043d\u0433\u043e\u0439\u044b \u0420\u0435\u0441\u043f\u0443\u0431\u043b\u0438\u043a\u00e6","name:or":"\u0b15\u0b19\u0b4d\u0b17\u0b4b-\u0b2c\u0b4d\u0b30\u0b3e\u0b1c\u0b3f\u0b2d\u0b3f\u0b32\u0b4d\u0b32\u0b47","name:pl":"Kongo","name:sr":"\u0420\u0435\u043f\u0443\u0431\u043b\u0438\u043a\u0430 \u041a\u043e\u043d\u0433\u043e","name:pa":"\u0a15\u0a3e\u0a02\u0a17\u0a4b \u0a17\u0a23\u0a30\u0a3e\u0a1c","name:tr":"Kongo Cumhuriyeti","name:hi":"\u0915\u093e\u0902\u0917\u094b \u0917\u0923\u0930\u093e\u091c\u094d\u092f","name:sv":"Kongo","name:he":"\u05e7\u05d5\u05e0\u05d2\u05d5","name:ha":"Kongo","name:hy":"\u053f\u0578\u0576\u0563\u0578","name:ht":"Kongo (Brazavil)","name:hu":"Kong\u00f3","name:qu":"Kungu Republika","population":3999000,"kind":"country","name:ts":"Riphabliki ya Congo","name:is":"Vestur-Kong\u00f3","name:yi":"\u05e8\u05e2\u05e4\u05d5\u05d1\u05dc\u05d9\u05e7 \u05e4\u05d5\u05df \u05e7\u05d0\u05e0\u05d2\u05d0","name:yo":"Or\u00edl\u1eb9\u0301\u00e8de K\u00f3ng\u00f2","name:mt":"Kongo","alt_name:eo":"Kongo Brazavila","name:ms":"Congo [Republik]","name:mr":"\u0915\u093e\u0901\u0917\u094b [\u092a\u094d\u0930\u091c\u093e\u0938\u0924\u094d\u0924\u093e\u0915]","name:my":"\u1000\u103d\u1014\u103a\u1002\u102d\u102f\u101e\u1019\u1039\u1019\u1010\u1014\u102d\u102f\u1004\u103a\u1004\u1036","int_name":"Republic of the Congo","name:mg":"K\u00f4ng\u00f4","name:ml":"\u0d15\u0d4b\u0d02\u0d17\u0d4b [\u0d31\u0d3f\u0d2a\u0d4d\u0d2a\u0d2c\u0d4d\u0d32\u0d3f\u0d15\u0d4d\u0d15\u0d4d]","name:vi":"C\u1ed9ng h\u00f2a Congo","name:mn":"\u0411\u04af\u0433\u0434 \u041d\u0430\u0439\u0440\u0430\u043c\u0434\u0430\u0445 \u041a\u043e\u043d\u0433\u043e","id":432425063,"name:mk":"\u041a\u043e\u043d\u0433\u043e [\u0420\u0435\u043f\u0443\u0431\u043b\u0438\u043a\u0430]","name:vo":"Kongo\u00e4n (Rep\u00fcblik\u00e4n)","name:fa":"\u062c\u0645\u0647\u0648\u0631\u06cc \u06a9\u0646\u06af\u0648","name:ff":"Konngo","name:fi":"Kongon tasavalta","name:fo":"Kongo-Brazzaville","name:fy":"Republyk de Kongo","name:nl":"Republiek Congo","name:nn":"Kongo-Brazzaville","name:no":"Republikken Kongo","name:na":"Ripubrikin Kongo","name:ne":"\u0915\u0919\u094d\u0917\u094b [\u0917\u0923\u0924\u0928\u094d\u0924\u094d\u0930]","name:wo":"Kong\u00f3o-Brasaawiil","name:nv":"K\u00e9yah K\u00e1ango N\u00e1hook\u01ebsj\u00ed Si\u02bc\u00e1n\u00edg\u00ed\u00ed","name:ga":"Poblacht an Chong\u00f3","name:gd":"A' Chongo","name:gl":"Congo [Rep\u00fablica]","name:gv":"Pobblaght ny Congo","name:gu":"\u0a95\u0acb\u0a82\u0a97\u0acb [\u0aaa\u0acd\u0ab0\u0a9c\u0abe\u0ab8\u0aa4\u0acd\u0aa4\u0abe\u0a95]","name:tt":"\u041a\u043e\u043d\u0433\u043e \u0496\u04e9\u043c\u04bb\u04af\u0440\u0438\u044f\u0442\u0435"},"coordinates":[1599,3830]},{"type":"Point","properties":{"name:kg":"Ngabu","name:pt":"Gab\u00e3o","name:ps":"\u06ab\u0627\u0628\u0646","name:ka":"\u10d2\u10d0\u10d1\u10dd\u10dc\u10d8","name:ko":"\uac00\ubd09","name:cv":"\u0413\u0430\u0431\u043e\u043d","name:km":"\u17a0\u17d2\u1782\u17b6\u1794\u17bb\u1784","name:kk":"\u0413\u0430\u0431\u043e\u043d","name:ki":"Gaboni","name:th":"\u0e1b\u0e23\u0e30\u0e40\u0e17\u0e28\u0e01\u0e32\u0e1a\u0e2d\u0e07","name:ti":"\u130b\u1266\u1295","name:ks":"\u06af\u06cc\u0628\u0627\u0646","name:to":"Kaponi","name:pa":"\u0a17\u0a2c\u0a3e\u0a28","name:os":"\u0413\u0430\u0431\u043e\u043d","name:or":"\u0b17\u0b3e\u0b2c\u0b4b\u0b28\u0b4d","name:ce":"\u0413\u0430\u0431\u043e\u043d","name:ta":"\u0b95\u0bc7\u0baa\u0bbe\u0ba9\u0bcd","name:tg":"\u0413\u0430\u0431\u043e\u043d","name:te":"\u0c17\u0c47\u0c2c\u0c28\u0c4d","name:qu":"Gabun","name:de":"Gabun","name:dz":"\u0f42\u0fb7\u0f0b\u0f56\u0fb7\u0f7c\u0f53","source":"openstreetmap.org","name:nv":"Gab\u01eb\u0301\u01eb\u0301","name:kn":"\u0c97\u0cc6\u0cac\u0cca\u0ca8\u0ccd","name:dv":"\u078e\u07ac\u0784\u07af\u0782\u07b0","name:lv":"Gabona","name:lt":"Gabonas","name:hi":"\u0917\u0948\u092c\u0949\u0928","name:he":"\u05d2\u05d1\u05d5\u05df","kind":"country","name:ur":"\u06af\u06cc\u0628\u0648\u0646","name:lb":"Gabun","name:la":"Gabonia","name:lg":"Gaboni","name:uk":"\u0413\u0430\u0431\u043e\u043d","name:hy":"\u0533\u0561\u0562\u0578\u0576","name:ug":"\u06af\u0627\u0628\u0648\u0646","name:ln":"Gab\u0254","name:lo":"\u0e81\u0eb2\u0e9a\u0ec9\u0ead\u0e99","population":1576665,"name:el":"\u0393\u03ba\u03b1\u03bc\u03c0\u03cc\u03bd","name:eo":"Gabono","name:ts":"Gaboni","name":"Gabon","name:ee":"Gab\u0254n nutome","min_zoom":2.0,"name:yi":"\u05d2\u05d0\u05d1\u05d0\u05df","name:es":"Gab\u00f3n","name:ml":"\u0d17\u0d3e\u0d2c\u0d4b\u0d7a","name:rm":"Gabun","name:rn":"Gabo","name:az":"Qabon","name:mr":"\u0917\u0945\u092c\u0949\u0928","name:ar":"\u063a\u0627\u0628\u0648\u0646","name:my":"\u1002\u102b\u1018\u103d\u1014\u103a\u1014\u102d\u102f\u1004\u103a\u1004\u1036","official_name":"R\u00e9publique Gabonaise","name:ak":"Gab\u0254n","name:am":"\u130b\u1266\u1295","name:an":"Gab\u00f3n","name:ru":"\u0413\u0430\u0431\u043e\u043d","name:mn":"\u0413\u0430\u0431\u043e\u043d","id":424311252,"name:mk":"\u0413\u0430\u0431\u043e\u043d","name:af":"Gaboen","name:zu":"i-Gabon","name:ff":"Gaboo","name:zh-yue":"\u52a0\u84ec","name:vo":"Gabun\u00e4n","name:zh":"\u52a0\u84ec","name:so":"Gaaboon","name:sr":"\u0413\u0430\u0431\u043e\u043d","name:ja":"\u30ac\u30dc\u30f3","name:si":"\u0d9c\u0dd0\u0db6\u0ddc\u0db1\u0dca","name:fa":"\u06af\u0627\u0628\u0646","name:sg":"Gab\u00f6on","name:na":"Gabun","name:sc":"Gab\u00f2n","name:ne":"\u0917\u093e\u0935\u094b\u0928","name:sa":"\u0917\u093e\u092c\u094b\u0928","name:bm":"Gab\u0254\u014b","name:bn":"\u0997\u09cd\u09af\u09be\u09ac\u09a8","name:bo":"\u0f42\u0f7a\u0f0b\u0f56\u0f7d\u0f53\u0f0d","name:sw":"Gaboni","name:be":"\u0413\u0430\u0431\u043e\u043d","name:bg":"\u0413\u0430\u0431\u043e\u043d","name:ss":"IGabhoni","name:ba":"\u0413\u0430\u0431\u043e\u043d","name:sq":"Gjabon","name:ga":"An Ghab\u00fain","name:wo":"Gabo\u014b","name:gl":"Gab\u00f3n","name:yo":"Or\u00edl\u1eb9\u0301\u00e8de Gabon","name:gu":"\u0a97\u0ac7\u0aac\u0aa8","name:tt":"\u0413\u0430\u0431\u043e\u043d"},"coordinates":[160,3766]},{"type":"Point","properties":{"source":"naturalearthdata.com","kind":"locality","name":"Kinshasa","country_capital":true,"population":7843000,"min_zoom":3.0,"id":7249},"coordinates":[1479,2510]},{"type":"Point","properties":{"source":"naturalearthdata.com","kind":"locality","name":"Luanda","country_capital":true,"population":5172900,"min_zoom":4.0,"id":7218},"coordinates":[722,858]},{"type":"Point","properties":{"kind":"region","name":"Luanda","kind_detail":"state","source":"openstreetmap.org","min_zoom":4.0,"name:uk":"\u041b\u0443\u0430\u043d\u0434\u0430","name:ru":"\u041b\u0443\u0430\u043d\u0434\u0430","id":2702989733},"coordinates":[743,824]},{"type":"Point","properties":{"kind":"region","name":"Cuanza Sul","kind_detail":"state","source":"openstreetmap.org","min_zoom":4.0,"name:uk":"\u041f\u0456\u0432\u0434\u0435\u043d\u043d\u0430 \u041a\u0432\u0430\u043d\u0437\u0430","name:ru":"\u042e\u0436\u043d\u0430\u044f \u041a\u0432\u0430\u043d\u0437\u0430","name:pl":"Kwanza Po\u0142udniowa","id":2702989708},"coordinates":[1401,149]},{"type":"Point","properties":{"kind":"region","name":"Cuanza Norte","kind_detail":"state","source":"openstreetmap.org","min_zoom":4.0,"name:uk":"\u041f\u0456\u0432\u043d\u0456\u0447\u043d\u0430 \u041a\u0432\u0430\u043d\u0437\u0430","name:ru":"\u0421\u0435\u0432\u0435\u0440\u043d\u0430\u044f \u041a\u0432\u0430\u043d\u0437\u0430","name:pl":"Kwanza P\u00f3\u0142nocna","id":2702989703},"coordinates":[1319,831]},{"type":"Point","properties":{"kind":"region","name":"Malanje","kind_detail":"state","source":"openstreetmap.org","min_zoom":4.0,"name:uk":"\u041c\u0430\u043b\u0430\u043d\u0436\u0435","name:ru":"\u041c\u0430\u043b\u0430\u043d\u0436\u0435","id":2702989748},"coordinates":[2070,602]},{"type":"Point","properties":{"kind":"region","name":"Bengo","kind_detail":"state","source":"openstreetmap.org","min_zoom":4.0,"name:uk":"\u0411\u0435\u043d\u0433\u043e","name:ru":"\u0411\u0435\u043d\u0433\u043e","id":2702989678},"coordinates":[924,801]},{"type":"Point","properties":{"admin_level":"4","kind":"region","name":"Kouilou","source":"openstreetmap.org","kind_detail":"state","min_zoom":4.0,"id":4346448488},"coordinates":[1300,3783]},{"type":"Point","properties":{"admin_level":"4","kind":"region","name":"Cuvette","source":"openstreetmap.org","kind_detail":"state","min_zoom":4.0,"id":4353419567},"coordinates":[1788,3915]},{"type":"Point","properties":{"admin_level":"4","kind":"region","name":"Ogoou\u00e9-Lolo","source":"openstreetmap.org","kind_detail":"state","min_zoom":4.0,"id":4346466887},"coordinates":[453,3729]},{"type":"Point","properties":{"admin_level":"4","kind":"region","name":"Haut-Ogoou\u00e9","source":"openstreetmap.org","kind_detail":"state","min_zoom":4.0,"id":4868359907},"coordinates":[852,3495]},{"type":"Point","properties":{"admin_level":"4","kind":"region","name:en":"Central Kasai","name":"Kasa\u00ef Central","kind_detail":"state","name:de":"Zentralkasai","source":"openstreetmap.org","min_zoom":4.0,"id":4346272526},"coordinates":[3708,1932]},{"type":"Point","properties":{"admin_level":"4","kind":"region","name":"Kwilu","source":"openstreetmap.org","kind_detail":"state","min_zoom":4.0,"id":4346254742},"coordinates":[2765,2256]},{"type":"Point","properties":{"admin_level":"4","kind":"region","name:en":"Kasai","name":"Kasa\u00ef","kind_detail":"state","name:de":"Kasai","source":"openstreetmap.org","min_zoom":4.0,"name:ln":"Kasai","id":4346271167},"coordinates":[3704,2136]},{"type":"Point","properties":{"admin_level":"4","kind":"region","name":"Mai-Ndombe","source":"openstreetmap.org","kind_detail":"state","min_zoom":4.0,"id":4346260927},"coordinates":[2567,3390]},{"type":"Point","properties":{"admin_level":"4","kind":"region","name":"Tshuapa","source":"openstreetmap.org","kind_detail":"state","min_zoom":4.0,"id":4356278501},"coordinates":[4021,4034]},{"type":"Point","properties":{"kind":"region","name":"Lunda Sul","kind_detail":"state","source":"openstreetmap.org","min_zoom":4.0,"name:uk":"\u041f\u0456\u0432\u0434\u0435\u043d\u043d\u0430 \u041b\u0443\u043d\u0434\u0430","name:ru":"\u042e\u0436\u043d\u0430\u044f \u041b\u0443\u043d\u0434\u0430","name:pl":"Lunda Po\u0142udniowa","id":2702989744},"coordinates":[3547,378]},{"type":"Point","properties":{"kind":"region","name":"Lunda Norte","kind_detail":"state","source":"openstreetmap.org","min_zoom":4.0,"name:uk":"\u041f\u0456\u0432\u043d\u0456\u0447\u043d\u0430 \u041b\u0443\u043d\u0434\u0430","name:ru":"\u0421\u0435\u0432\u0435\u0440\u043d\u0430\u044f \u041b\u0443\u043d\u0434\u0430","name:pl":"Lunda P\u00f3\u0142nocna","id":2702989738},"coordinates":[3096,978]},{"type":"Point","properties":{"kind":"region","name":"Zaire","kind_detail":"state","source":"openstreetmap.org","min_zoom":4.0,"name:uk":"\u0417\u0430\u0457\u0440\u0435","name:ru":"\u0417\u0430\u0438\u0440\u0435","id":2702989806},"coordinates":[830,1644]},{"type":"Point","properties":{"admin_level":"4","kind":"region","name":"Kongo-Central","source":"openstreetmap.org","kind_detail":"state","min_zoom":4.0,"id":4346252160},"coordinates":[816,1965]},{"type":"Point","properties":{"kind":"region","name":"U\u00edge","kind_detail":"state","source":"openstreetmap.org","min_zoom":4.0,"name:uk":"\u0423\u0457\u0436\u0435","name:ru":"\u0423\u0438\u0436\u0435","id":2702989796},"coordinates":[1540,1549]},{"type":"Point","properties":{"admin_level":"4","kind":"region","name":"Pointe-Noire","source":"openstreetmap.org","kind_detail":"state","min_zoom":4.0,"id":4353425738},"coordinates":[219,2356]},{"type":"Point","properties":{"admin_level":"4","kind":"region","name":"Pool","source":"openstreetmap.org","kind_detail":"state","min_zoom":4.0,"id":4346447946},"coordinates":[1270,2497]},{"type":"Point","properties":{"admin_level":"4","kind":"region","name":"Brazzaville","source":"openstreetmap.org","kind_detail":"state","min_zoom":4.0,"id":4346376546},"coordinates":[1480,2532]},{"type":"Point","properties":{"admin_level":"4","kind":"region","name":"Kwango","source":"openstreetmap.org","kind_detail":"state","min_zoom":4.0,"id":4346252857},"coordinates":[2092,2335]},{"type":"Point","properties":{"kind":"region","name":"Cabinda","kind_detail":"state","name:eo":"Kabindo","source":"openstreetmap.org","min_zoom":4.0,"name:uk":"\u041a\u0430\u0431\u0456\u043d\u0434\u0430","name:ru":"\u041a\u0430\u0431\u0438\u043d\u0434\u0430","id":2702989692},"coordinates":[390,2243]},{"type":"Point","properties":{"admin_level":"4","kind":"region","name":"Kinshasa","source":"openstreetmap.org","kind_detail":"state","min_zoom":4.0,"id":4346249291},"coordinates":[1490,2513]},{"type":"Point","properties":{"admin_level":"4","kind":"region","name":"Niari","source":"openstreetmap.org","kind_detail":"state","min_zoom":4.0,"id":4353416372},"coordinates":[394,3091]},{"type":"Point","properties":{"admin_level":"4","kind":"region","name":"Plateaux","source":"openstreetmap.org","kind_detail":"state","min_zoom":4.0,"id":4353417307},"coordinates":[1389,3219]},{"type":"Point","properties":{"admin_level":"4","kind":"region","name":"L\u00e9koumou","source":"openstreetmap.org","kind_detail":"state","min_zoom":4.0,"id":4353417713},"coordinates":[820,2894]},{"type":"Point","properties":{"admin_level":"4","kind":"region","name":"Bouenza","source":"openstreetmap.org","kind_detail":"state","min_zoom":4.0,"id":4353418068},"coordinates":[782,2525]},{"type":"Point","properties":{"source":"naturalearthdata.com","kind":"locality","name":"Brazzaville","country_capital":true,"population":1355000,"min_zoom":5.0,"id":7007},"coordinates":[1468,2536]},{"type":"Point","properties":{"source":"naturalearthdata.com","kind":"locality","name":"Kananga","population":765000,"region_capital":true,"min_zoom":5.0,"id":6555},"coordinates":[4059,1938]},{"type":"Point","properties":{"source":"naturalearthdata.com","kind":"locality","name":"Pointe-Noire","population":659084,"min_zoom":5.0,"id":6641},"coordinates":[229,2348]},{"type":"Point","properties":{"source":"naturalearthdata.com","kind":"locality","name":"Kikwit","population":637736,"min_zoom":5.0,"id":6964},"coordinates":[2767,2253]},{"type":"Point","properties":{"source":"naturalearthdata.com","kind":"locality","name":"Matadi","population":245862,"region_capital":true,"min_zoom":5.0,"id":6965},"coordinates":[801,1965]},{"type":"Point","properties":{"source":"naturalearthdata.com","kind":"locality","name":"Malanje","population":125856,"region_capital":true,"min_zoom":5.0,"id":6711},"coordinates":[1853,600]},{"type":"Point","properties":{"source":"naturalearthdata.com","kind":"locality","name":"Bandundu","population":118211,"region_capital":true,"min_zoom":5.0,"id":6554},"coordinates":[2232,2883]},{"type":"Point","properties":{"source":"naturalearthdata.com","kind":"locality","name":"Kayes","population":62521,"min_zoom":5.0,"id":6579},"coordinates":[739,2564]},{"type":"Point","properties":{"source":"naturalearthdata.com","kind":"locality","name":"Franceville","population":42967,"region_capital":true,"min_zoom":5.0,"id":6580},"coordinates":[850,3498]}]},"transit":{"type":"GeometryCollection","geometries":[]},"pois":{"type":"GeometryCollection","geometries":[]},"boundaries":{"type":"GeometryCollection","geometries":[{"type":"MultiLineString","properties":{"source":"naturalearthdata.com","kind":"country","sort_rank":262,"kind_detail":"2","min_zoom":0.0,"id":276},"arcs":[[0],[1],[2],[3],[4],[5],[6],[7],[8],[9],[10],[11],[12],[13],[14],[15],[16],[17],[18],[19],[20],[21],[22],[23],[24],[25],[26],[27],[28],[29],[30],[31],[32],[33],[34],[35],[36],[37],[38],[39],[40],[41],[42],[43],[44]]},{"type":"MultiLineString","properties":{"source":"naturalearthdata.com","kind":"country","sort_rank":262,"kind_detail":"2","min_zoom":0.0,"id":374},"arcs":[[45],[46],[47],[48],[49],[50],[51],[52],[53],[54],[55],[56],[57],[58],[59],[60],[61],[62],[63],[64],[65],[66],[67],[68],[69],[70],[71],[72],[73],[74],[75],[76],[77],[78],[79],[80],[81],[82],[83],[84],[85],[86],[87],[88],[89],[90],[91],[92],[93],[94],[95],[96],[97]]},{"type":"LineString","properties":{"source":"naturalearthdata.com","kind":"country","sort_rank":262,"kind_detail":"2","min_zoom":0.0,"id":17},"arcs":[98]},{"type":"MultiLineString","properties":{"source":"naturalearthdata.com","kind":"country","sort_rank":262,"kind_detail":"2","min_zoom":0.0,"id":42},"arcs":[[99],[100],[101],[102],[103],[104],[105],[106],[107],[108],[109],[110],[111],[112],[113],[114],[115],[116],[117]]},{"type":"MultiLineString","properties":{"source":"naturalearthdata.com","kind":"country","sort_rank":262,"kind_detail":"2","min_zoom":0.0,"id":135},"arcs":[[118],[119],[120],[121],[122],[123],[124],[125]]},{"type":"MultiLineString","properties":{"source":"naturalearthdata.com","kind":"country","sort_rank":262,"kind_detail":"2","min_zoom":0.0,"id":385},"arcs":[[126],[127],[128],[129],[130]]},{"type":"LineString","properties":{"source":"naturalearthdata.com","kind":"region","sort_rank":256,"kind_detail":"4","min_zoom":5.5,"id":3970},"arcs":[131]},{"type":"LineString","properties":{"source":"naturalearthdata.com","kind":"region","sort_rank":256,"kind_detail":"4","min_zoom":5.5,"id":3984},"arcs":[132]},{"type":"LineString","properties":{"source":"naturalearthdata.com","kind":"region","sort_rank":256,"kind_detail":"4","min_zoom":5.0,"id":5087},"arcs":[133]},{"type":"MultiLineString","properties":{"source":"naturalearthdata.com","kind":"region","sort_rank":256,"kind_detail":"4","min_zoom":5.0,"id":5106},"arcs":[[134],[135],[136],[137],[138]]},{"type":"MultiLineString","properties":{"source":"naturalearthdata.com","kind":"region","sort_rank":256,"kind_detail":"4","min_zoom":5.0,"id":5112},"arcs":[[139],[140],[141]]},{"type":"MultiLineString","properties":{"source":"naturalearthdata.com","kind":"region","sort_rank":256,"kind_detail":"4","min_zoom":5.5,"id":7748},"arcs":[[142],[143],[144],[145],[146],[147],[148]]},{"type":"MultiLineString","properties":{"source":"naturalearthdata.com","kind":"region","sort_rank":256,"kind_detail":"4","min_zoom":5.5,"id":7755},"arcs":[[149],[150],[151],[152],[153],[154],[155],[156],[157]]},{"type":"LineString","properties":{"source":"naturalearthdata.com","kind":"region","sort_rank":256,"kind_detail":"4","min_zoom":5.0,"id":328},"arcs":[158]},{"type":"MultiLineString","properties":{"source":"naturalearthdata.com","kind":"region","sort_rank":256,"kind_detail":"4","min_zoom":5.5,"id":3977},"arcs":[[159],[160],[161],[162],[163]]},{"type":"LineString","properties":{"source":"naturalearthdata.com","kind":"region","sort_rank":256,"kind_detail":"4","min_zoom":5.5,"id":3975},"arcs":[164]},{"type":"LineString","properties":{"source":"naturalearthdata.com","kind":"region","sort_rank":256,"kind_detail":"4","min_zoom":5.5,"id":3976},"arcs":[165]},{"type":"LineString","properties":{"source":"naturalearthdata.com","kind":"region","sort_rank":256,"kind_detail":"4","min_zoom":5.5,"id":3980},"arcs":[166]},{"type":"MultiLineString","properties":{"source":"naturalearthdata.com","kind":"region","sort_rank":256,"kind_detail":"4","min_zoom":5.5,"id":3981},"arcs":[[167],[168],[169],[170],[171]]},{"type":"MultiLineString","properties":{"source":"naturalearthdata.com","kind":"region","sort_rank":256,"kind_detail":"4","min_zoom":5.5,"id":4398},"arcs":[[172],[173],[174],[175],[176],[177],[178]]},{"type":"MultiLineString","properties":{"source":"naturalearthdata.com","kind":"region","sort_rank":256,"kind_detail":"4","min_zoom":5.5,"id":4399},"arcs":[[179],[180],[181],[182],[183]]},{"type":"MultiLineString","properties":{"source":"naturalearthdata.com","kind":"region","sort_rank":256,"kind_detail":"4","min_zoom":5.5,"id":4401},"arcs":[[184],[185],[186]]},{"type":"LineString","properties":{"source":"naturalearthdata.com","kind":"region","sort_rank":256,"kind_detail":"4","min_zoom":5.5,"id":4402},"arcs":[187]},{"type":"MultiLineString","properties":{"source":"naturalearthdata.com","kind":"region","sort_rank":256,"kind_detail":"4","min_zoom":5.5,"id":4403},"arcs":[[188],[189],[190],[191],[192],[193],[194],[195],[196],[197],[198],[199],[200],[201],[202],[203],[204]]},{"type":"MultiLineString","properties":{"source":"naturalearthdata.com","kind":"region","sort_rank":256,"kind_detail":"4","min_zoom":5.5,"id":4411},"arcs":[[205],[206],[207],[208]]},{"type":"MultiLineString","properties":{"source":"naturalearthdata.com","kind":"region","sort_rank":256,"kind_detail":"4","min_zoom":5.5,"id":4412},"arcs":[[209],[210],[211],[212],[213],[214],[215]]},{"type":"MultiLineString","properties":{"source":"naturalearthdata.com","kind":"region","sort_rank":256,"kind_detail":"4","min_zoom":5.5,"id":4413},"arcs":[[216],[217],[218],[219],[220],[221],[222],[223],[224],[225],[226],[227],[228],[229],[230]]},{"type":"MultiLineString","properties":{"source":"naturalearthdata.com","kind":"region","sort_rank":256,"kind_detail":"4","min_zoom":5.5,"id":4417},"arcs":[[231],[232]]},{"type":"MultiLineString","properties":{"source":"naturalearthdata.com","kind":"region","sort_rank":256,"kind_detail":"4","min_zoom":5.0,"id":5084},"arcs":[[233],[234],[235],[236]]},{"type":"MultiLineString","properties":{"source":"naturalearthdata.com","kind":"region","sort_rank":256,"kind_detail":"4","min_zoom":5.0,"id":5083},"arcs":[[237],[238]]},{"type":"MultiLineString","properties":{"source":"naturalearthdata.com","kind":"region","sort_rank":256,"kind_detail":"4","min_zoom":5.0,"id":5108},"arcs":[[239],[240],[241],[242],[243],[244],[245]]},{"type":"MultiLineString","properties":{"source":"naturalearthdata.com","kind":"region","sort_rank":256,"kind_detail":"4","min_zoom":5.0,"id":5085},"arcs":[[246],[247],[248],[249],[250],[251],[252],[253],[254],[255],[256],[257],[258],[259],[260],[261]]},{"type":"MultiLineString","properties":{"source":"naturalearthdata.com","kind":"region","sort_rank":256,"kind_detail":"4","min_zoom":5.0,"id":5086},"arcs":[[262],[263],[264],[265],[266],[267]]},{"type":"MultiLineString","properties":{"source":"naturalearthdata.com","kind":"region","sort_rank":256,"kind_detail":"4","min_zoom":5.0,"id":5088},"arcs":[[268],[269],[270],[271],[272],[273],[274],[275],[276],[277],[278]]},{"type":"MultiLineString","properties":{"source":"naturalearthdata.com","kind":"region","sort_rank":256,"kind_detail":"4","min_zoom":5.0,"id":5089},"arcs":[[279],[280],[281],[282],[283],[284],[285],[286],[287],[288],[289],[290],[291],[292],[293],[294]]},{"type":"MultiLineString","properties":{"source":"naturalearthdata.com","kind":"region","sort_rank":256,"kind_detail":"4","min_zoom":5.0,"id":5090},"arcs":[[295],[296],[297],[298],[299],[300],[301]]},{"type":"MultiLineString","properties":{"source":"naturalearthdata.com","kind":"region","sort_rank":256,"kind_detail":"4","min_zoom":5.0,"id":5104},"arcs":[[302],[303],[304],[305],[306],[307],[308],[309],[310],[311],[312]]},{"type":"MultiLineString","properties":{"source":"naturalearthdata.com","kind":"region","sort_rank":256,"kind_detail":"4","min_zoom":5.0,"id":5111},"arcs":[[313],[314],[315],[316],[317],[318],[319],[320],[321]]},{"type":"MultiLineString","properties":{"source":"naturalearthdata.com","kind":"region","sort_rank":256,"kind_detail":"4","min_zoom":5.0,"id":5107},"arcs":[[322],[323],[324],[325],[326],[327],[328],[329],[330],[331],[332],[333],[334],[335],[336],[337],[338],[339],[340],[341],[342]]},{"type":"MultiLineString","properties":{"source":"naturalearthdata.com","kind":"region","sort_rank":256,"kind_detail":"4","min_zoom":5.0,"id":5113},"arcs":[[343],[344],[345],[346],[347],[348],[349],[350],[351],[352],[353],[354],[355],[356],[357]]},{"type":"MultiLineString","properties":{"source":"naturalearthdata.com","kind":"region","sort_rank":256,"kind_detail":"4","min_zoom":5.0,"id":5114},"arcs":[[358],[359],[360],[361],[362],[363],[364],[365],[366],[367],[368]]},{"type":"MultiLineString","properties":{"source":"naturalearthdata.com","kind":"region","sort_rank":256,"kind_detail":"4","min_zoom":5.0,"id":5115},"arcs":[[369],[370],[371],[372],[373],[374],[375]]},{"type":"MultiLineString","properties":{"source":"naturalearthdata.com","kind":"region","sort_rank":256,"kind_detail":"4","min_zoom":5.0,"id":5116},"arcs":[[376],[377],[378],[379],[380]]},{"type":"MultiLineString","properties":{"source":"naturalearthdata.com","kind":"region","sort_rank":256,"kind_detail":"4","min_zoom":5.5,"id":7749},"arcs":[[381],[382],[383]]},{"type":"MultiLineString","properties":{"source":"naturalearthdata.com","kind":"region","sort_rank":256,"kind_detail":"4","min_zoom":5.5,"id":7750},"arcs":[[384],[385],[386],[387],[388],[389],[390],[391],[392],[393],[394],[395],[396],[397],[398],[399],[400],[401],[402],[403],[404],[405]]},{"type":"MultiLineString","properties":{"source":"naturalearthdata.com","kind":"region","sort_rank":256,"kind_detail":"4","min_zoom":5.5,"id":7751},"arcs":[[406],[407],[408],[409],[410],[411],[412],[413],[414],[415],[416],[417],[418],[419],[420]]},{"type":"MultiLineString","properties":{"source":"naturalearthdata.com","kind":"region","sort_rank":256,"kind_detail":"4","min_zoom":5.5,"id":7753},"arcs":[[421],[422],[423],[424],[425],[426],[427]]},{"type":"LineString","properties":{"source":"naturalearthdata.com","kind":"region","sort_rank":256,"kind_detail":"4","min_zoom":5.5,"id":7754},"arcs":[428]},{"type":"MultiLineString","properties":{"source":"naturalearthdata.com","kind":"region","sort_rank":256,"kind_detail":"4","min_zoom":5.5,"id":7756},"arcs":[[429],[430],[431],[432],[433],[434],[435],[436],[437],[438],[439],[440],[441],[442],[443],[444],[445]]},{"type":"MultiLineString","properties":{"source":"naturalearthdata.com","kind":"region","sort_rank":256,"kind_detail":"4","min_zoom":5.5,"id":7759},"arcs":[[446],[447],[448],[449],[450]]},{"type":"MultiLineString","properties":{"source":"naturalearthdata.com","kind":"region","sort_rank":256,"kind_detail":"4","min_zoom":5.5,"id":7760},"arcs":[[451],[452],[453],[454],[455],[456],[457],[458],[459],[460],[461],[462],[463],[464],[465],[466]]},{"type":"MultiLineString","properties":{"source":"naturalearthdata.com","kind":"region","sort_rank":256,"kind_detail":"4","min_zoom":5.5,"id":7763},"arcs":[[467],[468],[469]]},{"type":"MultiLineString","properties":{"source":"naturalearthdata.com","kind":"region","sort_rank":256,"kind_detail":"4","min_zoom":5.5,"id":9789},"arcs":[[470],[471]]}]},"roads":{"type":"GeometryCollection","geometries":[{"type":"LineString","properties":{"source":"naturalearthdata.com","kind":"major_road","sort_rank":379,"kind_detail":"secondary","min_zoom":4.0,"id":41569},"arcs":[481]},{"type":"LineString","properties":{"source":"naturalearthdata.com","kind":"major_road","sort_rank":379,"kind_detail":"secondary","min_zoom":4.0,"id":41647},"arcs":[482]},{"type":"MultiLineString","properties":{"source":"naturalearthdata.com","kind":"major_road","kind_detail":"secondary","sort_rank":379,"landuse_kind":"park","min_zoom":4.0,"id":41735},"arcs":[[483],[484]]},{"type":"MultiLineString","properties":{"source":"naturalearthdata.com","kind":"major_road","sort_rank":379,"kind_detail":"secondary","min_zoom":4.0,"id":41735},"arcs":[[485],[486],[487]]},{"type":"LineString","properties":{"source":"naturalearthdata.com","kind":"major_road","sort_rank":379,"kind_detail":"secondary","min_zoom":4.0,"id":41745},"arcs":[488]},{"type":"LineString","properties":{"source":"naturalearthdata.com","kind":"major_road","sort_rank":379,"kind_detail":"secondary","min_zoom":4.0,"id":41927},"arcs":[489]},{"type":"LineString","properties":{"source":"naturalearthdata.com","kind":"major_road","sort_rank":379,"kind_detail":"secondary","min_zoom":4.0,"id":41965},"arcs":[490]},{"type":"LineString","properties":{"source":"naturalearthdata.com","kind":"minor_road","sort_rank":355,"kind_detail":"tertiary","min_zoom":5.0,"id":42035},"arcs":[491]},{"type":"LineString","properties":{"source":"naturalearthdata.com","kind":"major_road","sort_rank":379,"kind_detail":"secondary","min_zoom":4.0,"id":42114},"arcs":[492]},{"type":"LineString","properties":{"source":"naturalearthdata.com","kind":"major_road","sort_rank":379,"kind_detail":"secondary","min_zoom":3.0,"id":42123},"arcs":[493]},{"type":"LineString","properties":{"source":"naturalearthdata.com","kind":"minor_road","sort_rank":355,"kind_detail":"tertiary","min_zoom":5.0,"id":42409},"arcs":[494]},{"type":"LineString","properties":{"source":"naturalearthdata.com","kind":"major_road","sort_rank":379,"kind_detail":"secondary","min_zoom":3.0,"id":42410},"arcs":[495]},{"type":"LineString","properties":{"source":"naturalearthdata.com","kind":"major_road","sort_rank":379,"kind_detail":"secondary","min_zoom":3.0,"id":42522},"arcs":[496]},{"type":"LineString","properties":{"source":"naturalearthdata.com","kind":"major_road","sort_rank":379,"kind_detail":"secondary","min_zoom":3.0,"id":42534},"arcs":[497]},{"type":"LineString","properties":{"source":"naturalearthdata.com","kind":"major_road","sort_rank":379,"kind_detail":"secondary","min_zoom":3.0,"id":42556},"arcs":[498]},{"type":"LineString","properties":{"source":"naturalearthdata.com","kind":"major_road","sort_rank":379,"kind_detail":"secondary","min_zoom":3.0,"id":42566},"arcs":[499]},{"type":"LineString","properties":{"source":"naturalearthdata.com","kind":"major_road","sort_rank":379,"kind_detail":"secondary","min_zoom":3.0,"id":42571},"arcs":[500]},{"type":"LineString","properties":{"source":"naturalearthdata.com","kind":"major_road","kind_detail":"secondary","sort_rank":379,"landuse_kind":"urban_area","min_zoom":4.0,"id":42579},"arcs":[501]},{"type":"LineString","properties":{"source":"naturalearthdata.com","kind":"major_road","sort_rank":379,"kind_detail":"secondary","min_zoom":4.0,"id":42579},"arcs":[502]},{"type":"LineString","properties":{"source":"naturalearthdata.com","kind":"major_road","sort_rank":379,"kind_detail":"secondary","min_zoom":3.0,"id":42596},"arcs":[503]},{"type":"LineString","properties":{"source":"naturalearthdata.com","kind":"minor_road","sort_rank":355,"kind_detail":"tertiary","min_zoom":5.0,"id":42606},"arcs":[504]},{"type":"LineString","properties":{"source":"naturalearthdata.com","kind":"major_road","sort_rank":379,"kind_detail":"secondary","min_zoom":3.0,"id":42620},"arcs":[505]},{"type":"LineString","properties":{"source":"naturalearthdata.com","kind":"major_road","sort_rank":379,"kind_detail":"secondary","min_zoom":3.0,"id":42638},"arcs":[506]},{"type":"LineString","properties":{"source":"naturalearthdata.com","kind":"major_road","sort_rank":379,"kind_detail":"secondary","min_zoom":3.0,"id":42670},"arcs":[507]},{"type":"LineString","properties":{"source":"naturalearthdata.com","kind":"major_road","sort_rank":379,"kind_detail":"secondary","min_zoom":3.0,"id":42689},"arcs":[508]},{"type":"LineString","properties":{"source":"naturalearthdata.com","kind":"major_road","sort_rank":379,"kind_detail":"secondary","min_zoom":3.0,"id":42700},"arcs":[509]},{"type":"LineString","properties":{"source":"naturalearthdata.com","kind":"major_road","sort_rank":379,"kind_detail":"secondary","min_zoom":3.0,"id":42704},"arcs":[510]},{"type":"LineString","properties":{"source":"naturalearthdata.com","kind":"major_road","kind_detail":"secondary","sort_rank":379,"landuse_kind":"park","min_zoom":3.0,"id":42705},"arcs":[511]},{"type":"LineString","properties":{"source":"naturalearthdata.com","kind":"major_road","kind_detail":"secondary","sort_rank":379,"landuse_kind":"urban_area","min_zoom":3.0,"id":42705},"arcs":[512]},{"type":"MultiLineString","properties":{"source":"naturalearthdata.com","kind":"major_road","sort_rank":379,"kind_detail":"secondary","min_zoom":3.0,"id":42705},"arcs":[[513],[514],[515]]},{"type":"LineString","properties":{"source":"naturalearthdata.com","kind":"major_road","sort_rank":379,"kind_detail":"secondary","min_zoom":3.0,"id":42760},"arcs":[516]},{"type":"LineString","properties":{"source":"naturalearthdata.com","kind":"major_road","sort_rank":379,"kind_detail":"secondary","min_zoom":4.0,"id":42801},"arcs":[517]},{"type":"LineString","properties":{"source":"naturalearthdata.com","kind":"major_road","sort_rank":379,"kind_detail":"secondary","min_zoom":3.0,"id":42822},"arcs":[518]},{"type":"MultiLineString","properties":{"source":"naturalearthdata.com","kind":"major_road","kind_detail":"secondary","sort_rank":379,"landuse_kind":"park","min_zoom":4.0,"id":42825},"arcs":[[519],[520]]},{"type":"MultiLineString","properties":{"source":"naturalearthdata.com","kind":"major_road","sort_rank":379,"kind_detail":"secondary","min_zoom":4.0,"id":42825},"arcs":[[521],[522],[523]]},{"type":"LineString","properties":{"source":"naturalearthdata.com","kind":"major_road","kind_detail":"secondary","sort_rank":379,"landuse_kind":"urban_area","min_zoom":3.0,"id":42832},"arcs":[524]},{"type":"LineString","properties":{"source":"naturalearthdata.com","kind":"major_road","sort_rank":379,"kind_detail":"secondary","min_zoom":3.0,"id":42832},"arcs":[525]},{"type":"LineString","properties":{"source":"naturalearthdata.com","kind":"major_road","kind_detail":"secondary","sort_rank":379,"landuse_kind":"urban_area","min_zoom":3.0,"id":42833},"arcs":[526]},{"type":"LineString","properties":{"source":"naturalearthdata.com","kind":"major_road","sort_rank":379,"kind_detail":"secondary","min_zoom":3.0,"id":42833},"arcs":[527]},{"type":"LineString","properties":{"source":"naturalearthdata.com","kind":"major_road","kind_detail":"secondary","sort_rank":379,"landuse_kind":"urban_area","min_zoom":4.0,"id":42856},"arcs":[528]},{"type":"LineString","properties":{"source":"naturalearthdata.com","kind":"major_road","sort_rank":379,"kind_detail":"secondary","min_zoom":4.0,"id":42856},"arcs":[529]},{"type":"LineString","properties":{"source":"naturalearthdata.com","kind":"major_road","sort_rank":379,"kind_detail":"secondary","min_zoom":4.0,"id":42919},"arcs":[530]},{"type":"LineString","properties":{"source":"naturalearthdata.com","kind":"major_road","sort_rank":379,"kind_detail":"secondary","min_zoom":4.0,"id":42920},"arcs":[531]},{"type":"LineString","properties":{"source":"naturalearthdata.com","kind":"minor_road","sort_rank":355,"kind_detail":"tertiary","min_zoom":5.0,"id":43105},"arcs":[532]},{"type":"LineString","properties":{"source":"naturalearthdata.com","kind":"major_road","sort_rank":379,"kind_detail":"secondary","min_zoom":4.0,"id":43171},"arcs":[533]},{"type":"LineString","properties":{"source":"naturalearthdata.com","kind":"major_road","sort_rank":379,"kind_detail":"secondary","min_zoom":4.0,"id":43345},"arcs":[534]},{"type":"LineString","properties":{"source":"naturalearthdata.com","kind":"major_road","kind_detail":"secondary","sort_rank":379,"landuse_kind":"urban_area","min_zoom":4.0,"id":43375},"arcs":[535]},{"type":"MultiLineString","properties":{"source":"naturalearthdata.com","kind":"major_road","sort_rank":379,"kind_detail":"secondary","min_zoom":4.0,"id":43375},"arcs":[[536],[537]]},{"type":"LineString","properties":{"source":"naturalearthdata.com","kind":"major_road","sort_rank":379,"kind_detail":"secondary","min_zoom":4.0,"id":43436},"arcs":[538]},{"type":"LineString","properties":{"source":"naturalearthdata.com","kind":"major_road","sort_rank":379,"kind_detail":"secondary","min_zoom":3.0,"id":43482},"arcs":[539]},{"type":"LineString","properties":{"source":"naturalearthdata.com","kind":"minor_road","sort_rank":355,"kind_detail":"tertiary","min_zoom":5.0,"id":43497},"arcs":[540]},{"type":"LineString","properties":{"source":"naturalearthdata.com","kind":"major_road","sort_rank":379,"kind_detail":"secondary","min_zoom":3.0,"id":43498},"arcs":[541]},{"type":"LineString","properties":{"source":"naturalearthdata.com","kind":"major_road","kind_detail":"secondary","sort_rank":379,"landuse_kind":"urban_area","min_zoom":3.0,"id":43499},"arcs":[542]},{"type":"MultiLineString","properties":{"source":"naturalearthdata.com","kind":"major_road","sort_rank":379,"kind_detail":"secondary","min_zoom":3.0,"id":43499},"arcs":[[543],[544]]},{"type":"LineString","properties":{"source":"naturalearthdata.com","kind":"major_road","sort_rank":379,"kind_detail":"secondary","min_zoom":3.0,"id":43560},"arcs":[545]},{"type":"LineString","properties":{"source":"naturalearthdata.com","kind":"major_road","sort_rank":379,"kind_detail":"secondary","min_zoom":4.0,"id":43606},"arcs":[546]},{"type":"LineString","properties":{"source":"naturalearthdata.com","kind":"major_road","sort_rank":379,"kind_detail":"secondary","min_zoom":3.0,"id":43625},"arcs":[547]},{"type":"LineString","properties":{"source":"naturalearthdata.com","kind":"major_road","sort_rank":379,"kind_detail":"secondary","min_zoom":4.0,"id":43627},"arcs":[548]},{"type":"LineString","properties":{"source":"naturalearthdata.com","kind":"major_road","sort_rank":379,"kind_detail":"secondary","min_zoom":3.0,"id":43683},"arcs":[549]},{"type":"LineString","properties":{"source":"naturalearthdata.com","kind":"major_road","sort_rank":379,"kind_detail":"secondary","min_zoom":3.0,"id":43739},"arcs":[550]},{"type":"LineString","properties":{"source":"naturalearthdata.com","kind":"major_road","sort_rank":379,"kind_detail":"secondary","min_zoom":3.0,"id":43789},"arcs":[551]},{"type":"LineString","properties":{"source":"naturalearthdata.com","kind":"major_road","kind_detail":"secondary","sort_rank":379,"landuse_kind":"urban_area","min_zoom":3.0,"id":48438},"arcs":[552]},{"type":"LineString","properties":{"source":"naturalearthdata.com","kind":"major_road","sort_rank":379,"kind_detail":"secondary","min_zoom":3.0,"id":48438},"arcs":[553]}]},"earth":{"type":"GeometryCollection","geometries":[{"type":"MultiPolygon","properties":{"sort_rank":10,"source":"naturalearthdata.com","min_zoom":0.0,"kind":"earth","area":2875969866553},"arcs":[[[554]],[[555]]]}]},"landuse":{"type":"GeometryCollection","geometries":[{"type":"Polygon","properties":{"kind":"park","name":"Parc national des plateaux Bat\u00e9k\u00e9","area":1943849984,"sort_rank":24,"source":"openstreetmap.org","min_zoom":4.0,"tier":2,"id":-3348037,"osm_relation":true},"arcs":[[556]]},{"type":"Polygon","properties":{"kind":"park","name":"R\u00e9serve Tumba-Lediima","area":7518410240,"sort_rank":24,"source":"openstreetmap.org","min_zoom":4.0,"tier":2,"id":-1359257,"osm_relation":true},"arcs":[[557]]},{"type":"MultiPolygon","properties":{"source":"naturalearthdata.com","kind":"urban_area","name":"","area":825722160,"sort_rank":11,"min_zoom":4.0},"arcs":[[[558]],[[559]],[[560]]]},{"type":"MultiPolygon","properties":{"kind":"protected_area","name":"Parc National de la Salonga","area":32342442512,"sort_rank":17,"source":"openstreetmap.org","min_zoom":4.0,"tier":2,"osm_relation":true},"arcs":[[[561]],[[562]]]},{"type":"Polygon","properties":{"kind":"park","name":"R\u00e9serve naturelle du triangle de la Ngiri","area":5310389760,"sort_rank":24,"source":"openstreetmap.org","min_zoom":4.0,"tier":2,"id":-2127012,"osm_relation":true},"arcs":[[563]]},{"type":"Polygon","properties":{"kind":"park","name":"Domaine de Bombo-Lumene","area":1701090048,"sort_rank":24,"source":"openstreetmap.org","min_zoom":4.0,"tier":2,"id":-402020,"osm_relation":true},"arcs":[[564]]},{"type":"Polygon","properties":{"kind":"park","name":"Parc national de la Lop\u00e9","area":5045859840,"sort_rank":24,"source":"openstreetmap.org","min_zoom":4.0,"tier":2,"id":-5853893,"osm_relation":true},"arcs":[[565]]},{"type":"Polygon","properties":{"kind":"park","name":"Domaine de chasse de Mangai","area":1945650048,"sort_rank":24,"source":"openstreetmap.org","min_zoom":4.0,"tier":2,"id":-1347449,"osm_relation":true},"arcs":[[566]]},{"type":"Polygon","properties":{"kind":"park","name":"R\u00e9serve foresti\u00e8re de Mai-Mpili","area":1489049984,"sort_rank":24,"source":"openstreetmap.org","min_zoom":4.0,"tier":2,"id":48504392},"arcs":[[567]]}]}},"type":"Topology","transform":{"translate":[11.25,-11.1784018737],"scale":[0.002746582,0.002729102]},"arcs":[[[959,3999],[-2,2],[-17,20],[0,10],[4,9],[16,22],[5,6],[4,4],[4,5],[-1,3],[-2,5],[0,5],[1,4],[2,2]],[[995,4000],[-3,3],[-3,3],[-3,1],[-13,2]],[[973,4009],[-3,-1],[-2,-3],[-1,-2],[-1,-2],[-5,-2],[-2,0]],[[1059,3929],[0,14],[-3,15],[-4,15],[-7,12],[-9,10],[-13,6],[-15,2]],[[1008,4003],[-13,-3]],[[1087,3233],[-3,12],[-28,23],[-1,13],[5,4],[13,4],[4,6],[0,2],[-2,7],[1,3],[2,2],[6,2],[2,3],[2,5],[2,19],[2,8],[1,3],[-2,3],[-3,3],[-2,1],[0,3],[2,3],[0,4],[1,4],[1,2],[3,3],[42,17],[1,0],[10,5],[3,5],[-3,16],[0,3],[2,10],[1,29],[3,8],[4,5],[9,5],[-3,3],[-8,1],[-6,2],[-4,15],[-8,4],[-2,2],[3,3],[8,3],[3,2],[4,2],[2,4],[2,4],[2,3],[12,3],[0,5],[-4,7],[-5,4],[4,11],[1,9],[1,3],[5,4],[4,3],[3,5],[-2,7],[-13,9],[-5,5],[-3,7],[1,4],[3,3],[3,2],[3,3],[2,4],[1,4],[1,8],[1,11],[-1,4],[-3,4],[-6,7],[-1,1],[-3,4],[0,4],[2,6],[0,3],[-1,4],[-4,8],[-10,29],[0,5],[4,8],[2,16],[2,8],[5,9],[7,7],[4,8],[-2,11],[-2,10],[0,9],[2,9],[14,32],[3,12],[-3,11],[-9,17],[-4,5],[-15,10],[-8,11],[-12,8],[-14,6],[-10,3]],[[1108,3936],[-6,-1],[-6,-3],[-6,-1]],[[1090,3931],[-6,1],[-6,3]],[[1078,3935],[-6,0],[-6,-2],[-7,-4]],[[503,3427],[16,-6],[24,-18],[1,-1],[16,-5],[6,-4],[4,-9],[8,-27],[4,-7],[2,-3],[5,-6],[2,-2],[1,-8],[0,-2],[-1,-2],[1,-2],[7,-2],[0,-2],[-2,-3],[0,-1],[-2,-3],[-1,-2],[1,-3],[5,-5],[1,-2],[1,-4],[1,-6]],[[450,3391],[5,2],[2,4],[0,4],[0,3],[3,5],[1,2],[3,2],[17,12],[4,2],[18,0]],[[429,3406],[4,-1],[4,-5],[7,-7],[6,-2]],[[296,3211],[144,31],[-4,8],[3,12],[5,13],[2,10],[-2,15],[0,6],[3,5],[6,11],[2,6],[-14,7],[-8,11],[-3,15],[-3,40],[2,5]],[[908,3328],[1,-1],[4,-3],[5,-4],[4,-7],[3,-8],[4,-15],[8,-17],[4,-7],[7,-7],[2,-3],[2,-11],[3,-2],[3,-2],[4,-3],[5,-7],[-1,-2],[-5,-3],[-5,-11],[-8,-4],[-2,-3],[0,-14],[-1,-2],[6,-5],[8,-3],[9,0]],[[804,3202],[4,2],[2,3],[1,3],[2,4],[3,3],[12,8],[3,3],[6,7],[3,3],[4,3],[9,2],[4,3],[1,3],[2,8],[2,4],[28,27],[3,4],[1,4],[0,7],[1,4],[4,7],[8,12],[1,2]],[[617,3296],[4,-3],[6,-11],[4,-4],[2,-10],[1,-3],[2,-3]],[[603,3292],[6,0],[8,4]],[[638,3262],[2,0],[1,-4],[-3,-4],[-2,-3],[-1,-3],[0,-3],[-1,-4],[-2,-3],[-1,-2],[-4,-4],[-2,-3],[1,-2]],[[636,3262],[2,0]],[[251,3243],[3,-3],[7,-5],[12,-15],[11,-8],[12,-1]],[[184,3211],[6,4],[13,11],[8,3],[13,3],[15,5],[12,6]],[[116,3243],[13,-1],[19,-5],[5,-3],[2,-3],[2,-3],[2,-3],[13,-10],[6,-3],[6,-1]],[[102,3046],[-2,8],[4,14],[1,3],[26,43],[4,10],[1,7],[0,8],[-2,9],[-3,8],[-9,15],[-3,8],[0,6],[2,21],[-1,8],[-8,21],[3,7],[1,1]],[[646,3239],[9,-1],[24,-11],[7,-2]],[[626,3227],[5,0],[4,4],[7,7],[4,1]],[[1085,3234],[2,-1]],[[1031,3180],[3,0],[2,3],[2,5],[2,7],[3,3],[4,3],[2,3],[0,9],[2,4],[3,3],[7,6],[3,2],[4,2],[17,4]],[[702,3231],[3,-1],[64,-24],[6,-1]],[[686,3225],[4,1],[7,4],[5,1]],[[797,3207],[2,0],[3,-5],[2,0]],[[792,3206],[5,1]],[[782,3207],[8,-1],[2,0]],[[775,3205],[7,2]],[[989,3191],[4,-3],[1,-6],[2,-3],[3,0]],[[968,3184],[8,1],[6,4],[4,2],[3,0]],[[1018,3185],[3,0],[6,-4],[4,-1]],[[999,3179],[17,6],[2,0]],[[175,2980],[8,1],[9,6],[0,8],[-5,8],[-28,30],[-12,18],[-6,7],[-7,2]],[[134,3060],[-11,-3],[-15,-10],[-6,-1]],[[170,2981],[5,-1]],[[214,2736],[1,1],[7,2],[7,6],[7,8],[3,8],[-3,8],[-7,3],[-9,3],[-7,5],[-4,7],[1,9],[21,49],[5,9],[16,12],[5,8],[-4,12],[-14,6],[-18,5],[-13,6],[-14,13],[-8,4],[-21,9],[-3,2],[-3,3],[0,1],[0,3],[1,25],[1,6],[5,9],[4,3]],[[85,2810],[18,-3],[13,-10],[29,-47],[6,-7],[8,-2]],[[0,2752],[8,5],[11,9],[12,8],[15,3],[14,4],[8,11],[7,11],[10,7]],[[179,2743],[7,-1],[21,-6],[7,0]],[[159,2741],[20,2]],[[1009,1944],[-5,2],[-9,5],[-14,5]],[[981,1956],[-50,-4],[-60,-5]],[[1880,1935],[-6,1],[-8,4],[-6,5],[-6,4],[-10,2]],[[1844,1951],[-21,-1],[-33,0],[-24,-1],[-9,0],[-34,0],[-33,-1],[-33,0],[-33,-1],[-34,0],[-33,-1],[-33,-1],[-33,0],[-33,-1],[-34,0],[-33,-1],[-33,0],[-33,-1],[-34,0],[-13,-1],[-21,0],[-46,-9]],[[827,1946],[-10,3],[-29,1],[-12,0]],[[776,1950],[-3,-2],[-7,-8],[-4,-2]],[[762,1938],[-12,6],[-15,3],[-31,3]],[[704,1950]],[[871,1947],[-29,3]],[[842,1950],[-3,-1],[-7,-3],[-5,0]],[[1160,1937],[-33,0],[-38,1],[-7,1],[-21,8],[-9,0]],[[1052,1947],[-43,-3]],[[1949,1875],[-1,4],[-1,23],[-1,3],[-2,4],[-3,5],[0,2],[5,6],[1,3],[-14,7],[-2,1],[-14,6],[-7,1],[-6,1]],[[1904,1941],[-7,-1],[-12,-4],[-5,-1]],[[1211,1932],[-11,2],[-23,5]],[[1177,1939],[-17,-2]],[[1987,1745],[-3,2],[-2,3],[0,2],[0,14],[1,3],[4,1],[3,1],[2,1],[0,4],[0,3],[-2,4],[0,3],[0,27],[1,6],[2,4],[1,5],[-3,6],[-7,7],[-1,5],[-4,2],[-5,2],[-4,2],[-6,9],[-5,3],[-7,1],[8,9],[-2,3]],[[1958,1877],[-3,0],[-3,-2],[-3,0]],[[2079,1506],[1,8],[2,6],[2,6],[-3,6],[-2,3],[-2,3],[-2,2],[-4,1],[-3,2],[0,3],[1,3],[1,2],[-3,21],[-4,9],[-9,6],[-4,1],[-9,1],[-4,1],[-4,4],[-2,5],[-1,5],[-1,6],[-20,28],[-3,6],[-1,6],[-1,14],[-2,6],[-5,13],[-2,6],[2,6],[4,8],[1,3],[-4,4],[-4,4],[-2,3],[0,4],[2,6],[-7,0],[0,4],[3,5],[2,5],[-1,4],[-2,1]],[[1989,1746],[-2,-1]],[[3375,1426],[0,18],[-1,18],[3,17],[7,20],[6,15],[10,26],[8,22]],[[3408,1562],[-21,0],[-31,0],[-31,0],[-19,0],[-4,-1],[-3,-2],[-3,-6],[-1,-5],[-2,-12],[0,-6],[-18,0],[-15,0],[-15,0],[-15,0],[-16,0],[-15,0],[-15,0],[-12,0],[-4,0],[-15,0],[-15,0],[-16,0],[-15,0],[-15,0],[-15,0],[-16,0],[-15,0],[-15,0],[-19,0],[6,-14],[1,-4],[-2,-6],[-10,-13],[-4,-7],[-4,-11],[-4,-60],[1,-11],[3,-13],[10,-24],[0,-12],[-11,-8],[-1,0],[-5,-7],[-3,-14],[-6,-6],[-7,-1]],[[2068,1509],[11,-3]],[[2137,1375],[-6,4],[-2,5],[0,8],[0,4],[-1,6],[-4,4],[-10,4],[-12,9],[-10,3],[-2,4],[0,6],[0,6],[-6,8],[-5,5],[-3,2],[-2,3],[0,20],[-7,24],[1,9]],[[3898,519],[-5,14],[-23,24],[-9,15],[-4,15],[-4,32],[-5,15],[-2,4],[-6,7],[-2,4],[1,5],[4,8],[2,12],[11,23],[4,16],[0,15],[-4,36],[5,42],[-1,19],[3,30],[4,8],[2,12],[3,3],[4,23],[4,27],[4,11],[7,12],[-3,0],[-2,1],[-1,1],[-2,0],[9,28],[2,17],[-3,15],[-9,14],[-4,10],[1,4],[3,2],[3,1],[-4,7],[-10,10],[-3,7],[-4,17],[-1,16],[-1,6],[-2,5],[-9,11],[-4,6],[-3,8],[-1,8],[-2,5],[-11,6],[-4,3],[-2,7],[-1,25],[2,3],[5,7],[1,5],[0,4],[-3,9],[2,16],[2,6],[4,12],[3,8],[5,14],[4,12],[3,7],[1,5],[1,7],[1,2],[6,6],[1,2],[0,14],[-1,4],[-1,2],[-1,2],[0,5],[1,4],[4,7],[0,5],[-1,2],[-3,3],[-1,3],[1,1],[1,4],[1,2],[-1,4],[-2,3],[-3,3],[-2,4],[1,2],[2,2],[1,4],[-2,3],[-2,2],[-9,18],[-2,3],[-3,1],[-2,1],[-1,2],[0,1],[-8,0]],[[3828,1427],[-12,0],[-26,0],[-27,0],[-26,0],[-27,0],[-26,0],[-27,0],[-26,0],[-27,0],[-26,0],[-27,0],[-26,0],[-27,-1],[-26,0],[-27,0],[-26,0],[-27,0],[-17,0]],[[2199,1275],[-1,6],[0,8],[-2,6],[2,7],[-7,5],[-18,9],[-6,8],[-6,18],[-5,8],[-3,3],[-3,2],[-2,3],[-1,3],[2,5],[4,2],[4,1],[2,3],[-1,2],[-4,2],[-7,2],[-3,1],[-2,2]],[[2142,1381],[-3,-1],[-2,-5]],[[2976,1319],[-25,2]],[[2951,1321],[-1,-10],[3,-10],[5,-10],[2,-9],[1,-9],[-2,-9],[-7,-23],[-3,-11],[-6,-17],[-1,-11],[1,-10],[8,-28],[-10,0],[-46,0],[-47,0],[-46,0],[-47,0],[-16,0]],[[2249,1210],[-1,3],[0,5],[-1,4],[-4,1],[-5,0],[-2,1],[3,3],[0,2],[-7,0],[-2,4],[1,4],[-1,4],[-3,2],[-9,1],[-1,2],[-2,3],[-6,6],[-2,5],[1,3],[2,3],[0,4],[-6,2],[2,2],[-1,1],[-1,2]],[[2204,1277],[-5,-2]],[[2264,1179],[-1,3],[-1,1],[0,1],[2,3],[-8,4],[-3,2],[-1,2],[1,5],[4,4],[1,3],[-4,5]],[[2254,1212],[-5,-2]],[[2672,1189],[-26,0]],[[2646,1189],[-5,-3],[-1,-7],[2,-13],[-7,-1]],[[2739,1164],[-5,9],[-3,4],[-1,10],[-4,2]],[[2726,1189],[-26,0],[-28,0]],[[2312,1129],[-20,5],[-3,3],[-3,5],[4,11],[-1,6],[-3,3],[-8,4],[-4,3],[-2,4],[-3,12]],[[2269,1185],[-2,-2],[-2,-2],[-1,-2]],[[2591,1158],[-5,1],[-13,5],[-18,1],[-27,1]],[[2528,1166],[-6,-1],[-15,-7],[-6,-2],[-6,-4],[-4,-8],[0,-10],[2,-9],[-32,-1]],[[2635,1165],[-2,1]],[[2633,1166],[-22,-1],[-6,-1],[-8,-4],[-6,-2]],[[2461,1124],[-10,2],[-19,16],[-10,5],[-12,1]],[[2410,1148],[-6,-1],[-23,-12],[-5,-1]],[[2376,1134],[-12,5],[-11,1]],[[2353,1140],[-31,-11],[-10,0]],[[3938,475],[-4,2],[-21,25],[-4,10],[-1,12]],[[3908,524],[-2,-1],[-6,-3],[-2,-1]],[[4007,0],[0,4],[-4,33],[-3,7],[-6,10],[-1,7],[-1,1],[-5,4],[-2,2],[0,14],[-7,26],[-4,5],[0,6],[6,8],[9,8],[7,5],[15,6],[9,3],[7,1],[3,3],[1,7],[-1,14],[1,1],[2,2],[-6,10],[-1,13],[0,7],[1,8],[-2,15],[-3,8],[-5,5],[-3,4],[-1,8],[2,8],[9,13],[1,6],[1,3],[2,8],[0,4],[-1,4],[-5,6],[-4,12],[-8,15],[-7,17],[-9,16],[-6,17],[2,12],[-1,4],[-4,16],[-7,20],[-3,13],[-3,8],[-5,6],[-14,9],[-6,5],[-4,2]],[[3943,479],[-3,-3],[-2,-1]],[[4096,49],[-11,-28],[-11,-9],[-34,-12]],[[704,1950],[-5,0],[-9,-4],[-10,-2],[-8,0],[-13,-1],[-11,1],[-9,-2],[-7,-4],[-12,-7],[-14,-3],[-17,-13],[-18,-9],[-19,-9],[-19,-4],[-27,-1],[-17,-5],[-24,-9],[-28,-7],[-10,2],[-11,5],[-12,5],[-30,13]],[[2371,4096],[-2,-3],[-15,-69],[-1,-9],[1,-9],[9,-37],[3,-65],[-2,-3],[-5,-8],[-24,-22],[-2,-2],[-1,-3],[-1,-5],[0,-2],[-2,-1],[-4,-3],[-5,-6],[-7,-5],[-21,-25],[-49,-59],[-9,-9],[-8,-9],[-2,-3],[-10,-4],[-1,-2],[-7,-9],[-4,-2],[-19,-6],[-19,-2],[-7,-2],[-24,-10],[-17,-5],[-12,-2],[-2,-1],[-4,-3],[-2,-1],[-1,-2],[-9,-10],[-14,-12],[-12,-14],[-17,-14],[-8,-5],[-2,-2],[-2,-3],[-4,-10],[-8,-15],[-6,-14],[-6,-8],[-13,-27],[-12,-16],[-9,-17],[-5,-8],[-7,-11],[-3,-6],[-1,-6],[-1,-4],[0,-13],[-2,-10],[-5,-10],[-28,-38],[-1,-1],[-2,-5],[-1,-5],[-3,-1],[-6,-5],[-6,-2],[-1,-1],[-4,-3],[-5,-7],[-23,-23],[-16,-11],[-20,-20],[-10,-7],[-9,-8],[-9,-12],[-5,-8],[-2,-8],[0,-8],[1,-3],[0,-2],[-5,-17],[-1,-6],[1,-6],[4,-5],[1,-2],[0,-3],[0,-18],[13,-88],[-8,-54],[-9,-26],[-1,-5],[0,-5],[2,-21],[2,-14],[-1,-18],[2,-20],[-2,-20],[2,-6],[3,-7],[0,-9],[-2,-16],[2,-7],[4,-5],[4,-3],[2,-3],[0,-9],[-2,-7],[-5,-11],[-18,-31],[-7,-20],[-9,-16],[-22,-27],[-15,-31],[-3,-8],[-5,-5],[-6,-17],[-11,-20],[-3,-3],[-2,-4],[-7,-21],[-8,-9],[-2,-2],[-14,-7],[-16,-5],[-17,-2],[-16,-3],[-52,-17],[-7,-3],[-5,-4],[-5,-7],[-11,-36],[-2,-3],[-8,-9],[-2,-2],[-3,-1],[-9,-5],[-14,-5],[-40,-21],[-8,-4],[-10,-5],[-8,-5],[-4,-7],[-2,-5],[-14,-19],[-19,-28],[-8,-7],[-19,-10],[-3,-4],[-3,-5],[-28,-28],[-30,-50],[-2,-6],[-4,-5],[-6,-5],[-17,-7],[-24,-16],[-11,-3],[-14,-2]],[[1147,2306],[-1,11],[5,28],[-1,4],[-2,3],[-1,4],[0,4],[0,4],[3,6],[1,3],[-2,10],[-4,5],[-5,6],[-6,6],[-3,14],[-2,9],[0,2],[3,6],[6,5],[13,6],[5,4],[4,6],[6,7],[5,7],[1,7],[-2,2],[-13,9],[-7,8],[-6,9],[-2,5],[0,2],[1,2],[2,6],[0,4],[0,4],[-1,3],[-2,2]],[[1142,2529],[-7,-1],[-15,-8],[-17,-4],[-7,-5],[-14,-13],[-14,-6],[-13,-5],[-32,-3],[-14,-6],[-11,-14],[0,-1],[-1,-1],[-6,-4],[-6,-8],[-4,-2],[-4,0]],[[956,2450],[-3,1],[-4,4],[-5,9],[-4,5],[-8,5],[-7,1]],[[925,2475],[-23,-8],[-5,-3],[-1,-4],[4,-35],[-1,-7],[-6,-15],[-1,-8],[5,-16],[-3,-3]],[[977,2448],[-10,3],[-1,0]],[[966,2451],[-10,-1]],[[780,2306],[-8,16],[-2,13],[-2,4],[-4,3],[-5,3],[-22,8],[-7,5],[-17,15],[-10,6],[-3,4],[-5,12],[-6,9],[-3,6],[-8,9]],[[678,2419],[-9,-1],[-6,-8],[1,-12]],[[894,2376],[-3,0],[-3,1]],[[888,2377],[-3,-1],[-1,-4],[1,-7],[-2,-3],[-3,0]],[[880,2362],[-8,2],[-4,0]],[[868,2364],[-8,-5],[-8,-14],[-4,-2],[-3,-1]],[[845,2342],[-4,2],[-8,8],[-4,2]],[[829,2354],[-4,-1],[-12,-7],[3,-3],[2,-3],[-1,-3],[-4,-2],[-19,-14],[-10,-12],[-4,-3]],[[1195,2317],[-2,1],[-2,4],[-7,0]],[[1184,2322],[-7,-2],[-5,-2],[-7,-8],[-5,-2],[-7,-1],[-6,-1]],[[1232,2299],[-4,2],[-11,7],[-5,1],[-1,1],[-3,5],[-2,2],[-3,0]],[[1203,2317],[-8,0]],[[570,2479],[-5,1],[-7,4],[-3,1],[-5,2]],[[550,2487],[-8,-5],[-4,-9],[-3,-8],[-5,-6],[-7,-4],[-6,-5],[-5,-6],[-8,-14],[-4,-5],[-6,-2],[-40,-7],[-25,-8],[-5,-1]],[[664,2398],[-17,8],[-24,29],[-14,11],[-7,8],[-7,18],[-5,7],[-6,4]],[[584,2483],[-4,-1],[-5,-2],[-5,-1]],[[424,2407],[-10,1]],[[414,2408],[-3,-5],[0,-15],[-2,-8],[-15,-30],[-4,-5],[-5,-2],[-12,-1],[-6,-1],[-5,-2],[-3,-3]],[[359,2336],[-5,8],[-3,4],[-4,3]],[[347,2351],[-4,0],[-2,-2],[-11,-38],[-9,-15],[-41,-35],[-3,-4]],[[664,2398],[-3,-11],[-13,-5],[-72,-16],[-11,-7],[-6,-7],[-4,-7],[-2,-9],[-1,-8],[-3,-4],[-17,-10],[-5,-5],[-3,-7],[-1,-6],[-3,-4],[-9,-3],[-14,-1],[-3,-3],[-1,-7],[-6,-14],[-14,-9],[-30,-11],[-3,0]],[[440,2244],[-3,0]],[[437,2244],[-2,0],[-2,-4],[0,-3],[1,-4],[1,-3],[2,-2],[22,-8],[5,-3],[2,-13],[-1,-28],[-1,-31],[-2,-44],[-1,-46],[-1,-23],[-2,-34]],[[458,1998],[-26,0],[-34,0]],[[398,1998],[-31,-4],[-17,-10]],[[21,4096],[-3,-11],[-6,-11],[-1,-4],[0,-3],[1,-3],[1,-2],[2,-2],[4,-1],[3,0],[3,-2],[3,-2],[1,-3],[3,-12],[1,-16],[-1,-11],[0,-9],[1,-3],[1,-4],[2,-3],[19,-29],[2,-4],[1,-5],[0,-5],[0,-10],[0,-5],[6,-19],[2,-4],[3,-4],[14,-11],[3,-3],[4,-7],[6,-12],[6,-29],[1,-4],[11,-23]],[[104,3068],[-26,33],[-29,31],[-28,23],[-21,23]],[[2735,80],[77,-49],[17,-13],[17,-18]],[[1791,64],[6,0],[8,4],[6,7],[21,34],[7,9],[9,8],[13,8],[20,11],[9,6],[9,7],[14,18],[8,4],[8,2],[1,1],[2,2],[10,14],[1,3],[0,1],[-1,3],[-1,2],[0,2],[0,3],[1,2],[10,6]],[[1712,85],[19,-13],[7,-3],[9,-1]],[[1678,0],[5,7],[7,14],[7,15],[15,49]],[[1769,70],[12,-3],[6,-2],[4,-1]],[[1747,68],[22,2]],[[1173,1199],[-8,2],[-11,3],[-29,13],[-10,6],[-9,8],[-21,26],[-25,24],[-6,8],[-7,7],[-12,3],[-74,1],[-26,4]],[[1242,1019],[-8,31],[-1,13],[1,16],[3,10],[5,10],[15,24],[3,9],[3,59],[-4,9],[-5,5],[-17,5]],[[1237,1210],[-52,-11],[-12,0]],[[512,2803],[-9,-8],[-3,-4],[-1,-3],[-1,-2],[0,-4],[0,-7],[4,-18],[4,-10],[0,-3],[-4,-6],[1,-6],[0,-3],[5,-10],[-1,-3],[-2,-1],[-3,-2],[-2,-1],[-3,-3],[-2,-4],[-2,-5],[1,-3],[2,-2],[11,-7],[6,-4],[3,-2],[8,-11],[13,-23],[19,-23],[3,-2],[16,-12],[8,-8],[5,-7],[7,-13],[12,-19],[26,-51],[4,-5],[1,0],[3,-1],[3,-1],[4,-3],[5,-7],[4,-3],[4,-1]],[[666,2492],[6,-1]],[[661,2492],[5,0]],[[681,2492],[2,-1],[3,-1],[2,-1],[3,-1]],[[672,2491],[3,0],[3,1],[3,0]],[[696,2489],[3,0],[6,-3],[2,-1],[3,0],[3,0],[5,-2],[7,-1],[5,-3],[8,-7],[15,-22],[3,-6],[2,-5],[4,-5],[3,-6],[4,-5],[4,-4],[2,-3],[1,-3],[1,-6],[1,-5],[2,-2],[3,-2],[5,-1],[3,-1],[27,-18],[14,-7],[6,-4],[4,-3],[2,-3],[2,-3],[0,-2],[2,-11],[0,-1],[0,-1]],[[691,2488],[5,1]],[[1038,3188],[4,-6],[3,-10],[11,-9],[1,-3],[0,-2],[-1,-1],[-1,-1],[-2,-1],[-5,-1],[-2,-3],[1,-2],[2,-2],[6,-4],[2,-1],[2,-1]],[[1066,3145],[3,-3],[1,-3],[-1,-2],[-2,-2],[-6,-4],[-4,-4],[-5,-4],[-2,-2],[1,-3],[2,-2],[2,-2],[3,-1],[5,0],[4,0],[3,-2],[3,-2],[3,-1]],[[1059,3141],[2,2],[2,1],[3,1]],[[1089,3113],[3,-1],[3,-2],[3,-1],[3,0]],[[1076,3108],[3,1],[7,3],[3,1]],[[1105,3109],[5,-1],[1,-2],[0,-3],[-1,-3],[-5,-9],[-1,-3],[0,-3],[1,-2]],[[1101,3109],[4,0]],[[1110,3088],[2,0],[0,-2],[1,-6],[12,-33],[1,-5],[-1,-3],[-2,-3],[-2,-2],[-5,-2],[-3,-2],[-2,-2],[-1,-3],[0,-4],[-1,-2],[-1,-1],[-1,-1],[-5,-4],[-2,-2],[-1,-2],[-1,-2],[-2,-3]],[[1105,3083],[2,1],[3,4]],[[815,340]],[[739,4096],[0,-4],[-10,-18],[-8,-13],[-3,-4],[2,-3],[2,-2],[2,-3],[3,-15],[1,-8],[1,-4],[2,-4],[2,-3],[4,-1],[3,-1],[4,-2],[4,-3],[90,-179],[3,-9],[-1,-6],[-45,-67],[-59,-73],[-2,-2],[-3,-1]],[[731,3671],[-7,6],[-26,13]],[[698,3690],[-3,-3],[0,-2],[3,-14],[2,-14],[-1,-15],[-1,-7],[-3,-5],[-3,-1],[-4,-2],[-4,-4],[-6,-11],[-2,-2],[-7,-3],[-3,-2],[-3,-3],[-5,-7],[-3,-3],[-4,-3],[-4,-2],[-3,-2],[-3,0]],[[641,3585],[-3,1],[-2,0]],[[636,3586],[-3,-1],[-10,-5],[-4,-4],[-2,-6],[-3,-4],[-3,-3],[-3,-2],[-4,-4],[-3,-5],[-1,-3],[-1,-11],[-1,-4],[-3,-4],[-3,-4],[-1,-4],[-2,-3],[-6,-8],[-27,-56],[-1,-4],[1,-7],[0,-3],[-5,-12],[-2,-10],[-5,-13],[-1,-3]],[[114,3820],[268,99],[58,30],[32,147]],[[960,4062],[-27,10],[-17,13],[-8,5],[-8,3],[-16,3]],[[0,3862],[28,-21],[21,-10],[21,-8],[12,-2],[32,-1]],[[114,3820],[-7,-11],[-10,-11],[-3,-5],[-1,-4],[-3,-21],[0,-4],[2,-6],[1,-9],[1,-4],[1,-4],[2,-3],[7,-8],[1,-1],[1,-2],[2,-7],[1,-5],[1,-7],[-1,-6],[-1,-7],[1,-7],[3,-3],[3,-1],[7,-2],[4,-1]],[[180,3707],[4,-1],[1,-1],[0,-2],[-1,-3],[0,-6],[1,-8],[3,-11],[2,-4],[13,-18],[6,-6],[18,-13],[13,-13],[3,-2],[14,-6],[3,-2],[7,-7],[13,-16],[3,-4],[0,-2],[0,-7],[1,-4],[5,-18],[1,-13],[-1,-9],[-1,-3],[0,-1],[-2,-3],[-2,-3],[-3,-2],[-1,-2],[-1,-1],[0,-2],[0,-4],[1,-4],[3,-8],[4,-4],[4,-2],[3,-1],[4,-3],[24,-33],[5,-5],[22,-19],[4,-2],[45,-16],[3,0]],[[126,3681],[4,2],[7,3],[11,2],[25,16],[4,2],[3,1]],[[427,3416],[4,-1],[3,-1],[2,-1],[2,-5],[-1,-8]],[[401,3413],[26,3]],[[1420,2475],[46,-65],[17,-16],[4,-3],[5,-2],[4,-1]],[[1535,2435],[11,-1],[38,-6]],[[1496,2388],[4,1],[4,1],[4,3],[3,3],[2,4],[1,5],[0,4],[-1,9],[1,4],[2,4],[3,4],[4,3],[4,2],[8,0]],[[1600,2428],[10,-1],[4,-3],[1,-3],[-2,-4],[-6,-9],[2,-6],[4,-6],[16,-11],[7,-6],[4,-6],[-1,-4],[-6,-16],[-2,-9],[-2,-18],[0,-4],[-2,-5],[-3,-3],[-4,-3],[-4,-2],[-5,-1],[-13,-2],[-4,-2],[-2,-4],[0,-5],[5,-9],[5,-5],[9,-9],[10,-6],[11,-7],[9,-3],[19,-4],[9,0]],[[1584,2428],[16,0]],[[1691,2294],[4,-1],[4,-3],[10,-8],[16,-6],[17,-7],[89,-5]],[[1669,2252],[4,1],[5,2],[4,3],[2,3],[1,2],[2,4],[1,9],[0,11],[1,5],[2,2]],[[4096,3378],[-1,0],[-6,0]],[[4089,3378],[-56,4],[-16,2],[-36,11]],[[3981,3395],[-3,0],[-1,-1],[-1,-2],[-1,-1],[0,-2],[1,-4],[1,-5],[12,-30],[4,-15],[4,-38],[23,-82],[0,-5],[-1,-6],[-4,-6],[-9,-6],[-6,-1]],[[4000,3191],[-6,1],[-4,2],[-4,4],[-2,4],[-2,5],[-1,5],[2,27],[-1,6],[-1,6],[-3,3],[-3,4],[-4,1],[-7,1]],[[3964,3260],[-5,-2],[-5,-4],[-10,-15],[-3,-4],[-10,-8],[-9,-5],[-19,-10],[-4,-3],[-14,-20],[-2,-1],[-6,-5]],[[1725,2635],[-12,3],[-23,13],[-1,1]],[[1831,2264],[-2,42],[-4,20],[-1,9],[0,4],[2,5],[3,4],[17,21],[37,66],[3,4],[4,4],[4,1],[12,0],[2,1],[0,1],[2,2],[0,4],[4,4],[1,3],[1,6],[3,8],[4,8],[4,4],[0,2],[-1,4],[2,5],[1,6],[-5,10],[1,4],[1,4],[1,4],[-1,5],[-6,10],[-4,2],[-6,5],[-8,6],[-5,6],[-4,4],[-17,27],[-5,5],[-46,24],[-17,12],[-6,3],[-8,2],[-11,2],[-27,2]],[[1756,2639],[-31,-4]],[[1831,2264],[-8,-25],[-2,-13],[2,-43],[-1,-14],[-10,-45],[-2,-20],[3,-29],[0,-49],[-1,-11],[-2,-8],[-11,-26],[-3,-4],[-3,-3],[-22,-16],[-5,-8],[0,-1]],[[3037,3437],[-18,2],[-5,2],[-4,2],[-1,1],[-1,3],[0,9],[-1,10],[-9,36],[-4,10],[-21,34],[-11,14],[-6,10],[-15,37],[-2,5],[-10,18],[-30,31],[-14,19],[-10,19],[-22,31],[-1,2],[-1,4],[-5,29],[-1,18],[-2,5],[-4,12],[-3,6],[-4,6],[-8,9],[-6,3]],[[2818,3824],[-4,-1],[-3,-4],[-2,-5],[-2,-10],[-2,-5],[-3,-4],[-4,-4],[-4,-4],[-15,-9],[-18,-8],[-5,-3],[-4,-3],[-2,-4],[-2,-5],[-2,-8],[1,-19],[0,-2],[1,-4],[2,-5],[3,-4],[3,-4],[16,-18],[3,-4],[2,-5],[-1,-5],[-2,-5],[-7,-8],[-3,-4],[-2,-4],[-2,-4],[-4,-3],[-4,-3],[-5,-2],[-4,-1],[-6,-1]],[[2654,3632],[-6,0],[-7,2],[-10,3],[-13,6],[-5,4],[-23,23],[-5,2],[-5,2],[-53,8],[-11,0]],[[2516,3682],[-4,-1],[-3,-4],[-6,-15],[-5,-9],[-14,-18],[-20,-19],[-32,-23],[-14,-7],[-33,-7],[-12,-4],[-6,-3],[-20,-13],[-6,-3],[-5,-2],[-22,-4],[-12,-4],[-19,-9],[-122,-73],[-40,-30],[-11,-2]],[[2737,3642],[-29,2]],[[2708,3644],[-10,-1],[-10,-3],[-15,-6],[-4,-1],[-11,-1],[-4,0]],[[3192,3382],[-7,0],[-22,3],[-6,2],[-5,3],[-4,4],[-3,5],[-17,43],[-5,16],[-4,6],[-7,7],[-16,12],[-9,2]],[[3087,3485],[-7,0],[-5,-4],[-8,-9],[-18,-27],[-4,-4],[-3,-3],[-3,-1],[-2,0]],[[2110,3432],[-17,1],[-54,6]],[[2039,3439],[-11,0],[-2,-3],[-2,-4],[1,-4],[1,-4],[4,-3],[3,-2],[13,-5],[4,-3],[3,-3],[2,-5],[1,-4],[1,-33],[0,-1],[-4,-1]],[[2053,3364],[-89,0],[-6,1],[-4,3],[-10,19],[-12,15],[-10,12],[-1,1]],[[3348,3332],[-7,0],[-9,3],[-23,11],[-7,2],[-9,1],[-5,1],[-4,4],[-3,4],[-1,4],[-2,2],[-12,11],[-6,4],[-6,3],[-5,1],[-28,2]],[[3221,3385],[-29,-3]],[[3552,3184],[-2,28],[-2,7],[-3,8],[-108,128],[-6,2]],[[3431,3357],[-5,-1],[-3,-3],[-3,-4],[-4,-2]],[[3416,3347],[-5,1],[-18,3],[-4,0]],[[3389,3351],[-4,0],[-5,-1],[-4,-2],[-15,-10],[-9,-4],[-4,-2]],[[3852,3172],[-3,0],[-2,1],[-2,1],[-12,5],[-2,1],[-5,5],[-3,2],[-3,1],[-6,2],[-14,6],[-2,0],[-6,4],[-2,3],[-4,4],[-1,1],[-2,1],[-12,3],[-2,1],[-3,2],[-8,7],[-4,4],[-2,3],[-2,1],[-2,0],[-8,2],[-4,1],[-11,6]],[[3725,3239],[-2,0],[-2,-1],[-2,-5],[-4,-37],[-4,-5],[-9,-4],[-35,-7],[-4,-1],[-8,-2],[-11,-1]],[[3644,3176],[-28,0],[-64,8]],[[3877,3183],[-4,-2],[-21,-9]],[[3969,2663],[5,0],[5,1],[4,2],[3,4],[1,6],[-1,6],[-18,48],[-6,9],[-3,4],[-5,3],[-4,2],[-26,6],[-4,2],[-3,2],[-3,2],[-3,3],[-2,3],[-2,8],[-2,10],[0,28],[2,7],[3,3],[13,13],[4,5],[3,5],[2,6],[1,6],[2,15],[2,5],[18,30],[29,83],[1,6],[-1,6],[-3,12],[-4,12],[-6,10],[-45,62],[-8,7],[-4,4],[-2,5],[-4,10],[-2,9],[-3,23],[-7,11],[-19,16]],[[3955,2665],[14,-2]],[[3921,2642],[0,2],[2,4],[2,4],[3,4],[4,3],[5,2],[4,2],[5,1],[4,0],[5,1]],[[3977,2619],[-9,0],[-5,2],[-4,2],[-5,4],[-4,5],[-2,5],[-4,2],[-17,3],[-3,1]],[[3924,2643],[-3,-1]],[[4096,2559],[-1,0],[-27,21],[-5,5],[-4,5],[-8,12],[-26,30],[-4,2]],[[4021,2634],[-3,-1],[-26,-5],[-7,-7],[-8,-2]],[[3552,3184],[-14,-27],[-1,-6],[-2,-6],[0,-8],[0,-14],[-1,-5],[-2,-7],[-4,-8],[-5,-6],[-18,-18],[-13,-19],[-64,-166],[-4,-17],[-4,-67],[8,-86],[-2,-44],[3,-21],[4,-63],[-1,-6],[-2,-8],[-3,-6],[-2,-1],[-5,-1],[-2,-3],[-1,-4],[-3,-4],[-10,-9],[-14,-8],[-16,-5],[-15,-3],[-6,0],[-4,-3],[0,-1],[-1,-2],[0,-3],[-1,-1],[-3,-1]],[[3344,2527],[-2,1],[-2,2],[-2,0]],[[3338,2530],[-9,-2],[-6,-5],[-4,-7],[-2,-8],[-1,-12],[-2,-3],[-4,-5],[-2,-1]],[[3253,2510],[-7,5],[-12,13],[-9,2]],[[3225,2530],[-19,-1]],[[3206,2529],[-4,0]],[[3202,2529],[-2,-3],[-1,-2],[0,-2],[0,-3],[1,-16],[1,-2],[1,-3],[5,-5],[1,-1],[1,-2],[4,-9],[4,-6],[1,-1],[0,-3],[1,-8],[0,-3],[1,-2],[1,-2],[1,-1],[3,-2],[1,-1],[2,-1],[0,-2],[1,-1],[0,-1],[-1,-1],[-5,-11],[-1,-1],[-5,-3],[-1,-1],[-1,-2],[-5,-14],[-1,-3],[0,-4],[0,-8],[0,-12],[-1,-4],[-1,-2],[-1,-1],[0,-2],[-1,-15],[1,-13],[1,-3],[0,-2],[2,-1],[3,-4],[2,-3],[2,-4],[2,-10],[1,-2],[1,-3],[1,-2],[4,-26],[1,-4],[2,-3],[1,-2],[10,-13],[1,-1],[0,-3],[-2,-3],[0,-3],[-1,-3],[1,-5],[1,-3],[2,-2],[3,-3],[2,-2],[0,-1],[2,-6],[1,-4],[1,-2],[1,-4],[4,-13],[0,-3],[2,-41],[0,-2],[-2,-2],[-2,-1],[-2,-1],[0,-1],[-1,0],[-3,-10],[-1,-3],[-1,-2],[-2,-2],[-2,-3],[0,-1],[-1,-2],[0,-5],[0,-69],[1,-2],[1,-2],[1,-4],[1,-1],[2,-4],[2,-5],[1,-4],[1,-1],[1,-2],[0,-2],[0,-2],[1,-7],[-1,-8],[0,-3],[-2,-4],[-1,-2],[-1,-11],[-1,-4],[-2,-5],[-2,-5],[-1,-1],[-4,-4],[-5,-3],[-2,-2],[0,-1],[-1,-3],[-3,-13],[-1,-1],[-2,-2],[-6,-4],[-2,0],[-8,-2],[-1,-1],[-1,0],[-2,-2],[-1,-2],[-2,-5],[-1,-3],[-1,-2],[-1,-1],[-3,-11],[-1,-1],[0,-1],[-4,-3],[-1,-1],[-1,-1],[0,-1],[0,-1],[-1,-1],[-2,-1],[-3,-2],[-2,-1],[-3,-2],[-2,-3],[-2,0],[-2,-1]],[[3287,2487],[-4,0],[-6,6],[-7,11],[-4,4],[-7,5]],[[3259,2513],[-6,-3]],[[3308,2487],[-2,2],[-5,1]],[[3301,2490],[-8,-1],[-6,-2]],[[3170,1901],[-6,1]],[[3164,1902],[-2,0],[-2,0],[-2,-1],[-3,-5],[-1,-1],[-2,0]],[[3152,1895],[-1,0],[-4,1],[-2,1]],[[3145,1897],[-1,0],[0,-1],[-1,0],[-3,-5],[-1,-2],[-1,-1],[-2,-1],[-6,-1],[-2,0],[-1,-1],[-6,-8],[-4,-5],[-2,0],[-3,-2],[-2,-1],[-1,-1],[-3,-3],[-1,-1],[-4,-1],[-4,-3],[-4,-2],[-2,-1],[-1,-1],[-1,-2],[-1,-1],[-6,-7],[-4,-3],[-2,-1],[0,-2],[-2,-6],[-1,-4],[0,-2],[0,-3],[14,-129],[7,-15],[21,-34],[41,-50],[5,-10],[3,-6],[4,-15],[4,-35],[0,-1]],[[4004,1236],[-25,2],[-37,9],[-19,9],[-4,3],[-6,5],[-3,4],[-4,3],[-5,3],[-50,20]],[[4096,1244],[-5,-1],[-87,-7]],[[1944,1413],[6,-1],[8,-3],[7,-6],[5,-7],[8,-18],[36,-49],[7,-7],[8,-6],[8,-3],[8,-2],[9,0]],[[1680,1084],[9,0],[11,3],[13,7],[28,10],[6,3],[16,15],[6,33],[7,14],[2,6],[1,8],[-1,9],[-3,18],[-22,70],[-2,9],[1,9],[5,9],[12,7],[11,4],[19,1],[10,4],[23,16],[23,33],[25,17],[56,23],[8,1]],[[2054,1311],[8,2],[8,4],[7,8],[5,11],[2,8],[1,13],[2,7],[4,7],[4,5],[14,9],[19,7],[1,0]],[[1657,1087],[23,-3]],[[2289,1137],[-1,-5],[0,-4],[0,-4],[-3,-4],[-1,-4],[2,-4],[9,-7],[-1,-46],[2,-9],[4,-9],[3,-4],[-5,-6],[-2,-5],[-5,-7],[-4,-8],[-1,-10],[0,-10],[3,-13],[6,-11],[7,-10],[5,-11],[3,-22],[-1,-63],[-6,-28],[-2,-10],[-1,-8],[1,-10],[6,-35],[0,-12],[-8,-20],[-5,-16],[-5,-8],[-6,-3],[-44,-15],[-9,-4],[-8,-6],[-6,-8],[-1,-9],[2,-10],[12,-26],[6,-10],[5,-9],[2,-5],[1,-7],[1,-15],[4,-7],[14,-8],[5,-6],[3,-7],[5,-4],[4,-3],[7,-1],[15,-5],[7,-5],[10,-14],[1,-9],[3,-7],[7,-5],[14,-3],[10,0],[34,-13],[156,-59],[4,-3],[4,-6],[1,-7],[-3,-9],[-10,-16],[-6,-5],[-4,-7],[-6,-16],[-1,-8],[3,-9],[5,-9],[8,-9],[19,-17],[36,-25],[9,-4],[9,-2]],[[2611,279],[7,3],[11,2]],[[1349,551],[4,-1],[11,-2],[29,-12],[4,-1],[5,-1],[3,-1]],[[1340,534],[6,3],[1,3],[-2,8],[2,3],[2,0]],[[1312,537],[28,-3]],[[1293,530],[4,3],[2,0],[13,4]],[[1285,532],[4,-1],[4,-1]],[[1232,514],[39,6],[2,1],[3,3],[2,6],[3,2],[4,0]],[[1207,516],[13,0],[8,-2],[4,0]],[[2024,149],[-8,1],[-7,3],[-5,4],[-10,17],[-4,3],[-5,1],[-9,0],[-4,2],[-4,3],[-6,12],[-3,2],[-3,1],[-3,2],[-1,5],[1,3],[2,2],[7,5],[-4,3],[-6,3]],[[2127,126],[-9,5],[-7,6],[-6,3],[-39,11],[-5,3],[-8,3]],[[2053,157],[-15,-6]],[[2038,151],[-6,2]],[[2032,153],[-8,-4]],[[2156,120],[-4,13],[-4,2]],[[2148,135],[-6,-3]],[[2142,132],[-7,3]],[[2135,135],[-3,-5],[-5,-4]],[[2176,115],[-4,1],[-6,3],[-5,2]],[[2161,121],[-5,-1]],[[2253,0],[3,3],[2,5],[1,13],[-2,7],[-9,12],[-3,12],[-10,9],[-4,6],[-1,6],[1,13],[-2,6],[-7,6],[-19,11],[-4,7],[-3,2]],[[2196,118],[-20,-3]],[[2735,80],[1,-11],[-5,-17],[-1,-10],[3,-10],[10,-18],[2,-10],[-1,-4]],[[2249,2],[1,-2]],[[2246,0],[3,2]],[[3881,1043],[1,0]],[[3679,955],[25,0],[47,11],[7,6],[6,6],[2,3],[2,3],[8,6],[12,7],[22,7],[29,5],[8,6],[8,8],[6,8],[20,12]],[[3644,960],[16,-2],[19,-3]],[[2688,284],[27,5],[31,16],[10,7],[16,16],[11,8],[10,4],[10,2],[36,4],[25,9],[10,5],[9,6],[18,17],[12,7],[8,4],[26,8],[19,13],[14,12],[14,7],[34,6],[11,6],[9,5],[13,11],[51,12],[24,15],[16,18],[12,18],[4,10],[2,9],[10,72],[3,10],[4,5],[3,4],[8,7],[56,47],[16,10],[12,4],[20,3],[11,5],[7,7],[4,8],[5,16],[3,8],[4,7],[5,4],[57,26],[25,8],[16,9],[8,9],[5,10],[5,18],[4,9],[11,19],[19,22],[26,19],[11,14],[15,10],[11,6],[6,2],[16,1],[10,3],[20,8],[10,1],[7,0],[21,5]],[[2622,287],[66,-3]],[[2629,284],[-7,3]],[[2633,268],[3,6],[2,2],[-9,8]],[[2646,265],[-7,3]],[[2639,268],[-6,0]],[[2668,233],[-2,4],[-7,6],[-2,11],[-5,6],[-1,5]],[[2651,265],[-5,0]],[[2686,225],[-9,4],[-3,3],[-4,3]],[[2670,235],[-2,-2]],[[2686,185],[2,0],[7,3],[0,3],[-4,4],[1,1],[4,1],[2,0],[-1,4],[0,3],[2,2],[4,2],[-2,1],[-5,4],[1,1],[2,2],[1,2],[-4,1],[-4,2],[-2,4],[1,5]],[[2691,230],[-5,-5]],[[2682,188],[2,-1],[2,-2]],[[2735,80],[-3,9],[-5,8],[-5,7],[-7,6],[-13,12],[-6,7],[-5,8],[-4,10],[-3,10],[-1,20],[-1,3],[-2,1],[-1,1],[0,3],[3,3]],[[1514,1189],[7,-9],[-1,-9],[-2,-8],[1,-9],[7,-7],[12,-3],[14,0]],[[1432,1137],[0,2],[0,4],[2,8],[3,6],[1,2],[0,5],[-3,12],[9,6],[24,5],[39,2],[7,0]],[[1619,1162],[7,-2],[2,0],[9,-8],[5,-5],[1,-2],[0,-1],[-6,-3],[0,-7],[4,-6],[8,-1],[7,-6],[1,-18],[0,-16]],[[1552,1144],[10,1],[8,2],[15,9],[8,3],[17,3],[9,0]],[[1430,1081],[2,1],[1,1],[2,5],[1,2],[1,3],[2,5],[1,12],[2,9],[2,3],[2,3],[0,3],[0,2],[-3,5],[-2,2],[-2,1]],[[1439,1138],[-1,0],[-4,-1],[-2,0]],[[1429,1081],[1,0]],[[1406,1056],[2,0],[1,2],[1,6],[1,3],[1,2],[3,2],[2,1],[3,0],[2,1],[1,1],[1,2],[2,4],[1,1],[2,0]],[[1338,1064],[2,-1],[4,-1],[2,-1]],[[1283,1015],[6,1],[9,3],[2,2],[2,2],[1,1],[6,6],[5,5],[2,3],[4,12],[2,3],[3,3],[6,5],[3,2],[2,1],[2,0]],[[1348,1061],[3,0],[3,-2],[4,-1],[1,-1],[1,-2],[1,-1],[2,-1],[1,-2],[3,-1],[4,0]],[[1346,1061],[2,0]],[[1391,1058],[7,0],[2,-1],[4,-1],[2,0]],[[1371,1050],[2,0],[3,1],[8,5],[4,1],[3,1]],[[1253,1021],[5,-1],[8,-2],[12,-3],[5,0]],[[1242,1019],[11,2]],[[1558,733],[14,0],[14,2],[5,2],[3,2],[4,4],[1,24],[-1,12],[0,10],[1,7],[3,12],[5,34],[11,34],[8,16],[2,9],[-1,7],[-5,7],[-16,7],[-8,6],[-5,9],[-3,7],[5,12],[13,21],[3,7],[0,5],[2,6],[6,3],[37,13],[6,6],[1,7],[-2,6],[-1,21],[-4,19],[1,17]],[[1543,740],[4,-2],[7,-4],[4,-1]],[[1522,729],[3,0],[4,3],[5,4],[4,3],[5,1]],[[1515,729],[7,0]],[[1436,668],[13,6],[6,14],[5,15],[9,10],[8,2],[16,0],[7,3],[4,2],[5,6],[3,2],[3,1]],[[1420,670],[16,-2]],[[1405,533],[9,10],[5,8],[3,9],[-1,13],[-3,9],[-8,17],[-1,6],[11,14],[9,11],[-5,15],[-18,17],[3,6],[5,1],[6,1]],[[3953,215],[-3,0],[-3,1]],[[3947,216],[-2,0],[-1,-1],[-3,-2],[-2,-3],[-1,-1],[-6,-2],[-60,-6]],[[4002,202],[-4,1],[-2,0],[-2,1],[-6,4],[-2,1],[-2,1],[-20,5],[-3,1]],[[3961,216],[-8,-1]],[[4026,207],[-13,-4],[-11,-1]],[[3872,201],[-22,1]],[[3850,202],[-7,0],[-4,-1],[-2,-3],[-2,-3],[-7,-11],[-4,-11],[-1,-11],[-2,-6],[-1,-2],[0,-5],[1,-13],[0,-3],[-1,-2],[-2,-3],[-11,-8],[-4,-4],[-8,-10],[-1,-1],[0,-2],[0,-5],[0,-2],[0,-2],[-1,-2],[-1,-4],[0,-12],[-1,-2],[-1,-1],[-2,-3],[-1,-2],[0,-1],[0,-1],[0,-1],[0,-2],[1,-3],[0,-2],[1,-2],[1,-1],[3,-3],[1,-1],[0,-2],[1,-2],[0,-2],[2,-1],[1,-1],[4,0],[2,0],[0,-2],[-1,-3],[0,-2],[0,-2],[0,-2],[1,-1],[1,-2],[-2,-12],[-4,-3],[-1,-1],[-10,-3],[-5,-3],[-16,-7]],[[3747,0],[-1,1],[-1,1],[-1,2],[-2,0]],[[3742,4],[-1,0],[-2,-2],[-2,0]],[[3737,2],[-6,1]],[[3731,3],[-2,-1],[-1,-1],[-1,-1]],[[1153,1648],[3,0],[23,9],[2,1],[2,1],[7,11],[6,6],[28,1],[22,4],[14,5],[23,11],[5,4],[2,6],[4,8],[15,21],[1,1],[16,24],[1,2],[9,7],[2,2],[13,18],[3,11],[-8,6],[-17,19],[-4,12],[-9,36],[-5,12],[-27,40],[-6,15]],[[1131,1649],[4,0],[3,0]],[[953,1544],[19,0],[5,1],[3,1],[4,3],[2,3],[2,2],[2,1],[5,3],[2,1],[3,5],[1,1],[4,3],[13,6],[15,4],[20,5],[33,16],[3,3],[4,12],[1,3],[1,2],[4,4],[1,1],[1,2],[2,4],[4,5],[15,11],[3,2],[2,1],[2,0],[2,0]],[[1142,1649],[2,0],[6,-1],[3,0]],[[1138,1649],[4,0]],[[947,1544],[2,0],[4,0]],[[963,1331],[4,1],[3,1],[2,2],[5,6],[3,3],[4,1],[1,3],[0,1],[0,5],[-4,5],[-13,13],[-6,9],[-10,22],[0,13],[4,10],[17,25],[1,8],[-5,7],[-7,6],[-8,8],[-6,11],[-10,27],[-10,21],[6,3],[10,2],[3,0]],[[955,1331],[8,0]],[[935,1304],[7,19],[3,5],[8,3],[2,0]],[[1717,537],[3,-1],[2,-3],[2,-1]],[[1693,529],[7,0],[4,1],[4,1],[3,2],[3,2],[3,2]],[[1664,537],[3,-1],[5,-4],[2,0],[7,-1],[12,-2]],[[1607,508],[34,3],[6,2],[5,4],[3,5],[3,5],[1,3],[0,4],[1,2],[4,1]],[[1735,535],[5,-1],[2,-1],[8,-6]],[[1724,532],[4,0],[3,2],[4,1]],[[1405,533],[1,-5],[7,-2],[2,-2],[1,-3],[2,-2],[3,-1],[6,0],[3,-2],[3,-2],[4,-6],[2,-2]],[[1754,531],[5,-1],[7,-2],[7,-1],[16,-1],[7,-2],[6,-5],[4,-4],[3,-5],[2,-7],[1,-8],[2,-6],[4,-5],[5,-4],[2,-2],[1,-2],[9,-1],[2,-1],[3,-3],[2,-2],[3,-24],[3,-6],[5,-3],[14,-55],[-4,-4],[-6,-3],[-5,-4],[-2,-8],[0,-15],[2,-7],[3,-5],[2,-2],[2,-1],[2,-1],[5,0],[4,-1],[2,-2],[2,-2],[2,0],[16,-20],[0,-4],[-2,-13],[0,-5],[3,-2],[2,-1],[6,-4],[9,-4],[21,-26],[1,-3],[2,-2],[8,-7],[5,-9],[2,-2],[3,-3]],[[1750,527],[4,4]],[[1588,512],[4,-1],[8,-2],[7,-1]],[[1577,506],[11,6]],[[1555,509],[9,0],[7,-2],[6,-1]],[[1550,504],[1,1],[1,1],[1,2],[2,1]],[[1447,507],[4,-1],[2,-1]],[[1439,506],[8,1]],[[1539,506],[2,0],[6,-2],[3,0]],[[1498,499],[5,1],[8,3],[28,3]],[[1456,506],[8,-1],[7,-3],[5,-3]],[[1453,505],[3,1]],[[1481,502],[6,-1],[5,-1],[6,-1]],[[1476,499],[5,3]],[[1144,1024],[10,-1],[4,0],[8,-3],[2,0]],[[1032,606],[15,35],[8,28],[5,8],[12,14],[2,7],[0,3],[-6,9],[-5,9],[1,6],[1,8],[-3,7],[-6,5],[-19,6],[-9,5],[0,7],[5,5],[8,4],[7,6],[5,10],[0,7],[0,4],[-3,3],[-12,9],[-6,5],[-1,5],[2,8],[12,10],[42,11],[16,6],[12,7],[8,7],[6,7],[5,8],[2,8],[1,9],[-1,8],[-13,36],[-9,10],[-9,9],[-6,8],[-2,6],[-1,3],[1,11],[14,14],[16,10],[12,5],[5,2]],[[1184,1021],[3,0],[4,0]],[[1168,1020],[16,1]],[[1201,1021],[2,0],[15,-3],[2,-1],[1,-1],[1,-1],[2,-3],[1,-1],[2,0]],[[1191,1021],[10,0]],[[1227,1011],[2,1],[3,3],[10,4]],[[1066,566],[-6,2],[-5,7],[-9,22],[-10,9]],[[1036,606],[-4,0]],[[1122,545],[-2,0],[-3,1],[-12,3],[-2,2],[-2,9],[-1,2],[-1,1],[-7,5],[-3,1]],[[1089,569],[-5,-2],[-9,-1],[-9,0]],[[1197,512],[-2,1],[-7,7],[-2,1],[-9,5],[-4,3],[-9,10],[-6,4],[-7,3],[-8,2],[-8,1]],[[1135,549],[-13,-4]],[[1207,516],[-2,0]],[[1205,516],[-3,-1],[-2,-2],[-3,-1]],[[1207,516],[4,-29],[0,-26],[-1,-13],[-3,-10],[-5,-7],[-4,-10],[1,-8],[7,-20],[3,-13],[-4,-9],[-2,-9],[1,-8],[4,-9],[6,-6],[10,-9],[2,-16],[-1,-8],[-3,-9],[-10,-16],[-10,-10]],[[895,298],[-2,0],[-1,2],[-3,5],[-11,15],[-2,3],[-2,3],[-5,4],[-17,9],[-3,1],[-5,1],[-2,1],[-1,1],[-2,3],[-2,3],[-5,4],[-4,1],[-4,0]],[[824,354],[-2,0],[-1,-1],[-1,-2],[-5,-10],[0,-1]],[[1202,271],[-25,11],[-16,15],[-7,8],[-9,8],[-27,12],[-11,3],[-11,2],[-8,1]],[[1088,331],[-8,0],[-9,-3],[-9,-4],[-8,-5],[-23,-20],[-14,-7],[-7,-7],[-2,-1],[-4,-1]],[[918,300],[-5,1],[-10,4],[-3,0]],[[900,305],[-1,-1],[1,-2],[0,-1],[-1,-2],[-4,-1]],[[945,293],[-5,0],[-3,2],[-1,2],[-3,2],[-4,1]],[[929,300],[-11,0]],[[1004,283],[-2,0],[-1,1],[-2,1],[-1,2],[-4,3],[-5,3],[-11,3],[-6,1]],[[972,297],[-6,-1],[-21,-3]],[[772,952],[21,-4],[7,-2],[8,-5],[17,-14],[5,0],[6,0]],[[843,929],[7,-2],[7,-7],[4,-10],[7,-23],[2,-17],[-1,-12],[-10,-2],[-7,-3],[-7,-6],[-11,-20],[-13,-18],[-8,-66],[-3,-8]],[[836,927],[7,2]],[[810,735],[-16,5],[-7,1]],[[787,741],[-5,-1],[-6,-2],[-8,-1]],[[768,737],[-13,2]],[[755,739],[-7,0],[-9,-4],[-13,-11],[-8,-14],[-6,-14],[-8,-11],[-3,-2],[-12,-6]],[[816,1262],[5,0],[42,12],[2,1],[3,3],[2,1],[3,2],[8,3],[5,1],[12,0],[4,0],[2,1],[2,2],[1,1],[2,1],[5,2],[3,2],[1,1],[2,1],[9,4],[3,1],[3,3]],[[780,1277],[3,-1],[3,-1],[7,-6],[1,-2],[5,-2],[2,-1],[3,-1],[4,-1],[8,0]],[[738,1258],[2,0],[2,1],[1,2],[0,1],[1,2],[1,2],[4,3],[5,2],[8,3],[14,3],[4,0]],[[727,1261],[2,0],[2,-1],[2,-1],[2,-1],[3,0]],[[671,1241],[1,0],[2,0],[18,2],[9,2],[7,3],[3,2],[3,2],[2,2],[10,7],[1,0]],[[215,2737],[7,-12],[3,-2],[3,-2],[8,-1],[11,-5],[49,-36],[12,-5],[4,-1],[12,-1],[11,-4],[6,-4],[6,-3],[2,-1],[0,-2],[0,-4],[1,-3],[0,-1],[3,-1],[7,-2],[11,-3],[10,-2],[8,-3],[7,-1],[5,-1],[8,-3],[4,-2],[2,-1],[0,-1],[0,-2],[0,-2],[0,-2],[1,-3],[2,-1],[13,-3],[4,-2],[3,-3],[30,-35],[4,-6],[2,-3],[1,-3],[0,-2],[-3,-18],[0,-3],[0,-3],[1,-3],[2,-6],[13,-17],[3,-2],[3,-2],[3,0],[3,-1]],[[523,2509],[4,0],[3,-1],[6,-2],[4,-3],[7,-5],[10,-10],[1,-4]],[[500,2508],[23,1]],[[528,2806],[9,-1],[-2,-10],[7,-3]],[[513,2801],[5,1],[7,4],[3,0]],[[512,2803],[1,-2]],[[895,2727],[2,0],[1,1],[1,3],[0,5],[0,2],[2,3],[2,3],[5,3],[4,2],[4,2],[1,1],[1,2],[2,5],[0,3],[0,2],[0,2],[0,2],[0,1],[1,2],[1,2],[2,1],[4,1],[2,1],[7,5],[13,18]],[[557,2792],[6,-1],[4,-7],[-5,-3],[6,-2],[1,-3],[0,-4],[1,-6],[1,-1],[5,0],[1,-1],[1,-2],[1,-4],[1,-2],[3,-3],[1,-3],[6,-17],[3,-3],[4,-1],[-2,-7],[-2,-2],[-1,-3],[1,-2],[4,-2],[0,-13],[4,-8],[11,-9],[4,-1],[1,-1],[4,-2],[8,-3],[3,-2],[1,-3],[1,-2],[2,-2],[1,0],[2,-1],[2,-1],[2,-2],[1,-2],[2,-3],[2,-1],[4,-1]],[[542,2792],[15,0]],[[880,2729],[2,0],[6,-2],[2,0]],[[861,2716],[2,0],[2,1],[6,4],[2,1],[0,4],[1,2],[3,1],[3,0]],[[893,2727],[2,0]],[[890,2727],[3,0]],[[852,2718],[3,0],[2,-1],[2,0],[2,-1]],[[849,2705],[-2,0],[-2,1],[-1,2],[0,6],[0,1],[1,1],[2,1],[5,1]],[[798,2611],[4,0],[7,2],[5,1],[5,2],[1,2],[2,2],[2,3],[3,13],[0,3],[0,6],[0,3],[2,3],[2,4],[10,9],[3,5],[0,3],[0,3],[0,3],[1,3],[4,3],[3,3],[3,5],[1,2],[0,1],[-3,2],[-2,1],[0,1],[1,5],[0,1],[-2,0]],[[850,2705],[-1,0]],[[722,2663],[4,0],[8,-6],[3,-1],[3,0]],[[696,2656],[4,1],[16,5],[6,1]],[[681,2660],[3,0],[3,-1],[9,-3]],[[652,2656],[4,1],[6,1],[19,2]],[[749,2657],[7,-1],[3,0]],[[740,2656],[9,1]],[[761,2657],[2,0],[2,-2],[2,-3],[1,-2],[-1,-3],[-1,-3],[0,-3],[0,-3],[6,-17],[2,-3],[2,-2],[2,-1],[3,-1],[6,0],[11,-3]],[[759,2656],[2,1]],[[635,3231],[3,-3],[2,-2],[2,0]],[[650,3229],[2,0],[2,-1],[2,-3],[0,-3],[-4,-17],[-1,-63],[4,-52],[2,-6],[7,-17],[1,-3],[-1,-2],[-3,-1],[-6,-1],[-3,-1],[-5,-5],[-2,-1],[-6,-2],[-1,-1],[-1,-2],[0,-3],[1,-2],[2,-5],[2,-5],[1,-3],[1,-2],[2,-1],[8,-3],[6,0],[2,-1],[17,-14],[2,-2],[2,-3],[1,-3],[0,-3],[0,-2],[-5,-12],[-3,-17],[0,-21],[-1,-4],[-3,-5],[-13,-13],[-10,-6],[-3,-2],[-4,-5],[-5,-2],[-3,-1],[-2,0],[-9,-4],[-2,0]],[[642,3226],[2,0],[3,2],[3,1]],[[621,2904],[-3,0],[-5,1],[-3,1]],[[610,2906],[-1,-1],[0,-3],[0,-10],[0,-2],[-2,-1],[-2,0]],[[605,2889],[-2,0],[-2,3],[-3,0]],[[598,2892],[-2,-1],[-5,-3],[-3,-2],[-3,0]],[[585,2886],[-2,0],[-5,3],[-1,1],[-3,0]],[[574,2890],[-2,0],[-3,0],[-2,-1],[-6,-3],[-2,0],[-2,-1],[-2,0]],[[555,2885],[-11,2]],[[544,2887],[-5,0],[-2,0],[-2,-1],[-2,-1],[-6,-4],[-5,-2],[-1,-1],[-1,0],[-1,-2],[-1,-2],[-1,-1],[-4,-16],[-2,-6],[-1,-1],[-1,-1],[-1,-1],[-2,-1]],[[506,2847],[-7,1]],[[499,2848],[-1,-1],[-2,-1],[-2,-1],[-1,-1],[0,-3],[4,-5],[-2,-5],[0,-2],[3,0],[3,-2],[1,-3],[0,-4],[2,-3],[3,0]],[[511,2817],[1,-2],[0,-12]],[[507,2817],[4,0]],[[1054,2830],[2,-1],[4,-4],[3,-2],[14,-6],[7,-1],[6,-3],[2,-3],[3,-2],[2,-3],[3,-6],[3,-3],[1,-3],[1,-3],[0,-5],[2,-9],[1,-3],[3,-3],[1,-3],[1,-2],[-1,0],[-10,-5],[-2,-1],[-3,-1],[-5,-6],[-4,-3],[-5,-1]],[[994,2785],[16,1],[3,1],[3,1],[20,25],[3,3],[8,5],[2,2],[2,5],[3,2]],[[950,2799],[13,-7],[4,-1],[10,-1],[4,-1],[6,-3],[4,-1],[3,0]],[[1083,2748],[-4,2]],[[1079,2750],[-1,-1],[1,-5],[9,-18],[8,-9],[12,-20],[0,-6],[1,-6],[4,-5],[7,-2],[6,-3],[5,-9],[3,-10],[5,-8],[-5,-1],[-3,-3],[-5,-6],[-6,-8],[-2,-2],[-15,0]],[[1103,2628],[-11,7],[-4,1]],[[1088,2636],[-1,-2],[-2,-8],[-1,-3],[-3,-3],[-18,-13],[-5,-4],[-4,-7],[6,-15],[0,-6],[-6,-4],[2,-3],[-5,-3],[-13,-3],[-4,-2],[-4,-3],[-11,-12],[-8,-6],[-14,-6],[-5,-1],[-2,-2],[-2,-2],[-1,-2],[-3,-10],[-2,-25],[-1,-4],[-4,-8],[-1,-3],[-1,-6],[-2,-2],[-3,-6],[-3,-11]],[[1096,3004],[-26,-16],[-7,-6],[-2,-2],[-1,-3],[-6,-22],[-5,-12],[-1,-4],[-1,-5],[1,-3],[-1,-1],[-1,-1],[-3,-2],[-2,-2],[-3,-8],[-2,-2],[-1,-2],[-2,-2],[-1,0],[0,-2],[1,-2],[-1,-2],[-1,-1],[-5,-2],[-3,-2],[-2,-2],[-1,-1],[-2,-7],[-1,-1],[-6,-4],[-2,-1],[-1,-3],[-3,-4],[-1,-3],[-14,-15],[-3,-2],[-5,-3],[-8,-8],[-2,-2],[0,-1],[0,-1],[0,-2],[0,-2],[-3,-5],[-2,-5],[-4,-8],[-2,-3],[-4,-3],[-1,-1],[0,-1],[1,-4],[-1,-3],[0,-2],[-1,-1],[-5,-3]],[[1356,3032],[-7,1],[-4,1],[-2,2],[0,1],[0,2],[1,4],[0,1],[0,2],[-3,12],[0,9],[0,2],[-1,3],[-1,1],[-1,2],[-2,2],[-1,1],[-1,2],[1,6],[-1,2],[0,2],[-3,3],[-2,5],[-1,1],[-2,1]],[[1326,3100],[-2,0],[-5,-1],[-11,-7],[-3,-2],[-9,-5],[-2,-2],[-1,-2],[-1,-2],[0,-7],[0,-1],[-1,-5],[-1,-2],[0,-1],[-1,0],[0,-1],[-4,-3],[-3,-2],[-13,-7],[-4,-4],[-1,-1],[-2,-3],[-11,-10],[-9,-7],[-2,-1],[0,-1],[-1,-1],[-2,-5],[0,-1],[-1,-1],[-6,-4],[-3,-2],[-9,-9],[-6,-4],[-1,-1],[-1,-1],[-6,-10],[-2,-3],[-6,-5],[-4,-7],[-1,-2]],[[1742,3016],[-5,1],[-6,1],[-3,1],[-2,2],[-1,1],[-1,1],[-2,1],[-1,1],[-2,1],[-1,1],[-2,6],[-1,2],[-1,1],[-1,1],[-3,3],[-1,1],[-2,1],[-2,0],[-2,1],[-1,1],[-4,3],[-5,3],[-10,4],[-4,1],[-5,2],[-5,2],[-2,1],[-2,1]],[[1665,3061],[-2,-2],[-3,-3],[-1,0]],[[1659,3056],[-4,2],[-2,0]],[[1653,3058],[-24,-5],[-3,-1],[-6,-3],[-4,-3],[-3,-2],[-1,-2],[-1,-1],[-2,-3],[0,-2],[-2,-2],[-3,-1],[-4,-1],[-2,0],[-2,-1],[-2,-2],[-1,0],[-3,-2],[-8,-2],[-3,-1],[-5,-3],[-3,-2],[-4,-4],[-1,-1],[-2,-1],[-2,-2],[-6,-5],[-2,-2],[-3,-1],[-9,-6],[-4,-3],[-26,-8],[-3,-1]],[[1468,2987],[-14,2],[-7,3],[-2,1],[-1,1],[-5,1],[-1,1],[-1,1],[0,1],[-1,1],[-1,1],[-2,1],[-6,1],[-2,1],[-2,1],[-1,1],[-1,1],[-2,6],[-2,11],[-1,2],[-1,1],[-4,4],[-1,3],[-1,1],[-2,1],[-3,1],[-23,3]],[[1381,3039],[-3,-1],[-8,-3],[-8,-2],[-6,-1]],[[1796,3019],[-14,1],[-8,2],[-10,1]],[[1764,3023],[-3,0],[-4,-1],[-7,-1],[-3,-1],[-2,-2],[-1,-1],[-2,0],[0,-1]],[[1113,2988],[-8,4],[-9,12]],[[1509,2985],[-3,1],[-14,4],[-3,0]],[[1489,2990],[-4,0],[-7,-1],[-6,-2],[-4,0]],[[1142,2983],[-3,0],[-2,1],[-8,4],[-5,1]],[[1124,2989],[-11,-1]],[[1191,2967],[-4,0],[-5,2],[-10,5],[-5,3],[-2,3],[-1,1],[-2,1],[-2,1],[-2,1]],[[1158,2984],[-12,0],[-4,-1]],[[2152,4096],[1,-3],[1,-7],[1,-25],[1,-7],[5,-13],[1,-8],[-4,-4],[-6,-2],[-3,-5],[0,-28],[1,-2],[6,-2],[0,-3],[-13,-15],[2,-3],[8,-2],[6,-5],[-12,-18],[-3,-9],[5,-9]],[[2153,3934],[7,-1],[7,-5],[6,-5],[2,-7],[-1,-8],[-7,-17],[0,-2],[4,-16],[1,-4],[-4,-8],[0,-4],[1,-13],[2,-1]],[[2149,3926],[4,8]],[[2173,3843],[3,-2],[3,-2],[1,-1],[1,-2],[0,-7],[4,-4],[4,-1],[7,-1],[91,-2],[4,-1],[1,-1]],[[2171,3843],[2,0]],[[1583,3753],[20,-5],[14,-2],[7,-1],[4,-5],[2,-7],[0,-9],[2,-8],[6,-7],[6,-3],[17,-4],[8,-3],[2,-3],[2,-2],[1,-2],[17,-5],[3,-1],[5,-8],[3,-4],[3,0]],[[1554,3743],[6,2],[11,5],[6,2],[6,1]],[[1547,3745],[1,0],[4,-2],[2,0]],[[1498,3705],[1,1],[6,5],[6,6],[10,16],[6,5],[13,4],[4,2],[3,1]],[[1494,3707],[4,-2]],[[1339,3513],[5,1],[10,4],[6,3],[13,13],[25,33],[19,59],[8,16],[24,32],[7,6],[18,8],[8,5],[3,3],[4,7],[3,3],[2,1]],[[1709,3676],[1,-3],[0,-9],[7,-3],[23,-2],[12,-5],[11,-5],[41,-26],[2,-2],[2,-2],[15,-1],[2,-2],[3,-2],[1,-3],[6,-12],[8,-11],[11,-32],[9,-8],[16,-1],[-2,-6],[5,-3],[6,-2],[1,-2],[1,-3],[8,-1]],[[1705,3674],[4,2]],[[1927,3536],[8,-1],[11,-5]],[[1898,3530],[10,0],[5,2],[7,4],[7,0]],[[1947,3531],[0,-1],[2,-4],[0,-5],[-2,-5],[1,-4]],[[1946,3530],[1,1]],[[1325,3514],[14,-1]],[[1157,3354],[3,0],[3,0],[13,3],[3,1],[2,2],[2,2],[1,1],[3,6],[2,2],[2,2],[4,1],[7,3],[5,4],[8,8],[15,20],[1,2],[4,11],[2,3],[7,8],[4,7],[3,4],[11,10],[2,3],[5,9],[1,2],[1,9],[3,4],[5,6],[18,15],[4,3],[18,8],[3,0],[3,1]],[[1948,3512],[8,1],[12,0]],[[1135,3392],[1,-3],[2,-19],[2,-8],[3,-4],[2,-2],[6,-2],[6,0]],[[1267,3686],[68,3],[28,6],[20,17],[35,41],[7,16],[8,13],[-7,12],[-57,50],[15,20],[21,21],[7,12],[6,13],[2,13],[-17,65],[-5,13],[-13,3],[-26,4],[-12,5],[-4,12],[-3,14],[-10,21],[-3,9],[1,6],[0,5],[-3,14],[0,2]],[[1252,3689],[15,-3]],[[1161,3662],[47,8],[26,7],[9,9],[9,3]],[[215,2359],[21,0],[0,-42]],[[236,2317],[-4,0]],[[2669,3336],[4,-3],[0,-16],[-17,-21],[-4,-2],[-16,-7],[-9,-2],[-4,-1],[-7,-7],[4,-4],[18,-5],[-11,-4],[-17,-3],[-3,-1],[-6,-8],[-7,-16],[-8,-10],[-5,-13],[-4,-4],[-8,-7],[-4,-4],[-3,-8],[1,-15],[-2,-7],[3,-7],[-2,-11],[-4,-11],[-2,-10],[-1,-3],[-3,-2],[-2,-2],[-2,-2],[-1,-3],[0,-4],[-1,-3],[-6,-5],[-5,0],[-6,0],[-6,-2],[1,5],[2,5],[4,1],[3,0],[3,1],[2,4],[2,9],[2,4],[2,6],[3,19],[2,4],[0,3],[-11,24],[0,8],[1,9],[3,9],[4,4],[7,1],[6,14],[6,31],[2,46],[4,9],[-4,5],[-6,6],[-7,5],[-5,1],[-4,3],[-6,5],[-8,10],[-2,1],[-1,0],[-1,0],[-1,1],[-1,2],[1,4],[-4,23],[-1,3],[-2,2],[-1,3],[2,3],[4,1],[2,2],[0,4],[-1,4],[-5,17],[-1,1],[-6,5],[-35,14],[-2,4],[-1,2],[2,14],[6,16],[3,4],[6,4],[8,3],[8,-1],[3,-7],[2,-11],[6,-3],[7,0],[2,-5],[2,-3],[1,-2],[5,8],[-3,8],[-6,6],[-4,5],[1,9],[2,7],[4,5],[8,5],[7,2],[8,0],[7,-3],[3,-8],[-2,-12],[1,-2],[4,0],[4,0],[2,-2],[1,-3],[3,0],[2,4],[15,9],[2,2],[2,6],[1,2],[3,1],[6,1],[8,5],[5,-2],[3,-3],[4,-2],[5,2],[8,9],[6,1],[-3,-6],[-7,-11],[-3,-8],[-3,-15],[-3,-7],[-4,-5],[-3,-1],[-10,-1],[-2,-2],[-1,-2],[-4,-2],[-7,-2],[-28,-13],[0,-2],[5,-3],[-6,-5],[-2,-14],[-3,-3],[-2,-4],[1,-36],[2,-8],[5,-5],[7,-2],[6,2],[5,0],[4,-8],[11,13],[6,5],[7,3],[5,-4],[-4,-7],[-7,-7],[-3,-3],[-3,-7],[1,-6],[1,-6],[1,-7],[-1,-25],[1,-6],[6,-3],[8,2],[9,3],[6,4],[26,26],[9,5]],[[0,2620],[7,-5],[32,-26],[2,-3],[0,-4],[0,-8],[1,-3],[4,-8],[2,-3],[7,-11],[18,-16],[17,-10],[33,-30],[38,-33],[42,-41],[6,-14],[-1,-8],[-7,-8],[-9,0],[0,-3],[2,-5],[15,-14],[10,-13],[1,-7],[-2,-5],[-2,-1],[-5,6],[-2,0],[-2,-2],[1,-2],[3,-5],[21,-21],[3,-10],[9,-9],[14,-16],[8,-14],[5,-6],[6,-5],[7,-1],[5,0],[5,-2],[3,0],[2,3],[3,-1],[2,-3],[2,-8],[3,-1],[2,2],[0,8],[0,5],[3,4],[4,0],[3,-1],[2,-4],[0,-7],[-3,-2],[-1,-5],[-3,-6],[-6,-3],[-7,1],[-3,9],[-2,2],[-5,1],[-7,2],[-4,1],[-1,-4],[17,-27],[20,-24],[3,-17],[15,-26],[-1,-10],[10,-24],[6,-13],[6,-13],[1,-5],[0,-11],[-2,-5],[-3,-4],[-5,-2],[-5,0],[-4,-1],[-4,-4],[-8,-24],[5,-23],[18,-30],[14,-24],[6,-8],[25,-25],[7,-9],[2,-1],[4,-3],[2,-1],[1,-3],[2,-7],[4,-8],[3,6],[3,2],[1,2],[6,2],[6,-1],[4,-2],[0,-3],[0,-8],[-8,-5],[-2,-3],[2,-6],[5,-1],[9,3],[30,7],[18,10],[24,-1],[18,8],[-2,18],[10,11],[4,7],[4,6],[8,6],[3,1],[10,6],[13,4],[13,1],[11,0],[6,-1],[12,-5],[5,-1],[17,-8],[12,-2],[8,1],[6,-1],[6,0],[12,4],[5,0],[5,-2],[-5,-2],[-15,-8],[-6,-2],[-4,-1],[-14,2],[-6,0],[-6,-2],[-7,-1],[-9,-2],[-5,-5],[-2,-7],[-7,-8],[-7,-10],[-17,-7],[-7,-6],[-16,-5],[-17,-4],[-11,-3],[-9,2],[-9,3],[-8,3],[-9,0],[-5,-2],[-19,-10],[-11,-2],[-8,-3],[-11,-7],[-23,-5],[-19,-1],[-13,-4],[-8,0],[1,10],[3,6],[-8,-5],[-8,-2],[-6,-7],[2,-12],[14,-26],[10,-13],[8,-12],[10,-13],[10,-21],[13,-31],[34,-61],[25,-38],[31,-29],[27,-37],[7,-3],[11,7],[2,-3],[-1,-1],[-1,-1],[-1,-4],[-1,-2],[-2,-3],[-1,-2],[0,-1],[2,-1],[0,-2],[1,-6],[3,-11],[6,-73],[2,-10],[-1,-12],[6,-9],[6,-6],[10,-11],[10,-37],[17,-42],[50,-112],[24,-43],[3,-17],[7,-14],[2,-4],[5,-10],[2,-4],[3,-6],[6,-17],[4,-3],[34,-53],[3,-9],[2,-7],[-1,-28],[-1,-4],[-2,-4],[-3,0],[-3,0],[-5,-1],[3,-11],[5,-25],[4,-11],[11,-15],[2,-5],[-1,-6],[-6,-13],[-4,-19],[-9,-3],[-23,3],[-2,0],[-2,-2],[-1,-2],[0,-2],[-1,-4],[-2,-2],[-3,0],[-7,-5],[-12,-5],[-5,-3],[5,7],[18,18],[-7,-2],[-6,-5],[-11,-12],[-1,-3],[0,-9],[0,-4],[-2,-4],[-9,-10],[-5,-7],[-4,-12],[-5,-5],[-4,-1],[-5,0],[-4,-1],[-2,-4],[-1,-4],[-20,-34],[-4,-3],[-5,4],[3,10],[13,30],[26,22],[8,11],[-18,-7],[-21,-25],[-14,-29],[2,-20],[7,-11],[11,-24],[27,-46],[8,-6],[2,-8],[7,-13],[1,-5],[-1,-17],[1,-7],[12,-34],[-1,-4],[3,-2],[3,-7],[3,-7],[0,-6],[-2,-7],[-8,-8],[-2,-7],[2,-6],[29,-35],[10,-14],[8,-16],[3,-15],[-2,-8],[-3,-5],[-1,-6],[21,-34],[14,-15],[6,-7],[4,-18],[5,-8],[19,-28],[4,-8],[1,-8],[0,-24],[2,-7],[6,-8],[23,-18],[34,-42],[2,-4],[2,-3],[15,-13],[5,-6],[2,-6],[-1,-6],[-11,-13],[-3,-6],[0,-6],[3,-7],[33,-48],[5,-12],[2,-13],[0,-27],[-1,-21],[-4,-24],[-941,0],[0,2620]],[[626,1939],[9,7],[-8,0],[-7,-1],[-7,-1],[-10,1],[-19,1],[-9,-2],[-12,-9],[-11,-8],[-8,-8],[6,-6],[8,-1],[9,2],[12,10],[11,4],[5,3],[21,4],[10,4]],[[2486,3751],[-6,-4],[-10,-9],[-6,2],[-2,4],[1,6],[3,6],[-4,0],[-1,2],[1,2],[-1,3],[0,1],[0,2],[0,2],[-1,0],[-5,0],[-2,0],[-2,1],[-5,1],[-3,1],[-1,2],[-2,5],[-2,3],[-10,10],[-2,5],[-2,8],[2,2],[12,-3],[-2,9],[0,19],[-5,8],[-1,-3],[-1,-1],[-2,-2],[-1,-2],[-9,3],[-19,-3],[-10,3],[3,2],[-4,5],[-3,6],[0,6],[4,6],[8,-11],[15,1],[30,12],[6,2],[10,1],[10,0],[4,-4],[2,-5],[4,-1],[5,0],[4,0],[4,-3],[11,-10],[0,-7],[-4,-3],[1,-2],[3,-3],[2,-4],[-1,-2],[-4,-1],[-4,0],[-3,2],[1,-14],[1,-4],[3,-2],[8,-5],[2,-3],[-1,-5],[-3,-1],[-3,0],[-3,-1],[-1,-2],[-2,-12],[2,-2],[3,-3],[4,-3],[1,-5],[0,-5],[0,-1],[1,-2],[3,-2],[1,-2],[2,-3],[7,-7],[0,-2],[-2,-1],[-6,-4],[-3,-2],[-3,5],[-4,1],[-8,-1],[-3,-1],[-2,-1],[-2,0],[0,3],[0,4],[4,6],[0,3],[-2,4]],[[946,45],[-1,-21],[-4,-24]],[[0,2620],[7,-5],[32,-26],[2,-3],[0,-4],[0,-8],[1,-3],[4,-8],[2,-3],[7,-11],[18,-16],[17,-10],[33,-30],[38,-33],[42,-41],[6,-14],[-1,-8],[-7,-8],[-9,0],[0,-3],[2,-5],[15,-14],[10,-13],[1,-7],[-2,-5],[-2,-1],[-5,6],[-2,0],[-2,-2],[1,-2],[3,-5],[21,-21],[3,-10],[9,-9],[14,-16],[8,-14],[5,-6],[6,-5],[7,-1],[5,0],[5,-2],[3,0],[2,3],[3,-1],[2,-3],[2,-8],[3,-1],[2,2],[0,8],[0,5],[3,4],[4,0],[3,-1],[2,-4],[0,-7],[-3,-2],[-1,-5],[-3,-6],[-6,-3],[-7,1],[-3,9],[-2,2],[-5,1],[-7,2],[-4,1],[-1,-4],[17,-27],[20,-24],[3,-17],[15,-26],[-1,-10],[10,-24],[6,-13],[6,-13],[1,-5],[0,-11],[-2,-5],[-3,-4],[-5,-2],[-5,0],[-4,-1],[-4,-4],[-8,-24],[5,-23],[18,-30],[14,-24],[6,-8],[25,-25],[7,-9],[2,-1],[4,-3],[2,-1],[1,-3],[2,-7],[4,-8],[3,6],[3,2],[1,2],[6,2],[6,-1],[4,-2],[0,-3],[0,-8],[-8,-5],[-2,-3],[2,-6],[5,-1],[9,3],[30,7],[18,10],[24,-1],[18,8],[-2,18],[10,11],[4,7],[4,6],[8,6],[3,1],[10,6],[13,4],[13,1],[11,0],[6,-1],[12,-5],[5,-1],[17,-8],[12,-2],[8,1],[6,-1],[6,0],[12,4],[5,0],[5,-2],[-5,-2],[-15,-8],[-6,-2],[-4,-1],[-14,2],[-6,0],[-6,-2],[-7,-1],[-9,-2],[-5,-5],[-2,-7],[-7,-8],[-7,-10],[-17,-7],[-7,-6],[-16,-5],[-17,-4],[-11,-3],[-9,2],[-9,3],[-8,3],[-9,0],[-5,-2],[-19,-10],[-11,-2],[-8,-3],[-11,-7],[-23,-5],[-19,-1],[-13,-4],[-8,0],[1,10],[3,6],[-8,-5],[-8,-2],[-6,-7],[2,-12],[14,-26],[10,-13],[8,-12],[10,-13],[10,-21],[13,-31],[34,-61],[25,-38],[31,-29],[27,-37],[7,-3],[11,7],[2,-3],[-1,-1],[-1,-1],[-1,-4],[-1,-2],[-2,-3],[-1,-2],[0,-1],[2,-1],[0,-2],[1,-6],[3,-11],[6,-73],[2,-10],[-1,-12],[6,-9],[6,-6],[10,-11],[10,-37],[17,-42],[50,-112],[24,-43],[3,-17],[7,-14],[2,-4],[5,-10],[2,-4],[3,-6],[6,-17],[4,-3],[34,-53],[3,-9],[2,-7],[-1,-28],[-1,-4],[-2,-4],[-3,0],[-3,0],[-5,-1],[3,-11],[5,-25],[4,-11],[11,-15],[2,-5],[-1,-6],[-6,-13],[-4,-19],[-9,-3],[-23,3],[-2,0],[-2,-2],[-1,-2],[0,-2],[-1,-4],[-2,-2],[-3,0],[-7,-5],[-12,-5],[-5,-3],[5,7],[18,18],[-7,-2],[-6,-5],[-11,-12],[-1,-3],[0,-9],[0,-4],[-2,-4],[-9,-10],[-5,-7],[-4,-12],[-5,-5],[-4,-1],[-5,0],[-4,-1],[-2,-4],[-1,-4],[-20,-34],[-4,-3],[-5,4],[3,10],[13,30],[26,22],[8,11],[-18,-7],[-21,-25],[-14,-29],[2,-20],[7,-11],[11,-24],[27,-46],[8,-6],[2,-8],[7,-13],[1,-5],[-1,-17],[1,-7],[12,-34],[-1,-4],[3,-2],[3,-7],[3,-7],[0,-6],[-2,-7],[-8,-8],[-2,-7],[2,-6],[29,-35],[10,-14],[8,-16],[3,-15],[-2,-8],[-3,-5],[-1,-6],[21,-34],[14,-15],[6,-7],[4,-18],[5,-8],[19,-28],[4,-8],[1,-8],[0,-24],[2,-7],[6,-8],[23,-18],[34,-42],[2,-4],[2,-3],[15,-13],[5,-6],[2,-6],[-1,-6],[-11,-13],[-3,-6],[0,-6],[3,-7],[33,-48],[5,-12],[2,-13],[0,-27]],[[2486,3751],[-6,-4],[-10,-9],[-6,2],[-2,4],[1,6],[3,6],[-4,0],[-1,2],[1,2],[-1,3],[0,1],[0,2],[0,2],[-1,0],[-5,0],[-2,0],[-2,1],[-5,1],[-3,1],[-1,2],[-2,5],[-2,3],[-10,10],[-2,5],[-2,8],[2,2],[12,-3],[-2,9],[0,19],[-5,8],[-1,-3],[-1,-1],[-2,-2],[-1,-2],[-9,3],[-19,-3],[-10,3],[3,2],[-4,5],[-3,6],[0,6],[4,6],[8,-11],[15,1],[30,12],[6,2],[10,1],[10,0],[4,-4],[2,-5],[4,-1],[5,0],[4,0],[4,-3],[11,-10],[0,-7],[-4,-3],[1,-2],[3,-3],[2,-4],[-1,-2],[-4,-1],[-4,0],[-3,2],[1,-14],[1,-4],[3,-2],[8,-5],[2,-3],[-1,-5],[-3,-1],[-3,0],[-3,-1],[-1,-2],[-2,-12],[2,-2],[3,-3],[4,-3],[1,-5],[0,-5],[0,-1],[1,-2],[3,-2],[1,-2],[2,-3],[7,-7],[0,-2],[-2,-1],[-6,-4],[-3,-2],[-3,5],[-4,1],[-8,-1],[-3,-1],[-2,-1],[-2,0],[0,3],[0,4],[4,6],[0,3],[-2,4]],[[2669,3336],[4,-3],[0,-16],[-17,-21],[-4,-2],[-16,-7],[-9,-2],[-4,-1],[-7,-7],[4,-4],[18,-5],[-11,-4],[-17,-3],[-3,-1],[-6,-8],[-7,-16],[-8,-10],[-5,-13],[-4,-4],[-8,-7],[-4,-4],[-3,-8],[1,-15],[-2,-7],[3,-7],[-2,-11],[-4,-11],[-2,-10],[-1,-3],[-3,-2],[-2,-2],[-2,-2],[-1,-3],[0,-4],[-1,-3],[-6,-5],[-5,0],[-6,0],[-6,-2],[1,5],[2,5],[4,1],[3,0],[3,1],[2,4],[2,9],[2,4],[2,6],[3,19],[2,4],[0,3],[-11,24],[0,8],[1,9],[3,9],[4,4],[7,1],[6,14],[6,31],[2,46],[4,9],[-4,5],[-6,6],[-7,5],[-5,1],[-4,3],[-6,5],[-8,10],[-2,1],[-1,0],[-1,0],[-1,1],[-1,2],[1,4],[-4,23],[-1,3],[-2,2],[-1,3],[2,3],[4,1],[2,2],[0,4],[-1,4],[-5,17],[-1,1],[-6,5],[-35,14],[-2,4],[-1,2],[2,14],[6,16],[3,4],[6,4],[8,3],[8,-1],[3,-7],[2,-11],[6,-3],[7,0],[2,-5],[2,-3],[1,-2],[5,8],[-3,8],[-6,6],[-4,5],[1,9],[2,7],[4,5],[8,5],[7,2],[8,0],[7,-3],[3,-8],[-2,-12],[1,-2],[4,0],[4,0],[2,-2],[1,-3],[3,0],[2,4],[15,9],[2,2],[2,6],[1,2],[3,1],[6,1],[8,5],[5,-2],[3,-3],[4,-2],[5,2],[8,9],[6,1],[-3,-6],[-7,-11],[-3,-8],[-3,-15],[-3,-7],[-4,-5],[-3,-1],[-10,-1],[-2,-2],[-1,-2],[-4,-2],[-7,-2],[-28,-13],[0,-2],[5,-3],[-6,-5],[-2,-14],[-3,-3],[-2,-4],[1,-36],[2,-8],[5,-5],[7,-2],[6,2],[5,0],[4,-8],[11,13],[6,5],[7,3],[5,-4],[-4,-7],[-7,-7],[-3,-3],[-3,-7],[1,-6],[1,-6],[1,-7],[-1,-25],[1,-6],[6,-3],[8,2],[9,3],[6,4],[26,26],[9,5]],[[603,1945],[-19,1],[-9,-2],[-12,-9],[-11,-8],[-8,-8],[6,-6],[8,-1],[9,2],[12,10],[11,4],[5,3],[21,4],[10,4],[9,7],[-8,0],[-7,-1],[-7,-1],[-10,1]],[[33,4068],[-4,-1],[-14,0],[-10,1],[-5,3]],[[1598,4096],[3,-5],[3,-17],[6,-10],[7,-6],[9,-8],[6,-6],[3,-11],[2,-15],[6,-9],[0,-27],[6,-6],[2,-6],[3,-3],[24,-8],[10,-7],[3,-5],[3,-10],[3,-2],[2,-6],[-2,-10],[2,-5],[10,-1],[2,-5]],[[67,4058],[-7,-2],[-7,-1],[-9,2]],[[191,3986],[-3,1],[-3,1],[-6,8],[-3,33],[0,7],[4,17],[0,8]],[[44,4057],[-2,1],[-4,7],[-5,3]],[[180,4061],[0,1],[-1,8],[-11,0],[-7,1],[-6,5],[-6,3],[-17,0],[-15,-9],[-19,-2],[-11,-1],[-10,-6],[-10,-3]],[[530,3798],[-4,-2],[-6,-6],[-6,-13],[-9,-8],[-14,-3],[-7,4],[-6,16],[-9,22],[-6,15],[-9,25],[-8,10],[-6,3],[-9,2],[-13,-3],[-11,-2],[-15,6],[-10,2],[-8,-2],[-9,6],[-9,3],[-13,3],[-3,2],[-6,7],[-8,6],[-6,5],[-13,6],[-18,12],[-16,8],[-21,25],[-15,12],[-13,5],[-12,15],[-11,6],[-10,1]],[[1632,3751],[9,7],[13,14],[19,27],[3,3],[8,2],[10,4],[0,3],[-7,14],[1,7],[6,5],[8,14],[-3,7],[0,8],[-5,15],[0,9],[9,13],[8,5]],[[716,3529],[-4,6],[-6,15],[-3,13],[0,8],[-5,8],[-1,12],[-3,3],[-6,4],[-5,8],[-3,3],[-10,13],[-9,-1],[-5,1],[-1,6],[-8,11],[-16,27],[-8,15],[-6,2],[-15,16],[-12,22],[-9,9],[-13,6],[-5,6],[-1,7],[-9,14],[-6,11],[-12,21],[-5,3]],[[856,3498],[-16,-3],[-8,0],[-6,6],[-7,-4],[-11,-3],[-6,-3],[-7,-2],[-11,9],[-6,-3],[-6,-10],[-6,-3],[-7,3],[-6,-3],[-8,0],[-11,6],[-1,4],[0,8],[-5,11],[-4,7],[-8,11]],[[604,3341],[0,8],[6,21],[7,15],[3,11],[5,19],[-5,14],[2,12],[3,6],[16,24],[9,11],[6,4],[5,12],[6,3],[13,-3],[6,3],[8,7],[7,10],[8,11],[7,0]],[[1640,3190],[-2,6],[3,8],[11,15],[3,7],[0,8],[6,11],[12,30],[6,24],[12,39],[-9,23],[-3,9],[0,21],[-3,14],[2,4],[7,2],[3,12],[6,10],[3,8],[0,3],[-9,11],[-4,9],[-3,6],[0,10],[-2,8],[-1,7],[4,16],[0,10],[3,12],[6,6],[3,8],[5,6],[1,27],[-10,5],[-3,6],[3,13],[-3,14],[1,7],[3,11],[5,8],[16,16],[5,6],[0,8],[-3,12],[-6,3],[-12,13],[-8,8],[-22,12],[-31,24],[-3,5]],[[117,3178],[-9,9],[2,11],[-3,6],[-3,3],[-3,10],[-15,6],[-6,6],[-11,-4],[-6,-3],[-6,3],[-10,1],[-8,10],[-7,4],[-5,6],[-4,15],[-8,11],[-13,10],[-2,2]],[[440,2737],[6,4],[11,5],[6,7],[7,11],[5,6],[1,15],[9,23],[2,9],[6,15],[3,3],[9,0],[7,5],[2,3],[-8,16],[0,8],[6,9],[3,10],[5,8],[1,8],[-1,13],[0,6],[-2,11],[9,9],[3,10],[2,8],[-2,14],[0,10],[2,11],[4,13],[0,5],[-9,10],[-1,11],[-9,11],[-2,3],[3,13],[-6,11],[0,9],[-1,12],[7,17],[0,10],[2,8],[4,9],[6,7],[11,8],[3,7],[0,8],[-9,9],[7,11],[3,6],[0,19],[2,8],[7,10],[8,17],[7,8],[3,7],[5,11],[0,13],[6,8],[0,14],[4,6],[6,4],[3,11],[5,4],[3,9]],[[440,2737],[-4,10],[0,11],[-5,15],[-6,6],[-13,9],[-11,3],[-1,5],[0,7],[-3,6],[-5,8],[-42,35],[-9,10],[-9,11],[-1,18],[-8,15],[-6,8],[-19,13],[-6,8],[-6,10],[-2,6],[3,20],[6,24],[-1,11],[-3,3],[-11,4],[-6,6],[-9,20],[-9,8],[-6,7],[-3,8],[-5,3],[-13,7],[-17,5],[-12,10],[-7,2],[-11,-2],[-3,2],[-7,10],[-11,17],[-4,8],[-8,7],[-9,8],[-3,3],[-7,21],[-11,15]],[[518,2561],[-3,7],[2,10],[-9,21],[-2,8],[0,10],[-4,19],[-6,7],[-15,15],[-3,11],[3,12],[-2,3],[-6,13],[-7,7],[-12,6],[-3,3],[-11,24]],[[449,2545],[3,0],[9,7],[9,9],[11,0],[6,-3],[7,2],[6,6],[8,2],[10,-7]],[[518,2561],[11,0],[7,5],[12,-2],[9,0],[8,4],[15,0],[16,-7],[8,5],[18,-3],[10,-3],[8,1],[13,16],[18,13],[12,-7],[3,-5],[8,-1],[10,1],[11,0],[19,-6],[10,-3],[15,5],[10,1],[14,-3],[7,-3],[8,0],[10,3],[29,0],[7,0],[12,-3],[6,-1],[15,1],[8,-1],[15,-2],[16,-3],[17,-6],[10,-18],[9,-17],[3,-3],[8,-1],[13,4],[8,0],[16,-9],[11,-1],[21,6],[10,0],[11,7],[15,8],[15,6],[13,12],[12,1],[9,-1],[11,-6],[10,-5],[6,2]],[[3422,2503],[-3,6],[-3,1],[-13,2]],[[1144,2542],[15,0],[12,-6],[17,0],[6,-6],[11,0],[6,-3],[10,-2],[8,2],[13,0],[8,-11],[10,-7],[6,1],[8,-1],[7,-8]],[[1470,2530],[3,3],[2,7],[-1,1]],[[1474,2541],[-4,13],[-6,10],[2,8],[3,3],[13,9],[14,0],[6,6],[1,3],[-1,11],[1,7],[-1,14],[3,8],[6,6],[-3,10],[0,6],[9,11],[3,10],[13,23],[3,11],[5,19],[3,8],[3,15],[4,24],[6,18],[11,55],[3,10],[9,26],[3,12],[1,15],[2,11],[6,13],[1,14],[3,10],[12,22],[2,13],[-3,8],[-6,6],[-3,10],[-2,16],[-10,1],[-14,9],[-6,12],[-6,11],[-4,13],[1,6],[3,11],[5,8],[18,21],[10,12],[18,19],[26,28],[3,4]],[[3422,2503],[-7,-3],[-8,-7],[-12,-13],[-6,0],[-7,3],[-6,6],[-8,4],[-9,10],[-6,4],[-10,5],[-17,-3],[-6,-5],[11,-15],[-2,-6],[-6,-3],[-10,-3],[-8,-5],[-4,-9],[-6,-1],[-8,4],[-6,6],[-15,0],[-10,5],[-11,0],[-13,10],[-3,11],[-3,3],[-6,3],[-6,6],[-3,0],[-6,6],[-8,-1],[-7,-6],[-6,-2],[-5,-3],[-4,5],[-3,7],[-6,6],[-6,11],[-8,1],[-9,-9],[-3,-1],[-7,3],[-11,-2],[-10,6],[-8,0]],[[1847,2436],[2,5],[1,18],[2,7],[10,21],[6,11],[11,11],[4,7],[2,8],[-2,21],[-3,16],[3,11],[12,15],[-1,15],[1,8],[9,9],[8,4],[10,14],[8,-1],[3,3],[3,10],[10,6],[11,3],[12,12],[1,8],[6,6],[2,15],[3,9],[4,8],[14,7],[12,3],[13,6],[23,6],[21,2],[16,0],[20,-5],[12,-15],[6,-1],[11,-3],[7,1],[11,8],[7,10],[20,35],[0,12],[1,17],[3,27],[6,12],[3,11],[6,12],[0,13],[8,11],[30,1]],[[290,2413],[6,15],[8,16],[6,3],[-2,12],[9,9],[6,9],[14,3],[7,-2],[6,-6],[8,5],[6,7],[0,9],[7,2],[14,12],[7,2],[6,0],[11,6],[15,3],[4,7],[6,9],[15,11]],[[209,2350],[9,-2],[7,5],[6,0],[8,6],[10,18],[5,11],[10,1],[3,6],[3,3],[13,5],[7,10]],[[2443,2350],[-3,3],[-28,-5],[-14,-7],[-7,0],[-11,9],[-7,3],[-15,1],[-6,5],[-8,-2],[-22,-10],[-11,6],[-16,7],[-8,-1],[-6,-6],[-7,-3],[-8,1],[-7,2],[-3,3],[-8,-2],[-6,-6],[-6,-6],[-3,-7],[3,-12],[0,-6],[-3,-5],[-7,-6],[-11,-3],[-7,0],[-6,2],[-8,-6],[-18,-4],[-9,11],[-3,2],[-16,-5],[-2,-6],[-6,-5],[-4,3],[-6,-1],[-12,12],[-15,9],[-23,3],[-8,-1],[-9,7],[-9,3],[-16,5],[-11,9],[-12,13],[-7,2],[-14,7],[-6,4],[-9,1],[-10,-3],[-18,-2],[-14,-6],[-4,0],[-6,3],[-6,8],[-14,5],[-4,6],[-6,10],[-11,12],[-24,17],[-15,18]],[[2756,2250],[-11,3],[-13,3],[-18,8],[-15,1],[-8,3],[-12,8],[-7,3],[-15,-5],[-8,2],[-3,3],[-10,4],[-11,9],[-10,8],[-12,6],[-6,2],[-15,0],[-8,-2],[-6,0],[-13,9],[-8,5],[-14,3],[-37,6],[-39,1],[-8,3],[-4,6],[-2,11]],[[2919,2229],[-3,5],[-25,12],[-8,6],[-3,9],[-7,6],[-6,-2],[-8,11],[-10,3],[-8,10],[-1,8],[-11,6],[-6,-3],[-22,-20],[-2,-7],[-4,-3],[-11,-3],[-7,-6],[-8,-5],[-13,-6]],[[3104,2531],[-4,-1],[-8,-6],[-1,-9],[-3,-6],[-12,-14],[-2,-5],[-1,-13],[-8,-18],[3,-6],[2,-11],[6,-12],[1,-8],[-3,-10],[-15,-14],[-3,-7],[0,-11],[-3,-9],[0,-11],[-3,-18],[-1,-15],[1,-18],[0,-14],[-1,-7],[-9,-9],[-2,-3],[-7,-6],[-6,-2],[-11,2],[-7,-5],[-13,3],[-6,-16],[-3,-3],[-6,-2],[-1,-4],[-5,-2],[-1,-7],[-5,-7],[-4,0],[-6,2],[-12,-5],[-6,5],[-11,-9],[-6,0],[-3,9]],[[1765,2492],[3,-5],[2,1]],[[1452,2459],[6,6],[6,18],[14,12],[9,15],[6,-12],[4,-8],[8,-3],[10,-3],[11,-1],[7,1]],[[1401,2217],[6,3],[5,7],[3,13],[7,10],[6,11],[0,4],[-6,15],[0,8],[9,14],[2,6],[4,10],[0,21],[8,18],[0,6],[-2,10],[3,10],[0,6],[-3,11],[-7,15],[0,7],[4,19],[2,3],[7,4],[3,11]],[[1533,2484],[9,3],[8,8],[6,9],[13,9],[9,12],[2,6],[0,18],[1,3],[8,5],[7,3],[15,3],[8,-2],[7,-1],[14,-2],[11,-3],[10,-3],[30,-16],[9,-3],[20,0],[7,1],[3,0],[8,-6],[9,-10],[10,-15],[3,-3],[5,-8]],[[1770,2488],[8,1],[24,-17],[14,-1],[7,-2],[6,-7],[15,-21],[3,-5]],[[4011,2094],[3,7],[-4,6],[-8,1],[-6,5],[-4,10],[3,6],[0,9],[-5,6],[-10,0],[-5,6],[-1,8],[1,8],[5,10],[-2,8],[8,10],[-2,11],[-3,3],[-7,3],[-5,6],[3,10],[0,8],[11,8],[0,3],[-3,25],[-5,5],[-7,1],[-5,6],[-3,12],[-4,8],[-11,2],[-6,-2],[-10,3],[-12,-1],[-8,0],[-14,3],[-15,9],[-9,9],[-9,4],[-7,6],[-3,2],[-8,-3],[-10,0],[-6,-8],[-9,-13],[-3,-2],[-8,-1],[-10,9],[-11,-3],[-6,3],[-7,1],[-14,-3],[-6,3],[-4,9],[-8,3],[-3,3],[-6,11],[-3,3],[-10,-3],[-11,6],[-10,-3],[-14,6],[-13,14],[-12,7],[-3,5],[-8,12],[-9,21],[-6,4],[-6,8],[-13,11],[-8,3],[-4,6],[-14,4],[-7,8],[-8,3],[-9,-2],[-10,-7],[-8,3],[-10,16],[-11,5],[-10,1],[-11,6],[-6,8],[-3,0],[-7,-9],[-8,3],[-7,-2],[-9,9],[-14,7],[-12,-2],[-14,6],[-3,-1]],[[2955,1995],[8,4],[0,3],[-8,3],[-6,5],[-6,13],[-1,20],[-5,6],[-7,11],[4,6],[6,6],[9,0],[3,6],[-4,7],[0,11],[-11,21],[-7,3],[-8,8],[0,10],[-3,5],[-1,9],[-6,6],[-5,14],[-9,3],[-4,15],[-6,6],[-3,7],[1,3],[14,8],[1,3],[6,3],[8,3],[4,6]],[[813,1971],[6,1],[7,-1],[8,-11],[6,0],[10,1],[11,5],[6,8],[1,6],[6,7],[11,5],[9,9],[7,3],[11,-3],[3,1],[4,6],[8,6],[10,3],[6,0],[12,-6],[6,-3],[8,2],[7,4],[6,2],[26,-6],[15,0],[10,-5],[12,3],[11,-1],[13,4],[8,0],[18,-4],[33,16],[4,7],[9,13],[21,14],[11,1],[3,3],[9,17],[8,4],[7,3],[9,2],[11,-2],[4,3],[9,14],[8,5],[4,6],[11,10],[18,18],[21,17],[7,1],[9,5],[9,11],[14,3],[4,3],[11,12],[6,4],[30,17],[16,3]],[[3101,2035],[-12,-5],[-6,-11],[-18,-8],[-6,-3],[-15,-4],[-13,3],[-1,0]],[[3217,1967],[-2,4],[0,18],[-7,18],[-6,4],[-11,-1],[-7,1],[-8,0],[-9,5],[-10,-5],[-8,11],[-10,3],[-6,6],[-12,-1],[-11,0],[-9,6]],[[3030,2007],[-10,0],[-7,-2],[-6,-6],[-8,-21],[-6,-7],[-6,1],[-8,8],[-7,3],[-9,9],[-8,3]],[[3101,2036],[0,-1]],[[3226,1957],[-6,6],[-3,4]],[[4071,1936],[-16,16],[-2,2]],[[4053,1954],[-1,1],[-8,-1],[-12,12],[-4,6],[0,3],[7,11],[8,13],[-6,15],[-6,6],[-6,13],[-8,10],[-3,11],[-6,10],[6,14],[0,7],[-3,9]],[[4086,1939],[-6,0],[-9,-3]],[[4096,1936],[-2,0],[-8,3]],[[4071,1936],[-9,-3],[-16,2]],[[4046,1935],[-12,2],[-6,-1],[-6,-8],[-5,-10],[-6,-3],[-10,7],[-5,0],[-7,-4],[-3,0],[-14,-6],[-6,-6],[-19,-5],[-11,2],[-4,-11],[-6,-3],[-11,-9],[-11,0],[-10,3],[-2,-5],[-4,0],[-9,3]],[[3879,1881],[-3,-1],[-8,-18],[-1,-21],[-11,-6],[-6,4],[-13,2],[-6,-5],[-3,2],[-8,6],[-12,3],[-12,4],[-3,0],[-12,-6],[-15,-3],[-12,-9],[-6,2],[-3,4],[-10,-3],[-8,3],[-6,-3],[-6,-6],[-7,-3],[-9,-2],[-15,0],[-5,2],[-9,9],[-6,3],[-1,3],[-9,11],[-3,1],[-15,-13],[-5,0],[-3,3],[-12,-3],[-9,-9],[-6,-2],[-7,-3],[-17,-14],[-1,-3],[-3,-10],[-3,-8],[-5,0],[-6,6],[-3,2],[-4,-8],[-17,-12],[-6,-13],[-4,-3],[-6,1],[-6,-8],[-8,3],[-12,-7],[-7,-3],[-12,-9]],[[3474,1741],[-3,1],[-26,3],[-6,-1],[-11,1],[-10,-1],[-3,1],[-6,11],[-3,1],[-5,8],[-6,36],[2,6],[-3,6],[-11,9],[-3,8],[0,8],[-3,1],[-6,-1],[-7,1],[-5,6],[-10,2],[-5,3],[-9,3],[-7,13],[-9,11],[-11,4],[-7,6],[-9,16],[-11,7],[-10,2],[-6,6],[-6,15],[-11,7],[-13,3],[-6,6],[-3,8]],[[3483,1402],[-14,3],[-3,3],[-4,11],[-6,8],[-14,6],[-6,7],[1,12],[-1,11],[4,7],[2,20],[1,3],[16,11],[6,10],[0,9],[-3,15],[1,11],[14,17],[3,18],[4,15],[-1,7],[6,6],[3,8],[1,8],[-1,10],[3,18],[-3,8],[3,7],[-5,6],[-6,3],[-3,3],[-6,17],[-1,9],[3,14],[-2,13],[-1,5]],[[1470,1256],[-1,16],[-3,15],[1,11],[9,11],[0,3],[0,10],[11,8],[7,13],[17,12],[1,8],[-3,11],[2,13],[-5,15],[-6,6],[-3,8],[-1,7],[0,23],[0,18],[-3,14],[-2,23],[-3,10],[3,8],[0,7],[-7,14],[-2,7],[0,11],[0,11],[-4,3],[-9,0],[-14,4],[-4,14],[-5,7],[-13,14],[-5,6],[-1,15],[-6,6],[-9,9],[-6,6],[-3,14],[-5,7],[-3,9],[-12,14],[-9,3],[-3,8],[2,7],[10,3],[5,6],[0,11],[-3,9],[1,10],[0,14],[3,8],[-3,12],[2,7],[7,9],[0,12],[-3,6],[-6,8],[-1,8],[0,10],[4,8],[14,12],[1,10],[9,11],[6,6],[6,5],[5,7],[10,6],[6,15],[3,11],[3,3],[11,6],[6,6],[1,9],[-7,5],[-2,3],[3,10],[-3,8],[3,10],[0,12],[6,19],[6,7],[3,6],[-1,12],[-6,9],[3,8],[6,9],[0,3],[-6,6],[-2,11],[-6,7],[-1,8],[-3,15],[-5,10],[-6,8],[-3,10],[2,14],[-2,8],[-6,13],[-4,2],[-8,-2],[-6,3],[-7,2],[-6,3],[-6,6],[-5,9]],[[1470,1256],[-3,1],[-9,11],[-10,18],[-14,14],[-7,4],[-8,9],[-7,5],[-3,-2],[-6,-7],[-11,-8],[-4,-15],[-12,-14],[-3,-15],[0,-3],[9,-33],[4,-11],[-1,-10],[3,-11],[-5,-4],[-7,-5],[-3,-3],[0,-10],[-11,-13],[-7,-9],[-3,-1],[-3,-15],[-5,-6],[-13,-8],[-6,-12],[0,-6],[-3,-8],[-12,-9],[-6,-6],[-8,-10],[-13,-15],[-9,-5],[-12,-4],[-11,-3],[-6,-8],[-13,-9],[-11,-6],[-12,-2],[-6,-1],[-3,-5],[-10,-21],[1,-7],[-6,-3],[-8,1],[-7,-1],[-11,-6],[-7,-3],[-8,-8],[-6,0],[-9,-8],[-7,0],[-3,2],[-8,-3],[-7,-2],[-5,-12],[-3,-1],[-15,4],[-4,0],[-8,-7],[-22,-2],[-6,3],[-23,-4],[-13,6],[-8,-2],[-15,5],[-9,9],[-3,1],[-7,5],[-8,3],[-10,0],[-8,-2],[-13,8],[-32,5],[-12,-10]],[[760,880],[-7,-1],[-9,-4],[-12,-5]],[[732,870],[-8,-4]],[[880,956],[-9,-4],[-22,-6],[-5,-2],[-13,-18],[-29,-19],[-9,-6],[-3,-9],[-4,-7],[-8,-4],[-13,0],[-5,-1]],[[1451,706],[-2,15],[3,7],[5,6],[1,5],[-6,10],[-1,8],[1,6],[3,3],[6,11],[6,6],[3,3],[0,10],[3,11],[5,6],[13,14],[6,10],[6,15],[11,21],[4,22],[0,25],[2,18],[-2,18],[-1,8],[0,17],[4,6],[3,-3],[8,1],[3,3],[4,21],[0,3],[-7,11],[-3,6],[-2,18],[-4,11],[-6,7],[-9,9],[-3,8],[-6,6],[6,11],[3,10],[-6,5],[-2,7],[2,9],[-11,9],[-1,11],[-2,20],[2,15],[-2,9],[-4,7],[-9,26],[-2,24],[-3,5]],[[1871,600],[-9,-3],[-7,0],[-18,4],[-14,3],[-13,0],[-11,3],[-13,5],[-6,0],[-11,-5],[-12,0],[-10,3],[-21,2],[-14,4],[-33,10],[-10,1],[-15,2],[-9,4],[-8,6],[-6,0],[-9,-1],[-17,1],[-19,9],[-14,5],[-16,3],[-24,7],[-15,3],[-11,5],[-30,15],[-21,14],[-4,6]],[[3329,558],[0,4],[5,8],[3,13],[6,21],[0,9],[1,16],[-1,25],[-2,41],[0,27],[2,18],[-2,29],[0,11],[5,9],[6,7],[21,15],[6,3],[10,-3],[5,0],[13,13],[8,9],[7,15],[11,13],[4,6],[2,15],[6,19],[0,10],[-5,18],[-7,23],[-5,15],[-1,15],[-2,23],[0,26],[-3,39],[0,24],[3,20],[2,15],[0,28],[-3,29],[1,8],[5,15],[1,10],[3,16],[0,16],[0,12],[-6,23],[0,8],[2,15],[3,12],[6,13],[7,20],[14,18],[18,15],[6,6],[0,3],[-1,6]],[[1451,706],[-6,3],[-8,0],[-15,-2],[-12,-3],[-15,-4],[-10,3],[-8,1],[-13,-3],[-14,-6],[-10,-3],[-14,-3],[-18,-3],[-7,-6],[-29,-33],[-7,-12],[-12,-23],[-8,-8],[-16,-6],[-8,-4],[-9,-12],[-6,-6],[-16,-9],[-8,-11],[-12,-12]],[[741,842],[-7,6],[-6,6],[-2,7]],[[726,861],[-2,5]],[[1170,544],[-12,1],[-3,3],[-3,13],[-2,15],[-6,18],[-9,18],[-10,15],[-9,9],[-11,17],[-6,7],[-3,8],[-1,6],[-12,13],[-26,10],[-7,6],[-15,3],[-8,4],[-25,12],[-18,9],[-14,8],[-6,1],[-18,-3],[-7,3],[-8,3],[-13,3],[-12,6],[-15,0],[-5,3],[-15,2],[-7,0],[-3,3],[-6,12],[-9,9],[-15,8],[-11,9],[-15,9],[-15,7],[-13,8],[-11,6],[-13,8],[-8,3],[-4,3]],[[3329,558],[-13,0],[-12,-5],[-3,-3],[-3,-6],[-3,-15],[-3,-8],[-15,-9],[-11,-6],[-9,-10],[-6,-22],[-31,-16],[-14,-8],[-7,3],[-9,9],[-8,5],[-10,-5],[-6,-6],[-3,-1],[-14,-9],[-4,-6],[-11,-5],[-7,-7],[-11,-6],[-6,-8],[-15,-6],[-4,-6],[-8,-3],[-1,7],[-3,3],[-8,-1],[-6,-2],[-10,5],[-11,9],[-10,0],[-9,-9],[-8,0],[-10,1],[-11,-4],[-18,-3],[-8,-6],[-9,-17],[-3,-3],[-15,0],[-18,-3],[-3,3],[0,6],[2,8],[7,12],[0,7],[-12,13],[-10,3],[-5,3],[-6,19],[2,14],[-5,7],[-1,3],[4,6],[0,8],[-3,3],[-7,2],[-6,-5],[-6,2],[-2,3],[-1,10],[-3,6],[-6,8],[-14,3],[-6,7],[-3,6],[-6,8],[-7,3],[-9,3],[-8,4],[-6,8],[-13,11],[-23,10],[-7,2],[-14,-3],[-9,1],[-10,6],[-8,2],[-10,6],[-8,1],[-3,2],[-10,15],[-14,7],[-6,7],[-6,6],[-13,4],[-12,5],[-12,3],[-6,0],[-8,4],[-6,6],[-19,12],[-3,9],[1,11],[-1,5],[-11,6],[-10,4],[-11,2],[-12,1],[-11,5],[-7,0],[-8,-6],[-10,-17],[-6,-6],[-9,-8],[-15,-10],[-9,-5],[-17,-7],[-7,-2],[-23,-1],[-7,-6],[-6,-14],[-5,-6],[-10,-9],[-5,-9],[-4,-3],[-11,1],[-10,-6],[-11,-4],[-6,0],[-12,6],[-18,3],[-9,7],[-10,5],[-11,3],[-7,4],[-6,8],[-8,6],[-10,6],[-9,0],[-24,3],[-11,3],[-19,3],[-23,8],[-10,1],[-5,-1],[-6,-6],[-10,4],[-11,0],[-3,-1],[-6,-8],[-15,-10],[-3,-8],[-8,-3],[-30,3],[-16,-4],[-8,0],[-12,3],[-31,0],[-12,-3],[-21,-4],[-15,0],[-15,4],[-11,-5],[-7,0],[-9,1],[-6,2],[-11,-12],[-7,-8],[-8,-1]],[[3672,211],[-6,16],[-5,6],[-10,3],[-6,18],[-6,6],[-11,4],[-7,9],[-8,22],[-4,31],[0,17],[0,7],[3,7],[10,13],[3,14],[3,39],[5,14],[1,10],[-1,6],[-3,11],[-6,6],[-8,3],[-36,7],[-6,5],[-6,6],[-6,15],[-6,8],[-6,6],[-18,10],[-16,6],[-11,0],[-10,-1],[-6,1],[-14,5],[-10,0],[-11,-2],[-11,-1],[-7,-2],[-14,2],[-7,4],[-6,0],[-11,8],[-13,3],[-17,3],[-18,0],[-16,0],[-5,2]],[[3998,178],[4,2],[15,0],[20,3],[13,-5],[15,-4],[8,0],[21,1],[2,2]],[[3998,178],[-20,-1],[-9,-2],[-13,-4],[-17,9],[-18,12],[-14,9],[-3,3],[0,10],[-3,3],[-9,5],[-10,0],[-17,11],[-28,7],[-11,-3],[-10,2],[-24,-9],[-11,-5],[-12,-3],[-27,2],[-18,-2],[-10,-5],[-6,-4],[-9,-2],[-8,2],[-10,-3],[-9,1]],[[3836,0],[1,3],[1,10],[6,7],[17,0],[7,-4],[6,0],[5,5],[4,11],[6,6],[9,10],[2,6],[14,5],[10,4],[15,11],[3,4],[9,20],[8,32],[3,7],[9,5],[12,18],[15,18]],[[3269,0],[-4,9],[-2,11],[-1,16],[1,23],[-3,13],[-1,11],[3,14],[1,13],[3,11],[6,15],[5,9],[-6,11],[-6,13],[1,20],[-10,32],[-3,25],[-8,26],[2,4],[7,23],[3,8],[9,6],[8,10],[4,15],[9,37],[8,27],[4,20],[0,7],[5,8],[7,4],[6,11],[2,6],[4,22],[9,35],[5,11],[-5,16],[-3,16]],[[1381,0],[-1,1],[2,3],[7,16],[5,10],[0,11],[1,27],[-1,18],[3,14],[0,7],[-11,14],[-1,3],[-8,6],[-4,7],[-17,43],[-4,10],[0,23],[-20,32],[-10,28],[-12,23],[-11,14],[-1,10],[-2,35],[-4,8],[-17,9],[-25,7],[-6,5],[-8,6],[-10,10],[-3,8],[-6,15],[-3,14],[-2,19],[8,3],[4,5],[-1,6],[-6,7],[-14,13],[-10,9],[-3,7],[-2,15],[-3,12],[-3,6],[-8,5],[-4,0]],[[1436,2516],[1,0],[21,8],[12,6]],[[1281,2501],[3,-3],[8,-2],[3,4],[15,0],[15,4],[6,2],[7,-3],[11,0],[6,3],[6,-6],[0,-8],[4,1],[5,8],[6,-5],[9,11],[31,5],[8,0],[12,4]],[[635,1946],[-9,-7],[-10,-4],[-21,-4],[-5,-3],[-11,-4],[-12,-10],[-9,-2],[-8,1],[-6,6],[8,8],[11,8],[12,9],[9,2],[19,-1],[10,-1],[7,1],[7,1],[8,0]],[[4096,2837],[0,-2837],[-3155,0],[4,24],[1,21],[0,27],[-2,13],[-5,12],[-33,48],[-3,7],[0,6],[3,6],[11,13],[1,6],[-2,6],[-5,6],[-15,13],[-2,3],[-2,4],[-34,42],[-23,18],[-6,8],[-2,7],[0,24],[-1,8],[-4,8],[-19,28],[-5,8],[-4,18],[-6,7],[-14,15],[-21,34],[1,6],[3,5],[2,8],[-3,15],[-8,16],[-10,14],[-29,35],[-2,6],[2,7],[8,8],[2,7],[0,6],[-3,7],[-3,7],[-3,2],[1,4],[-12,34],[-1,7],[1,17],[-1,5],[-7,13],[-2,8],[-8,6],[-27,46],[-11,24],[-7,11],[-2,20],[14,29],[21,25],[18,7],[-8,-11],[-26,-22],[-13,-30],[-3,-10],[5,-4],[4,3],[20,34],[1,4],[2,4],[4,1],[5,0],[4,1],[5,5],[4,12],[5,7],[9,10],[2,4],[0,4],[0,9],[1,3],[11,12],[6,5],[7,2],[-18,-18],[-5,-7],[5,3],[12,5],[7,5],[3,0],[2,2],[1,4],[0,2],[1,2],[2,2],[2,0],[23,-3],[9,3],[4,19],[6,13],[1,6],[-2,5],[-11,15],[-4,11],[-5,25],[-3,11],[5,1],[3,0],[3,0],[2,4],[1,4],[1,28],[-2,7],[-3,9],[-34,53],[-4,3],[-6,17],[-3,6],[-2,4],[-5,10],[-2,4],[-7,14],[-3,17],[-24,43],[-50,112],[-17,42],[-10,37],[-10,11],[-6,6],[-6,9],[1,12],[-2,10],[-6,73],[-3,11],[-1,6],[0,2],[-2,1],[0,1],[1,2],[2,3],[1,2],[1,4],[1,1],[1,1],[-2,3],[-11,-7],[-7,3],[-27,37],[-31,29],[-25,38],[-34,61],[-13,31],[-10,21],[-10,13],[-8,12],[-10,13],[-14,26],[-2,12],[6,7],[8,2],[8,5],[-3,-6],[-1,-10],[8,0],[13,4],[19,1],[23,5],[11,7],[8,3],[11,2],[19,10],[5,2],[9,0],[8,-3],[9,-3],[9,-2],[11,3],[17,4],[16,5],[7,6],[17,7],[7,10],[7,8],[2,7],[5,5],[9,2],[7,1],[6,2],[6,0],[14,-2],[4,1],[6,2],[15,8],[5,2],[-5,2],[-5,0],[-12,-4],[-6,0],[-6,1],[-8,-1],[-12,2],[-17,8],[-5,1],[-12,5],[-6,1],[-11,0],[-13,-1],[-13,-4],[-10,-6],[-3,-1],[-8,-6],[-4,-6],[-4,-7],[-10,-11],[2,-18],[-18,-8],[-24,1],[-18,-10],[-30,-7],[-9,-3],[-5,1],[-2,6],[2,3],[8,5],[0,8],[0,3],[-4,2],[-6,1],[-6,-2],[-1,-2],[-3,-2],[-3,-6],[-4,8],[-2,7],[-1,3],[-2,1],[-4,3],[-2,1],[-7,9],[-25,25],[-6,8],[-14,24],[-18,30],[-5,23],[8,24],[4,4],[4,1],[5,0],[5,2],[3,4],[2,5],[0,11],[-1,5],[-6,13],[-6,13],[-10,24],[1,10],[-15,26],[-3,17],[-20,24],[-17,27],[1,4],[4,-1],[7,-2],[5,-1],[2,-2],[3,-9],[7,-1],[6,3],[3,6],[1,5],[3,2],[0,7],[-2,4],[-3,1],[-4,0],[-3,-4],[0,-5],[0,-8],[-2,-2],[-3,1],[-2,8],[-2,3],[-3,1],[-2,-3],[-3,0],[-5,2],[-5,0],[-7,1],[-6,5],[-5,6],[-8,14],[-14,16],[-9,9],[-3,10],[-21,21],[-3,5],[-1,2],[2,2],[2,0],[5,-6],[2,1],[2,5],[-1,7],[-10,13],[-15,14],[-2,5],[0,3],[9,0],[7,8],[1,8],[-6,14],[-42,41],[-38,33],[-33,30],[-17,10],[-18,16],[-7,11],[-2,3],[-4,8],[-1,3],[0,8],[0,4],[-2,3],[-32,26],[-7,5],[0,1476],[4096,0],[0,-1259]],[[916,3330],[49,-18],[36,56],[61,-23],[24,32],[27,5],[-55,-106],[36,-40],[-54,-55],[-88,10],[24,43],[-60,96]],[[1978,3385],[64,144],[131,56],[135,210],[66,7],[15,-90],[-88,-207],[-106,-53],[-123,-147],[-46,7],[-48,73]],[[719,853],[34,44],[30,-66],[-26,3],[-38,19]],[[4043,1924],[8,29],[34,4],[4,-51],[-46,18]],[[1490,2522],[51,-35],[-87,-32],[-19,65],[23,42],[32,-40]],[[3227,3445],[105,31],[3,38],[29,18],[37,-61],[199,-166],[46,-112],[167,-75],[31,-59],[-49,-76],[-106,-59],[-108,7],[-212,-48],[-6,186],[28,11],[26,62],[26,-3],[0,48],[-56,20],[-97,103],[-63,135]],[[3431,3665],[21,56],[78,-12],[254,-120],[57,23],[45,53],[39,-57],[153,-99],[18,-175],[-188,-147],[-142,146],[-134,93],[-106,153],[-95,86]],[[2342,4009],[27,87],[140,0],[-140,-165],[-27,78]],[[1685,2401],[34,127],[92,-73],[14,-188],[-83,1],[3,213],[-17,5],[-43,-85]],[[5,3952],[12,104],[171,5],[4,-122],[25,-21],[-57,-120],[22,-48],[-39,-44],[-97,8],[9,107],[-50,131]],[[3028,2006],[144,58],[80,-32],[-50,-94],[-56,13],[-73,-21],[-40,31],[-5,45]],[[1726,2721],[41,68],[66,-35],[20,19],[48,-38],[9,-55],[-22,-41],[-43,1],[-119,81]]]}