{"objects":{"water":{"type":"GeometryCollection","geometries":[{"type":"Polygon","properties":{"source":"naturalearthdata.com","kind":"ocean","area":1576712559132672,"sort_rank":200,"min_zoom":0.0,"id":1},"arcs":[[169]]},{"type":"LineString","properties":{"source":"naturalearthdata.com","kind":"ocean","sort_rank":205,"boundary":true,"min_zoom":0.0,"id":44},"arcs":[170]}]},"buildings":{"type":"GeometryCollection","geometries":[]},"places":{"type":"GeometryCollection","geometries":[{"type":"Point","properties":{"name:pt":"Nam\u00edbia","name:ps":"\u0646\u06d0\u0645\u0628\u06cc\u0627","name:ka":"\u10dc\u10d0\u10db\u10d8\u10d1\u10d8\u10d0","name:tr":"Namibya","name:cv":"\u041d\u0430\u043c\u0438\u0431\u0438","name:km":"\u178e\u17b6\u1798\u17b8\u1794\u17ca\u17b8","name:cs":"Namibie","name:ki":"Namimbia","name:kw":"Namibi","name:tk":"Namibi\u00fda","name:ku":"Nam\u00eebya","name:ti":"\u1293\u121a\u1262\u12eb","name:ks":"\u0646\u0627\u0645\u0650\u0628\u0650\u06cc\u0627","name:to":"Namipia","name:tl":"Namibya","name:pa":"\u0a28\u0a2e\u0a40\u0a2c\u0a40\u0a06","name:os":"\u041d\u0430\u043c\u0438\u0431\u0438","name:or":"\u0b28\u0b3e\u0b2e\u0b4d\u0b2c\u0b3f\u0b06","name:ce":"\u041d\u0430\u043c\u0438\u0431\u0438","name:ta":"\u0ba8\u0bae\u0bc0\u0baa\u0bbf\u0baf\u0bbe","name:tg":"\u041d\u0430\u043c\u0438\u0431\u0438\u044f","name:ca":"Nam\u00edbia","name:te":"\u0c28\u0c2e\u0c40\u0c2c\u0c3f\u0c2f\u0c3e","name:hu":"Nam\u00edbia","name:ln":"Namibi","name:sr":"\u041d\u0430\u043c\u0438\u0431\u0438\u0458\u0430","name:dz":"\u0f53\u0f0b\u0f58\u0f72\u0f0b\u0f56\u0f72\u0f0b\u0f61","source":"openstreetmap.org","name:nv":"Nam\u00ed\u00edbya","name:kn":"\u0ca8\u0cae\u0cc0\u0cac\u0cbf\u0caf\u0cbe","name:lv":"Nam\u012bbija","name:lt":"Namibija","name:uz":"Namibiya","name:kk":"\u041d\u0430\u043c\u0438\u0431\u0438\u044f","name:he":"\u05e0\u05de\u05d9\u05d1\u05d9\u05d4","min_zoom":2.0,"kind":"country","name:ur":"\u0646\u0627\u0645\u06cc\u0628\u06cc\u0627","name:lb":"Namibien","name:lg":"Namibiya","name:uk":"\u041d\u0430\u043c\u0456\u0431\u0456\u044f","name:hy":"\u0546\u0561\u0574\u056b\u0562\u056b\u0561","name:ug":"\u0646\u0627\u0645\u0649\u0628\u0649\u064a\u06d5","name:li":"Namibi\u00eb","name:hr":"Namibija","name:lo":"\u0e99\u0eb2\u0ea1\u0eb5\u0ec0\u0e9a\u0e8d","population":2113077,"name:el":"\u039d\u03b1\u03bc\u03af\u03bc\u03c0\u03b9\u03b1","name:eo":"Namibio","name":"Namibia","name:ee":"Namibia nutome","name:th":"\u0e1b\u0e23\u0e30\u0e40\u0e17\u0e28\u0e19\u0e32\u0e21\u0e34\u0e40\u0e1a\u0e35\u0e22","name:yi":"\u05e0\u05d0\u05de\u05d9\u05d1\u05d9\u05e2","name:et":"Namiibia","name:nl":"Namibi\u00eb","name:yo":"Or\u00edl\u1eb9\u0301\u00e8de Namibia","name:mt":"Namibja","name:rn":"Namibiya","name:az":"Namibiya","name:mr":"\u0928\u092e\u0940\u092c\u093f\u092f\u093e","name:qu":"Namiwya","name:ar":"\u0646\u0627\u0645\u064a\u0628\u064a\u0627","name:my":"\u1014\u1019\u103a\u1019\u102e\u1038\u1018\u102e\u1038\u101a\u102c\u1038","official_name":"Republic of Namibia;Republiek van Namibia;Republik Namibia","name:is":"Namib\u00eda","name:am":"\u1293\u121a\u1262\u12eb","name:ml":"\u0d28\u0d2e\u0d40\u0d2c\u0d3f\u0d2f","name:ru":"\u041d\u0430\u043c\u0438\u0431\u0438\u044f","name:rw":"Namibiya","id":424311662,"name:mk":"\u041d\u0430\u043c\u0438\u0431\u0438\u0458\u0430","name:af":"Namibi\u00eb","name:zu":"i-Namibia","name:ha":"Namibiya","name:mn":"\u041d\u0430\u043c\u0438\u0431\u0438","name:ff":"Namibii","name:hi":"\u0928\u093e\u092e\u0940\u092c\u093f\u092f\u093e","name:fr":"Namibie","name:wo":"Namibi","name:zh-yue":"\u7d0d\u7c73\u6bd4\u4e9e","name:fy":"Namybje","name:vo":"Namibiy\u00e4n","name:zh":"\u7eb3\u7c73\u6bd4\u4e9a","name:so":"Namiibiya","name:sl":"Namibija","name:sk":"Nam\u00edbia","name:ja":"\u30ca\u30df\u30d3\u30a2","name:si":"\u0db1\u0dd0\u0db8\u0dd3\u0db6\u0dd2\u0dba\u0dcf\u0dc0","name:sh":"Namibija","name:sg":"Namib\u00f9ii","name:sc":"Nam\u00ecbia","name:ne":"\u0928\u093e\u092e\u093f\u092c\u093f\u092f\u093e","name:sa":"\u0928\u092e\u0940\u092c\u093f\u092f\u093e","name:bs":"Namibija","name:bm":"Namibi","name:bn":"\u09a8\u09be\u09ae\u09bf\u09ac\u09bf\u09af\u09bc\u09be","name:bo":"\u0f53\u0f0b\u0f58\u0f72\u0f0b\u0f56\u0f72\u0f0b\u0f61\u0f0d","name:be":"\u041d\u0430\u043c\u0456\u0431\u0456\u044f","name:bg":"\u041d\u0430\u043c\u0438\u0431\u0438\u044f","name:ss":"INamibiya","name:ba":"\u041d\u0430\u043c\u0438\u0431\u0438\u044f","name:sq":"Namibi","name:ko":"\ub098\ubbf8\ube44\uc544","name:ga":"An Namaib","name:gd":"Naimibia","name:ht":"Namibi","name:fa":"\u0646\u0627\u0645\u06cc\u0628\u06cc\u0627","name:gv":"Yn Nameeb","name:gu":"\u0aa8\u0abe\u0aae\u0abf\u0aac\u0abf\u0aaf\u0abe","name:tt":"\u041d\u0430\u043c\u0438\u0431\u0438\u044f"},"coordinates":[2211,3568]},{"type":"Point","properties":{"kind":"region","name":"Karas Region","kind_detail":"state","name:de":"Region Karas","source":"openstreetmap.org","min_zoom":4.0,"name:ru":"\u041a\u0430\u0440\u0430\u0441","id":2696418821},"coordinates":[2371,2078]},{"type":"Point","properties":{"kind":"region","name":"Hardap Region","kind_detail":"state","name:de":"Region Hardap","source":"openstreetmap.org","min_zoom":4.0,"name:ru":"\u0425\u0430\u0440\u0434\u0430\u043f","id":2696418813},"coordinates":[2244,3085]},{"type":"Point","properties":{"kind":"region","name":"Khomas Region","kind_detail":"state","name:de":"Region Khomas","source":"openstreetmap.org","min_zoom":4.0,"name:ru":"\u041a\u0445\u043e\u043c\u0430\u0441","id":2696418826},"coordinates":[2130,3764]},{"type":"Point","properties":{"source":"openstreetmap.org","kind":"region","name":"Kgalagadi District","kind_detail":"state","min_zoom":4.0,"id":2671914032},"coordinates":[3837,2907]},{"type":"Point","properties":{"kind":"region","name":"Erongo Region","kind_detail":"state","name:de":"Region Erongo","source":"openstreetmap.org","min_zoom":4.0,"name:uk":"\u0415\u0440\u043e\u043d\u0433\u043e","name:ru":"\u042d\u0440\u043e\u043d\u0433\u043e","id":2696418807},"coordinates":[1507,4061]},{"type":"Point","properties":{"name:pt":"Cabo Setentrional","name:short":"NC","name:ja":"\u5317\u30b1\u30fc\u30d7\u5dde","name:lt":"\u0160iaur\u0117s Kapas","name:eo":"Norda Kablando","min_zoom":4.0,"name:uk":"\u041f\u0456\u0432\u043d\u0456\u0447\u043d\u0430 \u041a\u0430\u043f\u0441\u044c\u043a\u0430 \u043f\u0440\u043e\u0432\u0456\u043d\u0446\u0456\u044f","name:ru":"\u0421\u0435\u0432\u0435\u0440\u043e-\u041a\u0430\u043f\u0441\u043a\u0430\u044f \u043f\u0440\u043e\u0432\u0438\u043d\u0446\u0438\u044f","name:pl":"Prowincja Przyl\u0105dkowa P\u00f3\u0142nocna","name:st":"Kapa Leboya","id":474842895,"name:af":"Noord-Kaap","name:zu":"iKipi laseNyakatho","kind":"region","name":"Northern Cape","kind_detail":"state","name:de":"Nordkap","source":"openstreetmap.org","name:fr":"Cap-Septentrional","name:xh":"Mntla-Koloni"},"coordinates":[3625,973]},{"type":"Point","properties":{"source":"naturalearthdata.com","kind":"locality","name":"Windhoek","country_capital":true,"population":268132,"min_zoom":5.0,"id":6914},"coordinates":[2124,3839]},{"type":"Point","properties":{"source":"naturalearthdata.com","kind":"locality","name":"Upington","population":71373,"min_zoom":5.0,"id":6333},"coordinates":[3634,1429]},{"type":"Point","properties":{"source":"naturalearthdata.com","kind":"locality","name":"Walvis Bay","population":52058,"min_zoom":5.0,"id":6443},"coordinates":[1185,3681]},{"type":"Point","properties":{"source":"naturalearthdata.com","kind":"locality","name":"L\u00fcderitz","population":15137,"region_capital":true,"min_zoom":5.0,"id":6442},"coordinates":[1423,2171]},{"type":"Point","properties":{"source":"naturalearthdata.com","kind":"locality","name":"Springbok","population":10438,"min_zoom":5.0,"id":6332},"coordinates":[2415,935]}]},"transit":{"type":"GeometryCollection","geometries":[]},"pois":{"type":"GeometryCollection","geometries":[{"type":"Point","properties":{"kind":"nature_reserve","name":"Namibian Islands Marine Protected Area","area":11830900000,"name:de":"Meeresschutzgebiet Namibische Inseln","source":"openstreetmap.org","min_zoom":5.53,"tier":2,"id":-4869693,"osm_relation":true},"coordinates":[1307,2340]},{"type":"Point","properties":{"kind":"nature_reserve","name":"Kgalagadi Transfrontier Park","area":43530000000,"source":"openstreetmap.org","min_zoom":4.59,"tier":2,"id":-2551000,"osm_relation":true},"coordinates":[3578,2724]}]},"boundaries":{"type":"GeometryCollection","geometries":[{"type":"MultiLineString","properties":{"source":"naturalearthdata.com","kind":"country","sort_rank":262,"kind_detail":"2","min_zoom":0.0,"id":45},"arcs":[[0],[1],[2],[3],[4],[5],[6],[7],[8],[9],[10],[11],[12],[13],[14],[15],[16],[17],[18],[19],[20],[21],[22],[23],[24],[25],[26],[27],[28],[29],[30],[31],[32]]},{"type":"MultiLineString","properties":{"source":"naturalearthdata.com","kind":"country","sort_rank":262,"kind_detail":"2","min_zoom":0.0,"id":263},"arcs":[[33],[34],[35],[36],[37],[38],[39],[40],[41],[42],[43],[44],[45],[46],[47]]},{"type":"LineString","properties":{"source":"naturalearthdata.com","kind":"country","sort_rank":262,"kind_detail":"2","min_zoom":0.0,"id":375},"arcs":[48]},{"type":"LineString","properties":{"source":"naturalearthdata.com","kind":"country","sort_rank":262,"kind_detail":"2","min_zoom":0.0,"id":376},"arcs":[49]},{"type":"MultiLineString","properties":{"source":"naturalearthdata.com","kind":"region","sort_rank":256,"kind_detail":"4","min_zoom":5.0,"id":4645},"arcs":[[50],[51]]},{"type":"MultiLineString","properties":{"source":"naturalearthdata.com","kind":"region","sort_rank":256,"kind_detail":"4","min_zoom":2.0,"id":1890},"arcs":[[52],[53],[54],[55],[56],[57],[58],[59],[60],[61],[62],[63],[64]]},{"type":"MultiLineString","properties":{"source":"naturalearthdata.com","kind":"region","sort_rank":256,"kind_detail":"4","min_zoom":5.0,"id":6836},"arcs":[[65],[66],[67],[68],[69],[70],[71]]},{"type":"MultiLineString","properties":{"source":"naturalearthdata.com","kind":"region","sort_rank":256,"kind_detail":"4","min_zoom":5.0,"id":6837},"arcs":[[72],[73],[74],[75],[76],[77],[78],[79],[80],[81],[82],[83],[84],[85],[86],[87],[88],[89],[90],[91],[92]]},{"type":"MultiLineString","properties":{"source":"naturalearthdata.com","kind":"region","sort_rank":256,"kind_detail":"4","min_zoom":5.0,"id":6838},"arcs":[[93],[94],[95]]},{"type":"MultiLineString","properties":{"source":"naturalearthdata.com","kind":"region","sort_rank":256,"kind_detail":"4","min_zoom":5.0,"id":6839},"arcs":[[96],[97],[98],[99],[100],[101],[102],[103],[104]]},{"type":"MultiLineString","properties":{"source":"naturalearthdata.com","kind":"region","sort_rank":256,"kind_detail":"4","min_zoom":5.0,"id":6844},"arcs":[[105],[106],[107],[108],[109],[110],[111],[112],[113],[114],[115],[116],[117],[118],[119],[120],[121],[122],[123],[124],[125],[126],[127],[128],[129],[130],[131]]},{"type":"MultiLineString","properties":{"source":"naturalearthdata.com","kind":"region","sort_rank":256,"kind_detail":"4","min_zoom":5.0,"id":6845},"arcs":[[132],[133],[134],[135],[136]]},{"type":"MultiLineString","properties":{"source":"naturalearthdata.com","kind":"region","sort_rank":256,"kind_detail":"4","min_zoom":5.0,"id":6846},"arcs":[[137],[138],[139],[140],[141],[142],[143]]},{"type":"MultiLineString","properties":{"source":"naturalearthdata.com","kind":"region","sort_rank":256,"kind_detail":"4","min_zoom":5.0,"id":6847},"arcs":[[144],[145],[146],[147],[148],[149],[150],[151],[152],[153],[154],[155],[156],[157],[158],[159],[160],[161],[162],[163],[164],[165],[166],[167],[168]]}]},"roads":{"type":"GeometryCollection","geometries":[{"type":"LineString","properties":{"source":"naturalearthdata.com","kind":"major_road","sort_rank":379,"kind_detail":"secondary","min_zoom":4.0,"id":45488},"arcs":[171]},{"type":"MultiLineString","properties":{"source":"naturalearthdata.com","kind":"major_road","sort_rank":379,"kind_detail":"secondary","min_zoom":4.0,"id":45493},"arcs":[[172],[173]]},{"type":"LineString","properties":{"source":"naturalearthdata.com","kind":"major_road","sort_rank":379,"kind_detail":"secondary","min_zoom":3.0,"id":45497},"arcs":[174]},{"type":"LineString","properties":{"source":"naturalearthdata.com","kind":"major_road","sort_rank":379,"kind_detail":"secondary","min_zoom":4.0,"id":45498},"arcs":[175]},{"type":"LineString","properties":{"source":"naturalearthdata.com","kind":"major_road","sort_rank":379,"kind_detail":"secondary","min_zoom":4.0,"id":45499},"arcs":[176]},{"type":"LineString","properties":{"source":"naturalearthdata.com","kind":"major_road","sort_rank":379,"kind_detail":"secondary","min_zoom":4.0,"id":45593},"arcs":[177]},{"type":"LineString","properties":{"source":"naturalearthdata.com","kind":"major_road","sort_rank":379,"kind_detail":"secondary","min_zoom":4.0,"id":45598},"arcs":[178]},{"type":"LineString","properties":{"source":"naturalearthdata.com","kind":"major_road","sort_rank":379,"kind_detail":"secondary","min_zoom":4.0,"id":45599},"arcs":[179]},{"type":"LineString","properties":{"source":"naturalearthdata.com","kind":"major_road","sort_rank":379,"kind_detail":"secondary","min_zoom":4.0,"id":45608},"arcs":[180]},{"type":"LineString","properties":{"source":"naturalearthdata.com","kind":"major_road","sort_rank":379,"kind_detail":"secondary","min_zoom":4.0,"id":45614},"arcs":[181]},{"type":"LineString","properties":{"source":"naturalearthdata.com","kind":"major_road","kind_detail":"secondary","sort_rank":379,"landuse_kind":"urban_area","min_zoom":3.0,"id":45626},"arcs":[182]},{"type":"LineString","properties":{"source":"naturalearthdata.com","kind":"major_road","sort_rank":379,"kind_detail":"secondary","min_zoom":3.0,"id":45626},"arcs":[183]},{"type":"LineString","properties":{"source":"naturalearthdata.com","kind":"major_road","kind_detail":"secondary","sort_rank":379,"landuse_kind":"urban_area","min_zoom":4.0,"id":45627},"arcs":[184]},{"type":"LineString","properties":{"source":"naturalearthdata.com","kind":"major_road","sort_rank":379,"kind_detail":"secondary","min_zoom":4.0,"id":45627},"arcs":[185]},{"type":"LineString","properties":{"source":"naturalearthdata.com","kind":"major_road","kind_detail":"secondary","sort_rank":379,"landuse_kind":"urban_area","min_zoom":3.0,"id":45631},"arcs":[186]},{"type":"LineString","properties":{"source":"naturalearthdata.com","kind":"major_road","kind_detail":"secondary","sort_rank":379,"landuse_kind":"park","min_zoom":4.0,"id":45644},"arcs":[187]},{"type":"MultiLineString","properties":{"source":"naturalearthdata.com","kind":"major_road","sort_rank":379,"kind_detail":"secondary","min_zoom":4.0,"id":45644},"arcs":[[188],[189]]},{"type":"LineString","properties":{"source":"naturalearthdata.com","kind":"major_road","sort_rank":379,"kind_detail":"secondary","min_zoom":4.0,"id":45648},"arcs":[190]},{"type":"LineString","properties":{"source":"naturalearthdata.com","kind":"major_road","kind_detail":"secondary","sort_rank":379,"landuse_kind":"park","min_zoom":4.0,"id":45730},"arcs":[191]},{"type":"MultiLineString","properties":{"source":"naturalearthdata.com","kind":"major_road","sort_rank":379,"kind_detail":"secondary","min_zoom":4.0,"id":45730},"arcs":[[192],[193]]},{"type":"LineString","properties":{"source":"naturalearthdata.com","kind":"major_road","kind_detail":"secondary","sort_rank":379,"landuse_kind":"urban_area","min_zoom":3.0,"id":45803},"arcs":[194]},{"type":"LineString","properties":{"source":"naturalearthdata.com","kind":"major_road","sort_rank":379,"kind_detail":"secondary","min_zoom":3.0,"id":45803},"arcs":[195]},{"type":"LineString","properties":{"source":"naturalearthdata.com","kind":"major_road","sort_rank":379,"kind_detail":"secondary","min_zoom":3.0,"id":45914},"arcs":[196]},{"type":"LineString","properties":{"source":"naturalearthdata.com","kind":"major_road","sort_rank":379,"kind_detail":"secondary","min_zoom":3.0,"id":45966},"arcs":[197]},{"type":"LineString","properties":{"source":"naturalearthdata.com","kind":"major_road","sort_rank":379,"kind_detail":"secondary","min_zoom":3.0,"id":46043},"arcs":[198]},{"type":"LineString","properties":{"source":"naturalearthdata.com","kind":"major_road","sort_rank":379,"kind_detail":"secondary","min_zoom":3.0,"id":46048},"arcs":[199]},{"type":"LineString","properties":{"source":"naturalearthdata.com","kind":"major_road","sort_rank":379,"kind_detail":"secondary","min_zoom":3.0,"id":46050},"arcs":[200]},{"type":"LineString","properties":{"source":"naturalearthdata.com","kind":"major_road","sort_rank":379,"kind_detail":"secondary","min_zoom":3.0,"id":46141},"arcs":[201]},{"type":"LineString","properties":{"source":"naturalearthdata.com","kind":"major_road","sort_rank":379,"kind_detail":"secondary","min_zoom":3.0,"id":46441},"arcs":[202]},{"type":"LineString","properties":{"source":"naturalearthdata.com","kind":"major_road","sort_rank":379,"kind_detail":"secondary","min_zoom":3.0,"id":46443},"arcs":[203]},{"type":"LineString","properties":{"source":"naturalearthdata.com","kind":"major_road","sort_rank":379,"kind_detail":"secondary","min_zoom":3.0,"id":46448},"arcs":[204]},{"type":"LineString","properties":{"source":"naturalearthdata.com","kind":"major_road","kind_detail":"secondary","sort_rank":379,"landuse_kind":"park","min_zoom":4.0,"id":46471},"arcs":[205]},{"type":"LineString","properties":{"source":"naturalearthdata.com","kind":"major_road","kind_detail":"secondary","sort_rank":379,"landuse_kind":"park","min_zoom":4.0,"id":46471},"arcs":[206]},{"type":"LineString","properties":{"source":"naturalearthdata.com","kind":"major_road","sort_rank":379,"kind_detail":"secondary","min_zoom":4.0,"id":46471},"arcs":[207]},{"type":"LineString","properties":{"source":"naturalearthdata.com","kind":"major_road","sort_rank":379,"kind_detail":"secondary","min_zoom":4.0,"id":46474},"arcs":[208]},{"type":"LineString","properties":{"source":"naturalearthdata.com","kind":"major_road","sort_rank":379,"kind_detail":"secondary","min_zoom":4.0,"id":46486},"arcs":[209]},{"type":"LineString","properties":{"source":"naturalearthdata.com","kind":"major_road","sort_rank":379,"kind_detail":"secondary","min_zoom":4.0,"id":46487},"arcs":[210]},{"type":"LineString","properties":{"source":"naturalearthdata.com","kind":"major_road","sort_rank":379,"kind_detail":"secondary","min_zoom":3.0,"id":46661},"arcs":[211]},{"type":"LineString","properties":{"source":"naturalearthdata.com","kind":"major_road","sort_rank":379,"kind_detail":"secondary","min_zoom":3.0,"id":46685},"arcs":[212]},{"type":"LineString","properties":{"source":"naturalearthdata.com","kind":"major_road","sort_rank":379,"kind_detail":"secondary","min_zoom":4.0,"id":46708},"arcs":[213]},{"type":"LineString","properties":{"source":"naturalearthdata.com","kind":"major_road","sort_rank":379,"kind_detail":"secondary","min_zoom":4.0,"id":46751},"arcs":[214]},{"type":"LineString","properties":{"source":"naturalearthdata.com","kind":"major_road","sort_rank":379,"kind_detail":"secondary","min_zoom":3.0,"id":46766},"arcs":[215]},{"type":"LineString","properties":{"source":"naturalearthdata.com","kind":"major_road","sort_rank":379,"kind_detail":"secondary","min_zoom":4.0,"id":46776},"arcs":[216]},{"type":"LineString","properties":{"source":"naturalearthdata.com","kind":"major_road","sort_rank":379,"kind_detail":"secondary","min_zoom":4.0,"id":46780},"arcs":[217]},{"type":"LineString","properties":{"source":"naturalearthdata.com","kind":"major_road","sort_rank":379,"kind_detail":"secondary","min_zoom":4.0,"id":46786},"arcs":[218]},{"type":"LineString","properties":{"source":"naturalearthdata.com","kind":"major_road","sort_rank":379,"kind_detail":"secondary","min_zoom":4.0,"id":46827},"arcs":[219]},{"type":"LineString","properties":{"source":"naturalearthdata.com","kind":"major_road","sort_rank":379,"kind_detail":"secondary","min_zoom":4.0,"id":46835},"arcs":[220]},{"type":"LineString","properties":{"source":"naturalearthdata.com","kind":"major_road","sort_rank":379,"kind_detail":"secondary","min_zoom":4.0,"id":46836},"arcs":[221]},{"type":"LineString","properties":{"source":"naturalearthdata.com","kind":"major_road","sort_rank":379,"kind_detail":"secondary","min_zoom":4.0,"id":46856},"arcs":[222]},{"type":"LineString","properties":{"source":"naturalearthdata.com","kind":"major_road","sort_rank":379,"kind_detail":"secondary","min_zoom":4.0,"id":46859},"arcs":[223]},{"type":"LineString","properties":{"source":"naturalearthdata.com","kind":"major_road","sort_rank":379,"kind_detail":"secondary","min_zoom":4.0,"id":46891},"arcs":[224]},{"type":"LineString","properties":{"source":"naturalearthdata.com","kind":"major_road","sort_rank":379,"kind_detail":"secondary","min_zoom":3.0,"id":46909},"arcs":[225]},{"type":"LineString","properties":{"source":"naturalearthdata.com","kind":"major_road","sort_rank":379,"kind_detail":"secondary","min_zoom":4.0,"id":46934},"arcs":[226]},{"type":"LineString","properties":{"source":"naturalearthdata.com","kind":"major_road","sort_rank":379,"kind_detail":"secondary","min_zoom":4.0,"id":46972},"arcs":[227]},{"type":"LineString","properties":{"source":"naturalearthdata.com","kind":"major_road","sort_rank":379,"kind_detail":"secondary","min_zoom":3.0,"id":46973},"arcs":[228]},{"type":"LineString","properties":{"source":"naturalearthdata.com","kind":"major_road","sort_rank":379,"kind_detail":"secondary","min_zoom":4.0,"id":46974},"arcs":[229]},{"type":"LineString","properties":{"source":"naturalearthdata.com","kind":"major_road","sort_rank":379,"kind_detail":"secondary","min_zoom":3.0,"id":47105},"arcs":[230]},{"type":"LineString","properties":{"source":"naturalearthdata.com","kind":"major_road","sort_rank":379,"kind_detail":"secondary","min_zoom":3.0,"id":47166},"arcs":[231]},{"type":"LineString","properties":{"source":"naturalearthdata.com","kind":"major_road","sort_rank":379,"kind_detail":"secondary","min_zoom":3.0,"id":47176},"arcs":[232]},{"type":"LineString","properties":{"source":"naturalearthdata.com","kind":"major_road","sort_rank":379,"kind_detail":"secondary","min_zoom":3.0,"id":47267},"arcs":[233]},{"type":"LineString","properties":{"source":"naturalearthdata.com","kind":"major_road","sort_rank":379,"kind_detail":"secondary","min_zoom":3.0,"id":47296},"arcs":[234]},{"type":"LineString","properties":{"source":"naturalearthdata.com","kind":"major_road","sort_rank":379,"kind_detail":"secondary","min_zoom":3.0,"id":47347},"arcs":[235]}]},"earth":{"type":"GeometryCollection","geometries":[{"type":"Polygon","properties":{"sort_rank":10,"source":"naturalearthdata.com","min_zoom":0.0,"kind":"earth","area":1093206057866},"arcs":[[236]]}]},"landuse":{"type":"GeometryCollection","geometries":[{"type":"Polygon","properties":{"kind":"nature_reserve","name":"NamibRand Nature Reserve","area":2086790016,"sort_rank":23,"source":"openstreetmap.org","min_zoom":4.0,"tier":2,"id":-4150086,"osm_relation":true},"arcs":[[237]]},{"type":"Polygon","properties":{"kind":"nature_reserve","name":"Namibian Islands Marine Protected Area","area":11830899712,"sort_rank":23,"source":"openstreetmap.org","min_zoom":4.0,"tier":2,"id":-4869693,"osm_relation":true},"arcs":[[238]]},{"type":"Polygon","properties":{"kind":"nature_reserve","name":"Kgalagadi Transfrontier Park","area":43529998336,"sort_rank":23,"source":"openstreetmap.org","min_zoom":4.0,"tier":2,"id":-2551000,"osm_relation":true},"arcs":[[239]]},{"type":"MultiPolygon","properties":{"kind":"park","name":"Dorob National Park","area":4570768669,"sort_rank":24,"source":"openstreetmap.org","min_zoom":4.0,"tier":2,"osm_relation":true},"arcs":[[[240]],[[241]]]},{"type":"MultiPolygon","properties":{"source":"naturalearthdata.com","kind":"urban_area","name":"","area":1506042309,"sort_rank":11,"min_zoom":4.0},"arcs":[[[242]]]},{"type":"Polygon","properties":{"kind":"park","name":"Namib-Naukluft National Park","area":61649600512,"sort_rank":24,"source":"openstreetmap.org","min_zoom":4.0,"tier":2,"id":-4150085,"osm_relation":true},"arcs":[[243]]},{"type":"Polygon","properties":{"kind":"park","name":"Namaqua National Park","area":1865410048,"sort_rank":24,"source":"openstreetmap.org","min_zoom":4.0,"tier":2,"id":-2550946,"osm_relation":true},"arcs":[[244],[245]]},{"type":"Polygon","properties":{"kind":"park","name":"Sperrgebiet National Park","area":27815200768,"sort_rank":24,"source":"openstreetmap.org","min_zoom":4.0,"tier":2,"id":-4869664,"osm_relation":true},"arcs":[[246],[247]]},{"type":"Polygon","properties":{"kind":"park","name":"\/Ai-\/Ais Richtersveld Transfontier Park (ARTP)","area":7647680000,"sort_rank":24,"source":"openstreetmap.org","min_zoom":4.0,"tier":2,"id":-2855710,"osm_relation":true},"arcs":[[248]]}]}},"type":"Topology","transform":{"translate":[11.25,-31.952162238],"scale":[0.002746582,0.002443632]},"arcs":[[[2183,1520],[-12,2],[-8,10],[-1,19],[1,9],[0,10],[-4,7],[-9,2],[-7,4],[-5,7],[-4,8],[-5,7],[-4,1],[-4,0]],[[2121,1606],[-7,-1],[-4,-3],[-12,-9]],[[2098,1593],[-10,3]],[[2088,1596],[-4,-1],[-5,-6],[-5,-1]],[[2074,1588],[-3,0],[-4,5],[-3,0]],[[2064,1593],[-2,-1],[-6,-7],[-1,-1],[-3,-33],[-3,-4]],[[2040,1548],[-2,2],[-1,0]],[[2037,1550],[-3,-2],[0,-2],[1,-2],[6,-8],[0,-3],[-5,-2]],[[2049,1547],[-1,0],[-2,2]],[[2046,1549],[-6,-1]],[[2036,1531],[-8,0]],[[2028,1531],[-2,-1],[-2,-4],[2,-3],[2,-4],[2,-5],[0,-5],[-4,-3]],[[2254,1327],[-14,2],[0,12],[4,17],[3,16],[-4,10],[-14,4],[-2,7],[-3,10],[-9,12],[-3,8],[1,6],[5,5],[6,4],[6,2],[6,4],[3,10],[1,11],[-1,9],[-2,4],[-6,8],[-2,4],[-1,5],[-1,4],[-1,4],[-3,6],[-2,3],[0,6],[-2,4],[-4,2]],[[2215,1526],[-9,0],[-23,-6]],[[2026,1506],[-3,2],[-4,2],[-3,2]],[[2016,1512],[-7,-3],[-1,-8],[1,-8],[3,-6],[8,-12],[2,-7],[-4,-4],[-5,-3],[-2,-9],[0,-9],[-1,-7],[-4,-7],[-7,-8],[-7,-7]],[[3179,1444],[-11,-2],[-4,-1]],[[3164,1441],[-12,2]],[[3152,1443],[-4,-1],[-9,-5],[-17,-15],[-10,-3],[-18,-1],[-8,-3],[-7,-6],[-7,-3],[-36,-3],[-3,-1],[-4,-2],[-3,-3],[-2,-3],[-3,-4],[-2,-3],[-3,-8],[-2,-1],[-4,-2],[-2,-3],[-11,-33],[-3,-6],[-7,-5],[-7,-4],[-30,-7],[-5,-2]],[[1992,1414],[-6,1],[-2,4],[-1,5],[-2,5],[-3,2]],[[1978,1431],[-4,-2],[-27,-27],[-14,-4],[-10,-6],[-10,-6],[-6,-3]],[[2334,1301],[-12,4],[-7,3],[-2,8],[0,10],[-2,9],[-5,4]],[[2306,1339],[-6,-1],[-7,-4],[-8,-1],[-15,-2],[-16,-4]],[[2945,1316],[-4,0],[-8,7]],[[2933,1323],[-6,0],[-4,-4],[-4,-6],[-7,-11],[-1,-9],[2,-9],[14,-23],[0,-5],[-5,-3],[-12,-1],[-2,-1],[-4,-7],[-3,-3],[-20,-11],[-16,-5],[-14,0]],[[2525,1248],[-7,0],[-30,11],[-14,7],[-22,18],[-13,8],[-13,6],[-61,13]],[[2365,1311],[-11,-1],[-4,-2],[-8,-5],[-3,-1],[-5,-1]],[[2851,1225],[-6,8],[-1,1],[-4,2],[-13,1],[-3,1],[-4,5],[-9,14],[-6,6],[-76,11]],[[2729,1274],[-70,-11],[-13,-7],[-8,-2]],[[2638,1254],[-1,1],[-5,4],[-1,1]],[[2631,1260],[-2,-1],[-4,-2],[-2,0],[-7,-2],[-4,-1],[-3,-2],[-7,-3]],[[2602,1249],[-9,2],[-15,6],[-8,0]],[[2570,1257],[-32,-4],[-13,-5]],[[3403,2668],[-1,8],[-2,4],[-11,5],[-6,4],[-2,4],[-3,13],[-1,3],[-4,5],[-1,3],[0,3],[1,3],[2,2],[-1,4],[-3,2],[-6,4],[-2,2],[-1,3],[-1,11],[-7,2],[-7,5],[-3,5],[3,7],[1,6],[-4,9],[-10,16],[-11,25],[-4,5],[-47,40],[-28,18],[-4,1],[-7,0],[-4,1],[-4,3],[-10,11],[-19,16],[-6,11],[-7,5],[-2,3],[-2,6]],[[3410,2654],[-3,2],[-1,4],[2,5],[1,4]],[[3409,2669],[-6,-1]],[[3450,2506],[1,4],[3,8],[-7,27],[-4,7],[-4,4],[-9,4],[-3,5],[0,4],[3,9],[0,4],[-3,3],[-4,0],[-4,2],[-1,4],[2,3],[8,5],[2,4],[-3,11],[-16,15],[1,11],[2,7],[11,7],[-5,4]],[[3420,2658],[-3,0],[-3,-2],[-4,-2]],[[3437,2071],[-2,4],[-3,13],[-4,4],[-5,4],[-2,2],[-3,3],[-5,12],[-3,15],[-2,15],[-1,12],[8,28],[1,9],[-2,6],[-6,9],[-2,5],[-1,10],[1,12],[5,22],[1,5],[11,8],[5,6],[11,21],[21,27],[8,14],[7,16],[16,23],[1,6],[-14,25],[-1,7],[1,30],[-3,35],[-10,25],[0,1],[-4,5],[-2,0]],[[3459,2510],[-4,-2],[-5,-2]],[[4096,2351],[-6,1]],[[4090,2352],[-12,-2],[-8,-7],[-12,-18],[-19,-19],[-9,-5],[-6,-2],[-16,-3],[-4,-2],[-3,-8],[-15,-16],[-7,-14],[-12,-33],[-14,-21],[-18,-19],[-21,-13],[-23,-6],[-36,0],[-11,-2],[-10,-4],[-4,-4],[-1,-6],[4,-19],[0,-8],[-2,-7],[-4,-7],[-6,-7],[-21,-14],[-8,-3]],[[3594,2082],[-48,11],[-14,9],[-16,6]],[[3516,2108],[-20,-2],[-9,-5],[-17,-12],[-24,-11],[-8,-6],[-1,-1]],[[3792,2083],[-8,0],[-22,6],[-31,0],[-17,9],[-9,1]],[[3705,2099],[-16,0],[-31,-9],[-5,0]],[[3653,2090],[-10,1]],[[3643,2091],[-6,0],[-31,-9],[-12,0]],[[3179,2946],[0,-5],[0,-23],[0,-23],[0,-23],[0,-23],[0,-23],[0,-22],[0,-23],[0,-23],[0,-23],[0,-23],[0,-23],[0,-23],[0,-23],[0,-23],[0,-23],[0,-5],[0,-18],[0,-23],[0,-23],[0,-23],[0,-23],[0,-23],[0,-23],[0,-23],[0,-22],[0,-23],[0,-23],[0,-23],[0,-23],[0,-23],[0,-23],[0,-23],[0,-23],[0,-23],[0,-23],[0,-23],[0,-23],[0,-23],[0,-23],[0,-23],[0,-23],[0,-22],[0,-23],[0,-23],[1,-23],[0,-23],[0,-23],[0,-23],[0,-23],[0,-23],[0,-23],[0,-23],[0,-23],[0,-23],[0,-23],[0,-23],[0,-23],[0,-23],[0,-23],[0,-23],[0,-22],[0,-23],[0,-23],[0,-23],[0,-23],[0,-16],[-1,-13]],[[3544,4096],[0,-9],[-4,-15],[-21,0],[-85,0],[-86,0],[-85,0],[-85,0],[0,-35],[0,-61],[0,-62],[0,-62],[0,-61],[0,-71],[0,-70],[0,-70],[0,-43],[0,-28],[1,-70],[0,-70],[0,-59],[0,-12],[0,-70],[0,-71],[0,-70],[0,-70],[0,-71]],[[4096,3536],[-911,1]],[[3185,3537],[-7,0]],[[2872,12],[-2,0],[-2,2],[-3,2],[-4,3],[-5,3],[-5,1],[-19,1],[6,27],[8,14],[2,18],[-7,36],[2,10],[1,16],[2,8],[-2,10],[-5,6],[-2,10],[-9,8],[-3,10],[0,17],[-7,38],[2,13],[1,6],[-4,6],[-10,11],[-8,21],[-12,77],[9,27],[-8,25],[11,15],[0,50],[-35,11],[-16,17],[-9,15],[-14,17],[-16,12],[-22,12],[-25,19]],[[2662,606],[-20,-2],[-10,-8],[-5,-12]],[[2627,584],[-20,10]],[[2607,594],[-6,-13],[-12,-18],[-9,-32],[-15,-28],[-17,-24],[-17,-10],[-16,-6]],[[2515,463],[-14,5],[-9,5],[-7,6],[-6,2],[-6,1]],[[2473,482],[-7,0],[-7,-7],[-11,-10],[-8,-29],[-22,-19],[-5,-30],[-18,-23],[-3,-44]],[[2392,320],[-19,6]],[[4096,116],[-8,6],[-68,34]],[[4020,156],[-10,-14],[-43,-102],[-15,-2],[-3,-9],[-3,-5],[0,-7],[-1,-7],[0,-10]],[[2912,0],[0,5],[6,21],[-2,2]],[[2916,28],[-5,-2],[-13,-10],[-5,-3],[-4,-1]],[[2889,12],[-2,2],[-1,1],[-3,0],[-2,0]],[[2881,15],[-2,0],[-3,-2],[-2,-1],[-2,0]],[[1848,3863],[4,1],[2,2],[0,2],[0,19],[2,6],[4,7],[17,13],[15,7]],[[1833,3864],[5,0],[5,-1],[5,0]],[[1787,3825],[5,2],[5,3],[11,10],[5,7],[13,12],[3,4],[4,1]],[[1761,3832],[22,-7],[4,0]],[[1718,3785],[-2,1],[-1,2],[7,9],[28,31],[5,4],[6,0]],[[1636,3331],[30,3],[7,7],[3,16],[0,2],[-4,16],[-1,4],[5,58],[-1,4],[0,4],[-3,2],[-28,13],[-3,2],[-2,2],[0,4],[1,4],[10,24],[2,3],[2,3],[4,2],[12,2],[3,1],[2,1],[0,3],[0,2],[-9,49],[30,11],[4,1],[2,2],[-1,3],[-17,21],[-2,4],[0,4],[1,4],[7,20],[1,4],[0,5],[-1,9],[-2,8],[-1,4],[0,1],[0,2],[4,38],[3,5],[4,6],[10,5],[5,4],[6,2],[5,0],[22,1],[4,1],[1,4],[1,5],[0,42],[0,3],[-1,4],[-2,1],[-4,0]],[[1745,3786],[-27,-1]],[[2267,4086],[4,1],[4,2],[3,3],[3,3],[1,1]],[[2260,4086],[7,0]],[[2259,4036],[2,3],[1,3],[4,12],[0,2],[-1,4],[-7,22],[-1,3],[3,1]],[[2238,4044],[2,0],[15,-7],[4,-1]],[[2210,4017],[4,1],[17,8],[4,2],[3,2],[0,4],[-1,8],[1,2]],[[2202,4036],[2,-2],[1,-3],[2,-9],[2,-3],[1,-2]],[[2141,3974],[4,2],[35,17],[5,4],[2,5],[0,13],[1,4],[2,4],[6,7],[3,4],[3,2]],[[2129,3992],[3,-3],[2,-4],[2,-4],[2,-4],[3,-3]],[[2094,3964],[4,2],[24,21],[4,3],[3,2]],[[2000,3979],[2,-1],[2,-4],[3,-8],[3,-4],[4,-3],[11,-1],[4,-2],[5,-5]],[[1983,3943],[-4,1],[-1,2],[0,3],[0,3],[2,2],[10,19],[3,4],[4,1],[3,1]],[[2082,3977],[3,-2],[3,-3],[2,-5],[3,-3],[1,0]],[[2034,3951],[4,1],[16,6],[5,0],[4,3],[4,3],[7,7],[4,4],[4,2]],[[1985,3930],[11,1],[3,3],[2,4],[-1,4],[-2,3],[-3,0]],[[1995,3945],[-12,-2]],[[1949,3938],[3,-2],[8,-6],[3,-2]],[[1932,3920],[3,1],[2,4],[6,7],[3,3],[3,3]],[[1974,3932],[11,-2]],[[1963,3928],[4,2],[3,1],[4,1]],[[1921,3927],[4,-2],[5,-3],[2,-2]],[[1892,3920],[29,7]],[[1894,4040],[3,2],[3,4],[0,12],[3,11],[1,2],[1,2],[-1,2],[-3,4],[-2,4],[1,3],[1,4],[2,4],[0,2]],[[1890,4041],[4,-1]],[[1892,3920],[-12,20],[-2,5],[-1,4],[1,3],[1,2],[3,4],[1,2],[0,3],[-11,24],[0,4],[2,3],[12,9],[4,6],[8,3],[2,2],[-1,3],[-12,19],[-2,3],[2,1],[3,1]],[[2504,4096],[0,-4],[-2,-4],[-3,-2],[-2,-1],[-3,-3],[-3,-7],[-10,-16],[-2,-4],[2,-2],[2,-4],[1,-3],[0,-7],[-2,-3],[-4,-3],[-13,-6],[-3,-1]],[[2462,4026],[-6,1]],[[2456,4027],[-3,-1],[-3,-1],[-2,-3],[-4,-37],[1,-6],[2,-7],[10,-21],[12,-17],[5,-4],[4,-1]],[[2493,3929],[3,-2],[2,-3],[10,-16],[4,-6],[7,-6],[3,-3],[-1,-2],[-12,-7],[-3,-3],[1,-3],[3,-3],[9,-7],[1,0]],[[2478,3929],[15,0]],[[2535,3880],[1,-1],[2,-3],[10,-53],[4,-43],[2,-8],[11,-32],[1,-12],[0,-44],[3,-2]],[[2520,3868],[12,10],[3,2]],[[2601,3692],[1,-3],[0,-3],[-1,-8],[0,-4],[-1,-2],[-4,-2],[-16,-7],[-2,-1],[-2,-3],[0,-3],[0,-5],[2,-4],[1,-3],[6,-3],[8,-11],[3,-1],[4,-1],[8,-1],[3,-1],[2,-1],[2,-4],[3,-9],[3,-13],[-2,-3],[-3,-2],[-21,-1],[-3,-1],[-3,-3],[-3,-4],[-1,-6],[0,-5],[2,-3],[51,-45],[4,-4],[0,-3],[-1,-5],[-22,-57]],[[2569,3682],[4,0],[25,10],[3,0]],[[2122,3589],[15,0],[16,-5],[6,-3],[3,-6],[2,-11],[0,-17],[6,-10],[13,-2]],[[2028,3552],[29,8],[18,8],[22,16],[25,5]],[[1960,3568],[9,-5],[6,-6],[8,-2],[7,-1]],[[1870,3382],[25,0],[4,1],[3,2],[37,39],[2,3],[0,4],[-3,13],[-1,3],[-2,3],[-25,14],[-2,1],[-1,2],[0,3],[1,3],[42,86],[6,8],[4,1]],[[2012,3557],[16,-5]],[[1990,3554],[8,2],[14,1]],[[2267,3547],[1,0],[-13,-14],[-3,-3],[-1,-4],[0,-3],[2,-22],[-1,-3],[-1,-2],[-14,-4],[-1,-2],[0,-4],[4,-25],[2,-2],[2,-1],[6,-2],[3,-1],[1,-2],[1,-3],[2,-36]],[[2183,3535],[33,5],[24,2],[21,5],[6,0]],[[2608,3474],[11,-17]],[[2478,3402],[5,1],[7,2],[28,12],[16,5],[4,2],[1,4],[1,9],[1,4],[3,2],[31,16],[25,15],[8,0]],[[2407,3429],[18,-6],[4,-1],[2,-3],[13,-17],[4,-3],[3,0]],[[2321,3414],[3,1],[4,1],[1,4],[3,3],[5,4],[70,2]],[[1856,3416],[5,-4],[4,-3],[0,-3],[2,-20],[1,-3],[2,-1]],[[1862,3335],[-31,8],[-3,1],[0,3],[0,4],[6,23],[18,37],[2,3],[2,2]],[[2260,3415],[61,-1]],[[2257,3414],[3,1]],[[2469,3406],[3,-2],[6,-2]],[[2451,3399],[14,6],[4,1]],[[1904,3301],[3,0],[2,1],[2,3],[2,5],[0,3],[0,3],[-3,8],[-1,3],[-2,2],[-4,2],[-27,8],[-4,0]],[[1872,3339],[-6,-4],[-4,0]],[[1636,3331],[-3,-33],[2,-10],[4,-11],[22,-12],[10,-1]],[[1825,3312],[-1,-3],[-4,-7],[-1,-5],[-1,-6],[1,-8],[-1,-3],[-3,-2],[-7,0],[-2,-1],[-2,-2],[-1,-4],[2,-6],[21,-16],[20,-5]],[[1792,3297],[4,0],[4,2],[22,13],[3,0]],[[1860,3307],[11,-4],[33,-2]],[[1846,3244],[-4,10],[-6,25],[4,11],[13,14],[4,3],[3,0]],[[1780,3298],[12,-1]],[[1671,3264],[27,2],[3,1],[2,2],[2,4],[1,4],[4,3],[4,3],[17,0],[47,15],[2,0]],[[1412,3395],[-8,1],[-4,0],[-3,1],[-2,2],[-1,1],[-3,3],[-9,14],[-205,21]],[[1476,3391],[-37,6]],[[1439,3397],[-27,-2]],[[1636,3331],[-106,49],[-42,11],[-5,1]],[[1483,3392],[-7,-1]],[[2619,3457],[0,-5],[33,-68],[2,-2]],[[2907,3396],[8,-2],[4,-3],[1,-4],[2,-73],[25,-3],[231,-1],[1,0]],[[2877,3369],[2,1],[1,1],[17,22],[4,3],[6,0]],[[2670,3394],[4,-2],[4,-4],[18,-20],[6,-3],[7,-2],[30,-6]],[[2654,3382],[3,1],[6,7],[3,3],[4,1]],[[2814,3386],[20,-1],[3,-1],[0,-3],[-2,-3],[-1,-4],[2,-3],[7,-1],[34,-1]],[[2739,3357],[4,0],[68,28],[3,1]],[[1304,2845],[338,-2],[8,-34],[29,-201],[1,-4],[2,-4],[4,0]],[[1303,2845],[1,0]],[[2630,2663],[25,-13],[8,-7],[28,-15],[159,-14]],[[2325,2609],[48,4],[176,43],[81,7]],[[2903,2646],[3,-2],[2,-3],[32,-49],[3,-4],[4,-1]],[[2850,2614],[6,2],[33,18],[7,8],[3,2],[4,2]],[[1920,2632],[3,-1],[4,-4],[8,-17],[3,-4],[3,-1],[5,-1]],[[1881,2575],[15,11],[6,9],[14,30],[4,7]],[[2244,2620],[3,0],[3,-2],[6,-2],[69,-7]],[[2215,2535],[2,71],[8,5],[10,5],[7,3],[2,1]],[[1864,2615],[4,-1],[4,-3],[4,-3],[2,-3],[1,-2],[-2,-2],[-2,-3],[1,-4],[5,-19]],[[1846,2493],[5,0],[3,3],[-20,101],[0,5],[1,3],[2,2],[4,2],[19,6],[4,0]],[[1713,2606],[4,-3],[4,-4],[73,-102],[5,-4]],[[1686,2600],[4,1],[13,4],[5,1],[5,0]],[[1952,2605],[64,-13],[3,-2],[6,-3],[9,-7],[16,-2],[16,-5],[10,-7],[4,-4],[1,-5],[1,-5],[1,-4],[2,-3]],[[1946,2604],[6,1]],[[2975,2602],[17,-1],[20,-3],[9,-3],[9,-7],[6,-2],[5,-2],[35,-7],[16,-7],[4,-1]],[[2947,2587],[4,2],[11,9],[3,2],[10,2]],[[3157,2594],[6,-5]],[[3096,2569],[8,3],[41,20],[5,1],[7,1]],[[3163,2589],[16,3]],[[2149,2562],[6,-1],[60,-26]],[[2085,2545],[7,1],[27,8],[11,1],[19,7]],[[1820,2499],[9,0],[17,-6]],[[1799,2493],[5,0],[4,2],[5,3],[7,1]],[[1050,4096],[1,-1],[56,-77],[1,-4],[0,-10],[8,-13],[24,-28],[2,-3],[12,-26],[7,-25],[13,-28],[4,-18],[8,-15],[7,-53],[3,-72],[-2,-19],[-3,-9],[-4,-4],[-5,-4],[-8,-16],[-6,-6],[5,13],[0,4],[-7,-4],[-3,5],[1,8],[2,8],[-2,2],[-2,4],[-1,3],[2,3],[-1,2],[-2,0],[-2,-1],[0,-17],[-1,-4],[-4,-8],[-2,-4],[0,-4],[1,-26],[2,-15],[4,-13],[5,-11],[7,-11],[4,-14],[6,-48],[1,-16],[-1,-9],[-2,-2],[-2,4],[0,8],[-5,-4],[-8,-17],[-3,-3],[-1,-4],[5,-19],[13,-37],[5,-11],[1,-15],[-5,-59],[1,-7],[7,-20],[-1,-23],[3,-5],[-5,-10],[-1,-3],[-3,-2],[-3,-1],[-3,-1],[-2,-5],[-3,-11],[-2,-6],[3,-9],[1,-14],[0,-14],[-2,-8],[3,-6],[3,-19],[7,-13],[7,-29],[20,-39],[8,-21],[8,-15],[2,-8],[0,-17],[-1,-2],[-5,-6],[-2,-5],[2,-10],[13,-15],[5,-12],[18,-18],[9,-13],[21,-41],[4,-15],[1,-33],[5,-16],[7,-16],[5,-11],[4,-15],[-1,-17],[-8,-29],[1,-5],[-11,-31],[0,-8],[4,-15],[2,-19],[9,-25],[2,-19],[2,-10],[8,-8],[1,-8],[1,-10],[-1,-7],[-11,-21],[-2,-8],[0,-32],[-1,-6],[0,-4],[1,-4],[6,-11],[19,-23],[3,0],[-6,-15],[2,-14],[16,-27],[6,-14],[4,-17],[0,-18],[-5,-13],[-3,-2],[-3,2],[-2,-1],[-2,-4],[1,-3],[8,-11],[-2,-31],[3,-32],[3,-4],[22,-9],[14,-10],[12,-12],[8,-15],[5,-25],[7,-25],[3,-6],[0,-4],[-8,-21],[-1,-8],[-3,0],[0,15],[-1,4],[-2,0],[-4,-1],[-4,-1],[-5,-2],[-3,-6],[-1,-8],[1,-10],[3,-7],[5,-8],[4,-8],[-2,-11],[2,-7],[12,-25],[2,-7],[1,-9],[1,0],[3,-4],[3,-4],[0,-2],[4,-1],[6,-1],[3,-1],[6,-7],[2,-8],[-1,-17],[1,-10],[2,-7],[7,-15],[-2,-6],[5,-27],[-3,-17],[1,-5],[2,-3],[3,-3],[2,-4],[5,-32],[2,-5],[15,-19],[11,-22],[3,-3],[6,-3],[4,-7],[6,-13],[35,-56],[2,-5],[1,-3],[0,-21],[2,-10],[4,-7],[37,-37],[9,-13],[5,-13],[0,-4],[-3,-9],[1,-4],[1,-3],[12,-13],[12,-18],[5,-5],[26,-21],[18,-24],[10,-10],[48,-35],[24,-27],[22,-30],[2,-2],[7,-3],[39,-39],[5,-8],[12,-13],[22,-18],[4,-3],[10,-2],[4,5],[4,6],[7,5],[0,-4],[0,-7],[-3,-6],[-3,-2],[0,-3],[9,-9],[6,-5],[8,-17],[2,-1],[4,-1],[3,0],[1,-2],[1,-3],[3,-7],[2,-3],[-2,-9],[2,-14],[4,-15],[4,-9],[25,-21],[16,-22],[3,-6],[5,-16],[4,-5],[23,-20],[5,-9],[-1,-7],[1,-9],[3,-10],[3,-6],[2,-4],[-1,-9],[2,-4],[4,-4],[2,-4],[8,-24],[6,-8],[1,-2],[2,-4],[7,-8],[1,-2],[14,-41],[3,-4],[10,-30],[2,-15],[2,-9],[5,-4],[0,-4],[9,-24],[1,-6],[-1,-11],[2,-5],[-2,0],[10,-33],[0,-5],[1,-4],[1,-3],[2,-2],[1,-2],[2,-14],[23,-52],[9,-33],[1,-16],[5,-14],[19,-32],[1,-11],[1,-4],[3,-13],[2,-10],[1,-4],[24,-40],[6,-8],[4,-10],[20,-36],[9,-10],[-2,-16],[10,-17],[22,-29],[4,-14],[3,-15],[2,-6],[20,-39],[26,-35],[3,-7],[8,-18],[5,-7],[1,-3],[4,-10],[2,-1],[19,-32],[2,-5],[4,-4],[14,-12],[5,-5],[4,-19],[4,-10],[10,-8],[14,-22],[12,-10],[6,-6],[2,-8],[3,-6],[17,-18],[17,-23],[1,-3],[3,-6],[17,-21],[8,-14],[6,-13],[8,-29],[0,-4],[0,-4],[0,-3],[3,-6],[4,-7],[4,-5],[4,-9],[1,-8],[-1,-16],[-2558,0],[0,4096],[1050,0]],[[1050,4096],[1,-1],[56,-77],[1,-4],[0,-10],[8,-13],[24,-28],[2,-3],[12,-26],[7,-25],[13,-28],[4,-18],[8,-15],[7,-53],[3,-72],[-2,-19],[-3,-9],[-4,-4],[-5,-4],[-8,-16],[-6,-6],[5,13],[0,4],[-7,-4],[-3,5],[1,8],[2,8],[-2,2],[-2,4],[-1,3],[2,3],[-1,2],[-2,0],[-2,-1],[0,-17],[-1,-4],[-4,-8],[-2,-4],[0,-4],[1,-26],[2,-15],[4,-13],[5,-11],[7,-11],[4,-14],[6,-48],[1,-16],[-1,-9],[-2,-2],[-2,4],[0,8],[-5,-4],[-8,-17],[-3,-3],[-1,-4],[5,-19],[13,-37],[5,-11],[1,-15],[-5,-59],[1,-7],[7,-20],[-1,-23],[3,-5],[-5,-10],[-1,-3],[-3,-2],[-3,-1],[-3,-1],[-2,-5],[-3,-11],[-2,-6],[3,-9],[1,-14],[0,-14],[-2,-8],[3,-6],[3,-19],[7,-13],[7,-29],[20,-39],[8,-21],[8,-15],[2,-8],[0,-17],[-1,-2],[-5,-6],[-2,-5],[2,-10],[13,-15],[5,-12],[18,-18],[9,-13],[21,-41],[4,-15],[1,-33],[5,-16],[7,-16],[5,-11],[4,-15],[-1,-17],[-8,-29],[1,-5],[-11,-31],[0,-8],[4,-15],[2,-19],[9,-25],[2,-19],[2,-10],[8,-8],[1,-8],[1,-10],[-1,-7],[-11,-21],[-2,-8],[0,-32],[-1,-6],[0,-4],[1,-4],[6,-11],[19,-23],[3,0],[-6,-15],[2,-14],[16,-27],[6,-14],[4,-17],[0,-18],[-5,-13],[-3,-2],[-3,2],[-2,-1],[-2,-4],[1,-3],[8,-11],[-2,-31],[3,-32],[3,-4],[22,-9],[14,-10],[12,-12],[8,-15],[5,-25],[7,-25],[3,-6],[0,-4],[-8,-21],[-1,-8],[-3,0],[0,15],[-1,4],[-2,0],[-4,-1],[-4,-1],[-5,-2],[-3,-6],[-1,-8],[1,-10],[3,-7],[5,-8],[4,-8],[-2,-11],[2,-7],[12,-25],[2,-7],[1,-9],[1,0],[3,-4],[3,-4],[0,-2],[4,-1],[6,-1],[3,-1],[6,-7],[2,-8],[-1,-17],[1,-10],[2,-7],[7,-15],[-2,-6],[5,-27],[-3,-17],[1,-5],[2,-3],[3,-3],[2,-4],[5,-32],[2,-5],[15,-19],[11,-22],[3,-3],[6,-3],[4,-7],[6,-13],[35,-56],[2,-5],[1,-3],[0,-21],[2,-10],[4,-7],[37,-37],[9,-13],[5,-13],[0,-4],[-3,-9],[1,-4],[1,-3],[12,-13],[12,-18],[5,-5],[26,-21],[18,-24],[10,-10],[48,-35],[24,-27],[22,-30],[2,-2],[7,-3],[39,-39],[5,-8],[12,-13],[22,-18],[4,-3],[10,-2],[4,5],[4,6],[7,5],[0,-4],[0,-7],[-3,-6],[-3,-2],[0,-3],[9,-9],[6,-5],[8,-17],[2,-1],[4,-1],[3,0],[1,-2],[1,-3],[3,-7],[2,-3],[-2,-9],[2,-14],[4,-15],[4,-9],[25,-21],[16,-22],[3,-6],[5,-16],[4,-5],[23,-20],[5,-9],[-1,-7],[1,-9],[3,-10],[3,-6],[2,-4],[-1,-9],[2,-4],[4,-4],[2,-4],[8,-24],[6,-8],[1,-2],[2,-4],[7,-8],[1,-2],[14,-41],[3,-4],[10,-30],[2,-15],[2,-9],[5,-4],[0,-4],[9,-24],[1,-6],[-1,-11],[2,-5],[-2,0],[10,-33],[0,-5],[1,-4],[1,-3],[2,-2],[1,-2],[2,-14],[23,-52],[9,-33],[1,-16],[5,-14],[19,-32],[1,-11],[1,-4],[3,-13],[2,-10],[1,-4],[24,-40],[6,-8],[4,-10],[20,-36],[9,-10],[-2,-16],[10,-17],[22,-29],[4,-14],[3,-15],[2,-6],[20,-39],[26,-35],[3,-7],[8,-18],[5,-7],[1,-3],[4,-10],[2,-1],[19,-32],[2,-5],[4,-4],[14,-12],[5,-5],[4,-19],[4,-10],[10,-8],[14,-22],[12,-10],[6,-6],[2,-8],[3,-6],[17,-18],[17,-23],[1,-3],[3,-6],[17,-21],[8,-14],[6,-13],[8,-29],[0,-4],[0,-4],[0,-3],[3,-6],[4,-7],[4,-5],[4,-9],[1,-8],[-1,-16]],[[1756,4096],[-12,-7],[-11,-5],[-9,2],[-16,6],[-15,0],[-18,4]],[[1675,4096],[-14,-4],[-16,4]],[[1597,4096],[-7,-9],[-4,-10]],[[2060,4076],[0,6],[-3,14]],[[2018,4096],[18,-5],[15,-7],[9,-8]],[[1586,4077],[-3,-5],[-5,0],[-22,7],[-20,3],[-16,-5],[-12,5],[-11,0]],[[3199,3957],[-8,-8],[-31,-22],[-12,-10],[-6,-5],[-9,-2],[-20,0],[-13,4],[-24,0],[-9,1],[-21,-7],[-24,0],[-20,6],[-9,3],[-6,5],[-9,2],[-12,-5],[-14,0],[-13,5],[-17,5]],[[2437,3917],[29,5],[7,3],[23,2],[33,0],[15,0],[15,-2],[9,-3],[11,-5],[36,-7],[16,-7],[5,0],[12,5],[9,-1],[4,1],[9,9],[8,2],[25,-2],[24,0],[32,-3],[31,-6],[8,-3],[13,-10],[6,-2]],[[2922,3929],[-1,0],[-15,-7],[-24,-7],[-30,-18],[-18,-10]],[[2277,3868],[16,8],[17,4],[7,3],[9,7],[12,10],[6,3],[21,7],[18,0],[30,0],[8,0],[16,7]],[[2196,3854],[16,11],[12,3],[15,-8],[5,-2],[13,2],[20,8]],[[2128,3836],[-6,17],[-1,13],[0,5]],[[2121,3871],[0,5],[-2,29],[-4,15],[0,24],[-5,17],[-6,17],[-6,18],[-3,9],[-5,6],[-10,12],[-11,17],[-7,22],[-2,14]],[[2128,3836],[15,3]],[[2143,3839],[2,0],[21,-3],[18,8],[7,5]],[[2127,3821],[1,6],[0,9]],[[1334,3861],[-8,-7],[-21,-10],[-10,-6],[-8,-4],[-21,-1],[-7,-2]],[[1259,3831],[-5,-2],[-33,-20],[-10,-7]],[[1497,4082],[-7,-1],[-11,-5],[-6,-6],[-12,-16],[-13,-16],[-9,-20],[-9,-8],[-6,-10],[-11,-19],[-4,-10],[-3,-15],[-2,-15],[-3,-11],[-4,-6],[-12,-10],[-14,-9],[-4,-7],[-5,-6],[-12,-12],[-6,-10],[-10,-9]],[[1211,3802],[-11,-3]],[[1199,3789],[3,-22],[3,-12],[3,-14],[-2,-30],[-4,-14],[-6,-6]],[[1196,3691],[-5,-7],[-8,-2]],[[1200,3799],[-1,-5],[0,-5]],[[2124,3815],[3,6]],[[2127,3532],[-2,10],[3,15],[2,12],[4,19],[5,27],[-5,17],[3,20],[6,13],[8,11],[4,18],[2,12],[-2,18],[-4,17],[-11,21],[-6,11],[-10,17],[-3,7],[-2,8],[5,10]],[[2242,3319],[-4,7],[-9,9],[-20,20],[-12,15],[-25,25],[-8,10],[-21,39],[-4,36],[-3,12],[-2,15],[-6,15],[-1,10]],[[2311,3223],[-6,7],[-9,13],[-12,14],[-28,44],[-14,18]],[[2449,3019],[-1,5],[-12,20],[-5,12],[-6,7],[0,15],[-3,17],[-12,15],[-21,24],[-15,18],[-28,34],[-21,19],[-11,11],[-3,7]],[[2446,3002],[3,9],[0,8]],[[2445,3000],[1,2]],[[2395,2800],[3,11],[17,26],[4,8],[2,9],[1,10],[-1,20],[1,30],[8,51],[1,8],[8,19],[6,8]],[[2517,2211],[4,11],[9,43],[2,20],[-5,25],[-3,14],[-6,20],[-3,17],[-1,25],[0,34],[-3,8],[-3,12],[-2,15],[0,10],[-1,12],[-8,10],[-9,9],[-4,12],[-9,38],[-8,29],[-4,5],[-11,9],[-4,6],[-5,12],[-4,36],[-3,8],[-5,7],[-12,10],[-3,7],[-4,11],[-6,12],[-11,15],[-7,16],[-3,18],[1,15],[3,21],[6,17]],[[2512,2204],[5,7]],[[2512,2192],[-3,7],[3,5]],[[1514,2158],[-2,-2],[-6,-5],[-9,-1],[-16,-7],[-9,0],[-6,7],[-9,3],[-11,0],[-7,3]],[[1789,2176],[-6,4],[-11,5],[-25,12],[-26,7],[-19,1],[-15,2],[-21,0],[-32,-3],[-44,0],[-12,-4],[-46,-23],[-3,-2],[-15,-17]],[[1826,2163],[-4,7],[-8,3],[-13,0],[-11,2],[-1,1]],[[2178,2133],[-9,15],[-5,5],[-7,5],[-21,2],[-18,12],[-9,0],[-19,-9],[-16,-5],[-9,4],[-11,0],[-10,1],[-17,7],[-7,5],[-38,17],[-4,2],[-17,-5],[-24,-7],[-16,2],[-15,3],[-9,0],[-15,-14],[-12,-5],[-8,-1],[-16,1],[-6,-1]],[[2512,2192],[-7,-15],[-6,-5],[-11,-5],[-4,-7],[-11,-9],[-15,-5],[-9,-6],[-15,-16],[-13,-8],[-32,-12],[-4,2]],[[2385,2106],[-6,10],[-9,3],[-3,4],[-14,5],[-18,5],[-9,-7],[-15,-7],[-13,-1],[-15,-2],[-5,2],[-19,-2],[-14,-8],[-7,-4],[-11,0],[-13,5],[-15,14],[-20,6],[-1,4]],[[2594,1729],[0,19],[3,20],[4,9],[5,6],[7,17],[17,26],[7,15],[14,24],[13,27],[2,5],[-2,13],[3,15],[9,14],[3,5],[3,32],[6,25],[-3,14],[-4,12],[-11,21],[-4,22],[-12,46],[-3,8],[-6,9],[-8,5],[-15,0],[-16,2],[-15,5],[-8,3],[-18,12],[-24,12],[-14,8],[-15,12]],[[2535,1672],[6,7],[8,3],[12,5],[9,7],[6,12],[9,8],[4,9],[5,6]],[[2594,1729],[6,-1],[25,-10],[20,-10],[7,-4],[20,-12],[15,-8],[13,-10],[11,-12],[9,-19],[12,-30]],[[2732,1613],[24,8],[15,0],[15,0],[16,-3],[14,0],[7,5],[9,0],[17,-2],[19,0],[14,-5],[18,-11],[21,-9],[15,-3],[25,-7],[11,-2],[21,-1],[15,0],[24,1],[23,5],[22,-3],[20,-3],[15,-9],[16,-1],[12,5],[11,0],[15,-4],[4,0],[11,7],[10,0],[9,2],[27,-10],[8,-4],[19,-7],[12,-5],[29,-8],[16,-9],[5,-5],[10,-6],[9,-4],[17,-3],[7,-4],[6,-5],[12,-6],[11,-4],[15,-1],[7,3],[5,0],[12,-5]],[[2446,1466],[6,19],[9,20],[5,13],[7,26],[5,20],[7,30],[9,14],[15,13],[6,7],[0,5],[5,9],[0,5],[6,7],[9,18]],[[3427,1500],[4,-3],[21,-9],[22,-3],[15,-4],[9,-3],[13,-5],[11,-2],[9,-3],[36,-9],[21,-3],[15,-3],[18,-4]],[[3621,1449],[19,-3]],[[3640,1446],[0,-17]],[[3540,1331],[3,12],[19,20],[9,9],[8,3],[4,-2],[12,4],[8,5],[3,8],[3,12]],[[3412,1304],[12,9],[9,1],[10,-1],[8,-4],[17,-1],[12,3],[12,3],[15,14],[7,3],[11,-2],[15,2]],[[3379,1308],[3,0],[10,-2],[15,0],[5,-2]],[[3640,1429],[3,-12],[3,2],[12,12],[11,0],[6,5],[15,-2],[12,-5],[4,2],[11,13],[6,5],[10,-1],[14,3],[9,-3],[7,-5],[11,-2],[6,-4],[16,-13],[9,-19],[3,-3],[12,-5],[0,-3],[-1,-11],[4,-13],[0,-15],[2,-4],[15,-13],[6,-5],[1,-10],[6,-9],[9,-15],[3,-7],[0,-10],[3,-8],[8,-4],[9,-10],[9,-1],[12,-7]],[[3112,1247],[15,3],[19,9],[17,5],[16,10],[9,3],[9,0],[12,-2],[18,-5],[17,-1],[7,3],[6,0],[12,-7],[33,-5],[8,4],[19,13],[21,12],[14,10],[15,9]],[[2969,1157],[22,5],[11,5],[9,7],[11,2],[18,10],[19,13],[21,19],[11,7],[7,10],[5,5],[9,7]],[[2365,1098],[0,5],[3,10],[5,7],[6,4],[12,6],[3,10],[3,7],[7,19],[0,10],[-3,12],[-4,11],[-21,26],[-8,8],[-13,21],[-2,8],[-6,7],[-3,6],[0,11],[-7,5],[-6,10],[-6,5],[-5,7],[2,10],[4,8],[6,19],[11,5],[10,7],[12,3],[5,3],[3,7],[15,15],[10,14],[14,13],[15,14],[4,6],[11,16],[4,13]],[[3906,1252],[9,-10],[3,-9],[2,-22],[4,-32],[3,-13],[3,-12],[8,-36],[4,-16],[3,-14],[5,-17],[6,-32]],[[2969,1157],[-9,-8],[-12,-17],[-12,-14],[-15,-18],[-14,-2],[-9,-8],[-4,0],[-26,5],[-12,-4],[-4,0],[-18,7],[-6,2],[-17,-3],[-10,0],[-8,3],[-9,8],[-7,5],[-6,11],[-6,-6],[-8,-21],[-7,-12],[-9,-2],[-11,-12],[-24,-10],[-28,-13],[-23,-12],[-16,-12],[-8,-3],[-15,-7],[-25,-7],[-27,-5],[-8,-3],[-15,-14],[-5,0],[-24,-3],[-13,-2],[-26,-5],[-16,-7],[-11,-5],[-7,-10],[-5,-7],[-6,-6],[-7,-4]],[[2421,936],[-3,9],[-5,10],[-3,18],[-3,19],[-7,13],[-3,9],[0,13],[-6,12],[-5,5],[-7,15],[-6,22],[-5,10],[-3,7]],[[3956,1039],[16,-12],[12,-5],[21,-13],[11,-9],[12,-6],[13,-4],[20,-10],[15,-8],[19,-10],[1,-1]],[[2443,580],[-6,5],[-3,9],[3,16],[-1,9],[-3,7],[-9,13],[-8,10],[0,9],[3,15],[2,25],[1,12],[8,8],[3,9],[-3,7],[1,11],[-3,7],[-4,7],[-3,13],[-6,26],[1,8],[6,12],[-1,10],[-6,15],[-2,14],[-7,10],[-5,15],[0,17],[5,9],[9,8],[6,10],[0,10]],[[2553,381],[-3,10],[-20,34],[-21,25],[-10,17],[-11,22],[-4,17],[-6,12],[-2,16],[-13,21],[-3,13],[-6,5],[-11,7]],[[2594,330],[-8,7],[-7,14],[-18,18],[-8,12]],[[2726,140],[-5,11],[-4,37],[-3,17],[-5,12],[-9,14],[-10,12],[-14,15],[-10,18],[-9,19],[-5,5],[-3,3],[-19,5],[-21,10],[-15,12]],[[2688,77],[8,12],[15,20],[1,5],[14,17],[0,9]],[[2706,0],[-10,11],[-15,24],[4,7],[2,10],[1,25]],[[2558,0],[1,16],[-1,8],[-4,9],[-4,5],[-4,7],[-3,6],[0,3],[0,4],[0,4],[-8,29],[-6,13],[-8,14],[-17,21],[-3,6],[-1,3],[-17,23],[-17,18],[-3,6],[-2,8],[-6,6],[-12,10],[-14,22],[-10,8],[-4,10],[-4,19],[-5,5],[-14,12],[-4,4],[-2,5],[-19,32],[-2,1],[-4,10],[-1,3],[-5,7],[-8,18],[-3,7],[-26,35],[-20,39],[-2,6],[-3,15],[-4,14],[-22,29],[-10,17],[2,16],[-9,10],[-20,36],[-4,10],[-6,8],[-24,40],[-1,4],[-2,10],[-3,13],[-1,4],[-1,11],[-19,32],[-5,14],[-1,16],[-9,33],[-23,52],[-2,14],[-1,2],[-2,2],[-1,3],[-1,4],[0,5],[-10,33],[2,0],[-2,5],[1,11],[-1,6],[-9,24],[0,4],[-5,4],[-2,9],[-2,15],[-10,30],[-3,4],[-14,41],[-1,2],[-7,8],[-2,4],[-1,2],[-6,8],[-8,24],[-2,4],[-4,4],[-2,4],[1,9],[-2,4],[-3,6],[-3,10],[-1,9],[1,7],[-5,9],[-23,20],[-4,5],[-5,16],[-3,6],[-16,22],[-25,21],[-4,9],[-4,15],[-2,14],[2,9],[-2,3],[-3,7],[-1,3],[-1,2],[-3,0],[-4,1],[-2,1],[-8,17],[-6,5],[-9,9],[0,3],[3,2],[3,6],[0,7],[0,4],[-7,-5],[-4,-6],[-4,-5],[-10,2],[-4,3],[-22,18],[-12,13],[-5,8],[-32,32],[-7,7],[-7,3],[-2,2],[-22,30],[-24,27],[-48,35],[-10,10],[-18,24],[-26,21],[-5,5],[-12,18],[-12,13],[-1,3],[-1,4],[3,9],[0,4],[-5,13],[-9,13],[-37,37],[-4,7],[-2,10],[0,21],[-1,3],[-2,5],[-35,56],[-6,13],[-4,7],[-6,3],[-3,3],[-11,22],[-15,19],[-2,5],[-5,32],[-2,4],[-3,3],[-2,3],[-1,5],[3,17],[-5,27],[2,6],[-7,15],[-2,7],[-1,10],[1,17],[-2,8],[-6,7],[-3,1],[-6,1],[-4,1],[0,2],[-3,4],[-3,4],[-1,0],[-1,9],[-2,7],[-12,25],[-2,7],[2,11],[-4,8],[-5,8],[-3,7],[-1,10],[1,8],[3,6],[5,2],[4,1],[4,1],[2,0],[1,-4],[0,-15],[3,0],[1,8],[8,21],[0,4],[-3,6],[-7,25],[-5,25],[-8,15],[-12,12],[-14,10],[-22,9],[-3,4],[-3,32],[2,31],[-8,11],[-1,3],[2,4],[2,1],[3,-2],[3,2],[5,13],[0,18],[-4,17],[-6,14],[-16,27],[-2,14],[6,15],[-3,0],[-19,23],[-6,11],[-1,4],[0,4],[1,6],[0,32],[2,8],[11,21],[1,7],[-1,10],[-1,8],[-8,8],[-2,10],[-2,19],[-9,25],[-2,19],[-4,15],[0,8],[11,31],[-1,5],[8,29],[0,4],[1,13],[-4,15],[-5,11],[-7,16],[-5,16],[-1,33],[-4,15],[-21,41],[-9,13],[-18,18],[-5,12],[-13,15],[-2,10],[2,5],[5,6],[1,2],[0,17],[-2,8],[-8,15],[-8,21],[-20,39],[-7,29],[-7,13],[-3,19],[-3,6],[2,8],[0,14],[-1,14],[-3,9],[2,6],[3,11],[2,5],[3,1],[3,1],[3,2],[1,3],[5,10],[-3,5],[1,23],[-7,20],[-1,7],[5,59],[-1,15],[-5,11],[-13,37],[-5,19],[1,4],[3,3],[8,17],[5,4],[0,-8],[2,-4],[2,2],[1,9],[-1,16],[-6,48],[-4,14],[-7,11],[-5,11],[-4,13],[-2,15],[-1,26],[0,4],[2,4],[4,8],[1,4],[0,17],[2,1],[2,0],[1,-2],[-2,-3],[1,-3],[2,-4],[2,-2],[-2,-8],[-1,-8],[3,-5],[7,4],[0,-4],[-5,-13],[6,6],[8,16],[5,4],[4,4],[3,9],[2,19],[-3,72],[-7,53],[-8,15],[-4,18],[-13,28],[-7,25],[-12,26],[-2,3],[-24,28],[-8,13],[0,10],[-1,4],[-56,77],[-1,1],[757,0],[2289,0],[0,-1290],[0,-2806],[-1538,0]],[[1645,2947],[47,-1],[5,-33],[71,-17],[-3,-93],[-33,-7],[34,-69],[-24,-11],[30,-35],[-74,-22],[-28,72],[28,35],[-53,181]],[[1179,3027],[4,28],[43,1],[-8,-29],[73,-110],[30,-109],[-28,-81],[30,-104],[-20,-85],[56,-136],[-12,-94],[63,-54],[20,-67],[-35,-35],[25,-86],[29,-14],[22,-153],[142,-254],[-77,-11],[-146,248],[-119,414],[-92,731]],[[3185,2869],[0,345],[670,-309],[116,0],[0,-212],[-138,1],[-278,-428],[-146,-25],[-198,175],[3,31],[-29,20],[0,402]],[[1148,3660],[2,24],[14,33],[4,-61],[29,24],[32,-35],[6,20],[-38,15],[-6,106],[54,21],[-15,-137],[12,1],[25,-103],[-105,35],[-14,57]],[[1201,4096],[152,-267],[-22,-39],[-85,48],[-59,2],[-9,86],[-62,66],[17,2],[-4,56],[-36,-14],[-45,60],[153,0]],[[2102,3831],[-6,42],[38,-3],[13,-44],[-18,-15],[-27,20]],[[1159,3499],[16,-34],[-13,138],[105,-35],[-22,243],[86,-21],[54,73],[44,-50],[20,21],[23,-37],[30,2],[7,25],[41,0],[80,-60],[-43,-40],[-5,-127],[75,-39],[10,-46],[-33,-58],[38,-27],[2,-65],[-2,-26],[-28,-4],[-21,-127],[55,-7],[6,-32],[64,0],[-15,79],[88,10],[-15,-57],[42,11],[5,-49],[-73,-65],[-101,16],[-66,-123],[85,-222],[-28,-35],[92,-189],[-19,-75],[64,-86],[62,-35],[15,-66],[-102,-32],[8,-72],[-178,25],[-119,-52],[0,287],[-143,0],[-16,25],[-31,77],[20,85],[-30,100],[27,88],[-38,128],[-64,88],[6,44],[-54,144],[18,193],[-29,91]],[[2206,673],[20,18],[-8,71],[35,24],[-21,12],[44,33],[73,-2],[0,-44],[28,-12],[-23,-20],[37,-22],[-55,-14],[14,22],[-18,-11],[-28,37],[-43,-8],[-8,-32],[1,-92],[48,-31],[-20,-30],[22,-119],[-80,149],[17,7],[-2,19],[15,4],[-48,41]],[[2247,626],[4,-8],[28,-7],[-24,9],[-8,6]],[[1340,2379],[10,57],[143,0],[0,-287],[119,52],[173,-27],[-74,0],[10,-92],[30,4],[48,-53],[38,-120],[98,-139],[-19,-2],[9,-18],[44,-26],[-25,-10],[29,-65],[80,-87],[-24,-60],[-25,0],[20,-37],[-28,-55],[-22,10],[-82,-64],[-275,270],[-146,269],[-22,153],[-29,14],[-25,86],[4,25],[27,-18],[3,37],[-30,75],[-52,37],[-7,71]],[[1879,1393],[3,-7],[10,2],[-1,8],[-12,-3]],[[2029,1593],[23,39],[-8,61],[107,74],[4,88],[90,-29],[-49,-42],[25,-20],[-25,-32],[7,-107],[85,50],[-8,127],[57,32],[16,34],[-23,26],[20,13],[9,-61],[46,-51],[-44,-36],[28,-22],[-115,-124],[-37,-79],[61,27],[41,-37],[-3,-61],[-85,68],[-34,-115],[-70,-7],[-75,81],[-43,103]]]}