{"objects":{"water":{"type":"GeometryCollection","geometries":[{"type":"Polygon","properties":{"source":"naturalearthdata.com","kind":"ocean","area":1576712559132672,"sort_rank":200,"min_zoom":0.0,"id":1},"arcs":[[1]]}]},"buildings":{"type":"GeometryCollection","geometries":[]},"places":{"type":"GeometryCollection","geometries":[]},"transit":{"type":"GeometryCollection","geometries":[]},"pois":{"type":"GeometryCollection","geometries":[]},"boundaries":{"type":"GeometryCollection","geometries":[{"type":"LineString","properties":{"alt_name:eo":"Santomeo kaj Principeo","name:sk":"Sv\u00e4t\u00fd Tom\u00e1\u0161 a Princov ostrov","name:cs":"Svat\u00fd Tom\u00e1\u0161 a Princ\u016fv ostrov","name:eo":"Sao-Tomeo kaj Principeo","name:io":"San-Tome e Principe","min_zoom":8.0,"name:uk":"\u0421\u0430\u043d-\u0422\u043e\u043c\u0435 \u0456 \u041f\u0440\u0438\u043d\u0441\u0456\u043f\u0456","name:fy":"Sao Tomee en Prinsipe","name:ru":"\u0421\u0430\u043d-\u0422\u043e\u043c\u0435 \u0438 \u041f\u0440\u0438\u043d\u0441\u0438\u043f\u0438","name:pl":"Wyspy \u015awi\u0119tego Tomasza i Ksi\u0105\u017c\u0119ca","name:ta":"\u0b9a\u0bbe\u0bb5\u0bcb \u0ba4\u0bca\u0bae\u0bc7 \u0bae\u0bb1\u0bcd\u0bb1\u0bc1\u0bae\u0bcd \u0baa\u0bbf\u0bb0\u0bbf\u0ba9\u0bcd\u0b9a\u0bbf\u0baa\u0bcd\u0baa\u0bbf","name:hr":"Sveti Toma i Princip","name:sr":"\u0421\u0430\u043e \u0422\u043e\u043c\u0435 \u0438 \u041f\u0440\u0438\u043d\u0441\u0438\u043f\u0435","osm_relation":true,"name:vo":"Saluda-Tome\u00e4n e Prinsipe\u00e4n","kind":"country","name:en":"S\u00e3o Tom\u00e9 and Pr\u00edncipe","name":"S\u00e3o Tom\u00e9 e Pr\u00edncipe","sort_rank":262,"kind_detail":"2","name:fr":"Sao Tom\u00e9-et-Principe","id":-535880,"source":"openstreetmap.org","maritime_boundary":true,"name:de":"S\u00e3o Tom\u00e9 und Pr\u00edncipe","name:zh":"\u5723\u591a\u7f8e\u548c\u666e\u6797\u897f\u6bd4\/\u8056\u591a\u7f8e\u666e\u6797\u897f\u6bd4","name:nl":"Sao Tom\u00e9 en Principe"},"arcs":[0]}]},"roads":{"type":"GeometryCollection","geometries":[]},"earth":{"type":"GeometryCollection","geometries":[]},"landuse":{"type":"GeometryCollection","geometries":[]}},"type":"Topology","transform":{"translate":[5.625,1.4061088354],"scale":[0.0003433228,0.0003430816]},"arcs":[[[4096,413],[-260,-413]],[[0,0],[0,4096],[4096,0],[0,-4096],[-4096,0]]]}