{"objects":{"water":{"type":"GeometryCollection","geometries":[{"type":"Polygon","properties":{"source":"naturalearthdata.com","kind":"ocean","area":1576712559132672,"sort_rank":200,"min_zoom":0.0,"id":1},"arcs":[[25],[26],[27],[28],[29],[30],[31]]},{"type":"Polygon","properties":{"source":"naturalearthdata.com","kind":"lake","name":"Lauwerszee","area":86483632,"sort_rank":200,"min_zoom":0.0,"id":760},"arcs":[[32]]},{"type":"Point","properties":{"label_placement":true,"kind":"lake","name":"Lauwerszee","area":86483632,"sort_rank":200,"source":"naturalearthdata.com","min_zoom":0.0,"id":760},"coordinates":[1609,232]},{"type":"MultiLineString","properties":{"source":"naturalearthdata.com","kind":"ocean","sort_rank":205,"boundary":true,"min_zoom":0.0,"id":19},"arcs":[[33],[34]]},{"type":"LineString","properties":{"source":"naturalearthdata.com","kind":"lake","sort_rank":367,"boundary":true,"min_zoom":0.0,"id":760},"arcs":[35]},{"type":"LineString","properties":{"source":"naturalearthdata.com","kind":"ocean","sort_rank":205,"boundary":true,"min_zoom":0.0,"id":1148},"arcs":[36]},{"type":"LineString","properties":{"source":"naturalearthdata.com","kind":"ocean","sort_rank":205,"boundary":true,"min_zoom":0.0,"id":1149},"arcs":[37]},{"type":"LineString","properties":{"source":"naturalearthdata.com","kind":"ocean","sort_rank":205,"boundary":true,"min_zoom":0.0,"id":1150},"arcs":[38]},{"type":"LineString","properties":{"source":"naturalearthdata.com","kind":"ocean","sort_rank":205,"boundary":true,"min_zoom":0.0,"id":1154},"arcs":[39]},{"type":"MultiLineString","properties":{"source":"naturalearthdata.com","kind":"ocean","sort_rank":205,"boundary":true,"min_zoom":0.0,"id":1158},"arcs":[[40],[41]]},{"type":"Point","properties":{"label_placement":true,"kind":"sea","name":"Wattenmeer der Nordsee","source":"openstreetmap.org","sort_rank":200,"min_zoom":3.0,"id":4805502333},"coordinates":[3665,997]}]},"buildings":{"type":"GeometryCollection","geometries":[]},"places":{"type":"GeometryCollection","geometries":[{"type":"Point","properties":{"kind":"region","name":"Groningen","kind_detail":"state","source":"openstreetmap.org","min_zoom":4.0,"name:es":"Groninga","name:ru":"\u0413\u0440\u043e\u043d\u0438\u043d\u0433\u0435\u043d","name:fy":"Grinsl\u00e2n","id":4289960494,"name:ca":"Prov\u00edncia de Groningen"},"coordinates":[3321,65]},{"type":"Point","properties":{"kind":"locality","name":"Delfzijl","kind_detail":"town","source":"openstreetmap.org","min_zoom":8.0,"name:ru":"\u0414\u0435\u043b\u0444\u0437\u0435\u0439\u043b","name:fy":"Delfsyl","id":48398676,"population":26033},"coordinates":[3753,9]},{"type":"Point","properties":{"kind":"locality","name":"Uithuizen","kind_detail":"town","source":"openstreetmap.org","min_zoom":8.0,"name:ru":"\u042d\u0439\u0442\u0445\u0451\u0439\u0437\u0435\u043d","id":48473773,"population":5500},"coordinates":[3053,377]}]},"transit":{"type":"GeometryCollection","geometries":[{"type":"MultiLineString","properties":{"osm_relation":true,"source":"openstreetmap.org","kind":"train","name":"Borkum-Inselbahn: Reede \u2192 Bahnhof","sort_rank":275,"min_zoom":6.0,"operator":"AG Ems Emden"},"arcs":[[12],[13],[14]]},{"type":"MultiLineString","properties":{"kind":"train","network":"Noordelijke Nevenlijnen","service":"regional","sort_rank":275,"source":"openstreetmap.org","min_zoom":6.0,"operator":"Arriva","ref":"37700","id":-5301762,"osm_relation":true,"name":"37700: Delfzijl - Groningen"},"arcs":[[15],[16]]},{"type":"LineString","properties":{"kind":"train","network":"Noordelijke Nevenlijnen","service":"regional","sort_rank":275,"source":"openstreetmap.org","min_zoom":6.0,"operator":"Arriva","ref":"37600","id":-5301751,"osm_relation":true,"name":"37600: Roodeschool - Groningen"},"arcs":[17]},{"type":"LineString","properties":{"source":"openstreetmap.org","kind":"train","sort_rank":275,"min_zoom":6.0,"osm_relation":true,"id":-7625505},"arcs":[18]},{"type":"MultiLineString","properties":{"kind":"train","network":"Noordelijke Nevenlijnen","service":"regional","sort_rank":275,"source":"openstreetmap.org","min_zoom":6.0,"operator":"Arriva","ref":"37700","id":-74068,"osm_relation":true,"name":"37700: Groningen - Delfzijl"},"arcs":[[19],[20]]},{"type":"MultiLineString","properties":{"osm_relation":true,"source":"openstreetmap.org","kind":"train","name":"Borkum-Inselbahn: Bahnhof \u2192 Reede","sort_rank":275,"min_zoom":6.0,"operator":"AG Ems Emden"},"arcs":[[21],[22],[23]]},{"type":"LineString","properties":{"kind":"train","network":"Noordelijke Nevenlijnen","service":"regional","sort_rank":275,"source":"openstreetmap.org","min_zoom":6.0,"operator":"Arriva","ref":"37600","id":-74069,"osm_relation":true,"name":"37600: Groningen - Roodeschool"},"arcs":[24]}]},"pois":{"type":"GeometryCollection","geometries":[{"type":"Point","properties":{"kind":"national_park","protect_class":"2","area":7733350000,"source":"openstreetmap.org","min_zoom":4.33,"tier":1,"id":-157811,"osm_relation":true,"name":"Nationalpark Nieders\u00e4chsisches Wattenmeer"},"coordinates":[3616,1431]},{"type":"Point","properties":{"kind":"national_park","protect_class":"2","area":171165000,"name:de":"Nationalpark Schiermonnikoog","source":"openstreetmap.org","min_zoom":7.08,"tier":1,"name:fy":"Nasjonaal Park Skierm\u00fbntskeach","id":76257263,"name":"Nationaal Park Schiermonnikoog"},"coordinates":[1825,734]},{"type":"Point","properties":{"kind":"national_park","protect_class":"2","area":165566000,"source":"openstreetmap.org","min_zoom":7.1,"tier":1,"name:fy":"Nasjonaal Park Lauwersmar","id":148271052,"name":"Nationaal Park Lauwersmeer"},"coordinates":[1678,172]},{"type":"Point","properties":{"source":"openstreetmap.org","kind":"nature_reserve","name":"Borkum Riffgrund","area":1874860000,"tier":2,"min_zoom":6.85,"id":528639633},"coordinates":[2415,2750]}]},"boundaries":{"type":"GeometryCollection","geometries":[{"type":"LineString","properties":{"name:kg":"Pays-Bas","name:ka":"\u10dc\u10d8\u10d3\u10d4\u10e0\u10da\u10d0\u10dc\u10d3\u10d8","name:ko":"\ub124\ub35c\ub780\ub4dc","name:cv":"\u041d\u0438\u0434\u0435\u0440\u043b\u0430\u043d\u0434\u0441\u0435\u043c","name:cu":"\u041d\u0438\u0434\u0454\u0440\u043b\u0430\u043d\u0434\ua651","name:kl":"Hollandi","name:cs":"Nizozemsko","name:tt":"\u041d\u0438\u0434\u0435\u0440\u043b\u0430\u043d\u0434\u043b\u0430\u0440","name:co":"Paesi Bassi","name:kv":"\u041d\u0438\u0434\u0435\u0440\u043b\u0430\u043d\u0434\u044a\u044f\u0441","name:ku":"Holenda","alt_name:cs":"Nizozem\u00ed","name:to":"Holani","name:tl":"Olanda","name:ce":"\u041d\u0438\u0434\u0435\u0440\u043b\u0430\u043d\u0434\u0430\u0448","name:ta":"\u0ba8\u0bc6\u0ba4\u0bb0\u0bcd\u0bb2\u0bbe\u0ba8\u0bcd\u0ba4\u0bc1","name:tg":"\u041d\u0438\u0434\u0435\u0440\u043b\u0430\u043d\u0434","name:ca":"Pa\u00efsos Baixos","name:te":"\u0c28\u0c46\u0c26\u0c30\u0c4d\u0c32\u0c3e\u0c02\u0c21\u0c4d","name:cy":"Yr Iseldiroedd","name:hr":"Nizozemska","name:da":"Holland","name:de":"Niederlande","name:dz":"\u0f53\u0f7a\u0f0b\u0f51\u0f62\u0f0b\u0f63\u0f7a\u0f53\u0f4c\u0f66\u0f72\u0f0b","source":"openstreetmap.org","name:kn":"\u0ca8\u0cc6\u0ca6\u0cb0\u0ccd\u200d\u0cb2\u0ccd\u0caf\u0cbe\u0c82\u0ca1\u0ccd\u0cb8\u0ccd","name:dv":"\u0782\u07ac\u078b\u07a6\u078d\u07ad\u0782\u07b0\u0791\u07aa","name:lv":"N\u012bderlande","name:lt":"Nyderlandai","name:uz":"Niderlandlar","name:kk":"\u041d\u0438\u0434\u0435\u0440\u043b\u0430\u043d\u0434","name:ur":"\u06c1\u0627\u0644\u06cc\u0646\u0688","name:lb":"Holland","name:la":"Nederlandia","name:uk":"\u041d\u0456\u0434\u0435\u0440\u043b\u0430\u043d\u0434\u0438","name:ug":"\u06af\u0648\u0644\u0644\u0627\u0646\u062f\u0649\u064a\u06d5","name:ln":"Holanda","name:el":"\u039a\u03ac\u03c4\u03c9 \u03a7\u03ce\u03c1\u03b5\u03c2","name:eo":"Nederlando","name:en":"The Netherlands","name":"Nederland","name:tk":"Niderlandlar","name:ee":"Netherlands","name:th":"\u0e1b\u0e23\u0e30\u0e40\u0e17\u0e28\u0e40\u0e19\u0e40\u0e18\u0e2d\u0e23\u0e4c\u0e41\u0e25\u0e19\u0e14\u0e4c","name:eu":"Herbehereak","name:et":"Holland","name:es":"Pa\u00edses Bajos","name:ay":"Aynacha Jach'a Markanaka","name:rm":"Pajais Bass","name:az":"Niderland","name:id":"Belanda","name:ar":"\u0647\u0648\u0644\u0646\u062f\u0627","name:io":"Nederlando","name:is":"Holland","name:am":"\u1206\u120b\u1295\u12f5","name:it":"Paesi Bassi","name:an":"Pa\u00edses Baixos","name:ru":"\u041d\u0438\u0434\u0435\u0440\u043b\u0430\u043d\u0434\u044b","name:rw":"Ubuholandi","name:zu":"Netherlands","kind_detail":"2","name:ky":"\u041d\u0438\u0434\u0435\u0440\u043b\u0430\u043d\u0434\u0442\u0430\u0440","name:zh-yue":"\u8377\u862d","old_name:cs":"Holandsko","name:zh":"\u8377\u862d","name:so":"Holland","name:sl":"Nizozemska","name:sk":"Holandsko","name:ja":"\u30aa\u30e9\u30f3\u30c0","name:si":"\u0db1\u0dd9\u0daf\u0dbb\u0dca\u0dbd\u0db1\u0dca\u0dad\u0dba","name:sh":"Holandija","name:se":"Vuolleeatnamat","name:sc":"Logos Bascios","name:sa":"\u0928\u0947\u0926\u0930\u0932\u0948\u0902\u0921\u094d\u0938","name:bs":"Holandija","name:bn":"\u09a8\u09c7\u09a6\u09be\u09b0\u09b2\u09cd\u09af\u09be\u09a8\u09cd\u09a1\u09b8","name:bo":"\u0f67\u0f7c\u0f0b\u0f63\u0f53\u0f0d","name:bi":"Netherlands","name:sw":"Uholanzi","name:be":"\u041d\u0456\u0434\u044d\u0440\u043b\u0430\u043d\u0434\u044b","name:su":"Walanda","name:bg":"\u041d\u0438\u0434\u0435\u0440\u043b\u0430\u043d\u0434\u0438\u044f","name:ss":"IDashi","name:ba":"\u041d\u0438\u0434\u0435\u0440\u043b\u0430\u043d\u0434\u0442\u0430\u0440","name:sq":"Holanda","name:jv":"Walanda","name:br":"Izelvroio\u00f9","name:ia":"Pais Basse","name:pt":"Pa\u00edses Baixos","name:ps":"\u0647\u0627\u0644\u0646\u0689","name:oc":"Pa\u00efses Basses","min_zoom":8.0,"name:ro":"\u021a\u0103rile de Jos","name:zh-min-nan":"H\u00f4-l\u00e2n-kok","name:os":"\u041d\u0438\u0434\u0435\u0440\u043b\u0430\u043d\u0434\u0442\u00e6","name:pl":"Kr\u00f3lestwo Niderland\u00f3w","name:st":"H\u00f4lan\u00ea","sort_rank":262,"name:sr":"\u0425\u043e\u043b\u0430\u043d\u0434\u0438\u0458\u0430","osm_relation":true,"name:xh":"ENetherlands","name:pa":"\u0a28\u0a40\u0a26\u0a30\u0a32\u0a48\u0a02\u0a21","name:tr":"Hollanda","name:hi":"\u0928\u0940\u0926\u0930\u0932\u0948\u0923\u094d\u0921","name:sv":"Nederl\u00e4nderna","name:he":"\u05d4\u05d5\u05dc\u05e0\u05d3","name:hy":"\u0546\u056b\u0564\u0565\u0580\u056c\u0561\u0576\u0564\u0576\u0565\u0580","name:ht":"Peyiba","name:hu":"Hollandia","name:qu":"Urasuyu","kind":"country","name:yi":"\u05d4\u05d0\u05dc\u05d0\u05e0\u05d3","name:yo":"N\u1eb9\u0301d\u00e1l\u00e1nd\u00ec","name:mt":"Pajji\u017ci l-Baxxi","name:ms":"Belanda","name:mr":"\u0928\u0947\u0926\u0930\u0932\u0901\u0921\u094d\u0938","name:my":"\u1014\u101a\u103a\u101e\u102c\u101c\u1014\u103a\u1014\u102d\u102f\u1004\u103a\u1004\u1036","official_name":"Koninkrijk der Nederlanden","name:kw":"Iseldiryow","name:ml":"\u0d28\u0d46\u0d24\u0d7c\u0d32\u0d28\u0d4d\u0d31\u0d4d\u0d38\u0d4d","name:vi":"H\u00e0 Lan","name:mn":"\u041d\u0438\u0434\u0435\u0440\u043b\u0430\u043d\u0434","name:mi":"H\u014drana","id":-2323309,"name:mk":"\u0425\u043e\u043b\u0430\u043d\u0434\u0438\u0458\u0430","name:vo":"Ned\u00e4n","name:fa":"\u0647\u0644\u0646\u062f","name:ff":"Holannda","name:fi":"Alankomaat","name:fo":"Ni\u00f0urlond","name:fr":"Pays-Bas","name:fy":"Nederl\u00e2n","name:na":"Eben Eyong","name:ne":"\u0928\u0947\u0926\u0930\u0932\u094d\u092f\u093e\u0923\u094d\u0921\u094d\u0938","name:wa":"Bas Payis","name:wo":"Olaand","name:nv":"K\u00e9yah W\u00f3yahgo Si\u02bc\u00e1n\u00edg\u00ed\u00ed","name:ga":"An \u00cdsilt\u00edr","name:gd":"Na T\u00ecrean \u00ccsle","name:gn":"Holanda","name:gl":"Pa\u00edses Baixos","name:gv":"Yn \u00c7heer Injil","name:gu":"\u0aa8\u0ac7\u0aa7\u0ab0\u0ab2\u0ac7\u0a82\u0aa1"},"arcs":[0]},{"type":"LineString","properties":{"name:kg":"Pays-Bas","name:ka":"\u10dc\u10d8\u10d3\u10d4\u10e0\u10da\u10d0\u10dc\u10d3\u10d8","name:ko":"\ub124\ub35c\ub780\ub4dc","name:cv":"\u041d\u0438\u0434\u0435\u0440\u043b\u0430\u043d\u0434\u0441\u0435\u043c","name:cu":"\u041d\u0438\u0434\u0454\u0440\u043b\u0430\u043d\u0434\ua651","name:kl":"Hollandi","name:cs":"Nizozemsko","name:tt":"\u041d\u0438\u0434\u0435\u0440\u043b\u0430\u043d\u0434\u043b\u0430\u0440","name:co":"Paesi Bassi","name:kv":"\u041d\u0438\u0434\u0435\u0440\u043b\u0430\u043d\u0434\u044a\u044f\u0441","name:ku":"Holenda","alt_name:cs":"Nizozem\u00ed","name:to":"Holani","name:tl":"Olanda","name:ce":"\u041d\u0438\u0434\u0435\u0440\u043b\u0430\u043d\u0434\u0430\u0448","name:ta":"\u0ba8\u0bc6\u0ba4\u0bb0\u0bcd\u0bb2\u0bbe\u0ba8\u0bcd\u0ba4\u0bc1","name:tg":"\u041d\u0438\u0434\u0435\u0440\u043b\u0430\u043d\u0434","name:ca":"Pa\u00efsos Baixos","name:te":"\u0c28\u0c46\u0c26\u0c30\u0c4d\u0c32\u0c3e\u0c02\u0c21\u0c4d","name:cy":"Yr Iseldiroedd","name:qu":"Urasuyu","name:da":"Holland","name:de":"Niederlande","name:dz":"\u0f53\u0f7a\u0f0b\u0f51\u0f62\u0f0b\u0f63\u0f7a\u0f53\u0f4c\u0f66\u0f72\u0f0b","source":"openstreetmap.org","name:kn":"\u0ca8\u0cc6\u0ca6\u0cb0\u0ccd\u200d\u0cb2\u0ccd\u0caf\u0cbe\u0c82\u0ca1\u0ccd\u0cb8\u0ccd","name:dv":"\u0782\u07ac\u078b\u07a6\u078d\u07ad\u0782\u07b0\u0791\u07aa","name:lv":"N\u012bderlande","name:lt":"Nyderlandai","name:uz":"Niderlandlar","name:kk":"\u041d\u0438\u0434\u0435\u0440\u043b\u0430\u043d\u0434","name:ur":"\u06c1\u0627\u0644\u06cc\u0646\u0688","name:lb":"Holland","name:la":"Nederlandia","name:uk":"\u041d\u0456\u0434\u0435\u0440\u043b\u0430\u043d\u0434\u0438","name:ug":"\u06af\u0648\u0644\u0644\u0627\u0646\u062f\u0649\u064a\u06d5","name:ln":"Holanda","name:el":"\u039a\u03ac\u03c4\u03c9 \u03a7\u03ce\u03c1\u03b5\u03c2","name:eo":"Nederlando","name:en":"The Netherlands","name":"Nederland","name:tk":"Niderlandlar","name:ee":"Netherlands","name:th":"\u0e1b\u0e23\u0e30\u0e40\u0e17\u0e28\u0e40\u0e19\u0e40\u0e18\u0e2d\u0e23\u0e4c\u0e41\u0e25\u0e19\u0e14\u0e4c","name:eu":"Herbehereak","name:et":"Holland","name:es":"Pa\u00edses Bajos","name:ay":"Aynacha Jach'a Markanaka","name:rm":"Pajais Bass","name:az":"Niderland","name:id":"Belanda","name:ar":"\u0647\u0648\u0644\u0646\u062f\u0627","name:io":"Nederlando","name:is":"Holland","name:am":"\u1206\u120b\u1295\u12f5","name:it":"Paesi Bassi","name:an":"Pa\u00edses Baixos","name:ru":"\u041d\u0438\u0434\u0435\u0440\u043b\u0430\u043d\u0434\u044b","name:rw":"Ubuholandi","name:zu":"Netherlands","kind_detail":"2","name:ky":"\u041d\u0438\u0434\u0435\u0440\u043b\u0430\u043d\u0434\u0442\u0430\u0440","name:zh-yue":"\u8377\u862d","old_name:cs":"Holandsko","name:zh":"\u8377\u862d","name:so":"Holland","name:sl":"Nizozemska","name:sk":"Holandsko","name:ja":"\u30aa\u30e9\u30f3\u30c0","name:si":"\u0db1\u0dd9\u0daf\u0dbb\u0dca\u0dbd\u0db1\u0dca\u0dad\u0dba","name:sh":"Holandija","name:se":"Vuolleeatnamat","name:sc":"Logos Bascios","name:sa":"\u0928\u0947\u0926\u0930\u0932\u0948\u0902\u0921\u094d\u0938","name:bs":"Holandija","name:bn":"\u09a8\u09c7\u09a6\u09be\u09b0\u09b2\u09cd\u09af\u09be\u09a8\u09cd\u09a1\u09b8","name:bo":"\u0f67\u0f7c\u0f0b\u0f63\u0f53\u0f0d","name:bi":"Netherlands","name:sw":"Uholanzi","name:be":"\u041d\u0456\u0434\u044d\u0440\u043b\u0430\u043d\u0434\u044b","name:su":"Walanda","name:bg":"\u041d\u0438\u0434\u0435\u0440\u043b\u0430\u043d\u0434\u0438\u044f","name:ss":"IDashi","name:ba":"\u041d\u0438\u0434\u0435\u0440\u043b\u0430\u043d\u0434\u0442\u0430\u0440","name:sq":"Holanda","name:jv":"Walanda","name:br":"Izelvroio\u00f9","name:ia":"Pais Basse","name:pt":"Pa\u00edses Baixos","name:ps":"\u0647\u0627\u0644\u0646\u0689","name:oc":"Pa\u00efses Basses","min_zoom":8.0,"name:ro":"\u021a\u0103rile de Jos","name:zh-min-nan":"H\u00f4-l\u00e2n-kok","name:os":"\u041d\u0438\u0434\u0435\u0440\u043b\u0430\u043d\u0434\u0442\u00e6","name:pl":"Kr\u00f3lestwo Niderland\u00f3w","name:st":"H\u00f4lan\u00ea","sort_rank":262,"name:sr":"\u0425\u043e\u043b\u0430\u043d\u0434\u0438\u0458\u0430","osm_relation":true,"name:xh":"ENetherlands","name:pa":"\u0a28\u0a40\u0a26\u0a30\u0a32\u0a48\u0a02\u0a21","name:tr":"Hollanda","name:hi":"\u0928\u0940\u0926\u0930\u0932\u0948\u0923\u094d\u0921","name:sv":"Nederl\u00e4nderna","name:he":"\u05d4\u05d5\u05dc\u05e0\u05d3","name:hy":"\u0546\u056b\u0564\u0565\u0580\u056c\u0561\u0576\u0564\u0576\u0565\u0580","name:ht":"Peyiba","name:hu":"Hollandia","name:hr":"Nizozemska","kind":"country","name:yi":"\u05d4\u05d0\u05dc\u05d0\u05e0\u05d3","name:yo":"N\u1eb9\u0301d\u00e1l\u00e1nd\u00ec","name:mt":"Pajji\u017ci l-Baxxi","name:ms":"Belanda","name:mr":"\u0928\u0947\u0926\u0930\u0932\u0901\u0921\u094d\u0938","name:my":"\u1014\u101a\u103a\u101e\u102c\u101c\u1014\u103a\u1014\u102d\u102f\u1004\u103a\u1004\u1036","official_name":"Koninkrijk der Nederlanden","name:kw":"Iseldiryow","name:vi":"H\u00e0 Lan","name:ml":"\u0d28\u0d46\u0d24\u0d7c\u0d32\u0d28\u0d4d\u0d31\u0d4d\u0d38\u0d4d","name:mn":"\u041d\u0438\u0434\u0435\u0440\u043b\u0430\u043d\u0434","name:mi":"H\u014drana","id":-2323309,"name:mk":"\u0425\u043e\u043b\u0430\u043d\u0434\u0438\u0458\u0430","name:vo":"Ned\u00e4n","name:fa":"\u0647\u0644\u0646\u062f","name:ff":"Holannda","name:fi":"Alankomaat","name:fo":"Ni\u00f0urlond","name:fr":"Pays-Bas","name:fy":"Nederl\u00e2n","name:na":"Eben Eyong","name:ne":"\u0928\u0947\u0926\u0930\u0932\u094d\u092f\u093e\u0923\u094d\u0921\u094d\u0938","name:wa":"Bas Payis","name:wo":"Olaand","name:nv":"K\u00e9yah W\u00f3yahgo Si\u02bc\u00e1n\u00edg\u00ed\u00ed","name:ga":"An \u00cdsilt\u00edr","name:gd":"Na T\u00ecrean \u00ccsle","name:gn":"Holanda","name:gl":"Pa\u00edses Baixos","maritime_boundary":true,"name:gv":"Yn \u00c7heer Injil","name:gu":"\u0aa8\u0ac7\u0aa7\u0ab0\u0ab2\u0ac7\u0a82\u0aa1"},"arcs":[1]},{"type":"MultiLineString","properties":{"name:kg":"Alemanyi","name:ty":"Heremani","name:ka":"\u10d2\u10d4\u10e0\u10db\u10d0\u10dc\u10d8\u10d0","name:ko":"\ub3c5\uc77c","name:cv":"\u0413\u0435\u0440\u043c\u0430\u043d\u0438","name:cu":"\u041d\u0463\u043c\u044c\u0446\u0438","name:kl":"Tyskit Nunaat","name:cs":"N\u011bmecko","name:tw":"Gyaaman","name:ki":"Germany","name:co":"Germania","name:kv":"\u0413\u0435\u0440\u043c\u0430\u043d\u0438\u044f","name:th":"\u0e1b\u0e23\u0e30\u0e40\u0e17\u0e28\u0e40\u0e22\u0e2d\u0e23\u0e21\u0e19\u0e35","name:ti":"\u1300\u122d\u1218\u1295","name:tl":"Alemanya","name:ce":"\u0413\u0435\u0440\u043c\u0430\u043d\u0438","name:ta":"\u0b9a\u0bc6\u0bb0\u0bc1\u0bae\u0ba9\u0bbf","name:tg":"\u041e\u043b\u043c\u043e\u043d","name:ca":"Alemanya","name:te":"\u0c1c\u0c30\u0c4d\u0c2e\u0c28\u0c40","name:cy":"Yr Almaen","name:hr":"Njema\u010dka","name:da":"Tyskland","name:dz":"\u0f47\u0f71\u0f62\u0f0b\u0f58\u0f0b\u0f53\u0f72","source":"openstreetmap.org","name:kn":"\u0c9c\u0cb0\u0ccd\u0cae\u0ca8\u0cbf","name:dv":"\u0796\u07a6\u0783\u07aa\u0789\u07a6\u0782\u07aa\u0788\u07a8\u078d\u07a7\u078c\u07b0","name:km":"\u17a2\u17b6\u179b\u17d2\u179b\u17ba\u1798\u17c9\u1784\u17cb","name:lv":"V\u0101cija","name:lt":"Vokietija","name:uz":"Olmoniya","name:kk":"\u0413\u0435\u0440\u043c\u0430\u043d\u0438\u044f \u0424\u0435\u0434\u0435\u0440\u0430\u0442\u0438\u0432\u0442\u0456\u043a \u0420\u0435\u0441\u043f\u0443\u0431\u043b\u0438\u043a\u0430\u0441\u044b","name:ur":"\u062c\u0631\u0645\u0646\u06cc","name:lb":"D\u00e4itschland","name:la":"Germania","name:lg":"Girimane","name:uk":"\u041d\u0456\u043c\u0435\u0447\u0447\u0438\u043d\u0430","name:ug":"\u06af\u06d0\u0631\u0645\u0627\u0646\u0649\u064a\u06d5","name:li":"Duutsjlandj","name:ln":"Al\u00e9mani","name:lo":"\u0e9b\u0eb0\u0ec0\u0e97\u0e94\u0ec0\u0ea2\u0eb1\u0ebd\u0ea5\u0eb0\u0ea1\u0eb1\u0e99","name:el":"\u0393\u03b5\u03c1\u03bc\u03b1\u03bd\u03af\u03b1","name:eo":"Germanujo","name:en":"Germany","name":"Deutschland","name:tk":"Germani\u00fda","name:ee":"Germany","name:ku":"Almanya","name:eu":"Alemania","name:et":"Saksamaa","name:es":"Alemania","name:ay":"Alima\u00f1a","name:rm":"Germania","name:rn":"Ubudagi","name:az":"Almaniya","name:ie":"Germania","name:id":"Jerman","name:ig":"J\u00e9man\u1ecb","name:ar":"\u0623\u0644\u0645\u0627\u0646\u064a\u0627","name:io":"Germania","name:av":"\u0410\u043b\u043c\u0430\u043d\u0438\u044f","name:ak":"Germany","name:am":"\u1300\u122d\u1218\u1295","name:it":"Germania","name:an":"Alemanya","name:ru":"\u0413\u0435\u0440\u043c\u0430\u043d\u0438\u044f","name:ab":"\u0410\u043b\u043c\u0430\u043d\u0442\u04d9\u044b\u043b\u0430","name:af":"Duitsland","name:zu":"IJalimani","kind_detail":"2","name:za":"Dwzgoz","name:zh-yue":"\u5fb7\u570b","name:zh":"\u5fb7\u56fd","name:so":"Jarmalka","name:sm":"Siamani","name:sl":"Nem\u010dija","name:sk":"Nemecko","name:ja":"\u30c9\u30a4\u30c4","name:si":"\u0da2\u0dbb\u0dca\u0db8\u0db1\u0dd2\u0dba","name:sh":"Nema\u010dka","name:se":"Duiska","name:sc":"Germ\u00e0nia","name:br":"Alamagn","name:bs":"Njema\u010dka","name:bm":"Jermani","name:bn":"\u099c\u09be\u09b0\u09cd\u09ae\u09be\u09a8\u09bf","name:bo":"\u0f60\u0f47\u0f62\u0f0b\u0f58\u0f53\u0f0d","name:bi":"Germany","name:sw":"Ujerumani","name:be":"\u0413\u0435\u0440\u043c\u0430\u043d\u0456\u044f","name:su":"J\u00e9rman","name:bg":"\u0413\u0435\u0440\u043c\u0430\u043d\u0438\u044f","name:ss":"IJalimane","name:ba":"\u0413\u0435\u0440\u043c\u0430\u043d\u0438\u044f","name:sq":"Gjermania","name:jv":"Jerman","name:sa":"\u091c\u0930\u094d\u092e\u0928\u0940","name:ia":"Germania","name:pt":"Alemanha","name:ps":"\u0622\u0644\u0645\u0627\u0646","name:oc":"Alemanha","min_zoom":8.0,"name:ro":"Germania","name:zh-min-nan":"Tek-kok","name:os":"\u0413\u0435\u0440\u043c\u0430\u043d","name:or":"\u0b1c\u0b30\u0b4d\u0b2e\u0b3e\u0b28\u0b40","name:pl":"Niemcy","sort_rank":262,"name:sr":"\u041d\u0435\u043c\u0430\u0447\u043a\u0430","osm_relation":true,"name:xh":"IJamani","name:pa":"\u0a1c\u0a30\u0a2e\u0a28\u0a40","name:tr":"Almanya","name:hi":"\u091c\u0930\u094d\u092e\u0928\u0940","name:sv":"Tyskland","name:he":"\u05d2\u05e8\u05de\u05e0\u05d9\u05d4","name:ha":"Jamus","name:hy":"\u0533\u0565\u0580\u0574\u0561\u0576\u056b\u0561","name:ht":"Almay","name:hu":"N\u00e9metorsz\u00e1g","name:qu":"Alimanya","kind":"country","name:ts":"Jarimani","name:is":"\u00de\u00fdskaland","name:yi":"\u05d3\u05d9\u05d9\u05d8\u05e9\u05dc\u05d0\u05e0\u05d3","name:iu":"\u152e\u14aa\u14c2","name:yo":"J\u1eb9\u0301m\u00e1n\u00ec","name:mt":"\u0120ermanja","alt_name:eo":"Germanio","name:ms":"Jerman","name:mr":"\u091c\u0930\u094d\u092e\u0928\u0940","name:my":"\u1002\u103b\u102c\u1019\u1014\u102e\u1014\u102d\u102f\u1004\u103a\u1004\u1036","official_name":"Bundesrepublik Deutschland","name:kw":"Almayn","name:mg":"Alemaina","name:ml":"\u0d1c\u0d7c\u0d2e\u0d4d\u0d2e\u0d28\u0d3f","name:vi":"\u0110\u1ee9c","name:mn":"\u0413\u0435\u0440\u043c\u0430\u043d","name:mi":"Tiamana","id":-51477,"name:mk":"\u0413\u0435\u0440\u043c\u0430\u043d\u0438\u0458\u0430","name:vo":"Deut\u00e4n","name:fa":"\u0622\u0644\u0645\u0627\u0646","name:rw":"Ubudage","name:ff":"Almaanya","name:fi":"Saksa","name:ky":"\u0413\u0435\u0440\u043c\u0430\u043d\u0438\u044f","name:fo":"T\u00fdskland","name:fr":"Allemagne","name:fy":"D\u00fatsl\u00e2n","int_name":"Germany","name:nl":"Duitsland","name:nn":"Tyskland","name:no":"Tyskland","name:na":"Djermani","name:ne":"\u091c\u0930\u094d\u092e\u0928\u0940","name:wa":"Almagne","name:wo":"Almaa\u00f1","name:nv":"B\u00e9\u00e9sh Bich\u02bcahii Bik\u00e9yah","name:ga":"An Ghearm\u00e1in","name:gd":"A' Ghearmailt","name:gn":"Alema\u00f1a","name:gl":"Alema\u00f1a","name:gv":"Yn Ghermaan","name:gu":"\u0a9c\u0ab0\u0acd\u0aae\u0aa8\u0ac0","name:tt":"\u0410\u043b\u043c\u0430\u043d\u0438\u044f"},"arcs":[[2],[3]]},{"type":"MultiLineString","properties":{"name:kg":"Alemanyi","name:ty":"Heremani","name:ka":"\u10d2\u10d4\u10e0\u10db\u10d0\u10dc\u10d8\u10d0","name:ko":"\ub3c5\uc77c","name:cv":"\u0413\u0435\u0440\u043c\u0430\u043d\u0438","name:cu":"\u041d\u0463\u043c\u044c\u0446\u0438","name:kl":"Tyskit Nunaat","name:cs":"N\u011bmecko","name:tw":"Gyaaman","name:ki":"Germany","name:co":"Germania","name:kv":"\u0413\u0435\u0440\u043c\u0430\u043d\u0438\u044f","name:th":"\u0e1b\u0e23\u0e30\u0e40\u0e17\u0e28\u0e40\u0e22\u0e2d\u0e23\u0e21\u0e19\u0e35","name:ti":"\u1300\u122d\u1218\u1295","name:tl":"Alemanya","name:ce":"\u0413\u0435\u0440\u043c\u0430\u043d\u0438","name:ta":"\u0b9a\u0bc6\u0bb0\u0bc1\u0bae\u0ba9\u0bbf","name:tg":"\u041e\u043b\u043c\u043e\u043d","name:ca":"Alemanya","name:te":"\u0c1c\u0c30\u0c4d\u0c2e\u0c28\u0c40","name:cy":"Yr Almaen","name:qu":"Alimanya","name:da":"Tyskland","name:dz":"\u0f47\u0f71\u0f62\u0f0b\u0f58\u0f0b\u0f53\u0f72","source":"openstreetmap.org","name:kn":"\u0c9c\u0cb0\u0ccd\u0cae\u0ca8\u0cbf","name:dv":"\u0796\u07a6\u0783\u07aa\u0789\u07a6\u0782\u07aa\u0788\u07a8\u078d\u07a7\u078c\u07b0","name:km":"\u17a2\u17b6\u179b\u17d2\u179b\u17ba\u1798\u17c9\u1784\u17cb","name:lv":"V\u0101cija","name:lt":"Vokietija","name:uz":"Olmoniya","name:kk":"\u0413\u0435\u0440\u043c\u0430\u043d\u0438\u044f \u0424\u0435\u0434\u0435\u0440\u0430\u0442\u0438\u0432\u0442\u0456\u043a \u0420\u0435\u0441\u043f\u0443\u0431\u043b\u0438\u043a\u0430\u0441\u044b","name:ur":"\u062c\u0631\u0645\u0646\u06cc","name:lb":"D\u00e4itschland","name:la":"Germania","name:lg":"Girimane","name:uk":"\u041d\u0456\u043c\u0435\u0447\u0447\u0438\u043d\u0430","name:ug":"\u06af\u06d0\u0631\u0645\u0627\u0646\u0649\u064a\u06d5","name:li":"Duutsjlandj","name:ln":"Al\u00e9mani","name:lo":"\u0e9b\u0eb0\u0ec0\u0e97\u0e94\u0ec0\u0ea2\u0eb1\u0ebd\u0ea5\u0eb0\u0ea1\u0eb1\u0e99","name:el":"\u0393\u03b5\u03c1\u03bc\u03b1\u03bd\u03af\u03b1","name:eo":"Germanujo","name:en":"Germany","name":"Deutschland","name:tk":"Germani\u00fda","name:ee":"Germany","name:ku":"Almanya","name:eu":"Alemania","name:et":"Saksamaa","name:es":"Alemania","name:ay":"Alima\u00f1a","name:rm":"Germania","name:rn":"Ubudagi","name:az":"Almaniya","name:ie":"Germania","name:id":"Jerman","name:ig":"J\u00e9man\u1ecb","name:ar":"\u0623\u0644\u0645\u0627\u0646\u064a\u0627","name:io":"Germania","name:av":"\u0410\u043b\u043c\u0430\u043d\u0438\u044f","name:ak":"Germany","name:am":"\u1300\u122d\u1218\u1295","name:it":"Germania","name:an":"Alemanya","name:ru":"\u0413\u0435\u0440\u043c\u0430\u043d\u0438\u044f","name:ab":"\u0410\u043b\u043c\u0430\u043d\u0442\u04d9\u044b\u043b\u0430","name:af":"Duitsland","name:zu":"IJalimani","kind_detail":"2","name:za":"Dwzgoz","name:zh-yue":"\u5fb7\u570b","name:zh":"\u5fb7\u56fd","name:so":"Jarmalka","name:sm":"Siamani","name:sl":"Nem\u010dija","name:sk":"Nemecko","name:ja":"\u30c9\u30a4\u30c4","name:si":"\u0da2\u0dbb\u0dca\u0db8\u0db1\u0dd2\u0dba","name:sh":"Nema\u010dka","name:se":"Duiska","name:sc":"Germ\u00e0nia","name:br":"Alamagn","name:bs":"Njema\u010dka","name:bm":"Jermani","name:bn":"\u099c\u09be\u09b0\u09cd\u09ae\u09be\u09a8\u09bf","name:bo":"\u0f60\u0f47\u0f62\u0f0b\u0f58\u0f53\u0f0d","name:bi":"Germany","name:sw":"Ujerumani","name:be":"\u0413\u0435\u0440\u043c\u0430\u043d\u0456\u044f","name:su":"J\u00e9rman","name:bg":"\u0413\u0435\u0440\u043c\u0430\u043d\u0438\u044f","name:ss":"IJalimane","name:ba":"\u0413\u0435\u0440\u043c\u0430\u043d\u0438\u044f","name:sq":"Gjermania","name:jv":"Jerman","name:sa":"\u091c\u0930\u094d\u092e\u0928\u0940","name:ia":"Germania","name:pt":"Alemanha","name:ps":"\u0622\u0644\u0645\u0627\u0646","name:oc":"Alemanha","min_zoom":8.0,"name:ro":"Germania","name:zh-min-nan":"Tek-kok","name:os":"\u0413\u0435\u0440\u043c\u0430\u043d","name:or":"\u0b1c\u0b30\u0b4d\u0b2e\u0b3e\u0b28\u0b40","name:pl":"Niemcy","sort_rank":262,"name:sr":"\u041d\u0435\u043c\u0430\u0447\u043a\u0430","osm_relation":true,"name:xh":"IJamani","name:pa":"\u0a1c\u0a30\u0a2e\u0a28\u0a40","name:tr":"Almanya","name:hi":"\u091c\u0930\u094d\u092e\u0928\u0940","name:sv":"Tyskland","name:he":"\u05d2\u05e8\u05de\u05e0\u05d9\u05d4","name:ha":"Jamus","name:hy":"\u0533\u0565\u0580\u0574\u0561\u0576\u056b\u0561","name:ht":"Almay","name:hu":"N\u00e9metorsz\u00e1g","name:hr":"Njema\u010dka","kind":"country","name:ts":"Jarimani","name:is":"\u00de\u00fdskaland","name:yi":"\u05d3\u05d9\u05d9\u05d8\u05e9\u05dc\u05d0\u05e0\u05d3","name:iu":"\u152e\u14aa\u14c2","name:yo":"J\u1eb9\u0301m\u00e1n\u00ec","name:mt":"\u0120ermanja","alt_name:eo":"Germanio","name:ms":"Jerman","name:mr":"\u091c\u0930\u094d\u092e\u0928\u0940","name:my":"\u1002\u103b\u102c\u1019\u1014\u102e\u1014\u102d\u102f\u1004\u103a\u1004\u1036","official_name":"Bundesrepublik Deutschland","name:kw":"Almayn","name:mg":"Alemaina","name:vi":"\u0110\u1ee9c","name:ml":"\u0d1c\u0d7c\u0d2e\u0d4d\u0d2e\u0d28\u0d3f","name:mn":"\u0413\u0435\u0440\u043c\u0430\u043d","name:mi":"Tiamana","id":-51477,"name:mk":"\u0413\u0435\u0440\u043c\u0430\u043d\u0438\u0458\u0430","name:vo":"Deut\u00e4n","name:fa":"\u0622\u0644\u0645\u0627\u0646","name:rw":"Ubudage","name:ff":"Almaanya","name:fi":"Saksa","name:ky":"\u0413\u0435\u0440\u043c\u0430\u043d\u0438\u044f","name:fo":"T\u00fdskland","name:fr":"Allemagne","name:fy":"D\u00fatsl\u00e2n","int_name":"Germany","name:nl":"Duitsland","name:nn":"Tyskland","name:no":"Tyskland","name:na":"Djermani","name:ne":"\u091c\u0930\u094d\u092e\u0928\u0940","name:wa":"Almagne","name:wo":"Almaa\u00f1","name:nv":"B\u00e9\u00e9sh Bich\u02bcahii Bik\u00e9yah","name:ga":"An Ghearm\u00e1in","name:gd":"A' Ghearmailt","name:gn":"Alema\u00f1a","name:gl":"Alema\u00f1a","maritime_boundary":true,"name:gv":"Yn Ghermaan","name:gu":"\u0a9c\u0ab0\u0acd\u0aae\u0aa8\u0ac0","name:tt":"\u0410\u043b\u043c\u0430\u043d\u0438\u044f"},"arcs":[[4],[5]]},{"type":"MultiLineString","properties":{"name:ia":"Basse Saxonia","name:pt":"Baixa Sax\u00f3nia","name:ar":"\u0633\u0643\u0633\u0648\u0646\u064a\u0627 \u0627\u0644\u0633\u0641\u0644\u0649","name:cs":"Doln\u00ed Sasko","name:io":"Infra-Saxonia","min_zoom":8.0,"name:ru":"\u041d\u0438\u0436\u043d\u044f\u044f \u0421\u0430\u043a\u0441\u043e\u043d\u0438\u044f","name:pl":"Dolna Saksonia","id":-62771,"name:ca":"Baixa Sax\u00f2nia","name:vo":"Dona-Sax\u00e4n","sort_rank":256,"kind_detail":"4","source":"openstreetmap.org","name:fr":"Basse-Saxe","name:fy":"Nedersaksen","name:zh":"\u4e0b\u8428\u514b\u68ee","name:sl":"Spodnja Sa\u0161ka","name:lv":"Lejassaksija","name:lt":"\u017demutin\u0117 Saksonija","kind":"region","name:la":"Saxonia Inferior","name:sk":"Doln\u00e9 Sasko","name:uk":"\u041d\u0438\u0436\u043d\u044f \u0421\u0430\u043a\u0441\u043e\u043d\u0456\u044f","name:hu":"Als\u00f3-Sz\u00e1szorsz\u00e1g","name:hr":"Donja Saska","name:sr":"\u0414\u043e\u045a\u0430 \u0421\u0430\u043a\u0441\u043e\u043d\u0438\u0458\u0430","osm_relation":true,"name:eo":"Malsupra Saksujo","name:en":"Lower Saxony","name":"Niedersachsen","name:nl":"Nedersaksen","name:es":"Baja Sajonia"},"arcs":[[6],[7]]},{"type":"MultiLineString","properties":{"name:ia":"Basse Saxonia","name:pt":"Baixa Sax\u00f3nia","name:ar":"\u0633\u0643\u0633\u0648\u0646\u064a\u0627 \u0627\u0644\u0633\u0641\u0644\u0649","name:cs":"Doln\u00ed Sasko","name:io":"Infra-Saxonia","min_zoom":8.0,"name:ru":"\u041d\u0438\u0436\u043d\u044f\u044f \u0421\u0430\u043a\u0441\u043e\u043d\u0438\u044f","name:pl":"Dolna Saksonia","id":-62771,"name:ca":"Baixa Sax\u00f2nia","name:vo":"Dona-Sax\u00e4n","sort_rank":256,"kind_detail":"4","source":"openstreetmap.org","name:fr":"Basse-Saxe","name:fy":"Nedersaksen","name:zh":"\u4e0b\u8428\u514b\u68ee","name:sl":"Spodnja Sa\u0161ka","name:lv":"Lejassaksija","name:lt":"\u017demutin\u0117 Saksonija","name:eo":"Malsupra Saksujo","name:la":"Saxonia Inferior","name:sk":"Doln\u00e9 Sasko","name:uk":"\u041d\u0438\u0436\u043d\u044f \u0421\u0430\u043a\u0441\u043e\u043d\u0456\u044f","name:hu":"Als\u00f3-Sz\u00e1szorsz\u00e1g","name:hr":"Donja Saska","name:sr":"\u0414\u043e\u045a\u0430 \u0421\u0430\u043a\u0441\u043e\u043d\u0438\u0458\u0430","osm_relation":true,"kind":"region","name:en":"Lower Saxony","name":"Niedersachsen","maritime_boundary":true,"name:nl":"Nedersaksen","name:es":"Baja Sajonia"},"arcs":[[8],[9]]},{"type":"LineString","properties":{"name:ar":"\u0641\u0631\u064a\u0632\u0644\u0646\u062f","official_name":"Frysl\u00e2n","min_zoom":8.0,"old_name:en":"Frisia","name:ru":"\u0424\u0440\u0438\u0441\u043b\u0430\u043d\u0434\u0438\u044f","id":-47381,"osm_relation":true,"kind":"region","name":"Friesland","sort_rank":256,"kind_detail":"4","source":"openstreetmap.org","name:fr":"Frise","name:ca":"Fr\u00edsia","name:fy":"Frysl\u00e2n","name:es":"Frisia"},"arcs":[10]},{"type":"LineString","properties":{"name:ar":"\u0641\u0631\u064a\u0632\u0644\u0646\u062f","official_name":"Frysl\u00e2n","min_zoom":8.0,"old_name:en":"Frisia","name:ru":"\u0424\u0440\u0438\u0441\u043b\u0430\u043d\u0434\u0438\u044f","id":-47381,"osm_relation":true,"kind":"region","name":"Friesland","sort_rank":256,"kind_detail":"4","name:fr":"Frise","source":"openstreetmap.org","maritime_boundary":true,"name:ca":"Fr\u00edsia","name:fy":"Frysl\u00e2n","name:es":"Frisia"},"arcs":[11]}]},"roads":{"type":"GeometryCollection","geometries":[{"type":"LineString","properties":{"bus_network":"Noord- en Zuidwest-Frysl\u00e2n en Schiermonnikoog","name:nl":"Leeuwarderweg","sort_rank":380,"kind_detail":"primary","kind":"major_road","source":"openstreetmap.org","min_zoom":8.0,"bus_shield_text":"54"},"arcs":[42]},{"type":"MultiLineString","properties":{"bus_network":"Noord- en Zuidwest-Frysl\u00e2n en Schiermonnikoog","sort_rank":380,"kind_detail":"primary","kind":"major_road","source":"openstreetmap.org","min_zoom":8.0,"bus_shield_text":"63","ref":"N358"},"arcs":[[43],[44],[45]]},{"type":"MultiLineString","properties":{"kind":"ferry","name":"Eemshaven-Borkum","sort_rank":355,"is_bicycle_related":true,"source":"openstreetmap.org","min_zoom":8.0,"ref":"Eemshaven - Borkum","id":403185149},"arcs":[[46],[47],[48]]},{"type":"MultiLineString","properties":{"source":"openstreetmap.org","bus_network":"Noord- en Zuidwest-Frysl\u00e2n en Schiermonnikoog","bus_shield_text":"63","sort_rank":380,"kind_detail":"primary","min_zoom":8.0,"kind":"major_road"},"arcs":[[49],[50],[51]]},{"type":"MultiLineString","properties":{"kind":"ferry","name":"Delfzijl-Knock-Borkum","sort_rank":355,"is_bicycle_related":true,"source":"openstreetmap.org","min_zoom":8.0,"id":-1648288,"osm_relation":true},"arcs":[[52],[53],[54],[55]]},{"type":"MultiLineString","properties":{"bus_network":"Noord- en Zuidwest-Frysl\u00e2n en Schiermonnikoog","sort_rank":380,"kind_detail":"primary","kind":"major_road","source":"openstreetmap.org","min_zoom":8.0,"bus_shield_text":"60","ref":"N356"},"arcs":[[56],[57]]},{"type":"MultiLineString","properties":{"kind":"ferry","name":"Emden - Borkum (120 min)","sort_rank":355,"landuse_kind":"protected_area","source":"openstreetmap.org","min_zoom":8.0,"ref":"Emden - Borkum - 120","id":-6050545,"osm_relation":true},"arcs":[[58],[59],[60]]},{"type":"MultiLineString","properties":{"bus_network":"Noord- en Zuidwest-Frysl\u00e2n en Schiermonnikoog","sort_rank":380,"kind_detail":"primary","kind":"major_road","source":"openstreetmap.org","min_zoom":8.0,"bus_shield_text":"66","ref":"N356"},"arcs":[[61],[62]]},{"type":"MultiLineString","properties":{"sort_rank":380,"kind_detail":"primary","min_zoom":8.0,"kind":"major_road","source":"openstreetmap.org"},"arcs":[[63],[64],[65],[66],[67],[68],[69],[70],[71]]},{"type":"MultiLineString","properties":{"source":"openstreetmap.org","kind":"major_road","sort_rank":380,"kind_detail":"primary","ref":"N33","min_zoom":8.0},"arcs":[[72],[73],[74],[75],[76],[77]]},{"type":"LineString","properties":{"kind":"major_road","sort_rank":380,"kind_detail":"primary","bus_network":"Noord- en Zuidwest-Frysl\u00e2n en Schiermonnikoog","source":"openstreetmap.org","min_zoom":8.0,"bus_shield_text":"60","id":6536339},"arcs":[78]},{"type":"LineString","properties":{"kind":"minor_road","sort_rank":360,"kind_detail":"unclassified","is_bicycle_related":true,"bicycle_shield_text":"LF3","bicycle_network":"ncn","source":"openstreetmap.org","min_zoom":8.0},"arcs":[79]},{"type":"MultiLineString","properties":{"bus_network":"Groningen-Drenthe","sort_rank":379,"kind_detail":"secondary","is_bicycle_related":true,"kind":"major_road","bicycle_shield_text":null,"bicycle_network":"icn","source":"openstreetmap.org","min_zoom":8.0,"bus_shield_text":"61","ref":"N998"},"arcs":[[80],[81]]},{"type":"MultiLineString","properties":{"sort_rank":355,"landuse_kind":"national_park","min_zoom":8.0,"kind":"ferry","source":"openstreetmap.org"},"arcs":[[82],[83],[84],[85],[86],[87],[88],[89],[90],[91],[92],[93],[94],[95]]},{"type":"LineString","properties":{"bus_network":"Noord- en Zuidwest-Frysl\u00e2n en Schiermonnikoog","name:nl":"Ids Wiersmastraat","sort_rank":380,"kind_detail":"primary","kind":"major_road","source":"openstreetmap.org","min_zoom":8.0,"bus_shield_text":"60"},"arcs":[96]},{"type":"LineString","properties":{"bus_network":"Noord- en Zuidwest-Frysl\u00e2n en Schiermonnikoog","sort_rank":377,"landuse_kind":"protected_area","is_bicycle_related":true,"kind":"major_road","bicycle_shield_text":"LF10","bicycle_network":"ncn","source":"openstreetmap.org","min_zoom":8.0,"bus_shield_text":"52","kind_detail":"tertiary"},"arcs":[97]},{"type":"LineString","properties":{"kind":"major_road","sort_rank":380,"kind_detail":"primary","is_bicycle_related":true,"bus_network":"Groningen-Drenthe","source":"openstreetmap.org","min_zoom":8.0,"bus_shield_text":"61","ref":"N363","id":6355840},"arcs":[98]},{"type":"LineString","properties":{"bus_network":"Noord- en Zuidwest-Frysl\u00e2n en Schiermonnikoog","sort_rank":380,"kind_detail":"primary","kind":"major_road","source":"openstreetmap.org","min_zoom":8.0,"bus_shield_text":"54","ref":"N356"},"arcs":[99]},{"type":"MultiLineString","properties":{"bus_network":"Groningen-Drenthe","sort_rank":377,"kind_detail":"tertiary","is_bicycle_related":true,"kind":"major_road","bicycle_shield_text":null,"bicycle_network":"icn","source":"openstreetmap.org","min_zoom":8.0,"bus_shield_text":"61"},"arcs":[[100],[101]]},{"type":"LineString","properties":{"kind":"major_road","name:nl":"Hogebeintumerweg","sort_rank":379,"kind_detail":"secondary","is_bicycle_related":true,"bicycle_shield_text":"LF10","bicycle_network":"ncn","source":"openstreetmap.org","min_zoom":8.0,"id":6537196},"arcs":[102]},{"type":"LineString","properties":{"source":"openstreetmap.org","kind":"major_road","sort_rank":381,"kind_detail":"trunk","ref":"N46","min_zoom":8.0},"arcs":[103]},{"type":"MultiLineString","properties":{"kind":"major_road","network":null,"sort_rank":381,"kind_detail":"trunk","source":"openstreetmap.org","min_zoom":8.0,"shield_text":"33","ref":"N33"},"arcs":[[104],[105],[106],[107],[108],[109],[110]]},{"type":"MultiLineString","properties":{"bus_network":"Noord- en Zuidwest-Frysl\u00e2n en Schiermonnikoog","sort_rank":380,"kind_detail":"primary","kind":"major_road","source":"openstreetmap.org","min_zoom":8.0,"bus_shield_text":"60","ref":"N357"},"arcs":[[111],[112]]},{"type":"MultiLineString","properties":{"kind":"path","sort_rank":354,"kind_detail":"cycleway","is_bicycle_related":true,"bicycle_shield_text":"LF10","bicycle_network":"ncn","source":"openstreetmap.org","min_zoom":8.0,"landuse_kind":"urban_area"},"arcs":[[113],[114],[115],[116]]},{"type":"LineString","properties":{"bus_network":"Groningen-Drenthe","sort_rank":380,"kind_detail":"primary","kind":"major_road","source":"openstreetmap.org","min_zoom":8.0,"bus_shield_text":"163","landuse_kind":"national_park","ref":"N361"},"arcs":[117]},{"type":"MultiLineString","properties":{"source":"openstreetmap.org","kind":"ferry","name":"Juist - Borkum","sort_rank":355,"min_zoom":8.0,"osm_relation":true,"id":-3267163},"arcs":[[118],[119]]},{"type":"LineString","properties":{"kind":"major_road","sort_rank":380,"kind_detail":"primary","is_bicycle_related":true,"bicycle_shield_text":null,"bicycle_network":"rcn","source":"openstreetmap.org","min_zoom":8.0,"id":6356364},"arcs":[120]},{"type":"MultiLineString","properties":{"source":"openstreetmap.org","kind":"ferry","name":"Eemshaven - Borkum","sort_rank":355,"min_zoom":8.0,"osm_relation":true,"id":-6050559},"arcs":[[121],[122],[123]]},{"type":"MultiLineString","properties":{"kind":"ferry","name":"Holwerd-Nes","sort_rank":355,"landuse_kind":"protected_area","is_bicycle_related":true,"source":"openstreetmap.org","min_zoom":8.0,"id":6537282},"arcs":[[124],[125]]},{"type":"LineString","properties":{"bus_network":"Groningen-Drenthe","sort_rank":380,"kind_detail":"primary","is_bicycle_related":true,"kind":"major_road","bicycle_shield_text":null,"bicycle_network":"rcn","source":"openstreetmap.org","min_zoom":8.0,"bus_shield_text":"637","ref":"N388"},"arcs":[126]},{"type":"LineString","properties":{"kind":"major_road","sort_rank":379,"kind_detail":"secondary","is_bicycle_related":true,"bicycle_shield_text":"LF10","bicycle_network":"ncn","source":"openstreetmap.org","min_zoom":8.0},"arcs":[127]},{"type":"LineString","properties":{"bus_network":"Groningen-Drenthe","sort_rank":379,"kind_detail":"secondary","is_bicycle_related":true,"kind":"major_road","bicycle_shield_text":"LF10","bicycle_network":"ncn","source":"openstreetmap.org","min_zoom":8.0,"bus_shield_text":"61"},"arcs":[128]},{"type":"MultiLineString","properties":{"kind":"minor_road","sort_rank":360,"kind_detail":"residential","is_bicycle_related":true,"bicycle_shield_text":"EV12","bicycle_network":"icn","source":"openstreetmap.org","min_zoom":8.0},"arcs":[[129],[130]]},{"type":"MultiLineString","properties":{"kind":"ferry","name":"Emden - Borkum Katamaran (60 min)","sort_rank":355,"landuse_kind":"protected_area","source":"openstreetmap.org","min_zoom":8.0,"ref":"Emden - Borkum - 60","id":-6050546,"osm_relation":true},"arcs":[[131],[132],[133]]},{"type":"MultiLineString","properties":{"kind":"ferry","sort_rank":355,"landuse_kind":"protected_area","source":"openstreetmap.org","min_zoom":8.0,"ref":"Holwerd - Nes (Ameland)","id":-281800,"osm_relation":true},"arcs":[[134],[135]]},{"type":"MultiLineString","properties":{"source":"openstreetmap.org","kind":"major_road","sort_rank":380,"kind_detail":"primary","ref":"N358","min_zoom":8.0},"arcs":[[136],[137]]},{"type":"MultiLineString","properties":{"bus_network":"Kleinschalig OV Groningen-Drenthe","sort_rank":379,"kind_detail":"secondary","is_bicycle_related":true,"kind":"major_road","bicycle_shield_text":null,"bicycle_network":"icn","source":"openstreetmap.org","min_zoom":8.0,"bus_shield_text":"562"},"arcs":[[138],[139],[140]]},{"type":"LineString","properties":{"kind":"ferry","name":"Norddeich - Juist (80 Min.)","sort_rank":355,"landuse_kind":"national_park","is_bicycle_related":true,"source":"openstreetmap.org","min_zoom":8.0,"ref":"Norddeich - Juist (80)","id":-288513,"osm_relation":true},"arcs":[141]},{"type":"MultiLineString","properties":{"bus_network":"Kleinschalig OV Groningen-Drenthe","sort_rank":380,"kind_detail":"primary","kind":"major_road","source":"openstreetmap.org","min_zoom":8.0,"bus_shield_text":"68","ref":"N363"},"arcs":[[142],[143],[144],[145],[146],[147],[148],[149]]},{"type":"MultiLineString","properties":{"kind":"minor_road","sort_rank":360,"kind_detail":"residential","is_bicycle_related":true,"bicycle_shield_text":"LF10","bicycle_network":"ncn","source":"openstreetmap.org","min_zoom":8.0},"arcs":[[150],[151],[152],[153],[154],[155],[156],[157]]},{"type":"LineString","properties":{"kind":"major_road","sort_rank":377,"kind_detail":"tertiary","is_bicycle_related":true,"bus_network":"Kleinschalig OV Groningen-Drenthe","bicycle_shield_text":null,"bicycle_network":"icn","source":"openstreetmap.org","min_zoom":8.0,"bus_shield_text":"68","id":6357327},"arcs":[158]},{"type":"LineString","properties":{"kind":"major_road","network":null,"sort_rank":380,"kind_detail":"primary","source":"openstreetmap.org","min_zoom":8.0,"shield_text":"33","ref":"N33"},"arcs":[159]},{"type":"MultiLineString","properties":{"kind":"path","sort_rank":354,"kind_detail":"track","is_bicycle_related":true,"bicycle_shield_text":"EV12","bicycle_network":"icn","source":"openstreetmap.org","min_zoom":8.0},"arcs":[[160],[161]]},{"type":"MultiLineString","properties":{"bus_network":"Groningen-Drenthe","sort_rank":380,"kind_detail":"primary","kind":"major_road","source":"openstreetmap.org","min_zoom":8.0,"bus_shield_text":"61","ref":"N363"},"arcs":[[162],[163],[164],[165],[166],[167],[168],[169],[170],[171],[172],[173],[174],[175],[176]]},{"type":"MultiLineString","properties":{"bus_network":"Kleinschalig OV Groningen-Drenthe","sort_rank":377,"kind_detail":"tertiary","is_bicycle_related":true,"kind":"major_road","bicycle_shield_text":null,"bicycle_network":"icn","source":"openstreetmap.org","min_zoom":8.0,"bus_shield_text":"562"},"arcs":[[177],[178],[179],[180]]},{"type":"MultiLineString","properties":{"kind":"minor_road","sort_rank":360,"kind_detail":"residential","is_bicycle_related":true,"bicycle_shield_text":null,"bicycle_network":"icn","source":"openstreetmap.org","min_zoom":8.0},"arcs":[[181],[182],[183],[184]]},{"type":"MultiLineString","properties":{"bus_network":"Kleinschalig OV Groningen-Drenthe","sort_rank":380,"kind_detail":"primary","kind":"major_road","source":"openstreetmap.org","min_zoom":8.0,"bus_shield_text":"68","ref":"N361"},"arcs":[[185],[186],[187]]},{"type":"LineString","properties":{"bus_network":"Noord- en Zuidwest-Frysl\u00e2n en Schiermonnikoog","sort_rank":380,"kind_detail":"primary","is_bicycle_related":true,"kind":"major_road","bicycle_shield_text":null,"bicycle_network":"rcn","source":"openstreetmap.org","min_zoom":8.0,"bus_shield_text":"63"},"arcs":[188]},{"type":"LineString","properties":{"bus_network":"Noord- en Zuidwest-Frysl\u00e2n en Schiermonnikoog","name:nl":"Ternaarderweg","sort_rank":380,"kind_detail":"primary","kind":"major_road","source":"openstreetmap.org","min_zoom":8.0,"bus_shield_text":"54","ref":"N358"},"arcs":[189]},{"type":"MultiLineString","properties":{"bus_network":"Kleinschalig OV Groningen-Drenthe","sort_rank":377,"landuse_kind":"urban_area","is_bicycle_related":true,"kind":"major_road","bicycle_shield_text":"LF10","bicycle_network":"ncn","source":"openstreetmap.org","min_zoom":8.0,"bus_shield_text":"45","kind_detail":"tertiary"},"arcs":[[190],[191],[192]]},{"type":"MultiLineString","properties":{"bus_network":"Noord- en Zuidwest-Frysl\u00e2n en Schiermonnikoog","sort_rank":380,"kind_detail":"primary","kind":"major_road","source":"openstreetmap.org","min_zoom":8.0,"bus_shield_text":"155","ref":"N361"},"arcs":[[193],[194],[195],[196],[197],[198],[199],[200],[201],[202],[203],[204]]},{"type":"MultiLineString","properties":{"source":"openstreetmap.org","bus_network":"Noord- en Zuidwest-Frysl\u00e2n en Schiermonnikoog","bus_shield_text":"155","sort_rank":380,"kind_detail":"primary","min_zoom":8.0,"kind":"major_road"},"arcs":[[205],[206],[207]]},{"type":"MultiLineString","properties":{"source":"openstreetmap.org","kind":"ferry","name":"Emden-Borkum Katamaran","sort_rank":355,"landuse_kind":"protected_area","min_zoom":8.0,"id":497189489},"arcs":[[208],[209],[210]]},{"type":"MultiLineString","properties":{"bus_network":"Groningen-Drenthe","sort_rank":380,"kind_detail":"primary","kind":"major_road","source":"openstreetmap.org","min_zoom":8.0,"bus_shield_text":"65","ref":"N361"},"arcs":[[211],[212],[213],[214],[215],[216],[217],[218],[219]]},{"type":"LineString","properties":{"kind":"major_road","name:nl":"Hogebeintumerweg","sort_rank":377,"kind_detail":"tertiary","is_bicycle_related":true,"bicycle_shield_text":"LF10","bicycle_network":"ncn","source":"openstreetmap.org","min_zoom":8.0},"arcs":[220]},{"type":"LineString","properties":{"kind":"ferry","name":"Norddeich - Juist (120 Min.)","sort_rank":355,"is_bicycle_related":true,"source":"openstreetmap.org","min_zoom":8.0,"ref":"Norddeich - Juist (120)","id":-288515,"osm_relation":true},"arcs":[221]},{"type":"LineString","properties":{"kind":"ferry","name":"Lauwersoog-Schiermonnikoog","sort_rank":355,"landuse_kind":"protected_area","is_bicycle_related":true,"source":"openstreetmap.org","min_zoom":8.0,"id":6529819},"arcs":[222]},{"type":"LineString","properties":{"kind":"major_road","name:nl":"Oudbuurt","sort_rank":380,"kind_detail":"primary","is_bicycle_related":true,"bicycle_shield_text":null,"bicycle_network":"rcn","source":"openstreetmap.org","min_zoom":8.0,"ref":"N358","id":6534289},"arcs":[223]},{"type":"LineString","properties":{"source":"openstreetmap.org","kind":"ferry","name":"Holwerd-Nes","sort_rank":355,"is_bicycle_related":true,"min_zoom":8.0,"id":6537282},"arcs":[224]},{"type":"LineString","properties":{"kind":"minor_road","sort_rank":360,"kind_detail":"residential","is_bicycle_related":true,"bicycle_shield_text":"LF10","bicycle_network":"ncn","source":"openstreetmap.org","min_zoom":8.0,"landuse_kind":"urban_area"},"arcs":[225]},{"type":"LineString","properties":{"kind":"major_road","sort_rank":379,"kind_detail":"secondary","is_bicycle_related":true,"bicycle_shield_text":null,"bicycle_network":"icn","source":"openstreetmap.org","min_zoom":8.0,"ref":"N996","id":6358548},"arcs":[226]},{"type":"LineString","properties":{"kind":"ferry","name":"Delfzijl-Knock-Borkum","sort_rank":355,"landuse_kind":"national_park","is_bicycle_related":true,"source":"openstreetmap.org","min_zoom":8.0,"id":-1648288,"osm_relation":true},"arcs":[227]},{"type":"LineString","properties":{"source":"openstreetmap.org","kind":"ferry","name":"Robbentocht WL35 Brakzand","sort_rank":355,"min_zoom":8.0,"id":145661156},"arcs":[228]},{"type":"MultiLineString","properties":{"source":"openstreetmap.org","kind":"ferry","name":"Delfzijl-Knock-Borkum","sort_rank":355,"min_zoom":8.0,"id":483672282},"arcs":[[229],[230],[231],[232]]},{"type":"MultiLineString","properties":{"bus_network":"Kleinschalig OV Groningen-Drenthe","sort_rank":377,"kind_detail":"tertiary","is_bicycle_related":true,"kind":"major_road","bicycle_shield_text":"LF10","bicycle_network":"ncn","source":"openstreetmap.org","min_zoom":8.0,"bus_shield_text":"68"},"arcs":[[233],[234],[235],[236]]},{"type":"LineString","properties":{"source":"openstreetmap.org","kind":"ferry","name":"Lauwersoog-Schiermonnikoog","sort_rank":355,"is_bicycle_related":true,"min_zoom":8.0,"id":6529819},"arcs":[237]},{"type":"MultiLineString","properties":{"bus_network":"Groningen-Drenthe","sort_rank":377,"kind_detail":"tertiary","is_bicycle_related":true,"kind":"major_road","bicycle_shield_text":"LF10","bicycle_network":"ncn","source":"openstreetmap.org","min_zoom":8.0,"bus_shield_text":"61"},"arcs":[[238],[239],[240]]},{"type":"LineString","properties":{"source":"openstreetmap.org","kind":"major_road","name:nl":"Centrale As","sort_rank":381,"kind_detail":"trunk","ref":"N361","min_zoom":8.0},"arcs":[241]},{"type":"MultiLineString","properties":{"bus_network":"Kleinschalig OV Groningen-Drenthe","sort_rank":377,"kind_detail":"tertiary","is_bicycle_related":true,"kind":"major_road","bicycle_shield_text":null,"bicycle_network":"icn","source":"openstreetmap.org","min_zoom":8.0,"bus_shield_text":"561"},"arcs":[[242],[243],[244]]},{"type":"LineString","properties":{"kind":"minor_road","sort_rank":360,"kind_detail":"residential","is_bicycle_related":true,"bicycle_shield_text":"LF10","cycleway":"opposite","source":"openstreetmap.org","min_zoom":8.0,"bicycle_network":"ncn","id":6356130},"arcs":[245]},{"type":"MultiLineString","properties":{"kind":"major_road","sort_rank":377,"kind_detail":"tertiary","is_bicycle_related":true,"bicycle_shield_text":"LF14","bicycle_network":"ncn","source":"openstreetmap.org","min_zoom":8.0},"arcs":[[246],[247],[248]]},{"type":"LineString","properties":{"kind":"ferry","name":"Emden - Borkum (120 min)","sort_rank":355,"landuse_kind":"national_park","source":"openstreetmap.org","min_zoom":8.0,"ref":"Emden - Borkum - 120","id":-6050545,"osm_relation":true},"arcs":[249]},{"type":"LineString","properties":{"kind":"path","sort_rank":354,"kind_detail":"cycleway","is_bicycle_related":true,"bicycle_shield_text":"LF10","bicycle_network":"ncn","source":"openstreetmap.org","min_zoom":8.0,"landuse_kind":"national_park","id":169494155},"arcs":[250]},{"type":"LineString","properties":{"kind":"major_road","name:nl":"Oudbuurt","sort_rank":380,"kind_detail":"primary","source":"openstreetmap.org","min_zoom":8.0,"ref":"N358","id":6534290},"arcs":[251]},{"type":"MultiLineString","properties":{"kind":"minor_road","sort_rank":360,"landuse_kind":"national_park","is_bicycle_related":true,"bicycle_shield_text":"LF10","bicycle_network":"ncn","source":"openstreetmap.org","min_zoom":8.0,"kind_detail":"unclassified"},"arcs":[[252],[253],[254]]},{"type":"LineString","properties":{"kind":"minor_road","sort_rank":358,"kind_detail":"service","is_bicycle_related":true,"bicycle_shield_text":"LF14","bicycle_network":"ncn","source":"openstreetmap.org","min_zoom":8.0},"arcs":[255]},{"type":"MultiLineString","properties":{"kind":"major_road","sort_rank":377,"landuse_kind":"urban_area","is_bicycle_related":true,"bicycle_shield_text":"LF10","bicycle_network":"ncn","source":"openstreetmap.org","min_zoom":8.0,"kind_detail":"tertiary"},"arcs":[[256],[257]]},{"type":"MultiLineString","properties":{"kind":"minor_road","sort_rank":360,"landuse_kind":"national_park","is_bicycle_related":true,"bicycle_shield_text":"LF14","bicycle_network":"ncn","source":"openstreetmap.org","min_zoom":8.0,"kind_detail":"unclassified"},"arcs":[[258],[259]]},{"type":"MultiLineString","properties":{"bus_network":"Noord- en Zuidwest-Frysl\u00e2n en Schiermonnikoog","sort_rank":381,"kind_detail":"trunk","kind":"major_road","source":"openstreetmap.org","min_zoom":8.0,"bus_shield_text":"155","ref":"N361"},"arcs":[[260],[261],[262],[263],[264],[265],[266],[267],[268]]},{"type":"MultiLineString","properties":{"kind":"path","sort_rank":354,"kind_detail":"cycleway","is_bicycle_related":true,"bicycle_shield_text":"LF3","bicycle_network":"ncn","source":"openstreetmap.org","min_zoom":8.0},"arcs":[[269],[270]]},{"type":"LineString","properties":{"kind":"major_road","sort_rank":380,"kind_detail":"primary","bus_network":"Kleinschalig OV Groningen-Drenthe","source":"openstreetmap.org","min_zoom":8.0,"bus_shield_text":"565","id":6529080},"arcs":[271]},{"type":"MultiLineString","properties":{"bus_network":"Noord- en Zuidwest-Frysl\u00e2n en Schiermonnikoog","sort_rank":381,"landuse_kind":"national_park","kind":"major_road","source":"openstreetmap.org","min_zoom":8.0,"bus_shield_text":"155","kind_detail":"trunk","ref":"N361"},"arcs":[[272],[273]]},{"type":"MultiLineString","properties":{"kind":"minor_road","sort_rank":360,"kind_detail":"unclassified","is_bicycle_related":true,"bicycle_shield_text":"LF10","bicycle_network":"ncn","source":"openstreetmap.org","min_zoom":8.0},"arcs":[[274],[275],[276],[277],[278],[279],[280],[281],[282],[283],[284],[285],[286],[287],[288],[289],[290],[291],[292],[293],[294],[295]]},{"type":"LineString","properties":{"kind":"ferry","name":"Juist - Borkum","sort_rank":355,"landuse_kind":"national_park","source":"openstreetmap.org","min_zoom":8.0,"id":-3267163,"osm_relation":true},"arcs":[296]},{"type":"LineString","properties":{"kind":"minor_road","service":"driveway","sort_rank":356,"kind_detail":"service","is_bicycle_related":true,"bicycle_shield_text":null,"bicycle_network":"icn","source":"openstreetmap.org","min_zoom":8.0,"landuse_kind":"urban_area","id":85521103},"arcs":[297]},{"type":"LineString","properties":{"kind":"major_road","sort_rank":355,"kind_detail":"tertiary_link","is_bicycle_related":true,"bus_network":"Kleinschalig OV Groningen-Drenthe","bicycle_shield_text":null,"bicycle_network":"icn","source":"openstreetmap.org","min_zoom":8.0,"is_link":true,"bus_shield_text":"68","id":6357263},"arcs":[298]},{"type":"MultiLineString","properties":{"kind":"major_road","sort_rank":377,"kind_detail":"tertiary","is_bicycle_related":true,"bicycle_shield_text":null,"bicycle_network":"icn","source":"openstreetmap.org","min_zoom":8.0,"landuse_kind":"urban_area"},"arcs":[[299],[300],[301],[302]]},{"type":"LineString","properties":{"source":"openstreetmap.org","bus_network":"Noord- en Zuidwest-Frysl\u00e2n en Schiermonnikoog","bus_shield_text":"155","sort_rank":381,"kind_detail":"trunk","min_zoom":8.0,"kind":"major_road"},"arcs":[303]},{"type":"MultiLineString","properties":{"kind":"path","sort_rank":354,"kind_detail":"cycleway","is_bicycle_related":true,"bicycle_shield_text":"LF10","bicycle_network":"ncn","source":"openstreetmap.org","min_zoom":8.0},"arcs":[[304],[305],[306],[307],[308],[309],[310],[311],[312],[313],[314],[315],[316],[317],[318],[319],[320],[321]]},{"type":"LineString","properties":{"bus_network":"Groningen-Drenthe","sort_rank":380,"kind_detail":"primary","kind":"major_road","source":"openstreetmap.org","min_zoom":8.0,"bus_shield_text":"637","ref":"N388"},"arcs":[322]},{"type":"LineString","properties":{"bus_network":"Noord- en Zuidwest-Frysl\u00e2n en Schiermonnikoog","name:nl":"Leeuwarderweg","sort_rank":380,"kind_detail":"primary","kind":"major_road","source":"openstreetmap.org","min_zoom":8.0,"bus_shield_text":"60","ref":"N357"},"arcs":[323]},{"type":"LineString","properties":{"source":"openstreetmap.org","kind":"ferry","name":"Robbentocht WL35 Brakzand","sort_rank":355,"landuse_kind":"protected_area","min_zoom":8.0,"id":145661156},"arcs":[324]},{"type":"MultiLineString","properties":{"source":"openstreetmap.org","kind":"major_road","sort_rank":380,"kind_detail":"primary","ref":"N363","min_zoom":8.0},"arcs":[[325],[326],[327],[328],[329],[330],[331],[332],[333],[334],[335],[336],[337],[338],[339],[340],[341],[342]]},{"type":"LineString","properties":{"kind":"ferry","sort_rank":355,"landuse_kind":"protected_area","source":"openstreetmap.org","min_zoom":8.0,"ref":"Lauwersoog - Schiermonnikoog","id":-902973,"osm_relation":true},"arcs":[343]},{"type":"LineString","properties":{"kind":"minor_road","sort_rank":358,"kind_detail":"service","is_bicycle_related":true,"bicycle_shield_text":"LF10","bicycle_network":"ncn","source":"openstreetmap.org","min_zoom":8.0,"id":136058397},"arcs":[344]},{"type":"MultiLineString","properties":{"source":"openstreetmap.org","kind":"major_road","landuse_kind":"urban_area","sort_rank":380,"kind_detail":"primary","ref":"N360","min_zoom":8.0},"arcs":[[345],[346],[347]]},{"type":"MultiLineString","properties":{"source":"openstreetmap.org","bus_network":"Groningen-Drenthe","bus_shield_text":"65","sort_rank":380,"kind_detail":"primary","min_zoom":8.0,"kind":"major_road"},"arcs":[[348],[349]]},{"type":"MultiLineString","properties":{"bus_network":"Groningen-Drenthe","sort_rank":380,"kind_detail":"primary","kind":"major_road","source":"openstreetmap.org","min_zoom":8.0,"bus_shield_text":"65","ref":"N388"},"arcs":[[350],[351],[352]]},{"type":"LineString","properties":{"kind":"ferry","name":"Emden - Borkum Katamaran (60 min)","sort_rank":355,"landuse_kind":"national_park","source":"openstreetmap.org","min_zoom":8.0,"ref":"Emden - Borkum - 60","id":-6050546,"osm_relation":true},"arcs":[353]},{"type":"LineString","properties":{"kind":"minor_road","sort_rank":358,"landuse_kind":"urban_area","is_bicycle_related":true,"bicycle_shield_text":null,"bicycle_network":"icn","source":"openstreetmap.org","min_zoom":8.0,"kind_detail":"service"},"arcs":[354]},{"type":"MultiLineString","properties":{"bus_network":"Kleinschalig OV Groningen-Drenthe","network":null,"sort_rank":381,"landuse_kind":"urban_area","kind":"major_road","source":"openstreetmap.org","min_zoom":8.0,"bus_shield_text":"45","shield_text":"33","kind_detail":"trunk","ref":"N33"},"arcs":[[355],[356],[357]]},{"type":"MultiLineString","properties":{"kind":"major_road","sort_rank":377,"kind_detail":"tertiary","is_bicycle_related":true,"bicycle_shield_text":null,"bicycle_network":"icn","source":"openstreetmap.org","min_zoom":8.0},"arcs":[[358],[359],[360],[361],[362],[363],[364],[365],[366]]},{"type":"LineString","properties":{"kind":"major_road","name:nl":"Leeuwarderweg","sort_rank":380,"kind_detail":"primary","bus_network":"Noord- en Zuidwest-Frysl\u00e2n en Schiermonnikoog","source":"openstreetmap.org","min_zoom":8.0,"bus_shield_text":"54","ref":"N357","id":6537592},"arcs":[367]},{"type":"LineString","properties":{"kind":"ferry","name":"Norddeich - Juist (80 Min.)","sort_rank":355,"is_bicycle_related":true,"source":"openstreetmap.org","min_zoom":8.0,"ref":"Norddeich - Juist (80)","id":-288513,"osm_relation":true},"arcs":[368]},{"type":"MultiLineString","properties":{"kind":"major_road","network":null,"sort_rank":381,"kind_detail":"trunk","source":"openstreetmap.org","min_zoom":8.0,"shield_text":"46","ref":"N46"},"arcs":[[369],[370]]},{"type":"MultiLineString","properties":{"bus_network":"Groningen-Drenthe","sort_rank":379,"kind_detail":"secondary","is_bicycle_related":true,"kind":"major_road","bicycle_shield_text":null,"bicycle_network":"icn","source":"openstreetmap.org","min_zoom":8.0,"bus_shield_text":"61"},"arcs":[[371],[372]]},{"type":"MultiLineString","properties":{"kind":"path","sort_rank":354,"kind_detail":"cycleway","is_bicycle_related":true,"bicycle_shield_text":"LF3","bicycle_network":"ncn","source":"openstreetmap.org","min_zoom":8.0,"landuse_kind":"protected_area","id":30664980},"arcs":[[373],[374]]},{"type":"MultiLineString","properties":{"source":"openstreetmap.org","kind":"ferry","name":"Emden-Borkum Katamaran","sort_rank":355,"min_zoom":8.0,"id":497189489},"arcs":[[375],[376],[377],[378],[379]]},{"type":"LineString","properties":{"bus_network":"Noord- en Zuidwest-Frysl\u00e2n en Schiermonnikoog","sort_rank":380,"kind_detail":"primary","kind":"major_road","source":"openstreetmap.org","min_zoom":8.0,"bus_shield_text":"52","ref":"N358"},"arcs":[380]},{"type":"LineString","properties":{"kind":"minor_road","sort_rank":360,"landuse_kind":"protected_area","is_bicycle_related":true,"bicycle_shield_text":"LF10","bicycle_network":"ncn","source":"openstreetmap.org","min_zoom":8.0,"kind_detail":"unclassified"},"arcs":[381]},{"type":"LineString","properties":{"kind":"minor_road","sort_rank":360,"landuse_kind":"urban_area","is_bicycle_related":true,"bicycle_shield_text":null,"bicycle_network":"icn","source":"openstreetmap.org","min_zoom":8.0,"kind_detail":"residential"},"arcs":[382]},{"type":"LineString","properties":{"kind":"ferry","name":"Norddeich - Juist (90 Min.)","sort_rank":355,"landuse_kind":"national_park","is_bicycle_related":true,"source":"openstreetmap.org","min_zoom":8.0,"ref":"Norddeich - Juist (90)","id":-2782159,"osm_relation":true},"arcs":[383]},{"type":"MultiLineString","properties":{"source":"openstreetmap.org","kind":"ferry","name":"Memmert","sort_rank":355,"landuse_kind":"national_park","min_zoom":8.0},"arcs":[[384],[385]]},{"type":"LineString","properties":{"kind":"ferry","name":"Norddeich - Juist (100 Min.)","sort_rank":355,"is_bicycle_related":true,"source":"openstreetmap.org","min_zoom":8.0,"ref":"Norddeich - Juist (100)","id":-288514,"osm_relation":true},"arcs":[386]},{"type":"MultiLineString","properties":{"kind":"minor_road","sort_rank":360,"kind_detail":"unclassified","is_bicycle_related":true,"bicycle_shield_text":"EV12","bicycle_network":"icn","source":"openstreetmap.org","min_zoom":8.0},"arcs":[[387],[388],[389]]},{"type":"MultiLineString","properties":{"kind":"path","sort_rank":354,"kind_detail":"cycleway","is_bicycle_related":true,"bicycle_shield_text":"LF14","bicycle_network":"ncn","source":"openstreetmap.org","min_zoom":8.0},"arcs":[[390],[391],[392],[393]]},{"type":"LineString","properties":{"kind":"ferry","name":"Norddeich - Juist (90 Min.)","sort_rank":355,"is_bicycle_related":true,"source":"openstreetmap.org","min_zoom":8.0,"ref":"Norddeich - Juist (90)","id":-2782159,"osm_relation":true},"arcs":[394]},{"type":"MultiLineString","properties":{"kind":"path","sort_rank":354,"kind_detail":"cycleway","is_bicycle_related":true,"bicycle_shield_text":null,"bicycle_network":"icn","source":"openstreetmap.org","min_zoom":8.0},"arcs":[[395],[396],[397],[398],[399],[400],[401],[402],[403],[404],[405],[406],[407],[408],[409],[410],[411]]},{"type":"MultiLineString","properties":{"source":"openstreetmap.org","kind":"major_road","network":null,"sort_rank":380,"kind_detail":"primary","min_zoom":8.0,"shield_text":"46"},"arcs":[[412],[413]]},{"type":"LineString","properties":{"kind":"ferry","name":"Norddeich - Juist (120 Min.)","sort_rank":355,"landuse_kind":"national_park","is_bicycle_related":true,"source":"openstreetmap.org","min_zoom":8.0,"ref":"Norddeich - Juist (120)","id":-288515,"osm_relation":true},"arcs":[414]},{"type":"LineString","properties":{"kind":"major_road","sort_rank":380,"kind_detail":"primary","bus_network":"Noord- en Zuidwest-Frysl\u00e2n en Schiermonnikoog","source":"openstreetmap.org","min_zoom":8.0,"bus_shield_text":"54","ref":"N358","id":6537579},"arcs":[415]},{"type":"LineString","properties":{"sort_rank":355,"landuse_kind":"protected_area","min_zoom":8.0,"kind":"ferry","source":"openstreetmap.org"},"arcs":[416]},{"type":"LineString","properties":{"bus_network":"Kleinschalig OV Groningen-Drenthe","sort_rank":377,"landuse_kind":"urban_area","is_bicycle_related":true,"kind":"major_road","bicycle_shield_text":null,"bicycle_network":"icn","source":"openstreetmap.org","min_zoom":8.0,"bus_shield_text":"45","kind_detail":"tertiary"},"arcs":[417]},{"type":"MultiLineString","properties":{"bus_network":"Noord- en Zuidwest-Frysl\u00e2n en Schiermonnikoog","sort_rank":380,"kind_detail":"primary","kind":"major_road","source":"openstreetmap.org","min_zoom":8.0,"bus_shield_text":"54","ref":"N357"},"arcs":[[418],[419]]},{"type":"LineString","properties":{"bus_network":"Noord- en Zuidwest-Frysl\u00e2n en Schiermonnikoog","name:nl":"Holwerderweg","sort_rank":380,"kind_detail":"primary","kind":"major_road","source":"openstreetmap.org","min_zoom":8.0,"bus_shield_text":"54","ref":"N358"},"arcs":[420]},{"type":"MultiLineString","properties":{"kind":"minor_road","sort_rank":360,"kind_detail":"unclassified","is_bicycle_related":true,"bicycle_shield_text":null,"bicycle_network":"icn","source":"openstreetmap.org","min_zoom":8.0,"landuse_kind":"urban_area"},"arcs":[[421],[422]]},{"type":"MultiLineString","properties":{"source":"openstreetmap.org","kind":"major_road","sort_rank":380,"kind_detail":"primary","ref":"N361","min_zoom":8.0},"arcs":[[423],[424],[425],[426]]},{"type":"LineString","properties":{"kind":"minor_road","name:nl":"Ternaarderweg","sort_rank":360,"kind_detail":"residential","is_bicycle_related":true,"bicycle_shield_text":"LF10","bicycle_network":"ncn","source":"openstreetmap.org","min_zoom":8.0,"id":6537318},"arcs":[427]},{"type":"LineString","properties":{"kind":"major_road","network":"Kreisstra\u00dfen Aurich","sort_rank":377,"kind_detail":"tertiary","is_bicycle_related":true,"bicycle_shield_text":"EV12","bicycle_network":"icn","source":"openstreetmap.org","min_zoom":8.0,"shield_text":"236","ref":"K 236","id":137409351},"arcs":[428]},{"type":"MultiLineString","properties":{"kind":"ferry","name":"Emden - Borkum (120 min)","sort_rank":355,"source":"openstreetmap.org","min_zoom":8.0,"ref":"Emden - Borkum - 120","id":-6050545,"osm_relation":true},"arcs":[[429],[430],[431],[432],[433]]},{"type":"LineString","properties":{"kind":"ferry","name":"Emden-Borkum","sort_rank":355,"landuse_kind":"national_park","is_bicycle_related":true,"source":"openstreetmap.org","min_zoom":8.0,"id":497189487},"arcs":[434]},{"type":"MultiLineString","properties":{"bus_network":"Groningen-Drenthe","sort_rank":380,"kind_detail":"primary","is_bicycle_related":true,"kind":"major_road","bicycle_shield_text":null,"bicycle_network":"icn","source":"openstreetmap.org","min_zoom":8.0,"bus_shield_text":"61","ref":"N363"},"arcs":[[435],[436]]},{"type":"MultiLineString","properties":{"kind":"ferry","name":"Delfzijl-Knock-Borkum","sort_rank":355,"landuse_kind":"protected_area","is_bicycle_related":true,"source":"openstreetmap.org","min_zoom":8.0,"id":-1648288,"osm_relation":true},"arcs":[[437],[438],[439]]},{"type":"LineString","properties":{"source":"openstreetmap.org","kind":"major_road","name:nl":"Kerkstraat","sort_rank":380,"kind_detail":"primary","ref":"N358","min_zoom":8.0},"arcs":[440]},{"type":"LineString","properties":{"kind":"minor_road","sort_rank":358,"kind_detail":"service","is_bicycle_related":true,"bicycle_shield_text":null,"bicycle_network":"icn","source":"openstreetmap.org","min_zoom":8.0,"id":366589535},"arcs":[441]},{"type":"MultiLineString","properties":{"kind":"minor_road","sort_rank":360,"landuse_kind":"urban_area","is_bicycle_related":true,"bicycle_shield_text":"LF10","bicycle_network":"ncn","source":"openstreetmap.org","min_zoom":8.0,"kind_detail":"unclassified"},"arcs":[[442],[443],[444],[445]]},{"type":"MultiLineString","properties":{"source":"openstreetmap.org","kind":"ferry","name":"Delfzijl-Knock-Borkum","sort_rank":355,"landuse_kind":"protected_area","min_zoom":8.0,"id":483672282},"arcs":[[446],[447],[448]]},{"type":"LineString","properties":{"bus_network":"Kleinschalig OV Groningen-Drenthe","sort_rank":377,"kind_detail":"tertiary","is_bicycle_related":true,"kind":"major_road","bicycle_shield_text":null,"bicycle_network":"icn","source":"openstreetmap.org","min_zoom":8.0,"bus_shield_text":"45"},"arcs":[449]},{"type":"MultiLineString","properties":{"bus_network":"Noord- en Zuidwest-Frysl\u00e2n en Schiermonnikoog","sort_rank":377,"kind_detail":"tertiary","is_bicycle_related":true,"kind":"major_road","bicycle_shield_text":"LF10","bicycle_network":"ncn","source":"openstreetmap.org","min_zoom":8.0,"bus_shield_text":"54"},"arcs":[[450],[451],[452]]},{"type":"LineString","properties":{"bus_network":"Kleinschalig OV Groningen-Drenthe","sort_rank":380,"kind_detail":"primary","is_bicycle_related":true,"kind":"major_road","cycleway":"lane","source":"openstreetmap.org","min_zoom":8.0,"bus_shield_text":"68","ref":"N363"},"arcs":[453]},{"type":"MultiLineString","properties":{"kind":"minor_road","sort_rank":360,"kind_detail":"unclassified","is_bicycle_related":true,"bicycle_shield_text":"LF14","bicycle_network":"ncn","source":"openstreetmap.org","min_zoom":8.0},"arcs":[[454],[455],[456],[457],[458],[459]]},{"type":"LineString","properties":{"kind":"major_road","sort_rank":377,"kind_detail":"tertiary","is_bicycle_related":true,"bus_network":"Kleinschalig OV Groningen-Drenthe","official_name":"Dirk Wierengastraat","bicycle_network":"ncn","source":"openstreetmap.org","min_zoom":8.0,"bicycle_shield_text":"LF10","bus_shield_text":"68","id":147533129},"arcs":[460]},{"type":"MultiLineString","properties":{"bus_network":"Noord- en Zuidwest-Frysl\u00e2n en Schiermonnikoog","sort_rank":377,"kind_detail":"tertiary","is_bicycle_related":true,"kind":"major_road","bicycle_shield_text":"LF10","bicycle_network":"ncn","source":"openstreetmap.org","min_zoom":8.0,"bus_shield_text":"52"},"arcs":[[461],[462]]},{"type":"MultiLineString","properties":{"bus_network":"Noord- en Zuidwest-Frysl\u00e2n en Schiermonnikoog","name:nl":"Dokkumerweg","sort_rank":380,"kind_detail":"primary","kind":"major_road","source":"openstreetmap.org","min_zoom":8.0,"bus_shield_text":"60","ref":"N356"},"arcs":[[463],[464]]},{"type":"MultiLineString","properties":{"kind":"ferry","name":"Eemshaven - Borkum","sort_rank":355,"landuse_kind":"protected_area","source":"openstreetmap.org","min_zoom":8.0,"id":-6050559,"osm_relation":true},"arcs":[[465],[466]]},{"type":"LineString","properties":{"kind":"ferry","name":"Eemshaven - Borkum","sort_rank":355,"landuse_kind":"national_park","source":"openstreetmap.org","min_zoom":8.0,"id":-6050559,"osm_relation":true},"arcs":[467]},{"type":"LineString","properties":{"kind":"major_road","name:nl":"Polleweg","sort_rank":377,"kind_detail":"tertiary","is_bicycle_related":true,"bus_network":"Noord- en Zuidwest-Frysl\u00e2n en Schiermonnikoog","bicycle_shield_text":"LF10","bicycle_network":"ncn","source":"openstreetmap.org","min_zoom":8.0,"bus_shield_text":"54","id":6537543},"arcs":[468]},{"type":"MultiLineString","properties":{"kind":"ferry","name":"Emden - Borkum Katamaran (60 min)","sort_rank":355,"source":"openstreetmap.org","min_zoom":8.0,"ref":"Emden - Borkum - 60","id":-6050546,"osm_relation":true},"arcs":[[469],[470],[471],[472],[473]]},{"type":"LineString","properties":{"source":"openstreetmap.org","bus_network":"Noord- en Zuidwest-Frysl\u00e2n en Schiermonnikoog","bus_shield_text":"54","sort_rank":380,"kind_detail":"primary","min_zoom":8.0,"kind":"major_road"},"arcs":[474]},{"type":"LineString","properties":{"kind":"minor_road","sort_rank":360,"kind_detail":"unclassified","is_bicycle_related":true,"bicycle_shield_text":"EV12","bicycle_network":"icn","source":"openstreetmap.org","min_zoom":8.0,"landuse_kind":"national_park"},"arcs":[475]},{"type":"LineString","properties":{"kind":"major_road","network":null,"sort_rank":381,"kind_detail":"trunk","bus_network":"Kleinschalig OV Groningen-Drenthe","source":"openstreetmap.org","min_zoom":8.0,"bus_shield_text":"45","shield_text":"33","ref":"N33","id":6352785},"arcs":[476]},{"type":"LineString","properties":{"kind":"path","sort_rank":354,"landuse_kind":"national_park","is_bicycle_related":true,"bicycle_shield_text":"EV12","bicycle_network":"icn","source":"openstreetmap.org","min_zoom":8.0,"kind_detail":"track"},"arcs":[477]},{"type":"MultiLineString","properties":{"source":"openstreetmap.org","kind":"ferry","name":"Emden-Borkum","sort_rank":355,"is_bicycle_related":true,"min_zoom":8.0,"id":497189487},"arcs":[[478],[479],[480],[481],[482]]},{"type":"MultiLineString","properties":{"source":"openstreetmap.org","bus_network":"Noord- en Zuidwest-Frysl\u00e2n en Schiermonnikoog","bus_shield_text":"52","sort_rank":380,"kind_detail":"primary","min_zoom":8.0,"kind":"major_road"},"arcs":[[483],[484]]},{"type":"LineString","properties":{"kind":"ferry","name":"Norddeich - Juist (100 Min.)","sort_rank":355,"landuse_kind":"national_park","is_bicycle_related":true,"source":"openstreetmap.org","min_zoom":8.0,"ref":"Norddeich - Juist (100)","id":-288514,"osm_relation":true},"arcs":[485]},{"type":"LineString","properties":{"source":"openstreetmap.org","kind":"ferry","name":"Delfzijl-Knock-Borkum","sort_rank":355,"landuse_kind":"national_park","min_zoom":8.0,"id":483672282},"arcs":[486]},{"type":"LineString","properties":{"bus_network":"Groningen-Drenthe","sort_rank":379,"kind_detail":"secondary","is_bicycle_related":true,"kind":"major_road","bicycle_shield_text":null,"bicycle_network":"icn","source":"openstreetmap.org","min_zoom":8.0,"bus_shield_text":"61","ref":"N996"},"arcs":[487]},{"type":"MultiLineString","properties":{"kind":"minor_road","sort_rank":360,"kind_detail":"unclassified","is_bicycle_related":true,"bicycle_shield_text":null,"bicycle_network":"icn","source":"openstreetmap.org","min_zoom":8.0},"arcs":[[488],[489],[490],[491],[492],[493],[494],[495],[496],[497],[498],[499],[500],[501],[502],[503],[504],[505],[506]]},{"type":"LineString","properties":{"source":"openstreetmap.org","kind":"major_road","sort_rank":381,"kind_detail":"trunk","ref":"N33","min_zoom":8.0},"arcs":[507]},{"type":"LineString","properties":{"bus_network":"Kleinschalig OV Groningen-Drenthe","sort_rank":377,"kind_detail":"tertiary","is_bicycle_related":true,"kind":"major_road","bicycle_shield_text":"LF14","bicycle_network":"ncn","source":"openstreetmap.org","min_zoom":8.0,"bus_shield_text":"565"},"arcs":[508]},{"type":"LineString","properties":{"source":"openstreetmap.org","kind":"ferry","sort_rank":355,"ref":"Holwerd - Nes (Ameland)","min_zoom":8.0,"osm_relation":true,"id":-281800},"arcs":[509]},{"type":"MultiLineString","properties":{"source":"openstreetmap.org","bus_network":"Noord- en Zuidwest-Frysl\u00e2n en Schiermonnikoog","bus_shield_text":"51","sort_rank":380,"kind_detail":"primary","min_zoom":8.0,"kind":"major_road"},"arcs":[[510],[511],[512]]},{"type":"LineString","properties":{"kind":"path","sort_rank":354,"kind_detail":"path","is_bicycle_related":true,"bicycle_shield_text":null,"bicycle_network":"icn","source":"openstreetmap.org","min_zoom":8.0,"landuse_kind":"urban_area","id":438167780},"arcs":[513]},{"type":"LineString","properties":{"kind":"ferry","name":"Ditzum-Emden-Delfzijl (Emden-Delfzijl)","sort_rank":355,"landuse_kind":"protected_area","is_bicycle_related":true,"source":"openstreetmap.org","min_zoom":8.0,"ref":"Emden - Delfzijl","id":-1648289,"osm_relation":true},"arcs":[514]},{"type":"LineString","properties":{"source":"openstreetmap.org","kind":"ferry","name":"Juist - Seehundb\u00e4nke","sort_rank":355,"min_zoom":8.0,"osm_relation":true,"id":-3267164},"arcs":[515]},{"type":"LineString","properties":{"source":"openstreetmap.org","kind":"ferry","name":"Emden-Borkum Katamaran","sort_rank":355,"landuse_kind":"national_park","min_zoom":8.0,"id":497189489},"arcs":[516]},{"type":"MultiLineString","properties":{"sort_rank":355,"source":"openstreetmap.org","min_zoom":8.0,"kind":"ferry"},"arcs":[[517],[518]]},{"type":"LineString","properties":{"kind":"ferry","name":"Juist - Seehundb\u00e4nke","sort_rank":355,"landuse_kind":"national_park","source":"openstreetmap.org","min_zoom":8.0,"id":-3267164,"osm_relation":true},"arcs":[519]},{"type":"MultiLineString","properties":{"kind":"major_road","network":null,"sort_rank":381,"landuse_kind":"urban_area","source":"openstreetmap.org","min_zoom":8.0,"kind_detail":"trunk","shield_text":"33","ref":"N33"},"arcs":[[520],[521],[522]]},{"type":"LineString","properties":{"kind":"ferry","name":"Eemshaven-Borkum","sort_rank":355,"landuse_kind":"national_park","is_bicycle_related":true,"source":"openstreetmap.org","min_zoom":8.0,"ref":"Eemshaven - Borkum","id":403185149},"arcs":[523]},{"type":"MultiLineString","properties":{"kind":"ferry","name":"Eemshaven-Borkum","sort_rank":355,"landuse_kind":"protected_area","is_bicycle_related":true,"source":"openstreetmap.org","min_zoom":8.0,"ref":"Eemshaven - Borkum","id":403185149},"arcs":[[524],[525]]},{"type":"MultiLineString","properties":{"bus_network":"Groningen-Drenthe","sort_rank":380,"kind_detail":"primary","kind":"major_road","source":"openstreetmap.org","min_zoom":8.0,"bus_shield_text":"163","ref":"N361"},"arcs":[[526],[527],[528],[529],[530],[531],[532],[533],[534],[535],[536],[537],[538]]},{"type":"LineString","properties":{"kind":"major_road","network":null,"sort_rank":380,"kind_detail":"primary","source":"openstreetmap.org","min_zoom":8.0,"shield_text":"46","ref":"N46"},"arcs":[539]},{"type":"MultiLineString","properties":{"source":"openstreetmap.org","kind":"major_road","sort_rank":381,"kind_detail":"trunk","ref":"N361","min_zoom":8.0},"arcs":[[540],[541],[542],[543],[544]]},{"type":"MultiLineString","properties":{"kind":"major_road","sort_rank":377,"kind_detail":"tertiary","is_bicycle_related":true,"bicycle_shield_text":"LF10","bicycle_network":"ncn","source":"openstreetmap.org","min_zoom":8.0},"arcs":[[545],[546],[547],[548],[549]]},{"type":"LineString","properties":{"kind":"minor_road","name:nl":"Medwerderweg","sort_rank":360,"kind_detail":"unclassified","is_bicycle_related":true,"bicycle_shield_text":"LF3","bicycle_network":"ncn","source":"openstreetmap.org","min_zoom":8.0},"arcs":[550]},{"type":"LineString","properties":{"kind":"major_road","sort_rank":380,"kind_detail":"primary","is_bicycle_related":true,"bicycle_shield_text":null,"cycleway":"lane","source":"openstreetmap.org","min_zoom":8.0,"bicycle_network":"icn","ref":"N363"},"arcs":[551]},{"type":"LineString","properties":{"source":"openstreetmap.org","kind":"ferry","sort_rank":355,"ref":"Lauwersoog - Schiermonnikoog","min_zoom":8.0,"osm_relation":true,"id":-902973},"arcs":[552]},{"type":"MultiLineString","properties":{"kind":"path","sort_rank":354,"landuse_kind":"urban_area","is_bicycle_related":true,"bicycle_shield_text":null,"bicycle_network":"icn","source":"openstreetmap.org","min_zoom":8.0,"kind_detail":"cycleway"},"arcs":[[553],[554]]},{"type":"LineString","properties":{"source":"openstreetmap.org","kind":"ferry","name":"Nordland","sort_rank":355,"landuse_kind":"national_park","min_zoom":8.0,"id":279225918},"arcs":[555]},{"type":"LineString","properties":{"kind":"major_road","sort_rank":380,"kind_detail":"primary","bus_network":"Noord- en Zuidwest-Frysl\u00e2n en Schiermonnikoog","source":"openstreetmap.org","min_zoom":8.0,"bus_shield_text":"66","landuse_kind":"protected_area","ref":"N356","id":210041140},"arcs":[556]},{"type":"LineString","properties":{"kind":"minor_road","sort_rank":360,"kind_detail":"living_street","is_bicycle_related":true,"bicycle_shield_text":"LF10","bicycle_network":"ncn","source":"openstreetmap.org","min_zoom":8.0,"cycleway":"opposite"},"arcs":[557]},{"type":"LineString","properties":{"kind":"minor_road","name:nl":"Medwerderweg","sort_rank":360,"kind_detail":"unclassified","is_bicycle_related":true,"bicycle_shield_text":"LF10","bicycle_network":"ncn","source":"openstreetmap.org","min_zoom":8.0,"id":6537462},"arcs":[558]},{"type":"MultiLineString","properties":{"kind":"ferry","name":"Emden-Borkum","sort_rank":355,"landuse_kind":"protected_area","is_bicycle_related":true,"source":"openstreetmap.org","min_zoom":8.0,"id":497189487},"arcs":[[559],[560],[561]]}]},"earth":{"type":"GeometryCollection","geometries":[{"type":"MultiPolygon","properties":{"sort_rank":10,"source":"naturalearthdata.com","min_zoom":0.0,"kind":"earth","area":60231411961},"arcs":[[[562]],[[563]],[[564]],[[565]],[[566]],[[567]],[[568]]]}]},"landuse":{"type":"GeometryCollection","geometries":[{"type":"MultiPolygon","properties":{"source":"openstreetmap.org","kind":"national_park","tier":1,"protect_class":"2","area":340813694,"sort_rank":18,"min_zoom":5.0},"arcs":[[[569]],[[570]]]},{"type":"MultiPolygon","properties":{"kind":"protected_area","natural":"yes","protect_class":"98","area":8128379904,"sort_rank":17,"source":"openstreetmap.org","min_zoom":4.0,"tier":2,"id":-5909370,"osm_relation":true},"arcs":[[[571]],[[572]]]},{"type":"MultiPolygon","properties":{"kind":"national_park","natural":"yes","protect_class":"2","area":9040051799,"sort_rank":18,"source":"openstreetmap.org","min_zoom":3.0,"tier":1,"osm_relation":true},"arcs":[[[573],[574],[575],[576],[577],[578],[579],[580]]]},{"type":"Polygon","properties":{"source":"openstreetmap.org","kind":"nature_reserve","area":1874860032,"tier":2,"id":528639633,"min_zoom":4.0,"sort_rank":23},"arcs":[[581]]},{"type":"MultiPolygon","properties":{"source":"naturalearthdata.com","kind":"urban_area","name":"","area":3544747438,"sort_rank":11,"min_zoom":4.0},"arcs":[[[582]]]}]}},"type":"Topology","transform":{"translate":[5.625,53.330872983],"scale":[0.0003433228,0.0002030178]},"arcs":[[[3997,0],[-6,5],[-4,83],[-122,223],[-105,312],[-170,56],[-109,123],[-643,476]],[[2838,1278],[-542,516],[-196,149],[-353,-143],[-985,-154],[-762,-59]],[[2743,1187],[26,-22]],[[2786,1151],[95,-54],[42,-113],[82,-14],[91,-118],[-12,-35],[39,15],[5,-30],[535,-229],[32,-54],[-31,-85],[44,-282],[84,-113],[71,-39]],[[4096,2808],[-207,-80],[-465,-51],[-215,-54],[-176,-77],[-216,-155],[-180,-37],[-170,-71],[-254,-195],[-113,-145],[194,-596],[404,-107],[45,-53]],[[2769,1165],[17,-14]],[[2743,1187],[26,-22]],[[2786,1151],[95,-54],[42,-113],[82,-14],[91,-118],[-12,-35],[39,15],[5,-30],[535,-229],[32,-54],[-31,-85],[44,-282],[84,-113],[71,-39]],[[4096,2808],[-207,-80],[-633,-91],[-223,-91],[-216,-155],[-180,-37],[-210,-93],[-182,-140],[-145,-178],[194,-596],[404,-107],[45,-53]],[[2769,1165],[17,-14]],[[1921,0],[7,52],[-96,35],[-59,-27],[-43,71],[-113,33],[-36,131],[76,111],[456,162],[3,250],[88,-12],[45,66],[-43,67],[-88,1],[1,89]],[[2119,1029],[-89,-66],[-396,-61],[-175,46],[-45,-132],[-307,-19],[-132,-44],[-352,-41],[-395,-20],[-228,97]],[[3302,1144],[-172,83],[-68,-2],[-37,43]],[[3079,1224],[-6,0]],[[3296,1146],[4,-2],[-4,2]],[[3163,0],[62,21],[178,-21]],[[3722,0],[68,15]],[[2609,0],[1,184],[221,160],[275,60],[156,-9],[45,40]],[[3410,595],[52,53],[52,-20]],[[3163,0],[62,21],[175,-21]],[[3721,0],[69,15]],[[3025,1268],[37,-44],[68,2],[172,-82]],[[3080,1224],[7,1]],[[3296,1146],[4,-2],[-4,2]],[[2609,0],[1,184],[221,160],[275,60],[156,-9],[45,40]],[[4096,700],[-10,-28],[-13,-83],[1,-365],[22,-71],[0,-153],[-261,0],[-14,22],[-14,11],[-6,12],[-70,52],[-16,6],[-98,406],[-50,53],[-60,28],[-288,49],[-687,-108],[-433,-128],[-74,-59],[-25,-8],[-28,10],[-51,46],[-31,11],[-256,-8],[-317,-11],[-281,-14],[-195,-101],[-67,-6],[-105,-76],[-457,-187],[-212,0],[0,4096],[4096,0],[0,-2313],[-351,-45],[-108,-54],[459,52],[0,-1036]],[[3650,1459],[45,-19],[82,92],[-14,21],[-63,26],[-53,0],[-17,-15],[-12,-4],[-5,-15],[2,-53],[35,-33]],[[3064,1206],[53,-27],[18,6],[43,23],[29,5],[25,-10],[38,-45],[26,-15],[-21,47],[-21,29],[-25,18],[-33,13],[0,30],[54,13],[101,45],[66,9],[-39,77],[-109,-8],[-222,-69],[-34,-26],[11,-58],[40,-57]],[[2434,1047],[104,-36],[7,19],[9,13],[11,6],[13,-1],[-160,71],[-41,-7],[6,-33],[51,-32]],[[2792,1070],[-30,-25],[-8,-24],[44,-24],[18,22],[15,28],[20,9],[7,12],[-66,2]],[[1450,743],[31,-68],[-18,-24],[0,-15],[18,-31],[57,74],[501,164],[40,0],[0,34],[-81,26],[-289,-26],[-77,-20],[-109,-49],[-73,-65]],[[960,641],[-119,63],[-698,-29],[-44,20],[-50,-42],[-17,-73],[51,-73],[74,-18],[140,65],[75,20],[300,0],[288,67]],[[1730,161],[82,-13],[46,-45],[-34,-50],[-95,-8],[-190,22],[-19,51],[10,42],[20,40],[31,147],[49,27],[65,-20],[64,-49],[-24,-31],[-26,-10],[-25,10],[-24,31],[2,-109],[68,-35]],[[212,0],[457,187],[105,76],[67,6],[195,101],[281,14],[317,11],[256,8],[31,-11],[51,-46],[28,-10],[25,8],[74,59],[433,128],[687,108],[288,-49],[60,-28],[50,-53],[98,-406],[16,-6],[70,-52],[6,-12],[14,-11],[14,-22]],[[4096,153],[-22,71],[-1,365],[13,83],[10,28]],[[1730,161],[82,-13],[46,-45],[-34,-50],[-95,-8],[-190,22],[-19,51],[10,42],[20,40],[31,147],[49,27],[65,-20],[64,-49],[-24,-31],[-26,-10],[-25,10],[-24,31],[2,-109],[68,-35]],[[1709,877],[-77,-20],[-109,-49],[-73,-65],[31,-68],[-18,-24],[0,-15],[18,-31],[57,74],[501,164],[40,0],[0,34],[-81,26],[-289,-26]],[[2377,1112],[6,-33],[51,-32],[104,-36],[7,19],[9,13],[11,6],[13,-1],[-160,71],[-41,-7]],[[3417,1347],[-39,77],[-109,-8],[-222,-69],[-34,-26],[11,-58],[40,-57],[53,-27],[18,6],[43,23],[29,5],[25,-10],[38,-45],[26,-15],[-21,47],[-21,29],[-25,18],[-33,13],[0,30],[54,13],[101,45],[66,9]],[[143,675],[-44,20],[-50,-42],[-17,-73],[51,-73],[74,-18],[140,65],[75,20],[300,0],[288,67],[-119,63],[-698,-29]],[[3637,1684],[459,52]],[[4096,1783],[-351,-45],[-108,-54]],[[712,132],[71,50]],[[1311,135],[-19,26]],[[1372,15],[-59,119]],[[1389,0],[-5,3]],[[3183,1078],[-29,-11],[267,-219]],[[3295,1147],[-11,-16]],[[3522,632],[-4,-14]],[[1377,9],[-5,6]],[[1291,162],[0,-1],[1,1],[0,1],[-1,-1]],[[1311,134],[2,0],[-1,1],[-1,0],[0,-1]],[[3441,833],[-284,236],[26,9]],[[3286,1132],[9,15]],[[3595,677],[-33,34]],[[4004,0],[0,119],[-63,58],[-86,164]],[[821,166],[-9,10]],[[1025,0],[-101,65]],[[3587,682],[-157,159]],[[3840,386],[-68,109],[-181,184]],[[3990,22],[-90,225]],[[755,290],[-10,18]],[[787,185],[-27,95]],[[803,193],[-15,13]],[[1360,194],[1,1]],[[1454,244],[-1,-1]],[[3470,553],[124,-38]],[[3594,515],[2,0]],[[3596,515],[-2,0]],[[3469,553],[0,-1],[1,0],[0,1],[-1,0]],[[3597,514],[0,1],[-1,0]],[[3596,515],[0,-1],[1,0]],[[3589,459],[2,2]],[[3592,464],[-1,-2]],[[3592,461],[2,-3]],[[3596,514],[0,-1]],[[3592,461],[-1,1]],[[3591,462],[0,-1],[0,-1],[1,1]],[[924,65],[-3,3]],[[850,0],[14,26],[-34,76]],[[2872,334],[0,8]],[[2875,345],[0,5]],[[3648,1405],[-103,-14],[-85,-86],[-90,-21],[-74,-61],[4,-69]],[[3993,1681],[6,-54]],[[3999,1627],[0,-2],[-12,2]],[[3987,1627],[-98,11],[-43,-26],[-144,22],[-89,-72],[-61,22]],[[3993,1681],[6,-54]],[[3999,1627],[1,-2],[-61,0]],[[3939,1625],[-1,0],[-138,-182]],[[3881,1537],[58,88]],[[3939,1625],[1,1],[47,1]],[[3987,1627],[12,0]],[[3999,1627]],[[3999,1627],[1,0],[-3,45]],[[4062,1602],[-35,26]],[[4029,1520],[40,63],[27,-3]],[[892,99],[-6,9]],[[1133,349],[19,-1]],[[3153,389],[3,1]],[[812,176],[-25,8]],[[2924,44],[22,32]],[[3061,361],[17,12]],[[641,21],[-22,4]],[[3305,340],[3,2]],[[3510,310],[79,149]],[[3510,310],[4,-24]],[[3521,273],[-7,13]],[[3521,273],[2,-9],[3,-15]],[[3526,249],[-5,24]],[[3551,202],[-25,47]],[[3592,464],[14,42]],[[554,24],[49,33]],[[659,101],[11,12]],[[3582,251],[-12,14]],[[3620,193],[-13,43]],[[3648,190],[-28,3]],[[3637,146],[2,7]],[[1794,189],[-6,59]],[[3300,1154],[1,-9]],[[3992,1691],[1,-10]],[[3072,389]],[[3183,1078],[-29,-11],[267,-219]],[[3295,1147],[-11,-16]],[[3522,632],[-4,-14]],[[739,317],[-79,-10],[-58,84],[-75,-37],[-33,87],[-84,40],[26,24]],[[740,317],[-1,0]],[[1957,30],[9,12]],[[649,18],[-8,3]],[[3018,377],[-2,2]],[[4096,234],[-28,-37]],[[4073,44],[23,2]],[[3574,698],[-138,138]],[[3839,390],[-66,106],[-180,182]],[[3990,26],[-85,212]],[[739,317],[-79,-10],[-58,84],[-75,-37],[-33,87],[-84,40],[26,24]],[[740,317],[-1,0]],[[1004,260],[111,4]],[[1291,162],[-69,77]],[[3061,338],[0,-1]],[[3061,338],[0,23]],[[3061,337],[0,1]],[[4096,1578],[-61,54],[-32,-8],[-9,56]],[[2570,55],[4,94]],[[2574,149],[4,7]],[[2578,156],[0,1]],[[2578,157],[3,7]],[[2581,164],[10,30]],[[2591,194],[3,3]],[[2593,197],[-2,-3]],[[2686,293],[13,11]],[[801,193],[-6,8]],[[1243,326],[-10,3]],[[1350,350],[-13,4]],[[2414,340],[4,11]],[[2696,302],[-10,0]],[[3032,383],[-6,1]],[[3078,373],[-10,5]],[[3547,277],[6,-2]],[[2729,308],[-6,9]],[[3606,506],[-10,8]],[[4048,381],[3,88]],[[4096,152],[-28,45]],[[3015,381]],[[3049,390],[26,-1]],[[3075,389],[-3,0]],[[3075,389],[32,19]],[[3107,408],[12,-8]],[[3119,400],[-8,6],[-4,2]],[[3153,389],[-34,11]],[[3230,433],[1,0]],[[3231,433],[3,2]],[[3299,448],[-65,-13]],[[3300,447],[-1,1]],[[3307,445],[-7,2]],[[3408,405],[-75,29]],[[3410,404],[-2,1]],[[3465,384],[-55,20]],[[3055,297],[5,38]],[[3060,336],[0,-1]],[[3060,335],[1,1]],[[3230,65],[16,-4]],[[2876,355],[-3,5]],[[2959,80],[7,14]],[[3159,384],[-1,-2]],[[3233,436],[4,2]],[[2126,156],[45,1]],[[2171,157],[10,0]],[[2181,158],[-10,-1]],[[1384,3],[-7,6]],[[803,193],[80,44]],[[3582,251],[5,2]],[[3607,236],[1,14]],[[3620,193]],[[1657,388],[-19,12]],[[1657,388],[1,-1]],[[1658,387],[-1,1]],[[1659,386],[1,-1]],[[1660,385],[-1,1]],[[1707,379],[-47,6]],[[1707,379],[0,-1]],[[1707,378],[0,1]],[[1658,386],[1,0]],[[1659,386],[0,1],[-1,0]],[[1658,387],[0,-1]],[[1707,378],[1,0],[0,1],[-1,-1]],[[1120,6],[50,4]],[[1360,194],[-1,0]],[[1454,244],[2,0]],[[3574,698],[-138,138]],[[3839,390],[-66,106],[-180,182]],[[3990,26],[-85,212]],[[1989,163],[12,-2]],[[2001,161],[-12,3]],[[2072,153],[-71,8]],[[2447,114],[3,-1]],[[2450,113],[-2,1]],[[2568,54],[-118,59]],[[2582,15],[-12,38]],[[2581,14],[1,1]],[[2588,0],[-7,14]],[[618,25],[-30,2]],[[3993,1681],[-1,10]],[[1665,400],[-2,23],[-149,90],[170,166]],[[983,251],[1,0]],[[739,317]],[[3590,245],[18,5]],[[2806,25],[-2,2]],[[3183,1078],[103,54]],[[1,449],[-1,1]],[[3441,833],[-284,236],[26,9]],[[3286,1132],[9,15]],[[3595,677],[-33,34]],[[4004,0],[0,119],[-63,58],[-86,164]],[[2138,281],[0,1]],[[2414,340],[-82,15],[-4,-44],[-50,7]],[[2501,343],[16,-6]],[[2522,333],[30,-30],[133,0]],[[1666,393],[-1,7]],[[2982,384],[32,-2]],[[3014,382],[0,-1]],[[3014,382]],[[1169,0],[1,8]],[[3374,39],[-31,7]],[[3441,26],[17,7]],[[3510,0],[-46,27]],[[3032,383],[21,-6]],[[2051,56],[1,0]],[[2093,31],[-3,1]],[[2125,0],[-4,26]],[[3183,1078],[102,53]],[[1785,271]],[[984,251],[5,1]],[[1519,301],[30,77]],[[1626,404],[4,-1]],[[1785,271],[-1,0]],[[2027,87],[-8,2]],[[3568,0],[-4,67]],[[3635,135],[2,11]],[[1794,184],[-14,111]],[[1883,77],[-29,63]],[[1172,10],[139,124]],[[1312,135],[44,55]],[[1356,190],[4,4]],[[1359,194],[-3,-4]],[[1465,251],[-10,-7]],[[1456,244],[9,7]],[[1465,251],[55,49]],[[1549,377],[76,27]],[[1638,400],[-8,3]],[[747,309],[4,-12]],[[756,278],[16,-48]],[[2332,120],[0,1]],[[1520,300],[29,77]],[[1630,403],[-5,1]],[[439,0],[61,61],[68,-28]],[[588,27],[2,19]],[[649,18],[28,42],[-16,39]],[[694,102],[113,22]],[[772,230],[12,14]],[[800,249],[294,87]],[[1377,342],[-27,8]],[[1519,301],[-40,-38],[-85,66]],[[1549,378],[77,26]],[[1630,403],[24,-13]],[[1916,173],[10,39]],[[2023,155],[28,95],[87,31]],[[2138,282],[26,31],[114,5]],[[2434,366],[1,1]],[[2490,361],[-28,12]],[[2501,343],[2,5]],[[2721,320],[5,59],[240,84],[16,-79]],[[3018,377],[8,7]],[[3068,378],[-9,1]],[[3078,373]],[[3126,338],[-22,24]],[[3465,266],[-73,87],[-37,-23],[-40,42],[-55,-12]],[[3993,1681],[7,-56],[-62,0],[-138,-182],[-268,-56],[-66,-80],[-96,-23],[-74,-61],[4,-69]],[[3575,102],[-1,-1]],[[2723,317],[-2,3]],[[3552,62],[12,5]],[[3575,102],[28,10]],[[3607,119],[11,19]],[[3703,23],[-28,103],[-44,7]],[[1172,10],[-2,0],[0,-1],[1,-1],[1,2]],[[618,25],[1,0]],[[772,230],[23,-29]],[[784,244],[16,5]],[[791,150],[21,27]],[[1243,326],[14,-8]],[[1337,354],[-20,10]],[[1394,329],[-17,13]],[[1658,388],[-4,2]],[[1926,212],[-52,82],[-46,16],[-43,-39]],[[2418,351],[16,15]],[[2440,367],[-5,0]],[[2462,373],[-17,-6]],[[2503,348],[-13,13]],[[2686,302],[-1,1]],[[3014,381],[0,1]],[[3126,338],[72,-18]],[[3537,286],[10,-9]],[[3553,275],[17,-10]],[[1931,0],[26,30]],[[670,113],[42,19]],[[440,520],[-39,-35],[-85,12],[-108,-122],[-136,27],[-71,47]],[[2596,200],[-3,-3]],[[2594,197],[2,3]],[[2596,200],[50,65]],[[2653,272],[-7,-7]],[[2653,272],[29,19]],[[2682,291],[4,2]],[[2688,295],[-6,-4]],[[2692,298],[-2,-2]],[[2744,333],[78,15]],[[2822,348],[7,3]],[[2829,351],[186,29]],[[3015,381]],[[3049,390],[-33,-9]],[[3072,389],[-4,1]],[[3232,434]],[[3233,435]],[[3465,384],[42,-84]],[[3507,300],[2,0]],[[1665,400],[-2,23],[-149,90],[170,166]],[[2445,367],[-5,0]],[[3717,0],[20,5]],[[3737,5],[2,0]],[[3739,5],[-2,0]],[[1989,163],[0,1]],[[2568,54],[1,-1],[1,0],[0,2],[-2,-1]],[[1963,69],[1,3]],[[1966,42],[-3,27]],[[1964,72],[25,91]],[[3183,1078],[110,57]],[[3603,112],[1,-1]],[[3577,185],[-21,14]],[[3577,185],[7,-7]],[[3584,178],[-7,7]],[[2804,27],[-60,107],[12,57],[-32,94]],[[2863,355],[-14,3]],[[3160,73],[-170,10]],[[3159,384],[-6,5]],[[3165,54],[14,8]],[[3343,46],[-26,37]],[[3376,38],[-2,1]],[[3439,626],[29,21],[37,-15]],[[3464,27],[-6,6]],[[783,182],[4,2]],[[3994,1680],[-2,11]],[[3049,0],[73,158],[183,182]],[[3308,342],[161,208]],[[2872,342],[3,3]],[[2875,350],[1,5]],[[747,311],[0,-2]],[[751,297],[5,-19]],[[3436,836],[-280,232],[27,10]],[[3293,1135],[8,10]],[[3593,678],[-19,20]],[[3905,238],[-66,152]],[[4034,0],[-44,26]],[[1222,239],[-107,25]],[[1094,336],[39,13]],[[3704,7],[-1,16]],[[4096,1576],[-26,5],[-35,51],[-29,-10],[-12,58]],[[3800,1443],[-152,-38]],[[4096,1526],[-98,1],[-101,-70]],[[3993,1680],[-1,11]],[[4088,366],[-40,15]],[[4096,486],[-40,2]],[[4096,71],[-23,-27]],[[1779,307],[-115,87]],[[1851,165],[1,-21]],[[2019,89],[-35,3]],[[2052,56],[35,-13]],[[3994,1680],[-2,11]],[[2744,333],[3,3]],[[2828,353],[20,7]],[[2872,334],[49,-106]],[[3043,284],[-113,-53]],[[2966,94],[1,1]],[[2980,101],[10,-18]],[[3060,336],[1,1]],[[3061,336],[0,1]],[[3083,375],[-5,-2]],[[3104,362],[54,20]],[[3153,389],[2,1]],[[3179,62],[48,-22]],[[3233,45],[-9,16]],[[3229,433],[4,3]],[[3307,445],[-18,6]],[[3441,26],[-65,12]],[[3522,33],[-5,-21]],[[3372,419],[-1,-2]],[[3373,415],[2,3]],[[4096,1552],[-20,-36],[-78,11],[-101,-70],[-21,94],[64,75],[59,-1],[-6,56]],[[883,237],[1,1]],[[3810,0],[-1,1]],[[3631,133],[-13,5]],[[527,0],[27,24]],[[603,57],[56,44]],[[884,238],[59,27],[40,-14]],[[3543,53],[9,9]],[[3564,67],[1,2]],[[1709,379],[-1,-1]],[[1708,378],[1,1]],[[1778,320],[-21,53],[-48,6]],[[2448,113]],[[802,192],[-1,1]],[[4096,364],[-8,2]],[[3430,841],[-275,227],[28,10]],[[3285,1131],[10,16]],[[3591,679],[-4,3]],[[3900,247],[-60,139]],[[4031,0],[-41,22]],[[3183,1078],[102,53]],[[3156,390],[74,43]],[[3333,434],[-26,11]],[[3562,711],[-121,122]],[[3855,341],[-81,156],[-179,180]],[[3809,1],[1,-1]],[[989,252],[15,8]],[[3413,605],[2,-1]],[[3590,245],[-3,8]],[[3607,236]],[[3620,193]],[[3639,153],[9,37]],[[3562,711],[-121,122]],[[3855,341],[-81,156],[-179,180]],[[3809,1],[1,-1]],[[3246,61],[71,22]],[[568,33],[22,13]],[[661,99],[28,5]],[[812,177],[-11,9]],[[2699,304],[22,16]],[[1780,295],[-1,12]],[[1851,165],[-57,19]],[[1854,140],[-2,4]],[[1883,77],[59,-29],[42,44]],[[2051,56],[-24,31]],[[2090,32],[-3,11]],[[2522,333],[-5,4]],[[1233,329],[-81,19]],[[1257,318],[35,51],[25,-5]],[[886,108],[-65,58]],[[921,68],[-29,31]],[[3421,848],[101,-216]],[[3518,618],[-1,-2]],[[3284,1131],[-101,-53]],[[801,186],[1,6]],[[3436,836],[-280,232],[27,10]],[[3293,1135],[8,10]],[[3593,678],[-19,20]],[[3905,238],[-66,152]],[[4034,0],[-44,26]],[[787,185],[0,-1],[1,1],[-1,0]],[[4056,488],[-4,0]],[[3556,199],[-5,3]],[[4051,469],[1,19]],[[3430,841],[-275,227],[28,10]],[[3285,1131],[10,16]],[[3591,679],[-4,3]],[[3900,247],[-60,139]],[[4031,0],[-41,22]],[[1360,195],[0,-1]],[[1455,243],[-1,1]],[[4096,1552],[-20,-36],[-54,10],[49,65],[-36,41],[-35,-5],[-7,53]],[[3183,1078],[103,54]],[[2806,25],[118,19]],[[2724,285],[5,23]],[[2747,336],[81,17]],[[2849,358],[-1,2]],[[2863,355],[10,5]],[[2921,228],[9,3]],[[2946,76],[13,4]],[[2967,95],[13,6]],[[3043,284],[12,13]],[[3104,362],[-21,13]],[[3156,390],[-1,0]],[[3165,54],[-5,19]],[[3224,61],[6,4]],[[3227,40],[6,5]],[[3230,433],[-1,0]],[[3289,451],[-52,-13]],[[3307,445]],[[3333,434],[103,125],[-42,10],[21,35]],[[3517,12],[1,-12]],[[3522,33],[21,20]],[[3575,438],[-10,-17]],[[2121,26],[-28,5]],[[739,317]],[[1104,0],[15,5]],[[1120,6],[-1,0],[0,-1]],[[1119,5],[1,0],[0,1]],[[3574,101],[-9,-32]],[[3810,0],[-1,1]],[[3992,1691],[1,-10]],[[3183,1078],[110,57]],[[3300,1154],[1,-9]],[[3993,1681]],[[3993,1681],[6,-56],[-110,13],[-43,-26],[-144,22],[-89,-72],[-61,22]],[[3584,178],[5,-11]],[[3589,167],[-5,11]],[[3632,0],[-43,167]],[[3284,1131],[-101,-53]],[[3421,848],[101,-216]],[[3518,618],[-1,-2]],[[1788,248],[-10,72]],[[1794,189],[184,-23]],[[1978,166],[11,-3]],[[1989,164],[-11,2]],[[2072,153],[54,3]],[[2192,159],[-11,-1]],[[2181,157],[11,2]],[[2315,128],[-123,31]],[[2315,128],[27,-11]],[[2445,113],[-103,4]],[[2447,113],[-2,0]],[[2445,113],[2,0]],[[2448,114],[-1,0]],[[3469,550],[0,2]],[[1365,201],[-5,-5]],[[1361,195],[4,6]],[[1365,201],[79,35]],[[1444,236],[10,7]],[[1453,243],[-9,-7]],[[694,102],[-5,2]],[[2023,155],[-71,-14],[-36,32]],[[2696,302],[33,6]],[[3260,360],[-62,-40]],[[3465,266],[50,31],[22,-11]],[[830,102],[-23,22]],[[2721,320],[23,13]],[[1666,393],[-1,7]],[[3604,111],[3,8]],[[3698,0],[6,7]],[[3897,1457],[-16,80]],[[760,280],[-5,10]],[[3053,377],[6,2]],[[807,124],[-16,26]],[[3587,682],[-157,159]],[[3840,386],[-68,109],[-181,184]],[[3990,22],[-90,225]],[[841,704],[119,-63],[-288,-67],[-300,0],[-75,-20],[-140,-65],[-74,18],[-51,73],[17,73],[50,42],[44,-20],[698,29]],[[1538,679],[-57,-74],[-18,31],[0,15],[18,24],[-31,68],[73,65],[109,49],[77,20],[289,26],[81,-26],[0,-34],[-40,0],[-501,-164]],[[2418,1119],[160,-71],[-13,1],[-11,-6],[-9,-13],[-7,-19],[-104,36],[-51,32],[-6,33],[41,7]],[[3254,1219],[21,-29],[21,-47],[-26,15],[-38,45],[-25,10],[-29,-5],[-43,-23],[-18,-6],[-53,27],[-40,57],[-11,58],[34,26],[222,69],[109,8],[39,-77],[-66,-9],[-101,-45],[-54,-13],[0,-30],[33,-13],[25,-18]],[[4096,1783],[0,-47],[-459,-52],[108,54],[351,45]],[[4096,700],[0,-547],[-22,71],[-1,365],[13,83],[10,28]],[[3835,0],[-3623,0],[457,187],[105,76],[67,6],[195,101],[281,14],[317,11],[256,8],[31,-11],[51,-46],[28,-10],[25,8],[74,59],[433,128],[687,108],[288,-49],[60,-28],[50,-53],[98,-406],[16,-6],[70,-52],[6,-12],[14,-11],[14,-22]],[[1871,0],[-298,0],[-34,28],[-28,79],[77,130],[-118,109],[77,33],[22,-22],[-3,28],[62,20],[76,-84],[-2,-55],[81,30],[12,-118],[57,-34],[32,-68],[74,-44],[-28,-32],[-2,0],[7,18],[-38,33],[-22,-9],[5,-29],[-9,-13]],[[1424,704],[12,101],[61,52],[302,5],[294,40],[59,-18],[-15,-45],[-103,-71],[-36,23],[-99,-84],[-135,-46],[-93,31],[34,44],[-97,13],[-16,24],[-23,-20],[-45,40],[-11,-69],[61,-28],[1,-24],[6,24],[80,2],[18,-22],[-86,-81],[-97,-26],[-31,14],[-41,121]],[[0,603],[611,37],[150,-3],[11,-32],[628,171],[653,74],[330,241],[174,-47],[218,21],[173,145],[533,-408],[109,-123],[170,-56],[105,-312],[122,-223],[4,-83],[6,-5],[-165,0],[-12,15],[-100,67],[-41,238],[-40,60],[26,162],[-122,96],[-9,-66],[50,-28],[-105,17],[29,17],[-46,24],[54,-12],[7,19],[-51,14],[3,12],[47,-18],[1,32],[-62,2],[-51,-41],[-134,55],[-237,-34],[-382,-139],[-453,-69],[-111,-37],[-20,15],[8,-23],[-91,-68],[-172,107],[-146,-38],[3,18],[-65,16],[-115,-55],[-146,9],[33,45],[-40,-50],[-51,14],[-273,-56],[-8,8],[12,17],[-4,3],[-16,-34],[-104,-32],[-118,-6],[-42,43],[22,-38],[-53,-36],[-499,-245],[-203,0],[-5,603]],[[3805,0],[9,11],[7,-11],[-16,0]],[[4096,689],[0,-32],[-56,-234],[7,-186],[-50,-50],[-107,309],[-132,139],[-102,48],[-874,729],[3,778],[1218,263],[93,-12],[0,-1677],[-9,-13],[9,-62]],[[2995,1312],[11,-67],[24,-29],[87,-54],[-68,57],[78,8],[122,-55],[-1,-60],[57,29],[-10,27],[-128,47],[1,20],[-60,-4],[-4,61],[-49,33],[-35,-29],[-25,16]],[[3870,1693],[101,8],[31,-29],[54,27],[-34,35],[-152,-41]],[[3133,1317],[18,-34],[49,0],[-29,47],[-38,-13]],[[3111,1285],[31,-16],[1,2],[-28,17],[-4,-3]],[[3199,1342],[6,-1],[2,9],[-8,2],[0,-10]],[[3156,1254],[1,-4],[11,2],[-5,11],[-7,-9]],[[3209,1339],[7,-3],[3,3],[-7,5],[-3,-5]],[[1372,3379],[745,-2],[402,-501],[535,0],[170,-253],[-1124,-684],[-728,1440]],[[3829,0],[-291,0],[18,201],[32,144],[51,71],[76,-313],[114,-103]]]}