{"objects":{"water":{"type":"GeometryCollection","geometries":[{"type":"Polygon","properties":{"source":"naturalearthdata.com","kind":"ocean","area":1576712559132672,"sort_rank":200,"min_zoom":0.0,"id":1},"arcs":[[10],[11],[12]]},{"type":"MultiLineString","properties":{"source":"naturalearthdata.com","kind":"ocean","sort_rank":205,"boundary":true,"min_zoom":0.0,"id":19},"arcs":[[13],[14]]},{"type":"LineString","properties":{"source":"naturalearthdata.com","kind":"ocean","sort_rank":205,"boundary":true,"min_zoom":0.0,"id":3755},"arcs":[15]}]},"buildings":{"type":"GeometryCollection","geometries":[]},"places":{"type":"GeometryCollection","geometries":[]},"transit":{"type":"GeometryCollection","geometries":[]},"pois":{"type":"GeometryCollection","geometries":[{"type":"Point","properties":{"kind":"national_park","name:ro":"Parcul Na\u021bional Port-Cros","name:nl":"Nationaal Park Port-Cros","protect_class":"2","short_name":"PN de Port-Cros","area":37096900,"name:de":"Nationalpark Port-Cros","source":"openstreetmap.org","min_zoom":8.18,"name:en":"Port-Cros National Park","name:it":"Parco nazionale di Port-Cros","tier":1,"id":-1024502,"osm_relation":true,"name":"Parc national de Port-Cros (c\u0153ur)"},"coordinates":[2225,3837]}]},"boundaries":{"type":"GeometryCollection","geometries":[{"type":"LineString","properties":{"name:kg":"Fwalansa","name:ty":"Far\u0101ni","name:ka":"\u10e1\u10d0\u10e4\u10e0\u10d0\u10dc\u10d2\u10d4\u10d7\u10d8","name:ko":"\ud504\ub791\uc2a4","name:cv":"\u0424\u0440\u0430\u043d\u0446\u0438","name:cu":"\u0424\u0440\u0430\u043d\u043a\u0457\ua657","name:kl":"Frankrigi","name:cs":"Francie","name:ki":"Ubaranja","name:co":"Francia","name:kv":"\u0424\u0440\u0430\u043d\u0446\u0438\u044f","name:ku":"Fransa","name:ti":"\u1348\u1228\u1295\u1233\u12ed","name:ks":"\u0641\u0631\u065b\u0627\u0646\u0633","name:to":"Falanis\u0113","name:tl":"Pransiya","name:ce":"\u0424\u0440\u0430\u043d\u0446\u0438","name:ta":"\u0baa\u0bbf\u0bb0\u0bbe\u0ba9\u0bcd\u0b9a\u0bc1","name:tg":"\u0424\u0430\u0440\u043e\u043d\u0441\u0430","name:ca":"Fran\u00e7a","name:te":"\u0c2b\u0c4d\u0c30\u0c3e\u0c28\u0c4d\u0c38\u0c4d","name:cy":"Ffrainc","name:qu":"Ransiya","name:da":"Frankrig","name:de":"Frankreich","name:dz":"\u0f55\u0f62\u0f71\u0f53\u0f66\u0f72\u0f0b","source":"openstreetmap.org","name:kn":"\u0cab\u0ccd\u0cb0\u0cbe\u0ca8\u0ccd\u0cb8\u0ccd","name:dv":"\u078a\u07a6\u0783\u07a6\u0782\u07b0\u0790\u07ad\u0790\u07a8\u0788\u07a8\u078d\u07a7\u078c\u07b0","name:km":"\u1794\u17b6\u179a\u17b6\u17c6\u1784","name:lv":"Francija","name:lt":"Pranc\u016bzija","name:uz":"Fransiya","name:kk":"\u0424\u0440\u0430\u043d\u0446\u0438\u044f","name:ur":"\u0641\u0631\u0627\u0646\u0633","name:lb":"Frankr\u00e4ich","name:la":"Francia","name:lg":"Bufalansa","name:uk":"\u0424\u0440\u0430\u043d\u0446\u0456\u044f","name:ug":"\u0641\u0631\u0627\u0646\u0633\u0649\u064a\u06d5","name:li":"Frankriek","name:ln":"Falansia","name:lo":"\u0e9b\u0eb0\u0ec0\u0e97\u0e94\u0e9d\u0eb0\u0ea5\u0eb1\u0ec8\u0e87","name:el":"\u0393\u03b1\u03bb\u03bb\u03af\u03b1","name:eo":"Francujo","name":"France","name:tk":"Fransi\u00fda","name:th":"\u0e1b\u0e23\u0e30\u0e40\u0e17\u0e28\u0e1d\u0e23\u0e31\u0e48\u0e07\u0e40\u0e28\u0e2a","name:eu":"Frantzia","name:et":"Prantsusmaa","name:es":"Francia","name:ay":"Phransiya","name:rm":"Frantscha","name:rn":"Francia","name:az":"Fransa","name:ie":"Francia","name:id":"Perancis","name:ii":"\ua0d4\ua1e9","name:as":"\u09ab\u09cd\u09f0\u09be\u09a8\u09cd\u09b8","name:ar":"\u0641\u0631\u0646\u0633\u0627","name:io":"Francia","name:ak":"Fr\u025bnkyeman","name:am":"\u1348\u1228\u1295\u1223\u12ed","name:it":"Francia","name:an":"Francia","name:ru":"\u0424\u0440\u0430\u043d\u0446\u0438\u044f","name:rw":"Ubufaransa","name:af":"Frankryk","name:zu":"IFulansi","kind_detail":"2","name:za":"Fazgoz","name:zh-yue":"\u6cd5\u570b","name:zh":"\u6cd5\u570b","name:so":"Faransiiska","name:sm":"Farani","name:sl":"Francija","name:sk":"Franc\u00fazsko","name:ja":"\u30d5\u30e9\u30f3\u30b9","name:si":"\u0db4\u0dca\u200d\u0dbb\u0d82\u0dc1\u0dba","name:sh":"Francuska","name:sg":"Far\u00e2nzi","name:se":"Frankriika","name:sc":"Frantza","name:br":"Bro-C'hall","name:bs":"Francuska","name:bn":"\u09ab\u09cd\u09b0\u09be\u09a8\u09cd\u09b8","name:bo":"\u0f67\u0fa5\u0f0b\u0f62\u0f53\u0f0b\u0f66\u0f72\u0f0d","name:bi":"Franis","name:sw":"Ufaransa","name:be":"\u0424\u0440\u0430\u043d\u0446\u044b\u044f","name:su":"Perancis","name:bg":"\u0424\u0440\u0430\u043d\u0446\u0438\u044f","name:ss":"IFulansi","name:ba":"\u0424\u0440\u0430\u043d\u0446\u0438\u044f","name:sq":"Franca","name:jv":"Prancis","name:sa":"\u092b\u094d\u0930\u093e\u0928\u094d\u0938\u0926\u0947\u0936\u0903","name:ia":"Francia","name:pt":"Fran\u00e7a","name:ps":"\u0641\u0631\u0627\u0646\u0633\u0647","name:oc":"Fran\u00e7a","min_zoom":8.0,"name:ro":"Fran\u021ba","name:zh-min-nan":"Hoat-kok","name:os":"\u0424\u0440\u0430\u043d\u0446","name:or":"\u0b2b\u0b4d\u0b30\u0b3e\u0b28\u0b4d\u0b38","name:pl":"Francja","name:st":"Fora","sort_rank":262,"name:sr":"\u0424\u0440\u0430\u043d\u0446\u0443\u0441\u043a\u0430","osm_relation":true,"name:pa":"\u0a2b\u0a4d\u0a30\u0a3e\u0a02\u0a38","name:tr":"Fransa","name:hi":"\u092b\u093c\u094d\u0930\u093e\u0928\u094d\u0938","name:sv":"Frankrike","name:he":"\u05e6\u05e8\u05e4\u05ea","name:ha":"Faransa","name:hy":"\u0556\u0580\u0561\u0576\u057d\u056b\u0561","name:ht":"Frans","name:hu":"Franciaorsz\u00e1g","name:hr":"Francuska","kind":"country","name:is":"Frakkland","name:yi":"\u05e4\u05e8\u05d0\u05e0\u05e7\u05e8\u05d9\u05d9\u05da","name:yo":"Fr\u00e1ns\u00ec","name:mt":"Franza","alt_name:eo":"Francio","name:ms":"Perancis","name:mr":"\u092b\u094d\u0930\u093e\u0928\u094d\u0938","name:my":"\u1015\u103c\u1004\u103a\u101e\u1005\u103a\u1014\u102d\u102f\u1004\u103a\u1004\u1036","official_name":"R\u00e9publique fran\u00e7aise","name:kw":"Pow Frynk","name:mg":"Frantsa","name:vi":"Ph\u00e1p","name:ml":"\u0d2b\u0d4d\u0d30\u0d3e\u0d7b\u0d38\u0d4d","name:mn":"\u0424\u0440\u0430\u043d\u0446","name:mi":"W\u012bw\u012b","id":-2202162,"name:mk":"\u0424\u0440\u0430\u043d\u0446\u0438\u0458\u0430","name:vo":"Frans\u00e4n","name:fa":"\u0641\u0631\u0627\u0646\u0633\u0647","name:ff":"Faransi","name:fi":"Ranska","name:ky":"\u0424\u0440\u0430\u043d\u0446\u0438\u044f","name:fo":"Frakland","name:fy":"Frankryk","name:nl":"Frankrijk","name:nn":"Frankrike","name:no":"Frankrike","name:na":"Prant","name:ne":"\u092b\u094d\u0930\u093e\u0928\u094d\u0938","name:wo":"Faraas","name:nv":"D\u00e1\u00e1ghahii Din\u00e9\u02bci\u02bc Bik\u00e9yah","name:ga":"An Fhrainc","name:gd":"An Fhraing","name:gn":"Hy\u00e3sia","name:gl":"Francia","maritime_boundary":true,"name:gv":"Yn Rank","name:gu":"\u0aab\u0acd\u0ab0\u0abe\u0aa8\u0acd\u0ab8","name:tt":"\u0424\u0440\u0430\u043d\u0446\u0438\u044f"},"arcs":[0]},{"type":"MultiLineString","properties":{"name:pt":"Proven\u00e7a-Alpes-Costa Azul","name:ro":"Proven\u021ba - Alpi - Coasta de Azur","name:lt":"Provansas-Alp\u0117s-\u017dydrasis Krantas","name:oc":"Proven\u00e7a-Aups-C\u00f2sta d'Azur","kind":"region","min_zoom":8.0,"name:sl":"Provansa-Alpe-Azurna obala","name:it":"Provenza-Alpi-Costa Azzurra","name:uk":"\u041f\u0440\u043e\u0432\u0430\u043d\u0441-\u0410\u043b\u044c\u043f\u0438-\u041b\u0430\u0437\u0443\u0440\u043d\u0438\u0439 \u0431\u0435\u0440\u0435\u0433","name:ru":"\u041f\u0440\u043e\u0432\u0430\u043d\u0441-\u0410\u043b\u044c\u043f\u044b-\u041b\u0430\u0437\u0443\u0440\u043d\u044b\u0439 \u0411\u0435\u0440\u0435\u0433","name:be":"\u041f\u0440\u0430\u0432\u0430\u043d\u0441-\u0410\u043b\u044c\u043f\u044b-\u041b\u0430\u0437\u0443\u0440\u043d\u044b \u0431\u0435\u0440\u0430\u0433","id":-8654,"osm_relation":true,"name:eo":"Provenco-Alpoj-Bordo Lazura","name":"Provence-Alpes-C\u00f4te d'Azur","sort_rank":256,"kind_detail":"4","source":"openstreetmap.org","maritime_boundary":true,"name:ca":"Proven\u00e7a-Alps-Costa Blava","name:es":"Provenza-Alpes-Costa Azul"},"arcs":[[1],[2],[3],[4],[5]]},{"type":"LineString","properties":{"name:pt":"Proven\u00e7a-Alpes-Costa Azul","name:ro":"Proven\u021ba - Alpi - Coasta de Azur","name:lt":"Provansas-Alp\u0117s-\u017dydrasis Krantas","name:oc":"Proven\u00e7a-Aups-C\u00f2sta d'Azur","kind":"region","min_zoom":8.0,"name:sl":"Provansa-Alpe-Azurna obala","name:it":"Provenza-Alpi-Costa Azzurra","name:uk":"\u041f\u0440\u043e\u0432\u0430\u043d\u0441-\u0410\u043b\u044c\u043f\u0438-\u041b\u0430\u0437\u0443\u0440\u043d\u0438\u0439 \u0431\u0435\u0440\u0435\u0433","name:ru":"\u041f\u0440\u043e\u0432\u0430\u043d\u0441-\u0410\u043b\u044c\u043f\u044b-\u041b\u0430\u0437\u0443\u0440\u043d\u044b\u0439 \u0411\u0435\u0440\u0435\u0433","name:be":"\u041f\u0440\u0430\u0432\u0430\u043d\u0441-\u0410\u043b\u044c\u043f\u044b-\u041b\u0430\u0437\u0443\u0440\u043d\u044b \u0431\u0435\u0440\u0430\u0433","id":-8654,"osm_relation":true,"name:eo":"Provenco-Alpoj-Bordo Lazura","name":"Provence-Alpes-C\u00f4te d'Azur","sort_rank":256,"kind_detail":"4","source":"openstreetmap.org","maritime_boundary":true,"name:ca":"Proven\u00e7a-Alps-Costa Blava","name:es":"Provenza-Alpes-Costa Azul"},"arcs":[6]},{"type":"MultiLineString","properties":{"name:pt":"Proven\u00e7a-Alpes-Costa Azul","name:ro":"Proven\u021ba - Alpi - Coasta de Azur","name:lt":"Provansas-Alp\u0117s-\u017dydrasis Krantas","name:oc":"Proven\u00e7a-Aups-C\u00f2sta d'Azur","kind":"region","min_zoom":8.0,"name:sl":"Provansa-Alpe-Azurna obala","name:it":"Provenza-Alpi-Costa Azzurra","name:uk":"\u041f\u0440\u043e\u0432\u0430\u043d\u0441-\u0410\u043b\u044c\u043f\u0438-\u041b\u0430\u0437\u0443\u0440\u043d\u0438\u0439 \u0431\u0435\u0440\u0435\u0433","name:ru":"\u041f\u0440\u043e\u0432\u0430\u043d\u0441-\u0410\u043b\u044c\u043f\u044b-\u041b\u0430\u0437\u0443\u0440\u043d\u044b\u0439 \u0411\u0435\u0440\u0435\u0433","name:be":"\u041f\u0440\u0430\u0432\u0430\u043d\u0441-\u0410\u043b\u044c\u043f\u044b-\u041b\u0430\u0437\u0443\u0440\u043d\u044b \u0431\u0435\u0440\u0430\u0433","id":-8654,"osm_relation":true,"name:eo":"Provenco-Alpoj-Bordo Lazura","name":"Provence-Alpes-C\u00f4te d'Azur","sort_rank":256,"kind_detail":"4","source":"openstreetmap.org","maritime_boundary":true,"name:ca":"Proven\u00e7a-Alps-Costa Blava","name:es":"Provenza-Alpes-Costa Azul"},"arcs":[[7],[8],[9]]}]},"roads":{"type":"GeometryCollection","geometries":[{"type":"LineString","properties":{"sort_rank":355,"source":"openstreetmap.org","min_zoom":8.0,"name":"Toulon - Bastia","kind":"ferry"},"arcs":[16]},{"type":"LineString","properties":{"sort_rank":355,"source":"openstreetmap.org","min_zoom":8.0,"name":"Toulon - l'\u00cele Rousse","kind":"ferry"},"arcs":[17]},{"type":"LineString","properties":{"source":"openstreetmap.org","kind":"ferry","name":"Port Hyeres - Port Cros (TLV)","sort_rank":355,"landuse_kind":"national_park","min_zoom":8.0,"id":401725928},"arcs":[18]},{"type":"LineString","properties":{"source":"openstreetmap.org","kind":"ferry","name":"Toulon - Ajaccio","sort_rank":355,"min_zoom":8.0,"osm_relation":true,"id":-2398584},"arcs":[19]},{"type":"LineString","properties":{"source":"openstreetmap.org","kind":"ferry","name":"Marseille - \u0639\u0646\u0627\u0628\u0629","sort_rank":355,"min_zoom":8.0,"name:ar":"\u0645\u0631\u0633\u064a\u0644\u064a\u0627 - \u0639\u0646\u0627\u0628\u0629","name:fr":"Marseille - Annaba"},"arcs":[20]},{"type":"LineString","properties":{"source":"openstreetmap.org","kind":"ferry","name":"Port Hyeres - Port Cros (TLV)","sort_rank":355,"min_zoom":8.0,"id":401725928},"arcs":[21]},{"type":"LineString","properties":{"sort_rank":355,"source":"openstreetmap.org","min_zoom":8.0,"name":"Marseille - Bastia","kind":"ferry"},"arcs":[22]},{"type":"LineString","properties":{"source":"openstreetmap.org","kind":"ferry","name":"Le Lavandou - \u00cele de Port-Cros","sort_rank":355,"landuse_kind":"national_park","min_zoom":8.0,"id":37711842},"arcs":[23]},{"type":"LineString","properties":{"source":"openstreetmap.org","kind":"ferry","name":"Barcelona - Savona","sort_rank":355,"min_zoom":8.0,"osm_relation":true,"id":-5286138},"arcs":[24]},{"type":"LineString","properties":{"sort_rank":355,"source":"openstreetmap.org","kind":"ferry","min_zoom":8.0,"name":"Porto Vecchio - Marseille"},"arcs":[25]},{"type":"MultiLineString","properties":{"source":"openstreetmap.org","kind":"ferry","name":"\u00cele de Port-Cros - \u00cele du Levant","sort_rank":355,"landuse_kind":"national_park","min_zoom":8.0,"id":195302137},"arcs":[[26],[27]]},{"type":"LineString","properties":{"source":"openstreetmap.org","kind":"ferry","name":"Propriano - Marseille","sort_rank":355,"min_zoom":8.0,"osm_relation":true,"id":-2398585},"arcs":[28]},{"type":"LineString","properties":{"sort_rank":355,"source":"openstreetmap.org","min_zoom":8.0,"name":"Barcelona - Livorno","kind":"ferry"},"arcs":[29]},{"type":"LineString","properties":{"sort_rank":355,"source":"openstreetmap.org","min_zoom":8.0,"name":"Marseille - Propriano","kind":"ferry"},"arcs":[30]},{"type":"MultiLineString","properties":{"sort_rank":355,"source":"openstreetmap.org","min_zoom":8.0,"kind":"ferry"},"arcs":[[31],[32],[33]]},{"type":"LineString","properties":{"source":"openstreetmap.org","kind":"ferry","sort_rank":355,"landuse_kind":"urban_area","min_zoom":8.0,"id":300121959},"arcs":[34]},{"type":"LineString","properties":{"source":"openstreetmap.org","kind":"ferry","name":"Le Lavandou - \u00cele du Levant","sort_rank":355,"min_zoom":8.0,"id":229079154},"arcs":[35]},{"type":"LineString","properties":{"source":"openstreetmap.org","kind":"ferry","name":"\u062a\u0648\u0646\u0633\/\u062d\u0644\u0642 \u0627\u0644\u0648\u0627\u062f\u064a - Marseille","sort_rank":355,"name:ar":"\u062a\u0648\u0646\u0633\/\u062d\u0644\u0642 \u0627\u0644\u0648\u0627\u062f\u064a - \u0645\u0631\u0633\u064a\u0644\u064a\u0627","min_zoom":8.0,"name:fr":"Tunis\/La Goulette - Marseille"},"arcs":[36]},{"type":"LineString","properties":{"sort_rank":355,"source":"openstreetmap.org","min_zoom":8.0,"name":"Barcelona - Savona","kind":"ferry"},"arcs":[37]},{"type":"LineString","properties":{"source":"openstreetmap.org","kind":"ferry","name":"Marseille - Tunis\/La Goulette","sort_rank":355,"min_zoom":8.0,"osm_relation":true,"id":-2327848},"arcs":[38]},{"type":"LineString","properties":{"source":"openstreetmap.org","kind":"ferry","name":"Marseille - Bastia","sort_rank":355,"min_zoom":8.0,"osm_relation":true},"arcs":[39]},{"type":"LineString","properties":{"source":"openstreetmap.org","kind":"ferry","name":"Porto-Vecchio - Marseille","sort_rank":355,"min_zoom":8.0,"osm_relation":true,"id":-2398581},"arcs":[40]},{"type":"LineString","properties":{"source":"openstreetmap.org","kind":"ferry","name":"Tanger - Barcelona - Savona","sort_rank":355,"min_zoom":8.0,"osm_relation":true,"id":-5286144},"arcs":[41]},{"type":"LineString","properties":{"sort_rank":355,"source":"openstreetmap.org","min_zoom":8.0,"name":"Marseille - Porto Torres","kind":"ferry"},"arcs":[42]},{"type":"LineString","properties":{"sort_rank":355,"source":"openstreetmap.org","min_zoom":8.0,"name":"Marseille - L'\u00cele-Rousse","kind":"ferry"},"arcs":[43]},{"type":"LineString","properties":{"source":"openstreetmap.org","kind":"ferry","name":"Marseille - Ajaccio","sort_rank":355,"min_zoom":8.0,"osm_relation":true,"id":-2327847},"arcs":[44]},{"type":"LineString","properties":{"sort_rank":355,"source":"openstreetmap.org","min_zoom":8.0,"name":"Genova - Barcelona","kind":"ferry"},"arcs":[45]},{"type":"LineString","properties":{"sort_rank":355,"source":"openstreetmap.org","min_zoom":8.0,"name":"Ajaccio - Toulon","kind":"ferry"},"arcs":[46]},{"type":"LineString","properties":{"source":"openstreetmap.org","kind":"ferry","name":"Le Lavandou - \u00cele de Port-Cros","sort_rank":355,"min_zoom":8.0,"id":37711842},"arcs":[47]},{"type":"LineString","properties":{"source":"openstreetmap.org","kind":"ferry","name":"L'\u00cele Rousse - Marseille","sort_rank":355,"min_zoom":8.0,"osm_relation":true},"arcs":[48]},{"type":"MultiLineString","properties":{"source":"openstreetmap.org","kind":"ferry","name":"\u00cele de Port-Cros - \u00cele du Levant","sort_rank":355,"min_zoom":8.0,"id":195302137},"arcs":[[49],[50]]},{"type":"LineString","properties":{"sort_rank":355,"source":"openstreetmap.org","min_zoom":8.0,"name":"Marseille - Ajaccio","kind":"ferry"},"arcs":[51]}]},"earth":{"type":"GeometryCollection","geometries":[{"type":"MultiPolygon","properties":{"sort_rank":10,"source":"naturalearthdata.com","min_zoom":0.0,"kind":"earth","area":157477845},"arcs":[[[52]],[[53]],[[54]]]}]},"landuse":{"type":"GeometryCollection","geometries":[{"type":"MultiPolygon","properties":{"source":"naturalearthdata.com","kind":"urban_area","name":"","area":9435499520,"sort_rank":11,"min_zoom":4.0,"id":9229},"arcs":[[[55]],[[56]]]},{"type":"Polygon","properties":{"kind":"national_park","protect_class":"2","area":37096900,"sort_rank":18,"source":"openstreetmap.org","min_zoom":8.0,"tier":1,"id":-1024502,"osm_relation":true},"arcs":[[57]]},{"type":"Polygon","properties":{"kind":"military","area":22381000,"sort_rank":45,"source":"openstreetmap.org","min_zoom":8.0,"tier":3,"id":-6412567,"osm_relation":true},"arcs":[[58]]}]}},"type":"Topology","transform":{"translate":[5.625,42.0329743324],"scale":[0.0003433228,0.0002529086]},"arcs":[[[0,3444],[361,-193],[295,-49],[226,25],[500,-226],[152,-41],[195,-9],[664,52],[300,99],[276,160],[228,222],[502,612]],[[505,4096],[54,-23],[36,-53],[88,-15],[35,91]],[[728,4096],[1,0]],[[825,4096],[39,0]],[[920,4096],[19,0]],[[1469,4096],[1,-98],[-31,-20],[-73,6],[9,-52],[48,32],[62,4],[40,-41],[72,26],[-59,12],[-3,131]],[[488,4096],[4,0]],[[481,4096]],[[483,4096],[2,0]],[[485,4096],[1,0]],[[487,4096],[78,-61],[110,-34],[54,95],[1,0],[739,0],[8,-64],[-37,-30],[-48,-17],[-42,-24],[27,-14],[165,10],[75,9],[15,37],[-41,-12],[-54,23],[1,82],[2558,0],[0,-4096],[-4096,0],[0,4096],[487,0]],[[1827,3834],[-4,58],[-26,33],[-20,-13],[-5,-27],[-36,-2],[-8,2],[-9,-3],[-10,-12],[-26,-15],[-81,4],[-30,-15],[4,-22],[70,-37],[36,-12],[41,13],[40,19],[64,29]],[[2353,3862],[19,-3],[26,23],[53,18],[44,75],[25,24],[45,7],[3,22],[-15,17],[-35,-11],[-49,-10],[-27,-27],[-23,-44],[-61,-22],[-8,-30],[3,-39]],[[1538,4096],[-1,-82],[54,-23],[41,12],[-15,-37],[-75,-9],[-165,-10],[-27,14],[42,24],[48,17],[37,30],[-8,64]],[[730,4096],[-1,0],[-54,-95],[-110,34],[-78,61]],[[1777,3912],[-5,-27],[-36,-2],[-8,2],[-9,-3],[-10,-12],[-26,-15],[-81,4],[-30,-15],[4,-22],[70,-37],[36,-12],[41,13],[40,19],[64,29],[-4,58],[-26,33],[-20,-13]],[[1079,4096],[498,-399],[2519,78]],[[4096,3302],[-2523,386],[-505,408]],[[2142,3908],[62,-46]],[[1057,4096],[513,-417],[2526,-1587]],[[492,0],[-492,1621]],[[1643,4096],[499,-188]],[[320,4096],[1246,-425],[2530,84]],[[2198,3897],[6,-35]],[[0,2036],[4096,1904]],[[0,3962],[4096,-2716]],[[2204,3862],[20,43]],[[2273,3919],[42,-17]],[[4096,1591],[-4096,2425]],[[0,1906],[4096,1852]],[[4096,1591],[-4096,2425]],[[559,4040],[-120,56]],[[1675,3834],[-57,44],[-946,109],[-95,44]],[[1542,3932],[106,-56],[26,-39]],[[577,4031],[-18,9]],[[2269,4096],[88,-211]],[[0,2779],[1367,-2779]],[[0,2036],[4096,1904]],[[0,2779],[1367,-2779]],[[320,4096],[1246,-425],[2530,84]],[[0,3962],[4096,-2716]],[[0,2036],[4096,1904]],[[4096,43],[-4096,3734]],[[4096,3282],[-2534,380],[-1259,434]],[[4096,1744],[-4096,2297]],[[4096,3848],[-4096,-1877]],[[1057,4096],[513,-417],[2526,-1587]],[[2167,4096],[31,-199]],[[4096,3282],[-2534,380],[-1259,434]],[[2224,3905],[49,14]],[[2315,3902],[42,-17]],[[4096,1744],[-4096,2297]],[[1823,3892],[4,-58],[-64,-29],[-40,-19],[-41,-13],[-36,12],[-70,37],[-4,22],[30,15],[81,-4],[26,15],[10,12],[9,3],[8,-2],[36,2],[5,27],[20,13],[26,-33]],[[1538,4096],[-1,-82],[54,-23],[41,12],[-15,-37],[-75,-9],[-165,-10],[-27,14],[42,24],[48,17],[37,30],[-8,64],[69,0]],[[730,4096],[-1,0],[-54,-95],[-110,34],[-78,61],[243,0]],[[1538,4096],[-1,-82],[54,-23],[41,12],[-15,-37],[-267,-5],[127,71],[-8,64],[69,0]],[[730,4096],[-55,-95],[-110,34],[-78,61],[243,0]],[[2117,3859],[30,59],[51,-21],[90,27],[53,-43],[-96,-130],[-32,41],[-50,-2],[-46,69]],[[2352,3863],[103,145],[121,29],[9,-34],[-72,-26],[-42,-88],[-42,-15],[-21,21],[-40,-58],[-16,26]]]}