{"objects":{"water":{"type":"GeometryCollection","geometries":[{"type":"Polygon","properties":{"source":"naturalearthdata.com","kind":"ocean","area":1576712559132672,"sort_rank":200,"min_zoom":0.0,"id":1},"arcs":[[1],[2],[3]]},{"type":"LineString","properties":{"source":"naturalearthdata.com","kind":"ocean","sort_rank":205,"boundary":true,"min_zoom":0.0,"id":1380},"arcs":[4]},{"type":"LineString","properties":{"source":"naturalearthdata.com","kind":"ocean","sort_rank":205,"boundary":true,"min_zoom":0.0,"id":1382},"arcs":[5]}]},"buildings":{"type":"GeometryCollection","geometries":[]},"places":{"type":"GeometryCollection","geometries":[{"type":"Point","properties":{"name:mt":"Majotte","name:rn":"Mayote","name:az":"Mayot","name:mr":"\u092e\u093e\u092f\u094b\u091f\u094d\u091f\u0947","name:ko":"\ub9c8\uc694\ud2b8","name:kn":"\u0cae\u0caf\u0cca\u0c9f\u0ccd\u0c9f\u0cc6","name:km":"\u1798\u17c9\u17b6\u1799\u17bb\u178f","name:ar":"\u0645\u0627\u064a\u0648\u062a","name:bs":"Majote","min_zoom":4.0,"name:ti":"\u121c\u12ed\u12a6\u1274","name:am":"\u121c\u12ed\u12a6\u1274","name:to":"Meioti","name:ml":"\u0d2e\u0d2f\u0d4b\u0d1f\u0d4d\u0d1f\u0d4d","loc_name":"Maore","name:or":"\u0b2e\u0b3e\u0b5f\u0b4b\u0b1f\u0b47","name:pl":"Majotta","name:ta":"\u0bae\u0baf\u0bcb\u0ba4\u0bcd","id":249399460,"name:mk":"\u041c\u0430\u0458\u043e\u0442\u0435","name:te":"\u0c2e\u0c3e\u0c2f\u0c4a\u0c1f\u0c4d\u0c1f\u0c3f","name:fa":"\u0645\u0627\u06cc\u0648\u062a","name:ha":"Mayoti","name:lt":"Majotas","name:ff":"Mayoot","kind_detail":"state","kind":"region","name:lo":"\u0ea1\u0eb2\u0ea2\u0ead\u0e94","name:dz":"\u0f58\u0f7a\u0f0b\u0f61\u0f7c\u0f4a","source":"openstreetmap.org","name:zu":"i-Mayotte","name:zh":"\u9a6c\u7ea6\u7279","name:lv":"Majota","name:ja":"\u30de\u30e8\u30c3\u30c8","name:si":"\u0db8\u0dba\u0ddd\u0da7\u0dd2","name:hi":"\u092e\u0948\u092f\u091f","name:sg":"M\u00e4y\u00f4te","name:he":"\u05de\u05d0\u05d9\u05d5\u05d8","name:ne":"\u092e\u093e\u092f\u094b\u091f\u094d\u091f","name:ur":"\u0645\u0627\u06cc\u0648\u0679","name:bm":"Mayoti","name:bn":"\u09ae\u09be\u09af\u09bc\u09cb\u09a4\u09cd\u09a4\u09c7","name:uk":"\u041c\u0430\u0439\u043e\u0442\u0442\u0430","name:ru":"\u041c\u0430\u0439\u043e\u0442\u0442\u0430","name:be":"\u041c\u0430\u0451\u0442\u0430","name:bg":"\u041c\u0435\u0439\u043e\u0442","name:hr":"Majote","name:sr":"\u041c\u0430\u0458\u043e\u0442\u0435","population":217091,"name:el":"\u039c\u03b1\u03b3\u03b9\u03cc\u03c4","name:eo":"Majoto","name":"Mayotte","name:ee":"Mayotte nutome","name:mg":"May\u00f4ty","name:ln":"Mayot\u025b","name:th":"\u0e21\u0e32\u0e22\u0e2d\u0e15","name:gu":"\u0aae\u0ac7\u0aaf\u0acb\u0a9f","name:ak":"May\u0254te","name:ks":"\u0645\u064e\u06cc\u06cc\u0679","name:yo":"Or\u00edl\u1eb9\u0301\u00e8de Mayote"},"coordinates":[443,3293]},{"type":"Point","properties":{"source":"naturalearthdata.com","kind":"locality","name":"Dzaoudzi","population":32057,"min_zoom":7.0,"id":4817},"coordinates":[801,3400]},{"type":"Point","properties":{"admin_level":"8","kind":"locality","name":"Mamoudzou","name:lt":"Mamudzu","kind_detail":"town","name:he":"\u05de\u05d0\u05de\u05d5\u05d3\u05d6\u05d5","source":"openstreetmap.org","min_zoom":8.0,"name:uk":"\u041c\u0430\u043c\u0443\u0434\u0437\u0443","name:ru":"\u041c\u0430\u043c\u0443\u0434\u0437\u0443","id":246843429,"population":53122},"coordinates":[664,3420]},{"type":"Point","properties":{"kind":"locality","name":"Koungou","kind_detail":"town","source":"openstreetmap.org","min_zoom":8.0,"name:uk":"\u041a\u043e\u0435\u043d\u0433\u0443","id":1230942206,"population":19843},"coordinates":[602,3554]},{"type":"Point","properties":{"source":"openstreetmap.org","kind":"locality","name":"Sada","kind_detail":"town","population":10195,"min_zoom":8.0,"id":1230942239},"coordinates":[289,3206]},{"type":"Point","properties":{"source":"openstreetmap.org","kind":"locality","name":"Demb\u00e9ni","kind_detail":"town","population":10141,"min_zoom":8.0,"id":1230942207},"coordinates":[540,3232]},{"type":"Point","properties":{"kind":"locality","name":"Pamandzi","kind_detail":"town","source":"openstreetmap.org","min_zoom":8.0,"name:uk":"\u041f\u0430\u043c\u0430\u043d\u0434\u0437\u0456","id":1230942012,"population":9087},"coordinates":[797,3375]},{"type":"Point","properties":{"kind":"locality","name":"Bandr\u00e9l\u00e9","kind_detail":"town","source":"openstreetmap.org","min_zoom":8.0,"name:uk":"\u0411\u0430\u043d\u0434\u0440\u0435\u043b\u0435","name:pl":"Bandrele","id":1230942108,"population":6843},"coordinates":[568,3023]},{"type":"Point","properties":{"kind":"locality","name":"Chirongui","kind_detail":"town","source":"openstreetmap.org","min_zoom":8.0,"name:uk":"\u0428\u0438\u0440\u043e\u043d\u0433\u0456","id":1230942083,"population":6613},"coordinates":[435,2956]},{"type":"Point","properties":{"kind":"locality","name":"Chiconi","kind_detail":"town","source":"openstreetmap.org","min_zoom":8.0,"name:uk":"\u0428\u0438\u043a\u043e\u043d\u0456","id":1230942041,"population":6412},"coordinates":[329,3253]},{"type":"Point","properties":{"kind":"locality","name":"Bou\u00e9ni","kind_detail":"town","source":"openstreetmap.org","min_zoom":8.0,"name:uk":"\u0411\u0443\u0435\u043d\u0456","id":1230942078,"population":5298},"coordinates":[233,3030]},{"type":"Point","properties":{"kind":"locality","name":"Acoua","kind_detail":"town","source":"openstreetmap.org","min_zoom":8.0,"name:uk":"\u0410\u043a\u0443\u0430","id":1230942010,"population":4624},"coordinates":[171,3588]},{"type":"Point","properties":{"kind":"locality","name":"Kani-K\u00e9li","kind_detail":"town","source":"openstreetmap.org","min_zoom":8.0,"name:uk":"\u041a\u0430\u043d\u0456-\u041a\u0435\u043b\u0456","id":1230942110,"population":4528},"coordinates":[307,2893]},{"type":"Point","properties":{"kind":"locality","name":"Tsoundzou 1","kind_detail":"town","name:ar":"\u062a\u0633\u0648\u0646\u062f\u0632\u0648 \u0661","source":"openstreetmap.org","min_zoom":8.0,"id":1230942243,"population":4464},"coordinates":[601,3343]}]},"transit":{"type":"GeometryCollection","geometries":[]},"pois":{"type":"GeometryCollection","geometries":[{"type":"Point","properties":{"kind":"protected_area","protect_class":"5","area":72573000000,"name:ar":"\u0627\u0644\u0628\u062d\u0631\u064a\u0629 \u0628\u0627\u0631\u0643 \u0645\u0627\u064a\u0648\u062a","source":"openstreetmap.org","min_zoom":7.0,"tier":2,"id":-549575,"osm_relation":true,"name":"Parc naturel marin de Mayotte"},"coordinates":[2687,3238]}]},"boundaries":{"type":"GeometryCollection","geometries":[{"type":"LineString","properties":{"name:kg":"Fwalansa","name:ty":"Far\u0101ni","name:ka":"\u10e1\u10d0\u10e4\u10e0\u10d0\u10dc\u10d2\u10d4\u10d7\u10d8","name:ko":"\ud504\ub791\uc2a4","name:cv":"\u0424\u0440\u0430\u043d\u0446\u0438","name:cu":"\u0424\u0440\u0430\u043d\u043a\u0457\ua657","name:kl":"Frankrigi","name:cs":"Francie","name:ki":"Ubaranja","name:co":"Francia","name:kv":"\u0424\u0440\u0430\u043d\u0446\u0438\u044f","name:ku":"Fransa","name:ti":"\u1348\u1228\u1295\u1233\u12ed","name:ks":"\u0641\u0631\u065b\u0627\u0646\u0633","name:to":"Falanis\u0113","name:tl":"Pransiya","name:ce":"\u0424\u0440\u0430\u043d\u0446\u0438","name:ta":"\u0baa\u0bbf\u0bb0\u0bbe\u0ba9\u0bcd\u0b9a\u0bc1","name:tg":"\u0424\u0430\u0440\u043e\u043d\u0441\u0430","name:ca":"Fran\u00e7a","name:te":"\u0c2b\u0c4d\u0c30\u0c3e\u0c28\u0c4d\u0c38\u0c4d","name:cy":"Ffrainc","name:qu":"Ransiya","name:da":"Frankrig","name:de":"Frankreich","name:dz":"\u0f55\u0f62\u0f71\u0f53\u0f66\u0f72\u0f0b","source":"openstreetmap.org","name:kn":"\u0cab\u0ccd\u0cb0\u0cbe\u0ca8\u0ccd\u0cb8\u0ccd","name:dv":"\u078a\u07a6\u0783\u07a6\u0782\u07b0\u0790\u07ad\u0790\u07a8\u0788\u07a8\u078d\u07a7\u078c\u07b0","name:km":"\u1794\u17b6\u179a\u17b6\u17c6\u1784","name:lv":"Francija","name:lt":"Pranc\u016bzija","name:uz":"Fransiya","name:kk":"\u0424\u0440\u0430\u043d\u0446\u0438\u044f","name:ur":"\u0641\u0631\u0627\u0646\u0633","name:lb":"Frankr\u00e4ich","name:la":"Francia","name:lg":"Bufalansa","name:uk":"\u0424\u0440\u0430\u043d\u0446\u0456\u044f","name:ug":"\u0641\u0631\u0627\u0646\u0633\u0649\u064a\u06d5","name:li":"Frankriek","name:ln":"Falansia","name:lo":"\u0e9b\u0eb0\u0ec0\u0e97\u0e94\u0e9d\u0eb0\u0ea5\u0eb1\u0ec8\u0e87","name:el":"\u0393\u03b1\u03bb\u03bb\u03af\u03b1","name:eo":"Francujo","name":"France","name:tk":"Fransi\u00fda","name:th":"\u0e1b\u0e23\u0e30\u0e40\u0e17\u0e28\u0e1d\u0e23\u0e31\u0e48\u0e07\u0e40\u0e28\u0e2a","name:eu":"Frantzia","name:et":"Prantsusmaa","name:es":"Francia","name:ay":"Phransiya","name:rm":"Frantscha","name:rn":"Francia","name:az":"Fransa","name:ie":"Francia","name:id":"Perancis","name:ii":"\ua0d4\ua1e9","name:as":"\u09ab\u09cd\u09f0\u09be\u09a8\u09cd\u09b8","name:ar":"\u0641\u0631\u0646\u0633\u0627","name:io":"Francia","name:ak":"Fr\u025bnkyeman","name:am":"\u1348\u1228\u1295\u1223\u12ed","name:it":"Francia","name:an":"Francia","name:ru":"\u0424\u0440\u0430\u043d\u0446\u0438\u044f","name:rw":"Ubufaransa","name:af":"Frankryk","name:zu":"IFulansi","kind_detail":"2","name:za":"Fazgoz","name:zh-yue":"\u6cd5\u570b","name:zh":"\u6cd5\u570b","name:so":"Faransiiska","name:sm":"Farani","name:sl":"Francija","name:sk":"Franc\u00fazsko","name:ja":"\u30d5\u30e9\u30f3\u30b9","name:si":"\u0db4\u0dca\u200d\u0dbb\u0d82\u0dc1\u0dba","name:sh":"Francuska","name:sg":"Far\u00e2nzi","name:se":"Frankriika","name:sc":"Frantza","name:br":"Bro-C'hall","name:bs":"Francuska","name:bn":"\u09ab\u09cd\u09b0\u09be\u09a8\u09cd\u09b8","name:bo":"\u0f67\u0fa5\u0f0b\u0f62\u0f53\u0f0b\u0f66\u0f72\u0f0d","name:bi":"Franis","name:sw":"Ufaransa","name:be":"\u0424\u0440\u0430\u043d\u0446\u044b\u044f","name:su":"Perancis","name:bg":"\u0424\u0440\u0430\u043d\u0446\u0438\u044f","name:ss":"IFulansi","name:ba":"\u0424\u0440\u0430\u043d\u0446\u0438\u044f","name:sq":"Franca","name:jv":"Prancis","name:sa":"\u092b\u094d\u0930\u093e\u0928\u094d\u0938\u0926\u0947\u0936\u0903","name:ia":"Francia","name:pt":"Fran\u00e7a","name:ps":"\u0641\u0631\u0627\u0646\u0633\u0647","name:oc":"Fran\u00e7a","min_zoom":8.0,"name:ro":"Fran\u021ba","name:zh-min-nan":"Hoat-kok","name:os":"\u0424\u0440\u0430\u043d\u0446","name:or":"\u0b2b\u0b4d\u0b30\u0b3e\u0b28\u0b4d\u0b38","name:pl":"Francja","name:st":"Fora","sort_rank":262,"name:sr":"\u0424\u0440\u0430\u043d\u0446\u0443\u0441\u043a\u0430","osm_relation":true,"name:pa":"\u0a2b\u0a4d\u0a30\u0a3e\u0a02\u0a38","name:tr":"Fransa","name:hi":"\u092b\u093c\u094d\u0930\u093e\u0928\u094d\u0938","name:sv":"Frankrike","name:he":"\u05e6\u05e8\u05e4\u05ea","name:ha":"Faransa","name:hy":"\u0556\u0580\u0561\u0576\u057d\u056b\u0561","name:ht":"Frans","name:hu":"Franciaorsz\u00e1g","name:hr":"Francuska","kind":"country","name:is":"Frakkland","name:yi":"\u05e4\u05e8\u05d0\u05e0\u05e7\u05e8\u05d9\u05d9\u05da","name:yo":"Fr\u00e1ns\u00ec","name:mt":"Franza","alt_name:eo":"Francio","name:ms":"Perancis","name:mr":"\u092b\u094d\u0930\u093e\u0928\u094d\u0938","name:my":"\u1015\u103c\u1004\u103a\u101e\u1005\u103a\u1014\u102d\u102f\u1004\u103a\u1004\u1036","official_name":"R\u00e9publique fran\u00e7aise","name:kw":"Pow Frynk","name:mg":"Frantsa","name:vi":"Ph\u00e1p","name:ml":"\u0d2b\u0d4d\u0d30\u0d3e\u0d7b\u0d38\u0d4d","name:mn":"\u0424\u0440\u0430\u043d\u0446","name:mi":"W\u012bw\u012b","id":-2202162,"name:mk":"\u0424\u0440\u0430\u043d\u0446\u0438\u0458\u0430","name:vo":"Frans\u00e4n","name:fa":"\u0641\u0631\u0627\u0646\u0633\u0647","name:ff":"Faransi","name:fi":"Ranska","name:ky":"\u0424\u0440\u0430\u043d\u0446\u0438\u044f","name:fo":"Frakland","name:fy":"Frankryk","name:nl":"Frankrijk","name:nn":"Frankrike","name:no":"Frankrike","name:na":"Prant","name:ne":"\u092b\u094d\u0930\u093e\u0928\u094d\u0938","name:wo":"Faraas","name:nv":"D\u00e1\u00e1ghahii Din\u00e9\u02bci\u02bc Bik\u00e9yah","name:ga":"An Fhrainc","name:gd":"An Fhraing","name:gn":"Hy\u00e3sia","name:gl":"Francia","maritime_boundary":true,"name:gv":"Yn Rank","name:gu":"\u0aab\u0acd\u0ab0\u0abe\u0aa8\u0acd\u0ab8","name:tt":"\u0424\u0440\u0430\u043d\u0446\u0438\u044f"},"arcs":[0]}]},"roads":{"type":"GeometryCollection","geometries":[{"type":"LineString","properties":{"kind":"major_road","sort_rank":380,"landuse_kind":"protected_area","source":"openstreetmap.org","min_zoom":8.0,"kind_detail":"primary","ref":"N 2;D 3","id":32273881},"arcs":[6]},{"type":"MultiLineString","properties":{"sort_rank":380,"kind_detail":"primary","min_zoom":8.0,"kind":"major_road","source":"openstreetmap.org"},"arcs":[[7],[8]]},{"type":"MultiLineString","properties":{"source":"openstreetmap.org","kind":"major_road","landuse_kind":"protected_area","sort_rank":380,"kind_detail":"primary","ref":"N 3","min_zoom":8.0},"arcs":[[9],[10],[11]]},{"type":"MultiLineString","properties":{"source":"openstreetmap.org","kind":"major_road","landuse_kind":"protected_area","sort_rank":380,"kind_detail":"primary","ref":"N 2","min_zoom":8.0},"arcs":[[12],[13],[14],[15],[16],[17],[18],[19],[20],[21],[22],[23],[24],[25],[26],[27],[28],[29],[30],[31],[32],[33],[34],[35],[36],[37],[38],[39],[40],[41],[42]]},{"type":"MultiLineString","properties":{"source":"openstreetmap.org","kind":"major_road","sort_rank":380,"kind_detail":"primary","ref":"N 4","min_zoom":8.0},"arcs":[[43],[44],[45],[46],[47],[48],[49],[50],[51],[52],[53],[54],[55],[56],[57],[58],[59],[60],[61],[62],[63],[64]]},{"type":"MultiLineString","properties":{"source":"openstreetmap.org","kind":"major_road","landuse_kind":"protected_area","sort_rank":380,"kind_detail":"primary","ref":"N 4","min_zoom":8.0},"arcs":[[65],[66],[67],[68],[69]]},{"type":"LineString","properties":{"source":"openstreetmap.org","kind":"major_road","sort_rank":380,"kind_detail":"primary","ref":"N3","min_zoom":8.0},"arcs":[70]},{"type":"LineString","properties":{"source":"openstreetmap.org","kind":"major_road","sort_rank":380,"kind_detail":"primary","ref":"N 1;N 2","min_zoom":8.0,"id":32276659},"arcs":[71]},{"type":"LineString","properties":{"source":"openstreetmap.org","kind":"major_road","sort_rank":380,"kind_detail":"primary","ref":"N 4;CCD 15","min_zoom":8.0,"id":358948732},"arcs":[72]},{"type":"LineString","properties":{"source":"openstreetmap.org","kind":"ferry","name":"Barge Grande Terre - Petite Terre","sort_rank":355,"landuse_kind":"protected_area","min_zoom":8.0,"id":32392370},"arcs":[73]},{"type":"LineString","properties":{"source":"openstreetmap.org","kind":"major_road","sort_rank":380,"kind_detail":"primary","ref":"N 4;D 10","min_zoom":8.0,"id":110255768},"arcs":[74]},{"type":"LineString","properties":{"source":"openstreetmap.org","kind":"ferry","name":"Amphidrome Grande Terre - Petite Terre","sort_rank":355,"landuse_kind":"protected_area","min_zoom":8.0,"id":109863500},"arcs":[75]},{"type":"MultiLineString","properties":{"source":"openstreetmap.org","kind":"major_road","sort_rank":380,"kind_detail":"primary","ref":"N 3","min_zoom":8.0},"arcs":[[76],[77],[78],[79],[80],[81],[82],[83],[84],[85],[86]]},{"type":"MultiLineString","properties":{"source":"openstreetmap.org","kind":"major_road","sort_rank":380,"kind_detail":"primary","ref":"N 2","min_zoom":8.0},"arcs":[[87],[88],[89],[90],[91],[92],[93],[94],[95],[96],[97],[98],[99],[100],[101],[102],[103],[104],[105],[106],[107],[108],[109],[110],[111],[112],[113],[114],[115],[116],[117],[118],[119]]},{"type":"LineString","properties":{"source":"openstreetmap.org","kind":"major_road","sort_rank":380,"kind_detail":"primary","ref":"N1","min_zoom":8.0,"id":437446108},"arcs":[120]},{"type":"MultiLineString","properties":{"source":"openstreetmap.org","kind":"major_road","sort_rank":380,"kind_detail":"primary","ref":"N2","min_zoom":8.0},"arcs":[[121],[122]]}]},"earth":{"type":"GeometryCollection","geometries":[{"type":"MultiPolygon","properties":{"sort_rank":10,"source":"naturalearthdata.com","min_zoom":0.0,"kind":"earth","area":419928425},"arcs":[[[123]],[[124]]]}]},"landuse":{"type":"GeometryCollection","geometries":[{"type":"Polygon","properties":{"kind":"protected_area","protect_class":"5","area":71951493236,"sort_rank":17,"source":"openstreetmap.org","min_zoom":4.0,"tier":2,"osm_relation":true},"arcs":[[125],[126],[127],[128],[129],[130],[131],[132],[133],[134],[135],[136],[137],[138]]}]}},"type":"Topology","transform":{"translate":[45.0,-13.9234038977],"scale":[0.0003433228,0.0003341895]},"arcs":[[[0,2020],[229,-63],[347,8],[242,94],[293,210],[104,142],[58,135],[26,245],[118,243],[60,379],[-50,301],[-86,181],[-201,201]],[[4096,0],[-4096,0],[0,4096],[4096,0],[0,-4096]],[[384,2795],[36,11],[26,18],[20,3],[17,-32],[21,13],[15,12],[12,16],[12,20],[-53,74],[21,61],[47,56],[27,63],[10,17],[19,39],[7,41],[-53,33],[-18,35],[-2,35],[26,17],[68,102],[13,54],[0,41],[-21,35],[-49,33],[-50,15],[-91,-1],[-40,10],[-29,23],[-53,64],[-39,34],[-6,7],[-5,9],[-8,6],[-19,-1],[18,13],[7,4],[13,3],[-4,13],[-3,9],[-11,19],[-141,-153],[1,-47],[7,-34],[12,-27],[21,-27],[31,-20],[32,-11],[26,-18],[11,-42],[10,-87],[12,-44],[17,-25],[0,-21],[-19,-1],[-40,-17],[85,-73],[31,-35],[23,-37],[14,-49],[-7,-39],[-28,-14],[-49,29],[-52,62],[-17,11],[-33,-3],[-22,-14],[-8,-16],[55,-29],[26,-47],[-6,-49],[-52,-26],[0,-18],[42,4],[28,-14],[12,-29],[-4,-43],[28,13],[19,-9],[21,-16],[33,-9]],[[764,3471],[39,-124],[20,0],[17,49],[7,43],[-4,43],[-20,49],[-16,-12],[-43,-48]],[[764,3471],[39,-124],[20,0],[17,49],[7,43],[-4,43],[-20,49],[-16,-12],[-43,-48]],[[585,3592],[-50,15],[-91,-1],[-40,10],[-29,23],[-53,64],[-39,34],[-6,7],[-5,9],[-8,6],[-19,-1],[18,13],[7,4],[13,3],[-4,13],[-3,9],[-11,19],[-141,-153],[1,-47],[7,-34],[12,-27],[21,-27],[31,-20],[32,-11],[26,-18],[11,-42],[10,-87],[12,-44],[17,-25],[0,-21],[-19,-1],[-40,-17],[85,-73],[31,-35],[23,-37],[14,-49],[-7,-39],[-28,-14],[-49,29],[-52,62],[-17,11],[-33,-3],[-22,-14],[-8,-16],[55,-29],[26,-47],[-6,-49],[-52,-26],[0,-18],[42,4],[28,-14],[12,-29],[-4,-43],[28,13],[19,-9],[21,-16],[33,-9],[36,11],[26,18],[20,3],[17,-32],[21,13],[15,12],[12,16],[12,20],[-53,74],[21,61],[47,56],[27,63],[10,17],[19,39],[7,41],[-53,33],[-18,35],[-2,35],[26,17],[68,102],[13,54],[0,41],[-21,35],[-49,33]],[[623,3354],[-1,0],[0,-1],[1,0],[0,1]],[[678,3494],[1,-1]],[[651,3448],[0,-1],[0,1]],[[527,3245],[10,-11]],[[554,3012],[-27,-25]],[[565,3048],[-2,-6]],[[321,3228],[-14,-2]],[[566,3281],[-6,-13]],[[605,3342],[-14,-11]],[[614,3347],[0,1]],[[614,3348]],[[615,3348],[-1,0]],[[615,3348]],[[622,3353],[-7,-5]],[[622,3353]],[[622,3353]],[[623,3354]],[[623,3353],[0,1]],[[628,3359],[-5,-5]],[[628,3359],[1,13]],[[629,3372],[-1,-13]],[[629,3373],[0,-1]],[[630,3377],[-1,-4]],[[629,3372],[0,1]],[[630,3377],[1,1]],[[631,3378],[-1,-1]],[[631,3378],[1,0]],[[632,3378],[-1,0]],[[648,3389],[-16,-11]],[[676,3427],[-14,7]],[[683,3416],[-7,10]],[[615,3348],[-1,0],[1,0]],[[629,3372]],[[629,3372]],[[631,3378]],[[631,3378],[0,1],[0,-1]],[[675,3427],[0,-1],[1,1],[-1,0]],[[741,3412]],[[754,3410],[25,-17]],[[779,3393],[1,-1]],[[780,3392],[-1,1]],[[781,3392],[0,-1]],[[781,3391]],[[781,3391],[8,-8]],[[791,3381],[7,-7]],[[798,3374],[1,-1]],[[799,3373],[-1,1]],[[799,3373],[1,-1]],[[800,3372],[-1,1]],[[800,3372],[5,-5]],[[805,3367],[0,-1]],[[805,3366],[0,1]],[[805,3366]],[[805,3366]],[[805,3366]],[[805,3366]],[[805,3366],[19,-8]],[[824,3358],[1,1]],[[825,3360],[-1,-2]],[[741,3412],[6,3]],[[747,3415],[7,-5]],[[789,3383],[2,-2]],[[747,3415]],[[747,3415]],[[400,2945],[-2,0]],[[654,3434],[1,0],[-1,0]],[[799,3373]],[[678,3426],[73,-10]],[[781,3392],[-1,0],[1,-1],[0,1]],[[681,3433],[59,-21]],[[527,2987],[-28,-35],[-57,12],[-42,-19]],[[517,3252],[10,-7]],[[537,3234],[15,-6]],[[552,3228]],[[552,3228]],[[552,3228],[1,-1]],[[553,3227],[0,1]],[[553,3227],[24,-71],[52,-51],[-64,-57]],[[563,3042],[-9,-30]],[[553,3228],[-1,0]],[[552,3228],[1,0]],[[515,3251],[-111,8],[-83,-31]],[[515,3251],[2,1]],[[560,3268],[-20,-15],[-25,-2]],[[517,3252],[-1,0]],[[591,3331],[-25,-50]],[[614,3347],[-9,-5]],[[614,3347]],[[614,3348],[0,-1]],[[655,3396],[-7,-7]],[[655,3434],[1,0]],[[656,3434],[-1,0]],[[657,3401],[-2,-5]],[[662,3434],[-6,0]],[[657,3404],[0,-3]],[[657,3404],[1,0]],[[658,3405],[-1,-1]],[[659,3406],[-1,-1]],[[658,3405],[1,1]],[[663,3406],[-4,0]],[[664,3406],[-1,0]],[[663,3406],[1,0]],[[664,3406],[1,0]],[[665,3406],[-1,0]],[[682,3412],[-17,-6]],[[682,3412],[1,0]],[[683,3412],[-1,0]],[[684,3413],[-1,3]],[[658,3405]],[[658,3405]],[[664,3406]],[[664,3406]],[[684,3412],[0,1],[-1,0],[0,-1]],[[683,3412],[1,0]],[[515,3570]],[[327,3228],[-5,0]],[[684,3414],[-1,-1]],[[263,3771],[-18,-13],[19,1],[8,-6],[5,-9],[6,-7],[39,-34],[53,-64],[29,-23],[40,-10],[91,1],[50,-15],[49,-33],[21,-35],[0,-41],[-13,-54],[-68,-102],[-26,-17],[2,-35],[18,-35],[53,-33],[-7,-41],[-19,-39],[-10,-17],[-27,-63],[-47,-56],[-21,-61],[53,-74],[-12,-20],[-12,-16],[-15,-12],[-21,-13],[-17,32],[-20,-3],[-26,-18],[-36,-11],[-33,9],[-21,16],[-19,9],[-28,-13],[4,43],[-12,29],[-28,14],[-42,-4],[0,18],[52,26],[6,49],[-26,47],[-55,29],[8,16],[22,14],[33,3],[17,-11],[52,-62],[49,-29],[28,14],[7,39],[-14,49],[-23,37],[-31,35],[-85,73],[40,17],[19,1],[0,21],[-17,25],[-12,44],[-10,87],[-11,42],[-26,18],[-32,11],[-31,20],[-21,27],[-12,27],[-7,34],[-1,47],[141,153],[11,-19],[3,-9],[4,-13],[-13,-3],[-7,-4]],[[823,3347],[-20,0],[-39,124],[43,48],[16,12],[20,-49],[4,-43],[-7,-43],[-17,-49]],[[4096,720],[-51,-175],[-396,-545],[-3649,0],[0,4096],[4096,0],[0,-3376]],[[116,3594],[52,-14],[-44,-51],[26,-36],[25,16],[49,-47],[74,0],[-1,-42],[-6,-1],[-5,-6],[-8,-5],[-3,1],[-2,-1],[12,-24],[33,4],[13,-18],[-39,-2],[18,-65],[-16,-43],[59,-17],[-83,-38],[135,-114],[47,-96],[-53,-47],[-91,45],[-19,73],[-82,-1],[47,-92],[31,15],[19,-24],[-27,-61],[-47,-28],[40,-12],[46,28],[-9,-90],[10,-20],[15,36],[32,6],[4,-47],[29,19],[37,-31],[33,81],[34,-18],[11,-49],[17,34],[36,-12],[30,39],[-80,27],[-22,68],[30,-2],[-10,33],[30,46],[15,1],[25,-10],[14,0],[-36,43],[72,59],[14,42],[-26,-3],[-51,84],[-33,6],[-14,10],[53,26],[-16,-1],[-1,4],[39,53],[-19,18],[33,-1],[12,37],[69,28],[-36,31],[14,37],[-2,-33],[14,0],[7,59],[-69,38],[3,25],[-109,7],[-31,37],[-33,-57],[-19,25],[-22,-19],[-45,22],[-11,14],[17,-2],[10,3],[1,2],[-25,47],[23,16],[-46,14],[-41,47],[13,11],[-48,18],[49,25],[-10,8],[15,20],[-6,6],[-36,-19],[-34,-73],[-42,1],[18,-32],[-31,-30],[-31,6],[-34,-67]],[[739,3413],[51,-31],[48,-72],[-9,41],[45,57],[-41,74],[-38,-78],[-56,9]],[[669,3065],[6,-8],[7,16],[-8,4],[-5,-12]],[[672,3321],[25,-2],[-11,29],[-12,-8],[-2,-19]],[[53,3828],[39,-36],[30,25],[-44,33],[-25,-22]],[[405,2998],[8,-3],[3,14],[-5,1],[-6,-12]],[[727,3446],[6,0],[3,7],[-2,0],[-7,-7]],[[323,3734],[5,-3],[17,0],[-14,10],[-8,-7]],[[398,2751],[3,-4],[2,13],[-4,-5],[-1,-4]],[[576,2965],[8,-5],[5,-3],[0,6],[-13,2]],[[161,3730],[12,-1],[2,6],[-9,-1],[-5,-4]],[[774,3420],[4,-4],[7,5],[-7,3],[-4,-4]],[[660,2702],[3,-2],[13,5],[-13,6],[-3,-9]]]}