{"objects":{"water":{"type":"GeometryCollection","geometries":[]},"buildings":{"type":"GeometryCollection","geometries":[]},"places":{"type":"GeometryCollection","geometries":[{"type":"Point","properties":{"name:sl":"\u010ce\u010denija","name:nl":"Tsjetsjeni\u00eb","name:he":"\u05e6'\u05e6'\u05e0\u05d9\u05d4","kind":"region","official_name":"\u0427\u0435\u0447\u0435\u043d\u0441\u043a\u0430\u044f \u0440\u0435\u0441\u043f\u0443\u0431\u043b\u0438\u043a\u0430","min_zoom":4.0,"name:be":"\u0427\u0430\u0447\u043d\u044f","name:ce":"\u041d\u043e\u0445\u0447\u0438\u0439\u0447\u043e\u044c","name:hu":"Csecsenf\u00f6ld","id":869593771,"name:eo":"\u0108e\u0109enio","name:en":"Chechnya","name":"\u0427\u0435\u0447\u043d\u044f","kind_detail":"state","name:da":"Tjetjenien","name:ku":"\u00c7e\u00e7enistan","name:de":"Tschetschenien","source":"openstreetmap.org","name:fr":"Tch\u00e9tch\u00e9nie","name:et":"T\u0161et\u0161eeni Vabariik","name:zh":"\u8f66\u81e3\u5171\u548c\u56fd","name:es":"Chechenia"},"coordinates":[2035,1322]},{"type":"Point","properties":{"admin_level":"4","name:sr":"\u0413\u0440\u043e\u0437\u043d\u0438","name:az":"Qrozn\u0131","name:nl":"Grozny","name:ka":"\u10d2\u10e0\u10dd\u10d6\u10dc\u10dd","name:uz":"Grozniy","name:av":"\u0421\u0443\u043d\u0436-\u0445\u044a\u0430\u043b\u0430","min_zoom":8.0,"int_name":"Grozny","name:uk":"\u0413\u0440\u043e\u0437\u043d\u0438\u0439","name:hy":"\u0533\u0580\u0578\u0566\u0576\u056b","name:os":"\u0413\u0440\u043e\u0437\u043d\u0430","name:sv":"Groznyj","name:ce":"\u0421\u043e\u044c\u043b\u0436\u0430-\u0413\u04c0\u0430\u043b\u0430","name:de":"Grosny","name":"\u0413\u0440\u043e\u0437\u043d\u044b\u0439","name:pl":"Grozny","name:ca":"Grozni","population":283659,"kind":"locality","name:en":"Grozny","name:lt":"Groznas","kind_detail":"city","name:ku":"Grosn\u00ee","id":1522654732,"source":"openstreetmap.org","name:fr":"Grozny","name:zh":"\u683c\u7f57\u5179\u5c3c","name:es":"Grozni"},"coordinates":[2036,997]},{"type":"Point","properties":{"min_zoom":8.0,"old_name:en":"Ordzhonikidzevskaya","old_name":"\u041e\u0440\u0434\u0436\u043e\u043d\u0438\u043a\u0438\u0434\u0437\u0435\u0432\u0441\u043a\u0430\u044f","name:ce":"\u0421\u0438\u043f\u0441\u043e-\u0413\u04c0\u0430\u043b\u0430","id":1434486549,"population":64493,"kind":"locality","name:en":"Sunzha","old_name:de":"Ordschonikidsewskaja","name":"\u0421\u0443\u043d\u0436\u0430","old_name:pl":"Ord\u017conikidzewskaja","kind_detail":"town","old_name:ru":"\u041e\u0440\u0434\u0436\u043e\u043d\u0438\u043a\u0438\u0434\u0437\u0435\u0432\u0441\u043a\u0430\u044f","old_name:ce":"\u041e\u0440\u0434\u0436\u043e\u043d\u0438\u043a\u0438\u0434\u0437\u0435\u0432\u0441\u043a\u0438","name:de":"Sunscha","source":"openstreetmap.org"},"coordinates":[147,984]},{"type":"Point","properties":{"name:nl":"Oeroes-Martan","name:ko":"\uc6b0\ub8e8\uc2a4\ub9c8\ub974\ud0c4","name:ar":"\u0623\u0648\u0631\u0648\u0633-\u0645\u0627\u0631\u062a\u0627\u0646","name:tt":"\u0423\u0440\u044b\u0441-\u041c\u0430\u0440\u0442\u0430\u043d","min_zoom":8.0,"name:sv":"Urus-Martan","name:ce":"\u0425\u044c\u0430\u043b\u0445\u0430-\u041c\u0430\u0440\u0442\u0430","id":2457002805,"name:ca":"Ur\u00fas-Martan","population":55783,"kind":"locality","name:en":"Urus-Martan","name":"\u0423\u0440\u0443\u0441-\u041c\u0430\u0440\u0442\u0430\u043d","kind_detail":"town","name:de":"Urus-Martan","source":"openstreetmap.org","name:fr":"Ourous-Martan","name:pl":"Urus-Martan","name:zh":"\u70cf\u9b6f\u65af-\u99ac\u723e\u5766","name:es":"Ur\u00fas-Mart\u00e1n"},"coordinates":[1568,258]},{"type":"Point","properties":{"kind":"locality","name:en":"Shali","name":"\u0428\u0430\u043b\u0438","kind_detail":"town","name:de":"Schali","source":"openstreetmap.org","min_zoom":8.0,"int_name":"Shali","name:ce":"\u0428\u0435\u043b\u0430","id":287704409,"population":51268},"coordinates":[2641,342]},{"type":"Point","properties":{"int_name":"Gudermes","name:ka":"\u10d2\u10e3\u10d3\u10d4\u10e0\u10db\u10d4\u10e1\u10d8","name:tr":"Gudermes","name:ar":"\u063a\u0648\u062f\u064a\u0631\u0645\u064a\u0633","min_zoom":8.0,"name:hy":"\u0533\u0578\u0582\u0564\u0565\u0580\u0574\u0565\u057d","name:ce":"\u0413\u0443\u044c\u043c\u0441\u0435","id":287703730,"population":51215,"name:fa":"\u06af\u0648\u062f\u0631\u0645\u0633","kind":"locality","name:en":"Gudermes","name":"\u0413\u0443\u0434\u0435\u0440\u043c\u0435\u0441","kind_detail":"town","name:de":"Gudermes","source":"openstreetmap.org","name:fr":"Goudermes","name:pl":"Gudermes","name:et":"Gudermess","name:es":"Guderm\u00e9s"},"coordinates":[3192,1106]},{"type":"Point","properties":{"kind":"locality","name:en":"Argun","name":"\u0410\u0440\u0433\u0443\u043d","name:lt":"Argunas","kind_detail":"town","name:de":"Argun","source":"openstreetmap.org","min_zoom":8.0,"int_name":"Argun","name:ce":"\u041e\u0440\u0433\u0430","id":287702846,"name:es":"Arg\u00fan","population":34078},"coordinates":[2531,909]},{"type":"Point","properties":{"kind":"locality","name:en":"Kurchaloy","name":"\u041a\u0443\u0440\u0447\u0430\u043b\u043e\u0439","kind_detail":"town","name:de":"Kurtschaloi","source":"openstreetmap.org","min_zoom":8.0,"name:ce":"\u041a\u0443\u0440\u0447\u0430\u043b\u043e\u0439-\u042d\u0432\u043b\u0430","id":1433086453,"population":23610},"coordinates":[3177,527]},{"type":"Point","properties":{"name:ce":"\u0413\u04c0\u0430\u0436\u0430\u0440\u0438\u0439\u043d-\u042e\u0440\u0442","kind":"locality","name:en":"Nesterovskaya","name":"\u041d\u0435\u0441\u0442\u0435\u0440\u043e\u0432\u0441\u043a\u0430\u044f","kind_detail":"town","name:de":"Nesterowskaja","source":"openstreetmap.org","min_zoom":8.0,"name:uk":"\u041d\u0435\u0441\u0442\u0435\u0440\u043e\u0432\u0441\u044c\u043a\u0430","name:hy":"\u0546\u0565\u057d\u057f\u0565\u0580\u0578\u057e\u057d\u056f\u0561\u0575\u0561","name:pl":"Niestierowskaja","id":1434536116,"population":22938},"coordinates":[138,684]},{"type":"Point","properties":{"kind":"locality","name:en":"Achkhoy-Martan","name":"\u0410\u0447\u0445\u043e\u0439-\u041c\u0430\u0440\u0442\u0430\u043d","kind_detail":"town","name:de":"Atschchoi-Martan","source":"openstreetmap.org","min_zoom":8.0,"name:ce":"\u0422\u04c0\u0435\u0445\u044c\u0430-\u041c\u0430\u0440\u0442\u0430","id":391281814,"population":21000},"coordinates":[839,498]},{"type":"Point","properties":{"kind":"locality","name:en":"Bachi-Yurt","name":"\u0411\u0430\u0447\u0438-\u042e\u0440\u0442","kind_detail":"town","name:de":"Batschi-Jurt","source":"openstreetmap.org","min_zoom":8.0,"name:ce":"\u0411\u04c0\u0430\u0447\u0438-\u042e\u0440\u0442","id":2334011640,"population":16485},"coordinates":[3486,601]},{"type":"Point","properties":{"kind":"locality","name:en":"Goyty","name":"\u0413\u043e\u0439\u0442\u044b","kind_detail":"town","name:de":"Goity","source":"openstreetmap.org","min_zoom":8.0,"name:ce":"\u0413\u04c0\u043e\u0439\u0442\u04c0\u0430","id":2087074951,"population":16177},"coordinates":[1811,383]},{"type":"Point","properties":{"name:ce":"\u042d\u0432\u0442\u0430\u0440\u0430","kind":"locality","name:en":"Avtury","name":"\u0410\u0432\u0442\u0443\u0440\u044b","kind_detail":"town","name:de":"Awtury","source":"openstreetmap.org","min_zoom":8.0,"name:pl":"Awtury","id":1762134763,"population":16044},"coordinates":[2914,386]},{"type":"Point","properties":{"kind":"locality","name:en":"Katar-Yurt","name":"\u041a\u0430\u0442\u0430\u0440-\u042e\u0440\u0442","kind_detail":"town","name:de":"Katar-Jurt","source":"openstreetmap.org","min_zoom":8.0,"old_name":"\u041a\u0430\u0442\u044b\u0440-\u042e\u0440\u0442","name:ce":"\u041a\u043e\u0442\u0430\u0440-\u042e\u0440\u0442","id":966569497,"population":12806},"coordinates":[1077,402]},{"type":"Point","properties":{"kind":"locality","name:en":"Gekhi","name":"\u0413\u0435\u0445\u0438","kind_detail":"town","name:de":"Gechi","source":"openstreetmap.org","min_zoom":8.0,"name:ce":"\u0413\u0438\u0445\u0442I\u0430","id":966568030,"population":12671},"coordinates":[1375,391]},{"type":"Point","properties":{"kind":"locality","name:en":"Mayrtup","name":"\u041c\u0430\u0439\u0440\u0442\u0443\u043f","kind_detail":"town","name:de":"Mairtup","source":"openstreetmap.org","min_zoom":8.0,"id":1817306975,"population":11838},"coordinates":[3295,542]},{"type":"Point","properties":{"kind":"locality","name:en":"Shelkovskaya","name":"\u0428\u0435\u043b\u043a\u043e\u0432\u0441\u043a\u0430\u044f","kind_detail":"town","name:de":"Schelkowskaja","source":"openstreetmap.org","min_zoom":8.0,"name:uk":"\u0428\u0435\u043b\u043a\u043e\u0432\u0441\u044c\u043a\u0430","name:ce":"\u0428\u0435\u043b\u043a\u043e\u0432\u0441\u043a\u0438","id":1433086458,"population":11679},"coordinates":[3884,1758]},{"type":"Point","properties":{"kind":"locality","name:en":"Starye Atagi","name":"\u0421\u0442\u0430\u0440\u044b\u0435 \u0410\u0442\u0430\u0433\u0438","kind_detail":"town","name:de":"Staryje Atagi","source":"openstreetmap.org","min_zoom":8.0,"name:ce":"\u0419\u043e\u043a\u043a\u0445\u0430 \u0410\u0442\u0430\u0433\u04c0\u0430","id":1427869172,"population":11500},"coordinates":[2155,200]},{"type":"Point","properties":{"kind":"locality","name:en":"Samashki","name":"\u0421\u0430\u043c\u0430\u0448\u043a\u0438","kind_detail":"town","name:de":"Samaschki","source":"openstreetmap.org","min_zoom":8.0,"name:ce":"\u0421\u0435\u043c\u0430\u04c0\u0430\u0448\u043a\u0430","id":1434470983,"population":11275},"coordinates":[866,887]},{"type":"Point","properties":{"kind":"locality","name:en":"Oyskhara","name":"\u041e\u0439\u0441\u0445\u0430\u0440\u0430","kind_detail":"town","name:de":"Oischara","source":"openstreetmap.org","min_zoom":8.0,"name:ce":"\u041e\u0439\u0441\u0445\u0430\u0440","id":2334011641,"population":11267},"coordinates":[3650,795]},{"type":"Point","properties":{"kind":"locality","name:en":"Germenchuk","name":"\u0413\u0435\u0440\u043c\u0435\u043d\u0447\u0443\u043a","kind_detail":"town","name:de":"Germentschuk","source":"openstreetmap.org","min_zoom":8.0,"name:ce":"\u0413\u0435\u0440\u043c\u0430\u0447\u0438\u0433","id":2728880655,"population":11234},"coordinates":[2682,480]},{"type":"Point","properties":{"kind":"locality","name:en":"Alleroy","name":"\u0410\u043b\u043b\u0435\u0440\u043e\u0439","kind_detail":"town","name:de":"Alleroi","source":"openstreetmap.org","min_zoom":8.0,"name:ce":"I\u0430\u043b\u043b\u0430\u0440\u043e\u0439","id":2334011639,"population":11132},"coordinates":[3737,594]},{"type":"Point","properties":{"kind":"locality","name:en":"Alkhan-Yurt","name":"\u0410\u043b\u0445\u0430\u043d-\u042e\u0440\u0442","kind_detail":"town","name:de":"Alchan-Jurt","source":"openstreetmap.org","min_zoom":8.0,"name:ce":"\u04c0\u0430\u043b\u0445\u0430\u043d-\u042e\u0440\u0442","id":966570828,"population":11100},"coordinates":[1653,642]},{"type":"Point","properties":{"kind":"locality","name:en":"Mesker-Yurt","name":"\u041c\u0435\u0441\u043a\u0435\u0440-\u042e\u0440\u0442","kind_detail":"town","name:de":"Mesker-Jurt","source":"openstreetmap.org","min_zoom":8.0,"name:ce":"\u041c\u0435\u0441\u043a\u0430\u0440-\u042d\u0432\u043b\u0430","id":2728880685,"population":10843},"coordinates":[2648,732]},{"type":"Point","properties":{"kind":"locality","name:en":"Znamenskoye","name":"\u0417\u043d\u0430\u043c\u0435\u043d\u0441\u043a\u043e\u0435","name:lt":"Znamenskoj\u0117","kind_detail":"town","name:de":"Snamenskoje","source":"openstreetmap.org","min_zoom":8.0,"name:uk":"\u0417\u043d\u0430\u043c\u0435\u043d\u0441\u044c\u043a\u0435","name:ce":"\u0427\u04c0\u0443\u044c\u043b\u0433\u0430-\u042e\u0440\u0442","id":846770282,"population":10828},"coordinates":[375,2446]},{"type":"Point","properties":{"kind":"locality","name:en":"Chervlyonnaya","name":"\u0427\u0435\u0440\u0432\u043b\u0451\u043d\u043d\u0430\u044f","kind_detail":"town","name:de":"Tscherwljonnaja","source":"openstreetmap.org","min_zoom":8.0,"name:ce":"\u041e\u044c\u0440\u0437\u0430-\u0413\u04c0\u0430\u043b\u0430","id":1363368756,"population":10431},"coordinates":[2593,1722]},{"type":"Point","properties":{"kind":"locality","name:en":"Assinovskaya","name":"\u0410\u0441\u0441\u0438\u043d\u043e\u0432\u0441\u043a\u0430\u044f","kind_detail":"town","name:de":"Assinowskaja","source":"openstreetmap.org","min_zoom":8.0,"name:ce":"\u042d\u0445\u0430-\u0411\u043e\u0440\u0437\u0435","id":1434493614,"population":10248},"coordinates":[525,682]},{"type":"Point","properties":{"source":"openstreetmap.org","kind":"locality","name":"\u0413\u0438\u043a\u0430\u043b\u043e","kind_detail":"town","population":9426,"min_zoom":8.0,"id":1427864796},"coordinates":[2146,635]},{"type":"Point","properties":{"kind":"locality","name:en":"Naurskaya","name":"\u041d\u0430\u0443\u0440\u0441\u043a\u0430\u044f","kind_detail":"town","alt_name:ce":"\u041d\u043e\u0432\u0440-\u0433I\u0430\u043b\u0430","name:de":"Naurskaja","source":"openstreetmap.org","min_zoom":8.0,"name:uk":"\u041d\u0430\u0443\u0440\u0441\u044c\u043a\u0430","name:hy":"\u0546\u0561\u0578\u0582\u0580\u057d\u056f\u0561\u0575\u0561","name:ce":"\u041d\u0435\u0432\u0440\u0435","id":1433086456,"population":9377},"coordinates":[908,2339]},{"type":"Point","properties":{"kind":"locality","name:en":"Novye Atagi","name":"\u041d\u043e\u0432\u044b\u0435 \u0410\u0442\u0430\u0433\u0438","kind_detail":"town","name:de":"Nowyje Atagi","source":"openstreetmap.org","min_zoom":8.0,"name:ce":"\u0416\u0438\u043c\u0430 \u0410\u0442\u0430\u0433I\u0430","id":1427869182,"population":9068},"coordinates":[2243,240]},{"type":"Point","properties":{"kind":"locality","name:en":"Valerik","name":"\u0412\u0430\u043b\u0435\u0440\u0438\u043a","kind_detail":"town","source":"openstreetmap.org","min_zoom":8.0,"name:ce":"\u0412\u0430\u043b\u0430\u0440\u0433\u0442\u04c0\u0435","id":966569495,"population":9000},"coordinates":[1189,442]},{"type":"Point","properties":{"kind":"locality","name:en":"Nadterechnoye","name":"\u041d\u0430\u0434\u0442\u0435\u0440\u0435\u0447\u043d\u043e\u0435","kind_detail":"town","name:de":"Nadteretschnoje","source":"openstreetmap.org","min_zoom":8.0,"int_name":"Nadterechnoe","old_name":"\u041b\u0430\u0445\u0430-\u041d\u0435\u0432\u0440\u0435","name:ce":"\u041b\u0430\u0445\u0430-\u041d\u0451\u0432\u0440\u0435","id":2087073929,"population":8475},"coordinates":[988,2230]},{"type":"Point","properties":{"kind":"locality","name:en":"Nozhay-Yurt","name":"\u041d\u043e\u0436\u0430\u0439-\u042e\u0440\u0442","kind_detail":"town","name:de":"Noschai-Jurt","source":"openstreetmap.org","min_zoom":8.0,"name:ce":"\u041d\u0430\u0436\u0438-\u042e\u0440\u0442","id":1433086457,"population":8433},"coordinates":[4019,103]},{"type":"Point","properties":{"kind":"locality","name:en":"Chechen-Aul","name":"\u0427\u0435\u0447\u0435\u043d-\u0410\u0443\u043b","kind_detail":"town","name:de":"Tschetschen-Aul","source":"openstreetmap.org","min_zoom":8.0,"name:ce":"\u0427\u0435\u0447\u0430\u043d","id":1427869188,"population":8233},"coordinates":[2292,514]},{"type":"Point","properties":{"kind":"locality","name:en":"Tolstoy-Yurt","name":"\u0422\u043e\u043b\u0441\u0442\u043e\u0439-\u042e\u0440\u0442","kind_detail":"town","name:de":"Tolstoi-Jurt","source":"openstreetmap.org","min_zoom":8.0,"name:ce":"\u0414\u0435\u0432\u043a\u0430\u0440-\u042d\u0432\u043b\u0430","id":1363367645,"population":8097},"coordinates":[2256,1498]}]},"transit":{"type":"GeometryCollection","geometries":[{"type":"MultiLineString","properties":{"source":"openstreetmap.org","kind":"train","name":"\u0411\u0430\u043a\u0443 \u2014 \u0420\u043e\u0441\u0442\u043e\u0432-\u043d\u0430-\u0414\u043e\u043d\u0443","sort_rank":275,"ref":"Baku \u2014 Rostov-na-Donu","min_zoom":6.0,"osm_relation":true},"arcs":[[7],[8],[9],[10]]},{"type":"LineString","properties":{"kind":"train","network":"\u0420\u0416\u0414","sort_rank":275,"source":"openstreetmap.org","min_zoom":6.0,"operator":"\u0424\u041f\u041a","ref":"\u0413\u0440\u043e\u0437\u043d\u044b\u0439 - \u0413\u0443\u0434\u0435\u0440\u043c\u0435\u0441","id":-2313086,"osm_relation":true,"name":"\u041f\u043e\u0435\u0437\u0434 \u0413\u0440\u043e\u0437\u043d\u044b\u0439 - \u0413\u0443\u0434\u0435\u0440\u043c\u0435\u0441"},"arcs":[11]}]},"pois":{"type":"GeometryCollection","geometries":[{"type":"Point","properties":{"kind":"military","name:en":"Khankala","name":"\u0425\u0430\u043d\u043a\u0430\u043b\u0430","area":13608900,"name:de":"Chankala","source":"openstreetmap.org","min_zoom":8.0,"tier":3,"name:ce":"\u0425\u0430\u043d-\u0413\u04c0\u0430\u043b\u0430","id":130133220},"coordinates":[2265,893]}]},"boundaries":{"type":"GeometryCollection","geometries":[{"type":"LineString","properties":{"name:right:hy":"\u0549\u0565\u0579\u0576\u056b\u0561","name:right:hu":"Csecsenf\u00f6ld","name:right:lt":"\u010ce\u010d\u0117nija","name:right:hi":"\u091a\u0947\u091a\u0928\u094d\u092f\u093e","min_zoom":8.0,"name:left:hy":"\u053b\u0576\u0563\u0578\u0582\u0577\u0565\u0569\u056b\u0561","name:right:os":"\u0426\u00e6\u0446\u00e6\u043d","name:right:af":"Tsjetsjni\u00eb","name:right:ab":"\u0427\u0435\u0447\u043d\u0438\u0430","name:right:av":"\u0427\u0430\u0447\u0430\u043d\u0438\u0441\u0442\u0430\u043d","sort_rank":256,"name:left:ca":"Ing\u00faixia","source":"openstreetmap.org","name:right:ar":"\u0627\u0644\u0634\u064a\u0634\u0627\u0646","name:right:az":"\u00c7e\u00e7enistan","name:left":"\u0418\u043d\u0433\u0443\u0448\u0435\u0442\u0438\u044f","name:right:mn":"\u0427\u0435\u0447\u0435\u043d\u044c","name:right:eu":"Txetxenia","name:left:os":"\u041c\u00e6\u0445\u044a\u0445\u044a\u00e6\u043b\u044b \u0420\u0435\u0441\u043f\u0443\u0431\u043b\u0438\u043a\u00e6","name:left:ro":"Ingu\u0219etia","name:right:ro":"Cecenia","name:right:id":"Chechnya","name:right:eo":"\u0108e\u0109enio","name:right:en":"Chechnya","name:right:el":"\u03a4\u03c3\u03b5\u03c4\u03c3\u03b5\u03bd\u03af\u03b1","kind":"region","name:right:bn":"\u099a\u09c7\u099a\u09a8\u09bf\u09af\u09bc\u09be","name":"\u0418\u043d\u0433\u0443\u0448\u0435\u0442\u0438\u044f - \u0427\u0435\u0447\u043d\u044f","name:left:sl":"Ingu\u0161etija","name:right:ba":"\u0427\u0435\u0447\u0435\u043d \u0420\u0435\u0441\u043f\u0443\u0431\u043b\u0438\u043a\u0430\u04bb\u044b","name:right:be":"\u0427\u0430\u0447\u043d\u044f","name:right:zh":"\u8f66\u81e3\u5171\u548c\u56fd","official_name:left":"\u0420\u0435\u0441\u043f\u0443\u0431\u043b\u0438\u043a\u0430 \u0418\u043d\u0433\u0443\u0448\u0435\u0442\u0438\u044f","name:right:nl":"Tsjetsjeni\u00eb","name:right:fr":"Tch\u00e9tch\u00e9nie","name:right:sr":"\u0427\u0435\u0447\u0435\u043d\u0438\u0458\u0430","id:right":-109877,"name:right:sh":"\u010ce\u010denija","name:right:sl":"\u010ce\u010denija","name:right:fa":"\u0686\u0686\u0646","name:right:fo":"Kekenia","id":-253252,"name:right":"\u0427\u0435\u0447\u043d\u044f","name:left:en":"Ingushetia","name:right:ca":"Txetx\u00e8nia","kind_detail":"4","name:right:ce":"\u041d\u043e\u0445\u0447\u0438\u0439\u0447\u043e\u044c","id:left":-253252,"name:right:cs":"\u010ce\u010densko","name:right:fi":"T\u0161et\u0161enia","name:right:cv":"\u0427\u0435\u0447\u0435\u043d \u0420\u0435\u0441\u043f\u0443\u0431\u043b\u0438\u043a\u0438","name:right:ka":"\u10e9\u10d4\u10e9\u10dc\u10d4\u10d7\u10d8","name:left:av":"\u0413\u044a\u0430\u043b\u0433\u044a\u0430\u0439","name:left:pl":"Republika Inguszetii","name:left:az":"\u0130nqu\u015fetiya","name:right:ko":"\uccb4\uccb8 \uacf5\ud654\uad6d","name:left:de":"Inguschetien","name:right:sv":"Tjetjenien","name:right:tr":"\u00c7e\u00e7enistan","name:right:pl":"Czeczenia","osm_relation":true,"name:right:de":"Tschetschenien","name:right:da":"Tjetjenien","name:left:ce":"\u0413\u04c0\u0430\u043b\u0433\u04c0\u0430\u0439\u0447\u043e\u044c","name:right:ga":"An tSeisnia"},"arcs":[0]},{"type":"MultiLineString","properties":{"name:right:hy":"\u0534\u0561\u0572\u057d\u057f\u0561\u0576","name:left:hi":"\u091a\u0947\u091a\u0928\u094d\u092f\u093e","name:right:lb":"Dagestan","name:left:sv":"Tjetjenien","name:left:sr":"\u0427\u0435\u0447\u0435\u043d\u0438\u0458\u0430","name:right:lt":"Dagestanas","name:left:sl":"\u010ce\u010denija","min_zoom":8.0,"name:left:lt":"\u010ce\u010d\u0117nija","name:left:sh":"\u010ce\u010denija","name:left:hu":"Csecsenf\u00f6ld","name:right:he":"\u05d3\u05d0\u05d2\u05e1\u05d8\u05df","name:left:ga":"An tSeisnia","source":"openstreetmap.org","sort_rank":256,"name:left:ca":"Txetx\u00e8nia","name:right:av":"\u0414\u0430\u0433\u044a\u0438\u0441\u0442\u0430\u043d","name:right:ar":"\u062f\u0627\u063a\u0633\u062a\u0627\u0646","name:left:cv":"\u0427\u0435\u0447\u0435\u043d \u0420\u0435\u0441\u043f\u0443\u0431\u043b\u0438\u043a\u0438","name:right:az":"Da\u011f\u0131stan","name:left:cs":"\u010ce\u010densko","name:left":"\u0427\u0435\u0447\u043d\u044f","name:right:es":"Daguest\u00e1n","name:left:ka":"\u10e9\u10d4\u10e9\u10dc\u10d4\u10d7\u10d8","name:left:os":"\u0426\u00e6\u0446\u00e6\u043d","name:right:it":"Daghestan","name:left:ro":"Cecenia","name:right:id":"Dagestan","name:right:en":"Dagestan","name:right:el":"\u039d\u03c4\u03b1\u03b3\u03ba\u03b5\u03c3\u03c4\u03ac\u03bd","kind":"region","name":"\u0427\u0435\u0447\u043d\u044f - \u0414\u0430\u0433\u0435\u0441\u0442\u0430\u043d","name:left:fa":"\u0686\u0686\u0646","name:left:fo":"Kekenia","name:left:fi":"T\u0161et\u0161enia","name:left:zh":"\u8f66\u81e3\u5171\u548c\u56fd","name:left:fr":"Tch\u00e9tch\u00e9nie","name:right:de":"Dagestan","name:right:zh":"\u8fbe\u5409\u65af\u5766\u5171\u548c\u56fd","name:left:hy":"\u0549\u0565\u0579\u0576\u056b\u0561","name:right:fa":"\u062f\u0627\u063a\u0633\u062a\u0627\u0646","id:right":-109876,"name:left:nl":"Tsjetsjeni\u00eb","name:left:ba":"\u0427\u0435\u0447\u0435\u043d \u0420\u0435\u0441\u043f\u0443\u0431\u043b\u0438\u043a\u0430\u04bb\u044b","name:left:be":"\u0427\u0430\u0447\u043d\u044f","name:left:bn":"\u099a\u09c7\u099a\u09a8\u09bf\u09af\u09bc\u09be","id":-109877,"name:right":"\u0414\u0430\u0433\u0435\u0441\u0442\u0430\u043d","name:left:eo":"\u0108e\u0109enio","name:left:en":"Chechnya","name:left:el":"\u03a4\u03c3\u03b5\u03c4\u03c3\u03b5\u03bd\u03af\u03b1","name:right:ca":"Daguestan","kind_detail":"4","id:left":-109877,"name:left:ko":"\uccb4\uccb8 \uacf5\ud654\uad6d","name:left:eu":"Txetxenia","name:right:ka":"\u10d3\u10d0\u10e6\u10d4\u10e1\u10e2\u10d0\u10dc\u10d8\u10e8 \u10e0\u10d4\u10e1\u10de\u10e3\u10d1\u10da\u10d8\u10d9\u10d0","name:left:av":"\u0427\u0430\u0447\u0430\u043d\u0438\u0441\u0442\u0430\u043d","name:right:pt":"Daguest\u00e3o","name:left:ar":"\u0627\u0644\u0634\u064a\u0634\u0627\u0646","name:left:pl":"Czeczenia","name:left:tr":"\u00c7e\u00e7enistan","name:left:id":"Chechnya","name:left:az":"\u00c7e\u00e7enistan","name:right:tr":"Da\u011f\u0131stan","name:left:mn":"\u0427\u0435\u0447\u0435\u043d\u044c","name:left:af":"Tsjetsjni\u00eb","name:right:sv":"Dagestan","name:left:ab":"\u0427\u0435\u0447\u043d\u0438\u0430","name:right:tk":"Dagystan","name:right:tg":"\u0414\u043e\u0493\u0438\u0441\u0442\u043e\u043d","name:right:pl":"Republika Dagestanu","osm_relation":true,"name:left:da":"Tjetjenien","name:left:de":"Tschetschenien","name:left:ce":"\u041d\u043e\u0445\u0447\u0438\u0439\u0447\u043e\u044c","name:right:ku":"Daxistan"},"arcs":[[1],[2],[3],[4]]},{"type":"LineString","properties":{"name:right:hy":"\u054d\u057f\u0561\u057e\u0580\u0578\u057a\u0578\u056c\u056b \u0565\u0580\u056f\u0580\u0561\u0574\u0561\u057d","name:left:hi":"\u091a\u0947\u091a\u0928\u094d\u092f\u093e","name:right:uk":"\u0421\u0442\u0430\u0432\u0440\u043e\u043f\u043e\u043b\u044c\u0441\u044c\u043a\u0438\u0439 \u043a\u0440\u0430\u0439","name:left:sv":"Tjetjenien","name:left:sr":"\u0427\u0435\u0447\u0435\u043d\u0438\u0458\u0430","name:right:lt":"Stavropolio kra\u0161tas","name:left:sl":"\u010ce\u010denija","min_zoom":8.0,"name:left:lt":"\u010ce\u010d\u0117nija","name:left:sh":"\u010ce\u010denija","name:left:hu":"Csecsenf\u00f6ld","name:left:ga":"An tSeisnia","source":"openstreetmap.org","name:left:ce":"\u041d\u043e\u0445\u0447\u0438\u0439\u0447\u043e\u044c","name:left:ca":"Txetx\u00e8nia","int_name:right":"Stavropol Krai","name:right:av":"\u0421\u0442\u0430\u0432\u0440\u043e\u043f\u043e\u043b \u0443\u043b\u043a\u0430","osm_relation":true,"name:left:cv":"\u0427\u0435\u0447\u0435\u043d \u0420\u0435\u0441\u043f\u0443\u0431\u043b\u0438\u043a\u0438","name:right:az":"Stavropol diyar\u0131","name:left:cs":"\u010ce\u010densko","name:left":"\u0427\u0435\u0447\u043d\u044f","name:right:es":"Krai de St\u00e1vropol","name:left:ka":"\u10e9\u10d4\u10e9\u10dc\u10d4\u10d7\u10d8","name:right:mn":"\u0421\u0442\u0430\u0432\u0440\u043e\u043f\u043e\u043b\u0438\u0439\u043d \u0445\u044f\u0437\u0433\u0430\u0430\u0440","name:left:ko":"\uccb4\uccb8 \uacf5\ud654\uad6d","name:right:it":"Territorio di Stavropol'","name:left:ro":"Cecenia","name:right:vi":"Stavropol (v\u00f9ng)","name:right:ro":"\u021ainutul Stavropol","id:right":-108081,"name:right:en":"Stavropol Krai","name:right:el":"\u039a\u03c1\u03ac\u03b9 \u03a3\u03c4\u03b1\u03c5\u03c1\u03bf\u03cd\u03c0\u03bf\u03bb\u03b7\u03c2","kind":"region","name":"\u0427\u0435\u0447\u043d\u044f - \u0421\u0442\u0430\u0432\u0440\u043e\u043f\u043e\u043b\u044c\u0441\u043a\u0438\u0439 \u043a\u0440\u0430\u0439","name:left:fa":"\u0686\u0686\u0646","name:left:fo":"Kekenia","name:right:bg":"\u0421\u0442\u0430\u0432\u0440\u043e\u043f\u043e\u043b\u0441\u043a\u0438 \u043a\u0440\u0430\u0439","name:right:be":"\u0421\u0442\u0430\u045e\u0440\u0430\u043f\u043e\u043b\u044c\u0441\u043a\u0456 \u043a\u0440\u0430\u0439","name:left:zh":"\u8f66\u81e3\u5171\u548c\u56fd","name:left:fr":"Tch\u00e9tch\u00e9nie","name:left:da":"Tjetjenien","name:right:zh":"\u65af\u5854\u592b\u7f57\u6ce2\u5c14\u8fb9\u7586\u533a","name:left:hy":"\u0549\u0565\u0579\u0576\u056b\u0561","name:right:nl":"Kraj Stavropol","name:right:ja":"\u30b9\u30bf\u30f4\u30ed\u30dd\u30ea\u5730\u65b9","name:right:fr":"Kra\u00ef de Stavropol","name:right:sv":"Stavropol kraj","name:left:nl":"Tsjetsjeni\u00eb","name:left:ba":"\u0427\u0435\u0447\u0435\u043d \u0420\u0435\u0441\u043f\u0443\u0431\u043b\u0438\u043a\u0430\u04bb\u044b","name:right:sl":"Stavropolski kraj","name:left:be":"\u0427\u0430\u0447\u043d\u044f","name:left:fi":"T\u0161et\u0161enia","name:left:bn":"\u099a\u09c7\u099a\u09a8\u09bf\u09af\u09bc\u09be","id":-109877,"name:right":"\u0421\u0442\u0430\u0432\u0440\u043e\u043f\u043e\u043b\u044c\u0441\u043a\u0438\u0439 \u043a\u0440\u0430\u0439","name:left:eo":"\u0108e\u0109enio","name:left:en":"Chechnya","name:left:el":"\u03a4\u03c3\u03b5\u03c4\u03c3\u03b5\u03bd\u03af\u03b1","name:right:ca":"Territori de St\u00e0vropol","kind_detail":"4","name:right:ce":"\u0421\u0442\u0430\u0432\u0440\u043e\u043f\u043e\u043b\u0430\u043d \u043c\u0435\u0445\u043a\u0430\u0439\u0438\u0441\u0442","name:right:tt":"\u0421\u0442\u0430\u0432\u0440\u043e\u043f\u043e\u043b\u044c \u043a\u0440\u0430\u0435","id:left":-109877,"name:right:cs":"Stavropolsk\u00fd kraj","name:left:os":"\u0426\u00e6\u0446\u00e6\u043d","name:left:eu":"Txetxenia","name:right:cv":"\u0421\u0442\u0430\u0432\u0440\u043e\u043f\u043e\u043b\u044c \u0415\u043d","name:right:ka":"\u10e1\u10e2\u10d0\u10d5\u10e0\u10dd\u10de\u10dd\u10da\u10d8\u10e1 \u10db\u10ee\u10d0\u10e0\u10d4","name:left:av":"\u0427\u0430\u0447\u0430\u043d\u0438\u0441\u0442\u0430\u043d","name:right:pt":"Krai de Stavropol","name:left:ar":"\u0627\u0644\u0634\u064a\u0634\u0627\u0646","name:left:pl":"Czeczenia","name:left:tr":"\u00c7e\u00e7enistan","name:left:id":"Chechnya","name:left:mn":"\u0427\u0435\u0447\u0435\u043d\u044c","name:right:tr":"Stavropol Kray\u0131","name:left:az":"\u00c7e\u00e7enistan","name:left:af":"Tsjetsjni\u00eb","name:left:de":"Tschetschenien","name:left:ab":"\u0427\u0435\u0447\u043d\u0438\u0430","name:right:kv":"\u0421\u0442\u0430\u0432\u0440\u043e\u043f\u043e\u043b\u044c \u043a\u0440\u0430\u0439","short_name:right":"\u0421\u0442\u0430\u0432\u0440\u043e\u043f\u043e\u043b\u044c\u0435","name:right:pl":"Kraj Stawropolski","name:right:os":"\u0421\u0442\u044a\u0430\u0440\u0430\u043f\u043e\u043b\u044b \u043a\u0440\u0430\u0439","name:right:de":"Region Stawropol","name:right:da":"Stavropol kraj","sort_rank":256},"arcs":[5]},{"type":"LineString","properties":{"name:right:hy":"\u054d\u057f\u0561\u057e\u0580\u0578\u057a\u0578\u056c\u056b \u0565\u0580\u056f\u0580\u0561\u0574\u0561\u057d","name:left:lb":"Dagestan","name:right:uk":"\u0421\u0442\u0430\u0432\u0440\u043e\u043f\u043e\u043b\u044c\u0441\u044c\u043a\u0438\u0439 \u043a\u0440\u0430\u0439","name:left:he":"\u05d3\u05d0\u05d2\u05e1\u05d8\u05df","name:left:sv":"Dagestan","name:right:lt":"Stavropolio kra\u0161tas","min_zoom":8.0,"name:left:lt":"Dagestanas","name:left:hy":"\u0534\u0561\u0572\u057d\u057f\u0561\u0576","source":"openstreetmap.org","sort_rank":256,"name:left:ca":"Daguestan","int_name:right":"Stavropol Krai","name:right:av":"\u0421\u0442\u0430\u0432\u0440\u043e\u043f\u043e\u043b \u0443\u043b\u043a\u0430","osm_relation":true,"name:right:az":"Stavropol diyar\u0131","name:left":"\u0414\u0430\u0433\u0435\u0441\u0442\u0430\u043d","name:right:es":"Krai de St\u00e1vropol","name:left:ka":"\u10d3\u10d0\u10e6\u10d4\u10e1\u10e2\u10d0\u10dc\u10d8\u10e8 \u10e0\u10d4\u10e1\u10de\u10e3\u10d1\u10da\u10d8\u10d9\u10d0","name:right:mn":"\u0421\u0442\u0430\u0432\u0440\u043e\u043f\u043e\u043b\u0438\u0439\u043d \u0445\u044f\u0437\u0433\u0430\u0430\u0440","name:right:it":"Territorio di Stavropol'","name:right:vi":"Stavropol (v\u00f9ng)","name:left:ku":"Daxistan","name:right:ro":"\u021ainutul Stavropol","id:right":-108081,"name:right:en":"Stavropol Krai","name:right:el":"\u039a\u03c1\u03ac\u03b9 \u03a3\u03c4\u03b1\u03c5\u03c1\u03bf\u03cd\u03c0\u03bf\u03bb\u03b7\u03c2","kind":"region","name":"\u0414\u0430\u0433\u0435\u0441\u0442\u0430\u043d - \u0421\u0442\u0430\u0432\u0440\u043e\u043f\u043e\u043b\u044c\u0441\u043a\u0438\u0439 \u043a\u0440\u0430\u0439","name:left:fa":"\u062f\u0627\u063a\u0633\u062a\u0627\u0646","name:right:bg":"\u0421\u0442\u0430\u0432\u0440\u043e\u043f\u043e\u043b\u0441\u043a\u0438 \u043a\u0440\u0430\u0439","name:right:be":"\u0421\u0442\u0430\u045e\u0440\u0430\u043f\u043e\u043b\u044c\u0441\u043a\u0456 \u043a\u0440\u0430\u0439","name:left:zh":"\u8fbe\u5409\u65af\u5766\u5171\u548c\u56fd","name:right:zh":"\u65af\u5854\u592b\u7f57\u6ce2\u5c14\u8fb9\u7586\u533a","name:right:nl":"Kraj Stavropol","name:right:ja":"\u30b9\u30bf\u30f4\u30ed\u30dd\u30ea\u5730\u65b9","name:right:fr":"Kra\u00ef de Stavropol","name:right:sv":"Stavropol kraj","name:right:sl":"Stavropolski kraj","id":-109876,"name:right":"\u0421\u0442\u0430\u0432\u0440\u043e\u043f\u043e\u043b\u044c\u0441\u043a\u0438\u0439 \u043a\u0440\u0430\u0439","name:left:en":"Dagestan","name:left:el":"\u039d\u03c4\u03b1\u03b3\u03ba\u03b5\u03c3\u03c4\u03ac\u03bd","name:right:ca":"Territori de St\u00e0vropol","kind_detail":"4","name:right:da":"Stavropol kraj","name:right:ce":"\u0421\u0442\u0430\u0432\u0440\u043e\u043f\u043e\u043b\u0430\u043d \u043c\u0435\u0445\u043a\u0430\u0439\u0438\u0441\u0442","name:right:tt":"\u0421\u0442\u0430\u0432\u0440\u043e\u043f\u043e\u043b\u044c \u043a\u0440\u0430\u0435","id:left":-109876,"name:left:es":"Daguest\u00e1n","name:right:cs":"Stavropolsk\u00fd kraj","name:right:cv":"\u0421\u0442\u0430\u0432\u0440\u043e\u043f\u043e\u043b\u044c \u0415\u043d","name:right:ka":"\u10e1\u10e2\u10d0\u10d5\u10e0\u10dd\u10de\u10dd\u10da\u10d8\u10e1 \u10db\u10ee\u10d0\u10e0\u10d4","name:left:av":"\u0414\u0430\u0433\u044a\u0438\u0441\u0442\u0430\u043d","name:right:pt":"Krai de Stavropol","name:left:ar":"\u062f\u0627\u063a\u0633\u062a\u0627\u0646","name:left:pl":"Republika Dagestanu","name:left:tr":"Da\u011f\u0131stan","name:left:id":"Dagestan","name:left:az":"Da\u011f\u0131stan","name:right:tr":"Stavropol Kray\u0131","name:left:pt":"Daguest\u00e3o","name:left:tk":"Dagystan","name:right:kv":"\u0421\u0442\u0430\u0432\u0440\u043e\u043f\u043e\u043b\u044c \u043a\u0440\u0430\u0439","short_name:right":"\u0421\u0442\u0430\u0432\u0440\u043e\u043f\u043e\u043b\u044c\u0435","name:left:it":"Daghestan","name:right:pl":"Kraj Stawropolski","name:right:os":"\u0421\u0442\u044a\u0430\u0440\u0430\u043f\u043e\u043b\u044b \u043a\u0440\u0430\u0439","name:left:tg":"\u0414\u043e\u0493\u0438\u0441\u0442\u043e\u043d","name:right:de":"Region Stawropol","name:left:de":"Dagestan"},"arcs":[6]}]},"roads":{"type":"GeometryCollection","geometries":[{"type":"MultiLineString","properties":{"sort_rank":380,"kind_detail":"primary","min_zoom":8.0,"kind":"major_road","source":"openstreetmap.org"},"arcs":[[12],[13],[14],[15]]},{"type":"MultiLineString","properties":{"sort_rank":381,"source":"openstreetmap.org","min_zoom":8.0,"kind":"major_road","kind_detail":"trunk"},"arcs":[[16],[17],[18]]},{"type":"LineString","properties":{"kind":"major_road","name:en":"Severnaya Street","network":"ru:regional","sort_rank":380,"kind_detail":"primary","name:de":"Sewernaja uliza","source":"openstreetmap.org","min_zoom":8.0,"shield_text":"96\u041a","ref":"96\u041a-001","id":487944516},"arcs":[19]},{"type":"MultiLineString","properties":{"kind":"major_road","network":"ru:regional","sort_rank":380,"kind_detail":"primary","source":"openstreetmap.org","min_zoom":8.0,"landuse_kind":"urban_area","shield_text":"96\u041a","ref":"96\u041a-003"},"arcs":[[20],[21],[22],[23],[24]]},{"type":"LineString","properties":{"source":"openstreetmap.org","kind":"major_road","sort_rank":380,"kind_detail":"primary","ref":"\u0420262","min_zoom":8.0},"arcs":[25]},{"type":"LineString","properties":{"source":"openstreetmap.org","kind":"major_road","landuse_kind":"nature_reserve","sort_rank":380,"kind_detail":"primary","ref":"\u041c-29","min_zoom":8.0},"arcs":[26]},{"type":"MultiLineString","properties":{"kind":"major_road","network":"ru:national","sort_rank":381,"landuse_kind":"urban_area","source":"openstreetmap.org","min_zoom":8.0,"kind_detail":"trunk","shield_text":"217","ref":"\u0420-217"},"arcs":[[27],[28],[29],[30],[31]]},{"type":"LineString","properties":{"kind":"major_road","network":"ru:regional","sort_rank":380,"kind_detail":"primary","source":"openstreetmap.org","min_zoom":8.0,"landuse_kind":"military","shield_text":"96\u041a","ref":"96\u041a-005","id":239428997},"arcs":[32]},{"type":"LineString","properties":{"kind":"major_road","sort_rank":380,"landuse_kind":"urban_area","source":"openstreetmap.org","min_zoom":8.0,"kind_detail":"primary","ref":"\u041c-29","id":243772543},"arcs":[33]},{"type":"LineString","properties":{"source":"openstreetmap.org","kind":"major_road","kind_detail":"trunk","sort_rank":381,"landuse_kind":"urban_area","ref":"\u0420-217","min_zoom":8.0},"arcs":[34]},{"type":"LineString","properties":{"kind":"major_road","sort_rank":380,"kind_detail":"primary","source":"openstreetmap.org","min_zoom":8.0,"old_name":"\u0413\u0443\u0434\u0435\u0440\u043c\u0435\u0441\u0441\u043a\u0430\u044f","landuse_kind":"urban_area","ref":"P305","id":248954823},"arcs":[35]},{"type":"LineString","properties":{"kind":"major_road","name:en":"Severnaya Street","network":"ru:regional","sort_rank":380,"kind_detail":"primary","name:de":"Sewernaja uliza","source":"openstreetmap.org","min_zoom":8.0,"landuse_kind":"residential","shield_text":"96\u041a","ref":"96\u041a-001","id":166500180},"arcs":[36]},{"type":"MultiLineString","properties":{"source":"openstreetmap.org","kind":"major_road","landuse_kind":"urban_area","sort_rank":380,"kind_detail":"primary","min_zoom":8.0},"arcs":[[37],[38],[39],[40],[41],[42],[43],[44],[45],[46],[47],[48],[49],[50],[51],[52],[53],[54],[55],[56],[57],[58],[59],[60],[61],[62],[63],[64],[65],[66],[67],[68],[69],[70],[71],[72],[73],[74],[75],[76],[77],[78]]},{"type":"MultiLineString","properties":{"kind":"major_road","network":"ru:regional","sort_rank":380,"kind_detail":"primary","source":"openstreetmap.org","min_zoom":8.0,"landuse_kind":"residential","shield_text":"96\u041a","ref":"96\u041a-001"},"arcs":[[79],[80],[81],[82]]},{"type":"MultiLineString","properties":{"kind":"major_road","network":"ru:regional","sort_rank":380,"kind_detail":"primary","source":"openstreetmap.org","min_zoom":8.0,"shield_text":"96\u041a","ref":"96\u041a-001"},"arcs":[[83],[84],[85],[86],[87],[88],[89]]},{"type":"MultiLineString","properties":{"kind":"major_road","sort_rank":380,"kind_detail":"primary","source":"openstreetmap.org","min_zoom":8.0,"old_name":"\u043f\u0440\u043e\u0441\u043f\u0435\u043a\u0442 \u041b\u0435\u043d\u0438\u043d\u0430","name:ce":"\u0410\u0445\u043c\u0430\u0442 \u041a\u0430\u0434\u044b\u0440\u043e\u0432\u0430\u043d \u0443\u0440\u0430\u043c","landuse_kind":"urban_area"},"arcs":[[90],[91]]},{"type":"MultiLineString","properties":{"kind":"major_road","network":"ru:regional","sort_rank":380,"kind_detail":"primary","source":"openstreetmap.org","min_zoom":8.0,"landuse_kind":"urban_area","shield_text":"96\u041a","ref":"96\u041a-005"},"arcs":[[92],[93],[94],[95],[96]]},{"type":"LineString","properties":{"source":"openstreetmap.org","kind":"major_road","sort_rank":381,"kind_detail":"trunk","ref":"\u0420-217","min_zoom":8.0},"arcs":[97]},{"type":"MultiLineString","properties":{"kind":"major_road","network":"e-road","sort_rank":381,"kind_detail":"trunk","source":"openstreetmap.org","min_zoom":8.0,"landuse_kind":"residential","shield_text":"50"},"arcs":[[98],[99]]},{"type":"LineString","properties":{"kind":"major_road","sort_rank":380,"kind_detail":"primary","source":"openstreetmap.org","min_zoom":8.0,"old_name":"\u0443\u043b\u0438\u0446\u0430 \u041a\u043e\u0441\u0438\u043e\u0440\u0430","landuse_kind":"urban_area","id":200571718},"arcs":[100]},{"type":"MultiLineString","properties":{"source":"openstreetmap.org","kind":"major_road","landuse_kind":"urban_area","sort_rank":380,"kind_detail":"primary","ref":"p308","min_zoom":8.0},"arcs":[[101],[102],[103]]},{"type":"MultiLineString","properties":{"source":"openstreetmap.org","kind":"major_road","old_name":"\u0443\u043b\u0438\u0446\u0430 \u041c\u0430\u044f\u043a\u043e\u0432\u0441\u043a\u043e\u0433\u043e","sort_rank":380,"kind_detail":"primary","landuse_kind":"urban_area","min_zoom":8.0},"arcs":[[104],[105]]},{"type":"MultiLineString","properties":{"source":"openstreetmap.org","kind":"major_road","landuse_kind":"nature_reserve","sort_rank":380,"kind_detail":"primary","min_zoom":8.0},"arcs":[[106],[107],[108],[109],[110],[111],[112]]},{"type":"LineString","properties":{"source":"openstreetmap.org","kind":"major_road","sort_rank":380,"kind_detail":"primary","ref":"\u041c-29","min_zoom":8.0},"arcs":[113]},{"type":"MultiLineString","properties":{"source":"openstreetmap.org","kind":"major_road","old_name":"\u043f\u0440\u043e\u0441\u043f\u0435\u043a\u0442 \u041f\u043e\u0431\u0435\u0434\u044b","sort_rank":380,"kind_detail":"primary","landuse_kind":"urban_area","min_zoom":8.0},"arcs":[[114],[115]]},{"type":"MultiLineString","properties":{"kind":"major_road","network":"ru:regional","sort_rank":380,"kind_detail":"primary","source":"openstreetmap.org","min_zoom":8.0,"shield_text":"96\u041a","ref":"96\u041a-003"},"arcs":[[116],[117]]},{"type":"MultiLineString","properties":{"kind":"major_road","network":"ru:regional","sort_rank":380,"kind_detail":"primary","source":"openstreetmap.org","min_zoom":8.0,"landuse_kind":"residential","shield_text":"96\u041a","ref":"96\u041a-005"},"arcs":[[118],[119],[120],[121],[122]]},{"type":"MultiLineString","properties":{"kind":"major_road","network":"ru:regional","sort_rank":380,"kind_detail":"primary","source":"openstreetmap.org","min_zoom":8.0,"landuse_kind":"urban_area","shield_text":"96\u041a","ref":"96\u041a-001"},"arcs":[[123],[124],[125],[126],[127]]},{"type":"MultiLineString","properties":{"source":"openstreetmap.org","kind":"major_road","landuse_kind":"residential","sort_rank":381,"kind_detail":"trunk","min_zoom":8.0},"arcs":[[128],[129]]},{"type":"MultiLineString","properties":{"source":"openstreetmap.org","kind":"major_road","landuse_kind":"residential","sort_rank":380,"kind_detail":"primary","min_zoom":8.0},"arcs":[[130],[131]]},{"type":"LineString","properties":{"source":"openstreetmap.org","kind":"major_road","network":"e-road","sort_rank":381,"kind_detail":"trunk","min_zoom":8.0,"shield_text":"50"},"arcs":[132]},{"type":"MultiLineString","properties":{"source":"openstreetmap.org","kind":"major_road","old_name":"\u0443\u043b\u0438\u0446\u0430 \u0422\u0443\u0445\u0430\u0447\u0435\u0432\u0441\u043a\u043e\u0433\u043e","sort_rank":380,"kind_detail":"primary","landuse_kind":"urban_area","min_zoom":8.0},"arcs":[[133],[134]]},{"type":"LineString","properties":{"kind":"major_road","network":"ru:national","sort_rank":381,"kind_detail":"trunk","source":"openstreetmap.org","min_zoom":8.0,"landuse_kind":"nature_reserve","shield_text":"217","ref":"\u0420-217"},"arcs":[135]},{"type":"MultiLineString","properties":{"source":"openstreetmap.org","kind":"major_road","landuse_kind":"urban_area","sort_rank":380,"kind_detail":"primary","ref":"P308","min_zoom":8.0},"arcs":[[136],[137],[138],[139],[140]]},{"type":"MultiLineString","properties":{"kind":"major_road","network":"ru:national","sort_rank":381,"kind_detail":"trunk","source":"openstreetmap.org","min_zoom":8.0,"shield_text":"217","ref":"\u0420-217"},"arcs":[[141],[142],[143],[144],[145],[146],[147],[148],[149],[150],[151],[152],[153],[154]]},{"type":"MultiLineString","properties":{"kind":"major_road","network":"ru:national","sort_rank":381,"kind_detail":"trunk","source":"openstreetmap.org","min_zoom":8.0,"landuse_kind":"residential","shield_text":"217","ref":"\u0420-217"},"arcs":[[155],[156],[157],[158],[159],[160],[161],[162],[163],[164],[165],[166],[167],[168],[169],[170],[171]]},{"type":"MultiLineString","properties":{"source":"openstreetmap.org","kind":"major_road","old_name":"\u043f\u0440\u043e\u0441\u043f\u0435\u043a\u0442 \u041a\u0438\u0440\u043e\u0432\u0430","sort_rank":380,"kind_detail":"primary","landuse_kind":"urban_area","min_zoom":8.0},"arcs":[[172],[173]]},{"type":"MultiLineString","properties":{"kind":"major_road","network":"ru:regional","sort_rank":380,"kind_detail":"primary","source":"openstreetmap.org","min_zoom":8.0,"shield_text":"96\u041a","ref":"96\u041a-005"},"arcs":[[174],[175]]},{"type":"LineString","properties":{"kind":"major_road","sort_rank":381,"landuse_kind":"nature_reserve","source":"openstreetmap.org","min_zoom":8.0,"kind_detail":"trunk","ref":"\u041c-29","id":45837362},"arcs":[176]},{"type":"MultiLineString","properties":{"source":"openstreetmap.org","kind":"major_road","old_name":"\u0413\u0443\u0434\u0435\u0440\u043c\u0435\u0441\u0441\u043a\u0430\u044f \u0443\u043b\u0438\u0446\u0430","sort_rank":380,"kind_detail":"primary","landuse_kind":"residential","min_zoom":8.0},"arcs":[[177],[178]]},{"type":"LineString","properties":{"kind":"major_road","network":"ru:regional","sort_rank":380,"kind_detail":"primary","source":"openstreetmap.org","min_zoom":8.0,"landuse_kind":"residential","shield_text":"96\u041a","ref":"96\u041a-003","id":81713272},"arcs":[179]}]},"earth":{"type":"GeometryCollection","geometries":[{"type":"MultiPolygon","properties":{"sort_rank":10,"source":"naturalearthdata.com","min_zoom":0.0,"kind":"earth","area":78037241807},"arcs":[[[180]]]}]},"landuse":{"type":"GeometryCollection","geometries":[{"type":"Polygon","properties":{"kind":"residential","name":"\u0410\u0447\u0445\u043e\u0439-\u041c\u0430\u0440\u0442\u0430\u043d","area":30586200,"sort_rank":20,"source":"openstreetmap.org","min_zoom":8.0,"tier":2,"id":120330384},"arcs":[[181]]},{"type":"Polygon","properties":{"kind":"residential","name":"\u0410\u043b\u0445\u0430\u0437\u0443\u0440\u043e\u0432\u043e","area":14277800,"sort_rank":20,"source":"openstreetmap.org","min_zoom":8.0,"tier":2,"id":425313150},"arcs":[[182]]},{"type":"Polygon","properties":{"kind":"residential","name":"\u041a\u0430\u0442\u0430\u0440-\u042e\u0440\u0442","area":20850800,"sort_rank":20,"source":"openstreetmap.org","min_zoom":8.0,"tier":2,"id":-3219844,"osm_relation":true},"arcs":[[183]]},{"type":"Polygon","properties":{"kind":"residential","name":"\u0428\u0430\u0430\u043c\u0438-\u042e\u0440\u0442","area":11328100,"sort_rank":20,"source":"openstreetmap.org","min_zoom":8.0,"tier":2,"id":237846065},"arcs":[[184]]},{"type":"Polygon","properties":{"kind":"residential","name":"\u0412\u0430\u043b\u0435\u0440\u0438\u043a","area":13571000,"sort_rank":20,"source":"openstreetmap.org","min_zoom":8.0,"tier":2,"id":206767133},"arcs":[[185]]},{"type":"Polygon","properties":{"kind":"residential","name":"\u0410\u043b\u0445\u0430\u043d-\u042e\u0440\u0442","area":13401000,"sort_rank":20,"source":"openstreetmap.org","min_zoom":8.0,"tier":2,"id":269162600},"arcs":[[186]]},{"type":"Polygon","properties":{"kind":"residential","name":"\u0413\u043e\u0439\u0442\u044b","area":19689700,"sort_rank":20,"source":"openstreetmap.org","min_zoom":8.0,"tier":2,"id":131960100},"arcs":[[187]]},{"type":"Polygon","properties":{"kind":"residential","name":"\u0413\u0435\u0445\u0438","area":22689700,"sort_rank":20,"source":"openstreetmap.org","min_zoom":8.0,"tier":2,"id":237845812},"arcs":[[188]]},{"type":"Polygon","properties":{"kind":"residential","name:en":"Sernovodskoye","name":"\u0421\u0435\u0440\u043d\u043e\u0432\u043e\u0434\u0441\u043a\u043e\u0435","area":13146300,"sort_rank":20,"name:de":"Sernowodskoje","source":"openstreetmap.org","min_zoom":8.0,"tier":2,"name:ce":"\u042d\u043d\u0430-\u0425\u0438\u0448\u043a\u0430","id":215226533},"arcs":[[189]]},{"type":"Polygon","properties":{"kind":"residential","name":"\u0410\u0441\u0441\u0438\u043d\u043e\u0432\u0441\u043a\u0430\u044f","area":10841700,"sort_rank":20,"source":"openstreetmap.org","min_zoom":8.0,"tier":2,"id":198585173},"arcs":[[190]]},{"type":"Polygon","properties":{"kind":"residential","name":"\u041c\u0435\u0441\u043a\u0435\u0440-\u042e\u0440\u0442","area":20780000,"sort_rank":20,"source":"openstreetmap.org","min_zoom":8.0,"tier":2,"id":282941556},"arcs":[[191]]},{"type":"Polygon","properties":{"kind":"residential","name:en":"Nadterechnoye","name":"\u041d\u0430\u0434\u0442\u0435\u0440\u0435\u0447\u043d\u043e\u0435","area":16012600,"sort_rank":20,"name:de":"Nadteretschnoje","source":"openstreetmap.org","min_zoom":8.0,"int_name":"Lakha Nevre","old_name":"\u041b\u0430\u0445\u0430-\u041d\u0435\u0432\u0440\u0435","tier":2,"name:ce":"\u041b\u0430\u0445\u0430-\u041d\u0451\u0432\u0440\u0435","id":134576469},"arcs":[[192]]},{"type":"Polygon","properties":{"kind":"residential","name":"\u0423\u0440\u0443\u0441-\u041c\u0430\u0440\u0442\u0430\u043d","area":49621500,"sort_rank":20,"source":"openstreetmap.org","min_zoom":8.0,"tier":2,"name:ce":"\u0425?\u0430\u043b\u0445?\u0430-\u041c\u0430\u0440\u0442\u0430","id":120331564},"arcs":[[193]]},{"type":"Polygon","properties":{"kind":"residential","name":"\u0411\u0435\u043b\u0433\u0430\u0442\u043e\u0439","area":11496700,"sort_rank":20,"source":"openstreetmap.org","min_zoom":8.0,"tier":2,"id":258104905},"arcs":[[194]]},{"type":"Polygon","properties":{"kind":"residential","name:en":"Znamenskoye","name":"\u0417\u043d\u0430\u043c\u0435\u043d\u0441\u043a\u043e\u0435","area":19986900,"sort_rank":20,"name:de":"Snamenskoje","source":"openstreetmap.org","min_zoom":8.0,"tier":2,"name:ce":"\u0427\u04c0\u0443\u044c\u043b\u0433\u0430-\u042e\u0440\u0442","id":281154787},"arcs":[[195]]},{"type":"Polygon","properties":{"source":"openstreetmap.org","kind":"military","area":13608900,"tier":3,"id":130133220,"min_zoom":8.0,"sort_rank":45},"arcs":[[196]]},{"type":"MultiPolygon","properties":{"source":"naturalearthdata.com","kind":"urban_area","name":"","area":3309404477,"sort_rank":11,"min_zoom":4.0},"arcs":[[[197]],[[198]],[[199]],[[200]],[[201]],[[202]],[[203]],[[204]],[[205]],[[206]],[[207]],[[208]],[[209]],[[210]],[[211]]]},{"type":"Polygon","properties":{"kind":"residential","name":"\u041d\u043e\u0432\u044b\u0435 \u0410\u0442\u0430\u0433\u0438","area":11329600,"sort_rank":20,"source":"openstreetmap.org","min_zoom":8.0,"tier":2,"id":282942526},"arcs":[[212]]},{"type":"Polygon","properties":{"kind":"nature_reserve","natural":"wood","area":30365200,"sort_rank":23,"source":"openstreetmap.org","min_zoom":8.0,"tier":2,"id":-448531,"osm_relation":true},"arcs":[[213],[214],[215],[216]]},{"type":"Polygon","properties":{"kind":"residential","name":"\u0421\u0430\u043c\u0430\u0448\u043a\u0438","area":10078100,"sort_rank":20,"source":"openstreetmap.org","min_zoom":8.0,"tier":2,"id":198585174},"arcs":[[217]]},{"type":"Polygon","properties":{"kind":"residential","int_name":"Shali","name":"\u0428\u0430\u043b\u0438","area":61430700,"sort_rank":20,"source":"openstreetmap.org","min_zoom":8.0,"tier":2,"id":120331585},"arcs":[[218]]},{"type":"Polygon","properties":{"kind":"residential","name:en":"Troitskaya","name":"\u0422\u0440\u043e\u0438\u0446\u043a\u0430\u044f","area":15110700,"sort_rank":20,"name:de":"Troizkaja","source":"openstreetmap.org","min_zoom":8.0,"name:hy":"\u054f\u0580\u0578\u056b\u0581\u056f\u0561\u0575\u0561","tier":2,"name:pl":"Troickaja","id":173142756},"arcs":[[219]]},{"type":"Polygon","properties":{"kind":"residential","name":"\u041a\u0443\u043b\u0430\u0440\u044b","area":10218600,"sort_rank":20,"source":"openstreetmap.org","min_zoom":8.0,"tier":2,"id":238735173},"arcs":[[220]]},{"type":"Polygon","properties":{"kind":"residential","name":"\u041a\u0443\u0440\u0447\u0430\u043b\u043e\u0439","area":14696100,"sort_rank":20,"source":"openstreetmap.org","min_zoom":8.0,"tier":2,"id":255392256},"arcs":[[221]]},{"type":"Polygon","properties":{"kind":"residential","name":"\u0421\u0443\u043d\u0436\u0430","area":16789200,"old_name:pl":"Ord\u017conikidzewskaja","old_name:ru":"\u041e\u0440\u0434\u0436\u043e\u043d\u0438\u043a\u0438\u0434\u0437\u0435\u0432\u0441\u043a\u0430\u044f","old_name:ce":"\u041e\u0440\u0434\u0436\u043e\u043d\u0438\u043a\u0438\u0434\u0437\u0435\u0432\u0441\u043a\u0438","id":173142758,"source":"openstreetmap.org","min_zoom":8.0,"old_name:en":"Ordzhonikidzevskaya","old_name":"\u041e\u0440\u0434\u0436\u043e\u043d\u0438\u043a\u0438\u0434\u0437\u0435\u0432\u0441\u043a\u0430\u044f","tier":2,"old_name:de":"Ordschonikidsewskaja","sort_rank":20},"arcs":[[222]]},{"type":"MultiPolygon","properties":{"source":"openstreetmap.org","kind":"residential","tier":2,"area":446336815,"sort_rank":20,"min_zoom":8.0},"arcs":[[[223]],[[224]],[[225]],[[226]],[[227]],[[228]],[[229]],[[230]],[[231]],[[232]],[[233]],[[234]],[[235]]]},{"type":"Polygon","properties":{"kind":"residential","name":"\u0413\u0435\u0440\u043c\u0435\u043d\u0447\u0443\u043a","area":16264400,"sort_rank":20,"source":"openstreetmap.org","min_zoom":8.0,"tier":2,"id":266783850},"arcs":[[236]]}]}},"type":"Topology","transform":{"translate":[45.0,43.0688877742],"scale":[0.0003433228,0.0002487054]},"arcs":[[[518,0],[48,131],[-57,-17],[31,54],[6,109],[-19,22],[32,83],[-45,66],[-62,-14],[-64,69],[-70,487],[65,32],[9,263],[32,54],[38,7],[0,30],[-78,29],[-91,131],[-95,4],[-31,115],[95,7],[-51,87],[-40,30],[-91,3],[-28,44],[-52,8]],[[4096,233],[-21,11],[-37,75],[58,61]],[[4096,535],[-41,4],[41,98]],[[4096,1038],[-30,35],[-76,24],[-31,117],[-70,120],[-22,198],[80,81],[92,39],[-16,61],[73,28]],[[4096,3760],[-248,18],[12,-40],[52,-39],[-1,-72],[47,-109],[-311,4],[-6,-253],[-99,-91],[-353,7],[1,-84],[-47,4],[-2,-96],[-100,10],[-121,246],[94,28],[68,-10],[38,182],[-539,83],[-80,81],[-183,-3],[0,-74],[-235,3],[-13,36],[-641,184]],[[1429,3775],[-148,0],[-4,-530],[-691,2],[2,325],[-431,4],[-2,-276],[37,-5],[-6,-678],[-57,-43],[1,44],[-41,-6],[-24,36],[-65,-21]],[[1428,4096],[1,-321]],[[1628,2162],[-194,76],[-298,187],[-517,121],[-299,101],[-320,38]],[[1628,2162],[568,-235],[343,-204]],[[2539,1723],[-157,107],[-9,6],[-179,92],[-153,70],[-413,164]],[[2539,1723],[231,-137],[121,-109],[28,-96],[83,-34],[123,-100],[95,-121],[347,-98],[529,-106]],[[1997,962],[62,-22],[430,38],[96,-44],[383,122],[144,78],[114,-10]],[[1932,757],[-4,14]],[[2696,892],[2,-7]],[[2696,900],[18,2],[-18,-2]],[[2696,878],[8,21]],[[395,833],[0,-2]],[[436,825],[0,2]],[[2696,878],[18,24]],[[1095,2414],[65,-7]],[[2196,1180],[-144,-78]],[[2293,1435],[19,-43],[-33,-6],[-7,-31]],[[2373,1619],[-79,-183]],[[2488,1753],[25,0]],[[2293,1435],[1,0],[0,1],[-1,0],[0,-1]],[[0,2682],[191,-16]],[[1930,718],[-41,-49]],[[1673,615],[31,8]],[[1714,625],[56,14]],[[1947,661],[226,-153]],[[2657,775],[39,99]],[[2996,1061],[124,50]],[[2277,875],[-24,-6]],[[1919,805],[9,-34]],[[2659,777],[27,41]],[[2089,919],[3,-3]],[[2528,1753],[38,24],[56,-27]],[[1917,809],[1,1]],[[1919,822]],[[1919,822],[-1,0]],[[1919,825],[0,-3]],[[1919,822],[-3,-9],[3,-8]],[[1919,825],[5,6]],[[1928,771],[-9,54]],[[2068,928],[-86,-36],[-38,-19],[0,-1]],[[1944,872],[-8,-36],[-11,-5]],[[1943,872],[1,0]],[[1944,872],[10,4],[28,15],[87,36]],[[2024,1085],[-36,-38],[-11,-18]],[[1978,1028],[46,56]],[[2023,994],[3,-2]],[[2026,993],[-2,1]],[[2049,1101],[1,-4]],[[2050,1087]],[[2050,1087],[2,-3]],[[2052,1084],[-2,3]],[[2052,1102],[-2,0]],[[2067,930],[1,-2]],[[2069,928],[-1,0]],[[2068,928],[1,-1]],[[2080,930],[-10,-2]],[[2070,928],[0,-2]],[[2070,927],[11,2]],[[2080,930],[2,0]],[[2081,929],[8,-10]],[[2083,945],[-1,2]],[[2084,1002],[-2,-2]],[[2093,917],[-4,3]],[[2092,916],[74,-16]],[[2093,917],[-1,-1],[1,1]],[[2166,901],[-73,16]],[[2155,1007],[0,18]],[[2651,896],[45,4]],[[2696,900],[-45,-4]],[[2695,895],[1,-3]],[[1925,830],[0,1],[-1,0],[0,-1],[1,0]],[[2051,1101],[-1,1],[-1,-1]],[[2049,1101],[1,-1],[1,1]],[[2166,902],[0,-2],[1,0],[1,1],[-2,1]],[[2521,1761],[6,-7]],[[2622,1750],[4,-2]],[[3778,1774],[174,15],[61,104]],[[2527,1754],[0,-1],[1,0],[0,1],[-1,0]],[[191,2666],[904,-252]],[[1160,2407],[270,-169],[216,-92]],[[1767,2095],[130,-55]],[[1924,2029],[557,-222]],[[2679,1720],[7,-4]],[[2809,1670],[166,23],[169,-21],[236,13],[398,89]],[[4013,1893],[37,263],[46,73]],[[2026,992],[41,-62]],[[2069,928],[-43,65]],[[2167,900],[81,-40],[62,19]],[[2253,869],[-85,32]],[[2307,884],[-30,-9]],[[2484,928],[-7,2],[-36,-10]],[[2461,925],[23,2]],[[461,822],[-461,52]],[[2588,731],[-1,-1]],[[2587,729],[1,1]],[[2154,1025],[1,-17]],[[2089,920],[-7,10]],[[2082,930],[1,15]],[[2082,947],[1,53]],[[2051,1087],[-27,-2]],[[2024,1084],[26,2]],[[1888,667],[1,1]],[[1889,668],[1,0]],[[1890,668],[2,2]],[[1889,669],[0,-1]],[[1889,668],[0,-1]],[[1890,668]],[[1890,668],[0,1]],[[1928,771],[2,-53]],[[1977,1029],[46,-35]],[[2024,994],[-46,35]],[[2272,1355],[-15,-118],[-61,-57]],[[2373,1619],[115,134]],[[2399,906],[62,19]],[[2484,927],[41,-27]],[[2525,902],[-41,26]],[[2525,901],[0,-1]],[[2525,900],[1,0],[0,1],[-1,0]],[[1646,2146],[121,-51]],[[1897,2040],[27,-11]],[[2481,1807],[40,-46]],[[2626,1748],[53,-28]],[[2686,1716],[123,-46]],[[2587,730],[0,-1]],[[2588,730],[0,1]],[[2651,896],[-19,-2]],[[2632,894],[19,2]],[[2714,902],[3,1]],[[2155,1025],[-47,-3]],[[2108,1021],[47,3]],[[1770,639],[177,22]],[[2050,1087],[1,13]],[[2051,1100],[1,2]],[[2052,1084],[56,-63]],[[2108,1022],[-56,62]],[[2082,1000],[-1,-69]],[[0,873],[547,-64]],[[546,810],[-85,12]],[[1083,670],[-3,1],[-205,30],[-36,2],[-2,0]],[[837,703],[-33,3],[-222,94]],[[583,803],[187,-82],[67,-18]],[[837,703],[2,0],[243,-34]],[[1195,652],[478,-37]],[[1770,639]],[[2173,508],[153,-59],[50,24]],[[2433,553],[141,167]],[[2714,902],[-18,-28]],[[2717,903],[279,158]],[[3665,814],[-350,210]],[[4096,703],[-321,55]],[[582,800],[-13,5]],[[569,805],[-4,2],[-19,3]],[[547,809],[22,-4]],[[569,805],[14,-2]],[[1082,669],[21,-6]],[[1103,663],[-20,7]],[[1103,663],[92,-11]],[[1704,623],[10,2]],[[2376,473],[57,80]],[[2574,720],[11,8]],[[2585,728],[2,1]],[[2587,730],[-2,-2]],[[2590,732],[-2,-1]],[[2588,730],[2,2]],[[2590,732],[67,43]],[[3120,1111],[36,9],[159,-96]],[[3775,758],[-110,56]],[[2155,1008],[-71,-6]],[[2109,1004],[46,3]],[[2441,920],[-134,-36]],[[2310,879],[89,27]],[[1891,667],[-11,-2]],[[2525,900],[107,-6]],[[2632,894],[-106,8]],[[2513,1753],[14,0]],[[0,4096],[4096,0],[0,-4096],[-4096,0],[0,4096]],[[732,455],[22,40],[-19,27],[33,29],[24,-25],[89,46],[31,-42],[-35,-116],[-135,15],[-10,26]],[[1844,0],[11,21],[67,-9],[11,39],[25,4],[15,-55],[-129,0]],[[995,430],[42,41],[66,7],[13,-48],[27,12],[-31,-84],[-51,-40],[-45,33],[5,57],[-26,22]],[[1048,636],[36,35],[111,-16],[-7,-57],[-112,-5],[20,24],[-48,19]],[[1143,403],[17,76],[34,34],[55,-41],[-68,-99],[-24,-3],[-14,33]],[[1579,669],[109,29],[26,-74],[-123,-15],[-12,60]],[[1764,300],[2,124],[84,50],[-19,-214],[-21,38],[-46,2]],[[1308,318],[21,118],[64,9],[42,-26],[-10,-113],[-59,-15],[-58,27]],[[427,969],[18,97],[21,12],[53,-92],[-6,-49],[-35,-27],[-51,59]],[[476,700],[82,41],[-13,74],[39,-6],[-25,-130],[-70,-31],[-13,52]],[[2564,736],[72,54],[38,-26],[42,11],[19,-26],[-22,-9],[-7,-64],[-92,-19],[-50,79]],[[930,2231],[2,17],[136,34],[-26,-102],[-50,4],[-14,-39],[-45,19],[-3,67]],[[1469,294],[72,76],[85,-21],[30,-63],[-6,-139],[-51,-45],[-121,135],[-9,57]],[[2372,474],[37,71],[54,18],[-21,-49],[25,-19],[-30,-63],[-59,-1],[12,39],[-18,4]],[[299,2396],[21,112],[33,-20],[50,15],[46,-76],[-21,-57],[-129,26]],[[2174,946],[133,12],[37,-46],[-87,-47],[-83,81]],[[838,431],[-52,5],[24,100],[60,58],[59,-10],[19,-104],[-110,-49]],[[2210,123],[-85,150],[-44,28],[31,68],[60,-1],[135,-66],[-97,-179]],[[2710,499],[43,-124],[-58,-118],[-38,0],[-59,89],[-53,15],[-12,119],[105,-9],[25,9],[0,45],[47,-26]],[[2928,349],[-39,-3],[-33,110],[35,83],[74,53],[87,22],[-22,-101],[-102,-164]],[[4096,653],[0,-184],[-74,56],[74,128]],[[3246,480],[-77,26],[-44,83],[-8,106],[31,98],[63,-66],[2,-24],[-32,0],[83,-160],[-18,-63]],[[204,882],[-204,7],[0,263],[71,93],[68,-5],[59,-64],[6,-204],[32,-45],[-32,-45]],[[961,2363],[104,23],[-8,-113],[-73,-16],[-133,55],[41,80],[24,9],[45,-38]],[[430,2550],[4,-74],[-36,-120],[-84,-4],[-142,138],[32,90],[65,-45],[64,90],[97,-75]],[[772,815],[-83,29],[-32,127],[18,27],[144,18],[15,38],[117,27],[26,-49],[4,-150],[-209,-67]],[[2631,1061],[32,0],[0,-89],[33,-1],[0,-223],[-57,-28],[-73,28],[-16,37],[-100,35],[-14,151],[-32,45],[56,84],[106,50],[38,2],[27,-91]],[[2760,1731],[35,-25],[62,-154],[195,0],[32,-89],[32,0],[0,-45],[32,0],[0,-44],[33,0],[0,-45],[162,-134],[-2,-58],[-128,-32],[0,-44],[-226,0],[-94,-44],[-151,64],[-47,69],[-32,0],[26,155],[-26,69],[-65,44],[57,105],[105,74],[-76,122],[-56,9],[-91,-61],[-35,-115],[-65,-44],[-12,-81],[-40,-16],[-13,-37],[-96,-20],[-160,30],[-100,-55],[16,-36],[113,-9],[144,-295],[18,-107],[33,-45],[-65,-178],[15,-57],[78,-50],[4,-72],[-47,-11],[-115,56],[-97,-45],[-161,0],[-147,-149],[-51,-91],[-61,-28],[-80,-87],[-50,-2],[0,44],[-93,56],[-36,65],[-1,103],[86,55],[133,-87],[105,-13],[65,134],[-149,130],[-13,93],[55,-14],[93,-86],[78,11],[15,38],[82,51],[-3,41],[-94,49],[-32,178],[-97,0],[-32,90],[-130,44],[0,90],[-32,0],[0,44],[-70,97],[5,82],[121,20],[55,-16],[65,-85],[115,-8],[-1,68],[-32,53],[-39,14],[-25,-46],[-34,25],[6,49],[28,46],[59,9],[38,50],[65,0],[0,45],[65,-90],[65,0],[0,-44],[216,106],[116,6],[56,-23],[64,45],[-32,268],[49,9],[173,-85],[69,-103]],[[1272,1686],[32,-89],[92,53],[37,-8],[13,-87],[20,-3],[-20,-95],[-103,-103],[-71,-25],[-65,89],[-7,122],[-26,12],[-30,-25],[26,-142],[-28,-56],[-84,-4],[-142,138],[129,179],[65,-45],[87,85],[75,4]],[[3928,1704],[-70,36],[7,97],[60,73],[53,-40],[-5,-95],[-45,-71]],[[1757,2133],[58,71],[72,-26],[-25,-66],[-65,4],[-40,-28],[16,-70],[146,26],[65,-223],[97,-31],[0,-59],[-227,0],[-32,178],[-65,0],[0,45],[-65,0],[0,45],[-43,-6],[-21,-39],[-37,49],[9,67],[92,153],[65,-90]],[[2201,159],[73,169],[44,5],[-39,-120],[-78,-54]],[[1758,700],[9,44],[50,-3],[12,37],[47,2],[55,-63],[21,4],[1,-41],[-10,-33],[-46,20],[-117,-80],[-22,113]],[[1818,676],[58,-2],[36,25],[-37,-23],[-57,0]],[[1789,616],[4,-7],[3,1],[-2,11],[-5,-5]],[[1846,648],[1,-5],[5,4],[-4,4],[-2,-3]],[[817,888],[10,27],[71,16],[62,-19],[-93,-57],[-50,33]],[[2531,277],[10,149],[56,24],[78,-27],[68,-145],[-77,-108],[-100,17],[-35,90]],[[0,982],[54,-17],[0,-30],[-46,-30],[-8,77]],[[1418,684],[68,53],[28,-42],[-26,-74],[-68,8],[-2,55]],[[3108,532],[32,59],[47,0],[55,-83],[-45,-10],[-1,-24],[-43,3],[-45,55]],[[63,942],[57,24],[-23,97],[35,13],[62,-53],[-8,-94],[-18,-8],[-20,38],[-13,-23],[-72,6]],[[3408,617],[61,58],[62,-22],[20,-37],[-52,-86],[-7,22],[-56,6],[-28,59]],[[2373,766],[26,140],[63,19],[-24,-27],[-28,-184],[-37,52]],[[2473,846],[8,79],[42,35],[105,30],[-20,-38],[68,-2],[-70,-154],[-133,50]],[[3565,798],[29,39],[91,-29],[-2,31],[95,-30],[-3,-53],[-27,-39],[-130,7],[-53,74]],[[3566,593],[22,65],[123,-15],[125,-69],[-24,2],[18,-28],[-46,30],[-40,-51],[-178,66]],[[2209,1508],[13,43],[110,-7],[-29,-16],[16,-11],[-19,-40],[-40,12],[-42,-41],[-9,60]],[[2499,1740],[65,61],[50,-42],[8,24],[33,-9],[-34,-20],[27,-34],[-62,-37],[-87,57]],[[3777,1774],[114,20],[26,36],[37,-28],[31,107],[46,-26],[-60,-102],[-71,-46],[4,-23],[-127,62]],[[1454,2085],[81,-14],[43,-40],[-2,-28],[-89,-8],[-33,90]],[[628,2203],[6,24],[62,11],[25,-48],[88,-33],[-58,1],[-13,-31],[-110,76]],[[97,2477],[18,65],[58,7],[23,-111],[-55,3],[-44,36]],[[3882,1061],[30,27],[46,-17],[42,-66],[-45,-20],[-73,76]],[[3065,1100],[46,27],[-19,12],[14,53],[34,20],[-8,29],[26,16],[36,-31],[7,39],[59,15],[36,-14],[1,-57],[21,9],[-31,-33],[54,-39],[21,-108],[-76,-23],[2,22],[-20,-15],[-44,29],[-13,-19],[-88,28],[15,54],[-73,-14]],[[2630,440],[21,121],[37,-1],[54,-82],[-27,-59],[-85,21]]]}