{"objects":{"water":{"type":"GeometryCollection","geometries":[]},"buildings":{"type":"GeometryCollection","geometries":[]},"places":{"type":"GeometryCollection","geometries":[{"type":"Point","properties":{"kind":"region","name:en":"Syunik","name":"\u054d\u0575\u0578\u0582\u0576\u056b\u0584","name:lt":"Siuniko sritis","kind_detail":"state","min_zoom":4.0,"name:de":"Sjunik","source":"openstreetmap.org","name:fr":"Siounie","name:uk":"\u0421\u044e\u043d\u0456\u043a","name:ru":"\u0421\u044e\u043d\u0438\u043a","name:pl":"Prowincja Sjunik","name:hu":"Szjounik","id":1884053545,"name:es":"Syunik'"},"coordinates":[3358,1905]},{"type":"Point","properties":{"name:ja":"\u30f4\u30a1\u30e8\u30c4\u30fb\u30be\u30eb","name:lt":"Vajocdzoro sritis","min_zoom":4.0,"name:uk":"\u0412\u0430\u0439\u043e\u0446-\u0414\u0437\u043e\u0440","name:ru":"\u0412\u0430\u0439\u043e\u0442\u0441 \u0414\u0437\u043e\u0440","name:pl":"Prowincja Wajoc Dzor","name:hu":"Vajoc Dzor","id":1884053547,"kind":"region","name:en":"Vayots Dzor","name":"\u054e\u0561\u0575\u0578\u0581 \u0541\u0578\u0580","kind_detail":"state","name:de":"Wajoz Dsor","source":"openstreetmap.org","name:fr":"Vayots Dzor","name:es":"Vayots' Dzor"},"coordinates":[1327,3690]},{"type":"Point","properties":{"name:ja":"\u30ca\u30d2\u30c1\u30a7\u30f4\u30a1\u30f3","name:ka":"\u10dc\u10d0\u10ee\u10d8\u10e9\u10d4\u10d5\u10d0\u10dc\u10d8","name:tr":"Nah\u00e7\u0131van","name:ar":"\u0646\u062e\u062c\u0648\u0627\u0646","min_zoom":8.0,"name:uk":"\u041d\u0430\u0445\u0456\u0447\u0435\u0432\u0430\u043d\u044c","name:hy":"\u0546\u0561\u056d\u056b\u057b\u0587\u0561\u0576","name:ru":"\u041d\u0430\u0445\u0438\u0447\u0435\u0432\u0430\u043d\u044c","id":171513871,"population":74100,"name:fa":"\u0646\u062e\u062c\u0648\u0627\u0646","kind":"locality","name:en":"Nakhchivan","name":"Nax\u00e7\u0131van","kind_detail":"city","name:ku":"Nax\u00e7ivan","name:de":"Nachitschewan","source":"openstreetmap.org","name:fr":"Nakhitchevan","name:es":"Najichev\u00e1n"},"coordinates":[1190,1447]},{"type":"Point","properties":{"name:fa":"\u06a9\u0627\u067e\u0627\u0646","kind":"locality","name:en":"Kapan","name":"\u053f\u0561\u057a\u0561\u0576","name:lt":"Kapanas","kind_detail":"town","source":"openstreetmap.org","min_zoom":8.0,"int_name":"Kapan","name:uk":"\u041a\u0430\u043f\u0430\u043d","name:ru":"\u041a\u0430\u043f\u0430\u043d","population":45488,"id":210231290,"name:ja":"\u30ab\u30d1\u30f3"},"coordinates":[4092,1450]},{"type":"Point","properties":{"name:fa":"\u0647\u0627\u062f\u06cc\u0634\u0647\u0631","kind":"locality","name:en":"Hadishahr","name":"\u0639\u0644\u0645\u062f\u0627\u0631","kind_detail":"town","name:ur":"\u06c1\u0627\u062f\u06cc\u0634\u06c1\u0631","source":"openstreetmap.org","min_zoom":8.0,"alt_name:en":"Alamdar Gargar","alt_name:az":"\u018fl\u0259mdar G\u0259rg\u0259r","population":28000,"name:az":"Hadi\u015f\u0259hr","id":181315829,"name:ja":"\u30cf\u30c7\u30a3\u30c3\u30b7\u30e3\u30fc"},"coordinates":[1933,77]},{"type":"Point","properties":{"kind":"locality","name:en":"Qaraziadin","name":"\u0642\u0631\u0647 \u0636\u06cc\u0627\u0627\u0644\u062f\u06cc\u0646","kind_detail":"town","source":"openstreetmap.org","min_zoom":8.0,"id":171461266,"population":23763},"coordinates":[82,258]},{"type":"Point","properties":{"name:ja":"\u30b4\u30ea\u30b9","name:lt":"Gorisas","name:tr":"Goris","min_zoom":8.0,"name:uk":"\u0490\u043e\u0440\u0456\u0441","name:ru":"\u0413\u043e\u0440\u0438\u0441","name:pl":"Goris","id":210290488,"population":23022,"name:fa":"\u06af\u0648\u0631\u06cc\u0633","kind":"locality","name:en":"Goris","name":"\u0533\u0578\u0580\u056b\u057d","kind_detail":"town","name:de":"Goris","source":"openstreetmap.org"},"coordinates":[3904,2592]},{"type":"Point","properties":{"kind":"locality","name:en":"Sisian","name":"\u054d\u056b\u057d\u056b\u0561\u0576","kind_detail":"town","source":"openstreetmap.org","min_zoom":8.0,"name:ru":"\u0421\u0438\u0441\u0438\u0430\u043d","population":16735,"id":210222626,"name:ja":"\u30b7\u30b7\u30a2\u30f3"},"coordinates":[2986,2649]},{"type":"Point","properties":{"name:fa":"\u062c\u0644\u0641\u0627","kind":"locality","name:en":"Julfa","name":"Culfa","kind_detail":"town","source":"openstreetmap.org","min_zoom":8.0,"int_name":"Julfa","name:hy":"\u054b\u0578\u0582\u0572\u0561","name:ru":"\u0414\u0436\u0443\u043b\u044c\u0444\u0430","population":12500,"id":172794981,"name:ja":"\u30b8\u30e5\u30eb\u30d5\u30a1"},"coordinates":[1826,495]},{"type":"Point","properties":{"name:fa":"\u06a9\u0627\u062c\u0627\u0631\u0627\u0646","kind":"locality","name:en":"Kajaran","name":"\u0554\u0561\u057b\u0561\u0580\u0561\u0576","name:lt":"Kad\u017earanas","kind_detail":"town","source":"openstreetmap.org","min_zoom":8.0,"int_name":"Kajaran","name:uk":"\u041a\u0430\u0434\u0436\u0430\u0440\u0430\u043d","name:ru":"\u041a\u0430\u0434\u0436\u0430\u0440\u0430\u043d","population":8498,"id":210281886,"name:ja":"\u30ab\u30b8\u30e3\u30e9\u30f3"},"coordinates":[3365,1238]},{"type":"Point","properties":{"kind":"locality","name:en":"Jermuk","name":"\u054b\u0565\u0580\u0574\u0578\u0582\u056f","kind_detail":"town","alt_name:en":"Dzhermuk","name:de":"Dschermuk","source":"openstreetmap.org","min_zoom":8.0,"int_name":"Jermuk","name:ru":"\u0414\u0436\u0435\u0440\u043c\u0443\u043a","name:pl":"D\u017cermuk","id":210212587,"population":8000},"coordinates":[1955,3829]},{"type":"Point","properties":{"kind":"locality","name:en":"Yeghegnadzor","name":"\u0535\u0572\u0565\u0563\u0576\u0561\u0571\u0578\u0580","name:lt":"Jeghegnadzoras","kind_detail":"town","name:de":"Jeghegnadsor","source":"openstreetmap.org","min_zoom":8.0,"int_name":"Yeghegnadzor","name:ru":"\u0415\u0445\u0435\u0433\u043d\u0430\u0434\u0437\u043e\u0440","name:pl":"Jeghegnadzor","population":7700,"id":210178763,"name:ja":"\u30a4\u30a7\u30b2\u30b0\u30ca\u30be\u30eb"},"coordinates":[967,3529]},{"type":"Point","properties":{"kind":"locality","name:en":"Vayk","name":"\u054e\u0561\u0575\u0584","kind_detail":"town","source":"openstreetmap.org","min_zoom":8.0,"name:ru":"\u0412\u0430\u0439\u043a","id":210205257,"population":5900},"coordinates":[1330,3284]},{"type":"Point","properties":{"kind":"locality","name:en":"Jolfa","name":"\u062c\u0644\u0641\u0627","kind_detail":"town","source":"openstreetmap.org","min_zoom":8.0,"alt_name:en":"Julfa","name:az":"Culfa - Colfa","name:ru":"\u0414\u0436\u0443\u043b\u044c\u0444\u0430 (\u0418\u0440\u0430\u043d)","population":4983,"name:zh":"\u7126\u52d2\u6cd5","id":1900973036,"name:ja":"\u30b8\u30e7\u30eb\u30d5\u30a1\u30fc"},"coordinates":[1821,434]},{"type":"Point","properties":{"name:fa":"\u0622\u06af\u0627\u0631\u0627\u06a9","kind":"locality","name:en":"Agarak","name":"\u0531\u0563\u0561\u0580\u0561\u056f","kind_detail":"town","name:de":"Agarak","source":"openstreetmap.org","min_zoom":8.0,"int_name":"Agarak","name:ru":"\u0410\u0433\u0430\u0440\u0430\u043a","population":4881,"id":210260007,"name:ja":"\u30a2\u30ac\u30e9\u30af"},"coordinates":[3483,161]},{"type":"Point","properties":{"name:fa":"\u0645\u063a\u0631\u06cc","kind":"locality","name:en":"Meghri","name":"\u0544\u0565\u0572\u0580\u056b","kind_detail":"town","source":"openstreetmap.org","min_zoom":8.0,"int_name":"Meghri","name:ru":"\u041c\u0435\u0433\u0440\u0438","name:pl":"Meghri","population":4775,"id":210261629,"name:ja":"\u30e1\u30b0\u30ea"},"coordinates":[3629,297]},{"type":"Point","properties":{"kind":"locality","name:en":"Givrag","name":"Q\u0131vraq","kind_detail":"town","source":"openstreetmap.org","min_zoom":8.0,"name:ru":"\u041a\u0438\u0432\u0440\u0430\u0433","id":1886317018,"population":4440},"coordinates":[355,2177]},{"type":"Point","properties":{"kind":"locality","name":"Bab\u0259k","kind_detail":"town","source":"openstreetmap.org","min_zoom":8.0,"name:ru":"\u0411\u0430\u0431\u0435\u043a","population":3600,"id":2813687139,"name:ja":"\u30d0\u30d9\u30af"},"coordinates":[1290,1264]},{"type":"Point","properties":{"kind":"locality","name:en":"Shakhbuz","name":"\u015eahbuz","kind_detail":"town","source":"openstreetmap.org","min_zoom":8.0,"name:ru":"\u0428\u0430\u0445\u0431\u0443\u0437","population":3200,"id":1886317088,"name:ja":"\u30b7\u30e3\u30d5\u30d6\u30ba"},"coordinates":[1653,2191]},{"type":"Point","properties":{"kind":"locality","name:en":"Siyahrud","name":"\u0633\u06cc\u0647 \u0631\u0648\u062f","name:ms":"Siah Rud","name:tr":"Siyahrud","kind_detail":"town","name:ur":"\u0633\u06cc\u06c1\u200c\u0631\u0648\u062f","source":"openstreetmap.org","min_zoom":8.0,"name:ru":"\u0421\u0438\u0430\u0445-\u0420\u0443\u0434","population":1354,"id":874521594,"name:ja":"\u30b9\u30a3\u30e4\u30d5\u30eb\u30fc\u30c9"},"coordinates":[2920,176]}]},"transit":{"type":"GeometryCollection","geometries":[]},"pois":{"type":"GeometryCollection","geometries":[]},"boundaries":{"type":"GeometryCollection","geometries":[{"type":"MultiLineString","properties":{"name:right:yo":"Arm\u00e9n\u00ed\u00e0","name:right:yi":"\u05d0\u05b7\u05e8\u05de\u05e2\u05e0\u05d9\u05e2","name:right:dv":"\u0787\u07a6\u0783\u07aa\u0789\u07a9\u0782\u07a8\u0787\u07a7","name:right:qu":"Arminya","name:left:pl":"Azerbejd\u017can","name:right:ko":"\uc544\ub974\uba54\ub2c8\uc544","alt_name:right:os":"\u0421\u043e\u043c\u0438\u0445","alt_name:right:pt":"Arm\u00eania","int_name:left":"Azerbaijan","name:right:el":"\u0391\u03c1\u03bc\u03b5\u03bd\u03af\u03b1","name:right:hr":"Armenija","name:left:kg":"Azerbaidjan","name:left:ka":"\u10d0\u10d6\u10d4\u10e0\u10d1\u10d0\u10d8\u10ef\u10d0\u10dc\u10d8","alt_name:left:sh":"Azerbajd\u017ean","name:left:km":"\u17a2\u17b6\u179f\u17ca\u17c2\u1794\u17c3\u17a0\u17d2\u179f\u1784\u17cb","name:left:kl":"Aserbajdsjan","alt_name:left:sg":"Azerbaidy\u00e4an","name:right:it":"Armenia","name:right:is":"Armen\u00eda","name:left:ro":"Azerbaidjan","name:left:kk":"\u04d8\u0437\u0456\u0440\u0431\u0430\u0439\u0436\u0430\u043d","name:left:rm":"Aserbeidschan","name:right:io":"Armenia","name:left:kw":"Azerbayjan","name:left:kv":"\u0410\u0437\u0435\u0440\u0431\u0430\u0439\u0434\u0436\u0430\u0301\u043d","name:right:rn":"Arumeniya","name:left:rw":"Azeribayijani","name:left:ks":"\u0622\u0632\u064e\u0631\u0628\u0627\u062c\u0627\u0646","name:left:ru":"\u0410\u0437\u0435\u0440\u0431\u0430\u0439\u0434\u0436\u0430\u0301\u043d","name:right:ie":"Armenia","name:right:id":"Armenia","name:left:ky":"\u0410\u0437\u0435\u0440\u0431\u0430\u0439\u0436\u0430\u043d","name:right:ia":"Armenia","name:right:bi":"Armenia","name:right:bn":"\u0986\u09b0\u09cd\u09ae\u09c7\u09a8\u09bf\u09af\u09bc\u09be","name:right:bo":"\u0f68\u0f62\u0f0b\u0f58\u0f7a\u0f0b\u0f53\u0f72\u0f0b\u0f61\u0f0d","name:right:bm":"Arimeni","name:right:ba":"\u04d8\u0440\u043c\u04d9\u043d\u0441\u0442\u0430\u043d","name:right:bg":"\u0410\u0440\u043c\u0435\u043d\u0438\u044f","name:right:be":"\u0410\u0440\u043c\u0435\u0301\u043d\u0456\u044f","name:right:br":"Armenia","name:right:bs":"Ermenija","name:right:nn":"Armenia","name:right:no":"Armenia","name:right:nl":"Armeni\u00eb","name:left:sk":"Azerbajd\u017ean","name:right:wo":"Armeeni","name:right:ne":"\u0906\u0930\u094d\u092e\u0947\u0928\u093f\u092f\u093e","name:right:na":"Arminiya","name:right:ps":"\u0627\u0631\u0645\u0646\u0633\u062a\u0627\u0646","name:right:hi":"\u0906\u0930\u094d\u092e\u0940\u0928\u093f\u092f\u093e","name:right:nv":"Aoom\u00e9\u00e9nii Bik\u00e9yah","name:left:mg":"Azerbaijana","name:left:ta":"\u0b85\u0b9a\u0bb0\u0bcd\u0baa\u0bc8\u0b9c\u0bbe\u0ba9\u0bcd","kind_detail":"2","alt_name:right:vi":"Acmeni","name:left:mi":"Atepaih\u0101nia","name:right:gu":"\u0a86\u0ab0\u0acd\u0aae\u0ac7\u0aa8\u0abf\u0aaf\u0abe","name:left:ty":"Atepaih\u0101nia","name:right:gv":"Armeain","name:right:pt":"Arm\u00e9nia","name:left:mk":"\u0410\u0437\u0435\u0440\u0431\u0435\u0458\u045f\u0430\u043d","name:left:tr":"Azerbaycan","name:left:ts":"Azerbaijan","name:left:tt":"\u0410\u0437\u04d9\u0440\u0431\u0430\u0439\u0497\u0430\u043d","name:left:mn":"\u0410\u0437\u0435\u0440\u0431\u0430\u0439\u0436\u0430\u043d","name:left:ml":"\u0d05\u0d38\u0d7c\u0d2c\u0d46\u0d2f\u0d4d\u0d1c\u0d3e\u0d7b","name:left:ms":"Azerbaijan","name:left:mr":"\u0905\u091d\u0930\u092c\u0948\u091c\u093e\u0928","name:left:tk":"Azerba\u00fdjan","name:left:tl":"Aserbayan","name:left:mt":"A\u017cerbaj\u0121an","name:right:gl":"Armenia","name:left:my":"\u1021\u1007\u102c\u1018\u102d\u102f\u1004\u103a\u1002\u103b\u1014\u103a\u1014\u102d\u102f\u1004\u103a\u1004\u1036","name:left:tw":"Azerbaijan","name:right:pl":"Armenia","name:left:te":"\u0c05\u0c1c\u0c30\u0c4d\u200c\u0c2c\u0c48\u0c1c\u0c3e\u0c28\u0c4d","name:left:tg":"\u041e\u0437\u0430\u0440\u0431\u043e\u0439\u04b7\u043e\u043d","name:left:th":"\u0e2d\u0e32\u0e40\u0e0b\u0e2d\u0e23\u0e4c\u0e44\u0e1a\u0e08\u0e32\u0e19","name:right:pa":"\u0a05\u0a30\u0a2e\u0a40\u0a28\u0a40\u0a06","name:left:da":"Aserbajdsjan","name:left:de":"Aserbaidschan","name:left:dz":"\u0f68\u0f5b\u0f62\u0f0b\u0f56\u0f61\u0f7a\u0f0b\u0f47\u0f53\u0f0d","name:right:ga":"An Airm\u00e9in","name:left:dv":"\u0787\u07a6\u0792\u07a6\u0783\u07aa\u0784\u07a6\u0787\u07a8\u0796\u07a7\u0782\u07b0","name:right:lg":"Arameniya","name:right:ug":"\u0626\u06d5\u0631\u0645\u06d0\u0646\u0649\u064a\u06d5","name:right:la":"Armenia","name:right:lb":"Armenien","name:right:uk":"\u0412\u0456\u0440\u043c\u0435\u0301\u043d\u0456\u044f","name:left:he":"\u05d0\u05b8\u05d6\u05b7\u05e8\u05b0\u05d1\u05b7\u05bc\u05d9\u05b0\u05d9\u05d2\u05b8'\u05df","name:right:ln":"Armeni","name:right:lo":"\u0e9b\u0eb0\u0ec0\u0e97\u0e94\u0ead\u0eb2\u0e81\u0ec0\u0ea1\u0e99\u0eb5","name:right:li":"Armeni\u00eb","name:right:lt":"Arm\u0117nija","name:right:ur":"\u0622\u0631\u0645\u06cc\u0646\u06cc\u0627","name:right:lv":"Arm\u0113nija","name:left:hy":"\u0531\u0564\u0580\u0562\u0565\u057b\u0561\u0576","name:right:pi":"\u0906\u0930\u094d\u092e\u0940\u0928\u093f\u092f\u093e","name:left:ht":"Azerbaydjan","name:right:uz":"Armaniston","name:left:hr":"Azerbajd\u017ean","name:right:gn":"Aymenia","alt_name:right:th":"\u0e2d\u0e32\u0e23\u0e4c\u0e40\u0e21\u0e40\u0e19\u0e35\u0e22","name:right:av":"\u0426I\u0430\u043c\u0443\u0445\u044a","sort_rank":262,"alt_name:right:te":"\u0c06\u0c30\u0c4d\u0c2e\u0c40\u0c28\u0c3f\u0c2f\u0c3e","name:right:gd":"Airmeinia","name:left:to":"\u02bbAsapaisani","name:right:os":"\u0421\u043e\u043c\u0438\u0445\u044b\u0441\u0442\u043e\u043d","name:right:as":"\u0986\u09f0\u09cd\u09ae\u09c7\u09a8\u09bf\u09af\u09bc\u09be","name:right:es":"Armenia","name:right:sr":"\u0408\u0435\u0440\u043c\u0435\u043d\u0438\u0458\u0430","name:right:eu":"Armenia","name:right:et":"Armeenia","name:left:os":"\u0410\u0437\u0435\u0440\u0431\u0430\u0439\u0434\u0436\u0430\u043d","name:left:or":"\u0b06\u0b1c\u0b3e\u0b30\u0b2c\u0b3e\u0b07\u0b1c\u0b3e\u0b28","name:left:om":"Azarbaajan","name:right:ee":"Armenia","name:left:vo":"Las\u00e4rb\u00e4c\u00e4n","name:left:oc":"Azerbaitjan","name:right:eo":"Armenujo","name:right:en":"Armenia","name:left:vi":"Azerbaijan","name:left:ff":"Aserbayjan","name:left:fa":"\u0622\u0630\u0631\u0628\u0627\u06cc\u062c\u0627\u0646","name:left:fo":"Aserbadsjan","name:right:sk":"Arm\u00e9nsko","name:left:fi":"Azerbaid\u017ean","name:left:fr":"Azerba\u00efdjan","name:right:sm":"Amenia","name:left:fy":"Azerbeidzjan","name:right:ja":"\u30a2\u30eb\u30e1\u30cb\u30a2","name:right:sq":"Armenia","name:right:ss":"iArimeniya","name:left:ja":"\u30a2\u30bc\u30eb\u30d0\u30a4\u30b8\u30e3\u30f3","name:right:su":"Arm\u00e9nia","name:right:sw":"Armenia","name:right:sv":"Armenien","name:right:si":"\u0d86\u0dbb\u0dca\u0db8\u0dda\u0db1\u0dd2\u0dba\u0dcf\u0dc0","name:right:sh":"Jermenija","name:left:qu":"Asarsuyu","name:right:jv":"Arm\u00e8nia","name:right:sl":"Armenija","name:right:so":"Armania","name:right:sn":"Armenia","name:right:sa":"\u0906\u0930\u094d\u092e\u0940\u0928\u093f\u092f\u093e","name:right:sc":"Arm\u00e8nia","name:left:jv":"Azerbaijan","name:right:sd":"\u0622\u0631\u0645\u064a\u0646\u064a\u0627","name:right:sg":"Armen\u00efi","name:right:ch":"Armenia","name:right:co":"Armenia","name:right:ca":"Arm\u00e8nia","name:right:se":"Armenia","name:right:ce":"\u0410\u0440\u0435\u043c\u0430\u043b\u043e\u0439\u043d","id":-364110,"name:right:cy":"Armenia","name:right:zh-yue":"\u4e9e\u7f8e\u5c3c\u4e9e","alt_name:right:av":"\u042d\u0440\u043c\u0435\u043d\u0438\u0441\u0442\u0430\u043d","name:right:cs":"Arm\u00e9nie","name:left:bm":"Az\u025brbayja\u014b","name:right:cu":"\u0410\u0440\u043c\u0454\u043d\u0456\u0301\ua657","name:left:ko":"\uc544\uc81c\ub974\ubc14\uc774\uc794","name:right:cv":"\u042d\u0440\u043c\u0435\u043d\u0438","name:left:av":"\u0410\u0437\u0430\u0440\u0431\u0438\u0436\u0430\u043d","name:left:kn":"\u0c85\u0c9c\u0cc6\u0cb0\u0ccd\u0cac\u0cc8\u0c9c\u0cbe\u0ca8\u0ccd","name:left:as":"\u0986\u099c\u09c7\u09f0\u09ac\u09be\u0987\u099c\u09be\u09a8","name:left:ar":"\u0623\u0630\u0631\u0628\u064a\u062c\u0627\u0646","name:left:ki":"Azerbaijan","name:right:rw":"Arumeniya","name:left:af":"Azerbeidjan","name:left:ab":"\u0410\u0437\u0435\u0440\u0431\u0430\u0438\u045f\u044c\u0430\u043d","name:left:an":"Azerbaich\u00e1n","name:left:am":"\u12a0\u12d8\u122d\u1263\u12ed\u1303\u1295","name:right:ru":"\u0410\u0440\u043c\u0435\u0301\u043d\u0438\u044f","name:left:ak":"Azerbaijan","name:left:ku":"Azerbaycan","alt_name:right:jv":"Hayastan","alt_name:right:sh":"Armenija","name:left:zh-yue":"\u963f\u585e\u62dc\u7586","name:right:ro":"Armenia","name:left:la":"Atropatene","name:left:lb":"Aserbaidschan","name:left:lg":"Azerebayijaani","name:left:su":"Azerbaijan","name:left:li":"Azerbaidzjan","name:left:sw":"Azerbaijan","name:left:sv":"Azerbajdzjan","name:left:sq":"Azerbajxhani","name:right:hu":"\u00d6rm\u00e9nyorsz\u00e1g","name:left:ss":"iZebajani","name:left:sr":"\u0410\u0437\u0435\u0440\u0431\u0435\u0458\u045f\u0430\u043d","name:left:sm":"Azerbaijin","alt_name:right:gd":"Arminia","name:left:so":"Aserbiijaan","name:left:sn":"Azerbaijan","name:left:si":"\u0d85\u0dc3\u0dbb\u0dca\u0db6\u0dba\u0dd2\u0da2\u0dcf\u0db1\u0dba","name:left:sh":"Azerbejd\u017ean","name:left:lv":"Azerbaid\u017e\u0101na","name:left:se":"Aserbai\u017ean","name:right:ha":"Armeniya","name:left:sg":"Zerebaidy\u00e4an","alt_name:right:gn":"Ayme\u00f1a","name:left:sa":"\u0905\u091c\u0930\u094d\u092c\u0948\u091c\u093e\u0928","name:right:he":"\u05d0\u05b7\u05e8\u05b0\u05de\u05b6\u05e0\u05b0\u05d9\u05b8\u05d4","name:left:sc":"Azerbaigi\u00e1n","name:left:hi":"\u0905\u091c\u093c\u0930\u092c\u0948\u091c\u093e\u0928","name:right:af":"Armeni\u00eb","name:left:co":"Azerbaighjan","name:right:ab":"\u0415\u0440\u043c\u0430\u043d\u0442\u04d9\u044b\u043b\u0430","name:left:ce":"\u0410\u0437\u0435\u0440\u0431\u0430\u0439\u0434\u0436\u0430\u0301\u043d","name:right:an":"Armenia","name:right:am":"\u12a0\u122d\u1218\u1292\u12eb","name:left:ca":"Azerbaidjan","source":"openstreetmap.org","name:left:cy":"Aserbaijan","name:right:ar":"\u0623\u0631\u0645\u064a\u0646\u064a\u0627","name:left:cu":"\u0410\ua641\u0463\u0440\u0431\u0430\u0438\u0447\u0430\u0301\u043d\u044a","name:left:cv":"\u0410\u0437\u0435\u0440\u0431\u0430\u0439\u0434\u0436\u0430\u043d","name:right:az":"Erm\u0259nistan","name:left:cs":"\u00c1zerb\u00e1jd\u017e\u00e1n","name:right:ak":"Armenia","name:left:ha":"Azerbaijan","alt_name:left:la":"Azerbaigiania","name:right:rm":"Armenia","name":"Az\u0259rbaycan - \u0540\u0561\u0575\u0561\u057d\u057f\u0561\u0576","name:right:zu":"i-Armenia","name:left:zu":"Azerbaijan","name:left:zh":"\u963f\u585e\u62dc\u7586","name:right:za":"Armenia","name:right:zh":"\u4e9e\u7f8e\u5c3c\u4e9e","name:left:za":"Ahsehbaiqgyangh","official_name:left":"Az\u0259rbaycan Respublikas\u0131","name:left:uz":"Ozarbayjon","name:right:fr":"Arm\u00e9nie","name:left:ps":"\u0622\u0632\u0631\u0628\u0627\u06cc\u062c\u0627\u0646","name:left:ny":"Azerbaijan","name:left:nv":"Az\u00e9\u00e9wii Bik\u00e9yah","name:left:ur":"\u0622\u0630\u0631\u0628\u0627\u0626\u06cc\u062c\u0627\u0646","id:right":-364066,"name:left:nn":"Aserbajdsjan","name:left:no":"Aserbajdsjan","name:left:nl":"Azerbeidzjan","name:left:be":"\u0410\u0437\u0435\u0440\u0431\u0430\u0439\u0434\u0436\u0430\u0301\u043d","alt_name:right:eo":"Armenio","name:left:hu":"Azerbajdzs\u00e1n","alt_name:left:bg":"\u0410\u0437\u044a\u0440\u0431\u0430\u0439\u0434\u0436\u0430\u043d","name:left:ne":"\u0905\u091c\u0930\u092c\u0948\u091c\u093e\u0928","name:left:ug":"\u0626\u06d5\u0632\u06d5\u0631\u0628\u06d5\u064a\u062c\u0627\u0646","name:left:na":"Aderbaidjan","name:left:eo":"Azerbaj\u011dano","name:left:en":"Azerbaijan","name:left:el":"\u0391\u03b6\u03b5\u03c1\u03bc\u03c0\u03b1\u03ca\u03c4\u03b6\u03ac\u03bd","name:left:ee":"Azerbaijan","name:right:ki":"Armenia","name:left:es":"Azerbaiy\u00e1n","name:right:kk":"\u0410\u0440\u043c\u0435\u043d\u0438\u044f","name:left:eu":"Azerbaijan","name:left:et":"Aserbaid\u017eaan","name:right:om":"Armeeniyaa","name:right:zh-min-nan":"Hayastan","name:left:id":"Azerbaijan","name:right:oc":"Armenia","name:left:pi":"\u0905\u091c\u0930\u094d\u092c\u0948\u091c\u093e\u0928","name:left:lt":"Azerbaid\u017eanas","name:left:ia":"Azerbaidzhan","name:right:kn":"\u0c86\u0cb0\u0ccd\u0cae\u0cc7\u0ca8\u0cbf\u0caf","osm_relation":true,"name:right:or":"\u0b06\u0b30\u0b4d\u0b2e\u0b47\u0b28\u0b3f\u0b06","name:left:pt":"Azerbaij\u00e3o","name:right:ks":"\u0627\u064e\u0631\u0645\u0627\u0646\u0650\u06cc\u0627","name:right:ku":"Ermenistan","name:right:tk":"Ermenistan","int_name:right":"Armenia","min_zoom":8.0,"name:left:sl":"Azerbajd\u017ean","name:left:zh-min-nan":"Azerbaijan","name:left:ln":"Az\u025brbayz\u00e1ni","name:left:wo":"Aserbayjaan","name:left:ga":"an Asarbaise\u00e1in","name:left:it":"Azerbaigian","alt_name:right:ku":"Flestan","name:left:gd":"Asarbaide\u00e0n","name:left:gl":"Acerbaix\u00e1n","name:left:gn":"Aservaij\u00e3","name:left:gu":"\u0a85\u0a9d\u0ac7\u0ab0\u0aac\u0ac0\u0a9c\u0abe\u0aa8","name:left:gv":"yn Asserbajaan","name:left:lo":"\u0e9b\u0eb0\u0ec0\u0e97\u0e94\u0ead\u0eb2\u0ec1\u0e8a\u0e81\u0e9a\u0eb2\u0e8d\u0e8a\u0eb1\u0e87","alt_name:right:kk":"\u04d8\u0440\u043c\u0435\u043d\u0441\u0442\u0430\u043d;\u04d8\u0440\u043c\u0435\u043d\u0438\u044f","alt_name:right:kn":"\u0cb9\u0caf\u0cb8\u0ccd\u0ca4\u0cbe\u0ca8\u0cbf \u0cb9\u0ca8\u0ccd\u0cb0\u0caa\u0cc6\u0ca4\u0cc1\u0ca4\u0ccd\u0caf\u0cc1\u0ca8\u0ccd","name:right:mk":"\u0415\u0440\u043c\u0435\u043d\u0438\u0458\u0430","name:right:mi":"\u0100menia","name:right:mn":"\u0410\u0440\u043c\u0435\u043d","name:right:ml":"\u0d05\u0d7c\u0d2e\u0d47\u0d28\u0d3f\u0d2f","name:right:vo":"Larmeniy\u00e4n","name:right:mg":"Armenia","name:right:vi":"Armenia","official_name:right":"\u0540\u0561\u0575\u0561\u057d\u057f\u0561\u0576\u056b \u0540\u0561\u0576\u0580\u0561\u057a\u0565\u057f\u0578\u0582\u0569\u0575\u0578\u0582\u0576","name:right:my":"\u1021\u102c\u1019\u1031\u1038\u1014\u102e\u1038\u101a\u102c\u1038\u1014\u102d\u102f\u1004\u103a\u1004\u1036","name:right:ms":"Armenia","name:right:mr":"\u0906\u0930\u094d\u092e\u0947\u0928\u093f\u092f\u093e","name:right:fy":"Armeenje","name:right:mt":"Armenja","name:left:uk":"\u0410\u0437\u0435\u0440\u0431\u0430\u0439\u0434\u0436\u0430\u0301\u043d","kind":"country","alt_name:right:lo":"\u0e9b\u0eb0\u0ec0\u0e97\u0e94\u0eae\u0eb2\u0ea2\u0eb2\u0eaa\u0eb0\u0e95\u0eb2\u0e99","alt_name:left:gd":"Asarbajan","name:left":"Az\u0259rbaycan","alt_name:left:gn":"Aseyvaij\u00e3","name:left:br":"Azerbaidjan","name:left:bs":"Azerbejd\u017ean","name:right:fa":"\u0627\u0631\u0645\u0646\u0633\u062a\u0627\u0646","name:left:ba":"\u04d8\u0437\u0435\u0440\u0431\u0430\u0439\u0436\u0430\u043d","name:left:bg":"\u0410\u0437\u0435\u0440\u0431\u0430\u0439\u0434\u0436\u0430\u043d","name:right:fo":"Armenia","name:right:ff":"Armaaniya","name:left:bi":"Azerbaijan","name:left:bn":"\u0986\u099c\u09be\u09b0\u09ac\u09be\u0987\u099c\u09be\u09a8","name:left:bo":"\u0f68\u0f0b\u0f5b\u0f62\u0f0b\u0f56\u0f61\u0f72\u0f0b\u0f47\u0f53\u0f0d","name:right":"\u0540\u0561\u0575\u0561\u057d\u057f\u0561\u0576","name:left:ti":"\u12a0\u12d8\u122d\u1263\u1303\u1295","name:left:yo":"Azerbaijan","name:left:yi":"\u05d0\u05b7\u05d6\u05e2\u05e8\u05d1\u05f2\u05b7\u05d3\u05d6\u05e9\u05d0\u05b7\u05df","id:left":-364110,"name:right:fi":"Armenia","name:right:ka":"\u10e1\u10dd\u10db\u10ee\u10d4\u10d7\u10d8","name:left:io":"Azerbaijan","name:right:ty":"\u0100menia","name:right:kg":"Armenia","name:right:tt":"\u04d8\u0440\u043c\u04d9\u043d\u0441\u0442\u0430\u043d","name:left:ie":"Azerbaidjan","name:right:tw":"Aminia","name:right:km":"\u17a2\u17b6\u1798\u17c1\u1793\u17b8","name:right:kl":"Armenia","name:right:tr":"Ermenistan","name:right:ts":"Armenia","name:right:tl":"Armenya","alt_name:left:qu":"Asirwayan","name:right:to":"\u02bb\u0100minia","name:right:th":"\u0e2d\u0e32\u0e23\u0e4c\u0e21\u0e35\u0e40\u0e19\u0e35\u0e22","name:right:ti":"\u12a0\u122d\u121c\u1292\u12eb","name:right:kw":"Armeni","name:right:kv":"\u0410\u0440\u043c\u0435\u043d\u0438\u044f","name:right:ky":"\u0410\u0440\u043c\u0435\u043d\u0438\u044f","name:right:te":"\u0c06\u0c30\u0c4d\u0c2e\u0c47\u0c28\u0c3f\u0c2f\u0c3e","name:right:tg":"\u0410\u0440\u043c\u0430\u043d\u0438\u0441\u0442\u043e\u043d","name:left:is":"Aserba\u00edsjan","name:right:ta":"\u0b86\u0bb0\u0bcd\u0bae\u0bc0\u0ba9\u0bbf\u0baf\u0bbe","name:right:de":"Armenien","name:right:da":"Armenien","alt_name:left:af":"Azerbaidjan;Aserbeidjan","name:right:dz":"\u0f68\u0f62\u0f0b\u0f58\u0f72\u0f0b\u0f53\u0f72\u0f0b\u0f61","name:left:pa":"\u0a05\u0a1c\u0a3c\u0a30\u0a2c\u0a3e\u0a08\u0a1c\u0a3e\u0a28","name:right:ht":"Ameni"},"arcs":[[0],[1]]},{"type":"LineString","properties":{"name:right:yo":"Arm\u00e9n\u00ed\u00e0","name:right:yi":"\u05d0\u05b7\u05e8\u05de\u05e2\u05e0\u05d9\u05e2","name:right:dv":"\u0787\u07a6\u0783\u07aa\u0789\u07a9\u0782\u07a8\u0787\u07a7","name:right:qu":"Arminya","name:left:pl":"Azerbejd\u017can","name:right:ko":"\uc544\ub974\uba54\ub2c8\uc544","alt_name:right:os":"\u0421\u043e\u043c\u0438\u0445","alt_name:right:pt":"Arm\u00eania","int_name:left":"Azerbaijan","name:right:el":"\u0391\u03c1\u03bc\u03b5\u03bd\u03af\u03b1","name:right:hr":"Armenija","name:left:kg":"Azerbaidjan","name:left:ka":"\u10d0\u10d6\u10d4\u10e0\u10d1\u10d0\u10d8\u10ef\u10d0\u10dc\u10d8","alt_name:left:sh":"Azerbajd\u017ean","name:left:km":"\u17a2\u17b6\u179f\u17ca\u17c2\u1794\u17c3\u17a0\u17d2\u179f\u1784\u17cb","name:left:kl":"Aserbajdsjan","alt_name:left:sg":"Azerbaidy\u00e4an","name:right:it":"Armenia","name:right:is":"Armen\u00eda","name:left:ro":"Azerbaidjan","name:left:kk":"\u04d8\u0437\u0456\u0440\u0431\u0430\u0439\u0436\u0430\u043d","name:left:rm":"Aserbeidschan","name:right:io":"Armenia","name:left:kw":"Azerbayjan","name:left:kv":"\u0410\u0437\u0435\u0440\u0431\u0430\u0439\u0434\u0436\u0430\u0301\u043d","name:right:rn":"Arumeniya","name:left:rw":"Azeribayijani","name:left:ks":"\u0622\u0632\u064e\u0631\u0628\u0627\u062c\u0627\u0646","name:left:ru":"\u0410\u0437\u0435\u0440\u0431\u0430\u0439\u0434\u0436\u0430\u0301\u043d","name:right:ie":"Armenia","name:right:id":"Armenia","name:left:ky":"\u0410\u0437\u0435\u0440\u0431\u0430\u0439\u0436\u0430\u043d","name:right:ia":"Armenia","name:right:bi":"Armenia","name:right:bn":"\u0986\u09b0\u09cd\u09ae\u09c7\u09a8\u09bf\u09af\u09bc\u09be","name:right:bo":"\u0f68\u0f62\u0f0b\u0f58\u0f7a\u0f0b\u0f53\u0f72\u0f0b\u0f61\u0f0d","name:right:bm":"Arimeni","name:right:ba":"\u04d8\u0440\u043c\u04d9\u043d\u0441\u0442\u0430\u043d","name:right:bg":"\u0410\u0440\u043c\u0435\u043d\u0438\u044f","name:right:be":"\u0410\u0440\u043c\u0435\u0301\u043d\u0456\u044f","name:right:br":"Armenia","name:right:bs":"Ermenija","name:right:nn":"Armenia","name:right:no":"Armenia","name:right:nl":"Armeni\u00eb","name:left:sk":"Azerbajd\u017ean","name:right:wo":"Armeeni","name:right:ne":"\u0906\u0930\u094d\u092e\u0947\u0928\u093f\u092f\u093e","name:right:na":"Arminiya","name:right:ps":"\u0627\u0631\u0645\u0646\u0633\u062a\u0627\u0646","name:right:hi":"\u0906\u0930\u094d\u092e\u0940\u0928\u093f\u092f\u093e","name:right:nv":"Aoom\u00e9\u00e9nii Bik\u00e9yah","name:left:mg":"Azerbaijana","name:left:ta":"\u0b85\u0b9a\u0bb0\u0bcd\u0baa\u0bc8\u0b9c\u0bbe\u0ba9\u0bcd","kind_detail":"2","alt_name:right:vi":"Acmeni","name:left:mi":"Atepaih\u0101nia","name:right:gu":"\u0a86\u0ab0\u0acd\u0aae\u0ac7\u0aa8\u0abf\u0aaf\u0abe","name:left:ty":"Atepaih\u0101nia","name:right:gv":"Armeain","name:right:pt":"Arm\u00e9nia","name:left:mk":"\u0410\u0437\u0435\u0440\u0431\u0435\u0458\u045f\u0430\u043d","name:left:tr":"Azerbaycan","name:left:ts":"Azerbaijan","name:left:tt":"\u0410\u0437\u04d9\u0440\u0431\u0430\u0439\u0497\u0430\u043d","name:left:mn":"\u0410\u0437\u0435\u0440\u0431\u0430\u0439\u0436\u0430\u043d","name:left:ml":"\u0d05\u0d38\u0d7c\u0d2c\u0d46\u0d2f\u0d4d\u0d1c\u0d3e\u0d7b","name:left:ms":"Azerbaijan","name:left:mr":"\u0905\u091d\u0930\u092c\u0948\u091c\u093e\u0928","name:left:tk":"Azerba\u00fdjan","name:left:tl":"Aserbayan","name:left:mt":"A\u017cerbaj\u0121an","name:right:gl":"Armenia","name:left:my":"\u1021\u1007\u102c\u1018\u102d\u102f\u1004\u103a\u1002\u103b\u1014\u103a\u1014\u102d\u102f\u1004\u103a\u1004\u1036","name:left:tw":"Azerbaijan","name:right:pl":"Armenia","name:left:te":"\u0c05\u0c1c\u0c30\u0c4d\u200c\u0c2c\u0c48\u0c1c\u0c3e\u0c28\u0c4d","name:left:tg":"\u041e\u0437\u0430\u0440\u0431\u043e\u0439\u04b7\u043e\u043d","name:left:th":"\u0e2d\u0e32\u0e40\u0e0b\u0e2d\u0e23\u0e4c\u0e44\u0e1a\u0e08\u0e32\u0e19","name:right:pa":"\u0a05\u0a30\u0a2e\u0a40\u0a28\u0a40\u0a06","name:left:da":"Aserbajdsjan","name:left:de":"Aserbaidschan","name:left:dz":"\u0f68\u0f5b\u0f62\u0f0b\u0f56\u0f61\u0f7a\u0f0b\u0f47\u0f53\u0f0d","name:right:ga":"An Airm\u00e9in","name:left:dv":"\u0787\u07a6\u0792\u07a6\u0783\u07aa\u0784\u07a6\u0787\u07a8\u0796\u07a7\u0782\u07b0","name:right:lg":"Arameniya","name:right:ug":"\u0626\u06d5\u0631\u0645\u06d0\u0646\u0649\u064a\u06d5","name:right:la":"Armenia","name:right:lb":"Armenien","name:right:uk":"\u0412\u0456\u0440\u043c\u0435\u0301\u043d\u0456\u044f","name:left:he":"\u05d0\u05b8\u05d6\u05b7\u05e8\u05b0\u05d1\u05b7\u05bc\u05d9\u05b0\u05d9\u05d2\u05b8'\u05df","name:right:ln":"Armeni","name:right:lo":"\u0e9b\u0eb0\u0ec0\u0e97\u0e94\u0ead\u0eb2\u0e81\u0ec0\u0ea1\u0e99\u0eb5","name:right:li":"Armeni\u00eb","name:right:lt":"Arm\u0117nija","name:right:ur":"\u0622\u0631\u0645\u06cc\u0646\u06cc\u0627","name:right:lv":"Arm\u0113nija","name:left:hy":"\u0531\u0564\u0580\u0562\u0565\u057b\u0561\u0576","name:right:pi":"\u0906\u0930\u094d\u092e\u0940\u0928\u093f\u092f\u093e","name:left:ht":"Azerbaydjan","name:right:uz":"Armaniston","name:left:hr":"Azerbajd\u017ean","name:right:gn":"Aymenia","alt_name:right:th":"\u0e2d\u0e32\u0e23\u0e4c\u0e40\u0e21\u0e40\u0e19\u0e35\u0e22","name:right:av":"\u0426I\u0430\u043c\u0443\u0445\u044a","sort_rank":262,"alt_name:right:te":"\u0c06\u0c30\u0c4d\u0c2e\u0c40\u0c28\u0c3f\u0c2f\u0c3e","name:right:gd":"Airmeinia","name:left:to":"\u02bbAsapaisani","name:right:os":"\u0421\u043e\u043c\u0438\u0445\u044b\u0441\u0442\u043e\u043d","name:right:as":"\u0986\u09f0\u09cd\u09ae\u09c7\u09a8\u09bf\u09af\u09bc\u09be","name:right:es":"Armenia","name:right:sr":"\u0408\u0435\u0440\u043c\u0435\u043d\u0438\u0458\u0430","name:right:eu":"Armenia","name:right:et":"Armeenia","name:left:os":"\u0410\u0437\u0435\u0440\u0431\u0430\u0439\u0434\u0436\u0430\u043d","name:left:or":"\u0b06\u0b1c\u0b3e\u0b30\u0b2c\u0b3e\u0b07\u0b1c\u0b3e\u0b28","name:left:om":"Azarbaajan","name:right:ee":"Armenia","name:left:vo":"Las\u00e4rb\u00e4c\u00e4n","name:left:oc":"Azerbaitjan","name:right:eo":"Armenujo","name:right:en":"Armenia","name:left:vi":"Azerbaijan","name:left:ff":"Aserbayjan","name:left:fa":"\u0622\u0630\u0631\u0628\u0627\u06cc\u062c\u0627\u0646","name:left:fo":"Aserbadsjan","name:right:sk":"Arm\u00e9nsko","name:left:fi":"Azerbaid\u017ean","name:left:fr":"Azerba\u00efdjan","name:right:sm":"Amenia","name:left:fy":"Azerbeidzjan","name:right:ja":"\u30a2\u30eb\u30e1\u30cb\u30a2","name:right:sq":"Armenia","name:right:ss":"iArimeniya","name:left:ja":"\u30a2\u30bc\u30eb\u30d0\u30a4\u30b8\u30e3\u30f3","name:right:su":"Arm\u00e9nia","name:right:sw":"Armenia","name:right:sv":"Armenien","name:right:si":"\u0d86\u0dbb\u0dca\u0db8\u0dda\u0db1\u0dd2\u0dba\u0dcf\u0dc0","name:right:sh":"Jermenija","name:left:qu":"Asarsuyu","name:right:jv":"Arm\u00e8nia","name:right:sl":"Armenija","name:right:so":"Armania","name:right:sn":"Armenia","name:right:sa":"\u0906\u0930\u094d\u092e\u0940\u0928\u093f\u092f\u093e","name:right:sc":"Arm\u00e8nia","name:left:jv":"Azerbaijan","name:right:sd":"\u0622\u0631\u0645\u064a\u0646\u064a\u0627","name:right:sg":"Armen\u00efi","name:right:ch":"Armenia","name:right:co":"Armenia","name:right:ca":"Arm\u00e8nia","name:right:se":"Armenia","name:right:ce":"\u0410\u0440\u0435\u043c\u0430\u043b\u043e\u0439\u043d","id":-364110,"name:right:cy":"Armenia","name:right:zh-yue":"\u4e9e\u7f8e\u5c3c\u4e9e","alt_name:right:av":"\u042d\u0440\u043c\u0435\u043d\u0438\u0441\u0442\u0430\u043d","name:right:cs":"Arm\u00e9nie","name:left:bm":"Az\u025brbayja\u014b","name:right:cu":"\u0410\u0440\u043c\u0454\u043d\u0456\u0301\ua657","name:left:ko":"\uc544\uc81c\ub974\ubc14\uc774\uc794","name:right:cv":"\u042d\u0440\u043c\u0435\u043d\u0438","name:left:av":"\u0410\u0437\u0430\u0440\u0431\u0438\u0436\u0430\u043d","name:left:kn":"\u0c85\u0c9c\u0cc6\u0cb0\u0ccd\u0cac\u0cc8\u0c9c\u0cbe\u0ca8\u0ccd","name:left:as":"\u0986\u099c\u09c7\u09f0\u09ac\u09be\u0987\u099c\u09be\u09a8","name:left:ar":"\u0623\u0630\u0631\u0628\u064a\u062c\u0627\u0646","name:left:ki":"Azerbaijan","name:right:rw":"Arumeniya","name:left:af":"Azerbeidjan","name:left:ab":"\u0410\u0437\u0435\u0440\u0431\u0430\u0438\u045f\u044c\u0430\u043d","name:left:an":"Azerbaich\u00e1n","name:left:am":"\u12a0\u12d8\u122d\u1263\u12ed\u1303\u1295","name:right:ru":"\u0410\u0440\u043c\u0435\u0301\u043d\u0438\u044f","name:left:ak":"Azerbaijan","name:left:ku":"Azerbaycan","alt_name:right:jv":"Hayastan","alt_name:right:sh":"Armenija","name:left:zh-yue":"\u963f\u585e\u62dc\u7586","name:right:ro":"Armenia","name:left:la":"Atropatene","name:left:lb":"Aserbaidschan","name:left:lg":"Azerebayijaani","name:left:su":"Azerbaijan","name:left:li":"Azerbaidzjan","name:left:sw":"Azerbaijan","name:left:sv":"Azerbajdzjan","name:left:sq":"Azerbajxhani","name:right:hu":"\u00d6rm\u00e9nyorsz\u00e1g","name:left:ss":"iZebajani","name:left:sr":"\u0410\u0437\u0435\u0440\u0431\u0435\u0458\u045f\u0430\u043d","name:left:sm":"Azerbaijin","alt_name:right:gd":"Arminia","name:left:so":"Aserbiijaan","name:left:sn":"Azerbaijan","name:left:si":"\u0d85\u0dc3\u0dbb\u0dca\u0db6\u0dba\u0dd2\u0da2\u0dcf\u0db1\u0dba","name:left:sh":"Azerbejd\u017ean","name:left:lv":"Azerbaid\u017e\u0101na","name:left:se":"Aserbai\u017ean","name:right:ha":"Armeniya","name:left:sg":"Zerebaidy\u00e4an","alt_name:right:gn":"Ayme\u00f1a","name:left:sa":"\u0905\u091c\u0930\u094d\u092c\u0948\u091c\u093e\u0928","name:right:he":"\u05d0\u05b7\u05e8\u05b0\u05de\u05b6\u05e0\u05b0\u05d9\u05b8\u05d4","name:left:sc":"Azerbaigi\u00e1n","name:left:hi":"\u0905\u091c\u093c\u0930\u092c\u0948\u091c\u093e\u0928","name:right:af":"Armeni\u00eb","name:left:co":"Azerbaighjan","name:right:ab":"\u0415\u0440\u043c\u0430\u043d\u0442\u04d9\u044b\u043b\u0430","name:left:ce":"\u0410\u0437\u0435\u0440\u0431\u0430\u0439\u0434\u0436\u0430\u0301\u043d","name:right:an":"Armenia","name:right:am":"\u12a0\u122d\u1218\u1292\u12eb","name:left:ca":"Azerbaidjan","source":"openstreetmap.org","name:left:cy":"Aserbaijan","name:right:ar":"\u0623\u0631\u0645\u064a\u0646\u064a\u0627","name:left:cu":"\u0410\ua641\u0463\u0440\u0431\u0430\u0438\u0447\u0430\u0301\u043d\u044a","name:left:cv":"\u0410\u0437\u0435\u0440\u0431\u0430\u0439\u0434\u0436\u0430\u043d","name:right:az":"Erm\u0259nistan","name:left:cs":"\u00c1zerb\u00e1jd\u017e\u00e1n","name:right:ak":"Armenia","name:left:ha":"Azerbaijan","alt_name:left:la":"Azerbaigiania","name:right:rm":"Armenia","name":"Az\u0259rbaycan - \u0540\u0561\u0575\u0561\u057d\u057f\u0561\u0576","name:right:zu":"i-Armenia","name:left:zu":"Azerbaijan","name:left:zh":"\u963f\u585e\u62dc\u7586","name:right:za":"Armenia","name:right:zh":"\u4e9e\u7f8e\u5c3c\u4e9e","name:left:za":"Ahsehbaiqgyangh","official_name:left":"Az\u0259rbaycan Respublikas\u0131","name:left:uz":"Ozarbayjon","name:right:fr":"Arm\u00e9nie","name:left:ps":"\u0622\u0632\u0631\u0628\u0627\u06cc\u062c\u0627\u0646","name:left:ny":"Azerbaijan","name:left:nv":"Az\u00e9\u00e9wii Bik\u00e9yah","name:left:ur":"\u0622\u0630\u0631\u0628\u0627\u0626\u06cc\u062c\u0627\u0646","id:right":-364066,"name:left:nn":"Aserbajdsjan","name:left:no":"Aserbajdsjan","name:left:nl":"Azerbeidzjan","name:left:be":"\u0410\u0437\u0435\u0440\u0431\u0430\u0439\u0434\u0436\u0430\u0301\u043d","alt_name:right:eo":"Armenio","name:left:hu":"Azerbajdzs\u00e1n","alt_name:left:bg":"\u0410\u0437\u044a\u0440\u0431\u0430\u0439\u0434\u0436\u0430\u043d","name:left:ne":"\u0905\u091c\u0930\u092c\u0948\u091c\u093e\u0928","name:left:ug":"\u0626\u06d5\u0632\u06d5\u0631\u0628\u06d5\u064a\u062c\u0627\u0646","name:left:na":"Aderbaidjan","name:left:eo":"Azerbaj\u011dano","name:left:en":"Azerbaijan","name:left:el":"\u0391\u03b6\u03b5\u03c1\u03bc\u03c0\u03b1\u03ca\u03c4\u03b6\u03ac\u03bd","name:left:ee":"Azerbaijan","name:right:ki":"Armenia","name:left:es":"Azerbaiy\u00e1n","name:right:kk":"\u0410\u0440\u043c\u0435\u043d\u0438\u044f","name:left:eu":"Azerbaijan","name:left:et":"Aserbaid\u017eaan","name:right:om":"Armeeniyaa","name:right:zh-min-nan":"Hayastan","name:left:id":"Azerbaijan","name:right:oc":"Armenia","name:left:pi":"\u0905\u091c\u0930\u094d\u092c\u0948\u091c\u093e\u0928","name:left:lt":"Azerbaid\u017eanas","name:left:ia":"Azerbaidzhan","name:right:kn":"\u0c86\u0cb0\u0ccd\u0cae\u0cc7\u0ca8\u0cbf\u0caf","osm_relation":true,"name:right:or":"\u0b06\u0b30\u0b4d\u0b2e\u0b47\u0b28\u0b3f\u0b06","name:left:pt":"Azerbaij\u00e3o","name:right:ks":"\u0627\u064e\u0631\u0645\u0627\u0646\u0650\u06cc\u0627","name:right:ku":"Ermenistan","name:right:tk":"Ermenistan","int_name:right":"Armenia","min_zoom":8.0,"name:left:sl":"Azerbajd\u017ean","name:left:zh-min-nan":"Azerbaijan","name:left:ln":"Az\u025brbayz\u00e1ni","name:left:wo":"Aserbayjaan","name:left:ga":"an Asarbaise\u00e1in","name:left:it":"Azerbaigian","alt_name:right:ku":"Flestan","name:left:gd":"Asarbaide\u00e0n","name:left:gl":"Acerbaix\u00e1n","name:left:gn":"Aservaij\u00e3","name:left:gu":"\u0a85\u0a9d\u0ac7\u0ab0\u0aac\u0ac0\u0a9c\u0abe\u0aa8","name:left:gv":"yn Asserbajaan","name:left:lo":"\u0e9b\u0eb0\u0ec0\u0e97\u0e94\u0ead\u0eb2\u0ec1\u0e8a\u0e81\u0e9a\u0eb2\u0e8d\u0e8a\u0eb1\u0e87","alt_name:right:kk":"\u04d8\u0440\u043c\u0435\u043d\u0441\u0442\u0430\u043d;\u04d8\u0440\u043c\u0435\u043d\u0438\u044f","alt_name:right:kn":"\u0cb9\u0caf\u0cb8\u0ccd\u0ca4\u0cbe\u0ca8\u0cbf \u0cb9\u0ca8\u0ccd\u0cb0\u0caa\u0cc6\u0ca4\u0cc1\u0ca4\u0ccd\u0caf\u0cc1\u0ca8\u0ccd","name:right:mk":"\u0415\u0440\u043c\u0435\u043d\u0438\u0458\u0430","name:right:mi":"\u0100menia","name:right:mn":"\u0410\u0440\u043c\u0435\u043d","name:right:ml":"\u0d05\u0d7c\u0d2e\u0d47\u0d28\u0d3f\u0d2f","name:right:vo":"Larmeniy\u00e4n","name:right:mg":"Armenia","name:right:vi":"Armenia","official_name:right":"\u0540\u0561\u0575\u0561\u057d\u057f\u0561\u0576\u056b \u0540\u0561\u0576\u0580\u0561\u057a\u0565\u057f\u0578\u0582\u0569\u0575\u0578\u0582\u0576","name:right:my":"\u1021\u102c\u1019\u1031\u1038\u1014\u102e\u1038\u101a\u102c\u1038\u1014\u102d\u102f\u1004\u103a\u1004\u1036","name:right:ms":"Armenia","name:right:mr":"\u0906\u0930\u094d\u092e\u0947\u0928\u093f\u092f\u093e","name:right:fy":"Armeenje","name:right:mt":"Armenja","name:left:uk":"\u0410\u0437\u0435\u0440\u0431\u0430\u0439\u0434\u0436\u0430\u0301\u043d","kind":"country","alt_name:right:lo":"\u0e9b\u0eb0\u0ec0\u0e97\u0e94\u0eae\u0eb2\u0ea2\u0eb2\u0eaa\u0eb0\u0e95\u0eb2\u0e99","alt_name:left:gd":"Asarbajan","name:left":"Az\u0259rbaycan","alt_name:left:gn":"Aseyvaij\u00e3","name:left:br":"Azerbaidjan","name:left:bs":"Azerbejd\u017ean","name:right:fa":"\u0627\u0631\u0645\u0646\u0633\u062a\u0627\u0646","name:left:ba":"\u04d8\u0437\u0435\u0440\u0431\u0430\u0439\u0436\u0430\u043d","name:left:bg":"\u0410\u0437\u0435\u0440\u0431\u0430\u0439\u0434\u0436\u0430\u043d","name:right:fo":"Armenia","name:right:ff":"Armaaniya","name:left:bi":"Azerbaijan","name:left:bn":"\u0986\u099c\u09be\u09b0\u09ac\u09be\u0987\u099c\u09be\u09a8","name:left:bo":"\u0f68\u0f0b\u0f5b\u0f62\u0f0b\u0f56\u0f61\u0f72\u0f0b\u0f47\u0f53\u0f0d","name:right":"\u0540\u0561\u0575\u0561\u057d\u057f\u0561\u0576","name:left:ti":"\u12a0\u12d8\u122d\u1263\u1303\u1295","name:left:yo":"Azerbaijan","name:left:yi":"\u05d0\u05b7\u05d6\u05e2\u05e8\u05d1\u05f2\u05b7\u05d3\u05d6\u05e9\u05d0\u05b7\u05df","id:left":-364110,"name:right:fi":"Armenia","name:right:ka":"\u10e1\u10dd\u10db\u10ee\u10d4\u10d7\u10d8","name:left:io":"Azerbaijan","name:right:ty":"\u0100menia","name:right:kg":"Armenia","name:right:tt":"\u04d8\u0440\u043c\u04d9\u043d\u0441\u0442\u0430\u043d","name:left:ie":"Azerbaidjan","name:right:tw":"Aminia","name:right:km":"\u17a2\u17b6\u1798\u17c1\u1793\u17b8","name:right:kl":"Armenia","name:right:tr":"Ermenistan","name:right:ts":"Armenia","name:right:tl":"Armenya","alt_name:left:qu":"Asirwayan","name:right:to":"\u02bb\u0100minia","name:right:th":"\u0e2d\u0e32\u0e23\u0e4c\u0e21\u0e35\u0e40\u0e19\u0e35\u0e22","name:right:ti":"\u12a0\u122d\u121c\u1292\u12eb","name:right:kw":"Armeni","name:right:kv":"\u0410\u0440\u043c\u0435\u043d\u0438\u044f","name:right:ky":"\u0410\u0440\u043c\u0435\u043d\u0438\u044f","name:right:te":"\u0c06\u0c30\u0c4d\u0c2e\u0c47\u0c28\u0c3f\u0c2f\u0c3e","name:right:tg":"\u0410\u0440\u043c\u0430\u043d\u0438\u0441\u0442\u043e\u043d","name:left:is":"Aserba\u00edsjan","name:right:ta":"\u0b86\u0bb0\u0bcd\u0bae\u0bc0\u0ba9\u0bbf\u0baf\u0bbe","name:right:de":"Armenien","name:right:da":"Armenien","alt_name:left:af":"Azerbaidjan;Aserbeidjan","name:right:dz":"\u0f68\u0f62\u0f0b\u0f58\u0f72\u0f0b\u0f53\u0f72\u0f0b\u0f61","name:left:pa":"\u0a05\u0a1c\u0a3c\u0a30\u0a2c\u0a3e\u0a08\u0a1c\u0a3e\u0a28","name:right:ht":"Ameni"},"arcs":[2]},{"type":"LineString","properties":{"name:right:yo":"\u00ccr\u00e1n\u00ec","name:right:yi":"\u05d0\u05d9\u05e8\u05d0\u05df","name:left:la":"Atropatene","name:right:qu":"Iran","name:right:ko":"\uc774\ub780","name:left:li":"Azerbaidzjan","name:left:vi":"Azerbaijan","name:left:sw":"Azerbaijan","name:left:kg":"Azerbaidjan","name:left:ka":"\u10d0\u10d6\u10d4\u10e0\u10d1\u10d0\u10d8\u10ef\u10d0\u10dc\u10d8","alt_name:left:sh":"Azerbajd\u017ean","name:left:km":"\u17a2\u17b6\u179f\u17ca\u17c2\u1794\u17c3\u17a0\u17d2\u179f\u1784\u17cb","name:left:kl":"Aserbajdsjan","alt_name:left:sg":"Azerbaidy\u00e4an","name:left:kn":"\u0c85\u0c9c\u0cc6\u0cb0\u0ccd\u0cac\u0cc8\u0c9c\u0cbe\u0ca8\u0ccd","name:left:ki":"Azerbaijan","name:left:ro":"Azerbaidjan","name:left:kk":"\u04d8\u0437\u0456\u0440\u0431\u0430\u0439\u0436\u0430\u043d","name:left:rm":"Aserbeidschan","name:left:ku":"Azerbaycan","name:left:kw":"Azerbayjan","name:left:kv":"\u0410\u0437\u0435\u0440\u0431\u0430\u0439\u0434\u0436\u0430\u0301\u043d","name:right:ro":"Iran","name:left:ks":"\u0622\u0632\u064e\u0631\u0628\u0627\u062c\u0627\u0646","name:left:ru":"\u0410\u0437\u0435\u0440\u0431\u0430\u0439\u0434\u0436\u0430\u0301\u043d","name:right:ie":"Iran","name:right:id":"Iran","name:left:ky":"\u0410\u0437\u0435\u0440\u0431\u0430\u0439\u0436\u0430\u043d","name:right:ia":"Iran","name:right:bn":"\u0987\u09b0\u09be\u09a8","name:right:bo":"\u0f61\u0f72\u0f0b\u0f63\u0f44\u0f0b\u0f0d","name:left:sl":"Azerbajd\u017ean","name:right:ba":"\u0418\u0440\u0430\u043d","name:right:bg":"\u0418\u0440\u0430\u043d","name:right:be":"\u0406\u0440\u0430\u043d","name:right:br":"Iran","name:left:lt":"Azerbaid\u017eanas","name:right:nn":"Iran","name:right:no":"Iran","name:right:nl":"Iran","name:right:wa":"Iran","name:left:lv":"Azerbaid\u017e\u0101na","name:right:wo":"Iraan","name:right:ne":"\u0907\u0930\u093e\u0928","name:right:na":"Iran","name:right:ps":"\u0627\u06cc\u0631\u0627\u0646","name:right:nv":"Iiw\u0105\u0301\u0105\u0301","name:left:mg":"Azerbaijana","kind_detail":"2","name:left:tr":"Azerbaycan","name:right:gu":"\u0a88\u0ab0\u0abe\u0aa8","name:left:ty":"Atepaih\u0101nia","name:right:gv":"Yn Eeraan","name:right:pt":"Ir\u00e3o","name:left:mk":"\u0410\u0437\u0435\u0440\u0431\u0435\u0458\u045f\u0430\u043d","name:left:mi":"Atepaih\u0101nia","name:left:ts":"Azerbaijan","name:left:tt":"\u0410\u0437\u04d9\u0440\u0431\u0430\u0439\u0497\u0430\u043d","name:left:mn":"\u0410\u0437\u0435\u0440\u0431\u0430\u0439\u0436\u0430\u043d","name:left:tw":"Azerbaijan","name:left:th":"\u0e2d\u0e32\u0e40\u0e0b\u0e2d\u0e23\u0e4c\u0e44\u0e1a\u0e08\u0e32\u0e19","name:left:mr":"\u0905\u091d\u0930\u092c\u0948\u091c\u093e\u0928","name:left:tk":"Azerba\u00fdjan","name:left:tl":"Aserbayan","name:left:to":"\u02bbAsapaisani","name:right:gl":"Ir\u00e1n - \u0627\u06cc\u0631\u0627\u0646","name:left:my":"\u1021\u1007\u102c\u1018\u102d\u102f\u1004\u103a\u1002\u103b\u1014\u103a\u1014\u102d\u102f\u1004\u103a\u1004\u1036","name:right:gn":"Ir\u00e1n","name:right:pl":"Iran","name:left:te":"\u0c05\u0c1c\u0c30\u0c4d\u200c\u0c2c\u0c48\u0c1c\u0c3e\u0c28\u0c4d","name:left:tg":"\u041e\u0437\u0430\u0440\u0431\u043e\u0439\u04b7\u043e\u043d","name:left:ms":"Azerbaijan","name:left:ti":"\u12a0\u12d8\u122d\u1263\u1303\u1295","name:left:da":"Aserbajdsjan","name:left:de":"Aserbaidschan","name:left:dz":"\u0f68\u0f5b\u0f62\u0f0b\u0f56\u0f61\u0f7a\u0f0b\u0f47\u0f53\u0f0d","name:right:ga":"An Iar\u00e1in","name:left:dv":"\u0787\u07a6\u0792\u07a6\u0783\u07aa\u0784\u07a6\u0787\u07a8\u0796\u07a7\u0782\u07b0","name:right:ug":"\u0626\u0649\u0631\u0627\u0646","name:left:hi":"\u0905\u091c\u093c\u0930\u092c\u0948\u091c\u093e\u0928","name:right:lb":"Iran","name:right:uk":"\u0406\u0440\u0430\u043d","name:left:he":"\u05d0\u05b8\u05d6\u05b7\u05e8\u05b0\u05d1\u05b7\u05bc\u05d9\u05b0\u05d9\u05d2\u05b8'\u05df","name:right:ln":"Iran","name:left:mt":"A\u017cerbaj\u0121an","name:left:ha":"Azerbaijan","name:right:lt":"Iranas","name:right:ur":"\u0627\u06cc\u0631\u0627\u0646","name:right:lv":"Ir\u0101na","name:left:hy":"\u0531\u0564\u0580\u0562\u0565\u057b\u0561\u0576","name:left:ta":"\u0b85\u0b9a\u0bb0\u0bcd\u0baa\u0bc8\u0b9c\u0bbe\u0ba9\u0bcd","name:left:ht":"Azerbaydjan","name:left:hu":"Azerbajdzs\u00e1n","name:left:hr":"Azerbajd\u017ean","sort_rank":262,"name:right:gd":"Ior\u00e0n","name:right:os":"\u0418\u0440\u0430\u043d","name:right:es":"Ir\u00e1n","name:right:sr":"\u0418\u0440\u0430\u043d","name:right:eu":"Iran","name:right:et":"Iraan","name:left:os":"\u0410\u0437\u0435\u0440\u0431\u0430\u0439\u0434\u0436\u0430\u043d","name:left:or":"\u0b06\u0b1c\u0b3e\u0b30\u0b2c\u0b3e\u0b07\u0b1c\u0b3e\u0b28","name:left:om":"Azarbaajan","name:right:pa":"\u0a07\u0a30\u0a3e\u0a28","name:left:vo":"Las\u00e4rb\u00e4c\u00e4n","name:left:oc":"Azerbaitjan","name:right:eo":"Irano","name:right:en":"Iran","name:right:el":"\u0399\u03c1\u03ac\u03bd","name:left:ff":"Aserbayjan","name:left:fa":"\u0622\u0630\u0631\u0628\u0627\u06cc\u062c\u0627\u0646","name:left:fo":"Aserbadsjan","name:right:sk":"Ir\u00e1n","name:left:fi":"Azerbaid\u017ean","name:left:fr":"Azerba\u00efdjan","name:left:fy":"Azerbeidzjan","name:right:ja":"\u30a4\u30e9\u30f3","name:right:sq":"Irani","name:right:ss":"I-Irani","name:left:ja":"\u30a2\u30bc\u30eb\u30d0\u30a4\u30b8\u30e3\u30f3","name:right:su":"Iran","name:right:sw":"Uajemi","name:right:sv":"Iran","name:right:si":"\u0d89\u0dbb\u0dcf\u0db1\u0dba","name:right:sh":"Iran","name:left:qu":"Asarsuyu","name:right:jv":"Iran","name:right:sl":"Iran","name:right:so":"Iiraan","name:right:sa":"\u0908\u0930\u093e\u0928","name:right:sc":"Iran","name:left:jv":"Azerbaijan","id":-364110,"name:right:co":"Iranu","name:right:ca":"Iran","name:right:se":"Iran","name:right:ce":"\u0418\u0440\u0430\u043d","name:right:cy":"Iran","name:right:zh-yue":"\u4f0a\u6717","name:right:cs":"\u00cdr\u00e1n","name:right":"\u200f\u0627\u06cc\u0631\u0627\u0646\u200e","name:left:ko":"\uc544\uc81c\ub974\ubc14\uc774\uc794","name:right:cv":"\u0418\u0441\u043b\u0430\u043c \u0420\u0435\u0441\u043f\u0443\u0431\u043b\u0438\u043a\u0438 \u0418\u0440\u0430\u043d","name:left:av":"\u0410\u0437\u0430\u0440\u0431\u0438\u0436\u0430\u043d","name:right:it":"Iran","name:left:as":"\u0986\u099c\u09c7\u09f0\u09ac\u09be\u0987\u099c\u09be\u09a8","name:left:ar":"\u0623\u0630\u0631\u0628\u064a\u062c\u0627\u0646","name:right:is":"\u00cdran","name:right:rw":"Irani","name:left:af":"Azerbeidjan","name:left:ab":"\u0410\u0437\u0435\u0440\u0431\u0430\u0438\u045f\u044c\u0430\u043d","name:left:an":"Azerbaich\u00e1n","name:left:am":"\u12a0\u12d8\u122d\u1263\u12ed\u1303\u1295","name:right:ru":"\u0418\u0440\u0430\u043d","name:left:ak":"Azerbaijan","name:right:io":"Iran","name:left:zh-yue":"\u963f\u585e\u62dc\u7586","name:left:rw":"Azeribayijani","name:right:hy":"\u053b\u0580\u0561\u0576","name:left:lb":"Aserbaidschan","name:left:lg":"Azerebayijaani","name:left:su":"Azerbaijan","int_name:left":"Azerbaijan","name:right:hr":"Iran","name:left:sv":"Azerbajdzjan","name:left:sq":"Azerbajxhani","name:right:hu":"Ir\u00e1n","name:left:ln":"Az\u025brbayz\u00e1ni","name:left:lo":"\u0e9b\u0eb0\u0ec0\u0e97\u0e94\u0ead\u0eb2\u0ec1\u0e8a\u0e81\u0e9a\u0eb2\u0e8d\u0e8a\u0eb1\u0e87","name:left:sm":"Azerbaijin","name:right:hi":"\u0908\u0930\u093e\u0928","name:left:so":"Aserbiijaan","name:left:sn":"Azerbaijan","name:left:si":"\u0d85\u0dc3\u0dbb\u0dca\u0db6\u0dba\u0dd2\u0da2\u0dcf\u0db1\u0dba","name:left:sh":"Azerbejd\u017ean","name:left:sk":"Azerbajd\u017ean","name:left:se":"Aserbai\u017ean","name:right:ha":"Iran","name:left:sg":"Zerebaidy\u00e4an","name:left:sa":"\u0905\u091c\u0930\u094d\u092c\u0948\u091c\u093e\u0928","name:right:he":"\u05d0\u05d9\u05e8\u05d0\u05df","name:left:sc":"Azerbaigi\u00e1n","name:right:la":"Irania","name:right:af":"Iran","name:left:co":"Azerbaighjan","name:left:ce":"\u0410\u0437\u0435\u0440\u0431\u0430\u0439\u0434\u0436\u0430\u0301\u043d","name:right:an":"Ir\u00e1n","name:right:am":"\u134b\u122d\u1235","name:left:ca":"Azerbaidjan","source":"openstreetmap.org","name:left:cy":"Aserbaijan","name:right:ar":"\u0625\u06cc\u0631\u0627\u0646","name:left:cu":"\u0410\ua641\u0463\u0440\u0431\u0430\u0438\u0447\u0430\u0301\u043d\u044a","name:left:cv":"\u0410\u0437\u0435\u0440\u0431\u0430\u0439\u0434\u0436\u0430\u043d","name:right:az":"\u0130ran","name:left:cs":"\u00c1zerb\u00e1jd\u017e\u00e1n","name:right:li":"Iran","alt_name:left:la":"Azerbaigiania","name:right:rm":"Iran","name":"Az\u0259rbaycan - \u200f\u0627\u06cc\u0631\u0627\u0646\u200e","name:right:zu":"I-Irani","name:left:zu":"Azerbaijan","name:left:zh":"\u963f\u585e\u62dc\u7586","name:right:za":"Iran","name:right:zh":"\u4f0a\u6717","name:left:za":"Ahsehbaiqgyangh","official_name:left":"Az\u0259rbaycan Respublikas\u0131","name:left:uz":"Ozarbayjon","name:right:fr":"Iran","name:left:ny":"Azerbaijan","name:left:nv":"Az\u00e9\u00e9wii Bik\u00e9yah","name:left:ur":"\u0622\u0630\u0631\u0628\u0627\u0626\u06cc\u062c\u0627\u0646","id:right":-304938,"name:left:uk":"\u0410\u0437\u0435\u0440\u0431\u0430\u0439\u0434\u0436\u0430\u0301\u043d","name:left:no":"Aserbajdsjan","name:left:nl":"Azerbeidzjan","name:right:fa":"\u0627\u06cc\u0631\u0627\u0646","name:right:fo":"Iran","name:left:ne":"\u0905\u091c\u0930\u092c\u0948\u091c\u093e\u0928","name:left:ug":"\u0626\u06d5\u0632\u06d5\u0631\u0628\u06d5\u064a\u062c\u0627\u0646","name:left:na":"Aderbaidjan","name:left:ml":"\u0d05\u0d38\u0d7c\u0d2c\u0d46\u0d2f\u0d4d\u0d1c\u0d3e\u0d7b","name:left:eo":"Azerbaj\u011dano","name:left:en":"Azerbaijan","name:left:el":"\u0391\u03b6\u03b5\u03c1\u03bc\u03c0\u03b1\u03ca\u03c4\u03b6\u03ac\u03bd","name:left:ee":"Azerbaijan","name:left:pl":"Azerbejd\u017can","name:left:es":"Azerbaiy\u00e1n","name:left:ss":"iZebajani","name:left:ie":"Azerbaidjan","name:left:eu":"Azerbaijan","name:left:et":"Aserbaid\u017eaan","name:right:zh-min-nan":"Iran","name:left:id":"Azerbaijan","name:right:oc":"Iran","name:left:pi":"\u0905\u091c\u0930\u094d\u092c\u0948\u091c\u093e\u0928","name:left:ia":"Azerbaidzhan","name:right:bs":"Iran","name:left:sr":"\u0410\u0437\u0435\u0440\u0431\u0435\u0458\u045f\u0430\u043d","name:right:uz":"Eron","osm_relation":true,"name:right:or":"\u0b07\u0b30\u0b3e\u0b28","name:left:pt":"Azerbaij\u00e3o","alt_name:left:qu":"Asirwayan","name:right:th":"\u0e1b\u0e23\u0e30\u0e40\u0e17\u0e28\u0e2d\u0e34\u0e2b\u0e23\u0e48\u0e32\u0e19","name:right:tk":"E\u00fdran","name:left:gl":"Acerbaix\u00e1n","min_zoom":8.0,"name:left:zh-min-nan":"Azerbaijan","name:left:wo":"Aserbayjaan","name:left:ga":"an Asarbaise\u00e1in","name:left:it":"Azerbaigian","name:left:gd":"Asarbaide\u00e0n","int_name:right":"Iran","name:left:gn":"Aservaij\u00e3","name:left:gu":"\u0a85\u0a9d\u0ac7\u0ab0\u0aac\u0ac0\u0a9c\u0abe\u0aa8","alt_name:left:bg":"\u0410\u0437\u044a\u0440\u0431\u0430\u0439\u0434\u0436\u0430\u043d","name:left:gv":"yn Asserbajaan","name:left":"Az\u0259rbaycan","name:right:mk":"\u0418\u0440\u0430\u043d","name:right:mi":"\u012ar\u0101na","name:right:mn":"\u0418\u0440\u0430\u043d","name:right:ml":"\u0d07\u0d31\u0d3e\u0d7b","name:right:vo":"Lir\u00e4n","name:right:mg":"Iran","name:right:vi":"Iran","name:right:my":"\u1021\u102e\u101b\u1014\u103a\u1014\u102d\u102f\u1004\u103a\u1004\u1036","name:right:ms":"Iran","name:right:mr":"\u0907\u0930\u093e\u0923","name:right:fy":"Iran","name:right:mt":"Iran","name:left:nn":"Aserbajdsjan","kind":"country","alt_name:left:gd":"Asarbajan","alt_name:left:gn":"Aseyvaij\u00e3","name:left:br":"Azerbaidjan","name:left:bs":"Azerbejd\u017ean","name:left:ba":"\u04d8\u0437\u0435\u0440\u0431\u0430\u0439\u0436\u0430\u043d","name:left:bg":"\u0410\u0437\u0435\u0440\u0431\u0430\u0439\u0434\u0436\u0430\u043d","name:right:kv":"\u0418\u0440\u0430\u043d","name:left:be":"\u0410\u0437\u0435\u0440\u0431\u0430\u0439\u0434\u0436\u0430\u0301\u043d","name:left:bi":"Azerbaijan","name:left:bn":"\u0986\u099c\u09be\u09b0\u09ac\u09be\u0987\u099c\u09be\u09a8","name:left:bo":"\u0f68\u0f0b\u0f5b\u0f62\u0f0b\u0f56\u0f61\u0f72\u0f0b\u0f47\u0f53\u0f0d","name:left:bm":"Az\u025brbayja\u014b","name:left:yo":"Azerbaijan","name:left:yi":"\u05d0\u05b7\u05d6\u05e2\u05e8\u05d1\u05f2\u05b7\u05d3\u05d6\u05e9\u05d0\u05b7\u05df","id:left":-364110,"name:right:fi":"Iran","name:right:ka":"\u10d8\u10e0\u10d0\u10dc\u10d8","name:left:io":"Azerbaijan","name:left:pa":"\u0a05\u0a1c\u0a3c\u0a30\u0a2c\u0a3e\u0a08\u0a1c\u0a3e\u0a28","name:right:tt":"\u0418\u0440\u0430\u043d","name:right:kk":"\u0418\u0440\u0430\u043d","name:right:tw":"Iran","name:right:km":"\u17a2\u17ca\u17b8\u179a\u17c9\u1784\u17cb","name:right:kl":"Iran","name:right:tr":"\u0130ran","name:right:kn":"\u0c87\u0cb0\u0cbe\u0ca8\u0ccd","name:right:tl":"Iran","name:right:ks":"\u0627\u06cc\u0656\u0631\u0627\u0646","name:right:ku":"\u00ceran","name:right:kw":"Iran","name:left:ps":"\u0622\u0632\u0631\u0628\u0627\u06cc\u062c\u0627\u0646","name:right:ky":"\u0418\u0440\u0430\u043d","name:right:te":"\u0c07\u0c30\u0c3e\u0c28\u0c4d","name:right:tg":"\u042d\u0440\u043e\u043d","name:left:is":"Aserba\u00edsjan","name:right:ta":"\u0b88\u0bb0\u0bbe\u0ba9\u0bcd","name:right:de":"Iran","name:right:da":"Iran","alt_name:left:af":"Azerbaidjan;Aserbeidjan","name:right:dz":"\u0f68\u0f72\u0f0b\u0f62\u0f71\u0f53\u0f0b","name:right:dv":"\u0787\u07a9\u0783\u07a7\u0782\u07b0","name:right:ht":"Iran"},"arcs":[3]},{"type":"LineString","properties":{"name:right:yo":"\u00ccr\u00e1n\u00ec","name:left:sd":"\u0622\u0631\u0645\u064a\u0646\u064a\u0627","name:right:yi":"\u05d0\u05d9\u05e8\u05d0\u05df","name:left:la":"Armenia","name:left:lb":"Armenien","alt_name:left:th":"\u0e2d\u0e32\u0e23\u0e4c\u0e40\u0e21\u0e40\u0e19\u0e35\u0e22","alt_name:left:te":"\u0c06\u0c30\u0c4d\u0c2e\u0c40\u0c28\u0c3f\u0c2f\u0c3e","name:right:ko":"\uc774\ub780","name:left:li":"Armeni\u00eb","name:left:vi":"Armenia","name:right:hr":"Iran","name:left:kg":"Armenia","name:left:ka":"\u10e1\u10dd\u10db\u10ee\u10d4\u10d7\u10d8","alt_name:left:sh":"Armenija","name:left:km":"\u17a2\u17b6\u1798\u17c1\u1793\u17b8","name:left:kl":"Armenia","name:left:ko":"\uc544\ub974\uba54\ub2c8\uc544","name:left:kn":"\u0c86\u0cb0\u0ccd\u0cae\u0cc7\u0ca8\u0cbf\u0caf","name:left:ki":"Armenia","name:left:ro":"Armenia","name:left:kk":"\u0410\u0440\u043c\u0435\u043d\u0438\u044f","name:left:rm":"Armenia","name:left:ku":"Ermenistan","name:left:kw":"Armeni","name:left:kv":"\u0410\u0440\u043c\u0435\u043d\u0438\u044f","name:right:ro":"Iran","name:left:ks":"\u0627\u064e\u0631\u0645\u0627\u0646\u0650\u06cc\u0627","name:left:ru":"\u0410\u0440\u043c\u0435\u0301\u043d\u0438\u044f","name:right:ie":"Iran","name:right:id":"Iran","name:left:ky":"\u0410\u0440\u043c\u0435\u043d\u0438\u044f","name:right:ia":"Iran","name:right:bn":"\u0987\u09b0\u09be\u09a8","name:right:bo":"\u0f61\u0f72\u0f0b\u0f63\u0f44\u0f0b\u0f0d","name:left:sl":"Armenija","name:right:ba":"\u0418\u0440\u0430\u043d","name:right:bg":"\u0418\u0440\u0430\u043d","name:right:be":"\u0406\u0440\u0430\u043d","name:right:br":"Iran","name:left:lt":"Arm\u0117nija","name:right:nn":"Iran","name:right:no":"Iran","name:right:nl":"Iran","name:right:wa":"Iran","name:left:lv":"Arm\u0113nija","alt_name:left:os":"\u0421\u043e\u043c\u0438\u0445","name:right:ne":"\u0907\u0930\u093e\u0928","name:right:na":"Iran","name:right:ps":"\u0627\u06cc\u0631\u0627\u0646","alt_name:left:vi":"Acmeni","name:right:nv":"Iiw\u0105\u0301\u0105\u0301","name:left:mg":"Armenia","kind_detail":"2","alt_name:left:jv":"Hayastan","name:left:tr":"Ermenistan","name:right:gu":"\u0a88\u0ab0\u0abe\u0aa8","name:left:ty":"\u0100menia","name:right:gv":"Yn Eeraan","name:right:pt":"Ir\u00e3o","name:left:mk":"\u0415\u0440\u043c\u0435\u043d\u0438\u0458\u0430","name:left:mi":"\u0100menia","name:left:ts":"Armenia","name:left:tt":"\u04d8\u0440\u043c\u04d9\u043d\u0441\u0442\u0430\u043d","name:left:mn":"\u0410\u0440\u043c\u0435\u043d","name:left:tw":"Aminia","name:left:th":"\u0e2d\u0e32\u0e23\u0e4c\u0e21\u0e35\u0e40\u0e19\u0e35\u0e22","name:left:mr":"\u0906\u0930\u094d\u092e\u0947\u0928\u093f\u092f\u093e","name:left:tk":"Ermenistan","name:left:tl":"Armenya","name:left:to":"\u02bb\u0100minia","name:right:gl":"Ir\u00e1n - \u0627\u06cc\u0631\u0627\u0646","name:left:my":"\u1021\u102c\u1019\u1031\u1038\u1014\u102e\u1038\u101a\u102c\u1038\u1014\u102d\u102f\u1004\u103a\u1004\u1036","name:right:gn":"Ir\u00e1n","name:right:pl":"Iran","name:left:te":"\u0c06\u0c30\u0c4d\u0c2e\u0c47\u0c28\u0c3f\u0c2f\u0c3e","name:left:tg":"\u0410\u0440\u043c\u0430\u043d\u0438\u0441\u0442\u043e\u043d","name:left:ms":"Armenia","name:left:ti":"\u12a0\u122d\u121c\u1292\u12eb","name:left:da":"Armenien","name:left:de":"Armenien","name:left:dz":"\u0f68\u0f62\u0f0b\u0f58\u0f72\u0f0b\u0f53\u0f72\u0f0b\u0f61","name:right:ga":"An Iar\u00e1in","name:left:dv":"\u0787\u07a6\u0783\u07aa\u0789\u07a9\u0782\u07a8\u0787\u07a7","name:right:ug":"\u0626\u0649\u0631\u0627\u0646","name:left:hi":"\u0906\u0930\u094d\u092e\u0940\u0928\u093f\u092f\u093e","name:right:lb":"Iran","name:right:uk":"\u0406\u0440\u0430\u043d","name:left:he":"\u05d0\u05b7\u05e8\u05b0\u05de\u05b6\u05e0\u05b0\u05d9\u05b8\u05d4","name:right:ln":"Iran","name:left:mt":"Armenja","name:left:ha":"Armeniya","name:right:lt":"Iranas","name:right:ur":"\u0627\u06cc\u0631\u0627\u0646","name:right:lv":"Ir\u0101na","name:left:ta":"\u0b86\u0bb0\u0bcd\u0bae\u0bc0\u0ba9\u0bbf\u0baf\u0bbe","name:left:ht":"Ameni","name:right:uz":"Eron","name:left:hr":"Armenija","sort_rank":262,"name:right:gd":"Ior\u00e0n","name:right:os":"\u0418\u0440\u0430\u043d","name:right:es":"Ir\u00e1n","alt_name:left:kn":"\u0cb9\u0caf\u0cb8\u0ccd\u0ca4\u0cbe\u0ca8\u0cbf \u0cb9\u0ca8\u0ccd\u0cb0\u0caa\u0cc6\u0ca4\u0cc1\u0ca4\u0ccd\u0caf\u0cc1\u0ca8\u0ccd","name:right:eu":"Iran","name:right:et":"Iraan","name:left:os":"\u0421\u043e\u043c\u0438\u0445\u044b\u0441\u0442\u043e\u043d","name:left:or":"\u0b06\u0b30\u0b4d\u0b2e\u0b47\u0b28\u0b3f\u0b06","name:left:om":"Armeeniyaa","name:right:pa":"\u0a07\u0a30\u0a3e\u0a28","name:left:vo":"Larmeniy\u00e4n","name:left:oc":"Armenia","name:right:eo":"Irano","name:right:en":"Iran","name:right:el":"\u0399\u03c1\u03ac\u03bd","name:left:ff":"Armaaniya","alt_name:left:ku":"Flestan","name:left:fa":"\u0627\u0631\u0645\u0646\u0633\u062a\u0627\u0646","name:left:fo":"Armenia","name:left:qu":"Arminya","name:left:fi":"Armenia","name:left:fr":"Arm\u00e9nie","name:left:fy":"Armeenje","name:right:ja":"\u30a4\u30e9\u30f3","name:right:sq":"Irani","name:right:ss":"I-Irani","name:right:sr":"\u0418\u0440\u0430\u043d","name:right:su":"Iran","name:right:sw":"Uajemi","name:right:sv":"Iran","name:right:si":"\u0d89\u0dbb\u0dcf\u0db1\u0dba","name:right:sh":"Iran","name:right:sk":"Ir\u00e1n","name:right:jv":"Iran","name:right:sl":"Iran","name:right:so":"Iiraan","name:right:sa":"\u0908\u0930\u093e\u0928","name:right:sc":"Iran","name:left:jv":"Arm\u00e8nia","id":-364066,"name:right:co":"Iranu","name:right:ca":"Iran","name:right:se":"Iran","name:right:ce":"\u0418\u0440\u0430\u043d","name:right:cy":"Iran","name:right:zh-yue":"\u4f0a\u6717","name:right:cs":"\u00cdr\u00e1n","name:right":"\u200f\u0627\u06cc\u0631\u0627\u0646\u200e","name:right:cv":"\u0418\u0441\u043b\u0430\u043c \u0420\u0435\u0441\u043f\u0443\u0431\u043b\u0438\u043a\u0438 \u0418\u0440\u0430\u043d","name:left:av":"\u0426I\u0430\u043c\u0443\u0445\u044a","name:right:it":"Iran","name:left:as":"\u0986\u09f0\u09cd\u09ae\u09c7\u09a8\u09bf\u09af\u09bc\u09be","name:left:ar":"\u0623\u0631\u0645\u064a\u0646\u064a\u0627","name:right:is":"\u00cdran","name:left:az":"Erm\u0259nistan","name:right:rw":"Irani","name:left:af":"Armeni\u00eb","name:left:ab":"\u0415\u0440\u043c\u0430\u043d\u0442\u04d9\u044b\u043b\u0430","name:left:an":"Armenia","name:left:am":"\u12a0\u122d\u1218\u1292\u12eb","name:right:ru":"\u0418\u0440\u0430\u043d","name:left:ak":"Armenia","name:right:io":"Iran","name:left:zh-yue":"\u4e9e\u7f8e\u5c3c\u4e9e","name:left:rw":"Arumeniya","name:right:hy":"\u053b\u0580\u0561\u0576","name:right:qu":"Iran","alt_name:left:eo":"Armenio","name:left:lg":"Arameniya","name:left:su":"Arm\u00e9nia","int_name:left":"Armenia","name:left:sw":"Armenia","name:left:sv":"Armenien","name:left:sq":"Armenia","name:right:hu":"Ir\u00e1n","name:left:ss":"iArimeniya","name:left:lo":"\u0e9b\u0eb0\u0ec0\u0e97\u0e94\u0ead\u0eb2\u0e81\u0ec0\u0ea1\u0e99\u0eb5","name:left:sm":"Amenia","name:right:hi":"\u0908\u0930\u093e\u0928","name:left:so":"Armania","name:left:sn":"Armenia","name:left:si":"\u0d86\u0dbb\u0dca\u0db8\u0dda\u0db1\u0dd2\u0dba\u0dcf\u0dc0","name:left:sh":"Jermenija","name:left:sk":"Arm\u00e9nsko","name:left:se":"Armenia","name:right:ha":"Iran","name:left:sg":"Armen\u00efi","name:left:sa":"\u0906\u0930\u094d\u092e\u0940\u0928\u093f\u092f\u093e","name:right:he":"\u05d0\u05d9\u05e8\u05d0\u05df","name:left:sc":"Arm\u00e8nia","name:right:la":"Irania","name:right:af":"Iran","name:left:co":"Armenia","name:left:ch":"Armenia","name:left:ce":"\u0410\u0440\u0435\u043c\u0430\u043b\u043e\u0439\u043d","name:right:an":"Ir\u00e1n","name:right:am":"\u134b\u122d\u1235","name:left:ca":"Arm\u00e8nia","source":"openstreetmap.org","name:left:cy":"Armenia","name:right:ar":"\u0625\u06cc\u0631\u0627\u0646","name:left:ja":"\u30a2\u30eb\u30e1\u30cb\u30a2","name:left:cu":"\u0410\u0440\u043c\u0454\u043d\u0456\u0301\ua657","name:left:cv":"\u042d\u0440\u043c\u0435\u043d\u0438","name:right:az":"\u0130ran","name:left:cs":"Arm\u00e9nie","name:right:li":"Iran","name:right:rm":"Iran","alt_name:left:lo":"\u0e9b\u0eb0\u0ec0\u0e97\u0e94\u0eae\u0eb2\u0ea2\u0eb2\u0eaa\u0eb0\u0e95\u0eb2\u0e99","alt_name:left:pt":"Arm\u00eania","name":"\u0540\u0561\u0575\u0561\u057d\u057f\u0561\u0576 - \u200f\u0627\u06cc\u0631\u0627\u0646\u200e","name:right:zu":"I-Irani","name:left:zu":"i-Armenia","name:left:zh":"\u4e9e\u7f8e\u5c3c\u4e9e","name:right:za":"Iran","name:right:zh":"\u4f0a\u6717","name:left:za":"Armenia","official_name:left":"\u0540\u0561\u0575\u0561\u057d\u057f\u0561\u0576\u056b \u0540\u0561\u0576\u0580\u0561\u057a\u0565\u057f\u0578\u0582\u0569\u0575\u0578\u0582\u0576","name:left:uz":"Armaniston","name:right:fr":"Iran","name:left:ps":"\u0627\u0631\u0645\u0646\u0633\u062a\u0627\u0646","name:left:nv":"Aoom\u00e9\u00e9nii Bik\u00e9yah","name:left:ur":"\u0622\u0631\u0645\u06cc\u0646\u06cc\u0627","id:right":-304938,"name:left:uk":"\u0412\u0456\u0440\u043c\u0435\u0301\u043d\u0456\u044f","name:left:no":"Armenia","name:left:nl":"Armeni\u00eb","alt_name:left:kk":"\u04d8\u0440\u043c\u0435\u043d\u0441\u0442\u0430\u043d;\u04d8\u0440\u043c\u0435\u043d\u0438\u044f","name:right:fa":"\u0627\u06cc\u0631\u0627\u0646","name:right:fo":"Iran","name:left:ne":"\u0906\u0930\u094d\u092e\u0947\u0928\u093f\u092f\u093e","name:left:ug":"\u0626\u06d5\u0631\u0645\u06d0\u0646\u0649\u064a\u06d5","name:right:fi":"Iran","name:left:ml":"\u0d05\u0d7c\u0d2e\u0d47\u0d28\u0d3f\u0d2f","name:left:eo":"Armenujo","name:left:en":"Armenia","name:left:el":"\u0391\u03c1\u03bc\u03b5\u03bd\u03af\u03b1","name:left:ee":"Armenia","name:left:pl":"Armenia","name:left:es":"Armenia","name:left:ie":"Armenia","name:left:eu":"Armenia","name:left:et":"Armeenia","name:right:zh-min-nan":"Iran","name:left:id":"Armenia","name:right:oc":"Iran","name:left:pi":"\u0906\u0930\u094d\u092e\u0940\u0928\u093f\u092f\u093e","name:left:ia":"Armenia","name:right:bs":"Iran","name:left:sr":"\u0408\u0435\u0440\u043c\u0435\u043d\u0438\u0458\u0430","osm_relation":true,"name:right:or":"\u0b07\u0b30\u0b3e\u0b28","name:left:pt":"Arm\u00e9nia","name:right:ku":"\u00ceran","name:right:tk":"E\u00fdran","name:left:gl":"Armenia","min_zoom":8.0,"name:left:hu":"\u00d6rm\u00e9nyorsz\u00e1g","name:left:zh-min-nan":"Hayastan","name:left:ln":"Armeni","name:left:wo":"Armeeni","name:left:ga":"An Airm\u00e9in","name:left:it":"Armenia","name:left:gd":"Airmeinia","int_name:right":"Iran","name:left:gn":"Aymenia","name:left:gu":"\u0a86\u0ab0\u0acd\u0aae\u0ac7\u0aa8\u0abf\u0aaf\u0abe","name:left:gv":"Armeain","name:right:wo":"Iraan","name:left":"\u0540\u0561\u0575\u0561\u057d\u057f\u0561\u0576","name:right:mk":"\u0418\u0440\u0430\u043d","name:right:mi":"\u012ar\u0101na","name:right:mn":"\u0418\u0440\u0430\u043d","name:right:ml":"\u0d07\u0d31\u0d3e\u0d7b","name:right:vo":"Lir\u00e4n","name:right:mg":"Iran","name:right:vi":"Iran","name:right:my":"\u1021\u102e\u101b\u1014\u103a\u1014\u102d\u102f\u1004\u103a\u1004\u1036","name:right:ms":"Iran","name:right:mr":"\u0907\u0930\u093e\u0923","name:right:fy":"Iran","name:right:mt":"Iran","name:left:nn":"Armenia","kind":"country","alt_name:left:gd":"Arminia","alt_name:left:gn":"Ayme\u00f1a","name:left:br":"Armenia","name:left:bs":"Ermenija","name:left:ba":"\u04d8\u0440\u043c\u04d9\u043d\u0441\u0442\u0430\u043d","name:left:bg":"\u0410\u0440\u043c\u0435\u043d\u0438\u044f","name:left:be":"\u0410\u0440\u043c\u0435\u0301\u043d\u0456\u044f","name:left:bi":"Armenia","name:left:bn":"\u0986\u09b0\u09cd\u09ae\u09c7\u09a8\u09bf\u09af\u09bc\u09be","name:left:bo":"\u0f68\u0f62\u0f0b\u0f58\u0f7a\u0f0b\u0f53\u0f72\u0f0b\u0f61\u0f0d","name:left:bm":"Arimeni","name:left:yo":"Arm\u00e9n\u00ed\u00e0","name:left:yi":"\u05d0\u05b7\u05e8\u05de\u05e2\u05e0\u05d9\u05e2","id:left":-364066,"name:left:na":"Arminiya","name:right:ka":"\u10d8\u10e0\u10d0\u10dc\u10d8","name:left:io":"Armenia","name:left:pa":"\u0a05\u0a30\u0a2e\u0a40\u0a28\u0a40\u0a06","name:right:tt":"\u0418\u0440\u0430\u043d","name:right:kk":"\u0418\u0440\u0430\u043d","name:right:tw":"Iran","name:right:km":"\u17a2\u17ca\u17b8\u179a\u17c9\u1784\u17cb","name:right:kl":"Iran","name:right:tr":"\u0130ran","name:right:kn":"\u0c87\u0cb0\u0cbe\u0ca8\u0ccd","name:right:tl":"Iran","name:right:ks":"\u0627\u06cc\u0656\u0631\u0627\u0646","name:right:th":"\u0e1b\u0e23\u0e30\u0e40\u0e17\u0e28\u0e2d\u0e34\u0e2b\u0e23\u0e48\u0e32\u0e19","name:right:kw":"Iran","name:right:kv":"\u0418\u0440\u0430\u043d","name:right:ky":"\u0418\u0440\u0430\u043d","name:right:te":"\u0c07\u0c30\u0c3e\u0c28\u0c4d","name:right:tg":"\u042d\u0440\u043e\u043d","name:left:is":"Armen\u00eda","name:right:ta":"\u0b88\u0bb0\u0bbe\u0ba9\u0bcd","alt_name:left:av":"\u042d\u0440\u043c\u0435\u043d\u0438\u0441\u0442\u0430\u043d","name:right:de":"Iran","name:right:da":"Iran","name:left:rn":"Arumeniya","name:right:dz":"\u0f68\u0f72\u0f0b\u0f62\u0f71\u0f53\u0f0b","name:right:dv":"\u0787\u07a9\u0783\u07a7\u0782\u07b0","name:right:ht":"Iran"},"arcs":[4]},{"type":"LineString","properties":{"name:right:ja":"\u30b7\u30e3\u30eb\u30eb\u5730\u533a","name:left:ja":"\u30b5\u30c0\u30e9\u30af\u5730\u533a","name:right:ru":"\u0428\u0430\u0440\u0443\u0440\u0441\u043a\u0438\u0439 \u0440\u0430\u0439\u043e\u043d","min_zoom":8.0,"name:left:ru":"\u0421\u0430\u0434\u0430\u0440\u0430\u043a\u0441\u043a\u0438\u0439 \u0440\u0430\u0439\u043e\u043d","id:right":-3789857,"id":-3789859,"osm_relation":true,"name:right":"\u015e\u0259rur rayonu","kind":"region","name":"S\u0259d\u0259r\u0259k rayonu - \u015e\u0259rur rayonu","sort_rank":256,"kind_detail":"4","source":"openstreetmap.org","id:left":-3789859,"name:left":"S\u0259d\u0259r\u0259k rayonu"},"arcs":[5]},{"type":"LineString","properties":{"name:right:ja":"\u30a2\u30e9\u30e9\u30c8\u5730\u65b9","name:left:ja":"\u30b7\u30e3\u30eb\u30eb\u5730\u533a","name:right:ru":"\u0410\u0440\u0430\u0440\u0430\u0442\u0441\u043a\u0430\u044f \u043e\u0431\u043b\u0430\u0441\u0442\u044c","min_zoom":8.0,"name:right:ku":"Ararat","name:left:ru":"\u0428\u0430\u0440\u0443\u0440\u0441\u043a\u0438\u0439 \u0440\u0430\u0439\u043e\u043d","id:right":-364083,"name:right:en":"Ararat Province","osm_relation":true,"name:right":"\u0531\u0580\u0561\u0580\u0561\u057f\u056b \u0574\u0561\u0580\u0566","kind":"region","name":"\u015e\u0259rur rayonu - \u0531\u0580\u0561\u0580\u0561\u057f\u056b \u0574\u0561\u0580\u0566","sort_rank":256,"kind_detail":"4","int_name:right":"Ararat","id":-3789857,"source":"openstreetmap.org","name:right:de":"Provinz Ararat","id:left":-3789857,"name:right:az":"Ararat m\u0259rzi","name:left":"\u015e\u0259rur rayonu"},"arcs":[6]},{"type":"LineString","properties":{"name:right:ja":"\u897f\u30a2\u30fc\u30b6\u30eb\u30d0\u30fc\u30a4\u30b8\u30e3\u30fc\u30f3","name:right:uk":"\u0417\u0430\u0445\u0456\u0434\u043d\u0438\u0439 \u0410\u0437\u0435\u0440\u0431\u0430\u0439\u0434\u0436\u0430\u043d","name:left:ja":"\u30b7\u30e3\u30eb\u30eb\u5730\u533a","id:right":-241593,"min_zoom":8.0,"name:right:ku":"Azerbaycana Rojava","id:left":-3789857,"name:right:fa":"\u0627\u0633\u062a\u0627\u0646 \u0622\u0630\u0631\u0628\u0627\u06cc\u062c\u0627\u0646 \u063a\u0631\u0628\u06cc\u200e","name:right:ru":"\u0417\u0430\u043f\u0430\u0434\u043d\u044b\u0439 \u0410\u0437\u0435\u0440\u0431\u0430\u0439\u0434\u0436\u0430\u043d","name:right:pl":"Azerbejd\u017can Zachodni","id":-3789857,"osm_relation":true,"name:right":"\u0627\u0633\u062a\u0627\u0646 \u0622\u0630\u0631\u0628\u0627\u06cc\u062c\u0627\u0646 \u063a\u0631\u0628\u06cc","kind":"region","name":"\u015e\u0259rur rayonu - \u0627\u0633\u062a\u0627\u0646 \u0622\u0630\u0631\u0628\u0627\u06cc\u062c\u0627\u0646 \u063a\u0631\u0628\u06cc","sort_rank":256,"kind_detail":"4","name:right:en":"West Azerbaijan Province","source":"openstreetmap.org","name:right:de":"West-Aserbaidschan","name:left:ru":"\u0428\u0430\u0440\u0443\u0440\u0441\u043a\u0438\u0439 \u0440\u0430\u0439\u043e\u043d","name:left":"\u015e\u0259rur rayonu"},"arcs":[7]},{"type":"LineString","properties":{"kind":"region","name":"\u015e\u0259rur rayonu","sort_rank":256,"kind_detail":"4","source":"openstreetmap.org","min_zoom":8.0,"name:ru":"\u0428\u0430\u0440\u0443\u0440\u0441\u043a\u0438\u0439 \u0440\u0430\u0439\u043e\u043d","id":-3789857,"osm_relation":true,"name:ja":"\u30b7\u30e3\u30eb\u30eb\u5730\u533a"},"arcs":[8]},{"type":"LineString","properties":{"name:right:ja":"\u897f\u30a2\u30fc\u30b6\u30eb\u30d0\u30fc\u30a4\u30b8\u30e3\u30fc\u30f3","name:right:uk":"\u0417\u0430\u0445\u0456\u0434\u043d\u0438\u0439 \u0410\u0437\u0435\u0440\u0431\u0430\u0439\u0434\u0436\u0430\u043d","name:left:ja":"\u6771\u30a2\u30fc\u30b6\u30eb\u30d0\u30fc\u30a4\u30b8\u30e3\u30fc\u30f3","id:right":-241593,"name:left:uk":"\u0421\u0445\u0456\u0434\u043d\u0438\u0439 \u0410\u0437\u0435\u0440\u0431\u0430\u0439\u0434\u0436\u0430\u043d","min_zoom":8.0,"name:right:ku":"Azerbaycana Rojava","id:left":-2232180,"name:left:en":"East Azerbaijan Province","name:right:fa":"\u0627\u0633\u062a\u0627\u0646 \u0622\u0630\u0631\u0628\u0627\u06cc\u062c\u0627\u0646 \u063a\u0631\u0628\u06cc\u200e","name:right:ru":"\u0417\u0430\u043f\u0430\u0434\u043d\u044b\u0439 \u0410\u0437\u0435\u0440\u0431\u0430\u0439\u0434\u0436\u0430\u043d","name:right:pl":"Azerbejd\u017can Zachodni","id":-2232180,"osm_relation":true,"name:right":"\u0627\u0633\u062a\u0627\u0646 \u0622\u0630\u0631\u0628\u0627\u06cc\u062c\u0627\u0646 \u063a\u0631\u0628\u06cc","name:left:ku":"Azerbaycana Rojhilat","kind":"region","name":"\u0627\u0633\u062a\u0627\u0646 \u0622\u0630\u0631\u0628\u0627\u06cc\u062c\u0627\u0646 \u0634\u0631\u0642\u06cc - \u0627\u0633\u062a\u0627\u0646 \u0622\u0630\u0631\u0628\u0627\u06cc\u062c\u0627\u0646 \u063a\u0631\u0628\u06cc","source":"openstreetmap.org","sort_rank":256,"kind_detail":"4","name:left:de":"Ost-Aserbaidschan","name:right:en":"West Azerbaijan Province","name:left:pl":"Azerbejd\u017can Wschodni","name:right:de":"West-Aserbaidschan","name:left:ru":"\u0412\u043e\u0441\u0442\u043e\u0447\u043d\u044b\u0439 \u0410\u0437\u0435\u0440\u0431\u0430\u0439\u0434\u0436\u0430\u043d","name:left":"\u0627\u0633\u062a\u0627\u0646 \u0622\u0630\u0631\u0628\u0627\u06cc\u062c\u0627\u0646 \u0634\u0631\u0642\u06cc"},"arcs":[9]},{"type":"LineString","properties":{"kind":"region","name:en":"East Azerbaijan Province","name":"\u0627\u0633\u062a\u0627\u0646 \u0622\u0630\u0631\u0628\u0627\u06cc\u062c\u0627\u0646 \u0634\u0631\u0642\u06cc","sort_rank":256,"kind_detail":"4","min_zoom":8.0,"name:de":"Ost-Aserbaidschan","source":"openstreetmap.org","name:ku":"Azerbaycana Rojhilat","name:uk":"\u0421\u0445\u0456\u0434\u043d\u0438\u0439 \u0410\u0437\u0435\u0440\u0431\u0430\u0439\u0434\u0436\u0430\u043d","name:ru":"\u0412\u043e\u0441\u0442\u043e\u0447\u043d\u044b\u0439 \u0410\u0437\u0435\u0440\u0431\u0430\u0439\u0434\u0436\u0430\u043d","name:pl":"Azerbejd\u017can Wschodni","id":-2232180,"osm_relation":true,"name:ja":"\u6771\u30a2\u30fc\u30b6\u30eb\u30d0\u30fc\u30a4\u30b8\u30e3\u30fc\u30f3"},"arcs":[10]},{"type":"LineString","properties":{"name:right:ka":"\u10d2\u10d4\u10e6\u10d0\u10e0\u10e5\u10e3\u10dc\u10d8\u10e5\u10d8\u10e1 \u10de\u10e0\u10dd\u10d5\u10d8\u10dc\u10ea\u10d8\u10d0","int_name:right":"Gegharkunik","int_name:left":"Ararat","name:left:ja":"\u30a2\u30e9\u30e9\u30c8\u5730\u65b9","name:left:az":"Ararat m\u0259rzi","id:right":-364080,"name:left:ku":"Ararat","min_zoom":8.0,"name:right:ku":"G\u00eaxarkunik","id:left":-364083,"name:left:ru":"\u0410\u0440\u0430\u0440\u0430\u0442\u0441\u043a\u0430\u044f \u043e\u0431\u043b\u0430\u0441\u0442\u044c","name:right:ru":"\u0413\u0435\u0445\u0430\u0440\u043a\u0443\u043d\u0438\u043a\u0441\u043a\u0430\u044f \u043e\u0431\u043b\u0430\u0441\u0442\u044c","id":-364083,"osm_relation":true,"name:right":"\u0533\u0565\u0572\u0561\u0580\u0584\u0578\u0582\u0576\u056b\u0584\u056b \u0574\u0561\u0580\u0566","kind":"region","name":"\u0531\u0580\u0561\u0580\u0561\u057f\u056b \u0574\u0561\u0580\u0566 - \u0533\u0565\u0572\u0561\u0580\u0584\u0578\u0582\u0576\u056b\u0584\u056b \u0574\u0561\u0580\u0566","source":"openstreetmap.org","sort_rank":256,"kind_detail":"4","name:left:de":"Provinz Ararat","name:right:en":"Gegharkunik Province","name:left:en":"Ararat Province","name:right:de":"Provinz Gegharkunik","name:left":"\u0531\u0580\u0561\u0580\u0561\u057f\u056b \u0574\u0561\u0580\u0566"},"arcs":[11]},{"type":"LineString","properties":{"kind":"region","name:en":"Ararat Province","name":"\u0531\u0580\u0561\u0580\u0561\u057f\u056b \u0574\u0561\u0580\u0566","sort_rank":256,"kind_detail":"4","min_zoom":8.0,"name:de":"Provinz Ararat","source":"openstreetmap.org","name:ku":"Ararat","int_name":"Ararat","name:az":"Ararat m\u0259rzi","name:ru":"\u0410\u0440\u0430\u0440\u0430\u0442\u0441\u043a\u0430\u044f \u043e\u0431\u043b\u0430\u0441\u0442\u044c","id":-364083,"osm_relation":true,"name:ja":"\u30a2\u30e9\u30e9\u30c8\u5730\u65b9"},"arcs":[12]},{"type":"LineString","properties":{"kind":"region","name:en":"Gegharkunik Province","name":"\u0533\u0565\u0572\u0561\u0580\u0584\u0578\u0582\u0576\u056b\u0584\u056b \u0574\u0561\u0580\u0566","name:ka":"\u10d2\u10d4\u10e6\u10d0\u10e0\u10e5\u10e3\u10dc\u10d8\u10e5\u10d8\u10e1 \u10de\u10e0\u10dd\u10d5\u10d8\u10dc\u10ea\u10d8\u10d0","sort_rank":256,"kind_detail":"4","min_zoom":8.0,"name:de":"Provinz Gegharkunik","source":"openstreetmap.org","name:ku":"G\u00eaxarkunik","int_name":"Gegharkunik","name:ru":"\u0413\u0435\u0445\u0430\u0440\u043a\u0443\u043d\u0438\u043a\u0441\u043a\u0430\u044f \u043e\u0431\u043b\u0430\u0441\u0442\u044c","id":-364080,"osm_relation":true},"arcs":[13]},{"type":"LineString","properties":{"name:ja":"\u897f\u30a2\u30fc\u30b6\u30eb\u30d0\u30fc\u30a4\u30b8\u30e3\u30fc\u30f3","name:ku":"Azerbaycana Rojava","name:uk":"\u0417\u0430\u0445\u0456\u0434\u043d\u0438\u0439 \u0410\u0437\u0435\u0440\u0431\u0430\u0439\u0434\u0436\u0430\u043d","name:ru":"\u0417\u0430\u043f\u0430\u0434\u043d\u044b\u0439 \u0410\u0437\u0435\u0440\u0431\u0430\u0439\u0434\u0436\u0430\u043d","name:pl":"Azerbejd\u017can Zachodni","id":-241593,"osm_relation":true,"name:fa":"\u0627\u0633\u062a\u0627\u0646 \u0622\u0630\u0631\u0628\u0627\u06cc\u062c\u0627\u0646 \u063a\u0631\u0628\u06cc\u200e","kind":"region","name:en":"West Azerbaijan Province","name":"\u0627\u0633\u062a\u0627\u0646 \u0622\u0630\u0631\u0628\u0627\u06cc\u062c\u0627\u0646 \u063a\u0631\u0628\u06cc","sort_rank":256,"kind_detail":"4","min_zoom":8.0,"name:de":"West-Aserbaidschan","source":"openstreetmap.org"},"arcs":[14]}]},"roads":{"type":"GeometryCollection","geometries":[{"type":"LineString","properties":{"kind":"major_road","name:en":"Nurduz border bridge","network":"AsianHighway","sort_rank":381,"kind_detail":"trunk","source":"openstreetmap.org","min_zoom":8.0,"landuse_kind":"protected_area","shield_text":"82","id":179099483},"arcs":[15]},{"type":"LineString","properties":{"kind":"major_road","name:en":"Artsakhyan street","network":null,"sort_rank":380,"kind_detail":"primary","source":"openstreetmap.org","min_zoom":8.0,"shield_text":"12","name:ru":"\u0443\u043b\u0438\u0446\u0430 \u0410\u0440\u0446\u0430\u0445\u044f\u043d","ref":"\u0544-12","id":215116781},"arcs":[16]},{"type":"LineString","properties":{"kind":"major_road","network":"e-road","sort_rank":380,"kind_detail":"primary","source":"openstreetmap.org","min_zoom":8.0,"landuse_kind":"urban_area","shield_text":"002","name:ru":"\u043f\u0440\u043e\u0441\u043f\u0435\u043a\u0442 \u0413\u0435\u0439\u0434\u0430\u0440\u0430 \u0410\u043b\u0438\u0435\u0432\u0430","id":49280172},"arcs":[17]},{"type":"MultiLineString","properties":{"source":"openstreetmap.org","kind":"major_road","sort_rank":380,"kind_detail":"primary","ref":"144","min_zoom":8.0},"arcs":[[18],[19],[20],[21],[22],[23],[24],[25],[26],[27],[28],[29],[30],[31],[32],[33],[34],[35]]},{"type":"MultiLineString","properties":{"kind":"major_road","network":"e-road","sort_rank":381,"kind_detail":"trunk","source":"openstreetmap.org","min_zoom":8.0,"shield_text":"117","ref":"\u0544-2"},"arcs":[[36],[37],[38],[39]]},{"type":"MultiLineString","properties":{"source":"openstreetmap.org","kind":"major_road","landuse_kind":"urban_area","sort_rank":380,"kind_detail":"primary","ref":"144","min_zoom":8.0},"arcs":[[40],[41],[42]]},{"type":"LineString","properties":{"kind":"major_road","network":"e-road","sort_rank":381,"kind_detail":"trunk","source":"openstreetmap.org","min_zoom":8.0,"shield_text":"002","ref":"M7"},"arcs":[43]},{"type":"MultiLineString","properties":{"source":"openstreetmap.org","kind":"major_road","network":"e-road","sort_rank":380,"kind_detail":"primary","min_zoom":8.0,"shield_text":"002"},"arcs":[[44],[45]]},{"type":"MultiLineString","properties":{"kind":"major_road","network":"ir:national","sort_rank":381,"kind_detail":"trunk","source":"openstreetmap.org","min_zoom":8.0,"shield_text":"12","ref":"12;21"},"arcs":[[46],[47],[48],[49],[50]]},{"type":"LineString","properties":{"source":"openstreetmap.org","kind":"major_road","landuse_kind":"protected_area","sort_rank":381,"kind_detail":"trunk","min_zoom":8.0},"arcs":[51]},{"type":"LineString","properties":{"kind":"major_road","network":"AsianHighway","sort_rank":381,"landuse_kind":"protected_area","source":"openstreetmap.org","min_zoom":8.0,"kind_detail":"trunk","shield_text":"82"},"arcs":[52]},{"type":"MultiLineString","properties":{"sort_rank":381,"source":"openstreetmap.org","min_zoom":8.0,"kind":"major_road","kind_detail":"trunk"},"arcs":[[53],[54],[55],[56],[57],[58],[59],[60],[61],[62],[63]]},{"type":"MultiLineString","properties":{"source":"openstreetmap.org","kind":"major_road","sort_rank":380,"kind_detail":"primary","ref":"M-17","min_zoom":8.0},"arcs":[[64],[65]]},{"type":"MultiLineString","properties":{"kind":"major_road","network":"ir:national","sort_rank":381,"kind_detail":"trunk","source":"openstreetmap.org","min_zoom":8.0,"shield_text":"32","ref":"32"},"arcs":[[66],[67]]},{"type":"MultiLineString","properties":{"source":"openstreetmap.org","kind":"major_road","landuse_kind":"protected_area","sort_rank":380,"kind_detail":"primary","ref":"144","min_zoom":8.0},"arcs":[[68],[69],[70]]},{"type":"MultiLineString","properties":{"source":"openstreetmap.org","kind":"major_road","landuse_kind":"urban_area","sort_rank":380,"kind_detail":"primary","ref":"12","min_zoom":8.0},"arcs":[[71],[72]]},{"type":"MultiLineString","properties":{"source":"openstreetmap.org","kind":"major_road","landuse_kind":"urban_area","sort_rank":380,"kind_detail":"primary","min_zoom":8.0},"arcs":[[73],[74],[75],[76],[77],[78],[79],[80],[81],[82],[83],[84],[85],[86],[87],[88],[89],[90],[91],[92],[93],[94],[95],[96],[97],[98],[99],[100],[101],[102],[103],[104]]},{"type":"LineString","properties":{"kind":"major_road","network":null,"sort_rank":380,"kind_detail":"primary","source":"openstreetmap.org","min_zoom":8.0,"shield_text":"10","ref":"\u0544-10"},"arcs":[105]},{"type":"LineString","properties":{"source":"openstreetmap.org","kind":"major_road","sort_rank":380,"kind_detail":"primary","ref":"\u015eahbuz Batabat yolu","min_zoom":8.0},"arcs":[106]},{"type":"LineString","properties":{"kind":"major_road","network":"e-road","sort_rank":381,"kind_detail":"trunk","source":"openstreetmap.org","min_zoom":8.0,"shield_text":"002","ref":"M-2"},"arcs":[107]},{"type":"LineString","properties":{"kind":"major_road","name:en":"Malek Ashtar Street","sort_rank":380,"kind_detail":"primary","source":"openstreetmap.org","min_zoom":8.0,"ref":"144","id":199363033},"arcs":[108]},{"type":"LineString","properties":{"kind":"major_road","network":"ir:national","sort_rank":381,"kind_detail":"trunk","source":"openstreetmap.org","min_zoom":8.0,"landuse_kind":"urban_area","shield_text":"32","ref":"32","id":16600775},"arcs":[109]},{"type":"LineString","properties":{"kind":"major_road","name:en":"Marand-Julfa Road","network":"ir:national","sort_rank":381,"kind_detail":"trunk","source":"openstreetmap.org","min_zoom":8.0,"shield_text":"21","ref":"21","id":17448879},"arcs":[110]},{"type":"LineString","properties":{"kind":"major_road","network":"e-road","sort_rank":380,"kind_detail":"primary","source":"openstreetmap.org","min_zoom":8.0,"landuse_kind":"urban_area","shield_text":"002","name:ru":"\u043f\u0440\u043e\u0441\u043f\u0435\u043a\u0442 \u0413\u0435\u0439\u0434\u0430\u0440\u0430 \u0410\u043b\u0438\u0435\u0432\u0430","ref":"M7","id":49280175},"arcs":[111]},{"type":"LineString","properties":{"kind":"major_road","name:en":"Julfa-Marand","network":"ir:national","sort_rank":381,"kind_detail":"trunk","source":"openstreetmap.org","min_zoom":8.0,"shield_text":"21","ref":"21","id":422833146},"arcs":[112]},{"type":"MultiLineString","properties":{"kind":"major_road","network":null,"sort_rank":380,"kind_detail":"primary","source":"openstreetmap.org","min_zoom":8.0,"shield_text":"12","ref":"\u0544-12"},"arcs":[[113],[114]]},{"type":"MultiLineString","properties":{"kind":"major_road","network":"ir:national","sort_rank":381,"landuse_kind":"urban_area","source":"openstreetmap.org","min_zoom":8.0,"kind_detail":"trunk","shield_text":"12","ref":"12"},"arcs":[[115],[116],[117]]},{"type":"LineString","properties":{"kind":"major_road","name:en":"Spandaryan street","network":"e-road","sort_rank":381,"kind_detail":"trunk","source":"openstreetmap.org","min_zoom":8.0,"landuse_kind":"urban_area","shield_text":"117","name:ru":"\u0443\u043b\u0438\u0446\u0430 \u0421\u043f\u0430\u043d\u0434\u0430\u0440\u044f\u043d","ref":"\u0544-2","id":541648694},"arcs":[118]},{"type":"MultiLineString","properties":{"sort_rank":380,"kind_detail":"primary","min_zoom":8.0,"kind":"major_road","source":"openstreetmap.org"},"arcs":[[119],[120],[121],[122],[123],[124],[125],[126],[127],[128],[129],[130],[131],[132],[133],[134]]},{"type":"MultiLineString","properties":{"kind":"major_road","network":"ir:national","sort_rank":380,"kind_detail":"primary","source":"openstreetmap.org","min_zoom":8.0,"landuse_kind":"urban_area","shield_text":"12"},"arcs":[[135],[136]]},{"type":"LineString","properties":{"kind":"major_road","network":"e-road","sort_rank":380,"kind_detail":"primary","source":"openstreetmap.org","min_zoom":8.0,"shield_text":"002","ref":"M7","id":16606386},"arcs":[137]},{"type":"MultiLineString","properties":{"kind":"major_road","network":"AsianHighway","sort_rank":381,"kind_detail":"trunk","source":"openstreetmap.org","min_zoom":8.0,"shield_text":"82","ref":"\u0544-2"},"arcs":[[138],[139],[140],[141]]},{"type":"LineString","properties":{"kind":"major_road","name:en":"Shahid Beheshti Square","network":"ir:national","sort_rank":381,"kind_detail":"trunk","source":"openstreetmap.org","min_zoom":8.0,"shield_text":"12","ref":"12;21","id":300133989},"arcs":[142]},{"type":"LineString","properties":{"kind":"major_road","network":"ir:national","sort_rank":381,"kind_detail":"trunk","source":"openstreetmap.org","min_zoom":8.0,"landuse_kind":"urban_area","shield_text":"12","ref":"12;21","id":300133985},"arcs":[143]},{"type":"MultiLineString","properties":{"kind":"major_road","network":"ir:national","sort_rank":380,"kind_detail":"primary","source":"openstreetmap.org","min_zoom":8.0,"landuse_kind":"urban_area","shield_text":"12","ref":"12"},"arcs":[[144],[145],[146],[147],[148],[149],[150],[151],[152],[153],[154]]},{"type":"LineString","properties":{"kind":"major_road","network":"e-road","sort_rank":380,"kind_detail":"primary","source":"openstreetmap.org","min_zoom":8.0,"landuse_kind":"urban_area","shield_text":"002","ref":"R8"},"arcs":[155]},{"type":"LineString","properties":{"source":"openstreetmap.org","kind":"major_road","sort_rank":380,"kind_detail":"primary","ref":"R49","min_zoom":8.0,"id":294278730},"arcs":[156]},{"type":"MultiLineString","properties":{"kind":"major_road","network":"ir:national","sort_rank":381,"landuse_kind":"urban_area","source":"openstreetmap.org","min_zoom":8.0,"kind_detail":"trunk","shield_text":"21","ref":"21"},"arcs":[[157],[158],[159],[160]]},{"type":"LineString","properties":{"source":"openstreetmap.org","kind":"major_road","landuse_kind":"urban_area","sort_rank":380,"kind_detail":"primary","min_zoom":8.0,"name:ru":"\u043f\u0440\u043e\u0441\u043f\u0435\u043a\u0442 \u0413\u0435\u0439\u0434\u0430\u0440\u0430 \u0410\u043b\u0438\u0435\u0432\u0430"},"arcs":[161]},{"type":"LineString","properties":{"kind":"major_road","network":"e-road","sort_rank":381,"landuse_kind":"urban_area","source":"openstreetmap.org","min_zoom":8.0,"kind_detail":"trunk","shield_text":"117","ref":"\u0544-2"},"arcs":[162]},{"type":"MultiLineString","properties":{"kind":"major_road","network":"e-road","sort_rank":380,"kind_detail":"primary","source":"openstreetmap.org","min_zoom":8.0,"landuse_kind":"urban_area","shield_text":"002"},"arcs":[[163],[164],[165],[166],[167],[168],[169],[170],[171]]},{"type":"MultiLineString","properties":{"kind":"major_road","network":"ir:national","sort_rank":380,"kind_detail":"primary","source":"openstreetmap.org","min_zoom":8.0,"landuse_kind":"urban_area","shield_text":"21","ref":"21"},"arcs":[[172],[173],[174],[175]]},{"type":"LineString","properties":{"kind":"major_road","network":"e-road","sort_rank":380,"kind_detail":"primary","source":"openstreetmap.org","min_zoom":8.0,"landuse_kind":"urban_area","shield_text":"002","ref":"M7"},"arcs":[176]},{"type":"MultiLineString","properties":{"kind":"major_road","network":"e-road","sort_rank":380,"kind_detail":"primary","source":"openstreetmap.org","min_zoom":8.0,"shield_text":"002","ref":"M8"},"arcs":[[177],[178]]},{"type":"LineString","properties":{"kind":"major_road","sort_rank":380,"landuse_kind":"urban_area","source":"openstreetmap.org","min_zoom":8.0,"kind_detail":"primary","ref":"R65","id":49275809},"arcs":[179]},{"type":"LineString","properties":{"kind":"major_road","sort_rank":381,"landuse_kind":"protected_area","source":"openstreetmap.org","min_zoom":8.0,"kind_detail":"trunk","ref":"12","id":437195202},"arcs":[180]},{"type":"LineString","properties":{"source":"openstreetmap.org","kind":"major_road","sort_rank":380,"kind_detail":"primary","ref":"11","min_zoom":8.0,"id":403030746},"arcs":[181]},{"type":"LineString","properties":{"kind":"major_road","name:en":"Syuniq street","network":"AsianHighway","sort_rank":381,"kind_detail":"trunk","source":"openstreetmap.org","min_zoom":8.0,"shield_text":"82","ref":"\u0544-2","id":427523104},"arcs":[182]},{"type":"LineString","properties":{"kind":"major_road","name:en":"Ghiam square","sort_rank":380,"kind_detail":"primary","source":"openstreetmap.org","min_zoom":8.0,"ref":"144","id":199363038},"arcs":[183]},{"type":"LineString","properties":{"kind":"major_road","network":"e-road","sort_rank":381,"kind_detail":"trunk","source":"openstreetmap.org","min_zoom":8.0,"landuse_kind":"protected_area","shield_text":"002","ref":"M8","id":363120259},"arcs":[184]},{"type":"MultiLineString","properties":{"kind":"major_road","network":"ir:national","sort_rank":381,"kind_detail":"trunk","source":"openstreetmap.org","min_zoom":8.0,"shield_text":"21","ref":"21"},"arcs":[[185],[186],[187],[188],[189],[190],[191],[192],[193]]},{"type":"LineString","properties":{"kind":"major_road","name:en":"Syuniq street","network":"AsianHighway","sort_rank":381,"kind_detail":"trunk","source":"openstreetmap.org","min_zoom":8.0,"shield_text":"82","name:ru":"\u0443\u043b\u0438\u0446\u0430 \u0421\u044e\u043d\u0438\u043a","ref":"\u0544-2","id":215116785},"arcs":[194]},{"type":"MultiLineString","properties":{"kind":"major_road","network":"ir:national","sort_rank":380,"kind_detail":"primary","source":"openstreetmap.org","min_zoom":8.0,"shield_text":"12","ref":"12"},"arcs":[[195],[196],[197],[198],[199],[200],[201],[202],[203],[204],[205],[206]]},{"type":"MultiLineString","properties":{"kind":"major_road","network":"ir:national","sort_rank":380,"kind_detail":"primary","source":"openstreetmap.org","min_zoom":8.0,"shield_text":"11","ref":"11"},"arcs":[[207],[208],[209]]},{"type":"MultiLineString","properties":{"kind":"major_road","network":"e-road","sort_rank":381,"kind_detail":"trunk","source":"openstreetmap.org","min_zoom":8.0,"shield_text":"002","ref":"M8"},"arcs":[[210],[211],[212],[213],[214],[215]]},{"type":"MultiLineString","properties":{"kind":"major_road","network":"e-road","sort_rank":380,"kind_detail":"primary","source":"openstreetmap.org","min_zoom":8.0,"shield_text":"002","ref":"R8"},"arcs":[[216],[217]]},{"type":"MultiLineString","properties":{"kind":"major_road","network":"ir:national","sort_rank":381,"kind_detail":"trunk","source":"openstreetmap.org","min_zoom":8.0,"shield_text":"12","ref":"12"},"arcs":[[218],[219],[220],[221],[222],[223]]},{"type":"MultiLineString","properties":{"source":"openstreetmap.org","kind":"major_road","network":"e-road","sort_rank":381,"kind_detail":"trunk","min_zoom":8.0,"shield_text":"002"},"arcs":[[224],[225],[226],[227],[228],[229]]},{"type":"LineString","properties":{"kind":"major_road","name:en":"Hunan Avetisyan street","network":"e-road","sort_rank":381,"kind_detail":"trunk","source":"openstreetmap.org","min_zoom":8.0,"landuse_kind":"urban_area","shield_text":"117","name:ru":"\u0443\u043b\u0438\u0446\u0430 \u0423\u043d\u0430\u043d\u0430 \u0410\u0432\u0435\u0442\u0438\u0441\u044f\u043d\u0430","ref":"\u0544-2","id":541651809},"arcs":[230]},{"type":"LineString","properties":{"kind":"major_road","network":"e-road","sort_rank":380,"kind_detail":"primary","source":"openstreetmap.org","min_zoom":8.0,"landuse_kind":"urban_area","shield_text":"002","ref":"M8"},"arcs":[231]},{"type":"LineString","properties":{"kind":"major_road","sort_rank":380,"landuse_kind":"urban_area","source":"openstreetmap.org","min_zoom":8.0,"kind_detail":"primary","ref":"21","id":49275807},"arcs":[232]},{"type":"MultiLineString","properties":{"kind":"major_road","network":"ir:national","sort_rank":381,"landuse_kind":"protected_area","source":"openstreetmap.org","min_zoom":8.0,"kind_detail":"trunk","shield_text":"12","ref":"12"},"arcs":[[233],[234],[235],[236],[237],[238],[239]]},{"type":"LineString","properties":{"kind":"major_road","name:en":"Nurduz border bridge","network":"AsianHighway","sort_rank":381,"kind_detail":"trunk","source":"openstreetmap.org","min_zoom":8.0,"shield_text":"82","id":179099483},"arcs":[240]},{"type":"MultiLineString","properties":{"source":"openstreetmap.org","kind":"major_road","sort_rank":380,"kind_detail":"primary","ref":"12","min_zoom":8.0},"arcs":[[241],[242]]},{"type":"LineString","properties":{"kind":"major_road","name:en":"Jermuk Highway","network":"AsianHighway","sort_rank":381,"kind_detail":"trunk","source":"openstreetmap.org","min_zoom":8.0,"shield_text":"82","name:ru":"\u0414\u0436\u0435\u0440\u043c\u0443\u043a\u0441\u043a\u043e\u0435 \u0448\u043e\u0441\u0441\u0435","ref":"\u0544-2","id":177848852},"arcs":[243]},{"type":"LineString","properties":{"kind":"major_road","network":"e-road","sort_rank":380,"kind_detail":"primary","source":"openstreetmap.org","min_zoom":8.0,"shield_text":"002","ref":"M-17","id":436190016},"arcs":[244]}]},"earth":{"type":"GeometryCollection","geometries":[{"type":"Polygon","properties":{"sort_rank":10,"source":"naturalearthdata.com","kind":"earth","min_zoom":0.0,"id":4743},"arcs":[[245]]}]},"landuse":{"type":"GeometryCollection","geometries":[{"type":"Polygon","properties":{"kind":"protected_area","protect_class":"4","area":1599800064,"sort_rank":17,"source":"openstreetmap.org","min_zoom":4.0,"tier":2,"id":-6531584,"osm_relation":true},"arcs":[[246]]},{"type":"MultiPolygon","properties":{"source":"naturalearthdata.com","kind":"urban_area","name":"","area":917174801,"sort_rank":11,"min_zoom":4.0},"arcs":[[[247]],[[248]],[[249]],[[250]],[[251]],[[252]]]}]}},"type":"Topology","transform":{"translate":[45.0,38.8225909762],"scale":[0.0003433228,0.0002654163]},"arcs":[[[2319,4096],[-22,-25],[70,-104],[39,-187],[105,-17],[212,-124],[99,13],[26,-19],[82,-131],[62,-30],[21,-77],[103,-90],[-36,-34],[57,-51],[9,29],[46,10],[102,-121],[71,-18],[48,-66],[-20,-55],[37,-148],[54,86],[155,-4],[192,110],[122,32],[56,-30],[-15,-42],[61,-3],[41,31]],[[4096,2389],[-41,-4],[-3,-39],[34,-41],[-48,-24],[-2,-107],[60,-91]],[[3333,75],[16,177],[-66,104],[-19,115],[-30,17],[-26,240],[-71,54],[-23,188],[-111,47],[-41,85],[25,30],[-5,51],[-59,47],[14,48],[-55,146],[-8,148],[52,64],[-16,128],[-166,66],[-33,48],[-99,41],[-103,93],[-149,17],[-51,30],[-10,53],[45,174],[32,1],[74,118],[-80,89],[34,77],[-77,250],[-37,-7],[-15,57],[-73,9],[-23,28],[-39,-9],[-26,39],[-93,2],[-56,-66],[-55,-12],[-94,-71],[-133,17],[-46,-86],[-71,0],[-27,-65],[-106,-62],[-59,-78],[-19,52],[-57,-9],[-30,83],[-150,58],[-118,5],[-43,70],[-50,15],[-37,88],[20,96],[-183,-2],[-48,-31],[-5,-61],[-34,-20],[-116,38],[18,44],[-16,88],[36,83],[-32,11],[-6,46],[41,48],[-7,24],[-109,108],[-77,180],[-114,100],[-60,30],[-37,-15],[-35,-69],[-62,-23],[-44,-63]],[[0,2209],[64,-17],[68,-93],[37,6],[-3,-64],[87,-49],[-19,-67],[24,-18],[37,17],[22,-91],[54,-21],[4,-33],[-33,-28],[72,-11],[-22,-47],[40,-32],[13,-177],[25,-13],[35,38],[33,-10],[43,-59],[51,15],[89,-87],[111,-9],[67,69],[55,-59],[-68,-75],[133,17],[39,-74],[-25,-92],[139,-131],[2,-71],[88,-74],[69,-8],[-58,-148],[52,-80],[127,-25],[132,-73],[111,52],[10,-42],[81,-35],[8,-62],[92,39],[91,-20],[40,19],[129,-91],[65,10],[73,-18],[5,-22],[35,21],[6,-38],[45,-37],[49,-10],[42,30],[51,-38],[-10,-27],[140,-73],[52,15],[52,71],[101,-67],[96,-26],[86,0],[69,58],[44,-60],[92,-24],[-1,-25],[95,-60]],[[3333,75],[116,-4],[28,40],[61,14],[5,32],[91,37],[102,100],[44,-1],[16,23],[41,-19],[84,58],[137,-47],[38,-38]],[[0,3374],[0,55]],[[193,3642],[-15,19],[-37,-15],[-35,-69],[-62,-23],[-44,-63]],[[0,2209],[64,-17],[58,-73]],[[122,2119],[34,51],[-15,147],[33,12],[37,-58],[35,23],[-21,33],[90,59],[-4,62],[134,2],[113,34],[4,31],[54,14],[-1,34],[209,1],[44,97],[55,43],[74,6],[-40,66],[-50,15],[-36,76],[19,108],[-183,-2],[-48,-31],[-5,-61],[-34,-20],[-116,38],[18,44],[-16,88],[36,83],[-32,11],[-6,46],[41,48],[-7,24],[-109,108],[-77,180],[-114,100],[-45,11]],[[1319,642],[-28,-32],[-147,-49],[-62,-55],[-123,-243],[-170,-102],[-26,-161]],[[4096,270],[-38,38],[-137,47],[-84,-58],[-41,19],[-16,-23],[-44,1],[-102,-100],[-91,-37],[-5,-32],[-61,-14],[-28,-40],[-106,1],[-54,18],[-50,70],[-92,24],[-44,60],[-69,-58],[-86,0],[-96,26],[-101,67],[-52,-71],[-52,-15],[-140,73],[10,27],[-51,38],[-42,-30],[-49,10],[-45,37],[-6,38],[-35,-21],[-5,22],[-73,18],[-65,-10],[-129,91],[-40,-19],[-91,20],[-92,-39],[-8,62],[-81,35],[-10,42],[-118,-51],[-125,72],[-133,34]],[[346,3921],[-22,48],[15,127]],[[193,3642],[28,154],[38,62],[87,63]],[[346,3921],[208,175]],[[1319,642],[-46,71],[58,148],[-69,8],[-88,74],[-2,71],[-139,131],[25,92],[-39,74],[-133,-17],[68,75],[-55,59],[-67,-69],[-111,9],[-89,87],[-51,-15],[-43,59],[-33,10],[-35,-38],[-25,13],[-13,177],[-40,32],[22,47],[-71,9],[32,30],[-4,33],[-54,21],[-22,91],[-37,-17],[-24,18],[19,67],[-87,49],[3,64],[-35,-7],[-12,21]],[[3500,106],[1,6]],[[3862,2654],[62,-24]],[[1189,1444],[1,-7]],[[1788,29],[85,-15]],[[1903,18],[10,2]],[[1913,20],[-10,-1]],[[1930,32],[4,0]],[[1935,32],[1,0]],[[1935,32],[0,1],[-1,-1]],[[1934,32],[1,0]],[[1935,32]],[[1936,32],[-1,0]],[[1936,32],[14,-1]],[[1953,32],[-3,-1]],[[1950,31],[3,0]],[[1954,32],[55,-2]],[[2009,30],[-47,4]],[[2009,30],[70,-30]],[[2087,0],[1,1]],[[1913,20],[-1,0],[1,0]],[[1954,32],[-1,1],[0,-1],[1,-1],[0,1]],[[3379,1232],[76,-12],[-7,-36],[-23,12],[20,-55],[-59,2],[-4,-38],[54,-50],[-12,-53],[-27,29],[112,-204],[18,-96],[-15,-115],[27,-40],[-11,-85],[28,-114],[128,-132]],[[3684,245],[3,0]],[[3687,245],[-3,0]],[[3864,1513],[132,-38]],[[1873,14],[4,0]],[[1877,14],[26,4]],[[1903,19],[-26,-5]],[[0,2858],[125,-66],[10,-366],[40,-117],[174,-97],[84,-82],[114,-210],[171,-189]],[[1706,894],[-3,0]],[[3688,249],[-1,-4]],[[1828,433],[-31,-15]],[[1797,417],[33,16]],[[1830,433],[-2,0]],[[1830,433],[10,4]],[[1797,418],[-1,0],[0,-1],[1,1]],[[3499,100],[0,2]],[[3484,100],[16,6]],[[1804,219],[1,-1]],[[1811,223],[0,1]],[[1814,426],[1,0]],[[1815,426]],[[1823,430]],[[1824,430]],[[1865,327],[1,0]],[[1867,332],[-2,0]],[[3501,113],[10,5]],[[3517,119],[-6,-1]],[[3517,119],[4,3]],[[4096,893],[-18,14],[18,-31]],[[4096,860],[-13,-29],[-97,9],[26,-22],[-25,-37],[7,29],[-23,-14],[6,-40],[26,-51],[15,18],[20,-17],[-63,-14],[41,-12],[-34,-50],[21,-21],[-14,-76],[10,15],[-7,-33],[48,-92],[-44,-25],[-3,-45],[-18,5]],[[80,491],[-80,186]],[[699,0],[0,57],[-112,108],[-283,14],[-81,107],[-83,42]],[[2088,1],[32,-1]],[[2121,0],[7,0]],[[2208,0],[116,17],[46,54],[-72,182],[44,41]],[[190,1975],[26,-30]],[[216,1945],[-24,30]],[[176,1998],[89,67]],[[181,1993]],[[193,1976],[-1,0]],[[1151,1510],[-23,-35],[51,-91]],[[1188,1500],[-18,-5]],[[1191,1432],[-12,-48]],[[1179,1384],[42,-43]],[[1183,1468],[0,-6]],[[1190,1468],[-7,0]],[[1183,1498],[0,-30]],[[1188,1500],[27,89]],[[1234,1450],[-19,48],[-27,2]],[[1246,1412],[-11,36]],[[1235,1448],[-1,2]],[[1238,1450],[-4,0]],[[1235,1448]],[[1235,1448],[3,2]],[[1281,1390],[-8,59],[-35,1]],[[1246,1411]],[[1246,1411],[-2,-1]],[[1246,1408],[0,-2]],[[1246,1412],[0,-1]],[[1246,1411],[0,-2]],[[1247,1409],[-1,3]],[[1290,1372],[12,14]],[[1303,1388],[-1,-2]],[[1302,1386],[1,0]],[[1842,466],[2,5]],[[1845,441],[-1,-2]],[[1877,461],[-32,-15]],[[1845,446],[33,15]],[[1803,150],[89,-41]],[[908,3490],[-52,382],[-159,224]],[[1267,1866],[193,304],[49,-26],[115,30],[149,92],[32,53],[146,41]],[[3535,137],[152,108]],[[1913,20],[17,12]],[[140,328],[-23,11],[-37,152]],[[1788,33],[-2,112]],[[1183,1462],[6,-18]],[[1785,156],[2,-126]],[[3853,2643],[9,11]],[[3924,2630],[32,18],[17,-35],[81,12],[42,45]],[[1845,440],[33,21]],[[1878,462],[11,20],[27,-12]],[[1879,461],[0,1],[-1,0],[0,-1],[1,0]],[[4095,1457],[1,-1]],[[0,1608],[172,153],[50,139]],[[222,1900],[3,7]],[[224,1908],[-2,-8]],[[256,2825],[3,-2]],[[265,2065],[60,113],[41,18]],[[1215,1589],[52,277]],[[1221,1341],[69,31]],[[1303,1386],[0,2]],[[1774,415],[24,-13]],[[1790,407],[-15,8]],[[1790,155],[-3,1]],[[1787,153],[3,2]],[[1862,14],[-74,23]],[[1798,152],[-8,3]],[[1798,152],[5,-2]],[[1962,34],[-8,-2]],[[192,1976],[-1,1]],[[192,1975],[1,1]],[[718,1731],[386,-190]],[[0,3757],[156,-28],[123,-61],[20,21],[91,-139],[47,-15],[116,-126],[187,40],[155,1],[9,38],[119,29],[70,-73],[138,-67],[40,-53]],[[3853,2643],[22,-47],[-15,-32],[-43,-4],[-103,-83],[-178,23],[-187,166],[-587,213],[-273,321],[-112,2],[-22,33],[-68,16],[-122,-48],[-43,47],[-109,26],[-17,51],[-120,59],[-73,-21],[-51,-53],[-123,-38],[-161,-34],[-71,8]],[[3864,1513],[-66,5],[-54,-30],[-265,-249],[-100,-7]],[[3916,2558],[92,-191],[71,-44],[-79,-45],[12,-50],[37,-21],[-19,-26],[34,-35],[-19,-15],[51,-77]],[[1828,432],[0,1],[0,-1]],[[1840,437],[5,3]],[[176,1998],[11,-13]],[[187,1985],[-11,13]],[[187,1985],[4,-9]],[[216,1944],[5,-20]],[[222,1924],[-5,21]],[[1723,526],[37,-27],[7,-42]],[[1767,457],[5,-28]],[[1772,429],[-5,28]],[[1767,457],[-7,43],[-37,26]],[[190,1975],[1,0],[1,0],[-2,1],[0,-1]],[[217,1945],[-1,0],[1,0]],[[1812,565],[21,-32],[50,-5],[87,36]],[[1951,2360],[153,62],[21,49],[121,101],[-6,58],[35,45],[28,-21],[47,46]],[[1827,248],[-7,-15]],[[1820,233],[-2,-6]],[[1818,231],[2,2]],[[1820,233],[14,14]],[[1191,1438],[-3,62]],[[3996,1475],[23,-14]],[[1191,1432],[0,6],[-1,-1],[1,-5]],[[1243,1410],[-52,22]],[[1243,1410],[3,-2]],[[1246,1409],[-3,1]],[[1246,1408],[2,-2]],[[1248,1406],[-1,3]],[[1263,1388],[-15,18]],[[1246,1409],[0,-1]],[[1246,1408],[1,1],[-1,0]],[[1844,447],[-1,12]],[[1844,445],[1,-5]],[[1845,440],[0,5]],[[1845,447],[-2,-1],[1,-1],[1,0],[0,2]],[[1104,1541],[66,-46]],[[1703,894],[-406,481]],[[1798,586],[-44,230],[-48,78]],[[1844,471],[35,56]],[[2920,168],[-26,23]],[[1801,392],[4,6]],[[3894,2599],[22,-41]],[[1930,32]],[[2750,278],[-7,-2]],[[1783,0],[5,22]],[[1818,227],[-32,-67]],[[1786,160],[-1,-4]],[[1786,145],[0,15]],[[1786,160],[0,36],[32,35]],[[1787,30],[1,-8]],[[1788,22],[0,11]],[[1796,418],[69,-86],[-38,-84]],[[1834,247],[33,85],[-70,85]],[[3853,2643],[41,-44]],[[221,1924],[3,-15]],[[226,1910],[-4,14]],[[1704,540],[-28,42],[-64,-49]],[[1704,540],[19,-14]],[[1723,526],[-19,14]],[[1773,420],[-1,9]],[[1772,429],[2,-13]],[[1774,416],[0,-1]],[[1775,415],[-1,1]],[[1774,416],[-1,2]],[[3547,111],[-4,33],[48,12],[146,135],[236,55],[123,-91]],[[226,1908],[-1,2],[-1,-1],[1,-2],[1,1]],[[1799,392],[-241,-340],[6,-52]],[[1804,399],[-4,-6]],[[1800,393],[-1,-1],[1,-1],[1,1],[-1,1]],[[2651,278],[-242,147]],[[2743,276],[-91,1]],[[3178,179],[-40,19],[-26,51],[-135,16],[-95,51],[-132,-38]],[[3178,179],[59,-14],[6,-23]],[[3244,142],[13,-10]],[[3258,132],[16,-15]],[[1798,586],[14,-21]],[[1970,564],[43,17],[86,-68],[65,39],[236,-121]],[[1916,470],[25,-11]],[[3017,186],[21,6]],[[3077,225],[15,12]],[[3125,213],[45,-33]],[[3328,79],[101,-10]],[[3517,106],[30,5]],[[2409,425],[-9,6]],[[2652,277],[-1,1]],[[3178,179]],[[3243,142],[1,0]],[[3257,132],[1,0]],[[3274,117],[1,0]],[[4019,1461],[76,-4]],[[1297,1375],[-34,13]],[[1843,459],[-1,7]],[[1941,459],[75,13],[60,-33],[18,-38],[170,-49],[40,13],[47,-52],[-9,-20],[66,-6],[41,27],[51,-66],[65,-12],[37,-43],[76,-4],[89,58],[159,-78]],[[2927,170],[90,16]],[[3038,192],[39,33]],[[3092,237],[33,-24]],[[3170,180],[158,-101]],[[3429,69],[88,37]],[[2927,169],[0,1],[-1,0],[0,-1],[1,0]],[[3501,112],[0,1]],[[1773,418],[0,2]],[[1796,405],[-6,2]],[[1397,3248],[-126,76]],[[3975,358],[-72,0],[-62,-50],[-106,-8],[-47,-27],[0,-24]],[[0,0],[0,4096],[4096,0],[0,-4096],[-4096,0]],[[2088,0],[-51,123],[-104,90],[-53,159],[68,97],[63,17],[133,-90],[77,8],[66,-39],[32,22],[52,-74],[40,-12],[65,27],[39,-33],[5,-43],[39,0],[86,-58],[52,16],[49,70],[192,-93],[93,-1],[71,59],[42,-59],[87,-21],[5,-30],[101,-61],[106,-6],[26,40],[44,6],[51,-114],[-1476,0]],[[1886,3],[-96,78],[32,167],[197,-16],[67,-50],[27,-101],[-24,-25],[-159,-14],[-44,-39]],[[141,297],[-67,-7],[-25,-33],[-49,120],[0,119],[163,-10],[45,-117],[-69,-37],[2,-35]],[[1660,415],[60,110],[79,27],[56,56],[56,16],[51,-25],[22,-100],[-146,-62],[-178,-22]],[[1199,1332],[-88,18],[-56,64],[-10,90],[139,86],[55,-2],[49,-74],[16,-136],[-105,-46]],[[4096,1510],[0,-83],[-106,35],[32,64],[74,-16]],[[236,1923],[-76,5],[-71,119],[-15,85],[89,50],[77,-45],[35,-100],[-39,-114]]]}