{"objects":{"water":{"type":"GeometryCollection","geometries":[{"type":"MultiPolygon","properties":{"kind":"lake","name":"Lake Urmia","area":6918333952,"sort_rank":200,"alkaline":true,"source":"naturalearthdata.com","min_zoom":0.0,"id":1308},"arcs":[[[6]],[[7]]]},{"type":"MultiLineString","properties":{"source":"naturalearthdata.com","kind":"lake","sort_rank":367,"alkaline":true,"boundary":true,"min_zoom":0.0,"id":1308},"arcs":[[8],[9],[10]]}]},"buildings":{"type":"GeometryCollection","geometries":[]},"places":{"type":"GeometryCollection","geometries":[{"type":"Point","properties":{"name:az":"Do\u011fu Az\u0259rbaycan ostan\u0131","name:ja":"\u6771\u30a2\u30fc\u30b6\u30eb\u30d0\u30fc\u30a4\u30b8\u30e3\u30fc\u30f3","min_zoom":4.0,"name:uk":"\u0421\u0445\u0456\u0434\u043d\u0438\u0439 \u0410\u0437\u0435\u0440\u0431\u0430\u0439\u0434\u0436\u0430\u043d","name:ru":"\u0412\u043e\u0441\u0442\u043e\u0447\u043d\u044b\u0439 \u0410\u0437\u0435\u0440\u0431\u0430\u0439\u0434\u0436\u0430\u043d","name:pl":"Azerbejd\u017can Wschodni","name:hu":"Kelet-Azerbajdzs\u00e1n","name:hr":"Isto\u010dni Azerbejd\u017ean","id":480452780,"kind":"region","name:en":"East Azarbaijan","name":"\u0622\u0630\u0631\u0628\u0627\u06cc\u062c\u0627\u0646 \u0634\u0631\u0642\u06cc","kind_detail":"state","name:ku":"Azerbaycana Rojhilat","name:de":"Ost-Aserbaidschan","source":"openstreetmap.org","name:fr":"Azerba\u00efdjan oriental"},"coordinates":[3837,1122]},{"type":"Point","properties":{"name:az":"Q\u0259rbi Az\u0259rbaycan ostan\u0131","name:ja":"\u897f\u30a2\u30fc\u30b6\u30eb\u30d0\u30fc\u30a4\u30b8\u30e3\u30fc\u30f3","min_zoom":4.0,"name:uk":"\u0417\u0430\u0445\u0456\u0434\u043d\u0438\u0439 \u0410\u0437\u0435\u0440\u0431\u0430\u0439\u0434\u0436\u0430\u043d","name:ru":"\u0417\u0430\u043f\u0430\u0434\u043d\u044b\u0439 \u0410\u0437\u0435\u0440\u0431\u0430\u0439\u0434\u0436\u0430\u043d","name:pl":"Azerbejd\u017can Zachodni","name:hu":"Nyugat-Azerbajdzs\u00e1n","name:hr":"Zapadni Azerbejd\u017ean","id":496235899,"kind":"region","name:en":"West Azarbaijan","name":"\u0622\u0630\u0631\u0628\u0627\u06cc\u062c\u0627\u0646 \u063a\u0631\u0628\u06cc","kind_detail":"state","name:ku":"Azerbaycana Rojava","name:de":"West-Aserbaidschan","source":"openstreetmap.org","name:fr":"Azerba\u00efdjan occidental"},"coordinates":[60,86]},{"type":"Point","properties":{"admin_level":"4","name:az":"T\u0259briz","name:ja":"\u30bf\u30d6\u30ea\u30fc\u30ba","name:lt":"Tebrizas","name:tr":"Tebriz","min_zoom":8.0,"int_name":"Tabriz","name:uk":"\u0422\u0435\u0431\u0440\u0438\u0437","name:ru":"\u0422\u0435\u0431\u0440\u0438\u0437","name:pl":"Tebriz","id":26038590,"population":1700000,"kind":"locality","name:en":"Tabriz","name":"\u062a\u0628\u0631\u06cc\u0632","kind_detail":"city","name:ku":"Tebr\u00eez","name:de":"T\u00e4bris","source":"openstreetmap.org","name:fr":"Tabriz","name:la":"Tauris","name:es":"Tabriz"},"coordinates":[3755,1325]},{"type":"Point","properties":{"kind":"locality","name:en":"Marand","name":"\u0645\u0631\u0646\u062f","kind_detail":"town","source":"openstreetmap.org","min_zoom":8.0,"name:az":"M\u0259r\u0259nd","name:ru":"\u041c\u0435\u0440\u0435\u043d\u0434","population":180000,"id":32889948,"name:ja":"\u30de\u30e9\u30f3\u30c9"},"coordinates":[2255,2642]},{"type":"Point","properties":{"name:az":"Tufarqan - Az\u0259r\u015f\u0259hr","name:hi":"\u0905\u091c\u093c\u093e\u0930\u0936\u0939\u0930","name:tr":"Azer\u015fehr","name:ur":"\u0622\u0630\u0631\u0634\u06c1\u0631","min_zoom":8.0,"old_name":"Tufarqan","name:ru":"\u0410\u0437\u0435\u0440\u0448\u0435\u0445\u0440","id":32671869,"population":39918,"name:fa":"\u062a\u0648\u0641\u0627\u0631\u0642\u0627\u0646","kind":"locality","name:en":"Azarshahr","name":"\u0622\u0630\u0631\u0634\u0647\u0631","kind_detail":"town","name:tg":"\u041e\u0437\u0430\u0440\u0448\u0430\u04b3\u0440","source":"openstreetmap.org"},"coordinates":[2850,145]},{"type":"Point","properties":{"kind":"locality","name:en":"Sardrud","name":"\u0633\u0631\u062f\u0631\u0648\u062f","kind_detail":"town","source":"openstreetmap.org","min_zoom":8.0,"name:az":"S\u0259rd\u0259ri - S\u0259rdrud","population":35000,"id":874521405,"name:ja":"\u30b5\u30eb\u30c9\u30eb\u30fc\u30c9"},"coordinates":[3342,1148]},{"type":"Point","properties":{"kind":"locality","name:en":"Osku","name":"\u0627\u0633\u06a9\u0648","kind_detail":"town","name:ar":"\u0623\u0633\u0643\u0648","name:de":"Osku","source":"openstreetmap.org","min_zoom":8.0,"name:az":"\u00dcsk\u00fc - Osku","name:ru":"\u041e\u0441\u043a\u0443","population":16140,"name:zh":"\u5967\u65af\u5eab","id":833694432,"name:ja":"\u30aa\u30b9\u30af\u30fc"},"coordinates":[3275,734]},{"type":"Point","properties":{"kind":"locality","name:en":"Ilkhchi","name":"\u0627\u06cc\u0644\u062e\u0686\u06cc","name:tr":"Ilh\u0131c\u0131","kind_detail":"town","name:ar":"\u0625\u064a\u0644\u062e\u062a\u0634\u064a","source":"openstreetmap.org","min_zoom":8.0,"name:az":"\u0130lx\u0131\u00e7\u0131","name:it":"Ilkhechi","population":15231,"id":833695103,"name:ja":"\u30a4\u30fc\u30eb\u30d5\u30c1\u30fc"},"coordinates":[2856,813]},{"type":"Point","properties":{"kind":"locality","name:en":"Mamqan","name":"\u0645\u0645\u0642\u0627\u0646","kind_detail":"town","source":"openstreetmap.org","min_zoom":8.0,"name:az":"Mama\u011fan - M\u0259m\u0259qan","population":13359,"id":833700316,"name:ja":"\u30de\u30de\u30ab\u30fc\u30f3"},"coordinates":[2834,466]},{"type":"Point","properties":{"kind":"locality","name:en":"Khosrowshah","name":"\u062e\u0633\u0631\u0648\u0634\u0627\u0647","kind_detail":"town","source":"openstreetmap.org","min_zoom":8.0,"alt_name:en":"Khosrovshahr","name:az":"Xosrov\u015fah","id":32123707,"population":12794},"coordinates":[3066,858]},{"type":"Point","properties":{"kind":"locality","name:en":"Gugan","name":"\u06af\u0648\u06af\u0627\u0646","name:tr":"Gogan","kind_detail":"town","name:ar":"\u063a\u0648\u063a\u0627\u0646","source":"openstreetmap.org","min_zoom":8.0,"name:az":"G\u00f6vg\u0259n - G\u00f6vgan","population":10949,"id":833701024,"name:ja":"\u30b4\u30a6\u30ac\u30fc\u30f3"},"coordinates":[2634,236]},{"type":"Point","properties":{"kind":"locality","name:en":"Dizaj Diz","name":"\u062f\u06cc\u0632\u062c \u062f\u06cc\u0632","kind_detail":"town","source":"openstreetmap.org","min_zoom":8.0,"id":3288378181,"population":7896},"coordinates":[73,2756]},{"type":"Point","properties":{"kind":"locality","name:en":"Koshksaray","name":"\u06a9\u0634\u06a9\u0633\u0631\u0627\u06cc","name:tr":"K\u00f6\u015fksaray","kind_detail":"town","source":"openstreetmap.org","min_zoom":8.0,"alt_name:en":"Koshkasaray","name:az":"K\u00f6\u015fk\u0259saray - Ko\u015fks\u0259ray","name:ru":"\u041a\u0443\u0448\u043a\u0435-\u0421\u0435\u0440\u0430\u0439","name:sv":"Koshksar\u0101y","id":874521708,"population":7439},"coordinates":[1652,2745]},{"type":"Point","properties":{"kind":"locality","name:en":"Teymurlu","name":"\u062a\u06cc\u0645\u0648\u0631\u0644\u0648","kind_detail":"town","source":"openstreetmap.org","min_zoom":8.0,"name:az":"T\u0259mirli - Teymurlu","id":2550470854,"population":5221},"coordinates":[2620,322]},{"type":"Point","properties":{"kind":"locality","name:en":"Bonab-e-Jadid","name":"\u0628\u0646\u0627\u0628 \u062c\u062f\u06cc\u062f","kind_detail":"town","source":"openstreetmap.org","min_zoom":8.0,"alt_name:en":"Binab;Benab;Banab","id":819610866,"population":4430},"coordinates":[2647,2633]},{"type":"Point","properties":{"kind":"locality","name:en":"Kharvana","name":"\u062e\u0627\u0631\u0648\u0627\u0646\u0627","kind_detail":"town","source":"openstreetmap.org","min_zoom":8.0,"alt_name:en":"Kharvanak;Kharganak;Kharvanagh;Kharvanaq;Harvana","name:az":"Xarvana","name:ru":"\u0425\u0435\u0440\u0432\u0430\u043d\u0435\u043a","population":1642,"id":874521639,"name:ja":"\u30cf\u30fc\u30eb\u30f4\u30a1\u30fc\u30ca\u30fc"},"coordinates":[3407,3586]}]},"transit":{"type":"GeometryCollection","geometries":[{"type":"LineString","properties":{"kind":"subway","name:en":"Southbound Line 1 of Tabriz LRT","name":"\u062e\u0637 \u06cc\u06a9 \u0642\u0637\u0627\u0631 \u0634\u0647\u0631\u06cc \u062a\u0628\u0631\u06cc\u0632","sort_rank":275,"colour":"#008A94","source":"openstreetmap.org","min_zoom":8.0,"operator":"Tabriz Urban Railway Organization","ref":"1","id":-7643001,"osm_relation":true,"colour_name":"teal"},"arcs":[4]},{"type":"LineString","properties":{"kind":"subway","name:en":"Northbound Line 1 of Tabriz LRT","name":"\u062e\u0637 \u06cc\u06a9 \u0642\u0637\u0627\u0631 \u0634\u0647\u0631\u06cc \u062a\u0628\u0631\u06cc\u0632","sort_rank":275,"colour":"#008A94","source":"openstreetmap.org","min_zoom":8.0,"operator":"Tabriz Urban Railway Organization","ref":"1","id":-6168103,"osm_relation":true,"colour_name":"teal"},"arcs":[5]}]},"pois":{"type":"GeometryCollection","geometries":[{"type":"Point","properties":{"kind":"protected_area","name:en":"Kiamaky","protect_class":"4","area":1599800000,"source":"openstreetmap.org","min_zoom":7.0,"tier":2,"id":-6531584,"osm_relation":true,"name":"\u06a9\u06cc\u0627\u0645\u06a9\u06cc"},"coordinates":[2829,4088]},{"type":"Point","properties":{"source":"openstreetmap.org","kind":"military","name":"\u0633\u067e\u0627\u0647 \u0639\u0627\u0634\u0648\u0631\u0627","area":16532200,"tier":3,"min_zoom":8.0,"id":246535326},"coordinates":[3700,1140]}]},"boundaries":{"type":"GeometryCollection","geometries":[{"type":"LineString","properties":{"name:right:ja":"\u897f\u30a2\u30fc\u30b6\u30eb\u30d0\u30fc\u30a4\u30b8\u30e3\u30fc\u30f3","name:right:uk":"\u0417\u0430\u0445\u0456\u0434\u043d\u0438\u0439 \u0410\u0437\u0435\u0440\u0431\u0430\u0439\u0434\u0436\u0430\u043d","name:left:ja":"\u6771\u30a2\u30fc\u30b6\u30eb\u30d0\u30fc\u30a4\u30b8\u30e3\u30fc\u30f3","id:right":-241593,"name:left:uk":"\u0421\u0445\u0456\u0434\u043d\u0438\u0439 \u0410\u0437\u0435\u0440\u0431\u0430\u0439\u0434\u0436\u0430\u043d","min_zoom":8.0,"name:right:ku":"Azerbaycana Rojava","id:left":-2232180,"name:left:en":"East Azerbaijan Province","name:right:fa":"\u0627\u0633\u062a\u0627\u0646 \u0622\u0630\u0631\u0628\u0627\u06cc\u062c\u0627\u0646 \u063a\u0631\u0628\u06cc\u200e","name:right:ru":"\u0417\u0430\u043f\u0430\u0434\u043d\u044b\u0439 \u0410\u0437\u0435\u0440\u0431\u0430\u0439\u0434\u0436\u0430\u043d","name:right:pl":"Azerbejd\u017can Zachodni","id":-2232180,"osm_relation":true,"name:right":"\u0627\u0633\u062a\u0627\u0646 \u0622\u0630\u0631\u0628\u0627\u06cc\u062c\u0627\u0646 \u063a\u0631\u0628\u06cc","name:left:ku":"Azerbaycana Rojhilat","kind":"region","name":"\u0627\u0633\u062a\u0627\u0646 \u0622\u0630\u0631\u0628\u0627\u06cc\u062c\u0627\u0646 \u0634\u0631\u0642\u06cc - \u0627\u0633\u062a\u0627\u0646 \u0622\u0630\u0631\u0628\u0627\u06cc\u062c\u0627\u0646 \u063a\u0631\u0628\u06cc","source":"openstreetmap.org","sort_rank":256,"kind_detail":"4","name:left:de":"Ost-Aserbaidschan","name:right:en":"West Azerbaijan Province","name:left:pl":"Azerbejd\u017can Wschodni","name:right:de":"West-Aserbaidschan","name:left:ru":"\u0412\u043e\u0441\u0442\u043e\u0447\u043d\u044b\u0439 \u0410\u0437\u0435\u0440\u0431\u0430\u0439\u0434\u0436\u0430\u043d","name:left":"\u0627\u0633\u062a\u0627\u0646 \u0622\u0630\u0631\u0628\u0627\u06cc\u062c\u0627\u0646 \u0634\u0631\u0642\u06cc"},"arcs":[0]},{"type":"LineString","properties":{"name:right:ja":"\u897f\u30a2\u30fc\u30b6\u30eb\u30d0\u30fc\u30a4\u30b8\u30e3\u30fc\u30f3","name:right:uk":"\u0417\u0430\u0445\u0456\u0434\u043d\u0438\u0439 \u0410\u0437\u0435\u0440\u0431\u0430\u0439\u0434\u0436\u0430\u043d","name:left:ja":"\u6771\u30a2\u30fc\u30b6\u30eb\u30d0\u30fc\u30a4\u30b8\u30e3\u30fc\u30f3","id:right":-241593,"name:left:uk":"\u0421\u0445\u0456\u0434\u043d\u0438\u0439 \u0410\u0437\u0435\u0440\u0431\u0430\u0439\u0434\u0436\u0430\u043d","min_zoom":8.0,"name:right:ku":"Azerbaycana Rojava","id:left":-2232180,"name:left:en":"East Azerbaijan Province","name:right:fa":"\u0627\u0633\u062a\u0627\u0646 \u0622\u0630\u0631\u0628\u0627\u06cc\u062c\u0627\u0646 \u063a\u0631\u0628\u06cc\u200e","name:right:ru":"\u0417\u0430\u043f\u0430\u0434\u043d\u044b\u0439 \u0410\u0437\u0435\u0440\u0431\u0430\u0439\u0434\u0436\u0430\u043d","name:right:pl":"Azerbejd\u017can Zachodni","id":-2232180,"osm_relation":true,"name:right":"\u0627\u0633\u062a\u0627\u0646 \u0622\u0630\u0631\u0628\u0627\u06cc\u062c\u0627\u0646 \u063a\u0631\u0628\u06cc","name:left:ku":"Azerbaycana Rojhilat","kind":"region","name":"\u0627\u0633\u062a\u0627\u0646 \u0622\u0630\u0631\u0628\u0627\u06cc\u062c\u0627\u0646 \u0634\u0631\u0642\u06cc - \u0627\u0633\u062a\u0627\u0646 \u0622\u0630\u0631\u0628\u0627\u06cc\u062c\u0627\u0646 \u063a\u0631\u0628\u06cc","source":"openstreetmap.org","sort_rank":256,"kind_detail":"4","name:left:de":"Ost-Aserbaidschan","name:right:en":"West Azerbaijan Province","name:left:pl":"Azerbejd\u017can Wschodni","name:right:de":"West-Aserbaidschan","name:left:ru":"\u0412\u043e\u0441\u0442\u043e\u0447\u043d\u044b\u0439 \u0410\u0437\u0435\u0440\u0431\u0430\u0439\u0434\u0436\u0430\u043d","name:left":"\u0627\u0633\u062a\u0627\u0646 \u0622\u0630\u0631\u0628\u0627\u06cc\u062c\u0627\u0646 \u0634\u0631\u0642\u06cc"},"arcs":[1]},{"type":"LineString","properties":{"kind":"region","name:en":"East Azerbaijan Province","name":"\u0627\u0633\u062a\u0627\u0646 \u0622\u0630\u0631\u0628\u0627\u06cc\u062c\u0627\u0646 \u0634\u0631\u0642\u06cc","sort_rank":256,"kind_detail":"4","min_zoom":8.0,"name:de":"Ost-Aserbaidschan","source":"openstreetmap.org","name:ku":"Azerbaycana Rojhilat","name:uk":"\u0421\u0445\u0456\u0434\u043d\u0438\u0439 \u0410\u0437\u0435\u0440\u0431\u0430\u0439\u0434\u0436\u0430\u043d","name:ru":"\u0412\u043e\u0441\u0442\u043e\u0447\u043d\u044b\u0439 \u0410\u0437\u0435\u0440\u0431\u0430\u0439\u0434\u0436\u0430\u043d","name:pl":"Azerbejd\u017can Wschodni","id":-2232180,"osm_relation":true,"name:ja":"\u6771\u30a2\u30fc\u30b6\u30eb\u30d0\u30fc\u30a4\u30b8\u30e3\u30fc\u30f3"},"arcs":[2]},{"type":"LineString","properties":{"name:ja":"\u897f\u30a2\u30fc\u30b6\u30eb\u30d0\u30fc\u30a4\u30b8\u30e3\u30fc\u30f3","name:ku":"Azerbaycana Rojava","name:uk":"\u0417\u0430\u0445\u0456\u0434\u043d\u0438\u0439 \u0410\u0437\u0435\u0440\u0431\u0430\u0439\u0434\u0436\u0430\u043d","name:ru":"\u0417\u0430\u043f\u0430\u0434\u043d\u044b\u0439 \u0410\u0437\u0435\u0440\u0431\u0430\u0439\u0434\u0436\u0430\u043d","name:pl":"Azerbejd\u017can Zachodni","id":-241593,"osm_relation":true,"name:fa":"\u0627\u0633\u062a\u0627\u0646 \u0622\u0630\u0631\u0628\u0627\u06cc\u062c\u0627\u0646 \u063a\u0631\u0628\u06cc\u200e","kind":"region","name:en":"West Azerbaijan Province","name":"\u0627\u0633\u062a\u0627\u0646 \u0622\u0630\u0631\u0628\u0627\u06cc\u062c\u0627\u0646 \u063a\u0631\u0628\u06cc","sort_rank":256,"kind_detail":"4","min_zoom":8.0,"name:de":"West-Aserbaidschan","source":"openstreetmap.org"},"arcs":[3]}]},"roads":{"type":"GeometryCollection","geometries":[{"type":"MultiLineString","properties":{"source":"openstreetmap.org","kind":"major_road","name:en":"Tuba Boulevard","landuse_kind":"urban_area","sort_rank":380,"kind_detail":"primary","min_zoom":8.0},"arcs":[[11],[12]]},{"type":"MultiLineString","properties":{"kind":"highway","name:en":"Kasaei Highway","network":"ir:national","sort_rank":383,"kind_detail":"motorway","source":"openstreetmap.org","min_zoom":8.0,"all_networks":["ir:national"],"landuse_kind":"urban_area","shield_text":"16","ref":"16","all_shield_texts":["16"]},"arcs":[[13],[14],[15],[16],[17],[18],[19],[20],[21],[22],[23],[24],[25],[26],[27],[28],[29],[30],[31],[32],[33],[34],[35],[36]]},{"type":"MultiLineString","properties":{"kind":"major_road","name:en":"Cento Road - Kargar Boulevard","network":"ir:national","sort_rank":381,"landuse_kind":"urban_area","source":"openstreetmap.org","min_zoom":8.0,"kind_detail":"trunk","shield_text":"21","ref":"21"},"arcs":[[37],[38],[39],[40],[41],[42],[43]]},{"type":"LineString","properties":{"kind":"major_road","name:en":"17 Shahrivar Qadim","sort_rank":380,"landuse_kind":"urban_area","source":"openstreetmap.org","min_zoom":8.0,"kind_detail":"primary","id":174859199},"arcs":[44]},{"type":"LineString","properties":{"kind":"major_road","name:en":"Nader Square","sort_rank":380,"kind_detail":"primary","source":"openstreetmap.org","min_zoom":8.0,"name:az":"Nadir Meydan\u0131","landuse_kind":"urban_area","id":175898543},"arcs":[45]},{"type":"MultiLineString","properties":{"kind":"major_road","name:en":"Airport Road - Shahid Babayi Boulevard","network":"ir:national","sort_rank":381,"kind_detail":"trunk","source":"openstreetmap.org","min_zoom":8.0,"landuse_kind":"aerodrome","shield_text":"14","ref":"14;32"},"arcs":[[46],[47]]},{"type":"LineString","properties":{"kind":"major_road","name:en":"Jahad Square - Nisfirah Square","sort_rank":381,"kind_detail":"trunk","source":"openstreetmap.org","min_zoom":8.0,"name:az":"C\u0259had Meydan\u0131 - Nisfirah Meydan\u0131","landuse_kind":"urban_area","id":174859234},"arcs":[48]},{"type":"MultiLineString","properties":{"source":"openstreetmap.org","kind":"major_road","name:en":"Sardarane Fateh Bridge","kind_detail":"trunk","sort_rank":381,"landuse_kind":"urban_area","min_zoom":8.0},"arcs":[[49],[50]]},{"type":"LineString","properties":{"kind":"major_road","name:en":"Ferdosi","sort_rank":380,"landuse_kind":"urban_area","source":"openstreetmap.org","min_zoom":8.0,"kind_detail":"primary","id":35434304},"arcs":[51]},{"type":"MultiLineString","properties":{"source":"openstreetmap.org","kind":"major_road","name:en":"Motahary Blv","landuse_kind":"urban_area","sort_rank":380,"kind_detail":"primary","min_zoom":8.0},"arcs":[[52],[53],[54],[55]]},{"type":"LineString","properties":{"kind":"highway","network":"ir:national","sort_rank":383,"kind_detail":"motorway","source":"openstreetmap.org","min_zoom":8.0,"all_networks":["ir:national","ir:national","ir:national","AH"],"landuse_kind":"urban_area","shield_text":"14","ref":"14;32","id":368770303,"all_shield_texts":["14","16","32","1"]},"arcs":[56]},{"type":"MultiLineString","properties":{"source":"openstreetmap.org","kind":"major_road","kind_detail":"trunk","sort_rank":381,"landuse_kind":"urban_area","is_bicycle_related":true,"min_zoom":8.0},"arcs":[[57],[58],[59],[60],[61],[62],[63],[64]]},{"type":"MultiLineString","properties":{"kind":"major_road","name:az":"\u015e\u0259ri\u0259ti Bulvar\u0131","sort_rank":380,"kind_detail":"primary","source":"openstreetmap.org","min_zoom":8.0,"name:en":"Shariati boulevard","landuse_kind":"urban_area"},"arcs":[[65],[66],[67],[68]]},{"type":"MultiLineString","properties":{"kind":"major_road","network":"ir:national","sort_rank":381,"kind_detail":"trunk","source":"openstreetmap.org","min_zoom":8.0,"shield_text":"16","ref":"16"},"arcs":[[69],[70],[71],[72]]},{"type":"MultiLineString","properties":{"source":"openstreetmap.org","kind":"major_road","name:en":"Dampezeshki - Shahid Najati","kind_detail":"trunk","sort_rank":381,"landuse_kind":"urban_area","min_zoom":8.0},"arcs":[[73],[74]]},{"type":"MultiLineString","properties":{"kind":"major_road","network":"ir:national","sort_rank":381,"landuse_kind":"urban_area","source":"openstreetmap.org","min_zoom":8.0,"kind_detail":"trunk","shield_text":"14","ref":"14;21;32"},"arcs":[[75],[76],[77],[78],[79],[80],[81],[82],[83]]},{"type":"LineString","properties":{"kind":"major_road","name:en":"Rezanejad South","sort_rank":380,"landuse_kind":"urban_area","source":"openstreetmap.org","min_zoom":8.0,"kind_detail":"primary","id":377656726},"arcs":[84]},{"type":"LineString","properties":{"kind":"highway","name:en":"Kasaei Highway","network":"ir:national","sort_rank":383,"landuse_kind":"urban_area","source":"openstreetmap.org","min_zoom":8.0,"all_networks":["ir:national","AH"],"kind_detail":"motorway","shield_text":"16","all_shield_texts":["16","1"]},"arcs":[85]},{"type":"MultiLineString","properties":{"source":"openstreetmap.org","kind":"major_road","name:en":"Beheshti Boulevard","landuse_kind":"urban_area","sort_rank":380,"kind_detail":"primary","min_zoom":8.0},"arcs":[[86],[87]]},{"type":"LineString","properties":{"kind":"major_road","sort_rank":381,"landuse_kind":"urban_area","source":"openstreetmap.org","min_zoom":8.0,"kind_detail":"trunk","ref":"21","id":522910949},"arcs":[88]},{"type":"LineString","properties":{"source":"openstreetmap.org","kind":"major_road","name:en":"Felestin","landuse_kind":"urban_area","sort_rank":380,"kind_detail":"primary","min_zoom":8.0},"arcs":[89]},{"type":"MultiLineString","properties":{"source":"openstreetmap.org","kind":"major_road","name:en":"\u064e\u064eAtar e Neyshaburi Bridge","kind_detail":"trunk","sort_rank":381,"landuse_kind":"urban_area","min_zoom":8.0},"arcs":[[90],[91]]},{"type":"LineString","properties":{"kind":"major_road","name:en":"Tavakkoli - Mofatteh","sort_rank":380,"kind_detail":"primary","source":"openstreetmap.org","min_zoom":8.0,"name:az":"T\u0259v\u0259kk\u00fcli - M\u00fcf\u0259tteh","landuse_kind":"urban_area","id":239571935},"arcs":[92]},{"type":"MultiLineString","properties":{"kind":"major_road","name:az":"Bar\u0131\u015f - Barenc","sort_rank":380,"kind_detail":"primary","source":"openstreetmap.org","min_zoom":8.0,"name:en":"Barish - Barenj","landuse_kind":"urban_area"},"arcs":[[93],[94],[95]]},{"type":"MultiLineString","properties":{"kind":"major_road","name:en":"Azadi Boulevard","sort_rank":381,"landuse_kind":"urban_area","source":"openstreetmap.org","min_zoom":8.0,"name:az":"Azadi bulvar\u0131","kind_detail":"trunk"},"arcs":[[96],[97],[98],[99],[100],[101],[102],[103],[104],[105],[106],[107],[108],[109]]},{"type":"LineString","properties":{"kind":"major_road","name:en":"Imam Hussain Sq","sort_rank":381,"landuse_kind":"urban_area","source":"openstreetmap.org","min_zoom":8.0,"kind_detail":"trunk","id":238050014},"arcs":[110]},{"type":"MultiLineString","properties":{"kind":"major_road","name:en":"North Tavanir Boulevard","sort_rank":381,"landuse_kind":"urban_area","source":"openstreetmap.org","min_zoom":8.0,"name:az":"Quzey T\u0259vanir Bulvar\u0131","kind_detail":"trunk"},"arcs":[[111],[112]]},{"type":"LineString","properties":{"kind":"major_road","name:en":"Shakilli","sort_rank":380,"kind_detail":"primary","source":"openstreetmap.org","min_zoom":8.0,"name:az":"\u015e\u0259killi","landuse_kind":"urban_area","id":237666436},"arcs":[113]},{"type":"MultiLineString","properties":{"sort_rank":380,"kind_detail":"primary","min_zoom":8.0,"kind":"major_road","source":"openstreetmap.org"},"arcs":[[114],[115],[116],[117],[118],[119],[120],[121],[122],[123],[124],[125],[126],[127],[128],[129],[130]]},{"type":"LineString","properties":{"kind":"major_road","name:en":"Shahriar Boulevard","sort_rank":381,"kind_detail":"trunk","is_bicycle_related":true,"source":"openstreetmap.org","min_zoom":8.0,"landuse_kind":"urban_area","id":422928501},"arcs":[131]},{"type":"MultiLineString","properties":{"kind":"major_road","network":"ir:national","sort_rank":381,"landuse_kind":"urban_area","source":"openstreetmap.org","min_zoom":8.0,"kind_detail":"trunk","shield_text":"32","ref":"32"},"arcs":[[132],[133]]},{"type":"MultiLineString","properties":{"kind":"major_road","name:az":"Orta K\u0259m\u0259rb\u0259ndi - Niyaye\u015f bulvar\u0131","sort_rank":381,"landuse_kind":"urban_area","is_bicycle_related":true,"source":"openstreetmap.org","min_zoom":8.0,"name:en":"Kamarbandi Miyani - Niyayesh Blvd","kind_detail":"trunk"},"arcs":[[134],[135],[136],[137]]},{"type":"MultiLineString","properties":{"kind":"major_road","name:az":"\u0130mam Xumeyni","network":"ir:national","sort_rank":381,"kind_detail":"trunk","source":"openstreetmap.org","min_zoom":8.0,"name:en":"Imam Khomeyni","shield_text":"16","ref":"16;21"},"arcs":[[138],[139],[140],[141],[142],[143]]},{"type":"MultiLineString","properties":{"kind":"major_road","name:en":"Mellat Boulevard","network":"ir:national","sort_rank":381,"kind_detail":"trunk","source":"openstreetmap.org","min_zoom":8.0,"landuse_kind":"urban_area","shield_text":"21","ref":"21"},"arcs":[[144],[145],[146],[147]]},{"type":"MultiLineString","properties":{"kind":"major_road","network":"ir:national","sort_rank":381,"landuse_kind":"urban_area","source":"openstreetmap.org","min_zoom":8.0,"kind_detail":"trunk","shield_text":"21","ref":"21;32"},"arcs":[[148],[149],[150],[151],[152],[153],[154],[155]]},{"type":"MultiLineString","properties":{"source":"openstreetmap.org","kind":"major_road","name:en":"Akhar e Maralan Br","kind_detail":"trunk","sort_rank":381,"landuse_kind":"urban_area","min_zoom":8.0},"arcs":[[156],[157]]},{"type":"LineString","properties":{"kind":"major_road","network":"ir:national","sort_rank":380,"kind_detail":"primary","source":"openstreetmap.org","min_zoom":8.0,"shield_text":"11","ref":"11"},"arcs":[158]},{"type":"MultiLineString","properties":{"kind":"major_road","name:az":"T\u0259briz - M\u0259r\u0259nd Yolu","network":"ir:national","sort_rank":381,"kind_detail":"trunk","source":"openstreetmap.org","min_zoom":8.0,"name:en":"Tabriz - Marand Road","landuse_kind":"urban_area","shield_text":"21","ref":"21"},"arcs":[[159],[160]]},{"type":"LineString","properties":{"kind":"highway","name:en":"Kasaei Highway","network":"AH","sort_rank":383,"kind_detail":"motorway","source":"openstreetmap.org","min_zoom":8.0,"all_networks":["AH"],"landuse_kind":"urban_area","shield_text":"1","id":369632913,"all_shield_texts":["1"]},"arcs":[161]},{"type":"LineString","properties":{"kind":"major_road","name:en":"Moallem square","sort_rank":380,"kind_detail":"primary","source":"openstreetmap.org","min_zoom":8.0,"name:az":"Mo\u0259llim meydan\u0131","landuse_kind":"urban_area","id":237108496},"arcs":[162]},{"type":"LineString","properties":{"kind":"major_road","name:en":"Namaz square","sort_rank":380,"landuse_kind":"urban_area","source":"openstreetmap.org","min_zoom":8.0,"kind_detail":"primary","id":494494192},"arcs":[163]},{"type":"MultiLineString","properties":{"kind":"major_road","network":"ir:national","sort_rank":381,"kind_detail":"trunk","source":"openstreetmap.org","min_zoom":8.0,"shield_text":"11","ref":"11"},"arcs":[[164],[165],[166],[167],[168],[169],[170],[171],[172],[173],[174],[175]]},{"type":"LineString","properties":{"kind":"major_road","name:en":"Enghelab Square","sort_rank":380,"landuse_kind":"urban_area","source":"openstreetmap.org","min_zoom":8.0,"kind_detail":"primary","id":175277342},"arcs":[176]},{"type":"MultiLineString","properties":{"kind":"major_road","name:en":"Abbas Doran Bridge","network":"ir:national","sort_rank":381,"landuse_kind":"urban_area","source":"openstreetmap.org","min_zoom":8.0,"kind_detail":"trunk","shield_text":"14","ref":"14;32"},"arcs":[[177],[178]]},{"type":"MultiLineString","properties":{"kind":"major_road","name:en":"Bakery Highway","sort_rank":381,"landuse_kind":"urban_area","source":"openstreetmap.org","min_zoom":8.0,"alt_name:en":"Western Tabriz Bypass","kind_detail":"trunk"},"arcs":[[179],[180],[181],[182],[183],[184],[185],[186]]},{"type":"MultiLineString","properties":{"source":"openstreetmap.org","kind":"major_road","name:en":"22 Bahman Boulevard","kind_detail":"trunk","sort_rank":381,"landuse_kind":"urban_area","min_zoom":8.0},"arcs":[[187],[188],[189],[190]]},{"type":"MultiLineString","properties":{"kind":"highway","network":"ir:national","sort_rank":383,"kind_detail":"motorway","source":"openstreetmap.org","min_zoom":8.0,"all_networks":["ir:national"],"landuse_kind":"urban_area","shield_text":"16","ref":"16","all_shield_texts":["16"]},"arcs":[[191],[192],[193],[194],[195],[196],[197],[198],[199],[200],[201],[202],[203],[204],[205],[206],[207],[208],[209],[210],[211]]},{"type":"MultiLineString","properties":{"source":"openstreetmap.org","kind":"major_road","name:en":"35 meters Bustan","landuse_kind":"urban_area","sort_rank":380,"kind_detail":"primary","min_zoom":8.0},"arcs":[[212],[213]]},{"type":"MultiLineString","properties":{"kind":"major_road","network":"ir:national","sort_rank":381,"landuse_kind":"urban_area","source":"openstreetmap.org","min_zoom":8.0,"kind_detail":"trunk","shield_text":"16","ref":"16;21"},"arcs":[[214],[215],[216],[217]]},{"type":"MultiLineString","properties":{"kind":"major_road","name:az":"Nur","sort_rank":380,"kind_detail":"primary","source":"openstreetmap.org","min_zoom":8.0,"name:en":"Nur","landuse_kind":"urban_area"},"arcs":[[218],[219]]},{"type":"LineString","properties":{"kind":"major_road","name:en":"Taleqani","sort_rank":380,"kind_detail":"primary","source":"openstreetmap.org","min_zoom":8.0,"name:az":"Taleqani","landuse_kind":"urban_area","id":173918794},"arcs":[220]},{"type":"MultiLineString","properties":{"kind":"major_road","name:az":"Tiraxtor K\u00f6rp\u00fcs\u00fc","network":"ir:national","sort_rank":381,"landuse_kind":"urban_area","source":"openstreetmap.org","min_zoom":8.0,"kind_detail":"trunk","shield_text":"16","ref":"16;21"},"arcs":[[221],[222]]},{"type":"LineString","properties":{"source":"openstreetmap.org","kind":"major_road","name:en":"Osku-Sahand Road","landuse_kind":"urban_area","sort_rank":380,"kind_detail":"primary","min_zoom":8.0},"arcs":[223]},{"type":"MultiLineString","properties":{"kind":"major_road","name:en":"Soleyman Khater","sort_rank":380,"kind_detail":"primary","source":"openstreetmap.org","min_zoom":8.0,"name:az":"Soleyman Xater","landuse_kind":"urban_area"},"arcs":[[224],[225]]},{"type":"MultiLineString","properties":{"source":"openstreetmap.org","kind":"major_road","name:en":"Golshahr St.","landuse_kind":"urban_area","sort_rank":380,"kind_detail":"primary","min_zoom":8.0},"arcs":[[226],[227]]},{"type":"MultiLineString","properties":{"kind":"major_road","name:en":"Qaem Boulevard","sort_rank":380,"kind_detail":"primary","source":"openstreetmap.org","min_zoom":8.0,"name:az":"Qaem bulvar\u0131","landuse_kind":"urban_area"},"arcs":[[228],[229]]},{"type":"MultiLineString","properties":{"source":"openstreetmap.org","kind":"major_road","name:en":"Shams-e Tabrizi","landuse_kind":"urban_area","sort_rank":380,"kind_detail":"primary","min_zoom":8.0},"arcs":[[230],[231],[232]]},{"type":"LineString","properties":{"kind":"major_road","name:en":"Golshahr","sort_rank":381,"kind_detail":"trunk","is_bicycle_related":true,"source":"openstreetmap.org","min_zoom":8.0,"landuse_kind":"urban_area","id":233924024},"arcs":[233]},{"type":"LineString","properties":{"kind":"major_road","name:en":"Azerbaijan Square","network":"ir:national","sort_rank":381,"kind_detail":"trunk","source":"openstreetmap.org","min_zoom":8.0,"name:az":"Az\u0259rbaycan Meydan\u0131","landuse_kind":"urban_area","shield_text":"14","ref":"14;32","id":17505477},"arcs":[234]},{"type":"LineString","properties":{"kind":"major_road","name:en":"kosar boulevard","sort_rank":380,"landuse_kind":"urban_area","source":"openstreetmap.org","min_zoom":8.0,"kind_detail":"primary","id":204135152},"arcs":[235]},{"type":"LineString","properties":{"kind":"major_road","name:en":"Police Sq.","sort_rank":380,"landuse_kind":"urban_area","source":"openstreetmap.org","min_zoom":8.0,"kind_detail":"primary","id":234044632},"arcs":[236]},{"type":"LineString","properties":{"source":"openstreetmap.org","kind":"major_road","sort_rank":380,"kind_detail":"primary","ref":"144","min_zoom":8.0,"id":300146776},"arcs":[237]},{"type":"LineString","properties":{"kind":"major_road","name:en":"Yaghchian plaza","sort_rank":380,"landuse_kind":"urban_area","source":"openstreetmap.org","min_zoom":8.0,"kind_detail":"primary","id":300820156},"arcs":[238]},{"type":"MultiLineString","properties":{"kind":"major_road","name:az":"S\u0259ttarxan Bulvar\u0131","sort_rank":380,"kind_detail":"primary","source":"openstreetmap.org","min_zoom":8.0,"name:en":"Sattarkhan Boulevard","landuse_kind":"urban_area"},"arcs":[[239],[240],[241],[242]]},{"type":"MultiLineString","properties":{"name:fa":"\u067e\u0644 \u0634\u0647\u06cc\u062f \u06a9\u0644\u0627\u0646\u062a\u0631\u06cc","kind":"major_road","network":"ir:national","sort_rank":381,"kind_detail":"trunk","source":"openstreetmap.org","min_zoom":8.0,"shield_text":"16","ref":"16"},"arcs":[[243],[244]]},{"type":"MultiLineString","properties":{"source":"openstreetmap.org","kind":"major_road","name:en":"Nur Street","landuse_kind":"urban_area","sort_rank":380,"kind_detail":"primary","min_zoom":8.0},"arcs":[[245],[246]]},{"type":"MultiLineString","properties":{"kind":"major_road","name:az":"Muxabirat","sort_rank":380,"kind_detail":"primary","source":"openstreetmap.org","min_zoom":8.0,"name:en":"Mokhaberat","landuse_kind":"urban_area"},"arcs":[[247],[248],[249]]},{"type":"LineString","properties":{"kind":"major_road","name:en":"Rezanejad North","sort_rank":380,"landuse_kind":"urban_area","source":"openstreetmap.org","min_zoom":8.0,"kind_detail":"primary","id":299343949},"arcs":[250]},{"type":"MultiLineString","properties":{"kind":"major_road","name:az":"B\u0259sic Bulvar\u0131 - Tehran D\u0259rvazas\u0131","sort_rank":381,"landuse_kind":"urban_area","is_bicycle_related":true,"source":"openstreetmap.org","min_zoom":8.0,"name:en":"Basij Boulevard - Tehran gate","kind_detail":"trunk"},"arcs":[[251],[252],[253],[254]]},{"type":"MultiLineString","properties":{"kind":"major_road","name:az":"X\u0259tib","sort_rank":381,"landuse_kind":"urban_area","source":"openstreetmap.org","min_zoom":8.0,"name:en":"Khatib","kind_detail":"trunk"},"arcs":[[255],[256]]},{"type":"MultiLineString","properties":{"source":"openstreetmap.org","kind":"major_road","name:en":"Dr Hesabi Blvd","landuse_kind":"urban_area","sort_rank":380,"kind_detail":"primary","min_zoom":8.0},"arcs":[[257],[258]]},{"type":"MultiLineString","properties":{"kind":"highway","network":"ir:national","sort_rank":383,"landuse_kind":"urban_area","source":"openstreetmap.org","min_zoom":8.0,"all_networks":["ir:national","AH"],"kind_detail":"motorway","shield_text":"16","all_shield_texts":["16","1"]},"arcs":[[259],[260]]},{"type":"LineString","properties":{"kind":"major_road","name:az":"Orta K\u0259m\u0259rb\u0259ndi - Niyaye\u015f bulvar\u0131","sort_rank":381,"landuse_kind":"urban_area","source":"openstreetmap.org","min_zoom":8.0,"name:en":"Kamarbandi Miyani - Niyayesh Blvd","kind_detail":"trunk"},"arcs":[261]},{"type":"LineString","properties":{"source":"openstreetmap.org","kind":"major_road","name:az":"Vasm\u0131\u015f Yolu","name:en":"Vasmish Road","sort_rank":381,"kind_detail":"trunk","min_zoom":8.0},"arcs":[262]},{"type":"MultiLineString","properties":{"source":"openstreetmap.org","kind":"major_road","name:az":"\u0130mam Xiyavan\u0131","kind_detail":"primary","sort_rank":380,"landuse_kind":"urban_area","min_zoom":8.0},"arcs":[[263],[264]]},{"type":"MultiLineString","properties":{"source":"openstreetmap.org","kind":"major_road","name:en":"35 meters Ferdous","landuse_kind":"urban_area","sort_rank":380,"kind_detail":"primary","min_zoom":8.0},"arcs":[[265],[266]]},{"type":"MultiLineString","properties":{"kind":"major_road","network":"ir:national","sort_rank":380,"kind_detail":"primary","source":"openstreetmap.org","min_zoom":8.0,"shield_text":"14","ref":"14"},"arcs":[[267],[268],[269],[270],[271],[272],[273],[274],[275],[276],[277],[278],[279],[280],[281],[282],[283],[284]]},{"type":"LineString","properties":{"kind":"major_road","name:en":"Rah Ahan Square","network":"ir:national","sort_rank":381,"kind_detail":"trunk","source":"openstreetmap.org","min_zoom":8.0,"landuse_kind":"urban_area","shield_text":"21","ref":"21","id":175277430},"arcs":[285]},{"type":"LineString","properties":{"kind":"major_road","name:en":"Shariati e Jonubi","sort_rank":380,"kind_detail":"primary","source":"openstreetmap.org","min_zoom":8.0,"old_name":"Shahnaz","landuse_kind":"urban_area","id":173699560},"arcs":[286]},{"type":"MultiLineString","properties":{"source":"openstreetmap.org","kind":"major_road","name:en":"Razi","kind_detail":"trunk","sort_rank":381,"landuse_kind":"urban_area","min_zoom":8.0},"arcs":[[287],[288],[289],[290]]},{"type":"LineString","properties":{"kind":"major_road","name:en":"Shahriar Square","sort_rank":380,"landuse_kind":"residential","source":"openstreetmap.org","min_zoom":8.0,"kind_detail":"primary","id":120825670},"arcs":[291]},{"type":"MultiLineString","properties":{"kind":"major_road","network":"ir:national","sort_rank":381,"landuse_kind":"urban_area","source":"openstreetmap.org","min_zoom":8.0,"kind_detail":"trunk","shield_text":"14","ref":"14;16;32"},"arcs":[[292],[293]]},{"type":"LineString","properties":{"kind":"major_road","name:en":"Artesh e Shomali","sort_rank":380,"kind_detail":"primary","source":"openstreetmap.org","min_zoom":8.0,"name:az":"\u015eimali Arte\u015f","landuse_kind":"urban_area","id":173699564},"arcs":[294]},{"type":"MultiLineString","properties":{"kind":"major_road","name:en":"Basij Boulevard - Tehran Road","sort_rank":381,"landuse_kind":"urban_area","source":"openstreetmap.org","min_zoom":8.0,"name:az":"B\u0259sic Bulvar\u0131 - Tehran Yolu","kind_detail":"trunk"},"arcs":[[295],[296],[297]]},{"type":"MultiLineString","properties":{"kind":"major_road","name:az":"\u018fbbasi","sort_rank":380,"kind_detail":"primary","source":"openstreetmap.org","min_zoom":8.0,"name:en":"Abbasi","landuse_kind":"urban_area"},"arcs":[[298],[299],[300]]},{"type":"MultiLineString","properties":{"kind":"major_road","name:en":"Maleki Tabrizi Boulevard","sort_rank":381,"landuse_kind":"urban_area","source":"openstreetmap.org","min_zoom":8.0,"name:az":"M\u0259leki T\u0259brizi bulvar\u0131","kind_detail":"trunk"},"arcs":[[301],[302],[303],[304],[305]]},{"type":"MultiLineString","properties":{"kind":"major_road","name:az":"Vasm\u0131\u015f yolu","sort_rank":381,"landuse_kind":"urban_area","source":"openstreetmap.org","min_zoom":8.0,"name:en":"Vasmish Road","kind_detail":"trunk"},"arcs":[[306],[307]]},{"type":"MultiLineString","properties":{"name:fa":"\u062c\u0627\u062f\u0647 \u0627\u0626\u0644 \u06af\u0648\u0644\u06cc - \u062c\u0627\u062f\u0647 \u0634\u0627\u0647\u06af\u0644\u06cc - \u0634\u0647\u06cc\u062f \u0628\u0627\u06a9\u0631\u06cc","kind":"major_road","name:en":"Elgoli Boulevard - Shahgoli Boulevard - Shahid Bakeri","sort_rank":381,"landuse_kind":"urban_area","source":"openstreetmap.org","min_zoom":8.0,"name:az":"Elg\u00f6l\u00fc Yolu - \u015eahg\u00f6l\u00fc Yolu - \u015e\u0259hid Bakeri","kind_detail":"trunk"},"arcs":[[308],[309],[310],[311],[312]]},{"type":"MultiLineString","properties":{"kind":"major_road","sort_rank":380,"landuse_kind":"protected_area","source":"openstreetmap.org","min_zoom":8.0,"kind_detail":"primary","ref":"144","id":488285806},"arcs":[[313],[314]]},{"type":"LineString","properties":{"kind":"major_road","name:az":"Risal\u0259t","sort_rank":381,"landuse_kind":"urban_area","source":"openstreetmap.org","min_zoom":8.0,"kind_detail":"trunk","id":235999786},"arcs":[315]},{"type":"MultiLineString","properties":{"kind":"major_road","name:en":"Fajr","sort_rank":380,"kind_detail":"primary","source":"openstreetmap.org","min_zoom":8.0,"name:az":"F\u0259cr","landuse_kind":"urban_area"},"arcs":[[316],[317]]},{"type":"LineString","properties":{"kind":"major_road","name:en":"Shafa square","sort_rank":380,"landuse_kind":"urban_area","source":"openstreetmap.org","min_zoom":8.0,"kind_detail":"primary","id":300946703},"arcs":[318]},{"type":"LineString","properties":{"source":"openstreetmap.org","kind":"major_road","name:en":"Shahriar Boulevard","kind_detail":"trunk","sort_rank":381,"landuse_kind":"urban_area","min_zoom":8.0},"arcs":[319]},{"type":"MultiLineString","properties":{"kind":"major_road","name:az":"T\u0259briz - M\u0259r\u0259nd Yolu","network":"ir:national","sort_rank":381,"landuse_kind":"urban_area","source":"openstreetmap.org","min_zoom":8.0,"name:en":"Tabriz - Marand Road","kind_detail":"trunk","shield_text":"14","ref":"14;21;32"},"arcs":[[320],[321],[322],[323]]},{"type":"MultiLineString","properties":{"kind":"major_road","network":"ir:national","sort_rank":381,"landuse_kind":"urban_area","source":"openstreetmap.org","min_zoom":8.0,"kind_detail":"trunk","shield_text":"11","ref":"11"},"arcs":[[324],[325]]},{"type":"MultiLineString","properties":{"kind":"major_road","network":"ir:national","sort_rank":380,"kind_detail":"primary","source":"openstreetmap.org","min_zoom":8.0,"landuse_kind":"urban_area","shield_text":"14","ref":"14"},"arcs":[[326],[327],[328],[329],[330],[331],[332],[333],[334],[335],[336],[337],[338]]},{"type":"LineString","properties":{"source":"openstreetmap.org","kind":"major_road","name:en":"Shariati e Jonubi","landuse_kind":"urban_area","sort_rank":380,"kind_detail":"primary","min_zoom":8.0},"arcs":[339]},{"type":"LineString","properties":{"kind":"major_road","name:en":"Daneshsara","sort_rank":380,"landuse_kind":"urban_area","source":"openstreetmap.org","min_zoom":8.0,"kind_detail":"primary","id":80866544},"arcs":[340]},{"type":"MultiLineString","properties":{"kind":"major_road","name:az":"Az\u0259rbaycan bulvar\u0131","sort_rank":381,"landuse_kind":"urban_area","source":"openstreetmap.org","min_zoom":8.0,"name:en":"Azerbaijan Boulevard","kind_detail":"trunk"},"arcs":[[341],[342],[343],[344],[345],[346],[347],[348],[349],[350]]},{"type":"MultiLineString","properties":{"kind":"highway","network":"AH","sort_rank":383,"landuse_kind":"urban_area","source":"openstreetmap.org","min_zoom":8.0,"all_networks":["AH","ir:freeways"],"kind_detail":"motorway","shield_text":"1","ref":"2","all_shield_texts":["1","2"]},"arcs":[[351],[352],[353],[354]]},{"type":"LineString","properties":{"name:fa":"\u0627\u062a\u0648\u0628\u0627\u0646 \u06a9\u0633\u0627\u06cc\u06cc","kind":"highway","name:en":"Kasaei Highway","network":"ir:national","sort_rank":383,"kind_detail":"motorway","source":"openstreetmap.org","min_zoom":8.0,"all_networks":["ir:national","AH"],"landuse_kind":"urban_area","shield_text":"16","id":300650191,"all_shield_texts":["16","1"]},"arcs":[355]},{"type":"MultiLineString","properties":{"kind":"major_road","network":"ir:national","sort_rank":381,"landuse_kind":"protected_area","source":"openstreetmap.org","min_zoom":8.0,"kind_detail":"trunk","shield_text":"21","ref":"21"},"arcs":[[356],[357]]},{"type":"LineString","properties":{"source":"openstreetmap.org","kind":"major_road","sort_rank":381,"kind_detail":"trunk","is_bicycle_related":true,"min_zoom":8.0,"id":469536047},"arcs":[358]},{"type":"MultiLineString","properties":{"kind":"highway","name:en":"Pasdaran","network":"ir:national","sort_rank":383,"landuse_kind":"urban_area","source":"openstreetmap.org","min_zoom":8.0,"all_networks":["ir:national","ir:national","AH"],"kind_detail":"motorway","shield_text":"14","ref":"14;32","all_shield_texts":["14","32","1"]},"arcs":[[359],[360]]},{"type":"MultiLineString","properties":{"kind":"major_road","name:en":"Abureyhan","sort_rank":380,"kind_detail":"primary","source":"openstreetmap.org","min_zoom":8.0,"name:az":"\u018fbureyhan","landuse_kind":"urban_area"},"arcs":[[361],[362]]},{"type":"MultiLineString","properties":{"kind":"major_road","network":"ir:national","sort_rank":381,"landuse_kind":"urban_area","source":"openstreetmap.org","min_zoom":8.0,"kind_detail":"trunk","shield_text":"14","ref":"14;32"},"arcs":[[363],[364]]},{"type":"LineString","properties":{"kind":"highway","name:en":"Fahmideh square","sort_rank":383,"kind_detail":"motorway","source":"openstreetmap.org","min_zoom":8.0,"alt_name:en":"Shahid Fahmideh Sq.","landuse_kind":"urban_area","id":80866511},"arcs":[365]},{"type":"MultiLineString","properties":{"source":"openstreetmap.org","kind":"major_road","name:en":"Emam Khomeyni","landuse_kind":"urban_area","sort_rank":380,"kind_detail":"primary","min_zoom":8.0},"arcs":[[366],[367],[368]]},{"type":"LineString","properties":{"kind":"major_road","name:en":"Jolfa","sort_rank":380,"landuse_kind":"residential","source":"openstreetmap.org","min_zoom":8.0,"kind_detail":"primary","id":205756256},"arcs":[369]},{"type":"LineString","properties":{"source":"openstreetmap.org","kind":"major_road","name:en":"Emam Khomeini","landuse_kind":"urban_area","sort_rank":380,"kind_detail":"primary","min_zoom":8.0},"arcs":[370]},{"type":"LineString","properties":{"source":"openstreetmap.org","kind":"major_road","name:en":"7th Tir boulevard","kind_detail":"trunk","sort_rank":381,"landuse_kind":"urban_area","min_zoom":8.0},"arcs":[371]},{"type":"LineString","properties":{"kind":"major_road","name:en":"29 Bahman Boulevard","sort_rank":381,"landuse_kind":"urban_area","is_bicycle_related":true,"source":"openstreetmap.org","min_zoom":8.0,"kind_detail":"trunk"},"arcs":[372]},{"type":"MultiLineString","properties":{"sort_rank":381,"source":"openstreetmap.org","min_zoom":8.0,"kind":"major_road","kind_detail":"trunk"},"arcs":[[373],[374],[375],[376],[377],[378]]},{"type":"MultiLineString","properties":{"source":"openstreetmap.org","kind":"major_road","name:az":"X\u0259tib","kind_detail":"trunk","sort_rank":381,"landuse_kind":"urban_area","min_zoom":8.0},"arcs":[[379],[380]]},{"type":"MultiLineString","properties":{"kind":"major_road","network":"ir:national","sort_rank":381,"kind_detail":"trunk","source":"openstreetmap.org","min_zoom":8.0,"shield_text":"21","ref":"21"},"arcs":[[381],[382],[383],[384],[385],[386],[387]]},{"type":"MultiLineString","properties":{"kind":"highway","network":"AH","sort_rank":383,"kind_detail":"motorway","source":"openstreetmap.org","min_zoom":8.0,"all_networks":["AH","ir:freeways"],"shield_text":"1","ref":"2","all_shield_texts":["1","2"]},"arcs":[[388],[389]]},{"type":"LineString","properties":{"kind":"major_road","name:az":"M\u00fcn\u0259ccim - Niruye H\u0259vayi","sort_rank":380,"kind_detail":"primary","source":"openstreetmap.org","min_zoom":8.0,"name:en":"Monajjem - Niruye Havayi","landuse_kind":"urban_area"},"arcs":[390]},{"type":"LineString","properties":{"kind":"major_road","name:az":"C\u0259nubi Arte\u015f","sort_rank":380,"kind_detail":"primary","source":"openstreetmap.org","min_zoom":8.0,"name:en":"Artesh e Jonubi","landuse_kind":"urban_area"},"arcs":[391]},{"type":"MultiLineString","properties":{"kind":"major_road","network":"ir:national","sort_rank":381,"kind_detail":"trunk","source":"openstreetmap.org","min_zoom":8.0,"shield_text":"16","ref":"16;21"},"arcs":[[392],[393],[394],[395],[396],[397],[398],[399]]},{"type":"MultiLineString","properties":{"source":"openstreetmap.org","kind":"major_road","name:en":"Fath Boulevard","landuse_kind":"urban_area","sort_rank":380,"kind_detail":"primary","min_zoom":8.0},"arcs":[[400],[401],[402],[403]]},{"type":"MultiLineString","properties":{"source":"openstreetmap.org","kind":"highway","landuse_kind":"urban_area","sort_rank":383,"kind_detail":"motorway","min_zoom":8.0},"arcs":[[404],[405],[406],[407],[408],[409],[410],[411],[412],[413],[414],[415],[416],[417],[418],[419],[420],[421]]},{"type":"LineString","properties":{"kind":"major_road","name:en":"Bahar - Shahid Ranjbar","sort_rank":380,"landuse_kind":"urban_area","source":"openstreetmap.org","min_zoom":8.0,"kind_detail":"primary","id":175665520},"arcs":[422]},{"type":"MultiLineString","properties":{"kind":"highway","name:en":"Pasdaran Highway","network":"ir:national","sort_rank":383,"landuse_kind":"urban_area","source":"openstreetmap.org","min_zoom":8.0,"all_networks":["ir:national","ir:national","AH"],"kind_detail":"motorway","shield_text":"14","ref":"14;32","all_shield_texts":["14","32","1"]},"arcs":[[423],[424]]},{"type":"MultiLineString","properties":{"kind":"major_road","name:en":"Amir Kabir","sort_rank":380,"kind_detail":"primary","source":"openstreetmap.org","min_zoom":8.0,"name:az":"\u018fmir K\u0259bir","landuse_kind":"urban_area"},"arcs":[[425],[426]]},{"type":"LineString","properties":{"kind":"highway","network":"ir:national","sort_rank":383,"kind_detail":"motorway","source":"openstreetmap.org","min_zoom":8.0,"all_networks":["ir:national","AH"],"landuse_kind":"urban_area","shield_text":"16","ref":"16","id":301280325,"all_shield_texts":["16","1"]},"arcs":[427]},{"type":"LineString","properties":{"kind":"major_road","name:en":"Basij Boulevard - Tehran Road","network":"ir:national","sort_rank":381,"kind_detail":"trunk","source":"openstreetmap.org","min_zoom":8.0,"name:az":"B\u0259sic Bulvar\u0131 - Tehran Yolu","landuse_kind":"urban_area","shield_text":"16","id":368771157},"arcs":[428]},{"type":"MultiLineString","properties":{"kind":"major_road","name:en":"Airport Road - Shahid Babayi Boulevard","network":"ir:national","sort_rank":381,"kind_detail":"trunk","source":"openstreetmap.org","min_zoom":8.0,"landuse_kind":"urban_area","shield_text":"14","ref":"14;32"},"arcs":[[429],[430],[431],[432]]},{"type":"MultiLineString","properties":{"kind":"major_road","name:en":"Bazar","sort_rank":380,"kind_detail":"primary","source":"openstreetmap.org","min_zoom":8.0,"name:az":"Bazar","landuse_kind":"urban_area"},"arcs":[[433],[434]]},{"type":"LineString","properties":{"kind":"major_road","name:en":"Akhar e Maralan Sq","sort_rank":381,"kind_detail":"trunk","is_bicycle_related":true,"source":"openstreetmap.org","min_zoom":8.0,"landuse_kind":"urban_area","id":233669937},"arcs":[435]},{"type":"LineString","properties":{"source":"openstreetmap.org","kind":"highway","landuse_kind":"military","sort_rank":383,"kind_detail":"motorway","min_zoom":8.0,"id":243408534},"arcs":[436]},{"type":"MultiLineString","properties":{"kind":"highway","name:en":"Kasaei Highway","network":"ir:national","sort_rank":383,"landuse_kind":"urban_area","source":"openstreetmap.org","min_zoom":8.0,"all_networks":["ir:national","AH"],"kind_detail":"motorway","shield_text":"16","ref":"16","all_shield_texts":["16","1"]},"arcs":[[437],[438],[439]]},{"type":"MultiLineString","properties":{"kind":"major_road","name:az":"\u0130d\u0259li","sort_rank":380,"kind_detail":"primary","source":"openstreetmap.org","min_zoom":8.0,"name:en":"Idali","landuse_kind":"urban_area"},"arcs":[[440],[441]]},{"type":"MultiLineString","properties":{"kind":"major_road","name:en":"Shahriar Boulevard","sort_rank":381,"landuse_kind":"urban_area","source":"openstreetmap.org","min_zoom":8.0,"kind_detail":"trunk","ref":"14;32"},"arcs":[[442],[443]]},{"type":"LineString","properties":{"kind":"major_road","name:en":"South Tavanir Boulevard","sort_rank":381,"kind_detail":"trunk","is_bicycle_related":true,"source":"openstreetmap.org","min_zoom":8.0,"name:az":"G\u00fcney T\u0259vanir Bulvar\u0131","landuse_kind":"urban_area","id":196217040},"arcs":[444]},{"type":"MultiLineString","properties":{"source":"openstreetmap.org","kind":"major_road","kind_detail":"trunk","sort_rank":381,"landuse_kind":"urban_area","min_zoom":8.0},"arcs":[[445],[446],[447],[448],[449],[450],[451],[452],[453],[454],[455],[456],[457],[458],[459],[460],[461],[462],[463],[464],[465],[466],[467],[468],[469],[470],[471],[472],[473],[474],[475],[476],[477],[478],[479],[480],[481],[482],[483],[484],[485],[486],[487],[488],[489],[490],[491],[492],[493],[494],[495],[496],[497],[498],[499],[500],[501],[502],[503],[504],[505],[506],[507],[508],[509],[510],[511],[512],[513],[514],[515],[516],[517],[518],[519],[520],[521],[522],[523],[524],[525],[526],[527],[528],[529],[530],[531],[532],[533],[534],[535],[536],[537],[538],[539],[540],[541],[542],[543],[544],[545],[546],[547],[548],[549],[550],[551],[552],[553],[554],[555],[556],[557],[558],[559],[560],[561],[562],[563],[564],[565],[566],[567],[568],[569],[570],[571],[572],[573],[574],[575],[576],[577],[578],[579],[580],[581],[582],[583],[584],[585],[586],[587],[588],[589],[590],[591],[592],[593],[594],[595],[596],[597],[598],[599],[600],[601],[602],[603],[604],[605],[606],[607],[608],[609],[610],[611],[612],[613],[614],[615],[616],[617],[618],[619],[620],[621],[622],[623],[624],[625],[626],[627],[628],[629],[630],[631],[632],[633],[634],[635],[636],[637],[638],[639],[640],[641],[642],[643],[644],[645],[646],[647],[648],[649],[650],[651],[652],[653],[654],[655],[656],[657],[658],[659],[660],[661],[662],[663],[664],[665],[666],[667],[668],[669],[670],[671],[672],[673],[674],[675],[676],[677],[678],[679],[680],[681],[682],[683],[684],[685],[686],[687],[688],[689],[690],[691],[692],[693],[694],[695],[696],[697],[698],[699],[700],[701],[702],[703],[704],[705],[706],[707],[708],[709],[710],[711],[712],[713],[714],[715],[716],[717],[718],[719],[720],[721],[722],[723],[724],[725],[726],[727],[728],[729],[730],[731],[732],[733],[734],[735],[736],[737],[738],[739],[740],[741],[742],[743],[744],[745],[746],[747],[748],[749],[750],[751],[752],[753],[754],[755],[756],[757],[758],[759],[760],[761],[762],[763],[764],[765],[766],[767],[768],[769],[770],[771],[772],[773],[774],[775],[776],[777],[778],[779],[780],[781],[782],[783],[784],[785],[786],[787],[788],[789],[790],[791],[792],[793],[794],[795],[796],[797],[798],[799],[800],[801],[802],[803],[804],[805],[806],[807],[808],[809],[810],[811],[812],[813],[814],[815],[816],[817],[818],[819],[820],[821],[822],[823],[824],[825],[826],[827],[828],[829],[830],[831],[832],[833],[834],[835],[836],[837],[838],[839],[840],[841],[842],[843],[844],[845],[846],[847],[848],[849],[850],[851],[852],[853],[854]]},{"type":"MultiLineString","properties":{"name:fa":"\u0627\u062a\u0648\u0628\u0627\u0646 \u06a9\u0633\u0627\u06cc\u06cc","kind":"highway","name:en":"Kasaei Highway","network":"ir:national","sort_rank":383,"kind_detail":"motorway","source":"openstreetmap.org","min_zoom":8.0,"all_networks":["ir:national","ir:national","AH"],"landuse_kind":"urban_area","shield_text":"14","ref":"14;32","all_shield_texts":["14","32","1"]},"arcs":[[855],[856]]},{"type":"MultiLineString","properties":{"source":"openstreetmap.org","kind":"major_road","name:en":"Sahand-Tabriz Rd","landuse_kind":"urban_area","sort_rank":380,"kind_detail":"primary","min_zoom":8.0},"arcs":[[857],[858]]},{"type":"MultiLineString","properties":{"source":"openstreetmap.org","kind":"major_road","landuse_kind":"residential","sort_rank":380,"kind_detail":"primary","min_zoom":8.0},"arcs":[[859],[860],[861],[862],[863],[864],[865],[866],[867],[868],[869],[870],[871],[872],[873],[874],[875],[876],[877],[878],[879],[880],[881],[882],[883],[884],[885],[886],[887],[888],[889],[890],[891],[892],[893],[894],[895],[896],[897],[898],[899],[900],[901],[902],[903]]},{"type":"MultiLineString","properties":{"kind":"major_road","name:en":"Felestin","sort_rank":380,"kind_detail":"primary","source":"openstreetmap.org","min_zoom":8.0,"name:az":"Felestin","landuse_kind":"urban_area"},"arcs":[[904],[905]]},{"type":"LineString","properties":{"kind":"major_road","name:en":"Mellat Boulevard","network":"ir:national","sort_rank":381,"kind_detail":"trunk","source":"openstreetmap.org","min_zoom":8.0,"landuse_kind":"urban_area","shield_text":"16","ref":"16;21","id":369632013},"arcs":[906]},{"type":"MultiLineString","properties":{"source":"openstreetmap.org","kind":"major_road","name:en":"Moallem","landuse_kind":"urban_area","sort_rank":380,"kind_detail":"primary","min_zoom":8.0},"arcs":[[907],[908]]},{"type":"LineString","properties":{"kind":"major_road","name:en":"Bazar","sort_rank":380,"landuse_kind":"urban_area","source":"openstreetmap.org","min_zoom":8.0,"kind_detail":"primary","id":260524113},"arcs":[909]},{"type":"LineString","properties":{"kind":"major_road","name:en":"Vali Amr square","sort_rank":381,"kind_detail":"trunk","source":"openstreetmap.org","min_zoom":8.0,"name:az":"V\u0259liye \u0259mr meydan\u0131","landuse_kind":"urban_area","id":80866541},"arcs":[910]},{"type":"MultiLineString","properties":{"kind":"major_road","name:az":"Darayi - \u015e\u0259hid M\u0259d\u0259ni","sort_rank":380,"kind_detail":"primary","source":"openstreetmap.org","min_zoom":8.0,"name:en":"Darayi - Shahid Madani","landuse_kind":"urban_area"},"arcs":[[911],[912],[913]]},{"type":"LineString","properties":{"kind":"major_road","network":"ir:national","sort_rank":380,"kind_detail":"primary","source":"openstreetmap.org","min_zoom":8.0,"landuse_kind":"military","shield_text":"14","ref":"14","id":367960347},"arcs":[914]},{"type":"LineString","properties":{"kind":"major_road","name:en":"Shahrdari Sq","sort_rank":380,"landuse_kind":"residential","source":"openstreetmap.org","min_zoom":8.0,"kind_detail":"primary","id":199732266},"arcs":[915]},{"type":"LineString","properties":{"kind":"major_road","name:en":"Shohada","sort_rank":380,"kind_detail":"primary","source":"openstreetmap.org","min_zoom":8.0,"name:az":"\u015eoh\u0259da","landuse_kind":"urban_area","id":173699570},"arcs":[916]},{"type":"LineString","properties":{"kind":"major_road","network":"ir:national","sort_rank":381,"kind_detail":"trunk","source":"openstreetmap.org","min_zoom":8.0,"landuse_kind":"residential","shield_text":"21","ref":"21","id":120825707},"arcs":[917]},{"type":"LineString","properties":{"kind":"major_road","network":"ir:national","sort_rank":381,"kind_detail":"trunk","source":"openstreetmap.org","min_zoom":8.0,"shield_text":"11","id":201571897},"arcs":[918]},{"type":"MultiLineString","properties":{"name:fa":"\u0627\u062a\u0648\u0628\u0627\u0646 \u06a9\u0633\u0627\u06cc\u06cc","kind":"highway","name:en":"Kasaei Highway","network":"AH","sort_rank":383,"kind_detail":"motorway","source":"openstreetmap.org","min_zoom":8.0,"all_networks":["AH"],"landuse_kind":"urban_area","shield_text":"1","all_shield_texts":["1"]},"arcs":[[919],[920]]},{"type":"MultiLineString","properties":{"kind":"major_road","name:az":"V\u0259liye \u0259sr Bulvar\u0131","sort_rank":380,"kind_detail":"primary","source":"openstreetmap.org","min_zoom":8.0,"name:en":"Vali ye Asr Boulevard","landuse_kind":"urban_area"},"arcs":[[921],[922],[923]]},{"type":"LineString","properties":{"kind":"major_road","name:en":"Sheshgilan","sort_rank":380,"kind_detail":"primary","source":"openstreetmap.org","min_zoom":8.0,"name:az":"\u015ee\u015fgilan","landuse_kind":"urban_area","id":331051818},"arcs":[924]},{"type":"LineString","properties":{"kind":"major_road","name:en":"Kasaei Highway","network":"ir:national","sort_rank":381,"kind_detail":"trunk","source":"openstreetmap.org","min_zoom":8.0,"landuse_kind":"urban_area","shield_text":"16","ref":"16","id":327206399},"arcs":[925]},{"type":"MultiLineString","properties":{"source":"openstreetmap.org","kind":"major_road","name:en":"Chay Kenar Freeway","kind_detail":"trunk","sort_rank":381,"landuse_kind":"urban_area","min_zoom":8.0},"arcs":[[926],[927]]},{"type":"LineString","properties":{"source":"openstreetmap.org","kind":"major_road","sort_rank":381,"kind_detail":"trunk","ref":"21","min_zoom":8.0},"arcs":[928]},{"type":"LineString","properties":{"kind":"major_road","name:en":"Shariati e Shomali","sort_rank":380,"landuse_kind":"urban_area","source":"openstreetmap.org","min_zoom":8.0,"kind_detail":"primary","id":174859169},"arcs":[929]},{"type":"MultiLineString","properties":{"name:fa":"\u0628\u0632\u0631\u06af\u0631\u0627\u0647 \u0634\u0647\u06cc\u062f \u06a9\u0644\u0627\u0646\u062a\u0631\u06cc","kind":"major_road","network":"ir:national","sort_rank":381,"kind_detail":"trunk","source":"openstreetmap.org","min_zoom":8.0,"shield_text":"16","ref":"16"},"arcs":[[930],[931],[932],[933]]},{"type":"MultiLineString","properties":{"kind":"major_road","name:en":"Shafizadeh Boulevard","sort_rank":380,"kind_detail":"primary","source":"openstreetmap.org","min_zoom":8.0,"name:az":"\u015e\u0259fizad\u0259 Bulvar\u0131","landuse_kind":"urban_area"},"arcs":[[934],[935]]},{"type":"MultiLineString","properties":{"kind":"major_road","network":"ir:national","sort_rank":381,"kind_detail":"trunk","source":"openstreetmap.org","min_zoom":8.0,"shield_text":"21","ref":"21;32"},"arcs":[[936],[937],[938],[939],[940],[941],[942],[943],[944],[945],[946],[947],[948],[949]]},{"type":"LineString","properties":{"name:fa":"\u0627\u062a\u0648\u0628\u0627\u0646 \u06a9\u0633\u0627\u06cc\u06cc","kind":"highway","name:en":"Kasaei Highway","network":"ir:national","sort_rank":383,"kind_detail":"motorway","source":"openstreetmap.org","min_zoom":8.0,"all_networks":["ir:national","ir:national","ir:national","AH"],"landuse_kind":"urban_area","shield_text":"14","ref":"14;32","id":369632910,"all_shield_texts":["14","16","32","1"]},"arcs":[950]},{"type":"LineString","properties":{"kind":"major_road","name:en":"Ghaem Plaza","sort_rank":380,"landuse_kind":"urban_area","source":"openstreetmap.org","min_zoom":8.0,"kind_detail":"primary","id":244219312},"arcs":[951]},{"type":"LineString","properties":{"kind":"major_road","name:en":"Azadeghan Square","sort_rank":380,"landuse_kind":"urban_area","source":"openstreetmap.org","min_zoom":8.0,"kind_detail":"primary","id":189056942},"arcs":[952]},{"type":"LineString","properties":{"name:fa":"\u062c\u0627\u062f\u0647 \u0627\u0626\u0644 \u06af\u0648\u0644\u06cc - \u062c\u0627\u062f\u0647 \u0634\u0627\u0647\u06af\u0644\u06cc - \u0634\u0647\u06cc\u062f \u0628\u0627\u06a9\u0631\u06cc","kind":"major_road","name:az":"Elg\u00f6l\u00fc Yolu - \u015eahg\u00f6l\u00fc Yolu - \u015e\u0259hid Bakeri","sort_rank":381,"kind_detail":"trunk","is_bicycle_related":true,"source":"openstreetmap.org","min_zoom":8.0,"name:en":"Elgoli Boulevard - Shahgoli Boulevard - Shahid Bakeri","landuse_kind":"urban_area","id":233924009},"arcs":[953]},{"type":"LineString","properties":{"source":"openstreetmap.org","kind":"major_road","name:en":"Shahidan Zaker","kind_detail":"trunk","sort_rank":381,"landuse_kind":"urban_area","min_zoom":8.0},"arcs":[954]},{"type":"MultiLineString","properties":{"source":"openstreetmap.org","kind":"major_road","name:en":"Meraj","landuse_kind":"urban_area","sort_rank":380,"kind_detail":"primary","min_zoom":8.0},"arcs":[[955],[956],[957],[958]]},{"type":"LineString","properties":{"kind":"major_road","name:en":"Elgoli sq - Shahgoli sq - Sharifzadeh","sort_rank":381,"kind_detail":"trunk","is_bicycle_related":true,"source":"openstreetmap.org","min_zoom":8.0,"name:az":"Elg\u00f6l\u00fc Meydan\u0131 - \u015eahg\u00f6l\u00fc Meydan\u0131 - \u015e\u0259rifzad\u0259","landuse_kind":"urban_area","id":300588522},"arcs":[959]},{"type":"LineString","properties":{"kind":"highway","name:en":"Kasaei Highway","sort_rank":383,"landuse_kind":"urban_area","source":"openstreetmap.org","min_zoom":8.0,"kind_detail":"motorway","id":47084745},"arcs":[960]},{"type":"LineString","properties":{"kind":"major_road","name:en":"Manzariyeh","sort_rank":380,"kind_detail":"primary","source":"openstreetmap.org","min_zoom":8.0,"name:az":"M\u0259nz\u0259riy\u0259","landuse_kind":"urban_area","id":243351891},"arcs":[961]},{"type":"LineString","properties":{"kind":"major_road","name:en":"Ferdous Plaza","sort_rank":380,"landuse_kind":"urban_area","source":"openstreetmap.org","min_zoom":8.0,"kind_detail":"primary","id":244282264},"arcs":[962]},{"type":"MultiLineString","properties":{"source":"openstreetmap.org","kind":"major_road","landuse_kind":"urban_area","sort_rank":380,"kind_detail":"primary","min_zoom":8.0},"arcs":[[963],[964],[965],[966],[967],[968],[969],[970],[971],[972],[973],[974],[975],[976],[977],[978],[979],[980],[981],[982],[983],[984],[985],[986],[987],[988],[989],[990],[991],[992],[993],[994],[995],[996],[997],[998],[999],[1000],[1001],[1002],[1003],[1004],[1005],[1006],[1007],[1008],[1009],[1010],[1011],[1012],[1013],[1014],[1015],[1016],[1017],[1018],[1019],[1020],[1021],[1022],[1023],[1024],[1025],[1026],[1027],[1028],[1029],[1030],[1031],[1032],[1033],[1034],[1035],[1036],[1037],[1038],[1039],[1040],[1041],[1042],[1043],[1044],[1045],[1046],[1047],[1048],[1049],[1050],[1051],[1052],[1053],[1054],[1055],[1056],[1057],[1058],[1059],[1060],[1061],[1062],[1063],[1064],[1065],[1066],[1067],[1068],[1069],[1070],[1071],[1072],[1073],[1074],[1075],[1076],[1077],[1078],[1079],[1080],[1081],[1082],[1083],[1084],[1085],[1086],[1087],[1088],[1089],[1090],[1091],[1092],[1093],[1094],[1095],[1096],[1097],[1098],[1099],[1100],[1101],[1102],[1103],[1104],[1105],[1106],[1107],[1108],[1109],[1110],[1111],[1112],[1113],[1114],[1115],[1116],[1117],[1118],[1119],[1120],[1121],[1122],[1123],[1124],[1125],[1126],[1127],[1128],[1129],[1130],[1131],[1132],[1133],[1134],[1135],[1136],[1137],[1138],[1139],[1140],[1141],[1142],[1143],[1144],[1145],[1146],[1147],[1148],[1149],[1150],[1151],[1152],[1153],[1154],[1155],[1156],[1157],[1158],[1159],[1160],[1161],[1162],[1163],[1164],[1165],[1166],[1167],[1168],[1169],[1170],[1171],[1172],[1173],[1174],[1175],[1176],[1177],[1178],[1179],[1180],[1181],[1182],[1183],[1184],[1185],[1186],[1187],[1188],[1189],[1190],[1191],[1192],[1193],[1194],[1195],[1196],[1197],[1198],[1199],[1200],[1201],[1202],[1203],[1204],[1205],[1206],[1207],[1208],[1209],[1210],[1211],[1212],[1213],[1214],[1215],[1216],[1217],[1218],[1219],[1220],[1221],[1222],[1223],[1224],[1225],[1226],[1227],[1228],[1229],[1230],[1231],[1232],[1233],[1234],[1235],[1236],[1237],[1238],[1239],[1240],[1241],[1242],[1243],[1244],[1245],[1246],[1247],[1248],[1249],[1250],[1251],[1252],[1253],[1254],[1255],[1256],[1257],[1258],[1259],[1260],[1261],[1262],[1263],[1264],[1265],[1266],[1267],[1268],[1269],[1270],[1271],[1272],[1273],[1274],[1275],[1276],[1277],[1278],[1279],[1280],[1281],[1282],[1283],[1284],[1285],[1286],[1287],[1288],[1289],[1290],[1291],[1292],[1293],[1294],[1295],[1296],[1297],[1298],[1299],[1300],[1301],[1302],[1303],[1304],[1305],[1306],[1307],[1308],[1309],[1310],[1311],[1312],[1313],[1314],[1315],[1316],[1317],[1318],[1319],[1320],[1321],[1322],[1323],[1324],[1325],[1326]]},{"type":"LineString","properties":{"kind":"major_road","name:en":"Akhini - Akhuni","sort_rank":380,"kind_detail":"primary","source":"openstreetmap.org","min_zoom":8.0,"name:az":"Ax\u0131n\u0131 - Axuni","landuse_kind":"urban_area","id":196216927},"arcs":[1327]},{"type":"LineString","properties":{"kind":"major_road","name:en":"Shahriar Boulevard","sort_rank":381,"kind_detail":"trunk","is_bicycle_related":true,"source":"openstreetmap.org","min_zoom":8.0,"landuse_kind":"urban_area","ref":"14;32","id":461363476},"arcs":[1328]},{"type":"MultiLineString","properties":{"kind":"major_road","network":"ir:national","sort_rank":381,"landuse_kind":"urban_area","source":"openstreetmap.org","min_zoom":8.0,"kind_detail":"trunk","shield_text":"21","ref":"21"},"arcs":[[1329],[1330],[1331],[1332],[1333],[1334],[1335],[1336]]},{"type":"MultiLineString","properties":{"kind":"major_road","name:az":"Z\u0259f\u0259raniy\u0259","sort_rank":381,"landuse_kind":"urban_area","is_bicycle_related":true,"source":"openstreetmap.org","min_zoom":8.0,"name:en":"Zafaraniyeh","kind_detail":"trunk"},"arcs":[[1337],[1338]]},{"type":"MultiLineString","properties":{"source":"openstreetmap.org","kind":"major_road","name:en":"Shahgholi Boulevard","kind_detail":"trunk","sort_rank":381,"landuse_kind":"urban_area","min_zoom":8.0},"arcs":[[1339],[1340]]},{"type":"MultiLineString","properties":{"kind":"major_road","name:en":"Basij Boulevard - Tehran Road","network":"ir:national","sort_rank":381,"kind_detail":"trunk","source":"openstreetmap.org","min_zoom":8.0,"name:az":"B\u0259sic Bulvar\u0131 - Tehran Yolu","landuse_kind":"urban_area","shield_text":"14","ref":"14;16;32"},"arcs":[[1341],[1342]]},{"type":"MultiLineString","properties":{"kind":"major_road","name:en":"Ostad Moin Boulevard","sort_rank":380,"kind_detail":"primary","source":"openstreetmap.org","min_zoom":8.0,"name:az":"Ostad Moin Bulvar\u0131","landuse_kind":"urban_area"},"arcs":[[1343],[1344]]},{"type":"LineString","properties":{"kind":"major_road","name:en":"Taza Khiyavan - Sarbaz-e-Shahid","sort_rank":380,"kind_detail":"primary","source":"openstreetmap.org","min_zoom":8.0,"name:az":"T\u0259z\u0259 Xiyavan - S\u0259rbaze \u015e\u0259hid","landuse_kind":"urban_area","id":36575925},"arcs":[1345]},{"type":"LineString","properties":{"kind":"major_road","name:en":"Janbazan Sq","sort_rank":380,"landuse_kind":"residential","source":"openstreetmap.org","min_zoom":8.0,"kind_detail":"primary","id":199732267},"arcs":[1346]},{"type":"LineString","properties":{"kind":"major_road","name:en":"Baharestan Sq","sort_rank":380,"landuse_kind":"urban_area","source":"openstreetmap.org","min_zoom":8.0,"kind_detail":"primary","id":202284921},"arcs":[1347]},{"type":"LineString","properties":{"kind":"major_road","name:en":"22 Bahman Boulevard","sort_rank":380,"landuse_kind":"urban_area","source":"openstreetmap.org","min_zoom":8.0,"kind_detail":"primary","id":496414987},"arcs":[1348]},{"type":"MultiLineString","properties":{"kind":"major_road","name:en":"Khatib Bridge","sort_rank":381,"landuse_kind":"urban_area","source":"openstreetmap.org","min_zoom":8.0,"name:az":"X\u0259tib K\u00f6rp\u00fcs\u00fc","kind_detail":"trunk"},"arcs":[[1349],[1350]]},{"type":"LineString","properties":{"kind":"major_road","name:en":"Saat Qaba\u011f\u0131","sort_rank":380,"landuse_kind":"urban_area","source":"openstreetmap.org","min_zoom":8.0,"kind_detail":"primary","id":254360557},"arcs":[1351]},{"type":"MultiLineString","properties":{"source":"openstreetmap.org","kind":"major_road","name:en":"Golshahr Boulevard","landuse_kind":"urban_area","sort_rank":380,"kind_detail":"primary","min_zoom":8.0},"arcs":[[1352],[1353]]},{"type":"MultiLineString","properties":{"source":"openstreetmap.org","kind":"major_road","name:en":"Dr Hesabi Boulevard","landuse_kind":"urban_area","sort_rank":380,"kind_detail":"primary","min_zoom":8.0},"arcs":[[1354],[1355],[1356],[1357],[1358],[1359],[1360],[1361]]},{"type":"LineString","properties":{"kind":"major_road","name:en":"Hafez Sq.","sort_rank":381,"landuse_kind":"urban_area","source":"openstreetmap.org","min_zoom":8.0,"kind_detail":"trunk","id":174859184},"arcs":[1362]},{"type":"LineString","properties":{"source":"openstreetmap.org","kind":"major_road","name:en":"17 Shahrivar Jadid","landuse_kind":"urban_area","sort_rank":380,"kind_detail":"primary","min_zoom":8.0},"arcs":[1363]},{"type":"MultiLineString","properties":{"source":"openstreetmap.org","kind":"major_road","name:en":"Golestan","landuse_kind":"urban_area","sort_rank":380,"kind_detail":"primary","min_zoom":8.0},"arcs":[[1364],[1365],[1366],[1367]]},{"type":"MultiLineString","properties":{"kind":"major_road","name:en":"Rasta Kucha - Shahid Motahhari","sort_rank":380,"kind_detail":"primary","source":"openstreetmap.org","min_zoom":8.0,"name:az":"Rasta k\u00fc\u00e7\u0259 - \u015e\u0259hid Mot\u0259hh\u0259ri","landuse_kind":"urban_area"},"arcs":[[1368],[1369]]},{"type":"LineString","properties":{"kind":"major_road","sort_rank":381,"landuse_kind":"urban_area","source":"openstreetmap.org","min_zoom":8.0,"kind_detail":"trunk","ref":"32","id":538069003},"arcs":[1370]},{"type":"MultiLineString","properties":{"kind":"major_road","name:en":"South Tavanir Boulevard","sort_rank":381,"landuse_kind":"urban_area","source":"openstreetmap.org","min_zoom":8.0,"name:az":"G\u00fcney T\u0259vanir Bulvar\u0131","kind_detail":"trunk"},"arcs":[[1371],[1372],[1373]]},{"type":"MultiLineString","properties":{"kind":"major_road","network":"ir:national","sort_rank":381,"kind_detail":"trunk","source":"openstreetmap.org","min_zoom":8.0,"shield_text":"14","ref":"14;21;32"},"arcs":[[1374],[1375],[1376],[1377]]},{"type":"MultiLineString","properties":{"kind":"highway","network":"ir:national","sort_rank":383,"landuse_kind":"urban_area","source":"openstreetmap.org","min_zoom":8.0,"all_networks":["ir:national","ir:national","AH"],"kind_detail":"motorway","shield_text":"14","ref":"14;32","all_shield_texts":["14","32","1"]},"arcs":[[1378],[1379],[1380],[1381]]},{"type":"MultiLineString","properties":{"source":"openstreetmap.org","kind":"major_road","name:en":"Golkar Boulevard","landuse_kind":"urban_area","sort_rank":380,"kind_detail":"primary","min_zoom":8.0},"arcs":[[1382],[1383]]},{"type":"LineString","properties":{"kind":"major_road","name:en":"Khayyam Square","sort_rank":381,"kind_detail":"trunk","is_bicycle_related":true,"source":"openstreetmap.org","min_zoom":8.0,"name:az":"X\u0259yyam Meydan\u0131","landuse_kind":"urban_area","id":233924031},"arcs":[1384]},{"type":"MultiLineString","properties":{"kind":"major_road","network":"ir:national","sort_rank":381,"kind_detail":"trunk","source":"openstreetmap.org","min_zoom":8.0,"shield_text":"32","ref":"32"},"arcs":[[1385],[1386],[1387],[1388],[1389],[1390],[1391],[1392],[1393],[1394]]},{"type":"MultiLineString","properties":{"kind":"highway","network":"AH","sort_rank":383,"landuse_kind":"urban_area","source":"openstreetmap.org","min_zoom":8.0,"all_networks":["AH"],"kind_detail":"motorway","shield_text":"1","all_shield_texts":["1"]},"arcs":[[1395],[1396]]},{"type":"MultiLineString","properties":{"source":"openstreetmap.org","kind":"major_road","sort_rank":381,"kind_detail":"trunk","ref":"11","min_zoom":8.0},"arcs":[[1397],[1398],[1399],[1400]]},{"type":"LineString","properties":{"kind":"major_road","name:en":"Qara Aghaj - Qods","sort_rank":380,"kind_detail":"primary","source":"openstreetmap.org","min_zoom":8.0,"name:az":"Q\u0259r\u0259 A\u011fac - Qods","landuse_kind":"urban_area"},"arcs":[1401]},{"type":"LineString","properties":{"kind":"major_road","name:en":"Akhini - Akhuni","sort_rank":381,"kind_detail":"trunk","source":"openstreetmap.org","min_zoom":8.0,"name:az":"Ax\u0131n\u0131 - Axuni","landuse_kind":"urban_area","id":238888941},"arcs":[1402]},{"type":"LineString","properties":{"name:fa":"\u0628\u0644\u0648\u0627\u0631 \u0634\u0647\u06cc\u062f \u0631\u062c\u0627\u06cc\u06cc","kind":"major_road","name:az":"\u015e\u0259hid R\u0259cayi","sort_rank":381,"landuse_kind":"urban_area","source":"openstreetmap.org","min_zoom":8.0,"name:en":"Shahid Rajayi Boulevard","kind_detail":"trunk"},"arcs":[1403]},{"type":"LineString","properties":{"kind":"major_road","name:en":"Khaqani","sort_rank":380,"kind_detail":"primary","source":"openstreetmap.org","min_zoom":8.0,"name:az":"Xaqani","landuse_kind":"urban_area","id":238300015},"arcs":[1404]},{"type":"LineString","properties":{"kind":"major_road","name:en":"Ehtesham - Taza Bahar","sort_rank":380,"landuse_kind":"urban_area","source":"openstreetmap.org","min_zoom":8.0,"kind_detail":"primary","id":352263141},"arcs":[1405]},{"type":"LineString","properties":{"kind":"major_road","name:en":"Basij Boulevard - Tehran Road","network":"ir:national","sort_rank":381,"kind_detail":"trunk","source":"openstreetmap.org","min_zoom":8.0,"name:az":"B\u0259sic Bulvar\u0131 - Tehran Yolu","landuse_kind":"urban_area","shield_text":"14","ref":"14;32","id":368771159},"arcs":[1406]},{"type":"LineString","properties":{"kind":"major_road","name:en":"Sa'at Square","sort_rank":380,"landuse_kind":"urban_area","source":"openstreetmap.org","min_zoom":8.0,"kind_detail":"primary","id":174859164},"arcs":[1407]},{"type":"MultiLineString","properties":{"kind":"major_road","network":"ir:national","sort_rank":381,"kind_detail":"trunk","source":"openstreetmap.org","min_zoom":8.0,"shield_text":"14","ref":"14;16;32"},"arcs":[[1408],[1409]]},{"type":"LineString","properties":{"kind":"major_road","name:en":"Vasmish Road","sort_rank":381,"kind_detail":"trunk","source":"openstreetmap.org","min_zoom":8.0,"name:az":"Vasm\u0131\u015f Yolu","landuse_kind":"urban_area","id":317924117},"arcs":[1410]},{"type":"MultiLineString","properties":{"kind":"major_road","name:en":"Kamarbandi Miyani - Niyayesh Boulevard","sort_rank":381,"landuse_kind":"urban_area","is_bicycle_related":true,"source":"openstreetmap.org","min_zoom":8.0,"name:az":"Orta K\u0259m\u0259rb\u0259ndi - Niyaye\u015f bulvar\u0131","kind_detail":"trunk"},"arcs":[[1411],[1412]]},{"type":"LineString","properties":{"kind":"major_road","name:en":"Atar e Neyshaburi Square","sort_rank":381,"kind_detail":"trunk","is_bicycle_related":true,"source":"openstreetmap.org","min_zoom":8.0,"landuse_kind":"urban_area","id":233669940},"arcs":[1413]},{"type":"LineString","properties":{"kind":"major_road","name:en":"Yekatukan - Sattarkhan","sort_rank":380,"kind_detail":"primary","source":"openstreetmap.org","min_zoom":8.0,"name:az":"Yek\u0259t\u00fckan - S\u0259ttarxan","landuse_kind":"urban_area","id":196523917},"arcs":[1414]},{"type":"MultiLineString","properties":{"source":"openstreetmap.org","kind":"major_road","name:en":"Bakery Highway","kind_detail":"trunk","sort_rank":381,"landuse_kind":"urban_area","min_zoom":8.0},"arcs":[[1415],[1416]]},{"type":"LineString","properties":{"source":"openstreetmap.org","kind":"major_road","name:en":"Shahgholi Boulevard","sort_rank":381,"kind_detail":"trunk","min_zoom":8.0,"id":329042642},"arcs":[1417]}]},"earth":{"type":"GeometryCollection","geometries":[{"type":"Polygon","properties":{"sort_rank":10,"source":"naturalearthdata.com","min_zoom":0.0,"kind":"earth","area":98022885885},"arcs":[[1418]]}]},"landuse":{"type":"GeometryCollection","geometries":[{"type":"Polygon","properties":{"kind":"protected_area","protect_class":"4","area":1599800064,"sort_rank":17,"source":"openstreetmap.org","min_zoom":4.0,"tier":2,"id":-6531584,"osm_relation":true},"arcs":[[1419]]},{"type":"MultiPolygon","properties":{"source":"openstreetmap.org","kind":"military","tier":3,"area":51712253,"sort_rank":45,"min_zoom":8.0},"arcs":[[[1420]],[[1421]],[[1422]]]},{"type":"MultiPolygon","properties":{"source":"naturalearthdata.com","kind":"urban_area","name":"","area":4012143094,"sort_rank":11,"min_zoom":4.0},"arcs":[[[1423]],[[1424]],[[1425]],[[1426]],[[1427]],[[1428]],[[1429]],[[1430]],[[1431]]]},{"type":"Polygon","properties":{"source":"openstreetmap.org","kind":"aerodrome","area":17525100,"tier":3,"id":88907729,"min_zoom":8.0,"sort_rank":60},"arcs":[[1432]]},{"type":"MultiPolygon","properties":{"source":"openstreetmap.org","kind":"residential","tier":2,"area":84873986,"sort_rank":20,"min_zoom":8.0},"arcs":[[[1433]],[[1434]]]}]}},"type":"Topology","transform":{"translate":[45.0,37.7185903256],"scale":[0.0003433228,0.0002695314]},"arcs":[[[264,2314],[-25,-36],[33,-39],[29,-217]],[[763,4096],[40,-336],[-123,-249],[58,-73],[26,-205],[68,-117],[21,-91],[136,-176],[-61,-25],[-142,-141],[-173,-43],[-113,-156],[-156,-68],[-80,-102]],[[301,2022],[76,15],[195,-38],[256,7],[275,-44],[73,-86],[121,-76],[250,-300],[24,-175],[-68,-106],[56,-52],[-12,-135],[-31,-43],[40,-88],[-72,-74],[6,-30],[-186,-35],[-68,-37],[-37,-68],[-17,-84],[39,-182],[-22,-51],[42,-56],[-5,-29],[65,-61],[2,-58],[20,19],[42,-38],[3,-42],[26,33],[38,-32],[6,-74],[24,10],[-5,42],[55,-2],[-35,59],[26,41],[35,10],[24,-23],[5,28],[72,36],[96,13],[156,-20],[123,-97],[254,-99]],[[767,0],[-8,109],[-145,180],[-183,119],[-64,1],[-118,65],[-118,274],[1,136],[48,114],[87,70],[243,68],[7,34],[35,3],[-1,71],[35,11],[-36,9],[12,32],[27,-3],[-26,25],[39,25],[-18,20],[16,137],[-100,23],[-21,119],[-34,-32],[28,-64],[-53,-73],[-67,22],[6,67],[-40,53],[-48,-76],[-51,1],[-36,-50],[-62,16],[-43,41],[-41,-20],[-31,32],[-1,77],[41,79],[26,2],[3,-29],[38,23],[-30,14],[-7,45],[24,39],[54,19],[-34,66],[18,36],[70,64],[92,28]],[[3778,1319],[137,-56],[57,-144]],[[3972,1119],[-57,144],[-137,56]],[[755,0],[-15,139],[-3,16],[-13,29],[-71,96],[-10,44],[-109,63],[-5,6],[-21,26],[-16,26],[-28,-8],[-40,-25],[-195,91],[-54,13],[8,41],[-39,238],[-5,78],[11,66],[25,60],[39,61],[52,40],[138,30],[60,22],[64,35],[25,29],[10,48],[2,124],[8,19],[12,18],[-4,40],[-18,66],[-19,30],[-23,21],[-17,27],[-1,51],[-20,0],[-33,-92],[-42,-42],[-44,19],[-39,89],[-50,-44],[-61,-45],[-67,-32],[-63,-7],[-73,50],[-11,48],[0,55],[11,37],[33,-12],[26,39],[9,41],[18,34],[47,14],[-6,161],[136,66],[624,16],[155,-24],[162,-152],[140,-181],[57,-38],[26,-35],[12,-80],[3,-79],[-3,-36],[14,-31],[-22,-73],[-62,-124],[36,-34],[-27,-111],[32,-58],[-99,-53],[14,-17],[13,-22],[13,-11],[-21,-24],[-63,-49],[-14,-16],[-9,-18],[-62,-82],[-10,-30],[-4,-48],[4,-88],[17,-62],[5,-113],[-2,-5],[25,-66],[42,-74],[51,-62],[75,-40],[17,-34],[13,-35],[13,-18],[38,7],[32,32],[17,43],[-5,45],[79,17],[280,5],[61,-35],[130,-124],[42,-22],[-1358,0]],[[2179,0],[22,32],[1,-32],[-23,0]],[[755,0],[-15,139],[-3,16],[-13,29],[-71,96],[-10,44],[-109,63],[-5,6],[-21,26],[-16,26],[-28,-8],[-40,-25],[-195,91],[-54,13],[8,41],[-39,238],[-5,78],[11,66],[25,60],[39,61],[52,40],[138,30],[60,22],[64,35],[25,29],[10,48],[2,124],[8,19],[12,18],[-4,40],[-18,66],[-19,30],[-23,21],[-17,27],[-1,51],[-20,0],[-33,-92],[-42,-42],[-44,19],[-39,89],[-50,-44],[-61,-45],[-67,-32],[-63,-7],[-73,50],[-11,48]],[[0,1659],[11,37],[33,-12],[26,39],[9,41],[18,34],[47,14],[-6,161],[136,66],[624,16],[155,-24],[162,-152],[140,-181],[57,-38],[26,-35],[12,-80],[3,-79],[-3,-36],[14,-31],[-22,-73],[-62,-124],[36,-34],[-27,-111],[32,-58],[-99,-53],[14,-17],[13,-22],[13,-11],[-21,-24],[-63,-49],[-14,-16],[-9,-18],[-62,-82],[-10,-30],[-4,-48],[4,-88],[17,-62],[5,-113],[-2,-5],[25,-66],[42,-74],[51,-62],[75,-40],[17,-34],[13,-35],[13,-18],[38,7],[32,32],[17,43],[-5,45],[79,17],[280,5],[61,-35],[130,-124],[42,-22]],[[2179,0],[22,32],[1,-32]],[[4016,1133],[11,5]],[[4027,1138],[-11,-5]],[[3582,1219],[-68,14]],[[3520,1226],[61,-7]],[[3582,1218],[60,3]],[[3642,1221],[-59,-2]],[[3645,1221],[36,1]],[[3680,1222],[-35,-1]],[[3696,1220],[-14,3]],[[3682,1222],[14,-2]],[[3697,1219],[32,-17]],[[3729,1202],[-32,18]],[[3729,1202],[61,-10]],[[3790,1193],[-60,9]],[[3836,1192],[-44,0]],[[3792,1191],[45,0]],[[3839,1190],[25,-10]],[[3864,1180],[-25,11]],[[3866,1179],[85,-64]],[[3951,1115],[-85,64]],[[3952,1114],[19,-4]],[[3971,1111],[-19,4]],[[3973,1110],[10,2]],[[3983,1112],[20,3]],[[3998,1113],[-15,-1]],[[3983,1112],[-10,-2]],[[3567,1502],[7,-37]],[[3575,1465],[-3,41]],[[3575,1459],[10,-93]],[[3587,1366],[-12,93]],[[3585,1364],[6,-42]],[[3593,1305],[-6,60]],[[3593,1314],[0,2]],[[3739,1297],[-36,-9]],[[3726,1334],[-1,1],[-1,0],[1,-1],[1,0]],[[3642,1486],[-22,4]],[[3620,1489],[21,-3]],[[3654,1319],[-1,1],[0,-2],[1,0],[0,1]],[[3684,1418],[-1,-3]],[[3683,1414],[2,3]],[[3756,1318],[7,16]],[[3338,1158],[-15,-35]],[[3324,1123],[14,35]],[[3347,1185],[-7,-25]],[[3341,1160],[7,25]],[[4045,1177],[1,-3]],[[3916,1259],[-2,-1]],[[3919,1261],[-1,-1]],[[3918,1260],[6,-12]],[[3920,1261],[-1,0]],[[3926,1247],[-6,14]],[[3923,1253],[-3,8]],[[3934,1237],[2,4]],[[3972,1107],[2,12]],[[3958,1275],[-1,-20]],[[3957,1255],[2,20]],[[3960,1286],[-2,-10]],[[3959,1276],[1,10]],[[672,0],[77,90],[79,45],[-77,-43],[-85,-92]],[[1207,337],[42,-94],[93,-30],[56,-58],[67,38],[101,-15],[58,41],[72,161],[-13,157]],[[1688,544],[-5,-7]],[[1688,544],[351,71],[239,-58],[348,115],[108,0]],[[3626,1378],[0,-55]],[[3626,1323],[0,54]],[[2859,2092],[178,-150]],[[3037,1942],[-145,134],[-32,17]],[[3237,1804],[-160,103]],[[3077,1906],[65,-59],[95,-43]],[[3349,1734],[112,-86]],[[3461,1649],[-86,69],[-26,17]],[[3521,1589],[1,-1]],[[3522,1588],[-1,1]],[[2858,2094],[1,-1],[1,0],[-1,2],[-1,-1]],[[3820,1290],[4,10]],[[4047,1166],[-19,-32]],[[3385,1175],[-37,10]],[[3348,1185],[38,-11]],[[2202,2901],[8,-18]],[[3743,1367],[-6,-26]],[[3841,1234],[16,-3]],[[3858,1231],[-17,3]],[[3748,1392],[-1,1],[-1,0],[1,-1],[1,0]],[[3983,1253],[3,0]],[[3984,1250],[8,9]],[[3991,1260],[-5,-6]],[[3654,1315],[13,-39]],[[3668,1276],[-14,39]],[[3668,1272],[27,-11]],[[3695,1262],[-26,10]],[[3716,1262],[21,-3]],[[3737,1259],[-21,4]],[[3738,1259],[17,-3]],[[3755,1256],[-17,3]],[[3800,1252],[-41,4]],[[3759,1256],[41,-4]],[[3816,1258],[-15,-5]],[[3801,1252],[15,5]],[[3853,1284],[-34,-25]],[[3819,1258],[35,26]],[[3634,1253],[2,0],[2,2],[-1,0],[-3,-2]],[[3913,1344],[2,-12]],[[3915,1332],[-1,12]],[[3772,1377],[0,-1],[1,0],[0,1],[-1,0]],[[2088,1673],[1,1]],[[2092,1671]],[[2105,1662],[-1,0]],[[2217,2908],[-1,7]],[[2241,2460],[1,0]],[[2252,2535],[-4,-129]],[[2248,2405],[4,130]],[[2827,90],[-41,-20]],[[2792,72],[35,17]],[[2828,90]],[[3150,795],[88,-51]],[[3238,744],[-87,51]],[[3211,744]],[[3214,744]],[[3239,744],[2,-1]],[[3240,744],[-1,0]],[[3239,744],[-1,1],[0,-1],[0,-1],[1,1]],[[3919,1262],[-19,12]],[[2081,2719],[68,-59]],[[2155,2654],[-11,16]],[[3820,1235],[-80,7]],[[3741,1241],[79,-6]],[[3833,1234],[8,0]],[[3841,1234],[-8,1]],[[2844,817],[-14,-1]],[[2830,815],[14,1]],[[2844,816],[10,1]],[[2854,818],[-10,-1]],[[2868,820],[-13,-2]],[[2855,817],[13,2]],[[3504,1229],[82,70]],[[3586,1299],[7,6]],[[3591,1322],[2,-17],[-7,-6]],[[3586,1299],[-71,-63]],[[2149,2660],[8,-92]],[[2158,2568],[0,50],[-3,36]],[[2727,2230],[45,-28],[50,-26]],[[2822,2176],[20,-11],[1,-2]],[[2843,2163],[15,-69]],[[2859,2095],[-6,62],[-10,6]],[[2843,2163],[-21,13]],[[2822,2176],[-39,24],[-50,41]],[[3833,1235],[-13,0]],[[3820,1235],[13,-1]],[[1564,4096],[-118,-106],[-237,11],[-76,-28],[-292,-244],[-210,-130]],[[3572,1506],[-11,12]],[[3564,1510],[3,-8]],[[4046,1155],[1,11]],[[3798,1436],[1,-1],[0,1],[-1,0]],[[3753,1338],[0,1]],[[0,735],[21,-134],[159,-343],[7,-50],[-41,-115]],[[69,504],[-69,239]],[[0,3122],[8,4]],[[8,3126],[-8,-3]],[[98,3157],[29,14]],[[127,3171],[-29,-13]],[[631,3599],[-182,-14],[-206,-141],[-116,-273]],[[145,91],[32,-91]],[[179,0],[-33,90]],[[146,93],[-1,-2]],[[145,91],[1,-1]],[[146,90],[1,1],[-1,2]],[[3062,864],[-2,1],[0,-2],[1,0],[1,1]],[[3571,1499],[1,-2]],[[3573,1498],[-2,1]],[[3402,1607],[38,-148]],[[3441,1460],[-38,146]],[[3436,1667],[-33,-58]],[[3404,1609],[33,57]],[[3444,1453],[26,-132],[38,-65]],[[3509,1256],[-39,68],[-25,130]],[[3508,1250],[3,-16]],[[3511,1236],[-2,14]],[[3652,1319],[-59,-6]],[[3593,1312],[59,7]],[[3733,1324],[-79,-5]],[[3655,1319],[78,5]],[[3514,1233],[-2,2]],[[3581,1219],[1,-1]],[[3583,1219],[-1,0]],[[3645,1221],[-3,0]],[[3642,1221],[3,0]],[[3682,1223],[-2,-1]],[[3681,1222],[1,0]],[[3696,1220],[1,-1]],[[3697,1220],[-1,0]],[[3729,1202]],[[3730,1202],[-1,0]],[[3792,1192],[-2,1]],[[3790,1192],[2,-1]],[[3839,1191],[-3,1]],[[3837,1191],[2,-1]],[[3864,1180],[2,-1]],[[3866,1179],[-2,1]],[[3951,1115],[1,-1]],[[3952,1115],[-1,0]],[[3971,1110],[2,0]],[[3973,1110],[-2,1]],[[3997,1179],[-8,-21]],[[3991,1158],[7,21]],[[3460,1216],[-136,-30],[-92,-112],[-183,-151],[-36,-79]],[[3014,843],[36,80],[184,151],[90,111],[136,31]],[[3504,1229],[-33,-9]],[[3471,1219],[33,10]],[[4010,1184],[0,-4]],[[4010,1180],[0,3]],[[3761,1318],[-4,-61]],[[3471,1220],[-11,-4]],[[3460,1216],[11,3]],[[3257,785],[-28,47],[28,-48]],[[3711,1244],[-4,-20]],[[3707,1224],[5,19]],[[3979,1181],[-6,0]],[[3974,1181],[5,0]],[[4000,1189],[-2,-9]],[[3998,1180],[2,9]],[[3725,1389],[21,-5]],[[3770,1378],[-22,5]],[[3797,1370],[-23,6]],[[3950,1191],[-1,0],[0,-1],[1,0],[0,1]],[[3706,1462],[-6,7],[-8,-5],[5,-8],[9,6]],[[3789,1454],[9,-18]],[[3864,1176],[0,2],[-1,-1],[0,-1],[1,0]],[[2079,4096],[8,0]],[[4009,1150],[1,0],[-1,1],[0,-1]],[[3701,1456],[17,-42]],[[3719,1414],[-9,50]],[[3719,1410],[2,-18]],[[3722,1392],[-2,19]],[[1116,291],[-45,-24]],[[1071,266],[45,25]],[[4010,1178],[18,-30]],[[4032,1142],[-22,37]],[[3956,1255],[0,-1]],[[3957,1254],[26,-2]],[[3983,1253],[-26,1]],[[3832,1326],[-8,-26]],[[3924,1248],[20,-8]],[[3944,1240],[43,-18]],[[3987,1223],[-43,17]],[[3944,1240],[-18,7]],[[3624,1309],[-3,-20]],[[3621,1288],[4,21]],[[3917,1178],[2,-24]],[[3919,1153],[-1,25]],[[4028,1134],[-1,-2]],[[4047,1168],[0,-2]],[[3915,1237],[5,-5]],[[4088,1142],[8,-3]],[[2823,199],[18,-25]],[[2847,139],[-2,10]],[[3991,1155],[17,-5]],[[4008,1151],[-17,5]],[[0,1987],[264,89]],[[264,2076],[-197,-61],[-67,-26]],[[264,2076],[269,122],[183,29],[204,-14],[234,-125],[110,-242],[212,-90],[191,-24],[138,-50]],[[1917,1655],[46,9]],[[2090,1674],[30,-17]],[[2120,1658],[-28,17]],[[2120,1658],[0,-1]],[[2120,1657],[1,1],[-1,0]],[[2120,1657],[31,-1]],[[2151,1656],[-30,2]],[[2195,1661],[-44,-5]],[[2411,1709],[-146,-41]],[[2411,1709],[60,87],[75,33],[3,3]],[[2549,1832],[60,75]],[[2609,1907],[29,35],[181,111]],[[2819,2055],[-181,-112],[-29,-36]],[[2609,1907],[-59,-74],[-1,-1]],[[2549,1832],[-79,-36],[-59,-87]],[[3594,1312],[-1,1],[-1,0],[0,-1],[2,0]],[[3749,1320],[-10,-23]],[[3619,1284],[3,-18]],[[3623,1266],[-2,20]],[[3623,1265],[11,-12]],[[3635,1254],[-12,11]],[[2163,2656],[-1,0],[1,0]],[[4090,1165],[-15,0]],[[4076,1164],[14,1]],[[3776,1320],[0,12]],[[3987,1222],[17,-5]],[[4045,1176],[-37,39],[-4,3],[-17,5]],[[4006,1216],[30,-37],[11,-4]],[[3889,1328],[-78,12]],[[3889,1328],[78,-6]],[[3964,1326],[-75,2]],[[3991,1198],[9,-9]],[[4010,1184],[-18,15]],[[4000,1189],[10,-5]],[[4010,1183],[13,-4]],[[4023,1180],[-12,4]],[[3943,1224],[47,-25]],[[3990,1200],[-46,25]],[[3931,1233],[8,-17]],[[3939,1215],[10,-24]],[[3949,1191],[-9,24]],[[3950,1190],[18,-49]],[[3970,1140],[-20,50]],[[2120,4096],[1,0]],[[2128,4096],[49,-17],[31,17]],[[3619,1286],[-38,-1],[38,-1]],[[3751,1464],[38,-10]],[[3789,1455],[-37,9]],[[4010,1178],[0,1],[0,-1]],[[3900,1274],[-41,24]],[[3461,1648],[60,-59]],[[3521,1589],[-60,60]],[[3522,1588],[42,-78]],[[3561,1518],[-32,60],[-7,10]],[[98,3158],[-90,-32]],[[8,3126],[90,31]],[[1805,1682],[112,-27]],[[1963,1664],[24,7]],[[1987,1671],[41,37],[31,-15]],[[2059,1693],[-31,16],[-41,-38]],[[2059,1692],[31,-18]],[[2092,1675],[-32,18]],[[2832,2062],[-13,-7]],[[2819,2053],[14,8]],[[2858,2094],[-25,-31]],[[2834,2062],[25,30]],[[2060,1693],[-1,0]],[[2059,1693],[1,-1],[0,1]],[[2833,2063],[-1,-1],[1,-1],[1,1],[-1,1]],[[3737,1260],[2,37]],[[3787,1333],[-1,0],[-1,0],[1,-1],[1,1]],[[3662,1345],[-8,-22]],[[3654,1323],[8,22]],[[3663,1369],[-1,-20]],[[3663,1349],[1,20]],[[3674,1394],[-10,-21]],[[3664,1373],[10,21]],[[3683,1415],[-8,-19]],[[3675,1396],[8,18]],[[3694,1457],[-10,-39]],[[3685,1417],[15,38]],[[4023,1115],[-4,2],[-4,-1]],[[4015,1116],[-17,-3]],[[4003,1115],[12,1]],[[4015,1116],[3,0],[4,-1]],[[4046,1174],[1,-6]],[[1753,3864],[4,49]],[[1834,3745],[-51,64]],[[3971,1104],[1,3]],[[3812,1466],[-63,42],[-44,-42]],[[3706,1462],[42,45],[64,-41]],[[3706,1262],[5,-14]],[[3713,1248],[-5,14]],[[3679,1480],[13,-17]],[[3697,1469],[-18,11]],[[3975,1325],[-1,-2]],[[3735,1323],[40,-4]],[[3776,1319],[23,-8]],[[3802,1309],[65,-24]],[[2257,2681],[-1,-19]],[[3358,1143]],[[3859,1299],[2,28],[-3,-28]],[[3926,1247],[-59,38],[48,-28]],[[5,708],[2,0]],[[146,90],[17,-58]],[[165,30],[-18,61]],[[1782,4089],[-22,-146]],[[4096,1139],[-7,4]],[[3971,1104],[-1,0],[1,0]],[[3625,1315],[-1,-6]],[[3625,1309],[1,7]],[[1783,3809],[-30,55]],[[1757,3913],[26,183]],[[2211,2905],[-63,122],[-44,253],[-142,189],[-128,276]],[[2710,0],[18,12],[50,46],[21,69]],[[2799,127],[-23,-70],[-49,-44],[-20,-13]],[[2740,684],[-14,-58],[43,-235]],[[2779,391],[-37,286]],[[4022,1115],[28,-33],[36,-13],[10,0]],[[4096,1078],[-46,4],[-27,33]],[[3722,1383],[3,-48]],[[3780,1257],[-4,61]],[[2827,815],[-63,-56],[-24,-75]],[[2742,677],[23,81],[62,57]],[[3013,844],[-145,-24]],[[2869,819],[145,24]],[[2828,814],[2,1],[1,0],[-3,1],[0,-2]],[[2844,817],[-1,-1],[1,0],[0,1]],[[2855,818],[-1,0],[0,-1],[1,1]],[[2869,819],[-1,1],[0,-1],[1,0]],[[4023,1179],[12,-23]],[[4035,1157],[-11,22]],[[4035,1156],[4,-9]],[[4039,1148],[-4,8]],[[3511,1234],[2,-2]],[[3690,1222],[2,-3]],[[3692,1219],[3,-4]],[[3698,1219],[-1,0]],[[3697,1219],[-2,1]],[[3696,1217],[1,2]],[[3697,1219],[0,2]],[[3703,1217],[-6,4]],[[3763,1202],[1,-1]],[[3782,1196],[9,-7]],[[3792,1191],[-1,-1]],[[3914,1345],[8,1]],[[3960,1329],[-1,-8]],[[3965,1326],[8,-4]],[[3975,1326],[-10,1]],[[3973,1320],[12,-1]],[[3974,1325],[0,-1]],[[3974,1323],[1,2]],[[3665,1370],[59,-19]],[[3814,1464],[22,-57],[69,-52]],[[3905,1356],[-69,53],[-22,56]],[[3972,1262],[11,-10]],[[3982,1255],[-10,7]],[[4029,1132],[1,2]],[[4061,1168],[-16,8]],[[3572,1497],[48,-8]],[[3620,1490],[-47,8]],[[3641,1486],[38,-6]],[[3679,1480],[-37,6]],[[3754,1338],[18,-5]],[[3772,1334],[-18,4]],[[3828,1235],[-1,1],[-1,0],[1,-1],[1,0]],[[3692,1219]],[[4027,1132],[-29,-19]],[[4003,1115],[26,17]],[[4030,1134],[16,21]],[[3842,1387],[-21,-33]],[[3822,1354],[21,33]],[[3872,1287],[4,-3]],[[3888,1278],[-6,2]],[[3936,1241],[6,15]],[[3377,1201],[3,0]],[[3437,1666],[1,2]],[[3440,1459],[4,-6]],[[3445,1454],[-4,6]],[[3508,1256],[0,-6]],[[3509,1250],[0,6]],[[3580,1285],[1,-1]],[[3582,1285],[0,2]],[[3582,1401],[0,-1]],[[3621,1289],[-1,-2]],[[3622,1288],[-1,0]],[[3626,1323],[-1,-8]],[[3629,1388],[-2,-5]],[[3627,1383],[0,-1]],[[3627,1382],[-1,-1]],[[3626,1381],[0,-1],[0,-2],[0,3]],[[3626,1316],[0,7]],[[3629,1388],[-2,-5]],[[3627,1383],[-1,-1]],[[3627,1344],[-1,0]],[[3627,1383]],[[3627,1383]],[[3627,1383],[0,-1]],[[3627,1382]],[[3627,1381],[-1,-4],[4,11]],[[3627,1382]],[[3627,1382],[3,6]],[[3641,1415],[-12,-27]],[[3630,1388],[16,30],[37,-3]],[[3632,1255]],[[3633,1254],[-1,-2]],[[3636,1253],[15,-8]],[[3652,1246],[-14,9]],[[3641,1411],[-1,1]],[[3640,1413],[1,-1]],[[3656,1328],[-8,-10]],[[3648,1318],[19,-44]],[[3650,1246]],[[3652,1318],[1,-1],[1,0]],[[3654,1317]],[[3654,1317],[2,2]],[[3654,1319]],[[3654,1319]],[[3654,1319],[-2,0]],[[3652,1319],[2,0]],[[3654,1319]],[[3654,1319],[1,0]],[[3653,1321],[1,0]],[[3654,1321]],[[3654,1316]],[[3654,1316],[-1,0]],[[3653,1321],[1,0]],[[3654,1321]],[[3654,1316]],[[3654,1316]],[[3654,1316],[-1,0]],[[3653,1322],[1,0]],[[3654,1322]],[[3654,1322],[1,0]],[[3655,1315],[-1,0]],[[3654,1315]],[[3654,1315]],[[3654,1323],[0,-1]],[[3654,1322]],[[3654,1322],[1,0]],[[3654,1323],[0,-1]],[[3654,1322]],[[3654,1322],[0,-1]],[[3654,1321]],[[3654,1321],[0,-2]],[[3654,1319]],[[3654,1319],[0,-2]],[[3654,1317],[0,-1]],[[3654,1316]],[[3654,1316],[0,-1]],[[3654,1315]],[[3654,1315]],[[3654,1315],[0,1]],[[3654,1316],[0,1]],[[3654,1317],[0,2]],[[3654,1319]],[[3654,1319],[0,3]],[[3654,1322]],[[3654,1322],[0,1]],[[3655,1245],[20,-12],[10,-5]],[[3685,1228],[4,-2]],[[3689,1226],[1,-1]],[[3689,1226],[-3,1]],[[3686,1227],[-10,7],[-21,12]],[[3661,1320],[-5,8]],[[3656,1310],[0,-1]],[[3662,1347],[-2,-8]],[[3660,1339],[2,6]],[[3662,1345],[1,1]],[[3668,1275],[-7,44]],[[3662,1345]],[[3662,1345]],[[3662,1345]],[[3662,1345]],[[3662,1349],[0,-1]],[[3662,1348],[0,-3]],[[3662,1345]],[[3663,1355],[-1,-8]],[[3662,1345]],[[3662,1345],[1,3]],[[3663,1348],[0,1]],[[3662,1348]],[[3662,1348],[1,0]],[[3663,1348]],[[3663,1348]],[[3663,1371],[0,-2]],[[3663,1369],[0,-6]],[[3663,1347],[0,1]],[[3663,1348],[0,7]],[[3664,1369]],[[3664,1369],[-1,0]],[[3663,1369]],[[3663,1369]],[[3666,1378],[-2,-6]],[[3664,1372],[-1,-1]],[[3663,1363],[1,7]],[[3664,1373],[0,-1]],[[3664,1372],[0,-1]],[[3664,1371],[0,-1]],[[3664,1370],[-1,-1]],[[3663,1369]],[[3664,1369]],[[3664,1369],[0,1]],[[3664,1370],[0,1]],[[3664,1371],[0,1]],[[3664,1372],[0,1]],[[3664,1372]],[[3664,1372]],[[3664,1372]],[[3664,1372],[1,0]],[[3664,1284]],[[3664,1371],[3,7]],[[3665,1284]],[[3666,1422],[0,-1]],[[3667,1275],[0,1]],[[3667,1276],[1,0]],[[3668,1276]],[[3667,1276]],[[3667,1276],[1,-1]],[[3668,1275],[0,-2]],[[3668,1273],[0,-1]],[[3667,1273],[1,-1]],[[3668,1272],[5,-9]],[[3669,1272]],[[3669,1272],[-1,2]],[[3668,1274],[0,1]],[[3668,1275],[0,1]],[[3668,1276]],[[3669,1272]],[[3669,1272],[-1,0]],[[3668,1272]],[[3673,1264],[-4,10]],[[3679,1404],[-4,-8]],[[3675,1396],[-1,-1]],[[3674,1395]],[[3674,1395],[0,-1]],[[3674,1394],[-4,-8]],[[3671,1386],[3,8]],[[3674,1394],[1,1]],[[3675,1395]],[[3675,1395],[0,1]],[[3675,1396],[4,8]],[[3683,1418],[-10,7]],[[3675,1394],[-1,0]],[[3674,1394]],[[3674,1394]],[[3675,1396],[0,-1]],[[3675,1395]],[[3675,1395],[-1,-1]],[[3674,1394],[1,1]],[[3675,1395]],[[3675,1395],[0,1]],[[3675,1396]],[[3675,1396]],[[3675,1396],[1,0]],[[3695,1450],[-18,-27]],[[3678,1230],[0,-2]],[[3678,1230],[11,-4]],[[3689,1226],[7,-3]],[[3696,1224],[-10,3]],[[3686,1227],[-1,1]],[[3685,1228],[-5,1],[-2,1]],[[3682,1322],[0,-1]],[[3697,1221],[-7,2]],[[3706,1263],[-3,0]],[[3703,1263],[-9,-1]],[[3694,1261],[3,0]],[[3697,1261],[6,1]],[[3703,1262],[3,0]],[[3716,1263],[-6,0]],[[3710,1263],[-2,0]],[[3708,1263],[-2,0]],[[3706,1263],[-3,-1]],[[3703,1262],[-8,0]],[[3695,1261],[2,0]],[[3697,1261],[17,1]],[[3714,1262],[2,0]],[[3697,1223],[1,0]],[[3698,1223],[11,1]],[[3730,1224],[-7,0]],[[3723,1224],[-7,0]],[[3716,1224],[-2,0],[-9,0],[-7,0],[0,-1]],[[3703,1262]],[[3703,1262]],[[3703,1262],[0,1]],[[3703,1263]],[[3717,1263],[-7,1]],[[3710,1264],[-2,0]],[[3730,1224],[-8,0]],[[3722,1224],[-14,1]],[[3708,1263],[6,-1]],[[3714,1262],[3,0]],[[3709,1224],[5,0],[2,0]],[[3716,1224],[14,-1]],[[3709,1224],[7,-1]],[[3716,1223],[14,0]],[[3710,1264]],[[3710,1264],[0,-1]],[[3710,1263]],[[3716,1224]],[[3716,1224]],[[3716,1224],[0,-1]],[[3716,1223],[-1,0]],[[3721,1386],[68,-47],[20,-7],[48,-35],[1,-1]],[[3858,1296]],[[3858,1296],[9,-6],[5,-3]],[[3723,1223],[0,1]],[[3723,1224],[-1,0]],[[3722,1224]],[[3730,1223],[9,-3]],[[3739,1223],[-9,1]],[[3732,1260],[5,-4]],[[3744,1258],[-8,1]],[[3736,1259],[-4,2]],[[3735,1258],[1,1]],[[3736,1259],[1,1]],[[3737,1259],[1,0]],[[3738,1259],[-1,0]],[[3738,1257],[6,0]],[[3859,1298]],[[3859,1298],[-1,1]],[[3858,1299],[-20,25],[0,2],[-95,45]],[[3757,1257],[-8,-1]],[[3749,1256],[8,0]],[[3759,1256]],[[3759,1256],[-1,0]],[[3758,1256],[-1,0]],[[3757,1256],[-1,0]],[[3756,1256],[-1,0]],[[3755,1256],[1,0]],[[3756,1256],[1,0]],[[3757,1256],[1,0]],[[3758,1256],[1,0]],[[3759,1256]],[[3756,1256]],[[3756,1256]],[[3756,1256],[0,1]],[[3757,1255],[9,1]],[[3757,1257],[9,-1]],[[3759,1256]],[[3759,1256]],[[3759,1256],[-1,0]],[[3778,1254],[0,1]],[[3780,1254]],[[3785,1347],[-1,-1]],[[3789,1195],[3,-34],[-3,35]],[[3791,1191],[-1,1]],[[3791,1188],[8,0]],[[3811,1256],[6,1]],[[3817,1257],[0,1]],[[3817,1258],[-6,-2]],[[3819,1259],[-1,0]],[[3818,1259],[0,-1]],[[3818,1258],[-1,0]],[[3817,1258]],[[3817,1258],[-1,0]],[[3816,1257],[1,1]],[[3817,1258]],[[3817,1258],[1,0]],[[3818,1258]],[[3818,1258],[1,0]],[[3817,1257]],[[3817,1257],[0,1]],[[3817,1258]],[[3817,1258]],[[3825,1261],[-7,-2]],[[3818,1259],[-1,0]],[[3817,1259],[0,-1]],[[3817,1258]],[[3817,1258],[1,0]],[[3818,1258]],[[3818,1258],[-1,1]],[[3818,1258],[7,2]],[[3818,1259]],[[3818,1259]],[[3818,1259],[0,-1]],[[3818,1258]],[[3849,1271]],[[3858,1299]],[[3858,1299],[0,-2],[0,-1]],[[3858,1296],[-1,-2],[-2,-6]],[[3855,1288],[-2,-4]],[[3854,1284],[1,4]],[[3855,1288],[2,6],[1,2]],[[3858,1296],[1,2]],[[3859,1298],[0,1]],[[3855,1288]],[[3855,1288]],[[3855,1288]],[[3867,1289],[-9,7]],[[3860,1307],[0,-1]],[[3861,1335],[-1,-1]],[[3861,1334],[-1,-8]],[[3861,1327],[1,8]],[[3862,1335],[0,2]],[[3861,1326],[1,13]],[[3862,1339],[-1,-4]],[[3861,1335],[1,0]],[[3862,1335]],[[3866,1352],[-1,0]],[[3869,1285],[-1,1]],[[3868,1285],[0,-1]],[[3872,1370]],[[3882,1276],[0,-1]],[[3906,1233],[13,-1],[7,2]],[[3926,1234],[4,2]],[[3930,1236],[4,1]],[[3915,1332],[0,-14]],[[3915,1318],[0,14]],[[3923,1253],[-8,3]],[[3917,1302],[5,-5]],[[3923,1298],[-6,5]],[[3920,1261],[-1,1]],[[3935,1241],[-1,-3]],[[3934,1238],[-1,-1],[-3,-1]],[[3930,1236],[-4,-2]],[[3926,1234],[-6,-2]],[[3922,1297],[7,-12]],[[3930,1285],[-7,12]],[[3924,1248],[6,-12]],[[3930,1236]],[[3930,1236],[0,-1]],[[3931,1233],[1,-2]],[[3931,1234],[2,-3]],[[3932,1240],[2,-2]],[[3934,1238],[9,-14]],[[3936,1270],[5,-14]],[[3942,1256],[-5,13]],[[3944,1225],[-3,8]],[[3951,1237]],[[3972,1207],[-1,-1]],[[3979,1205],[0,-1]],[[3987,1222],[7,-1]],[[3994,1221],[1,0]],[[3995,1222],[-8,1]],[[3994,1221]],[[3994,1221],[0,1]],[[4004,1217],[24,-22]],[[4089,1143],[-65,37]],[[4024,1179],[24,-17]],[[3614,1480],[1,-1],[5,1],[0,1],[-6,-1]],[[3621,1288],[-2,-3],[0,-1],[3,3],[-1,1]],[[3622,1266],[1,-1],[0,1],[-1,0]],[[3627,1381],[0,1]],[[3627,1382],[-1,-1]],[[3626,1381],[1,0]],[[3655,1246],[-3,0]],[[3652,1246],[-1,-1]],[[3651,1245],[4,0],[0,1]],[[3664,1371]],[[3664,1371]],[[3664,1371],[-1,0],[1,-1]],[[3664,1370]],[[3664,1370],[0,1]],[[3669,1274],[-1,1]],[[3668,1275]],[[3668,1275],[-1,-1],[1,-1]],[[3668,1273],[0,1]],[[3668,1274],[1,0]],[[3675,1395]],[[3675,1395]],[[3675,1395]],[[3675,1395],[-1,0]],[[3674,1395]],[[3674,1395],[1,0]],[[3675,1395]],[[3675,1395]],[[3675,1395]],[[3708,1263],[-1,1],[-1,-1]],[[3706,1263],[1,-1],[1,1]],[[3708,1263]],[[3758,1256]],[[3758,1256],[-1,1],[0,-1]],[[3757,1256],[-1,0],[1,0]],[[3757,1256],[0,-1],[1,1]],[[3758,1256]],[[3923,1297],[0,1]],[[3923,1298],[-1,-1]],[[3922,1297],[1,0]],[[3990,1200],[0,-1],[1,-1],[1,1],[-2,1]],[[3995,1221],[1,0],[0,1],[-1,0],[0,-1]],[[4001,1190],[-1,0],[0,-1],[1,0],[0,1]],[[4010,1183],[1,1],[-1,0],[0,-1]],[[4023,1179],[1,1]],[[4024,1180],[-1,0],[0,-1]],[[4035,1194],[9,-15]],[[4043,1181],[-7,13]],[[3124,983],[70,-105]],[[3197,876],[-73,107]],[[2173,2655],[-10,1]],[[2163,2656],[10,-1]],[[2190,2657],[-16,-2]],[[2174,2655],[-1,0],[-1,0],[2,0]],[[2174,2655],[15,-1]],[[2219,2650],[-27,6]],[[2192,2654],[27,-4]],[[2194,2655],[0,-1]],[[2205,2653]],[[2232,2647],[-13,3]],[[2254,2642],[-21,5]],[[2252,2605],[4,-19]],[[2253,2614],[-1,-7]],[[2253,2607],[0,7]],[[2257,2586],[-4,19]],[[2253,2614],[2,27]],[[2255,2643],[1,18]],[[2303,2655],[-47,-13]],[[2264,2675],[-7,3]],[[2260,2724],[-3,-43],[3,41]],[[3219,869],[-8,4],[-3,-1]],[[3209,872],[10,-3]],[[3219,868],[13,-5]],[[3232,864],[-13,5]],[[3224,847],[0,1]],[[3233,863],[9,-21]],[[3244,842],[-10,22]],[[3243,840],[16,-19]],[[3259,822],[-15,18]],[[3261,820],[14,-17]],[[3276,805],[-15,17]],[[3276,803],[16,4]],[[3291,807],[-14,-3]],[[3398,803],[-68,26],[-38,-21]],[[3292,807],[38,21],[69,-28]],[[2191,2657],[-2,-1],[1,-3],[3,1],[-2,3]],[[2232,2647],[1,0],[-1,0]],[[2252,2606],[0,-1],[1,0],[0,2],[-1,-1]],[[2256,2642],[-1,1]],[[2255,2643],[-1,-1],[1,-1]],[[2255,2641],[1,1]],[[3233,864],[-1,0],[0,-1],[1,0]],[[3233,863],[0,1]],[[3276,803],[1,1],[-1,1],[-1,-1],[1,-1]],[[3291,807],[1,0],[0,1],[-1,0],[0,-1]],[[3747,1382],[-3,-9]],[[3747,1390],[0,-6]],[[3515,1236],[-11,-7]],[[3980,1245],[-4,-6]],[[3981,1246],[3,4]],[[3965,1262],[0,1],[0,-1]],[[3913,1346],[-1,-1],[1,-2],[1,2],[-1,1]],[[3771,1334],[2,20]],[[3772,1376],[1,-20]],[[3773,1356],[0,20]],[[2265,1668],[-70,-7]],[[3259,822],[0,-2],[1,0],[1,2],[-2,0]],[[3776,1332],[0,2],[-4,0],[0,-1],[4,-1]],[[2159,2676],[7,6]],[[147,93],[35,163],[-113,248]],[[4045,1177],[-2,4]],[[4048,1168],[-1,6]],[[3965,1262],[-46,-1],[46,1]],[[3965,1262],[7,0]],[[3972,1262],[-7,0]],[[3811,1340],[-24,4]],[[3512,1235],[-1,1]],[[3743,1371],[-60,47]],[[3683,1415],[38,-29]],[[2118,3159],[84,-258]],[[3753,1338],[-4,-18]],[[1055,258],[-227,-123]],[[1055,258],[16,8]],[[1071,267],[-16,-9]],[[1116,291],[91,46],[-91,-46]],[[3970,1322],[-9,-35]],[[3961,1286],[13,37]],[[2157,2568],[2,-91],[37,-56],[113,-79],[67,7],[1,-1],[62,-30]],[[2439,2318],[15,-7]],[[2454,2311],[12,-6],[106,-6],[41,0]],[[2613,2299],[3,0],[2,0]],[[2618,2299],[6,-4]],[[2624,2295],[67,-42]],[[2691,2253],[36,-23]],[[2733,2241],[-13,11],[-29,1]],[[2691,2253],[-27,1],[-40,41]],[[2624,2295],[-3,3],[-3,1]],[[2618,2299],[-5,0]],[[2613,2299],[-42,9],[-1,0],[-116,3]],[[2454,2311],[-15,7]],[[2439,2318],[-60,31],[-3,1],[-66,-6],[-114,78],[-37,56],[-1,90]],[[4044,1179],[1,-2]],[[3998,1179],[0,1],[-1,0],[1,-1]],[[3250,740],[0,1],[-1,0],[0,-1],[1,0]],[[3939,1216],[-6,18]],[[3673,1425],[-32,-10]],[[3756,1225],[-18,2]],[[3738,1227],[18,-3]],[[3756,1224],[21,-1]],[[3777,1224],[-21,1]],[[3970,1140],[-2,0],[0,-3],[2,0],[0,3]],[[3513,1232],[7,-6]],[[3711,1248],[0,-4],[0,-1],[2,3],[-2,2]],[[3989,1156],[1,2],[-2,0],[0,-1],[1,-1]],[[2038,1704],[1,0]],[[2040,1704],[-1,-1]],[[2043,1702]],[[2043,1702]],[[2214,2900],[6,-16]],[[2220,2884],[-3,24]],[[2243,2768],[-23,116]],[[2258,2739],[-15,29]],[[2256,2586],[-4,-51]],[[2252,2535],[5,51]],[[2261,2735],[-3,4]],[[2260,2722],[1,13]],[[2261,2735],[-1,-11]],[[2813,226],[5,-13]],[[2818,213],[-4,11]],[[2817,215],[4,-12]],[[2822,203],[-5,12]],[[2818,213],[3,-9]],[[2821,204],[2,-5]],[[2845,149],[-24,55]],[[2828,90]],[[2854,100],[-20,-7]],[[2834,93],[-4,-2]],[[2830,91],[-2,-1]],[[2854,110],[1,-5],[-25,-14]],[[2830,91],[-2,-1]],[[2829,90],[5,3]],[[2834,93],[21,12],[0,5]],[[2847,137],[2,-13]],[[2849,121],[5,-10]],[[2853,114],[-3,8]],[[2853,113],[0,1]],[[2854,111],[-1,3]],[[3062,864],[-1,1]],[[3061,865],[5,13]],[[3062,863]],[[3062,863],[0,1]],[[3062,863],[34,-24]],[[3066,878],[3,6]],[[3068,884],[-2,-6]],[[3086,952],[-18,-67]],[[3069,884],[23,73]],[[3096,840],[-3,4]],[[3097,838],[53,-43]],[[3098,838],[-1,1],[-1,0],[0,-1],[2,0]],[[3151,795],[-53,43]],[[3122,985],[2,-2]],[[3124,983],[-2,2]],[[3194,878],[5,-8]],[[3204,872],[-7,4]],[[3199,870],[8,2]],[[3204,872],[-5,-2]],[[3199,870],[11,-8]],[[3208,872],[-4,0]],[[3207,872],[2,0]],[[3210,862],[-3,10]],[[3223,849],[-13,13]],[[3224,847],[5,-15]],[[3224,848],[0,-1]],[[3224,847],[8,-14]],[[3230,828],[-1,0]],[[3249,741],[-9,3]],[[3241,743],[8,-3]],[[3260,1103],[63,19]],[[3323,1123],[-62,-19]],[[3324,1122],[16,6]],[[3340,1128],[-16,-5]],[[3339,1193],[8,-8]],[[3340,1128],[12,12]],[[3348,1185],[-7,9]],[[3349,1329],[20,-14]],[[3369,1315],[1,0]],[[3370,1315],[23,-16],[-7,18]],[[3385,1318],[8,-19],[-23,16]],[[3370,1315]],[[3370,1315],[-20,14]],[[3358,1143],[28,31]],[[3386,1174],[-28,-30]],[[3468,1343],[-2,0],[-16,-4]],[[3450,1339],[-60,-15]],[[3390,1324],[-11,-2],[-3,-2],[-6,-5]],[[3370,1315],[-1,0]],[[3369,1315],[-6,-5]],[[3363,1310],[7,5]],[[3370,1315]],[[3370,1315],[6,4],[3,2]],[[3379,1321],[6,-3]],[[3382,1325],[2,0]],[[3384,1325],[7,2]],[[3391,1327],[59,12]],[[3450,1339],[16,3],[2,0]],[[3387,1324],[-3,1]],[[3384,1325],[-1,0]],[[3386,1317],[4,7]],[[3390,1324],[1,3]],[[3391,1327],[2,2]],[[3386,1317],[0,6]],[[3392,1182],[-5,-6]],[[3388,1175],[4,7]],[[3391,1199],[2,-15]],[[3394,1183],[28,18]],[[3401,802],[-3,1]],[[3399,800],[3,0]],[[3551,1221],[-15,4]],[[3582,1217],[5,-2]],[[3587,1215],[0,-8]],[[3589,1217],[-2,-2]],[[3588,1207],[14,8]],[[3595,1280],[18,-34]],[[3615,1247],[-16,33]],[[3601,1271]],[[3601,1270]],[[3609,1256],[-1,0]],[[3634,1253],[-18,-7]],[[3616,1245],[19,8]],[[3643,1225],[-2,-1]],[[3641,1224],[-9,-2]],[[3644,1349],[-5,2]],[[3640,1229],[1,-5]],[[3641,1224],[1,-3]],[[3646,1221],[-2,3]],[[3644,1224],[-3,6]],[[3655,1221],[-2,1]],[[3653,1222],[-9,2]],[[3644,1224],[-1,0]],[[3646,1219],[-2,4]],[[3674,1221],[-21,1]],[[3653,1222],[-1,0]],[[3661,1347],[1,-2]],[[3662,1347]],[[3663,1346],[0,1]],[[3664,1370],[0,1]],[[3667,1274],[-25,-16],[25,15]],[[3696,1208]],[[3696,1208],[-1,0]],[[3696,1213],[7,3]],[[3711,1447],[2,3]],[[3713,1450],[69,-28]],[[3737,1443],[-24,7]],[[3736,1342],[-11,1]],[[3725,1334]],[[3726,1334],[9,-2]],[[3735,1333],[-9,2]],[[3751,1465],[-25,15]],[[3729,1446]],[[3739,1199],[-5,3]],[[3734,1202],[-4,4]],[[3734,1325]],[[3734,1325],[-1,-1]],[[3737,1203],[0,13]],[[3737,1216],[0,44],[2,-40],[-2,-4]],[[3737,1216],[-3,-14]],[[3734,1202],[-1,-1]],[[3735,1332],[-1,-7]],[[3734,1325],[-1,-1]],[[3736,1332],[-2,-8]],[[3737,1341]],[[3737,1341],[0,-1]],[[3737,1340],[-1,-7]],[[3753,1339],[-15,3],[-2,0]],[[3737,1340]],[[3737,1340],[-1,2]],[[3736,1342],[1,-1]],[[3737,1341],[6,-1]],[[3743,1340],[5,-1]],[[3748,1339],[5,-1]],[[3737,1443],[-1,0]],[[3783,1423],[-17,7]],[[3766,1430],[-9,4]],[[3757,1434],[-8,4]],[[3749,1438],[-4,1]],[[3745,1439],[-8,4]],[[3737,1352],[3,0]],[[3740,1227]],[[3743,1341],[0,-1]],[[3743,1340]],[[3744,1372],[0,-3]],[[3744,1371]],[[3744,1371]],[[3744,1371],[0,2],[0,-2]],[[3744,1371],[-1,-2],[0,-2],[1,4]],[[3745,1439]],[[3745,1439],[0,1]],[[3746,1392],[1,0]],[[3748,1339]],[[3748,1339]],[[3749,1438]],[[3749,1438],[0,-1]],[[3753,1340],[1,-1]],[[3755,1337],[-2,-1]],[[3756,1318]],[[3756,1458]],[[3757,1434]],[[3757,1434]],[[3764,1457]],[[3766,1430]],[[3766,1430]],[[3773,1376],[-1,0]],[[3773,1354],[-1,0]],[[3773,1357]],[[3773,1236],[4,-12]],[[3777,1224]],[[3775,1234],[1,1]],[[3776,1235],[1,1]],[[3783,1200],[-8,-1]],[[3775,1455],[0,1]],[[3775,1223],[0,1]],[[3779,1217],[-1,6]],[[3778,1223],[-2,12]],[[3776,1235],[-1,1]],[[3777,1224]],[[3777,1224],[-1,0]],[[3785,1333],[-9,1]],[[3777,1332],[9,0]],[[3777,1223],[1,-7]],[[3778,1216],[6,-19],[-5,19]],[[3781,1204],[1,0]],[[3798,1435],[-13,-13]],[[3785,1420],[14,-5]],[[3788,1340],[-2,-7]],[[3788,1455],[-1,0]],[[3789,1342],[-1,1]],[[3789,1455]],[[3789,1344],[2,5],[6,20]],[[3797,1369],[0,1],[1,1]],[[3798,1371],[5,17]],[[3799,1436],[-9,19]],[[3795,1448]],[[3797,1416],[1,0]],[[3798,1437]],[[3801,1306],[-3,0]],[[3801,1307],[-2,1]],[[3799,1415],[9,-5],[-9,26]],[[3800,1299],[-1,3]],[[3800,1418],[-1,0]],[[3799,1434],[1,0]],[[3800,1424]],[[3800,1299],[17,-41]],[[3817,1259],[-17,40]],[[3831,1328],[2,-1]],[[3849,1399],[-7,-12]],[[3843,1387],[6,6],[1,2],[0,4]],[[3848,1223],[3,-5]],[[3851,1218],[9,-18],[4,-15]],[[3864,1185],[1,-3]],[[3866,1182],[-2,3]],[[3864,1185],[-13,33]],[[3851,1218],[-3,6]],[[3864,1185],[-8,-1]],[[3857,1183],[5,-5]],[[3861,1201],[-1,0]],[[3862,1178],[1,-1]],[[3863,1178],[-1,0]],[[3865,1182],[-1,-4]],[[3864,1176],[10,-1]],[[3865,1182],[-1,-2]],[[3865,1177],[1,5]],[[3874,1176],[-9,7]],[[3866,1179],[0,3]],[[3919,1154],[-7,3]],[[3929,1131],[-10,22]],[[3947,1255],[-4,1]],[[3966,1184],[7,-3]],[[3973,1181],[-6,3]],[[3975,1238],[-3,-6]],[[3972,1307],[31,-25]],[[4019,1307],[-47,21]],[[4003,1282],[-29,34]],[[3975,1325],[44,-18]],[[3977,1253]],[[3979,1181]],[[3979,1181]],[[3986,1254],[-2,-4]],[[3988,1156],[3,-1]],[[3989,1201],[1,-1]],[[3990,1157],[1,1]],[[3991,1156],[-1,1]],[[3992,1199],[1,-2]],[[3995,1226],[-2,-10]],[[3993,1216],[2,10]],[[4003,1282],[5,-1]],[[4010,1150],[3,0]],[[4013,1150],[-3,1]],[[4013,1150],[6,-2]],[[4019,1306],[14,-23]],[[4019,1307],[0,-1],[1,0]],[[4020,1306],[-1,1]],[[4034,1283],[-14,23]],[[4022,1147],[6,1]],[[4038,1150],[-6,-6]],[[4032,1144],[-1,-1]],[[4031,1143],[-4,-5]],[[4027,1138],[5,4]],[[4032,1142],[1,2]],[[4033,1144],[6,5]],[[4028,1148]],[[4028,1148],[3,-5]],[[4031,1143],[1,-1]],[[4032,1142]],[[4030,1269],[4,13]],[[4033,1282],[-3,-13]],[[4030,1269],[23,2]],[[4034,1144],[-1,0]],[[4033,1144],[-1,0]],[[4032,1144],[-1,0]],[[4035,1159],[-1,0]],[[4053,1271],[1,0]],[[4054,1271],[-1,0]],[[4055,1272],[-1,-1]],[[4055,1271],[0,1]],[[4055,1272],[2,2]],[[4057,1274],[4,3]],[[4058,1277],[-1,-3]],[[2849,124],[0,-2],[1,-1],[0,2],[-1,1]],[[2854,111],[0,-1],[1,1],[-1,0]],[[3069,885],[-1,0],[0,-1],[1,0],[0,1]],[[3387,1176],[-1,0],[0,-2],[1,0],[0,2]],[[3401,801],[2,-2],[1,3],[-2,1],[-1,-2]],[[3614,1244],[2,1]],[[3616,1245],[-1,2],[-2,-2],[1,-1]],[[3696,1208],[-1,0]],[[3695,1208],[0,-1],[1,0],[0,1]],[[3696,1208]],[[3735,1332],[1,0],[0,1],[-1,-1]],[[3746,1384],[1,-2],[1,1],[-2,1]],[[3752,1465],[-1,-1],[1,0],[0,1]],[[3756,1224],[0,1],[0,-1]],[[3777,1223],[1,0]],[[3778,1223],[-1,1],[0,-1]],[[3778,1216],[1,0],[0,1]],[[3779,1217],[-1,0],[0,-1]],[[3784,1422],[-2,-1],[3,-1]],[[3785,1420],[0,2],[-1,0]],[[3790,1455],[-1,0]],[[3789,1455],[0,-1],[1,0],[0,1]],[[3796,1371],[1,-2]],[[3797,1369],[1,1],[0,1]],[[3798,1371],[-2,0]],[[3799,1415],[0,1],[-1,-1],[1,0]],[[3799,1415]],[[3821,1354],[0,-1],[0,1]],[[3843,1387],[-1,0]],[[3842,1387],[0,-1],[1,1]],[[3850,1400],[-1,0],[1,-1],[0,1]],[[3918,1216],[-1,1],[0,-1],[1,0]],[[3918,1178],[0,1],[-1,0],[0,-1],[1,0]],[[3920,1194],[1,0],[-1,1],[-1,0],[1,-1]],[[3921,1201],[1,1],[0,1],[-1,-1],[0,-1]],[[3940,1257],[0,-1],[3,0]],[[3943,1256],[-3,1]],[[3957,1255],[-1,-1],[1,0],[0,1]],[[3958,1276],[0,-1],[1,1],[-1,0]],[[3973,1181],[1,0],[-1,0]],[[3976,1238],[0,1],[-1,-1],[1,0]],[[3980,1165],[-1,0],[1,0]],[[3981,1246],[-1,0],[0,-1],[1,0],[0,1]],[[4013,1150],[0,-1],[0,1]],[[4013,1150]],[[4021,1147],[1,0],[-1,0]],[[4027,1138]],[[4035,1282],[-1,1],[-1,0]],[[4033,1283],[0,-1],[2,0]],[[4035,1156],[0,1],[0,-1]],[[4055,1271],[-1,0],[1,0]],[[3644,1349],[17,-2]],[[3876,1284],[42,-22]],[[2156,2673],[-7,-13]],[[2155,2654],[1,19]],[[2156,2673],[3,3]],[[2166,2682],[66,65],[-21,158]],[[2769,391],[38,-158],[-28,-42],[20,-64]],[[2799,127],[1,1],[-21,63],[29,42],[-29,158]],[[3574,1465],[1,-6]],[[3575,1459],[0,6]],[[3921,1250],[-8,-24]],[[3914,1226],[10,22]],[[3968,1138],[2,-31]],[[3975,1117],[-6,20]],[[4060,1168],[16,-4]],[[4075,1165],[-14,3]],[[3993,1216],[-2,-14]],[[3992,1200],[1,16]],[[3821,1354],[-24,16]],[[3243,842],[-1,-1],[1,-1],[2,1],[-2,1]],[[3960,1287],[0,-1],[1,0],[0,1],[-1,0]],[[3733,1324],[2,-1]],[[3626,1323],[-2,-14]],[[3625,1309],[1,14]],[[2846,137],[2,1],[-1,1],[-1,-1],[0,-1]],[[3979,1181],[18,-2]],[[3998,1180],[-19,1]],[[3913,1226],[4,-10]],[[3918,1216],[-4,10]],[[3917,1216],[4,-13]],[[3920,1194],[-3,-15]],[[3922,1202],[-4,14]],[[3918,1179],[3,15]],[[3921,1202],[-1,-7]],[[3921,1195],[1,7]],[[3801,1252],[0,1],[-1,0],[0,-1],[1,0]],[[3777,1297],[-38,0],[38,0]],[[3973,1181],[6,-16]],[[3980,1165],[-7,16]],[[3979,1165],[9,-9]],[[3988,1158],[-8,7]],[[3755,1361],[-2,-22]],[[3754,1338],[2,22]],[[2144,2670],[-39,45]],[[3915,1318],[21,-48]],[[3937,1269],[-22,49]],[[3941,1256],[-6,-15]],[[3037,1942],[40,-36]],[[3077,1907],[-40,35]],[[3237,1804],[112,-70]],[[3349,1735],[-96,62],[-16,7]],[[3812,1466],[2,-2]],[[3814,1465],[-2,1]],[[3905,1355],[117,-63],[13,-98]],[[4036,1194],[-13,98],[-58,35],[-60,29]],[[3914,1316],[-25,-38]],[[3890,1276],[24,33]],[[3939,1215],[1,0],[-1,1],[0,-1]],[[625,3593],[0,-2]],[[625,3590],[1,-2]],[[625,3593],[74,503]],[[626,3591],[-1,2]],[[626,3588],[0,3]],[[1628,2733],[-308,32],[-146,53],[-216,266],[-175,125],[-53,152],[-89,129],[-15,98]],[[1679,2724],[-51,9]],[[2081,2719],[-255,41],[-147,-36]],[[625,3590],[1,1],[-1,0]],[[625,3591],[-1,-1],[1,0]],[[4047,1174],[-2,3]],[[4047,1166],[1,2]],[[145,89],[2,0]],[[623,3590],[-14,-3]],[[625,3591],[-2,-1]],[[623,3590],[2,0]],[[3664,1347],[61,-4]],[[3663,1347],[-1,0],[0,-1],[1,1]],[[3876,1381],[-14,-44],[15,44]],[[3786,1332],[-5,-15]],[[3724,1351],[13,1]],[[4047,1175],[13,-7]],[[3775,1319],[0,-1],[1,1],[0,1],[-1,-1]],[[4090,1165],[6,-1]],[[4096,1165],[-6,0]],[[4048,1162],[40,-20]],[[3857,1231],[49,2]],[[3906,1234],[-48,-3]],[[3850,1231],[0,2],[-2,0],[1,-2],[1,0]],[[3718,1413],[0,-2],[2,0],[0,3],[-2,-1]],[[3403,1609],[-1,-2]],[[3403,1606],[1,3]],[[3970,1107],[0,-3]],[[0,0],[0,2283],[0,1813],[4096,0],[0,-4096],[-4096,0]],[[1748,3873],[32,142],[147,68],[27,-21],[143,3],[-9,31],[1476,0],[49,-32],[-10,-89],[46,-53],[48,-124],[-159,-95],[-139,94],[-3,-136],[-68,-40],[-89,105],[40,48],[-14,67],[-40,-99],[-69,20],[-52,-68],[-53,2],[-41,-43],[-83,57],[-45,75],[-7,76],[24,43],[-82,-15],[-52,22],[-100,-43],[-145,-203],[-114,-40],[-69,28],[-66,-51],[-60,-3],[-189,56],[-68,-10],[-37,54],[-108,61],[-61,113]],[[3632,1210],[60,9],[4,-38],[46,-14],[19,-54],[-33,-54],[-76,76],[-20,75]],[[1967,1281],[21,61],[124,25],[9,-49],[-46,-38],[4,-29],[-67,-11],[-45,41]],[[2174,1745],[54,102],[39,13],[-19,-139],[19,-58],[-72,-5],[-21,87]],[[2868,844],[-140,-8],[0,124],[50,29],[100,-65],[76,-5],[-86,-75]],[[2102,1675],[-183,-14],[-33,-83],[-145,50],[-49,-8],[10,29],[88,12],[99,139],[152,66],[68,2],[69,-42],[-8,-66],[-68,-85]],[[2299,1795],[-57,31],[28,57],[167,67],[-20,-87],[-52,-54],[-66,-14]],[[1123,2298],[-13,-60],[-32,0],[0,-41],[-33,41],[-57,15],[-8,62],[33,88],[52,5],[58,-110]],[[0,3323],[44,-80],[96,-16],[-86,-142],[-44,-23],[-10,261]],[[1659,2737],[-128,78],[5,44],[92,80],[32,-20],[-1,-182]],[[2340,2856],[64,0],[98,-164],[-50,-104],[-47,-20],[-65,41],[-97,-83],[-33,42],[-65,0],[0,41],[-64,75],[0,49],[66,138],[77,41],[116,-14],[0,-42]],[[4096,1567],[0,-330],[-9,-112],[-148,-23],[-79,-60],[-129,83],[-124,-39],[-70,39],[0,41],[-65,-41],[-18,-67],[-47,67],[-25,-25],[25,-140],[63,-75],[2,-49],[-55,-10],[-32,-94],[-107,-19],[0,-41],[-65,123],[-161,0],[-65,83],[-2,49],[67,74],[0,165],[96,124],[-32,123],[-129,-41],[-97,40],[-53,4],[-44,-44],[-40,31],[72,93],[198,-12],[61,53],[0,42],[58,74],[-26,49],[-64,41],[51,75],[-36,122],[-113,9],[-32,83],[-97,0],[-33,123],[-68,17],[4,66],[66,38],[62,-1],[97,-73],[75,14],[24,-60],[-33,-41],[97,-165],[111,74],[51,8],[-4,-22],[36,-19],[-129,-330],[76,9],[280,197],[35,-25],[-35,-140],[146,64],[48,-23],[0,-41],[53,4],[40,-32],[40,46],[61,-18],[97,-165],[56,11],[18,19]],[[2694,484],[2,-101],[80,8],[132,-48],[46,40],[22,-15],[31,-174],[-150,-141],[-65,83],[-97,0],[-32,41],[-130,41],[111,231],[19,99],[31,-64]],[[3513,1597],[11,16],[48,-39],[10,19],[101,-37],[38,-51],[-94,-23],[-114,115]],[[3187,905],[75,-36],[10,18],[29,-53],[9,23],[70,2],[39,-118],[-165,61],[-67,103]],[[2156,2662],[6,23],[17,-12],[27,24],[20,-24],[34,59],[0,-29],[56,-24],[9,-64],[-92,-39],[8,22],[-34,-9],[-26,34],[28,-13],[26,9],[-51,28],[7,-19],[-22,-1],[-13,35]]]}