{"objects":{"water":{"type":"GeometryCollection","geometries":[{"type":"MultiPolygon","properties":{"source":"naturalearthdata.com","kind":"ocean","area":1576712559132672,"sort_rank":200,"min_zoom":0.0,"id":1},"arcs":[[[49],[50],[51],[52],[53],[54],[55],[56],[57],[58],[59],[60],[61],[62],[63],[64],[65],[66],[67],[68],[69],[70],[71],[72],[73],[74],[75],[76],[77],[78]],[[79]]]},{"type":"MultiLineString","properties":{"source":"naturalearthdata.com","kind":"ocean","sort_rank":205,"boundary":true,"min_zoom":0.0,"id":71},"arcs":[[80],[81]]},{"type":"LineString","properties":{"source":"naturalearthdata.com","kind":"ocean","sort_rank":205,"boundary":true,"min_zoom":0.0,"id":563},"arcs":[82]},{"type":"LineString","properties":{"source":"naturalearthdata.com","kind":"ocean","sort_rank":205,"boundary":true,"min_zoom":0.0,"id":572},"arcs":[83]},{"type":"LineString","properties":{"source":"naturalearthdata.com","kind":"ocean","sort_rank":205,"boundary":true,"min_zoom":0.0,"id":574},"arcs":[84]},{"type":"LineString","properties":{"source":"naturalearthdata.com","kind":"ocean","sort_rank":205,"boundary":true,"min_zoom":0.0,"id":576},"arcs":[85]},{"type":"LineString","properties":{"source":"naturalearthdata.com","kind":"ocean","sort_rank":205,"boundary":true,"min_zoom":0.0,"id":577},"arcs":[86]},{"type":"LineString","properties":{"source":"naturalearthdata.com","kind":"ocean","sort_rank":205,"boundary":true,"min_zoom":0.0,"id":578},"arcs":[87]},{"type":"LineString","properties":{"source":"naturalearthdata.com","kind":"ocean","sort_rank":205,"boundary":true,"min_zoom":0.0,"id":579},"arcs":[88]},{"type":"LineString","properties":{"source":"naturalearthdata.com","kind":"ocean","sort_rank":205,"boundary":true,"min_zoom":0.0,"id":580},"arcs":[89]},{"type":"LineString","properties":{"source":"naturalearthdata.com","kind":"ocean","sort_rank":205,"boundary":true,"min_zoom":0.0,"id":583},"arcs":[90]},{"type":"LineString","properties":{"source":"naturalearthdata.com","kind":"ocean","sort_rank":205,"boundary":true,"min_zoom":0.0,"id":2907},"arcs":[91]},{"type":"LineString","properties":{"source":"naturalearthdata.com","kind":"ocean","sort_rank":205,"boundary":true,"min_zoom":0.0,"id":3728},"arcs":[92]},{"type":"LineString","properties":{"source":"naturalearthdata.com","kind":"ocean","sort_rank":205,"boundary":true,"min_zoom":0.0,"id":3729},"arcs":[93]},{"type":"LineString","properties":{"source":"naturalearthdata.com","kind":"ocean","sort_rank":205,"boundary":true,"min_zoom":0.0,"id":3730},"arcs":[94]},{"type":"LineString","properties":{"source":"naturalearthdata.com","kind":"ocean","sort_rank":205,"boundary":true,"min_zoom":0.0,"id":3731},"arcs":[95]}]},"buildings":{"type":"GeometryCollection","geometries":[]},"places":{"type":"GeometryCollection","geometries":[{"type":"Point","properties":{"name:ps":"\u0628\u06d0\u0644\u06cc\u0632","name:ka":"\u10d1\u10d4\u10da\u10d8\u10d6\u10d8","name:ko":"\ubca8\ub9ac\uc988","name:cv":"\u0411\u0435\u043b\u0438\u0437","name:km":"\u1794\u17c1\u179b\u17b8\u17a0\u17d2\u179f","name:kk":"\u0411\u0435\u043b\u0438\u0437","name:tt":"\u0411\u0435\u043b\u0438\u0437","name:kw":"Belisa","name:ku":"Bel\u00eeze","name:ti":"\u1264\u120a\u12d8","name:ks":"\u0628\u06cc\u0644\u0650\u062c","name:to":"Pelise","name:tl":"Belise","name:pa":"\u0a2c\u0a47\u0a32\u0a40\u0a1c\u0a3c","name:os":"\u0411\u0435\u043b\u0438\u0437","name:or":"\u0b2c\u0b47\u0b32\u0b3f\u0b1c\u0b4d","name:ce":"\u0411\u0435\u043b\u0438\u0437","name:ta":"\u0baa\u0bc6\u0bb2\u0bbf\u0bb8\u0bcd","name:tg":"\u0411\u0435\u043b\u0438\u0437","name:te":"\u0c2c\u0c46\u0c32\u0c40\u0c1c\u0c4d","name:qu":"Bilisi","name:sr":"\u0411\u0435\u043b\u0438\u0437\u0435","name:dz":"\u0f56\u0fb7\u0f7a\u0f0b\u0f63\u0f72\u0f5b","source":"openstreetmap.org","name:kn":"\u0cac\u0cc6\u0cb2\u0cbf\u0c9c\u0ccd","name:dv":"\u0784\u07ac\u078d\u07a9\u0792\u07aa","name:lv":"Beliza","name:lt":"Belizas","name:uz":"Beliz","name:he":"\u05d1\u05dc\u05d9\u05d6","min_zoom":2.0,"kind":"country","name:ur":"\u0628\u06cc\u0644\u0627\u0626\u0632","name:la":"Beliza","old_name:eo":"Brita Honduro","name:uk":"\u0411\u0435\u043b\u0456\u0437","name:hy":"\u0532\u0565\u056c\u056b\u0566","name:ug":"\u0628\u06d0\u0644\u0649\u0632","name:ln":"Beliz\u025b","name:lo":"\u0ec0\u0e9a\u0e8a\u0eb5\u0ea7","population":327719,"name:el":"\u039c\u03c0\u03b5\u03bb\u03af\u03b6","name:eo":"Belizo","name":"Belize","name:ee":"Belize nutome","name:th":"\u0e1b\u0e23\u0e30\u0e40\u0e17\u0e28\u0e40\u0e1a\u0e25\u0e35\u0e0b","name:gu":"\u0aac\u0ac7\u0ab2\u0ac0\u0a9d","name:yi":"\u05d1\u05e2\u05dc\u05d9\u05d6","name:es":"Belice","name:ay":"Wilisi","name:mt":"Beli\u017ce","name:az":"Beliz","name:mr":"\u092c\u0947\u0932\u093f\u091d\u0947","name:ar":"\u0628\u0644\u064a\u0632","name:my":"\u1018\u1031\u101c\u102e\u1007\u103a","name:is":"Bel\u00eds","name:am":"\u1264\u120a\u12d8","name:ml":"\u0d2c\u0d46\u0d32\u0d40\u0d38\u0d4d","name:ru":"\u0411\u0435\u043b\u0438\u0437","name:mn":"\u0411\u0435\u043b\u0438\u0437","id":332779764,"name:mk":"\u0411\u0435\u043b\u0438\u0437\u0435","name:vo":"Belis\u00e4n","name:zu":"i-Belize","name:ha":"Beliz","name:ff":"Beliise","name:hi":"\u092c\u0947\u0932\u0940\u091c\u093c","name:fo":"Belis","alt_name:vi":"B\u00ea-li-x\u00ea","name:fr":"B\u00e9lize","name:wo":"Beliis","name:zh-yue":"\u4f2f\u5229\u8332","name:zh":"\u4f2f\u5229\u5179","name:gv":"Yn Veleesh","name:so":"Belise","name:ja":"\u30d9\u30ea\u30fc\u30ba","name:si":"\u0db6\u0dd9\u0dbd\u0dd3\u0dc3\u0dca","name:fa":"\u0628\u0644\u06cc\u0632","name:sg":"Bel\u00eezi","name:na":"Berij","name:ne":"\u092c\u0947\u0932\u093f\u091c","name:sa":"\u092c\u0947\u0932\u0940\u091c","name:bs":"Belise","name:bm":"Belizi","name:bn":"\u09ac\u09c7\u09b2\u09bf\u09af","name:bo":"\u0f56\u0f7a\u0f0b\u0f63\u0f72\u0f5b\u0f0d","name:be":"\u0411\u0435\u043b\u0456\u0437","name:su":"B\u00e9lis","name:bg":"\u0411\u0435\u043b\u0438\u0437","name:ss":"IBhelizi","name:ba":"\u0411\u0435\u043b\u0438\u0437","name:sq":"Beliza","name:ga":"An Bheil\u00eds","name:gd":"Beilise","name:ht":"Beliz","name:gn":"Mbelise","name:gl":"Belice","name:yo":"Or\u00edl\u1eb9\u0301\u00e8de B\u00e8l\u00eds\u1eb9\u0300","name:ak":"Beliz"},"coordinates":[903,146]},{"type":"Point","properties":{"kind":"region","name":"Quintana Roo","kind_detail":"state","name:eo":"Kintanaroo","official_name":"Estado de Quintana Roo","source":"openstreetmap.org","min_zoom":4.0,"name:uk":"\u041a\u0456\u043d\u0442\u0430\u043d\u0430-\u0420\u043e\u043e","name:ru":"\u041a\u0438\u043d\u0442\u0430\u043d\u0430-\u0420\u043e\u043e","id":305626621},"coordinates":[1092,2339]},{"type":"Point","properties":{"kind":"region","name":"Yucat\u00e1n","alt_name:de":"Yukatan","kind_detail":"state","name:eo":"Jukatano","official_name":"Estado de Yucat\u00e1n","source":"openstreetmap.org","min_zoom":4.0,"name:la":"Iucatania","name:uk":"\u042e\u043a\u0430\u0442\u0430\u043d","name:ru":"\u042e\u043a\u0430\u0442\u0430\u043d","name:pl":"Jukatan","id":2160053458},"coordinates":[819,3125]},{"type":"Point","properties":{"kind":"region","name":"Pet\u00e9n","kind_detail":"state","name:eo":"Peteno","source":"openstreetmap.org","min_zoom":4.0,"name:ru":"\u041f\u0435\u0442\u0435\u043d","id":472114124},"coordinates":[73,204]},{"type":"Point","properties":{"source":"naturalearthdata.com","kind":"locality","name":"Merida","population":965000,"region_capital":true,"min_zoom":5.0,"id":6907},"coordinates":[278,3344]},{"type":"Point","properties":{"source":"naturalearthdata.com","kind":"locality","name":"Cancun","population":542043,"min_zoom":5.0,"id":6906},"coordinates":[2308,3499]},{"type":"Point","properties":{"source":"naturalearthdata.com","kind":"locality","name":"Belmopan","country_capital":true,"population":15220,"min_zoom":5.0,"id":7058},"coordinates":[898,475]},{"type":"Point","properties":{"source":"naturalearthdata.com","kind":"locality","name":"Chetumal","population":154517,"region_capital":true,"min_zoom":6.0,"id":5150},"coordinates":[1238,1439]},{"type":"Point","properties":{"source":"naturalearthdata.com","kind":"locality","name":"Cozumel","population":73934,"min_zoom":6.0,"id":5768},"coordinates":[2221,2990]},{"type":"Point","properties":{"source":"naturalearthdata.com","kind":"locality","name":"Progreso","population":47124,"min_zoom":6.0,"id":5151},"coordinates":[243,3587]}]},"transit":{"type":"GeometryCollection","geometries":[]},"pois":{"type":"GeometryCollection","geometries":[{"type":"Point","properties":{"kind":"national_park","name:en":"Guanahacabibes National Park","protect_class":"2","area":518721000,"name:de":"Nationalpark Guanahacabibes","source":"openstreetmap.org","min_zoom":6.28,"tier":1,"id":-6488943,"osm_relation":true,"name":"Parque Nacional Guanahacabibes"},"coordinates":[3702,4047]},{"type":"Point","properties":{"kind":"national_park","tier":1,"protect_class":"2","area":1210830000,"name:es":"Parque nacional Chiquibul","name:de":"Nationalpark Chiquibul","source":"openstreetmap.org","min_zoom":5.67,"name:it":"Parco nazionale di Chiquibul","operator":"Forest Department","id":-2958267,"osm_relation":true,"name":"Chiquibul National Park"},"coordinates":[853,71]},{"type":"Point","properties":{"kind":"national_park","name":"Parque Nacional Mirador-R\u00edo Azul","area":1305800000,"source":"openstreetmap.org","min_zoom":5.61,"tier":1,"id":-546716,"osm_relation":true},"coordinates":[491,853]}]},"boundaries":{"type":"GeometryCollection","geometries":[{"type":"LineString","properties":{"source":"naturalearthdata.com","kind":"indefinite","sort_rank":259,"kind_detail":"2","min_zoom":0.0,"id":300},"arcs":[0]},{"type":"LineString","properties":{"source":"naturalearthdata.com","kind":"country","sort_rank":262,"kind_detail":"2","min_zoom":0.0,"id":10},"arcs":[1]},{"type":"MultiLineString","properties":{"source":"naturalearthdata.com","kind":"country","sort_rank":262,"kind_detail":"2","min_zoom":0.0,"id":301},"arcs":[[2],[3],[4],[5],[6],[7],[8],[9],[10],[11]]},{"type":"LineString","properties":{"source":"naturalearthdata.com","kind":"country","sort_rank":262,"kind_detail":"2","min_zoom":0.0,"id":302},"arcs":[12]},{"type":"LineString","properties":{"source":"naturalearthdata.com","kind":"region","sort_rank":256,"kind_detail":"4","min_zoom":6.8,"id":310},"arcs":[13]},{"type":"LineString","properties":{"source":"naturalearthdata.com","kind":"region","sort_rank":256,"kind_detail":"4","min_zoom":6.8,"id":312},"arcs":[14]},{"type":"LineString","properties":{"source":"naturalearthdata.com","kind":"region","sort_rank":256,"kind_detail":"4","min_zoom":5.0,"id":449},"arcs":[15]},{"type":"LineString","properties":{"source":"naturalearthdata.com","kind":"region","sort_rank":256,"kind_detail":"4","min_zoom":6.8,"id":4758},"arcs":[16]},{"type":"LineString","properties":{"source":"naturalearthdata.com","kind":"region","sort_rank":256,"kind_detail":"4","min_zoom":6.8,"id":4759},"arcs":[17]},{"type":"LineString","properties":{"source":"naturalearthdata.com","kind":"region","sort_rank":256,"kind_detail":"4","min_zoom":6.8,"id":4760},"arcs":[18]},{"type":"LineString","properties":{"source":"naturalearthdata.com","kind":"region","sort_rank":256,"kind_detail":"4","min_zoom":6.8,"id":4756},"arcs":[19]},{"type":"MultiLineString","properties":{"source":"naturalearthdata.com","kind":"region","sort_rank":256,"kind_detail":"4","min_zoom":6.8,"id":4757},"arcs":[[20],[21]]},{"type":"MultiLineString","properties":{"source":"naturalearthdata.com","kind":"region","sort_rank":256,"kind_detail":"4","min_zoom":6.8,"id":4761},"arcs":[[22],[23]]},{"type":"LineString","properties":{"source":"naturalearthdata.com","kind":"region","sort_rank":256,"kind_detail":"4","min_zoom":6.8,"id":4762},"arcs":[24]},{"type":"LineString","properties":{"source":"naturalearthdata.com","kind":"region","sort_rank":256,"kind_detail":"4","min_zoom":6.8,"id":4763},"arcs":[25]},{"type":"MultiLineString","properties":{"source":"naturalearthdata.com","kind":"region","sort_rank":256,"kind_detail":"4","min_zoom":6.8,"id":4764},"arcs":[[26],[27],[28],[29],[30],[31],[32],[33],[34],[35]]},{"type":"MultiLineString","properties":{"source":"naturalearthdata.com","kind":"region","sort_rank":256,"kind_detail":"4","min_zoom":5.0,"id":6974},"arcs":[[36],[37],[38],[39],[40],[41],[42],[43],[44],[45],[46]]},{"type":"LineString","properties":{"source":"naturalearthdata.com","kind":"region","sort_rank":256,"kind_detail":"4","min_zoom":5.0,"id":6976},"arcs":[47]},{"type":"LineString","properties":{"source":"naturalearthdata.com","kind":"region","sort_rank":256,"kind_detail":"4","min_zoom":5.0,"id":6977},"arcs":[48]}]},"roads":{"type":"GeometryCollection","geometries":[{"type":"LineString","properties":{"source":"naturalearthdata.com","kind":"major_road","sort_rank":380,"kind_detail":"primary","min_zoom":3.0,"id":712},"arcs":[96]},{"type":"LineString","properties":{"kind":"highway","network":"MX","sort_rank":383,"kind_detail":"motorway","source":"naturalearthdata.com","min_zoom":3.0,"shield_text":"180D","id":2917},"arcs":[97]},{"type":"LineString","properties":{"kind":"highway","network":"MX","sort_rank":383,"kind_detail":"motorway","source":"naturalearthdata.com","min_zoom":3.0,"shield_text":"180D","id":2926},"arcs":[98]},{"type":"LineString","properties":{"kind":"highway","network":"MX:MX","sort_rank":355,"kind_detail":"trunk","source":"naturalearthdata.com","min_zoom":3.0,"landuse_kind":"urban_area","shield_text":"180","id":2928},"arcs":[99]},{"type":"LineString","properties":{"kind":"highway","network":"MX:MX","sort_rank":355,"kind_detail":"trunk","source":"naturalearthdata.com","min_zoom":3.0,"shield_text":"180","id":2928},"arcs":[100]},{"type":"LineString","properties":{"kind":"highway","network":"MX","sort_rank":383,"kind_detail":"motorway","source":"naturalearthdata.com","min_zoom":3.0,"landuse_kind":"urban_area","shield_text":"180D","id":2929},"arcs":[101]},{"type":"LineString","properties":{"kind":"highway","network":"MX","sort_rank":383,"kind_detail":"motorway","source":"naturalearthdata.com","min_zoom":3.0,"shield_text":"180D","id":2929},"arcs":[102]},{"type":"LineString","properties":{"kind":"highway","network":"MX:MX","sort_rank":355,"kind_detail":"trunk","source":"naturalearthdata.com","min_zoom":3.0,"shield_text":"180","id":2953},"arcs":[103]},{"type":"LineString","properties":{"source":"naturalearthdata.com","kind":"major_road","sort_rank":380,"kind_detail":"primary","min_zoom":3.0,"id":2992},"arcs":[104]},{"type":"LineString","properties":{"source":"naturalearthdata.com","kind":"major_road","sort_rank":380,"kind_detail":"primary","min_zoom":3.0,"id":3076},"arcs":[105]},{"type":"LineString","properties":{"source":"naturalearthdata.com","kind":"major_road","kind_detail":"primary","sort_rank":380,"landuse_kind":"urban_area","min_zoom":3.0,"id":3078},"arcs":[106]},{"type":"LineString","properties":{"source":"naturalearthdata.com","kind":"major_road","sort_rank":380,"kind_detail":"primary","min_zoom":3.0,"id":3078},"arcs":[107]},{"type":"LineString","properties":{"source":"naturalearthdata.com","kind":"major_road","sort_rank":380,"kind_detail":"primary","min_zoom":3.0,"id":3080},"arcs":[108]},{"type":"LineString","properties":{"source":"naturalearthdata.com","kind":"major_road","sort_rank":380,"kind_detail":"primary","min_zoom":6.0,"id":3085},"arcs":[109]},{"type":"LineString","properties":{"source":"naturalearthdata.com","kind":"major_road","sort_rank":380,"kind_detail":"primary","min_zoom":6.0,"id":3093},"arcs":[110]},{"type":"LineString","properties":{"source":"naturalearthdata.com","kind":"major_road","sort_rank":380,"kind_detail":"primary","min_zoom":3.0,"id":3145},"arcs":[111]},{"type":"LineString","properties":{"source":"naturalearthdata.com","kind":"major_road","sort_rank":380,"kind_detail":"primary","min_zoom":3.0,"id":3167},"arcs":[112]},{"type":"LineString","properties":{"source":"naturalearthdata.com","kind":"major_road","sort_rank":380,"kind_detail":"primary","min_zoom":3.0,"id":3823},"arcs":[113]},{"type":"LineString","properties":{"source":"naturalearthdata.com","kind":"major_road","sort_rank":380,"kind_detail":"primary","min_zoom":3.0,"id":3824},"arcs":[114]},{"type":"LineString","properties":{"source":"naturalearthdata.com","kind":"major_road","sort_rank":380,"kind_detail":"primary","min_zoom":3.0,"id":4067},"arcs":[115]}]},"earth":{"type":"GeometryCollection","geometries":[{"type":"MultiPolygon","properties":{"sort_rank":10,"source":"naturalearthdata.com","min_zoom":0.0,"kind":"earth","area":466650077231},"arcs":[[[116]],[[117]],[[118]],[[119]],[[120]],[[121]],[[122]],[[123]],[[124]],[[125]],[[126]],[[127]]]}]},"landuse":{"type":"GeometryCollection","geometries":[{"type":"MultiPolygon","properties":{"kind":"national_park","protect_class":"2","area":1210829952,"sort_rank":18,"operator":"Forest Department","source":"openstreetmap.org","min_zoom":3.0,"tier":1,"id":-2958267,"osm_relation":true},"arcs":[[[128]],[[129]]]},{"type":"MultiPolygon","properties":{"source":"openstreetmap.org","kind":"nature_reserve","tier":2,"area":707780070,"sort_rank":23,"min_zoom":6.0},"arcs":[[[130]]]},{"type":"MultiPolygon","properties":{"source":"openstreetmap.org","kind":"park","tier":2,"area":3099482337,"sort_rank":24,"min_zoom":6.0,"osm_relation":true},"arcs":[[[131]]]},{"type":"MultiPolygon","properties":{"source":"openstreetmap.org","kind":"nature_reserve","tier":2,"area":3787796778,"sort_rank":23,"min_zoom":6.0,"osm_relation":true},"arcs":[[[132]],[[133]],[[134]],[[135]]]},{"type":"MultiPolygon","properties":{"source":"naturalearthdata.com","kind":"urban_area","name":"","area":608773045,"sort_rank":11,"min_zoom":4.0},"arcs":[[[136]],[[137]],[[138]]]},{"type":"MultiPolygon","properties":{"source":"openstreetmap.org","kind":"national_park","tier":1,"area":6130038876,"sort_rank":18,"min_zoom":3.0,"osm_relation":true},"arcs":[[[139]]]},{"type":"Polygon","properties":{"kind":"park","protect_class":"4","area":542502016,"sort_rank":24,"operator":"Belize Audubon Society","source":"openstreetmap.org","min_zoom":6.0,"tier":2,"id":266161410},"arcs":[[140]]},{"type":"Polygon","properties":{"kind":"national_park","protect_class":"2","area":518720992,"sort_rank":18,"source":"openstreetmap.org","min_zoom":3.0,"tier":1,"id":-6488943,"osm_relation":true},"arcs":[[141]]},{"type":"MultiPolygon","properties":{"source":"openstreetmap.org","kind":"nature_reserve","tier":2,"area":3304142007,"sort_rank":23,"min_zoom":4.0,"osm_relation":true},"arcs":[[[142]]]},{"type":"MultiPolygon","properties":{"source":"openstreetmap.org","kind":"park","tier":2,"area":22003481699,"sort_rank":24,"min_zoom":4.0,"osm_relation":true},"arcs":[[[143]]]}]}},"type":"Topology","transform":{"translate":[-90.0,16.6361918784],"scale":[0.001373291,0.0012956186]},"arcs":[[[601,0],[6,109],[13,200],[-2,220],[-4,214],[-3,166]],[[1235,1424],[7,-1],[11,-9],[3,-29],[7,-11],[13,-3],[87,2],[65,1],[0,-75],[-1,-96],[5,-9],[11,-2],[37,1],[5,-1],[6,-2],[14,-8],[4,-1],[12,4],[7,7],[5,15],[6,10],[7,0],[5,-5],[-1,-17],[3,-3],[5,0],[26,0]],[[1155,1431],[4,-1],[7,-7],[6,-3]],[[1122,1420],[6,1],[15,5],[8,4],[4,1]],[[1100,1427],[7,-1],[7,-4],[8,-2]],[[815,967],[7,1],[4,7],[4,17],[3,5],[37,29],[7,8],[10,30],[4,7],[10,9],[10,6],[9,7],[7,11],[3,8],[2,18],[2,8],[18,30],[2,9],[-2,11],[-3,2],[21,16],[21,10],[9,7],[7,11],[2,9],[1,3],[1,12],[3,13],[7,13],[22,26],[9,14],[3,9],[3,20],[6,18],[4,24],[4,8],[6,6],[22,18]],[[1231,1425],[4,-1]],[[1172,1420],[4,1],[4,2],[6,1],[45,1]],[[692,1052],[16,-5],[12,-11],[11,-13],[12,-9],[9,-1]],[[611,909],[0,68],[5,30],[16,23],[60,22]],[[760,1014],[7,-1],[10,-22],[9,-7],[29,-17]],[[752,1013],[8,1]],[[0,910],[131,0],[160,0],[160,-1],[160,0]],[[1246,386]],[[1335,1022]],[[1793,3754]],[[1249,1031],[86,-9]],[[1249,1031],[-161,-42],[-39,-22],[-4,-14],[-2,-6],[-1,-8],[1,-6],[2,-10],[1,-5],[0,-10],[-5,-20],[0,-4],[0,-4],[2,-17],[0,-4],[-2,-19],[1,-5],[3,-10],[1,-4],[0,-5],[-4,-4],[-6,-3],[-7,-2],[-21,-10],[-9,-13],[-9,-27],[-1,-14],[9,-112]],[[1249,1031],[-100,92],[-53,73],[-33,25],[-46,21],[-8,1]],[[1246,386],[-10,-11],[-15,-5],[-4,-3],[-6,-2],[-193,-4]],[[968,43],[17,-2],[10,-3],[26,-14],[4,-3],[2,-4],[2,-6],[2,-4],[0,-3],[0,-3],[-1,-1]],[[893,35],[21,7],[54,1]],[[1030,659],[3,-5],[2,-10],[7,-154],[-1,-28],[1,-4],[8,-12],[6,-15],[1,-9],[0,-7],[-4,-9],[-1,-6],[-2,-8],[-2,-4],[-1,-2],[-2,0],[-1,-3],[-1,-2],[-1,-4],[-3,-5],[-1,-2],[-2,-1],[-2,-1],[-16,-7]],[[998,631],[18,8],[4,7],[4,10],[6,3]],[[893,35],[-13,-1],[-5,-3],[-2,-2],[-5,-4],[-7,-10],[-2,-4],[-1,-3],[2,-8]],[[1018,361],[-3,-7],[3,-7],[10,-17],[11,-9],[4,-5],[0,-7],[-3,-3],[-4,-3],[-3,-4],[-7,-15],[-4,-13],[-5,-9],[-5,-6],[-8,-6],[-4,-4],[-5,-9],[-21,-24],[-2,-4],[0,-3],[1,-4],[0,-4],[-2,-11],[0,-4],[1,-9],[-1,-4],[-1,-3],[-2,-3],[-2,-2],[-7,-3],[-4,-4],[-2,-3],[1,-3],[10,-7],[2,-3],[0,-2],[-2,-2],[-3,-1],[-13,-2],[-14,-5],[-4,-3],[-4,-3],[-20,-32],[-4,-12],[-8,-14],[-4,-15],[0,-4],[3,-9]],[[998,631],[-10,4]],[[988,635],[-5,-2],[-15,-7],[-9,-2],[-12,-4],[-22,-15],[-13,-5],[-16,-2]],[[841,598],[-13,1],[-11,1]],[[817,600],[-5,-1],[-5,-6],[-4,-7],[-8,-5],[-10,-3],[-84,-10]],[[896,598],[-20,1]],[[876,599],[-10,-1]],[[866,598],[-8,0]],[[858,598],[-17,0]],[[701,568],[-6,1],[-6,3]],[[689,572],[-8,-1],[-10,-4],[-31,-20],[-22,-18]],[[1446,2932],[19,6],[61,34],[60,51],[24,15],[39,32],[44,26],[23,47],[10,28],[15,24],[7,24],[2,26],[46,89],[-4,48],[-33,72],[1,29],[10,48],[29,42],[3,26],[-10,145],[1,10]],[[1339,2951],[20,-15],[20,-9]],[[1266,2799],[1,29],[-9,33],[11,25],[16,23],[12,21],[18,16],[24,5]],[[1402,2934],[44,-2]],[[1379,2927],[23,7]],[[1204,2842],[24,-2],[14,-18],[8,-21],[16,-2]],[[880,2582],[7,13],[-6,16],[17,19],[43,29],[22,10],[23,14],[24,10],[41,9],[39,26],[42,10],[33,39],[19,51],[20,14]],[[845,2607],[19,-10],[16,-15]],[[502,2464],[79,10],[20,19],[17,21],[46,15],[24,15],[80,3],[13,4],[12,6],[7,8],[45,42]],[[478,2466],[24,-2]],[[426,2327],[14,27],[12,29],[7,24],[2,25],[-1,25],[18,9]],[[0,2938],[16,-22],[11,-21],[0,-18],[14,-31],[12,-12],[42,-30],[26,-47],[17,-55],[38,-38],[50,-20],[43,-33],[53,-100],[41,-40],[34,-47],[9,-54],[20,-43]],[[426,2327],[30,-44],[40,-35],[47,-32],[87,-79],[71,-89],[17,-55],[-6,-48],[2,-57],[-3,-11],[2,-27],[-11,-19],[-34,-36],[5,-58],[-24,-151],[6,-46],[24,-32],[6,-41],[-9,-11],[-3,-13],[11,-4],[12,-6],[-2,-18],[-6,-17],[-4,-17],[14,-69],[4,-54],[0,-49],[-16,-45],[-62,-75],[-8,-12],[6,-62]],[[4096,4009],[0,-4009],[-2871,0],[4,5],[4,8],[7,55],[-1,7],[-3,12],[-1,10],[2,8],[3,5],[4,4],[2,3],[1,7],[4,5],[9,8],[3,0],[10,-1],[2,1],[1,4],[-2,4],[-2,2],[-2,0],[-2,13],[-15,23],[-3,14],[4,12],[8,14],[10,11],[8,8],[7,3],[6,-1],[5,2],[2,9],[-4,19],[-2,25],[-4,16],[-6,15],[-9,12],[-15,5],[-7,4],[-3,10],[-4,18],[0,7],[0,1],[-3,15],[-5,16],[2,30],[1,17],[7,78],[30,102],[2,12],[8,7],[19,-3],[19,0],[9,15],[-7,6],[-31,6],[-7,6],[-5,12],[-26,13],[-9,10],[-3,18],[3,17],[8,14],[19,23],[5,13],[18,64],[9,64],[-4,20],[30,60],[12,9],[28,70],[2,12],[10,19],[3,12],[6,71],[-6,91],[-3,4],[-7,-1],[-7,-3],[-6,-5],[-6,-9],[-6,-2],[-5,1],[0,9],[3,3],[17,7],[14,12],[4,7],[2,11],[-4,2],[-9,-1],[-25,-8],[-22,-15],[-15,-2],[-10,3],[-21,10],[-16,2],[-12,-2],[-12,-5],[-24,-18],[-12,-14],[-7,-5],[-5,0],[-2,4],[4,6],[16,22],[7,12],[4,11],[-35,-16],[-10,1],[-8,12],[5,11],[56,41],[15,19],[-13,11],[0,3],[0,2],[3,3],[3,1],[9,2],[6,14],[16,24],[3,12],[20,38],[17,23],[18,37],[4,1],[8,5],[5,6],[-7,4],[-8,-2],[-7,-6],[-7,-7],[-3,-6],[1,14],[5,11],[4,9],[-5,14],[-8,-16],[-13,-14],[-14,-12],[-15,-6],[2,8],[4,7],[4,6],[32,28],[5,3],[18,1],[13,3],[8,10],[2,6],[-4,-16],[-2,-14],[5,-5],[7,4],[5,11],[4,13],[2,11],[6,21],[14,22],[18,20],[17,14],[4,-31],[5,-13],[8,-11],[6,-13],[1,-17],[-4,-31],[-1,-1],[-2,-3],[-2,-5],[-1,-5],[2,-4],[4,-4],[3,-4],[2,-1],[-2,-9],[-7,-13],[-2,-6],[-5,-13],[-12,-15],[-7,-17],[4,-17],[-24,-29],[-1,-5],[-1,-11],[2,-13],[7,-5],[18,-5],[38,-22],[19,-5],[14,-1],[8,-4],[3,-9],[3,-12],[-2,0],[-3,-6],[-2,-7],[4,-3],[2,-1],[20,-4],[3,-6],[0,-8],[-1,-6],[1,-4],[10,-12],[2,-1],[-2,-13],[-4,-8],[-3,-8],[5,-9],[4,5],[4,7],[4,8],[2,7],[0,-10],[-2,-20],[-4,-20],[-6,-8],[-6,-6],[2,-11],[9,-3],[12,15],[4,-17],[1,-21],[6,0],[0,51],[2,12],[10,24],[2,12],[4,11],[35,52],[6,18],[4,54],[4,12],[9,16],[2,17],[-4,34],[4,33],[10,28],[14,24],[17,21],[13,21],[27,95],[14,101],[16,26],[16,37],[10,24],[-6,18],[9,14],[8,42],[8,18],[19,29],[11,11],[15,8],[0,5],[-15,-1],[-9,-8],[-8,-10],[-8,-7],[15,31],[-35,-3],[-17,-5],[-8,-10],[-3,-14],[-8,-13],[-19,-24],[-15,-13],[-7,0],[-7,5],[-13,3],[-8,8],[5,18],[15,32],[-12,4],[5,9],[11,12],[6,12],[-5,0],[-5,-15],[-5,0],[8,30],[28,24],[33,18],[26,7],[-4,-10],[-3,-10],[-5,-8],[-13,-4],[26,5],[6,3],[21,21],[4,3],[13,4],[12,10],[10,13],[8,15],[7,51],[5,8],[3,7],[-6,17],[-14,28],[-1,-13],[-5,-19],[1,-5],[0,-5],[-45,6],[-15,-1],[10,-5],[10,-2],[20,-4],[22,0],[7,3],[0,5],[-4,9],[10,-3],[0,-14],[-11,-15],[-19,-6],[0,6],[9,5],[-3,1],[-2,1],[-1,2],[-3,2],[-5,-6],[-4,2],[-5,4],[-6,0],[-3,-4],[-1,-5],[-2,-5],[-4,-3],[-5,1],[-15,10],[-21,6],[-10,-5],[-21,-7],[-8,-5],[-9,-10],[-8,-12],[-9,-8],[-14,-1],[3,13],[2,23],[5,12],[-9,-1],[-8,1],[-7,2],[-6,2],[-1,8],[-21,13],[-8,11],[-2,12],[1,17],[2,15],[5,9],[7,-1],[39,0],[8,1],[4,-10],[-3,-12],[-8,-10],[-8,-5],[10,-1],[6,8],[9,25],[13,24],[7,22],[13,27],[15,21],[11,1],[6,11],[5,3],[6,-4],[6,-7],[6,-1],[6,5],[5,6],[3,3],[7,7],[30,46],[-7,-4],[-3,-3],[-4,-4],[2,7],[1,11],[-3,25],[-2,6],[-7,6],[-1,6],[2,6],[5,2],[6,-2],[2,-6],[1,-12],[3,-8],[13,-11],[-1,-31],[-1,-9],[-4,-8],[-6,-2],[-5,-5],[-8,-1],[-2,-4],[-1,-8],[2,-32],[4,10],[10,34],[5,4],[4,2],[4,3],[6,28],[1,8],[-3,17],[-17,31],[-5,18],[-3,65],[4,33],[16,61],[10,23],[15,19],[23,16],[-5,7],[0,7],[5,5],[9,2],[9,26],[86,127],[40,43],[31,19],[11,11],[40,25],[8,9],[15,25],[68,77],[49,71],[0,8],[18,41],[13,41],[2,9],[0,17],[2,6],[3,6],[4,3],[12,4],[4,3],[4,2],[3,-1],[2,1],[1,6],[-1,4],[-4,7],[-1,5],[10,21],[3,6],[16,34],[2,4],[3,5],[2,7],[-36,-5],[-18,36],[-5,50],[-1,38],[2,9],[6,19],[2,12],[-2,10],[-11,39],[-8,3],[-19,1],[-15,5],[-7,-1],[-3,-10],[-8,3],[-6,3],[-5,5],[-3,16],[-3,7],[-5,6],[-3,8],[-39,56],[-21,20],[-12,8],[-50,16],[-16,-3],[-80,-39],[-21,-6],[-15,3],[-7,3],[-23,4],[-17,1],[-5,-1],[-5,-4],[-8,-8],[-22,-19],[-1,-10],[3,-6],[6,-3],[7,4],[-3,1],[-1,0],[-1,4],[14,5],[19,15],[12,6],[0,-5],[4,-11],[5,6],[15,-6],[17,-4],[18,0],[13,7],[12,10],[16,9],[18,5],[16,0],[11,-4],[2,-4],[-1,-4],[-2,-7],[2,-6],[3,-6],[2,-7],[-4,-7],[-5,-7],[-10,-15],[-7,-7],[-53,-23],[-14,-2],[-11,6],[-12,5],[-45,-2],[-42,14],[-16,2],[-32,-4],[-13,1],[-7,9],[5,0],[2,-5],[4,0],[4,2],[5,3],[-9,1],[-6,5],[-2,5],[-3,4],[-6,1],[-22,-1],[-16,1],[-41,15],[-49,6],[-3,-4],[11,-7],[15,-4],[31,-2],[-12,-5],[-12,0],[-23,5],[-50,0],[-24,3],[-24,8],[-22,12],[-18,14],[16,-5],[51,-9],[11,-5],[7,-4],[8,-2],[10,1],[7,3],[6,5],[-2,2],[-44,13],[-64,9],[-31,8],[-45,19],[-17,3],[-62,0],[-32,8],[-11,2],[-7,-2],[-16,-7],[-20,-3],[-16,-6],[-15,-8],[-3,-7],[6,1],[29,6],[26,14],[17,0],[17,-3],[15,-6],[-47,1],[-11,-4],[-10,-7],[-13,-4],[-40,-4],[-24,-7],[-12,-2],[-13,3],[-25,10],[-13,3],[-57,0],[-14,-4],[-27,-12],[-14,-5],[-45,-5],[-15,-6],[-45,-41],[-25,-17],[-89,-21],[-26,-10],[-14,-4],[-32,-4],[-48,-14],[-62,-10],[-5,-2],[-16,-7],[-7,-2],[-8,1],[-17,5],[-29,-4],[-60,-17],[-138,-14],[-101,-18],[-58,0],[-79,-13],[-73,-27],[-13,-2],[-13,-5],[-44,-32],[-13,-5],[0,579],[3817,0],[-47,-25],[0,16],[-7,7],[-11,0],[-13,-7],[12,-8],[0,-10],[-9,-9],[-12,-5],[-7,0],[-6,0],[-6,3],[-5,4],[-2,4],[-2,4],[-3,4],[-3,2],[-5,-2],[-5,-5],[-3,-6],[-3,-5],[-2,-13],[1,-13],[6,-11],[10,-8],[31,-9],[31,-1],[30,7],[73,49],[28,13],[58,17],[33,5],[29,-5],[16,-23],[-5,-30],[-30,-61],[10,-15],[31,3],[31,17],[35,29]],[[1326,702],[-4,1],[-2,0],[1,-5],[1,-6],[0,-3],[1,1],[2,0],[3,3],[0,4],[-2,5]],[[1582,702],[-8,-21],[0,-5],[6,-1],[6,4],[8,7],[6,-9],[-1,-17],[-5,-15],[-8,-6],[-9,1],[-10,5],[-8,-1],[-15,-16],[-12,-9],[-10,-9],[-6,-12],[-3,-37],[-7,-28],[-2,-16],[-1,-3],[0,-2],[-1,-3],[-2,-3],[10,-10],[1,11],[3,9],[4,8],[1,6],[5,34],[5,19],[9,10],[9,7],[7,12],[15,-11],[10,7],[8,13],[9,13],[15,30],[3,12],[-4,15],[-9,8],[-10,3],[-9,0]],[[1815,620],[11,-5],[4,2],[2,5],[-3,7],[-8,1],[-6,-5],[0,-5]],[[1400,489],[1,14],[-3,8],[-3,-1],[-2,-8],[0,-15],[1,-6],[1,1],[5,7]],[[1584,506],[2,4],[2,3],[2,3],[4,1],[1,-3],[-1,-8],[5,0],[0,19],[2,7],[3,6],[-12,37],[-9,14],[-9,-8],[8,-8],[3,-20],[-1,-47]],[[1417,574],[-6,11],[-6,-4],[1,-5],[5,-8],[6,6]],[[1403,644],[0,4],[3,4],[1,7],[-7,11],[-13,10],[-11,4],[-5,-3],[0,-4],[2,-3],[3,-3],[4,-6],[6,-3],[6,1],[1,-3],[1,-16],[1,-7],[5,0],[3,7]],[[1350,681],[-5,3],[-5,0],[2,-7],[3,-4],[4,-5],[3,10],[-2,3]],[[1326,706],[4,7],[1,3],[-1,6],[-4,-4],[-4,-9],[0,-6],[4,3]],[[1416,715],[4,-7],[4,0],[-7,41],[-7,18],[-10,9],[9,-43],[7,-18]],[[1358,799],[23,8],[17,15],[7,26],[-9,-4],[-41,-29],[-15,-7],[-5,-5],[-1,-2],[1,-4],[23,2]],[[1427,847],[1,-5],[11,13],[-2,13],[1,14],[3,7],[-4,0],[-3,-7],[-1,-9],[-1,-7],[3,-4],[1,-5],[-3,-4],[-4,1],[-2,-7]],[[1416,939],[-12,1],[5,-7],[9,2],[6,2],[-8,2]],[[1518,1039],[6,34],[-5,0],[-1,-7],[-1,-5],[-7,-10],[-6,11],[0,5],[7,3],[4,5],[3,5],[1,8],[5,-2],[5,-3],[7,14],[15,41],[6,9],[9,9],[2,17],[-8,11],[-16,-11],[-11,5],[-7,-7],[-11,-41],[-1,-7],[-1,-6],[-4,-4],[-3,-3],[-2,-3],[-13,-48],[-3,-24],[12,0],[-4,-20],[-10,-13],[-26,-19],[-3,-1],[-7,1],[0,-6],[31,9],[23,23],[14,30]],[[1439,1075],[-4,2],[-2,-14],[6,12]],[[1484,1114],[1,8],[-2,3],[-4,-2],[-2,0],[-4,-3],[-5,-7],[2,-5],[8,1],[6,5]],[[1490,1121],[2,-1],[6,5],[5,8],[-1,8],[-2,3],[-1,-1],[-1,-3],[-1,-4],[-4,-3],[-4,-3],[-1,-2],[1,-3],[1,-4]],[[1545,1197],[3,8],[0,4],[0,3],[-3,1],[-2,1],[-2,0],[-1,-1],[1,-4],[0,-1],[-2,2],[-3,-5],[-2,-13],[4,-4],[7,9]],[[1941,1403],[9,27],[-4,34],[13,26],[-6,-6],[-5,-7],[-2,-7],[-3,-6],[-4,-43],[-5,-19],[-3,-8],[-8,-10],[-12,-15],[-3,-6],[5,0],[28,40]],[[1427,816],[0,14],[-4,-12],[-1,-13],[5,11]],[[2003,1555],[1,20],[-6,37],[-9,11],[7,-63],[-3,-22],[10,17]],[[2200,2803],[38,35],[7,9],[3,5],[3,8],[7,5],[7,4],[3,4],[3,13],[19,35],[8,13],[22,18],[12,13],[10,25],[25,44],[9,12],[1,2],[-1,5],[-4,3],[-3,0],[-2,-3],[-5,-11],[-11,-9],[-13,-5],[-9,3],[-16,-10],[-10,-2],[-7,1],[-18,7],[-8,2],[-2,1],[-4,3],[-4,2],[-7,-1],[-6,-3],[-11,-10],[-5,-2],[-23,-32],[-29,-54],[-9,-30],[-2,-32],[3,-18],[10,-33],[2,-15],[5,-7],[12,5]],[[2383,3556],[-8,18],[-2,16],[-6,-11],[7,-23],[14,-24],[15,-10],[-20,34]],[[2337,3724],[-2,24],[-3,11],[-2,9],[-1,8],[-4,2],[1,-3],[0,-9],[2,-8],[0,-6],[4,-9],[3,-14],[2,-5]],[[1609,71],[4,8],[-6,-5],[-4,-5],[6,2]],[[1391,192],[1,-4],[4,9],[0,10],[-5,-6],[0,-9]],[[1422,341],[8,0],[2,0],[2,6],[-1,4],[-12,-1],[-4,-12],[5,3]],[[1763,413],[8,9],[1,5],[-6,4],[-5,-15],[-1,-12],[3,9]],[[1393,426],[3,5],[-5,3],[-3,-7],[0,-6],[1,0],[0,2],[4,3]],[[1214,0],[-7,0],[3,10],[20,10],[-5,-8],[-11,-12]],[[1207,0],[3,10],[20,10],[-5,-8],[-11,-12]],[[1225,0],[4,5],[4,8],[7,55],[-1,7],[-3,12],[-1,10],[2,8],[3,5],[4,4],[2,3],[1,7],[4,5],[9,8],[3,0],[10,-1],[2,1],[1,4],[-2,4],[-2,2],[-2,0],[-2,13],[-15,23],[-3,14],[4,12],[8,14],[10,11],[8,8],[7,3],[6,-1],[5,2],[2,9],[-4,19],[-2,25],[-4,16],[-6,15],[-9,12],[-15,5],[-7,4],[-3,10],[-4,18],[0,7],[0,1],[-3,15],[-5,16],[2,30],[1,17],[7,78],[30,102],[2,12],[8,7],[19,-3],[19,0],[9,15],[-7,6],[-31,6],[-7,6],[-5,12],[-26,13],[-9,10],[-3,18],[3,17],[8,14],[19,23],[5,13],[18,64],[9,64],[-4,20],[30,60],[12,9],[28,70],[2,12],[10,19],[3,12],[6,71],[-6,91],[-3,4],[-7,-1],[-7,-3],[-6,-5],[-6,-9],[-6,-2],[-5,1],[0,9],[3,3],[17,7],[14,12],[4,7],[2,11],[-4,2],[-9,-1],[-25,-8],[-22,-15],[-15,-2],[-10,3],[-21,10],[-16,2],[-12,-2],[-12,-5],[-24,-18],[-12,-14],[-7,-5],[-5,0],[-2,4],[4,6],[16,22],[7,12],[4,11],[-35,-16],[-10,1],[-8,12],[5,11],[56,41],[15,19],[-13,11],[0,3],[0,2],[3,3],[3,1],[9,2],[6,14],[16,24],[3,12],[20,38],[17,23],[18,37],[4,1],[8,5],[5,6],[-7,4],[-8,-2],[-7,-6],[-7,-7],[-3,-6],[1,14],[5,11],[4,9],[-5,14],[-8,-16],[-13,-14],[-14,-12],[-15,-6],[2,8],[4,7],[4,6],[32,28],[5,3],[18,1],[13,3],[8,10],[2,6],[-4,-16],[-2,-14],[5,-5],[7,4],[5,11],[4,13],[2,11],[6,21],[14,22],[18,20],[17,14],[4,-31],[5,-13],[8,-11],[6,-13],[1,-17],[-4,-31],[-1,-1],[-2,-3],[-2,-5],[-1,-5],[2,-4],[4,-4],[3,-4],[2,-1],[-2,-9],[-7,-13],[-2,-6],[-5,-13],[-12,-15],[-7,-17],[4,-17],[-24,-29],[-1,-5],[-1,-11],[2,-13],[7,-5],[18,-5],[38,-22],[19,-5],[14,-1],[8,-4],[3,-9],[3,-12],[-2,0],[-3,-6],[-2,-7],[4,-3],[2,-1],[20,-4],[3,-6],[0,-8],[-1,-6],[1,-4],[10,-12],[2,-1],[-2,-13],[-4,-8],[-3,-8],[5,-9],[4,5],[4,7],[4,8],[2,7],[0,-10],[-2,-20],[-4,-20],[-6,-8],[-6,-6],[2,-11],[9,-3],[12,15],[4,-17],[1,-21],[6,0],[0,51],[2,12],[10,24],[2,12],[4,11],[35,52],[6,18],[4,54],[4,12],[9,16],[2,17],[-4,34],[4,33],[10,28],[14,24],[17,21],[13,21],[27,95],[14,101],[16,26],[16,37],[10,24],[-6,18],[9,14],[8,42],[8,18],[19,29],[11,11],[15,8],[0,5],[-15,-1],[-9,-8],[-8,-10],[-8,-7],[15,31],[-35,-3],[-17,-5],[-8,-10],[-3,-14],[-8,-13],[-19,-24],[-15,-13],[-7,0],[-7,5],[-13,3],[-8,8],[5,18],[15,32],[-12,4],[5,9],[11,12],[6,12],[-5,0],[-5,-15],[-5,0],[8,30],[28,24],[33,18],[26,7],[-4,-10],[-3,-10],[-5,-8],[-13,-4],[26,5],[6,3],[21,21],[4,3],[13,4],[12,10],[10,13],[8,15],[7,51],[5,8],[3,7],[-6,17],[-14,28],[-1,-13],[-5,-19],[1,-5],[0,-5],[-45,6],[-15,-1],[10,-5],[10,-2],[20,-4],[22,0],[7,3],[0,5],[-4,9],[10,-3],[0,-14],[-11,-15],[-19,-6],[0,6],[9,5],[-3,1],[-2,1],[-1,2],[-3,2],[-5,-6],[-4,2],[-5,4],[-6,0],[-3,-4],[-1,-5],[-2,-5],[-4,-3],[-5,1],[-15,10],[-21,6],[-10,-5],[-21,-7],[-8,-5],[-9,-10],[-8,-12],[-9,-8],[-14,-1],[3,13],[2,23],[5,12],[-9,-1],[-8,1],[-7,2],[-6,2],[-1,8],[-21,13],[-8,11],[-2,12],[1,17],[2,15],[5,9],[7,-1],[39,0],[8,1],[4,-10],[-3,-12],[-8,-10],[-8,-5],[10,-1],[6,8],[9,25],[13,24],[7,22],[13,27],[15,21],[11,1],[6,11],[5,3],[6,-4],[6,-7],[6,-1],[6,5],[5,6],[3,3],[7,7],[30,46],[-7,-4],[-3,-3],[-4,-4],[2,7],[1,11],[-3,25],[-2,6],[-7,6],[-1,6],[2,6],[5,2],[6,-2],[2,-6],[1,-12],[3,-8],[13,-11],[-1,-31],[-1,-9],[-4,-8],[-6,-2],[-5,-5],[-8,-1],[-2,-4],[-1,-8],[2,-32],[4,10],[10,34],[5,4],[4,2],[4,3],[6,28],[1,8],[-3,17],[-17,31],[-5,18],[-3,65],[4,33],[16,61],[10,23],[15,19],[23,16],[-5,7],[0,7],[5,5],[9,2],[9,26],[86,127],[40,43],[31,19],[11,11],[40,25],[8,9],[15,25],[68,77],[49,71],[0,8],[18,41],[13,41],[2,9],[0,17],[2,6],[3,6],[4,3],[12,4],[4,3],[4,2],[3,-1],[2,1],[1,6],[-1,4],[-4,7],[-1,5],[10,21],[3,6],[16,34],[2,4],[3,5],[2,7],[-36,-5],[-18,36],[-5,50],[-1,38],[2,9],[6,19],[2,12],[-2,10],[-11,39],[-8,3],[-19,1],[-15,5],[-7,-1],[-3,-10],[-8,3],[-6,3],[-5,5],[-3,16],[-3,7],[-5,6],[-3,8],[-39,56],[-21,20],[-12,8],[-50,16],[-16,-3],[-80,-39],[-21,-6],[-15,3],[-7,3],[-23,4],[-17,1],[-5,-1],[-5,-4],[-8,-8],[-22,-19],[-1,-10],[3,-6],[6,-3],[7,4],[-3,1],[-1,0],[-1,4],[14,5],[19,15],[12,6],[0,-5],[4,-11],[5,6],[15,-6],[17,-4],[18,0],[13,7],[12,10],[16,9],[18,5],[16,0],[11,-4],[2,-4],[-1,-4],[-2,-7],[2,-6],[3,-6],[2,-7],[-4,-7],[-5,-7],[-10,-15],[-7,-7],[-53,-23],[-14,-2],[-11,6],[-12,5],[-45,-2],[-42,14],[-16,2],[-32,-4],[-13,1],[-7,9],[5,0],[2,-5],[4,0],[4,2],[5,3],[-9,1],[-6,5],[-2,5],[-3,4],[-6,1],[-22,-1],[-16,1],[-41,15],[-49,6],[-3,-4],[11,-7],[15,-4],[31,-2],[-12,-5],[-12,0],[-23,5],[-50,0],[-24,3],[-24,8],[-22,12],[-18,14],[16,-5],[51,-9],[11,-5],[7,-4],[8,-2],[10,1],[7,3],[6,5],[-2,2],[-44,13],[-64,9],[-31,8],[-45,19],[-17,3],[-62,0],[-32,8],[-11,2],[-7,-2],[-16,-7],[-20,-3],[-16,-6],[-15,-8],[-3,-7],[6,1],[29,6],[26,14],[17,0],[17,-3],[15,-6],[-47,1],[-11,-4],[-10,-7],[-13,-4],[-40,-4],[-24,-7],[-12,-2],[-13,3],[-25,10],[-13,3],[-57,0],[-14,-4],[-27,-12],[-14,-5],[-45,-5],[-15,-6],[-45,-41],[-25,-17],[-89,-21],[-26,-10],[-14,-4],[-32,-4],[-48,-14],[-62,-10],[-5,-2],[-16,-7],[-7,-2],[-8,1],[-17,5],[-29,-4],[-60,-17],[-138,-14],[-101,-18],[-58,0],[-79,-13],[-73,-27],[-13,-2],[-13,-5],[-44,-32],[-13,-5]],[[2367,3053],[-5,-11],[-11,-9],[-13,-5],[-9,3],[-16,-10],[-10,-2],[-7,1],[-18,7],[-8,2],[-2,1],[-4,3],[-4,2],[-7,-1],[-6,-3],[-11,-10],[-5,-2],[-23,-32],[-29,-54],[-9,-30],[-2,-32],[3,-18],[10,-33],[2,-15],[5,-7],[12,5],[38,35],[7,9],[3,5],[3,8],[7,5],[7,4],[3,4],[3,13],[19,35],[8,13],[22,18],[12,13],[10,25],[25,44],[9,12],[1,2],[-1,5],[-4,3],[-3,0],[-2,-3]],[[1400,776],[9,-43],[7,-18],[4,-7],[4,0],[-7,41],[-7,18],[-10,9]],[[1574,581],[8,-8],[3,-20],[-1,-47],[2,4],[2,3],[2,3],[4,1],[1,-3],[-1,-8],[5,0],[0,19],[2,7],[3,6],[-12,37],[-9,14],[-9,-8]],[[1340,808],[-5,-5],[-1,-2],[1,-4],[23,2],[23,8],[17,15],[7,26],[-9,-4],[-41,-29],[-15,-7]],[[1582,702],[-8,-21],[0,-5],[6,-1],[6,4],[8,7],[6,-9],[-1,-17],[-5,-15],[-8,-6],[-9,1],[-10,5],[-8,-1],[-15,-16],[-12,-9],[-10,-9],[-6,-12],[-3,-37],[-7,-28],[-2,-16],[-1,-3],[0,-2],[-1,-3],[-2,-3],[10,-10],[1,11],[3,9],[4,8],[1,6],[5,34],[5,19],[9,10],[9,7],[7,12],[15,-11],[10,7],[8,13],[9,13],[15,30],[3,12],[-4,15],[-9,8],[-10,3],[-9,0]],[[1519,1073],[-1,-7],[-1,-5],[-7,-10],[-6,11],[0,5],[7,3],[4,5],[3,5],[1,8],[5,-2],[5,-3],[7,14],[15,41],[6,9],[9,9],[2,17],[-8,11],[-16,-11],[-11,5],[-7,-7],[-11,-41],[-1,-7],[-1,-6],[-4,-4],[-3,-3],[-2,-3],[-13,-48],[-3,-24],[12,0],[-4,-20],[-10,-13],[-26,-19],[-3,-1],[-7,1],[0,-6],[31,9],[23,23],[14,30],[6,34],[-5,0]],[[1943,1464],[-4,-43],[-5,-19],[-3,-8],[-8,-10],[-12,-15],[-3,-6],[5,0],[28,40],[9,27],[-4,34],[13,26],[-6,-6],[-5,-7],[-2,-7],[-3,-6]],[[1989,1623],[7,-63],[-3,-22],[10,17],[1,20],[-6,37],[-9,11]],[[2403,3522],[-20,34],[-8,18],[-2,16],[-6,-11],[7,-23],[14,-24],[15,-10]],[[3817,4096],[-47,-25],[0,16],[-7,7],[-11,0],[-13,-7],[12,-8],[0,-10],[-9,-9],[-12,-5],[-7,0],[-6,0],[-6,3],[-5,4],[-2,4],[-2,4],[-3,4],[-3,2],[-5,-2],[-5,-5],[-3,-6],[-3,-5],[-2,-13],[1,-13],[6,-11],[10,-8],[31,-9],[31,-1],[30,7],[73,49],[28,13],[58,17],[33,5],[29,-5],[16,-23],[-5,-30],[-30,-61],[10,-15],[31,3],[31,17],[35,29]],[[1545,1213],[-2,1],[-2,0],[-1,-1],[1,-4],[0,-1],[-2,2],[-3,-5],[-2,-13],[4,-4],[7,9],[3,8],[0,4],[0,3],[-3,1]],[[1500,1144],[-1,-1],[-1,-3],[-1,-4],[-4,-3],[-4,-3],[-1,-2],[1,-3],[1,-4],[2,-1],[6,5],[5,8],[-1,8],[-2,3]],[[1479,1123],[-2,0],[-4,-3],[-5,-7],[2,-5],[8,1],[6,5],[1,8],[-2,3],[-4,-2]],[[1387,680],[-11,4],[-5,-3],[0,-4],[2,-3],[3,-3],[4,-6],[6,-3],[6,1],[1,-3],[1,-16],[1,-7],[5,0],[3,7],[0,4],[3,4],[1,7],[-7,11],[-13,10]],[[934,497],[-37,0],[-22,-19],[-35,-22],[-12,-2],[-34,1],[-19,-3],[-52,-29],[-32,-14],[-18,-14],[-20,-30],[-25,-29],[-9,-18]],[[2201,3440],[-134,-71],[-116,-55],[-102,-32],[-5,4],[-94,-11]],[[1750,3275],[-85,-12],[-316,-94],[-38,-1]],[[251,3335],[19,17]],[[184,3275],[67,60]],[[312,3339],[-42,13]],[[1311,3168],[-34,4],[-24,-3],[-129,-27],[-71,11],[-350,67],[-391,119]],[[0,2989],[15,44],[-3,28],[54,33],[31,38],[45,95],[42,48]],[[1423,2270],[88,111],[17,30],[38,84],[22,28],[40,38],[101,83],[45,80],[64,34],[23,17],[57,95],[52,74],[59,63],[80,68],[21,23],[37,53],[24,17],[62,82],[40,146]],[[1119,1458],[5,28],[17,44],[37,71],[123,158],[29,30],[26,4],[17,12],[12,210],[16,87],[35,78],[-13,90]],[[1236,1446],[-7,-8],[-9,2]],[[1220,1440],[-42,11]],[[1170,1429],[8,22],[-16,4],[-32,-8],[-11,11]],[[618,1419],[83,-10],[112,-2],[59,17],[176,11],[71,23]],[[0,1478],[2,-3],[25,-5],[75,0],[23,-15],[12,-4],[8,8],[143,-3],[28,7],[54,-13],[248,-31]],[[619,318],[-44,-31],[-33,-10],[-32,-30],[-15,-8],[-11,-1],[-20,5],[-11,-2],[-22,-16],[-37,-3],[-29,1],[-49,15],[-30,1],[-11,-6],[-10,-29],[-10,-10],[-38,-10],[-29,-4],[-57,7]],[[252,0],[-1,1],[-40,26],[-18,18],[-37,51],[-24,27],[-4,13],[5,20],[-5,24]],[[1317,667],[-32,12],[-12,19],[-46,10],[-19,18],[-11,16],[-8,31],[-14,12],[-20,6],[-12,23],[-14,18],[-14,35],[-10,20],[-3,57],[-20,36],[-1,21],[3,20],[-22,47],[-9,6],[-8,14],[10,22],[-6,49],[-9,17],[-4,15],[8,28],[11,7],[14,1],[8,9],[7,41],[12,28],[6,35],[68,89]],[[934,497],[66,-2],[12,6],[18,18],[14,14],[13,21],[36,36],[39,11],[19,15],[18,9],[9,11],[29,9],[49,-2],[16,17],[30,11]],[[2293,3396],[-88,47],[-4,-3]],[[1358,799],[-23,-2],[-1,4],[1,2],[5,5],[15,7],[41,29],[9,4],[-7,-26],[-17,-15],[-23,-8]],[[1400,670],[7,-11],[-1,-7],[-3,-4],[0,-4],[-3,-7],[-5,0],[-1,7],[-1,16],[-1,3],[-6,-1],[-6,3],[-4,6],[-3,3],[-2,3],[0,4],[5,3],[11,-4],[13,-10]],[[1424,708],[-4,0],[-4,7],[-7,18],[-9,43],[10,-9],[7,-18],[7,-41]],[[1599,525],[0,-19],[-5,0],[1,8],[-1,3],[-4,-1],[-2,-3],[-2,-3],[-2,-4],[1,47],[-3,20],[-8,8],[9,8],[9,-14],[12,-37],[-3,-6],[-2,-7]],[[1610,691],[4,-15],[-3,-12],[-15,-30],[-9,-13],[-8,-13],[-10,-7],[-15,11],[-7,-12],[-9,-7],[-9,-10],[-5,-19],[-5,-34],[-1,-6],[-4,-8],[-3,-9],[-1,-11],[-10,10],[2,3],[1,3],[0,2],[1,3],[2,16],[7,28],[3,37],[6,12],[10,9],[12,9],[15,16],[8,1],[10,-5],[9,-1],[8,6],[5,15],[1,17],[-6,9],[-8,-7],[-6,-4],[-6,1],[0,5],[8,21],[9,0],[10,-3],[9,-8]],[[4096,4096],[0,-87],[-35,-29],[-31,-17],[-31,-3],[-10,15],[30,61],[5,30],[-16,23],[-29,5],[-33,-5],[-58,-17],[-28,-13],[-73,-49],[-30,-7],[-31,1],[-31,9],[-10,8],[-6,11],[-1,13],[2,13],[3,5],[3,6],[5,5],[5,2],[3,-2],[3,-4],[2,-4],[2,-4],[5,-4],[6,-3],[6,0],[7,0],[12,5],[9,9],[0,10],[-12,8],[13,7],[11,0],[7,-7],[0,-16],[47,25],[279,0]],[[1568,1173],[-2,-17],[-9,-9],[-6,-9],[-15,-41],[-7,-14],[-5,3],[-5,2],[-1,-8],[-3,-5],[-4,-5],[-7,-3],[0,-5],[6,-11],[7,10],[1,5],[1,7],[5,0],[-6,-34],[-14,-30],[-23,-23],[-31,-9],[0,6],[7,-1],[3,1],[26,19],[10,13],[4,20],[-12,0],[3,24],[13,48],[2,3],[3,3],[4,4],[1,6],[1,7],[11,41],[7,7],[11,-5],[16,11],[8,-11]],[[0,0],[0,3517],[13,5],[44,32],[13,5],[13,2],[73,27],[79,13],[58,0],[101,18],[52,5],[86,9],[60,17],[29,4],[17,-5],[8,-1],[7,2],[16,7],[5,2],[62,10],[48,14],[32,4],[14,4],[26,10],[89,21],[25,17],[45,41],[15,6],[45,5],[14,5],[27,12],[14,4],[57,0],[13,-3],[25,-10],[13,-3],[12,2],[24,7],[40,4],[13,4],[10,7],[11,4],[47,-1],[-15,6],[-17,3],[-17,0],[-26,-14],[-29,-6],[-6,-1],[3,7],[15,8],[16,6],[20,3],[16,7],[7,2],[11,-2],[32,-8],[62,0],[17,-3],[45,-19],[31,-8],[64,-9],[44,-13],[2,-2],[-6,-5],[-7,-3],[-10,-1],[-8,2],[-7,4],[-11,5],[-51,9],[-16,5],[18,-14],[22,-12],[24,-8],[24,-3],[50,0],[23,-5],[12,0],[12,5],[-31,2],[-15,4],[-11,7],[3,4],[49,-6],[41,-15],[16,-1],[22,1],[6,-1],[3,-4],[2,-5],[6,-5],[9,-1],[-5,-3],[-4,-2],[-4,0],[-2,5],[-5,0],[7,-9],[13,-1],[32,4],[16,-2],[42,-14],[45,2],[12,-5],[11,-6],[14,2],[53,23],[7,7],[10,15],[5,7],[4,7],[-2,7],[-3,6],[-2,6],[2,7],[1,4],[-2,4],[-11,4],[-16,0],[-18,-5],[-16,-9],[-12,-10],[-13,-7],[-18,0],[-17,4],[-15,6],[-5,-6],[-4,11],[0,5],[-12,-6],[-19,-15],[-14,-5],[1,-4],[1,0],[3,-1],[-7,-4],[-6,3],[-3,6],[1,10],[22,19],[8,8],[5,4],[5,1],[17,-1],[23,-4],[7,-3],[15,-3],[21,6],[80,39],[16,3],[50,-16],[12,-8],[21,-20],[39,-56],[3,-8],[5,-6],[3,-7],[3,-16],[5,-5],[6,-3],[8,-3],[3,10],[7,1],[15,-5],[19,-1],[8,-3],[11,-39],[2,-10],[-2,-12],[-6,-19],[-2,-9],[1,-38],[5,-50],[18,-36],[36,5],[-2,-7],[-3,-5],[-2,-4],[-16,-34],[-3,-6],[-10,-21],[1,-5],[4,-7],[1,-4],[-1,-6],[-2,-1],[-3,1],[-4,-2],[-4,-3],[-12,-4],[-4,-3],[-3,-6],[-2,-6],[0,-17],[-2,-9],[-13,-41],[-18,-41],[0,-8],[-49,-71],[-68,-77],[-15,-25],[-8,-9],[-40,-25],[-11,-11],[-31,-19],[-40,-43],[-86,-127],[-9,-26],[-9,-2],[-5,-5],[0,-7],[5,-7],[-23,-16],[-15,-19],[-10,-23],[-16,-61],[-4,-33],[3,-65],[5,-18],[17,-31],[3,-17],[-1,-8],[-6,-28],[-4,-3],[-4,-2],[-5,-4],[-10,-34],[-4,-10],[-2,32],[1,8],[2,4],[8,1],[5,5],[6,2],[4,8],[1,9],[1,31],[-13,11],[-3,8],[-1,12],[-2,6],[-6,2],[-5,-2],[-2,-6],[1,-6],[7,-6],[2,-6],[3,-25],[-1,-11],[-2,-7],[4,4],[3,3],[7,4],[-30,-46],[-7,-7],[-3,-3],[-5,-6],[-6,-5],[-6,1],[-6,7],[-6,4],[-5,-3],[-6,-11],[-11,-1],[-15,-21],[-13,-27],[-7,-22],[-13,-24],[-9,-25],[-6,-8],[-10,1],[8,5],[8,10],[3,12],[-4,10],[-8,-1],[-39,0],[-7,1],[-5,-9],[-2,-15],[-1,-17],[2,-12],[8,-11],[21,-13],[1,-8],[6,-2],[7,-2],[8,-1],[9,1],[-5,-12],[-2,-23],[-3,-13],[14,1],[9,8],[8,12],[9,10],[8,5],[21,7],[10,5],[21,-6],[15,-10],[5,-1],[4,3],[2,5],[1,5],[3,4],[6,0],[5,-4],[4,-2],[5,6],[3,-2],[1,-2],[2,-1],[3,-1],[-9,-5],[0,-6],[19,6],[11,15],[0,14],[-10,3],[4,-9],[0,-5],[-7,-3],[-22,0],[-20,4],[-10,2],[-10,5],[15,1],[45,-6],[0,5],[-1,5],[5,19],[1,13],[14,-28],[6,-17],[-3,-7],[-5,-8],[-7,-51],[-8,-15],[-10,-13],[-12,-10],[-13,-4],[-4,-3],[-21,-21],[-6,-3],[-26,-5],[13,4],[5,8],[3,10],[4,10],[-26,-7],[-33,-18],[-28,-24],[-8,-30],[5,0],[5,15],[5,0],[-6,-12],[-11,-12],[-5,-9],[12,-4],[-15,-32],[-5,-18],[8,-8],[13,-3],[7,-5],[7,0],[15,13],[19,24],[8,13],[3,14],[8,10],[17,5],[35,3],[-15,-31],[8,7],[8,10],[9,8],[15,1],[0,-5],[-15,-8],[-11,-11],[-19,-29],[-8,-18],[-8,-42],[-9,-14],[6,-18],[-10,-24],[-16,-37],[-16,-26],[-14,-101],[-27,-95],[-13,-21],[-17,-21],[-14,-24],[-10,-28],[-4,-33],[4,-34],[-2,-17],[-9,-16],[-4,-12],[-4,-54],[-6,-18],[-35,-52],[-4,-11],[-2,-12],[-10,-24],[-2,-12],[0,-51],[-6,0],[-1,21],[-4,17],[-12,-15],[-9,3],[-2,11],[6,6],[6,8],[4,20],[2,20],[0,10],[-2,-7],[-4,-8],[-4,-7],[-4,-5],[-5,9],[3,8],[4,8],[2,13],[-2,1],[-10,12],[-1,4],[1,6],[0,8],[-3,6],[-20,4],[-2,1],[-4,3],[2,7],[3,6],[2,0],[-3,12],[-3,9],[-8,4],[-14,1],[-19,5],[-38,22],[-18,5],[-7,5],[-2,13],[1,11],[1,5],[24,29],[-4,17],[7,17],[12,15],[5,13],[2,6],[7,13],[2,9],[-2,1],[-3,4],[-4,4],[-2,4],[1,5],[2,5],[2,3],[1,1],[4,31],[-1,17],[-6,13],[-8,11],[-5,13],[-4,31],[-17,-14],[-18,-20],[-14,-22],[-6,-21],[-2,-11],[-4,-13],[-5,-11],[-7,-4],[-5,5],[2,14],[4,16],[-2,-6],[-8,-10],[-13,-3],[-18,-1],[-5,-3],[-32,-28],[-4,-6],[-4,-7],[-2,-8],[15,6],[14,12],[13,14],[8,16],[5,-14],[-4,-9],[-5,-11],[-1,-14],[3,6],[7,7],[7,6],[8,2],[7,-4],[-5,-6],[-8,-5],[-4,-1],[-18,-37],[-17,-23],[-20,-38],[-3,-12],[-16,-24],[-6,-14],[-9,-2],[-3,-1],[-3,-3],[0,-2],[0,-3],[13,-11],[-15,-19],[-56,-41],[-5,-11],[8,-12],[10,-1],[35,16],[-4,-11],[-7,-12],[-16,-22],[-4,-6],[2,-4],[5,0],[7,5],[12,14],[24,18],[12,5],[12,2],[16,-2],[21,-10],[10,-3],[15,2],[22,15],[25,8],[9,1],[4,-2],[-2,-11],[-4,-7],[-14,-12],[-17,-7],[-3,-3],[0,-9],[5,-1],[6,2],[6,9],[6,5],[7,3],[7,1],[3,-4],[6,-91],[-6,-71],[-3,-12],[-10,-19],[-2,-12],[-28,-70],[-12,-9],[-30,-60],[4,-20],[-9,-64],[-18,-64],[-5,-13],[-19,-23],[-8,-14],[-3,-17],[3,-18],[9,-10],[26,-13],[5,-12],[7,-6],[31,-6],[7,-6],[-9,-15],[-19,0],[-19,3],[-8,-7],[-2,-12],[-30,-102],[-7,-78],[-1,-17],[-2,-30],[5,-16],[3,-15],[0,-1],[0,-7],[4,-18],[3,-10],[7,-4],[15,-5],[9,-12],[6,-15],[4,-16],[2,-25],[4,-19],[-2,-9],[-5,-2],[-6,1],[-7,-3],[-8,-8],[-10,-11],[-8,-14],[-4,-12],[3,-14],[15,-23],[2,-13],[2,0],[2,-2],[2,-4],[-1,-4],[-2,-1],[-10,1],[-3,0],[-9,-8],[-4,-5],[-1,-7],[-2,-3],[-4,-4],[-3,-5],[-2,-8],[1,-10],[3,-12],[1,-7],[-7,-55],[-4,-8],[-4,-5],[-11,0],[11,12],[5,8],[-20,-10],[-3,-10],[-1207,0]],[[1913,1363],[-5,0],[3,6],[12,15],[8,10],[3,8],[5,19],[4,43],[3,6],[2,7],[5,7],[6,6],[-13,-26],[4,-34],[-9,-27],[-28,-40]],[[2003,1555],[-10,-17],[3,22],[-7,63],[9,-11],[6,-37],[-1,-20]],[[2367,3034],[-25,-44],[-10,-25],[-12,-13],[-22,-18],[-8,-13],[-19,-35],[-3,-13],[-3,-4],[-7,-4],[-7,-5],[-3,-8],[-3,-5],[-7,-9],[-38,-35],[-12,-5],[-5,7],[-2,15],[-10,33],[-3,18],[2,32],[9,30],[29,54],[23,32],[5,2],[11,10],[6,3],[7,1],[4,-2],[4,-3],[2,-1],[8,-2],[18,-7],[7,-1],[10,2],[16,10],[9,-3],[13,5],[11,9],[5,11],[2,3],[3,0],[4,-3],[1,-5],[-1,-2],[-9,-12]],[[2383,3556],[20,-34],[-15,10],[-14,24],[-7,23],[6,11],[2,-16],[8,-18]],[[599,0],[4,65],[69,1],[-1,78],[-63,-1],[2,34],[93,2],[-25,-40],[0,-48],[21,0],[-32,-91],[-68,0]],[[804,0],[3,184],[111,80],[8,-72],[48,-7],[-17,-36],[16,-8],[-64,-50],[-9,-56],[-38,-24],[5,-11],[-63,0]],[[618,910],[99,52],[81,-52],[67,0],[-1,-122],[-38,-6],[0,46],[-208,1],[0,81]],[[363,484],[19,-54],[90,11],[78,-56],[-131,-72],[-56,12],[-1,47],[-164,-1],[0,168],[165,0],[0,-55]],[[599,0],[-38,0],[20,111],[-41,50],[73,72],[-14,-233]],[[170,910],[194,0],[0,-111],[-194,77],[0,34]],[[85,378],[0,167],[101,0],[0,-167],[-101,0]],[[354,552],[26,38],[-13,94],[42,104],[140,8],[-115,-89],[-19,-261],[-28,-18],[-33,124]],[[1262,1460],[-12,-28],[-15,-7],[20,22],[-33,-12],[-9,34],[49,-9]],[[325,3360],[-22,-37],[-68,15],[16,69],[40,0],[34,-47]],[[2319,3526],[19,-46],[-81,13],[28,29],[34,4]],[[0,796],[0,114],[170,0],[0,-34],[194,-77],[0,111],[254,0],[0,-114],[-618,0]],[[867,0],[69,127],[148,18],[57,-28],[-67,-36],[-12,-34],[-122,-7],[0,-40],[-73,0]],[[3665,4045],[42,36],[27,-17],[2,-49],[48,-9],[129,90],[69,0],[59,-46],[-27,-58],[70,-19],[-35,-29],[-72,0],[4,46],[41,47],[-22,32],[-148,-33],[-64,-52],[-95,16],[-28,45]],[[4096,4091],[0,-100],[-28,-34],[-67,-23],[-24,27],[45,76],[-22,32],[-148,-33],[-64,-52],[-95,16],[-28,45],[-81,0],[0,51],[130,0],[22,-44],[36,13],[-9,19],[-21,-13],[12,17],[24,-5],[7,-18],[53,31],[258,-5]],[[1427,1951],[21,23],[-8,52],[40,13],[24,94],[27,0],[-31,86],[76,113],[1,149],[31,0],[0,58],[73,35],[63,87],[91,1],[0,32],[20,1],[37,-153],[-23,-115],[41,-139],[-74,-396],[-369,-1],[-40,60]]]}