{"objects":{"water":{"type":"GeometryCollection","geometries":[]},"buildings":{"type":"GeometryCollection","geometries":[]},"places":{"type":"GeometryCollection","geometries":[{"type":"Point","properties":{"name:sk":"Kam\u010datsk\u00fd kraj","name:ja":"\u30ab\u30e0\u30c1\u30e3\u30c4\u30ab\u5730\u65b9","name:lt":"Kam\u010diatkos kra\u0161tas","name:he":"\u05de\u05d7\u05d5\u05d6 \u05e7\u05de\u05e6'\u05d8\u05e7\u05d4","kind":"region","official_name":"\u041a\u0430\u043c\u0447\u0430\u0442\u0441\u043a\u0438\u0439 \u043a\u0440\u0430\u0439","min_zoom":4.0,"name:uk":"\u041a\u0430\u043c\u0447\u0430\u0442\u0441\u044c\u043a\u0438\u0439 \u043a\u0440\u0430\u0439","name:pl":"Kraj Kamczacki","name:hu":"Kamcsatkai hat\u00e1rter\u00fclet","name:hr":"Kama\u010datski kraj","id":508057529,"name:eo":"Kam\u0109atko Regiono","name:en":"Kamchatka Krai","name":"\u041a\u0430\u043c\u0447\u0430\u0442\u043a\u0430","kind_detail":"state","name:de":"Kamtschatka","source":"openstreetmap.org","name:fr":"Kamchatka","name:et":"Kamt\u0161atka krai","name:es":"Kamchatka"},"coordinates":[3298,3375]}]},"transit":{"type":"GeometryCollection","geometries":[]},"pois":{"type":"GeometryCollection","geometries":[]},"boundaries":{"type":"GeometryCollection","geometries":[]},"roads":{"type":"GeometryCollection","geometries":[{"type":"LineString","properties":{"source":"openstreetmap.org","kind":"major_road","network":"ru:regional","sort_rank":380,"kind_detail":"primary","min_zoom":8.0,"shield_text":null},"arcs":[0]}]},"earth":{"type":"GeometryCollection","geometries":[{"type":"Polygon","properties":{"sort_rank":10,"source":"naturalearthdata.com","kind":"earth","min_zoom":0.0,"id":4780},"arcs":[[1]]}]},"landuse":{"type":"GeometryCollection","geometries":[]}},"type":"Topology","transform":{"translate":[158.90625,56.5594824838],"scale":[0.0003433228,0.0001872653]},"arcs":[[[0,729],[96,-108],[177,-123],[110,-266],[45,-42],[2,-49],[-29,-40],[10,-49],[-26,-29],[5,-23]],[[0,4096],[4096,0],[0,-4096],[-4096,0],[0,4096]]]}