{"objects":{"water":{"type":"GeometryCollection","geometries":[{"type":"Polygon","properties":{"source":"naturalearthdata.com","kind":"ocean","area":1576712559132672,"sort_rank":200,"min_zoom":0.0,"id":1},"arcs":[[5]]},{"type":"MultiLineString","properties":{"source":"naturalearthdata.com","kind":"ocean","sort_rank":205,"boundary":true,"min_zoom":0.0,"id":75},"arcs":[[6],[7]]}]},"buildings":{"type":"GeometryCollection","geometries":[]},"places":{"type":"GeometryCollection","geometries":[{"type":"Point","properties":{"source":"naturalearthdata.com","kind":"locality","name":"Aracati","population":44293,"min_zoom":6.0,"id":6030},"coordinates":[579,3087]},{"type":"Point","properties":{"source":"naturalearthdata.com","kind":"locality","name":"Acu","population":36125,"min_zoom":7.0,"id":4266},"coordinates":[3084,106]},{"type":"Point","properties":{"kind":"locality","name:lv":"Mosoro","name":"Mossor\u00f3","name:ka":"\u10db\u10dd\u10e1\u10dd\u10e0\u10dd","kind_detail":"city","name:kk":"\u041c\u043e\u0441\u043e\u0440\u043e","name:sr":"\u041c\u043e\u0441\u043e\u0440\u043e","source":"openstreetmap.org","min_zoom":8.0,"name:lt":"Mosoro","name:ru":"\u041c\u043e\u0441\u043e\u0440\u043e","population":280314,"name:zh":"\u83ab\u7d22\u7f57","id":415521288,"name:ja":"\u30e2\u30bd\u30ed\u30fc"},"coordinates":[1819,1244]},{"type":"Point","properties":{"source":"openstreetmap.org","kind":"locality","name":"Aracati","kind_detail":"town","population":68886,"min_zoom":8.0,"id":415521161},"coordinates":[585,3092]},{"type":"Point","properties":{"source":"openstreetmap.org","kind":"locality","name":"Assu","kind_detail":"town","population":52824,"min_zoom":8.0,"id":415521282},"coordinates":[3072,95]},{"type":"Point","properties":{"source":"openstreetmap.org","kind":"locality","name":"Jaguaruana","kind_detail":"town","population":32134,"min_zoom":8.0,"id":415521126},"coordinates":[547,2293]},{"type":"Point","properties":{"source":"openstreetmap.org","kind":"locality","name":"Macau","kind_detail":"town","population":27951,"min_zoom":8.0,"id":415520872},"coordinates":[3885,1469]},{"type":"Point","properties":{"source":"openstreetmap.org","kind":"locality","name":"Areia Branca","kind_detail":"town","population":25147,"min_zoom":8.0,"id":415521277},"coordinates":[2454,1945]},{"type":"Point","properties":{"source":"openstreetmap.org","kind":"locality","name":"Bara\u00fana","kind_detail":"town","population":23860,"min_zoom":8.0,"id":415521287},"coordinates":[1023,1574]},{"type":"Point","properties":{"source":"openstreetmap.org","kind":"locality","name":"Icapu\u00ed","kind_detail":"town","population":19089,"min_zoom":8.0,"id":415521274},"coordinates":[1792,2632]},{"type":"Point","properties":{"source":"openstreetmap.org","kind":"locality","name":"Fortim","kind_detail":"town","population":14825,"min_zoom":8.0,"id":415521162},"coordinates":[497,3405]},{"type":"Point","properties":{"source":"openstreetmap.org","kind":"locality","name":"Ipangua\u00e7u","kind_detail":"town","population":13868,"min_zoom":8.0,"id":415521283},"coordinates":[3231,313]},{"type":"Point","properties":{"source":"openstreetmap.org","kind":"locality","name":"Pend\u00eancias","kind_detail":"town","population":12893,"min_zoom":8.0,"id":415521286},"coordinates":[3642,1049]},{"type":"Point","properties":{"source":"openstreetmap.org","kind":"locality","name":"Governador Dix-Sept Rosado","kind_detail":"town","population":12747,"min_zoom":8.0,"id":415521290},"coordinates":[1304,463]},{"type":"Point","properties":{"source":"openstreetmap.org","kind":"locality","name":"Serra do Mel","kind_detail":"town","population":11838,"min_zoom":8.0,"id":415521275},"coordinates":[2702,1309]},{"type":"Point","properties":{"source":"openstreetmap.org","kind":"locality","name":"Alto do Rodrigues","kind_detail":"town","population":11817,"min_zoom":8.0,"id":415521285},"coordinates":[3516,950]},{"type":"Point","properties":{"source":"openstreetmap.org","kind":"locality","name":"Carnaubais","kind_detail":"town","population":10715,"min_zoom":8.0,"id":415521284},"coordinates":[3306,809]},{"type":"Point","properties":{"source":"openstreetmap.org","kind":"locality","name":"Grossos","kind_detail":"town","population":10386,"min_zoom":8.0,"id":415521276},"coordinates":[2382,1847]}]},"transit":{"type":"GeometryCollection","geometries":[]},"pois":{"type":"GeometryCollection","geometries":[{"type":"Point","properties":{"kind":"protected_area","tier":2,"protect_class":"5","area":183497000,"source":"openstreetmap.org","min_zoom":7.0,"operator":"Secretaria de Desenvolvimento e Meio Ambiente de Icapu - CE","id":-7336916,"osm_relation":true,"name":"\u00c1rea de Prote\u00e7\u00e3o Ambiental do Manguezal da Barra Grande"},"coordinates":[1921,2883]},{"type":"Point","properties":{"kind":"protected_area","tier":2,"protect_class":"5","area":162663000,"source":"openstreetmap.org","min_zoom":7.0,"operator":"Secretaria de Desenvolvimento e Meio Ambiente de Icapu - CE","id":-7336915,"osm_relation":true,"name":"\u00c1rea de Prote\u00e7\u00e3o Ambiental da Praia de Ponta Grossa"},"coordinates":[1412,3083]},{"type":"Point","properties":{"kind":"nature_reserve","tier":2,"protect_class":"6","area":301652000,"source":"openstreetmap.org","min_zoom":8.17,"operator":"Instituto Chico Mendes de Conserva\u00e7\u00e3o da Biodiversidade","id":255809604,"name":"Reserva Extrativista Prainha do Canto Verde"},"coordinates":[345,4052]}]},"boundaries":{"type":"GeometryCollection","geometries":[{"type":"LineString","properties":{"name:kg":"Brazil","name:ty":"Brazil","name:ka":"\u10d1\u10e0\u10d0\u10d6\u10d8\u10da\u10d8\u10d0","name:ko":"\ube0c\ub77c\uc9c8","name:cv":"\u0411\u0440\u0430\u0437\u0438\u043b\u0438","name:cu":"\u0411\u0440\u0430\ua641\u0457\u043b\u0457\ua657","name:kl":"Brazil","name:cs":"Braz\u00edlie","name:ki":"Brazil","name:co":"Brasile","name:kv":"\u0411\u0440\u0430\u0437\u0438\u043b\u0438\u044f","name:ku":"Braz\u00eel","name:ce":"\u0411\u0440\u0430\u0437\u0438\u043b\u0438\u044f","name:ta":"\u0baa\u0bbf\u0bb0\u0bc7\u0b9a\u0bbf\u0bb2\u0bcd","name:tg":"\u0411\u0440\u0430\u0437\u0438\u043b\u0438\u044f","name:ky":"\u0411\u0440\u0430\u0437\u0438\u043b\u0438\u044f","name:te":"\u0c2c\u0c4d\u0c30\u0c46\u0c1c\u0c3f\u0c32\u0c4d","name:da":"Brasilien","name:de":"Brasilien","name:dz":"\u0f56\u0f71\u0f62\u0f71\u0f0b\u0f5b\u0f72\u0f63\u0f0b","source":"openstreetmap.org","name:kn":"\u0cac\u0ccd\u0cb0\u0cc6\u0c9c\u0cbf\u0cb2\u0ccd","name:dv":"\u0784\u07aa\u0783\u07ac\u0792\u07a8\u078d\u07b0","name:km":"\u1794\u17d2\u179a\u17c1\u179f\u17ca\u17b8\u179b","name:lv":"Braz\u012blija","name:lt":"Brazilija","name:uz":"Braziliya","name:kk":"\u0411\u0440\u0430\u0437\u0438\u043b\u0438\u044f","name:ur":"\u0628\u0631\u0627\u0632\u06cc\u0644","name:lb":"Brasilien","name:la":"Brasilia","name:tt":"\u0411\u0440\u0430\u0437\u0438\u043b\u0438\u044f","name:uk":"\u0411\u0440\u0430\u0437\u0438\u043b\u0456\u044f","name:ug":"\u0628\u0631\u0627\u0632\u0649\u0644\u0649\u064a\u06d5","name:li":"Braziel","name:ln":"Brazil","name:el":"\u0392\u03c1\u03b1\u03b6\u03b9\u03bb\u03af\u03b1","name:eo":"Brazilo","name:en":"Brazil","name":"Brasil","name:tk":"Brazili\u00fda","name:ee":"Brazil","name:th":"\u0e1b\u0e23\u0e30\u0e40\u0e17\u0e28\u0e1a\u0e23\u0e32\u0e0b\u0e34\u0e25","name:et":"Brasiilia","name:ay":"Wrasil","name:rm":"Brasilia","name:rn":"Brazil","name:az":"Braziliya","name:ig":"Brazil","name:as":"\u09ac\u09cd\u09f0\u09be\u099c\u09bf\u09b2","name:zh-min-nan":"Pa-se","name:io":"Brazilia","name:is":"Brasil\u00eda","name:am":"\u1265\u122b\u12da\u120d","name:it":"Brasile","name:ru":"\u0411\u0440\u0430\u0437\u0438\u043b\u0438\u044f","name:rw":"Burezile","name:af":"Brasili\u00eb","name:zu":"IBrazili","kind_detail":"2","name:za":"Bahsih","name:zh-yue":"\u5df4\u897f","name:zh":"\u5df4\u897f","name:so":"Barasiil","name:sl":"Brazilija","name:sk":"Braz\u00edlia","name:ja":"\u30d6\u30e9\u30b8\u30eb","name:sh":"Brazil","name:se":"Brasilia","name:sc":"Brasile","name:br":"Brazil","name:bs":"Brazil","name:bm":"Brazil","name:bn":"\u09ac\u09cd\u09b0\u09be\u099c\u09bf\u09b2","name:bo":"\u0f54\u0f74\u0f0b\u0f62\u0f74\u0f0b\u0f5f\u0f72\u0f63\u0f0d","name:bi":"Brazil","name:sw":"Brazil","name:be":"\u0411\u0440\u0430\u0437\u0456\u043b\u0456\u044f","name:bg":"\u0411\u0440\u0430\u0437\u0438\u043b\u0438\u044f","name:ba":"\u0411\u0440\u0430\u0437\u0438\u043b\u0438\u044f","name:sq":"Brazili","name:sa":"\u092c\u094d\u0930\u093e\u0938\u0940\u0932","name:ps":"\u0628\u0631\u0627\u0632\u06cc\u0644","min_zoom":8.0,"name:ro":"Brazilia","name:pa":"\u0a2c\u0a4d\u0a30\u0a3e\u0a1c\u0a3c\u0a40\u0a32","name:os":"\u0411\u0440\u0430\u0437\u0438\u043b\u0438","name:or":"\u0b2c\u0b4d\u0b30\u0b3e\u0b1c\u0b3f\u0b32","name:pl":"Brazylia","name:st":"Brazil","sort_rank":262,"name:sr":"\u0411\u0440\u0430\u0437\u0438\u043b","osm_relation":true,"name:ar":"\u0627\u0644\u0628\u0631\u0627\u0632\u064a\u0644","name:tr":"Brezilya","name:hi":"\u092c\u094d\u0930\u093e\u091c\u093c\u0940\u0932","name:sv":"Brasilien","name:he":"\u05d1\u05e8\u05d6\u05d9\u05dc","name:hy":"\u0532\u0580\u0561\u0566\u056b\u056c\u056b\u0561","name:ht":"Brezil","name:hu":"Braz\u00edlia","name:hr":"Brazil","kind":"country","name:yi":"\u05d1\u05e8\u05d0\u05d6\u05d9\u05dc","name:mt":"Bra\u017cil","name:ms":"Brazil","name:mr":"\u092c\u094d\u0930\u093e\u091d\u0940\u0932","name:my":"\u1018\u101b\u102c\u1007\u102e\u1038\u1014\u102d\u102f\u1004\u103a\u1004\u1036","official_name":"Rep\u00fablica Federativa do Brasil","name:mg":"Brazila","name:ml":"\u0d2c\u0d4d\u0d30\u0d38\u0d40\u0d7d","name:mn":"\u0411\u0440\u0430\u0437\u0438\u043b","name:mi":"Par\u012bhi","id":-59470,"name:mk":"\u0411\u0440\u0430\u0437\u0438\u043b","name:vo":"Brasil\u00e4n","name:fa":"\u0628\u0631\u0632\u06cc\u0644","name:fi":"Brasilia","old_name:vi":"Ba T\u00e2y","alt_name:vi":"Brazil;Bra-xin","name:fr":"Br\u00e9sil","name:fy":"Brazylje","name:nl":"Brazili\u00eb","name:na":"Bradir","name:ne":"\u092c\u094d\u0930\u093e\u091c\u093f\u0932","name:wa":"Braezi","name:wo":"Breesil","name:nv":"Bwaz\u00ed\u00edl","name:ga":"An Bhrasa\u00edl","name:gd":"Braisil","name:gn":"Pindorama","maritime_boundary":true,"name:gv":"Yn Vrasseel","name:gu":"\u0aac\u0acd\u0ab0\u0abe\u0a9d\u0abf\u0ab2"},"arcs":[0]},{"type":"LineString","properties":{"name:left:la":"Ceara","name:right:qu":"Chinchay Hatunmayu","name:left:hi":"\u0938\u093f\u092f\u093e\u0930\u093e","name:right:hy":"\u054c\u056b\u0578\u0582 \u0533\u0580\u0561\u0576\u0564\u056b \u0564\u0578\u0582 \u0546\u0578\u0580\u057f\u056b","name:right:uk":"\u0420\u0456\u0443-\u0413\u0440\u0430\u043d\u0434\u0456-\u0434\u0443-\u041d\u043e\u0440\u0442\u0456","name:left:he":"\u05e1\u05d9\u05d0\u05e8\u05d4","name:left:sr":"\u0421\u0435\u0430\u0440\u0430","name:right:lt":"\u0160iaur\u0117s Rio Grand\u0117","name:right:hi":"\u0930\u093f\u092f\u094b \u0917\u094d\u0930\u093e\u0902\u0926\u0947 \u0926\u094b \u0928\u0949\u0930\u094d\u0924\u0947","name:right:lv":"Riugrandi du Norti","name:left:lt":"Seara","name:left:sh":"Seara","name:left:lv":"Seara","name:right:uz":"Riu-Grandi-du-Norti","name:right:he":"\u05e8\u05d9\u05d5 \u05d2\u05e8\u05d0\u05e0\u05d3\u05d4 \u05d3\u05d5 \u05e0\u05d5\u05e8\u05d8\u05d4","name:right:la":"Flumen Magnum Septentrionale","name:right:os":"\u0420\u0438\u0443-\u0413\u0440\u0430\u043d\u0434\u0438-\u0434\u0443-\u041d\u043e\u0440\u0442\u0438","short_name:left":"CE","sort_rank":256,"name:left:gn":"Ceara","source":"openstreetmap.org","name:right:ar":"\u0631\u064a\u0648 \u063a\u0631\u0627\u0646\u062f\u064a \u062f\u0648 \u0646\u0648\u0631\u062a\u064a","name:left":"Cear\u00e1","name:right:mk":"\u0421\u0435\u0432\u0435\u0440\u043d\u0430 \u0420\u0438\u043e \u0413\u0440\u0430\u043d\u045f\u0435","name:left:ja":"\u30bb\u30a2\u30e9\u30fc","name:left:ka":"\u10e1\u10d4\u10d0\u10e0\u10d0","name:right:eu":"Iparraldeko Rio Grande","name:left:os":"\u0421\u0435\u0430\u0440\u0430","name:right:ru":"\u0420\u0438\u0443-\u0413\u0440\u0430\u043d\u0434\u0438-\u0434\u0443-\u041d\u043e\u0440\u0442\u0438","name:right:es":"R\u00edo Grande del Norte","name:left:ru":"\u0421\u0435\u0430\u0440\u0430","name:right:mr":"\u0421\u0435\u0432\u0435\u0440\u043d\u0430 \u0420\u0438\u043e \u0413\u0440\u0430\u043d\u045f\u0435","name:right:eo":"Norda Rio-Grando","kind":"region","name":"Cear\u00e1 - Rio Grande do Norte","name:left:fa":"\u0633\u0626\u0627\u0631\u0627","min_zoom":8.0,"name:right:be":"\u0420\u044b\u0443-\u0413\u0440\u0430\u043d\u0434\u044b-\u0434\u0443-\u041d\u043e\u0440\u0442\u044b","name:left:zh":"\u585e\u963f\u814a","name:right:zh":"\u5317\u91cc\u7ea6\u683c\u6717\u5fb7","name:left:hy":"\u054d\u0565\u0561\u0580\u0561","name:left:uz":"Seera","name:right:ja":"\u30ea\u30aa\u30b0\u30e9\u30f3\u30c7\u30fb\u30c9\u30fb\u30ce\u30eb\u30c6","name:right:sr":"\u0420\u0438\u043e \u0413\u0440\u0430\u043d\u0434\u0435 \u0434\u043e \u041d\u043e\u0440\u0442\u0435","id:right":-301079,"name:left:uk":"\u0421\u0435\u0430\u0440\u0430","name:right:sh":"Rio Grandi du Norti","name:left:be":"\u0421\u0435\u0430\u0440\u0430","name:left:bg":"\u0421\u0435\u0430\u0440\u0430","name:right:fa":"\u0631\u06cc\u0648 \u06af\u0631\u0627\u0646\u062f\u0647 \u0634\u0645\u0627\u0644\u06cc","id":-302635,"name:right":"Rio Grande do Norte","name:left:eo":"Cearao","kind_detail":"4","id:left":-302635,"name:left:ko":"\uc138\uc544\ub77c","name:right:ka":"\u10e0\u10d8\u10e3-\u10d2\u10e0\u10d0\u10dc\u10d3\u10d8-\u10d3\u10e3-\u10dc\u10dd\u10e0\u10e2\u10d8","name:left:ar":"\u0633\u064a\u0627\u0631\u0627","name:left:mk":"\u0421\u0435\u0430\u0440\u0430","name:right:ko":"\ud788\uc6b0\uadf8\ub780\uc9c0\ub450\ub178\ub974\uce58","name:right:bg":"\u0420\u0438\u043e \u0413\u0440\u0430\u043d\u0434\u0438 \u0434\u043e \u041d\u043e\u0440\u0442\u0438","name:left:th":"\u0e40\u0e0b\u0e2d\u0e32\u0e23\u0e32","name:left:mr":"\u0938\u093f\u092f\u093e\u0930\u093e","name:right:th":"\u0e23\u0e35\u0e42\u0e2d\u0e01\u0e23\u0e31\u0e19\u0e14\u0e35\u0e42\u0e14\u0e19\u0e2d\u0e23\u0e4c\u0e40\u0e15","short_name:right":"RN","name:right:gl":"R\u00edo Grande do Norte","name:right:tg":"\u0420\u0438\u0443 \u0413\u0440\u0430\u043d\u0434\u0438 \u0434\u0443 \u041d\u043e\u0440\u0442\u0438","osm_relation":true,"name:left:tg":"\u0421\u0435\u0430\u0440\u0430"},"arcs":[1]},{"type":"LineString","properties":{"name:left:la":"Ceara","name:right:qu":"Chinchay Hatunmayu","name:left:hi":"\u0938\u093f\u092f\u093e\u0930\u093e","name:left:uz":"Seera","name:right:uk":"\u0420\u0456\u0443-\u0413\u0440\u0430\u043d\u0434\u0456-\u0434\u0443-\u041d\u043e\u0440\u0442\u0456","name:left:he":"\u05e1\u05d9\u05d0\u05e8\u05d4","name:left:sr":"\u0421\u0435\u0430\u0440\u0430","name:right:lt":"\u0160iaur\u0117s Rio Grand\u0117","name:right:hi":"\u0930\u093f\u092f\u094b \u0917\u094d\u0930\u093e\u0902\u0926\u0947 \u0926\u094b \u0928\u0949\u0930\u094d\u0924\u0947","name:right:lv":"Riugrandi du Norti","name:left:lt":"Seara","name:left:sh":"Seara","name:left:lv":"Seara","name:right:uz":"Riu-Grandi-du-Norti","name:right:he":"\u05e8\u05d9\u05d5 \u05d2\u05e8\u05d0\u05e0\u05d3\u05d4 \u05d3\u05d5 \u05e0\u05d5\u05e8\u05d8\u05d4","name:right:la":"Flumen Magnum Septentrionale","short_name:left":"CE","sort_rank":256,"name:left:gn":"Ceara","source":"openstreetmap.org","name:right:ar":"\u0631\u064a\u0648 \u063a\u0631\u0627\u0646\u062f\u064a \u062f\u0648 \u0646\u0648\u0631\u062a\u064a","name:left":"Cear\u00e1","name:right:mk":"\u0421\u0435\u0432\u0435\u0440\u043d\u0430 \u0420\u0438\u043e \u0413\u0440\u0430\u043d\u045f\u0435","name:right:sr":"\u0420\u0438\u043e \u0413\u0440\u0430\u043d\u0434\u0435 \u0434\u043e \u041d\u043e\u0440\u0442\u0435","name:left:ka":"\u10e1\u10d4\u10d0\u10e0\u10d0","name:right:eu":"Iparraldeko Rio Grande","name:left:os":"\u0421\u0435\u0430\u0440\u0430","name:right:ru":"\u0420\u0438\u0443-\u0413\u0440\u0430\u043d\u0434\u0438-\u0434\u0443-\u041d\u043e\u0440\u0442\u0438","name:left:ru":"\u0421\u0435\u0430\u0440\u0430","name:right:mr":"\u0421\u0435\u0432\u0435\u0440\u043d\u0430 \u0420\u0438\u043e \u0413\u0440\u0430\u043d\u045f\u0435","name:right:eo":"Norda Rio-Grando","kind":"region","name":"Cear\u00e1 - Rio Grande do Norte","name:left:fa":"\u0633\u0626\u0627\u0631\u0627","name:right:fa":"\u0631\u06cc\u0648 \u06af\u0631\u0627\u0646\u062f\u0647 \u0634\u0645\u0627\u0644\u06cc","min_zoom":8.0,"osm_relation":true,"name:right:be":"\u0420\u044b\u0443-\u0413\u0440\u0430\u043d\u0434\u044b-\u0434\u0443-\u041d\u043e\u0440\u0442\u044b","name:left:zh":"\u585e\u963f\u814a","name:right:zh":"\u5317\u91cc\u7ea6\u683c\u6717\u5fb7","name:left:hy":"\u054d\u0565\u0561\u0580\u0561","name:right:es":"R\u00edo Grande del Norte","name:right:ja":"\u30ea\u30aa\u30b0\u30e9\u30f3\u30c7\u30fb\u30c9\u30fb\u30ce\u30eb\u30c6","name:left:ja":"\u30bb\u30a2\u30e9\u30fc","id:right":-301079,"name:left:uk":"\u0421\u0435\u0430\u0440\u0430","name:right:sh":"Rio Grandi du Norti","name:left:bg":"\u0421\u0435\u0430\u0440\u0430","name:left:be":"\u0421\u0435\u0430\u0440\u0430","id":-302635,"name:right":"Rio Grande do Norte","name:left:eo":"Cearao","kind_detail":"4","name:right:hy":"\u054c\u056b\u0578\u0582 \u0533\u0580\u0561\u0576\u0564\u056b \u0564\u0578\u0582 \u0546\u0578\u0580\u057f\u056b","id:left":-302635,"name:left:ko":"\uc138\uc544\ub77c","name:right:ka":"\u10e0\u10d8\u10e3-\u10d2\u10e0\u10d0\u10dc\u10d3\u10d8-\u10d3\u10e3-\u10dc\u10dd\u10e0\u10e2\u10d8","name:left:ar":"\u0633\u064a\u0627\u0631\u0627","name:left:mk":"\u0421\u0435\u0430\u0440\u0430","name:right:ko":"\ud788\uc6b0\uadf8\ub780\uc9c0\ub450\ub178\ub974\uce58","name:right:bg":"\u0420\u0438\u043e \u0413\u0440\u0430\u043d\u0434\u0438 \u0434\u043e \u041d\u043e\u0440\u0442\u0438","name:left:th":"\u0e40\u0e0b\u0e2d\u0e32\u0e23\u0e32","name:left:mr":"\u0938\u093f\u092f\u093e\u0930\u093e","name:right:th":"\u0e23\u0e35\u0e42\u0e2d\u0e01\u0e23\u0e31\u0e19\u0e14\u0e35\u0e42\u0e14\u0e19\u0e2d\u0e23\u0e4c\u0e40\u0e15","short_name:right":"RN","name:right:gl":"R\u00edo Grande do Norte","name:right:tg":"\u0420\u0438\u0443 \u0413\u0440\u0430\u043d\u0434\u0438 \u0434\u0443 \u041d\u043e\u0440\u0442\u0438","name:right:os":"\u0420\u0438\u0443-\u0413\u0440\u0430\u043d\u0434\u0438-\u0434\u0443-\u041d\u043e\u0440\u0442\u0438","name:left:tg":"\u0421\u0435\u0430\u0440\u0430","maritime_boundary":true},"arcs":[2]},{"type":"LineString","properties":{"name:ka":"\u10e1\u10d4\u10d0\u10e0\u10d0","name:mr":"\u0938\u093f\u092f\u093e\u0930\u093e","name:ko":"\uc138\uc544\ub77c","name:ar":"\u0633\u064a\u0627\u0631\u0627","name:gn":"Ceara","name:th":"\u0e40\u0e0b\u0e2d\u0e32\u0e23\u0e32","name:os":"\u0421\u0435\u0430\u0440\u0430","name:ru":"\u0421\u0435\u0430\u0440\u0430","name:uz":"Seera","name:tg":"\u0421\u0435\u0430\u0440\u0430","name:mk":"\u0421\u0435\u0430\u0440\u0430","name:fa":"\u0633\u0626\u0627\u0631\u0627","short_name":"CE","sort_rank":256,"kind_detail":"4","name:hi":"\u0938\u093f\u092f\u093e\u0930\u093e","id":-302635,"source":"openstreetmap.org","name:zh":"\u585e\u963f\u814a","name:lv":"Seara","name:ja":"\u30bb\u30a2\u30e9\u30fc","name:lt":"Seara","name:sh":"Seara","name:he":"\u05e1\u05d9\u05d0\u05e8\u05d4","name:eo":"Cearao","name:la":"Ceara","name:uk":"\u0421\u0435\u0430\u0440\u0430","name:hy":"\u054d\u0565\u0561\u0580\u0561","name:be":"\u0421\u0435\u0430\u0440\u0430","name:bg":"\u0421\u0435\u0430\u0440\u0430","name:sr":"\u0421\u0435\u0430\u0440\u0430","osm_relation":true,"kind":"region","name":"Cear\u00e1","min_zoom":8.0,"maritime_boundary":true},"arcs":[3]},{"type":"LineString","properties":{"name:ka":"\u10e0\u10d8\u10e3-\u10d2\u10e0\u10d0\u10dc\u10d3\u10d8-\u10d3\u10e3-\u10dc\u10dd\u10e0\u10e2\u10d8","name:mr":"\u0421\u0435\u0432\u0435\u0440\u043d\u0430 \u0420\u0438\u043e \u0413\u0440\u0430\u043d\u045f\u0435","name:ko":"\ud788\uc6b0\uadf8\ub780\uc9c0\ub450\ub178\ub974\uce58","name:ar":"\u0631\u064a\u0648 \u063a\u0631\u0627\u0646\u062f\u064a \u062f\u0648 \u0646\u0648\u0631\u062a\u064a","name:th":"\u0e23\u0e35\u0e42\u0e2d\u0e01\u0e23\u0e31\u0e19\u0e14\u0e35\u0e42\u0e14\u0e19\u0e2d\u0e23\u0e4c\u0e40\u0e15","name:os":"\u0420\u0438\u0443-\u0413\u0440\u0430\u043d\u0434\u0438-\u0434\u0443-\u041d\u043e\u0440\u0442\u0438","name:ru":"\u0420\u0438\u0443-\u0413\u0440\u0430\u043d\u0434\u0438-\u0434\u0443-\u041d\u043e\u0440\u0442\u0438","name:uz":"Riu-Grandi-du-Norti","name:tg":"\u0420\u0438\u0443 \u0413\u0440\u0430\u043d\u0434\u0438 \u0434\u0443 \u041d\u043e\u0440\u0442\u0438","name:mk":"\u0421\u0435\u0432\u0435\u0440\u043d\u0430 \u0420\u0438\u043e \u0413\u0440\u0430\u043d\u045f\u0435","name:fa":"\u0631\u06cc\u0648 \u06af\u0631\u0627\u0646\u062f\u0647 \u0634\u0645\u0627\u0644\u06cc","short_name":"RN","sort_rank":256,"kind_detail":"4","name:hi":"\u0930\u093f\u092f\u094b \u0917\u094d\u0930\u093e\u0902\u0926\u0947 \u0926\u094b \u0928\u0949\u0930\u094d\u0924\u0947","id":-301079,"source":"openstreetmap.org","name:zh":"\u5317\u91cc\u7ea6\u683c\u6717\u5fb7","name:lv":"Riugrandi du Norti","name:ja":"\u30ea\u30aa\u30b0\u30e9\u30f3\u30c7\u30fb\u30c9\u30fb\u30ce\u30eb\u30c6","name:lt":"\u0160iaur\u0117s Rio Grand\u0117","name:sh":"Rio Grandi du Norti","name:he":"\u05e8\u05d9\u05d5 \u05d2\u05e8\u05d0\u05e0\u05d3\u05d4 \u05d3\u05d5 \u05e0\u05d5\u05e8\u05d8\u05d4","name:eo":"Norda Rio-Grando","name:la":"Flumen Magnum Septentrionale","name:uk":"\u0420\u0456\u0443-\u0413\u0440\u0430\u043d\u0434\u0456-\u0434\u0443-\u041d\u043e\u0440\u0442\u0456","name:hy":"\u054c\u056b\u0578\u0582 \u0533\u0580\u0561\u0576\u0564\u056b \u0564\u0578\u0582 \u0546\u0578\u0580\u057f\u056b","name:be":"\u0420\u044b\u0443-\u0413\u0440\u0430\u043d\u0434\u044b-\u0434\u0443-\u041d\u043e\u0440\u0442\u044b","name:bg":"\u0420\u0438\u043e \u0413\u0440\u0430\u043d\u0434\u0438 \u0434\u043e \u041d\u043e\u0440\u0442\u0438","name:qu":"Chinchay Hatunmayu","name:sr":"\u0420\u0438\u043e \u0413\u0440\u0430\u043d\u0434\u0435 \u0434\u043e \u041d\u043e\u0440\u0442\u0435","osm_relation":true,"kind":"region","name":"Rio Grande do Norte","min_zoom":8.0,"name:gl":"R\u00edo Grande do Norte","maritime_boundary":true,"name:eu":"Iparraldeko Rio Grande","name:es":"R\u00edo Grande del Norte"},"arcs":[4]}]},"roads":{"type":"GeometryCollection","geometries":[{"type":"MultiLineString","properties":{"source":"openstreetmap.org","kind":"major_road","sort_rank":380,"kind_detail":"primary","ref":"RN-117","min_zoom":8.0},"arcs":[[8],[9],[10],[11],[12]]},{"type":"LineString","properties":{"kind":"major_road","sort_rank":380,"kind_detail":"primary","is_bicycle_related":true,"source":"openstreetmap.org","min_zoom":8.0,"landuse_kind":"residential","ref":"CE-105"},"arcs":[13]},{"type":"LineString","properties":{"kind":"major_road","network":"BR","sort_rank":380,"kind_detail":"primary","source":"openstreetmap.org","min_zoom":8.0,"shield_text":"437","ref":"CE-054"},"arcs":[14]},{"type":"LineString","properties":{"kind":"major_road","network":"BR","sort_rank":380,"kind_detail":"primary","source":"openstreetmap.org","min_zoom":8.0,"shield_text":"406","ref":"BR-406","id":192996602},"arcs":[15]},{"type":"LineString","properties":{"kind":"major_road","sort_rank":380,"landuse_kind":"urban_area","source":"openstreetmap.org","min_zoom":8.0,"kind_detail":"primary","ref":"RN-015","id":365870177},"arcs":[16]},{"type":"MultiLineString","properties":{"kind":"major_road","network":"BR","sort_rank":380,"kind_detail":"primary","source":"openstreetmap.org","min_zoom":8.0,"landuse_kind":"residential","shield_text":"110","ref":"BR-110"},"arcs":[[17],[18],[19]]},{"type":"LineString","properties":{"source":"openstreetmap.org","kind":"major_road","sort_rank":380,"kind_detail":"primary","ref":"BR-304","min_zoom":8.0,"id":318965947},"arcs":[20]},{"type":"LineString","properties":{"source":"openstreetmap.org","kind":"major_road","sort_rank":380,"kind_detail":"primary","ref":"CE-123","min_zoom":8.0},"arcs":[21]},{"type":"MultiLineString","properties":{"source":"openstreetmap.org","kind":"major_road","sort_rank":380,"kind_detail":"primary","ref":"RN-405","min_zoom":8.0},"arcs":[[22],[23]]},{"type":"MultiLineString","properties":{"sort_rank":381,"source":"openstreetmap.org","min_zoom":8.0,"kind":"major_road","kind_detail":"trunk"},"arcs":[[24],[25],[26],[27],[28]]},{"type":"LineString","properties":{"source":"openstreetmap.org","kind":"major_road","landuse_kind":"residential","sort_rank":380,"kind_detail":"primary","min_zoom":8.0,"nat_name":"Estrada da Fruta"},"arcs":[29]},{"type":"MultiLineString","properties":{"source":"openstreetmap.org","kind":"major_road","kind_detail":"trunk","sort_rank":381,"landuse_kind":"urban_area","ref":"BR-304","min_zoom":8.0},"arcs":[[30],[31],[32],[33],[34],[35]]},{"type":"LineString","properties":{"kind":"major_road","network":"BR","sort_rank":380,"kind_detail":"primary","source":"openstreetmap.org","min_zoom":8.0,"landuse_kind":"residential","shield_text":null,"ref":"BR-405"},"arcs":[36]},{"type":"MultiLineString","properties":{"source":"openstreetmap.org","kind":"major_road","sort_rank":381,"kind_detail":"trunk","ref":"RN-013","min_zoom":8.0},"arcs":[[37],[38],[39],[40],[41],[42],[43]]},{"type":"MultiLineString","properties":{"source":"openstreetmap.org","kind":"major_road","landuse_kind":"urban_area","sort_rank":380,"kind_detail":"primary","min_zoom":8.0},"arcs":[[44],[45]]},{"type":"LineString","properties":{"source":"openstreetmap.org","kind":"major_road","landuse_kind":"residential","sort_rank":380,"kind_detail":"primary","ref":"RN-015","min_zoom":8.0},"arcs":[46]},{"type":"MultiLineString","properties":{"kind":"major_road","network":"BR","sort_rank":380,"kind_detail":"primary","source":"openstreetmap.org","min_zoom":8.0,"shield_text":"104","ref":"BR-406"},"arcs":[[47],[48]]},{"type":"LineString","properties":{"source":"openstreetmap.org","kind":"major_road","sort_rank":380,"kind_detail":"primary","ref":"RN-263","min_zoom":8.0,"id":395892093},"arcs":[49]},{"type":"LineString","properties":{"source":"openstreetmap.org","kind":"major_road","sort_rank":380,"kind_detail":"primary","ref":"CE-040","min_zoom":8.0},"arcs":[50]},{"type":"LineString","properties":{"kind":"major_road","network":"BR","sort_rank":380,"kind_detail":"primary","source":"openstreetmap.org","min_zoom":8.0,"landuse_kind":"urban_area","shield_text":"110","ref":"BR-110","id":164845358},"arcs":[51]},{"type":"LineString","properties":{"source":"openstreetmap.org","kind":"major_road","sort_rank":380,"kind_detail":"primary","ref":"RN-233","min_zoom":8.0,"id":198456538},"arcs":[52]},{"type":"MultiLineString","properties":{"source":"openstreetmap.org","kind":"major_road","landuse_kind":"residential","sort_rank":380,"kind_detail":"primary","is_bicycle_related":true,"min_zoom":8.0},"arcs":[[53],[54]]},{"type":"LineString","properties":{"kind":"major_road","network":"BR","sort_rank":380,"kind_detail":"primary","source":"openstreetmap.org","min_zoom":8.0,"shield_text":"437","ref":"CE-265","id":31517855},"arcs":[55]},{"type":"LineString","properties":{"kind":"major_road","network":"BR","sort_rank":380,"kind_detail":"primary","source":"openstreetmap.org","min_zoom":8.0,"landuse_kind":"residential","shield_text":"110","id":238759743},"arcs":[56]},{"type":"LineString","properties":{"source":"openstreetmap.org","kind":"major_road","sort_rank":380,"kind_detail":"primary","ref":"CE-105","min_zoom":8.0,"id":256655451},"arcs":[57]},{"type":"MultiLineString","properties":{"sort_rank":380,"kind_detail":"primary","min_zoom":8.0,"kind":"major_road","source":"openstreetmap.org"},"arcs":[[58],[59],[60],[61],[62],[63],[64],[65],[66],[67],[68],[69],[70],[71],[72],[73],[74],[75],[76],[77],[78],[79],[80],[81],[82],[83],[84],[85],[86],[87],[88],[89],[90],[91]]},{"type":"MultiLineString","properties":{"source":"openstreetmap.org","kind":"major_road","sort_rank":381,"kind_detail":"trunk","ref":"BR-304","min_zoom":8.0},"arcs":[[92],[93],[94],[95],[96],[97],[98],[99],[100],[101],[102],[103],[104],[105],[106],[107]]},{"type":"MultiLineString","properties":{"source":"openstreetmap.org","kind":"major_road","sort_rank":380,"kind_detail":"primary","ref":"RN-118","min_zoom":8.0},"arcs":[[108],[109],[110],[111],[112],[113]]},{"type":"LineString","properties":{"source":"openstreetmap.org","kind":"major_road","sort_rank":380,"kind_detail":"primary","ref":"RN-012","min_zoom":8.0,"id":187130626},"arcs":[114]},{"type":"LineString","properties":{"source":"openstreetmap.org","kind":"major_road","sort_rank":380,"kind_detail":"primary","ref":"CE-371","min_zoom":8.0,"id":350064148},"arcs":[115]},{"type":"MultiLineString","properties":{"source":"openstreetmap.org","kind":"major_road","landuse_kind":"residential","sort_rank":381,"kind_detail":"trunk","ref":"BR-304","min_zoom":8.0},"arcs":[[116],[117],[118],[119],[120],[121],[122],[123],[124],[125]]},{"type":"MultiLineString","properties":{"source":"openstreetmap.org","kind":"major_road","landuse_kind":"urban_area","sort_rank":380,"kind_detail":"primary","ref":"RN-404","min_zoom":8.0},"arcs":[[126],[127]]},{"type":"LineString","properties":{"source":"openstreetmap.org","kind":"major_road","sort_rank":380,"kind_detail":"primary","ref":"CE-263","min_zoom":8.0,"id":518110962},"arcs":[128]},{"type":"LineString","properties":{"source":"openstreetmap.org","kind":"major_road","network":"BR","sort_rank":380,"kind_detail":"primary","min_zoom":8.0,"shield_text":"104"},"arcs":[129]},{"type":"MultiLineString","properties":{"source":"openstreetmap.org","kind":"major_road","landuse_kind":"residential","sort_rank":380,"kind_detail":"primary","min_zoom":8.0},"arcs":[[130],[131],[132],[133],[134],[135],[136],[137],[138],[139],[140],[141]]},{"type":"LineString","properties":{"kind":"major_road","network":"BR","sort_rank":380,"kind_detail":"primary","source":"openstreetmap.org","min_zoom":8.0,"shield_text":"437","ref":"BR-437"},"arcs":[142]},{"type":"LineString","properties":{"kind":"major_road","network":"BR","sort_rank":380,"kind_detail":"primary","source":"openstreetmap.org","min_zoom":8.0,"shield_text":null,"ref":"BR-405","id":192026371},"arcs":[143]},{"type":"LineString","properties":{"kind":"major_road","sort_rank":380,"landuse_kind":"residential","source":"openstreetmap.org","min_zoom":8.0,"kind_detail":"primary","ref":"CE-105","id":256655451},"arcs":[144]},{"type":"LineString","properties":{"source":"openstreetmap.org","kind":"major_road","sort_rank":380,"kind_detail":"primary","ref":"RN-015","min_zoom":8.0},"arcs":[145]},{"type":"MultiLineString","properties":{"kind":"major_road","network":"BR","sort_rank":380,"kind_detail":"primary","source":"openstreetmap.org","min_zoom":8.0,"shield_text":"110","ref":"BR-110"},"arcs":[[146],[147]]},{"type":"MultiLineString","properties":{"source":"openstreetmap.org","kind":"major_road","landuse_kind":"residential","sort_rank":381,"kind_detail":"trunk","min_zoom":8.0},"arcs":[[148],[149],[150],[151],[152],[153],[154],[155],[156],[157],[158],[159],[160],[161],[162],[163]]},{"type":"MultiLineString","properties":{"source":"openstreetmap.org","kind":"major_road","sort_rank":381,"kind_detail":"trunk","ref":"CE-040","min_zoom":8.0},"arcs":[[164],[165],[166]]},{"type":"LineString","properties":{"source":"openstreetmap.org","kind":"major_road","sort_rank":380,"kind_detail":"primary","ref":"RN-406","min_zoom":8.0},"arcs":[167]},{"type":"MultiLineString","properties":{"source":"openstreetmap.org","kind":"major_road","kind_detail":"trunk","sort_rank":381,"landuse_kind":"urban_area","ref":"CE-040","min_zoom":8.0},"arcs":[[168],[169]]},{"type":"MultiLineString","properties":{"source":"openstreetmap.org","kind":"major_road","sort_rank":380,"kind_detail":"primary","ref":"RN-404","min_zoom":8.0},"arcs":[[170],[171],[172]]},{"type":"MultiLineString","properties":{"source":"openstreetmap.org","kind":"major_road","landuse_kind":"residential","sort_rank":380,"kind_detail":"primary","ref":"BR-110","min_zoom":8.0},"arcs":[[173],[174],[175]]}]},"earth":{"type":"GeometryCollection","geometries":[{"type":"MultiPolygon","properties":{"sort_rank":10,"source":"naturalearthdata.com","kind":"earth","min_zoom":0.0,"id":4474},"arcs":[[[176]],[[177]]]}]},"landuse":{"type":"GeometryCollection","geometries":[{"type":"MultiPolygon","properties":{"source":"naturalearthdata.com","kind":"urban_area","name":"","area":596561920,"sort_rank":11,"min_zoom":4.0},"arcs":[[[178]],[[179]],[[180]]]},{"type":"MultiPolygon","properties":{"kind":"protected_area","protect_class":"5","area":339631142,"sort_rank":17,"operator":"Secretaria de Desenvolvimento e Meio Ambiente de Icapu - CE","source":"openstreetmap.org","min_zoom":6.0,"tier":2,"osm_relation":true},"arcs":[[[181]],[[182]]]},{"type":"MultiPolygon","properties":{"source":"openstreetmap.org","kind":"residential","tier":2,"area":196953516,"sort_rank":20,"min_zoom":8.0},"arcs":[[[183]],[[184]],[[185]],[[186]]]},{"type":"Polygon","properties":{"kind":"nature_reserve","protect_class":"6","area":301652000,"sort_rank":23,"operator":"Instituto Chico Mendes de Conserva\u00e7\u00e3o da Biodiversidade","source":"openstreetmap.org","min_zoom":6.0,"tier":2,"id":255809604},"arcs":[[187]]},{"type":"Polygon","properties":{"kind":"nature_reserve","protect_class":"2","area":86521800,"sort_rank":23,"operator":"Instituto Chico Mendes de Conserva\u00e7\u00e3o da Biodiversidade","source":"openstreetmap.org","min_zoom":8.0,"tier":2,"id":-2639484,"osm_relation":true},"arcs":[[188]]}]}},"type":"Topology","transform":{"translate":[-37.96875,-5.6159858192],"scale":[0.0003433228,0.0003420514]},"arcs":[[[4096,2230],[-176,-14],[-170,50],[-379,261],[-308,111],[-81,17],[-249,-32],[-141,15],[-165,338],[-146,174],[-104,82],[-95,60],[-399,113],[-116,69],[-237,36],[-157,150],[-74,184],[-124,165],[-90,70],[-48,17]],[[0,207],[60,31],[45,92],[91,10],[44,163],[75,109],[9,146],[29,49],[188,132],[-26,76],[26,107],[-20,62],[73,209],[91,114],[25,87],[138,49],[109,373],[1125,279],[137,92]],[[2219,2387],[373,251]],[[2592,2638],[-165,338],[-146,174],[-104,82],[-95,60],[-399,113],[-116,69],[-237,36],[-157,150],[-74,184],[-124,165],[-90,70],[-48,17]],[[4096,2230],[-176,-14],[-170,50],[-379,261],[-308,111],[-81,17],[-249,-32],[-141,15]],[[4096,1551],[-51,13],[28,-31],[23,-6],[0,-84],[-80,57],[-49,19],[-101,22],[-119,-10],[-39,8],[-1,41],[-68,1],[-108,24],[-100,46],[-44,62],[-13,29],[-30,36],[-36,31],[-30,13],[-13,20],[-97,109],[-51,30],[-246,25],[-82,-5],[-76,-21],[-35,2],[-96,40],[-46,11],[-50,-4],[-57,-28],[-140,60],[-140,202],[-127,291],[-52,71],[-94,63],[-298,104],[-178,91],[-75,18],[-33,-26],[-35,-16],[-79,25],[-125,63],[-123,85],[-100,89],[-79,97],[-168,347],[-66,4],[-65,11],[-63,19],[-55,26],[-190,180],[-44,20],[-100,74],[0,197],[4096,0],[0,-2545]],[[0,3899],[100,-74],[44,-20],[190,-180],[55,-26],[63,-19],[65,-11],[66,-4],[168,-347],[79,-97],[100,-89],[123,-85],[125,-63],[79,-25],[35,16],[33,26],[75,-18],[178,-91],[298,-104],[94,-63],[52,-71],[127,-291],[140,-202],[140,-60],[57,28],[50,4],[46,-11],[96,-40],[35,-2],[76,21],[82,5],[246,-25],[51,-30],[97,-109],[13,-20],[30,-13],[36,-31],[30,-36],[13,-29],[44,-62],[100,-46],[108,-24],[68,-1],[1,-41],[39,-8],[119,10],[101,-22],[49,-19],[80,-57]],[[4096,1527],[-23,6],[-28,31],[51,-13]],[[1280,0],[20,56],[1,397]],[[1301,457],[12,16]],[[1600,893],[-32,-17],[-247,-393]],[[1757,1157],[-115,-238],[-40,-24]],[[1758,1160],[-1,-2]],[[23,2009],[-16,2]],[[533,1147],[-294,6]],[[4096,1317],[-82,37]],[[1691,1262],[-6,3]],[[1852,1190],[26,20]],[[1855,1135],[0,-40]],[[1881,1213],[80,46]],[[552,3032],[8,9]],[[281,2328],[95,332],[2,192],[-31,176]],[[1888,171],[85,49],[61,-3]],[[2035,218],[-1,84],[238,184]],[[1742,1175],[0,1]],[[1745,1174],[0,-1]],[[1772,1152],[0,1]],[[1776,1150]],[[1815,1393],[-1,0]],[[7,2011],[15,-2]],[[1747,1183],[10,-14]],[[1757,1169],[-10,14]],[[1803,1151],[-24,4]],[[1779,1155],[23,-5]],[[1813,1389],[-2,-11]],[[1811,1378],[2,11]],[[1656,1230],[58,4]],[[2071,2261],[-71,-65],[-33,-87],[0,-2],[-17,-63]],[[1950,2044],[-49,-187]],[[1901,1857],[-4,-12],[-40,-239]],[[1858,1604],[40,240],[3,13]],[[1901,1857],[24,110],[0,2],[25,75]],[[1950,2044],[50,151],[71,66]],[[2078,2267],[-7,-6]],[[1832,1218],[8,-13]],[[1840,1205],[-8,14]],[[1725,1246],[-34,16]],[[3899,1454],[97,-92]],[[4014,1354],[-10,4]],[[4059,0],[7,91],[30,27]],[[0,3707],[47,-50],[299,-106],[27,-63]],[[1961,1259],[24,7]],[[2914,78],[-33,-78]],[[7,2011],[-7,3]],[[0,1996],[1,1]],[[239,1153],[-203,3]],[[1855,1135],[1,5]],[[226,1995],[-195,13]],[[226,1995],[231,-162],[96,-160]],[[553,1669],[-2,-54],[-51,-33],[-266,-23]],[[347,3028],[1,2]],[[529,2264],[1,1]],[[560,3041],[-13,-7]],[[850,1646],[-88,75],[-79,24],[-8,-92],[-118,17]],[[767,3093],[4,102]],[[835,3094],[33,10]],[[954,1589],[0,-2]],[[954,1587],[1,2]],[[954,1587],[29,-46],[131,-20]],[[1114,1521],[7,2]],[[1118,1523],[-4,-2]],[[1602,895],[-2,-2]],[[1757,1164],[5,-4]],[[1757,1157],[0,1]],[[2387,1860],[8,71],[-170,144],[-174,211],[-35,92]],[[2035,216],[0,2]],[[2183,1345],[-3,-6]],[[2375,1856],[2,2]],[[2375,1856],[-5,7],[4,-7],[1,0]],[[2387,1860],[-10,-2]],[[3061,38],[7,20]],[[3074,154],[0,21]],[[3076,209],[5,213],[117,255]],[[3487,844],[160,10],[449,196]],[[3634,1054],[6,-3]],[[3645,1048],[13,-2]],[[554,1669],[1,2]],[[1301,453],[0,4]],[[1313,473],[8,10]],[[3645,1048],[-5,3]],[[3640,1051],[5,-3]],[[3645,1048]],[[0,3023],[500,21]],[[500,3044],[74,-15]],[[574,3029],[-48,11],[-26,4]],[[574,3029],[62,33],[239,-93],[408,-450],[572,-912]],[[1741,1192],[6,-9]],[[1747,1183],[-6,9]],[[1757,1169],[6,-9],[3,-3],[13,-2]],[[1779,1155],[-22,14]],[[1816,1402],[-3,-13]],[[1813,1389],[3,13]],[[1826,1448],[-10,-46]],[[1826,1448],[4,17]],[[1857,1596],[-27,-131]],[[1919,1068],[257,-460],[203,-254],[370,-243],[208,-25]],[[2974,79],[106,-52]],[[3095,20],[40,-20]],[[3224,0],[-37,137],[41,170]],[[3242,336],[-14,-29]],[[3242,336],[-6,130],[253,366],[10,72]],[[3522,957],[-23,-53]],[[3655,1045],[-24,-39],[-109,-49]],[[3658,1046],[130,-19],[50,20],[136,166],[33,79],[-6,64]],[[2370,1863],[-387,113],[-53,-8]],[[915,3053],[-66,42],[-138,-3],[-37,-43]],[[1811,1378],[-23,-68],[-28,-26],[-10,-12],[-26,-41]],[[1724,1231],[-4,-8]],[[1720,1223],[-1,0],[22,-31]],[[1741,1192],[-21,31]],[[1720,1223],[4,8]],[[1724,1231],[26,41],[10,12],[40,33],[11,61]],[[1802,1150],[77,-14],[40,-68]],[[1873,1140],[-70,11]],[[2957,86],[17,-7]],[[3080,27],[15,-7]],[[3057,1909],[95,-8],[10,25]],[[3163,1926],[42,-17]],[[0,2291],[239,39],[76,-14],[126,-97],[88,45]],[[3996,1362],[8,-4]],[[1,1997],[-1,-1]],[[1826,1229],[6,-11]],[[1832,1219],[-4,10]],[[1840,1205],[39,-69]],[[1885,1130],[-45,75]],[[1866,1163],[-15,25]],[[1854,1140],[1,-5]],[[1855,1141],[-1,0]],[[1855,1180],[13,-22]],[[1882,1134],[-15,27]],[[3068,58],[6,96]],[[3074,175],[2,34]],[[1373,1172],[-840,-25]],[[529,0],[841,1170],[173,53],[113,7]],[[31,2008],[-8,1]],[[1685,1265],[-178,108],[-657,273]],[[1855,1095],[20,-881],[23,-76],[114,-138]],[[1985,1266],[179,45],[97,219],[286,268],[29,56],[-34,97],[-65,14],[-32,-30]],[[1722,1238],[-1,-1]],[[1722,1213],[1,0]],[[1724,1210],[-1,-1]],[[1727,1244],[0,-1]],[[1728,1246],[-1,-1]],[[1736,1254],[-1,1]],[[1738,1257]],[[1765,1289],[-1,0]],[[1766,1291],[1,-1]],[[1796,1316],[0,-1]],[[1800,1317],[-2,-2]],[[1808,1142],[0,1]],[[1812,1143],[-1,-1]],[[1844,1140],[-1,1]],[[1846,1141],[0,-1]],[[1874,1147],[-1,-7]],[[507,3157],[-21,216],[-113,115],[113,-115],[13,-227]],[[511,3075],[5,-32]],[[518,3043],[-3,30]],[[3298,562],[318,-88],[342,47],[138,-47]],[[499,3146],[12,-71]],[[515,3073],[-8,84]],[[2576,1861],[313,99],[168,-51]],[[3198,677],[106,103],[88,187],[36,186],[-35,76],[45,79],[8,119],[-38,138],[14,50],[44,-14]],[[3430,1619],[-225,290]],[[1854,1182],[0,-16]],[[1854,1166],[1,14]],[[1854,1166],[1,-23]],[[4096,1443],[0,-1443],[-4096,0],[0,3899],[100,-74],[44,-20],[190,-180],[55,-26],[63,-19],[65,-11],[66,-4],[168,-347],[79,-97],[100,-89],[123,-85],[125,-63],[79,-25],[35,16],[33,26],[75,-18],[178,-91],[298,-104],[94,-63],[52,-71],[127,-291],[140,-202],[140,-60],[57,28],[50,4],[46,-11],[96,-40],[35,-2],[76,21],[82,5],[246,-25],[51,-30],[97,-109],[13,-20],[30,-13],[36,-31],[30,-36],[13,-29],[44,-62],[100,-46],[108,-24],[68,-1],[1,-41],[39,-8],[119,10],[101,-22],[49,-19],[80,-57]],[[4096,1527],[-23,6],[-28,31],[51,-13],[0,-24]],[[1876,1364],[65,0],[46,-103],[51,5],[-35,-55],[-146,-102],[-35,-2],[-43,29],[0,33],[-32,0],[0,64],[-65,0],[5,49],[75,101],[114,13],[0,-32]],[[3114,1870],[-99,67],[-17,56],[119,-12],[90,-73],[-93,-38]],[[552,3059],[-67,26],[3,47],[77,100],[49,-17],[0,-33],[54,-43],[-116,-80]],[[1698,2717],[156,371],[59,35],[94,-12],[109,-83],[33,-56],[-300,-357],[-151,102]],[[1247,3280],[16,57],[27,3],[33,-56],[100,-26],[38,-36],[25,-103],[95,-27],[-148,-270],[-43,7],[-2,28],[-139,-25],[-2,448]],[[2953,84],[91,54],[-13,16],[42,39],[-32,6],[46,14],[-19,-57],[19,-7],[8,38],[9,-131],[-10,-39],[-18,3],[15,26],[-61,31],[13,32],[-40,-16],[7,-23],[-57,14]],[[1767,1140],[27,-4],[38,65],[113,60],[-15,18],[99,-64],[-109,19],[85,-67],[-15,-32],[-70,38],[-27,-14],[55,-73],[-33,-20],[-117,58],[-6,-15],[-25,31]],[[1653,1229],[52,11],[-22,22],[35,1],[-10,52],[18,13],[17,-38],[13,16],[-24,58],[-18,-17],[-18,31],[46,-2],[28,35],[122,-97],[-37,-78],[-88,-67],[-16,13],[24,59],[-28,-4],[2,-46],[-27,2],[-13,36],[-56,0]],[[0,1945],[0,84],[38,-10],[-17,-3],[23,-18],[-32,3],[27,-18],[-25,-47],[-14,9]],[[29,3825],[194,271],[345,0],[-434,-324],[-11,-34],[-94,87]],[[1076,1660],[33,84],[65,-33],[42,35],[200,-85],[32,87],[35,-50],[52,2],[-5,-106],[57,-43],[-59,-58],[-20,8],[-8,60],[-14,10],[-27,-50],[-22,18],[25,44],[-71,33],[-63,-43],[-74,38],[-8,-27],[-39,11],[2,29],[-25,-21],[-46,14],[-38,-35],[14,68],[-38,10]]]}