{"objects":{"water":{"type":"GeometryCollection","geometries":[{"type":"Polygon","properties":{"source":"naturalearthdata.com","kind":"ocean","area":1576712559132672,"sort_rank":200,"min_zoom":0.0,"id":1},"arcs":[[44]]},{"type":"LineString","properties":{"source":"naturalearthdata.com","kind":"ocean","sort_rank":205,"boundary":true,"min_zoom":0.0,"id":75},"arcs":[45]}]},"buildings":{"type":"GeometryCollection","geometries":[]},"places":{"type":"GeometryCollection","geometries":[{"type":"Point","properties":{"kind":"region","name":"Sergipe","kind_detail":"state","name:eo":"Ser\u011dipo","source":"openstreetmap.org","min_zoom":4.0,"name:uk":"\u0421\u0435\u0440\u0436\u0438\u043f\u0456","name:ru":"\u0421\u0435\u0440\u0436\u0438\u043f\u0438","id":541429632,"name:ja":"\u30bb\u30eb\u30b8\u30c3\u30da"},"coordinates":[1723,1493]},{"type":"Point","properties":{"source":"naturalearthdata.com","kind":"locality","name":"Penedo","population":42097,"min_zoom":7.0,"id":4247},"coordinates":[4045,2692]},{"type":"Point","properties":{"name:sr":"\u0410\u0440\u0430\u043a\u0430\u0436\u0443","name:he":"\u05d0\u05e8\u05d0\u05e7\u05d6'\u05d5","name:lv":"Araka\u017eu","name:ja":"\u30a2\u30e9\u30ab\u30b8\u30e5","name:ka":"\u10d0\u10e0\u10d0\u10d9\u10d0\u10df\u10e3","name:mr":"\u0905\u0930\u093e\u0915\u093e\u0939\u0942","name:ko":"\uc544\ub77c\uce74\uc8fc","name:ar":"\u0623\u0631\u0627\u0643\u0627\u062c\u0648","kind":"locality","name:th":"\u0e2d\u0e32\u0e23\u0e32\u0e01\u0e32\u0e08\u0e39","name:uk":"\u0410\u0440\u0430\u043a\u0430\u0436\u0443","name:hy":"\u0531\u0580\u0561\u056f\u0561\u056a\u0578\u0582","name:ru":"\u0410\u0440\u0430\u043a\u0430\u0436\u0443","name:bg":"\u0410\u0440\u0430\u043a\u0430\u0436\u0443","name":"Aracaju","name:tg":"\u0410\u0440\u0430\u043a\u0430\u0436\u0443","name:mk":"\u0410\u0440\u0430\u043a\u0430\u0436\u0443","population":614577,"name:fa":"\u0622\u0631\u0627\u06a9\u0627\u062c\u0648","name:eo":"Araka\u0135uo","name:lt":"Araka\u017eu","kind_detail":"city","name:uz":"Arakaju","min_zoom":8.0,"name:sh":"Araka\u017eu","id":243850406,"source":"openstreetmap.org","name:be":"\u0410\u0440\u0430\u043a\u0430\u0436\u0443","region_capital":true,"name:zh":"\u963f\u62c9\u5361\u8339"},"coordinates":[2596,777]},{"type":"Point","properties":{"kind":"locality","name:lv":"Nosasenjora du Sokoru","name":"Nossa Senhora do Socorro","name:lt":"Nosa Senjora do Sokoras","kind_detail":"city","source":"openstreetmap.org","min_zoom":8.0,"old_name":"Nossa Senhora do Socorro do Tomar da Cotinguiba","loc_name":"Socorro","name:ru":"\u041d\u043e\u0441\u0430-\u0421\u0435\u043d\u044c\u043e\u0440\u0430-\u0434\u0443-\u0421\u043e\u043a\u043e\u0440\u0440\u0443","name:ka":"\u10dc\u10dd\u10e1\u10d0 \u10e1\u10d4\u10dc\u10d8\u10dd\u10e0\u10d0 \u10d3\u10e3 \u10e1\u10dd\u10d9\u10dd\u10e0\u10e3","id":415521901,"population":172547},"coordinates":[2453,957]},{"type":"Point","properties":{"kind":"locality","name":"Lagarto","name:lt":"Lagartas","kind_detail":"city","source":"openstreetmap.org","min_zoom":8.0,"name:ru":"\u041b\u0430\u0433\u0430\u0440\u0442\u0443","id":415521883,"population":103188},"coordinates":[866,783]},{"type":"Point","properties":{"source":"openstreetmap.org","kind":"locality","name":"Itabaiana","kind_detail":"town","population":91873,"min_zoom":8.0,"id":415521907},"coordinates":[1578,1460]},{"type":"Point","properties":{"source":"openstreetmap.org","kind":"locality","name":"S\u00e3o Crist\u00f3v\u00e3o","kind_detail":"town","population":74189,"min_zoom":8.0,"id":415521895},"coordinates":[2218,488]},{"type":"Point","properties":{"source":"openstreetmap.org","kind":"locality","name":"Penedo","kind_detail":"town","population":60750,"min_zoom":8.0,"id":415521975},"coordinates":[4039,2639]},{"type":"Point","properties":{"source":"openstreetmap.org","kind":"locality","name":"Sim\u00e3o Dias","kind_detail":"town","population":38232,"min_zoom":8.0,"id":2814458379},"coordinates":[465,1302]},{"type":"Point","properties":{"source":"openstreetmap.org","kind":"locality","name":"Girau do Ponciano","kind_detail":"town","population":36250,"min_zoom":8.0,"id":415521970},"coordinates":[3312,3834]},{"type":"Point","properties":{"source":"openstreetmap.org","kind":"locality","name":"Nossa Senhora da Gl\u00f3ria","kind_detail":"town","population":30466,"min_zoom":8.0,"id":415521915},"coordinates":[1598,2842]},{"type":"Point","properties":{"source":"openstreetmap.org","kind":"locality","name":"Po\u00e7o Redondo","kind_detail":"town","population":29879,"min_zoom":8.0,"id":415521939},"coordinates":[833,4059]},{"type":"Point","properties":{"source":"openstreetmap.org","kind":"locality","name":"Paripiranga","kind_detail":"town","population":29459,"min_zoom":8.0,"id":415521713},"coordinates":[310,1468]},{"type":"Point","properties":{"source":"openstreetmap.org","kind":"locality","name":"Laranjeiras","kind_detail":"town","population":29130,"min_zoom":8.0,"id":415521894},"coordinates":[2339,1109]},{"type":"Point","properties":{"source":"openstreetmap.org","kind":"locality","name":"Itaporanga d'Ajuda","kind_detail":"town","population":29010,"min_zoom":8.0,"id":415521909},"coordinates":[1935,540]},{"type":"Point","properties":{"source":"openstreetmap.org","kind":"locality","name":"Capela","kind_detail":"town","population":28756,"min_zoom":8.0,"id":415521923},"coordinates":[2661,1995]},{"type":"Point","properties":{"source":"openstreetmap.org","kind":"locality","name":"Propri\u00e1","kind_detail":"town","population":28437,"min_zoom":8.0,"id":415521948},"coordinates":[3286,2849]},{"type":"Point","properties":{"source":"openstreetmap.org","kind":"locality","name":"Porto da Folha","kind_detail":"town","population":27311,"min_zoom":8.0,"id":415521941},"coordinates":[2009,3742]},{"type":"Point","properties":{"source":"openstreetmap.org","kind":"locality","name":"Traipu","kind_detail":"town","population":25650,"min_zoom":8.0,"id":415521956},"coordinates":[2817,3587]},{"type":"Point","properties":{"source":"openstreetmap.org","kind":"locality","name":"Boquim","kind_detail":"town","population":25190,"min_zoom":8.0,"id":415521879},"coordinates":[1015,99]},{"type":"Point","properties":{"source":"openstreetmap.org","kind":"locality","name":"Nossa Senhora das Dores","kind_detail":"town","population":24529,"min_zoom":8.0,"id":415521933},"coordinates":[2259,2031]},{"type":"Point","properties":{"source":"openstreetmap.org","kind":"locality","name":"Igreja Nova","kind_detail":"town","population":23606,"min_zoom":8.0,"id":415522006},"coordinates":[3817,3115]},{"type":"Point","properties":{"source":"openstreetmap.org","kind":"locality","name":"Feira Grande","kind_detail":"town","population":21790,"min_zoom":8.0,"id":415522013},"coordinates":[3756,3803]},{"type":"Point","properties":{"source":"openstreetmap.org","kind":"locality","name":"Barra dos Coqueiros","kind_detail":"town","population":19809,"min_zoom":8.0,"id":415521900},"coordinates":[2709,802]},{"type":"Point","properties":{"source":"openstreetmap.org","kind":"locality","name":"Aquidab\u00e3","kind_detail":"town","population":19762,"min_zoom":8.0,"id":415521926},"coordinates":[2767,2650]},{"type":"Point","properties":{"source":"openstreetmap.org","kind":"locality","name":"Riach\u00e3o do Dantas","kind_detail":"town","population":19567,"min_zoom":8.0,"id":415521878},"coordinates":[706,320]},{"type":"Point","properties":{"source":"openstreetmap.org","kind":"locality","name":"Carira","kind_detail":"town","population":19543,"min_zoom":8.0,"id":415521910},"coordinates":[779,2429]},{"type":"Point","properties":{"source":"openstreetmap.org","kind":"locality","name":"Salgado","kind_detail":"town","population":19095,"min_zoom":8.0,"id":415521882},"coordinates":[1429,445]},{"type":"Point","properties":{"source":"openstreetmap.org","kind":"locality","name":"Ne\u00f3polis","kind_detail":"town","population":18964,"min_zoom":8.0,"id":415521974},"coordinates":[4054,2552]},{"type":"Point","properties":{"source":"openstreetmap.org","kind":"locality","name":"Coronel Jo\u00e3o S\u00e1","kind_detail":"town","population":18540,"min_zoom":8.0,"id":415521871},"coordinates":[125,2645]},{"type":"Point","properties":{"source":"openstreetmap.org","kind":"locality","name":"Porto Real do Col\u00e9gio","kind_detail":"town","population":18459,"min_zoom":8.0,"id":415521949},"coordinates":[3295,2943]},{"type":"Point","properties":{"source":"openstreetmap.org","kind":"locality","name":"Lagoa da Canoa","kind_detail":"town","population":18378,"min_zoom":8.0,"id":415521968},"coordinates":[3580,3996]},{"type":"Point","properties":{"source":"openstreetmap.org","kind":"locality","name":"Pedro Alexandre","kind_detail":"town","population":17643,"min_zoom":8.0,"id":415521870},"coordinates":[216,3456]},{"type":"Point","properties":{"source":"openstreetmap.org","kind":"locality","name":"Campo do Brito","kind_detail":"town","population":16612,"min_zoom":8.0,"id":415521904},"coordinates":[1382,1270]},{"type":"Point","properties":{"source":"openstreetmap.org","kind":"locality","name":"Areia Branca","kind_detail":"town","population":16568,"min_zoom":8.0,"id":415521908},"coordinates":[1905,1242]},{"type":"Point","properties":{"source":"openstreetmap.org","kind":"locality","name":"Ribeir\u00f3polis","kind_detail":"town","population":16137,"min_zoom":8.0,"id":415521906},"coordinates":[1549,1889]},{"type":"Point","properties":{"source":"openstreetmap.org","kind":"locality","name":"Japaratuba","kind_detail":"town","population":15920,"min_zoom":8.0,"id":415521913},"coordinates":[2992,1733]},{"type":"Point","properties":{"source":"openstreetmap.org","kind":"locality","name":"Maruim","kind_detail":"town","population":15583,"min_zoom":8.0,"id":415521919},"coordinates":[2584,1307]},{"type":"Point","properties":{"source":"openstreetmap.org","kind":"locality","name":"Japoat\u00e3","kind_detail":"town","population":13944,"min_zoom":8.0,"id":415521953},"coordinates":[3405,2463]},{"type":"Point","properties":{"source":"openstreetmap.org","kind":"locality","name":"Monte Alegre de Sergipe","kind_detail":"town","population":13620,"min_zoom":8.0,"id":415521911},"coordinates":[1184,3407]},{"type":"Point","properties":{"source":"openstreetmap.org","kind":"locality","name":"Frei Paulo","kind_detail":"town","population":12969,"min_zoom":8.0,"id":415521902},"coordinates":[1262,1862]},{"type":"Point","properties":{"source":"openstreetmap.org","kind":"locality","name":"Pacatuba","kind_detail":"town","population":12756,"min_zoom":8.0,"id":415521976},"coordinates":[3849,2156]},{"type":"Point","properties":{"source":"openstreetmap.org","kind":"locality","name":"Carm\u00f3polis","kind_detail":"town","population":12317,"min_zoom":8.0,"id":415521922},"coordinates":[2866,1570]},{"type":"Point","properties":{"source":"openstreetmap.org","kind":"locality","name":"Malhador","kind_detail":"town","population":12074,"min_zoom":8.0,"id":415521897},"coordinates":[1923,1539]},{"type":"Point","properties":{"source":"openstreetmap.org","kind":"locality","name":"Santo Amaro das Brotas","kind_detail":"town","population":12013,"min_zoom":8.0,"id":415521899},"coordinates":[2662,1160]},{"type":"Point","properties":{"source":"openstreetmap.org","kind":"locality","name":"Gararu","kind_detail":"town","population":11949,"min_zoom":8.0,"id":415521955},"coordinates":[2581,3583]},{"type":"Point","properties":{"source":"openstreetmap.org","kind":"locality","name":"Moita Bonita","kind_detail":"town","population":11230,"min_zoom":8.0,"id":415521896},"coordinates":[1824,1775]},{"type":"Point","properties":{"source":"openstreetmap.org","kind":"locality","name":"S\u00e3o Domingos","kind_detail":"town","population":10443,"min_zoom":8.0,"id":415521884},"coordinates":[1171,1149]}]},"transit":{"type":"GeometryCollection","geometries":[{"type":"MultiLineString","properties":{"kind":"train","name":"Rodovia Governador M\u00e1rio Covas","sort_rank":275,"source":"openstreetmap.org","min_zoom":6.0,"ref":"BR-101","osm_relation":true,"network":"BR"},"arcs":[[6],[7],[8],[9],[10],[11],[12],[13],[14],[15],[16],[17],[18],[19],[20],[21],[22],[23],[24],[25],[26],[27],[28],[29],[30],[31],[32],[33],[34],[35],[36],[37],[38],[39],[40],[41],[42],[43]]}]},"pois":{"type":"GeometryCollection","geometries":[]},"boundaries":{"type":"GeometryCollection","geometries":[{"type":"LineString","properties":{"name:kg":"Brazil","name:ty":"Brazil","name:ka":"\u10d1\u10e0\u10d0\u10d6\u10d8\u10da\u10d8\u10d0","name:ko":"\ube0c\ub77c\uc9c8","name:cv":"\u0411\u0440\u0430\u0437\u0438\u043b\u0438","name:cu":"\u0411\u0440\u0430\ua641\u0457\u043b\u0457\ua657","name:kl":"Brazil","name:cs":"Braz\u00edlie","name:ki":"Brazil","name:co":"Brasile","name:kv":"\u0411\u0440\u0430\u0437\u0438\u043b\u0438\u044f","name:ku":"Braz\u00eel","name:ce":"\u0411\u0440\u0430\u0437\u0438\u043b\u0438\u044f","name:ta":"\u0baa\u0bbf\u0bb0\u0bc7\u0b9a\u0bbf\u0bb2\u0bcd","name:tg":"\u0411\u0440\u0430\u0437\u0438\u043b\u0438\u044f","name:ky":"\u0411\u0440\u0430\u0437\u0438\u043b\u0438\u044f","name:te":"\u0c2c\u0c4d\u0c30\u0c46\u0c1c\u0c3f\u0c32\u0c4d","name:da":"Brasilien","name:de":"Brasilien","name:dz":"\u0f56\u0f71\u0f62\u0f71\u0f0b\u0f5b\u0f72\u0f63\u0f0b","source":"openstreetmap.org","name:kn":"\u0cac\u0ccd\u0cb0\u0cc6\u0c9c\u0cbf\u0cb2\u0ccd","name:dv":"\u0784\u07aa\u0783\u07ac\u0792\u07a8\u078d\u07b0","name:km":"\u1794\u17d2\u179a\u17c1\u179f\u17ca\u17b8\u179b","name:lv":"Braz\u012blija","name:lt":"Brazilija","name:uz":"Braziliya","name:kk":"\u0411\u0440\u0430\u0437\u0438\u043b\u0438\u044f","name:ur":"\u0628\u0631\u0627\u0632\u06cc\u0644","name:lb":"Brasilien","name:la":"Brasilia","name:tt":"\u0411\u0440\u0430\u0437\u0438\u043b\u0438\u044f","name:uk":"\u0411\u0440\u0430\u0437\u0438\u043b\u0456\u044f","name:ug":"\u0628\u0631\u0627\u0632\u0649\u0644\u0649\u064a\u06d5","name:li":"Braziel","name:ln":"Brazil","name:el":"\u0392\u03c1\u03b1\u03b6\u03b9\u03bb\u03af\u03b1","name:eo":"Brazilo","name:en":"Brazil","name":"Brasil","name:tk":"Brazili\u00fda","name:ee":"Brazil","name:th":"\u0e1b\u0e23\u0e30\u0e40\u0e17\u0e28\u0e1a\u0e23\u0e32\u0e0b\u0e34\u0e25","name:et":"Brasiilia","name:ay":"Wrasil","name:rm":"Brasilia","name:rn":"Brazil","name:az":"Braziliya","name:ig":"Brazil","name:as":"\u09ac\u09cd\u09f0\u09be\u099c\u09bf\u09b2","name:zh-min-nan":"Pa-se","name:io":"Brazilia","name:is":"Brasil\u00eda","name:am":"\u1265\u122b\u12da\u120d","name:it":"Brasile","name:ru":"\u0411\u0440\u0430\u0437\u0438\u043b\u0438\u044f","name:rw":"Burezile","name:af":"Brasili\u00eb","name:zu":"IBrazili","kind_detail":"2","name:za":"Bahsih","name:zh-yue":"\u5df4\u897f","name:zh":"\u5df4\u897f","name:so":"Barasiil","name:sl":"Brazilija","name:sk":"Braz\u00edlia","name:ja":"\u30d6\u30e9\u30b8\u30eb","name:sh":"Brazil","name:se":"Brasilia","name:sc":"Brasile","name:br":"Brazil","name:bs":"Brazil","name:bm":"Brazil","name:bn":"\u09ac\u09cd\u09b0\u09be\u099c\u09bf\u09b2","name:bo":"\u0f54\u0f74\u0f0b\u0f62\u0f74\u0f0b\u0f5f\u0f72\u0f63\u0f0d","name:bi":"Brazil","name:sw":"Brazil","name:be":"\u0411\u0440\u0430\u0437\u0456\u043b\u0456\u044f","name:bg":"\u0411\u0440\u0430\u0437\u0438\u043b\u0438\u044f","name:ba":"\u0411\u0440\u0430\u0437\u0438\u043b\u0438\u044f","name:sq":"Brazili","name:sa":"\u092c\u094d\u0930\u093e\u0938\u0940\u0932","name:ps":"\u0628\u0631\u0627\u0632\u06cc\u0644","min_zoom":8.0,"name:ro":"Brazilia","name:pa":"\u0a2c\u0a4d\u0a30\u0a3e\u0a1c\u0a3c\u0a40\u0a32","name:os":"\u0411\u0440\u0430\u0437\u0438\u043b\u0438","name:or":"\u0b2c\u0b4d\u0b30\u0b3e\u0b1c\u0b3f\u0b32","name:pl":"Brazylia","name:st":"Brazil","sort_rank":262,"name:sr":"\u0411\u0440\u0430\u0437\u0438\u043b","osm_relation":true,"name:ar":"\u0627\u0644\u0628\u0631\u0627\u0632\u064a\u0644","name:tr":"Brezilya","name:hi":"\u092c\u094d\u0930\u093e\u091c\u093c\u0940\u0932","name:sv":"Brasilien","name:he":"\u05d1\u05e8\u05d6\u05d9\u05dc","name:hy":"\u0532\u0580\u0561\u0566\u056b\u056c\u056b\u0561","name:ht":"Brezil","name:hu":"Braz\u00edlia","name:hr":"Brazil","kind":"country","name:yi":"\u05d1\u05e8\u05d0\u05d6\u05d9\u05dc","name:mt":"Bra\u017cil","name:ms":"Brazil","name:mr":"\u092c\u094d\u0930\u093e\u091d\u0940\u0932","name:my":"\u1018\u101b\u102c\u1007\u102e\u1038\u1014\u102d\u102f\u1004\u103a\u1004\u1036","official_name":"Rep\u00fablica Federativa do Brasil","name:mg":"Brazila","name:ml":"\u0d2c\u0d4d\u0d30\u0d38\u0d40\u0d7d","name:mn":"\u0411\u0440\u0430\u0437\u0438\u043b","name:mi":"Par\u012bhi","id":-59470,"name:mk":"\u0411\u0440\u0430\u0437\u0438\u043b","name:vo":"Brasil\u00e4n","name:fa":"\u0628\u0631\u0632\u06cc\u0644","name:fi":"Brasilia","old_name:vi":"Ba T\u00e2y","alt_name:vi":"Brazil;Bra-xin","name:fr":"Br\u00e9sil","name:fy":"Brazylje","name:nl":"Brazili\u00eb","name:na":"Bradir","name:ne":"\u092c\u094d\u0930\u093e\u091c\u093f\u0932","name:wa":"Braezi","name:wo":"Breesil","name:nv":"Bwaz\u00ed\u00edl","name:ga":"An Bhrasa\u00edl","name:gd":"Braisil","name:gn":"Pindorama","maritime_boundary":true,"name:gv":"Yn Vrasseel","name:gu":"\u0aac\u0acd\u0ab0\u0abe\u0a9d\u0abf\u0ab2"},"arcs":[0]},{"type":"MultiLineString","properties":{"name:right:hy":"\u054d\u0565\u0580\u056a\u056b\u057a\u056b","name:left:hi":"\u092c\u093e\u0939\u093f\u092f\u093e","name:right:uk":"\u0421\u0435\u0440\u0436\u0438\u043f\u0456","name:left:he":"\u05d1\u05d0\u05d4\u05d9\u05d4","name:left:sr":"\u0411\u0430\u0438\u0458\u0430","name:right:lt":"Ser\u017eip\u0117","name:right:hi":"\u0938\u0930\u094d\u091c\u093f\u092a\u0947","name:right:lv":"Ser\u017eipi","name:left:lt":"Bahija","name:left:hy":"\u0532\u0561\u056b\u0561","name:left:lv":"Baija","name:right:uz":"Serjipi","name:right:he":"\u05e1\u05e8\u05d6'\u05d9\u05e4\u05d4","name:right:la":"Seregipe","name:right:os":"\u0421\u0435\u0440\u0436\u0438\u043f\u0438","short_name:left":"BA","sort_rank":256,"name:left:gl":"Ba\u00eda","source":"openstreetmap.org","name:right:ar":"\u0633\u064a\u0631\u062c\u064a\u0628\u064a","name:left":"Bahia","name:right:mk":"\u0421\u0435\u0440\u0433\u0438\u043f\u0435","name:left:ja":"\u30d0\u30a4\u30fc\u30a2","name:left:ka":"\u10d1\u10d0\u10d8\u10d0","name:left:os":"\u0411\u0430\u0438\u044f","name:right:ru":"\u0421\u0435\u0440\u0436\u0438\u043f\u0438","name:left:ru":"\u0411\u0430\u0438\u044f","name:right:mr":"\u0938\u0930\u094d\u091c\u093f\u092a\u0947","name:right:eo":"Ser\u011dipo","kind":"region","name":"Bahia - Sergipe","name:left:fa":"\u0628\u0627\u0647\u06cc\u0627","min_zoom":8.0,"name:right:be":"\u0421\u0435\u0440\u0436\u044b\u043f\u0456","name:left:zh":"\u5df4\u4f0a\u4e9a","name:right:zh":"\u585e\u5c14\u5e0c\u57f9","name:left:uz":"Baiya","name:right:ja":"\u30bb\u30eb\u30b8\u30c3\u30da","name:right:sr":"\u0421\u0435\u0440\u0436\u0438\u043f\u0435","id:right":-303940,"name:left:uk":"\u0411\u0430\u0457\u044f","name:right:sh":"Ser\u017eipi","name:left:be":"\u0411\u0430\u0456\u044f","name:left:bg":"\u0411\u0430\u0438\u044f","name:right:fa":"\u0633\u0631\u0698\u06cc\u067e\u0647","id":-362413,"name:right":"Sergipe","name:left:eo":"Bahio","kind_detail":"4","id:left":-362413,"name:left:es":"Bah\u00eda","name:left:ko":"\ubc14\uc774\uc544","name:right:ka":"\u10e1\u10d4\u10e0\u10df\u10d8\u10de\u10d8","name:left:ar":"\u0628\u0627\u0647\u064a\u0627","name:left:mk":"\u0411\u0430\u0458\u0430","name:right:ko":"\uc138\ub974\uc9c0\ud53c","name:right:bg":"\u0421\u0435\u0440\u0436\u0438\u043f\u0438","name:left:th":"\u0e1a\u0e32\u0e40\u0e22\u0e35\u0e22","name:left:mr":"\u092c\u093e\u0908\u092f\u093e","name:right:th":"\u0e40\u0e0b\u0e23\u0e4c\u0e0a\u0e34\u0e40\u0e1b","short_name:right":"SE","name:right:tg":"\u0421\u0435\u0440\u0436\u0438\u043f\u0438","osm_relation":true,"name:left:tg":"\u0411\u0430\u0438\u044f"},"arcs":[[1],[2]]},{"type":"MultiLineString","properties":{"name:left:uz":"Serjipi","name:right:ja":"\u30a2\u30e9\u30b4\u30a2\u30b9","name:left:hi":"\u0938\u0930\u094d\u091c\u093f\u092a\u0947","name:left:la":"Seregipe","name:right:uk":"\u0410\u043b\u0430\u0433\u043e\u0430\u0441","name:left:he":"\u05e1\u05e8\u05d6'\u05d9\u05e4\u05d4","name:left:ja":"\u30bb\u30eb\u30b8\u30c3\u30da","id:right":-303781,"name:right:lt":"Alagoasas","name:right:hi":"\u0905\u0932\u093e\u0917\u094b\u0906\u0938","name:right:lv":"Alagoasa","name:left:lt":"Ser\u017eip\u0117","name:left:sh":"Ser\u017eipi","name:left:lv":"Ser\u017eipi","name:left:be":"\u0421\u0435\u0440\u0436\u044b\u043f\u0456","name:right:he":"\u05d0\u05dc\u05d2\u05d5\u05d0\u05e1","name:right:la":"Alacunae","short_name:left":"SE","name:left:eo":"Ser\u011dipo","sort_rank":256,"kind_detail":"4","id":-303940,"source":"openstreetmap.org","name:right:hy":"\u0531\u056c\u0561\u0563\u0578\u0561\u057d","name:right:ar":"\u0623\u0644\u0627\u063a\u0648\u0627\u0633","id:left":-303940,"name:right":"Alagoas","name:left:os":"\u0421\u0435\u0440\u0436\u0438\u043f\u0438","name:left":"Sergipe","name:right:mk":"\u0410\u043b\u0430\u0433\u043e\u0458\u0430\u0441","name:left:sr":"\u0421\u0435\u0440\u0436\u0438\u043f\u0435","name:right:sr":"\u0410\u043b\u0430\u0433\u043e\u0430\u0441","name:left:ka":"\u10e1\u10d4\u10e0\u10df\u10d8\u10de\u10d8","name:left:ar":"\u0633\u064a\u0631\u062c\u064a\u0628\u064a","name:left:mk":"\u0421\u0435\u0440\u0433\u0438\u043f\u0435","name:left:ko":"\uc138\ub974\uc9c0\ud53c","name:right:ko":"\uc54c\ub77c\uace0\uc544\uc2a4","name:right:ru":"\u0410\u043b\u0430\u0433\u043e\u0430\u0441","name:left:th":"\u0e40\u0e0b\u0e23\u0e4c\u0e0a\u0e34\u0e40\u0e1b","name:left:mr":"\u0938\u0930\u094d\u091c\u093f\u092a\u0947","name:right:th":"\u0e2d\u0e32\u0e25\u0e32\u0e42\u0e01\u0e2d\u0e31\u0e2a","name:left:ru":"\u0421\u0435\u0440\u0436\u0438\u043f\u0438","short_name:right":"AL","name:right:mr":"\u0906\u0932\u093e\u0917\u094b\u0906\u0938","min_zoom":8.0,"name:right:tg":"\u0410\u043b\u0430\u0433\u043e\u0430\u0441","name:right:eo":"Alagoaso","name:right:os":"\u0410\u043b\u0430\u0433\u043e\u0430\u0441","name:left:tg":"\u0421\u0435\u0440\u0436\u0438\u043f\u0438","name:left:uk":"\u0421\u0435\u0440\u0436\u0438\u043f\u0456","kind":"region","name:right:ka":"\u10d0\u10da\u10d0\u10d2\u10dd\u10d0\u10e1\u10d8","name":"Sergipe - Alagoas","name:left:fa":"\u0633\u0631\u0698\u06cc\u067e\u0647","name:right:fa":"\u0622\u0644\u0627\u06af\u0648\u0627\u0633","name:right:bg":"\u0410\u043b\u0430\u0433\u043e\u0430\u0441","osm_relation":true,"name:right:be":"\u0410\u043b\u0430\u0433\u043e\u0430\u0441","name:left:zh":"\u585e\u5c14\u5e0c\u57f9","name:left:bg":"\u0421\u0435\u0440\u0436\u0438\u043f\u0438","name:right:zh":"\u963f\u62c9\u6208\u65af","name:left:hy":"\u054d\u0565\u0580\u056a\u056b\u057a\u056b"},"arcs":[[3],[4]]},{"type":"LineString","properties":{"name:ka":"\u10e1\u10d4\u10e0\u10df\u10d8\u10de\u10d8","name:mr":"\u0938\u0930\u094d\u091c\u093f\u092a\u0947","name:ko":"\uc138\ub974\uc9c0\ud53c","name:ar":"\u0633\u064a\u0631\u062c\u064a\u0628\u064a","name:th":"\u0e40\u0e0b\u0e23\u0e4c\u0e0a\u0e34\u0e40\u0e1b","name:os":"\u0421\u0435\u0440\u0436\u0438\u043f\u0438","name:ru":"\u0421\u0435\u0440\u0436\u0438\u043f\u0438","name:uz":"Serjipi","name:tg":"\u0421\u0435\u0440\u0436\u0438\u043f\u0438","name:mk":"\u0421\u0435\u0440\u0433\u0438\u043f\u0435","name:fa":"\u0633\u0631\u0698\u06cc\u067e\u0647","short_name":"SE","sort_rank":256,"kind_detail":"4","name:hi":"\u0938\u0930\u094d\u091c\u093f\u092a\u0947","id":-303940,"source":"openstreetmap.org","name:zh":"\u585e\u5c14\u5e0c\u57f9","name:lv":"Ser\u017eipi","name:ja":"\u30bb\u30eb\u30b8\u30c3\u30da","name:lt":"Ser\u017eip\u0117","name:sh":"Ser\u017eipi","name:he":"\u05e1\u05e8\u05d6'\u05d9\u05e4\u05d4","name:eo":"Ser\u011dipo","name:la":"Seregipe","name:uk":"\u0421\u0435\u0440\u0436\u0438\u043f\u0456","name:hy":"\u054d\u0565\u0580\u056a\u056b\u057a\u056b","name:be":"\u0421\u0435\u0440\u0436\u044b\u043f\u0456","name:bg":"\u0421\u0435\u0440\u0436\u0438\u043f\u0438","name:sr":"\u0421\u0435\u0440\u0436\u0438\u043f\u0435","osm_relation":true,"kind":"region","name":"Sergipe","min_zoom":8.0,"maritime_boundary":true},"arcs":[5]}]},"roads":{"type":"GeometryCollection","geometries":[{"type":"LineString","properties":{"kind":"major_road","network":"SE","sort_rank":380,"kind_detail":"primary","source":"openstreetmap.org","min_zoom":8.0,"shield_text":"220","ref":"SE-220"},"arcs":[46]},{"type":"MultiLineString","properties":{"kind":"highway","network":"BR","sort_rank":383,"kind_detail":"motorway","source":"openstreetmap.org","min_zoom":8.0,"all_networks":["BR"],"shield_text":"349","ref":"BR-101","all_shield_texts":["349"]},"arcs":[[47],[48]]},{"type":"LineString","properties":{"kind":"major_road","network":"BR","sort_rank":380,"kind_detail":"primary","source":"openstreetmap.org","min_zoom":8.0,"landuse_kind":"urban_area","shield_text":"235","id":305260269},"arcs":[49]},{"type":"MultiLineString","properties":{"kind":"major_road","network":"BR","sort_rank":381,"landuse_kind":"urban_area","source":"openstreetmap.org","min_zoom":8.0,"kind_detail":"trunk","shield_text":"235","ref":"BR-235"},"arcs":[[50],[51]]},{"type":"MultiLineString","properties":{"source":"openstreetmap.org","kind":"major_road","sort_rank":381,"kind_detail":"trunk","ref":"BR-101","min_zoom":8.0},"arcs":[[52],[53],[54],[55],[56],[57]]},{"type":"LineString","properties":{"kind":"highway","network":"BR","sort_rank":383,"kind_detail":"motorway","source":"openstreetmap.org","min_zoom":8.0,"all_networks":["BR"],"landuse_kind":"urban_area","shield_text":"349","ref":"BR-235","id":80863540,"all_shield_texts":["349"]},"arcs":[58]},{"type":"MultiLineString","properties":{"source":"openstreetmap.org","kind":"major_road","sort_rank":380,"kind_detail":"primary","ref":"SE-065","min_zoom":8.0},"arcs":[[59],[60],[61],[62]]},{"type":"LineString","properties":{"source":"openstreetmap.org","kind":"major_road","sort_rank":380,"kind_detail":"primary","ref":"SE-282","min_zoom":8.0,"id":279036382},"arcs":[63]},{"type":"LineString","properties":{"kind":"highway","network":"BR","sort_rank":383,"kind_detail":"motorway","source":"openstreetmap.org","min_zoom":8.0,"all_networks":["BR"],"landuse_kind":"urban_area","shield_text":"235","ref":"BR-101;BR-235","id":297119172,"all_shield_texts":["235"]},"arcs":[64]},{"type":"LineString","properties":{"source":"openstreetmap.org","kind":"major_road","sort_rank":380,"kind_detail":"primary","ref":"SE-429","min_zoom":8.0,"id":101883958},"arcs":[65]},{"type":"MultiLineString","properties":{"kind":"major_road","network":"BR","sort_rank":380,"kind_detail":"primary","source":"openstreetmap.org","min_zoom":8.0,"shield_text":"235","ref":"BR-235"},"arcs":[[66],[67],[68],[69]]},{"type":"MultiLineString","properties":{"kind":"major_road","sort_rank":380,"kind_detail":"primary","is_bicycle_related":true,"cycleway":"track","source":"openstreetmap.org","min_zoom":8.0,"landuse_kind":"urban_area","ref":"SE-050"},"arcs":[[70],[71]]},{"type":"LineString","properties":{"source":"openstreetmap.org","kind":"major_road","sort_rank":380,"kind_detail":"primary","ref":"AL-229","min_zoom":8.0},"arcs":[72]},{"type":"LineString","properties":{"source":"openstreetmap.org","kind":"major_road","sort_rank":380,"kind_detail":"primary","ref":"AL-225","min_zoom":8.0},"arcs":[73]},{"type":"LineString","properties":{"bus_network":null,"sort_rank":380,"kind_detail":"primary","kind":"major_road","source":"openstreetmap.org","min_zoom":8.0,"bus_shield_text":"412","landuse_kind":"urban_area","ref":"SE-050"},"arcs":[74]},{"type":"LineString","properties":{"kind":"major_road","network":"SE","sort_rank":380,"kind_detail":"primary","source":"openstreetmap.org","min_zoom":8.0,"shield_text":"170","ref":"SE-104;SE-170","id":283893311},"arcs":[75]},{"type":"MultiLineString","properties":{"source":"openstreetmap.org","kind":"highway","landuse_kind":"urban_area","sort_rank":383,"kind_detail":"motorway","ref":"BR-101","min_zoom":8.0},"arcs":[[76],[77],[78]]},{"type":"MultiLineString","properties":{"sort_rank":355,"source":"openstreetmap.org","min_zoom":8.0,"is_bicycle_related":true,"kind":"ferry"},"arcs":[[79],[80]]},{"type":"MultiLineString","properties":{"source":"openstreetmap.org","kind":"major_road","network":"SE","sort_rank":380,"kind_detail":"primary","min_zoom":8.0,"shield_text":"270"},"arcs":[[81],[82]]},{"type":"LineString","properties":{"kind":"highway","sort_rank":383,"landuse_kind":"urban_area","source":"openstreetmap.org","min_zoom":8.0,"kind_detail":"motorway","ref":"BR-101;BR-235","id":297119169},"arcs":[83]},{"type":"MultiLineString","properties":{"kind":"major_road","sort_rank":380,"kind_detail":"primary","source":"openstreetmap.org","min_zoom":8.0,"landuse_kind":"urban_area","loc_name":"Avenida Principal","ref":"SE-090"},"arcs":[[84],[85],[86]]},{"type":"LineString","properties":{"kind":"major_road","network":"SE","sort_rank":380,"kind_detail":"primary","official_name":"Rodovia Paulo Barreto de Menezes","source":"openstreetmap.org","min_zoom":8.0,"shield_text":"065","ref":"SE-065"},"arcs":[87]},{"type":"MultiLineString","properties":{"kind":"major_road","network":"SE","sort_rank":380,"kind_detail":"primary","source":"openstreetmap.org","min_zoom":8.0,"shield_text":"050","ref":"SE-050"},"arcs":[[88],[89]]},{"type":"MultiLineString","properties":{"source":"openstreetmap.org","kind":"major_road","sort_rank":380,"kind_detail":"primary","ref":"SE-179","min_zoom":8.0},"arcs":[[90],[91]]},{"type":"LineString","properties":{"source":"openstreetmap.org","kind":"major_road","sort_rank":380,"kind_detail":"primary","ref":"SE-116","min_zoom":8.0},"arcs":[92]},{"type":"MultiLineString","properties":{"source":"openstreetmap.org","kind":"major_road","sort_rank":380,"kind_detail":"primary","ref":"SE-460","min_zoom":8.0},"arcs":[[93],[94],[95]]},{"type":"MultiLineString","properties":{"source":"openstreetmap.org","kind":"major_road","landuse_kind":"urban_area","sort_rank":380,"kind_detail":"primary","ref":"SE-100","min_zoom":8.0},"arcs":[[96],[97],[98]]},{"type":"MultiLineString","properties":{"source":"openstreetmap.org","kind":"major_road","old_name":"Avenida Canal 4","sort_rank":380,"kind_detail":"primary","landuse_kind":"urban_area","min_zoom":8.0},"arcs":[[99],[100]]},{"type":"LineString","properties":{"source":"openstreetmap.org","kind":"major_road","sort_rank":380,"kind_detail":"primary","ref":"AL-110","min_zoom":8.0},"arcs":[101]},{"type":"LineString","properties":{"source":"openstreetmap.org","kind":"major_road","sort_rank":380,"kind_detail":"primary","ref":"SE-112","min_zoom":8.0,"id":291852524},"arcs":[102]},{"type":"LineString","properties":{"kind":"major_road","network":"BR","sort_rank":380,"kind_detail":"primary","source":"openstreetmap.org","min_zoom":8.0,"landuse_kind":"urban_area","shield_text":"235","ref":"BR-235"},"arcs":[103]},{"type":"MultiLineString","properties":{"source":"openstreetmap.org","kind":"major_road","landuse_kind":"urban_area","sort_rank":380,"kind_detail":"primary","ref":"SE-462","min_zoom":8.0},"arcs":[[104],[105],[106],[107]]},{"type":"MultiLineString","properties":{"kind":"major_road","network":"SE","sort_rank":380,"kind_detail":"primary","source":"openstreetmap.org","min_zoom":8.0,"shield_text":"100","ref":"SE-100"},"arcs":[[108],[109],[110]]},{"type":"MultiLineString","properties":{"kind":"major_road","network":"SE","sort_rank":380,"kind_detail":"primary","source":"openstreetmap.org","min_zoom":8.0,"shield_text":"226","ref":"SE-226"},"arcs":[[111],[112]]},{"type":"MultiLineString","properties":{"kind":"major_road","cycleway_left":"track","sort_rank":380,"kind_detail":"primary","is_bicycle_related":true,"source":"openstreetmap.org","min_zoom":8.0,"landuse_kind":"urban_area"},"arcs":[[113],[114]]},{"type":"MultiLineString","properties":{"source":"openstreetmap.org","kind":"major_road","landuse_kind":"urban_area","sort_rank":380,"kind_detail":"primary","min_zoom":8.0},"arcs":[[115],[116],[117],[118],[119],[120],[121],[122],[123],[124],[125],[126],[127],[128],[129],[130],[131],[132],[133],[134],[135],[136],[137],[138],[139],[140],[141],[142],[143],[144],[145],[146],[147],[148],[149],[150],[151],[152],[153],[154],[155],[156],[157],[158],[159],[160],[161],[162],[163],[164],[165],[166],[167],[168],[169],[170],[171],[172],[173],[174],[175],[176],[177],[178],[179],[180],[181],[182],[183],[184],[185],[186],[187],[188],[189],[190],[191],[192],[193],[194],[195],[196],[197],[198],[199],[200],[201],[202],[203],[204],[205],[206],[207],[208],[209],[210],[211],[212],[213],[214],[215],[216],[217],[218],[219],[220],[221],[222],[223],[224],[225],[226],[227],[228],[229],[230],[231],[232],[233],[234],[235],[236],[237],[238],[239],[240],[241],[242],[243],[244],[245],[246],[247],[248],[249],[250],[251],[252],[253],[254],[255],[256],[257],[258],[259],[260],[261],[262],[263],[264],[265],[266],[267],[268],[269],[270],[271],[272],[273],[274],[275],[276],[277],[278],[279],[280],[281],[282],[283],[284],[285],[286],[287],[288],[289],[290],[291],[292],[293],[294],[295],[296],[297],[298],[299],[300],[301],[302],[303],[304],[305],[306],[307],[308],[309],[310],[311],[312],[313],[314],[315],[316],[317],[318],[319],[320],[321],[322],[323],[324],[325],[326],[327],[328],[329],[330],[331],[332],[333],[334],[335],[336],[337],[338],[339],[340],[341],[342],[343],[344],[345],[346],[347],[348],[349],[350],[351],[352],[353],[354],[355],[356],[357],[358],[359],[360],[361],[362],[363],[364],[365],[366],[367],[368],[369],[370],[371],[372],[373],[374],[375],[376],[377],[378],[379],[380],[381],[382],[383],[384],[385],[386],[387],[388],[389],[390],[391],[392],[393],[394],[395],[396],[397],[398],[399],[400],[401],[402],[403],[404],[405],[406],[407],[408],[409],[410],[411],[412],[413],[414],[415],[416],[417],[418],[419],[420],[421],[422]]},{"type":"LineString","properties":{"source":"openstreetmap.org","kind":"major_road","sort_rank":380,"kind_detail":"primary","ref":"SE-331","min_zoom":8.0},"arcs":[423]},{"type":"LineString","properties":{"sort_rank":355,"source":"openstreetmap.org","min_zoom":8.0,"kind":"ferry"},"arcs":[424]},{"type":"MultiLineString","properties":{"source":"openstreetmap.org","kind":"highway","landuse_kind":"urban_area","sort_rank":383,"kind_detail":"motorway","min_zoom":8.0},"arcs":[[425],[426],[427]]},{"type":"MultiLineString","properties":{"source":"openstreetmap.org","kind":"major_road","sort_rank":380,"kind_detail":"primary","ref":"AL-487","min_zoom":8.0},"arcs":[[428],[429],[430]]},{"type":"MultiLineString","properties":{"source":"openstreetmap.org","kind":"major_road","sort_rank":380,"kind_detail":"primary","ref":"SE-090","min_zoom":8.0},"arcs":[[431],[432],[433],[434],[435],[436],[437],[438],[439]]},{"type":"MultiLineString","properties":{"kind":"major_road","network":"BR","sort_rank":380,"kind_detail":"primary","source":"openstreetmap.org","min_zoom":8.0,"landuse_kind":"nature_reserve","shield_text":"235","ref":"BR-235","id":364066391},"arcs":[[440],[441]]},{"type":"MultiLineString","properties":{"kind":"highway","network":"BR","sort_rank":383,"landuse_kind":"urban_area","source":"openstreetmap.org","min_zoom":8.0,"all_networks":["BR"],"kind_detail":"motorway","shield_text":"349","ref":"BR-101","all_shield_texts":["349"]},"arcs":[[442],[443]]},{"type":"LineString","properties":{"kind":"major_road","network":"SE","sort_rank":380,"kind_detail":"primary","source":"openstreetmap.org","min_zoom":8.0,"shield_text":"204","ref":"SE-204"},"arcs":[444]},{"type":"MultiLineString","properties":{"source":"openstreetmap.org","kind":"major_road","landuse_kind":"urban_area","sort_rank":380,"kind_detail":"primary","ref":"SE-040","min_zoom":8.0},"arcs":[[445],[446],[447],[448],[449]]},{"type":"MultiLineString","properties":{"source":"openstreetmap.org","kind":"major_road","sort_rank":380,"kind_detail":"primary","ref":"SE-170","min_zoom":8.0},"arcs":[[450],[451],[452]]},{"type":"LineString","properties":{"kind":"major_road","network":"SE","sort_rank":380,"kind_detail":"primary","official_name":"Rodovia Paulo Barreto de Menezes","source":"openstreetmap.org","min_zoom":8.0,"landuse_kind":"urban_area","shield_text":"065","ref":"SE-065","id":96510019},"arcs":[453]},{"type":"MultiLineString","properties":{"source":"openstreetmap.org","kind":"major_road","sort_rank":380,"kind_detail":"primary","ref":"SE-202","min_zoom":8.0},"arcs":[[454],[455]]},{"type":"MultiLineString","properties":{"source":"openstreetmap.org","kind":"major_road","landuse_kind":"urban_area","sort_rank":380,"kind_detail":"primary","ref":"SE-460","min_zoom":8.0},"arcs":[[456],[457],[458],[459],[460],[461]]},{"type":"LineString","properties":{"kind":"major_road","network":"SE","sort_rank":380,"kind_detail":"primary","source":"openstreetmap.org","min_zoom":8.0,"shield_text":null,"ref":"SE-106","id":292494946},"arcs":[462]},{"type":"MultiLineString","properties":{"sort_rank":380,"kind_detail":"primary","min_zoom":8.0,"kind":"major_road","source":"openstreetmap.org"},"arcs":[[463],[464],[465],[466],[467],[468],[469],[470],[471],[472],[473],[474],[475],[476],[477],[478],[479],[480],[481],[482],[483],[484],[485],[486],[487],[488],[489],[490],[491],[492],[493],[494],[495],[496],[497],[498],[499],[500],[501],[502],[503],[504],[505],[506],[507],[508],[509],[510],[511],[512],[513],[514],[515],[516],[517],[518],[519],[520],[521],[522],[523],[524],[525],[526],[527],[528],[529],[530],[531],[532],[533],[534],[535],[536],[537]]},{"type":"LineString","properties":{"source":"openstreetmap.org","kind":"major_road","sort_rank":380,"kind_detail":"primary","ref":"BA-084","min_zoom":8.0,"id":227335324},"arcs":[538]},{"type":"LineString","properties":{"kind":"highway","network":"BR","sort_rank":383,"kind_detail":"motorway","source":"openstreetmap.org","min_zoom":8.0,"all_networks":["BR"],"landuse_kind":"urban_area","shield_text":"235","ref":"BR-235","id":292330093,"all_shield_texts":["235"]},"arcs":[539]},{"type":"LineString","properties":{"source":"openstreetmap.org","kind":"ferry","name":"M&B Bet\u00e3o","sort_rank":355,"min_zoom":8.0,"id":496507800},"arcs":[540]},{"type":"MultiLineString","properties":{"kind":"major_road","network":"SE","sort_rank":380,"kind_detail":"primary","source":"openstreetmap.org","min_zoom":8.0,"shield_text":null,"ref":"SE-175"},"arcs":[[541],[542]]},{"type":"LineString","properties":{"source":"openstreetmap.org","kind":"major_road","sort_rank":380,"kind_detail":"primary","ref":"SE-325","min_zoom":8.0,"id":326029183},"arcs":[543]},{"type":"MultiLineString","properties":{"source":"openstreetmap.org","kind":"major_road","landuse_kind":"urban_area","sort_rank":380,"kind_detail":"primary","ref":"SE-090","min_zoom":8.0},"arcs":[[544],[545],[546],[547],[548],[549],[550],[551],[552]]},{"type":"LineString","properties":{"kind":"highway","network":"BR","sort_rank":383,"kind_detail":"motorway","source":"openstreetmap.org","min_zoom":8.0,"all_networks":["BR"],"landuse_kind":"urban_area","shield_text":"235","ref":"BR-101","id":81186383,"all_shield_texts":["235"]},"arcs":[553]},{"type":"LineString","properties":{"source":"openstreetmap.org","kind":"major_road","network":"BR","sort_rank":380,"kind_detail":"primary","min_zoom":8.0,"shield_text":"235"},"arcs":[554]},{"type":"LineString","properties":{"source":"openstreetmap.org","kind":"major_road","sort_rank":380,"kind_detail":"primary","ref":"SE-399","min_zoom":8.0},"arcs":[555]},{"type":"LineString","properties":{"kind":"major_road","sort_rank":380,"kind_detail":"primary","is_bicycle_related":true,"cycleway":"track","source":"openstreetmap.org","min_zoom":8.0,"landuse_kind":"urban_area","id":317747774},"arcs":[556]},{"type":"MultiLineString","properties":{"kind":"major_road","network":"SE","sort_rank":380,"kind_detail":"primary","source":"openstreetmap.org","min_zoom":8.0,"shield_text":"160","ref":"SE-160"},"arcs":[[557],[558],[559],[560],[561],[562]]},{"type":"MultiLineString","properties":{"source":"openstreetmap.org","kind":"major_road","sort_rank":380,"kind_detail":"primary","ref":"SE-050","min_zoom":8.0},"arcs":[[563],[564]]},{"type":"LineString","properties":{"source":"openstreetmap.org","kind":"major_road","sort_rank":380,"kind_detail":"primary","ref":"SE-335","min_zoom":8.0},"arcs":[565]},{"type":"MultiLineString","properties":{"kind":"major_road","sort_rank":380,"kind_detail":"primary","is_bicycle_related":true,"cycleway":"track","source":"openstreetmap.org","min_zoom":8.0,"old_name":"Avenida Rio de Janeiro","landuse_kind":"urban_area"},"arcs":[[566],[567],[568],[569],[570],[571],[572]]},{"type":"LineString","properties":{"kind":"major_road","network":"SE","sort_rank":380,"kind_detail":"primary","source":"openstreetmap.org","min_zoom":8.0,"shield_text":"120","ref":"SE-120"},"arcs":[573]},{"type":"LineString","properties":{"kind":"major_road","network":"BR","sort_rank":380,"kind_detail":"primary","source":"openstreetmap.org","min_zoom":8.0,"landuse_kind":"urban_area","shield_text":"349","ref":"SE-050","id":82818894},"arcs":[574]},{"type":"MultiLineString","properties":{"source":"openstreetmap.org","kind":"major_road","sort_rank":380,"kind_detail":"primary","ref":"AL-115","min_zoom":8.0},"arcs":[[575],[576]]},{"type":"LineString","properties":{"kind":"major_road","network":"SE","sort_rank":380,"kind_detail":"primary","source":"openstreetmap.org","min_zoom":8.0,"shield_text":"361","ref":"SE-361"},"arcs":[577]},{"type":"MultiLineString","properties":{"source":"openstreetmap.org","kind":"major_road","landuse_kind":"urban_area","sort_rank":380,"kind_detail":"primary","ref":"SE-065","min_zoom":8.0},"arcs":[[578],[579],[580]]},{"type":"MultiLineString","properties":{"kind":"highway","network":"BR","sort_rank":383,"landuse_kind":"urban_area","source":"openstreetmap.org","min_zoom":8.0,"all_networks":["BR","BR"],"kind_detail":"motorway","shield_text":"235","ref":"BR-235","all_shield_texts":["235","349"]},"arcs":[[581],[582]]},{"type":"LineString","properties":{"source":"openstreetmap.org","kind":"major_road","sort_rank":380,"kind_detail":"primary","ref":"SE-302","min_zoom":8.0},"arcs":[583]},{"type":"LineString","properties":{"source":"openstreetmap.org","kind":"major_road","sort_rank":380,"kind_detail":"primary","ref":"BA-220","min_zoom":8.0},"arcs":[584]},{"type":"LineString","properties":{"source":"openstreetmap.org","kind":"highway","sort_rank":383,"kind_detail":"motorway","min_zoom":8.0,"id":315075109},"arcs":[585]},{"type":"MultiLineString","properties":{"kind":"major_road","network":"SE","sort_rank":380,"kind_detail":"primary","source":"openstreetmap.org","min_zoom":8.0,"shield_text":"200","ref":"SE-200"},"arcs":[[586],[587],[588],[589],[590]]},{"type":"LineString","properties":{"source":"openstreetmap.org","kind":"major_road","old_name":"Avenida Juscelino Kubitschek","sort_rank":380,"kind_detail":"primary","landuse_kind":"urban_area","min_zoom":8.0},"arcs":[591]},{"type":"MultiLineString","properties":{"kind":"highway","network":"BR","sort_rank":383,"landuse_kind":"urban_area","source":"openstreetmap.org","min_zoom":8.0,"all_networks":["BR"],"kind_detail":"motorway","shield_text":"235","all_shield_texts":["235"]},"arcs":[[592],[593]]},{"type":"MultiLineString","properties":{"kind":"major_road","network":"SE","sort_rank":380,"kind_detail":"primary","source":"openstreetmap.org","min_zoom":8.0,"shield_text":null,"ref":"SE-230"},"arcs":[[594],[595],[596],[597]]},{"type":"MultiLineString","properties":{"kind":"major_road","network":"SE","sort_rank":380,"kind_detail":"primary","source":"openstreetmap.org","min_zoom":8.0,"shield_text":"170","ref":"SE-170"},"arcs":[[598],[599],[600],[601],[602],[603],[604]]},{"type":"LineString","properties":{"source":"openstreetmap.org","kind":"major_road","sort_rank":380,"kind_detail":"primary","ref":"BR-101","min_zoom":8.0,"id":315075088},"arcs":[605]},{"type":"MultiLineString","properties":{"source":"openstreetmap.org","kind":"highway","sort_rank":383,"kind_detail":"motorway","ref":"BR-101","min_zoom":8.0},"arcs":[[606],[607],[608],[609],[610],[611],[612],[613],[614],[615],[616],[617],[618],[619],[620],[621],[622],[623],[624],[625],[626],[627],[628],[629],[630],[631],[632]]},{"type":"LineString","properties":{"source":"openstreetmap.org","kind":"major_road","old_name":"Avenida Augusto Franco","sort_rank":380,"kind_detail":"primary","min_zoom":8.0},"arcs":[633]},{"type":"MultiLineString","properties":{"kind":"major_road","network":"SE","sort_rank":380,"kind_detail":"primary","source":"openstreetmap.org","min_zoom":8.0,"shield_text":"240","ref":"SE-240"},"arcs":[[634],[635],[636]]},{"type":"LineString","properties":{"kind":"major_road","network":"SE","sort_rank":380,"kind_detail":"primary","source":"openstreetmap.org","min_zoom":8.0,"shield_text":"175","ref":"SE-175"},"arcs":[637]},{"type":"MultiLineString","properties":{"source":"openstreetmap.org","kind":"major_road","landuse_kind":"urban_area","sort_rank":380,"kind_detail":"primary","ref":"SE-050","min_zoom":8.0},"arcs":[[638],[639],[640],[641],[642],[643],[644],[645],[646],[647]]},{"type":"MultiLineString","properties":{"kind":"major_road","network":"SE","sort_rank":380,"kind_detail":"primary","source":"openstreetmap.org","min_zoom":8.0,"shield_text":"270","ref":"SE-270"},"arcs":[[648],[649],[650],[651],[652],[653],[654],[655]]},{"type":"LineString","properties":{"kind":"major_road","network":"SE","sort_rank":380,"kind_detail":"primary","source":"openstreetmap.org","min_zoom":8.0,"shield_text":"050","ref":"SE-100","id":148771137},"arcs":[656]},{"type":"MultiLineString","properties":{"kind":"major_road","sort_rank":380,"kind_detail":"primary","is_bicycle_related":true,"cycleway":"track","source":"openstreetmap.org","min_zoom":8.0,"old_name":"Rio de Janeiro","landuse_kind":"urban_area"},"arcs":[[657],[658]]},{"type":"MultiLineString","properties":{"kind":"major_road","network":"SE","sort_rank":380,"kind_detail":"primary","source":"openstreetmap.org","min_zoom":8.0,"shield_text":"230","ref":"SE-230"},"arcs":[[659],[660],[661]]},{"type":"LineString","properties":{"source":"openstreetmap.org","kind":"major_road","sort_rank":380,"kind_detail":"primary","is_bicycle_related":true,"min_zoom":8.0,"id":267333595},"arcs":[662]},{"type":"LineString","properties":{"source":"openstreetmap.org","kind":"major_road","old_name":"Travessa Josias Machado","sort_rank":380,"kind_detail":"primary","min_zoom":8.0},"arcs":[663]},{"type":"LineString","properties":{"source":"openstreetmap.org","kind":"major_road","landuse_kind":"urban_area","sort_rank":380,"kind_detail":"primary","ref":"SE-466","min_zoom":8.0},"arcs":[664]},{"type":"LineString","properties":{"source":"openstreetmap.org","kind":"major_road","sort_rank":380,"kind_detail":"primary","ref":"SE-407","min_zoom":8.0,"id":321204495},"arcs":[665]},{"type":"MultiLineString","properties":{"source":"openstreetmap.org","kind":"major_road","sort_rank":380,"kind_detail":"primary","ref":"AL-485","min_zoom":8.0},"arcs":[[666],[667],[668]]},{"type":"LineString","properties":{"source":"openstreetmap.org","kind":"major_road","sort_rank":380,"kind_detail":"primary","ref":"AL-125","min_zoom":8.0},"arcs":[669]},{"type":"LineString","properties":{"source":"openstreetmap.org","kind":"major_road","sort_rank":380,"kind_detail":"primary","ref":"SE-431","min_zoom":8.0,"id":338232263},"arcs":[670]},{"type":"MultiLineString","properties":{"source":"openstreetmap.org","kind":"major_road","old_name":"Avenida Rio Branco","sort_rank":380,"kind_detail":"primary","ref":"SE-438","min_zoom":8.0},"arcs":[[671],[672]]},{"type":"MultiLineString","properties":{"source":"openstreetmap.org","kind":"major_road","sort_rank":380,"kind_detail":"primary","ref":"SE-100","min_zoom":8.0},"arcs":[[673],[674],[675],[676],[677]]},{"type":"LineString","properties":{"kind":"major_road","cycleway_left":"lane","sort_rank":380,"kind_detail":"primary","is_bicycle_related":true,"source":"openstreetmap.org","min_zoom":8.0,"landuse_kind":"urban_area"},"arcs":[678]},{"type":"MultiLineString","properties":{"kind":"major_road","sort_rank":380,"kind_detail":"primary","source":"openstreetmap.org","min_zoom":8.0,"old_name":"Avenida Nova Saneamento","landuse_kind":"urban_area","ref":"SE-462"},"arcs":[[679],[680]]},{"type":"LineString","properties":{"source":"openstreetmap.org","kind":"major_road","network":"SE","sort_rank":380,"kind_detail":"primary","min_zoom":8.0,"shield_text":"170"},"arcs":[681]},{"type":"LineString","properties":{"source":"openstreetmap.org","kind":"major_road","sort_rank":380,"kind_detail":"primary","ref":"BA-386","min_zoom":8.0},"arcs":[682]}]},"earth":{"type":"GeometryCollection","geometries":[{"type":"Polygon","properties":{"sort_rank":10,"source":"naturalearthdata.com","kind":"earth","min_zoom":0.0,"id":4469},"arcs":[[683]]}]},"landuse":{"type":"GeometryCollection","geometries":[{"type":"MultiPolygon","properties":{"kind":"nature_reserve","protect_class":"24","area":136368198,"sort_rank":23,"operator":"Funda\u00e7\u00e3o Nacional do \u00cdndio","source":"openstreetmap.org","min_zoom":8.0,"tier":2},"arcs":[[[684]]]},{"type":"MultiPolygon","properties":{"source":"naturalearthdata.com","kind":"urban_area","name":"","area":344137391,"sort_rank":11,"min_zoom":4.0},"arcs":[[[685]]]},{"type":"Polygon","properties":{"kind":"nature_reserve","protect_class":"1","area":57750000,"sort_rank":23,"operator":"Instituto Chico Mendes de Conserva\u00e7\u00e3o da Biodiversidade","source":"openstreetmap.org","min_zoom":8.0,"tier":2,"id":-5242502,"osm_relation":true},"arcs":[[686]]},{"type":"Polygon","properties":{"kind":"nature_reserve","protect_class":"2","area":76317296,"sort_rank":23,"operator":"Instituto Chico Mendes de Conserva\u00e7\u00e3o da Biodiversidade","source":"openstreetmap.org","min_zoom":8.0,"tier":2,"id":-3426352,"osm_relation":true},"arcs":[[687]]}]}},"type":"Topology","transform":{"translate":[-37.96875,-11.1784018737],"scale":[0.0003433228,0.0003375792]},"arcs":[[[2992,0],[449,672],[185,197],[70,72],[400,226]],[[0,1262],[451,182],[-36,326],[-42,92],[62,29],[19,97],[-134,237],[17,62],[48,17],[-4,65],[42,3],[118,93],[141,39],[-90,407],[-50,41],[17,145],[-73,89],[-56,136],[-19,159],[-138,75],[-127,10],[-24,28],[-88,-17],[-34,48]],[[0,4014],[6,21],[-6,3]],[[4096,2539],[-116,98],[-52,100],[-66,1],[-53,-47],[-119,-1],[-53,16],[-73,98],[-233,58],[-59,69],[-8,77],[-37,10],[-37,53],[-92,11],[-48,39],[-89,151],[-11,190],[-66,86],[-59,10],[-124,-32],[-38,18],[-288,256],[-189,-20],[-67,25],[-64,126],[-64,59],[-102,34],[-76,72]],[[4096,2439],[0,25]],[[2992,0],[449,672],[185,197],[70,72],[400,226]],[[2882,1671],[-15,-22],[-38,-13],[-28,-33],[-6,-4],[-17,-7],[-6,-6],[-61,-134],[-82,-91],[-53,-38],[-60,-75],[-49,-42],[-5,-4],[-2,-1],[-39,-14]],[[2421,1187],[-8,-5],[-3,-5],[-1,-5],[-1,-5],[0,-3],[29,-341],[-6,-4],[-3,0],[-10,3],[-4,1],[-5,0],[-2,-1],[-6,-2],[-247,-166],[-5,-1],[-46,-1],[-4,-1],[-59,-20],[-30,-11],[-3,-2],[-4,-2],[-3,-4],[-39,-57],[-16,-12],[-22,-25],[-2,-4],[0,-11],[-3,-4],[-16,-7],[-5,-3],[-28,-31],[-25,-33],[-14,-5],[-59,7],[-3,0],[-2,0],[-2,-1],[-2,-2],[-2,-2],[-1,-4],[-1,-53],[7,-51],[-22,-40],[-41,-148],[-42,-17],[-6,-4],[-2,-4],[-2,-3],[-1,-4],[1,-6],[15,-62],[-9,-26]],[[1656,0],[9,20],[1,5],[0,3],[-16,70],[9,10],[35,10],[9,9],[62,187],[-3,110],[68,-4],[12,4],[76,74],[3,5],[1,12],[39,40],[46,63],[92,33],[49,2],[7,1],[8,4],[238,162],[38,-4]],[[2439,816],[4,-2],[-1,-4],[-2,1],[-1,5]],[[2439,816],[-18,371]],[[2574,1322],[-147,-132]],[[2597,1339],[-18,-13],[-3,-3]],[[2738,1535],[-27,-83],[-109,-110]],[[2812,1617],[-14,-16],[-18,-7],[-6,-5],[-6,-7],[-22,-31],[-7,-12]],[[2890,1684],[-8,-13]],[[2890,1685],[-8,-14]],[[2890,1684],[1,4],[1,5],[4,41],[25,34],[2,5],[3,17],[0,14],[-1,8],[-22,43],[11,25]],[[2915,1883],[-10,-16],[-2,-5],[-1,-7],[1,-4],[2,-5],[20,-36],[-2,-35],[-3,-9],[-20,-23],[-1,-2],[-3,-7],[-2,-5],[-1,-6],[-1,-31],[-2,-7]],[[2890,1685],[0,-1]],[[2914,1880],[58,84]],[[2915,1883],[-1,-3]],[[2972,1964],[-57,-81]],[[2972,1964]],[[2972,1964],[11,84]],[[2983,2048],[0,4],[-3,5],[-13,17],[-2,9],[26,27]],[[2972,2096],[13,7],[5,6],[2,5],[4,30]],[[2995,2144],[-23,-48]],[[2972,1964],[3,4],[2,5],[2,5],[1,5],[3,60],[0,5]],[[2983,2048],[-3,8],[-12,15],[-2,3],[-1,4],[-1,6],[2,5],[6,7]],[[2996,2144],[-1,0]],[[3065,2335],[-12,-73],[-4,-7],[-16,-21],[-13,-19],[-25,-71]],[[3219,2720],[-85,-159],[-4,-47],[1,-20],[-1,-7],[-11,-22],[-24,-32],[-19,-38],[-23,-133],[-57,-118]],[[3220,2722],[-61,-111],[-25,-49],[-2,-6],[-2,-32],[-1,-10],[2,-21],[-1,-6],[-11,-22],[-24,-32],[-14,-27],[-5,-11],[-1,-4],[-8,-39]],[[3326,2961],[12,-108],[-46,-42],[-29,-9],[-44,-82]],[[3220,2722],[-1,-2]],[[3278,2808],[-11,-2],[-3,-3],[-2,-3],[-42,-78]],[[3326,2961],[42,57],[53,98],[16,2],[10,10],[9,13],[40,2],[25,19],[73,-27],[4,-1],[6,2],[87,72],[60,120],[66,11],[2,2],[15,14],[18,13],[25,26],[11,6],[9,8]],[[3937,3449],[-14,-18],[-47,-37],[-24,-26],[-20,-14],[-13,-13],[-68,-12],[-61,-121],[-86,-72],[-82,26],[-68,-21],[-31,-23],[-19,-21],[-37,-79],[-41,-57]],[[3339,2857],[7,18]],[[3936,3448],[1,1]],[[4087,3533],[-110,-38],[-40,-46]],[[4087,3533],[9,2]],[[4096,3535],[-9,-2]],[[2356,0],[-12,24],[2,101],[-19,30],[17,29],[-5,22],[-20,17],[-29,13],[-15,-2],[-8,-16],[-12,-17],[-27,-5],[-38,18],[-11,28],[19,15],[52,-21],[0,21],[-44,17],[-23,14],[-24,19],[-27,15],[-23,-4],[-20,-6],[-20,5],[-17,21],[-19,33],[-16,34],[-6,25],[9,31],[20,19],[20,3],[9,-13],[29,-6],[121,-52],[20,-12],[43,-91],[28,-34],[17,42],[22,0],[14,-28],[15,-8],[17,-5],[14,-19],[-3,-27],[-13,-33],[-1,-29],[27,-13],[41,32],[215,343],[14,42],[3,62],[14,45],[30,40],[147,146],[45,62],[31,86],[145,188],[392,297],[459,289],[41,12],[15,10],[28,41],[16,10],[41,8],[0,-1868],[-1740,0]],[[4096,1868],[-41,-8],[-16,-10],[-28,-41],[-15,-10],[-41,-12],[-459,-289],[-392,-297],[-145,-188],[-31,-86],[-45,-62],[-147,-146],[-30,-40],[-14,-45],[-3,-62],[-14,-42],[-215,-343],[-41,-32],[-27,13],[1,29],[13,33],[3,27],[-14,19],[-17,5],[-15,8],[-14,28],[-22,0],[-17,-42],[-28,34],[-43,91],[-20,12],[-121,52],[-29,6],[-9,13],[-20,-3],[-20,-19],[-9,-31],[6,-25],[16,-34],[19,-33],[17,-21],[20,-5],[20,6],[23,4],[27,-15],[24,-19],[23,-14],[44,-17],[0,-21],[-52,21],[-19,-15],[11,-28],[38,-18],[27,5],[12,17],[8,16],[15,2],[29,-13],[20,-17],[5,-22],[-17,-29],[19,-30],[-2,-101],[12,-24]],[[2254,2806],[131,-23],[108,-121],[89,-42],[175,0]],[[2373,800],[-190,-131],[-173,-49],[-72,-85]],[[1938,535],[72,85],[173,49],[190,131]],[[2603,796],[0,-1]],[[2557,801],[45,-6]],[[2603,795],[-45,7]],[[2890,1684],[-151,-147],[-22,-75],[-86,-100],[-210,-175]],[[2914,1880],[-7,-10]],[[2972,1964],[0,132]],[[3219,2720],[-81,-150],[-142,-426]],[[3326,2961],[13,-104],[-81,-65]],[[4087,3533],[-110,-38],[-40,-46]],[[2430,818],[18,-5]],[[2217,493],[24,7]],[[2241,500],[1,2]],[[2242,502],[6,12]],[[2248,514],[1,4]],[[1103,0],[-78,100]],[[2434,863],[4,-38]],[[2350,1098],[-7,4]],[[1566,1415],[-76,204],[-63,97],[-158,156],[-155,22],[-149,-42],[-65,228],[-53,85],[11,141],[-86,135],[-227,234],[-15,65],[-162,87]],[[1771,1210],[-93,35],[-102,157]],[[1838,1212],[-10,-3]],[[2408,878],[-194,104],[-203,156],[-70,92],[-78,-8]],[[2597,648],[-4,-13]],[[2594,634],[3,14]],[[4096,2910],[0,-154]],[[3667,3187],[45,-58],[131,-28],[116,9],[39,-47],[98,-31]],[[2607,682],[-8,-18]],[[1291,1238],[3,2]],[[2433,878],[1,-15]],[[2435,854],[-2,24]],[[2439,815],[-1,13]],[[3301,2873],[-11,59]],[[4016,2594],[12,30]],[[1174,579],[71,-17]],[[1246,561],[9,-1]],[[2438,828],[-3,26]],[[2580,965],[6,-26]],[[2586,939],[-5,26]],[[2586,939]],[[2447,698],[-107,-61],[-91,-119]],[[2359,198],[25,13]],[[2408,238],[176,242]],[[766,2462],[33,119],[4,221],[20,50],[58,10]],[[1172,3531],[210,346],[83,42],[69,82],[31,95]],[[469,1307],[99,119],[42,210],[102,169],[241,76]],[[2660,912],[6,-3]],[[2666,909],[-2,4]],[[2666,909],[11,-41]],[[2690,665],[7,-28]],[[2698,638],[-7,26]],[[2659,534],[24,33]],[[2631,625],[-20,-27]],[[2611,598],[21,26]],[[3924,4096],[172,-226]],[[2572,3570],[11,16]],[[2426,869],[-18,9]],[[2675,719],[-33,17],[-54,19]],[[2588,754],[22,-8]],[[2611,745]],[[2642,735],[9,-5],[24,-12]],[[2328,189],[-41,-14],[-88,-175]],[[2749,801],[96,101],[21,62],[104,95]],[[2973,1062],[96,64],[157,169]],[[2645,1964],[0,-115],[113,-105],[135,-13]],[[3226,1295],[3,29]],[[2563,816],[57,-8]],[[2630,808],[1,-2]],[[2537,827],[-8,4]],[[2529,831],[-8,4]],[[2521,835],[-3,1],[-27,0],[-51,36]],[[2440,872],[29,-27],[29,-13],[15,1],[8,2]],[[2521,835],[1,0],[7,-4]],[[2529,831],[2,-1],[1,0],[20,-13],[10,-1]],[[2515,761],[2,0]],[[2517,761],[0,1]],[[2645,809],[-108,18]],[[2547,567],[1,0]],[[2550,570],[-1,0]],[[2561,585],[0,-1]],[[2566,586],[0,1]],[[2573,816],[-3,0]],[[2574,815],[37,-3]],[[2611,812],[33,-3]],[[2606,988],[-29,-7]],[[2577,981]],[[2577,981],[45,8]],[[2616,971],[-35,-5]],[[2581,965],[35,5]],[[2582,959],[-1,0]],[[2582,955],[1,0]],[[2584,734],[-1,0]],[[2583,734],[1,1]],[[2585,945],[-1,0]],[[2585,815],[0,-1]],[[2585,941],[1,0]],[[2585,622],[1,0]],[[2651,570],[-65,-15]],[[2586,555],[64,14]],[[2632,807],[-22,3]],[[2610,810],[-22,3]],[[2590,770],[0,-1]],[[2592,634],[1,0]],[[2593,814]],[[2593,814]],[[2594,770]],[[2594,891],[1,0]],[[2596,892],[-1,1]],[[2596,603],[1,0]],[[2597,697],[0,-2]],[[2597,695],[1,0]],[[2597,695],[1,0]],[[2598,658],[1,0]],[[2600,770]],[[2600,691],[2,0]],[[2602,770]],[[2603,794],[5,-1]],[[2608,793],[18,-2],[1,0],[8,0]],[[2604,770],[2,10],[2,13]],[[2608,793],[0,3]],[[2608,796],[2,14]],[[2610,810],[1,2]],[[2611,812],[0,2]],[[2628,794],[-13,2],[-7,0]],[[2608,796],[-3,1]],[[2606,992]],[[2624,991],[-18,-3]],[[2606,988],[1,-1]],[[2637,713],[-29,-28]],[[2609,747],[0,-1]],[[2609,684],[29,27]],[[2609,1007]],[[2609,684],[17,-10],[1,-1]],[[2627,673]],[[2627,673],[2,0],[37,-13]],[[2625,674],[-15,10]],[[2611,1011]],[[2615,756],[39,0]],[[2655,756],[-40,1]],[[2632,981],[-15,-9]],[[2618,971],[16,8]],[[2620,643],[1,0]],[[2622,990],[-1,1]],[[2625,630]],[[2666,662],[-37,12],[-2,0]],[[2627,674]],[[2627,674],[-1,0],[-1,0]],[[2627,674]],[[2627,674],[-2,0]],[[2628,794],[5,11]],[[2636,794],[-8,0]],[[2628,811],[0,1]],[[2629,673],[-1,1]],[[2628,675]],[[2628,675]],[[2629,702],[0,-1]],[[2630,811]],[[2631,678]],[[2631,806]],[[2651,706],[-8,-8],[-16,-24]],[[2627,674]],[[2627,674],[0,-1]],[[2627,673],[-8,-15],[12,-33]],[[2632,624],[-12,34],[7,15]],[[2627,673],[0,1]],[[2627,674],[1,1]],[[2628,675],[23,29]],[[2651,704],[0,1]],[[2643,806],[-11,1]],[[2633,806],[9,-1]],[[2634,979],[1,1]],[[2635,980],[-1,2],[-1,-1],[1,-2]],[[2634,979],[17,-21]],[[2653,958],[-15,19]],[[2638,977],[-3,3]],[[2643,733],[-6,-20]],[[2637,713],[1,-2]],[[2639,713],[-2,1]],[[2638,977]],[[2638,977],[0,-1]],[[2638,711],[1,2]],[[2638,711],[2,0]],[[2639,713],[5,20]],[[2640,712],[-1,1]],[[2640,712],[0,-1]],[[2640,711],[9,-5]],[[2649,706],[2,0]],[[2651,706],[-11,6]],[[2641,691],[-1,1]],[[2643,972]],[[2643,809]],[[2644,809],[-1,-3]],[[2643,816],[20,-1]],[[2662,816],[-19,0]],[[2644,806],[1,3]],[[2668,807],[-24,-1]],[[2644,805],[25,2]],[[2644,809],[1,0]],[[2645,970]],[[2645,809],[22,0]],[[2645,809]],[[2667,810],[-22,-1]],[[2648,966],[0,1]],[[2649,706]],[[2649,706],[1,-1]],[[2653,707]],[[2653,707],[-1,0]],[[2652,707],[-2,0]],[[2650,704],[1,0]],[[2651,704],[1,0]],[[2652,704]],[[2651,706]],[[2651,706],[0,-1]],[[2654,735],[-3,-5]],[[2651,958],[0,-1],[2,0],[0,1]],[[2653,958],[-2,0]],[[2651,956],[1,-7],[3,10]],[[2675,742],[0,-1]],[[2675,741],[-11,-16],[0,-1],[-12,-17]],[[2652,707],[-1,-1]],[[2652,705],[-1,1]],[[2651,730],[1,0],[3,4]],[[2655,734],[5,9],[7,-1],[7,0]],[[2674,742],[1,0]],[[2651,705],[1,0]],[[2651,705],[1,-1]],[[2652,704],[4,-4],[2,-2]],[[2652,705],[1,2]],[[2653,707],[11,17],[11,17]],[[2675,741],[0,1]],[[2658,698],[-6,7]],[[2652,705]],[[2652,705]],[[2652,705],[1,1]],[[2655,959],[-2,-1]],[[2684,733],[-5,5]],[[2679,738],[-4,3]],[[2675,741]],[[2675,741],[-1,1]],[[2674,742],[-1,1],[-6,0],[-4,0]],[[2663,743],[-3,0],[-3,-4]],[[2657,739],[-3,-4]],[[2654,735],[1,-1]],[[2655,734]],[[2654,756],[1,0]],[[2655,756],[-1,0]],[[2655,756]],[[2655,756],[6,2]],[[2655,756]],[[2661,758],[-6,-2]],[[2655,708]],[[2662,961],[-7,-2]],[[2657,739]],[[2657,739]],[[2657,579]],[[2657,579],[10,-2]],[[2659,697],[13,-3]],[[2659,698],[-1,0]],[[2658,698],[1,-1]],[[2659,697],[0,1]],[[2673,695],[-14,3]],[[2660,819]],[[2660,819]],[[2661,770]],[[2661,770]],[[2662,914],[-1,0]],[[2662,916],[-1,-2]],[[2661,914],[1,-1]],[[2663,914],[-1,2]],[[2662,916],[0,-2]],[[2662,716]],[[2662,717]],[[2662,914]],[[2663,914],[-1,0]],[[2663,816],[-15,21],[12,-18]],[[2660,819],[2,-3]],[[2662,816],[1,-1]],[[2663,816],[-1,0]],[[2663,815],[4,-5]],[[2663,815]],[[2663,815],[0,1]],[[2672,815],[-4,1]],[[2668,816],[-5,0]],[[2667,810],[-4,5]],[[2663,815],[9,0]],[[2663,743]],[[2663,743]],[[2667,578],[-3,1]],[[2665,607]],[[2665,604]],[[2667,810],[0,-1]],[[2672,815],[-5,-5]],[[2667,809],[0,1]],[[2667,809],[1,-2]],[[2667,809],[5,6]],[[2669,807],[-2,2]],[[2668,828]],[[2668,828],[0,1]],[[2669,833],[-1,0]],[[2668,833],[0,1]],[[2668,816]],[[2668,816],[0,5]],[[2668,821],[1,13]],[[2669,834],[0,3]],[[2668,821],[0,7]],[[2668,828],[0,3],[0,1],[0,1]],[[2668,833],[1,1]],[[2669,834],[2,11]],[[2671,845],[0,1]],[[2669,807],[-1,0]],[[2668,807],[1,0]],[[2669,807]],[[2669,807],[3,-6]],[[2675,808],[-6,-1]],[[2669,807]],[[2670,568],[-1,-1]],[[2675,798],[-6,9]],[[2669,807],[9,-1]],[[2670,566],[1,1]],[[2670,842],[1,3]],[[2671,845],[0,1]],[[2694,837],[-15,2]],[[2679,839]],[[2679,839],[-8,0]],[[2671,839],[8,-1]],[[2679,838]],[[2679,838],[15,-1]],[[2672,813],[0,-1]],[[2672,815]],[[2672,815]],[[2672,815]],[[2672,807],[3,1]],[[2672,815]],[[2672,815],[3,0]],[[2675,816],[-3,-1]],[[2676,702],[-3,0],[0,-1]],[[2673,699],[1,2]],[[2674,552],[-1,1]],[[2673,705],[0,-1]],[[2673,705],[1,0]],[[2674,554],[1,0]],[[2675,815],[0,-7]],[[2675,815]],[[2675,815],[6,0]],[[2675,817],[5,1]],[[2675,808],[0,7]],[[2675,815]],[[2675,742]],[[2675,742],[4,-4]],[[2679,738],[5,-6]],[[2676,702],[14,-37]],[[2691,664],[-15,38]],[[2679,834]],[[2679,834],[1,0]],[[2679,832],[0,2]],[[2679,834],[0,4]],[[2679,838],[0,1]],[[2679,839],[0,1],[2,10]],[[2681,850],[-3,-11],[1,0]],[[2679,839],[0,-1]],[[2679,838],[0,-6]],[[2679,832],[1,-14]],[[2680,818],[-1,0]],[[2680,847],[0,-1]],[[2681,815],[1,-31],[3,-14],[-2,14],[-2,31]],[[2685,733],[-1,0]],[[2685,732],[-1,1]],[[2691,758],[-1,0]],[[2560,764],[1,-1],[1,1],[-1,1],[-1,-1]],[[2581,965],[0,1]],[[2581,966],[-1,1],[0,-2],[1,0]],[[2617,970],[1,1],[-2,1],[0,-2],[1,0]],[[2643,804],[1,1]],[[2644,805],[0,1]],[[2644,806],[-2,-1],[1,-1]],[[2643,816]],[[1511,2338],[192,-6]],[[3991,2621],[37,3]],[[2427,869],[7,2]],[[2435,864],[0,7]],[[2440,872],[-4,0]],[[2837,3609],[-22,-17]],[[2837,3609],[2,1]],[[3346,3834],[-112,37],[-203,-86],[-89,13],[25,-31],[-58,-102],[-70,-55]],[[2355,1098],[-29,-13]],[[2371,1025],[48,-49]],[[2422,974],[1,0]],[[2423,974],[-1,1]],[[2426,974],[-3,0]],[[2426,974],[1,-1]],[[2427,974],[-1,0]],[[2442,967],[-12,6]],[[2461,951],[-19,11]],[[1828,1209],[-57,1]],[[1863,1222],[-25,-10]],[[2446,814],[-18,5],[-45,-11],[-10,-8]],[[2373,800],[57,18]],[[3986,2019],[41,-8],[69,37]],[[2620,769],[-46,0]],[[2575,768],[45,1]],[[2685,770],[-24,0]],[[2661,770],[32,-18],[-18,-33],[-13,-70],[5,-71],[2,-11],[11,-5]],[[2680,563],[-17,85],[31,104],[-9,19]],[[1817,1757],[4,11]],[[1821,1768],[3,6]],[[1823,1775],[-2,-7]],[[2471,712],[-24,-14]],[[3153,2754],[53,-58]],[[3164,2882],[-9,-19]],[[2597,891],[-3,1]],[[2595,891],[2,0]],[[2597,891],[36,-16],[26,38]],[[2661,914],[-2,-1]],[[2659,913],[1,-1]],[[2677,868],[-2,-53]],[[1499,2296],[0,3]],[[451,1297],[-19,-9]],[[530,2740],[1,-7]],[[790,850],[26,-15]],[[873,775],[-29,28]],[[873,775],[-2,-7]],[[877,779],[-4,-4]],[[900,753],[-27,22]],[[881,2862],[1,1]],[[1027,103],[-27,-29]],[[1169,1143],[31,-40]],[[1172,3528],[0,3]],[[1382,1301],[5,-24],[-20,13]],[[1492,1895],[49,-6]],[[1541,1889],[4,1]],[[1545,1890],[5,0]],[[1544,1444],[-1,5]],[[1545,1890]],[[1545,1890],[5,50],[-1,2]],[[1595,1466],[6,5]],[[1823,1775],[-6,2]],[[1824,1774],[0,1]],[[2261,1564],[-19,23]],[[2242,2805],[10,2]],[[2328,189],[31,9]],[[2576,3595],[-2,1]],[[2582,3592],[-6,3]],[[2583,3586],[-1,6]],[[2600,1339],[1,-2]],[[2611,1299],[0,9]],[[2662,913],[1,0]],[[2662,914],[1,-1]],[[2663,914]],[[2663,914]],[[2663,913],[0,1]],[[2663,913],[3,-4]],[[2692,578],[-1,1]],[[2745,803],[-30,32],[-21,2]],[[2694,837],[50,-36]],[[2700,591],[1,-1]],[[2714,610],[-1,1]],[[2717,1417],[-3,-18]],[[2717,1417],[4,7]],[[2740,814]],[[2741,814],[0,-1]],[[2761,2644],[15,25]],[[2761,2644],[-1,-30],[-2,6],[3,24]],[[2776,2669],[1,1]],[[2777,2671]],[[2816,1615],[29,-31]],[[2846,1584],[-30,37]],[[2846,1584],[-1,0]],[[2845,1584],[1,0]],[[2907,1870]],[[2947,2232],[0,-7]],[[2947,2232],[-1,14]],[[2995,1049],[-3,2]],[[2995,1049],[2,-1]],[[3030,3084],[-33,-68]],[[3302,2946],[-63,116],[-133,57]],[[3165,2749],[1,-2]],[[3166,2747],[2,-1]],[[3170,2744],[-2,2]],[[3170,2744],[2,-2]],[[3172,2742],[-2,2]],[[3321,2953],[-19,-7]],[[3303,2946],[17,6]],[[860,766]],[[1823,1775],[1,0],[-1,0]],[[1823,1775]],[[2253,2807]],[[2421,974],[1,0],[0,1],[-1,0],[0,-1]],[[2428,974],[-1,-1],[1,0],[0,1]],[[2442,965],[0,-1],[1,0],[0,2],[-1,-1]],[[2645,1965],[1,-1],[0,1],[-1,0]],[[2995,1090],[1,1],[-2,1],[-1,-2],[2,0]],[[368,2827],[-202,-99],[-31,-54]],[[2449,813],[-3,1]],[[2384,230],[-11,36],[-17,-20]],[[1549,1942],[-109,158],[59,196]],[[1499,2299],[140,275],[-7,189],[-31,74]],[[882,2863],[148,-11],[75,31],[75,-42],[84,35],[303,-34]],[[2557,977],[-96,-26]],[[2562,818],[-6,-15]],[[2556,802],[6,16]],[[2557,977],[23,-11]],[[2577,981],[-20,-4]],[[2593,889],[-31,-71]],[[2581,967],[-4,14]],[[2586,939],[9,-46]],[[2593,889],[2,4]],[[2438,817],[0,-2]],[[1566,1415],[10,-13],[-9,13]],[[2620,1960],[25,7],[-2,38],[35,13]],[[2631,806]],[[1000,74],[-2,-1]],[[1027,103],[184,260],[-7,84],[41,113]],[[2497,1682],[-9,-108],[-121,-111]],[[2782,2670],[76,62]],[[2862,2738],[-4,-6]],[[2862,2738],[-24,107],[34,32],[14,150],[-30,32],[24,17]],[[2420,252],[-14,-13]],[[2595,494],[-11,-14],[11,14]],[[3713,2483],[96,60],[112,-9],[116,33]],[[2627,794],[-25,-73],[-3,-14]],[[2599,707],[-2,-10]],[[2597,699],[2,8]],[[2599,707],[3,14],[9,24]],[[2611,746],[9,23]],[[2620,769],[8,25]],[[2631,806],[-1,-6]],[[4057,2331],[39,-87]],[[2556,801],[0,1]],[[3129,3112],[-1,123],[36,89],[138,28],[59,-31]],[[3688,4096],[-86,-75],[-120,-21],[-136,-166],[54,-193],[52,-68],[-91,-253]],[[431,1288],[-146,-86],[-129,-16],[-156,26]],[[2560,764],[-45,-3],[-44,-49],[90,51]],[[2574,769],[-13,-4]],[[2561,763],[14,5]],[[2448,813],[22,-6],[87,-6]],[[2558,802],[-109,11]],[[2206,2330],[70,110]],[[0,1552],[33,-4],[158,60],[170,-200]],[[3936,3448],[1,1]],[[2016,3731],[-43,15]],[[2016,3731],[2,-3]],[[2574,3596],[-138,60],[-121,-76],[-131,92],[-113,17],[-53,39]],[[2650,3263],[-97,8],[-84,107],[9,54],[94,138]],[[3714,2486],[-51,132],[-79,-18],[-14,91],[-33,47],[-57,29],[-35,-9],[-109,92]],[[2645,809],[3,7],[-1,10],[-57,33],[54,-50]],[[2434,871],[-8,-2]],[[2438,825],[0,-8]],[[986,3745],[-179,351]],[[1189,3417],[-18,112],[-115,78],[-70,137]],[[1189,3417],[6,-31]],[[1585,2859],[-334,240],[-34,58],[-22,229]],[[700,322],[-550,-199],[-150,-84]],[[859,765],[-147,-181],[15,-57],[-25,-202]],[[890,744],[193,172],[208,322]],[[1294,1240],[256,189]],[[1596,1470],[154,131]],[[1933,2710],[128,75],[154,-12],[27,32]],[[2261,2827],[29,96],[65,7],[42,84],[45,28],[6,47],[73,30],[-31,41],[65,73],[-2,38]],[[3321,2940],[0,-1]],[[1938,535],[-101,-114],[-26,1],[-51,-11]],[[1760,411]],[[1760,411],[-1,-1],[-3,-112],[-15,-33],[-39,-139]],[[1702,126],[-1,-1],[-40,-21]],[[1661,104],[-11,-6],[6,-98]],[[1656,0],[-6,98],[11,6]],[[1661,104],[41,22]],[[1702,126],[1,1],[53,170],[3,96],[0,8],[1,4],[0,4],[0,2]],[[1760,411]],[[1760,411],[52,10],[25,0],[101,114]],[[2433,878],[-12,309],[12,-309]],[[2907,1870],[16,-91],[-33,-95],[34,95],[-17,91]],[[2972,1964],[-52,-74],[-6,-10],[58,84]],[[3937,3449],[-40,-40],[-27,-22],[-10,-11],[-69,-30],[-20,-14]],[[3771,3332],[-29,-20]],[[3742,3312],[-20,-13],[-31,-90],[-87,-72]],[[3604,3137],[0,-1],[-86,22]],[[3518,3158],[-4,1],[-55,-17],[-15,-18]],[[3444,3124],[-70,-85],[-48,-78],[94,154],[24,9]],[[3444,3124],[57,22],[1,2],[16,10]],[[3518,3158],[6,4],[80,-25]],[[3604,3137],[1,-1],[86,72],[51,104]],[[3742,3312],[6,14],[23,6]],[[3771,3332],[26,8],[63,36],[37,32],[39,40]],[[4096,3535]],[[2972,2096],[24,48],[-1,0],[-23,-48]],[[3219,2720],[39,72],[-38,-70],[-1,-2]],[[896,798],[-19,-19]],[[1550,1890],[180,-53],[5,-27],[88,-35]],[[1840,1776],[-16,-2]],[[2601,1337],[68,-106],[97,-31],[53,30],[37,-15],[136,-164]],[[1427,1716],[17,124],[48,55]],[[2556,803],[0,-2],[1,-3],[5,-15],[17,-20],[4,-29],[12,-36],[14,-14]],[[2610,684],[-23,69],[-31,48]],[[2593,635],[-13,-22],[70,-44]],[[2664,579],[-76,30],[6,25]],[[2649,567],[-54,-73]],[[2595,494],[42,53],[13,21]],[[2599,664],[-2,-16]],[[2597,648],[12,36]],[[2608,685],[-1,-3]],[[2650,569],[4,3],[3,7]],[[461,1310],[-100,98]],[[461,1310],[24,-10]],[[485,1300],[8,-6]],[[493,1294],[22,-28]],[[864,763],[-80,95],[-71,158],[-198,250]],[[864,763],[2,-1]],[[1754,403],[-29,23],[-317,35],[-153,99],[-186,51],[-203,151]],[[2158,0],[-32,97],[-52,57],[7,29],[-33,28],[-8,91],[-174,149]],[[2384,211],[20,23]],[[2611,745],[0,1]],[[2620,769]],[[986,3744],[0,1]],[[1595,2852],[-10,7]],[[2737,1537],[-69,4],[-165,151],[-58,104],[-78,60],[-28,81],[-84,61],[13,216],[-112,157],[-59,20],[-74,193],[-86,123],[-256,138]],[[816,835],[28,-32]],[[871,768],[-6,-6]],[[2597,604],[-44,-24],[-7,-15],[52,39]],[[985,3744],[-122,-46],[-63,-173],[-247,-23],[-40,-52],[-119,-16]],[[3816,4096],[-34,-85],[-19,-217]],[[3763,3794],[1,-10]],[[3765,3784],[-2,10]],[[1992,4016],[78,78],[0,2]],[[2611,1308],[103,91]],[[2669,1979],[32,1]],[[2669,1979],[-8,2]],[[2406,239],[2,-1]],[[2697,637],[4,-13]],[[2701,624],[-3,14]],[[2744,801],[1,2]],[[2683,567],[33,48]],[[2661,917],[-9,32]],[[2610,746],[1,-1]],[[2611,745],[31,-10]],[[1537,1470],[59,0]],[[0,3227],[55,59],[148,84],[18,71]],[[4096,1868],[-41,-8],[-16,-10],[-28,-41],[-15,-10],[-41,-12],[-459,-289],[-392,-297],[-145,-188],[-31,-86],[-45,-62],[-147,-146],[-30,-40],[-14,-45],[-3,-62],[-14,-42],[-215,-343],[-41,-32],[-27,13],[1,29],[13,33],[3,27],[-14,19],[-17,5],[-15,8],[-14,28],[-22,0],[-17,-42],[-28,34],[-43,91],[-20,12],[-121,52],[-29,6],[-9,13],[-20,-3],[-20,-19],[-9,-31],[6,-25],[16,-34],[19,-33],[17,-21],[20,-5],[20,6],[23,4],[27,-15],[24,-19],[23,-14],[44,-17],[0,-21],[-52,21],[-19,-15],[11,-28],[38,-18],[27,5],[12,17],[8,16],[15,2],[29,-13],[20,-17],[5,-22],[-17,-29],[19,-30],[-2,-101],[12,-24],[-2356,0],[0,4096],[4096,0],[0,-2228]],[[1636,4096],[93,0],[88,-42],[-86,-125],[-157,68],[62,99]],[[2655,908],[45,-83],[81,-62],[-75,-84],[-31,-149],[-55,-87],[-36,75],[-61,-35],[-40,13],[-1,79],[41,40],[-143,157],[-18,73],[32,33],[65,0],[3,116],[123,46],[71,3],[62,-33],[-10,-62],[-53,-40]],[[3269,1326],[136,142],[275,166],[268,207],[39,-52],[109,41],[-362,-226],[-172,-76],[-293,-202]],[[1685,1032],[94,164],[-23,38],[-44,11],[18,34],[-37,5],[6,46],[26,-8],[8,45],[29,-16],[18,35],[132,-63],[-52,-106],[-32,-7],[0,-38],[76,-7],[62,-60],[6,50],[38,-17],[-4,-63],[-54,-22],[-39,14],[22,29],[-51,49],[14,-44],[-49,-11],[22,-43],[-80,19],[-37,-30],[-69,-4]]]}