{"objects":{"water":{"type":"GeometryCollection","geometries":[{"type":"Polygon","properties":{"source":"naturalearthdata.com","kind":"ocean","area":1576712559132672,"sort_rank":200,"min_zoom":0.0,"id":1},"arcs":[[10]]},{"type":"LineString","properties":{"source":"naturalearthdata.com","kind":"ocean","sort_rank":205,"boundary":true,"min_zoom":0.0,"id":75},"arcs":[11]}]},"buildings":{"type":"GeometryCollection","geometries":[]},"places":{"type":"GeometryCollection","geometries":[{"type":"Point","properties":{"source":"openstreetmap.org","kind":"locality","name":"Est\u00e2ncia","kind_detail":"town","population":67491,"min_zoom":8.0,"id":415521881},"coordinates":[1546,3829]},{"type":"Point","properties":{"source":"openstreetmap.org","kind":"locality","name":"Rio Real","kind_detail":"town","population":40203,"min_zoom":8.0,"id":415521828},"coordinates":[108,3178]},{"type":"Point","properties":{"source":"openstreetmap.org","kind":"locality","name":"Itabaianinha","kind_detail":"town","population":38565,"min_zoom":8.0,"id":415521819},"coordinates":[530,3805]},{"type":"Point","properties":{"source":"openstreetmap.org","kind":"locality","name":"Esplanada","kind_detail":"town","population":32593,"min_zoom":8.0,"id":415521793},"coordinates":[68,2244]},{"type":"Point","properties":{"source":"openstreetmap.org","kind":"locality","name":"Conde","kind_detail":"town","population":22929,"min_zoom":8.0,"id":415521889},"coordinates":[1034,2207]},{"type":"Point","properties":{"source":"openstreetmap.org","kind":"locality","name":"Umba\u00faba","kind_detail":"town","population":21195,"min_zoom":8.0,"id":415521890},"coordinates":[909,3488]},{"type":"Point","properties":{"source":"openstreetmap.org","kind":"locality","name":"Indiaroba","kind_detail":"town","population":17677,"min_zoom":8.0,"id":415521891},"coordinates":[1343,3064]},{"type":"Point","properties":{"source":"openstreetmap.org","kind":"locality","name":"Cristin\u00e1polis","kind_detail":"town","population":16365,"min_zoom":8.0,"id":415521822},"coordinates":[620,3212]},{"type":"Point","properties":{"source":"openstreetmap.org","kind":"locality","name":"Santa Luzia do Itanhy","kind_detail":"town","population":13430,"min_zoom":8.0,"id":415521880},"coordinates":[1515,3579]},{"type":"Point","properties":{"source":"openstreetmap.org","kind":"locality","name":"Tomar do Geru","kind_detail":"town","population":13252,"min_zoom":8.0,"id":415521824},"coordinates":[371,3510]},{"type":"Point","properties":{"source":"openstreetmap.org","kind":"locality","name":"Arau\u00e1","kind_detail":"town","population":11980,"min_zoom":8.0,"id":415521892},"coordinates":[1021,3840]},{"type":"Point","properties":{"source":"openstreetmap.org","kind":"locality","name":"Janda\u00edra","kind_detail":"town","population":10997,"min_zoom":8.0,"id":415521791},"coordinates":[544,2952]}]},"transit":{"type":"GeometryCollection","geometries":[{"type":"MultiLineString","properties":{"kind":"train","name":"Rodovia Governador M\u00e1rio Covas","sort_rank":275,"source":"openstreetmap.org","min_zoom":6.0,"ref":"BR-101","osm_relation":true,"network":"BR"},"arcs":[[5],[6],[7],[8],[9]]}]},"pois":{"type":"GeometryCollection","geometries":[]},"boundaries":{"type":"GeometryCollection","geometries":[{"type":"LineString","properties":{"name:kg":"Brazil","name:ty":"Brazil","name:ka":"\u10d1\u10e0\u10d0\u10d6\u10d8\u10da\u10d8\u10d0","name:ko":"\ube0c\ub77c\uc9c8","name:cv":"\u0411\u0440\u0430\u0437\u0438\u043b\u0438","name:cu":"\u0411\u0440\u0430\ua641\u0457\u043b\u0457\ua657","name:kl":"Brazil","name:cs":"Braz\u00edlie","name:ki":"Brazil","name:co":"Brasile","name:kv":"\u0411\u0440\u0430\u0437\u0438\u043b\u0438\u044f","name:ku":"Braz\u00eel","name:ce":"\u0411\u0440\u0430\u0437\u0438\u043b\u0438\u044f","name:ta":"\u0baa\u0bbf\u0bb0\u0bc7\u0b9a\u0bbf\u0bb2\u0bcd","name:tg":"\u0411\u0440\u0430\u0437\u0438\u043b\u0438\u044f","name:ky":"\u0411\u0440\u0430\u0437\u0438\u043b\u0438\u044f","name:te":"\u0c2c\u0c4d\u0c30\u0c46\u0c1c\u0c3f\u0c32\u0c4d","name:da":"Brasilien","name:de":"Brasilien","name:dz":"\u0f56\u0f71\u0f62\u0f71\u0f0b\u0f5b\u0f72\u0f63\u0f0b","source":"openstreetmap.org","name:kn":"\u0cac\u0ccd\u0cb0\u0cc6\u0c9c\u0cbf\u0cb2\u0ccd","name:dv":"\u0784\u07aa\u0783\u07ac\u0792\u07a8\u078d\u07b0","name:km":"\u1794\u17d2\u179a\u17c1\u179f\u17ca\u17b8\u179b","name:lv":"Braz\u012blija","name:lt":"Brazilija","name:uz":"Braziliya","name:kk":"\u0411\u0440\u0430\u0437\u0438\u043b\u0438\u044f","name:ur":"\u0628\u0631\u0627\u0632\u06cc\u0644","name:lb":"Brasilien","name:la":"Brasilia","name:tt":"\u0411\u0440\u0430\u0437\u0438\u043b\u0438\u044f","name:uk":"\u0411\u0440\u0430\u0437\u0438\u043b\u0456\u044f","name:ug":"\u0628\u0631\u0627\u0632\u0649\u0644\u0649\u064a\u06d5","name:li":"Braziel","name:ln":"Brazil","name:el":"\u0392\u03c1\u03b1\u03b6\u03b9\u03bb\u03af\u03b1","name:eo":"Brazilo","name:en":"Brazil","name":"Brasil","name:tk":"Brazili\u00fda","name:ee":"Brazil","name:th":"\u0e1b\u0e23\u0e30\u0e40\u0e17\u0e28\u0e1a\u0e23\u0e32\u0e0b\u0e34\u0e25","name:et":"Brasiilia","name:ay":"Wrasil","name:rm":"Brasilia","name:rn":"Brazil","name:az":"Braziliya","name:ig":"Brazil","name:as":"\u09ac\u09cd\u09f0\u09be\u099c\u09bf\u09b2","name:zh-min-nan":"Pa-se","name:io":"Brazilia","name:is":"Brasil\u00eda","name:am":"\u1265\u122b\u12da\u120d","name:it":"Brasile","name:ru":"\u0411\u0440\u0430\u0437\u0438\u043b\u0438\u044f","name:rw":"Burezile","name:af":"Brasili\u00eb","name:zu":"IBrazili","kind_detail":"2","name:za":"Bahsih","name:zh-yue":"\u5df4\u897f","name:zh":"\u5df4\u897f","name:so":"Barasiil","name:sl":"Brazilija","name:sk":"Braz\u00edlia","name:ja":"\u30d6\u30e9\u30b8\u30eb","name:sh":"Brazil","name:se":"Brasilia","name:sc":"Brasile","name:br":"Brazil","name:bs":"Brazil","name:bm":"Brazil","name:bn":"\u09ac\u09cd\u09b0\u09be\u099c\u09bf\u09b2","name:bo":"\u0f54\u0f74\u0f0b\u0f62\u0f74\u0f0b\u0f5f\u0f72\u0f63\u0f0d","name:bi":"Brazil","name:sw":"Brazil","name:be":"\u0411\u0440\u0430\u0437\u0456\u043b\u0456\u044f","name:bg":"\u0411\u0440\u0430\u0437\u0438\u043b\u0438\u044f","name:ba":"\u0411\u0440\u0430\u0437\u0438\u043b\u0438\u044f","name:sq":"Brazili","name:sa":"\u092c\u094d\u0930\u093e\u0938\u0940\u0932","name:ps":"\u0628\u0631\u0627\u0632\u06cc\u0644","min_zoom":8.0,"name:ro":"Brazilia","name:pa":"\u0a2c\u0a4d\u0a30\u0a3e\u0a1c\u0a3c\u0a40\u0a32","name:os":"\u0411\u0440\u0430\u0437\u0438\u043b\u0438","name:or":"\u0b2c\u0b4d\u0b30\u0b3e\u0b1c\u0b3f\u0b32","name:pl":"Brazylia","name:st":"Brazil","sort_rank":262,"name:sr":"\u0411\u0440\u0430\u0437\u0438\u043b","osm_relation":true,"name:ar":"\u0627\u0644\u0628\u0631\u0627\u0632\u064a\u0644","name:tr":"Brezilya","name:hi":"\u092c\u094d\u0930\u093e\u091c\u093c\u0940\u0932","name:sv":"Brasilien","name:he":"\u05d1\u05e8\u05d6\u05d9\u05dc","name:hy":"\u0532\u0580\u0561\u0566\u056b\u056c\u056b\u0561","name:ht":"Brezil","name:hu":"Braz\u00edlia","name:hr":"Brazil","kind":"country","name:yi":"\u05d1\u05e8\u05d0\u05d6\u05d9\u05dc","name:mt":"Bra\u017cil","name:ms":"Brazil","name:mr":"\u092c\u094d\u0930\u093e\u091d\u0940\u0932","name:my":"\u1018\u101b\u102c\u1007\u102e\u1038\u1014\u102d\u102f\u1004\u103a\u1004\u1036","official_name":"Rep\u00fablica Federativa do Brasil","name:mg":"Brazila","name:ml":"\u0d2c\u0d4d\u0d30\u0d38\u0d40\u0d7d","name:mn":"\u0411\u0440\u0430\u0437\u0438\u043b","name:mi":"Par\u012bhi","id":-59470,"name:mk":"\u0411\u0440\u0430\u0437\u0438\u043b","name:vo":"Brasil\u00e4n","name:fa":"\u0628\u0631\u0632\u06cc\u0644","name:fi":"Brasilia","old_name:vi":"Ba T\u00e2y","alt_name:vi":"Brazil;Bra-xin","name:fr":"Br\u00e9sil","name:fy":"Brazylje","name:nl":"Brazili\u00eb","name:na":"Bradir","name:ne":"\u092c\u094d\u0930\u093e\u091c\u093f\u0932","name:wa":"Braezi","name:wo":"Breesil","name:nv":"Bwaz\u00ed\u00edl","name:ga":"An Bhrasa\u00edl","name:gd":"Braisil","name:gn":"Pindorama","maritime_boundary":true,"name:gv":"Yn Vrasseel","name:gu":"\u0aac\u0acd\u0ab0\u0abe\u0a9d\u0abf\u0ab2"},"arcs":[0]},{"type":"LineString","properties":{"name:right:hy":"\u054d\u0565\u0580\u056a\u056b\u057a\u056b","name:left:hi":"\u092c\u093e\u0939\u093f\u092f\u093e","name:right:uk":"\u0421\u0435\u0440\u0436\u0438\u043f\u0456","name:left:he":"\u05d1\u05d0\u05d4\u05d9\u05d4","name:left:sr":"\u0411\u0430\u0438\u0458\u0430","name:right:lt":"Ser\u017eip\u0117","name:right:hi":"\u0938\u0930\u094d\u091c\u093f\u092a\u0947","name:right:lv":"Ser\u017eipi","name:left:lt":"Bahija","name:left:hy":"\u0532\u0561\u056b\u0561","name:left:lv":"Baija","name:right:uz":"Serjipi","name:right:he":"\u05e1\u05e8\u05d6'\u05d9\u05e4\u05d4","name:right:la":"Seregipe","name:right:os":"\u0421\u0435\u0440\u0436\u0438\u043f\u0438","short_name:left":"BA","sort_rank":256,"name:left:gl":"Ba\u00eda","source":"openstreetmap.org","name:right:ar":"\u0633\u064a\u0631\u062c\u064a\u0628\u064a","name:left":"Bahia","name:right:mk":"\u0421\u0435\u0440\u0433\u0438\u043f\u0435","name:left:ja":"\u30d0\u30a4\u30fc\u30a2","name:left:ka":"\u10d1\u10d0\u10d8\u10d0","name:left:os":"\u0411\u0430\u0438\u044f","name:right:ru":"\u0421\u0435\u0440\u0436\u0438\u043f\u0438","name:left:ru":"\u0411\u0430\u0438\u044f","name:right:mr":"\u0938\u0930\u094d\u091c\u093f\u092a\u0947","name:right:eo":"Ser\u011dipo","kind":"region","name":"Bahia - Sergipe","name:left:fa":"\u0628\u0627\u0647\u06cc\u0627","min_zoom":8.0,"name:right:be":"\u0421\u0435\u0440\u0436\u044b\u043f\u0456","name:left:zh":"\u5df4\u4f0a\u4e9a","name:right:zh":"\u585e\u5c14\u5e0c\u57f9","name:left:uz":"Baiya","name:right:ja":"\u30bb\u30eb\u30b8\u30c3\u30da","name:right:sr":"\u0421\u0435\u0440\u0436\u0438\u043f\u0435","id:right":-303940,"name:left:uk":"\u0411\u0430\u0457\u044f","name:right:sh":"Ser\u017eipi","name:left:be":"\u0411\u0430\u0456\u044f","name:left:bg":"\u0411\u0430\u0438\u044f","name:right:fa":"\u0633\u0631\u0698\u06cc\u067e\u0647","id":-362413,"name:right":"Sergipe","name:left:eo":"Bahio","kind_detail":"4","id:left":-362413,"name:left:es":"Bah\u00eda","name:left:ko":"\ubc14\uc774\uc544","name:right:ka":"\u10e1\u10d4\u10e0\u10df\u10d8\u10de\u10d8","name:left:ar":"\u0628\u0627\u0647\u064a\u0627","name:left:mk":"\u0411\u0430\u0458\u0430","name:right:ko":"\uc138\ub974\uc9c0\ud53c","name:right:bg":"\u0421\u0435\u0440\u0436\u0438\u043f\u0438","name:left:th":"\u0e1a\u0e32\u0e40\u0e22\u0e35\u0e22","name:left:mr":"\u092c\u093e\u0908\u092f\u093e","name:right:th":"\u0e40\u0e0b\u0e23\u0e4c\u0e0a\u0e34\u0e40\u0e1b","short_name:right":"SE","name:right:tg":"\u0421\u0435\u0440\u0436\u0438\u043f\u0438","osm_relation":true,"name:left:tg":"\u0411\u0430\u0438\u044f"},"arcs":[1]},{"type":"LineString","properties":{"name:right:hy":"\u054d\u0565\u0580\u056a\u056b\u057a\u056b","name:left:hi":"\u092c\u093e\u0939\u093f\u092f\u093e","name:right:uk":"\u0421\u0435\u0440\u0436\u0438\u043f\u0456","name:left:he":"\u05d1\u05d0\u05d4\u05d9\u05d4","name:left:sr":"\u0411\u0430\u0438\u0458\u0430","name:right:lt":"Ser\u017eip\u0117","name:right:hi":"\u0938\u0930\u094d\u091c\u093f\u092a\u0947","name:right:lv":"Ser\u017eipi","name:left:lt":"Bahija","name:left:hy":"\u0532\u0561\u056b\u0561","name:left:lv":"Baija","name:right:uz":"Serjipi","name:right:he":"\u05e1\u05e8\u05d6'\u05d9\u05e4\u05d4","name:right:la":"Seregipe","short_name:left":"BA","sort_rank":256,"name:left:gl":"Ba\u00eda","source":"openstreetmap.org","name:right:ar":"\u0633\u064a\u0631\u062c\u064a\u0628\u064a","name:left":"Bahia","name:right:mk":"\u0421\u0435\u0440\u0433\u0438\u043f\u0435","name:right:sr":"\u0421\u0435\u0440\u0436\u0438\u043f\u0435","name:left:ka":"\u10d1\u10d0\u10d8\u10d0","name:left:os":"\u0411\u0430\u0438\u044f","name:right:ru":"\u0421\u0435\u0440\u0436\u0438\u043f\u0438","name:left:ru":"\u0411\u0430\u0438\u044f","name:right:mr":"\u0938\u0930\u094d\u091c\u093f\u092a\u0947","name:right:eo":"Ser\u011dipo","kind":"region","name":"Bahia - Sergipe","name:left:fa":"\u0628\u0627\u0647\u06cc\u0627","name:right:fa":"\u0633\u0631\u0698\u06cc\u067e\u0647","min_zoom":8.0,"osm_relation":true,"name:right:be":"\u0421\u0435\u0440\u0436\u044b\u043f\u0456","name:left:zh":"\u5df4\u4f0a\u4e9a","name:right:zh":"\u585e\u5c14\u5e0c\u57f9","name:left:uz":"Baiya","name:right:ja":"\u30bb\u30eb\u30b8\u30c3\u30da","name:left:ja":"\u30d0\u30a4\u30fc\u30a2","id:right":-303940,"name:left:uk":"\u0411\u0430\u0457\u044f","name:right:sh":"Ser\u017eipi","name:left:bg":"\u0411\u0430\u0438\u044f","name:left:be":"\u0411\u0430\u0456\u044f","id":-362413,"name:right":"Sergipe","name:left:eo":"Bahio","kind_detail":"4","id:left":-362413,"name:left:es":"Bah\u00eda","name:left:ko":"\ubc14\uc774\uc544","name:right:ka":"\u10e1\u10d4\u10e0\u10df\u10d8\u10de\u10d8","name:left:ar":"\u0628\u0627\u0647\u064a\u0627","name:left:mk":"\u0411\u0430\u0458\u0430","name:right:ko":"\uc138\ub974\uc9c0\ud53c","name:right:bg":"\u0421\u0435\u0440\u0436\u0438\u043f\u0438","name:left:th":"\u0e1a\u0e32\u0e40\u0e22\u0e35\u0e22","name:left:mr":"\u092c\u093e\u0908\u092f\u093e","name:right:th":"\u0e40\u0e0b\u0e23\u0e4c\u0e0a\u0e34\u0e40\u0e1b","short_name:right":"SE","name:right:tg":"\u0421\u0435\u0440\u0436\u0438\u043f\u0438","name:right:os":"\u0421\u0435\u0440\u0436\u0438\u043f\u0438","name:left:tg":"\u0411\u0430\u0438\u044f","maritime_boundary":true},"arcs":[2]},{"type":"LineString","properties":{"name:ka":"\u10d1\u10d0\u10d8\u10d0","name:mr":"\u092c\u093e\u0908\u092f\u093e","name:ko":"\ubc14\uc774\uc544","name:ar":"\u0628\u0627\u0647\u064a\u0627","name:th":"\u0e1a\u0e32\u0e40\u0e22\u0e35\u0e22","name:os":"\u0411\u0430\u0438\u044f","name:ru":"\u0411\u0430\u0438\u044f","name:tg":"\u0411\u0430\u0438\u044f","name:mk":"\u0411\u0430\u0458\u0430","name:fa":"\u0628\u0627\u0647\u06cc\u0627","short_name":"BA","sort_rank":256,"kind_detail":"4","name:uz":"Baiya","id":-362413,"source":"openstreetmap.org","name:zh":"\u5df4\u4f0a\u4e9a","name:lv":"Baija","name:ja":"\u30d0\u30a4\u30fc\u30a2","name:lt":"Bahija","name:hi":"\u092c\u093e\u0939\u093f\u092f\u093e","name:he":"\u05d1\u05d0\u05d4\u05d9\u05d4","name:eo":"Bahio","name:uk":"\u0411\u0430\u0457\u044f","name:hy":"\u0532\u0561\u056b\u0561","name:be":"\u0411\u0430\u0456\u044f","name:bg":"\u0411\u0430\u0438\u044f","name:sr":"\u0411\u0430\u0438\u0458\u0430","osm_relation":true,"kind":"region","name":"Bahia","min_zoom":8.0,"name:gl":"Ba\u00eda","maritime_boundary":true,"name:es":"Bah\u00eda"},"arcs":[3]},{"type":"LineString","properties":{"name:ka":"\u10e1\u10d4\u10e0\u10df\u10d8\u10de\u10d8","name:mr":"\u0938\u0930\u094d\u091c\u093f\u092a\u0947","name:ko":"\uc138\ub974\uc9c0\ud53c","name:ar":"\u0633\u064a\u0631\u062c\u064a\u0628\u064a","name:th":"\u0e40\u0e0b\u0e23\u0e4c\u0e0a\u0e34\u0e40\u0e1b","name:os":"\u0421\u0435\u0440\u0436\u0438\u043f\u0438","name:ru":"\u0421\u0435\u0440\u0436\u0438\u043f\u0438","name:uz":"Serjipi","name:tg":"\u0421\u0435\u0440\u0436\u0438\u043f\u0438","name:mk":"\u0421\u0435\u0440\u0433\u0438\u043f\u0435","name:fa":"\u0633\u0631\u0698\u06cc\u067e\u0647","short_name":"SE","sort_rank":256,"kind_detail":"4","name:hi":"\u0938\u0930\u094d\u091c\u093f\u092a\u0947","id":-303940,"source":"openstreetmap.org","name:zh":"\u585e\u5c14\u5e0c\u57f9","name:lv":"Ser\u017eipi","name:ja":"\u30bb\u30eb\u30b8\u30c3\u30da","name:lt":"Ser\u017eip\u0117","name:sh":"Ser\u017eipi","name:he":"\u05e1\u05e8\u05d6'\u05d9\u05e4\u05d4","name:eo":"Ser\u011dipo","name:la":"Seregipe","name:uk":"\u0421\u0435\u0440\u0436\u0438\u043f\u0456","name:hy":"\u054d\u0565\u0580\u056a\u056b\u057a\u056b","name:be":"\u0421\u0435\u0440\u0436\u044b\u043f\u0456","name:bg":"\u0421\u0435\u0440\u0436\u0438\u043f\u0438","name:sr":"\u0421\u0435\u0440\u0436\u0438\u043f\u0435","osm_relation":true,"kind":"region","name":"Sergipe","min_zoom":8.0,"maritime_boundary":true},"arcs":[4]}]},"roads":{"type":"GeometryCollection","geometries":[{"type":"MultiLineString","properties":{"source":"openstreetmap.org","kind":"major_road","sort_rank":380,"kind_detail":"primary","ref":"BA-506","min_zoom":8.0},"arcs":[[12],[13]]},{"type":"MultiLineString","properties":{"source":"openstreetmap.org","kind":"major_road","sort_rank":381,"kind_detail":"trunk","ref":"BR-101","min_zoom":8.0},"arcs":[[14],[15],[16],[17],[18]]},{"type":"MultiLineString","properties":{"source":"openstreetmap.org","kind":"major_road","sort_rank":380,"kind_detail":"primary","ref":"BA-233","min_zoom":8.0},"arcs":[[19],[20],[21],[22]]},{"type":"LineString","properties":{"source":"openstreetmap.org","kind":"major_road","sort_rank":380,"kind_detail":"primary","ref":"SE-282","min_zoom":8.0},"arcs":[23]},{"type":"LineString","properties":{"kind":"major_road","network":"SE","sort_rank":380,"kind_detail":"primary","source":"openstreetmap.org","min_zoom":8.0,"shield_text":"270","ref":"SE-270","id":101447409},"arcs":[24]},{"type":"LineString","properties":{"source":"openstreetmap.org","kind":"ferry","sort_rank":355,"is_bicycle_related":true,"min_zoom":8.0,"id":362836378},"arcs":[25]},{"type":"LineString","properties":{"source":"openstreetmap.org","kind":"major_road","sort_rank":380,"kind_detail":"primary","ref":"BA-400","min_zoom":8.0},"arcs":[26]},{"type":"LineString","properties":{"source":"openstreetmap.org","kind":"major_road","sort_rank":380,"kind_detail":"primary","ref":"SE-383","min_zoom":8.0,"id":330580380},"arcs":[27]},{"type":"MultiLineString","properties":{"kind":"major_road","network":null,"sort_rank":380,"kind_detail":"primary","source":"openstreetmap.org","min_zoom":8.0,"shield_text":"290","ref":"SE-290"},"arcs":[[28],[29],[30],[31]]},{"type":"MultiLineString","properties":{"kind":"major_road","network":"SE","sort_rank":380,"kind_detail":"primary","source":"openstreetmap.org","min_zoom":8.0,"shield_text":"100","ref":"SE-100"},"arcs":[[32],[33],[34]]},{"type":"LineString","properties":{"kind":"major_road","network":null,"sort_rank":380,"kind_detail":"primary","source":"openstreetmap.org","min_zoom":8.0,"shield_text":"290","id":395139321},"arcs":[35]},{"type":"LineString","properties":{"source":"openstreetmap.org","kind":"major_road","sort_rank":380,"kind_detail":"primary","ref":"BA-340","min_zoom":8.0},"arcs":[36]},{"type":"MultiLineString","properties":{"sort_rank":380,"kind_detail":"primary","min_zoom":8.0,"kind":"major_road","source":"openstreetmap.org"},"arcs":[[37],[38],[39],[40],[41],[42],[43],[44],[45],[46],[47],[48],[49],[50],[51],[52],[53],[54],[55],[56],[57],[58],[59],[60],[61],[62],[63],[64],[65],[66],[67],[68],[69],[70],[71],[72],[73],[74]]},{"type":"LineString","properties":{"kind":"major_road","network":"SE","sort_rank":380,"kind_detail":"primary","source":"openstreetmap.org","min_zoom":8.0,"shield_text":"285","ref":"SE-285","id":31533983},"arcs":[75]},{"type":"LineString","properties":{"source":"openstreetmap.org","kind":"major_road","sort_rank":380,"kind_detail":"primary","ref":"BA-440","min_zoom":8.0},"arcs":[76]},{"type":"LineString","properties":{"source":"openstreetmap.org","kind":"highway","sort_rank":383,"kind_detail":"motorway","ref":"BR-101","min_zoom":8.0},"arcs":[77]},{"type":"MultiLineString","properties":{"source":"openstreetmap.org","kind":"major_road","sort_rank":380,"kind_detail":"primary","ref":"BA-396","min_zoom":8.0},"arcs":[[78],[79],[80]]},{"type":"LineString","properties":{"kind":"major_road","network":"BR-BA-roads","sort_rank":380,"kind_detail":"primary","source":"openstreetmap.org","min_zoom":8.0,"shield_text":"099","ref":"BA-099"},"arcs":[81]},{"type":"LineString","properties":{"kind":"major_road","network":"SE","sort_rank":380,"kind_detail":"primary","source":"openstreetmap.org","min_zoom":8.0,"shield_text":"295","ref":"SE-295","id":31533717},"arcs":[82]},{"type":"MultiLineString","properties":{"kind":"major_road","network":"SE","sort_rank":380,"kind_detail":"primary","source":"openstreetmap.org","min_zoom":8.0,"shield_text":"368","ref":"SE-368"},"arcs":[[83],[84]]},{"type":"MultiLineString","properties":{"source":"openstreetmap.org","kind":"major_road","sort_rank":380,"kind_detail":"primary","ref":"SE-100","min_zoom":8.0},"arcs":[[85],[86]]}]},"earth":{"type":"GeometryCollection","geometries":[{"type":"MultiPolygon","properties":{"sort_rank":10,"source":"naturalearthdata.com","min_zoom":0.0,"kind":"earth","area":42037596093},"arcs":[[[87]]]}]},"landuse":{"type":"GeometryCollection","geometries":[]}},"type":"Topology","transform":{"translate":[-37.96875,-12.5545635286],"scale":[0.0003433228,0.000335977]},"arcs":[[[621,0],[235,385],[212,247],[513,897],[364,762],[56,197],[146,292],[263,350],[81,269],[54,89],[291,258],[156,350]],[[1702,3226],[-197,-146],[-151,-13],[-47,-73],[-109,-8],[-31,34],[-30,-36],[-21,29],[14,32],[-98,-22],[-50,60],[-34,-17],[-23,23],[-6,-33],[-34,-15],[-24,-105],[-78,19],[12,49],[-19,16],[-27,-38],[-45,-2],[-10,46],[-56,-2],[-23,40],[-36,-20],[-123,45],[-20,48],[30,11],[-162,90],[3,40],[45,30],[-94,29],[37,21],[-43,5],[-49,-41],[-20,91],[-64,19],[-48,-68],[-33,50],[8,37],[-31,-23],[-6,32],[-9,0]],[[2272,2940],[-448,366],[-61,-9],[-61,-71]],[[621,0],[235,385],[212,247],[513,897],[364,762],[56,197],[146,292],[125,160]],[[2272,2940],[138,190],[81,269],[54,89],[291,258],[156,350]],[[1504,3779],[-105,-56],[-86,-15],[-32,-33],[-49,24],[-84,-64],[-113,-26],[-34,-76],[-53,5],[-252,-198],[-19,-87],[-108,-74],[-84,-104],[-75,-44],[-99,-15],[-120,-459],[-108,-147],[-59,-196],[-24,-15]],[[1504,3779],[5,5]],[[1566,3911],[-57,-127]],[[1566,3911],[41,69],[49,116]],[[1656,4096],[-51,-119],[-27,-42],[-11,-18],[-1,-6]],[[0,95],[103,141],[181,277],[246,350],[201,382],[184,258],[67,162],[80,135],[170,433],[67,84],[27,46],[13,110],[216,460],[194,284],[22,56],[-47,-16],[-38,-42],[-35,-49],[-39,-37],[-51,-23],[-61,-20],[-61,-7],[-50,11],[84,27],[92,43],[74,67],[30,98],[-17,25],[-122,47],[-30,29],[-19,35],[-29,98],[29,-30],[25,-5],[18,18],[6,40],[21,-112],[20,-49],[41,-4],[21,32],[36,151],[47,83],[24,32],[31,29],[25,10],[26,2],[20,7],[8,29],[-7,23],[-15,15],[-15,20],[-2,35],[62,-41],[19,-20],[-2,60],[-82,135],[11,60],[22,-19],[37,-54],[54,-101],[18,0],[-11,34],[-1,34],[12,74],[32,-40],[7,-85],[40,-37],[-54,-15],[-13,-12],[-30,-34],[-121,-100],[-33,-37],[-11,-27],[-18,-78],[-18,-34],[-82,-111],[53,-6],[0,-23],[-16,-28],[5,-24],[39,-8],[130,27],[41,42],[88,266],[47,96],[15,22],[23,16],[33,15],[29,19],[13,23],[27,70],[65,42],[78,35],[68,48],[-18,19],[0,-19],[-13,27],[1740,0],[0,-4096],[-4096,0],[0,95]],[[2356,4096],[13,-27],[0,19],[18,-19],[-68,-48],[-78,-35],[-65,-42],[-27,-70],[-13,-23],[-29,-19],[-33,-15],[-23,-16],[-15,-22],[-47,-96],[-88,-266],[-41,-42],[-130,-27],[-39,8],[-5,24],[16,28],[0,23],[-53,6],[82,111],[18,34],[18,78],[11,27],[33,37],[121,100],[30,34],[13,12],[54,15],[-40,37],[-7,85],[-32,40],[-12,-74],[1,-34],[11,-34],[-18,0],[-54,101],[-37,54],[-22,19],[-11,-60],[82,-135],[2,-60],[-19,20],[-62,41],[2,-35],[15,-20],[15,-15],[7,-23],[-8,-29],[-20,-7],[-26,-2],[-25,-10],[-31,-29],[-24,-32],[-47,-83],[-36,-151],[-21,-32],[-41,4],[-20,49],[-21,112],[-6,-40],[-18,-18],[-25,5],[-29,30],[29,-98],[19,-35],[30,-29],[122,-47],[17,-25],[-30,-98],[-74,-67],[-92,-43],[-84,-27],[50,-11],[61,7],[61,20],[51,23],[39,37],[35,49],[38,42],[47,16],[-22,-56],[-194,-284],[-216,-460],[-13,-110],[-27,-46],[-67,-84],[-170,-433],[-80,-135],[-67,-162],[-184,-258],[-201,-382],[-246,-350],[-181,-277],[-103,-141]],[[0,1196],[31,-146],[78,-76],[100,2]],[[401,1007],[75,17],[100,-80]],[[1504,3779],[-102,-55],[-88,-15],[-36,-35],[-47,24],[-83,-63],[-100,-23],[-47,-79],[-50,7],[-256,-202],[-18,-85],[-108,-74],[-81,-101],[-78,-47],[-104,-22],[-111,-434],[-112,-165],[-62,-199],[-21,-13]],[[1504,3779],[3,1]],[[1509,3784],[-5,-5]],[[1508,3781],[1,3]],[[1566,3911],[-57,-127]],[[68,2316],[139,3],[68,51],[60,-34],[158,-2]],[[774,2273],[88,-28],[61,-74],[46,-1]],[[973,2170],[54,25]],[[1051,2201],[107,-115]],[[1534,3846],[-44,45],[-99,24],[-49,75],[-239,106]],[[2175,4054],[-17,42]],[[1653,3193],[98,57]],[[19,1722],[-19,14]],[[534,3824],[0,-1]],[[456,3820],[-42,4],[-100,87],[-111,126],[-190,13],[-13,42]],[[482,3822],[-17,0]],[[886,3495],[-64,21],[-35,-19],[-134,95],[-105,187]],[[1014,3453],[-120,40]],[[1167,3022],[160,59],[62,61],[6,60]],[[1399,3203],[51,-22],[133,137],[183,70]],[[2199,4096],[-22,-50],[32,-26],[-166,-182]],[[548,3779]],[[75,2371],[-75,32]],[[23,1722],[35,103]],[[54,1820],[21,43],[70,4],[34,51],[47,10],[27,-33],[69,59],[69,112],[-79,93],[14,38],[-54,115],[-43,17]],[[76,2372],[0,-1]],[[76,2370]],[[76,2370],[1,0]],[[77,2372]],[[77,2372],[-1,0]],[[209,976],[0,-208]],[[462,3815],[5,-23]],[[511,3813],[-29,9]],[[493,2334],[56,48],[80,-17],[145,-92]],[[529,3807],[-18,6]],[[511,3813],[6,-1]],[[534,3823],[-5,-16]],[[542,3795],[-13,12]],[[542,3795],[6,-16]],[[856,4049],[19,-3]],[[887,3495]],[[970,2171],[0,-2]],[[1166,3019],[1,3]],[[1212,3044],[0,-1]],[[1212,3043],[-2,-3],[3,3]],[[1213,3043]],[[1213,3043],[2,2],[-2,-1]],[[1212,3043],[1,1]],[[1213,3044],[-1,0]],[[1212,3044],[0,-1]],[[1212,3043],[1,0]],[[1213,3043]],[[1213,3043]],[[1213,3043],[0,1]],[[75,2371],[1,-2],[0,1]],[[76,2370],[1,2]],[[77,2372],[0,2],[-2,-3]],[[886,3495],[1,-1],[0,1],[-1,0]],[[1326,3081],[1,0],[0,1],[-1,0],[0,-1]],[[1506,3745],[0,-1],[0,1]],[[2038,3839],[0,1],[-2,-1],[0,-1],[2,1]],[[1016,3833],[8,0]],[[808,1345],[-37,62],[-118,59]],[[1656,4096],[-90,-185],[90,185]],[[103,3203],[-103,36]],[[103,3203],[0,-5]],[[1147,2972],[-62,27],[-33,-40],[-161,-28],[-26,-82],[-72,-30],[-95,36],[-51,-6],[-98,97],[-92,-20],[-354,277]],[[0,192],[51,147],[112,170],[35,241],[202,258],[172,388],[98,96],[66,-1],[73,101],[60,187],[-8,74],[58,77],[13,74],[50,44],[1,175],[60,93],[55,17],[63,234],[101,206],[-34,145],[-78,39],[16,62]],[[580,3187],[-152,233],[-31,91]],[[1394,3206],[-20,149],[141,231],[-23,76],[14,82]],[[1506,3745],[2,35]],[[1326,3082],[-1,0]],[[1328,3083],[-1,-1]],[[0,4096],[2356,0],[13,-27],[0,19],[18,-19],[-68,-48],[-78,-35],[-65,-42],[-27,-70],[-13,-23],[-29,-19],[-33,-15],[-23,-16],[-15,-22],[-47,-96],[-88,-266],[-41,-42],[-130,-27],[-39,8],[-5,24],[16,28],[0,23],[-53,6],[82,111],[18,34],[18,78],[11,27],[33,37],[121,100],[30,34],[13,12],[54,15],[-40,37],[-7,85],[-32,40],[-12,-74],[1,-34],[11,-34],[-18,0],[-54,101],[-37,54],[-22,19],[-11,-60],[82,-135],[2,-60],[-19,20],[-62,41],[2,-35],[15,-20],[15,-15],[7,-23],[-8,-29],[-20,-7],[-26,-2],[-25,-10],[-31,-29],[-24,-32],[-47,-83],[-36,-151],[-21,-32],[-41,4],[-20,49],[-21,112],[-6,-40],[-18,-18],[-25,5],[-29,30],[29,-98],[19,-35],[30,-29],[122,-47],[17,-25],[-30,-98],[-74,-67],[-92,-43],[-84,-27],[50,-11],[61,7],[61,20],[51,23],[39,37],[35,49],[38,42],[47,16],[-22,-56],[-194,-284],[-216,-460],[-13,-110],[-27,-46],[-67,-84],[-170,-433],[-80,-135],[-67,-162],[-184,-258],[-201,-382],[-246,-350],[-181,-277],[-103,-141],[0,4001]]]}