{"objects":{"water":{"type":"GeometryCollection","geometries":[{"type":"MultiPolygon","properties":{"source":"naturalearthdata.com","kind":"ocean","area":1576712559132672,"sort_rank":200,"min_zoom":0.0,"id":1},"arcs":[[[125],[126]]]},{"type":"LineString","properties":{"source":"naturalearthdata.com","kind":"ocean","sort_rank":205,"boundary":true,"min_zoom":0.0,"id":79},"arcs":[127]}]},"buildings":{"type":"GeometryCollection","geometries":[]},"places":{"type":"GeometryCollection","geometries":[{"type":"Point","properties":{"admin_level":"4","kind":"region","name:en":"Samut Songkhram Province","name":"\u0e08\u0e31\u0e07\u0e2b\u0e27\u0e31\u0e14\u0e2a\u0e21\u0e38\u0e17\u0e23\u0e2a\u0e07\u0e04\u0e23\u0e32\u0e21","kind_detail":"state","source":"openstreetmap.org","min_zoom":4.0,"name:uk":"\u0421\u0430\u043c\u0443\u0442\u0441\u043e\u043d\u0433\u043a\u0445\u0440\u0430\u043c","name:ru":"\u0421\u0430\u043c\u0443\u0442\u0441\u043e\u043d\u0433\u043a\u0445\u0440\u0430\u043c","name:pl":"Samut Songkhram","id":4351844993,"name:ja":"\u30b5\u30e0\u30c3\u30c8\u30bd\u30f3\u30af\u30e9\u30fc\u30e0\u770c"},"coordinates":[344,2403]},{"type":"Point","properties":{"admin_level":"4","kind":"region","name:en":"Chon Buri Province","name":"\u0e08\u0e31\u0e07\u0e2b\u0e27\u0e31\u0e14\u0e0a\u0e25\u0e1a\u0e38\u0e23\u0e35","kind_detail":"state","source":"openstreetmap.org","min_zoom":4.0,"name:uk":"\u0427\u043e\u043d\u0431\u0443\u0440\u0456","name:ru":"\u0427\u043e\u043d\u0431\u0443\u0440\u0438","name:pl":"Chonburi","id":4351546235,"name:ja":"\u30c1\u30e7\u30f3\u30d6\u30ea\u30fc\u770c"},"coordinates":[3720,1889]},{"type":"Point","properties":{"admin_level":"4","kind":"region","name:en":"Samut Sakhon Province","name":"\u0e08\u0e31\u0e07\u0e2b\u0e27\u0e31\u0e14\u0e2a\u0e21\u0e38\u0e17\u0e23\u0e2a\u0e32\u0e04\u0e23","kind_detail":"state","source":"openstreetmap.org","min_zoom":4.0,"name:uk":"\u0421\u0430\u043c\u0443\u0442\u0441\u0430\u043a\u0445\u043e\u043d","name:ru":"\u0421\u0430\u043c\u0443\u0442\u0441\u0430\u043a\u0445\u043e\u043d","name:pl":"Samut Sakhon","id":4351842944,"name:ja":"\u30b5\u30e0\u30c3\u30c8\u30b5\u30fc\u30b3\u30fc\u30f3\u770c"},"coordinates":[1208,3041]},{"type":"Point","properties":{"admin_level":"4","kind":"region","name:en":"Nakhon Pathom Province","name":"\u0e08\u0e31\u0e07\u0e2b\u0e27\u0e31\u0e14\u0e19\u0e04\u0e23\u0e1b\u0e10\u0e21","kind_detail":"state","source":"openstreetmap.org","min_zoom":4.0,"name:uk":"\u041d\u0430\u043a\u0445\u043e\u043d\u043f\u0430\u0442\u0445\u043e\u043c","name:ru":"\u041d\u0430\u043a\u043e\u043d\u043f\u0430\u0442\u043e\u043c","name:pl":"Nakhon Pathom","id":4351688228,"name:ja":"\u30ca\u30b3\u30fc\u30f3\u30d1\u30c8\u30e0\u770c"},"coordinates":[503,4002]},{"type":"Point","properties":{"admin_level":"4","kind":"region","name:en":"Nonthaburi Province","name":"\u0e08\u0e31\u0e07\u0e2b\u0e27\u0e31\u0e14\u0e19\u0e19\u0e17\u0e1a\u0e38\u0e23\u0e35","kind_detail":"state","source":"openstreetmap.org","min_zoom":4.0,"name:uk":"\u041d\u043e\u043d\u0442\u0445\u0430\u0431\u0443\u0440\u0456","name:ru":"\u041d\u043e\u043d\u0442\u0445\u0430\u0431\u0443\u0440\u0438","name:pl":"Nonthaburi","id":4351732958,"name:ja":"\u30ce\u30f3\u30bf\u30d6\u30ea\u30fc\u770c"},"coordinates":[1462,3910]},{"type":"Point","properties":{"admin_level":"4","kind":"region","name:en":"Samut Prakan Province","name":"\u0e08\u0e31\u0e07\u0e2b\u0e27\u0e31\u0e14\u0e2a\u0e21\u0e38\u0e17\u0e23\u0e1b\u0e23\u0e32\u0e01\u0e32\u0e23","kind_detail":"state","source":"openstreetmap.org","min_zoom":4.0,"name:uk":"\u0421\u0430\u043c\u0443\u0442\u043f\u0440\u0430\u043a\u0430\u043d","name:ru":"\u0421\u0430\u043c\u0443\u0442\u043f\u0440\u0430\u043a\u0430\u043d","name:pl":"Samut Prakan","id":4351837249,"name:ja":"\u30b5\u30e0\u30c3\u30c8\u30d7\u30e9\u30fc\u30ab\u30fc\u30f3\u770c"},"coordinates":[2838,3287]},{"type":"Point","properties":{"name:ia":"Bangkok","admin_level":"4","alt_name:eo":"Bangkoko","name:ja":"\u30d0\u30f3\u30b3\u30af\u3000\u7a7a\u6e2f","name:eo":"Bankoko","name:io":"Bangkok","min_zoom":4.0,"name:uk":"\u0411\u0430\u043d\u0433\u043a\u043e\u043a","name:ru":"\u0411\u0430\u043d\u0433\u043a\u043e\u043a","name:pl":"Bangkok","id":4351432485,"kind":"region","name":"\u0e01\u0e23\u0e38\u0e07\u0e40\u0e17\u0e1e\u0e21\u0e2b\u0e32\u0e19\u0e04\u0e23","kind_detail":"state","source":"openstreetmap.org","name:fr":"Bangkok"},"coordinates":[2832,3589]},{"type":"Point","properties":{"name:pt":"Banguecoque","name:ps":"\u0628\u0627\u0646\u06ab\u06a9\u0648\u06a9","name:ka":"\u10d1\u10d0\u10dc\u10d2\u10d9\u10dd\u10d9\u10d8","name:ko":"\ubc29\ucf55","name:cv":"\u0411\u0430\u043d\u0433\u043a\u043e\u043a","name:cs":"Bangkok","min_zoom":8.0,"name:be":"\u0411\u0430\u043d\u0433\u043a\u043e\u043a","name:os":"\u0411\u0430\u043d\u0433\u043a\u043e\u043a","name:pl":"Bangkok","name:ta":"\u0baa\u0bc7\u0b99\u0bcd\u0b95\u0bbe\u0b95\u0bcd","name:tg":"\u0411\u0430\u043d\u0433\u043a\u043e\u043a","name:de":"Bangkok","source":"openstreetmap.org","name:kn":"\u0cac\u0cbe\u0c82\u0c97\u0ccd\u0c95\u0cca\u0c95\u0ccd","admin_level":"2","name:lv":"Bangkoka","name:lt":"Bankokas","name:hi":"\u092c\u0948\u0902\u0915\u0949\u0915","name:kk":"\u0411\u0430\u043d\u0433\u043a\u043e\u043a","name:he":"\u05d1\u05e0\u05d2\u05e7\u05d5\u05e7","kind":"locality","name:ur":"\u0628\u0646\u06a9\u0627\u06a9","name:la":"Bancocum","name:uk":"\u0411\u0430\u043d\u0433\u043a\u043e\u043a","name:hy":"\u0532\u0561\u0576\u0563\u056f\u0578\u056f","country_capital":true,"name:hr":"Bangkok","name:lo":"\u0e9a\u0eb2\u0e87\u0e81\u0ead\u0e81","name:oc":"Bangk\u00f2k","population":8600000,"name:el":"\u039c\u03c0\u03b1\u03bd\u03b3\u03ba\u03cc\u03ba","name:eo":"Bankoko","name:en":"Bangkok","name":"\u0e01\u0e23\u0e38\u0e07\u0e40\u0e17\u0e1e\u0e21\u0e2b\u0e32\u0e19\u0e04\u0e23","name:ku":"Bangkok","name:eu":"Bangkok","name:nl":"Bangkok","name:es":"Bangkok","name:ia":"Bangkok","alt_name:eo":"Bangkoko","name:az":"Banqkok","name:ie":"Banghok","name:mr":"\u092c\u0901\u0915\u0949\u0915","name:ar":"\u0628\u0627\u0646\u0643\u0648\u0643","name:my":"\u1018\u1014\u103a\u1000\u1031\u102c\u1000\u103a\u1019\u103c\u102d\u102f\u1037","name:io":"Bangkok","name:is":"Bangkok","name:am":"\u1263\u1295\u12ae\u12ad","name:ru":"\u0411\u0430\u043d\u0433\u043a\u043e\u043a","name:vi":"B\u0103ng C\u1ed1c","name:mn":"\u0411\u0430\u043d\u0433\u043a\u043e\u043a","id":1628207792,"name:mk":"\u0411\u0430\u043d\u0433\u043a\u043e\u043a","name:fa":"\u0628\u0627\u0646\u06a9\u0648\u06a9","kind_detail":"city","old_name:vi":"V\u1ecdng C\u00e1c","alt_name:vi":"Bangkok","name:fr":"Bangkok","name:zh-yue":"\u66fc\u8c37","name:zh":"\u66fc\u8c37","name:sl":"Bangkok","name:sk":"Bangkok","name:ja":"\u30d0\u30f3\u30b3\u30af","name:si":"\u0db6\u0dd0\u0d82\u0d9a\u0ddc\u0d9a\u0dca","name:yi":"\u05d1\u05d0\u05e0\u05d2\u05e7\u05d0\u05e7","name:bn":"\u09ac\u09cd\u09af\u09be\u0982\u0995\u0995","name:bo":"\u0f54\u0f53\u0f0b\u0f40\u0f7c\u0f42","name:ml":"\u0d2c\u0d3e\u0d19\u0d4d\u0d15\u0d4b\u0d15\u0d4d\u0d15\u0d4d","name:sv":"Bangkok","name:bg":"\u0411\u0430\u043d\u043a\u043e\u043a","name:sr":"\u0411\u0430\u043d\u0433\u043a\u043e\u043a","name:ga":"Banc\u00e1c","name:gl":"Bangkok - \u0e01\u0e23\u0e38\u0e07\u0e40\u0e17\u0e1e\u0e21\u0e2b\u0e32\u0e19\u0e04\u0e23","name:fi":"Bangkok"},"coordinates":[1891,3590]},{"type":"Point","properties":{"kind":"locality","name:en":"Nonthaburi","name":"\u0e19\u0e19\u0e17\u0e1a\u0e38\u0e23\u0e35","kind_detail":"city","official_name":"\u0e40\u0e17\u0e28\u0e1a\u0e32\u0e25\u0e19\u0e04\u0e23\u0e19\u0e19\u0e17\u0e1a\u0e38\u0e23\u0e35","source":"openstreetmap.org","min_zoom":8.0,"name:ru":"\u041d\u043e\u043d\u0442\u0430\u0431\u0443\u0440\u0438","population":256190,"id":359862014,"name:ja":"\u30ce\u30f3\u30bf\u30d6\u30ea\u30fc"},"coordinates":[1950,3909]},{"type":"Point","properties":{"kind":"locality","name:en":"Pak Kret","name":"\u0e1b\u0e32\u0e01\u0e40\u0e01\u0e23\u0e47\u0e14","kind_detail":"city","official_name":"\u0e40\u0e17\u0e28\u0e1a\u0e32\u0e25\u0e19\u0e04\u0e23\u0e1b\u0e32\u0e01\u0e40\u0e01\u0e23\u0e47\u0e14","source":"openstreetmap.org","min_zoom":8.0,"name:ru":"\u041f\u0430\u043a-\u041a\u0440\u0435\u0442","population":180727,"id":356814884,"name:ja":"\u30d1\u30c3\u30af\u30ec\u30c3\u30c8"},"coordinates":[1904,4062]},{"type":"Point","properties":{"name:fa":"\u067e\u0627\u062a\u0627\u06cc\u0627","kind":"locality","name:en":"Pattaya","name":"\u0e1e\u0e31\u0e17\u0e22\u0e32","kind_detail":"city","official_name":"\u0e40\u0e21\u0e37\u0e2d\u0e07\u0e1e\u0e31\u0e17\u0e22\u0e32","name:sr":"\u041f\u0430\u0442\u0430\u0458\u0430","source":"openstreetmap.org","min_zoom":8.0,"name:ru":"\u041f\u0430\u0442\u0442\u0430\u0439\u044f","population":104318,"id":278056967,"name:ja":"\u30d1\u30c3\u30bf\u30e4\u30fc"},"coordinates":[3079,1129]},{"type":"Point","properties":{"kind":"locality","name:en":"Nakhon Pathom","name":"\u0e19\u0e04\u0e23\u0e1b\u0e10\u0e21","kind_detail":"city","official_name":"\u0e40\u0e17\u0e28\u0e1a\u0e32\u0e25\u0e19\u0e04\u0e23\u0e19\u0e04\u0e23\u0e1b\u0e10\u0e21","source":"openstreetmap.org","min_zoom":8.0,"name:ru":"\u041d\u0430\u043a\u0445\u043e\u043d\u043f\u0430\u0442\u0445\u043e\u043c","population":83215,"id":360352320,"name:ja":"\u30ca\u30b3\u30fc\u30f3\u30d1\u30c8\u30e0"},"coordinates":[625,3786]},{"type":"Point","properties":{"kind":"locality","name:en":"Samut Prakan","name":"\u0e2a\u0e21\u0e38\u0e17\u0e23\u0e1b\u0e23\u0e32\u0e01\u0e32\u0e23","kind_detail":"city","official_name":"\u0e40\u0e17\u0e28\u0e1a\u0e32\u0e25\u0e19\u0e04\u0e23\u0e2a\u0e21\u0e38\u0e17\u0e23\u0e1b\u0e23\u0e32\u0e01\u0e32\u0e23","source":"openstreetmap.org","min_zoom":8.0,"name:uk":"\u0421\u0430\u043c\u0443\u0442\u043f\u0440\u0430\u043a\u0430\u043d","name:ru":"\u0421\u0430\u043c\u0443\u0442\u043f\u0440\u0430\u043a\u0430\u043d","population":75423,"id":304199925,"name:ja":"\u30b5\u30e0\u30c3\u30c8\u30d7\u30e9\u30fc\u30ab\u30fc\u30f3"},"coordinates":[2202,3118]},{"type":"Point","properties":{"kind":"locality","name:en":"Laem Chabang","name":"\u0e41\u0e2b\u0e25\u0e21\u0e09\u0e1a\u0e31\u0e07","kind_detail":"city","official_name":"\u0e40\u0e17\u0e28\u0e1a\u0e32\u0e25\u0e19\u0e04\u0e23\u0e41\u0e2b\u0e25\u0e21\u0e09\u0e1a\u0e31\u0e07","source":"openstreetmap.org","min_zoom":8.0,"name:ru":"\u041b\u0430\u0435\u043c \u0427\u0430\u0431\u0430\u043d\u0433","population":70364,"id":1919715630,"name:ja":"\u30ec\u30e0\u30c1\u30e3\u30d0\u30f3"},"coordinates":[3121,1623]},{"type":"Point","properties":{"kind":"locality","name:en":"Chonburi","name":"\u0e0a\u0e25\u0e1a\u0e38\u0e23\u0e35","kind_detail":"town","min_zoom":8.0,"source":"openstreetmap.org","name:fr":"Chon Buri","name:ru":"\u0427\u043e\u043d\u0431\u0443\u0440\u0438","population":70364,"id":366477502,"name:ja":"\u30c1\u30e7\u30f3\u30d6\u30ea\u30fc\u770c"},"coordinates":[3336,2428]},{"type":"Point","properties":{"kind":"locality","name:en":"Chachoengsao","name":"\u0e09\u0e30\u0e40\u0e0a\u0e34\u0e07\u0e40\u0e17\u0e23\u0e32","kind_detail":"town","source":"openstreetmap.org","min_zoom":8.0,"name:ru":"\u0427\u0430\u0447\u0435\u043d\u0433\u0441\u0430\u0443","population":60893,"id":1685715520,"name:ja":"\u30c1\u30e3\u30c1\u30e5\u30fc\u30f3\u30b5\u30aa"},"coordinates":[3545,3396]},{"type":"Point","properties":{"kind":"locality","name:en":"Samut Sakhon","name":"\u0e2a\u0e21\u0e38\u0e17\u0e23\u0e2a\u0e32\u0e04\u0e23","kind_detail":"city","official_name":"\u0e40\u0e17\u0e28\u0e1a\u0e32\u0e25\u0e19\u0e04\u0e23\u0e2a\u0e21\u0e38\u0e17\u0e23\u0e2a\u0e32\u0e04\u0e23","source":"openstreetmap.org","min_zoom":8.0,"name:ru":"\u0421\u0430\u043c\u0443\u0442\u0441\u0430\u043a\u0445\u043e\u043d","population":55289,"id":372810213,"name:ja":"\u30b5\u30e0\u30c3\u30c8\u30b5\u30fc\u30b3\u30fc\u30f3"},"coordinates":[1254,2978]},{"type":"Point","properties":{"kind":"locality","name:en":"Hua Hin","name":"\u0e2b\u0e31\u0e27\u0e2b\u0e34\u0e19","kind_detail":"town","source":"openstreetmap.org","min_zoom":8.0,"id":249644470,"population":50169},"coordinates":[331,40]},{"type":"Point","properties":{"kind":"locality","name:en":"Bang Bua Thong","name":"\u0e1a\u0e32\u0e07\u0e1a\u0e31\u0e27\u0e17\u0e2d\u0e07","kind_detail":"town","source":"openstreetmap.org","min_zoom":8.0,"id":1848247892,"population":49363},"coordinates":[1696,4056]},{"type":"Point","properties":{"kind":"locality","name:en":"Bang Saen","name":"\u0e1a\u0e32\u0e07\u0e41\u0e2a\u0e19","kind_detail":"town","official_name":"\u0e40\u0e17\u0e28\u0e1a\u0e32\u0e25\u0e40\u0e21\u0e37\u0e2d\u0e07\u0e41\u0e2a\u0e19\u0e2a\u0e38\u0e02","source":"openstreetmap.org","min_zoom":8.0,"id":1985565990,"population":42843},"coordinates":[3191,2189]},{"type":"Point","properties":{"kind":"locality","name:en":"Bang Kruai","name":"\u0e1a\u0e32\u0e07\u0e01\u0e23\u0e27\u0e22","kind_detail":"town","source":"openstreetmap.org","min_zoom":8.0,"id":1848247910,"population":41732},"coordinates":[1840,3739]},{"type":"Point","properties":{"kind":"locality","name:en":"Cha-am","name":"\u0e0a\u0e30\u0e2d\u0e33","kind_detail":"town","source":"openstreetmap.org","min_zoom":8.0,"id":1402895608,"population":31354},"coordinates":[362,731]},{"type":"Point","properties":{"kind":"locality","name:en":"Phetchaburi","name":"\u0e40\u0e1e\u0e0a\u0e23\u0e1a\u0e38\u0e23\u0e35","kind_detail":"town","source":"openstreetmap.org","min_zoom":8.0,"name:ru":"\u041f\u0445\u0435\u0442\u0431\u0443\u0440\u0438","population":31354,"id":302845879,"name:ja":"\u30da\u30c3\u30c1\u30e3\u30d6\u30ea\u30fc"},"coordinates":[293,1633]},{"type":"Point","properties":{"kind":"locality","name:en":"Samut Songkhram","name":"\u0e2a\u0e21\u0e38\u0e17\u0e23\u0e2a\u0e07\u0e04\u0e23\u0e32\u0e21","kind_detail":"town","source":"openstreetmap.org","min_zoom":8.0,"name:ru":"\u0421\u0430\u043c\u0443\u0442\u0441\u043e\u043d\u0433\u043a\u0445\u0440\u0430\u043c","population":29674,"id":585128821,"name:ja":"\u30b5\u30e0\u30c3\u30c8\u30bd\u30f3\u30af\u30e9\u30fc\u30e0"},"coordinates":[457,2556]},{"type":"Point","properties":{"kind":"locality","name:en":"Ban Chang","name":"\u0e1a\u0e49\u0e32\u0e19\u0e09\u0e32\u0e07","kind_detail":"town","source":"openstreetmap.org","min_zoom":8.0,"name:ru":"\u0411\u0430\u043d \u0427\u0430\u043d\u0433","id":1756929314,"population":26036},"coordinates":[3527,509]},{"type":"Point","properties":{"kind":"locality","name:en":"Si Racha","name":"\u0e28\u0e23\u0e35\u0e23\u0e32\u0e0a\u0e32","kind_detail":"town","official_name":"\u0e40\u0e17\u0e28\u0e1a\u0e32\u0e25\u0e40\u0e21\u0e37\u0e2d\u0e07\u0e28\u0e23\u0e35\u0e23\u0e32\u0e0a\u0e32","source":"openstreetmap.org","min_zoom":8.0,"id":1773481843,"population":19444},"coordinates":[3165,1830]},{"type":"Point","properties":{"kind":"locality","name:en":"Ban Bueng","name":"\u0e1a\u0e49\u0e32\u0e19\u0e1a\u0e36\u0e07","kind_detail":"town","source":"openstreetmap.org","min_zoom":8.0,"id":1762209646,"population":18606},"coordinates":[3703,2261]},{"type":"Point","properties":{"kind":"locality","name:en":"Sam Phran","name":"\u0e2a\u0e32\u0e21\u0e1e\u0e23\u0e32\u0e19","kind_detail":"town","source":"openstreetmap.org","min_zoom":8.0,"id":1233643063,"population":16820},"coordinates":[1098,3485]},{"type":"Point","properties":{"kind":"locality","name:en":"Phanat Nikhom","name":"\u0e1e\u0e19\u0e31\u0e2a\u0e19\u0e34\u0e04\u0e21","kind_detail":"town","source":"openstreetmap.org","min_zoom":8.0,"id":1306428302,"population":12000},"coordinates":[3882,2682]}]},"transit":{"type":"GeometryCollection","geometries":[{"type":"MultiLineString","properties":{"kind":"subway","name:en":"BTS Sukhumvit Line","network":"BTS","sort_rank":275,"colour":"#65B724","name":"\u0e23\u0e16\u0e44\u0e1f\u0e1f\u0e49\u0e32\u0e1a\u0e35\u0e17\u0e35\u0e40\u0e2d\u0e2a \u0e2a\u0e32\u0e22\u0e2a\u0e38\u0e02\u0e38\u0e21\u0e27\u0e34\u0e17","source":"openstreetmap.org","min_zoom":8.0,"operator":"BTSC","ref":"BTS Sukhumvit","osm_relation":true,"colour_name":"olivedrab"},"arcs":[[21],[22],[23],[24]]},{"type":"LineString","properties":{"kind":"train","name:en":"Mae Klong Line","name":"\u0e2a\u0e32\u0e22\u0e41\u0e21\u0e48\u0e01\u0e25\u0e2d\u0e07","sort_rank":275,"source":"openstreetmap.org","min_zoom":6.0,"operator":"SRT","id":-2129175,"osm_relation":true},"arcs":[25]},{"type":"MultiLineString","properties":{"kind":"subway","name:en":"MRT Purple Line","name":"\u0e23\u0e16\u0e44\u0e1f\u0e1f\u0e49\u0e32\u0e21\u0e2b\u0e32\u0e19\u0e04\u0e23 \u0e2a\u0e32\u0e22\u0e2a\u0e35\u0e21\u0e48\u0e27\u0e07","sort_rank":275,"colour":"purple","source":"openstreetmap.org","min_zoom":8.0,"network":"MRT","operator":"Bangkok Expressway and Metro Public Company Limited","ref":"MRT Purple","osm_relation":true,"colour_name":"purple"},"arcs":[[26],[27]]},{"type":"LineString","properties":{"kind":"train","name:en":"Airport Rail Link","network":"ARL","sort_rank":275,"colour":"#FF0000","name":"\u0e23\u0e16\u0e44\u0e1f\u0e1f\u0e49\u0e32\u0e40\u0e0a\u0e37\u0e48\u0e2d\u0e21\u0e17\u0e48\u0e32\u0e2d\u0e32\u0e01\u0e32\u0e28\u0e22\u0e32\u0e19\u0e2a\u0e38\u0e27\u0e23\u0e23\u0e13\u0e20\u0e39\u0e21\u0e34","source":"openstreetmap.org","min_zoom":6.0,"operator":"SRT","id":-2148241,"osm_relation":true,"colour_name":"red"},"arcs":[28]},{"type":"MultiLineString","properties":{"kind":"subway","name:en":"MRT Blue Line","name":"\u0e23\u0e16\u0e44\u0e1f\u0e1f\u0e49\u0e32\u0e21\u0e2b\u0e32\u0e19\u0e04\u0e23 \u0e2a\u0e32\u0e22\u0e2a\u0e35\u0e19\u0e49\u0e33\u0e40\u0e07\u0e34\u0e19","sort_rank":275,"colour":"blue","name:th":"\u0e23\u0e16\u0e44\u0e1f\u0e1f\u0e49\u0e32\u0e21\u0e2b\u0e32\u0e19\u0e04\u0e23\u0e2a\u0e32\u0e22\u0e2a\u0e35\u0e19\u0e49\u0e33\u0e40\u0e07\u0e34\u0e19","source":"openstreetmap.org","min_zoom":8.0,"network":"MRT","operator":"Bangkok Expressway and Metro Public Company Limited","ref":"MRT Blue","osm_relation":true,"colour_name":"blue"},"arcs":[[29],[30],[31],[32],[33],[34],[35],[36],[37],[38],[39],[40],[41],[42],[43],[44],[45],[46],[47],[48],[49],[50],[51],[52],[53],[54],[55],[56],[57],[58],[59],[60],[61],[62],[63],[64],[65],[66],[67],[68],[69],[70],[71],[72],[73],[74],[75],[76],[77],[78],[79],[80],[81],[82],[83],[84],[85],[86],[87],[88],[89],[90],[91],[92],[93],[94],[95],[96],[97],[98],[99],[100],[101],[102],[103],[104],[105],[106],[107],[108],[109],[110],[111],[112],[113],[114],[115],[116],[117],[118],[119],[120],[121]]},{"type":"MultiLineString","properties":{"kind":"subway","name:en":"BTS Silom Line","network":"BTS","sort_rank":275,"colour":"#246B5B","name":"\u0e23\u0e16\u0e44\u0e1f\u0e1f\u0e49\u0e32\u0e1a\u0e35\u0e17\u0e35\u0e40\u0e2d\u0e2a \u0e2a\u0e32\u0e22\u0e2a\u0e35\u0e25\u0e21","source":"openstreetmap.org","min_zoom":8.0,"operator":"BTSC","ref":"BTS Silom","osm_relation":true,"colour_name":"teal"},"arcs":[[122],[123],[124]]}]},"pois":{"type":"GeometryCollection","geometries":[{"type":"Point","properties":{"kind":"aerodrome","alt_name:en":"(New) Bangkok International Airport","name":"\u0e17\u0e48\u0e32\u0e2d\u0e32\u0e01\u0e32\u0e28\u0e22\u0e32\u0e19\u0e2a\u0e38\u0e27\u0e23\u0e23\u0e13\u0e20\u0e39\u0e21\u0e34","area":31521300,"iata":"BKK","min_zoom":8.92,"source":"openstreetmap.org","name:fr":"A\u00e9roport Suvarnabhumi de Bangkok","name:en":"Suvarnabhumi Airport","tier":3,"name:ru":"\u0421\u0443\u0432\u0430\u0440\u043d\u0430\u0431\u0445\u0443\u043c\u0438","alt_name:fr":"A\u00e9roport International de Bangkok","id":-6641648,"osm_relation":true},"coordinates":[2636,3373]},{"type":"Point","properties":{"kind":"military","name":"Sattahip Royal Thai Navy Base","area":64389600,"source":"openstreetmap.org","min_zoom":8.0,"tier":3,"id":-4107372,"osm_relation":true},"coordinates":[2953,462]}]},"boundaries":{"type":"GeometryCollection","geometries":[{"type":"LineString","properties":{"name:right:ja":"\u30c1\u30e7\u30f3\u30d6\u30ea\u30fc\u770c","name:right:uk":"\u0427\u043e\u043d\u0431\u0443\u0440\u0456","name:left:ja":"\u30e9\u30e8\u30fc\u30f3\u770c","id:right":-1908773,"name:left:uk":"\u0420\u0430\u0439\u043e\u043d\u0433","min_zoom":8.0,"name:left:en":"Rayong Province","name:left:ru":"\u0420\u0430\u0439\u043e\u043d\u0433","name:right:ru":"\u0427\u043e\u043d\u0431\u0443\u0440\u0438","name:right:pl":"Chonburi","id":-1908812,"osm_relation":true,"name:right":"\u0e08\u0e31\u0e07\u0e2b\u0e27\u0e31\u0e14\u0e0a\u0e25\u0e1a\u0e38\u0e23\u0e35","kind":"region","name":"\u0e08\u0e31\u0e07\u0e2b\u0e27\u0e31\u0e14\u0e23\u0e30\u0e22\u0e2d\u0e07 - \u0e08\u0e31\u0e07\u0e2b\u0e27\u0e31\u0e14\u0e0a\u0e25\u0e1a\u0e38\u0e23\u0e35","source":"openstreetmap.org","sort_rank":256,"kind_detail":"4","name:right:en":"Chon Buri Province","name:left:pl":"Rayong","id:left":-1908812,"name:left":"\u0e08\u0e31\u0e07\u0e2b\u0e27\u0e31\u0e14\u0e23\u0e30\u0e22\u0e2d\u0e07"},"arcs":[0]},{"type":"LineString","properties":{"name:right:ja":"\u30c1\u30e7\u30f3\u30d6\u30ea\u30fc\u770c","name":"\u0e08\u0e31\u0e07\u0e2b\u0e27\u0e31\u0e14\u0e23\u0e30\u0e22\u0e2d\u0e07 - \u0e08\u0e31\u0e07\u0e2b\u0e27\u0e31\u0e14\u0e0a\u0e25\u0e1a\u0e38\u0e23\u0e35","name:right:uk":"\u0427\u043e\u043d\u0431\u0443\u0440\u0456","name:left:ja":"\u30e9\u30e8\u30fc\u30f3\u770c","id:right":-1908773,"name:left:uk":"\u0420\u0430\u0439\u043e\u043d\u0433","min_zoom":8.0,"name:left:pl":"Rayong","name:left:ru":"\u0420\u0430\u0439\u043e\u043d\u0433","name:right:ru":"\u0427\u043e\u043d\u0431\u0443\u0440\u0438","name:right:pl":"Chonburi","id":-1908812,"osm_relation":true,"name:right":"\u0e08\u0e31\u0e07\u0e2b\u0e27\u0e31\u0e14\u0e0a\u0e25\u0e1a\u0e38\u0e23\u0e35","kind":"region","name:left:en":"Rayong Province","sort_rank":256,"kind_detail":"4","name:right:en":"Chon Buri Province","source":"openstreetmap.org","maritime_boundary":true,"id:left":-1908812,"name:left":"\u0e08\u0e31\u0e07\u0e2b\u0e27\u0e31\u0e14\u0e23\u0e30\u0e22\u0e2d\u0e07"},"arcs":[1]},{"type":"LineString","properties":{"name:right:ja":"\u30ca\u30b3\u30fc\u30f3\u30d1\u30c8\u30e0\u770c","name:right:uk":"\u041d\u0430\u043a\u0445\u043e\u043d\u043f\u0430\u0442\u0445\u043e\u043c","name:left:ja":"\u30e9\u30fc\u30c1\u30e3\u30d6\u30ea\u30fc\u770c","id:right":-1908788,"name:left:uk":"\u0420\u0430\u0442\u0447\u0430\u0431\u0443\u0440\u0456","min_zoom":8.0,"name:left:en":"Ratchaburi Province","name:left:ru":"\u0420\u0430\u0442\u0447\u0430\u0431\u0443\u0440\u0438","name:right:ru":"\u041d\u0430\u043a\u043e\u043d\u043f\u0430\u0442\u043e\u043c","name:right:pl":"Nakhon Pathom","id":-1908811,"osm_relation":true,"name:right":"\u0e08\u0e31\u0e07\u0e2b\u0e27\u0e31\u0e14\u0e19\u0e04\u0e23\u0e1b\u0e10\u0e21","kind":"region","name":"\u0e08\u0e31\u0e07\u0e2b\u0e27\u0e31\u0e14\u0e23\u0e32\u0e0a\u0e1a\u0e38\u0e23\u0e35 - \u0e08\u0e31\u0e07\u0e2b\u0e27\u0e31\u0e14\u0e19\u0e04\u0e23\u0e1b\u0e10\u0e21","source":"openstreetmap.org","sort_rank":256,"kind_detail":"4","name:right:en":"Nakhon Pathom Province","name:left:pl":"Ratchaburi","id:left":-1908811,"name:left":"\u0e08\u0e31\u0e07\u0e2b\u0e27\u0e31\u0e14\u0e23\u0e32\u0e0a\u0e1a\u0e38\u0e23\u0e35"},"arcs":[2]},{"type":"LineString","properties":{"name:right:ja":"\u30ab\u30fc\u30f3\u30c1\u30e3\u30ca\u30d6\u30ea\u30fc\u770c","name:right:uk":"\u041a\u0430\u043d\u0447\u0430\u043d\u0430\u0431\u0443\u0440\u0456","name:left:ja":"\u30e9\u30fc\u30c1\u30e3\u30d6\u30ea\u30fc\u770c","id:right":-1908777,"name:left:uk":"\u0420\u0430\u0442\u0447\u0430\u0431\u0443\u0440\u0456","min_zoom":8.0,"name:left:en":"Ratchaburi Province","name:left:ru":"\u0420\u0430\u0442\u0447\u0430\u0431\u0443\u0440\u0438","name:right:ru":"\u041a\u0430\u043d\u0447\u0430\u043d\u0430\u0431\u0443\u0440\u0438","name:right:pl":"Kanchanaburi","id":-1908811,"osm_relation":true,"name:right":"\u0e08\u0e31\u0e07\u0e2b\u0e27\u0e31\u0e14\u0e01\u0e32\u0e0d\u0e08\u0e19\u0e1a\u0e38\u0e23\u0e35","kind":"region","name":"\u0e08\u0e31\u0e07\u0e2b\u0e27\u0e31\u0e14\u0e23\u0e32\u0e0a\u0e1a\u0e38\u0e23\u0e35 - \u0e08\u0e31\u0e07\u0e2b\u0e27\u0e31\u0e14\u0e01\u0e32\u0e0d\u0e08\u0e19\u0e1a\u0e38\u0e23\u0e35","source":"openstreetmap.org","sort_rank":256,"kind_detail":"4","name:right:en":"Kanchanaburi Province","name:left:pl":"Ratchaburi","id:left":-1908811,"name:left":"\u0e08\u0e31\u0e07\u0e2b\u0e27\u0e31\u0e14\u0e23\u0e32\u0e0a\u0e1a\u0e38\u0e23\u0e35"},"arcs":[3]},{"type":"LineString","properties":{"kind":"region","name:en":"Ratchaburi Province","name":"\u0e08\u0e31\u0e07\u0e2b\u0e27\u0e31\u0e14\u0e23\u0e32\u0e0a\u0e1a\u0e38\u0e23\u0e35","sort_rank":256,"kind_detail":"4","source":"openstreetmap.org","min_zoom":8.0,"name:uk":"\u0420\u0430\u0442\u0447\u0430\u0431\u0443\u0440\u0456","name:ru":"\u0420\u0430\u0442\u0447\u0430\u0431\u0443\u0440\u0438","name:pl":"Ratchaburi","id":-1908811,"osm_relation":true,"name:ja":"\u30e9\u30fc\u30c1\u30e3\u30d6\u30ea\u30fc\u770c"},"arcs":[4]},{"type":"LineString","properties":{"kind":"region","name:en":"Prachuap Khiri Khan Province","name":"\u0e08\u0e31\u0e07\u0e2b\u0e27\u0e31\u0e14\u0e1b\u0e23\u0e30\u0e08\u0e27\u0e1a\u0e04\u0e35\u0e23\u0e35\u0e02\u0e31\u0e19\u0e18\u0e4c","sort_rank":256,"kind_detail":"4","source":"openstreetmap.org","min_zoom":8.0,"name:uk":"\u041f\u0440\u0430\u0447\u0443\u0430\u043f\u043a\u0445\u0456\u0440\u0456\u043a\u0445\u0430\u043d","name:ru":"\u041f\u0440\u0430\u0447\u0443\u0430\u043f\u043a\u0445\u0438\u0440\u0438\u043a\u0445\u0430\u043d","name:pl":"Prachuap Khiri Khan","id":-1908809,"osm_relation":true,"name:ja":"\u30d7\u30e9\u30c1\u30e5\u30ef\u30c3\u30d7\u30ad\u30fc\u30ea\u30fc\u30ab\u30f3\u770c"},"arcs":[5]},{"type":"LineString","properties":{"name:right:ja":"\u30c1\u30e3\u30c1\u30e5\u30fc\u30f3\u30b5\u30aa\u770c","name:right:uk":"\u0427\u0430\u0447\u0435\u043d\u0433\u0441\u0430\u043e","name:left:ja":"\u30d7\u30e9\u30fc\u30c1\u30fc\u30f3\u30d6\u30ea\u30fc\u770c","id:right":-1908767,"name:left:uk":"\u041f\u0440\u0430\u0447\u0456\u043d\u0431\u0443\u0440\u0456","min_zoom":8.0,"name:left:en":"Prachin Buri Province","name:left:ru":"\u041f\u0440\u0430\u0447\u0438\u043d\u0431\u0443\u0440\u0438","name:right:ru":"\u0427\u0430\u0447\u0435\u043d\u0433\u0441\u0430\u0443","name:right:pl":"Chachoengsao","id":-1908808,"osm_relation":true,"name:right":"\u0e08\u0e31\u0e07\u0e2b\u0e27\u0e31\u0e14\u0e09\u0e30\u0e40\u0e0a\u0e34\u0e07\u0e40\u0e17\u0e23\u0e32","kind":"region","name":"\u0e08\u0e31\u0e07\u0e2b\u0e27\u0e31\u0e14\u0e1b\u0e23\u0e32\u0e08\u0e35\u0e19\u0e1a\u0e38\u0e23\u0e35 - \u0e08\u0e31\u0e07\u0e2b\u0e27\u0e31\u0e14\u0e09\u0e30\u0e40\u0e0a\u0e34\u0e07\u0e40\u0e17\u0e23\u0e32","source":"openstreetmap.org","sort_rank":256,"kind_detail":"4","name:right:en":"Chachoengsao Province","name:left:pl":"Prachinburi","id:left":-1908808,"name:left":"\u0e08\u0e31\u0e07\u0e2b\u0e27\u0e31\u0e14\u0e1b\u0e23\u0e32\u0e08\u0e35\u0e19\u0e1a\u0e38\u0e23\u0e35"},"arcs":[6]},{"type":"LineString","properties":{"name:right:ja":"\u30d0\u30f3\u30b3\u30af\u3000\u7a7a\u6e2f","name:right:fr":"Bangkok","name:right:uk":"\u0411\u0430\u043d\u0433\u043a\u043e\u043a","name:left:ja":"\u30d1\u30c8\u30a5\u30e0\u30bf\u30fc\u30cb\u30fc\u770c","name:right:ko":"\ubc29\ucf55","id:right":-92277,"name:left:uk":"\u041f\u0430\u0442\u0445\u0443\u043c\u0442\u0445\u0430\u043d\u0456","min_zoom":8.0,"name:left:en":"Pathum Thani Province","name:left:ru":"\u041f\u0430\u0442\u0445\u0443\u043c\u0442\u0445\u0430\u043d\u0438","name:right:ru":"\u0411\u0430\u043d\u0433\u043a\u043e\u043a","name:right:eo":"Bankoko","id":-1908797,"name:right:ia":"Bangkok","name:right":"\u0e01\u0e23\u0e38\u0e07\u0e40\u0e17\u0e1e\u0e21\u0e2b\u0e32\u0e19\u0e04\u0e23","name:right:io":"Bangkok","kind":"region","name":"\u0e08\u0e31\u0e07\u0e2b\u0e27\u0e31\u0e14\u0e1b\u0e17\u0e38\u0e21\u0e18\u0e32\u0e19\u0e35 - \u0e01\u0e23\u0e38\u0e07\u0e40\u0e17\u0e1e\u0e21\u0e2b\u0e32\u0e19\u0e04\u0e23","source":"openstreetmap.org","sort_rank":256,"name:right:pl":"Bangkok","name:right:en":"Bangkok","name:left:pl":"Pathum Thani","osm_relation":true,"id:left":-1908797,"kind_detail":"4","name:left":"\u0e08\u0e31\u0e07\u0e2b\u0e27\u0e31\u0e14\u0e1b\u0e17\u0e38\u0e21\u0e18\u0e32\u0e19\u0e35"},"arcs":[7]},{"type":"LineString","properties":{"name:right:ja":"\u30ca\u30b3\u30fc\u30f3\u30d1\u30c8\u30e0\u770c","name:right:uk":"\u041d\u0430\u043a\u0445\u043e\u043d\u043f\u0430\u0442\u0445\u043e\u043c","name:left:ja":"\u30ce\u30f3\u30bf\u30d6\u30ea\u30fc\u770c","id:right":-1908788,"name:left:uk":"\u041d\u043e\u043d\u0442\u0445\u0430\u0431\u0443\u0440\u0456","min_zoom":8.0,"name:left:en":"Nonthaburi Province","name:left:ru":"\u041d\u043e\u043d\u0442\u0445\u0430\u0431\u0443\u0440\u0438","name:right:ru":"\u041d\u0430\u043a\u043e\u043d\u043f\u0430\u0442\u043e\u043c","name:right:pl":"Nakhon Pathom","id":-1908796,"osm_relation":true,"name:right":"\u0e08\u0e31\u0e07\u0e2b\u0e27\u0e31\u0e14\u0e19\u0e04\u0e23\u0e1b\u0e10\u0e21","kind":"region","name":"\u0e08\u0e31\u0e07\u0e2b\u0e27\u0e31\u0e14\u0e19\u0e19\u0e17\u0e1a\u0e38\u0e23\u0e35 - \u0e08\u0e31\u0e07\u0e2b\u0e27\u0e31\u0e14\u0e19\u0e04\u0e23\u0e1b\u0e10\u0e21","source":"openstreetmap.org","sort_rank":256,"kind_detail":"4","name:right:en":"Nakhon Pathom Province","name:left:pl":"Nonthaburi","id:left":-1908796,"name:left":"\u0e08\u0e31\u0e07\u0e2b\u0e27\u0e31\u0e14\u0e19\u0e19\u0e17\u0e1a\u0e38\u0e23\u0e35"},"arcs":[8]},{"type":"LineString","properties":{"name:right:ja":"\u30d0\u30f3\u30b3\u30af\u3000\u7a7a\u6e2f","name:right:fr":"Bangkok","name:right:uk":"\u0411\u0430\u043d\u0433\u043a\u043e\u043a","name:left:ja":"\u30ce\u30f3\u30bf\u30d6\u30ea\u30fc\u770c","name:right:ko":"\ubc29\ucf55","id:right":-92277,"name:left:uk":"\u041d\u043e\u043d\u0442\u0445\u0430\u0431\u0443\u0440\u0456","min_zoom":8.0,"name:left:en":"Nonthaburi Province","name:left:ru":"\u041d\u043e\u043d\u0442\u0445\u0430\u0431\u0443\u0440\u0438","name:right:ru":"\u0411\u0430\u043d\u0433\u043a\u043e\u043a","name:right:eo":"Bankoko","id":-1908796,"name:right:ia":"Bangkok","name:right":"\u0e01\u0e23\u0e38\u0e07\u0e40\u0e17\u0e1e\u0e21\u0e2b\u0e32\u0e19\u0e04\u0e23","name:right:io":"Bangkok","kind":"region","name":"\u0e08\u0e31\u0e07\u0e2b\u0e27\u0e31\u0e14\u0e19\u0e19\u0e17\u0e1a\u0e38\u0e23\u0e35 - \u0e01\u0e23\u0e38\u0e07\u0e40\u0e17\u0e1e\u0e21\u0e2b\u0e32\u0e19\u0e04\u0e23","source":"openstreetmap.org","sort_rank":256,"name:right:pl":"Bangkok","name:right:en":"Bangkok","name:left:pl":"Nonthaburi","osm_relation":true,"id:left":-1908796,"kind_detail":"4","name:left":"\u0e08\u0e31\u0e07\u0e2b\u0e27\u0e31\u0e14\u0e19\u0e19\u0e17\u0e1a\u0e38\u0e23\u0e35"},"arcs":[9]},{"type":"LineString","properties":{"name:right:ja":"\u30d0\u30f3\u30b3\u30af\u3000\u7a7a\u6e2f","name:right:fr":"Bangkok","name:right:uk":"\u0411\u0430\u043d\u0433\u043a\u043e\u043a","name:left:ja":"\u30ca\u30b3\u30fc\u30f3\u30d1\u30c8\u30e0\u770c","name:right:ko":"\ubc29\ucf55","id:right":-92277,"name:left:uk":"\u041d\u0430\u043a\u0445\u043e\u043d\u043f\u0430\u0442\u0445\u043e\u043c","min_zoom":8.0,"name:left:en":"Nakhon Pathom Province","name:left:ru":"\u041d\u0430\u043a\u043e\u043d\u043f\u0430\u0442\u043e\u043c","name:right:ru":"\u0411\u0430\u043d\u0433\u043a\u043e\u043a","name:right:eo":"Bankoko","id":-1908788,"name:right:ia":"Bangkok","name:right":"\u0e01\u0e23\u0e38\u0e07\u0e40\u0e17\u0e1e\u0e21\u0e2b\u0e32\u0e19\u0e04\u0e23","name:right:io":"Bangkok","kind":"region","name":"\u0e08\u0e31\u0e07\u0e2b\u0e27\u0e31\u0e14\u0e19\u0e04\u0e23\u0e1b\u0e10\u0e21 - \u0e01\u0e23\u0e38\u0e07\u0e40\u0e17\u0e1e\u0e21\u0e2b\u0e32\u0e19\u0e04\u0e23","source":"openstreetmap.org","sort_rank":256,"name:right:pl":"Bangkok","name:right:en":"Bangkok","name:left:pl":"Nakhon Pathom","osm_relation":true,"id:left":-1908788,"kind_detail":"4","name:left":"\u0e08\u0e31\u0e07\u0e2b\u0e27\u0e31\u0e14\u0e19\u0e04\u0e23\u0e1b\u0e10\u0e21"},"arcs":[10]},{"type":"LineString","properties":{"kind":"region","name:en":"Nakhon Pathom Province","name":"\u0e08\u0e31\u0e07\u0e2b\u0e27\u0e31\u0e14\u0e19\u0e04\u0e23\u0e1b\u0e10\u0e21","sort_rank":256,"kind_detail":"4","source":"openstreetmap.org","min_zoom":8.0,"name:uk":"\u041d\u0430\u043a\u0445\u043e\u043d\u043f\u0430\u0442\u0445\u043e\u043c","name:ru":"\u041d\u0430\u043a\u043e\u043d\u043f\u0430\u0442\u043e\u043c","name:pl":"Nakhon Pathom","id":-1908788,"osm_relation":true,"name:ja":"\u30ca\u30b3\u30fc\u30f3\u30d1\u30c8\u30e0\u770c"},"arcs":[11]},{"type":"LineString","properties":{"name:right:ja":"\u30c1\u30e3\u30c1\u30e5\u30fc\u30f3\u30b5\u30aa\u770c","name:right:uk":"\u0427\u0430\u0447\u0435\u043d\u0433\u0441\u0430\u043e","name:left:ja":"\u30c1\u30e7\u30f3\u30d6\u30ea\u30fc\u770c","id:right":-1908767,"name:left:uk":"\u0427\u043e\u043d\u0431\u0443\u0440\u0456","min_zoom":8.0,"name:left:en":"Chon Buri Province","name:left:ru":"\u0427\u043e\u043d\u0431\u0443\u0440\u0438","name:right:ru":"\u0427\u0430\u0447\u0435\u043d\u0433\u0441\u0430\u0443","name:right:pl":"Chachoengsao","id":-1908773,"osm_relation":true,"name:right":"\u0e08\u0e31\u0e07\u0e2b\u0e27\u0e31\u0e14\u0e09\u0e30\u0e40\u0e0a\u0e34\u0e07\u0e40\u0e17\u0e23\u0e32","kind":"region","name":"\u0e08\u0e31\u0e07\u0e2b\u0e27\u0e31\u0e14\u0e0a\u0e25\u0e1a\u0e38\u0e23\u0e35 - \u0e08\u0e31\u0e07\u0e2b\u0e27\u0e31\u0e14\u0e09\u0e30\u0e40\u0e0a\u0e34\u0e07\u0e40\u0e17\u0e23\u0e32","source":"openstreetmap.org","sort_rank":256,"kind_detail":"4","name:right:en":"Chachoengsao Province","name:left:pl":"Chonburi","id:left":-1908773,"name:left":"\u0e08\u0e31\u0e07\u0e2b\u0e27\u0e31\u0e14\u0e0a\u0e25\u0e1a\u0e38\u0e23\u0e35"},"arcs":[12]},{"type":"LineString","properties":{"name:right:ja":"\u30c1\u30e3\u30c1\u30e5\u30fc\u30f3\u30b5\u30aa\u770c","name":"\u0e08\u0e31\u0e07\u0e2b\u0e27\u0e31\u0e14\u0e0a\u0e25\u0e1a\u0e38\u0e23\u0e35 - \u0e08\u0e31\u0e07\u0e2b\u0e27\u0e31\u0e14\u0e09\u0e30\u0e40\u0e0a\u0e34\u0e07\u0e40\u0e17\u0e23\u0e32","name:right:uk":"\u0427\u0430\u0447\u0435\u043d\u0433\u0441\u0430\u043e","name:left:ja":"\u30c1\u30e7\u30f3\u30d6\u30ea\u30fc\u770c","id:right":-1908767,"name:left:uk":"\u0427\u043e\u043d\u0431\u0443\u0440\u0456","min_zoom":8.0,"name:left:pl":"Chonburi","name:left:ru":"\u0427\u043e\u043d\u0431\u0443\u0440\u0438","name:right:ru":"\u0427\u0430\u0447\u0435\u043d\u0433\u0441\u0430\u0443","name:right:pl":"Chachoengsao","id":-1908773,"osm_relation":true,"name:right":"\u0e08\u0e31\u0e07\u0e2b\u0e27\u0e31\u0e14\u0e09\u0e30\u0e40\u0e0a\u0e34\u0e07\u0e40\u0e17\u0e23\u0e32","kind":"region","name:left:en":"Chon Buri Province","sort_rank":256,"kind_detail":"4","name:right:en":"Chachoengsao Province","source":"openstreetmap.org","maritime_boundary":true,"id:left":-1908773,"name:left":"\u0e08\u0e31\u0e07\u0e2b\u0e27\u0e31\u0e14\u0e0a\u0e25\u0e1a\u0e38\u0e23\u0e35"},"arcs":[13]},{"type":"LineString","properties":{"kind":"region","name:en":"Chon Buri Province","name":"\u0e08\u0e31\u0e07\u0e2b\u0e27\u0e31\u0e14\u0e0a\u0e25\u0e1a\u0e38\u0e23\u0e35","sort_rank":256,"kind_detail":"4","min_zoom":8.0,"source":"openstreetmap.org","maritime_boundary":true,"name:uk":"\u0427\u043e\u043d\u0431\u0443\u0440\u0456","name:ru":"\u0427\u043e\u043d\u0431\u0443\u0440\u0438","name:pl":"Chonburi","id":-1908773,"osm_relation":true,"name:ja":"\u30c1\u30e7\u30f3\u30d6\u30ea\u30fc\u770c"},"arcs":[14]},{"type":"LineString","properties":{"name:right:ja":"\u30d0\u30f3\u30b3\u30af\u3000\u7a7a\u6e2f","name:right:fr":"Bangkok","name:right:uk":"\u0411\u0430\u043d\u0433\u043a\u043e\u043a","name:left:ja":"\u30c1\u30e3\u30c1\u30e5\u30fc\u30f3\u30b5\u30aa\u770c","name:right:ko":"\ubc29\ucf55","id:right":-92277,"name:left:uk":"\u0427\u0430\u0447\u0435\u043d\u0433\u0441\u0430\u043e","min_zoom":8.0,"name:left:en":"Chachoengsao Province","name:left:ru":"\u0427\u0430\u0447\u0435\u043d\u0433\u0441\u0430\u0443","name:right:ru":"\u0411\u0430\u043d\u0433\u043a\u043e\u043a","name:right:eo":"Bankoko","id":-1908767,"name:right:ia":"Bangkok","name:right":"\u0e01\u0e23\u0e38\u0e07\u0e40\u0e17\u0e1e\u0e21\u0e2b\u0e32\u0e19\u0e04\u0e23","name:right:io":"Bangkok","kind":"region","name":"\u0e08\u0e31\u0e07\u0e2b\u0e27\u0e31\u0e14\u0e09\u0e30\u0e40\u0e0a\u0e34\u0e07\u0e40\u0e17\u0e23\u0e32 - \u0e01\u0e23\u0e38\u0e07\u0e40\u0e17\u0e1e\u0e21\u0e2b\u0e32\u0e19\u0e04\u0e23","source":"openstreetmap.org","sort_rank":256,"name:right:pl":"Bangkok","name:right:en":"Bangkok","name:left:pl":"Chachoengsao","osm_relation":true,"id:left":-1908767,"kind_detail":"4","name:left":"\u0e08\u0e31\u0e07\u0e2b\u0e27\u0e31\u0e14\u0e09\u0e30\u0e40\u0e0a\u0e34\u0e07\u0e40\u0e17\u0e23\u0e32"},"arcs":[15]},{"type":"LineString","properties":{"kind":"region","name:en":"Chachoengsao Province","name":"\u0e08\u0e31\u0e07\u0e2b\u0e27\u0e31\u0e14\u0e09\u0e30\u0e40\u0e0a\u0e34\u0e07\u0e40\u0e17\u0e23\u0e32","sort_rank":256,"kind_detail":"4","source":"openstreetmap.org","min_zoom":8.0,"name:uk":"\u0427\u0430\u0447\u0435\u043d\u0433\u0441\u0430\u043e","name:ru":"\u0427\u0430\u0447\u0435\u043d\u0433\u0441\u0430\u0443","name:pl":"Chachoengsao","id":-1908767,"osm_relation":true,"name:ja":"\u30c1\u30e3\u30c1\u30e5\u30fc\u30f3\u30b5\u30aa\u770c"},"arcs":[16]},{"type":"LineString","properties":{"kind":"region","name:en":"Chachoengsao Province","name":"\u0e08\u0e31\u0e07\u0e2b\u0e27\u0e31\u0e14\u0e09\u0e30\u0e40\u0e0a\u0e34\u0e07\u0e40\u0e17\u0e23\u0e32","sort_rank":256,"kind_detail":"4","min_zoom":8.0,"source":"openstreetmap.org","maritime_boundary":true,"name:uk":"\u0427\u0430\u0447\u0435\u043d\u0433\u0441\u0430\u043e","name:ru":"\u0427\u0430\u0447\u0435\u043d\u0433\u0441\u0430\u0443","name:pl":"Chachoengsao","id":-1908767,"osm_relation":true,"name:ja":"\u30c1\u30e3\u30c1\u30e5\u30fc\u30f3\u30b5\u30aa\u770c"},"arcs":[17]},{"type":"MultiLineString","properties":{"name:ia":"Bangkok","name:ja":"\u30d0\u30f3\u30b3\u30af\u3000\u7a7a\u6e2f","name:ko":"\ubc29\ucf55","name:eo":"Bankoko","name:io":"Bangkok","min_zoom":8.0,"name:uk":"\u0411\u0430\u043d\u0433\u043a\u043e\u043a","name:ru":"\u0411\u0430\u043d\u0433\u043a\u043e\u043a","name:pl":"Bangkok","id":-92277,"osm_relation":true,"kind":"region","name:en":"Bangkok","name":"\u0e01\u0e23\u0e38\u0e07\u0e40\u0e17\u0e1e\u0e21\u0e2b\u0e32\u0e19\u0e04\u0e23","sort_rank":256,"kind_detail":"4","source":"openstreetmap.org","name:fr":"Bangkok"},"arcs":[[18],[19]]},{"type":"LineString","properties":{"name:ia":"Bangkok","name:ja":"\u30d0\u30f3\u30b3\u30af\u3000\u7a7a\u6e2f","name:ko":"\ubc29\ucf55","kind":"region","name:io":"Bangkok","min_zoom":8.0,"name:uk":"\u0411\u0430\u043d\u0433\u043a\u043e\u043a","name:ru":"\u0411\u0430\u043d\u0433\u043a\u043e\u043a","name:pl":"Bangkok","id":-92277,"osm_relation":true,"name:eo":"Bankoko","name:en":"Bangkok","name":"\u0e01\u0e23\u0e38\u0e07\u0e40\u0e17\u0e1e\u0e21\u0e2b\u0e32\u0e19\u0e04\u0e23","sort_rank":256,"kind_detail":"4","name:fr":"Bangkok","source":"openstreetmap.org","maritime_boundary":true},"arcs":[20]}]},"roads":{"type":"GeometryCollection","geometries":[{"type":"LineString","properties":{"kind":"highway","name:en":"ChonBuri-Pattaya","network":"AsianHighway","sort_rank":383,"kind_detail":"motorway","source":"openstreetmap.org","min_zoom":8.0,"all_networks":["AsianHighway"],"shield_text":"19","ref":"7","id":190237559,"all_shield_texts":["19"]},"arcs":[128]},{"type":"MultiLineString","properties":{"source":"openstreetmap.org","kind":"major_road","landuse_kind":"urban_area","sort_rank":380,"kind_detail":"primary","ref":"325","min_zoom":8.0},"arcs":[[129],[130],[131],[132]]},{"type":"MultiLineString","properties":{"source":"openstreetmap.org","kind":"major_road","name:en":"Maha Chakkraphat Road","sort_rank":381,"kind_detail":"trunk","ref":"304","min_zoom":8.0},"arcs":[[133],[134]]},{"type":"MultiLineString","properties":{"bus_network":null,"name:en":"Ratchadaphisek Road","sort_rank":380,"kind_detail":"primary","kind":"major_road","source":"openstreetmap.org","min_zoom":8.0,"bus_shield_text":"16","landuse_kind":"urban_area"},"arcs":[[135],[136]]},{"type":"LineString","properties":{"kind":"major_road","name:en":"Ratyatraksa Road","sort_rank":380,"kind_detail":"primary","source":"openstreetmap.org","min_zoom":8.0,"landuse_kind":"urban_area","ref":"325","id":102485765},"arcs":[137]},{"type":"MultiLineString","properties":{"source":"openstreetmap.org","kind":"highway","name:en":"Rama IX Bridge","landuse_kind":"urban_area","sort_rank":383,"kind_detail":"motorway","min_zoom":8.0},"arcs":[[138],[139]]},{"type":"LineString","properties":{"kind":"major_road","sort_rank":380,"landuse_kind":"urban_area","source":"openstreetmap.org","min_zoom":8.0,"kind_detail":"primary","ref":"331","id":463103280},"arcs":[140]},{"type":"LineString","properties":{"kind":"major_road","name:en":"Sukhumvit Road","sort_rank":380,"kind_detail":"primary","bus_network":"BMTA","source":"openstreetmap.org","min_zoom":8.0,"bus_shield_text":"508","ref":"3","id":185059756},"arcs":[141]},{"type":"MultiLineString","properties":{"source":"openstreetmap.org","kind":"major_road","name:en":"Chaeng Whathana Road","kind_detail":"primary","sort_rank":380,"landuse_kind":"urban_area","min_zoom":8.0},"arcs":[[142],[143]]},{"type":"MultiLineString","properties":{"source":"openstreetmap.org","kind":"ferry","name:en":"Chao Phraya Express Boat","name":"\u0e40\u0e23\u0e37\u0e2d\u0e14\u0e48\u0e27\u0e19\u0e40\u0e08\u0e49\u0e32\u0e1e\u0e23\u0e30\u0e22\u0e32","sort_rank":355,"landuse_kind":"urban_area","min_zoom":8.0},"arcs":[[144],[145],[146],[147],[148],[149],[150],[151],[152],[153],[154],[155],[156],[157],[158],[159],[160],[161],[162],[163],[164],[165],[166],[167]]},{"type":"MultiLineString","properties":{"kind":"major_road","name:en":"Borommaratchachonnani Road","network":"AsianHighway","sort_rank":381,"landuse_kind":"urban_area","source":"openstreetmap.org","min_zoom":8.0,"kind_detail":"trunk","shield_text":"2","ref":"338"},"arcs":[[168],[169],[170]]},{"type":"LineString","properties":{"kind":"major_road","name:en":"Phetchaburi Road","sort_rank":380,"kind_detail":"primary","bus_network":"BMTA","source":"openstreetmap.org","min_zoom":8.0,"bus_shield_text":"23","landuse_kind":"urban_area"},"arcs":[171]},{"type":"LineString","properties":{"kind":"major_road","name:en":"Lak Si Monument Circle","network":"TH-network","sort_rank":380,"kind_detail":"primary","bus_network":"BMTA","source":"openstreetmap.org","min_zoom":8.0,"bus_shield_text":"188","shield_text":"1","landuse_kind":"urban_area","id":300803447},"arcs":[172]},{"type":"MultiLineString","properties":{"kind":"major_road","name:en":"Suwinthawong Road","sort_rank":381,"landuse_kind":"urban_area","source":"openstreetmap.org","min_zoom":8.0,"kind_detail":"trunk","ref":"304"},"arcs":[[173],[174]]},{"type":"MultiLineString","properties":{"bus_network":null,"name:en":"Thai-Japan Bridge","sort_rank":380,"landuse_kind":"urban_area","kind":"major_road","source":"openstreetmap.org","min_zoom":8.0,"bus_shield_text":"\u0e15.27","kind_detail":"primary"},"arcs":[[175],[176]]},{"type":"LineString","properties":{"kind":"major_road","sort_rank":380,"landuse_kind":"urban_area","source":"openstreetmap.org","min_zoom":8.0,"kind_detail":"primary","ref":"332","id":409875494},"arcs":[177]},{"type":"MultiLineString","properties":{"kind":"major_road","name:en":"Ngam Wong Wan Road","network":null,"sort_rank":380,"kind_detail":"primary","source":"openstreetmap.org","min_zoom":8.0,"landuse_kind":"urban_area","shield_text":"302","ref":"302"},"arcs":[[178],[179],[180],[181]]},{"type":"MultiLineString","properties":{"kind":"major_road","name:en":"Ratchadaphisek Road","sort_rank":380,"kind_detail":"primary","bus_network":"BMTA","source":"openstreetmap.org","min_zoom":8.0,"bus_shield_text":"136","landuse_kind":"urban_area"},"arcs":[[182],[183]]},{"type":"MultiLineString","properties":{"source":"openstreetmap.org","kind":"major_road","name:en":"Phetkasem Road","landuse_kind":"urban_area","sort_rank":380,"kind_detail":"primary","min_zoom":8.0},"arcs":[[184],[185],[186],[187]]},{"type":"MultiLineString","properties":{"source":"openstreetmap.org","kind":"major_road","name:en":"Ratchaphruek Road","sort_rank":380,"kind_detail":"primary","ref":"\u0e19\u0e1a.3021","min_zoom":8.0},"arcs":[[188],[189],[190],[191]]},{"type":"LineString","properties":{"kind":"major_road","name:en":"Pattaya-ChonBuri","sort_rank":381,"kind_detail":"trunk","source":"openstreetmap.org","min_zoom":8.0,"landuse_kind":"urban_area","ref":"7","id":406636888},"arcs":[192]},{"type":"MultiLineString","properties":{"kind":"major_road","name:en":"Phetkasem Road","network":"AsianHighway","sort_rank":381,"kind_detail":"trunk","source":"openstreetmap.org","min_zoom":8.0,"shield_text":"2","ref":"4"},"arcs":[[193],[194],[195],[196],[197],[198],[199],[200],[201],[202],[203],[204]]},{"type":"LineString","properties":{"bus_network":null,"name:en":"Ratchadamnoen Klang Road","sort_rank":380,"kind_detail":"primary","kind":"major_road","source":"openstreetmap.org","min_zoom":8.0,"alt_name:en":"Thanon Ratchadamnoen Klang","bus_shield_text":"9","landuse_kind":"urban_area"},"arcs":[205]},{"type":"LineString","properties":{"kind":"major_road","name:en":"Phetkasem Road","network":"AsianHighway","sort_rank":381,"kind_detail":"trunk","source":"openstreetmap.org","min_zoom":8.0,"landuse_kind":"urban_area","shield_text":"123","ref":"4","id":377627776},"arcs":[206]},{"type":"MultiLineString","properties":{"kind":"major_road","name:en":"Thanon Sukhumvit","sort_rank":380,"kind_detail":"primary","source":"openstreetmap.org","min_zoom":8.0,"landuse_kind":"urban_area","ref":"3"},"arcs":[[207],[208],[209],[210],[211]]},{"type":"MultiLineString","properties":{"kind":"major_road","name:en":"Phetkasem Road","network":"AsianHighway","sort_rank":381,"kind_detail":"trunk","source":"openstreetmap.org","min_zoom":8.0,"shield_text":"2"},"arcs":[[212],[213]]},{"type":"LineString","properties":{"kind":"ferry","name:en":"Orange flag boat","network":"Chao Phraya Express Boat","sort_rank":355,"landuse_kind":"urban_area","source":"openstreetmap.org","min_zoom":8.0,"id":-2403874,"osm_relation":true,"name":"\u0e40\u0e23\u0e37\u0e2d\u0e14\u0e48\u0e27\u0e19\u0e1e\u0e34\u0e40\u0e28\u0e29\u0e18\u0e07\u0e2a\u0e49\u0e21"},"arcs":[214]},{"type":"MultiLineString","properties":{"source":"openstreetmap.org","kind":"major_road","name:en":"Asok Montri Rd","landuse_kind":"urban_area","sort_rank":380,"kind_detail":"primary","min_zoom":8.0},"arcs":[[215],[216]]},{"type":"MultiLineString","properties":{"source":"openstreetmap.org","kind":"major_road","name:en":"Si Lom Road","landuse_kind":"urban_area","sort_rank":380,"kind_detail":"primary","min_zoom":8.0},"arcs":[[217],[218]]},{"type":"MultiLineString","properties":{"source":"openstreetmap.org","kind":"major_road","name:en":"Ratchawithi Road","kind_detail":"primary","sort_rank":380,"landuse_kind":"urban_area","min_zoom":8.0},"arcs":[[219],[220],[221],[222],[223]]},{"type":"LineString","properties":{"source":"openstreetmap.org","kind":"ferry","sort_rank":355,"landuse_kind":"urban_area","min_zoom":8.0,"id":29977032},"arcs":[224]},{"type":"MultiLineString","properties":{"source":"openstreetmap.org","kind":"major_road","name:en":"Thai-Japan Bridge","landuse_kind":"urban_area","sort_rank":380,"kind_detail":"primary","min_zoom":8.0},"arcs":[[225],[226]]},{"type":"LineString","properties":{"kind":"ferry","name:en":"Local line (no flag)","network":"Chao Phraya Express Boat","sort_rank":355,"landuse_kind":"urban_area","source":"openstreetmap.org","min_zoom":8.0,"id":-2403873,"osm_relation":true,"name":"\u0e40\u0e23\u0e37\u0e2d\u0e1b\u0e23\u0e30\u0e08\u0e33\u0e17\u0e32\u0e07 (\u0e44\u0e21\u0e48\u0e21\u0e35\u0e18\u0e07)"},"arcs":[227]},{"type":"LineString","properties":{"bus_network":null,"name:en":"Phetchaburi Road","sort_rank":380,"kind_detail":"primary","kind":"major_road","source":"openstreetmap.org","min_zoom":8.0,"bus_shield_text":"545","landuse_kind":"urban_area"},"arcs":[228]},{"type":"LineString","properties":{"kind":"major_road","name:en":"Chakkrawat Road","sort_rank":380,"landuse_kind":"urban_area","source":"openstreetmap.org","min_zoom":8.0,"kind_detail":"primary","id":300803440},"arcs":[229]},{"type":"MultiLineString","properties":{"kind":"major_road","name:en":"Ratchaphruek Road (frontage)","sort_rank":380,"kind_detail":"primary","source":"openstreetmap.org","min_zoom":8.0,"landuse_kind":"urban_area","ref":"\u0e19\u0e1a.3021"},"arcs":[[230],[231],[232],[233],[234],[235],[236]]},{"type":"MultiLineString","properties":{"bus_network":null,"name:en":"Chaeng Watthana Road","sort_rank":380,"kind_detail":"primary","kind":"major_road","source":"openstreetmap.org","min_zoom":8.0,"bus_shield_text":"51","landuse_kind":"urban_area","ref":"304"},"arcs":[[237],[238],[239],[240]]},{"type":"LineString","properties":{"kind":"major_road","name:en":"Sukhumvit Road","sort_rank":380,"kind_detail":"primary","bus_network":null,"source":"openstreetmap.org","min_zoom":8.0,"bus_shield_text":"145","landuse_kind":"urban_area","ref":"3","id":183835339},"arcs":[241]},{"type":"MultiLineString","properties":{"kind":"highway","name:en":"Bangkok-Chonburi Motorway","network":"AsianHighway","sort_rank":383,"landuse_kind":"urban_area","source":"openstreetmap.org","min_zoom":8.0,"all_networks":["AsianHighway","AsianHighway"],"kind_detail":"motorway","shield_text":"19","name:ru":"\u0411\u0430\u043d\u0433\u043a\u043e\u043a\u2014\u0427\u043e\u043d\u0431\u0443\u0440\u0438","ref":"7","all_shield_texts":["19","123"]},"arcs":[[242],[243]]},{"type":"MultiLineString","properties":{"bus_network":null,"name:en":"Vibhavadi Rangsit Road","sort_rank":381,"landuse_kind":"urban_area","kind":"major_road","source":"openstreetmap.org","min_zoom":8.0,"bus_shield_text":"69","kind_detail":"trunk","ref":"31"},"arcs":[[244],[245],[246],[247],[248],[249],[250]]},{"type":"LineString","properties":{"kind":"major_road","name:en":"Sukhumvit Rd","sort_rank":381,"kind_detail":"trunk","source":"openstreetmap.org","min_zoom":8.0,"landuse_kind":"urban_area","ref":"3","id":197881372},"arcs":[251]},{"type":"MultiLineString","properties":{"source":"openstreetmap.org","kind":"highway","name:en":"Don Mueang Tollway","landuse_kind":"urban_area","sort_rank":383,"kind_detail":"motorway","min_zoom":8.0},"arcs":[[252],[253]]},{"type":"LineString","properties":{"kind":"major_road","name:en":"Suk Sawat Road","sort_rank":380,"kind_detail":"primary","source":"openstreetmap.org","min_zoom":8.0,"landuse_kind":"urban_area","ref":"303"},"arcs":[254]},{"type":"LineString","properties":{"kind":"major_road","name:en":"Chonburi Bypass","sort_rank":381,"landuse_kind":"urban_area","source":"openstreetmap.org","min_zoom":8.0,"kind_detail":"trunk","id":176161032},"arcs":[255]},{"type":"MultiLineString","properties":{"kind":"major_road","name:en":"Rama V Bridge","sort_rank":380,"kind_detail":"primary","source":"openstreetmap.org","min_zoom":8.0,"landuse_kind":"urban_area","ref":"\u0e19\u0e1a.1020"},"arcs":[[256],[257]]},{"type":"MultiLineString","properties":{"kind":"major_road","name:en":"Phetkasem Road","network":"AsianHighway","sort_rank":381,"landuse_kind":"urban_area","source":"openstreetmap.org","min_zoom":8.0,"kind_detail":"trunk","shield_text":"2","ref":"4"},"arcs":[[258],[259],[260],[261],[262],[263],[264],[265],[266],[267]]},{"type":"MultiLineString","properties":{"kind":"major_road","name:en":"Prasoet Manukit Road","sort_rank":380,"kind_detail":"primary","source":"openstreetmap.org","min_zoom":8.0,"landuse_kind":"urban_area","ref":"351"},"arcs":[[268],[269],[270],[271],[272],[273]]},{"type":"LineString","properties":{"kind":"major_road","name:en":"Chakphet Road","sort_rank":380,"landuse_kind":"urban_area","source":"openstreetmap.org","min_zoom":8.0,"kind_detail":"primary","id":157690714},"arcs":[274]},{"type":"MultiLineString","properties":{"source":"openstreetmap.org","kind":"major_road","sort_rank":380,"kind_detail":"primary","ref":"332","min_zoom":8.0},"arcs":[[275],[276],[277],[278]]},{"type":"MultiLineString","properties":{"sort_rank":380,"kind_detail":"primary","min_zoom":8.0,"kind":"major_road","source":"openstreetmap.org"},"arcs":[[279],[280],[281],[282],[283],[284]]},{"type":"LineString","properties":{"osm_relation":true,"kind":"ferry","name:en":"Boat: Pratunam => Wat Sriboonreung","network":"NIDA Line","sort_rank":355,"landuse_kind":"urban_area","source":"openstreetmap.org","min_zoom":8.0,"all_networks":["NIDA Line"],"shield_text":"A","id":-3805732,"all_shield_texts":["A"],"name":"Boat: \u0e1b\u0e23\u0e30\u0e15\u0e39\u0e19\u0e49\u0e33 => \u0e27\u0e31\u0e14\u0e28\u0e23\u0e35\u0e1a\u0e38\u0e0d\u0e40\u0e23\u0e37\u0e2d\u0e07"},"arcs":[285]},{"type":"LineString","properties":{"kind":"major_road","name:en":"Rama III Bridge","sort_rank":380,"landuse_kind":"urban_area","source":"openstreetmap.org","min_zoom":8.0,"kind_detail":"primary","id":199388246},"arcs":[286]},{"type":"MultiLineString","properties":{"kind":"major_road","name:en":"Malaiman Road","sort_rank":380,"kind_detail":"primary","source":"openstreetmap.org","min_zoom":8.0,"landuse_kind":"urban_area","ref":"321"},"arcs":[[287],[288],[289],[290],[291],[292]]},{"type":"MultiLineString","properties":{"kind":"major_road","name:en":"Borommaratchachonnani Road","network":"AsianHighway","sort_rank":381,"landuse_kind":"urban_area","source":"openstreetmap.org","min_zoom":8.0,"kind_detail":"trunk","shield_text":"123","ref":"338"},"arcs":[[293],[294]]},{"type":"MultiLineString","properties":{"source":"openstreetmap.org","kind":"major_road","name:en":"Somdet Phra Pin Klao Road","landuse_kind":"urban_area","sort_rank":380,"kind_detail":"primary","min_zoom":8.0},"arcs":[[295],[296]]},{"type":"LineString","properties":{"kind":"major_road","name:en":"Wong Wian Yai Circle","sort_rank":380,"kind_detail":"primary","source":"openstreetmap.org","min_zoom":8.0,"landuse_kind":"urban_area","ref":"225","id":96160800},"arcs":[297]},{"type":"MultiLineString","properties":{"kind":"major_road","name:en":"Phra Nangkao Bridge","network":null,"sort_rank":380,"kind_detail":"primary","source":"openstreetmap.org","min_zoom":8.0,"landuse_kind":"urban_area","shield_text":"302","ref":"302"},"arcs":[[298],[299]]},{"type":"MultiLineString","properties":{"kind":"major_road","name:en":"Phahon Yothin Road","network":"TH-network","sort_rank":380,"kind_detail":"primary","source":"openstreetmap.org","min_zoom":8.0,"landuse_kind":"urban_area","shield_text":"1"},"arcs":[[300],[301]]},{"type":"MultiLineString","properties":{"kind":"highway","alt_name:en":"3rd-stage expressway, S1 section","sort_rank":383,"landuse_kind":"urban_area","source":"openstreetmap.org","min_zoom":8.0,"name:en":"Bang Na - At Narong Expressway","kind_detail":"motorway"},"arcs":[[302],[303]]},{"type":"LineString","properties":{"kind":"major_road","name:en":"Thanon Sukpayoun","sort_rank":380,"kind_detail":"primary","source":"openstreetmap.org","min_zoom":8.0,"landuse_kind":"urban_area","ref":"315","id":103478341},"arcs":[304]},{"type":"MultiLineString","properties":{"source":"openstreetmap.org","kind":"major_road","name:en":"Rama III Road","landuse_kind":"urban_area","sort_rank":380,"kind_detail":"primary","min_zoom":8.0},"arcs":[[305],[306],[307],[308],[309],[310],[311],[312],[313],[314],[315],[316],[317],[318],[319],[320],[321],[322],[323],[324],[325],[326],[327],[328],[329]]},{"type":"MultiLineString","properties":{"source":"openstreetmap.org","kind":"major_road","name:en":"Ramkhamhaeng Road","landuse_kind":"urban_area","sort_rank":380,"kind_detail":"primary","min_zoom":8.0},"arcs":[[330],[331],[332]]},{"type":"LineString","properties":{"source":"openstreetmap.org","kind":"major_road","name:en":"Sukhumvit Road","landuse_kind":"urban_area","sort_rank":380,"kind_detail":"primary","min_zoom":8.0},"arcs":[333]},{"type":"MultiLineString","properties":{"kind":"highway","name:en":"Bangkok-Chonburi Motorway","network":"AsianHighway","sort_rank":383,"kind_detail":"motorway","source":"openstreetmap.org","min_zoom":8.0,"all_networks":["AsianHighway","AsianHighway"],"shield_text":"19","ref":"7","all_shield_texts":["19","123"]},"arcs":[[334],[335]]},{"type":"LineString","properties":{"source":"openstreetmap.org","kind":"ferry","name":"Pattaya - Ko Lan (Na Baan Pier)","sort_rank":355,"min_zoom":8.0,"id":243458719},"arcs":[336]},{"type":"MultiLineString","properties":{"bus_network":null,"name:en":"Charan Sanitwong Road","sort_rank":380,"kind_detail":"primary","kind":"major_road","source":"openstreetmap.org","min_zoom":8.0,"bus_shield_text":"42","landuse_kind":"urban_area"},"arcs":[[337],[338]]},{"type":"LineString","properties":{"kind":"major_road","name:en":"Charan Sanitwong Road","sort_rank":380,"kind_detail":"primary","bus_network":null,"source":"openstreetmap.org","min_zoom":8.0,"bus_shield_text":"110","landuse_kind":"urban_area","id":162647367},"arcs":[339]},{"type":"LineString","properties":{"kind":"major_road","name:en":"Nawamin Road","sort_rank":380,"landuse_kind":"urban_area","source":"openstreetmap.org","min_zoom":8.0,"kind_detail":"primary","id":300803456},"arcs":[340]},{"type":"MultiLineString","properties":{"kind":"major_road","name:en":"Phetkasem Road","sort_rank":381,"landuse_kind":"urban_area","source":"openstreetmap.org","min_zoom":8.0,"kind_detail":"trunk","ref":"4"},"arcs":[[341],[342],[343],[344],[345],[346],[347],[348]]},{"type":"LineString","properties":{"kind":"major_road","sort_rank":380,"kind_detail":"primary","bus_network":null,"source":"openstreetmap.org","min_zoom":8.0,"bus_shield_text":"68","landuse_kind":"urban_area","id":32809639},"arcs":[349]},{"type":"LineString","properties":{"bus_network":null,"name:en":"Chakkrawat Road","sort_rank":380,"kind_detail":"primary","kind":"major_road","source":"openstreetmap.org","min_zoom":8.0,"bus_shield_text":"8","landuse_kind":"urban_area"},"arcs":[350]},{"type":"LineString","properties":{"kind":"highway","name:en":"Pattaya-ChonBuri","network":"AsianHighway","sort_rank":383,"kind_detail":"motorway","source":"openstreetmap.org","min_zoom":8.0,"all_networks":["AsianHighway"],"shield_text":"19","ref":"7","id":82395137,"all_shield_texts":["19"]},"arcs":[351]},{"type":"MultiLineString","properties":{"kind":"highway","name:en":"Kanchanaphisek Road (south)","sort_rank":383,"landuse_kind":"urban_area","source":"openstreetmap.org","min_zoom":8.0,"alt_name:en":"Southern Outer Ring Road","kind_detail":"motorway","alt_name:th":"\u0e16\u0e19\u0e19\u0e27\u0e07\u0e41\u0e2b\u0e27\u0e19\u0e23\u0e2d\u0e1a\u0e19\u0e2d\u0e01\u0e14\u0e49\u0e32\u0e19\u0e43\u0e15\u0e49","ref":"9"},"arcs":[[352],[353],[354],[355]]},{"type":"MultiLineString","properties":{"bus_network":null,"name:en":"Charan Sanitwong Road","sort_rank":380,"kind_detail":"primary","kind":"major_road","source":"openstreetmap.org","min_zoom":8.0,"bus_shield_text":"203","landuse_kind":"urban_area"},"arcs":[[356],[357]]},{"type":"MultiLineString","properties":{"bus_network":null,"name:en":"Chakkraphatdiphong Road","sort_rank":380,"kind_detail":"primary","kind":"major_road","source":"openstreetmap.org","min_zoom":8.0,"bus_shield_text":"8","landuse_kind":"urban_area"},"arcs":[[358],[359]]},{"type":"MultiLineString","properties":{"kind":"major_road","name:en":"Rattanathibet Road","network":null,"sort_rank":380,"kind_detail":"primary","source":"openstreetmap.org","min_zoom":8.0,"landuse_kind":"urban_area","shield_text":"302","ref":"302"},"arcs":[[360],[361],[362],[363],[364],[365],[366],[367],[368],[369],[370],[371],[372],[373],[374],[375],[376],[377],[378],[379],[380],[381],[382],[383],[384],[385],[386],[387],[388]]},{"type":"LineString","properties":{"kind":"major_road","name:en":"Ratchadamnoen Klang Road","sort_rank":380,"kind_detail":"primary","bus_network":null,"source":"openstreetmap.org","min_zoom":8.0,"bus_shield_text":"12","landuse_kind":"urban_area","id":24681047},"arcs":[389]},{"type":"LineString","properties":{"bus_network":null,"name:en":"Victory Monument Circle","sort_rank":380,"kind_detail":"primary","kind":"major_road","source":"openstreetmap.org","min_zoom":8.0,"bus_shield_text":"8","landuse_kind":"urban_area"},"arcs":[390]},{"type":"MultiLineString","properties":{"source":"openstreetmap.org","kind":"major_road","kind_detail":"trunk","sort_rank":381,"landuse_kind":"urban_area","ref":"344","min_zoom":8.0},"arcs":[[391],[392]]},{"type":"MultiLineString","properties":{"bus_network":null,"name:en":"Rattanathibet Road","network":null,"sort_rank":380,"kind_detail":"primary","kind":"major_road","source":"openstreetmap.org","min_zoom":8.0,"bus_shield_text":"1053","shield_text":"302","landuse_kind":"urban_area","ref":"302"},"arcs":[[393],[394]]},{"type":"LineString","properties":{"kind":"ferry","name:en":"Boat: Wat Sriboonreung => Pratunam","name":"Boat: \u0e27\u0e31\u0e14\u0e28\u0e23\u0e35\u0e1a\u0e38\u0e0d\u0e40\u0e23\u0e37\u0e2d\u0e07 => \u0e1b\u0e23\u0e30\u0e15\u0e39\u0e19\u0e49\u0e33","sort_rank":355,"landuse_kind":"urban_area","source":"openstreetmap.org","min_zoom":8.0,"ref":"NIDA","id":-3805733,"osm_relation":true},"arcs":[395]},{"type":"LineString","properties":{"kind":"major_road","name:en":"Sukhumvit Road","sort_rank":380,"kind_detail":"primary","bus_network":"BMTA","source":"openstreetmap.org","min_zoom":8.0,"bus_shield_text":"23","landuse_kind":"urban_area"},"arcs":[396]},{"type":"LineString","properties":{"kind":"ferry","name:en":"Chao Phraya Tourist Boat","name":"\u0e40\u0e23\u0e37\u0e2d\u0e17\u0e48\u0e2d\u0e07\u0e40\u0e17\u0e35\u0e48\u0e22\u0e27\u0e40\u0e08\u0e49\u0e32\u0e1e\u0e23\u0e30\u0e22\u0e32","sort_rank":355,"landuse_kind":"urban_area","source":"openstreetmap.org","min_zoom":8.0,"id":-2403871,"osm_relation":true},"arcs":[397]},{"type":"LineString","properties":{"kind":"major_road","name:en":"Phitsanulok Road","sort_rank":380,"landuse_kind":"urban_area","source":"openstreetmap.org","min_zoom":8.0,"kind_detail":"primary","id":364700044},"arcs":[398]},{"type":"LineString","properties":{"bus_network":null,"name:en":"Lan Luang Road","sort_rank":380,"kind_detail":"primary","kind":"major_road","source":"openstreetmap.org","min_zoom":8.0,"bus_shield_text":"8","landuse_kind":"urban_area"},"arcs":[399]},{"type":"MultiLineString","properties":{"source":"openstreetmap.org","kind":"major_road","landuse_kind":"urban_area","sort_rank":380,"kind_detail":"primary","ref":"349","min_zoom":8.0},"arcs":[[400],[401]]},{"type":"MultiLineString","properties":{"bus_network":null,"name:en":"Somdet Phra Pin Klao Bridge","network":"AsianHighway","sort_rank":380,"kind_detail":"primary","kind":"major_road","source":"openstreetmap.org","min_zoom":8.0,"bus_shield_text":"30","shield_text":"123","landuse_kind":"urban_area"},"arcs":[[402],[403]]},{"type":"MultiLineString","properties":{"kind":"major_road","name:en":"Borommaratchachonnani Elevated Highway","sort_rank":381,"landuse_kind":"urban_area","source":"openstreetmap.org","min_zoom":8.0,"kind_detail":"trunk","ref":"338"},"arcs":[[404],[405]]},{"type":"MultiLineString","properties":{"bus_network":null,"name:en":"Phitsanulok Road","sort_rank":380,"kind_detail":"primary","kind":"major_road","source":"openstreetmap.org","min_zoom":8.0,"bus_shield_text":"16","landuse_kind":"urban_area"},"arcs":[[406],[407],[408]]},{"type":"LineString","properties":{"kind":"major_road","sort_rank":381,"kind_detail":"trunk","bus_network":null,"source":"openstreetmap.org","min_zoom":8.0,"bus_shield_text":"16","landuse_kind":"urban_area","id":32024977},"arcs":[409]},{"type":"LineString","properties":{"bus_network":null,"name:en":"Phatthanakan Road","sort_rank":380,"kind_detail":"primary","kind":"major_road","source":"openstreetmap.org","min_zoom":8.0,"bus_shield_text":"133","landuse_kind":"urban_area"},"arcs":[410]},{"type":"LineString","properties":{"source":"openstreetmap.org","kind":"ferry","name":"Pattaya - Na Baan","sort_rank":355,"min_zoom":8.0,"id":239040214},"arcs":[411]},{"type":"LineString","properties":{"bus_network":null,"name:en":"Phloen Chit Road","sort_rank":380,"kind_detail":"primary","kind":"major_road","source":"openstreetmap.org","min_zoom":8.0,"bus_shield_text":"48","landuse_kind":"urban_area"},"arcs":[412]},{"type":"MultiLineString","properties":{"kind":"highway","name:en":"ChonBuri-Pattaya","network":"AsianHighway","sort_rank":383,"landuse_kind":"urban_area","source":"openstreetmap.org","min_zoom":8.0,"all_networks":["AsianHighway","AsianHighway"],"kind_detail":"motorway","shield_text":"19","ref":"7","all_shield_texts":["19","123"]},"arcs":[[413],[414]]},{"type":"MultiLineString","properties":{"kind":"major_road","name:en":"Ramkhamhaeng Road","sort_rank":380,"kind_detail":"primary","bus_network":"BMTA","source":"openstreetmap.org","min_zoom":8.0,"bus_shield_text":"207","landuse_kind":"urban_area"},"arcs":[[415],[416]]},{"type":"MultiLineString","properties":{"bus_network":null,"name:en":"Somdet Phra Pin Klao Road","sort_rank":380,"kind_detail":"primary","kind":"major_road","source":"openstreetmap.org","min_zoom":8.0,"bus_shield_text":"30","landuse_kind":"urban_area"},"arcs":[[417],[418]]},{"type":"MultiLineString","properties":{"bus_network":null,"name:en":"Phetchaburi Road","sort_rank":380,"kind_detail":"primary","kind":"major_road","source":"openstreetmap.org","min_zoom":8.0,"bus_shield_text":"16","landuse_kind":"urban_area"},"arcs":[[419],[420],[421],[422],[423]]},{"type":"LineString","properties":{"kind":"major_road","network":null,"sort_rank":380,"kind_detail":"primary","bus_network":null,"source":"openstreetmap.org","min_zoom":8.0,"bus_shield_text":"1053","shield_text":"302","landuse_kind":"urban_area","id":94669403},"arcs":[424]},{"type":"LineString","properties":{"bus_network":null,"name:en":"Srinagarindra Road","sort_rank":380,"kind_detail":"primary","kind":"major_road","source":"openstreetmap.org","min_zoom":8.0,"alt_name:en":"Si Nakharin Road;Sinakharin Road;Srinakarin Road;Sinakarin Road","bus_shield_text":"145","landuse_kind":"urban_area"},"arcs":[425]},{"type":"MultiLineString","properties":{"bus_network":null,"name:en":"Nawamin Road","sort_rank":380,"kind_detail":"primary","kind":"major_road","source":"openstreetmap.org","min_zoom":8.0,"bus_shield_text":"150","landuse_kind":"urban_area"},"arcs":[[426],[427]]},{"type":"LineString","properties":{"kind":"major_road","name:en":"Thanon Borommaratchachonnani","network":"AsianHighway","sort_rank":381,"kind_detail":"trunk","source":"openstreetmap.org","min_zoom":8.0,"landuse_kind":"urban_area","shield_text":"2","ref":"338","id":106057610},"arcs":[428]},{"type":"MultiLineString","properties":{"kind":"major_road","alt_name:en":"Western Outer Ring Road","network":"AsianHighway","sort_rank":381,"landuse_kind":"urban_area","source":"openstreetmap.org","min_zoom":8.0,"name:en":"Kanchanaphisek Road (west)","kind_detail":"trunk","shield_text":"2","ref":"9"},"arcs":[[429],[430],[431],[432]]},{"type":"MultiLineString","properties":{"bus_network":null,"name:en":"Asok - Dindaeng Road","sort_rank":380,"kind_detail":"primary","kind":"major_road","source":"openstreetmap.org","min_zoom":8.0,"bus_shield_text":"12","landuse_kind":"urban_area"},"arcs":[[433],[434]]},{"type":"MultiLineString","properties":{"source":"openstreetmap.org","kind":"major_road","name:en":"Suwinthawong Road","sort_rank":381,"kind_detail":"trunk","ref":"304","min_zoom":8.0},"arcs":[[435],[436]]},{"type":"MultiLineString","properties":{"kind":"highway","name:en":"Bangkok-Chonburi Motorway","network":"AsianHighway","sort_rank":383,"landuse_kind":"urban_area","source":"openstreetmap.org","min_zoom":8.0,"all_networks":["AsianHighway"],"kind_detail":"motorway","shield_text":"123","ref":"7","all_shield_texts":["123"]},"arcs":[[437],[438]]},{"type":"LineString","properties":{"bus_network":null,"name:en":"Democracy Monument Circle","sort_rank":380,"kind_detail":"primary","kind":"major_road","source":"openstreetmap.org","min_zoom":8.0,"bus_shield_text":"9","landuse_kind":"urban_area"},"arcs":[439]},{"type":"MultiLineString","properties":{"bus_network":null,"name:en":"Rama IV Road","sort_rank":380,"landuse_kind":"urban_area","kind":"major_road","source":"openstreetmap.org","min_zoom":8.0,"bus_shield_text":"\u0e15.27","name:ru":"\u0443\u043b\u0438\u0446\u0430 \u0420\u0430\u043c\u044b IV","kind_detail":"primary"},"arcs":[[440],[441],[442],[443],[444],[445]]},{"type":"MultiLineString","properties":{"source":"openstreetmap.org","kind":"major_road","name:en":"Phetchaburi Road","landuse_kind":"urban_area","sort_rank":380,"kind_detail":"primary","min_zoom":8.0},"arcs":[[446],[447],[448],[449],[450],[451],[452],[453],[454],[455],[456],[457]]},{"type":"MultiLineString","properties":{"source":"openstreetmap.org","kind":"major_road","name:en":"Rama VII Bridge","landuse_kind":"urban_area","sort_rank":380,"kind_detail":"primary","min_zoom":8.0},"arcs":[[458],[459]]},{"type":"MultiLineString","properties":{"bus_network":null,"name:en":"Chaeng Watthana Road","sort_rank":380,"kind_detail":"primary","kind":"major_road","source":"openstreetmap.org","min_zoom":8.0,"bus_shield_text":"\u0e15.27","landuse_kind":"urban_area","ref":"304"},"arcs":[[460],[461]]},{"type":"MultiLineString","properties":{"bus_network":"BRT","name:en":"Ratchadaphisek Road","sort_rank":380,"landuse_kind":"urban_area","kind":"major_road","source":"openstreetmap.org","min_zoom":8.0,"bus_shield_text":null,"kind_detail":"primary"},"arcs":[[462],[463]]},{"type":"LineString","properties":{"kind":"major_road","name:en":"Suk Sawat Road","sort_rank":380,"kind_detail":"primary","name:th":"\u0e16\u0e19\u0e19\u0e2a\u0e38\u0e02\u0e2a\u0e27\u0e31\u0e2a\u0e14\u0e34\u0e4c","source":"openstreetmap.org","min_zoom":8.0,"landuse_kind":"urban_area","id":97698654},"arcs":[464]},{"type":"MultiLineString","properties":{"source":"openstreetmap.org","kind":"major_road","name:en":"Rama I Road","landuse_kind":"urban_area","sort_rank":380,"kind_detail":"primary","min_zoom":8.0},"arcs":[[465],[466]]},{"type":"LineString","properties":{"source":"openstreetmap.org","kind":"ferry","name":"Saphan Taksin-Asiatique the Riverfront","sort_rank":355,"landuse_kind":"urban_area","min_zoom":8.0,"id":199930760},"arcs":[467]},{"type":"MultiLineString","properties":{"bus_network":null,"name:en":"Vibhavadi Rangsit Road","sort_rank":381,"landuse_kind":"urban_area","kind":"major_road","source":"openstreetmap.org","min_zoom":8.0,"bus_shield_text":"16","kind_detail":"trunk","ref":"31"},"arcs":[[468],[469],[470]]},{"type":"LineString","properties":{"source":"openstreetmap.org","kind":"ferry","name":"Pattaya - Ko Lan","sort_rank":355,"min_zoom":8.0,"id":172886790},"arcs":[471]},{"type":"MultiLineString","properties":{"source":"openstreetmap.org","kind":"highway","landuse_kind":"urban_area","sort_rank":383,"kind_detail":"motorway","ref":"7","min_zoom":8.0},"arcs":[[472],[473]]},{"type":"MultiLineString","properties":{"kind":"major_road","name:en":"Ram Inthra Road","sort_rank":380,"kind_detail":"primary","source":"openstreetmap.org","min_zoom":8.0,"alt_name:en":"Ramindra Road","landuse_kind":"urban_area","ref":"304"},"arcs":[[474],[475],[476],[477],[478],[479],[480],[481],[482],[483],[484],[485]]},{"type":"MultiLineString","properties":{"source":"openstreetmap.org","kind":"major_road","name:en":"Borommaratchachonnani Elevated Highway","kind_detail":"trunk","sort_rank":381,"landuse_kind":"urban_area","min_zoom":8.0},"arcs":[[486],[487],[488],[489]]},{"type":"MultiLineString","properties":{"kind":"major_road","network":null,"sort_rank":381,"landuse_kind":"urban_area","source":"openstreetmap.org","min_zoom":8.0,"kind_detail":"trunk","shield_text":"36","ref":"36"},"arcs":[[490],[491]]},{"type":"MultiLineString","properties":{"bus_network":null,"name:en":"Ngam Wong Wan Road","network":null,"sort_rank":380,"kind_detail":"primary","kind":"major_road","source":"openstreetmap.org","min_zoom":8.0,"bus_shield_text":"51","shield_text":"302","landuse_kind":"urban_area","ref":"302"},"arcs":[[492],[493],[494],[495],[496],[497]]},{"type":"MultiLineString","properties":{"kind":"major_road","name:en":"Mahaisawan Road","sort_rank":380,"kind_detail":"primary","source":"openstreetmap.org","min_zoom":8.0,"alt_name:en":"Ratchadaphisek Road","landuse_kind":"urban_area"},"arcs":[[498],[499]]},{"type":"MultiLineString","properties":{"bus_network":null,"name:en":"Ratchawithi Road","sort_rank":380,"kind_detail":"primary","kind":"major_road","source":"openstreetmap.org","min_zoom":8.0,"bus_shield_text":"28","landuse_kind":"urban_area"},"arcs":[[500],[501]]},{"type":"MultiLineString","properties":{"source":"openstreetmap.org","kind":"major_road","name:en":"Phloen Chit Road","landuse_kind":"urban_area","sort_rank":380,"kind_detail":"primary","min_zoom":8.0},"arcs":[[502],[503]]},{"type":"LineString","properties":{"kind":"major_road","name:en":"Srinagarindra Road","sort_rank":380,"kind_detail":"primary","bus_network":"BMTA","source":"openstreetmap.org","min_zoom":8.0,"alt_name:en":"Si Nakharin Road;Sinakharin Road;Srinakarin Road;Sinakarin Road","bus_shield_text":"207","landuse_kind":"urban_area"},"arcs":[504]},{"type":"MultiLineString","properties":{"bus_network":null,"name:en":"Si Ayutthaya Road","sort_rank":380,"kind_detail":"primary","kind":"major_road","source":"openstreetmap.org","min_zoom":8.0,"bus_shield_text":"8","landuse_kind":"urban_area"},"arcs":[[505],[506]]},{"type":"MultiLineString","properties":{"kind":"highway","network":"AsianHighway","sort_rank":383,"landuse_kind":"urban_area","source":"openstreetmap.org","min_zoom":8.0,"all_networks":["AsianHighway","AsianHighway"],"kind_detail":"motorway","shield_text":"19","ref":"7","all_shield_texts":["19","123"]},"arcs":[[507],[508]]},{"type":"MultiLineString","properties":{"kind":"major_road","name:en":"Thanon Vibhavadi Rangsit","sort_rank":381,"landuse_kind":"urban_area","source":"openstreetmap.org","min_zoom":8.0,"kind_detail":"trunk","ref":"31"},"arcs":[[509],[510]]},{"type":"MultiLineString","properties":{"source":"openstreetmap.org","kind":"major_road","name:en":"Ratchaphruek Road (frontage)","sort_rank":380,"kind_detail":"primary","ref":"\u0e19\u0e1a.3021","min_zoom":8.0},"arcs":[[511],[512],[513],[514],[515],[516]]},{"type":"MultiLineString","properties":{"kind":"major_road","name:en":"Bang Na - Trat Road","sort_rank":381,"landuse_kind":"urban_area","source":"openstreetmap.org","min_zoom":8.0,"kind_detail":"trunk","ref":"34"},"arcs":[[517],[518]]},{"type":"MultiLineString","properties":{"source":"openstreetmap.org","kind":"major_road","name:en":"Naowachamnian Bridge","landuse_kind":"urban_area","sort_rank":380,"kind_detail":"primary","min_zoom":8.0},"arcs":[[519],[520]]},{"type":"MultiLineString","properties":{"kind":"major_road","name:en":"Sukhumvit Road","sort_rank":380,"kind_detail":"primary","source":"openstreetmap.org","min_zoom":8.0,"landuse_kind":"urban_area","ref":"3"},"arcs":[[521],[522],[523],[524],[525],[526],[527],[528]]},{"type":"LineString","properties":{"kind":"major_road","name:en":"Phahon Yothin Road","network":"TH-network","sort_rank":380,"kind_detail":"primary","bus_network":"BMTA","source":"openstreetmap.org","min_zoom":8.0,"bus_shield_text":"522","shield_text":"1","landuse_kind":"urban_area","ref":"1","id":155900634},"arcs":[529]},{"type":"LineString","properties":{"kind":"major_road","name:en":"Lad Phrao","sort_rank":380,"kind_detail":"primary","bus_network":null,"source":"openstreetmap.org","min_zoom":8.0,"bus_shield_text":"8","landuse_kind":"urban_area","id":157690700},"arcs":[530]},{"type":"MultiLineString","properties":{"kind":"highway","name:en":"ChonBuri-Pattaya","network":"AsianHighway","sort_rank":383,"kind_detail":"motorway","source":"openstreetmap.org","min_zoom":8.0,"all_networks":["AsianHighway","AsianHighway"],"shield_text":"19","ref":"7","all_shield_texts":["19","123"]},"arcs":[[531],[532]]},{"type":"MultiLineString","properties":{"source":"openstreetmap.org","kind":"major_road","sort_rank":381,"kind_detail":"trunk","ref":"365","min_zoom":8.0},"arcs":[[533],[534],[535],[536]]},{"type":"MultiLineString","properties":{"kind":"major_road","name:en":"Sukhumvit Road","sort_rank":381,"kind_detail":"trunk","source":"openstreetmap.org","min_zoom":8.0,"name:ru":"\u0443\u043b\u0438\u0446\u0430 \u0421\u0443\u043a\u0445\u0443\u043c\u0432\u0438\u0442","ref":"3"},"arcs":[[537],[538]]},{"type":"LineString","properties":{"kind":"major_road","sort_rank":380,"kind_detail":"primary","bus_network":null,"source":"openstreetmap.org","min_zoom":8.0,"bus_shield_text":"30","landuse_kind":"urban_area","id":162213987},"arcs":[539]},{"type":"LineString","properties":{"source":"openstreetmap.org","kind":"major_road","name:en":"Maha Chai Road","landuse_kind":"urban_area","sort_rank":380,"kind_detail":"primary","min_zoom":8.0},"arcs":[540]},{"type":"MultiLineString","properties":{"source":"openstreetmap.org","kind":"highway","kind_detail":"motorway","sort_rank":383,"landuse_kind":"aerodrome","min_zoom":8.0},"arcs":[[541],[542]]},{"type":"MultiLineString","properties":{"kind":"major_road","alt_name:en":"Ratchadaphisek Road","sort_rank":380,"kind_detail":"primary","source":"openstreetmap.org","min_zoom":8.0,"name:en":"Wong Sawang Road","landuse_kind":"urban_area","alt_name:th":"\u0e16\u0e19\u0e19\u0e23\u0e31\u0e0a\u0e14\u0e32\u0e20\u0e34\u0e40\u0e29\u0e01"},"arcs":[[543],[544],[545],[546]]},{"type":"MultiLineString","properties":{"bus_network":null,"name:en":"Lat Phrao Road","sort_rank":380,"kind_detail":"primary","kind":"major_road","source":"openstreetmap.org","min_zoom":8.0,"bus_shield_text":"8","landuse_kind":"urban_area"},"arcs":[[547],[548],[549]]},{"type":"MultiLineString","properties":{"source":"openstreetmap.org","kind":"major_road","name:en":"Si Ayutthaya Road","landuse_kind":"urban_area","sort_rank":380,"kind_detail":"primary","min_zoom":8.0},"arcs":[[550],[551],[552],[553],[554],[555],[556],[557],[558],[559],[560],[561],[562],[563],[564],[565],[566],[567],[568],[569],[570]]},{"type":"MultiLineString","properties":{"kind":"major_road","name:en":"Bypass Road","network":"AsianHighway","sort_rank":381,"kind_detail":"trunk","source":"openstreetmap.org","min_zoom":8.0,"shield_text":"2","alt_name:th":"\u0e16\u0e19\u0e19\u0e1a\u0e32\u0e22\u0e1e\u0e32\u0e2a","ref":"37"},"arcs":[[571],[572],[573],[574]]},{"type":"MultiLineString","properties":{"kind":"major_road","name:en":"Nakhon In Road","sort_rank":380,"kind_detail":"primary","source":"openstreetmap.org","min_zoom":8.0,"landuse_kind":"urban_area","ref":"\u0e19\u0e1a.1020"},"arcs":[[575],[576],[577],[578],[579],[580]]},{"type":"MultiLineString","properties":{"kind":"major_road","name:en":"Phetkasem Road","network":"TH-network","sort_rank":380,"kind_detail":"primary","source":"openstreetmap.org","min_zoom":8.0,"shield_text":"4","ref":"4"},"arcs":[[581],[582]]},{"type":"MultiLineString","properties":{"kind":"highway","name:en":"Buraphawithi Expressway","sort_rank":383,"landuse_kind":"urban_area","source":"openstreetmap.org","min_zoom":8.0,"alt_name:en":"Bang Na - Chonburi Expressway","kind_detail":"motorway"},"arcs":[[583],[584],[585],[586],[587]]},{"type":"LineString","properties":{"source":"openstreetmap.org","kind":"ferry","name":"Jomtien - Ko Lan","sort_rank":355,"min_zoom":8.0,"id":239179186},"arcs":[588]},{"type":"MultiLineString","properties":{"bus_network":null,"name:en":"Lat Phrao Road","sort_rank":380,"kind_detail":"primary","kind":"major_road","source":"openstreetmap.org","min_zoom":8.0,"bus_shield_text":"150","landuse_kind":"urban_area"},"arcs":[[589],[590]]},{"type":"MultiLineString","properties":{"kind":"major_road","network":"AsianHighway","sort_rank":381,"kind_detail":"trunk","source":"openstreetmap.org","min_zoom":8.0,"shield_text":"123","ref":"36"},"arcs":[[591],[592],[593],[594],[595],[596]]},{"type":"MultiLineString","properties":{"source":"openstreetmap.org","kind":"major_road","kind_detail":"trunk","sort_rank":381,"landuse_kind":"urban_area","ref":"365","min_zoom":8.0},"arcs":[[597],[598],[599],[600]]},{"type":"LineString","properties":{"kind":"major_road","name:en":"Krung Thon Bridge","sort_rank":380,"kind_detail":"primary","source":"openstreetmap.org","min_zoom":8.0,"landuse_kind":"urban_area","alt_name:th":"\u0e2a\u0e30\u0e1e\u0e32\u0e19\u0e0b\u0e31\u0e07\u0e2e\u0e35\u0e49","id":28510028},"arcs":[601]},{"type":"LineString","properties":{"kind":"major_road","name:en":"Srinagarindra Road","sort_rank":380,"kind_detail":"primary","bus_network":"BMTA","source":"openstreetmap.org","min_zoom":8.0,"alt_name:en":"Si Nakharin Road;Sinakharin Road;Srinakarin Road;Sinakarin Road","bus_shield_text":"207","landuse_kind":"urban_area","ref":"3344","id":253221907},"arcs":[602]},{"type":"MultiLineString","properties":{"kind":"major_road","network":"AsianHighway","sort_rank":380,"kind_detail":"primary","source":"openstreetmap.org","min_zoom":8.0,"landuse_kind":"urban_area","shield_text":"123","ref":"323"},"arcs":[[603],[604],[605],[606],[607]]},{"type":"MultiLineString","properties":{"source":"openstreetmap.org","kind":"highway","name:en":"Kanchanaphisek Bridge","landuse_kind":"urban_area","sort_rank":383,"kind_detail":"motorway","min_zoom":8.0},"arcs":[[608],[609]]},{"type":"LineString","properties":{"kind":"major_road","name:en":"Bang Na - Trat Road","sort_rank":381,"kind_detail":"trunk","bus_network":null,"source":"openstreetmap.org","min_zoom":8.0,"bus_shield_text":"48","landuse_kind":"urban_area","ref":"34","id":183769809},"arcs":[610]},{"type":"LineString","properties":{"kind":"major_road","name:en":"Ratchadamnoen Klang Road","sort_rank":380,"kind_detail":"primary","bus_network":null,"source":"openstreetmap.org","min_zoom":8.0,"alt_name:en":"Thanon Ratchadamnoen Klang","bus_shield_text":"2","landuse_kind":"urban_area","id":134010893},"arcs":[611]},{"type":"LineString","properties":{"kind":"major_road","name:en":"Phahon Yothin Road","network":"TH-network","sort_rank":380,"kind_detail":"primary","bus_network":"BMTA","source":"openstreetmap.org","min_zoom":8.0,"bus_shield_text":"188","shield_text":"1","landuse_kind":"urban_area","id":185562811},"arcs":[612]},{"type":"MultiLineString","properties":{"bus_network":null,"name:en":"Phahon Yothin Road","network":"TH-network","sort_rank":380,"kind_detail":"primary","kind":"major_road","source":"openstreetmap.org","min_zoom":8.0,"bus_shield_text":"8","shield_text":"1","landuse_kind":"urban_area"},"arcs":[[613],[614],[615],[616],[617]]},{"type":"MultiLineString","properties":{"kind":"highway","name:en":"Kanchanaphisek Road (east)","network":"AsianHighway","sort_rank":383,"landuse_kind":"urban_area","source":"openstreetmap.org","min_zoom":8.0,"alt_name:en":"Eastern Outer Ring Road","all_networks":["AsianHighway"],"kind_detail":"motorway","shield_text":"19","ref":"9","all_shield_texts":["19"]},"arcs":[[618],[619],[620],[621]]},{"type":"MultiLineString","properties":{"kind":"highway","name:en":"Pattaya-ChonBuri","network":"AsianHighway","sort_rank":383,"kind_detail":"motorway","source":"openstreetmap.org","min_zoom":8.0,"all_networks":["AsianHighway","AsianHighway"],"shield_text":"19","ref":"7","all_shield_texts":["19","123"]},"arcs":[[622],[623]]},{"type":"LineString","properties":{"kind":"major_road","name:en":"ChonBuri-Pattaya","sort_rank":381,"kind_detail":"trunk","source":"openstreetmap.org","min_zoom":8.0,"landuse_kind":"urban_area","ref":"7","id":83872098},"arcs":[624]},{"type":"LineString","properties":{"kind":"major_road","sort_rank":380,"kind_detail":"primary","bus_network":null,"source":"openstreetmap.org","min_zoom":8.0,"bus_shield_text":"50","landuse_kind":"urban_area","id":509300709},"arcs":[625]},{"type":"MultiLineString","properties":{"kind":"major_road","name:en":"Rama II Road","sort_rank":381,"landuse_kind":"urban_area","source":"openstreetmap.org","min_zoom":8.0,"kind_detail":"trunk","ref":"35"},"arcs":[[626],[627],[628],[629]]},{"type":"LineString","properties":{"source":"openstreetmap.org","kind":"ferry","name":"Ko Lan - Ko Phai","sort_rank":355,"min_zoom":8.0,"id":239179187},"arcs":[630]},{"type":"MultiLineString","properties":{"source":"openstreetmap.org","kind":"major_road","landuse_kind":"urban_area","sort_rank":380,"kind_detail":"primary","ref":"314","min_zoom":8.0},"arcs":[[631],[632]]},{"type":"MultiLineString","properties":{"bus_network":null,"name:en":"Ratchawithi Road","sort_rank":380,"kind_detail":"primary","kind":"major_road","source":"openstreetmap.org","min_zoom":8.0,"bus_shield_text":"12","landuse_kind":"urban_area"},"arcs":[[633],[634],[635],[636],[637]]},{"type":"MultiLineString","properties":{"source":"openstreetmap.org","kind":"major_road","name:en":"Charoen Nakhon Road","landuse_kind":"urban_area","sort_rank":380,"kind_detail":"primary","min_zoom":8.0},"arcs":[[638],[639],[640],[641],[642]]},{"type":"MultiLineString","properties":{"source":"openstreetmap.org","kind":"major_road","name:en":"Krung Thonburi Road","landuse_kind":"urban_area","sort_rank":380,"kind_detail":"primary","min_zoom":8.0},"arcs":[[643],[644],[645],[646],[647]]},{"type":"MultiLineString","properties":{"kind":"highway","name:en":"Bangkok-Chonburi Motorway","network":"AsianHighway","sort_rank":383,"landuse_kind":"urban_area","source":"openstreetmap.org","min_zoom":8.0,"all_networks":["AsianHighway","AsianHighway"],"kind_detail":"motorway","shield_text":"19","ref":"7","all_shield_texts":["19","123"]},"arcs":[[648],[649],[650],[651]]},{"type":"MultiLineString","properties":{"kind":"major_road","network":"AsianHighway","sort_rank":380,"kind_detail":"primary","source":"openstreetmap.org","min_zoom":8.0,"landuse_kind":"urban_area","shield_text":"123"},"arcs":[[652],[653]]},{"type":"MultiLineString","properties":{"kind":"highway","alt_name:en":"Bang Phli - Suksawat Expressway","sort_rank":383,"landuse_kind":"urban_area","source":"openstreetmap.org","min_zoom":8.0,"name:en":"Kanchanapisek Expressway","kind_detail":"motorway"},"arcs":[[654],[655],[656],[657],[658],[659],[660],[661]]},{"type":"LineString","properties":{"kind":"major_road","name:en":"Thanon Borommaratchachonnani","sort_rank":381,"kind_detail":"trunk","source":"openstreetmap.org","min_zoom":8.0,"landuse_kind":"urban_area","ref":"338","id":98262522},"arcs":[662]},{"type":"LineString","properties":{"kind":"major_road","sort_rank":380,"kind_detail":"primary","bus_network":null,"source":"openstreetmap.org","min_zoom":8.0,"bus_shield_text":"1053","id":141204727},"arcs":[663]},{"type":"MultiLineString","properties":{"source":"openstreetmap.org","kind":"major_road","name:en":"Makkhawan Rangsan Bridge","landuse_kind":"urban_area","sort_rank":380,"kind_detail":"primary","min_zoom":8.0},"arcs":[[664],[665],[666]]},{"type":"MultiLineString","properties":{"source":"openstreetmap.org","kind":"major_road","name:en":"Chaiyaphruek Road","sort_rank":380,"kind_detail":"primary","ref":"\u0e19\u0e1a.3030","min_zoom":8.0},"arcs":[[667],[668],[669],[670]]},{"type":"MultiLineString","properties":{"kind":"major_road","network":"AsianHighway","sort_rank":380,"kind_detail":"primary","source":"openstreetmap.org","min_zoom":8.0,"landuse_kind":"urban_area","shield_text":"19","ref":"331"},"arcs":[[671],[672]]},{"type":"MultiLineString","properties":{"kind":"major_road","network":null,"sort_rank":380,"kind_detail":"primary","source":"openstreetmap.org","min_zoom":8.0,"landuse_kind":"urban_area","shield_text":"302"},"arcs":[[673],[674]]},{"type":"MultiLineString","properties":{"kind":"major_road","network":null,"sort_rank":381,"landuse_kind":"urban_area","source":"openstreetmap.org","min_zoom":8.0,"kind_detail":"trunk","shield_text":"331","ref":"331"},"arcs":[[675],[676]]},{"type":"MultiLineString","properties":{"bus_network":null,"name:en":"Ramkhamhaeng Road","sort_rank":380,"kind_detail":"primary","kind":"major_road","source":"openstreetmap.org","min_zoom":8.0,"bus_shield_text":"545","landuse_kind":"urban_area"},"arcs":[[677],[678]]},{"type":"MultiLineString","properties":{"bus_network":null,"name:en":"Rattanathibet Road","network":null,"sort_rank":380,"kind_detail":"primary","kind":"major_road","source":"openstreetmap.org","min_zoom":8.0,"bus_shield_text":"69","shield_text":"302","landuse_kind":"urban_area","ref":"302"},"arcs":[[679],[680]]},{"type":"MultiLineString","properties":{"source":"openstreetmap.org","kind":"major_road","name:en":"Asok - Dindaeng Road","landuse_kind":"urban_area","sort_rank":380,"kind_detail":"primary","min_zoom":8.0},"arcs":[[681],[682],[683],[684],[685]]},{"type":"MultiLineString","properties":{"kind":"highway","name:en":"Kanchanaphisek Road (south)","sort_rank":383,"kind_detail":"motorway","source":"openstreetmap.org","min_zoom":8.0,"alt_name:en":"Southern Outer Ring Road","alt_name:th":"\u0e16\u0e19\u0e19\u0e27\u0e07\u0e41\u0e2b\u0e27\u0e19\u0e23\u0e2d\u0e1a\u0e19\u0e2d\u0e01\u0e14\u0e49\u0e32\u0e19\u0e43\u0e15\u0e49","ref":"9"},"arcs":[[686],[687]]},{"type":"LineString","properties":{"kind":"highway","name:en":"Pattaya-ChonBuri","network":"AsianHighway","sort_rank":383,"landuse_kind":"urban_area","source":"openstreetmap.org","min_zoom":8.0,"all_networks":["AsianHighway"],"kind_detail":"motorway","shield_text":"19","ref":"7","all_shield_texts":["19"]},"arcs":[688]},{"type":"LineString","properties":{"kind":"major_road","name:en":"Jaruworn Road","sort_rank":380,"kind_detail":"primary","source":"openstreetmap.org","min_zoom":8.0,"ref":"349","id":52058628},"arcs":[689]},{"type":"MultiLineString","properties":{"kind":"major_road","name:en":"Borommaratchachonnani Road","network":"AsianHighway","sort_rank":380,"kind_detail":"primary","source":"openstreetmap.org","min_zoom":8.0,"landuse_kind":"urban_area","shield_text":"123"},"arcs":[[690],[691]]},{"type":"LineString","properties":{"kind":"major_road","name:en":"Surasak Road","sort_rank":380,"landuse_kind":"urban_area","source":"openstreetmap.org","min_zoom":8.0,"kind_detail":"primary","id":39943703},"arcs":[692]},{"type":"MultiLineString","properties":{"kind":"highway","alt_name:en":"Ram Inthra - Outer Ring Road Expressway","sort_rank":383,"kind_detail":"motorway","source":"openstreetmap.org","min_zoom":8.0,"name:en":"Chalong Rat Expressway","alt_name:th":"\u0e17\u0e32\u0e07\u0e14\u0e48\u0e27\u0e19\u0e2a\u0e32\u0e22\u0e23\u0e32\u0e21\u0e2d\u0e34\u0e19\u0e17\u0e23\u0e32-\u0e27\u0e07\u0e41\u0e2b\u0e27\u0e19\u0e23\u0e2d\u0e1a\u0e19\u0e2d\u0e01"},"arcs":[[693],[694]]},{"type":"MultiLineString","properties":{"kind":"major_road","name:en":"Vibhavadi Rangsit Road","sort_rank":381,"landuse_kind":"urban_area","bus_network":"BMTA","source":"openstreetmap.org","min_zoom":8.0,"bus_shield_text":"52","kind_detail":"trunk","ref":"31"},"arcs":[[695],[696],[697],[698]]},{"type":"MultiLineString","properties":{"kind":"highway","name:en":"Udon Ratthaya Expressway","sort_rank":383,"kind_detail":"motorway","source":"openstreetmap.org","min_zoom":8.0,"alt_name:en":"Bang Pa-in - Pak Kret Expressway","landuse_kind":"urban_area","alt_name:th":"\u0e17\u0e32\u0e07\u0e14\u0e48\u0e27\u0e19\u0e2a\u0e32\u0e22\u0e1a\u0e32\u0e07\u0e1b\u0e30\u0e2d\u0e34\u0e19-\u0e1b\u0e32\u0e01\u0e40\u0e01\u0e23\u0e47\u0e14"},"arcs":[[699],[700]]},{"type":"MultiLineString","properties":{"kind":"highway","alt_name:en":"1st-stage expressway","sort_rank":383,"kind_detail":"motorway","source":"openstreetmap.org","min_zoom":8.0,"name:en":"Chaloem Mahanakhon Expressway","landuse_kind":"urban_area","alt_name:th":"\u0e17\u0e32\u0e07\u0e14\u0e48\u0e27\u0e19\u0e02\u0e31\u0e49\u0e19\u0e17\u0e35\u0e48 1"},"arcs":[[701],[702],[703],[704],[705],[706],[707],[708],[709],[710],[711],[712],[713],[714],[715],[716],[717],[718],[719],[720],[721],[722],[723],[724],[725],[726]]},{"type":"MultiLineString","properties":{"kind":"major_road","name:en":"Ratchaphruek Road","sort_rank":380,"kind_detail":"primary","source":"openstreetmap.org","min_zoom":8.0,"landuse_kind":"urban_area","ref":"\u0e19\u0e1a.3021"},"arcs":[[727],[728],[729],[730],[731],[732],[733],[734],[735],[736],[737],[738],[739],[740],[741],[742],[743],[744],[745],[746],[747],[748],[749],[750],[751],[752],[753],[754],[755],[756],[757],[758],[759],[760],[761],[762],[763],[764],[765],[766],[767],[768],[769],[770],[771],[772]]},{"type":"LineString","properties":{"kind":"major_road","name:en":"Democracy Monument Circle","sort_rank":380,"kind_detail":"primary","bus_network":null,"source":"openstreetmap.org","min_zoom":8.0,"bus_shield_text":"12","landuse_kind":"urban_area","id":162553475},"arcs":[773]},{"type":"MultiLineString","properties":{"bus_network":null,"name:en":"Tiwanon Road","sort_rank":380,"kind_detail":"primary","kind":"major_road","source":"openstreetmap.org","min_zoom":8.0,"bus_shield_text":"32","landuse_kind":"urban_area","ref":"306"},"arcs":[[774],[775]]},{"type":"MultiLineString","properties":{"source":"openstreetmap.org","kind":"major_road","name:en":"Ban Bueng Road","sort_rank":381,"kind_detail":"trunk","ref":"344","min_zoom":8.0},"arcs":[[776],[777],[778],[779]]},{"type":"MultiLineString","properties":{"bus_network":null,"name:en":"Thanon Din Daeng","sort_rank":380,"kind_detail":"primary","kind":"major_road","source":"openstreetmap.org","min_zoom":8.0,"bus_shield_text":"12","landuse_kind":"urban_area"},"arcs":[[780],[781]]},{"type":"MultiLineString","properties":{"source":"openstreetmap.org","kind":"major_road","name:en":"Ratchadaphisek Road","landuse_kind":"urban_area","sort_rank":380,"kind_detail":"primary","min_zoom":8.0},"arcs":[[782],[783],[784],[785],[786],[787],[788],[789],[790],[791],[792],[793],[794],[795],[796],[797],[798],[799],[800],[801],[802],[803],[804],[805],[806],[807],[808],[809],[810],[811],[812],[813],[814],[815],[816],[817],[818],[819],[820],[821],[822],[823],[824],[825],[826],[827],[828]]},{"type":"MultiLineString","properties":{"kind":"major_road","network":"AsianHighway","sort_rank":381,"landuse_kind":"urban_area","source":"openstreetmap.org","min_zoom":8.0,"kind_detail":"trunk","shield_text":"123","ref":"36"},"arcs":[[829],[830],[831],[832],[833],[834],[835],[836],[837],[838],[839],[840],[841],[842],[843],[844],[845],[846]]},{"type":"MultiLineString","properties":{"bus_network":null,"name:en":"Ratchawithi Road","sort_rank":380,"kind_detail":"primary","kind":"major_road","source":"openstreetmap.org","min_zoom":8.0,"bus_shield_text":"8","landuse_kind":"urban_area"},"arcs":[[847],[848]]},{"type":"MultiLineString","properties":{"bus_network":null,"name:en":"Ramkhamhaeng Road","sort_rank":380,"kind_detail":"primary","kind":"major_road","source":"openstreetmap.org","min_zoom":8.0,"bus_shield_text":"150","landuse_kind":"urban_area"},"arcs":[[849],[850],[851],[852]]},{"type":"MultiLineString","properties":{"source":"openstreetmap.org","kind":"major_road","name:en":"Intharaphithak Road","kind_detail":"primary","sort_rank":380,"landuse_kind":"urban_area","min_zoom":8.0},"arcs":[[853],[854]]},{"type":"LineString","properties":{"kind":"major_road","name:en":"Phloen Chit Road","sort_rank":380,"kind_detail":"primary","is_bicycle_related":true,"cycleway":"opposite_share_busway","source":"openstreetmap.org","min_zoom":8.0,"landuse_kind":"urban_area","id":33058674},"arcs":[855]},{"type":"LineString","properties":{"kind":"ferry","name:en":"Green flag boat","network":"Chao Phraya Express Boat","sort_rank":355,"landuse_kind":"urban_area","source":"openstreetmap.org","min_zoom":8.0,"id":-2403872,"osm_relation":true,"name":"\u0e40\u0e23\u0e37\u0e2d\u0e14\u0e48\u0e27\u0e19\u0e1e\u0e34\u0e40\u0e28\u0e29\u0e18\u0e07\u0e40\u0e02\u0e35\u0e22\u0e27"},"arcs":[856]},{"type":"MultiLineString","properties":{"bus_network":null,"name:en":"Phahonyothin Road","network":"TH-network","sort_rank":380,"kind_detail":"primary","kind":"major_road","source":"openstreetmap.org","min_zoom":8.0,"bus_shield_text":"8","shield_text":"1","landuse_kind":"urban_area"},"arcs":[[857],[858]]},{"type":"MultiLineString","properties":{"source":"openstreetmap.org","kind":"major_road","name:en":"Thanon Sukhumvit","sort_rank":380,"kind_detail":"primary","ref":"3","min_zoom":8.0},"arcs":[[859],[860]]},{"type":"MultiLineString","properties":{"source":"openstreetmap.org","kind":"major_road","name:en":"Suk Sawat Road","landuse_kind":"urban_area","sort_rank":380,"kind_detail":"primary","min_zoom":8.0},"arcs":[[861],[862],[863],[864]]},{"type":"LineString","properties":{"kind":"major_road","name:en":"Lat Phrao Road","sort_rank":380,"kind_detail":"primary","bus_network":null,"source":"openstreetmap.org","min_zoom":8.0,"bus_shield_text":"545","landuse_kind":"urban_area","id":156591165},"arcs":[865]},{"type":"MultiLineString","properties":{"source":"openstreetmap.org","kind":"major_road","sort_rank":380,"kind_detail":"primary","ref":"304","min_zoom":8.0},"arcs":[[866],[867]]},{"type":"LineString","properties":{"kind":"major_road","sort_rank":380,"kind_detail":"primary","bus_network":null,"source":"openstreetmap.org","min_zoom":8.0,"bus_shield_text":"12","landuse_kind":"urban_area","id":32045077},"arcs":[868]},{"type":"MultiLineString","properties":{"kind":"major_road","name:en":"Vibhavadi Rangsit Road","sort_rank":381,"landuse_kind":"urban_area","source":"openstreetmap.org","min_zoom":8.0,"kind_detail":"trunk","ref":"31"},"arcs":[[869],[870],[871],[872],[873],[874],[875],[876],[877],[878],[879],[880],[881],[882],[883],[884],[885],[886]]},{"type":"MultiLineString","properties":{"source":"openstreetmap.org","kind":"major_road","kind_detail":"trunk","sort_rank":381,"landuse_kind":"urban_area","ref":"364","min_zoom":8.0},"arcs":[[887],[888]]},{"type":"MultiLineString","properties":{"sort_rank":381,"source":"openstreetmap.org","min_zoom":8.0,"kind":"major_road","kind_detail":"trunk"},"arcs":[[889],[890],[891],[892],[893],[894],[895],[896],[897],[898]]},{"type":"MultiLineString","properties":{"bus_network":null,"name:en":"Phaya Thai Road","sort_rank":380,"landuse_kind":"urban_area","kind":"major_road","source":"openstreetmap.org","min_zoom":8.0,"bus_shield_text":"\u0e15.27","kind_detail":"primary"},"arcs":[[899],[900]]},{"type":"LineString","properties":{"source":"openstreetmap.org","kind":"major_road","name:en":"Wisutkasat Road","landuse_kind":"urban_area","sort_rank":380,"kind_detail":"primary","min_zoom":8.0},"arcs":[901]},{"type":"MultiLineString","properties":{"bus_network":null,"name:en":"Lat Phrao Road","sort_rank":380,"kind_detail":"primary","kind":"major_road","source":"openstreetmap.org","min_zoom":8.0,"bus_shield_text":"145","landuse_kind":"urban_area"},"arcs":[[902],[903]]},{"type":"LineString","properties":{"source":"openstreetmap.org","kind":"major_road","sort_rank":380,"kind_detail":"primary","ref":"349","min_zoom":8.0},"arcs":[904]},{"type":"MultiLineString","properties":{"kind":"major_road","alt_name:en":"Western Outer Ring Road","network":"AsianHighway","sort_rank":381,"kind_detail":"trunk","source":"openstreetmap.org","min_zoom":8.0,"name:en":"Kanchanaphisek Road (west)","shield_text":"2","ref":"9"},"arcs":[[905],[906]]},{"type":"LineString","properties":{"kind":"major_road","name:en":"Phan Fa Lilat Bridge","sort_rank":380,"kind_detail":"primary","bus_network":null,"source":"openstreetmap.org","min_zoom":8.0,"bus_shield_text":"68","landuse_kind":"urban_area","id":169343042},"arcs":[907]},{"type":"MultiLineString","properties":{"sort_rank":355,"source":"openstreetmap.org","min_zoom":8.0,"kind":"ferry"},"arcs":[[908],[909],[910],[911],[912],[913],[914]]},{"type":"MultiLineString","properties":{"kind":"major_road","name:en":"Sukhumvit Road","sort_rank":380,"kind_detail":"primary","bus_network":"BMTA","source":"openstreetmap.org","min_zoom":8.0,"bus_shield_text":"508","landuse_kind":"urban_area","ref":"3"},"arcs":[[915],[916]]},{"type":"MultiLineString","properties":{"source":"openstreetmap.org","kind":"highway","landuse_kind":"urban_area","sort_rank":383,"kind_detail":"motorway","min_zoom":8.0},"arcs":[[917],[918],[919]]},{"type":"LineString","properties":{"kind":"major_road","name:en":"Chaloem La 56 Bridge","sort_rank":380,"kind_detail":"primary","bus_network":null,"source":"openstreetmap.org","min_zoom":8.0,"bus_shield_text":"16","alt_name:th":"\u0e2a\u0e30\u0e1e\u0e32\u0e19\u0e2b\u0e31\u0e27\u0e0a\u0e49\u0e32\u0e07","landuse_kind":"urban_area","id":33069214},"arcs":[920]},{"type":"MultiLineString","properties":{"kind":"highway","name:en":"Laem Chabang Connector","sort_rank":383,"landuse_kind":"urban_area","source":"openstreetmap.org","min_zoom":8.0,"kind_detail":"motorway","ref":"7"},"arcs":[[921],[922]]},{"type":"MultiLineString","properties":{"source":"openstreetmap.org","kind":"major_road","sort_rank":381,"kind_detail":"trunk","ref":"314","min_zoom":8.0},"arcs":[[923],[924],[925]]},{"type":"MultiLineString","properties":{"kind":"major_road","network":"AsianHighway","sort_rank":381,"landuse_kind":"urban_area","source":"openstreetmap.org","min_zoom":8.0,"kind_detail":"trunk","shield_text":"19","ref":"331"},"arcs":[[926],[927],[928],[929]]},{"type":"LineString","properties":{"bus_network":null,"name:en":"Worachak Road","sort_rank":380,"kind_detail":"primary","kind":"major_road","source":"openstreetmap.org","min_zoom":8.0,"bus_shield_text":"8","landuse_kind":"urban_area"},"arcs":[930]},{"type":"MultiLineString","properties":{"kind":"major_road","name:en":"Sukhumvit Road","sort_rank":381,"landuse_kind":"urban_area","source":"openstreetmap.org","min_zoom":8.0,"kind_detail":"trunk","ref":"34"},"arcs":[[931],[932],[933],[934],[935],[936]]},{"type":"MultiLineString","properties":{"kind":"major_road","name:en":"Chaeng Watthana Road","sort_rank":380,"kind_detail":"primary","source":"openstreetmap.org","min_zoom":8.0,"landuse_kind":"urban_area","ref":"304"},"arcs":[[937],[938]]},{"type":"MultiLineString","properties":{"bus_network":null,"name:en":"Phahon Yothin Road","network":"TH-network","sort_rank":380,"kind_detail":"primary","kind":"major_road","source":"openstreetmap.org","min_zoom":8.0,"bus_shield_text":"104","shield_text":"1","landuse_kind":"urban_area"},"arcs":[[939],[940],[941],[942],[943],[944]]},{"type":"LineString","properties":{"kind":"major_road","name:en":"Sukhumvit Road","sort_rank":380,"kind_detail":"primary","bus_network":null,"source":"openstreetmap.org","min_zoom":8.0,"bus_shield_text":"545","landuse_kind":"urban_area","ref":"3","id":150557346},"arcs":[945]},{"type":"LineString","properties":{"kind":"major_road","name:en":"Krungthonburi Road","sort_rank":380,"landuse_kind":"urban_area","source":"openstreetmap.org","min_zoom":8.0,"kind_detail":"primary","id":156261335},"arcs":[946]},{"type":"LineString","properties":{"source":"openstreetmap.org","kind":"ferry","sort_rank":355,"min_zoom":8.0,"osm_relation":true,"id":-5985896},"arcs":[947]},{"type":"MultiLineString","properties":{"kind":"major_road","name:en":"Sukhumvit Road","sort_rank":381,"landuse_kind":"aerodrome","source":"openstreetmap.org","min_zoom":8.0,"kind_detail":"trunk","ref":"3"},"arcs":[[948],[949]]},{"type":"MultiLineString","properties":{"source":"openstreetmap.org","kind":"major_road","kind_detail":"trunk","sort_rank":381,"landuse_kind":"urban_area","ref":"\u0e0a\u0e1a.1073","min_zoom":8.0},"arcs":[[950],[951]]},{"type":"MultiLineString","properties":{"kind":"major_road","network":null,"sort_rank":381,"kind_detail":"trunk","source":"openstreetmap.org","min_zoom":8.0,"shield_text":"331","ref":"331"},"arcs":[[952],[953]]},{"type":"MultiLineString","properties":{"bus_network":"BRT","name:en":"Thanon Narathiwat Ratchanakharin","sort_rank":380,"kind_detail":"primary","kind":"major_road","source":"openstreetmap.org","min_zoom":8.0,"bus_shield_text":null,"landuse_kind":"urban_area"},"arcs":[[954],[955]]},{"type":"MultiLineString","properties":{"source":"openstreetmap.org","kind":"major_road","name:en":"Suwinthawong Road","sort_rank":380,"kind_detail":"primary","ref":"304","min_zoom":8.0},"arcs":[[956],[957]]},{"type":"MultiLineString","properties":{"kind":"highway","name:en":"Kanchanaphisek Road (east)","sort_rank":383,"kind_detail":"motorway","source":"openstreetmap.org","min_zoom":8.0,"alt_name:en":"Eastern Outer Ring Road","landuse_kind":"urban_area","ref":"9"},"arcs":[[958],[959],[960],[961]]},{"type":"MultiLineString","properties":{"kind":"major_road","name:en":"Ngam Wong Wan Road","sort_rank":380,"kind_detail":"primary","source":"openstreetmap.org","min_zoom":8.0,"landuse_kind":"urban_area","ref":"302"},"arcs":[[962],[963]]},{"type":"MultiLineString","properties":{"source":"openstreetmap.org","kind":"major_road","landuse_kind":"urban_area","sort_rank":380,"kind_detail":"primary","ref":"3524","min_zoom":8.0},"arcs":[[964],[965]]},{"type":"MultiLineString","properties":{"source":"openstreetmap.org","kind":"major_road","sort_rank":381,"kind_detail":"trunk","ref":"304","min_zoom":8.0},"arcs":[[966],[967],[968],[969]]},{"type":"MultiLineString","properties":{"kind":"major_road","name:en":"Chonburi Bypass","sort_rank":381,"landuse_kind":"urban_area","source":"openstreetmap.org","min_zoom":8.0,"kind_detail":"trunk","ref":"361"},"arcs":[[970],[971],[972]]},{"type":"MultiLineString","properties":{"source":"openstreetmap.org","kind":"major_road","kind_detail":"trunk","sort_rank":381,"landuse_kind":"urban_area","min_zoom":8.0},"arcs":[[973],[974],[975],[976],[977],[978],[979],[980],[981],[982],[983],[984],[985],[986],[987],[988],[989],[990],[991],[992],[993],[994]]},{"type":"MultiLineString","properties":{"kind":"major_road","name:en":"Chaeng Watthana Road","sort_rank":380,"kind_detail":"primary","bus_network":"BMTA","source":"openstreetmap.org","min_zoom":8.0,"bus_shield_text":"52","landuse_kind":"urban_area","ref":"304"},"arcs":[[995],[996]]},{"type":"MultiLineString","properties":{"bus_network":null,"name:en":"Charan Sanitwong Road","sort_rank":380,"kind_detail":"primary","kind":"major_road","source":"openstreetmap.org","min_zoom":8.0,"bus_shield_text":"40","landuse_kind":"urban_area"},"arcs":[[997],[998]]},{"type":"LineString","properties":{"kind":"major_road","name:en":"Sukhumvit Road","sort_rank":380,"kind_detail":"primary","bus_network":null,"source":"openstreetmap.org","min_zoom":8.0,"bus_shield_text":"553","landuse_kind":"urban_area","ref":"3","id":185363444},"arcs":[999]},{"type":"MultiLineString","properties":{"source":"openstreetmap.org","kind":"major_road","sort_rank":381,"kind_detail":"trunk","ref":"344","min_zoom":8.0},"arcs":[[1000],[1001]]},{"type":"MultiLineString","properties":{"kind":"major_road","name:en":"Rama IV Road","sort_rank":380,"kind_detail":"primary","source":"openstreetmap.org","min_zoom":8.0,"landuse_kind":"urban_area","name:ru":"\u0443\u043b\u0438\u0446\u0430 \u0420\u0430\u043c\u044b IV"},"arcs":[[1002],[1003],[1004],[1005],[1006]]},{"type":"LineString","properties":{"kind":"major_road","alt_name:en":"Ratchadaphisek Road","sort_rank":380,"kind_detail":"primary","source":"openstreetmap.org","min_zoom":8.0,"name:en":"Asok - Dindaeng Road","landuse_kind":"urban_area"},"arcs":[1007]},{"type":"MultiLineString","properties":{"kind":"major_road","name:en":"Taksin Bridge","sort_rank":380,"kind_detail":"primary","name:th":"\u0e2a\u0e30\u0e1e\u0e32\u0e19\u0e15\u0e32\u0e01\u0e2a\u0e34\u0e19","source":"openstreetmap.org","min_zoom":8.0,"landuse_kind":"urban_area"},"arcs":[[1008],[1009]]},{"type":"MultiLineString","properties":{"bus_network":null,"name:en":"Ram Inthra Road","sort_rank":380,"kind_detail":"primary","kind":"major_road","source":"openstreetmap.org","min_zoom":8.0,"alt_name:en":"Ramindra Road","bus_shield_text":"150","landuse_kind":"urban_area","ref":"304"},"arcs":[[1010],[1011]]},{"type":"MultiLineString","properties":{"kind":"major_road","name:en":"Sukhumvit Road","sort_rank":381,"landuse_kind":"urban_area","source":"openstreetmap.org","min_zoom":8.0,"kind_detail":"trunk","name:ru":"\u0443\u043b\u0438\u0446\u0430 \u0421\u0443\u043a\u0445\u0443\u043c\u0432\u0438\u0442","ref":"3"},"arcs":[[1012],[1013],[1014],[1015],[1016],[1017],[1018]]},{"type":"MultiLineString","properties":{"source":"openstreetmap.org","kind":"major_road","name:en":"Phra Pok Klao Bridge","landuse_kind":"urban_area","sort_rank":380,"kind_detail":"primary","min_zoom":8.0},"arcs":[[1019],[1020]]},{"type":"MultiLineString","properties":{"kind":"major_road","name:en":"Phetkasem Road","network":"TH-network","sort_rank":380,"kind_detail":"primary","source":"openstreetmap.org","min_zoom":8.0,"landuse_kind":"urban_area","shield_text":"4","ref":"4"},"arcs":[[1021],[1022],[1023],[1024]]},{"type":"MultiLineString","properties":{"source":"openstreetmap.org","kind":"major_road","name:en":"Rama IX Road","landuse_kind":"urban_area","sort_rank":380,"kind_detail":"primary","min_zoom":8.0},"arcs":[[1025],[1026],[1027],[1028],[1029],[1030],[1031],[1032],[1033],[1034],[1035],[1036],[1037],[1038],[1039],[1040],[1041],[1042],[1043],[1044]]},{"type":"MultiLineString","properties":{"source":"openstreetmap.org","kind":"major_road","name:en":"Thanon Narathiwat Ratchanakharin","landuse_kind":"urban_area","sort_rank":380,"kind_detail":"primary","min_zoom":8.0},"arcs":[[1045],[1046],[1047]]},{"type":"MultiLineString","properties":{"kind":"highway","name:en":"Bangkok-Chonburi Motorway","network":"AsianHighway","sort_rank":383,"landuse_kind":"urban_area","source":"openstreetmap.org","min_zoom":8.0,"all_networks":["AsianHighway"],"kind_detail":"motorway","shield_text":"123","name:ru":"\u0411\u0430\u043d\u0433\u043a\u043e\u043a\u2014\u0427\u043e\u043d\u0431\u0443\u0440\u0438","ref":"7","all_shield_texts":["123"]},"arcs":[[1048],[1049]]},{"type":"MultiLineString","properties":{"bus_network":null,"name:en":"Phahon Yothin Road","sort_rank":380,"landuse_kind":"urban_area","kind":"major_road","source":"openstreetmap.org","min_zoom":8.0,"bus_shield_text":"104","kind_detail":"primary"},"arcs":[[1050],[1051]]},{"type":"LineString","properties":{"kind":"major_road","name:en":"Ratchadamnoen Klang Road","sort_rank":380,"kind_detail":"primary","bus_network":null,"source":"openstreetmap.org","min_zoom":8.0,"bus_shield_text":"68","landuse_kind":"urban_area","id":169343044},"arcs":[1052]},{"type":"MultiLineString","properties":{"source":"openstreetmap.org","kind":"major_road","name:en":"Sukhumvit Road","sort_rank":381,"kind_detail":"trunk","ref":"3","min_zoom":8.0},"arcs":[[1053],[1054],[1055],[1056],[1057],[1058],[1059],[1060],[1061],[1062],[1063],[1064],[1065],[1066],[1067],[1068]]},{"type":"MultiLineString","properties":{"kind":"major_road","network":null,"sort_rank":381,"kind_detail":"trunk","source":"openstreetmap.org","min_zoom":8.0,"shield_text":"36","ref":"36"},"arcs":[[1069],[1070],[1071],[1072]]},{"type":"MultiLineString","properties":{"kind":"major_road","name:en":"Sathon Tai Road","sort_rank":380,"kind_detail":"primary","source":"openstreetmap.org","min_zoom":8.0,"alt_name:en":"South Sathon Road","landuse_kind":"urban_area"},"arcs":[[1073],[1074],[1075]]},{"type":"MultiLineString","properties":{"source":"openstreetmap.org","kind":"major_road","name:en":"Seri Thai Road","landuse_kind":"urban_area","sort_rank":380,"kind_detail":"primary","min_zoom":8.0},"arcs":[[1076],[1077]]},{"type":"MultiLineString","properties":{"bus_network":null,"name:en":"Chaiyaphruek Road","sort_rank":380,"kind_detail":"primary","kind":"major_road","source":"openstreetmap.org","min_zoom":8.0,"bus_shield_text":"1053","ref":"\u0e19\u0e1a.3030"},"arcs":[[1078],[1079]]},{"type":"LineString","properties":{"bus_network":null,"name:en":"Srinagarindra Road","sort_rank":380,"kind_detail":"primary","kind":"major_road","source":"openstreetmap.org","min_zoom":8.0,"alt_name:en":"Si Nakharin Road;Sinakharin Road;Srinakarin Road;Sinakarin Road","bus_shield_text":"133","landuse_kind":"urban_area"},"arcs":[1080]},{"type":"MultiLineString","properties":{"source":"openstreetmap.org","kind":"major_road","name:en":"Ratchadamnoen Nok Avenue","landuse_kind":"urban_area","sort_rank":380,"kind_detail":"primary","min_zoom":8.0},"arcs":[[1081],[1082],[1083],[1084],[1085],[1086]]},{"type":"MultiLineString","properties":{"kind":"major_road","alt_name:en":"Western Outer Ring Road","sort_rank":381,"landuse_kind":"urban_area","source":"openstreetmap.org","min_zoom":8.0,"name:en":"Kanchanaphisek Road (west)","kind_detail":"trunk","ref":"9"},"arcs":[[1087],[1088]]},{"type":"LineString","properties":{"kind":"major_road","name:en":"Borommaratchachonnani Road","sort_rank":380,"landuse_kind":"urban_area","source":"openstreetmap.org","min_zoom":8.0,"kind_detail":"primary","id":398751540},"arcs":[1089]},{"type":"LineString","properties":{"kind":"major_road","name:en":"Ratchadamnoen Klang Road","sort_rank":380,"kind_detail":"primary","bus_network":null,"source":"openstreetmap.org","min_zoom":8.0,"bus_shield_text":"2","landuse_kind":"urban_area","id":162639456},"arcs":[1090]},{"type":"MultiLineString","properties":{"bus_network":"BRT","name:en":"Rama III Road","sort_rank":380,"kind_detail":"primary","kind":"major_road","source":"openstreetmap.org","min_zoom":8.0,"bus_shield_text":null,"landuse_kind":"urban_area"},"arcs":[[1091],[1092],[1093],[1094],[1095],[1096]]},{"type":"MultiLineString","properties":{"source":"openstreetmap.org","kind":"major_road","name:en":"Ramkhamhaeng","landuse_kind":"urban_area","sort_rank":380,"kind_detail":"primary","min_zoom":8.0},"arcs":[[1097],[1098],[1099]]},{"type":"LineString","properties":{"kind":"major_road","name:en":"Arun Amarin Road","sort_rank":380,"kind_detail":"primary","bus_network":null,"source":"openstreetmap.org","min_zoom":8.0,"bus_shield_text":"81","landuse_kind":"urban_area","id":162513705},"arcs":[1100]},{"type":"LineString","properties":{"kind":"major_road","name:en":"Ratchadamnoen Klang Road","sort_rank":380,"landuse_kind":"urban_area","source":"openstreetmap.org","min_zoom":8.0,"kind_detail":"primary","id":156420649},"arcs":[1101]},{"type":"MultiLineString","properties":{"kind":"major_road","name:en":"Borommaratchachonnani Road","network":"AsianHighway","sort_rank":381,"kind_detail":"trunk","source":"openstreetmap.org","min_zoom":8.0,"shield_text":"2","ref":"338"},"arcs":[[1102],[1103]]},{"type":"LineString","properties":{"kind":"major_road","name:en":"Phahon Yothin Road","sort_rank":380,"kind_detail":"primary","bus_network":null,"source":"openstreetmap.org","min_zoom":8.0,"bus_shield_text":"51","landuse_kind":"urban_area","id":175282293},"arcs":[1104]},{"type":"MultiLineString","properties":{"bus_network":null,"name:en":"Charan Sanitwong Road","sort_rank":380,"kind_detail":"primary","kind":"major_road","source":"openstreetmap.org","min_zoom":8.0,"bus_shield_text":"28","landuse_kind":"urban_area"},"arcs":[[1105],[1106]]},{"type":"MultiLineString","properties":{"source":"openstreetmap.org","kind":"major_road","name:en":"Rama VI Road","landuse_kind":"urban_area","sort_rank":380,"kind_detail":"primary","min_zoom":8.0},"arcs":[[1107],[1108],[1109],[1110],[1111],[1112]]},{"type":"MultiLineString","properties":{"bus_network":"BRT","name:en":"Rama III Bridge","sort_rank":380,"kind_detail":"primary","kind":"major_road","source":"openstreetmap.org","min_zoom":8.0,"bus_shield_text":null,"landuse_kind":"urban_area"},"arcs":[[1113],[1114]]},{"type":"MultiLineString","properties":{"source":"openstreetmap.org","kind":"highway","name:en":"Bang Na Expressway","landuse_kind":"urban_area","sort_rank":383,"kind_detail":"motorway","min_zoom":8.0},"arcs":[[1115],[1116],[1117]]},{"type":"LineString","properties":{"kind":"ferry","name:en":"Khlong Saen Saep Express","name":"\u0e16\u0e19\u0e19\u0e14\u0e33\u0e23\u0e07\u0e23\u0e31\u0e01\u0e29\u0e4c","sort_rank":355,"landuse_kind":"urban_area","source":"openstreetmap.org","min_zoom":8.0,"id":288287932},"arcs":[1118]},{"type":"MultiLineString","properties":{"kind":"major_road","name:en":"Phra Nang Klao Parallel Bridge","network":null,"sort_rank":380,"kind_detail":"primary","source":"openstreetmap.org","min_zoom":8.0,"landuse_kind":"urban_area","shield_text":"302","ref":"302"},"arcs":[[1119],[1120]]},{"type":"MultiLineString","properties":{"kind":"major_road","name:en":"Bang Kruai - Sai Noi Road","sort_rank":380,"kind_detail":"primary","source":"openstreetmap.org","min_zoom":8.0,"landuse_kind":"urban_area","ref":"3215"},"arcs":[[1121],[1122]]},{"type":"MultiLineString","properties":{"kind":"major_road","name:en":"Maha Chakkraphat Road","sort_rank":381,"landuse_kind":"urban_area","source":"openstreetmap.org","min_zoom":8.0,"kind_detail":"trunk","ref":"304"},"arcs":[[1123],[1124],[1125],[1126]]},{"type":"MultiLineString","properties":{"kind":"highway","name:en":"Pattaya-ChonBuri","network":"AsianHighway","sort_rank":383,"landuse_kind":"urban_area","source":"openstreetmap.org","min_zoom":8.0,"all_networks":["AsianHighway","AsianHighway"],"kind_detail":"motorway","shield_text":"19","ref":"7","all_shield_texts":["19","123"]},"arcs":[[1127],[1128]]},{"type":"MultiLineString","properties":{"kind":"highway","alt_name:en":"Ram Inthra - At Narong Expressway","sort_rank":383,"kind_detail":"motorway","source":"openstreetmap.org","min_zoom":8.0,"name:en":"Chalong Rat Expressway","landuse_kind":"urban_area","alt_name:th":"\u0e17\u0e32\u0e07\u0e14\u0e48\u0e27\u0e19\u0e2a\u0e32\u0e22\u0e23\u0e32\u0e21\u0e2d\u0e34\u0e19\u0e17\u0e23\u0e32-\u0e2d\u0e32\u0e08\u0e13\u0e23\u0e07\u0e04\u0e4c"},"arcs":[[1129],[1130],[1131],[1132],[1133],[1134],[1135],[1136]]},{"type":"MultiLineString","properties":{"source":"openstreetmap.org","kind":"major_road","name:en":"Chaeng Watthana Road","landuse_kind":"urban_area","sort_rank":380,"kind_detail":"primary","min_zoom":8.0},"arcs":[[1137],[1138],[1139],[1140]]},{"type":"LineString","properties":{"osm_relation":true,"kind":"ferry","name:en":"Boat: Pratunam => Panfa Leelard","network":"Golden Mount Line","sort_rank":355,"landuse_kind":"urban_area","source":"openstreetmap.org","min_zoom":8.0,"all_networks":["Golden Mount Line"],"shield_text":"Mount","id":-3826827,"all_shield_texts":["Mount"],"name":"Boat: \u0e1b\u0e23\u0e30\u0e15\u0e39\u0e19\u0e49\u0e33 => \u0e1c\u0e48\u0e19\u0e1f\u0e49\u0e32\u0e25\u0e35\u0e25\u0e32\u0e28"},"arcs":[1141]},{"type":"LineString","properties":{"kind":"major_road","name:en":"Borommaratchachonnani Road","network":"AsianHighway","sort_rank":380,"kind_detail":"primary","bus_network":null,"source":"openstreetmap.org","min_zoom":8.0,"bus_shield_text":"28","shield_text":"123","landuse_kind":"urban_area","id":398753678},"arcs":[1142]},{"type":"MultiLineString","properties":{"source":"openstreetmap.org","kind":"major_road","name:en":"Rama VIII Bridge","landuse_kind":"urban_area","sort_rank":380,"kind_detail":"primary","min_zoom":8.0},"arcs":[[1143],[1144]]},{"type":"MultiLineString","properties":{"kind":"major_road","name:en":"Ban Bueng Road","sort_rank":381,"landuse_kind":"urban_area","source":"openstreetmap.org","min_zoom":8.0,"kind_detail":"trunk","ref":"344"},"arcs":[[1145],[1146],[1147],[1148],[1149],[1150],[1151],[1152],[1153]]},{"type":"MultiLineString","properties":{"source":"openstreetmap.org","kind":"major_road","name:en":"Phahon Yothin Road","landuse_kind":"urban_area","sort_rank":380,"kind_detail":"primary","min_zoom":8.0},"arcs":[[1154],[1155],[1156]]},{"type":"LineString","properties":{"kind":"major_road","name:en":"Suk Sawat Road","sort_rank":380,"kind_detail":"primary","name:th":"\u0e16\u0e19\u0e19\u0e2a\u0e38\u0e02\u0e2a\u0e27\u0e31\u0e2a\u0e14\u0e34\u0e4c","source":"openstreetmap.org","min_zoom":8.0,"landuse_kind":"urban_area","ref":"303"},"arcs":[1157]},{"type":"MultiLineString","properties":{"kind":"major_road","name:en":"Suwinthawong Road","sort_rank":380,"kind_detail":"primary","source":"openstreetmap.org","min_zoom":8.0,"landuse_kind":"urban_area","ref":"304"},"arcs":[[1158],[1159],[1160],[1161],[1162],[1163],[1164],[1165],[1166],[1167],[1168]]},{"type":"MultiLineString","properties":{"bus_network":null,"name:en":"Ngam Wong Wan Road","sort_rank":380,"kind_detail":"primary","kind":"major_road","source":"openstreetmap.org","min_zoom":8.0,"bus_shield_text":"51","landuse_kind":"urban_area","ref":"302"},"arcs":[[1169],[1170],[1171]]},{"type":"LineString","properties":{"kind":"major_road","sort_rank":380,"kind_detail":"primary","bus_network":null,"source":"openstreetmap.org","min_zoom":8.0,"bus_shield_text":"28","landuse_kind":"urban_area","id":119060835},"arcs":[1172]},{"type":"MultiLineString","properties":{"kind":"highway","name:en":"Kanchanaphisek Road (east)","network":"AsianHighway","sort_rank":383,"kind_detail":"motorway","source":"openstreetmap.org","min_zoom":8.0,"alt_name:en":"Eastern Outer Ring Road","all_networks":["AsianHighway"],"shield_text":"19","ref":"9","all_shield_texts":["19"]},"arcs":[[1173],[1174]]},{"type":"LineString","properties":{"kind":"major_road","name:en":"Ratchaphruek Road","sort_rank":380,"kind_detail":"primary","bus_network":"BRT","source":"openstreetmap.org","min_zoom":8.0,"bus_shield_text":null,"landuse_kind":"urban_area","id":178791709},"arcs":[1175]},{"type":"MultiLineString","properties":{"source":"openstreetmap.org","kind":"major_road","landuse_kind":"urban_area","sort_rank":380,"kind_detail":"primary","ref":"315","min_zoom":8.0},"arcs":[[1176],[1177],[1178],[1179],[1180],[1181],[1182],[1183],[1184]]},{"type":"MultiLineString","properties":{"bus_network":null,"sort_rank":380,"kind_detail":"primary","kind":"major_road","source":"openstreetmap.org","min_zoom":8.0,"bus_shield_text":"\u0e15.27","landuse_kind":"urban_area"},"arcs":[[1185],[1186],[1187],[1188]]},{"type":"MultiLineString","properties":{"source":"openstreetmap.org","kind":"major_road","kind_detail":"trunk","sort_rank":381,"landuse_kind":"urban_area","ref":"304","min_zoom":8.0},"arcs":[[1189],[1190]]},{"type":"MultiLineString","properties":{"bus_network":null,"name:en":"Rama IV Bridge","sort_rank":380,"kind_detail":"primary","kind":"major_road","source":"openstreetmap.org","min_zoom":8.0,"bus_shield_text":"1053","landuse_kind":"urban_area"},"arcs":[[1191],[1192]]},{"type":"MultiLineString","properties":{"source":"openstreetmap.org","kind":"major_road","name:en":"Rama II Road","sort_rank":381,"kind_detail":"trunk","ref":"35","min_zoom":8.0},"arcs":[[1193],[1194],[1195],[1196]]},{"type":"MultiLineString","properties":{"kind":"major_road","name:en":"Srinagarindra Road","sort_rank":380,"kind_detail":"primary","source":"openstreetmap.org","min_zoom":8.0,"alt_name:en":"Si Nakharin Road;Sinakharin Road;Srinakarin Road;Sinakarin Road","landuse_kind":"urban_area"},"arcs":[[1197],[1198]]},{"type":"MultiLineString","properties":{"source":"openstreetmap.org","kind":"major_road","name:en":"Phatthanakan Road","landuse_kind":"urban_area","sort_rank":380,"kind_detail":"primary","min_zoom":8.0},"arcs":[[1199],[1200],[1201],[1202],[1203]]},{"type":"MultiLineString","properties":{"bus_network":null,"name:en":"Somdet Phra Pin Klao Bridge","sort_rank":380,"kind_detail":"primary","kind":"major_road","source":"openstreetmap.org","min_zoom":8.0,"bus_shield_text":"30","landuse_kind":"urban_area"},"arcs":[[1204],[1205]]},{"type":"MultiLineString","properties":{"source":"openstreetmap.org","kind":"major_road","landuse_kind":"urban_area","sort_rank":380,"kind_detail":"primary","ref":"304","min_zoom":8.0},"arcs":[[1206],[1207],[1208],[1209],[1210],[1211],[1212],[1213],[1214],[1215]]},{"type":"MultiLineString","properties":{"kind":"major_road","name:en":"Suk Sawat","sort_rank":380,"kind_detail":"primary","source":"openstreetmap.org","min_zoom":8.0,"landuse_kind":"urban_area","ref":"303"},"arcs":[[1216],[1217],[1218]]},{"type":"MultiLineString","properties":{"source":"openstreetmap.org","kind":"major_road","name:en":"Asok Montri Road","landuse_kind":"urban_area","sort_rank":380,"kind_detail":"primary","min_zoom":8.0},"arcs":[[1219],[1220],[1221]]},{"type":"LineString","properties":{"bus_network":null,"name:en":"Sukhumvit Road","sort_rank":380,"kind_detail":"primary","kind":"major_road","source":"openstreetmap.org","min_zoom":8.0,"bus_shield_text":"48","landuse_kind":"urban_area"},"arcs":[1222]},{"type":"LineString","properties":{"kind":"major_road","name:en":"Kanchanaphisek Road (west)","sort_rank":381,"kind_detail":"trunk","source":"openstreetmap.org","min_zoom":8.0,"alt_name:en":"Western Outer Ring Road","landuse_kind":"urban_area","alt_name:th":"\u0e16\u0e19\u0e19\u0e27\u0e07\u0e41\u0e2b\u0e27\u0e19\u0e23\u0e2d\u0e1a\u0e19\u0e2d\u0e01\u0e14\u0e49\u0e32\u0e19\u0e43\u0e15\u0e49","ref":"9","id":96668819},"arcs":[1223]},{"type":"MultiLineString","properties":{"kind":"major_road","name:en":"Prajadhipok Road","sort_rank":380,"kind_detail":"primary","source":"openstreetmap.org","min_zoom":8.0,"alt_name:en":"Prachatipok Road","landuse_kind":"urban_area"},"arcs":[[1224],[1225]]},{"type":"MultiLineString","properties":{"bus_network":null,"name:en":"Phahon Yothin Road","network":"TH-network","sort_rank":380,"kind_detail":"primary","kind":"major_road","source":"openstreetmap.org","min_zoom":8.0,"bus_shield_text":"51","shield_text":"1","landuse_kind":"urban_area"},"arcs":[[1226],[1227]]},{"type":"MultiLineString","properties":{"source":"openstreetmap.org","kind":"major_road","name:en":"Lat Phrao Road","landuse_kind":"urban_area","sort_rank":380,"kind_detail":"primary","min_zoom":8.0},"arcs":[[1228],[1229]]},{"type":"MultiLineString","properties":{"kind":"major_road","name:en":"Chaeng Whathana Road","sort_rank":380,"kind_detail":"primary","source":"openstreetmap.org","min_zoom":8.0,"landuse_kind":"urban_area","ref":"304"},"arcs":[[1230],[1231],[1232]]},{"type":"LineString","properties":{"kind":"major_road","name:en":"Phahon Yothin Road","network":"TH-network","sort_rank":380,"kind_detail":"primary","bus_network":"BMTA","source":"openstreetmap.org","min_zoom":8.0,"bus_shield_text":"188","shield_text":"1","landuse_kind":"urban_area","ref":"1","id":155900628},"arcs":[1233]},{"type":"MultiLineString","properties":{"bus_network":null,"name:en":"Somdet Phra Pin Klao Road","network":"AsianHighway","sort_rank":380,"kind_detail":"primary","kind":"major_road","source":"openstreetmap.org","min_zoom":8.0,"bus_shield_text":"30","shield_text":"123","landuse_kind":"urban_area"},"arcs":[[1234],[1235]]},{"type":"MultiLineString","properties":{"bus_network":null,"name:en":"Rama I Road","sort_rank":380,"kind_detail":"primary","kind":"major_road","source":"openstreetmap.org","min_zoom":8.0,"bus_shield_text":"48","landuse_kind":"urban_area"},"arcs":[[1236],[1237]]},{"type":"LineString","properties":{"bus_network":null,"name:en":"Democracy Monument Circle","sort_rank":380,"kind_detail":"primary","kind":"major_road","source":"openstreetmap.org","min_zoom":8.0,"bus_shield_text":"2","landuse_kind":"urban_area"},"arcs":[1238]},{"type":"MultiLineString","properties":{"source":"openstreetmap.org","kind":"major_road","name:en":"Phaya Thai Road","landuse_kind":"urban_area","sort_rank":380,"kind_detail":"primary","min_zoom":8.0},"arcs":[[1239],[1240],[1241],[1242],[1243]]},{"type":"MultiLineString","properties":{"source":"openstreetmap.org","kind":"major_road","sort_rank":380,"kind_detail":"primary","ref":"315","min_zoom":8.0},"arcs":[[1244],[1245],[1246],[1247],[1248]]},{"type":"MultiLineString","properties":{"bus_network":null,"name:en":"Rama IV Road","sort_rank":380,"kind_detail":"primary","kind":"major_road","source":"openstreetmap.org","min_zoom":8.0,"bus_shield_text":"53","name:ru":"\u0443\u043b\u0438\u0446\u0430 \u0420\u0430\u043c\u044b IV","landuse_kind":"urban_area"},"arcs":[[1249],[1250],[1251],[1252],[1253]]},{"type":"MultiLineString","properties":{"source":"openstreetmap.org","kind":"major_road","name:en":"Somdet Phrachao Taksin Road","landuse_kind":"urban_area","sort_rank":380,"kind_detail":"primary","min_zoom":8.0},"arcs":[[1254],[1255],[1256],[1257],[1258],[1259]]},{"type":"MultiLineString","properties":{"bus_network":null,"name:en":"Rama IV Bridge","sort_rank":380,"kind_detail":"primary","kind":"major_road","source":"openstreetmap.org","min_zoom":8.0,"bus_shield_text":"1053"},"arcs":[[1260],[1261]]},{"type":"LineString","properties":{"bus_network":null,"name:en":"Srinagarindra Road","sort_rank":380,"kind_detail":"primary","kind":"major_road","source":"openstreetmap.org","min_zoom":8.0,"alt_name:en":"Si Nakharin Road;Sinakharin Road;Srinakarin Road;Sinakarin Road","bus_shield_text":"133","landuse_kind":"urban_area","ref":"3344"},"arcs":[1262]},{"type":"MultiLineString","properties":{"source":"openstreetmap.org","kind":"major_road","landuse_kind":"urban_area","sort_rank":380,"kind_detail":"primary","min_zoom":8.0},"arcs":[[1263],[1264],[1265],[1266],[1267],[1268],[1269],[1270],[1271],[1272],[1273],[1274],[1275],[1276],[1277],[1278],[1279],[1280],[1281],[1282],[1283],[1284],[1285],[1286],[1287],[1288],[1289],[1290],[1291],[1292],[1293],[1294],[1295],[1296],[1297],[1298],[1299],[1300],[1301],[1302],[1303],[1304],[1305],[1306],[1307],[1308],[1309],[1310],[1311],[1312],[1313],[1314],[1315],[1316],[1317],[1318],[1319],[1320],[1321],[1322],[1323],[1324],[1325],[1326],[1327],[1328],[1329],[1330],[1331],[1332],[1333],[1334],[1335],[1336],[1337],[1338],[1339],[1340],[1341],[1342],[1343],[1344],[1345],[1346],[1347],[1348],[1349],[1350],[1351],[1352],[1353],[1354],[1355],[1356],[1357],[1358],[1359],[1360],[1361],[1362],[1363],[1364],[1365],[1366],[1367],[1368],[1369],[1370],[1371],[1372],[1373],[1374],[1375],[1376],[1377],[1378],[1379],[1380],[1381],[1382],[1383],[1384],[1385],[1386],[1387],[1388],[1389],[1390],[1391],[1392],[1393],[1394],[1395],[1396],[1397],[1398]]},{"type":"MultiLineString","properties":{"bus_network":null,"name:en":"Phaya Thai Road","sort_rank":380,"kind_detail":"primary","kind":"major_road","source":"openstreetmap.org","min_zoom":8.0,"bus_shield_text":"16","landuse_kind":"urban_area"},"arcs":[[1399],[1400],[1401],[1402],[1403],[1404]]},{"type":"MultiLineString","properties":{"source":"openstreetmap.org","kind":"highway","name:en":"Sirat - Bangkok Outer Ring Road Expressway","landuse_kind":"urban_area","sort_rank":383,"kind_detail":"motorway","min_zoom":8.0},"arcs":[[1405],[1406],[1407],[1408],[1409],[1410],[1411],[1412],[1413],[1414],[1415],[1416]]},{"type":"MultiLineString","properties":{"source":"openstreetmap.org","kind":"major_road","kind_detail":"trunk","sort_rank":381,"landuse_kind":"urban_area","ref":"314","min_zoom":8.0},"arcs":[[1417],[1418],[1419]]},{"type":"MultiLineString","properties":{"kind":"major_road","alt_name:en":"Ratchadaphisek Road","sort_rank":380,"kind_detail":"primary","source":"openstreetmap.org","min_zoom":8.0,"name:en":"Rama III Road","landuse_kind":"urban_area","alt_name:th":"\u0e16\u0e19\u0e19\u0e23\u0e31\u0e0a\u0e14\u0e32\u0e20\u0e34\u0e40\u0e29\u0e01"},"arcs":[[1420],[1421],[1422],[1423],[1424],[1425],[1426],[1427],[1428],[1429],[1430],[1431],[1432],[1433],[1434],[1435],[1436]]},{"type":"LineString","properties":{"kind":"major_road","name:en":"Rama VI Road","sort_rank":380,"kind_detail":"primary","bus_network":"BMTA","source":"openstreetmap.org","min_zoom":8.0,"bus_shield_text":"166","landuse_kind":"urban_area"},"arcs":[1437]},{"type":"MultiLineString","properties":{"bus_network":null,"sort_rank":381,"landuse_kind":"urban_area","kind":"major_road","source":"openstreetmap.org","min_zoom":8.0,"bus_shield_text":"69","kind_detail":"trunk"},"arcs":[[1438],[1439]]},{"type":"MultiLineString","properties":{"kind":"major_road","name:en":"Sukhumvit Road","sort_rank":381,"landuse_kind":"urban_area","source":"openstreetmap.org","min_zoom":8.0,"kind_detail":"trunk","ref":"3"},"arcs":[[1440],[1441],[1442],[1443],[1444],[1445],[1446],[1447],[1448],[1449],[1450],[1451],[1452],[1453],[1454],[1455],[1456],[1457],[1458],[1459],[1460],[1461],[1462],[1463],[1464],[1465],[1466]]},{"type":"MultiLineString","properties":{"source":"openstreetmap.org","kind":"major_road","sort_rank":380,"kind_detail":"primary","ref":"325","min_zoom":8.0},"arcs":[[1467],[1468]]},{"type":"MultiLineString","properties":{"source":"openstreetmap.org","kind":"major_road","name:en":"Sukhumvit Road","sort_rank":380,"kind_detail":"primary","ref":"3","min_zoom":8.0},"arcs":[[1469],[1470]]},{"type":"LineString","properties":{"kind":"major_road","name:en":"Lan Luang Road","sort_rank":380,"landuse_kind":"urban_area","source":"openstreetmap.org","min_zoom":8.0,"kind_detail":"primary","id":157690704},"arcs":[1471]},{"type":"LineString","properties":{"kind":"major_road","name:en":"Srinagarindra Road","sort_rank":380,"kind_detail":"primary","bus_network":null,"source":"openstreetmap.org","min_zoom":8.0,"alt_name:en":"Si Nakharin Road;Sinakharin Road;Srinakarin Road;Sinakarin Road","bus_shield_text":"545","landuse_kind":"urban_area","id":157780864},"arcs":[1472]},{"type":"LineString","properties":{"source":"openstreetmap.org","kind":"ferry","name":"Pattaya - Tawaen Beach","sort_rank":355,"min_zoom":8.0,"id":239040223},"arcs":[1473]},{"type":"LineString","properties":{"osm_relation":true,"kind":"ferry","name:en":"Boat: Panfa Leelard => Pratunam","network":"Golden Mount Line","sort_rank":355,"landuse_kind":"urban_area","source":"openstreetmap.org","min_zoom":8.0,"all_networks":["Golden Mount Line"],"shield_text":"Mount","id":-3826826,"all_shield_texts":["Mount"],"name":"Boat: \u0e1c\u0e48\u0e19\u0e1f\u0e49\u0e32\u0e25\u0e35\u0e25\u0e32\u0e28 => \u0e1b\u0e23\u0e30\u0e15\u0e39\u0e19\u0e49\u0e33"},"arcs":[1474]},{"type":"MultiLineString","properties":{"kind":"highway","name:en":"Sirat Expressway","sort_rank":383,"kind_detail":"motorway","source":"openstreetmap.org","min_zoom":8.0,"alt_name:en":"2nd-stage expressway","landuse_kind":"urban_area","alt_name:th":"\u0e17\u0e32\u0e07\u0e14\u0e48\u0e27\u0e19\u0e02\u0e31\u0e49\u0e19\u0e17\u0e35\u0e48 2"},"arcs":[[1475],[1476],[1477],[1478],[1479],[1480],[1481],[1482],[1483],[1484]]},{"type":"LineString","properties":{"kind":"major_road","name:en":"Lad Phrao Road","sort_rank":380,"kind_detail":"primary","bus_network":null,"source":"openstreetmap.org","min_zoom":8.0,"bus_shield_text":"8","landuse_kind":"urban_area","id":32007706},"arcs":[1485]},{"type":"MultiLineString","properties":{"source":"openstreetmap.org","kind":"highway","name:en":"Sirat - Bangkok Outer Ring Road Expressway","sort_rank":383,"kind_detail":"motorway","min_zoom":8.0},"arcs":[[1486],[1487]]},{"type":"LineString","properties":{"kind":"major_road","alt_name:en":"Ratchadaphisek Road","sort_rank":380,"kind_detail":"primary","bus_network":"BMTA","source":"openstreetmap.org","min_zoom":8.0,"name:en":"Asok - Dindaeng Road","bus_shield_text":"136","landuse_kind":"urban_area"},"arcs":[1488]},{"type":"LineString","properties":{"kind":"major_road","name:en":"Lak Si Monument Circle","network":"TH-network","sort_rank":380,"kind_detail":"primary","bus_network":null,"source":"openstreetmap.org","min_zoom":8.0,"bus_shield_text":"150","shield_text":"1","landuse_kind":"urban_area","id":300803449},"arcs":[1489]},{"type":"LineString","properties":{"kind":"major_road","name:en":"Rama III Road","sort_rank":380,"kind_detail":"primary","bus_network":"BMTA","source":"openstreetmap.org","min_zoom":8.0,"alt_name:en":"Ratchadaphisek Road","bus_shield_text":"136","alt_name:th":"\u0e16\u0e19\u0e19\u0e23\u0e31\u0e0a\u0e14\u0e32\u0e20\u0e34\u0e40\u0e29\u0e01","landuse_kind":"urban_area","id":9168676},"arcs":[1490]},{"type":"MultiLineString","properties":{"source":"openstreetmap.org","kind":"major_road","name:en":"Rama IV Bridge","landuse_kind":"urban_area","sort_rank":380,"kind_detail":"primary","min_zoom":8.0},"arcs":[[1491],[1492]]},{"type":"LineString","properties":{"kind":"highway","name:en":"ChonBuri-Pattaya","network":"AsianHighway","sort_rank":383,"landuse_kind":"urban_area","source":"openstreetmap.org","min_zoom":8.0,"all_networks":["AsianHighway"],"kind_detail":"motorway","shield_text":"19","ref":"7","all_shield_texts":["19"]},"arcs":[1493]},{"type":"MultiLineString","properties":{"kind":"major_road","name:en":"Tiwanon Road","sort_rank":380,"kind_detail":"primary","source":"openstreetmap.org","min_zoom":8.0,"landuse_kind":"urban_area","ref":"306"},"arcs":[[1494],[1495],[1496],[1497],[1498],[1499],[1500],[1501],[1502],[1503],[1504],[1505]]},{"type":"LineString","properties":{"kind":"major_road","name:en":"Chaeng Whatthana Road","sort_rank":380,"kind_detail":"primary","source":"openstreetmap.org","min_zoom":8.0,"landuse_kind":"urban_area","ref":"304","id":124812307},"arcs":[1506]},{"type":"MultiLineString","properties":{"kind":"major_road","network":"AsianHighway","sort_rank":381,"kind_detail":"trunk","source":"openstreetmap.org","min_zoom":8.0,"shield_text":"2","ref":"4"},"arcs":[[1507],[1508]]},{"type":"MultiLineString","properties":{"source":"openstreetmap.org","kind":"major_road","name:en":"Chakkraphatdiphong Road","landuse_kind":"urban_area","sort_rank":380,"kind_detail":"primary","min_zoom":8.0},"arcs":[[1509],[1510],[1511]]},{"type":"MultiLineString","properties":{"source":"openstreetmap.org","kind":"major_road","name:en":"Nakhon In Road","sort_rank":380,"kind_detail":"primary","ref":"\u0e19\u0e1a.1020","min_zoom":8.0},"arcs":[[1512],[1513]]},{"type":"MultiLineString","properties":{"source":"openstreetmap.org","kind":"major_road","landuse_kind":"urban_area","sort_rank":380,"kind_detail":"primary","min_zoom":8.0,"name:th":"\u0e16\u0e19\u0e19 \u0e2d\u0e42\u0e28\u0e01\u0e21\u0e19\u0e15\u0e23\u0e35"},"arcs":[[1514],[1515],[1516]]},{"type":"LineString","properties":{"kind":"major_road","sort_rank":381,"landuse_kind":"urban_area","source":"openstreetmap.org","min_zoom":8.0,"kind_detail":"trunk","ref":"344, \u0e1a\u0e49\u0e32\u0e19\u0e1a\u0e36\u0e07","id":339720061},"arcs":[1517]},{"type":"LineString","properties":{"kind":"major_road","name:en":"Rattanathibet Road","network":null,"sort_rank":380,"kind_detail":"primary","bus_network":null,"source":"openstreetmap.org","min_zoom":8.0,"bus_shield_text":"51","shield_text":"302","landuse_kind":"urban_area","ref":"302","id":300803498},"arcs":[1518]},{"type":"MultiLineString","properties":{"kind":"major_road","name:en":"Sathon Nuea Road","sort_rank":380,"kind_detail":"primary","source":"openstreetmap.org","min_zoom":8.0,"alt_name:en":"North Sathon Road","landuse_kind":"urban_area"},"arcs":[[1519],[1520],[1521],[1522]]},{"type":"MultiLineString","properties":{"bus_network":null,"name:en":"Thai-Belgian Bridge","sort_rank":380,"kind_detail":"primary","kind":"major_road","source":"openstreetmap.org","min_zoom":8.0,"bus_shield_text":"\u0e15.27","landuse_kind":"urban_area"},"arcs":[[1523],[1524]]},{"type":"MultiLineString","properties":{"source":"openstreetmap.org","kind":"major_road","sort_rank":380,"kind_detail":"primary","ref":"331","min_zoom":8.0},"arcs":[[1525],[1526],[1527],[1528],[1529],[1530]]},{"type":"MultiLineString","properties":{"kind":"major_road","network":"AsianHighway","sort_rank":381,"kind_detail":"trunk","source":"openstreetmap.org","min_zoom":8.0,"shield_text":"19","ref":"331"},"arcs":[[1531],[1532],[1533],[1534],[1535],[1536]]},{"type":"MultiLineString","properties":{"bus_network":null,"name:en":"Rama VI Road","sort_rank":380,"kind_detail":"primary","kind":"major_road","source":"openstreetmap.org","min_zoom":8.0,"bus_shield_text":"8","landuse_kind":"urban_area"},"arcs":[[1537],[1538]]},{"type":"MultiLineString","properties":{"bus_network":"BRT","alt_name:en":"Ratchadaphisek Road","sort_rank":380,"kind_detail":"primary","kind":"major_road","source":"openstreetmap.org","min_zoom":8.0,"name:en":"Rama III Road","bus_shield_text":null,"alt_name:th":"\u0e16\u0e19\u0e19\u0e23\u0e31\u0e0a\u0e14\u0e32\u0e20\u0e34\u0e40\u0e29\u0e01","landuse_kind":"urban_area"},"arcs":[[1539],[1540],[1541],[1542],[1543]]},{"type":"MultiLineString","properties":{"bus_network":null,"name:en":"Ngam Wong Wan Road","network":null,"sort_rank":380,"kind_detail":"primary","kind":"major_road","source":"openstreetmap.org","min_zoom":8.0,"bus_shield_text":"69","shield_text":"302","landuse_kind":"urban_area","ref":"302"},"arcs":[[1544],[1545]]},{"type":"LineString","properties":{"kind":"major_road","name:en":"Phan Fa Lilat Bridge","sort_rank":380,"landuse_kind":"urban_area","source":"openstreetmap.org","min_zoom":8.0,"kind_detail":"primary","id":169343049},"arcs":[1546]},{"type":"LineString","properties":{"kind":"major_road","name:en":"Chaiyaphruek Road","sort_rank":380,"kind_detail":"primary","source":"openstreetmap.org","min_zoom":8.0,"landuse_kind":"urban_area","ref":"\u0e19\u0e1a.3030"},"arcs":[1547]},{"type":"MultiLineString","properties":{"bus_network":null,"name:en":"Borommaratchachonnani Road","sort_rank":380,"kind_detail":"primary","kind":"major_road","source":"openstreetmap.org","min_zoom":8.0,"bus_shield_text":"28","landuse_kind":"urban_area"},"arcs":[[1548],[1549]]},{"type":"MultiLineString","properties":{"source":"openstreetmap.org","kind":"major_road","name:en":"Phetkasem Road","kind_detail":"trunk","sort_rank":381,"landuse_kind":"urban_area","min_zoom":8.0},"arcs":[[1550],[1551],[1552]]},{"type":"MultiLineString","properties":{"kind":"highway","name:en":"Sirat Expressway","sort_rank":383,"kind_detail":"motorway","name:th":"\u0e17\u0e32\u0e07\u0e14\u0e48\u0e27\u0e19\u0e02\u0e31\u0e49\u0e19\u0e17\u0e35\u0e48 2","source":"openstreetmap.org","min_zoom":8.0,"alt_name:en":"2nd-stage expressway","landuse_kind":"urban_area","alt_name:th":"\u0e17\u0e32\u0e07\u0e14\u0e48\u0e27\u0e19\u0e02\u0e31\u0e49\u0e19\u0e17\u0e35\u0e48 2"},"arcs":[[1553],[1554],[1555],[1556],[1557],[1558],[1559],[1560],[1561],[1562],[1563],[1564],[1565],[1566],[1567],[1568],[1569],[1570],[1571],[1572],[1573],[1574],[1575]]},{"type":"LineString","properties":{"bus_network":null,"name:en":"Sukhumvit Road","sort_rank":380,"kind_detail":"primary","kind":"major_road","source":"openstreetmap.org","min_zoom":8.0,"bus_shield_text":"545","landuse_kind":"urban_area"},"arcs":[1576]},{"type":"LineString","properties":{"kind":"major_road","name:en":"Thanon Borommaratchachonnani","network":"AsianHighway","sort_rank":381,"kind_detail":"trunk","source":"openstreetmap.org","min_zoom":8.0,"shield_text":"2","ref":"338"},"arcs":[1577]},{"type":"MultiLineString","properties":{"kind":"highway","alt_name:en":"Ram Inthra - Outer Ring Road Expressway","sort_rank":383,"kind_detail":"motorway","source":"openstreetmap.org","min_zoom":8.0,"name:en":"Chalong Rat Expressway","landuse_kind":"urban_area","alt_name:th":"\u0e17\u0e32\u0e07\u0e14\u0e48\u0e27\u0e19\u0e2a\u0e32\u0e22\u0e23\u0e32\u0e21\u0e2d\u0e34\u0e19\u0e17\u0e23\u0e32-\u0e27\u0e07\u0e41\u0e2b\u0e27\u0e19\u0e23\u0e2d\u0e1a\u0e19\u0e2d\u0e01"},"arcs":[[1578],[1579],[1580],[1581],[1582],[1583],[1584],[1585]]},{"type":"MultiLineString","properties":{"source":"openstreetmap.org","kind":"major_road","name:en":"Malaiman Road","sort_rank":380,"kind_detail":"primary","ref":"321","min_zoom":8.0},"arcs":[[1586],[1587],[1588],[1589],[1590],[1591]]},{"type":"LineString","properties":{"kind":"major_road","sort_rank":380,"kind_detail":"primary","bus_network":null,"source":"openstreetmap.org","min_zoom":8.0,"bus_shield_text":"8","landuse_kind":"urban_area","id":169343054},"arcs":[1592]},{"type":"MultiLineString","properties":{"source":"openstreetmap.org","kind":"major_road","name:en":"Charan Sanitwong Road","landuse_kind":"urban_area","sort_rank":380,"kind_detail":"primary","min_zoom":8.0},"arcs":[[1593],[1594],[1595],[1596],[1597],[1598],[1599],[1600],[1601],[1602],[1603],[1604],[1605],[1606],[1607],[1608],[1609],[1610],[1611]]},{"type":"MultiLineString","properties":{"bus_network":null,"name:en":"Lak Si Monument Circle","network":"TH-network","sort_rank":380,"kind_detail":"primary","kind":"major_road","source":"openstreetmap.org","min_zoom":8.0,"bus_shield_text":"51","shield_text":"1","landuse_kind":"urban_area"},"arcs":[[1612],[1613]]},{"type":"MultiLineString","properties":{"bus_network":null,"name:en":"Chaeng Wattana Road","sort_rank":380,"kind_detail":"primary","kind":"major_road","source":"openstreetmap.org","min_zoom":8.0,"bus_shield_text":"51","landuse_kind":"urban_area","ref":"304"},"arcs":[[1614],[1615]]},{"type":"LineString","properties":{"bus_network":null,"name:en":"Rama I Road","sort_rank":380,"kind_detail":"primary","kind":"major_road","source":"openstreetmap.org","min_zoom":8.0,"bus_shield_text":"16","landuse_kind":"urban_area"},"arcs":[1616]},{"type":"LineString","properties":{"kind":"ferry","name:en":"Yellow flag boat","network":"Chao Phraya Express Boat","sort_rank":355,"landuse_kind":"urban_area","source":"openstreetmap.org","min_zoom":8.0,"id":-2403875,"osm_relation":true,"name":"\u0e40\u0e23\u0e37\u0e2d\u0e14\u0e48\u0e27\u0e19\u0e1e\u0e34\u0e40\u0e28\u0e29\u0e18\u0e07\u0e40\u0e2b\u0e25\u0e37\u0e2d\u0e07"},"arcs":[1617]},{"type":"MultiLineString","properties":{"kind":"major_road","name:en":"Srinagarindra Road","sort_rank":380,"kind_detail":"primary","source":"openstreetmap.org","min_zoom":8.0,"alt_name:en":"Si Nakharin Road;Sinakharin Road;Srinakarin Road;Sinakarin Road","landuse_kind":"urban_area","ref":"3344"},"arcs":[[1618],[1619],[1620]]},{"type":"LineString","properties":{"sort_rank":355,"source":"openstreetmap.org","min_zoom":8.0,"name":"Pattaya - Hua Hin","kind":"ferry"},"arcs":[1621]},{"type":"MultiLineString","properties":{"bus_network":null,"name:en":"Srinagarindra Road","sort_rank":380,"kind_detail":"primary","kind":"major_road","source":"openstreetmap.org","min_zoom":8.0,"alt_name:en":"Si Nakharin Road;Sinakharin Road;Srinakarin Road;Sinakarin Road","bus_shield_text":"150","landuse_kind":"urban_area"},"arcs":[[1622],[1623]]},{"type":"MultiLineString","properties":{"kind":"major_road","network":"AsianHighway","sort_rank":380,"kind_detail":"primary","source":"openstreetmap.org","min_zoom":8.0,"shield_text":"19","ref":"331"},"arcs":[[1624],[1625],[1626],[1627]]},{"type":"LineString","properties":{"kind":"major_road","name:en":"Lad Phrao Road","sort_rank":380,"kind_detail":"primary","bus_network":null,"source":"openstreetmap.org","name:th":"\u0e16\u0e19\u0e19\u0e25\u0e32\u0e14\u0e1e\u0e23\u0e49\u0e27","bus_shield_text":"545","min_zoom":8.0,"landuse_kind":"urban_area","id":32007705},"arcs":[1628]}]},"earth":{"type":"GeometryCollection","geometries":[{"type":"MultiPolygon","properties":{"sort_rank":10,"source":"naturalearthdata.com","min_zoom":0.0,"kind":"earth","area":56590390130},"arcs":[[[1629]]]}]},"landuse":{"type":"GeometryCollection","geometries":[{"type":"MultiPolygon","properties":{"source":"naturalearthdata.com","kind":"urban_area","name":"","area":4979225989,"sort_rank":11,"min_zoom":4.0},"arcs":[[[1630]],[[1631]],[[1632]],[[1633]],[[1634]],[[1635]],[[1636]],[[1637]],[[1638]],[[1639]],[[1640]],[[1641]],[[1642]],[[1643],[1644],[1645]]]},{"type":"Polygon","properties":{"kind":"nature_reserve","natural":"wood","area":95085504,"sort_rank":23,"source":"openstreetmap.org","min_zoom":8.0,"tier":2,"id":164033636},"arcs":[[1646]]},{"type":"Polygon","properties":{"source":"openstreetmap.org","kind":"aerodrome","area":12932400,"tier":3,"id":307565962,"min_zoom":8.0,"sort_rank":60},"arcs":[[1647]]},{"type":"Polygon","properties":{"kind":"aerodrome","area":31521300,"sort_rank":60,"source":"openstreetmap.org","min_zoom":8.0,"tier":3,"id":-6641648,"osm_relation":true},"arcs":[[1648]]},{"type":"Polygon","properties":{"kind":"military","area":64389600,"sort_rank":45,"source":"openstreetmap.org","min_zoom":8.0,"tier":3,"id":-4107372,"osm_relation":true},"arcs":[[1649],[1650],[1651]]}]}},"type":"Topology","transform":{"translate":[99.84375,12.5545635286],"scale":[0.0003433228,0.0003341895]},"arcs":[[[4096,1504],[-193,63],[-67,-52],[3,-36],[53,-58],[-14,-27],[-56,-9],[-165,43],[-95,-84],[69,-80],[13,-209],[-29,-54],[-73,-50],[-7,-83],[-49,-75],[-113,-76],[-5,-116],[-46,-133],[52,-265],[46,-35]],[[3420,168],[113,-95],[53,-73]],[[660,3283],[-36,-2],[10,97],[-73,22],[-34,49],[12,141],[-71,-38],[-40,-76],[-39,-16],[-84,92],[38,307],[-48,237]],[[56,4096],[-56,-147]],[[0,2314],[43,1],[47,182],[53,84],[-9,93],[68,127],[-2,47],[40,18],[141,-64],[74,11],[30,39],[80,-10],[29,275],[89,104],[-28,27],[5,35]],[[482,0],[-148,123],[-8,117],[-205,-35],[-121,13]],[[3825,4096],[-49,-136],[47,-50],[-24,-35],[214,84],[54,-44],[29,7]],[[2460,4096],[-4,-21],[235,21]],[[1233,4096],[177,-357]],[[1410,3739],[382,-17],[31,-11],[-10,-17],[98,34],[44,39],[-25,9],[8,27],[101,73],[50,220]],[[1425,3491],[-15,248]],[[660,3283],[29,18],[18,-22],[105,10],[-26,76],[29,11],[91,4],[26,-22],[52,37],[33,-37],[66,33],[27,-49],[56,9],[90,34],[41,81],[128,25]],[[4096,3004],[-329,92],[-48,-76],[-58,-6],[-33,-36],[-105,-8],[1,-114],[-40,-44],[-124,-93],[-69,3],[-145,-164]],[[3146,2558],[-506,-577]],[[2640,1981],[-850,0],[0,-1981]],[[3109,4096],[-26,-223],[30,-6],[-14,-26],[90,-71],[-84,-72],[-159,-272],[16,-7]],[[2962,3419],[277,-104],[-5,-46],[29,-7],[-118,-153],[-48,-5],[23,-62],[-32,-51],[-40,32],[-31,-50],[-24,-173],[-10,-26],[-49,17],[-43,-125]],[[2891,2666],[-251,-685]],[[1425,3491],[19,-198],[21,1],[-2,-35],[86,-74],[56,-185],[54,11],[20,-46],[-9,-30],[-31,0],[20,-197]],[[1777,2750],[-26,237],[26,159],[30,-1],[16,-39],[21,31],[52,-46],[77,53],[-20,70],[18,141],[80,-9],[20,98],[91,-34],[-19,-74],[164,-62],[41,11],[16,60],[125,-50],[34,183],[18,5],[209,-5],[208,-81],[4,22]],[[1659,2738],[131,-757],[-13,769]],[[2001,3570],[77,181]],[[2034,3560],[-33,10]],[[2034,3560],[166,-105],[33,-73],[-28,-78]],[[2049,3551],[5,-1],[0,1],[-4,1],[-1,-1]],[[1816,3436],[-108,-105]],[[2001,3742],[5,58],[-53,47],[-5,4],[-2,3],[1,6],[19,30],[-6,14],[-41,9],[-14,5],[-36,19],[-102,19],[-102,-7],[-9,2],[-15,86]],[[1641,4037],[15,-86],[9,-2],[90,7],[7,1],[5,-1],[102,-19],[6,-2],[30,-17],[11,-4],[41,-8],[3,-2],[2,-2],[4,-8],[0,-2],[0,-2],[-1,-2],[-18,-28],[0,-6],[2,-3],[54,-47],[2,-2],[1,-2],[1,-3],[0,-3],[-6,-52]],[[2009,3598],[172,-39],[485,-48],[-23,-100]],[[1961,3540],[9,-4]],[[1970,3536],[15,-6]],[[1985,3530],[15,-6]],[[2000,3524],[10,-4]],[[2010,3520],[10,-5]],[[2020,3515],[19,-8]],[[2039,3507],[6,-3]],[[2045,3504],[6,-3]],[[2051,3501],[18,-7]],[[2069,3494],[8,-3]],[[2077,3491],[3,-1]],[[2080,3490],[2,0]],[[2082,3490],[2,0]],[[2084,3490],[1,1]],[[2085,3491],[1,4]],[[2086,3495],[1,3]],[[2087,3498],[0,2]],[[2087,3500],[0,1]],[[2087,3501],[0,3]],[[2087,3504],[0,1]],[[2087,3505],[0,5]],[[2087,3510],[-1,7]],[[2086,3517],[0,3]],[[2086,3520],[-1,3]],[[2085,3523],[0,2]],[[2085,3525],[1,1]],[[2086,3526],[0,2]],[[2086,3528],[1,0]],[[2087,3528],[0,1]],[[2087,3529],[2,3]],[[2089,3532],[0,1]],[[2089,3533]],[[2089,3533],[1,3]],[[2090,3536],[0,4]],[[2090,3540],[1,3]],[[2091,3543],[1,4]],[[2092,3547],[0,10]],[[2092,3557],[2,9]],[[2094,3566],[2,9]],[[2096,3575]],[[2096,3575],[5,26]],[[2101,3601],[2,5]],[[2103,3606],[2,5]],[[2105,3611],[3,5]],[[2108,3616],[6,7]],[[2114,3623],[2,3]],[[2116,3626],[7,10]],[[2123,3636],[1,3]],[[2124,3639],[2,24]],[[2126,3663],[0,3]],[[2126,3666],[1,29]],[[2127,3695],[1,29]],[[2128,3724],[1,16]],[[2129,3740],[0,1]],[[2129,3741],[-1,1]],[[2128,3742],[0,1]],[[2128,3743],[-2,2]],[[2126,3745],[-2,1]],[[2124,3746],[-7,4]],[[2117,3750],[-26,16]],[[2091,3766],[-2,1]],[[2089,3767],[-3,1]],[[2086,3768],[-3,0]],[[2083,3768],[-2,-2]],[[2081,3766],[-1,-3]],[[2080,3763],[-2,-6]],[[2078,3757],[-2,-5]],[[2076,3752],[-9,-16]],[[2067,3736],[-5,-9]],[[2062,3727],[-2,-3]],[[2060,3724],[-2,-2]],[[2058,3722],[-3,-1]],[[2055,3721],[-4,0]],[[2051,3721],[-3,-1]],[[2048,3720],[-3,2]],[[2045,3722],[-3,6]],[[2042,3728],[-3,2]],[[2039,3730],[-9,4]],[[2030,3734],[-8,4]],[[2022,3738],[-2,1]],[[2020,3739],[-1,1]],[[2019,3740],[-2,1]],[[2017,3741],[-1,0]],[[2016,3741],[-2,1]],[[2014,3742],[-1,1]],[[2013,3743],[-3,1]],[[2010,3744],[-2,0]],[[2008,3744],[-2,0]],[[2006,3744],[-2,1]],[[2004,3745],[-3,0]],[[2001,3745],[-2,0]],[[1999,3745],[-2,1]],[[1997,3746],[-3,0]],[[1780,3508],[48,-44],[61,26],[73,-8],[37,11],[28,58]],[[1999,3566],[-3,1]],[[2027,3551],[-28,15]],[[4096,315],[0,-315],[-3702,0],[-3,19],[-50,193],[0,32],[-1,95],[13,127],[27,122],[39,118],[106,169],[15,44],[40,216],[29,97],[21,42],[96,131],[26,47],[7,52],[-48,117],[-29,112],[-3,27],[-8,30],[-21,22],[-21,17],[-9,14],[-169,142],[-92,123],[-18,97],[0,3],[6,52],[42,23],[48,13],[36,33],[23,46],[5,53],[-42,18],[59,-16],[28,46],[22,62],[42,31],[47,13],[57,26],[70,31],[109,23],[253,99],[47,26],[34,35],[29,57],[43,-35],[138,-69],[56,23],[72,6],[142,-7],[367,65],[58,26],[25,42],[-3,126],[11,48],[31,61],[3,-47],[-6,-42],[-15,-33],[-6,-29],[8,-22],[52,-21],[115,-81],[88,-33],[204,-28],[63,-26],[124,-16],[146,-43],[72,-10],[180,0],[37,9],[31,23],[29,27],[35,25],[0,-21],[-51,-91],[-22,-65],[41,-58],[6,-65],[-5,-69],[-12,-42],[-46,-31],[-53,-12],[-43,-19],[-25,-68],[-13,-14],[-14,-19],[-6,-32],[8,-20],[40,-64],[13,-29],[32,-108],[2,-57],[-24,-51],[-61,-87],[-48,-87],[-62,-82],[14,-31],[27,-13],[27,-9],[12,-18],[17,-52],[34,-43],[29,-49],[1,-71],[-15,-31],[-28,-30],[-31,-15],[-25,15],[-8,-25],[-6,-55],[-7,-23],[-24,-24],[-25,-15],[-21,-18],[-11,-28],[12,-40],[109,-158],[21,-39],[15,-42],[5,-46],[-13,-52],[-22,-33],[-26,-27],[-20,-33],[-18,0],[-53,26],[-38,-56],[-51,-133],[55,-20],[24,0],[-9,-18],[-20,-47],[-10,-17],[59,0],[-4,-24],[-9,-17],[-12,-12],[-14,-10],[37,6],[27,10],[26,2],[31,-18],[53,29],[49,-29],[18,-49],[-42,-33],[0,-19],[140,-63],[0,72],[10,51],[1,1],[31,30],[126,22],[101,58],[61,13],[470,-61],[3,-1]],[[2729,341],[35,21],[16,33],[27,22],[-7,21],[-2,47],[-43,0],[-25,-2],[-15,-11],[-12,-26],[-12,19],[-7,-21],[32,-54],[9,-30],[4,-19]],[[394,0],[-3,19],[-50,193],[0,32],[-1,95],[13,127],[27,122],[39,118],[106,169],[15,44],[40,216],[29,97],[21,42],[96,131],[26,47],[7,52],[-48,117],[-29,112],[-3,27],[-8,30],[-21,22],[-21,17],[-9,14],[-169,142],[-92,123],[-18,97],[0,3],[6,52],[42,23],[48,13],[36,33],[23,46],[5,53],[-42,18],[59,-16],[28,46],[22,62],[42,31],[47,13],[57,26],[70,31],[109,23],[253,99],[47,26],[34,35],[29,57],[43,-35],[138,-69],[56,23],[72,6],[142,-7],[367,65],[58,26],[25,42],[-3,126],[11,48],[31,61],[3,-47],[-6,-42],[-15,-33],[-6,-29],[8,-22],[52,-21],[115,-81],[88,-33],[204,-28],[63,-26],[124,-16],[146,-43],[72,-10],[180,0],[37,9],[31,23],[29,27],[35,25],[0,-21],[-51,-91],[-22,-65],[41,-58],[6,-65],[-5,-69],[-12,-42],[-46,-31],[-53,-12],[-43,-19],[-25,-68],[-13,-14],[-14,-19],[-6,-32],[8,-20],[40,-64],[13,-29],[32,-108],[2,-57],[-24,-51],[-61,-87],[-48,-87],[-62,-82],[14,-31],[27,-13],[27,-9],[12,-18],[17,-52],[34,-43],[29,-49],[1,-71],[-15,-31],[-28,-30],[-31,-15],[-25,15],[-8,-25],[-6,-55],[-7,-23],[-24,-24],[-25,-15],[-21,-18],[-11,-28],[12,-40],[109,-158],[21,-39],[15,-42],[5,-46],[-13,-52],[-22,-33],[-26,-27],[-20,-33],[-18,0],[-53,26],[-38,-56],[-51,-133],[55,-20],[24,0],[-9,-18],[-20,-47],[-10,-17],[59,0],[-4,-24],[-9,-17],[-12,-12],[-14,-10],[37,6],[27,10],[26,2],[31,-18],[53,29],[49,-29],[18,-49],[-42,-33],[0,-19],[140,-63],[0,72],[10,51],[1,1],[31,30],[126,22],[101,58],[61,13],[470,-61],[3,-1]],[[3319,1253],[-50,-63]],[[477,2527],[-8,7],[-13,15]],[[456,2549],[21,-22]],[[460,2551],[-3,14]],[[457,2566],[5,-7]],[[3580,3398],[-58,16]],[[3525,3414],[56,-16]],[[1994,3811],[86,7]],[[2065,3817],[-70,-6]],[[456,2549],[4,2]],[[1957,3368],[12,15]],[[1969,3383],[-11,-15]],[[3302,415],[3,-11]],[[2193,3135],[-4,12]],[[2029,4026],[-14,6]],[[2015,4032],[14,-5]],[[1894,3618],[-21,-24]],[[1873,3594],[9,-28]],[[1873,3594],[11,-30]],[[1884,3564],[1,-1]],[[1885,3563],[3,-8],[13,-5]],[[1901,3550],[24,-8]],[[1877,3584],[48,-42]],[[1882,3566],[3,-3]],[[1885,3563],[16,-13]],[[1901,3550],[5,-3]],[[1882,3566],[2,-2]],[[1884,3564],[41,-22]],[[1966,3746],[-8,-15]],[[1958,3731],[-4,-9]],[[1954,3722],[-10,-17]],[[1944,3705],[-32,-62],[-28,-27]],[[1896,4072],[-53,-131],[108,-175]],[[1902,3811],[49,-45]],[[1906,3547],[44,-34],[-25,29]],[[1949,3484],[-18,-28]],[[1951,3766],[7,-35]],[[1958,3731],[1,-2],[-5,-7]],[[1954,3722],[-39,-51],[29,34]],[[1944,3705],[17,18]],[[989,3629],[106,28]],[[1627,3678],[-353,-2]],[[1275,3677],[344,2]],[[2172,3558],[-169,29]],[[2192,3953],[1,2]],[[3372,3583],[-55,41]],[[3318,3625],[55,-42]],[[2026,3512],[-18,8]],[[2008,3521],[18,-8]],[[3305,404],[-3,11]],[[2054,3890],[-21,6]],[[2033,3896],[21,-6]],[[2101,3863],[-10,5]],[[2092,3870],[7,-6]],[[2090,3537],[-6,-49]],[[2087,3818],[45,-40],[-7,-138],[-24,-44]],[[1638,3459],[229,52]],[[1867,3510],[-223,-51]],[[1824,3509],[24,5]],[[1848,3513],[-24,-4]],[[1766,3734],[-8,91],[11,93]],[[1769,3918],[-3,-184]],[[1773,4095],[0,1]],[[1774,4096],[0,-1]],[[3350,2241],[-14,83]],[[0,1820],[47,-81],[204,-67],[9,-19]],[[260,1653],[-8,18],[-159,38],[-46,30],[-47,80]],[[0,3193],[17,36],[71,116]],[[17,3228],[-17,-36]],[[150,3446],[11,23],[39,65]],[[200,3533],[-26,-49],[-13,-15],[-10,-24]],[[200,3534],[55,103]],[[255,3636],[-54,-102]],[[291,1564],[0,-63],[-130,-253],[44,-281],[85,-199]],[[291,761],[-86,206],[-17,93],[-28,193],[130,246],[1,66]],[[466,3731],[-34,-3]],[[433,3728],[33,4]],[[1899,3601],[17,-3]],[[366,3719],[1,0]],[[2229,3023],[36,-76]],[[2367,2893],[137,-28]],[[3222,2796],[99,64]],[[3332,2868],[-11,-8]],[[3321,2860],[11,8]],[[200,3534]],[[201,3534],[-1,-1]],[[1886,3852],[80,-106],[-93,-152],[17,-40],[56,-29],[-24,-78]],[[2095,3570],[1,1]],[[2096,3573]],[[2018,3516],[-58,-22]],[[1960,3494],[58,22]],[[1912,3673],[-14,6]],[[1898,3680],[14,-7]],[[1913,3672],[-1,1]],[[1936,3662],[-12,6]],[[1995,3634]],[[2165,3126],[14,-7]],[[2008,3520],[-20,9]],[[1988,3529],[20,-8]],[[1873,3594],[77,-81]],[[2173,3558],[31,-7]],[[1914,3550],[-4,-2]],[[1766,3712],[-11,-21]],[[1756,3694],[7,14]],[[1765,3733],[0,1]],[[1770,3917],[1,5],[-1,10]],[[1770,3932],[-1,14]],[[1771,3946],[-1,-14]],[[1770,3932],[-1,-14]],[[2030,4027],[108,-41]],[[2137,3985],[-103,40]],[[2192,3953],[-36,22]],[[2156,3975],[37,-20]],[[2196,3129],[28,-15]],[[2819,3509],[-49,18],[-248,-4]],[[2522,3523],[248,5],[50,-19]],[[2051,3621],[12,22]],[[2086,3761],[5,-66],[-38,-75]],[[2079,3809],[0,11]],[[2080,3673],[5,79]],[[2083,3768],[0,1]],[[2091,3871],[16,31]],[[2108,3901],[-2,-3]],[[3126,1685],[-7,75],[49,90]],[[2061,3637],[20,212],[131,247]],[[2213,4096],[-132,-247],[10,-153],[-29,-58]],[[1982,3264],[-36,72],[-73,50]],[[3408,2497],[10,-13]],[[1890,3820],[26,12]],[[1916,3832],[-26,-12]],[[255,3637],[19,35],[10,8]],[[284,3680],[39,32]],[[323,3712],[3,2],[107,14]],[[432,3728],[-3,-1],[-2,0],[-104,-15]],[[323,3712],[-2,-1],[-37,-31]],[[284,3680],[-10,-8],[-19,-36]],[[260,1653],[31,-89]],[[291,1565],[-31,88]],[[466,3732],[252,40],[209,-31],[62,-112]],[[986,3635],[-59,106],[-211,31],[-250,-41]],[[2426,3766],[-14,-2]],[[2412,3764],[-62,-8]],[[2350,3756],[-2,0],[-169,96],[-47,-7]],[[2132,3846],[47,6],[92,-37],[13,-10],[66,-49]],[[2350,3756],[9,-7],[53,15]],[[2412,3764],[12,4]],[[1912,3551],[7,11]],[[3302,415],[-13,55],[26,43]],[[3315,513],[13,21]],[[3319,518],[-4,-5]],[[3315,513],[-4,-7]],[[1842,4095],[6,-2]],[[3444,1024],[4,19]],[[3529,3406],[-1,0]],[[3729,3074]],[[3805,2924],[0,1]],[[1760,3801],[2,1],[1,-3],[-2,-1],[-1,3]],[[2032,3575],[165,-25],[50,60],[108,20]],[[1911,3411]],[[411,3997],[-11,52]],[[400,4049],[11,-52]],[[424,4068],[-17,-10]],[[408,4059],[16,9]],[[563,3769],[-88,144]],[[476,3913],[85,-110],[2,-35]],[[1619,3679],[190,8]],[[1810,3687],[-52,-16],[-23,-5],[-108,12]],[[1881,3617],[-14,12]],[[1873,3636],[10,-18]],[[1890,3508],[3,-1],[0,-2],[-3,0],[0,3]],[[1850,3938],[-14,-2]],[[1836,3937],[14,1]],[[2023,3624],[1,1]],[[2132,3846],[0,-1]],[[2230,3345],[-10,5],[-34,93]],[[2186,3443],[44,-97]],[[3566,2577],[-154,-86]],[[1969,3387],[11,-8]],[[1980,3379],[-9,6]],[[1983,3377],[4,-3]],[[1987,3373],[-4,3]],[[1987,3374],[15,-15]],[[2002,3359],[-12,12]],[[2042,3354],[-5,0]],[[2037,3354],[-31,1]],[[2006,3356],[31,-2]],[[2037,3354],[4,0]],[[2043,3357],[7,37]],[[2051,3394],[-7,-38]],[[2044,3435],[4,8]],[[2048,3443]],[[2048,3443],[3,6]],[[2049,3404],[-4,18]],[[2046,3423],[0,-2],[1,-5]],[[2047,3416],[3,-10],[0,-2]],[[2047,3414],[0,2]],[[2047,3416],[1,22]],[[2048,3438],[0,5]],[[2048,3443],[0,2]],[[2048,3444],[0,-1]],[[2048,3443],[0,-5]],[[2048,3438],[1,-25]],[[2516,3713],[-180,-98]],[[2336,3615],[180,99]],[[2528,3720],[22,11]],[[2059,3556],[127,-89]],[[3194,3150],[-254,170],[-66,73],[-38,82]],[[2836,3475],[104,-155],[255,-169]],[[2984,1120],[-26,17],[-202,-36]],[[1855,3642],[-13,-16]],[[1858,3647],[1,1]],[[1898,3682],[-2,-1]],[[2384,3841],[1,1]],[[1282,3451],[-53,8],[-93,100],[-8,3],[-42,-1]],[[1086,3561],[-20,-1]],[[1066,3560],[-1,0],[-26,24]],[[1039,3584],[-53,51]],[[989,3629],[50,-45]],[[1039,3584],[27,-24]],[[1066,3560],[20,1]],[[1086,3561],[42,2],[8,-4],[93,-100],[53,-7]],[[1929,3596]],[[1928,3564],[-14,-14]],[[3269,1191],[50,65]],[[1649,3259],[65,-50],[89,-11]],[[1803,3198],[-89,10],[-43,12],[-20,33]],[[1922,3195],[51,10]],[[1973,3205],[-51,-10]],[[1896,3681],[-1,-1]],[[1896,3681],[3,2]],[[1937,3583],[2,8]],[[1940,3596],[-1,-4]],[[1649,3956],[46,-4],[2,0]],[[1697,3952],[2,0]],[[1699,3952],[85,-10]],[[1784,3942],[22,-2]],[[1806,3940],[6,-1]],[[1812,3939],[18,-2],[5,0]],[[1835,3937],[1,0]],[[1664,3949]],[[1664,3949],[-13,-9]],[[1838,3937],[-3,0]],[[1835,3937],[-27,3]],[[1808,3940],[-6,0]],[[1802,3940],[-18,2]],[[1784,3942],[-89,9],[-44,-13]],[[1656,3949],[38,3],[1,0],[2,0]],[[1697,3952],[16,1],[12,1],[83,-14]],[[1808,3940],[4,-1]],[[1812,3939],[13,-3]],[[1825,3936],[-19,4]],[[1806,3940],[-4,0]],[[1802,3940],[-77,14],[-12,-1],[-14,-1]],[[1699,3952],[-4,-1],[-1,0],[-30,-2]],[[1664,3949],[-8,-1]],[[1836,3936],[-6,0]],[[1850,3938],[3,1]],[[1855,3938],[-5,0]],[[1957,3905],[-87,31]],[[1871,3937],[84,-30]],[[1973,3904],[1,0]],[[1918,3598],[8,-2]],[[2022,3621],[3,1],[-2,-2],[-1,1]],[[4096,1902],[-53,105]],[[4043,2007],[53,-104]],[[1856,3939],[97,-32]],[[1955,3907],[18,-3]],[[2032,3575],[165,-25],[50,60],[108,20]],[[2204,3302],[21,53],[-27,102],[-40,30]],[[1894,3618],[-17,-44],[66,-46],[6,-44]],[[1941,3625],[9,-8]],[[1971,3599],[-31,-3]],[[3889,2649],[-9,32]],[[3880,2681],[9,-32]],[[1888,3608],[-7,10]],[[1881,3618],[8,-10]],[[1797,3683],[-145,-8]],[[1652,3675],[145,8]],[[1950,3617],[1,0]],[[1972,3598],[-21,19]],[[1951,3617],[21,-18]],[[2085,3770],[1,-8]],[[2322,3534],[-116,15]],[[2777,1151],[-21,-50]],[[2059,3555],[-30,6]],[[3364,1917],[-39,-230],[20,-105]],[[3346,2211],[15,-152]],[[2220,3571],[31,32]],[[2335,3615],[1,0]],[[1864,3640],[-5,7]],[[1859,3647],[5,-6]],[[1980,3596],[-8,2]],[[1972,3599],[8,-3]],[[1980,3596],[17,-7]],[[2003,3587],[-6,2]],[[1997,3589],[7,-2]],[[1953,3907],[2,0]],[[2322,3534],[13,91]],[[2342,3626],[0,3],[0,52],[3,46],[-1,20],[40,94]],[[2385,3842],[-40,-95],[1,-20],[-4,-101]],[[1094,3652],[-96,-31]],[[1649,3705],[7,95]],[[1657,3801],[-8,-101]],[[1657,3816],[-15,209],[9,51],[6,20]],[[1658,4096],[-1,-283]],[[2071,3608],[-19,10]],[[2053,3618],[18,-9]],[[3520,3419],[-21,68],[-127,96]],[[3373,3583],[126,-96],[21,-68]],[[2519,3523],[-188,27]],[[2331,3550],[188,-27]],[[1916,3598],[2,-2]],[[1999,3524],[-4,1]],[[1997,3525],[2,-1]],[[2037,3508],[-10,4]],[[2027,3512],[10,-4]],[[2064,3496],[-20,8]],[[2045,3505],[18,-8]],[[1967,3603],[10,-6]],[[1979,3596],[-9,2]],[[2004,3587],[7,-3]],[[2038,3576]],[[2102,3573],[1,0]],[[2103,3573],[-1,0]],[[2103,3573],[70,-15]],[[2205,3550],[-33,8]],[[2187,3555],[-3,0]],[[2193,3554],[4,-1]],[[2197,3552],[-4,1]],[[2204,3551],[1,-1]],[[1946,3761],[13,17]],[[1959,3778],[-13,-18]],[[2034,4025],[-111,23]],[[1924,4049],[43,-4],[43,-11],[20,-7]],[[1848,3473],[17,-28]],[[1865,3444],[-2,2],[-12,13]],[[1866,3391],[18,-13]],[[1983,3569],[18,-3]],[[2017,3563],[12,-2]],[[1948,3483],[-32,-41]],[[2083,3769],[-4,40]],[[2081,3809],[4,-39]],[[2086,3762],[0,-1]],[[2984,1120],[-57,35],[-150,-4]],[[3219,3026],[14,95]],[[3233,3121],[-14,-95]],[[2253,3915],[-25,14]],[[2375,3847],[3,-1],[8,-6]],[[2386,3840],[2,-1],[2,-3]],[[2375,3848],[3,-2],[6,-4]],[[2384,3842],[1,0]],[[2385,3842],[3,-3],[3,-2]],[[2536,3765],[-50,0],[-31,8],[-69,67]],[[2386,3840],[-1,2]],[[2385,3842],[-1,0]],[[2384,3842]],[[2385,3842],[101,-77],[59,0]],[[2545,3764],[-9,1]],[[1652,3675],[-105,11]],[[1547,3687],[105,-12]],[[1797,3683],[26,3],[44,-49],[5,-7]],[[1872,3630],[-49,56],[-26,-3]],[[3284,1249],[-114,85]],[[3172,1338],[112,-88]],[[2011,3899],[-36,4]],[[1975,3904],[64,-8],[42,-22]],[[2081,3874],[-51,22]],[[2131,3845],[-49,29]],[[2082,3874],[16,-9]],[[2099,3864],[33,-18]],[[1878,3436],[-8,5]],[[1870,3442],[8,-5]],[[1898,3679],[-3,1]],[[1896,3681],[2,-1]],[[2029,3561],[28,-5]],[[2059,3556]],[[2336,3615],[1,-254]],[[1987,3612],[-9,4]],[[1978,3616],[8,-3]],[[3353,2228],[-7,-17]],[[3347,2215],[5,11]],[[2085,3757],[-2,14]],[[2084,3771],[2,-14]],[[1760,3801],[-3,39],[4,39],[7,24],[1,9]],[[1769,3912],[1,5]],[[1765,3734],[-5,65]],[[1769,3918],[0,-6]],[[1769,3912],[0,-10],[-7,-26],[-3,-51],[4,-24]],[[1763,3799],[3,-59]],[[2239,3344],[134,-28],[406,-195],[449,-104],[52,-116],[53,-40]],[[3332,2861],[-11,7],[-42,32],[-51,116],[-391,88],[-57,15],[-135,53],[-74,33],[-41,22],[-157,89],[-126,26]],[[1867,3511],[4,-1]],[[1871,3510],[-4,0]],[[2193,3274],[-24,-64],[21,-62]],[[2194,3136],[2,-7]],[[2196,3129],[-1,0]],[[2264,2947],[-22,48],[-26,57],[7,62]],[[2224,3114],[5,-91]],[[2432,2878],[-64,14]],[[3279,2332],[67,109],[-12,96],[23,53]],[[3357,2589],[-23,-52],[13,-95],[-67,-110]],[[2276,4096],[-80,-141]],[[2095,3763],[6,-3]],[[3345,1582],[12,-212],[-38,-117]],[[3361,2059],[3,-142]],[[3598,3308],[-11,-1]],[[3587,3307],[-30,-2],[-48,1]],[[3509,3306],[48,0],[30,1]],[[3587,3307],[12,0]],[[3107,869],[8,-191]],[[3128,1280],[36,63]],[[1859,3648],[0,-1]],[[1919,3562],[8,33]],[[2648,3434],[11,40]],[[2660,3474],[-10,-40]],[[1959,3778],[23,22]],[[1989,3806],[-30,-28]],[[1979,3797],[15,14]],[[1994,3811],[-8,-7]],[[2163,3723],[-62,36]],[[2101,3760],[224,-129]],[[2325,3630],[-153,88]],[[1945,3632],[10,-5]],[[1978,3616],[-23,11]],[[1955,3627],[23,-11]],[[1986,3613],[4,-2]],[[1990,3611],[9,-4]],[[1999,3606],[-9,5]],[[1990,3611],[-3,1]],[[1991,3610],[-1,1]],[[1990,3611]],[[1990,3611]],[[1990,3611],[1,-1]],[[1991,3610],[6,-2]],[[1999,3606],[-2,2]],[[1997,3608],[2,-1]],[[2003,3605],[-4,1]],[[1999,3607],[4,-2]],[[2019,3599],[-7,1],[-9,5]],[[2019,3599],[-4,1],[-10,4],[-2,1]],[[2003,3605],[16,-6]],[[2035,3594],[-16,5]],[[2019,3599],[16,-4]],[[84,0],[-17,64],[-26,172],[71,127],[130,159],[38,185],[3,17]],[[283,724],[8,37]],[[290,768],[-7,-44]],[[283,724],[-3,-18],[0,-2],[-37,-182],[-201,-286],[54,-236]],[[1664,3794],[86,5]],[[1750,3799],[-86,-5]],[[1884,3817],[6,3]],[[1890,3820],[-6,-3]],[[1916,3832],[21,14]],[[1937,3845],[-21,-13]],[[315,376],[3,42],[48,271]],[[367,689],[-52,-313]],[[3208,3023],[-166,37]],[[3042,3060],[-241,52],[-275,118],[-124,70],[-172,45]],[[2230,3346],[158,-38],[409,-194],[245,-54]],[[3042,3060],[182,-41],[56,-119],[97,-69],[4,-38]],[[3262,2943],[-35,74]],[[2777,1151],[64,-97],[166,-56]],[[2335,3625]],[[2342,3626],[-7,-1]],[[3348,1167],[-24,39]],[[3325,1206],[23,-39]],[[3583,935],[-24,13],[-182,170]],[[3377,1118],[206,-183]],[[3772,775],[-85,99]],[[3687,874],[4,-2],[45,-38],[38,-53]],[[3638,3310],[-2,0]],[[3636,3310],[-38,-2]],[[3599,3307],[32,2],[5,1]],[[3636,3310],[2,0]],[[1924,3668],[-11,4]],[[2337,3361],[-1,-17]],[[0,3881],[2,-2],[67,-22],[4,-42]],[[73,3815]],[[321,3711],[-117,2],[-131,102],[-5,42],[-66,22],[-2,1]],[[73,3815]],[[73,3815],[20,-2],[1,0],[44,-28],[68,-72],[120,1]],[[2012,3223],[23,10]],[[2035,3233],[-23,-11]],[[2247,3342],[-6,1]],[[1916,3597],[-17,3]],[[2131,3845],[1,1]],[[2024,3625],[2,3]],[[2052,3696],[0,-1]],[[2052,3697],[8,24],[26,46]],[[2083,3760],[-31,-64]],[[2087,3767],[-2,-5]],[[2502,3554],[-49,116],[-33,130],[-6,63],[1,15],[20,55]],[[2435,3933],[-15,-133],[82,-246]],[[2465,4000],[45,96]],[[2511,4096],[-21,-47],[-25,-49]],[[3319,1256],[38,116],[-12,210]],[[3363,1917],[-2,142]],[[3337,2324],[13,-78]],[[1943,3759],[25,28]],[[562,2599],[-97,-82],[-35,-27]],[[430,2491],[131,108]],[[1873,3381],[-159,-79],[-206,-192],[-36,-3],[-14,0],[-178,-76],[-88,-70],[-115,-32]],[[1078,2929],[114,33],[84,67],[182,79],[50,3],[206,192],[159,78]],[[2424,1162],[232,0],[48,-17],[8,-29]],[[3332,2868],[13,57]],[[3345,2925],[-13,-57]],[[1995,3635],[1,0]],[[2021,3621],[0,1]],[[2021,3623],[1,0]],[[2035,3616],[-11,5]],[[2025,3622],[12,-6]],[[1878,3437],[1,1]],[[1879,3438],[-1,-2]],[[1879,3438],[54,42]],[[1938,3492],[-5,-12]],[[1933,3480],[4,12]],[[1928,3486],[-42,3]],[[1886,3490],[6,1],[11,0]],[[1935,3488],[-43,2]],[[1893,3491],[42,-3]],[[1897,3491],[31,0]],[[2836,3475],[-17,34]],[[2820,3509],[16,-34]],[[3352,2226],[101,145],[53,162],[-6,284],[-190,231],[-116,102]],[[3195,3151],[116,-102],[189,-232],[6,-283],[-53,-164],[-100,-142]],[[1864,3640],[-11,13]],[[1853,3654],[11,-13]],[[1973,3205],[39,18]],[[2012,3222],[-39,-17]],[[2035,3233],[137,-15],[101,-56]],[[2273,3162],[59,-33],[0,1]],[[2332,3130],[104,120],[23,34]],[[2461,3283],[-24,-33],[-103,-121],[-2,1]],[[2332,3130],[-59,32]],[[2273,3162],[-103,56],[-135,15]],[[1011,3625],[-4,-1]],[[1839,4096],[3,-1]],[[1938,3618],[0,1]],[[1939,3618]],[[1940,3618],[-1,-1]],[[1838,4096],[6,-2]],[[1866,4089],[1,1]],[[1878,4087],[13,-10]],[[1891,4077],[-13,9]],[[3561,1383],[4,10],[175,211]],[[3741,1605],[-179,-222]],[[1961,3906],[26,-4]],[[1987,3902],[-26,3]],[[3586,1636],[-80,52],[-172,0]],[[3334,1690],[171,-2],[81,-51]],[[2218,3569],[2,2]],[[2259,3606],[-40,-37]],[[1853,3939],[3,0]],[[1975,3903],[-120,35]],[[2063,3613],[36,-17]],[[2099,3595],[-27,13]],[[2072,3608],[-1,0]],[[2071,3609],[1,-1]],[[2072,3608],[5,-5]],[[1922,3195],[-119,3]],[[1803,3198],[119,-3]],[[3091,1169],[178,22]],[[3874,2200],[66,209],[-51,238]],[[1809,3687],[9,2],[35,-35]],[[1851,3655],[-41,32]],[[1968,3496],[1,-12]],[[2397,4004],[8,4]],[[2410,4007],[-13,-4]],[[2079,3820],[10,47]],[[2106,3898],[-25,-89]],[[2166,4009],[-58,-108]],[[2149,3980],[15,27]],[[2032,4009],[5,20],[20,67]],[[2058,4096],[-26,-87]],[[1958,3368],[-16,-21],[-18,-8],[-58,11],[-3,2],[-13,6],[-2,3]],[[1848,3362],[76,-23],[33,29]],[[1969,3383],[101,86]],[[2080,3473],[-111,-90]],[[2065,3494],[-22,100],[11,32]],[[2062,3638],[-17,-46],[34,-117]],[[2070,3469],[4,6],[-1,2]],[[2073,3477],[0,1]],[[2073,3478],[-1,1]],[[2072,3479],[-7,13]],[[2065,3492],[0,2]],[[2080,3473],[-6,4]],[[2074,3477],[-1,1]],[[2073,3478]],[[2073,3478],[-4,2],[-3,6],[-1,6]],[[2065,3492],[0,2]],[[2070,3469],[0,8],[3,0]],[[2073,3477]],[[2073,3477],[1,0]],[[2074,3477],[2,1],[3,-3]],[[2072,3479]],[[2072,3479],[1,-1]],[[2073,3478],[0,-1]],[[2073,3477],[2,-2],[-2,-4]],[[2079,3475],[96,-42],[40,-73]],[[2215,3356],[-40,77],[-95,40]],[[1788,3489],[-28,44],[-1,6],[-2,8],[2,14],[-7,23]],[[1754,3586],[-1,9]],[[1754,3594],[1,-8]],[[1758,3584],[2,-23],[-2,-14],[4,-14],[0,-1],[0,-1]],[[1762,3531],[1,-1]],[[1880,3488],[-24,-10],[-4,-1]],[[1852,3477],[-36,-8],[-3,1]],[[1813,3470]],[[1813,3470],[-1,0]],[[1812,3470],[-5,1],[-10,3]],[[1797,3474],[-2,0],[-3,5],[-5,20],[-12,14],[-4,5]],[[1771,3518],[-10,14],[-3,13],[1,16],[-14,110],[21,63]],[[1766,3734],[0,-17],[-21,-46],[15,-110],[-2,-16],[4,-13],[0,-1]],[[1762,3531],[12,-16]],[[1774,3515],[1,-2],[12,-14],[5,-20],[2,-2]],[[1794,3477],[3,-3]],[[1797,3474],[1,-1]],[[1769,3918],[4,177]],[[1774,4095],[-5,-177]],[[1769,3520],[2,-2]],[[1771,3518],[3,-3]],[[1774,3515],[2,-2],[1,-1],[2,-3]],[[1781,3507],[7,-8],[3,-8]],[[1794,3477]],[[1794,3477],[18,-7]],[[1812,3470]],[[1812,3470],[8,-2],[-1,0]],[[1819,3468],[-14,2]],[[1808,3471],[4,-1]],[[1812,3470],[1,0]],[[1813,3470]],[[1813,3470],[2,0],[40,8]],[[1855,3478],[0,1],[11,5],[14,4]],[[1827,3465],[-4,1],[-4,2]],[[1819,3468],[-1,0]],[[1818,3469],[9,-4]],[[1827,3465],[-6,1]],[[1822,3468],[5,-2]],[[1827,3465],[4,0]],[[1831,3464],[-4,1]],[[1832,3465],[15,9]],[[1848,3472],[-16,-8]],[[1886,3489],[-37,-16]],[[1849,3475],[3,2]],[[1852,3477],[3,1]],[[1855,3478],[10,6],[21,6]],[[1916,3597],[0,1]],[[1950,3865],[24,40],[-51,142]],[[1924,4049],[51,-145],[-25,-39]],[[3536,2351],[-7,2]],[[3529,2353],[8,-2]],[[4030,2024],[-197,201],[-62,10]],[[3772,2236],[62,-11],[66,-54],[131,-147]],[[2037,3616],[16,2]],[[2052,3618],[-15,-3]],[[1851,3459],[-15,56]],[[1837,3515],[11,-42]],[[1870,3441],[-8,5]],[[1862,3447],[8,-5]],[[1867,3444],[2,-2]],[[1982,3800],[10,9]],[[1992,3809],[9,8],[2,1]],[[2005,3818],[-4,-1],[-9,-8]],[[1992,3809],[-3,-3]],[[1994,3408],[13,5]],[[2018,3416],[-1,-1]],[[2017,3415],[-6,-2],[-4,-2]],[[2007,3411],[-1,0],[-10,-4]],[[1997,3409],[2,1],[14,6]],[[2013,3416],[8,3],[3,1]],[[2029,3423],[0,-1]],[[2029,3422],[-12,-7]],[[2017,3415],[-3,-1],[-8,-4]],[[2006,3410],[-1,0]],[[2034,3817],[-19,1]],[[2015,3819],[19,-2]],[[2048,3444],[-13,-11]],[[2041,3441],[-3,-4]],[[2038,3437],[-3,-4]],[[2035,3433],[-2,-5],[-4,-6]],[[2029,3422],[-2,-1],[-56,-36],[35,25]],[[2006,3410],[1,1]],[[2007,3411],[6,5]],[[2013,3416],[1,0],[24,21]],[[2038,3437],[10,8]],[[2046,3817],[7,0]],[[2054,3816],[-8,0]],[[2100,3812],[-35,5]],[[2088,3501],[-1,-4],[-6,-17],[-4,-4]],[[2078,3477],[9,24]],[[2080,3818],[7,0]],[[2083,3488],[4,13]],[[2087,3501],[3,35]],[[2101,3596],[24,45],[6,137],[-31,34]],[[2121,3801],[-21,11]],[[2100,3813],[20,-10]],[[2125,3653],[1,19]],[[2127,3672],[-1,-19]],[[2127,3687],[1,19]],[[2128,3706],[-1,-19]],[[2129,3730],[1,25]],[[2131,3755],[-2,-25]],[[3377,1118],[-29,49]],[[3348,1167],[29,-49]],[[3687,874],[-104,61]],[[3583,935],[104,-61]],[[4096,438],[-18,10]],[[4078,448],[-14,9]],[[4064,457],[-3,1],[-4,4],[-5,4]],[[4052,466],[-169,173]],[[3883,639],[-12,12],[-6,6],[-4,6]],[[3861,663],[-15,19]],[[3846,682],[-74,93]],[[3774,781],[72,-99]],[[3846,682],[9,-14],[6,-5]],[[3861,663],[4,-5],[7,-7],[11,-12]],[[3883,639],[103,-114],[1,-1],[45,-40],[18,-16],[2,-2]],[[4052,466],[12,-9]],[[4064,457],[2,-2],[12,-7]],[[4078,448],[18,-9]],[[2021,3622],[-26,12]],[[1996,3635],[25,-12]],[[2251,3603],[53,8]],[[2304,3611],[5,1],[26,3]],[[2336,3615],[-27,-3],[-5,-1]],[[2304,3611],[-45,-5]],[[1889,3506],[-18,4]],[[1871,3510],[18,-3]],[[2059,3556],[-2,0]],[[1896,4072],[-49,-160],[115,-169],[-89,-149],[16,-40],[54,-26],[6,-44]],[[2052,3695],[-14,-39],[-8,-22],[-6,-11]],[[2026,3628],[26,68]],[[2265,2947],[102,-54]],[[2504,2865],[194,-33],[51,36],[89,-10],[303,-99],[81,37]],[[1873,3386],[-14,18]],[[1859,3404],[-2,2]],[[1858,3406],[1,-2]],[[1859,3404],[7,-13]],[[2325,3631],[10,-6]],[[3883,3323],[1,0]],[[3884,3323],[-1,-1]],[[2037,3615],[-2,1]],[[2063,3643],[26,47],[1,13],[-5,54]],[[2086,3757],[5,-54],[-2,-14],[-19,-36]],[[2078,3832],[4,9]],[[2082,3841],[63,127]],[[2145,3968],[14,29],[53,99]],[[2083,3771],[-4,49]],[[2213,4096],[-40,-74]],[[2173,4022],[-28,-54]],[[2145,3968],[-63,-117],[0,-10]],[[2082,3841],[2,-70]],[[2087,3686],[3,17]],[[2091,3703],[-1,-14],[-2,-3]],[[2089,3867],[2,4]],[[2107,3902],[42,78]],[[2164,4007],[6,11]],[[2182,4040],[-1,-3],[-8,-15]],[[2173,4022],[-7,-13]],[[2171,4020],[9,16]],[[3971,406],[86,53]],[[4057,458],[-85,-52]],[[238,1675],[-192,64],[-46,79]],[[3507,3296],[8,41]],[[3519,3360],[0,48]],[[3519,3396],[2,-1],[3,-13]],[[3520,3419],[-1,-7]],[[3519,3412],[0,-3],[6,-19],[-6,22]],[[3519,3412],[0,1],[1,6]],[[3537,3412],[-14,-37]],[[3525,3387],[-2,5]],[[3524,3392],[2,2]],[[1995,3526],[6,39]],[[2001,3565],[-5,-37]],[[1920,3622],[9,-13]],[[2172,3718],[-9,5]],[[2335,3625],[-10,5]],[[3889,2649]],[[1656,3800],[1,16]],[[1657,3813],[0,-12]],[[1929,3596],[-1,-1]],[[2179,3119],[11,-5]],[[2762,1167],[-50,-51],[-30,5],[-6,-49],[21,-11]],[[2763,1165],[14,-14]],[[2890,442],[-94,25]],[[2816,1818],[120,22]],[[2936,1840],[133,26],[64,-9],[-197,-17]],[[2936,1840],[-124,-10]],[[2189,3147],[-21,63],[36,92]],[[2195,3129],[-2,6]],[[2176,4027],[-7,-11]],[[2659,3474],[9,30]],[[2670,3504],[-10,-30]],[[2002,3574],[0,1]],[[3121,1644],[181,38]],[[3303,1681],[-182,-37]],[[3481,3233],[26,63]],[[3515,3337],[-8,-45],[-25,-59]],[[3523,3375],[-3,-14]],[[3856,1745],[-6,-25],[-28,-29]],[[3823,1693],[32,52]],[[3958,1893],[67,111]],[[4026,2004],[-41,-80],[-27,-32]],[[1937,3583],[-9,-19]],[[3357,2590],[10,11]],[[3367,2601],[6,7],[-11,77],[14,93]],[[3376,2778],[1,5],[4,10],[-2,35],[-47,33]],[[3333,2861],[47,-32],[2,-36],[-4,-11],[-2,-4]],[[3376,2778],[-20,-58],[11,-119]],[[3367,2601],[0,-1],[-10,-11]],[[2158,3974],[-9,4]],[[2151,3980],[7,-6]],[[2086,3767],[3,4]],[[2110,3808],[-22,-40]],[[2092,3777],[18,31]],[[2110,3808],[7,13]],[[2132,3845],[-15,-24]],[[2117,3821],[14,24]],[[2204,3302],[-11,-28]],[[1935,3484],[-14,6]],[[3133,1857],[-321,-27]],[[3373,431],[-22,-10]],[[3351,422],[9,4]],[[3341,2185],[-117,15]],[[3224,2201],[117,-9]],[[3586,1637],[34,-22],[117,-2]],[[3738,1613],[-119,2],[-33,21]],[[2047,3414],[-1,0]],[[2046,3415],[3,-2]],[[3220,3698],[-77,58],[-112,-22],[-136,16]],[[2895,3750],[136,-15],[112,21],[77,-58]],[[2459,3284],[33,84],[3,119],[7,67]],[[2502,3554],[0,-19],[-1,-19],[-5,-29],[-4,-142],[-14,-36],[-17,-26]],[[2487,3603],[8,-14]],[[2492,3595],[5,-9]],[[2033,3896],[-3,0]],[[2030,3897],[3,-1]],[[553,3741],[10,28]],[[563,3768],[-5,-24]],[[3883,3322],[-90,-19]],[[3793,3304],[90,19]],[[3884,3323],[212,56]],[[4096,3378],[-212,-55]],[[3418,2484],[2,-60],[-93,-99],[-50,2]],[[3280,2331],[46,-6],[94,99],[-2,60],[-10,13],[-49,91]],[[3360,2588],[48,-91]],[[516,2558]],[[1429,3690],[-12,-1]],[[3073,1112],[5,16]],[[3078,1128],[6,20]],[[3084,1148],[-10,-36]],[[3078,1128]],[[3078,1128],[1,0]],[[3224,2200],[-27,17]],[[3197,2217],[27,-16]],[[3234,2193],[-2,1]],[[3233,2194],[1,-1]],[[3515,3337],[4,23]],[[3595,3387],[-5,8]],[[3590,3395],[5,-8]],[[3638,3310],[5,1]],[[3643,3311],[5,1],[7,2]],[[3655,3314],[-7,-2],[-5,-1]],[[3643,3311],[-5,-1]],[[3642,3313],[1,-2]],[[3643,3311]],[[3643,3311]],[[469,2520],[1,-1],[-1,0],[0,1]],[[2148,3979],[-11,6]],[[2138,3986],[11,-6]],[[1854,3641],[4,6]],[[1859,3647],[-4,-5]],[[2223,3114],[-27,15]],[[4043,2007],[-13,17]],[[4031,2024],[9,-10],[3,-7]],[[1959,3542],[38,-17]],[[1999,3524],[28,-12]],[[2035,3509],[12,-5]],[[2063,3497],[118,-27]],[[2179,3468],[1,0]],[[2096,3573],[4,21]],[[1961,3481],[-26,7]],[[1935,3488],[26,-6]],[[2384,3842],[-191,109]],[[2195,3952],[190,-110]],[[3072,978],[-6,87]],[[3066,1065],[0,3]],[[3066,1068],[-1,13],[44,166],[19,33]],[[3115,678],[-26,-63]],[[3089,1165],[-23,-97]],[[3066,1068],[-1,-1],[1,-2]],[[3066,1065],[37,-168],[4,-28]],[[1902,3537],[7,11]],[[1910,3548],[-7,-10]],[[366,689],[9,48],[-72,19]],[[303,757],[53,-8],[8,-1],[12,-11],[-9,-48]],[[338,0],[-32,259],[9,117]],[[315,376],[-9,-118],[39,-258]],[[2102,3596],[38,-3]],[[2145,3592],[-1,0]],[[2144,3592],[-29,2],[-12,1]],[[2132,3593],[9,0]],[[2141,3593],[4,-1]],[[2145,3592],[19,-5]],[[2164,3587],[8,-1]],[[2141,3593],[19,-3],[23,-7]],[[2230,3562],[-30,14],[-36,11]],[[2164,3587],[-10,4],[-9,1]],[[2145,3592],[-1,0]],[[2144,3592],[-2,0]],[[2230,3562],[-14,8],[-44,15]],[[2172,3586],[45,-16],[13,-7]],[[2172,3586],[46,-16],[1,0],[47,-19]],[[2266,3551],[2,-1],[1,0]],[[2269,3550],[2,-1],[1,0],[39,6]],[[2310,3554],[-38,-5],[-3,1]],[[2269,3550],[-3,1]],[[2266,3551],[-35,10],[-1,1]],[[2046,3414],[-53,92]],[[1994,3507],[52,-92]],[[2048,3415],[-1,-1]],[[2522,3523],[-3,0]],[[2519,3523],[3,0]],[[2085,3762],[-2,-2]],[[2088,3768],[-1,-1]],[[1928,3595],[-7,1]],[[3056,397],[-6,42]],[[3050,439],[-10,61]],[[3040,500],[0,3],[18,42]],[[3059,545],[-19,-45]],[[3040,500],[-1,-2],[11,-59]],[[3050,439],[7,-41]],[[3114,678],[-8,192]],[[3155,1444],[-2,-134]],[[3164,1343],[-8,100]],[[3176,1884],[11,28]],[[3187,1912],[17,42]],[[3200,1974],[-20,100]],[[3201,1970],[-14,-58]],[[3187,1912],[-4,-17]],[[3242,358],[39,30]],[[3280,387],[-37,-28]],[[3166,1343],[6,-5]],[[3170,1334],[-4,3]],[[3324,1206],[-40,43]],[[3284,1250],[41,-44]],[[1966,3483],[-11,0]],[[1966,3483],[-5,-2]],[[2040,3505],[-74,-22]],[[2546,3764],[-26,-29],[-178,-109]],[[2342,3626],[20,19],[8,5],[29,16],[27,22],[33,21],[45,19],[41,37]],[[1881,4085],[-44,11]],[[1844,4094],[22,-4],[15,-4]],[[2337,3361],[-15,173]],[[1928,3596],[10,22]],[[1939,3618],[-10,-21]],[[1939,3617],[-9,-20]],[[1938,3619],[7,13]],[[1945,3632],[-6,-14]],[[1946,3631],[-6,-13]],[[1649,3700],[-3,-435]],[[1651,3253],[-12,22],[-4,24],[14,406]],[[1853,3654],[3,-3]],[[1921,3596],[-3,0]],[[1983,3376],[-3,3]],[[1980,3379],[3,-2]],[[1987,3374],[19,-18]],[[2006,3355],[-19,18]],[[2041,3354],[6,60]],[[2049,3413],[-7,-59]],[[2516,3714],[108,63]],[[2624,3776],[-77,-47],[-31,-16]],[[2551,3731],[-23,-12]],[[1869,3632],[1,1]],[[1926,3596],[2,0]],[[1095,3657],[76,19],[104,1]],[[1274,3676],[-103,0]],[[2137,3855],[0,1]],[[1895,3680],[-36,-33]],[[1859,3648],[37,33]],[[1972,3571],[8,25],[6,17]],[[1987,3612],[-7,-17]],[[1994,3632],[5,12]],[[2008,3667],[14,35]],[[2024,3718],[-2,-16]],[[2022,3702],[2,15]],[[1910,3411],[-45,33]],[[1865,3445],[41,-30],[5,-4]],[[3227,3017],[-19,6]],[[3358,2703],[21,126],[-94,64],[-23,50]],[[3381,2793],[-23,-90]],[[1930,3594],[100,-19]],[[1825,3936],[46,1]],[[1870,3936],[-45,0]],[[1678,4093],[-8,3]],[[1671,4096],[8,-2]],[[3590,3395],[-10,3]],[[3581,3398],[9,-3]],[[3643,3311],[-48,76]],[[3595,3387],[47,-74]],[[3345,1582],[-21,105],[39,230]],[[3361,2059],[-14,156]],[[2186,3443],[1,2]],[[2187,3445],[30,53],[-4,41]],[[2213,3539],[-3,41],[-15,9],[27,62],[35,85]],[[2257,3736],[47,113]],[[2296,3833],[-39,-97]],[[2257,3736],[-34,-86],[-4,-11],[-23,-50],[14,-9],[8,-23],[-5,-18]],[[2213,3539],[-26,-94]],[[2187,3445],[-1,-2]],[[2015,4032],[-5,1]],[[2010,4034],[5,-2]],[[2034,4025],[-5,1]],[[2029,4027],[5,-2]],[[1930,3594],[102,-19]],[[1853,3653],[-2,2]],[[1907,3632],[-9,4]],[[1898,3637],[9,-5]],[[3529,2353],[-148,37]],[[3381,2390],[148,-37]],[[3771,2235],[-40,7],[-10,0],[-14,0]],[[3707,2242],[-15,0]],[[3692,2242],[-2,0],[-98,95],[-56,14]],[[3537,2351],[55,-13],[77,-54]],[[3671,2281],[1,-2],[20,-37]],[[3692,2242],[15,0]],[[3707,2242],[14,0],[10,1],[41,-7]],[[2089,3771],[3,6]],[[2192,3950],[6,12]],[[2199,3962],[-7,-12]],[[1884,3378],[63,-42],[35,-72]],[[2545,3765],[33,18],[22,2]],[[2895,3750],[-278,36],[-12,-1]],[[2605,3785]],[[2605,3785],[-22,-2],[-5,0]],[[2660,3771],[-8,1],[-47,13]],[[2605,3785],[-1,0],[-4,0]],[[2600,3785],[4,0],[1,0]],[[2605,3785],[47,-13],[8,-1]],[[2600,3785],[17,2],[278,-37]],[[3317,3624],[-97,74]],[[3220,3698],[98,-73]],[[2082,3874],[-1,0]],[[2081,3874],[1,0]],[[2098,3865],[1,-1]],[[1859,3647],[-1,0]],[[2435,3933],[30,67]],[[2465,4000],[-30,-67]],[[1848,3474],[1,1]],[[3413,2492],[153,86],[142,34]],[[3709,2612],[-23,-10],[-48,-13],[-72,-12]],[[3645,3307],[-2,4]],[[3643,3311],[2,-4]],[[3651,3289],[-6,18]],[[3871,2715],[9,-34],[-50,-15],[-55,-27],[-44,-20],[-11,-4]],[[3720,2615],[110,51],[50,15]],[[3871,2715],[-5,21]],[[3871,2715],[9,-34]],[[2008,3520],[-9,4]],[[1999,3524],[9,-3]],[[2027,3512],[-1,0]],[[2026,3513],[1,-1]],[[3655,3314],[138,-10]],[[3793,3303],[-138,11]],[[1907,4058],[-16,19]],[[1891,4077],[9,-10]],[[0,2357],[267,45],[57,35],[80,44],[26,10]],[[430,2490],[-163,-89],[-267,-45]],[[561,2599],[229,150],[28,73],[16,29],[244,78]],[[1077,2929],[-242,-78],[-16,-29],[-13,-41],[-16,-32],[-228,-150]],[[2337,3357],[0,15]],[[2338,3372],[-1,-15]],[[2206,3549],[-1,1]],[[2205,3550],[118,-16]],[[2214,3546],[-4,1]],[[2222,3543],[3,-1]],[[2322,3534]],[[1893,3602],[-5,6]],[[1889,3608],[5,-6]],[[2063,4014],[-6,2]],[[2057,4017],[6,-3]],[[2083,4007],[-1,0]],[[2082,4008],[2,-1]],[[2090,4005],[4,-2]],[[2094,4003],[-3,1]],[[2108,3998],[-3,1]],[[2105,3999],[3,-1]],[[2553,3771],[-13,-6]],[[2578,3783],[-33,-19]],[[2086,3126],[-104,137]],[[1983,3263],[104,-136]],[[2089,3124],[67,-3],[-67,3]],[[2090,3538],[1,5]],[[2091,3543],[-1,-6]],[[2092,3549],[1,11]],[[2158,3487],[-99,68]],[[1646,3265],[3,-6]],[[1891,3508],[11,29]],[[1903,3538],[-11,-30]],[[2132,3846]],[[2193,3950],[-56,-94],[55,95]],[[2335,3625]],[[2335,3625],[7,1]],[[2063,4014],[19,-6]],[[2105,3999],[-11,4]],[[2094,4003],[11,-4]],[[2193,3955],[82,141]],[[1881,3618],[-17,22]],[[1864,3641],[17,-23]],[[2007,3565],[-35,6]],[[2029,3561],[-13,2]],[[1918,3596],[-2,1]],[[1996,3528],[-1,-2]],[[2001,3565],[0,1]],[[2001,3567],[0,-2]],[[2004,3586],[18,35]],[[2023,3620],[-19,-33]],[[3729,3074],[-78,215]],[[3708,2612],[12,3]],[[3720,2615],[-11,-3]],[[3805,2925],[-76,149]],[[3866,2736],[-61,188]],[[1995,3525],[-36,15]],[[2027,3512],[-28,12]],[[2040,3506],[-5,3]],[[2047,3503],[-4,2]],[[2181,3470],[-117,26]],[[1858,3408],[8,22]],[[1866,3430],[-7,-22]],[[1866,3430],[8,26]],[[1875,3456],[-9,-26]],[[1874,3456],[16,49]],[[1891,3504],[-16,-48]],[[1891,4077],[-10,8]],[[1881,4086],[10,-9]],[[2330,3314],[7,47]],[[1823,3591],[-190,-1]],[[1633,3590],[190,2]],[[1708,4096],[-19,-4],[-11,1]],[[1679,4094],[28,2]],[[1841,3504],[-7,16]],[[1834,3520],[8,-16]],[[1857,3406],[1,2]],[[1859,3408],[-1,-2]],[[1898,3636],[-31,1]],[[1867,3637],[31,0]],[[1892,3490],[-12,-2]],[[1880,3488],[13,3]],[[1929,3609],[-22,23]],[[1907,3632],[13,-10]],[[1909,3548],[3,3]],[[1928,3491],[10,1]],[[1928,3596],[2,1]],[[1937,3846],[11,16]],[[1948,3862],[-11,-17]],[[1982,3263],[0,1]],[[1982,3264],[1,-1]],[[1988,3529],[-2,0]],[[1987,3529],[1,0]],[[1994,3507],[-1,-1]],[[1995,3526]],[[1995,3526],[0,-1]],[[1995,3526]],[[1995,3526],[0,-1]],[[1997,3589],[2,0],[5,-2]],[[2004,3587]],[[2004,3587],[5,-2],[2,-1]],[[1999,3493],[1,0]],[[2000,3493]],[[2000,3493]],[[2000,3493],[-1,-1]],[[2000,3492],[1,0]],[[2000,3566],[1,1]],[[2001,3566]],[[2004,3587]],[[2004,3587]],[[2004,3587]],[[2004,3587]],[[2004,3587]],[[2004,3587]],[[2018,3516]],[[2018,3516]],[[2018,3516]],[[2018,3516]],[[2045,3617],[-2,0],[-13,1]],[[2031,3577]],[[2032,3640]],[[2033,3577]],[[2033,3642]],[[2035,3595],[-1,0]],[[2036,3650]],[[2038,3658],[1,-1]],[[2040,3505],[2,1]],[[2043,3617],[7,2],[8,-4]],[[2045,3678],[1,0]],[[2052,3696],[0,1]],[[2052,3696]],[[2052,3696]],[[2062,3497],[4,-1]],[[2069,3577],[2,0]],[[2070,3609]],[[2079,3490],[0,-1]],[[2079,3600],[53,-7]],[[2089,3124],[-3,2]],[[2087,3127],[2,-3]],[[2142,3592],[-41,3]],[[2101,3595]],[[2101,3595]],[[2101,3595],[-1,0]],[[2100,3595],[-4,1]],[[2096,3596],[-6,0],[-3,0]],[[2090,3536],[0,2]],[[2091,3543]],[[2094,3563],[0,-1]],[[2096,3573],[0,-2]],[[2096,3574]],[[2096,3574]],[[2096,3574]],[[2096,3574]],[[2097,3574],[-1,-1]],[[2096,3596]],[[2096,3596],[0,-1]],[[2100,3595],[-1,0]],[[2100,3594],[0,1]],[[2101,3596],[0,-1]],[[2101,3595]],[[2101,3595],[-1,0]],[[2100,3595]],[[2100,3595],[1,1]],[[2101,3595],[-1,0]],[[2101,3596],[-2,0],[2,0]],[[2101,3596],[0,-1]],[[2101,3595]],[[2101,3595]],[[2101,3596]],[[2101,3595],[0,-1]],[[2101,3596],[0,-1]],[[2101,3595]],[[2103,3595],[-2,0]],[[2101,3596],[1,0],[-1,0]],[[2103,3758]],[[2105,3757]],[[2116,3751],[0,-1]],[[2117,3750]],[[2143,3848],[-10,-2],[-3,0],[-9,5]],[[2122,3851],[21,-3]],[[2126,3661],[-1,1]],[[2126,3663],[1,-1]],[[2152,3563]],[[2163,3484],[-1,0]],[[2173,3477],[-1,-1]],[[2173,3476]],[[2178,3963],[2,-2],[17,-14]],[[2197,3947],[2,-1],[2,-2]],[[2201,3944],[-2,1],[-2,2]],[[2197,3947],[-10,10],[-2,1]],[[2186,3160],[-1,0]],[[2187,3943],[5,7]],[[2210,3547],[-23,8]],[[2192,3950],[-5,-8]],[[2192,3554],[12,-3],[18,-8]],[[2299,3611],[-25,-3],[-6,-4]],[[2268,3604],[-39,-24],[-2,-3]],[[2233,3584],[16,16],[19,4]],[[2268,3604],[37,8],[4,0]],[[2317,3613],[35,7]],[[2344,3616],[-19,-2]],[[2342,3626]],[[2540,3765],[-4,0]],[[2591,3758],[23,13]],[[2614,3771],[-23,-13]],[[2622,3776],[1,2]],[[2001,3566],[1,3]],[[2002,3569],[-1,-2]],[[2002,3569],[0,5]],[[2002,3575],[1,2]],[[2004,3587],[-1,-10]],[[2003,3577],[1,9]],[[1696,3724],[46,-31]],[[1742,3693],[15,-11],[110,29]],[[1868,3711],[-42,-15],[-69,-14],[-15,11]],[[1742,3693],[-43,30]],[[1905,3728],[54,41],[47,23],[12,-1],[2,0]],[[2020,3791],[34,-9]],[[2054,3782],[4,-1],[1,-9],[-1,-8]],[[2058,3764],[-1,-5]],[[2058,3764]],[[2058,3764],[-4,18]],[[2054,3782],[-1,5],[-33,4]],[[2020,3791],[-2,0],[-12,1],[-101,-65]],[[3345,2925],[-9,31],[1,2],[81,163],[63,112]],[[3482,3233],[-145,-275],[8,-33]],[[3520,3361],[-5,-24]],[[1927,3397],[-17,13]],[[1911,3411],[15,-13]],[[1948,3395],[-19,2]],[[1929,3397],[19,-2]],[[1952,3394],[7,-2]],[[1959,3391],[-6,2]],[[1971,3385],[-10,5]],[[1962,3390],[7,-3]],[[2081,3480],[-18,-18],[0,-1]],[[2063,3461],[-15,-17]],[[2048,3445],[30,32]],[[2052,3450],[-4,-5]],[[2062,3460],[6,7]],[[2068,3466],[-5,-5]],[[2063,3461],[-1,-1]],[[2069,3468],[14,20]],[[2074,3473],[-4,-5]],[[1996,3635],[12,32]],[[2063,3643],[17,30]],[[2085,3752],[-2,16]],[[3243,359],[-17,-22],[-163,20],[-7,40]],[[3057,398],[7,-41],[162,-20],[16,21]],[[3058,545],[56,133]],[[3089,615],[-30,-70]],[[3106,870],[-34,108]],[[3153,1310],[-64,-145]],[[3123,1651],[0,5],[0,1],[3,32]],[[3126,1689],[0,2]],[[3126,1692],[-2,-36],[0,-1]],[[3124,1655],[-1,-6]],[[3156,1443],[-6,51]],[[3150,1494],[-5,46],[-10,28],[-6,19],[-8,48],[2,22],[3,28]],[[3183,1895],[-15,-67],[-48,-68],[6,-71]],[[3126,1689],[0,-4],[-2,-29],[0,-1]],[[3124,1655],[5,-68],[17,-46],[4,-47]],[[3150,1494],[5,-50]],[[3168,1850],[8,34]],[[3180,2074],[1,84]],[[3188,2185],[-7,-27]],[[3181,2158],[20,-188]],[[3280,2332],[-92,-147]],[[3188,2185],[91,147]],[[3204,1954],[-4,20]],[[3351,421],[-71,-34]],[[3281,388],[70,34]],[[3360,426],[97,46],[115,60],[103,50],[103,-58],[194,-118]],[[3971,406],[-295,176],[-218,-110],[-85,-41]],[[457,2565],[-43,32],[-53,-26],[-1,0],[-12,36],[-10,131],[4,8],[27,31],[9,22],[-25,158],[16,83],[-64,150],[-16,172],[-36,42],[-79,26],[-23,15]],[[151,3445],[102,-40],[37,-43],[15,-172],[64,-151],[-16,-83],[25,-157],[-9,-23],[-31,-38],[10,-131],[12,-35],[54,26],[43,-32]],[[2190,3148],[4,-12]],[[2368,2892],[-104,55]],[[1940,3596],[-11,0]],[[2335,3625]],[[2777,1151],[-65,-35]],[[1930,3594],[101,-19]],[[2006,3658],[1,5],[4,8]],[[2011,3671],[46,91],[-2,5]],[[2055,3767],[-22,49],[-1,2],[-16,22],[-5,11],[0,5]],[[2011,3856],[-2,30]],[[2009,3886],[-1,8],[0,26],[24,89]],[[2032,4009],[-24,-97],[1,-26]],[[2009,3886],[0,-14],[2,-16]],[[2011,3856],[0,-5],[21,-33],[26,-47],[-3,-4]],[[2055,3767],[-19,-34],[-25,-60],[0,-2]],[[2011,3671],[-4,-20]],[[2101,3759],[-14,8]],[[1867,3711],[38,17]],[[1905,3727],[-37,-16]],[[2101,3594],[-5,-21]],[[2193,3950],[-1,1]],[[2084,3488],[-3,-8]],[[1900,4067],[31,-19]],[[1931,4048],[-24,10]],[[3269,1190],[-175,-22]],[[1923,4047],[1,0]],[[1924,4047],[3,4]],[[1927,4051],[3,5]],[[1931,4056],[-4,-5]],[[1927,4051],[-3,-2]],[[1926,4038],[-2,9]],[[1924,4047],[1,3],[5,6]],[[1931,4056],[-5,-18]],[[1930,4056],[47,40]],[[1978,4096],[-47,-40]],[[1948,3862],[2,3]],[[1950,3865],[-2,-3]],[[2082,4007],[-19,7]],[[151,3445],[-134,-217]],[[88,3345],[62,101]],[[1934,3607],[3,-2]],[[1937,3605],[3,-9]],[[1937,3605],[2,-3]],[[1884,3817],[-30,-16],[-9,-4],[-21,-3],[-74,5]],[[1750,3799],[134,18]],[[2091,3543],[1,6]],[[2094,3562],[-1,-2]],[[2095,3570],[-1,-7]],[[3656,2291],[15,-10]],[[1974,3904],[1,0]],[[1956,3484],[7,-1]],[[1963,3483],[1,0]],[[1961,3482],[2,1]],[[1963,3483],[6,1],[71,21]],[[2044,3504],[-7,4]],[[2037,3508],[8,-3]],[[3311,506],[-21,-35],[12,-56]],[[3455,1073],[-17,-154],[-92,-156],[-6,-207],[-12,-21]],[[3328,535],[-9,-17]],[[3328,534],[0,1]],[[3328,535],[18,228],[91,156],[7,105]],[[3448,1043],[7,30]],[[3746,1611],[77,82]],[[3822,1691],[-76,-80]],[[3855,1745],[11,41],[92,107]],[[3958,1892],[-102,-147]],[[4025,2004],[71,128]],[[4096,2130],[-70,-126]],[[1986,3613],[8,19]],[[1996,3635],[-9,-23]],[[1910,3410],[0,1]],[[1926,3398],[20,-2],[6,-2]],[[1953,3393],[-26,4]],[[1959,3392],[3,-2]],[[1961,3390],[-2,1]],[[2089,3867],[-8,7]],[[2081,3874],[10,-3]],[[1928,3596]],[[1891,4077]],[[1858,3647],[-5,6]],[[1856,3651],[3,-3]],[[1644,3459],[-306,-13],[-56,5]],[[1282,3452],[356,7]],[[1341,3445],[-35,4]],[[1985,3412],[-20,77],[-2,6],[15,91],[7,23],[9,23],[13,31]],[[2011,3639],[-4,12],[-1,-1]],[[2006,3650],[-5,-7]],[[2001,3643],[-3,-5]],[[1998,3638],[-2,-2],[-12,-31],[-19,-116],[21,-77]],[[2009,3640],[-11,-2]],[[1998,3638],[-1,0]],[[1997,3640],[3,3],[1,0]],[[2001,3643],[6,-2]],[[2007,3641],[1,0],[3,-2]],[[2009,3640],[-2,1]],[[2007,3641],[-1,1],[0,8]],[[2006,3650],[0,8]],[[2331,3550],[-9,2],[-14,0]],[[2308,3552],[-59,1]],[[2249,3553],[-7,0],[-22,15],[-7,3],[-7,2]],[[2206,3573],[-56,18],[-66,-1]],[[2084,3590],[-2,0],[-73,50]],[[2011,3639],[71,-49],[2,0]],[[2084,3590],[122,-17]],[[2206,3573],[8,-1],[9,-4],[26,-15]],[[2249,3553],[2,-1],[2,-1],[55,1]],[[2308,3552],[15,0],[8,-2]],[[2186,3467],[47,-92],[-29,-73]],[[1171,3676],[-77,-24]],[[2397,4003],[-15,-4]],[[2382,3999],[-25,-7],[0,-3]],[[2357,3989],[-36,-109],[-25,-47]],[[2304,3849],[50,139],[3,1]],[[2357,3989],[25,10]],[[2382,3999],[15,5]],[[2405,4008],[28,10],[37,4]],[[2462,4018],[-52,-11]],[[400,4049],[0,5],[8,5]],[[407,4058],[-7,-9]],[[475,3913],[-64,84]],[[411,3997],[65,-84]],[[424,4068],[48,28]],[[472,4096],[-48,-28]],[[1939,3592],[0,-1]],[[1834,3520],[-4,7]],[[1831,3527],[3,-7]],[[1836,3515],[-11,42],[13,66],[16,18]],[[1842,3626],[-5,-111]],[[1850,3637],[2,1]],[[1852,3638],[-1,-1]],[[1852,3638],[13,17]],[[1866,3656],[-1,-1]],[[1865,3655],[1,1]],[[1884,3673],[2,2],[6,3],[6,5]],[[1898,3683],[1,0],[6,4],[2,1]],[[1907,3688],[-2,-1],[-6,-4],[-1,-1]],[[1898,3682],[-6,-4],[-6,-4],[-2,-1]],[[1946,3760],[-40,-65]],[[1906,3695],[-8,-12]],[[1898,3683],[0,-1]],[[1898,3682]],[[1899,3683],[7,12]],[[1906,3695],[40,66]],[[2192,3951],[0,2]],[[2193,3955],[0,-5]],[[2156,3975],[-19,10]],[[2138,3986],[18,-11]],[[2016,3563],[-15,3]],[[1886,3852],[80,-106],[-93,-152],[19,-43],[51,-23],[6,-44]],[[2336,3344],[-6,-30]],[[2335,3346],[2,11]],[[2337,3357],[-1,-11]],[[2983,1122],[-18,10],[-216,-147],[-2088,-985]],[[2335,3625]],[[2335,3625],[1,-10]],[[3455,1073],[106,310]],[[3562,1383],[-107,-310]],[[3740,1604],[6,7]],[[3746,1611],[-5,-6]],[[2088,3768],[7,-5]],[[4096,4096],[0,-3781],[-3,1],[-470,61],[-61,-13],[-101,-58],[-126,-22],[-31,-30],[-1,-1],[-10,-51],[0,-72],[-140,63],[0,19],[42,33],[-18,49],[-49,29],[-53,-29],[-31,18],[-26,-2],[-27,-10],[-37,-6],[14,10],[12,12],[9,17],[4,24],[-59,0],[10,17],[20,47],[9,18],[-24,0],[-55,20],[51,133],[38,56],[53,-26],[18,0],[20,33],[26,27],[22,33],[13,52],[-5,46],[-15,42],[-21,39],[-109,158],[-12,40],[11,28],[21,18],[25,15],[24,24],[7,23],[6,55],[8,25],[25,-15],[31,15],[28,30],[15,31],[-1,71],[-29,49],[-34,43],[-17,52],[-12,18],[-27,9],[-27,13],[-14,31],[62,82],[48,87],[61,87],[24,51],[-2,57],[-32,108],[-13,29],[-40,64],[-8,20],[6,32],[14,19],[13,14],[25,68],[43,19],[53,12],[46,31],[12,42],[5,69],[-6,65],[-41,58],[22,65],[51,91],[0,21],[-35,-25],[-29,-27],[-31,-23],[-37,-9],[-180,0],[-72,10],[-146,43],[-124,16],[-63,26],[-204,28],[-88,33],[-115,81],[-52,21],[-8,22],[6,29],[15,33],[6,42],[-3,47],[-31,-61],[-11,-48],[3,-126],[-25,-42],[-58,-26],[-367,-65],[-142,7],[-72,-6],[-56,-23],[-138,69],[-43,35],[-29,-57],[-34,-35],[-47,-26],[-253,-99],[-109,-23],[-70,-31],[-57,-26],[-47,-13],[-42,-31],[-22,-62],[-28,-46],[-59,16],[42,-18],[-5,-53],[-23,-46],[-36,-33],[-48,-13],[-42,-23],[-6,-52],[0,-3],[18,-97],[92,-123],[169,-142],[9,-14],[21,-17],[21,-22],[8,-30],[3,-27],[29,-112],[48,-117],[-7,-52],[-26,-47],[-96,-131],[-21,-42],[-29,-97],[-40,-216],[-15,-44],[-106,-169],[-39,-118],[-27,-122],[-13,-127],[1,-95],[0,-32],[50,-193],[3,-19],[-394,0],[0,4096],[4096,0]],[[390,0],[-86,0],[-15,20],[-31,0],[-2,40],[21,122],[-15,156],[84,60],[-5,-186],[49,-212]],[[3155,666],[41,-54],[-16,-38],[-83,-41],[-82,25],[-50,63],[18,27],[71,-26],[46,60],[55,-16]],[[4086,2256],[10,-86],[-19,44],[-98,-33],[0,66],[-53,107],[21,27],[27,-14],[89,-65],[23,-46]],[[3591,1915],[130,0],[-65,-133],[-47,27],[-79,154],[61,18],[0,-66]],[[4044,1848],[-129,67],[45,62],[76,31],[60,-5],[0,-129],[-52,-26]],[[546,2476],[-28,-46],[-59,16],[42,-18],[-8,-58],[-66,75],[7,104],[76,53],[55,-4],[28,-42],[-47,-80]],[[0,2880],[0,198],[49,-28],[-49,-170]],[[3676,3516],[77,-5],[8,-81],[46,-84],[-22,-68],[-92,-4],[-199,71],[162,99],[0,67],[20,5]],[[3397,3577],[-59,14],[-135,86],[42,52],[66,-16],[61,-58],[25,-78]],[[487,1679],[-2,-30],[-32,0],[-33,-99],[-64,-34],[-91,68],[-7,98],[37,24],[113,11],[45,32],[34,-70]],[[3999,914],[97,-53],[0,-128],[-84,-81],[84,-104],[0,-233],[-523,51],[19,70],[-10,35],[-24,0],[-228,-128],[-61,-92],[-86,-16],[-6,59],[-49,29],[-53,-29],[-69,11],[99,181],[54,-46],[-20,-87],[78,-6],[49,23],[66,82],[0,67],[97,100],[146,-35],[72,13],[56,85],[35,10],[79,193],[182,29]],[[3608,1101],[52,-7],[85,48],[40,-25],[-161,-399],[-53,48],[20,285],[-84,111],[20,55],[25,-7],[56,-109]],[[402,655],[-101,96],[-10,67],[44,30],[48,5],[101,-43],[-82,-155]],[[4096,1676],[0,-68],[-149,-58],[18,-40],[112,-60],[-98,-67],[0,-199],[-162,-1],[-32,100],[-65,0],[-18,38],[-14,-38],[-32,34],[-65,0],[0,66],[-32,0],[16,107],[-48,26],[-33,-33],[-32,33],[32,133],[-129,0],[0,-67],[-33,0],[0,-32],[-32,-1],[0,-33],[-54,-41],[-13,-81],[35,-11],[0,-66],[32,0],[-32,-133],[20,-38],[109,38],[-1,-41],[-46,-60],[-108,15],[-72,-47],[-13,-54],[43,-145],[-26,-60],[-41,-5],[-18,68],[-142,237],[81,85],[21,103],[56,0],[43,61],[-1,71],[-80,144],[-80,71],[195,307],[-34,165],[-61,113],[58,133],[142,62],[11,176],[-41,58],[73,177],[-127,-83],[4,48],[-57,68],[-200,28],[11,39],[86,61],[-23,38],[-268,-71],[-129,66],[-56,-24],[-9,24],[-80,-78],[-5,-87],[-68,10],[-255,135],[16,173],[-42,-109],[2,-106],[-44,57],[-180,126],[-24,145],[-64,-17],[-97,-149],[-162,0],[-97,-34],[0,-132],[-65,33],[-30,-13],[-100,-116],[-37,29],[-13,-25],[-91,48],[-85,10],[25,41],[105,59],[0,100],[81,19],[80,-52],[2,56],[-77,43],[-54,67],[32,66],[-129,133],[0,33],[-32,0],[0,34],[-33,0],[0,33],[-65,33],[-84,134],[-249,-40],[-154,19],[-62,53],[-85,-62],[-45,-104],[-32,10],[-65,90],[-129,66],[-33,67],[-64,51],[0,183],[32,32],[0,-33],[44,-25],[58,68],[59,10],[33,-319],[36,-4],[29,70],[32,0],[-33,142],[87,33],[43,58],[33,-67],[-54,-15],[-11,-51],[132,-45],[62,12],[32,33],[162,-33],[74,-51],[23,-66],[133,-55],[61,5],[33,-66],[-19,-82],[35,-15],[16,30],[65,-66],[64,0],[0,-33],[116,35],[78,64],[-73,39],[-24,-5],[0,-34],[-31,4],[-66,30],[15,37],[147,62],[0,34],[109,-76],[53,9],[53,42],[21,54],[-25,137],[-72,82],[-110,71],[321,0],[54,-87],[82,87],[651,0],[5,-62],[109,-106],[141,-18],[11,-92],[69,-65],[-15,-76],[-65,-33],[39,-105],[-7,-61],[-129,-34],[32,-82],[-21,-37],[53,-14],[0,-66],[33,0],[0,-100],[83,-7],[175,74],[22,-93],[43,-7],[97,66],[60,-102],[70,2],[22,19],[10,115],[130,33],[31,-54],[-31,-13],[0,-66],[-65,-67],[0,-66],[-32,0],[32,-33],[0,-67],[185,-147],[9,-119],[60,-2],[101,102],[73,33],[90,-33],[-8,-33],[-90,-34],[-64,-66],[-33,-67],[-89,-14],[25,-19],[-11,-18],[-87,-15],[-12,70],[-52,-4],[-26,-35],[12,-76],[-18,-55],[155,65],[71,2],[-6,-65],[64,-50],[7,-52],[-130,-33],[-93,34],[-94,-23],[-233,-277],[15,-27],[114,-6],[19,-41],[-15,-75],[158,-50],[32,-133],[62,-13],[3,-20],[129,33],[65,133],[97,-67],[149,-6]],[[2394,4009],[54,-100],[67,22],[6,61],[-127,17]],[[1822,3893],[-71,33],[-36,-49],[32,-1],[7,-26],[-7,-107],[64,-31],[97,-2],[-19,101],[-67,82]],[[3347,2142],[81,123],[75,9],[-21,-80],[77,44],[16,36],[19,-42],[23,35],[13,-37],[-25,0],[38,-32],[-38,-20],[-6,-48],[20,-19],[15,53],[-2,-23],[35,24],[23,-22],[-33,-79],[-31,-16],[27,-29],[-29,-15],[-19,-83],[-59,-80],[-42,41],[20,48],[-24,-16],[58,61],[-63,24],[8,25],[-32,24],[19,14],[-50,55],[-70,-2],[-23,27]],[[3323,324],[1,18],[21,-1],[6,81],[74,32],[23,-73],[-60,-2],[9,-63],[-48,-12],[0,35],[-26,-15]],[[2558,3291],[65,182],[110,2],[-80,-205],[-95,21]],[[2884,475],[20,118],[40,5],[15,36],[35,9],[26,-26],[0,-20],[53,-15],[-40,-82],[35,-178],[-29,-26],[-105,-12],[33,53],[-19,28],[-38,-18],[-7,39],[43,31],[-50,11],[-12,47]],[[3006,616],[4,-9],[6,-1],[2,7],[-12,3]],[[2965,593],[4,-1],[7,4],[-9,3],[-2,-6]]]}