{"objects":{"water":{"type":"GeometryCollection","geometries":[{"type":"Polygon","properties":{"source":"naturalearthdata.com","kind":"lake","area":588678784,"sort_rank":200,"min_zoom":0.0,"id":661},"arcs":[[112]]},{"type":"Polygon","properties":{"source":"naturalearthdata.com","kind":"lake","reservoir":true,"area":1410372352,"sort_rank":200,"min_zoom":0.0,"id":1056},"arcs":[[113]]},{"type":"Polygon","properties":{"kind":"lake","name":"Kremenchuk Reservoir","reservoir":true,"area":4472971264,"sort_rank":200,"source":"naturalearthdata.com","min_zoom":0.0,"id":1182},"arcs":[[114]]},{"type":"Point","properties":{"label_placement":true,"kind":"lake","name":"Kremenchuk Reservoir","reservoir":true,"area":4472971264,"sort_rank":200,"source":"naturalearthdata.com","min_zoom":0.0,"id":1182},"coordinates":[2605,824]},{"type":"LineString","properties":{"source":"naturalearthdata.com","kind":"lake","sort_rank":367,"boundary":true,"min_zoom":0.0,"id":661},"arcs":[115]},{"type":"MultiLineString","properties":{"source":"naturalearthdata.com","kind":"lake","reservoir":true,"sort_rank":367,"boundary":true,"min_zoom":0.0,"id":1056},"arcs":[[116],[117]]},{"type":"LineString","properties":{"source":"naturalearthdata.com","kind":"lake","reservoir":true,"sort_rank":367,"boundary":true,"min_zoom":0.0,"id":1182},"arcs":[118]}]},"buildings":{"type":"GeometryCollection","geometries":[]},"places":{"type":"GeometryCollection","geometries":[{"type":"Point","properties":{"name:pt":"Ucr\u00e2nia","name:ka":"\u10e3\u10d9\u10e0\u10d0\u10d8\u10dc\u10d0","name:mt":"Ukraina","name:ko":"\uc6b0\ud06c\ub77c\uc774\ub098","name:kn":"\u0c89\u0c95\u0ccd\u0cb0\u0cc8\u0ca8\u0ccd","name:km":"\u17a2\u17ca\u17bb\u1799\u1780\u17d2\u179a\u17c2\u1793","name:kl":"Ukraina","name:cs":"Ukrajina","alt_name:eo":"Ukrajno;Ukrainio","name:ki":"Ukraini","name:tr":"Ukrayna","name:ku":"\u00dbkrayna","name:ti":"\u12e9\u12ad\u122c\u1295","name:ks":"\u06cc\u0648\u0657\u0631\u0650\u06a9\u06cc\u0646","name:to":"\u02bbIukuleini","name:tl":"Ukraine","name:sv":"Ukraina","name:or":"\u0b5f\u0b41\u0b15\u0b4d\u0b30\u0b3e\u0b07\u0b28\u0b4d","name:pl":"Ukraina","name:ta":"\u0b89\u0b95\u0bcd\u0bb0\u0bc8\u0ba9\u0bcd","name:tg":"\u0423\u043a\u0440\u0430\u0438\u043d\u0430","name:ca":"Ucra\u00efna","name:te":"\u0c2f\u0c41\u0c15\u0c4d\u0c30\u0c46\u0c28\u0c4d","name:hu":"Ukrajna","name:ro":"Ucraina","name:cy":"Yr Wcr\u00e1in","name:hr":"Ukrajina","name:da":"Ukraine","name:de":"Ukraine","name:dz":"\u0f61\u0f74\u0f0b\u0f40\u0f62\u0f7a\u0f53","source":"openstreetmap.org","name:lv":"Ukraina","name:lt":"Ukraina","name:uz":"Ukraina","name:kk":"\u0423\u043a\u0440\u0430\u0438\u043d\u0430","name:he":"\u05d0\u05d5\u05e7\u05e8\u05d0\u05d9\u05e0\u05d4","kind":"country","name:ur":"\u06cc\u0648\u06a9\u0631\u06cc\u0646","name:lb":"Ukraine","name:la":"Ucraina","name:lg":"Yukurayine","name:hy":"\u0548\u0582\u056f\u0580\u0561\u056b\u0576\u0561","min_zoom":2.0,"name:li":"De Oekra\u00efne","name:ln":"Ikr\u025bni","name:lo":"\u0ea2\u0eb9\u0ec0\u0e84\u0ebc\u0e99","population":45665281,"name:el":"\u039f\u03c5\u03ba\u03c1\u03b1\u03bd\u03af\u03b1","name:eo":"Ukrainujo","name:en":"Ukraine","name":"\u0423\u043a\u0440\u0430\u0457\u043d\u0430","name:ee":"Ukraine nutome","name:th":"\u0e1b\u0e23\u0e30\u0e40\u0e17\u0e28\u0e22\u0e39\u0e40\u0e04\u0e23\u0e19","name:gu":"\u0aaf\u0ac2\u0a95\u0acd\u0ab0\u0ac7\u0aa8","name:eu":"Ukraina","name:et":"Ukraina","name:nl":"Oekra\u00efne","name:es":"Ucrania","name:ia":"Ukraina","name:rm":"Ucraina","name:rn":"Ikerene","name:az":"Ukrayna","name:id":"Ukraina","name:ms":"Ukraine","name:mr":"\u092f\u0942\u0915\u094d\u0930\u0947\u0928","name:ar":"\u0623\u0648\u0643\u0631\u0627\u0646\u064a\u0627","name:my":"\u101a\u1030\u1000\u101b\u102d\u1014\u103a\u1038","name:io":"Ukrainia","int_name":"Ukraine","name:is":"\u00dakra\u00edna","name:am":"\u12e9\u12ad\u122c\u1295","name:it":"Ucraina","name:vi":"Ukraina","name:ru":"\u0423\u043a\u0440\u0430\u0438\u043d\u0430","name:mn":"\u0423\u043a\u0440\u0430\u0439\u043d","id":1648342273,"name:mk":"\u0423\u043a\u0440\u0430\u0438\u043d\u0430","name:af":"Oekra\u00efne","name:zu":"i-Ukraine","name:ha":"Yukaran","name:nn":"Ukraina","name:ff":"Ukereen","name:fi":"Ukraina","name:hi":"\u092f\u0942\u0915\u094d\u0930\u0947\u0928","name:mg":"Okraina","name:fo":"Ukreina","name:fr":"Ukraine","name:fy":"de Oekra\u00efne","name:vo":"Lukray\u00e4n","name:zh":"\u4e4c\u514b\u5170","name:gv":"Yn Ookraan","name:so":"Ukrayn","name:sn":"Ukraine","name:sl":"Ukrajina","name:sk":"Ukrajina","name:ja":"\u30a6\u30af\u30e9\u30a4\u30ca","name:si":"\u0dba\u0dd4\u0d9a\u0dca\u0dbb\u0dda\u0db1\u0dba","name:fa":"\u0627\u0648\u06a9\u0631\u0627\u06cc\u0646","name:sg":"Ukr\u00eani","name:se":"Ukraina","name:ne":"\u092f\u0941\u0915\u094d\u0930\u0947\u0928","name:br":"Ukraina","name:bs":"Ukrajina","name:bm":"Uk\u025br\u025bni","name:bn":"\u0987\u0989\u0995\u09cd\u09b0\u09c7\u0987\u09a8","name:bo":"\u0f61\u0f74\u0f0b\u0f40\u0fb2\u0f53\u0f0d","name:ml":"\u0d09\u0d15\u0d4d\u0d30\u0d48\u0d7b","name:no":"Ukraina","name:sw":"Ukraini","name:be":"\u0423\u043a\u0440\u0430\u0456\u043d\u0430","name:bg":"\u0423\u043a\u0440\u0430\u0439\u043d\u0430","name:sr":"\u0423\u043a\u0440\u0430\u0458\u0438\u043d\u0430","name:sq":"Ukrain\u00eb","name:ga":"An \u00dacr\u00e1in","name:gd":"An \u00d9crain","name:gl":"Ucra\u00edna","name:yo":"Or\u00edl\u1eb9\u0301\u00e8de Ukarini","name:ak":"Ukren"},"coordinates":[487,1275]},{"type":"Point","properties":{"kind":"region","name:en":"Cherkasy Oblast","name":"\u0427\u0435\u0440\u043a\u0430\u0441\u044c\u043a\u0430 \u043e\u0431\u043b\u0430\u0441\u0442\u044c","kind_detail":"state","name:pt":"Oblast de Tcherk\u00e1ssi","name:de":"Oblast Tscherkassy","source":"openstreetmap.org","min_zoom":4.0,"name:eo":"\u0108erkasa Provinco","name:fr":"Oblast de Tcherkassy","name:be":"\u0427\u0430\u0440\u043a\u0430\u0441\u043a\u0430\u044f \u0432\u043e\u0431\u043b\u0430\u0441\u0446\u044c","name:ru":"\u0427\u0435\u0440\u043a\u0430\u0441\u0441\u043a\u0430\u044f \u043e\u0431\u043b\u0430\u0441\u0442\u044c","name:pl":"obw\u00f3d czerkaski","id":681769624,"name:es":"\u00d3blast de Cherkasy"},"coordinates":[422,505]},{"type":"Point","properties":{"name:pt":"Oblast de Poltava","name:az":"Poltava vilay\u0259ti","name:id":"Oblast Poltava","name:ka":"\u10de\u10dd\u10da\u10e2\u10d0\u10d5\u10d8\u10e1 \u10dd\u10da\u10e5\u10d8","name:mr":"\u092a\u094b\u0932\u094d\u0924\u093e\u0935\u094d\u0939\u093e \u0913\u092c\u094d\u0932\u093e\u0938\u094d\u0924","name:ko":"\ud3f4\ud0c0\ubc14 \uc8fc","name:cv":"\u041f\u043e\u043b\u0442\u0430\u0432\u0430 \u043e\u0431\u043b\u0430\u04ab\u04d7","name:ar":"\u0628\u0648\u0644\u062a\u0627\u0641\u0627 \u0623\u0648\u0628\u0644\u0627\u0633\u062a","name:cs":"Poltavsk\u00e1 oblast","min_zoom":4.0,"name:ro":"Regiunea Poltava","name:it":"Oblast' di Poltava","name:zh-min-nan":"Poltava s\u00e9ng","name:vi":"Poltava (t\u1ec9nh)","name:pl":"Obw\u00f3d po\u0142tawski","id":683681620,"name:ca":"Prov\u00edncia de Poltava","name:fa":"\u0627\u0633\u062a\u0627\u0646 \u067e\u0648\u0644\u062a\u0627\u0648\u0627","name:bg":"\u041f\u043e\u043b\u0442\u0430\u0432\u0441\u043a\u0430 \u043e\u0431\u043b\u0430\u0441\u0442","name:lt":"Poltavos sritis","source":"openstreetmap.org","kind_detail":"state","name:sh":"Poltavska oblast","name:de":"Oblast Poltawa","name:tr":"Poltava Oblast\u0131","name:fr":"Oblast de Poltava","name:mk":"\u041f\u043e\u043b\u0442\u0430\u0432\u0441\u043a\u0430 \u043e\u0431\u043b\u0430\u0441\u0442","name:be":"\u041f\u0430\u043b\u0442\u0430\u045e\u0441\u043a\u0430\u044f \u0432\u043e\u0431\u043b\u0430\u0441\u0446\u044c","name:zh":"\u6ce2\u5c14\u5854\u74e6\u5dde","name:lv":"Poltavas apgabals","name:ja":"\u30dd\u30eb\u30bf\u30f4\u30a1\u5dde","name:nn":"Poltava oblast","name:no":"Poltava oblast","kind":"region","name:sk":"Poltavsk\u00e1 oblas\u0165","name:hy":"\u054a\u0578\u056c\u057f\u0561\u057e\u0561\u0575\u056b \u0574\u0561\u0580\u0566","name:ru":"\u041f\u043e\u043b\u0442\u0430\u0432\u0441\u043a\u0430\u044f \u043e\u0431\u043b\u0430\u0441\u0442\u044c","name:sv":"Poltava oblast","name:hu":"Poltavai ter\u00fclet","name:hr":"Poltavska oblast","name:sr":"\u041f\u043e\u043b\u0442\u0430\u0432\u0441\u043a\u0430 \u043e\u0431\u043b\u0430\u0441\u0442","name:eo":"Poltava Provinco","name:en":"Poltava Oblast","name":"\u041f\u043e\u043b\u0442\u0430\u0432\u0441\u044c\u043a\u0430 \u043e\u0431\u043b\u0430\u0441\u0442\u044c","name:gl":"Oblast de Poltava","name:fi":"Pultavan alue","name:eu":"Poltavako oblasta","name:et":"Poltava oblast","name:nl":"Oblast Poltava","name:es":"\u00d3blast de Poltava"},"coordinates":[4096,2119]},{"type":"Point","properties":{"source":"naturalearthdata.com","kind":"locality","name":"Cherkasy","population":297568,"region_capital":true,"min_zoom":7.0,"id":2206},"coordinates":[1651,1157]},{"type":"Point","properties":{"source":"naturalearthdata.com","kind":"locality","name":"Kremenchuk","population":232742,"min_zoom":7.0,"id":2217},"coordinates":[3629,364]}]},"transit":{"type":"GeometryCollection","geometries":[{"type":"LineString","properties":{"kind":"train","name":"\u041a\u0438\u0457\u0432 - \u041e\u0434\u0435\u0441\u0430","sort_rank":275,"source":"openstreetmap.org","min_zoom":6.0,"name:ru":"\u041a\u0438\u0435\u0432 - \u041e\u0434\u0435\u0441\u0441\u0430","ref":"\u041a\u0438\u0457\u0432 - \u041e\u0434\u0435\u0441\u0430","id":-6762054,"osm_relation":true},"arcs":[83]},{"type":"LineString","properties":{"source":"openstreetmap.org","kind":"train","sort_rank":275,"ref":"Poltava-Romodan","min_zoom":6.0,"osm_relation":true,"id":-7113865},"arcs":[84]},{"type":"MultiLineString","properties":{"kind":"train","name":"\u041c\u043e\u0441\u043a\u0432\u0430 \u2014 \u041d\u0438\u043a\u043e\u043b\u0430\u0435\u0432","sort_rank":275,"name:de":"Moskau \u2014 Mykolajiw","source":"openstreetmap.org","min_zoom":6.0,"name:uk":"\u041c\u043e\u0441\u043a\u0432\u0430 \u2014 \u041c\u0438\u043a\u043e\u043b\u0430\u0457\u0432","ref":"061\u0425","osm_relation":true,"network":"\u0420\u0416\u0414"},"arcs":[[85],[86],[87],[88]]},{"type":"MultiLineString","properties":{"kind":"train","network":"\u0423\u043a\u0440\u0437\u0430\u043b\u0456\u0437\u043d\u0438\u0446\u044f","sort_rank":275,"name:de":"Kiew - Mykolajiw","source":"openstreetmap.org","min_zoom":6.0,"ref":"121\u041a","osm_relation":true,"name":"\u041a\u0438\u0457\u0432 - \u041c\u0438\u043a\u043e\u043b\u0430\u0457\u0432"},"arcs":[[89],[90],[91],[92]]},{"type":"MultiLineString","properties":{"kind":"train","network":"\u0420\u0416\u0414","sort_rank":275,"name:de":"Mykolajiw \u2014 Moskau","source":"openstreetmap.org","min_zoom":6.0,"name:uk":"\u041c\u0438\u043a\u043e\u043b\u0430\u0457\u0432 - \u041c\u043e\u0441\u043a\u0432\u0430","ref":"062\u041e","osm_relation":true,"name":"\u041d\u0438\u043a\u043e\u043b\u0430\u0435\u0432 \u2014 \u041c\u043e\u0441\u043a\u0432\u0430"},"arcs":[[93],[94],[95],[96]]},{"type":"LineString","properties":{"source":"openstreetmap.org","kind":"train","name":"\u0420\u043e\u043c\u043e\u0434\u0430\u043d \u2192 \u0413\u0440\u0435\u0431\u0435\u043d\u043a\u0430","sort_rank":275,"ref":"6361","min_zoom":6.0,"osm_relation":true},"arcs":[97]},{"type":"MultiLineString","properties":{"kind":"train","name":"\u0425\u0435\u0440\u0441\u043e\u043d - \u0425\u0430\u0440\u043a\u0456\u0432","sort_rank":275,"source":"openstreetmap.org","min_zoom":6.0,"ref":"376\u0428","osm_relation":true,"network":"\u0423\u043a\u0440\u0437\u0430\u043b\u0456\u0437\u043d\u0438\u0446\u044f"},"arcs":[[98],[99],[100]]},{"type":"LineString","properties":{"kind":"train","network":"train","sort_rank":275,"name:de":"Moskau - Kischinau","source":"openstreetmap.org","min_zoom":6.0,"name:uk":"\u041c\u043e\u0441\u043a\u0432\u0430 - \u041a\u0456\u0448\u0456\u043d\u0435\u0443","operator":"CFM","ref":"47\u0429: \u041c\u043e\u0441\u043a\u0432\u0430 - \u041a\u0438\u0448\u0438\u043d\u044d\u0443","osm_relation":true,"name":"\u041c\u043e\u0441\u043a\u0432\u0430 - \u041a\u0438\u0448\u0438\u043d\u044d\u0443"},"arcs":[101]},{"type":"LineString","properties":{"kind":"train","name":"Moscova - Chi\u015fin\u0103u","sort_rank":275,"name:de":"Moskau - Kischinau","source":"openstreetmap.org","min_zoom":6.0,"name:uk":"\u041c\u043e\u0441\u043a\u0432\u0430 - \u041a\u0456\u0448\u0456\u043d\u0435\u0443","operator":"CFM","ref":"341\u0424: Moscova - Chi\u015fin\u0103u","osm_relation":true,"network":"train"},"arcs":[102]},{"type":"MultiLineString","properties":{"kind":"train","name":"\u041c\u0438\u043a\u043e\u043b\u0430\u0457\u0432 - \u041a\u0438\u0457\u0432","sort_rank":275,"name:de":"Mykolajiw - Kiew","source":"openstreetmap.org","min_zoom":6.0,"ref":"122\u0428","osm_relation":true,"network":"\u0423\u043a\u0440\u0437\u0430\u043b\u0456\u0437\u043d\u0438\u0446\u044f"},"arcs":[[103],[104],[105],[106]]},{"type":"MultiLineString","properties":{"source":"openstreetmap.org","kind":"train","name":"\u0413\u0440\u0435\u0431\u0435\u043d\u043a\u0430 \u2192 \u0414\u0430\u0440\u043d\u0438\u0446\u0430","sort_rank":275,"ref":"6805","min_zoom":6.0,"osm_relation":true},"arcs":[[107],[108]]},{"type":"MultiLineString","properties":{"kind":"train","name":"\u0425\u0430\u0440\u043a\u0456\u0432 - \u0425\u0435\u0440\u0441\u043e\u043d","sort_rank":275,"source":"openstreetmap.org","min_zoom":6.0,"ref":"375\u041e","osm_relation":true,"network":"\u0423\u043a\u0440\u0437\u0430\u043b\u0456\u0437\u043d\u0438\u0446\u044f"},"arcs":[[109],[110],[111]]}]},"pois":{"type":"GeometryCollection","geometries":[]},"boundaries":{"type":"GeometryCollection","geometries":[{"type":"MultiLineString","properties":{"source":"naturalearthdata.com","kind":"region","name":"Chernihiv - Poltava","sort_rank":256,"kind_detail":"4","min_zoom":5.5,"id":980},"arcs":[[0],[1],[2],[3],[4],[5],[6],[7],[8]]},{"type":"LineString","properties":{"source":"naturalearthdata.com","kind":"region","name":"Kiev - Poltava","sort_rank":256,"kind_detail":"4","min_zoom":5.5,"id":982},"arcs":[9]},{"type":"MultiLineString","properties":{"source":"naturalearthdata.com","kind":"region","name":"Cherkasy - Poltava","sort_rank":256,"kind_detail":"4","min_zoom":5.5,"id":991},"arcs":[[10],[11],[12],[13],[14],[15],[16],[17],[18],[19],[20],[21],[22]]},{"type":"LineString","properties":{"source":"naturalearthdata.com","kind":"region","name":"Chernihiv - Sumy","sort_rank":256,"kind_detail":"4","min_zoom":5.5,"id":974},"arcs":[23]},{"type":"MultiLineString","properties":{"source":"naturalearthdata.com","kind":"region","name":"Chernihiv - Kiev","sort_rank":256,"kind_detail":"4","min_zoom":5.5,"id":975},"arcs":[[24],[25],[26],[27],[28],[29],[30],[31],[32],[33],[34],[35],[36],[37],[38],[39],[40],[41],[42],[43],[44]]},{"type":"MultiLineString","properties":{"source":"naturalearthdata.com","kind":"region","name":"Kirovohrad - Poltava","sort_rank":256,"kind_detail":"4","min_zoom":5.5,"id":992},"arcs":[[45],[46],[47],[48],[49]]},{"type":"MultiLineString","properties":{"source":"naturalearthdata.com","kind":"region","name":"Sumy - Poltava","sort_rank":256,"kind_detail":"4","min_zoom":5.5,"id":981},"arcs":[[50],[51],[52],[53]]},{"type":"MultiLineString","properties":{"source":"naturalearthdata.com","kind":"region","name":"Cherkasy - Kiev","sort_rank":256,"kind_detail":"4","min_zoom":5.5,"id":990},"arcs":[[54],[55],[56],[57],[58],[59],[60],[61],[62],[63],[64],[65]]},{"type":"MultiLineString","properties":{"source":"naturalearthdata.com","kind":"region","name":"Cherkasy - Kirovohrad","sort_rank":256,"kind_detail":"4","min_zoom":5.5,"id":994},"arcs":[[66],[67],[68],[69],[70],[71],[72],[73],[74],[75],[76],[77],[78],[79],[80],[81],[82]]}]},"roads":{"type":"GeometryCollection","geometries":[{"type":"LineString","properties":{"source":"naturalearthdata.com","kind":"minor_road","sort_rank":355,"kind_detail":"tertiary","min_zoom":6.0,"id":15072},"arcs":[119]},{"type":"LineString","properties":{"source":"naturalearthdata.com","kind":"minor_road","kind_detail":"tertiary","sort_rank":355,"landuse_kind":"urban_area","min_zoom":7.0,"id":15120},"arcs":[120]},{"type":"LineString","properties":{"source":"naturalearthdata.com","kind":"minor_road","sort_rank":355,"kind_detail":"tertiary","min_zoom":7.0,"id":15120},"arcs":[121]},{"type":"LineString","properties":{"source":"naturalearthdata.com","kind":"major_road","sort_rank":379,"kind_detail":"secondary","min_zoom":3.0,"id":15155},"arcs":[122]},{"type":"LineString","properties":{"source":"naturalearthdata.com","kind":"minor_road","sort_rank":355,"kind_detail":"tertiary","min_zoom":6.0,"id":15215},"arcs":[123]},{"type":"LineString","properties":{"source":"naturalearthdata.com","kind":"minor_road","sort_rank":355,"kind_detail":"tertiary","min_zoom":7.0,"id":15224},"arcs":[124]},{"type":"LineString","properties":{"source":"naturalearthdata.com","kind":"major_road","kind_detail":"secondary","sort_rank":379,"landuse_kind":"urban_area","min_zoom":3.0,"id":15228},"arcs":[125]},{"type":"LineString","properties":{"source":"naturalearthdata.com","kind":"major_road","sort_rank":379,"kind_detail":"secondary","min_zoom":3.0,"id":15228},"arcs":[126]},{"type":"LineString","properties":{"source":"naturalearthdata.com","kind":"minor_road","kind_detail":"tertiary","sort_rank":355,"landuse_kind":"urban_area","min_zoom":7.0,"id":15267},"arcs":[127]},{"type":"LineString","properties":{"source":"naturalearthdata.com","kind":"minor_road","sort_rank":355,"kind_detail":"tertiary","min_zoom":7.0,"id":15267},"arcs":[128]},{"type":"LineString","properties":{"source":"naturalearthdata.com","kind":"minor_road","sort_rank":355,"kind_detail":"tertiary","min_zoom":6.0,"id":15270},"arcs":[129]},{"type":"LineString","properties":{"source":"naturalearthdata.com","kind":"major_road","sort_rank":379,"kind_detail":"secondary","min_zoom":3.0,"id":15272},"arcs":[130]},{"type":"LineString","properties":{"source":"naturalearthdata.com","kind":"minor_road","sort_rank":355,"kind_detail":"tertiary","min_zoom":6.0,"id":15279},"arcs":[131]},{"type":"LineString","properties":{"source":"naturalearthdata.com","kind":"major_road","sort_rank":379,"kind_detail":"secondary","min_zoom":3.0,"id":15285},"arcs":[132]},{"type":"LineString","properties":{"source":"naturalearthdata.com","kind":"major_road","sort_rank":379,"kind_detail":"secondary","min_zoom":3.0,"id":15288},"arcs":[133]},{"type":"LineString","properties":{"source":"naturalearthdata.com","kind":"major_road","kind_detail":"secondary","sort_rank":379,"landuse_kind":"urban_area","min_zoom":3.0,"id":15420},"arcs":[134]},{"type":"MultiLineString","properties":{"source":"naturalearthdata.com","kind":"major_road","sort_rank":379,"kind_detail":"secondary","min_zoom":3.0,"id":15420},"arcs":[[135],[136]]},{"type":"LineString","properties":{"source":"naturalearthdata.com","kind":"major_road","sort_rank":379,"kind_detail":"secondary","min_zoom":4.0,"id":15465},"arcs":[137]},{"type":"LineString","properties":{"source":"naturalearthdata.com","kind":"major_road","sort_rank":379,"kind_detail":"secondary","min_zoom":3.0,"id":15496},"arcs":[138]},{"type":"LineString","properties":{"source":"naturalearthdata.com","kind":"minor_road","sort_rank":355,"kind_detail":"tertiary","min_zoom":7.0,"id":15557},"arcs":[139]},{"type":"LineString","properties":{"source":"naturalearthdata.com","kind":"major_road","sort_rank":379,"kind_detail":"secondary","min_zoom":4.0,"id":15570},"arcs":[140]},{"type":"LineString","properties":{"source":"naturalearthdata.com","kind":"minor_road","kind_detail":"tertiary","sort_rank":355,"landuse_kind":"urban_area","min_zoom":7.0,"id":15589},"arcs":[141]},{"type":"MultiLineString","properties":{"source":"naturalearthdata.com","kind":"minor_road","sort_rank":355,"kind_detail":"tertiary","min_zoom":7.0,"id":15589},"arcs":[[142],[143]]},{"type":"LineString","properties":{"source":"naturalearthdata.com","kind":"major_road","sort_rank":379,"kind_detail":"secondary","min_zoom":4.0,"id":15590},"arcs":[144]},{"type":"LineString","properties":{"source":"naturalearthdata.com","kind":"minor_road","sort_rank":355,"kind_detail":"tertiary","min_zoom":7.0,"id":15620},"arcs":[145]},{"type":"LineString","properties":{"source":"naturalearthdata.com","kind":"major_road","kind_detail":"secondary","sort_rank":379,"landuse_kind":"urban_area","min_zoom":4.0,"id":15632},"arcs":[146]},{"type":"LineString","properties":{"source":"naturalearthdata.com","kind":"major_road","sort_rank":379,"kind_detail":"secondary","min_zoom":4.0,"id":15632},"arcs":[147]},{"type":"LineString","properties":{"source":"naturalearthdata.com","kind":"minor_road","kind_detail":"tertiary","sort_rank":355,"landuse_kind":"urban_area","min_zoom":7.0,"id":15633},"arcs":[148]},{"type":"LineString","properties":{"source":"naturalearthdata.com","kind":"minor_road","sort_rank":355,"kind_detail":"tertiary","min_zoom":7.0,"id":15633},"arcs":[149]},{"type":"LineString","properties":{"source":"naturalearthdata.com","kind":"major_road","kind_detail":"secondary","sort_rank":379,"landuse_kind":"urban_area","min_zoom":4.0,"id":15657},"arcs":[150]},{"type":"LineString","properties":{"source":"naturalearthdata.com","kind":"major_road","sort_rank":379,"kind_detail":"secondary","min_zoom":4.0,"id":15657},"arcs":[151]},{"type":"LineString","properties":{"source":"naturalearthdata.com","kind":"major_road","sort_rank":379,"kind_detail":"secondary","min_zoom":4.0,"id":15690},"arcs":[152]},{"type":"LineString","properties":{"source":"naturalearthdata.com","kind":"minor_road","sort_rank":355,"kind_detail":"tertiary","min_zoom":7.0,"id":15873},"arcs":[153]}]},"earth":{"type":"GeometryCollection","geometries":[{"type":"Polygon","properties":{"sort_rank":10,"source":"naturalearthdata.com","kind":"earth","min_zoom":0.0,"id":4755},"arcs":[[154]]}]},"landuse":{"type":"GeometryCollection","geometries":[{"type":"MultiPolygon","properties":{"source":"naturalearthdata.com","kind":"urban_area","name":"","area":5617637883,"sort_rank":11,"min_zoom":4.0},"arcs":[[[155]],[[156]],[[157]],[[158]],[[159]],[[160]],[[161]],[[162]],[[163]],[[164]],[[165]],[[166]],[[167]]]}]}},"type":"Topology","transform":{"translate":[30.9375,48.9224992638],"scale":[0.0006866455,0.0004428603]},"arcs":[[[2607,3241],[123,68],[24,7],[50,4],[15,5],[8,5],[7,9],[8,19],[8,25],[7,10],[10,10],[33,20],[25,8],[7,5],[7,8],[9,27],[7,11],[9,9],[17,11],[36,15],[21,26],[55,106]],[[2095,3356],[10,-3],[5,-4],[10,-11],[4,-6],[10,-11],[6,-3]],[[1863,3208],[10,0],[12,5],[17,12],[16,17],[28,49],[10,12],[5,4],[6,5],[90,42],[38,2]],[[2203,3355],[20,0],[11,-2],[8,-2],[5,-5],[4,-6],[5,-14],[2,-7],[2,-8],[2,-8],[5,-15],[6,-12],[3,-4],[4,-3],[34,-10],[148,-7]],[[2140,3318],[9,2],[43,32],[11,3]],[[2518,3264],[14,-1],[8,-4],[3,-8],[3,-6],[8,-3],[53,-1]],[[2462,3252],[56,12]],[[1837,3224],[7,-3],[12,-10],[7,-3]],[[1750,3224],[87,0]],[[1649,2972],[38,56],[3,7],[4,13],[-1,7],[-3,7],[-4,7],[-3,9],[3,7],[5,6],[23,33],[36,100]],[[1663,2969],[-14,3]],[[1870,2766],[-8,0],[-10,6],[-26,37],[-3,3],[-5,4],[-16,6],[-30,6],[-9,5],[-11,12],[-5,11],[-4,17],[-3,9],[-5,7],[-6,7],[-19,26],[-9,24],[-9,14],[-7,8],[-8,2]],[[1677,2970],[-14,-1]],[[1982,2545],[-8,2],[-34,13],[-9,6],[-12,9],[-4,9],[-30,102],[-2,15],[5,4],[49,17],[6,8],[4,11],[-1,27],[-2,11],[-4,8],[-10,9],[-6,3]],[[1924,2799],[-6,0],[-6,-3],[-8,-5],[-10,-9],[-12,-9],[-12,-7]],[[2124,2178],[6,2],[6,4],[4,8],[3,12],[-4,40],[0,13],[1,9],[12,47],[2,12],[1,14],[-2,21],[-4,10],[-6,8],[-35,21],[-5,5],[-10,16],[-66,130],[-8,3]],[[2019,2553],[-7,0],[-22,-8],[-8,0]],[[2097,2186],[8,-1],[13,-6],[6,-1]],[[2188,1988],[-7,2],[-6,3],[-6,5],[-27,34],[-52,93],[-9,23],[-4,17],[3,8],[4,6],[6,4],[7,3]],[[2286,1936],[-5,0],[-5,4],[-3,5],[-6,11],[-11,14],[-20,22],[-6,4],[-7,3]],[[2223,1999],[-8,0],[-6,-2],[-14,-7],[-7,-2]],[[2696,766],[6,106],[-1,40],[-4,17],[-61,163],[-7,13],[-56,76],[-10,11],[-15,21],[-12,25],[-4,14],[0,11],[57,98],[5,6],[5,5],[6,5],[31,19],[5,5],[5,10],[4,13],[4,25],[0,14],[-1,12],[-10,41],[-5,9],[-5,7],[-38,27],[-7,7],[-5,9],[-8,16],[-3,11],[-4,66],[-5,14],[-6,10],[-159,61],[-8,6],[-10,10],[-4,9],[-2,10],[3,58],[0,15],[-2,24],[-3,12],[-5,9],[-48,38],[-7,2]],[[2312,1946],[-7,-1],[-12,-7],[-7,-2]],[[3093,3649],[50,143],[13,53],[3,28],[0,10],[-2,7],[-4,19],[-2,15],[3,8],[5,6],[16,11],[9,10],[4,9],[2,9],[1,35],[3,24],[6,15],[9,10],[10,8],[11,10],[13,17]],[[256,4096],[-2,-5],[-2,-8],[-1,-8],[5,-8],[9,-6],[19,-4],[24,-1],[8,-2],[6,-5],[2,-12],[-1,-19],[2,-6],[2,-3],[34,-28],[20,-21],[9,-12],[6,-14],[5,-13],[8,-31],[4,-24],[0,-8],[-1,-10],[-3,-8],[-6,-17],[-4,-7],[-5,-6],[-5,-5],[-7,-1]],[[1325,3842],[13,-6],[16,-11],[42,-40],[19,-13],[51,-70],[14,-17],[12,-10],[9,-2],[17,-3]],[[1165,3678],[9,2],[7,2],[6,5],[4,6],[9,13],[4,7],[5,7],[6,4],[13,6],[4,5],[1,6],[0,7],[-1,8],[0,8],[3,7],[8,10],[3,8],[1,8],[0,8],[1,8],[3,7],[5,5],[7,3],[29,10],[33,4]],[[382,3804],[-15,0]],[[367,3804],[-6,-2],[-4,-7],[-4,-18],[-1,-9],[1,-8],[4,-6],[4,-6],[42,-42],[8,-5],[9,-3]],[[449,3698],[10,-1],[8,-5],[6,-12],[1,-10],[-2,-21],[0,-10],[2,-7],[3,-6],[5,-6],[4,-6],[6,-5],[8,-4],[9,-2],[16,-1],[12,-4],[14,-10],[8,-4],[10,-3]],[[420,3698],[29,0]],[[1107,3684],[58,-6]],[[976,3601],[8,1],[7,3],[6,5],[14,18],[5,6],[6,4],[8,2],[16,3],[7,3],[6,5],[9,12],[10,11],[6,4],[7,3],[8,2],[8,1]],[[1580,3671],[9,-7],[6,-13],[4,-32],[-2,-31],[-2,-8],[-3,-8],[-4,-5],[-6,-4],[-1,-1]],[[1518,3670],[62,1]],[[820,3603],[88,-20]],[[765,3563],[16,13],[14,17],[6,5],[6,3],[7,1],[6,1]],[[957,3602],[19,-1]],[[908,3583],[9,0],[7,2],[7,4],[11,9],[7,4],[8,0]],[[621,3594],[30,-3],[114,-28]],[[569,3581],[16,3],[10,4],[7,5],[19,1]],[[1581,3562],[-2,0],[-30,6]],[[1549,3568],[-5,-1],[-4,-2],[-3,-2],[-2,-2],[-16,-21],[-8,-14],[-3,-9],[1,-11],[5,-12],[35,-29],[5,-5],[4,-8],[4,-15],[0,-11],[0,-10],[0,-9],[2,-7],[3,-7],[3,-5],[7,-7],[10,-8],[22,-11],[13,-2],[11,-1]],[[1649,3362],[18,-2],[6,-5],[5,-6],[0,-10],[-4,-7],[-5,-6],[-6,-4],[-11,-11],[-4,-6],[-3,-6],[8,-12],[9,-10],[88,-53]],[[1633,3359],[16,3]],[[3562,39],[-7,0],[-4,3],[-2,4],[-5,7],[-8,8],[-24,17],[-6,7],[-4,5],[-3,7],[-25,34],[-6,7],[-22,17],[-4,5],[-2,5],[3,4],[13,9],[4,3],[4,6],[4,7],[1,9],[0,8],[-2,15],[2,7],[5,4],[22,4],[7,3],[5,5],[1,7],[-1,8],[-7,10],[-35,11],[-12,5],[-6,8],[-5,20],[-7,3],[-135,14],[-11,9],[-7,7],[-16,27],[-2,6],[-2,6],[-6,14],[-27,43],[-9,12],[-10,10],[-152,117],[-363,180]],[[3731,0],[-26,11],[-11,8],[-9,12],[-17,12],[-45,21],[-21,6]],[[3602,70],[-14,0],[-4,-7],[-5,-9],[-5,-8],[-12,-7]],[[3870,0],[-10,1]],[[3860,1],[-3,-1]],[[3404,3667],[15,-1],[6,-5],[5,-5],[8,-7],[11,-8],[40,-16],[10,-6],[444,-90],[110,-51],[15,-2]],[[3286,3601],[18,2],[5,6],[4,7],[3,8],[3,9],[9,10],[16,10],[40,12],[20,2]],[[3093,3649],[54,-32],[139,-16]],[[4068,3476],[11,1],[14,18],[3,1]],[[1649,2972],[-19,7],[-13,9],[-15,8],[-8,3],[-19,2]],[[1575,3001],[-8,-1],[-13,-5],[-8,-5],[-7,-8],[-16,-19],[-7,-12],[-5,-12],[-2,-9],[-1,-9],[1,-8],[1,-7],[2,-4],[2,-5],[8,-11],[5,-6],[8,-12],[4,-6],[2,-8],[0,-8],[-1,-9],[-3,-8],[-8,-14],[-9,-12],[-31,-32],[-8,-5],[-10,-4],[-17,-3]],[[1454,2759],[-11,2],[-14,6]],[[1429,2767],[-6,-1],[-7,-13],[-7,-21],[-7,-16],[-10,-9],[-46,-35],[-12,-13],[-6,-11],[2,-8],[11,-28],[2,-8],[0,-8],[1,-18],[3,-16],[3,-16],[10,-28],[4,-15],[-1,-9],[-2,-8],[-8,-7],[-12,-7],[-57,-17],[-7,-4],[-6,-5],[-5,-10],[-1,-7],[1,-8],[2,-7],[2,-16],[0,-17],[0,-19],[-4,-19],[-6,-16],[-15,-31],[-37,-49],[-3,-6],[-2,-8],[2,-24],[-1,-9],[-2,-8],[-5,-6],[-25,-26],[-16,-26],[-14,-31],[-7,-12],[-5,-2],[-9,-2]],[[815,2072],[-8,4],[-4,5],[-8,12],[-11,12],[-3,6],[-2,7],[-2,17],[-1,8],[-3,7],[-5,5],[-6,5],[-5,6],[-4,6],[-3,6],[-3,7],[-2,8],[-1,8],[-2,8],[-4,5],[-5,4],[-8,2],[-7,1]],[[718,2221],[-12,-2],[-25,-10],[-16,-2]],[[665,2207],[-54,0]],[[611,2207],[-16,-2],[-15,-5],[-112,-79],[-51,-6],[-9,-5],[-8,-7],[-11,-15],[-14,-28],[-5,-6],[-14,-17],[-3,-7],[-2,-7],[3,-7],[5,-5],[12,-9],[6,-5],[4,-6],[-1,-8],[-2,-7],[-17,-34],[-2,-4],[-2,-8],[-1,-8],[1,-8],[3,-6],[5,-5],[6,-5],[5,-6],[2,-7],[0,-9],[-13,-81],[-3,-8],[-21,-34],[-3,-7],[-1,-9],[1,-7],[6,-14],[2,-7],[1,-8],[-2,-9],[-2,-8],[-15,-30],[-18,-50],[-5,-8],[-18,-17],[-6,-8],[-3,-9],[-1,-26],[1,-8],[2,-8],[5,-5],[7,-4],[17,-4],[6,-4],[4,-7],[2,-7],[1,-8],[1,-9],[-2,-27],[-1,-8],[-2,-6],[-8,-8],[-46,-32],[-13,-13],[-8,-11],[-24,-60],[-7,-12],[-4,-6],[-4,-6],[-63,-43],[-8,-9],[-9,-13],[-36,-34],[-15,-17],[-13,-19],[-7,-7],[-26,-21],[-8,-9],[-6,-9],[-13,-23]],[[1121,2087],[-137,26],[-7,4],[-3,7],[-1,8],[1,45],[0,9],[-3,7],[-4,6],[-7,3]],[[960,2202],[-8,-1],[-7,-4],[-5,-10],[-1,-7],[-2,-15],[-4,-19],[-3,-9],[-3,-8],[-5,-6],[-8,-5],[-10,-3],[-19,-1]],[[885,2114],[-11,2],[-8,5],[-5,5],[-6,5],[-8,1]],[[847,2132],[-7,-5],[-7,-12],[-4,-11],[-4,-20],[-3,-8],[-3,-3],[-4,-1]],[[2676,89],[11,4],[7,7],[7,10],[11,11],[66,57],[8,10],[6,10],[1,10],[0,9],[-2,6],[-7,4],[-26,6],[-6,5],[-4,6],[-24,71],[-3,7],[-7,20],[-1,5],[-1,5],[-2,16],[1,60],[-2,25],[-12,53],[-11,28],[-3,7],[-4,6],[-4,6],[-5,5],[-17,15],[-10,11],[-1,8],[2,8],[32,94],[4,9],[16,63]],[[2031,378],[7,-2],[6,-4],[3,-6],[1,-8],[-2,-18],[1,-8],[5,-5],[13,-9],[5,-6],[2,-7],[1,-8],[1,-8],[4,-6],[7,-5],[16,-5],[24,-5],[17,0]],[[1954,281],[8,2],[5,5],[0,7],[-1,8],[-2,7],[-2,8],[2,8],[4,7],[18,18],[16,5],[21,18],[8,4]],[[2201,305],[6,-3],[2,-8],[1,-8],[-1,-54],[0,-8],[3,-7],[10,-20],[56,-77],[3,-6],[5,-13],[6,-24],[2,-42],[2,-8],[2,-7],[6,-5],[11,-3]],[[2142,268],[11,2],[7,4],[19,19],[13,11],[9,1]],[[1908,294],[9,-1],[16,-7],[21,-5]],[[1748,0],[9,30],[1,9],[2,10],[0,9],[-3,7],[-4,5],[-5,5],[-5,6],[-2,6],[1,8],[6,16],[7,9],[10,10],[52,34],[5,4],[6,6],[18,36],[14,20],[23,45],[6,8],[10,10],[9,1]],[[2551,147],[9,-2],[16,-6],[38,-27],[5,-5],[6,-4],[6,-6],[22,-7],[23,-1]],[[2452,48],[11,1],[8,4],[27,23],[14,18],[8,14],[3,8],[4,10],[5,9],[10,9],[9,3]],[[2374,80],[9,-1],[13,-8],[18,-14],[8,-5],[11,-3],[19,-1]],[[2315,12],[20,0],[9,4],[6,7],[1,9],[1,8],[-1,9],[2,10],[3,9],[10,9],[8,3]],[[1095,50],[51,-2],[12,-3],[113,-42],[4,-3]],[[1057,0],[5,6],[5,15],[9,18],[11,7],[8,4]],[[1586,13],[7,-1],[7,-4],[6,-4],[2,-4]],[[1569,0],[9,9],[8,4]],[[897,9],[11,-2],[20,-7]],[[880,0],[3,4],[14,5]],[[1404,630],[-13,-180],[-67,-128],[-50,-25],[-30,-67],[-143,-68],[-44,-64],[54,-98]],[[3480,2424],[20,4],[32,-65],[131,-59],[158,37],[275,-53]],[[1413,628],[35,-29],[8,-53],[81,-121],[14,-91],[28,-30],[83,-29]],[[1418,623],[-55,29],[4,86],[118,145],[140,260],[-48,80],[112,137],[-35,83],[22,172],[-32,71],[45,31],[162,327],[291,668],[72,-1],[75,237],[-10,39],[-104,100],[-4,112],[-95,216],[52,278],[-12,46],[-84,63],[-8,154],[45,95],[6,45]],[[1619,296],[116,-38],[131,-94],[75,-80],[1,-2],[3,-1],[9,-4]],[[1926,101],[83,-69],[13,-32]],[[0,1649],[73,-13],[190,-172],[43,-3],[86,-186],[202,-164],[-31,-99],[74,-121],[88,-74],[3,-131],[144,-172],[164,7],[104,153],[132,9],[146,-60]],[[1413,628],[2,-2]],[[1619,296],[116,-38],[219,-181]],[[1926,101],[83,-69],[13,-32]],[[1413,628],[35,-29],[8,-53],[81,-121],[14,-91],[28,-30],[83,-29]],[[1418,623],[-55,29],[4,86],[118,145],[140,260],[-48,80],[112,137],[-35,83],[22,172],[-32,71],[45,31],[162,327],[291,668],[72,-1],[75,237],[-10,39],[-104,100],[-4,112],[-95,216],[52,278],[-12,46],[-84,63],[-8,154],[45,95],[6,45]],[[1619,296],[116,-38],[131,-94],[75,-80],[1,-2],[3,-1],[9,-4]],[[1895,137],[114,-105],[13,-32]],[[2177,2709],[459,-98],[134,-74],[139,-14],[82,-56],[-24,-57],[33,-38],[113,36],[358,8]],[[3630,268],[12,-35],[-84,-85],[-98,-6],[57,-142]],[[4096,556],[-197,-99],[-142,-21],[-124,-98],[-3,-70]],[[3630,268],[12,-22],[1,-2],[1,-3],[0,-2],[0,-3],[-1,-3],[-2,-4]],[[0,3766],[243,213],[214,76],[67,41]],[[0,3766],[243,213],[214,76],[67,41]],[[0,1649],[73,-13],[190,-172],[43,-3],[86,-186],[202,-164],[-31,-98],[72,-120],[90,-76],[3,-131],[144,-172],[164,7],[104,153],[132,9],[146,-60]],[[1413,628],[35,-29],[8,-53],[81,-121],[14,-91],[28,-30],[83,-29]],[[1619,296],[116,-38],[219,-181]],[[1895,137],[114,-105],[13,-32]],[[0,3287],[801,-105],[348,-215],[76,11],[787,-231]],[[1869,2787],[64,-18],[179,-50],[58,-9]],[[3630,268],[12,-35],[-84,-85],[-98,-6],[57,-142]],[[4096,556],[-197,-99],[-142,-21],[-124,-98],[-3,-70]],[[3630,268],[13,-24],[1,-8],[-1,-3],[-2,-4]],[[713,1915],[6,58],[18,107],[-4,59],[-22,126],[3,52],[19,70],[0,78],[39,-23],[21,-7],[10,7],[8,24],[19,15],[23,1],[19,-17],[-14,-36],[22,-33],[32,-38],[19,-49],[6,-204],[14,-58],[-16,-12],[-14,6],[-14,8],[-16,-2],[-10,-20],[-23,-60],[-12,-13],[-67,-61],[-45,-18],[-21,40]],[[3785,180],[72,14],[48,-26],[65,-36],[82,-49],[44,-18],[0,-65],[-104,0],[-19,19],[-50,15],[-49,35],[-43,40],[-46,71]],[[3258,318],[-31,-81],[0,-16],[39,-77],[11,-32],[-24,2],[-12,16],[-9,22],[-14,24],[-20,17],[-16,3],[-78,-16],[-80,-42],[-46,-10],[144,78],[15,11],[11,20],[0,24],[-6,19],[-3,21],[9,30],[-15,19],[-15,9],[-36,1],[-18,5],[-42,26],[-106,-57],[-18,3],[-13,22],[-31,19],[-37,12],[-30,1],[-60,-27],[-30,-6],[-29,16],[-9,46],[-43,69],[-98,119],[-209,155],[-103,31],[-16,22],[-12,24],[-27,26],[-52,37],[-190,70],[-59,37],[-124,129],[-47,26],[-49,10],[-18,15],[-58,102],[-23,24],[-30,3],[-120,110],[56,11],[31,17],[13,25],[11,46],[25,7],[29,-13],[25,-16],[41,-42],[52,-83],[46,-30],[104,-33],[54,2],[52,31],[76,-54],[18,-7],[18,-12],[46,-55],[17,-12],[21,-10],[53,-67],[26,-17],[84,-29],[61,-42],[24,-4],[34,4],[11,-4],[6,-10],[6,-16],[10,-16],[13,-6],[19,-5],[48,-20],[28,-6],[29,0],[27,4],[24,10],[19,17],[0,16],[-88,68],[-22,25],[-1,12],[2,14],[0,14],[-6,5],[-1,3],[-24,14],[-60,61],[17,20],[18,35],[25,70],[18,80],[16,17],[60,14],[16,-18],[26,-43],[4,-5],[-9,-32],[-61,-105],[68,-10],[172,-84],[-15,-38],[-21,-29],[-3,-20],[34,-7],[37,0],[19,-8],[12,-27],[29,-90],[18,-30],[23,-22],[32,-8],[32,-16],[17,-37],[26,-86],[22,-24],[72,-58],[15,-18],[61,-131],[10,-8],[27,-13],[12,-11],[34,-66],[0,-11],[-29,-76],[-14,-13]],[[713,1915],[6,58],[18,107],[-4,59],[-22,126],[3,52],[19,70],[0,78],[39,-23],[21,-7],[10,7],[8,24],[19,15],[23,1],[19,-17],[-14,-36],[22,-33],[32,-38],[19,-49],[6,-204],[14,-58],[-16,-12],[-14,6],[-14,8],[-16,-2],[-10,-20],[-23,-60],[-12,-13],[-67,-61],[-45,-18],[-21,40]],[[3785,180],[72,14],[48,-26],[65,-36],[82,-49],[44,-18]],[[3992,0],[-19,19],[-50,15],[-49,35],[-43,40],[-46,71]],[[3258,318],[-31,-81],[0,-16],[39,-77],[11,-32],[-24,2],[-12,16],[-9,22],[-14,24],[-20,17],[-16,3],[-78,-16],[-80,-42],[-46,-10],[144,78],[15,11],[11,20],[0,24],[-6,19],[-3,21],[9,30],[-15,19],[-15,9],[-36,1],[-18,5],[-42,26],[-106,-57],[-18,3],[-13,22],[-31,19],[-37,12],[-30,1],[-60,-27],[-30,-6],[-29,16],[-9,46],[-43,69],[-98,119],[-209,155],[-103,31],[-16,22],[-12,24],[-27,26],[-52,37],[-190,70],[-59,37],[-124,129],[-47,26],[-49,10],[-18,15],[-58,102],[-23,24],[-30,3],[-120,110],[56,11],[31,17],[13,25],[11,46],[25,7],[29,-13],[25,-16],[41,-42],[52,-83],[46,-30],[104,-33],[54,2],[52,31],[76,-54],[18,-7],[18,-12],[46,-55],[17,-12],[21,-10],[53,-67],[26,-17],[84,-29],[61,-42],[24,-4],[34,4],[11,-4],[6,-10],[6,-16],[10,-16],[13,-6],[19,-5],[48,-20],[28,-6],[29,0],[27,4],[24,10],[19,17],[0,16],[-88,68],[-22,25],[-1,12],[2,14],[0,14],[-6,5],[-1,3],[-24,14],[-60,61],[17,20],[18,35],[25,70],[18,80],[16,17],[60,14],[16,-18],[26,-43],[4,-5],[-9,-32],[-61,-105],[68,-10],[172,-84],[-15,-38],[-21,-29],[-3,-20],[34,-7],[37,0],[19,-8],[12,-27],[29,-90],[18,-30],[23,-22],[32,-8],[32,-16],[17,-37],[26,-86],[22,-24],[72,-58],[15,-18],[61,-131],[10,-8],[27,-13],[12,-11],[34,-66],[0,-11],[-29,-76],[-14,-13]],[[3777,4069],[0,27]],[[2069,3825],[50,-26],[12,-18]],[[1847,4096],[37,-101],[36,-47],[43,-28],[24,-18],[42,-56],[40,-21]],[[59,4096],[-25,-55],[-34,-60]],[[3524,3334],[12,18],[0,38],[-24,130],[0,37],[12,56],[30,37],[84,103],[24,65],[42,56],[31,28],[30,56],[12,56],[0,55]],[[3524,3334],[48,9],[36,0],[78,-19],[36,0],[67,10],[78,-19],[48,-19],[30,-9],[108,0],[43,8]],[[0,3293],[22,-15],[18,-37],[13,-7]],[[53,3234],[5,-3]],[[2131,3781],[31,-65]],[[2162,3716],[5,-10],[12,-46],[0,-38],[-18,-74],[6,-56],[18,-56],[54,-56],[-12,-130],[42,-158],[24,-66],[18,-28]],[[2323,2989],[-12,9]],[[1740,3017],[54,-9],[78,18],[67,10],[60,-10],[90,-18],[114,-10],[84,-9],[36,0]],[[2311,2998],[36,10],[66,-19],[48,-9],[198,37],[42,0],[60,-19],[48,-37],[43,0],[78,47],[66,9],[66,0],[30,9],[60,19],[54,28],[78,65],[150,158],[24,19],[66,19]],[[58,3231],[55,-9],[30,-19],[60,-46],[54,-10],[156,-18],[120,-10],[60,-9],[168,-37],[84,-28],[102,-47],[115,-74]],[[1062,2924],[60,-19],[60,-9],[36,9],[66,28],[42,47],[30,37],[42,28],[36,9],[48,10],[96,-19],[90,0],[72,-28]],[[2942,2471],[12,-3],[54,0],[30,-10],[13,-9]],[[2323,2989],[12,-28],[36,-65],[60,-121],[18,-19],[72,-18],[54,-56],[24,-19],[96,-56],[30,-28],[18,-46],[24,-19],[54,0],[37,-9],[60,-28],[24,-6]],[[3051,2449],[41,-28],[24,-37],[0,-56],[18,-19],[30,-18],[12,-28],[24,-112],[30,-65],[36,-28],[102,-56],[42,-56]],[[70,1657],[0,56],[-6,37],[-30,47],[-34,65]],[[3410,1946],[30,-37],[108,-65],[42,-38],[84,-65],[48,-28],[97,-18],[72,0],[162,0],[43,0]],[[3260,931],[-60,102],[-72,84],[-48,47],[-18,28],[0,56],[-12,37],[-36,56],[-36,9],[-48,0],[-18,19],[-48,74],[-30,75],[-37,55],[-72,56],[-54,28],[-102,10],[-84,28],[-84,37],[-36,28],[-36,37],[-42,28],[-66,-9],[-42,-10],[-18,0],[-48,47],[-24,9],[-48,9],[-72,-27],[-67,-38],[-102,-37],[-66,-28],[-42,-28],[-30,-46]],[[749,810],[-36,9],[-24,9],[-126,112],[-18,19],[-6,28],[6,84],[-12,28],[-24,18],[-96,37],[-54,47],[-36,47],[-12,27],[0,94],[-18,46],[-66,56],[-60,28],[-54,28],[-37,37],[-12,37],[6,56]],[[1354,762],[-10,-45],[-24,-13]],[[1320,704],[-12,-6]],[[1356,773],[-2,-11]],[[1308,698],[-60,19],[-54,0],[-60,0],[-48,9],[-73,0],[-84,-37],[-54,18],[-24,47],[-36,37],[-42,19],[-24,0]],[[3260,931],[-18,-56],[-30,-130],[-30,-66],[36,0],[84,-46],[30,-28],[24,-37],[12,-56]],[[3644,353],[66,38],[58,18]],[[3768,409],[87,28],[96,10],[84,18],[42,10],[19,14]],[[3453,430],[17,-21],[66,-28],[96,-18],[12,-10]],[[3368,512],[24,0],[18,-19],[36,-56],[7,-7]],[[3641,216],[3,7],[12,75],[-12,55]],[[3632,195],[9,21]],[[3554,0],[-6,83],[24,47],[24,37],[36,28]],[[3781,0],[-89,111],[-60,84]],[[4096,4096],[0,-4096],[-4096,0],[0,4096],[4096,0]],[[3357,249],[-57,27],[67,65],[36,-7],[10,-58],[-56,-27]],[[3899,452],[-52,34],[3,66],[42,-22],[7,-78]],[[4012,382],[39,-74],[45,-8],[-1,-61],[-99,-88],[-49,25],[-113,0],[16,176],[49,0],[16,50],[42,10],[55,-30]],[[3801,598],[1,-46],[-27,24],[-70,-49],[84,-159],[-24,-62],[-80,9],[20,-89],[-17,-25],[-81,25],[0,50],[-48,0],[-32,75],[-92,18],[-6,58],[64,7],[34,68],[77,2],[55,83],[142,11]],[[1402,601],[-44,1],[-49,65],[17,61],[81,100],[50,-103],[-55,-124]],[[1569,1265],[43,-75],[114,-50],[48,-78],[-106,-50],[-67,17],[-82,123],[-63,27],[14,41],[83,-15],[-33,100],[49,-40]],[[4015,2451],[25,-56],[-28,-36],[-16,25],[-87,-64],[-81,57],[-10,82],[46,-25],[90,49],[58,1],[3,-33]],[[2991,2383],[-88,156],[54,47],[100,-88],[-8,-63],[-58,-52]],[[1262,2961],[-56,40],[-25,85],[55,-39],[26,-86]],[[2151,3688],[-84,72],[4,129],[42,-7],[71,-110],[-33,-84]],[[0,3212],[0,86],[40,13],[24,-24],[4,-46],[-68,-29]],[[3494,3387],[-97,76],[22,47],[78,-95],[-3,-28]],[[3795,3393],[-38,46],[12,74],[49,-100],[-23,-20]]]}