{"objects":{"water":{"type":"GeometryCollection","geometries":[{"type":"Polygon","properties":{"source":"naturalearthdata.com","kind":"ocean","area":1576712559132672,"sort_rank":200,"min_zoom":0.0,"id":1},"arcs":[[105]]},{"type":"LineString","properties":{"source":"naturalearthdata.com","kind":"ocean","sort_rank":205,"boundary":true,"min_zoom":0.0,"id":52},"arcs":[106]},{"type":"LineString","properties":{"source":"naturalearthdata.com","kind":"ocean","sort_rank":205,"boundary":true,"min_zoom":0.0,"id":1420},"arcs":[107]}]},"buildings":{"type":"GeometryCollection","geometries":[]},"places":{"type":"GeometryCollection","geometries":[{"type":"Point","properties":{"name:kg":"Kipros","name:ka":"\u10d9\u10d5\u10d8\u10de\u10e0\u10dd\u10e1\u10d8","name:ko":"\ud0a4\ud504\ub85c\uc2a4","name:cv":"\u041a\u0438\u043f\u0440 \u0420\u0435\u0441\u043f\u0443\u0431\u043b\u0438\u043a\u0438","name:cu":"\u041a\u0477\u043f\u0440\u044a","name:kl":"Cyperni","name:cs":"Kypr","name:ki":"Kuprosi","name:co":"Cipru","name:kv":"\u041a\u0438\u043f\u0440","name:ku":"K\u00eepros","name:ti":"\u1233\u12ed\u1355\u1228\u1235","name:ks":"\u0633\u0627\u06cc\u0641\u0631\u065b\u0633","name:to":"Saipalesi","name:tl":"Tsipre","name:ce":"\u041a\u0438\u043f\u0440","name:ta":"\u0b9a\u0bc8\u0baa\u0bcd\u0baa\u0bbf\u0bb0\u0bb8\u0bcd","name:tg":"\u041a\u0438\u043f\u0440","name:ca":"Xipre","name:te":"\u0c38\u0c48\u0c2a\u0c4d\u0c30\u0c38\u0c4d","name:cy":"Cyprus","name:hr":"Cipar","name:da":"Cypern","name:de":"Republik Zypern","name:dz":"\u0f66\u0f71\u0f60\u0f72\u0f0b\u0f54\u0fb2\u0f66","source":"openstreetmap.org","name:kn":"\u0cb8\u0cc8\u0caa\u0ccd\u0cb0\u0cb8\u0ccd","name:km":"\u179f\u17c9\u17b8\u1796\u179a\u17cd","name:lv":"Kipra","name:lt":"Kipras","name:uz":"Qibris Respublikasi","name:kk":"\u041a\u0438\u043f\u0440","name:ur":"\u0642\u0628\u0631\u0635","name:lb":"Zypern","name:la":"Cyprus","name:lg":"Sipuriya","name:uk":"\u041a\u0456\u043f\u0440","name:ug":"\u0633\u0649\u067e\u0631\u06c7\u0633","name:li":"Cyprus","name:ln":"S\u00edp\u025bl\u025b","name:lo":"\u0ec4\u0e8a\u0e9b\u0eb1\u0ebc\u0e94","name:kw":"Kobros","name:eo":"Kipro","name:en":"Cyprus","name":"\u039a\u03cd\u03c0\u03c1\u03bf\u03c2","name:tk":"Kipr Respublikasy","name:ee":"Cyprus","name:th":"\u0e1b\u0e23\u0e30\u0e40\u0e17\u0e28\u0e44\u0e0b\u0e1b\u0e23\u0e31\u0e2a","name:eu":"Zipre","name:et":"K\u00fcpros","name:es":"Chipre","name:ia":"Cypro","name:rm":"Cipra","name:rn":"Izinga rya Shipure","name:az":"Kipr Respublikas\u0131","name:ie":"Cypria","name:id":"Siprus","name:ar":"\u0642\u0628\u0631\u0635","name:io":"Chipro","name:ak":"Saepr\u0254s","name:am":"\u1246\u1335\u122e\u1235","name:it":"Cipro","name:an":"Chipre","name:ru":"\u0420\u0435\u0441\u043f\u0443\u0431\u043b\u0438\u043a\u0430 \u041a\u0438\u043f\u0440","name:rw":"Shipure","name:af":"Siprus","name:zu":"i-Cyprus","name:no":"Republikken Kypros","name:zh-yue":"\u585e\u6d66\u8def\u65af","name:zh":"\u8cfd\u666e\u52d2\u65af","name:so":"Jasiirada Qabrus","name:sn":"Cyprus","name:sm":"Cyprus","name:sl":"Ciper","name:sk":"Cyprus","name:ja":"\u30ad\u30d7\u30ed\u30b9","name:si":"\u0dc3\u0dba\u0dd2\u0db4\u0dca\u200d\u0dbb\u0dc3\u0dca","name:sh":"Cipar","name:sg":"S\u00eepri","name:se":"Kypros","name:sc":"Tzipru","name:br":"Republik Kiprenez","name:bs":"Kipar","name:bm":"Cipri","name:bn":"\u09b8\u09be\u0987\u09aa\u09cd\u09b0\u09be\u09b8","name:bo":"\u0f66\u0f7a\u0f0b\u0f54\u0f72\u0f0b\u0f62\u0f72\u0f0b\u0f66\u0f72\u0f0d","name:bi":"Cyprus","name:sw":"Kupro","name:be":"\u041a\u0456\u043f\u0440","name:su":"Siprus","name:bg":"\u041a\u0438\u043f\u044a\u0440","name:ss":"ISayiphro","name:sr":"\u041a\u0438\u043f\u0430\u0440","name:sq":"Qiproja","name:jv":"Siprus","name:pt":"Chipre","name:oc":"Chipre","min_zoom":2.0,"name:ro":"Cipru","name:zh-min-nan":"Ku-p\u00ed-l\u014d\u0358","name:os":"\u041a\u0438\u043f\u0440","name:or":"\u0b38\u0b3e\u0b07\u0b2a\u0b4d\u0b30\u0b38","name:pl":"Cypr","name:pa":"\u0a38\u0a3e\u0a07\u0a2a\u0a4d\u0a30\u0a38","name:tr":"K\u0131br\u0131s Cumhuriyeti","name:hi":"\u0938\u093e\u0907\u092a\u094d\u0930\u0938","name:sv":"Cypern","name:he":"\u05e7\u05e4\u05e8\u05d9\u05e1\u05d9\u05df","name:ha":"Sifurus","name:hy":"\u053f\u056b\u057a\u0580\u0578\u057d","name:ht":"Chip","name:hu":"Ciprusi K\u00f6zt\u00e1rsas\u00e1g","name:qu":"Kipru","population":885041,"kind":"country","name:is":"K\u00fdpur","name:yi":"\u05e7\u05d9\u05e4\u05e8\u05d0\u05e1","name:yo":"K\u00edpr\u00f9","name:mt":"\u010aipru","name:ms":"Cyprus","name:mr":"\u0938\u093e\u092f\u092a\u094d\u0930\u0938","name:my":"\u1006\u102d\u102f\u1000\u103a\u1015\u101b\u1015\u103a\u1005\u103a\u1014\u102d\u102f\u1004\u103a\u1004\u1036","official_name":"\u039a\u03c5\u03c0\u03c1\u03b9\u03b1\u03ba\u03ae \u0394\u03b7\u03bc\u03bf\u03ba\u03c1\u03b1\u03c4\u03af\u03b1","name:mg":"Repoblikan'i Kipra","name:ml":"\u0d38\u0d48\u0d2a\u0d4d\u0d30\u0d38\u0d4d","name:vi":"C\u1ed9ng h\u00f2a S\u00edp","name:mn":"\u041a\u0438\u043f\u0440","name:mi":"Haipara","id":424313406,"name:mk":"\u041a\u0438\u043f\u0430\u0440","name:vo":"Sipre\u00e4n","name:fa":"\u0642\u0628\u0631\u0633","name:ff":"Siipar","name:fi":"Kyproksen tasavalta","name:fo":"K\u00fdpros","name:fr":"Chypre","name:fy":"Syprus","name:nl":"Cyprus","name:nn":"Republikken Kypros","alt_name:ru":"\u041a\u0438\u043f\u0440","name:na":"Taiprus","name:ne":"\u0938\u093e\u0907\u092a\u094d\u0930\u0938","name:wo":"Ciip\u00ebr","name:nv":"B\u00e9\u00e9sh \u0141ich\u00edi\u02bcii Bik\u00e9yah","name:ga":"An Chipir","name:gd":"C\u00ecopras","name:gn":"Chipre","name:gl":"Chipre","name:gv":"Yn Cheeprey","name:gu":"\u0ab8\u0abe\u0aaf\u0aaa\u0acd\u0ab0\u0ab8","name:tt":"\u041a\u0438\u043f\u0440 \u0420\u0435\u0441\u043f\u0443\u0431\u043b\u0438\u043a\u0430\u0441\u044b"},"coordinates":[3215,1207]},{"type":"Point","properties":{"name:ia":"Republica Turc de Cypro Septentrional","name:tr":"Kuzey K\u0131br\u0131s","name:ar":"\u0642\u0628\u0631\u0635 \u0627\u0644\u0634\u0645\u0627\u0644\u064a\u0629","name:io":"Turka republiko di Norda Chipro","name:ku":"Komara Tirk a Bakur\u00ea K\u00eepros\u00ea","name:it":"Cipro del Nord","name:ru":"\u0422\u0443\u0440\u0435\u0446\u043a\u0430\u044f \u0420\u0435\u0441\u043f\u0443\u0431\u043b\u0438\u043a\u0430 \u0421\u0435\u0432\u0435\u0440\u043d\u043e\u0433\u043e \u041a\u0438\u043f\u0440\u0430","name:vi":"B\u1eafc S\u00edp","name:pl":"Cypr P\u00f3\u0142nocny","id":1696874354,"name:ca":"Rep\u00fablica Turca de Xipre del Nord","name:vo":"Nol\u00fcda-Sipre\u00e4n","name:fa":"\u0642\u0628\u0631\u0633 \u0634\u0645\u0627\u0644\u06cc","name:fi":"Pohjois-Kypros","name:da":"Nordcypern","name:de":"Nordzypern","source":"openstreetmap.org","name:fr":"Chypre du Nord","name:be":"\u041f\u0430\u045e\u043d\u043e\u0447\u043d\u044b \u041a\u0456\u043f\u0440","name:zh":"\u5317\u8cfd\u666e\u52d2\u65af\u571f\u8033\u5176\u5171\u548c\u570b","name:ba":"\u0422\u04e9\u043d\u044c\u044f\u04a1 \u041a\u0438\u043f\u0440 \u0422\u04e9\u0440\u04e9\u043a \u0420\u0435\u0441\u043f\u0443\u0431\u043b\u0438\u043a\u0430\u04bb\u044b","name:nl":"Noord-Cyprus","name:lt":"Turk\u0173 Kipras","name:no":"Nord-Kypros","name:he":"\u05d4\u05e8\u05e4\u05d5\u05d1\u05dc\u05d9\u05e7\u05d4 \u05d4\u05d8\u05d5\u05e8\u05e7\u05d9\u05ea \u05e9\u05dc \u05e6\u05e4\u05d5\u05df \u05e7\u05e4\u05e8\u05d9\u05e1\u05d9\u05df","kind":"country","name:br":"Kiprenez an Norzh","name:sk":"Severn\u00fd Cyprus","name:tt":"\u0422\u04e9\u043d\u044c\u044f\u043a \u041a\u0438\u043f\u0440\u043d\u044b\u04a3 \u0422\u04e9\u0440\u0435\u043a \u0496\u04e9\u043c\u04bb\u04af\u0440\u0438\u044f\u0442\u0435","name:uk":"\u0422\u0443\u0440\u0435\u0446\u044c\u043a\u0430 \u0420\u0435\u0441\u043f\u0443\u0431\u043b\u0456\u043a\u0430 \u041f\u0456\u0432\u043d\u0456\u0447\u043d\u043e\u0433\u043e \u041a\u0456\u043f\u0440\u0443","name:sv":"Nordcypern","name:sr":"\u0421\u0435\u0432\u0435\u0440\u043d\u0438 \u041a\u0438\u043f\u0430\u0440","population":265100,"name:eo":"Norda Kipro","name:en":"Turkish Republic Of Northern Cyprus","name":"Kuzey K\u0131br\u0131s T\u00fcrk Cumhuriyeti","alt_name:ru":"\u0421\u0435\u0432\u0435\u0440\u043d\u044b\u0439 \u041a\u0438\u043f\u0440","min_zoom":2.0,"name:es":"Rep\u00fablica Turca del Norte de Chipre"},"coordinates":[3914,1640]},{"type":"Point","properties":{"source":"naturalearthdata.com","kind":"locality","name":"Nicosia","country_capital":true,"population":224300,"min_zoom":5.0,"id":7103},"coordinates":[3538,1537]},{"type":"Point","properties":{"source":"naturalearthdata.com","kind":"locality","name":"Lemosos","population":154000,"region_capital":true,"min_zoom":7.0,"id":4791},"coordinates":[3052,658]}]},"transit":{"type":"GeometryCollection","geometries":[]},"pois":{"type":"GeometryCollection","geometries":[]},"boundaries":{"type":"GeometryCollection","geometries":[{"type":"MultiLineString","properties":{"source":"naturalearthdata.com","kind":"country","sort_rank":262,"kind_detail":"2","min_zoom":0.0,"id":24},"arcs":[[0],[1],[2]]},{"type":"MultiLineString","properties":{"source":"naturalearthdata.com","kind":"country","sort_rank":262,"kind_detail":"2","min_zoom":0.0,"id":420},"arcs":[[3],[4],[5],[6]]},{"type":"MultiLineString","properties":{"source":"naturalearthdata.com","kind":"country","sort_rank":262,"kind_detail":"2","min_zoom":0.0,"id":421},"arcs":[[7],[8]]},{"type":"LineString","properties":{"source":"naturalearthdata.com","kind":"country","sort_rank":262,"kind_detail":"2","min_zoom":0.0,"id":422},"arcs":[9]},{"type":"LineString","properties":{"source":"naturalearthdata.com","kind":"country","sort_rank":262,"kind_detail":"2","min_zoom":0.0,"id":423},"arcs":[10]},{"type":"MultiLineString","properties":{"source":"naturalearthdata.com","kind":"line_of_control","name":"Line of control","sort_rank":260,"kind_detail":"2","min_zoom":0.0,"id":418},"arcs":[[11],[12],[13],[14],[15],[16],[17],[18],[19],[20],[21],[22],[23],[24],[25],[26],[27],[28]]},{"type":"MultiLineString","properties":{"source":"naturalearthdata.com","kind":"line_of_control","name":"Line of control","sort_rank":260,"kind_detail":"2","min_zoom":0.0,"id":419},"arcs":[[29],[30]]},{"type":"MultiLineString","properties":{"source":"naturalearthdata.com","kind":"overlay_limit","name":"Cyprus U.N. Buffer Zone","sort_rank":259,"kind_detail":"2","min_zoom":0.0,"id":440},"arcs":[[31],[32],[33],[34],[35],[36],[37],[38],[39],[40],[41],[42],[43],[44],[45],[46],[47]]},{"type":"MultiLineString","properties":{"source":"naturalearthdata.com","kind":"overlay_limit","name":"Cyprus U.N. Buffer Zone","sort_rank":259,"kind_detail":"2","min_zoom":0.0,"id":441},"arcs":[[48],[49]]},{"type":"MultiLineString","properties":{"source":"naturalearthdata.com","kind":"country","sort_rank":262,"kind_detail":"2","min_zoom":0.0,"id":446},"arcs":[[50],[51],[52],[53],[54],[55],[56]]},{"type":"MultiLineString","properties":{"source":"naturalearthdata.com","kind":"country","sort_rank":262,"kind_detail":"2","min_zoom":0.0,"id":447},"arcs":[[57],[58],[59],[60],[61],[62]]},{"type":"LineString","properties":{"source":"naturalearthdata.com","kind":"region","name":"Limassol - Paphos","sort_rank":256,"kind_detail":"4","min_zoom":7.0,"id":4239},"arcs":[63]},{"type":"LineString","properties":{"source":"naturalearthdata.com","kind":"region","name":"Karaman - Antalya","sort_rank":256,"kind_detail":"4","min_zoom":6.0,"id":6094},"arcs":[64]},{"type":"LineString","properties":{"source":"naturalearthdata.com","kind":"region","sort_rank":256,"kind_detail":"4","min_zoom":7.0,"id":280},"arcs":[65]},{"type":"MultiLineString","properties":{"source":"naturalearthdata.com","kind":"region","name":"Paphos - Nicosia","sort_rank":256,"kind_detail":"4","min_zoom":7.0,"id":4235},"arcs":[[66],[67],[68],[69],[70],[71],[72]]},{"type":"MultiLineString","properties":{"source":"naturalearthdata.com","kind":"region","name":"Nicosia - Larnaca","sort_rank":256,"kind_detail":"4","min_zoom":7.0,"id":4236},"arcs":[[73],[74],[75],[76],[77],[78],[79],[80],[81],[82],[83],[84],[85]]},{"type":"MultiLineString","properties":{"source":"naturalearthdata.com","kind":"region","name":"Limassol - Nicosia","sort_rank":256,"kind_detail":"4","min_zoom":7.0,"id":4238},"arcs":[[86],[87],[88],[89],[90],[91],[92],[93]]},{"type":"MultiLineString","properties":{"source":"naturalearthdata.com","kind":"region","name":"Larnaca - Limassol","sort_rank":256,"kind_detail":"4","min_zoom":7.0,"id":4240},"arcs":[[94],[95],[96]]},{"type":"MultiLineString","properties":{"source":"naturalearthdata.com","kind":"region","name":"Mersin - Karaman","sort_rank":256,"kind_detail":"4","min_zoom":6.0,"id":6113},"arcs":[[97],[98],[99],[100],[101],[102],[103]]},{"type":"LineString","properties":{"source":"naturalearthdata.com","kind":"region","name":"Mersin - Antalya","sort_rank":256,"kind_detail":"4","min_zoom":6.0,"id":6115},"arcs":[104]}]},"roads":{"type":"GeometryCollection","geometries":[{"type":"LineString","properties":{"source":"naturalearthdata.com","kind":"major_road","sort_rank":379,"kind_detail":"secondary","min_zoom":4.0,"id":22940},"arcs":[108]},{"type":"LineString","properties":{"source":"naturalearthdata.com","kind":"major_road","sort_rank":379,"kind_detail":"secondary","min_zoom":4.0,"id":23057},"arcs":[109]},{"type":"LineString","properties":{"source":"naturalearthdata.com","kind":"major_road","kind_detail":"secondary","sort_rank":379,"landuse_kind":"urban_area","min_zoom":3.0,"id":23293},"arcs":[110]},{"type":"LineString","properties":{"source":"naturalearthdata.com","kind":"major_road","sort_rank":379,"kind_detail":"secondary","min_zoom":3.0,"id":23293},"arcs":[111]},{"type":"MultiLineString","properties":{"source":"naturalearthdata.com","kind":"major_road","kind_detail":"secondary","sort_rank":379,"landuse_kind":"urban_area","min_zoom":3.0,"id":23333},"arcs":[[112],[113]]},{"type":"LineString","properties":{"source":"naturalearthdata.com","kind":"major_road","kind_detail":"secondary","sort_rank":379,"landuse_kind":"urban_area","min_zoom":3.0,"id":23333},"arcs":[114]},{"type":"LineString","properties":{"source":"naturalearthdata.com","kind":"major_road","kind_detail":"secondary","sort_rank":379,"landuse_kind":"urban_area","min_zoom":3.0,"id":23333},"arcs":[115]},{"type":"MultiLineString","properties":{"source":"naturalearthdata.com","kind":"major_road","sort_rank":379,"kind_detail":"secondary","min_zoom":3.0,"id":23333},"arcs":[[116],[117],[118],[119]]},{"type":"LineString","properties":{"source":"naturalearthdata.com","kind":"major_road","kind_detail":"secondary","sort_rank":379,"landuse_kind":"urban_area","min_zoom":3.0,"id":23352},"arcs":[120]},{"type":"LineString","properties":{"source":"naturalearthdata.com","kind":"major_road","sort_rank":379,"kind_detail":"secondary","min_zoom":3.0,"id":23352},"arcs":[121]},{"type":"LineString","properties":{"source":"naturalearthdata.com","kind":"major_road","kind_detail":"secondary","sort_rank":379,"landuse_kind":"urban_area","min_zoom":3.0,"id":23395},"arcs":[122]},{"type":"LineString","properties":{"source":"naturalearthdata.com","kind":"major_road","sort_rank":379,"kind_detail":"secondary","min_zoom":3.0,"id":23395},"arcs":[123]},{"type":"LineString","properties":{"source":"naturalearthdata.com","kind":"minor_road","sort_rank":355,"kind_detail":"tertiary","min_zoom":7.0,"id":24043},"arcs":[124]},{"type":"LineString","properties":{"source":"naturalearthdata.com","kind":"minor_road","sort_rank":355,"kind_detail":"tertiary","min_zoom":7.0,"id":24051},"arcs":[125]},{"type":"LineString","properties":{"source":"naturalearthdata.com","kind":"minor_road","sort_rank":355,"kind_detail":"tertiary","min_zoom":6.0,"id":24142},"arcs":[126]},{"type":"LineString","properties":{"source":"naturalearthdata.com","kind":"minor_road","sort_rank":355,"kind_detail":"tertiary","min_zoom":6.0,"id":24148},"arcs":[127]},{"type":"LineString","properties":{"source":"naturalearthdata.com","kind":"minor_road","sort_rank":355,"kind_detail":"tertiary","min_zoom":6.0,"id":24151},"arcs":[128]},{"type":"LineString","properties":{"source":"naturalearthdata.com","kind":"minor_road","sort_rank":355,"kind_detail":"tertiary","min_zoom":7.0,"id":24152},"arcs":[129]},{"type":"LineString","properties":{"source":"naturalearthdata.com","kind":"minor_road","sort_rank":355,"kind_detail":"tertiary","min_zoom":6.0,"id":24154},"arcs":[130]},{"type":"LineString","properties":{"source":"naturalearthdata.com","kind":"minor_road","sort_rank":355,"kind_detail":"tertiary","min_zoom":7.0,"id":24155},"arcs":[131]},{"type":"LineString","properties":{"source":"naturalearthdata.com","kind":"minor_road","sort_rank":355,"kind_detail":"tertiary","min_zoom":6.0,"id":24189},"arcs":[132]},{"type":"LineString","properties":{"source":"naturalearthdata.com","kind":"minor_road","kind_detail":"tertiary","sort_rank":355,"landuse_kind":"urban_area","min_zoom":6.0,"id":24191},"arcs":[133]},{"type":"LineString","properties":{"source":"naturalearthdata.com","kind":"minor_road","sort_rank":355,"kind_detail":"tertiary","min_zoom":6.0,"id":24191},"arcs":[134]},{"type":"LineString","properties":{"source":"naturalearthdata.com","kind":"minor_road","kind_detail":"tertiary","sort_rank":355,"landuse_kind":"urban_area","min_zoom":6.0,"id":24197},"arcs":[135]},{"type":"LineString","properties":{"source":"naturalearthdata.com","kind":"minor_road","sort_rank":355,"kind_detail":"tertiary","min_zoom":6.0,"id":24197},"arcs":[136]},{"type":"LineString","properties":{"source":"naturalearthdata.com","kind":"minor_road","sort_rank":355,"kind_detail":"tertiary","min_zoom":6.0,"id":24241},"arcs":[137]},{"type":"LineString","properties":{"source":"naturalearthdata.com","kind":"minor_road","sort_rank":355,"kind_detail":"tertiary","min_zoom":6.0,"id":24244},"arcs":[138]},{"type":"LineString","properties":{"source":"naturalearthdata.com","kind":"minor_road","sort_rank":355,"kind_detail":"tertiary","min_zoom":6.0,"id":24245},"arcs":[139]},{"type":"LineString","properties":{"source":"naturalearthdata.com","kind":"minor_road","sort_rank":355,"kind_detail":"tertiary","min_zoom":6.0,"id":24248},"arcs":[140]},{"type":"LineString","properties":{"source":"naturalearthdata.com","kind":"minor_road","kind_detail":"tertiary","sort_rank":355,"landuse_kind":"urban_area","min_zoom":6.0,"id":24254},"arcs":[141]},{"type":"LineString","properties":{"source":"naturalearthdata.com","kind":"minor_road","sort_rank":355,"kind_detail":"tertiary","min_zoom":6.0,"id":24257},"arcs":[142]},{"type":"LineString","properties":{"source":"naturalearthdata.com","kind":"minor_road","sort_rank":355,"kind_detail":"tertiary","min_zoom":7.0,"id":24291},"arcs":[143]},{"type":"LineString","properties":{"source":"naturalearthdata.com","kind":"minor_road","kind_detail":"tertiary","sort_rank":355,"landuse_kind":"urban_area","min_zoom":7.0,"id":24314},"arcs":[144]},{"type":"LineString","properties":{"source":"naturalearthdata.com","kind":"minor_road","sort_rank":355,"kind_detail":"tertiary","min_zoom":7.0,"id":24314},"arcs":[145]},{"type":"LineString","properties":{"source":"naturalearthdata.com","kind":"minor_road","sort_rank":355,"kind_detail":"tertiary","min_zoom":7.0,"id":24316},"arcs":[146]},{"type":"LineString","properties":{"source":"naturalearthdata.com","kind":"minor_road","sort_rank":355,"kind_detail":"tertiary","min_zoom":7.0,"id":24334},"arcs":[147]},{"type":"LineString","properties":{"source":"naturalearthdata.com","kind":"minor_road","sort_rank":355,"kind_detail":"tertiary","min_zoom":7.0,"id":24346},"arcs":[148]},{"type":"LineString","properties":{"source":"naturalearthdata.com","kind":"minor_road","sort_rank":355,"kind_detail":"tertiary","min_zoom":6.0,"id":24368},"arcs":[149]},{"type":"LineString","properties":{"source":"naturalearthdata.com","kind":"highway","sort_rank":383,"kind_detail":"motorway","min_zoom":4.0,"id":24396},"arcs":[150]},{"type":"LineString","properties":{"source":"naturalearthdata.com","kind":"highway","kind_detail":"motorway","sort_rank":383,"landuse_kind":"urban_area","min_zoom":4.0,"id":24401},"arcs":[151]},{"type":"LineString","properties":{"source":"naturalearthdata.com","kind":"highway","sort_rank":383,"kind_detail":"motorway","min_zoom":4.0,"id":24401},"arcs":[152]},{"type":"LineString","properties":{"source":"naturalearthdata.com","kind":"minor_road","sort_rank":355,"kind_detail":"tertiary","min_zoom":6.0,"id":24418},"arcs":[153]},{"type":"LineString","properties":{"source":"naturalearthdata.com","kind":"major_road","sort_rank":379,"kind_detail":"secondary","min_zoom":3.0,"id":24419},"arcs":[154]},{"type":"LineString","properties":{"source":"naturalearthdata.com","kind":"minor_road","sort_rank":355,"kind_detail":"tertiary","min_zoom":6.0,"id":24421},"arcs":[155]},{"type":"LineString","properties":{"source":"naturalearthdata.com","kind":"minor_road","sort_rank":355,"kind_detail":"tertiary","min_zoom":7.0,"id":24425},"arcs":[156]},{"type":"LineString","properties":{"source":"naturalearthdata.com","kind":"minor_road","sort_rank":355,"kind_detail":"tertiary","min_zoom":6.0,"id":24428},"arcs":[157]},{"type":"LineString","properties":{"source":"naturalearthdata.com","kind":"highway","kind_detail":"motorway","sort_rank":383,"landuse_kind":"urban_area","min_zoom":4.0,"id":24445},"arcs":[158]},{"type":"LineString","properties":{"source":"naturalearthdata.com","kind":"highway","sort_rank":383,"kind_detail":"motorway","min_zoom":4.0,"id":24445},"arcs":[159]},{"type":"LineString","properties":{"source":"naturalearthdata.com","kind":"minor_road","sort_rank":355,"kind_detail":"tertiary","min_zoom":7.0,"id":24446},"arcs":[160]},{"type":"LineString","properties":{"source":"naturalearthdata.com","kind":"minor_road","sort_rank":355,"kind_detail":"tertiary","min_zoom":7.0,"id":24447},"arcs":[161]},{"type":"LineString","properties":{"source":"naturalearthdata.com","kind":"minor_road","sort_rank":355,"kind_detail":"tertiary","min_zoom":6.0,"id":24451},"arcs":[162]},{"type":"LineString","properties":{"source":"naturalearthdata.com","kind":"minor_road","sort_rank":355,"kind_detail":"tertiary","min_zoom":7.0,"id":24464},"arcs":[163]},{"type":"LineString","properties":{"source":"naturalearthdata.com","kind":"minor_road","kind_detail":"tertiary","sort_rank":355,"landuse_kind":"urban_area","min_zoom":6.0,"id":24478},"arcs":[164]},{"type":"LineString","properties":{"source":"naturalearthdata.com","kind":"minor_road","sort_rank":355,"kind_detail":"tertiary","min_zoom":6.0,"id":24478},"arcs":[165]},{"type":"LineString","properties":{"source":"naturalearthdata.com","kind":"highway","kind_detail":"motorway","sort_rank":383,"landuse_kind":"urban_area","min_zoom":4.0,"id":24481},"arcs":[166]},{"type":"LineString","properties":{"source":"naturalearthdata.com","kind":"minor_road","kind_detail":"tertiary","sort_rank":355,"landuse_kind":"urban_area","min_zoom":6.0,"id":24483},"arcs":[167]},{"type":"LineString","properties":{"source":"naturalearthdata.com","kind":"minor_road","sort_rank":355,"kind_detail":"tertiary","min_zoom":6.0,"id":24506},"arcs":[168]},{"type":"LineString","properties":{"source":"naturalearthdata.com","kind":"highway","sort_rank":383,"kind_detail":"motorway","min_zoom":4.0,"id":24511},"arcs":[169]},{"type":"LineString","properties":{"source":"naturalearthdata.com","kind":"minor_road","sort_rank":355,"kind_detail":"tertiary","min_zoom":6.0,"id":24525},"arcs":[170]},{"type":"LineString","properties":{"source":"naturalearthdata.com","kind":"highway","sort_rank":383,"kind_detail":"motorway","min_zoom":4.0,"id":24539},"arcs":[171]},{"type":"LineString","properties":{"source":"naturalearthdata.com","kind":"minor_road","sort_rank":355,"kind_detail":"tertiary","min_zoom":7.0,"id":24542},"arcs":[172]},{"type":"LineString","properties":{"source":"naturalearthdata.com","kind":"major_road","sort_rank":379,"kind_detail":"secondary","min_zoom":3.0,"id":24548},"arcs":[173]},{"type":"LineString","properties":{"source":"naturalearthdata.com","kind":"highway","sort_rank":383,"kind_detail":"motorway","min_zoom":4.0,"id":24556},"arcs":[174]},{"type":"LineString","properties":{"source":"naturalearthdata.com","kind":"minor_road","sort_rank":355,"kind_detail":"tertiary","min_zoom":6.0,"id":24557},"arcs":[175]},{"type":"LineString","properties":{"source":"naturalearthdata.com","kind":"major_road","sort_rank":379,"kind_detail":"secondary","min_zoom":3.0,"id":24558},"arcs":[176]},{"type":"LineString","properties":{"source":"naturalearthdata.com","kind":"minor_road","sort_rank":355,"kind_detail":"tertiary","min_zoom":6.0,"id":24580},"arcs":[177]},{"type":"LineString","properties":{"source":"naturalearthdata.com","kind":"highway","sort_rank":383,"kind_detail":"motorway","min_zoom":4.0,"id":24601},"arcs":[178]},{"type":"LineString","properties":{"source":"naturalearthdata.com","kind":"minor_road","sort_rank":355,"kind_detail":"tertiary","min_zoom":7.0,"id":24638},"arcs":[179]},{"type":"LineString","properties":{"source":"naturalearthdata.com","kind":"minor_road","kind_detail":"tertiary","sort_rank":355,"landuse_kind":"urban_area","min_zoom":6.0,"id":24639},"arcs":[180]},{"type":"MultiLineString","properties":{"source":"naturalearthdata.com","kind":"minor_road","sort_rank":355,"kind_detail":"tertiary","min_zoom":6.0,"id":24639},"arcs":[[181],[182]]},{"type":"LineString","properties":{"source":"naturalearthdata.com","kind":"minor_road","sort_rank":355,"kind_detail":"tertiary","min_zoom":6.0,"id":24652},"arcs":[183]},{"type":"LineString","properties":{"source":"naturalearthdata.com","kind":"highway","sort_rank":383,"kind_detail":"motorway","min_zoom":4.0,"id":24663},"arcs":[184]},{"type":"LineString","properties":{"source":"naturalearthdata.com","kind":"minor_road","sort_rank":355,"kind_detail":"tertiary","min_zoom":6.0,"id":24664},"arcs":[185]},{"type":"LineString","properties":{"source":"naturalearthdata.com","kind":"highway","kind_detail":"motorway","sort_rank":383,"landuse_kind":"urban_area","min_zoom":4.0,"id":24692},"arcs":[186]},{"type":"MultiLineString","properties":{"source":"naturalearthdata.com","kind":"highway","sort_rank":383,"kind_detail":"motorway","min_zoom":4.0,"id":24692},"arcs":[[187],[188]]},{"type":"LineString","properties":{"source":"naturalearthdata.com","kind":"minor_road","sort_rank":355,"kind_detail":"tertiary","min_zoom":6.0,"id":24700},"arcs":[189]},{"type":"LineString","properties":{"source":"naturalearthdata.com","kind":"highway","sort_rank":383,"kind_detail":"motorway","min_zoom":4.0,"id":24702},"arcs":[190]},{"type":"LineString","properties":{"source":"naturalearthdata.com","kind":"highway","sort_rank":383,"kind_detail":"motorway","min_zoom":4.0,"id":24711},"arcs":[191]},{"type":"LineString","properties":{"source":"naturalearthdata.com","kind":"highway","sort_rank":383,"kind_detail":"motorway","min_zoom":4.0,"id":24714},"arcs":[192]},{"type":"LineString","properties":{"source":"naturalearthdata.com","kind":"highway","kind_detail":"motorway","sort_rank":383,"landuse_kind":"urban_area","min_zoom":4.0,"id":24718},"arcs":[193]},{"type":"LineString","properties":{"source":"naturalearthdata.com","kind":"highway","sort_rank":383,"kind_detail":"motorway","min_zoom":4.0,"id":24718},"arcs":[194]},{"type":"LineString","properties":{"source":"naturalearthdata.com","kind":"minor_road","kind_detail":"tertiary","sort_rank":355,"landuse_kind":"urban_area","min_zoom":6.0,"id":24737},"arcs":[195]},{"type":"LineString","properties":{"source":"naturalearthdata.com","kind":"minor_road","sort_rank":355,"kind_detail":"tertiary","min_zoom":7.0,"id":24739},"arcs":[196]},{"type":"LineString","properties":{"source":"naturalearthdata.com","kind":"highway","kind_detail":"motorway","sort_rank":383,"landuse_kind":"urban_area","min_zoom":4.0,"id":24751},"arcs":[197]},{"type":"LineString","properties":{"source":"naturalearthdata.com","kind":"highway","kind_detail":"motorway","sort_rank":383,"landuse_kind":"urban_area","min_zoom":4.0,"id":24752},"arcs":[198]},{"type":"LineString","properties":{"source":"naturalearthdata.com","kind":"highway","sort_rank":383,"kind_detail":"motorway","min_zoom":4.0,"id":24752},"arcs":[199]},{"type":"LineString","properties":{"source":"naturalearthdata.com","kind":"highway","sort_rank":383,"kind_detail":"motorway","min_zoom":4.0,"id":24768},"arcs":[200]},{"type":"LineString","properties":{"source":"naturalearthdata.com","kind":"minor_road","sort_rank":355,"kind_detail":"tertiary","min_zoom":6.0,"id":24770},"arcs":[201]},{"type":"LineString","properties":{"source":"naturalearthdata.com","kind":"minor_road","sort_rank":355,"kind_detail":"tertiary","min_zoom":6.0,"id":24771},"arcs":[202]},{"type":"LineString","properties":{"source":"naturalearthdata.com","kind":"minor_road","sort_rank":355,"kind_detail":"tertiary","min_zoom":6.0,"id":24775},"arcs":[203]},{"type":"LineString","properties":{"source":"naturalearthdata.com","kind":"minor_road","sort_rank":355,"kind_detail":"tertiary","min_zoom":6.0,"id":24776},"arcs":[204]},{"type":"LineString","properties":{"source":"naturalearthdata.com","kind":"minor_road","sort_rank":355,"kind_detail":"tertiary","min_zoom":6.0,"id":24779},"arcs":[205]},{"type":"LineString","properties":{"source":"naturalearthdata.com","kind":"highway","sort_rank":383,"kind_detail":"motorway","min_zoom":4.0,"id":24783},"arcs":[206]},{"type":"LineString","properties":{"source":"naturalearthdata.com","kind":"minor_road","sort_rank":355,"kind_detail":"tertiary","min_zoom":6.0,"id":24787},"arcs":[207]},{"type":"LineString","properties":{"source":"naturalearthdata.com","kind":"highway","sort_rank":383,"kind_detail":"motorway","min_zoom":4.0,"id":24797},"arcs":[208]},{"type":"LineString","properties":{"source":"naturalearthdata.com","kind":"highway","kind_detail":"motorway","sort_rank":383,"landuse_kind":"urban_area","min_zoom":3.0,"id":48481},"arcs":[209]},{"type":"LineString","properties":{"source":"naturalearthdata.com","kind":"highway","kind_detail":"motorway","sort_rank":383,"landuse_kind":"urban_area","min_zoom":3.0,"id":48481},"arcs":[210]},{"type":"MultiLineString","properties":{"source":"naturalearthdata.com","kind":"highway","sort_rank":383,"kind_detail":"motorway","min_zoom":3.0,"id":48481},"arcs":[[211],[212]]}]},"earth":{"type":"GeometryCollection","geometries":[{"type":"MultiPolygon","properties":{"sort_rank":10,"source":"naturalearthdata.com","min_zoom":0.0,"kind":"earth","area":31089210718},"arcs":[[[213]],[[214]]]},{"type":"Point","properties":{"name:kg":"Kipros","name:ka":"\u10d9\u10d5\u10d8\u10de\u10e0\u10dd\u10e1\u10d8","name:ko":"\ud0a4\ud504\ub85c\uc2a4","name:cv":"\u041a\u0438\u043f\u0440","name:cu":"\u041a\u0477\u043f\u0440\u044a","name:kl":"Cyperni","name:cs":"Kypr","name:tt":"\u041a\u0438\u043f\u0440","name:co":"Cipru","name:kv":"\u041a\u0438\u043f\u0440","name:ku":"K\u00eepros","name:tl":"Tsipre","name:ce":"\u041a\u0438\u043f\u0440","name:ta":"\u0b9a\u0bc8\u0baa\u0bcd\u0baa\u0bbf\u0bb0\u0bb8\u0bcd","name:tg":"\u041a\u0438\u043f\u0440","name:ca":"Xipre","name:te":"\u0c38\u0c48\u0c2a\u0c4d\u0c30\u0c38\u0c4d","name:cy":"Cyprus","name:qu":"Kipru","name:da":"Cypern","name:de":"Zypern","source":"openstreetmap.org","name:lv":"Kipra","name:lt":"Kipras","name:uz":"Qibris","name:kk":"\u041a\u0438\u043f\u0440","name:ur":"\u0642\u0628\u0631\u0635","name:lb":"Zypern","name:la":"Cyprus","name:uk":"\u041a\u0456\u043f\u0440","name:ug":"\u0633\u0649\u067e\u0631\u06c7\u0633","name:li":"Cyprus","name:el":"\u039a\u03cd\u03c0\u03c1\u03bf\u03c2","name:eo":"Kipro","name:en":"Cyprus","name":"\u039a\u03cd\u03c0\u03c1\u03bf\u03c2 - K\u0131br\u0131s","name:tk":"Kipr","name:ee":"Cyprus","name:th":"\u0e1b\u0e23\u0e30\u0e40\u0e17\u0e28\u0e44\u0e0b\u0e1b\u0e23\u0e31\u0e2a","name:eu":"Zipre","name:et":"K\u00fcpros","name:es":"Chipre","name:ia":"Cypro","name:rm":"Cipra","name:az":"Kipr","name:ie":"Cypria","name:id":"Siprus","name:ar":"\u0642\u0628\u0631\u0635","name:io":"Chipro","name:is":"K\u00fdpur","name:am":"\u1246\u1335\u122e\u1235","name:it":"Cipro","name:an":"Chipre","name:ru":"\u041a\u0438\u043f\u0440","name:rw":"Shipure","name:af":"Siprus","name:zh":"\u585e\u6d66\u8def\u65af\/\u8cfd\u666e\u52d2\u65af","name:so":"Qabrus","name:sm":"Cyprus","name:sl":"Ciper","name:sk":"Cyprus","name:ja":"\u30ad\u30d7\u30ed\u30b9","name:si":"\u0dc3\u0dba\u0dd2\u0db4\u0dca\u200d\u0dbb\u0dc3\u0dca","name:sh":"Cipar","name:se":"Kypros","name:sc":"Tzipru","name:br":"Kiprenez","name:bs":"Kipar","name:bn":"\u09b8\u09be\u0987\u09aa\u09cd\u09b0\u09be\u09b8","name:bo":"\u0f66\u0f7a\u0f0b\u0f54\u0f72\u0f0b\u0f62\u0f72\u0f0b\u0f66\u0f72\u0f0d","name:bi":"Cyprus","name:sw":"Kupro","name:be":"\u041a\u0456\u043f\u0440","name:su":"Siprus","name:bg":"\u041a\u0438\u043f\u044a\u0440","name:ss":"ISayiphro","name:sr":"\u041a\u0438\u043f\u0430\u0440","name:sq":"Qiproja","name:jv":"Siprus","name:pt":"Chipre","name:mt":"\u010aipru","name:oc":"Chipre","min_zoom":7.0,"name:ro":"Cipru","name:pa":"\u0a38\u0a3e\u0a07\u0a2a\u0a4d\u0a30\u0a38","name:os":"\u041a\u0438\u043f\u0440","name:or":"\u0b38\u0b3e\u0b07\u0b2a\u0b4d\u0b30\u0b38","name:pl":"Cypr","area":13831400448,"osm_relation":true,"name:tr":"K\u0131br\u0131s","name:hi":"\u0938\u093e\u0907\u092a\u094d\u0930\u0938","name:sv":"Cypern","name:he":"\u05e7\u05e4\u05e8\u05d9\u05e1\u05d9\u05df","name:hy":"\u053f\u056b\u057a\u0580\u0578\u057d","name:ht":"Chip","name:hu":"Ciprus","name:hr":"Cipar","kind":"island","name:yi":"\u05e7\u05d9\u05e4\u05e8\u05d0\u05e1","name:yo":"K\u00edpr\u00f9","label_placement":true,"name:ms":"Cyprus","name:mr":"\u0938\u093e\u092f\u092a\u094d\u0930\u0938","name:my":"\u1006\u102d\u102f\u1000\u103a\u1015\u101b\u1015\u103a\u1005\u103a\u1014\u102d\u102f\u1004\u103a\u1004\u1036","name:kw":"Kobros","name:mg":"Kipra","name:vi":"S\u00edp","name:ml":"\u0d38\u0d48\u0d2a\u0d4d\u0d30\u0d38\u0d4d","name:mn":"\u041a\u0438\u043f\u0440","name:mi":"Haipara","id":-3263732,"name:mk":"\u041a\u0438\u043f\u0430\u0440","name:vo":"Sipre\u00e4n","name:fa":"\u0642\u0628\u0631\u0633","name:fi":"Kypros","name:fo":"K\u00fdpros","name:fr":"Chypre","name:fy":"Syprus","name:nl":"Cyprus","name:nn":"Kypros","name:no":"Kypros","name:na":"Taiprus","name:nb":"Kypros","name:ne":"\u0938\u093e\u0907\u092a\u094d\u0930\u0938","name:wo":"Ciip\u00ebr","name:nv":"B\u00e9\u00e9sh \u0141ich\u00edi\u02bcii Bik\u00e9yah","name:ga":"An Chipir","name:gd":"C\u00ecopras","name:gn":"Chipre","name:gl":"Chipre","name:gv":"Yn Cheeprey","name:gu":"\u0ab8\u0abe\u0aaf\u0aaa\u0acd\u0ab0\u0ab8"},"coordinates":[3338,1474]}]},"landuse":{"type":"GeometryCollection","geometries":[{"type":"MultiPolygon","properties":{"source":"naturalearthdata.com","kind":"urban_area","name":"","area":978279553,"sort_rank":11,"min_zoom":4.0},"arcs":[[[215]],[[216]],[[217]],[[218]],[[219]],[[220]],[[221]],[[222]],[[223]],[[224]]]}]}},"type":"Topology","transform":{"translate":[30.9375,34.3071438563],"scale":[0.0006866455,0.000559264]},"arcs":[[[4090,1266],[6,-1]],[[4096,1245],[-5,-1],[-5,-3]],[[4086,1241],[-5,2],[-1,5],[2,9],[1,6],[7,3]],[[4045,1358],[6,-7],[-11,-39],[-6,-21]],[[3993,1299],[-5,6],[-3,17],[7,17],[23,4],[16,15],[14,0]],[[4081,1323],[15,-11]],[[4034,1291],[16,6],[31,26]],[[4040,1213],[6,21],[-23,10],[-5,11],[13,11],[-5,13],[-25,12],[-8,8]],[[4027,1217],[13,-4]],[[3993,1299]],[[4025,1190],[2,27]],[[3698,1244],[-15,4],[-1,17],[8,43],[8,33],[0,35],[0,32],[-10,17],[-28,50],[-15,30],[-18,35],[-5,25],[-5,21],[-11,9]],[[3606,1595],[-19,-3],[-17,-16],[-12,-18],[-9,-7],[-43,-14],[-27,0],[-16,-9]],[[3463,1528],[-23,2],[-42,11],[-44,4],[-24,14],[-49,20]],[[3281,1579],[-48,-9],[-23,-8],[-31,-36],[-16,-3]],[[2792,1380],[-22,2],[-14,36],[-23,29],[-28,19],[-51,12],[-23,7],[-18,10],[-16,18],[-12,18],[-3,21],[1,12]],[[3163,1523],[-20,19]],[[3143,1542],[-25,-8],[-33,-17],[-36,-11],[-25,-14],[-36,-18],[-29,-33],[-33,-19],[-18,-4],[-17,-3]],[[2891,1415],[-16,3],[-34,4]],[[2841,1422],[-17,-4],[-9,-4],[-14,-18],[-9,-16]],[[3865,1300],[-18,2],[-18,14],[-7,27],[-9,15],[-13,11]],[[3800,1369],[-9,0],[-6,-11],[-2,-18],[-9,-1]],[[3774,1339],[-18,7],[-14,2]],[[3742,1348],[-10,0],[-9,-8],[-11,-32],[-7,-13],[-5,-22],[-2,-18],[0,-11]],[[3932,1294],[-34,28]],[[3898,1322],[-17,-9],[-16,-13]],[[3993,1299],[-12,-5]],[[3981,1294],[-22,3]],[[3959,1297],[-5,-3],[-22,0]],[[2480,1573],[-1,-6],[-7,-19],[-13,-14],[-16,-3]],[[2443,1531],[-18,20],[-1,7]],[[2555,1567],[9,-47],[9,-24],[12,-18],[23,-12],[39,-13],[29,-17],[30,-14],[16,-14],[5,-26],[0,-17],[9,-14],[14,-7]],[[3280,1530],[19,-9],[20,-7],[18,-1],[14,-7],[20,-22],[14,-20],[24,-14],[33,-8]],[[3147,1473],[36,0],[20,9],[10,7],[9,16],[35,25],[23,0]],[[3609,1526],[8,-6],[0,-22],[5,-27],[11,-11],[16,-18],[21,-22],[2,-12],[2,-30],[-2,-30],[0,-35],[-9,-40],[-9,-32],[4,-24],[14,-18]],[[3547,1517],[37,4],[25,5]],[[3523,1520],[24,-3]],[[3442,1442],[12,4],[7,10],[2,14],[18,14],[30,32],[12,4]],[[3072,1485],[36,-4],[39,-8]],[[2890,1368],[19,0],[20,12],[27,28],[26,25],[26,13],[34,21],[16,15],[14,3]],[[2845,1403],[13,-7],[9,-13],[23,-15]],[[2750,1344],[13,0],[38,11],[18,13],[5,8],[9,20],[12,7]],[[3760,1318],[12,-13],[0,-43],[9,-24],[18,-8]],[[3672,1199],[16,0],[24,7],[10,28],[6,52],[8,8],[11,11],[13,13]],[[3849,1275],[16,-3],[17,-12]],[[3799,1230],[26,11],[12,24],[12,10]],[[3906,1269],[16,-6],[13,-7],[32,-17],[18,-2],[16,-3],[23,-15],[3,-2]],[[3882,1260],[13,3],[11,6]],[[2454,1510],[17,4],[18,13],[10,24],[9,22]],[[2399,1547],[11,-20],[22,-13],[22,-4]],[[2759,704],[5,-2],[8,-1]],[[2710,651],[11,26],[20,3],[4,7],[7,9],[7,8]],[[2799,703],[1,-23],[8,-16],[28,-21],[42,-12]],[[2772,701],[7,0],[12,0],[8,2]],[[2664,660],[17,-5],[29,-4]],[[2655,619],[-1,28],[10,13]],[[2878,631],[5,13]],[[2938,662],[48,-7],[3,-49],[-29,0]],[[2911,627],[9,17],[18,18]],[[2883,644],[18,-9],[10,-8]],[[2960,606],[-6,10]],[[2954,616],[-17,-16],[2,-25],[10,-7]],[[2949,568],[10,13],[31,4],[37,0]],[[2665,1065],[6,-24],[17,-23],[0,-8],[-2,-8],[-7,-9],[-7,-4],[-6,-3],[-8,-8],[-8,-13],[-21,-45],[-7,-9],[-6,-2],[-6,-2],[-5,-3],[-7,-8],[-24,-35],[-5,-12],[0,-8],[3,-4],[4,-3],[5,-7],[3,-10],[-1,-22],[-3,-11],[-5,-7],[-15,-9],[-12,-13],[-10,-8],[-6,-6],[-25,-17],[-11,-14],[-9,-7],[-10,-7],[-1,-4],[1,-4],[3,-5],[2,-6],[1,-7],[-1,-37]],[[2265,4096],[57,-115],[39,-49],[49,-33],[58,-31],[28,-58]],[[2372,1548]],[[2517,1111],[3,2],[1,5],[0,10],[1,5],[5,10],[3,6],[1,7],[0,8],[0,7],[-3,13],[-1,6],[0,16],[-2,8],[-4,9],[-31,54],[-8,7],[-22,14],[-9,11],[-11,21],[-5,11],[-2,9],[2,5],[4,4],[6,1],[6,0],[7,2],[4,3],[2,6],[1,57],[-3,7],[-6,5],[-8,5],[-11,10],[-5,9],[-3,12],[-3,6],[-8,9],[-8,6],[-39,44],[1,7]],[[2508,1112],[9,-1]],[[2554,1041],[-4,1],[-4,3],[-4,4],[-16,13],[-8,8],[-4,7],[-4,6],[-5,18],[0,6],[0,2],[3,3]],[[2665,1065],[-35,14]],[[2630,1079],[-7,-1],[-7,-2],[-3,-6],[-4,-7],[-8,-8],[-16,-10],[-10,-2]],[[2575,1043],[-6,1],[0,3],[1,4],[-1,4],[-9,4]],[[2560,1059],[-3,-2],[-1,-5],[0,-5],[-2,-6]],[[3714,1171],[7,1],[5,4],[14,39],[3,9],[2,5],[3,4],[14,6],[0,2],[-2,2],[-4,8],[-5,5],[-4,5],[-3,5],[-5,19],[-3,9]],[[3691,1178],[6,-1],[5,-3],[6,-3],[6,0]],[[3652,1160],[8,2],[22,14],[9,2]],[[3617,1178],[5,-2],[4,-2],[13,-11],[6,-2],[7,-1]],[[3581,1110],[5,4],[7,8],[11,22],[2,13],[1,9],[-1,5],[1,4],[3,3],[7,0]],[[3482,1120],[7,-2],[6,-4],[7,-8],[8,-1]],[[3378,1042],[10,5],[16,12],[29,29],[36,30],[13,2]],[[3547,1115],[28,-5],[6,0]],[[3510,1105],[9,2],[18,7],[10,1]],[[3276,1079],[7,-2],[5,-3],[7,-9],[5,-4],[6,-2],[7,0]],[[3194,1024],[5,14],[2,4],[4,5],[5,4],[27,18],[13,6],[17,4],[9,0]],[[3349,1069],[5,-2],[5,-4],[8,-4],[3,-2],[1,-4],[0,-5],[2,-4],[5,-2]],[[3313,1059],[6,0],[30,10]],[[3094,1041],[-8,2],[-5,5],[-2,6],[-7,10],[-11,11],[-53,39],[-3,4],[-2,2],[-1,5],[-4,9],[-6,10],[-13,16],[-10,6],[-9,3]],[[2960,1169],[-7,-1],[-10,-6],[-51,-36],[-12,-5],[-13,-3],[-31,0]],[[2757,1137],[-7,2],[-8,4],[-22,14],[-8,2]],[[2712,1159],[-7,-2],[-6,-10],[-4,-4],[-6,-2],[-7,-1],[-6,-2],[-2,-5],[-1,-5],[0,-6],[-1,-7],[-4,-12],[-2,-7],[-1,-7],[0,-24]],[[2836,1118],[-10,1],[-9,2],[-19,12],[-9,3],[-10,2],[-9,0]],[[2770,1138],[-13,-1]],[[3194,1024],[-54,24],[-9,0]],[[3131,1048],[-13,0],[-8,-4],[-16,-3]],[[3194,1024],[-1,-33],[10,-10],[11,-5],[6,-2]],[[3237,975],[4,-1],[69,-25],[11,-6],[7,-7],[44,-52],[16,-23],[9,-21],[3,-7],[0,-7],[-8,-58],[0,-7],[8,-42],[1,-3]],[[3220,974],[17,1]],[[3288,4096],[17,-13],[35,-54],[-38,-47]],[[3302,3982],[-56,21],[-50,27]],[[3196,4030],[-23,-4],[-20,-9],[-21,-57],[-17,-65],[-35,-34],[-48,-7]],[[3032,3854],[-89,3]],[[2943,3857],[-86,-20],[-83,-36],[-87,-2]],[[2687,3799],[-95,24]],[[2592,3823],[-96,-13]],[[2496,3810],[-13,-105],[7,-197],[-23,-85],[-24,-45],[-19,-48],[-6,-45],[-11,-44],[-22,-33],[-5,-13]],[[0,4096],[1262,0],[5,-2],[13,-13],[27,5],[40,-6],[37,-14],[17,-15],[12,-18],[30,-4],[58,2],[9,-5],[8,-8],[12,-8],[15,-3],[17,-1],[13,-2],[10,-5],[89,-90],[22,-13],[18,-29],[26,-56],[4,-1],[20,-8],[4,-6],[17,-27],[16,-23],[6,-12],[2,-15],[18,-51],[88,-77],[35,-49],[4,-16],[5,-51],[7,-10],[27,-19],[6,-9],[13,-1],[68,-91],[23,-14],[30,-8],[25,-11],[11,-21],[15,-16],[111,-64],[26,-7],[53,-5],[6,-4],[88,-57],[56,-28],[131,-30],[63,-4],[77,60],[12,19],[17,6],[94,51],[28,-1],[97,-24],[46,2],[18,-2],[14,-7],[5,-5],[6,0],[15,12],[20,25],[14,28],[18,23],[33,9],[15,-4],[31,-16],[18,-4],[17,1],[43,12],[65,-2],[32,4],[27,32],[30,-4],[57,-19],[21,5],[52,27],[31,6],[29,-4],[63,-17],[33,-4],[0,-13],[-20,-11],[32,-6],[32,31],[32,43],[35,30],[20,8],[19,4],[14,-7],[5,-24],[37,-57],[4,-11],[8,13],[10,48],[7,19],[44,48],[11,8],[10,5],[0,-1457],[-10,-6],[-121,-69],[-339,-54],[-214,24],[-26,13],[-178,22],[-103,-6],[-92,20],[-31,9],[-59,35],[-35,6],[17,-56],[6,-53],[-2,-118],[-8,-68],[-21,-57],[-33,-46],[-40,-32],[-53,-15],[-39,15],[-37,24],[-45,13],[-50,7],[-28,3],[-47,6],[-13,2],[-15,-2],[-31,-4],[-25,-11],[-25,-11],[-15,-3],[-9,2],[-3,2],[-11,7],[-7,2],[-8,-3],[-4,-9],[-3,-8],[-23,-17],[-16,-30],[-22,-56],[-32,-47],[-43,-43],[-53,-28],[-60,-3],[-28,12],[-24,19],[-44,48],[-29,21],[-17,-11],[-5,-33],[7,-45],[11,-27],[32,-56],[6,-33],[0,-39],[3,-19],[28,-47],[-13,-23],[1,-23],[9,-21],[12,-18],[13,-14],[31,-21],[17,-14],[33,-94],[1,-17],[6,-8],[9,-52],[9,-10],[58,-46],[24,-16],[26,-11],[62,-6],[30,-8],[27,-11],[74,-47],[58,-26],[61,-12],[60,8],[17,6],[76,27],[31,5],[34,-4],[82,-22],[3,-31],[42,-82],[-5,-33],[0,-12],[130,0],[0,12],[-31,40],[1,49],[9,17],[14,30],[68,64],[21,14],[22,6],[105,13],[104,-13],[22,4],[18,13],[13,9],[22,10],[108,23],[41,25],[2,51],[21,-27],[35,8],[42,20],[46,12],[20,8],[18,19],[15,21],[12,13],[19,5],[48,1],[23,6],[6,10],[10,32],[9,7],[14,6],[4,15],[-3,34],[2,32],[8,32],[9,29],[11,23],[39,39],[30,11],[23,9],[48,3],[0,-1202],[-4096,0],[0,4096]],[[1262,4096],[5,-2],[13,-13],[27,5],[40,-6],[37,-14],[17,-15],[12,-18],[30,-4],[58,2],[9,-5],[8,-8],[12,-8],[15,-3],[17,-1],[13,-2],[10,-5],[89,-90],[22,-13],[18,-29],[26,-56],[4,-1],[20,-8],[4,-6],[17,-27],[16,-23],[6,-12],[2,-15],[18,-51],[88,-77],[35,-49],[4,-16],[5,-51],[7,-10],[27,-19],[6,-9],[13,-1],[68,-91],[23,-14],[30,-8],[25,-11],[11,-21],[15,-16],[111,-64],[26,-7],[53,-5],[6,-4],[88,-57],[56,-28],[131,-30],[63,-4],[77,60],[12,19],[17,6],[94,51],[28,-1],[97,-24],[46,2],[18,-2],[14,-7],[5,-5],[6,0],[15,12],[20,25],[14,28],[18,23],[33,9],[15,-4],[31,-16],[18,-4],[17,1],[43,12],[65,-2],[32,4],[27,32],[30,-4],[57,-19],[21,5],[52,27],[31,6],[29,-4],[63,-17],[33,-4],[0,-13],[-20,-11],[32,-6],[32,31],[32,43],[35,30],[20,8],[19,4],[14,-7],[5,-24],[37,-57],[4,-11],[8,13],[10,48],[7,19],[44,48],[11,8],[10,5]],[[4096,1956],[-10,-6],[-121,-69],[-339,-54],[-214,24],[-26,13],[-178,22],[-103,-6],[-92,20],[-31,9],[-59,35],[-35,6],[17,-56],[6,-53],[-2,-118],[-8,-68],[-21,-57],[-33,-46],[-40,-32],[-53,-15],[-39,15],[-37,24],[-45,13],[-50,7],[-28,3],[-47,6],[-13,2],[-15,-2],[-31,-4],[-25,-11],[-25,-11],[-15,-3],[-9,2],[-3,2],[-11,7],[-7,2],[-8,-3],[-4,-9],[-3,-8],[-23,-17],[-16,-30],[-22,-56],[-32,-47],[-43,-43],[-53,-28],[-60,-3],[-28,12],[-24,19],[-44,48],[-29,21],[-17,-11],[-5,-33],[7,-45],[11,-27],[32,-56],[6,-33],[0,-39],[3,-19],[28,-47],[-13,-23],[1,-23],[9,-21],[12,-18],[13,-14],[31,-21],[17,-14],[33,-94],[1,-17],[6,-8],[9,-52],[9,-10],[58,-46],[24,-16],[26,-11],[62,-6],[30,-8],[27,-11],[74,-47],[58,-26],[61,-12],[60,8],[17,6],[76,27],[31,5],[34,-4],[82,-22],[3,-31],[42,-82],[-5,-33],[0,-12],[130,0],[0,12],[-31,40],[1,49],[9,17],[14,30],[68,64],[21,14],[22,6],[105,13],[104,-13],[22,4],[18,13],[13,9],[22,10],[108,23],[41,25],[2,51],[21,-27],[35,8],[42,20],[46,12],[20,8],[18,19],[15,21],[12,13],[19,5],[48,1],[23,6],[6,10],[10,32],[9,7],[14,6],[4,15],[-3,34],[2,32],[8,32],[9,29],[11,23],[39,39],[30,11],[23,9],[48,3]],[[3635,4096],[9,-36],[30,-51],[48,-45],[25,8],[30,0],[18,-22],[36,-15]],[[3831,3935],[36,-15],[24,-15],[30,-44],[24,-37],[42,-29],[24,0],[42,7],[30,15],[13,0]],[[3506,3315],[30,0],[30,-22],[16,5]],[[3582,3298],[8,3],[36,22],[36,7],[12,22],[12,0],[12,-37],[6,0],[79,8],[36,7],[24,-7],[18,22],[72,29],[48,0],[48,37],[48,22],[19,17]],[[1920,3594],[13,-13],[36,-30],[37,-42]],[[2050,3465],[33,-17],[15,-15]],[[1539,4016],[33,0],[72,-44],[36,-30],[42,-51],[16,-29]],[[1307,4096],[67,-14],[28,-13]],[[1402,4069],[2,-1],[36,-22],[42,-8],[42,-22],[15,0]],[[1738,3862],[20,-38],[42,-44],[42,-59],[24,-66],[18,-22],[36,-39]],[[2006,3509],[35,-39],[9,-5]],[[2098,3433],[21,-22],[0,-29],[12,-15],[30,-7],[24,-30],[-6,-22],[12,-22],[42,-22],[36,-22],[18,-8],[12,-14],[24,-8]],[[3490,3306],[16,9]],[[3122,3220],[60,51],[42,15],[72,-22],[42,0],[30,7],[60,0],[30,15],[32,20]],[[2777,3152],[8,9]],[[2323,3212],[36,8],[30,-8],[30,-15],[54,0],[30,-29],[36,-7],[60,-52],[78,-15],[12,0],[12,22],[24,-14],[24,22],[28,28]],[[3476,1833],[30,-15],[36,0],[48,-7],[24,7]],[[3110,1796],[-12,30],[12,14],[36,30],[96,-7],[66,-8],[12,0],[48,-15],[24,8],[84,-15]],[[3656,1634],[30,-7]],[[3765,1619],[-43,15],[-36,-7]],[[3464,1612],[102,15],[90,7]],[[3476,1833],[-6,-44],[-30,-8],[-30,-22],[0,-22],[12,-37],[6,-51],[36,-37]],[[3332,1612],[48,0],[84,0]],[[3332,1612],[-18,7],[-48,15],[-24,15],[-12,29],[-36,22],[-6,22],[-42,23],[-12,29],[-24,22]],[[4096,1555],[-49,5],[-60,8],[-30,0],[-36,7],[-36,29],[-24,8],[-72,0],[-24,7]],[[3585,1578],[-43,-33]],[[3686,1627],[-36,-23],[-60,-22],[-5,-4]],[[3542,1545],[-90,0]],[[3452,1545],[-6,0]],[[3080,1486],[-72,59],[-18,45]],[[2749,1479],[-30,15],[-18,15],[-54,7],[-6,15],[-42,7],[-18,0],[-78,37],[-42,-7],[-30,-23],[-42,-7],[-24,0]],[[2990,1590],[-66,-30],[-60,-29],[-30,-22],[-25,0],[-54,-30]],[[2755,1479],[-6,0]],[[3548,1479],[6,37],[-12,29]],[[3446,1545],[-48,-14],[-12,-15],[-36,-7],[-114,-15],[-24,-15],[-72,-7],[-36,0],[-24,14]],[[3080,1486],[-48,-14],[-24,-30],[-48,-22]],[[3593,1510],[-45,28],[-6,7]],[[3710,1368],[-36,59],[-42,45],[-12,22],[-27,16]],[[4011,1427],[30,-7],[24,15],[24,0],[7,-2]],[[4011,1427],[-60,-14],[-30,-22],[-48,-8],[-72,-29],[-42,7],[-31,15],[-18,-8]],[[2960,1420],[-6,-15],[-36,-37],[-36,-14],[0,-15]],[[2365,1538],[-18,0],[-30,-44],[-60,-111],[-90,-81]],[[4065,1243],[24,22],[7,9]],[[3548,1479],[-11,-28]],[[3537,1451],[-7,-16],[0,-15],[18,-37],[12,-44],[-6,-22],[6,-74]],[[3578,1206],[24,8]],[[3578,1206],[-18,37]],[[4023,1199],[30,15],[12,29]],[[3602,1214],[24,7],[60,0],[79,-22]],[[4023,1199],[6,-8]],[[3957,1162],[4,3]],[[3961,1165],[38,34],[24,0]],[[3837,1162],[18,7],[42,0],[48,30],[30,22],[24,0],[24,-22]],[[3765,1199],[72,-37]],[[3837,1162],[18,-15]],[[2882,1339],[-24,-52],[0,-51],[12,-22],[6,-23],[18,-22],[6,-36]],[[3871,1127],[26,-31]],[[3855,1147],[16,-20]],[[3927,1096],[12,44],[18,22]],[[3897,1096],[30,0]],[[2167,1302],[18,-22],[0,-30],[24,-36],[-6,-23],[24,-29],[18,-59],[-12,-15],[0,-29],[12,-22]],[[3831,1074],[36,-23],[54,-22]],[[2245,1037],[6,-22]],[[3584,992],[-24,15],[0,22],[18,59],[12,52],[-12,66]],[[2900,1133],[24,-52],[0,-22],[-42,-59],[-6,-15]],[[3590,970],[-6,22]],[[3602,963],[78,37],[42,29],[55,37],[36,15],[18,-7]],[[3578,963],[24,0]],[[3578,963],[12,7]],[[3542,926],[36,37]],[[3524,897],[18,29]],[[2876,985],[6,-22],[-6,-15],[12,-51],[-6,-59]],[[2188,875],[-25,-34]],[[2163,841],[-2,-3]],[[2251,1015],[-6,-37],[-36,-74],[-21,-29]],[[2161,838],[-12,-30]],[[3464,793],[30,8],[24,22],[6,74]],[[3452,786],[12,7]],[[2164,836],[44,-13]],[[2161,838],[3,-2]],[[2208,823],[1,0],[42,-44],[48,-23]],[[3242,749],[60,0]],[[3398,742],[18,37],[36,7]],[[2299,756],[54,-22]],[[3302,749],[36,-7],[24,-15],[24,0],[12,15]],[[3128,720],[8,3]],[[3136,723],[64,26],[42,0]],[[3032,690],[60,15],[36,15]],[[2882,838],[18,-59],[-6,-30],[24,-44],[24,-15]],[[2990,675],[42,15]],[[2979,679],[11,-4]],[[2942,690],[37,-11]],[[2900,661],[12,22],[30,7]],[[2900,661],[12,-8]],[[2882,653],[18,8]],[[2876,653],[6,0]],[[2653,675],[72,37],[36,15],[18,-7],[61,-52],[36,-15]],[[2876,653],[24,8]],[[2653,675],[36,-14],[60,-8],[18,8],[36,-8],[18,0],[37,-7]],[[2858,646],[18,7]],[[2353,734],[24,-22],[18,-22],[42,-37],[36,-7],[18,-15],[24,22],[24,0],[36,22],[18,-7],[60,7]],[[2785,3161],[12,29],[30,15],[37,-15],[8,4]],[[2913,3214],[11,6],[42,-8],[15,0]],[[2872,3194],[41,20]],[[2981,3212],[117,0],[24,8]],[[4096,1202],[-48,-3],[-23,-9],[-30,-11],[-39,-39],[-11,-23],[-9,-29],[-8,-32],[-2,-32],[3,-34],[-4,-15],[-14,-6],[-9,-7],[-10,-32],[-6,-10],[-23,-6],[-48,-1],[-19,-5],[-12,-13],[-15,-21],[-18,-19],[-20,-8],[-46,-12],[-42,-20],[-35,-8],[-21,27],[-2,-51],[-41,-25],[-108,-23],[-22,-10],[-13,-9],[-18,-13],[-22,-4],[-104,13],[-105,-13],[-22,-6],[-21,-14],[-68,-64],[-14,-30],[-9,-17],[-1,-49],[31,-40],[0,-12],[-130,0],[0,12],[5,33],[-42,82],[-3,31],[-82,22],[-34,4],[-31,-5],[-76,-27],[-17,-6],[-60,-8],[-61,12],[-58,26],[-74,47],[-27,11],[-30,8],[-62,6],[-26,11],[-24,16],[-58,46],[-9,10],[-9,52],[-6,8],[-1,17],[-33,94],[-17,14],[-31,21],[-13,14],[-12,18],[-9,21],[-1,23],[13,23],[-28,47],[-3,19],[0,39],[-6,33],[-32,56],[-11,27],[-7,45],[5,33],[17,11],[29,-21],[44,-48],[24,-19],[28,-12],[60,3],[53,28],[43,43],[32,47],[22,56],[16,30],[23,17],[3,8],[4,9],[8,3],[7,-2],[11,-7],[3,-2],[9,-2],[15,3],[25,11],[25,11],[31,4],[15,2],[13,-2],[47,-6],[28,-3],[50,-7],[45,-13],[37,-24],[39,-15],[53,15],[40,32],[33,46],[21,57],[8,68],[2,118],[-6,53],[-17,56],[35,-6],[59,-35],[31,-9],[92,-20],[103,6],[178,-22],[26,-13],[214,-24],[339,54],[121,69],[10,6],[0,-754]],[[4096,3413],[-10,-5],[-11,-8],[-44,-48],[-7,-19],[-10,-48],[-8,-13],[-4,11],[-37,57],[-5,24],[-14,7],[-19,-4],[-20,-8],[-35,-30],[-32,-43],[-32,-31],[-32,6],[20,11],[0,13],[-33,4],[-63,17],[-29,4],[-31,-6],[-52,-27],[-21,-5],[-57,19],[-30,4],[-27,-32],[-32,-4],[-65,2],[-43,-12],[-17,-1],[-18,4],[-31,16],[-15,4],[-33,-9],[-18,-23],[-14,-28],[-20,-25],[-15,-12],[-6,0],[-5,5],[-14,7],[-18,2],[-46,-2],[-97,24],[-28,1],[-94,-51],[-17,-6],[-12,-19],[-77,-60],[-63,4],[-131,30],[-56,28],[-88,57],[-6,4],[-53,5],[-26,7],[-111,64],[-15,16],[-11,21],[-25,11],[-30,8],[-23,14],[-68,91],[-13,1],[-6,9],[-27,19],[-7,10],[-5,51],[-4,16],[-35,49],[-88,77],[-18,51],[-2,15],[-6,12],[-16,23],[-17,27],[-4,6],[-20,8],[-4,1],[-26,56],[-18,29],[-22,13],[-89,90],[-10,5],[-13,2],[-17,1],[-15,3],[-12,8],[-8,8],[-9,5],[-58,-2],[-30,4],[-12,18],[-17,15],[-37,14],[-40,6],[-27,-5],[-13,13],[-5,2],[2834,0],[0,-683]],[[3009,762],[0,-20],[108,11],[23,-36],[-97,-101],[-51,7],[-16,-20],[-13,33],[46,126]],[[2216,822],[-50,8],[-15,51],[50,-8],[15,-51]],[[3956,1172],[12,-20],[-41,-99],[-61,59],[16,48],[74,12]],[[3586,1571],[20,-41],[-47,-73],[-146,-39],[-4,30],[69,49],[-32,40],[48,60],[81,20],[11,-46]],[[2798,3141],[-48,25],[41,102],[57,-28],[27,-51],[-77,-48]],[[2969,3238],[17,-37],[-77,6],[25,52],[35,-21]],[[3588,3277],[-101,17],[24,81],[56,-30],[21,-68]],[[1650,4001],[32,0],[50,-69],[15,-70],[-32,2],[-130,135],[-78,29],[78,32],[65,-59]],[[1399,4096],[5,-50],[-142,50],[137,0]],[[2065,3522],[60,-35],[10,-43],[-64,-20],[-42,83],[-74,6],[-42,80],[125,30],[-16,-99],[43,-2]]]}