{"objects":{"water":{"type":"GeometryCollection","geometries":[]},"buildings":{"type":"GeometryCollection","geometries":[]},"places":{"type":"GeometryCollection","geometries":[]},"transit":{"type":"GeometryCollection","geometries":[]},"pois":{"type":"GeometryCollection","geometries":[{"type":"Point","properties":{"kind":"nature_reserve","tier":2,"protect_class":"4","area":10301600000,"source":"openstreetmap.org","min_zoom":5.62,"operator":"US Fish and Wildlife Service","id":-5982772,"osm_relation":true,"name":"Desert National Wildlife Refuge"},"coordinates":[3759,801]},{"type":"Point","properties":{"kind":"nature_reserve","tier":2,"protect_class":"1b","area":186654000,"source":"openstreetmap.org","min_zoom":8.52,"operator":"BLM","id":-5976606,"osm_relation":true,"name":"Mount Irish Wilderness Area"},"coordinates":[3755,3416]},{"type":"Point","properties":{"source":"openstreetmap.org","kind":"military","name":"R4808N - Air Force Flight Test Center (Detachment 3) - Area 51","area":2192190000,"tier":3,"min_zoom":8.0,"id":22697655},"coordinates":[2707,2785]},{"type":"Point","properties":{"source":"openstreetmap.org","kind":"military","name":"Area 12","area":159468000,"tier":3,"min_zoom":8.0,"id":74383129},"coordinates":[1579,2181]},{"type":"Point","properties":{"source":"openstreetmap.org","kind":"military","name":"Area 26","area":84630600,"tier":3,"min_zoom":8.0,"id":74383130},"coordinates":[1691,874]},{"type":"Point","properties":{"source":"openstreetmap.org","kind":"military","name":"Area 6","area":326127000,"tier":3,"min_zoom":8.0,"id":74383131},"coordinates":[1898,1211]},{"type":"Point","properties":{"source":"openstreetmap.org","kind":"military","name":"Area 22","area":125040000,"tier":3,"min_zoom":8.0,"id":74383135},"coordinates":[2007,127]},{"type":"Point","properties":{"source":"openstreetmap.org","kind":"military","name":"Area 29","area":247849000,"tier":3,"min_zoom":8.0,"id":74383148},"coordinates":[1152,1285]},{"type":"Point","properties":{"source":"openstreetmap.org","kind":"military","name":"Area 25","area":1025360000,"tier":3,"min_zoom":8.0,"id":74383154},"coordinates":[1219,506]},{"type":"Point","properties":{"source":"openstreetmap.org","kind":"military","name":"Area 5","area":442421000,"tier":3,"min_zoom":8.0,"id":74383155},"coordinates":[2123,514]},{"type":"Point","properties":{"source":"openstreetmap.org","kind":"military","name":"Area 19","area":600538000,"tier":3,"min_zoom":8.0,"id":74383160},"coordinates":[1252,2473]},{"type":"Point","properties":{"source":"openstreetmap.org","kind":"military","name":"Area 18","area":365063000,"tier":3,"min_zoom":8.0,"id":74383168},"coordinates":[1101,1864]},{"type":"Point","properties":{"source":"openstreetmap.org","kind":"military","name":"Area 11","area":107435000,"tier":3,"min_zoom":8.0,"id":74383170},"coordinates":[2223,1245]},{"type":"Point","properties":{"source":"openstreetmap.org","kind":"military","name":"Area 8","area":56539700,"tier":3,"min_zoom":8.0,"id":74383175},"coordinates":[1852,2229]},{"type":"Point","properties":{"source":"openstreetmap.org","kind":"military","name":"Area 27","area":193231000,"tier":3,"min_zoom":8.0,"id":74383180},"coordinates":[1794,510]},{"type":"Point","properties":{"source":"openstreetmap.org","kind":"military","name":"Area 20","area":393789000,"tier":3,"min_zoom":8.0,"id":74383185},"coordinates":[736,2463]},{"type":"Point","properties":{"source":"openstreetmap.org","kind":"military","name":"Area 17","area":127824000,"tier":3,"min_zoom":8.0,"id":74383192},"coordinates":[1530,1978]},{"type":"Point","properties":{"source":"openstreetmap.org","kind":"military","name":"Area 23","area":20725900,"tier":3,"min_zoom":8.0,"id":74383196},"coordinates":[2102,225]},{"type":"Point","properties":{"source":"openstreetmap.org","kind":"military","name":"Area 3","area":133212000,"tier":3,"min_zoom":8.0,"id":74383202},"coordinates":[2123,1600]},{"type":"Point","properties":{"source":"openstreetmap.org","kind":"military","name":"Area 9","area":83928700,"tier":3,"min_zoom":8.0,"id":74383204},"coordinates":[2110,1959]},{"type":"Point","properties":{"source":"openstreetmap.org","kind":"military","name":"Area 15","area":142517000,"tier":3,"min_zoom":8.0,"id":74383212},"coordinates":[2028,2336]},{"type":"Point","properties":{"source":"openstreetmap.org","kind":"military","name":"Area 1","area":106179000,"tier":3,"min_zoom":8.0,"id":74383214},"coordinates":[1797,1599]},{"type":"Point","properties":{"source":"openstreetmap.org","kind":"military","name":"Area 10","area":83232000,"tier":3,"min_zoom":8.0,"id":74383219},"coordinates":[2114,2111]},{"type":"Point","properties":{"source":"openstreetmap.org","kind":"military","name":"Area 4","area":63762800,"tier":3,"min_zoom":8.0,"id":74383222},"coordinates":[1798,1801]},{"type":"Point","properties":{"source":"openstreetmap.org","kind":"military","name":"Area 14","area":113208000,"tier":3,"min_zoom":8.0,"id":74383230},"coordinates":[1582,1092]},{"type":"Point","properties":{"source":"openstreetmap.org","kind":"military","name":"Area 30","area":245204000,"tier":3,"min_zoom":8.0,"id":74383232},"coordinates":[1101,1541]},{"type":"Point","properties":{"source":"openstreetmap.org","kind":"military","name":"Area 16","area":114844000,"tier":3,"min_zoom":8.0,"id":74383237},"coordinates":[1530,1576]},{"type":"Point","properties":{"source":"openstreetmap.org","kind":"military","name":"Area 7","area":79014300,"tier":3,"min_zoom":8.0,"id":74383238},"coordinates":[2123,1782]},{"type":"Point","properties":{"source":"openstreetmap.org","kind":"military","name":"Area 2","area":78510000,"tier":3,"min_zoom":8.0,"id":74383243},"coordinates":[1782,1987]},{"type":"Point","properties":{"kind":"military","name":"Nevada National Security Site","area":5519650000,"source":"openstreetmap.org","min_zoom":8.0,"old_name":"Nevada Test Site","tier":3,"id":203391408},"coordinates":[1549,1285]}]},"boundaries":{"type":"GeometryCollection","geometries":[{"type":"LineString","properties":{"name:pt":"Calif\u00f3rnia","name:cy":"Califfornia","name:ko":"\uce98\ub9ac\ud3ec\ub2c8\uc544","name:cv":"\u041a\u0430\u043b\u0438\u0444\u043e\u0440\u043d\u0438","name:cs":"Kalifornie","name:kw":"Kaliforni","min_zoom":8.0,"name:tl":"Kaliporniya","name:be":"\u041a\u0430\u043b\u0456\u0444\u043e\u0440\u043d\u0456\u044f","name:os":"\u041a\u0430\u043b\u0438\u0444\u043e\u0440\u043d\u0438","name:pl":"Kalifornia","name:ta":"\u0b95\u0bb2\u0bbf\u0baa\u0bcb\u0bb0\u0bcd\u0ba9\u0bbf\u0baf\u0bbe","name:ca":"Calif\u00f2rnia","name:ka":"\u10d9\u10d0\u10da\u10d8\u10e4\u10dd\u10e0\u10dc\u10d8\u10d0","sort_rank":256,"name:da":"Californien","name:de":"Kalifornien","source":"openstreetmap.org","name:nv":"Ak\u00e9\u00e9h\u00e1sh\u012f\u0301\u012f\u0301 Hahoodzo","name:kn":"\u0c95\u0ccd\u0caf\u0cbe\u0cb2\u0cbf\u0cab\u0cca\u0cb0\u0ccd\u0ca8\u0cbf\u0caf","name:tr":"Kaliforniya","name:uz":"Kaliforniya","name:he":"\u05e7\u05dc\u05d9\u05e4\u05d5\u05e8\u05e0\u05d9\u05d4","kind":"region","name:uk":"\u041a\u0430\u043b\u0456\u0444\u043e\u0440\u043d\u0456\u044f","name:hy":"\u053f\u0561\u056c\u056b\u0586\u0578\u0580\u0576\u056b\u0561","name:ht":"Kalif\u00f2ni","name:hu":"Kalifornia","name:hr":"Kalifornija","name:oc":"Calif\u00f2rnia","name:el":"\u039a\u03b1\u03bb\u03b9\u03c6\u03cc\u03c1\u03bd\u03b9\u03b1","name:eo":"Kalifornio","name":"California","name:th":"\u0e23\u0e31\u0e10\u0e41\u0e04\u0e25\u0e34\u0e1f\u0e2d\u0e23\u0e4c\u0e40\u0e19\u0e35\u0e22","name:yi":"\u05e7\u05d0\u05dc\u05d9\u05e4\u05d0\u05e8\u05e0\u05d9\u05e2","name:az":"Kaliforniya","name:mr":"\u0915\u0945\u0932\u093f\u092b\u094b\u0930\u094d\u0928\u093f\u092f\u093e","name:ar":"\u0643\u0627\u0644\u064a\u0641\u0648\u0631\u0646\u064a\u0627","name:is":"Kaliforn\u00eda","name:iu":"\u1473\u14d6\u1434\u1550\u14c3\u140a","name:vi":"Ca Li","name:ml":"\u0d15\u0d3e\u0d32\u0d3f\u0d2b\u0d4b\u0d30\u0d4d\u200d\u0d23\u0d3f\u0d2f","name:mn":"\u041a\u0430\u043b\u0438\u0444\u043e\u0440\u043d\u0438","name:mi":"Karap\u014dnia","id":-165475,"name:af":"Kaliforni\u00eb","name:fa":"\u06a9\u0627\u0644\u06cc\u0641\u0631\u0646\u06cc\u0627","name:lt":"Kalifornija","kind_detail":"4","name:hi":"\u0915\u0948\u0932\u093f\u092b\u093c\u094b\u0930\u094d\u0928\u093f\u092f\u093e","name:mg":"Kalifornia","name:fo":"Kalifornia","name:fr":"Californie","name:fy":"Kalifornje","name:zh":"\u52a0\u5229\u798f\u5c3c\u4e9a\u5dde","name:sl":"Kalifornija","name:nl":"Californi\u00eb","name:ja":"\u30ab\u30ea\u30d5\u30a9\u30eb\u30cb\u30a2\u5dde","name:sh":"Kalifornija","name:br":"Kalifornia","name:eu":"Kalifornia","name:bn":"\u0995\u09cd\u09af\u09be\u09b2\u09bf\u09ab\u09cb\u09b0\u09cd\u09a8\u09bf\u09af\u09bc\u09be","name:sk":"Kalifornia","name:ru":"\u041a\u0430\u043b\u0438\u0444\u043e\u0440\u043d\u0438\u044f","name:sv":"Kalifornien","name:bg":"\u041a\u0430\u043b\u0438\u0444\u043e\u0440\u043d\u0438\u044f","name:sr":"\u041a\u0430\u043b\u0438\u0444\u043e\u0440\u043d\u0438\u0458\u0430","osm_relation":true,"name:gd":"Calaf\u00f2rnia","name:fi":"Kalifornia"},"arcs":[0]}]},"roads":{"type":"GeometryCollection","geometries":[{"type":"MultiLineString","properties":{"kind":"major_road","network":"US:US","sort_rank":381,"kind_detail":"trunk","source":"openstreetmap.org","min_zoom":8.0,"shield_text":"95","ref":"US 95"},"arcs":[[1],[2]]},{"type":"LineString","properties":{"kind":"major_road","network":"US:NV","sort_rank":380,"kind_detail":"primary","source":"openstreetmap.org","min_zoom":8.0,"shield_text":"373","ref":"NV 373","id":228721216},"arcs":[3]},{"type":"MultiLineString","properties":{"kind":"major_road","network":"US:US","sort_rank":381,"kind_detail":"trunk","is_bicycle_related":true,"source":"openstreetmap.org","min_zoom":8.0,"shield_text":"95","ref":"US 95"},"arcs":[[4],[5]]}]},"earth":{"type":"GeometryCollection","geometries":[{"type":"Polygon","properties":{"sort_rank":10,"source":"naturalearthdata.com","kind":"earth","min_zoom":0.0,"id":4490},"arcs":[[6]]}]},"landuse":{"type":"GeometryCollection","geometries":[{"type":"MultiPolygon","properties":{"kind":"national_park","protect_class":"3","area":4579509760,"sort_rank":18,"operator":"BLM","source":"openstreetmap.org","min_zoom":3.0,"tier":1,"id":-5976391,"osm_relation":true},"arcs":[[[7]],[[8]]]},{"type":"Polygon","properties":{"kind":"national_park","protect_class":"3","area":32773500,"sort_rank":18,"operator":"BLM","source":"openstreetmap.org","min_zoom":8.0,"tier":1,"id":-5976391,"osm_relation":true},"arcs":[[9]]},{"type":"Polygon","properties":{"source":"openstreetmap.org","kind":"military","tier":3,"area":7701759894,"sort_rank":45,"min_zoom":8.0},"arcs":[[10],[11]]},{"type":"MultiPolygon","properties":{"kind":"nature_reserve","protect_class":"1b","area":5293335280,"sort_rank":23,"operator":"BLM","source":"openstreetmap.org","min_zoom":6.0,"tier":2,"osm_relation":true},"arcs":[[[12]]]},{"type":"Polygon","properties":{"kind":"nature_reserve","protect_class":"4","area":10301599744,"sort_rank":23,"operator":"US Fish and Wildlife Service","source":"openstreetmap.org","min_zoom":4.0,"tier":2,"id":-5982772,"osm_relation":true},"arcs":[[13]]},{"type":"Polygon","properties":{"kind":"national_park","protect_class":"2","area":21324599296,"sort_rank":18,"operator":"United States National Park Service","source":"openstreetmap.org","min_zoom":3.0,"tier":1,"id":-174732,"osm_relation":true},"arcs":[[14]]},{"type":"Polygon","properties":{"kind":"military","area":5568430080,"sort_rank":45,"source":"openstreetmap.org","min_zoom":8.0,"tier":3,"id":-5982880,"osm_relation":true},"arcs":[[15]]}]}},"type":"Topology","transform":{"translate":[-116.71875,36.5978891331],"scale":[0.0003433228,0.0002736087]},"arcs":[[[141,0],[-141,132]],[[1390,0],[-223,120],[-191,33],[-445,139],[-319,234],[-212,227]],[[0,1275],[11,13],[-11,69]],[[904,0],[24,168]],[[2224,0],[-123,2],[-7,-2]],[[2099,0],[122,0]],[[4096,4096],[0,-4096],[-4096,0],[0,4096],[4096,0]],[[4083,4096],[-3,-464],[-36,0],[-50,52],[-94,-53],[-15,-1],[30,19],[-73,12],[-32,37],[-51,-24],[3,-21],[-36,16],[-19,-36],[-44,184],[5,279],[415,0]],[[3601,4096],[-45,-37],[-180,-4],[-37,41],[262,0]],[[4030,2774],[5,13],[61,52],[0,-102],[-37,-2],[-29,39]],[[2157,15],[-267,-15],[0,96],[-198,184],[-47,-1],[-852,-14],[0,901],[2,228],[1,610],[-49,1],[-1,78],[0,25],[-51,2],[-45,164],[-53,1],[-2,54],[-27,0],[-1,56],[-23,-1],[1,52],[-24,-1],[-15,55],[-12,1],[-1,49],[-26,2],[2,53],[-29,2],[-2,50],[-50,2],[1,187],[130,-5],[-1,-77],[341,-1],[3,54],[104,1],[1,52],[316,-1],[1,-51],[102,-5],[1,-49],[53,0],[2,-53],[110,2],[0,-307],[29,-1],[173,0],[357,-2],[-10,783],[1206,1],[0,-1337],[-1004,-2],[0,-43],[1,-70],[-1,-151],[1,-417],[0,-140],[1,-721],[-150,-4],[2,-277]],[[1754,2395],[0,-1],[0,1]],[[3626,3225],[23,88],[41,-6],[-26,14],[48,74],[-27,27],[-16,109],[50,42],[7,96],[36,-16],[-3,21],[51,24],[32,-37],[73,-12],[-23,-20],[102,55],[29,-9],[24,-114],[-62,-62],[27,-40],[-13,-70],[31,19],[28,-14],[-56,-38],[-98,121],[-25,-19],[-5,10],[-34,31],[-45,-10],[-1,22],[0,-24],[45,10],[38,-40],[-17,-47],[-51,17],[14,-11],[-27,-15],[-6,-33],[23,15],[53,-35],[-68,-117],[-4,-56],[-66,-41],[-41,40],[-38,-5],[-23,56]],[[2396,2173],[465,0],[0,34],[1235,2],[0,-2209],[-1698,0],[-2,2173]],[[0,134],[141,-134],[-141,0],[0,134]],[[2396,2173],[465,0],[0,34],[1235,2],[0,-1899],[-207,0],[0,-310],[-1491,0],[-2,2173]]]}