{"objects":{"water":{"type":"GeometryCollection","geometries":[{"type":"MultiPolygon","properties":{"source":"naturalearthdata.com","kind":"ocean","area":1576712559132672,"sort_rank":200,"min_zoom":0.0,"id":1},"arcs":[[[0]],[[1]]]},{"type":"MultiLineString","properties":{"source":"naturalearthdata.com","kind":"ocean","sort_rank":205,"boundary":true,"min_zoom":0.0,"id":963},"arcs":[[2],[3],[4]]},{"type":"LineString","properties":{"source":"naturalearthdata.com","kind":"ocean","sort_rank":205,"boundary":true,"min_zoom":0.0,"id":965},"arcs":[5]}]},"buildings":{"type":"GeometryCollection","geometries":[]},"places":{"type":"GeometryCollection","geometries":[]},"transit":{"type":"GeometryCollection","geometries":[]},"pois":{"type":"GeometryCollection","geometries":[]},"boundaries":{"type":"GeometryCollection","geometries":[]},"roads":{"type":"GeometryCollection","geometries":[]},"earth":{"type":"GeometryCollection","geometries":[{"type":"MultiPolygon","properties":{"sort_rank":10,"source":"naturalearthdata.com","min_zoom":0.0,"kind":"earth","area":98472457483},"arcs":[[[6]],[[7]]]},{"type":"Point","properties":{"label_placement":true,"name:pt":"Ilha do Pr\u00edncipe Carlos","name:ro":"Insula Prince Charles","name:cy":"Ynys Prince Charles","name:cs":"ostrov prince Karla","min_zoom":7.0,"name:az":"\u015eahzad\u0259-\u00c7arlz adas\u0131","name:it":"Isola del Principe Carlo","name:ru":"\u041f\u0440\u0438\u043d\u0441-\u0427\u0430\u0440\u043b\u044c\u0437","name:pl":"Wyspa Ksi\u0119cia Karola","id":-3958587,"name:ca":"Illa del Pr\u00edncep Carles","name:fa":"\u062c\u0632\u06cc\u0631\u0647 \u067e\u0631\u06cc\u0646\u0633 \u0686\u0627\u0631\u0644\u0632","name:nn":"Charles\u00f8ya","area":67236401152,"name:fi":"Prinssi Charlesin saari","source":"openstreetmap.org","name:fr":"\u00cele Prince-Charles","name:zh":"\u67e5\u723e\u65af\u738b\u5b50\u5cf6","name:nl":"Prins Charleseiland","name:ja":"\u30d7\u30ea\u30f3\u30b9\u30c1\u30e3\u30fc\u30eb\u30ba\u5cf6","name:lt":"Princo \u010carlzo sala","name:he":"\u05d0\u05d9 \u05d4\u05e0\u05e1\u05d9\u05da \u05e6'\u05d0\u05e8\u05dc\u05e1","name:uk":"\u041f\u0440\u0456\u043d\u0441-\u0427\u0430\u0440\u043b\u0437","name:bg":"\u041f\u0440\u0438\u043d\u0446 \u0427\u0430\u0440\u043b\u0437","name:sr":"\u041f\u0440\u0438\u043d\u0446 \u0427\u0430\u0440\u043b\u0441","osm_relation":true,"name:el":"\u039d\u03ae\u03c3\u03bf\u03c2 \u03a0\u03c1\u03af\u03b3\u03ba\u03b7\u03c0\u03b1 \u039a\u03b1\u03c1\u03cc\u03bb\u03bf\u03c5","kind":"island","name":"Prince Charles Island","name:gl":"Illa do Pr\u00edncipe Carlos","name:eu":"Karlos Printzearen uhartea","name:et":"Prints Charlesi saar","name:es":"Isla del Pr\u00edncipe Carlos"},"coordinates":[3788,680]}]},"landuse":{"type":"GeometryCollection","geometries":[]}},"type":"Topology","transform":{"translate":[-78.75,67.609220605],"scale":[0.0006866455,0.0002556969]},"arcs":[[[4096,4096],[0,-1240],[-78,-42],[-83,-94],[-49,-28],[-147,1],[-66,24],[-41,54],[6,55],[-29,17],[-40,-5],[-567,-283],[-61,-76],[-169,-297],[-32,-32],[-13,-24],[-5,-39],[-39,-121],[-110,-190],[-333,-754],[-48,-135],[-82,-368],[-21,-66],[-10,-67],[6,-78],[67,-308],[-2152,0],[0,3291],[18,6],[133,119],[32,41],[15,51],[-22,35],[-103,12],[-35,20],[21,9],[27,22],[22,36],[10,53],[18,36],[183,-74],[37,5],[31,46],[11,50],[2,47],[4,38],[13,23],[-2,31],[-1,10],[0,12],[3,32],[-38,31],[-112,-7],[-28,16],[-92,91],[-25,14],[3974,0]],[[0,3901],[43,-7],[41,-20],[34,-59],[-50,-90],[-57,-38],[-11,-1],[0,215]],[[198,3508],[-22,35],[-103,12],[-35,20],[21,9],[27,22],[22,36],[10,53],[18,36],[183,-74],[37,5],[31,46],[11,50],[2,47],[4,38],[13,23],[-2,31],[-1,10],[0,12],[3,32],[-38,31],[-112,-7],[-28,16],[-92,91],[-25,14]],[[0,3901],[43,-7],[41,-20],[34,-59],[-50,-90],[-57,-38],[-11,-1]],[[0,3291],[18,6],[133,119],[32,41],[15,51]],[[4096,2856],[-78,-42],[-83,-94],[-49,-28],[-147,1],[-66,24],[-41,54],[6,55],[-29,17],[-40,-5],[-567,-283],[-61,-76],[-169,-297],[-32,-32],[-13,-24],[-5,-39],[-39,-121],[-110,-190],[-333,-754],[-48,-135],[-82,-368],[-21,-66],[-10,-67],[6,-78],[67,-308]],[[239,3991],[28,-16],[112,7],[38,-31],[-3,-32],[0,-12],[1,-10],[2,-31],[-13,-23],[-4,-38],[-2,-47],[-11,-50],[-31,-46],[-37,-5],[-183,74],[-18,-36],[-10,-53],[-22,-36],[-27,-22],[-21,-9],[35,-20],[103,-12],[22,-35],[-15,-51],[-32,-41],[-133,-119],[-18,-6],[0,395],[11,1],[57,38],[50,90],[-34,59],[-41,20],[-43,7],[0,195],[122,0],[25,-14],[92,-91]],[[4096,2856],[0,-2856],[-1944,0],[-67,308],[-6,78],[10,67],[21,66],[82,368],[48,135],[333,754],[110,190],[39,121],[5,39],[13,24],[32,32],[169,297],[61,76],[567,283],[40,5],[29,-17],[-6,-55],[41,-54],[66,-24],[147,-1],[49,28],[83,94],[78,42]]]}