{"objects":{"water":{"type":"GeometryCollection","geometries":[{"type":"Polygon","properties":{"source":"naturalearthdata.com","kind":"ocean","area":1576712559132672,"sort_rank":200,"min_zoom":0.0,"id":1},"arcs":[[68]]},{"type":"MultiLineString","properties":{"source":"naturalearthdata.com","kind":"ocean","sort_rank":205,"boundary":true,"min_zoom":0.0,"id":26},"arcs":[[69],[70]]}]},"buildings":{"type":"GeometryCollection","geometries":[]},"places":{"type":"GeometryCollection","geometries":[]},"transit":{"type":"GeometryCollection","geometries":[{"type":"MultiLineString","properties":{"kind":"train","name:en":"Shiosai","name":"\u3057\u304a\u3055\u3044","sort_rank":275,"source":"openstreetmap.org","min_zoom":6.0,"ref":"\u3057\u304a\u3055\u3044","osm_relation":true,"name:ja":"Shiosai"},"arcs":[[5],[6]]},{"type":"LineString","properties":{"kind":"train","name:en":"JR Joban Line","name":"JR\u5e38\u78d0\u7dda","sort_rank":275,"name:de":"J\u014dban-Linie","source":"openstreetmap.org","min_zoom":6.0,"ref":"JR\u5e38\u78d0\u7dda (JR Joban Line)","id":-1872548,"osm_relation":true,"name:ja":"JR Joban-sen"},"arcs":[7]},{"type":"MultiLineString","properties":{"distance":"6.4 km","kind":"train","name:en":"Choshi Electric Railway Line","name:ja":"Ch\u014dshi Denki Tetsud\u014d Sen","source":"openstreetmap.org","roundtrip":"no","sort_rank":275,"min_zoom":6.0,"osm_relation":true,"name":"\u929a\u5b50\u96fb\u6c17\u9244\u9053\u7dda"},"arcs":[[8],[9],[10],[11],[12],[13],[14],[15],[16],[17],[18],[19],[20],[21],[22],[23],[24],[25],[26],[27],[28],[29],[30],[31],[32],[33],[34],[35],[36],[37],[38],[39],[40],[41],[42],[43],[44],[45],[46],[47],[48],[49],[50],[51],[52],[53]]},{"type":"LineString","properties":{"kind":"train","name:en":"Kashima Rinkai Railway \u014carai Kashima Line","name":"\u9e7f\u5cf6\u81e8\u6d77\u9244\u9053\u5927\u6d17\u9e7f\u5cf6\u7dda","sort_rank":275,"source":"openstreetmap.org","min_zoom":6.0,"ref":"\u9e7f\u5cf6\u81e8\u6d77\u9244\u9053\u5927\u6d17\u9e7f\u5cf6\u7dda (Kashima Rinkai Railway \u014carai Kashima Line","id":-1949515,"osm_relation":true},"arcs":[54]},{"type":"MultiLineString","properties":{"kind":"train","name:en":"JR Sobu Main Line","name":"JR\u7dcf\u6b66\u672c\u7dda","sort_rank":275,"name:de":"JR S\u014dbu-Stammlinie","source":"openstreetmap.org","min_zoom":6.0,"ref":"JR\u7dcf\u6b66\u672c\u7dda (JR Sobu Main Line)","osm_relation":true,"name:ja":"JR Sobu Honsen"},"arcs":[[55],[56],[57],[58],[59],[60],[61],[62],[63]]},{"type":"MultiLineString","properties":{"kind":"train","name:en":"JR Kashima Line","name":"JR\u9e7f\u5cf6\u7dda","sort_rank":275,"source":"openstreetmap.org","min_zoom":6.0,"ref":"JR\u9e7f\u5cf6\u7dda (JR Kashima Line)","osm_relation":true,"name:ja":"JR Kashima-sen"},"arcs":[[64],[65],[66]]},{"type":"LineString","properties":{"kind":"train","name:en":"JR Narita Line","network":"\u6210\u7530\u7dda","sort_rank":275,"source":"openstreetmap.org","min_zoom":6.0,"name:ja":"JR Narita-sen","ref":"JR\u6210\u7530\u7dda (JR Narita Line)","id":-3139193,"osm_relation":true,"name":"JR\u6210\u7530\u7dda"},"arcs":[67]}]},"pois":{"type":"GeometryCollection","geometries":[]},"boundaries":{"type":"GeometryCollection","geometries":[{"type":"LineString","properties":{"name:ty":"T\u0101p\u014dn\u0113","name:ka":"\u10d8\u10d0\u10de\u10dd\u10dc\u10d8\u10d0","name:ko":"\uc77c\ubcf8","name:cv":"\u042f\u043f\u043e\u043d\u0438","name:cu":"\ua656\u043f\u0461\u043d\u0457\ua657","name:kl":"Japani","name:cs":"Japonsko","name:tw":"Yapan","name:ki":"Japan","name:kw":"Nihon","name:kv":"\u042f\u043f\u043e\u043d\u0438\u044f","name:th":"\u0e1b\u0e23\u0e30\u0e40\u0e17\u0e28\u0e0d\u0e35\u0e48\u0e1b\u0e38\u0e48\u0e19","name:ti":"\u1303\u1353\u1295","name:tl":"Hapon","name:ch":"Chapan","name:ce":"\u042f\u043f\u043e\u043d\u0438","name:ta":"\u0b9c\u0baa\u0bcd\u0baa\u0bbe\u0ba9\u0bcd","name:tg":"\u0416\u043e\u043f\u0443\u043d","name:ca":"Jap\u00f3","name:te":"\u0c1c\u0c2a\u0c3e\u0c28\u0c4d","name:cy":"Japan","name:qu":"Nihun","name:da":"Japan","name:de":"Japan","name:dz":"\u0f47\u0f71\u0f0b\u0f54\u0f71\u0f53\u0f0d","source":"openstreetmap.org","name:kn":"\u0c9c\u0caa\u0cbe\u0ca8\u0ccd","name:dv":"\u0796\u07a6\u0795\u07a7\u0782\u07aa","name:km":"\u1787\u1794\u17c9\u17bb\u1793","name:lv":"Jap\u0101na","name:lt":"Japonija","name:uz":"Yaponiya","name:kk":"\u0416\u0430\u043f\u043e\u043d\u0438\u044f","name:ur":"\u062c\u0627\u067e\u0627\u0646","name:lb":"Japan","name:la":"Iaponia","name:tt":"\u042f\u043f\u043e\u043d\u0438\u044f","name:uk":"\u042f\u043f\u043e\u043d\u0456\u044f","name:ug":"\u064a\u0627\u067e\u0648\u0646\u0649\u064a\u06d5","name:li":"Japan","name:ln":"Zap\u0254\u0301","name:lo":"\u0e9b\u0eb0\u0ec0\u0e97\u0e94\u0e8d\u0eb5\u0ec8\u0e9b\u0eb8\u0ec8\u0e99","name:el":"\u0399\u03b1\u03c0\u03c9\u03bd\u03af\u03b1","name:eo":"Japanujo","name:en":"Japan","name":"\u65e5\u672c","name:tk":"\u00ddaponi\u00fda","name:ee":"Japan","name:ku":"Japon","name:eu":"Japonia","name:et":"Jaapan","name:es":"Jap\u00f3n","name:ay":"Nihun","name:rm":"Giapun","name:az":"Yaponiya","name:ie":"Japan","name:id":"Jepang","name:ar":"\u0627\u0644\u064a\u0627\u0628\u0627\u0646","name:io":"Japonia","name:is":"Japan","name:am":"\u1303\u1353\u1295","name:it":"Giappone","name:an":"Chap\u00f3n","name:ru":"\u042f\u043f\u043e\u043d\u0438\u044f","name:ab":"\u0418\u0430\u043f\u043e\u043d\u0438\u0430","name:af":"Japan","name:zu":"IJapani","kind_detail":"2","name:za":"Nditbonj","name:so":"Jabaan","name:sm":"Iapani","name:sl":"Japonska","name:sk":"Japonsko","name:ja":"Nippon","name:si":"\u0da2\u0db4\u0dcf\u0db1\u0dba","name:sh":"Japan","name:se":"J\u00e1hpan","name:sd":"\u062c\u0627\u067e\u0627\u0646","name:sc":"Giappone","name:br":"Japan","name:bs":"Japan","name:bn":"\u099c\u09be\u09aa\u09be\u09a8","name:bo":"\u0f62\u0f72\u0f0b\u0f54\u0f72\u0f53\u0f0d","name:sa":"\u0938\u0942\u0930\u094d\u092f\u092e\u0942\u0932","name:sw":"Japani","name:be":"\u042f\u043f\u043e\u043d\u0456\u044f","name:su":"Jepang","name:bg":"\u042f\u043f\u043e\u043d\u0438\u044f","name:ss":"IJaphani","name:ba":"\u042f\u043f\u043e\u043d\u0438\u044f","name:sq":"Japonia","name:jv":"Jepang","name:ia":"Japon","name:pt":"Jap\u00e3o","name:ps":"\u062c\u0627\u067e\u0627\u0646","name:om":"Jaappaan","name:oc":"Japon","min_zoom":8.0,"name:ro":"Japonia","name:zh-min-nan":"Ji\u030dt-p\u00fan","name:os":"\u042f\u043f\u043e\u043d","name:or":"\u0b1c\u0b3e\u0b2a\u0b3e\u0b28","name:pl":"Japonia","sort_rank":262,"name:sr":"\u0408\u0430\u043f\u0430\u043d","osm_relation":true,"name:pa":"\u0a1c\u0a2a\u0a3e\u0a28","name:tr":"Japonya","name:hi":"\u091c\u093e\u092a\u093e\u0928","name:sv":"Japan","name:he":"\u05d9\u05e4\u05df","name:ha":"Japan","name:hy":"\u0543\u0561\u057a\u0578\u0576\u056b\u0561","name:ht":"Japon","name:hu":"Jap\u00e1n","name:hr":"Japan","kind":"country","name:yi":"\u05d9\u05d0\u05e4\u05d0\u05df","name:iu":"\u14c3\u1449\u140a\u14d0","name:yo":"Japan","name:mt":"\u0120appun","alt_name:eo":"Japanio","name:ms":"Jepun","name:mr":"\u091c\u092a\u093e\u0928","name:my":"\u1002\u103b\u1015\u1014\u103a\u1014\u102d\u102f\u1004\u103a\u1004\u1036","name:mg":"Japana","name:vi":"Nh\u1eadt B\u1ea3n","name:ml":"\u0d1c\u0d2a\u0d4d\u0d2a\u0d3e\u0d7b","name:mn":"\u042f\u043f\u043e\u043d","name:mi":"Nipono","id":-382313,"name:mk":"\u0408\u0430\u043f\u043e\u043d\u0438\u0458\u0430","name:vo":"Yap\u00e4n","name:fa":"\u0698\u0627\u067e\u0646","name:rw":"Ubuyapani","name:fi":"Japani","name:ky":"\u0416\u0430\u043f\u043e\u043d\u0438\u044f","old_name:vi":"Nh\u1eadt B\u1ed5n","name:fo":"Japan","alt_name:vi":"Nh\u1eadt","name:fr":"Japon","name:fy":"Japan","name:nl":"Japan","name:nn":"Japan","name:no":"Japan","name:na":"Djapan","name:ne":"\u091c\u093e\u092a\u093e\u0928","name:wo":"Sapo\u014b","name:nv":"Bina\u02bcadaa\u0142tz\u00f3z\u00ed Din\u00e9\u02bci\u02bc Bik\u00e9yah","name:ga":"An tSeap\u00e1in","name:gd":"An t-Seapan","name:gn":"Hap\u00f5","name:gl":"Xap\u00f3n","maritime_boundary":true,"name:gv":"Yn \u00c7hapaan","name:gu":"\u0a9c\u0abe\u0aaa\u0abe\u0aa8"},"arcs":[0]},{"type":"LineString","properties":{"name:right:ja":"Chiba-ken","name:right:uk":"\u041f\u0440\u0435\u0444\u0435\u043a\u0442\u0443\u0440\u0430 \u0427\u0456\u0431\u0430","name:left:ja":"Ibaraki-ken","id:right":-2679957,"name:left:uk":"\u041f\u0440\u0435\u0444\u0435\u043a\u0442\u0443\u0440\u0430 \u0406\u0431\u0430\u0440\u0430\u043a\u0456","min_zoom":8.0,"id:left":-2682940,"name:left:en":"Ibaraki","name:left:ru":"\u0418\u0431\u0430\u0440\u0430\u043a\u0438","name:right:ru":"\u0422\u0438\u0431\u0430","name:right:pl":"Prefektura Chiba","id":-2682940,"osm_relation":true,"name:right":"\u5343\u8449\u770c","kind":"region","name":"\u8328\u57ce\u770c - \u5343\u8449\u770c","source":"openstreetmap.org","sort_rank":256,"kind_detail":"4","name:right:en":"Chiba","name:left:pl":"Prefektura Ibaraki","name:right:de":"Chiba","name:left":"\u8328\u57ce\u770c"},"arcs":[1]},{"type":"LineString","properties":{"name:right:ja":"Chiba-ken","name":"\u8328\u57ce\u770c - \u5343\u8449\u770c","name:right:uk":"\u041f\u0440\u0435\u0444\u0435\u043a\u0442\u0443\u0440\u0430 \u0427\u0456\u0431\u0430","name:left:ja":"Ibaraki-ken","id:right":-2679957,"name:left:uk":"\u041f\u0440\u0435\u0444\u0435\u043a\u0442\u0443\u0440\u0430 \u0406\u0431\u0430\u0440\u0430\u043a\u0456","min_zoom":8.0,"name:left:pl":"Prefektura Ibaraki","name:left:ru":"\u0418\u0431\u0430\u0440\u0430\u043a\u0438","name:right:ru":"\u0422\u0438\u0431\u0430","name:right:pl":"Prefektura Chiba","id":-2682940,"osm_relation":true,"name:right":"\u5343\u8449\u770c","kind":"region","name:left:en":"Ibaraki","sort_rank":256,"kind_detail":"4","name:right:en":"Chiba","source":"openstreetmap.org","maritime_boundary":true,"name:right:de":"Chiba","id:left":-2682940,"name:left":"\u8328\u57ce\u770c"},"arcs":[2]},{"type":"LineString","properties":{"kind":"region","name:en":"Ibaraki","name":"\u8328\u57ce\u770c","sort_rank":256,"kind_detail":"4","min_zoom":8.0,"source":"openstreetmap.org","maritime_boundary":true,"name:uk":"\u041f\u0440\u0435\u0444\u0435\u043a\u0442\u0443\u0440\u0430 \u0406\u0431\u0430\u0440\u0430\u043a\u0456","name:ru":"\u0418\u0431\u0430\u0440\u0430\u043a\u0438","name:pl":"Prefektura Ibaraki","id":-2682940,"osm_relation":true,"name:ja":"Ibaraki-ken"},"arcs":[3]},{"type":"LineString","properties":{"kind":"region","name:en":"Chiba","name":"\u5343\u8449\u770c","sort_rank":256,"kind_detail":"4","min_zoom":8.0,"name:de":"Chiba","source":"openstreetmap.org","maritime_boundary":true,"name:uk":"\u041f\u0440\u0435\u0444\u0435\u043a\u0442\u0443\u0440\u0430 \u0427\u0456\u0431\u0430","name:ru":"\u0422\u0438\u0431\u0430","name:pl":"Prefektura Chiba","id":-2679957,"osm_relation":true,"name:ja":"Chiba-ken"},"arcs":[4]}]},"roads":{"type":"GeometryCollection","geometries":[{"type":"LineString","properties":{"source":"openstreetmap.org","kind":"major_road","landuse_kind":"urban_area","sort_rank":380,"kind_detail":"primary","ref":"30","min_zoom":8.0},"arcs":[71]},{"type":"LineString","properties":{"source":"openstreetmap.org","kind":"major_road","landuse_kind":"urban_area","sort_rank":380,"kind_detail":"primary","ref":"28","min_zoom":8.0},"arcs":[72]},{"type":"MultiLineString","properties":{"source":"openstreetmap.org","kind":"major_road","landuse_kind":"urban_area","sort_rank":380,"kind_detail":"primary","ref":"61","min_zoom":8.0},"arcs":[[73],[74]]},{"type":"MultiLineString","properties":{"kind":"highway","name:en":"Joban Expressway","name:ja":"J\u014dban Jid\u014dsha-d\u014d","short_name":"\u5e38\u78d0\u9053","sort_rank":383,"kind_detail":"motorway","source":"openstreetmap.org","min_zoom":8.0,"ref":"E6","osm_relation":true},"arcs":[[75],[76]]},{"type":"LineString","properties":{"kind":"major_road","name:en":"National Route 126","sort_rank":381,"landuse_kind":"urban_area","source":"openstreetmap.org","min_zoom":8.0,"kind_detail":"trunk","ref":"126"},"arcs":[77]},{"type":"LineString","properties":{"source":"openstreetmap.org","kind":"major_road","sort_rank":380,"kind_detail":"primary","ref":"37","min_zoom":8.0,"id":373336487},"arcs":[78]},{"type":"LineString","properties":{"source":"openstreetmap.org","kind":"major_road","kind_detail":"trunk","sort_rank":381,"landuse_kind":"urban_area","ref":"124","min_zoom":8.0},"arcs":[79]},{"type":"LineString","properties":{"source":"openstreetmap.org","kind":"major_road","sort_rank":380,"kind_detail":"primary","ref":"30","min_zoom":8.0,"id":104753174},"arcs":[80]},{"type":"MultiLineString","properties":{"source":"openstreetmap.org","kind":"major_road","landuse_kind":"urban_area","sort_rank":380,"kind_detail":"primary","ref":"50","min_zoom":8.0},"arcs":[[81],[82]]},{"type":"MultiLineString","properties":{"source":"openstreetmap.org","kind":"major_road","landuse_kind":"urban_area","sort_rank":380,"kind_detail":"primary","ref":"74","min_zoom":8.0},"arcs":[[83],[84],[85]]},{"type":"LineString","properties":{"kind":"major_road","name:en":"National Highway Route 6","network":"JP:national","sort_rank":381,"kind_detail":"trunk","source":"openstreetmap.org","min_zoom":8.0,"landuse_kind":"urban_area","shield_text":"6","id":-1521225,"osm_relation":true},"arcs":[86]},{"type":"LineString","properties":{"kind":"major_road","name:en":"National Route 356","sort_rank":381,"landuse_kind":"urban_area","source":"openstreetmap.org","min_zoom":8.0,"kind_detail":"trunk","ref":"356"},"arcs":[87]},{"type":"MultiLineString","properties":{"source":"openstreetmap.org","kind":"major_road","landuse_kind":"urban_area","sort_rank":380,"kind_detail":"primary","ref":"73","min_zoom":8.0},"arcs":[[88],[89],[90],[91],[92],[93],[94],[95]]},{"type":"LineString","properties":{"source":"openstreetmap.org","kind":"highway","landuse_kind":"urban_area","sort_rank":383,"kind_detail":"motorway","min_zoom":8.0},"arcs":[96]},{"type":"LineString","properties":{"kind":"major_road","name:en":"Kashima Bypass","network":"JP:national","sort_rank":381,"kind_detail":"trunk","source":"openstreetmap.org","min_zoom":8.0,"landuse_kind":"urban_area","shield_text":"51","ref":"51;124","id":419810263},"arcs":[97]},{"type":"MultiLineString","properties":{"kind":"major_road","name:en":"National Route 51","network":"JP:national","sort_rank":381,"landuse_kind":"urban_area","source":"openstreetmap.org","min_zoom":8.0,"kind_detail":"trunk","shield_text":"51","ref":"51;124"},"arcs":[[98],[99]]},{"type":"LineString","properties":{"kind":"major_road","network":"JP:national","sort_rank":381,"landuse_kind":"urban_area","source":"openstreetmap.org","min_zoom":8.0,"kind_detail":"trunk","shield_text":"6","ref":"6"},"arcs":[100]},{"type":"LineString","properties":{"kind":"major_road","network":"JP:national","sort_rank":381,"kind_detail":"trunk","source":"openstreetmap.org","min_zoom":8.0,"landuse_kind":"urban_area","shield_text":"51","ref":"51","id":104067916},"arcs":[101]},{"type":"LineString","properties":{"kind":"major_road","network":"JP:national","sort_rank":381,"kind_detail":"trunk","source":"openstreetmap.org","min_zoom":8.0,"landuse_kind":"urban_area","shield_text":"124","ref":"124","id":37688900},"arcs":[102]},{"type":"MultiLineString","properties":{"source":"openstreetmap.org","kind":"major_road","landuse_kind":"urban_area","sort_rank":380,"kind_detail":"primary","ref":"37","min_zoom":8.0},"arcs":[[103],[104]]},{"type":"MultiLineString","properties":{"kind":"major_road","name:en":"National Route 245","network":"JP:national","sort_rank":381,"landuse_kind":"urban_area","source":"openstreetmap.org","min_zoom":8.0,"kind_detail":"trunk","shield_text":"245","ref":"245"},"arcs":[[105],[106],[107],[108]]},{"type":"MultiLineString","properties":{"kind":"highway","name:en":"Sukegawa Tunnel","network":null,"sort_rank":383,"kind_detail":"motorway","source":"openstreetmap.org","min_zoom":8.0,"all_networks":[null],"shield_text":"6","ref":"E6","all_shield_texts":["6"]},"arcs":[[109],[110]]},{"type":"LineString","properties":{"kind":"major_road","name:en":"National Route 51","network":"JP:national","sort_rank":381,"landuse_kind":"urban_area","source":"openstreetmap.org","min_zoom":8.0,"kind_detail":"trunk","shield_text":"51","ref":"51"},"arcs":[111]},{"type":"LineString","properties":{"kind":"major_road","name:en":"Ayukawabashi Bridge","network":"JP:national","sort_rank":381,"kind_detail":"trunk","source":"openstreetmap.org","min_zoom":8.0,"landuse_kind":"urban_area","shield_text":"6","ref":"6","id":425947062},"arcs":[112]},{"type":"MultiLineString","properties":{"source":"openstreetmap.org","kind":"major_road","landuse_kind":"urban_area","sort_rank":380,"kind_detail":"primary","ref":"44","min_zoom":8.0},"arcs":[[113],[114],[115]]},{"type":"LineString","properties":{"source":"openstreetmap.org","kind":"major_road","landuse_kind":"urban_area","sort_rank":380,"kind_detail":"primary","ref":"35","min_zoom":8.0},"arcs":[116]},{"type":"MultiLineString","properties":{"kind":"major_road","name:en":"National Route 124","network":"JP:national","sort_rank":381,"landuse_kind":"urban_area","source":"openstreetmap.org","min_zoom":8.0,"kind_detail":"trunk","shield_text":"124","ref":"124"},"arcs":[[117],[118],[119]]},{"type":"MultiLineString","properties":{"source":"openstreetmap.org","kind":"major_road","landuse_kind":"urban_area","sort_rank":380,"kind_detail":"primary","ref":"18","min_zoom":8.0},"arcs":[[120],[121]]},{"type":"LineString","properties":{"source":"openstreetmap.org","kind":"major_road","landuse_kind":"urban_area","sort_rank":380,"kind_detail":"primary","ref":"71","min_zoom":8.0},"arcs":[122]},{"type":"MultiLineString","properties":{"kind":"major_road","name:en":"National Route 245","network":"JP:national","sort_rank":381,"kind_detail":"trunk","source":"openstreetmap.org","min_zoom":8.0,"shield_text":"245","ref":"245"},"arcs":[[123],[124],[125]]},{"type":"MultiLineString","properties":{"kind":"major_road","name:en":"National Route 6","network":"JP:national","sort_rank":381,"landuse_kind":"urban_area","source":"openstreetmap.org","min_zoom":8.0,"kind_detail":"trunk","shield_text":"6","ref":"6"},"arcs":[[126],[127]]},{"type":"LineString","properties":{"kind":"major_road","name:en":"Mito-Nakaminato Line","sort_rank":380,"kind_detail":"primary","official_name":"\u4e3b\u8981\u5730\u65b9\u9053\u6c34\u6238\u90a3\u73c2\u6e4a\u7dda","source":"openstreetmap.org","min_zoom":8.0,"ref":"6;176"},"arcs":[128]},{"type":"MultiLineString","properties":{"source":"openstreetmap.org","kind":"major_road","kind_detail":"trunk","sort_rank":381,"landuse_kind":"urban_area","ref":"356","min_zoom":8.0},"arcs":[[129],[130],[131],[132]]},{"type":"LineString","properties":{"kind":"major_road","network":"JP:national","sort_rank":381,"kind_detail":"trunk","source":"openstreetmap.org","min_zoom":8.0,"landuse_kind":"urban_area","shield_text":"245","ref":"245","id":374156271},"arcs":[133]},{"type":"MultiLineString","properties":{"source":"openstreetmap.org","kind":"major_road","kind_detail":"trunk","sort_rank":381,"landuse_kind":"urban_area","ref":"126","min_zoom":8.0},"arcs":[[134],[135]]}]},"earth":{"type":"GeometryCollection","geometries":[{"type":"MultiPolygon","properties":{"sort_rank":10,"source":"naturalearthdata.com","kind":"earth","min_zoom":0.0,"id":3323},"arcs":[[[136]],[[137]]]}]},"landuse":{"type":"GeometryCollection","geometries":[{"type":"MultiPolygon","properties":{"source":"naturalearthdata.com","kind":"urban_area","name":"","area":28697208832,"sort_rank":11,"min_zoom":4.0,"id":3470},"arcs":[[[138]],[[139]]]}]}},"type":"Topology","transform":{"translate":[140.625,35.4606699515],"scale":[0.0003433228,0.0002776414]},"arcs":[[[218,0],[96,90],[211,36],[288,-15],[164,45],[127,67],[111,91],[111,142],[118,338],[0,268],[-96,267],[-97,152],[-170,151],[-70,112],[-105,341],[-73,123],[-135,141],[-142,388],[131,318],[53,224],[24,449],[189,368]],[[0,1472],[17,-37],[154,-36],[65,-45],[94,-176],[232,-171],[96,7],[43,153]],[[701,1167],[173,249],[207,216]],[[1081,1632],[-109,199],[-27,149],[-61,148],[-186,221],[-142,388],[131,318],[53,224],[24,449],[189,368]],[[218,0],[96,90],[211,36],[288,-15],[229,75],[222,181],[120,213],[70,296],[-22,237],[-136,307],[-215,212]],[[0,937],[97,6],[234,90],[102,3],[72,-37]],[[577,969],[15,-2]],[[0,3901],[118,195]],[[592,968],[3,-1],[9,-2]],[[604,965],[5,1]],[[609,966],[34,8],[30,-6]],[[673,968],[2,-3]],[[675,965],[2,-3]],[[677,962],[20,-28],[-22,-76]],[[604,965],[2,0],[3,1]],[[673,968],[2,-3]],[[675,965],[2,-3]],[[676,965],[-1,0]],[[675,965]],[[675,965],[0,-1]],[[683,954],[0,1]],[[686,911]],[[586,968],[8,-1],[-8,1]],[[607,966]],[[607,966],[1,0]],[[608,966],[-1,0]],[[626,966],[1,1]],[[676,859],[0,1]],[[676,860]],[[676,860],[0,-1]],[[676,859]],[[676,859]],[[676,859]],[[676,859]],[[676,860],[1,0],[-1,-1]],[[676,965],[0,-1]],[[676,964],[-1,0]],[[676,964],[0,1]],[[676,965]],[[676,964]],[[684,954]],[[684,954]],[[684,954]],[[684,954]],[[684,954]],[[684,954],[-1,0]],[[683,954],[1,-1],[0,1]],[[686,912],[0,-1]],[[688,884],[0,1]],[[694,941],[1,-1]],[[695,940],[0,1]],[[695,941],[-1,0]],[[695,941],[0,-1]],[[695,941]],[[0,1837],[42,46],[-42,122]],[[0,937],[81,3]],[[81,940],[12,2]],[[93,942],[70,24]],[[163,966],[12,4]],[[175,970],[145,62]],[[320,1032],[13,2]],[[333,1034],[100,2],[57,-29]],[[490,1007],[15,-8]],[[505,999],[87,-32]],[[32,1916],[6,-51],[-27,-27]],[[11,1838],[-11,-1]],[[0,1836],[11,2]],[[0,1388],[182,-46],[169,-231],[115,-91],[126,-53]],[[0,748],[105,73],[161,37],[13,-59],[146,52],[94,45],[73,16],[35,-34],[19,-33],[40,-27],[24,32],[31,86],[-15,31],[-27,16],[-16,6],[-20,8],[-32,18],[-32,67],[-120,171],[-418,738],[-61,171],[0,1615],[41,110],[118,209],[3937,0],[0,-4096],[-4096,0],[0,748]],[[159,4096],[-118,-209],[-41,-110]],[[0,2162],[61,-171],[418,-738],[120,-171],[32,-67],[32,-18],[20,-8],[16,-6],[27,-16],[15,-31],[-31,-86],[-24,-32],[-40,27],[-19,33],[-35,34],[-73,-16],[-94,-45],[-146,-52],[-13,59],[-161,-37],[-105,-73]],[[10,784],[96,58],[156,27],[54,-25],[9,17]],[[0,1112],[70,-184]],[[44,3904],[-44,34]],[[0,3948],[8,-2]],[[28,4096],[-28,-40]],[[0,4057],[27,39]],[[325,861],[60,49],[74,-9],[107,50],[12,28]],[[24,4010],[-24,-3]],[[33,1589],[54,68]],[[0,779],[10,5]],[[32,1586],[-32,18]],[[0,1604],[32,-17]],[[59,1152],[-59,-18]],[[276,1197],[-137,3],[-137,-91]],[[133,1188],[-6,-4]],[[0,3938],[34,31],[-3,51],[47,76]],[[578,979],[-97,47]],[[364,1117],[-55,-47],[-55,21],[-77,-25],[32,-80]],[[364,1117],[1,1]],[[365,1118],[4,5]],[[366,1121],[-1,-3]],[[365,1118],[-1,-1]],[[365,1118]],[[365,1118]],[[365,1118],[2,2]],[[369,1123],[29,46]],[[42,1882],[14,77]],[[56,1959],[-56,145]],[[35,1872],[7,10]],[[106,4054],[27,42]],[[0,1841],[7,6]],[[578,984],[4,40]],[[29,4010],[-5,0]],[[590,971],[-12,8]],[[7,3794],[68,204]],[[87,4070],[-16,10]],[[76,3999],[30,55]],[[87,4070],[19,-16]],[[28,4096],[-28,-40]],[[0,4057],[27,39]],[[7,1847],[7,6],[21,19],[-20,-19],[-8,-6]],[[29,4008],[0,1]],[[0,1489],[16,20]],[[31,1597],[-15,-88]],[[16,1509],[15,88]],[[88,938],[-18,-10],[36,-86]],[[441,1143],[-178,217],[-91,150],[-131,72],[-5,3],[-3,4],[2,283],[-2,-283],[140,-79],[268,-367]],[[582,1024],[-141,119]],[[578,979],[0,5]],[[0,1814],[39,-44]],[[0,1833],[0,17]],[[396,1099],[-23,7],[-42,-74],[-54,-31],[-52,4],[-139,-75]],[[5,3752],[-5,-6]],[[0,3746],[5,6]],[[5,3752],[2,42]],[[0,3938],[34,31],[-5,39]],[[29,4009],[49,87]],[[0,3323],[0,-28]],[[0,1385],[194,-47],[167,-208]],[[106,1398],[-106,31]],[[361,1130],[120,-104]],[[361,1130],[84,-60]],[[75,3998],[1,1]],[[0,948],[132,9],[25,-25]],[[157,932],[33,12],[135,-83],[-135,83],[-33,-12]],[[159,4096],[-118,-209],[-41,-110],[0,319],[159,0]],[[0,2162],[61,-171],[418,-738],[120,-171],[32,-67],[32,-18],[20,-8],[16,-6],[27,-16],[15,-31],[-31,-86],[-24,-32],[-40,27],[-19,33],[-35,34],[-73,-16],[-94,-45],[-146,-52],[-13,59],[-161,-37],[-105,-73],[0,1414]],[[159,4096],[-118,-209],[-41,-110],[0,212],[24,15],[8,92],[127,0]],[[0,2162],[61,-171],[418,-738],[152,-238],[95,-48],[15,-31],[-55,-118],[-94,94],[-313,-113],[-13,59],[-161,-37],[-66,-46],[-39,12],[0,1375]]]}