{"objects":{"water":{"type":"GeometryCollection","geometries":[{"type":"MultiPolygon","properties":{"source":"naturalearthdata.com","kind":"ocean","area":1576712559132672,"sort_rank":200,"min_zoom":0.0,"id":1},"arcs":[[[5]]]},{"type":"LineString","properties":{"source":"naturalearthdata.com","kind":"ocean","sort_rank":205,"boundary":true,"min_zoom":0.0,"id":28},"arcs":[6]},{"type":"LineString","properties":{"source":"naturalearthdata.com","kind":"ocean","sort_rank":205,"boundary":true,"min_zoom":0.0,"id":61},"arcs":[7]}]},"buildings":{"type":"GeometryCollection","geometries":[]},"places":{"type":"GeometryCollection","geometries":[]},"transit":{"type":"GeometryCollection","geometries":[]},"pois":{"type":"GeometryCollection","geometries":[]},"boundaries":{"type":"GeometryCollection","geometries":[{"type":"LineString","properties":{"name:right:nl":"Kraj Chabarovsk","name:right:ja":"\u30cf\u30d0\u30ed\u30d5\u30b9\u30af\u5730\u65b9","name:right:fr":"Kra\u00ef de Khabarovsk","name:right:uk":"\u0425\u0430\u0431\u0430\u0440\u043e\u0432\u0441\u044c\u043a\u0438\u0439 \u043a\u0440\u0430\u0439","name:left:ja":"\u30b5\u30cf\u30ea\u30f3\u5dde","id:right":-151223,"name:right:lt":"Chabarovsko kra\u0161tas","min_zoom":8.0,"name:left:lt":"Sachalino sritis","id":-394235,"name:right":"\u0425\u0430\u0431\u0430\u0440\u043e\u0432\u0441\u043a\u0438\u0439 \u043a\u0440\u0430\u0439","name:left:en":"Sakhalin Oblast","name:right:ca":"Territori de Khab\u00e0rovsk","kind_detail":"4","name:left:ca":"Prov\u00edncia de Sakhal\u00edn","int_name:right":"Khabarovsk Krai","source":"openstreetmap.org","id:left":-394235,"name:left":"\u0421\u0430\u0445\u0430\u043b\u0438\u043d\u0441\u043a\u0430\u044f \u043e\u0431\u043b\u0430\u0441\u0442\u044c","name:right:es":"Krai de Jab\u00e1rovsk","name:right:pt":"Krai de Khabarovsk","name:left:pl":"Obw\u00f3d sachali\u0144ski","name:right:it":"Territorio di Chabarovsk","name:right:vi":"Khabarovsk (v\u00f9ng)","name:right:sv":"Chabarovsk kraj","name:right:pl":"Kraj Chabarowski","name:right:en":"Khabarovsk Krai","osm_relation":true,"kind":"region","name":"\u0421\u0430\u0445\u0430\u043b\u0438\u043d\u0441\u043a\u0430\u044f \u043e\u0431\u043b\u0430\u0441\u0442\u044c - \u0425\u0430\u0431\u0430\u0440\u043e\u0432\u0441\u043a\u0438\u0439 \u043a\u0440\u0430\u0439","name:right:de":"Region Chabarowsk","name:left:de":"Oblast Sachalin","sort_rank":256,"name:right:zh":"\u54c8\u5df4\u7f57\u592b\u65af\u514b\u8fb9\u7586\u533a"},"arcs":[0]},{"type":"MultiLineString","properties":{"kind":"region","name:en":"Sakhalin Oblast","name":"\u0421\u0430\u0445\u0430\u043b\u0438\u043d\u0441\u043a\u0430\u044f \u043e\u0431\u043b\u0430\u0441\u0442\u044c","name:lt":"Sachalino sritis","sort_rank":256,"kind_detail":"4","min_zoom":8.0,"name:de":"Oblast Sachalin","source":"openstreetmap.org","maritime_boundary":true,"osm_relation":true,"name:pl":"Obw\u00f3d sachali\u0144ski","id":-394235,"name:ca":"Prov\u00edncia de Sakhal\u00edn","name:ja":"\u30b5\u30cf\u30ea\u30f3\u5dde"},"arcs":[[1],[2]]},{"type":"LineString","properties":{"name:pt":"Krai de Khabarovsk","int_name":"Khabarovsk Krai","name:nl":"Kraj Chabarovsk","name:ja":"\u30cf\u30d0\u30ed\u30d5\u30b9\u30af\u5730\u65b9","name:lt":"Chabarovsko kra\u0161tas","min_zoom":8.0,"name:it":"Territorio di Chabarovsk","name:uk":"\u0425\u0430\u0431\u0430\u0440\u043e\u0432\u0441\u044c\u043a\u0438\u0439 \u043a\u0440\u0430\u0439","name:sv":"Chabarovsk kraj","name:vi":"Khabarovsk (v\u00f9ng)","name:pl":"Kraj Chabarowski","id":-151223,"name:ca":"Territori de Khab\u00e0rovsk","kind":"region","name:en":"Khabarovsk Krai","name":"\u0425\u0430\u0431\u0430\u0440\u043e\u0432\u0441\u043a\u0438\u0439 \u043a\u0440\u0430\u0439","sort_rank":256,"kind_detail":"4","name:de":"Region Chabarowsk","source":"openstreetmap.org","name:fr":"Kra\u00ef de Khabarovsk","osm_relation":true,"name:zh":"\u54c8\u5df4\u7f57\u592b\u65af\u514b\u8fb9\u7586\u533a","name:es":"Krai de Jab\u00e1rovsk"},"arcs":[3]},{"type":"LineString","properties":{"name:pt":"Krai de Khabarovsk","int_name":"Khabarovsk Krai","name:nl":"Kraj Chabarovsk","name:ja":"\u30cf\u30d0\u30ed\u30d5\u30b9\u30af\u5730\u65b9","name:lt":"Chabarovsko kra\u0161tas","min_zoom":8.0,"name:it":"Territorio di Chabarovsk","name:uk":"\u0425\u0430\u0431\u0430\u0440\u043e\u0432\u0441\u044c\u043a\u0438\u0439 \u043a\u0440\u0430\u0439","name:vi":"Khabarovsk (v\u00f9ng)","name:sv":"Chabarovsk kraj","name:pl":"Kraj Chabarowski","id":-151223,"name:ca":"Territori de Khab\u00e0rovsk","kind":"region","name:en":"Khabarovsk Krai","name":"\u0425\u0430\u0431\u0430\u0440\u043e\u0432\u0441\u043a\u0438\u0439 \u043a\u0440\u0430\u0439","sort_rank":256,"kind_detail":"4","name:fr":"Kra\u00ef de Khabarovsk","name:de":"Region Chabarowsk","source":"openstreetmap.org","maritime_boundary":true,"osm_relation":true,"name:zh":"\u54c8\u5df4\u7f57\u592b\u65af\u514b\u8fb9\u7586\u533a","name:es":"Krai de Jab\u00e1rovsk"},"arcs":[4]}]},"roads":{"type":"GeometryCollection","geometries":[]},"earth":{"type":"GeometryCollection","geometries":[{"type":"MultiPolygon","properties":{"sort_rank":10,"source":"naturalearthdata.com","min_zoom":0.0,"kind":"earth","area":46105249793},"arcs":[[[8]],[[9]]]}]},"landuse":{"type":"GeometryCollection","geometries":[]}},"type":"Topology","transform":{"translate":[140.625,53.330872983],"scale":[0.0003433228,0.0002030178]},"arcs":[[[2456,1282],[360,-1245],[25,-37]],[[4044,4096],[52,-80]],[[4096,1858],[-689,-355],[-499,-180],[-452,-41]],[[2456,1282],[-13,0]],[[2443,1282],[-217,14],[-396,231],[-720,310],[-274,156],[-434,564],[-402,994]],[[4096,4096],[0,-3411],[-67,-44],[-149,-23],[-42,-29],[-167,-186],[-260,-126],[-79,-76],[93,-119],[26,-49],[0,-33],[-1769,0],[-36,50],[-62,50],[-89,54],[-60,64],[19,87],[-101,52],[-158,31],[-28,41],[-21,54],[-31,54],[-36,42],[-32,17],[-35,-17],[-47,-57],[-38,-21],[-36,19],[-10,40],[35,45],[-17,112],[47,62],[71,25],[59,5],[154,-82],[147,-18],[-42,36],[-166,49],[-912,441],[-181,188],[-76,36],[0,2637],[4096,0]],[[4096,685],[-67,-44],[-149,-23],[-42,-29],[-167,-186],[-260,-126],[-79,-76],[93,-119],[26,-49],[0,-33]],[[1682,0],[-36,50],[-62,50],[-89,54],[-60,64],[19,87],[-101,52],[-158,31],[-28,41],[-21,54],[-31,54],[-36,42],[-32,17],[-35,-17],[-47,-57],[-38,-21],[-36,19],[-10,40],[35,45],[-17,112],[47,62],[71,25],[59,5],[154,-82],[147,-18],[-42,36],[-166,49],[-912,441],[-181,188],[-76,36]],[[0,0],[0,1459],[76,-36],[181,-188],[912,-441],[166,-49],[42,-36],[-147,18],[-154,82],[-59,-5],[-71,-25],[-47,-62],[17,-112],[-35,-45],[10,-40],[36,-19],[38,21],[47,57],[35,17],[32,-17],[36,-42],[31,-54],[21,-54],[28,-41],[158,-31],[101,-52],[-19,-87],[60,-64],[89,-54],[62,-50],[36,-50],[-1682,0]],[[4096,685],[0,-685],[-645,0],[0,33],[-26,49],[-93,119],[79,76],[260,126],[167,186],[42,29],[149,23],[67,44]]]}