{"objects":{"water":{"type":"GeometryCollection","geometries":[{"type":"Polygon","properties":{"source":"naturalearthdata.com","kind":"ocean","area":1576712559132672,"sort_rank":200,"min_zoom":0.0,"id":1},"arcs":[[49]]},{"type":"MultiLineString","properties":{"source":"naturalearthdata.com","kind":"ocean","sort_rank":205,"boundary":true,"min_zoom":0.0,"id":27},"arcs":[[50],[51]]}]},"buildings":{"type":"GeometryCollection","geometries":[]},"places":{"type":"GeometryCollection","geometries":[{"type":"Point","properties":{"name:sl":"Saporo","name:ja":"Sapporo-shi","name:lt":"Saporas","name:kn":"\u0cb8\u0caa\u0ccd\u0caa\u0ccb\u0cb0\u0ccb","name:ar":"\u0633\u0627\u0628\u0648\u0631\u0648","min_zoom":8.0,"name:uk":"\u0421\u0430\u043f\u043f\u043e\u0440\u043e","name:sv":"Sapporo","name:ru":"\u0421\u0430\u043f\u043f\u043e\u0440\u043e","name:pl":"Sapporo","name:hr":"Sapporo","id":57683926,"name:ca":"Sapporo","population":1890561,"kind":"locality","name:en":"Sapporo","name":"\u672d\u5e4c\u5e02","kind_detail":"city","name:he":"\u05e1\u05d0\u05e4\u05d5\u05e8\u05d5","name:de":"Sapporo","source":"openstreetmap.org","name:fr":"Sapporo","name:et":"Sapporo"},"coordinates":[2074,4001]}]},"transit":{"type":"GeometryCollection","geometries":[{"type":"LineString","properties":{"kind":"subway","name:en":"T\u014dh\u014d Line","name":"\u6771\u8c4a\u7dda","sort_rank":275,"colour":"#0000FF","name:de":"T\u014dh\u014d-Linie","source":"openstreetmap.org","min_zoom":8.0,"ref":"H","id":-1827999,"osm_relation":true,"colour_name":"blue"},"arcs":[2]},{"type":"MultiLineString","properties":{"kind":"train","name:en":"\u014czora","name:ja":"\u014czora","sort_rank":275,"source":"openstreetmap.org","min_zoom":6.0,"operator":"\u5317\u6d77\u9053\u65c5\u5ba2\u9244\u9053","osm_relation":true,"name":"\u304a\u304a\u305e\u3089"},"arcs":[[3],[4],[5],[6],[7],[8],[9],[10],[11],[12],[13]]},{"type":"LineString","properties":{"kind":"subway","name:en":"T\u014dzai Line","name":"\u6771\u897f\u7dda","sort_rank":275,"colour":"#FF8C00","name:de":"Ost-West-Linie","source":"openstreetmap.org","min_zoom":8.0,"alt_name:en":"East-West Line","ref":"T","id":-1827997,"osm_relation":true,"colour_name":"orange"},"arcs":[14]},{"type":"MultiLineString","properties":{"kind":"train","name:en":"Hokuto","name:ja":"Hokuto","sort_rank":275,"source":"openstreetmap.org","min_zoom":6.0,"ref":"\u5317\u6597","osm_relation":true,"name":"\u5317\u6597"},"arcs":[[15],[16],[17],[18],[19],[20],[21],[22],[23],[24],[25],[26],[27],[28],[29]]},{"type":"MultiLineString","properties":{"kind":"train","name:en":"Okhotsk","name":"\u30aa\u30db\u30fc\u30c4\u30af","sort_rank":275,"source":"openstreetmap.org","min_zoom":6.0,"operator":"\u5317\u6d77\u9053\u65c5\u5ba2\u9244\u9053","ref":"\u30aa\u30db\u30fc\u30c4\u30af","osm_relation":true},"arcs":[[30],[31],[32],[33],[34],[35],[36],[37],[38]]},{"type":"LineString","properties":{"kind":"subway","name:en":"Namboku Line","name":"\u5357\u5317\u7dda","sort_rank":275,"colour":"#008800","name:de":"S\u00fcd-Nord-Linie","source":"openstreetmap.org","min_zoom":8.0,"operator":"\u672d\u5e4c\u5e02\u4ea4\u901a\u5c40 (Sapporo City Transportation Bureau)","ref":"N","id":-1827998,"osm_relation":true,"colour_name":"green"},"arcs":[39]},{"type":"MultiLineString","properties":{"kind":"train","name:en":"Super S\u014dya","name:ja":"Supa S\u014dya","sort_rank":275,"source":"openstreetmap.org","min_zoom":6.0,"operator":"\u5317\u6d77\u9053\u65c5\u5ba2\u9244\u9053","osm_relation":true,"name":"\u30b9\u30fc\u30d1\u30fc\u5b97\u8c37"},"arcs":[[40],[41],[42],[43],[44],[45],[46],[47],[48]]}]},"pois":{"type":"GeometryCollection","geometries":[{"type":"Point","properties":{"source":"openstreetmap.org","kind":"military","name":"\u822a\u7a7a\u81ea\u885b\u968a\u5343\u6b73\u57fa\u5730","area":18379800,"tier":3,"min_zoom":8.0,"id":325639342},"coordinates":[3011,3008]}]},"boundaries":{"type":"GeometryCollection","geometries":[{"type":"LineString","properties":{"name:ty":"T\u0101p\u014dn\u0113","name:ka":"\u10d8\u10d0\u10de\u10dd\u10dc\u10d8\u10d0","name:ko":"\uc77c\ubcf8","name:cv":"\u042f\u043f\u043e\u043d\u0438","name:cu":"\ua656\u043f\u0461\u043d\u0457\ua657","name:kl":"Japani","name:cs":"Japonsko","name:tw":"Yapan","name:ki":"Japan","name:kw":"Nihon","name:kv":"\u042f\u043f\u043e\u043d\u0438\u044f","name:th":"\u0e1b\u0e23\u0e30\u0e40\u0e17\u0e28\u0e0d\u0e35\u0e48\u0e1b\u0e38\u0e48\u0e19","name:ti":"\u1303\u1353\u1295","name:tl":"Hapon","name:ch":"Chapan","name:ce":"\u042f\u043f\u043e\u043d\u0438","name:ta":"\u0b9c\u0baa\u0bcd\u0baa\u0bbe\u0ba9\u0bcd","name:tg":"\u0416\u043e\u043f\u0443\u043d","name:ca":"Jap\u00f3","name:te":"\u0c1c\u0c2a\u0c3e\u0c28\u0c4d","name:cy":"Japan","name:qu":"Nihun","name:da":"Japan","name:de":"Japan","name:dz":"\u0f47\u0f71\u0f0b\u0f54\u0f71\u0f53\u0f0d","source":"openstreetmap.org","name:kn":"\u0c9c\u0caa\u0cbe\u0ca8\u0ccd","name:dv":"\u0796\u07a6\u0795\u07a7\u0782\u07aa","name:km":"\u1787\u1794\u17c9\u17bb\u1793","name:lv":"Jap\u0101na","name:lt":"Japonija","name:uz":"Yaponiya","name:kk":"\u0416\u0430\u043f\u043e\u043d\u0438\u044f","name:ur":"\u062c\u0627\u067e\u0627\u0646","name:lb":"Japan","name:la":"Iaponia","name:tt":"\u042f\u043f\u043e\u043d\u0438\u044f","name:uk":"\u042f\u043f\u043e\u043d\u0456\u044f","name:ug":"\u064a\u0627\u067e\u0648\u0646\u0649\u064a\u06d5","name:li":"Japan","name:ln":"Zap\u0254\u0301","name:lo":"\u0e9b\u0eb0\u0ec0\u0e97\u0e94\u0e8d\u0eb5\u0ec8\u0e9b\u0eb8\u0ec8\u0e99","name:el":"\u0399\u03b1\u03c0\u03c9\u03bd\u03af\u03b1","name:eo":"Japanujo","name:en":"Japan","name":"\u65e5\u672c","name:tk":"\u00ddaponi\u00fda","name:ee":"Japan","name:ku":"Japon","name:eu":"Japonia","name:et":"Jaapan","name:es":"Jap\u00f3n","name:ay":"Nihun","name:rm":"Giapun","name:az":"Yaponiya","name:ie":"Japan","name:id":"Jepang","name:ar":"\u0627\u0644\u064a\u0627\u0628\u0627\u0646","name:io":"Japonia","name:is":"Japan","name:am":"\u1303\u1353\u1295","name:it":"Giappone","name:an":"Chap\u00f3n","name:ru":"\u042f\u043f\u043e\u043d\u0438\u044f","name:ab":"\u0418\u0430\u043f\u043e\u043d\u0438\u0430","name:af":"Japan","name:zu":"IJapani","kind_detail":"2","name:za":"Nditbonj","name:so":"Jabaan","name:sm":"Iapani","name:sl":"Japonska","name:sk":"Japonsko","name:ja":"Nippon","name:si":"\u0da2\u0db4\u0dcf\u0db1\u0dba","name:sh":"Japan","name:se":"J\u00e1hpan","name:sd":"\u062c\u0627\u067e\u0627\u0646","name:sc":"Giappone","name:br":"Japan","name:bs":"Japan","name:bn":"\u099c\u09be\u09aa\u09be\u09a8","name:bo":"\u0f62\u0f72\u0f0b\u0f54\u0f72\u0f53\u0f0d","name:sa":"\u0938\u0942\u0930\u094d\u092f\u092e\u0942\u0932","name:sw":"Japani","name:be":"\u042f\u043f\u043e\u043d\u0456\u044f","name:su":"Jepang","name:bg":"\u042f\u043f\u043e\u043d\u0438\u044f","name:ss":"IJaphani","name:ba":"\u042f\u043f\u043e\u043d\u0438\u044f","name:sq":"Japonia","name:jv":"Jepang","name:ia":"Japon","name:pt":"Jap\u00e3o","name:ps":"\u062c\u0627\u067e\u0627\u0646","name:om":"Jaappaan","name:oc":"Japon","min_zoom":8.0,"name:ro":"Japonia","name:zh-min-nan":"Ji\u030dt-p\u00fan","name:os":"\u042f\u043f\u043e\u043d","name:or":"\u0b1c\u0b3e\u0b2a\u0b3e\u0b28","name:pl":"Japonia","sort_rank":262,"name:sr":"\u0408\u0430\u043f\u0430\u043d","osm_relation":true,"name:pa":"\u0a1c\u0a2a\u0a3e\u0a28","name:tr":"Japonya","name:hi":"\u091c\u093e\u092a\u093e\u0928","name:sv":"Japan","name:he":"\u05d9\u05e4\u05df","name:ha":"Japan","name:hy":"\u0543\u0561\u057a\u0578\u0576\u056b\u0561","name:ht":"Japon","name:hu":"Jap\u00e1n","name:hr":"Japan","kind":"country","name:yi":"\u05d9\u05d0\u05e4\u05d0\u05df","name:iu":"\u14c3\u1449\u140a\u14d0","name:yo":"Japan","name:mt":"\u0120appun","alt_name:eo":"Japanio","name:ms":"Jepun","name:mr":"\u091c\u092a\u093e\u0928","name:my":"\u1002\u103b\u1015\u1014\u103a\u1014\u102d\u102f\u1004\u103a\u1004\u1036","name:mg":"Japana","name:vi":"Nh\u1eadt B\u1ea3n","name:ml":"\u0d1c\u0d2a\u0d4d\u0d2a\u0d3e\u0d7b","name:mn":"\u042f\u043f\u043e\u043d","name:mi":"Nipono","id":-382313,"name:mk":"\u0408\u0430\u043f\u043e\u043d\u0438\u0458\u0430","name:vo":"Yap\u00e4n","name:fa":"\u0698\u0627\u067e\u0646","name:rw":"Ubuyapani","name:fi":"Japani","name:ky":"\u0416\u0430\u043f\u043e\u043d\u0438\u044f","old_name:vi":"Nh\u1eadt B\u1ed5n","name:fo":"Japan","alt_name:vi":"Nh\u1eadt","name:fr":"Japon","name:fy":"Japan","name:nl":"Japan","name:nn":"Japan","name:no":"Japan","name:na":"Djapan","name:ne":"\u091c\u093e\u092a\u093e\u0928","name:wo":"Sapo\u014b","name:nv":"Bina\u02bcadaa\u0142tz\u00f3z\u00ed Din\u00e9\u02bci\u02bc Bik\u00e9yah","name:ga":"An tSeap\u00e1in","name:gd":"An t-Seapan","name:gn":"Hap\u00f5","name:gl":"Xap\u00f3n","maritime_boundary":true,"name:gv":"Yn \u00c7hapaan","name:gu":"\u0a9c\u0abe\u0aaa\u0abe\u0aa8"},"arcs":[0]},{"type":"LineString","properties":{"name:ia":"Hokkaido","alt_name:eo":"Hokkajdo","name:ja":"Hokkaid\u014d","name:ko":"\ud64b\uce74\uc774\ub3c4","kind":"region","name:io":"Hokkaido","min_zoom":8.0,"name:uk":"\u041f\u0440\u0435\u0444\u0435\u043a\u0442\u0443\u0440\u0430 \u0425\u043e\u043a\u043a\u0430\u0439\u0434\u043e","name:ru":"\u0425\u043e\u043a\u043a\u0430\u0439\u0434\u043e","name:pl":"Prefektura Hokkaido","id":-3795658,"osm_relation":true,"name:eo":"Hokajdo","name:en":"Hokkaido","name":"\u5317\u6d77\u9053","sort_rank":256,"kind_detail":"4","name:de":"Hokkaid\u014d","source":"openstreetmap.org","maritime_boundary":true},"arcs":[1]}]},"roads":{"type":"GeometryCollection","geometries":[{"type":"MultiLineString","properties":{"kind":"major_road","name:en":"Do-o-ken Renraku Road","name:ja":"D\u014d\u014dken renraku d\u014dro","sort_rank":381,"kind_detail":"trunk","source":"openstreetmap.org","min_zoom":8.0,"shield_text":"337","ref":"337","network":"JP:national"},"arcs":[[52],[53],[54],[55]]},{"type":"LineString","properties":{"source":"openstreetmap.org","kind":"major_road","sort_rank":380,"kind_detail":"primary","ref":"132","min_zoom":8.0},"arcs":[56]},{"type":"MultiLineString","properties":{"kind":"highway","name:en":"Hokkaido Expressway","name:ja":"D\u014d\u014d jid\u014dshad\u014d","sort_rank":383,"kind_detail":"motorway","source":"openstreetmap.org","min_zoom":8.0,"all_networks":[null],"shield_text":"5","ref":"E5","all_shield_texts":["5"],"network":null},"arcs":[[57],[58],[59],[60],[61],[62],[63]]},{"type":"LineString","properties":{"kind":"major_road","name:en":"Sapporo Ebetsu-dori","network":"JP:national","sort_rank":381,"landuse_kind":"urban_area","source":"openstreetmap.org","min_zoom":8.0,"kind_detail":"trunk","shield_text":"12","ref":"12","name:ja":"Sapporo Ebetsu d\u014dri"},"arcs":[64]},{"type":"LineString","properties":{"kind":"major_road","sort_rank":380,"landuse_kind":"aerodrome","source":"openstreetmap.org","min_zoom":8.0,"kind_detail":"primary","ref":"130","id":150534676},"arcs":[65]},{"type":"LineString","properties":{"kind":"major_road","name:en":"Sakura bridge","network":"JP:prefectural","sort_rank":380,"kind_detail":"primary","source":"openstreetmap.org","min_zoom":8.0,"shield_text":"82","ref":"82","id":404527120},"arcs":[66]},{"type":"MultiLineString","properties":{"source":"openstreetmap.org","kind":"major_road","landuse_kind":"urban_area","sort_rank":380,"kind_detail":"primary","ref":"144","min_zoom":8.0},"arcs":[[67],[68]]},{"type":"LineString","properties":{"kind":"highway","name:en":"Doto Expressway","sort_rank":383,"kind_detail":"motorway","source":"openstreetmap.org","min_zoom":8.0,"ref":"\u9053\u6771\u81ea\u52d5\u8eca\u9053","id":165042045},"arcs":[69]},{"type":"MultiLineString","properties":{"kind":"major_road","network":"JP:prefectural","sort_rank":380,"kind_detail":"primary","source":"openstreetmap.org","min_zoom":8.0,"shield_text":"82","ref":"82"},"arcs":[[70],[71],[72],[73]]},{"type":"LineString","properties":{"kind":"major_road","name:en":"Prefectural Highway-Shizukawa-Misawa","name:ja":"Shizukawa Misawa sen","sort_rank":380,"kind_detail":"primary","source":"openstreetmap.org","min_zoom":8.0,"ref":"129","id":57275046},"arcs":[74]},{"type":"MultiLineString","properties":{"kind":"major_road","network":"JP:national","sort_rank":381,"landuse_kind":"urban_area","source":"openstreetmap.org","min_zoom":8.0,"kind_detail":"trunk","shield_text":"274","ref":"274"},"arcs":[[75],[76]]},{"type":"LineString","properties":{"bus_network":null,"name:en":"Kita 1-jo Kariki-dori","network":"JP:national","sort_rank":381,"kind_detail":"trunk","kind":"major_road","source":"openstreetmap.org","min_zoom":8.0,"bus_shield_text":"\u67713","shield_text":"12","landuse_kind":"urban_area","ref":"12","id":221337986,"name:ja":"Kita1j\u014d kariki d\u014dri"},"arcs":[77]},{"type":"MultiLineString","properties":{"kind":"major_road","name:en":"National Route 276","name:ja":"Kokud\u014d 276 g\u014d","sort_rank":381,"landuse_kind":"urban_area","source":"openstreetmap.org","min_zoom":8.0,"kind_detail":"trunk","ref":"276"},"arcs":[[78],[79]]},{"type":"LineString","properties":{"kind":"major_road","name:en":"National Route 5","name:ja":"Kokud\u014d 5 g\u014d","sort_rank":381,"kind_detail":"trunk","source":"openstreetmap.org","min_zoom":8.0,"ref":"5","id":457876823},"arcs":[80]},{"type":"MultiLineString","properties":{"kind":"major_road","name:en":"Toyohiragawa dori","name:ja":"Toyohiragawa d\u014dri","sort_rank":380,"landuse_kind":"urban_area","source":"openstreetmap.org","min_zoom":8.0,"kind_detail":"primary","ref":"9900"},"arcs":[[81],[82]]},{"type":"LineString","properties":{"kind":"major_road","network":"JP:national","sort_rank":381,"kind_detail":"trunk","source":"openstreetmap.org","min_zoom":8.0,"landuse_kind":"urban_area","shield_text":"276","id":443125675},"arcs":[83]},{"type":"LineString","properties":{"kind":"major_road","network":"JP:national","sort_rank":381,"kind_detail":"trunk","bus_network":null,"source":"openstreetmap.org","min_zoom":8.0,"bus_shield_text":"18","shield_text":"37","landuse_kind":"urban_area","ref":"37","id":363475934},"arcs":[84]},{"type":"LineString","properties":{"kind":"major_road","name:en":"Kikusui asahiyamakoen dori","network":"JP:national","sort_rank":381,"kind_detail":"trunk","source":"openstreetmap.org","min_zoom":8.0,"landuse_kind":"urban_area","shield_text":"453","ref":"453","id":31659912,"name:ja":"Kikusui asahiyamakoen dori"},"arcs":[85]},{"type":"MultiLineString","properties":{"kind":"major_road","name:en":"National Route 276","name:ja":"\u56fd\u9053276\u53f7","sort_rank":381,"kind_detail":"trunk","source":"openstreetmap.org","min_zoom":8.0,"shield_text":"276","ref":"276","network":"JP:national"},"arcs":[[86],[87],[88],[89],[90]]},{"type":"LineString","properties":{"kind":"major_road","name:en":"Atsubetsu dori","name:ja":"\u539a\u5225\u901a","sort_rank":380,"landuse_kind":"urban_area","source":"openstreetmap.org","min_zoom":8.0,"kind_detail":"primary","ref":"9904"},"arcs":[91]},{"type":"LineString","properties":{"kind":"major_road","name:en":"Tosen Bridge","network":"JP:national","sort_rank":381,"kind_detail":"trunk","source":"openstreetmap.org","min_zoom":8.0,"shield_text":"36","ref":"36","id":445404856,"name:ja":"T\u014dsen Bashi"},"arcs":[92]},{"type":"MultiLineString","properties":{"source":"openstreetmap.org","kind":"major_road","sort_rank":380,"kind_detail":"primary","ref":"2","min_zoom":8.0},"arcs":[[93],[94]]},{"type":"LineString","properties":{"source":"openstreetmap.org","kind":"major_road","sort_rank":380,"kind_detail":"primary","ref":"1","min_zoom":8.0,"id":33037812},"arcs":[95]},{"type":"LineString","properties":{"kind":"major_road","sort_rank":380,"kind_detail":"primary","bus_network":null,"source":"openstreetmap.org","min_zoom":8.0,"bus_shield_text":"\u5faa1","landuse_kind":"urban_area","id":341510129},"arcs":[96]},{"type":"LineString","properties":{"source":"openstreetmap.org","kind":"major_road","sort_rank":380,"kind_detail":"primary","ref":"145","min_zoom":8.0},"arcs":[97]},{"type":"LineString","properties":{"kind":"major_road","name:en":"Makomanai dori","name:ja":"Makomanai d\u014dri","sort_rank":380,"kind_detail":"primary","source":"openstreetmap.org","min_zoom":8.0,"landuse_kind":"urban_area","ref":"9900"},"arcs":[98]},{"type":"MultiLineString","properties":{"source":"openstreetmap.org","kind":"major_road","sort_rank":380,"kind_detail":"primary","ref":"107","min_zoom":8.0},"arcs":[[99],[100]]},{"type":"MultiLineString","properties":{"kind":"major_road","name:en":"Do-o-ken Renraku Road","network":"JP:national","sort_rank":381,"landuse_kind":"urban_area","source":"openstreetmap.org","min_zoom":8.0,"kind_detail":"trunk","shield_text":"337","ref":"337","name:ja":"D\u014d\u014dken renraku d\u014dro"},"arcs":[[101],[102],[103],[104]]},{"type":"MultiLineString","properties":{"kind":"major_road","name:en":"Soseigawa dori","network":"JP:national","sort_rank":381,"landuse_kind":"urban_area","source":"openstreetmap.org","min_zoom":8.0,"kind_detail":"trunk","shield_text":"5","ref":"5","name:ja":"S\u014dseigawa d\u014dri"},"arcs":[[105],[106]]},{"type":"LineString","properties":{"source":"openstreetmap.org","kind":"major_road","sort_rank":380,"kind_detail":"primary","ref":"59","min_zoom":8.0},"arcs":[107]},{"type":"MultiLineString","properties":{"kind":"major_road","name:en":"Minami7jo yonesato dori","name:ja":"Minami7j\u014d yonesato d\u014dri","sort_rank":380,"kind_detail":"primary","source":"openstreetmap.org","min_zoom":8.0,"landuse_kind":"urban_area","ref":"9901"},"arcs":[[108],[109],[110]]},{"type":"LineString","properties":{"source":"openstreetmap.org","kind":"major_road","sort_rank":380,"kind_detail":"primary","ref":"127","min_zoom":8.0,"id":234365370},"arcs":[111]},{"type":"LineString","properties":{"kind":"major_road","name:en":"Higashi8chome shinoro dori","name:ja":"Higashi8ch\u014dme shinoro d\u014dri","sort_rank":380,"kind_detail":"primary","source":"openstreetmap.org","min_zoom":8.0,"landuse_kind":"urban_area","ref":"3"},"arcs":[112]},{"type":"LineString","properties":{"source":"openstreetmap.org","kind":"major_road","landuse_kind":"urban_area","sort_rank":380,"kind_detail":"primary","ref":"77","min_zoom":8.0},"arcs":[113]},{"type":"LineString","properties":{"kind":"major_road","name:en":"Higashi8chome shinoro dori","name:ja":"Higashi8ch\u014dme shinoro d\u014dri","sort_rank":380,"kind_detail":"primary","source":"openstreetmap.org","min_zoom":8.0,"landuse_kind":"urban_area","ref":"9900","id":102474378},"arcs":[114]},{"type":"LineString","properties":{"kind":"major_road","name:en":"Kanjo dori","name:ja":"\u74b0\u72b6\u901a","sort_rank":380,"kind_detail":"primary","source":"openstreetmap.org","min_zoom":8.0,"landuse_kind":"urban_area","ref":"89","id":31660026},"arcs":[115]},{"type":"MultiLineString","properties":{"kind":"major_road","network":"JP:national","sort_rank":381,"landuse_kind":"urban_area","source":"openstreetmap.org","min_zoom":8.0,"kind_detail":"trunk","shield_text":"453","ref":"453"},"arcs":[[116],[117]]},{"type":"LineString","properties":{"kind":"major_road","name:en":"Hobetsu Mukawa line","name:ja":"Hobetsu Mukawa sen","sort_rank":380,"kind_detail":"primary","source":"openstreetmap.org","min_zoom":8.0,"ref":"74","id":59836247},"arcs":[118]},{"type":"LineString","properties":{"kind":"major_road","name:en":"Bankei bridge","network":"JP:prefectural","sort_rank":380,"kind_detail":"primary","source":"openstreetmap.org","min_zoom":8.0,"shield_text":"82","ref":"82","id":404527121},"arcs":[119]},{"type":"LineString","properties":{"bus_network":null,"sort_rank":380,"kind_detail":"primary","kind":"major_road","source":"openstreetmap.org","min_zoom":8.0,"bus_shield_text":"22","landuse_kind":"urban_area","ref":"107"},"arcs":[120]},{"type":"MultiLineString","properties":{"bus_network":null,"name:en":"National Route 36","name:ja":"Kokud\u014d 36 g\u014d","sort_rank":381,"kind_detail":"trunk","kind":"major_road","source":"openstreetmap.org","min_zoom":8.0,"bus_shield_text":"\u5faa1","shield_text":"36","landuse_kind":"urban_area","ref":"36","network":"JP:national"},"arcs":[[121],[122],[123]]},{"type":"LineString","properties":{"kind":"major_road","name:en":"National Route 36","network":"JP:national","sort_rank":381,"kind_detail":"trunk","source":"openstreetmap.org","min_zoom":8.0,"landuse_kind":"urban_area","shield_text":"36","id":471827514,"name:ja":"Kokud\u014d 36 g\u014d"},"arcs":[124]},{"type":"LineString","properties":{"kind":"major_road","network":"JP:national","sort_rank":381,"kind_detail":"trunk","source":"openstreetmap.org","min_zoom":8.0,"shield_text":"452","ref":"452"},"arcs":[125]},{"type":"LineString","properties":{"kind":"major_road","name:en":"Ryusen Bridge","network":"JP:national","sort_rank":381,"kind_detail":"trunk","source":"openstreetmap.org","min_zoom":8.0,"shield_text":"274","ref":"274","id":448066216,"name:ja":"Ry\u016bsen Bashi"},"arcs":[126]},{"type":"LineString","properties":{"bus_network":null,"name:en":"National Route 37","name:ja":"Kokud\u014d 37 g\u014d","sort_rank":381,"kind_detail":"trunk","kind":"major_road","source":"openstreetmap.org","min_zoom":8.0,"bus_shield_text":"23","shield_text":"37","landuse_kind":"urban_area","ref":"37","network":"JP:national"},"arcs":[127]},{"type":"MultiLineString","properties":{"kind":"major_road","name:en":"Nango dori","name:ja":"Nang\u014d d\u014dri","sort_rank":380,"kind_detail":"primary","source":"openstreetmap.org","min_zoom":8.0,"landuse_kind":"urban_area","ref":"3"},"arcs":[[128],[129]]},{"type":"LineString","properties":{"kind":"major_road","name:en":"National Route 235","name:ja":"Kokud\u014d 235 g\u014d","sort_rank":381,"kind_detail":"trunk","source":"openstreetmap.org","min_zoom":8.0,"ref":"235","id":57271117},"arcs":[130]},{"type":"LineString","properties":{"kind":"highway","network":null,"sort_rank":383,"kind_detail":"motorway","source":"openstreetmap.org","min_zoom":8.0,"all_networks":[null],"shield_text":"5","ref":"E5","id":22883045,"all_shield_texts":["5"]},"arcs":[131]},{"type":"MultiLineString","properties":{"bus_network":null,"network":"JP:national","sort_rank":381,"landuse_kind":"urban_area","kind":"major_road","source":"openstreetmap.org","min_zoom":8.0,"bus_shield_text":"15","shield_text":"37","kind_detail":"trunk","ref":"37"},"arcs":[[132],[133]]},{"type":"MultiLineString","properties":{"kind":"major_road","name:en":"Iwanai Toya line","name:ja":"\u5317\u6d77\u9053\u905366\u53f7\u5ca9\u5185\u6d1e\u723a\u7dda","sort_rank":380,"kind_detail":"primary","source":"openstreetmap.org","min_zoom":8.0,"ref":"66"},"arcs":[[134],[135]]},{"type":"MultiLineString","properties":{"bus_network":null,"name:en":"National Route 36","name:ja":"Kokud\u014d 36 g\u014d","sort_rank":381,"kind_detail":"trunk","kind":"major_road","source":"openstreetmap.org","min_zoom":8.0,"bus_shield_text":"18","shield_text":"36","landuse_kind":"urban_area","ref":"36","network":"JP:national"},"arcs":[[136],[137]]},{"type":"LineString","properties":{"kind":"major_road","name:en":"Koitoi small Bridge","network":"JP:national","sort_rank":381,"kind_detail":"trunk","source":"openstreetmap.org","min_zoom":8.0,"landuse_kind":"urban_area","shield_text":"36","ref":"36","id":445409515,"name:ja":"Koitoi kohashi"},"arcs":[138]},{"type":"LineString","properties":{"kind":"major_road","name:en":"Minami7jo yonesato dori","name:ja":"Minami7j\u014d yonesato d\u014dri","sort_rank":380,"kind_detail":"primary","source":"openstreetmap.org","min_zoom":8.0,"landuse_kind":"urban_area","ref":"9900"},"arcs":[139]},{"type":"LineString","properties":{"kind":"major_road","name:en":"National Route 452","name:ja":"Kokud\u014d 452 g\u014d","sort_rank":381,"kind_detail":"trunk","source":"openstreetmap.org","min_zoom":8.0,"shield_text":"452","ref":"452","network":"JP:national"},"arcs":[140]},{"type":"LineString","properties":{"kind":"major_road","name:en":"Miyanomori kita24jo dori","name:ja":"\u5bae\u306e\u68ee\u531724\u6761\u901a \/ \u9053\u905389\u53f7\u672d\u5e4c\u74b0\u72b6\u7dda","sort_rank":380,"kind_detail":"primary","source":"openstreetmap.org","min_zoom":8.0,"landuse_kind":"urban_area","ref":"89","id":222969836},"arcs":[141]},{"type":"LineString","properties":{"kind":"major_road","name:en":"Teine hidarimata dori","network":"JP:prefectural","sort_rank":380,"kind_detail":"primary","source":"openstreetmap.org","min_zoom":8.0,"shield_text":"82","ref":"82","id":192912897,"name:ja":"Teine hidarimata d\u014dri"},"arcs":[142]},{"type":"MultiLineString","properties":{"source":"openstreetmap.org","kind":"major_road","landuse_kind":"urban_area","sort_rank":380,"kind_detail":"primary","ref":"130","min_zoom":8.0},"arcs":[[143],[144],[145]]},{"type":"MultiLineString","properties":{"kind":"highway","name:en":"Muroran Bypass","network":"JP:national","sort_rank":383,"landuse_kind":"urban_area","source":"openstreetmap.org","min_zoom":8.0,"all_networks":["JP:national","JP:national"],"kind_detail":"motorway","shield_text":"36","all_shield_texts":["36","235"],"name:ja":"Muroran Shind\u014d"},"arcs":[[146],[147]]},{"type":"LineString","properties":{"kind":"major_road","name:en":"Oyoro Bridge","network":"JP:national","sort_rank":381,"kind_detail":"trunk","source":"openstreetmap.org","min_zoom":8.0,"shield_text":"36","ref":"36","id":445404867,"name:ja":"Oyoro Bashi"},"arcs":[148]},{"type":"MultiLineString","properties":{"kind":"major_road","network":"JP:national","sort_rank":381,"kind_detail":"trunk","source":"openstreetmap.org","min_zoom":8.0,"shield_text":"230","ref":"230"},"arcs":[[149],[150],[151],[152],[153],[154],[155],[156],[157],[158],[159],[160],[161],[162],[163],[164],[165],[166]]},{"type":"MultiLineString","properties":{"kind":"major_road","name:en":"Meiko Bridge","network":"JP:national","sort_rank":381,"landuse_kind":"urban_area","source":"openstreetmap.org","min_zoom":8.0,"kind_detail":"trunk","shield_text":"36","ref":"36","name:ja":"Meik\u014d Bashi"},"arcs":[[167],[168]]},{"type":"MultiLineString","properties":{"kind":"major_road","name:en":"Kita1jo miyanosawa dori","network":"JP:national","sort_rank":381,"landuse_kind":"urban_area","source":"openstreetmap.org","min_zoom":8.0,"kind_detail":"trunk","shield_text":"230","ref":"230","name:ja":"Kita1j\u014d miyanosawa d\u014dri"},"arcs":[[169],[170]]},{"type":"MultiLineString","properties":{"kind":"major_road","name:en":"Gorin dori","name:ja":"Gorin d\u014dri","sort_rank":380,"landuse_kind":"urban_area","source":"openstreetmap.org","min_zoom":8.0,"kind_detail":"primary","shield_text":"82","ref":"82","network":"JP:prefectural"},"arcs":[[171],[172],[173],[174]]},{"type":"LineString","properties":{"kind":"major_road","name:en":"Horobetsu Bridge","network":"JP:national","sort_rank":381,"kind_detail":"trunk","source":"openstreetmap.org","min_zoom":8.0,"landuse_kind":"urban_area","shield_text":"36","ref":"36","id":106078474,"name:ja":"Horobetsu Bashi"},"arcs":[175]},{"type":"LineString","properties":{"kind":"major_road","name:en":"Fushikobetsu Bridge","network":"JP:national","sort_rank":381,"kind_detail":"trunk","source":"openstreetmap.org","min_zoom":8.0,"shield_text":"36","ref":"36","id":445404865,"name:ja":"Fushikobetsu Bashi"},"arcs":[176]},{"type":"MultiLineString","properties":{"bus_network":null,"name:en":"National Route 37","name:ja":"Kokud\u014d 37 g\u014d","sort_rank":381,"kind_detail":"trunk","kind":"major_road","source":"openstreetmap.org","min_zoom":8.0,"bus_shield_text":"15","shield_text":"37","landuse_kind":"urban_area","ref":"37","network":"JP:national"},"arcs":[[177],[178]]},{"type":"MultiLineString","properties":{"kind":"major_road","network":"JP:national","sort_rank":381,"kind_detail":"trunk","source":"openstreetmap.org","min_zoom":8.0,"shield_text":"453","ref":"453"},"arcs":[[179],[180]]},{"type":"MultiLineString","properties":{"kind":"major_road","name:en":"Tsukisamu dori","network":"JP:national","sort_rank":381,"landuse_kind":"urban_area","source":"openstreetmap.org","min_zoom":8.0,"kind_detail":"trunk","shield_text":"36","ref":"36","name:ja":"\u6708\u5bd2\u901a"},"arcs":[[181],[182],[183],[184]]},{"type":"LineString","properties":{"bus_network":null,"name:en":"Higashi8chome shinoro dori","name:ja":"Higashi8ch\u014dme shinoro d\u014dri","sort_rank":380,"kind_detail":"primary","kind":"major_road","source":"openstreetmap.org","min_zoom":8.0,"bus_shield_text":"\u74b088","landuse_kind":"urban_area","ref":"9900"},"arcs":[185]},{"type":"LineString","properties":{"kind":"major_road","name:en":"Atsubetsu dori","name:ja":"\u539a\u5225\u901a","sort_rank":380,"kind_detail":"primary","source":"openstreetmap.org","min_zoom":8.0,"ref":"9904","id":100468184},"arcs":[186]},{"type":"MultiLineString","properties":{"kind":"major_road","network":"\u5317\u6d77\u9053\u9053","sort_rank":380,"kind_detail":"primary","source":"openstreetmap.org","min_zoom":8.0,"shield_text":"95","ref":"95"},"arcs":[[187],[188]]},{"type":"MultiLineString","properties":{"kind":"major_road","name:en":"National Route 37","name:ja":"Kokud\u014d 37 g\u014d","sort_rank":381,"landuse_kind":"urban_area","source":"openstreetmap.org","min_zoom":8.0,"kind_detail":"trunk","shield_text":"37","ref":"37","network":"JP:national"},"arcs":[[189],[190],[191],[192],[193]]},{"type":"MultiLineString","properties":{"kind":"major_road","name:en":"Atsubetsu dori","name:ja":"Atsubetsu d\u014dri","sort_rank":380,"kind_detail":"primary","source":"openstreetmap.org","min_zoom":8.0,"landuse_kind":"urban_area","ref":"9904"},"arcs":[[194],[195],[196]]},{"type":"MultiLineString","properties":{"kind":"major_road","name:en":"Kanjo dori","name:ja":"Kanj\u014d d\u014dri","sort_rank":380,"landuse_kind":"urban_area","official_name":"\u672d\u5e4c\u74b0\u72b6\u7dda","source":"openstreetmap.org","min_zoom":8.0,"kind_detail":"primary","ref":"89"},"arcs":[[197],[198]]},{"type":"LineString","properties":{"kind":"major_road","name:en":"Kawabata Bridge","network":"JP:national","sort_rank":381,"kind_detail":"trunk","source":"openstreetmap.org","min_zoom":8.0,"shield_text":"274","ref":"274","id":448066212,"name:ja":"Kawabata Bashi"},"arcs":[199]},{"type":"LineString","properties":{"source":"openstreetmap.org","kind":"major_road","landuse_kind":"urban_area","sort_rank":380,"kind_detail":"primary","ref":"86","min_zoom":8.0},"arcs":[200]},{"type":"LineString","properties":{"kind":"major_road","network":"JP:national","sort_rank":381,"kind_detail":"trunk","source":"openstreetmap.org","min_zoom":8.0,"shield_text":"36","ref":"36"},"arcs":[201]},{"type":"MultiLineString","properties":{"bus_network":null,"sort_rank":380,"kind_detail":"primary","kind":"major_road","source":"openstreetmap.org","min_zoom":8.0,"bus_shield_text":"\u5faa1","landuse_kind":"urban_area","ref":"107"},"arcs":[[202],[203],[204]]},{"type":"MultiLineString","properties":{"source":"openstreetmap.org","kind":"major_road","landuse_kind":"urban_area","sort_rank":380,"kind_detail":"primary","ref":"107","min_zoom":8.0},"arcs":[[205],[206],[207],[208],[209]]},{"type":"LineString","properties":{"bus_network":null,"name:en":"National Route 36","network":"JP:national","sort_rank":381,"kind_detail":"trunk","kind":"major_road","source":"openstreetmap.org","min_zoom":8.0,"bus_shield_text":"\u5faa2","shield_text":"36","landuse_kind":"urban_area","ref":"36","id":461388064,"name:ja":"Kokud\u014d 36 g\u014d"},"arcs":[210]},{"type":"LineString","properties":{"kind":"major_road","name:en":"Nakanoshima dori","name:ja":"Nakanoshima d\u014dri","sort_rank":380,"kind_detail":"primary","source":"openstreetmap.org","min_zoom":8.0,"landuse_kind":"urban_area","ref":"9901","id":33206633},"arcs":[211]},{"type":"LineString","properties":{"source":"openstreetmap.org","kind":"major_road","network":"JP:prefectural","sort_rank":380,"kind_detail":"primary","min_zoom":8.0,"shield_text":"82"},"arcs":[212]},{"type":"LineString","properties":{"kind":"major_road","name:en":"National Route 230","network":"JP:national","sort_rank":381,"kind_detail":"trunk","source":"openstreetmap.org","min_zoom":8.0,"shield_text":"230","ref":"230","id":37984194,"name:ja":"\u56fd\u9053230\u53f7"},"arcs":[213]},{"type":"LineString","properties":{"kind":"major_road","name:en":"Kita1jo miyanosawa dori;Miyanosawa Kitaichijo line","name:ja":"Kita1j\u014d miyanosawa d\u014dri;Miyanosawa Kitaichij\u014d sen","sort_rank":380,"kind_detail":"primary","source":"openstreetmap.org","min_zoom":8.0,"landuse_kind":"urban_area","ref":"124","id":32882210},"arcs":[214]},{"type":"LineString","properties":{"kind":"major_road","name:en":"Makomanai dori","network":"JP:national","sort_rank":381,"landuse_kind":"urban_area","source":"openstreetmap.org","min_zoom":8.0,"kind_detail":"trunk","shield_text":"453","ref":"453","name:ja":"Makomanai d\u014dri"},"arcs":[215]},{"type":"LineString","properties":{"kind":"major_road","network":"JP:national","sort_rank":381,"landuse_kind":"urban_area","source":"openstreetmap.org","min_zoom":8.0,"kind_detail":"trunk","shield_text":"337","ref":"337"},"arcs":[216]},{"type":"MultiLineString","properties":{"kind":"highway","name:en":"National Route 36","network":"JP:national","sort_rank":383,"landuse_kind":"urban_area","source":"openstreetmap.org","min_zoom":8.0,"all_networks":["JP:national","JP:national"],"kind_detail":"motorway","shield_text":"36","ref":"36","all_shield_texts":["36","235"],"name:ja":"\u56fd\u905336\u53f7"},"arcs":[[217],[218]]},{"type":"MultiLineString","properties":{"kind":"major_road","name:en":"Ishiyama dori;National Route 230","network":"JP:national","sort_rank":381,"kind_detail":"trunk","source":"openstreetmap.org","min_zoom":8.0,"shield_text":"230","ref":"230","name:ja":"Ishiyama d\u014dri;Kokud\u014d 230 g\u014d"},"arcs":[[219],[220]]},{"type":"LineString","properties":{"kind":"major_road","sort_rank":381,"landuse_kind":"urban_area","source":"openstreetmap.org","min_zoom":8.0,"kind_detail":"trunk","ref":"36","id":39015776},"arcs":[221]},{"type":"MultiLineString","properties":{"kind":"major_road","name:en":"Tsukisamu dori","network":"JP:national","sort_rank":381,"kind_detail":"trunk","source":"openstreetmap.org","min_zoom":8.0,"shield_text":"36","ref":"36","name:ja":"\u6708\u5bd2\u901a"},"arcs":[[222],[223],[224],[225]]},{"type":"LineString","properties":{"kind":"major_road","name:en":"Betsubetsu Bridge","network":"JP:national","sort_rank":381,"kind_detail":"trunk","source":"openstreetmap.org","min_zoom":8.0,"shield_text":"36","ref":"36","id":434996775,"name:ja":"Betsubetsu Bashi"},"arcs":[226]},{"type":"MultiLineString","properties":{"source":"openstreetmap.org","kind":"major_road","sort_rank":380,"kind_detail":"primary","ref":"3","min_zoom":8.0},"arcs":[[227],[228]]},{"type":"LineString","properties":{"kind":"major_road","name:en":"Atsubetsuhigashi dori","name:ja":"\u539a\u5225\u6771\u901a","sort_rank":380,"landuse_kind":"urban_area","source":"openstreetmap.org","min_zoom":8.0,"kind_detail":"primary","ref":"9903"},"arcs":[229]},{"type":"LineString","properties":{"kind":"major_road","name:en":"Meppu Bridge","network":"JP:national","sort_rank":381,"kind_detail":"trunk","source":"openstreetmap.org","min_zoom":8.0,"shield_text":"36","ref":"36","id":445404859,"name:ja":"Meppu Bashi"},"arcs":[230]},{"type":"LineString","properties":{"kind":"major_road","name:en":"Jozankei dori;National Route 230","network":"JP:national","sort_rank":381,"kind_detail":"trunk","source":"openstreetmap.org","min_zoom":8.0,"shield_text":"230","ref":"230","id":33037957,"name:ja":"J\u014dzankei d\u014dri;Kokud\u014d 230 g\u014d"},"arcs":[231]},{"type":"MultiLineString","properties":{"kind":"major_road","network":"JP:national","sort_rank":381,"kind_detail":"trunk","source":"openstreetmap.org","min_zoom":8.0,"shield_text":"234","ref":"234"},"arcs":[[232],[233],[234],[235],[236],[237]]},{"type":"LineString","properties":{"kind":"major_road","name:en":"National Route 36","network":"JP:national","sort_rank":381,"kind_detail":"trunk","bus_network":null,"source":"openstreetmap.org","min_zoom":8.0,"bus_shield_text":"33","shield_text":"36","landuse_kind":"urban_area","id":434854419,"name:ja":"Kokud\u014d 36 g\u014d"},"arcs":[238]},{"type":"LineString","properties":{"kind":"major_road","name:en":"Ekimae Chuo Dori","name:ja":"Ekimae Ch\u016b\u014d D\u014dri","sort_rank":380,"kind_detail":"primary","source":"openstreetmap.org","min_zoom":8.0,"landuse_kind":"urban_area","ref":"19","id":58631590},"arcs":[239]},{"type":"LineString","properties":{"kind":"major_road","name:en":"Kikusui asahiyamakoen dori","name:ja":"Kikusui asahiyamak\u014den d\u014dri","sort_rank":380,"landuse_kind":"urban_area","source":"openstreetmap.org","min_zoom":8.0,"kind_detail":"primary","ref":"9901"},"arcs":[240]},{"type":"LineString","properties":{"kind":"major_road","name:en":"Bubetsu Bridge","network":"JP:national","sort_rank":381,"kind_detail":"trunk","source":"openstreetmap.org","min_zoom":8.0,"shield_text":"36","ref":"36","id":445404869,"name:ja":"B\u016bbetsu Bashi"},"arcs":[241]},{"type":"LineString","properties":{"kind":"major_road","name:en":"Tsukisamu Dori","name:ja":"Tsukisamu D\u014dri","sort_rank":381,"kind_detail":"trunk","is_bicycle_related":true,"source":"openstreetmap.org","min_zoom":8.0,"landuse_kind":"urban_area","shield_text":"36","ref":"36","network":"JP:national"},"arcs":[242]},{"type":"LineString","properties":{"kind":"highway","name:en":"National Route 36","network":"JP:national","sort_rank":383,"kind_detail":"motorway","source":"openstreetmap.org","min_zoom":8.0,"all_networks":["JP:national"],"landuse_kind":"urban_area","shield_text":"36","ref":"36","id":105921805,"all_shield_texts":["36"],"name:ja":"\u56fd\u905336\u53f7"},"arcs":[243]},{"type":"MultiLineString","properties":{"kind":"major_road","name:en":"Sapporo ekimae dori","name:ja":"Sapporo ekimae d\u014dri","sort_rank":380,"landuse_kind":"urban_area","source":"openstreetmap.org","min_zoom":8.0,"kind_detail":"primary","ref":"18"},"arcs":[[244],[245]]},{"type":"MultiLineString","properties":{"kind":"major_road","name:en":"Kita 1-jo Kariki-dori","name:ja":"Kita1j\u014d kariki d\u014dri","sort_rank":381,"landuse_kind":"urban_area","source":"openstreetmap.org","min_zoom":8.0,"kind_detail":"trunk","shield_text":"12","ref":"12","network":"JP:national"},"arcs":[[246],[247],[248]]},{"type":"MultiLineString","properties":{"kind":"major_road","name:en":"Tsukisamu dori","name:ja":"Tsukisamu d\u014dri","sort_rank":381,"landuse_kind":"urban_area","source":"openstreetmap.org","min_zoom":8.0,"kind_detail":"trunk","shield_text":"36","ref":"36","network":"JP:national"},"arcs":[[249],[250],[251]]},{"type":"MultiLineString","properties":{"kind":"major_road","network":"JP:national","sort_rank":381,"kind_detail":"trunk","source":"openstreetmap.org","min_zoom":8.0,"shield_text":"276","ref":"276"},"arcs":[[252],[253],[254],[255],[256],[257],[258],[259],[260],[261],[262],[263],[264],[265],[266],[267],[268],[269],[270],[271],[272],[273],[274],[275]]},{"type":"MultiLineString","properties":{"kind":"major_road","network":"JP:national","sort_rank":381,"landuse_kind":"urban_area","source":"openstreetmap.org","min_zoom":8.0,"kind_detail":"trunk","shield_text":"453"},"arcs":[[276],[277]]},{"type":"LineString","properties":{"bus_network":null,"network":"JP:national","sort_rank":381,"landuse_kind":"urban_area","kind":"major_road","source":"openstreetmap.org","min_zoom":8.0,"bus_shield_text":"\u5faa1","shield_text":"37","kind_detail":"trunk","ref":"37"},"arcs":[278]},{"type":"LineString","properties":{"kind":"major_road","network":"JP:national","sort_rank":381,"kind_detail":"trunk","source":"openstreetmap.org","min_zoom":8.0,"landuse_kind":"urban_area","shield_text":"275","ref":"275","id":544005956},"arcs":[279]},{"type":"LineString","properties":{"kind":"major_road","name:en":"Kanjo dori","name:ja":"\u74b0\u72b6\u901a;\u9053\u905389\u53f7\u672d\u5e4c\u74b0\u72b6\u7dda","sort_rank":380,"kind_detail":"primary","source":"openstreetmap.org","min_zoom":8.0,"landuse_kind":"urban_area","ref":"89","id":31660027},"arcs":[280]},{"type":"LineString","properties":{"kind":"major_road","name:en":"National Route 36","network":"JP:national","sort_rank":381,"kind_detail":"trunk","source":"openstreetmap.org","min_zoom":8.0,"landuse_kind":"aerodrome","shield_text":"36","ref":"36","id":445594185,"name:ja":"Kokud\u014d 36 g\u014d"},"arcs":[281]},{"type":"LineString","properties":{"kind":"major_road","name:en":"Gorin dori","network":"JP:prefectural","sort_rank":380,"kind_detail":"primary","source":"openstreetmap.org","min_zoom":8.0,"landuse_kind":"urban_area","shield_text":"82","ref":"82","id":31132689,"name:ja":"\u4e94\u8f2a\u901a"},"arcs":[282]},{"type":"LineString","properties":{"kind":"major_road","sort_rank":380,"kind_detail":"primary","bus_network":null,"source":"openstreetmap.org","min_zoom":8.0,"bus_shield_text":"24","landuse_kind":"urban_area","ref":"107","id":471507096},"arcs":[283]},{"type":"MultiLineString","properties":{"kind":"major_road","name:en":"National Highway Route 274","network":"JP:national","sort_rank":381,"kind_detail":"trunk","source":"openstreetmap.org","min_zoom":8.0,"shield_text":"274","ref":"274"},"arcs":[[284],[285],[286],[287]]},{"type":"LineString","properties":{"kind":"major_road","name:en":"Jozankei ohashi dori","name:ja":"J\u014dzankei \u014dhashi d\u014dri","sort_rank":380,"kind_detail":"primary","source":"openstreetmap.org","min_zoom":8.0,"shield_text":"1","ref":"1","network":"\u5317\u6d77\u9053\u9053"},"arcs":[288]},{"type":"LineString","properties":{"source":"openstreetmap.org","kind":"major_road","sort_rank":380,"kind_detail":"primary","ref":"86","min_zoom":8.0},"arcs":[289]},{"type":"LineString","properties":{"kind":"major_road","name:en":"Momijidai dori","name:ja":"\u3082\u307f\u3058\u53f0\u901a","sort_rank":380,"kind_detail":"primary","source":"openstreetmap.org","min_zoom":8.0,"landuse_kind":"urban_area","ref":"9904"},"arcs":[290]},{"type":"LineString","properties":{"kind":"major_road","name:en":"Miyato Bashi","network":"JP:national","sort_rank":381,"kind_detail":"trunk","source":"openstreetmap.org","min_zoom":8.0,"shield_text":"235","ref":"235","id":208930191,"name:ja":"Miyato Bridge"},"arcs":[291]},{"type":"MultiLineString","properties":{"kind":"major_road","name:en":"National Route 235","name:ja":"\u56fd\u9053235\u53f7","sort_rank":381,"kind_detail":"trunk","source":"openstreetmap.org","min_zoom":8.0,"shield_text":"235","ref":"235","network":"JP:national"},"arcs":[[292],[293]]},{"type":"MultiLineString","properties":{"source":"openstreetmap.org","kind":"major_road","landuse_kind":"urban_area","sort_rank":380,"kind_detail":"primary","ref":"117","min_zoom":8.0},"arcs":[[294],[295]]},{"type":"LineString","properties":{"bus_network":null,"sort_rank":380,"kind_detail":"primary","kind":"major_road","source":"openstreetmap.org","min_zoom":8.0,"bus_shield_text":"31","landuse_kind":"urban_area","ref":"144"},"arcs":[296]},{"type":"LineString","properties":{"kind":"major_road","name:en":"Tarumae Bridge","network":"JP:national","sort_rank":381,"kind_detail":"trunk","source":"openstreetmap.org","min_zoom":8.0,"shield_text":"36","ref":"36","id":445409512,"name:ja":"Tarumae Bashi"},"arcs":[297]},{"type":"MultiLineString","properties":{"kind":"major_road","name:en":"National Route 36","name:ja":"Kokud\u014d 36 g\u014d","sort_rank":381,"landuse_kind":"urban_area","source":"openstreetmap.org","min_zoom":8.0,"kind_detail":"trunk","shield_text":"36","ref":"36","network":"JP:national"},"arcs":[[298],[299],[300],[301],[302],[303],[304],[305],[306],[307],[308],[309],[310],[311],[312],[313],[314],[315],[316],[317],[318],[319],[320],[321],[322],[323],[324],[325],[326],[327]]},{"type":"LineString","properties":{"kind":"major_road","name:en":"Hagino Bridge","network":"JP:national","sort_rank":381,"kind_detail":"trunk","source":"openstreetmap.org","min_zoom":8.0,"landuse_kind":"urban_area","shield_text":"36","ref":"36","id":445404863,"name:ja":"Hagino Bashi"},"arcs":[328]},{"type":"LineString","properties":{"kind":"major_road","name:en":"Toyako Noboribetsu line","name:ja":"T\u014dyako Noboribetsu sen","sort_rank":380,"kind_detail":"primary","source":"openstreetmap.org","min_zoom":8.0,"ref":"2"},"arcs":[329]},{"type":"MultiLineString","properties":{"kind":"major_road","name:en":"Tomakomai east interchange line","name:ja":"Tomakomai higashi int\u0101 sen","sort_rank":380,"kind_detail":"primary","source":"openstreetmap.org","min_zoom":8.0,"ref":"91"},"arcs":[[330],[331],[332]]},{"type":"MultiLineString","properties":{"kind":"highway","name:en":"Hokkaido Expressway","network":null,"sort_rank":383,"kind_detail":"motorway","source":"openstreetmap.org","min_zoom":8.0,"all_networks":[null],"shield_text":"5","ref":"E5","all_shield_texts":["5"]},"arcs":[[333],[334],[335],[336],[337],[338],[339],[340],[341],[342],[343],[344],[345],[346],[347]]},{"type":"LineString","properties":{"source":"openstreetmap.org","kind":"major_road","sort_rank":380,"kind_detail":"primary","ref":"16","min_zoom":8.0},"arcs":[348]},{"type":"MultiLineString","properties":{"kind":"major_road","network":"JP:national","sort_rank":381,"landuse_kind":"urban_area","source":"openstreetmap.org","min_zoom":8.0,"kind_detail":"trunk","shield_text":"37","ref":"37"},"arcs":[[349],[350],[351],[352]]},{"type":"MultiLineString","properties":{"kind":"major_road","name:en":"Soseigawa dori","name:ja":"S\u014dseigawa d\u014dri","sort_rank":381,"landuse_kind":"urban_area","source":"openstreetmap.org","min_zoom":8.0,"kind_detail":"trunk","ref":"5"},"arcs":[[353],[354]]},{"type":"MultiLineString","properties":{"kind":"major_road","name:en":"Hitsujigaoka dori","name:ja":"Hitsujigaoka d\u014dri","sort_rank":380,"landuse_kind":"urban_area","source":"openstreetmap.org","min_zoom":8.0,"kind_detail":"primary","ref":"9903"},"arcs":[[355],[356]]},{"type":"MultiLineString","properties":{"kind":"major_road","name:en":"National Route 274","network":"JP:national","sort_rank":381,"landuse_kind":"urban_area","source":"openstreetmap.org","min_zoom":8.0,"kind_detail":"trunk","shield_text":"274","ref":"274","name:ja":"Kokud\u014d 274 g\u014d"},"arcs":[[357],[358]]},{"type":"LineString","properties":{"source":"openstreetmap.org","kind":"highway","sort_rank":383,"kind_detail":"motorway","ref":"E38","min_zoom":8.0},"arcs":[359]},{"type":"LineString","properties":{"kind":"major_road","name:en":"Mikasa Kuriyama line","name:ja":"Mikasa Kuriyama sen","sort_rank":380,"kind_detail":"primary","source":"openstreetmap.org","min_zoom":8.0,"ref":"30","id":425417530},"arcs":[360]},{"type":"LineString","properties":{"kind":"major_road","network":"JP:national","sort_rank":381,"kind_detail":"trunk","source":"openstreetmap.org","min_zoom":8.0,"shield_text":"276","id":437126539},"arcs":[361]},{"type":"LineString","properties":{"kind":"major_road","name:en":"Gorin dori","network":"JP:prefectural","sort_rank":380,"kind_detail":"primary","source":"openstreetmap.org","min_zoom":8.0,"shield_text":"82","ref":"82","id":35866267,"name:ja":"Gorin d\u014dri"},"arcs":[362]},{"type":"MultiLineString","properties":{"kind":"major_road","name:en":"National Route 274","network":"JP:national","sort_rank":381,"kind_detail":"trunk","source":"openstreetmap.org","min_zoom":8.0,"shield_text":"274","ref":"274","name:ja":"Kokud\u014d 274 g\u014d"},"arcs":[[363],[364],[365]]},{"type":"MultiLineString","properties":{"source":"openstreetmap.org","kind":"highway","landuse_kind":"urban_area","sort_rank":383,"kind_detail":"motorway","min_zoom":8.0},"arcs":[[366],[367]]},{"type":"MultiLineString","properties":{"kind":"major_road","name:en":"National Route 235","name:ja":"Kokud\u014d 235 g\u014d","sort_rank":381,"landuse_kind":"urban_area","source":"openstreetmap.org","min_zoom":8.0,"kind_detail":"trunk","shield_text":"235","ref":"235","network":"JP:national"},"arcs":[[368],[369],[370],[371]]},{"type":"LineString","properties":{"kind":"major_road","name:en":"Tomisato Bridge","network":"JP:national","sort_rank":381,"kind_detail":"trunk","source":"openstreetmap.org","min_zoom":8.0,"shield_text":"274","ref":"274","id":425430762,"name:ja":"Tomisato Bashi"},"arcs":[372]},{"type":"MultiLineString","properties":{"kind":"major_road","name:en":"Toyako Noboribetsu line","name:ja":"\u5317\u6d77\u9053\u90532\u53f7\u6d1e\u723a\u6e56\u767b\u5225\u7dda","sort_rank":380,"kind_detail":"primary","source":"openstreetmap.org","min_zoom":8.0,"ref":"2"},"arcs":[[373],[374]]},{"type":"MultiLineString","properties":{"kind":"major_road","name:en":"Ebetsu Eniwa line","name:ja":"Ebetsu Eniwa sen","sort_rank":380,"landuse_kind":"urban_area","source":"openstreetmap.org","min_zoom":8.0,"kind_detail":"primary","ref":"46"},"arcs":[[375],[376],[377],[378],[379]]},{"type":"LineString","properties":{"kind":"major_road","name:en":"Momijidai dori","name:ja":"\u3082\u307f\u3058\u53f0\u901a","sort_rank":380,"kind_detail":"primary","source":"openstreetmap.org","min_zoom":8.0,"ref":"9904"},"arcs":[380]},{"type":"MultiLineString","properties":{"kind":"highway","name:en":"Hokkaido Expressway","name:ja":"D\u014d\u014d jid\u014dshad\u014d","sort_rank":383,"landuse_kind":"urban_area","source":"openstreetmap.org","min_zoom":8.0,"all_networks":[null],"kind_detail":"motorway","shield_text":"5","ref":"E5","all_shield_texts":["5"],"network":null},"arcs":[[381],[382],[383],[384],[385],[386],[387],[388],[389]]},{"type":"LineString","properties":{"bus_network":null,"sort_rank":380,"kind_detail":"primary","kind":"major_road","source":"openstreetmap.org","min_zoom":8.0,"bus_shield_text":"24","ref":"107"},"arcs":[390]},{"type":"LineString","properties":{"kind":"major_road","name:en":"National Route 36","name:ja":"Kokud\u014d 36 g\u014d","sort_rank":381,"kind_detail":"trunk","source":"openstreetmap.org","min_zoom":8.0,"landuse_kind":"urban_area","ref":"36","id":58617633},"arcs":[391]},{"type":"LineString","properties":{"kind":"major_road","name:en":"Do-o-ken Renraku Road","network":"JP:national","sort_rank":381,"kind_detail":"trunk","source":"openstreetmap.org","min_zoom":8.0,"landuse_kind":"urban_area","shield_text":"337","ref":"337","id":150522274,"name:ja":"\u9053\u592e\u570f\u9023\u7d61\u9053\u8def"},"arcs":[392]},{"type":"LineString","properties":{"bus_network":null,"name:en":"Washibetsu bridge","network":"JP:national","sort_rank":381,"kind_detail":"trunk","kind":"major_road","source":"openstreetmap.org","min_zoom":8.0,"bus_shield_text":"33","shield_text":"36","landuse_kind":"urban_area","ref":"36","id":368278181,"name:ja":"Washibetsu hashi"},"arcs":[393]},{"type":"LineString","properties":{"kind":"major_road","name:en":"Takeura Bridge","network":"JP:national","sort_rank":381,"kind_detail":"trunk","source":"openstreetmap.org","min_zoom":8.0,"shield_text":"36","ref":"36","id":445404861,"name:ja":"Takeura Bashi"},"arcs":[394]},{"type":"MultiLineString","properties":{"kind":"major_road","name:en":"National Route 276","name:ja":"Kokud\u014d 276 g\u014d","sort_rank":381,"landuse_kind":"urban_area","source":"openstreetmap.org","min_zoom":8.0,"kind_detail":"trunk","shield_text":"276","ref":"276","network":"JP:national"},"arcs":[[395],[396],[397],[398]]},{"type":"MultiLineString","properties":{"kind":"major_road","name:en":"Shiraoi Otaki line","name:ja":"Shiraoi \u014ctaki sen","sort_rank":380,"landuse_kind":"urban_area","source":"openstreetmap.org","min_zoom":8.0,"kind_detail":"primary","ref":"86"},"arcs":[[399],[400]]},{"type":"LineString","properties":{"kind":"major_road","sort_rank":380,"kind_detail":"primary","bus_network":null,"source":"openstreetmap.org","min_zoom":8.0,"bus_shield_text":"\u5faa2","landuse_kind":"urban_area","ref":"107","id":341510131},"arcs":[401]},{"type":"LineString","properties":{"kind":"major_road","name:en":"Shiraoi Ohashi Bridge","network":"JP:national","sort_rank":381,"kind_detail":"trunk","source":"openstreetmap.org","min_zoom":8.0,"landuse_kind":"urban_area","shield_text":"36","ref":"36","id":434890910,"name:ja":"Shiraoi \u014chashi"},"arcs":[402]},{"type":"LineString","properties":{"source":"openstreetmap.org","kind":"major_road","sort_rank":380,"kind_detail":"primary","ref":"74","min_zoom":8.0},"arcs":[403]},{"type":"MultiLineString","properties":{"kind":"major_road","network":"JP:national","sort_rank":381,"landuse_kind":"urban_area","source":"openstreetmap.org","min_zoom":8.0,"kind_detail":"trunk","shield_text":"36","ref":"36"},"arcs":[[404],[405],[406],[407],[408],[409],[410]]},{"type":"MultiLineString","properties":{"kind":"major_road","name:en":"Hiragishi dori","name:ja":"Hiragishi d\u014dri","sort_rank":381,"landuse_kind":"urban_area","source":"openstreetmap.org","min_zoom":8.0,"kind_detail":"trunk","shield_text":"453","ref":"453","network":"JP:national"},"arcs":[[411],[412]]},{"type":"MultiLineString","properties":{"kind":"major_road","name:en":"Minami1jo dori","name:ja":"Minami1j\u014d d\u014dri","sort_rank":380,"kind_detail":"primary","source":"openstreetmap.org","min_zoom":8.0,"landuse_kind":"urban_area","ref":"3"},"arcs":[[413],[414]]},{"type":"MultiLineString","properties":{"kind":"highway","name:en":"Hokkaido Expressway","network":null,"sort_rank":383,"landuse_kind":"urban_area","source":"openstreetmap.org","min_zoom":8.0,"all_networks":[null],"kind_detail":"motorway","shield_text":"5","ref":"E5","all_shield_texts":["5"]},"arcs":[[415],[416],[417],[418],[419],[420],[421],[422],[423],[424],[425],[426]]},{"type":"MultiLineString","properties":{"kind":"highway","name:en":"Hokkaido Expressway","network":null,"sort_rank":383,"kind_detail":"motorway","source":"openstreetmap.org","min_zoom":8.0,"all_networks":[null],"shield_text":"5","all_shield_texts":["5"]},"arcs":[[427],[428],[429]]},{"type":"MultiLineString","properties":{"bus_network":null,"name:en":"National Route 36","name:ja":"Kokud\u014d 36 g\u014d","sort_rank":381,"kind_detail":"trunk","kind":"major_road","source":"openstreetmap.org","min_zoom":8.0,"bus_shield_text":"33","shield_text":"36","landuse_kind":"urban_area","ref":"36","network":"JP:national"},"arcs":[[430],[431]]},{"type":"LineString","properties":{"kind":"major_road","name:en":"Kita1jo miyanosawa dori \/ Minami19jo Miyanosawa line","name:ja":"Kita1j\u014d miyanosawa d\u014dri \/ Minami19j\u014d Miyanosawa sen","sort_rank":380,"kind_detail":"primary","source":"openstreetmap.org","min_zoom":8.0,"landuse_kind":"urban_area","ref":"9902","id":352428870},"arcs":[432]},{"type":"LineString","properties":{"bus_network":null,"name:en":"Kita 1-jo Kariki-dori","network":"JP:national","sort_rank":381,"kind_detail":"trunk","kind":"major_road","source":"openstreetmap.org","min_zoom":8.0,"bus_shield_text":"\u74b088","shield_text":"12","landuse_kind":"urban_area","ref":"12","id":219858925,"name:ja":"Kita1j\u014d kariki d\u014dri"},"arcs":[433]},{"type":"MultiLineString","properties":{"source":"openstreetmap.org","kind":"major_road","sort_rank":380,"kind_detail":"primary","ref":"129","min_zoom":8.0},"arcs":[[434],[435],[436]]},{"type":"LineString","properties":{"kind":"major_road","network":"JP:national","sort_rank":381,"kind_detail":"trunk","source":"openstreetmap.org","min_zoom":8.0,"shield_text":"393","ref":"393"},"arcs":[437]},{"type":"LineString","properties":{"kind":"major_road","name:en":"Suigenchi dori","network":"JP:prefectural","sort_rank":380,"kind_detail":"primary","source":"openstreetmap.org","min_zoom":8.0,"landuse_kind":"urban_area","shield_text":"82","ref":"82","id":31132683,"name:ja":"Suigenchi d\u014dri"},"arcs":[438]},{"type":"LineString","properties":{"kind":"major_road","network":"JP:national","sort_rank":381,"kind_detail":"trunk","source":"openstreetmap.org","min_zoom":8.0,"shield_text":"278","ref":"278"},"arcs":[439]},{"type":"LineString","properties":{"kind":"major_road","name:en":"Sapporo Yubari Line","name:ja":"Sapporo Y\u016bbari Sen","sort_rank":380,"kind_detail":"primary","source":"openstreetmap.org","min_zoom":8.0,"ref":"3"},"arcs":[440]},{"type":"MultiLineString","properties":{"kind":"major_road","name:en":"National Route 37","name:ja":"Kokud\u014d 37 g\u014d","sort_rank":381,"kind_detail":"trunk","source":"openstreetmap.org","min_zoom":8.0,"shield_text":"37","ref":"37","network":"JP:national"},"arcs":[[441],[442],[443]]},{"type":"MultiLineString","properties":{"kind":"major_road","name:en":"National Route 230","name:ja":"Kokud\u014d 230 g\u014d","sort_rank":381,"kind_detail":"trunk","source":"openstreetmap.org","min_zoom":8.0,"shield_text":"230","ref":"230","network":"JP:national"},"arcs":[[444],[445],[446],[447]]},{"type":"MultiLineString","properties":{"kind":"major_road","name:en":"National Route 274","name:ja":"\u56fd\u9053274\u53f7","sort_rank":381,"kind_detail":"trunk","source":"openstreetmap.org","min_zoom":8.0,"shield_text":"274","ref":"274","network":"JP:national"},"arcs":[[448],[449]]},{"type":"MultiLineString","properties":{"kind":"major_road","name:en":"Soseigawa dori","name:ja":"S\u014dseigawa d\u014dri","sort_rank":380,"kind_detail":"primary","source":"openstreetmap.org","min_zoom":8.0,"landuse_kind":"urban_area","ref":"9900"},"arcs":[[450],[451],[452],[453],[454],[455],[456]]},{"type":"LineString","properties":{"source":"openstreetmap.org","kind":"major_road","sort_rank":380,"kind_detail":"primary","ref":"58","min_zoom":8.0},"arcs":[457]},{"type":"LineString","properties":{"source":"openstreetmap.org","kind":"major_road","kind_detail":"trunk","sort_rank":381,"landuse_kind":"urban_area","min_zoom":8.0},"arcs":[458]},{"type":"LineString","properties":{"kind":"major_road","sort_rank":381,"kind_detail":"trunk","bus_network":null,"source":"openstreetmap.org","min_zoom":8.0,"bus_shield_text":"18","landuse_kind":"urban_area","ref":"37","id":363475935},"arcs":[459]},{"type":"LineString","properties":{"kind":"major_road","name:en":"National Route 36","network":"JP:national","sort_rank":381,"kind_detail":"trunk","source":"openstreetmap.org","min_zoom":8.0,"landuse_kind":"military","shield_text":"36","ref":"36","id":445594185,"name:ja":"Kokud\u014d 36 g\u014d"},"arcs":[460]},{"type":"MultiLineString","properties":{"kind":"major_road","name:en":"National Route 276","name:ja":"Kokud\u014d 276 g\u014d","sort_rank":381,"kind_detail":"trunk","source":"openstreetmap.org","min_zoom":8.0,"shield_text":"276","ref":"276","network":"JP:national"},"arcs":[[461],[462],[463],[464],[465],[466],[467],[468],[469],[470],[471],[472],[473],[474],[475],[476],[477],[478],[479],[480],[481],[482],[483],[484],[485],[486],[487]]},{"type":"LineString","properties":{"kind":"major_road","network":"JP:national","sort_rank":381,"kind_detail":"trunk","source":"openstreetmap.org","min_zoom":8.0,"shield_text":"5","ref":"5"},"arcs":[488]},{"type":"LineString","properties":{"source":"openstreetmap.org","kind":"major_road","network":"JP:national","sort_rank":381,"kind_detail":"trunk","min_zoom":8.0,"shield_text":"230"},"arcs":[489]},{"type":"MultiLineString","properties":{"kind":"major_road","network":"jp:prefectural","sort_rank":380,"kind_detail":"primary","source":"openstreetmap.org","min_zoom":8.0,"shield_text":"43","ref":"43"},"arcs":[[490],[491],[492]]},{"type":"LineString","properties":{"kind":"major_road","name:en":"Tarumae Nishikioka line","name:ja":"\u5317\u6d77\u9053\u9053141\u53f7\u6a3d\u524d\u9326\u5ca1\u7dda","sort_rank":380,"kind_detail":"primary","source":"openstreetmap.org","min_zoom":8.0,"landuse_kind":"urban_area","ref":"141"},"arcs":[493]},{"type":"LineString","properties":{"kind":"major_road","name:en":"Tomakomai east interchange line","name:ja":"\u5317\u6d77\u9053\u905391\u53f7\u82eb\u5c0f\u7267\u6771\u30a4\u30f3\u30bf\u30fc\u7dda","sort_rank":380,"kind_detail":"primary","source":"openstreetmap.org","min_zoom":8.0,"ref":"91"},"arcs":[494]},{"type":"LineString","properties":{"sort_rank":383,"kind_detail":"motorway","min_zoom":8.0,"kind":"highway","source":"openstreetmap.org"},"arcs":[495]},{"type":"LineString","properties":{"kind":"major_road","name:en":"Irishikabetsu Bridge","network":"JP:national","sort_rank":381,"kind_detail":"trunk","source":"openstreetmap.org","min_zoom":8.0,"shield_text":"235","ref":"235","id":208930192,"name:ja":"Irishikabetsu Bashi"},"arcs":[496]},{"type":"MultiLineString","properties":{"source":"openstreetmap.org","kind":"major_road","sort_rank":380,"kind_detail":"primary","ref":"97","min_zoom":8.0},"arcs":[[497],[498],[499],[500],[501],[502]]},{"type":"LineString","properties":{"source":"openstreetmap.org","kind":"major_road","landuse_kind":"urban_area","sort_rank":380,"kind_detail":"primary","ref":"127","min_zoom":8.0},"arcs":[503]},{"type":"LineString","properties":{"kind":"major_road","sort_rank":380,"landuse_kind":"urban_area","source":"openstreetmap.org","min_zoom":8.0,"kind_detail":"primary","ref":"58","id":201240048},"arcs":[504]},{"type":"LineString","properties":{"source":"openstreetmap.org","kind":"major_road","landuse_kind":"urban_area","sort_rank":380,"kind_detail":"primary","ref":"45","min_zoom":8.0},"arcs":[505]},{"type":"LineString","properties":{"source":"openstreetmap.org","kind":"major_road","sort_rank":380,"kind_detail":"primary","ref":"130","min_zoom":8.0,"id":39015924},"arcs":[506]},{"type":"LineString","properties":{"source":"openstreetmap.org","kind":"highway","name:en":"Doto Expressway","sort_rank":383,"kind_detail":"motorway","min_zoom":8.0,"id":150522348},"arcs":[507]},{"type":"MultiLineString","properties":{"kind":"major_road","name:en":"Kanjo dori","name:ja":"Kanj\u014d d\u014dri","sort_rank":380,"landuse_kind":"urban_area","source":"openstreetmap.org","min_zoom":8.0,"kind_detail":"primary","ref":"9902"},"arcs":[[508],[509],[510]]},{"type":"MultiLineString","properties":{"kind":"major_road","name:en":"Fukuzumi soen dori","network":"JP:prefectural","sort_rank":380,"landuse_kind":"urban_area","source":"openstreetmap.org","min_zoom":8.0,"kind_detail":"primary","shield_text":"82","ref":"82","name:ja":"Fukuzumi s\u014den d\u014dri"},"arcs":[[511],[512]]},{"type":"LineString","properties":{"kind":"major_road","name:en":"Tarumae Nishikioka line","name:ja":"\u5317\u6d77\u9053\u9053141\u53f7\u6a3d\u524d\u9326\u5ca1\u7dda","sort_rank":380,"kind_detail":"primary","source":"openstreetmap.org","min_zoom":8.0,"ref":"141"},"arcs":[513]},{"type":"LineString","properties":{"kind":"major_road","name:en":"Shadai Bridge","network":"JP:national","sort_rank":381,"kind_detail":"trunk","source":"openstreetmap.org","min_zoom":8.0,"shield_text":"36","ref":"36","id":445409509,"name:ja":"Shadai Bashi"},"arcs":[514]},{"type":"LineString","properties":{"kind":"major_road","name:en":"National Route 5","network":"JP:national","sort_rank":381,"kind_detail":"trunk","source":"openstreetmap.org","min_zoom":8.0,"landuse_kind":"urban_area","shield_text":"5","ref":"5","id":297501578,"name:ja":"\u56fd\u90535\u53f7"},"arcs":[515]},{"type":"LineString","properties":{"kind":"major_road","network":"JP:national","sort_rank":381,"landuse_kind":"urban_area","source":"openstreetmap.org","min_zoom":8.0,"kind_detail":"trunk","shield_text":"230"},"arcs":[516]},{"type":"LineString","properties":{"kind":"major_road","sort_rank":381,"landuse_kind":"urban_area","source":"openstreetmap.org","min_zoom":8.0,"kind_detail":"trunk","ref":"37","id":470226746},"arcs":[517]},{"type":"MultiLineString","properties":{"kind":"major_road","name:en":"National Route 36","name:ja":"Kokud\u014d 36 g\u014d","sort_rank":381,"kind_detail":"trunk","source":"openstreetmap.org","min_zoom":8.0,"shield_text":"36","ref":"36","network":"JP:national"},"arcs":[[518],[519],[520],[521],[522],[523],[524],[525],[526],[527],[528],[529],[530],[531],[532],[533],[534],[535],[536],[537],[538],[539],[540]]},{"type":"MultiLineString","properties":{"kind":"major_road","name:en":"National Route 453","network":"JP:national","sort_rank":381,"kind_detail":"trunk","source":"openstreetmap.org","min_zoom":8.0,"shield_text":"453","ref":"453","name:ja":"Kokud\u014d 453 g\u014d"},"arcs":[[541],[542],[543],[544]]},{"type":"LineString","properties":{"kind":"major_road","name:en":"Toyako Noboribetsu line","name:ja":"\u5317\u6d77\u9053\u90532\u53f7\u6d1e\u723a\u6e56\u767b\u5225\u7dda","sort_rank":380,"kind_detail":"primary","source":"openstreetmap.org","min_zoom":8.0,"id":284349798},"arcs":[545]},{"type":"MultiLineString","properties":{"kind":"major_road","name:en":"Moiwa sanroku dori","name:ja":"Moiwa sanroku d\u014dri","sort_rank":380,"kind_detail":"primary","source":"openstreetmap.org","min_zoom":8.0,"landuse_kind":"urban_area","ref":"89"},"arcs":[[546],[547],[548]]},{"type":"MultiLineString","properties":{"source":"openstreetmap.org","kind":"major_road","landuse_kind":"urban_area","sort_rank":380,"kind_detail":"primary","ref":"46","min_zoom":8.0},"arcs":[[549],[550],[551],[552],[553],[554],[555],[556]]},{"type":"LineString","properties":{"kind":"major_road","sort_rank":380,"landuse_kind":"urban_area","source":"openstreetmap.org","min_zoom":8.0,"kind_detail":"primary","ref":"9900","id":34918046},"arcs":[557]},{"type":"LineString","properties":{"kind":"major_road","name:en":"Do-o-ken Renraku Road","name:ja":"D\u014d\u014dken renraku d\u014dro","sort_rank":381,"kind_detail":"trunk","source":"openstreetmap.org","min_zoom":8.0,"landuse_kind":"urban_area","ref":"337","id":150534688},"arcs":[558]},{"type":"LineString","properties":{"kind":"major_road","name:en":"Toyako Noboribetsu line","name:ja":"T\u014dyako Noboribetsu sen","sort_rank":380,"kind_detail":"primary","source":"openstreetmap.org","min_zoom":8.0,"id":284428710},"arcs":[559]},{"type":"MultiLineString","properties":{"source":"openstreetmap.org","kind":"major_road","sort_rank":380,"kind_detail":"primary","ref":"45","min_zoom":8.0},"arcs":[[560],[561]]},{"type":"LineString","properties":{"source":"openstreetmap.org","kind":"major_road","sort_rank":381,"kind_detail":"trunk","ref":"276","min_zoom":8.0,"id":442355784},"arcs":[562]},{"type":"LineString","properties":{"kind":"major_road","sort_rank":381,"landuse_kind":"urban_area","source":"openstreetmap.org","min_zoom":8.0,"kind_detail":"trunk","ref":"234","id":58616663},"arcs":[563]},{"type":"LineString","properties":{"kind":"major_road","name:en":"Nishikioka Bridge","network":"JP:national","sort_rank":381,"kind_detail":"trunk","source":"openstreetmap.org","min_zoom":8.0,"landuse_kind":"urban_area","shield_text":"36","ref":"36","id":432601985,"name:ja":"Nishikioka Bashi"},"arcs":[564]},{"type":"LineString","properties":{"kind":"major_road","name:en":"Sapporo Ebetsu-dori","network":"JP:national","sort_rank":381,"landuse_kind":"urban_area","source":"openstreetmap.org","min_zoom":8.0,"kind_detail":"trunk","shield_text":"12","ref":"12","name:ja":"Sapporo ebetsu d\u014dri"},"arcs":[565]},{"type":"MultiLineString","properties":{"kind":"major_road","name:en":"Teine hidarimata dori","network":"JP:prefectural","sort_rank":380,"kind_detail":"primary","source":"openstreetmap.org","min_zoom":8.0,"landuse_kind":"urban_area","shield_text":"82","ref":"82","name:ja":"Teine hidarimata d\u014dri"},"arcs":[[566],[567]]},{"type":"LineString","properties":{"source":"openstreetmap.org","kind":"major_road","sort_rank":380,"kind_detail":"primary","ref":"32","min_zoom":8.0},"arcs":[568]},{"type":"MultiLineString","properties":{"kind":"highway","name:en":"Hidaka Expressway","name:ja":"Hidaka Jid\u014dshad\u014d","sort_rank":383,"kind_detail":"motorway","source":"openstreetmap.org","min_zoom":8.0,"all_networks":[null],"shield_text":"235","ref":"E63","all_shield_texts":["235"],"network":null},"arcs":[[569],[570],[571],[572],[573]]},{"type":"LineString","properties":{"kind":"major_road","name:en":"Heiwa dori; Sapporo Yubari line","name:ja":"Heiwa d\u014dri; Sapporo Y\u016bbari sen","sort_rank":380,"kind_detail":"primary","source":"openstreetmap.org","min_zoom":8.0,"landuse_kind":"urban_area","ref":"3","id":30432967},"arcs":[574]},{"type":"LineString","properties":{"kind":"major_road","name:en":"Kita1jo kariki dori","name:ja":"Kita1j\u014d kariki d\u014dri","sort_rank":381,"landuse_kind":"urban_area","source":"openstreetmap.org","min_zoom":8.0,"kind_detail":"trunk","shield_text":"275","ref":"275","network":"JP:national"},"arcs":[575]},{"type":"LineString","properties":{"kind":"major_road","name:ja":"Kanj\u014d d\u014dri","sort_rank":380,"kind_detail":"primary","source":"openstreetmap.org","min_zoom":8.0,"landuse_kind":"urban_area","ref":"89","id":31660022},"arcs":[576]},{"type":"LineString","properties":{"kind":"major_road","name:en":"Toya park Toya line","name:ja":"\u5317\u6d77\u9053\u9053132\u53f7\u6d1e\u723a\u516c\u5712\u6d1e\u723a\u7dda","sort_rank":380,"kind_detail":"primary","source":"openstreetmap.org","min_zoom":8.0,"ref":"132","id":56298008},"arcs":[577]},{"type":"LineString","properties":{"kind":"highway","network":null,"sort_rank":383,"kind_detail":"motorway","source":"openstreetmap.org","min_zoom":8.0,"all_networks":[null],"landuse_kind":"urban_area","shield_text":"5","ref":"E5","id":145660068,"all_shield_texts":["5"]},"arcs":[578]},{"type":"MultiLineString","properties":{"source":"openstreetmap.org","kind":"major_road","sort_rank":380,"kind_detail":"primary","ref":"10","min_zoom":8.0},"arcs":[[579],[580],[581]]},{"type":"MultiLineString","properties":{"kind":"highway","name:en":"Hidaka Expressway","name:ja":"Hidaka Jid\u014dshad\u014d","sort_rank":383,"landuse_kind":"urban_area","source":"openstreetmap.org","min_zoom":8.0,"all_networks":[null],"kind_detail":"motorway","shield_text":"235","ref":"E63","all_shield_texts":["235"],"network":null},"arcs":[[582],[583]]},{"type":"LineString","properties":{"kind":"major_road","name:en":"Koitoi Bridge","network":"JP:national","sort_rank":381,"kind_detail":"trunk","source":"openstreetmap.org","min_zoom":8.0,"landuse_kind":"urban_area","shield_text":"36","ref":"36","id":445409514,"name:ja":"Koitoi Bashi"},"arcs":[584]},{"type":"LineString","properties":{"kind":"major_road","network":"JP:national","sort_rank":381,"kind_detail":"trunk","source":"openstreetmap.org","min_zoom":8.0,"shield_text":"37","ref":"37"},"arcs":[585]},{"type":"MultiLineString","properties":{"kind":"major_road","name:en":"Ishiyama dori","name:ja":"Ishiyama d\u014dri","sort_rank":381,"landuse_kind":"urban_area","source":"openstreetmap.org","min_zoom":8.0,"kind_detail":"trunk","shield_text":"230","ref":"230","network":"JP:national"},"arcs":[[586],[587],[588],[589],[590],[591]]},{"type":"LineString","properties":{"source":"openstreetmap.org","kind":"major_road","sort_rank":380,"kind_detail":"primary","ref":"33","min_zoom":8.0,"id":36822229},"arcs":[592]},{"type":"LineString","properties":{"kind":"major_road","name:en":"Toyako Noboribetsu line","name:ja":"\u6d1e\u723a\u6e56\u767b\u5225\u7dda","sort_rank":380,"kind_detail":"primary","source":"openstreetmap.org","min_zoom":8.0,"ref":"2","id":109969023},"arcs":[593]},{"type":"MultiLineString","properties":{"kind":"major_road","name:en":"National Route 235","name:ja":"Kokud\u014d 235 g\u014d","sort_rank":381,"landuse_kind":"urban_area","source":"openstreetmap.org","min_zoom":8.0,"kind_detail":"trunk","ref":"235"},"arcs":[[594],[595]]},{"type":"MultiLineString","properties":{"source":"openstreetmap.org","kind":"major_road","sort_rank":380,"kind_detail":"primary","ref":"46","min_zoom":8.0},"arcs":[[596],[597]]},{"type":"LineString","properties":{"kind":"major_road","name:en":"Yubari Iwamizawa Line","name:ja":"Y\u016bbari Iwamizawa Sen","sort_rank":380,"kind_detail":"primary","source":"openstreetmap.org","min_zoom":8.0,"ref":"38"},"arcs":[598]},{"type":"LineString","properties":{"kind":"major_road","name:en":"Sapporo Ebetsu-dori","network":"JP:national","sort_rank":381,"kind_detail":"trunk","source":"openstreetmap.org","min_zoom":8.0,"shield_text":"12","ref":"12","id":236387703,"name:ja":"Sapporo Ebetsu d\u014dri"},"arcs":[599]},{"type":"LineString","properties":{"source":"openstreetmap.org","kind":"major_road","landuse_kind":"urban_area","sort_rank":380,"kind_detail":"primary","ref":"145","min_zoom":8.0},"arcs":[600]},{"type":"MultiLineString","properties":{"bus_network":null,"network":"JP:national","sort_rank":381,"landuse_kind":"urban_area","kind":"major_road","source":"openstreetmap.org","min_zoom":8.0,"bus_shield_text":"23","shield_text":"37","kind_detail":"trunk","ref":"37"},"arcs":[[601],[602]]},{"type":"MultiLineString","properties":{"kind":"major_road","name:en":"Sapporo shindo; National Route 274","name:ja":"Sapporo shind\u014d; Kokud\u014d 274 g\u014d","sort_rank":381,"landuse_kind":"urban_area","source":"openstreetmap.org","min_zoom":8.0,"kind_detail":"trunk","shield_text":"274","ref":"274","network":"JP:national"},"arcs":[[603],[604]]},{"type":"LineString","properties":{"kind":"highway","name:en":"Hokkaido Expressway","sort_rank":383,"kind_detail":"motorway","source":"openstreetmap.org","min_zoom":8.0,"ref":"E5","id":207891553},"arcs":[605]},{"type":"LineString","properties":{"source":"openstreetmap.org","kind":"major_road","sort_rank":380,"kind_detail":"primary","ref":"78","min_zoom":8.0},"arcs":[606]},{"type":"LineString","properties":{"kind":"major_road","name:en":"Hidarimata bridge","network":"JP:prefectural","sort_rank":380,"kind_detail":"primary","source":"openstreetmap.org","min_zoom":8.0,"landuse_kind":"urban_area","shield_text":"82","ref":"82","id":192912896},"arcs":[607]},{"type":"MultiLineString","properties":{"kind":"major_road","network":"\u5317\u6d77\u9053\u9053","sort_rank":380,"kind_detail":"primary","source":"openstreetmap.org","min_zoom":8.0,"shield_text":"1","ref":"1"},"arcs":[[608],[609]]},{"type":"MultiLineString","properties":{"kind":"major_road","name:en":"National Route 5","name:ja":"Kokud\u014d 5 g\u014d","sort_rank":381,"landuse_kind":"urban_area","source":"openstreetmap.org","min_zoom":8.0,"kind_detail":"trunk","shield_text":"5","ref":"5","network":"JP:national"},"arcs":[[610],[611]]},{"type":"LineString","properties":{"kind":"major_road","sort_rank":380,"landuse_kind":"urban_area","source":"openstreetmap.org","min_zoom":8.0,"kind_detail":"primary","ref":"16","id":22650795},"arcs":[612]},{"type":"LineString","properties":{"kind":"major_road","name:en":"Ishiyama dori;National Route 230","network":"JP:national","sort_rank":381,"landuse_kind":"urban_area","source":"openstreetmap.org","min_zoom":8.0,"kind_detail":"trunk","shield_text":"230","ref":"230","name:ja":"Ishiyama d\u014dri;Kokud\u014d 230 g\u014d"},"arcs":[613]},{"type":"LineString","properties":{"source":"openstreetmap.org","kind":"major_road","name:en":"Prefectural Highway-Chitose-Mukawa Route No.10","sort_rank":380,"kind_detail":"primary","ref":"10","min_zoom":8.0},"arcs":[614]},{"type":"LineString","properties":{"kind":"major_road","name:en":"Hama-atsuma Bridge","network":"JP:national","sort_rank":381,"kind_detail":"trunk","source":"openstreetmap.org","min_zoom":8.0,"shield_text":"235","ref":"235","id":157561738,"name:ja":"Hama-atsuma Bashi"},"arcs":[615]},{"type":"MultiLineString","properties":{"source":"openstreetmap.org","kind":"highway","name:en":"Doto Expressway","sort_rank":383,"kind_detail":"motorway","ref":"E38","min_zoom":8.0},"arcs":[[616],[617],[618],[619],[620],[621],[622],[623],[624],[625],[626],[627],[628],[629],[630],[631],[632],[633]]},{"type":"MultiLineString","properties":{"kind":"major_road","name:en":"Heiwa dori; National Route 274","network":"JP:national","sort_rank":381,"landuse_kind":"urban_area","source":"openstreetmap.org","min_zoom":8.0,"kind_detail":"trunk","shield_text":"274","ref":"274","name:ja":"Heiwa d\u014dri;Kokud\u014d 274 g\u014d"},"arcs":[[634],[635]]},{"type":"MultiLineString","properties":{"kind":"major_road","name:en":"Kikusui asahiyamakoen dori","name:ja":"Kikusui asahiyamakoen dori","sort_rank":380,"landuse_kind":"urban_area","source":"openstreetmap.org","min_zoom":8.0,"kind_detail":"primary","ref":"3"},"arcs":[[636],[637]]},{"type":"LineString","properties":{"kind":"major_road","name:en":"Kotobuki Bridge","network":"JP:national","sort_rank":381,"kind_detail":"trunk","source":"openstreetmap.org","min_zoom":8.0,"landuse_kind":"urban_area","shield_text":"36","ref":"36","id":183140621,"name:ja":"Kotobuki Bashi"},"arcs":[638]},{"type":"MultiLineString","properties":{"bus_network":null,"network":"JP:national","sort_rank":381,"kind_detail":"trunk","kind":"major_road","source":"openstreetmap.org","min_zoom":8.0,"bus_shield_text":"15","shield_text":"37","ref":"37"},"arcs":[[639],[640]]},{"type":"LineString","properties":{"kind":"major_road","name:en":"Nishi25chome dori","name:ja":"Nishi25ch\u014dme d\u014dri","sort_rank":380,"kind_detail":"primary","source":"openstreetmap.org","min_zoom":8.0,"landuse_kind":"urban_area","ref":"124","id":36821247},"arcs":[641]},{"type":"LineString","properties":{"kind":"highway","name:en":"Hidaka Expressway","network":null,"sort_rank":383,"kind_detail":"motorway","source":"openstreetmap.org","min_zoom":8.0,"all_networks":[null],"shield_text":"235","ref":"235","id":157561871,"all_shield_texts":["235"],"name:ja":"\u65e5\u9ad8\u81ea\u52d5\u8eca\u9053"},"arcs":[642]},{"type":"LineString","properties":{"kind":"major_road","name:en":"Nakanoshima dori","network":"JP:national","sort_rank":381,"kind_detail":"trunk","source":"openstreetmap.org","min_zoom":8.0,"landuse_kind":"urban_area","shield_text":"453","ref":"453","id":30878586,"name:ja":"Nakanoshima d\u014dri"},"arcs":[643]},{"type":"MultiLineString","properties":{"kind":"major_road","name:en":"Atsubetsu takinokoen dori","name:ja":"Atsubetsu takinok\u014den d\u014dri","sort_rank":381,"landuse_kind":"urban_area","source":"openstreetmap.org","min_zoom":8.0,"kind_detail":"trunk","shield_text":"274","ref":"274","network":"JP:national"},"arcs":[[644],[645]]},{"type":"MultiLineString","properties":{"kind":"major_road","network":"JP:national","sort_rank":381,"landuse_kind":"urban_area","source":"openstreetmap.org","min_zoom":8.0,"kind_detail":"trunk","shield_text":"234","ref":"234"},"arcs":[[646],[647],[648],[649],[650]]},{"type":"LineString","properties":{"kind":"major_road","name:en":"Heiwa dori","name:ja":"Heiwa d\u014dri","sort_rank":380,"kind_detail":"primary","source":"openstreetmap.org","min_zoom":8.0,"landuse_kind":"urban_area","ref":"3","id":30600475},"arcs":[651]},{"type":"LineString","properties":{"kind":"major_road","name:en":"Shin-okashibetsu Bridge","network":"JP:national","sort_rank":381,"kind_detail":"trunk","source":"openstreetmap.org","min_zoom":8.0,"landuse_kind":"urban_area","shield_text":"36","ref":"36","id":427054525,"name:ja":"Shin-okashibetsu Bashi"},"arcs":[652]},{"type":"MultiLineString","properties":{"kind":"major_road","name:en":"National Route 235","name:ja":"Kokud\u014d 235 g\u014d","sort_rank":381,"kind_detail":"trunk","source":"openstreetmap.org","min_zoom":8.0,"shield_text":"235","ref":"235","network":"JP:national"},"arcs":[[653],[654],[655],[656],[657],[658],[659],[660],[661],[662],[663],[664],[665],[666],[667]]},{"type":"MultiLineString","properties":{"kind":"major_road","name:en":"Kanjo dori","name:ja":"Kanj\u014d d\u014dri","sort_rank":380,"landuse_kind":"urban_area","source":"openstreetmap.org","min_zoom":8.0,"kind_detail":"primary","ref":"89"},"arcs":[[668],[669],[670],[671],[672],[673]]},{"type":"MultiLineString","properties":{"source":"openstreetmap.org","kind":"major_road","sort_rank":380,"kind_detail":"primary","ref":"117","min_zoom":8.0},"arcs":[[674],[675]]},{"type":"MultiLineString","properties":{"kind":"major_road","name:en":"Sapporo shindo","name:ja":"Sapporo shind\u014d","sort_rank":381,"landuse_kind":"urban_area","source":"openstreetmap.org","min_zoom":8.0,"kind_detail":"trunk","shield_text":"274","ref":"274","network":"JP:national"},"arcs":[[676],[677],[678],[679]]},{"type":"MultiLineString","properties":{"kind":"major_road","name:en":"National Route 5","name:ja":"Kokud\u014d 5 g\u014d","sort_rank":381,"kind_detail":"trunk","source":"openstreetmap.org","min_zoom":8.0,"shield_text":"5","ref":"5","network":"JP:national"},"arcs":[[680],[681]]},{"type":"MultiLineString","properties":{"kind":"major_road","name:en":"Do-o-ken Renraku Road","network":"JP:national","sort_rank":381,"kind_detail":"trunk","source":"openstreetmap.org","min_zoom":8.0,"shield_text":"337","ref":"337","name:ja":"\u9053\u592e\u570f\u9023\u7d61\u9053\u8def"},"arcs":[[682],[683]]},{"type":"LineString","properties":{"kind":"major_road","network":"JP:national","sort_rank":381,"kind_detail":"trunk","source":"openstreetmap.org","min_zoom":8.0,"landuse_kind":"urban_area","shield_text":"37","id":471126661},"arcs":[684]},{"type":"LineString","properties":{"bus_network":null,"network":"JP:national","sort_rank":381,"landuse_kind":"urban_area","kind":"major_road","source":"openstreetmap.org","min_zoom":8.0,"bus_shield_text":"23","shield_text":"37","kind_detail":"trunk"},"arcs":[685]},{"type":"LineString","properties":{"bus_network":null,"sort_rank":380,"kind_detail":"primary","kind":"major_road","source":"openstreetmap.org","min_zoom":8.0,"bus_shield_text":"21","landuse_kind":"urban_area","ref":"107"},"arcs":[686]},{"type":"MultiLineString","properties":{"kind":"highway","name:en":"Doto Expressway","sort_rank":383,"landuse_kind":"urban_area","source":"openstreetmap.org","min_zoom":8.0,"kind_detail":"motorway","ref":"E38"},"arcs":[[687],[688],[689]]},{"type":"MultiLineString","properties":{"kind":"major_road","network":"JP:national","sort_rank":381,"kind_detail":"trunk","source":"openstreetmap.org","min_zoom":8.0,"shield_text":"337","ref":"337"},"arcs":[[690],[691]]},{"type":"LineString","properties":{"bus_network":null,"name:en":"Horobetsu Bridge","network":"JP:national","sort_rank":381,"kind_detail":"trunk","kind":"major_road","source":"openstreetmap.org","min_zoom":8.0,"bus_shield_text":"33","shield_text":"36","landuse_kind":"urban_area","ref":"36","id":434854426,"name:ja":"Horobetsu Bashi"},"arcs":[692]},{"type":"LineString","properties":{"source":"openstreetmap.org","kind":"major_road","sort_rank":380,"kind_detail":"primary","ref":"36","min_zoom":8.0},"arcs":[693]},{"type":"MultiLineString","properties":{"kind":"major_road","name:en":"Ebetsu Eniwa line","name:ja":"Ebetsu Eniwa sen","sort_rank":380,"kind_detail":"primary","source":"openstreetmap.org","min_zoom":8.0,"ref":"46"},"arcs":[[694],[695],[696]]},{"type":"MultiLineString","properties":{"source":"openstreetmap.org","kind":"major_road","sort_rank":380,"kind_detail":"primary","ref":"66","min_zoom":8.0},"arcs":[[697],[698]]},{"type":"LineString","properties":{"kind":"major_road","name:en":"Ugiri Bridge","network":"JP:national","sort_rank":381,"kind_detail":"trunk","source":"openstreetmap.org","min_zoom":8.0,"shield_text":"274","ref":"274","id":448066214,"name:ja":"Ugiri Bashi"},"arcs":[699]},{"type":"LineString","properties":{"kind":"major_road","name:en":"Shiraoi Otaki line","name:ja":"Shiraoi \u014ctaki sen","sort_rank":380,"kind_detail":"primary","source":"openstreetmap.org","min_zoom":8.0,"ref":"86"},"arcs":[700]},{"type":"MultiLineString","properties":{"kind":"major_road","name:en":"Sapporo ekimae dori","name:ja":"Sapporo ekimae d\u014dri","sort_rank":381,"landuse_kind":"urban_area","source":"openstreetmap.org","min_zoom":8.0,"kind_detail":"trunk","shield_text":"36","ref":"36","network":"JP:national"},"arcs":[[701],[702]]}]},"earth":{"type":"GeometryCollection","geometries":[{"type":"MultiPolygon","properties":{"sort_rank":10,"source":"naturalearthdata.com","min_zoom":0.0,"kind":"earth","area":38411914315},"arcs":[[[703]],[[704]]]}]},"landuse":{"type":"GeometryCollection","geometries":[{"type":"MultiPolygon","properties":{"source":"openstreetmap.org","kind":"military","tier":3,"area":54410374,"sort_rank":45,"min_zoom":8.0},"arcs":[[[705]],[[706]]]},{"type":"MultiPolygon","properties":{"source":"naturalearthdata.com","kind":"urban_area","name":"","area":1632499528,"sort_rank":11,"min_zoom":4.0},"arcs":[[[707]],[[708]],[[709]],[[710]],[[711]],[[712]],[[713]],[[714]]]},{"type":"Polygon","properties":{"kind":"park","natural":"wood","area":34133400,"sort_rank":24,"source":"openstreetmap.org","min_zoom":8.0,"tier":2,"id":68580912},"arcs":[[715]]},{"type":"Polygon","properties":{"kind":"aerodrome","natural":"heath","area":12983900,"sort_rank":60,"source":"openstreetmap.org","min_zoom":8.0,"tier":3,"id":57007929},"arcs":[[716]]}]}},"type":"Topology","transform":{"translate":[140.625,42.0329743324],"scale":[0.0003433228,0.0002529086]},"arcs":[[[2204,0],[-245,912],[179,100],[207,176],[168,100],[134,134],[156,87],[104,-5],[259,-110],[209,-19],[309,-271],[412,-154]],[[2204,0],[-245,912],[179,100],[207,176],[168,100],[134,134],[156,87],[104,-5],[259,-110],[209,-19],[309,-271],[412,-154]],[[2267,3908],[-26,46],[-107,74],[-13,68]],[[2160,4095],[-2,0]],[[2160,4095],[-2,0]],[[2158,4095],[-41,1]],[[2134,4096],[1,0]],[[2143,4096],[17,-1]],[[2160,4095],[31,1]],[[2297,4041],[-70,55]],[[2415,3995],[-84,22],[-31,21]],[[2365,4010],[48,-14],[70,-26],[49,-103],[194,-94],[45,-376],[317,-365]],[[3088,3032],[24,-29]],[[3088,3032],[245,34],[116,73],[29,92],[-30,134],[90,90],[218,49],[55,-63],[65,51],[141,-47],[69,51],[10,56]],[[2473,3980],[-73,-50],[-241,139],[-145,-26],[-2,53]],[[0,2170],[96,31],[99,-2],[45,-7],[35,-41]],[[275,2151],[67,-67],[12,-9],[12,-7]],[[275,2151],[91,-83]],[[529,1835],[-74,149],[-89,84]],[[529,1835],[19,-27]],[[2751,2362],[-565,-261],[-480,-404],[-190,-89],[-253,-282],[-112,-88],[-319,137],[-16,137],[-85,162],[-104,114],[-79,20]],[[2160,4095],[-2,0]],[[2160,4095],[-2,0]],[[2158,4095],[-41,1]],[[2134,4096],[1,0]],[[2143,4096],[17,-1]],[[2160,4095],[31,1]],[[2297,4041],[-70,55]],[[2415,3995],[-84,22],[-31,21]],[[2365,4010],[12,-3],[36,-11],[70,-26],[49,-103],[194,-94],[45,-376],[404,-465],[43,-92],[13,-224],[-84,-76],[-394,-177]],[[2160,4095],[-2,0]],[[2160,4095],[-2,0]],[[2158,4095],[-41,1]],[[2134,4096],[1,0]],[[2143,4096],[17,-1]],[[2160,4095],[31,1]],[[2297,4041],[-70,55]],[[2415,3995],[-115,43]],[[2432,3997],[54,29],[37,70]],[[2112,4096],[15,-110],[51,-32],[-43,-182]],[[2160,4095],[-2,0]],[[2160,4095],[-2,0]],[[2158,4095],[-41,1]],[[2134,4096],[1,0]],[[2143,4096],[17,-1]],[[2160,4095],[31,1]],[[2297,4041],[-70,55]],[[2415,3995],[-115,43]],[[2432,3997],[54,29],[37,70]],[[592,0],[-113,164],[-46,110],[-175,123],[-59,-29],[-56,-16],[-143,-13],[0,1805],[110,18],[69,-2],[137,-60],[489,-566],[31,-160],[17,-31],[25,-29],[60,-48],[80,-26],[36,-27],[-8,-42],[-25,-10],[-115,24],[-13,-15],[16,-36],[25,-38],[20,-21],[35,-17],[37,-4],[36,7],[33,14],[46,45],[165,241],[53,58],[225,164],[32,16],[33,12],[35,4],[35,12],[57,56],[81,38],[481,380],[355,146],[253,57],[261,6],[265,-70],[207,-118],[62,-16],[48,-28],[161,-191],[146,-96],[0,-1791],[-3504,0]],[[592,0],[-113,164],[-46,110],[-175,123],[-59,-29],[-56,-16],[-143,-13]],[[0,2144],[110,18],[69,-2],[137,-60],[489,-566],[31,-160],[17,-31],[25,-29],[60,-48],[80,-26],[36,-27],[-8,-42],[-25,-10],[-115,24],[-13,-15],[16,-36],[25,-38],[20,-21],[35,-17],[37,-4],[36,7],[33,14],[46,45],[165,241],[53,58],[225,164],[32,16],[33,12],[35,4],[35,12],[57,56],[81,38],[481,380],[355,146],[253,57],[261,6],[265,-70],[207,-118],[62,-16],[48,-28],[161,-191],[146,-96]],[[3100,3149],[46,103]],[[3146,3252],[-46,-103]],[[3147,3253],[31,68]],[[3179,3321],[-32,-68]],[[616,2430],[-7,4]],[[1775,1801],[90,53],[31,143],[99,69]],[[2144,2141],[130,29],[140,112]],[[2481,2339],[41,35],[451,179],[15,175]],[[2585,3626],[84,-105],[19,-31],[3,-8],[5,-22],[-4,-69],[35,-127],[92,-62]],[[2864,3163],[-137,99],[-35,129],[-5,99],[-101,135]],[[2917,2981],[-17,101]],[[2987,2796],[-37,82]],[[2202,4078],[188,-141],[85,59],[47,87]],[[3069,2930],[0,-1]],[[1872,3960]],[[1344,1429],[24,30]],[[1391,1485],[11,-10]],[[3479,3401],[11,0]],[[1854,4008],[-19,-26]],[[1835,3982],[37,-22]],[[1872,3960],[58,-25]],[[1936,3925],[84,-87]],[[3453,2490],[13,14]],[[2437,3915],[-8,-10],[-10,10]],[[2419,3917],[18,-2]],[[2145,4074],[1,0]],[[2853,2455],[0,4]],[[2854,2439],[-1,2]],[[0,2988],[65,-39]],[[2103,3860],[38,173]],[[2152,4030],[-47,-177]],[[2869,2405],[5,-9]],[[1169,1226],[8,-10]],[[2173,4028],[-7,-9]],[[1990,2658],[-1,0]],[[2092,2769],[-1,0]],[[2122,2780],[-3,0]],[[2141,2784],[-2,1]],[[2264,2804],[-2,0]],[[2458,4044],[3,2]],[[1599,1642],[0,1]],[[557,2105],[1,-3]],[[585,2104],[5,-1]],[[1562,3789]],[[1231,1270],[-12,-7]],[[764,1763],[1,3]],[[2105,3853],[-8,11]],[[1019,1375],[-63,30]],[[1129,1379],[-17,49],[-64,-28]],[[3095,3021],[-11,13],[-14,21],[3,31]],[[3073,3088],[27,61]],[[3074,3087],[21,-65]],[[3100,3149],[-20,-46]],[[2130,4071],[-4,25]],[[2127,4096],[5,-24]],[[4096,2568],[-110,-11],[-334,182]],[[2261,4093],[-102,-66]],[[2265,4096],[-4,-3]],[[2261,4093],[3,3]],[[989,1382],[-2,9]],[[2162,4065]],[[2937,3073],[44,28],[-45,-28]],[[2160,4086],[-1,-9]],[[2132,3962],[-9,-1]],[[2078,3549],[9,18]],[[2134,3896],[29,27]],[[3868,2141],[111,4]],[[1835,3982]],[[1138,1286],[7,-12]],[[1032,1122],[6,1],[8,0]],[[1044,1123],[-11,-1]],[[1231,1270],[3,4]],[[1396,1471],[-6,-1]],[[4032,3807],[60,59],[4,-1]],[[3872,3494],[-7,-2]],[[998,1299],[-50,19]],[[2198,4043],[188,-108],[47,11]],[[2433,3945],[-25,-14],[-19,3],[-3,1],[-54,26],[-88,47],[-46,34]],[[3096,2609],[-2,1]],[[1713,1737],[11,12]],[[939,1327],[11,-9],[2,-14],[-4,-43]],[[947,1262],[3,55]],[[223,3031],[140,-12],[145,-92]],[[621,2507],[4,-21],[-45,-4],[29,-48]],[[1177,1216],[-19,-13]],[[1158,1203],[19,13]],[[2649,2307],[-1,0]],[[2152,4030],[-10,3]],[[4032,3807],[-3,-97],[67,-58]],[[1993,4096],[-31,-72]],[[1867,4031],[-13,-23]],[[3069,2929],[5,-33]],[[3076,2882],[-2,14]],[[3076,2882],[22,-50]],[[1049,1123],[13,2],[20,48],[9,11],[55,21]],[[1146,1205],[-54,-22],[-9,-11],[-4,-15],[-17,-32],[-11,-3]],[[2036,1969],[-1,-2]],[[431,2071],[-65,1]],[[915,2950],[-40,-88],[-60,-18]],[[815,2844],[-5,-5]],[[905,2994],[158,44],[55,115]],[[910,2988],[-5,6]],[[923,2972],[-13,16]],[[915,2950],[3,5]],[[918,2955],[6,7]],[[923,2972],[1,-10]],[[1123,3180],[-5,-27]],[[1123,3180],[63,50],[107,-19]],[[1123,3182],[4,7]],[[1328,3232],[-29,7],[-6,-28]],[[1293,3211],[6,28],[29,-7]],[[1328,3232],[-6,-17],[52,41]],[[1377,3259],[-3,-3]],[[1377,3259],[48,55],[60,-7],[33,24],[-45,91]],[[1838,3667],[-22,-18],[-7,-1],[-35,5],[-54,42],[54,-42],[64,14]],[[2917,2450],[1,1]],[[2918,2450],[-1,0]],[[2099,4066],[-14,-3]],[[2099,4066],[18,3]],[[2029,3836],[52,-14]],[[2087,3821],[-1,0]],[[2091,3820],[-4,1]],[[2198,3814],[-107,6]],[[1383,1465],[3,3]],[[1966,1910],[-1,-1]],[[897,1373],[-45,5]],[[950,1317],[-11,9]],[[1163,2306],[0,-12]],[[2078,3549],[-8,-132],[66,-84],[-180,-136],[24,-14],[-28,-23],[3,-43],[-35,-5],[14,-36],[110,-23],[-24,-18],[89,6],[221,-160],[30,10],[13,-30]],[[2555,3613],[-24,50],[-32,30]],[[2499,3693],[-82,77]],[[2493,3703],[6,-10]],[[2499,3693],[51,-79]],[[2158,4096],[2,-10]],[[2461,4046],[16,10]],[[1048,3570],[-169,-97],[-132,-126]],[[1496,3729],[-122,76],[-163,-54]],[[792,1654],[-65,75]],[[815,1490],[-3,24]],[[852,1378],[-14,24]],[[948,1318],[-62,25],[11,30]],[[939,1326],[-2,1]],[[2336,4046],[11,0]],[[2347,4046],[-10,-1]],[[2347,4046],[111,-2]],[[2141,3957],[57,-8],[76,102]],[[2274,4051],[-76,-102],[-32,-2]],[[3747,3502],[-7,-6]],[[2063,2082],[-68,113]],[[2747,3440],[-47,17]],[[1145,1274],[49,85],[40,-85]],[[1177,1232],[-8,-6]],[[1178,1234],[41,29]],[[956,1405],[-103,-27]],[[1020,1375],[-1,0]],[[1130,1378],[-1,1]],[[1136,1351],[2,-65]],[[1178,1234],[-1,-2]],[[1230,1270],[2,1]],[[2154,4016],[5,11]],[[1981,3867],[-51,68]],[[1599,3705],[3,2]],[[2085,4063],[-61,-9]],[[2087,3567],[19,277]],[[2966,3122],[62,71]],[[1051,1122],[-7,1]],[[1046,1123],[2,0]],[[1838,3667],[86,6]],[[1924,3673],[-86,-6]],[[3021,3108],[-1,0]],[[2550,3614],[17,-26]],[[2567,3588],[1,-2]],[[2568,3585],[-1,3]],[[2567,3588],[-12,25]],[[2324,2161],[-1,0]],[[3111,3863],[-111,-37],[-192,-14]],[[3128,3855],[120,32],[144,-30]],[[2457,3739],[-11,-15],[10,15]],[[1843,1806]],[[1553,3669],[46,36]],[[3090,2559],[-19,17]],[[3206,2594],[243,285]],[[3461,3404],[-72,430],[1,51],[61,45],[-58,139],[-55,27]],[[3512,2943],[-63,-64]],[[3461,3404],[-1,-12]],[[3512,2943],[17,79],[-69,370]],[[1390,1470],[-4,-2]],[[2847,2374],[-14,22]],[[2021,3992],[133,24]],[[2069,1996],[-2,0]],[[2156,4042],[337,-339]],[[1048,1123],[1,0]],[[2117,4069],[-4,19]],[[2113,4088],[4,-19]],[[2126,4071],[-9,-2]],[[2136,4073],[9,1]],[[2146,4074],[52,10]],[[2152,4046],[-31,-3]],[[2122,4044],[21,4],[9,-2]],[[2156,4042],[-4,4]],[[0,3740],[5,0]],[[90,3764],[-83,-25]],[[908,2989],[-132,63],[-1,194],[-27,99],[-35,-5],[-117,90],[-224,14]],[[1292,2750],[26,-80],[87,-37]],[[1424,2636],[-1,0]],[[1442,2635],[-3,0]],[[1498,2651],[-1,-3]],[[1519,2657],[-1,0]],[[1534,2653],[-2,1]],[[1554,2649],[-2,-1]],[[1564,2650],[-2,-1]],[[1573,2652],[-2,0]],[[1651,2671],[-54,-14]],[[1664,2676],[-3,-3]],[[1676,2684],[-5,-1]],[[1678,2684],[-1,0]],[[1682,2686],[-3,-1]],[[1687,2688],[-3,-1]],[[1693,2689],[-3,0]],[[1695,2706],[4,-5]],[[1698,2690],[-1,-1]],[[1731,2703],[-2,0]],[[1838,2723],[-10,-7]],[[1940,2659],[-25,23]],[[2095,3714],[2,8]],[[2100,3737],[-2,-10]],[[1120,1253],[44,-20]],[[2219,4093],[4,3]],[[2132,3962],[9,-5]],[[3034,3091]],[[2086,3821],[-5,1]],[[1020,1375]],[[3740,3496],[-41,-7],[-114,140],[-279,-32],[-133,34],[-365,181]],[[3836,3468],[-40,-7],[-49,41]],[[3865,3492],[-20,-22]],[[4092,3498],[-73,-54],[-147,50]],[[1576,3716],[6,-22]],[[1296,2483],[61,-3],[84,64],[91,-3],[69,-81],[122,-33],[160,-106],[112,-126]],[[2477,4056],[26,-29],[-26,29]],[[3847,2146],[2,-1]],[[3522,2361],[-1,3]],[[3552,2257],[-7,7]],[[2768,3360],[-22,-20]],[[2746,3340],[-2,-2]],[[1368,1459],[23,26]],[[2402,2199],[-1,-1]],[[1032,1124],[1,-2]],[[1032,1124],[1,-1],[0,-1]],[[1146,1205],[12,-2]],[[1158,1203],[-12,2]],[[1177,1216],[53,54]],[[1231,1270],[-44,-47],[-10,-7]],[[1309,1380],[74,85]],[[1386,1468],[68,60]],[[1454,1530],[41,47]],[[1879,1840],[-35,-34]],[[1946,1893],[-35,-27]],[[1947,1894],[0,-1]],[[1999,1937],[-24,-20]],[[2097,2013],[-2,-1]],[[2178,2074],[-76,-57]],[[2553,2269],[-72,-34]],[[2612,2295],[-57,-25]],[[2648,2307],[-36,-12]],[[2751,2331],[-102,-24]],[[2747,3440],[9,-4]],[[2842,2371],[-90,-39]],[[2894,2413],[-52,-42]],[[2917,2450],[-29,-13]],[[2888,2437],[29,13]],[[2894,2413],[-6,24]],[[2918,2451],[97,60]],[[3016,2511],[6,-13],[-104,-48]],[[3002,3098],[-23,5],[42,5],[116,-145]],[[3034,3091],[-11,2]],[[3136,2962],[-102,129]],[[1947,1893],[-1,0]],[[1557,1730],[41,-21],[13,-42]],[[3023,2662],[-9,6]],[[3015,2669],[8,-7]],[[3023,2662],[67,-48]],[[225,2218],[-47,-15],[-117,39],[-61,69]],[[0,2312],[61,-70],[117,-38],[50,15]],[[441,2074],[-29,4],[-28,20],[-73,56],[-12,18],[-7,18],[-55,29]],[[237,2219],[55,-29],[120,-112],[26,-3],[5,-1],[30,-18],[6,-7],[2,-3],[4,-8],[34,-86],[110,-75],[56,-39],[39,-13],[60,-41],[51,-96],[44,-128],[105,-149],[128,-26],[32,7],[33,12],[6,1],[7,1],[75,6]],[[1265,1411],[-153,-26],[-129,26],[-104,149],[-96,223],[-98,55],[-167,113],[-39,97],[-36,26]],[[1326,1474],[-2,39],[14,21],[27,22],[12,7],[174,82],[7,7],[51,50],[2,1],[87,29]],[[1698,1732],[15,5]],[[1996,2066],[-100,-69],[-35,-149],[-61,-25],[-84,-85],[-18,-6]],[[1698,1732],[-87,-29],[-59,-59],[-186,-89],[-41,-42],[1,-38]],[[1724,1749],[51,52]],[[2415,2282],[-140,-112],[-130,-30]],[[2991,2728],[-17,-176],[-452,-178],[-40,-36]],[[2819,3202],[40,-51]],[[2901,3081],[17,-100]],[[2950,2881],[37,-78]],[[2872,3105],[-46,-9],[-127,-95],[-140,7],[-180,-33],[-19,-84]],[[727,1729],[-113,73]],[[938,1327],[1,0]],[[1027,1291],[29,-3]],[[1164,1233],[5,-7]],[[2131,4072],[-2,9]],[[2130,4081],[2,-9]],[[2446,3724],[-72,58],[-25,48],[-112,56],[-31,25],[0,1],[-4,39]],[[2202,3952],[5,-41],[143,-80],[97,-107]],[[2620,3840],[-109,56]],[[2511,3896],[109,-55]],[[3699,3444],[-2,-1]],[[3453,4096],[-42,-49]],[[0,3743],[7,-4]],[[2020,3838],[9,-2]],[[2620,3841],[174,-27]],[[2794,3813],[-174,27]],[[2801,3814],[0,-1]],[[2335,4050],[-7,16]],[[2329,4069],[6,-19]],[[3167,2548],[-49,42]],[[3120,2595],[45,-45]],[[3167,2549],[45,-7]],[[3212,2541],[-36,3]],[[4096,3500],[-4,-2]],[[765,2073],[-19,31],[-17,-29],[-51,-6],[-169,57]],[[969,2157],[58,-20],[32,-83],[42,-29],[39,6],[-13,-38],[23,-8],[2,30],[45,-16],[62,71],[144,-45],[10,-175],[61,-20],[-8,-68],[91,-32]],[[2681,4096],[4,-28]],[[2735,3783],[16,-83]],[[2753,3609],[1,12]],[[2754,3621],[0,-12]],[[2759,3681],[2,-48]],[[2477,4056]],[[1995,2066],[149,75]],[[2323,4096],[127,-233]],[[2450,3862],[-49,68]],[[2414,2282],[67,57]],[[2586,3625],[-91,97]],[[2500,3718],[57,-57],[5,-6],[23,-29]],[[2900,3082],[-36,81]],[[2950,2878],[-33,103]],[[2988,2728],[-1,68]],[[1048,1400],[-28,-25]],[[2892,2411],[1,1]],[[3073,3086],[0,2]],[[1236,1276],[0,1]],[[1887,1848],[-3,-3]],[[2837,2479],[23,-55]],[[2853,2441],[0,14]],[[2860,2424],[-6,15]],[[2874,2396],[-14,28]],[[2078,2071],[-15,11]],[[2103,2018],[-2,3]],[[1219,1263],[11,7]],[[2102,2017],[-5,-4]],[[4096,2177],[-6,-1],[-48,-41],[-63,10]],[[2909,3185],[-61,108],[10,22],[-1,36]],[[2857,3351],[0,31],[0,1]],[[2857,3383],[-76,40],[-34,17]],[[2756,3436],[25,-13],[76,-40]],[[2857,3383],[0,-32]],[[2857,3351],[1,-36],[-10,-22],[61,-108]],[[2979,3103],[-70,82]],[[2166,4019],[0,-1]],[[2166,4018],[-3,-95]],[[2185,4042],[-23,23]],[[2162,4065],[23,-22]],[[1326,1475],[1,-28],[0,-1],[-16,-21],[-18,-10],[-6,-1],[-22,-3]],[[1265,1412],[46,13],[15,49]],[[2145,2140],[-149,-74]],[[2401,3930],[-78,166]],[[2482,2338],[-67,-56]],[[2495,3722],[-22,29]],[[2473,3751],[-2,3],[-5,9],[-6,26],[-10,73]],[[2450,3863],[10,-74],[7,-26],[3,-8],[3,-4]],[[2473,3751],[2,-5]],[[2859,3151],[42,-70]],[[2918,2981],[32,-100]],[[2987,2803],[4,-75]],[[228,2219],[9,0]],[[237,2219],[-9,-1]],[[443,2074],[-2,0]],[[1234,1274],[2,2]],[[1236,1277],[148,188]],[[2011,4052],[-29,-7],[-52,51]],[[2126,4071],[10,2]],[[3159,2796],[87,-3],[28,-122]],[[3274,2671],[-1,11]],[[3274,2671],[69,-58]],[[432,3440],[8,119],[77,-5],[61,67],[55,-11],[108,65],[-21,73],[25,98],[-34,22],[-16,96],[-57,59],[44,9],[65,64]],[[2198,3814],[17,33]],[[0,301],[46,49],[244,26],[90,-54],[121,-202],[38,-117],[6,-3]],[[3450,3924],[50,9],[85,-30],[161,91],[114,-88],[49,38]],[[143,2221],[-49,26],[-94,-3]],[[812,1514],[-20,140]],[[838,1402],[-23,88]],[[431,2071],[78,55],[-78,142],[75,78],[40,146],[87,20],[-23,93],[71,53],[12,73],[117,108]],[[1473,3422],[-36,15],[20,70],[-17,42],[113,120]],[[1602,3707],[28,-7]],[[1720,3695],[-63,5]],[[2794,3814],[7,0]],[[2801,3813],[-7,0]],[[2132,4072],[10,-39],[-8,27]],[[2134,4060],[-3,8]],[[2131,4068],[-1,3]],[[2137,4038],[-1,7],[-5,23]],[[2131,4068],[0,4]],[[2132,4072],[2,-12]],[[2134,4060],[2,-14],[1,-4]],[[357,3425],[-42,-13],[-94,37],[-105,-18],[3,-39],[-33,8],[-55,-87],[-31,-5]],[[2097,3722],[3,15]],[[1177,1216],[-8,10]],[[3023,3093],[-21,5]],[[1292,2750],[-192,137],[-139,21],[-39,52]],[[1423,2636],[-18,-3]],[[1439,2635],[-15,1]],[[1497,2648],[-55,-13]],[[1518,2657],[-20,-6]],[[1532,2654],[-13,3]],[[1552,2648],[-18,5]],[[1562,2649],[-8,0]],[[1571,2652],[-7,-2]],[[1597,2657],[-24,-5]],[[1661,2673],[-10,-2]],[[1671,2683],[-7,-7]],[[1677,2684],[-1,0]],[[1679,2685],[-1,-1]],[[1684,2687],[-2,-1]],[[1690,2689],[-3,-1]],[[1697,2689],[-4,0]],[[1729,2703],[-58,-1],[24,4]],[[1699,2701],[-1,-11]],[[1828,2716],[-97,-13]],[[1915,2682],[-77,41]],[[1989,2658],[-49,1]],[[2091,2769],[-101,-111]],[[2119,2780],[-27,-11]],[[2139,2785],[-17,-5]],[[2262,2804],[-77,-31],[-44,11]],[[2837,2479],[-41,51],[-355,234],[-68,97],[-109,-57]],[[372,3432],[-26,73],[-38,22],[-32,-12],[-41,53],[-41,116],[-105,74],[34,52],[-2,82],[58,175],[39,29]],[[1630,3700],[9,5],[18,-5],[-18,4],[-9,-4]],[[546,40],[-146,-40]],[[501,120],[45,-80]],[[546,40],[40,-40]],[[2592,2288],[-43,33]],[[3094,2611],[1,1]],[[3462,3401],[8,0]],[[3657,2208],[-2,0]],[[288,2209],[-9,0]],[[299,2265],[-20,-56]],[[288,2209],[-1,-59]],[[299,2265],[2,2]],[[301,2267],[-25,91],[60,102],[69,27],[14,204],[76,53],[35,72],[-15,73]],[[517,2923],[118,43],[35,45],[67,124],[-4,124],[22,8]],[[952,1315],[37,67]],[[371,3424],[-14,1]],[[2862,3412],[-52,-105]],[[3098,2832],[61,-36]],[[3151,3361],[2,0]],[[2032,4010],[-21,42]],[[2011,4052],[21,-42]],[[2032,4010],[35,-54]],[[2267,3873],[-52,-26]],[[2267,3873],[16,21]],[[2292,2820],[6,-85],[-20,-30],[65,-111],[78,-47],[48,-136],[80,-90]],[[2244,2125],[-1,-2]],[[367,3369],[1,7]],[[2085,3832],[-9,-9]],[[1177,1216]],[[1014,1136],[-10,13]],[[1023,1129],[-9,7]],[[1030,1127],[-7,2]],[[1032,1124],[-2,3]],[[1030,1127],[2,-3]],[[1495,1577],[104,65]],[[1599,1643],[140,65],[104,98]],[[1844,1806],[-1,0]],[[1884,1845],[-5,-5]],[[1911,1866],[-24,-18]],[[1965,1909],[-18,-15]],[[1975,1917],[-9,-7]],[[2035,1967],[-36,-30]],[[2067,1996],[-31,-27]],[[2095,2012],[-26,-16]],[[2243,2123],[-65,-49]],[[2323,2161],[-79,-36]],[[2401,2198],[-77,-37]],[[2481,2235],[-79,-36]],[[2700,3457],[-34,64],[-98,64]],[[2568,3586],[98,-65],[37,-67],[44,-14]],[[3015,2511],[-7,15],[63,50],[89,147],[-24,239]],[[3137,2963],[22,-60],[1,-180],[-66,-113],[-23,-34],[-62,-50],[7,-15]],[[613,1812],[146,255],[37,15]],[[810,2086],[-14,-4]],[[1163,2294],[6,-113],[-261,-33],[-98,-62]],[[1402,2620],[-27,-66],[-190,-181],[-22,-67]],[[1528,1729],[-5,14]],[[1978,4016],[-16,8]],[[1979,4009],[-1,7]],[[1979,4009],[88,-53]],[[2801,3315],[-59,87]],[[2754,3621]],[[2754,3436],[5,8]],[[2761,3473],[-2,-29]],[[2761,3473],[0,2]],[[2839,3277],[-38,38]],[[2801,3315],[39,-38]],[[2751,3700],[8,-19]],[[2102,3862],[2,-1]],[[3080,3103],[-6,-16]],[[1598,1709],[-41,21]],[[2862,3412],[86,174],[48,9],[51,99]],[[3128,3855],[108,214],[119,12]],[[908,2989],[1,0]],[[3128,2518]],[[2555,2270],[-2,-1]],[[2198,4084]],[[1885,4063],[-18,-32]],[[1897,4096],[-12,-32]],[[0,2292],[28,-50]],[[3120,2594],[-120,81]],[[3000,2676],[78,-52],[42,-29]],[[3212,2541],[168,-13],[130,-72],[41,-147],[110,-56],[179,-74],[74,-35],[80,-112],[102,-63]],[[3522,2365],[-2,9],[-6,36],[-4,46],[-130,72],[-141,9],[-27,4]],[[4096,1968],[-102,64],[-80,112],[-62,24],[-12,11],[-76,30],[-103,43],[-102,51],[-8,6],[-13,16],[-15,38]],[[2433,3946],[16,-24]],[[2223,4096],[-25,-12]],[[2166,3947],[-18,5]],[[609,2434],[149,-31],[106,-122],[-11,-77],[-97,-110]],[[2475,3746],[25,-28]],[[3568,2872],[-56,70]],[[3568,2872],[9,-5]],[[3577,2867],[50,-30],[4,-87],[101,-191],[55,-168],[3,-256]],[[3212,2541],[-45,7],[-47,46]],[[3120,2595],[16,-12],[31,-35],[45,-7]],[[2612,2295]],[[614,1802],[-122,86],[-180,245],[-90,71],[-79,17]],[[1928,3673],[111,10]],[[2044,3689],[-5,-6]],[[2044,3689],[28,121]],[[2086,3833],[-14,-23]],[[2086,3833],[3,195]],[[2089,4028],[-4,35]],[[30,2238],[-2,4]],[[558,2102],[27,2]],[[3165,2550],[2,-1]],[[3176,2544],[-9,4]],[[2742,3402],[-7,10]],[[2761,3475],[-8,70]],[[3969,4096],[-74,-116],[48,-76],[70,-23],[13,-75]],[[2522,4083],[4,13]],[[737,1723],[27,40]],[[998,1299],[29,-8]],[[1056,1288],[64,-35]],[[2387,3950],[-24,45]],[[2364,3995],[24,-44]],[[228,2218],[-3,0]],[[1932,3079],[-81,-69],[-16,-53],[35,-38],[-48,-74],[30,-126]],[[1885,4064],[0,-1]],[[1412,4096],[77,-201],[73,-106]],[[1562,3789],[-5,-25],[-67,-30],[86,-18]],[[351,3301],[16,68]],[[368,3376],[3,53]],[[2966,3122],[-94,-17]],[[1924,3673]],[[3486,2913],[-79,-46],[-249,36]],[[3537,2287],[-2,10]],[[2806,3220],[9,8]],[[2815,3228],[-8,-7]],[[2884,3324],[25,40],[202,1]],[[3296,3357],[-50,-20],[-135,28]],[[3111,3365],[40,-4]],[[3153,3361],[143,-4]],[[3296,3357],[125,44]],[[3513,3406],[-92,-5]],[[3421,3401],[41,0]],[[3470,3401],[9,0]],[[3490,3401],[23,5]],[[3513,3406],[161,24]],[[3697,3443],[-23,-13]],[[3674,3430],[71,50]],[[3745,3480],[-46,-36]],[[3745,3480],[127,21],[89,-39]],[[4017,3450],[-56,12]],[[4017,3450],[79,42]],[[2449,3922],[62,-26]],[[2511,3896],[-59,24]],[[2198,4042],[-13,0]],[[2185,4043],[13,0]],[[2752,2332],[-1,-1]],[[944,1229],[3,33]],[[948,1261],[-2,-39]],[[2024,4054],[-3,16]],[[3523,2363],[-1,2]],[[2106,3844],[28,52]],[[2437,3915],[12,7]],[[2452,3920],[-15,-5]],[[3124,2525],[-34,34]],[[3136,2522],[-12,3]],[[3136,2522],[24,21]],[[3186,2569],[-26,-26]],[[3186,2569],[20,25]],[[2452,3920],[-19,25]],[[1454,1528],[0,2]],[[3118,2590],[-24,21]],[[3095,2612],[25,-17]],[[3212,2542],[153,-14]],[[3365,2528],[-153,13]],[[3521,2364],[-16,97],[-140,67]],[[3535,2297],[-13,64]],[[3545,2264],[-8,23]],[[3655,2208],[-103,49]],[[3809,2135],[-152,73]],[[3841,2147],[-32,-12]],[[3809,2135],[20,10],[12,2]],[[3841,2147],[6,-1]],[[3849,2145],[44,-11],[84,-111]],[[3977,2023],[51,-48]],[[4028,1975],[68,-56]],[[2067,3956],[50,5]],[[2123,3961],[-6,0]],[[2117,3961],[15,1]],[[2148,3952],[-16,10]],[[2274,4051],[8,45]],[[2283,4096],[-1,-12],[-8,-33]],[[2722,3313],[-235,-113],[-157,22],[-38,63],[-91,37],[-105,-27]],[[2722,3313],[22,25]],[[2363,3995],[-14,28],[-27,73]],[[2324,4096],[40,-101]],[[2419,3915],[-19,15],[-13,20]],[[2388,3951],[31,-34]],[[65,2949],[92,1],[145,156],[49,195]],[[371,3429],[1,3]],[[3146,3252],[1,1]],[[3147,3253],[-1,-1]],[[928,1328],[17,-5]],[[945,1323],[34,-21]],[[1136,1351],[-6,27]],[[2815,3228],[39,32]],[[2854,3260],[-39,-32]],[[2854,3260],[30,64]],[[3047,3694],[81,161],[-108,54],[-76,106],[66,45],[-24,36]],[[3028,3193],[128,75],[44,200],[-27,163]],[[1386,1468],[-2,-3]],[[638,4023],[-67,3],[-7,70]],[[2685,4068],[50,-285]],[[2707,3452],[28,-40],[-29,40]],[[2754,3609],[-1,-64],[0,64]],[[223,3031],[-58,28],[-90,130],[-75,7]],[[744,2793],[-66,59],[-163,37],[-7,38]],[[3845,3470],[-9,-2]],[[2101,2021],[-23,50]],[[2121,4043],[-4,26]],[[2117,4069],[5,-25]],[[0,0],[0,339],[143,13],[56,16],[59,29],[175,-123],[46,-110],[113,-164],[-592,0]],[[4096,4096],[0,-2305],[-146,96],[-161,191],[-48,28],[-62,16],[-207,118],[-265,70],[-261,-6],[-253,-57],[-355,-146],[-481,-380],[-81,-38],[-57,-56],[-35,-12],[-35,-4],[-33,-12],[-32,-16],[-225,-164],[-53,-58],[-165,-241],[-46,-45],[-33,-14],[-36,-7],[-37,4],[-35,17],[-20,21],[-25,38],[-16,36],[13,15],[115,-24],[25,10],[8,42],[-36,27],[-80,26],[-60,48],[-25,29],[-17,31],[-31,160],[-489,566],[-137,60],[-69,2],[-110,-18],[0,1952],[4096,0]],[[2920,3059],[101,48],[39,-194],[-39,39],[-31,-13],[-16,86],[-28,-18],[-26,52]],[[3122,3184],[66,94],[124,1],[20,-108],[-52,-14],[-25,-39],[-112,15],[-21,51]],[[779,1617],[-24,-26],[-193,224],[214,-55],[34,-51],[-31,-92]],[[1359,1419],[-218,-299],[-79,-59],[-73,-3],[65,102],[0,53],[-116,53],[-85,77],[-44,171],[80,-5],[77,-121],[97,-24],[200,46],[177,182],[76,-21],[18,-24],[-175,-128]],[[454,3255],[-69,5],[-40,48],[12,123],[53,-6],[32,-34],[12,-136]],[[2952,3241],[188,-118],[-32,-87],[30,-61],[-8,-82],[-87,-165],[-64,0],[9,78],[49,83],[-26,58],[-52,-17],[-13,-70],[-97,44],[2,53],[95,35],[10,44],[-107,87],[33,88],[-111,28],[-35,126],[16,110],[97,0],[30,-146],[73,-88]],[[2752,3606],[-57,55],[-8,121],[43,3],[87,-47],[-65,-132]],[[2404,4096],[57,-50],[82,50],[167,0],[-48,-53],[-71,2],[31,-219],[-64,-44],[-2,-46],[35,-130],[-228,44],[-32,88],[-47,29],[-105,-93],[-9,-156],[-259,88],[5,59],[84,84],[40,121],[-32,66],[-162,109],[-9,51],[567,0]],[[2173,2079],[57,-63],[-432,-323],[56,140],[56,17],[1,44],[64,0],[0,43],[65,0],[65,88],[-14,47],[-102,-6],[-14,47],[9,76],[93,50],[28,50],[43,-7],[-11,-125],[36,-78]],[[3205,2596],[34,-294],[-293,2],[-253,-57],[-195,-80],[-20,83],[-80,40],[35,71],[30,-1],[62,-71],[65,88],[65,0],[0,44],[65,0],[32,44],[259,43],[65,35],[41,44],[56,141],[64,-44],[-32,-88]],[[2525,4049],[13,20],[42,-24],[-24,39],[19,12],[65,-5],[5,-38],[39,-1],[8,-69],[-24,-9],[33,-55],[-35,-1],[21,-9],[-13,-15],[28,-2],[-25,-11],[23,-3],[-58,8],[-9,16],[12,-3],[39,8],[-37,-2],[15,12],[-99,0],[-38,132]],[[3034,3092],[79,-96],[13,-147],[-32,77],[-39,5],[-21,161]]]}