{"objects":{"water":{"type":"GeometryCollection","geometries":[{"type":"Polygon","properties":{"kind":"lake","name":"Siri Kit Dam","reservoir":true,"area":298992160,"sort_rank":200,"source":"naturalearthdata.com","min_zoom":0.0,"id":1252},"arcs":[[383]]},{"type":"MultiPolygon","properties":{"source":"naturalearthdata.com","kind":"ocean","area":1576712559132672,"sort_rank":200,"min_zoom":0.0,"id":1},"arcs":[[[384]],[[385]]]},{"type":"Polygon","properties":{"kind":"lake","name":"Bhumphol K. K. Nam","reservoir":true,"area":135855616,"sort_rank":200,"source":"naturalearthdata.com","min_zoom":0.0,"id":1251},"arcs":[[386]]},{"type":"Point","properties":{"label_placement":true,"kind":"lake","name":"Siri Kit Dam","reservoir":true,"area":298992160,"sort_rank":200,"source":"naturalearthdata.com","min_zoom":0.0,"id":1252},"coordinates":[3520,988]},{"type":"Point","properties":{"label_placement":true,"kind":"lake","name":"Bhumphol K. K. Nam","reservoir":true,"area":135855616,"sort_rank":200,"source":"naturalearthdata.com","min_zoom":0.0,"id":1251},"coordinates":[2400,508]},{"type":"MultiLineString","properties":{"source":"naturalearthdata.com","kind":"ocean","sort_rank":205,"boundary":true,"min_zoom":0.0,"id":79},"arcs":[[387],[388]]},{"type":"LineString","properties":{"source":"naturalearthdata.com","kind":"lake","reservoir":true,"sort_rank":367,"boundary":true,"min_zoom":0.0,"id":1251},"arcs":[389]},{"type":"LineString","properties":{"source":"naturalearthdata.com","kind":"lake","reservoir":true,"sort_rank":367,"boundary":true,"min_zoom":0.0,"id":1252},"arcs":[390]}]},"buildings":{"type":"GeometryCollection","geometries":[]},"places":{"type":"GeometryCollection","geometries":[{"type":"Point","properties":{"name:ka":"\u10db\u10d8\u10d0\u10dc\u10db\u10d0\u10e0\u10d8","name:ko":"\ubbf8\uc580\ub9c8","name:cv":"\u041c\u044c\u044f\u043d\u043c\u0430","name:km":"\u1798\u17b8\u1799\u17c9\u17b6\u1793\u17cb\u1798\u17c9\u17b6","name:kl":"Burma","name:cs":"Myanmar","name:ki":"Myama","name:kw":"Byrmani","name:kv":"\u041c\u044c\u044f\u043d\u043c\u0430","name:ku":"Myanmar","name:ti":"\u121b\u12eb\u1295\u121b\u122d","name:ks":"\u0645\u064e\u06cc\u064e\u0646\u0645\u0627 \u0628\u0654\u0631\u0645\u0627","name:to":"Pema","name:tl":"Myanmar","name:ce":"\u041c\u044c\u044f\u043d\u043c\u0430","name:ta":"\u0bae\u0bbf\u0baf\u0bbe\u0ba9\u0bcd\u0bae\u0bbe\u0bb0\u0bcd [\u0baa\u0bb0\u0bcd\u0bae\u0bbe]","name:tg":"\u041c\u044f\u043d\u043c\u0430","name:ca":"Myanmar","name:te":"\u0c2e\u0c4d\u0c2f\u0c3e\u0c28\u0c4d\u0c2e\u0c3e\u0c30\u0c4d","name:cy":"Myanmar [Byrma]","name:hr":"Mijanmar (Burma)","name:da":"Myanmar","name:de":"Myanmar","name:dz":"\u0f58\u0f72\u0f0b\u0f61\u0f71\u0f53\u0f0b\u0f58\u0f62\u0f0b [\u0f56\u0fb7\u0f62\u0f0b\u0f58]","source":"openstreetmap.org","name:kn":"\u0cae\u0caf\u0ca8\u0ccd\u0cae\u0cbe\u0cb0\u0ccd","name:dv":"\u0784\u07a6\u0783\u07aa\u0789\u07a7","name:lv":"Mjanma","name:lt":"Mianmaras","name:uz":"Birma","name:kk":"\u041c\u0438\u0430\u043d\u043c\u0430","name:ur":"\u0645\u06cc\u0627\u0646\u0645\u0627\u0631 [\u0628\u0631\u0645\u0627]","name:lb":"Myanmar","name:la":"Birmania","name:lg":"Myanima","name:uk":"\u041c\u2019\u044f\u043d\u043c\u0430","name:ug":"\u0628\u0649\u0631\u0645\u0627","name:li":"Burma","name:lo":"\u0eaa\u0eb0\u0eab\u0eb0\u0e9e\u0eb2\u0e9a\u0ea1\u0ebd\u0e99\u0ea1\u0eb2","name:el":"\u039c\u03b9\u03b1\u03bd\u03bc\u03ac\u03c1","name:eo":"Birmo \/ Mjanmao","name:en":"Myanmar","name":"\u1019\u103c\u1014\u103a\u1019\u102c","name:tk":"M\u00fdanma","name:ee":"Myanmar [Burma] nutome","name:th":"\u0e1b\u0e23\u0e30\u0e40\u0e17\u0e28\u0e1e\u0e21\u0e48\u0e32","name:eu":"Myanmar","name:et":"Birma","name:es":"Birmania","name:ia":"Birmania\/Myanmar","name:rn":"Birimaniya","name:az":"Myanma","name:ie":"Myanmar","name:id":"Myanmar","name:ar":"\u0645\u064a\u0627\u0646\u0645\u0627\u0631","name:io":"Myanmar","name:ak":"Miyanma","name:am":"\u121b\u12ed\u1293\u121b\u122d[\u1260\u122d\u121b]","name:it":"Birmania","name:an":"Myanmar","name:ru":"\u041c\u044c\u044f\u043d\u043c\u0430","name:rw":"Mayanimari","name:af":"Mianmar","name:zu":"e-Myanmar [Burma]","old_name:ca":"Birm\u00e0nia","name:za":"Mienjdien","name:zh-yue":"\u7dec\u7538","old_name:cs":"Barma","name:zh":"\u7f05\u7538","name:so":"Burma","name:sl":"Mjanmar","name:sk":"Mjanmarsko","name:ja":"\u30df\u30e3\u30f3\u30de\u30fc","name:si":"\u0db8\u0dd2\u0dba\u0db1\u0dca\u0db8\u0dcf\u0dbb\u0dba","name:sh":"Mianmar","name:sg":"My\u00e4m\u00e2ra","name:se":"Burma","name:sc":"Birmania","name:sa":"\u092e\u094d\u092f\u093e\u0928\u094d\u092e\u093e\u0930","name:bs":"Mijanmar","name:bm":"Myanimari","name:bn":"\u09ae\u09be\u09af\u09bc\u09be\u09a8\u09ae\u09be\u09b0","name:bo":"\u0f60\u0f56\u0f62\u0f0b\u0f58\u0f0d","name:br":"Birmania","name:sw":"Myama","name:be":"\u041c'\u044f\u043d\u043c\u0430","name:su":"Myanmar","name:bg":"\u041c\u0438\u0430\u043d\u043c\u0430\u0440 [\u0411\u0438\u0440\u043c\u0430]","name:ss":"IMayanima","name:ba":"\u041c\u044c\u044f\u043d\u043c\u0430","name:sq":"Birmania","name:jv":"Myanmar","name:bi":"Burma","name:pt":"Mianmar [Birm\u00e2nia]","name:ps":"\u0645\u064a\u0627\u0646\u0645\u0627\u0631","name:oc":"Birmania","min_zoom":2.0,"name:ro":"Birmania","name:zh-min-nan":"Myanma","name:os":"\u041c\u044c\u044f\u043d\u043c\u00e6","name:or":"\u0b2e\u0b3f\u0b5f\u0b3e\u0b2e\u0b3e\u0b30\u0b4d","name:pl":"Birma","name:sr":"\u041c\u0458\u0430\u043d\u043c\u0430\u0440","name:pa":"\u0a2e\u0a3f\u0a06\u0a02\u0a2e\u0a3e\u0a30","name:tr":"Myanmar [Burma]","name:hi":"\u092e\u094d\u092f\u093e\u0928\u092e\u093e\u0930","name:sv":"Burma","name:he":"\u05de\u05d9\u05d0\u05e0\u05de\u05e8","name:ha":"Burma, Miyamar","name:hy":"\u0544\u0575\u0561\u0576\u0574\u0561","name:ht":"Bimani","name:hu":"Mianmar","name:qu":"Myanmar","population":55167330,"kind":"country","name:is":"Mjanmar","name:yi":"\u05de\u05d9\u05d0\u05e0\u05de\u05d0\u05e8","name:yo":"Or\u00edl\u1eb9\u0301\u00e8de Manamari","name:mt":"Mjanmar","name:ms":"Myanmar [Burma]","name:mr":"\u092e\u094d\u092f\u093e\u0928\u092e\u093e\u0930 [\u092c\u094d\u0930\u0939\u094d\u092e\u0926\u0947\u0936]","int_name":"Myanmar","name:mg":"Myanmara","name:ml":"\u0d2e\u0d4d\u0d2f\u0d3e\u0d7b\u0d2e\u0d3e\u0d7c","name:vi":"Myanma","old_name:fi":"Burma","id":424316478,"name:mk":"\u041c\u0458\u0430\u043d\u043c\u0430\u0440 [\u0411\u0443\u0440\u043c\u0430]","name:vo":"Mianmar\u00e4n","name:fa":"\u0645\u06cc\u0627\u0646\u0645\u0627\u0631","name:mn":"\u041c\u044c\u044f\u043d\u043c\u0430\u0440","name:ff":"Miyamaar","name:fi":"Myanmar","name:ky":"\u041c\u044c\u044f\u043d\u043c\u0430","name:fo":"Burma","alt_name:vi":"Mi\u1ebfn \u0110i\u1ec7n","name:fr":"Birmanie","name:fy":"Birma","name:nl":"Myanmar","name:nn":"Myanmar","name:no":"Burma","name:na":"Miyanmar","name:ne":"\u092e\u094d\u092f\u093e\u0928\u094d\u092e\u093e\u0930 [\u092c\u0930\u094d\u092e\u093e]","name:wo":"Miyanmaar","name:ga":"Maenmar","name:gd":"Mianmar","name:gl":"Myanmar [Birmania]","name:gv":"Myanmar","name:gu":"\u0aae\u0acd\u0aaf\u0abe\u0a82\u0aae\u0abe\u0ab0","name:tt":"\u041c\u044c\u044f\u043d\u043c\u0430"},"coordinates":[273,416]},{"type":"Point","properties":{"source":"naturalearthdata.com","kind":"locality","name":"Rangoon","country_capital":true,"population":4088000,"min_zoom":4.0,"id":7222},"coordinates":[393,115]},{"type":"Point","properties":{"admin_level":"4","kind":"region","name:en":"Tak Province","name":"\u0e08\u0e31\u0e07\u0e2b\u0e27\u0e31\u0e14\u0e15\u0e32\u0e01","kind_detail":"state","source":"openstreetmap.org","min_zoom":4.0,"name:uk":"\u0422\u0430\u043a","name:ru":"\u0422\u0430\u043a","name:pl":"Tak","id":4352806527,"name:ja":"\u30bf\u30fc\u30af\u770c"},"coordinates":[2454,362]},{"type":"Point","properties":{"admin_level":"4","kind":"region","name:en":"Sukhothai Province","name":"\u0e08\u0e31\u0e07\u0e2b\u0e27\u0e31\u0e14\u0e2a\u0e38\u0e42\u0e02\u0e17\u0e31\u0e22","kind_detail":"state","source":"openstreetmap.org","min_zoom":4.0,"name:uk":"\u0421\u0443\u043a\u0445\u043e\u0442\u0445\u0430\u0439","name:ru":"\u0421\u0443\u043a\u0445\u043e\u0442\u0445\u0430\u0439","name:pl":"Sukhothai","id":4352789829,"name:ja":"\u30b9\u30b3\u30fc\u30bf\u30a4\u770c"},"coordinates":[2776,392]},{"type":"Point","properties":{"admin_level":"4","kind":"region","name:en":"Kayin State","name":"Kayin","kind_detail":"state","name:my":"\u1000\u101b\u1004\u103a\u1015\u103c\u100a\u103a\u1014\u101a\u103a","source":"openstreetmap.org","min_zoom":4.0,"int_name":"Kayin State","name:ru":"\u041a\u0430\u0440\u0435\u043d","name:zh":"\u514b\u4f26\u90a6","id":4344695181,"name:ja":"\u30ab\u30ec\u30f3"},"coordinates":[1547,425]},{"type":"Point","properties":{"admin_level":"4","kind":"region","name":"Shan State","kind_detail":"state","name:my":"\u101b\u103e\u1019\u103a\u1038\u1015\u103c\u100a\u103a\u1014\u101a\u103a","source":"openstreetmap.org","min_zoom":4.0,"name:ru":"\u0428\u0430\u043d","name:zh":"\u63b8\u90a6","id":4344762327,"name:ja":"\u30b7\u30e3\u30f3"},"coordinates":[1737,3763]},{"type":"Point","properties":{"admin_level":"4","kind":"region","int_name":"Yangon Region","name":"Yangon","kind_detail":"state","name:my":"\u101b\u1014\u103a\u1000\u102f\u1014\u103a\u1010\u102d\u102f\u1004\u103a\u1038","source":"openstreetmap.org","min_zoom":4.0,"name:zh":"\u4ef0\u5149\u7701","id":4353300190,"name:ja":"\u30e4\u30f3\u30b4\u30f3"},"coordinates":[355,9]},{"type":"Point","properties":{"admin_level":"4","kind":"region","name:en":"Mae Hong Son Province","name":"\u0e08\u0e31\u0e07\u0e2b\u0e27\u0e31\u0e14\u0e41\u0e21\u0e48\u0e2e\u0e48\u0e2d\u0e07\u0e2a\u0e2d\u0e19","kind_detail":"state","name:de":"Provinz Mae Hong Son","source":"openstreetmap.org","min_zoom":4.0,"name:uk":"\u041c\u0435\u0445\u043e\u043d\u0433\u0441\u043e\u043d","name:ru":"\u041c\u044d\u0445\u043e\u043d\u0433\u0441\u043e\u043d","name:pl":"Mae Hong Son","id":4351667345,"name:ja":"\u30e1\u30fc\u30db\u30f3\u30bd\u30fc\u30f3\u770c"},"coordinates":[1877,2128]},{"type":"Point","properties":{"admin_level":"4","kind":"region","name:en":"Lamphun Province","name":"\u0e08\u0e31\u0e07\u0e2b\u0e27\u0e31\u0e14\u0e25\u0e33\u0e1e\u0e39\u0e19","kind_detail":"state","source":"openstreetmap.org","min_zoom":4.0,"name:uk":"\u041b\u0430\u043c\u043f\u0445\u0443\u043d","name:ru":"\u041b\u0430\u043c\u043f\u0445\u0443\u043d","name:pl":"Lamphun","id":4351653940,"name:ja":"\u30e9\u30e0\u30d7\u30fc\u30f3\u770c"},"coordinates":[2434,1258]},{"type":"Point","properties":{"admin_level":"4","kind":"region","name:en":"Uttaradit Province","name":"\u0e08\u0e31\u0e07\u0e2b\u0e27\u0e31\u0e14\u0e2d\u0e38\u0e15\u0e23\u0e14\u0e34\u0e15\u0e16\u0e4c","kind_detail":"state","name:de":"Uttaradit","source":"openstreetmap.org","min_zoom":4.0,"name:uk":"\u0423\u0442\u0442\u0430\u0440\u0430\u0434\u0456\u0442","name:ru":"\u0423\u0442\u0442\u0430\u0440\u0430\u0434\u0438\u0442","name:pl":"Uttaradit","id":4353278623,"name:ja":"\u30a6\u30c3\u30bf\u30e9\u30c7\u30a3\u30c3\u30c8\u770c"},"coordinates":[3479,763]},{"type":"Point","properties":{"admin_level":"4","kind":"region","name:en":"Chiang Mai Province","name":"\u0e08\u0e31\u0e07\u0e2b\u0e27\u0e31\u0e14\u0e40\u0e0a\u0e35\u0e22\u0e07\u0e43\u0e2b\u0e21\u0e48","kind_detail":"state","name:de":"Provinz Chiang Mai","source":"openstreetmap.org","min_zoom":4.0,"name:uk":"\u0427\u0456\u0430\u043d\u0433\u043c\u0430\u0439","name:ru":"\u0427\u0438\u0430\u043d\u0433\u043c\u0430\u0439","name:pl":"Chiang Mai","id":4351526617,"name:ja":"\u30c1\u30a8\u30f3\u30de\u30a4\u770c"},"coordinates":[2054,1589]},{"type":"Point","properties":{"admin_level":"4","kind":"region","name:en":"Lampang Province","name":"\u0e08\u0e31\u0e07\u0e2b\u0e27\u0e31\u0e14\u0e25\u0e33\u0e1b\u0e32\u0e07","kind_detail":"state","name:de":"Lampang","source":"openstreetmap.org","min_zoom":4.0,"name:uk":"\u041b\u0430\u043c\u043f\u0430\u043d\u0433","name:ru":"\u041b\u0430\u043c\u043f\u0430\u043d\u0433","name:pl":"Lampang","id":4351645529,"name:ja":"\u30e9\u30e0\u30d1\u30fc\u30f3\u770c"},"coordinates":[2992,1577]},{"type":"Point","properties":{"admin_level":"4","kind":"region","name:en":"Phrae Province","name":"\u0e08\u0e31\u0e07\u0e2b\u0e27\u0e31\u0e14\u0e41\u0e1e\u0e23\u0e48","kind_detail":"state","name:de":"Phrae","source":"openstreetmap.org","min_zoom":4.0,"name:uk":"\u041f\u0445\u0440\u0435","name:ru":"\u041f\u0445\u0440\u044d","name:pl":"Phrae","id":4351791142,"name:ja":"\u30d7\u30ec\u30fc\u770c"},"coordinates":[3250,1279]},{"type":"Point","properties":{"admin_level":"4","kind":"region","name:en":"Nan Province","name":"\u0e08\u0e31\u0e07\u0e2b\u0e27\u0e31\u0e14\u0e19\u0e48\u0e32\u0e19","kind_detail":"state","name:de":"Nan","source":"openstreetmap.org","min_zoom":4.0,"name:uk":"\u041d\u0430\u043d","name:ru":"\u041d\u0430\u043d","name:pl":"Nan","id":4351711220,"name:ja":"\u30ca\u30fc\u30f3\u770c"},"coordinates":[3641,1635]},{"type":"Point","properties":{"admin_level":"4","kind":"region","name:en":"Phayao Province","name":"\u0e08\u0e31\u0e07\u0e2b\u0e27\u0e31\u0e14\u0e1e\u0e30\u0e40\u0e22\u0e32","kind_detail":"state","name:de":"Phayao","source":"openstreetmap.org","min_zoom":4.0,"name:uk":"\u041f\u0445\u0430\u044f\u043e","name:ru":"\u041f\u0445\u0430\u044f\u0443","name:pl":"Phayao","id":4351769668,"name:ja":"\u30d1\u30e4\u30aa\u770c"},"coordinates":[3321,2088]},{"type":"Point","properties":{"admin_level":"4","kind":"region","name:en":"Bokeo","name":"\u0e9a\u0ecd\u0ec8\u0ec1\u0e81\u0ec9\u0ea7","kind_detail":"state","name:lo":"Bok\u00e8o","name:de":"Bokeo","source":"openstreetmap.org","min_zoom":4.0,"name:ru":"\u0411\u043e\u043a\u044d\u0443","id":4343596547,"name:ja":"\u30dc\u30fc\u30b1\u30fc\u30aa"},"coordinates":[3474,2841]},{"type":"Point","properties":{"admin_level":"4","kind":"region","name":"Bago Region","kind_detail":"state","name:my":"\u1015\u1032\u1001\u1030\u1038\u1010\u102d\u102f\u1004\u103a\u1038","source":"openstreetmap.org","min_zoom":4.0,"name:zh":"\u52c3\u56fa\u7701","id":4344643334,"name:ja":"\u30d0\u30b4\u30fc"},"coordinates":[346,1242]},{"type":"Point","properties":{"admin_level":"4","kind":"region","name:en":"Kayah State","name":"Kayah","kind_detail":"state","name:my":"\u1000\u101a\u102c\u1038\u1015\u103c\u100a\u103a\u1014\u101a\u103a\u200c","source":"openstreetmap.org","min_zoom":4.0,"int_name":"Kayah State","name:ru":"\u041a\u0430\u044f","name:zh":"\u514b\u8036\u90a6","id":4344686434,"name:ja":"\u30ab\u30e4\u30fc"},"coordinates":[1241,2042]},{"type":"Point","properties":{"admin_level":"4","kind":"region","name:en":"Mandalay Region","name":"Mandalay","kind_detail":"state","name:my":"\u1019\u1014\u1039\u1010\u101c\u1031\u1038\u1010\u102d\u102f\u1004\u103a\u1038","name:de":"Mandalay-Region","source":"openstreetmap.org","min_zoom":4.0,"int_name":"Mandalay Region","name:zh":"\u66fc\u5fb7\u52d2\u7701","id":4344750110,"name:ja":"\u30de\u30f3\u30c0\u30ec\u30fc"},"coordinates":[102,3358]},{"type":"Point","properties":{"admin_level":"4","kind":"region","int_name":"Naypyidaw Union Territory","name":"Naypyitaw","kind_detail":"state","name:my":"\u1014\u1031\u1015\u103c\u100a\u103a\u1010\u1031\u102c\u103a \u1015\u103c\u100a\u103a\u1010\u1031\u102c\u1004\u103a\u1005\u102f\u1014\u101a\u103a\u1019\u103c\u1031","source":"openstreetmap.org","min_zoom":4.0,"name:zh":"\u5185\u6bd4\u90fd\u8054\u90a6\u533a","id":4344788110},"coordinates":[467,2813]},{"type":"Point","properties":{"source":"naturalearthdata.com","kind":"locality","name":"Naypyidaw","country_capital":true,"population":930000,"min_zoom":5.0,"id":7089},"coordinates":[358,2418]},{"type":"Point","properties":{"source":"naturalearthdata.com","kind":"locality","name":"Chiang Mai","population":397211,"region_capital":true,"min_zoom":5.0,"id":6302},"coordinates":[2443,1670]},{"type":"Point","properties":{"source":"naturalearthdata.com","kind":"locality","name":"Bago","population":284318,"region_capital":true,"min_zoom":6.0,"id":5611},"coordinates":[648,528]},{"type":"Point","properties":{"source":"naturalearthdata.com","kind":"locality","name":"Pyu","population":40386,"min_zoom":6.0,"id":5612},"coordinates":[592,1421]}]},"transit":{"type":"GeometryCollection","geometries":[]},"pois":{"type":"GeometryCollection","geometries":[{"type":"Point","properties":{"kind":"national_park","name:en":"Wiang Kosai National Park","protect_class":"2","area":487694000,"source":"openstreetmap.org","min_zoom":6.33,"tier":1,"id":-6009663,"osm_relation":true,"name":"\u0e2d\u0e38\u0e17\u0e22\u0e32\u0e19\u0e41\u0e2b\u0e48\u0e07\u0e0a\u0e32\u0e15\u0e34\u0e40\u0e27\u0e35\u0e22\u0e07\u0e42\u0e01\u0e28\u0e31\u0e22"},"coordinates":[2797,967]},{"type":"Point","properties":{"kind":"national_park","name:en":"Ton Sak Yai National Park","protect_class":"2","area":526127000,"source":"openstreetmap.org","min_zoom":6.27,"tier":1,"id":-6009662,"osm_relation":true,"name":"\u0e2d\u0e38\u0e17\u0e22\u0e32\u0e19\u0e41\u0e2b\u0e48\u0e07\u0e0a\u0e32\u0e15\u0e34\u0e15\u0e49\u0e19\u0e2a\u0e31\u0e01\u0e43\u0e2b\u0e0d\u0e48"},"coordinates":[3595,715]},{"type":"Point","properties":{"kind":"national_park","name:en":"Si Nan National Park","protect_class":"2","area":1134760000,"source":"openstreetmap.org","min_zoom":5.72,"tier":1,"id":-6009660,"osm_relation":true,"name":"\u0e2d\u0e38\u0e17\u0e22\u0e32\u0e19\u0e41\u0e2b\u0e48\u0e07\u0e0a\u0e32\u0e15\u0e34\u0e28\u0e23\u0e35\u0e19\u0e48\u0e32\u0e19"},"coordinates":[3809,1257]},{"type":"Point","properties":{"kind":"national_park","name:en":"Ramkhamhaeng National Park","protect_class":"2","area":309117000,"source":"openstreetmap.org","min_zoom":6.65,"tier":1,"id":-6009659,"osm_relation":true,"name":"\u0e2d\u0e38\u0e17\u0e22\u0e32\u0e19\u0e41\u0e2b\u0e48\u0e07\u0e0a\u0e32\u0e15\u0e34\u0e23\u0e32\u0e21\u0e04\u0e33\u0e41\u0e2b\u0e07"},"coordinates":[2941,195]},{"type":"Point","properties":{"kind":"national_park","name:en":"Phu Soi Dao National Park","protect_class":"2","area":379810000,"source":"openstreetmap.org","min_zoom":6.51,"alt_name:en":"Phusoidao National Park","tier":1,"id":-6009658,"osm_relation":true,"name":"\u0e2d\u0e38\u0e17\u0e22\u0e32\u0e19\u0e41\u0e2b\u0e48\u0e07\u0e0a\u0e32\u0e15\u0e34\u0e20\u0e39\u0e2a\u0e2d\u0e22\u0e14\u0e32\u0e27"},"coordinates":[3915,927]},{"type":"Point","properties":{"kind":"national_park","name:en":"Mae Yom National Park","protect_class":"2","area":542534000,"source":"openstreetmap.org","min_zoom":6.25,"tier":1,"id":-6009656,"osm_relation":true,"name":"\u0e2d\u0e38\u0e17\u0e22\u0e32\u0e19\u0e41\u0e2b\u0e48\u0e07\u0e0a\u0e32\u0e15\u0e34\u0e41\u0e21\u0e48\u0e22\u0e21"},"coordinates":[3361,1608]},{"type":"Point","properties":{"kind":"national_park","name:en":"Mae Charim National Park","protect_class":"2","area":470884000,"source":"openstreetmap.org","min_zoom":6.35,"tier":1,"id":-6009655,"osm_relation":true,"name":"\u0e2d\u0e38\u0e17\u0e22\u0e32\u0e19\u0e41\u0e2b\u0e48\u0e07\u0e0a\u0e32\u0e15\u0e34\u0e41\u0e21\u0e48\u0e08\u0e23\u0e34\u0e21"},"coordinates":[3965,1503]},{"type":"Point","properties":{"kind":"national_park","name:en":"Khun Nan National Park","protect_class":"2","area":277122000,"source":"openstreetmap.org","min_zoom":6.73,"tier":1,"id":-6009654,"osm_relation":true,"name":"\u0e2d\u0e38\u0e17\u0e22\u0e32\u0e19\u0e41\u0e2b\u0e48\u0e07\u0e0a\u0e32\u0e15\u0e34\u0e02\u0e38\u0e19\u0e19\u0e48\u0e32\u0e19"},"coordinates":[4067,1917]},{"type":"Point","properties":{"kind":"national_park","name:en":"Phu Sang National Park","protect_class":"2","area":317175000,"source":"openstreetmap.org","min_zoom":6.64,"tier":1,"id":-6004123,"osm_relation":true,"name":"\u0e2d\u0e38\u0e17\u0e22\u0e32\u0e19\u0e41\u0e2b\u0e48\u0e07\u0e0a\u0e32\u0e15\u0e34\u0e20\u0e39\u0e0b\u0e32\u0e07"},"coordinates":[3513,2288]},{"type":"Point","properties":{"kind":"national_park","name:en":"Doi Phu Nang National Park","protect_class":"2","area":667810000,"source":"openstreetmap.org","min_zoom":6.1,"tier":1,"id":-6004086,"osm_relation":true,"name":"\u0e2d\u0e38\u0e17\u0e22\u0e32\u0e19\u0e41\u0e2b\u0e48\u0e07\u0e0a\u0e32\u0e15\u0e34\u0e14\u0e2d\u0e22\u0e20\u0e39\u0e19\u0e32\u0e07"},"coordinates":[3286,1839]},{"type":"Point","properties":{"kind":"national_park","name:en":"Mae Wa National Park","protect_class":"2","area":640929000,"source":"openstreetmap.org","min_zoom":6.13,"tier":1,"id":-6004034,"osm_relation":true,"name":"\u0e2d\u0e38\u0e17\u0e22\u0e32\u0e19\u0e41\u0e2b\u0e48\u0e07\u0e0a\u0e32\u0e15\u0e34\u0e41\u0e21\u0e48\u0e27\u0e30"},"coordinates":[2637,610]},{"type":"Point","properties":{"kind":"national_park","name:en":"Mae Ping National Park","protect_class":"2","area":1105240000,"source":"openstreetmap.org","min_zoom":5.74,"tier":1,"id":-6004000,"osm_relation":true,"name":"\u0e2d\u0e38\u0e17\u0e22\u0e32\u0e19\u0e41\u0e2b\u0e48\u0e07\u0e0a\u0e32\u0e15\u0e34\u0e41\u0e21\u0e48\u0e1b\u0e34\u0e07"},"coordinates":[2259,739]},{"type":"Point","properties":{"kind":"national_park","name:en":"Si Lanna National Park","protect_class":"2","area":1654920000,"source":"openstreetmap.org","min_zoom":5.44,"tier":1,"id":-5964088,"osm_relation":true,"name":"\u0e2d\u0e38\u0e17\u0e22\u0e32\u0e19\u0e41\u0e2b\u0e48\u0e07\u0e0a\u0e32\u0e15\u0e34\u0e28\u0e23\u0e35\u0e25\u0e32\u0e19\u0e19\u0e32"},"coordinates":[2532,2053]},{"type":"Point","properties":{"kind":"national_park","name:en":"Pha Daeng National Park","protect_class":"2","area":1292160000,"source":"openstreetmap.org","min_zoom":5.62,"tier":1,"id":-5964087,"osm_relation":true,"name":"\u0e2d\u0e38\u0e17\u0e22\u0e32\u0e19\u0e41\u0e2b\u0e48\u0e07\u0e0a\u0e32\u0e15\u0e34\u0e1c\u0e32\u0e41\u0e14\u0e07"},"coordinates":[2313,2317]},{"type":"Point","properties":{"kind":"national_park","name:en":"Doi Khun Tan National Park","protect_class":"2","area":245293000,"source":"openstreetmap.org","min_zoom":6.82,"tier":1,"id":-5964086,"osm_relation":true,"name":"\u0e2d\u0e38\u0e17\u0e22\u0e32\u0e19\u0e41\u0e2b\u0e48\u0e07\u0e0a\u0e32\u0e15\u0e34\u0e14\u0e2d\u0e22\u0e02\u0e38\u0e19\u0e15\u0e32\u0e25"},"coordinates":[2705,1417]},{"type":"Point","properties":{"kind":"national_park","name:en":"Chae Son National Park","protect_class":"2","area":896394000,"source":"openstreetmap.org","min_zoom":5.89,"tier":1,"id":-5964085,"osm_relation":true,"name":"\u0e2d\u0e38\u0e17\u0e22\u0e32\u0e19\u0e41\u0e2b\u0e48\u0e07\u0e0a\u0e32\u0e15\u0e34\u0e41\u0e08\u0e49\u0e0b\u0e49\u0e2d\u0e19"},"coordinates":[2775,1698]},{"type":"Point","properties":{"kind":"national_park","name:en":"Op Luang National Park","protect_class":"2","area":626892000,"source":"openstreetmap.org","min_zoom":6.14,"tier":1,"id":-5963447,"osm_relation":true,"name":"\u0e2d\u0e38\u0e17\u0e22\u0e32\u0e19\u0e41\u0e2b\u0e48\u0e07\u0e0a\u0e32\u0e15\u0e34\u0e2d\u0e2d\u0e1a\u0e2b\u0e25\u0e27\u0e07"},"coordinates":[2103,1237]},{"type":"Point","properties":{"kind":"national_park","name:en":"Khun Phawo National Park","protect_class":"2","area":434305000,"source":"openstreetmap.org","min_zoom":6.41,"tier":1,"id":-5963397,"osm_relation":true,"name":"\u0e2d\u0e38\u0e17\u0e22\u0e32\u0e19\u0e41\u0e2b\u0e48\u0e07\u0e0a\u0e32\u0e15\u0e34\u0e02\u0e38\u0e19\u0e1e\u0e30\u0e27\u0e2d"},"coordinates":[2251,215]},{"type":"Point","properties":{"kind":"national_park","name:en":"Thung Salaeng Luang National Park","protect_class":"2","area":1283060000,"source":"openstreetmap.org","min_zoom":5.63,"tier":1,"id":-5944651,"osm_relation":true,"name":"\u0e2d\u0e38\u0e17\u0e22\u0e32\u0e19\u0e41\u0e2b\u0e48\u0e07\u0e0a\u0e32\u0e15\u0e34\u0e17\u0e38\u0e48\u0e07\u0e41\u0e2a\u0e25\u0e07\u0e2b\u0e25\u0e27\u0e07"},"coordinates":[3774,26]},{"type":"Point","properties":{"kind":"national_park","name:en":"Taksin Maharat National Park","protect_class":"2","area":293723000,"source":"openstreetmap.org","min_zoom":6.69,"tier":1,"id":-5944650,"osm_relation":true,"name":"\u0e2d\u0e38\u0e17\u0e22\u0e32\u0e19\u0e41\u0e2b\u0e48\u0e07\u0e0a\u0e32\u0e15\u0e34\u0e15\u0e32\u0e01\u0e2a\u0e34\u0e19\u0e21\u0e2b\u0e32\u0e23\u0e32\u0e0a"},"coordinates":[2365,156]},{"type":"Point","properties":{"kind":"national_park","name:en":"Si Satchanalai National Park","protect_class":"2","area":243798000,"source":"openstreetmap.org","min_zoom":6.83,"alt_name:en":"Sri Satchanalai National Park","tier":1,"id":-5944649,"osm_relation":true,"name":"\u0e2d\u0e38\u0e17\u0e22\u0e32\u0e19\u0e41\u0e2b\u0e48\u0e07\u0e0a\u0e32\u0e15\u0e34\u0e28\u0e23\u0e35\u0e2a\u0e31\u0e0a\u0e19\u0e32\u0e25\u0e31\u0e22"},"coordinates":[2829,752]},{"type":"Point","properties":{"kind":"national_park","name:en":"Mae Puem National Park","protect_class":"2","area":273017000,"source":"openstreetmap.org","min_zoom":6.74,"tier":1,"id":-5944648,"osm_relation":true,"name":"\u0e2d\u0e38\u0e17\u0e22\u0e32\u0e19\u0e41\u0e2b\u0e48\u0e07\u0e0a\u0e32\u0e15\u0e34\u0e41\u0e21\u0e48\u0e1b\u0e37\u0e21"},"coordinates":[3121,2159]},{"type":"Point","properties":{"kind":"national_park","name:en":"Lam Nam Nan National Park","protect_class":"2","area":1159650000,"source":"openstreetmap.org","min_zoom":5.7,"tier":1,"id":-5944646,"osm_relation":true,"name":"\u0e2d\u0e38\u0e17\u0e22\u0e32\u0e19\u0e41\u0e2b\u0e48\u0e07\u0e0a\u0e32\u0e15\u0e34\u0e25\u0e33\u0e19\u0e49\u0e33\u0e19\u0e48\u0e32\u0e19"},"coordinates":[3556,1001]},{"type":"Point","properties":{"kind":"national_park","name:en":"Khun Chae National Park","protect_class":"2","area":319350000,"source":"openstreetmap.org","min_zoom":6.63,"tier":1,"id":-5944645,"osm_relation":true,"name":"\u0e2d\u0e38\u0e17\u0e22\u0e32\u0e19\u0e41\u0e2b\u0e48\u0e07\u0e0a\u0e32\u0e15\u0e34\u0e02\u0e38\u0e19\u0e41\u0e08"},"coordinates":[2728,1924]},{"type":"Point","properties":{"kind":"national_park","name:en":"Doi Phu Kha National Park","protect_class":"2","area":1922420000,"source":"openstreetmap.org","min_zoom":5.34,"tier":1,"id":-5944644,"osm_relation":true,"name":"\u0e2d\u0e38\u0e17\u0e22\u0e32\u0e19\u0e41\u0e2b\u0e48\u0e07\u0e0a\u0e32\u0e15\u0e34\u0e14\u0e2d\u0e22\u0e20\u0e39\u0e04\u0e32"},"coordinates":[3952,1906]},{"type":"Point","properties":{"kind":"national_park","name:en":"Doi Luang National Park","protect_class":"2","area":1378400000,"source":"openstreetmap.org","min_zoom":5.58,"tier":1,"id":-5944643,"osm_relation":true,"name":"\u0e2d\u0e38\u0e17\u0e22\u0e32\u0e19\u0e41\u0e2b\u0e48\u0e07\u0e0a\u0e32\u0e15\u0e34\u0e14\u0e2d\u0e22\u0e2b\u0e25\u0e27\u0e07"},"coordinates":[2927,2116]},{"type":"Point","properties":{"kind":"national_park","name:en":"Tham Pla - Namtok Pha Suea National Park","protect_class":"2","area":435613000,"source":"openstreetmap.org","min_zoom":6.41,"tier":1,"id":-5944551,"osm_relation":true,"name":"\u0e2d\u0e38\u0e17\u0e22\u0e32\u0e19\u0e41\u0e2b\u0e48\u0e07\u0e0a\u0e32\u0e15\u0e34\u0e16\u0e49\u0e33\u0e1b\u0e25\u0e32-\u0e19\u0e49\u0e33\u0e15\u0e01\u0e1c\u0e32\u0e40\u0e2a\u0e37\u0e2d"},"coordinates":[1660,2182]},{"type":"Point","properties":{"kind":"national_park","name:en":"Salawin National Park","protect_class":"2","area":818432000,"source":"openstreetmap.org","min_zoom":5.95,"tier":1,"id":-5944550,"osm_relation":true,"name":"\u0e2d\u0e38\u0e17\u0e22\u0e32\u0e19\u0e41\u0e2b\u0e48\u0e07\u0e0a\u0e32\u0e15\u0e34\u0e2a\u0e32\u0e25\u0e30\u0e27\u0e34\u0e19"},"coordinates":[1613,1189]},{"type":"Point","properties":{"kind":"national_park","name:en":"Huai Nam Dang National Park","protect_class":"2","area":1398070000,"source":"openstreetmap.org","min_zoom":5.57,"tier":1,"id":-5944549,"osm_relation":true,"name":"\u0e2d\u0e38\u0e17\u0e22\u0e32\u0e19\u0e41\u0e2b\u0e48\u0e07\u0e0a\u0e32\u0e15\u0e34\u0e2b\u0e49\u0e27\u0e22\u0e19\u0e49\u0e33\u0e14\u0e31\u0e07"},"coordinates":[2088,2187]},{"type":"Point","properties":{"kind":"national_park","name:en":"Doi Suthep-Pui National Park","protect_class":"2","area":239439000,"name":"\u0e2d\u0e38\u0e17\u0e22\u0e32\u0e19\u0e41\u0e2b\u0e48\u0e07\u0e0a\u0e32\u0e15\u0e34\u0e14\u0e2d\u0e22\u0e2a\u0e38\u0e40\u0e17\u0e1e-\u0e1b\u0e38\u0e22","source":"openstreetmap.org","min_zoom":6.84,"tier":1,"id":-5944548,"osm_relation":true,"name:ja":"\u30b9\u30c6\u30fc\u30d7\u5c71\uff5e\u30d7\u30a4\u5c71\u56fd\u7acb\u516c\u5712"},"coordinates":[2365,1711]},{"type":"Point","properties":{"kind":"national_park","name:en":"Doi Pha Hom Pok National Park","protect_class":"2","area":612619000,"source":"openstreetmap.org","min_zoom":6.16,"tier":1,"id":-5944547,"osm_relation":true,"name":"\u0e2d\u0e38\u0e17\u0e22\u0e32\u0e19\u0e41\u0e2b\u0e48\u0e07\u0e0a\u0e32\u0e15\u0e34\u0e14\u0e2d\u0e22\u0e1c\u0e49\u0e32\u0e2b\u0e48\u0e21\u0e1b\u0e01"},"coordinates":[2518,2536]},{"type":"Point","properties":{"kind":"national_park","name:en":"Khao Kho National Park","protect_class":"2","area":313028000,"source":"openstreetmap.org","min_zoom":6.65,"tier":1,"id":-5911770,"osm_relation":true,"name":"\u0e2d\u0e38\u0e17\u0e22\u0e32\u0e19\u0e41\u0e2b\u0e48\u0e07\u0e0a\u0e32\u0e15\u0e34\u0e40\u0e02\u0e32\u0e04\u0e49\u0e2d"},"coordinates":[3981,103]},{"type":"Point","properties":{"kind":"national_park","name:en":"Doi Inthanon National Park","protect_class":"2","area":530873000,"source":"openstreetmap.org","min_zoom":6.26,"tier":1,"id":-5625486,"osm_relation":true,"name":"\u0e2d\u0e38\u0e17\u0e22\u0e32\u0e19\u0e41\u0e2b\u0e48\u0e07\u0e0a\u0e32\u0e15\u0e34\u0e14\u0e2d\u0e22\u0e2d\u0e34\u0e19\u0e17\u0e19\u0e19\u0e17\u0e4c"},"coordinates":[2136,1464]},{"type":"Point","properties":{"kind":"national_park","name:en":"Phu Hin Rong Kla National Park","protect_class":"2","area":337373000,"source":"openstreetmap.org","min_zoom":6.59,"tier":1,"id":-3328653,"osm_relation":true,"name":"\u0e2d\u0e38\u0e17\u0e22\u0e32\u0e19\u0e41\u0e2b\u0e48\u0e07\u0e0a\u0e32\u0e15\u0e34\u0e20\u0e39\u0e2b\u0e34\u0e19\u0e23\u0e48\u0e2d\u0e07\u0e01\u0e25\u0e49\u0e32"},"coordinates":[3905,281]},{"type":"Point","properties":{"kind":"national_park","name:en":"Nam Ha National Protected Area","protect_class":"2","area":2500800000,"source":"openstreetmap.org","min_zoom":5.15,"alt_name:en":"Nam Ha NBCA","tier":1,"id":-2715397,"osm_relation":true,"name":"\u0e9b\u0ec8\u0eb2\u0eaa\u0eb0\u0eab\u0e87\u0ea7\u0e99\u0ec1\u0eab\u0ec8\u0e87\u0e8a\u0eb2\u0e94 \u0e99\u0ec9\u0eb3\u0eab\u0ec9\u0eb2"},"coordinates":[4050,3294]},{"type":"Point","properties":{"kind":"national_park","name:en":"Namtok Mae Surin National Park","protect_class":"2","area":481603000,"source":"openstreetmap.org","min_zoom":6.33,"tier":1,"id":395926336,"name":"\u0e2d\u0e38\u0e17\u0e22\u0e32\u0e19\u0e41\u0e2b\u0e48\u0e07\u0e0a\u0e32\u0e15\u0e34\u0e19\u0e49\u0e33\u0e15\u0e01\u0e41\u0e21\u0e48\u0e2a\u0e38\u0e23\u0e34\u0e19\u0e17\u0e23\u0e4c"},"coordinates":[1763,1924]},{"type":"Point","properties":{"kind":"national_park","name:en":"Doi Pha Klong National Park","protect_class":"2","area":202251000,"source":"openstreetmap.org","min_zoom":6.96,"tier":1,"id":400316522,"name":"\u0e2d\u0e38\u0e17\u0e22\u0e32\u0e19\u0e41\u0e2b\u0e48\u0e07\u0e0a\u0e32\u0e15\u0e34\u0e14\u0e2d\u0e22\u0e1c\u0e32\u0e01\u0e25\u0e2d\u0e07"},"coordinates":[3232,1162]},{"type":"Point","properties":{"kind":"national_park","name:en":"Namtok Chat Trakan National Park","protect_class":"2","area":598168000,"source":"openstreetmap.org","min_zoom":6.18,"tier":1,"id":400316523,"name":"\u0e2d\u0e38\u0e17\u0e22\u0e32\u0e19\u0e41\u0e2b\u0e48\u0e07\u0e0a\u0e32\u0e15\u0e34\u0e19\u0e49\u0e33\u0e15\u0e01\u0e0a\u0e32\u0e15\u0e34\u0e15\u0e23\u0e30\u0e01\u0e32\u0e23"},"coordinates":[3727,510]}]},"boundaries":{"type":"GeometryCollection","geometries":[{"type":"MultiLineString","properties":{"source":"naturalearthdata.com","kind":"country","sort_rank":262,"kind_detail":"2","min_zoom":0.0,"id":260},"arcs":[[0],[1],[2],[3],[4],[5],[6],[7],[8],[9],[10],[11],[12],[13],[14],[15]]},{"type":"MultiLineString","properties":{"source":"naturalearthdata.com","kind":"country","sort_rank":262,"kind_detail":"2","min_zoom":0.0,"id":257},"arcs":[[16],[17],[18],[19],[20],[21],[22],[23],[24],[25],[26],[27],[28],[29],[30],[31],[32],[33],[34],[35],[36],[37],[38],[39],[40],[41],[42],[43],[44],[45],[46],[47],[48],[49],[50],[51],[52],[53],[54],[55]]},{"type":"MultiLineString","properties":{"source":"naturalearthdata.com","kind":"country","sort_rank":262,"kind_detail":"2","min_zoom":0.0,"id":258},"arcs":[[56],[57],[58],[59],[60],[61],[62]]},{"type":"MultiLineString","properties":{"source":"naturalearthdata.com","kind":"country","sort_rank":262,"kind_detail":"2","min_zoom":0.0,"id":80},"arcs":[[63],[64],[65]]},{"type":"MultiLineString","properties":{"source":"naturalearthdata.com","kind":"country","sort_rank":262,"kind_detail":"2","min_zoom":0.0,"id":259},"arcs":[[66],[67],[68],[69],[70],[71],[72]]},{"type":"MultiLineString","properties":{"source":"naturalearthdata.com","kind":"region","sort_rank":256,"kind_detail":"4","min_zoom":6.0,"id":7295},"arcs":[[73],[74],[75],[76],[77],[78]]},{"type":"MultiLineString","properties":{"source":"naturalearthdata.com","kind":"region","sort_rank":256,"kind_detail":"4","min_zoom":6.0,"id":7774},"arcs":[[79],[80],[81]]},{"type":"MultiLineString","properties":{"source":"naturalearthdata.com","kind":"region","sort_rank":256,"kind_detail":"4","min_zoom":6.0,"id":7778},"arcs":[[82],[83],[84],[85],[86],[87],[88],[89],[90],[91],[92],[93],[94],[95],[96],[97],[98],[99],[100],[101],[102],[103],[104],[105],[106],[107],[108],[109],[110],[111],[112],[113],[114],[115],[116]]},{"type":"MultiLineString","properties":{"source":"naturalearthdata.com","kind":"region","sort_rank":256,"kind_detail":"4","min_zoom":6.0,"id":7780},"arcs":[[117],[118],[119],[120]]},{"type":"LineString","properties":{"source":"naturalearthdata.com","kind":"region","sort_rank":256,"kind_detail":"4","min_zoom":6.0,"id":7781},"arcs":[121]},{"type":"LineString","properties":{"source":"naturalearthdata.com","kind":"region","sort_rank":256,"kind_detail":"4","min_zoom":6.0,"id":469},"arcs":[122]},{"type":"LineString","properties":{"source":"naturalearthdata.com","kind":"region","sort_rank":256,"kind_detail":"4","min_zoom":6.0,"id":470},"arcs":[123]},{"type":"MultiLineString","properties":{"source":"naturalearthdata.com","kind":"macroregion","sort_rank":257,"kind_detail":"3","min_zoom":6.0,"id":1232},"arcs":[[124],[125],[126],[127],[128]]},{"type":"MultiLineString","properties":{"source":"naturalearthdata.com","kind":"region","sort_rank":256,"kind_detail":"4","min_zoom":6.7,"id":1255},"arcs":[[129],[130],[131],[132],[133],[134],[135]]},{"type":"MultiLineString","properties":{"source":"naturalearthdata.com","kind":"region","sort_rank":256,"kind_detail":"4","min_zoom":6.7,"id":1278},"arcs":[[136],[137],[138],[139],[140],[141],[142]]},{"type":"LineString","properties":{"source":"naturalearthdata.com","kind":"region","sort_rank":256,"kind_detail":"4","min_zoom":6.7,"id":1273},"arcs":[143]},{"type":"MultiLineString","properties":{"source":"naturalearthdata.com","kind":"region","sort_rank":256,"kind_detail":"4","min_zoom":6.7,"id":1274},"arcs":[[144],[145],[146],[147],[148],[149],[150]]},{"type":"MultiLineString","properties":{"source":"naturalearthdata.com","kind":"region","sort_rank":256,"kind_detail":"4","min_zoom":6.7,"id":1275},"arcs":[[151],[152],[153],[154]]},{"type":"MultiLineString","properties":{"source":"naturalearthdata.com","kind":"region","sort_rank":256,"kind_detail":"4","min_zoom":6.7,"id":1276},"arcs":[[155],[156],[157],[158],[159],[160],[161],[162],[163]]},{"type":"LineString","properties":{"source":"naturalearthdata.com","kind":"macroregion","sort_rank":257,"kind_detail":"3","min_zoom":6.0,"id":1277},"arcs":[164]},{"type":"MultiLineString","properties":{"source":"naturalearthdata.com","kind":"macroregion","sort_rank":257,"kind_detail":"3","min_zoom":6.0,"id":1279},"arcs":[[165],[166],[167],[168]]},{"type":"MultiLineString","properties":{"source":"naturalearthdata.com","kind":"region","sort_rank":256,"kind_detail":"4","min_zoom":6.7,"id":1286},"arcs":[[169],[170],[171],[172]]},{"type":"MultiLineString","properties":{"source":"naturalearthdata.com","kind":"macroregion","sort_rank":257,"kind_detail":"3","min_zoom":6.0,"id":1287},"arcs":[[173],[174],[175],[176]]},{"type":"MultiLineString","properties":{"source":"naturalearthdata.com","kind":"region","sort_rank":256,"kind_detail":"4","min_zoom":6.7,"id":1297},"arcs":[[177],[178],[179],[180],[181],[182],[183]]},{"type":"MultiLineString","properties":{"source":"naturalearthdata.com","kind":"region","sort_rank":256,"kind_detail":"4","min_zoom":6.7,"id":1298},"arcs":[[184],[185],[186],[187],[188],[189],[190]]},{"type":"MultiLineString","properties":{"source":"naturalearthdata.com","kind":"region","sort_rank":256,"kind_detail":"4","min_zoom":6.7,"id":1299},"arcs":[[191],[192],[193],[194]]},{"type":"MultiLineString","properties":{"source":"naturalearthdata.com","kind":"region","sort_rank":256,"kind_detail":"4","min_zoom":6.7,"id":1300},"arcs":[[195],[196],[197],[198],[199],[200],[201],[202],[203],[204]]},{"type":"MultiLineString","properties":{"source":"naturalearthdata.com","kind":"macroregion","sort_rank":257,"kind_detail":"3","min_zoom":6.0,"id":1301},"arcs":[[205],[206],[207]]},{"type":"MultiLineString","properties":{"source":"naturalearthdata.com","kind":"region","sort_rank":256,"kind_detail":"4","min_zoom":6.7,"id":1302},"arcs":[[208],[209],[210],[211],[212],[213],[214],[215],[216],[217],[218],[219],[220]]},{"type":"MultiLineString","properties":{"source":"naturalearthdata.com","kind":"region","sort_rank":256,"kind_detail":"4","min_zoom":6.7,"id":1331},"arcs":[[221],[222],[223]]},{"type":"MultiLineString","properties":{"source":"naturalearthdata.com","kind":"region","sort_rank":256,"kind_detail":"4","min_zoom":6.7,"id":1330},"arcs":[[224],[225],[226],[227],[228],[229],[230]]},{"type":"MultiLineString","properties":{"source":"naturalearthdata.com","kind":"region","sort_rank":256,"kind_detail":"4","min_zoom":6.7,"id":1332},"arcs":[[231],[232],[233],[234],[235],[236],[237],[238]]},{"type":"LineString","properties":{"source":"naturalearthdata.com","kind":"macroregion","sort_rank":257,"kind_detail":"3","min_zoom":6.0,"id":1357},"arcs":[239]},{"type":"MultiLineString","properties":{"source":"naturalearthdata.com","kind":"macroregion","sort_rank":257,"kind_detail":"3","min_zoom":6.0,"id":1358},"arcs":[[240],[241],[242],[243],[244],[245],[246]]},{"type":"LineString","properties":{"source":"naturalearthdata.com","kind":"macroregion","sort_rank":257,"kind_detail":"3","min_zoom":6.0,"id":1359},"arcs":[247]},{"type":"MultiLineString","properties":{"source":"naturalearthdata.com","kind":"macroregion","sort_rank":257,"kind_detail":"3","min_zoom":6.0,"id":1361},"arcs":[[248],[249],[250],[251],[252]]},{"type":"MultiLineString","properties":{"source":"naturalearthdata.com","kind":"macroregion","sort_rank":257,"kind_detail":"3","min_zoom":6.0,"id":1362},"arcs":[[253],[254],[255],[256],[257],[258]]},{"type":"MultiLineString","properties":{"source":"naturalearthdata.com","kind":"region","sort_rank":256,"kind_detail":"4","min_zoom":6.7,"id":1374},"arcs":[[259],[260],[261],[262],[263],[264],[265],[266],[267],[268],[269]]},{"type":"MultiLineString","properties":{"source":"naturalearthdata.com","kind":"macroregion","sort_rank":257,"kind_detail":"3","min_zoom":6.0,"id":1375},"arcs":[[270],[271],[272]]},{"type":"MultiLineString","properties":{"source":"naturalearthdata.com","kind":"macroregion","sort_rank":257,"kind_detail":"3","min_zoom":6.0,"id":1511},"arcs":[[273],[274],[275],[276],[277],[278],[279],[280],[281],[282],[283]]},{"type":"MultiLineString","properties":{"source":"naturalearthdata.com","kind":"region","sort_rank":256,"kind_detail":"4","min_zoom":6.7,"id":1512},"arcs":[[284],[285],[286],[287],[288],[289],[290],[291],[292],[293],[294],[295],[296],[297]]},{"type":"MultiLineString","properties":{"source":"naturalearthdata.com","kind":"region","sort_rank":256,"kind_detail":"4","min_zoom":6.7,"id":1513},"arcs":[[298],[299],[300],[301],[302],[303],[304],[305],[306]]},{"type":"MultiLineString","properties":{"source":"naturalearthdata.com","kind":"region","sort_rank":256,"kind_detail":"4","min_zoom":6.0,"id":4866},"arcs":[[307],[308],[309],[310],[311]]},{"type":"LineString","properties":{"source":"naturalearthdata.com","kind":"region","sort_rank":256,"kind_detail":"4","min_zoom":6.0,"id":4867},"arcs":[312]},{"type":"MultiLineString","properties":{"source":"naturalearthdata.com","kind":"region","sort_rank":256,"kind_detail":"4","min_zoom":6.0,"id":4868},"arcs":[[313],[314],[315],[316],[317],[318],[319],[320],[321],[322],[323],[324]]},{"type":"MultiLineString","properties":{"source":"naturalearthdata.com","kind":"region","sort_rank":256,"kind_detail":"4","min_zoom":6.0,"id":7272},"arcs":[[325],[326]]},{"type":"MultiLineString","properties":{"source":"naturalearthdata.com","kind":"region","sort_rank":256,"kind_detail":"4","min_zoom":6.0,"id":7282},"arcs":[[327],[328],[329],[330],[331]]},{"type":"MultiLineString","properties":{"source":"naturalearthdata.com","kind":"region","sort_rank":256,"kind_detail":"4","min_zoom":6.0,"id":7283},"arcs":[[332],[333],[334]]},{"type":"MultiLineString","properties":{"source":"naturalearthdata.com","kind":"region","sort_rank":256,"kind_detail":"4","min_zoom":6.0,"id":7294},"arcs":[[335],[336],[337],[338],[339],[340]]},{"type":"MultiLineString","properties":{"source":"naturalearthdata.com","kind":"region","sort_rank":256,"kind_detail":"4","min_zoom":6.0,"id":7772},"arcs":[[341],[342],[343],[344],[345],[346]]},{"type":"LineString","properties":{"source":"naturalearthdata.com","kind":"region","sort_rank":256,"kind_detail":"4","min_zoom":6.0,"id":7773},"arcs":[347]},{"type":"LineString","properties":{"source":"naturalearthdata.com","kind":"region","sort_rank":256,"kind_detail":"4","min_zoom":6.0,"id":7779},"arcs":[348]},{"type":"MultiLineString","properties":{"source":"naturalearthdata.com","kind":"region","sort_rank":256,"kind_detail":"4","min_zoom":6.0,"id":7783},"arcs":[[349],[350],[351]]},{"type":"MultiLineString","properties":{"source":"naturalearthdata.com","kind":"region","sort_rank":256,"kind_detail":"4","min_zoom":6.0,"id":7784},"arcs":[[352],[353],[354],[355],[356],[357],[358]]},{"type":"LineString","properties":{"source":"naturalearthdata.com","kind":"region","sort_rank":256,"kind_detail":"4","min_zoom":6.0,"id":7790},"arcs":[359]},{"type":"MultiLineString","properties":{"source":"naturalearthdata.com","kind":"region","sort_rank":256,"kind_detail":"4","min_zoom":6.0,"id":7785},"arcs":[[360],[361],[362],[363],[364],[365],[366]]},{"type":"MultiLineString","properties":{"source":"naturalearthdata.com","kind":"region","sort_rank":256,"kind_detail":"4","min_zoom":6.0,"id":7786},"arcs":[[367],[368],[369],[370],[371],[372],[373],[374],[375]]},{"type":"MultiLineString","properties":{"source":"naturalearthdata.com","kind":"region","sort_rank":256,"kind_detail":"4","min_zoom":6.0,"id":7787},"arcs":[[376],[377],[378],[379],[380],[381],[382]]}]},"roads":{"type":"GeometryCollection","geometries":[{"type":"LineString","properties":{"source":"naturalearthdata.com","kind":"minor_road","sort_rank":355,"kind_detail":"tertiary","min_zoom":5.0,"id":33616},"arcs":[391]},{"type":"LineString","properties":{"source":"naturalearthdata.com","kind":"minor_road","sort_rank":355,"kind_detail":"tertiary","min_zoom":5.0,"id":33635},"arcs":[392]},{"type":"LineString","properties":{"source":"naturalearthdata.com","kind":"minor_road","kind_detail":"tertiary","sort_rank":355,"landuse_kind":"urban_area","min_zoom":5.0,"id":33640},"arcs":[393]},{"type":"LineString","properties":{"source":"naturalearthdata.com","kind":"minor_road","sort_rank":355,"kind_detail":"tertiary","min_zoom":5.0,"id":33640},"arcs":[394]},{"type":"LineString","properties":{"source":"naturalearthdata.com","kind":"major_road","kind_detail":"secondary","sort_rank":379,"landuse_kind":"urban_area","min_zoom":4.0,"id":33641},"arcs":[395]},{"type":"MultiLineString","properties":{"source":"naturalearthdata.com","kind":"major_road","sort_rank":379,"kind_detail":"secondary","min_zoom":4.0,"id":33641},"arcs":[[396],[397]]},{"type":"LineString","properties":{"source":"naturalearthdata.com","kind":"major_road","kind_detail":"secondary","sort_rank":379,"landuse_kind":"urban_area","min_zoom":3.0,"id":33650},"arcs":[398]},{"type":"LineString","properties":{"source":"naturalearthdata.com","kind":"major_road","sort_rank":379,"kind_detail":"secondary","min_zoom":3.0,"id":33650},"arcs":[399]},{"type":"LineString","properties":{"source":"naturalearthdata.com","kind":"minor_road","sort_rank":355,"kind_detail":"tertiary","min_zoom":5.0,"id":33659},"arcs":[400]},{"type":"LineString","properties":{"source":"naturalearthdata.com","kind":"minor_road","sort_rank":355,"kind_detail":"tertiary","min_zoom":5.0,"id":33661},"arcs":[401]},{"type":"LineString","properties":{"source":"naturalearthdata.com","kind":"minor_road","sort_rank":355,"kind_detail":"tertiary","min_zoom":5.0,"id":33700},"arcs":[402]},{"type":"LineString","properties":{"source":"naturalearthdata.com","kind":"highway","kind_detail":"motorway","sort_rank":383,"landuse_kind":"urban_area","min_zoom":3.0,"id":33747},"arcs":[403]},{"type":"LineString","properties":{"source":"naturalearthdata.com","kind":"highway","sort_rank":383,"kind_detail":"motorway","min_zoom":3.0,"id":33747},"arcs":[404]},{"type":"LineString","properties":{"source":"naturalearthdata.com","kind":"minor_road","sort_rank":355,"kind_detail":"tertiary","min_zoom":5.0,"id":33786},"arcs":[405]},{"type":"LineString","properties":{"source":"naturalearthdata.com","kind":"highway","sort_rank":383,"kind_detail":"motorway","min_zoom":3.0,"id":33803},"arcs":[406]},{"type":"LineString","properties":{"source":"naturalearthdata.com","kind":"minor_road","sort_rank":355,"kind_detail":"tertiary","min_zoom":5.0,"id":33877},"arcs":[407]},{"type":"LineString","properties":{"source":"naturalearthdata.com","kind":"minor_road","sort_rank":355,"kind_detail":"tertiary","min_zoom":5.0,"id":33919},"arcs":[408]},{"type":"LineString","properties":{"source":"naturalearthdata.com","kind":"minor_road","sort_rank":355,"kind_detail":"tertiary","min_zoom":5.0,"id":33927},"arcs":[409]},{"type":"LineString","properties":{"source":"naturalearthdata.com","kind":"highway","sort_rank":383,"kind_detail":"motorway","min_zoom":3.0,"id":33951},"arcs":[410]},{"type":"LineString","properties":{"source":"naturalearthdata.com","kind":"minor_road","kind_detail":"tertiary","sort_rank":355,"landuse_kind":"national_park","min_zoom":5.0,"id":33993},"arcs":[411]},{"type":"LineString","properties":{"source":"naturalearthdata.com","kind":"minor_road","sort_rank":355,"kind_detail":"tertiary","min_zoom":5.0,"id":33993},"arcs":[412]},{"type":"LineString","properties":{"source":"naturalearthdata.com","kind":"highway","kind_detail":"motorway","sort_rank":383,"landuse_kind":"urban_area","min_zoom":3.0,"id":34031},"arcs":[413]},{"type":"LineString","properties":{"source":"naturalearthdata.com","kind":"highway","sort_rank":383,"kind_detail":"motorway","min_zoom":3.0,"id":34031},"arcs":[414]},{"type":"LineString","properties":{"source":"naturalearthdata.com","kind":"major_road","kind_detail":"secondary","sort_rank":379,"landuse_kind":"urban_area","min_zoom":3.0,"id":34035},"arcs":[415]},{"type":"LineString","properties":{"source":"naturalearthdata.com","kind":"major_road","kind_detail":"secondary","sort_rank":379,"landuse_kind":"urban_area","min_zoom":3.0,"id":34037},"arcs":[416]},{"type":"LineString","properties":{"source":"naturalearthdata.com","kind":"minor_road","sort_rank":355,"kind_detail":"tertiary","min_zoom":5.0,"id":34038},"arcs":[417]},{"type":"LineString","properties":{"source":"naturalearthdata.com","kind":"minor_road","sort_rank":355,"kind_detail":"tertiary","min_zoom":5.0,"id":34040},"arcs":[418]},{"type":"LineString","properties":{"source":"naturalearthdata.com","kind":"minor_road","kind_detail":"tertiary","sort_rank":355,"landuse_kind":"urban_area","min_zoom":5.0,"id":34070},"arcs":[419]},{"type":"LineString","properties":{"source":"naturalearthdata.com","kind":"minor_road","sort_rank":355,"kind_detail":"tertiary","min_zoom":5.0,"id":34070},"arcs":[420]},{"type":"MultiLineString","properties":{"source":"naturalearthdata.com","kind":"minor_road","kind_detail":"tertiary","sort_rank":355,"landuse_kind":"urban_area","min_zoom":5.0,"id":34079},"arcs":[[421],[422]]},{"type":"MultiLineString","properties":{"source":"naturalearthdata.com","kind":"minor_road","sort_rank":355,"kind_detail":"tertiary","min_zoom":5.0,"id":34079},"arcs":[[423],[424]]},{"type":"LineString","properties":{"source":"naturalearthdata.com","kind":"minor_road","kind_detail":"tertiary","sort_rank":355,"landuse_kind":"urban_area","min_zoom":5.0,"id":34081},"arcs":[425]},{"type":"LineString","properties":{"source":"naturalearthdata.com","kind":"minor_road","sort_rank":355,"kind_detail":"tertiary","min_zoom":5.0,"id":34081},"arcs":[426]},{"type":"LineString","properties":{"source":"naturalearthdata.com","kind":"minor_road","sort_rank":355,"kind_detail":"tertiary","min_zoom":5.0,"id":34092},"arcs":[427]},{"type":"LineString","properties":{"source":"naturalearthdata.com","kind":"minor_road","sort_rank":355,"kind_detail":"tertiary","min_zoom":5.0,"id":34102},"arcs":[428]},{"type":"LineString","properties":{"source":"naturalearthdata.com","kind":"minor_road","sort_rank":355,"kind_detail":"tertiary","min_zoom":5.0,"id":34109},"arcs":[429]},{"type":"LineString","properties":{"source":"naturalearthdata.com","kind":"minor_road","kind_detail":"tertiary","sort_rank":355,"landuse_kind":"urban_area","min_zoom":5.0,"id":34111},"arcs":[430]},{"type":"LineString","properties":{"source":"naturalearthdata.com","kind":"minor_road","sort_rank":355,"kind_detail":"tertiary","min_zoom":5.0,"id":34111},"arcs":[431]},{"type":"LineString","properties":{"source":"naturalearthdata.com","kind":"highway","kind_detail":"motorway","sort_rank":383,"landuse_kind":"urban_area","min_zoom":3.0,"id":34122},"arcs":[432]},{"type":"LineString","properties":{"source":"naturalearthdata.com","kind":"highway","sort_rank":383,"kind_detail":"motorway","min_zoom":3.0,"id":34122},"arcs":[433]},{"type":"LineString","properties":{"source":"naturalearthdata.com","kind":"minor_road","sort_rank":355,"kind_detail":"tertiary","min_zoom":5.0,"id":34136},"arcs":[434]},{"type":"LineString","properties":{"source":"naturalearthdata.com","kind":"minor_road","kind_detail":"tertiary","sort_rank":355,"landuse_kind":"urban_area","min_zoom":5.0,"id":34156},"arcs":[435]},{"type":"LineString","properties":{"source":"naturalearthdata.com","kind":"minor_road","sort_rank":355,"kind_detail":"tertiary","min_zoom":5.0,"id":34156},"arcs":[436]},{"type":"LineString","properties":{"source":"naturalearthdata.com","kind":"minor_road","sort_rank":355,"kind_detail":"tertiary","min_zoom":5.0,"id":34162},"arcs":[437]},{"type":"LineString","properties":{"source":"naturalearthdata.com","kind":"minor_road","sort_rank":355,"kind_detail":"tertiary","min_zoom":5.0,"id":34178},"arcs":[438]},{"type":"LineString","properties":{"source":"naturalearthdata.com","kind":"minor_road","kind_detail":"tertiary","sort_rank":355,"landuse_kind":"urban_area","min_zoom":5.0,"id":34232},"arcs":[439]},{"type":"LineString","properties":{"source":"naturalearthdata.com","kind":"minor_road","sort_rank":355,"kind_detail":"tertiary","min_zoom":5.0,"id":34232},"arcs":[440]},{"type":"LineString","properties":{"source":"naturalearthdata.com","kind":"minor_road","kind_detail":"tertiary","sort_rank":355,"landuse_kind":"urban_area","min_zoom":5.0,"id":34275},"arcs":[441]},{"type":"LineString","properties":{"source":"naturalearthdata.com","kind":"minor_road","sort_rank":355,"kind_detail":"tertiary","min_zoom":5.0,"id":34275},"arcs":[442]},{"type":"LineString","properties":{"source":"naturalearthdata.com","kind":"minor_road","kind_detail":"tertiary","sort_rank":355,"landuse_kind":"urban_area","min_zoom":5.0,"id":34283},"arcs":[443]},{"type":"LineString","properties":{"source":"naturalearthdata.com","kind":"minor_road","sort_rank":355,"kind_detail":"tertiary","min_zoom":5.0,"id":34290},"arcs":[444]},{"type":"LineString","properties":{"source":"naturalearthdata.com","kind":"minor_road","sort_rank":355,"kind_detail":"tertiary","min_zoom":5.0,"id":34305},"arcs":[445]},{"type":"LineString","properties":{"source":"naturalearthdata.com","kind":"minor_road","kind_detail":"tertiary","sort_rank":355,"landuse_kind":"urban_area","min_zoom":5.0,"id":34313},"arcs":[446]},{"type":"LineString","properties":{"source":"naturalearthdata.com","kind":"minor_road","sort_rank":355,"kind_detail":"tertiary","min_zoom":5.0,"id":34313},"arcs":[447]},{"type":"LineString","properties":{"source":"naturalearthdata.com","kind":"highway","sort_rank":383,"kind_detail":"motorway","min_zoom":3.0,"id":34335},"arcs":[448]},{"type":"LineString","properties":{"source":"naturalearthdata.com","kind":"minor_road","sort_rank":355,"kind_detail":"tertiary","min_zoom":5.0,"id":34358},"arcs":[449]},{"type":"LineString","properties":{"source":"naturalearthdata.com","kind":"minor_road","sort_rank":355,"kind_detail":"tertiary","min_zoom":5.0,"id":34367},"arcs":[450]},{"type":"LineString","properties":{"source":"naturalearthdata.com","kind":"minor_road","kind_detail":"tertiary","sort_rank":355,"landuse_kind":"national_park","min_zoom":5.0,"id":34427},"arcs":[451]},{"type":"MultiLineString","properties":{"source":"naturalearthdata.com","kind":"minor_road","sort_rank":355,"kind_detail":"tertiary","min_zoom":5.0,"id":34427},"arcs":[[452],[453]]},{"type":"LineString","properties":{"source":"naturalearthdata.com","kind":"minor_road","kind_detail":"tertiary","sort_rank":355,"landuse_kind":"national_park","min_zoom":5.0,"id":34435},"arcs":[454]},{"type":"LineString","properties":{"source":"naturalearthdata.com","kind":"minor_road","sort_rank":355,"kind_detail":"tertiary","min_zoom":5.0,"id":34435},"arcs":[455]},{"type":"LineString","properties":{"source":"naturalearthdata.com","kind":"minor_road","sort_rank":355,"kind_detail":"tertiary","min_zoom":5.0,"id":34451},"arcs":[456]},{"type":"LineString","properties":{"source":"naturalearthdata.com","kind":"minor_road","sort_rank":355,"kind_detail":"tertiary","min_zoom":5.0,"id":34459},"arcs":[457]},{"type":"MultiLineString","properties":{"source":"naturalearthdata.com","kind":"minor_road","kind_detail":"tertiary","sort_rank":355,"landuse_kind":"national_park","min_zoom":5.0,"id":34477},"arcs":[[458],[459]]},{"type":"MultiLineString","properties":{"source":"naturalearthdata.com","kind":"minor_road","sort_rank":355,"kind_detail":"tertiary","min_zoom":5.0,"id":34477},"arcs":[[460],[461]]},{"type":"LineString","properties":{"source":"naturalearthdata.com","kind":"minor_road","sort_rank":355,"kind_detail":"tertiary","min_zoom":5.0,"id":34483},"arcs":[462]},{"type":"LineString","properties":{"source":"naturalearthdata.com","kind":"minor_road","sort_rank":355,"kind_detail":"tertiary","min_zoom":5.0,"id":34491},"arcs":[463]},{"type":"LineString","properties":{"source":"naturalearthdata.com","kind":"minor_road","sort_rank":355,"kind_detail":"tertiary","min_zoom":5.0,"id":34500},"arcs":[464]},{"type":"LineString","properties":{"source":"naturalearthdata.com","kind":"highway","sort_rank":383,"kind_detail":"motorway","min_zoom":3.0,"id":34501},"arcs":[465]},{"type":"LineString","properties":{"source":"naturalearthdata.com","kind":"highway","sort_rank":383,"kind_detail":"motorway","min_zoom":3.0,"id":34527},"arcs":[466]},{"type":"LineString","properties":{"source":"naturalearthdata.com","kind":"minor_road","sort_rank":355,"kind_detail":"tertiary","min_zoom":6.0,"id":34528},"arcs":[467]},{"type":"MultiLineString","properties":{"source":"naturalearthdata.com","kind":"minor_road","kind_detail":"tertiary","sort_rank":355,"landuse_kind":"urban_area","min_zoom":5.0,"id":34537},"arcs":[[468],[469]]},{"type":"MultiLineString","properties":{"source":"naturalearthdata.com","kind":"minor_road","sort_rank":355,"kind_detail":"tertiary","min_zoom":5.0,"id":34537},"arcs":[[470],[471]]},{"type":"LineString","properties":{"source":"naturalearthdata.com","kind":"minor_road","sort_rank":355,"kind_detail":"tertiary","min_zoom":5.0,"id":34548},"arcs":[472]},{"type":"LineString","properties":{"source":"naturalearthdata.com","kind":"minor_road","kind_detail":"tertiary","sort_rank":355,"landuse_kind":"urban_area","min_zoom":5.0,"id":34559},"arcs":[473]},{"type":"LineString","properties":{"source":"naturalearthdata.com","kind":"minor_road","sort_rank":355,"kind_detail":"tertiary","min_zoom":5.0,"id":34559},"arcs":[474]},{"type":"LineString","properties":{"source":"naturalearthdata.com","kind":"major_road","kind_detail":"secondary","sort_rank":379,"landuse_kind":"urban_area","min_zoom":4.0,"id":34565},"arcs":[475]},{"type":"LineString","properties":{"source":"naturalearthdata.com","kind":"major_road","sort_rank":379,"kind_detail":"secondary","min_zoom":4.0,"id":34565},"arcs":[476]},{"type":"LineString","properties":{"source":"naturalearthdata.com","kind":"major_road","kind_detail":"secondary","sort_rank":379,"landuse_kind":"urban_area","min_zoom":4.0,"id":34566},"arcs":[477]},{"type":"LineString","properties":{"source":"naturalearthdata.com","kind":"major_road","kind_detail":"secondary","sort_rank":379,"landuse_kind":"urban_area","min_zoom":4.0,"id":34566},"arcs":[478]},{"type":"LineString","properties":{"source":"naturalearthdata.com","kind":"major_road","sort_rank":379,"kind_detail":"secondary","min_zoom":4.0,"id":34566},"arcs":[479]},{"type":"LineString","properties":{"source":"naturalearthdata.com","kind":"major_road","kind_detail":"secondary","sort_rank":379,"landuse_kind":"urban_area","min_zoom":4.0,"id":34567},"arcs":[480]},{"type":"LineString","properties":{"source":"naturalearthdata.com","kind":"major_road","kind_detail":"secondary","sort_rank":379,"landuse_kind":"urban_area","min_zoom":4.0,"id":34568},"arcs":[481]},{"type":"LineString","properties":{"source":"naturalearthdata.com","kind":"major_road","kind_detail":"secondary","sort_rank":379,"landuse_kind":"urban_area","min_zoom":4.0,"id":34568},"arcs":[482]},{"type":"LineString","properties":{"source":"naturalearthdata.com","kind":"major_road","sort_rank":379,"kind_detail":"secondary","min_zoom":4.0,"id":34568},"arcs":[483]},{"type":"LineString","properties":{"source":"naturalearthdata.com","kind":"minor_road","kind_detail":"tertiary","sort_rank":355,"landuse_kind":"urban_area","min_zoom":5.0,"id":34569},"arcs":[484]},{"type":"LineString","properties":{"source":"naturalearthdata.com","kind":"minor_road","kind_detail":"tertiary","sort_rank":355,"landuse_kind":"urban_area","min_zoom":5.0,"id":34571},"arcs":[485]},{"type":"LineString","properties":{"source":"naturalearthdata.com","kind":"minor_road","sort_rank":355,"kind_detail":"tertiary","min_zoom":5.0,"id":34571},"arcs":[486]},{"type":"LineString","properties":{"source":"naturalearthdata.com","kind":"major_road","kind_detail":"secondary","sort_rank":379,"landuse_kind":"urban_area","min_zoom":3.0,"id":34628},"arcs":[487]},{"type":"LineString","properties":{"source":"naturalearthdata.com","kind":"major_road","sort_rank":379,"kind_detail":"secondary","min_zoom":3.0,"id":34628},"arcs":[488]},{"type":"LineString","properties":{"source":"naturalearthdata.com","kind":"minor_road","sort_rank":355,"kind_detail":"tertiary","min_zoom":5.0,"id":34634},"arcs":[489]},{"type":"LineString","properties":{"source":"naturalearthdata.com","kind":"major_road","kind_detail":"secondary","sort_rank":379,"landuse_kind":"urban_area","min_zoom":3.0,"id":34639},"arcs":[490]},{"type":"LineString","properties":{"source":"naturalearthdata.com","kind":"major_road","sort_rank":379,"kind_detail":"secondary","min_zoom":3.0,"id":34639},"arcs":[491]},{"type":"LineString","properties":{"source":"naturalearthdata.com","kind":"minor_road","kind_detail":"tertiary","sort_rank":355,"landuse_kind":"urban_area","min_zoom":5.0,"id":34650},"arcs":[492]},{"type":"MultiLineString","properties":{"source":"naturalearthdata.com","kind":"minor_road","sort_rank":355,"kind_detail":"tertiary","min_zoom":5.0,"id":34650},"arcs":[[493],[494]]},{"type":"LineString","properties":{"source":"naturalearthdata.com","kind":"major_road","sort_rank":379,"kind_detail":"secondary","min_zoom":3.0,"id":34651},"arcs":[495]},{"type":"LineString","properties":{"source":"naturalearthdata.com","kind":"minor_road","sort_rank":355,"kind_detail":"tertiary","min_zoom":5.0,"id":34733},"arcs":[496]},{"type":"LineString","properties":{"source":"naturalearthdata.com","kind":"major_road","sort_rank":379,"kind_detail":"secondary","min_zoom":3.0,"id":34836},"arcs":[497]},{"type":"LineString","properties":{"source":"naturalearthdata.com","kind":"minor_road","sort_rank":355,"kind_detail":"tertiary","min_zoom":5.0,"id":34880},"arcs":[498]},{"type":"LineString","properties":{"source":"naturalearthdata.com","kind":"major_road","sort_rank":379,"kind_detail":"secondary","min_zoom":3.0,"id":34896},"arcs":[499]},{"type":"LineString","properties":{"source":"naturalearthdata.com","kind":"major_road","sort_rank":379,"kind_detail":"secondary","min_zoom":3.0,"id":34897},"arcs":[500]},{"type":"LineString","properties":{"source":"naturalearthdata.com","kind":"highway","sort_rank":383,"kind_detail":"motorway","min_zoom":3.0,"id":34898},"arcs":[501]},{"type":"LineString","properties":{"source":"naturalearthdata.com","kind":"major_road","sort_rank":379,"kind_detail":"secondary","min_zoom":3.0,"id":34910},"arcs":[502]},{"type":"LineString","properties":{"source":"naturalearthdata.com","kind":"major_road","sort_rank":379,"kind_detail":"secondary","min_zoom":3.0,"id":34912},"arcs":[503]},{"type":"LineString","properties":{"source":"naturalearthdata.com","kind":"minor_road","sort_rank":355,"kind_detail":"tertiary","min_zoom":5.0,"id":34920},"arcs":[504]},{"type":"LineString","properties":{"source":"naturalearthdata.com","kind":"major_road","kind_detail":"secondary","sort_rank":379,"landuse_kind":"urban_area","min_zoom":3.0,"id":34958},"arcs":[505]},{"type":"MultiLineString","properties":{"source":"naturalearthdata.com","kind":"major_road","sort_rank":379,"kind_detail":"secondary","min_zoom":3.0,"id":34958},"arcs":[[506],[507]]},{"type":"LineString","properties":{"source":"naturalearthdata.com","kind":"minor_road","kind_detail":"tertiary","sort_rank":355,"landuse_kind":"urban_area","min_zoom":5.0,"id":34961},"arcs":[508]},{"type":"LineString","properties":{"source":"naturalearthdata.com","kind":"minor_road","sort_rank":355,"kind_detail":"tertiary","min_zoom":5.0,"id":34961},"arcs":[509]},{"type":"LineString","properties":{"source":"naturalearthdata.com","kind":"minor_road","sort_rank":355,"kind_detail":"tertiary","min_zoom":5.0,"id":34974},"arcs":[510]},{"type":"LineString","properties":{"source":"naturalearthdata.com","kind":"major_road","sort_rank":379,"kind_detail":"secondary","min_zoom":3.0,"id":34987},"arcs":[511]},{"type":"LineString","properties":{"source":"naturalearthdata.com","kind":"major_road","sort_rank":379,"kind_detail":"secondary","min_zoom":3.0,"id":34994},"arcs":[512]},{"type":"LineString","properties":{"source":"naturalearthdata.com","kind":"highway","sort_rank":383,"kind_detail":"motorway","min_zoom":3.0,"id":35004},"arcs":[513]},{"type":"LineString","properties":{"source":"naturalearthdata.com","kind":"highway","sort_rank":383,"kind_detail":"motorway","min_zoom":3.0,"id":35036},"arcs":[514]},{"type":"LineString","properties":{"source":"naturalearthdata.com","kind":"minor_road","sort_rank":355,"kind_detail":"tertiary","min_zoom":5.0,"id":35037},"arcs":[515]},{"type":"LineString","properties":{"source":"naturalearthdata.com","kind":"minor_road","kind_detail":"tertiary","sort_rank":355,"landuse_kind":"urban_area","min_zoom":5.0,"id":35040},"arcs":[516]},{"type":"LineString","properties":{"source":"naturalearthdata.com","kind":"minor_road","kind_detail":"tertiary","sort_rank":355,"landuse_kind":"urban_area","min_zoom":5.0,"id":35040},"arcs":[517]},{"type":"LineString","properties":{"source":"naturalearthdata.com","kind":"minor_road","sort_rank":355,"kind_detail":"tertiary","min_zoom":5.0,"id":35040},"arcs":[518]},{"type":"LineString","properties":{"source":"naturalearthdata.com","kind":"minor_road","kind_detail":"tertiary","sort_rank":355,"landuse_kind":"urban_area","min_zoom":5.0,"id":35050},"arcs":[519]},{"type":"LineString","properties":{"source":"naturalearthdata.com","kind":"minor_road","sort_rank":355,"kind_detail":"tertiary","min_zoom":5.0,"id":35050},"arcs":[520]},{"type":"LineString","properties":{"source":"naturalearthdata.com","kind":"minor_road","kind_detail":"tertiary","sort_rank":355,"landuse_kind":"urban_area","min_zoom":5.0,"id":35086},"arcs":[521]},{"type":"LineString","properties":{"source":"naturalearthdata.com","kind":"minor_road","sort_rank":355,"kind_detail":"tertiary","min_zoom":5.0,"id":35086},"arcs":[522]},{"type":"LineString","properties":{"source":"naturalearthdata.com","kind":"major_road","sort_rank":379,"kind_detail":"secondary","min_zoom":3.0,"id":35093},"arcs":[523]},{"type":"LineString","properties":{"source":"naturalearthdata.com","kind":"major_road","sort_rank":379,"kind_detail":"secondary","min_zoom":3.0,"id":35104},"arcs":[524]},{"type":"LineString","properties":{"source":"naturalearthdata.com","kind":"minor_road","kind_detail":"tertiary","sort_rank":355,"landuse_kind":"national_park","min_zoom":5.0,"id":35112},"arcs":[525]},{"type":"LineString","properties":{"source":"naturalearthdata.com","kind":"minor_road","kind_detail":"tertiary","sort_rank":355,"landuse_kind":"urban_area","min_zoom":5.0,"id":35112},"arcs":[526]},{"type":"MultiLineString","properties":{"source":"naturalearthdata.com","kind":"minor_road","sort_rank":355,"kind_detail":"tertiary","min_zoom":5.0,"id":35112},"arcs":[[527],[528]]},{"type":"LineString","properties":{"source":"naturalearthdata.com","kind":"major_road","kind_detail":"secondary","sort_rank":379,"landuse_kind":"urban_area","min_zoom":3.0,"id":35113},"arcs":[529]},{"type":"LineString","properties":{"source":"naturalearthdata.com","kind":"major_road","sort_rank":379,"kind_detail":"secondary","min_zoom":3.0,"id":35113},"arcs":[530]},{"type":"LineString","properties":{"source":"naturalearthdata.com","kind":"major_road","sort_rank":379,"kind_detail":"secondary","min_zoom":3.0,"id":35115},"arcs":[531]},{"type":"LineString","properties":{"source":"naturalearthdata.com","kind":"major_road","kind_detail":"secondary","sort_rank":379,"landuse_kind":"urban_area","min_zoom":4.0,"id":35124},"arcs":[532]},{"type":"LineString","properties":{"source":"naturalearthdata.com","kind":"major_road","sort_rank":379,"kind_detail":"secondary","min_zoom":4.0,"id":35124},"arcs":[533]},{"type":"LineString","properties":{"source":"naturalearthdata.com","kind":"minor_road","sort_rank":355,"kind_detail":"tertiary","min_zoom":5.0,"id":35132},"arcs":[534]},{"type":"LineString","properties":{"source":"naturalearthdata.com","kind":"minor_road","kind_detail":"tertiary","sort_rank":355,"landuse_kind":"urban_area","min_zoom":5.0,"id":35135},"arcs":[535]},{"type":"MultiLineString","properties":{"source":"naturalearthdata.com","kind":"minor_road","sort_rank":355,"kind_detail":"tertiary","min_zoom":5.0,"id":35135},"arcs":[[536],[537]]},{"type":"LineString","properties":{"source":"naturalearthdata.com","kind":"minor_road","sort_rank":355,"kind_detail":"tertiary","min_zoom":5.0,"id":35145},"arcs":[538]},{"type":"LineString","properties":{"source":"naturalearthdata.com","kind":"major_road","sort_rank":379,"kind_detail":"secondary","min_zoom":3.0,"id":35149},"arcs":[539]},{"type":"LineString","properties":{"source":"naturalearthdata.com","kind":"minor_road","kind_detail":"tertiary","sort_rank":355,"landuse_kind":"urban_area","min_zoom":6.0,"id":35156},"arcs":[540]},{"type":"LineString","properties":{"source":"naturalearthdata.com","kind":"minor_road","sort_rank":355,"kind_detail":"tertiary","min_zoom":6.0,"id":35156},"arcs":[541]},{"type":"LineString","properties":{"source":"naturalearthdata.com","kind":"highway","kind_detail":"motorway","sort_rank":383,"landuse_kind":"urban_area","min_zoom":3.0,"id":35157},"arcs":[542]},{"type":"LineString","properties":{"source":"naturalearthdata.com","kind":"highway","sort_rank":383,"kind_detail":"motorway","min_zoom":3.0,"id":35157},"arcs":[543]},{"type":"LineString","properties":{"source":"naturalearthdata.com","kind":"major_road","kind_detail":"secondary","sort_rank":379,"landuse_kind":"urban_area","min_zoom":3.0,"id":35166},"arcs":[544]},{"type":"LineString","properties":{"source":"naturalearthdata.com","kind":"minor_road","sort_rank":355,"kind_detail":"tertiary","min_zoom":5.0,"id":35169},"arcs":[545]},{"type":"LineString","properties":{"source":"naturalearthdata.com","kind":"major_road","kind_detail":"secondary","sort_rank":379,"landuse_kind":"urban_area","min_zoom":3.0,"id":35180},"arcs":[546]},{"type":"LineString","properties":{"source":"naturalearthdata.com","kind":"major_road","sort_rank":379,"kind_detail":"secondary","min_zoom":3.0,"id":35180},"arcs":[547]},{"type":"LineString","properties":{"source":"naturalearthdata.com","kind":"major_road","sort_rank":379,"kind_detail":"secondary","min_zoom":3.0,"id":35208},"arcs":[548]},{"type":"LineString","properties":{"source":"naturalearthdata.com","kind":"major_road","kind_detail":"secondary","sort_rank":379,"landuse_kind":"national_park","min_zoom":3.0,"id":35227},"arcs":[549]},{"type":"LineString","properties":{"source":"naturalearthdata.com","kind":"major_road","kind_detail":"secondary","sort_rank":379,"landuse_kind":"national_park","min_zoom":3.0,"id":35227},"arcs":[550]},{"type":"MultiLineString","properties":{"source":"naturalearthdata.com","kind":"major_road","sort_rank":379,"kind_detail":"secondary","min_zoom":3.0,"id":35227},"arcs":[[551],[552],[553]]},{"type":"LineString","properties":{"source":"naturalearthdata.com","kind":"minor_road","sort_rank":355,"kind_detail":"tertiary","min_zoom":5.0,"id":35237},"arcs":[554]},{"type":"LineString","properties":{"source":"naturalearthdata.com","kind":"major_road","sort_rank":379,"kind_detail":"secondary","min_zoom":3.0,"id":35282},"arcs":[555]},{"type":"LineString","properties":{"source":"naturalearthdata.com","kind":"major_road","sort_rank":379,"kind_detail":"secondary","min_zoom":3.0,"id":35291},"arcs":[556]},{"type":"LineString","properties":{"source":"naturalearthdata.com","kind":"minor_road","sort_rank":355,"kind_detail":"tertiary","min_zoom":5.0,"id":35343},"arcs":[557]}]},"earth":{"type":"GeometryCollection","geometries":[{"type":"MultiPolygon","properties":{"sort_rank":10,"source":"naturalearthdata.com","min_zoom":0.0,"kind":"earth","area":741075047450},"arcs":[[[558]]]}]},"landuse":{"type":"GeometryCollection","geometries":[{"type":"MultiPolygon","properties":{"kind":"national_park","protect_class":"2","area":34360631050,"sort_rank":18,"source":"openstreetmap.org","min_zoom":3.0,"tier":1,"osm_relation":true},"arcs":[[[559],[560],[561]],[[562],[563]],[[564]],[[565]],[[566]],[[567],[568]],[[569]],[[570]],[[571],[572],[573],[574],[575],[576]],[[577],[578]],[[579],[580],[581]],[[582]],[[583]],[[584]],[[585],[586],[587],[588],[589],[590],[591],[592],[593],[594],[595],[596],[597],[598],[599],[600],[601],[602],[603],[604],[605]],[[606],[607],[608],[609],[610]],[[611]],[[612]],[[613],[614],[615],[616],[617],[618]],[[619]],[[620]],[[621],[622],[623],[624],[625],[626],[627],[628],[629],[630],[631],[632],[633],[634],[635],[636]],[[637],[638]]]},{"type":"MultiPolygon","properties":{"source":"openstreetmap.org","kind":"national_park","tier":1,"protect_class":"2","area":1110652501,"sort_rank":18,"min_zoom":3.0},"arcs":[[[639]],[[640]]]},{"type":"MultiPolygon","properties":{"source":"openstreetmap.org","kind":"park","tier":2,"area":1005523458,"sort_rank":24,"min_zoom":6.0},"arcs":[[[641]]]},{"type":"MultiPolygon","properties":{"source":"naturalearthdata.com","kind":"urban_area","name":"","area":9171341571,"sort_rank":11,"min_zoom":4.0},"arcs":[[[642]],[[643]],[[644]],[[645]],[[646]],[[647]],[[648]],[[649]],[[650]],[[651]],[[652]],[[653]],[[654]],[[655]],[[656]],[[657]],[[658]],[[659]],[[660]]]},{"type":"Polygon","properties":{"kind":"national_park","protect_class":"2","area":202251008,"sort_rank":18,"source":"openstreetmap.org","min_zoom":5.0,"tier":1,"id":400316522},"arcs":[[661]]},{"type":"MultiPolygon","properties":{"kind":"national_park","protect_class":"2","area":2037931688,"sort_rank":18,"source":"openstreetmap.org","min_zoom":5.0,"tier":1,"osm_relation":true},"arcs":[[[662]],[[663]],[[664]],[[665]],[[666]],[[667]],[[668],[669]],[[670],[671],[672]]]},{"type":"MultiPolygon","properties":{"kind":"park","area":2129090048,"sort_rank":24,"source":"openstreetmap.org","min_zoom":4.0,"tier":2,"id":-2277878,"osm_relation":true},"arcs":[[[673]],[[674]]]}]}},"type":"Topology","transform":{"translate":[95.625,16.6361918784],"scale":[0.001373291,0.0012956186]},"arcs":[[[3409,2905],[28,-8],[14,-16],[42,-92],[19,-24],[3,-6],[4,-11],[2,-5],[6,-3],[12,-6],[3,-4],[5,-6],[12,-8],[12,-4]],[[3284,2781],[13,0],[11,11],[-1,30],[7,6],[2,2],[17,6],[4,0],[1,2],[8,28],[15,18],[22,15],[26,6]],[[3258,2842],[-1,-27],[4,-15],[10,-12],[13,-7]],[[3584,2726],[1,-8],[2,-39],[-6,-31],[-18,-55],[-18,-49],[-4,-27],[-3,-13],[-7,-12],[-6,-4],[-14,-6],[-6,-4],[-5,-7],[-8,-21],[-9,-13],[-18,-23],[-3,-14],[3,-11],[5,-5],[7,-10],[5,-9],[3,-12],[1,-26],[5,-13],[6,-10],[15,-18],[6,-10],[2,-13],[0,-13],[2,-11],[9,-9],[13,-8],[21,-10],[21,-6]],[[3571,2712],[6,3],[3,10],[4,1]],[[3826,2298],[5,-1]],[[3734,2197],[7,10],[33,32],[30,35],[9,16],[3,3],[7,5],[3,0]],[[3895,2298],[21,-2],[16,-6],[32,-20],[20,-8],[21,-1]],[[3831,2297],[64,1]],[[4065,2280],[13,-4],[9,-5],[6,-6],[3,-6]],[[4096,2204],[-9,-15],[-16,-5],[-17,-10],[-11,-28],[-4,-31],[5,-23],[5,-4],[12,-2],[4,-3],[3,-7],[0,-4],[-2,-4],[1,-5],[14,-64],[-2,-46],[2,-18],[5,-12],[8,-9],[2,-2]],[[4096,1756],[-12,-14],[-6,-14],[-1,-15],[3,-46],[-3,-13],[-11,-25],[-2,-13],[4,-14],[17,-17],[4,-12],[-4,-12],[-9,-13],[-21,-19],[-6,-4],[-13,-4],[-5,-5],[-2,-8],[1,-17],[-3,-9],[-10,-9],[-46,-26],[-3,-4],[-2,-8],[-5,-15],[-21,-22],[-4,-15],[5,-14],[10,-13],[17,-17],[6,-5],[46,-22],[7,-10],[-2,-5],[-12,-14],[-4,-6],[-2,-8],[0,-27],[3,-5],[6,-16],[4,-4],[5,-3],[5,-4],[3,-7],[-2,-12],[-11,-29],[-3,-14],[3,-15],[12,-28],[2,-11],[-5,-10],[-24,-15],[-9,-8],[-13,-20],[-9,-21],[-12,-18],[-19,-17],[-23,-13],[-5,-8],[-3,-16],[2,-26],[-4,-10],[-15,-7],[-5,-4],[-1,-5],[1,-5],[5,-5],[1,-2],[0,-1],[0,-2],[-1,-2],[-7,-3],[-4,-5],[-2,-7],[2,-8],[1,-15],[-3,-14],[-2,-6],[-15,-35],[-24,-29],[-10,-16],[0,-17],[12,-9],[26,-5],[31,-7],[15,-7],[13,-9],[12,-11],[10,-13],[12,-2],[22,-13],[21,-9],[3,-2]],[[4005,2261],[20,2],[18,5],[8,5],[7,4],[7,3]],[[3647,2243],[59,-23],[11,-6],[6,-7],[6,-8],[5,-2]],[[3586,2206],[12,1],[6,10],[8,13],[16,12],[19,1]],[[4008,637],[2,0],[7,4],[4,4],[13,18],[1,12],[8,4],[10,2],[8,4],[5,6],[14,29],[14,18],[2,2]],[[3140,2940],[4,-1],[7,-6],[5,-7],[1,-7],[3,-7],[7,-6],[9,-11],[7,-3]],[[3018,2850],[13,4],[12,12],[7,12],[9,28],[9,12],[13,9],[16,5],[40,6],[3,2]],[[3192,2892],[10,-2],[10,-6],[5,-6],[3,-8],[6,-8],[32,-20]],[[3183,2892],[9,0]],[[2778,2891],[10,-4],[36,-24],[56,-19],[7,0]],[[2673,2645],[18,2],[88,28],[24,20],[10,10],[8,5],[7,4],[1,1],[8,13],[4,20],[-6,12],[-23,26],[-9,45],[-6,14],[-27,28],[-6,13],[14,5]],[[2989,2850],[29,0]],[[2932,2833],[14,3],[27,11],[16,3]],[[2900,2846],[8,-1],[6,-3],[11,-7],[7,-2]],[[2887,2844],[13,2]],[[2573,2692],[14,-2],[30,-8],[13,-6],[28,-24],[15,-7]],[[2373,2400],[11,2],[26,19],[29,12],[10,8],[9,17],[6,19],[-1,15],[-3,14],[-3,19],[2,8],[3,5],[4,4],[1,4],[0,7],[-4,14],[-1,8],[8,53],[14,26],[27,20],[32,13],[30,5]],[[1763,2448],[11,-11],[9,-13],[9,-3]],[[1730,2316],[5,2],[4,10],[1,13],[-6,28],[-1,14],[9,51],[5,10],[16,4]],[[2318,2447],[22,-10],[10,-7],[9,-9],[14,-21]],[[2117,2346],[3,1],[1,5],[8,7],[14,6],[17,3],[5,4],[13,16],[6,6],[12,5],[65,10],[14,5],[43,33]],[[1811,2424],[15,-8],[29,-27],[24,-8],[6,-3],[3,-7],[-1,-16],[2,-8],[13,-10]],[[1792,2421],[19,3]],[[2085,2370],[7,-5],[5,-7],[8,-6],[12,-6]],[[2017,2354],[33,1],[25,14],[2,0],[8,1]],[[1983,2358],[34,-4]],[[1902,2337],[19,4],[32,16],[30,1]],[[1722,2316],[8,0]],[[1576,2039],[7,3],[5,15],[-6,13],[-11,15],[-4,18],[-1,8],[-6,15],[0,5],[24,34],[24,21],[6,8],[5,12],[0,4],[-3,4],[-2,10],[-2,15],[1,14],[6,10],[15,2],[12,2],[46,22],[5,6],[11,13],[6,5],[8,3]],[[1567,2040],[9,-1]],[[1542,1492],[2,1],[5,9],[5,31],[-5,32],[-8,30],[-4,29],[0,17],[-2,14],[-9,29],[-1,6],[3,20],[-3,10],[-8,8],[-17,13],[-17,17],[-3,9],[8,8],[15,11],[10,11],[6,12],[4,30],[8,14],[45,35],[11,12],[5,11],[3,61],[-2,13],[-5,15],[-7,7],[-19,16],[-4,7],[2,8],[7,2]],[[1539,1493],[3,-1]],[[1504,1483],[35,10]],[[1465,1484],[39,-1]],[[1372,1432],[29,14],[50,34],[14,4]],[[1257,1478],[16,-2],[5,-1],[6,-4],[15,-24],[2,-6],[4,-6],[8,-5],[7,-1]],[[1386,1257],[-15,9],[-16,12],[-14,15],[-10,17],[-4,19],[-1,18],[-2,17],[-19,29],[-16,36],[-3,11],[-9,15],[-15,14],[-5,9]],[[1338,1433],[34,-1]],[[1320,1429],[18,4]],[[1509,1100],[-2,0],[-1,7],[0,4],[4,7],[0,5],[-1,8],[-7,14],[-2,9],[0,7],[0,4],[-3,5],[-38,53],[-8,16],[2,7],[11,5],[6,12],[0,14],[-4,12],[-10,6],[-37,15]],[[1419,1310],[-8,-2],[-2,-2],[-13,-37],[-3,-6],[-7,-6]],[[2111,165],[-6,22],[-5,11],[-6,5],[-12,5],[-3,11],[0,13],[-4,11],[-8,10],[-12,25],[-8,12],[-13,13],[-13,9],[-15,4],[-36,1],[-12,4],[-10,10],[-10,17],[3,3],[3,7],[0,6],[-19,0],[-2,7],[4,8],[6,7],[-17,12],[-26,38],[-14,11],[-11,7],[-62,60],[-6,8],[-2,10],[3,16],[0,10],[-4,11],[-9,5],[-10,4],[-10,5],[-10,10],[-5,11],[-7,22],[-16,26],[-4,11],[-6,8],[-8,5],[-17,8],[-11,7],[-19,18],[-101,96],[-7,10],[-4,10],[-1,10],[0,9],[-2,8],[-6,8],[-18,15],[-4,9],[-3,10],[-8,9],[-9,8],[-5,11],[16,2],[-10,37],[5,11],[21,37],[20,13],[2,3],[2,4],[-1,9],[-4,9],[-2,4],[-3,4],[-11,26],[-2,9],[-1,4],[-10,4],[-3,2]],[[1513,1100],[-4,0]],[[2094,174],[8,-2],[9,-7]],[[2110,0],[-8,5],[-10,15],[-5,21],[-3,9],[-22,17],[-1,14],[5,15],[9,12],[11,4],[11,7],[9,10],[2,8],[-5,7],[-7,3],[-7,3],[-3,10],[2,11],[6,3]],[[3157,4096],[-4,-14],[-25,-56],[-2,-18],[3,-13],[13,-27],[8,-43],[7,-13],[26,-14],[63,-2],[28,-8],[10,-9],[6,-5],[2,-5],[-2,-7],[-5,-2],[-7,-2],[-8,-4],[-9,-11],[-6,-13],[-5,-13],[-2,-11],[0,-13],[3,-17],[6,-16],[7,-9],[15,-11],[25,-35],[18,-7]],[[3974,3960],[27,-5],[4,-13],[2,-37],[6,-8],[10,-7],[9,-14],[5,-16],[-2,-11],[6,-9],[-5,-9],[-7,-10],[-3,-14],[4,-12]],[[3583,3718],[19,1],[37,11],[17,9],[11,11],[0,1],[31,16],[39,41],[29,43],[28,25],[31,15],[70,21],[14,5],[36,26],[9,8],[10,5],[10,4]],[[3450,3779],[15,-3],[11,-7],[22,-19],[4,-13],[7,-11],[9,-7]],[[3322,3698],[8,4],[23,19],[11,6],[22,8],[11,6],[9,9],[0,1],[9,13],[9,9],[11,4],[15,2]],[[3548,3725],[35,-7]],[[3518,3719],[13,2],[17,4]],[[4030,3795],[11,-1],[9,-13],[1,-22],[-15,-63],[3,-17],[5,-4],[21,-11],[14,-10]],[[4082,3655],[2,0],[1,-6],[-9,-22],[-11,-16],[2,-5],[6,-6],[1,-3],[-1,-11],[-7,-28],[8,-10],[11,-21],[7,-10],[4,-4]],[[4079,3654],[3,1]],[[4030,3795],[1,-14],[-3,-12],[-10,-5],[-102,-83],[-68,-35],[-10,-3],[-24,-25],[-8,-7],[-27,-11],[-17,-2]],[[3762,3598],[-14,5],[-5,4],[-6,2],[-7,2],[-7,0]],[[3723,3611],[-9,-2],[-2,-6],[0,-9],[-1,-9],[-23,-94],[-38,-69],[-9,-12],[-13,-8],[-33,-7],[-13,-6],[8,-21],[2,-6],[-4,-5],[-14,-9],[-3,-4],[-1,-17],[-7,-31],[-2,-15],[14,-10]],[[3639,3282],[22,-4],[0,-5],[-19,-18],[-14,-10],[-6,-5],[-22,-13],[-23,-7],[-17,-1]],[[3575,3271],[64,11]],[[3560,3219],[-31,9],[-64,10]],[[3465,3238],[-14,-2],[-10,-10],[-6,-13],[-9,-10],[-29,-9],[-11,-10],[-19,-23],[-20,-17],[-7,-9],[-3,-13],[-4,-10],[-16,-23],[-5,-13],[0,-10],[-10,-20],[-8,-27],[-9,-68],[-6,-24],[-2,-17],[-3,-14],[-7,-10],[-9,-10],[-2,-11],[1,-10],[1,-13]],[[3742,2496],[-11,-9],[-51,-31],[-7,-2],[-10,-2]],[[3663,2452],[-10,3]],[[3653,2455],[-7,-1],[-8,-4],[-14,-6]],[[3624,2444],[-16,1]],[[3608,2445],[-22,-14],[-24,-5],[-25,-1]],[[3537,2425],[-31,9],[-23,3]],[[763,2207],[-4,-6],[-2,-5],[-2,-2],[-8,-6],[-6,-8],[-2,-2],[-2,-4],[-2,-2],[-2,-1],[-10,-5],[-8,-2],[-2,-2],[-6,-4],[-3,-1]],[[704,2157],[-3,2],[-3,5],[-1,4],[1,3],[1,2],[1,2],[0,2],[-2,2],[-12,5],[-17,3],[-14,6],[-14,2]],[[641,2195],[-77,-8]],[[856,4096],[8,-16],[2,-8],[2,-2],[21,-26],[1,-2],[3,-7],[0,-5],[0,-5],[-1,-11],[0,-5],[1,-3],[3,-2],[7,-3],[3,-1],[1,-2],[2,-2],[2,-5],[1,-3],[0,-3],[0,-6],[0,-4],[0,-3],[2,-2],[3,-4],[1,-2],[1,-3],[1,-6],[0,-13],[0,-2],[-1,-3],[-2,-2],[-4,-1],[-5,-1]],[[908,3933],[-17,4],[-5,2],[-2,1],[-4,3],[-4,5],[-7,5],[-2,2]],[[867,3955],[-3,-1],[-5,-3],[-2,-6],[-10,-13],[-36,-14]],[[811,3918],[-9,0],[-1,2],[-2,2],[-2,2],[-3,0]],[[794,3924],[-3,0],[-5,-2],[-6,-7],[-9,-7],[-8,-8],[-4,-6],[-16,-20],[-5,-4],[-2,-2],[-2,-3],[-2,-5],[-2,-3],[-2,-3],[-25,-19],[-2,-2],[0,-2],[-4,-2],[-5,-2],[-10,-3],[-6,0]],[[676,3824],[-4,0],[-2,1]],[[670,3825],[-7,-2],[-54,-27],[-13,-2]],[[596,3794],[-4,1]],[[592,3795],[-6,0],[-39,-8],[-23,-1],[-3,-3],[-3,-4],[-4,-11],[-1,-6],[0,-4],[6,-9],[-5,-7],[-31,-19],[2,-22],[8,-46],[1,-8],[1,-3],[2,-3],[1,-2],[1,-3],[1,-2],[1,-10],[3,-11],[10,-52],[2,-3],[3,-4],[3,-4],[5,-5],[5,-10],[4,-10],[4,-7],[0,-2],[2,-6],[1,-2],[1,-2],[1,-3],[0,-3],[-2,-3],[-2,-3],[-4,-1],[-3,-1]],[[504,3492],[-11,2],[-3,2],[-3,1],[-4,0]],[[483,3497],[-16,-3],[-19,-10],[-11,-9],[-1,-3],[0,-5],[4,-20],[0,-4],[-1,-4],[-4,-7],[-2,-3],[-2,-3],[-2,-1],[-3,-11],[4,-40],[25,-21],[6,-5],[13,-4],[14,-3],[21,-8],[31,-14],[7,-3],[13,-5],[4,-1],[4,0]],[[534,3492],[-11,2]],[[523,3494],[-5,0],[-5,0],[-9,-2]],[[581,3315],[5,-2],[27,-20],[7,-3],[3,0]],[[568,3310],[3,1],[7,3],[3,1]],[[641,3303],[4,-2],[5,-5],[9,-12],[6,-4],[4,-2]],[[623,3290],[3,0],[2,2],[7,6],[5,4],[1,1]],[[677,3279],[3,0],[2,-1],[2,-1],[2,-2],[10,-12],[3,-5],[2,-5],[1,-4],[0,-4],[-2,-4],[-3,-5],[-5,-5],[-3,-7],[1,-18],[-3,-16],[-22,-2]],[[669,3278],[2,1],[3,0],[3,0]],[[665,3188],[-13,2]],[[652,3190],[-7,-1],[-3,0],[-4,-2],[-5,-3],[-3,-8],[0,-1],[-5,-4],[-19,-16],[4,-17],[-4,-10],[-2,-3],[0,-3],[1,-5],[3,-6],[3,-3],[7,-5],[2,-1],[1,-2],[2,-2],[10,-18],[4,-9],[2,-4],[1,-1],[2,-2],[2,-1],[3,0],[3,-1],[2,-2],[2,-5],[3,-2],[3,-1]],[[667,3056],[2,0],[1,-2],[1,-3],[1,-3],[0,-5],[-2,-20],[1,-6],[2,-12],[0,-4],[-1,-3],[-1,-3],[-6,-3],[-4,-2],[-27,-1],[-2,-6],[4,-12],[1,-3],[0,-5],[-3,-4],[-2,-2],[-4,-4],[-1,-1],[-2,-3],[-1,-2],[-1,-13],[-3,-11],[1,-8],[7,-36],[6,-17],[2,-5],[1,-3],[1,-2],[25,-63],[5,-9],[3,-4],[1,-4],[0,-3],[-1,-6],[-6,-8],[-19,-17],[-6,-4],[-4,-2],[-1,-2],[-6,-10],[-2,-2],[-6,-5],[-13,-9],[-2,-1],[-1,-2],[-2,-3],[0,-3],[1,-5],[2,-7],[1,-5],[0,-9],[1,-3],[2,-2],[5,-2],[2,-1],[2,-2],[1,-2],[1,-3],[1,-2],[-1,-4],[-3,-4],[-6,-6],[-3,-5],[-3,-7],[-3,-4],[-4,-4],[-6,-5],[-5,-1]],[[660,3052],[7,4]],[[588,2612],[-3,0],[-4,3],[-4,2],[-3,1]],[[574,2618],[-3,-1],[-3,-2],[-4,-4],[-3,0]],[[561,2611],[-3,1],[-2,1],[-3,1]],[[553,2614],[-3,0],[-2,-2],[-2,-2],[1,-8],[1,-5],[15,-28],[38,-50],[4,-13],[-1,-3],[-2,-5],[0,-3],[0,-3],[0,-3],[2,-3],[4,-3],[9,-4],[5,0]],[[648,2485],[9,-2],[7,-3],[3,-4],[4,-6],[10,-20],[4,-8],[30,-36],[9,-16],[10,-6],[5,-3],[4,-3],[4,-3],[3,-4],[2,-4],[2,-6],[0,-6],[-4,-8],[-4,-4],[-10,-5],[-4,-3],[-2,-6],[-3,-7],[-4,-4],[-4,-3],[-8,-3],[-5,-3],[-4,-1]],[[622,2479],[4,0],[13,5],[6,1],[3,0]],[[702,2308],[-5,0]],[[697,2308],[-4,-1],[-4,-1],[-4,-3],[-4,-3],[-2,-4],[-1,-4],[2,-5],[3,-5],[13,-8],[5,-2],[7,-2],[7,-4],[4,0]],[[724,2266],[8,-1],[4,0]],[[719,2266],[5,0]],[[746,2266],[5,-3],[5,-6],[9,-20],[2,-8],[1,-5],[-5,-17]],[[736,2265],[5,1],[5,0]],[[311,868],[6,-3],[5,-3],[5,-8],[23,-55],[131,-232],[6,-13],[26,-114],[4,-11],[5,-9],[11,-13],[14,-22],[8,-19],[6,-29],[1,-10],[-4,-35],[2,-19],[37,-4]],[[89,638],[19,39],[14,15],[17,8],[24,20],[12,15],[18,35],[9,10],[42,23],[12,9],[9,9],[9,14],[19,23],[9,7],[9,3]],[[691,276],[63,-6],[39,-7],[10,-4],[6,-3],[6,-5],[23,-27],[27,-24],[10,-4]],[[597,269],[94,7]],[[0,736],[18,-6],[17,-12],[15,-19],[39,-61]],[[875,196]],[[916,634]],[[3855,535],[-4,1],[-6,4],[-2,6],[-1,4],[0,7],[1,6],[1,6],[3,11],[0,4],[-5,32],[-2,6],[-2,3],[-3,3],[-5,6],[-1,3],[0,4],[1,2],[1,2],[10,11],[2,4],[0,4],[0,12],[1,4],[1,2],[2,2],[4,4],[6,3],[2,2],[2,1],[2,2],[2,5],[4,9]],[[3881,533],[-2,0],[-3,1],[-5,2],[-3,1],[-3,0]],[[3865,537],[-5,-1],[-2,-1],[-3,0]],[[3962,208],[-2,13],[-4,4],[-3,1],[-8,4],[-8,6],[-3,3],[0,3],[2,2],[2,1],[2,3],[2,3],[1,8],[-2,5],[-3,4],[-5,7],[-1,3],[0,2],[0,1],[1,1],[2,1],[2,2],[5,9],[1,5],[1,7],[1,25],[1,6],[3,7],[7,22],[7,42],[2,8],[3,4],[8,10],[2,4],[4,13],[0,5],[0,4],[-1,2],[-10,16],[-3,7],[-2,3],[-2,3],[-2,1],[-3,1],[-3,1],[-6,0],[-4,0],[-2,1],[-3,1],[-2,2],[-1,2],[-6,11],[-1,2],[-2,2],[-3,1],[-2,0],[-4,2],[-3,3],[-7,12],[-3,3],[-2,1],[-2,1],[-3,1],[-3,0]],[[3897,535],[-12,-2],[-4,0]],[[3371,2315],[7,1],[4,1],[2,2],[1,2],[1,2],[1,2],[3,3],[5,4],[4,2],[4,1],[20,3],[5,2],[3,2],[6,4],[27,33],[6,5]],[[3353,2317],[18,-2]],[[3242,2155],[3,1],[1,2],[1,2],[1,3],[0,2],[-1,5],[1,2],[1,1],[2,2],[2,1],[29,12],[3,2],[2,2],[0,2],[1,3],[0,3],[-1,10],[0,1],[1,1],[0,1],[5,5],[5,7],[1,2],[1,2],[0,2],[-1,3],[-1,2],[0,2],[1,3],[1,1],[4,3],[1,1],[2,2],[1,2],[0,3],[0,2],[-2,5],[0,2],[0,3],[1,5],[2,4],[6,15],[3,6],[2,2],[1,2],[19,13],[5,3],[5,1],[3,1]],[[3120,2197],[4,-3],[2,-2],[1,-2],[1,-2],[1,-3],[0,-3],[0,-4],[-8,-27],[-1,-6],[1,-7],[1,-6],[2,-3],[4,-3],[9,-4],[5,-1],[4,0]],[[2958,2156],[14,2],[10,6],[9,8],[6,3],[4,1],[119,21]],[[3220,2162],[2,0],[7,-4],[9,-2],[4,-1]],[[3146,2121],[5,2],[5,2],[8,6],[25,24],[4,2],[5,2],[11,3],[6,0],[5,0]],[[2739,177],[-8,3],[-21,14]],[[2972,73],[-6,0],[-4,1],[-100,64],[-2,2],[-1,2],[-2,5],[0,3],[-1,9],[-1,7],[0,2],[-2,5],[-2,2],[-4,6],[-4,3],[-5,3],[-3,2],[-8,2],[-9,0]],[[2818,191],[-40,-3],[-39,-11]],[[3116,40],[-12,12],[-7,7],[-5,6],[-8,9],[-3,2],[-4,1],[-13,0]],[[3064,77],[-13,-1]],[[3051,76],[-52,1]],[[2999,77],[-23,-4],[-4,0]],[[3116,40],[-8,-33],[0,-7]],[[3088,1821],[-5,0],[-7,2],[-3,1],[-2,1],[0,1],[-1,2],[-1,3],[1,5],[1,3],[-1,3],[-1,3],[-12,19],[-3,1],[-3,1],[-5,0],[-5,1],[-8,3],[-4,3],[-2,3],[-3,4],[-4,10],[-4,17],[0,3],[-2,4],[-2,5],[-18,30],[-3,5],[-1,4],[0,3],[-1,3],[-1,3],[-5,12],[-2,8],[-5,9],[-2,5],[-2,12],[0,3],[-1,3],[0,3],[0,3],[-2,26],[0,7],[1,3],[1,2],[4,7],[0,4],[-1,5],[-6,11],[-2,6],[-1,5],[1,8],[0,3],[-7,25],[-1,19]],[[3123,1814],[-4,1],[-5,1],[-11,5],[-3,1]],[[3100,1822],[-3,0],[-5,-1],[-4,0]],[[3244,1687],[-3,1],[-2,2],[-1,2],[0,3],[-1,3],[0,3],[1,2],[1,6],[0,5],[-2,6],[-7,11],[-11,9],[-7,5],[-6,3],[-36,21],[-10,9],[-2,2],[-3,7],[-2,7],[-2,4],[-5,8],[-3,3],[-3,2],[-5,2],[-2,1],[-4,0]],[[3129,1814],[-6,0]],[[3274,1679],[-17,9]],[[3257,1688],[-8,0],[-5,-1]],[[2914,2217],[3,0],[4,-2],[4,-4],[2,-5],[1,-6],[2,-5],[4,-8],[14,-7],[8,-9],[2,-15]],[[2859,1944],[-3,1],[-2,1],[-1,3],[1,3],[3,13],[0,13],[5,19],[0,4],[0,6],[0,5],[3,7],[15,32],[1,4],[0,4],[0,3],[-1,3],[0,4],[1,6],[1,10],[1,13],[0,9],[-1,6],[-1,3],[-1,2],[-4,7],[-3,4],[0,6],[0,3],[2,13],[0,3],[1,2],[9,13],[1,3],[0,3],[0,2],[-1,3],[0,3],[1,3],[1,3],[4,5],[11,16],[3,3],[1,1],[2,1],[3,1],[3,1]],[[2749,1823],[20,3],[2,1],[3,1],[2,1],[4,3],[33,40],[2,2],[5,3],[1,1],[4,1],[6,0],[10,0],[3,1],[2,1],[2,3],[3,5],[2,11],[3,7],[5,7],[3,3],[2,4],[2,3],[1,8],[0,5],[-1,4],[-2,2],[-2,1],[-3,0]],[[2861,1944],[-2,0]],[[3139,409],[10,0],[3,-1],[3,-1],[2,-1],[6,-1]],[[3269,200],[3,0],[6,4],[2,3],[1,3],[-1,3],[-1,2],[-4,4],[0,4],[1,5],[4,11],[2,8],[-1,3],[-1,5],[-1,2],[-2,2],[-29,22],[-24,13],[-30,19],[-34,30],[-1,2],[-2,2],[-5,13],[-2,4],[-5,3],[-2,1],[-5,2],[-2,1],[-2,2],[-1,2],[-7,15],[-3,10],[0,4],[2,2],[2,2],[12,1]],[[3163,405],[3,0],[2,1],[5,3]],[[3233,201],[26,0],[6,-1],[4,0]],[[3198,170],[4,0],[1,2],[1,3],[0,8],[2,8],[2,3],[2,3],[11,3],[12,1]],[[3156,177],[14,-3],[3,0]],[[3116,40],[21,10],[3,4],[2,5],[-1,3],[-1,2],[-1,2],[-2,2],[-26,6],[-3,2],[-4,3],[0,5],[1,5],[1,4],[1,3],[4,3],[4,3],[8,3],[4,7],[22,58],[5,7],[2,0]],[[3182,175],[2,0],[2,0],[6,-3],[3,-1],[3,-1]],[[3173,174],[9,1]],[[3110,901],[5,-3],[4,-7],[2,-1],[3,-1],[2,-2],[2,-1],[1,-2],[2,-2],[0,-3],[1,-4],[-2,-5],[-1,-4],[1,-4],[2,-5],[3,-3],[2,-3],[10,-7],[16,-19],[2,-3],[4,-20],[1,-5],[0,-7],[-7,-33],[-1,-4],[-1,-2],[-5,-6],[-2,-2],[-2,-2],[-11,-6],[-4,-3],[-1,-2],[-1,-2],[-1,-3],[1,-4],[3,-6],[8,-9],[3,-7],[2,-2],[2,-1],[3,-1],[2,0],[2,-1],[2,-3],[1,-4],[2,-6],[2,-3],[3,-2],[4,-3],[10,-8],[16,-19],[1,-2],[3,-6],[1,-6],[1,-3],[2,-3],[3,-4],[0,-3],[0,-4],[-4,-7],[-4,-3],[-3,-2],[-6,-1],[-3,-1],[-2,-1],[-2,-1],[-1,-2],[0,-2],[0,-3],[2,-5],[2,-3],[2,-2],[2,-2],[2,-2],[1,-4],[0,-27],[1,-9],[0,-5],[-2,-8],[-5,-13],[-2,-6],[-3,-3],[-7,-4],[-2,-2],[-5,-5],[-3,-5],[-4,-9],[0,-3],[0,-3],[4,-5],[2,-6],[3,-18],[-1,-34]],[[2784,743],[4,1],[1,3],[0,3],[-2,5],[-1,4],[0,5],[1,10],[2,4],[2,4],[4,4],[3,3],[5,7],[1,5],[0,3],[0,4],[0,5],[3,14],[0,4],[-5,12]],[[2772,745],[3,0],[3,-1],[3,-1],[3,0]],[[2742,439],[4,0],[2,2],[2,2],[1,1],[3,1],[6,1],[5,3],[3,3],[2,1],[8,3],[2,2],[1,2],[0,6],[1,2],[2,2],[2,2],[2,2],[2,3],[1,3],[0,3],[-2,15],[0,7],[1,6],[1,2],[1,3],[3,4],[4,3],[2,1],[2,3],[2,2],[2,5],[1,7],[0,5],[-3,11],[-1,2],[-1,2],[-2,2],[-2,1],[-8,3],[-2,1],[-3,2],[-4,6],[-1,2],[-5,2],[-2,1],[-2,3],[0,3],[1,6],[4,11],[1,5],[0,4],[-2,1],[-5,3],[-2,1],[-1,2],[-5,9],[-2,2],[-1,3],[-1,4],[3,19],[0,14],[1,3],[2,2],[2,2],[5,3],[4,3],[1,3],[0,3],[-2,8],[-1,3],[0,6],[-1,3],[-2,1],[-5,2],[-2,2],[-1,2],[1,18],[1,4],[1,3],[2,2],[2,1],[2,0]],[[2689,482],[17,-2],[2,-1],[3,-2],[11,-13],[3,-5],[4,-9],[3,-7],[4,-2],[6,-2]],[[3944,209],[18,-1]],[[3855,126],[3,0],[5,3],[15,17],[1,1],[2,1],[6,5],[10,11],[3,3],[7,2],[5,4],[6,7],[21,27],[3,2],[2,0]],[[3850,127],[2,-1],[3,0]],[[3806,0],[1,1],[2,5],[2,3],[11,11],[5,2],[5,1],[7,0],[3,1],[5,2],[11,10],[2,4],[0,2],[-1,2],[-5,6],[-1,2],[-1,3],[-1,3],[1,9],[0,3],[-1,2],[-1,2],[-1,3],[-2,2],[-1,2],[0,3],[1,4],[-1,3],[-2,2],[-1,2],[-5,5],[-1,3],[-1,5],[2,9],[2,5],[3,3],[4,1],[3,1]],[[4067,370],[19,-7],[10,-5]],[[4022,310],[7,1],[5,2],[2,1],[2,2],[2,4],[1,2],[5,9],[5,6],[1,3],[3,5],[1,5],[0,3],[-1,6],[0,3],[0,3],[2,1],[2,2],[8,2]],[[4018,311],[4,-1]],[[3962,208],[24,2],[1,3],[3,2],[1,3],[1,2],[2,2],[5,2],[2,1],[2,2],[1,2],[0,3],[-1,12],[0,4],[1,6],[3,8],[2,12],[0,3],[0,2],[0,1],[-4,9],[-1,3],[0,3],[0,3],[2,6],[1,3],[2,1],[2,1],[3,1],[4,1]],[[3492,1428],[-3,1],[-2,1],[-2,2],[-1,2],[-1,2],[-6,41],[-1,3],[-1,2],[-7,9],[-1,5],[0,4],[4,26],[1,3],[1,2],[1,2],[5,3],[2,3],[0,2],[-1,2],[-2,2],[-2,1],[-3,1],[-9,1],[-3,1],[-2,3],[-2,4],[-3,9],[-1,7],[0,5],[0,3],[2,7],[1,5],[3,4],[3,5],[4,5],[2,2],[5,6],[3,6],[-1,3],[-2,3],[-2,0],[-7,1],[-3,2],[-3,3],[-3,7],[-1,5],[0,8],[0,4],[-2,2],[-5,3],[-3,1],[-4,4],[-1,4],[1,3],[3,9]],[[3557,1420],[-3,0],[-1,1],[-2,1],[-1,0],[-1,2],[-3,4],[-1,2],[-1,2],[-2,1],[-3,1],[-3,0]],[[3536,1434],[-6,0],[-9,-1],[-3,0]],[[3518,1433],[-9,1]],[[3509,1434],[-3,0],[-2,0],[-3,-1],[-7,-4],[-2,-1]],[[3493,1065],[2,9],[-14,71],[0,9],[2,2],[2,1],[5,2],[5,2],[6,5],[2,1],[9,2],[3,4],[4,6],[6,17],[2,10],[3,17],[1,5],[6,14],[2,4],[7,10],[6,10],[1,4],[0,3],[-1,2],[-4,7],[-1,4],[0,5],[1,17],[-1,7],[1,2],[1,2],[1,1],[4,3],[6,5],[1,2],[2,2],[14,34],[2,9],[1,7],[0,6],[0,11],[-1,5],[-1,5],[-3,7],[-1,2],[-2,1],[-3,1]],[[3569,1420],[-12,0]],[[3431,972],[4,2],[5,7],[8,18],[2,8],[1,6],[0,3],[-1,3],[1,13],[1,4],[3,4],[12,13],[1,1],[9,5],[16,6]],[[3391,1022],[5,-1],[2,-2],[1,-1],[2,-3],[2,-5],[1,-2],[2,-2],[6,-4],[1,-2],[4,-7],[9,-12],[1,-2],[2,-5],[2,-2]],[[3233,926],[3,0],[6,2],[38,14],[6,4],[5,3],[17,17],[25,16],[15,13],[3,4],[5,10],[3,4],[2,2],[4,2],[20,4],[6,1]],[[3222,929],[4,0],[2,-2],[2,-1],[3,0]],[[3150,885],[3,0],[4,2],[5,8],[3,3],[14,10],[3,4],[1,3],[0,3],[1,2],[3,2],[14,2],[4,1],[13,4],[4,0]],[[3124,901],[6,-2],[4,-2],[12,-10],[4,-2]],[[3110,901],[14,0]],[[3304,1694],[5,-1],[16,-5],[5,-3],[5,-1],[7,0]],[[3274,1679],[10,8],[2,1],[10,2],[5,3],[3,1]],[[3362,1688],[81,-6]],[[3342,1684],[20,4]],[[3274,1679],[7,-15],[0,-12],[-2,-5],[-1,-3],[-4,-7],[-4,-5],[-1,-1],[-3,-7],[-1,-4],[0,-4],[1,-5],[1,-3],[1,-5],[4,-21],[0,-12],[-1,-8],[-4,-14],[-1,-5],[0,-4],[1,-4],[2,-4],[6,-7],[1,-6],[0,-6],[-3,-13],[-2,-6],[-2,-4],[-2,-1],[-2,0]],[[3265,1488],[-3,1],[-5,1]],[[3257,1490],[-2,0],[-2,-1],[-4,-3],[-3,-1],[-6,-1],[-3,-1],[-3,-3],[-4,-6],[-2,-4],[0,-5],[1,-14],[-1,-5],[0,-4],[-4,-11],[-11,-18],[-25,-48],[-2,-3],[-4,-3],[-4,-3],[-10,-4],[-3,-1],[-2,-2],[-1,-1],[-10,-21],[-2,-3],[-4,-3],[-2,-3],[-21,-39],[-3,-4],[-4,-3],[-4,-2],[-6,-2],[-11,-2],[-6,-1],[-2,-2],[-2,-3],[-9,-14],[-6,-8],[-16,-12],[-2,-1],[-2,-3],[-11,-19],[-23,-32],[-3,-6],[-2,-5],[1,-10],[-1,-6],[-1,-2],[-25,-35],[-5,-4],[-3,0],[-4,-1],[-3,-2],[-11,-10],[-5,-2],[-3,-1],[-5,-2],[-3,-1],[-3,-3],[-8,-8],[-3,-2],[-3,-1],[-3,0]],[[2923,1070],[-2,1],[-2,1],[-3,4],[-2,1],[-3,1],[-5,2],[-3,1]],[[2903,1081],[-3,0],[-3,-2],[-5,-3],[-2,-3],[-1,-5],[-1,-4],[-1,-7],[-1,-3],[-1,-2],[-1,0],[-17,-18],[-34,-26],[-80,-92],[-6,-9],[-8,-15],[-2,-3],[-7,-7],[-2,-2],[-2,-1],[-2,-1],[-3,0]],[[2721,878],[-8,1]],[[2713,879],[-3,0],[-8,-2],[-10,-1],[-5,-1],[-2,-2],[-1,-3],[0,-7],[0,-6],[2,-6],[1,-5],[10,-15],[11,-14],[5,-8],[2,-2],[2,-2],[2,-1],[3,-1],[6,0]],[[2779,822],[3,1],[4,3],[10,14],[6,3]],[[2770,824],[9,-2]],[[2728,803],[7,0],[5,2],[9,6],[11,9],[2,2],[2,1],[3,1],[3,0]],[[2895,911],[6,-1],[8,-2],[31,-12],[2,-1],[2,-2],[4,-6],[18,-21],[6,-4],[2,-2],[1,-2],[2,-6],[1,-2],[1,-2],[1,-2],[3,-3],[2,-2],[6,-3],[3,0]],[[2802,843],[30,40],[11,11],[15,10],[3,1],[3,1],[2,0],[3,0],[7,1],[11,3],[4,1],[4,0]],[[2994,838],[3,1],[2,2],[8,9],[1,2],[4,11],[1,2],[8,10],[3,7],[2,2],[3,2],[9,4],[9,5],[4,1],[4,1],[55,4]],[[2687,1462],[-2,-18],[-1,-5],[-1,-1],[-5,-4],[-3,-2],[-3,-1],[-4,0]],[[2668,1431],[-8,2]],[[2660,1433],[-5,0],[-6,-2],[-11,-5],[-5,-3],[-3,-3],[-2,-5],[-1,-3],[-8,-14],[-23,-31],[-6,-11],[-11,-17],[-2,-4],[-1,-3],[1,-2],[-1,-3],[0,-3],[-3,-5],[-4,-7],[-5,-13],[-2,-3],[-4,-2],[-10,-4],[-3,-2],[-2,-3],[-4,-5],[-2,-3],[-1,-3],[0,-4],[-2,-6],[-2,-3],[-3,0]],[[2529,1261],[-2,1],[-2,1],[-3,1]],[[2522,1264],[-3,0],[-9,-4],[-3,-1]],[[2507,1259],[-3,0],[-2,1],[-3,0]],[[2499,1260],[-3,-1],[-14,-6],[-9,-6],[-3,-4],[-1,-3],[3,-11],[1,-6],[4,-14],[1,-2],[10,-15],[2,-4],[1,-3],[0,-3],[0,-9],[0,-3],[1,-2],[5,-6],[2,-5],[2,-5],[0,-7],[1,-6],[1,-6],[-1,-12],[2,-25],[0,-2],[1,-3],[7,-11],[3,-8],[2,-4],[2,-2],[1,-2],[4,-9],[2,-7],[0,-3],[0,-4],[-1,-21],[0,-3],[1,-2],[2,-2],[6,-4],[2,-2],[1,-2],[1,-3],[0,-12],[1,-2],[1,-2],[3,-2],[11,-2],[2,-2],[2,-1],[2,-2],[1,-2],[2,-2],[2,-2],[2,-1],[3,-4],[2,-2],[4,-6],[10,-12],[1,-3],[2,-4],[-1,-3],[-2,-2],[-2,-1]],[[2584,933],[-6,0]],[[2578,933],[-3,0],[-1,-3],[0,-2],[1,-2],[1,-3],[1,-3],[3,-8],[-1,-3],[-1,-1],[-3,-1]],[[2575,907],[-6,1],[-8,2],[-6,1]],[[2555,911],[-6,-1],[-3,0],[-3,-1],[-3,-2],[-3,-3],[-1,-3],[0,-3],[8,-14],[1,-2],[1,-5],[-1,-2],[-2,-3],[-3,-3],[-6,-12],[-1,-2],[-2,-2],[-5,-2],[-2,-2],[-3,-2],[-3,-5],[-1,-5],[0,-14],[-1,-4],[-2,-2],[-4,-3],[-2,-2],[-4,-4],[-2,-3],[0,-4],[0,-3],[-3,-28],[-2,-10],[-2,-3],[-1,-2],[-2,-1],[-5,-3],[-2,0]],[[2485,751],[-7,0],[-6,1]],[[2472,752],[-6,0]],[[2749,1823],[-17,-11],[-4,-7],[1,-2],[3,-11],[2,-5],[0,-6],[-4,-24],[-2,-7],[-2,-5],[-2,-1],[-5,-3],[-9,-3],[-4,-3],[-4,-4],[-6,-8],[-2,-5],[-1,-4],[2,-1],[1,-2],[3,-1]],[[2706,1713],[3,-1],[2,-2],[1,-17],[1,-5],[3,-12],[2,-5],[2,-5],[1,-2],[1,-4],[1,-6],[1,-11],[-1,-6],[-1,-4],[-2,-2],[-6,-8],[-3,-4],[-10,-29],[-2,-8],[0,-6],[5,-10],[2,-5],[-1,-2],[-2,-2],[-3,-2],[-3,-4],[-3,-8],[-1,-5],[0,-3],[2,-2],[5,-2],[2,-1],[3,-1],[3,0],[3,-1],[3,-2],[1,-5],[0,-6],[-3,-9],[-2,-4],[-2,-3],[-5,-3],[-3,-2],[-3,-4],[-1,-6],[0,-9],[-1,-4],[-2,-4],[-1,-1],[-5,-4]],[[2699,1710],[3,1],[4,2]],[[2860,2531],[3,1],[3,4],[6,17],[2,4],[6,6],[5,14],[2,25],[0,5],[-2,2],[-2,2],[-3,1],[-18,2],[-2,1],[-5,3],[-3,3],[-5,6],[-2,2],[-11,6],[-5,3],[-2,3],[-2,3],[-1,7],[0,5],[1,3],[2,1],[2,1],[16,6],[3,1],[15,10],[2,3],[4,5],[0,3],[0,3],[-2,1],[-5,3],[-12,3],[-5,2],[-4,2],[-8,6],[-5,5]],[[2788,2577],[2,0],[11,-4],[6,0]],[[2705,2370],[2,0],[3,1],[2,5],[2,3],[5,8],[5,28],[1,4],[2,3],[5,6],[1,2],[2,8],[1,3],[2,2],[2,2],[2,1],[2,1],[3,1],[9,2],[3,1],[2,2],[1,2],[-1,3],[-1,4],[-1,8],[-2,4],[-2,3],[-6,3],[-2,2],[-4,4],[-1,4],[-4,16],[0,5],[2,4],[3,4],[1,2],[2,2],[2,1],[2,1],[3,4],[3,6],[6,23],[1,5],[2,2],[7,4],[5,5],[3,1],[2,1],[3,1],[3,0]],[[2821,2576],[1,0],[2,-1],[4,-3],[2,-1],[8,-3],[2,-1],[2,-2],[2,-5],[1,-6],[0,-3],[1,-3],[1,-2],[2,-5],[2,-2],[7,-7],[2,-1]],[[2807,2573],[14,3]],[[2699,2370],[3,0],[3,0]],[[2749,1823],[-8,34],[-4,11],[-6,6],[-33,41],[-3,5],[-11,42],[-1,6],[7,32],[1,3],[2,2],[11,10],[1,3],[1,5],[1,9],[0,5],[-14,48],[-1,6],[1,3],[5,7],[2,5],[0,4],[-5,21],[-9,23],[-2,5],[0,4],[3,11],[0,4],[-1,4],[-2,7],[-1,3],[-1,3],[-8,10],[-2,3],[0,2],[0,1],[5,6],[11,11],[1,3],[2,3],[2,6],[0,3],[-1,3],[-4,4],[-2,1],[-1,2],[-3,4],[-2,5],[-4,16],[-2,4],[-1,2],[-3,1],[-6,0],[-3,1],[-3,3],[-3,6],[-5,13],[-2,6],[0,6],[0,3],[1,2],[1,3],[2,2],[3,4],[7,7],[16,9],[2,1],[1,2],[2,2],[2,5],[1,2],[2,2],[1,2],[5,3],[2,1],[3,0]],[[2687,1462],[-4,3],[-10,4],[-5,3],[-20,18],[-12,6],[-18,13],[-2,2],[-2,2],[-1,3],[0,3],[1,3],[2,2],[3,2],[2,2],[2,2],[1,3],[0,6],[-1,4],[-3,11],[-2,2],[-2,1],[-2,2],[-5,2],[-2,1],[-2,2],[-1,2],[-2,2],[-9,12],[-1,2],[0,2],[1,5],[0,3],[-1,2],[-1,2],[-2,1],[-3,1]],[[2586,1598],[-8,-2],[-16,0],[-6,-2],[-2,-1],[-3,-2],[-9,-10],[-3,-3],[-4,-1],[-3,-1],[-13,0],[-3,0],[-2,-1],[-3,-1],[-3,-2],[-12,-13],[-3,-1],[-3,-1]],[[2490,1557],[-1,1],[-1,1],[-2,3],[-3,3],[-2,2],[-2,1],[-2,1],[-2,1],[-2,0]],[[2473,1570],[-3,0],[-2,-1],[-3,-1],[-3,-5],[-20,-42],[-9,-4],[-5,-14],[-20,-29],[-4,-13],[-67,-34],[-29,-24],[-14,-8],[-43,-10],[-12,-6],[6,-8],[0,-9],[-3,-9],[-5,-8],[-4,-10],[3,-8],[5,-7],[3,-7],[-3,-3],[-14,-16],[-2,-9],[8,-3],[18,-7],[47,-27],[4,-3],[3,-4],[2,-5],[1,-3],[1,-9],[2,-32],[1,-6],[1,-4],[6,-6],[1,-2],[2,-2],[1,-5],[1,-4],[1,-34],[0,-6],[0,-9],[-10,-61],[0,-1],[3,-14],[2,-6],[2,-2],[2,-1],[2,-1],[3,-1]],[[2345,1030],[3,-1],[3,-1],[1,-2],[2,-3],[5,-22],[7,-20],[1,-3],[2,-9],[2,-5],[4,-10],[1,-2],[2,-12],[2,-5],[1,-2],[1,-3],[6,-5],[2,-2],[1,-2],[1,-2],[0,-3],[0,-3],[-5,-26],[-1,-2],[-1,-6],[-2,-9],[0,-13],[-1,-3],[-1,-2],[-5,-2],[-1,-2],[-2,-3],[-2,-2],[-4,-1],[-9,-2],[-4,-1],[-3,-2],[-3,-2],[-2,-1],[-3,-1],[-3,0]],[[2329,1027],[2,1],[10,2],[4,0]],[[2340,833],[-4,1],[-4,2],[-16,11],[-28,14],[-12,4]],[[2276,865],[-29,-1]],[[2710,194],[-9,-18],[-3,-11],[0,-19],[-1,-4],[-2,-5],[-4,-8],[-2,-4],[-3,-2],[-9,-5],[-2,-3],[-1,-5],[-1,-11],[2,-10],[1,-6],[0,-6],[-2,-10],[-11,-15],[-9,-23],[-3,-5],[-3,-2],[-2,-1],[-3,-2],[-1,-1],[-3,-5],[-1,-4],[-1,-6],[0,-3]],[[2513,566],[-6,1],[-2,1],[-3,1],[-6,4],[-5,2],[-3,2],[-3,3],[-3,7],[-3,3],[-2,3],[-8,3],[-1,4],[-1,7],[3,24],[8,27],[3,8],[1,3],[0,6],[-4,30],[-2,11],[-5,11],[-4,7],[-2,7],[1,11]],[[2689,482],[-27,44],[-2,5],[-3,13],[-2,5],[-1,7],[2,13],[0,6],[0,3],[-2,6],[-2,2],[-3,2],[-6,1],[-17,1]],[[2626,590],[-2,0],[-3,-1],[-4,-3],[-4,-3],[-2,-2],[-2,-4],[-2,-2],[-1,-3],[-1,-9],[-1,-2],[-2,-2],[-11,-10],[-6,-8],[-2,-2]],[[2540,555],[-3,1],[-4,1],[-4,4],[-3,3],[-3,1],[-3,1],[-3,0]],[[2517,566],[-4,0]],[[2583,539],[-2,0],[-2,1],[-16,9],[-4,3],[-2,1],[-5,2],[-3,1]],[[2549,556],[-3,0],[-6,-1]],[[2710,194],[-6,2],[-4,3],[-3,3],[-7,10],[-6,6],[-2,1],[-2,2],[-3,1],[-14,3],[-2,1],[-2,3],[-3,11],[-1,3],[-1,5],[0,4],[7,20],[1,5],[2,14],[-2,21],[-1,7],[-1,3],[1,5],[14,24],[1,2],[10,8],[4,4],[1,2],[1,3],[1,4],[0,4],[-2,4],[-3,3],[-1,2],[-1,11],[3,84]],[[2247,864],[22,-35],[3,-10],[0,-10],[-6,-8],[-15,-4],[-8,-4],[-4,-9],[0,-11],[5,-8],[-5,-14],[2,-12],[5,-11],[3,-12],[0,-48],[6,-13],[17,-2]],[[2408,778],[4,0],[8,-2],[3,0]],[[2272,653],[14,0],[6,1],[30,12],[5,1],[1,0],[4,3],[27,22],[1,2],[3,5],[4,17],[1,2],[2,2],[5,5],[1,2],[1,3],[0,10],[0,6],[1,6],[1,3],[1,3],[7,10],[3,3],[6,4],[5,2],[4,0],[3,1]],[[2430,776],[3,0],[9,-5],[24,-19]],[[2423,776],[7,0]],[[2247,864],[-8,-5],[-8,-3],[-18,-6],[-2,-2],[-2,-1],[-2,-2],[-2,-2],[-2,-5],[-1,-2],[0,-3],[0,-3],[1,-5],[0,-3],[-1,-2],[-1,-2],[-4,-4],[-2,-1],[-4,-3],[-2,-2],[-7,-6],[-2,-2],[-2,-2],[-3,-4],[-1,-2],[-1,-3],[0,-3],[1,-2],[1,-3],[1,-2],[0,-3],[0,-6],[1,-3],[1,-2],[5,-6],[1,-3],[1,-2],[1,-6],[0,-3],[-1,-3],[-1,-2],[-3,-5],[-2,-5],[-4,-6],[-2,-2],[-3,-2],[-17,-2],[-3,0],[-12,-6],[-2,-1],[-2,-1],[-2,-2],[-1,-2],[-4,-7],[-8,-21],[-1,-12],[-1,-10],[1,-13],[1,-6],[1,-2],[1,-3],[2,-2],[13,-11],[3,-4],[2,-5],[1,-3],[0,-6],[0,-3],[0,-7],[-2,-5],[-3,-11],[-6,-9],[-1,-2],[0,-3],[0,-2],[1,-3],[2,-1],[2,-2],[6,-1],[2,-1],[2,-2],[1,-3],[0,-2],[0,-3],[-1,-3],[0,-3],[2,-9],[0,-2],[-3,-15],[-1,-2],[-2,-2],[-2,-2],[-5,-2],[-10,-3],[-8,-3],[-19,-5],[-9,-1]],[[1924,723],[-2,0],[-2,2],[-2,4],[-1,10],[0,30],[1,6],[1,6],[2,4],[4,5],[13,9],[6,5],[6,14]],[[2037,473],[-5,1],[-3,1],[-3,1],[-4,4],[-3,3],[-2,2],[-2,2],[-7,3],[-3,1],[-2,2],[-4,5],[-2,2],[-2,1],[-13,5],[-4,3],[-2,2],[-1,2],[-1,2],[-1,4],[0,3],[2,6],[1,4],[1,6],[-1,6],[-6,27],[-1,2],[-2,2],[-8,9],[-1,3],[0,2],[3,5],[3,2],[6,5],[2,2],[1,2],[1,3],[-1,3],[-3,4],[-3,2],[-5,2],[-2,1],[-2,4],[0,4],[6,26],[2,18],[-1,6],[-1,6],[-11,33],[-1,2],[-2,2],[-2,1],[-8,3],[-2,1]],[[1938,726],[-3,-1],[-3,0],[-2,-1],[-3,-1],[-3,0]],[[2088,489],[-13,1]],[[2075,490],[-3,-1],[-2,-1],[-23,-12],[-3,-1],[-3,-1],[-4,-1]],[[2127,1843],[5,1],[3,1],[3,1],[9,5],[7,3],[3,1],[13,1],[6,1],[2,0],[5,3],[10,7],[3,3],[3,6],[5,13],[2,13],[-3,18],[-1,3],[-18,31],[-5,5],[-15,14],[-2,2],[-2,2],[-2,5],[0,3],[1,3],[6,16],[9,34],[1,7],[-1,8],[0,14],[-1,6],[-1,6],[-1,8],[0,7],[-1,5],[-1,3],[-1,2],[-2,2],[-2,3],[-2,4],[-1,7],[0,5],[2,4],[2,4],[1,4],[1,5],[-1,7],[1,14],[1,9],[3,12],[1,6],[0,4],[0,3],[-3,5],[-2,4],[-5,6],[-4,3],[-5,2],[-2,2],[-1,2],[-1,3],[0,16],[-1,2],[-1,3],[-2,1],[-6,6],[-1,2],[-1,2],[-4,10],[-1,6],[-1,19],[-1,3],[-2,2],[-2,2],[-17,10],[-6,5],[-7,7],[-2,1],[-1,1],[-6,7],[-6,8],[-3,7],[-2,16],[1,9]],[[1878,1952],[3,-1],[2,-1],[2,-2],[3,-3],[2,-2],[2,-2],[2,-1],[7,-1],[2,0],[3,-2],[4,-3],[9,-11],[2,-2],[7,-17],[2,-2],[2,-2],[1,-2],[11,-7],[3,-3],[3,-5],[3,-4],[8,-9],[3,-5],[3,-7],[2,-2],[4,-3],[1,-2],[5,-2],[3,-1],[6,-1]],[[1806,1650],[-3,1],[-2,1],[-2,5],[-7,24],[-2,7],[0,6],[21,46],[7,24],[2,13],[-1,5],[0,4],[-3,8],[-7,19],[-1,5],[0,4],[1,3],[0,1],[16,31],[1,3],[0,3],[-10,22],[0,4],[1,2],[1,2],[4,3],[9,7],[4,3],[2,3],[1,3],[3,9],[2,16],[2,3],[2,1],[3,0],[3,1],[2,1],[5,6],[3,1],[2,1],[3,0],[10,1]],[[2084,1853],[3,0],[9,-2],[22,-7],[6,0],[3,-1]],[[2063,1830],[2,0],[3,3],[8,16],[1,2],[2,1],[3,1],[2,0]],[[2011,1849],[13,-1],[11,-3],[11,-4],[7,-3],[8,-7],[2,-1]],[[1988,1847],[23,2]],[[1869,1390],[3,1],[3,0],[2,2],[3,3],[2,5],[0,3],[-1,3],[-4,3],[-4,3],[-9,6],[-2,1],[-5,2],[-3,0],[-3,1],[-5,3],[-2,1],[-20,25],[-10,17],[-2,5],[0,3],[2,5],[1,6],[0,26],[-1,7],[-1,4],[-6,9],[-4,6],[-1,4],[0,4],[1,3],[1,2],[4,4],[1,2],[1,4],[0,7],[-2,12],[0,12],[1,3],[-1,9],[1,7],[0,6],[3,8],[2,2],[2,7],[1,7],[0,4],[-1,3],[-2,1],[-3,0]],[[1811,1651],[-5,-1]],[[1857,1394],[2,0],[5,-3],[2,0],[3,-1]],[[1950,818],[-42,17],[-9,8],[0,7],[-5,11],[-7,10],[-2,6],[-1,5],[1,2],[2,2],[3,0],[2,2],[2,3],[-1,6],[0,4],[1,3],[2,2],[5,5],[3,1],[1,2],[2,3],[-1,7],[-2,5],[-3,5],[-3,5],[-3,2],[-3,2],[-2,1],[-5,3],[-5,4],[-15,21],[-4,3],[-18,24],[-2,2],[-22,13],[-15,14],[-3,4],[-3,5],[-5,14],[-3,13],[0,4],[0,4],[1,2],[3,5],[1,3],[3,17],[1,3],[3,4],[3,4],[2,2],[4,3],[7,3],[2,2],[2,3],[0,4],[0,8],[-1,5],[-3,5],[-9,14],[-2,7],[-1,4],[3,12],[0,3],[0,17],[-1,11],[-1,5],[-2,4],[-7,7],[-1,3],[-1,3],[10,33],[4,10],[5,8],[1,5],[0,3],[-1,2],[-6,4],[-4,3],[-1,4],[-1,5],[-1,3],[0,4],[0,3],[1,2],[1,3],[2,1],[1,2],[31,26],[3,4],[5,9],[2,6],[2,9],[2,5],[1,2],[2,2],[2,1]],[[1950,818],[-39,-9],[-4,-1],[-5,-3],[-8,-5],[-6,-6],[-8,-10],[-3,-4],[-3,-1],[-4,-1]],[[1870,778],[-21,2]],[[1849,780],[-26,-1],[-7,-1],[-10,-4],[-79,-39],[-11,-8],[-2,-2],[-9,-4],[-31,-1],[-12,-11]],[[3830,827],[2,0],[3,-1],[1,-3],[3,-7],[2,-2],[2,-1],[3,-1],[3,0]],[[3552,591],[4,0],[14,4],[16,3],[16,5],[7,3],[4,2],[8,14],[2,5],[6,8],[38,28],[2,4],[3,3],[7,6],[31,14],[21,21],[21,36],[12,10],[25,18],[4,4],[3,5],[3,11],[5,9],[6,10],[7,7],[4,3],[3,2],[3,1],[3,0]],[[3849,812],[10,2],[10,3],[4,2],[4,3],[3,3],[2,2]],[[3539,603],[3,-1],[2,-1],[2,-2],[1,-2],[2,-4],[1,-1],[2,-1]],[[3426,565],[5,1],[2,3],[4,5],[3,2],[65,25],[6,1],[6,1],[22,0]],[[3414,569],[3,-1],[6,-2],[3,-1]],[[3325,429],[6,2],[4,2],[34,26],[1,2],[3,4],[1,3],[1,2],[1,3],[0,1],[0,1],[-10,40],[0,3],[0,3],[3,8],[0,3],[3,5],[5,7],[23,20],[6,3],[2,1],[6,1]],[[3306,436],[6,0],[2,-3],[4,-2],[7,-2]],[[3211,408],[85,26],[10,2]],[[3193,418],[6,-2],[2,-2],[2,-3],[5,-3],[3,0]],[[3173,409],[20,9]],[[3737,1072],[3,1],[6,4],[29,27],[16,12],[3,0],[3,1],[2,2],[2,3],[2,7],[9,17],[3,9],[2,3],[3,3],[13,7],[2,2],[1,3],[0,5],[-1,3],[-2,2],[-4,2],[-2,2],[0,3],[3,3],[13,10],[4,3],[2,4],[1,7],[0,3],[-2,2],[-2,2],[-1,2],[0,2],[1,2],[9,16],[35,32],[27,17],[46,38],[5,6]],[[3606,1092],[6,0],[20,-9]],[[3579,1075],[4,0],[4,1],[9,8],[6,7],[4,1]],[[3641,1083],[3,0]],[[3632,1083],[9,0]],[[3655,1083],[3,0],[5,-1],[11,-1],[3,-1],[2,-1],[2,-1],[4,-4],[2,-1],[7,0]],[[3644,1083],[11,0]],[[3570,1076],[9,-1]],[[3533,1064],[3,0],[8,2],[17,0],[2,6],[3,3],[4,1]],[[3709,1075],[3,0],[12,-2],[13,-1]],[[3694,1073],[15,2]],[[3521,1066],[12,-2]],[[3503,1061],[3,1],[4,1],[4,2],[4,1],[3,0]],[[3493,1065],[4,-3],[3,0],[3,-1]],[[3586,2086],[-6,2],[-4,2],[-4,2],[-2,2],[-6,8],[-3,8],[-1,3],[-1,12],[0,4],[1,3],[3,4],[20,16],[6,9],[4,12],[3,5],[2,4],[4,3],[5,3],[3,1],[3,1],[3,2],[1,3],[-1,2],[-1,3],[-3,6],[-8,11]],[[3614,2082],[-3,1],[-2,2],[-3,6],[-2,2],[-3,1],[-2,0]],[[3599,2094],[-3,-1],[-1,-2],[-2,-2],[-1,-2],[-3,-1],[-3,0]],[[3594,1845],[3,0],[4,1],[1,3],[0,2],[-11,14],[-1,2],[-2,2],[0,3],[-1,3],[2,4],[2,5],[5,10],[3,3],[4,2],[2,0],[3,0],[8,3],[3,1],[2,1],[5,2],[5,4],[10,10],[4,5],[1,4],[-1,2],[-2,1],[-3,2],[-1,1],[-2,2],[-1,6],[-1,9],[-1,3],[-1,3],[-1,2],[-1,2],[-1,3],[0,3],[1,9],[0,7],[0,3],[-1,3],[-1,2],[-5,9],[-3,8],[-1,5],[-1,3],[7,30],[1,13],[2,9],[0,3],[-1,2],[-2,5],[-1,2],[-3,1],[-3,0]],[[3619,2082],[-5,0]],[[3546,1865],[5,0],[5,-1],[5,-1],[5,-3],[13,-8],[6,-4],[3,-1],[3,-1],[3,-1]],[[3520,1780],[5,2],[6,3],[12,8],[4,5],[3,3],[1,4],[0,3],[0,3],[-1,2],[-2,2],[-2,2],[-5,2],[-3,1],[-6,1],[-10,0],[-1,4],[0,7],[6,19],[4,8],[3,5],[3,1],[3,0],[6,0]],[[3503,1781],[17,-1]],[[3443,1682],[6,19],[42,74],[4,3],[3,1],[2,1],[3,1]],[[885,2047],[-3,-22],[2,-9],[6,-14],[2,-4],[6,-17],[2,-16],[2,-7],[2,-4],[7,-3],[3,-2],[5,-4],[3,-1],[2,-1],[4,0],[5,-4],[7,-6],[12,-18],[4,-9],[3,-9],[2,-5],[2,-4],[5,-6],[2,-4],[0,-3],[-1,-8],[2,-19],[5,-15],[-1,-5],[1,-14],[2,-9],[6,-15],[5,-11],[7,-7],[5,-5],[9,-11],[2,-4],[0,-4],[-2,-5],[-2,-9],[1,-4],[1,-2],[2,-2],[2,-1],[3,-1],[7,-7],[16,-26],[3,-16],[42,-82],[6,-8],[2,-1]],[[1105,1586],[3,0],[23,-6],[25,-2]],[[1093,1584],[3,0],[9,2]],[[1220,1580],[8,-2],[4,-2],[2,-3],[4,-7],[3,-10],[4,-7],[6,-8],[3,-4],[1,-3],[8,-31],[10,-27]],[[1156,1578],[64,2]],[[885,2048],[0,-1]],[[1138,2588],[7,-2],[15,-6],[6,-5],[3,-5],[2,-8],[0,-4],[0,-5],[0,-5],[0,-5],[0,-5],[2,-9],[2,-5],[3,-2],[10,-6],[5,-2],[6,-2],[7,0]],[[885,2048],[18,17],[26,33],[19,39],[0,24],[-6,15],[-12,19],[-3,6],[-2,7],[0,3],[0,3],[3,8],[11,26],[17,28],[25,30],[40,33],[79,47],[5,24],[1,83],[7,8],[3,4],[6,43],[-3,25],[4,15],[15,0]],[[1287,2560],[1,-10],[39,-45],[10,-1]],[[1245,2517],[4,1],[3,3],[5,9],[2,12],[10,12],[18,6]],[[1375,2521],[4,-3],[4,-5],[11,-24],[11,-13],[5,-5],[5,-2],[7,-1],[3,-2],[3,-3],[0,-7],[-1,-5],[-13,-31],[-3,-10],[-2,-9],[0,-4],[2,-4],[4,-4],[9,-5],[6,-5],[5,-6],[9,-15],[3,-4],[9,-5],[19,-3],[55,-15]],[[1337,2504],[8,0],[5,2],[5,2],[4,3],[3,3],[3,3],[2,1],[3,1],[1,1],[4,1]],[[1238,2518],[4,-1],[3,0]],[[1206,2512],[26,5],[6,1]],[[1554,2342],[6,-2],[7,-3],[14,-9],[9,-2],[7,0]],[[1530,2331],[7,0],[5,3],[4,4],[3,3],[5,1]],[[1602,2327],[5,-1],[5,-2],[6,-4],[4,-5],[3,-9],[1,-11],[8,-30]],[[1597,2326],[5,1]],[[4080,2842],[16,-1]],[[4080,2834],[0,8]],[[3815,2973],[-23,9],[-6,40],[0,33],[-19,35],[-7,17],[-11,16],[-16,12],[-13,14],[-12,35],[-26,22],[-34,10],[-19,27],[-1,2]],[[4007,2827],[-45,12],[-16,6],[-27,22],[-2,20],[0,25],[-12,27],[-16,25],[-20,15]],[[3869,2979],[-54,-6]],[[4080,2834],[-22,6]],[[4058,2840],[-51,-13]],[[4080,2834],[5,-17],[7,-17],[2,-13],[-2,-86],[-11,-19],[-17,-17],[-23,-12]],[[4041,2653],[-24,3],[-43,32]],[[3974,2688],[-29,-6],[-22,-15],[-8,-27],[-14,-19],[-18,-18],[-15,-9],[-17,-7],[-66,-2],[-59,-22],[1,-32],[15,-35]],[[3921,2468],[-26,20],[-33,10],[-89,15]],[[3773,2513],[-10,-1],[-10,-5],[-11,-11]],[[4096,2460],[-11,3],[-48,32],[-13,7],[-7,5],[-7,3],[-10,1]],[[4000,2511],[-6,-3],[-19,-13],[-18,-18],[-12,-4]],[[3945,2473],[-9,12]],[[3936,2485],[-6,0],[-2,-4],[-5,-7],[-2,-6]],[[307,4096],[-4,-15],[-15,-21],[-20,-15],[-14,-8],[-13,-4],[-14,-3],[-17,-1]],[[210,4029],[-14,3]],[[196,4032],[-7,-7],[-11,-20],[-24,-93],[-12,-19],[-35,-42]],[[23,3852],[-23,32]],[[107,3851],[-5,5],[-16,4]],[[86,3860],[-63,-8]],[[128,2182],[-17,6],[-19,14],[-5,7],[-4,7],[-5,23],[-5,56],[8,30],[9,18],[3,4],[7,6],[4,6],[5,15],[2,7],[0,6],[-1,2],[-1,2],[-2,2],[-1,3],[-2,3],[-1,7],[1,4],[11,20],[2,7],[2,11],[2,5],[2,3],[5,1],[3,1],[6,6],[2,3],[0,4],[-1,3],[-2,5],[-1,2],[-1,3],[0,18],[-1,3],[-1,3],[-2,4],[-4,4],[-5,5],[-1,28],[-4,15],[-3,2],[-6,4],[-4,4],[-1,3],[0,3],[10,14],[1,3],[4,5],[1,6],[0,5],[-4,20],[14,11],[1,2],[2,4],[0,9],[2,9],[12,15],[3,6],[2,8],[-1,4],[-1,2],[-10,5],[-4,3],[-3,4],[-2,2],[-1,4],[-4,23],[-1,3],[-2,2],[-2,5],[-4,7],[-1,2],[-2,4],[-2,5],[-3,17],[-1,1],[-4,7],[-3,4],[-2,2],[-5,9],[-8,32],[-3,12],[1,2],[3,4],[3,4],[6,11],[2,5],[0,4],[-7,18],[-5,9],[-3,12],[-5,32],[-8,23],[-62,113],[-4,33],[-2,22]],[[885,2047],[0,1],[-1,10],[1,13],[1,3],[3,4],[1,3],[0,2],[-1,3],[-1,3],[-1,2],[-10,17],[-1,3],[-2,5],[-3,4],[-4,4],[-20,11],[-32,23],[-9,5],[-6,3],[-10,1],[-2,1],[-3,1],[-2,3],[-4,13],[-16,22]],[[139,1950],[4,3],[2,1],[1,2],[1,3],[1,3],[0,19],[0,5],[1,3],[1,3],[3,4],[10,7],[2,3],[1,4],[3,28],[0,21],[-1,13],[-2,7],[-5,9],[-17,23],[-1,5],[-2,7],[-1,13],[-5,23],[-8,14],[1,9]],[[103,1965],[10,-2],[7,-1],[19,-12]],[[0,1953],[81,12],[22,0]],[[407,2199],[5,-3],[6,-1],[42,-1],[12,-3],[4,-2],[4,0]],[[355,2145],[3,0],[5,2],[7,4],[7,9],[2,1],[12,5],[3,3],[1,4],[2,9],[1,5],[2,2],[1,6],[1,2],[2,2],[3,0]],[[234,2196],[4,0],[8,-3],[8,-3],[2,-1],[10,-4],[3,-1],[6,-5],[7,-3],[8,-3],[30,-4],[4,-1],[2,-2],[1,-2],[4,-4],[4,-3],[4,-3],[2,-1],[3,-4],[2,-1],[9,-3]],[[171,2167],[18,1],[6,5],[3,3],[1,6],[1,2],[1,2],[2,2],[2,2],[5,2],[15,2],[4,1],[5,1]],[[515,2192],[49,-5]],[[480,2189],[5,0],[11,2],[19,1]],[[128,2182],[20,-4],[7,-4],[2,-1],[4,-3],[5,-2],[5,-1]],[[179,0],[-7,12],[10,6],[8,9],[10,25],[5,30],[-6,21],[-12,21],[-7,17],[0,18],[5,14],[1,4],[2,0],[15,30],[-2,22],[-15,19],[-15,15],[-6,9],[-1,6],[0,7],[0,7],[0,14],[-6,11],[-10,9],[-11,21],[-7,15],[-6,10],[-18,18],[-15,12],[-7,8],[-4,8],[-3,7],[-4,5],[-13,10],[-11,51],[-1,21],[6,32],[5,15],[21,44],[9,35]],[[785,1519],[-5,1],[-5,2],[-2,5],[-3,10],[-2,5],[-13,15],[-5,11],[-9,26],[-20,36],[1,13],[19,22],[-1,11],[-10,14],[-8,13],[-1,11],[3,8],[6,7],[9,7],[28,19],[4,9],[-1,4],[-2,3],[-8,7],[-2,3],[-4,11],[-3,4],[-3,4],[-23,20],[-23,17],[-28,28],[-15,21],[-4,8],[-3,8],[-1,5],[-2,7],[-2,4],[-6,3],[-3,11],[1,2],[3,3],[9,7],[14,14],[0,5],[-2,5],[-4,2],[-5,2],[-3,4],[-4,7],[-4,18],[-3,8],[-3,6],[-2,2],[-4,4],[-4,7],[-4,12],[-4,8],[-4,6],[-5,4],[-1,5],[3,14],[0,13],[-1,8],[-3,6],[-3,3],[-9,6],[-4,4],[-5,6],[-6,10],[-1,6],[0,5],[1,6],[2,7],[-1,6],[-4,5],[-3,4],[-11,15]],[[1061,1275],[-7,3],[-4,5],[-2,5],[-1,4],[2,11],[-1,7],[-3,4],[-10,11],[-4,3],[-5,3],[-12,5],[-8,4],[-6,6],[-6,9],[-10,18],[-4,11],[0,7],[4,10],[2,5],[1,5],[1,8],[0,3],[0,6],[6,25],[-1,15],[-4,19],[0,6],[0,6],[-1,7],[-2,8],[-4,6],[-4,4],[-8,6],[-2,5],[-1,6],[-2,4],[-4,4],[-4,1],[-7,1]],[[950,1551],[-35,-11],[-36,-21],[-8,-3],[-6,-1]],[[865,1515],[-12,5],[-11,1],[-8,2],[-5,3],[-10,6],[-6,2]],[[813,1534],[-5,0],[-5,-1],[-5,-4],[-4,-5],[-9,-5]],[[1172,702],[-16,11],[0,9],[2,4],[1,4],[1,30],[-24,63],[-4,16],[-1,12],[2,4],[9,13],[2,4],[4,15],[2,17],[-1,9],[-2,6],[-4,3],[-4,2],[-4,3],[-4,6],[1,7],[-1,6],[-2,5],[-31,68],[-2,7],[0,6],[4,9],[3,4],[2,4],[7,6],[2,3],[3,5],[3,8],[2,5],[3,3],[3,4],[9,20],[1,6],[1,18],[1,4],[2,5],[6,11],[3,10],[0,8],[-2,5],[-3,4],[-3,4],[-28,20],[-12,14],[0,12],[2,9],[-1,21],[-2,14],[-7,19],[-5,8],[-5,3]],[[1085,1298],[-5,-1],[-4,-3],[-3,-3],[-2,-5],[-2,-7],[-3,-3],[-5,-1]],[[1350,302],[2,0],[3,1],[2,2],[1,3],[2,3],[1,6],[-1,4],[-1,4],[-3,6],[-1,3],[0,3],[2,2],[5,2],[3,2],[2,1],[2,5],[1,4],[1,3],[1,2],[3,2],[3,1],[3,1],[5,11],[2,4],[0,4],[-1,2],[-4,7],[-11,34],[9,12],[0,7],[-2,9],[-3,10],[-2,2],[-6,20],[0,5],[1,4],[1,2],[5,4],[2,3],[4,6],[0,5],[-2,5],[-5,13],[-2,3],[-2,2],[-1,2],[-4,4],[-2,1],[-3,4],[-7,17],[-3,5],[-2,1],[-3,5],[-7,26],[-3,16],[-3,9],[-2,4],[-3,5],[-2,4],[0,4],[9,43],[0,4],[-1,3],[-2,2],[-5,5],[-5,2],[-7,3],[-2,2],[-7,7],[-3,3],[-3,5],[-16,41],[-2,6],[0,4],[0,3],[5,16],[3,4],[15,12],[5,7],[0,3],[0,3],[-1,4],[-1,3],[-2,1]],[[1305,829],[-3,0],[-1,-2],[-3,-4],[-1,-2]],[[1297,821],[-3,0],[-2,1],[-2,2],[-2,1],[-3,1]],[[1285,826],[-3,0],[-4,-2],[-2,-2],[-1,-2],[-1,-3],[0,-3],[2,-9],[-1,-3],[-2,-1],[-5,-4],[-3,-3],[-3,-3],[-10,-18],[-1,-3],[0,-3],[-1,-3],[0,-3],[0,-4],[-1,-4],[-7,-14],[-3,-3],[-3,0]],[[1236,736],[-17,7],[-3,1],[-5,0]],[[1211,744],[-3,-1],[-11,-13],[-7,-4],[-3,-3],[-2,-3],[-1,-3],[-1,-2],[0,-7],[-1,-5],[-2,-2],[-2,0]],[[1178,701],[-6,1]],[[1347,302],[3,0]],[[1467,0],[0,1],[-2,6],[-2,3],[-2,2],[-13,6],[-14,15],[-23,31],[-4,6],[-1,6],[-1,13],[-2,11],[1,9],[0,11],[-13,15],[-1,3],[0,5],[1,4],[0,6],[-1,3],[-1,3],[-8,6],[-5,5],[-3,6],[-4,6],[-5,6],[-2,4],[0,4],[2,5],[0,3],[-1,16],[2,9],[0,6],[0,3],[-1,2],[-15,19],[-2,4],[-1,3],[-4,26],[1,6],[1,4],[3,0]],[[1001,749],[-8,1],[-11,5],[-6,1],[-4,0]],[[972,756],[-2,-1],[-2,-2],[-2,-1],[-3,-1],[-3,0]],[[960,751],[-9,0],[-8,2]],[[943,753],[-3,0],[-5,-1],[-7,-3],[-6,-3],[-5,-26],[-1,-86]],[[1091,653],[-3,1],[-2,2],[-3,10],[0,1],[-1,2],[-1,3],[0,8],[-2,9],[-5,6],[-10,9],[-6,4],[-4,2],[-8,1],[-13,5],[-4,3],[-3,2],[-16,22],[-4,4],[-3,2]],[[1003,749],[-2,0]],[[1172,702],[-3,-9],[-10,-9],[-12,-9],[-42,-19],[-14,-3]],[[3552,999],[-1,-6],[-1,-12],[1,-10],[3,-9],[5,-8],[9,-6],[10,-2],[7,3],[13,14],[2,-9],[-5,-28],[11,-35],[0,-7],[-68,-10],[-8,0],[-4,19],[-3,5],[11,9],[5,5],[3,6],[-23,13],[-23,-4],[-24,-10],[-25,-3],[5,4],[23,23],[19,12],[3,5],[1,6],[0,7],[-2,6],[-3,6],[-6,10],[-3,6],[4,2],[17,-6],[6,-1],[13,4],[1,5],[-1,6],[-2,6],[0,5],[1,4],[4,2],[7,2],[4,3],[1,2],[0,4],[3,4],[8,2],[6,3],[4,5],[2,9],[0,8],[1,4],[3,3],[4,0],[9,0],[4,0],[3,1],[10,8],[6,6],[4,2],[6,0],[20,-9],[5,0],[-46,-29],[-14,-13],[-3,-5],[-1,-10],[-1,-5],[-4,-4],[-9,-7],[-4,-5],[-3,-6]],[[464,0],[-13,0],[-3,11],[-18,23],[-8,13],[-5,29],[-3,7],[-12,14],[-4,7],[25,5],[38,30],[21,-2],[-9,-8],[-29,-20],[-7,-12],[1,-17],[2,-16],[5,-16],[14,-32],[5,-13],[0,-3]],[[1247,0],[-462,0],[10,17],[7,8],[29,22],[12,12],[13,19],[-7,8],[-1,7],[5,4],[11,2],[10,27],[5,17],[11,18],[1,12],[-3,10],[-7,9],[-10,7],[-10,6],[0,5],[10,-1],[16,-3],[9,-1],[-5,6],[-4,6],[-4,7],[-2,7],[24,-5],[8,4],[6,35],[13,24],[4,11],[0,32],[-11,27],[-29,52],[-4,34],[11,21],[18,16],[15,19],[0,25],[-19,16],[-24,16],[-17,23],[-5,4],[3,3],[3,3],[5,3],[4,2],[2,-4],[6,-7],[2,-4],[6,11],[6,30],[8,12],[4,-10],[-1,-25],[2,-14],[4,-7],[7,-8],[79,-58],[-5,-17],[12,-8],[19,-5],[14,-7],[7,-16],[3,-16],[5,-13],[15,-3],[0,-5],[-10,-13],[3,-25],[11,-26],[11,-16],[9,15],[4,14],[7,10],[18,3],[15,-2],[14,-4],[28,-14],[-20,-10],[-22,9],[-21,5],[-12,-20],[1,-10],[4,-11],[6,-10],[4,-7],[12,-12],[3,-7],[0,-12],[-9,-39],[-2,-20],[6,-15],[8,4],[6,1],[6,-5],[-10,-21],[-1,-11],[0,-12],[3,-9],[8,-5],[1,11],[3,10],[6,16],[5,0],[-5,-20],[0,-7],[2,-8],[7,-9],[-11,-16],[0,-21],[7,-29],[11,-26],[22,-30],[19,-6],[13,22],[6,-19],[0,-15]],[[2341,545],[-4,12],[0,4],[17,-2],[3,-3],[4,-4],[4,-1],[3,8],[-2,2],[-4,5],[-3,8],[0,7],[7,10],[9,-3],[8,-9],[6,-9],[8,-35],[37,-85],[-11,-23],[-3,12],[-11,4],[-14,1],[-11,4],[7,5],[3,1],[-7,8],[-6,4],[-5,6],[-2,11],[2,6],[18,23],[0,5],[-2,2],[-3,1],[-5,2],[-1,-4],[-3,-7],[-1,-5],[-6,4],[-7,2],[-8,0],[-9,0],[4,5],[0,4],[-2,4],[-2,7],[-2,1],[-3,-1],[-4,0],[-1,3],[1,7],[1,3]],[[451,0],[-3,11],[-18,23],[-8,13],[-5,29],[-3,7],[-12,14],[-4,7],[25,5],[38,30],[21,-2],[-9,-8],[-29,-20],[-7,-12],[1,-17],[2,-16],[5,-16],[14,-32],[5,-13],[0,-3]],[[785,0],[10,17],[7,8],[29,22],[12,12],[13,19],[-7,8],[-1,7],[5,4],[11,2],[10,27],[5,17],[11,18],[1,12],[-3,10],[-7,9],[-10,7],[-10,6],[0,5],[10,-1],[16,-3],[9,-1],[-5,6],[-4,6],[-4,7],[-2,7],[24,-5],[8,4],[6,35],[13,24],[4,11],[0,32],[-11,27],[-29,52],[-4,34],[11,21],[18,16],[15,19],[0,25],[-19,16],[-24,16],[-17,23],[-5,4],[3,3],[3,3],[5,3],[4,2],[2,-4],[6,-7],[2,-4],[6,11],[6,30],[8,12],[4,-10],[-1,-25],[2,-14],[4,-7],[7,-8],[79,-58],[-5,-17],[12,-8],[19,-5],[14,-7],[7,-16],[3,-16],[5,-13],[15,-3],[0,-5],[-10,-13],[3,-25],[11,-26],[11,-16],[9,15],[4,14],[7,10],[18,3],[15,-2],[14,-4],[28,-14],[-20,-10],[-22,9],[-21,5],[-12,-20],[1,-10],[4,-11],[6,-10],[4,-7],[12,-12],[3,-7],[0,-12],[-9,-39],[-2,-20],[6,-15],[8,4],[6,1],[6,-5],[-10,-21],[-1,-11],[0,-12],[3,-9],[8,-5],[1,11],[3,10],[6,16],[5,0],[-5,-20],[0,-7],[2,-8],[7,-9],[-11,-16],[0,-21],[7,-29],[11,-26],[22,-30],[19,-6],[13,22],[6,-19],[0,-15]],[[2341,545],[-4,12],[0,4],[17,-2],[3,-3],[4,-4],[4,-1],[3,8],[-2,2],[-4,5],[-3,8],[0,7],[7,10],[9,-3],[8,-9],[6,-9],[8,-35],[37,-85],[-11,-23],[-3,12],[-11,4],[-14,1],[-11,4],[7,5],[3,1],[-7,8],[-6,4],[-5,6],[-2,11],[2,6],[18,23],[0,5],[-2,2],[-3,1],[-5,2],[-1,-4],[-3,-7],[-1,-5],[-6,4],[-7,2],[-8,0],[-9,0],[4,5],[0,4],[-2,4],[-2,7],[-2,1],[-3,-1],[-4,0],[-1,3],[1,7],[1,3]],[[3552,999],[-1,-6],[-1,-12],[1,-10],[3,-9],[5,-8],[9,-6],[10,-2],[7,3],[13,14],[2,-9],[-5,-28],[11,-35],[0,-7],[-68,-10],[-8,0],[-4,19],[-3,5],[11,9],[5,5],[3,6],[-23,13],[-23,-4],[-24,-10],[-25,-3],[5,4],[23,23],[19,12],[3,5],[1,6],[0,7],[-2,6],[-3,6],[-6,10],[-3,6],[4,2],[17,-6],[6,-1],[13,4],[1,5],[-1,6],[-2,6],[0,5],[1,4],[4,2],[7,2],[4,3],[1,2],[0,4],[3,4],[8,2],[6,3],[4,5],[2,9],[0,8],[1,4],[3,3],[4,0],[9,0],[4,0],[3,1],[10,8],[6,6],[4,2],[6,0],[20,-9],[5,0],[-46,-29],[-14,-13],[-3,-5],[-1,-10],[-1,-5],[-4,-4],[-9,-7],[-4,-5],[-3,-6]],[[3484,4096],[-7,-2],[-9,0],[-6,2]],[[4096,4066],[-12,6],[-18,6],[-33,3],[-18,7],[-12,8]],[[305,4064],[6,8],[16,24]],[[281,4037],[24,27]],[[224,4083],[9,-5],[9,-12]],[[202,4096],[22,-13]],[[242,4066],[9,-13],[15,-13],[15,-3]],[[366,4096],[6,-2],[9,-5]],[[381,4089],[9,-5],[30,-35],[21,-3],[21,-28],[15,-4],[6,7],[21,0],[21,9],[15,16],[12,32],[11,18]],[[281,4037],[-21,-16],[-6,-19]],[[3435,4096],[9,-18],[21,-51],[6,-29]],[[3471,3998],[-3,-12],[-12,-13],[-24,-6],[-39,0],[-24,-7],[-21,-13],[-30,-22],[-12,-9],[-45,-7]],[[343,4050],[2,9],[-6,9],[4,28]],[[384,3830],[-9,51],[-6,19],[0,22],[-15,13],[-3,9],[-6,13],[-25,16],[-6,19],[3,10],[13,9],[9,16],[4,23]],[[0,3897],[11,6],[33,3],[24,-3],[12,6],[21,23],[12,3],[15,16],[42,22],[24,13],[51,16],[9,0]],[[411,3702],[0,19],[-9,42],[-6,19],[-12,48]],[[2894,3594],[6,3],[6,16],[18,42],[-9,16],[27,25],[18,13],[21,16],[21,28],[18,13],[22,19],[36,19],[12,7],[18,22],[18,9],[18,23],[15,12],[9,4],[18,-4],[33,20],[42,12]],[[4078,3521],[18,5]],[[4033,3505],[9,10],[18,-4],[18,10]],[[296,3444],[0,16],[-3,20],[-3,28],[3,19],[-3,19],[3,10],[-9,35],[3,19],[9,10],[34,16],[48,3],[15,9],[6,10],[9,25],[3,19]],[[4096,3406],[-18,10],[-12,19],[-3,9],[-15,13],[-1,8]],[[4047,3465],[-2,18],[-12,22]],[[179,3279],[8,5]],[[187,3284],[16,11],[18,9],[18,20],[9,12],[3,16],[15,19],[3,29],[6,13],[21,31]],[[182,3273],[0,3]],[[182,3269],[0,4]],[[2894,3594],[18,-35],[6,-9],[27,-23],[6,-9],[9,-10],[21,-6],[24,-10],[24,-19],[19,-19],[-22,-48],[6,-12],[25,-20],[6,-15],[9,-7],[3,-13],[-3,-12],[-3,-32],[15,-13],[18,-19],[15,0],[15,10],[6,0]],[[3138,3273],[12,-13]],[[182,3273],[-10,-2]],[[172,3271],[-8,-2],[-21,-19],[-33,-25],[-18,-10],[-18,-3],[-39,13],[-12,3],[-21,-3],[-2,0]],[[1028,3217],[-3,-5]],[[1035,3199],[3,16],[-5,2]],[[1025,3212],[-2,-3],[-15,-10],[-24,-6],[-9,-10],[-12,-6]],[[1033,3217],[-4,1],[-1,-1]],[[1039,3190],[-4,9]],[[1044,3174],[-5,16]],[[3150,3260],[18,-32],[12,-22],[21,-13],[6,-19],[18,-19],[27,-16]],[[963,3177],[-30,-13],[-30,10],[-6,-3],[-27,-19],[-24,-4],[-27,-22],[-36,-9]],[[783,3117],[-21,-4],[-9,-9],[-21,3],[-12,-13]],[[184,3269],[-2,0]],[[720,3094],[-12,7],[-9,-13],[-18,0],[-15,19],[0,29],[-12,16],[-15,-4],[-6,10],[-3,19],[-18,26],[-9,19],[-3,6],[-18,0],[-15,-3],[-9,-7],[-24,-3],[-6,-6],[-12,-19],[-15,-13],[-15,-6],[-21,9],[-30,-3],[-12,10],[-9,28],[-6,7],[-21,6],[-15,13],[-12,6],[-43,10],[-15,6],[-9,-10],[-45,-3],[-27,16],[-30,0],[-7,3]],[[183,3267],[-1,2]],[[317,3043],[-18,29],[-9,26],[-21,25],[-36,19],[-9,16],[-9,10],[-9,12],[-3,10],[6,22],[-21,45],[-5,10]],[[3252,3139],[6,-6],[6,-10],[-27,-35],[-21,-16],[-15,-19],[-6,-13],[-18,-16],[-15,-6],[-18,-22]],[[3122,2944],[-2,-2],[-18,-4],[-3,-6]],[[3144,2996],[-6,-10],[0,-19],[-16,-23]],[[1182,2910],[-24,19],[-33,0],[-12,6],[-9,10],[-12,25],[-9,13],[-18,9],[-6,10],[-3,10],[-3,47],[9,19],[0,16],[-3,16],[-6,19],[-3,23],[-6,22]],[[1182,2840],[3,28],[0,16],[3,13],[-6,13]],[[3099,2932],[0,-1]],[[3099,2931],[3,-9],[3,-38],[-3,-9],[0,-26],[-3,-19],[-15,-35],[-3,-19],[3,-25],[-3,-23],[3,-12]],[[3075,2540],[0,-6],[-3,-3]],[[3084,2716],[0,-20],[9,-19],[6,-32],[-3,-15],[-21,-77],[0,-13]],[[3072,2531],[-6,-10],[0,-12],[-3,-10]],[[1170,2477],[3,16],[9,12],[-3,23],[3,6],[15,10],[0,12],[-15,23],[3,38],[-6,13],[6,12],[0,19],[12,23],[-6,35],[0,9],[-6,38],[-3,10],[-3,51],[3,13]],[[1167,2416],[3,42],[0,19]],[[3063,2499],[-2,-2]],[[3061,2497],[-13,-20],[-34,-23],[-30,-57]],[[360,2314],[18,16],[21,26],[6,19],[6,9],[15,10],[6,19],[27,6],[6,10],[6,25],[-3,23],[-12,28],[6,29],[0,51],[-3,25],[6,45],[-18,25],[-18,13],[-6,13],[-6,25],[0,26],[-3,13],[-9,19],[-3,28],[-6,26],[3,19],[-12,22],[-6,26],[3,12],[-6,16],[-12,10],[-21,13],[-15,12],[-6,19],[3,23],[0,9],[-10,19]],[[2984,2397],[-6,-16],[0,-16],[3,-16],[15,-28],[6,-45],[-3,-16]],[[1128,2244],[21,13],[15,29],[0,22],[-3,22],[9,39],[0,15],[-3,32]],[[1750,2185],[0,2],[6,5]],[[1705,2053],[3,13],[-3,29],[6,25],[6,16],[21,16],[12,22],[0,11]],[[1756,2192],[30,21]],[[2066,2061],[8,-11],[21,-16],[27,-9],[49,3]],[[1786,2213],[18,22],[9,3],[21,0],[18,19],[18,0],[24,-19],[15,-13],[12,-3],[12,-13],[21,-31],[18,-13],[39,-7],[24,-19],[24,-70],[7,-8]],[[2999,2260],[0,-28],[9,-54],[15,-51],[15,-32],[13,-13],[18,-13],[12,-12],[3,-13],[0,-22],[9,-35],[3,-7],[24,-25]],[[3120,1955],[9,-13],[0,-13]],[[2171,2028]],[[2188,2027],[19,-9],[18,-22]],[[2171,2028],[15,0],[2,-1]],[[2225,1996],[3,-3],[-3,-13],[15,-19],[0,-19],[6,-19],[15,-10],[45,-3],[18,-6],[15,-3],[21,-10],[30,-3],[18,0]],[[3129,1929],[-6,-22],[3,-16],[12,-19],[0,-10],[-9,-12]],[[1128,2244],[-36,-3],[-15,3],[-24,7],[-36,6],[-12,13],[-36,25],[-12,-3],[-12,-16],[-12,-9],[-6,-13],[-12,-29],[-9,-3],[-27,-9],[6,-23],[12,-19],[6,-22],[0,-10],[-12,-25],[-12,-16],[-6,-13],[-9,-6],[-21,-3],[-27,-10],[-21,6],[-9,-19],[-15,-16],[-12,-3],[-24,-3],[-24,-29],[0,-15],[-12,-26],[-24,-9],[-15,-26],[-18,-19],[0,-6],[27,-48],[12,-10],[9,-12]],[[597,1776],[30,10],[12,13],[15,9],[18,13],[18,10]],[[597,1776],[-6,26],[-18,22],[-15,26],[-12,31],[-3,42],[-6,16],[-9,13],[-21,15],[-9,13],[-3,7],[-9,19],[-3,35],[-3,31],[-9,16],[-3,13],[0,22],[9,13],[-6,32],[0,35],[-9,35],[-9,3],[-15,19],[-9,7],[-15,12],[-24,0],[-6,7],[-24,28]],[[570,1690],[3,23],[9,25],[18,13],[0,10],[-3,15]],[[0,1740],[2,1],[21,-6],[30,0],[24,3],[21,-6],[18,6],[15,-6],[21,-7],[9,4],[3,9],[3,19],[3,13],[12,10],[12,-4],[21,4],[21,0],[27,-13],[12,-10],[21,0],[18,-12],[19,-16],[30,-4],[36,-12],[21,0],[9,-7],[0,-16],[9,0],[9,13],[15,-13],[12,7],[18,-3],[24,0],[30,-4],[24,0]],[[2429,1732],[-3,6],[-9,28]],[[2450,1665],[-9,41],[-1,2]],[[2417,1766],[-3,10],[0,16],[9,45],[-12,32],[-3,19]],[[2440,1708],[-11,24]],[[3129,1850],[-6,-13],[0,-10],[6,-12],[15,-16],[9,-42],[0,-28],[9,-23],[0,-19],[9,-38],[-3,-29],[-6,-9]],[[2408,1604],[18,29],[24,32]],[[2384,1538],[6,22],[15,38],[3,6]],[[2444,1522],[6,0]],[[2384,1538],[24,-4],[15,-3],[9,-9],[12,0]],[[2459,1515],[0,10],[4,9]],[[2466,1619],[-4,27],[-12,19]],[[2463,1534],[11,23],[3,32],[-9,16],[-2,14]],[[2450,1522],[9,-7]],[[2489,1541],[0,-3],[-3,-32]],[[2465,1675],[18,-48],[0,-3]],[[2483,1624],[3,-16],[3,-48],[0,-19]],[[2486,1506],[-27,9]],[[3756,1655],[-4,-4]],[[3752,1651],[-5,-5],[-9,-26],[-3,-31],[3,-23],[-6,-16],[6,-28],[0,-29]],[[2486,1506],[-3,-7],[3,-15],[3,-3]],[[2489,1481],[18,-17],[15,-19],[6,-3],[12,3],[9,-9],[-6,-13],[9,-29],[9,-9],[42,3],[3,-32],[18,-28],[6,-13],[6,-7],[12,-3],[12,0]],[[3738,1493],[-18,-3],[-30,-19],[-18,0],[-9,-7],[-18,0],[-21,-6],[-21,-3],[-21,-6],[-36,-35],[-12,-36],[-9,-9],[-18,-10],[-6,-6],[-12,-6],[-51,-10],[-6,-3],[-12,-22],[-12,-16],[-9,-10]],[[2821,1279],[4,-2]],[[2660,1305],[21,3],[27,7],[21,3],[27,-6],[30,-10],[35,-23]],[[2857,1305],[-2,-3],[-24,-19],[-18,-22],[-4,-2]],[[2809,1259],[-20,-11]],[[3162,1611],[-21,-22],[-9,-20],[-6,-19],[-18,-44],[-3,-7],[-24,-12],[-24,-35],[-12,-29],[-31,-38],[-9,0],[-45,-3],[-9,0],[-30,-16],[-39,-29],[-15,-13],[-10,-19]],[[2789,1248],[-12,10],[-30,19],[-21,12],[-15,0],[-21,0],[-24,10],[-6,6]],[[3399,1286],[-24,-9],[-15,-7],[-15,-32],[-78,-140],[3,-16],[-6,-15],[-15,-26],[-6,0],[-30,6],[-12,-3],[-15,-12]],[[2789,1248],[-21,-25],[-12,-23],[-3,-22],[-6,-10],[-24,-19],[-6,-16],[6,-25],[6,-35],[-18,-61],[-9,-19],[3,-32],[-9,-15],[-18,-10],[-27,-29],[-6,-22],[-18,-44],[0,-13],[9,-35],[-9,-16]],[[3186,1032],[-15,-10],[-27,-16],[-18,-22],[-18,-13],[-12,-32],[-3,-19],[-12,-22],[-24,-10],[-15,-9],[-16,-19],[-18,-16],[-15,-29],[-21,-25],[-3,-16],[15,-26],[3,-13],[15,-12],[27,-13],[3,-10],[-6,-12]],[[888,650],[-36,25],[-12,3],[-30,0],[-27,-16],[-9,-12]],[[912,656],[-24,-6]],[[666,650],[0,19],[12,41],[12,25],[18,39],[0,12],[-3,29],[15,26],[21,28],[9,22],[27,42],[15,13],[15,9],[0,26],[3,31],[-3,7],[-15,3],[-12,25],[-24,39],[-3,12],[-15,26],[-12,28],[3,20],[-12,19],[-27,3],[-9,16],[3,13],[-15,3],[-6,9],[-27,51],[-21,51],[-12,19],[-15,32],[-3,19],[-3,26],[-6,16],[-3,28],[-3,54],[-3,16],[0,70],[3,51],[0,22]],[[909,630],[-12,7],[-9,13]],[[774,650],[-3,-7],[-33,-19],[-24,13],[-48,13]],[[188,611],[-12,23],[-15,9],[-9,10],[-3,16],[6,25],[-3,13],[-9,16],[-15,47],[-9,29],[-3,19],[-3,51],[-9,19],[0,23],[-12,25],[-3,57],[-9,67],[-12,19],[0,16],[-9,51],[-12,19],[-21,10],[-9,9],[-6,23],[-11,65]],[[653,571],[-5,-17],[-13,-14]],[[635,540],[-5,-5]],[[666,650],[-3,-26],[-9,-51],[-1,-2]],[[3067,553],[5,-5],[6,-13],[-6,-16]],[[3026,688],[-3,-26],[0,-19],[25,-22],[12,-13],[3,-6],[-9,-23],[0,-6],[13,-20]],[[4024,497],[21,-3],[9,6],[9,19],[12,6],[9,19],[12,13]],[[1182,443],[-15,0],[-24,16],[-24,31],[-6,7],[-15,0],[-6,6],[-21,3],[-18,10],[-30,6],[-3,19],[-9,13],[-6,22],[-9,13],[-27,19],[-15,0],[-24,0],[3,26],[-6,19],[-15,3]],[[2627,777],[-3,-10],[-27,-57],[-15,-48],[-9,-41],[-12,-96],[-12,-63],[6,-35]],[[630,535],[-9,-6],[-3,-13],[0,-19],[-3,-32],[-6,-10],[-27,-16],[-21,-12],[-30,-23],[-15,-6]],[[516,398],[-39,-19],[-30,-22],[-18,-10],[-39,-25],[-12,-10]],[[378,312],[-12,3],[-6,13],[-21,29],[-9,3],[-31,-3],[-15,6],[-21,38],[-9,26],[-6,28],[9,16],[-3,13],[-9,29],[-15,25],[-27,6],[-12,16],[6,32],[-9,19]],[[3074,314],[1,-2],[-9,-9]],[[3072,519],[0,-6]],[[3072,513],[6,-32],[18,-32],[3,-16],[-6,-25],[-12,-20],[-6,-15],[-3,-23],[2,-36]],[[3056,303],[10,0]],[[3035,293],[16,10],[5,0]],[[3066,303],[17,-7]],[[3083,296],[1,0],[15,3],[30,-9],[15,-13],[24,-25],[6,0],[12,6],[21,3],[15,-6],[36,0],[24,-10],[18,-3],[30,-13]],[[1273,220],[-12,41],[-12,26],[-22,73],[-6,32],[-9,22],[-18,22],[-12,7]],[[1465,197],[-21,4],[-15,9],[-21,22],[-9,13],[-9,7],[-21,3],[-15,13],[-15,-7],[-15,-16],[0,-19],[-12,-13],[-12,0],[-27,7]],[[2894,290],[15,9]],[[2558,185],[8,8]],[[2566,193],[1,1],[9,3],[27,0],[24,4],[24,12],[18,4],[27,-7],[15,7],[18,0],[27,9],[9,-3],[15,9],[9,13],[9,7],[12,19],[12,6],[36,0],[12,10],[18,0],[6,3]],[[2909,299],[12,7],[24,9],[9,-3],[39,-13],[18,-9],[24,3]],[[2556,193],[2,-8]],[[2555,427],[3,-19],[-42,-48],[-9,-13],[6,-19],[30,-48],[12,-12],[3,-13],[-9,-23],[-15,-9],[0,-6],[21,-16],[1,-8]],[[1483,185],[-9,9],[-9,3]],[[2558,185],[-11,-11]],[[2547,174],[-16,-15]],[[3501,150],[-30,9],[-33,-12]],[[3419,145],[-11,-2],[-21,0],[-24,16],[-17,25]],[[3346,184],[-4,7],[-6,22],[-6,16]],[[3438,147],[-19,-2]],[[4096,190],[-3,7],[-3,32],[-6,10],[-12,9],[0,16],[-6,10],[6,9],[-12,20],[-9,9],[-3,16],[-6,10],[0,15],[9,23],[-6,19],[0,16],[-9,12],[0,16],[-9,10],[3,22],[-6,26]],[[1552,121],[-24,6],[-15,23],[-12,12],[-18,23]],[[396,108],[9,10],[21,38],[12,16],[6,11]],[[444,183],[9,14],[36,45],[6,16],[3,35],[6,29],[6,38],[9,22],[-3,16]],[[370,230],[11,-48],[-3,-26],[9,-35],[9,-13]],[[378,312],[3,-25],[-12,-19],[0,-32],[1,-6]],[[396,99],[-9,0]],[[4066,89],[30,32]],[[387,99],[-18,0],[-4,-4]],[[365,95],[-5,-6],[-15,-3],[-28,-22],[-27,-7]],[[1690,0],[-6,22],[-6,19],[-3,29],[-12,-3],[-18,16],[-12,22],[-15,10],[-33,0],[-33,6]],[[2426,143],[-36,-6],[-18,-19],[-6,-3],[-18,3],[-21,-3],[-6,9],[-3,0]],[[2254,124],[-17,-3],[-12,-13],[-14,-3]],[[2211,105],[-13,-3],[-12,-10],[-12,-15],[-12,-7],[-34,-3],[-9,-16],[-15,0],[-15,-6],[-39,6],[-12,-6],[-9,0],[-21,3],[-21,-10],[-24,3],[-15,-9],[-18,-6],[-15,-10],[-4,-16]],[[2318,124],[-18,0],[-15,10],[-18,3],[-12,-13],[-1,0]],[[2531,159],[-9,-9],[-30,-13],[-12,-13],[-6,0],[-36,16],[-12,3]],[[3501,150],[6,-13],[0,-25],[-9,-39],[-6,-22],[3,-32],[8,-19]],[[2531,159],[9,-16],[15,-12],[33,-39],[18,-9],[27,-29],[12,-19],[33,-19],[25,-16]],[[290,57],[-3,-9],[6,-16],[3,-19],[10,-13]],[[4036,0],[3,35],[12,32],[15,22]],[[4096,1608],[0,-1608],[-2849,0],[0,15],[-6,19],[-13,-22],[-19,6],[-22,30],[-11,26],[-7,29],[0,21],[11,16],[-7,9],[-2,8],[0,7],[5,20],[-5,0],[-6,-16],[-3,-10],[-1,-11],[-8,5],[-3,9],[0,12],[1,11],[10,21],[-6,5],[-6,-1],[-8,-4],[-6,15],[2,20],[9,39],[0,12],[-3,7],[-12,12],[-4,7],[-6,10],[-4,11],[-1,10],[12,20],[21,-5],[22,-9],[20,10],[-28,14],[-14,4],[-15,2],[-18,-3],[-7,-10],[-4,-14],[-9,-15],[-11,16],[-11,26],[-3,25],[10,13],[0,5],[-15,3],[-5,13],[-3,16],[-7,16],[-14,7],[-19,5],[-12,8],[5,17],[-79,58],[-7,8],[-4,7],[-2,14],[1,25],[-4,10],[-8,-12],[-6,-30],[-6,-11],[-2,4],[-6,7],[-2,4],[-4,-2],[-5,-3],[-3,-3],[-3,-3],[5,-4],[17,-23],[24,-16],[19,-16],[0,-25],[-15,-19],[-18,-16],[-11,-21],[4,-34],[29,-52],[11,-27],[0,-32],[-4,-11],[-13,-24],[-6,-35],[-8,-4],[-24,5],[2,-7],[4,-7],[4,-6],[5,-6],[-9,1],[-16,3],[-10,1],[0,-5],[10,-6],[10,-7],[7,-9],[3,-10],[-1,-12],[-11,-18],[-5,-17],[-10,-27],[-11,-2],[-5,-4],[1,-7],[7,-8],[-13,-19],[-12,-12],[-29,-22],[-7,-8],[-10,-17],[-321,0],[0,3],[-5,13],[-14,32],[-5,16],[-2,16],[-1,17],[7,12],[29,20],[9,8],[-21,2],[-38,-30],[-25,-5],[4,-7],[12,-14],[3,-7],[5,-29],[8,-13],[18,-23],[3,-11],[-451,0],[0,4096],[4096,0],[0,-2488]],[[2154,310],[90,27],[46,-28],[-40,-35],[24,-32],[-42,12],[74,-39],[-22,-62],[-22,-15],[-20,25],[23,-71],[-74,18],[21,21],[-30,14],[21,40],[-12,59],[22,9],[7,17],[-24,10],[-5,-27],[-37,57]],[[2216,306],[6,-6],[3,-6],[0,8],[-9,4]],[[2230,319],[6,-8],[3,2],[-7,9],[-2,-3]],[[3868,275],[21,79],[38,-7],[0,21],[51,-20],[13,-81],[-25,-14],[32,-26],[-9,-28],[-100,3],[-21,73]],[[3930,276],[7,-16],[20,-1],[-4,32],[-23,-15]],[[3850,0],[-183,0],[16,82],[-52,9],[16,37],[-19,40],[35,25],[4,-30],[67,-12],[35,40],[151,-84],[-7,-48],[-63,-59]],[[4009,0],[-85,0],[55,80],[-33,51],[11,59],[51,3],[3,74],[10,10],[1,-68],[-32,-38],[32,-5],[-31,-35],[36,-10],[-57,-5],[50,-22],[-26,-32],[14,-21],[-43,-25],[47,5],[-3,-21]],[[2882,253],[14,42],[46,12],[-12,-36],[24,10],[-15,-23],[24,-4],[-31,-12],[57,-42],[-19,-56],[26,12],[1,-15],[-58,-59],[-19,26],[16,-3],[-1,19],[-15,-9],[5,27],[-31,25],[-12,86]],[[2171,962],[30,36],[26,-14],[161,-207],[-17,-31],[55,-106],[-26,-36],[47,-15],[7,-33],[-38,-77],[-28,48],[-42,-13],[-16,41],[38,-3],[-10,40],[26,-14],[-17,51],[-73,17],[-63,-38],[-10,173],[51,39],[-67,132],[-34,10]],[[2281,767],[9,-28],[32,4],[-12,42],[-29,-18]],[[2570,570],[22,67],[27,-5],[-8,68],[67,79],[13,-46],[-21,-31],[29,-31],[-30,-91],[28,-42],[22,46],[18,-87],[-22,-21],[-27,12],[-15,-48],[-21,60],[-26,-25],[-34,21],[-22,74]],[[3487,649],[106,114],[71,23],[29,36],[32,-23],[-102,-98],[53,-8],[44,83],[38,-26],[-37,-52],[-60,-35],[-23,27],[-79,-82],[-44,-2],[22,26],[-36,-1],[8,31],[-22,-13]],[[1445,1242],[60,77],[36,-9],[-47,27],[90,-12],[22,-92],[-9,-27],[40,5],[16,-34],[-1,-85],[-18,2],[17,-13],[-113,-39],[-42,69],[32,6],[11,22],[-32,-24],[-13,52],[11,5],[0,14],[24,-3],[64,6],[-53,13],[2,-14],[-30,8],[-17,-23],[-50,69]],[[1546,1243],[14,-6],[22,2],[12,-8],[5,1],[-16,13],[-37,-2]],[[1544,1141],[26,-14],[11,3],[-29,11],[-8,0]],[[1598,1090],[14,-11],[6,12],[-19,5],[-1,-6]],[[1584,1162],[3,1],[7,-2],[-5,7],[-5,-6]],[[1619,1075],[3,-3],[5,5],[-7,0],[-1,-2]],[[1573,2132],[75,79],[-19,58],[50,11],[-8,-41],[-30,2],[43,-45],[10,87],[40,33],[-8,-161],[-17,68],[-10,-62],[-6,-6],[-15,4],[-26,-7],[41,0],[-2,-70],[-74,75],[9,-45],[60,-37],[-10,-29],[-71,12],[-32,74]],[[1601,2106],[7,0],[6,-11],[-5,22],[-8,-11]],[[2022,1549],[72,16],[1,-45],[45,15],[-2,-29],[58,-27],[23,21],[15,-58],[-46,-31],[19,-24],[-14,-22],[-67,1],[-59,51],[-45,132]],[[2117,1491],[2,-5],[21,-7],[-8,9],[-15,3]],[[2124,1472],[9,-4],[6,3],[-13,4],[-2,-3]],[[3395,1867],[28,60],[75,-66],[-4,-76],[-51,-85],[-19,43],[22,0],[9,24],[-38,-9],[-22,109]],[[4096,3048],[-86,-20],[24,80],[62,76],[0,-136]],[[3828,3242],[32,43],[78,15],[64,137],[94,60],[0,-296],[-118,19],[-34,39],[-78,-36],[-38,19]],[[2691,1537],[34,104],[-11,64],[28,29],[-12,79],[18,15],[-32,83],[-9,-14],[-2,3],[-65,-77],[-69,8],[-106,138],[19,44],[-43,-22],[-9,63],[52,-7],[-11,44],[44,15],[-41,-7],[17,59],[45,-5],[-8,23],[-35,-8],[40,109],[-44,-33],[1,-34],[-39,-28],[-20,84],[29,46],[-30,32],[19,-38],[-13,-12],[-18,31],[7,-12],[-18,-97],[-124,17],[-13,-16],[-64,35],[9,16],[-22,-8],[23,21],[0,10],[-35,-6],[36,48],[-22,-4],[-4,60],[10,-25],[38,0],[6,54],[48,-13],[46,47],[66,-30],[23,-69],[21,76],[16,8],[1,-4],[38,104],[-25,39],[31,97],[100,24],[102,-42],[-98,-35],[3,-51],[-48,5],[-19,-26],[-28,46],[-14,-38],[40,-36],[0,-47],[-39,-46],[4,-46],[-15,0],[33,-13],[-1,-44],[20,2],[-10,-42],[146,-31],[-17,-47],[37,-178],[-13,-24],[109,14],[-10,-40],[-33,-4],[-6,-17],[46,16],[11,-25],[-25,-7],[25,-11],[-60,11],[-8,-20],[42,-19],[-7,-49],[30,25],[41,11],[3,59],[26,-3],[14,-104],[-12,-28],[-15,10],[21,-95],[-36,6],[-13,132],[-22,-72],[18,6],[8,-61],[-29,1],[-2,-63],[-29,10],[29,-30],[-37,-10],[22,-7],[-2,-50],[-40,-142],[-43,29],[6,47],[-26,13]],[[2721,1675],[19,-15],[16,9],[-21,14],[13,16],[-27,-24]],[[2751,1749],[29,14],[0,3],[-25,11],[-4,-28]],[[2798,1831],[17,-1],[-4,24],[-12,-15],[-1,-8]],[[2821,1864],[7,1],[-1,11],[-2,-8],[-4,-4]],[[2776,1740],[4,-4],[13,9],[-11,0],[-6,-5]],[[2698,1919],[22,11],[-24,-5],[2,-6]],[[2721,1899],[4,-8],[6,0],[0,7],[-10,1]],[[2690,1988],[13,-3],[7,6],[-15,4],[-5,-7]],[[2697,1945],[20,5],[2,2],[-11,0],[-11,-7]],[[2683,1977],[9,-5],[3,-3],[-6,12],[-6,-4]],[[2559,2113],[7,-57],[23,-12],[-26,-38],[17,-27],[8,41],[8,-4],[-13,-42],[21,-16],[18,35],[-18,35],[26,41],[16,-10],[-10,107],[-55,16],[-22,-69]],[[2571,1945],[8,-64],[20,-6],[17,40],[-35,10],[-7,49],[-3,-29]],[[2542,1883],[7,-11],[9,1],[-6,12],[-10,-2]],[[2552,1867],[4,-4],[5,3],[-1,2],[-8,-1]],[[2470,2423],[5,-33],[15,-5],[-20,38]],[[2292,2352],[3,-13],[14,-12],[2,34],[-19,-9]],[[2372,2385],[10,-15],[0,38],[-5,-7],[-5,-16]],[[2498,2282],[10,0],[1,18],[-5,2],[-6,-20]],[[2393,2274],[3,-17],[7,-4],[3,12],[-13,9]],[[2409,2278],[1,-6],[6,-2],[-6,14],[-1,-6]],[[3238,1543],[30,27],[2,114],[-4,-8],[-27,56],[10,33],[47,-33],[-37,41],[-11,98],[20,5],[22,104],[54,19],[20,-55],[-11,-87],[15,11],[4,-5],[-14,-14],[-9,2],[-23,-8],[0,-4],[36,1],[-19,-66],[28,-16],[9,-71],[52,-7],[40,-56],[-34,-40],[-95,-10],[-15,-48],[-90,17]],[[3271,1684],[28,13],[3,-1],[-16,13],[-15,-25]],[[3310,1695],[16,-1],[-17,32],[1,-31]],[[3388,1643],[25,-27],[6,3],[-4,38],[-27,-14]],[[3280,1792],[20,-41],[23,5],[-28,59],[-15,-23]],[[2802,2211],[29,86],[38,-2],[-25,27],[41,47],[36,2],[32,-68],[-14,-92],[25,54],[3,-105],[19,8],[19,-52],[9,-90],[-22,-28],[83,-125],[-14,-17],[-90,35],[-64,187],[-4,-92],[-42,7],[-10,126],[-49,92]],[[3404,2361],[34,73],[28,-4],[-28,-22],[7,-59],[52,9],[-42,5],[40,23],[13,-72],[30,-19],[-4,-81],[-44,7],[28,-13],[-4,-25],[-40,-42],[-24,29],[18,43],[42,26],[-38,-18],[20,100],[-88,40]],[[1955,2356],[145,22],[42,-35],[4,25],[39,8],[-11,-86],[-19,32],[-11,-31],[18,-10],[-20,2],[58,-48],[-30,-26],[-11,-64],[81,-42],[3,-47],[47,14],[7,-61],[-53,11],[-21,-26],[-49,46],[-10,-32],[-102,5],[10,117],[-66,47],[-4,141],[-47,38]],[[2073,2235],[16,-23],[34,5],[-13,27],[-9,-20],[-28,11]],[[2200,2070],[15,-7],[15,-1],[-18,9],[-12,-1]],[[2136,2112],[11,-11],[9,4],[-2,7],[-18,0]],[[2150,2140],[2,-7],[9,4],[-7,4],[-4,-1]],[[2183,2071],[1,-3],[11,2],[-2,4],[-10,-3]],[[3822,838],[25,30],[29,-15],[71,206],[21,-63],[66,137],[14,-30],[-48,-87],[-73,-50],[10,-42],[-39,-55],[23,-48],[-31,-99],[-38,5],[23,39],[-37,-16],[26,61],[-42,27]],[[2651,878],[37,43],[20,-35],[170,211],[36,15],[66,-37],[-153,-99],[-33,-63],[-34,-8],[-16,-65],[-25,8],[-13,-24],[-55,54]],[[3346,1066],[35,56],[46,-6],[27,51],[22,-10],[16,-95],[18,9],[23,2],[49,-8],[73,19],[-14,2],[90,84],[12,86],[-16,-33],[-21,31],[29,15],[-7,22],[29,-4],[-1,46],[34,5],[-26,52],[-46,-19],[30,53],[51,9],[19,-34],[-12,0],[-5,-9],[85,15],[-6,51],[20,70],[25,-9],[127,62],[-41,12],[-75,-37],[3,198],[-47,18],[56,24],[23,-29],[12,87],[-37,-22],[8,-17],[-50,-6],[-40,48],[29,109],[38,-49],[63,100],[-105,83],[30,30],[-42,18],[5,83],[129,32],[1,-120],[36,-133],[-33,-134],[58,-83],[19,-143],[-35,-67],[39,19],[-6,-54],[-44,-21],[1,-40],[-58,-30],[-7,-33],[-50,-10],[42,8],[-22,-38],[22,-44],[-119,-99],[-3,-63],[-47,-59],[-61,-45],[-57,8],[3,-29],[-63,-33],[-14,-62],[6,-30],[45,-3],[-25,-56],[-37,-32],[8,45],[-35,1],[11,-26],[-28,-9],[-29,13],[-67,79],[-2,44],[-45,-24],[-32,21],[-2,48],[-28,13],[-7,26]],[[3353,1053],[43,-11],[34,59],[-43,-37],[-34,-11]],[[3448,1030],[37,-16],[-4,41],[-6,2],[-27,-27]],[[3504,1058],[22,-4],[5,9],[-20,4],[-7,-9]],[[3460,989],[4,-3],[22,14],[-10,4],[-16,-15]],[[3431,1057],[3,-2],[16,2],[-1,8],[-18,-8]],[[3713,1092],[4,-4],[23,15],[-9,2],[-18,-13]],[[3886,1347],[29,-10],[-12,38],[-13,-2],[-4,-26]],[[3865,1305],[17,1],[5,15],[-14,0],[-8,-16]],[[3860,1335],[24,8],[-2,10],[-20,-10],[-2,-8]],[[3935,1485],[17,-23],[12,11],[-2,12],[-27,0]],[[4044,1621],[22,-1],[2,20],[-11,4],[-13,-23]],[[4005,1953],[11,-9],[5,7],[-7,9],[-9,-7]],[[3960,2160],[2,-12],[13,11],[-7,11],[-8,-10]],[[4015,2063],[5,-25],[6,-5],[5,8],[-16,22]],[[3983,1878],[3,-11],[9,4],[-12,7]],[[2007,1280],[45,23],[17,-31],[45,-1],[-21,46],[15,-18],[31,30],[-11,25],[-27,-12],[25,24],[65,-2],[31,-34],[-29,-41],[-37,2],[8,-149],[-47,-38],[-56,11],[-7,113],[-47,52]],[[2090,1182],[7,-9],[13,0],[-11,21],[-9,-12]],[[3659,478],[86,100],[21,65],[23,-6],[-18,-29],[22,-18],[44,51],[-7,-56],[-73,-119],[25,28],[32,-14],[6,-94],[-90,-9],[-59,56],[-12,45]],[[1696,1749],[24,86],[61,43],[-53,37],[-17,92],[23,20],[-29,12],[43,-5],[15,21],[-34,0],[-10,37],[44,17],[31,-54],[-14,-73],[29,-41],[-14,-85],[-25,-1],[13,-94],[-27,-30],[-60,18]],[[2208,1568],[53,107],[72,-5],[38,-39],[-36,-61],[-57,1],[-10,-38],[-33,21],[14,38],[-41,-24]],[[3396,114],[-55,0],[6,76],[81,-34],[-32,-42]],[[328,244],[107,-36],[25,-69],[-62,-35],[14,-25],[-40,8],[-59,69],[16,52],[-24,42],[23,-6]],[[483,113],[-17,11],[20,29],[22,-31],[-25,-9]],[[2556,165],[-12,4],[14,28],[12,-7],[-14,-25]],[[3056,276],[0,43],[32,-9],[-9,-25],[-23,-9]],[[637,525],[-8,51],[40,-8],[-2,-17],[-30,-26]],[[3091,545],[-17,-31],[-18,-6],[-4,31],[25,23],[14,-17]],[[3023,1279],[-60,24],[30,48],[38,-40],[-8,-32]],[[2508,1503],[6,-18],[-49,-9],[-24,52],[65,17],[2,-42]],[[2837,1307],[25,-2],[-11,-28],[-54,-41],[40,71]],[[3759,1640],[-16,25],[33,0],[-4,-18],[-13,-7]],[[2473,1768],[49,-133],[-73,-21],[-24,-35],[-18,21],[33,108],[25,9],[-40,17],[-8,34],[32,-17],[24,17]],[[3088,2497],[-32,0],[0,43],[40,0],[-8,-43]],[[3117,2926],[-29,8],[6,13],[43,-4],[-20,-17]],[[1037,3186],[-10,8],[-2,23],[25,0],[-13,-31]],[[181,3263],[-18,15],[-3,16],[31,-12],[-10,-19]],[[383,4096],[-21,-56],[-49,26],[-40,-9],[16,39],[94,0]],[[242,4065],[-19,10],[1,17],[31,-13],[-13,-14]],[[3355,799],[-16,-26],[-89,-17],[48,43],[57,0]],[[3125,1088],[88,73],[12,40],[-47,-37],[-12,33],[57,46],[38,-3],[-36,-120],[-100,-32]],[[2281,171],[33,43],[76,5],[47,-53],[-36,-72],[-58,-1],[-62,78]],[[1757,645],[26,9],[1,47],[98,-79],[0,-26],[-69,11],[-25,-25],[-26,32],[21,-8],[4,20],[-30,19]],[[2760,724],[9,26],[20,-8],[14,103],[73,-14],[-22,-59],[-19,9],[-26,-6],[41,-6],[12,4],[13,-27],[-53,-11],[-1,-61],[-56,-17],[-5,67]],[[2619,1450],[16,16],[19,-14],[-12,21],[12,-8],[11,2],[-16,22],[38,-28],[12,35],[58,-81],[-93,-77],[0,100],[-45,12]],[[2316,1778],[15,27],[42,-24],[15,-36],[-36,-10],[34,3],[35,-44],[-32,-81],[-54,63],[-17,64],[28,-15],[-19,33],[15,14],[-26,6]],[[4027,1912],[2,29],[9,14],[15,-14],[-4,20],[10,6],[-1,-26],[19,5],[19,67],[-4,-183],[-52,35],[42,13],[-19,35],[-14,-35],[-22,34]],[[3084,2070],[9,183],[27,18],[55,-145],[-21,-76],[-12,46],[-16,-41],[-2,55],[-33,-62],[-7,22]],[[3095,2103],[11,-5],[5,30],[-3,0],[-13,-25]],[[1728,2304],[34,26],[-12,41],[15,14],[-12,21],[19,23],[-18,17],[36,4],[-7,-115],[32,-85],[-35,-4],[7,-22],[-48,-51],[-11,131]],[[1759,2357],[3,-5],[12,11],[-9,3],[-6,-9]],[[1777,2275],[6,-7],[3,-1],[0,11],[-9,-3]],[[3952,1382],[37,73],[58,30],[-1,40],[50,35],[0,-295],[-37,-52],[-40,39],[27,64],[-94,66]],[[4096,1600],[-19,18],[15,30],[4,-1],[0,-47]]]}