{"objects":{"water":{"type":"GeometryCollection","geometries":[{"type":"MultiPolygon","properties":{"source":"naturalearthdata.com","kind":"ocean","area":1576712559132672,"sort_rank":200,"min_zoom":0.0,"id":1},"arcs":[[[123],[124],[125],[126],[127],[128],[129],[130],[131],[132],[133],[134],[135],[136],[137],[138],[139],[140],[141],[142],[143],[144],[145],[146],[147],[148],[149],[150],[151],[152],[153],[154],[155],[156],[157],[158],[159],[160]],[[161],[162],[163],[164],[165],[166]]]},{"type":"LineString","properties":{"source":"naturalearthdata.com","kind":"ocean","sort_rank":205,"boundary":true,"min_zoom":0.0,"id":32},"arcs":[167]},{"type":"MultiLineString","properties":{"source":"naturalearthdata.com","kind":"ocean","sort_rank":205,"boundary":true,"min_zoom":0.0,"id":79},"arcs":[[168],[169]]},{"type":"LineString","properties":{"source":"naturalearthdata.com","kind":"ocean","sort_rank":205,"boundary":true,"min_zoom":0.0,"id":787},"arcs":[170]},{"type":"LineString","properties":{"source":"naturalearthdata.com","kind":"ocean","sort_rank":205,"boundary":true,"min_zoom":0.0,"id":788},"arcs":[171]},{"type":"LineString","properties":{"source":"naturalearthdata.com","kind":"ocean","sort_rank":205,"boundary":true,"min_zoom":0.0,"id":789},"arcs":[172]},{"type":"LineString","properties":{"source":"naturalearthdata.com","kind":"ocean","sort_rank":205,"boundary":true,"min_zoom":0.0,"id":790},"arcs":[173]},{"type":"LineString","properties":{"source":"naturalearthdata.com","kind":"ocean","sort_rank":205,"boundary":true,"min_zoom":0.0,"id":793},"arcs":[174]},{"type":"LineString","properties":{"source":"naturalearthdata.com","kind":"ocean","sort_rank":205,"boundary":true,"min_zoom":0.0,"id":794},"arcs":[175]},{"type":"LineString","properties":{"source":"naturalearthdata.com","kind":"ocean","sort_rank":205,"boundary":true,"min_zoom":0.0,"id":1598},"arcs":[176]},{"type":"LineString","properties":{"source":"naturalearthdata.com","kind":"ocean","sort_rank":205,"boundary":true,"min_zoom":0.0,"id":1599},"arcs":[177]},{"type":"LineString","properties":{"source":"naturalearthdata.com","kind":"ocean","sort_rank":205,"boundary":true,"min_zoom":0.0,"id":1618},"arcs":[178]},{"type":"LineString","properties":{"source":"naturalearthdata.com","kind":"ocean","sort_rank":205,"boundary":true,"min_zoom":0.0,"id":1619},"arcs":[179]},{"type":"LineString","properties":{"source":"naturalearthdata.com","kind":"ocean","sort_rank":205,"boundary":true,"min_zoom":0.0,"id":1620},"arcs":[180]},{"type":"LineString","properties":{"source":"naturalearthdata.com","kind":"ocean","sort_rank":205,"boundary":true,"min_zoom":0.0,"id":1621},"arcs":[181]},{"type":"LineString","properties":{"source":"naturalearthdata.com","kind":"ocean","sort_rank":205,"boundary":true,"min_zoom":0.0,"id":1622},"arcs":[182]},{"type":"LineString","properties":{"source":"naturalearthdata.com","kind":"ocean","sort_rank":205,"boundary":true,"min_zoom":0.0,"id":1623},"arcs":[183]},{"type":"LineString","properties":{"source":"naturalearthdata.com","kind":"ocean","sort_rank":205,"boundary":true,"min_zoom":0.0,"id":1624},"arcs":[184]},{"type":"LineString","properties":{"source":"naturalearthdata.com","kind":"ocean","sort_rank":205,"boundary":true,"min_zoom":0.0,"id":1743},"arcs":[185]},{"type":"LineString","properties":{"source":"naturalearthdata.com","kind":"ocean","sort_rank":205,"boundary":true,"min_zoom":0.0,"id":1744},"arcs":[186]},{"type":"LineString","properties":{"source":"naturalearthdata.com","kind":"ocean","sort_rank":205,"boundary":true,"min_zoom":0.0,"id":1745},"arcs":[187]},{"type":"LineString","properties":{"source":"naturalearthdata.com","kind":"ocean","sort_rank":205,"boundary":true,"min_zoom":0.0,"id":1746},"arcs":[188]},{"type":"LineString","properties":{"source":"naturalearthdata.com","kind":"ocean","sort_rank":205,"boundary":true,"min_zoom":0.0,"id":1747},"arcs":[189]},{"type":"LineString","properties":{"source":"naturalearthdata.com","kind":"ocean","sort_rank":205,"boundary":true,"min_zoom":0.0,"id":1748},"arcs":[190]},{"type":"LineString","properties":{"source":"naturalearthdata.com","kind":"ocean","sort_rank":205,"boundary":true,"min_zoom":0.0,"id":1749},"arcs":[191]},{"type":"LineString","properties":{"source":"naturalearthdata.com","kind":"ocean","sort_rank":205,"boundary":true,"min_zoom":0.0,"id":1750},"arcs":[192]},{"type":"LineString","properties":{"source":"naturalearthdata.com","kind":"ocean","sort_rank":205,"boundary":true,"min_zoom":0.0,"id":1751},"arcs":[193]},{"type":"LineString","properties":{"source":"naturalearthdata.com","kind":"ocean","sort_rank":205,"boundary":true,"min_zoom":0.0,"id":1752},"arcs":[194]},{"type":"LineString","properties":{"source":"naturalearthdata.com","kind":"ocean","sort_rank":205,"boundary":true,"min_zoom":0.0,"id":1753},"arcs":[195]},{"type":"LineString","properties":{"source":"naturalearthdata.com","kind":"ocean","sort_rank":205,"boundary":true,"min_zoom":0.0,"id":1754},"arcs":[196]},{"type":"LineString","properties":{"source":"naturalearthdata.com","kind":"ocean","sort_rank":205,"boundary":true,"min_zoom":0.0,"id":3145},"arcs":[197]},{"type":"LineString","properties":{"source":"naturalearthdata.com","kind":"ocean","sort_rank":205,"boundary":true,"min_zoom":0.0,"id":3772},"arcs":[198]}]},"buildings":{"type":"GeometryCollection","geometries":[]},"places":{"type":"GeometryCollection","geometries":[{"type":"Point","properties":{"kind":"region","name":"Kedah","kind_detail":"state","source":"openstreetmap.org","min_zoom":4.0,"name:ru":"\u041a\u0435\u0434\u0430\u0445","name:ta":"\u0b95\u0bc6\u0b9f\u0bbe","name:zh":"\u5409\u6253\u5dde","id":591590403,"name:ja":"\u30b1\u30c0"},"coordinates":[3671,259]},{"type":"Point","properties":{"kind":"region","name":"Perlis","kind_detail":"state","source":"openstreetmap.org","min_zoom":4.0,"name:ru":"\u041f\u0435\u0440\u043b\u0438\u0441","name:ta":"\u0baa\u0bc6\u0bb0\u0bcd\u0bb2\u0bbf\u0bb8\u0bcd","name:zh":"\u73bb\u7483\u5e02\u5dde","id":591590407,"name:ja":"\u30d7\u30eb\u30ea\u30b9"},"coordinates":[3374,658]},{"type":"Point","properties":{"admin_level":"4","kind":"region","name:en":"Songkhla Province","name":"\u0e08\u0e31\u0e07\u0e2b\u0e27\u0e31\u0e14\u0e2a\u0e07\u0e02\u0e25\u0e32","kind_detail":"state","source":"openstreetmap.org","min_zoom":4.0,"name:uk":"\u0421\u043e\u043d\u0433\u043a\u0445\u043b\u0430","name:ru":"\u0421\u043e\u043d\u0433\u043a\u0445\u043b\u0430","name:pl":"Songkhla","name:zh":"\u5b8b\u5361\u5e9c","id":4352782548,"name:ja":"\u30bd\u30f3\u30af\u30e9\u30fc\u770c"},"coordinates":[3586,930]},{"type":"Point","properties":{"admin_level":"4","kind":"region","name:en":"Yala Province","name":"\u0e08\u0e31\u0e07\u0e2b\u0e27\u0e31\u0e14\u0e22\u0e30\u0e25\u0e32","kind_detail":"state","source":"openstreetmap.org","min_zoom":4.0,"name:uk":"\u042f\u043b\u0430","name:ru":"\u042f\u043b\u0430","name:pl":"Yala","name:zh":"\u60f9\u62c9\u5e9c","id":4353279546,"name:ja":"\u30e4\u30e9\u30fc\u770c"},"coordinates":[4017,529]},{"type":"Point","properties":{"admin_level":"4","kind":"region","name:en":"Satun Province","name":"\u0e08\u0e31\u0e07\u0e2b\u0e27\u0e31\u0e14\u0e2a\u0e15\u0e39\u0e25","name:ko":"\uc0ac\ub6a0 \uc8fc","kind_detail":"state","source":"openstreetmap.org","min_zoom":4.0,"name:uk":"\u0421\u0430\u0442\u0443\u043d","name:ru":"\u0421\u0430\u0442\u0443\u043d","name:pl":"Satun","name:zh":"\u6c99\u6566\u5e9c","id":4351744961,"name:ja":"\u30b5\u30c8\u30a5\u30fc\u30f3\u770c"},"coordinates":[3158,1046]},{"type":"Point","properties":{"admin_level":"4","kind":"region","name:en":"Surat Thani Province","name":"\u0e08\u0e31\u0e07\u0e2b\u0e27\u0e31\u0e14\u0e2a\u0e38\u0e23\u0e32\u0e29\u0e0e\u0e23\u0e4c\u0e18\u0e32\u0e19\u0e35","kind_detail":"state","source":"openstreetmap.org","min_zoom":4.0,"name:uk":"\u0421\u0443\u0440\u0430\u0442\u0442\u0445\u0430\u043d\u0456","name:ru":"\u0421\u0443\u0440\u0430\u0442\u0442\u0430\u043d\u0438","name:pl":"Surat Thani","id":4352795621,"name:ja":"\u30b9\u30e9\u30fc\u30c8\u30bf\u30fc\u30cb\u30fc\u770c"},"coordinates":[2334,2836]},{"type":"Point","properties":{"admin_level":"4","kind":"region","name:en":"Ranong Province","name":"\u0e08\u0e31\u0e07\u0e2b\u0e27\u0e31\u0e14\u0e23\u0e30\u0e19\u0e2d\u0e07","kind_detail":"state","source":"openstreetmap.org","min_zoom":4.0,"name:uk":"\u0420\u0430\u043d\u043e\u043d\u0433","name:ru":"\u0420\u0430\u043d\u043e\u043d\u0433","name:pl":"Ranong","id":4351813343,"name:ja":"\u30e9\u30ce\u30fc\u30f3\u770c"},"coordinates":[2230,3263]},{"type":"Point","properties":{"name:pt":"Chumphon","name:id":"Provinsi Chumphon","name:ms":"Chumphon","name:ko":"\ucda4\ud3f0 \uc8fc","name:ar":"\u0645\u062d\u0627\u0641\u0638\u0629 \u062a\u0634\u0648\u0645\u0641\u0648\u0646","name:mg":"name:mg\tFaritanin'i Chumphon","name:it":"Provincia di Chumphon","name:ru":"\u0427\u0443\u043c\u043f\u0445\u043e\u043d","name:vi":"Chumphon","name:pl":"Chumphon","name:de":"Chumphon","id":4351565960,"name:fa":"\u0627\u0633\u062a\u0627\u0646 \u0686\u0648\u0645\u067e\u0648\u0646","kind_detail":"state","name:tg":"\u0412\u0438\u043b\u043e\u044f\u0442\u0438 \u0427\u0443\u043c\u043f\u043e\u043d","source":"openstreetmap.org","name:fr":"Province de Chumpon","name:zh":"\u6625\u84ec\u5e9c","admin_level":"4","name:nl":"Changwat Chumphon","name:ja":"\u30c1\u30e5\u30e0\u30dd\u30fc\u30f3\u770c","name:no":"Chumphon","name:bo":"\u0f45\u0f74\u0f58\u0f0b\u0f55\u0f71\u0f7c\u0f53\u0f0b\u0f5e\u0f72\u0f44\u0f0b\u0f46\u0f7a\u0f53\u0f0d","name:uk":"\u0427\u0443\u043c\u043f\u0445\u043e\u043d","name:sv":"Chumphon","name:bg":"\u0427\u0443\u043c\u0444\u043e\u043d","kind":"region","name:en":"Chumphon Province","name":"\u0e08\u0e31\u0e07\u0e2b\u0e27\u0e31\u0e14\u0e0a\u0e38\u0e21\u0e1e\u0e23","min_zoom":4.0,"name:gl":"Provincia de Chumphon","name:es":"Provincia de Chumphon"},"coordinates":[2463,3507]},{"type":"Point","properties":{"admin_level":"4","kind":"region","name:en":"Phuket Province","name":"\u0e08\u0e31\u0e07\u0e2b\u0e27\u0e31\u0e14\u0e20\u0e39\u0e40\u0e01\u0e47\u0e15","kind_detail":"state","source":"openstreetmap.org","min_zoom":4.0,"name:uk":"\u041f\u0445\u0443\u043a\u0435\u0442","name:ru":"\u041f\u0445\u0443\u043a\u0435\u0442","name:pl":"Phuket","name:zh":"\u666e\u5409\u5e9c","id":4351792162,"name:ja":"\u30d7\u30fc\u30b1\u30c3\u30c8\u770c"},"coordinates":[1986,1709]},{"type":"Point","properties":{"admin_level":"4","kind":"region","name:en":"Krabi Province","name":"\u0e08\u0e31\u0e07\u0e2b\u0e27\u0e31\u0e14\u0e01\u0e23\u0e30\u0e1a\u0e35\u0e48","name:ko":"\ub044\ub77c\ube44 \uc8fc","kind_detail":"state","source":"openstreetmap.org","min_zoom":4.0,"name:uk":"\u041a\u0440\u0430\u0431\u0456","name:ru":"\u041a\u0440\u0430\u0431\u0438","name:pl":"Krabi","name:zh":"\u7532\u7c73\u5e9c","id":4351635826,"name:ja":"\u30af\u30e9\u30d3\u30fc\u770c"},"coordinates":[2538,1837]},{"type":"Point","properties":{"admin_level":"4","kind":"region","name:en":"Nakhon Si Thammarat Province","name":"\u0e08\u0e31\u0e07\u0e2b\u0e27\u0e31\u0e14\u0e19\u0e04\u0e23\u0e28\u0e23\u0e35\u0e18\u0e23\u0e23\u0e21\u0e23\u0e32\u0e0a","name:ko":"\ub098\ucf58\uc2dc\ud0d0\ub9c8\ub78f \uc8fc","kind_detail":"state","source":"openstreetmap.org","min_zoom":4.0,"name:uk":"\u041d\u0430\u043a\u0445\u043e\u043d\u0441\u0456\u0442\u0445\u0430\u043c\u043c\u0430\u0440\u0430\u0442","name:ru":"\u041d\u0430\u043a\u0445\u043e\u043d\u0441\u0438\u0442\u0445\u0430\u043c\u043c\u0430\u0440\u0430\u0442","name:pl":"Nakhon Si Thammarat","name:zh":"\u6d1b\u5764\u5e9c","id":4351708372,"name:ja":"\u30ca\u30b3\u30fc\u30f3\u30b7\u30fc\u30bf\u30f3\u30de\u30e9\u30fc\u30c8\u770c"},"coordinates":[2990,2254]},{"type":"Point","properties":{"admin_level":"4","kind":"region","name:en":"Phangnga Province","name":"\u0e08\u0e31\u0e07\u0e2b\u0e27\u0e31\u0e14\u0e1e\u0e31\u0e07\u0e07\u0e32","name:ko":"\ud321\uc751\uc544 \uc8fc","kind_detail":"state","source":"openstreetmap.org","min_zoom":4.0,"name:uk":"\u041f\u0445\u0430\u043d\u0433\u043d\u0433\u0430","name:ru":"\u041f\u0445\u0430\u043d\u0433\u043d\u0433\u0430","name:pl":"Phang Nga","name:zh":"\u6500\u7259\u5e9c","id":4351747733,"name:ja":"\u30d1\u30f3\u30ac\u30fc\u770c"},"coordinates":[2143,2128]},{"type":"Point","properties":{"admin_level":"4","kind":"region","name":"\u0e08\u0e31\u0e07\u0e2b\u0e27\u0e31\u0e14\u0e1e\u0e31\u0e17\u0e25\u0e38\u0e07","name:ko":"\ud30c\ud0c8\ub8fd \uc8fc","kind_detail":"state","source":"openstreetmap.org","min_zoom":4.0,"name:uk":"\u041f\u0445\u0430\u0442\u0442\u0445\u0430\u043b\u0443\u043d\u0433","name:ru":"\u041f\u0445\u0430\u0442\u0442\u0445\u0430\u043b\u0443\u043d\u0433","name:pl":"Phatthalung","name:zh":"\u535a\u4ed6\u4f96\u5e9c","id":4351756266,"name:ja":"\u30d1\u30c3\u30bf\u30eb\u30f3\u770c"},"coordinates":[3184,1419]},{"type":"Point","properties":{"admin_level":"4","kind":"region","name:en":"Trang Province","name":"\u0e08\u0e31\u0e07\u0e2b\u0e27\u0e31\u0e14\u0e15\u0e23\u0e31\u0e07","name:ko":"\ub728\ub791 \uc8fc","kind_detail":"state","source":"openstreetmap.org","min_zoom":4.0,"name:uk":"\u0422\u0440\u0430\u043d\u0433","name:ru":"\u0422\u0440\u0430\u043d\u0433","name:pl":"Trang","name:zh":"\u8463\u91cc\u5e9c","id":4352808191,"name:ja":"\u30c8\u30e9\u30f3\u770c"},"coordinates":[2824,1453]},{"type":"Point","properties":{"source":"naturalearthdata.com","kind":"locality","name":"Surat Thani","population":157627,"region_capital":true,"min_zoom":5.0,"id":6301},"coordinates":[2705,2602]},{"type":"Point","properties":{"source":"naturalearthdata.com","kind":"locality","name":"Hat Yai","population":317954,"min_zoom":6.0,"id":5630},"coordinates":[3529,1017]},{"type":"Point","properties":{"source":"naturalearthdata.com","kind":"locality","name":"Nakhon Si Thammarat","population":232335,"region_capital":true,"min_zoom":6.0,"id":5628},"coordinates":[3164,2050]},{"type":"Point","properties":{"source":"naturalearthdata.com","kind":"locality","name":"Phuket","population":141618,"region_capital":true,"min_zoom":6.0,"id":5471},"coordinates":[2007,1665]},{"type":"Point","properties":{"source":"naturalearthdata.com","kind":"locality","name":"Songkhla","population":48616,"region_capital":true,"min_zoom":6.0,"id":5629},"coordinates":[3594,1174]}]},"transit":{"type":"GeometryCollection","geometries":[]},"pois":{"type":"GeometryCollection","geometries":[{"type":"Point","properties":{"kind":"national_park","name:en":"Namtok Ngao National Park","protect_class":"2","area":727422000,"source":"openstreetmap.org","min_zoom":6.04,"tier":1,"id":-3790891,"osm_relation":true,"name":"\u0e2d\u0e38\u0e17\u0e22\u0e32\u0e19\u0e41\u0e2b\u0e48\u0e07\u0e0a\u0e32\u0e15\u0e34\u0e19\u0e49\u0e33\u0e15\u0e01\u0e2b\u0e07\u0e32\u0e27"},"coordinates":[2338,3215]}]},"boundaries":{"type":"GeometryCollection","geometries":[{"type":"MultiLineString","properties":{"source":"naturalearthdata.com","kind":"country","sort_rank":262,"kind_detail":"2","min_zoom":0.0,"id":257},"arcs":[[0],[1],[2],[3],[4]]},{"type":"MultiLineString","properties":{"source":"naturalearthdata.com","kind":"country","sort_rank":262,"kind_detail":"2","min_zoom":0.0,"id":146},"arcs":[[5],[6],[7],[8],[9],[10],[11],[12],[13],[14],[15],[16],[17],[18],[19],[20],[21],[22],[23]]},{"type":"MultiLineString","properties":{"source":"naturalearthdata.com","kind":"region","sort_rank":256,"kind_detail":"4","min_zoom":6.7,"id":1348},"arcs":[[24],[25]]},{"type":"LineString","properties":{"source":"naturalearthdata.com","kind":"region","sort_rank":256,"kind_detail":"4","min_zoom":6.7,"id":1373},"arcs":[26]},{"type":"MultiLineString","properties":{"source":"naturalearthdata.com","kind":"region","sort_rank":256,"kind_detail":"4","min_zoom":6.7,"id":1376},"arcs":[[27],[28]]},{"type":"LineString","properties":{"source":"naturalearthdata.com","kind":"region","sort_rank":256,"kind_detail":"4","min_zoom":6.0,"id":2440},"arcs":[29]},{"type":"LineString","properties":{"source":"naturalearthdata.com","kind":"region","sort_rank":256,"kind_detail":"4","min_zoom":6.7,"id":60},"arcs":[30]},{"type":"LineString","properties":{"source":"naturalearthdata.com","kind":"region","sort_rank":256,"kind_detail":"4","min_zoom":6.7,"id":61},"arcs":[31]},{"type":"LineString","properties":{"source":"naturalearthdata.com","kind":"region","sort_rank":256,"kind_detail":"4","min_zoom":6.7,"id":66},"arcs":[32]},{"type":"LineString","properties":{"source":"naturalearthdata.com","kind":"region","sort_rank":256,"kind_detail":"4","min_zoom":6.7,"id":67},"arcs":[33]},{"type":"LineString","properties":{"source":"naturalearthdata.com","kind":"region","sort_rank":256,"kind_detail":"4","min_zoom":6.7,"id":1351},"arcs":[34]},{"type":"MultiLineString","properties":{"source":"naturalearthdata.com","kind":"region","sort_rank":256,"kind_detail":"4","min_zoom":6.7,"id":1319},"arcs":[[35],[36],[37],[38],[39],[40],[41],[42],[43]]},{"type":"MultiLineString","properties":{"source":"naturalearthdata.com","kind":"macroregion","sort_rank":257,"kind_detail":"3","min_zoom":6.0,"id":1320},"arcs":[[44],[45],[46],[47],[48],[49]]},{"type":"MultiLineString","properties":{"source":"naturalearthdata.com","kind":"region","sort_rank":256,"kind_detail":"4","min_zoom":6.7,"id":1345},"arcs":[[50],[51],[52],[53],[54],[55],[56]]},{"type":"MultiLineString","properties":{"source":"naturalearthdata.com","kind":"region","sort_rank":256,"kind_detail":"4","min_zoom":6.7,"id":1346},"arcs":[[57],[58],[59],[60],[61]]},{"type":"LineString","properties":{"source":"naturalearthdata.com","kind":"region","sort_rank":256,"kind_detail":"4","min_zoom":6.7,"id":1352},"arcs":[62]},{"type":"MultiLineString","properties":{"source":"naturalearthdata.com","kind":"region","sort_rank":256,"kind_detail":"4","min_zoom":6.7,"id":1347},"arcs":[[63],[64],[65],[66],[67],[68],[69]]},{"type":"MultiLineString","properties":{"source":"naturalearthdata.com","kind":"region","sort_rank":256,"kind_detail":"4","min_zoom":6.7,"id":1349},"arcs":[[70],[71],[72],[73],[74],[75],[76],[77],[78],[79],[80]]},{"type":"MultiLineString","properties":{"source":"naturalearthdata.com","kind":"region","sort_rank":256,"kind_detail":"4","min_zoom":6.7,"id":1350},"arcs":[[81],[82],[83],[84],[85],[86],[87]]},{"type":"MultiLineString","properties":{"source":"naturalearthdata.com","kind":"region","sort_rank":256,"kind_detail":"4","min_zoom":6.7,"id":1378},"arcs":[[88],[89],[90],[91],[92]]},{"type":"MultiLineString","properties":{"source":"naturalearthdata.com","kind":"region","sort_rank":256,"kind_detail":"4","min_zoom":6.7,"id":1369},"arcs":[[93],[94],[95],[96],[97],[98],[99],[100],[101]]},{"type":"LineString","properties":{"source":"naturalearthdata.com","kind":"region","sort_rank":256,"kind_detail":"4","min_zoom":6.7,"id":1370},"arcs":[102]},{"type":"MultiLineString","properties":{"source":"naturalearthdata.com","kind":"region","sort_rank":256,"kind_detail":"4","min_zoom":6.7,"id":1371},"arcs":[[103],[104],[105],[106],[107],[108],[109]]},{"type":"LineString","properties":{"source":"naturalearthdata.com","kind":"region","sort_rank":256,"kind_detail":"4","min_zoom":6.7,"id":1372},"arcs":[110]},{"type":"LineString","properties":{"source":"naturalearthdata.com","kind":"region","sort_rank":256,"kind_detail":"4","min_zoom":6.7,"id":1379},"arcs":[111]},{"type":"LineString","properties":{"source":"naturalearthdata.com","kind":"region","sort_rank":256,"kind_detail":"4","min_zoom":6.7,"id":1380},"arcs":[112]},{"type":"MultiLineString","properties":{"source":"naturalearthdata.com","kind":"region","sort_rank":256,"kind_detail":"4","min_zoom":6.7,"id":1381},"arcs":[[113],[114]]},{"type":"LineString","properties":{"source":"naturalearthdata.com","kind":"region","sort_rank":256,"kind_detail":"4","min_zoom":6.7,"id":1382},"arcs":[115]},{"type":"LineString","properties":{"source":"naturalearthdata.com","kind":"region","sort_rank":256,"kind_detail":"4","min_zoom":6.7,"id":1377},"arcs":[116]},{"type":"MultiLineString","properties":{"source":"naturalearthdata.com","kind":"region","sort_rank":256,"kind_detail":"4","min_zoom":6.7,"id":1383},"arcs":[[117],[118],[119],[120]]},{"type":"MultiLineString","properties":{"source":"naturalearthdata.com","kind":"region","sort_rank":256,"kind_detail":"4","min_zoom":6.0,"id":3123},"arcs":[[121],[122]]}]},"roads":{"type":"GeometryCollection","geometries":[{"type":"LineString","properties":{"source":"naturalearthdata.com","kind":"major_road","sort_rank":379,"kind_detail":"secondary","min_zoom":3.0,"id":37911},"arcs":[199]},{"type":"LineString","properties":{"source":"naturalearthdata.com","kind":"major_road","sort_rank":379,"kind_detail":"secondary","min_zoom":3.0,"id":38022},"arcs":[200]},{"type":"LineString","properties":{"source":"naturalearthdata.com","kind":"major_road","sort_rank":379,"kind_detail":"secondary","min_zoom":3.0,"id":38037},"arcs":[201]},{"type":"LineString","properties":{"source":"naturalearthdata.com","kind":"major_road","sort_rank":379,"kind_detail":"secondary","min_zoom":3.0,"id":38178},"arcs":[202]},{"type":"LineString","properties":{"source":"naturalearthdata.com","kind":"major_road","sort_rank":379,"kind_detail":"secondary","min_zoom":3.0,"id":38291},"arcs":[203]},{"type":"LineString","properties":{"source":"naturalearthdata.com","kind":"minor_road","kind_detail":"tertiary","sort_rank":355,"landuse_kind":"urban_area","min_zoom":6.0,"id":38690},"arcs":[204]},{"type":"LineString","properties":{"source":"naturalearthdata.com","kind":"minor_road","sort_rank":355,"kind_detail":"tertiary","min_zoom":6.0,"id":38690},"arcs":[205]},{"type":"LineString","properties":{"source":"naturalearthdata.com","kind":"minor_road","sort_rank":355,"kind_detail":"tertiary","min_zoom":5.0,"id":38691},"arcs":[206]},{"type":"LineString","properties":{"source":"naturalearthdata.com","kind":"major_road","sort_rank":379,"kind_detail":"secondary","min_zoom":3.0,"id":38692},"arcs":[207]},{"type":"LineString","properties":{"source":"naturalearthdata.com","kind":"major_road","kind_detail":"secondary","sort_rank":379,"landuse_kind":"urban_area","min_zoom":3.0,"id":38729},"arcs":[208]},{"type":"LineString","properties":{"source":"naturalearthdata.com","kind":"major_road","sort_rank":379,"kind_detail":"secondary","min_zoom":3.0,"id":38729},"arcs":[209]},{"type":"MultiLineString","properties":{"source":"naturalearthdata.com","kind":"major_road","kind_detail":"secondary","sort_rank":379,"landuse_kind":"park","min_zoom":3.0,"id":38795},"arcs":[[210],[211],[212]]},{"type":"LineString","properties":{"source":"naturalearthdata.com","kind":"major_road","kind_detail":"secondary","sort_rank":379,"landuse_kind":"park","min_zoom":3.0,"id":38795},"arcs":[213]},{"type":"MultiLineString","properties":{"source":"naturalearthdata.com","kind":"major_road","kind_detail":"secondary","sort_rank":379,"landuse_kind":"national_park","min_zoom":3.0,"id":38795},"arcs":[[214],[215]]},{"type":"MultiLineString","properties":{"source":"naturalearthdata.com","kind":"major_road","sort_rank":379,"kind_detail":"secondary","min_zoom":3.0,"id":38795},"arcs":[[216],[217],[218],[219],[220],[221],[222]]},{"type":"LineString","properties":{"source":"naturalearthdata.com","kind":"minor_road","sort_rank":355,"kind_detail":"tertiary","min_zoom":6.0,"id":38824},"arcs":[223]},{"type":"LineString","properties":{"source":"naturalearthdata.com","kind":"major_road","kind_detail":"secondary","sort_rank":379,"landuse_kind":"urban_area","min_zoom":3.0,"id":38958},"arcs":[224]},{"type":"LineString","properties":{"source":"naturalearthdata.com","kind":"major_road","sort_rank":379,"kind_detail":"secondary","min_zoom":3.0,"id":38958},"arcs":[225]},{"type":"LineString","properties":{"source":"naturalearthdata.com","kind":"major_road","kind_detail":"secondary","sort_rank":379,"landuse_kind":"urban_area","min_zoom":4.0,"id":38962},"arcs":[226]},{"type":"LineString","properties":{"source":"naturalearthdata.com","kind":"major_road","kind_detail":"secondary","sort_rank":379,"landuse_kind":"urban_area","min_zoom":4.0,"id":38978},"arcs":[227]},{"type":"LineString","properties":{"source":"naturalearthdata.com","kind":"major_road","sort_rank":379,"kind_detail":"secondary","min_zoom":4.0,"id":38978},"arcs":[228]},{"type":"LineString","properties":{"source":"naturalearthdata.com","kind":"major_road","sort_rank":379,"kind_detail":"secondary","min_zoom":3.0,"id":39014},"arcs":[229]},{"type":"LineString","properties":{"source":"naturalearthdata.com","kind":"minor_road","sort_rank":355,"kind_detail":"tertiary","min_zoom":5.0,"id":39033},"arcs":[230]},{"type":"LineString","properties":{"source":"naturalearthdata.com","kind":"minor_road","sort_rank":355,"kind_detail":"tertiary","min_zoom":5.0,"id":39039},"arcs":[231]},{"type":"LineString","properties":{"source":"naturalearthdata.com","kind":"minor_road","sort_rank":355,"kind_detail":"tertiary","min_zoom":5.0,"id":39068},"arcs":[232]},{"type":"LineString","properties":{"source":"naturalearthdata.com","kind":"major_road","sort_rank":379,"kind_detail":"secondary","min_zoom":3.0,"id":39084},"arcs":[233]},{"type":"LineString","properties":{"source":"naturalearthdata.com","kind":"major_road","kind_detail":"secondary","sort_rank":379,"landuse_kind":"park","min_zoom":3.0,"id":39085},"arcs":[234]},{"type":"MultiLineString","properties":{"source":"naturalearthdata.com","kind":"major_road","sort_rank":379,"kind_detail":"secondary","min_zoom":3.0,"id":39085},"arcs":[[235],[236]]},{"type":"LineString","properties":{"source":"naturalearthdata.com","kind":"minor_road","kind_detail":"tertiary","sort_rank":355,"landuse_kind":"park","min_zoom":5.0,"id":39110},"arcs":[237]},{"type":"LineString","properties":{"source":"naturalearthdata.com","kind":"minor_road","sort_rank":355,"kind_detail":"tertiary","min_zoom":5.0,"id":39110},"arcs":[238]},{"type":"LineString","properties":{"source":"naturalearthdata.com","kind":"major_road","sort_rank":379,"kind_detail":"secondary","min_zoom":3.0,"id":39119},"arcs":[239]},{"type":"LineString","properties":{"source":"naturalearthdata.com","kind":"minor_road","kind_detail":"tertiary","sort_rank":355,"landuse_kind":"urban_area","min_zoom":6.0,"id":39179},"arcs":[240]},{"type":"LineString","properties":{"source":"naturalearthdata.com","kind":"minor_road","sort_rank":355,"kind_detail":"tertiary","min_zoom":6.0,"id":39179},"arcs":[241]},{"type":"LineString","properties":{"source":"naturalearthdata.com","kind":"minor_road","sort_rank":355,"kind_detail":"tertiary","min_zoom":5.0,"id":39212},"arcs":[242]},{"type":"LineString","properties":{"source":"naturalearthdata.com","kind":"major_road","sort_rank":379,"kind_detail":"secondary","min_zoom":3.0,"id":39237},"arcs":[243]},{"type":"LineString","properties":{"source":"naturalearthdata.com","kind":"major_road","sort_rank":379,"kind_detail":"secondary","min_zoom":3.0,"id":39248},"arcs":[244]},{"type":"LineString","properties":{"source":"naturalearthdata.com","kind":"major_road","sort_rank":379,"kind_detail":"secondary","min_zoom":3.0,"id":39252},"arcs":[245]},{"type":"LineString","properties":{"source":"naturalearthdata.com","kind":"major_road","sort_rank":379,"kind_detail":"secondary","min_zoom":3.0,"id":39298},"arcs":[246]},{"type":"LineString","properties":{"source":"naturalearthdata.com","kind":"major_road","sort_rank":379,"kind_detail":"secondary","min_zoom":3.0,"id":39317},"arcs":[247]},{"type":"LineString","properties":{"source":"naturalearthdata.com","kind":"major_road","sort_rank":379,"kind_detail":"secondary","min_zoom":3.0,"id":39318},"arcs":[248]},{"type":"LineString","properties":{"source":"naturalearthdata.com","kind":"major_road","sort_rank":379,"kind_detail":"secondary","min_zoom":3.0,"id":39328},"arcs":[249]},{"type":"LineString","properties":{"source":"naturalearthdata.com","kind":"major_road","sort_rank":379,"kind_detail":"secondary","min_zoom":3.0,"id":39360},"arcs":[250]},{"type":"LineString","properties":{"source":"naturalearthdata.com","kind":"major_road","sort_rank":379,"kind_detail":"secondary","min_zoom":3.0,"id":39469},"arcs":[251]},{"type":"LineString","properties":{"source":"naturalearthdata.com","kind":"major_road","kind_detail":"secondary","sort_rank":379,"landuse_kind":"urban_area","min_zoom":3.0,"id":39494},"arcs":[252]},{"type":"LineString","properties":{"source":"naturalearthdata.com","kind":"major_road","sort_rank":379,"kind_detail":"secondary","min_zoom":3.0,"id":39499},"arcs":[253]},{"type":"LineString","properties":{"source":"naturalearthdata.com","kind":"major_road","sort_rank":379,"kind_detail":"secondary","min_zoom":3.0,"id":39518},"arcs":[254]},{"type":"LineString","properties":{"source":"naturalearthdata.com","kind":"major_road","kind_detail":"secondary","sort_rank":379,"landuse_kind":"urban_area","min_zoom":3.0,"id":39562},"arcs":[255]},{"type":"LineString","properties":{"source":"naturalearthdata.com","kind":"major_road","kind_detail":"secondary","sort_rank":379,"landuse_kind":"urban_area","min_zoom":3.0,"id":39562},"arcs":[256]},{"type":"MultiLineString","properties":{"source":"naturalearthdata.com","kind":"major_road","sort_rank":379,"kind_detail":"secondary","min_zoom":3.0,"id":39562},"arcs":[[257],[258]]},{"type":"LineString","properties":{"source":"naturalearthdata.com","kind":"major_road","sort_rank":379,"kind_detail":"secondary","min_zoom":3.0,"id":39577},"arcs":[259]},{"type":"LineString","properties":{"source":"naturalearthdata.com","kind":"major_road","sort_rank":379,"kind_detail":"secondary","min_zoom":3.0,"id":39660},"arcs":[260]},{"type":"LineString","properties":{"source":"naturalearthdata.com","kind":"minor_road","sort_rank":355,"kind_detail":"tertiary","min_zoom":5.0,"id":39683},"arcs":[261]},{"type":"LineString","properties":{"source":"naturalearthdata.com","kind":"minor_road","sort_rank":355,"kind_detail":"tertiary","min_zoom":5.0,"id":39692},"arcs":[262]},{"type":"LineString","properties":{"source":"naturalearthdata.com","kind":"minor_road","sort_rank":355,"kind_detail":"tertiary","min_zoom":5.0,"id":39693},"arcs":[263]},{"type":"LineString","properties":{"source":"naturalearthdata.com","kind":"minor_road","sort_rank":355,"kind_detail":"tertiary","min_zoom":5.0,"id":39694},"arcs":[264]},{"type":"LineString","properties":{"source":"naturalearthdata.com","kind":"minor_road","sort_rank":355,"kind_detail":"tertiary","min_zoom":5.0,"id":39698},"arcs":[265]},{"type":"LineString","properties":{"source":"naturalearthdata.com","kind":"major_road","sort_rank":379,"kind_detail":"secondary","min_zoom":3.0,"id":39728},"arcs":[266]},{"type":"LineString","properties":{"source":"naturalearthdata.com","kind":"minor_road","sort_rank":355,"kind_detail":"tertiary","min_zoom":5.0,"id":39729},"arcs":[267]},{"type":"LineString","properties":{"source":"naturalearthdata.com","kind":"minor_road","sort_rank":355,"kind_detail":"tertiary","min_zoom":5.0,"id":39749},"arcs":[268]},{"type":"LineString","properties":{"source":"naturalearthdata.com","kind":"major_road","sort_rank":379,"kind_detail":"secondary","min_zoom":3.0,"id":39776},"arcs":[269]},{"type":"LineString","properties":{"source":"naturalearthdata.com","kind":"highway","sort_rank":383,"kind_detail":"motorway","min_zoom":3.0,"id":39923},"arcs":[270]},{"type":"LineString","properties":{"source":"naturalearthdata.com","kind":"highway","kind_detail":"motorway","sort_rank":383,"landuse_kind":"urban_area","min_zoom":5.0,"id":39943},"arcs":[271]},{"type":"LineString","properties":{"source":"naturalearthdata.com","kind":"highway","sort_rank":383,"kind_detail":"motorway","min_zoom":5.0,"id":39943},"arcs":[272]},{"type":"LineString","properties":{"source":"naturalearthdata.com","kind":"highway","kind_detail":"motorway","sort_rank":383,"landuse_kind":"urban_area","min_zoom":3.0,"id":40099},"arcs":[273]},{"type":"LineString","properties":{"source":"naturalearthdata.com","kind":"highway","kind_detail":"motorway","sort_rank":383,"landuse_kind":"urban_area","min_zoom":3.0,"id":40099},"arcs":[274]},{"type":"LineString","properties":{"source":"naturalearthdata.com","kind":"highway","sort_rank":383,"kind_detail":"motorway","min_zoom":3.0,"id":40099},"arcs":[275]},{"type":"LineString","properties":{"source":"naturalearthdata.com","kind":"highway","kind_detail":"motorway","sort_rank":383,"landuse_kind":"urban_area","min_zoom":3.0,"id":40131},"arcs":[276]}]},"earth":{"type":"GeometryCollection","geometries":[{"type":"MultiPolygon","properties":{"sort_rank":10,"source":"naturalearthdata.com","min_zoom":0.0,"kind":"earth","area":262564971756},"arcs":[[[277]],[[278]],[[279]],[[280]],[[281]],[[282]],[[283]],[[284]],[[285]],[[286]],[[287]],[[288]],[[289]],[[290]],[[291]],[[292]],[[293]],[[294]],[[295]],[[296]],[[297]],[[298]],[[299]],[[300]],[[301]],[[302]],[[303]],[[304]],[[305]],[[306]]]}]},"landuse":{"type":"GeometryCollection","geometries":[{"type":"MultiPolygon","properties":{"source":"openstreetmap.org","kind":"park","tier":2,"area":1682854624,"sort_rank":24,"min_zoom":6.0,"osm_relation":true},"arcs":[[[307]],[[308]],[[309],[310],[311]],[[312]],[[313]],[[314],[315],[316],[317],[318],[319],[320]]]},{"type":"MultiPolygon","properties":{"source":"naturalearthdata.com","kind":"urban_area","name":"","area":924597797,"sort_rank":11,"min_zoom":4.0},"arcs":[[[321]],[[322]],[[323]],[[324]],[[325]],[[326]],[[327]],[[328]]]},{"type":"Polygon","properties":{"kind":"national_park","protect_class":"2","area":727422016,"sort_rank":18,"source":"openstreetmap.org","min_zoom":3.0,"tier":1,"id":-3790891,"osm_relation":true},"arcs":[[329],[330],[331]]},{"type":"Polygon","properties":{"kind":"national_park","protect_class":"2","area":172120992,"sort_rank":18,"source":"openstreetmap.org","min_zoom":5.0,"tier":1,"id":-3790589,"osm_relation":true},"arcs":[[332]]},{"type":"MultiPolygon","properties":{"source":"openstreetmap.org","kind":"park","tier":2,"area":1362866073,"sort_rank":24,"min_zoom":6.0},"arcs":[[[333]],[[334]],[[335]]]}]}},"type":"Topology","transform":{"translate":[95.625,5.6159858192],"scale":[0.001373291,0.0013580117]},"arcs":[[[2498,3924],[6,9],[6,22],[4,7],[11,12],[30,15],[5,5],[8,6],[5,7],[7,15],[5,7],[7,4],[16,5],[5,6],[17,52]],[[2462,3934],[3,-2],[10,-1],[8,-2],[8,-4],[7,-1]],[[2410,3823],[26,11],[3,1],[5,6],[4,6],[2,15],[0,11],[-6,15],[-1,9],[0,7],[2,8],[3,8],[4,6],[7,7],[3,1]],[[2389,3828],[6,-2],[7,-3],[8,0]],[[2274,3486],[14,45],[7,38],[10,28],[1,14],[-11,47],[-4,8],[-14,12],[-3,9],[7,32],[7,16],[32,43],[14,13],[7,2],[15,1],[6,1],[5,7],[3,7],[3,8],[6,7],[10,4]],[[3322,804],[7,-4],[2,-2],[3,-4],[6,-4],[11,0]],[[3278,608],[6,12],[7,16],[3,18],[0,7],[-3,12],[1,7],[5,8],[6,5],[5,7],[-2,10],[-6,17],[-1,13],[5,30],[1,16],[2,9],[5,6],[10,3]],[[3369,799],[9,-1],[7,-3],[5,-5],[27,-83],[8,-14],[15,-12],[21,-10],[7,-4],[16,-5],[12,-1]],[[3351,790],[0,1],[11,7],[7,1]],[[3515,663],[11,-2],[23,-17],[14,-6],[44,-13],[25,-11],[13,-4]],[[3496,661],[19,2]],[[3717,646],[1,-5],[0,-16],[2,-6],[6,-5],[7,-1]],[[3645,610],[13,2],[47,34],[12,0]],[[3741,613],[8,-1],[17,-10],[6,-14],[2,-35],[2,-8],[3,-8],[9,-15],[1,-6],[-1,-7],[-2,-6],[-1,-1],[-1,-7],[0,-21],[2,-6],[6,-11]],[[3733,613],[8,0]],[[3895,484],[24,-20],[12,-4]],[[3848,456],[14,4],[19,21],[14,3]],[[3964,468],[9,-4],[5,-9],[2,-15],[-1,-18],[-7,-6],[-9,-5],[-10,-12],[-1,-17],[12,-11],[13,-10],[6,-15],[-4,-29],[-1,-42],[-5,-24],[-2,-14],[-5,-13],[-14,-5],[-15,-3],[-12,-8],[-30,-61],[-5,-8],[-1,-9],[1,-8],[4,-6],[5,-9],[9,-18],[5,-5],[7,-3]],[[3931,460],[33,8]],[[3808,465],[10,-1],[30,-8]],[[3792,457],[4,0],[3,5],[9,3]],[[4003,10],[20,7],[34,20],[12,11],[9,13],[6,15],[2,17],[9,33],[1,0]],[[3934,81],[7,-1],[17,-11],[13,-16],[11,-19],[9,-18],[12,-6]],[[3920,81],[14,0]],[[2102,2718],[-26,7],[-23,22],[-6,5],[-4,3],[-3,0]],[[2040,2755],[-2,0],[-3,-2],[-7,-3],[-5,-2],[-10,-2]],[[3220,1066],[-12,21]],[[3280,1610],[-14,5],[-36,7],[-7,2],[-5,2],[-5,8],[-4,4],[-8,5],[-2,1],[-1,2],[-1,3],[0,3],[0,3],[-1,3],[-1,2],[-2,4],[-1,2],[-5,5],[-5,4],[-14,4],[-12,6]],[[3156,1685],[-95,-14],[-5,0],[-5,0],[-3,-2],[-5,-5],[-4,-5],[-2,-2],[-4,-2],[-28,-4],[-5,-5]],[[3330,475],[1,0],[5,6],[3,9],[1,8],[1,3],[1,2],[80,92],[8,6],[17,11],[3,4],[2,2],[7,33],[1,6],[0,3],[1,11]],[[2563,3075]],[[2824,3962]],[[2013,2746]],[[2202,2027]],[[2249,2216],[-1,-19],[-2,-11],[-4,-7],[-3,-3],[-2,-3],[-4,-2],[-5,-2],[-12,-2],[-2,-1],[-2,-1],[-1,-7],[0,-12],[3,-41],[1,-8],[2,-1],[3,-4],[1,-2],[1,-2],[0,-5],[-3,-6],[-6,-14],[-2,-8],[0,-7],[3,-6],[0,-3],[0,-3],[-7,-9],[-5,0]],[[2563,3075],[0,-1],[-12,0],[-11,-2]],[[2540,3072],[-6,0]],[[2534,3072],[-2,-1],[-3,-1],[-9,-9],[-15,-8],[-8,-3],[-6,-5],[-2,-3],[-3,-6],[-3,-3],[-3,-2],[-4,-1],[-9,-1]],[[2467,3029],[-4,0],[-3,1],[-2,2],[-1,0],[-2,1]],[[2455,3033],[-25,-9],[-8,-1],[-12,0]],[[2410,3023],[-3,0],[-3,1],[-2,1],[-7,3],[-2,1],[-3,0]],[[2390,3029],[-4,0],[-10,-3],[-13,-6],[-13,-8],[-10,-5],[-5,-2],[-7,-3],[-2,-1],[-9,-5],[-2,-1],[-2,-1]],[[2313,2994],[-2,1],[-1,2],[-2,1],[-3,0]],[[2305,2998],[-3,-3],[-3,-4],[-4,-26],[-4,-9],[-16,-21]],[[2656,3934],[-5,0],[-10,2],[-5,1],[-6,2],[-8,3],[-30,16],[-12,4],[-10,6],[-3,3],[-2,3],[-2,13],[-3,7]],[[2824,3962],[-18,-2],[-3,-1],[-7,-1],[-3,-1],[-2,-1],[-2,-2],[-1,-2],[-2,-2],[-2,-2],[-1,-1],[-5,-2],[-4,-2],[-3,-1],[-5,-2],[-4,-3],[-3,-3],[-2,-2],[-5,0]],[[2705,3933],[-4,1],[-4,3],[-5,1],[-8,1]],[[2684,3939],[-18,-1],[-3,-1],[-3,-3],[-4,0]],[[2752,3932],[-34,3]],[[2718,3935],[-5,-1],[-3,0],[-2,-1],[-3,0]],[[2223,2802],[1,2],[5,9],[0,2],[0,3],[-2,1],[-2,2],[-2,2],[-1,2],[0,5],[2,2],[2,2],[2,1],[7,1],[5,2],[9,9],[27,32],[5,4],[10,5],[2,3],[1,3],[-1,3],[-2,2],[-1,1],[-2,2],[0,3],[1,5],[-1,2],[-2,1],[-5,2],[-2,2],[-1,1],[-1,2],[-1,6],[-1,9]],[[2212,2806],[4,-3],[3,-1],[4,0]],[[2212,2773],[-2,1],[-2,1],[0,3],[0,9],[0,6],[-1,3],[0,3],[1,4],[2,2],[2,1]],[[2174,2746],[5,0],[17,4],[17,2],[4,1],[2,2],[2,5],[2,9],[0,2],[-1,2],[-2,1]],[[2220,2774],[-3,0],[-2,0],[-3,-1]],[[2160,2760],[2,-1],[1,-2],[4,-7],[3,-3],[4,-1]],[[2102,2718],[8,16],[9,10],[4,4],[6,3],[27,8],[4,1]],[[2393,3733],[-2,1],[-2,5],[0,3],[0,3],[1,3],[1,2],[3,4],[8,21],[0,3],[-1,3],[-7,2],[-2,2],[-2,2],[-2,2],[-3,6],[-3,4],[-12,10]],[[2322,3186],[3,1],[4,3],[11,18],[6,7],[3,5],[1,1],[2,2],[7,5],[1,1],[4,1],[12,2],[2,1],[9,8],[5,6],[2,5],[0,8],[1,4],[2,3],[8,8],[2,4],[5,29],[1,8],[0,5],[-21,29],[-2,5],[-4,6],[-4,6],[-1,3],[-1,4],[0,7],[4,15],[2,4],[2,3],[2,2],[4,6],[3,6],[1,4],[-1,3],[-2,7],[0,8],[0,4],[2,3],[3,0],[2,1],[2,3],[5,10],[8,11],[5,8],[1,5],[0,4],[-1,3],[-1,2],[-2,6],[-1,5],[0,4],[-1,3],[-2,2],[-1,2],[-2,1],[-8,2],[-3,1],[-2,1],[-2,2],[-1,4],[-1,3],[-1,1],[-4,3],[-1,2],[-1,3],[-1,3],[0,23],[1,5],[1,4],[1,3],[4,9],[1,1],[1,1],[5,4],[2,2],[4,6],[2,2],[2,1],[7,2],[2,1],[2,2],[5,9],[7,7],[0,3],[0,3],[-2,2],[-4,3],[-1,3],[-2,4],[0,3],[1,3],[2,1],[3,3],[3,5],[5,11],[1,5],[-1,4],[-4,3],[-2,3],[-2,12],[-1,3],[-3,4],[-2,1],[-5,3],[-2,1],[-1,2],[-1,2],[-1,9],[-1,2],[-2,2],[-5,1],[-3,1],[-2,1],[-1,2],[-1,2],[-1,2],[-1,2]],[[2398,3734],[-5,-1]],[[2304,3189],[2,0],[2,-1],[2,-1],[6,0],[6,-1]],[[2275,2935],[-16,18],[-24,14],[-8,4],[-12,4],[-3,2],[-2,2],[1,3],[1,2],[1,3],[0,3],[-4,8],[-1,4],[1,3],[-1,3],[-1,3],[-4,7],[-1,2],[-1,3],[-3,12],[-5,12],[-1,7],[0,5],[4,12],[1,2],[2,2],[3,3],[8,6],[3,3],[1,2],[9,9],[2,1],[2,1],[3,1],[2,0],[3,1],[2,2],[2,1],[5,8],[2,2],[8,8],[2,4],[2,5],[2,12],[2,5],[1,4],[4,4],[2,1],[1,2],[3,1],[5,5],[3,3],[7,10],[3,4],[2,1],[6,4],[3,1],[2,0]],[[2651,2007],[9,-13],[2,-2],[17,-13],[7,-5],[2,-3],[1,-8],[1,-12],[-1,-47],[-2,-3],[-6,-8],[-2,-2],[0,-1],[-1,-2],[-1,-8],[-2,-2],[-3,-4],[-1,-2],[-1,-2],[2,-11],[3,-10],[-1,-8],[-1,-4],[-2,-3],[-5,-3],[1,-4],[2,-7],[12,-25],[3,-5],[7,-6],[4,-2],[2,-2],[2,-2],[1,-2],[7,-19],[1,-3],[1,-2],[0,-4],[-5,-12],[-2,-3],[-2,-2],[-2,-2],[-2,-1],[-1,-2],[0,-2],[9,-10]],[[2102,2718],[12,-7],[2,-3],[1,-7],[2,-26],[-1,-3],[-1,-5],[-1,-3],[-6,-7],[-5,-5],[-2,-2],[-1,-2],[-1,-2],[-1,-3],[-1,-6],[0,-2],[-1,-2],[-1,-3],[-1,-4],[1,-4],[-1,-4],[1,-6],[1,-4],[-1,-4],[-2,-2],[-5,-3],[-2,-1],[-1,-2],[0,-6],[-1,-5],[0,-5],[5,-27],[0,-5],[-1,-2],[-2,-2],[-2,-1],[-3,-1],[-2,-1],[-1,-2],[0,-3],[1,-3],[16,-42],[2,-10],[-1,-5]],[[2098,2476],[-2,0],[-3,1]],[[2093,2477],[-2,-1],[-2,-1],[-2,-1],[-4,-3],[-9,-5],[-6,-3],[-3,-1],[-1,-2],[-2,-2],[-1,-5],[-1,-2],[0,-5],[2,-6],[3,-9],[1,-5],[-1,-4],[-3,-6],[-1,-2],[1,-3],[1,-2],[9,-3],[15,-2],[5,-2],[3,-1],[27,-21],[3,-4],[4,-8],[10,-16],[4,-4],[3,-3],[5,-1]],[[2161,2344],[3,-1],[2,0],[2,-2],[2,-3],[1,-6],[0,-4],[-3,-22],[0,-6],[1,-15],[0,-3],[-1,-3],[-1,-2],[-1,-2],[-2,-2],[-8,-5],[-1,-2],[-2,-2],[-5,-11],[-2,-2],[-1,-2],[-3,-1],[-8,0],[-3,-1],[-2,-2],[-1,-2],[-1,-2],[1,-3],[2,-3],[23,-18],[2,-1],[4,0]],[[2151,2344],[10,0]],[[2211,2230],[7,-4],[7,-2],[14,-3],[10,-5]],[[2159,2216],[7,0],[19,3],[7,1],[5,2],[4,2],[4,3],[2,2],[2,1],[2,0]],[[3018,2527],[4,1],[5,3],[2,3],[1,2],[1,4],[-1,9],[0,6],[1,8],[0,4],[-1,2],[0,3],[-2,2],[-1,2],[-2,2],[-2,1],[-2,1],[-9,0],[-2,1],[-3,0],[-2,2],[-2,1],[-1,2],[-2,8],[-1,2],[-2,2],[-5,2],[-1,2],[-1,3],[5,14],[1,3],[3,12],[6,13],[1,7],[1,5],[-3,26],[0,8],[1,7],[1,4],[2,4],[12,14]],[[3005,2534],[3,-1],[2,-1],[3,-3],[2,-2],[3,0]],[[2937,2431],[2,0],[3,1],[6,3],[9,4],[5,3],[3,2],[1,3],[0,3],[-1,3],[-1,2],[-2,2],[-1,3],[0,3],[1,2],[1,1],[3,1],[3,1],[7,0],[4,1],[6,3],[3,3],[1,3],[1,3],[-1,2],[1,3],[2,8],[4,9],[2,5],[0,9],[1,4],[1,9],[2,3],[2,1]],[[2897,2433],[3,0],[2,-1],[1,-2],[1,-2],[2,-2],[1,-2],[2,-1],[3,0]],[[2855,2381],[3,0],[7,7],[19,38],[3,5],[3,1],[5,1],[2,0]],[[2929,2432],[2,-1],[3,0],[3,0]],[[2912,2423],[2,0],[3,1],[2,1],[5,5],[2,1],[3,1]],[[2849,2381],[2,0],[4,0]],[[2694,2139],[3,0],[2,0],[3,2],[8,7],[16,11],[12,5],[10,3],[3,1],[4,2],[15,18],[1,1],[12,9],[2,4],[1,3],[-1,2],[-1,3],[-1,3],[0,4],[2,7],[1,3],[3,1],[3,2],[5,2],[16,15],[2,3],[1,4],[0,7],[1,6],[1,3],[1,2],[15,14],[2,4],[2,3],[0,3],[4,14],[0,2],[-2,8],[-1,5],[0,13],[2,11],[0,3],[-1,13],[1,4],[1,7],[2,3],[2,2],[3,0]],[[2665,2155],[2,0],[3,-1],[2,-1],[4,-3],[12,-9],[2,-1],[2,-1],[2,0]],[[2651,2007],[-14,19],[-4,10],[0,6],[1,4],[0,2],[3,5],[7,21],[2,4],[4,6],[6,5],[3,4],[3,4],[4,8],[1,5],[0,4],[-2,6],[-2,27],[0,5],[2,3]],[[2397,1986],[-3,1],[-2,1],[-2,4],[-2,5],[-3,10],[-2,12],[0,12],[1,12],[-1,5],[-1,3],[-3,4],[-1,2],[0,3],[0,3],[1,8],[1,3],[1,2],[4,3],[2,4],[4,11],[0,3],[0,3],[0,3],[-1,2],[-1,3],[-2,3],[-4,4],[-4,6],[-5,8],[0,3],[0,2],[1,2],[9,14],[9,8],[3,3],[4,3],[2,2],[2,1],[1,2],[0,2],[0,2],[-2,2],[-5,11],[-14,15],[-4,3],[-3,2],[-11,3],[-3,2],[-2,2],[-4,7],[-4,5],[-3,2],[-3,1],[-27,1],[-6,1],[-3,1],[-3,2],[-1,1],[-10,13],[-4,3],[-3,1],[-2,1],[-3,0]],[[2285,2252],[-3,0],[-2,-1],[-2,-1],[-2,-2],[-3,-4],[-7,-20],[-1,-2],[-1,-2],[-2,-2],[-5,-2],[-8,0]],[[2605,1992],[-15,1],[-5,0],[-25,8],[-2,2],[-3,3],[-6,2],[-32,6],[-9,1]],[[2508,2015],[-6,0],[-10,-8],[-1,-1],[-6,-9],[-2,-1],[-4,-2],[-20,-6],[-3,-1]],[[2651,2007],[-21,-6],[-10,-5],[-8,-3],[-7,-1]],[[2456,1987],[-7,3],[-8,2],[-25,2]],[[2416,1994],[-6,0],[-2,-1],[-11,-7]],[[3462,1247],[-2,-1],[-12,-15],[-5,-4],[-2,-2],[-1,-2],[-1,-3],[-3,-14],[-1,-2],[-3,-3],[-5,-3],[-21,-6],[-3,-2],[-4,-4],[-2,-3],[-3,-8],[-2,-2],[-3,-2],[-13,-3]],[[3376,1168],[-3,0]],[[3373,1168],[-12,-1],[-6,-1],[-28,-11],[-9,-2],[-6,-1]],[[3312,1152],[-2,1],[-3,0]],[[3307,1153],[-9,-1],[-55,-31],[-5,-1],[-8,-7],[-22,-26]],[[3000,1646],[-6,9],[-4,22],[1,7],[0,6],[2,5],[3,21],[6,15],[1,5],[-1,3],[-1,2],[-5,5],[-2,1],[-3,2],[-4,1]],[[2987,1750],[-2,-1],[-11,-2],[-3,-1],[-7,0]],[[2964,1746],[-16,1]],[[2948,1747],[-3,0],[-13,-3],[-7,-1]],[[2925,1743],[-17,1]],[[2908,1744],[-2,0],[-3,-1],[-2,-1],[-2,-2],[-1,-2],[0,-3],[-1,-2],[-2,-2],[-1,-2],[-4,-7],[-5,-4],[-5,-5],[-2,-1],[-3,-1],[-2,-2],[-1,-2],[-2,-5],[-2,-4],[-1,-2],[-4,-3],[-2,-2],[-2,-1],[-1,-2],[-2,-2],[-1,-2],[-3,-7],[-1,-2],[0,-6],[-1,-3],[-2,-1],[-2,-1],[-16,-3],[-5,0]],[[2762,1673],[-7,1],[-6,1],[-2,1],[-1,2],[-3,4],[-4,3],[-1,1],[-2,5],[-3,4],[-1,2],[-5,6],[-23,11]],[[2825,1661],[-3,1],[-5,1],[-7,5],[-10,5],[-4,1],[-4,0]],[[2792,1674],[-30,-1]],[[2704,1714],[3,-9],[2,-9],[0,-4],[-2,-5],[-8,-14],[-3,-3],[-10,-10],[-13,-13],[-1,-3],[0,-3],[2,-6],[2,-3],[2,-2],[1,-1],[2,-2],[1,-2],[3,-4],[0,-3],[1,-3],[1,-12],[2,-4],[16,-27],[1,-2],[-1,-5],[-3,-6],[-17,-29],[-8,-7],[-30,-21],[-2,0]],[[3101,1070],[-4,0],[-7,3],[-19,12],[-4,3],[-4,6],[-2,4],[-3,7],[-1,3],[0,3],[0,3],[1,5],[0,2],[0,3],[-3,1]],[[3055,1125],[-5,-1],[-14,-5],[-4,-3],[-4,-1],[-9,-1]],[[3199,1060],[-4,1],[-5,2],[-13,7],[-13,12],[-6,7],[-18,26],[-3,3],[-1,2],[-3,1]],[[3133,1121],[-2,-1],[-4,-3],[-2,-3],[-1,-3],[-1,-6],[-2,-5],[-9,-18],[-2,-4],[-3,-4],[-4,-3],[-2,-1]],[[3019,1114],[-18,1]],[[3001,1115]],[[3220,1066],[-21,-6]],[[3220,1066],[6,-6],[7,-8],[1,-3],[2,-5],[1,-11],[1,-10],[-1,-3],[0,-1],[0,-1],[2,-3],[3,-5],[7,-11],[7,-8],[3,-3],[3,-3],[11,-16],[2,-2],[1,-1],[5,-3],[2,-1],[9,0],[3,0],[2,-1],[6,-4],[3,-1],[11,-2],[3,-1],[4,-2],[4,-3],[12,-11],[1,-2],[1,-5],[0,-7],[-3,-17],[-3,-7],[-1,-4],[-2,-2],[-1,-3],[-2,-10],[-2,-6],[-1,-3],[1,-5],[5,-19],[2,-3],[2,-4],[2,-9],[-5,-26],[-3,-7]],[[3435,1710],[-3,0],[-17,-2],[-18,-4],[-8,-3],[-24,-13],[-11,-4],[-24,-6],[-26,-13],[-3,-1],[-2,-1],[-6,-10],[-13,-43]],[[3332,1588],[-12,4],[-6,5],[-4,5],[-3,2],[-3,2],[-24,4]],[[3988,752],[3,-30],[-2,-9],[-4,-5],[-2,-3],[-9,-16],[-2,-2],[-2,-2],[-11,-14],[-20,-32],[-4,-5],[-6,-2],[-34,-7],[-21,-9],[-10,-7],[-5,-7],[-2,-7],[-2,-14],[-1,-18],[2,-23],[0,-7],[-2,-10],[-5,-6],[-5,-4],[-11,-6],[-4,-2],[-4,-1],[-4,-1],[-8,-1]],[[3813,502],[-10,0],[-17,1]],[[3964,914],[-1,-8],[-13,-21],[-4,-9],[-2,-5],[-3,-37],[1,-7],[0,-5],[10,-16],[6,-37],[2,-5],[1,-1],[2,-2],[5,-2],[20,-7]],[[3208,1087],[-39,48],[-9,14],[-9,24],[-3,13],[-5,12],[-1,3],[0,3],[0,2],[1,2],[3,4],[1,4],[0,5],[-1,11],[-2,6],[-2,3],[-5,3],[-2,3],[-13,17],[-2,3],[-1,5],[-2,11],[-1,4],[-1,2],[-6,5],[-5,5],[-2,3],[-2,3],[0,3],[-19,55],[-1,8],[0,3],[0,2],[-1,2],[-16,17],[-2,4],[-1,3],[1,7],[0,10],[-1,4],[-1,3],[-18,27],[-3,6],[-1,4],[1,6],[1,3],[-1,12],[0,3],[1,3],[1,2],[2,1],[7,3],[2,1],[2,2],[1,2],[1,4],[1,6],[-1,4],[-1,3],[-1,2],[-14,13],[-2,3],[-1,4],[-4,25],[-4,15],[-28,66]],[[4096,735],[-4,-3],[-8,-6],[-11,-4],[-8,-1]],[[4030,725],[-5,1],[-6,4],[-17,15],[-14,7]],[[4065,721],[-7,0],[-5,1],[-10,3],[-4,0]],[[4039,725],[-4,0],[-5,0]],[[3894,116],[-5,0]],[[3889,116],[-3,-1],[-2,-1],[-2,-1],[-1,-2],[3,-13],[1,-2],[3,-3],[2,-5],[2,-1],[6,-4],[2,-1],[2,-2],[0,-2],[0,-4],[-10,-42],[-1,-3],[-3,-3],[-9,-6],[-3,-4],[-5,-7],[-7,-6],[-1,-2],[0,-1]],[[0,4096],[2263,0],[0,-2],[-6,-14],[-16,-10],[-32,-8],[13,-23],[9,-6],[13,4],[3,-16],[5,-13],[3,-10],[-4,-10],[-6,-3],[-5,-2],[-4,-4],[-2,-8],[3,-4],[12,-10],[5,-7],[-6,-4],[4,-10],[-1,-14],[-3,-13],[-4,-9],[-2,3],[-11,-2],[-10,-4],[-1,-2],[-7,2],[-8,7],[-4,1],[-10,-4],[-6,-9],[-9,-8],[-23,-6],[-2,-5],[2,-6],[3,-5],[7,-3],[18,-1],[8,-3],[-5,-6],[-6,-3],[-7,-2],[-7,1],[4,-13],[-2,-11],[-12,-17],[-4,-8],[-6,-21],[-4,-11],[-7,8],[-8,5],[-8,1],[-8,-4],[7,-7],[5,-10],[1,-10],[-8,-8],[-12,22],[-10,6],[-16,2],[-9,-4],[-3,-10],[0,-31],[3,-32],[23,-54],[4,-30],[-5,-32],[0,-15],[13,-21],[12,-44],[0,-15],[-8,-26],[-4,-34],[-3,-12],[-12,-30],[-1,-5],[1,-5],[2,-9],[15,-24],[0,-33],[5,-24],[0,-7],[-1,-15],[1,-7],[2,-6],[7,-11],[1,-7],[6,-7],[13,11],[21,29],[40,83],[15,23],[16,17],[6,11],[5,29],[12,36],[9,19],[3,4],[3,3],[6,2],[-1,-15],[-11,-28],[-3,-14],[-1,-15],[-4,-18],[-5,-16],[-17,-32],[-20,-57],[-11,-12],[-32,-55],[-3,-10],[0,-5],[8,-10],[1,4],[8,1],[7,-3],[-1,-8],[-7,-3],[-16,0],[-6,-4],[-5,-9],[-8,-7],[-1,-4],[5,-3],[5,-2],[3,-2],[-3,-8],[-11,-8],[4,-5],[-6,-3],[-6,0],[-4,2],[-4,6],[-9,-8],[-11,-14],[-6,-13],[13,-8],[3,-6],[4,-5],[6,-1],[7,4],[12,15],[6,6],[-6,-14],[-6,-11],[-8,-8],[-10,-8],[-7,-2],[-6,0],[-6,-2],[-6,-6],[1,-3],[0,-16],[-1,-6],[5,0],[1,3],[0,3],[4,5],[6,-4],[7,-2],[15,0],[4,-3],[-3,-7],[-6,-7],[-3,0],[-3,-13],[-10,-2],[-11,5],[-11,7],[-5,-5],[9,-6],[5,-7],[-2,-7],[-12,0],[13,-18],[2,-5],[-2,-3],[-7,-9],[-1,-3],[-8,0],[-13,-10],[-6,-12],[14,-6],[2,-2],[3,-10],[3,-3],[6,-1],[14,2],[5,-1],[2,-7],[-8,-9],[-24,-19],[-22,15],[-10,-21],[-13,-65],[-15,-26],[-5,-13],[-10,-46],[-6,-14],[-9,-12],[-2,-10],[-6,-12],[0,-11],[13,-7],[-10,-13],[-6,-5],[-6,-2],[-10,3],[-3,4],[1,-15],[4,-18],[9,-17],[21,-28],[9,-23],[-12,-6],[-18,-1],[-8,-8],[2,-19],[7,-6],[14,4],[21,9],[-17,-19],[-7,-10],[2,-9],[2,-7],[-9,0],[-10,2],[-3,2],[-6,-3],[-9,-18],[-14,-20],[-7,-29],[-16,-25],[-4,-16],[-3,-46],[-1,-5],[-2,-5],[-6,-5],[-6,-4],[-5,-4],[-3,-7],[2,-10],[11,-29],[2,-16],[-2,-7],[-8,-23],[-1,-4],[1,-12],[-2,-3],[-2,-3],[-2,-4],[1,-4],[7,-10],[10,-7],[7,-9],[-4,-15],[-18,19],[-6,10],[-1,14],[-3,7],[-5,-6],[-3,-13],[1,-16],[31,-94],[14,-69],[7,-11],[5,-11],[0,-31],[2,-11],[4,-5],[5,-3],[6,-1],[8,-1],[8,-2],[3,-5],[3,-6],[18,-7],[14,-25],[11,-11],[8,9],[2,5],[1,7],[4,0],[10,-12],[15,19],[12,31],[0,20],[-4,11],[0,14],[-3,12],[-22,9],[4,8],[13,6],[15,-2],[0,10],[5,0],[5,-8],[5,0],[4,4],[1,9],[5,0],[7,-9],[11,4],[12,10],[7,8],[12,5],[13,1],[10,5],[3,16],[12,-5],[16,-3],[10,-5],[-6,-10],[-12,-8],[-4,-7],[-3,-39],[2,-8],[5,0],[0,5],[5,0],[7,-3],[22,14],[13,4],[5,-8],[3,-53],[4,0],[11,20],[12,-28],[3,-12],[0,-12],[-3,-24],[3,-10],[-2,-36],[2,-14],[3,-6],[10,-10],[2,-6],[1,-11],[4,0],[10,8],[2,4],[2,6],[4,3],[9,-5],[4,-7],[5,-16],[3,-5],[11,-3],[10,4],[11,6],[11,3],[3,3],[5,13],[5,4],[9,2],[3,-2],[1,-5],[4,-8],[6,-5],[12,-6],[5,-6],[2,-7],[0,-4],[-1,-4],[-1,-8],[5,-15],[12,-6],[12,-4],[5,-5],[11,-19],[4,-4],[9,-2],[7,3],[14,14],[1,-12],[-5,-22],[-1,-14],[-5,-9],[-30,-24],[10,-19],[4,-49],[16,-17],[26,-5],[15,10],[7,20],[2,25],[5,0],[5,-17],[11,-10],[14,-8],[15,-11],[10,-14],[6,-4],[11,-2],[10,-4],[9,-11],[5,-10],[-3,-5],[-9,-2],[2,-5],[8,-5],[6,-3],[6,1],[7,3],[5,-1],[5,-33],[5,-19],[1,-16],[-9,-15],[6,-2],[15,0],[4,-1],[1,-9],[7,-12],[2,-5],[3,-33],[-2,-17],[-6,-12],[21,-35],[9,-12],[10,-6],[21,-3],[4,-3],[4,-5],[10,-6],[11,-5],[7,-2],[13,5],[3,10],[-3,26],[2,12],[5,14],[8,11],[9,-1],[3,-10],[-3,-32],[3,-12],[18,-7],[14,15],[21,40],[4,0],[-4,-24],[-9,-27],[-14,-21],[-15,-9],[-4,-16],[13,-34],[19,-31],[14,-4],[5,0],[3,-10],[5,0],[12,10],[25,15],[0,-26],[4,-9],[11,-5],[9,3],[13,8],[13,4],[5,-8],[-20,-28],[-2,-4],[-8,-5],[-8,-12],[-12,-24],[5,-10],[-3,-15],[-1,-14],[12,-6],[8,-4],[4,-6],[0,-7],[-2,-4],[-11,0],[-4,-1],[-3,-14],[0,-29],[18,-17],[63,-24],[4,-3],[5,-7],[6,-19],[5,-10],[7,1],[13,5],[11,-11],[18,-27],[19,-15],[8,-9],[3,-14],[3,-7],[7,-1],[7,1],[3,-3],[2,-8],[6,-12],[2,-8],[-1,-3],[-7,-9],[-2,-6],[3,-3],[5,1],[9,5],[5,-3],[3,-7],[2,-9],[3,-6],[21,-25],[24,-20],[7,16],[5,6],[10,2],[7,-5],[-1,-11],[-9,-24],[14,-4],[8,-12],[5,-16],[3,-13],[5,-32],[11,-34],[16,-32],[18,-24],[24,-16],[11,-12],[9,-29],[26,-48],[13,-33],[9,-16],[11,-14],[6,-13],[19,-148],[-8,-86],[4,-4],[7,-3],[5,-5],[-1,-7],[-6,-4],[-8,-1],[-9,2],[-7,3],[3,-39],[-3425,0],[-14,5],[0,4091]],[[1743,3077],[14,-3],[14,5],[0,13],[-8,10],[-12,4],[-10,-6],[-6,-14],[8,-9]],[[2053,3103],[-4,-2],[-1,0],[-2,-3],[0,-6],[2,-9],[4,-5],[5,1],[5,-8],[3,21],[4,-2],[2,5],[0,6],[-2,9],[6,14],[-5,-1],[-4,2],[-7,8],[-3,-6],[-2,-1],[-4,-5],[2,-3],[2,-5],[-1,-10]],[[1836,3123],[18,30],[-2,5],[2,6],[3,6],[3,9],[10,-1],[25,16],[12,5],[5,6],[5,13],[8,12],[14,4],[5,8],[-4,4],[-6,3],[-4,6],[-1,4],[0,5],[4,2],[12,-2],[0,5],[-10,3],[-2,-1],[-3,-2],[-15,5],[-15,-6],[-21,-18],[-19,-11],[-6,-5],[-2,-5],[-3,-6],[-3,-6],[-4,-3],[-2,-2],[-3,-6],[-5,-5],[-10,-2],[-2,-21],[-3,-7],[-2,-10],[0,-20],[2,-15],[8,2],[2,-13],[9,8]],[[1865,3259],[7,21],[4,35],[5,8],[7,6],[12,6],[-5,4],[0,4],[2,3],[3,4],[2,1],[2,0],[1,1],[0,3],[-14,4],[-19,12],[-12,-1],[0,-5],[4,-7],[-2,-6],[-5,-6],[-3,-9],[2,-6],[7,-9],[2,-5],[0,-58]],[[1705,3327],[1,4],[3,4],[4,-3],[2,-4],[4,7],[0,13],[0,7],[-6,2],[-2,-10],[-6,-6],[-4,-4],[-2,-10],[2,-6],[4,6]],[[2010,3028],[9,-16],[14,20],[1,10],[-5,16],[0,4],[-7,-14],[-9,-9],[-3,-11]],[[1697,2955],[2,-4],[3,1],[4,-20],[8,12],[-1,8],[-2,7],[-10,3],[-4,-7]],[[1620,2817],[15,-12],[0,11],[5,1],[7,-2],[6,0],[2,5],[2,6],[-1,5],[-3,5],[-17,4],[-13,-8],[-3,-15]],[[1634,2801],[-9,7],[-4,-1],[-5,-2],[-5,-4],[-2,-6],[4,-5],[23,-19],[3,8],[-1,12],[-4,10]],[[1922,2621],[4,-5],[8,6],[10,11],[2,4],[-2,4],[-1,4],[3,6],[8,10],[7,14],[-3,7],[-6,0],[-25,-41],[-4,-4],[-1,-16]],[[1910,2597],[-6,-59],[1,-10],[10,-9],[14,-1],[15,5],[11,5],[-6,5],[16,15],[-1,16],[-3,14],[-7,12],[-9,9],[-10,8],[-7,3],[-9,-2],[-7,-3],[-2,-3],[0,-5]],[[1919,2501],[-6,-11],[3,-23],[0,-19],[-4,-16],[2,-15],[6,-15],[6,-1],[17,43],[10,17],[3,15],[-9,14],[-8,5],[-6,4],[-14,2]],[[1462,2226],[11,-18],[-2,20],[0,13],[-2,2],[-6,-4],[-4,-2],[3,-11]],[[1930,1780],[4,-14],[0,-8],[-2,-7],[-6,-7],[-3,-8],[4,-8],[2,-7],[-5,-5],[-6,-6],[-4,-7],[3,-2],[13,-4],[4,-2],[3,-10],[-4,-5],[-6,-3],[-3,-2],[1,-8],[3,-7],[4,-5],[2,-6],[4,-47],[4,-10],[12,-8],[11,3],[7,11],[2,19],[6,15],[13,0],[26,-13],[-2,26],[3,11],[24,7],[6,9],[0,11],[-6,12],[-3,-3],[-4,-4],[-3,-3],[-7,10],[-5,13],[-3,14],[0,13],[3,7],[5,3],[4,2],[3,3],[1,6],[-1,14],[0,6],[10,16],[5,12],[0,12],[-5,10],[-7,3],[-7,-4],[-5,-9],[-12,10],[-11,11],[-10,6],[-8,-7],[-4,0],[-6,35],[-4,10],[-7,6],[-7,5],[-6,2],[-5,-2],[-5,3],[-2,1],[-4,1],[6,-30],[1,-16],[-2,-15],[-2,-8],[-5,-11],[-2,-6],[-1,-4],[1,-27]],[[2148,1848],[-3,-5],[6,-9],[6,-4],[25,-8],[0,9],[12,51],[-1,6],[-1,4],[-2,3],[-6,2],[-6,-12],[-10,-11],[-7,-10],[3,-13],[-16,-3]],[[2157,1814],[-34,19],[-3,7],[-2,3],[-4,3],[0,-12],[2,-13],[4,-13],[10,-16],[1,-5],[2,-4],[9,-2],[6,-2],[3,-5],[2,-7],[1,-6],[-2,-8],[-4,-2],[-5,0],[-3,-6],[-1,-6],[4,-10],[2,-18],[5,-15],[8,-10],[11,-1],[6,16],[-1,80],[-6,21],[-11,12]],[[2418,1634],[30,-37],[4,2],[-1,8],[-3,5],[0,5],[2,2],[3,1],[2,4],[1,8],[-1,2],[-4,1],[-5,-1],[-3,1],[-1,5],[-9,7],[-11,2],[-3,-2],[-2,0],[-3,-3],[-2,-5],[0,-3],[3,-1],[3,-1]],[[2490,1508],[18,-30],[4,-3],[5,-2],[4,-3],[2,-5],[2,-3],[5,-4],[7,-1],[6,1],[5,8],[2,14],[0,14],[-2,9],[-14,9],[-28,4],[-16,-8]],[[2505,1472],[-22,22],[-5,0],[-2,-3],[-1,-1],[-1,0],[-1,-2],[4,-10],[2,-12],[-1,-26],[2,-7],[19,-43],[15,-17],[16,-10],[13,9],[-12,18],[-11,24],[-7,27],[0,27],[-8,4]],[[2007,1465],[-2,7],[-2,-1],[-5,-1],[-2,-1],[-4,-4],[-1,-14],[4,0],[6,5],[2,5],[4,4]],[[2738,1222],[-5,-17],[0,-37],[4,-6],[8,8],[10,18],[6,4],[8,3],[9,1],[10,-1],[-6,9],[-19,4],[-10,7],[-15,7]],[[2886,1084],[17,-6],[4,3],[-7,9],[-6,6],[-2,0],[-2,2],[-7,3],[-6,1],[-7,6],[-6,-1],[2,-7],[5,-7],[5,-7],[10,-2]],[[3073,819],[-2,-12],[7,-4],[11,3],[-3,12],[-4,7],[-9,-6]],[[2953,778],[-17,38],[-5,-5],[-3,-13],[-1,-14],[-2,-7],[-4,-3],[-5,-3],[-4,-4],[0,-5],[1,-13],[-1,-8],[-7,-10],[-8,-9],[-2,-10],[24,-23],[10,-31],[8,-13],[6,4],[3,3],[1,4],[0,7],[3,6],[5,2],[7,1],[5,3],[3,9],[1,10],[-7,21],[-11,27],[0,36]],[[2669,705],[-8,0],[-4,-6],[9,-37],[8,-5],[9,2],[5,2],[5,8],[1,9],[0,11],[-2,4],[-4,3],[-1,2],[-1,2],[-17,5]],[[2647,699],[-9,7],[-6,2],[-24,-2],[5,0],[-13,-3],[-7,-8],[-7,-7],[-13,3],[11,-11],[15,-5],[17,3],[22,15],[7,3],[2,3]],[[3042,604],[-12,-10],[-11,-2],[-25,3],[-11,7],[-24,1],[-14,-6],[-18,7],[1,-31],[3,-13],[6,-10],[13,1],[19,-4],[12,-4],[2,-19],[-4,-13],[9,-36],[6,3],[9,4],[9,9],[12,0],[10,12],[11,14],[14,4],[14,1],[3,-18],[12,-7],[3,10],[10,6],[6,7],[10,3],[8,4],[-1,6],[-3,7],[-8,11],[7,10],[3,9],[-7,6],[-5,3],[1,6],[-15,7],[-8,7],[-6,11],[-6,16],[-6,3],[-7,0],[1,-5],[4,-6],[-11,0],[-7,-1],[-9,-13]],[[3069,487],[-2,12],[-9,-8],[-18,-7],[-10,-23],[-14,-13],[6,-15],[7,-2],[4,-11],[11,-11],[8,4],[7,10],[3,11],[-5,13],[0,12],[1,5],[0,9],[6,8],[5,6]],[[1676,3535],[-6,12],[6,-1],[5,2],[4,3],[3,4],[-6,13],[-3,5],[-4,4],[-4,0],[-8,0],[-5,4],[7,11],[-11,-5],[-2,-12],[3,-14],[5,-9],[-11,-14],[3,-11],[12,-3],[16,8],[-4,3]],[[1864,3597],[6,-14],[10,1],[11,11],[5,16],[1,2],[2,3],[1,2],[-12,-1],[-11,-3],[-9,-6],[-4,-11]],[[1650,3858],[-5,-8],[18,10],[14,10],[10,15],[7,20],[-14,4],[-15,0],[-11,-8],[-4,-21],[3,-8],[0,-7],[-3,-7]],[[1786,3882],[9,-7],[7,3],[23,15],[5,5],[1,8],[5,3],[7,0],[7,-4],[4,-25],[2,3],[2,4],[2,3],[14,-13],[13,-16],[2,-3],[0,-4],[1,-7],[2,-2],[10,-3],[3,-2],[1,-12],[-6,-23],[0,-11],[13,-9],[3,-7],[-11,-9],[-2,3],[-3,2],[-2,-24],[4,-8],[10,-3],[12,2],[7,7],[8,16],[1,2],[0,2],[1,2],[4,-1],[-8,8],[-2,8],[3,9],[7,10],[-14,2],[-4,11],[0,14],[-3,14],[-7,9],[-10,7],[-9,8],[-3,13],[-1,14],[-3,15],[-5,13],[-7,11],[-10,8],[-14,6],[-14,2],[-9,-3],[-3,-5],[-3,-13],[-1,-5],[-4,-3],[-9,-6],[-2,-3],[-18,-19],[-6,-12]],[[2042,3948],[3,-9],[5,0],[6,7],[3,9],[-1,11],[-6,1],[-7,-7],[-3,-12]],[[2077,3945],[6,-13],[16,-7],[1,8],[2,6],[5,4],[7,3],[0,-6],[1,-7],[3,-5],[6,3],[1,4],[-1,21],[2,20],[0,12],[-5,27],[-4,11],[-6,2],[-7,-12],[-1,-5],[2,-13],[-1,-7],[-4,-6],[-4,-5],[-12,-9],[-6,-11],[-1,-15]],[[1962,3986],[-1,7],[-7,0],[-6,-10],[-2,-3],[2,-3],[7,-8],[7,1],[4,7],[-1,7],[-3,2]],[[2094,3845],[0,-10],[6,3],[7,1],[5,-2],[2,-5],[-1,-7],[-4,-1],[-6,0],[-6,-2],[-5,-9],[8,-6],[13,1],[11,7],[8,27],[-8,20],[-17,14],[-18,8],[-2,-7],[0,-11],[3,-11],[4,-10]],[[1734,3654],[3,-6],[-6,-4],[-9,3],[-6,4],[-5,0],[-7,-2],[-1,-3],[-5,-5],[-2,3],[-5,0],[-4,-3],[1,-2],[12,-4],[3,0],[3,-2],[15,-7],[2,-2],[6,0],[3,11],[9,4],[3,3],[4,-1],[4,3],[-1,3],[-3,2],[-1,7],[2,7],[-9,0],[-6,-9]],[[4096,946],[-4,1],[-9,-16],[-30,-14],[-89,-3],[-31,-1],[-21,1],[-36,17],[-38,29],[-21,20],[-12,11],[-17,-7],[-11,4],[-20,7],[-14,12],[-112,154],[-19,23],[0,-12],[2,-21],[-5,-8],[-18,-17],[-18,-6],[-9,-1],[-18,1],[-6,2],[-6,5],[-9,8],[-11,-1],[-10,3],[-9,8],[-10,20],[-6,4],[-5,6],[-3,8],[3,5],[4,3],[7,3],[12,6],[-7,6],[-7,3],[-10,1],[-7,5],[-3,7],[-1,9],[0,16],[0,1],[-7,16],[-15,5],[-18,0],[-16,2],[-17,15],[-14,23],[-23,60],[-2,3],[-4,5],[-15,13],[-2,3],[-8,5],[-5,12],[-5,27],[-13,36],[-8,62],[1,14],[9,10],[32,29],[7,6],[15,3],[14,5],[14,3],[14,-5],[13,-23],[10,-37],[5,-38],[-3,-29],[-10,-14],[-25,-15],[-4,-14],[0,-9],[0,-6],[2,-5],[5,-5],[8,-4],[4,4],[5,12],[17,25],[24,3],[22,-9],[12,-28],[3,-51],[-1,-59],[10,-6],[5,-33],[7,-23],[-9,-20],[13,-7],[21,1],[5,-4],[15,-8],[26,-24],[9,-10],[19,-1],[0,10],[-5,15],[-10,15],[-39,62],[-44,105],[-53,257],[-18,83],[-29,133],[-23,146],[-37,97],[-9,15],[-20,24],[-22,16],[-14,-7],[25,-9],[7,-26],[2,-30],[6,-21],[-9,-6],[-11,-2],[-10,2],[-4,9],[-4,2],[-16,7],[-5,3],[-5,7],[-4,14],[-12,18],[-16,32],[-3,12],[-7,11],[-41,25],[-12,20],[-6,23],[-14,144],[-10,22],[4,12],[-9,56],[0,18],[2,5],[3,6],[4,4],[1,0],[-1,9],[-7,12],[-2,7],[0,36],[-2,11],[-6,9],[-6,8],[-6,10],[-4,14],[0,56],[-6,-5],[-13,23],[-5,12],[1,8],[-1,7],[-28,12],[-8,8],[-5,-3],[-7,-4],[-4,-3],[-7,3],[-14,5],[-10,1],[-4,-6],[-5,1],[-27,1],[-1,-1],[-12,-9],[-22,-5],[-6,-2],[-7,-5],[-10,-5],[-12,-3],[-33,6],[-9,-1],[-11,-8],[-5,-13],[-4,-13],[-5,-11],[-20,-14],[-22,-4],[-24,0],[-24,-2],[-20,19],[-36,3],[-34,7],[-15,34],[-3,30],[4,13],[14,15],[7,5],[18,10],[2,3],[-1,3],[0,3],[6,1],[5,0],[4,-1],[3,0],[6,1],[-42,55],[-31,56],[-2,13],[-2,17],[-4,11],[-22,34],[-7,16],[-4,17],[-3,28],[-11,30],[-2,15],[0,3],[1,13],[2,7],[2,7],[3,5],[9,7],[3,4],[0,5],[-2,3],[-2,3],[-1,2],[0,58],[-5,32],[2,10],[11,7],[2,9],[-4,13],[-8,11],[-7,13],[-1,20],[6,19],[20,32],[4,18],[6,10],[30,3],[9,15],[-13,-4],[-9,2],[-13,17],[-27,24],[-8,11],[-5,32],[0,8],[7,8],[8,2],[9,1],[11,5],[10,-5],[7,-5],[6,-6],[2,-10],[16,10],[6,0],[10,0],[5,6],[3,12],[1,13],[-1,10],[-8,8],[-23,15],[-4,10],[2,11],[6,9],[7,8],[5,9],[-8,0],[-6,2],[-5,3],[-1,6],[3,9],[7,4],[9,1],[8,3],[8,13],[5,35],[5,15],[8,12],[10,12],[12,9],[13,3],[9,1],[2,3],[-2,5],[-2,8],[3,7],[43,66],[4,13],[0,30],[2,7],[6,4],[7,1],[11,1],[13,0],[2,-3],[5,-5],[6,-1],[3,11],[-3,16],[-11,31],[-2,17],[4,13],[3,8],[7,17],[2,15],[-3,13],[-10,26],[-3,16],[2,13],[4,12],[5,10],[5,8],[4,4],[1259,0],[0,-3150]],[[3154,2802],[34,4],[6,-1],[6,0],[5,3],[2,5],[0,6],[2,4],[21,10],[6,20],[2,23],[6,21],[8,8],[-4,10],[-7,8],[-4,1],[-6,-14],[-13,-3],[-43,11],[-19,2],[-17,-3],[-7,-8],[4,-13],[6,-14],[1,-13],[-11,-13],[8,-15],[3,-27],[4,-14],[7,2]],[[2970,2876],[-4,15],[-22,-17],[10,-4],[16,6]],[[2951,2951],[-2,1],[1,-8],[1,-3],[2,2],[3,5],[-2,1],[-1,1],[-2,1]],[[3251,2982],[-7,57],[-9,24],[-23,15],[-7,1],[-14,-1],[-7,1],[-7,3],[-3,-7],[-10,-15],[0,-5],[14,-16],[3,-8],[-4,-9],[8,-7],[40,-17],[18,-10],[8,-6]],[[3075,3317],[-4,3],[-2,-3],[-10,3],[-2,-10],[1,-4],[4,-3],[0,-3],[-4,-12],[-4,-5],[2,-7],[3,-1],[3,2],[2,-7],[1,2],[5,2],[2,3],[3,4],[2,3],[1,5],[2,2],[2,1],[1,3],[-2,3],[1,4],[-2,1],[-3,2],[1,5],[-2,3],[-1,2],[0,2]],[[0,5],[14,-5]],[[2263,4096],[0,-2],[-6,-14],[-16,-10],[-32,-8],[13,-23],[9,-6],[13,4],[3,-16],[5,-13],[3,-10],[-4,-10],[-6,-3],[-5,-2],[-4,-4],[-2,-8],[3,-4],[12,-10],[5,-7],[-6,-4],[4,-10],[-1,-14],[-3,-13],[-4,-9],[-2,3],[-11,-2],[-10,-4],[-1,-2],[-7,2],[-8,7],[-4,1],[-10,-4],[-6,-9],[-9,-8],[-23,-6],[-2,-5],[2,-6],[3,-5],[7,-3],[18,-1],[8,-3],[-5,-6],[-6,-3],[-7,-2],[-7,1],[4,-13],[-2,-11],[-12,-17],[-4,-8],[-6,-21],[-4,-11],[-7,8],[-8,5],[-8,1],[-8,-4],[7,-7],[5,-10],[1,-10],[-8,-8],[-12,22],[-10,6],[-16,2],[-9,-4],[-3,-10],[0,-31],[3,-32],[23,-54],[4,-30],[-5,-32],[0,-15],[13,-21],[12,-44],[0,-15],[-8,-26],[-4,-34],[-3,-12],[-12,-30],[-1,-5],[1,-5],[2,-9],[15,-24],[0,-33],[5,-24],[0,-7],[-1,-15],[1,-7],[2,-6],[7,-11],[1,-7],[6,-7],[13,11],[21,29],[40,83],[15,23],[16,17],[6,11],[5,29],[12,36],[9,19],[3,4],[3,3],[6,2],[-1,-15],[-11,-28],[-3,-14],[-1,-15],[-4,-18],[-5,-16],[-17,-32],[-20,-57],[-11,-12],[-32,-55],[-3,-10],[0,-5],[8,-10],[1,4],[8,1],[7,-3],[-1,-8],[-7,-3],[-16,0],[-6,-4],[-5,-9],[-8,-7],[-1,-4],[5,-3],[5,-2],[3,-2],[-3,-8],[-11,-8],[4,-5],[-6,-3],[-6,0],[-4,2],[-4,6],[-9,-8],[-11,-14],[-6,-13],[13,-8],[3,-6],[4,-5],[6,-1],[7,4],[12,15],[6,6],[-6,-14],[-6,-11],[-8,-8],[-10,-8],[-7,-2],[-6,0],[-6,-2],[-6,-6],[1,-3],[0,-16],[-1,-6],[5,0],[1,3],[0,3],[4,5],[6,-4],[7,-2],[15,0],[4,-3],[-3,-7],[-6,-7],[-3,0],[-3,-13],[-10,-2],[-11,5],[-11,7],[-5,-5],[9,-6],[5,-7],[-2,-7],[-12,0],[13,-18],[2,-5],[-2,-3],[-7,-9],[-1,-3],[-8,0],[-13,-10],[-6,-12],[14,-6],[2,-2],[3,-10],[3,-3],[6,-1],[14,2],[5,-1],[2,-7],[-8,-9],[-24,-19],[-22,15],[-10,-21],[-13,-65],[-15,-26],[-5,-13],[-10,-46],[-6,-14],[-9,-12],[-2,-10],[-6,-12],[0,-11],[13,-7],[-10,-13],[-6,-5],[-6,-2],[-10,3],[-3,4],[1,-15],[4,-18],[9,-17],[21,-28],[9,-23],[-12,-6],[-18,-1],[-8,-8],[2,-19],[7,-6],[14,4],[21,9],[-17,-19],[-7,-10],[2,-9],[2,-7],[-9,0],[-10,2],[-3,2],[-6,-3],[-9,-18],[-14,-20],[-7,-29],[-16,-25],[-4,-16],[-3,-46],[-1,-5],[-2,-5],[-6,-5],[-6,-4],[-5,-4],[-3,-7],[2,-10],[11,-29],[2,-16],[-2,-7],[-8,-23],[-1,-4],[1,-12],[-2,-3],[-2,-3],[-2,-4],[1,-4],[7,-10],[10,-7],[7,-9],[-4,-15],[-18,19],[-6,10],[-1,14],[-3,7],[-5,-6],[-3,-13],[1,-16],[31,-94],[14,-69],[7,-11],[5,-11],[0,-31],[2,-11],[4,-5],[5,-3],[6,-1],[8,-1],[8,-2],[3,-5],[3,-6],[18,-7],[14,-25],[11,-11],[8,9],[2,5],[1,7],[4,0],[10,-12],[15,19],[12,31],[0,20],[-4,11],[0,14],[-3,12],[-22,9],[4,8],[13,6],[15,-2],[0,10],[5,0],[5,-8],[5,0],[4,4],[1,9],[5,0],[7,-9],[11,4],[12,10],[7,8],[12,5],[13,1],[10,5],[3,16],[12,-5],[16,-3],[10,-5],[-6,-10],[-12,-8],[-4,-7],[-3,-39],[2,-8],[5,0],[0,5],[5,0],[7,-3],[22,14],[13,4],[5,-8],[3,-53],[4,0],[11,20],[12,-28],[3,-12],[0,-12],[-3,-24],[3,-10],[-2,-36],[2,-14],[3,-6],[10,-10],[2,-6],[1,-11],[4,0],[10,8],[2,4],[2,6],[4,3],[9,-5],[4,-7],[5,-16],[3,-5],[11,-3],[10,4],[11,6],[11,3],[3,3],[5,13],[5,4],[9,2],[3,-2],[1,-5],[4,-8],[6,-5],[12,-6],[5,-6],[2,-7],[0,-4],[-1,-4],[-1,-8],[5,-15],[12,-6],[12,-4],[5,-5],[11,-19],[4,-4],[9,-2],[7,3],[14,14],[1,-12],[-5,-22],[-1,-14],[-5,-9],[-30,-24],[10,-19],[4,-49],[16,-17],[26,-5],[15,10],[7,20],[2,25],[5,0],[5,-17],[11,-10],[14,-8],[15,-11],[10,-14],[6,-4],[11,-2],[10,-4],[9,-11],[5,-10],[-3,-5],[-9,-2],[2,-5],[8,-5],[6,-3],[6,1],[7,3],[5,-1],[5,-33],[5,-19],[1,-16],[-9,-15],[6,-2],[15,0],[4,-1],[1,-9],[7,-12],[2,-5],[3,-33],[-2,-17],[-6,-12],[21,-35],[9,-12],[10,-6],[21,-3],[4,-3],[4,-5],[10,-6],[11,-5],[7,-2],[13,5],[3,10],[-3,26],[2,12],[5,14],[8,11],[9,-1],[3,-10],[-3,-32],[3,-12],[18,-7],[14,15],[21,40],[4,0],[-4,-24],[-9,-27],[-14,-21],[-15,-9],[-4,-16],[13,-34],[19,-31],[14,-4],[5,0],[3,-10],[5,0],[12,10],[25,15],[0,-26],[4,-9],[11,-5],[9,3],[13,8],[13,4],[5,-8],[-20,-28],[-2,-4],[-8,-5],[-8,-12],[-12,-24],[5,-10],[-3,-15],[-1,-14],[12,-6],[8,-4],[4,-6],[0,-7],[-2,-4],[-11,0],[-4,-1],[-3,-14],[0,-29],[18,-17],[63,-24],[4,-3],[5,-7],[6,-19],[5,-10],[7,1],[13,5],[11,-11],[18,-27],[19,-15],[8,-9],[3,-14],[3,-7],[7,-1],[7,1],[3,-3],[2,-8],[6,-12],[2,-8],[-1,-3],[-7,-9],[-2,-6],[3,-3],[5,1],[9,5],[5,-3],[3,-7],[2,-9],[3,-6],[21,-25],[24,-20],[7,16],[5,6],[10,2],[7,-5],[-1,-11],[-9,-24],[14,-4],[8,-12],[5,-16],[3,-13],[5,-32],[11,-34],[16,-32],[18,-24],[24,-16],[11,-12],[9,-29],[26,-48],[13,-33],[9,-16],[11,-14],[6,-13],[19,-148],[-8,-86],[4,-4],[7,-3],[5,-5],[-1,-7],[-6,-4],[-8,-1],[-9,2],[-7,3],[3,-39]],[[4096,946],[-4,1],[-9,-16],[-30,-14],[-89,-3],[-31,-1],[-21,1],[-36,17],[-38,29],[-21,20],[-12,11],[-17,-7],[-11,4],[-20,7],[-14,12],[-112,154],[-19,23],[0,-12],[2,-21],[-5,-8],[-18,-17],[-18,-6],[-9,-1],[-18,1],[-6,2],[-6,5],[-9,8],[-11,-1],[-10,3],[-9,8],[-10,20],[-6,4],[-5,6],[-3,8],[3,5],[4,3],[7,3],[12,6],[-7,6],[-7,3],[-10,1],[-7,5],[-3,7],[-1,9],[0,16],[0,1],[-7,16],[-15,5],[-18,0],[-16,2],[-17,15],[-14,23],[-23,60],[-2,3],[-4,5],[-15,13],[-2,3],[-8,5],[-5,12],[-5,27],[-13,36],[-8,62],[1,14],[9,10],[32,29],[7,6],[15,3],[14,5],[14,3],[14,-5],[13,-23],[10,-37],[5,-38],[-3,-29],[-10,-14],[-25,-15],[-4,-14],[0,-9],[0,-6],[2,-5],[5,-5],[8,-4],[4,4],[5,12],[17,25],[24,3],[22,-9],[12,-28],[3,-51],[-1,-59],[10,-6],[5,-33],[7,-23],[-9,-20],[13,-7],[21,1],[5,-4],[15,-8],[26,-24],[9,-10],[19,-1],[0,10],[-5,15],[-10,15],[-39,62],[-44,105],[-53,257],[-18,83],[-29,133],[-23,146],[-37,97],[-9,15],[-20,24],[-22,16],[-14,-7],[25,-9],[7,-26],[2,-30],[6,-21],[-9,-6],[-11,-2],[-10,2],[-4,9],[-4,2],[-16,7],[-5,3],[-5,7],[-4,14],[-12,18],[-16,32],[-3,12],[-7,11],[-41,25],[-12,20],[-6,23],[-14,144],[-10,22],[4,12],[-9,56],[0,18],[2,5],[3,6],[4,4],[1,0],[-1,9],[-7,12],[-2,7],[0,36],[-2,11],[-6,9],[-6,8],[-6,10],[-4,14],[0,56],[-6,-5],[-13,23],[-5,12],[1,8],[-1,7],[-28,12],[-8,8],[-5,-3],[-7,-4],[-4,-3],[-7,3],[-14,5],[-10,1],[-4,-6],[-5,1],[-27,1],[-1,-1],[-12,-9],[-22,-5],[-6,-2],[-7,-5],[-10,-5],[-12,-3],[-33,6],[-9,-1],[-11,-8],[-5,-13],[-4,-13],[-5,-11],[-20,-14],[-22,-4],[-24,0],[-24,-2],[-20,19],[-36,3],[-34,7],[-15,34],[-3,30],[4,13],[14,15],[7,5],[18,10],[2,3],[-1,3],[0,3],[6,1],[5,0],[4,-1],[3,0],[6,1],[-42,55],[-31,56],[-2,13],[-2,17],[-4,11],[-22,34],[-7,16],[-4,17],[-3,28],[-11,30],[-2,15],[0,3],[1,13],[2,7],[2,7],[3,5],[9,7],[3,4],[0,5],[-2,3],[-2,3],[-1,2],[0,58],[-5,32],[2,10],[11,7],[2,9],[-4,13],[-8,11],[-7,13],[-1,20],[6,19],[20,32],[4,18],[6,10],[30,3],[9,15],[-13,-4],[-9,2],[-13,17],[-27,24],[-8,11],[-5,32],[0,8],[7,8],[8,2],[9,1],[11,5],[10,-5],[7,-5],[6,-6],[2,-10],[16,10],[6,0],[10,0],[5,6],[3,12],[1,13],[-1,10],[-8,8],[-23,15],[-4,10],[2,11],[6,9],[7,8],[5,9],[-8,0],[-6,2],[-5,3],[-1,6],[3,9],[7,4],[9,1],[8,3],[8,13],[5,35],[5,15],[8,12],[10,12],[12,9],[13,3],[9,1],[2,3],[-2,5],[-2,8],[3,7],[43,66],[4,13],[0,30],[2,7],[6,4],[7,1],[11,1],[13,0],[2,-3],[5,-5],[6,-1],[3,11],[-3,16],[-11,31],[-2,17],[4,13],[3,8],[7,17],[2,15],[-3,13],[-10,26],[-3,16],[2,13],[4,12],[5,10],[5,8],[4,4]],[[1636,2771],[-23,19],[-4,5],[2,6],[5,4],[5,2],[4,1],[9,-7],[4,-10],[1,-12],[-3,-8]],[[2956,2948],[-3,-5],[-2,-2],[-1,3],[-1,8],[2,-1],[2,-1],[1,-1],[2,-1]],[[1771,3079],[-14,-5],[-14,3],[-8,9],[6,14],[10,6],[12,-4],[8,-10],[0,-13]],[[2966,2891],[4,-15],[-16,-6],[-10,4],[22,17]],[[1896,3611],[-5,-16],[-11,-11],[-10,-1],[-6,14],[4,11],[9,6],[11,3],[12,1],[-1,-2],[-2,-3],[-1,-2]],[[2042,3948],[3,12],[7,7],[6,-1],[1,-11],[-3,-9],[-6,-7],[-5,0],[-3,9]],[[2548,1503],[-14,9],[-28,4],[-16,-8],[18,-30],[4,-3],[5,-2],[4,-3],[2,-5],[2,-3],[5,-4],[7,-1],[6,1],[5,8],[2,14],[0,14],[-2,9]],[[2483,1494],[-5,0],[-2,-3],[-1,-1],[-1,0],[-1,-2],[4,-10],[2,-12],[-1,-26],[2,-7],[19,-43],[15,-17],[16,-10],[13,9],[-12,18],[-11,24],[-7,27],[0,27],[-8,4],[-22,22]],[[1665,3592],[-11,-5],[-2,-12],[3,-14],[5,-9],[-11,-14],[3,-11],[12,-3],[16,8],[-4,3],[-6,12],[6,-1],[5,2],[4,3],[3,4],[-6,13],[-3,5],[-4,4],[-4,0],[-8,0],[-5,4],[7,11]],[[1865,3317],[0,-58],[7,21],[4,35],[5,8],[7,6],[12,6],[-5,4],[0,4],[2,3],[3,4],[2,1],[2,0],[1,1],[0,3],[-14,4],[-19,12],[-12,-1],[0,-5],[4,-7],[-2,-6],[-5,-6],[-3,-9],[2,-6],[7,-9],[2,-5]],[[1945,3264],[0,5],[-10,3],[-2,-1],[-3,-2],[-15,5],[-15,-6],[-21,-18],[-19,-11],[-6,-5],[-2,-5],[-3,-6],[-3,-6],[-4,-3],[-2,-2],[-3,-6],[-5,-5],[-10,-2],[-2,-21],[-3,-7],[-2,-10],[0,-20],[2,-15],[8,2],[2,-13],[9,8],[18,30],[-2,5],[2,6],[3,6],[3,9],[10,-1],[25,16],[12,5],[5,6],[5,13],[8,12],[14,4],[5,8],[-4,4],[-6,3],[-4,6],[-1,4],[0,5],[4,2],[12,-2]],[[1924,3845],[-7,9],[-10,7],[-9,8],[-3,13],[-1,14],[-3,15],[-5,13],[-7,11],[-10,8],[-14,6],[-14,2],[-9,-3],[-3,-5],[-3,-13],[-1,-5],[-4,-3],[-9,-6],[-2,-3],[-18,-19],[-6,-12],[9,-7],[7,3],[23,15],[5,5],[1,8],[5,3],[7,0],[7,-4],[4,-25],[2,3],[2,4],[2,3],[14,-13],[13,-16],[2,-3],[0,-4],[1,-7],[2,-2],[10,-3],[3,-2],[1,-12],[-6,-23],[0,-11],[13,-9],[3,-7],[-11,-9],[-2,3],[-3,2],[-2,-24],[4,-8],[10,-3],[12,2],[7,7],[8,16],[1,2],[0,2],[1,2],[4,-1],[-8,8],[-2,8],[3,9],[7,10],[-14,2],[-4,11],[0,14],[-3,14]],[[1650,3880],[3,-8],[0,-7],[-3,-7],[-5,-8],[18,10],[14,10],[10,15],[7,20],[-14,4],[-15,0],[-11,-8],[-4,-21]],[[2114,3946],[0,-6],[1,-7],[3,-5],[6,3],[1,4],[-1,21],[2,20],[0,12],[-5,27],[-4,11],[-6,2],[-7,-12],[-1,-5],[2,-13],[-1,-7],[-4,-6],[-4,-5],[-12,-9],[-6,-11],[-1,-15],[6,-13],[16,-7],[1,8],[2,6],[5,4],[7,3]],[[2089,3884],[-2,-7],[0,-11],[3,-11],[4,-10],[0,-10],[6,3],[7,1],[5,-2],[2,-5],[-1,-7],[-4,-1],[-6,0],[-6,-2],[-5,-9],[8,-6],[13,1],[11,7],[8,27],[-8,20],[-17,14],[-18,8]],[[2029,3058],[0,4],[-7,-14],[-9,-9],[-3,-11],[9,-16],[14,20],[1,10],[-5,16]],[[1945,2599],[-10,8],[-7,3],[-9,-2],[-7,-3],[-2,-3],[0,-5],[-6,-59],[1,-10],[10,-9],[14,-1],[15,5],[11,5],[-6,5],[16,15],[-1,16],[-3,14],[-7,12],[-9,9]],[[2034,1685],[-7,10],[-5,13],[-3,14],[0,13],[3,7],[5,3],[4,2],[3,3],[1,6],[-1,14],[0,6],[10,16],[5,12],[0,12],[-5,10],[-7,3],[-7,-4],[-5,-9],[-12,10],[-11,11],[-10,6],[-8,-7],[-4,0],[-6,35],[-4,10],[-7,6],[-7,5],[-6,2],[-5,-2],[-5,3],[-2,1],[-4,1],[6,-30],[1,-16],[-2,-15],[-2,-8],[-5,-11],[-2,-6],[-1,-4],[1,-27],[4,-14],[0,-8],[-2,-7],[-6,-7],[-3,-8],[4,-8],[2,-7],[-5,-5],[-6,-6],[-4,-7],[3,-2],[13,-4],[4,-2],[3,-10],[-4,-5],[-6,-3],[-3,-2],[1,-8],[3,-7],[4,-5],[2,-6],[4,-47],[4,-10],[12,-8],[11,3],[7,11],[2,19],[6,15],[13,0],[26,-13],[-2,26],[3,11],[24,7],[6,9],[0,11],[-6,12],[-3,-3],[-4,-4],[-3,-3]],[[2123,1833],[-3,7],[-2,3],[-4,3],[0,-12],[2,-13],[4,-13],[10,-16],[1,-5],[2,-4],[9,-2],[6,-2],[3,-5],[2,-7],[1,-6],[-2,-8],[-4,-2],[-5,0],[-3,-6],[-1,-6],[4,-10],[2,-18],[5,-15],[8,-10],[11,-1],[6,16],[-1,80],[-6,21],[-11,12],[-34,19]],[[2194,1882],[-1,6],[-1,4],[-2,3],[-6,2],[-6,-12],[-10,-11],[-7,-10],[3,-13],[-16,-3],[-3,-5],[6,-9],[6,-4],[25,-8],[0,9],[12,51]],[[2753,1215],[-15,7],[-5,-17],[0,-37],[4,-6],[8,8],[10,18],[6,4],[8,3],[9,1],[10,-1],[-6,9],[-19,4],[-10,7]],[[2638,706],[-6,2],[-24,-2],[5,0],[-13,-3],[-7,-8],[-7,-7],[-13,3],[11,-11],[15,-5],[17,3],[22,15],[7,3],[2,3],[-9,7]],[[3237,2924],[-6,-14],[-13,-3],[-43,11],[-19,2],[-17,-3],[-7,-8],[4,-13],[6,-14],[1,-13],[-11,-13],[8,-15],[3,-27],[4,-14],[7,2],[34,4],[6,-1],[6,0],[5,3],[2,5],[0,6],[2,4],[21,10],[6,20],[2,23],[6,21],[8,8],[-4,10],[-7,8],[-4,1]],[[3212,3078],[-7,1],[-14,-1],[-7,1],[-7,3],[-3,-7],[-10,-15],[0,-5],[14,-16],[3,-8],[-4,-9],[8,-7],[40,-17],[18,-10],[8,-6],[-7,57],[-9,24],[-23,15]],[[2947,663],[3,6],[5,2],[7,1],[5,3],[3,9],[1,10],[-7,21],[-11,27],[0,36],[-17,38],[-5,-5],[-3,-13],[-1,-14],[-2,-7],[-4,-3],[-5,-3],[-4,-4],[0,-5],[1,-13],[-1,-8],[-7,-10],[-8,-9],[-2,-10],[24,-23],[10,-31],[8,-13],[6,4],[3,3],[1,4],[0,7]],[[3030,461],[-14,-13],[6,-15],[7,-2],[4,-11],[11,-11],[8,4],[7,10],[3,11],[-5,13],[0,12],[1,5],[0,9],[6,8],[5,6],[-2,12],[-9,-8],[-18,-7],[-10,-23]],[[3113,551],[7,10],[3,9],[-7,6],[-5,3],[1,6],[-15,7],[-8,7],[-6,11],[-6,16],[-6,3],[-7,0],[1,-5],[4,-6],[-11,0],[-7,-1],[-9,-13],[-12,-10],[-11,-2],[-25,3],[-11,7],[-24,1],[-14,-6],[-18,7],[1,-31],[3,-13],[6,-10],[13,1],[19,-4],[12,-4],[2,-19],[-4,-13],[9,-36],[6,3],[9,4],[9,9],[12,0],[10,12],[11,14],[14,4],[14,1],[3,-18],[12,-7],[3,10],[10,6],[6,7],[10,3],[8,4],[-1,6],[-3,7],[-8,11]],[[1635,2805],[-15,12],[3,15],[13,8],[17,-4],[3,-5],[1,-5],[-2,-6],[-2,-5],[-6,0],[-7,2],[-5,-1],[0,-11]],[[1939,2495],[-6,4],[-14,2],[-6,-11],[3,-23],[0,-19],[-4,-16],[2,-15],[6,-15],[6,-1],[17,43],[10,17],[3,15],[-9,14],[-8,5]],[[2750,4096],[-3,-8],[-9,-9],[-3,-12],[-12,-19],[0,-12],[3,-21],[-6,-27],[0,-22],[-27,-21],[-33,-33],[-12,-25],[-9,-6],[-9,-21],[-12,-9],[-18,-27],[-9,-22],[15,-21],[0,-52],[-3,-6]],[[2603,3723],[-12,-15],[-9,-21],[-12,-18],[-30,-6],[0,-19],[-3,-18],[6,-30]],[[2543,3596],[-33,0],[-36,3],[-24,0],[-15,-3],[-18,-12],[-12,-3],[-9,6],[-6,24],[-12,6],[-24,-6],[-21,0]],[[2543,3596],[12,-31],[-9,-30],[0,-24],[-3,-12],[-12,-16],[-12,-24],[-6,-21],[0,-15],[15,-25],[0,-9]],[[2528,3389],[-3,-15],[0,-36],[-3,-15],[-9,-22],[-3,-30],[-6,-21],[0,-19],[3,-33]],[[2687,2576],[9,5],[6,13],[9,6]],[[2669,2569],[9,0],[9,7]],[[2645,2566],[12,6],[12,-3]],[[2645,2566],[-21,0],[-21,-3],[-12,6],[-9,9],[-18,34],[-6,21],[6,9],[0,28],[3,21],[3,27],[12,18],[3,19],[9,15],[18,9],[3,6],[-3,45],[-6,19],[-3,30],[6,27],[-3,10],[-21,-10],[-12,0],[-3,6],[0,31],[-3,18],[-9,12],[9,15],[0,16],[-6,18],[-27,6],[-3,27],[-18,0],[-3,6],[0,34],[-9,15],[3,21],[-3,34],[6,33]],[[2711,2600],[9,1]],[[2720,2601],[15,2],[42,3],[42,9],[15,0],[27,-9],[42,6],[18,-6],[15,-12],[27,-16],[24,-24],[9,-6],[24,-3],[18,-12],[34,-27]],[[2011,2638],[0,-2],[2,0]],[[2029,2474],[-9,-11],[-6,-12],[9,-21],[-2,-11]],[[2027,2621],[0,-2]],[[2155,3025],[-14,-21],[-1,-5]],[[2213,3278],[0,-1],[-9,-15],[0,-3]],[[2289,3456],[-3,-11]],[[2021,2419],[-1,-2],[-9,-9],[-6,-12]],[[2140,2999],[-2,-29],[-13,-15],[0,-21],[13,-12],[24,3],[3,-6],[-18,-28],[-31,-12],[-18,-27],[-6,-18],[-9,-13],[-18,-15],[-9,-3],[-9,-18],[-9,-9],[0,-18],[-15,-25],[-6,-27],[0,-36],[-6,-22],[0,-10]],[[2013,2636],[10,-3],[4,-12]],[[2027,2619],[2,-7],[15,-6],[18,-18],[3,-7],[-3,-15],[-9,-15],[-18,-21],[-3,-9],[6,-19],[-6,-18],[0,-6],[-3,-4]],[[2204,3259],[3,-15],[-18,-37],[0,-61],[-15,-24],[-3,-18],[-12,-31],[-3,-24],[3,-12],[-3,-12],[-1,0]],[[2286,3445],[-1,-7],[-3,-21],[-18,-28],[-3,-18],[-21,-18],[-6,-21],[-9,-22],[-9,-15],[-3,-17]],[[2333,3611],[-9,-24],[-9,-28],[-15,-30],[0,-6],[6,-24],[-6,-16],[-9,-21],[-2,-6]],[[2005,2396],[9,-36],[-6,-28],[0,-6],[12,-3],[21,0],[0,15],[12,19],[15,9],[12,3],[24,15],[3,24],[6,3],[21,-3],[10,0],[21,9],[21,-3],[48,-18],[12,0],[27,-21],[9,0],[21,-6],[18,6],[24,21],[9,6],[15,-3],[12,9],[3,12],[30,16],[21,0],[3,6],[18,-3],[15,18],[12,15],[6,24],[12,3],[12,13],[9,6],[9,-3],[21,3],[18,0],[12,9],[15,0],[27,12],[21,-3],[6,3],[3,12],[-9,15]],[[3157,2093],[5,-16]],[[3072,2506],[24,-16],[12,-15],[6,-12],[3,-58],[-3,-27],[6,-15],[9,-25],[0,-24],[6,-15],[-3,-12],[3,-27],[15,-31],[3,-12],[0,-79],[3,-39],[1,-6]],[[3165,2065],[-3,12]],[[3165,2065],[0,-3]],[[3165,2062],[6,-24]],[[1948,1959],[-9,39],[-3,28],[-3,9],[-18,15],[-3,9],[6,12],[-3,25],[27,48],[-3,9],[-9,6],[-9,12],[0,25],[-15,12],[0,12],[6,12],[3,21],[-6,16],[6,12],[0,15],[9,42],[6,10],[0,18],[6,12],[18,9],[27,12],[24,-3]],[[1948,1959],[0,-49]],[[3090,1892],[3,18],[9,18],[12,13],[9,18],[12,45],[6,16],[12,9],[18,9]],[[3090,1892],[-6,-21],[-9,-9],[-18,-3],[-28,-6],[-30,27],[-24,12],[-15,-3],[-12,-21]],[[3171,2038],[6,-43],[12,-33],[18,-40],[9,-33],[27,-33],[21,-28]],[[2049,2007],[7,13],[2,6]],[[1948,1959],[36,-3],[18,24],[33,12],[12,12],[2,3]],[[2058,2026],[4,21],[12,18],[21,0],[9,9],[12,25],[-9,30],[0,9],[9,18],[6,6],[19,3],[21,-3],[27,-21],[12,-6],[27,-3],[12,-6],[18,-9],[9,-12],[6,-19],[0,-24],[6,-15],[3,-21],[12,-16],[9,-21],[15,-24],[3,-15],[0,-37],[3,-9],[24,-21],[27,-49],[12,-6],[9,-3]],[[2397,1796],[-1,-4]],[[2396,1825],[6,-18],[-5,-11]],[[3402,1777],[0,9],[-36,9],[-21,0],[-21,18],[-12,6],[-36,0],[-12,9]],[[2014,1697],[-3,-11],[6,-13],[0,-6]],[[1951,1892],[12,-27],[3,-28],[6,-27],[0,-39],[15,-22],[15,-12],[12,-27],[0,-12],[0,-1]],[[2915,1600],[-3,25],[0,33],[-3,28],[0,30],[9,36],[9,52],[21,64]],[[2816,1573],[36,12],[18,19],[12,3],[24,0],[9,-7]],[[2699,1561],[36,0],[27,-3],[54,15]],[[2396,1825],[15,9],[27,-6],[21,-21],[21,-18],[33,-6],[24,-12],[18,-16],[6,-15],[3,-30],[6,-15],[15,-37],[3,-27],[6,-12],[18,-12],[12,-28],[36,-18],[27,-3],[12,3]],[[3231,1470],[15,9]],[[2906,1433],[-9,49],[0,27],[-9,16],[3,15],[18,18],[6,42]],[[2906,1433],[42,3],[24,0]],[[2972,1436],[9,-3],[27,-12],[9,0],[12,12],[6,10],[31,15],[18,0],[18,-6],[21,-16],[9,4],[39,9],[36,15],[24,6]],[[3231,1470],[-6,-15],[-3,-15],[-3,-13],[3,-12],[6,-9],[15,-45]],[[3606,1172],[-15,21],[-18,10],[-6,15],[-18,27],[-21,40],[-18,42],[-15,43],[-9,60],[-9,25],[-6,30],[-6,15],[-3,28],[-6,36],[-9,24],[0,3],[-12,46],[-3,24],[-9,46],[-21,70]],[[3618,1175],[3,-9],[12,-27]],[[3243,1361],[-3,-25],[6,-15],[24,-15],[24,-43],[6,-24],[6,-9],[12,-12],[9,-28],[6,-3],[21,-27],[6,-6],[18,-3],[18,-18],[12,-6]],[[3366,1102],[30,13],[12,12]],[[3559,1020],[5,22]],[[3627,1137],[6,2]],[[3558,1014],[1,6]],[[3564,1042],[0,3],[-3,9],[6,18],[45,43],[12,21],[3,1]],[[3366,1102],[6,-18],[12,-18],[9,-21],[27,-37],[9,-9],[18,0],[39,6],[42,3],[30,6]],[[3513,856],[-6,16],[6,33],[6,46],[6,15],[9,9],[15,24],[9,15]],[[3513,856],[33,-3],[12,-6],[27,-21],[24,-3],[39,9],[30,0],[15,-12]],[[3985,808],[33,15],[3,3],[9,30],[6,16],[9,9],[9,18],[9,6],[33,8]],[[3873,817],[45,-6],[27,3],[34,-6],[6,0]],[[3366,1102],[-18,-12],[-18,-18],[-3,-9],[-18,-18],[-9,-28],[-9,-21],[-6,-18],[6,-37],[0,-9],[-21,-30],[-12,-21],[0,-9],[-12,-31],[-6,-21],[0,-15]],[[3693,820],[18,-12],[15,-6],[18,0],[18,0],[24,0],[30,3],[30,6],[9,6],[18,0]],[[3513,856],[3,-9],[-3,-33],[-21,-67]],[[3492,747],[-18,0],[-24,3],[-24,15],[-9,0]],[[3240,805],[9,-40],[-6,-15],[-6,-18],[0,-18]],[[3492,747],[-9,-33],[0,-9],[6,-34]],[[3489,671],[6,-33],[3,-6],[3,-37],[-9,-45],[-3,-49],[-6,-70],[-6,-36]],[[3476,393],[-5,-7],[-21,-25]],[[3477,395],[-1,-2]],[[3556,50],[-4,-11],[-9,-24]],[[3450,361],[-3,-5]],[[3447,356],[-3,-7],[3,-12],[18,-33],[24,-73],[6,-6],[6,-22],[12,-39],[12,-21],[21,-19],[12,-18],[3,-27],[0,-18],[-5,-11]],[[3543,15],[-7,-15]],[[14,0],[-14,0],[0,5],[14,-5]],[[3052,413],[-8,-4],[-11,11],[-4,11],[-7,2],[-6,15],[14,13],[10,23],[18,7],[9,8],[2,-12],[-5,-6],[-6,-8],[0,-9],[-1,-5],[0,-12],[5,-13],[-3,-11],[-7,-10]],[[3089,599],[8,-7],[15,-7],[-1,-6],[5,-3],[7,-6],[-3,-9],[-7,-10],[8,-11],[3,-7],[1,-6],[-8,-4],[-10,-3],[-6,-7],[-10,-6],[-3,-10],[-12,7],[-3,18],[-14,-1],[-14,-4],[-11,-14],[-10,-12],[-12,0],[-9,-9],[-9,-4],[-6,-3],[-9,36],[4,13],[-2,19],[-12,4],[-19,4],[-13,-1],[-6,10],[-3,13],[-1,31],[18,-7],[14,6],[24,-1],[11,-7],[25,-3],[11,2],[12,10],[9,13],[7,1],[11,0],[-4,6],[-1,5],[7,0],[6,-3],[6,-16],[6,-11]],[[2638,706],[9,-7],[-2,-3],[-7,-3],[-22,-15],[-17,-3],[-15,5],[-11,11],[13,-3],[7,7],[7,8],[13,3],[-5,0],[24,2],[6,-2]],[[2943,649],[-6,-4],[-8,13],[-10,31],[-24,23],[2,10],[8,9],[7,10],[1,8],[-1,13],[0,5],[4,4],[5,3],[4,3],[2,7],[1,14],[3,13],[5,5],[17,-38],[0,-36],[11,-27],[7,-21],[-1,-10],[-3,-9],[-5,-3],[-7,-1],[-5,-2],[-3,-6],[0,-7],[-1,-4],[-3,-3]],[[2543,1372],[-13,-9],[-16,10],[-15,17],[-19,43],[-2,7],[1,26],[-2,12],[-4,10],[1,2],[1,0],[1,1],[2,3],[5,0],[22,-22],[8,-4],[0,-27],[7,-27],[11,-24],[12,-18]],[[2543,1458],[-6,-1],[-7,1],[-5,4],[-2,3],[-2,5],[-4,3],[-5,2],[-4,3],[-18,30],[16,8],[28,-4],[14,-9],[2,-9],[0,-14],[-2,-14],[-5,-8]],[[2782,1204],[6,-9],[-10,1],[-9,-1],[-8,-3],[-6,-4],[-10,-18],[-8,-8],[-4,6],[0,37],[5,17],[15,-7],[10,-7],[19,-4]],[[1639,2779],[-3,-8],[-23,19],[-4,5],[2,6],[5,4],[5,2],[4,1],[9,-7],[4,-10],[1,-12]],[[1655,2820],[-2,-5],[-6,0],[-7,2],[-5,-1],[0,-11],[-15,12],[3,15],[13,8],[17,-4],[3,-5],[1,-5],[-2,-6]],[[3248,2915],[4,-10],[-8,-8],[-6,-21],[-2,-23],[-6,-20],[-21,-10],[-2,-4],[0,-6],[-2,-5],[-5,-3],[-6,0],[-6,1],[-34,-4],[-7,-2],[-4,14],[-3,27],[-8,15],[11,13],[-1,13],[-6,14],[-4,13],[7,8],[17,3],[19,-2],[43,-11],[13,3],[6,14],[4,-1],[7,-8]],[[2970,2876],[-16,-6],[-10,4],[22,17],[4,-15]],[[2182,1831],[0,-9],[-25,8],[-6,4],[-6,9],[3,5],[16,3],[-3,13],[7,10],[10,11],[6,12],[6,-2],[2,-3],[1,-4],[1,-6],[-12,-51]],[[1943,2444],[-17,-43],[-6,1],[-6,15],[-2,15],[4,16],[0,19],[-3,23],[6,11],[14,-2],[6,-4],[8,-5],[9,-14],[-3,-15],[-10,-17]],[[1944,2523],[-15,-5],[-14,1],[-10,9],[-1,10],[6,59],[0,5],[2,3],[7,3],[9,2],[7,-3],[10,-8],[9,-9],[7,-12],[3,-14],[1,-16],[-16,-15],[6,-5],[-11,-5]],[[3184,3079],[7,-1],[14,1],[7,-1],[23,-15],[9,-24],[7,-57],[-8,6],[-18,10],[-40,17],[-8,7],[4,9],[-3,8],[-14,16],[0,5],[10,15],[3,7],[7,-3]],[[2033,3032],[-14,-20],[-9,16],[3,11],[9,9],[7,14],[0,-4],[5,-16],[-1,-10]],[[1771,3079],[-14,-5],[-14,3],[-8,9],[6,14],[10,6],[12,-4],[8,-10],[0,-13]],[[1915,3274],[15,-5],[3,2],[2,1],[10,-3],[0,-5],[-12,2],[-4,-2],[0,-5],[1,-4],[4,-6],[6,-3],[4,-4],[-5,-8],[-14,-4],[-8,-12],[-5,-13],[-5,-6],[-12,-5],[-25,-16],[-10,1],[-3,-9],[-3,-6],[-2,-6],[2,-5],[-18,-30],[-9,-8],[-2,13],[-8,-2],[-2,15],[0,20],[2,10],[3,7],[2,21],[10,2],[5,5],[3,6],[2,2],[4,3],[3,6],[3,6],[2,5],[6,5],[19,11],[21,18],[15,6]],[[1872,3280],[-7,-21],[0,58],[-2,5],[-7,9],[-2,6],[3,9],[5,6],[2,6],[-4,7],[0,5],[12,1],[19,-12],[14,-4],[0,-3],[-1,-1],[-2,0],[-2,-1],[-3,-4],[-2,-3],[0,-4],[5,-4],[-12,-6],[-7,-6],[-5,-8],[-4,-35]],[[1663,3577],[8,0],[4,0],[4,-4],[3,-5],[6,-13],[-3,-4],[-4,-3],[-5,-2],[-6,1],[6,-12],[4,-3],[-16,-8],[-12,3],[-3,11],[11,14],[-5,9],[-3,14],[2,12],[11,5],[-7,-11],[5,-4]],[[2132,3842],[-8,-27],[-11,-7],[-13,-1],[-8,6],[5,9],[6,2],[6,0],[4,1],[1,7],[-2,5],[-5,2],[-7,-1],[-6,-3],[0,10],[-4,10],[-3,11],[0,11],[2,7],[18,-8],[17,-14],[8,-20]],[[1891,3911],[3,-15],[1,-14],[3,-13],[9,-8],[10,-7],[7,-9],[3,-14],[0,-14],[4,-11],[14,-2],[-7,-10],[-3,-9],[2,-8],[8,-8],[-4,1],[-1,-2],[0,-2],[-1,-2],[-8,-16],[-7,-7],[-12,-2],[-10,3],[-4,8],[2,24],[3,-2],[2,-3],[11,9],[-3,7],[-13,9],[0,11],[6,23],[-1,12],[-3,2],[-10,3],[-2,2],[-1,7],[0,4],[-2,3],[-13,16],[-14,13],[-2,-3],[-2,-4],[-2,-3],[-4,25],[-7,4],[-7,0],[-5,-3],[-1,-8],[-5,-5],[-23,-15],[-7,-3],[-9,7],[6,12],[18,19],[2,3],[9,6],[4,3],[1,5],[3,13],[3,5],[9,3],[14,-2],[14,-6],[10,-8],[7,-11],[5,-13]],[[1663,3860],[-18,-10],[5,8],[3,7],[0,7],[-3,8],[4,21],[11,8],[15,0],[14,-4],[-7,-20],[-10,-15],[-14,-10]],[[2050,3939],[-5,0],[-3,9],[3,12],[7,7],[6,-1],[1,-11],[-3,-9],[-6,-7]],[[2124,3956],[1,-21],[-1,-4],[-6,-3],[-3,5],[-1,7],[0,6],[-7,-3],[-5,-4],[-2,-6],[-1,-8],[-16,7],[-6,13],[1,15],[6,11],[12,9],[4,5],[4,6],[1,7],[-2,13],[1,5],[7,12],[6,-2],[4,-11],[5,-27],[0,-12],[-2,-20]],[[1880,3584],[-10,-1],[-6,14],[4,11],[9,6],[11,3],[12,1],[-1,-2],[-2,-3],[-1,-2],[-5,-16],[-11,-11]],[[4096,946],[0,-946],[-657,0],[-3,39],[7,-3],[9,-2],[8,1],[6,4],[1,7],[-5,5],[-7,3],[-4,4],[8,86],[-19,148],[-6,13],[-11,14],[-9,16],[-13,33],[-26,48],[-9,29],[-11,12],[-24,16],[-18,24],[-16,32],[-11,34],[-5,32],[-3,13],[-5,16],[-8,12],[-14,4],[9,24],[1,11],[-7,5],[-10,-2],[-5,-6],[-7,-16],[-24,20],[-21,25],[-3,6],[-2,9],[-3,7],[-5,3],[-9,-5],[-5,-1],[-3,3],[2,6],[7,9],[1,3],[-2,8],[-6,12],[-2,8],[-3,3],[-7,-1],[-7,1],[-3,7],[-3,14],[-8,9],[-19,15],[-18,27],[-11,11],[-13,-5],[-7,-1],[-5,10],[-6,19],[-5,7],[-4,3],[-63,24],[-18,17],[0,29],[3,14],[4,1],[11,0],[2,4],[0,7],[-4,6],[-8,4],[-12,6],[1,14],[3,15],[-5,10],[12,24],[8,12],[8,5],[2,4],[20,28],[-5,8],[-13,-4],[-13,-8],[-9,-3],[-11,5],[-4,9],[0,26],[-25,-15],[-12,-10],[-5,0],[-3,10],[-5,0],[-14,4],[-19,31],[-13,34],[4,16],[15,9],[14,21],[9,27],[4,24],[-4,0],[-21,-40],[-14,-15],[-18,7],[-3,12],[3,32],[-3,10],[-9,1],[-8,-11],[-5,-14],[-2,-12],[3,-26],[-3,-10],[-13,-5],[-7,2],[-11,5],[-10,6],[-4,5],[-4,3],[-21,3],[-10,6],[-9,12],[-21,35],[6,12],[2,17],[-3,33],[-2,5],[-7,12],[-1,9],[-4,1],[-15,0],[-6,2],[9,15],[-1,16],[-5,19],[-5,33],[-5,1],[-7,-3],[-6,-1],[-6,3],[-8,5],[-2,5],[9,2],[3,5],[-5,10],[-9,11],[-10,4],[-11,2],[-6,4],[-10,14],[-15,11],[-14,8],[-11,10],[-5,17],[-5,0],[-2,-25],[-7,-20],[-15,-10],[-26,5],[-16,17],[-4,49],[-10,19],[30,24],[5,9],[1,14],[5,22],[-1,12],[-14,-14],[-7,-3],[-9,2],[-4,4],[-11,19],[-5,5],[-12,4],[-12,6],[-5,15],[1,8],[1,4],[0,4],[-2,7],[-5,6],[-12,6],[-6,5],[-4,8],[-1,5],[-3,2],[-9,-2],[-5,-4],[-5,-13],[-3,-3],[-11,-3],[-11,-6],[-10,-4],[-11,3],[-3,5],[-5,16],[-4,7],[-9,5],[-4,-3],[-2,-6],[-2,-4],[-10,-8],[-4,0],[-1,11],[-2,6],[-10,10],[-3,6],[-2,14],[2,36],[-3,10],[3,24],[0,12],[-3,12],[-12,28],[-11,-20],[-4,0],[-3,53],[-5,8],[-13,-4],[-22,-14],[-7,3],[-5,0],[0,-5],[-5,0],[-2,8],[3,39],[4,7],[12,8],[6,10],[-10,5],[-16,3],[-12,5],[-3,-16],[-10,-5],[-13,-1],[-12,-5],[-7,-8],[-12,-10],[-11,-4],[-7,9],[-5,0],[-1,-9],[-4,-4],[-5,0],[-5,8],[-5,0],[0,-10],[-15,2],[-13,-6],[-4,-8],[22,-9],[3,-12],[0,-14],[4,-11],[0,-20],[-12,-31],[-15,-19],[-10,12],[-4,0],[-1,-7],[-2,-5],[-8,-9],[-11,11],[-14,25],[-18,7],[-3,6],[-3,5],[-8,2],[-8,1],[-6,1],[-5,3],[-4,5],[-2,11],[0,31],[-5,11],[-7,11],[-14,69],[-31,94],[-1,16],[3,13],[5,6],[3,-7],[1,-14],[6,-10],[18,-19],[4,15],[-7,9],[-10,7],[-7,10],[-1,4],[2,4],[2,3],[2,3],[-1,12],[1,4],[8,23],[2,7],[-2,16],[-11,29],[-2,10],[3,7],[5,4],[6,4],[6,5],[2,5],[1,5],[3,46],[4,16],[16,25],[7,29],[14,20],[9,18],[6,3],[3,-2],[10,-2],[9,0],[-2,7],[-2,9],[7,10],[17,19],[-21,-9],[-14,-4],[-7,6],[-2,19],[8,8],[18,1],[12,6],[-9,23],[-21,28],[-9,17],[-4,18],[-1,15],[3,-4],[10,-3],[6,2],[6,5],[10,13],[-13,7],[0,11],[6,12],[2,10],[9,12],[6,14],[10,46],[5,13],[15,26],[13,65],[10,21],[22,-15],[24,19],[8,9],[-2,7],[-5,1],[-14,-2],[-6,1],[-3,3],[-3,10],[-2,2],[-14,6],[6,12],[13,10],[8,0],[1,3],[7,9],[2,3],[-2,5],[-13,18],[12,0],[2,7],[-5,7],[-9,6],[5,5],[11,-7],[11,-5],[10,2],[3,13],[3,0],[6,7],[3,7],[-4,3],[-15,0],[-7,2],[-6,4],[-4,-5],[0,-3],[-1,-3],[-5,0],[1,6],[0,16],[-1,3],[6,6],[6,2],[6,0],[7,2],[10,8],[8,8],[6,11],[6,14],[-6,-6],[-12,-15],[-7,-4],[-6,1],[-4,5],[-3,6],[-13,8],[6,13],[11,14],[9,8],[4,-6],[4,-2],[6,0],[6,3],[-4,5],[11,8],[3,8],[-3,2],[-5,2],[-5,3],[1,4],[8,7],[5,9],[6,4],[16,0],[7,3],[1,8],[-7,3],[-8,-1],[-1,-4],[-8,10],[0,5],[3,10],[32,55],[11,12],[20,57],[17,32],[5,16],[4,18],[1,15],[3,14],[11,28],[1,15],[-6,-2],[-3,-3],[-3,-4],[-9,-19],[-12,-36],[-5,-29],[-6,-11],[-16,-17],[-15,-23],[-40,-83],[-21,-29],[-13,-11],[-6,7],[-1,7],[-7,11],[-2,6],[-1,7],[1,15],[0,7],[-5,24],[0,33],[-15,24],[-2,9],[-1,5],[1,5],[12,30],[3,12],[4,34],[8,26],[0,15],[-12,44],[-13,21],[0,15],[5,32],[-4,30],[-23,54],[-3,32],[0,31],[3,10],[9,4],[16,-2],[10,-6],[12,-22],[8,8],[-1,10],[-5,10],[-7,7],[8,4],[8,-1],[8,-5],[7,-8],[4,11],[6,21],[4,8],[12,17],[2,11],[-4,13],[7,-1],[7,2],[6,3],[5,6],[-8,3],[-18,1],[-7,3],[-3,5],[-2,6],[2,5],[23,6],[9,8],[6,9],[10,4],[4,-1],[8,-7],[7,-2],[1,2],[10,4],[11,2],[2,-3],[4,9],[3,13],[1,14],[-4,10],[6,4],[-5,7],[-12,10],[-3,4],[2,8],[4,4],[5,2],[6,3],[4,10],[-3,10],[-5,13],[-3,16],[-13,-4],[-9,6],[-13,23],[32,8],[16,10],[6,14],[0,2],[574,0],[-4,-4],[-5,-8],[-5,-10],[-4,-12],[-2,-13],[3,-16],[10,-26],[3,-13],[-2,-15],[-7,-17],[-3,-8],[-4,-13],[2,-17],[11,-31],[3,-16],[-3,-11],[-6,1],[-5,5],[-2,3],[-13,0],[-11,-1],[-7,-1],[-6,-4],[-2,-7],[0,-30],[-4,-13],[-43,-66],[-3,-7],[2,-8],[2,-5],[-2,-3],[-9,-1],[-13,-3],[-12,-9],[-10,-12],[-8,-12],[-5,-15],[-5,-35],[-8,-13],[-8,-3],[-9,-1],[-7,-4],[-3,-9],[1,-6],[5,-3],[6,-2],[8,0],[-5,-9],[-7,-8],[-6,-9],[-2,-11],[4,-10],[23,-15],[8,-8],[1,-10],[-1,-13],[-3,-12],[-5,-6],[-10,0],[-6,0],[-16,-10],[-2,10],[-6,6],[-7,5],[-10,5],[-11,-5],[-9,-1],[-8,-2],[-7,-8],[0,-8],[5,-32],[8,-11],[27,-24],[13,-17],[9,-2],[13,4],[-9,-15],[-30,-3],[-6,-10],[-4,-18],[-20,-32],[-6,-19],[1,-20],[7,-13],[8,-11],[4,-13],[-2,-9],[-11,-7],[-2,-10],[5,-32],[0,-58],[1,-2],[2,-3],[2,-3],[0,-5],[-3,-4],[-9,-7],[-3,-5],[-2,-7],[-2,-7],[-1,-13],[0,-3],[2,-15],[11,-30],[3,-28],[4,-17],[7,-16],[22,-34],[4,-11],[2,-17],[2,-13],[31,-56],[42,-55],[-6,-1],[-3,0],[-4,1],[-5,0],[-6,-1],[0,-3],[1,-3],[-2,-3],[-18,-10],[-7,-5],[-14,-15],[-4,-13],[3,-30],[15,-34],[34,-7],[36,-3],[20,-19],[24,2],[24,0],[22,4],[20,14],[5,11],[4,13],[5,13],[11,8],[9,1],[33,-6],[12,3],[10,5],[7,5],[6,2],[22,5],[12,9],[1,1],[27,-1],[5,-1],[4,6],[10,-1],[14,-5],[7,-3],[4,3],[7,4],[5,3],[8,-8],[28,-12],[1,-7],[-1,-8],[5,-12],[13,-23],[6,5],[0,-56],[4,-14],[6,-10],[6,-8],[6,-9],[2,-11],[0,-36],[2,-7],[7,-12],[1,-9],[-1,0],[-4,-4],[-3,-6],[-2,-5],[0,-18],[9,-56],[-4,-12],[10,-22],[14,-144],[6,-23],[12,-20],[41,-25],[7,-11],[3,-12],[16,-32],[12,-18],[4,-14],[5,-7],[5,-3],[16,-7],[4,-2],[4,-9],[10,-2],[11,2],[9,6],[-6,21],[-2,30],[-7,26],[-25,9],[14,7],[22,-16],[20,-24],[9,-15],[37,-97],[23,-146],[29,-133],[18,-83],[6,-27],[47,-230],[44,-105],[39,-62],[10,-15],[5,-15],[0,-10],[-19,1],[-9,10],[-26,24],[-15,8],[-5,4],[-21,-1],[-13,7],[9,20],[-7,23],[-5,33],[-10,6],[1,59],[-3,51],[-12,28],[-22,9],[-24,-3],[-17,-25],[-5,-12],[-4,-4],[-8,4],[-5,5],[-2,5],[0,6],[0,9],[4,14],[25,15],[10,14],[3,29],[-5,38],[-10,37],[-13,23],[-14,5],[-14,-3],[-7,-2],[-7,-3],[-15,-3],[-7,-6],[-32,-29],[-9,-10],[-1,-14],[8,-62],[13,-36],[5,-27],[5,-12],[8,-5],[2,-3],[15,-13],[4,-5],[2,-3],[23,-60],[14,-23],[17,-15],[16,-2],[18,0],[15,-5],[7,-16],[0,-1],[0,-16],[1,-9],[3,-7],[7,-5],[10,-1],[7,-3],[7,-6],[-12,-6],[-7,-3],[-4,-3],[-3,-5],[3,-8],[5,-6],[6,-4],[10,-20],[9,-8],[10,-3],[11,1],[9,-8],[6,-5],[6,-2],[18,-1],[9,1],[18,6],[18,17],[5,8],[-2,21],[0,12],[19,-23],[112,-154],[14,-12],[20,-7],[11,-4],[17,7],[12,-11],[21,-20],[38,-29],[36,-17],[21,-1],[31,1],[89,3],[30,14],[9,16],[4,-1]],[[1940,1895],[5,-3],[5,2],[6,-2],[7,-5],[7,-6],[4,-10],[6,-35],[4,0],[8,7],[10,-6],[11,-11],[12,-10],[5,9],[7,4],[7,-3],[5,-10],[0,-12],[-5,-12],[-10,-16],[0,-6],[1,-14],[-1,-6],[-3,-3],[-4,-2],[-5,-3],[-3,-7],[0,-13],[3,-14],[5,-13],[7,-10],[3,3],[4,4],[3,3],[6,-12],[0,-11],[-6,-9],[-24,-7],[-3,-11],[2,-26],[-26,13],[-13,0],[-6,-15],[-2,-19],[-7,-11],[-11,-3],[-12,8],[-4,10],[-4,47],[-2,6],[-4,5],[-3,7],[-1,8],[3,2],[6,3],[4,5],[-3,10],[-4,2],[-13,4],[-3,2],[4,7],[6,6],[5,5],[-2,7],[-4,8],[3,8],[6,7],[2,7],[0,8],[-4,14],[-1,27],[1,4],[2,6],[5,11],[2,8],[2,15],[-1,16],[-6,30],[4,-1],[2,-1]],[[2120,1840],[3,-7],[34,-19],[11,-12],[6,-21],[1,-80],[-6,-16],[-11,1],[-8,10],[-5,15],[-2,18],[-4,10],[1,6],[3,6],[5,0],[4,2],[2,8],[-1,6],[-2,7],[-3,5],[-6,2],[-9,2],[-2,4],[-1,5],[-10,16],[-4,13],[-2,13],[0,12],[4,-3],[2,-3]],[[2933,994],[1,30],[21,0],[5,-73],[25,1],[-11,-41],[57,-15],[24,-59],[-114,21],[-8,136]],[[2740,1092],[21,-1],[0,38],[33,0],[14,-62],[26,0],[1,-79],[-38,1],[-23,65],[-33,1],[-1,37]],[[2273,1500],[0,135],[53,0],[0,-135],[-53,0]],[[2285,1563],[2,-3],[19,-5],[-3,9],[-18,-1]],[[2285,1581],[5,-4],[5,1],[-8,5],[-2,-2]],[[2264,1848],[17,2],[-6,-6],[-6,-31],[19,-42],[-11,72],[36,-16],[-14,-27],[26,-15],[0,31],[7,-39],[67,19],[-10,-48],[-60,1],[0,-55],[-64,1],[-1,153]],[[2551,3464],[19,2],[-7,48],[31,10],[9,-18],[26,11],[1,-38],[23,9],[1,-10],[-53,0],[1,-46],[38,0],[9,-26],[-28,-71],[-26,0],[-10,-76],[-18,68],[30,58],[36,16],[-72,27],[-10,36]],[[1959,2797],[1,81],[86,0],[13,88],[20,0],[-1,29],[6,-3],[-5,7],[0,53],[-40,20],[0,73],[53,0],[-18,52],[52,-20],[0,-30],[38,-2],[-23,-78],[15,-43],[-43,-69],[-11,15],[-4,-23],[-28,-3],[18,-30],[-36,-48],[-44,-174],[-22,4],[21,102],[-48,-1]],[[2044,3102],[6,-4],[9,9],[-9,-26],[9,-7],[13,53],[-14,9],[-14,-34]],[[2124,3093],[18,7],[1,14],[-5,-4],[-10,3],[-4,-20]],[[2098,3068],[5,-18],[-3,-5],[3,1],[3,11],[-4,10],[6,6],[-10,-5]],[[2109,3050],[5,-2],[5,23],[-3,0],[-7,-21]],[[2137,3119],[3,-4],[3,0],[4,-3],[-7,13],[-3,-6]],[[2134,3124],[1,-8],[3,-3],[-3,7],[2,11],[-3,-7]],[[3548,0],[-13,0],[-10,11],[24,48],[33,-41],[-34,-18]],[[3468,345],[-30,15],[17,43],[38,-17],[-25,-41]],[[3572,1039],[-7,-23],[-24,16],[-57,-16],[25,49],[63,-26]],[[3633,1128],[-18,28],[-3,28],[37,-48],[-16,-8]],[[2027,1695],[23,-23],[-30,-16],[-1,-37],[-33,13],[-6,71],[47,-8]],[[3170,2054],[-17,27],[8,23],[24,-33],[-15,-17]],[[2740,2587],[-46,-23],[-10,6],[26,38],[30,-21]],[[2603,3585],[-12,22],[28,19],[-2,-13],[-14,-28]],[[2164,3071],[37,62],[-2,62],[24,-1],[-3,-92],[33,78],[-12,29],[29,0],[16,53],[-15,21],[37,3],[13,-25],[18,39],[-36,1],[49,62],[-78,3],[-1,23],[94,-13],[10,-29],[-31,-16],[14,-27],[-26,-56],[28,-22],[27,27],[-42,9],[5,17],[66,22],[4,-33],[25,12],[-5,-41],[-55,-45],[-19,20],[2,-38],[-23,39],[19,-43],[-43,-43],[-4,32],[-33,-14],[-8,-29],[23,7],[9,-7],[-52,-26],[11,-13],[-33,-4],[-5,35],[-9,-57],[-10,22],[-27,-35],[-21,31]],[[2384,3240],[18,-8],[14,35],[-26,-5],[8,-22],[-14,0]],[[2419,3256],[6,-5],[6,5],[-7,5],[-5,-5]],[[2153,3221],[86,164],[40,121],[11,-54],[-80,-155],[1,-23],[29,57],[0,-112],[-34,-18],[25,20],[-23,-8],[6,60],[-35,-49],[28,62],[-54,-65]],[[2622,1308],[68,8],[0,60],[-26,35],[44,-27],[16,-51],[15,36],[58,-3],[16,23],[-12,-77],[-31,43],[-1,-34],[-7,23],[-24,-6],[10,-41],[-28,24],[40,-89],[-41,35],[-61,0],[0,-35],[-22,0],[-1,41],[29,0],[0,21],[-42,14]],[[2043,1994],[18,39],[42,15],[12,-78],[80,-70],[0,-32],[-16,11],[-50,-52],[-15,15],[-11,-31],[-48,34],[-12,149]],[[1894,2496],[1,95],[46,104],[70,-8],[-8,-40],[25,-28],[-29,0],[-8,-35],[41,-31],[-20,-13],[21,-22],[-9,-100],[-58,9],[8,-16],[-37,-18],[-8,50],[34,42],[-69,11]]]}