{"objects":{"water":{"type":"GeometryCollection","geometries":[]},"buildings":{"type":"GeometryCollection","geometries":[]},"places":{"type":"GeometryCollection","geometries":[{"type":"Point","properties":{"kind":"locality","name:en":"Vorukh","name":"\u0412\u043e\u0440\u0443\u0445 (Vorukh)","kind_detail":"town","name:cs":"Voruch","name:tg":"\u0412\u043e\u0440\u0443\u0445","source":"openstreetmap.org","min_zoom":8.0,"int_name":"Vorukh","name:ru":"\u0412\u043e\u0440\u0443\u0445","id":271661354,"population":31000},"coordinates":[741,3882]},{"type":"Point","properties":{"name:fa":"\u062c\u0631\u06af\u0647\u200c\u062a\u0627\u0644","kind":"locality","name:en":"Jirgatol","name":"\u04b6\u0438\u0440\u0433\u0430\u0442\u043e\u043b","kind_detail":"town","source":"openstreetmap.org","min_zoom":8.0,"int_name":"Jirgatol","name:ru":"\u0414\u0436\u0438\u0440\u0433\u0430\u0442\u0430\u043b\u044c","id":448561079,"population":12700},"coordinates":[1106,1060]}]},"transit":{"type":"GeometryCollection","geometries":[]},"pois":{"type":"GeometryCollection","geometries":[]},"boundaries":{"type":"GeometryCollection","geometries":[{"type":"LineString","properties":{"name:right:yo":"Kirgistani","name:left:la":"Tadzikistania","name:right:qu":"Kirkisuyu","alt_name:left:eo":"Ta\u011dikistano;Ta\u011dikio","name:right:yi":"\u05e7\u05d9\u05e8\u05d2\u05d9\u05d6\u05e1\u05d8\u05d0\u05df","name:right:hy":"\u0542\u0580\u0572\u0566\u057d\u057f\u0561\u0576","name:left:su":"Tajikistan","name:left:li":"Tadzjikistan","name:left:sw":"Tajikistan","name:left:sv":"Tadzjikistan","name:left:sq":"Taxhikistani","name:left:lb":"Tadjikistan","name:left:ss":"IThajiki","name:left:sr":"\u0422\u0430\u045f\u0438\u043a\u0438\u0441\u0442\u0430\u043d","name:left:sl":"Tad\u017eikistan","name:left:so":"Tadsjikistan","name:left:lt":"Tad\u017eikija","name:left:sh":"Tad\u017eikistan","name:left:lv":"Tad\u017eikist\u0101na","name:left:vo":"Tacikist\u00e4n","name:left:se":"Ta\u017eikistan","name:left:sa":"\u0924\u093e\u091c\u093f\u0915\u093f\u0938\u094d\u0925\u093e\u0928","name:right:he":"\u05e7\u05d9\u05e8\u05d2\u05d9\u05d6\u05e1\u05d8\u05df","name:left:hi":"\u0924\u093e\u091c\u093f\u0915\u093f\u0938\u094d\u0924\u093e\u0928","name:right:af":"Kirgisi\u00eb","name:right:ab":"\u049e\u044b\u0440\u0495\u044b\u0437\u0441\u04ad\u0430\u043d","name:left:ce":"\u0422\u0430\u0434\u0436\u0438\u043a\u0438\u0441\u0442\u0430\u043d","name:right:an":"Kirguizist\u00e1n","name:right:am":"\u12aa\u122d\u130a\u12dd\u1235\u1273\u1295","name:left:ca":"Tadjikistan","source":"openstreetmap.org","name:left:cy":"Tajikistan","name:right:ar":"\u0642\u0631\u063a\u064a\u0632\u0633\u062a\u0627\u0646","name:left:cu":"\u0422\u0430\u0434\u0436\u0438\u043a\u0438\u0441\u0442\u0430\u043d\u044a","name:left:cv":"\u0422\u0430\u0434\u0436\u0438\u043a\u0438\u0441\u0442\u0430\u043d","name:right:az":"Q\u0131r\u011f\u0131z\u0131stan","name:left:cs":"T\u00e1d\u017eikist\u00e1n","name:left:ka":"\u10e2\u10d0\u10ef\u10d8\u10d9\u10d4\u10d7\u10d8","name:left:yi":"\u05d8\u05d0\u05d3\u05d6\u05e9\u05d9\u05e7\u05d9\u05e1\u05d8\u05d0\u05df","name:left:km":"\u178f\u17b6\u1787\u17b8\u1782\u17b8\u179f\u17d2\u1790\u17b6\u1793","name:right:ht":"Kirgistan","name:left:ko":"\ud0c0\uc9c0\ud0a4\uc2a4\ud0c4","name:left:kn":"\u0ca4\u0c9c\u0cbf\u0c95\u0cbf\u0cb8\u0ccd\u0ca4\u0cbe\u0ca8\u0ccd","name:right:is":"Kirgisistan","name:right:rw":"Kirigizisitani","name:left:kk":"\u0422\u04d9\u0436\u0456\u043a\u0441\u0442\u0430\u043d","name:right:ru":"\u041a\u0438\u0440\u0433\u0438\u0437\u0438\u044f","name:left:ku":"Tac\u00eekistan","name:left:kw":"Pow Tajik","name:left:kv":"\u0422\u0430\u0434\u0436\u0438\u043a\u0438\u0441\u0442\u0430\u043d","name:right:ro":"K\u00e2rg\u00e2zstan","name:left:ru":"\u0422\u0430\u0434\u0436\u0438\u043a\u0438\u0441\u0442\u0430\u043d","name:right:ie":"Kirgizistan","name:right:id":"Kirgizstan","name:left:ky":"\u0422\u0430\u0436\u0438\u043a\u0441\u0442\u0430\u043d","name:right:ia":"Kyrgyzistan","name":"\u0422\u043e\u04b7\u0438\u043a\u0438\u0441\u0442\u043e\u043d - \u041a\u044b\u0440\u0433\u044b\u0437\u0441\u0442\u0430\u043d","name:right:hu":"Kirgiziszt\u00e1n","name:right:bn":"\u0995\u09bf\u09b0\u0997\u09bf\u099c\u09bf\u09b8\u09cd\u09a4\u09be\u09a8","name:right:bo":"\u0f40\u0f7a\u0f0b\u0f62\u0f7a\u0f0b\u0f42\u0f7a\u0f5b\u0f74\u0f0b\u0f66\u0f74\u0f4f\u0f7a\u0f53\u0f0d","name:right:hi":"\u0915\u093f\u0930\u094d\u0917\u093f\u091c\u093c\u0938\u094d\u0924\u093e\u0928","name:right:ba":"\u04a0\u044b\u0440\u0493\u044b\u0499\u0441\u0442\u0430\u043d","name:right:th":"\u0e1b\u0e23\u0e30\u0e40\u0e17\u0e28\u0e04\u0e35\u0e23\u0e4c\u0e01\u0e35\u0e0b\u0e2a\u0e16\u0e32\u0e19","name:right:bg":"\u041a\u0438\u0440\u0433\u0438\u0437\u0441\u0442\u0430\u043d","name:left:zh":"\u5854\u5409\u514b\u65af\u5766","name:right:br":"Kirgizstan","name:left:si":"\u0da7\u0da2\u0dd2\u0d9a\u0dd2\u0dc3\u0dca\u0dae\u0dcf\u0db1\u0dca","name:right:zh":"\u5409\u5c14\u5409\u65af\u65af\u5766","name:right:nn":"Kirgisistan","name:left:uz":"Tojikiston","name:right:nl":"Kirgizi\u00eb","name:right:fr":"Kirghizistan","name:left:sk":"Tad\u017eikistan","name:left:nv":"T\u02bcaji\u02bc Bik\u00e9yah","name:left:ur":"\u062a\u0627\u062c\u06a9\u0633\u062a\u0627\u0646","name:right:wo":"Kirgistaan","id:right":-178009,"name:left:uk":"\u0422\u0430\u0434\u0436\u0438\u043a\u0438\u0441\u0442\u0430\u043d","name:left:no":"Tadsjikistan","name:left:nl":"Tadzjikistan","name:right:gv":"Yn Chyrgistaan","alt_name:right:eo":"Kirgizistano;Kirgizio","name:right:fa":"\u0642\u0631\u0642\u06cc\u0632\u0633\u062a\u0627\u0646","name:right:nv":"K\u00ed\u00edgiz Bik\u00e9yah","name:left:ug":"\u062a\u0627\u062c\u0649\u0643\u0649\u0633\u062a\u0627\u0646","name:right:fi":"Kirgisia","name:left:eo":"Ta\u011dikujo","name:left:en":"Tajikistan","name:left:el":"\u03a4\u03b1\u03c4\u03b6\u03b9\u03ba\u03b9\u03c3\u03c4\u03ac\u03bd","kind_detail":"2","name:left:ee":"Tajikistan","alt_name:right:vi":"C\u01b0-r\u01a1-g\u01b0-xtan;Kirgizia","name:left:wo":"Tajikistaan","name:left:es":"Tayikist\u00e1n","name:left:ie":"Tadjikistan","name:left:eu":"Tajikistan","name:left:et":"Tad\u017eikistan","name:right:gu":"\u0a95\u0abf\u0ab0\u0acd\u0a97\u0abf\u0ab8\u0acd\u0aa4\u0abe\u0aa8","name:right:zh-min-nan":"Kyrgyzstan","name:right:ps":"\u0642\u0631\u063a\u0632\u0633\u062a\u0627\u0646","name:right:pt":"Quirguist\u00e3o","name:left:mk":"\u0422\u0430\u045f\u0438\u043a\u0438\u0441\u0442\u0430\u043d","name:left:tr":"Tacikistan","name:left:tt":"\u0422\u0430\u0497\u0438\u043a\u0441\u0442\u0430\u043d","name:left:mn":"\u0422\u0430\u0436\u0438\u043a\u0438\u0441\u0442\u0430\u043d","name:right:oc":"Quirguizstan","name:left:ml":"\u0d24\u0d3e\u0d1c\u0d3f\u0d15\u0d4d\u0d15\u0d3f\u0d38\u0d4d\u0d25\u0d3e\u0d7b","name:left:th":"\u0e1b\u0e23\u0e30\u0e40\u0e17\u0e28\u0e17\u0e32\u0e08\u0e34\u0e01\u0e34\u0e2a\u0e16\u0e32\u0e19","name:right:pa":"\u0a15\u0a3f\u0a30\u0a17\u0a3f\u0a1c\u0a3c\u0a38\u0a24\u0a3e\u0a28","name:left:zh-min-nan":"Tajikistan","name:left:tk":"T\u00e4jigistan","name:left:tl":"Tayikistan","name:right:ko":"\ud0a4\ub974\uae30\uc2a4\uc2a4\ud0c4","name:right:bs":"Kirgistan","name:right:gl":"Kirguizist\u00e1n","name:left:my":"\u1010\u102c\u1002\u103b\u1005\u103a\u1000\u1005\u1039\u1005\u1010\u1014\u103a\u1014\u102d\u102f\u1004\u103a\u1004\u1036","name:right:kn":"\u0c95\u0cbf\u0cb0\u0ccd\u0c97\u0cbf\u0cb8\u0ccd\u0ca5\u0cbe\u0ca8\u0ccd","name:right:pl":"Kirgistan","name:left:te":"\u0c24\u0c1c\u0c3f\u0c15\u0c3f\u0c38\u0c4d\u0c24\u0c3e\u0c28\u0c4d","name:right:os":"\u0425\u044a\u0438\u0440\u0433\u044a\u0438\u0437","name:right:or":"\u0b15\u0b3f\u0b30\u0b17\u0b3f\u0b1c\u0b38\u0b4d\u0b24\u0b3e\u0b28","name:left:pt":"Tajiquist\u00e3o","name:left:mr":"\u0924\u093e\u091c\u093f\u0915\u093f\u0938\u094d\u0924\u093e\u0928","name:left:da":"Tadsjikistan","name:left:de":"Tadschikistan","name:left:dz":"\u0f4f\u0f0b\u0f47\u0f42\u0f0b\u0f40\u0f72\u0f66\u0f72\u0f0b\u0f4f\u0f71\u0f53\u0f0b","name:right:ga":"An Chirgeast\u00e1in","name:right:ms":"Kyrgyzstan","name:left:dv":"\u078c\u07a6\u0796\u07a8\u0786\u07a8\u0790\u07b0\u078c\u07a7\u0782\u07b0","name:left:yo":"Tajikistan","name:right:ug":"\u0642\u0649\u0631\u063a\u0649\u0632\u0649\u0633\u062a\u0627\u0646","name:right:la":"Chirgisia","name:right:lb":"Kirgisistan","name:right:no":"Kirgisistan","name:right:uk":"\u041a\u0438\u0440\u0433\u0438\u0437\u0441\u0442\u0430\u043d","name:left:he":"\u05d8\u05d2'\u05d9\u05e7\u05d9\u05e1\u05d8\u05df","name:right:ln":"Kirghizist\u00e1ni","name:left:ps":"\u062a\u0627\u062c\u064a\u06a9\u0633\u062a\u0627\u0646","name:right:li":"Kirgizi\u00eb","name:right:lt":"Kirgizija","name:right:ur":"\u06a9\u0631\u063a\u06cc\u0632\u0633\u062a\u0627\u0646","name:right:lv":"Kirgizst\u0101na","name:left:hy":"\u054f\u0561\u057b\u056b\u056f\u057d\u057f\u0561\u0576","name:left:ta":"\u0ba4\u0b9c\u0bbf\u0b95\u0bbf\u0bb8\u0bcd\u0ba4\u0bbe\u0ba9\u0bcd","name:left:ht":"Tadjikistan","name:left:hu":"T\u00e1dzsikiszt\u00e1n","name:left:hr":"Tad\u017eikistan","name:left:ga":"An T\u00e1ids\u00edceast\u00e1in","name:left:it":"Tagikistan","name:left:gd":"Taidigeast\u00e0n","sort_rank":262,"name:right:gd":"C\u00ecorgastan","name:left:gl":"Taxiquist\u00e1n","name:left:gu":"\u0aa4\u0abe\u0a9c\u0abf\u0a95\u0abf\u0ab8\u0acd\u0aa4\u0abe\u0aa8","osm_relation":true,"name:left:gv":"Yn Tajikistaan","name:right:sd":"\u06aa\u0650\u0631\u06af\u0632\u0650\u0633\u062a\u0627\u0646\u064f","name:left":"\u0422\u043e\u04b7\u0438\u043a\u0438\u0441\u0442\u043e\u043d","name:right:es":"Kirguist\u00e1n","name:right:sr":"\u041a\u0438\u0440\u0433\u0438\u0441\u0442\u0430\u043d","name:right:eu":"Kirgizistan","name:right:et":"K\u00f5rg\u00f5zstan","name:right:vo":"Kirgist\u00e4n","name:left:os":"\u0422\u0430\u0434\u0436\u0438\u043a\u0438\u0441\u0442\u0430\u043d","name:left:or":"\u0b24\u0b3e\u0b1c\u0b3f\u0b15\u0b3f\u0b38\u0b4d\u0b24\u0b3e\u0b28","name:right:vi":"Kyrgyzstan","name:right:my":"\u1000\u102c\u1002\u103b\u1005\u1039\u1005\u1010\u1014\u103a\u1014\u102d\u102f\u1004\u103a\u1004\u1036","name:right:ee":"Kyrgyzstan","name:right:uz":"Qirg\u02bbiziston","alt_name:right:de":"Kirgisien","name:left:oc":"Tatgiquistan","name:right:na":"Kirgitan","name:right:eo":"Kirgizujo","name:right:en":"Kyrgyzstan","name:left:vi":"Tajikistan","name:left:nn":"Tadsjikistan","kind":"country","name:left:fa":"\u062a\u0627\u062c\u06cc\u06a9\u0633\u062a\u0627\u0646","name:left:ia":"Tajikistan","name:left:fo":"Tadsjikistan","name:right:sk":"Kirgizsko","name:left:fi":"Tad\u017eikistan","name:right:te":"\u0c15\u0c3f\u0c30\u0c4d\u0c17\u0c3f\u0c1c\u0c3f\u0c38\u0c4d\u0c24\u0c3e\u0c28\u0c4d","name:left:fr":"Tadjikistan","name:right:fy":"Kirgyzje","name:left:fy":"Tadzjikistan","name:left:br":"Tadjikistan","name:left:bs":"Tad\u017eikistan","name:right:mk":"\u041a\u0438\u0440\u0433\u0438\u0441\u0442\u0430\u043d","name:right:ja":"\u30ad\u30eb\u30ae\u30b9","name:right:sq":"Kirgistani","name:right:ss":"IKhirigi","name:left:ja":"\u30bf\u30b8\u30ad\u30b9\u30bf\u30f3","name:right:su":"Kirgistan","name:right:sw":"Kirgizia","name:right:sv":"Kirgizistan","name:right:sh":"Kirgistan","name:left:qu":"Tayiksuyu","name:left:ba":"\u0422\u0430\u0436\u0438\u043a\u0441\u0442\u0430\u043d","name:right:jv":"Kirgizstan","name:left:bg":"\u0422\u0430\u0434\u0436\u0438\u043a\u0438\u0441\u0442\u0430\u043d","name:right:so":"Qargistan","name:left:be":"\u0422\u0430\u0434\u0436\u044b\u043a\u0456\u0441\u0442\u0430\u043d","name:right:sa":"\u0915\u093f\u0930\u0917\u093f\u0938\u094d\u0925\u093e\u0928","name:right:sl":"Kirgizistan","name:left:jv":"Tajikistan","name:left:bo":"\u0f50\u0f0b\u0f47\u0f72\u0f0b\u0f41\u0f7a\u0f0b\u0f66\u0f72\u0f0b\u0f4f\u0f53\u0f0d","name:right":"\u041a\u044b\u0440\u0433\u044b\u0437\u0441\u0442\u0430\u043d","name:right:mr":"\u0915\u093f\u0930\u094d\u0917\u093f\u091d\u0938\u094d\u0924\u093e\u0928","name:right:ca":"Kirguizistan","name:right:se":"Kirgisistan","name:right:ml":"\u0d15\u0d3f\u0d7c\u0d17\u0d4d\u0d17\u0d3f\u0d38\u0d4d\u0d25\u0d3e\u0d7b","name:right:ce":"\u041a\u0438\u0440\u0433\u0438\u0437\u0438","id":-214626,"name:right:cy":"Kyrgyzstan","name:right:zh-yue":"\u5409\u723e\u5409\u65af","id:left":-214626,"min_zoom":8.0,"name:right:cs":"Kyrgyzst\u00e1n","name:left:na":"Tadjikitan","name:right:cv":"\u041a\u0438\u0440\u0433\u0438\u0437\u0438","name:right:ka":"\u10e7\u10d8\u10e0\u10d2\u10d8\u10d6\u10d4\u10d7\u10d8","name:right:hr":"Kirgistan","name:right:it":"Kirghizistan","name:left:io":"Tajikistan","name:left:ar":"\u0637\u0627\u062c\u064a\u0643\u0633\u062a\u0627\u0646","name:left:pl":"Tad\u017cykistan","name:right:kk":"\u049a\u044b\u0440\u0493\u044b\u0437\u0441\u0442\u0430\u043d","name:left:id":"Tajikistan","name:right:km":"\u1780\u17c0\u17a0\u17ca\u17d2\u179f\u17b8\u179f\u17ca\u17b8\u179f\u17d2\u1790\u17b6\u1793","name:left:az":"Tacikistan","name:right:tr":"K\u0131rg\u0131zistan","name:left:ro":"Tadjikistan","name:right:tl":"Kirgistan","name:left:af":"Tadjikistan","name:right:ku":"Qirgizistan","name:right:kw":"Pow Kyrgys","name:right:tk":"Gyrgyzystan","name:left:an":"Tachiquist\u00e1n","name:left:am":"\u1273\u1302\u12aa\u1235\u1273\u1295","name:right:tg":"\u049a\u0438\u0440\u0493\u0438\u0437\u0438\u0441\u0442\u043e\u043d","name:left:is":"Tadsjikistan","name:right:ta":"\u0b95\u0bbf\u0bb0\u0bcd\u0b95\u0bbf\u0b9a\u0bc1\u0ba4\u0bcd\u0ba4\u0bbe\u0ba9\u0bcd","name:right:io":"Kirgizistan","name:right:de":"Kirgisistan","name:left:ms":"Tajikistan","name:right:da":"Kirgisistan","name:right:el":"\u039a\u03b9\u03c1\u03b3\u03b9\u03b6\u03af\u03b1","name:left:zh-yue":"\u5854\u5409\u514b","name:left:ay":"Tayiksuyu","name:right:dv":"\u0786\u07a8\u0783\u07a8\u078e\u07a8\u0790\u07b0\u078c\u07a7\u0782\u07b0","name:left:bn":"\u09a4\u09be\u099c\u09bf\u0995\u09bf\u09b8\u09cd\u09a4\u09be\u09a8","name:left:rw":"Tajikisitani"},"arcs":[0]},{"type":"MultiLineString","properties":{"name:pt":"Quirguist\u00e3o","name:ps":"\u0642\u0631\u063a\u0632\u0633\u062a\u0627\u0646","name:cy":"Kyrgyzstan","name:ko":"\ud0a4\ub974\uae30\uc2a4\uc2a4\ud0c4","name:cv":"\u041a\u0438\u0440\u0433\u0438\u0437\u0438","name:km":"\u1780\u17c0\u17a0\u17ca\u17d2\u179f\u17b8\u179f\u17ca\u17b8\u179f\u17d2\u1790\u17b6\u1793","name:cs":"Kyrgyzst\u00e1n","name:kw":"Pow Kyrgys","name:tk":"Gyrgyzystan","name:ku":"Qirgizistan","name:ro":"K\u00e2rg\u00e2zstan","name:tl":"Kirgistan","name:zh-min-nan":"Kyrgyzstan","name:os":"\u0425\u044a\u0438\u0440\u0433\u044a\u0438\u0437","name:or":"\u0b15\u0b3f\u0b30\u0b17\u0b3f\u0b1c\u0b38\u0b4d\u0b24\u0b3e\u0b28","name:ce":"\u041a\u0438\u0440\u0433\u0438\u0437\u0438","name:ta":"\u0b95\u0bbf\u0bb0\u0bcd\u0b95\u0bbf\u0b9a\u0bc1\u0ba4\u0bcd\u0ba4\u0bbe\u0ba9\u0bcd","name:tg":"\u049a\u0438\u0440\u0493\u0438\u0437\u0438\u0441\u0442\u043e\u043d","name:ca":"Kirguizistan","name:te":"\u0c15\u0c3f\u0c30\u0c4d\u0c17\u0c3f\u0c1c\u0c3f\u0c38\u0c4d\u0c24\u0c3e\u0c28\u0c4d","name:hu":"Kirgiziszt\u00e1n","name:ka":"\u10e7\u10d8\u10e0\u10d2\u10d8\u10d6\u10d4\u10d7\u10d8","sort_rank":262,"name:ln":"Kirghizist\u00e1ni","name:da":"Kirgisistan","name:de":"Kirgisistan","source":"openstreetmap.org","osm_relation":true,"name:kn":"\u0c95\u0cbf\u0cb0\u0ccd\u0c97\u0cbf\u0cb8\u0ccd\u0ca5\u0cbe\u0ca8\u0ccd","name:an":"Kirguizist\u00e1n","name:dv":"\u0786\u07a8\u0783\u07a8\u078e\u07a8\u0790\u07b0\u078c\u07a7\u0782\u07b0","name:ba":"\u04a0\u044b\u0440\u0493\u044b\u0499\u0441\u0442\u0430\u043d","name:lv":"Kirgizst\u0101na","name:lt":"Kirgizija","alt_name:de":"Kirgisien","name:kk":"\u049a\u044b\u0440\u0493\u044b\u0437\u0441\u0442\u0430\u043d","name:he":"\u05e7\u05d9\u05e8\u05d2\u05d9\u05d6\u05e1\u05d8\u05df","kind":"country","name:ur":"\u06a9\u0631\u063a\u06cc\u0632\u0633\u062a\u0627\u0646","name:lb":"Kirgisistan","name:la":"Chirgisia","name:uk":"\u041a\u0438\u0440\u0433\u0438\u0437\u0441\u0442\u0430\u043d","name:hy":"\u0542\u0580\u0572\u0566\u057d\u057f\u0561\u0576","name:ug":"\u0642\u0649\u0631\u063a\u0649\u0632\u0649\u0633\u062a\u0627\u0646","name:li":"Kirgizi\u00eb","name:qu":"Kirkisuyu","name:oc":"Quirguizstan","name:el":"\u039a\u03b9\u03c1\u03b3\u03b9\u03b6\u03af\u03b1","name:eo":"Kirgizujo","name:en":"Kyrgyzstan","name":"\u041a\u044b\u0440\u0433\u044b\u0437\u0441\u0442\u0430\u043d","name:ee":"Kyrgyzstan","min_zoom":8.0,"name:th":"\u0e1b\u0e23\u0e30\u0e40\u0e17\u0e28\u0e04\u0e35\u0e23\u0e4c\u0e01\u0e35\u0e0b\u0e2a\u0e16\u0e32\u0e19","name:eu":"Kirgizistan","name:et":"K\u00f5rg\u00f5zstan","name:ru":"\u041a\u0438\u0440\u0433\u0438\u0437\u0438\u044f","name:es":"Kirguist\u00e1n","name:ia":"Kyrgyzistan","name:so":"Qargistan","alt_name:eo":"Kirgizistano;Kirgizio","name:az":"Q\u0131r\u011f\u0131z\u0131stan","name:ie":"Kirgizistan","name:id":"Kirgizstan","name:ms":"Kyrgyzstan","name:mr":"\u0915\u093f\u0930\u094d\u0917\u093f\u091d\u0938\u094d\u0924\u093e\u0928","name:ar":"\u0642\u0631\u063a\u064a\u0632\u0633\u062a\u0627\u0646","name:my":"\u1000\u102c\u1002\u103b\u1005\u1039\u1005\u1010\u1014\u103a\u1014\u102d\u102f\u1004\u103a\u1004\u1036","name:io":"Kirgizistan","name:is":"Kirgisistan","name:am":"\u12aa\u122d\u130a\u12dd\u1235\u1273\u1295","name:it":"Kirghizistan","name:ml":"\u0d15\u0d3f\u0d7c\u0d17\u0d4d\u0d17\u0d3f\u0d38\u0d4d\u0d25\u0d3e\u0d7b","name:vi":"Kyrgyzstan","name:uz":"Qirg\u02bbiziston","name:ab":"\u049e\u044b\u0440\u0495\u044b\u0437\u0441\u04ad\u0430\u043d","name:pl":"Kirgistan","name:mk":"\u041a\u0438\u0440\u0433\u0438\u0441\u0442\u0430\u043d","name:af":"Kirgisi\u00eb","name:fa":"\u0642\u0631\u0642\u06cc\u0632\u0633\u062a\u0627\u0646","name:rw":"Kirigizisitani","kind_detail":"2","name:hi":"\u0915\u093f\u0930\u094d\u0917\u093f\u091c\u093c\u0938\u094d\u0924\u093e\u0928","id":-178009,"alt_name:vi":"C\u01b0-r\u01a1-g\u01b0-xtan;Kirgizia","name:fr":"Kirghizistan","name:wo":"Kirgistaan","name:zh-yue":"\u5409\u723e\u5409\u65af","name:fy":"Kirgyzje","name:vo":"Kirgist\u00e4n","name:zh":"\u5409\u5c14\u5409\u65af\u65af\u5766","name:hr":"Kirgistan","name:pa":"\u0a15\u0a3f\u0a30\u0a17\u0a3f\u0a1c\u0a3c\u0a38\u0a24\u0a3e\u0a28","name:sl":"Kirgizistan","name:nl":"Kirgizi\u00eb","name:ja":"\u30ad\u30eb\u30ae\u30b9","name:nn":"Kirgisistan","name:sh":"Kirgistan","name:na":"Kirgitan","name:se":"Kirgisistan","name:sd":"\u06aa\u0650\u0631\u06af\u0632\u0650\u0633\u062a\u0627\u0646\u064f","name:br":"Kirgizstan","name:bs":"Kirgistan","name:yi":"\u05e7\u05d9\u05e8\u05d2\u05d9\u05d6\u05e1\u05d8\u05d0\u05df","name:bn":"\u0995\u09bf\u09b0\u0997\u09bf\u099c\u09bf\u09b8\u09cd\u09a4\u09be\u09a8","name:bo":"\u0f40\u0f7a\u0f0b\u0f62\u0f7a\u0f0b\u0f42\u0f7a\u0f5b\u0f74\u0f0b\u0f66\u0f74\u0f4f\u0f7a\u0f53\u0f0d","name:sk":"Kirgizsko","name:sa":"\u0915\u093f\u0930\u0917\u093f\u0938\u094d\u0925\u093e\u0928","name:no":"Kirgisistan","name:sw":"Kirgizia","name:sv":"Kirgizistan","name:su":"Kirgistan","name:bg":"\u041a\u0438\u0440\u0433\u0438\u0437\u0441\u0442\u0430\u043d","name:ss":"IKhirigi","name:sr":"\u041a\u0438\u0440\u0433\u0438\u0441\u0442\u0430\u043d","name:nv":"K\u00ed\u00edgiz Bik\u00e9yah","name:gv":"Yn Chyrgistaan","name:sq":"Kirgistani","name:ga":"An Chirgeast\u00e1in","name:gd":"C\u00ecorgastan","name:yo":"Kirgistani","name:ht":"Kirgistan","name:jv":"Kirgizstan","name:gl":"Kirguizist\u00e1n","name:tr":"K\u0131rg\u0131zistan","name:gu":"\u0a95\u0abf\u0ab0\u0acd\u0a97\u0abf\u0ab8\u0acd\u0aa4\u0abe\u0aa8","name:fi":"Kirgisia"},"arcs":[[1],[2],[3]]},{"type":"LineString","properties":{"int_name:right":"Sughd","name:right:ja":"\u30bd\u30b0\u30c9","int_name:left":"Districts of Republican Subordination","name:left:ja":"\u5171\u548c\u56fd\u76f4\u8f44\u5730","name:left:de":"Der Republik unterstellte Gebiete","name:right:lt":"Sugdo provincija","min_zoom":8.0,"name:left:lt":"Tiesioginio pavaldumo regionas","id:left":-3279615,"name:right:fa":"\u0648\u0644\u0627\u06cc\u062a \u0633\u063a\u062f","name:right:ru":"\u0421\u043e\u0433\u0434\u0438\u0439\u0441\u043a\u0430\u044f \u043e\u0431\u043b\u0430\u0441\u0442\u044c","id":-3279615,"osm_relation":true,"name:right":"\u0412\u0438\u043b\u043e\u044f\u0442\u0438 \u0421\u0443\u0493\u0434","name:left:short":"RRP","kind":"region","name":"\u041d\u043e\u04b3\u0438\u044f\u04b3\u043e\u0438 \u0442\u043e\u0431\u0435\u0438 \u04b7\u0443\u043c\u04b3\u0443\u0440\u04e3 - \u0412\u0438\u043b\u043e\u044f\u0442\u0438 \u0421\u0443\u0493\u0434","name:left:fa":"\u0646\u0627\u062d\u06cc\u0647 \u0647\u0627\u06cc \u062a\u0627\u0628\u0639 \u062c\u0645\u0647\u0648\u0631\u06cc","sort_rank":256,"kind_detail":"4","name:right:short":"Sughd","name:right:en":"Sughd Region","name:left:en":"Districts of Republican Subordination","source":"openstreetmap.org","name:right:de":"Provinz Sughd","name:left:ru":"\u0420\u0430\u0439\u043e\u043d\u044b \u0440\u0435\u0441\u043f\u0443\u0431\u043b\u0438\u043a\u0430\u043d\u0441\u043a\u043e\u0433\u043e \u043f\u043e\u0434\u0447\u0438\u043d\u0435\u043d\u0438\u044f","id:right":-3279374,"name:left":"\u041d\u043e\u04b3\u0438\u044f\u04b3\u043e\u0438 \u0442\u043e\u0431\u0435\u0438 \u04b7\u0443\u043c\u04b3\u0443\u0440\u04e3"},"arcs":[4]},{"type":"LineString","properties":{"name:right:ja":"\u30aa\u30b7","int_name:left":"Districts of Republican Subordination","name:left:ja":"\u5171\u548c\u56fd\u76f4\u8f44\u5730","id:right":-178020,"name:right:lt":"O\u0161o sritis","min_zoom":8.0,"name:left:lt":"Tiesioginio pavaldumo regionas","id:left":-3279615,"name:left:ru":"\u0420\u0430\u0439\u043e\u043d\u044b \u0440\u0435\u0441\u043f\u0443\u0431\u043b\u0438\u043a\u0430\u043d\u0441\u043a\u043e\u0433\u043e \u043f\u043e\u0434\u0447\u0438\u043d\u0435\u043d\u0438\u044f","name:right:ky":"\u041e\u0448 \u043e\u0431\u043b\u0430\u0441\u0442\u044b","id":-3279615,"osm_relation":true,"name:right":"\u041e\u0448\u0441\u043a\u0430\u044f \u043e\u0431\u043b\u0430\u0441\u0442\u044c","name:left:short":"RRP","kind":"region","name":"\u041d\u043e\u04b3\u0438\u044f\u04b3\u043e\u0438 \u0442\u043e\u0431\u0435\u0438 \u04b7\u0443\u043c\u04b3\u0443\u0440\u04e3 - \u041e\u0448\u0441\u043a\u0430\u044f \u043e\u0431\u043b\u0430\u0441\u0442\u044c","name:left:fa":"\u0646\u0627\u062d\u06cc\u0647 \u0647\u0627\u06cc \u062a\u0627\u0628\u0639 \u062c\u0645\u0647\u0648\u0631\u06cc","sort_rank":256,"kind_detail":"4","name:left:de":"Der Republik unterstellte Gebiete","name:right:en":"Osh Region","name:left:en":"Districts of Republican Subordination","source":"openstreetmap.org","name:right:de":"Gebiet Osch","name:left":"\u041d\u043e\u04b3\u0438\u044f\u04b3\u043e\u0438 \u0442\u043e\u0431\u0435\u0438 \u04b7\u0443\u043c\u04b3\u0443\u0440\u04e3"},"arcs":[5]},{"type":"LineString","properties":{"name:right:ja":"\u30d0\u30c8\u30b1\u30f3","int_name:left":"Districts of Republican Subordination","name:left:ja":"\u5171\u548c\u56fd\u76f4\u8f44\u5730","id:right":-178019,"name:right:lt":"Batkeno sritis","min_zoom":8.0,"name:left:lt":"Tiesioginio pavaldumo regionas","id:left":-3279615,"name:left:ru":"\u0420\u0430\u0439\u043e\u043d\u044b \u0440\u0435\u0441\u043f\u0443\u0431\u043b\u0438\u043a\u0430\u043d\u0441\u043a\u043e\u0433\u043e \u043f\u043e\u0434\u0447\u0438\u043d\u0435\u043d\u0438\u044f","name:right:ky":"\u0411\u0430\u0442\u043a\u0435\u043d \u043e\u0431\u043b\u0430\u0441\u0442\u044b","id":-3279615,"osm_relation":true,"name:right":"\u0411\u0430\u0442\u043a\u0435\u043d\u0441\u043a\u0430\u044f \u043e\u0431\u043b\u0430\u0441\u0442\u044c","name:left:short":"RRP","kind":"region","name":"\u041d\u043e\u04b3\u0438\u044f\u04b3\u043e\u0438 \u0442\u043e\u0431\u0435\u0438 \u04b7\u0443\u043c\u04b3\u0443\u0440\u04e3 - \u0411\u0430\u0442\u043a\u0435\u043d\u0441\u043a\u0430\u044f \u043e\u0431\u043b\u0430\u0441\u0442\u044c","name:left:fa":"\u0646\u0627\u062d\u06cc\u0647 \u0647\u0627\u06cc \u062a\u0627\u0628\u0639 \u062c\u0645\u0647\u0648\u0631\u06cc","sort_rank":256,"kind_detail":"4","name:left:de":"Der Republik unterstellte Gebiete","name:right:en":"Batken Region","name:left:en":"Districts of Republican Subordination","source":"openstreetmap.org","name:right:de":"Gebiet Batken","name:left":"\u041d\u043e\u04b3\u0438\u044f\u04b3\u043e\u0438 \u0442\u043e\u0431\u0435\u0438 \u04b7\u0443\u043c\u04b3\u0443\u0440\u04e3"},"arcs":[6]},{"type":"LineString","properties":{"name:right:ja":"\u30d0\u30c8\u30b1\u30f3","int_name:left":"Sughd","name:left:ja":"\u30bd\u30b0\u30c9","id:right":-178019,"name:right:lt":"Batkeno sritis","min_zoom":8.0,"name:left:lt":"Sugdo provincija","id:left":-3279374,"name:left:ru":"\u0421\u043e\u0433\u0434\u0438\u0439\u0441\u043a\u0430\u044f \u043e\u0431\u043b\u0430\u0441\u0442\u044c","name:right:ky":"\u0411\u0430\u0442\u043a\u0435\u043d \u043e\u0431\u043b\u0430\u0441\u0442\u044b","id":-3279374,"osm_relation":true,"name:right":"\u0411\u0430\u0442\u043a\u0435\u043d\u0441\u043a\u0430\u044f \u043e\u0431\u043b\u0430\u0441\u0442\u044c","name:left:short":"Sughd","kind":"region","name":"\u0412\u0438\u043b\u043e\u044f\u0442\u0438 \u0421\u0443\u0493\u0434 - \u0411\u0430\u0442\u043a\u0435\u043d\u0441\u043a\u0430\u044f \u043e\u0431\u043b\u0430\u0441\u0442\u044c","name:left:fa":"\u0648\u0644\u0627\u06cc\u062a \u0633\u063a\u062f","sort_rank":256,"kind_detail":"4","name:left:de":"Provinz Sughd","name:right:en":"Batken Region","name:left:en":"Sughd Region","source":"openstreetmap.org","name:right:de":"Gebiet Batken","name:left":"\u0412\u0438\u043b\u043e\u044f\u0442\u0438 \u0421\u0443\u0493\u0434"},"arcs":[7]},{"type":"LineString","properties":{"name:right:ja":"\u30d0\u30c8\u30b1\u30f3","name:left:ja":"\u30aa\u30b7","id:right":-178019,"name:right:lt":"Batkeno sritis","min_zoom":8.0,"name:left:lt":"O\u0161o sritis","id:left":-178020,"name:right:ky":"\u0411\u0430\u0442\u043a\u0435\u043d \u043e\u0431\u043b\u0430\u0441\u0442\u044b","name:left:ky":"\u041e\u0448 \u043e\u0431\u043b\u0430\u0441\u0442\u044b","id":-178020,"osm_relation":true,"name:right":"\u0411\u0430\u0442\u043a\u0435\u043d\u0441\u043a\u0430\u044f \u043e\u0431\u043b\u0430\u0441\u0442\u044c","kind":"region","name":"\u041e\u0448\u0441\u043a\u0430\u044f \u043e\u0431\u043b\u0430\u0441\u0442\u044c - \u0411\u0430\u0442\u043a\u0435\u043d\u0441\u043a\u0430\u044f \u043e\u0431\u043b\u0430\u0441\u0442\u044c","source":"openstreetmap.org","sort_rank":256,"kind_detail":"4","name:left:de":"Gebiet Osch","name:right:en":"Batken Region","name:left:en":"Osh Region","name:right:de":"Gebiet Batken","name:left":"\u041e\u0448\u0441\u043a\u0430\u044f \u043e\u0431\u043b\u0430\u0441\u0442\u044c"},"arcs":[8]},{"type":"MultiLineString","properties":{"kind":"region","name:en":"Batken Region","name":"\u0411\u0430\u0442\u043a\u0435\u043d\u0441\u043a\u0430\u044f \u043e\u0431\u043b\u0430\u0441\u0442\u044c","name:lt":"Batkeno sritis","sort_rank":256,"kind_detail":"4","name:de":"Gebiet Batken","source":"openstreetmap.org","min_zoom":8.0,"name:ky":"\u0411\u0430\u0442\u043a\u0435\u043d \u043e\u0431\u043b\u0430\u0441\u0442\u044b","id":-178019,"osm_relation":true,"name:ja":"\u30d0\u30c8\u30b1\u30f3"},"arcs":[[9],[10],[11]]}]},"roads":{"type":"GeometryCollection","geometries":[{"type":"MultiLineString","properties":{"kind":"major_road","network":"e-road","sort_rank":380,"kind_detail":"primary","source":"openstreetmap.org","min_zoom":8.0,"shield_text":"60","ref":"A372"},"arcs":[[12],[13],[14]]},{"type":"MultiLineString","properties":{"source":"openstreetmap.org","kind":"major_road","network":"e-road","sort_rank":380,"kind_detail":"primary","min_zoom":8.0,"shield_text":"60"},"arcs":[[15],[16]]}]},"earth":{"type":"GeometryCollection","geometries":[{"type":"Polygon","properties":{"sort_rank":10,"source":"naturalearthdata.com","min_zoom":0.0,"kind":"earth","area":98022885885},"arcs":[[17]]}]},"landuse":{"type":"GeometryCollection","geometries":[{"type":"Polygon","properties":{"kind":"glacier","name:en":"Shurovskogo","natural":"glacier","name":"\u0429\u0443\u0440\u043e\u0432\u0441\u043a\u043e\u0433\u043e","area":14833200,"sort_rank":29,"source":"openstreetmap.org","min_zoom":8.0,"tier":3,"id":250422841},"arcs":[[18]]},{"type":"Polygon","properties":{"kind":"glacier","name:en":"Kara-Tur","natural":"glacier","name":"\u041a\u0430\u0440\u0430-\u0422\u0443\u0440","area":15845800,"sort_rank":29,"source":"openstreetmap.org","min_zoom":8.0,"tier":3,"id":250453344},"arcs":[[19]]},{"type":"Polygon","properties":{"kind":"glacier","natural":"glacier","name":"\u0422\u043e\u043b\u0441\u0442\u043e\u0433\u043e","area":16503400,"sort_rank":29,"source":"openstreetmap.org","min_zoom":8.0,"tier":3,"id":32554386},"arcs":[[20]]},{"type":"Polygon","properties":{"kind":"glacier","name:en":"Tamyngen","natural":"glacier","name":"\u0422\u0430\u043c\u044b\u043d\u0433\u0435\u043d","area":16153500,"sort_rank":29,"source":"openstreetmap.org","min_zoom":8.0,"tier":3,"id":250455073},"arcs":[[21]]},{"type":"Polygon","properties":{"kind":"glacier","natural":"glacier","name":"\u043b\u0435\u0434\u043d\u0438\u043a \u0415\u0433\u043e\u0440\u043e\u0432\u0430","area":12052200,"sort_rank":29,"source":"openstreetmap.org","min_zoom":8.0,"tier":3,"id":-4613056,"osm_relation":true},"arcs":[[22]]},{"type":"Polygon","properties":{"kind":"glacier","natural":"glacier","name":"\u043b\u0435\u0434\u043d\u0438\u043a \u0413\u0430\u0434\u0436\u0438\u0440","area":10245600,"sort_rank":29,"source":"openstreetmap.org","min_zoom":8.0,"tier":3,"id":334672087},"arcs":[[23]]},{"type":"Polygon","properties":{"kind":"glacier","natural":"glacier","name":"\u043b\u0435\u0434\u043d\u0438\u043a \u0428\u0438\u043d\u0438\u0431\u0438\u043d\u0438","area":11838700,"sort_rank":29,"source":"openstreetmap.org","min_zoom":8.0,"tier":3,"id":309537014},"arcs":[[24]]},{"type":"MultiPolygon","properties":{"kind":"glacier","natural":"glacier","area":581660769,"sort_rank":29,"source":"openstreetmap.org","min_zoom":8.0,"tier":3,"osm_relation":true},"arcs":[[[25]]]},{"type":"Polygon","properties":{"kind":"glacier","natural":"glacier","name":"Zeravshan glacier","area":46164200,"sort_rank":29,"name:cs":"Zerav\u0161ansk\u00fd ledovec","source":"openstreetmap.org","min_zoom":8.0,"tier":3,"name:ru":"\u0417\u0435\u0440\u0430\u0432\u0448\u0430\u043d\u0441\u043a\u0438\u0439 \u043b\u0435\u0434\u043d\u0438\u043a","id":32554375},"arcs":[[26]]},{"type":"MultiPolygon","properties":{"source":"openstreetmap.org","kind":"glacier","natural":"glacier","area":363394887,"sort_rank":29,"tier":3,"min_zoom":8.0},"arcs":[[[27]],[[28]],[[29]],[[30]],[[31]],[[32]],[[33]],[[34]]]},{"type":"Polygon","properties":{"kind":"glacier","natural":"glacier","name":"\u043b\u0435\u0434\u043d\u0438\u043a \u0421\u0443\u0433\u0440\u0430\u043d","area":24079900,"sort_rank":29,"source":"openstreetmap.org","min_zoom":8.0,"tier":3,"id":-4134819,"osm_relation":true},"arcs":[[35]]},{"type":"MultiPolygon","properties":{"source":"openstreetmap.org","kind":"residential","tier":2,"area":112309897,"sort_rank":20,"min_zoom":8.0},"arcs":[[[36]]]},{"type":"Polygon","properties":{"kind":"glacier","name:en":"Abramov's glacier","natural":"glacier","name":"\u043b\u0435\u0434\u043d\u0438\u043a \u0410\u0431\u0440\u0430\u043c\u043e\u0432\u0430","area":38177900,"sort_rank":29,"source":"openstreetmap.org","min_zoom":8.0,"tier":3,"id":26991886},"arcs":[[37]]}]}},"type":"Topology","transform":{"translate":[70.3125,38.8225909762],"scale":[0.0003433228,0.0002654163]},"arcs":[[[4096,2387],[-35,0],[-193,-61],[-227,56],[-55,238],[41,103],[7,110],[-27,48],[-151,99],[-246,-160],[-156,20],[-74,-29],[-20,-94],[-97,-96],[-51,19],[-72,108],[-39,-61],[-135,-92],[-274,-18],[-54,-97],[0,-183],[-43,-68],[-101,-38],[-110,-4],[-100,103],[-53,12],[-55,-164],[-88,-32],[-70,44],[-153,-18],[-123,22],[-55,314],[-175,159],[-62,154],[-67,81],[-75,34],[-54,-20],[-131,39],[-77,96],[-27,1],[-21,-56],[-76,-3],[-80,-91],[-66,71],[-50,-101],[-101,30],[-41,57],[-42,-32],[-19,-64],[-73,-37],[-50,-98]],[[620,3970],[35,57],[85,-54],[118,-20],[257,-26],[31,39],[41,2],[-3,-56],[71,33],[-14,-85],[-24,3],[-8,-29],[-23,24],[-82,-113],[-101,13],[17,-68],[-22,-51],[-90,-39],[-7,47],[-48,30],[24,62],[-54,74],[-112,61],[-57,-4],[-34,100]],[[2574,4096],[-7,-50],[-57,-5],[-24,-30],[-102,-3],[9,82],[-5,6]],[[2314,4096],[-4,-6],[-23,3],[-6,-89],[-44,42],[-86,15],[53,35]],[[1167,2561],[-320,-137],[-73,-108],[-214,-42],[-57,-91],[-339,-92],[-164,15]],[[4096,2387],[-35,0],[-193,-61],[-227,56],[-55,238],[41,103],[7,110],[-27,48],[-127,86]],[[3480,2967],[-57,10],[-80,-81],[-133,-76],[-156,20],[-74,-29],[-20,-94],[-97,-96],[-51,19],[-72,108],[-39,-61],[-135,-92],[-274,-18],[-54,-97],[0,-183],[-43,-68],[-101,-38],[-110,-4],[-100,103],[-53,12],[-18,-101],[-66,-88],[-59,-7],[-70,44],[-153,-18],[-123,22],[-55,314],[-120,93]],[[1167,2561],[-184,301],[-75,34],[-54,-20],[-131,39],[-77,96],[-27,1],[-21,-56],[-76,-3],[-80,-91],[-66,71],[-50,-101],[-101,30],[-41,57],[-42,-32],[-19,-64],[-73,-37],[-50,-98]],[[4096,3379],[-50,41],[-80,9],[-53,-35],[-107,-146],[-240,-104],[-86,-177]],[[620,3970],[35,57],[85,-54],[118,-20],[257,-26],[31,39],[41,2],[-3,-56],[71,33],[-14,-85],[-24,3],[-8,-29],[-23,24],[-82,-113],[-101,13],[17,-68],[-22,-51],[-90,-39],[-7,47],[-48,30],[24,62],[-54,74],[-112,61],[-57,-4],[-34,100]],[[2574,4096],[-7,-50],[-57,-5],[-24,-30],[-102,-3],[9,82],[-5,6]],[[2314,4096],[-4,-6],[-23,3],[-6,-89],[-44,42],[-86,15],[53,35]],[[0,664],[102,23],[128,128],[285,123],[310,71],[38,-31],[46,21],[69,-18],[1,22],[42,11],[70,-44]],[[1097,964],[85,3],[70,61],[118,44],[137,17],[199,86],[86,77]],[[1799,1253],[312,13],[316,73],[96,38],[38,42],[227,-23],[34,52],[120,-2],[61,198],[369,183],[205,-5],[47,140],[33,27],[59,-2],[145,93],[42,-44],[40,13],[97,76],[4,41],[46,27],[5,31],[1,1]],[[1091,970],[6,-6]],[[1799,1253],[-7,-1]],[[4096,0],[-4096,0],[0,4096],[4096,0],[0,-4096]],[[768,2922],[52,37],[-14,84],[46,-100],[26,54],[46,25],[-35,-28],[31,1],[-10,-84],[-82,-15],[-60,26]],[[383,2951],[62,-6],[-9,59],[30,81],[1,-64],[101,-31],[33,13],[-7,-34],[-80,9],[-43,-24],[-30,-80],[-33,24],[25,24],[-40,-2],[-10,31]],[[619,2966],[16,28],[37,-19],[13,-223],[28,-94],[61,-82],[-26,-36],[11,30],[-61,80],[-48,146],[-31,170]],[[153,2923],[56,35],[15,54],[26,-88],[120,19],[-95,-34],[15,-28],[57,17],[-29,-59],[-92,42],[-16,59],[-57,-17]],[[4054,3560],[42,24],[0,-20],[-42,-4]],[[3960,3603],[48,106],[-26,83],[91,-25],[-62,-14],[11,-42],[73,-30],[-54,11],[-42,-38],[-2,-36],[60,-29],[-97,14]],[[3983,747],[113,-56],[0,-29],[-11,3],[-102,82]],[[3409,610],[20,21],[54,-29],[-25,44],[71,-30],[-24,38],[-57,15],[31,14],[87,-57],[180,14],[71,-42],[13,-34],[-23,-10],[-61,59],[-65,11],[-128,-23],[-39,-31],[-64,6],[-41,34]],[[523,2444],[131,17],[169,131],[118,46],[97,8],[-5,59],[-101,114],[12,32],[43,-18],[105,-180],[-28,-70],[-131,11],[-133,-47],[-137,-113],[-138,-11],[-2,21]],[[3101,638],[3,18],[125,20],[109,-29],[-16,-31],[-25,8],[27,-19],[32,40],[59,11],[-92,-87],[-87,81],[-98,-28],[-37,16]],[[4096,303],[0,-20],[-39,22],[39,-2]],[[1865,2270],[58,3],[-37,12],[19,23],[68,-4],[13,-30],[75,21],[31,81],[20,-3],[-9,-70],[-30,-27],[-180,-38],[-28,32]],[[2308,2528],[40,12],[32,-55],[25,7],[13,43],[-21,29],[-21,22],[-44,-8],[-2,23],[49,7],[54,-36],[85,-158],[-71,88],[-55,-28],[-84,54]],[[0,2741],[37,22],[8,-7],[-45,-57],[0,42]],[[497,2813],[31,49],[4,88],[43,5],[11,-21],[-60,-121],[34,-204],[-25,-148],[-19,65],[26,99],[-45,188]],[[751,2861],[11,28],[45,-39],[-29,-86],[63,-167],[-18,-5],[-31,58],[-41,211]],[[3322,794],[65,-10],[55,48],[-2,325],[25,-77],[3,-262],[-60,-73],[-39,-7],[-30,3],[7,32],[-24,21]],[[3944,631],[48,-72],[63,-2],[41,-33],[0,-31],[-39,48],[-70,3],[-43,87]],[[3485,1566],[49,75],[1,67],[35,7],[5,-139],[-66,-60],[-24,50]],[[3471,2968],[17,38],[110,13],[61,121],[54,46],[29,-66],[83,-43],[-48,-6],[-72,94],[-45,-65],[0,-43],[27,-89],[47,-24],[-63,-69],[-69,38],[46,48],[-40,31],[-8,-57],[-61,-11],[-28,49],[-40,-5]]]}