{"objects":{"water":{"type":"GeometryCollection","geometries":[]},"buildings":{"type":"GeometryCollection","geometries":[]},"places":{"type":"GeometryCollection","geometries":[{"type":"Point","properties":{"name:ka":"\u10e2\u10d0\u10ef\u10d8\u10d9\u10d4\u10d7\u10d8","name:ko":"\ud0c0\uc9c0\ud0a4\uc2a4\ud0c4","name:cv":"\u0422\u0430\u0434\u0436\u0438\u043a\u0438\u0441\u0442\u0430\u043d","name:cu":"\u0422\u0430\u0434\u0436\u0438\u043a\u0438\u0441\u0442\u0430\u043d\u044a","name:kl":"Tajikistani","name:cs":"T\u00e1d\u017eikist\u00e1n","name:ki":"Tajikistani","name:kw":"Pow Tajik","name:kv":"\u0422\u0430\u0434\u0436\u0438\u043a\u0438\u0441\u0442\u0430\u043d","name:ku":"Tac\u00eekistan","name:ti":"\u1273\u1303\u12aa\u1235\u1273\u1295","name:ks":"\u062a\u0627\u062c\u06a9\u0650\u0633\u062a\u0627\u0646","name:to":"Tasikitani","name:tl":"Tayikistan","name:ce":"\u0422\u0430\u0434\u0436\u0438\u043a\u0438","name:ta":"\u0ba4\u0bbe\u0b9c\u0bbf\u0b95\u0bbf\u0bb8\u0bcd\u0ba4\u0bbe\u0ba9\u0bcd","name:ca":"Tadjikistan","name:te":"\u0c1f\u0c3e\u0c1c\u0c40\u0c15\u0c3f\u0c38\u0c4d\u0c24\u0c3e\u0c28\u0c4d","name:cy":"Tajicistan","name:hr":"Tad\u017eikistan","name:da":"Tadsjikistan","name:de":"Tadschikistan","name:dz":"\u0f4f\u0f0b\u0f47\u0f72\u0f42\u0f0b\u0f42\u0f72\u0f0b\u0f66\u0f4f\u0f71\u0f53","source":"openstreetmap.org","name:kn":"\u0ca4\u0c9c\u0cbe\u0c95\u0cbf\u0cb8\u0ccd\u0ca5\u0cbe\u0ca8\u0ccd","name:dv":"\u078c\u07a6\u0796\u07a8\u0786\u07a8\u0790\u07b0\u078c\u07a7\u0782\u07b0","name:km":"\u178f\u17b6\u178a\u17a0\u17d2\u179f\u17c9\u17b8\u1782\u17b8\u179f\u17d2\u178f\u1784\u17cb","name:lv":"Tad\u017eikist\u0101na","name:lt":"Tad\u017eikistanas","name:uz":"Tojikiston","name:kk":"\u0422\u04d9\u0436\u0456\u043a\u0441\u0442\u0430\u043d","name:ur":"\u062a\u0627\u062c\u06a9\u0633\u062a\u0627\u0646","name:lb":"Tadschikistan","name:la":"Tadzikistania","name:lg":"Tajikisitaani","name:uk":"\u0422\u0430\u0434\u0436\u0438\u043a\u0438\u0441\u0442\u0430\u043d","name:ug":"\u062a\u0627\u062c\u0649\u0643\u0649\u0633\u062a\u0627\u0646","name:li":"Tadzjikistan","name:ln":"Tazikisit\u00e1","name:lo":"\u0e97\u0eb2\u0e88\u0eb4\u0e81\u0eb4\u0eaa\u0eb0\u0e96\u0eb2\u0e99","name:el":"\u03a4\u03b1\u03c4\u03b6\u03b9\u03ba\u03b9\u03c3\u03c4\u03ac\u03bd","name:eo":"Ta\u011dikujo","name:en":"Tajikistan","name":"\u0422\u043e\u04b7\u0438\u043a\u0438\u0441\u0442\u043e\u043d","name:tk":"T\u00e4jigistan","name:ee":"Tajikistan nutome","name:th":"\u0e1b\u0e23\u0e30\u0e40\u0e17\u0e28\u0e17\u0e32\u0e08\u0e34\u0e01\u0e34\u0e2a\u0e16\u0e32\u0e19","name:eu":"Tajikistan","name:et":"Tad\u017eikistan","name:es":"Tayikist\u00e1n","name:ay":"Tayiksuyu","name:rm":"Tadschikistan","name:rn":"Tajikisitani","name:az":"Tacikistan","name:ie":"Tadjikistan","name:id":"Tajikistan","name:ar":"\u0637\u0627\u062c\u064a\u0643\u0633\u062a\u0627\u0646","name:io":"Tajikistan","name:ak":"Tajikistan","name:am":"\u1273\u1303\u12aa\u1235\u1273\u1295","name:it":"Tagikistan","name:an":"Tachiquist\u00e1n","name:ru":"\u0422\u0430\u0434\u0436\u0438\u043a\u0438\u0441\u0442\u0430\u043d","name:rw":"Tajikisitani","name:af":"Tadjikistan","name:zu":"i-Tajikistan","name:ky":"\u0422\u0430\u0436\u0438\u043a\u0441\u0442\u0430\u043d","name:zh-yue":"\u5854\u5409\u514b","name:zh":"\u5854\u5409\u514b\u65af\u5766","name:so":"Tajikistan","name:sn":"Tajikistan","name:sl":"Tad\u017eikistan","name:sk":"Tad\u017eikistan","name:ja":"\u30bf\u30b8\u30ad\u30b9\u30bf\u30f3","name:si":"\u0da7\u0da2\u0dd2\u0d9a\u0dd2\u0dc3\u0dca\u0dad\u0dcf\u0db1\u0dba","name:sh":"Tad\u017eikistan","name:sg":"Taazikiist\u00e4an","name:se":"Ta\u017eikistan","name:sa":"\u0924\u093e\u091c\u093f\u0915\u093f\u0938\u094d\u0925\u093e\u0928","name:bs":"Tad\u017eikistan","name:bm":"Tajikisitani","name:bn":"\u09a4\u09be\u099c\u09bf\u0995\u09b8\u09cd\u09a5\u09be\u09a8","name:bo":"\u0f50\u0f0b\u0f47\u0f72\u0f0b\u0f41\u0f7a\u0f0b\u0f66\u0f72\u0f0b\u0f4f\u0f53\u0f0d","name:br":"Tadjikistan","name:sw":"Tajikistani","name:be":"\u0422\u0430\u0434\u0436\u044b\u043a\u0456\u0441\u0442\u0430\u043d","name:su":"Tajikistan","name:bg":"\u0422\u0430\u0434\u0436\u0438\u043a\u0438\u0441\u0442\u0430\u043d","name:ss":"IThajiki","name:ba":"\u0422\u0430\u0436\u0438\u043a\u0441\u0442\u0430\u043d","name:sq":"Taxhikistan","name:jv":"Tajikistan","name:ia":"Tadzhikistan","name:pt":"Tadjiquist\u00e3o","name:ps":"\u062a\u0627\u062c\u06a9\u0633\u062a\u0627\u0646","name:oc":"Tatgiquistan","min_zoom":2.0,"name:ro":"Tadjikistan","name:zh-min-nan":"Tajikistan","name:os":"\u0422\u0430\u0434\u0436\u0438\u043a\u0438\u0441\u0442\u0430\u043d","name:or":"\u0b24\u0b3e\u0b1c\u0b3f\u0b15\u0b3f\u0b38\u0b4d\u0b25\u0b3e\u0b28\u0b4d","name:pl":"Tad\u017cykistan","name:sr":"\u0422\u0430\u045f\u0438\u043a\u0438\u0441\u0442\u0430\u043d","name:tr":"Tacikistan","name:hi":"\u0924\u093e\u091c\u093f\u0915\u093f\u0938\u094d\u0924\u093e\u0928","name:sv":"Tadzjikistan","name:he":"\u05d8\u05d2'\u05d9\u05e7\u05d9\u05e1\u05d8\u05df","name:ha":"Tajikistan","name:hy":"\u054f\u0561\u0573\u056b\u056f\u057d\u057f\u0561\u0576","name:ht":"Tadjikistan","name:hu":"T\u00e1dzsikiszt\u00e1n","name:qu":"Tayiksuyu","population":7215700,"kind":"country","name:is":"Tadsjikistan","name:yi":"\u05d8\u05d0\u05d3\u05d6\u05e9\u05d9\u05e7\u05d9\u05e1\u05d8\u05d0\u05df","name:yo":"Or\u00edl\u1eb9\u0301\u00e8de Takisitani","name:mt":"Ta\u0121ikistan","alt_name:eo":"Ta\u011dikistano;Ta\u011dikio","name:ms":"Tadjikistan","name:mr":"\u0924\u093e\u091c\u093f\u0915\u093f\u0938\u094d\u0924\u093e\u0928","name:my":"\u1010\u102c\u1002\u103b\u102e\u1000\u1005\u1039\u1005\u1010\u1014\u103a","int_name":"Tajikistan","name:mg":"Tajikistan","name:ml":"\u0d24\u0d3e\u0d1c\u0d3f\u0d15\u0d4d\u0d15\u0d3f\u0d38\u0d4d\u0d25\u0d3e\u0d7b","name:vi":"Tajikistan","name:mn":"\u0422\u0430\u0436\u0438\u043a\u0438\u0441\u0442\u0430\u043d","id":424314276,"name:mk":"\u0422\u0430\u045f\u0438\u043a\u0438\u0441\u0442\u0430\u043d","name:vo":"Tacikist\u00e4n","name:fa":"\u062a\u0627\u062c\u06cc\u06a9\u0633\u062a\u0627\u0646","name:ff":"Tajikistaan","name:fi":"Tad\u017eikistan","name:fo":"Tadsjikistan","name:fr":"Tadjikistan","name:fy":"Tadzjikistan","name:nl":"Tadzjikistan","name:nn":"Tadsjikistan","name:no":"Tadsjikistan","name:na":"Tadjikitan","name:ne":"\u0924\u093e\u091c\u093f\u0915\u093f\u0938\u094d\u0924\u093e\u0928","name:wo":"Tajikistaan","name:nv":"T\u02bcaji\u02bc Bik\u00e9yah","name:ga":"An T\u00e1ids\u00edceast\u00e1in","name:gd":"Taidigeast\u00e0n","name:gl":"Taxiquist\u00e1n","name:gv":"Yn Tajikistaan","name:gu":"\u0aa4\u0abe\u0a9c\u0ac0\u0a95\u0abf\u0ab8\u0acd\u0aa4\u0abe\u0aa8","name:tt":"\u0422\u0430\u0497\u0438\u043a\u0441\u0442\u0430\u043d"},"coordinates":[1466,3375]},{"type":"Point","properties":{"kind":"locality","name:en":"Qalai Khumb","name":"\u049a\u0430\u043b\u044a\u0430\u0438 \u0425\u0443\u043c\u0431","kind_detail":"town","name:de":"Kalai Chumb","source":"openstreetmap.org","min_zoom":8.0,"int_name":"Qal'ai Khumb","name:ru":"\u041a\u0430\u043b\u0430\u0439-\u0425\u0443\u043c\u0431","id":449099083,"population":1900},"coordinates":[1387,2729]}]},"transit":{"type":"GeometryCollection","geometries":[]},"pois":{"type":"GeometryCollection","geometries":[]},"boundaries":{"type":"GeometryCollection","geometries":[{"type":"MultiLineString","properties":{"name:right:yo":"Tajikistan","name:right:yi":"\u05d8\u05d0\u05d3\u05d6\u05e9\u05d9\u05e7\u05d9\u05e1\u05d8\u05d0\u05df","name:left:la":"Afgania","name:left:lb":"Afghanistan","alt_name:left:mn":"\u0410\u0444\u0433\u0430\u043d \u0443\u043b\u0441","name:left:li":"Afghanistan","name:left:vi":"Afghanistan","name:right:hr":"Tad\u017eikistan","name:left:kg":"Afghanistan","name:left:ka":"\u10d0\u10d5\u10e6\u10d0\u10dc\u10d4\u10d7\u10d8","alt_name:left:sh":"Avganistan","name:left:km":"\u179f\u17b6\u1792\u17b6\u179a\u178e\u179a\u178a\u17d2\u178b\u17a5\u179f\u17d2\u179b\u17b6\u1798\u17a2\u17b6\u17a0\u17d2\u179c\u17a0\u17d2\u1780\u17b6\u1793\u17b8\u179f\u17d2\u1790\u17b6\u1793","name:left:kl":"Afghanistan","name:left:ko":"\uc544\ud504\uac00\ub2c8\uc2a4\ud0c4","name:left:kn":"\u0c85\u0cab\u0ccd\u0c98\u0cbe\u0ca8\u0cbf\u0cb8\u0ccd\u0ca4\u0cbe\u0ca8","name:left:ki":"Afghanistan","name:right:rw":"Tajikisitani","name:left:kk":"\u0410\u0443\u0493\u0430\u043d\u0441\u0442\u0430\u043d","name:left:rm":"Afganistan","name:left:ku":"Afxanistan","name:left:kw":"Afghanistan","name:left:kv":"\u0410\u0444\u0433\u0430\u043d\u0438\u0441\u0442\u0430\u043d","name:right:ro":"Tadjikistan","name:left:ks":"\u0627\u064e\u0641\u063a\u0627\u0646\u064e\u0633\u062a\u0627\u0646","name:left:ru":"\u0410\u0444\u0433\u0430\u043d\u0438\u0441\u0442\u0430\u043d","name:right:ie":"Tadjikistan","name:right:id":"Tajikistan","name:left:ky":"\u041e\u043e\u0433\u0430\u043d\u0441\u0442\u0430\u043d","name:right:ia":"Tajikistan","name:right:bn":"\u09a4\u09be\u099c\u09bf\u0995\u09bf\u09b8\u09cd\u09a4\u09be\u09a8","name:right:bo":"\u0f50\u0f0b\u0f47\u0f72\u0f0b\u0f41\u0f7a\u0f0b\u0f66\u0f72\u0f0b\u0f4f\u0f53\u0f0d","name:left:sl":"Afganistan","name:right:ba":"\u0422\u0430\u0436\u0438\u043a\u0441\u0442\u0430\u043d","name:right:bg":"\u0422\u0430\u0434\u0436\u0438\u043a\u0438\u0441\u0442\u0430\u043d","name:right:be":"\u0422\u0430\u0434\u0436\u044b\u043a\u0456\u0441\u0442\u0430\u043d","name:right:br":"Tadjikistan","name:left:lt":"Afganistanas","name:right:nn":"Tadsjikistan","name:right:no":"Tadsjikistan","name:right:nl":"Tadzjikistan","name:left:lv":"Afganist\u0101na","name:right:wo":"Tajikistaan","name:right:na":"Tadjikitan","name:right:gv":"Yn Tajikistaan","alt_name:left:vi":"\u00c1p-ga-n\u00edt-xt\u0103ng","name:right:nv":"T\u02bcaji\u02bc Bik\u00e9yah","name:left:mg":"Afganistana","kind_detail":"2","name:left:tr":"Afganistan","name:right:gu":"\u0aa4\u0abe\u0a9c\u0abf\u0a95\u0abf\u0ab8\u0acd\u0aa4\u0abe\u0aa8","name:right:ps":"\u062a\u0627\u062c\u064a\u06a9\u0633\u062a\u0627\u0646","name:right:pt":"Tajiquist\u00e3o","name:left:mk":"\u0410\u0432\u0433\u0430\u043d\u0438\u0441\u0442\u0430\u043d","name:left:mi":"\u0100whekenet\u0101na","name:left:tt":"\u04d8\u0444\u0433\u0430\u043d\u0441\u0442\u0430\u043d","name:left:mn":"\u0410\u0444\u0433\u0430\u043d\u0438\u0441\u0442\u0430\u043d","name:left:ml":"\u0d05\u0d2b\u0d4d\u0d17\u0d3e\u0d28\u0d3f\u0d38\u0d4d\u0d24\u0d3e\u0d7b","name:left:th":"\u0e1b\u0e23\u0e30\u0e40\u0e17\u0e28\u0e2d\u0e31\u0e1f\u0e01\u0e32\u0e19\u0e34\u0e2a\u0e16\u0e32\u0e19","name:left:ti":"\u12a0\u134d\u130b\u1292\u1235\u1273\u1295","name:left:tk":"Owganystan","name:left:tl":"Apganistan","name:left:mt":"Afganistan","name:right:gl":"Taxiquist\u00e1n","name:left:my":"\u1021\u102c\u1016\u1002\u1014\u103a\u1014\u1005\u1039\u1005\u1010\u1014\u103a\u1014\u102d\u102f\u1004\u103a\u1004\u1036","name:right:pl":"Tad\u017cykistan","name:left:te":"\u0c06\u0c2b\u0c4d\u0c18\u0c28\u0c3f\u0c38\u0c4d\u0c24\u0c3e\u0c28\u0c4d","name:left:tg":"\u0410\u0444\u0493\u043e\u043d\u0438\u0441\u0442\u043e\u043d","name:left:ms":"Afghanistan","name:left:mr":"\u0905\u092b\u0917\u093e\u0923\u093f\u0938\u094d\u0924\u093e\u0928","name:left:da":"Afghanistan","name:left:de":"Afghanistan","name:left:dz":"\u0f68\u0f55\u0f0b\u0f42\u0f0b\u0f53\u0f72\u0f66\u0f72\u0f0b\u0f4f\u0f71\u0f53\u0f0b","name:right:ga":"An T\u00e1ids\u00edceast\u00e1in","name:left:dv":"\u0787\u07a6\u078a\u07b0\u07a3\u07a7\u0782\u07a8\u0790\u07b0\u078c\u07a7\u0782\u07b0","name:right:ug":"\u062a\u0627\u062c\u0649\u0643\u0649\u0633\u062a\u0627\u0646","name:left:hi":"\u0905\u092b\u093c\u094d\u0917\u093e\u0928\u093f\u0938\u094d\u0924\u093e\u0928","name:right:lb":"Tadjikistan","name:right:uk":"\u0422\u0430\u0434\u0436\u0438\u043a\u0438\u0441\u0442\u0430\u043d","name:left:he":"\u05d0\u05e4\u05d2\u05e0\u05d9\u05e1\u05d8\u05df","name:left:to":"\u02bbAfukanisitani","name:left:ha":"Afghanistan","alt_name:left:io":"Afgania","name:right:ur":"\u062a\u0627\u062c\u06a9\u0633\u062a\u0627\u0646","name:right:lv":"Tad\u017eikist\u0101na","name:left:hy":"\u0531\u0586\u0572\u0561\u0576\u057d\u057f\u0561\u0576","name:left:ta":"\u0b86\u0baa\u0bcd\u0b95\u0bbe\u0ba9\u0bbf\u0ba4\u0bcd\u0ba4\u0bbe\u0ba9\u0bcd","name:left:ht":"Afganistan","name:left:hu":"Afganiszt\u00e1n","name:left:hr":"Afganistan","sort_rank":262,"name:right:gd":"Taidigeast\u00e0n","name:right:os":"\u0422\u0430\u0434\u0436\u0438\u043a\u0438\u0441\u0442\u0430\u043d","name:right:es":"Tayikist\u00e1n","name:right:sr":"\u0422\u0430\u045f\u0438\u043a\u0438\u0441\u0442\u0430\u043d","name:right:eu":"Tajikistan","name:right:et":"Tad\u017eikistan","name:left:os":"\u0410\u0444\u0433\u044a\u0430\u043d\u0438\u0441\u0442\u0430\u043d","name:left:or":"\u0b06\u0b2b\u0b17\u0b3e\u0b28\u0b3f\u0b38\u0b4d\u0b24\u0b3e\u0b28","name:left:om":"Afgaanistaan","name:right:ee":"Tajikistan","name:left:vo":"Lafganist\u00e4n","name:left:oc":"Afganistan","name:right:eo":"Ta\u011dikujo","name:right:en":"Tajikistan","name:right:el":"\u03a4\u03b1\u03c4\u03b6\u03b9\u03ba\u03b9\u03c3\u03c4\u03ac\u03bd","name:left:ff":"Afganistaan","name:left:fo":"Afghanistan","name:left:qu":"Afgansuyu","name:left:fi":"Afganistan","name:left:fr":"Afghanistan","name:left:cs":"Afgh\u00e1nist\u00e1n","name:left:fy":"Afganistan","name:right:ja":"\u30bf\u30b8\u30ad\u30b9\u30bf\u30f3","name:right:sq":"Taxhikistani","name:right:ss":"IThajiki","name:left:ja":"\u30a2\u30d5\u30ac\u30cb\u30b9\u30bf\u30f3","name:right:su":"Tajikistan","alt_name:left:so":"Afqaanistan","name:right:sw":"Tajikistan","name:right:sv":"Tadzjikistan","name:right:si":"\u0da7\u0da2\u0dd2\u0d9a\u0dd2\u0dc3\u0dca\u0dae\u0dcf\u0db1\u0dca","name:right:sh":"Tad\u017eikistan","name:right:sk":"Tad\u017eikistan","name:right:jv":"Tajikistan","name:right:sl":"Tad\u017eikistan","name:right:so":"Tadsjikistan","name:right:sa":"\u0924\u093e\u091c\u093f\u0915\u093f\u0938\u094d\u0925\u093e\u0928","name:left:jv":"Afganistan","id":-303427,"old_name:left:vi":"A Ph\u00fa H\u00e3n","name:right:ca":"Tadjikistan","name:right:se":"Ta\u017eikistan","name:right:ce":"\u0422\u0430\u0434\u0436\u0438\u043a\u0438\u0441\u0442\u0430\u043d","name:right:cy":"Tajikistan","name:right:zh-yue":"\u5854\u5409\u514b","name:right:cs":"T\u00e1d\u017eikist\u00e1n","name:right":"\u0422\u043e\u04b7\u0438\u043a\u0438\u0441\u0442\u043e\u043d","name:right:cu":"\u0422\u0430\u0434\u0436\u0438\u043a\u0438\u0441\u0442\u0430\u043d\u044a","name:right:cv":"\u0422\u0430\u0434\u0436\u0438\u043a\u0438\u0441\u0442\u0430\u043d","name:right:it":"Tagikistan","name:left:as":"\u0986\u09ab\u0997\u09be\u09a8\u09bf\u09b8\u09cd\u09a4\u09be\u09a8","name:left:ar":"\u0623\u0641\u063a\u0627\u0646\u0633\u062a\u0627\u0646","name:right:is":"Tadsjikistan","name:left:az":"\u018ffqan\u0131stan","name:left:ro":"Afganistan","name:left:af":"Afghanistan","name:left:an":"Afganist\u00e1n","name:left:am":"\u12a0\u134d\u130b\u1292\u1235\u1273\u1295","name:right:ru":"\u0422\u0430\u0434\u0436\u0438\u043a\u0438\u0441\u0442\u0430\u043d","name:left:ak":"Afganistan","name:right:io":"Tajikistan","name:left:zh-yue":"\u963f\u5bcc\u6c57","name:left:rw":"Afuganisitani","name:right:hy":"\u054f\u0561\u057b\u056b\u056f\u057d\u057f\u0561\u0576","name:right:qu":"Tayiksuyu","alt_name:left:eo":"Afganistano;Afganio","name:left:lg":"Afaganisitani","name:left:su":"Apganistan","int_name:left":"Afghanistan","name:left:sw":"Afghanistan","name:left:sv":"Afghanistan","name:left:sq":"Afganistani","name:right:hu":"T\u00e1dzsikiszt\u00e1n","name:left:ln":"Afganist\u00e1ni","name:left:lo":"\u0ead\u0eb1\u0e9a\u0e81\u0eb2\u0e99\u0eb4\u0eaa\u0eb0\u0e96\u0eb2\u0e99","name:left:sm":"Afakanisitana","name:right:hi":"\u0924\u093e\u091c\u093f\u0915\u093f\u0938\u094d\u0924\u093e\u0928","name:left:so":"Afgaanistan","name:left:sn":"Afghanistan","name:left:si":"\u0d87\u0dc6\u0dca\u0d9c\u0db1\u0dd2\u0dc3\u0dca\u0dae\u0dcf\u0db1\u0dba","name:left:sh":"Afganistan","name:left:sk":"Afganistan","name:left:se":"Afganist\u00e1na","name:left:sg":"Fagan\u00efta, Afgan\u00efst\u00e4an","name:left:sa":"\u0905\u092b\u0917\u093e\u0928\u0938\u094d\u0925\u093e\u0928","name:right:he":"\u05d8\u05d2'\u05d9\u05e7\u05d9\u05e1\u05d8\u05df","name:right:la":"Tadzikistania","name:right:af":"Tadjikistan","name:left:co":"Afghanistan","name:left:ce":"\u0410\u0444\u0433I\u0430\u043d\u0438\u0441\u0442\u0430\u043d","name:right:an":"Tachiquist\u00e1n","name:right:am":"\u1273\u1302\u12aa\u1235\u1273\u1295","name:left:ca":"Afganistan","source":"openstreetmap.org","name:left:cy":"Affganistan","name:right:ar":"\u0637\u0627\u062c\u064a\u0643\u0633\u062a\u0627\u0646","name:left:cv":"\u0410\u0444\u0433\u0430\u043d\u0438\u0441\u0442\u0430\u043d","name:right:az":"Tacikistan","name:right:ay":"Tayiksuyu","alt_name:left:it":"Afganistan","name:right:li":"Tadzjikistan","alt_name:left:la":"Afghanistania","alt_name:left:li":"Afganistan","name:right:lt":"Tad\u017eikija","name":"\u0627\u0641\u063a\u0627\u0646\u0633\u062a\u0627\u0646 - \u0422\u043e\u04b7\u0438\u043a\u0438\u0441\u0442\u043e\u043d","name:left:zu":"I-Afganistani","name:left:zh":"\u963f\u5bcc\u6c57","name:right:zh":"\u5854\u5409\u514b\u65af\u5766","name:left:za":"Afghanistan","official_name:left":"C\u1ed9ng h\u00f2a H\u1ed3i gi\u00e1o Afghanistan","name:left:uz":"Afg\u02bboniston","name:right:fr":"Tadjikistan","name:right:ko":"\ud0c0\uc9c0\ud0a4\uc2a4\ud0c4","id:right":-214626,"name:left:uk":"\u0410\u0444\u0433\u0430\u043d\u0456\u0441\u0442\u0430\u043d","name:left:no":"Afghanistan","name:left:nl":"Afghanistan","alt_name:right:eo":"Ta\u011dikistano;Ta\u011dikio","name:right:fa":"\u062a\u0627\u062c\u06cc\u06a9\u0633\u062a\u0627\u0646","name:right:fo":"Tadsjikistan","name:left:ne":"\u0905\u092b\u0917\u093e\u0928\u093f\u0938\u094d\u0924\u093e\u0928","name:left:ug":"\u0626\u0627\u0641\u063a\u0627\u0646\u0649\u0633\u062a\u0627\u0646","name:left:na":"Apeganitan","name:left:eo":"Afganujo","name:left:en":"Afghanistan","name:left:el":"\u0391\u03c6\u03b3\u03b1\u03bd\u03b9\u03c3\u03c4\u03ac\u03bd","name:left:ee":"Afghanistan nutome","name:left:pl":"Afganistan","name:left:es":"Afganist\u00e1n","name:left:ss":"I-Afugani","name:left:ie":"Afghanistan","name:left:eu":"Afganistan","name:left:et":"Afganistan","name:right:zh-min-nan":"Tajikistan","name:right:oc":"Tatgiquistan","name:left:ia":"Afghanistan","name:right:bs":"Tad\u017eikistan","name:left:sr":"\u0410\u0432\u0433\u0430\u043d\u0438\u0441\u0442\u0430\u043d","name:right:uz":"Tojikiston","osm_relation":true,"name:right:or":"\u0b24\u0b3e\u0b1c\u0b3f\u0b15\u0b3f\u0b38\u0b4d\u0b24\u0b3e\u0b28","name:left:pt":"Afeganist\u00e3o","name:right:ku":"Tac\u00eekistan","name:right:tk":"T\u00e4jigistan","min_zoom":8.0,"name:left:zh-min-nan":"Afghanistan","name:left:wo":"Afganistaan","name:left:ga":"An Afganast\u00e1in","name:left:gd":"Afganastan","name:left:gl":"Afganist\u00e1n - \u0627\u0641\u063a\u0627\u0646\u0633\u062a\u0627\u0646","name:left:gn":"Ahyganit\u00e3","name:left:gu":"\u0a85\u0aab\u0a98\u0abe\u0aa8\u0abf\u0ab8\u0acd\u0aa4\u0abe\u0aa8","name:left:gv":"Yn Afghanistaan","name:left":"\u0627\u0641\u063a\u0627\u0646\u0633\u062a\u0627\u0646","name:right:mk":"\u0422\u0430\u045f\u0438\u043a\u0438\u0441\u0442\u0430\u043d","name:right:mn":"\u0422\u0430\u0436\u0438\u043a\u0438\u0441\u0442\u0430\u043d","name:right:ml":"\u0d24\u0d3e\u0d1c\u0d3f\u0d15\u0d4d\u0d15\u0d3f\u0d38\u0d4d\u0d25\u0d3e\u0d7b","name:right:vo":"Tacikist\u00e4n","name:right:vi":"Tajikistan","name:right:my":"\u1010\u102c\u1002\u103b\u1005\u103a\u1000\u1005\u1039\u1005\u1010\u1014\u103a\u1014\u102d\u102f\u1004\u103a\u1004\u1036","name:right:ms":"Tajikistan","name:right:mr":"\u0924\u093e\u091c\u093f\u0915\u093f\u0938\u094d\u0924\u093e\u0928","name:right:fy":"Tadzjikistan","name:left:nn":"Afghanistan","kind":"country","alt_name:left:gd":"Afghanast\u00e0n","name:left:br":"Afghanistan","name:left:bs":"Afganistan","name:left:ba":"\u0410\u0444\u0493\u0430\u043d\u0441\u0442\u0430\u043d","name:left:bg":"\u0410\u0444\u0433\u0430\u043d\u0438\u0441\u0442\u0430\u043d","name:left:be":"\u0410\u0444\u0433\u0430\u043d\u0456\u0441\u0442\u0430\u043d","name:left:bn":"\u0986\u09ab\u0997\u09be\u09a8\u09bf\u09b8\u09cd\u09a4\u09be\u09a8","name:left:bo":"\u0f68\u0f0b\u0f67\u0fa5\u0f74\u0f60\u0f74\u0f0b\u0f62\u0f92\u0f53\u0f0b\u0f66\u0f72\u0f0b\u0f50\u0f53\u0f0d","name:left:bm":"Afiganista\u014b","name:left:yo":"Afghan\u00edst\u00e0n","name:left:yi":"\u05d0\u05e4\u05d2\u05d0\u05e0\u05d9\u05e1\u05d8\u05d0\u05df","id:left":-303427,"name:right:fi":"Tad\u017eikistan","name:right:ka":"\u10e2\u10d0\u10ef\u10d8\u10d9\u10d4\u10d7\u10d8","name:left:io":"Afganistan","name:left:pa":"\u0a05\u0a2b\u0a3c\u0a17\u0a3c\u0a3e\u0a28\u0a3f\u0a38\u0a24\u0a3e\u0a28","name:right:tt":"\u0422\u0430\u0497\u0438\u043a\u0441\u0442\u0430\u043d","name:right:kk":"\u0422\u04d9\u0436\u0456\u043a\u0441\u0442\u0430\u043d","name:left:id":"Afganistan","name:right:km":"\u178f\u17b6\u1787\u17b8\u1782\u17b8\u179f\u17d2\u1790\u17b6\u1793","name:left:pi":"\u0905\u092b\u0917\u093e\u0928\u0938\u094d\u0925\u093e\u0928","name:right:tr":"Tacikistan","name:right:kn":"\u0ca4\u0c9c\u0cbf\u0c95\u0cbf\u0cb8\u0ccd\u0ca4\u0cbe\u0ca8\u0ccd","name:right:tl":"Tayikistan","name:right:th":"\u0e1b\u0e23\u0e30\u0e40\u0e17\u0e28\u0e17\u0e32\u0e08\u0e34\u0e01\u0e34\u0e2a\u0e16\u0e32\u0e19","name:right:kw":"Pow Tajik","name:right:kv":"\u0422\u0430\u0434\u0436\u0438\u043a\u0438\u0441\u0442\u0430\u043d","name:right:ky":"\u0422\u0430\u0436\u0438\u043a\u0441\u0442\u0430\u043d","name:right:te":"\u0c24\u0c1c\u0c3f\u0c15\u0c3f\u0c38\u0c4d\u0c24\u0c3e\u0c28\u0c4d","name:left:it":"Afghanistan","name:left:is":"Afganistan","name:right:ta":"\u0ba4\u0b9c\u0bbf\u0b95\u0bbf\u0bb8\u0bcd\u0ba4\u0bbe\u0ba9\u0bcd","name:right:de":"Tadschikistan","name:right:da":"Tadsjikistan","name:left:rn":"Afuganisitani","alt_name:left:af":"Afganistan","name:right:dz":"\u0f4f\u0f0b\u0f47\u0f42\u0f0b\u0f40\u0f72\u0f66\u0f72\u0f0b\u0f4f\u0f71\u0f53\u0f0b","name:right:dv":"\u078c\u07a6\u0796\u07a8\u0786\u07a8\u0790\u07b0\u078c\u07a7\u0782\u07b0","name:right:ht":"Tadjikistan"},"arcs":[[0],[1]]},{"type":"LineString","properties":{"name:right:yo":"Tajikistan","name:right:yi":"\u05d8\u05d0\u05d3\u05d6\u05e9\u05d9\u05e7\u05d9\u05e1\u05d8\u05d0\u05df","name:left:la":"Afgania","name:left:lb":"Afghanistan","alt_name:left:mn":"\u0410\u0444\u0433\u0430\u043d \u0443\u043b\u0441","name:left:li":"Afghanistan","name:left:vi":"Afghanistan","name:right:hr":"Tad\u017eikistan","name:left:kg":"Afghanistan","name:left:ka":"\u10d0\u10d5\u10e6\u10d0\u10dc\u10d4\u10d7\u10d8","alt_name:left:sh":"Avganistan","name:left:km":"\u179f\u17b6\u1792\u17b6\u179a\u178e\u179a\u178a\u17d2\u178b\u17a5\u179f\u17d2\u179b\u17b6\u1798\u17a2\u17b6\u17a0\u17d2\u179c\u17a0\u17d2\u1780\u17b6\u1793\u17b8\u179f\u17d2\u1790\u17b6\u1793","name:left:kl":"Afghanistan","name:left:ko":"\uc544\ud504\uac00\ub2c8\uc2a4\ud0c4","name:left:kn":"\u0c85\u0cab\u0ccd\u0c98\u0cbe\u0ca8\u0cbf\u0cb8\u0ccd\u0ca4\u0cbe\u0ca8","name:left:ki":"Afghanistan","name:right:rw":"Tajikisitani","name:left:kk":"\u0410\u0443\u0493\u0430\u043d\u0441\u0442\u0430\u043d","name:left:rm":"Afganistan","name:left:ku":"Afxanistan","name:left:kw":"Afghanistan","name:left:kv":"\u0410\u0444\u0433\u0430\u043d\u0438\u0441\u0442\u0430\u043d","name:right:ro":"Tadjikistan","name:left:ks":"\u0627\u064e\u0641\u063a\u0627\u0646\u064e\u0633\u062a\u0627\u0646","name:left:ru":"\u0410\u0444\u0433\u0430\u043d\u0438\u0441\u0442\u0430\u043d","name:right:ie":"Tadjikistan","name:right:id":"Tajikistan","name:left:ky":"\u041e\u043e\u0433\u0430\u043d\u0441\u0442\u0430\u043d","name:right:ia":"Tajikistan","name:right:bn":"\u09a4\u09be\u099c\u09bf\u0995\u09bf\u09b8\u09cd\u09a4\u09be\u09a8","name:right:bo":"\u0f50\u0f0b\u0f47\u0f72\u0f0b\u0f41\u0f7a\u0f0b\u0f66\u0f72\u0f0b\u0f4f\u0f53\u0f0d","name:left:sl":"Afganistan","name:right:ba":"\u0422\u0430\u0436\u0438\u043a\u0441\u0442\u0430\u043d","name:right:bg":"\u0422\u0430\u0434\u0436\u0438\u043a\u0438\u0441\u0442\u0430\u043d","name:right:be":"\u0422\u0430\u0434\u0436\u044b\u043a\u0456\u0441\u0442\u0430\u043d","name:right:br":"Tadjikistan","name:left:lt":"Afganistanas","name:right:nn":"Tadsjikistan","name:right:no":"Tadsjikistan","name:right:nl":"Tadzjikistan","name:left:lv":"Afganist\u0101na","name:right:wo":"Tajikistaan","name:right:na":"Tadjikitan","name:right:gv":"Yn Tajikistaan","alt_name:left:vi":"\u00c1p-ga-n\u00edt-xt\u0103ng","name:right:nv":"T\u02bcaji\u02bc Bik\u00e9yah","name:left:mg":"Afganistana","kind_detail":"2","name:left:tr":"Afganistan","name:right:gu":"\u0aa4\u0abe\u0a9c\u0abf\u0a95\u0abf\u0ab8\u0acd\u0aa4\u0abe\u0aa8","name:right:ps":"\u062a\u0627\u062c\u064a\u06a9\u0633\u062a\u0627\u0646","name:right:pt":"Tajiquist\u00e3o","name:left:mk":"\u0410\u0432\u0433\u0430\u043d\u0438\u0441\u0442\u0430\u043d","name:left:mi":"\u0100whekenet\u0101na","name:left:tt":"\u04d8\u0444\u0433\u0430\u043d\u0441\u0442\u0430\u043d","name:left:mn":"\u0410\u0444\u0433\u0430\u043d\u0438\u0441\u0442\u0430\u043d","name:left:ml":"\u0d05\u0d2b\u0d4d\u0d17\u0d3e\u0d28\u0d3f\u0d38\u0d4d\u0d24\u0d3e\u0d7b","name:left:th":"\u0e1b\u0e23\u0e30\u0e40\u0e17\u0e28\u0e2d\u0e31\u0e1f\u0e01\u0e32\u0e19\u0e34\u0e2a\u0e16\u0e32\u0e19","name:left:ti":"\u12a0\u134d\u130b\u1292\u1235\u1273\u1295","name:left:tk":"Owganystan","name:left:tl":"Apganistan","name:left:mt":"Afganistan","name:right:gl":"Taxiquist\u00e1n","name:left:my":"\u1021\u102c\u1016\u1002\u1014\u103a\u1014\u1005\u1039\u1005\u1010\u1014\u103a\u1014\u102d\u102f\u1004\u103a\u1004\u1036","name:right:pl":"Tad\u017cykistan","name:left:te":"\u0c06\u0c2b\u0c4d\u0c18\u0c28\u0c3f\u0c38\u0c4d\u0c24\u0c3e\u0c28\u0c4d","name:left:tg":"\u0410\u0444\u0493\u043e\u043d\u0438\u0441\u0442\u043e\u043d","name:left:ms":"Afghanistan","name:left:mr":"\u0905\u092b\u0917\u093e\u0923\u093f\u0938\u094d\u0924\u093e\u0928","name:left:da":"Afghanistan","name:left:de":"Afghanistan","name:left:dz":"\u0f68\u0f55\u0f0b\u0f42\u0f0b\u0f53\u0f72\u0f66\u0f72\u0f0b\u0f4f\u0f71\u0f53\u0f0b","name:right:ga":"An T\u00e1ids\u00edceast\u00e1in","name:left:dv":"\u0787\u07a6\u078a\u07b0\u07a3\u07a7\u0782\u07a8\u0790\u07b0\u078c\u07a7\u0782\u07b0","name:right:ug":"\u062a\u0627\u062c\u0649\u0643\u0649\u0633\u062a\u0627\u0646","name:left:hi":"\u0905\u092b\u093c\u094d\u0917\u093e\u0928\u093f\u0938\u094d\u0924\u093e\u0928","name:right:lb":"Tadjikistan","name:right:uk":"\u0422\u0430\u0434\u0436\u0438\u043a\u0438\u0441\u0442\u0430\u043d","name:left:he":"\u05d0\u05e4\u05d2\u05e0\u05d9\u05e1\u05d8\u05df","name:left:to":"\u02bbAfukanisitani","name:left:ha":"Afghanistan","alt_name:left:io":"Afgania","name:right:ur":"\u062a\u0627\u062c\u06a9\u0633\u062a\u0627\u0646","name:right:lv":"Tad\u017eikist\u0101na","name:left:hy":"\u0531\u0586\u0572\u0561\u0576\u057d\u057f\u0561\u0576","name:left:ta":"\u0b86\u0baa\u0bcd\u0b95\u0bbe\u0ba9\u0bbf\u0ba4\u0bcd\u0ba4\u0bbe\u0ba9\u0bcd","name:left:ht":"Afganistan","name:left:hu":"Afganiszt\u00e1n","name:left:hr":"Afganistan","sort_rank":262,"name:right:gd":"Taidigeast\u00e0n","name:right:os":"\u0422\u0430\u0434\u0436\u0438\u043a\u0438\u0441\u0442\u0430\u043d","name:right:es":"Tayikist\u00e1n","name:right:sr":"\u0422\u0430\u045f\u0438\u043a\u0438\u0441\u0442\u0430\u043d","name:right:eu":"Tajikistan","name:right:et":"Tad\u017eikistan","name:left:os":"\u0410\u0444\u0433\u044a\u0430\u043d\u0438\u0441\u0442\u0430\u043d","name:left:or":"\u0b06\u0b2b\u0b17\u0b3e\u0b28\u0b3f\u0b38\u0b4d\u0b24\u0b3e\u0b28","name:left:om":"Afgaanistaan","name:right:ee":"Tajikistan","name:left:vo":"Lafganist\u00e4n","name:left:oc":"Afganistan","name:right:eo":"Ta\u011dikujo","name:right:en":"Tajikistan","name:right:el":"\u03a4\u03b1\u03c4\u03b6\u03b9\u03ba\u03b9\u03c3\u03c4\u03ac\u03bd","name:left:ff":"Afganistaan","name:left:fo":"Afghanistan","name:left:qu":"Afgansuyu","name:left:fi":"Afganistan","name:left:fr":"Afghanistan","name:left:cs":"Afgh\u00e1nist\u00e1n","name:left:fy":"Afganistan","name:right:ja":"\u30bf\u30b8\u30ad\u30b9\u30bf\u30f3","name:right:sq":"Taxhikistani","name:right:ss":"IThajiki","name:left:ja":"\u30a2\u30d5\u30ac\u30cb\u30b9\u30bf\u30f3","name:right:su":"Tajikistan","alt_name:left:so":"Afqaanistan","name:right:sw":"Tajikistan","name:right:sv":"Tadzjikistan","name:right:si":"\u0da7\u0da2\u0dd2\u0d9a\u0dd2\u0dc3\u0dca\u0dae\u0dcf\u0db1\u0dca","name:right:sh":"Tad\u017eikistan","name:right:sk":"Tad\u017eikistan","name:right:jv":"Tajikistan","name:right:sl":"Tad\u017eikistan","name:right:so":"Tadsjikistan","name:right:sa":"\u0924\u093e\u091c\u093f\u0915\u093f\u0938\u094d\u0925\u093e\u0928","name:left:jv":"Afganistan","id":-303427,"old_name:left:vi":"A Ph\u00fa H\u00e3n","name:right:ca":"Tadjikistan","name:right:se":"Ta\u017eikistan","name:right:ce":"\u0422\u0430\u0434\u0436\u0438\u043a\u0438\u0441\u0442\u0430\u043d","name:right:cy":"Tajikistan","name:right:zh-yue":"\u5854\u5409\u514b","name:right:cs":"T\u00e1d\u017eikist\u00e1n","name:right":"\u0422\u043e\u04b7\u0438\u043a\u0438\u0441\u0442\u043e\u043d","name:right:cu":"\u0422\u0430\u0434\u0436\u0438\u043a\u0438\u0441\u0442\u0430\u043d\u044a","name:right:cv":"\u0422\u0430\u0434\u0436\u0438\u043a\u0438\u0441\u0442\u0430\u043d","name:right:it":"Tagikistan","name:left:as":"\u0986\u09ab\u0997\u09be\u09a8\u09bf\u09b8\u09cd\u09a4\u09be\u09a8","name:left:ar":"\u0623\u0641\u063a\u0627\u0646\u0633\u062a\u0627\u0646","name:right:is":"Tadsjikistan","name:left:az":"\u018ffqan\u0131stan","name:left:ro":"Afganistan","name:left:af":"Afghanistan","name:left:an":"Afganist\u00e1n","name:left:am":"\u12a0\u134d\u130b\u1292\u1235\u1273\u1295","name:right:ru":"\u0422\u0430\u0434\u0436\u0438\u043a\u0438\u0441\u0442\u0430\u043d","name:left:ak":"Afganistan","name:right:io":"Tajikistan","name:left:zh-yue":"\u963f\u5bcc\u6c57","name:left:rw":"Afuganisitani","name:right:hy":"\u054f\u0561\u057b\u056b\u056f\u057d\u057f\u0561\u0576","name:right:qu":"Tayiksuyu","alt_name:left:eo":"Afganistano;Afganio","name:left:lg":"Afaganisitani","name:left:su":"Apganistan","int_name:left":"Afghanistan","name:left:sw":"Afghanistan","name:left:sv":"Afghanistan","name:left:sq":"Afganistani","name:right:hu":"T\u00e1dzsikiszt\u00e1n","name:left:ln":"Afganist\u00e1ni","name:left:lo":"\u0ead\u0eb1\u0e9a\u0e81\u0eb2\u0e99\u0eb4\u0eaa\u0eb0\u0e96\u0eb2\u0e99","name:left:sm":"Afakanisitana","name:right:hi":"\u0924\u093e\u091c\u093f\u0915\u093f\u0938\u094d\u0924\u093e\u0928","name:left:so":"Afgaanistan","name:left:sn":"Afghanistan","name:left:si":"\u0d87\u0dc6\u0dca\u0d9c\u0db1\u0dd2\u0dc3\u0dca\u0dae\u0dcf\u0db1\u0dba","name:left:sh":"Afganistan","name:left:sk":"Afganistan","name:left:se":"Afganist\u00e1na","name:left:sg":"Fagan\u00efta, Afgan\u00efst\u00e4an","name:left:sa":"\u0905\u092b\u0917\u093e\u0928\u0938\u094d\u0925\u093e\u0928","name:right:he":"\u05d8\u05d2'\u05d9\u05e7\u05d9\u05e1\u05d8\u05df","name:right:la":"Tadzikistania","name:right:af":"Tadjikistan","name:left:co":"Afghanistan","name:left:ce":"\u0410\u0444\u0433I\u0430\u043d\u0438\u0441\u0442\u0430\u043d","name:right:an":"Tachiquist\u00e1n","name:right:am":"\u1273\u1302\u12aa\u1235\u1273\u1295","name:left:ca":"Afganistan","source":"openstreetmap.org","name:left:cy":"Affganistan","name:right:ar":"\u0637\u0627\u062c\u064a\u0643\u0633\u062a\u0627\u0646","name:left:cv":"\u0410\u0444\u0433\u0430\u043d\u0438\u0441\u0442\u0430\u043d","name:right:az":"Tacikistan","name:right:ay":"Tayiksuyu","alt_name:left:it":"Afganistan","name:right:li":"Tadzjikistan","alt_name:left:la":"Afghanistania","alt_name:left:li":"Afganistan","name:right:lt":"Tad\u017eikija","name":"\u0627\u0641\u063a\u0627\u0646\u0633\u062a\u0627\u0646 - \u0422\u043e\u04b7\u0438\u043a\u0438\u0441\u0442\u043e\u043d","name:left:zu":"I-Afganistani","name:left:zh":"\u963f\u5bcc\u6c57","name:right:zh":"\u5854\u5409\u514b\u65af\u5766","name:left:za":"Afghanistan","official_name:left":"C\u1ed9ng h\u00f2a H\u1ed3i gi\u00e1o Afghanistan","name:left:uz":"Afg\u02bboniston","name:right:fr":"Tadjikistan","name:right:ko":"\ud0c0\uc9c0\ud0a4\uc2a4\ud0c4","id:right":-214626,"name:left:uk":"\u0410\u0444\u0433\u0430\u043d\u0456\u0441\u0442\u0430\u043d","name:left:no":"Afghanistan","name:left:nl":"Afghanistan","alt_name:right:eo":"Ta\u011dikistano;Ta\u011dikio","name:right:fa":"\u062a\u0627\u062c\u06cc\u06a9\u0633\u062a\u0627\u0646","name:right:fo":"Tadsjikistan","name:left:ne":"\u0905\u092b\u0917\u093e\u0928\u093f\u0938\u094d\u0924\u093e\u0928","name:left:ug":"\u0626\u0627\u0641\u063a\u0627\u0646\u0649\u0633\u062a\u0627\u0646","name:left:na":"Apeganitan","name:left:eo":"Afganujo","name:left:en":"Afghanistan","name:left:el":"\u0391\u03c6\u03b3\u03b1\u03bd\u03b9\u03c3\u03c4\u03ac\u03bd","name:left:ee":"Afghanistan nutome","name:left:pl":"Afganistan","name:left:es":"Afganist\u00e1n","name:left:ss":"I-Afugani","name:left:ie":"Afghanistan","name:left:eu":"Afganistan","name:left:et":"Afganistan","name:right:zh-min-nan":"Tajikistan","name:right:oc":"Tatgiquistan","name:left:ia":"Afghanistan","name:right:bs":"Tad\u017eikistan","name:left:sr":"\u0410\u0432\u0433\u0430\u043d\u0438\u0441\u0442\u0430\u043d","name:right:uz":"Tojikiston","osm_relation":true,"name:right:or":"\u0b24\u0b3e\u0b1c\u0b3f\u0b15\u0b3f\u0b38\u0b4d\u0b24\u0b3e\u0b28","name:left:pt":"Afeganist\u00e3o","name:right:ku":"Tac\u00eekistan","name:right:tk":"T\u00e4jigistan","min_zoom":8.0,"name:left:zh-min-nan":"Afghanistan","name:left:wo":"Afganistaan","name:left:ga":"An Afganast\u00e1in","name:left:gd":"Afganastan","name:left:gl":"Afganist\u00e1n - \u0627\u0641\u063a\u0627\u0646\u0633\u062a\u0627\u0646","name:left:gn":"Ahyganit\u00e3","name:left:gu":"\u0a85\u0aab\u0a98\u0abe\u0aa8\u0abf\u0ab8\u0acd\u0aa4\u0abe\u0aa8","name:left:gv":"Yn Afghanistaan","name:left":"\u0627\u0641\u063a\u0627\u0646\u0633\u062a\u0627\u0646","name:right:mk":"\u0422\u0430\u045f\u0438\u043a\u0438\u0441\u0442\u0430\u043d","name:right:mn":"\u0422\u0430\u0436\u0438\u043a\u0438\u0441\u0442\u0430\u043d","name:right:ml":"\u0d24\u0d3e\u0d1c\u0d3f\u0d15\u0d4d\u0d15\u0d3f\u0d38\u0d4d\u0d25\u0d3e\u0d7b","name:right:vo":"Tacikist\u00e4n","name:right:vi":"Tajikistan","name:right:my":"\u1010\u102c\u1002\u103b\u1005\u103a\u1000\u1005\u1039\u1005\u1010\u1014\u103a\u1014\u102d\u102f\u1004\u103a\u1004\u1036","name:right:ms":"Tajikistan","name:right:mr":"\u0924\u093e\u091c\u093f\u0915\u093f\u0938\u094d\u0924\u093e\u0928","name:right:fy":"Tadzjikistan","name:left:nn":"Afghanistan","kind":"country","alt_name:left:gd":"Afghanast\u00e0n","name:left:br":"Afghanistan","name:left:bs":"Afganistan","name:left:ba":"\u0410\u0444\u0493\u0430\u043d\u0441\u0442\u0430\u043d","name:left:bg":"\u0410\u0444\u0433\u0430\u043d\u0438\u0441\u0442\u0430\u043d","name:left:be":"\u0410\u0444\u0433\u0430\u043d\u0456\u0441\u0442\u0430\u043d","name:left:bn":"\u0986\u09ab\u0997\u09be\u09a8\u09bf\u09b8\u09cd\u09a4\u09be\u09a8","name:left:bo":"\u0f68\u0f0b\u0f67\u0fa5\u0f74\u0f60\u0f74\u0f0b\u0f62\u0f92\u0f53\u0f0b\u0f66\u0f72\u0f0b\u0f50\u0f53\u0f0d","name:left:bm":"Afiganista\u014b","name:left:yo":"Afghan\u00edst\u00e0n","name:left:yi":"\u05d0\u05e4\u05d2\u05d0\u05e0\u05d9\u05e1\u05d8\u05d0\u05df","id:left":-303427,"name:right:fi":"Tad\u017eikistan","name:right:ka":"\u10e2\u10d0\u10ef\u10d8\u10d9\u10d4\u10d7\u10d8","name:left:io":"Afganistan","name:left:pa":"\u0a05\u0a2b\u0a3c\u0a17\u0a3c\u0a3e\u0a28\u0a3f\u0a38\u0a24\u0a3e\u0a28","name:right:tt":"\u0422\u0430\u0497\u0438\u043a\u0441\u0442\u0430\u043d","name:right:kk":"\u0422\u04d9\u0436\u0456\u043a\u0441\u0442\u0430\u043d","name:left:id":"Afganistan","name:right:km":"\u178f\u17b6\u1787\u17b8\u1782\u17b8\u179f\u17d2\u1790\u17b6\u1793","name:left:pi":"\u0905\u092b\u0917\u093e\u0928\u0938\u094d\u0925\u093e\u0928","name:right:tr":"Tacikistan","name:right:kn":"\u0ca4\u0c9c\u0cbf\u0c95\u0cbf\u0cb8\u0ccd\u0ca4\u0cbe\u0ca8\u0ccd","name:right:tl":"Tayikistan","name:right:th":"\u0e1b\u0e23\u0e30\u0e40\u0e17\u0e28\u0e17\u0e32\u0e08\u0e34\u0e01\u0e34\u0e2a\u0e16\u0e32\u0e19","name:right:kw":"Pow Tajik","name:right:kv":"\u0422\u0430\u0434\u0436\u0438\u043a\u0438\u0441\u0442\u0430\u043d","name:right:ky":"\u0422\u0430\u0436\u0438\u043a\u0441\u0442\u0430\u043d","name:right:te":"\u0c24\u0c1c\u0c3f\u0c15\u0c3f\u0c38\u0c4d\u0c24\u0c3e\u0c28\u0c4d","name:left:it":"Afghanistan","name:left:is":"Afganistan","name:right:ta":"\u0ba4\u0b9c\u0bbf\u0b95\u0bbf\u0bb8\u0bcd\u0ba4\u0bbe\u0ba9\u0bcd","name:right:de":"Tadschikistan","name:right:da":"Tadsjikistan","name:left:rn":"Afuganisitani","alt_name:left:af":"Afganistan","name:right:dz":"\u0f4f\u0f0b\u0f47\u0f42\u0f0b\u0f40\u0f72\u0f66\u0f72\u0f0b\u0f4f\u0f71\u0f53\u0f0b","name:right:dv":"\u078c\u07a6\u0796\u07a8\u0786\u07a8\u0790\u07b0\u078c\u07a7\u0782\u07b0","name:right:ht":"Tadjikistan"},"arcs":[2]},{"type":"LineString","properties":{"int_name:right":"Districts of Republican Subordination","name:right:ja":"\u5171\u548c\u56fd\u76f4\u8f44\u5730","int_name:left":"Khatlon","name:left:ja":"\u30cf\u30c8\u30ed\u30f3","name:left:de":"Provinz Chatlon","name:right:lt":"Tiesioginio pavaldumo regionas","min_zoom":8.0,"name:left:lt":"Chatlono provincija","id:left":-3279616,"name:right:fa":"\u0646\u0627\u062d\u06cc\u0647 \u0647\u0627\u06cc \u062a\u0627\u0628\u0639 \u062c\u0645\u0647\u0648\u0631\u06cc","name:right:ru":"\u0420\u0430\u0439\u043e\u043d\u044b \u0440\u0435\u0441\u043f\u0443\u0431\u043b\u0438\u043a\u0430\u043d\u0441\u043a\u043e\u0433\u043e \u043f\u043e\u0434\u0447\u0438\u043d\u0435\u043d\u0438\u044f","id":-3279616,"osm_relation":true,"name:right":"\u041d\u043e\u04b3\u0438\u044f\u04b3\u043e\u0438 \u0442\u043e\u0431\u0435\u0438 \u04b7\u0443\u043c\u04b3\u0443\u0440\u04e3","name:left:short":"Khatlon","kind":"region","name":"\u0412\u0438\u043b\u043e\u044f\u0442\u0438 \u0425\u0430\u0442\u043b\u043e\u043d - \u041d\u043e\u04b3\u0438\u044f\u04b3\u043e\u0438 \u0442\u043e\u0431\u0435\u0438 \u04b7\u0443\u043c\u04b3\u0443\u0440\u04e3","name:left:fa":"\u0648\u0644\u0627\u06cc\u062a \u062e\u062a\u0644\u0627\u0646","sort_rank":256,"kind_detail":"4","name:right:short":"RRP","name:right:en":"Districts of Republican Subordination","name:left:en":"Khatlon Region","source":"openstreetmap.org","name:right:de":"Der Republik unterstellte Gebiete","name:left:ru":"\u0425\u0430\u0442\u043b\u043e\u043d\u0441\u043a\u0430\u044f \u043e\u0431\u043b\u0430\u0441\u0442\u044c","id:right":-3279615,"name:left":"\u0412\u0438\u043b\u043e\u044f\u0442\u0438 \u0425\u0430\u0442\u043b\u043e\u043d"},"arcs":[3]},{"type":"LineString","properties":{"name:right:ja":"\u30b4\u30eb\u30ce\u30fb\u30d0\u30c0\u30d5\u30b7\u30e3\u30f3\u81ea\u6cbb\u5dde","int_name:left":"Khatlon","name:left:ja":"\u30cf\u30c8\u30ed\u30f3","id:right":-3279614,"name:right:lt":"Kaln\u0173 Badach\u0161ano autonomin\u0117 provincija","min_zoom":8.0,"name:left:lt":"Chatlono provincija","id:left":-3279616,"name:left:ru":"\u0425\u0430\u0442\u043b\u043e\u043d\u0441\u043a\u0430\u044f \u043e\u0431\u043b\u0430\u0441\u0442\u044c","name:right:ru":"\u0413\u043e\u0440\u043d\u043e-\u0411\u0430\u0434\u0430\u0445\u0448\u0430\u043d\u0441\u043a\u0430\u044f \u0430\u0432\u0442\u043e\u043d\u043e\u043c\u043d\u0430\u044f \u043e\u0431\u043b\u0430\u0441\u0442\u044c","id":-3279616,"osm_relation":true,"name:right":"\u0412\u0438\u043b\u043e\u044f\u0442\u0438 \u041c\u0443\u0445\u0442\u043e\u0440\u0438 \u041a\u04ef\u04b3\u0438\u0441\u0442\u043e\u043d\u0438 \u0411\u0430\u0434\u0430\u0445\u0448\u043e\u043d","name:left:short":"Khatlon","kind":"region","name":"\u0412\u0438\u043b\u043e\u044f\u0442\u0438 \u0425\u0430\u0442\u043b\u043e\u043d - \u0412\u0438\u043b\u043e\u044f\u0442\u0438 \u041c\u0443\u0445\u0442\u043e\u0440\u0438 \u041a\u04ef\u04b3\u0438\u0441\u0442\u043e\u043d\u0438 \u0411\u0430\u0434\u0430\u0445\u0448\u043e\u043d","name:left:fa":"\u0648\u0644\u0627\u06cc\u062a \u062e\u062a\u0644\u0627\u0646","sort_rank":256,"kind_detail":"4","source":"openstreetmap.org","name:left:de":"Provinz Chatlon","name:right:en":"Gorno-Badakhshan Autonomous Region","name:left:en":"Khatlon Region","name:right:short":"GBAO","name:right:de":"Autonome Provinz Berg-Badachschan","name:left":"\u0412\u0438\u043b\u043e\u044f\u0442\u0438 \u0425\u0430\u0442\u043b\u043e\u043d"},"arcs":[4]},{"type":"LineString","properties":{"name:right:ja":"\u30b4\u30eb\u30ce\u30fb\u30d0\u30c0\u30d5\u30b7\u30e3\u30f3\u81ea\u6cbb\u5dde","int_name:left":"Khatlon","name:left:ja":"\u30cf\u30c8\u30ed\u30f3","id:right":-3279614,"name:right:lt":"Kaln\u0173 Badach\u0161ano autonomin\u0117 provincija","min_zoom":8.0,"name:left:lt":"Chatlono provincija","id:left":-3279616,"name:left:ru":"\u0425\u0430\u0442\u043b\u043e\u043d\u0441\u043a\u0430\u044f \u043e\u0431\u043b\u0430\u0441\u0442\u044c","name:right:ru":"\u0413\u043e\u0440\u043d\u043e-\u0411\u0430\u0434\u0430\u0445\u0448\u0430\u043d\u0441\u043a\u0430\u044f \u0430\u0432\u0442\u043e\u043d\u043e\u043c\u043d\u0430\u044f \u043e\u0431\u043b\u0430\u0441\u0442\u044c","id":-3279616,"osm_relation":true,"name:right":"\u0412\u0438\u043b\u043e\u044f\u0442\u0438 \u041c\u0443\u0445\u0442\u043e\u0440\u0438 \u041a\u04ef\u04b3\u0438\u0441\u0442\u043e\u043d\u0438 \u0411\u0430\u0434\u0430\u0445\u0448\u043e\u043d","name:left:short":"Khatlon","kind":"region","name":"\u0412\u0438\u043b\u043e\u044f\u0442\u0438 \u0425\u0430\u0442\u043b\u043e\u043d - \u0412\u0438\u043b\u043e\u044f\u0442\u0438 \u041c\u0443\u0445\u0442\u043e\u0440\u0438 \u041a\u04ef\u04b3\u0438\u0441\u0442\u043e\u043d\u0438 \u0411\u0430\u0434\u0430\u0445\u0448\u043e\u043d","name:left:fa":"\u0648\u0644\u0627\u06cc\u062a \u062e\u062a\u0644\u0627\u0646","sort_rank":256,"kind_detail":"4","source":"openstreetmap.org","name:left:de":"Provinz Chatlon","name:right:en":"Gorno-Badakhshan Autonomous Region","name:left:en":"Khatlon Region","name:right:short":"GBAO","name:right:de":"Autonome Provinz Berg-Badachschan","name:left":"\u0412\u0438\u043b\u043e\u044f\u0442\u0438 \u0425\u0430\u0442\u043b\u043e\u043d"},"arcs":[5]},{"type":"LineString","properties":{"name:right:ja":"\u30b4\u30eb\u30ce\u30fb\u30d0\u30c0\u30d5\u30b7\u30e3\u30f3\u81ea\u6cbb\u5dde","int_name:left":"Districts of Republican Subordination","name:left:ja":"\u5171\u548c\u56fd\u76f4\u8f44\u5730","id:right":-3279614,"name:right:lt":"Kaln\u0173 Badach\u0161ano autonomin\u0117 provincija","min_zoom":8.0,"name:left:lt":"Tiesioginio pavaldumo regionas","id:left":-3279615,"name:left:ru":"\u0420\u0430\u0439\u043e\u043d\u044b \u0440\u0435\u0441\u043f\u0443\u0431\u043b\u0438\u043a\u0430\u043d\u0441\u043a\u043e\u0433\u043e \u043f\u043e\u0434\u0447\u0438\u043d\u0435\u043d\u0438\u044f","name:right:ru":"\u0413\u043e\u0440\u043d\u043e-\u0411\u0430\u0434\u0430\u0445\u0448\u0430\u043d\u0441\u043a\u0430\u044f \u0430\u0432\u0442\u043e\u043d\u043e\u043c\u043d\u0430\u044f \u043e\u0431\u043b\u0430\u0441\u0442\u044c","id":-3279615,"osm_relation":true,"name:right":"\u0412\u0438\u043b\u043e\u044f\u0442\u0438 \u041c\u0443\u0445\u0442\u043e\u0440\u0438 \u041a\u04ef\u04b3\u0438\u0441\u0442\u043e\u043d\u0438 \u0411\u0430\u0434\u0430\u0445\u0448\u043e\u043d","name:left:short":"RRP","kind":"region","name":"\u041d\u043e\u04b3\u0438\u044f\u04b3\u043e\u0438 \u0442\u043e\u0431\u0435\u0438 \u04b7\u0443\u043c\u04b3\u0443\u0440\u04e3 - \u0412\u0438\u043b\u043e\u044f\u0442\u0438 \u041c\u0443\u0445\u0442\u043e\u0440\u0438 \u041a\u04ef\u04b3\u0438\u0441\u0442\u043e\u043d\u0438 \u0411\u0430\u0434\u0430\u0445\u0448\u043e\u043d","name:left:fa":"\u0646\u0627\u062d\u06cc\u0647 \u0647\u0627\u06cc \u062a\u0627\u0628\u0639 \u062c\u0645\u0647\u0648\u0631\u06cc","sort_rank":256,"kind_detail":"4","source":"openstreetmap.org","name:left:de":"Der Republik unterstellte Gebiete","name:right:en":"Gorno-Badakhshan Autonomous Region","name:left:en":"Districts of Republican Subordination","name:right:short":"GBAO","name:right:de":"Autonome Provinz Berg-Badachschan","name:left":"\u041d\u043e\u04b3\u0438\u044f\u04b3\u043e\u0438 \u0442\u043e\u0431\u0435\u0438 \u04b7\u0443\u043c\u04b3\u0443\u0440\u04e3"},"arcs":[6]},{"type":"MultiLineString","properties":{"name:right:no":"Badakhshan","name:right:nl":"Badachsjan","name:right:ja":"\u30d0\u30c0\u30d5\u30b7\u30e3\u30fc\u30f3\u5dde","name:right:fr":"Badakhchan","name:right:uk":"\u0411\u0430\u0434\u0430\u0445\u0448\u0430\u043d","name:right:hr":"Provincija Badakh\u0161an","name:left:ja":"\u30b4\u30eb\u30ce\u30fb\u30d0\u30c0\u30d5\u30b7\u30e3\u30f3\u81ea\u6cbb\u5dde","name:right:su":"Propinsi Badakhshan","name:right:sv":"Badakhshan","name:right:lt":"Badach\u0161anas","name:right:hi":"\u092c\u0926\u0916\u093c\u094d\u0936\u093e\u0928 \u092a\u094d\u0930\u093e\u0928\u094d\u0924","min_zoom":8.0,"name:left:lt":"Kaln\u0173 Badach\u0161ano autonomin\u0117 provincija","name:right:eo":"Provinco Bada\u0125\u015dan","id":-3279614,"name:right":"\u0648\u0644\u0627\u06cc\u062a \u0628\u062f\u062e\u0634\u0627\u0646","name:right:id":"Provinsi Badakhshan","name:left:en":"Gorno-Badakhshan Autonomous Region","name:right:ca":"Prov\u00edncia de Badakhxan","kind_detail":"4","name:right:cy":"Badakhshan","source":"openstreetmap.org","name:right:ar":"\u0648\u0644\u0627\u064a\u0629 \u0628\u062f\u062e\u0634\u0627\u0646","id:left":-3279614,"name:right:cs":"Badach\u0161\u00e1n","name:right:fi":"Badah\u0161an","id:right":-1674535,"name:right:az":"B\u0259d\u0259x\u015fan","name:left":"\u0412\u0438\u043b\u043e\u044f\u0442\u0438 \u041c\u0443\u0445\u0442\u043e\u0440\u0438 \u041a\u04ef\u04b3\u0438\u0441\u0442\u043e\u043d\u0438 \u0411\u0430\u0434\u0430\u0445\u0448\u043e\u043d","name:right:es":"Provincia de Badajsh\u00e1n","name:right:ps":"\u0628\u062f\u062e\u0634\u0627\u0646 \u0648\u0644\u0627\u064a\u062a","name:right:pt":"Badakhshan","name:right:eu":"Badakhshan probintzia","name:right:et":"Badakhsh\u0101ni provints","name:right:tr":"Badah\u015fan Vilayeti","name:right:vi":"Badakhshan","name:left:de":"Autonome Provinz Berg-Badachschan","name:right:th":"\u0e08\u0e31\u0e07\u0e2b\u0e27\u0e31\u0e14\u0e1a\u0e32\u0e14\u0e31\u0e04\u0e0a\u0e32\u0e19","name:right:ko":"\ubc14\ub2e4\ud750\uc0e8 \uc8fc","name:left:ru":"\u0413\u043e\u0440\u043d\u043e-\u0411\u0430\u0434\u0430\u0445\u0448\u0430\u043d\u0441\u043a\u0430\u044f \u0430\u0432\u0442\u043e\u043d\u043e\u043c\u043d\u0430\u044f \u043e\u0431\u043b\u0430\u0441\u0442\u044c","name:right:gl":"Badaghx\u00e1n","name:right:bg":"\u0411\u0430\u0434\u0430\u0445\u0448\u0430\u043d","name:right:tg":"\u0412\u0438\u043b\u043e\u044f\u0442\u0438 \u0411\u0430\u0434\u0430\u0445\u0448\u043e\u043d","name:right:pl":"Badachszan","name:right:en":"Badakhshan","osm_relation":true,"name:right:el":"\u039c\u03c0\u03b1\u03bd\u03c4\u03b1\u03c7\u03c3\u03ac\u03bd","name:left:short":"GBAO","kind":"region","name:right:bn":"\u09ac\u09be\u09a6\u09be\u0996\u09b6\u09a8 \u09aa\u09cd\u09b0\u09a6\u09c7\u09b6","name":"\u0412\u0438\u043b\u043e\u044f\u0442\u0438 \u041c\u0443\u0445\u0442\u043e\u0440\u0438 \u041a\u04ef\u04b3\u0438\u0441\u0442\u043e\u043d\u0438 \u0411\u0430\u0434\u0430\u0445\u0448\u043e\u043d - \u0648\u0644\u0627\u06cc\u062a \u0628\u062f\u062e\u0634\u0627\u0646","name:right:de":"Badachschan","name:right:ru":"\u0411\u0430\u0434\u0430\u0445\u0448\u0430\u043d","name:right:da":"Badakhshan","name:right:be":"\u041f\u0440\u0430\u0432\u0456\u043d\u0446\u044b\u044f \u0411\u0430\u0434\u0430\u0445\u0448\u0430\u043d","sort_rank":256,"name:right:sr":"\u041f\u0440\u043e\u0432\u0438\u043d\u0446\u0438\u0458\u0430 \u0411\u0430\u0434\u0430\u0445\u0441\u0430\u043d","name:right:zh":"\u5df4\u8fbe\u8d6b\u5c1a\u7701"},"arcs":[[7],[8]]},{"type":"LineString","properties":{"name:right:no":"Badakhshan","name:right:nl":"Badachsjan","name:right:ja":"\u30d0\u30c0\u30d5\u30b7\u30e3\u30fc\u30f3\u5dde","name:right:fr":"Badakhchan","name:right:uk":"\u0411\u0430\u0434\u0430\u0445\u0448\u0430\u043d","name:right:hr":"Provincija Badakh\u0161an","name:left:ja":"\u30b4\u30eb\u30ce\u30fb\u30d0\u30c0\u30d5\u30b7\u30e3\u30f3\u81ea\u6cbb\u5dde","name:right:su":"Propinsi Badakhshan","name:right:sv":"Badakhshan","name:right:lt":"Badach\u0161anas","name:right:hi":"\u092c\u0926\u0916\u093c\u094d\u0936\u093e\u0928 \u092a\u094d\u0930\u093e\u0928\u094d\u0924","min_zoom":8.0,"name:left:lt":"Kaln\u0173 Badach\u0161ano autonomin\u0117 provincija","name:right:eo":"Provinco Bada\u0125\u015dan","id":-3279614,"name:right":"\u0648\u0644\u0627\u06cc\u062a \u0628\u062f\u062e\u0634\u0627\u0646","name:right:id":"Provinsi Badakhshan","name:left:en":"Gorno-Badakhshan Autonomous Region","name:right:ca":"Prov\u00edncia de Badakhxan","kind_detail":"4","name:right:cy":"Badakhshan","source":"openstreetmap.org","name:right:ar":"\u0648\u0644\u0627\u064a\u0629 \u0628\u062f\u062e\u0634\u0627\u0646","id:left":-3279614,"name:right:cs":"Badach\u0161\u00e1n","name:right:fi":"Badah\u0161an","id:right":-1674535,"name:right:az":"B\u0259d\u0259x\u015fan","name:left":"\u0412\u0438\u043b\u043e\u044f\u0442\u0438 \u041c\u0443\u0445\u0442\u043e\u0440\u0438 \u041a\u04ef\u04b3\u0438\u0441\u0442\u043e\u043d\u0438 \u0411\u0430\u0434\u0430\u0445\u0448\u043e\u043d","name:right:es":"Provincia de Badajsh\u00e1n","name:right:ps":"\u0628\u062f\u062e\u0634\u0627\u0646 \u0648\u0644\u0627\u064a\u062a","name:right:pt":"Badakhshan","name:right:eu":"Badakhshan probintzia","name:right:et":"Badakhsh\u0101ni provints","name:right:tr":"Badah\u015fan Vilayeti","name:right:vi":"Badakhshan","name:left:de":"Autonome Provinz Berg-Badachschan","name:right:th":"\u0e08\u0e31\u0e07\u0e2b\u0e27\u0e31\u0e14\u0e1a\u0e32\u0e14\u0e31\u0e04\u0e0a\u0e32\u0e19","name:right:ko":"\ubc14\ub2e4\ud750\uc0e8 \uc8fc","name:left:ru":"\u0413\u043e\u0440\u043d\u043e-\u0411\u0430\u0434\u0430\u0445\u0448\u0430\u043d\u0441\u043a\u0430\u044f \u0430\u0432\u0442\u043e\u043d\u043e\u043c\u043d\u0430\u044f \u043e\u0431\u043b\u0430\u0441\u0442\u044c","name:right:gl":"Badaghx\u00e1n","name:right:bg":"\u0411\u0430\u0434\u0430\u0445\u0448\u0430\u043d","name:right:tg":"\u0412\u0438\u043b\u043e\u044f\u0442\u0438 \u0411\u0430\u0434\u0430\u0445\u0448\u043e\u043d","name:right:pl":"Badachszan","name:right:en":"Badakhshan","osm_relation":true,"name:right:el":"\u039c\u03c0\u03b1\u03bd\u03c4\u03b1\u03c7\u03c3\u03ac\u03bd","name:left:short":"GBAO","kind":"region","name:right:bn":"\u09ac\u09be\u09a6\u09be\u0996\u09b6\u09a8 \u09aa\u09cd\u09b0\u09a6\u09c7\u09b6","name":"\u0412\u0438\u043b\u043e\u044f\u0442\u0438 \u041c\u0443\u0445\u0442\u043e\u0440\u0438 \u041a\u04ef\u04b3\u0438\u0441\u0442\u043e\u043d\u0438 \u0411\u0430\u0434\u0430\u0445\u0448\u043e\u043d - \u0648\u0644\u0627\u06cc\u062a \u0628\u062f\u062e\u0634\u0627\u0646","name:right:de":"Badachschan","name:right:ru":"\u0411\u0430\u0434\u0430\u0445\u0448\u0430\u043d","name:right:da":"Badakhshan","name:right:be":"\u041f\u0440\u0430\u0432\u0456\u043d\u0446\u044b\u044f \u0411\u0430\u0434\u0430\u0445\u0448\u0430\u043d","sort_rank":256,"name:right:sr":"\u041f\u0440\u043e\u0432\u0438\u043d\u0446\u0438\u0458\u0430 \u0411\u0430\u0434\u0430\u0445\u0441\u0430\u043d","name:right:zh":"\u5df4\u8fbe\u8d6b\u5c1a\u7701"},"arcs":[9]}]},"roads":{"type":"GeometryCollection","geometries":[{"type":"MultiLineString","properties":{"kind":"major_road","name:en":"Lenin street","network":"e-road","sort_rank":381,"kind_detail":"trunk","name:de":"Leninstra\u00dfe","source":"openstreetmap.org","min_zoom":8.0,"shield_text":"008","name:ru":"\u0443\u043b\u0438\u0446\u0430 \u041b\u0435\u043d\u0438\u043d\u0430","ref":"M41"},"arcs":[[10],[11]]},{"type":"MultiLineString","properties":{"kind":"major_road","network":"e-road","sort_rank":381,"kind_detail":"trunk","source":"openstreetmap.org","min_zoom":8.0,"shield_text":"008","ref":"M41"},"arcs":[[12],[13],[14],[15]]},{"type":"LineString","properties":{"source":"openstreetmap.org","kind":"major_road","network":"e-road","sort_rank":380,"kind_detail":"primary","min_zoom":8.0,"shield_text":"008"},"arcs":[16]},{"type":"MultiLineString","properties":{"source":"openstreetmap.org","kind":"major_road","network":"e-road","sort_rank":381,"kind_detail":"trunk","min_zoom":8.0,"shield_text":"008"},"arcs":[[17],[18]]},{"type":"LineString","properties":{"kind":"major_road","network":null,"sort_rank":381,"kind_detail":"trunk","source":"openstreetmap.org","min_zoom":8.0,"shield_text":"41","ref":"M41"},"arcs":[19]},{"type":"LineString","properties":{"kind":"major_road","name:en":"Lenin street","network":"e-road","sort_rank":381,"kind_detail":"trunk","source":"openstreetmap.org","min_zoom":8.0,"shield_text":"008","name:ru":"\u0443\u043b\u0438\u0446\u0430 \u041b\u0435\u043d\u0438\u043d\u0430","ref":"M41","id":377639243},"arcs":[20]},{"type":"LineString","properties":{"kind":"major_road","name:en":"Pamir Highway","network":"e-road","sort_rank":381,"kind_detail":"trunk","source":"openstreetmap.org","min_zoom":8.0,"shield_text":"008","ref":"M41","id":170197606},"arcs":[21]}]},"earth":{"type":"GeometryCollection","geometries":[{"type":"Polygon","properties":{"sort_rank":10,"source":"naturalearthdata.com","min_zoom":0.0,"kind":"earth","area":98022885885},"arcs":[[22]]}]},"landuse":{"type":"GeometryCollection","geometries":[{"type":"MultiPolygon","properties":{"source":"openstreetmap.org","kind":"glacier","natural":"glacier","area":306727109,"sort_rank":29,"tier":3,"min_zoom":8.0},"arcs":[[[23]],[[24]],[[25]]]}]}},"type":"Topology","transform":{"translate":[70.3125,37.7185903256],"scale":[0.0003433228,0.0002695314]},"arcs":[[[870,2314],[12,-80],[-30,-141],[-112,-57],[-61,-88],[-24,-121],[-61,-72],[-48,-170],[20,-88],[-41,-5],[-78,-63],[-87,-13],[-48,-45],[-5,-46],[-118,-78],[-38,0],[-2,-83],[-78,-70],[-22,-55],[-49,-9]],[[3603,0],[5,66],[-58,108],[71,78],[101,40],[15,29],[-31,154],[39,102],[-32,75],[11,108],[-195,110],[-62,-3],[-34,-51],[-117,-58],[-211,-65],[-143,-74],[-46,124],[-43,49],[-29,2],[-20,-47],[-76,14],[-10,35],[40,21],[-9,55],[34,42],[-16,107],[25,1],[-7,44],[57,46],[3,49],[-26,4],[-9,35],[66,18],[42,76],[-12,117],[57,56],[34,123],[55,14],[28,36],[-37,138],[46,49],[-38,47],[22,118],[-52,59],[-66,0],[-20,53],[16,71],[-60,-7],[-38,37],[-57,7],[-80,-16],[-119,69],[-37,49]],[[2580,2314],[-41,11],[-61,158],[-41,9],[-14,45],[-42,-19],[-26,33],[-39,1],[-8,59],[-109,-28],[5,-44],[-39,-14],[-71,230],[-72,42],[-53,69],[-41,-50],[-84,-5],[-3,-39],[51,-30],[-11,-63],[-65,5],[-33,-44],[-53,32],[-19,79],[-49,34],[-74,-37],[10,-29],[-36,-50],[-68,58],[-58,-34],[-62,44],[-41,-1],[-39,-105],[-47,-32],[-77,-19],[-44,24],[-71,-52],[-5,-65],[44,2],[17,-25],[-15,-59],[-85,-60],[-92,7],[-49,-38]],[[369,2957],[-75,198],[-175,140],[-119,-12]],[[0,1344],[148,396],[-40,60],[64,125],[14,156],[-51,159],[40,74]],[[175,2314],[-7,47],[40,83],[-65,-46],[-27,8],[-13,42],[75,58],[57,206],[-67,-29],[157,171],[44,103]],[[369,2957],[174,160],[52,126],[136,119],[87,124],[-8,92],[-119,105],[-3,37],[128,61],[205,170],[203,76],[36,-8],[67,-138],[39,-20],[225,10],[274,146],[156,5],[12,-130],[119,-255],[-13,-160],[-40,-100],[25,-82],[87,-26],[310,32],[71,-67],[40,-183],[180,-193],[52,-8],[222,100],[79,-39],[81,-104],[112,165],[131,7],[49,28],[17,167],[81,51],[128,184],[165,11],[167,50]],[[0,1030],[49,9],[22,55],[78,70],[2,83],[38,0],[118,78],[5,46],[48,45],[87,13],[78,63],[41,5],[-20,88],[48,170],[61,72],[24,121],[61,88],[112,57],[30,141],[-12,80]],[[2580,2314],[37,-49],[119,-69],[80,16],[57,-7],[38,-37],[60,7],[-16,-71],[20,-53],[66,0],[52,-59],[-22,-118],[38,-47],[-46,-49],[37,-138],[-28,-36],[-55,-14],[-34,-123],[-57,-56],[12,-117],[-42,-76],[-66,-18],[9,-35],[26,-4],[-3,-49],[-57,-46],[7,-44],[-25,-1],[16,-107],[-34,-42],[9,-55],[-40,-21],[10,-35],[76,-14],[20,47],[29,-2],[43,-49],[46,-124],[143,74],[211,65],[117,58],[34,51],[62,3],[195,-110],[-11,-108],[32,-75],[-39,-102],[31,-154],[-15,-29],[-101,-40],[-71,-78],[58,-108],[-5,-66]],[[870,2314],[49,38],[92,-7],[85,60],[15,59],[-17,25],[-44,-2],[5,65],[71,52],[44,-24],[77,19],[47,32],[39,105],[41,1],[62,-44],[58,34],[68,-58],[36,50],[-10,29],[74,37],[49,-34],[19,-79],[53,-32],[33,44],[65,-5],[11,63],[-51,30],[3,39],[84,5],[41,50],[53,-69],[72,-42],[71,-230],[39,14],[-5,44],[109,28],[8,-59],[39,-1],[26,-33],[42,19],[14,-45],[41,-9],[61,-158],[41,-11]],[[3607,853],[22,-5]],[[3630,848],[27,-2]],[[1385,2740],[73,-45],[34,36]],[[1967,2869],[129,-109],[-5,-40],[78,-194],[30,17],[-5,43],[93,35],[32,-16],[-1,-44],[71,-35],[35,15],[16,-50],[45,-11],[53,-130],[121,-112],[219,-24],[100,-35],[31,-56],[-23,5],[-13,-26],[15,-36],[80,-30],[23,-75],[-18,-84],[37,-52],[-34,-43],[27,-139],[-31,-41],[-54,-14],[-46,-134],[-43,-47],[9,-117],[-63,-90],[-42,-9],[33,-29],[-2,-48],[-78,-113],[19,-83],[-33,-57],[7,-47],[-32,-31],[52,-29],[70,44],[109,-165],[287,137],[162,109],[124,23],[56,-49]],[[3748,773],[-33,-117],[41,-92],[-48,-95],[35,-145],[-23,-42],[-99,-36],[-65,-72],[57,-104],[1,-70]],[[3657,846],[79,-8],[6,-60]],[[0,1038],[44,6],[25,63],[74,60],[6,82],[152,80],[46,88],[104,20],[108,74],[-11,133],[45,120],[58,65],[20,115],[64,97],[113,55],[19,238],[55,22],[74,-13],[110,80],[-3,50],[-55,12],[3,62],[73,60],[109,-14],[56,40],[42,105],[54,2]],[[1385,2740]],[[1492,2731],[79,-51],[17,76],[61,43],[70,-39],[-1,-58],[61,-56],[24,5],[7,38],[67,-4],[9,62],[-50,30],[7,38],[64,-5],[60,59]],[[0,3914],[11,-39],[60,-19],[-1,-42],[48,-52],[227,-38],[152,-81],[170,66],[43,40],[90,-14],[106,81],[138,-171],[113,-39],[42,29],[-32,-50],[76,-46],[-39,-17],[19,-60],[-25,-17],[-34,17],[21,-45],[-24,7],[-3,-31],[128,-59],[13,-123],[34,-64],[90,-38],[11,-20],[-43,7],[103,-71],[-35,-44],[-74,-241]],[[3629,848],[1,0]],[[3742,778],[6,-5]],[[0,0],[0,2283],[0,1813],[4096,0],[0,-4096],[-4096,0]],[[1932,888],[18,19],[27,-9],[3,55],[47,44],[20,-1],[-11,-26],[45,-38],[-8,-21],[-34,5],[-8,36],[-26,-6],[25,-43],[32,0],[0,-21],[-33,8],[31,-13],[5,-33],[-30,-5],[-39,89],[-12,-38],[49,-68],[-55,15],[-17,61],[-29,-10]],[[1196,1209],[47,87],[68,-21],[-23,67],[88,-18],[-19,-47],[22,-20],[-79,-7],[-11,-36],[-25,21],[-41,-37],[-27,11]],[[1522,1240],[23,17],[-23,27],[31,46],[-18,60],[76,8],[-56,-28],[11,-22],[68,59],[-2,-68],[-55,-12],[45,-52],[-50,-22],[119,-1],[90,56],[20,-6],[-16,-27],[27,1],[-13,-18],[62,-54],[-32,-33],[-55,88],[-163,-35],[7,-57],[-25,40],[0,-38],[-12,76],[-24,-19],[0,22],[-35,-8]]]}