{"objects":{"water":{"type":"GeometryCollection","geometries":[{"type":"Polygon","properties":{"source":"naturalearthdata.com","kind":"ocean","area":1576712559132672,"sort_rank":200,"min_zoom":0.0,"id":1},"arcs":[[3],[4]]},{"type":"LineString","properties":{"source":"naturalearthdata.com","kind":"ocean","sort_rank":205,"boundary":true,"min_zoom":0.0,"id":1126},"arcs":[5]},{"type":"LineString","properties":{"source":"naturalearthdata.com","kind":"ocean","sort_rank":205,"boundary":true,"min_zoom":0.0,"id":1127},"arcs":[6]},{"type":"LineString","properties":{"source":"naturalearthdata.com","kind":"ocean","sort_rank":205,"boundary":true,"min_zoom":0.0,"id":1129},"arcs":[7]}]},"buildings":{"type":"GeometryCollection","geometries":[]},"places":{"type":"GeometryCollection","geometries":[{"type":"Point","properties":{"source":"naturalearthdata.com","kind":"locality","name":"Horta","population":6611,"min_zoom":7.0,"id":2619},"coordinates":[2582,3028]},{"type":"Point","properties":{"source":"openstreetmap.org","kind":"locality","name":"Horta","kind_detail":"city","population":14994,"min_zoom":8.0,"id":25270684},"coordinates":[2625,3036]},{"type":"Point","properties":{"kind":"locality","name":"Velas","name:lt":"Vela\u0161as","kind_detail":"town","source":"openstreetmap.org","min_zoom":8.0,"id":25270680,"population":5400},"coordinates":[3862,3566]},{"type":"Point","properties":{"source":"openstreetmap.org","kind":"locality","name":"Lajes do Pico","kind_detail":"town","population":5000,"min_zoom":8.0,"id":25270689},"coordinates":[3725,2508]}]},"transit":{"type":"GeometryCollection","geometries":[]},"pois":{"type":"GeometryCollection","geometries":[{"type":"Point","properties":{"kind":"nature_reserve","protect_class":"4","area":596301000,"official_name":"\u00c1rea Marinha Protegida para a Gest\u00e3o de Habitats ou Esp\u00e9cies do Cume do Banco Princesa Alice","source":"openstreetmap.org","min_zoom":7.68,"tier":2,"ref":"PMA15","id":-7512407,"osm_relation":true,"name":"\u00c1rea Marinha Protegida do Banco Princesa Alice"},"coordinates":[674,1060]},{"type":"Point","properties":{"kind":"nature_reserve","protect_class":"6","area":396040000,"official_name":"\u00c1rea Marinha Protegida para a Gest\u00e3o de Recursos do Banco Condor","source":"openstreetmap.org","min_zoom":7.98,"tier":2,"ref":"PMA14","id":-7512406,"osm_relation":true,"name":"\u00c1rea Marinha Protegida do Banco Condor"},"coordinates":[1475,3023]},{"type":"Point","properties":{"kind":"nature_reserve","protect_class":"6","area":284395000,"source":"openstreetmap.org","min_zoom":8.21,"tier":2,"ref":"FAI10","id":-7290316,"osm_relation":true,"name":"\u00c1rea Protegida de Gest\u00e3o de Recursos do Canal Faial-Pico\/Sector Faial"},"coordinates":[2661,2773]},{"type":"Point","properties":{"kind":"nature_reserve","protect_class":"5","area":155588000,"source":"openstreetmap.org","min_zoom":8.65,"tier":2,"ref":"PICO19","id":-7224840,"osm_relation":true,"name":"\u00c1rea de Paisagem Protegida da Zona Central"},"coordinates":[3506,2817]},{"type":"Point","properties":{"kind":"nature_reserve","protect_class":"6","area":109507000,"source":"openstreetmap.org","min_zoom":8.9,"tier":2,"ref":"PICO22","id":-7219311,"osm_relation":true,"name":"\u00c1rea Protegida de Gest\u00e3o de Recursos do Canal Faial-Pico\/Sector Pico"},"coordinates":[2868,2915]}]},"boundaries":{"type":"GeometryCollection","geometries":[{"type":"LineString","properties":{"name:kg":"Mputulukesi","name:ty":"P\u014dt\u012bt\u012b","name:ps":"\u067e\u0631\u062a\u06ab\u0627\u0644","name:ka":"\u10de\u10dd\u10e0\u10e2\u10e3\u10d2\u10d0\u10da\u10d8\u10d0","name:ko":"\ud3ec\ub974\ud22c\uac08","name:cv":"\u041f\u043e\u0440\u0442\u0443\u0433\u0430\u043b\u0438","name:cu":"\u041f\u043e\u0440\u0442\u043e\u0433\u0430\u043b\u0457\ua657","name:cs":"Portugalsko","name:tt":"\u041f\u043e\u0440\u0442\u0443\u0433\u0430\u043b\u0438\u044f","name:co":"Portugallu","name:kv":"\u041f\u043e\u0440\u0442\u0443\u0433\u0430\u043b\u0438\u044f","name:ku":"Port\u00fbgal","name:az":"Portuqaliya","name:zh-min-nan":"Ph\u00fb-t\u00f4-g\u00e2","name:os":"\u041f\u043e\u0440\u0442\u0443\u0433\u0430\u043b\u0438","name:or":"\u0b2a\u0b30\u0b4d\u0b24\u0b4d\u0b24\u0b41\u0b17\u0b3e\u0b32","name:ce":"\u041f\u043e\u0440\u0442\u0443\u0433\u0430\u043b\u0438","name:ta":"\u0baa\u0bcb\u0bb0\u0bcd\u0ba4\u0bcd\u0ba4\u0bc1\u0b95\u0bb2\u0bcd","name:tg":"\u041f\u043e\u0440\u0442\u0443\u0433\u0430\u043b\u0438\u044f","name:ky":"\u041f\u043e\u0440\u0442\u0443\u0433\u0430\u043b\u0438\u044f","name:te":"\u0c2a\u0c4b\u0c30\u0c4d\u0c1a\u0c41\u0c17\u0c32\u0c4d","name:cy":"Portiwgal","sort_rank":262,"name:ln":"Pulutugal","name:ba":"\u041f\u043e\u0440\u0442\u0443\u0433\u0430\u043b\u0438\u044f","name:dz":"\u0f54\u0f7c\u0f62\u0f0b\u0f45\u0f74\u0f0b\u0f42\u0f63\u0f0b","source":"openstreetmap.org","name:sq":"Portugalia","name:kn":"\u0caa\u0ccb\u0cb0\u0ccd\u0c9a\u0cc1\u0c97\u0cb2\u0ccd","name:dv":"\u0795\u07af\u0797\u07aa\u078e\u07a6\u078d\u07b0","name:km":"\u1794\u17d2\u179a\u1791\u17c1\u179f \u1796\u17d0\u179a\u1791\u17bb\u1799\u17a0\u17d2\u1782\u17b6\u179b\u17cb","name:lv":"Portug\u0101le","name:lt":"Portugalija","name:hi":"\u092a\u0941\u0930\u094d\u0924\u0917\u093e\u0932","name:kk":"\u041f\u043e\u0440\u0442\u0443\u0433\u0430\u043b\u0438\u044f","name:he":"\u05e4\u05d5\u05e8\u05d8\u05d5\u05d2\u05dc","name:eo":"Portugalujo","name:ur":"\u067e\u0631\u062a\u06af\u0627\u0644","name:la":"Portugallia","name:uk":"\u041f\u043e\u0440\u0442\u0443\u0433\u0430\u043b\u0456\u044f","name:hy":"\u054a\u0578\u0580\u057f\u0578\u0582\u0563\u0561\u056c\u056b\u0561","name:ug":"Portugaliye","name:hu":"Portug\u00e1lia","name:qu":"Purtugal","name:el":"\u03a0\u03bf\u03c1\u03c4\u03bf\u03b3\u03b1\u03bb\u03af\u03b1","kind":"country","name":"Portugal","name:tk":"Portugali\u00fda","min_zoom":8.0,"name:th":"\u0e1b\u0e23\u0e30\u0e40\u0e17\u0e28\u0e42\u0e1b\u0e23\u0e15\u0e38\u0e40\u0e01\u0e2a","name:yi":"\u05e4\u05d0\u05e8\u05d8\u05d5\u05d2\u05d0\u05dc","name:yo":"P\u1ecd\u0301rt\u00fag\u00e0l","name:ay":"Purtuwal","name:mt":"Portugall","alt_name:eo":"Portugalio","name:ro":"Portugalia","name:mr":"\u092a\u094b\u0930\u094d\u0924\u0941\u0917\u093e\u0932","name:ar":"\u0627\u0644\u0628\u0631\u062a\u063a\u0627\u0644","name:my":"\u1015\u1031\u102b\u103a\u1010\u1030\u1002\u102e\u1014\u102d\u102f\u1004\u103a\u1004\u1036","official_name":"Rep\u00fablica Portuguesa","name:kw":"Portyngal","name:is":"Port\u00fagal","name:am":"\u1356\u122d\u1271\u130b\u120d","name:it":"Portogallo","name:ru":"\u041f\u043e\u0440\u0442\u0443\u0433\u0430\u043b\u0438\u044f","name:vi":"B\u1ed3 \u0110\u00e0o Nha","name:rw":"Porutigali","name:mi":"Potukara","name:pl":"Portugalia","name:mk":"\u041f\u043e\u0440\u0442\u0443\u0433\u0430\u043b\u0438\u0458\u0430","name:vo":"Portug\u00e4n","name:zu":"IPhothugali","name:mn":"\u041f\u043e\u0440\u0442\u0443\u0433\u0430\u043b","name:ss":"IPhuthukezi","kind_detail":"2","name:uz":"Portugaliya","name:mg":"P\u00f4rtogaly","id":-295480,"name:zh-yue":"\u8461\u8404\u7259","name:fy":"Portegal","name:zh":"\u8461\u8404\u7259","name:so":"Bortuqaal","name:sl":"Portugalska","name:sk":"Portugalsko","name:ja":"\u30dd\u30eb\u30c8\u30ac\u30eb","name:si":"\u0db4\u0dd8\u0dad\u0dd4\u0d9c\u0dcf\u0dbd\u0dba","name:fa":"\u067e\u0631\u062a\u063a\u0627\u0644","name:na":"Portsiugar","name:sc":"Portogallo","name:ne":"\u092a\u094b\u0930\u094d\u091a\u0941\u0917\u0932","name:sa":"\u092a\u0941\u0930\u094d\u0924\u0917\u093e\u0932","name:bn":"\u09aa\u09b0\u09cd\u09a4\u09c1\u0997\u09be\u09b2","name:bo":"\u0f54\u0f7c\u0f0b\u0f45\u0f74\u0f0b\u0f42\u0fb7\u0f63\u0f0d","name:ml":"\u0d2a\u0d4b\u0d7c\u0d1a\u0d4d\u0d1a\u0d41\u0d17\u0d7d","name:sw":"Ureno","name:be":"\u041f\u0430\u0440\u0442\u0443\u0433\u0430\u043b\u0456\u044f","name:bg":"\u041f\u043e\u0440\u0442\u0443\u0433\u0430\u043b\u0438\u044f","name:wo":"Portugaal","name:sr":"\u041f\u043e\u0440\u0442\u0443\u0433\u0430\u043b\u0438\u0458\u0430","osm_relation":true,"name:tr":"Portekiz","name:ga":"An Phortaing\u00e9il","name:gd":"A' Phortagail","name:ht":"P\u00f2tigal","name:gn":"Poytuga","maritime_boundary":true,"name:gv":"Yn Phortiugal","name:gu":"\u0aaa\u0acb\u0ab0\u0acd\u0a9f\u0ac1\u0a97\u0ab2","name:fi":"Portugali"},"arcs":[0]},{"type":"LineString","properties":{"name:ro":"Azore","name:sk":"Azory","name:ja":"\u30a2\u30be\u30ec\u30b9\u8af8\u5cf6","name:nn":"Asorane","name:no":"Azorene","name:ar":"\u0627\u0644\u0623\u0632\u0648\u0631","name:cs":"Azory","name:eo":"Acoroj","name:io":"Acori","min_zoom":8.0,"name:la":"Azores","alt_name:cs":"Azorsk\u00e9 ostrovy","name:it":"Azzorre","name:ru":"\u0410\u0437\u043e\u0440\u0441\u043a\u0438\u0435 \u043e\u0441\u0442\u0440\u043e\u0432\u0430","name:sv":"Azorerna","name:pl":"Azory","name:hu":"Azori-szigetek","id":-1629146,"osm_relation":true,"kind":"region","name:en":"Azores","name":"A\u00e7ores","official_name":"Regi\u00e3o Aut\u00f3noma dos A\u00e7ores","sort_rank":256,"kind_detail":"4","name:de":"Azoren","source":"openstreetmap.org","maritime_boundary":true,"name:es":"Azores"},"arcs":[1]},{"type":"LineString","properties":{"name:ro":"Azore","name:sk":"Azory","name:ja":"\u30a2\u30be\u30ec\u30b9\u8af8\u5cf6","name:nn":"Asorane","name:no":"Azorene","name:ar":"\u0627\u0644\u0623\u0632\u0648\u0631","name:cs":"Azory","name:eo":"Acoroj","name:io":"Acori","min_zoom":8.0,"name:la":"Azores","alt_name:cs":"Azorsk\u00e9 ostrovy","name:it":"Azzorre","name:ru":"\u0410\u0437\u043e\u0440\u0441\u043a\u0438\u0435 \u043e\u0441\u0442\u0440\u043e\u0432\u0430","name:sv":"Azorerna","name:pl":"Azory","name:hu":"Azori-szigetek","id":-1629146,"osm_relation":true,"kind":"region","name:en":"Azores","name":"A\u00e7ores","official_name":"Regi\u00e3o Aut\u00f3noma dos A\u00e7ores","sort_rank":256,"kind_detail":"4","name:de":"Azoren","source":"openstreetmap.org","maritime_boundary":true,"name:es":"Azores"},"arcs":[2]}]},"roads":{"type":"GeometryCollection","geometries":[{"type":"MultiLineString","properties":{"sort_rank":380,"kind_detail":"primary","min_zoom":8.0,"kind":"major_road","source":"openstreetmap.org"},"arcs":[[8],[9],[10],[11],[12],[13],[14],[15],[16],[17],[18],[19],[20],[21],[22],[23],[24],[25],[26],[27],[28]]},{"type":"MultiLineString","properties":{"source":"openstreetmap.org","kind":"ferry","name":"S\u00e3o Roque do Pico - Madalena","sort_rank":355,"min_zoom":8.0,"id":373907983},"arcs":[[29],[30]]},{"type":"MultiLineString","properties":{"bus_network":null,"sort_rank":380,"kind_detail":"primary","kind":"major_road","source":"openstreetmap.org","min_zoom":8.0,"bus_shield_text":"Horta - Praia do Almoxarife - Horta","ref":"EN 1-1a"},"arcs":[[31],[32],[33],[34],[35]]},{"type":"LineString","properties":{"kind":"major_road","sort_rank":380,"kind_detail":"primary","bus_network":null,"source":"openstreetmap.org","min_zoom":8.0,"bus_shield_text":"Ribeira Funda - Horta (NORTE)","id":178279874},"arcs":[36]},{"type":"LineString","properties":{"source":"openstreetmap.org","kind":"ferry","name":"Madalena - Velas","sort_rank":355,"landuse_kind":"nature_reserve","min_zoom":8.0,"id":373907984},"arcs":[37]},{"type":"MultiLineString","properties":{"source":"openstreetmap.org","kind":"ferry","name":"S\u00e3o Roque do Pico - Horta","sort_rank":355,"min_zoom":8.0,"id":321498637},"arcs":[[38],[39]]},{"type":"MultiLineString","properties":{"bus_network":null,"sort_rank":380,"kind_detail":"primary","kind":"major_road","source":"openstreetmap.org","min_zoom":8.0,"bus_shield_text":"Ribeira Funda - Horta (SUL)","ref":"EN 1-1a"},"arcs":[[40],[41]]},{"type":"LineString","properties":{"source":"openstreetmap.org","kind":"ferry","name":"S\u00e3o Roque do Pico - Horta","sort_rank":355,"landuse_kind":"nature_reserve","min_zoom":8.0},"arcs":[42]},{"type":"MultiLineString","properties":{"source":"openstreetmap.org","kind":"major_road","sort_rank":380,"kind_detail":"primary","ref":"R 1-2","min_zoom":8.0},"arcs":[[43],[44],[45]]},{"type":"MultiLineString","properties":{"source":"openstreetmap.org","kind":"major_road","landuse_kind":"nature_reserve","sort_rank":380,"kind_detail":"primary","ref":"ER 1-1","min_zoom":8.0},"arcs":[[46],[47]]},{"type":"MultiLineString","properties":{"bus_network":null,"sort_rank":380,"kind_detail":"primary","kind":"major_road","source":"openstreetmap.org","min_zoom":8.0,"bus_shield_text":"Horta - Ribeira Funda (SUL)","ref":"EN 3-2"},"arcs":[[48],[49]]},{"type":"MultiLineString","properties":{"bus_network":null,"sort_rank":380,"kind_detail":"primary","kind":"major_road","source":"openstreetmap.org","min_zoom":8.0,"bus_shield_text":"Horta - Ribeira Funda (SUL)","ref":"EN 1-1a"},"arcs":[[50],[51]]},{"type":"MultiLineString","properties":{"source":"openstreetmap.org","kind":"major_road","landuse_kind":"nature_reserve","sort_rank":380,"kind_detail":"primary","ref":"EN 1-1a","min_zoom":8.0},"arcs":[[52],[53]]},{"type":"MultiLineString","properties":{"source":"openstreetmap.org","bus_network":null,"bus_shield_text":"Horta - Praia do Almoxarife - Horta","sort_rank":380,"kind_detail":"primary","min_zoom":8.0,"kind":"major_road"},"arcs":[[54],[55]]},{"type":"LineString","properties":{"source":"openstreetmap.org","kind":"ferry","name":"Porto da Graciosa - Velas","sort_rank":355,"min_zoom":8.0,"id":129387679},"arcs":[56]},{"type":"MultiLineString","properties":{"bus_network":null,"sort_rank":380,"kind_detail":"primary","kind":"major_road","source":"openstreetmap.org","min_zoom":8.0,"bus_shield_text":"Ribeira Funda - Horta (NORTE)","ref":"EN 1-1a"},"arcs":[[57],[58],[59],[60],[61]]},{"type":"MultiLineString","properties":{"source":"openstreetmap.org","kind":"major_road","sort_rank":380,"kind_detail":"primary","ref":"EN 1-1a","min_zoom":8.0},"arcs":[[62],[63],[64],[65]]},{"type":"LineString","properties":{"source":"openstreetmap.org","kind":"ferry","name":"Madalena - Horta","sort_rank":355,"landuse_kind":"nature_reserve","min_zoom":8.0},"arcs":[66]},{"type":"MultiLineString","properties":{"source":"openstreetmap.org","kind":"ferry","name":"Horta - Velas","sort_rank":355,"min_zoom":8.0,"id":184567523},"arcs":[[67],[68]]},{"type":"LineString","properties":{"source":"openstreetmap.org","kind":"major_road","sort_rank":380,"kind_detail":"primary","ref":"ER 1-1","min_zoom":8.0},"arcs":[69]},{"type":"LineString","properties":{"kind":"major_road","sort_rank":380,"landuse_kind":"nature_reserve","source":"openstreetmap.org","min_zoom":8.0,"kind_detail":"primary","ref":"ER 3-2","id":172808689},"arcs":[70]},{"type":"MultiLineString","properties":{"source":"openstreetmap.org","kind":"ferry","name":"Madalena - Horta","sort_rank":355,"min_zoom":8.0,"id":172739716},"arcs":[[71],[72]]},{"type":"LineString","properties":{"source":"openstreetmap.org","kind":"ferry","name":"Horta - Velas","sort_rank":355,"landuse_kind":"nature_reserve","min_zoom":8.0},"arcs":[73]},{"type":"LineString","properties":{"source":"openstreetmap.org","kind":"ferry","name":"Velas - S\u00e3o Roque do Pico","sort_rank":355,"min_zoom":8.0,"id":48394982},"arcs":[74]},{"type":"LineString","properties":{"source":"openstreetmap.org","kind":"ferry","name":"Velas - Praia da Vit\u00f3ria","sort_rank":355,"min_zoom":8.0,"id":372202033},"arcs":[75]},{"type":"MultiLineString","properties":{"source":"openstreetmap.org","kind":"ferry","name":"Horta - Lajes das Flores","sort_rank":355,"landuse_kind":"nature_reserve","min_zoom":8.0},"arcs":[[76],[77]]},{"type":"LineString","properties":{"source":"openstreetmap.org","bus_network":null,"bus_shield_text":"1D","sort_rank":380,"kind_detail":"primary","min_zoom":8.0,"kind":"major_road"},"arcs":[78]},{"type":"MultiLineString","properties":{"sort_rank":355,"source":"openstreetmap.org","min_zoom":8.0,"kind":"ferry","name":"Horta - Lajes das Flores"},"arcs":[[79],[80],[81]]},{"type":"MultiLineString","properties":{"source":"openstreetmap.org","kind":"major_road","sort_rank":380,"kind_detail":"primary","ref":"ER 3-2","min_zoom":8.0,"id":172808689},"arcs":[[82],[83]]},{"type":"LineString","properties":{"source":"openstreetmap.org","kind":"ferry","name":"Velas - Calheta","sort_rank":355,"min_zoom":8.0,"id":310306181},"arcs":[84]},{"type":"LineString","properties":{"kind":"major_road","sort_rank":380,"kind_detail":"primary","bus_network":null,"source":"openstreetmap.org","min_zoom":8.0,"bus_shield_text":"Ribeira Funda - Horta (SUL)","id":300838241},"arcs":[85]},{"type":"MultiLineString","properties":{"source":"openstreetmap.org","kind":"ferry","name":"Madalena - Velas","sort_rank":355,"min_zoom":8.0,"id":373907984},"arcs":[[86],[87]]},{"type":"LineString","properties":{"source":"openstreetmap.org","kind":"major_road","sort_rank":380,"kind_detail":"primary","ref":"ER 1-2","min_zoom":8.0},"arcs":[88]},{"type":"MultiLineString","properties":{"source":"openstreetmap.org","bus_network":null,"bus_shield_text":"L2","sort_rank":380,"kind_detail":"primary","min_zoom":8.0,"kind":"major_road"},"arcs":[[89],[90]]},{"type":"MultiLineString","properties":{"bus_network":null,"sort_rank":380,"kind_detail":"primary","kind":"major_road","source":"openstreetmap.org","min_zoom":8.0,"bus_shield_text":"Horta - Ribeira Funda (SUL)","landuse_kind":"nature_reserve","ref":"EN 3-2"},"arcs":[[91],[92]]},{"type":"LineString","properties":{"bus_network":null,"sort_rank":380,"kind_detail":"primary","kind":"major_road","source":"openstreetmap.org","min_zoom":8.0,"bus_shield_text":"Horta - Ribeira Funda (SUL)","landuse_kind":"nature_reserve","ref":"EN 1-1a"},"arcs":[93]},{"type":"LineString","properties":{"source":"openstreetmap.org","kind":"ferry","name":"S\u00e3o Roque do Pico - Madalena","sort_rank":355,"landuse_kind":"nature_reserve","min_zoom":8.0,"id":373907983},"arcs":[94]},{"type":"LineString","properties":{"source":"openstreetmap.org","bus_network":null,"bus_shield_text":"L1","sort_rank":380,"kind_detail":"primary","min_zoom":8.0,"kind":"major_road"},"arcs":[95]}]},"earth":{"type":"GeometryCollection","geometries":[{"type":"MultiPolygon","properties":{"sort_rank":10,"source":"naturalearthdata.com","min_zoom":0.0,"kind":"earth","area":1135844032},"arcs":[[[96]],[[97]],[[98]]]},{"type":"Point","properties":{"label_placement":true,"kind":"island","name":"Ilha do Pico","short_name":"Pico","area":726785024,"source":"openstreetmap.org","min_zoom":8.0,"id":-4822056,"osm_relation":true},"coordinates":[3398,2795]}]},"landuse":{"type":"GeometryCollection","geometries":[{"type":"MultiPolygon","properties":{"kind":"nature_reserve","protect_class":"5","area":76377921,"sort_rank":23,"source":"openstreetmap.org","min_zoom":8.0,"tier":2,"osm_relation":true},"arcs":[[[99]],[[100]],[[101],[102],[103]]]},{"type":"MultiPolygon","properties":{"kind":"nature_reserve","protect_class":"1a","area":30641219,"sort_rank":23,"source":"openstreetmap.org","min_zoom":8.0,"tier":2,"osm_relation":true},"arcs":[[[104]],[[105]]]},{"type":"MultiPolygon","properties":{"kind":"nature_reserve","protect_class":"6","area":679780123,"sort_rank":23,"source":"openstreetmap.org","min_zoom":6.0,"tier":2,"osm_relation":true},"arcs":[[[106]],[[107]]]},{"type":"MultiPolygon","properties":{"kind":"nature_reserve","protect_class":"4","area":13711652,"sort_rank":23,"source":"openstreetmap.org","min_zoom":8.0,"tier":2,"osm_relation":true},"arcs":[[[108]],[[109]]]},{"type":"Polygon","properties":{"kind":"nature_reserve","protect_class":"6","area":109507000,"sort_rank":23,"source":"openstreetmap.org","min_zoom":7.0,"tier":2,"id":-7219311,"osm_relation":true},"arcs":[[110]]},{"type":"Polygon","properties":{"kind":"nature_reserve","protect_class":"5","area":155588000,"sort_rank":23,"source":"openstreetmap.org","min_zoom":6.0,"tier":2,"id":-7224840,"osm_relation":true},"arcs":[[111],[112],[113],[114]]},{"type":"Polygon","properties":{"kind":"nature_reserve","protect_class":"4","area":596300992,"sort_rank":23,"source":"openstreetmap.org","min_zoom":6.0,"tier":2,"id":-7512407,"osm_relation":true},"arcs":[[115]]},{"type":"Polygon","properties":{"kind":"nature_reserve","protect_class":"6","area":14660400,"sort_rank":23,"source":"openstreetmap.org","min_zoom":8.0,"tier":2,"id":-7353737,"osm_relation":true},"arcs":[[116]]}]}},"type":"Topology","transform":{"translate":[-29.53125,37.7185903256],"scale":[0.0003433228,0.0002695314]},"arcs":[[[2007,4096],[-375,-190],[-118,-89],[-152,-193],[-81,-232],[-9,-196],[61,-238],[102,-168],[274,-317],[192,-152],[1028,-555],[193,-35],[649,-25],[325,40]],[[4096,2714],[-194,46],[-26,49],[-96,44],[-28,44],[-152,25],[-94,110],[-181,84],[-73,11],[-98,-23],[-85,20],[-168,-92],[-19,-163],[73,-147],[210,-119],[89,29],[134,-58],[279,0],[46,-31],[10,-67],[38,-14],[126,48],[52,53],[157,-11]],[[4096,3630],[-402,178],[-158,39],[140,-146],[114,-55],[3,-37],[29,-4],[-10,-38],[64,1],[28,-48],[192,-91]],[[4096,3617],[-313,119],[-52,8],[-41,14],[-96,66],[-53,21],[-1,-48],[11,-25],[136,-119],[24,-12],[23,-7],[2,-14],[-3,-16],[7,-14],[25,-12],[11,1],[11,7],[23,4],[22,-15],[58,-98],[52,-40],[154,-52],[0,-668],[-144,52],[-62,10],[-31,12],[-58,50],[-30,12],[-7,8],[-104,45],[-291,180],[-116,23],[-206,5],[-98,-29],[-88,-80],[0,-164],[69,-113],[192,-179],[58,29],[416,-8],[64,-21],[34,-40],[27,-46],[35,-18],[106,84],[59,21],[65,5],[110,-16],[0,-2539],[-4096,0],[0,4096],[4096,0],[0,-479]],[[2379,2956],[89,23],[35,3],[70,-24],[34,-1],[37,25],[-25,5],[-10,8],[-7,13],[-18,22],[27,20],[93,40],[20,5],[-40,166],[-67,61],[-253,116],[-26,-23],[-48,-74],[-25,-27],[-37,-19],[-40,-7],[-84,-2],[-98,-18],[4,-31],[134,-80],[58,-56],[75,-115],[65,-32],[37,2]],[[4096,2717],[-144,52],[-62,10],[-31,12],[-58,50],[-30,12],[-7,8],[-104,45],[-291,180],[-116,23],[-206,5],[-98,-29],[-88,-80],[0,-164],[69,-113],[192,-179],[58,29],[416,-8],[64,-21],[34,-40],[27,-46],[35,-18],[106,84],[59,21],[65,5],[110,-16]],[[2684,3261],[-67,61],[-253,116],[-26,-23],[-48,-74],[-25,-27],[-37,-19],[-40,-7],[-84,-2],[-98,-18],[4,-31],[134,-80],[58,-56],[75,-115],[65,-32],[37,2],[89,23],[35,3],[70,-24],[34,-1],[37,25],[-25,5],[-10,8],[-7,13],[-18,22],[27,20],[93,40],[20,5],[-40,166]],[[4096,3617],[-313,119],[-52,8],[-41,14],[-96,66],[-53,21],[-1,-48],[11,-25],[136,-119],[24,-12],[23,-7],[2,-14],[-3,-16],[7,-14],[25,-12],[11,1],[11,7],[23,4],[22,-15],[58,-98],[52,-40],[154,-52]],[[2233,3265],[0,-1]],[[2507,2989],[0,1]],[[2508,2989],[77,26]],[[2587,3015],[1,0]],[[2587,3015],[-1,0]],[[2654,3080]],[[3835,3612],[-170,146]],[[3835,3612],[1,-1]],[[3836,3611]],[[3846,3581],[-10,30]],[[3837,3612],[-1,0]],[[3837,3612]],[[3837,3612],[16,-4]],[[4057,3460],[1,0]],[[4058,3460],[17,-8]],[[4075,3452],[2,0]],[[4058,3460]],[[4058,3460]],[[4076,3453],[-1,-1]],[[4075,3452]],[[3837,3612],[-1,1],[-1,-1],[1,-1],[1,1]],[[2915,3033],[0,6]],[[3055,3139],[114,27],[308,-69],[55,-51],[-7,-31]],[[2624,3115],[11,5]],[[2635,3007],[9,39]],[[2646,3049],[4,5]],[[2651,3055],[40,13],[-36,12]],[[2658,3173],[1,4]],[[2634,3007],[1,0]],[[2916,3040],[2,38],[137,89]],[[2671,3055],[-19,-5]],[[3525,3015],[11,30],[-55,54],[-321,71],[-105,-11]],[[2373,2982],[4,-1]],[[2505,2989],[1,0]],[[3055,3159],[-384,-104]],[[4062,3462],[34,-26]],[[4064,3461],[0,1]],[[4065,3463],[-1,-2]],[[2160,3208],[3,8]],[[2164,3216],[1,2]],[[2155,3207],[-55,9],[-21,44],[14,22]],[[2094,3283],[140,-19]],[[2507,2989],[-156,-3],[-51,44],[-50,116],[-53,33]],[[2331,3330],[-97,-66]],[[2164,3216],[-1,0]],[[2223,3259],[-43,-22]],[[2654,3080]],[[2650,3054],[1,1]],[[3802,4096],[-282,-216],[-20,-40],[298,-292],[67,17]],[[2625,3279],[-168,120],[-59,8],[-67,-77]],[[2654,3080],[-30,35]],[[2635,3120],[23,53]],[[2635,3007]],[[2659,3177],[12,42]],[[2234,3264],[-11,-5]],[[2506,2989],[1,0]],[[2671,3219],[-46,60]],[[2644,3046],[2,3]],[[2659,3050],[246,-16]],[[2652,3051],[53,22]],[[3056,3222],[809,343]],[[2165,3218],[15,19]],[[4085,3531],[11,-3]],[[2652,3050],[7,0]],[[2905,3034],[10,-1]],[[2705,3073],[351,149]],[[3865,3565],[-340,-550]],[[3865,3565],[16,-80],[215,-103]],[[1839,3139],[-150,69]],[[2654,3047],[45,-74],[-27,-33],[-202,3]],[[2588,3015],[18,-4]],[[1689,3208],[-1689,779]],[[2470,2943],[-213,3],[-418,193]],[[2654,3048],[0,-1]],[[4076,3463],[-16,19],[36,-7]],[[4096,3499],[-11,32]],[[4096,3388],[-210,100],[-21,77]],[[2235,3264],[-2,1]],[[2915,3033],[1,7]],[[3055,3167],[810,398]],[[4096,3460],[-66,3],[-177,145],[31,61],[37,6],[175,-78]],[[2606,3011],[9,-3]],[[2619,3007],[15,4]],[[2093,3282],[1,1]],[[2160,3208],[-5,-1]],[[2197,3179],[-37,29]],[[2915,3039],[45,76],[95,24]],[[2615,3008],[4,-1]],[[2644,2982],[-37,-25],[-34,1],[-70,24],[-35,-3],[-89,-23],[-37,-2],[-65,32],[-75,115],[-58,56],[-134,80],[-4,31],[98,18],[84,2],[40,7],[37,19],[25,27],[48,74],[26,23],[253,-116],[67,-61],[40,-166],[-20,-5],[-93,-40],[-27,-20],[18,-22],[7,-13],[10,-8],[25,-5]],[[3783,3736],[313,-119],[0,-232],[-154,52],[-52,40],[-58,98],[-22,15],[-23,-4],[-11,-7],[-11,-1],[-25,12],[-7,14],[3,16],[-2,14],[-23,7],[-24,12],[-136,119],[-11,25],[1,48],[53,-21],[96,-66],[41,-14],[52,-8]],[[4096,2539],[-110,16],[-65,-5],[-59,-21],[-106,-84],[-35,18],[-27,46],[-34,40],[-64,21],[-416,8],[-58,-29],[-192,179],[-69,113],[0,164],[88,80],[98,29],[206,-5],[116,-23],[291,-180],[104,-45],[7,-8],[30,-12],[58,-50],[31,-12],[62,-10],[144,-52],[0,-178]],[[2882,2930],[12,62],[48,-61],[-30,-54],[58,-140],[125,-57],[16,-32],[-156,74],[-68,127],[-5,81]],[[2939,3046],[26,36],[104,42],[85,-20],[109,22],[112,-44],[-127,-25],[-40,34],[-23,-10],[10,-17],[-189,-18],[-23,20],[-25,-33],[-19,13]],[[2079,3260],[15,23],[55,-31],[36,22],[116,-46],[7,16],[-4,3],[3,8],[66,21],[39,-11],[30,-28],[-9,-43],[-48,-42],[-117,69],[-23,-22],[-26,13],[-41,-63],[-47,31],[49,57],[-43,-15],[-58,38]],[[2345,3210],[32,-30],[42,40],[-50,31],[-24,-41]],[[2219,3226],[0,-13],[21,6],[-12,15],[-9,-8]],[[3217,2787],[35,43],[46,8],[50,-7],[24,-51],[-88,-70],[-46,17],[-21,60]],[[3593,2740],[61,53],[13,71],[67,-31],[-54,-80],[-59,-32],[-28,19]],[[2470,2977],[161,20],[-13,-33],[32,-5],[-10,81],[65,32],[-26,54],[22,104],[151,9],[0,-649],[-382,0],[0,387]],[[1110,2837],[0,371],[729,0],[0,-371],[-729,0]],[[4041,3573],[55,-23],[0,-40],[-24,46],[-31,17]],[[3623,3820],[2,12],[69,-24],[346,-144],[56,-34],[0,-30],[-61,48],[-412,172]],[[2852,2590],[0,649],[204,0],[-1,-124],[-154,-83],[-19,-102],[5,-81],[68,-127],[97,-54],[0,-78],[-200,0]],[[3186,3026],[61,1],[10,-72],[153,-8],[-9,-42],[52,-29],[42,31],[92,-69],[80,26],[-13,-71],[-61,-53],[28,-19],[66,52],[79,-3],[106,-63],[224,-44],[0,-55],[-145,27],[-151,-27],[-67,91],[-48,-2],[-11,-32],[-93,36],[-5,32],[-17,-65],[27,-23],[-32,-32],[-40,51],[14,47],[-22,60],[-27,23],[-23,-23],[22,-40],[-39,-34],[-22,25],[-38,-25],[-24,45],[-67,-34],[-33,3],[-34,30],[-7,24],[1,44],[36,24],[-48,72],[-17,121]],[[3217,2787],[21,-60],[46,-17],[88,70],[-24,51],[-50,7],[-46,-8],[-35,-43]],[[3784,2639],[26,-18],[31,37],[18,-12],[14,40],[-69,-12],[-20,-35]],[[3708,2736],[11,-28],[33,0],[-7,35],[-37,-7]],[[358,735],[0,649],[631,0],[0,-649],[-631,0]],[[2373,3430],[0,46],[158,0],[0,-95],[-158,49]]]}