{"objects":{"water":{"type":"GeometryCollection","geometries":[{"type":"MultiPolygon","properties":{"source":"naturalearthdata.com","kind":"ocean","area":1576712559132672,"sort_rank":200,"min_zoom":0.0,"id":1},"arcs":[[[4],[5],[6],[7]],[[8],[9],[10]],[[11]]]},{"type":"MultiLineString","properties":{"source":"naturalearthdata.com","kind":"ocean","sort_rank":205,"boundary":true,"min_zoom":0.0,"id":2170},"arcs":[[12],[13]]},{"type":"MultiLineString","properties":{"source":"naturalearthdata.com","kind":"ocean","sort_rank":205,"boundary":true,"min_zoom":0.0,"id":2171},"arcs":[[14],[15]]},{"type":"MultiLineString","properties":{"source":"naturalearthdata.com","kind":"ocean","sort_rank":205,"boundary":true,"min_zoom":0.0,"id":2176},"arcs":[[16],[17]]},{"type":"LineString","properties":{"source":"naturalearthdata.com","kind":"ocean","sort_rank":205,"boundary":true,"min_zoom":0.0,"id":2177},"arcs":[18]},{"type":"LineString","properties":{"source":"naturalearthdata.com","kind":"ocean","sort_rank":205,"boundary":true,"min_zoom":0.0,"id":2178},"arcs":[19]},{"type":"LineString","properties":{"source":"naturalearthdata.com","kind":"ocean","sort_rank":205,"boundary":true,"min_zoom":0.0,"id":2179},"arcs":[20]},{"type":"LineString","properties":{"source":"naturalearthdata.com","kind":"ocean","sort_rank":205,"boundary":true,"min_zoom":0.0,"id":2180},"arcs":[21]},{"type":"LineString","properties":{"source":"naturalearthdata.com","kind":"ocean","sort_rank":205,"boundary":true,"min_zoom":0.0,"id":2723},"arcs":[22]}]},"buildings":{"type":"GeometryCollection","geometries":[]},"places":{"type":"GeometryCollection","geometries":[{"type":"Point","properties":{"source":"naturalearthdata.com","kind":"locality","name":"Rabaul","population":8074,"region_capital":true,"min_zoom":5.0,"id":6343},"coordinates":[782,28]},{"type":"Point","properties":{"source":"openstreetmap.org","kind":"locality","name":"Namatanai","kind_detail":"town","population":1300,"min_zoom":8.0,"id":2135442543},"coordinates":[1648,1607]}]},"transit":{"type":"GeometryCollection","geometries":[]},"pois":{"type":"GeometryCollection","geometries":[]},"boundaries":{"type":"GeometryCollection","geometries":[{"type":"LineString","properties":{"name:pt":"Papua-Nova Guin\u00e9","name:cy":"Papua Guinea Newydd","name:ko":"\ud30c\ud478\uc544 \ub274\uae30\ub2c8","name:kn":"\u0caa\u0cbe\u0caa\u0cc1\u0c85 \u0ca8\u0ccd\u0caf\u0cc2 \u0c97\u0cbf\u0ca8\u0cbf","name:cu":"\u041f\u0430\u043f\u043e\u0443\u0430 \u00b7 \u041d\u043e\u0432\u0430 \u0413\u0432\u0438\u043d\u0454\ua657","name:cs":"Papua Nov\u00e1 Guinea","name:tt":"\u041f\u0430\u043f\u0443\u0430 \u2014 \u042f\u04a3\u0430 \u0413\u0432\u0438\u043d\u0435\u044f","name:sw":"Papua Guinea Mpya","name:ku":"Papua G\u00eeneya N\u00fb","name:az":"Papua-Yeni Qvineya","name:tl":"Papua Bagong Ginea","name:pa":"\u0a2a\u0a3e\u0a2a\u0a42\u0a06 \u0a28\u0a3f\u0a0a \u0a17\u0a3f\u0a28\u0a40","name:os":"\u041f\u0430\u043f\u0443\u00e6 \u2014 \u041d\u043e\u0433 \u0413\u0432\u0438\u043d\u0435\u0439","name:ce":"\u041f\u0430\u043f\u0443\u0430 \u2014 \u041a\u0435\u0440\u043b\u0430 \u0413\u0432\u0438\u043d\u0435","name:ta":"\u0baa\u0baa\u0bcd\u0baa\u0bc1\u0bb5\u0bbe \u0ba8\u0bbf\u0baf\u0bc2 \u0b95\u0bbf\u0ba9\u0bbf","name:ug":"\u067e\u0627\u067e\u06c7\u0626\u0627 \u064a\u06d0\u06ad\u0649 \u06af\u06cb\u0649\u0646\u06d0\u064a\u06d5","name:ca":"Papua Nova Guinea","name:li":"Papoea-Nui-Guinea","name:fo":"Papua N\u00fdguinea","name:ka":"\u10de\u10d0\u10de\u10e3\u10d0-\u10d0\u10ee\u10d0\u10da\u10d8 \u10d2\u10d5\u10d8\u10dc\u10d4\u10d0","source":"openstreetmap.org","sort_rank":262,"name:qu":"Papwa \u00d1ukini","name:da":"Papua Ny Guinea","name:de":"Papua-Neuguinea","name:tr":"Papua Yeni Gine","name:nv":"P\u00e1\u00e1powa Big\u00edn\u00ed \u00c1niid\u00ed","name:be":"\u041f\u0430\u043f\u0443\u0430 \u2014 \u041d\u043e\u0432\u0430\u044f \u0413\u0432\u0456\u043d\u0435\u044f","name:dv":"\u0795\u07a6\u0795\u07aa\u0787\u07a7 \u0782\u07a8\u0787\u07aa \u078e\u07a8\u0782\u07a9","name:ba":"\u041f\u0430\u043f\u0443\u0430 \u2014 \u042f\u04a3\u044b \u0413\u0432\u0438\u043d\u0435\u044f","name:lv":"Papua-Jaungvineja","name:lt":"Papua Naujoji Gvin\u0117ja","name:uz":"Papua Yangi Gvineya","name:kk":"\u041f\u0430\u043f\u0443\u0430 \u0416\u0430\u04a3\u0430 \u0413\u0432\u0438\u043d\u0435\u044f","name:he":"\u05e4\u05e4\u05d5\u05d0\u05d4 \u05d2\u05d9\u05e0\u05d0\u05d4 \u05d4\u05d7\u05d3\u05e9\u05d4","name:eo":"Papuo-Nov-Gvineo","name:ur":"\u067e\u0627\u067e\u0648\u0627 \u0646\u06cc\u0648 \u06af\u0646\u06cc","name:lb":"Papua-Neiguinea","name:la":"Papua Nova Guinea","name:uk":"\u041f\u0430\u043f\u0443\u0430 \u041d\u043e\u0432\u0430 \u0413\u0432\u0456\u043d\u0435\u044f","name:hy":"\u054a\u0561\u057a\u0578\u0582\u0561 \u0546\u0578\u0580 \u0533\u057e\u056b\u0576\u0565\u0561","name:ht":"Papwazi-Nouv\u00e8l-Gine","name:hu":"P\u00e1pua \u00daj-Guinea","name:hr":"Papua Nova Gvineja","name:oc":"Papoa-N\u00f2va Guin\u00e8a","name:el":"\u03a0\u03b1\u03c0\u03bf\u03cd\u03b1 \u039d\u03ad\u03b1 \u0393\u03bf\u03c5\u03b9\u03bd\u03ad\u03b1","kind":"country","name:en":"Papua New Guinea","name":"Papua Niugini","min_zoom":8.0,"name:th":"\u0e1b\u0e23\u0e30\u0e40\u0e17\u0e28\u0e1b\u0e32\u0e1b\u0e31\u0e27\u0e19\u0e34\u0e27\u0e01\u0e34\u0e19\u0e35","name:eu":"Papua Ginea Berria","name:et":"Paapua Uus-Guinea","name:es":"Papua-Nueva Guinea","name:ia":"Papua Nove Guinea","name:mt":"Papwa Gwinea l-\u0120dida","name:ro":"Papua Noua Guinee","name:id":"Papua Nugini","name:ms":"Papua New Guinea","name:mr":"\u092a\u093e\u092a\u0941\u0906 \u0928\u094d\u092f\u0942 \u0917\u093f\u0928\u0940","name:ar":"\u0628\u0627\u0628\u0648\u0627 \u063a\u064a\u0646\u064a\u0627 \u0627\u0644\u062c\u062f\u064a\u062f\u0629","name:my":"\u1015\u102b\u1015\u1030\u1021\u102c\u1014\u101a\u1030\u1038\u1002\u102e\u1014\u102e\u1014\u102d\u102f\u1004\u103a\u1004\u1036","name:io":"Papua-Nova-Guinea","int_name":"Papua New Guinea","name:is":"Pap\u00faa N\u00fdja-G\u00ednea","name:am":"\u1353\u1351\u12cb \u1292\u12cd \u130a\u1292","name:it":"Papua Nuova Guinea","name:an":"Papua y Nueva Guinea","name:vi":"Papua New Guinea","name:rw":"Papuwa Nuveli Gineya","name:mi":"Papua N\u016bkini","name:pl":"Papua-Nowa Gwinea","name:mk":"\u041f\u0430\u043f\u0443\u0430 \u041d\u043e\u0432\u0430 \u0413\u0432\u0438\u043d\u0435\u0458\u0430","name:af":"Papoea-Nieu-Guinee","name:fa":"\u067e\u0627\u067e\u0648\u0622 \u06af\u06cc\u0646\u0647 \u0646\u0648","kind_detail":"2","name:hi":"\u092a\u093e\u092a\u0941\u0906 \u0928\u094d\u092f\u0942 \u0917\u093f\u0928\u0940","id":-307866,"name:zh-min-nan":"Papua Sin Guinea","alt_name:vi":"Papua T\u00e2n Guinea;Pa-pua Niu Ghi-n\u00ea","name:fr":"Papouasie-Nouvelle-Guin\u00e9e","name:ky":"\u041f\u0430\u043f\u0443\u0430-\u0416\u0430\u04ca\u044b-\u0413\u0432\u0438\u043d\u0435\u044f.","name:zh-yue":"\u5df4\u5e03\u4e9e\u65b0\u757f\u5167\u4e9e","name:fy":"Papoea Nij-Guine\u00e4","name:vo":"Papuve\u00e4n Nula-Giney\u00e4n","name:zh":"\u5df4\u5e03\u4e9a\u65b0\u51e0\u5185\u4e9a","name:sm":"Papua","name:sl":"Papua Nova Gvineja","name:nl":"Papoea-Nieuw-Guinea","name:ja":"\u30d1\u30d7\u30a2\u30cb\u30e5\u30fc\u30ae\u30cb\u30a2","name:nn":"Papua Ny-Guinea","name:sh":"Papua Nova Gvineja","name:sg":"Pap\u00fb Fin\u00ee Gin\u00ebe","name:na":"Papua New Guinea","name:se":"Papua-O\u0111\u0111a-Guinea","name:sa":"\u092a\u092a\u0941\u0935\u093e \u0928\u094d\u092f\u0942 \u0917\u093f\u0928\u0940","name:bs":"Papua Nova Gvineja","name:bn":"\u09aa\u09be\u09aa\u09c1\u09af\u09bc\u09be \u09a8\u09bf\u0989 \u0997\u09bf\u09a8\u09bf","name:bo":"\u0f54\u0f0b\u0f54\u0f74\u0f0b\u0f60\u0f0b\u0f53\u0f72\u0f60\u0f74\u0f0b\u0f42\u0f72\u0f0b\u0f53\u0f7a\u0f0d","name:sk":"Papua-Nov\u00e1 Guinea","name:br":"Papoua Ginea-Nevez","name:no":"Papua Ny-Guinea","name:ru":"\u041f\u0430\u043f\u0443\u0430 - \u041d\u043e\u0432\u0430\u044f \u0413\u0432\u0438\u043d\u0435\u044f","name:sv":"Papua Nya Guinea","name:su":"Papua Nugini","name:bg":"\u041f\u0430\u043f\u0443\u0430 \u041d\u043e\u0432\u0430 \u0413\u0432\u0438\u043d\u0435\u044f","name:wo":"Papuwaasi-Gine-Gu-Bees","name:sr":"\u041f\u0430\u043f\u0443\u0430 \u041d\u043e\u0432\u0430 \u0413\u0432\u0438\u043d\u0435\u0458\u0430","osm_relation":true,"name:sq":"Papua Guinea e Re","name:ga":"Nua-Ghuine Phapua","name:gd":"Gini Nuadh Phaputhach","name:yo":"Papua Guinea Titun","name:ml":"\u0d2a\u0d3e\u0d2a\u0d41\u0d35 \u0d28\u0d4d\u0d2f\u0d42 \u0d17\u0d3f\u0d28\u0d3f\u0d2f","name:jv":"Papua Nugini","name:gl":"Pap\u00faa Nova Guinea","maritime_boundary":true,"name:gv":"Papooey Guinea Noa","name:fi":"Papua-Uusi-Guinea","name:bi":"Papua New Guinea"},"arcs":[0]},{"type":"LineString","properties":{"name:right:ja":"\u6771\u30cb\u30e5\u30fc\u30d6\u30ea\u30c6\u30f3\u5dde","name:right:uk":"\u0421\u0445\u0456\u0434\u043d\u0430 \u041d\u043e\u0432\u0430 \u0411\u0440\u0438\u0442\u0430\u043d\u0456\u044f","name:left:ja":"\u30cb\u30e5\u30fc\u30a2\u30a4\u30eb\u30e9\u30f3\u30c9\u5dde","id:right":-3777381,"name:left:uk":"\u041d\u043e\u0432\u0430 \u0406\u0440\u043b\u0430\u043d\u0434\u0456\u044f","min_zoom":8.0,"id:left":-3777383,"name:left:ru":"\u041d\u043e\u0432\u0430\u044f \u0418\u0440\u043b\u0430\u043d\u0434\u0438\u044f","short_name:right":"ENB","name:right:ru":"\u0412\u043e\u0441\u0442\u043e\u0447\u043d\u0430\u044f \u041d\u043e\u0432\u0430\u044f \u0411\u0440\u0438\u0442\u0430\u043d\u0438\u044f","id":-3777383,"osm_relation":true,"name:right":"East New Britain","kind":"region","name":"New Ireland - East New Britain","sort_rank":256,"kind_detail":"4","name:left:de":"Neuirland","source":"openstreetmap.org","name:right:de":"Ost-Neubritannien","old_name:left:de":"Neumecklenburg","name:left":"New Ireland"},"arcs":[1]},{"type":"LineString","properties":{"name:right:ja":"\u6771\u30cb\u30e5\u30fc\u30d6\u30ea\u30c6\u30f3\u5dde","name:right:uk":"\u0421\u0445\u0456\u0434\u043d\u0430 \u041d\u043e\u0432\u0430 \u0411\u0440\u0438\u0442\u0430\u043d\u0456\u044f","name:left:ja":"\u30cb\u30e5\u30fc\u30a2\u30a4\u30eb\u30e9\u30f3\u30c9\u5dde","id:right":-3777381,"name:left:uk":"\u041d\u043e\u0432\u0430 \u0406\u0440\u043b\u0430\u043d\u0434\u0456\u044f","min_zoom":8.0,"name:left:ru":"\u041d\u043e\u0432\u0430\u044f \u0418\u0440\u043b\u0430\u043d\u0434\u0438\u044f","short_name:right":"ENB","name:right:ru":"\u0412\u043e\u0441\u0442\u043e\u0447\u043d\u0430\u044f \u041d\u043e\u0432\u0430\u044f \u0411\u0440\u0438\u0442\u0430\u043d\u0438\u044f","id":-3777383,"osm_relation":true,"name:right":"East New Britain","kind":"region","name":"New Ireland - East New Britain","sort_rank":256,"kind_detail":"4","name:left:de":"Neuirland","source":"openstreetmap.org","maritime_boundary":true,"name:right:de":"Ost-Neubritannien","id:left":-3777383,"old_name:left:de":"Neumecklenburg","name:left":"New Ireland"},"arcs":[2]},{"type":"LineString","properties":{"kind":"region","name":"New Ireland","sort_rank":256,"kind_detail":"4","min_zoom":8.0,"name:de":"Neuirland","source":"openstreetmap.org","maritime_boundary":true,"name:uk":"\u041d\u043e\u0432\u0430 \u0406\u0440\u043b\u0430\u043d\u0434\u0456\u044f","id":-3777383,"name:ru":"\u041d\u043e\u0432\u0430\u044f \u0418\u0440\u043b\u0430\u043d\u0434\u0438\u044f","old_name:de":"Neumecklenburg","osm_relation":true,"name:ja":"\u30cb\u30e5\u30fc\u30a2\u30a4\u30eb\u30e9\u30f3\u30c9\u5dde"},"arcs":[3]}]},"roads":{"type":"GeometryCollection","geometries":[{"type":"MultiLineString","properties":{"sort_rank":380,"kind_detail":"primary","min_zoom":8.0,"kind":"major_road","source":"openstreetmap.org"},"arcs":[[23],[24],[25],[26],[27]]}]},"earth":{"type":"GeometryCollection","geometries":[{"type":"MultiPolygon","properties":{"sort_rank":10,"source":"naturalearthdata.com","min_zoom":0.0,"kind":"earth","area":11936952443},"arcs":[[[28]],[[29]],[[30]],[[31]],[[32]],[[33]],[[34]],[[35]]]},{"type":"Point","properties":{"label_placement":true,"kind":"island","name":"New Ireland","area":7094799872,"name:cs":"Nov\u00e9 Irsko","name:de":"Neuirland","source":"openstreetmap.org","min_zoom":7.0,"id":-3987460,"old_name:de":"Neumecklenburg","osm_relation":true},"coordinates":[1634,1495]}]},"landuse":{"type":"GeometryCollection","geometries":[]}},"type":"Topology","transform":{"translate":[151.875,-4.2149431414],"scale":[0.0003433228,0.0003426689]},"arcs":[[[4096,3382],[-796,714]],[[972,925],[805,-322],[303,-370],[10,-233]],[[0,1314],[972,-389]],[[4096,3382],[-796,714]],[[4096,2371],[0,-2371],[-541,0],[-34,28],[-54,22],[4,23],[-27,50],[-48,67],[-77,161],[-38,39],[-93,76],[-31,42],[-7,44],[4,41],[-4,38],[-30,38],[-40,-34],[-2,-5],[-53,-2],[-67,5],[-57,21],[-24,45],[-7,29],[-37,52],[-15,29],[-7,29],[-5,59],[-6,30],[-37,76],[-33,-9],[-41,-42],[-60,-25],[-65,3],[-56,12],[-54,19],[-56,29],[-58,45],[-47,45],[-52,35],[-73,15],[-68,2],[-31,6],[-30,11],[0,9],[-24,29],[-27,25],[-15,35],[8,29],[12,29],[6,36],[-13,32],[-54,59],[-13,28],[-12,53],[-30,59],[-39,55],[-38,43],[-32,-45],[-50,-30],[-59,-2],[-58,37],[-22,33],[-25,69],[-34,42],[-16,32],[-11,16],[-16,10],[-25,6],[-12,13],[-18,109],[-13,16],[-56,30],[-45,48],[-206,95],[-105,63],[-89,74],[-77,86],[-144,210],[-107,106],[-19,23],[-6,4],[-24,9],[-8,5],[-1,13],[5,35],[-4,12],[-6,16],[3,13],[-3,8],[-24,3],[-33,-1],[-15,3],[-39,29],[-28,8],[-91,0],[-11,1],[-55,39],[-47,44],[-30,18],[-44,-20],[-36,7],[-59,33],[-5,1],[0,1105],[118,0],[1,-6],[0,-90],[34,-22],[110,39],[63,21],[55,32],[14,26],[3701,0],[0,-1666],[-1,-1],[-25,-27],[-14,-33],[40,2]],[[282,3990],[-22,-40],[3,-40],[-20,0],[26,-37],[33,-16],[32,-10],[11,-38],[-3,-102],[37,-66],[59,-84],[75,3],[34,65],[47,47],[-3,81],[-19,36],[-77,20],[-62,38],[-53,58],[-37,65],[-29,34],[-32,-14]],[[1949,3164],[151,-164],[20,-23],[90,-73],[29,-14],[29,28],[-9,57],[40,96],[16,45],[6,26],[-2,29],[-11,16],[-35,6],[-14,18],[-5,38],[5,161],[-111,31],[-110,-12],[-66,-50],[-60,-53],[-12,-66],[24,-59],[25,-37]],[[4009,2182],[-52,67],[-34,-11],[-88,-67],[37,-21],[87,-30],[37,-31],[8,5],[2,7],[5,1],[23,-13],[-3,49],[-22,44]],[[0,0],[0,2374],[205,-125],[113,-43],[431,-83],[59,1],[54,-9],[77,-58],[55,-26],[27,-19],[10,-17],[21,-50],[10,-15],[46,-16],[53,-12],[44,-19],[32,-79],[32,-41],[72,-72],[44,-29],[27,-22],[2,-24],[-12,-67],[10,-29],[246,-306],[52,-37],[31,-63],[17,-22],[26,-10],[53,-3],[23,-9],[15,-19],[13,-26],[8,-32],[3,-34],[10,-16],[44,-30],[10,-13],[10,-51],[26,-37],[61,-61],[48,-83],[21,-50],[19,-83],[144,-287],[76,-99],[19,-51],[-1,-52],[-22,-46],[-1300,0],[-20,72],[-43,48],[-53,41],[-45,50],[-67,-17],[-23,-56],[-14,-64],[-37,-44],[-30,1],[-74,17],[-15,-8],[-11,-11],[-26,-9],[-30,-6],[-25,-2],[-53,19],[-59,30],[-50,7],[-26,-56],[6,-12],[-369,0]],[[1763,19],[18,-7],[18,0],[25,57],[14,56],[-9,54],[-48,50],[-9,13],[-30,29],[-23,-42],[-24,-27],[-75,-50],[35,-18],[18,-24],[7,-31],[2,-39],[14,-5],[67,-16]],[[614,267],[8,11],[3,26],[-5,19],[-10,6],[-11,8],[-10,11],[0,13],[-26,1],[-38,-27],[-5,-11],[3,-7],[0,-42],[20,-24],[46,-9],[14,-2],[11,27]],[[921,0],[-47,0],[7,12],[32,2],[8,-14]],[[874,0],[7,12],[32,2],[8,-14]],[[1064,0],[-20,72],[-43,48],[-53,41],[-45,50],[-67,-17],[-23,-56],[-14,-64],[-37,-44],[-30,1],[-74,17],[-15,-8],[-11,-11],[-26,-9],[-30,-6],[-25,-2],[-53,19],[-59,30],[-50,7],[-26,-56],[6,-12]],[[3555,0],[-34,28],[-54,22],[4,23],[-27,50],[-48,67],[-77,161],[-38,39],[-93,76],[-31,42],[-7,44],[4,41],[-4,38],[-30,38],[-40,-34],[-2,-5],[-53,-2],[-67,5],[-57,21],[-24,45],[-7,29],[-37,52],[-15,29],[-7,29],[-5,59],[-6,30],[-37,76],[-33,-9],[-41,-42],[-60,-25],[-65,3],[-56,12],[-54,19],[-56,29],[-58,45],[-47,45],[-52,35],[-73,15],[-68,2],[-31,6],[-30,11],[0,9],[-24,29],[-27,25],[-15,35],[8,29],[12,29],[6,36],[-13,32],[-54,59],[-13,28],[-12,53],[-30,59],[-39,55],[-38,43],[-32,-45],[-50,-30],[-59,-2],[-58,37],[-22,33],[-25,69],[-34,42],[-16,32],[-11,16],[-16,10],[-25,6],[-12,13],[-18,109],[-13,16],[-56,30],[-45,48],[-206,95],[-105,63],[-89,74],[-77,86],[-144,210],[-107,106],[-19,23],[-6,4],[-24,9],[-8,5],[-1,13],[5,35],[-4,12],[-6,16],[3,13],[-3,8],[-24,3],[-33,-1],[-15,3],[-39,29],[-28,8],[-91,0],[-11,1],[-55,39],[-47,44],[-30,18],[-44,-20],[-36,7],[-59,33],[-5,1]],[[0,2374],[205,-125],[113,-43],[431,-83],[59,1],[54,-9],[77,-58],[55,-26],[27,-19],[10,-17],[21,-50],[10,-15],[46,-16],[53,-12],[44,-19],[32,-79],[32,-41],[72,-72],[44,-29],[27,-22],[2,-24],[-12,-67],[10,-29],[246,-306],[52,-37],[31,-63],[17,-22],[26,-10],[53,-3],[23,-9],[15,-19],[13,-26],[8,-32],[3,-34],[10,-16],[44,-30],[10,-13],[10,-51],[26,-37],[61,-61],[48,-83],[21,-50],[19,-83],[144,-287],[76,-99],[19,-51],[-1,-52],[-22,-46]],[[376,4096],[-13,-8],[-4,8]],[[118,4096],[1,-6],[0,-90],[34,-22],[110,39],[63,21],[55,32],[14,26]],[[572,3789],[-77,20],[-62,38],[-53,58],[-37,65],[-29,34],[-32,-14],[-22,-40],[3,-40],[-20,0],[26,-37],[33,-16],[32,-10],[11,-38],[-3,-102],[37,-66],[59,-84],[75,3],[34,65],[47,47],[-3,81],[-19,36]],[[2259,3211],[-5,38],[5,161],[-111,31],[-110,-12],[-66,-50],[-60,-53],[-12,-66],[24,-59],[25,-37],[151,-164],[20,-23],[90,-73],[29,-14],[29,28],[-9,57],[40,96],[16,45],[6,26],[-2,29],[-11,16],[-35,6],[-14,18]],[[3835,2171],[37,-21],[87,-30],[37,-31],[8,5],[2,7],[5,1],[23,-13],[-3,49],[-22,44],[-52,67],[-34,-11],[-88,-67]],[[4096,2430],[-1,-1],[-25,-27],[-14,-33],[40,2]],[[1781,229],[-9,13],[-30,29],[-23,-42],[-24,-27],[-75,-50],[35,-18],[18,-24],[7,-31],[2,-39],[14,-5],[67,-16],[18,-7],[18,0],[25,57],[14,56],[-9,54],[-48,50]],[[0,2977],[19,-21],[163,-10],[55,-99],[148,16],[41,-48],[55,-14],[35,-95],[164,-110],[144,-242],[57,-27],[66,-103],[126,-57],[110,-90],[108,-29],[98,-75],[19,-33],[-19,-109],[58,2],[54,-55],[79,-202],[51,30],[12,-14]],[[813,0],[20,47]],[[2195,3339],[-15,92],[-53,10],[-94,-33]],[[2195,3339],[20,0]],[[2225,3265],[-39,47],[9,27]],[[4031,2138],[3,-49],[-23,13],[-5,-1],[-2,-7],[-8,-5],[-37,31],[-87,30],[-37,21],[88,67],[34,11],[52,-67],[22,-44]],[[4096,2430],[0,-59],[-40,-2],[14,33],[25,27],[1,1]],[[513,3560],[-75,-3],[-59,84],[-37,66],[3,102],[-11,38],[-32,10],[-33,16],[-26,37],[20,0],[-3,40],[22,40],[32,14],[29,-34],[37,-65],[53,-58],[62,-38],[77,-20],[19,-36],[3,-81],[-47,-47],[-34,-65]],[[359,4096],[4,-8],[13,8],[19,0],[-14,-26],[-55,-32],[-63,-21],[-110,-39],[-34,22],[0,90],[-1,6],[241,0]],[[2268,2918],[-29,-28],[-29,14],[-90,73],[-20,23],[-151,164],[-25,37],[-24,59],[12,66],[60,53],[66,50],[110,12],[111,-31],[-5,-161],[5,-38],[14,-18],[35,-6],[11,-16],[2,-29],[-6,-26],[-16,-45],[-40,-96],[9,-57]],[[874,0],[-505,0],[-6,12],[26,56],[50,-7],[59,-30],[53,-19],[25,2],[30,6],[26,9],[11,11],[15,8],[74,-17],[30,-1],[37,44],[14,64],[23,56],[67,17],[45,-50],[53,-41],[43,-48],[20,-72],[-143,0],[-8,14],[-32,-2],[-7,-12]],[[1799,12],[-18,0],[-18,7],[-67,16],[-14,5],[-2,39],[-7,31],[-18,24],[-35,18],[75,50],[24,27],[23,42],[30,-29],[9,-13],[48,-50],[9,-54],[-14,-56],[-25,-57]],[[0,2374],[0,617],[5,-1],[59,-33],[36,-7],[44,20],[30,-18],[47,-44],[55,-39],[11,-1],[91,0],[28,-8],[39,-29],[15,-3],[33,1],[24,-3],[3,-8],[-3,-13],[6,-16],[4,-12],[-5,-35],[1,-13],[8,-5],[24,-9],[6,-4],[19,-23],[107,-106],[144,-210],[77,-86],[89,-74],[105,-63],[206,-95],[45,-48],[56,-30],[13,-16],[18,-109],[12,-13],[25,-6],[16,-10],[11,-16],[16,-32],[34,-42],[25,-69],[22,-33],[58,-37],[59,2],[50,30],[32,45],[38,-43],[39,-55],[30,-59],[12,-53],[13,-28],[54,-59],[13,-32],[-6,-36],[-12,-29],[-8,-29],[15,-35],[27,-25],[24,-29],[0,-9],[30,-11],[31,-6],[68,-2],[73,-15],[52,-35],[47,-45],[58,-45],[56,-29],[54,-19],[56,-12],[65,-3],[60,25],[41,42],[33,9],[37,-76],[6,-30],[5,-59],[7,-29],[15,-29],[37,-52],[7,-29],[24,-45],[57,-21],[67,-5],[53,2],[2,5],[40,34],[30,-38],[4,-38],[-4,-41],[7,-44],[31,-42],[93,-76],[38,-39],[77,-161],[48,-67],[27,-50],[-4,-23],[54,-22],[34,-28],[-1191,0],[22,46],[1,52],[-19,51],[-76,99],[-144,287],[-19,83],[-21,50],[-48,83],[-61,61],[-26,37],[-10,51],[-10,13],[-44,30],[-10,16],[-3,34],[-8,32],[-13,26],[-15,19],[-23,9],[-53,3],[-26,10],[-17,22],[-31,63],[-52,37],[-246,306],[-10,29],[12,67],[-2,24],[-27,22],[-44,29],[-72,72],[-32,41],[-32,79],[-44,19],[-53,12],[-46,16],[-10,15],[-21,50],[-10,17],[-27,19],[-55,26],[-77,58],[-54,9],[-59,-1],[-431,83],[-113,43],[-205,125]]]}