{"objects":{"water":{"type":"GeometryCollection","geometries":[{"type":"MultiPolygon","properties":{"source":"naturalearthdata.com","kind":"ocean","area":1576712559132672,"sort_rank":200,"min_zoom":0.0,"id":1},"arcs":[[[10],[11],[12],[13],[14],[15],[16],[17],[18],[19],[20],[21],[22],[23],[24],[25],[26],[27],[28],[29],[30],[31],[32],[33],[34],[35],[36],[37],[38],[39],[40],[41],[42]],[[43],[44],[45],[46],[47],[48],[49],[50],[51],[52],[53],[54],[55],[56],[57],[58],[59],[60]]]},{"type":"Polygon","properties":{"source":"naturalearthdata.com","kind":"lake","name":"Lake Murray","area":417002336,"sort_rank":200,"min_zoom":0.0,"id":698},"arcs":[[61]]},{"type":"Point","properties":{"label_placement":true,"kind":"lake","name":"Lake Murray","area":417002336,"sort_rank":200,"source":"naturalearthdata.com","min_zoom":0.0,"id":698},"coordinates":[2376,1535]},{"type":"MultiLineString","properties":{"source":"naturalearthdata.com","kind":"ocean","sort_rank":205,"boundary":true,"min_zoom":0.0,"id":35},"arcs":[[62],[63],[64]]},{"type":"LineString","properties":{"source":"naturalearthdata.com","kind":"ocean","sort_rank":205,"boundary":true,"min_zoom":0.0,"id":63},"arcs":[65]},{"type":"LineString","properties":{"source":"naturalearthdata.com","kind":"ocean","sort_rank":205,"boundary":true,"min_zoom":0.0,"id":218},"arcs":[66]},{"type":"LineString","properties":{"source":"naturalearthdata.com","kind":"lake","sort_rank":367,"boundary":true,"min_zoom":0.0,"id":698},"arcs":[67]},{"type":"LineString","properties":{"source":"naturalearthdata.com","kind":"ocean","sort_rank":205,"boundary":true,"min_zoom":0.0,"id":2148},"arcs":[68]},{"type":"LineString","properties":{"source":"naturalearthdata.com","kind":"ocean","sort_rank":205,"boundary":true,"min_zoom":0.0,"id":2149},"arcs":[69]},{"type":"LineString","properties":{"source":"naturalearthdata.com","kind":"ocean","sort_rank":205,"boundary":true,"min_zoom":0.0,"id":2154},"arcs":[70]},{"type":"LineString","properties":{"source":"naturalearthdata.com","kind":"ocean","sort_rank":205,"boundary":true,"min_zoom":0.0,"id":2155},"arcs":[71]},{"type":"LineString","properties":{"source":"naturalearthdata.com","kind":"ocean","sort_rank":205,"boundary":true,"min_zoom":0.0,"id":2156},"arcs":[72]},{"type":"LineString","properties":{"source":"naturalearthdata.com","kind":"ocean","sort_rank":205,"boundary":true,"min_zoom":0.0,"id":2157},"arcs":[73]},{"type":"LineString","properties":{"source":"naturalearthdata.com","kind":"ocean","sort_rank":205,"boundary":true,"min_zoom":0.0,"id":2158},"arcs":[74]},{"type":"LineString","properties":{"source":"naturalearthdata.com","kind":"ocean","sort_rank":205,"boundary":true,"min_zoom":0.0,"id":2188},"arcs":[75]},{"type":"MultiLineString","properties":{"source":"naturalearthdata.com","kind":"ocean","sort_rank":205,"boundary":true,"min_zoom":0.0,"id":2189},"arcs":[[76],[77]]},{"type":"LineString","properties":{"source":"naturalearthdata.com","kind":"ocean","sort_rank":205,"boundary":true,"min_zoom":0.0,"id":2191},"arcs":[78]},{"type":"MultiLineString","properties":{"source":"naturalearthdata.com","kind":"ocean","sort_rank":205,"boundary":true,"min_zoom":0.0,"id":2450},"arcs":[[79],[80]]},{"type":"LineString","properties":{"source":"naturalearthdata.com","kind":"ocean","sort_rank":205,"boundary":true,"min_zoom":0.0,"id":2463},"arcs":[81]},{"type":"LineString","properties":{"source":"naturalearthdata.com","kind":"ocean","sort_rank":205,"boundary":true,"min_zoom":0.0,"id":2464},"arcs":[82]},{"type":"LineString","properties":{"source":"naturalearthdata.com","kind":"ocean","sort_rank":205,"boundary":true,"min_zoom":0.0,"id":2465},"arcs":[83]},{"type":"LineString","properties":{"source":"naturalearthdata.com","kind":"ocean","sort_rank":205,"boundary":true,"min_zoom":0.0,"id":2466},"arcs":[84]},{"type":"LineString","properties":{"source":"naturalearthdata.com","kind":"ocean","sort_rank":205,"boundary":true,"min_zoom":0.0,"id":3157},"arcs":[85]},{"type":"LineString","properties":{"source":"naturalearthdata.com","kind":"ocean","sort_rank":205,"boundary":true,"min_zoom":0.0,"id":3363},"arcs":[86]},{"type":"LineString","properties":{"source":"naturalearthdata.com","kind":"ocean","sort_rank":205,"boundary":true,"min_zoom":0.0,"id":3386},"arcs":[87]},{"type":"LineString","properties":{"source":"naturalearthdata.com","kind":"ocean","sort_rank":205,"boundary":true,"min_zoom":0.0,"id":3582},"arcs":[88]},{"type":"LineString","properties":{"source":"naturalearthdata.com","kind":"ocean","sort_rank":205,"boundary":true,"min_zoom":0.0,"id":3586},"arcs":[89]},{"type":"LineString","properties":{"source":"naturalearthdata.com","kind":"ocean","sort_rank":205,"boundary":true,"min_zoom":0.0,"id":3587},"arcs":[90]},{"type":"LineString","properties":{"source":"naturalearthdata.com","kind":"ocean","sort_rank":205,"boundary":true,"min_zoom":0.0,"id":3588},"arcs":[91]},{"type":"LineString","properties":{"source":"naturalearthdata.com","kind":"ocean","sort_rank":205,"boundary":true,"min_zoom":0.0,"id":3589},"arcs":[92]},{"type":"LineString","properties":{"source":"naturalearthdata.com","kind":"ocean","sort_rank":205,"boundary":true,"min_zoom":0.0,"id":3590},"arcs":[93]},{"type":"LineString","properties":{"source":"naturalearthdata.com","kind":"ocean","sort_rank":205,"boundary":true,"min_zoom":0.0,"id":3778},"arcs":[94]},{"type":"Point","properties":{"label_placement":true,"kind":"sea","name":"Arafura Sea","source":"openstreetmap.org","sort_rank":200,"min_zoom":3.0,"id":305639693},"coordinates":[356,668]}]},"buildings":{"type":"GeometryCollection","geometries":[]},"places":{"type":"GeometryCollection","geometries":[{"type":"Point","properties":{"name:ka":"\u10de\u10d0\u10de\u10e3\u10d0-\u10d0\u10ee\u10d0\u10da\u10d8 \u10d2\u10d5\u10d8\u10dc\u10d4\u10d0","name:ko":"\ud30c\ud478\uc544\ub274\uae30\ub2c8","name:kn":"\u0caa\u0caa\u0cc1\u0cb5\u0cbe \u0ca8\u0ccd\u0caf\u0cc2\u0c97\u0cc0\u0ca8\u0cbf\u0caf\u0cbe","name:cu":"\u041f\u0430\u043f\u043e\u0443\u0430 \u00b7 \u041d\u043e\u0432\u0430 \u0413\u0432\u0438\u043d\u0454\ua657","name:kl":"Papua Nutaaq Guinea","name:cs":"Papua-Nov\u00e1 Guinea","name:ki":"Papua","name:ku":"Papua G\u00eeneya N\u00fb","name:ti":"\u1353\u1351\u12cb \u1292\u12cd \u130a\u1292","name:ks":"\u067e\u0627\u067e\u064f\u0648\u0627 \u0646\u06cc\u0648\u0657 \u06af\u06cc\u0656\u0646\u06cc","name:to":"Papuaniukini","name:tl":"Papua Bagong Ginea","name:ce":"\u041f\u0430\u043f\u0443\u0430 \u2014 \u041a\u0435\u0440\u043b\u0430 \u0413\u0432\u0438\u043d\u0435","name:ta":"\u0baa\u0bbe\u0baa\u0bcd\u0baa\u0bc1\u0bb5\u0bbe \u0ba8\u0bbf\u0baf\u0bc2 \u0b95\u0bbf\u0ba9\u0bbf","name:ca":"Papua Nova Guinea","name:te":"\u0c2a\u0c3e\u0c2a\u0c41\u0c35\u0c3e \u0c28\u0c4d\u0c2f\u0c41 \u0c17\u0c3f\u0c28\u0c3f\u0c2f\u0c3e","name:cy":"Papua Guinea Newydd","name:hr":"Papua Nova Gvineja","name:da":"Papua Ny Guinea","name:de":"Papua-Neuguinea","name:dz":"\u0f54\u0f0b\u0f54\u0f74\u0f0b \u0f53\u0f72\u0f60\u0f74\u0f0b\u0f42\u0f72\u0f0b\u0f53\u0f72","source":"openstreetmap.org","name:dv":"\u0795\u07a6\u0795\u07aa\u0787\u07a7 \u0782\u07a8\u0787\u07aa \u078e\u07a8\u0782\u07a9","name:km":"\u1794\u17c9\u17b6\u1796\u17bc\u17a2\u17b6\u1793\u17bc\u179c\u17c2\u179b\u17a0\u17d2\u1782\u17b8\u178e\u17c1","name:lv":"Papua-Jaungvineja","name:lt":"Papua ir Naujoji Gvin\u0117ja","name:uz":"Papua Yangi Gvineya","name:kk":"\u041f\u0430\u043f\u0443\u0430 \u0416\u0430\u04a3\u0430 \u0413\u0432\u0438\u043d\u0435\u044f","name:ur":"\u067e\u0627\u067e\u0648\u0622 \u0646\u06cc\u0648 \u06af\u0646\u06cc","name:lb":"Papua-Neiguinea","name:la":"Papua Nova Guinea","name:lg":"Papwa Nyugini","name:uk":"\u041f\u0430\u043f\u0443\u0430 \u041d\u043e\u0432\u0430 \u0413\u0432\u0456\u043d\u0435\u044f","name:ug":"\u067e\u0627\u067e\u06c7\u0626\u0627 \u064a\u06d0\u06ad\u0649 \u06af\u06cb\u0649\u0646\u06d0\u064a\u06d5","name:li":"Papoea-Nui-Guinea","name:ln":"Papwazi Gin\u025b ya sika","name:lo":"\u0e9b\u0eb2\u0e9b\u0ebb\u0ea7\u0e99\u0eb4\u0ea7\u0e81\u0eb5\u0e99\u0eb5","name:el":"\u03a0\u03b1\u03c0\u03bf\u03cd\u03b1 \u039d\u03ad\u03b1 \u0393\u03bf\u03c5\u03b9\u03bd\u03ad\u03b1","name:eo":"Papuo-Nov-Gvineo","name":"Papua New Guinea","name:ee":"Papua New Gini nutome","name:th":"\u0e1b\u0e23\u0e30\u0e40\u0e17\u0e28\u0e1b\u0e32\u0e1b\u0e31\u0e27\u0e19\u0e34\u0e27\u0e01\u0e34\u0e19\u0e35","name:eu":"Papua Ginea Berria","name:et":"Paapua Uus-Guinea","name:es":"Pap\u00faa Nueva Guinea","name:ia":"Papua Nove Guinea","name:rm":"Papua Nova Guinea","name:rn":"Papuwa Niyugineya","name:az":"Papua Yeni Qvineya","name:id":"Papua Nugini","name:ar":"\u0628\u0627\u0628\u0648\u0627 \u0646\u064a\u0648\u063a\u064a\u0646\u064a\u0627","name:io":"Papua-Nova-Guinea","name:ak":"Papua Guinea Foforo","name:am":"\u1353\u1351\u12cb \u1292\u12cd \u130a\u1292","name:it":"Papua Nuova Guinea","name:an":"Papua y Nueva Guinea","name:ru":"\u041f\u0430\u043f\u0443\u0430 \u2014 \u041d\u043e\u0432\u0430\u044f \u0413\u0432\u0438\u043d\u0435\u044f","name:rw":"Papuwa Nuveli Gineya","name:af":"Papoea-Nieu-Guinee","name:zu":"i-Papua New Guinea","name:ky":"\u041f\u0430\u043f\u0443\u0430-\u0416\u0430\u04ca\u044b-\u0413\u0432\u0438\u043d\u0435\u044f.","name:zh-yue":"\u5df4\u5e03\u4e9e\u65b0\u757f\u5167\u4e9e","name:zh":"\u5df4\u5e03\u4e9a\u65b0\u51e0\u5185\u4e9a","name:pa":"\u0a2a\u0a3e\u0a2a\u0a42\u0a06 \u0a28\u0a3f\u0a0a \u0a17\u0a3f\u0a28\u0a40","name:sm":"Papua","name:sl":"Papua Nova Gvineja","name:sk":"Papua - Nov\u00e1 Guinea","name:ja":"\u30d1\u30d7\u30a2\u30cb\u30e5\u30fc\u30ae\u30cb\u30a2","name:si":"\u0db4\u0dd0\u0db4\u0dd4\u0dc0\u0dcf \u0db1\u0dd2\u0dc0\u0dca \u0d9c\u0dd2\u0db1\u0dd2\u0dba\u0dcf\u0dc0","name:sh":"Papua Nova Gvineja","name:sg":"Pap\u00fb Fin\u00ee Gin\u00ebe, Papuaz\u00efi","name:se":"Papua-O\u0111\u0111a-Guinea","name:sa":"\u092a\u092a\u0941\u0935\u093e \u0928\u094d\u092f\u0942 \u0917\u093f\u0928\u0940","name:bs":"Papua Nova Gvineja","name:bm":"Papuwasi-Gine-Koura","name:bn":"\u09aa\u09be\u09aa\u09c1\u09af\u09bc\u09be \u09a8\u09bf\u0989 \u0997\u09bf\u09a8\u09bf","name:bo":"\u0f54\u0f0b\u0f54\u0f74\u0f0b\u0f68\u0f0d \u0f53\u0f72\u0f60\u0f74\u0f0d \u0f42\u0fb7\u0f72\u0f0b\u0f53\u0f72\u0f0d","name:br":"Papoua Ginea Nevez","name:sw":"Papua","name:be":"\u041f\u0430\u043f\u0443\u0430-\u041d\u043e\u0432\u0430\u044f \u0413\u0432\u0456\u043d\u0435\u044f","name:su":"Papua Nugini","name:bg":"\u041f\u0430\u043f\u0443\u0430 \u041d\u043e\u0432\u0430 \u0413\u0432\u0438\u043d\u0435\u044f","name:ba":"\u041f\u0430\u043f\u0443\u0430 \u2014 \u042f\u04a3\u044b \u0413\u0432\u0438\u043d\u0435\u044f","name:sq":"Papua Guineja e Re","name:jv":"Papua Nugini","name:pt":"Papua-Nova Guin\u00e9","name:oc":"Papoa-N\u00f2va Guin\u00e8a","min_zoom":2.0,"name:ro":"Papua Noua Guinee","name:zh-min-nan":"Papua Sin Guinea","name:os":"\u041f\u0430\u043f\u0443\u00e6 \u2014 \u041d\u043e\u0433 \u0413\u0432\u0438\u043d\u0435\u0439","name:or":"\u0b2a\u0b2a\u0b41\u0b06 \u0b28\u0b4d\u0b5f\u0b41 \u0b17\u0b41\u0b0f\u0b28\u0b3f\u0b06","name:pl":"Papua-Nowa Gwinea","name:sr":"\u041f\u0430\u043f\u0443\u0430 \u041d\u043e\u0432\u0430 \u0413\u0432\u0438\u043d\u0435\u0458\u0430","name:tr":"Papua -Yeni Gine","name:hi":"\u092a\u093e\u092a\u0941\u0906 \u0928\u094d\u092f\u0942 \u0917\u093f\u0928\u0940","name:sv":"Papua Nya Guinea","name:he":"\u05e4\u05e4\u05d5\u05d0\u05d4 \u05d2\u05d9\u05e0\u05d9\u05d0\u05d4 \u05d4\u05d7\u05d3\u05e9\u05d4","name:ha":"Papuwa Nugini","name:hy":"\u054a\u0561\u057a\u0578\u0582\u0561 \u0546\u0578\u0580 \u0533\u057e\u056b\u0576\u0565\u0561","name:ht":"Papwazi-Nouv\u00e8l-Gine","name:hu":"P\u00e1pua \u00daj-Guinea","name:qu":"Papwa \u00d1ukini","population":6858000,"kind":"country","alt_name:id":"Papua Guinea Baru","name:is":"Pap\u00faa N\u00fdja-G\u00ednea","name:yo":"Or\u00edl\u1eb9\u0301\u00e8de Paapu ti Giini","name:mt":"Papwa-Ginea \u0120dida","name:mr":"\u092a\u093e\u092a\u0941\u0906 \u0928\u094d\u092f\u0942 \u0917\u093f\u0928\u0940","name:my":"\u1015\u102b\u1015\u1030\u101b\u102c\u1014\u101a\u1030\u1038\u1002\u102e\u1014\u102e","official_name":"Independent State of Papua New Guinea;Independen Stet bilong Papua Niugini","name:mg":"Papouasie-Nouvelle-Guin\u00e9e","name:ml":"\u0d2a\u0d2a\u0d4d\u0d2a\u0d41\u0d35 \u0d28\u0d4d\u0d2f\u0d42 \u0d17\u0d4d\u0d35\u0d3f\u0d28\u0d3f","name:mn":"\u041f\u0430\u043f\u0443\u0430-\u0428\u0438\u043d\u044d \u0413\u0432\u0438\u043d\u0435\u0439","name:mi":"Papua N\u016bkini","id":424297931,"name:mk":"\u041f\u0430\u043f\u0443\u0430 \u041d\u043e\u0432\u0430 \u0413\u0432\u0438\u043d\u0435\u0458\u0430","name:vo":"Papuve\u00e4n Nula-Giney\u00e4n","name:fa":"\u067e\u0627\u067e\u0648\u0622 \u06af\u06cc\u0646\u0647 \u0646\u0648","name:ff":"Papuwaa Nuwel Gine","name:fi":"Papua-Uusi-Guinea","name:fo":"Papua N\u00fdguinea","name:fr":"Papouasie-Nouvelle-Guin\u00e9e","name:fy":"Papoea Nij-Guinea","name:nl":"Papoea-Nieuw-Guinea","name:nn":"Papua Ny-Guinea","name:no":"Papua Ny-Guinea","name:ne":"\u092a\u092a\u0941\u0906 \u0928\u094d\u092f\u0942 \u0917\u093e\u0907\u0928\u093f\u092f\u093e","name:wo":"Papuwaasi-Gine-Gu-Bees","name:nv":"P\u00e1\u00e1powa Big\u00edn\u00ed \u00c1niid\u00ed","name:ga":"Nua-Ghuine Phapua","name:gd":"Papua Gini-Nuadh","name:gl":"Pap\u00faa Nova Guinea","name:gv":"Papooey Guinea Noa","name:gu":"\u0aaa\u0abe\u0aaa\u0ac1\u0a86 \u0aa8\u0acd\u0aaf\u0ac2 \u0a97\u0abf\u0aa8\u0ac0","name:tt":"\u041f\u0430\u043f\u0443\u0430 \u2014 \u042f\u04a3\u0430 \u0413\u0432\u0438\u043d\u0435\u044f"},"coordinates":[3367,2014]},{"type":"Point","properties":{"kind":"region","name":"Western Highlands Province","kind_detail":"state","name:eo":"Provinco Okcidentaj Altaj Teroj","name:de":"Westliche Hochlandprovinz","source":"openstreetmap.org","min_zoom":4.0,"name:fr":"Hautes-Terres occidentales","name:uk":"\u0417\u0430\u0445\u0456\u0434\u043d\u0438\u0439 \u0413\u0430\u0439\u043b\u0435\u043d\u0434\u0441","name:ru":"\u0417\u0430\u043f\u0430\u0434\u043d\u043e\u0435 \u0412\u044b\u0441\u043e\u043a\u043e\u0433\u043e\u0440\u044c\u0435","name:hu":"Western Highlands Provincia","id":304993790,"name:ja":"\u897f\u90e8\u5c71\u5cb3\u5dde"},"coordinates":[3363,1956]},{"type":"Point","properties":{"kind":"region","name":"East Sepik Province","kind_detail":"state","min_zoom":4.0,"source":"openstreetmap.org","name:fr":"Sepik oriental","name:uk":"\u0421\u0445\u0456\u0434\u043d\u0438\u0439 \u0421\u0435\u043f\u0456\u043a","name:ru":"\u0412\u043e\u0441\u0442\u043e\u0447\u043d\u044b\u0439 \u0421\u0435\u043f\u0438\u043a","id":304993825,"name:ja":"\u6771\u30bb\u30d4\u30c3\u30af\u5dde"},"coordinates":[2997,2500]},{"type":"Point","properties":{"kind":"region","name":"Southern Highlands Province","kind_detail":"state","name:eo":"Provinco Sudaj Altaj Teroj","name:de":"S\u00fcdliche Hochlandprovinz","source":"openstreetmap.org","min_zoom":4.0,"name:fr":"Hautes-Terres m\u00e9ridionales","name:uk":"\u041f\u0456\u0432\u0434\u0435\u043d\u043d\u0438\u0439 \u0413\u0430\u0439\u043b\u0435\u043d\u0434\u0441","name:ru":"\u042e\u0436\u043d\u043e\u0435 \u0412\u044b\u0441\u043e\u043a\u043e\u0433\u043e\u0440\u044c\u0435","id":304993829,"name:ja":"\u5357\u90e8\u5c71\u5cb3\u5dde"},"coordinates":[3131,1734]},{"type":"Point","properties":{"kind":"region","name":"Western Province","kind_detail":"state","min_zoom":4.0,"name:de":"Westprovinz","source":"openstreetmap.org","name:fr":"Province ouest","name:uk":"\u0417\u0430\u0445\u0456\u0434\u043d\u0430 \u043f\u0440\u043e\u0432\u0456\u043d\u0446\u0456\u044f","name:ru":"\u0417\u0430\u043f\u0430\u0434\u043d\u0430\u044f \u043f\u0440\u043e\u0432\u0438\u043d\u0446\u0438\u044f","name:hu":"Western Provincia","id":304993836,"name:ja":"\u897f\u90e8\u5dde"},"coordinates":[2549,1348]},{"type":"Point","properties":{"kind":"region","name":"Sandaun Province","kind_detail":"state","min_zoom":4.0,"official_name":"West Sepik Province","source":"openstreetmap.org","name:fr":"Sandaun","name:uk":"\u0421\u0430\u043d\u0434\u0430\u0443\u043d","name:ru":"\u0421\u0430\u043d\u0434\u0430\u0443\u043d","id":304993840,"name:ja":"\u30b5\u30f3\u30c0\u30a6\u30f3\u5dde"},"coordinates":[2549,2814]},{"type":"Point","properties":{"kind":"region","name":"Madang Province","kind_detail":"state","min_zoom":4.0,"source":"openstreetmap.org","name:fr":"Madang","name:uk":"\u041c\u0430\u0434\u0430\u043d\u0433","name:ru":"\u041c\u0430\u0434\u0430\u043d\u0433","id":304993853,"name:ja":"\u30de\u30c0\u30f3\u5dde"},"coordinates":[3823,2264]},{"type":"Point","properties":{"kind":"region","name":"Enga Province","kind_detail":"state","min_zoom":4.0,"source":"openstreetmap.org","name:fr":"Enga","name:uk":"\u0415\u043d\u0433\u0430","name:ru":"\u042d\u043d\u0433\u0430","id":304993881,"name:ja":"\u30a8\u30f3\u30ac\u5dde"},"coordinates":[3147,2017]},{"type":"Point","properties":{"kind":"region","name":"Eastern Highlands Province","kind_detail":"state","name:eo":"Provinco Orientaj Altaj Teroj","name:de":"\u00d6stliche Hochlandprovinz","source":"openstreetmap.org","min_zoom":4.0,"name:fr":"Hautes-Terres orientales","name:uk":"\u0421\u0445\u0456\u0434\u043d\u0438\u0439 \u0413\u0430\u0439\u043b\u0435\u043d\u0434\u0441","name:ru":"\u0412\u043e\u0441\u0442\u043e\u0447\u043d\u043e\u0435 \u0412\u044b\u0441\u043e\u043a\u043e\u0433\u043e\u0440\u044c\u0435","id":304993883,"name:ja":"\u6771\u90e8\u5c71\u5cb3\u5dde"},"coordinates":[3853,1714]},{"type":"Point","properties":{"kind":"region","name":"Gulf Province","kind_detail":"state","name:eo":"Provinco Golfo","name:de":"Golfprovinz","source":"openstreetmap.org","min_zoom":4.0,"name:fr":"Golfe","name:uk":"\u0413\u0430\u043b\u0444","name:ru":"\u0417\u0430\u043b\u0438\u0432","id":304993899,"name:ja":"\u6e7e\u5cb8\u5dde"},"coordinates":[3599,1327]},{"type":"Point","properties":{"kind":"region","name":"Chimbu Province","kind_detail":"state","min_zoom":4.0,"source":"openstreetmap.org","name:fr":"Simbu","name:uk":"\u0421\u0456\u043c\u0431\u0443","name:ru":"\u0421\u0438\u043c\u0431\u0443","id":304993910,"name:ja":"\u30b7\u30f3\u30d6\u5dde"},"coordinates":[3580,1806]},{"type":"Point","properties":{"kind":"region","name":"Hela Province","kind_detail":"state","min_zoom":4.0,"source":"openstreetmap.org","name:fr":"Hela","name:uk":"\u0413\u0435\u043b\u0430","name:ru":"\u0425\u0435\u043b\u0430","id":2504817263,"name:es":"Hela","name:ja":"\u30d8\u30e9\u5dde"},"coordinates":[2832,1981]},{"type":"Point","properties":{"kind":"region","name":"Jiwaka Province","kind_detail":"state","min_zoom":4.0,"source":"openstreetmap.org","name:fr":"Jiwaka","name:uk":"\u0414\u0436\u0438\u0432\u0430\u043a\u0430","name:ru":"\u0414\u0436\u0438\u0432\u0430\u043a\u0430","id":2504817264,"name:es":"Jiwaka","name:ja":"\u30b8\u30ef\u30ab\u5dde"},"coordinates":[3500,2051]},{"type":"Point","properties":{"kind":"region","name":"Papua","kind_detail":"state","name:eo":"Papuo","source":"openstreetmap.org","name:fr":"Papouasie","min_zoom":4.0,"name:hu":"P\u00e1pua","name:zh":"\u5df4\u5e03\u4e9a\u7701","id":1898313611},"coordinates":[1219,2635]},{"type":"Point","properties":{"source":"naturalearthdata.com","kind":"locality","name":"Jayapura","population":169341,"region_capital":true,"min_zoom":5.0,"id":6454},"coordinates":[2075,3168]},{"type":"Point","properties":{"source":"naturalearthdata.com","kind":"locality","name":"Mt. Hagen","population":59064,"region_capital":true,"min_zoom":5.0,"id":6342},"coordinates":[3356,1948]},{"type":"Point","properties":{"source":"naturalearthdata.com","kind":"locality","name":"Goroka","population":39699,"region_capital":true,"min_zoom":5.0,"id":6341},"coordinates":[3781,1867]}]},"transit":{"type":"GeometryCollection","geometries":[]},"pois":{"type":"GeometryCollection","geometries":[{"type":"Point","properties":{"kind":"nature_reserve","name:en":"Jayawijaya Mountains Wildlife Refuge","name":"Suaka Margasatwa Pegunungan Jayawijaya","area":7949450000,"source":"openstreetmap.org","min_zoom":5.81,"tier":2,"id":-7748512,"osm_relation":true},"coordinates":[1928,2514]},{"type":"Point","properties":{"kind":"nature_reserve","name:en":"Dolok Island Wildlife Refuge","name":"Suaka Margasatwa Pulau Dolok","area":7186940000,"source":"openstreetmap.org","min_zoom":5.88,"tier":2,"id":-7748340,"osm_relation":true},"coordinates":[1169,1177]}]},"boundaries":{"type":"GeometryCollection","geometries":[{"type":"MultiLineString","properties":{"source":"naturalearthdata.com","kind":"country","sort_rank":262,"kind_detail":"2","min_zoom":0.0,"id":321},"arcs":[[0],[1],[2],[3],[4],[5],[6],[7],[8]]},{"type":"LineString","properties":{"source":"naturalearthdata.com","kind":"region","sort_rank":256,"kind_detail":"4","min_zoom":2.0,"id":3733},"arcs":[9]}]},"roads":{"type":"GeometryCollection","geometries":[{"type":"LineString","properties":{"source":"naturalearthdata.com","kind":"minor_road","sort_rank":355,"kind_detail":"tertiary","min_zoom":5.0,"id":42143},"arcs":[95]},{"type":"LineString","properties":{"source":"naturalearthdata.com","kind":"major_road","sort_rank":379,"kind_detail":"secondary","min_zoom":4.0,"id":42144},"arcs":[96]},{"type":"LineString","properties":{"source":"naturalearthdata.com","kind":"major_road","sort_rank":379,"kind_detail":"secondary","min_zoom":4.0,"id":42148},"arcs":[97]},{"type":"LineString","properties":{"source":"naturalearthdata.com","kind":"major_road","sort_rank":379,"kind_detail":"secondary","min_zoom":4.0,"id":42149},"arcs":[98]},{"type":"LineString","properties":{"source":"naturalearthdata.com","kind":"major_road","sort_rank":379,"kind_detail":"secondary","min_zoom":4.0,"id":42161},"arcs":[99]},{"type":"LineString","properties":{"source":"naturalearthdata.com","kind":"major_road","sort_rank":379,"kind_detail":"secondary","min_zoom":4.0,"id":42406},"arcs":[100]},{"type":"LineString","properties":{"source":"naturalearthdata.com","kind":"major_road","sort_rank":379,"kind_detail":"secondary","min_zoom":4.0,"id":42501},"arcs":[101]},{"type":"LineString","properties":{"source":"naturalearthdata.com","kind":"major_road","sort_rank":379,"kind_detail":"secondary","min_zoom":4.0,"id":42831},"arcs":[102]},{"type":"LineString","properties":{"source":"naturalearthdata.com","kind":"major_road","sort_rank":379,"kind_detail":"secondary","min_zoom":4.0,"id":42866},"arcs":[103]},{"type":"LineString","properties":{"source":"naturalearthdata.com","kind":"major_road","sort_rank":379,"kind_detail":"secondary","min_zoom":4.0,"id":42878},"arcs":[104]},{"type":"LineString","properties":{"source":"naturalearthdata.com","kind":"major_road","sort_rank":379,"kind_detail":"secondary","min_zoom":4.0,"id":42893},"arcs":[105]},{"type":"LineString","properties":{"source":"naturalearthdata.com","kind":"major_road","sort_rank":379,"kind_detail":"secondary","min_zoom":4.0,"id":42954},"arcs":[106]},{"type":"LineString","properties":{"source":"naturalearthdata.com","kind":"major_road","sort_rank":379,"kind_detail":"secondary","min_zoom":4.0,"id":48646},"arcs":[107]}]},"earth":{"type":"GeometryCollection","geometries":[{"type":"MultiPolygon","properties":{"sort_rank":10,"source":"naturalearthdata.com","min_zoom":0.0,"kind":"earth","area":1895699137219},"arcs":[[[108]],[[109]],[[110]],[[111]],[[112]],[[113]],[[114]],[[115]],[[116]],[[117]],[[118]],[[119]],[[120]],[[121]],[[122]],[[123]],[[124]],[[125]],[[126]],[[127]],[[128]],[[129]],[[130]],[[131]],[[132]]]}]},"landuse":{"type":"GeometryCollection","geometries":[{"type":"Polygon","properties":{"kind":"national_park","name":"Jardine River National Park","area":2453530112,"sort_rank":18,"source":"openstreetmap.org","min_zoom":3.0,"tier":1,"id":-1476078,"osm_relation":true},"arcs":[[133]]},{"type":"Polygon","properties":{"kind":"nature_reserve","name":"Taman Nasional Wasur","area":4447179776,"sort_rank":23,"source":"openstreetmap.org","min_zoom":4.0,"tier":2,"id":-7748401,"osm_relation":true},"arcs":[[134],[135]]},{"type":"Polygon","properties":{"kind":"nature_reserve","name":"Suaka Margasatwa Pulau Dolok","area":7186939904,"sort_rank":23,"source":"openstreetmap.org","min_zoom":4.0,"tier":2,"id":-7748340,"osm_relation":true},"arcs":[[136]]},{"type":"Polygon","properties":{"kind":"nature_reserve","name":"Cagar Alam Enarotali","area":4224130048,"sort_rank":23,"source":"openstreetmap.org","min_zoom":4.0,"tier":2,"id":-7751437,"osm_relation":true},"arcs":[[137],[138]]},{"type":"Polygon","properties":{"kind":"nature_reserve","name":"Taman Wisata Perairan Kepulauan Padaido","area":1793469952,"sort_rank":23,"source":"openstreetmap.org","min_zoom":4.0,"tier":2,"id":-7751459,"osm_relation":true},"arcs":[[139]]},{"type":"Polygon","properties":{"kind":"nature_reserve","name":"Suaka Margasatwa Danau Bian","area":1129990016,"sort_rank":23,"source":"openstreetmap.org","min_zoom":4.0,"tier":2,"id":-7752075,"osm_relation":true},"arcs":[[140]]},{"type":"Polygon","properties":{"kind":"nature_reserve","name":"Suaka Margasatwa Pegunungan Jayawijaya","area":7949450240,"sort_rank":23,"source":"openstreetmap.org","min_zoom":4.0,"tier":2,"id":-7748512,"osm_relation":true},"arcs":[[141],[142],[143],[144],[145],[146],[147],[148],[149]]},{"type":"Polygon","properties":{"kind":"park","name":"Taman Nasional Teluk Cenderawasih","area":19187499008,"sort_rank":24,"source":"openstreetmap.org","min_zoom":4.0,"tier":2,"id":-7731918,"osm_relation":true},"arcs":[[150]]},{"type":"Polygon","properties":{"kind":"park","name":"Taman Nasional Lorentz","area":18285400064,"sort_rank":24,"source":"openstreetmap.org","min_zoom":4.0,"tier":2,"id":-2897317,"osm_relation":true},"arcs":[[151]]}]}},"type":"Topology","transform":{"translate":[135.0,-11.1784018737],"scale":[0.002746582,0.002729102]},"arcs":[[[2175,3143],[0,-11],[0,-65],[0,-71],[-1,-91],[1,-121],[0,-80],[0,-75],[0,-62],[1,-155],[0,-65],[0,-79],[0,-4],[0,-1],[0,-71],[0,-46],[0,-15],[0,-95],[0,-68],[0,-71],[0,-84],[0,-38],[-1,-1],[-4,-4],[-2,-7],[-1,-1],[-1,-1],[1,-3],[4,-3],[1,-2],[-2,-4],[-3,-2],[-2,-3],[1,-5]],[[2167,1739],[-4,1]],[[2163,1740],[-4,-1],[-3,-1],[-3,-1],[4,-1],[2,-2],[1,-3],[0,-4]],[[2166,1727],[1,-6],[-1,-6],[-2,-3],[-6,-1],[-2,-3],[-1,-4],[0,-9],[-1,-2],[-2,-1],[-3,0],[-3,-2],[1,-2],[2,-4],[1,-3],[-5,-3],[-6,-2],[-6,-1],[-3,-6],[5,-3],[1,-6],[-3,-12],[-2,-5],[-1,-3],[0,-4],[3,-4],[7,-6],[2,-5],[0,-2],[-4,-5],[0,-2],[1,-4],[3,-3],[7,-5],[2,-6],[0,-8],[3,-5]],[[2160,1727],[6,0]],[[2163,1584],[1,-12],[7,-4]],[[2154,1581],[9,3]],[[2176,1569],[0,-40],[0,-56],[0,-46],[0,-15],[0,-96],[0,-68],[0,-69],[0,-15],[0,-62],[0,-97],[0,-64],[0,-69],[0,-71],[0,-42]],[[2171,1568],[5,1]],[[0,2596],[97,122],[-97,35]],[[2842,0],[2,3],[-2,1],[-3,9],[-1,11],[-2,10],[-4,12],[-3,5],[-4,5],[-2,4],[-3,11],[-1,4],[-6,2],[-9,-1],[-8,-4],[-5,-8],[-2,7],[3,12],[-3,7],[-4,1],[-3,-1],[-2,1],[-4,18],[-4,5],[-8,1],[-9,-2],[-4,-4],[-1,-9],[-5,-7],[-6,-6],[-8,-3],[5,9],[0,9],[-2,9],[2,9],[2,1],[8,2],[3,2],[2,3],[3,8],[2,4],[3,2],[6,2],[2,2],[2,3],[2,3],[2,4],[0,3],[-6,3],[-13,7],[-5,3],[-1,2],[1,3],[0,2],[-2,1],[-2,-1],[-1,0],[0,-1],[-2,-1],[-2,-1],[-5,-5],[-2,-1],[-16,1],[-5,-1],[-5,-5],[-4,-6],[-5,-17],[-2,-6],[-1,-5],[-14,-14],[-8,-11],[-7,-5],[-8,-1],[-8,-1],[-8,-1],[-6,-2],[-4,-4],[-3,3],[-17,-4],[-8,-8],[-2,-11],[4,-31],[1,-31],[-2,-10],[-1979,0],[0,1],[5,14],[5,16],[6,20],[0,7],[-3,-2],[-1,-4],[-1,0],[-1,1],[-2,0],[-1,1],[-7,-7],[6,-5],[-2,-6],[-3,-2],[-4,-4],[0,-9],[-4,-7],[-4,-14],[-2,0],[-613,0],[0,2505],[68,-39],[15,-5],[16,1],[21,7],[11,-1],[19,2],[6,3],[6,-4],[8,-2],[44,-5],[6,-3],[4,-3],[15,-4],[16,0],[3,-1],[6,-2],[9,-1],[10,1],[6,3],[13,-4],[30,0],[14,-3],[7,-5],[17,-19],[7,-5],[5,-2],[5,0],[6,-2],[6,-3],[4,-3],[5,-3],[9,-1],[0,-1],[12,-9],[32,-9],[33,-1],[7,-2],[10,-9],[3,-1],[8,-1],[2,-1],[9,-7],[27,-14],[32,-18],[25,-9],[18,-13],[3,1],[4,2],[8,-1],[5,-1],[1,-1],[0,-7],[1,-3],[3,-4],[3,-3],[4,-1],[8,1],[7,3],[27,16],[8,3],[3,-4],[-1,-2],[-5,-2],[-4,-3],[-2,-4],[1,-3],[2,-2],[20,-8],[12,1],[12,7],[8,12],[2,0],[-2,-11],[-3,-8],[1,-6],[9,-7],[13,12],[1,-11],[6,-6],[18,-8],[5,5],[-3,6],[3,5],[17,12],[1,-1],[-6,-22],[1,-5],[3,-3],[9,-2],[3,2],[-1,8],[10,-11],[5,-4],[5,5],[3,0],[0,-4],[-1,-3],[-2,-3],[-2,-3],[8,-7],[9,-6],[11,-2],[11,3],[2,-5],[2,-2],[3,-1],[3,-2],[7,-7],[3,-3],[5,0],[3,2],[6,9],[1,1],[5,-1],[3,-9],[5,-2],[0,-3],[-8,-3],[2,-6],[7,-5],[7,-3],[11,-3],[6,-3],[3,1],[4,2],[3,0],[5,-3],[4,-13],[6,-6],[7,-2],[7,2],[13,7],[-2,-6],[-7,-10],[-1,-7],[1,-1],[10,-12],[2,-2],[2,-2],[12,0],[18,14],[8,-2],[-6,-12],[2,-9],[16,-16],[10,-14],[5,-4],[10,-2],[3,4],[0,7],[-3,9],[5,-2],[4,2],[2,4],[2,6],[3,-2],[2,-4],[-1,-9],[-3,-16],[0,-8],[5,-4],[2,0],[8,-4],[1,-1],[0,-4],[-3,-1],[-3,-1],[-4,-1],[-5,-4],[-3,-4],[-2,-5],[0,-9],[1,-16],[4,-15],[0,-4],[0,-4],[1,-3],[4,-2],[1,-2],[1,0],[7,5],[17,1],[7,2],[15,9],[7,3],[7,2],[9,0],[16,3],[8,0],[7,-3],[-20,-6],[-20,-9],[-34,-20],[4,-4],[2,-4],[1,-3],[2,-2],[9,-6],[42,-9],[7,1],[16,4],[6,1],[-10,-8],[-26,-4],[-12,-7],[-3,-10],[5,-12],[23,-35],[1,-6],[1,-5],[7,-7],[2,-6],[1,-6],[6,-17],[1,-6],[-1,-17],[2,-7],[7,-14],[3,-10],[16,-31],[50,-46],[6,-2],[4,-4],[17,-21],[11,-10],[44,-28],[-24,13],[-7,2],[-15,7],[-7,0],[-4,-10],[0,-8],[4,-7],[6,-5],[17,-5],[8,-6],[20,-18],[5,-3],[7,-2],[25,-2],[15,-4],[12,-6],[25,-24],[17,-8],[3,-3],[4,-2],[8,0],[9,-2],[4,-5],[-3,1],[-16,-1],[-5,0],[-3,2],[-5,3],[-8,2],[-3,2],[-2,2],[-11,9],[-7,4],[-10,15],[-8,4],[-3,0],[-7,4],[-4,1],[-5,0],[-12,-3],[-31,-2],[-5,-2],[-10,-10],[-6,-3],[-9,0],[-15,6],[-8,1],[-15,0],[-5,-2],[-6,-3],[-7,-10],[4,-9],[27,-21],[37,-36],[2,-3],[3,-3],[19,-6],[10,-5],[6,-2],[24,-1],[8,-2],[7,-2],[19,-11],[7,-7],[8,0],[16,2],[16,0],[4,2],[3,2],[5,8],[9,9],[6,2],[7,-2],[0,-3],[-10,-3],[-5,-8],[-4,-10],[-5,-8],[-6,-2],[-56,1],[-5,2],[-11,7],[-6,3],[-14,3],[-79,2],[-8,-1],[0,-5],[4,-5],[5,-4],[3,-1],[3,-1],[8,0],[3,-1],[3,-3],[2,-2],[5,-3],[27,-18],[9,-8],[8,-9],[14,-25],[4,-7],[3,-18],[5,-4],[16,0],[12,-3],[13,-6],[8,-10],[-1,-14],[-3,-3],[-4,-3],[-4,-3],[-2,-4],[-2,-13],[-1,-2],[-4,-6],[-10,-23],[-2,-30],[-3,-11],[-10,-7],[-14,-4],[-4,-3],[-2,-7],[0,-31],[-2,-9],[0,-4],[5,-4],[2,-3],[0,-3],[-1,-4],[-8,-4],[-15,-3],[-6,-6],[-1,-8],[1,-8],[4,-9],[8,-12],[14,-27],[3,-1],[5,-1],[3,2],[3,4],[2,3],[1,2],[1,8],[4,5],[42,36],[12,6],[29,8],[8,7],[1,17],[1,2],[1,2],[-1,2],[-2,1],[-4,1],[0,1],[-1,4],[-1,7],[-1,4],[4,4],[10,-2],[16,-6],[-7,-4],[-6,1],[-6,3],[-6,-2],[8,-8],[2,-5],[1,-12],[1,-7],[-1,-2],[-1,-3],[-1,-4],[-1,-4],[0,-3],[5,-13],[11,-10],[13,-6],[13,-3],[14,-1],[15,1],[29,7],[11,5],[20,11],[11,4],[50,5],[60,1],[15,4],[15,9],[7,5],[3,5],[1,24],[3,16],[3,4],[5,2],[9,0],[7,2],[6,8],[6,3],[-9,-19],[-6,-4],[-10,5],[-9,-5],[-2,-9],[1,-9],[3,-12],[-1,-14],[-1,-5],[-4,-2],[-5,0],[-5,-1],[-8,-5],[-7,-7],[-3,-7],[1,-9],[5,-10],[16,-20],[80,-59],[6,-8],[12,-14],[19,-7],[4,-1],[1,-7],[4,-5],[25,-20],[2,-3],[20,-19],[42,-62],[85,-89],[24,-11],[4,0],[16,-10],[11,-6],[39,-35],[14,-5],[17,2],[12,5],[28,22],[13,4],[15,0],[13,-3],[12,-6],[15,-10],[5,-8],[8,-1],[7,0],[5,-1],[5,3],[5,-2],[5,-4],[6,-2],[5,1],[5,2],[6,3],[3,2],[9,-1],[31,6],[8,-1],[15,-5],[8,-2],[9,1],[7,2],[22,8],[7,1],[52,4],[12,-1],[4,2],[7,5],[4,1],[5,-1],[19,-7],[16,-8],[5,-2],[9,-1],[5,-1],[10,-5],[11,1],[13,-6],[12,-8],[18,-15],[11,-7],[13,-4],[14,1],[20,11],[3,5],[6,3],[39,16],[13,9],[17,7],[7,4],[3,4],[3,5],[4,5],[4,1],[3,1],[9,6],[9,7],[6,3],[32,10],[6,1],[2,1],[2,3],[1,2],[1,1],[2,1],[3,-1],[6,1],[8,1],[3,1],[-2,3],[11,2],[20,0],[11,3],[6,2],[4,3],[9,8],[3,6],[1,7],[-3,12],[0,47],[-1,5],[-4,6],[-14,16],[-11,18],[-20,25],[-47,39],[-11,6],[-14,6],[-46,9],[-14,5],[-23,16],[-8,2],[-4,2],[-12,11],[-15,5],[-6,-3],[-29,5],[-13,-4],[-24,-16],[-13,-5],[-16,2],[-12,6],[-8,10],[-11,35],[-1,9],[-3,7],[-9,2],[-10,-1],[-16,-4],[-4,-1],[-6,3],[-2,-2],[-3,-2],[-3,-1],[-5,-2],[-5,-3],[-8,-8],[-6,3],[-1,3],[2,3],[5,4],[4,1],[4,1],[4,1],[4,3],[3,3],[2,2],[2,1],[13,1],[21,4],[16,-3],[7,-9],[9,-37],[3,-6],[6,-5],[8,-2],[16,-1],[7,0],[8,3],[20,14],[9,1],[6,1],[19,4],[6,3],[3,-2],[2,-1],[46,-7],[36,-16],[6,-2],[9,1],[85,22],[31,2],[10,6],[4,2],[92,2],[8,1],[6,3],[2,7],[-3,9],[-21,38],[-3,14],[-5,5],[-29,13],[-7,5],[-3,7],[-1,9],[-4,3],[-15,2],[-4,1],[-3,2],[-2,2],[-1,4],[2,2],[4,-1],[4,-2],[1,-1],[10,0],[7,-1],[5,-4],[5,-7],[6,-14],[4,-4],[6,-2],[21,-2],[23,6],[9,0],[7,-3],[3,-2],[13,-4],[3,-2],[6,-6],[3,-2],[7,-2],[34,0],[8,1],[6,3],[5,8],[-13,14],[-7,3],[-3,1],[-6,1],[-3,1],[-3,2],[-2,4],[-3,1],[22,-1],[6,-1],[5,-5],[5,-7],[6,-6],[6,-2],[1,1],[5,7],[-6,15],[-17,27],[-10,11],[-4,7],[-1,8],[-1,9],[-1,8],[-2,7],[-30,50],[-6,15],[1,3],[1,2],[-1,2],[-8,2],[-8,3],[-4,1],[-3,2],[-12,13],[-4,5],[3,5],[1,-3],[1,-2],[4,-3],[12,-10],[6,-2],[4,0],[8,-1],[4,-1],[4,-2],[1,-2],[2,-6],[14,-25],[1,-7],[4,-7],[9,-7],[26,-15],[69,-24],[6,-5],[3,-2],[5,1],[4,2],[4,1],[5,-2],[3,-2],[7,-7],[5,3],[14,5],[3,3],[0,4],[-4,5],[-4,4],[-4,2],[5,7],[2,9],[-3,6],[-9,0],[0,3],[5,1],[4,2],[4,3],[2,4],[6,-6],[8,-17],[6,-3],[3,5],[-2,8],[-4,11],[-2,9],[12,-18],[4,-10],[2,-11],[2,-9],[7,-3],[6,3],[4,8],[4,-2],[5,-5],[5,-5],[1,-4],[2,-2],[7,-10],[1,-2],[10,2],[-3,8],[-7,10],[-5,4],[-1,6],[-3,5],[-3,4],[-2,4],[-3,9],[0,12],[-1,6],[-5,10],[-2,5],[0,14],[-2,7],[2,0],[3,-5],[4,-12],[4,-6],[1,-1],[3,-2],[2,-1],[1,-2],[0,-3],[1,-6],[1,-3],[4,-4],[9,-7],[2,-5],[2,-1],[3,1],[4,3],[2,3],[-9,7],[-2,3],[0,5],[3,12],[0,26],[2,4],[6,-6],[0,-4],[-1,-9],[2,-4],[2,-2],[1,-3],[0,-3],[1,-4],[1,-5],[3,-7],[4,-6],[4,-4],[7,-2],[9,1],[8,2],[4,6],[-2,6],[-2,7],[-1,7],[2,6],[9,-7],[4,-5],[3,-8],[14,-10],[7,-9],[6,-5],[5,-1],[7,0],[7,1],[5,3],[-3,6],[4,8],[1,17],[3,7],[4,-6],[2,-8],[-1,-36],[-3,-6],[-6,-8],[1,-2],[3,-3],[3,-2],[3,-1],[1,-1],[2,-3],[1,-1],[2,0],[5,1],[2,1],[6,-2],[4,-4],[4,0],[5,6],[11,-13],[4,-2],[22,0],[3,2],[2,2],[0,7],[1,4],[3,-1],[2,-4],[2,-4],[3,-6],[8,-5],[9,-3],[7,1],[0,2],[3,5],[3,4],[3,-5],[5,-3],[3,-5],[7,-7],[4,-2],[4,0],[3,1],[4,1],[3,1],[14,-2],[10,-5],[21,-20],[6,-3],[7,-2],[8,0],[25,4],[7,-2],[0,2],[6,-2],[5,1],[6,1],[5,0],[5,-2],[7,-6],[4,-2],[23,0],[6,3],[-5,7],[7,3],[6,-1],[5,0],[5,6],[2,0],[-4,-9],[-1,-2],[1,-2],[2,-1],[2,-1],[0,-3],[-2,-2],[-4,0],[-1,-1],[0,-3],[2,-2],[2,-2],[1,-1],[4,-6],[23,-8],[8,-5],[9,3],[12,0],[21,-5],[19,-10],[11,-4],[7,1],[2,-3],[-1,-3],[-2,-2],[-4,-2],[5,-4],[4,-6],[1,-6],[-5,-4],[6,-13],[4,-3],[9,-2],[3,-2],[11,-10],[12,-5],[5,-5],[3,-6],[2,-6],[0,-1052],[-1254,0]],[[1319,1616],[6,-7],[4,-4],[4,-1],[4,-3],[4,-14],[4,-3],[5,-1],[3,-2],[4,-1],[7,1],[8,5],[5,4],[2,4],[-2,5],[-8,8],[-2,5],[-3,4],[-6,2],[-13,1],[-5,1],[-5,3],[-9,7],[-5,4],[-4,-4],[0,-7],[2,-7]],[[1236,1383],[-55,-19],[-56,-38],[-23,-18],[-7,-11],[-8,-15],[-3,-9],[-2,-7],[-2,-6],[-18,-15],[-8,-13],[-26,-54],[-2,-4],[-3,-3],[-3,-22],[-4,-4],[-11,-7],[-3,-5],[-1,-5],[-8,-16],[-33,-90],[1,-13],[14,0],[30,11],[15,4],[17,2],[68,-1],[52,-1],[17,-3],[25,-10],[15,0],[15,4],[13,4],[12,7],[10,8],[13,15],[4,2],[6,3],[25,17],[6,8],[10,16],[5,8],[7,4],[7,1],[17,1],[9,3],[6,5],[11,13],[7,5],[8,2],[16,0],[-4,13],[-2,12],[-1,27],[3,13],[7,7],[20,10],[4,4],[2,4],[2,34],[2,6],[10,18],[5,15],[4,7],[4,6],[7,7],[-11,5],[-26,3],[-13,4],[-6,4],[-5,5],[-5,5],[-17,26],[-2,5],[-14,17],[-32,5],[-35,-2],[-23,-4],[-10,-4],[-49,-6]],[[1296,1030],[8,-2],[18,1],[8,-2],[17,-7],[71,-4],[6,3],[0,8],[-2,9],[-3,5],[-14,15],[-6,7],[-3,10],[0,11],[-1,13],[-5,8],[-12,1],[-20,-6],[-15,-2],[-5,-3],[-3,-5],[-1,-7],[-2,-7],[-7,-6],[-27,-18],[-5,-6],[-1,-9],[4,-7]],[[2614,694],[16,-2],[14,0],[6,1],[2,4],[-1,5],[-27,8],[-16,-4],[-4,-7],[10,-5]],[[2823,663],[-12,-3],[-10,-1],[-10,2],[-10,0],[-9,-3],[-4,-6],[4,-6],[5,-4],[5,-1],[27,0],[6,2],[4,2],[4,4],[5,3],[6,5],[-5,4],[-6,2]],[[2651,589],[7,-2],[4,2],[0,3],[-9,3],[-9,1],[1,-4],[6,-3]],[[3196,588],[-3,-3],[-5,-1],[3,-6],[1,0],[2,1],[3,3],[1,2],[-2,4]],[[2776,518],[1,-5],[8,2],[-1,4],[-2,0],[-6,-1]],[[2877,480],[5,0],[5,2],[6,1],[-3,2],[-1,1],[-2,1],[-5,1],[-7,-3],[1,-3],[1,-2]],[[2611,447],[3,-6],[1,4],[4,3],[2,1],[0,2],[-1,0],[-2,0],[-1,0],[-3,1],[-4,-2],[-2,-1],[3,-2]],[[2853,418],[7,-6],[3,4],[2,2],[-3,5],[-1,1],[-2,0],[-1,1],[-7,-1],[2,-6]],[[2606,412],[-6,1],[-16,-25],[1,-6],[4,-4],[5,-4],[5,-5],[2,-5],[4,-1],[4,2],[4,8],[2,3],[3,3],[3,15],[0,4],[-3,4],[-8,8],[-4,2]],[[2625,365],[-2,-2],[-4,-2],[1,-5],[2,-5],[3,-4],[4,-4],[5,1],[5,0],[6,-3],[4,-3],[5,-2],[10,18],[6,4],[3,4],[-3,8],[-7,7],[-8,4],[-14,0],[-8,-1],[-6,-4],[-1,-2],[1,-7],[-2,-2]],[[3011,759],[-3,4],[-4,0],[-17,-9],[-1,-3],[7,-6],[8,-2],[4,1],[3,2],[1,2],[3,5],[-1,6]],[[2990,762],[2,1],[3,2],[2,2],[-2,3],[-4,2],[-7,0],[-3,-2],[-1,-4],[4,-5],[5,-1],[1,2]],[[3060,784],[3,6],[1,0],[5,-2],[3,4],[3,8],[-1,7],[-3,2],[-2,-1],[-11,-5],[-7,-8],[0,-6],[6,-4],[3,-1]],[[3077,881],[2,12],[-4,11],[-4,3],[-3,0],[0,-2],[5,-24],[4,0]],[[3137,900],[5,-3],[5,2],[3,7],[0,8],[-3,8],[-5,6],[-8,3],[-7,2],[-35,29],[-4,7],[-2,3],[-4,2],[-8,1],[-30,11],[-33,7],[-5,4],[-14,16],[-4,0],[-5,-1],[-5,-1],[3,-4],[8,-5],[4,-3],[9,-12],[4,-4],[9,-4],[21,-6],[23,-18],[2,-5],[2,-4],[4,-1],[6,-1],[4,-2],[8,-6],[43,-20],[5,-4],[3,-5],[1,-7]],[[3057,924],[-14,3],[-1,-1],[20,-12],[4,-3],[1,0],[0,1],[-7,9],[-3,3]],[[3106,987],[19,-1],[7,1],[3,4],[0,4],[-2,6],[-6,9],[-1,6],[0,9],[-4,3],[-33,3],[-25,0],[-11,-2],[-4,0],[-3,1],[-2,2],[-3,2],[-5,0],[-8,-6],[5,-8],[10,-7],[8,-4],[16,-3],[8,-2],[6,-7],[17,-9],[8,-1]],[[3110,1036],[17,-8],[14,-14],[8,-5],[7,-1],[4,2],[1,3],[-2,5],[-1,4],[-2,6],[-4,7],[-7,5],[-14,3],[-18,-2],[-3,-5]],[[3084,1042],[6,5],[-4,4],[-20,2],[-39,-4],[-2,-2],[5,-1],[7,1],[47,-5]],[[3174,994],[2,-3],[1,-1],[3,-3],[5,-3],[6,-6],[2,1],[3,1],[2,3],[1,7],[-3,7],[-7,5],[-8,3],[-4,0],[-2,-4],[-2,-4],[1,-3]],[[3201,980],[-4,-3],[1,-6],[5,-4],[6,3],[3,8],[0,4],[-2,1],[-2,0],[-3,-2],[-4,-1]],[[3158,975],[0,4],[-2,6],[-2,2],[-9,5],[-8,-4],[-5,-6],[-1,-4],[0,-4],[5,-4],[7,-3],[6,1],[9,7]],[[3151,1126],[-5,2],[-10,2],[-5,-6],[5,-10],[7,-10],[12,-1],[8,5],[1,7],[-4,5],[-6,5],[-3,1]],[[3159,1130],[5,-2],[3,3],[-4,9],[-4,5],[-7,5],[-16,7],[-13,1],[-5,-4],[4,-8],[3,-7],[9,-4],[15,-1],[10,-4]],[[2642,188],[-10,17],[-6,8],[-7,2],[-4,-7],[-1,-2],[-1,0],[-6,-3],[-3,-3],[-1,-1],[-1,-1],[-7,-1],[-1,-1],[-1,-2],[-1,-2],[-2,-11],[3,-9],[5,-8],[4,-7],[2,-2],[13,-5],[1,4],[2,5],[4,4],[4,2],[4,1],[9,3],[4,0],[3,0],[3,-1],[1,2],[0,5],[-2,4],[-8,9]],[[2641,203],[8,-6],[10,3],[8,7],[-2,9],[-9,6],[-12,-2],[-5,-8],[2,-9]],[[2621,221],[7,3],[4,11],[0,3],[-3,2],[-3,-2],[-4,-5],[-5,-3],[-2,-2],[0,-3],[2,-3],[3,-1],[1,0]],[[2659,233],[1,-1],[6,4],[-1,5],[-2,5],[-2,-1],[1,-1],[-5,-5],[-4,0],[2,-4],[4,-2]],[[2782,200],[2,-5],[2,-4],[1,2],[1,0],[1,2],[2,1],[0,4],[1,1],[0,1],[-3,0],[-3,1],[-1,0],[-2,1],[0,1],[-3,-2],[0,-2],[2,-1]],[[4096,2057],[-4,-1],[-4,1],[-7,4],[-9,0],[-4,2],[-2,4],[-2,3],[-4,1],[-9,0],[-6,2],[-12,5],[-4,0],[-2,2],[-1,1],[-2,0],[-3,-3],[-8,5],[-7,2],[-6,2],[-6,6],[-5,-3],[-5,-1],[-6,-1],[-4,-5],[-2,1],[-1,1],[-2,1],[-1,-3],[-1,-5],[-1,-2],[-2,0],[-5,11],[-9,3],[-22,-4],[-11,3],[-7,9],[-4,11],[1,12],[6,12],[1,4],[0,4],[-2,6],[0,3],[2,8],[13,18],[2,7],[1,7],[-1,15],[0,4],[2,8],[1,13],[0,1],[1,4],[3,5],[0,3],[0,3],[-4,5],[0,2],[-1,7],[-4,15],[0,9],[2,17],[2,7],[4,4],[1,3],[-3,7],[-6,7],[-3,3],[-12,4],[-2,1],[-5,4],[-7,3],[-6,5],[-40,45],[-7,17],[-6,6],[-2,0],[-3,-1],[-3,0],[-3,2],[-8,11],[-3,6],[-13,15],[-22,19],[-15,18],[-14,6],[-16,-2],[-16,-4],[-14,0],[-38,13],[-10,5],[-13,20],[-5,3],[-2,2],[1,13],[-2,2],[-8,5],[-11,11],[-7,3],[-16,3],[-4,4],[-2,5],[0,4],[1,2],[5,2],[1,3],[0,2],[-1,1],[-1,1],[0,1],[-2,2],[-9,5],[-11,4],[-6,4],[-10,8],[-14,6],[-46,7],[-5,2],[-3,2],[-4,2],[-5,4],[-2,4],[0,31],[-2,7],[-3,7],[-4,5],[-5,5],[-6,2],[-18,0],[-5,-1],[-13,4],[-16,2],[-16,0],[-13,-3],[1,-4],[-1,-5],[-4,-5],[-3,-4],[-1,-2],[0,-1],[-1,-1],[-4,-1],[-3,1],[-2,3],[-3,5],[-5,3],[-9,-5],[-6,2],[-4,3],[-3,2],[-3,2],[-3,4],[4,0],[4,1],[4,1],[3,3],[-10,1],[-4,-1],[-4,0],[-23,-1],[-12,1],[-10,3],[-17,26],[-9,4],[-5,1],[-15,7],[-5,4],[-13,21],[-6,3],[-7,1],[-13,1],[-5,2],[-4,3],[-3,5],[3,4],[-1,3],[-2,1],[-3,0],[-5,-4],[-3,-2],[-2,2],[-10,3],[-3,2],[-3,2],[-6,2],[-2,2],[-2,2],[-4,11],[-21,21],[-6,4],[-16,6],[-78,13],[-4,1],[-5,1],[-7,5],[-3,1],[-25,3],[-7,2],[-2,-3],[-6,2],[-6,-1],[-12,-1],[-9,0],[-29,8],[-10,6],[-5,1],[-6,0],[-4,1],[-12,6],[-5,1],[-8,1],[-71,22],[-42,13],[-39,19],[-45,13],[-10,5],[-6,2],[-8,1],[-8,2],[-8,6],[-8,3],[-12,-4],[-4,1],[-9,1],[-2,1],[-1,3],[1,5],[1,4],[1,3],[-2,3],[-20,18],[-3,2],[-21,-2],[-14,-2],[-7,1],[-16,11],[-2,4],[0,3],[-1,3],[-12,2],[-82,39],[-70,30],[-8,1],[-8,3],[-11,11],[-5,-2],[-2,3],[-3,7],[-2,3],[-4,1],[-9,1],[-5,1],[-2,1],[-2,2],[-4,2],[-4,2],[-11,0],[-15,3],[-15,4],[-14,2],[-13,-7],[-7,3],[-5,0],[-3,0],[-16,-3],[-34,0],[-4,-1],[-8,-3],[-4,0],[-3,1],[-7,5],[-2,1],[-3,-2],[-1,-4],[0,-4],[-2,-2],[-4,0],[-4,3],[-3,3],[-2,3],[13,17],[2,5],[2,12],[0,6],[-5,3],[-45,19],[-39,1],[-7,2],[-34,13],[-4,0],[-5,-3],[2,-3],[4,-3],[1,-3],[-1,-4],[-3,-3],[-4,-1],[-4,3],[-7,-5],[-7,3],[-9,6],[-22,10],[-6,1],[-14,20],[-1,3],[0,3],[-1,2],[-3,2],[-2,-1],[-1,-5],[-2,-2],[-8,5],[-6,3],[-3,-1],[-4,-8],[-10,-4],[-71,-6],[-15,2],[-15,4],[-38,23],[-59,22],[-17,14],[-5,2],[-5,1],[-21,11],[-37,13],[-64,39],[-57,20],[-8,1],[-24,0],[-7,3],[-14,10],[-25,28],[-26,20],[-16,4],[-8,4],[-26,4],[-62,17],[-46,23],[-40,12],[-16,2],[-7,4],[-17,17],[-3,2],[-5,0],[-2,2],[-6,7],[-4,2],[-8,10],[-3,2],[-15,5],[-16,0],[-17,-5],[-95,-41],[-6,-2],[-2,-1],[-4,-6],[-3,-3],[-2,-1],[-8,-4],[-42,-25],[-75,-28],[-7,-4],[-3,-4],[0,-16],[-1,-8],[-4,-5],[20,-15],[4,-2],[10,-3],[4,-2],[2,-5],[0,-6],[-2,-5],[-4,-2],[-1,-3],[4,-5],[8,-7],[3,-8],[-2,-5],[-12,-9],[-6,-3],[-9,-2],[-47,-2],[-16,-3],[-10,-6],[-3,-4],[-1,-4],[-1,-3],[-4,-1],[-22,-5],[-19,-13],[-3,-1],[-11,-2],[-2,-1],[-2,-2],[-3,-3],[-3,-1],[-5,1],[-7,4],[-4,0],[-8,-8],[-14,5],[-5,0],[-2,0],[-5,-2],[-3,0],[-1,1],[-2,4],[-10,2],[-9,0],[-4,2],[0,5],[2,5],[-2,4],[-4,-1],[-10,-6],[-5,-1],[-18,0],[-10,-3],[-8,-6],[-7,-6],[-5,-7],[-2,-5],[-1,-2],[1,-11],[1,-8],[1,-4],[-2,-6],[-3,-6],[-12,-13],[-3,-5],[-2,-6],[-2,-25],[-2,-8],[-4,-7],[-11,-13],[-14,-11],[-32,-14],[-9,-2],[-5,-1],[-1,-3],[-2,-3],[-3,-2],[-3,-1],[-4,0],[-4,-4],[-4,-15],[-5,1],[-3,-2],[-8,-7],[-2,-2],[0,-16],[-1,-7],[-3,-5],[-10,-10],[0,-4],[4,-14],[0,-6],[-4,-8],[-6,-7],[-7,-5],[-17,-5],[-10,-11],[-6,-4],[-9,3],[-2,-1],[-1,-1],[-1,0],[-2,-2],[-2,-2],[-2,-3],[-1,-3],[3,-5],[4,-3],[1,-3],[-5,-7],[-12,-8],[-29,-11],[-14,-9],[-10,-14],[-1,-2],[1,-4],[0,-4],[-2,-4],[-2,-3],[-15,-17],[-6,-5],[-6,-3],[-7,-2],[-24,-4],[-15,-5],[-8,-1],[-7,1],[-9,5],[-8,2],[-59,2],[-6,2],[-10,7],[-8,1],[-16,0],[-1,0],[0,1222],[4096,0],[0,-1758],[-2,4],[-7,0],[-5,-3],[-2,-5],[-1,-6],[3,-6],[8,-4],[5,0],[-1,6],[1,0],[1,1],[0,1],[0,-269]],[[381,3783],[-29,21],[-27,28],[-8,6],[-8,3],[-7,-2],[-8,-5],[-5,-5],[-3,-4],[-3,-3],[-7,3],[-12,8],[-3,-1],[-4,-2],[-4,-1],[-1,3],[-1,4],[-4,7],[0,2],[-4,1],[-24,-5],[-3,7],[-4,4],[-7,-4],[-4,0],[-19,2],[-11,3],[-2,1],[-4,2],[-2,1],[-2,0],[-5,-1],[-2,0],[-3,2],[-6,7],[-3,1],[-7,-3],[0,-6],[8,-26],[11,-14],[13,-11],[12,-5],[-4,9],[-1,4],[3,5],[56,-46],[8,-2],[8,7],[6,8],[7,8],[8,2],[9,-8],[5,-12],[7,-36],[5,-12],[0,-4],[1,-2],[6,-7],[1,-3],[-2,-22],[2,-8],[4,-7],[7,-7],[7,-5],[8,-3],[9,1],[14,5],[8,2],[16,-3],[23,-15],[16,-2],[7,1],[7,2],[7,2],[5,3],[6,3],[23,3],[17,14],[4,2],[6,2],[5,4],[1,6],[-3,5],[-22,3],[-3,4],[-4,8],[-8,2],[-10,0],[-8,-2],[-2,-1],[-4,-3],[-4,-1],[-4,6],[-5,7],[-3,10],[-6,5],[-7,4],[-5,6],[-1,4],[-1,5],[-2,4],[-4,3],[-3,3],[-3,4],[-4,11],[-7,6]],[[444,3634],[4,4],[-1,2],[-3,1],[-5,-1],[-4,-3],[-1,-4],[1,-2],[1,-1],[1,-1],[5,3],[1,1],[1,0],[0,1]],[[580,3637],[4,-1],[1,3],[-2,5],[0,3],[2,2],[-2,5],[-4,4],[-3,1],[-4,-2],[0,-3],[2,-3],[3,-9],[3,-5]],[[1358,3514],[-3,4],[-6,-6],[0,-3],[2,-5],[8,-3],[6,0],[-1,6],[-6,7]],[[38,3540],[30,-3],[32,1],[14,5],[8,9],[-7,-1],[-4,1],[-3,2],[-4,1],[-17,-5],[-4,1],[-8,4],[-20,-2],[-8,2],[-7,1],[-4,-6],[-1,-7],[3,-3]],[[169,3514],[-2,-3],[-3,0],[-6,-2],[-4,-3],[1,-2],[4,-1],[1,-3],[0,-3],[1,-3],[3,0],[6,1],[2,-1],[2,-5],[1,-4],[1,-3],[5,-3],[11,-1],[10,1],[9,0],[9,-6],[4,-1],[6,1],[5,3],[4,1],[4,-2],[5,-4],[4,-2],[5,2],[4,1],[4,-1],[5,-5],[3,-2],[12,-1],[12,-6],[7,-3],[15,-1],[7,-1],[3,-4],[3,-1],[17,-8],[9,-6],[5,-2],[6,-1],[8,-1],[3,-1],[5,-4],[4,-2],[3,-1],[8,1],[4,0],[27,-6],[12,-6],[6,-11],[3,3],[4,1],[3,-2],[2,-5],[3,0],[2,5],[1,4],[3,2],[3,2],[3,0],[4,0],[2,1],[3,3],[2,1],[7,-1],[15,-5],[5,-1],[12,-5],[3,0],[5,0],[7,2],[5,0],[3,-1],[6,-3],[4,-1],[4,2],[0,3],[-2,3],[-3,2],[0,3],[7,0],[34,-4],[4,1],[4,2],[3,3],[3,2],[8,1],[3,2],[3,3],[1,4],[2,1],[11,0],[12,2],[29,0],[3,2],[3,5],[4,1],[0,1],[-19,11],[-6,3],[-6,1],[-14,1],[-6,1],[-14,6],[-6,1],[-32,-3],[-60,8],[-23,-3],[-8,0],[-13,6],[-7,4],[-6,4],[-3,2],[-9,-1],[-4,0],[-2,2],[-4,4],[-1,2],[-15,3],[-34,0],[-14,4],[-10,-3],[-27,7],[-23,-6],[-14,2],[-26,5],[-74,6],[-38,8],[-5,1]],[[735,3425],[-4,-1],[-12,1],[-5,-1],[1,-2],[5,-2],[8,-1],[5,-3],[17,-5],[0,2],[-1,3],[-1,2],[-3,2],[-4,5],[-6,0]],[[482,3397],[0,-2],[1,-2],[3,-3],[0,-1],[-2,0],[2,-4],[4,-5],[3,-2],[2,0],[-1,3],[3,2],[0,2],[-1,2],[-1,1],[-1,1],[0,1],[-1,6],[-1,1],[-5,-1],[-2,1],[-2,1],[-1,-1]],[[289,3433],[4,-3],[2,2],[2,0],[1,2],[1,1],[0,1],[0,1],[-1,2],[-1,1],[-1,1],[-7,-2],[1,-2],[-1,0],[0,-4]],[[278,3021],[-6,-2],[-4,1],[-3,-2],[-2,-2],[-2,-2],[-3,-4],[0,-3],[3,-3],[4,0],[6,4],[1,1],[2,1],[0,1],[-1,1],[2,0],[6,1],[2,4],[2,0],[2,-1],[1,-1],[2,1],[2,2],[-2,1],[-3,0],[-7,2],[-2,0]],[[2847,3469],[-1,-8],[4,4],[6,3],[5,3],[3,1],[-5,4],[-7,-2],[-5,-5]],[[4015,2366],[4,3],[2,4],[1,9],[1,4],[2,3],[0,12],[-1,9],[-2,6],[-13,14],[-5,5],[-8,1],[-7,-3],[-18,-19],[-4,-6],[-5,-16],[-2,-7],[0,-6],[1,-6],[3,-6],[2,-2],[12,-11],[5,-3],[9,3],[10,4],[13,8]],[[3680,2593],[1,7],[-1,6],[-4,4],[-6,3],[-4,1],[-3,-1],[-6,-5],[-1,1],[-2,1],[-3,-1],[-1,-5],[0,-6],[1,-7],[4,-6],[6,-2],[8,0],[5,2],[3,3],[3,5]],[[3499,2813],[-4,1],[-2,-3],[-1,-2],[2,-2],[1,0],[3,0],[2,-1],[2,2],[0,2],[-3,3]],[[3110,2881],[-7,1],[-2,-3],[-1,-4],[-2,-2],[-1,-4],[6,-5],[4,-1],[2,-1],[11,-4],[6,0],[5,4],[-2,7],[-9,7],[-10,5]],[[3321,2918],[-9,10],[-8,-4],[-5,-6],[7,-9],[13,-3],[7,6],[-5,6]],[[3024,2915],[-12,1],[1,-2],[3,-1],[4,-4],[2,-2],[4,1],[6,-1],[1,1],[0,1],[-4,1],[-5,5]],[[2412,1550],[7,-6],[2,-6],[-3,-1],[-5,0],[-4,-1],[-1,-4],[1,-2],[1,-3],[-1,-4],[-1,0],[-7,0],[-1,0],[-2,-4],[-1,-1],[-7,-5],[-3,-4],[-3,-3],[9,-1],[-2,-8],[-19,-26],[-7,-2],[-3,5],[3,11],[-8,3],[-8,-2],[-8,0],[-7,7],[7,3],[6,2],[3,3],[0,10],[9,-9],[6,-4],[2,4],[0,8],[-2,4],[-9,8],[-4,6],[-1,6],[3,4],[6,0],[0,-2],[0,-4],[1,-3],[4,0],[1,1],[4,11],[0,7],[0,6],[-3,6],[-4,5],[-2,1],[-7,2],[-3,1],[-4,1],[-3,3],[-1,2],[-2,1],[-4,1],[-5,5],[-2,2],[-4,0],[-8,1],[-3,1],[-4,4],[-1,4],[2,4],[5,1],[4,-1],[6,-4],[1,0],[3,1],[4,2],[3,2],[5,-4],[18,6],[6,0],[-3,-3],[-1,-4],[1,-4],[3,-4],[3,1],[8,-1],[6,-3],[-3,-6],[-2,-6],[5,-4],[6,-6],[-3,-10],[3,-3],[-2,-3],[-3,-4],[-1,-5],[3,-5],[3,0],[5,5],[10,11],[7,3]],[[1526,1541],[-4,5],[-9,2],[-8,0],[-4,2],[-3,3],[-17,8],[-25,24],[-12,6],[-15,4],[-25,2],[-7,2],[-5,3],[-20,18],[-8,6],[-17,5],[-6,5],[-4,7],[0,8],[4,10],[7,0],[15,-7],[7,-2],[24,-13],[-44,28],[-11,10],[-17,21],[-4,4],[-6,2],[-50,46],[-16,31],[-3,10],[-7,14],[-2,7],[1,17],[-1,6],[-6,17],[-1,6],[-2,6],[-7,7],[-1,5],[-1,6],[-23,35],[-5,12],[3,10],[12,7],[26,4],[10,8],[-6,-1],[-16,-4],[-7,-1],[-42,9],[-9,6],[-2,2],[-1,3],[-2,4],[-4,4],[34,20],[20,9],[20,6],[-7,3],[-8,0],[-16,-3],[-9,0],[-7,-2],[-7,-3],[-15,-9],[-7,-2],[-17,-1],[-7,-5],[-1,0],[-1,2],[-4,2],[-1,3],[0,4],[0,4],[-4,15],[-1,16],[0,9],[2,5],[3,4],[5,4],[4,1],[3,1],[3,1],[0,4],[-1,1],[-8,4],[-2,0],[-5,4],[0,8],[3,16],[1,9],[-2,4],[-3,2],[-2,-6],[-2,-4],[-4,-2],[-5,2],[3,-9],[0,-7],[-3,-4],[-10,2],[-5,4],[-10,14],[-16,16],[-2,9],[6,12],[-8,2],[-18,-14],[-12,0],[-2,2],[-2,2],[-10,12],[-1,1],[1,7],[7,10],[2,6],[-13,-7],[-7,-2],[-7,2],[-6,6],[-4,13],[-5,3],[-3,0],[-4,-2],[-3,-1],[-6,3],[-11,3],[-7,3],[-7,5],[-2,6],[8,3],[0,3],[-5,2],[-3,9],[-5,1],[-1,-1],[-6,-9],[-3,-2],[-5,0],[-3,3],[-7,7],[-3,2],[-3,1],[-2,2],[-2,5],[-11,-3],[-11,2],[-9,6],[-8,7],[2,3],[2,3],[1,3],[0,4],[-3,0],[-5,-5],[-5,4],[-10,11],[1,-8],[-3,-2],[-9,2],[-3,3],[-1,5],[6,22],[-1,1],[-17,-12],[-3,-5],[3,-6],[-5,-5],[-18,8],[-6,6],[-1,11],[-13,-12],[-9,7],[-1,6],[3,8],[2,11],[-2,0],[-8,-12],[-12,-7],[-12,-1],[-20,8],[-2,2],[-1,3],[2,4],[4,3],[5,2],[1,2],[-3,4],[-8,-3],[-27,-16],[-7,-3],[-8,-1],[-4,1],[-3,3],[-3,4],[-1,3],[0,7],[-1,1],[-5,1],[-8,1],[-4,-2],[-3,-1],[-18,13],[-25,9],[-32,18],[-27,14],[-9,7],[-2,1],[-8,1],[-3,1],[-10,9],[-7,2],[-33,1],[-32,9],[-12,9],[0,1],[-9,1],[-5,3],[-4,3],[-6,3],[-6,2],[-5,0],[-5,2],[-7,5],[-17,19],[-7,5],[-14,3],[-30,0],[-13,4],[-6,-3],[-10,-1],[-9,1],[-6,2],[-3,1],[-16,0],[-15,4],[-4,3],[-6,3],[-44,5],[-8,2],[-6,4],[-6,-3],[-19,-2],[-11,1],[-21,-7],[-16,-1],[-15,5],[-68,39]],[[0,2874],[1,0],[16,0],[8,-1],[10,-7],[6,-2],[59,-2],[8,-2],[9,-5],[7,-1],[8,1],[15,5],[24,4],[7,2],[6,3],[6,5],[15,17],[2,3],[2,4],[0,4],[-1,4],[1,2],[10,14],[14,9],[29,11],[12,8],[5,7],[-1,3],[-4,3],[-3,5],[1,3],[2,3],[2,2],[2,2],[1,0],[1,1],[2,1],[9,-3],[6,4],[10,11],[17,5],[7,5],[6,7],[4,8],[0,6],[-4,14],[0,4],[10,10],[3,5],[1,7],[0,16],[2,2],[8,7],[3,2],[5,-1],[4,15],[4,4],[4,0],[3,1],[3,2],[2,3],[1,3],[5,1],[9,2],[32,14],[14,11],[11,13],[4,7],[2,8],[2,25],[2,6],[3,5],[12,13],[3,6],[2,6],[-1,4],[-1,8],[-1,11],[1,2],[2,5],[5,7],[7,6],[8,6],[10,3],[18,0],[5,1],[10,6],[4,1],[2,-4],[-2,-5],[0,-5],[4,-2],[9,0],[10,-2],[2,-4],[1,-1],[3,0],[5,2],[2,0],[5,0],[14,-5],[8,8],[4,0],[7,-4],[5,-1],[3,1],[3,3],[2,2],[2,1],[11,2],[3,1],[19,13],[22,5],[4,1],[1,3],[1,4],[3,4],[10,6],[16,3],[47,2],[9,2],[6,3],[12,9],[2,5],[-3,8],[-8,7],[-4,5],[1,3],[4,2],[2,5],[0,6],[-2,5],[-4,2],[-10,3],[-4,2],[-20,15],[4,5],[1,8],[0,16],[3,4],[7,4],[75,28],[42,25],[8,4],[2,1],[3,3],[4,6],[2,1],[6,2],[95,41],[17,5],[16,0],[15,-5],[3,-2],[8,-10],[4,-2],[6,-7],[2,-2],[5,0],[3,-2],[17,-17],[7,-4],[16,-2],[40,-12],[46,-23],[62,-17],[26,-4],[8,-4],[16,-4],[26,-20],[25,-28],[14,-10],[7,-3],[24,0],[8,-1],[57,-20],[64,-39],[37,-13],[21,-11],[5,-1],[5,-2],[17,-14],[59,-22],[38,-23],[15,-4],[15,-2],[71,6],[10,4],[4,8],[3,1],[6,-3],[8,-5],[2,2],[1,5],[2,1],[3,-2],[1,-2],[0,-3],[1,-3],[14,-20],[6,-1],[22,-10],[9,-6],[7,-3],[7,5],[4,-3],[4,1],[3,3],[1,4],[-1,3],[-4,3],[-2,3],[5,3],[4,0],[34,-13],[7,-2],[39,-1],[45,-19],[5,-3],[0,-6],[-2,-12],[-2,-5],[-13,-17],[2,-3],[3,-3],[4,-3],[4,0],[2,2],[0,4],[1,4],[3,2],[2,-1],[7,-5],[3,-1],[4,0],[8,3],[4,1],[34,0],[16,3],[3,0],[5,0],[7,-3],[13,7],[14,-2],[15,-4],[15,-3],[11,0],[4,-2],[4,-2],[2,-2],[2,-1],[5,-1],[9,-1],[4,-1],[2,-3],[3,-7],[2,-3],[5,2],[11,-11],[8,-3],[8,-1],[70,-30],[82,-39],[12,-2],[1,-3],[0,-3],[2,-4],[16,-11],[7,-1],[14,2],[21,2],[3,-2],[20,-18],[2,-3],[-1,-3],[-1,-4],[-1,-5],[1,-3],[2,-1],[9,-1],[4,-1],[12,4],[8,-3],[8,-6],[8,-2],[8,-1],[6,-2],[10,-5],[45,-13],[39,-19],[42,-13],[71,-22],[8,-1],[5,-1],[12,-6],[4,-1],[6,0],[5,-1],[10,-6],[29,-8],[9,0],[12,1],[6,1],[6,-2],[2,3],[7,-2],[25,-3],[3,-1],[7,-5],[5,-1],[4,-1],[78,-13],[16,-6],[6,-4],[21,-21],[4,-11],[2,-2],[2,-2],[6,-2],[3,-2],[3,-2],[10,-3],[2,-2],[3,2],[5,4],[3,0],[2,-1],[1,-3],[-3,-4],[3,-5],[4,-3],[5,-2],[13,-1],[7,-1],[6,-3],[13,-21],[5,-4],[15,-7],[5,-1],[9,-4],[17,-26],[10,-3],[12,-1],[23,1],[4,0],[4,1],[10,-1],[-3,-3],[-4,-1],[-4,-1],[-4,0],[3,-4],[3,-2],[3,-2],[4,-3],[6,-2],[9,5],[5,-3],[3,-5],[2,-3],[3,-1],[4,1],[1,1],[0,1],[1,2],[3,4],[4,5],[1,5],[-1,4],[13,3],[16,0],[16,-2],[13,-4],[5,1],[18,0],[6,-2],[5,-5],[4,-5],[3,-7],[2,-7],[0,-31],[2,-4],[5,-4],[4,-2],[3,-2],[5,-2],[46,-7],[14,-6],[10,-8],[6,-4],[11,-4],[9,-5],[2,-2],[0,-1],[1,-1],[1,-1],[0,-2],[-1,-3],[-5,-2],[-1,-2],[0,-4],[2,-5],[4,-4],[16,-3],[7,-3],[11,-11],[8,-5],[2,-2],[-1,-13],[2,-2],[5,-3],[13,-20],[10,-5],[38,-13],[14,0],[16,4],[16,2],[14,-6],[15,-18],[22,-19],[13,-15],[3,-6],[8,-11],[3,-2],[3,0],[3,1],[2,0],[6,-6],[7,-17],[40,-45],[6,-5],[7,-3],[5,-4],[2,-1],[12,-4],[3,-3],[6,-7],[3,-7],[-1,-3],[-4,-4],[-2,-7],[-2,-17],[0,-9],[4,-15],[1,-7],[0,-2],[4,-5],[0,-3],[0,-3],[-3,-5],[-1,-4],[0,-1],[-1,-13],[-2,-8],[0,-4],[1,-15],[-1,-7],[-2,-7],[-13,-18],[-2,-8],[0,-3],[2,-6],[0,-4],[-1,-4],[-6,-12],[-1,-12],[4,-11],[7,-9],[11,-3],[22,4],[9,-3],[5,-11],[2,0],[1,2],[1,5],[1,3],[2,-1],[1,-1],[2,-1],[4,5],[6,1],[5,1],[5,3],[6,-6],[6,-2],[7,-2],[8,-5],[3,3],[2,0],[1,-1],[2,-2],[4,0],[12,-5],[6,-2],[9,0],[4,-1],[2,-3],[2,-4],[4,-2],[9,0],[7,-4],[4,-1],[4,1]],[[4096,1052],[-2,6],[-3,6],[-5,5],[-12,5],[-11,10],[-3,2],[-9,2],[-4,3],[-6,13],[5,4],[-1,6],[-4,6],[-5,4],[4,2],[2,2],[1,3],[-2,3],[-7,-1],[-11,4],[-19,10],[-21,5],[-12,0],[-9,-3],[-8,5],[-23,8],[-4,6],[-1,1],[-2,2],[-2,2],[0,3],[1,1],[4,0],[2,2],[0,3],[-2,1],[-2,1],[-1,2],[1,2],[4,9],[-2,0],[-5,-6],[-5,0],[-6,1],[-7,-3],[5,-7],[-6,-3],[-23,0],[-4,2],[-7,6],[-5,2],[-5,0],[-6,-1],[-5,-1],[-6,2],[0,-2],[-7,2],[-25,-4],[-8,0],[-7,2],[-6,3],[-21,20],[-10,5],[-14,2],[-3,-1],[-4,-1],[-3,-1],[-4,0],[-4,2],[-7,7],[-3,5],[-5,3],[-3,5],[-3,-4],[-3,-5],[0,-2],[-7,-1],[-9,3],[-8,5],[-3,6],[-2,4],[-2,4],[-3,1],[-1,-4],[0,-7],[-2,-2],[-3,-2],[-22,0],[-4,2],[-11,13],[-5,-6],[-4,0],[-4,4],[-6,2],[-2,-1],[-5,-1],[-2,0],[-1,1],[-2,3],[-1,1],[-3,1],[-3,2],[-3,3],[-1,2],[6,8],[3,6],[1,36],[-2,8],[-4,6],[-3,-7],[-1,-17],[-4,-8],[3,-6],[-5,-3],[-7,-1],[-7,0],[-5,1],[-6,5],[-7,9],[-14,10],[-3,8],[-4,5],[-9,7],[-2,-6],[1,-7],[2,-7],[2,-6],[-4,-6],[-8,-2],[-9,-1],[-7,2],[-4,4],[-4,6],[-3,7],[-1,5],[-1,4],[0,3],[-1,3],[-2,2],[-2,4],[1,9],[0,4],[-6,6],[-2,-4],[0,-26],[-3,-12],[0,-5],[2,-3],[9,-7],[-2,-3],[-4,-3],[-3,-1],[-2,1],[-2,5],[-9,7],[-4,4],[-1,3],[-1,6],[0,3],[-1,2],[-2,1],[-3,2],[-1,1],[-4,6],[-4,12],[-3,5],[-2,0],[2,-7],[0,-14],[2,-5],[5,-10],[1,-6],[0,-12],[3,-9],[2,-4],[3,-4],[3,-5],[1,-6],[5,-4],[7,-10],[3,-8],[-10,-2],[-1,2],[-7,10],[-2,2],[-1,4],[-5,5],[-5,5],[-4,2],[-4,-8],[-6,-3],[-7,3],[-2,9],[-2,11],[-4,10],[-12,18],[2,-9],[4,-11],[2,-8],[-3,-5],[-6,3],[-8,17],[-6,6],[-2,-4],[-4,-3],[-4,-2],[-5,-1],[0,-3],[9,0],[3,-6],[-2,-9],[-5,-7],[4,-2],[4,-4],[4,-5],[0,-4],[-3,-3],[-14,-5],[-5,-3],[-7,7],[-3,2],[-5,2],[-4,-1],[-4,-2],[-5,-1],[-3,2],[-6,5],[-69,24],[-26,15],[-9,7],[-4,7],[-1,7],[-14,25],[-2,6],[-1,2],[-4,2],[-4,1],[-8,1],[-4,0],[-6,2],[-12,10],[-4,3],[-1,2],[-1,3],[-3,-5],[4,-5],[12,-13],[3,-2],[4,-1],[8,-3],[8,-2],[1,-2],[-1,-2],[-1,-3],[6,-15],[30,-50],[2,-7],[1,-8],[1,-9],[1,-8],[4,-7],[10,-11],[17,-27],[6,-15],[-5,-7],[-1,-1],[-6,2],[-6,6],[-5,7],[-5,5],[-6,1],[-22,1],[3,-1],[2,-4],[3,-2],[3,-1],[6,-1],[3,-1],[7,-3],[13,-14],[-5,-8],[-6,-3],[-8,-1],[-34,0],[-7,2],[-3,2],[-6,6],[-3,2],[-13,4],[-3,2],[-7,3],[-9,0],[-23,-6],[-21,2],[-6,2],[-4,4],[-6,14],[-5,7],[-5,4],[-7,1],[-10,0],[-1,1],[-4,2],[-4,1],[-2,-2],[1,-4],[2,-2],[3,-2],[4,-1],[15,-2],[4,-3],[1,-9],[3,-7],[7,-5],[29,-13],[5,-5],[3,-14],[21,-38],[3,-9],[-2,-7],[-6,-3],[-8,-1],[-92,-2],[-4,-2],[-10,-6],[-31,-2],[-85,-22],[-9,-1],[-6,2],[-36,16],[-46,7],[-2,1],[-3,2],[-6,-3],[-19,-4],[-6,-1],[-9,-1],[-20,-14],[-8,-3],[-7,0],[-16,1],[-8,2],[-6,5],[-3,6],[-9,37],[-7,9],[-16,3],[-21,-4],[-13,-1],[-2,-1],[-2,-2],[-3,-3],[-4,-3],[-4,-1],[-4,-1],[-4,-1],[-5,-4],[-2,-3],[1,-3],[6,-3],[8,8],[5,3],[5,2],[3,1],[3,2],[2,2],[6,-3],[4,1],[16,4],[10,1],[9,-2],[3,-7],[1,-9],[11,-35],[8,-10],[12,-6],[16,-2],[13,5],[24,16],[13,4],[29,-5],[6,3],[15,-5],[12,-11],[4,-2],[8,-2],[23,-16],[14,-5],[46,-9],[14,-6],[11,-6],[47,-39],[20,-25],[11,-18],[14,-16],[4,-6],[1,-5],[0,-47],[3,-12],[-1,-7],[-3,-6],[-9,-8],[-4,-3],[-6,-2],[-11,-3],[-20,0],[-11,-2],[2,-3],[-3,-1],[-8,-1],[-6,-1],[-3,1],[-2,-1],[-1,-1],[-1,-2],[-2,-3],[-2,-1],[-6,-1],[-32,-10],[-6,-3],[-9,-7],[-9,-6],[-3,-1],[-4,-1],[-4,-5],[-3,-5],[-3,-4],[-7,-4],[-17,-7],[-13,-9],[-39,-16],[-6,-3],[-3,-5],[-20,-11],[-14,-1],[-13,4],[-11,7],[-18,15],[-12,8],[-13,6],[-11,-1],[-10,5],[-5,1],[-9,1],[-5,2],[-16,8],[-19,7],[-5,1],[-4,-1],[-7,-5],[-4,-2],[-12,1],[-52,-4],[-7,-1],[-22,-8],[-7,-2],[-9,-1],[-8,2],[-15,5],[-8,1],[-31,-6],[-9,1],[-3,-2],[-6,-3],[-5,-2],[-5,-1],[-6,2],[-5,4],[-5,2],[-5,-3],[-5,1],[-7,0],[-8,1],[-5,8],[-15,10],[-12,6],[-13,3],[-15,0],[-13,-4],[-28,-22],[-12,-5],[-17,-2],[-14,5],[-39,35],[-11,6],[-16,10],[-4,0],[-24,11],[-85,89],[-42,62],[-20,19],[-2,3],[-25,20],[-4,5],[-1,7],[-4,1],[-19,7],[-12,14],[-6,8],[-80,59],[-16,20],[-5,10],[-1,9],[3,7],[7,7],[8,5],[5,1],[5,0],[4,2],[1,5],[1,14],[-3,12],[-1,9],[2,9],[9,5],[10,-5],[6,4],[9,19],[-6,-3],[-6,-8],[-7,-2],[-9,0],[-5,-2],[-3,-4],[-3,-16],[-1,-24],[-3,-5],[-7,-5],[-15,-9],[-15,-4],[-60,-1],[-50,-5],[-11,-4],[-20,-11],[-11,-5],[-29,-7],[-15,-1],[-14,1],[-13,3],[-13,6],[-11,10],[-5,13],[0,3],[1,4],[1,4],[1,3],[1,2],[-1,7],[-1,12],[-2,5],[-8,8],[6,2],[6,-3],[6,-1],[7,4],[-16,6],[-10,2],[-4,-4],[1,-4],[1,-7],[1,-4],[0,-1],[4,-1],[2,-1],[1,-2],[-1,-2],[-1,-2],[-1,-17],[-8,-7],[-29,-8],[-12,-6],[-42,-36],[-4,-5],[-1,-8],[-1,-2],[-2,-3],[-3,-4],[-3,-2],[-5,1],[-3,1],[-14,27],[-8,12],[-4,9],[-1,8],[1,8],[6,6],[15,3],[8,4],[1,4],[0,3],[-2,3],[-5,4],[0,4],[2,9],[0,31],[2,7],[4,3],[14,4],[10,7],[3,11],[2,30],[10,23],[4,6],[1,2],[2,13],[2,4],[4,3],[4,3],[3,3],[1,14],[-8,10],[-13,6],[-12,3],[-16,0],[-5,4],[-3,18],[-4,7],[-14,25],[-8,9],[-9,8],[-27,18],[-5,3],[-2,2],[-3,3],[-3,1],[-8,0],[-3,1],[-3,1],[-5,4],[-4,5],[0,5],[8,1],[79,-2],[14,-3],[6,-3],[11,-7],[5,-2],[56,-1],[6,2],[5,8],[4,10],[5,8],[10,3],[0,3],[-7,2],[-6,-2],[-9,-9],[-5,-8],[-3,-2],[-4,-2],[-16,0],[-16,-2],[-8,0],[-7,7],[-19,11],[-7,2],[-8,2],[-24,1],[-6,2],[-10,5],[-19,6],[-3,3],[-2,3],[-37,36],[-27,21],[-4,9],[7,10],[6,3],[5,2],[15,0],[8,-1],[15,-6],[9,0],[6,3],[10,10],[5,2],[31,2],[12,3],[5,0],[4,-1],[7,-4],[3,0],[8,-4],[10,-15],[7,-4],[11,-9],[2,-2],[3,-2],[8,-2],[5,-3],[3,-2],[5,0],[16,1],[3,-1]],[[2605,0],[2,10],[-1,31],[-4,31],[2,11],[8,8],[17,4],[3,-3],[4,4],[6,2],[8,1],[8,1],[8,1],[7,5],[8,11],[14,14],[1,5],[2,6],[5,17],[4,6],[5,5],[5,1],[16,-1],[2,1],[5,5],[2,1],[2,1],[0,1],[1,0],[2,1],[2,-1],[0,-2],[-1,-3],[1,-2],[5,-3],[13,-7],[6,-3],[0,-3],[-2,-4],[-2,-3],[-2,-3],[-2,-2],[-6,-2],[-3,-2],[-2,-4],[-3,-8],[-2,-3],[-3,-2],[-8,-2],[-2,-1],[-2,-9],[2,-9],[0,-9],[-5,-9],[8,3],[6,6],[5,7],[1,9],[4,4],[9,2],[8,-1],[4,-5],[4,-18],[2,-1],[3,1],[4,-1],[3,-7],[-3,-12],[2,-7],[5,8],[8,4],[9,1],[6,-2],[1,-4],[3,-11],[2,-4],[4,-5],[3,-5],[4,-12],[2,-10],[1,-11],[3,-9],[2,-1],[-2,-3]],[[1367,1612],[-3,4],[-6,2],[-13,1],[-5,1],[-5,3],[-9,7],[-5,4],[-4,-4],[0,-7],[2,-7],[6,-7],[4,-4],[4,-1],[4,-3],[4,-14],[4,-3],[5,-1],[3,-2],[4,-1],[7,1],[8,5],[5,4],[2,4],[-2,5],[-8,8],[-2,5]],[[2412,1550],[7,-6],[2,-6],[-3,-1],[-5,0],[-4,-1],[-1,-4],[1,-2],[1,-3],[-1,-4],[-1,0],[-7,0],[-1,0],[-2,-4],[-1,-1],[-7,-5],[-3,-4],[-3,-3],[9,-1],[-2,-8],[-19,-26],[-7,-2],[-3,5],[3,11],[-8,3],[-8,-2],[-8,0],[-7,7],[7,3],[6,2],[3,3],[0,10],[9,-9],[6,-4],[2,4],[0,8],[-2,4],[-9,8],[-4,6],[-1,6],[3,4],[6,0],[0,-2],[0,-4],[1,-3],[4,0],[1,1],[4,11],[0,7],[0,6],[-3,6],[-4,5],[-2,1],[-7,2],[-3,1],[-4,1],[-3,3],[-1,2],[-2,1],[-4,1],[-5,5],[-2,2],[-4,0],[-8,1],[-3,1],[-4,4],[-1,4],[2,4],[5,1],[4,-1],[6,-4],[1,0],[3,1],[4,2],[3,2],[5,-4],[18,6],[6,0],[-3,-3],[-1,-4],[1,-4],[3,-4],[3,1],[8,-1],[6,-3],[-3,-6],[-2,-6],[5,-4],[6,-6],[-3,-10],[3,-3],[-2,-3],[-3,-4],[-1,-5],[3,-5],[3,0],[5,5],[10,11],[7,3]],[[1434,1332],[-6,4],[-5,5],[-5,5],[-17,26],[-2,5],[-14,17],[-32,5],[-35,-2],[-23,-4],[-10,-4],[-49,-6],[-55,-19],[-56,-38],[-23,-18],[-7,-11],[-8,-15],[-3,-9],[-2,-7],[-2,-6],[-18,-15],[-8,-13],[-26,-54],[-2,-4],[-3,-3],[-3,-22],[-4,-4],[-11,-7],[-3,-5],[-1,-5],[-8,-16],[-33,-90],[1,-13],[14,0],[30,11],[15,4],[17,2],[68,-1],[52,-1],[17,-3],[25,-10],[15,0],[15,4],[13,4],[12,7],[10,8],[13,15],[4,2],[6,3],[25,17],[6,8],[10,16],[5,8],[7,4],[7,1],[17,1],[9,3],[6,5],[11,13],[7,5],[8,2],[16,0],[-4,13],[-2,12],[-1,27],[3,13],[7,7],[20,10],[4,4],[2,4],[2,34],[2,6],[10,18],[5,15],[4,7],[4,6],[7,7],[-11,5],[-26,3],[-13,4]],[[1419,1041],[-14,15],[-6,7],[-3,10],[0,11],[-1,13],[-5,8],[-12,1],[-20,-6],[-15,-2],[-5,-3],[-3,-5],[-1,-7],[-2,-7],[-7,-6],[-27,-18],[-5,-6],[-1,-9],[4,-7],[8,-2],[18,1],[8,-2],[17,-7],[71,-4],[6,3],[0,8],[-2,9],[-3,5]],[[104,3555],[-17,-5],[-4,1],[-8,4],[-20,-2],[-8,2],[-7,1],[-4,-6],[-1,-7],[3,-3],[30,-3],[32,1],[14,5],[8,9],[-7,-1],[-4,1],[-3,2],[-4,1]],[[673,3449],[-6,3],[-6,1],[-14,1],[-6,1],[-14,6],[-6,1],[-32,-3],[-60,8],[-23,-3],[-8,0],[-13,6],[-7,4],[-6,4],[-3,2],[-9,-1],[-4,0],[-2,2],[-4,4],[-1,2],[-15,3],[-34,0],[-14,4],[-10,-3],[-27,7],[-23,-6],[-14,2],[-26,5],[-74,6],[-38,8],[-5,1],[-2,-3],[-3,0],[-6,-2],[-4,-3],[1,-2],[4,-1],[1,-3],[0,-3],[1,-3],[3,0],[6,1],[2,-1],[2,-5],[1,-4],[1,-3],[5,-3],[11,-1],[10,1],[9,0],[9,-6],[4,-1],[6,1],[5,3],[4,1],[4,-2],[5,-4],[4,-2],[5,2],[4,1],[4,-1],[5,-5],[3,-2],[12,-1],[12,-6],[7,-3],[15,-1],[7,-1],[3,-4],[3,-1],[17,-8],[9,-6],[5,-2],[6,-1],[8,-1],[3,-1],[5,-4],[4,-2],[3,-1],[8,1],[4,0],[27,-6],[12,-6],[6,-11],[3,3],[4,1],[3,-2],[2,-5],[3,0],[2,5],[1,4],[3,2],[3,2],[3,0],[4,0],[2,1],[3,3],[2,1],[7,-1],[15,-5],[5,-1],[12,-5],[3,0],[5,0],[7,2],[5,0],[3,-1],[6,-3],[4,-1],[4,2],[0,3],[-2,3],[-3,2],[0,3],[7,0],[34,-4],[4,1],[4,2],[3,3],[3,2],[8,1],[3,2],[3,3],[1,4],[2,1],[11,0],[12,2],[29,0],[3,2],[3,5],[4,1],[0,1],[-19,11]],[[501,3695],[-22,3],[-3,4],[-4,8],[-8,2],[-10,0],[-8,-2],[-2,-1],[-4,-3],[-4,-1],[-4,6],[-5,7],[-3,10],[-6,5],[-7,4],[-5,6],[-1,4],[-1,5],[-2,4],[-4,3],[-3,3],[-3,4],[-4,11],[-7,6],[-29,21],[-27,28],[-8,6],[-8,3],[-7,-2],[-8,-5],[-5,-5],[-3,-4],[-3,-3],[-7,3],[-12,8],[-3,-1],[-4,-2],[-4,-1],[-1,3],[-1,4],[-4,7],[0,2],[-4,1],[-24,-5],[-3,7],[-4,4],[-7,-4],[-4,0],[-19,2],[-11,3],[-2,1],[-4,2],[-2,1],[-2,0],[-5,-1],[-2,0],[-3,2],[-6,7],[-3,1],[-7,-3],[0,-6],[8,-26],[11,-14],[13,-11],[12,-5],[-4,9],[-1,4],[3,5],[56,-46],[8,-2],[8,7],[6,8],[7,8],[8,2],[9,-8],[5,-12],[7,-36],[5,-12],[0,-4],[1,-2],[6,-7],[1,-3],[-2,-22],[2,-8],[4,-7],[7,-7],[7,-5],[8,-3],[9,1],[14,5],[8,2],[16,-3],[23,-15],[16,-2],[7,1],[7,2],[7,2],[5,3],[6,3],[23,3],[17,14],[4,2],[6,2],[5,4],[1,6],[-3,5]],[[3134,931],[-7,2],[-35,29],[-4,7],[-2,3],[-4,2],[-8,1],[-30,11],[-33,7],[-5,4],[-14,16],[-4,0],[-5,-1],[-5,-1],[3,-4],[8,-5],[4,-3],[9,-12],[4,-4],[9,-4],[21,-6],[23,-18],[2,-5],[2,-4],[4,-1],[6,-1],[4,-2],[8,-6],[43,-20],[5,-4],[3,-5],[1,-7],[5,-3],[5,2],[3,7],[0,8],[-3,8],[-5,6],[-8,3]],[[3051,1009],[16,-3],[8,-2],[6,-7],[17,-9],[8,-1],[19,-1],[7,1],[3,4],[0,4],[-2,6],[-6,9],[-1,6],[0,9],[-4,3],[-33,3],[-25,0],[-11,-2],[-4,0],[-3,1],[-2,2],[-3,2],[-5,0],[-8,-6],[5,-8],[10,-7],[8,-4]],[[4004,2435],[-8,1],[-7,-3],[-18,-19],[-4,-6],[-5,-16],[-2,-7],[0,-6],[1,-6],[3,-6],[2,-2],[12,-11],[5,-3],[9,3],[10,4],[13,8],[4,3],[2,4],[1,9],[1,4],[2,3],[0,12],[-1,9],[-2,6],[-13,14],[-5,5]],[[4079,2328],[3,-6],[8,-4],[5,0],[-1,6],[1,0],[1,1],[0,1]],[[4096,2338],[-2,4],[-7,0],[-5,-3],[-2,-5],[-1,-6]],[[3670,2613],[-4,1],[-3,-1],[-6,-5],[-1,1],[-2,1],[-3,-1],[-1,-5],[0,-6],[1,-7],[4,-6],[6,-2],[8,0],[5,2],[3,3],[3,5],[1,7],[-1,6],[-4,4],[-6,3]],[[642,51],[0,7],[-3,-2],[-1,-4],[-1,0],[-1,1],[-2,0],[-1,1],[-7,-7],[6,-5],[-2,-6],[-3,-2],[-4,-4],[0,-9],[-4,-7],[-4,-14],[-2,0]],[[626,0],[0,1],[5,14],[5,16],[6,20]],[[2618,402],[-8,8],[-4,2],[-6,1],[-16,-25],[1,-6],[4,-4],[5,-4],[5,-5],[2,-5],[4,-1],[4,2],[4,8],[2,3],[3,3],[3,15],[0,4],[-3,4]],[[2655,381],[-14,0],[-8,-1],[-6,-4],[-1,-2],[1,-7],[-2,-2],[-2,-2],[-4,-2],[1,-5],[2,-5],[3,-4],[4,-4],[5,1],[5,0],[6,-3],[4,-3],[5,-2],[10,18],[6,4],[3,4],[-3,8],[-7,7],[-8,4]],[[2642,188],[-10,17],[-6,8],[-7,2],[-4,-7],[-1,-2],[-1,0],[-6,-3],[-3,-3],[-1,-1],[-1,-1],[-7,-1],[-1,-1],[-1,-2],[-1,-2],[-2,-11],[3,-9],[5,-8],[4,-7],[2,-2],[13,-5],[1,4],[2,5],[4,4],[4,2],[4,1],[9,3],[4,0],[3,0],[3,-1],[1,2],[0,5],[-2,4],[-8,9]],[[2644,220],[-5,-8],[2,-9],[8,-6],[10,3],[8,7],[-2,9],[-9,6],[-12,-2]],[[2846,3461],[1,8],[5,5],[7,2],[5,-4],[-3,-1],[-5,-3],[-6,-3],[-4,-4]],[[3495,2814],[-2,-3],[-1,-2],[2,-2],[1,0],[3,0],[2,-1],[2,2],[0,2],[-3,3],[-4,1]],[[3299,2918],[7,-9],[13,-3],[7,6],[-5,6],[-9,10],[-8,-4],[-5,-6]],[[3126,2858],[5,4],[-2,7],[-9,7],[-10,5],[-7,1],[-2,-3],[-1,-4],[-2,-2],[-1,-4],[6,-5],[4,-1],[2,-1],[11,-4],[6,0]],[[3159,1145],[-7,5],[-16,7],[-13,1],[-5,-4],[4,-8],[3,-7],[9,-4],[15,-1],[10,-4],[5,-2],[3,3],[-4,9],[-4,5]],[[3154,1125],[-3,1],[-5,2],[-10,2],[-5,-6],[5,-10],[7,-10],[12,-1],[8,5],[1,7],[-4,5],[-6,5]],[[3158,1022],[-2,6],[-4,7],[-7,5],[-14,3],[-18,-2],[-3,-5],[17,-8],[14,-14],[8,-5],[7,-1],[4,2],[1,3],[-2,5],[-1,4]],[[3210,983],[-2,0],[-3,-2],[-4,-1],[-4,-3],[1,-6],[5,-4],[6,3],[3,8],[0,4],[-2,1]],[[2823,663],[-12,-3],[-10,-1],[-10,2],[-10,0],[-9,-3],[-4,-6],[4,-6],[5,-4],[5,-1],[27,0],[6,2],[4,2],[4,4],[5,3],[6,5],[-5,4],[-6,2]],[[2624,710],[-16,-4],[-4,-7],[10,-5],[16,-2],[14,0],[6,1],[2,4],[-1,5],[-27,8]],[[1880,3146],[-9,0]],[[1871,3146],[-5,28],[2,6],[3,15],[1,16],[-1,17],[-3,4],[-9,5],[-6,-9],[-6,-5],[-6,0],[-9,2],[-11,1],[-13,0],[-29,-4],[-19,1],[-18,5],[-14,4],[-25,19],[-18,7],[-9,2],[-11,6],[-18,6],[-10,6],[-17,12],[-18,10],[-18,8],[-24,5],[-6,3],[-16,12],[-15,9],[-6,3],[-27,10],[-18,9],[-20,9],[-21,7],[-9,0],[-12,-2],[-6,2],[-9,4],[-20,18],[-7,6],[-6,11]],[[2086,3167],[-11,-7],[-7,-15],[-6,-2]],[[2062,3143],[-9,5],[-15,7],[-17,3],[-12,2],[-19,1],[-15,3],[-5,0],[-7,-3],[-5,-9],[-4,-4],[-8,-3],[-13,0],[-19,7],[-6,3],[-12,11],[-4,-3],[-2,-9],[-4,-6],[-6,-2]],[[2290,3106],[-15,3],[-6,6],[-18,4],[-8,0],[-16,2],[-18,3],[-18,9],[-42,-2],[-24,3],[-8,-1],[-15,-6],[-15,-5],[-7,2],[-11,4],[-7,11],[0,4]],[[2290,3106],[7,-3],[6,-5],[21,-6],[41,-17],[24,-10],[9,-8],[18,-6],[12,-7],[11,-3],[19,-13],[15,-4],[5,-3],[18,-18],[7,-2],[11,0],[22,3],[9,-1],[9,-5],[6,-4],[3,-12],[6,-9],[5,-5],[10,-3],[12,1],[9,-3],[12,-7],[14,-3],[7,0],[30,-9],[21,-17],[11,-3],[12,-9],[21,-12],[13,-6],[17,-3],[16,-3],[9,-5],[21,-4],[9,-3],[28,-6],[9,-6],[12,-3],[15,-2],[31,-6],[29,-1],[10,-2],[12,-6],[14,0],[10,0],[8,0],[9,-3],[21,-6],[25,-3],[15,-3],[9,-3],[6,-5],[3,-7],[-1,-11],[10,-6],[23,-7],[10,-5],[11,-6],[7,-7],[-1,-14],[4,-18],[3,-3]],[[3150,2740],[3,-3],[11,-2],[16,0],[17,-1],[12,-3],[9,-12],[6,-11],[4,-18],[6,-12],[8,-6],[9,-5],[7,-7],[8,-6],[7,-5],[13,-3],[9,-10],[12,-26]],[[3371,1955],[20,-3],[39,3],[10,2],[6,3],[11,0],[13,-5],[9,-7],[11,-3]],[[3919,2182],[0,12],[-3,17],[2,26],[1,12],[-3,24],[-3,6],[-1,15],[6,21],[-6,9],[-5,5],[-21,13],[-18,14],[-9,6],[-10,12],[-12,20],[-3,7],[-18,20],[-14,15],[-9,0],[-4,2],[-2,6],[0,6],[-4,4],[-15,5],[-8,9],[-6,7],[-6,3],[-7,3],[-13,-1],[-6,-3],[-15,-2],[-22,6],[-15,3],[-18,9],[-8,3],[-13,13],[-12,16],[-3,8],[-5,6],[-12,7],[-16,6],[-5,3],[-6,9],[2,10]],[[3490,1945],[24,-9],[9,-2],[12,-1],[12,-2],[13,-7],[18,-12],[18,-9],[11,-3],[18,-16],[15,-9],[13,-7],[6,-6],[9,-3],[5,-5],[7,2],[5,4],[22,0],[14,18],[24,15],[11,5],[10,-5],[12,-13],[2,-6],[0,-11],[3,-9],[10,-16],[3,-14],[2,-2]],[[3798,1822],[6,-6],[6,-3],[13,-4],[6,-3],[6,0],[14,3],[7,-2],[14,-16],[12,-3],[16,1],[32,8],[10,3],[11,1],[7,-1],[14,-8],[3,-3],[10,0],[5,9],[21,9],[4,12],[0,11],[-1,24]],[[4096,1773],[-9,6],[-6,10],[-3,14],[-3,13],[-6,11],[-9,17],[-6,3],[-10,4],[-15,3],[-15,0]],[[4014,1854],[-6,2],[-9,7],[-8,11],[-4,9],[-6,9],[-6,3],[-9,8],[-14,13],[-6,9],[-9,3],[-6,6],[-10,6],[-12,3],[-8,2],[-6,10],[-13,10],[-17,15],[-12,15],[-7,6],[-6,1],[-8,6],[-10,23],[-9,11],[-2,4],[-6,5],[-6,3],[-6,6],[-1,6],[12,13],[30,8],[10,4],[5,14],[6,0],[3,3],[16,5],[8,3],[12,16],[9,26],[13,18],[3,6]],[[626,0],[-13,0],[2,0],[4,14],[4,7],[0,9],[4,4],[3,2],[2,6],[-6,5],[7,7],[1,-1],[2,0],[1,-1],[1,0],[1,4],[3,2],[0,-7],[-6,-20],[-5,-16],[-5,-14],[0,-1]],[[1422,1036],[2,-9],[0,-8],[-6,-3],[-71,4],[-17,7],[-8,2],[-18,-1],[-8,2],[-4,7],[1,9],[5,6],[27,18],[7,6],[2,7],[1,7],[3,5],[5,3],[15,2],[20,6],[12,-1],[5,-8],[1,-13],[0,-11],[3,-10],[6,-7],[14,-15],[3,-5]],[[3163,1108],[-8,-5],[-12,1],[-7,10],[-5,10],[5,6],[10,-2],[5,-2],[3,-1],[6,-5],[4,-5],[-1,-7]],[[3147,899],[-5,-2],[-5,3],[-1,7],[-3,5],[-5,4],[-43,20],[-8,6],[-4,2],[-6,1],[-4,1],[-2,4],[-2,5],[-23,18],[-21,6],[-9,4],[-4,4],[-9,12],[-4,3],[-8,5],[-3,4],[5,1],[5,1],[4,0],[14,-16],[5,-4],[33,-7],[30,-11],[8,-1],[4,-2],[2,-3],[4,-7],[35,-29],[7,-2],[8,-3],[5,-6],[3,-8],[0,-8],[-3,-7]],[[3046,1030],[3,-1],[4,0],[11,2],[25,0],[33,-3],[4,-3],[0,-9],[1,-6],[6,-9],[2,-6],[0,-4],[-3,-4],[-7,-1],[-19,1],[-8,1],[-17,9],[-6,7],[-8,2],[-16,3],[-8,4],[-10,7],[-5,8],[8,6],[5,0],[3,-2],[2,-2]],[[3160,1010],[-4,-2],[-7,1],[-8,5],[-14,14],[-17,8],[3,5],[18,2],[14,-3],[7,-5],[4,-7],[2,-6],[1,-4],[2,-5],[-1,-3]],[[1417,1150],[4,-13],[-16,0],[-8,-2],[-7,-5],[-11,-13],[-6,-5],[-9,-3],[-17,-1],[-7,-1],[-7,-4],[-5,-8],[-10,-16],[-6,-8],[-25,-17],[-6,-3],[-4,-2],[-13,-15],[-10,-8],[-12,-7],[-13,-4],[-15,-4],[-15,0],[-25,10],[-17,3],[-52,1],[-68,1],[-17,-2],[-15,-4],[-30,-11],[-14,0],[-1,13],[33,90],[8,16],[1,5],[3,5],[11,7],[4,4],[3,22],[3,3],[2,4],[26,54],[8,13],[18,15],[2,6],[2,7],[3,9],[8,15],[7,11],[23,18],[56,38],[55,19],[49,6],[10,4],[23,4],[35,2],[32,-5],[14,-17],[2,-5],[17,-26],[5,-5],[5,-5],[6,-4],[13,-4],[26,-3],[11,-5],[-7,-7],[-4,-6],[-4,-7],[-5,-15],[-10,-18],[-2,-6],[-2,-34],[-2,-4],[-4,-4],[-20,-10],[-7,-7],[-3,-13],[1,-27],[2,-12]],[[3167,1131],[-3,-3],[-5,2],[-10,4],[-15,1],[-9,4],[-3,7],[-4,8],[5,4],[13,-1],[16,-7],[7,-5],[4,-5],[4,-9]],[[1364,1581],[-7,-1],[-4,1],[-3,2],[-5,1],[-4,3],[-4,14],[-4,3],[-4,1],[-4,4],[-6,7],[-2,7],[0,7],[4,4],[5,-4],[9,-7],[5,-3],[5,-1],[13,-1],[6,-2],[3,-4],[2,-5],[8,-8],[2,-5],[-2,-4],[-5,-4],[-8,-5]],[[4096,2338],[0,-12],[0,-1],[-1,-1],[-1,0],[1,-6],[-5,0],[-8,4],[-3,6],[1,6],[2,5],[5,3],[7,0],[2,-4]],[[3992,2354],[-9,-3],[-5,3],[-12,11],[-2,2],[-3,6],[-1,6],[0,6],[2,7],[5,16],[4,6],[18,19],[7,3],[8,-1],[5,-5],[13,-14],[2,-6],[1,-9],[0,-12],[-2,-3],[-1,-4],[-1,-9],[-2,-4],[-4,-3],[-13,-8],[-10,-4]],[[3676,2610],[4,-4],[1,-6],[-1,-7],[-3,-5],[-3,-3],[-5,-2],[-8,0],[-6,2],[-4,6],[-1,7],[0,6],[1,5],[3,1],[2,-1],[1,-1],[6,5],[3,1],[4,-1],[6,-3]],[[154,3856],[2,0],[5,1],[2,0],[2,-1],[4,-2],[2,-1],[11,-3],[19,-2],[4,0],[7,4],[4,-4],[3,-7],[24,5],[4,-1],[0,-2],[4,-7],[1,-4],[1,-3],[4,1],[4,2],[3,1],[12,-8],[7,-3],[3,3],[3,4],[5,5],[8,5],[7,2],[8,-3],[8,-6],[27,-28],[29,-21],[7,-6],[4,-11],[3,-4],[3,-3],[4,-3],[2,-4],[1,-5],[1,-4],[5,-6],[7,-4],[6,-5],[3,-10],[5,-7],[4,-6],[4,1],[4,3],[2,1],[8,2],[10,0],[8,-2],[4,-8],[3,-4],[22,-3],[3,-5],[-1,-6],[-5,-4],[-6,-2],[-4,-2],[-17,-14],[-23,-3],[-6,-3],[-5,-3],[-7,-2],[-7,-2],[-7,-1],[-16,2],[-23,15],[-16,3],[-8,-2],[-14,-5],[-9,-1],[-8,3],[-7,5],[-7,7],[-4,7],[-2,8],[2,22],[-1,3],[-6,7],[-1,2],[0,4],[-5,12],[-7,36],[-5,12],[-9,8],[-8,-2],[-7,-8],[-6,-8],[-8,-7],[-8,2],[-56,46],[-3,-5],[1,-4],[4,-9],[-12,5],[-13,11],[-11,14],[-8,26],[0,6],[7,3],[3,-1],[6,-7],[3,-2]],[[3126,2858],[-6,0],[-11,4],[-2,1],[-4,1],[-6,5],[1,4],[2,2],[1,4],[2,3],[7,-1],[10,-5],[9,-7],[2,-7],[-5,-4]],[[3326,2912],[-7,-6],[-13,3],[-7,9],[5,6],[8,4],[9,-10],[5,-6]],[[47,3555],[8,-2],[20,2],[8,-4],[4,-1],[17,5],[4,-1],[3,-2],[4,-1],[7,1],[-8,-9],[-14,-5],[-32,-1],[-30,3],[-3,3],[1,7],[4,6],[7,-1]],[[174,3513],[38,-8],[74,-6],[26,-5],[14,-2],[23,6],[27,-7],[10,3],[14,-4],[34,0],[15,-3],[1,-2],[4,-4],[2,-2],[4,0],[9,1],[3,-2],[6,-4],[7,-4],[13,-6],[8,0],[23,3],[60,-8],[32,3],[6,-1],[14,-6],[6,-1],[14,-1],[6,-1],[6,-3],[19,-11],[0,-1],[-4,-1],[-3,-5],[-3,-2],[-29,0],[-12,-2],[-11,0],[-2,-1],[-1,-4],[-3,-3],[-3,-2],[-8,-1],[-3,-2],[-3,-3],[-4,-2],[-4,-1],[-34,4],[-7,0],[0,-3],[3,-2],[2,-3],[0,-3],[-4,-2],[-4,1],[-6,3],[-3,1],[-5,0],[-7,-2],[-5,0],[-3,0],[-12,5],[-5,1],[-15,5],[-7,1],[-2,-1],[-3,-3],[-2,-1],[-4,0],[-3,0],[-3,-2],[-3,-2],[-1,-4],[-2,-5],[-3,0],[-2,5],[-3,2],[-4,-1],[-3,-3],[-6,11],[-12,6],[-27,6],[-4,0],[-8,-1],[-3,1],[-4,2],[-5,4],[-3,1],[-8,1],[-6,1],[-5,2],[-9,6],[-17,8],[-3,1],[-3,4],[-7,1],[-15,1],[-7,3],[-12,6],[-12,1],[-3,2],[-5,5],[-4,1],[-4,-1],[-5,-2],[-4,2],[-5,4],[-4,2],[-4,-1],[-5,-3],[-6,-1],[-4,1],[-9,6],[-9,0],[-10,-1],[-11,1],[-5,3],[-1,3],[-1,4],[-2,5],[-2,1],[-6,-1],[-3,0],[-1,3],[0,3],[-1,3],[-4,1],[-1,2],[4,3],[6,2],[3,0],[2,3],[5,-1]],[[2659,200],[-10,-3],[-8,6],[-2,9],[5,8],[12,2],[9,-6],[2,-9],[-8,-7]],[[2644,692],[-14,0],[-16,2],[-10,5],[4,7],[16,4],[27,-8],[1,-5],[-2,-4],[-6,-1]],[[2829,661],[5,-4],[-6,-5],[-5,-3],[-4,-4],[-4,-2],[-6,-2],[-27,0],[-5,1],[-5,4],[-4,6],[4,6],[9,3],[10,0],[10,-2],[10,1],[12,3],[6,-2]],[[2664,354],[-10,-18],[-5,2],[-4,3],[-6,3],[-5,0],[-5,-1],[-4,4],[-3,4],[-2,5],[-1,5],[4,2],[2,2],[2,2],[-1,7],[1,2],[6,4],[8,1],[14,0],[8,-4],[7,-7],[3,-8],[-3,-4],[-6,-4]],[[2609,365],[-4,-2],[-4,1],[-2,5],[-5,5],[-5,4],[-4,4],[-1,6],[16,25],[6,-1],[4,-2],[8,-8],[3,-4],[0,-4],[-3,-15],[-3,-3],[-2,-3],[-4,-8]],[[2842,0],[-237,0],[2,10],[-1,31],[-4,31],[2,11],[8,8],[17,4],[3,-3],[4,4],[6,2],[8,1],[8,1],[8,1],[7,5],[8,11],[14,14],[1,5],[2,6],[5,17],[4,6],[5,5],[5,1],[16,-1],[2,1],[5,5],[2,1],[2,1],[0,1],[1,0],[2,1],[2,-1],[0,-2],[-1,-3],[1,-2],[5,-3],[13,-7],[6,-3],[0,-3],[-2,-4],[-2,-3],[-2,-3],[-2,-2],[-6,-2],[-3,-2],[-2,-4],[-3,-8],[-2,-3],[-3,-2],[-8,-2],[-2,-1],[-2,-9],[2,-9],[0,-9],[-5,-9],[8,3],[6,6],[5,7],[1,9],[4,4],[9,2],[8,-1],[4,-5],[4,-18],[2,-1],[3,1],[4,-1],[3,-7],[-3,-12],[2,-7],[5,8],[8,4],[9,1],[6,-2],[1,-4],[3,-11],[2,-4],[4,-5],[3,-5],[4,-12],[2,-10],[1,-11],[3,-9],[2,-1],[-2,-3]],[[2652,170],[-1,-2],[-3,1],[-3,0],[-4,0],[-9,-3],[-4,-1],[-4,-2],[-4,-4],[-2,-5],[-1,-4],[-13,5],[-2,2],[-4,7],[-5,8],[-3,9],[2,11],[1,2],[1,2],[1,1],[7,1],[1,1],[1,1],[3,3],[6,3],[1,0],[1,2],[4,7],[7,-2],[6,-8],[10,-17],[8,-9],[2,-4],[0,-5]],[[4096,2057],[0,-1005],[-2,6],[-3,6],[-5,5],[-12,5],[-11,10],[-3,2],[-9,2],[-4,3],[-6,13],[5,4],[-1,6],[-4,6],[-5,4],[4,2],[2,2],[1,3],[-2,3],[-7,-1],[-11,4],[-19,10],[-21,5],[-12,0],[-9,-3],[-8,5],[-23,8],[-4,6],[-1,1],[-2,2],[-2,2],[0,3],[1,1],[4,0],[2,2],[0,3],[-2,1],[-2,1],[-1,2],[1,2],[4,9],[-2,0],[-5,-6],[-5,0],[-6,1],[-7,-3],[5,-7],[-6,-3],[-23,0],[-4,2],[-7,6],[-5,2],[-5,0],[-6,-1],[-5,-1],[-6,2],[0,-2],[-7,2],[-25,-4],[-8,0],[-7,2],[-6,3],[-21,20],[-10,5],[-14,2],[-3,-1],[-4,-1],[-3,-1],[-4,0],[-4,2],[-7,7],[-3,5],[-5,3],[-3,5],[-3,-4],[-3,-5],[0,-2],[-7,-1],[-9,3],[-8,5],[-3,6],[-2,4],[-2,4],[-3,1],[-1,-4],[0,-7],[-2,-2],[-3,-2],[-22,0],[-4,2],[-11,13],[-5,-6],[-4,0],[-4,4],[-6,2],[-2,-1],[-5,-1],[-2,0],[-1,1],[-2,3],[-1,1],[-3,1],[-3,2],[-3,3],[-1,2],[6,8],[3,6],[1,36],[-2,8],[-4,6],[-3,-7],[-1,-17],[-4,-8],[3,-6],[-5,-3],[-7,-1],[-7,0],[-5,1],[-6,5],[-7,9],[-14,10],[-3,8],[-4,5],[-9,7],[-2,-6],[1,-7],[2,-7],[2,-6],[-4,-6],[-8,-2],[-9,-1],[-7,2],[-4,4],[-4,6],[-3,7],[-1,5],[-1,4],[0,3],[-1,3],[-2,2],[-2,4],[1,9],[0,4],[-6,6],[-2,-4],[0,-26],[-3,-12],[0,-5],[2,-3],[9,-7],[-2,-3],[-4,-3],[-3,-1],[-2,1],[-2,5],[-9,7],[-4,4],[-1,3],[-1,6],[0,3],[-1,2],[-2,1],[-3,2],[-1,1],[-4,6],[-4,12],[-3,5],[-2,0],[2,-7],[0,-14],[2,-5],[5,-10],[1,-6],[0,-12],[3,-9],[2,-4],[3,-4],[3,-5],[1,-6],[5,-4],[7,-10],[3,-8],[-10,-2],[-1,2],[-7,10],[-2,2],[-1,4],[-5,5],[-5,5],[-4,2],[-4,-8],[-6,-3],[-7,3],[-2,9],[-2,11],[-4,10],[-12,18],[2,-9],[4,-11],[2,-8],[-3,-5],[-6,3],[-8,17],[-6,6],[-2,-4],[-4,-3],[-4,-2],[-5,-1],[0,-3],[9,0],[3,-6],[-2,-9],[-5,-7],[4,-2],[4,-4],[4,-5],[0,-4],[-3,-3],[-14,-5],[-5,-3],[-7,7],[-3,2],[-5,2],[-4,-1],[-4,-2],[-5,-1],[-3,2],[-6,5],[-69,24],[-26,15],[-9,7],[-4,7],[-1,7],[-14,25],[-2,6],[-1,2],[-4,2],[-4,1],[-8,1],[-4,0],[-6,2],[-12,10],[-4,3],[-1,2],[-1,3],[-3,-5],[4,-5],[12,-13],[3,-2],[4,-1],[8,-3],[8,-2],[1,-2],[-1,-2],[-1,-3],[6,-15],[30,-50],[2,-7],[1,-8],[1,-9],[1,-8],[4,-7],[10,-11],[17,-27],[6,-15],[-5,-7],[-1,-1],[-6,2],[-6,6],[-5,7],[-5,5],[-6,1],[-22,1],[3,-1],[2,-4],[3,-2],[3,-1],[6,-1],[3,-1],[7,-3],[13,-14],[-5,-8],[-6,-3],[-8,-1],[-34,0],[-7,2],[-3,2],[-6,6],[-3,2],[-13,4],[-3,2],[-7,3],[-9,0],[-23,-6],[-21,2],[-6,2],[-4,4],[-6,14],[-5,7],[-5,4],[-7,1],[-10,0],[-1,1],[-4,2],[-4,1],[-2,-2],[1,-4],[2,-2],[3,-2],[4,-1],[15,-2],[4,-3],[1,-9],[3,-7],[7,-5],[29,-13],[5,-5],[3,-14],[21,-38],[3,-9],[-2,-7],[-6,-3],[-8,-1],[-92,-2],[-4,-2],[-10,-6],[-31,-2],[-85,-22],[-9,-1],[-6,2],[-36,16],[-46,7],[-2,1],[-3,2],[-6,-3],[-19,-4],[-6,-1],[-9,-1],[-20,-14],[-8,-3],[-7,0],[-16,1],[-8,2],[-6,5],[-3,6],[-9,37],[-7,9],[-16,3],[-21,-4],[-13,-1],[-2,-1],[-2,-2],[-3,-3],[-2,-1],[-2,-2],[-4,-1],[-4,-1],[-4,-1],[-5,-4],[-2,-3],[1,-3],[6,-3],[8,8],[5,3],[1,1],[4,1],[3,1],[3,2],[2,2],[6,-3],[4,1],[16,4],[10,1],[9,-2],[3,-7],[1,-9],[11,-35],[8,-10],[12,-6],[16,-2],[13,5],[24,16],[13,4],[29,-5],[6,3],[15,-5],[12,-11],[4,-2],[8,-2],[23,-16],[14,-5],[46,-9],[14,-6],[11,-6],[47,-39],[20,-25],[11,-18],[14,-16],[4,-6],[1,-5],[0,-47],[3,-12],[-1,-7],[-3,-6],[-9,-8],[-4,-3],[-6,-2],[-11,-3],[-20,0],[-11,-2],[2,-3],[-3,-1],[-8,-1],[-6,-1],[-3,1],[-2,-1],[-1,-1],[-1,-2],[-2,-3],[-2,-1],[-6,-1],[-32,-10],[-6,-3],[-9,-7],[-9,-6],[-3,-1],[-4,-1],[-4,-5],[-3,-5],[-3,-4],[-7,-4],[-17,-7],[-13,-9],[-39,-16],[-6,-3],[-3,-5],[-20,-11],[-14,-1],[-13,4],[-11,7],[-18,15],[-12,8],[-13,6],[-11,-1],[-10,5],[-5,1],[-9,1],[-5,2],[-16,8],[-19,7],[-5,1],[-4,-1],[0,-1],[-7,-4],[-4,-2],[-12,1],[-52,-4],[-7,-1],[-22,-8],[-7,-2],[-9,-1],[-8,2],[-15,5],[-8,1],[-31,-6],[-9,1],[-3,-2],[-6,-3],[-5,-2],[-5,-1],[-6,2],[-5,4],[-5,2],[-5,-3],[-5,1],[-7,0],[-8,1],[-5,8],[-15,10],[-12,6],[-13,3],[-15,0],[-13,-4],[-28,-22],[-12,-5],[-17,-2],[-14,5],[-39,35],[-11,6],[-16,10],[-4,0],[-24,11],[-85,89],[-42,62],[-20,19],[-2,3],[-25,20],[-4,5],[-1,7],[-4,1],[-19,7],[-12,14],[-6,8],[-80,59],[-16,20],[-5,10],[-1,9],[3,7],[7,7],[8,5],[5,1],[5,0],[4,2],[1,5],[1,14],[-3,12],[-1,9],[2,9],[9,5],[10,-5],[6,4],[9,19],[-6,-3],[-6,-8],[-7,-2],[-9,0],[-5,-2],[-3,-4],[-3,-16],[-1,-24],[-3,-5],[-7,-5],[-15,-9],[-15,-4],[-60,-1],[-50,-5],[-11,-4],[-20,-11],[-11,-5],[-29,-7],[-15,-1],[-14,1],[-13,3],[-13,6],[-11,10],[-5,13],[0,3],[1,4],[1,4],[1,3],[1,2],[-1,7],[-1,12],[-2,5],[-8,8],[6,2],[6,-3],[6,-1],[7,4],[-16,6],[-10,2],[-4,-4],[1,-4],[1,-7],[1,-4],[0,-1],[4,-1],[2,-1],[1,-2],[-1,-2],[-1,-2],[-1,-17],[-8,-7],[-29,-8],[-12,-6],[-42,-36],[-4,-5],[-1,-8],[-1,-2],[-2,-3],[-3,-4],[-3,-2],[-5,1],[-3,1],[-14,27],[-8,12],[-4,9],[-1,8],[1,8],[6,6],[15,3],[8,4],[1,4],[0,3],[-2,3],[-5,4],[0,4],[2,9],[0,31],[2,7],[4,3],[14,4],[10,7],[3,11],[2,30],[10,23],[4,6],[1,2],[2,13],[2,4],[4,3],[4,3],[3,3],[1,14],[-8,10],[-13,6],[-12,3],[-16,0],[-5,4],[-3,18],[-4,7],[-14,25],[-8,9],[-9,8],[-27,18],[-5,3],[-2,2],[-3,3],[-3,1],[-8,0],[-3,1],[-3,1],[-5,4],[-4,5],[0,5],[8,1],[79,-2],[14,-3],[6,-3],[11,-7],[5,-2],[56,-1],[6,2],[5,8],[4,10],[5,8],[10,3],[0,3],[-7,2],[-6,-2],[-9,-9],[-5,-8],[-3,-2],[-4,-2],[-16,0],[-16,-2],[-8,0],[-7,7],[-19,11],[-7,2],[-8,2],[-24,1],[-6,2],[-10,5],[-19,6],[-3,3],[-2,3],[-37,36],[-27,21],[-4,9],[7,10],[6,3],[5,2],[15,0],[8,-1],[15,-6],[9,0],[6,3],[10,10],[5,2],[31,2],[12,3],[5,0],[4,-1],[7,-4],[3,0],[8,-4],[10,-15],[7,-4],[11,-9],[2,-2],[3,-2],[8,-2],[5,-3],[3,-2],[5,0],[16,1],[3,-1],[-4,5],[-9,2],[-8,0],[-4,2],[-3,3],[-17,8],[-25,24],[-12,6],[-15,4],[-25,2],[-7,2],[-5,3],[-20,18],[-8,6],[-17,5],[-6,5],[-4,7],[0,8],[4,10],[7,0],[15,-7],[7,-2],[24,-13],[-44,28],[-11,10],[-17,21],[-4,4],[-6,2],[-50,46],[-16,31],[-3,10],[-7,14],[-2,7],[1,17],[-1,6],[-6,17],[-1,6],[-2,6],[-7,7],[-1,5],[-1,6],[-23,35],[-5,12],[3,10],[12,7],[26,4],[10,8],[-6,-1],[-16,-4],[-7,-1],[-42,9],[-9,6],[-2,2],[-1,3],[-2,4],[-4,4],[34,20],[20,9],[20,6],[-7,3],[-8,0],[-16,-3],[-9,0],[-7,-2],[-7,-3],[-15,-9],[-7,-2],[-17,-1],[-7,-5],[-1,0],[-1,2],[-4,2],[-1,3],[0,4],[0,4],[-4,15],[-1,16],[0,9],[2,5],[3,4],[5,4],[4,1],[3,1],[3,1],[0,4],[-1,1],[-8,4],[-2,0],[-5,4],[0,8],[3,16],[1,9],[-2,4],[-3,2],[-2,-6],[-2,-4],[-4,-2],[-5,2],[3,-9],[0,-7],[-3,-4],[-10,2],[-5,4],[-10,14],[-16,16],[-2,9],[6,12],[-8,2],[-18,-14],[-12,0],[-2,2],[-2,2],[-10,12],[-1,1],[1,7],[7,10],[2,6],[-13,-7],[-7,-2],[-7,2],[-6,6],[-4,13],[-5,3],[-3,0],[-4,-2],[-3,-1],[-6,3],[-11,3],[-7,3],[-7,5],[-2,6],[8,3],[0,3],[-5,2],[-3,9],[-5,1],[-1,-1],[-6,-9],[-3,-2],[-5,0],[-3,3],[-7,7],[-3,2],[-3,1],[-2,2],[-2,5],[-11,-3],[-11,2],[-9,6],[-8,7],[2,3],[2,3],[1,3],[0,4],[-3,0],[-5,-5],[-5,4],[-10,11],[1,-8],[-3,-2],[-9,2],[-3,3],[-1,5],[6,22],[-1,1],[-17,-12],[-3,-5],[3,-6],[-5,-5],[-18,8],[-6,6],[-1,11],[-13,-12],[-9,7],[-1,6],[3,8],[2,11],[-2,0],[-8,-12],[-12,-7],[-12,-1],[-20,8],[-2,2],[-1,3],[2,4],[4,3],[5,2],[1,2],[-3,4],[-8,-3],[-27,-16],[-7,-3],[-8,-1],[-4,1],[-3,3],[-3,4],[-1,3],[0,7],[-1,1],[-5,1],[-8,1],[-4,-2],[-3,-1],[-18,13],[-25,9],[-32,18],[-27,14],[-9,7],[-2,1],[-8,1],[-3,1],[-10,9],[-7,2],[-33,1],[-32,9],[-12,9],[0,1],[-9,1],[-5,3],[-4,3],[-6,3],[-6,2],[-5,0],[-5,2],[-7,5],[-17,19],[-7,5],[-14,3],[-30,0],[-13,4],[-6,-3],[-10,-1],[-9,1],[-6,2],[-3,1],[-16,0],[-15,4],[-4,3],[-6,3],[-44,5],[-8,2],[-6,4],[-6,-3],[-19,-2],[-11,1],[-21,-7],[-16,-1],[-15,5],[-68,39],[0,369],[1,0],[16,0],[8,-1],[10,-7],[6,-2],[59,-2],[8,-2],[9,-5],[7,-1],[8,1],[15,5],[24,4],[7,2],[6,3],[6,5],[15,17],[2,3],[2,4],[0,4],[-1,4],[1,2],[10,14],[14,9],[29,11],[12,8],[5,7],[-1,3],[-4,3],[-3,5],[1,3],[2,3],[2,2],[2,2],[1,0],[1,1],[2,1],[9,-3],[6,4],[10,11],[17,5],[7,5],[6,7],[4,8],[0,6],[-4,14],[0,4],[10,10],[3,5],[1,7],[0,16],[2,2],[8,7],[3,2],[5,-1],[4,15],[4,4],[4,0],[3,1],[3,2],[2,3],[1,3],[5,1],[9,2],[32,14],[14,11],[11,13],[4,7],[2,8],[2,25],[2,6],[3,5],[12,13],[3,6],[2,6],[-1,4],[-1,8],[-1,11],[1,2],[2,5],[5,7],[7,6],[8,6],[10,3],[18,0],[5,1],[10,6],[4,1],[2,-4],[-2,-5],[0,-5],[4,-2],[9,0],[10,-2],[2,-4],[1,-1],[3,0],[5,2],[2,0],[5,0],[14,-5],[8,8],[4,0],[7,-4],[5,-1],[3,1],[3,3],[2,2],[2,1],[11,2],[3,1],[19,13],[22,5],[4,1],[1,3],[1,4],[3,4],[10,6],[16,3],[47,2],[9,2],[6,3],[12,9],[2,5],[-3,8],[-8,7],[-4,5],[1,3],[4,2],[2,5],[0,6],[-2,5],[-4,2],[-10,3],[-4,2],[-20,15],[4,5],[1,8],[0,16],[3,4],[7,4],[75,28],[42,25],[8,4],[2,1],[3,3],[4,6],[2,1],[6,2],[95,41],[17,5],[16,0],[15,-5],[3,-2],[8,-10],[4,-2],[6,-7],[2,-2],[5,0],[3,-2],[17,-17],[7,-4],[16,-2],[40,-12],[46,-23],[62,-17],[26,-4],[8,-4],[16,-4],[26,-20],[25,-28],[14,-10],[7,-3],[24,0],[8,-1],[57,-20],[64,-39],[37,-13],[21,-11],[5,-1],[5,-2],[17,-14],[59,-22],[38,-23],[15,-4],[15,-2],[71,6],[10,4],[4,8],[3,1],[6,-3],[8,-5],[2,2],[1,5],[2,1],[3,-2],[1,-2],[0,-3],[1,-3],[14,-20],[6,-1],[22,-10],[9,-6],[7,-3],[7,5],[4,-3],[4,1],[3,3],[1,4],[-1,3],[-4,3],[-2,3],[5,3],[4,0],[34,-13],[7,-2],[39,-1],[45,-19],[5,-3],[0,-6],[-2,-12],[-2,-5],[-13,-17],[2,-3],[3,-3],[4,-3],[4,0],[2,2],[0,4],[1,4],[3,2],[2,-1],[7,-5],[3,-1],[4,0],[8,3],[4,1],[34,0],[16,3],[3,0],[5,0],[7,-3],[13,7],[14,-2],[15,-4],[15,-3],[11,0],[4,-2],[4,-2],[2,-2],[2,-1],[5,-1],[9,-1],[4,-1],[2,-3],[3,-7],[2,-3],[5,2],[11,-11],[8,-3],[8,-1],[70,-30],[82,-39],[12,-2],[1,-3],[0,-3],[2,-4],[16,-11],[7,-1],[14,2],[21,2],[3,-2],[20,-18],[2,-3],[-1,-3],[-1,-4],[-1,-5],[1,-3],[2,-1],[9,-1],[4,-1],[12,4],[8,-3],[8,-6],[6,-2],[2,0],[8,-1],[6,-2],[10,-5],[45,-13],[39,-19],[42,-13],[71,-22],[8,-1],[5,-1],[12,-6],[4,-1],[6,0],[5,-1],[10,-6],[29,-8],[9,0],[12,1],[6,1],[6,-2],[2,3],[7,-2],[25,-3],[3,-1],[7,-5],[5,-1],[4,-1],[78,-13],[16,-6],[6,-4],[21,-21],[4,-11],[2,-2],[2,-2],[6,-2],[3,-2],[3,-2],[10,-3],[2,-2],[3,2],[5,4],[3,0],[2,-1],[1,-3],[-3,-4],[3,-5],[4,-3],[5,-2],[13,-1],[7,-1],[6,-3],[13,-21],[5,-4],[15,-7],[5,-1],[9,-4],[17,-26],[10,-3],[12,-1],[23,1],[4,0],[4,1],[10,-1],[-3,-3],[-4,-1],[-4,-1],[-4,0],[3,-4],[3,-2],[3,-2],[4,-3],[6,-2],[9,5],[5,-3],[3,-5],[2,-3],[3,-1],[4,1],[1,1],[0,1],[1,2],[3,4],[4,5],[1,5],[-1,4],[13,3],[16,0],[16,-2],[13,-4],[5,1],[18,0],[6,-2],[5,-5],[4,-5],[3,-7],[2,-7],[0,-31],[2,-4],[5,-4],[4,-2],[3,-2],[5,-2],[46,-7],[14,-6],[10,-8],[6,-4],[11,-4],[9,-5],[2,-2],[0,-1],[1,-1],[1,-1],[0,-2],[-1,-3],[-5,-2],[-1,-2],[0,-4],[2,-5],[4,-4],[16,-3],[7,-3],[11,-11],[8,-5],[2,-2],[-1,-13],[2,-2],[5,-3],[13,-20],[10,-5],[38,-13],[14,0],[16,4],[16,2],[14,-6],[15,-18],[22,-19],[13,-15],[3,-6],[8,-11],[3,-2],[3,0],[3,1],[2,0],[6,-6],[7,-17],[40,-45],[6,-5],[7,-3],[5,-4],[2,-1],[12,-4],[3,-3],[6,-7],[3,-7],[-1,-3],[-4,-4],[-2,-7],[-2,-17],[0,-9],[4,-15],[1,-7],[0,-2],[4,-5],[0,-3],[0,-3],[-3,-5],[-1,-4],[0,-1],[-1,-13],[-2,-8],[0,-4],[1,-15],[-1,-7],[-2,-7],[-13,-18],[-2,-8],[0,-3],[2,-6],[0,-4],[-1,-4],[-6,-12],[-1,-12],[4,-11],[7,-9],[11,-3],[22,4],[9,-3],[5,-11],[2,0],[1,2],[1,5],[1,3],[2,-1],[1,-1],[2,-1],[4,5],[6,1],[5,1],[5,3],[6,-6],[6,-2],[7,-2],[8,-5],[3,3],[2,0],[1,-1],[2,-2],[4,0],[12,-5],[6,-2],[9,0],[4,-1],[2,-3],[2,-4],[4,-2],[9,0],[7,-4],[4,-1],[4,1]],[[2678,10],[20,55],[86,4],[40,-69],[-144,0],[-2,10]],[[1996,1011],[111,51],[12,74],[47,-25],[7,37],[17,2],[2,-128],[-20,-20],[20,-3],[0,-247],[-46,14],[-107,107],[-43,138]],[[2127,976],[5,-13],[11,-2],[-3,10],[-13,5]],[[961,1010],[83,209],[123,137],[86,-86],[-4,-82],[49,-3],[38,-32],[-6,-63],[-128,-69],[-241,-11]],[[201,2699],[139,101],[25,-37],[99,17],[111,-46],[-48,-36],[-74,9],[-23,-43],[23,-25],[35,8],[69,-14],[-15,46],[41,50],[65,-17],[32,-48],[-67,-34],[-120,-10],[8,20],[-100,-26],[-68,48],[-79,-7],[-53,44]],[[394,2640],[13,-5],[10,15],[-15,-9],[-8,-1]],[[455,3584],[2,60],[92,56],[93,-3],[-4,-120],[-183,7]],[[1907,1383],[50,46],[-10,41],[66,-8],[-22,61],[38,-8],[-2,29],[33,-23],[-38,-21],[53,-41],[-52,-23],[-55,-98],[-30,14],[-1,39],[-30,-8]],[[1616,2577],[33,72],[29,11],[151,13],[161,-39],[91,-120],[46,-122],[-18,-27],[-36,-11],[-151,17],[-18,80],[-34,30],[-159,29],[-26,17],[35,37],[-43,-31],[-25,43],[-36,1]],[[1909,2461],[10,-21],[22,-8],[-3,14],[-29,15]],[[1677,2596],[29,-18],[15,4],[-32,20],[-12,-6]],[[1998,2420],[3,-7],[3,-6],[4,11],[-10,2]],[[1936,2464],[8,-20],[8,-1],[-4,19],[-12,2]],[[2085,2370],[14,-7],[15,13],[-19,2],[-10,-8]],[[1976,2389],[11,-16],[14,2],[-16,15],[-9,-1]],[[2071,2410],[15,-6],[4,5],[-12,5],[-7,-4]],[[2017,2396],[17,-1],[5,6],[-16,3],[-6,-8]],[[0,3473],[137,-1],[-13,-621],[-124,23],[0,599]],[[736,2239],[22,78],[48,40],[-6,53],[56,138],[-62,52],[125,82],[44,-16],[-45,-12],[5,-32],[78,9],[6,-20],[-39,-12],[30,-23],[25,6],[-8,58],[87,4],[261,-106],[7,-54],[66,-45],[-4,-40],[-36,-24],[-108,42],[-143,11],[-42,-171],[-126,-149],[-241,131]]]}