{"objects":{"water":{"type":"GeometryCollection","geometries":[{"type":"Polygon","properties":{"source":"naturalearthdata.com","kind":"ocean","area":1576712559132672,"sort_rank":200,"min_zoom":0.0,"id":1},"arcs":[[12],[13],[14]]},{"type":"MultiLineString","properties":{"source":"naturalearthdata.com","kind":"ocean","sort_rank":205,"boundary":true,"min_zoom":0.0,"id":75},"arcs":[[15],[16]]},{"type":"LineString","properties":{"source":"naturalearthdata.com","kind":"ocean","sort_rank":205,"boundary":true,"min_zoom":0.0,"id":306},"arcs":[17]},{"type":"LineString","properties":{"source":"naturalearthdata.com","kind":"ocean","sort_rank":205,"boundary":true,"min_zoom":0.0,"id":307},"arcs":[18]}]},"buildings":{"type":"GeometryCollection","geometries":[]},"places":{"type":"GeometryCollection","geometries":[{"type":"Point","properties":{"name:ka":"\u10e1\u10d0\u10da\u10d5\u10d0\u10d3\u10dd\u10e0\u10d8","name:mr":"\u0938\u093e\u0932\u094d\u0935\u094d\u0939\u093e\u0926\u094b\u0930","name:ko":"\uc0ac\uc6b0\ubc14\ub3c4\ub974","name:ar":"\u0633\u0627\u0644\u0641\u0627\u062f\u0648\u0631","name:kk":"\u0421\u0430\u043b\u0432\u0430\u0434\u043e\u0440","name:th":"\u0e0b\u0e31\u0e25\u0e27\u0e32\u0e14\u0e2d\u0e23\u0e4c","name:os":"\u0421\u0430\u043b\u0432\u0430\u0434\u043e\u0440","name:ru":"\u0421\u0430\u043b\u0432\u0430\u0434\u043e\u0440","name:ce":"\u0421\u0430\u043b\u0432\u0430\u0434\u043e\u0440","name:mn":"\u0421\u0430\u043b\u0432\u0430\u0434\u043e\u0440","name:tg":"\u0421\u0430\u043b\u0432\u0430\u0434\u043e\u0440","name:mk":"\u0421\u0430\u043b\u0432\u0430\u0434\u043e\u0440","name:fa":"\u0633\u0627\u0644\u0648\u0627\u062f\u0648\u0631","name:lt":"Salvadoras","kind_detail":"city","id":34593849,"source":"openstreetmap.org","name:zh":"\u8428\u5c14\u74e6\u591a","name:lv":"Salvadora","name:ja":"\u30b5\u30eb\u30f4\u30a1\u30c9\u30fc\u30eb","short_name":"SSA","name:he":"\u05e1\u05dc\u05d1\u05d3\u05d5\u05e8","name:bn":"\u09b8\u09be\u09b2\u09ad\u09be\u09a6\u09cb\u09b0","name:la":"Salvatoris","name:uk":"\u0421\u0430\u043b\u0432\u0430\u0434\u043e\u0440","name:hy":"\u054d\u0561\u056c\u057e\u0561\u0564\u0578\u0580","name:be":"\u0421\u0430\u043b\u044c\u0432\u0430\u0434\u043e\u0440","name:bg":"\u0421\u0430\u043b\u0432\u0430\u0434\u043e\u0440","name:sr":"\u0421\u0430\u043b\u0432\u0430\u0434\u043e\u0440","population":2902927,"name:el":"\u03a3\u03b1\u03bb\u03b2\u03b1\u03b4\u03cc\u03c1","kind":"locality","name":"Salvador","region_capital":true,"min_zoom":8.0},"coordinates":[2603,2816]},{"type":"Point","properties":{"kind":"locality","name":"Cama\u00e7ari","kind_detail":"city","source":"openstreetmap.org","min_zoom":8.0,"old_name":"Camassary;Montenegro;Vila de Nova Abrantes do Esp\u00edrito Santo;Aldeia do Divino Esp\u00edrito Santo","id":415522578,"population":281413},"coordinates":[3055,3661]},{"type":"Point","properties":{"source":"openstreetmap.org","kind":"locality","name":"Lauro de Freitas","kind_detail":"city","population":156936,"min_zoom":8.0,"id":415522576},"coordinates":[3094,3085]},{"type":"Point","properties":{"source":"openstreetmap.org","kind":"locality","name":"Sim\u00f5es Filho","kind_detail":"city","population":114649,"min_zoom":8.0,"id":415522577},"coordinates":[2831,3401]},{"type":"Point","properties":{"source":"openstreetmap.org","kind":"locality","name":"Santo Ant\u00f4nio de Jesus","kind_detail":"city","population":102469,"min_zoom":8.0,"id":415522572},"coordinates":[332,2856]},{"type":"Point","properties":{"source":"openstreetmap.org","kind":"locality","name":"Valen\u00e7a","kind_detail":"town","population":88542,"min_zoom":8.0,"id":415522567},"coordinates":[890,1649]},{"type":"Point","properties":{"source":"openstreetmap.org","kind":"locality","name":"Candeias","kind_detail":"town","population":81306,"min_zoom":8.0,"id":415522575},"coordinates":[2430,3752]},{"type":"Point","properties":{"source":"openstreetmap.org","kind":"locality","name":"Dias d'\u00c1vila","kind_detail":"town","population":80657,"min_zoom":8.0,"id":415522628},"coordinates":[3153,3904]},{"type":"Point","properties":{"source":"openstreetmap.org","kind":"locality","name":"Cruz das Almas","kind_detail":"town","population":56766,"min_zoom":8.0,"id":415522562},"coordinates":[785,3744]},{"type":"Point","properties":{"source":"openstreetmap.org","kind":"locality","name":"Vila de Abrantes","kind_detail":"town","population":46457,"min_zoom":8.0,"id":416644251},"coordinates":[3233,3284]},{"type":"Point","properties":{"source":"openstreetmap.org","kind":"locality","name":"Maragogipe","kind_detail":"town","population":43620,"min_zoom":8.0,"id":415522584},"coordinates":[1333,3432]},{"type":"Point","properties":{"source":"openstreetmap.org","kind":"locality","name":"Vera Cruz","kind_detail":"town","population":36843,"min_zoom":8.0,"id":415522587},"coordinates":[2228,2880]},{"type":"Point","properties":{"source":"openstreetmap.org","kind":"locality","name":"Cachoeira","kind_detail":"town","population":33495,"min_zoom":8.0,"id":415522583},"coordinates":[1188,3964]},{"type":"Point","properties":{"source":"openstreetmap.org","kind":"locality","name":"S\u00e3o Francisco do Conde","kind_detail":"town","population":31219,"min_zoom":8.0,"id":415522589},"coordinates":[2021,3876]},{"type":"Point","properties":{"source":"openstreetmap.org","kind":"locality","name":"Muritiba","kind_detail":"town","population":27866,"min_zoom":8.0,"id":415522566},"coordinates":[1126,3887]},{"type":"Point","properties":{"source":"openstreetmap.org","kind":"locality","name":"Nazar\u00e9","kind_detail":"town","population":27350,"min_zoom":8.0,"id":415522564},"coordinates":[1074,2660]},{"type":"Point","properties":{"source":"openstreetmap.org","kind":"locality","name":"Monte Gordo","kind_detail":"town","population":24335,"min_zoom":8.0,"id":416644234},"coordinates":[3736,3829]},{"type":"Point","properties":{"source":"openstreetmap.org","kind":"locality","name":"Ituber\u00e1","kind_detail":"town","population":24185,"min_zoom":8.0,"id":415522538},"coordinates":[661,561]},{"type":"Point","properties":{"source":"openstreetmap.org","kind":"locality","name":"S\u00e3o Felipe","kind_detail":"town","population":20902,"min_zoom":8.0,"id":415522559},"coordinates":[818,3238]},{"type":"Point","properties":{"source":"openstreetmap.org","kind":"locality","name":"Itaparica","kind_detail":"town","population":20641,"min_zoom":8.0,"id":415522586},"coordinates":[2025,3081]},{"type":"Point","properties":{"source":"openstreetmap.org","kind":"locality","name":"Governador Mangabeira","kind_detail":"town","population":20539,"min_zoom":8.0,"id":415522563},"coordinates":[984,3948]},{"type":"Point","properties":{"source":"openstreetmap.org","kind":"locality","name":"Tapero\u00e1","kind_detail":"town","population":19081,"min_zoom":8.0,"id":415522568},"coordinates":[805,1155]},{"type":"Point","properties":{"source":"openstreetmap.org","kind":"locality","name":"Concei\u00e7\u00e3o do Almeida","kind_detail":"town","population":18076,"min_zoom":8.0,"id":415522573},"coordinates":[599,3430]},{"type":"Point","properties":{"source":"openstreetmap.org","kind":"locality","name":"Jaguaripe","kind_detail":"town","population":17074,"min_zoom":8.0,"id":415522569},"coordinates":[1400,2420]},{"type":"Point","properties":{"source":"openstreetmap.org","kind":"locality","name":"Sapea\u00e7u","kind_detail":"town","population":17041,"min_zoom":8.0,"id":415522560},"coordinates":[550,3573]},{"type":"Point","properties":{"source":"openstreetmap.org","kind":"locality","name":"Madre de Deus","kind_detail":"town","population":16783,"min_zoom":8.0,"id":415522590},"coordinates":[2213,3534]},{"type":"Point","properties":{"source":"openstreetmap.org","kind":"locality","name":"S\u00e3o F\u00e9lix","kind_detail":"town","population":15987,"min_zoom":8.0,"id":415522565},"coordinates":[1181,3939]},{"type":"Point","properties":{"source":"openstreetmap.org","kind":"locality","name":"Salinas da Margarida","kind_detail":"town","population":13850,"min_zoom":8.0,"id":415522585},"coordinates":[1793,3142]},{"type":"Point","properties":{"source":"openstreetmap.org","kind":"locality","name":"Igrapi\u00fana","kind_detail":"town","population":13436,"min_zoom":8.0,"id":415522537},"coordinates":[678,304]},{"type":"Point","properties":{"source":"openstreetmap.org","kind":"locality","name":"Nilo Pe\u00e7anha","kind_detail":"town","population":13092,"min_zoom":8.0,"id":415522551},"coordinates":[788,963]},{"type":"Point","properties":{"source":"openstreetmap.org","kind":"locality","name":"Saubara","kind_detail":"town","population":12380,"min_zoom":8.0,"id":415522588},"coordinates":[1773,3549]},{"type":"Point","properties":{"source":"openstreetmap.org","kind":"locality","name":"Itapor\u00e3","kind_detail":"town","population":10632,"min_zoom":8.0,"id":416644229},"coordinates":[644,3887]},{"type":"Point","properties":{"source":"openstreetmap.org","kind":"locality","name":"Pira\u00ed do Norte","kind_detail":"town","population":10415,"min_zoom":8.0,"id":415522407},"coordinates":[2,485]}]},"transit":{"type":"GeometryCollection","geometries":[{"type":"MultiLineString","properties":{"kind":"train","name":"Rodovia Governador M\u00e1rio Covas","sort_rank":275,"source":"openstreetmap.org","min_zoom":6.0,"ref":"BR-101","osm_relation":true,"network":"BR"},"arcs":[[2],[3],[4],[5],[6],[7],[8]]},{"type":"LineString","properties":{"kind":"subway","name":"Linha 1: Lapa \u21d2 Piraj\u00e1","sort_rank":275,"colour":"#BE2D2C","source":"openstreetmap.org","min_zoom":8.0,"ref":"1","id":-4511874,"osm_relation":true,"colour_name":"brown"},"arcs":[9]},{"type":"LineString","properties":{"kind":"subway","name":"Linha 1: Piraj\u00e1 \u21d2 Lapa","sort_rank":275,"colour":"#BE2D2C","source":"openstreetmap.org","min_zoom":8.0,"ref":"1","id":-6774703,"osm_relation":true,"colour_name":"brown"},"arcs":[10]},{"type":"LineString","properties":{"kind":"subway","network":"Metr\u00f4 de Salvador","sort_rank":275,"colour":"#003399","name":"Linha 2","source":"openstreetmap.org","min_zoom":8.0,"operator":"CCR Metro Bahia","ref":"2","id":-6771624,"osm_relation":true,"colour_name":"navy"},"arcs":[11]}]},"pois":{"type":"GeometryCollection","geometries":[{"type":"Point","properties":{"kind":"nature_reserve","tier":2,"protect_class":"6","area":106647000,"source":"openstreetmap.org","min_zoom":8.92,"operator":"Instituto Chico Mendes de Conserva\u00e7\u00e3o da Biodiversidade","id":-3426364,"osm_relation":true,"name":"Reserva Extrativista Marinha da Baia do Iguap\u00e9"},"coordinates":[1412,3490]}]},"boundaries":{"type":"GeometryCollection","geometries":[{"type":"LineString","properties":{"name:kg":"Brazil","name:ty":"Brazil","name:ka":"\u10d1\u10e0\u10d0\u10d6\u10d8\u10da\u10d8\u10d0","name:ko":"\ube0c\ub77c\uc9c8","name:cv":"\u0411\u0440\u0430\u0437\u0438\u043b\u0438","name:cu":"\u0411\u0440\u0430\ua641\u0457\u043b\u0457\ua657","name:kl":"Brazil","name:cs":"Braz\u00edlie","name:ki":"Brazil","name:co":"Brasile","name:kv":"\u0411\u0440\u0430\u0437\u0438\u043b\u0438\u044f","name:ku":"Braz\u00eel","name:ce":"\u0411\u0440\u0430\u0437\u0438\u043b\u0438\u044f","name:ta":"\u0baa\u0bbf\u0bb0\u0bc7\u0b9a\u0bbf\u0bb2\u0bcd","name:tg":"\u0411\u0440\u0430\u0437\u0438\u043b\u0438\u044f","name:ky":"\u0411\u0440\u0430\u0437\u0438\u043b\u0438\u044f","name:te":"\u0c2c\u0c4d\u0c30\u0c46\u0c1c\u0c3f\u0c32\u0c4d","name:da":"Brasilien","name:de":"Brasilien","name:dz":"\u0f56\u0f71\u0f62\u0f71\u0f0b\u0f5b\u0f72\u0f63\u0f0b","source":"openstreetmap.org","name:kn":"\u0cac\u0ccd\u0cb0\u0cc6\u0c9c\u0cbf\u0cb2\u0ccd","name:dv":"\u0784\u07aa\u0783\u07ac\u0792\u07a8\u078d\u07b0","name:km":"\u1794\u17d2\u179a\u17c1\u179f\u17ca\u17b8\u179b","name:lv":"Braz\u012blija","name:lt":"Brazilija","name:uz":"Braziliya","name:kk":"\u0411\u0440\u0430\u0437\u0438\u043b\u0438\u044f","name:ur":"\u0628\u0631\u0627\u0632\u06cc\u0644","name:lb":"Brasilien","name:la":"Brasilia","name:tt":"\u0411\u0440\u0430\u0437\u0438\u043b\u0438\u044f","name:uk":"\u0411\u0440\u0430\u0437\u0438\u043b\u0456\u044f","name:ug":"\u0628\u0631\u0627\u0632\u0649\u0644\u0649\u064a\u06d5","name:li":"Braziel","name:ln":"Brazil","name:el":"\u0392\u03c1\u03b1\u03b6\u03b9\u03bb\u03af\u03b1","name:eo":"Brazilo","name:en":"Brazil","name":"Brasil","name:tk":"Brazili\u00fda","name:ee":"Brazil","name:th":"\u0e1b\u0e23\u0e30\u0e40\u0e17\u0e28\u0e1a\u0e23\u0e32\u0e0b\u0e34\u0e25","name:et":"Brasiilia","name:ay":"Wrasil","name:rm":"Brasilia","name:rn":"Brazil","name:az":"Braziliya","name:ig":"Brazil","name:as":"\u09ac\u09cd\u09f0\u09be\u099c\u09bf\u09b2","name:zh-min-nan":"Pa-se","name:io":"Brazilia","name:is":"Brasil\u00eda","name:am":"\u1265\u122b\u12da\u120d","name:it":"Brasile","name:ru":"\u0411\u0440\u0430\u0437\u0438\u043b\u0438\u044f","name:rw":"Burezile","name:af":"Brasili\u00eb","name:zu":"IBrazili","kind_detail":"2","name:za":"Bahsih","name:zh-yue":"\u5df4\u897f","name:zh":"\u5df4\u897f","name:so":"Barasiil","name:sl":"Brazilija","name:sk":"Braz\u00edlia","name:ja":"\u30d6\u30e9\u30b8\u30eb","name:sh":"Brazil","name:se":"Brasilia","name:sc":"Brasile","name:br":"Brazil","name:bs":"Brazil","name:bm":"Brazil","name:bn":"\u09ac\u09cd\u09b0\u09be\u099c\u09bf\u09b2","name:bo":"\u0f54\u0f74\u0f0b\u0f62\u0f74\u0f0b\u0f5f\u0f72\u0f63\u0f0d","name:bi":"Brazil","name:sw":"Brazil","name:be":"\u0411\u0440\u0430\u0437\u0456\u043b\u0456\u044f","name:bg":"\u0411\u0440\u0430\u0437\u0438\u043b\u0438\u044f","name:ba":"\u0411\u0440\u0430\u0437\u0438\u043b\u0438\u044f","name:sq":"Brazili","name:sa":"\u092c\u094d\u0930\u093e\u0938\u0940\u0932","name:ps":"\u0628\u0631\u0627\u0632\u06cc\u0644","min_zoom":8.0,"name:ro":"Brazilia","name:pa":"\u0a2c\u0a4d\u0a30\u0a3e\u0a1c\u0a3c\u0a40\u0a32","name:os":"\u0411\u0440\u0430\u0437\u0438\u043b\u0438","name:or":"\u0b2c\u0b4d\u0b30\u0b3e\u0b1c\u0b3f\u0b32","name:pl":"Brazylia","name:st":"Brazil","sort_rank":262,"name:sr":"\u0411\u0440\u0430\u0437\u0438\u043b","osm_relation":true,"name:ar":"\u0627\u0644\u0628\u0631\u0627\u0632\u064a\u0644","name:tr":"Brezilya","name:hi":"\u092c\u094d\u0930\u093e\u091c\u093c\u0940\u0932","name:sv":"Brasilien","name:he":"\u05d1\u05e8\u05d6\u05d9\u05dc","name:hy":"\u0532\u0580\u0561\u0566\u056b\u056c\u056b\u0561","name:ht":"Brezil","name:hu":"Braz\u00edlia","name:hr":"Brazil","kind":"country","name:yi":"\u05d1\u05e8\u05d0\u05d6\u05d9\u05dc","name:mt":"Bra\u017cil","name:ms":"Brazil","name:mr":"\u092c\u094d\u0930\u093e\u091d\u0940\u0932","name:my":"\u1018\u101b\u102c\u1007\u102e\u1038\u1014\u102d\u102f\u1004\u103a\u1004\u1036","official_name":"Rep\u00fablica Federativa do Brasil","name:mg":"Brazila","name:ml":"\u0d2c\u0d4d\u0d30\u0d38\u0d40\u0d7d","name:mn":"\u0411\u0440\u0430\u0437\u0438\u043b","name:mi":"Par\u012bhi","id":-59470,"name:mk":"\u0411\u0440\u0430\u0437\u0438\u043b","name:vo":"Brasil\u00e4n","name:fa":"\u0628\u0631\u0632\u06cc\u0644","name:fi":"Brasilia","old_name:vi":"Ba T\u00e2y","alt_name:vi":"Brazil;Bra-xin","name:fr":"Br\u00e9sil","name:fy":"Brazylje","name:nl":"Brazili\u00eb","name:na":"Bradir","name:ne":"\u092c\u094d\u0930\u093e\u091c\u093f\u0932","name:wa":"Braezi","name:wo":"Breesil","name:nv":"Bwaz\u00ed\u00edl","name:ga":"An Bhrasa\u00edl","name:gd":"Braisil","name:gn":"Pindorama","maritime_boundary":true,"name:gv":"Yn Vrasseel","name:gu":"\u0aac\u0acd\u0ab0\u0abe\u0a9d\u0abf\u0ab2"},"arcs":[0]},{"type":"LineString","properties":{"name:ka":"\u10d1\u10d0\u10d8\u10d0","name:mr":"\u092c\u093e\u0908\u092f\u093e","name:ko":"\ubc14\uc774\uc544","name:ar":"\u0628\u0627\u0647\u064a\u0627","name:th":"\u0e1a\u0e32\u0e40\u0e22\u0e35\u0e22","name:os":"\u0411\u0430\u0438\u044f","name:ru":"\u0411\u0430\u0438\u044f","name:tg":"\u0411\u0430\u0438\u044f","name:mk":"\u0411\u0430\u0458\u0430","name:fa":"\u0628\u0627\u0647\u06cc\u0627","short_name":"BA","sort_rank":256,"kind_detail":"4","name:uz":"Baiya","id":-362413,"source":"openstreetmap.org","name:zh":"\u5df4\u4f0a\u4e9a","name:lv":"Baija","name:ja":"\u30d0\u30a4\u30fc\u30a2","name:lt":"Bahija","name:hi":"\u092c\u093e\u0939\u093f\u092f\u093e","name:he":"\u05d1\u05d0\u05d4\u05d9\u05d4","name:eo":"Bahio","name:uk":"\u0411\u0430\u0457\u044f","name:hy":"\u0532\u0561\u056b\u0561","name:be":"\u0411\u0430\u0456\u044f","name:bg":"\u0411\u0430\u0438\u044f","name:sr":"\u0411\u0430\u0438\u0458\u0430","osm_relation":true,"kind":"region","name":"Bahia","min_zoom":8.0,"name:gl":"Ba\u00eda","maritime_boundary":true,"name:es":"Bah\u00eda"},"arcs":[1]}]},"roads":{"type":"GeometryCollection","geometries":[{"type":"LineString","properties":{"source":"openstreetmap.org","kind":"major_road","sort_rank":380,"kind_detail":"primary","ref":"BA-099","min_zoom":8.0,"id":29199942},"arcs":[19]},{"type":"MultiLineString","properties":{"source":"openstreetmap.org","kind":"major_road","sort_rank":381,"kind_detail":"trunk","ref":"BR-101","min_zoom":8.0},"arcs":[[20],[21],[22],[23],[24],[25],[26],[27],[28],[29]]},{"type":"LineString","properties":{"source":"openstreetmap.org","kind":"major_road","sort_rank":380,"kind_detail":"primary","ref":"BA-534","min_zoom":8.0,"id":385405939},"arcs":[30]},{"type":"LineString","properties":{"kind":"major_road","sort_rank":380,"kind_detail":"primary","bus_network":null,"source":"openstreetmap.org","min_zoom":8.0,"bus_shield_text":"0914","id":256251942},"arcs":[31]},{"type":"LineString","properties":{"source":"openstreetmap.org","kind":"major_road","sort_rank":380,"kind_detail":"primary","ref":"BA-026","min_zoom":8.0,"id":31570237},"arcs":[32]},{"type":"MultiLineString","properties":{"kind":"major_road","network":"BR","sort_rank":380,"kind_detail":"primary","source":"openstreetmap.org","min_zoom":8.0,"landuse_kind":"urban_area","shield_text":"324"},"arcs":[[33],[34]]},{"type":"MultiLineString","properties":{"kind":"major_road","network":"BR-BA-roads","sort_rank":381,"kind_detail":"trunk","source":"openstreetmap.org","min_zoom":8.0,"landuse_kind":"residential","shield_text":"099","ref":"BA-099"},"arcs":[[35],[36],[37]]},{"type":"MultiLineString","properties":{"source":"openstreetmap.org","kind":"major_road","kind_detail":"trunk","sort_rank":381,"landuse_kind":"urban_area","ref":"BA-535","min_zoom":8.0},"arcs":[[38],[39],[40]]},{"type":"MultiLineString","properties":{"sort_rank":355,"source":"openstreetmap.org","min_zoom":8.0,"kind":"ferry"},"arcs":[[41],[42],[43],[44],[45],[46],[47],[48],[49],[50],[51],[52],[53],[54]]},{"type":"MultiLineString","properties":{"kind":"highway","network":"BR","sort_rank":383,"kind_detail":"motorway","source":"openstreetmap.org","min_zoom":8.0,"all_networks":["BR","BR"],"shield_text":"324","ref":"BR-324","all_shield_texts":["324","420"]},"arcs":[[55],[56]]},{"type":"MultiLineString","properties":{"kind":"major_road","network":"BR-BA-roads","sort_rank":381,"landuse_kind":"urban_area","source":"openstreetmap.org","min_zoom":8.0,"kind_detail":"trunk","shield_text":"099","ref":"BA-099"},"arcs":[[57],[58],[59],[60],[61],[62]]},{"type":"MultiLineString","properties":{"source":"openstreetmap.org","kind":"major_road","landuse_kind":"urban_area","sort_rank":380,"kind_detail":"primary","ref":"BA-528","min_zoom":8.0},"arcs":[[63],[64],[65]]},{"type":"LineString","properties":{"source":"openstreetmap.org","kind":"ferry","name":"Salvador - Bom Despacho","sort_rank":355,"is_bicycle_related":true,"min_zoom":8.0,"id":59981122},"arcs":[66]},{"type":"LineString","properties":{"kind":"major_road","sort_rank":380,"landuse_kind":"nature_reserve","source":"openstreetmap.org","min_zoom":8.0,"kind_detail":"primary","ref":"BA-880","id":31567363},"arcs":[67]},{"type":"LineString","properties":{"kind":"major_road","sort_rank":380,"landuse_kind":"urban_area","source":"openstreetmap.org","min_zoom":8.0,"kind_detail":"primary","ref":"BA-530","id":46517407},"arcs":[68]},{"type":"LineString","properties":{"kind":"major_road","network":"BR","sort_rank":381,"kind_detail":"trunk","source":"openstreetmap.org","min_zoom":8.0,"shield_text":"242","ref":"BR-101"},"arcs":[69]},{"type":"LineString","properties":{"source":"openstreetmap.org","kind":"major_road","sort_rank":380,"kind_detail":"primary","ref":"BA-250","min_zoom":8.0,"id":455754086},"arcs":[70]},{"type":"MultiLineString","properties":{"kind":"major_road","network":"BR","sort_rank":380,"kind_detail":"primary","source":"openstreetmap.org","min_zoom":8.0,"landuse_kind":"nature_reserve","shield_text":"420","ref":"BR-420"},"arcs":[[71],[72]]},{"type":"MultiLineString","properties":{"sort_rank":381,"source":"openstreetmap.org","min_zoom":8.0,"kind":"major_road","kind_detail":"trunk"},"arcs":[[73],[74],[75],[76],[77],[78],[79],[80],[81],[82],[83],[84],[85],[86]]},{"type":"MultiLineString","properties":{"source":"openstreetmap.org","kind":"major_road","sort_rank":380,"kind_detail":"primary","ref":"BA-328","min_zoom":8.0},"arcs":[[87],[88],[89],[90],[91],[92],[93]]},{"type":"MultiLineString","properties":{"source":"openstreetmap.org","kind":"major_road","sort_rank":380,"kind_detail":"primary","ref":"BA-001","min_zoom":8.0},"arcs":[[94],[95],[96],[97],[98],[99],[100],[101]]},{"type":"LineString","properties":{"kind":"major_road","network":"BR","sort_rank":380,"kind_detail":"primary","source":"openstreetmap.org","min_zoom":8.0,"shield_text":"420","ref":"BR-101","id":479809245},"arcs":[102]},{"type":"MultiLineString","properties":{"source":"openstreetmap.org","kind":"major_road","sort_rank":380,"kind_detail":"primary","ref":"BA-882","min_zoom":8.0},"arcs":[[103],[104]]},{"type":"LineString","properties":{"source":"openstreetmap.org","kind":"major_road","sort_rank":380,"kind_detail":"primary","ref":"BA-885","min_zoom":8.0,"id":196927808},"arcs":[105]},{"type":"LineString","properties":{"kind":"major_road","sort_rank":380,"kind_detail":"primary","is_bicycle_related":true,"cycleway":"lane","source":"openstreetmap.org","min_zoom":8.0,"id":421205149},"arcs":[106]},{"type":"LineString","properties":{"kind":"major_road","sort_rank":380,"landuse_kind":"residential","source":"openstreetmap.org","min_zoom":8.0,"kind_detail":"primary","ref":"BA-530","id":46517407},"arcs":[107]},{"type":"MultiLineString","properties":{"kind":"major_road","network":"BR-BA-roads","sort_rank":381,"kind_detail":"trunk","source":"openstreetmap.org","min_zoom":8.0,"shield_text":"099","ref":"BA-099"},"arcs":[[108],[109],[110],[111],[112],[113],[114],[115],[116],[117],[118],[119],[120],[121],[122],[123]]},{"type":"MultiLineString","properties":{"source":"openstreetmap.org","kind":"major_road","landuse_kind":"urban_area","sort_rank":380,"kind_detail":"primary","min_zoom":8.0},"arcs":[[124],[125],[126],[127],[128],[129],[130],[131],[132],[133],[134],[135],[136],[137],[138],[139],[140],[141],[142],[143],[144],[145],[146],[147],[148],[149],[150],[151],[152],[153],[154],[155],[156],[157],[158],[159],[160],[161],[162],[163],[164],[165],[166],[167],[168],[169],[170],[171],[172],[173],[174],[175],[176],[177],[178],[179],[180],[181],[182],[183],[184],[185],[186],[187],[188],[189],[190],[191],[192],[193],[194],[195],[196],[197],[198],[199],[200],[201],[202],[203],[204],[205],[206],[207],[208],[209],[210],[211],[212],[213],[214],[215],[216],[217],[218],[219],[220],[221],[222],[223],[224],[225],[226],[227],[228],[229],[230],[231],[232],[233],[234],[235],[236],[237],[238],[239],[240],[241],[242],[243],[244],[245],[246],[247],[248],[249],[250],[251],[252],[253],[254],[255],[256],[257],[258],[259],[260],[261],[262],[263],[264],[265],[266],[267],[268],[269],[270],[271],[272],[273],[274],[275],[276],[277],[278],[279],[280],[281],[282],[283],[284],[285],[286],[287],[288],[289],[290],[291],[292],[293],[294],[295],[296],[297],[298],[299],[300],[301],[302],[303],[304],[305],[306],[307],[308],[309],[310],[311],[312],[313],[314],[315],[316],[317],[318],[319],[320],[321],[322],[323],[324],[325],[326],[327],[328],[329],[330],[331],[332],[333],[334],[335],[336],[337],[338],[339],[340],[341],[342],[343],[344],[345],[346],[347],[348],[349],[350],[351],[352],[353],[354],[355],[356],[357],[358],[359],[360],[361],[362],[363],[364],[365],[366],[367],[368],[369],[370],[371],[372],[373],[374],[375],[376],[377],[378],[379],[380],[381],[382],[383],[384],[385],[386],[387],[388],[389],[390],[391],[392],[393],[394],[395],[396],[397]]},{"type":"LineString","properties":{"kind":"major_road","sort_rank":380,"landuse_kind":"urban_area","source":"openstreetmap.org","min_zoom":8.0,"kind_detail":"primary","ref":"BA-512","id":94520707},"arcs":[398]},{"type":"MultiLineString","properties":{"source":"openstreetmap.org","cycleway_right":"lane","sort_rank":380,"kind_detail":"primary","min_zoom":8.0,"is_bicycle_related":true,"kind":"major_road"},"arcs":[[399],[400],[401]]},{"type":"MultiLineString","properties":{"source":"openstreetmap.org","kind":"highway","landuse_kind":"urban_area","sort_rank":383,"kind_detail":"motorway","min_zoom":8.0},"arcs":[[402],[403],[404],[405],[406],[407],[408],[409],[410],[411],[412],[413],[414],[415],[416],[417],[418],[419],[420],[421],[422],[423]]},{"type":"LineString","properties":{"source":"openstreetmap.org","kind":"major_road","sort_rank":380,"kind_detail":"primary","ref":"BA-883","min_zoom":8.0,"id":31567476},"arcs":[424]},{"type":"LineString","properties":{"source":"openstreetmap.org","kind":"ferry","name":"Valen\u00e7a - Morro de S\u00e3o Paulo (lancha r\u00e1pida)","sort_rank":355,"min_zoom":8.0,"id":196972191},"arcs":[425]},{"type":"MultiLineString","properties":{"source":"openstreetmap.org","kind":"highway","landuse_kind":"urban_area","sort_rank":383,"kind_detail":"motorway","ref":"BA-526","min_zoom":8.0},"arcs":[[426],[427],[428],[429],[430]]},{"type":"MultiLineString","properties":{"source":"openstreetmap.org","kind":"major_road","landuse_kind":"urban_area","sort_rank":380,"kind_detail":"primary","ref":"BA-093","min_zoom":8.0},"arcs":[[431],[432],[433]]},{"type":"MultiLineString","properties":{"source":"openstreetmap.org","kind":"major_road","landuse_kind":"urban_area","sort_rank":380,"kind_detail":"primary","ref":"BA-526","min_zoom":8.0},"arcs":[[434],[435]]},{"type":"LineString","properties":{"source":"openstreetmap.org","kind":"major_road","sort_rank":380,"kind_detail":"primary","ref":"BA-491","min_zoom":8.0},"arcs":[436]},{"type":"MultiLineString","properties":{"source":"openstreetmap.org","kind":"major_road","landuse_kind":"urban_area","sort_rank":380,"kind_detail":"primary","ref":"BA-328","min_zoom":8.0},"arcs":[[437],[438]]},{"type":"MultiLineString","properties":{"source":"openstreetmap.org","kind":"highway","landuse_kind":"urban_area","sort_rank":383,"kind_detail":"motorway","ref":"BR-324","min_zoom":8.0},"arcs":[[439],[440],[441],[442],[443]]},{"type":"LineString","properties":{"source":"openstreetmap.org","kind":"ferry","name":"Salvador - Morro de S\u00e3o Paulo","sort_rank":355,"min_zoom":8.0,"id":255272347},"arcs":[444]},{"type":"MultiLineString","properties":{"kind":"major_road","network":"BR","sort_rank":380,"kind_detail":"primary","source":"openstreetmap.org","min_zoom":8.0,"shield_text":"420","ref":"BR-420"},"arcs":[[445],[446],[447],[448],[449],[450],[451],[452],[453],[454],[455],[456]]},{"type":"LineString","properties":{"kind":"major_road","cycleway_left":"lane","sort_rank":380,"kind_detail":"primary","is_bicycle_related":true,"source":"openstreetmap.org","min_zoom":8.0,"landuse_kind":"urban_area","id":391000058},"arcs":[457]},{"type":"MultiLineString","properties":{"sort_rank":380,"kind_detail":"primary","min_zoom":8.0,"kind":"major_road","source":"openstreetmap.org"},"arcs":[[458],[459],[460],[461],[462],[463],[464],[465],[466],[467],[468],[469],[470],[471],[472],[473],[474],[475],[476],[477],[478],[479],[480],[481],[482],[483],[484],[485],[486],[487],[488],[489],[490],[491],[492],[493],[494],[495],[496],[497],[498],[499],[500],[501],[502],[503],[504],[505],[506],[507],[508],[509],[510],[511],[512],[513],[514],[515],[516]]},{"type":"LineString","properties":{"source":"openstreetmap.org","kind":"major_road","network":"BR","sort_rank":380,"kind_detail":"primary","min_zoom":8.0,"shield_text":"420"},"arcs":[517]},{"type":"MultiLineString","properties":{"source":"openstreetmap.org","kind":"major_road","sort_rank":380,"kind_detail":"primary","ref":"BA-046","min_zoom":8.0},"arcs":[[518],[519],[520]]},{"type":"LineString","properties":{"source":"openstreetmap.org","kind":"major_road","sort_rank":380,"kind_detail":"primary","ref":"BA-887","min_zoom":8.0},"arcs":[521]},{"type":"LineString","properties":{"kind":"major_road","sort_rank":380,"kind_detail":"primary","is_bicycle_related":true,"bus_network":null,"source":"openstreetmap.org","min_zoom":8.0,"bus_shield_text":"0914","id":171567341},"arcs":[522]},{"type":"MultiLineString","properties":{"source":"openstreetmap.org","kind":"major_road","landuse_kind":"urban_area","sort_rank":380,"kind_detail":"primary","ref":"BA-535","min_zoom":8.0},"arcs":[[523],[524],[525],[526],[527],[528],[529]]},{"type":"MultiLineString","properties":{"kind":"highway","network":"BR","sort_rank":383,"kind_detail":"motorway","source":"openstreetmap.org","min_zoom":8.0,"all_networks":["BR"],"landuse_kind":"urban_area","shield_text":"324","all_shield_texts":["324"]},"arcs":[[530],[531]]},{"type":"LineString","properties":{"kind":"ferry","name":"Salvador - Bom Despacho","sort_rank":355,"landuse_kind":"urban_area","is_bicycle_related":true,"source":"openstreetmap.org","min_zoom":8.0,"id":59981122},"arcs":[532]},{"type":"LineString","properties":{"source":"openstreetmap.org","kind":"major_road","network":"BR","sort_rank":380,"kind_detail":"primary","min_zoom":8.0,"shield_text":"110"},"arcs":[533]},{"type":"LineString","properties":{"source":"openstreetmap.org","kind":"ferry","name":"Mar Grande - Salvador","sort_rank":355,"landuse_kind":"urban_area","min_zoom":8.0,"id":217676613},"arcs":[534]},{"type":"MultiLineString","properties":{"source":"openstreetmap.org","kind":"major_road","sort_rank":380,"kind_detail":"primary","ref":"BA-093","min_zoom":8.0},"arcs":[[535],[536],[537],[538],[539],[540]]},{"type":"MultiLineString","properties":{"source":"openstreetmap.org","kind":"major_road","landuse_kind":"urban_area","sort_rank":380,"kind_detail":"primary","is_bicycle_related":true,"min_zoom":8.0},"arcs":[[541],[542]]},{"type":"LineString","properties":{"source":"openstreetmap.org","kind":"major_road","sort_rank":380,"kind_detail":"primary","ref":"BA-650","min_zoom":8.0},"arcs":[543]},{"type":"MultiLineString","properties":{"source":"openstreetmap.org","kind":"major_road","kind_detail":"trunk","sort_rank":381,"landuse_kind":"urban_area","min_zoom":8.0},"arcs":[[544],[545],[546],[547],[548],[549],[550],[551],[552],[553],[554],[555],[556],[557],[558],[559],[560],[561],[562],[563],[564],[565],[566],[567],[568],[569],[570],[571],[572],[573],[574],[575],[576],[577],[578],[579],[580],[581],[582],[583],[584],[585],[586],[587],[588],[589],[590],[591],[592],[593],[594],[595],[596],[597],[598],[599],[600],[601]]},{"type":"MultiLineString","properties":{"source":"openstreetmap.org","kind":"major_road","sort_rank":380,"kind_detail":"primary","ref":"BA-532","min_zoom":8.0},"arcs":[[602],[603]]},{"type":"MultiLineString","properties":{"kind":"major_road","network":"BR","sort_rank":380,"kind_detail":"primary","source":"openstreetmap.org","min_zoom":8.0,"shield_text":"242","ref":"BR-242"},"arcs":[[604],[605],[606],[607]]},{"type":"LineString","properties":{"source":"openstreetmap.org","kind":"major_road","sort_rank":380,"kind_detail":"primary","ref":"BA-542","min_zoom":8.0},"arcs":[608]},{"type":"LineString","properties":{"source":"openstreetmap.org","kind":"ferry","name":"Valen\u00e7a - Gamboa - Morro de S\u00e3o Paulo","sort_rank":355,"min_zoom":8.0,"id":265142998},"arcs":[609]},{"type":"MultiLineString","properties":{"kind":"highway","network":"BR","sort_rank":383,"kind_detail":"motorway","source":"openstreetmap.org","min_zoom":8.0,"all_networks":["BR"],"shield_text":"324","ref":"BR-324","all_shield_texts":["324"]},"arcs":[[610],[611],[612],[613],[614],[615]]},{"type":"MultiLineString","properties":{"source":"openstreetmap.org","kind":"major_road","sort_rank":381,"kind_detail":"trunk","ref":"BA-535","min_zoom":8.0},"arcs":[[616],[617],[618],[619],[620],[621]]},{"type":"MultiLineString","properties":{"source":"openstreetmap.org","kind":"major_road","sort_rank":380,"kind_detail":"primary","ref":"BA-523","min_zoom":8.0},"arcs":[[622],[623],[624],[625]]},{"type":"LineString","properties":{"kind":"highway","sort_rank":383,"landuse_kind":"urban_area","source":"openstreetmap.org","min_zoom":8.0,"kind_detail":"motorway","ref":"BR - 324","id":540278474},"arcs":[626]},{"type":"MultiLineString","properties":{"kind":"highway","network":"BR","sort_rank":383,"kind_detail":"motorway","source":"openstreetmap.org","min_zoom":8.0,"all_networks":["BR"],"landuse_kind":"urban_area","shield_text":"324","ref":"BR-324","all_shield_texts":["324"]},"arcs":[[627],[628],[629],[630],[631],[632],[633],[634]]},{"type":"MultiLineString","properties":{"sort_rank":383,"kind_detail":"motorway","min_zoom":8.0,"kind":"highway","source":"openstreetmap.org"},"arcs":[[635],[636],[637]]},{"type":"LineString","properties":{"kind":"major_road","sort_rank":380,"kind_detail":"primary","is_bicycle_related":true,"cycleway":"lane","source":"openstreetmap.org","min_zoom":8.0,"landuse_kind":"urban_area","id":421205149},"arcs":[638]},{"type":"LineString","properties":{"kind":"major_road","network":"BR","sort_rank":381,"kind_detail":"trunk","source":"openstreetmap.org","min_zoom":8.0,"shield_text":"420","ref":"BR-101"},"arcs":[639]},{"type":"LineString","properties":{"source":"openstreetmap.org","kind":"ferry","name":"Mar Grande - Salvador","sort_rank":355,"min_zoom":8.0,"id":217676613},"arcs":[640]},{"type":"LineString","properties":{"kind":"major_road","network":"BR","sort_rank":380,"kind_detail":"primary","source":"openstreetmap.org","min_zoom":8.0,"shield_text":"242","ref":"BR-420","id":144131531},"arcs":[641]},{"type":"MultiLineString","properties":{"source":"openstreetmap.org","kind":"major_road","sort_rank":380,"kind_detail":"primary","ref":"BA-522","min_zoom":8.0},"arcs":[[642],[643],[644],[645],[646]]},{"type":"MultiLineString","properties":{"source":"openstreetmap.org","kind":"major_road","landuse_kind":"urban_area","sort_rank":380,"kind_detail":"primary","ref":"BA-522","min_zoom":8.0},"arcs":[[647],[648]]},{"type":"LineString","properties":{"kind":"major_road","network":"BR","sort_rank":380,"kind_detail":"primary","source":"openstreetmap.org","min_zoom":8.0,"shield_text":"420","ref":"BA-001"},"arcs":[649]},{"type":"MultiLineString","properties":{"source":"openstreetmap.org","kind":"highway","sort_rank":383,"kind_detail":"motorway","ref":"BA-526","min_zoom":8.0},"arcs":[[650],[651],[652],[653],[654],[655],[656],[657],[658],[659]]},{"type":"LineString","properties":{"source":"openstreetmap.org","kind":"major_road","sort_rank":380,"kind_detail":"primary","ref":"BA-530","min_zoom":8.0,"id":46517407},"arcs":[660]},{"type":"LineString","properties":{"kind":"major_road","network":"BR","sort_rank":380,"kind_detail":"primary","is_bicycle_related":true,"source":"openstreetmap.org","min_zoom":8.0,"shield_text":"420","ref":"BR-420","id":130863759},"arcs":[661]},{"type":"LineString","properties":{"source":"openstreetmap.org","kind":"ferry","name":"Salvador - Morro de S\u00e3o Paulo","sort_rank":355,"landuse_kind":"urban_area","min_zoom":8.0,"id":255272347},"arcs":[662]},{"type":"LineString","properties":{"source":"openstreetmap.org","kind":"ferry","name":"Camamu - Barra Grande","sort_rank":355,"min_zoom":8.0,"id":417114977},"arcs":[663]},{"type":"MultiLineString","properties":{"source":"openstreetmap.org","kind":"major_road","landuse_kind":"urban_area","sort_rank":380,"kind_detail":"primary","ref":"BA-524","min_zoom":8.0},"arcs":[[664],[665],[666]]},{"type":"MultiLineString","properties":{"source":"openstreetmap.org","kind":"major_road","sort_rank":380,"kind_detail":"primary","ref":"BA-524","min_zoom":8.0},"arcs":[[667],[668],[669]]},{"type":"MultiLineString","properties":{"kind":"major_road","network":"BR","sort_rank":381,"landuse_kind":"urban_area","source":"openstreetmap.org","min_zoom":8.0,"kind_detail":"trunk","shield_text":"324"},"arcs":[[670],[671],[672],[673]]},{"type":"LineString","properties":{"bus_network":null,"sort_rank":381,"landuse_kind":"urban_area","kind":"major_road","source":"openstreetmap.org","min_zoom":8.0,"bus_shield_text":"0914","kind_detail":"trunk"},"arcs":[674]},{"type":"LineString","properties":{"kind":"major_road","network":"BR-BA-roads","sort_rank":380,"kind_detail":"primary","source":"openstreetmap.org","min_zoom":8.0,"shield_text":"099","ref":"BA-099"},"arcs":[675]},{"type":"MultiLineString","properties":{"bus_network":null,"cycleway_left":"lane","sort_rank":380,"kind_detail":"primary","is_bicycle_related":true,"kind":"major_road","source":"openstreetmap.org","min_zoom":8.0,"bus_shield_text":"0914","landuse_kind":"urban_area"},"arcs":[[676],[677]]},{"type":"LineString","properties":{"source":"openstreetmap.org","kind":"major_road","sort_rank":380,"kind_detail":"primary","ref":"BA-512","min_zoom":8.0,"id":94520707},"arcs":[678]},{"type":"MultiLineString","properties":{"bus_network":null,"sort_rank":380,"kind_detail":"primary","kind":"major_road","source":"openstreetmap.org","min_zoom":8.0,"bus_shield_text":"0914","landuse_kind":"urban_area"},"arcs":[[679],[680],[681],[682],[683],[684],[685],[686],[687]]},{"type":"LineString","properties":{"source":"openstreetmap.org","kind":"major_road","sort_rank":380,"kind_detail":"primary","ref":"BA-880","min_zoom":8.0,"id":31567363},"arcs":[688]},{"type":"LineString","properties":{"source":"openstreetmap.org","kind":"major_road","sort_rank":380,"kind_detail":"primary","ref":"BA-878","min_zoom":8.0},"arcs":[689]},{"type":"LineString","properties":{"kind":"major_road","sort_rank":380,"kind_detail":"primary","is_bicycle_related":true,"bus_network":null,"source":"openstreetmap.org","min_zoom":8.0,"bus_shield_text":"0914","landuse_kind":"urban_area","id":171567341},"arcs":[690]},{"type":"LineString","properties":{"source":"openstreetmap.org","kind":"ferry","name":"Torrinhas - Boipeba (catamar\u00e3)","sort_rank":355,"min_zoom":8.0,"id":338924055},"arcs":[691]},{"type":"LineString","properties":{"kind":"major_road","network":"BR","sort_rank":380,"kind_detail":"primary","source":"openstreetmap.org","min_zoom":8.0,"shield_text":"242","ref":"BR-101","id":297310091},"arcs":[692]},{"type":"LineString","properties":{"source":"openstreetmap.org","kind":"major_road","sort_rank":380,"kind_detail":"primary","is_bicycle_related":true,"min_zoom":8.0,"id":392591955},"arcs":[693]},{"type":"LineString","properties":{"kind":"major_road","network":"BR","sort_rank":380,"kind_detail":"primary","source":"openstreetmap.org","min_zoom":8.0,"shield_text":"110","ref":"BR-110;BR-420"},"arcs":[694]},{"type":"MultiLineString","properties":{"cycleway_right":"lane","sort_rank":380,"kind_detail":"primary","is_bicycle_related":true,"kind":"major_road","source":"openstreetmap.org","min_zoom":8.0,"landuse_kind":"urban_area"},"arcs":[[695],[696],[697],[698],[699]]}]},"earth":{"type":"GeometryCollection","geometries":[{"type":"MultiPolygon","properties":{"sort_rank":10,"source":"naturalearthdata.com","min_zoom":0.0,"kind":"earth","area":42037596093},"arcs":[[[700]],[[701]],[[702]],[[703]]]}]},"landuse":{"type":"GeometryCollection","geometries":[{"type":"MultiPolygon","properties":{"source":"naturalearthdata.com","kind":"urban_area","name":"","area":766717070,"sort_rank":11,"min_zoom":4.0},"arcs":[[[704]],[[705]],[[706]]]},{"type":"Polygon","properties":{"kind":"nature_reserve","protect_class":"6","area":106647000,"sort_rank":23,"operator":"Instituto Chico Mendes de Conserva\u00e7\u00e3o da Biodiversidade","source":"openstreetmap.org","min_zoom":7.0,"tier":2,"id":-3426364,"osm_relation":true},"arcs":[[707]]},{"type":"Polygon","properties":{"kind":"residential","name":"Vila Senhor dos Passos","area":13707800,"sort_rank":20,"source":"openstreetmap.org","min_zoom":8.0,"tier":2,"id":253552381},"arcs":[[708]]}]}},"type":"Topology","transform":{"translate":[-39.375,-13.9234038977],"scale":[0.0003433228,0.0003341895]},"arcs":[[[1886,0],[338,1969],[318,177],[180,21],[153,48],[160,108],[199,61],[126,88],[355,353],[381,426]],[[1886,0],[338,1969],[318,177],[180,21],[153,48],[160,108],[199,61],[126,88],[355,353],[381,426]],[[266,2828],[-31,-84],[60,-207],[-83,-253],[-77,-55],[23,-311],[-158,-158]],[[0,1686],[0,-7]],[[724,3781],[-81,-125],[-78,-48],[-7,-148],[-112,-351]],[[724,3781],[9,14]],[[964,3965],[-115,-40],[-50,-93],[-66,-37]],[[964,3965],[17,5]],[[1156,4096],[11,-41],[-44,-78],[-78,-27],[-64,20]],[[2512,2816],[28,16],[60,-17],[43,175]],[[2512,2816],[28,16],[59,-17],[44,175]],[[2615,2861],[15,-31],[53,6],[108,106],[171,57]],[[1297,0],[-1,77],[-16,26],[-39,-4],[-43,-20],[-32,-22],[-26,-36],[-9,-21],[-233,0],[-13,61],[-10,26],[22,80],[53,-25],[41,-11],[76,-3],[25,16],[16,35],[-9,35],[-100,34],[-33,42],[-49,104],[-33,36],[-128,66],[16,26],[5,26],[-5,26],[-16,24],[-83,-62],[-14,22],[22,53],[25,30],[63,3],[33,-2],[23,-11],[14,-86],[9,-2],[12,3],[15,-7],[22,-21],[20,-15],[19,-17],[20,-31],[11,-33],[7,-35],[9,-34],[22,-30],[55,-51],[27,-15],[38,-6],[26,11],[-6,25],[-29,46],[-7,52],[7,184],[15,69],[32,53],[23,55],[-9,79],[-31,66],[-33,54],[-26,58],[-11,79],[8,25],[17,19],[12,18],[-7,20],[-23,35],[-11,54],[-14,23],[-75,37],[-65,-30],[-44,-68],[-17,-71],[10,-146],[-27,-42],[-84,-7],[0,21],[70,17],[21,44],[-12,133],[7,61],[17,56],[26,46],[32,29],[-23,89],[16,121],[66,202],[6,-28],[3,-25],[-2,-23],[-7,-26],[88,19],[32,0],[27,-11],[72,-49],[30,24],[-7,47],[-41,93],[22,59],[17,123],[29,54],[46,41],[164,112],[69,80],[29,23],[32,10],[33,3],[26,10],[10,29],[-199,52],[-25,12],[-17,12],[-10,15],[-7,20],[-3,36],[5,41],[17,33],[30,15],[64,13],[64,31],[57,40],[42,38],[41,48],[57,86],[33,42],[11,24],[3,33],[-4,64],[5,36],[11,25],[14,22],[17,43],[8,9],[27,19],[-40,16],[-41,11],[-39,-1],[-30,-16],[-23,-9],[-15,19],[-11,30],[-13,22],[-19,2],[-25,-15],[-44,-40],[-20,19],[-57,28],[-23,16],[-15,34],[-7,42],[0,35],[2,12],[-20,31],[-18,8],[-19,4],[-22,18],[-23,36],[-32,72],[-26,35],[38,17],[14,28],[7,37],[22,43],[39,32],[36,19],[19,24],[-15,47],[20,0],[40,-61],[-64,-52],[-33,-40],[-4,-50],[54,-219],[24,-65],[32,-27],[27,-7],[33,-30],[31,-2],[20,11],[33,41],[16,9],[37,33],[114,212],[-36,36],[-1,35],[37,76],[9,9],[14,7],[11,10],[6,23],[0,83],[7,63],[18,52],[54,100],[18,0],[-2,-54],[-10,-39],[2,-34],[32,-38],[48,-22],[32,1],[22,-14],[32,-127],[33,-64],[59,-34],[92,35],[49,-41],[44,-18],[45,-4],[53,0],[28,-204],[-2,-16],[-7,-12],[-5,-11],[5,-12],[24,-28],[5,-15],[2,-20],[12,-16],[22,-23],[13,-28],[-46,-91],[12,-50],[24,-51],[4,-58],[-25,58],[-34,-8],[-29,-40],[-31,-105],[-58,-111],[16,-37],[67,-15],[68,23],[63,34],[81,30],[61,58],[29,12],[35,2],[65,9],[30,10],[63,35],[57,45],[84,120],[228,225],[197,254],[209,243],[30,20],[37,18],[152,236],[17,23],[70,0],[0,-4096],[-2799,0]],[[2215,2988],[-23,58],[-53,38],[-125,58],[-40,-21],[23,-46],[30,-43],[25,-44],[4,-52],[-12,7],[-3,2],[-1,4],[-6,8],[-18,-28],[-1,-16],[13,-9],[28,-6],[0,-21],[-183,-167],[-80,-58],[-74,-38],[-19,-26],[-6,-50],[21,-129],[-1,-47],[22,0],[9,22],[16,17],[22,13],[30,12],[44,68],[55,51],[122,85],[100,92],[51,36],[58,15],[51,29],[-16,67],[-63,119]],[[1338,1616],[-83,-34],[-63,-9],[-52,9],[-47,15],[-46,8],[-50,-16],[-27,-41],[-2,-53],[26,-55],[-35,-48],[55,-42],[141,-54],[31,-24],[0,-15],[-16,-15],[-15,-27],[-6,-90],[-9,-32],[-5,-46],[18,-78],[63,-98],[23,-77],[35,6],[50,2],[5,-35],[17,-14],[32,0],[25,97],[-8,27],[-31,27],[0,45],[5,19],[-28,22],[-8,35],[-43,37],[-7,37],[13,55],[18,44],[27,43],[15,40],[-20,34],[49,38],[9,53],[-29,194],[-27,16]],[[4026,4096],[-17,-23],[-152,-236],[-37,-18],[-30,-20],[-209,-243],[-197,-254],[-228,-225],[-84,-120],[-57,-45],[-63,-35],[-30,-10],[-65,-9],[-35,-2],[-29,-12],[-61,-58],[-81,-30],[-63,-34],[-68,-23],[-67,15],[-16,37],[58,111],[31,105],[29,40],[34,8],[25,-58],[-4,58],[-24,51],[-12,50],[46,91],[-13,28],[-22,23],[-12,16],[-2,20],[-5,15],[-24,28],[-5,12],[5,11],[7,12],[2,16],[-28,204],[-53,0],[-45,4],[-44,18],[-49,41],[-92,-35],[-59,34],[-33,64],[-32,127],[-22,14],[-32,-1],[-48,22],[-32,38],[-2,34],[10,39],[2,54],[-18,0],[-54,-100],[-18,-52],[-7,-63],[0,-83],[-6,-23],[-11,-10],[-14,-7],[-9,-9],[-37,-76],[1,-35],[36,-36],[-114,-212],[-37,-33],[-16,-9],[-33,-41],[-20,-11],[-31,2],[-33,30],[-27,7],[-32,27],[-24,65],[-54,219],[4,50],[33,40],[64,52],[-40,61],[-20,0],[15,-47],[-19,-24],[-36,-19],[-39,-32],[-22,-43],[-7,-37],[-14,-28],[-38,-17],[26,-35],[32,-72],[23,-36],[22,-18],[19,-4],[18,-8],[20,-31],[-2,-12],[0,-35],[7,-42],[15,-34],[23,-16],[57,-28],[20,-19],[44,40],[25,15],[19,-2],[13,-22],[11,-30],[15,-19],[23,9],[30,16],[39,1],[41,-11],[40,-16],[-27,-19],[-8,-9],[-17,-43],[-14,-22],[-11,-25],[-5,-36],[4,-64],[-3,-33],[-11,-24],[-33,-42],[-57,-86],[-41,-48],[-42,-38],[-57,-40],[-64,-31],[-64,-13],[-30,-15],[-17,-33],[-5,-41],[3,-36],[7,-20],[10,-15],[17,-12],[25,-12],[199,-52],[-10,-29],[-26,-10],[-33,-3],[-32,-10],[-29,-23],[-69,-80],[-164,-112],[-46,-41],[-29,-54],[-17,-123],[-22,-59],[41,-93],[7,-47],[-30,-24],[-72,49],[-27,11],[-32,0],[-88,-19],[7,26],[2,23],[-3,25],[-6,28],[-66,-202],[-16,-121],[23,-89],[-32,-29],[-26,-46],[-17,-56],[-7,-61],[12,-133],[-21,-44],[-70,-17],[0,-21],[84,7],[27,42],[-10,146],[17,71],[44,68],[65,30],[75,-37],[14,-23],[11,-54],[23,-35],[7,-20],[-12,-18],[-17,-19],[-8,-25],[11,-79],[26,-58],[33,-54],[31,-66],[9,-79],[-23,-55],[-32,-53],[-15,-69],[-7,-184],[7,-52],[29,-46],[6,-25],[-26,-11],[-38,6],[-27,15],[-55,51],[-22,30],[-9,34],[-7,35],[-11,33],[-20,31],[-19,17],[-20,15],[-22,21],[-15,7],[-12,-3],[-9,2],[-14,86],[-23,11],[-33,2],[-63,-3],[-25,-30],[-22,-53],[14,-22],[83,62],[16,-24],[5,-26],[-5,-26],[-16,-26],[128,-66],[33,-36],[49,-104],[33,-42],[100,-34],[9,-35],[-16,-35],[-25,-16],[-76,3],[-41,11],[-53,25],[-22,-80],[10,-26],[13,-61]],[[1131,0],[9,21],[26,36],[32,22],[43,20],[39,4],[16,-26],[1,-77]],[[1255,1582],[-63,-9],[-52,9],[-47,15],[-46,8],[-50,-16],[-27,-41],[-2,-53],[26,-55],[-35,-48],[55,-42],[141,-54],[31,-24],[0,-15],[-16,-15],[-15,-27],[-6,-90],[-9,-32],[-5,-46],[18,-78],[63,-98],[23,-77],[35,6],[50,2],[5,-35],[17,-14],[32,0],[25,97],[-8,27],[-31,27],[0,45],[5,19],[-28,22],[-8,35],[-43,37],[-7,37],[13,55],[18,44],[27,43],[15,40],[-20,34],[49,38],[9,53],[-29,194],[-27,16],[-83,-34]],[[2215,2988],[-23,58],[-53,38],[-125,58],[-40,-21],[23,-46],[30,-43],[25,-44],[4,-52],[-12,7],[-3,2],[-1,4],[-6,8],[-18,-28],[-1,-16],[13,-9],[28,-6],[0,-21],[-183,-167],[-80,-58],[-74,-38],[-19,-26],[-6,-50],[21,-129],[-1,-47],[22,0],[9,22],[16,17],[22,13],[30,12],[44,68],[55,51],[122,85],[100,92],[51,36],[58,15],[51,29],[-16,67],[-63,119]],[[3955,4071],[-1,1],[-1,-1],[0,-1],[2,1]],[[0,1686],[0,-7]],[[167,2243],[-34,-28],[22,-64],[-10,-249],[-145,-142]],[[347,2902],[-104,-95],[-8,-63],[60,-207],[-48,-140]],[[347,2902],[10,18]],[[558,3460],[-112,-351],[-85,-123],[-4,-66]],[[724,3781],[-153,-167],[-16,-65]],[[724,3781],[9,14]],[[964,3965],[-115,-40],[-55,-96],[-61,-34]],[[981,3970],[-17,-5]],[[1158,4096],[9,-40],[-43,-78],[-79,-28],[-64,20]],[[1583,2678],[15,52],[103,48],[48,142],[-10,114],[69,74]],[[2592,2724],[21,-3]],[[0,2853],[33,-28],[98,3],[26,-23],[36,33],[50,-29]],[[2576,2863],[-39,-7]],[[2538,2856],[42,4]],[[3576,3621],[-40,-32],[-12,-44]],[[3525,3545],[50,75]],[[3588,3630]],[[3107,3592],[-3,-23]],[[3105,3570],[2,22]],[[3121,3702],[-3,-72]],[[1342,1009],[24,12]],[[1366,1021],[-17,21],[-52,-21],[-69,48],[-43,-39],[-65,22],[-10,68],[27,43],[-81,107],[-62,24],[-45,79],[-10,103],[31,102],[-16,85],[-70,-7]],[[1366,1021],[0,6]],[[1366,1027],[0,1]],[[1366,1028],[-2,270],[57,79],[12,66],[-59,187],[-11,-19]],[[1368,933],[42,-87],[-23,-56],[16,-20]],[[1398,959],[-29,-25]],[[1417,894],[-40,32]],[[1380,957],[16,14]],[[1396,971],[4,3],[-34,54]],[[1366,1028],[-3,5],[3,-6]],[[1366,1027],[30,-56]],[[1396,971],[2,-5]],[[1407,772],[21,59],[-15,59]],[[2429,4033],[-83,63]],[[2345,4096],[85,-64]],[[3165,3184],[-172,-145]],[[2996,3041],[76,60],[88,75],[6,8]],[[3330,3338],[39,19]],[[3367,3357],[-37,-19]],[[3803,3861],[-104,-140]],[[3700,3721],[104,139]],[[2637,3225],[3,-2]],[[2640,3223],[-1,3]],[[2640,3223],[33,12]],[[2505,2917],[-205,75],[-101,-6]],[[1474,3532],[11,65]],[[3191,3710],[31,0]],[[555,3548],[3,-88]],[[657,557],[1,-1]],[[1227,3660]],[[1284,3151],[3,18]],[[2943,3142],[3,1],[59,65],[69,9],[18,5]],[[3092,3222],[-87,-14],[-61,-65]],[[3090,3474],[-49,-86],[-3,-2],[-13,-7]],[[3025,3379],[-23,-11],[-7,-44]],[[3021,3378],[0,1]],[[3024,3380],[1,-1]],[[3025,3379]],[[3038,3386],[3,1]],[[3088,3515],[-1,-1]],[[3090,3467]],[[3091,3461],[-1,0]],[[3239,3283],[0,-2]],[[3260,3289],[-1,1]],[[3263,3290],[2,2]],[[2688,3333],[23,15]],[[2712,3347],[-1,-1]],[[2713,3347],[-2,-1]],[[2711,3346],[2,-1],[1,1]],[[2714,3346],[-1,1]],[[2714,3347],[-1,0]],[[2714,3345],[0,1]],[[875,1636],[-78,-484],[-5,-213],[-133,-381],[-13,-175],[58,-183],[-16,-114],[45,-86]],[[895,1680],[9,69],[85,60],[-11,230],[36,110],[52,48],[37,324],[-26,114],[-37,21]],[[974,1795],[0,-1],[1,0]],[[976,1795],[0,1],[-1,0]],[[1020,2639],[19,26]],[[1646,2660],[-397,182]],[[1886,2566],[-110,-1],[-69,54]],[[975,1794],[1,1],[-2,0],[0,-1],[1,0]],[[167,2243]],[[1695,2392],[53,2],[133,168]],[[2194,2972],[-29,-37],[-1,-123],[-69,-118],[-209,-128]],[[1175,1665],[-21,161],[-29,26]],[[2538,2977],[5,19]],[[3457,3627],[95,-20]],[[3330,3338],[-7,-4],[-50,-37],[-52,-25],[-56,-88]],[[3166,3184],[56,88],[48,23],[60,43]],[[3524,3545],[-157,-188]],[[3369,3357],[15,8],[131,146],[1,1],[9,33]],[[3575,3620],[122,98],[3,3]],[[3588,3630],[-12,-9]],[[3699,3721],[-111,-91]],[[3804,3860],[41,55],[31,51],[0,1]],[[3876,3967],[2,5]],[[3878,3972],[6,25],[1,5],[4,20]],[[3889,4022],[4,21],[1,0]],[[3894,4043],[59,28],[2,1],[21,9],[-82,-37],[0,-1]],[[3894,4043],[-5,-21]],[[3889,4022],[-4,-20],[-1,-5],[-6,-25]],[[3878,3972],[-2,-5]],[[3876,3967],[-22,-37],[-1,-1],[-50,-68]],[[2494,2762],[-11,-15]],[[2483,2747],[-2,-3],[-3,-10]],[[2479,2733],[1,5]],[[2480,2738],[0,1]],[[2484,2745],[-1,2]],[[2483,2747],[-2,2]],[[2524,2783],[-18,-6]],[[2506,2777],[-2,0]],[[2504,2777]],[[2504,2777],[-1,1],[-4,1]],[[2499,2779],[-20,7]],[[2479,2786],[-1,0],[3,5]],[[2481,2791],[0,1]],[[2490,2815],[18,26]],[[2508,2842],[-18,-27]],[[2490,2815],[-8,-17],[0,-3],[0,-1],[-1,-3]],[[2481,2791],[-2,-5]],[[2479,2786],[-2,-10],[20,3],[2,0]],[[2499,2779],[4,-2],[1,0]],[[2504,2777]],[[2504,2777],[1,-1]],[[2513,2792],[-7,-11],[-2,-4]],[[2504,2777]],[[2504,2777]],[[2504,2777],[-1,-2]],[[2503,2775],[-5,-13]],[[2499,2779]],[[2499,2779]],[[2499,2779],[3,-5]],[[2499,2768],[4,6]],[[2503,2774],[1,3]],[[2504,2777]],[[2504,2777]],[[2504,2777],[2,3],[2,2],[6,8]],[[2514,2790],[0,1]],[[2514,2791],[1,1]],[[2515,2792],[2,2],[1,1]],[[2518,2795],[4,0]],[[2522,2795],[1,0]],[[2502,2774],[1,0]],[[2503,2774],[0,1]],[[2503,2775],[7,2]],[[2505,2776],[-1,0]],[[2505,2778],[1,-1]],[[2506,2777]],[[2533,2882],[-28,-36]],[[2505,2846],[4,-4]],[[2509,2842]],[[2505,2776],[19,5]],[[2508,2841],[1,1]],[[2509,2842],[0,2],[-1,1],[8,7]],[[2514,2790]],[[2514,2790],[-1,0]],[[2516,2852],[1,2]],[[2516,2852],[6,8],[42,81]],[[2517,2794],[1,1]],[[2518,2795],[1,0]],[[2538,2822],[-21,-26]],[[2552,2784],[-24,13],[-10,-1]],[[2521,2795],[1,0]],[[2522,2795],[7,-2]],[[2529,2793],[5,-1],[16,-8]],[[2523,2862],[10,8]],[[2529,2792],[-4,-8]],[[2526,2800],[20,35]],[[2526,2780],[2,1]],[[2527,2773],[2,-2]],[[2528,2783],[5,9]],[[2529,2794],[0,-1]],[[2529,2793],[-1,-3]],[[2568,2740],[-40,40]],[[2531,2956],[-1,-4],[5,-2]],[[2535,2949],[-3,4]],[[2533,2948],[2,1]],[[2533,2870],[0,7]],[[2533,2761],[20,-22],[15,1],[2,0]],[[2570,2740],[1,0]],[[2546,2936],[-13,-54]],[[2537,2864],[-4,6]],[[2546,2936],[-11,13]],[[2537,2847],[-1,0]],[[2537,2844],[1,1]],[[2537,2864],[-1,-12],[5,-18]],[[2541,2834],[-4,30]],[[2538,2862]],[[2550,2931],[-4,5]],[[2547,2743],[0,1]],[[2548,2744],[0,-1]],[[2558,2879],[-8,5]],[[2559,2735],[-3,3]],[[2559,2735],[-2,-3]],[[2557,2732],[3,0]],[[2560,2732]],[[2560,2732],[-3,0]],[[2559,2777],[11,-36]],[[2570,2741],[0,-1]],[[2560,2732]],[[2560,2732],[-1,3]],[[2560,2732],[10,-3]],[[2564,2941],[35,52]],[[2598,2993],[-1,-1],[-33,-51]],[[2570,2741]],[[2570,2741],[-2,-1]],[[2570,2740],[-2,0]],[[2571,2741],[0,-1]],[[2571,2740],[-1,0]],[[2570,2740]],[[2570,2740],[1,-1],[1,-2],[5,-9]],[[2577,2728],[2,-4]],[[2579,2724],[1,-2]],[[2571,2740]],[[2571,2740],[-1,2]],[[2571,2743],[0,2]],[[2571,2740],[15,5]],[[2571,2740],[2,-2],[5,-10]],[[2578,2728],[2,-5],[-1,1]],[[2579,2724],[-5,4],[-2,1]],[[2572,2760],[-1,0]],[[2571,2767],[1,-2]],[[2572,2765],[1,-1]],[[2572,2765]],[[2572,2765],[0,1]],[[2578,2743],[-1,1]],[[2579,2729],[-1,-1]],[[2578,2728],[-1,0]],[[2577,2728],[0,-1]],[[2579,2745],[0,-1]],[[2583,2744],[-4,-15]],[[2579,2729],[2,0]],[[2599,2963],[-20,-11]],[[2590,2723],[-2,2]],[[2589,2726],[2,-2]],[[2597,2758],[2,1]],[[2599,2755],[-2,0]],[[2637,3227],[-25,-46],[0,-2]],[[2612,3179],[-2,-42]],[[2610,3137],[-5,-124],[-2,-9]],[[2603,3003],[2,10],[5,124]],[[2610,3137],[2,41]],[[2620,2906],[-10,-31],[-3,-13]],[[2608,2862],[16,49]],[[2611,2769],[-2,1]],[[2612,3179]],[[2612,3179],[0,2],[0,1],[25,43]],[[2618,2775],[48,-18]],[[2651,2826],[-30,19]],[[2669,2758],[-48,22]],[[2637,3227],[0,-2]],[[2637,3225],[2,0],[0,2]],[[2639,3227],[-1,0]],[[2638,3227],[-1,0]],[[2639,3227]],[[2639,3227],[-1,0]],[[2638,3227],[-1,0]],[[2643,2824],[4,-9]],[[2647,2820],[2,0]],[[2647,2816],[0,1]],[[2648,2817],[6,7]],[[2661,2828],[8,-1]],[[2669,2827]],[[2685,3182],[-15,56]],[[2670,3238]],[[2670,3238],[-7,26]],[[2666,2830],[1,-2],[2,-1]],[[2669,2827],[1,-1]],[[2671,3241],[-1,-3]],[[2670,3238]],[[2670,3238],[2,-1]],[[2674,3238],[-3,1]],[[2676,3224]],[[2676,3223],[24,1]],[[2682,2832],[-3,2]],[[2685,2829],[-1,1]],[[2687,3177],[-1,2],[0,-2]],[[2687,3175],[1,-1]],[[2688,3174],[0,2]],[[2688,2809],[5,-40]],[[2695,2769],[-7,40]],[[2690,2811],[3,13]],[[2691,2812],[2,2]],[[2692,2816],[1,1]],[[2774,3294],[-72,-66]],[[2712,3344],[37,-51]],[[2714,3089],[-2,2]],[[2716,3345],[5,-1]],[[2905,2905],[-37,-12],[-27,-16],[-9,-6]],[[2832,2871],[-53,-36],[-6,-2],[-55,-53]],[[2724,2782],[181,123]],[[2726,2855],[30,1]],[[2756,2856],[-29,2]],[[2751,3294],[-2,-1]],[[2749,3293],[0,-1]],[[2756,2856],[2,0],[26,-17]],[[2775,3294],[-1,0]],[[2774,3294],[1,0]],[[2777,3296],[-1,-1]],[[2779,3314],[-3,-2]],[[2778,3304],[-1,-8]],[[2777,3295],[0,1]],[[2783,3307],[2,0]],[[2785,3307],[-1,2]],[[2785,3307],[37,-8]],[[2835,2873],[-47,60],[44,-62]],[[2832,2871]],[[2883,2983],[-13,-11]],[[2871,2970],[13,10],[8,2]],[[2892,2982],[1,1]],[[2893,2983],[8,3]],[[2884,2957],[-4,-10]],[[2880,2947],[5,-23]],[[2880,2946],[4,11]],[[2885,2924],[-5,22]],[[2884,2912],[0,-13]],[[2890,2988],[2,-5],[0,-1]],[[2892,2982],[-8,-25]],[[2884,2957],[9,26]],[[2893,2983],[-2,5]],[[2885,2916]],[[2885,2916],[-1,-4]],[[2885,2924],[0,-7]],[[2885,2917]],[[2885,2917],[-1,-5]],[[2885,2912],[1,5]],[[2885,2912],[0,4]],[[2885,2916],[0,1]],[[2885,2917],[0,1]],[[2885,2918],[0,4]],[[2885,2922],[0,2]],[[2885,2899],[0,13]],[[2885,2924],[0,-2]],[[2885,2922],[0,-3]],[[2886,2919],[-1,5]],[[2933,2911],[-28,-6]],[[2935,2917],[-2,-6]],[[2933,2911],[2,6]],[[2963,2971],[0,-2]],[[2965,2969],[0,2]],[[2987,3030],[-13,-32]],[[2974,2998],[12,31]],[[2984,3845],[0,1]],[[2988,3843],[0,-1]],[[3053,3663],[-37,12]],[[3020,3765],[12,-22]],[[3032,3746],[-7,19]],[[3030,3054],[42,47]],[[3091,3714],[-1,0]],[[3125,3654],[-2,0]],[[3123,3653],[2,1]],[[3125,3711],[56,7]],[[3125,3654],[58,56]],[[3180,3721],[-55,-6]],[[3182,3718],[4,-6]],[[3188,3712],[-3,8]],[[3187,3710],[4,0],[-3,1]],[[2513,2799],[-1,-2],[2,-6]],[[2514,2791],[1,1]],[[2515,2792],[2,4]],[[2517,2796],[-4,3]],[[2611,3178],[1,0]],[[2612,3178],[0,1]],[[2612,3179],[-1,0],[0,-1]],[[2687,3177],[-1,0],[0,-1],[1,0],[0,1]],[[2776,3312],[1,-6],[6,1],[-1,6],[-6,-1]],[[2777,3294],[-1,1],[-1,-2],[1,-1],[1,2]],[[2885,2919],[0,-1]],[[2885,2918],[0,-1]],[[2885,2917]],[[2885,2917]],[[2885,2917],[0,-1]],[[2885,2916],[1,3],[-1,0]],[[3025,3767],[-3,3],[-3,-4],[4,-2],[2,3]],[[3183,3718],[2,3],[-3,2],[-2,-3],[3,-2]],[[3186,3711],[2,0],[0,1]],[[3188,3712],[-3,0],[1,-1]],[[2992,3692],[24,-17]],[[2564,3013],[-21,-17]],[[2572,3023],[-9,7]],[[2613,2721],[25,2]],[[2616,2860],[1,-2]],[[2617,2858],[2,-11],[-2,-6],[-1,-2]],[[2616,2839],[-2,-1]],[[2615,2837],[1,1]],[[2616,2838],[1,2],[3,6],[-3,14]],[[2615,2836],[1,1]],[[2616,2837],[2,2]],[[2617,2858]],[[2617,2858],[-1,-9],[-2,-5],[2,-5]],[[2616,2839],[0,-1]],[[2616,2838],[0,-1]],[[2616,2837],[1,-1]],[[2621,2845],[-4,13]],[[2660,2830],[6,6],[14,-1],[14,6],[56,45],[33,46],[201,66],[12,43]],[[2664,2832],[2,-2]],[[2995,3041],[-16,-42],[-195,-62],[-118,-100]],[[2672,2837],[-4,0]],[[2704,2845],[4,3]],[[2795,2945],[-3,-1]],[[2801,2946],[-6,-1]],[[2795,2945],[0,-2]],[[2998,3015],[-1,0]],[[1394,2418],[-102,3],[-13,-28],[-66,2],[-93,29],[-23,51]],[[1330,1635],[-74,-34],[-81,60],[-190,-41],[-36,45],[-65,-9]],[[2886,3269],[-64,30],[64,-29]],[[2986,3038],[-16,10],[-3,2]],[[2967,3050],[-4,2]],[[2964,3052],[3,-2]],[[2967,3050],[3,-2],[15,-10]],[[2952,3781],[17,27]],[[2969,3808],[12,26]],[[2981,3834],[94,166]],[[2664,3260],[-2,3]],[[2712,3091],[5,49],[-32,42]],[[601,4096],[96,-65],[251,-74]],[[2661,3263],[27,70]],[[2721,3344],[55,-30]],[[2617,2860],[-1,2]],[[2616,2862],[0,8]],[[2617,2875],[-1,-13]],[[2616,2862],[0,-2]],[[2711,3095],[-1,0]],[[2468,2828],[-23,-45],[-1028,-887],[-88,-260]],[[0,2245],[132,25],[35,-25]],[[1180,3943],[1,1]],[[1181,3942],[46,-282]],[[1186,3952],[0,1]],[[1186,3953],[4,2]],[[1949,4096],[-41,-91],[-29,-12],[-91,61],[-63,-40],[-73,42],[-28,40]],[[1489,4096],[-20,-24],[-208,-69],[-71,-48]],[[1227,3660],[67,-91],[15,-124],[-53,-130],[13,-52],[-38,-28],[4,-25],[57,-5],[-5,-36]],[[1514,3181],[-55,-111],[-105,-127],[-74,-43],[-31,-58]],[[1279,3123],[5,28]],[[1959,4095],[-1,1]],[[2108,4096],[-3,-2],[-34,2]],[[2498,2762],[-4,0]],[[246,2798],[2,-5]],[[354,2909],[-1,-1]],[[354,2908],[0,1]],[[398,2865],[1,-2]],[[400,2864],[-2,0]],[[400,2862],[2,0]],[[402,2862],[-1,1]],[[729,3788],[52,-37]],[[781,3751],[-51,38]],[[801,1154],[0,1]],[[883,1656],[-4,3]],[[975,1794],[1,1]],[[1707,2619],[-61,41]],[[1752,3046],[-19,75]],[[1883,2566]],[[1883,2566],[-1,-1],[-1,-3],[1,2],[1,2]],[[2319,3679],[-2,-2]],[[2323,3773],[50,105],[65,4]],[[2380,3736],[-1,2]],[[2543,2996],[29,27]],[[2600,3630],[-4,-11]],[[2603,3004],[-5,-11]],[[2599,2993],[1,1],[3,9]],[[2684,2750],[-11,-4]],[[2673,2746],[-1,-1]],[[2672,2745],[-51,-21],[-13,-1]],[[2616,3660],[3,-5]],[[2616,3664],[22,-23]],[[2621,3656],[-2,1]],[[2625,3657],[2,-1]],[[2626,3661],[-1,-3]],[[2638,2723],[34,22]],[[2638,3641],[2,-3]],[[2641,3640],[-3,1]],[[2643,3637],[3,0]],[[2646,3637],[-3,2]],[[2646,3637],[9,-2]],[[2666,2757],[4,-12]],[[2672,2745]],[[2672,2745],[-2,13],[-1,0]],[[2672,2745],[1,1]],[[2673,2746],[21,14]],[[2694,2760],[11,8],[7,2],[12,12]],[[2718,2780],[-11,-11],[-8,-5],[-5,-4]],[[2694,2760],[-3,-2],[-7,-8]],[[2684,2750],[1,0]],[[2693,2769],[1,-5]],[[2696,2766],[-1,3]],[[2709,2769],[0,1]],[[2712,3345],[0,-1]],[[2921,3743],[1,1]],[[3952,4070],[1,0]],[[3955,4071],[1,1]],[[401,2863],[-1,1],[-1,-1],[1,-1],[1,1]],[[2450,3763],[1,0],[0,1],[-1,0],[0,-1]],[[2605,3670],[1,1],[-1,0],[0,-1]],[[2641,3637],[2,1],[-1,2],[-2,-1],[1,-2]],[[3281,3305],[1,-1],[0,1],[-1,0]],[[3343,3691],[2,1],[-1,1],[-1,-1],[0,-1]],[[2432,4029],[-1,-3]],[[351,2907],[5,0]],[[356,2907],[-1,5]],[[1039,2665],[-25,-14],[-70,72],[-160,19],[-65,50],[-66,-24],[-125,35],[-172,104]],[[976,1794],[97,-7],[109,121]],[[2608,2723],[-17,0]],[[3090,3714],[-43,24]],[[3047,3738],[-15,8]],[[3032,3743],[15,-5]],[[3047,3738],[66,-23]],[[3113,3715],[8,-3]],[[3121,3715],[-8,0]],[[3113,3715],[-22,-1]],[[2633,2939],[0,-1]],[[2634,2939],[-1,0]],[[2537,2905],[-32,12]],[[2433,4032],[-1,-3]],[[2478,2851],[26,-3]],[[2832,3481],[-33,-72]],[[2832,3481],[19,161],[99,135]],[[2950,3777],[-40,-48],[-60,-87],[-18,-161]],[[2950,3777],[2,4]],[[3075,4000],[28,86]],[[3103,4086],[-3,10]],[[2557,2732],[-36,0]],[[2581,2723],[-1,0]],[[1047,2661],[30,-27]],[[2539,2883],[9,1],[4,-3],[3,-1]],[[2555,2880],[10,-6],[11,-12],[26,-6]],[[2541,2834],[4,-5],[25,-16],[17,-3],[11,10]],[[2598,2820],[10,10]],[[2608,2830],[3,3]],[[2611,2833],[4,3]],[[2614,2838],[-6,-8]],[[2608,2830],[-7,-10],[-3,0]],[[2598,2820],[-52,9],[-5,5]],[[2600,2856],[-55,31]],[[2554,2881],[-3,2],[4,-3]],[[2555,2880]],[[2561,2875],[15,-13]],[[2576,2863],[-5,8]],[[2595,2856],[1,0]],[[2606,2827],[5,6]],[[2611,2833],[4,4]],[[2607,2862],[5,-14],[2,-2]],[[2614,2846],[14,-16]],[[2628,2830],[2,-2]],[[2657,2830],[-6,-4],[-22,4],[-1,0]],[[2628,2830],[-2,0],[-10,13],[-2,3]],[[2614,2846],[-1,2],[-5,14]],[[2610,2831],[20,-3]],[[2630,2828],[13,-4],[6,-1]],[[2649,2823],[3,0]],[[2647,2822],[2,1]],[[2649,2823],[4,2],[7,5]],[[2698,2842],[-54,51],[-21,13],[73,-65],[6,4]],[[3044,3072],[-1,-1]],[[3106,3586],[3,5]],[[3107,3595],[1,0]],[[3108,3595]],[[3118,3630],[-4,-15]],[[3114,3615],[-6,-20]],[[3108,3595],[-1,-2],[0,-1]],[[3107,3592],[4,9],[3,14]],[[3114,3615],[6,28],[0,6]],[[3120,3649],[0,7]],[[3120,3656],[0,44],[5,11]],[[3110,3649],[8,1]],[[3117,3654],[-3,-3]],[[3123,3654],[-3,2]],[[3120,3656],[-3,1]],[[3118,3653],[1,0]],[[3119,3649],[1,0]],[[3120,3649],[3,4]],[[3121,3712],[0,-10]],[[3121,3715],[0,-3]],[[3121,3712],[4,-1]],[[3125,3715],[3,47],[-7,-47]],[[3125,3715],[-4,0]],[[3125,3711],[0,4]],[[3128,3737],[2,0]],[[3131,3757],[-2,0]],[[3131,3743],[-2,2]],[[3130,3750],[2,-6]],[[3134,3744],[-2,6]],[[2033,3092],[129,-179]],[[2167,2914],[68,-39]],[[0,3603],[62,-6],[206,164],[286,-209]],[[555,3552],[-1,0]],[[554,3552],[1,-3]],[[558,3460],[22,-43],[11,33],[119,-89],[27,-103],[66,-23]],[[154,1912],[322,-174],[110,22],[135,-27],[8,-23],[130,-51]],[[1329,1636],[-59,-53],[-95,78]],[[2821,3395],[-166,250],[-24,100]],[[2631,3745],[-39,164]],[[2592,3909],[-1,4],[-162,120]],[[2430,4032],[162,-123]],[[2592,3909],[1,0],[38,-164]],[[2631,3745],[24,-100],[146,-234],[20,-16]],[[2995,3324],[-35,-66]],[[2960,3258],[-5,-9]],[[2957,3252],[3,6]],[[2960,3258],[43,110],[35,18]],[[3041,3387],[49,63],[15,120]],[[3104,3569],[-14,-95]],[[2192,3513],[15,32],[52,5],[58,126],[45,18]],[[2363,3694],[-1,0]],[[2362,3694],[1,-3]],[[2431,4026],[20,-260]],[[2710,3094],[1,0]],[[2616,2870],[16,29],[4,30],[-2,10]],[[2633,2938],[-16,-63]],[[2821,3395],[-54,-237],[-68,-82],[-17,-24]],[[2682,3052],[-8,-11]],[[2674,3041],[-32,-46],[-9,-56]],[[2633,2939],[41,102]],[[2674,3041],[1,2],[2,3],[5,6]],[[2682,3052],[85,106],[63,179],[-9,58]],[[2941,3245],[11,-34]],[[2949,3238],[-1,3]],[[2951,3244],[1,-31]],[[2532,2953],[6,24]],[[247,2397],[-35,-113],[-45,-41]],[[2240,2874],[238,-23]],[[1279,3123],[56,52],[35,-5],[21,58],[75,-17],[27,-39],[21,9]],[[2395,3734],[-47,7],[-186,145],[-6,45],[-58,-6],[28,78],[-25,44],[7,46]],[[2356,3646],[39,88]],[[2395,3734],[25,35],[74,-5],[122,-100]],[[3121,3574],[-5,7]],[[3121,3574],[38,-41],[45,-132],[77,-96]],[[3115,3583],[-4,6]],[[3115,3583],[1,-2]],[[1249,2842],[-36,-9],[-17,-80],[-69,-63],[-88,-25]],[[2886,3270],[20,-9],[17,-10]],[[2923,3251],[26,-14]],[[2949,3237],[1,-1],[-5,-157]],[[2945,3079],[0,-15],[1,0]],[[2946,3064],[18,-12]],[[2963,3052],[-17,9],[0,3]],[[2946,3064],[-1,15]],[[2945,3079],[0,25],[-1,4],[5,129]],[[2949,3237],[0,2],[-26,12]],[[2923,3251],[-37,18]],[[3222,3710],[105,-1],[130,-82]],[[1181,3944],[5,8]],[[2504,2848],[-19,12],[-17,-32]],[[1227,100],[-143,-22],[-110,-78]],[[2983,3758],[30,9]],[[3020,3769],[-7,-2]],[[3013,3767],[7,-2]],[[2743,3687],[-43,-57],[-67,31],[-33,-31]],[[2755,3687],[-12,0]],[[2755,3687],[147,29],[81,42]],[[2596,2858],[-20,5]],[[2576,2862],[19,-6]],[[2596,2856],[6,0],[16,4],[-2,10]],[[2617,2875],[-17,-19]],[[2666,2837],[-16,-12]],[[3976,4081],[5,15]],[[2521,2732],[-43,2]],[[2581,2723],[5,22]],[[2923,3743],[69,-51]],[[2528,2780],[5,-19]],[[2550,2784],[9,-7]],[[2570,2742],[0,30],[-18,12]],[[2570,2729],[22,-5]],[[2650,2825],[-79,-84]],[[2586,2745],[68,79],[32,-13]],[[2684,2830],[-18,7]],[[2693,2814],[-8,15]],[[2689,2810],[2,2]],[[1485,3597],[175,453]],[[1890,3994],[-56,-34],[-45,-120],[30,-148],[-79,-184],[17,-94],[-23,-91]],[[2591,2723],[-10,0]],[[1059,1051],[33,-21],[28,22]],[[555,3549],[0,-1]],[[2701,2765],[-13,-11]],[[2480,4096],[-47,-64]],[[2480,2739],[19,29]],[[2963,2969],[-19,-29],[-9,-23]],[[2935,2917],[30,52]],[[2974,2998],[-11,-27]],[[2965,2971],[9,27]],[[2215,2988],[63,-119],[16,-67],[-51,-29],[-58,-15],[-51,-36],[-100,-92],[-122,-85],[-55,-51],[-44,-68],[-30,-12],[-22,-13],[-16,-17],[-9,-22],[-22,0],[1,47],[-21,129],[6,50],[19,26],[74,38],[80,58],[183,167],[0,21],[-28,6],[-13,9],[1,16],[18,28],[6,-8],[1,-4],[3,-2],[12,-7],[-4,52],[-25,44],[-30,43],[-23,46],[40,21],[125,-58],[53,-38],[23,-58]],[[1131,0],[9,21],[26,36],[32,22],[43,20],[39,4],[16,-26],[1,-77],[-166,0]],[[1365,1600],[29,-194],[-9,-53],[-49,-38],[20,-34],[-15,-40],[-27,-43],[-18,-44],[-13,-55],[7,-37],[43,-37],[8,-35],[28,-22],[-5,-19],[0,-45],[31,-27],[8,-27],[-25,-97],[-32,0],[-17,14],[-5,35],[-50,-2],[-35,-6],[-23,77],[-63,98],[-18,78],[5,46],[9,32],[6,90],[15,27],[16,15],[0,15],[-31,24],[-141,54],[-55,42],[35,48],[-26,55],[2,53],[27,41],[50,16],[46,-8],[47,-15],[52,-9],[63,9],[83,34],[27,-16]],[[0,4096],[4026,0],[-17,-23],[-152,-236],[-37,-18],[-30,-20],[-209,-243],[-197,-254],[-228,-225],[-84,-120],[-57,-45],[-63,-35],[-30,-10],[-65,-9],[-35,-2],[-29,-12],[-61,-58],[-81,-30],[-63,-34],[-68,-23],[-67,15],[-16,37],[58,111],[31,105],[29,40],[34,8],[25,-58],[-4,58],[-24,51],[-12,50],[46,91],[-13,28],[-22,23],[-12,16],[-2,20],[-5,15],[-24,28],[-5,12],[5,11],[7,12],[2,16],[-28,204],[-53,0],[-45,4],[-44,18],[-49,41],[-92,-35],[-59,34],[-33,64],[-32,127],[-22,14],[-32,-1],[-48,22],[-32,38],[-2,34],[10,39],[2,54],[-18,0],[-54,-100],[-18,-52],[-7,-63],[0,-83],[-6,-23],[-11,-10],[-14,-7],[-9,-9],[-37,-76],[1,-35],[36,-36],[-114,-212],[-37,-33],[-16,-9],[-33,-41],[-20,-11],[-31,2],[-33,30],[-27,7],[-32,27],[-24,65],[-54,219],[4,50],[33,40],[64,52],[-40,61],[-20,0],[15,-47],[-19,-24],[-36,-19],[-39,-32],[-22,-43],[-7,-37],[-14,-28],[-38,-17],[26,-35],[32,-72],[23,-36],[22,-18],[19,-4],[18,-8],[20,-31],[-2,-12],[0,-35],[7,-42],[15,-34],[23,-16],[57,-28],[20,-19],[44,40],[25,15],[19,-2],[13,-22],[11,-30],[15,-19],[23,9],[30,16],[39,1],[41,-11],[40,-16],[-27,-19],[-8,-9],[-17,-43],[-14,-22],[-11,-25],[-5,-36],[4,-64],[-3,-33],[-11,-24],[-33,-42],[-57,-86],[-41,-48],[-42,-38],[-57,-40],[-64,-31],[-64,-13],[-30,-15],[-17,-33],[-5,-41],[3,-36],[7,-20],[10,-15],[17,-12],[25,-12],[199,-52],[-10,-29],[-26,-10],[-33,-3],[-32,-10],[-29,-23],[-69,-80],[-164,-112],[-46,-41],[-29,-54],[-17,-123],[-22,-59],[41,-93],[7,-47],[-30,-24],[-72,49],[-27,11],[-32,0],[-88,-19],[7,26],[2,23],[-3,25],[-6,28],[-66,-202],[-16,-121],[23,-89],[-32,-29],[-26,-46],[-17,-56],[-7,-61],[12,-133],[-21,-44],[-70,-17],[0,-21],[84,7],[27,42],[-10,146],[17,71],[44,68],[65,30],[75,-37],[14,-23],[11,-54],[23,-35],[7,-20],[-12,-18],[-17,-19],[-8,-25],[11,-79],[26,-58],[33,-54],[31,-66],[9,-79],[-23,-55],[-32,-53],[-15,-69],[-7,-184],[7,-52],[29,-46],[6,-25],[-26,-11],[-38,6],[-27,15],[-55,51],[-22,30],[-9,34],[-7,35],[-11,33],[-20,31],[-19,17],[-20,15],[-22,21],[-15,7],[-12,-3],[-9,2],[-14,86],[-23,11],[-33,2],[-63,-3],[-25,-30],[-22,-53],[14,-22],[83,62],[16,-24],[5,-26],[-5,-26],[-16,-26],[128,-66],[33,-36],[49,-104],[33,-42],[100,-34],[9,-35],[-16,-35],[-25,-16],[-76,3],[-41,11],[-53,25],[-22,-80],[10,-26],[13,-61],[-898,0],[0,4096]],[[2862,3071],[4,-20],[97,0],[32,66],[65,0],[32,67],[98,0],[90,46],[63,135],[72,-23],[-400,-430],[-222,-68],[-61,-58],[-144,-64],[-68,-23],[-67,15],[-16,37],[89,216],[63,48],[25,-58],[-40,159],[46,91],[-48,71],[294,139],[21,-156],[-53,-144],[28,-46]],[[3077,4036],[-17,-21],[32,-33],[130,33],[0,-133],[32,-133],[-32,-33],[0,-67],[-32,0],[-132,-122],[-63,22],[0,33],[-64,34],[-10,31],[71,35],[3,67],[-58,44],[3,63],[66,74],[22,118],[49,-12]],[[3790,3799],[-77,-89],[-32,26],[3,86],[102,46],[71,-31],[-67,-38]],[[1227,3660],[11,11],[21,-7],[0,53],[41,-119],[42,-24],[62,170],[-3,52],[52,-62],[47,11],[-66,34],[3,26],[10,2],[26,-39],[14,0],[-44,67],[35,1],[2,-24],[23,19],[-9,-29],[22,12],[9,-46],[35,17],[-104,-128],[35,-73],[-19,-112],[38,-77],[-11,-93],[22,-21],[59,23],[-52,-96],[-37,-7],[7,-22],[-34,36],[37,38],[-31,45],[22,74],[-37,8],[-29,56],[-94,-144],[1,-66],[-37,-71],[-24,-8],[53,79],[-29,-11],[-28,14],[38,19],[9,175],[33,6],[1,31],[-24,4],[29,17],[-27,6],[8,65],[-40,23],[-35,87],[-33,-2]],[[3452,3623],[34,28],[32,-15],[66,34],[19,-13],[-15,-27],[-13,26],[2,-35],[-79,-115],[9,24],[-25,-11],[-9,54],[28,9],[-49,41]]]}