{"objects":{"water":{"type":"GeometryCollection","geometries":[{"type":"MultiPolygon","properties":{"source":"naturalearthdata.com","kind":"ocean","area":1576712559132672,"sort_rank":200,"min_zoom":0.0,"id":1},"arcs":[[[1],[2]]]},{"type":"LineString","properties":{"source":"naturalearthdata.com","kind":"ocean","sort_rank":205,"boundary":true,"min_zoom":0.0,"id":2797},"arcs":[3]},{"type":"LineString","properties":{"source":"naturalearthdata.com","kind":"ocean","sort_rank":205,"boundary":true,"min_zoom":0.0,"id":2799},"arcs":[4]}]},"buildings":{"type":"GeometryCollection","geometries":[]},"places":{"type":"GeometryCollection","geometries":[]},"transit":{"type":"GeometryCollection","geometries":[]},"pois":{"type":"GeometryCollection","geometries":[]},"boundaries":{"type":"GeometryCollection","geometries":[{"type":"LineString","properties":{"name:az":"C\u0259nubi Georgiya v\u0259 C\u0259nubi Sandvi\u00e7 adalar\u0131","name:tr":"G\u00fcney Georgia ve G\u00fcney Sandwich Adalar\u0131","name:cs":"Ji\u017en\u00ed Georgie a Ji\u017en\u00ed Sandwichovy ostrovy","min_zoom":8.0,"name:ru":"\u042e\u0436\u043d\u0430\u044f \u0413\u0435\u043e\u0440\u0433\u0438\u044f \u0438 \u042e\u0436\u043d\u044b\u0435 \u0421\u0430\u043d\u0434\u0432\u0438\u0447\u0435\u0432\u044b \u041e\u0441\u0442\u0440\u043e\u0432\u0430","name:ta":"\u0ba4\u0bc6\u0bb1\u0bcd\u0b95\u0bc1 \u0baf\u0bcb\u0bb0\u0bcd\u0b9a\u0bbf\u0baf\u0bbe \u0bae\u0bb1\u0bcd\u0bb1\u0bc1\u0bae\u0bcd \u0ba4\u0bc6\u0bb1\u0bcd\u0b95\u0bc1 \u0b9a\u0ba3\u0bcd\u0b9f\u0bcd\u0bb5\u0bbf\u0b9a\u0bcd \u0ba4\u0bc0\u0bb5\u0bc1\u0b95\u0bb3\u0bcd","id":-1983628,"name:ca":"Illes Ge\u00f2rgia del Sud i Sandwich del Sud","sort_rank":262,"kind_detail":"2","name:da":"South Georgia og South Sandwich Islands","name:fo":"Su\u00f0ursandwichoyggjar og Su\u00f0urgeorgia","source":"openstreetmap.org","name:fr":"G\u00e9orgie du Sud-et-les \u00celes Sandwich du Sud","name:de":"S\u00fcdgeorgien und die S\u00fcdlichen Sandwichinseln","name:zh":"\u5357\u55ac\u6cbb\u4e9e\u548c\u5357\u6851\u5a01\u5947\u7fa4\u5cf6","name:nl":"Zuid-Georgia en de Zuidelijke Sandwicheilanden","name:ja":"\u30b5\u30a6\u30b9\u30b8\u30e7\u30fc\u30b8\u30a2\u30fb\u30b5\u30a6\u30b9\u30b5\u30f3\u30c9\u30a6\u30a3\u30c3\u30c1\u8af8\u5cf6","name:nn":"S\u00f8r-Georgia og S\u00f8r-Sandwich\u00f8yane","name:hi":"\u0926\u0915\u094d\u0937\u093f\u0923 \u091c\u0949\u0930\u094d\u091c\u093f\u092f\u093e \u090f\u0935\u0902 \u0926\u0915\u094d\u0937\u093f\u0923 \u0938\u0948\u0902\u0921\u0935\u093f\u091a \u0926\u094d\u0935\u0940\u092a \u0938\u092e\u0942\u0939","name:eo":"Sud-Georgio kaj Sud-Sandvi\u0109insuloj","name:br":"Georgia ar Su hag Inizi Sandwich ar Su","name:sk":"Ju\u017en\u00e1 Georgia a Ju\u017en\u00e9 Sandwichove ostrovy","name:uk":"\u041f\u0456\u0432\u0434\u0435\u043d\u043d\u0430 \u0414\u0436\u043e\u0440\u0434\u0436\u0456\u044f \u0442\u0430 \u041f\u0456\u0432\u0434\u0435\u043d\u043d\u0456 \u0421\u0430\u043d\u0434\u0432\u0456\u0447\u0435\u0432\u0456 \u043e\u0441\u0442\u0440\u043e\u0432\u0438","name:fy":"S\u00fad-Georgje en de S\u00fadlike Sandwicheilannen","name:be":"\u041f\u0430\u045e\u0434\u043d\u0451\u0432\u0430\u044f \u0414\u0436\u043e\u0440\u0434\u0436\u044b\u044f \u0456 \u041f\u0430\u045e\u0434\u043d\u0451\u0432\u044b\u044f \u0421\u0430\u043d\u0434\u0432\u0456\u0447\u0430\u0432\u044b \u0430\u0441\u0442\u0440\u0430\u0432\u044b","name:bg":"\u042e\u0436\u043d\u0430 \u0414\u0436\u043e\u0440\u0434\u0436\u0438\u044f \u0438 \u042e\u0436\u043d\u0438 \u0421\u0430\u043d\u0434\u0432\u0438\u0447\u0435\u0432\u0438 \u043e\u0441\u0442\u0440\u043e\u0432\u0438","name:hr":"Ju\u017ena Georgija i Oto\u010dje Ju\u017eni Sandwich","name:sr":"\u0408\u0443\u0436\u043d\u0430 \u040f\u043e\u0440\u045f\u0438\u0458\u0430 \u0438 \u0408\u0443\u0436\u043d\u0430 \u0421\u0435\u043d\u0434\u0432\u0438\u0447\u043a\u0430 \u041e\u0441\u0442\u0440\u0432\u0430","osm_relation":true,"name:el":"\u039d\u03ae\u03c3\u03bf\u03b9 \u039d\u03cc\u03c4\u03b9\u03b1 \u0393\u03b5\u03c9\u03c1\u03b3\u03af\u03b1 \u03ba\u03b1\u03b9 \u039d\u03cc\u03c4\u03b9\u03b5\u03c2 \u03a3\u03ac\u03bd\u03c4\u03bf\u03c5\u03b9\u03c4\u03c2","kind":"country","name:en":"South Georgia and the South Sandwich Islands","name":"South Georgia and South Sandwich Islands","maritime_boundary":true,"name:et":"L\u00f5una-Georgia ja L\u00f5una-Sandwichi saared","name:es":"Islas Georgias del Sur y Sandwich del Sur"},"arcs":[0]}]},"roads":{"type":"GeometryCollection","geometries":[]},"earth":{"type":"GeometryCollection","geometries":[{"type":"MultiPolygon","properties":{"sort_rank":10,"source":"naturalearthdata.com","min_zoom":0.0,"kind":"earth","area":2479398585},"arcs":[[[5]],[[6]]]}]},"landuse":{"type":"GeometryCollection","geometries":[]}},"type":"Topology","transform":{"translate":[-39.375,-54.1624339681],"scale":[0.0003433228,0.0002030178]},"arcs":[[[4096,1801],[-338,-26],[-596,55],[-215,-20],[-272,-94],[-225,-157],[-173,-212],[-114,-276],[-27,-276],[45,-256],[163,-335],[159,-204]],[[4096,655],[0,-655],[-4096,0],[0,4096],[4096,0],[0,-3314],[-137,-2],[-48,-29],[32,3],[20,-9],[13,-22],[14,-39],[-35,-13],[-23,-33],[-14,-44],[-7,-47],[58,-3],[114,118],[13,-7]],[[3929,852],[-106,7],[-45,-19],[-27,-58],[32,-1],[30,7],[116,64]],[[3751,782],[32,-1],[30,7],[116,64],[-106,7],[-45,-19],[-27,-58]],[[4096,782],[-137,-2],[-48,-29],[32,3],[20,-9],[13,-22],[14,-39],[-35,-13],[-23,-33],[-14,-44],[-7,-47],[58,-3],[114,118],[13,-7]],[[4096,782],[0,-127],[-13,7],[-114,-118],[-58,3],[7,47],[14,44],[23,33],[35,13],[-14,39],[-13,22],[-20,9],[-32,-3],[48,29],[137,2]],[[3813,788],[-30,-7],[-32,1],[27,58],[45,19],[106,-7],[-116,-64]]]}