{"objects":{"water":{"type":"GeometryCollection","geometries":[]},"buildings":{"type":"GeometryCollection","geometries":[]},"places":{"type":"GeometryCollection","geometries":[{"type":"Point","properties":{"name:kg":"Nizeria","name:pt":"Nig\u00e9ria","name:ps":"\u0646\u0627\u06cc\u062c\u06cc\u0631\u06cc\u0627","name:ka":"\u10dc\u10d8\u10d2\u10d4\u10e0\u10d8\u10d0","name:tr":"Nijerya","name:cv":"\u041d\u0438\u0433\u0435\u0440\u0438","name:km":"\u1793\u17b8\u17a0\u17d2\u179f\u17c1\u179a\u17b8\u1799\u17c9\u17b6","name:cs":"Nig\u00e9rie","name:ki":"Nainjeria","name:kw":"Nijeri","name:tk":"Nigeri\u00fda","name:ku":"N\u00eejerya","name:ti":"\u1293\u12ed\u1304\u122a\u12eb","name:ks":"\u0646\u0627\u06cc\u062c\u06cc\u0631\u0650\u06cc\u0627","name:to":"Naisilia","name:tl":"Nigerya","name:pa":"\u0a28\u0a3e\u0a08\u0a1c\u0a40\u0a30\u0a40\u0a06","name:os":"\u041d\u0438\u0433\u0435\u0440\u0438","name:or":"\u0b28\u0b3e\u0b07\u0b1c\u0b47\u0b30\u0b3f\u0b06","name:ce":"\u041d\u0438\u0433\u0435\u0440\u0438","name:ta":"\u0ba8\u0bc8\u0b9c\u0bc0\u0bb0\u0bbf\u0baf\u0bbe","name:tg":"\u041d\u0438\u04b7\u0435\u0440\u0438\u044f","name:ca":"Nig\u00e8ria","name:te":"\u0c28\u0c48\u0c1c\u0c40\u0c30\u0c3f\u0c2f\u0c3e","name:hr":"Nigerija","name:ln":"Nizerya","name:sr":"\u041d\u0438\u0433\u0435\u0440\u0438\u0458\u0430","name:dz":"\u0f53\u0f71\u0f60\u0f72\u0f0b\u0f47\u0f72\u0f0b\u0f62\u0f72\u0f0b\u0f61","source":"openstreetmap.org","name:xh":"INigeria","name:kn":"\u0ca8\u0cc8\u0c9c\u0cc0\u0cb0\u0cbf\u0caf\u0cbe","name:dv":"\u0782\u07a6\u0787\u07a8\u0796\u07a9\u0783\u07a8\u0787\u07a7","name:lv":"Nig\u0113rija","name:lt":"Nigerija","name:uz":"Nigeriya","name:kk":"\u041d\u0438\u0433\u0435\u0440\u0438\u044f","name:he":"\u05e0\u05d9\u05d2\u05e8\u05d9\u05d4","min_zoom":2.0,"kind":"country","name:ur":"\u0646\u0627\u0626\u062c\u06cc\u0631\u06cc\u0627","name:lg":"Nayijerya","name:uk":"\u041d\u0456\u0433\u0435\u0440\u0456\u044f","name:hy":"\u0546\u056b\u0563\u0565\u0580\u056b\u0561","name:ug":"\u0646\u0649\u06af\u06d0\u0631\u0649\u064a\u06d5","name:hu":"Nig\u00e9ria","name:qu":"Niqirya","name:lo":"\u0ec4\u0e99\u0e88\u0eb5\u0ec0\u0ea5\u0e8d","name:oc":"Nig\u00e8ria","population":152217341,"name:el":"\u039d\u03b9\u03b3\u03b7\u03c1\u03af\u03b1","name:eo":"Ni\u011derio","name":"Nigeria","name:is":"N\u00edger\u00eda","name:ee":"Nigeria nutome","name:th":"\u0e1b\u0e23\u0e30\u0e40\u0e17\u0e28\u0e44\u0e19\u0e08\u0e35\u0e40\u0e23\u0e35\u0e22","name:yi":"\u05e0\u05d9\u05d2\u05e2\u05e8\u05d9\u05e2","name:et":"Nigeeria","name:yo":"Or\u00edl\u1eb9\u0301\u00e8de N\u00e0\u00ecj\u00edr\u00ed\u00e0","name:ml":"\u0d28\u0d48\u0d1c\u0d40\u0d30\u0d3f\u0d2f","name:mt":"Ni\u0121erja","name:rn":"Nijeriya","name:az":"Nigeriya","name:ig":"Naigeria","name:mr":"\u0928\u093e\u092f\u091c\u0947\u0930\u093f\u092f\u093e","name:ar":"\u0646\u064a\u062c\u064a\u0631\u064a\u0627","name:my":"\u1014\u102d\u102f\u1004\u103a\u1002\u103b\u102e\u1038\u101b\u102e\u1038\u101a\u102c\u1038","official_name":"Federal Republic of Nigeria","name:gn":"Niheria","name:ak":"Naegyeria","name:am":"\u1293\u12ed\u1304\u122a\u12eb","name:an":"Nicheria","name:ru":"\u041d\u0438\u0433\u0435\u0440\u0438\u044f","name:rw":"Nijeriya","id":424316663,"name:mk":"\u041d\u0438\u0433\u0435\u0440\u0438\u0458\u0430","name:af":"Nigeri\u00eb","name:zu":"i-Nigeria","name:ha":"Najeriya","name:mn":"\u041d\u0438\u0433\u0435\u0440\u0438","name:ff":"Nijeriyaa","name:hi":"\u0928\u093e\u0907\u091c\u0940\u0930\u093f\u092f\u093e","name:mg":"Nizeria","name:fr":"Nig\u00e9ria","name:za":"Nizywlihya","name:zh-yue":"\u5c3c\u65e5\u5229\u4e9e","name:fy":"Nigearia","name:vo":"Nigeriy\u00e4n","name:zh":"\u5c3c\u65e5\u5229\u4e9a","name:so":"Nayjeeriya","name:sl":"Nigerija","name:sk":"Nig\u00e9ria","name:ja":"\u30ca\u30a4\u30b8\u30a7\u30ea\u30a2","name:si":"\u0db1\u0dba\u0dd2\u0da2\u0dd3\u0dbb\u0dd2\u0dba\u0dcf\u0dc0","name:sh":"Nigerija","name:sg":"Nizer\u00efa","name:sc":"Nig\u00e9ria","name:ne":"\u0928\u093e\u0907\u091c\u0947\u0930\u093f\u092f\u093e","name:sa":"\u0928\u0948\u091c\u0940\u0930\u093f\u092f\u093e","name:bs":"Nigerija","name:bm":"Nizeriya","name:bn":"\u09a8\u09be\u0987\u099c\u09c7\u09b0\u09bf\u09af\u09bc\u09be","name:bo":"\u0f53\u0f71\u0f60\u0f72\u0f0b\u0f47\u0f72\u0f0b\u0f62\u0f72\u0f0b\u0f61\u0f0d","name:sw":"Nijeria","name:be":"\u041d\u0456\u0433\u0435\u0440\u044b\u044f","name:bg":"\u041d\u0438\u0433\u0435\u0440\u0438\u044f","name:ss":"INayijeriya","name:ba":"\u041d\u0438\u0433\u0435\u0440\u0438\u044f","name:sq":"Nigeri","name:ko":"\ub098\uc774\uc9c0\ub9ac\uc544","name:ga":"An Nig\u00e9ir","name:gd":"N\u00ecgeiria","name:ht":"Nijerya","name:wa":"Nidjeria","name:gl":"Nixeria","name:fa":"\u0646\u06cc\u062c\u0631\u06cc\u0647","name:gv":"Yn Naigeer","name:gu":"\u0aa8\u0abe\u0a87\u0a9c\u0ac0\u0ab0\u0ac0\u0aaf\u0abe","name:tt":"\u041d\u0438\u0433\u0435\u0440\u0438\u044f"},"coordinates":[1729,2934]},{"type":"Point","properties":{"admin_level":"4","kind":"region","name":"Cross River","kind_detail":"state","source":"openstreetmap.org","min_zoom":4.0,"name:uk":"\u041a\u0440\u043e\u0441\u0441-\u0420\u0456\u0432\u0435\u0440","name:ru":"\u041a\u0440\u043e\u0441\u0441-\u0420\u0438\u0432\u0435\u0440","id":2163706696},"coordinates":[2108,185]},{"type":"Point","properties":{"admin_level":"4","kind":"region","name":"Gombe","kind_detail":"state","source":"openstreetmap.org","min_zoom":4.0,"name:uk":"\u0413\u043e\u043c\u0431\u0435","name:ru":"\u0413\u043e\u043c\u0431\u0435","id":2163706702},"coordinates":[4064,3510]},{"type":"Point","properties":{"admin_level":"4","kind":"region","name":"Benue","kind_detail":"state","source":"openstreetmap.org","min_zoom":4.0,"name:uk":"\u0411\u0435\u043d\u0443\u0435","name:ru":"\u0411\u0435\u043d\u0443\u044d","id":2163706694},"coordinates":[2295,1277]},{"type":"Point","properties":{"admin_level":"4","kind":"region","name":"Plateau","kind_detail":"state","source":"openstreetmap.org","min_zoom":4.0,"name:uk":"\u041f\u043b\u0430\u0442\u043e","name:ru":"\u041f\u043b\u0430\u0442\u043e","id":2163706718},"coordinates":[2955,2535]},{"type":"Point","properties":{"admin_level":"4","kind":"region","name":"Anambra","kind_detail":"state","source":"openstreetmap.org","min_zoom":4.0,"name:uk":"\u0410\u043d\u0430\u043c\u0431\u0440\u0430","name:ru":"\u0410\u043d\u0430\u043c\u0431\u0440\u0430","id":2163706691},"coordinates":[967,444]},{"type":"Point","properties":{"admin_level":"4","kind":"region","name":"Ebonyi","kind_detail":"state","source":"openstreetmap.org","min_zoom":4.0,"name:uk":"\u0415\u0431\u043e\u043d\u044c\u0457","name:ru":"\u042d\u0431\u043e\u043d\u044c\u0438","id":2163706698},"coordinates":[1755,430]},{"type":"Point","properties":{"admin_level":"4","kind":"region","name":"Enugu","kind_detail":"state","source":"openstreetmap.org","min_zoom":4.0,"name:uk":"\u0415\u043d\u0443\u0433\u0443","name:ru":"\u042d\u043d\u0443\u0433\u0443","id":2163706701},"coordinates":[1303,690]},{"type":"Point","properties":{"admin_level":"4","kind":"region","name":"Kogi","kind_detail":"state","source":"openstreetmap.org","min_zoom":4.0,"name:uk":"\u041a\u043e\u0433\u0456","name:ru":"\u041a\u043e\u0433\u0438","id":2163706709},"coordinates":[773,1605]},{"type":"Point","properties":{"admin_level":"4","kind":"region","name:en":"Northwest","name":"Nord-Ouest","kind_detail":"state","name:de":"Nordwest","source":"openstreetmap.org","min_zoom":4.0,"id":2169076393},"coordinates":[3467,561]},{"type":"Point","properties":{"admin_level":"4","kind":"region","name":"Taraba","kind_detail":"state","source":"openstreetmap.org","min_zoom":4.0,"name:uk":"\u0422\u0430\u0440\u0430\u0431\u0430","name:ru":"\u0422\u0430\u0440\u0430\u0431\u0430","id":2163706721},"coordinates":[3723,1766]},{"type":"Point","properties":{"admin_level":"4","kind":"region","name":"Nasarawa","kind_detail":"state","source":"openstreetmap.org","min_zoom":4.0,"name:uk":"\u041d\u0430\u0441\u0441\u0430\u0440\u0430\u0432\u0430","name:ru":"\u041d\u0430\u0441\u0430\u0440\u0430\u0432\u0430","id":2163706712},"coordinates":[1903,2079]},{"type":"Point","properties":{"admin_level":"4","kind":"region","name":"Bauchi","kind_detail":"state","source":"openstreetmap.org","min_zoom":4.0,"name:uk":"\u0411\u0430\u0443\u0447\u0456","name:ru":"\u0411\u0430\u0443\u0447\u0438","id":2163706692},"coordinates":[3207,3687]},{"type":"Point","properties":{"admin_level":"4","kind":"region","name":"Kaduna","kind_detail":"state","name:ar":"\u0643\u0627\u062f\u0648\u0646\u0627","source":"openstreetmap.org","min_zoom":4.0,"name:uk":"\u041a\u0430\u0434\u0443\u043d\u0430","name:ru":"\u041a\u0430\u0434\u0443\u043d\u0430","id":2163706705},"coordinates":[1623,3510]},{"type":"Point","properties":{"admin_level":"4","kind":"region","name":"Federal Capital Territory","kind_detail":"state","min_zoom":4.0,"name:de":"Bundeshauptstadtterritorium","source":"openstreetmap.org","name:fr":"Territoire de la capitale f\u00e9d\u00e9rale","name:uk":"\u0424\u0435\u0434\u0435\u0440\u0430\u043b\u044c\u043d\u0430 \u0441\u0442\u043e\u043b\u0438\u0447\u043d\u0430 \u0442\u0435\u0440\u0438\u0442\u043e\u0440\u0456\u044f","name:ru":"\u0424\u0435\u0434\u0435\u0440\u0430\u043b\u044c\u043d\u0430\u044f \u0441\u0442\u043e\u043b\u0438\u0447\u043d\u0430\u044f \u0442\u0435\u0440\u0440\u0438\u0442\u043e\u0440\u0438\u044f","id":2163706688},"coordinates":[1127,2368]},{"type":"Point","properties":{"admin_level":"4","kind":"region","name":"Niger","kind_detail":"state","source":"openstreetmap.org","min_zoom":4.0,"name:uk":"\u041d\u0456\u0433\u0435\u0440","name:ru":"\u041d\u0438\u0433\u0435\u0440\u0438\u044f","id":2163706713},"coordinates":[19,3179]},{"type":"Point","properties":{"admin_level":"4","kind":"region","name":"Edo","kind_detail":"state","source":"openstreetmap.org","min_zoom":4.0,"name:uk":"\u0415\u0434\u043e","name:ru":"\u042d\u0434\u043e","id":2163706699},"coordinates":[253,730]},{"type":"Point","properties":{"source":"naturalearthdata.com","kind":"locality","name":"Abuja","country_capital":true,"population":1576000,"min_zoom":5.0,"id":6920},"coordinates":[1388,2555]},{"type":"Point","properties":{"source":"naturalearthdata.com","kind":"locality","name":"Kaduna","population":1442000,"region_capital":true,"min_zoom":5.0,"id":6434},"coordinates":[1320,3613]},{"type":"Point","properties":{"source":"naturalearthdata.com","kind":"locality","name":"Enugu","population":688862,"region_capital":true,"min_zoom":5.0,"id":6908},"coordinates":[1365,614]},{"type":"Point","properties":{"source":"naturalearthdata.com","kind":"locality","name":"Bamenda","population":445299,"region_capital":true,"min_zoom":5.0,"id":6705},"coordinates":[3295,253]},{"type":"Point","properties":{"source":"naturalearthdata.com","kind":"locality","name":"Makurdi","population":292645,"region_capital":true,"min_zoom":5.0,"id":6430},"coordinates":[2115,1557]},{"type":"Point","properties":{"source":"naturalearthdata.com","kind":"locality","name":"Zaria","population":889000,"min_zoom":6.0,"id":5773},"coordinates":[1517,4025]},{"type":"Point","properties":{"source":"naturalearthdata.com","kind":"locality","name":"Jos","population":816824,"region_capital":true,"min_zoom":6.0,"id":5774},"coordinates":[2378,3177]},{"type":"Point","properties":{"source":"naturalearthdata.com","kind":"locality","name":"Minna","population":291905,"region_capital":true,"min_zoom":6.0,"id":5772},"coordinates":[674,2948]}]},"transit":{"type":"GeometryCollection","geometries":[{"type":"LineString","properties":{"osm_relation":true,"source":"openstreetmap.org","kind":"train","name":"Abuja-Kaduna Railway","sort_rank":275,"min_zoom":6.0,"operator":"Nigerian Railway Corporation"},"arcs":[213]}]},"pois":{"type":"GeometryCollection","geometries":[]},"boundaries":{"type":"GeometryCollection","geometries":[{"type":"LineString","properties":{"source":"naturalearthdata.com","kind":"country","sort_rank":262,"kind_detail":"2","min_zoom":0.0,"id":278},"arcs":[0]},{"type":"LineString","properties":{"source":"naturalearthdata.com","kind":"region","sort_rank":256,"kind_detail":"4","min_zoom":5.5,"id":4527},"arcs":[1]},{"type":"LineString","properties":{"source":"naturalearthdata.com","kind":"region","sort_rank":256,"kind_detail":"4","min_zoom":5.5,"id":4543},"arcs":[2]},{"type":"MultiLineString","properties":{"source":"naturalearthdata.com","kind":"region","sort_rank":256,"kind_detail":"4","min_zoom":3.0,"id":6750},"arcs":[[3],[4],[5],[6],[7]]},{"type":"LineString","properties":{"source":"naturalearthdata.com","kind":"region","sort_rank":256,"kind_detail":"4","min_zoom":3.0,"id":6785},"arcs":[8]},{"type":"MultiLineString","properties":{"source":"naturalearthdata.com","kind":"region","sort_rank":256,"kind_detail":"4","min_zoom":5.5,"id":4528},"arcs":[[9],[10],[11],[12],[13],[14],[15],[16],[17]]},{"type":"LineString","properties":{"source":"naturalearthdata.com","kind":"region","sort_rank":256,"kind_detail":"4","min_zoom":5.5,"id":4529},"arcs":[18]},{"type":"MultiLineString","properties":{"source":"naturalearthdata.com","kind":"region","sort_rank":256,"kind_detail":"4","min_zoom":5.5,"id":4542},"arcs":[[19],[20],[21],[22],[23],[24],[25]]},{"type":"LineString","properties":{"source":"naturalearthdata.com","kind":"region","sort_rank":256,"kind_detail":"4","min_zoom":5.5,"id":4533},"arcs":[26]},{"type":"LineString","properties":{"source":"naturalearthdata.com","kind":"region","sort_rank":256,"kind_detail":"4","min_zoom":3.0,"id":6085},"arcs":[27]},{"type":"LineString","properties":{"source":"naturalearthdata.com","kind":"region","sort_rank":256,"kind_detail":"4","min_zoom":3.0,"id":6060},"arcs":[28]},{"type":"MultiLineString","properties":{"source":"naturalearthdata.com","kind":"region","sort_rank":256,"kind_detail":"4","min_zoom":3.0,"id":6061},"arcs":[[29],[30],[31],[32],[33]]},{"type":"LineString","properties":{"source":"naturalearthdata.com","kind":"region","sort_rank":256,"kind_detail":"4","min_zoom":3.0,"id":6063},"arcs":[34]},{"type":"MultiLineString","properties":{"source":"naturalearthdata.com","kind":"region","sort_rank":256,"kind_detail":"4","min_zoom":3.0,"id":6064},"arcs":[[35],[36],[37],[38],[39],[40],[41]]},{"type":"MultiLineString","properties":{"source":"naturalearthdata.com","kind":"region","sort_rank":256,"kind_detail":"4","min_zoom":3.0,"id":6067},"arcs":[[42],[43],[44]]},{"type":"MultiLineString","properties":{"source":"naturalearthdata.com","kind":"region","sort_rank":256,"kind_detail":"4","min_zoom":3.0,"id":6068},"arcs":[[45],[46]]},{"type":"MultiLineString","properties":{"source":"naturalearthdata.com","kind":"region","sort_rank":256,"kind_detail":"4","min_zoom":3.0,"id":6069},"arcs":[[47],[48],[49]]},{"type":"LineString","properties":{"source":"naturalearthdata.com","kind":"region","sort_rank":256,"kind_detail":"4","min_zoom":3.0,"id":6070},"arcs":[50]},{"type":"MultiLineString","properties":{"source":"naturalearthdata.com","kind":"region","sort_rank":256,"kind_detail":"4","min_zoom":3.0,"id":6071},"arcs":[[51],[52]]},{"type":"MultiLineString","properties":{"source":"naturalearthdata.com","kind":"region","sort_rank":256,"kind_detail":"4","min_zoom":3.0,"id":6073},"arcs":[[53],[54],[55],[56],[57]]},{"type":"MultiLineString","properties":{"source":"naturalearthdata.com","kind":"region","sort_rank":256,"kind_detail":"4","min_zoom":3.0,"id":6074},"arcs":[[58],[59],[60]]},{"type":"MultiLineString","properties":{"source":"naturalearthdata.com","kind":"region","sort_rank":256,"kind_detail":"4","min_zoom":3.0,"id":6075},"arcs":[[61],[62],[63],[64]]},{"type":"MultiLineString","properties":{"source":"naturalearthdata.com","kind":"region","sort_rank":256,"kind_detail":"4","min_zoom":3.0,"id":6076},"arcs":[[65],[66],[67],[68],[69]]},{"type":"MultiLineString","properties":{"source":"naturalearthdata.com","kind":"region","sort_rank":256,"kind_detail":"4","min_zoom":3.0,"id":6077},"arcs":[[70],[71],[72],[73],[74],[75]]},{"type":"MultiLineString","properties":{"source":"naturalearthdata.com","kind":"region","sort_rank":256,"kind_detail":"4","min_zoom":3.0,"id":6078},"arcs":[[76],[77],[78]]},{"type":"LineString","properties":{"source":"naturalearthdata.com","kind":"region","sort_rank":256,"kind_detail":"4","min_zoom":3.0,"id":6086},"arcs":[79]},{"type":"LineString","properties":{"source":"naturalearthdata.com","kind":"region","sort_rank":256,"kind_detail":"4","min_zoom":3.0,"id":6746},"arcs":[80]},{"type":"LineString","properties":{"source":"naturalearthdata.com","kind":"region","sort_rank":256,"kind_detail":"4","min_zoom":3.0,"id":6747},"arcs":[81]},{"type":"LineString","properties":{"source":"naturalearthdata.com","kind":"region","sort_rank":256,"kind_detail":"4","min_zoom":3.0,"id":6748},"arcs":[82]},{"type":"LineString","properties":{"source":"naturalearthdata.com","kind":"region","sort_rank":256,"kind_detail":"4","min_zoom":3.0,"id":6749},"arcs":[83]},{"type":"MultiLineString","properties":{"source":"naturalearthdata.com","kind":"region","sort_rank":256,"kind_detail":"4","min_zoom":3.0,"id":6751},"arcs":[[84],[85],[86]]},{"type":"LineString","properties":{"source":"naturalearthdata.com","kind":"region","sort_rank":256,"kind_detail":"4","min_zoom":3.0,"id":6729},"arcs":[87]},{"type":"LineString","properties":{"source":"naturalearthdata.com","kind":"region","sort_rank":256,"kind_detail":"4","min_zoom":3.0,"id":6730},"arcs":[88]},{"type":"MultiLineString","properties":{"source":"naturalearthdata.com","kind":"region","sort_rank":256,"kind_detail":"4","min_zoom":3.0,"id":6731},"arcs":[[89],[90],[91],[92],[93],[94]]},{"type":"MultiLineString","properties":{"source":"naturalearthdata.com","kind":"region","sort_rank":256,"kind_detail":"4","min_zoom":3.0,"id":6732},"arcs":[[95],[96],[97]]},{"type":"MultiLineString","properties":{"source":"naturalearthdata.com","kind":"region","sort_rank":256,"kind_detail":"4","min_zoom":3.0,"id":6733},"arcs":[[98],[99],[100],[101],[102],[103],[104]]},{"type":"MultiLineString","properties":{"source":"naturalearthdata.com","kind":"region","sort_rank":256,"kind_detail":"4","min_zoom":3.0,"id":6734},"arcs":[[105],[106],[107],[108],[109]]},{"type":"MultiLineString","properties":{"source":"naturalearthdata.com","kind":"region","sort_rank":256,"kind_detail":"4","min_zoom":3.0,"id":6735},"arcs":[[110],[111],[112],[113],[114]]},{"type":"MultiLineString","properties":{"source":"naturalearthdata.com","kind":"region","sort_rank":256,"kind_detail":"4","min_zoom":3.0,"id":6736},"arcs":[[115],[116],[117]]},{"type":"MultiLineString","properties":{"source":"naturalearthdata.com","kind":"region","sort_rank":256,"kind_detail":"4","min_zoom":3.0,"id":6737},"arcs":[[118],[119],[120],[121],[122],[123],[124],[125],[126]]},{"type":"MultiLineString","properties":{"source":"naturalearthdata.com","kind":"region","sort_rank":256,"kind_detail":"4","min_zoom":3.0,"id":6738},"arcs":[[127],[128],[129],[130]]},{"type":"MultiLineString","properties":{"source":"naturalearthdata.com","kind":"region","sort_rank":256,"kind_detail":"4","min_zoom":3.0,"id":6739},"arcs":[[131],[132],[133],[134],[135]]},{"type":"MultiLineString","properties":{"source":"naturalearthdata.com","kind":"region","sort_rank":256,"kind_detail":"4","min_zoom":3.0,"id":6740},"arcs":[[136],[137],[138],[139],[140]]},{"type":"LineString","properties":{"source":"naturalearthdata.com","kind":"region","sort_rank":256,"kind_detail":"4","min_zoom":3.0,"id":6741},"arcs":[141]},{"type":"LineString","properties":{"source":"naturalearthdata.com","kind":"region","sort_rank":256,"kind_detail":"4","min_zoom":3.0,"id":6742},"arcs":[142]},{"type":"MultiLineString","properties":{"source":"naturalearthdata.com","kind":"region","sort_rank":256,"kind_detail":"4","min_zoom":3.0,"id":6743},"arcs":[[143],[144],[145],[146],[147],[148],[149],[150],[151]]},{"type":"LineString","properties":{"source":"naturalearthdata.com","kind":"region","sort_rank":256,"kind_detail":"4","min_zoom":3.0,"id":6744},"arcs":[152]},{"type":"MultiLineString","properties":{"source":"naturalearthdata.com","kind":"region","sort_rank":256,"kind_detail":"4","min_zoom":3.0,"id":6745},"arcs":[[153],[154]]},{"type":"LineString","properties":{"source":"naturalearthdata.com","kind":"region","sort_rank":256,"kind_detail":"4","min_zoom":3.0,"id":6753},"arcs":[155]},{"type":"MultiLineString","properties":{"source":"naturalearthdata.com","kind":"region","sort_rank":256,"kind_detail":"4","min_zoom":3.0,"id":6754},"arcs":[[156],[157],[158],[159],[160]]},{"type":"MultiLineString","properties":{"source":"naturalearthdata.com","kind":"region","sort_rank":256,"kind_detail":"4","min_zoom":3.0,"id":6756},"arcs":[[161],[162],[163]]},{"type":"MultiLineString","properties":{"source":"naturalearthdata.com","kind":"region","sort_rank":256,"kind_detail":"4","min_zoom":3.0,"id":6757},"arcs":[[164],[165]]},{"type":"MultiLineString","properties":{"source":"naturalearthdata.com","kind":"region","sort_rank":256,"kind_detail":"4","min_zoom":3.0,"id":6759},"arcs":[[166],[167]]},{"type":"LineString","properties":{"source":"naturalearthdata.com","kind":"region","sort_rank":256,"kind_detail":"4","min_zoom":3.0,"id":6761},"arcs":[168]},{"type":"MultiLineString","properties":{"source":"naturalearthdata.com","kind":"region","sort_rank":256,"kind_detail":"4","min_zoom":3.0,"id":6762},"arcs":[[169],[170],[171],[172],[173]]},{"type":"MultiLineString","properties":{"source":"naturalearthdata.com","kind":"region","sort_rank":256,"kind_detail":"4","min_zoom":3.0,"id":6775},"arcs":[[174],[175]]},{"type":"MultiLineString","properties":{"source":"naturalearthdata.com","kind":"region","sort_rank":256,"kind_detail":"4","min_zoom":3.0,"id":6764},"arcs":[[176],[177]]},{"type":"MultiLineString","properties":{"source":"naturalearthdata.com","kind":"region","sort_rank":256,"kind_detail":"4","min_zoom":3.0,"id":6767},"arcs":[[178],[179],[180],[181]]},{"type":"LineString","properties":{"source":"naturalearthdata.com","kind":"region","sort_rank":256,"kind_detail":"4","min_zoom":3.0,"id":6782},"arcs":[182]},{"type":"MultiLineString","properties":{"source":"naturalearthdata.com","kind":"region","sort_rank":256,"kind_detail":"4","min_zoom":3.0,"id":6783},"arcs":[[183],[184],[185],[186],[187]]},{"type":"MultiLineString","properties":{"source":"naturalearthdata.com","kind":"region","sort_rank":256,"kind_detail":"4","min_zoom":3.0,"id":6784},"arcs":[[188],[189],[190],[191],[192],[193],[194],[195],[196],[197],[198],[199],[200]]},{"type":"LineString","properties":{"source":"naturalearthdata.com","kind":"region","sort_rank":256,"kind_detail":"4","min_zoom":3.0,"id":6786},"arcs":[201]},{"type":"LineString","properties":{"source":"naturalearthdata.com","kind":"region","sort_rank":256,"kind_detail":"4","min_zoom":3.0,"id":6787},"arcs":[202]},{"type":"LineString","properties":{"source":"naturalearthdata.com","kind":"region","sort_rank":256,"kind_detail":"4","min_zoom":3.0,"id":6788},"arcs":[203]},{"type":"LineString","properties":{"source":"naturalearthdata.com","kind":"region","sort_rank":256,"kind_detail":"4","min_zoom":3.0,"id":6789},"arcs":[204]},{"type":"MultiLineString","properties":{"source":"naturalearthdata.com","kind":"region","sort_rank":256,"kind_detail":"4","min_zoom":3.0,"id":6790},"arcs":[[205],[206],[207],[208],[209],[210]]},{"type":"MultiLineString","properties":{"source":"naturalearthdata.com","kind":"region","sort_rank":256,"kind_detail":"4","min_zoom":3.0,"id":6791},"arcs":[[211],[212]]}]},"roads":{"type":"GeometryCollection","geometries":[{"type":"LineString","properties":{"source":"naturalearthdata.com","kind":"major_road","kind_detail":"secondary","sort_rank":379,"landuse_kind":"urban_area","min_zoom":3.0,"id":37632},"arcs":[214]},{"type":"MultiLineString","properties":{"source":"naturalearthdata.com","kind":"major_road","sort_rank":379,"kind_detail":"secondary","min_zoom":3.0,"id":37632},"arcs":[[215],[216]]},{"type":"LineString","properties":{"source":"naturalearthdata.com","kind":"major_road","sort_rank":379,"kind_detail":"secondary","min_zoom":3.0,"id":37651},"arcs":[217]},{"type":"LineString","properties":{"source":"naturalearthdata.com","kind":"major_road","sort_rank":379,"kind_detail":"secondary","min_zoom":3.0,"id":37721},"arcs":[218]},{"type":"LineString","properties":{"source":"naturalearthdata.com","kind":"major_road","kind_detail":"secondary","sort_rank":379,"landuse_kind":"urban_area","min_zoom":3.0,"id":37896},"arcs":[219]},{"type":"MultiLineString","properties":{"source":"naturalearthdata.com","kind":"major_road","sort_rank":379,"kind_detail":"secondary","min_zoom":3.0,"id":37896},"arcs":[[220],[221]]},{"type":"LineString","properties":{"source":"naturalearthdata.com","kind":"major_road","sort_rank":379,"kind_detail":"secondary","min_zoom":3.0,"id":37958},"arcs":[222]},{"type":"LineString","properties":{"source":"naturalearthdata.com","kind":"major_road","kind_detail":"secondary","sort_rank":379,"landuse_kind":"urban_area","min_zoom":3.0,"id":37973},"arcs":[223]},{"type":"LineString","properties":{"source":"naturalearthdata.com","kind":"major_road","sort_rank":379,"kind_detail":"secondary","min_zoom":3.0,"id":37973},"arcs":[224]},{"type":"LineString","properties":{"source":"naturalearthdata.com","kind":"major_road","kind_detail":"secondary","sort_rank":379,"landuse_kind":"urban_area","min_zoom":3.0,"id":37974},"arcs":[225]},{"type":"LineString","properties":{"source":"naturalearthdata.com","kind":"major_road","sort_rank":379,"kind_detail":"secondary","min_zoom":3.0,"id":37974},"arcs":[226]},{"type":"LineString","properties":{"source":"naturalearthdata.com","kind":"major_road","kind_detail":"secondary","sort_rank":379,"landuse_kind":"urban_area","min_zoom":3.0,"id":38004},"arcs":[227]},{"type":"MultiLineString","properties":{"source":"naturalearthdata.com","kind":"minor_road","kind_detail":"tertiary","sort_rank":355,"landuse_kind":"urban_area","min_zoom":6.0,"id":38042},"arcs":[[228],[229]]},{"type":"MultiLineString","properties":{"source":"naturalearthdata.com","kind":"minor_road","sort_rank":355,"kind_detail":"tertiary","min_zoom":6.0,"id":38042},"arcs":[[230],[231]]},{"type":"LineString","properties":{"source":"naturalearthdata.com","kind":"major_road","sort_rank":379,"kind_detail":"secondary","min_zoom":3.0,"id":38067},"arcs":[232]},{"type":"LineString","properties":{"source":"naturalearthdata.com","kind":"major_road","kind_detail":"secondary","sort_rank":379,"landuse_kind":"urban_area","min_zoom":4.0,"id":38132},"arcs":[233]},{"type":"LineString","properties":{"source":"naturalearthdata.com","kind":"major_road","sort_rank":379,"kind_detail":"secondary","min_zoom":4.0,"id":38132},"arcs":[234]},{"type":"LineString","properties":{"source":"naturalearthdata.com","kind":"major_road","kind_detail":"secondary","sort_rank":379,"landuse_kind":"urban_area","min_zoom":4.0,"id":38156},"arcs":[235]},{"type":"MultiLineString","properties":{"source":"naturalearthdata.com","kind":"major_road","sort_rank":379,"kind_detail":"secondary","min_zoom":4.0,"id":38156},"arcs":[[236],[237]]},{"type":"LineString","properties":{"source":"naturalearthdata.com","kind":"major_road","kind_detail":"secondary","sort_rank":379,"landuse_kind":"urban_area","min_zoom":4.0,"id":38165},"arcs":[238]},{"type":"MultiLineString","properties":{"source":"naturalearthdata.com","kind":"major_road","sort_rank":379,"kind_detail":"secondary","min_zoom":4.0,"id":38165},"arcs":[[239],[240]]},{"type":"LineString","properties":{"source":"naturalearthdata.com","kind":"major_road","sort_rank":379,"kind_detail":"secondary","min_zoom":4.0,"id":38175},"arcs":[241]},{"type":"LineString","properties":{"source":"naturalearthdata.com","kind":"major_road","sort_rank":379,"kind_detail":"secondary","min_zoom":3.0,"id":38223},"arcs":[242]},{"type":"LineString","properties":{"source":"naturalearthdata.com","kind":"major_road","sort_rank":379,"kind_detail":"secondary","min_zoom":3.0,"id":38224},"arcs":[243]},{"type":"LineString","properties":{"source":"naturalearthdata.com","kind":"major_road","kind_detail":"secondary","sort_rank":379,"landuse_kind":"urban_area","min_zoom":3.0,"id":38307},"arcs":[244]},{"type":"LineString","properties":{"source":"naturalearthdata.com","kind":"major_road","kind_detail":"secondary","sort_rank":379,"landuse_kind":"urban_area","min_zoom":3.0,"id":38307},"arcs":[245]},{"type":"LineString","properties":{"source":"naturalearthdata.com","kind":"major_road","sort_rank":379,"kind_detail":"secondary","min_zoom":3.0,"id":38307},"arcs":[246]},{"type":"LineString","properties":{"source":"naturalearthdata.com","kind":"minor_road","sort_rank":355,"kind_detail":"tertiary","min_zoom":6.0,"id":38327},"arcs":[247]},{"type":"LineString","properties":{"source":"naturalearthdata.com","kind":"major_road","kind_detail":"secondary","sort_rank":379,"landuse_kind":"urban_area","min_zoom":3.0,"id":38334},"arcs":[248]},{"type":"LineString","properties":{"source":"naturalearthdata.com","kind":"major_road","kind_detail":"secondary","sort_rank":379,"landuse_kind":"urban_area","min_zoom":3.0,"id":38403},"arcs":[249]},{"type":"LineString","properties":{"source":"naturalearthdata.com","kind":"major_road","sort_rank":379,"kind_detail":"secondary","min_zoom":3.0,"id":38403},"arcs":[250]},{"type":"LineString","properties":{"source":"naturalearthdata.com","kind":"major_road","kind_detail":"secondary","sort_rank":379,"landuse_kind":"urban_area","min_zoom":3.0,"id":38436},"arcs":[251]},{"type":"LineString","properties":{"source":"naturalearthdata.com","kind":"major_road","sort_rank":379,"kind_detail":"secondary","min_zoom":3.0,"id":38436},"arcs":[252]},{"type":"LineString","properties":{"source":"naturalearthdata.com","kind":"major_road","kind_detail":"secondary","sort_rank":379,"landuse_kind":"urban_area","min_zoom":4.0,"id":38459},"arcs":[253]},{"type":"LineString","properties":{"source":"naturalearthdata.com","kind":"major_road","sort_rank":379,"kind_detail":"secondary","min_zoom":4.0,"id":38459},"arcs":[254]},{"type":"LineString","properties":{"source":"naturalearthdata.com","kind":"major_road","sort_rank":379,"kind_detail":"secondary","min_zoom":3.0,"id":38494},"arcs":[255]},{"type":"LineString","properties":{"source":"naturalearthdata.com","kind":"minor_road","sort_rank":355,"kind_detail":"tertiary","min_zoom":6.0,"id":38508},"arcs":[256]},{"type":"LineString","properties":{"source":"naturalearthdata.com","kind":"major_road","sort_rank":379,"kind_detail":"secondary","min_zoom":4.0,"id":38528},"arcs":[257]},{"type":"LineString","properties":{"source":"naturalearthdata.com","kind":"major_road","sort_rank":379,"kind_detail":"secondary","min_zoom":4.0,"id":38530},"arcs":[258]},{"type":"LineString","properties":{"source":"naturalearthdata.com","kind":"major_road","sort_rank":379,"kind_detail":"secondary","min_zoom":4.0,"id":38545},"arcs":[259]},{"type":"LineString","properties":{"source":"naturalearthdata.com","kind":"minor_road","sort_rank":355,"kind_detail":"tertiary","min_zoom":6.0,"id":38572},"arcs":[260]},{"type":"LineString","properties":{"source":"naturalearthdata.com","kind":"minor_road","sort_rank":355,"kind_detail":"tertiary","min_zoom":6.0,"id":38586},"arcs":[261]},{"type":"LineString","properties":{"source":"naturalearthdata.com","kind":"minor_road","sort_rank":355,"kind_detail":"tertiary","min_zoom":6.0,"id":38661},"arcs":[262]},{"type":"LineString","properties":{"source":"naturalearthdata.com","kind":"major_road","sort_rank":379,"kind_detail":"secondary","min_zoom":3.0,"id":38676},"arcs":[263]},{"type":"LineString","properties":{"source":"naturalearthdata.com","kind":"minor_road","sort_rank":355,"kind_detail":"tertiary","min_zoom":6.0,"id":38679},"arcs":[264]},{"type":"LineString","properties":{"source":"naturalearthdata.com","kind":"major_road","kind_detail":"secondary","sort_rank":379,"landuse_kind":"urban_area","min_zoom":3.0,"id":38685},"arcs":[265]},{"type":"MultiLineString","properties":{"source":"naturalearthdata.com","kind":"major_road","sort_rank":379,"kind_detail":"secondary","min_zoom":3.0,"id":38685},"arcs":[[266],[267]]},{"type":"LineString","properties":{"source":"naturalearthdata.com","kind":"major_road","sort_rank":379,"kind_detail":"secondary","min_zoom":3.0,"id":38686},"arcs":[268]},{"type":"LineString","properties":{"source":"naturalearthdata.com","kind":"major_road","sort_rank":379,"kind_detail":"secondary","min_zoom":3.0,"id":38700},"arcs":[269]},{"type":"LineString","properties":{"source":"naturalearthdata.com","kind":"minor_road","sort_rank":355,"kind_detail":"tertiary","min_zoom":6.0,"id":38719},"arcs":[270]},{"type":"LineString","properties":{"source":"naturalearthdata.com","kind":"major_road","sort_rank":379,"kind_detail":"secondary","min_zoom":3.0,"id":38734},"arcs":[271]},{"type":"LineString","properties":{"source":"naturalearthdata.com","kind":"major_road","sort_rank":379,"kind_detail":"secondary","min_zoom":3.0,"id":38738},"arcs":[272]},{"type":"LineString","properties":{"source":"naturalearthdata.com","kind":"major_road","sort_rank":379,"kind_detail":"secondary","min_zoom":3.0,"id":38757},"arcs":[273]},{"type":"LineString","properties":{"source":"naturalearthdata.com","kind":"major_road","sort_rank":379,"kind_detail":"secondary","min_zoom":3.0,"id":38784},"arcs":[274]},{"type":"LineString","properties":{"source":"naturalearthdata.com","kind":"minor_road","sort_rank":355,"kind_detail":"tertiary","min_zoom":6.0,"id":38789},"arcs":[275]},{"type":"LineString","properties":{"source":"naturalearthdata.com","kind":"major_road","sort_rank":379,"kind_detail":"secondary","min_zoom":4.0,"id":38798},"arcs":[276]},{"type":"LineString","properties":{"source":"naturalearthdata.com","kind":"major_road","kind_detail":"secondary","sort_rank":379,"landuse_kind":"urban_area","min_zoom":3.0,"id":38799},"arcs":[277]},{"type":"MultiLineString","properties":{"source":"naturalearthdata.com","kind":"major_road","sort_rank":379,"kind_detail":"secondary","min_zoom":3.0,"id":38799},"arcs":[[278],[279]]},{"type":"LineString","properties":{"source":"naturalearthdata.com","kind":"major_road","sort_rank":379,"kind_detail":"secondary","min_zoom":3.0,"id":38804},"arcs":[280]},{"type":"LineString","properties":{"source":"naturalearthdata.com","kind":"minor_road","sort_rank":355,"kind_detail":"tertiary","min_zoom":6.0,"id":38807},"arcs":[281]},{"type":"LineString","properties":{"source":"naturalearthdata.com","kind":"minor_road","sort_rank":355,"kind_detail":"tertiary","min_zoom":6.0,"id":38808},"arcs":[282]},{"type":"LineString","properties":{"source":"naturalearthdata.com","kind":"minor_road","sort_rank":355,"kind_detail":"tertiary","min_zoom":6.0,"id":38823},"arcs":[283]},{"type":"LineString","properties":{"source":"naturalearthdata.com","kind":"minor_road","sort_rank":355,"kind_detail":"tertiary","min_zoom":6.0,"id":38877},"arcs":[284]},{"type":"LineString","properties":{"source":"naturalearthdata.com","kind":"minor_road","sort_rank":355,"kind_detail":"tertiary","min_zoom":6.0,"id":38921},"arcs":[285]},{"type":"LineString","properties":{"source":"naturalearthdata.com","kind":"major_road","kind_detail":"secondary","sort_rank":379,"landuse_kind":"urban_area","min_zoom":3.0,"id":38929},"arcs":[286]},{"type":"LineString","properties":{"source":"naturalearthdata.com","kind":"major_road","sort_rank":379,"kind_detail":"secondary","min_zoom":3.0,"id":38929},"arcs":[287]},{"type":"LineString","properties":{"source":"naturalearthdata.com","kind":"minor_road","sort_rank":355,"kind_detail":"tertiary","min_zoom":6.0,"id":38943},"arcs":[288]},{"type":"MultiLineString","properties":{"source":"naturalearthdata.com","kind":"major_road","kind_detail":"secondary","sort_rank":379,"landuse_kind":"urban_area","min_zoom":4.0,"id":38959},"arcs":[[289],[290]]},{"type":"MultiLineString","properties":{"source":"naturalearthdata.com","kind":"major_road","sort_rank":379,"kind_detail":"secondary","min_zoom":4.0,"id":38959},"arcs":[[291],[292]]},{"type":"LineString","properties":{"source":"naturalearthdata.com","kind":"minor_road","kind_detail":"tertiary","sort_rank":355,"landuse_kind":"urban_area","min_zoom":6.0,"id":38979},"arcs":[293]},{"type":"LineString","properties":{"source":"naturalearthdata.com","kind":"minor_road","sort_rank":355,"kind_detail":"tertiary","min_zoom":6.0,"id":38979},"arcs":[294]},{"type":"LineString","properties":{"source":"naturalearthdata.com","kind":"major_road","kind_detail":"secondary","sort_rank":379,"landuse_kind":"urban_area","min_zoom":3.0,"id":39257},"arcs":[295]},{"type":"LineString","properties":{"source":"naturalearthdata.com","kind":"major_road","sort_rank":379,"kind_detail":"secondary","min_zoom":3.0,"id":39257},"arcs":[296]},{"type":"LineString","properties":{"source":"naturalearthdata.com","kind":"major_road","kind_detail":"secondary","sort_rank":379,"landuse_kind":"urban_area","min_zoom":3.0,"id":39425},"arcs":[297]},{"type":"LineString","properties":{"source":"naturalearthdata.com","kind":"major_road","sort_rank":379,"kind_detail":"secondary","min_zoom":3.0,"id":39425},"arcs":[298]},{"type":"LineString","properties":{"source":"naturalearthdata.com","kind":"major_road","kind_detail":"secondary","sort_rank":379,"landuse_kind":"urban_area","min_zoom":4.0,"id":39482},"arcs":[299]},{"type":"LineString","properties":{"source":"naturalearthdata.com","kind":"major_road","sort_rank":379,"kind_detail":"secondary","min_zoom":4.0,"id":39482},"arcs":[300]},{"type":"LineString","properties":{"source":"naturalearthdata.com","kind":"major_road","kind_detail":"secondary","sort_rank":379,"landuse_kind":"urban_area","min_zoom":3.0,"id":39483},"arcs":[301]},{"type":"LineString","properties":{"source":"naturalearthdata.com","kind":"major_road","sort_rank":379,"kind_detail":"secondary","min_zoom":3.0,"id":39483},"arcs":[302]},{"type":"LineString","properties":{"source":"naturalearthdata.com","kind":"major_road","sort_rank":379,"kind_detail":"secondary","min_zoom":3.0,"id":39529},"arcs":[303]},{"type":"LineString","properties":{"source":"naturalearthdata.com","kind":"minor_road","sort_rank":355,"kind_detail":"tertiary","min_zoom":6.0,"id":39548},"arcs":[304]},{"type":"LineString","properties":{"source":"naturalearthdata.com","kind":"major_road","sort_rank":379,"kind_detail":"secondary","min_zoom":3.0,"id":39605},"arcs":[305]},{"type":"LineString","properties":{"source":"naturalearthdata.com","kind":"minor_road","sort_rank":355,"kind_detail":"tertiary","min_zoom":6.0,"id":39626},"arcs":[306]},{"type":"LineString","properties":{"source":"naturalearthdata.com","kind":"minor_road","sort_rank":355,"kind_detail":"tertiary","min_zoom":6.0,"id":39642},"arcs":[307]},{"type":"LineString","properties":{"source":"naturalearthdata.com","kind":"major_road","sort_rank":379,"kind_detail":"secondary","min_zoom":3.0,"id":39663},"arcs":[308]},{"type":"LineString","properties":{"source":"naturalearthdata.com","kind":"major_road","sort_rank":379,"kind_detail":"secondary","min_zoom":3.0,"id":39809},"arcs":[309]},{"type":"LineString","properties":{"source":"naturalearthdata.com","kind":"minor_road","sort_rank":355,"kind_detail":"tertiary","min_zoom":6.0,"id":39810},"arcs":[310]},{"type":"LineString","properties":{"source":"naturalearthdata.com","kind":"major_road","kind_detail":"secondary","sort_rank":379,"landuse_kind":"urban_area","min_zoom":3.0,"id":39816},"arcs":[311]},{"type":"LineString","properties":{"source":"naturalearthdata.com","kind":"major_road","sort_rank":379,"kind_detail":"secondary","min_zoom":3.0,"id":39816},"arcs":[312]},{"type":"LineString","properties":{"source":"naturalearthdata.com","kind":"major_road","sort_rank":379,"kind_detail":"secondary","min_zoom":3.0,"id":39833},"arcs":[313]},{"type":"LineString","properties":{"source":"naturalearthdata.com","kind":"major_road","kind_detail":"secondary","sort_rank":379,"landuse_kind":"urban_area","min_zoom":3.0,"id":39841},"arcs":[314]},{"type":"LineString","properties":{"source":"naturalearthdata.com","kind":"major_road","sort_rank":379,"kind_detail":"secondary","min_zoom":3.0,"id":39841},"arcs":[315]},{"type":"LineString","properties":{"source":"naturalearthdata.com","kind":"major_road","kind_detail":"secondary","sort_rank":379,"landuse_kind":"urban_area","min_zoom":3.0,"id":39842},"arcs":[316]},{"type":"MultiLineString","properties":{"source":"naturalearthdata.com","kind":"major_road","sort_rank":379,"kind_detail":"secondary","min_zoom":3.0,"id":39842},"arcs":[[317],[318]]},{"type":"LineString","properties":{"source":"naturalearthdata.com","kind":"highway","kind_detail":"motorway","sort_rank":383,"landuse_kind":"urban_area","min_zoom":3.0,"id":39869},"arcs":[319]},{"type":"LineString","properties":{"source":"naturalearthdata.com","kind":"major_road","kind_detail":"secondary","sort_rank":379,"landuse_kind":"urban_area","min_zoom":3.0,"id":39871},"arcs":[320]},{"type":"LineString","properties":{"source":"naturalearthdata.com","kind":"major_road","sort_rank":379,"kind_detail":"secondary","min_zoom":3.0,"id":39871},"arcs":[321]},{"type":"LineString","properties":{"source":"naturalearthdata.com","kind":"major_road","sort_rank":379,"kind_detail":"secondary","min_zoom":3.0,"id":39877},"arcs":[322]},{"type":"LineString","properties":{"source":"naturalearthdata.com","kind":"major_road","kind_detail":"secondary","sort_rank":379,"landuse_kind":"urban_area","min_zoom":3.0,"id":39878},"arcs":[323]},{"type":"LineString","properties":{"source":"naturalearthdata.com","kind":"major_road","sort_rank":379,"kind_detail":"secondary","min_zoom":3.0,"id":39878},"arcs":[324]},{"type":"LineString","properties":{"source":"naturalearthdata.com","kind":"major_road","kind_detail":"secondary","sort_rank":379,"landuse_kind":"urban_area","min_zoom":3.0,"id":39901},"arcs":[325]},{"type":"LineString","properties":{"source":"naturalearthdata.com","kind":"major_road","kind_detail":"secondary","sort_rank":379,"landuse_kind":"urban_area","min_zoom":3.0,"id":39901},"arcs":[326]},{"type":"MultiLineString","properties":{"source":"naturalearthdata.com","kind":"major_road","sort_rank":379,"kind_detail":"secondary","min_zoom":3.0,"id":39901},"arcs":[[327],[328]]},{"type":"LineString","properties":{"source":"naturalearthdata.com","kind":"major_road","sort_rank":379,"kind_detail":"secondary","min_zoom":3.0,"id":39904},"arcs":[329]},{"type":"LineString","properties":{"source":"naturalearthdata.com","kind":"major_road","kind_detail":"secondary","sort_rank":379,"landuse_kind":"urban_area","min_zoom":3.0,"id":39925},"arcs":[330]},{"type":"LineString","properties":{"source":"naturalearthdata.com","kind":"major_road","sort_rank":379,"kind_detail":"secondary","min_zoom":3.0,"id":39925},"arcs":[331]},{"type":"LineString","properties":{"source":"naturalearthdata.com","kind":"major_road","kind_detail":"secondary","sort_rank":379,"landuse_kind":"urban_area","min_zoom":3.0,"id":39926},"arcs":[332]},{"type":"LineString","properties":{"source":"naturalearthdata.com","kind":"major_road","sort_rank":379,"kind_detail":"secondary","min_zoom":3.0,"id":39926},"arcs":[333]},{"type":"LineString","properties":{"source":"naturalearthdata.com","kind":"major_road","kind_detail":"secondary","sort_rank":379,"landuse_kind":"urban_area","min_zoom":3.0,"id":39929},"arcs":[334]},{"type":"MultiLineString","properties":{"source":"naturalearthdata.com","kind":"major_road","sort_rank":379,"kind_detail":"secondary","min_zoom":3.0,"id":39929},"arcs":[[335],[336]]},{"type":"LineString","properties":{"source":"naturalearthdata.com","kind":"highway","kind_detail":"motorway","sort_rank":383,"landuse_kind":"urban_area","min_zoom":3.0,"id":39957},"arcs":[337]},{"type":"LineString","properties":{"source":"naturalearthdata.com","kind":"highway","sort_rank":383,"kind_detail":"motorway","min_zoom":3.0,"id":39957},"arcs":[338]},{"type":"LineString","properties":{"source":"naturalearthdata.com","kind":"major_road","sort_rank":379,"kind_detail":"secondary","min_zoom":3.0,"id":39977},"arcs":[339]},{"type":"LineString","properties":{"source":"naturalearthdata.com","kind":"major_road","kind_detail":"secondary","sort_rank":379,"landuse_kind":"urban_area","min_zoom":4.0,"id":40011},"arcs":[340]},{"type":"LineString","properties":{"source":"naturalearthdata.com","kind":"major_road","sort_rank":379,"kind_detail":"secondary","min_zoom":4.0,"id":40011},"arcs":[341]},{"type":"LineString","properties":{"source":"naturalearthdata.com","kind":"highway","sort_rank":383,"kind_detail":"motorway","min_zoom":3.0,"id":40015},"arcs":[342]},{"type":"LineString","properties":{"source":"naturalearthdata.com","kind":"major_road","sort_rank":379,"kind_detail":"secondary","min_zoom":4.0,"id":40018},"arcs":[343]},{"type":"LineString","properties":{"source":"naturalearthdata.com","kind":"highway","kind_detail":"motorway","sort_rank":383,"landuse_kind":"urban_area","min_zoom":5.0,"id":40029},"arcs":[344]},{"type":"LineString","properties":{"source":"naturalearthdata.com","kind":"highway","kind_detail":"motorway","sort_rank":383,"landuse_kind":"urban_area","min_zoom":5.0,"id":40029},"arcs":[345]},{"type":"MultiLineString","properties":{"source":"naturalearthdata.com","kind":"highway","sort_rank":383,"kind_detail":"motorway","min_zoom":5.0,"id":40029},"arcs":[[346],[347]]},{"type":"LineString","properties":{"source":"naturalearthdata.com","kind":"major_road","sort_rank":379,"kind_detail":"secondary","min_zoom":3.0,"id":40036},"arcs":[348]},{"type":"LineString","properties":{"source":"naturalearthdata.com","kind":"highway","sort_rank":383,"kind_detail":"motorway","min_zoom":3.0,"id":40041},"arcs":[349]},{"type":"LineString","properties":{"source":"naturalearthdata.com","kind":"major_road","sort_rank":379,"kind_detail":"secondary","min_zoom":3.0,"id":40056},"arcs":[350]},{"type":"LineString","properties":{"source":"naturalearthdata.com","kind":"major_road","kind_detail":"secondary","sort_rank":379,"landuse_kind":"urban_area","min_zoom":4.0,"id":40076},"arcs":[351]},{"type":"MultiLineString","properties":{"source":"naturalearthdata.com","kind":"major_road","sort_rank":379,"kind_detail":"secondary","min_zoom":4.0,"id":40076},"arcs":[[352],[353]]},{"type":"LineString","properties":{"source":"naturalearthdata.com","kind":"major_road","sort_rank":379,"kind_detail":"secondary","min_zoom":4.0,"id":40086},"arcs":[354]},{"type":"LineString","properties":{"source":"naturalearthdata.com","kind":"major_road","sort_rank":379,"kind_detail":"secondary","min_zoom":3.0,"id":40087},"arcs":[355]},{"type":"LineString","properties":{"source":"naturalearthdata.com","kind":"major_road","kind_detail":"secondary","sort_rank":379,"landuse_kind":"urban_area","min_zoom":4.0,"id":40106},"arcs":[356]},{"type":"LineString","properties":{"source":"naturalearthdata.com","kind":"major_road","sort_rank":379,"kind_detail":"secondary","min_zoom":4.0,"id":40106},"arcs":[357]},{"type":"LineString","properties":{"source":"naturalearthdata.com","kind":"major_road","sort_rank":379,"kind_detail":"secondary","min_zoom":3.0,"id":40122},"arcs":[358]},{"type":"LineString","properties":{"source":"naturalearthdata.com","kind":"highway","sort_rank":383,"kind_detail":"motorway","min_zoom":5.0,"id":40127},"arcs":[359]},{"type":"LineString","properties":{"source":"naturalearthdata.com","kind":"highway","sort_rank":383,"kind_detail":"motorway","min_zoom":3.0,"id":40139},"arcs":[360]},{"type":"LineString","properties":{"source":"naturalearthdata.com","kind":"major_road","sort_rank":379,"kind_detail":"secondary","min_zoom":4.0,"id":40144},"arcs":[361]}]},"earth":{"type":"GeometryCollection","geometries":[{"type":"MultiPolygon","properties":{"sort_rank":10,"source":"naturalearthdata.com","min_zoom":0.0,"kind":"earth","area":924430277350},"arcs":[[[362]]]}]},"landuse":{"type":"GeometryCollection","geometries":[{"type":"MultiPolygon","properties":{"source":"openstreetmap.org","kind":"park","tier":2,"area":3038380466,"sort_rank":24,"min_zoom":4.0},"arcs":[[[363]]]},{"type":"MultiPolygon","properties":{"source":"openstreetmap.org","kind":"park","tier":2,"area":3385078710,"sort_rank":24,"min_zoom":6.0,"osm_relation":true},"arcs":[[[364],[365],[366]]]},{"type":"MultiPolygon","properties":{"source":"naturalearthdata.com","kind":"urban_area","name":"","area":11850972521,"sort_rank":11,"min_zoom":4.0},"arcs":[[[367]],[[368]],[[369]],[[370]],[[371]],[[372]],[[373]],[[374]],[[375]],[[376]],[[377]],[[378]],[[379]],[[380]],[[381]],[[382]],[[383]],[[384]],[[385]],[[386]],[[387]],[[388]],[[389]],[[390]],[[391]],[[392]],[[393]],[[394]],[[395]],[[396]],[[397]],[[398]],[[399]],[[400]],[[401]],[[402]],[[403]],[[404]],[[405]],[[406]],[[407]],[[408]],[[409]],[[410]],[[411]],[[412]],[[413]],[[414]],[[415]],[[416]],[[417]],[[418]],[[419]],[[420]],[[421]],[[422]],[[423]],[[424]],[[425]]]},{"type":"MultiPolygon","properties":{"source":"openstreetmap.org","kind":"park","tier":2,"area":5594946617,"sort_rank":24,"min_zoom":4.0,"osm_relation":true},"arcs":[[[426],[427]]]},{"type":"MultiPolygon","properties":{"source":"openstreetmap.org","kind":"nature_reserve","tier":2,"area":3200489209,"sort_rank":23,"min_zoom":6.0,"osm_relation":true},"arcs":[[[428],[429],[430]]]}]}},"type":"Topology","transform":{"translate":[5.625,5.6159858192],"scale":[0.001373291,0.0013580117]},"arcs":[[[4096,600],[-1,0],[-8,5],[-4,2],[-22,-3],[-45,-4],[-19,2],[-12,11],[-15,36],[-12,56],[-2,29],[1,29],[-2,36],[-14,29],[-25,20],[-68,12],[-23,24],[-15,32],[-7,33],[-11,30],[-24,16],[-60,23],[-51,27],[-19,6],[-13,11],[-4,36],[-14,17],[-10,-20],[-9,-27],[-7,-28],[-4,-56],[-3,-3],[-4,-1],[-5,-3],[-9,-12],[-6,-10],[-3,-12],[0,-16],[-188,-3],[-20,6],[-15,12],[-8,15],[-10,54],[-6,12],[-10,2],[-17,-10],[-179,-152],[-17,-7],[-14,4],[-14,7],[-17,1],[-14,-15],[-55,-177],[-1,-2],[-9,-7],[-26,0],[-9,0],[-21,-5],[-11,-9],[-17,-33],[-12,-11],[-14,-7],[-30,-11],[-4,-2],[-21,-13],[-22,-43],[-21,-13],[-11,0],[-9,0],[-9,0],[-10,-6],[-10,-11],[-21,-45],[-18,-26],[-100,-81],[-67,-71],[-16,-22],[-9,-10],[-12,-6],[-4,-5],[-1,-21],[-3,-10],[-13,-2],[-16,6],[-15,2],[-13,-12],[-10,-12],[-25,-18],[-8,-12],[1,-15],[8,-11],[6,-13],[-3,-19],[-13,-15],[-12,-10],[-6,-11],[10,-18],[14,-15],[16,-12],[14,-15],[2,-4]],[[4051,497],[6,17],[8,32],[1,20],[-5,38]],[[3200,0],[32,28],[32,12],[3,8],[1,6],[-13,29]],[[1394,2751],[27,-10],[13,-25]],[[1356,2707],[15,12],[23,32]],[[1434,2716],[23,5]],[[1297,2718],[20,0],[20,-3],[19,-8]],[[1228,2711],[69,7]],[[1125,2565],[-4,-1]],[[3980,456],[9,1],[11,1],[13,6],[10,5],[28,28]],[[3922,463],[58,-7]],[[3796,288],[12,17],[16,3],[33,11],[34,18],[8,7],[7,9],[5,11],[11,47],[-5,35],[5,17]],[[3713,306],[51,-10],[32,-8]],[[3602,159],[16,6],[6,4],[31,49],[28,69],[3,8],[5,5],[12,4],[10,2]],[[3563,162],[39,-3]],[[3395,79],[9,7],[6,7],[12,45],[128,24],[13,0]],[[3314,122],[11,-1],[35,-10],[8,-3],[6,-6],[5,-7],[4,-8],[5,-6],[7,-2]],[[3255,83],[45,35],[6,3],[8,1]],[[4096,486],[-45,11]],[[3020,378],[7,3],[6,8],[4,13],[-1,23],[5,16],[3,38],[-35,114],[-8,15],[-9,30],[-18,29],[-11,9]],[[3005,382],[7,-3],[8,-1]],[[2966,167],[-17,5],[-18,25],[-8,8],[-8,4],[-8,4],[-6,6],[-3,10],[8,37],[-7,10],[-5,5],[-1,1],[-1,1],[-1,2],[-2,5],[3,10],[9,12],[72,44],[17,22],[15,4]],[[3127,86],[-45,22],[-43,13],[-22,11],[-9,9],[-6,9],[-6,13],[-4,5],[-7,3]],[[2985,171],[-19,-4]],[[3255,83],[-22,8],[-37,8],[-27,10]],[[3169,109],[-42,-23]],[[4096,79],[-1,0],[-5,-14],[-6,-6],[-17,-9],[6,-10],[-5,-12],[-10,-12],[-5,-11],[1,-5]],[[760,58],[-24,1],[-22,20]],[[1649,0],[3,21],[-12,34]],[[1909,296],[12,19],[13,56],[14,22],[17,21],[41,42],[6,50],[-14,22],[6,24],[45,26],[-3,23],[-15,20],[-7,20],[-4,23],[-12,14],[-2,8],[-6,8],[-10,6],[-10,8],[-27,32],[-11,40]],[[1868,305],[20,0],[21,-9]],[[1782,246],[19,1],[13,12],[34,16],[11,15],[9,15]],[[1740,287],[28,-8],[14,-33]],[[1640,55],[3,18],[7,17],[12,14],[9,15],[-3,17],[1,17],[10,10],[26,40],[9,33],[-12,23],[9,18],[29,10]],[[714,79],[3,31],[5,20],[7,19],[14,25],[29,39],[3,7],[1,7],[-1,12],[0,7],[10,37],[-3,39],[3,17],[15,11],[9,4],[8,4],[5,5],[3,10],[2,33],[-1,10],[-4,10],[-9,18],[-4,11],[-2,28],[-13,36],[-5,41],[-20,72],[-3,21],[0,24]],[[766,677],[-23,-28],[-21,-7]],[[722,642],[-25,5]],[[697,647],[-26,-1],[-44,-19],[-89,-54],[-69,-28],[-19,-12],[-30,-39]],[[420,494],[-21,1],[-15,24],[-18,19],[-25,2]],[[341,540],[-17,-16],[-10,-21],[-2,-26],[23,-41],[2,-25],[9,-29],[22,-37],[44,-41],[13,-3],[10,-8],[0,-29],[-8,-28],[-31,-35],[-40,-31],[-30,-35],[-37,-28],[-72,-15],[-13,0]],[[204,92],[-12,4],[-1,12],[3,8],[-4,9],[-8,7],[-3,8],[15,26],[3,27],[-20,16],[-24,13],[-40,44],[-85,46]],[[28,312],[-28,-1]],[[3863,2936],[50,-12]],[[3594,2858],[39,25],[92,2],[90,43],[48,8]],[[3913,2924],[51,0]],[[3594,2858],[16,-36],[5,-39],[-6,-47],[8,-55],[6,-22],[12,-20],[21,-70],[0,-21],[-5,-23],[9,-45],[1,-29],[-25,-47],[-115,-57],[-169,-42],[-35,-42],[-16,-26],[-39,-46],[-20,-18],[-52,-29],[-48,-34],[-42,-43],[-47,-37],[-53,-15],[-55,-4]],[[2945,2011],[-39,3]],[[2906,2014],[-20,-32],[-30,-19],[-20,-1]],[[2836,1962],[-21,3],[-22,7],[-20,3],[-17,9],[-36,12]],[[2720,1996],[-18,-7],[-12,-16],[-8,-20],[-3,-22],[39,-49],[2,-38],[-1,-13],[5,-13],[3,-20],[-15,-13],[-106,-71],[-25,-21]],[[3812,4096],[-35,-47],[-24,-18],[-55,-17],[-22,-19],[-22,-55],[-25,-86],[-11,-28],[-38,-53],[-2,-21],[78,-33],[23,-51],[8,-58],[51,-24],[47,-30],[15,-44],[-1,-102],[3,-22],[-2,-22],[-83,-42],[-4,-24],[30,-43],[150,-111],[22,-49],[5,-47],[12,-46],[20,-42],[17,-21],[-5,-17]],[[4096,2920],[-55,-3]],[[4041,2917],[-77,7]],[[1888,866],[14,-2],[8,-12],[6,-28],[9,-25],[17,-19]],[[1877,846],[8,12],[3,8]],[[1860,846],[17,0]],[[1678,665],[32,44],[7,62],[11,24],[31,4],[29,0],[28,7],[27,37],[17,3]],[[1604,747],[24,-51],[50,-31]],[[1361,1074],[7,-30],[28,-58],[20,-25],[24,-23],[28,-20],[27,-14]],[[1573,931],[30,-15],[18,-29],[8,-36],[0,-35],[-25,-69]],[[1495,904],[30,4],[21,16],[27,7]],[[1595,1335],[-23,13],[-9,28],[-11,88],[2,85],[-4,27],[-14,26],[-21,22],[-22,32],[-9,37],[-2,39],[4,42]],[[1443,1024],[20,6],[2,33],[12,29],[96,53],[31,51],[13,59],[1,23],[9,22],[14,26],[-18,12]],[[1623,1338],[-28,-3]],[[1361,1074],[28,-14],[31,-26],[23,-10]],[[2136,1854],[147,-50],[53,-11],[80,-3]],[[2034,1590],[9,12],[-4,26],[-35,75],[-17,53],[12,52],[41,35],[96,11]],[[2442,1796],[139,-103]],[[2416,1790],[26,2],[0,4]],[[1486,1774],[37,-9],[47,-5],[35,-12],[25,-6],[51,-6],[25,-7],[37,-21],[12,-5],[61,-11],[20,-7],[39,-20],[23,-7],[24,-3],[21,-6],[17,-18],[33,-19],[18,-14],[9,-4],[9,-3],[5,-1]],[[2236,939],[50,-4],[53,-19],[87,-51],[18,-38],[-7,-44],[14,-13],[20,-4]],[[2087,827],[32,1],[31,8],[24,13],[13,21],[-7,28],[9,23],[47,18]],[[2029,832],[29,0],[29,-5]],[[1942,780],[24,3],[22,12],[19,21],[22,16]],[[2627,789],[64,-33],[87,-104],[21,-38],[14,-23]],[[2471,766],[41,1],[115,22]],[[2581,1693],[-40,-60],[8,-17]],[[2762,1652],[112,-13],[82,-57],[65,-82],[75,-67],[32,-85],[-29,-88],[-4,-87],[-33,-30],[-36,-26],[-30,-37],[-22,-43],[-24,-128],[3,-47],[-9,-124],[-17,-70],[0,-1]],[[2549,1616],[23,5],[50,23],[28,5],[112,3]],[[760,58],[-8,-26],[-7,-32]],[[985,2059],[-6,-1]],[[1344,2226],[-25,-41],[-32,-36],[-94,-46],[-103,-28],[-105,-16]],[[1407,2535],[3,-72],[-34,-149],[-32,-88]],[[1407,2535],[2,46],[17,79],[13,24],[8,2],[9,6],[3,14],[-2,15]],[[979,2058],[-26,-4]],[[953,2054],[-27,3]],[[926,2057],[-45,-2]],[[1266,298],[-49,-26],[-34,-44]],[[1390,263],[1,-43],[-7,-47],[44,-22],[105,-2],[40,-18],[5,-26],[12,-22],[23,-18],[27,-10]],[[2343,3483],[43,-12],[26,-32],[14,-40],[4,-36],[-1,-118],[27,-18]],[[2301,3475],[42,8]],[[2540,3242],[47,-17],[15,-50],[3,-60],[-5,-23],[-13,-19],[-10,-22],[-3,-22],[17,-18],[27,-8],[32,-38],[25,-44],[46,-15],[102,-19]],[[2456,3227],[84,15]],[[3093,3108],[357,-166],[121,-75],[23,-9]],[[2823,2887],[116,6],[28,6],[26,11],[22,45],[18,16],[48,18],[7,24],[-10,26],[-28,40],[9,17],[11,7],[23,5]],[[1342,299],[48,-36]],[[1272,292],[35,6],[35,1]],[[1266,298],[5,-3],[1,-3]],[[933,854],[6,-20],[-1,-24],[10,-4]],[[987,807],[42,-18],[23,-5],[22,-10],[-3,-49],[-40,-44],[-20,-56],[6,-18],[11,-5],[24,-5],[11,-6],[15,-20],[24,-54],[4,-6],[2,-8],[-5,-6],[-5,-2],[0,-14],[-1,-13],[-3,-10],[6,-8]],[[948,806],[39,1]],[[1122,460],[12,-7],[3,-18],[17,-13],[-4,-26],[9,-21],[12,-20],[7,-23],[16,-19],[21,-3]],[[1100,450],[11,2],[11,8]],[[1234,316],[8,-1],[13,-8],[4,-7],[7,-2]],[[1215,310],[19,6]],[[1555,742],[49,5]],[[1531,744],[24,-2]],[[1486,230],[20,10],[-8,39],[5,37],[17,19],[15,22],[-2,22],[-5,23],[-1,23],[-9,31],[-1,10],[-13,19],[32,98],[1,52],[-29,94],[23,15]],[[1426,274],[19,-9],[15,-11],[26,-24]],[[1390,263],[36,11]],[[9,1771],[13,-2],[11,-8],[-1,-17],[-16,-9],[-16,-20]],[[0,1645],[24,-21]],[[0,1770],[9,1]],[[34,1624],[12,-10],[57,-28],[33,-10]],[[24,1624],[10,0]],[[933,854],[-50,-47],[-17,-35],[-16,-72],[-24,-24],[-18,-3]],[[808,673],[-20,4],[-16,1]],[[772,678],[-6,-1]],[[306,1435],[-12,6]],[[369,1333],[-18,25],[8,33],[-5,16],[-24,8],[3,15],[-12,8]],[[321,1438],[-15,-3]],[[545,1297],[-16,1],[-21,24],[-24,16],[-11,10],[-8,12]],[[465,1360],[-14,-3],[-14,-9],[-34,-14],[-34,-1]],[[645,1204],[-9,14],[-3,14],[-10,13],[-16,41],[-19,16],[-15,2]],[[573,1304],[-28,-7]],[[766,677],[0,10],[-2,11],[-14,42],[-3,31],[3,94],[-4,39],[1,12],[8,29],[19,41],[1,7],[0,32],[0,8],[7,17],[3,38],[9,27],[3,14],[-1,14],[-2,7],[-12,25],[-1,6],[-19,6],[-10,6],[-2,13],[-8,10],[-11,9]],[[731,1225],[-20,-2],[-29,-12],[-37,-7]],[[1361,1074],[-24,22],[-36,3]],[[1301,1099],[-27,-14],[-23,-19],[-23,-8],[-13,-12],[-42,-55],[-36,-34],[-61,-42],[-27,-34],[-32,-25]],[[1017,856],[-19,8],[-11,17],[-5,5],[-4,10],[0,7],[-2,6]],[[976,909],[-24,-16],[-19,-39]],[[2210,2643],[42,-21],[36,-26],[11,-51],[35,-36],[48,-9]],[[2478,2514],[20,-13],[13,-17],[-4,-21],[-11,-25],[-30,-42],[-17,-17],[-27,-9],[-17,-26],[-19,-22],[-12,-31],[14,-35],[18,-25],[5,-31],[-5,-35],[16,-31],[61,-32],[44,-12],[69,0]],[[2382,2500],[49,1],[13,2],[11,5],[23,6]],[[2709,2115],[45,-1],[86,-37],[39,-24],[27,-39]],[[2596,2090],[67,11],[46,14]],[[985,2059],[-6,-25],[-18,-48],[35,-63],[3,-48],[-11,-108],[-9,-23],[-13,-21],[-8,-29],[-2,-31],[6,-2]],[[1234,1779],[128,-11]],[[962,1661],[18,8],[25,15],[14,13],[5,3],[1,4],[37,22],[147,50],[25,3]],[[1465,1778],[12,-1],[9,-3]],[[1362,1768],[103,10]],[[2301,3475],[-15,18],[-18,16],[-21,12],[-10,19],[24,44],[8,49]],[[2301,3475],[-7,-21],[-3,-25],[-18,-23],[-27,-12],[-36,-41],[-13,-55],[19,-56],[-29,-96],[0,-57],[-4,-28],[6,-25],[-30,-42],[0,-12],[-2,-13],[-21,-16],[1,-104],[29,-44],[35,-36],[27,-39],[-3,-45],[-15,-42]],[[1694,2747],[23,-22],[7,-17],[-1,-19],[24,-19],[29,-17],[7,-86],[19,-71]],[[1596,2676],[25,12],[28,52],[45,7]],[[1477,2730],[11,-19],[18,-9]],[[1457,2721],[20,9]],[[1529,2704],[18,-15],[12,-2],[12,0],[25,-11]],[[1506,2702],[23,2]],[[2082,2491],[28,4],[31,31],[23,41],[19,44],[27,32]],[[1921,2605],[24,-10],[65,-17],[30,-39],[14,-13],[10,-17],[18,-18]],[[1802,2496],[58,31],[42,59],[19,19]],[[2269,3633],[34,36],[20,48],[-5,51],[-33,40],[-21,56],[-2,61],[4,55],[22,47],[44,3],[26,12],[20,21],[22,33]],[[2058,4096],[66,-71],[15,-102],[-14,-57],[11,-88],[-11,-28],[-30,-7],[-16,-21],[40,-33],[59,-7],[32,-38],[14,-7],[30,-8]],[[2254,3629],[15,4]],[[1293,0],[0,7],[-5,19],[-9,14],[7,10],[7,34],[-9,82],[-28,26],[-21,4],[-36,19],[-16,13]],[[1183,228],[-30,-6],[-30,-10]],[[1123,212],[-66,14]],[[1057,226],[-33,-3],[-33,-8],[-27,-17],[-10,-32],[-29,-58],[-28,-9]],[[897,99],[-32,14]],[[865,113],[-56,-16],[-49,-39]],[[136,1576],[-13,-21],[-18,-7]],[[105,1548],[-20,9]],[[85,1557],[-19,-11],[-7,-13],[-9,-12],[-19,-11],[-31,-33]],[[294,1441],[-14,-22],[-16,-20],[-9,-4],[-20,-5],[-10,-8],[-6,-26],[21,-14],[4,-13],[-8,-16],[3,-23],[4,-10],[2,-17],[-6,-24],[-10,-10],[-12,-8],[-18,-16],[-16,-18],[-1,-10],[2,-7],[-33,-77],[-4,-18],[-10,-13],[-20,-20],[-9,-27],[-2,-25],[11,-23],[3,-9],[-4,-6],[-3,-2],[-3,-5],[0,-11],[-16,-4],[-7,-19],[-8,-47],[-4,-10],[-10,-17],[-8,-6],[-13,-4]],[[44,827],[-23,5],[-9,9],[-12,1]],[[294,1441],[-46,50],[-36,57],[5,29],[-23,9]],[[194,1586],[-58,-10]],[[697,0],[17,79]],[[808,4096],[-7,-37],[-8,-16],[-9,-12],[-11,-10],[-13,-8],[-61,-23],[-7,-4],[-6,-1]],[[618,3972],[-16,0],[-16,3],[-48,17],[-15,2]],[[523,3994],[-15,-6],[-9,-10],[-13,-28],[-9,-11],[-7,-5],[-18,-6],[-7,-5],[-6,-10],[-1,-9],[0,-10],[-3,-10],[-11,-9],[-33,-11]],[[686,3985],[-12,1]],[[674,3986],[-8,-1],[-48,-13]],[[312,2031],[24,5],[15,17],[7,22],[12,76],[29,102],[31,40]],[[0,2093],[59,-22],[72,-17],[101,-5],[80,-18]],[[1137,4047],[-24,3],[-38,40],[-11,6]],[[1178,4096],[1,-17],[-18,-19],[-24,-13]],[[3468,4096],[2,-1],[-3,-23],[-18,-21],[-25,-15],[-81,-32],[-15,-49],[8,-27],[-19,-12]],[[3148,3931],[-42,17],[-17,40],[7,48],[0,47],[-5,13]],[[3317,3916],[-29,10],[-25,13]],[[3263,3939],[-115,-8]],[[290,4096],[3,-49]],[[777,1908],[-3,5],[-10,9],[-1,4],[-9,5],[-27,29],[-29,46],[-8,10],[-72,54],[-6,3],[-17,35],[-9,35],[-2,22],[-1,6],[-3,6],[-4,1],[-2,6],[-11,23],[-2,6],[0,14],[-18,30],[-9,10],[-12,6],[-15,2],[-27,18],[-5,5],[-13,1]],[[462,2299],[-32,-6]],[[881,2055],[-10,-29],[-21,-21],[-15,-5],[-12,-12],[2,-16],[-4,-12]],[[821,1960],[-10,6]],[[811,1966],[-9,-7],[-8,-19],[-5,-19],[-12,-13]],[[400,3494],[-13,25],[-18,22],[-23,18],[-5,25],[3,14],[4,9],[1,10],[1,20],[2,9],[10,25],[3,16],[1,9],[-1,9],[-12,37],[-2,19],[5,61],[6,19],[14,16],[15,7]],[[904,3610],[-12,3],[-5,60],[-6,14],[-23,9],[-26,2]],[[832,3698],[-23,-10],[3,-29],[-16,-12]],[[687,3622],[-23,4],[-10,23],[-19,13]],[[635,3662],[-51,-11],[-87,-67],[-38,-41],[-15,-24],[-19,-21],[-25,-4]],[[796,3647],[-28,5]],[[768,3652],[-28,-6],[-53,-24]],[[1061,3234],[-54,7],[-52,22],[-32,43],[17,20],[24,15],[19,24],[24,19],[24,16],[18,23],[1,25],[-21,15],[-53,19],[-15,16],[10,27],[-2,58],[-40,34]],[[929,3617],[-25,-7]],[[1192,2709],[-5,12],[8,22],[2,11],[-12,16],[-10,6],[-15,23],[6,27],[40,28],[4,15],[3,15],[7,12],[11,9],[16,19],[-4,23],[-22,11],[-11,19],[6,20],[-15,13],[-27,8],[-15,20],[16,12],[23,2],[19,15],[1,27],[-13,118],[-36,24]],[[1169,3236],[-108,-2]],[[1228,2711],[-18,4]],[[1210,2715],[-18,-6]],[[1228,2711],[-103,-146]],[[974,2663],[44,-14],[68,-66],[35,-19]],[[881,2055],[-33,4],[-18,31],[-4,13],[-7,526],[3,20],[18,9],[134,5]],[[293,4047],[31,-41],[56,-93],[11,-49]],[[129,2302],[-9,3],[-4,5],[-8,13],[-11,14],[-9,16],[-6,1],[-16,6],[-6,1],[-42,1],[-11,4],[-7,5]],[[390,2285],[-6,2],[-22,21],[-10,4],[-12,2]],[[340,2314],[-80,-1],[-17,-3],[-23,-11],[-9,-2]],[[211,2297],[-11,0],[-32,5]],[[168,2302],[-39,0]],[[430,2293],[-40,-8]],[[293,4047],[-23,14]],[[270,4061],[-25,-1],[-11,-9],[-18,-21],[-8,-11],[-19,-15],[-25,-2],[-25,-7],[-126,-53],[-13,-3]],[[1274,2515],[-60,19],[-5,30],[42,61],[-1,103],[99,223],[-4,91],[-41,43],[-4,118],[-50,125],[-6,253],[18,59]],[[1486,4089],[0,-11]],[[1485,4096],[1,-5],[0,-2]],[[1486,4078],[0,-8]],[[1486,4070],[34,-28]],[[3535,4096],[-6,-8],[-15,-24],[-18,-43],[-15,-55]],[[1520,4040],[3,-7],[-6,-2]],[[1517,4031],[-9,-4],[-18,-21],[-4,-12],[4,-22],[-16,-21],[0,-24],[3,-27],[0,-10],[-21,-18],[-21,-30],[-27,-27],[-9,-10],[-15,-27],[-9,-27]],[[1520,4042],[0,-2]],[[1270,3672],[-21,0],[-21,3],[-21,12],[-15,3],[-33,0],[-33,-12],[-15,3],[-39,12],[-27,3],[-21,6],[-30,-6],[-21,9],[-24,-6],[-18,3],[-9,15],[-9,0],[-21,-3],[-18,6],[-12,22],[-15,12],[-30,9],[-12,-3],[-51,0],[-30,-6],[-63,-49]],[[1360,3730],[-21,-28],[-9,-12],[-12,-30]],[[1375,3751],[-15,-21]],[[1287,3672],[4,0],[27,-12]],[[1270,3672],[17,0]],[[1318,3660],[-3,-16],[-3,-12],[3,-15]],[[1265,3658],[-1,-1],[0,-4]],[[1272,3616],[10,-11],[21,-12],[6,-15]],[[1264,3653],[0,-15],[3,-18],[5,-4]],[[1270,3672],[-5,-14]],[[3481,3966],[-15,-57],[-6,-16],[-21,-45],[-27,-46],[-15,-12],[-12,-9],[-15,-12],[-18,-21],[-12,-9],[-30,-61],[-16,-21],[-12,-10],[-15,0],[-57,-15],[-45,-9],[-21,-6],[-30,-18],[-21,-21],[-15,-3],[-12,-10],[-6,-18]],[[3069,3486],[0,-21],[-3,-6]],[[3060,3547],[3,-24],[6,-30],[0,-7]],[[4062,3427],[-21,2]],[[4041,3429],[-2,0]],[[4096,3428],[-12,-2],[-22,1]],[[3099,3443],[-21,7],[-6,-2]],[[3072,3448],[-6,-1]],[[3288,3408],[-36,12],[-39,6],[-51,-3],[-27,6],[-30,12],[-6,2]],[[4039,3429],[-24,3],[-42,-3],[-90,-9],[-36,12],[-42,21],[-21,6],[-30,6],[-15,3],[-18,-3],[-30,0],[-36,-3],[-63,-18],[-18,-6],[-54,-15],[-36,-6],[-39,-12],[-33,-4],[-21,-6],[-30,0],[-51,6],[-22,7]],[[408,3283],[9,27],[21,28],[6,12],[21,39],[6,16],[12,30],[21,33],[30,22],[18,30],[15,27],[19,37],[3,24],[18,39],[24,31],[30,27]],[[0,3489],[9,-15],[6,-18],[12,-18],[18,-6],[27,0],[36,3],[18,-3],[15,-9],[18,-3],[18,-28],[18,-18],[15,-9],[21,-3],[15,-21],[9,-3],[66,-12],[42,-10],[18,-6],[18,-15],[9,-12]],[[2400,3228],[-3,-3],[-10,-30],[-12,-21]],[[3066,3459],[-8,0]],[[3058,3459],[-28,0],[-24,-3],[-33,-24],[-15,-12],[-24,-15],[-24,-10],[-21,-3],[-42,-3],[-27,9],[-15,0],[-24,-9],[-24,0],[-15,-3],[-15,-12],[-21,-6],[-15,-6],[-21,-27],[-15,-16],[-24,-12],[-30,-9],[-45,-12],[-69,-21],[-24,-6],[-45,-18],[-18,-13]],[[4075,3140],[-12,19],[-3,15],[12,33],[-6,15],[0,28],[-12,18],[0,6],[6,18],[0,24],[-12,16],[-3,24],[-6,12],[0,24],[-3,25],[3,12]],[[2375,3174],[-6,-19],[-3,-18],[6,-12]],[[2372,3125],[6,-9],[1,-3]],[[2379,3113],[2,-9],[-15,-34],[0,-21],[-12,-27]],[[1309,3578],[-6,-13],[0,-17]],[[1303,3548],[0,-34],[-21,-31],[-42,-54],[-27,-34],[-3,-18],[6,-73],[0,-42],[-3,-18],[0,-46],[3,-39],[0,-37],[-6,-24],[-12,-31],[-6,-39],[-3,-67]],[[2372,3125],[-7,-6]],[[2365,3119],[-11,-9],[-15,-15],[-42,-31],[-54,-30],[-36,-18],[-57,-31],[-24,-3],[-60,-3],[-27,-15],[-36,-27],[-9,-3],[-24,3],[-30,-15]],[[2354,3022],[-15,-21],[-30,-16],[-21,-18],[-27,-15],[-12,-15],[-45,-37],[-24,-9],[-18,-21],[-12,-3],[-21,3],[-15,-3],[-3,-6]],[[4096,3097],[-12,7],[-6,27],[-3,9]],[[1946,2916],[-48,0],[-15,-16],[-15,-27],[-12,-33],[-9,-3],[-18,3],[-18,-3],[-15,-13],[-42,-3],[-30,-12]],[[1697,2837],[-24,-13],[-48,-3],[-39,-12],[-18,3],[-15,6],[-18,0],[-15,3],[-18,13],[-25,24],[-18,15],[-30,21],[-27,12],[-27,6],[-18,4],[-63,0],[-39,6],[-18,6],[-24,15],[-24,18]],[[2111,2861],[-3,-6],[27,-21],[6,-31],[12,-24]],[[2952,2745],[24,-3],[18,0],[54,3],[60,0],[21,3],[36,13],[24,6],[24,-3],[36,-9]],[[3249,2755],[45,-22],[13,-9]],[[3307,2724],[30,-24],[51,-34],[36,-18],[27,-6],[21,0],[54,9],[36,6],[39,3],[69,3],[6,0],[33,-15],[51,-6],[27,-6],[21,-9],[18,0],[18,6],[12,15],[18,28],[18,24],[9,6],[15,9],[21,24],[27,19]],[[75,2633],[-15,-3],[-33,-12],[-12,3],[-15,9]],[[2952,2745],[6,-6],[33,-24],[30,-18],[9,-9],[3,-22],[-9,-42],[-12,-40]],[[1148,2654],[1,-29]],[[1189,2961],[-3,-42],[-9,-64],[-12,-40],[-12,-76],[-3,-36],[-3,-27],[1,-22]],[[1149,2625],[1,-22],[3,-25]],[[1153,2578],[-18,13],[-12,21],[-6,15],[-12,36],[-9,16],[-6,3],[-15,0],[-30,-9],[-27,-3],[-6,3],[-12,15],[-6,3]],[[282,2545],[-9,3],[-42,36],[-15,10],[-9,3],[-48,3],[-27,9],[-42,21],[-15,3]],[[3964,2758],[18,-31],[15,-15],[15,-6],[18,3],[9,3],[9,-6],[18,-27],[6,-6],[24,-19]],[[994,2691],[-24,-6],[-36,-22],[-45,-18],[-15,6],[-12,-9],[-21,-18],[-6,-12],[-21,-49],[-18,-21],[-15,-6],[-57,-9],[-36,-9],[-30,0],[-24,-3],[-27,-6],[-52,-3],[-36,-7]],[[519,2499],[-12,0],[-24,13],[-21,9],[-27,3],[-24,-3],[-18,3],[-39,9],[-42,9],[-30,3]],[[2153,2779],[18,-43],[6,-33],[-9,-24],[-6,-25],[3,-15],[18,-42],[0,-13],[-12,-45],[-3,-21],[0,-16],[12,-12],[6,-21],[-3,-6]],[[2183,2463],[-12,-9],[-15,-9],[-21,0],[-15,3],[-27,-6],[-24,-6],[-21,-3],[-12,-6],[-6,-10]],[[2183,2463],[15,0],[66,-3],[45,-6],[36,-3],[30,3],[34,0],[24,-6],[57,-12],[18,-3],[45,0],[57,9],[42,-3],[21,-3],[42,-12],[24,-7],[45,-3]],[[1724,2809],[18,-24],[0,-24],[15,-34],[3,-18],[0,-18],[-9,-18],[-30,-37],[-51,-42],[9,-19],[0,-15],[-3,-15],[-21,-46],[-12,-33],[-3,-21],[-3,-46],[0,-21]],[[1282,2536],[24,0],[45,6],[30,-3],[21,-27],[12,-6],[4,0]],[[1153,2578],[9,-6],[21,0],[15,-9],[12,0],[18,-6],[21,-15],[21,-6],[12,0]],[[1418,2506],[11,3],[15,-10],[27,0],[12,-6],[3,-9],[19,-42],[9,-34],[9,-3],[39,-6],[21,-12],[36,-3],[18,-6]],[[1637,2378],[12,-3],[48,-3],[30,3],[15,6],[51,-9],[15,3],[21,12],[39,0],[18,3],[21,6],[27,24],[21,7],[12,6],[21,0],[33,-13]],[[3012,2584],[0,-18],[15,-24],[15,-27],[3,-16],[0,-18],[-9,-15],[-27,-21],[-48,-37],[-42,-33],[-3,-9]],[[2916,2366],[-15,15],[-24,18],[-27,6],[-48,3],[-6,0]],[[519,2499],[-3,-21],[-6,-51],[3,-28],[6,-15],[0,-18],[-3,-15],[-6,-9],[0,-19]],[[510,2323],[6,-9],[18,-9],[18,-12],[9,-15],[18,-12],[10,-16],[-6,-27],[3,-12]],[[586,2211],[15,-24],[18,-19],[30,-18],[15,-6],[27,-6],[33,0],[27,6],[18,0],[24,-12],[18,3],[33,0],[51,-3],[45,0]],[[2117,2131],[0,-2],[9,-9]],[[2030,2417],[0,-6],[6,-15],[18,-18],[6,-15],[6,-3],[6,6],[15,0],[12,-15],[15,-22],[6,-15],[3,-21],[0,-18],[6,-40],[3,-42],[-6,-15],[-12,-34],[3,-13]],[[1523,2141],[-9,6],[-24,9],[-40,3],[-12,15],[-27,4],[-15,9],[-6,0],[-27,-6],[-15,12],[-9,3],[-18,-12],[-27,-3],[-57,-19],[-30,-9],[-27,0],[-33,15],[-18,3],[-24,3],[-21,-3],[-45,-15],[-24,-18],[-33,-27],[-6,-6],[-21,-3]],[[2126,2120],[9,-12]],[[2145,2087],[0,-2]],[[2135,2108],[9,-16],[1,-5]],[[2145,2085],[2,-11]],[[2126,2120],[-21,-9]],[[2105,2111],[-9,-3],[-57,-25],[-33,-21],[-36,-27],[-6,0],[-72,21],[-36,15],[-63,18],[-93,25],[-57,9],[-15,15],[-24,0],[-66,6],[-9,3]],[[2144,1598],[0,-1],[-9,-21],[-18,-18],[3,-15]],[[2147,2074],[3,-27],[-3,-43],[-9,-57],[15,-28],[6,-21],[3,-15],[-6,-40],[-12,-21],[-6,-27],[0,-40],[3,-15],[15,-36],[6,-31],[-3,-27],[-6,-24],[-9,-24]],[[2120,1543],[6,-21],[12,-22],[2,-7]],[[2140,1493],[4,-23],[18,-27],[3,-16],[0,-30],[3,-49],[-12,-9],[-3,-24],[-6,-15],[-24,-31],[-18,-3],[-12,-12],[-15,-9]],[[1838,1154],[-8,3]],[[1830,1157],[-7,3],[-12,15]],[[1856,1156],[-18,-2]],[[2078,1245],[-27,-9],[-21,0],[-39,-9],[-21,-6],[-33,-15],[-27,-16],[-48,-33],[-6,-1]],[[1811,1175],[-9,6],[-12,-3],[-24,-21],[-9,-6],[-45,3],[-12,-3],[-30,-15],[-21,0],[-36,6],[-15,0],[-24,-6],[-42,-15],[-21,-16],[-21,-18]],[[2117,1230],[-6,-33],[-18,-43],[-9,-27],[0,-19],[6,-18],[-6,-27],[-9,-9]],[[1490,1087],[-28,-33],[-27,-37],[-48,-57]],[[2075,1054],[-12,-6],[-18,-19],[-3,-18],[15,-33],[0,-18],[-12,-16],[-6,-12]],[[2039,932],[3,-12],[18,-12],[6,-9]],[[1387,960],[-42,-49],[-6,-21],[-18,-25],[-3,-12]],[[2135,647],[-15,-12],[-21,-3]],[[2066,899],[-6,-43],[9,-9],[0,-18],[-15,-24],[-6,-25],[-3,-42],[-3,-37],[0,-27],[3,-15],[9,-12],[27,-3],[18,-12]],[[1461,625],[-5,-2],[-15,3],[-18,9],[-15,0],[-18,-9]],[[1565,629],[-21,3],[-27,-6],[-24,6],[-16,0],[-16,-7]],[[2180,598],[-12,12],[-21,9],[-3,19],[-9,9]],[[1309,590],[30,14],[36,12],[15,10]],[[1300,586],[9,4]],[[1302,603],[1,-5],[0,-1]],[[1303,597],[-3,-11]],[[1318,853],[-6,-12],[-3,-24],[-6,-34],[3,-15],[6,-21],[-9,-55],[6,-15],[-9,-33],[0,-28],[2,-13]],[[27,534],[-27,-9]],[[1808,522],[-27,21]],[[1781,543],[0,1],[-18,18],[-15,6],[-36,3],[-24,3],[-45,9],[-36,9],[-33,34],[-9,3]],[[2099,632],[-9,-6],[-18,-22],[0,-21],[-3,-12],[-9,-12],[-15,-9],[-12,0],[-12,9],[-30,0],[-15,-3],[-27,-12],[-27,-19],[-27,-3],[-15,-6],[-27,-3]],[[1846,513],[-17,0],[-21,9]],[[1853,513],[-7,0]],[[413,468],[-7,2]],[[75,525],[-9,3],[-27,6],[-12,0]],[[406,470],[-4,1],[-21,3],[-48,6],[-21,9],[-15,3],[-30,-3],[-27,0],[-42,9],[-36,6],[-42,6],[-45,15]],[[423,465],[-10,3]],[[423,465],[15,3],[24,9],[42,0],[39,12],[27,18],[22,9],[12,0],[24,-6],[63,-18],[6,-3],[9,-15],[12,-12]],[[930,432],[-8,-4],[-36,-15],[-30,-21]],[[1300,586],[-24,-9],[-48,-21],[-60,-25],[-57,-21],[-114,-48],[-67,-30]],[[845,389],[11,3]],[[844,389],[1,0]],[[792,441],[1,-1],[9,-12],[2,-8]],[[718,462],[15,-10],[15,-3],[24,-3],[20,-5]],[[804,420],[7,-28],[12,-15],[15,6],[6,6]],[[1390,626],[-9,-34],[-6,-15],[0,-30],[1,-3]],[[1376,544],[2,-46],[-3,-58],[3,-51],[0,-25],[-3,-15],[-12,-21]],[[2258,267],[-15,37],[-18,27],[-6,21],[-12,15],[-6,22],[-9,24],[-3,12],[21,15],[3,6],[0,22],[-6,15],[-6,21],[3,21],[15,37],[-3,6],[-15,6],[-21,24]],[[3301,243],[-3,-1]],[[3298,242],[-16,-5],[-15,-12],[-18,-3],[-48,-25]],[[1363,328],[-15,-18],[-24,-25],[-15,-15],[-36,-51],[-18,-25]],[[4096,265],[-6,-4],[-21,-18],[-30,-15],[-9,-12],[-6,0],[-15,-10],[-12,-21],[-9,-6]],[[42,280],[3,-7],[3,-24],[-9,-43],[3,-12],[10,-14]],[[0,524],[6,-57]],[[6,467],[3,-33],[9,-27],[15,-37],[3,-21],[-6,-36],[3,-12],[9,-21]],[[52,180],[14,-19]],[[2357,158],[-24,18],[-27,15],[-12,9],[-9,19],[-18,42],[-9,6]],[[1255,194],[-3,-15],[-3,-21],[3,-9]],[[2357,158],[9,-9],[37,-25],[15,-6]],[[3841,76]],[[3841,76],[-6,0],[-15,3],[-6,0],[-18,9],[-3,0]],[[3988,179],[-18,-3],[-33,-15],[-30,-3],[-15,3],[-12,-6],[-21,3],[-6,-3],[-9,-12],[-9,-3],[-6,-6],[0,-31],[12,-27]],[[3201,197],[-33,0],[-33,-6],[-9,-3],[-18,-18],[-15,-6],[-66,15],[-15,-3],[-15,-15],[-27,-52],[-15,-15],[-18,-12],[-36,-12],[-75,-3],[-18,0],[-45,0],[-9,-9]],[[2418,118],[21,-3],[30,-3],[24,0],[33,6],[24,-3],[12,-6],[30,-21],[12,-6],[30,-9],[9,0],[21,9],[12,24],[18,-18],[30,-18],[30,-12]],[[3307,221],[0,10],[-6,12]],[[3390,0],[-20,9],[-9,9],[-12,18],[-18,28],[-15,0],[-15,15],[6,9],[3,18],[-9,31],[6,39],[0,45]],[[2754,58],[6,-3],[12,-19],[15,-27],[7,-9]],[[66,161],[9,-21],[12,-43],[6,-18],[9,-34],[14,-45]],[[1252,149],[3,-18],[9,-28],[15,-24],[21,-37],[23,-42]],[[3793,88],[-9,-21],[-21,-22],[-21,-15],[-21,-18],[-6,-12]],[[4096,1600],[0,-1600],[-4096,0],[0,4096],[4096,0],[0,-2496]],[[3323,3176],[79,67],[105,10],[-5,55],[36,-2],[5,-41],[210,-65],[45,-58],[-36,-25],[8,-65],[-40,-48],[-42,16],[-85,-112],[-79,17],[-32,-30],[-24,55],[22,20],[-131,63],[11,21],[-24,7],[11,43],[-34,72]],[[2509,390],[95,209],[35,0],[5,-23],[26,49],[25,-6],[21,-71],[-37,-12],[24,-32],[-53,-88],[-69,-35],[-16,17],[-4,-54],[-52,46]],[[2631,520],[12,-39],[40,0],[-15,46],[-37,-7]],[[2595,527],[4,-32],[16,-17],[16,55],[-36,-6]],[[3857,57],[-15,11],[-4,26],[49,-16],[-30,-21]],[[586,53],[-14,21],[14,20],[17,-8],[-17,-33]],[[295,53],[-29,6],[0,45],[33,0],[-4,-51]],[[112,259],[-23,13],[44,27],[-1,-19],[-20,-21]],[[1031,258],[-40,24],[24,33],[14,-7],[2,-50]],[[174,258],[0,32],[-31,9],[12,23],[59,-23],[-40,-41]],[[918,277],[-13,0],[-28,13],[22,14],[19,-27]],[[942,282],[-8,25],[8,24],[28,-27],[-28,-22]],[[1710,172],[-34,-6],[2,43],[41,-8],[-9,-29]],[[1662,110],[2,30],[25,7],[-6,-32],[-21,-5]],[[1052,153],[1,-58],[-70,48],[8,17],[61,-7]],[[895,134],[-34,1],[0,16],[49,0],[-15,-17]],[[1266,143],[-14,30],[38,19],[-24,-49]],[[3298,280],[39,2],[-33,-65],[-21,87],[15,-24]],[[1294,257],[-45,-45],[-16,-3],[15,50],[46,-2]],[[77,201],[32,40],[47,-20],[-63,-78],[-79,72],[-7,36],[37,31],[25,-8],[8,-73]],[[1104,225],[-40,-16],[14,-30],[-22,-7],[0,110],[48,-57]],[[982,203],[9,-3],[-24,-49],[-17,49],[33,50],[-1,-47]],[[889,173],[-28,11],[17,90],[48,-98],[-37,-3]],[[1614,0],[-14,0],[14,29],[0,-29]],[[1041,0],[-50,0],[-8,4],[48,8],[-36,31],[36,-14],[16,-17],[-6,-12]],[[975,56],[-8,-44],[-20,7],[20,75],[24,-8],[-16,-30]],[[672,407],[-33,12],[-4,19],[48,-17],[-11,-14]],[[831,413],[-34,8],[-8,33],[48,-33],[-6,-8]],[[1060,415],[-29,31],[41,16],[16,-41],[-28,-6]],[[950,446],[-1,34],[34,-1],[-9,-24],[-24,-9]],[[410,466],[-9,9],[-1,20],[33,-16],[-23,-13]],[[996,372],[27,-8],[-24,-33],[-16,58],[13,-17]],[[1018,428],[-11,-31],[-81,0],[-48,-49],[-41,30],[32,43],[130,23],[19,-16]],[[2478,904],[28,-10],[6,-14],[-57,32],[23,-8]],[[1306,888],[-30,11],[0,24],[37,-4],[-7,-31]],[[1610,1033],[-21,27],[17,8],[24,-17],[-20,-18]],[[1258,796],[-8,-15],[-25,15],[19,19],[14,-19]],[[517,797],[-28,9],[7,13],[42,-5],[-21,-17]],[[2471,1305],[49,-24],[-8,-33],[-57,-33],[-32,57],[48,33]],[[546,1199],[-38,16],[14,25],[19,-14],[5,-27]],[[1464,1305],[-12,0],[8,33],[24,-17],[-20,-16]],[[222,1338],[-25,3],[-7,21],[21,2],[11,-26]],[[100,1446],[25,-2],[0,-49],[-56,0],[31,51]],[[460,1419],[-27,9],[24,22],[16,-30],[-13,-1]],[[772,1395],[-53,43],[5,14],[55,-16],[-7,-41]],[[1856,1141],[-32,0],[15,41],[17,0],[0,-41]],[[0,1183],[0,8],[2,-1],[-2,-7]],[[0,1132],[0,29],[28,-36],[-28,7]],[[2155,2116],[-24,-1],[15,-30],[-22,-10],[-25,48],[57,25],[16,-25],[-17,-7]],[[1412,2565],[8,-74],[-70,4],[-76,46],[89,73],[49,-49]],[[1160,2656],[1,-25],[-25,-12],[-12,30],[36,7]],[[651,3007],[8,-25],[57,-8],[-16,-49],[-65,33],[-8,49],[24,0]],[[2397,3235],[24,-77],[-70,-75],[15,35],[-48,52],[24,17],[-8,57],[32,-16],[32,24],[-1,-17]],[[4057,3416],[-22,18],[6,31],[29,-19],[-13,-30]],[[3094,3432],[-53,40],[69,34],[-9,-58],[-7,-16]],[[1526,3971],[-22,23],[27,78],[40,-36],[-45,-65]],[[1468,4095],[28,-9],[5,-15],[-49,24],[16,0]],[[1357,3695],[6,-33],[32,16],[0,-49],[-28,-33],[53,-49],[-57,-41],[-81,57],[-19,94],[61,38],[15,40],[32,-8],[-14,-32]],[[81,1541],[-29,59],[4,8],[37,-17],[-12,-50]],[[2156,1477],[-73,74],[60,49],[29,-58],[-49,-8],[33,-57]],[[1820,556],[30,-40],[-42,-29],[-33,48],[33,42],[12,-21]],[[1444,651],[23,-35],[-49,-2],[-30,-41],[15,-29],[-48,0],[-57,57],[33,17],[0,33],[79,-3],[26,27],[8,-24]],[[0,469],[0,131],[7,-6],[62,-17],[8,-41],[-8,-57],[-49,-17],[-20,7]],[[2310,0],[-330,0],[65,57],[23,-17],[-10,37],[27,33],[228,-104],[-3,-6]],[[2228,32],[7,-10],[16,-1],[0,11],[-23,0]],[[2597,281],[15,126],[38,9],[40,69],[49,-17],[-31,74],[56,-25],[1,-30],[55,10],[1,-38],[-25,19],[5,-33],[-26,-20],[-8,-101],[-51,-21],[-16,15],[-10,-27],[-39,33],[-10,-43],[-44,0]],[[2639,378],[19,-30],[23,17],[-9,47],[-33,-34]],[[2725,346],[7,-13],[26,22],[-27,7],[-6,-16]]]}