{"objects":{"water":{"type":"GeometryCollection","geometries":[{"type":"MultiPolygon","properties":{"source":"naturalearthdata.com","kind":"ocean","area":1576712559132672,"sort_rank":200,"min_zoom":0.0,"id":1},"arcs":[[[129]],[[130],[131],[132],[133],[134],[135],[136]]]},{"type":"MultiLineString","properties":{"source":"naturalearthdata.com","kind":"ocean","sort_rank":205,"boundary":true,"min_zoom":0.0,"id":47},"arcs":[[137],[138]]},{"type":"LineString","properties":{"source":"naturalearthdata.com","kind":"ocean","sort_rank":205,"boundary":true,"min_zoom":0.0,"id":1352},"arcs":[139]},{"type":"LineString","properties":{"source":"naturalearthdata.com","kind":"ocean","sort_rank":205,"boundary":true,"min_zoom":0.0,"id":1353},"arcs":[140]},{"type":"LineString","properties":{"source":"naturalearthdata.com","kind":"ocean","sort_rank":205,"boundary":true,"min_zoom":0.0,"id":1354},"arcs":[141]},{"type":"LineString","properties":{"source":"naturalearthdata.com","kind":"ocean","sort_rank":205,"boundary":true,"min_zoom":0.0,"id":1355},"arcs":[142]},{"type":"LineString","properties":{"source":"naturalearthdata.com","kind":"ocean","sort_rank":205,"boundary":true,"min_zoom":0.0,"id":1360},"arcs":[143]}]},"buildings":{"type":"GeometryCollection","geometries":[]},"places":{"type":"GeometryCollection","geometries":[{"type":"Point","properties":{"name:ka":"\u10d4\u10d9\u10d5\u10d0\u10e2\u10dd\u10e0\u10e3\u10da\u10d8 \u10d2\u10d5\u10d8\u10dc\u10d4\u10d0","name:ko":"\uc801\ub3c4 \uae30\ub2c8","name:cv":"\u042d\u043a\u0432\u0430\u0442\u043e\u0440\u0438\u0430\u043b\u043b\u04d1 \u0413\u0432\u0438\u043d\u0435\u0439","name:km":"\u17a0\u17d2\u1782\u17b8\u178e\u17c1\u17a2\u17c1\u1780\u17d2\u179c\u17b6\u1791\u17d0\u179a","name:cs":"Rovn\u00edkov\u00e1 Guinea","name:ki":"Ginekweta","name:co":"Guinea Equatoriale","name:tk":"Ekwatorial Gwine\u00fda","name:ku":"G\u00een\u00eaya Rojbend\u00ee","name:ti":"\u12a2\u12b3\u1276\u122a\u12eb\u120d \u130a\u1292","name:ks":"\u0627\u0650\u06a9\u0648\u0650\u0679\u0648\u0631\u0650\u06cc\u064e\u0644 \u06af\u0650\u0646\u06cc","name:to":"\u02bbEkueta Kini","name:tl":"Gineang Ekwatoriyal","name:ce":"\u0414\u0443\u044c\u043d\u0435\u043d\u0430 \u0430\u0441\u0430\u043d\u0430\u043d \u0413\u0432\u0438\u043d\u0435","name:ta":"\u0b8e\u0b95\u0bcd\u0b95\u0bc1\u0bb5\u0b9f\u0bcb\u0bb0\u0bbf\u0baf\u0bb2\u0bcd \u0b95\u0bbf\u0ba9\u0bbf","name:tg":"\u0413\u0432\u0438\u043d\u0435\u044f\u0438 \u0418\u0441\u0442\u0438\u0432\u043e\u04e3","name:ca":"Guinea Equatorial","name:te":"\u0c0e\u0c15\u0c4d\u0c35\u0c47\u0c1f\u0c4b\u0c30\u0c3f\u0c2f\u0c3e\u0c32\u0c4d \u0c17\u0c3f\u0c28\u0c3f\u0c2f\u0c3e","name:cy":"Guinea Gyhydeddol","name:hr":"Ekvatorska Gvineja","name:da":"\u00c6kvatorialguinea","name:de":"\u00c4quatorialguinea","name:dz":"\u0f68\u0f7a\u0f0b\u0f40\u0f74\u0f0b\u0f4a\u0f7c\u0f0b\u0f62\u0f7a\u0f63\u0f0b \u0f42\u0f72\u0f0b\u0f53\u0f72","source":"openstreetmap.org","name:kn":"\u0cb5\u0cbf\u0cb7\u0cc1\u0cb5\u0ca6\u0ccd\u0cb0\u0cc7\u0c96\u0cc6\u0caf \u0c97\u0cbf\u0ca8\u0cbf","name:dv":"\u0787\u07a8\u0786\u07aa\u0787\u07ac\u0793\u07af\u0783\u07a8\u0787\u07a6\u078d\u07b0 \u078e\u07a8\u0782\u07a9","name:lv":"Ekvatori\u0101l\u0101 Gvineja","name:lt":"Pusiaujo Gvin\u0117ja","name:uz":"Ekvatorli Gvineya","name:kk":"\u0415\u043a\u0443\u0430\u0442\u043e\u0440 \u0413\u0438\u043d\u0438\u044f","name:ur":"\u0627\u0633\u062a\u0648\u0627\u0626\u06cc \u06af\u0646\u06cc","name:lb":"Equatorialguinea","name:la":"Guinea Aequatorensis","name:lg":"Gayana ey'oku ekweta","name:uk":"\u0415\u043a\u0432\u0430\u0442\u043e\u0440\u0456\u0430\u043b\u044c\u043d\u0430 \u0413\u0432\u0456\u043d\u0435\u044f","name:ug":"\u00c9kwator Gwin\u00e9yisi","name:li":"Equatoriaal Guinee","name:ln":"Gine-Ekwatorial","name:lo":"\u0ead\u0eb5\u0e84\u0ebb\u0ea7\u0ec2\u0e97\u0ec0\u0ea5\u0e8d\u0e81\u0eb5\u0ec0\u0e99\u0e8d","name:el":"\u0399\u03c3\u03b7\u03bc\u03b5\u03c1\u03b9\u03bd\u03ae \u0393\u03bf\u03c5\u03b9\u03bd\u03ad\u03b1","name:eo":"Ekvatora Gvineo","name:en":"Equatorial Guinea","name":"Guinea Ecuatorial","name:ee":"Ekuatorial Guini nutome","name:th":"\u0e1b\u0e23\u0e30\u0e40\u0e17\u0e28\u0e2d\u0e34\u0e40\u0e04\u0e27\u0e17\u0e2d\u0e40\u0e23\u0e35\u0e22\u0e25\u0e01\u0e34\u0e19\u0e35","name:eu":"Ekuatore Ginea","name:et":"Ekvatoriaal-Guinea","name:ia":"Guinea Equatorial","name:rm":"Guinea Equatoriala","name:rn":"Gineya Ekwatoriyali","name:az":"Ekvatorial Qvineya","name:ie":"Equatorial Guin\u00e9a","name:id":"Guinea Khatulistiwa","name:ar":"\u063a\u064a\u0646\u064a\u0627 \u0627\u0644\u0627\u0633\u062a\u0648\u0627\u0626\u064a\u0629","name:io":"Equatorala Guinea","name:ak":"Gini Ikuweta","name:am":"\u12a2\u12b3\u1276\u122a\u12eb\u120d \u130a\u1294","name:it":"Guinea Equatoriale","name:ru":"\u042d\u043a\u0432\u0430\u0442\u043e\u0440\u0438\u0430\u043b\u044c\u043d\u0430\u044f \u0413\u0432\u0438\u043d\u0435\u044f","name:rw":"Gineya Ekwatoriyale","name:af":"Ekwatoriaal-Guinee","name:zu":"i-Equatorial Guinea","name:zh-yue":"\u8d64\u9053\u757f\u5167\u4e9e","name:zh":"\u8d64\u9053\u51e0\u5185\u4e9a","name:so":"Equatorial Guinea","name:sn":"Equatorial Guinea","name:sl":"Ekvatorialna Gvineja","name:sk":"Rovn\u00edkov\u00e1 Guinea","name:ja":"\u8d64\u9053\u30ae\u30cb\u30a2","name:si":"\u0dc3\u0db8\u0d9a \u0d9c\u0dd2\u0db1\u0dd2\u0dba\u0dcf\u0dc0","name:sh":"Ekvatorijalna Gvineja","name:sg":"Gin\u00ebe t\u00ee Ekuat\u00ebre","name:se":"Beaivved\u00e1si Guinea","name:sc":"Guinea Ecuadoriale","name:br":"Ginea ar C\u2019heheder","name:bs":"Ekvatorijalna Gvineja","name:bm":"Cemajan Gine","name:bn":"\u09a8\u09bf\u09b0\u0995\u09cd\u09b7\u09c0\u09af\u09bc \u0997\u09bf\u09a8\u09bf","name:bo":"\u0f68\u0f72\u0f0b\u0f41\u0f74\u0f60\u0f0b\u0f4a\u0f7c\u0f0b\u0f62\u0f63\u0f0b\u0f42\u0f72\u0f0b\u0f53\u0f7a\u0f0d","name:sw":"Guinea ya Ikweta","name:be":"\u042d\u043a\u0432\u0430\u0442\u0430\u0440\u044b\u044f\u043b\u044c\u043d\u0430\u044f \u0413\u0432\u0456\u043d\u0435\u044f","name:su":"Guin\u00e9a Khatulistiwa","name:bg":"\u0415\u043a\u0432\u0430\u0442\u043e\u0440\u0438\u0430\u043b\u043d\u0430 \u0413\u0432\u0438\u043d\u0435\u044f","name:sr":"\u0415\u043a\u0432\u0430\u0442\u043e\u0440\u0438\u0458\u0430\u043b\u043d\u0430 \u0413\u0432\u0438\u043d\u0435\u0458\u0430","name:sq":"Guineja Ekuatoriale","name:jv":"Guinea Khatulistiwa","name:pt":"Guin\u00e9 Equatorial","name:ps":"\u0627\u06d0\u06a9\u0648\u0627\u067c\u0648\u0631\u064a\u0627\u0644 \u06ab\u0648\u064a\u0646\u0627","name:oc":"Guin\u00e8a Eq\u00fcatoriala","min_zoom":2.0,"name:ro":"Guineea Ecuatorial\u0103","name:zh-min-nan":"Chhiah-t\u014d Guinea","name:os":"\u042d\u043a\u0432\u0430\u0442\u043e\u0440\u0438\u0430\u043b\u043e\u043d \u0413\u0432\u0438\u043d\u0435\u0439","name:or":"\u0b07\u0b15\u0b4d\u0b2c\u0b3e\u0b1f\u0b47\u0b30\u0b3f\u0b06\u0b32\u0b4d \u0b17\u0b41\u0b07\u0b28\u0b3f\u0b06","name:pl":"Gwinea R\u00f3wnikowa","name:pa":"\u0a2d\u0a42-\u0a2e\u0a71\u0a27 \u0a30\u0a47\u0a16\u0a3e\u0a08 \u0a17\u0a3f\u0a28\u0a40","name:tr":"Ekvator Ginesi","name:hi":"\u0908\u0915\u094d\u0935\u0940\u091f\u094b\u0930\u093f\u092f\u0932 \u0917\u093f\u0928\u0940","name:sv":"Ekvatorialguinea","name:he":"\u05d2\u05d9\u05e0\u05d9\u05d0\u05d4 \u05d4\u05de\u05e9\u05d5\u05d5\u05e0\u05d9\u05ea","name:ha":"Gini Ta Ikwaita","name:hy":"\u0540\u0561\u057d\u0561\u0580\u0561\u056f\u0561\u056e\u0561\u0575\u056b\u0576 \u0533\u057e\u056b\u0576\u0565\u0561","name:ht":"Gine ekwateryal","name:hu":"Egyenl\u00edt\u0151i-Guinea","name:qu":"Chawpipacha Khiniya","population":1000000,"kind":"country","name:ts":"Equatorial Guinea","name:is":"Mi\u00f0baugs-G\u00ednea","name:yi":"\u05e2\u05e7\u05d5\u05d5\u05d0\u05d8\u05d0\u05e8\u05d9\u05e9\u05e2 \u05d2\u05d9\u05e0\u05e2","name:yo":"Or\u00edl\u1eb9\u0301\u00e8de Ekutoria Gini","name:mt":"Ginea Ekwatorjali","name:ms":"Guinea Khatulistiwa","name:mr":"\u0907\u0915\u094d\u0935\u0947\u091f\u094b\u0930\u0940\u092f\u0932 \u0917\u093f\u0928\u0940","name:my":"\u1021\u102e\u1000\u103d\u1031\u1010\u102c \u1002\u102e\u101b\u102c\u1014\u102c","official_name":"Rep\u00fablica de Guinea Ecuatorial;R\u00e9publique de Guin\u00e9e \u00e9quatoriale;Rep\u00fablica da Guin\u00e9 Equatorial","name:kw":"Gyni Ekwadoriel","name:mg":"Guinea Ekoatera","name:ml":"\u0d07\u0d15\u0d4d\u0d35\u0d31\u0d4d\u0d31\u0d4b\u0d31\u0d3f\u0d2f\u0d32\u0d4d\u200d \u0d17\u0d3f\u0d28\u0d3f","name:vi":"Guinea X\u00edch \u0110\u1ea1o","name:mn":"\u042d\u043a\u0432\u0430\u0442\u043e\u0440\u044b\u043d \u0413\u0432\u0438\u043d\u0435\u0439","name:mi":"Kini Ekuatoria","id":424313853,"name:mk":"\u0415\u043a\u0432\u0430\u0442\u043e\u0440\u0438\u0458\u0430\u043b\u043d\u0430 \u0413\u0432\u0438\u043d\u0435\u0458\u0430","name:vo":"Kveatora-Giney\u00e4n","name:fa":"\u06af\u06cc\u0646\u0647 \u0627\u0633\u062a\u0648\u0627\u06cc\u06cc","name:ff":"Ginee Ekuwaatoriyaal","name:fi":"P\u00e4iv\u00e4ntasaajan Guinea","name:fo":"Ekvatorguinea","name:fr":"Guin\u00e9e \u00e9quatoriale","name:fy":"Ekwatoriaal Guinee","int_name":"Equatorial Guinea","name:nl":"Equatoriaal-Guinea","name:nn":"Ekvatorial-Guinea","name:no":"Ekvatorial-Guinea","name:na":"Gini t Ekwador","name:nb":"Ekvatorial-Guinea","name:ne":"\u092d\u0942-\u092e\u0927\u094d\u092f\u0940\u092f \u0917\u093f\u0928\u0940","name:wo":"Gineg yamoo","name:nv":"G\u00edn\u00ed Nahasdz\u00e1\u00e1n A\u0142n\u00edi\u02bcgi Si\u02bc\u00e1n\u00edg\u00ed\u00ed","name:ga":"An Ghuine Mhe\u00e1nchriosach","name:gd":"Gini Mheadhan-Chriosach","name:gv":"Guinea Chryss ny Cruinney","name:gu":"\u0a87\u0a95\u0acd\u0ab5\u0ac7\u0a9f\u0acb\u0ab0\u0abf\u0aaf\u0ab2 \u0a97\u0abf\u0aa8\u0ac0","name:tt":"\u042d\u043a\u0432\u0430\u0442\u043e\u0440\u0438\u0430\u043b\u044c \u0413\u0432\u0438\u043d\u0435\u044f"},"coordinates":[3562,1177]},{"type":"Point","properties":{"name:cy":"S\u00e3o Tom\u00e9 a Pr\u00edncipe","name:mt":"Sao Tome and Principe","name:ko":"\uc0c1\ud22c\uba54 \ud504\ub9b0\uc2dc\ud398","name:kn":"\u0cb8\u0cbe\u0cb5\u0ccb \u0c9f\u0ccb\u0cae\u0ccd \u0cae\u0ca4\u0ccd\u0ca4\u0cc1 \u0caa\u0ccd\u0cb0\u0cbf\u0ca8\u0ccd\u0cb8\u0cbf\u0caa\u0cc6","name:km":"\u179f\u17c5\u200b\u178f\u17bb\u17c6 \u1793\u17b7\u1784\u200b\u1796\u17d2\u179a\u17b8\u1793\u179f\u17ca\u17b8\u1794\u17c9\u17c1","name:kl":"S\u00e3o Tom\u00e9 aamma Pr\u00edncipe","name:cs":"Svat\u00fd Tom\u00e1\u0161 a Princ\u016fv ostrov","alt_name:eo":"Santomeo kaj Principeo","name:ki":"Sao Tome na Principe","name:tr":"S\u00e3o Tom\u00e9 ve Pr\u00edncipe","name:ku":"Sao Tome \u00fb Pr\u00eens\u00eepe","name:ti":"\u1233\u12a6 \u1276\u121c \u12a5\u1293 \u1355\u122a\u1295\u1232\u1354","name:ks":"\u0633\u0627\u0648 \u062a\u0648\u0645 \u062a\u06c1\u0655 \u067e\u0631\u065b\u0646\u0633\u0650\u067e\u06cc","name:to":"Sao Tome mo Pilinisipe","name:sv":"S\u00e3o Tom\u00e9 och Pr\u00edncipe","name:or":"\u0b38\u0b3e\u0b13 \u0b1f\u0b4b\u0b2e\u0b47 \u0b0f\u0b2c\u0b02 \u0b2a\u0b4d\u0b30\u0b3f\u0b28\u0b38\u0b3f\u0b2a\u0b3f","name:pl":"Wyspy \u015awi\u0119tego Tomasza i Ksi\u0105\u017c\u0119ca","name:ta":"\u0b9a\u0bbe\u0bb5\u0bcd \u0ba4\u0bcb\u0bae\u0bcd \u0bae\u0bb1\u0bcd\u0bb1\u0bc1\u0bae\u0bcd \u0baa\u0bcd\u0bb0\u0bbf\u0ba9\u0bcd\u0b9a\u0bbf\u0baa\u0bbf","name:ca":"S\u00e3o Tom\u00e9 i Pr\u00edncipe","name:te":"\u0c38\u0c3e\u0c35\u0c4b\u0c1f\u0c4b\u0c2e\u0c4d \u0c2e\u0c30\u0c3f\u0c2f\u0c41 \u0c2a\u0c4d\u0c30\u0c3f\u0c28\u0c4d\u0c38\u0c3f\u0c2a\u0c47","name:hu":"S\u00e3o Tom\u00e9 \u00e9s Pr\u00edncipe","name:ro":"Sao Tome \u0219i Principe","name:ka":"\u10e1\u10d0\u10dd-\u10e2\u10dd\u10db\u10d4 \u10d3\u10d0 \u10de\u10e0\u10d8\u10dc\u10e1\u10d8\u10de\u10d8","name:hr":"Sveti Toma i Princip","name:da":"S\u00e3o Tom\u00e9 og Pr\u00edncipe","name:de":"S\u00e3o Tom\u00e9 und Pr\u00edncipe","name:dz":"\u0f66\u0f5d\u0f0b \u0f4a\u0f7c\u0f0b\u0f58\u0f7a\u0f0b \u0f68\u0f7a\u0f53\u0f4c\u0f0b \u0f54\u0fb2\u0f80\u0f53\u0f0b\u0f66\u0f72\u0f0b\u0f54\u0f7a","source":"openstreetmap.org","name:lv":"Santome un Prinsipi","name:lt":"San Tom\u0117 ir Prinsip\u0117","name:hi":"\u0938\u093e\u0909-\u0924\u094b\u092e-\u092a\u094d\u0930\u093f\u0902\u0938\u093f\u092a","name:he":"\u05e1\u05d0\u05d5 \u05d8\u05d5\u05de\u05d4 \u05d5\u05e4\u05e8\u05d9\u05e0\u05e1\u05d9\u05e4\u05d4","kind":"country","name:ur":"\u0633\u0627\u0624 \u0679\u0648\u0645 \u0627\u0648\u0631 \u067e\u0631\u0646\u0633\u067e\u06d2","name:lb":"S\u00e3o Tom\u00e9 a Pr\u00edncipe","name:la":"Insulae Sancti Thomae et Principis","name:lg":"Sanitome ne Purincipe","name:uk":"\u0421\u0430\u043d-\u0422\u043e\u043c\u0435 \u0456 \u041f\u0440\u0438\u043d\u0441\u0456\u043f\u0456","name:hy":"\u054d\u0561\u0576-\u0539\u0578\u0574\u0565-\u0553\u0580\u056b\u0576\u057d\u056b\u057a\u056b","min_zoom":2.0,"name:li":"S\u00e3o Tom\u00e9 en Pr\u00edncipe","name:ln":"Sao Tom\u00e9 mp\u00e9 Presip\u025b","name:lo":"\u0ec0\u0e8a\u0ebb\u0eb2\u0e95\u0eb9\u0ec0\u0ea1\u0ec1\u0ea5\u0eb0\u0e9e\u0ea3\u0eb4\u0e99\u0e8a\u0eb4\u0e9b\u0eb5","population":206178,"name:el":"\u03a3\u03ac\u03bf \u03a4\u03bf\u03bc\u03ad \u03ba\u03b1\u03b9 \u03a0\u03c1\u03af\u03bd\u03c3\u03b9\u03c0\u03b5","name:eo":"Sao-Tomeo kaj Principeo","name:en":"S\u00e3o Tom\u00e9 and Pr\u00edncipe","name":"S\u00e3o Tom\u00e9 e Pr\u00edncipe","name:ee":"S\u00e3o Tom\u00e9 kple Pr\u00edncipe nutome","name:th":"\u0e1b\u0e23\u0e30\u0e40\u0e17\u0e28\u0e40\u0e0b\u0e32\u0e15\u0e39\u0e40\u0e21\u0e41\u0e25\u0e30\u0e1b\u0e23\u0e34\u0e19\u0e0b\u0e34\u0e1b\u0e35","name:gu":"\u0ab8\u0abe\u0a93 \u0a9f\u0ac9\u0aae \u0a85\u0aa8\u0ac7 \u0aaa\u0acd\u0ab0\u0abf\u0a82\u0ab8\u0abf\u0aaa\u0ac7","name:eu":"Sao Tome eta Principe","name:et":"S\u00e3o Tom\u00e9 ja Pr\u00edncipe","name:nl":"Sao Tom\u00e9 en Principe","name:es":"Santo Tom\u00e9 y Pr\u00edncipe","name:ml":"\u0d38\u0d3e\u0d35\u0d4b \u0d31\u0d4d\u0d31\u0d2e\u0d46 \u0d06\u0d7b\u0d21\u0d4d \u0d2a\u0d4d\u0d30\u0d3f\u0d7b\u0d38\u0d3f\u0d2a\u0d4d\u0d2a\u0d3f","name:rm":"S\u00e3o Tom\u00e9 e Principe","name:rn":"Sawotome na Perensipe","name:az":"Sao Tom v\u0259 Prinsip","name:id":"Sao Tome dan Principe","name:ms":"S\u00e3o Tom\u00e9 dan Pr\u00edncipe","name:mr":"\u0938\u093e\u0913 \u091f\u094b\u092e \u0906\u0923\u093f \u092a\u094d\u0930\u093f\u0902\u0938\u093f\u092a\u0947","name:ar":"\u0633\u0627\u0646 \u062a\u0648\u0645\u064a \u0648\u0628\u0631\u064a\u0646\u0633\u064a\u0628\u064a","name:io":"San-Tome e Principe","int_name":"Sao Tome and Principe","name:is":"Sa\u00f3 T\u00f3me og Prins\u00edpe","name:am":"\u1233\u12a6 \u1276\u121c \u12a5\u1293 \u1355\u122a\u1295\u1232\u1354","name:vi":"S\u00e3o Tom\u00e9 v\u00e0 Pr\u00edncipe","name:ru":"\u0421\u0430\u043d-\u0422\u043e\u043c\u0435 \u0438 \u041f\u0440\u0438\u043d\u0441\u0438\u043f\u0438","name:mn":"\u0421\u0430\u043d-\u0422\u043e\u043c\u0435 \u0431\u0430 \u041f\u0440\u0438\u043d\u0441\u0438\u043f\u0438","id":249399429,"name:mk":"\u0421\u0430\u043e \u0422\u043e\u043c\u0435 \u0438 \u041f\u0440\u0438\u043d\u0447\u0438\u043f\u0435","name:af":"S\u00e3o Tom\u00e9 en Principe","name:zu":"i-S\u00e3o Tom\u00e9 kanye ne-Pr\u00edncipe","name:ha":"Sawo Tome Da Paransip","name:nn":"S\u00e3o Tom\u00e9 og Pr\u00edncipe","name:ff":"Sawo Tome e Perensipe","name:fi":"S\u00e3o Tom\u00e9 ja Pr\u00edncipe","name:no":"S\u00e3o Tom\u00e9 og Pr\u00edncipe","name:mg":"S\u00e3o Tom\u00e9-et-Pr\u00edncipe","name:fo":"Sao Tome og Prinsipi","name:fr":"Sao Tom\u00e9-et-Principe","name:fy":"Sao Tomee en Prinsyp","name:vo":"Saluda-Tome\u00e4n e Prinsipe\u00e4n","name:zh":"\u5723\u591a\u7f8e\u548c\u666e\u6797\u897f\u6bd4\/\u8056\u591a\u7f8e\u666e\u6797\u897f\u6bd4","name:gv":"S\u00e3o Tom\u00e9 as Pr\u00edncipe","name:so":"S\u00e3o Tom\u00e9 and Pr\u00edncipe","name:sn":"S\u00e3o Tom\u00e9 and Pr\u00edncipe","name:sl":"Sao Tome in Principe","name:sk":"Sv\u00e4t\u00fd Tom\u00e1\u0161 a Princov ostrov","name:ja":"\u30b5\u30f3\u30c8\u30e1\u30fb\u30d7\u30ea\u30f3\u30b7\u30da","name:si":"\u0dc3\u0dcf\u0dbd\u0ddc \u0dc3\u0dc4 \u0db4\u0dca\u200d\u0dbb\u0dd2\u0db1\u0dca\u0dc3\u0dd2\u0db4\u0dca","name:fa":"\u0633\u0627\u0626\u0648\u062a\u0648\u0645\u0647 \u0648 \u067e\u0631\u06cc\u0646\u0633\u06cc\u067e","name:sg":"S\u00e2\u00f4 T\u00f6m\u00ea na Prins\u00eepe","name:se":"S\u00e3o Tom\u00e9 ja Pr\u00edncipe","name:ne":"\u0938\u093e\u0913 \u091f\u094b\u092e\u0947 \u0930 \u092a\u094d\u0930\u093f\u0928\u094d\u0938\u093f\u092a","name:br":"S\u00e3o Tom\u00e9 ha Pr\u00edncipe","name:bs":"Sao Tome i Principe","name:bm":"Sawo Tome-ni-Prinicipe","name:bn":"\u09b8\u09be\u0993\u099f\u09cb\u09ae\u09be \u0993 \u09aa\u09cd\u09b0\u09bf\u09a8\u09cd\u09b8\u09bf\u09aa\u09bf","name:bo":"\u0f66\u0f0b\u0f60\u0f7c\u0f0b\u0f4f\u0f7c\u0f51\u0f0b\u0f58\u0f51\u0f0d \u0f51\u0f44\u0f0c\u0f0d \u0f54\u0f84\u0f62\u0f72\u0f53\u0f0b\u0f66\u0f72\u0f0b\u0f54\u0f7a\u0f0d","name:sw":"Sao Tome na Principe","name:be":"\u0421\u0430\u043d-\u0422\u0430\u043c\u044d \u0456 \u041f\u0440\u044b\u043d\u0441\u0456\u043f\u0456","name:bg":"\u0421\u0430\u043e \u0422\u043e\u043c\u0435 \u0438 \u041f\u0440\u0438\u043d\u0446\u0438\u043f\u0435","name:sr":"\u0421\u0430\u043e \u0422\u043e\u043c\u0435 \u0438 \u041f\u0440\u0438\u043d\u0441\u0438\u043f\u0435","name:sq":"Sao Tome e Prinsipe","name:ga":"S\u00e3o Tom\u00e9 agus Pr\u00edncipe","name:gd":"S\u00e3o Tom\u00e9 agus Pr\u00edncipe","name:gl":"Santo Tom\u00e9 e Pr\u00edncipe","name:yo":"Or\u00edl\u1eb9\u0301\u00e8de Sao tomi ati pirii\u1e63ipi","name:ak":"S\u00e3o Tom\u00e9 and Pr\u00edncipe"},"coordinates":[976,647]},{"type":"Point","properties":{"admin_level":"4","kind":"region","name":"Littoral","kind_detail":"state","name:de":"K\u00fcste","source":"openstreetmap.org","min_zoom":4.0,"id":2169076382},"coordinates":[3227,3065]},{"type":"Point","properties":{"admin_level":"4","kind":"region","name:en":"Southwest","name":"Sud-Ouest","kind_detail":"state","name:de":"S\u00fcdwest","source":"openstreetmap.org","min_zoom":4.0,"id":2169076416},"coordinates":[2624,3689]},{"type":"Point","properties":{"admin_level":"4","kind":"region","name:en":"West","name":"Ouest","kind_detail":"state","name:pt":"Oeste","name:de":"West","source":"openstreetmap.org","min_zoom":4.0,"id":2169076403},"coordinates":[3661,4027]},{"type":"Point","properties":{"kind":"region","name":"Bioko Norte","kind_detail":"state","min_zoom":4.0,"name:de":"Nordbioko","source":"openstreetmap.org","name:fr":"Bioko Nord","name:uk":"\u0411\u0439\u043e\u043a\u043e \u041d\u043e\u0440\u0442\u0435","name:ru":"\u0421\u0435\u0432\u0435\u0440\u043d\u044b\u0439 \u0411\u0438\u043e\u043a\u043e","id":366514155},"coordinates":[2301,2661]},{"type":"Point","properties":{"kind":"region","name":"Bioko Sur","kind_detail":"state","name:pt":"Bioko Sul","name:de":"S\u00fcdbioko","source":"openstreetmap.org","name:fr":"Bioko Sud","name:uk":"\u0411\u0439\u043e\u043a\u043e \u0421\u0443\u0440","name:ru":"\u042e\u0436\u043d\u044b\u0439 \u0411\u0438\u043e\u043a\u043e","min_zoom":4.0,"id":366514518},"coordinates":[2213,2498]},{"type":"Point","properties":{"admin_level":"4","kind":"region","name":"Bayelsa","kind_detail":"state","source":"openstreetmap.org","min_zoom":4.0,"name:uk":"\u0411\u0430\u0454\u043b\u0441\u0430","name:ru":"\u0411\u0430\u0439\u0435\u043b\u044c\u0441\u0430","id":2163706693},"coordinates":[294,3474]},{"type":"Point","properties":{"admin_level":"4","kind":"region","name":"Rivers","kind_detail":"state","source":"openstreetmap.org","min_zoom":4.0,"name:uk":"\u0420\u0456\u0432\u0435\u0440\u0441","name:ru":"\u0420\u0438\u0432\u0435\u0440\u0441","id":2163706719},"coordinates":[900,3531]},{"type":"Point","properties":{"admin_level":"4","kind":"region","name":"Delta","kind_detail":"state","source":"openstreetmap.org","min_zoom":4.0,"name:uk":"\u0414\u0435\u043b\u044c\u0442\u0430","name:ru":"\u0414\u0435\u043b\u044c\u0442\u0430","id":2163706697},"coordinates":[403,4031]},{"type":"Point","properties":{"admin_level":"4","kind":"region","name":"Imo","kind_detail":"state","source":"openstreetmap.org","min_zoom":4.0,"name:uk":"\u0406\u043c\u043e","name:ru":"\u0418\u043c\u043e","id":2163706703},"coordinates":[1050,4074]},{"type":"Point","properties":{"admin_level":"4","kind":"region","name":"Abia","kind_detail":"state","source":"openstreetmap.org","min_zoom":4.0,"name:uk":"\u0410\u0431\u0456\u044f","name:ru":"\u0410\u0431\u0438\u044f","id":2163706687},"coordinates":[1376,3978]},{"type":"Point","properties":{"admin_level":"4","kind":"region","name":"Akwa Ibom","kind_detail":"state","source":"openstreetmap.org","min_zoom":4.0,"name:uk":"\u0410\u043a\u0432\u0430-\u0406\u0431\u043e\u043c","name:ru":"\u0410\u043a\u0432\u0430-\u0418\u0431\u043e\u043c","id":2163706690},"coordinates":[1614,3604]},{"type":"Point","properties":{"admin_level":"4","kind":"region","name":"Estuaire","source":"openstreetmap.org","kind_detail":"state","min_zoom":4.0,"id":4346454112},"coordinates":[2797,314]},{"type":"Point","properties":{"admin_level":"4","kind":"region","name:en":"Centro Sur Province","name":"Centro Sur","kind_detail":"state","source":"openstreetmap.org","min_zoom":4.0,"id":4353431419},"coordinates":[3516,1019]},{"type":"Point","properties":{"admin_level":"4","kind":"region","name:en":"Litoral Province","name":"Litoral","kind_detail":"state","source":"openstreetmap.org","min_zoom":4.0,"id":4353432657},"coordinates":[3070,1169]},{"type":"Point","properties":{"admin_level":"4","kind":"region","name:en":"Wele-Nzas Province","name":"Wele-Nzas","kind_detail":"state","source":"openstreetmap.org","min_zoom":4.0,"id":4353431092},"coordinates":[4010,1068]},{"type":"Point","properties":{"admin_level":"4","kind":"region","name:en":"Ki\u00e9-Ntem Province","name":"Ki\u00e9-Ntem","kind_detail":"state","source":"openstreetmap.org","min_zoom":4.0,"id":4353431743},"coordinates":[3903,1501]},{"type":"Point","properties":{"source":"naturalearthdata.com","kind":"locality","name":"Douala","population":1906000,"min_zoom":5.0,"id":6283},"coordinates":[2973,2963]},{"type":"Point","properties":{"source":"naturalearthdata.com","kind":"locality","name":"Port Harcourt","population":1020000,"region_capital":true,"min_zoom":5.0,"id":6429},"coordinates":[1007,3510]},{"type":"Point","properties":{"source":"naturalearthdata.com","kind":"locality","name":"Warri","population":830106,"min_zoom":5.0,"id":6433},"coordinates":[98,4026]},{"type":"Point","properties":{"source":"naturalearthdata.com","kind":"locality","name":"Libreville","country_capital":true,"population":578156,"min_zoom":5.0,"id":6971},"coordinates":[2791,281]},{"type":"Point","properties":{"source":"naturalearthdata.com","kind":"locality","name":"Malabo","country_capital":true,"population":155963,"min_zoom":5.0,"id":6951},"coordinates":[2300,2735]},{"type":"Point","properties":{"source":"naturalearthdata.com","kind":"locality","name":"Sao Tome","country_capital":true,"population":88219,"min_zoom":5.0,"id":7096},"coordinates":[807,243]},{"type":"Point","properties":{"source":"naturalearthdata.com","kind":"locality","name":"Ebolowa","population":87875,"region_capital":true,"min_zoom":5.0,"id":6686},"coordinates":[4023,2115]},{"type":"Point","properties":{"source":"naturalearthdata.com","kind":"locality","name":"Bata","population":173046,"region_capital":true,"min_zoom":6.0,"id":5864},"coordinates":[3018,1364]}]},"transit":{"type":"GeometryCollection","geometries":[{"type":"MultiLineString","properties":{"kind":"train","name:en":"Trans-Gabon Railway","name":"Transgabonais","sort_rank":275,"name:de":"Trans-Gabun-Eisenbahn","source":"openstreetmap.org","min_zoom":6.0,"operator":"SETRAG","osm_relation":true},"arcs":[[126],[127]]},{"type":"LineString","properties":{"source":"openstreetmap.org","kind":"train","name":"Mbanga - Kumba mixed passenger and freight train","sort_rank":275,"min_zoom":6.0,"osm_relation":true,"id":-6905289},"arcs":[128]}]},"pois":{"type":"GeometryCollection","geometries":[]},"boundaries":{"type":"GeometryCollection","geometries":[{"type":"MultiLineString","properties":{"source":"naturalearthdata.com","kind":"country","sort_rank":262,"kind_detail":"2","min_zoom":0.0,"id":363},"arcs":[[0],[1]]},{"type":"LineString","properties":{"source":"naturalearthdata.com","kind":"country","sort_rank":262,"kind_detail":"2","min_zoom":0.0,"id":18},"arcs":[2]},{"type":"MultiLineString","properties":{"source":"naturalearthdata.com","kind":"country","sort_rank":262,"kind_detail":"2","min_zoom":0.0,"id":364},"arcs":[[3],[4],[5]]},{"type":"LineString","properties":{"source":"naturalearthdata.com","kind":"country","sort_rank":262,"kind_detail":"2","min_zoom":0.0,"id":278},"arcs":[6]},{"type":"MultiLineString","properties":{"source":"naturalearthdata.com","kind":"region","sort_rank":256,"kind_detail":"4","min_zoom":5.5,"id":4539},"arcs":[[7],[8]]},{"type":"LineString","properties":{"source":"naturalearthdata.com","kind":"region","sort_rank":256,"kind_detail":"4","min_zoom":5.5,"id":4541},"arcs":[9]},{"type":"LineString","properties":{"source":"naturalearthdata.com","kind":"region","sort_rank":256,"kind_detail":"4","min_zoom":5.5,"id":4543},"arcs":[10]},{"type":"LineString","properties":{"source":"naturalearthdata.com","kind":"region","sort_rank":256,"kind_detail":"4","min_zoom":3.0,"id":378},"arcs":[11]},{"type":"LineString","properties":{"source":"naturalearthdata.com","kind":"region","sort_rank":256,"kind_detail":"4","min_zoom":3.0,"id":381},"arcs":[12]},{"type":"LineString","properties":{"source":"naturalearthdata.com","kind":"region","sort_rank":256,"kind_detail":"4","min_zoom":5.5,"id":3972},"arcs":[13]},{"type":"MultiLineString","properties":{"source":"naturalearthdata.com","kind":"region","sort_rank":256,"kind_detail":"4","min_zoom":5.5,"id":3973},"arcs":[[14],[15],[16],[17]]},{"type":"MultiLineString","properties":{"source":"naturalearthdata.com","kind":"region","sort_rank":256,"kind_detail":"4","min_zoom":5.5,"id":3974},"arcs":[[18],[19],[20]]},{"type":"MultiLineString","properties":{"source":"naturalearthdata.com","kind":"region","sort_rank":256,"kind_detail":"4","min_zoom":6.8,"id":4039},"arcs":[[21],[22],[23],[24],[25]]},{"type":"MultiLineString","properties":{"source":"naturalearthdata.com","kind":"region","sort_rank":256,"kind_detail":"4","min_zoom":6.8,"id":4040},"arcs":[[26],[27],[28]]},{"type":"MultiLineString","properties":{"source":"naturalearthdata.com","kind":"region","sort_rank":256,"kind_detail":"4","min_zoom":6.8,"id":4041},"arcs":[[29],[30],[31],[32],[33],[34],[35],[36],[37]]},{"type":"MultiLineString","properties":{"source":"naturalearthdata.com","kind":"region","sort_rank":256,"kind_detail":"4","min_zoom":6.8,"id":4042},"arcs":[[38],[39],[40],[41],[42],[43],[44],[45]]},{"type":"MultiLineString","properties":{"source":"naturalearthdata.com","kind":"region","sort_rank":256,"kind_detail":"4","min_zoom":6.8,"id":4043},"arcs":[[46],[47],[48],[49]]},{"type":"MultiLineString","properties":{"source":"naturalearthdata.com","kind":"region","sort_rank":256,"kind_detail":"4","min_zoom":5.5,"id":4534},"arcs":[[50],[51],[52],[53],[54],[55],[56]]},{"type":"MultiLineString","properties":{"source":"naturalearthdata.com","kind":"region","sort_rank":256,"kind_detail":"4","min_zoom":5.5,"id":4544},"arcs":[[57],[58],[59]]},{"type":"MultiLineString","properties":{"source":"naturalearthdata.com","kind":"region","sort_rank":256,"kind_detail":"4","min_zoom":5.5,"id":4533},"arcs":[[60],[61],[62],[63]]},{"type":"MultiLineString","properties":{"source":"naturalearthdata.com","kind":"region","sort_rank":256,"kind_detail":"4","min_zoom":5.5,"id":4535},"arcs":[[64],[65],[66],[67],[68],[69],[70],[71],[72],[73],[74],[75],[76],[77],[78],[79],[80],[81]]},{"type":"MultiLineString","properties":{"source":"naturalearthdata.com","kind":"region","sort_rank":256,"kind_detail":"4","min_zoom":5.5,"id":4538},"arcs":[[82],[83],[84],[85],[86],[87],[88],[89]]},{"type":"MultiLineString","properties":{"source":"naturalearthdata.com","kind":"region","sort_rank":256,"kind_detail":"4","min_zoom":3.0,"id":6060},"arcs":[[90],[91]]},{"type":"MultiLineString","properties":{"source":"naturalearthdata.com","kind":"region","sort_rank":256,"kind_detail":"4","min_zoom":3.0,"id":6062},"arcs":[[92],[93],[94]]},{"type":"MultiLineString","properties":{"source":"naturalearthdata.com","kind":"region","sort_rank":256,"kind_detail":"4","min_zoom":3.0,"id":6065},"arcs":[[95],[96],[97],[98],[99],[100],[101],[102],[103],[104],[105],[106]]},{"type":"MultiLineString","properties":{"source":"naturalearthdata.com","kind":"region","sort_rank":256,"kind_detail":"4","min_zoom":3.0,"id":6084},"arcs":[[107],[108],[109]]},{"type":"MultiLineString","properties":{"source":"naturalearthdata.com","kind":"region","sort_rank":256,"kind_detail":"4","min_zoom":3.0,"id":6086},"arcs":[[110],[111],[112],[113],[114],[115]]},{"type":"MultiLineString","properties":{"source":"naturalearthdata.com","kind":"region","sort_rank":256,"kind_detail":"4","min_zoom":3.0,"id":6087},"arcs":[[116],[117],[118]]},{"type":"LineString","properties":{"source":"naturalearthdata.com","kind":"region","sort_rank":256,"kind_detail":"4","min_zoom":3.0,"id":6088},"arcs":[119]},{"type":"LineString","properties":{"source":"naturalearthdata.com","kind":"region","sort_rank":256,"kind_detail":"4","min_zoom":3.0,"id":6753},"arcs":[120]},{"type":"MultiLineString","properties":{"source":"naturalearthdata.com","kind":"region","sort_rank":256,"kind_detail":"4","min_zoom":3.0,"id":6755},"arcs":[[121],[122],[123],[124]]},{"type":"LineString","properties":{"source":"naturalearthdata.com","kind":"region","sort_rank":256,"kind_detail":"4","min_zoom":3.0,"id":6761},"arcs":[125]}]},"roads":{"type":"GeometryCollection","geometries":[{"type":"LineString","properties":{"source":"naturalearthdata.com","kind":"major_road","sort_rank":379,"kind_detail":"secondary","min_zoom":4.0,"id":40106},"arcs":[144]},{"type":"LineString","properties":{"source":"naturalearthdata.com","kind":"major_road","sort_rank":379,"kind_detail":"secondary","min_zoom":3.0,"id":40122},"arcs":[145]},{"type":"LineString","properties":{"source":"naturalearthdata.com","kind":"highway","kind_detail":"motorway","sort_rank":383,"landuse_kind":"urban_area","min_zoom":5.0,"id":40127},"arcs":[146]},{"type":"LineString","properties":{"source":"naturalearthdata.com","kind":"highway","sort_rank":383,"kind_detail":"motorway","min_zoom":5.0,"id":40127},"arcs":[147]},{"type":"LineString","properties":{"source":"naturalearthdata.com","kind":"major_road","sort_rank":379,"kind_detail":"secondary","min_zoom":4.0,"id":40133},"arcs":[148]},{"type":"LineString","properties":{"source":"naturalearthdata.com","kind":"highway","kind_detail":"motorway","sort_rank":383,"landuse_kind":"urban_area","min_zoom":3.0,"id":40139},"arcs":[149]},{"type":"LineString","properties":{"source":"naturalearthdata.com","kind":"highway","sort_rank":383,"kind_detail":"motorway","min_zoom":3.0,"id":40139},"arcs":[150]},{"type":"LineString","properties":{"source":"naturalearthdata.com","kind":"major_road","sort_rank":379,"kind_detail":"secondary","min_zoom":4.0,"id":40144},"arcs":[151]},{"type":"LineString","properties":{"source":"naturalearthdata.com","kind":"major_road","kind_detail":"secondary","sort_rank":379,"landuse_kind":"urban_area","min_zoom":4.0,"id":40153},"arcs":[152]},{"type":"LineString","properties":{"source":"naturalearthdata.com","kind":"major_road","sort_rank":379,"kind_detail":"secondary","min_zoom":4.0,"id":40153},"arcs":[153]},{"type":"LineString","properties":{"source":"naturalearthdata.com","kind":"major_road","kind_detail":"secondary","sort_rank":379,"landuse_kind":"urban_area","min_zoom":4.0,"id":40154},"arcs":[154]},{"type":"LineString","properties":{"source":"naturalearthdata.com","kind":"major_road","sort_rank":379,"kind_detail":"secondary","min_zoom":4.0,"id":40154},"arcs":[155]},{"type":"LineString","properties":{"source":"naturalearthdata.com","kind":"minor_road","sort_rank":355,"kind_detail":"tertiary","min_zoom":5.0,"id":40157},"arcs":[156]},{"type":"LineString","properties":{"source":"naturalearthdata.com","kind":"major_road","kind_detail":"secondary","sort_rank":379,"landuse_kind":"urban_area","min_zoom":4.0,"id":40193},"arcs":[157]},{"type":"LineString","properties":{"source":"naturalearthdata.com","kind":"major_road","sort_rank":379,"kind_detail":"secondary","min_zoom":4.0,"id":40193},"arcs":[158]},{"type":"LineString","properties":{"source":"naturalearthdata.com","kind":"major_road","kind_detail":"secondary","sort_rank":379,"landuse_kind":"urban_area","min_zoom":4.0,"id":40228},"arcs":[159]},{"type":"MultiLineString","properties":{"source":"naturalearthdata.com","kind":"major_road","sort_rank":379,"kind_detail":"secondary","min_zoom":4.0,"id":40228},"arcs":[[160],[161]]},{"type":"LineString","properties":{"source":"naturalearthdata.com","kind":"major_road","sort_rank":379,"kind_detail":"secondary","min_zoom":4.0,"id":40256},"arcs":[162]},{"type":"LineString","properties":{"source":"naturalearthdata.com","kind":"major_road","sort_rank":379,"kind_detail":"secondary","min_zoom":4.0,"id":40260},"arcs":[163]},{"type":"LineString","properties":{"source":"naturalearthdata.com","kind":"major_road","sort_rank":379,"kind_detail":"secondary","min_zoom":4.0,"id":40261},"arcs":[164]},{"type":"LineString","properties":{"source":"naturalearthdata.com","kind":"minor_road","sort_rank":355,"kind_detail":"tertiary","min_zoom":6.0,"id":40262},"arcs":[165]},{"type":"LineString","properties":{"source":"naturalearthdata.com","kind":"major_road","sort_rank":379,"kind_detail":"secondary","min_zoom":4.0,"id":40266},"arcs":[166]},{"type":"LineString","properties":{"source":"naturalearthdata.com","kind":"major_road","sort_rank":379,"kind_detail":"secondary","min_zoom":4.0,"id":40270},"arcs":[167]},{"type":"LineString","properties":{"source":"naturalearthdata.com","kind":"highway","kind_detail":"motorway","sort_rank":383,"landuse_kind":"urban_area","min_zoom":3.0,"id":40273},"arcs":[168]},{"type":"LineString","properties":{"source":"naturalearthdata.com","kind":"highway","kind_detail":"motorway","sort_rank":383,"landuse_kind":"urban_area","min_zoom":3.0,"id":40273},"arcs":[169]},{"type":"LineString","properties":{"source":"naturalearthdata.com","kind":"highway","sort_rank":383,"kind_detail":"motorway","min_zoom":3.0,"id":40273},"arcs":[170]},{"type":"LineString","properties":{"source":"naturalearthdata.com","kind":"major_road","sort_rank":379,"kind_detail":"secondary","min_zoom":4.0,"id":40276},"arcs":[171]},{"type":"LineString","properties":{"source":"naturalearthdata.com","kind":"minor_road","sort_rank":355,"kind_detail":"tertiary","min_zoom":5.0,"id":40280},"arcs":[172]},{"type":"LineString","properties":{"source":"naturalearthdata.com","kind":"minor_road","sort_rank":355,"kind_detail":"tertiary","min_zoom":5.0,"id":40297},"arcs":[173]},{"type":"LineString","properties":{"source":"naturalearthdata.com","kind":"minor_road","sort_rank":355,"kind_detail":"tertiary","min_zoom":5.0,"id":40298},"arcs":[174]},{"type":"LineString","properties":{"source":"naturalearthdata.com","kind":"minor_road","sort_rank":355,"kind_detail":"tertiary","min_zoom":5.0,"id":40325},"arcs":[175]},{"type":"LineString","properties":{"source":"naturalearthdata.com","kind":"highway","kind_detail":"motorway","sort_rank":383,"landuse_kind":"urban_area","min_zoom":3.0,"id":40365},"arcs":[176]},{"type":"LineString","properties":{"source":"naturalearthdata.com","kind":"highway","kind_detail":"motorway","sort_rank":383,"landuse_kind":"urban_area","min_zoom":3.0,"id":40365},"arcs":[177]},{"type":"LineString","properties":{"source":"naturalearthdata.com","kind":"highway","sort_rank":383,"kind_detail":"motorway","min_zoom":3.0,"id":40365},"arcs":[178]},{"type":"LineString","properties":{"source":"naturalearthdata.com","kind":"major_road","kind_detail":"secondary","sort_rank":379,"landuse_kind":"urban_area","min_zoom":3.0,"id":40376},"arcs":[179]},{"type":"LineString","properties":{"source":"naturalearthdata.com","kind":"highway","kind_detail":"motorway","sort_rank":383,"landuse_kind":"urban_area","min_zoom":6.0,"id":40377},"arcs":[180]},{"type":"LineString","properties":{"source":"naturalearthdata.com","kind":"highway","sort_rank":383,"kind_detail":"motorway","min_zoom":6.0,"id":40377},"arcs":[181]},{"type":"LineString","properties":{"source":"naturalearthdata.com","kind":"major_road","kind_detail":"secondary","sort_rank":379,"landuse_kind":"urban_area","min_zoom":3.0,"id":40400},"arcs":[182]},{"type":"LineString","properties":{"source":"naturalearthdata.com","kind":"major_road","sort_rank":379,"kind_detail":"secondary","min_zoom":3.0,"id":40400},"arcs":[183]},{"type":"LineString","properties":{"source":"naturalearthdata.com","kind":"major_road","sort_rank":379,"kind_detail":"secondary","min_zoom":4.0,"id":40405},"arcs":[184]},{"type":"LineString","properties":{"source":"naturalearthdata.com","kind":"major_road","sort_rank":379,"kind_detail":"secondary","min_zoom":4.0,"id":40406},"arcs":[185]},{"type":"LineString","properties":{"source":"naturalearthdata.com","kind":"major_road","sort_rank":379,"kind_detail":"secondary","min_zoom":4.0,"id":40414},"arcs":[186]},{"type":"LineString","properties":{"source":"naturalearthdata.com","kind":"major_road","sort_rank":379,"kind_detail":"secondary","min_zoom":4.0,"id":40426},"arcs":[187]},{"type":"LineString","properties":{"source":"naturalearthdata.com","kind":"minor_road","kind_detail":"tertiary","sort_rank":355,"landuse_kind":"urban_area","min_zoom":6.0,"id":40450},"arcs":[188]},{"type":"MultiLineString","properties":{"source":"naturalearthdata.com","kind":"minor_road","sort_rank":355,"kind_detail":"tertiary","min_zoom":6.0,"id":40450},"arcs":[[189],[190]]},{"type":"LineString","properties":{"source":"naturalearthdata.com","kind":"major_road","kind_detail":"secondary","sort_rank":379,"landuse_kind":"urban_area","min_zoom":3.0,"id":40451},"arcs":[191]},{"type":"MultiLineString","properties":{"source":"naturalearthdata.com","kind":"major_road","sort_rank":379,"kind_detail":"secondary","min_zoom":3.0,"id":40451},"arcs":[[192],[193]]},{"type":"LineString","properties":{"source":"naturalearthdata.com","kind":"major_road","sort_rank":379,"kind_detail":"secondary","min_zoom":3.0,"id":40535},"arcs":[194]},{"type":"MultiLineString","properties":{"source":"naturalearthdata.com","kind":"major_road","sort_rank":379,"kind_detail":"secondary","min_zoom":4.0,"id":40567},"arcs":[[195],[196]]},{"type":"LineString","properties":{"source":"naturalearthdata.com","kind":"major_road","sort_rank":379,"kind_detail":"secondary","min_zoom":4.0,"id":40579},"arcs":[197]},{"type":"LineString","properties":{"source":"naturalearthdata.com","kind":"major_road","sort_rank":379,"kind_detail":"secondary","min_zoom":3.0,"id":40580},"arcs":[198]},{"type":"LineString","properties":{"source":"naturalearthdata.com","kind":"major_road","sort_rank":379,"kind_detail":"secondary","min_zoom":3.0,"id":40581},"arcs":[199]},{"type":"LineString","properties":{"source":"naturalearthdata.com","kind":"major_road","kind_detail":"secondary","sort_rank":379,"landuse_kind":"urban_area","min_zoom":3.0,"id":40591},"arcs":[200]},{"type":"LineString","properties":{"source":"naturalearthdata.com","kind":"major_road","sort_rank":379,"kind_detail":"secondary","min_zoom":3.0,"id":40591},"arcs":[201]},{"type":"LineString","properties":{"source":"naturalearthdata.com","kind":"major_road","kind_detail":"secondary","sort_rank":379,"landuse_kind":"urban_area","min_zoom":3.0,"id":40596},"arcs":[202]},{"type":"LineString","properties":{"source":"naturalearthdata.com","kind":"major_road","kind_detail":"secondary","sort_rank":379,"landuse_kind":"urban_area","min_zoom":3.0,"id":40596},"arcs":[203]},{"type":"MultiLineString","properties":{"source":"naturalearthdata.com","kind":"major_road","sort_rank":379,"kind_detail":"secondary","min_zoom":3.0,"id":40596},"arcs":[[204],[205]]},{"type":"LineString","properties":{"source":"naturalearthdata.com","kind":"minor_road","kind_detail":"tertiary","sort_rank":355,"landuse_kind":"urban_area","min_zoom":6.0,"id":40597},"arcs":[206]},{"type":"LineString","properties":{"source":"naturalearthdata.com","kind":"minor_road","sort_rank":355,"kind_detail":"tertiary","min_zoom":6.0,"id":40597},"arcs":[207]},{"type":"LineString","properties":{"source":"naturalearthdata.com","kind":"minor_road","kind_detail":"tertiary","sort_rank":355,"landuse_kind":"urban_area","min_zoom":6.0,"id":40598},"arcs":[208]},{"type":"MultiLineString","properties":{"source":"naturalearthdata.com","kind":"minor_road","sort_rank":355,"kind_detail":"tertiary","min_zoom":6.0,"id":40598},"arcs":[[209],[210]]},{"type":"LineString","properties":{"source":"naturalearthdata.com","kind":"major_road","sort_rank":379,"kind_detail":"secondary","min_zoom":3.0,"id":40651},"arcs":[211]},{"type":"LineString","properties":{"source":"naturalearthdata.com","kind":"major_road","sort_rank":379,"kind_detail":"secondary","min_zoom":3.0,"id":40664},"arcs":[212]},{"type":"LineString","properties":{"source":"naturalearthdata.com","kind":"major_road","sort_rank":379,"kind_detail":"secondary","min_zoom":3.0,"id":40666},"arcs":[213]},{"type":"LineString","properties":{"source":"naturalearthdata.com","kind":"major_road","kind_detail":"secondary","sort_rank":379,"landuse_kind":"urban_area","min_zoom":3.0,"id":40668},"arcs":[214]},{"type":"LineString","properties":{"source":"naturalearthdata.com","kind":"major_road","sort_rank":379,"kind_detail":"secondary","min_zoom":3.0,"id":40668},"arcs":[215]},{"type":"LineString","properties":{"source":"naturalearthdata.com","kind":"major_road","sort_rank":379,"kind_detail":"secondary","min_zoom":4.0,"id":40806},"arcs":[216]},{"type":"LineString","properties":{"source":"naturalearthdata.com","kind":"major_road","sort_rank":379,"kind_detail":"secondary","min_zoom":4.0,"id":40861},"arcs":[217]},{"type":"LineString","properties":{"source":"naturalearthdata.com","kind":"major_road","sort_rank":379,"kind_detail":"secondary","min_zoom":3.0,"id":40867},"arcs":[218]},{"type":"LineString","properties":{"source":"naturalearthdata.com","kind":"major_road","sort_rank":379,"kind_detail":"secondary","min_zoom":4.0,"id":40901},"arcs":[219]},{"type":"LineString","properties":{"source":"naturalearthdata.com","kind":"major_road","sort_rank":379,"kind_detail":"secondary","min_zoom":4.0,"id":40902},"arcs":[220]},{"type":"LineString","properties":{"source":"naturalearthdata.com","kind":"major_road","sort_rank":379,"kind_detail":"secondary","min_zoom":3.0,"id":40950},"arcs":[221]},{"type":"LineString","properties":{"source":"naturalearthdata.com","kind":"major_road","sort_rank":379,"kind_detail":"secondary","min_zoom":3.0,"id":41012},"arcs":[222]},{"type":"LineString","properties":{"source":"naturalearthdata.com","kind":"minor_road","sort_rank":355,"kind_detail":"tertiary","min_zoom":5.0,"id":41089},"arcs":[223]},{"type":"LineString","properties":{"source":"naturalearthdata.com","kind":"minor_road","sort_rank":355,"kind_detail":"tertiary","min_zoom":5.0,"id":41099},"arcs":[224]},{"type":"LineString","properties":{"source":"naturalearthdata.com","kind":"minor_road","sort_rank":355,"kind_detail":"tertiary","min_zoom":5.0,"id":41141},"arcs":[225]},{"type":"LineString","properties":{"source":"naturalearthdata.com","kind":"minor_road","sort_rank":355,"kind_detail":"tertiary","min_zoom":5.0,"id":41174},"arcs":[226]},{"type":"LineString","properties":{"source":"naturalearthdata.com","kind":"minor_road","sort_rank":355,"kind_detail":"tertiary","min_zoom":5.0,"id":41193},"arcs":[227]},{"type":"LineString","properties":{"source":"naturalearthdata.com","kind":"minor_road","sort_rank":355,"kind_detail":"tertiary","min_zoom":5.0,"id":41294},"arcs":[228]},{"type":"LineString","properties":{"source":"naturalearthdata.com","kind":"minor_road","sort_rank":355,"kind_detail":"tertiary","min_zoom":6.0,"id":41309},"arcs":[229]},{"type":"LineString","properties":{"source":"naturalearthdata.com","kind":"minor_road","sort_rank":355,"kind_detail":"tertiary","min_zoom":6.0,"id":41445},"arcs":[230]},{"type":"LineString","properties":{"source":"naturalearthdata.com","kind":"major_road","sort_rank":379,"kind_detail":"secondary","min_zoom":3.0,"id":41447},"arcs":[231]},{"type":"LineString","properties":{"source":"naturalearthdata.com","kind":"major_road","sort_rank":379,"kind_detail":"secondary","min_zoom":3.0,"id":41448},"arcs":[232]},{"type":"LineString","properties":{"source":"naturalearthdata.com","kind":"minor_road","kind_detail":"tertiary","sort_rank":355,"landuse_kind":"urban_area","min_zoom":6.0,"id":41465},"arcs":[233]},{"type":"LineString","properties":{"source":"naturalearthdata.com","kind":"minor_road","sort_rank":355,"kind_detail":"tertiary","min_zoom":6.0,"id":41465},"arcs":[234]},{"type":"LineString","properties":{"source":"naturalearthdata.com","kind":"major_road","sort_rank":379,"kind_detail":"secondary","min_zoom":3.0,"id":41560},"arcs":[235]},{"type":"LineString","properties":{"source":"naturalearthdata.com","kind":"major_road","sort_rank":379,"kind_detail":"secondary","min_zoom":3.0,"id":41589},"arcs":[236]}]},"earth":{"type":"GeometryCollection","geometries":[{"type":"MultiPolygon","properties":{"sort_rank":10,"source":"naturalearthdata.com","min_zoom":0.0,"kind":"earth","area":924430277350},"arcs":[[[237]],[[238]],[[239]],[[240]],[[241]],[[242]]]}]},"landuse":{"type":"GeometryCollection","geometries":[{"type":"MultiPolygon","properties":{"source":"openstreetmap.org","kind":"nature_reserve","tier":2,"area":1698944922,"sort_rank":23,"min_zoom":6.0},"arcs":[[[243]],[[244]],[[245]]]},{"type":"MultiPolygon","properties":{"source":"openstreetmap.org","kind":"park","tier":2,"area":3385078710,"sort_rank":24,"min_zoom":6.0,"osm_relation":true},"arcs":[[[246]],[[247]],[[248]],[[249]],[[250]]]},{"type":"Polygon","properties":{"source":"openstreetmap.org","kind":"park","area":321215008,"tier":2,"id":321666014,"min_zoom":6.0,"sort_rank":24},"arcs":[[251]]},{"type":"MultiPolygon","properties":{"source":"naturalearthdata.com","kind":"urban_area","name":"","area":11850972521,"sort_rank":11,"min_zoom":4.0},"arcs":[[[252]],[[253]],[[254]],[[255]],[[256]],[[257]],[[258]],[[259]],[[260]],[[261]],[[262]],[[263]],[[264]],[[265]],[[266]],[[267]],[[268]],[[269]],[[270]],[[271]],[[272]],[[273]],[[274]],[[275]],[[276]],[[277]],[[278]],[[279]],[[280]],[[281]],[[282]]]},{"type":"MultiPolygon","properties":{"source":"openstreetmap.org","kind":"park","tier":2,"area":5594946617,"sort_rank":24,"min_zoom":4.0,"osm_relation":true},"arcs":[[[283]],[[284],[285],[286],[287],[288],[289],[290],[291],[292],[293]]]},{"type":"MultiPolygon","properties":{"source":"openstreetmap.org","kind":"nature_reserve","tier":2,"area":3200489209,"sort_rank":23,"min_zoom":6.0,"osm_relation":true},"arcs":[[[294]],[[295]],[[296]],[[297]]]}]}},"type":"Topology","transform":{"translate":[5.625,-0.0],"scale":[0.001373291,0.0013710903]},"arcs":[[[3179,1579],[-15,3],[-46,23],[-12,3],[-13,5],[-19,12],[-17,15],[-9,12],[-2,15],[3,15],[-1,14],[-8,12]],[[4096,1580],[-165,0],[-218,0],[-218,0],[-11,0],[-160,-1],[-47,0],[-98,0]],[[2162,3512],[-11,0],[-10,-7],[-5,-11],[-3,-20],[-3,-33],[-11,-21],[-18,-13]],[[3207,732],[80,0],[201,-1],[17,0],[218,-1],[165,0],[53,-1],[155,0]],[[3145,675],[12,2],[8,8],[3,10],[0,22],[4,10],[14,2],[21,3]],[[3043,728],[22,-2],[11,-4],[12,-9],[19,-22],[12,-9],[13,-6],[13,-1]],[[2382,4096],[6,-15],[-4,-18],[-11,-14],[-13,-13],[-11,-14],[-5,-16],[1,-14],[3,-15],[0,-15],[-5,-16],[-15,-31],[-5,-18],[1,-9],[6,-18],[1,-8],[-20,-99],[-5,-9],[-8,-4],[-8,-1],[-8,-4],[-8,-8],[-14,-21],[-4,-10],[-11,-32],[-7,-14],[-11,-15],[0,-1],[-28,-45],[-5,-13],[-20,-15],[-6,-11],[2,-15],[2,-10],[3,-11],[-12,-12],[-1,0]],[[3366,2592],[-5,15],[-12,9],[-14,9],[-10,4]],[[3325,2629],[-2,-1],[-2,-1],[-4,-5],[-2,-2],[-2,0],[-3,-2],[-17,-2],[-4,-1],[-5,-2],[-3,-2],[-2,-1],[-4,-5],[-4,-5],[-3,-4],[-2,-5],[-11,-16],[-5,-6],[-13,-10],[-2,-2],[-2,-3],[-2,-12],[-1,-15],[1,-9],[2,-11],[1,-2],[-1,-2],[-1,-3],[-2,-3],[-7,-7],[-1,-2],[0,-3],[1,-7],[0,-4],[-1,-2],[-1,-2],[-17,-31],[-3,-4],[-5,-4],[-18,-11],[-8,-7],[-7,-7],[-7,-9],[-5,-4],[-4,-3],[-12,-6],[-1,0]],[[2787,2974],[-2,-3],[-29,-48],[-8,-18],[-1,-7],[-1,-4],[-3,-2],[-7,-2],[-13,-7],[-24,-22],[0,-1]],[[3091,3907],[28,21],[30,76],[4,12],[3,32],[7,12],[12,14],[25,22]],[[1947,3488]],[[799,3349]],[[3773,169],[323,-1]],[[3773,169],[-13,2],[-3,1]],[[3757,172],[-3,-1],[-22,-11],[-11,-2],[-5,0],[-29,-3]],[[3687,155],[-10,0]],[[3677,155],[-4,-2],[-2,-2],[-1,-7],[0,-10],[-1,-6],[-3,-4],[-3,-3],[-12,-12],[-2,-2],[-2,-5],[-1,-2],[0,-2],[0,-6],[0,-3],[2,-5],[6,-13],[1,-7],[-4,-6],[-20,-10],[-6,-5],[-8,-10],[-14,-15],[-13,-7],[-8,-10],[0,-1]],[[3486,465],[-6,2],[-4,6],[-6,22],[-3,6],[-4,7],[-11,15],[-1,11],[3,14],[11,28],[8,15],[11,36],[4,104]],[[3773,169],[5,4],[5,7],[1,1],[3,2],[5,7],[4,9],[1,4],[0,4],[0,8],[-6,24],[2,8],[1,4],[4,3],[3,2],[2,3],[1,4],[2,6],[2,19],[15,54],[3,7],[9,14],[1,3],[2,9],[2,3],[2,4],[3,4],[6,9],[2,6],[8,30],[1,2],[1,1],[4,4],[11,9],[2,3],[1,5],[4,17],[7,20],[1,10],[2,50],[-2,16],[-7,29],[-3,2]],[[3883,599],[-7,0],[-380,-132],[-10,-2]],[[3324,1579],[6,-40],[-1,-35],[-3,-12],[-4,-10],[-5,-7],[-28,-24],[-7,-8],[-8,-14],[-4,-12],[-3,-13],[-4,-79],[-6,-14],[-26,-35],[-45,-79],[-14,-19],[-9,-7],[-14,-3],[-13,-4],[-6,-6],[-4,-8],[1,-6],[2,-5],[6,-3],[51,-14],[46,-13],[22,-10],[13,-11],[2,-4],[1,-3],[-5,-9],[-8,-17],[-1,-9],[1,-10],[6,-11],[6,-6],[14,-8],[3,-8],[2,-47],[2,-12],[5,-14],[6,-6],[6,-2],[8,0],[4,-4],[2,-7],[0,-9],[0,-10],[2,-6],[4,-5],[3,-5],[4,-19],[3,-5],[8,-5],[8,0]],[[3373,859],[7,-3],[3,-7],[3,-8],[1,-10],[-3,-9],[-6,-9],[-10,-8],[-11,-5],[-11,-4],[-27,-6],[-14,-1]],[[3353,847],[6,2],[5,6],[5,4],[4,0]],[[3305,789],[-11,0],[-9,2],[-15,4],[-7,1]],[[3263,796],[-7,-1],[-9,-3],[-3,-2],[-18,-7],[-17,-9],[-3,-4],[-4,-4],[-4,-6],[-7,-14],[-5,-15],[0,-2]],[[3515,1402],[-8,1],[-9,7],[-1,1],[-3,6],[-2,10],[2,17],[3,11],[6,14],[1,9],[-1,11],[-12,31],[-6,23],[-1,37]],[[3563,1397],[-4,4],[-14,4]],[[3545,1405],[-30,-3]],[[3563,1397],[18,-23],[49,-39],[4,-12],[-1,-17],[-4,-17],[-5,-14],[-19,-28],[-3,-10],[2,-10],[9,-14],[3,-8],[-4,-20],[-9,-15],[1,-12],[24,-12],[23,-6],[20,-2]],[[3828,1167],[5,-2],[2,-4],[1,-7],[2,-3],[12,-3],[37,-6]],[[3798,1147],[6,2],[9,11],[5,2],[5,3],[5,2]],[[3788,1165],[10,-18]],[[3770,1154],[7,4],[6,5],[5,2]],[[3744,1160],[7,0],[12,-4],[7,-2]],[[3671,1138],[19,2],[21,6],[24,12],[9,2]],[[3900,1147],[0,-4],[-4,-8],[-8,-4],[-26,-10],[-8,-6],[-33,-35],[-5,-9],[-11,-20],[-30,-41],[-14,-23],[-9,-23],[-2,-8],[2,-10],[6,-11],[47,-53],[9,-6],[30,-14],[8,-10],[8,-15],[12,-47],[6,-13],[6,-4],[6,-3],[5,-4],[4,-5],[1,-8],[-1,-7],[-10,-14],[-1,-2]],[[3887,1142],[3,0],[3,2],[7,3]],[[3670,1455],[7,0],[20,-4],[84,-36],[13,-4],[18,-3]],[[3563,1397],[81,48],[26,10]],[[3870,1440],[6,-2],[5,-6],[3,-10],[22,-137],[3,-8],[6,-7],[13,-6],[12,-1]],[[3812,1408],[12,1],[10,4],[7,5],[12,13],[7,5],[10,4]],[[4080,1274],[16,-2]],[[4031,1264],[9,1],[8,4],[32,5]],[[3985,1269],[46,-5]],[[3940,1263],[14,2],[15,3],[16,1]],[[2197,2650],[19,-6],[10,-6],[32,-22],[10,-4],[8,-2]],[[2186,2650],[11,0]],[[2288,2611],[19,-1],[19,-4],[10,-3],[7,-5],[2,-3],[2,-3],[11,-28]],[[2276,2610],[7,0],[5,1]],[[3091,3907],[-5,-53],[12,-16],[8,-1]],[[3135,3851],[10,-4],[24,-17],[5,-7],[3,-5],[2,-12],[10,-19],[1,-30],[-8,-17],[1,-3],[1,-3],[5,-10],[5,-14],[3,-6],[4,-4],[27,-15],[3,-4],[2,-6],[3,-19],[2,-9],[1,-1],[3,-5],[7,-4],[3,-2],[10,-11],[5,-23],[6,-8],[3,0],[3,-1]],[[3106,3837],[7,3],[7,5],[7,5],[8,1]],[[3458,3712],[10,-12],[6,-26],[8,-12],[6,-13],[13,-35],[8,-8],[17,-7],[7,-8],[6,-5],[14,-6]],[[3407,3701],[7,1],[16,5],[9,2],[19,3]],[[3383,3707],[8,-2],[8,-3],[8,-1]],[[3279,3592],[2,0],[5,1],[3,1],[7,1],[18,39],[6,6],[3,6],[27,19],[10,8],[5,10],[3,10],[7,12],[8,2]],[[3091,3907],[-24,-5],[-26,-31],[-9,-5],[-8,-1],[-8,0],[-6,-2],[-3,-6],[0,-7],[6,-27],[12,-30],[28,-34],[10,-17],[14,-31],[2,-13],[-8,-9],[-25,-5],[-12,-15],[-10,-22],[-6,-19],[-2,-10],[5,-10],[16,-17],[-1,-8],[-5,-7],[-7,-7],[-14,-18],[-23,-22],[-8,-11],[-3,-12],[-1,-8],[0,-19],[-8,-17],[-19,-15],[-20,-30],[-5,-24],[-5,-7],[-7,-2],[-6,-1]],[[2905,3383],[-10,3]],[[2895,3386],[-17,-1],[-5,-5],[-12,-16],[-23,-41],[-5,-20],[-4,-42],[2,-11],[7,-20],[-4,-15],[-51,-81],[-4,-20],[-1,-19],[15,-9],[51,-9],[10,-7],[6,-8],[6,-16],[1,-8],[-4,-6],[-10,-8],[-5,-7],[-8,-15],[-6,-6],[-5,-3],[-5,-1]],[[4054,4096],[1,-4],[0,-5],[2,-3],[7,-12],[1,-4],[2,-8],[1,-26],[-1,-12],[-7,-21],[-3,-6],[-3,-5],[-2,-2],[-9,-13],[10,-14],[0,-3],[-1,-5],[-2,-5],[-3,-8],[-2,-3],[-3,-2],[-10,-4],[-2,-1],[-18,-30],[-4,-5],[-3,-1],[-4,-1],[-5,0],[-5,-2],[-6,-3],[-9,-8],[-3,-6],[-2,-5],[0,-10],[3,-16],[0,-4],[-5,-21],[-1,-6],[0,-9],[2,-5],[4,-9],[-16,-5],[-19,-10],[-12,-9],[-11,-13],[-4,-11],[-3,-9],[-2,-17],[-7,-25],[-16,-40],[-1,-6],[-8,-20],[-8,-6],[-8,-3],[-17,0]],[[3842,3615],[-16,2],[-10,2],[-30,30],[-9,6],[-11,3]],[[3766,3658],[-7,-2],[-6,-5],[-2,-3],[-1,-2],[-1,-2],[-2,-5],[-4,-6],[-7,-7],[-8,-5],[-100,-48],[-11,-2],[-10,-1]],[[3607,3570],[-54,10]],[[3463,3430],[-7,1],[-5,5],[5,39],[6,14],[7,5],[30,16],[24,20],[16,18],[14,32]],[[3485,3275],[-7,3],[-3,3],[-1,3],[-1,4],[-1,7],[3,11],[5,14],[29,46],[31,33],[5,8],[3,7],[3,12],[1,9],[-1,10],[-3,10],[-8,11]],[[3540,3466],[-17,-3],[-24,-12],[-36,-21]],[[3893,3016],[9,9],[9,6],[39,9],[6,3],[7,3],[22,16],[17,15],[-7,10],[-3,4],[-75,68],[-36,61],[-24,61],[4,68],[-2,21],[-7,4],[-6,0]],[[3846,3374],[-8,-1],[-14,-6],[-6,-2]],[[3818,3365],[-8,1],[-8,3],[-9,2]],[[3793,3371],[-9,0],[-8,-4],[-7,-7],[-3,-11],[-8,-38],[-9,-19],[-21,-21]],[[3728,3271],[-12,5],[-6,6],[-1,9],[-3,5],[-5,3]],[[3701,3299],[-8,-7],[-4,-6],[-3,-4],[-10,-8],[-11,-5],[-29,-28],[-11,-4],[-9,-3]],[[3616,3234],[-29,4],[-9,6],[-6,5],[-8,6],[-7,4],[-6,1],[-7,0],[-6,1],[-7,3],[-14,12],[-8,2]],[[3509,3278],[-8,-1],[-8,-2],[-8,0]],[[3881,3019],[12,-3]],[[3778,2981],[15,4],[26,13],[33,7],[29,14]],[[3761,2982],[17,-1]],[[3627,2728],[8,3],[7,6],[6,8],[6,9],[7,22],[-2,19],[8,28],[0,6],[-1,11],[-4,19],[0,9],[4,13],[7,15],[17,28],[7,14],[8,14],[6,9],[6,2],[10,7],[4,1],[8,2],[5,2],[4,3],[5,3],[8,1]],[[3524,2801],[9,-8],[6,-6],[6,-6],[5,-3],[7,-3],[25,-6],[10,-6],[8,-8],[12,-17],[7,-7],[8,-3]],[[3381,2585],[2,0],[3,0],[2,1],[5,2],[4,2],[18,16],[7,4],[2,2],[2,3],[3,3],[3,35],[3,12],[16,40],[5,34],[2,9],[9,18],[17,16],[40,19]],[[3366,2592],[5,-4],[3,-1],[3,-1],[4,-1]],[[3366,2592],[-6,-23],[36,-120],[5,-2]],[[3770,2539],[13,-2],[6,-4],[3,-6],[4,-15],[3,-17],[4,-3]],[[3401,2447],[57,9],[230,67],[19,6],[47,10],[16,0]],[[3868,2499],[17,-4],[10,-4],[7,-4]],[[3803,2492],[31,1],[34,6]],[[3933,2491],[8,0],[9,-7],[22,-26],[8,-19],[12,-55],[8,-11],[8,-6],[7,-2],[7,-4],[3,-8],[4,-21],[4,-7],[8,-7],[31,-32]],[[3902,2487],[8,1],[23,3]],[[4072,2286],[24,4]],[[1689,3906],[9,26],[-35,67],[-17,77],[3,20]],[[1655,3913],[34,-7]],[[1655,3913],[-21,-23],[12,-31],[8,-14],[15,-11]],[[1712,3842],[18,-5],[33,-21],[12,-14],[-5,-89],[10,-40],[19,-37],[26,-37],[86,-89],[28,-20],[8,-2]],[[1669,3834],[43,8]],[[632,3933],[2,-15],[-12,-7],[-94,-14],[-12,-4],[-14,-10],[-6,-7],[-6,-6],[-4,-8],[-1,-9],[0,-10],[-2,-4],[-13,-3]],[[470,3836],[-31,0]],[[439,3836],[-13,-5],[-6,-18],[1,-8],[7,-10],[2,-7],[-4,-7],[-8,-5],[-18,-5],[-6,-5],[-4,-4],[-5,-4],[-10,-3]],[[310,3723],[-20,3],[-15,6],[-15,9],[-25,22]],[[235,3763],[-10,-4],[-24,-34],[-20,-11],[-22,-4]],[[375,3755],[-8,2],[-10,2],[-8,2]],[[349,3761],[-6,-3],[-21,-29],[-12,-6]],[[30,3665],[-18,2],[-12,10]],[[159,3710],[-13,3]],[[146,3713],[-14,-5],[-14,-6],[-13,-4],[-25,-18],[-26,-14]],[[54,3666],[-12,1]],[[42,3667],[-12,-2]],[[1184,3789],[15,-27],[-4,-35],[-75,-116],[10,-56],[29,-10]],[[1248,3558],[27,-11],[39,-1],[49,-32]],[[1159,3545],[60,13],[29,0]],[[745,4096],[-16,-83],[5,-16],[26,-2]],[[786,4001],[30,-31],[-6,-52],[-10,-24],[1,-25],[6,-8],[18,-13],[5,-9],[77,-50],[102,-7]],[[760,3995],[26,6]],[[1101,3791],[39,-11]],[[1009,3782],[92,9]],[[1140,3780],[23,3],[21,6]],[[632,3933],[67,-6],[21,-25],[3,-3],[2,-4],[0,-5],[-3,-4],[-7,-6],[-1,-2],[-3,-2],[-14,-4],[-3,-4],[-2,-8],[-4,-7],[-25,-31],[-17,-13],[-16,-15],[-10,-23],[-4,-33],[-6,-16],[-13,-6],[-5,-7],[-4,-15],[-4,-19],[0,-15],[2,-8],[3,-8],[5,-7],[5,-6],[-13,-15],[-7,-15],[-2,-11],[-15,-22],[-8,-25],[0,-29],[17,-23],[10,-5],[11,-1],[6,-8],[-4,-14],[8,-22]],[[685,3465],[45,-28],[5,-26],[12,-24],[21,-16],[23,-11],[8,-11]],[[602,3441],[22,2],[61,22]],[[1390,3430],[1,17],[-7,28],[-12,20],[-9,19]],[[1184,3789],[53,153],[28,31],[9,18],[7,20],[10,15],[5,17],[0,20],[-3,20],[0,13]],[[1655,3913],[-38,30],[-41,22],[-25,39],[-36,25],[-28,4]],[[1487,4033],[-19,-13],[4,-51],[-18,-39],[0,-10],[18,-6],[7,-13],[-4,-14],[-22,-14]],[[1453,3873],[-37,5]],[[1416,3878],[-32,-9],[-2,-15],[8,-13],[1,-14],[-10,-45],[-3,-32],[5,-34],[-5,-32],[-23,-24],[-17,-27],[10,-35],[-4,-13],[-3,-12],[16,-29],[6,-30]],[[632,3933],[-12,32],[-1,2],[4,3],[7,8],[4,3],[14,5],[4,3],[14,15],[5,8],[4,9],[3,21],[3,14],[14,34],[2,6]],[[2819,234],[1,0]],[[2821,236],[13,42],[39,14],[90,-30],[152,10],[52,-45],[154,-30],[80,-152],[55,-45]],[[2795,3381],[2,-74],[72,-27]],[[0,4036],[11,5],[-10,-17],[-1,0],[0,12]],[[0,3361],[46,-43],[4,-3],[20,-20],[5,-7],[16,-17],[10,-4],[10,-3],[9,-4],[6,-9],[-6,3],[-9,4],[-5,3],[9,-11],[29,-17],[12,-12],[4,0],[0,8],[2,5],[5,2],[8,0],[-7,-18],[9,-18],[16,-14],[15,-5],[5,-4],[10,-8],[11,-7],[11,-1],[8,8],[-2,12],[-11,25],[11,-7],[4,-3],[5,25],[5,0],[-1,-13],[1,-12],[1,-3],[9,-14],[-1,-2],[-4,-1],[1,-26],[6,-4],[16,0],[11,-5],[8,-8],[6,0],[2,15],[-3,12],[-6,8],[-4,8],[3,10],[-3,6],[-3,11],[-2,10],[3,8],[8,3],[9,-4],[8,-2],[8,-1],[-3,-19],[0,-12],[3,1],[8,2],[4,2],[-2,-10],[-10,-18],[-3,-12],[-1,-13],[3,-10],[6,-8],[12,-4],[3,3],[5,3],[2,4],[18,-5],[27,1],[21,7],[4,7],[-10,3],[-4,0],[-6,-3],[0,11],[4,4],[6,2],[5,3],[5,11],[5,14],[1,19],[-5,12],[-8,12],[-8,17],[13,-3],[8,-7],[7,-8],[7,-7],[-6,13],[-3,19],[-2,18],[1,15],[5,0],[11,-36],[4,-39],[24,30],[6,2],[5,0],[6,-1],[9,-1],[-47,-54],[-15,-31],[17,-20],[14,5],[34,1],[14,6],[13,4],[19,1],[11,4],[-5,14],[10,3],[9,2],[20,-14],[43,-4],[36,9],[1,24],[10,28],[3,30],[-8,26],[-20,16],[22,2],[11,-19],[3,-27],[-1,-33],[2,-22],[8,-24],[4,-4],[21,2],[22,-1],[8,3],[5,8],[0,8],[-8,26],[-5,14],[-9,15],[-3,12],[-1,34],[-4,11],[5,2],[4,4],[3,4],[3,5],[4,-9],[2,-45],[2,-10],[7,-16],[2,9],[0,15],[3,6],[-5,24],[5,33],[11,31],[14,17],[1,-22],[-2,-7],[-16,-44],[-3,-12],[0,-25],[2,-3],[7,-6],[1,-4],[-1,-3],[-3,-5],[-3,-43],[2,-11],[16,-9],[27,-2],[29,2],[23,4],[18,10],[-9,10],[-15,13],[2,17],[-10,11],[-8,22],[-14,72],[1,10],[4,6],[16,14],[-13,23],[-10,12],[-9,5],[-7,5],[-3,13],[-3,27],[-6,26],[-5,13],[-6,6],[-10,4],[-3,10],[-2,14],[-3,12],[6,-3],[7,-1],[6,1],[6,3],[1,-7],[2,-5],[7,-8],[9,8],[7,-1],[2,-6],[-5,-9],[-8,-10],[-2,-9],[2,-18],[11,-45],[13,-25],[19,-10],[12,-5],[2,-11],[-3,-12],[-3,-7],[-6,-7],[-5,-5],[-3,-8],[-2,-13],[3,-18],[8,-23],[12,-19],[12,-7],[-5,-12],[1,-13],[6,-12],[8,-9],[17,7],[16,-4],[16,-7],[16,-5],[-2,4],[-1,3],[-1,4],[14,-7],[8,-3],[9,-1],[7,3],[4,7],[1,7],[-9,11],[-26,52],[-1,17],[7,50],[-6,9],[-13,4],[-14,-4],[-7,-11],[-5,8],[2,4],[5,4],[3,6],[-1,6],[-3,5],[-6,7],[-10,18],[-4,10],[-1,12],[21,-24],[8,-12],[6,-14],[7,3],[3,2],[3,-7],[4,-2],[5,-1],[7,0],[-16,43],[-8,12],[3,6],[-2,17],[4,11],[9,-16],[3,-12],[4,0],[14,19],[3,-7],[4,-15],[3,-8],[14,-17],[5,-8],[-4,2],[-7,1],[-4,2],[2,-11],[-2,-15],[-4,-13],[-3,-6],[-8,-6],[3,-12],[12,-20],[2,-37],[4,-18],[9,-17],[6,0],[19,5],[-7,11],[-4,13],[2,12],[9,9],[-2,-15],[4,-10],[10,-9],[13,-6],[0,4],[0,11],[15,-6],[13,6],[20,22],[5,13],[-7,13],[-11,10],[-9,7],[18,9],[-2,24],[-17,25],[-22,12],[-13,4],[-7,11],[-8,25],[-4,5],[-5,1],[-4,1],[-2,7],[2,1],[4,5],[4,7],[1,7],[7,-11],[12,-33],[6,-7],[13,-11],[6,-7],[3,-1],[15,0],[11,5],[5,0],[2,-7],[0,-20],[6,-15],[46,-50],[16,-24],[4,-3],[32,5],[5,6],[1,6],[-4,5],[-20,5],[-12,9],[-9,4],[4,4],[-5,3],[-5,3],[0,4],[7,3],[3,5],[1,6],[2,2],[13,0],[5,2],[4,3],[10,-13],[16,-7],[19,-4],[18,-1],[25,-14],[16,-1],[6,15],[5,0],[7,-6],[8,0],[9,5],[7,5],[12,14],[2,2],[-2,6],[-10,12],[0,4],[6,9],[0,7],[-2,8],[-2,11],[2,7],[6,7],[4,3],[8,6],[4,0],[-13,-34],[-2,-19],[11,-12],[-3,-7],[-2,-3],[13,-17],[2,-4],[-3,-7],[-5,-5],[-5,-3],[-2,-4],[1,-8],[6,-1],[9,1],[9,-2],[-4,-3],[-2,-2],[-2,-2],[-2,-3],[64,-5],[10,-3],[10,-9],[21,-4],[24,1],[16,5],[-5,2],[-6,2],[-7,1],[-7,0],[5,7],[9,3],[9,-1],[7,-4],[124,15],[32,0],[14,1],[25,13],[14,0],[30,-4],[62,0],[42,-5],[32,0],[7,1],[7,4],[10,22],[7,12],[14,8],[11,11],[-2,17],[-7,5],[-8,3],[-7,4],[-3,10],[1,7],[6,16],[2,5],[-9,12],[-11,31],[-7,7],[-7,4],[-8,9],[-7,12],[-5,10],[12,8],[-3,17],[-19,35],[-10,12],[-40,38],[0,4],[5,0],[3,-5],[8,-8],[8,-8],[8,-3],[9,-3],[6,-7],[8,-15],[4,-12],[1,-1],[17,-10],[20,-15],[6,-8],[-3,-10],[14,-8],[6,-1],[-3,-7],[-3,-3],[19,-17],[21,-1],[16,13],[5,24],[5,0],[-4,-25],[-7,-26],[1,-20],[22,-8],[9,2],[15,7],[6,1],[3,-3],[-1,-7],[-4,-8],[-3,-5],[-3,-7],[5,-2],[7,1],[3,1],[11,-4],[10,-1],[8,3],[7,12],[0,7],[-5,10],[0,7],[2,8],[6,14],[1,6],[3,6],[7,7],[7,7],[6,3],[7,-2],[5,-3],[1,-4],[-3,-1],[-8,-7],[-2,-14],[3,-29],[-5,5],[-4,-9],[1,-8],[3,-9],[0,-9],[-4,-6],[-21,-14],[-13,-15],[-6,-10],[-1,-10],[3,-12],[7,-6],[9,0],[10,8],[-15,-26],[-4,-10],[-11,2],[-4,-13],[4,-17],[11,-11],[9,-3],[8,0],[6,3],[4,15],[6,4],[8,0],[9,-4],[-8,-7],[-9,-10],[-4,-9],[8,-4],[91,7],[16,9],[-5,19],[-7,6],[-9,4],[-6,6],[-19,67],[-11,22],[-5,21],[12,19],[5,-29],[32,-47],[8,-27],[6,-12],[12,-7],[12,-4],[5,-7],[3,-2],[15,-9],[4,-1],[4,2],[9,17],[-6,3],[-3,6],[-1,7],[0,10],[35,-28],[3,-11],[6,-5],[6,3],[5,11],[-5,16],[-23,35],[3,9],[5,-2],[7,-7],[6,-8],[5,-12],[16,-6],[6,-5],[2,-11],[-2,-9],[-3,-9],[-2,-9],[4,-10],[10,5],[16,18],[-7,-17],[-19,-33],[-4,-18],[18,-104],[12,-28],[18,-24],[22,-21],[-2,-21],[-14,-44],[2,-20],[9,-6],[63,-30],[38,-25],[12,-1],[7,2],[13,2],[13,0],[9,-2],[10,-8],[2,-8],[-2,-10],[0,-14],[7,2],[22,-4],[25,23],[4,12],[8,13],[18,4],[0,-5],[-13,-17],[-4,-27],[8,-25],[22,-11],[11,-2],[25,-6],[14,-2],[26,3],[12,3],[9,4],[-6,6],[-11,6],[-2,5],[1,11],[3,7],[2,6],[-2,9],[-5,6],[-20,11],[1,9],[4,5],[7,3],[9,1],[0,-7],[2,-3],[3,-2],[5,-3],[9,-15],[9,-8],[6,-2],[5,-1],[10,-4],[10,14],[-6,12],[-12,10],[-9,8],[-7,18],[-1,3],[-7,5],[-7,1],[-5,2],[-4,5],[-1,2],[20,23],[8,3],[11,-11],[-4,-17],[7,-17],[13,-14],[14,-7],[10,10],[0,-16],[14,-3],[20,5],[16,9],[13,14],[24,36],[13,10],[0,-15],[5,0],[5,8],[7,7],[13,10],[12,5],[2,-4],[-3,-7],[-4,-4],[-21,-11],[-31,-48],[-12,-11],[-14,-7],[-12,-17],[-4,-19],[12,-12],[22,-2],[72,12],[0,-3],[-1,-1],[-1,0],[-2,-1],[3,-5],[1,-2],[0,-3],[-15,0],[-21,-4],[-19,-6],[-9,-10],[5,-14],[16,-9],[34,-12],[-7,0],[-3,0],[6,-7],[3,-8],[0,-7],[-4,-8],[-6,10],[-10,7],[-24,13],[-7,-18],[-16,3],[-27,25],[-13,-11],[-8,-18],[-2,-18],[6,-16],[5,-6],[2,-4],[3,-3],[7,-4],[23,-7],[7,-3],[-28,-1],[-12,2],[-10,4],[-3,6],[-6,16],[-3,3],[-5,2],[-18,18],[4,-17],[10,-19],[35,-48],[21,-51],[-12,-6],[-3,-10],[4,-9],[8,-4],[50,4],[20,6],[19,13],[20,8],[23,-7],[-19,-1],[-16,-6],[-60,-45],[-18,-9],[-16,-4],[71,-48],[30,-26],[54,-68],[20,-36],[4,-7],[5,-5],[6,-4],[8,-2],[11,1],[0,-5],[-8,-4],[-5,-1],[-7,0],[0,-4],[13,-18],[28,-106],[-1,-23],[-9,-20],[-16,-19],[-14,-21],[-11,-30],[-7,-33],[-3,-93],[-3,-12],[-12,-30],[-22,-98],[-3,-135],[-5,-13],[0,-4],[-9,-9],[-15,-10],[-9,-13],[6,-16],[6,-13],[2,-16],[-6,-91],[-1,-4],[-4,-3],[-3,-5],[-2,-8],[1,-8],[2,-6],[7,-14],[20,-60],[3,-30],[-8,-24],[-25,-26],[-4,-7],[-2,-4],[-3,-3],[-4,-5],[-2,-18],[-3,-5],[-3,-3],[-3,-4],[-6,-15],[-3,-5],[-6,-6],[-15,-9],[-4,-5],[-4,-8],[-2,-2],[-43,-43],[-7,-20],[11,-20],[31,-30],[13,-3],[30,20],[15,1],[-17,-8],[-12,-8],[-14,-7],[-19,-2],[-14,5],[-9,8],[-10,3],[-15,-11],[-11,-22],[-9,-21],[-2,-7],[-3,-5],[-3,-4],[-2,-4],[-2,-1],[-13,-16],[-29,-27],[-20,-8],[-2,-12],[2,-28],[-4,-13],[-8,-17],[-10,-14],[-11,-6],[-9,-6],[-6,-13],[-12,-37],[-6,-11],[-9,-8],[-11,-5],[9,-12],[2,-6],[-1,-7],[9,-7],[17,-19],[7,-4],[11,2],[21,10],[23,5],[9,4],[9,2],[14,-3],[11,-6],[8,-7],[6,-10],[12,-35],[6,-8],[18,7],[24,6],[5,5],[6,11],[14,16],[17,15],[13,6],[-4,-3],[-6,-7],[-3,-8],[3,-7],[8,-2],[29,7],[9,-3],[18,-10],[8,-2],[9,-1],[10,-2],[9,-3],[5,-4],[-10,0],[-10,-2],[-10,-4],[-6,-4],[-1,-9],[5,-19],[1,-12],[-1,-4],[-3,-9],[-6,-12],[-6,15],[-6,31],[-10,16],[-12,4],[-42,1],[-13,-2],[-8,-8],[-5,-10],[-7,-8],[-12,-4],[-14,0],[-10,-2],[-10,-7],[-9,-16],[-4,-15],[5,-8],[6,-8],[3,-12],[2,-17],[26,-69],[7,-86],[-2,-36],[2,-15],[10,-14],[-6,-12],[-7,-32],[-5,-6],[-6,-5],[-4,-13],[0,-15],[3,-12],[-12,3],[-6,6],[-7,21],[6,11],[4,21],[-1,21],[-9,12],[-1,-10],[-4,-7],[-6,-5],[-9,-3],[-4,19],[-17,10],[-22,1],[-16,-5],[10,15],[15,1],[32,-6],[12,6],[2,15],[-5,17],[-12,12],[-14,2],[-13,-6],[-11,-7],[-13,-5],[-10,-7],[-6,-2],[-10,1],[-7,3],[-6,2],[-10,-1],[-7,-3],[-15,-9],[-8,-3],[-17,-4],[-15,-1],[-6,-9],[-2,-40],[0,-11],[10,-11],[11,-1],[13,1],[14,-7],[20,-23],[9,-13],[35,-80],[10,-11],[8,-5],[4,-26],[6,-9],[5,1],[17,7],[6,2],[9,-1],[4,2],[4,9],[5,0],[4,-14],[11,-11],[25,-15],[35,-26],[8,-4],[23,1],[6,-4],[11,-9],[9,-7],[32,-11],[10,3],[56,4],[15,5],[13,6],[11,8],[15,-12],[14,-4],[36,1],[0,-6],[-29,-9],[-11,-1],[-12,2],[-21,8],[-12,0],[-9,-3],[-25,-16],[-8,-8],[-14,-18],[-9,-5],[-11,10],[-19,1],[-14,-6],[2,-12],[10,-14],[27,-49],[-24,19],[-22,35],[-27,27],[-36,-6],[-7,15],[-7,5],[-11,0],[-6,-5],[-21,-20],[-3,-5],[-5,7],[-6,25],[-4,8],[-9,5],[-36,10],[-8,-13],[-1,-13],[4,-31],[-2,-8],[-5,0],[-6,4],[-5,4],[-2,27],[-7,14],[-19,19],[-4,10],[-3,2],[-24,0],[-8,-2],[-5,-6],[-4,-6],[-6,-6],[-2,7],[-1,8],[2,7],[3,4],[8,2],[-1,6],[-3,8],[-1,8],[7,28],[1,14],[-3,18],[-6,14],[-7,6],[-8,-3],[-23,-20],[-3,-2],[-2,-4],[-3,-20],[-3,-6],[9,-24],[25,-138],[1,-15],[2,-6],[3,-6],[1,-6],[-3,-7],[-4,-5],[-2709,0],[0,3361]],[[2156,2538],[-5,-12],[-12,-5],[-26,5],[-12,0],[-9,-5],[-18,5],[-13,-12],[-10,-19],[-5,-14],[-4,-31],[-3,-6],[-2,-8],[4,-10],[7,-10],[3,-7],[6,-22],[14,-11],[18,-4],[15,0],[10,-2],[15,-10],[8,-4],[7,0],[17,4],[5,2],[20,-12],[11,-3],[5,2],[3,-5],[17,-7],[7,-5],[7,8],[25,41],[33,38],[4,12],[0,33],[3,12],[21,13],[2,2],[2,4],[3,17],[13,10],[14,39],[2,3],[24,28],[8,21],[26,23],[6,10],[5,11],[3,13],[1,14],[-3,15],[-7,13],[-20,24],[-6,1],[-2,1],[-2,3],[-20,-8],[-25,-1],[-24,4],[-16,5],[-7,-5],[-10,0],[-23,5],[3,8],[2,2],[-30,-8],[-26,-25],[-19,-31],[-9,-26],[-5,-68],[-5,-9],[-10,-10],[-11,-8],[-9,-5],[6,-10],[3,-13]],[[1260,1182],[-12,-5],[-6,1],[-1,-14],[2,-22],[9,-4],[10,-1],[10,-3],[7,-12],[4,3],[5,2],[1,-2],[3,-5],[2,-3],[0,8],[0,6],[3,4],[9,2],[5,3],[4,7],[3,15],[0,16],[2,6],[11,3],[6,2],[-3,6],[-10,5],[-11,2],[5,8],[8,5],[8,3],[4,3],[-2,10],[-8,4],[-20,2],[-13,3],[-13,-6],[-10,-11],[-4,-14],[0,-12],[-2,-9],[-6,-6]],[[2681,683],[-4,-24],[9,-6],[6,-10],[9,3],[2,7],[4,3],[-10,9],[2,8],[-3,6],[-6,4],[-9,0]],[[717,285],[-23,-19],[-27,-9],[-6,-3],[-25,-26],[-2,-5],[-1,-4],[-3,-7],[-14,-17],[-2,-5],[0,-15],[-1,-7],[-4,-6],[4,-7],[26,-83],[2,-3],[3,-1],[3,-4],[2,-7],[0,-6],[-3,-13],[-1,0],[4,-13],[8,-7],[7,1],[5,13],[10,-11],[7,10],[8,26],[3,-1],[25,1],[1,2],[11,13],[6,2],[8,1],[6,3],[-5,13],[4,3],[7,2],[4,1],[21,35],[9,11],[18,16],[6,9],[6,14],[3,14],[0,11],[-3,20],[-8,20],[-14,21],[-16,18],[-17,11],[-29,3],[-23,-15]],[[1225,3227],[3,11],[1,12],[1,10],[5,8],[8,8],[-9,4],[-33,-4],[-11,4],[-12,20],[-10,6],[-2,-12],[-4,-7],[-14,-16],[-16,-26],[-23,-24],[-7,-14],[7,-9],[25,-2],[64,13],[11,5],[9,6],[7,7]],[[1296,3281],[-35,-11],[-8,-4],[-6,-13],[4,-10],[11,-5],[54,-3],[12,1],[37,13],[11,2],[28,-1],[12,2],[7,9],[4,10],[-8,2],[-24,-2],[-12,-2],[-27,-6],[-13,-2],[-13,3],[-26,14],[-8,3]],[[0,4036],[11,5],[-10,-17],[-1,0]],[[0,3361],[46,-43],[4,-3],[20,-20],[5,-7],[16,-17],[10,-4],[10,-3],[9,-4],[6,-9],[-6,3],[-9,4],[-5,3],[9,-11],[29,-17],[12,-12],[4,0],[0,8],[2,5],[5,2],[8,0],[-7,-18],[9,-18],[16,-14],[15,-5],[5,-4],[10,-8],[11,-7],[11,-1],[8,8],[-2,12],[-11,25],[11,-7],[4,-3],[5,25],[5,0],[-1,-13],[1,-12],[1,-3],[9,-14],[-1,-2],[-4,-1],[1,-26],[6,-4],[16,0],[11,-5],[8,-8],[6,0],[2,15],[-3,12],[-6,8],[-4,8],[3,10],[-3,6],[-3,11],[-2,10],[3,8],[8,3],[9,-4],[8,-2],[8,-1],[-3,-19],[0,-12],[3,1],[8,2],[4,2],[-2,-10],[-10,-18],[-3,-12],[-1,-13],[3,-10],[6,-8],[12,-4],[3,3],[5,3],[2,4],[18,-5],[27,1],[21,7],[4,7],[-10,3],[-4,0],[-6,-3],[0,11],[4,4],[6,2],[5,3],[5,11],[5,14],[1,19],[-5,12],[-8,12],[-8,17],[13,-3],[8,-7],[7,-8],[7,-7],[-6,13],[-3,19],[-2,18],[1,15],[5,0],[11,-36],[4,-39],[24,30],[6,2],[5,0],[6,-1],[9,-1],[-47,-54],[-15,-31],[17,-20],[14,5],[34,1],[14,6],[13,4],[19,1],[11,4],[-5,14],[10,3],[9,2],[20,-14],[43,-4],[36,9],[1,24],[10,28],[3,30],[-8,26],[-20,16],[22,2],[11,-19],[3,-27],[-1,-33],[2,-22],[8,-24],[4,-4],[21,2],[22,-1],[8,3],[5,8],[0,8],[-8,26],[-5,14],[-9,15],[-3,12],[-1,34],[-4,11],[5,2],[4,4],[3,4],[3,5],[4,-9],[2,-45],[2,-10],[7,-16],[2,9],[0,15],[3,6],[-5,24],[5,33],[11,31],[14,17],[1,-22],[-2,-7],[-16,-44],[-3,-12],[0,-25],[2,-3],[7,-6],[1,-4],[-1,-3],[-3,-5],[-3,-43],[2,-11],[16,-9],[27,-2],[29,2],[23,4],[18,10],[-9,10],[-15,13],[2,17],[-10,11],[-8,22],[-14,72],[1,10],[4,6],[16,14],[-13,23],[-10,12],[-9,5],[-7,5],[-3,13],[-3,27],[-6,26],[-5,13],[-6,6],[-10,4],[-3,10],[-2,14],[-3,12],[6,-3],[7,-1],[6,1],[6,3],[1,-7],[2,-5],[7,-8],[9,8],[7,-1],[2,-6],[-5,-9],[-8,-10],[-2,-9],[2,-18],[11,-45],[13,-25],[19,-10],[12,-5],[2,-11],[-3,-12],[-3,-7],[-6,-7],[-5,-5],[-3,-8],[-2,-13],[3,-18],[8,-23],[12,-19],[12,-7],[-5,-12],[1,-13],[6,-12],[8,-9],[17,7],[16,-4],[16,-7],[16,-5],[-2,4],[-1,3],[-1,4],[14,-7],[8,-3],[9,-1],[7,3],[4,7],[1,7],[-9,11],[-26,52],[-1,17],[7,50],[-6,9],[-13,4],[-14,-4],[-7,-11],[-5,8],[2,4],[5,4],[3,6],[-1,6],[-3,5],[-6,7],[-10,18],[-4,10],[-1,12],[21,-24],[8,-12],[6,-14],[7,3],[3,2],[3,-7],[4,-2],[5,-1],[7,0],[-16,43],[-8,12],[3,6],[-2,17],[4,11],[9,-16],[3,-12],[4,0],[14,19],[3,-7],[4,-15],[3,-8],[14,-17],[5,-8],[-4,2],[-7,1],[-4,2],[2,-11],[-2,-15],[-4,-13],[-3,-6],[-8,-6],[3,-12],[12,-20],[2,-37],[4,-18],[9,-17],[6,0],[19,5],[-7,11],[-4,13],[2,12],[9,9],[-2,-15],[4,-10],[10,-9],[13,-6],[0,4],[0,11],[15,-6],[13,6],[20,22],[5,13],[-7,13],[-11,10],[-9,7],[18,9],[-2,24],[-17,25],[-22,12],[-13,4],[-7,11],[-8,25],[-4,5],[-5,1],[-4,1],[-2,7],[2,1],[4,5],[4,7],[1,7],[7,-11],[12,-33],[6,-7],[13,-11],[6,-7],[3,-1],[15,0],[11,5],[5,0],[2,-7],[0,-20],[6,-15],[46,-50],[16,-24],[4,-3],[32,5],[5,6],[1,6],[-4,5],[-20,5],[-12,9],[-9,4],[4,4],[-5,3],[-5,3],[0,4],[7,3],[3,5],[1,6],[2,2],[13,0],[5,2],[4,3],[10,-13],[16,-7],[19,-4],[18,-1],[25,-14],[16,-1],[6,15],[5,0],[7,-6],[8,0],[9,5],[7,5],[12,14],[2,2],[-2,6],[-10,12],[0,4],[6,9],[0,7],[-2,8],[-2,11],[2,7],[6,7],[4,3],[8,6],[4,0],[-13,-34],[-2,-19],[11,-12],[-3,-7],[-2,-3],[13,-17],[2,-4],[-3,-7],[-5,-5],[-5,-3],[-2,-4],[1,-8],[6,-1],[9,1],[9,-2],[-4,-3],[-2,-2],[-2,-2],[-2,-3],[64,-5],[10,-3],[10,-9],[21,-4],[24,1],[16,5],[-5,2],[-6,2],[-7,1],[-7,0],[5,7],[9,3],[9,-1],[7,-4],[124,15],[32,0],[14,1],[25,13],[14,0],[30,-4],[62,0],[42,-5],[32,0],[7,1],[7,4],[10,22],[7,12],[14,8],[11,11],[-2,17],[-7,5],[-8,3],[-7,4],[-3,10],[1,7],[6,16],[2,5],[-9,12],[-11,31],[-7,7],[-7,4],[-8,9],[-7,12],[-5,10],[12,8],[-3,17],[-19,35],[-10,12],[-40,38],[0,4],[5,0],[3,-5],[8,-8],[8,-8],[8,-3],[9,-3],[6,-7],[8,-15],[4,-12],[1,-1],[17,-10],[20,-15],[6,-8],[-3,-10],[14,-8],[6,-1],[-3,-7],[-3,-3],[19,-17],[21,-1],[16,13],[5,24],[5,0],[-4,-25],[-7,-26],[1,-20],[22,-8],[9,2],[15,7],[6,1],[3,-3],[-1,-7],[-4,-8],[-3,-5],[-3,-7],[5,-2],[7,1],[3,1],[11,-4],[10,-1],[8,3],[7,12],[0,7],[-5,10],[0,7],[2,8],[6,14],[1,6],[3,6],[7,7],[7,7],[6,3],[7,-2],[5,-3],[1,-4],[-3,-1],[-8,-7],[-2,-14],[3,-29],[-5,5],[-4,-9],[1,-8],[3,-9],[0,-9],[-4,-6],[-21,-14],[-13,-15],[-6,-10],[-1,-10],[3,-12],[7,-6],[9,0],[10,8],[-15,-26],[-4,-10],[-11,2],[-4,-13],[4,-17],[11,-11],[9,-3],[8,0],[6,3],[4,15],[6,4],[8,0],[9,-4],[-8,-7],[-9,-10],[-4,-9],[8,-4],[91,7],[16,9],[-5,19],[-7,6],[-9,4],[-6,6],[-19,67],[-11,22],[-5,21],[12,19],[5,-29],[32,-47],[8,-27],[6,-12],[12,-7],[12,-4],[5,-7],[3,-2],[15,-9],[4,-1],[4,2],[9,17],[-6,3],[-3,6],[-1,7],[0,10],[35,-28],[3,-11],[6,-5],[6,3],[5,11],[-5,16],[-23,35],[3,9],[5,-2],[7,-7],[6,-8],[5,-12],[16,-6],[6,-5],[2,-11],[-2,-9],[-3,-9],[-2,-9],[4,-10],[10,5],[16,18],[-7,-17],[-19,-33],[-4,-18],[18,-104],[12,-28],[18,-24],[22,-21],[-2,-21],[-14,-44],[2,-20],[9,-6],[63,-30],[38,-25],[12,-1],[7,2],[13,2],[13,0],[9,-2],[10,-8],[2,-8],[-2,-10],[0,-14],[7,2],[22,-4],[25,23],[4,12],[8,13],[18,4],[0,-5],[-13,-17],[-4,-27],[8,-25],[22,-11],[11,-2],[25,-6],[14,-2],[26,3],[12,3],[9,4],[-6,6],[-11,6],[-2,5],[1,11],[3,7],[2,6],[-2,9],[-5,6],[-20,11],[1,9],[4,5],[7,3],[9,1],[0,-7],[2,-3],[3,-2],[5,-3],[9,-15],[9,-8],[6,-2],[5,-1],[10,-4],[10,14],[-6,12],[-12,10],[-9,8],[-7,18],[-1,3],[-7,5],[-7,1],[-5,2],[-4,5],[-1,2],[20,23],[8,3],[11,-11],[-4,-17],[7,-17],[13,-14],[14,-7],[10,10],[0,-16],[14,-3],[20,5],[16,9],[13,14],[24,36],[13,10],[0,-15],[5,0],[5,8],[7,7],[13,10],[12,5],[2,-4],[-3,-7],[-4,-4],[-21,-11],[-31,-48],[-12,-11],[-14,-7],[-12,-17],[-4,-19],[12,-12],[22,-2],[72,12],[0,-3],[-1,-1],[-1,0],[-2,-1],[3,-5],[1,-2],[0,-3],[-15,0],[-21,-4],[-19,-6],[-9,-10],[5,-14],[16,-9],[34,-12],[-7,0],[-3,0],[6,-7],[3,-8],[0,-7],[-4,-8],[-6,10],[-10,7],[-24,13],[-7,-18],[-16,3],[-27,25],[-13,-11],[-8,-18],[-2,-18],[6,-16],[5,-6],[2,-4],[3,-3],[7,-4],[23,-7],[7,-3],[-28,-1],[-12,2],[-10,4],[-3,6],[-6,16],[-3,3],[-5,2],[-18,18],[4,-17],[10,-19],[35,-48],[21,-51],[-12,-6],[-3,-10],[4,-9],[8,-4],[50,4],[20,6],[19,13],[20,8],[23,-7],[-19,-1],[-16,-6],[-60,-45],[-18,-9],[-16,-4],[71,-48],[30,-26],[54,-68],[20,-36],[4,-7],[5,-5],[6,-4],[8,-2],[11,1],[0,-5],[-8,-4],[-5,-1],[-7,0],[0,-4],[13,-18],[28,-106],[-1,-23],[-9,-20],[-16,-19],[-14,-21],[-11,-30],[-7,-33],[-3,-93],[-3,-12],[-12,-30],[-22,-98],[-3,-135],[-5,-13],[0,-4],[-9,-9],[-15,-10],[-9,-13],[6,-16],[6,-13],[2,-16],[-6,-91],[-1,-4],[-4,-3],[-3,-5],[-2,-8],[1,-8],[2,-6],[7,-14],[20,-60],[3,-30],[-8,-24],[-25,-26],[-4,-7],[-2,-4],[-3,-3],[-4,-5],[-2,-18],[-3,-5],[-3,-3],[-3,-4],[-6,-15],[-3,-5],[-6,-6],[-15,-9],[-4,-5],[-4,-8],[-2,-2],[-43,-43],[-7,-20],[11,-20],[31,-30],[13,-3],[30,20],[15,1],[-17,-8],[-12,-8],[-14,-7],[-19,-2],[-14,5],[-9,8],[-10,3],[-15,-11],[-11,-22],[-9,-21],[-2,-7],[-3,-5],[-3,-4],[-2,-4],[-2,-1],[-13,-16],[-29,-27],[-20,-8],[-2,-12],[2,-28],[-4,-13],[-8,-17],[-10,-14],[-11,-6],[-9,-6],[-6,-13],[-12,-37],[-6,-11],[-9,-8],[-11,-5],[9,-12],[2,-6],[-1,-7],[9,-7],[17,-19],[7,-4],[11,2],[21,10],[23,5],[9,4],[9,2],[14,-3],[11,-6],[8,-7],[6,-10],[12,-35],[6,-8],[18,7],[24,6],[5,5],[6,11],[14,16],[17,15],[13,6],[-4,-3],[-6,-7],[-3,-8],[3,-7],[8,-2],[29,7],[9,-3],[18,-10],[8,-2],[9,-1],[10,-2],[9,-3],[5,-4],[-10,0],[-10,-2],[-10,-4],[-6,-4],[-1,-9],[5,-19],[1,-12],[-1,-4],[-3,-9],[-6,-12],[-6,15],[-6,31],[-10,16],[-12,4],[-42,1],[-13,-2],[-8,-8],[-5,-10],[-7,-8],[-12,-4],[-14,0],[-10,-2],[-10,-7],[-9,-16],[-4,-15],[5,-8],[6,-8],[3,-12],[2,-17],[26,-69],[7,-86],[-2,-36],[2,-15],[10,-14],[-6,-12],[-7,-32],[-5,-6],[-6,-5],[-4,-13],[0,-15],[3,-12],[-12,3],[-6,6],[-7,21],[6,11],[4,21],[-1,21],[-9,12],[-1,-10],[-4,-7],[-6,-5],[-9,-3],[-4,19],[-17,10],[-22,1],[-16,-5],[10,15],[15,1],[32,-6],[12,6],[2,15],[-5,17],[-12,12],[-14,2],[-13,-6],[-11,-7],[-13,-5],[-10,-7],[-6,-2],[-10,1],[-7,3],[-6,2],[-10,-1],[-7,-3],[-15,-9],[-8,-3],[-17,-4],[-15,-1],[-6,-9],[-2,-40],[0,-11],[10,-11],[11,-1],[13,1],[14,-7],[20,-23],[9,-13],[35,-80],[10,-11],[8,-5],[4,-26],[6,-9],[5,1],[17,7],[6,2],[9,-1],[4,2],[4,9],[5,0],[4,-14],[11,-11],[25,-15],[35,-26],[8,-4],[23,1],[6,-4],[11,-9],[9,-7],[32,-11],[10,3],[56,4],[15,5],[13,6],[11,8],[15,-12],[14,-4],[36,1],[0,-6],[-29,-9],[-11,-1],[-12,2],[-21,8],[-12,0],[-9,-3],[-25,-16],[-8,-8],[-14,-18],[-9,-5],[-11,10],[-19,1],[-14,-6],[2,-12],[10,-14],[27,-49],[-24,19],[-22,35],[-27,27],[-36,-6],[-7,15],[-7,5],[-11,0],[-6,-5],[-21,-20],[-3,-5],[-5,7],[-6,25],[-4,8],[-9,5],[-36,10],[-8,-13],[-1,-13],[4,-31],[-2,-8],[-5,0],[-6,4],[-5,4],[-2,27],[-7,14],[-19,19],[-4,10],[-3,2],[-24,0],[-8,-2],[-5,-6],[-4,-6],[-6,-6],[-2,7],[-1,8],[2,7],[3,4],[8,2],[-1,6],[-3,8],[-1,8],[7,28],[1,14],[-3,18],[-6,14],[-7,6],[-8,-3],[-23,-20],[-3,-2],[-2,-4],[-3,-20],[-3,-6],[9,-24],[25,-138],[1,-15],[2,-6],[3,-6],[1,-6],[-3,-7],[-4,-5]],[[1201,3276],[-11,4],[-12,20],[-10,6],[-2,-12],[-4,-7],[-14,-16],[-16,-26],[-23,-24],[-7,-14],[7,-9],[25,-2],[64,13],[11,5],[9,6],[7,7],[3,11],[1,12],[1,10],[5,8],[8,8],[-9,4],[-33,-4]],[[1338,1221],[-2,10],[-8,4],[-20,2],[-13,3],[-13,-6],[-10,-11],[-4,-14],[0,-12],[-2,-9],[-6,-6],[-12,-5],[-6,1],[-1,-14],[2,-22],[9,-4],[10,-1],[10,-3],[7,-12],[4,3],[5,2],[1,-2],[3,-5],[2,-3],[0,8],[0,6],[3,4],[9,2],[5,3],[4,7],[3,15],[0,16],[2,6],[11,3],[6,2],[-3,6],[-10,5],[-11,2],[5,8],[8,5],[8,3],[4,3]],[[769,297],[-29,3],[-23,-15],[-23,-19],[-27,-9],[-6,-3],[-25,-26],[-2,-5],[-1,-4],[-3,-7],[-14,-17],[-2,-5],[0,-15],[-1,-7],[-4,-6],[4,-7],[26,-83],[2,-3],[3,-1],[3,-4],[2,-7],[0,-6],[-3,-13],[-1,0],[4,-13],[8,-7],[7,1],[5,13],[10,-11],[7,10],[8,26],[3,-1],[25,1],[1,2],[11,13],[6,2],[8,1],[6,3],[-5,13],[4,3],[7,2],[4,1],[21,35],[9,11],[18,16],[6,9],[6,14],[3,14],[0,11],[-3,20],[-8,20],[-14,21],[-16,18],[-17,11]],[[1395,3271],[-12,-2],[-27,-6],[-13,-2],[-13,3],[-26,14],[-8,3],[-35,-11],[-8,-4],[-6,-13],[4,-10],[11,-5],[54,-3],[12,1],[37,13],[11,2],[28,-1],[12,2],[7,9],[4,10],[-8,2],[-24,-2]],[[2401,2736],[-6,1],[-2,1],[-2,3],[-20,-8],[-25,-1],[-24,4],[-16,5],[-7,-5],[-10,0],[-23,5],[3,8],[2,2],[-30,-8],[-26,-25],[-19,-31],[-9,-26],[-5,-68],[-5,-9],[-10,-10],[-11,-8],[-9,-5],[6,-10],[3,-13],[-5,-12],[-12,-5],[-26,5],[-12,0],[-9,-5],[-18,5],[-13,-12],[-10,-19],[-5,-14],[-4,-31],[-3,-6],[-2,-8],[4,-10],[7,-10],[3,-7],[6,-22],[14,-11],[18,-4],[15,0],[10,-2],[15,-10],[8,-4],[7,0],[17,4],[5,2],[20,-12],[11,-3],[5,2],[3,-5],[17,-7],[7,-5],[7,8],[25,41],[33,38],[4,12],[0,33],[3,12],[21,13],[2,2],[2,4],[3,17],[13,10],[14,39],[2,3],[24,28],[8,21],[26,23],[6,10],[5,11],[3,13],[1,14],[-3,15],[-7,13],[-20,24]],[[3397,4093],[-7,3]],[[2794,4096],[5,-6],[15,-9],[30,-15],[3,-6]],[[122,4078],[4,-12],[0,-12]],[[116,4096],[6,-18]],[[3433,4036],[-6,6],[-6,18],[-15,9],[-6,9],[-3,15]],[[1338,4060],[4,-18],[0,-12]],[[1323,4096],[1,-3],[12,-24],[2,-9]],[[3715,4096],[-21,-12],[-6,-9],[-33,-51],[-6,-6]],[[3490,3997],[-18,10]],[[3472,4007],[-24,14],[-15,15]],[[3528,4000],[-2,0],[-36,-3]],[[3649,4018],[-12,-3],[-21,-15],[-9,3],[-12,-6],[-15,6],[-30,-3],[-22,0]],[[243,3997],[-54,45],[-45,21],[-6,6]],[[3490,3997],[0,-6],[5,-15]],[[3495,3976],[1,0],[-3,-12],[-3,-22],[6,-15],[-9,-21]],[[3451,3885],[-3,0],[-30,-18],[-9,-5]],[[3409,3862],[-12,-7],[-42,-15]],[[3487,3906],[-6,-9],[-12,-12],[-18,0]],[[3355,3840],[-9,-18],[3,-18],[-6,-27],[-21,-15]],[[3487,3906],[15,-18],[6,-9],[-3,-15],[6,-12],[6,-45],[12,-9],[21,-21],[9,-18]],[[3322,3762],[-9,-6]],[[3322,3762],[24,3],[15,-3],[27,-6],[9,0],[33,15],[24,3],[24,-3],[27,-12],[33,6],[21,-6]],[[3559,3759],[6,-6],[24,0],[9,-6]],[[3313,3756],[-12,-6],[-10,0],[-15,9],[-12,3],[-30,3],[-9,-6],[-15,6],[-21,-15],[-30,-9]],[[1280,3770],[-4,-5],[-27,-27]],[[1342,4030],[1,-9]],[[1343,4021],[2,-27],[0,-30],[-6,-55],[-6,-24],[-9,-30],[-15,-39],[-12,-24],[-17,-22]],[[3159,3741],[-15,-6]],[[634,3726],[-18,9],[-43,15],[-30,15],[-9,9],[-27,39],[-24,24],[-24,21],[-42,24],[-39,21],[-60,21],[-24,9],[-15,13],[-30,42],[-6,9]],[[868,3708],[-6,0],[-27,-15],[-21,-9],[-15,0],[-36,9],[-18,-3]],[[745,3690],[-36,-9],[-18,6],[-30,21],[-27,18]],[[937,3624],[-15,0],[-3,6],[-18,39],[-9,18],[-12,15],[-12,6]],[[1070,3561],[-25,-19]],[[1249,3738],[-24,-24]],[[1225,3714],[-18,-18],[-57,-63],[-30,-30],[-42,-37],[-8,-5]],[[1045,3542],[-15,-15]],[[1030,3527],[-9,3],[-33,3],[-5,6]],[[983,3539],[-4,3],[-9,18],[-15,46],[-9,15],[-9,3]],[[1030,3527],[-18,-36],[-6,-11]],[[1006,3480],[0,-1]],[[3598,3747],[9,-9],[15,0],[18,-18],[12,-3],[15,0],[15,-21],[3,-27],[6,-18],[3,-18],[9,-12],[15,-3],[30,-36],[6,-13],[6,-6],[15,-6],[6,-21],[0,-12],[3,-36],[6,-15]],[[3790,3473],[6,-3],[12,9],[21,-6],[21,15],[27,6],[15,9],[27,12],[12,18],[6,3],[15,-6],[15,12],[12,6]],[[3979,3548],[24,0],[9,-15],[6,-21],[6,-3],[21,3],[3,-21],[6,-6],[24,-18],[6,-9]],[[3144,3735],[-9,-21],[-12,-15],[6,-21],[9,-6],[15,-6],[6,-6],[0,-12],[-15,-12],[-9,-18],[-6,-21],[-6,-9],[-24,-22],[-15,-12],[-48,-18],[-12,-9],[-12,-15],[-12,-27],[-21,-27],[6,-18],[-12,-12]],[[2812,3376],[-16,-2],[-8,-1]],[[2788,3373],[-10,-2]],[[2949,3437],[-18,0],[-24,-6],[-21,6],[-15,3],[-12,-6],[-9,-15],[-21,-36],[-9,-6],[-8,-1]],[[2806,3388],[-21,-9]],[[2785,3379],[-4,-2],[-3,-6]],[[2847,4060],[-21,-42],[3,-21],[-12,-33],[0,-22],[-18,-18],[-9,-21],[-12,-30],[-9,-15],[0,-30],[-6,-18],[-12,-18],[6,-45],[0,-54],[-3,-39],[0,-21],[6,-6],[15,-6],[15,-24],[9,-12],[-3,-16],[-15,-27],[0,-18],[12,-36],[9,-24],[18,-27],[0,-9],[-12,-21],[0,-18],[-2,-1]],[[2778,3371],[-3,-12],[9,-30],[-3,-15],[6,-27],[-3,-27],[9,-15],[-3,-15],[-6,-12],[-6,-16],[-6,-57],[-6,-15],[-12,-9],[-12,-12],[-6,-3]],[[4084,3458],[9,-33],[3,-16]],[[4096,3254],[-3,-18],[3,-6]],[[2973,3428],[-12,-18],[-15,-42],[0,-21],[-6,-6],[-21,-12],[-21,-21],[-24,-27],[3,-15],[0,-12],[-12,-21],[3,-21],[0,-16],[3,-15],[12,-18],[6,-30],[6,-15],[0,-21],[12,-18],[0,-15],[-9,-27],[-12,-9],[-6,-15]],[[2742,3004],[21,9],[36,6],[30,15],[21,-6],[12,3],[15,-6],[3,-12]],[[2736,3106],[6,-15],[0,-12],[6,-15],[3,-12],[-3,-15],[-6,-33]],[[2721,2971],[3,6],[3,4]],[[2727,2981],[15,23]],[[2964,2965],[12,-9]],[[2925,2990],[3,-1],[22,-14]],[[2880,3013],[-6,-15],[6,-6],[21,6],[24,-8]],[[2950,2975],[11,-7],[3,-3]],[[2721,2971],[-9,6],[-6,-1]],[[2706,2976],[-12,-2],[-30,-12],[-27,-3],[-15,-3]],[[2645,3036],[-11,-2],[-5,-13]],[[2629,3021],[-1,-2],[-18,-24],[0,-33],[12,-6]],[[2736,3106],[-27,-6],[-9,-6],[-9,-18],[-3,-15],[-30,-24],[-13,-1]],[[3583,2817],[42,6],[27,-3],[33,9],[12,3],[24,-3],[27,0],[21,7],[51,-4]],[[3820,2832],[33,-21],[21,-6],[12,0],[12,-3],[36,-24],[12,0],[36,6],[15,3],[18,-12],[33,-3],[6,3],[24,15],[18,3]],[[3285,2769],[22,6],[27,3],[21,6],[54,-3],[36,3],[30,12],[27,3],[18,6],[39,9],[24,3]],[[2976,2956],[12,-9],[21,-9],[24,-7]],[[3033,2931],[51,-14],[27,-12],[30,-9],[36,-24],[15,-12],[21,-21],[18,-28],[21,-27],[18,-15],[15,0]],[[3222,2363],[6,6],[18,30],[6,21],[9,33],[6,19],[15,24],[6,18],[-3,9],[-9,21],[0,30],[-6,18],[-3,15],[3,24],[-3,24],[-3,18],[-3,33],[6,15],[15,24],[3,24]],[[3120,2138],[3,21],[21,24],[15,9],[9,18],[3,24],[21,33],[15,27],[3,24],[-6,18],[3,9],[15,18]],[[4096,2118],[-15,-7],[-15,3],[-18,12],[-21,-3]],[[3673,2047],[-39,-6],[-15,6],[-33,0],[-15,-12],[-24,-6],[-24,-3],[-15,3],[-21,18],[-18,0],[-45,-12],[-24,-6],[-9,0],[-27,15],[-15,0],[-27,6],[-28,0],[-15,3],[-15,15],[-9,3],[-51,0],[-9,3],[-12,15],[-21,19],[-24,9],[-18,9],[0,12]],[[4024,2117],[-15,-18],[-30,-7],[-33,-12],[-33,0],[-15,-9],[-33,-27],[-33,-18],[-9,0],[-24,15],[-18,0],[-27,9],[-15,-3],[-24,3],[-42,-3]],[[4024,2117],[-3,-18],[-6,-13],[6,-21],[-3,-6],[-27,-36],[-18,-27],[-6,-12],[-3,-15],[3,-12],[0,-15],[-9,-12],[-6,-24],[-9,-12],[-6,-24]],[[3937,1870],[24,-36],[12,-3],[36,0],[18,-6],[6,-3],[9,-21],[-3,-15],[6,-6],[27,-3],[12,-12],[12,-9]],[[3529,1464],[-60,-42],[-18,-6],[-45,-21],[-18,-18],[-24,-28]],[[3364,1349],[-18,-6],[-15,6],[-15,-3],[-12,10],[-16,-13],[-12,-12],[-12,-6],[-27,21],[-21,3],[-18,-3],[-33,6],[-15,10],[-12,-3],[-18,6]],[[3529,1464],[18,-24],[9,-6],[18,-6],[15,-12],[18,-9],[24,0],[33,-39],[48,-31],[18,-3],[24,15],[33,-6],[33,-6],[12,-27],[18,-6],[0,-24],[15,-9],[12,-12],[24,-3],[39,-30],[15,-3],[18,9],[6,3],[15,-12],[27,-3],[18,3],[9,-3],[24,-3],[24,-13]],[[3364,1349],[9,-15],[15,-30],[3,-15],[21,-63],[12,-24],[3,-18],[0,-15],[6,-6],[21,-18],[21,-6],[39,0],[9,-6],[9,-21],[15,-24]],[[3547,1088],[9,-15],[24,-21],[15,-9],[15,0]],[[3610,1043],[9,-18],[-6,-27],[0,-12],[6,-16],[-3,-30],[3,-27],[-9,-15],[12,-21],[-3,-6],[-12,-18],[-3,-15],[9,-18],[15,-18],[6,-3],[12,-24],[12,-15],[15,-6],[18,9],[15,-3],[33,24],[15,-3],[15,-12],[3,-24]],[[4096,709],[-6,0],[-33,-24],[-27,-12],[-9,0],[-9,6],[-9,15],[-33,9],[-24,-12],[-18,-6],[-6,0],[-27,21],[-24,6],[-15,15],[-24,15],[-18,3],[-30,0],[-12,0]],[[3772,745],[-27,-12],[-24,0],[-6,-9],[-9,-15],[-15,-9],[-27,-9],[-24,-15],[-15,-15],[-18,0],[-9,-24],[-18,-9],[-21,-28],[-15,-6],[-18,-12],[-30,-18],[-18,-15],[-27,-33],[-27,-48],[-15,-18],[-18,-6],[-6,-9],[-27,-39],[-15,-18],[-9,-3],[-30,-12],[-10,-9],[-3,-15],[-12,-21],[-15,-3],[-18,3],[-42,3],[-18,-12],[-15,3],[-15,6],[-6,-6],[-27,-30],[-3,-9]],[[3018,279],[24,-9],[21,3],[27,15],[6,-6],[12,3],[12,-12]],[[2856,291],[39,0],[12,-6],[27,-15],[21,3],[9,3],[21,0],[24,6],[9,-3]],[[2838,224],[0,15],[12,36]],[[2850,275],[6,16]],[[3920,0],[47,53],[9,9],[12,24],[15,12],[6,3],[18,18],[15,6],[24,18],[6,21],[6,3],[18,4]],[[3120,273],[6,-15],[21,-12],[21,-19],[21,-12],[33,0],[18,-18],[6,-15],[-3,-30],[3,-12],[15,-27],[27,-18],[16,-27],[15,-12],[21,-3],[27,-15],[42,-33],[4,-5]],[[722,57],[-25,-1],[-3,1],[-8,-26],[-7,-10],[-10,11],[-5,-13],[-7,-1],[-8,7],[-4,13],[1,0],[3,13],[0,6],[-2,7],[-3,4],[-3,1],[-2,3],[-26,83],[-4,7],[4,6],[1,7],[0,15],[2,5],[14,17],[3,7],[1,4],[2,5],[25,26],[6,3],[27,9],[23,19],[23,15],[29,-3],[17,-11],[16,-18],[14,-21],[8,-20],[3,-20],[0,-11],[-3,-14],[-6,-14],[-6,-9],[-18,-16],[-9,-11],[-21,-35],[-4,-1],[-7,-2],[-4,-3],[5,-13],[-6,-3],[-8,-1],[-6,-2],[-11,-13],[-1,-2]],[[1318,1178],[0,-16],[-3,-15],[-4,-7],[-5,-3],[-9,-2],[-3,-4],[0,-6],[0,-8],[-2,3],[-3,5],[-1,2],[-5,-2],[-4,-3],[-7,12],[-10,3],[-10,1],[-9,4],[-2,22],[1,14],[6,-1],[12,5],[6,6],[2,9],[0,12],[4,14],[10,11],[13,6],[13,-3],[20,-2],[8,-4],[2,-10],[-4,-3],[-8,-3],[-8,-5],[-5,-8],[11,-2],[10,-5],[3,-6],[-6,-2],[-11,-3],[-2,-6]],[[2289,2736],[10,0],[7,5],[16,-5],[24,-4],[25,1],[20,8],[2,-3],[2,-1],[6,-1],[20,-24],[7,-13],[3,-15],[-1,-14],[-3,-13],[-5,-11],[-6,-10],[-26,-23],[-8,-21],[-24,-28],[-2,-3],[-14,-39],[-13,-10],[-3,-17],[-2,-4],[-2,-2],[-21,-13],[-3,-12],[0,-33],[-4,-12],[-33,-38],[-25,-41],[-7,-8],[-7,5],[-17,7],[-3,5],[-5,-2],[-11,3],[-20,12],[-5,-2],[-17,-4],[-7,0],[-8,4],[-15,10],[-10,2],[-15,0],[-18,4],[-14,11],[-6,22],[-3,7],[-7,10],[-4,10],[2,8],[3,6],[4,31],[5,14],[10,19],[13,12],[18,-5],[9,5],[12,0],[26,-5],[12,5],[5,12],[-3,13],[-6,10],[9,5],[11,8],[10,10],[5,9],[5,68],[9,26],[19,31],[26,25],[30,8],[-2,-2],[-3,-8],[23,-5]],[[4096,4096],[0,-4096],[-1387,0],[4,5],[3,7],[-1,6],[-3,6],[-2,6],[-1,15],[-25,138],[-9,24],[3,6],[3,20],[2,4],[3,2],[23,20],[8,3],[7,-6],[6,-14],[3,-18],[-1,-14],[-7,-28],[1,-8],[3,-8],[1,-6],[-8,-2],[-3,-4],[-2,-7],[1,-8],[2,-7],[6,6],[4,6],[5,6],[8,2],[24,0],[3,-2],[4,-10],[19,-19],[7,-14],[2,-27],[5,-4],[6,-4],[5,0],[2,8],[-4,31],[1,13],[8,13],[36,-10],[9,-5],[4,-8],[6,-25],[5,-7],[3,5],[21,20],[6,5],[11,0],[7,-5],[7,-15],[36,6],[27,-27],[22,-35],[24,-19],[-27,49],[-10,14],[-2,12],[14,6],[19,-1],[11,-10],[9,5],[14,18],[8,8],[25,16],[9,3],[12,0],[21,-8],[12,-2],[11,1],[29,9],[0,6],[-36,-1],[-14,4],[-15,12],[-11,-8],[-13,-6],[-15,-5],[-56,-4],[-10,-3],[-32,11],[-9,7],[-11,9],[-6,4],[-23,-1],[-8,4],[-35,26],[-25,15],[-11,11],[-4,14],[-5,0],[-4,-9],[-4,-2],[-9,1],[-6,-2],[-17,-7],[-5,-1],[-6,9],[-4,26],[-8,5],[-10,11],[-35,80],[-9,13],[-20,23],[-14,7],[-13,-1],[-11,1],[-10,11],[0,11],[2,40],[6,9],[15,1],[17,4],[8,3],[15,9],[7,3],[10,1],[6,-2],[7,-3],[10,-1],[6,2],[10,7],[13,5],[11,7],[13,6],[14,-2],[12,-12],[5,-17],[-2,-15],[-12,-6],[-32,6],[-15,-1],[-10,-15],[16,5],[22,-1],[17,-10],[4,-19],[9,3],[6,5],[4,7],[1,10],[9,-12],[1,-21],[-4,-21],[-6,-11],[7,-21],[6,-6],[12,-3],[-3,12],[0,15],[4,13],[6,5],[5,6],[7,32],[6,12],[-10,14],[-2,15],[2,36],[-7,86],[-26,69],[-2,17],[-3,12],[-6,8],[-5,8],[4,15],[9,16],[10,7],[10,2],[14,0],[12,4],[7,8],[5,10],[8,8],[13,2],[42,-1],[12,-4],[10,-16],[6,-31],[6,-15],[6,12],[3,9],[1,4],[-1,12],[-5,19],[1,9],[6,4],[10,4],[10,2],[10,0],[-5,4],[-9,3],[-10,2],[-9,1],[-8,2],[-18,10],[-9,3],[-29,-7],[-8,2],[-3,7],[3,8],[6,7],[4,3],[-13,-6],[-17,-15],[-14,-16],[-6,-11],[-5,-5],[-24,-6],[-18,-7],[-6,8],[-12,35],[-6,10],[-8,7],[-11,6],[-14,3],[-9,-2],[-9,-4],[-23,-5],[-21,-10],[-11,-2],[-7,4],[-17,19],[-9,7],[1,7],[-2,6],[-9,12],[11,5],[9,8],[6,11],[12,37],[6,13],[9,6],[11,6],[10,14],[8,17],[4,13],[-2,28],[2,12],[20,8],[29,27],[13,16],[2,1],[2,4],[3,4],[3,5],[2,7],[9,21],[11,22],[15,11],[10,-3],[9,-8],[14,-5],[19,2],[14,7],[12,8],[17,8],[-15,-1],[-30,-20],[-13,3],[-31,30],[-11,20],[7,20],[43,43],[2,2],[4,8],[4,5],[15,9],[6,6],[3,5],[6,15],[3,4],[3,3],[3,5],[2,18],[4,5],[3,3],[2,4],[4,7],[25,26],[8,24],[-3,30],[-20,60],[-7,14],[-2,6],[-1,8],[2,8],[3,5],[4,3],[1,4],[6,91],[-2,16],[-6,13],[-6,16],[9,13],[15,10],[9,9],[0,4],[5,13],[3,135],[22,98],[12,30],[3,12],[3,93],[7,33],[11,30],[14,21],[16,19],[9,20],[1,23],[-28,106],[-13,18],[0,4],[7,0],[5,1],[8,4],[0,5],[-11,-1],[-8,2],[-6,4],[-5,5],[-4,7],[-20,36],[-54,68],[-30,26],[-71,48],[16,4],[18,9],[60,45],[16,6],[19,1],[-23,7],[-20,-8],[-19,-13],[-20,-6],[-50,-4],[-8,4],[-4,9],[3,10],[12,6],[-21,51],[-35,48],[-10,19],[-4,17],[18,-18],[5,-2],[3,-3],[6,-16],[3,-6],[10,-4],[12,-2],[28,1],[-7,3],[-23,7],[-7,4],[-3,3],[-2,4],[-5,6],[-6,16],[2,18],[8,18],[13,11],[27,-25],[16,-3],[7,18],[24,-13],[10,-7],[6,-10],[4,8],[0,7],[-3,8],[-6,7],[3,0],[7,0],[-34,12],[-16,9],[-5,14],[9,10],[19,6],[21,4],[15,0],[0,3],[-1,2],[-3,5],[2,1],[1,0],[1,1],[0,3],[-72,-12],[-22,2],[-12,12],[4,19],[12,17],[14,7],[12,11],[31,48],[21,11],[4,4],[3,7],[-2,4],[-12,-5],[-13,-10],[-7,-7],[-5,-8],[-5,0],[0,15],[-13,-10],[-24,-36],[-13,-14],[-16,-9],[-20,-5],[-14,3],[0,16],[-10,-10],[-14,7],[-13,14],[-7,17],[4,17],[-11,11],[-8,-3],[-20,-23],[1,-2],[4,-5],[5,-2],[7,-1],[7,-5],[1,-3],[7,-18],[9,-8],[12,-10],[6,-12],[-10,-14],[-10,4],[-5,1],[-6,2],[-9,8],[-9,15],[-5,3],[-3,2],[-2,3],[0,7],[-9,-1],[-7,-3],[-4,-5],[-1,-9],[20,-11],[5,-6],[2,-9],[-2,-6],[-3,-7],[-1,-11],[2,-5],[11,-6],[6,-6],[-9,-4],[-12,-3],[-26,-3],[-14,2],[-25,6],[-11,2],[-22,11],[-8,25],[4,27],[13,17],[0,5],[-18,-4],[-8,-13],[-4,-12],[-25,-23],[-22,4],[-7,-2],[0,14],[2,10],[-2,8],[-10,8],[-9,2],[-13,0],[-13,-2],[-7,-2],[-12,1],[-38,25],[-63,30],[-9,6],[-2,20],[14,44],[2,21],[-22,21],[-18,24],[-12,28],[-18,104],[4,18],[19,33],[7,17],[-16,-18],[-10,-5],[-4,10],[2,9],[3,9],[2,9],[-2,11],[-6,5],[-16,6],[-5,12],[-6,8],[-7,7],[-5,2],[-3,-9],[23,-35],[5,-16],[-5,-11],[-6,-3],[-6,5],[-3,11],[-35,28],[0,-10],[1,-7],[3,-6],[6,-3],[-9,-17],[-4,-2],[-4,1],[-15,9],[-3,2],[-5,7],[-12,4],[-12,7],[-6,12],[-8,27],[-32,47],[-5,29],[-12,-19],[5,-21],[11,-22],[19,-67],[6,-6],[9,-4],[7,-6],[5,-19],[-16,-9],[-91,-7],[-8,4],[4,9],[9,10],[8,7],[-9,4],[-8,0],[-6,-4],[-4,-15],[-6,-3],[-8,0],[-9,3],[-11,11],[-4,17],[4,13],[11,-2],[4,10],[15,26],[-10,-8],[-9,0],[-7,6],[-3,12],[1,10],[6,10],[13,15],[21,14],[4,6],[0,9],[-3,9],[-1,8],[4,9],[5,-5],[-3,29],[2,14],[8,7],[3,1],[-1,4],[-5,3],[-7,2],[-6,-3],[-7,-7],[-7,-7],[-3,-6],[-1,-6],[-6,-14],[-2,-8],[0,-7],[5,-10],[0,-7],[-7,-12],[-8,-3],[-10,1],[-11,4],[-3,-1],[-7,-1],[-5,2],[3,7],[3,5],[4,8],[1,7],[-3,3],[-6,-1],[-15,-7],[-9,-2],[-22,8],[-1,20],[7,26],[4,25],[-5,0],[-5,-24],[-16,-13],[-21,1],[-19,17],[3,3],[3,7],[-6,1],[-14,8],[3,10],[-6,8],[-20,15],[-17,10],[-1,1],[-4,12],[-8,15],[-6,7],[-9,3],[-8,3],[-8,8],[-8,8],[-3,5],[-5,0],[0,-4],[40,-38],[10,-12],[19,-35],[3,-17],[-12,-8],[5,-10],[7,-12],[8,-9],[7,-4],[7,-7],[11,-31],[9,-12],[-2,-5],[-6,-16],[-1,-7],[3,-10],[7,-4],[8,-3],[7,-5],[2,-17],[-11,-11],[-14,-8],[-7,-12],[-10,-22],[-7,-4],[-7,-1],[-32,0],[-42,5],[-62,0],[-30,4],[-14,0],[-25,-13],[-14,-1],[-32,0],[-124,-15],[-7,4],[-9,1],[-9,-3],[-5,-7],[7,0],[7,-1],[6,-2],[5,-2],[-16,-5],[-24,-1],[-21,4],[-10,9],[-10,3],[-64,5],[2,3],[2,2],[2,2],[4,3],[-9,2],[-9,-1],[-6,1],[-1,8],[2,4],[5,3],[5,5],[3,7],[-2,4],[-13,17],[2,3],[3,7],[-11,12],[2,19],[13,34],[-4,0],[-8,-6],[-4,-3],[-6,-7],[-2,-7],[2,-11],[2,-8],[0,-7],[-6,-9],[0,-4],[10,-12],[2,-6],[-2,-2],[-12,-14],[-7,-5],[-9,-5],[-8,0],[-7,6],[-5,0],[-6,-15],[-16,1],[-25,14],[-18,1],[-19,4],[-16,7],[-10,13],[-4,-3],[-5,-2],[-13,0],[-2,-2],[-1,-6],[-3,-5],[-7,-3],[0,-4],[5,-3],[5,-3],[-4,-4],[9,-4],[12,-9],[20,-5],[4,-5],[-1,-6],[-5,-6],[-32,-5],[-4,3],[-16,24],[-46,50],[-6,15],[0,20],[-2,7],[-5,0],[-11,-5],[-15,0],[-3,1],[-6,7],[-13,11],[-6,7],[-12,33],[-7,11],[-1,-7],[-4,-7],[-4,-5],[-2,-1],[2,-7],[4,-1],[5,-1],[4,-5],[8,-25],[7,-11],[13,-4],[22,-12],[17,-25],[2,-24],[-18,-9],[9,-7],[11,-10],[7,-13],[-5,-13],[-20,-22],[-13,-6],[-15,6],[0,-11],[0,-4],[-13,6],[-10,9],[-4,10],[2,15],[-9,-9],[-2,-12],[4,-13],[7,-11],[-19,-5],[-6,0],[-9,17],[-4,18],[-2,37],[-12,20],[-3,12],[8,6],[3,6],[4,13],[2,15],[-2,11],[4,-2],[7,-1],[4,-2],[-5,8],[-14,17],[-3,8],[-4,15],[-3,7],[-14,-19],[-4,0],[-3,12],[-9,16],[-4,-11],[2,-17],[-3,-6],[8,-12],[16,-43],[-7,0],[-5,1],[-4,2],[-3,7],[-3,-2],[-7,-3],[-6,14],[-8,12],[-21,24],[1,-12],[4,-10],[10,-18],[6,-7],[3,-5],[1,-6],[-3,-6],[-5,-4],[-2,-4],[5,-8],[7,11],[14,4],[13,-4],[6,-9],[-7,-50],[1,-17],[26,-52],[9,-11],[-1,-7],[-4,-7],[-7,-3],[-9,1],[-8,3],[-14,7],[1,-4],[1,-3],[2,-4],[-16,5],[-16,7],[-16,4],[-17,-7],[-8,9],[-6,12],[-1,13],[5,12],[-12,7],[-12,19],[-8,23],[-3,18],[2,13],[3,8],[5,5],[6,7],[3,7],[3,12],[-2,11],[-12,5],[-19,10],[-13,25],[-11,45],[-2,18],[2,9],[8,10],[5,9],[-2,6],[-7,1],[-9,-8],[-7,8],[-2,5],[-1,7],[-6,-3],[-6,-1],[-7,1],[-6,3],[3,-12],[2,-14],[3,-10],[10,-4],[6,-6],[5,-13],[6,-26],[3,-27],[3,-13],[7,-5],[9,-5],[10,-12],[13,-23],[-16,-14],[-4,-6],[-1,-10],[14,-72],[8,-22],[10,-11],[-2,-17],[15,-13],[9,-10],[-18,-10],[-23,-4],[-29,-2],[-27,2],[-16,9],[-2,11],[3,43],[3,5],[1,3],[-1,4],[-7,6],[-2,3],[0,25],[3,12],[16,44],[2,7],[-1,22],[-14,-17],[-11,-31],[-5,-33],[5,-24],[-3,-6],[0,-15],[-2,-9],[-7,16],[-2,10],[-2,45],[-4,9],[-3,-5],[-3,-4],[-4,-4],[-5,-2],[4,-11],[1,-34],[3,-12],[9,-15],[5,-14],[8,-26],[0,-8],[-5,-8],[-8,-3],[-22,1],[-21,-2],[-4,4],[-8,24],[-2,22],[1,33],[-3,27],[-11,19],[-22,-2],[20,-16],[8,-26],[-3,-30],[-10,-28],[-1,-24],[-36,-9],[-43,4],[-20,14],[-9,-2],[-10,-3],[5,-14],[-11,-4],[-19,-1],[-13,-4],[-14,-6],[-34,-1],[-14,-5],[-17,20],[15,31],[47,54],[-9,1],[-6,1],[-5,0],[-6,-2],[-24,-30],[-4,39],[-11,36],[-5,0],[-1,-15],[2,-18],[3,-19],[6,-13],[-7,7],[-7,8],[-8,7],[-13,3],[8,-17],[8,-12],[5,-12],[-1,-19],[-5,-14],[-5,-11],[-5,-3],[-6,-2],[-4,-4],[0,-11],[6,3],[4,0],[10,-3],[-4,-7],[-21,-7],[-27,-1],[-18,5],[-2,-4],[-5,-3],[-3,-3],[-12,4],[-6,8],[-3,10],[1,13],[3,12],[10,18],[2,10],[-4,-2],[-8,-2],[-3,-1],[0,12],[3,19],[-8,1],[-8,2],[-9,4],[-8,-3],[-3,-8],[2,-10],[3,-11],[3,-6],[-3,-10],[4,-8],[6,-8],[3,-12],[-2,-15],[-6,0],[-8,8],[-11,5],[-16,0],[-6,4],[-1,26],[4,1],[1,2],[-9,14],[-1,3],[-1,12],[1,13],[-5,0],[-5,-25],[-4,3],[-11,7],[11,-25],[2,-12],[-8,-8],[-11,1],[-11,7],[-10,8],[-5,4],[-15,5],[-16,14],[-9,18],[7,18],[-8,0],[-5,-2],[-2,-5],[0,-8],[-4,0],[-12,12],[-29,17],[-9,11],[5,-3],[9,-4],[6,-3],[-6,9],[-9,4],[-10,3],[-10,4],[-16,17],[-5,7],[-20,20],[-4,3],[-46,43],[0,663],[1,0],[10,17],[-11,-5],[0,60],[4096,0]],[[1190,3280],[11,-4],[33,4],[9,-4],[-8,-8],[-5,-8],[-1,-10],[-1,-12],[-3,-11],[-7,-7],[-9,-6],[-11,-5],[-64,-13],[-25,2],[-7,9],[7,14],[23,24],[16,26],[14,16],[4,7],[2,12],[10,-6],[12,-20]],[[1330,3264],[13,-3],[13,2],[27,6],[12,2],[24,2],[8,-2],[-4,-10],[-7,-9],[-12,-2],[-28,1],[-11,-2],[-37,-13],[-12,-1],[-54,3],[-11,5],[-4,10],[6,13],[8,4],[35,11],[8,-3],[26,-14]],[[2032,2451],[13,44],[154,-7],[14,-47],[57,-39],[-48,-61],[-162,44],[-28,66]],[[2468,3000],[15,117],[31,-19],[44,84],[67,10],[46,-63],[-109,-117],[-8,-49],[-86,37]],[[2840,3746],[144,-24],[-21,-78],[-119,-5],[17,66],[-21,41]],[[621,132],[43,45],[-28,12],[15,33],[77,-7],[-34,-18],[28,-16],[3,-91],[-33,15],[-5,-27],[-51,5],[-15,49]],[[3242,528],[44,203],[105,0],[30,-60],[-17,-61],[-59,-49],[7,-43],[-87,-14],[-23,24]],[[2814,3926],[41,48],[43,-8],[23,88],[61,-27],[22,-44],[-64,-46],[31,-39],[-17,-49],[55,-41],[-2,-36],[-54,-21],[-139,175]],[[2925,2586],[102,58],[61,-17],[97,32],[30,-128],[-53,-134],[-45,-18],[-86,120],[-106,87]],[[2848,2790],[33,-23],[32,-59],[43,-32],[-48,56],[47,-13],[0,-12],[10,-6],[-3,-11],[3,-7],[2,-1],[4,12],[-19,39],[55,-13],[-10,-41],[40,-24],[-116,-38],[19,24],[-92,149]],[[2207,2570],[25,78],[135,27],[-11,-43],[-115,-113],[-23,4],[-11,47]],[[2779,348],[72,-33],[-2,-93],[-35,-1],[-64,133],[29,-6]],[[2641,2909],[-29,3],[-17,20],[26,7],[20,-30]],[[2665,3030],[-6,-20],[-34,12],[12,16],[28,-8]],[[2819,3363],[-30,6],[-10,26],[25,-2],[15,-30]],[[3026,2991],[36,-17],[-37,-55],[-77,22],[33,49],[45,1]],[[2746,2949],[-41,28],[1,13],[57,-24],[-17,-17]],[[2935,3004],[46,-4],[-51,-42],[-6,40],[11,6]],[[1145,3411],[-33,41],[13,15],[20,-7],[0,-49]],[[1064,3573],[8,-16],[27,16],[29,-40],[-40,-16],[24,-41],[-56,16],[-17,-40],[-56,48],[0,65],[32,-16],[49,24]],[[1225,3622],[-32,16],[7,12],[24,-9],[1,-19]],[[1920,3536],[9,-32],[-56,-4],[19,30],[28,6]],[[1832,3533],[-16,0],[40,24],[-13,-19],[-11,-5]],[[1298,3371],[-39,16],[15,32],[11,-7],[13,-41]],[[1697,3380],[-19,-1],[-16,8],[49,24],[-14,-31]],[[926,3823],[-8,-15],[-25,15],[19,18],[14,-18]],[[3482,3906],[-69,-45],[-12,4],[35,41],[46,0]],[[1533,3800],[48,-32],[-48,-24],[-57,16],[41,56],[16,-16]],[[760,3890],[-20,7],[16,33],[25,-33],[-21,-7]],[[1201,3873],[-22,10],[6,23],[19,-14],[-3,-19]],[[1126,3892],[-38,30],[8,16],[40,-32],[-10,-14]],[[303,4001],[-8,-14],[-25,14],[20,18],[13,-18]],[[3242,3960],[-35,10],[6,12],[27,-4],[2,-18]],[[3500,3973],[-24,18],[-10,36],[65,-24],[-31,-30]],[[1064,4027],[1,-51],[-65,26],[39,68],[17,-11],[-19,-19],[27,-13]],[[1969,3582],[-15,26],[24,79],[24,0],[-2,-80],[-31,-25]],[[1711,3679],[-33,-49],[-40,57],[48,13],[4,24],[21,-45]],[[1374,3766],[-51,-31],[8,-81],[-25,49],[-81,-24],[0,48],[41,57],[24,-24],[16,48],[111,27],[-43,-69]],[[52,4084],[89,-8],[-24,-49],[49,-8],[-8,-49],[-73,55],[14,34],[-39,-16],[-8,41]],[[1600,4096],[14,0],[0,-4],[12,-38],[-4,-11],[-33,33],[11,20]],[[1256,4066],[18,-23],[36,21],[85,-13],[-36,-37],[-61,28],[-81,-72],[-40,49],[97,8],[-71,20],[30,37],[23,-18]],[[991,4096],[50,0],[-10,-20],[-40,20]],[[3063,1673],[76,-28],[4,29],[52,-15],[34,20],[91,195],[-34,32],[8,43],[61,-4],[37,69],[212,2],[144,-35],[-43,-139],[-44,30],[-136,-50],[-53,24],[-170,-261],[-91,-8],[-93,26],[-55,70]],[[1980,4096],[330,0],[-67,-117],[20,-24],[-23,-56],[68,9],[19,-127],[-76,-113],[-35,-13],[-6,-49],[-36,15],[9,39],[-43,37],[-11,72],[40,85],[36,9],[15,35],[-2,85],[-40,-50],[-62,-1],[-1,-54],[21,-1],[-36,-126],[-56,-15],[-12,21],[-42,-5],[-52,57],[-36,-27],[16,14],[-22,25],[47,27],[56,-28],[-7,44],[45,29],[-7,31],[-26,-18],[3,36],[-70,18],[4,62],[37,72],[2,2]],[[2175,3709],[47,-1],[1,31],[-14,5],[-34,-35]],[[2047,3754],[26,1],[4,13],[-15,4],[-15,-18]],[[2008,3868],[5,-8],[5,5],[-3,9],[-7,-6]],[[1947,3831],[1,-5],[8,-6],[3,12],[-12,-1]],[[2180,3687],[5,-3],[7,9],[-6,0],[-6,-6]],[[1948,3812],[3,-7],[14,-4],[2,8],[-19,3]],[[2197,3622],[1,-8],[11,-1],[-1,8],[-11,1]],[[2174,3678],[5,-3],[1,6],[-5,1],[-1,-4]],[[2047,3781],[7,-2],[6,16],[-7,2],[-6,-16]],[[2885,751],[7,23],[14,-13],[42,28],[-37,48],[36,-8],[51,91],[27,-40],[25,35],[26,-55],[23,12],[54,-71],[-21,-66],[-58,7],[-12,-5],[31,-10],[44,-48],[-67,53],[-43,-9],[-27,49],[-19,-19],[-40,19],[-28,-36],[-28,15]],[[3014,1527],[23,53],[-14,115],[34,18],[18,-75],[116,-62],[-85,-22],[19,-43],[-66,17],[-24,-22],[-21,21]],[[3931,3122],[31,70],[47,-19],[86,43],[-36,-95],[-62,-13],[-12,-25],[-54,39]],[[2251,3668],[108,178],[38,29],[53,103],[47,-2],[67,-41],[38,-104],[46,-37],[-24,-27],[-142,37],[-55,-25],[-1,-25],[-48,-16],[-1,-63],[-27,-67],[-33,2],[19,-18],[-18,-24],[-53,30],[12,32],[-26,38]]]}