{"objects":{"water":{"type":"GeometryCollection","geometries":[{"type":"Polygon","properties":{"source":"naturalearthdata.com","kind":"lake","name":"O. Tenis","area":819203968,"sort_rank":200,"min_zoom":0.0,"id":212},"arcs":[[0]]},{"type":"Polygon","properties":{"source":"naturalearthdata.com","kind":"lake","name":"O. Ch\u00ebrnoye","area":724672768,"sort_rank":200,"min_zoom":0.0,"id":213},"arcs":[[1]]},{"type":"MultiPolygon","properties":{"source":"naturalearthdata.com","kind":"ocean","area":1444195503964160,"sort_rank":200,"min_zoom":0.0,"id":1},"arcs":[[[2]]]},{"type":"Point","properties":{"label_placement":true,"kind":"lake","name":"O. Tenis","area":819203968,"sort_rank":200,"source":"naturalearthdata.com","min_zoom":0.0,"id":212},"coordinates":[785,134]},{"type":"LineString","properties":{"source":"naturalearthdata.com","kind":"lake","sort_rank":367,"boundary":true,"min_zoom":0.0,"id":212},"arcs":[3]},{"type":"MultiLineString","properties":{"source":"naturalearthdata.com","kind":"lake","sort_rank":367,"boundary":true,"min_zoom":0.0,"id":213},"arcs":[[4],[5]]},{"type":"LineString","properties":{"source":"naturalearthdata.com","kind":"ocean","sort_rank":205,"boundary":true,"min_zoom":0.0,"id":1182},"arcs":[6]},{"type":"LineString","properties":{"source":"naturalearthdata.com","kind":"ocean","sort_rank":205,"boundary":true,"min_zoom":0.0,"id":1388},"arcs":[7]}]},"buildings":{"type":"GeometryCollection","geometries":[]},"places":{"type":"GeometryCollection","geometries":[{"type":"Point","properties":{"name:pt":"Oblast de Tomsk","name:az":"Tomsk vilay\u0259ti","name:ka":"\u10e2\u10dd\u10db\u10e1\u10d9\u10d8\u10e1 \u10dd\u10da\u10e5\u10d8","name:mr":"\u0924\u094b\u092e\u094d\u0938\u094d\u0915 \u0913\u092c\u094d\u0932\u093e\u0938\u094d\u0924","name:ko":"\ud1b0\uc2a4\ud06c \uc8fc","name:cv":"\u0422\u043e\u043c\u0441\u043a \u043e\u0431\u043b\u0430\u04ab\u04d7","name:ar":"\u062a\u0648\u0645\u0633\u0643 \u0623\u0648\u0628\u0644\u0627\u0633\u062a","name:cs":"Tomsk\u00e1 oblast","name:tt":"\u0422\u043e\u043c\u0441\u043a \u04e9\u043b\u043a\u04d9\u0441\u0435","name:kv":"\u0422\u043e\u043c\u0441\u043a \u043e\u0431\u043b\u0430\u0441\u044c\u0442","min_zoom":4.0,"name:ro":"Regiunea Tomsk","name:it":"Oblast' di Tomsk","name:tl":"Tomsk_Oblast","name:be":"\u0422\u043e\u043c\u0441\u043a\u0430\u044f \u0432\u043e\u0431\u043b\u0430\u0441\u0446\u044c","name:os":"\u0422\u043e\u043c\u0441\u0447\u044b \u043e\u0431\u043b\u00e6\u0441\u0442","name:vi":"Tomsk","name:pl":"Obw\u00f3d tomski","id":502842918,"name:ca":"Prov\u00edncia de Tomsk","name:fa":"\u0627\u0633\u062a\u0627\u0646 \u062a\u0648\u0645\u0633\u06a9","name:bg":"\u0422\u043e\u043c\u0441\u043a\u0430 \u043e\u0431\u043b\u0430\u0441\u0442","name:lt":"Tomsko sritis","kind_detail":"state","name:sh":"Tomska oblast","kind":"region","name:de":"Oblast Tomsk","source":"openstreetmap.org","name:fr":"Oblast de Tomsk","name:mk":"\u0422\u043e\u043c\u0441\u043a\u0430 \u043e\u0431\u043b\u0430\u0441\u0442","name:zh":"\u6258\u6728\u65af\u514b\u5dde","name:sl":"Tomska oblast","name:lv":"Tomskas apgabals","name:ja":"\u30c8\u30e0\u30b9\u30af\u5dde","name:nn":"Tomsk oblast","name:no":"Tomsk oblast","name:he":"\u05de\u05d7\u05d5\u05d6 \u05d8\u05d5\u05de\u05e1\u05e7","name:eo":"Tomska Provinco","name:sk":"Tomsk\u00e1 oblas\u0165","name:uk":"\u0422\u043e\u043c\u0441\u044c\u043a\u0430 \u043e\u0431\u043b\u0430\u0441\u0442\u044c","name:sw":"Tomsk Oblast","name:sv":"Tomsk oblast","name:hu":"Tomszki ter\u00fclet","name:hr":"Tomska oblast","name:sr":"\u0422\u043e\u043c\u0441\u043a\u0430 \u043e\u0431\u043b\u0430\u0441\u0442","name:el":"\u03a0\u03b5\u03c1\u03b9\u03c6\u03ad\u03c1\u03b5\u03b9\u03b1 \u03a4\u03bf\u03bc\u03c3\u03ba","name:ga":"C\u00faige Thomsk","name:en":"Tomsk Oblast","name":"\u0422\u043e\u043c\u0441\u043a\u0430\u044f \u043e\u0431\u043b\u0430\u0441\u0442\u044c","name:tr":"Tomsk Oblast\u0131","name:fi":"Tomskin alue","name:et":"Tomski oblast","name:nl":"Oblast Tomsk","name:es":"\u00d3blast de Tomsk"},"coordinates":[2648,1082]},{"type":"Point","properties":{"name:sk":"Chantyjsko-mansijsk\u00fd auton\u00f3mny okruh","name:ja":"\u30cf\u30f3\u30c6\u30a3\u30fb\u30de\u30f3\u30b7\u81ea\u6cbb\u7ba1\u533a\u30fb\u30e6\u30b0\u30e9","name:lt":"Chant\u0173 Mansija","name:eo":"\u0124anti-Mansa a\u016dtonoma distrikto \u2014 Jugra","name:tt":"\u0425\u0430\u043d\u0442-\u041c\u0430\u043d\u0441\u0438 \u2014 \u042e\u0433\u0440\u0430 \u0430\u0432\u0442\u043e\u043d\u043e\u043c\u0438\u044f\u043b\u0435 \u043e\u043a\u0440\u0443\u0433\u044b","min_zoom":4.0,"name:uk":"\u0425\u0430\u043d\u0442\u0438-\u041c\u0430\u043d\u0441\u0456\u0439\u0441\u044c\u043a\u0438\u0439 \u0430\u0432\u0442\u043e\u043d\u043e\u043c\u043d\u0438\u0439 \u043e\u043a\u0440\u0443\u0433 \u2014 \u042e\u0433\u0440\u0430","name:be":"\u0425\u0430\u043d\u0442\u044b-\u041c\u0430\u043d\u0441\u0456\u0439\u0441\u043a\u0430\u044f \u0430\u045e\u0442\u0430\u043d\u043e\u043c\u043d\u0430\u044f \u0430\u043a\u0440\u0443\u0433\u0430","name:pl":"Chanty-Mansyjski Okr\u0119g Autonomiczny - Jugra","name:hu":"Hanti- \u00e9s Manysif\u00f6ld","name:hr":"Hantijsko-Mansijski autonomni okrug","id":503046328,"kind":"region","name:en":"Khanty-Mansi autonomous okrug","name":"\u0425\u0430\u043d\u0442\u044b-\u041c\u0430\u043d\u0441\u0438\u0439\u0441\u043a\u0438\u0439 \u0430\u0432\u0442\u043e\u043d\u043e\u043c\u043d\u044b\u0439 \u043e\u043a\u0440\u0443\u0433 \u2014 \u042e\u0433\u0440\u0430","kind_detail":"state","name:de":"Autonomer Kreis der Chanten und Mansen - Jugra","source":"openstreetmap.org","name:fr":"Khantys-Mansis","name:es":"Janti-Mansi"},"coordinates":[208,2328]},{"type":"Point","properties":{"name:sk":"\u0164umensk\u00e1 oblas\u0165","name:ja":"\u30c1\u30e5\u30e1\u30cb\u5dde","name:lt":"Tiumen\u0117s sritis","name:eo":"Tjumena Provinco","name:tt":"\u0422\u04e9\u043c\u04d9\u043d \u04e9\u043b\u043a\u04d9\u0441\u0435","min_zoom":4.0,"name:uk":"\u0422\u044e\u043c\u0435\u043d\u0441\u044c\u043a\u0430 \u043e\u0431\u043b\u0430\u0441\u0442\u044c","name:be":"\u0426\u044e\u043c\u0435\u043d\u0441\u043a\u0430\u044f \u0432\u043e\u0431\u043b\u0430\u0441\u0446\u044c","name:pl":"Obw\u00f3d tiume\u0144ski","name:hu":"Tyumenyi ter\u00fclet","name:hr":"Tjumenjska oblast","id":503047594,"kind":"region","name:en":"Tyumen Oblast","name":"\u0422\u044e\u043c\u0435\u043d\u0441\u043a\u0430\u044f \u043e\u0431\u043b\u0430\u0441\u0442\u044c","kind_detail":"state","name:de":"Oblast Tjumen","source":"openstreetmap.org","name:fr":"Oblast de Tioumen","name:es":"\u00d3blast de Tium\u00e9n"},"coordinates":[522,1161]},{"type":"Point","properties":{"name:sk":"Omsk\u00e1 oblas\u0165","name:ja":"\u30aa\u30e0\u30b9\u30af\u5dde","name:lt":"Omsko sritis","name:he":"\u05de\u05d7\u05d5\u05d6 \u05d0\u05d5\u05de\u05e1\u05e7","kind":"region","name:tt":"\u041e\u043c\u0441\u043a \u04e9\u043b\u043a\u04d9\u0441\u0435","min_zoom":4.0,"name:uk":"\u041e\u043c\u0441\u044c\u043a\u0430 \u043e\u0431\u043b\u0430\u0441\u0442\u044c","name:be":"\u041e\u043c\u0441\u043a\u0430\u044f \u0432\u043e\u0431\u043b\u0430\u0441\u0446\u044c","name:pl":"Obw\u00f3d omski","name:hu":"Omszki ter\u00fclet","name:hr":"Omska oblast","id":503050374,"name:af":"Omsk-oblast","name:eo":"Omska Provinco","name:en":"Omsk Oblast","name":"\u041e\u043c\u0441\u043a\u0430\u044f \u043e\u0431\u043b\u0430\u0441\u0442\u044c","kind_detail":"state","name:de":"Oblast Omsk","source":"openstreetmap.org","name:fr":"Oblast d'Omsk","name:es":"\u00d3blast de Omsk"},"coordinates":[1094,121]}]},"transit":{"type":"GeometryCollection","geometries":[]},"pois":{"type":"GeometryCollection","geometries":[{"type":"Point","properties":{"kind":"nature_reserve","protect_class":"4","area":33943200000,"source":"openstreetmap.org","min_zoom":4.76,"tier":2,"id":-7009186,"osm_relation":true,"name":"\u0415\u043b\u043e\u0433\u0443\u0439\u0441\u043a\u0438\u0439 \u0437\u0430\u043a\u0430\u0437\u043d\u0438\u043a"},"coordinates":[3385,2275]},{"type":"Point","properties":{"kind":"nature_reserve","protect_class":"1","area":30234800000,"source":"openstreetmap.org","min_zoom":4.85,"tier":2,"id":-7009185,"osm_relation":true,"name":"\u0412\u0435\u0440\u0445\u043d\u0435-\u0422\u0430\u0437\u043e\u0432\u0441\u043a\u0438\u0439 \u0437\u0430\u043f\u043e\u0432\u0435\u0434\u043d\u0438\u043a"},"coordinates":[3036,2711]},{"type":"Point","properties":{"kind":"nature_reserve","protect_class":"7","area":33984300000,"source":"openstreetmap.org","min_zoom":4.76,"tier":2,"id":-7009181,"osm_relation":true,"name":"\u041d\u0430\u0434\u044b\u043c\u0441\u043a\u0438\u0439 \u0437\u0430\u043a\u0430\u0437\u043d\u0438\u043a"},"coordinates":[1207,3671]}]},"boundaries":{"type":"GeometryCollection","geometries":[]},"roads":{"type":"GeometryCollection","geometries":[]},"earth":{"type":"GeometryCollection","geometries":[{"type":"MultiPolygon","properties":{"sort_rank":10,"source":"naturalearthdata.com","min_zoom":0.0,"kind":"earth","area":24643647881553},"arcs":[[[8]],[[9]]]}]},"landuse":{"type":"GeometryCollection","geometries":[{"type":"Polygon","properties":{"kind":"nature_reserve","name":"\u041d\u0430\u0434\u044b\u043c\u0441\u043a\u0438\u0439 \u0437\u0430\u043a\u0430\u0437\u043d\u0438\u043a","area":33984299008,"sort_rank":23,"source":"openstreetmap.org","min_zoom":4.0,"tier":2,"id":-7009181,"osm_relation":true,"protect_class":"7"},"arcs":[[10]]},{"type":"Polygon","properties":{"kind":"nature_reserve","name":"\u0426\u0435\u043d\u0442\u0440\u0430\u043b\u044c\u043d\u043e\u0441\u0438\u0431\u0438\u0440\u0441\u043a\u0438\u0439 \u0437\u0430\u043f\u043e\u0432\u0435\u0434\u043d\u0438\u043a","area":47821701120,"sort_rank":23,"source":"openstreetmap.org","min_zoom":4.0,"tier":2,"id":-7009187,"osm_relation":true,"protect_class":"1"},"arcs":[[11]]},{"type":"Polygon","properties":{"kind":"nature_reserve","name":"\u0422\u043e\u043c\u0441\u043a\u0438\u0439 \u0437\u0430\u043a\u0430\u0437\u043d\u0438\u043a","area":1684519936,"sort_rank":23,"source":"openstreetmap.org","min_zoom":4.0,"tier":2,"id":-2349994,"osm_relation":true,"protect_class":"4"},"arcs":[[12]]},{"type":"MultiPolygon","properties":{"source":"naturalearthdata.com","kind":"urban_area","name":"","area":72244862408,"sort_rank":11,"min_zoom":4.0},"arcs":[[[13]],[[14]],[[15]],[[16]],[[17]],[[18]],[[19]],[[20]],[[21]],[[22]],[[23]],[[24]],[[25]],[[26]],[[27]],[[28]],[[29]],[[30]],[[31]],[[32]]]},{"type":"MultiPolygon","properties":{"kind":"nature_reserve","name":"\u041d\u0438\u0436\u043d\u0435-\u041e\u0431\u0441\u043a\u0438\u0439 \u0437\u0430\u043a\u0430\u0437\u043d\u0438\u043a","area":9047159808,"sort_rank":23,"source":"openstreetmap.org","min_zoom":4.0,"tier":2,"id":476941967,"protect_class":"7"},"arcs":[[[33]]]},{"type":"Polygon","properties":{"kind":"nature_reserve","name":"\u0412\u0435\u0440\u0445\u043d\u0435-\u0422\u0430\u0437\u043e\u0432\u0441\u043a\u0438\u0439 \u0437\u0430\u043f\u043e\u0432\u0435\u0434\u043d\u0438\u043a","area":30234800128,"sort_rank":23,"source":"openstreetmap.org","min_zoom":4.0,"tier":2,"id":-7009185,"osm_relation":true,"protect_class":"1"},"arcs":[[34]]},{"type":"Polygon","properties":{"kind":"park","name":"\u042e\u0433\u0430\u043d\u0441\u043a\u0438\u0439 \u0437\u0430\u043f\u043e\u0432\u0435\u0434\u043d\u0438\u043a","area":24713400320,"sort_rank":24,"source":"openstreetmap.org","min_zoom":4.0,"tier":2,"id":-3282537,"osm_relation":true},"arcs":[[35]]},{"type":"MultiPolygon","properties":{"kind":"nature_reserve","protect_class":"7","area":14358675103,"sort_rank":23,"source":"openstreetmap.org","min_zoom":4.0,"tier":2,"osm_relation":true,"name":"\u041a\u0443\u043d\u043e\u0432\u0430\u0442\u0441\u043a\u0438\u0439 \u0437\u0430\u043a\u0430\u0437\u043d\u0438\u043a"},"arcs":[[[36]]]},{"type":"Polygon","properties":{"kind":"nature_reserve","name":"\u0415\u043b\u043e\u0433\u0443\u0439\u0441\u043a\u0438\u0439 \u0437\u0430\u043a\u0430\u0437\u043d\u0438\u043a","area":33943199744,"sort_rank":23,"source":"openstreetmap.org","min_zoom":4.0,"tier":2,"id":-7009186,"osm_relation":true,"protect_class":"4"},"arcs":[[37]]},{"type":"Polygon","properties":{"kind":"protected_area","name":"\u041a\u0430\u043b\u0442\u0430\u0439\u0441\u043a\u0438\u0439 \u0437\u0430\u043a\u0430\u0437\u043d\u0438\u043a","area":1725880064,"sort_rank":17,"source":"openstreetmap.org","min_zoom":4.0,"tier":2,"id":-1109194,"osm_relation":true,"protect_class":"7"},"arcs":[[38]]},{"type":"Polygon","properties":{"kind":"park","name":"\u0415\u043b\u0438\u0437\u0430\u0440\u043e\u0432\u0441\u043a\u0438\u0439 \u0437\u0430\u043a\u0430\u0437\u043d\u0438\u043a","area":3182259968,"sort_rank":24,"source":"openstreetmap.org","min_zoom":4.0,"tier":2,"id":-4559647,"osm_relation":true},"arcs":[[39]]},{"type":"Polygon","properties":{"kind":"nature_reserve","name":"\u0411\u0430\u0438\u0440\u043e\u0432\u0441\u043a\u0438\u0439 \u0437\u0430\u043a\u0430\u0437\u043d\u0438\u043a","area":2127330048,"sort_rank":23,"source":"openstreetmap.org","min_zoom":4.0,"tier":2,"id":505332905,"protect_class":"7"},"arcs":[[40]]},{"type":"MultiPolygon","properties":{"kind":"nature_reserve","name":"\u0412\u0430\u0441\u043f\u0443\u0445\u043e\u043b\u044c\u0441\u043a\u0438\u0439 \u0437\u0430\u043a\u0430\u0437\u043d\u0438\u043a","area":4644669952,"sort_rank":23,"source":"openstreetmap.org","min_zoom":4.0,"tier":2,"id":-4640727,"osm_relation":true,"protect_class":"4"},"arcs":[[[41]],[[42]]]},{"type":"Polygon","properties":{"kind":"nature_reserve","name":"\u0413\u043e\u0441\u0443\u0434\u0430\u0440\u0441\u0442\u0432\u0435\u043d\u043d\u044b\u0439 \u043a\u043e\u043c\u043f\u043b\u0435\u043a\u0441\u043d\u044b\u0439 \u0437\u0430\u043a\u0430\u0437\u043d\u0438\u043a \u0440\u0435\u0433\u0438\u043e\u043d\u0430\u043b\u044c\u043d\u043e\u0433\u043e \u0437\u043d\u0430\u0447\u0435\u043d\u0438\u044f \u00ab\u0421\u0443\u0440\u0433\u0443\u0442\u0441\u043a\u0438\u0439\u00bb","area":1844710016,"sort_rank":23,"source":"openstreetmap.org","min_zoom":4.0,"tier":2,"id":-7189923,"osm_relation":true,"protect_class":"7"},"arcs":[[43]]}]}},"type":"Topology","transform":{"translate":[67.5,55.7765730187],"scale":[0.0054931641,0.0026212616]},"arcs":[[[820,162],[1,-9],[-4,-13],[-7,-13],[-15,-1],[-9,-5],[-7,-3],[-5,-8],[-6,-3],[-8,4],[-2,18],[-7,24],[3,5],[14,2],[18,-2],[8,0],[3,6],[11,2],[12,-4]],[[32,9],[-7,-3],[-3,-5],[0,-1],[-22,0],[0,11],[7,0],[10,6],[14,-1],[1,-7]],[[890,4096],[-1,-3],[-11,-66],[-46,-30],[-28,-3],[-64,34],[-38,9],[-38,3],[-147,-9],[-65,22],[-51,32],[-53,10],[-1,1],[69,0],[11,-9],[32,5],[5,4],[426,0]],[[820,162],[1,-9],[-4,-13],[-7,-13],[-15,-1],[-9,-5],[-7,-3],[-5,-8],[-6,-3],[-8,4],[-2,18],[-7,24],[3,5],[14,2],[18,-2],[8,0],[3,6],[11,2],[12,-4]],[[32,9],[-7,-3],[-3,-5],[0,-1]],[[0,11],[7,0],[10,6],[14,-1],[1,-7]],[[416,4096],[11,-9],[32,5],[5,4]],[[890,4096],[-1,-3],[-11,-66],[-46,-30],[-28,-3],[-64,34],[-38,9],[-38,3],[-147,-9],[-65,22],[-51,32],[-53,10],[-1,1]],[[459,4092],[-32,-5],[-11,9],[48,0],[-5,-4]],[[4096,4096],[0,-4096],[-4096,0],[0,4096],[347,0],[1,-1],[53,-10],[51,-32],[65,-22],[147,9],[38,-3],[38,-9],[64,-34],[28,3],[46,30],[11,66],[1,3],[3206,0]],[[1039,3642],[77,48],[56,94],[105,71],[177,-48],[-35,-36],[8,-37],[-72,-21],[-36,-52],[11,-52],[74,-62],[-37,-62],[-181,36],[-12,48],[-105,36],[-30,37]],[[3819,2380],[24,67],[42,5],[42,-34],[66,57],[57,5],[11,28],[-41,21],[9,52],[67,32],[0,-198],[-32,3],[14,-43],[-56,-26],[1,-45],[-63,-70],[-36,-4],[-44,47],[9,73],[-70,30]],[[2976,69],[33,110],[10,-36],[41,18],[15,-76],[-33,23],[-66,-39]],[[3359,126],[15,12],[13,-27],[-21,-10],[-7,25]],[[3194,256],[-18,-9],[-37,92],[42,-34],[18,18],[-5,-67]],[[2809,964],[-28,19],[4,21],[12,3],[12,-43]],[[168,977],[7,-52],[-39,-10],[-7,49],[39,13]],[[1505,1356],[20,-39],[-13,-15],[-24,20],[17,34]],[[1824,1884],[-19,29],[11,18],[42,-18],[-9,-38],[-25,9]],[[1766,1942],[-17,-19],[-13,34],[16,-4],[14,-11]],[[1220,1826],[-12,-22],[-15,8],[11,28],[16,-14]],[[832,1846],[-13,-21],[-20,6],[15,24],[18,-9]],[[938,2059],[5,-34],[-11,-8],[-12,8],[18,34]],[[1627,2059],[30,53],[44,0],[-66,-98],[-8,45]],[[1574,2097],[5,-67],[-12,-34],[-35,82],[27,32],[15,-13]],[[1412,2272],[30,0],[-14,-39],[-13,9],[-3,30]],[[1322,3000],[-16,28],[16,48],[16,-10],[-16,-66]],[[846,2286],[-8,32],[-2,65],[21,-87],[-11,-10]],[[1384,2117],[30,-5],[-12,-29],[-43,-10],[25,44]],[[1058,2088],[-23,9],[35,34],[46,-24],[-34,-34],[-24,15]],[[992,1885],[2,-20],[-42,10],[-21,-39],[0,126],[61,-77]],[[605,1972],[-23,-14],[-23,14],[52,30],[15,-16],[-21,-14]],[[1706,2030],[5,28],[18,-9],[-7,-77],[-90,-15],[-5,39],[56,-10],[23,44]],[[616,4096],[-33,-11],[-30,11],[63,0]],[[2826,2575],[85,64],[38,113],[-67,80],[0,45],[75,1],[0,85],[31,5],[8,-49],[71,-97],[-22,-56],[74,-21],[25,-32],[-11,-77],[42,-73],[-91,-114],[-114,142],[-89,-42],[-55,26]],[[1170,1720],[57,-34],[15,-76],[100,1],[12,55],[35,-13],[50,-98],[0,-185],[-256,4],[-13,346]],[[0,3442],[0,17],[14,-9],[-14,-8]],[[3090,2424],[101,10],[24,-39],[86,-20],[22,20],[5,-35],[32,-10],[69,18],[10,40],[66,-20],[49,26],[21,-59],[-21,-48],[29,-51],[-22,-20],[48,-13],[-10,-21],[31,-36],[-103,7],[18,-44],[-54,-18],[-64,56],[-36,-30],[-53,82],[-25,-8],[-187,89],[-36,124]],[[3066,142],[37,35],[52,33],[7,-68],[-81,-43],[-15,43]],[[0,2205],[7,7],[126,-83],[-5,-83],[-53,16],[-75,121],[0,22]],[[941,115],[17,45],[39,1],[62,-33],[2,-27],[-39,-24],[-81,38]],[[0,1871],[84,7],[-7,-20],[-77,-1],[0,14]],[[0,1764],[44,0],[0,-27],[-44,0],[0,27]],[[1173,2060],[61,12],[46,-64],[-75,-9],[-32,61]]]}