{"objects":{"water":{"type":"GeometryCollection","geometries":[{"type":"MultiPolygon","properties":{"source":"naturalearthdata.com","kind":"ocean","area":1444195503964160,"sort_rank":200,"min_zoom":0.0,"id":1},"arcs":[[[0],[1],[2],[3],[4],[5],[6]]]},{"type":"LineString","properties":{"source":"naturalearthdata.com","kind":"ocean","sort_rank":205,"boundary":true,"min_zoom":0.0,"id":115},"arcs":[7]},{"type":"LineString","properties":{"source":"naturalearthdata.com","kind":"ocean","sort_rank":205,"boundary":true,"min_zoom":0.0,"id":800},"arcs":[8]},{"type":"LineString","properties":{"source":"naturalearthdata.com","kind":"ocean","sort_rank":205,"boundary":true,"min_zoom":0.0,"id":801},"arcs":[9]},{"type":"MultiLineString","properties":{"source":"naturalearthdata.com","kind":"ocean","sort_rank":205,"boundary":true,"min_zoom":0.0,"id":1388},"arcs":[[10],[11],[12],[13],[14],[15]]},{"type":"LineString","properties":{"source":"naturalearthdata.com","kind":"ocean","sort_rank":205,"boundary":true,"min_zoom":0.0,"id":1408},"arcs":[16]},{"type":"LineString","properties":{"source":"naturalearthdata.com","kind":"ocean","sort_rank":205,"boundary":true,"min_zoom":0.0,"id":1409},"arcs":[17]},{"type":"LineString","properties":{"source":"naturalearthdata.com","kind":"ocean","sort_rank":205,"boundary":true,"min_zoom":0.0,"id":1410},"arcs":[18]},{"type":"LineString","properties":{"source":"naturalearthdata.com","kind":"ocean","sort_rank":205,"boundary":true,"min_zoom":0.0,"id":1411},"arcs":[19]},{"type":"Point","properties":{"label_placement":true,"kind":"sea","name":"Bay of Bengal","source":"openstreetmap.org","sort_rank":200,"min_zoom":3.0,"id":305639206},"coordinates":[4096,2800]},{"type":"Point","properties":{"label_placement":true,"kind":"sea","name":"Laccadive Sea","source":"openstreetmap.org","sort_rank":200,"min_zoom":3.0,"id":305639729},"coordinates":[1365,1493]},{"type":"Point","properties":{"label_placement":true,"kind":"sea","name":"Gulf of Khambhat","source":"openstreetmap.org","sort_rank":200,"min_zoom":3.0,"id":715883831},"coordinates":[636,3866]}]},"buildings":{"type":"GeometryCollection","geometries":[]},"places":{"type":"GeometryCollection","geometries":[{"type":"Point","properties":{"name:cy":"Sri Lanka","name:ko":"\uc2a4\ub9ac\ub791\uce74","name:cv":"\u0428\u0440\u0438-\u041b\u0430\u043d\u043a\u0430","name:km":"\u179f\u17d2\u179a\u17b8\u179b\u1784\u17d2\u1780\u17b6","name:cs":"Sr\u00ed Lanka","name:ki":"Sri Lanka","name:kw":"Shri Lanka","name:kv":"\u0428\u0440\u0438-\u041b\u0430\u043d\u043a\u0430","name:ku":"Sr\u00ee Lanka","name:tl":"Sri Lanka","name:ta":"\u0b87\u0bb2\u0b99\u0bcd\u0b95\u0bc8","name:tg":"\u0428\u0440\u0438-\u041b\u0430\u043d\u043a\u0430","name:ca":"Sri Lanka","name:te":"\u0c36\u0c4d\u0c30\u0c40\u0c32\u0c02\u0c15","name:ka":"\u10e8\u10e0\u10d8-\u10da\u10d0\u10dc\u10d9\u10d0","name:hr":"\u0160ri Lanka","name:da":"Sri Lanka","name:de":"Sri Lanka","name:dz":"\u0f64\u0fb2\u0f71\u0f80\u0f0b\u0f63\u0f44\u0f40\u0f0b","source":"openstreetmap.org","name:kn":"\u0cb6\u0ccd\u0cb0\u0cc0\u0cb2\u0c82\u0c95\u0cbe","name:dv":"\u0787\u07ae\u0785\u07aa\u078b\u07ab\u0786\u07a6\u0783\u07a6","name:lv":"\u0160rilanka","name:lt":"\u0160ri Lanka","name:uz":"Shri-Lanka","name:kk":"\u0428\u0440\u0438-\u041b\u0430\u043d\u043a\u0430","name:ur":"\u0633\u0631\u06cc \u0644\u0646\u06a9\u0627","name:lb":"Sri Lanka","name:la":"Taprobane","name:tt":"\u0428\u0440\u0438-\u041b\u0430\u043d\u043a\u0430","name:uk":"\u0428\u0440\u0456-\u041b\u0430\u043d\u043a\u0430","name:ug":"\u0633\u0631\u0649\u0644\u0627\u0646\u0643\u0627","name:li":"Sri Lanka","name:ln":"Sri Lanka","name:el":"\u03a3\u03c1\u03b9 \u039b\u03ac\u03bd\u03ba\u03b1","name:eo":"Sri-Lanko","name:en":"Sri Lanka","name":"\u0dc1\u0dca\u200d\u0dbb\u0dd3 \u0dbd\u0d82\u0d9a\u0dcf","name:tk":"\u015eri-Lanka","name:th":"\u0e1b\u0e23\u0e30\u0e40\u0e17\u0e28\u0e28\u0e23\u0e35\u0e25\u0e31\u0e07\u0e01\u0e32","name:eu":"Sri Lanka","name:et":"Sri Lanka","name:es":"Sri Lanka","name:ia":"Sri Lanka","name:az":"\u015eri-Lanka","name:ie":"Sri Lanka","name:id":"Sri Lanka","name:ar":"\u0633\u0631\u064a\u0644\u0627\u0646\u0643\u0627","name:io":"Sri Lanka","name:is":"Sr\u00ed Lanka","name:am":"\u123d\u122a \u120b\u1295\u12ab","name:it":"Sri Lanka","name:an":"Sri Lanka","name:ru":"\u0428\u0440\u0438-\u041b\u0430\u043d\u043a\u0430","name:rw":"Siri Lanka","name:af":"Sri Lanka","name:zh-yue":"\u65af\u91cc\u862d\u5361","name:zh":"\u65af\u91cc\u862d\u5361","name:so":"Siri Lanka","name:sm":"Sri Lanka","name:sl":"\u0160rilanka","name:sk":"Sr\u00ed Lanka","name:ja":"\u30b9\u30ea\u30e9\u30f3\u30ab","name:si":"\u0dc1\u0dca\u200d\u0dbb\u0dd3 \u0dbd\u0d82\u0d9a\u0dcf\u0dc0","name:sh":"\u0160ri Lanka","name:se":"Sri Lanka","name:br":"Sri Lanka","name:bs":"\u0160ri Lanka","name:bn":"\u09b6\u09cd\u09b0\u09c0\u09b2\u0999\u09cd\u0995\u09be","name:bo":"\u0f66\u0f7a\u0f44\u0f0b\u0f42\u0f0b\u0f42\u0fb3\u0f72\u0f44\u0f0b\u0f0d","name:sa":"\u0936\u094d\u0930\u0940\u0932\u0919\u094d\u0915\u093e","name:sw":"Sri Lanka","name:be":"\u0428\u0440\u044b-\u041b\u0430\u043d\u043a\u0430","name:su":"Sri Langka","name:bg":"\u0428\u0440\u0438 \u041b\u0430\u043d\u043a\u0430","name:ss":"Siri Lanka","name:ba":"\u0428\u0440\u0438-\u041b\u0430\u043d\u043a\u0430","name:sq":"Sri Lanka","name:jv":"Sri Lanka","name:pt":"Seri-Lanca","name:ps":"\u0633\u0631\u06cc\u0644\u0627\u0646\u06a9\u0627","name:om":"Sirilaankaa","name:oc":"Sri Lanka","min_zoom":2.0,"name:ro":"Sri Lanka","name:zh-min-nan":"Sri Lanka","name:os":"\u0428\u0440\u0438-\u041b\u0430\u043d\u043a\u0430","name:or":"\u0b36\u0b4d\u0b30\u0b40\u0b32\u0b19\u0b4d\u0b15\u0b3e","name:pl":"Sri Lanka","name:sr":"\u0428\u0440\u0438 \u041b\u0430\u043d\u043a\u0430","name:pa":"\u0a38\u0a4d\u0a30\u0a40\u0a32\u0a70\u0a15\u0a3e","name:tr":"Sri Lanka","name:hi":"\u0936\u094d\u0930\u0940\u0932\u0902\u0915\u093e","name:sv":"Sri Lanka","name:he":"\u05e1\u05e8\u05d9 \u05dc\u05e0\u05e7\u05d4","name:hy":"\u0547\u0580\u056b \u053c\u0561\u0576\u056f\u0561","name:ht":"Srilanka","name:hu":"Sr\u00ed Lanka","name:qu":"Sri Lanka","population":20277597,"kind":"country","name:yi":"\u05e1\u05e8\u05d9 \u05dc\u05d0\u05e0\u05e7\u05d0","name:yo":"Sri Lanka","name:mt":"Sri Lanka","alt_name:eo":"Srilanko","name:ms":"Sri Lanka","name:mr":"\u0936\u094d\u0930\u0940\u0932\u0902\u0915\u093e","name:my":"\u101e\u102e\u101b\u102d\u101c\u1004\u103a\u1039\u1000\u102c\u1014\u102d\u102f\u1004\u103a\u1004\u1036","name:mg":"Sri Lanka","name:ml":"\u0d36\u0d4d\u0d30\u0d40\u0d32\u0d19\u0d4d\u0d15","name:vi":"Sri Lanka","name:mn":"\u0428\u0440\u0438 \u041b\u0430\u043d\u043a\u0430","id":3997635385,"name:mk":"\u0428\u0440\u0438 \u041b\u0430\u043d\u043a\u0430","name:vo":"Sri-Lank\u00e4n","name:fa":"\u0633\u0631\u06cc\u200c\u0644\u0627\u0646\u06a9\u0627","name:fi":"Sri Lanka","name:fo":"Sri Lanka","name:fr":"Sri Lanka","name:fy":"Sry Lanka","name:nl":"Sri Lanka","name:nn":"Sri Lanka","name:no":"Sri Lanka","name:na":"Sri Lanka","name:ne":"\u0936\u094d\u0930\u0940\u0932\u0902\u0915\u093e","name:wo":"Siri Laanka","name:nv":"Swii Lank\u02bca","name:ga":"Sr\u00ed Lanca","name:gd":"Sri Lanca","name:gl":"Sri Lanka - Sri Lank\u0101","name:gv":"Sri Lanka","name:gu":"\u0ab6\u0acd\u0ab0\u0ac0\u0ab2\u0a82\u0a95\u0abe"},"coordinates":[2425,1351]},{"type":"Point","properties":{"source":"naturalearthdata.com","kind":"locality","name":"Mumbai","population":18978000,"region_capital":true,"min_zoom":2.0,"id":7281},"coordinates":[975,3550]},{"type":"Point","properties":{"name:pt":"Maldivas","name:ka":"\u10db\u10d0\u10da\u10d3\u10d8\u10d5\u10d8\u10e1 \u10d9\u10e3\u10dc\u10eb\u10e3\u10da\u10d4\u10d1\u10d8","name:ko":"\ubab0\ub514\ube0c","name:kn":"\u0cae\u0cbe\u0cb2\u0ccd\u0ca1\u0cbf\u0cb5\u0ccd\u0cb8\u0ccd","name:km":"\u1798\u17c9\u17b6\u179b\u17cb\u178c\u17b8\u179c","name:cs":"Maledivy","name:ki":"Modivu","name:tr":"Maldivler","name:ku":"Mald\u00eev","name:ti":"\u121b\u120d\u12f2\u126d\u1235","name:ks":"\u0645\u0627\u0644\u062f\u06cc\u0656\u0648","name:to":"Malativisi","name:sv":"Maldiverna","name:or":"\u0b2e\u0b3e\u0b33\u0b26\u0b4d\u0b2c\u0b40\u0b2a","name:pl":"Malediwy","name:ta":"\u0bae\u0bbe\u0bb2\u0ba4\u0bcd\u0ba4\u0bc0\u0bb5\u0bc1","name:ca":"Maldives","name:te":"\u0c2e\u0c3e\u0c32\u0c4d\u0c26\u0c40\u0c35\u0c41\u0c32\u0c41","name:ro":"Maldive","name:ms":"Maldiv","name:hr":"Maldivi","name:da":"Maldiverne","name:de":"Malediven","name:dz":"\u0f58\u0f71\u0f63\u0f0b\u0f51\u0f72\u0f56\u0f66","source":"openstreetmap.org","name:lv":"Mald\u012bvija","name:lt":"Maldyvai","name:hi":"\u092e\u093e\u0932\u0926\u0940\u0935","name:he":"\u05de\u05dc\u05d3\u05d9\u05d1\u05d9\u05dd","name:ur":"\u0645\u0627\u0644\u062f\u06cc\u0648","name:lb":"Malediven","name:la":"Insulae Maldivae","name:lg":"Bizinga by'eMalidive","name:uk":"\u041c\u0430\u043b\u044c\u0434\u0456\u0432\u0438","name:hy":"\u0544\u0561\u056c\u0564\u056b\u057e\u0576\u0565\u0580","min_zoom":2.0,"name:hu":"Mald\u00edv-szigetek","name:ln":"Mad\u00edv\u025b","name:lo":"\u0ea1\u0eb1\u0e99\u0e94\u0eb4\u0e9f","population":328536,"name:el":"\u039c\u03b1\u03bb\u03b4\u03af\u03b2\u03b5\u03c2","kind":"country","name:en":"Maldives","name":"Maldivoj","name:ee":"maldivesduk\u0254","name:th":"\u0e1b\u0e23\u0e30\u0e40\u0e17\u0e28\u0e21\u0e31\u0e25\u0e14\u0e35\u0e1f\u0e2a\u0e4c","name:eu":"Maldivak","name:et":"Maldiivid","name:nl":"Malediven","name:es":"Maldivas","name:ml":"\u0d2e\u0d3e\u0d32\u0d3f\u0d26\u0d4d\u0d35\u0d40\u0d2a\u0d4d","name:rm":"Maldivas","name:rn":"Moludave","name:az":"Maldiv","name:id":"Maladewa","name:ig":"Maldivesa","name:mr":"\u092e\u093e\u0932\u0926\u0940\u0935\u094d\u091c","name:ar":"\u0645\u0644\u062f\u064a\u0641","name:my":"\u1019\u1031\u102c\u103a\u101c\u1012\u102d\u102f\u1000\u103a","name:io":"Maldivi","name:is":"Mald\u00edveyjar","name:am":"\u121b\u120d\u12f2\u126d\u1235","name:it":"Maldive","name:vi":"Maldives","name:ru":"\u041c\u0430\u043b\u044c\u0434\u0438\u0432\u044b","name:mn":"\u041c\u0430\u043b\u044c\u0434\u0438\u0432","id":424311641,"name:mk":"\u041c\u0430\u043b\u0434\u0438\u0432\u0438","name:af":"Maldive","name:zu":"i-Maldives","name:ha":"Maldibi","name:nn":"Maldivane","name:ff":"Maldiiwe","name:fi":"Malediivit","name:no":"Maldivene","name:mg":"Maldiva","name:fo":"Maldivuoyggjarnar","name:fr":"Maldives","name:fy":"de Maldiven","name:vo":"Maldivu\u00e4ns","name:zh":"\u9a6c\u5c14\u4ee3\u592b","name:gv":"Ny Maldeevaghyn","name:so":"Maaldiqeen","name:sl":"Maldivi","name:sk":"Maledivy","name:ja":"\u30e2\u30eb\u30c7\u30a3\u30d6","name:si":"\u0db8\u0dcf\u0dbd \u0daf\u0dd2\u0dc0\u0dba\u0dd2\u0db1","name:fa":"\u0645\u0627\u0644\u062f\u06cc\u0648","name:sg":"Mald\u00eeva","name:se":"Malediivvat","name:ne":"\u092e\u093e\u0932\u094d\u0926\u093f\u092d\u094d\u0938","name:br":"Maldivez","name:bs":"Maldivi","name:bm":"Maldivi","name:bn":"\u09ae\u09be\u09b2\u09a6\u09cd\u09ac\u09c0\u09aa","name:bo":"\u0f58\u0f63\u0f0b\u0f51\u0fad\u0f72\u0f56\u0f0d","name:sw":"Modivu","name:be":"\u041c\u0430\u043b\u044c\u0434\u0437\u0456\u0432\u044b","name:bg":"\u041c\u0430\u043b\u0434\u0438\u0432\u0438","name:sr":"\u041c\u0430\u043b\u0434\u0438\u0432\u0438","name:sq":"Maldivit","name:ga":"Oile\u00e1in Mhaild\u00edve","name:gd":"Na h-Eileanan Mhaladaibh","name:gl":"Maldivas","name:yo":"Or\u00edl\u1eb9\u0301\u00e8de Maladifi","name:gu":"\u0aae\u0abe\u0ab2\u0aa6\u0abf\u0ab5\u0acd\u0ab8","name:tt":"\u041c\u0430\u043b\u044c\u0434\u0438\u0432\u043b\u0430\u0440"},"coordinates":[1061,879]},{"type":"Point","properties":{"source":"naturalearthdata.com","kind":"locality","name":"Bangalore","population":6787000,"region_capital":true,"min_zoom":3.0,"id":7251},"coordinates":[1831,2421]},{"type":"Point","properties":{"source":"naturalearthdata.com","kind":"locality","name":"Chennai","population":7163000,"region_capital":true,"min_zoom":4.0,"id":7201},"coordinates":[2326,2444]},{"type":"Point","properties":{"source":"naturalearthdata.com","kind":"locality","name":"Hyderabad","population":6376000,"region_capital":true,"min_zoom":4.0,"id":7191},"coordinates":[1998,3248]},{"type":"Point","properties":{"source":"naturalearthdata.com","kind":"locality","name":"Pune","population":4672000,"min_zoom":4.0,"id":7192},"coordinates":[1156,3459]},{"type":"Point","properties":{"source":"naturalearthdata.com","kind":"locality","name":"Surat","population":3842000,"min_zoom":4.0,"id":7203},"coordinates":[972,3958]},{"type":"Point","properties":{"source":"naturalearthdata.com","kind":"locality","name":"Nagpur","population":2454000,"min_zoom":4.0,"id":7193},"coordinates":[2110,3952]},{"type":"Point","properties":{"admin_level":"4","kind":"region","name":"Northern Province","name:si":"\u0d8b\u0dad\u0dd4\u0dbb\u0dd4 \u0db4\u0dc5\u0dcf\u0dad","kind_detail":"state","source":"openstreetmap.org","min_zoom":4.0,"name:ta":"\u0bb5\u0b9f \u0bae\u0bbe\u0b95\u0bbe\u0ba3\u0bae\u0bcd","id":4344969006,"name:ja":"\u5317\u90e8\u5dde"},"coordinates":[2348,1718]},{"type":"Point","properties":{"kind":"region","name":"Goa","name:mr":"\u0917\u094b\u0906","kind_detail":"state","name:hi":"\u0917\u094b\u0935\u093e","name:eo":"Goao","source":"openstreetmap.org","min_zoom":4.0,"name:uk":"\u0490\u043e\u0430","name:kn":"\u0c97\u0ccb\u0cb5","name:ru":"\u0413\u043e\u0430","id":2237699941,"name:ja":"\u30b4\u30a2"},"coordinates":[1199,2856]},{"type":"Point","properties":{"name:ml":"\u0d15\u0d47\u0d30\u0d33\u0d02","kind":"region","name":"Kerala","name:hi":"\u0915\u0947\u0930\u0932","kind_detail":"state","name:eo":"Keralao","source":"openstreetmap.org","min_zoom":4.0,"name:uk":"\u041a\u0435\u0440\u0430\u043b\u0430","name:kn":"\u0c95\u0cc7\u0cb0\u0cb3","name:ru":"\u041a\u0435\u0440\u0430\u043b\u0430","id":2237699954,"name:ja":"\u30b1\u30fc\u30e9\u30e9"},"coordinates":[1641,1933]},{"type":"Point","properties":{"admin_level":"4","kind":"region","name":"Central Province","name:si":"\u0db8\u0db0\u0dca\u200d\u0dba\u0db8 \u0db4\u0dc5\u0dcf\u0dad","kind_detail":"state","source":"openstreetmap.org","min_zoom":4.0,"name:ta":"\u0bae\u0ba4\u0bcd\u0ba4\u0bbf\u0baf \u0bae\u0bbe\u0b95\u0bbe\u0ba3\u0bae\u0bcd","id":4344959727,"name:ja":"\u4e2d\u90e8\u5dde"},"coordinates":[2424,1368]},{"type":"Point","properties":{"admin_level":"4","kind":"region","name:en":"Eastern","name":"Eastern Province","name:si":"\u0db1\u0dd0\u0d9c\u0dd9\u0db1\u0dc4\u0dd2\u0dbb \u0db4\u0dc5\u0dcf\u0dad","kind_detail":"state","source":"openstreetmap.org","min_zoom":4.0,"name:ta":"\u0b95\u0bbf\u0bb4\u0b95\u0bcd\u0b95\u0bc1 \u0bae\u0bbe\u0b95\u0bbe\u0ba3\u0bae\u0bcd","id":4344963555,"name:ja":"\u6771\u90e8\u5dde"},"coordinates":[2546,1480]},{"type":"Point","properties":{"admin_level":"4","kind":"region","name":"North Central","name:si":"\u0d8b\u0dad\u0dd4\u0dbb\u0dd4 \u0db8\u0dd0\u0daf \u0db4\u0dc5\u0dcf\u0dad","kind_detail":"state","source":"openstreetmap.org","min_zoom":4.0,"name:ta":"\u0bb5\u0b9f \u0bae\u0ba4\u0bcd\u0ba4\u0bbf\u0baf \u0bae\u0bbe\u0b95\u0bbe\u0ba3\u0bae\u0bcd","id":4344966660,"name:ja":"\u5317\u4e2d\u90e8\u5dde"},"coordinates":[2364,1555]},{"type":"Point","properties":{"admin_level":"4","kind":"region","name":"North Western Province","name:si":"\u0dc0\u0dba\u0db9 \u0db4\u0dc5\u0dcf\u0dad","kind_detail":"state","source":"openstreetmap.org","min_zoom":4.0,"name:ta":"\u0bb5\u0b9f \u0bae\u0bc7\u0bb2\u0bcd \u0bae\u0bbe\u0b95\u0bbe\u0ba3\u0bae\u0bcd","id":4344994154,"name:ja":"\u5317\u897f\u90e8\u5dde"},"coordinates":[2297,1454]},{"type":"Point","properties":{"admin_level":"4","kind":"region","name":"Sabaragamuwa Province","name:si":"\u0dc3\u0db6\u0dbb\u0d9c\u0db8\u0dd4\u0dc0 \u0db4\u0dc5\u0dcf\u0dad","kind_detail":"state","source":"openstreetmap.org","min_zoom":4.0,"name:ta":"\u0b9a\u0baa\u0bb0\u0b95\u0bae\u0bc1\u0bb5 \u0bae\u0bbe\u0b95\u0bbe\u0ba3\u0bae\u0bcd","id":4345007652,"name:ja":"\u30b5\u30d0\u30e9\u30ac\u30e0\u30ef\u5dde"},"coordinates":[2342,1245]},{"type":"Point","properties":{"admin_level":"4","kind":"region","name":"Southern Province","name:si":"\u0daf\u0d9a\u0dd4\u0dab\u0dd4 \u0db4\u0dc5\u0dcf\u0dad","kind_detail":"state","source":"openstreetmap.org","min_zoom":4.0,"name:ta":"\u0ba4\u0bc6\u0ba9\u0bcd \u0bae\u0bbe\u0b95\u0bbe\u0ba3\u0bae\u0bcd","id":4345027844,"name:ja":"\u5357\u90e8\u5dde"},"coordinates":[2408,1148]},{"type":"Point","properties":{"admin_level":"4","kind":"region","name":"Western Province","name:si":"\u0db6\u0dc3\u0dca\u0db1\u0dcf\u0dc4\u0dd2\u0dbb \u0db4\u0dc5\u0dcf\u0dad","kind_detail":"state","source":"openstreetmap.org","min_zoom":4.0,"name:ta":"\u0bae\u0bc7\u0bb2\u0bcd \u0bae\u0bbe\u0b95\u0bbe\u0ba3\u0bae\u0bcd","id":4345048158,"name:ja":"\u897f\u90e8\u5dde"},"coordinates":[2288,1276]},{"type":"Point","properties":{"admin_level":"4","kind":"region","name:en":"Uva","name":"Uva Province","name:si":"\u0d8c\u0dc0 \u0db4\u0dc5\u0dcf\u0dad","kind_detail":"state","source":"openstreetmap.org","min_zoom":4.0,"name:ta":"\u0b8a\u0bb5\u0bbe \u0bae\u0bbe\u0b95\u0bbe\u0ba3\u0bae\u0bcd","id":4354962371,"name:ja":"\u30a6\u30d0\u5dde"},"coordinates":[2519,1321]},{"type":"Point","properties":{"kind":"region","name":"Maharashtra","name:mr":"\u092e\u0939\u093e\u0930\u093e\u0937\u094d\u091f\u094d\u0930","kind_detail":"state","name:hi":"\u092e\u0939\u093e\u0930\u093e\u0937\u094d\u091f\u094d\u0930","name:eo":"Mahara\u015dtro","source":"openstreetmap.org","min_zoom":4.0,"name:uk":"\u041c\u0430\u0445\u0430\u0440\u0430\u0448\u0442\u0440\u0430","name:kn":"\u0cae\u0cb9\u0cbe\u0cb0\u0cbe\u0cb7\u0ccd\u0c9f\u0ccd\u0cb0","name:ru":"\u041c\u0430\u0445\u0430\u0440\u0430\u0448\u0442\u0440\u0430","name:hu":"Mah\u00e1r\u00e1stra","id":2237699956},"coordinates":[1557,3646]},{"type":"Point","properties":{"kind":"region","name":"Telangana","name:hi":"\u0924\u0947\u0932\u0902\u0917\u093e\u0928\u093e","kind_detail":"state","name:eo":"Telangano","source":"openstreetmap.org","min_zoom":4.0,"name:uk":"\u0422\u0435\u043b\u0430\u043d\u0433\u0430\u043d\u0430","name:kn":"\u0ca4\u0cc6\u0cb2\u0c82\u0c97\u0cbe\u0ca3","name:ru":"\u0422\u0435\u043b\u0430\u043d\u0433\u0430\u043d\u0430","name:ja":"\u30c6\u30e9\u30f3\u30ac\u30fc\u30ca","id":2845526137,"name:te":"\u0c24\u0c46\u0c32\u0c02\u0c17\u0c3e\u0c23"},"coordinates":[2114,3332]},{"type":"Point","properties":{"name:pt":"Dadr\u00e1 e Nagar-Aveli","name:ja":"\u30c0\u30fc\u30c9\u30e9\u30fc\u53ca\u3073\u30ca\u30ac\u30eb\u30fb\u30cf\u30f4\u30a7\u30fc\u30ea\u30fc\u9023\u90a6\u76f4\u8f44\u9818","name:ms":"Dadra dan Nagar Haveli","name:hi":"\u0926\u093e\u0926\u0930\u093e \u0914\u0930 \u0928\u0917\u0930 \u0939\u0935\u0947\u0932\u0940","name:ko":"\ub2e4\ub4dc\ub77c \ub098\uac00\ub974\ud558\ubca8\ub9ac","name:he":"\u05d3\u05d0\u05d3\u05e8\u05d4 \u05d5\u05e0\u05d0\u05d2\u05e8 \u05d4\u05d1\u05dc\u05d9","min_zoom":4.0,"name:uk":"\u0414\u0430\u0434\u0440\u0430 \u0456 \u041d\u0430\u0433\u0430\u0440-\u0425\u0430\u0432\u0435\u043b\u0456","name:be":"\u0414\u0430\u0434\u0440\u0430 \u0456 \u041d\u0430\u0433\u0430\u0440\u0445\u0430\u0432\u0435\u043b\u0456","name:ru":"\u0414\u0430\u0434\u0440\u0430 \u0438 \u041d\u0430\u0433\u0430\u0440-\u0425\u0430\u0432\u0435\u043b\u0438","name:ta":"\u0ba4\u0bbe\u0ba4\u0bcd\u0bb0\u0bbe \u0bae\u0bb1\u0bcd\u0bb1\u0bc1\u0bae\u0bcd \u0ba8\u0b95\u0bb0\u0bcd \u0b85\u0bb5\u0bc7\u0bb2\u0bbf","id":4569991190,"name:el":"\u039d\u03c4\u03ac\u03bd\u03c4\u03c1\u03b1 \u03ba\u03b1\u03b9 \u039d\u03b1\u03b3\u03ba\u03ac\u03c1 \u03a7\u03b1\u03b2\u03ad\u03bb\u03b9","kind":"region","name:hu":"Dadra \u00e9s Nagar Haveli","name":"Union Territory of Dadra & Nagar Haveli","kind_detail":"state","source":"openstreetmap.org","name:fr":"Dadra et Nagar Haveli","name:zh":"\u8fbe\u5fb7\u62c9-\u7eb3\u52a0\u5c14\u54c8\u7ef4\u5229","name:es":"Dadra y Nagar Haveli"},"coordinates":[1002,3784]},{"type":"Point","properties":{"source":"openstreetmap.org","kind":"region","name":"Lakshadweep","kind_detail":"state","name:zh":"\u62c9\u514b\u6c99\u7fa4\u5c9b","min_zoom":4.0,"id":4567438900},"coordinates":[936,1972]},{"type":"Point","properties":{"name:ja":"\u30a2\u30eb\u30ca\u30fc\u30c1\u30e3\u30eb\u30fb\u30d7\u30e9\u30c7\u30fc\u30b7\u30e5","name:hi":"\u0906\u0928\u094d\u0927\u094d\u0930 \u092a\u094d\u0930\u0926\u0947\u0936","name:kn":"\u0c86\u0c82\u0ca7\u0ccd\u0cb0 \u0caa\u0ccd\u0cb0\u0ca6\u0cc7\u0cb6","name:eo":"Andra-Prade\u015do","name:ur":"\u0622\u0646\u062f\u06be\u0631\u0627 \u067e\u0631\u062f\u06cc\u0634","min_zoom":4.0,"name:uk":"\u0410\u043d\u0434\u0445\u0440\u0430-\u041f\u0440\u0430\u0434\u0435\u0448","name:ru":"\u0410\u043d\u0434\u0445\u0440\u0430-\u041f\u0440\u0430\u0434\u0435\u0448","name:ta":"\u0b86\u0ba8\u0bcd\u0ba4\u0bbf\u0bb0\u0baa\u0bcd \u0baa\u0bbf\u0bb0\u0ba4\u0bc7\u0b9a\u0bae\u0bcd","id":2237699936,"name:te":"\u0c06\u0c02\u0c27\u0c4d\u0c30 \u0c2a\u0c4d\u0c30\u0c26\u0c47\u0c36\u0c4d","kind":"region","name:hu":"\u00c1ndhra Prades","name":"Andhra Pradesh","kind_detail":"state","source":"openstreetmap.org"},"coordinates":[2309,2972]},{"type":"Point","properties":{"kind":"region","name":"Karnataka","name:hi":"\u0915\u0930\u094d\u0928\u093e\u091f\u0915","kind_detail":"state","name:eo":"Karnatako","source":"openstreetmap.org","min_zoom":4.0,"name:uk":"\u041a\u0430\u0440\u043d\u0430\u0442\u0430\u043a\u0430","name:kn":"\u0c95\u0cb0\u0ccd\u0ca8\u0cbe\u0c9f\u0c95","name:ru":"\u041a\u0430\u0440\u043d\u0430\u0442\u0430\u043a\u0430","name:hu":"Karn\u00e1taka","id":2237699947,"name:ja":"\u30ab\u30eb\u30ca\u30fc\u30bf\u30ab"},"coordinates":[1497,2710]},{"type":"Point","properties":{"name:ja":"\u30bf\u30df\u30eb\u30fb\u30ca\u30fc\u30c9\u30a5","name:hi":"\u0924\u092e\u093f\u0932 \u0928\u093e\u0921\u0941","name:ko":"\ud0c0\ubc00\ub098\ub450 \uc8fc","name:kn":"\u0ca4\u0cae\u0cbf\u0cb3\u0cc1 \u0ca8\u0cbe\u0ca1\u0cc1","name:as":"\u09a4\u09be\u09ae\u09bf\u09b2\u09a8\u09be\u09a1\u09c1","name:he":"\u05d8\u05d0\u05de\u05d9\u05dc \u05e0\u05d0\u05d3\u05d5","name:eo":"Tamilnado","name:th":"\u0e23\u0e31\u0e10\u0e17\u0e21\u0e34\u0e2c\u0e19\u0e32\u0e11\u0e39","name:uk":"\u0422\u0430\u043c\u0456\u043b\u043d\u0430\u0434\u0443","name:ru":"\u0422\u0430\u043c\u0438\u043b\u043d\u0430\u0434","name:hu":"Tamiln\u00e1du","id":2237699963,"name:el":"\u03a4\u03b1\u03bc\u03af\u03bb \u039d\u03b1\u03bd\u03c4\u03bf\u03cd","kind":"region","name:en":"Tamil Nadu","name":"\u0ba4\u0bae\u0bbf\u0bb4\u0bcd\u0ba8\u0bbe\u0b9f\u0bc1","kind_detail":"state","min_zoom":4.0,"source":"openstreetmap.org","name:zh":"\u6cf0\u7c73\u5c14\u7eb3\u5fb7\u90a6"},"coordinates":[1978,2036]},{"type":"Point","properties":{"kind":"region","name":"Chhattisgarh","name:hi":"\u091b\u0924\u094d\u0924\u0940\u0938\u0917\u0922\u093c","kind_detail":"state","name:eo":"\u0108atisgaro","source":"openstreetmap.org","min_zoom":4.0,"name:uk":"\u0427\u0445\u0430\u0442\u0442\u0456\u0441\u0491\u0430\u0440\u0445","name:kn":"\u0c9b\u0ca4\u0ccd\u0ca4\u0cbf\u0cb8\u0c97\u0ca1","name:ru":"\u0427\u0445\u0430\u0442\u0442\u0438\u0441\u0433\u0430\u0440\u0445","name:hu":"Cshatt\u00edszgarh","id":2240991947,"name:ja":"\u30c1\u30e3\u30c3\u30c6\u30a3\u30fc\u30b9\u30ac\u30eb"},"coordinates":[2611,4044]},{"type":"Point","properties":{"kind":"region","name":"Odisha","name:hi":"\u0913\u0921\u093f\u0936\u093e","kind_detail":"state","name:eo":"Oriso","source":"openstreetmap.org","min_zoom":4.0,"name:uk":"\u041e\u0440\u0456\u0441\u0441\u0430","name:kn":"\u0c92\u0ca1\u0cbf\u0cb6\u0cbe","name:ru":"\u041e\u0440\u0438\u0441\u0441\u0430","name:hu":"Orisza","name:or":"\u0b13\u0b21\u0b3c\u0b3f\u0b36\u0b3e","id":2240991967,"name:ja":"\u30aa\u30ea\u30c3\u30b5"},"coordinates":[3129,3835]}]},"transit":{"type":"GeometryCollection","geometries":[]},"pois":{"type":"GeometryCollection","geometries":[]},"boundaries":{"type":"GeometryCollection","geometries":[]},"roads":{"type":"GeometryCollection","geometries":[]},"earth":{"type":"GeometryCollection","geometries":[{"type":"MultiPolygon","properties":{"sort_rank":10,"source":"naturalearthdata.com","min_zoom":0.0,"kind":"earth","area":14477188419404},"arcs":[[[20]],[[21]],[[22]],[[23]],[[24]],[[25]],[[26]]]}]},"landuse":{"type":"GeometryCollection","geometries":[{"type":"Polygon","properties":{"kind":"national_park","name":"Indravati National Park","area":1440470016,"sort_rank":18,"source":"openstreetmap.org","min_zoom":3.0,"tier":1,"id":-2123530,"osm_relation":true,"protect_class":"2"},"arcs":[[27]]},{"type":"Polygon","properties":{"kind":"park","name":"Yawal Wildlife Sanctuary","area":1785670016,"sort_rank":24,"source":"openstreetmap.org","min_zoom":4.0,"tier":2,"id":122070374,"protect_class":"4"},"arcs":[[28]]},{"type":"Polygon","properties":{"kind":"national_park","name":"Gir National Park","area":2092280064,"sort_rank":18,"source":"openstreetmap.org","min_zoom":3.0,"tier":1,"id":49429790,"protect_class":"2"},"arcs":[[29]]},{"type":"Polygon","properties":{"kind":"nature_reserve","name":"Chandoli National Park","area":1635849984,"sort_rank":23,"source":"openstreetmap.org","min_zoom":4.0,"tier":2,"id":265219891},"arcs":[[30]]},{"type":"Polygon","properties":{"kind":"national_park","name":"Sri Venkateswara National Park","area":336681984,"sort_rank":18,"source":"openstreetmap.org","min_zoom":3.0,"tier":1,"id":148491926,"protect_class":"2"},"arcs":[[31]]},{"type":"Polygon","properties":{"kind":"national_park","name":"Bhimgad Wildlife Sanctuary","area":570500992,"sort_rank":18,"source":"openstreetmap.org","min_zoom":3.0,"tier":1,"id":440974493,"protect_class":"2"},"arcs":[[32]]},{"type":"Polygon","properties":{"kind":"national_park","name":"Gulf of Mannar Marine National Park","area":302860992,"sort_rank":18,"source":"openstreetmap.org","min_zoom":3.0,"tier":1,"id":-415570,"osm_relation":true,"protect_class":"2"},"arcs":[[33]]},{"type":"Polygon","properties":{"kind":"park","name":"Yala National Park","area":2121090048,"sort_rank":24,"source":"openstreetmap.org","min_zoom":4.0,"tier":2,"id":-5445342,"osm_relation":true},"arcs":[[34]]},{"type":"MultiPolygon","properties":{"source":"naturalearthdata.com","kind":"urban_area","name":"","area":103664771240,"sort_rank":11,"min_zoom":4.0},"arcs":[[[35]],[[36]],[[37]],[[38]],[[39]],[[40]],[[41]],[[42]],[[43]],[[44]],[[45]],[[46]],[[47]],[[48]],[[49]],[[50]],[[51]],[[52]],[[53]],[[54]],[[55]],[[56]],[[57]],[[58]],[[59]],[[60]],[[61]],[[62]]]},{"type":"Polygon","properties":{"kind":"national_park","name":"Simlipal National Park","area":3007539968,"sort_rank":18,"source":"openstreetmap.org","min_zoom":3.0,"tier":1,"id":71890925,"protect_class":"2"},"arcs":[[63]]},{"type":"Polygon","properties":{"kind":"nature_reserve","name":"Gahirmata Marine Sanctuary","area":1551859968,"sort_rank":23,"source":"openstreetmap.org","min_zoom":4.0,"tier":2,"id":168254310},"arcs":[[64]]},{"type":"Polygon","properties":{"kind":"nature_reserve","name":"Shoolpaneshwar Wildlife Sanctuary","area":3191239936,"sort_rank":23,"source":"openstreetmap.org","min_zoom":4.0,"tier":2,"id":122070413},"arcs":[[65]]},{"type":"Polygon","properties":{"kind":"national_park","name":"Pench National Park","area":340580000,"sort_rank":18,"source":"openstreetmap.org","min_zoom":3.0,"tier":1,"id":155466998,"protect_class":"2"},"arcs":[[66]]},{"type":"Polygon","properties":{"kind":"national_park","name":"Wasgamuwa National Park","area":401932000,"sort_rank":18,"source":"openstreetmap.org","min_zoom":3.0,"tier":1,"id":-6315786,"osm_relation":true,"protect_class":"2"},"arcs":[[67]]},{"type":"Polygon","properties":{"kind":"national_park","name":"Tadoba Andhari National Park","area":1590860032,"sort_rank":18,"source":"openstreetmap.org","min_zoom":3.0,"tier":1,"id":-5429235,"osm_relation":true,"protect_class":"2"},"arcs":[[68]]},{"type":"Polygon","properties":{"kind":"nature_reserve","name":"Indira Gandhi Wildlife Sanctuary and National Park","area":1022769984,"sort_rank":23,"source":"openstreetmap.org","min_zoom":4.0,"tier":2,"id":-5573626,"osm_relation":true},"arcs":[[69]]},{"type":"Polygon","properties":{"kind":"national_park","name":"Nagarahole National Park","area":742664000,"sort_rank":18,"source":"openstreetmap.org","min_zoom":3.0,"tier":1,"id":159049999,"protect_class":"2"},"arcs":[[70]]},{"type":"Polygon","properties":{"kind":"national_park","name":"Wilpattu National Park","area":1365289984,"sort_rank":18,"source":"openstreetmap.org","min_zoom":3.0,"tier":1,"id":199462550,"protect_class":"2"},"arcs":[[71]]}]}},"type":"Topology","transform":{"translate":[67.5,-0.0],"scale":[0.0054931641,0.0053571889]},"arcs":[[[4096,4096],[0,-4096],[-4096,0],[0,4096],[319,0],[24,-19],[29,-30],[37,-33],[52,-61],[17,-15],[65,-48],[43,-18],[29,-5],[27,4],[67,25],[32,18],[81,35],[11,13],[32,57],[1,24],[-9,13],[-7,9],[-12,3],[-12,6],[7,7],[3,11],[5,4],[97,0],[-2,-1],[-9,-11],[-9,-34],[54,-2],[25,4],[25,8],[-17,-9],[-38,-15],[-17,-13],[-19,-17],[10,-1],[12,3],[-9,-7],[-11,-12],[12,-36],[11,-9],[11,-2],[2,-6],[3,-25],[7,-23],[3,-29],[-2,-21],[-32,-90],[-7,-46],[1,-6],[4,-8],[5,-33],[14,-11],[-8,-13],[1,-7],[5,-10],[36,-16],[-32,4],[-3,-8],[1,-7],[0,-26],[6,-19],[12,7],[13,26],[6,-24],[-5,-18],[-14,-28],[-5,-18],[1,-7],[7,-12],[5,-40],[5,-20],[4,-30],[10,-35],[20,-54],[-2,-17],[17,-62],[18,-138],[21,-57],[4,-18],[24,-34],[13,-31],[10,-9],[18,0],[-11,-16],[7,-6],[7,-11],[15,-16],[-24,0],[15,-17],[12,-43],[17,-23],[8,-9],[25,-36],[10,-11],[10,-14],[9,-15],[3,-17],[12,-35],[0,-9],[6,-23],[20,-37],[11,-34],[2,-15],[1,-15],[16,-80],[5,-19],[12,-24],[14,-53],[46,-94],[6,-7],[16,-12],[19,-27],[19,-20],[22,-44],[14,-20],[22,-57],[14,-51],[32,-71],[5,-14],[14,-24],[-2,-7],[1,-14],[5,-12],[5,-1],[17,-18],[21,-72],[-7,-3],[-8,4],[-1,31],[-5,22],[-11,16],[-7,3],[9,-47],[5,-42],[15,-40],[3,-5],[6,-4],[3,-5],[2,-13],[13,-35],[12,-11],[63,-82],[18,-17],[43,-32],[40,-12],[12,10],[34,11],[52,36],[12,24],[2,28],[11,43],[14,18],[27,22],[102,30],[42,-2],[36,-12],[-10,11],[-14,6],[-31,5],[-16,4],[-12,11],[-6,12],[4,21],[10,21],[47,66],[0,26],[11,16],[14,9],[25,4],[11,-3],[14,-2],[16,0],[15,4],[2,83],[0,80],[-2,14],[-7,13],[-19,-5],[10,10],[8,15],[-7,24],[3,21],[16,56],[22,46],[10,11],[20,29],[15,45],[21,125],[-10,14],[-32,17],[-9,15],[17,20],[14,-20],[6,-16],[7,-7],[-11,38],[0,16],[-4,16],[-14,37],[-6,29],[4,14],[7,12],[1,24],[-2,18],[-12,41],[-9,52],[9,46],[35,73],[17,15],[47,19],[11,-1],[14,-4],[8,-19],[7,3],[10,-4],[11,0],[2,9],[7,14],[19,15],[19,56],[9,14],[21,5],[56,-6],[9,-1],[69,29],[22,14],[12,20],[2,8],[4,14],[-2,8],[-7,10],[-5,10],[1,8],[13,22],[43,33],[69,36],[41,27],[34,33],[34,41],[15,12],[82,42],[14,20],[51,54],[27,36],[14,15],[11,16],[4,14],[83,72],[39,22],[-1,5],[-12,4],[-26,-14],[-8,-1],[-4,5],[16,25],[39,26],[8,-2],[9,-4],[1,-21],[-9,-5],[-3,-5],[14,-1],[51,18],[66,20],[12,4],[4,5],[2,8],[-13,12],[9,0],[15,-8],[13,15],[10,15],[45,27],[4,8],[-1,12],[13,21],[16,16],[9,15],[-6,8],[-8,42],[-10,26],[3,24],[18,24],[26,25],[18,9],[87,20],[27,14],[23,18],[12,22],[24,0],[-9,-28],[-8,-18],[12,-11],[24,-3],[5,14],[1,11],[4,-6],[25,-20],[25,8],[3,10],[-6,22],[5,21],[25,0],[-7,-39],[0,-13],[4,-8],[6,-7],[16,14],[4,16],[9,-17],[11,-2],[15,2],[-1,20],[-4,14],[-13,19],[14,0],[0,1],[11,0],[1,-13],[13,-17],[13,-11],[8,-3],[13,3],[18,18],[9,18],[0,5],[10,0],[2,-15],[0,-18],[11,9],[8,12],[16,8],[3,4],[41,0]],[[1082,611],[-3,3],[-5,0],[-3,-3],[0,-5],[2,-3],[4,0],[3,4],[2,4]],[[1097,792],[-1,1],[-3,-3],[-2,-4],[-2,-4],[-2,-3],[1,-3],[3,0],[3,1],[2,5],[0,4],[1,4],[0,2]],[[2527,1165],[47,34],[13,17],[10,19],[10,26],[7,27],[3,22],[0,50],[-8,27],[-6,6],[-13,30],[-8,11],[-1,5],[0,6],[-2,8],[-42,63],[-3,5],[0,12],[-9,41],[-7,7],[-10,3],[-9,4],[-2,8],[1,11],[-4,10],[-33,50],[-7,5],[-8,3],[-5,10],[-3,11],[-33,52],[-61,52],[-22,29],[-14,2],[-18,0],[-18,1],[-2,-4],[-3,-9],[5,-8],[12,-10],[38,-7],[24,-12],[8,-12],[-11,0],[-10,-3],[-11,5],[-11,8],[-20,8],[5,-23],[1,-24],[-3,-22],[-7,-21],[-24,-37],[-1,-10],[3,-19],[0,-10],[-17,-52],[-3,-20],[-4,-47],[-5,-6],[-6,5],[0,46],[-7,-21],[-1,-21],[10,-51],[6,-39],[12,-141],[16,-46],[11,-41],[16,-39],[31,-27],[42,-11],[41,5],[45,20],[61,22],[14,7]],[[2250,1692],[-20,8],[3,-7],[10,-8],[15,-10],[-5,14],[-3,3]],[[2255,1818],[-3,1],[-2,-2],[-3,-4],[3,-5],[9,-12],[11,2],[-10,9],[-5,11]],[[1016,1551],[0,1],[-1,-1],[-4,-6],[-3,-2],[-2,2],[0,-2],[0,-2],[2,-1],[3,1],[3,3],[2,4],[0,3]],[[2609,1387],[-6,6],[-13,30],[-8,11],[-1,5],[0,6],[-2,8],[-42,63],[-3,5],[0,12],[-9,41],[-7,7],[-10,3],[-9,4],[-2,8],[1,11],[-4,10],[-33,50],[-7,5],[-8,3],[-5,10],[-3,11],[-33,52],[-61,52],[-22,29],[-14,2],[-18,0],[-18,1],[-2,-4],[-3,-9],[5,-8],[12,-10],[38,-7],[24,-12],[8,-12],[-11,0],[-10,-3],[-11,5],[-11,8],[-20,8],[5,-23],[1,-24],[-3,-22],[-7,-21],[-24,-37],[-1,-10],[3,-19],[0,-10],[-17,-52],[-3,-20],[-4,-47],[-5,-6],[-6,5],[0,46],[-7,-21],[-1,-21],[10,-51],[6,-39],[12,-141],[16,-46],[11,-41],[16,-39],[31,-27],[42,-11],[41,5],[45,20],[61,22],[14,7],[47,34],[13,17],[10,19],[10,26],[7,27],[3,22],[0,50],[-8,27]],[[2270,1798],[-10,9],[-5,11],[-3,1],[-2,-2],[-3,-4],[3,-5],[9,-12],[11,2]],[[2258,1675],[-5,14],[-3,3],[-20,8],[3,-7],[10,-8],[15,-10]],[[319,4096],[24,-19],[29,-30],[37,-33],[52,-61],[17,-15],[65,-48],[43,-18],[29,-5],[27,4],[67,25],[32,18],[81,35],[11,13],[32,57],[1,24],[-9,13],[-7,9],[-12,3],[-12,6],[7,7],[3,11],[5,4]],[[938,4096],[-2,-1],[-9,-11],[-9,-34],[54,-2],[25,4],[25,8],[-17,-9],[-38,-15],[-17,-13],[-19,-17],[10,-1],[12,3],[-9,-7],[-11,-12],[12,-36],[11,-9],[11,-2],[2,-6],[3,-25],[7,-23],[3,-29],[-2,-21],[-32,-90],[-7,-46],[1,-6],[4,-8],[5,-33],[14,-11],[-8,-13],[1,-7],[5,-10],[36,-16],[-32,4],[-3,-8],[1,-7],[0,-26],[6,-19],[12,7],[13,26],[6,-24],[-5,-18],[-14,-28],[-5,-18],[1,-7],[7,-12],[5,-40],[5,-20],[4,-30],[10,-35],[20,-54],[-2,-17],[17,-62],[18,-138],[21,-57],[4,-18],[24,-34],[13,-31],[10,-9],[18,0],[-11,-16],[7,-6],[7,-11],[15,-16],[-24,0],[15,-17],[12,-43],[17,-23],[8,-9],[25,-36],[10,-11],[10,-14],[9,-15],[3,-17],[12,-35],[0,-9],[6,-23],[20,-37],[11,-34],[2,-15],[1,-15],[16,-80],[5,-19],[12,-24],[14,-53],[46,-94],[6,-7],[16,-12],[19,-27],[19,-20],[22,-44],[14,-20],[22,-57],[14,-51],[32,-71],[5,-14],[14,-24],[-2,-7],[1,-14],[5,-12],[5,-1],[17,-18],[21,-72],[-7,-3],[-8,4],[-1,31],[-5,22],[-11,16],[-7,3],[9,-47],[5,-42],[15,-40],[3,-5],[6,-4],[3,-5],[2,-13],[13,-35],[12,-11],[63,-82],[18,-17],[43,-32],[40,-12],[12,10],[34,11],[52,36],[12,24],[2,28],[11,43],[14,18],[27,22],[102,30],[42,-2],[36,-12],[-10,11],[-14,6],[-31,5],[-16,4],[-12,11],[-6,12],[4,21],[10,21],[47,66],[0,26],[11,16],[14,9],[25,4],[11,-3],[14,-2],[16,0],[15,4],[2,83],[0,80],[-2,14],[-7,13],[-19,-5],[10,10],[8,15],[-7,24],[3,21],[16,56],[22,46],[10,11],[20,29],[15,45],[21,125],[-10,14],[-32,17],[-9,15],[17,20],[14,-20],[6,-16],[7,-7],[-11,38],[0,16],[-4,16],[-14,37],[-6,29],[4,14],[7,12],[1,24],[-2,18],[-12,41],[-9,52],[9,46],[35,73],[17,15],[47,19],[11,-1],[14,-4],[8,-19],[7,3],[10,-4],[11,0],[2,9],[7,14],[19,15],[19,56],[9,14],[21,5],[56,-6],[9,-1],[69,29],[22,14],[12,20],[2,8],[4,14],[-2,8],[-7,10],[-5,10],[1,8],[13,22],[43,33],[69,36],[41,27],[34,33],[34,41],[15,12],[82,42],[14,20],[51,54],[27,36],[14,15],[11,16],[4,14],[83,72],[39,22],[-1,5],[-12,4],[-26,-14],[-8,-1],[-4,5],[16,25],[39,26],[8,-2],[9,-4],[1,-21],[-9,-5],[-3,-5],[14,-1],[51,18],[66,20],[12,4],[4,5],[2,8],[-13,12],[9,0],[15,-8],[13,15],[10,15],[45,27],[4,8],[-1,12],[13,21],[16,16],[9,15],[-6,8],[-8,42],[-10,26],[3,24],[18,24],[26,25],[18,9],[87,20],[27,14],[23,18],[12,22]],[[3759,4096],[-9,-28],[-8,-18],[12,-11],[24,-3],[5,14],[1,11],[4,-6],[25,-20],[25,8],[3,10],[-6,22],[5,21]],[[3865,4096],[-7,-39],[0,-13],[4,-8],[6,-7],[16,14],[4,16],[9,-17],[11,-2],[15,2],[-1,20],[-4,14],[-13,19],[14,0],[0,1]],[[3930,4096],[1,-13],[13,-17],[13,-11],[8,-3],[13,3],[18,18],[9,18],[0,5]],[[4015,4096],[2,-15],[0,-18],[11,9],[8,12],[16,8],[3,4]],[[963,2094],[-2,-3],[-1,-1],[0,3],[2,6],[2,3],[0,-4],[-1,-4]],[[1011,1541],[-3,-1],[-2,1],[0,2],[0,2],[2,-2],[3,2],[4,6],[1,1],[0,-1],[0,-3],[-2,-4],[-3,-3]],[[1077,603],[-4,0],[-2,3],[0,5],[3,3],[5,0],[3,-3],[-2,-4],[-3,-4]],[[1096,782],[-2,-5],[-3,-1],[-3,0],[-1,3],[2,3],[2,4],[2,4],[3,3],[1,-1],[0,-2],[-1,-4],[0,-4]],[[2272,1832],[18,-1],[18,0],[14,-2],[22,-29],[61,-52],[33,-52],[3,-11],[5,-10],[8,-3],[7,-5],[33,-50],[4,-10],[-1,-11],[2,-8],[9,-4],[10,-3],[7,-7],[9,-41],[0,-12],[3,-5],[42,-63],[2,-8],[0,-6],[1,-5],[8,-11],[13,-30],[6,-6],[8,-27],[0,-50],[-3,-22],[-7,-27],[-10,-26],[-10,-19],[-13,-17],[-47,-34],[-14,-7],[-61,-22],[-45,-20],[-41,-5],[-42,11],[-31,27],[-16,39],[-11,41],[-16,46],[-12,141],[-6,39],[-10,51],[1,21],[7,21],[0,-46],[6,-5],[5,6],[4,47],[3,20],[17,52],[0,10],[-3,19],[1,10],[24,37],[7,21],[3,22],[-1,24],[-5,23],[20,-8],[11,-8],[11,-5],[10,3],[11,0],[-8,12],[-24,12],[-38,7],[-12,10],[-5,8],[3,9],[2,4]],[[4015,4096],[40,0],[-3,-4],[-16,-8],[-8,-12],[-11,-9],[0,18],[-2,15]],[[3930,4096],[75,0],[0,-5],[-9,-18],[-18,-18],[-13,-3],[-8,3],[-13,11],[-13,17],[-1,13]],[[3865,4096],[54,0],[0,-1],[-14,0],[13,-19],[4,-14],[1,-20],[-15,-2],[-11,2],[-9,17],[-4,-16],[-16,-14],[-6,7],[-4,8],[0,13],[7,39]],[[3759,4096],[81,0],[-5,-21],[6,-22],[-3,-10],[-25,-8],[-25,20],[-4,6],[-1,-11],[-5,-14],[-24,3],[-12,11],[8,18],[9,28]],[[938,4096],[2797,0],[-12,-22],[-23,-18],[-27,-14],[-87,-20],[-18,-9],[-26,-25],[-18,-24],[-3,-24],[10,-26],[8,-42],[6,-8],[-9,-15],[-16,-16],[-13,-21],[1,-12],[-4,-8],[-45,-27],[-10,-15],[-13,-15],[-15,8],[-9,0],[13,-12],[-2,-8],[-4,-5],[-12,-4],[-66,-20],[-51,-18],[-14,1],[3,5],[9,5],[-1,21],[-9,4],[-8,2],[-39,-26],[-16,-25],[4,-5],[8,1],[26,14],[12,-4],[1,-5],[-39,-22],[-83,-72],[-4,-14],[-11,-16],[-14,-15],[-27,-36],[-51,-54],[-14,-20],[-82,-42],[-15,-12],[-34,-41],[-34,-33],[-41,-27],[-69,-36],[-43,-33],[-13,-22],[-1,-8],[5,-10],[7,-10],[2,-8],[-4,-14],[-2,-8],[-12,-20],[-22,-14],[-69,-29],[-9,1],[-56,6],[-21,-5],[-9,-14],[-19,-56],[-19,-15],[-7,-14],[-2,-9],[-11,0],[-10,4],[-7,-3],[-8,19],[-14,4],[-11,1],[-47,-19],[-17,-15],[-35,-73],[-9,-46],[9,-52],[12,-41],[2,-18],[-1,-24],[-7,-12],[-4,-14],[6,-29],[14,-37],[4,-16],[0,-16],[11,-38],[-7,7],[-6,16],[-14,20],[-17,-20],[9,-15],[32,-17],[10,-14],[-21,-125],[-15,-45],[-20,-29],[-10,-11],[-22,-46],[-16,-56],[-3,-21],[7,-24],[-8,-15],[-10,-10],[19,5],[7,-13],[2,-14],[0,-80],[-2,-83],[-15,-4],[-16,0],[-14,2],[-11,3],[-25,-4],[-14,-9],[-11,-16],[0,-26],[-47,-66],[-10,-21],[-4,-21],[6,-12],[12,-11],[16,-4],[31,-5],[14,-6],[10,-11],[-36,12],[-42,2],[-102,-30],[-27,-22],[-14,-18],[-11,-43],[-2,-28],[-12,-24],[-52,-36],[-34,-11],[-12,-10],[-40,12],[-43,32],[-18,17],[-63,82],[-12,11],[-13,35],[-2,13],[-3,5],[-6,4],[-3,5],[-15,40],[-5,42],[-9,47],[7,-3],[11,-16],[5,-22],[1,-31],[8,-4],[7,3],[-21,72],[-17,18],[-5,1],[-5,12],[-1,14],[2,7],[-14,24],[-5,14],[-32,71],[-14,51],[-22,57],[-14,20],[-22,44],[-19,20],[-19,27],[-16,12],[-6,7],[-46,94],[-14,53],[-12,24],[-5,19],[-16,80],[-1,15],[-2,15],[-11,34],[-20,37],[-6,23],[0,9],[-12,35],[-3,17],[-9,15],[-10,14],[-10,11],[-25,36],[-8,9],[-17,23],[-12,43],[-15,17],[24,0],[-15,16],[-7,11],[-7,6],[11,16],[-18,0],[-10,9],[-13,31],[-24,34],[-4,18],[-21,57],[-18,138],[-17,62],[2,17],[-20,54],[-10,35],[-4,30],[-5,20],[-5,40],[-7,12],[-1,7],[5,18],[14,28],[5,18],[-6,24],[-13,-26],[-12,-7],[-6,19],[0,26],[-1,7],[3,8],[32,-4],[-36,16],[-5,10],[-1,7],[8,13],[-14,11],[-5,33],[-4,8],[-1,6],[7,46],[32,90],[2,21],[-3,29],[-7,23],[-3,25],[-2,6],[-11,2],[-11,9],[-12,36],[11,12],[9,7],[-12,-3],[-10,1],[19,17],[17,13],[38,15],[17,9],[-25,-8],[-25,-4],[-54,2],[9,34],[9,11],[2,1]],[[319,4096],[522,0],[-5,-4],[-3,-11],[-7,-7],[12,-6],[12,-3],[7,-9],[9,-13],[-1,-24],[-32,-57],[-11,-13],[-81,-35],[-32,-18],[-67,-25],[-27,-4],[-29,5],[-43,18],[-65,48],[-17,15],[-52,61],[-37,33],[-29,30],[-24,19]],[[2328,3546],[50,73],[20,-13],[-16,-70],[-20,-13],[-34,23]],[[1399,3979],[40,32],[108,-21],[-33,-23],[-115,12]],[[538,3966],[63,-1],[12,23],[-3,-25],[39,-16],[12,15],[32,-4],[-78,-55],[-55,53],[-18,-19],[-4,29]],[[1098,3258],[64,-30],[12,-61],[-48,5],[-28,86]],[[2129,2598],[14,1],[36,-43],[-27,3],[-23,39]],[[1200,2925],[26,21],[36,-28],[-3,-30],[-59,37]],[[2035,1712],[90,11],[1,-8],[-90,-12],[-1,9]],[[2503,1230],[9,25],[47,-11],[22,41],[23,-30],[-73,-88],[-28,63]],[[1712,2069],[17,1],[7,-21],[-24,3],[0,17]],[[2168,2169],[20,5],[1,-20],[-19,-7],[-2,22]],[[1652,2311],[25,-5],[-3,-11],[-21,3],[-1,13]],[[2332,2482],[-8,-71],[-34,7],[-7,38],[49,26]],[[1504,2591],[-5,-18],[-13,-8],[2,23],[16,3]],[[1277,3117],[-18,10],[39,-8],[-7,-21],[-14,19]],[[1301,3154],[4,-20],[-25,9],[4,19],[17,-8]],[[1862,2441],[-7,-47],[-25,7],[-14,40],[46,0]],[[1971,3257],[-18,24],[74,-17],[-35,-38],[-21,31]],[[2889,3317],[-36,-33],[-7,6],[13,29],[30,-2]],[[1543,3300],[-10,-10],[-15,5],[10,16],[15,-11]],[[958,3624],[77,-21],[14,-21],[-33,-7],[7,-34],[-27,34],[-25,-33],[-4,60],[32,-4],[-41,26]],[[1316,3561],[-11,-1],[-2,24],[15,-4],[-2,-19]],[[1139,3451],[-3,29],[10,16],[34,-33],[-41,-12]],[[2191,3511],[9,-31],[-32,16],[9,60],[14,-45]],[[972,3806],[3,19],[20,-25],[-9,0],[-14,6]],[[3361,3819],[-15,-4],[-16,6],[26,12],[5,-14]],[[645,3873],[-15,-4],[2,26],[19,0],[-6,-22]],[[575,3883],[-3,14],[21,5],[-5,-22],[-13,3]],[[729,3907],[-20,-11],[-12,-5],[-2,15],[34,1]],[[1005,4006],[-17,-17],[-34,3],[38,22],[13,-8]],[[968,4036],[42,17],[9,-23],[-47,-12],[-4,18]],[[931,4096],[25,0],[-3,-47],[-35,1],[13,46]],[[956,3944],[-14,17],[23,15],[48,1],[31,-42],[-62,-29],[-26,38]],[[2126,3942],[-32,-2],[16,38],[25,-10],[-9,-26]],[[1423,3726],[23,-12],[-48,-16],[9,18],[16,10]],[[2142,3700],[-11,41],[15,8],[12,-46],[-16,-3]],[[1134,3722],[-9,19],[39,-5],[-10,-12],[-20,-2]],[[3381,4073],[21,23],[75,0],[-31,-86],[-42,1],[-23,62]],[[3506,3800],[1,31],[51,39],[45,-3],[-65,-78],[-32,11]],[[1061,4055],[65,41],[101,0],[0,-15],[-59,-40],[-107,14]],[[2119,4054],[13,25],[28,-8],[-3,-23],[-38,6]],[[2429,1443],[9,22],[31,6],[-16,-49],[-24,21]],[[2120,3753],[8,16],[31,-3],[-24,33],[14,30],[64,-66],[-15,-30],[-78,20]],[[1696,1945],[2,23],[65,-12],[27,-42],[-28,19],[-48,-23],[19,19],[-37,16]],[[1550,2280],[45,2],[-9,-69],[-18,1],[-18,66]],[[2246,1550],[6,44],[66,26],[-25,-83],[-47,13]]]}