{"objects":{"water":{"type":"GeometryCollection","geometries":[{"type":"Polygon","properties":{"source":"naturalearthdata.com","kind":"lake","name":"Lake Dbo","area":353363584,"sort_rank":200,"min_zoom":0.0,"id":631},"arcs":[[390]]},{"type":"Point","properties":{"label_placement":true,"kind":"lake","name":"Lake Dbo","area":353363584,"sort_rank":200,"source":"naturalearthdata.com","min_zoom":0.0,"id":631},"coordinates":[1079,3135]},{"type":"LineString","properties":{"source":"naturalearthdata.com","kind":"lake","sort_rank":367,"boundary":true,"min_zoom":0.0,"id":631},"arcs":[391]}]},"buildings":{"type":"GeometryCollection","geometries":[]},"places":{"type":"GeometryCollection","geometries":[{"type":"Point","properties":{"name:ps":"\u0628\u0648\u0631\u06a9\u06cc\u0646\u0627 \u0641\u0627\u0633\u0648","name:ka":"\u10d1\u10e3\u10e0\u10d9\u10d8\u10dc\u10d0-\u10e4\u10d0\u10e1\u10dd","name:ko":"\ubd80\ub974\ud0a4\ub098\ud30c\uc18c","name:cv":"\u0411\u0443\u0440\u043a\u0438\u043d\u0430 \u0424\u0430\u0441\u043e","name:km":"\u1794\u17ca\u17bc\u179a\u1782\u17b8\u178e\u17b6\u17a0\u17d2\u179c\u17b6\u179f\u17bc","name:kk":"\u0411\u0443\u0440\u043a\u0438\u043d\u0430-\u0424\u0430\u0441\u043e","name:ki":"Bukinafaso","name:tk":"Burkina-Faso","name:ku":"Burk\u00eena Faso","name:ti":"\u1261\u122d\u12aa\u1293 \u134b\u1236","name:ks":"\u0628\u064f\u0631\u06a9\u0650\u0646\u0627 \u0641\u06cc\u0633\u0648","name:to":"Pekano Faso","name:pa":"\u0a2c\u0a41\u0a30\u0a15\u0a40\u0a28\u0a3e \u0a2b\u0a3c\u0a3e\u0a38\u0a4b","name:os":"\u0411\u0443\u0440\u043a\u0438\u043d\u0430 \u0424\u0430\u0441\u043e","name:or":"\u0b2c\u0b41\u0b30\u0b4d\u0b15\u0b3f\u0b28\u0b4b \u0b2b\u0b3e\u0b38\u0b4b","name:ce":"\u0411\u0443\u0440\u043a\u0438\u043d\u0430 \u0424\u0430\u0441\u043e","name:ta":"\u0baa\u0bc1\u0bb0\u0bcd\u0b95\u0bbf\u0ba9\u0bbe \u0b83\u0baa\u0bbe\u0bb8\u0bcb","name:tg":"\u0411\u0443\u0440\u043a\u0438\u043d\u0430 \u0424\u0430\u0441\u043e","name:ky":"\u0411\u0443\u0440\u043a\u0438\u043d\u0430 \u0424\u0430\u0441\u043e","name:te":"\u0c2c\u0c41\u0c30\u0c4d\u0c15\u0c3f\u0c28\u0c3e \u0c2b\u0c3e\u0c38\u0c4b","old_name:pt":"Alto Volta","name:qu":"Burkina Phasu","name:dz":"\u0f56\u0fb7\u0f62\u0f0b\u0f40\u0f72\u0f0b\u0f53\u0f0b \u0f55\u0f7a\u0f0b\u0f66\u0f7c","source":"openstreetmap.org","name:kn":"\u0cac\u0cc1\u0cb0\u0ccd\u0c95\u0cbf\u0ca8\u0cbe \u0cab\u0cbe\u0cb8\u0ccb","name:dv":"\u0784\u07aa\u0783\u07aa\u0786\u07a9\u0782\u07a7 \u078a\u07a7\u0790\u07af","name:lv":"Burkinafaso","name:lt":"Burkina Fasas","name:hi":"\u092c\u0941\u0930\u094d\u0915\u093f\u0928\u093e \u092b\u093c\u093e\u0938\u094b","name:he":"\u05d1\u05d5\u05e8\u05e7\u05d9\u05e0\u05d4 \u05e4\u05d0\u05e1\u05d5","min_zoom":2.0,"kind":"country","name:ur":"\u0628\u0631\u06a9\u06cc\u0646\u0627 \u0641\u0627\u0633\u0648","name:la":"Burkina","name:lg":"Burukina Faso","name:uk":"\u0411\u0443\u0440\u043a\u0456\u043d\u0430-\u0424\u0430\u0441\u043e","name:hy":"\u0532\u0578\u0582\u0580\u056f\u056b\u0576\u0561 \u0556\u0561\u057d\u0578","name:ug":"\u0628\u06c7\u0631\u0643\u0649\u0646\u0627 \u0641\u0627\u0633\u0648","name:ln":"Bukina Faso","name:lo":"\u0ec0\u0e9a\u0eb5\u0e81\u0eb4\u0e99\u0eb2\u0e9f\u0eb2\u0ec2\u0e8a","population":16751455,"name:el":"\u039c\u03c0\u03bf\u03c5\u03c1\u03ba\u03af\u03bd\u03b1 \u03a6\u03ac\u03c3\u03bf","name:eo":"Burkino","name":"Burkina Faso","name:ee":"Burkina Faso nutome","name:th":"\u0e1b\u0e23\u0e30\u0e40\u0e17\u0e28\u0e1a\u0e39\u0e23\u0e4c\u0e01\u0e34\u0e19\u0e32\u0e1f\u0e32\u0e42\u0e0b","name:gu":"\u0aac\u0ac1\u0ab0\u0acd\u0a95\u0abf\u0aa8\u0abe \u0aab\u0abe\u0ab8\u0acb","name:yi":"\u05d1\u05d5\u05e8\u05e7\u05d9\u05e0\u05e2 \u05e4\u05d0\u05e1\u05d0","name:yo":"Or\u00edl\u1eb9\u0301\u00e8de B\u00f9\u00f9k\u00edn\u00e1 Fas\u00f2","name:rn":"Burukina Faso","name:az":"Burkina-Faso","name:mr":"\u092c\u0941\u0930\u094d\u0915\u093f\u0928\u093e \u092b\u093e\u0938\u094b","name:ar":"\u0628\u0648\u0631\u0643\u064a\u0646\u0627 \u0641\u0627\u0635\u0648","name:my":"\u1018\u102c\u1000\u102e\u1038\u1014\u102c\u1038\u1016\u102c\u1038\u1006\u102d\u102f\u1014\u102d\u102f\u1004\u103a\u1004\u1036","name:is":"B\u00fark\u00edna Fas\u00f3","name:am":"\u1261\u122d\u12aa\u1293 \u134b\u1236","name:ml":"\u0d2c\u0d41\u0d7c\u0d15\u0d4d\u0d15\u0d3f\u0d28\u0d3e \u0d2b\u0d3e\u0d38\u0d4b","name:ru":"\u0411\u0443\u0440\u043a\u0438\u043d\u0430-\u0424\u0430\u0441\u043e","name:rw":"Burukina Faso","alt_name:pt":"Burkina Fasso","name:mk":"\u0411\u0443\u0440\u043a\u0438\u043d\u0430 \u0424\u0430\u0441\u043e","name:vo":"Burkin\u00e4n","name:zu":"i-Burkina Faso","name:ha":"Burkina faso","name:mn":"\u0411\u0443\u0440\u043a\u0438\u043d\u0430 \u0424\u0430\u0441\u043e","name:ff":"Burkibaa Faaso","name:mg":"Borkina Faso","id":249399288,"name:wo":"Burkinaa Faaso","name:zh-yue":"\u5e03\u57fa\u7d0d\u6cd5\u7d22","name:fy":"B\u00fbrkina Faso","name:zh":"\u5e03\u57fa\u7eb3\u6cd5\u7d22","name:so":"Burkiina Faaso","name:sn":"Bukinafaso","name:sk":"Burkina","name:ja":"\u30d6\u30eb\u30ad\u30ca\u30d5\u30a1\u30bd","name:si":"\u0db6\u0dbb\u0dca\u0d9a\u0dd2\u0db1\u0dcf \u0dc6\u0dcf\u0dc3\u0ddd","name:fa":"\u0628\u0648\u0631\u06a9\u06cc\u0646\u0627\u0641\u0627\u0633\u0648","name:na":"Burkinabato","name:ne":"\u092c\u0930\u094d\u0915\u093f\u0928\u093e \u092b\u093e\u0938\u094b","name:sa":"\u092c\u0941\u0930\u094d\u0915\u0940\u0928\u093e-\u092b\u093e\u0938\u094b","name:bm":"Burukina Faso","name:bn":"\u09ac\u09c1\u09b0\u0995\u09bf\u09a8\u09be \u09ab\u09be\u09b8\u09cb","name:bo":"\u0f56\u0f62\u0f40\u0f72\u0f0b\u0f53\u0f0d \u0f55\u0f66\u0f7c\u0f0d","name:sw":"Bukinafaso","name:be":"\u0411\u0443\u0440\u043a\u0456\u043d\u0430-\u0424\u0430\u0441\u043e","name:bg":"\u0411\u0443\u0440\u043a\u0438\u043d\u0430 \u0424\u0430\u0441\u043e","name:ss":"IBhukhina-Faso","name:sr":"\u0411\u0443\u0440\u043a\u0438\u043d\u0430 \u0424\u0430\u0441\u043e","name:ga":"Buirc\u00edne Fas\u00f3","name:gd":"Buirciona Faso","name:ht":"Boukinafaso","name:gl":"Burquina Faso","name:ak":"B\u0254kina Faso","name:tt":"\u0411\u0443\u0440\u043a\u0438\u043d\u0430 \u0424\u0430\u0441\u043e"},"coordinates":[2867,673]},{"type":"Point","properties":{"name:ps":"\u0645\u0627\u0644\u064a","name:ka":"\u10db\u10d0\u10da\u10d8","name:ko":"\ub9d0\ub9ac","name:cv":"\u041c\u0430\u043b\u0438","name:km":"\u1798\u17c9\u17b6\u179b\u17b8","name:kk":"\u041c\u0430\u043b\u0438","name:tt":"\u041c\u0430\u043b\u0438","min_zoom":2.0,"name:ti":"\u121b\u120a","name:ks":"\u0645\u0627\u0644\u06cc","name:to":"M\u0101li","name:pa":"\u0a2e\u0a3e\u0a32\u0a40","name:os":"\u041c\u0430\u043b\u0438","name:or":"\u0b2e\u0b3e\u0b33\u0b40","name:ce":"\u041c\u0430\u043b\u0438","name:ta":"\u0bae\u0bbe\u0bb2\u0bc0","name:tg":"\u041c\u0430\u043b\u0438","name:te":"\u0c2e\u0c3e\u0c32\u0c3f","name:ba":"\u041c\u0430\u043b\u0438","name:dz":"\u0f58\u0f71\u0f0b\u0f63\u0f72","source":"openstreetmap.org","name:yo":"Or\u00edl\u1eb9\u0301\u00e8de Mali","name:kn":"\u0cae\u0cbe\u0cb2\u0cbf","name:dv":"\u0789\u07a7\u078d\u07a9","name:lt":"Malis","name:hi":"\u092e\u093e\u0932\u0940","name:he":"\u05de\u05d0\u05dc\u05d9","kind":"country","name:ur":"\u0645\u0627\u0644\u06cc","name:la":"Malium","name:uk":"\u041c\u0430\u043b\u0456","name:hy":"\u0544\u0561\u056c\u056b","name:ug":"\u0645\u0627\u0644\u0649","name:ln":"Mal\u00ed","name:lo":"\u0ea1\u0eb2\u0ea5\u0eb4","population":14517176,"name:el":"\u039c\u03ac\u03bb\u03b9","name:eo":"Malio","name":"Mali","name:ee":"Mali nutome","name:ku":"Mal\u00ee","name:th":"\u0e1b\u0e23\u0e30\u0e40\u0e17\u0e28\u0e21\u0e32\u0e25\u0e35","name:yi":"\u05de\u05d0\u05dc\u05d9","name:es":"Mal\u00ed","name:mr":"\u092e\u093e\u0932\u0940","name:ar":"\u0645\u0627\u0644\u064a","name:my":"\u1019\u102c\u101c\u102e","official_name":"R\u00e9publique du Mali","name:is":"Mal\u00ed","name:am":"\u121b\u120a","name:ru":"\u041c\u0430\u043b\u0438","name:ml":"\u0d2e\u0d3e\u0d32\u0d3f","name:mn":"\u041c\u0430\u043b\u0438","id":424297816,"name:mk":"\u041c\u0430\u043b\u0438","name:vo":"Maliy\u00e4n","name:zu":"i-Mali","name:ff":"Maali","name:zh-yue":"\u99ac\u91cc","name:fy":"Maly","name:zh":"\u9a6c\u91cc","name:so":"Maali","name:ja":"\u30de\u30ea","name:si":"\u0db8\u0dcf\u0dbd\u0dd2","name:fa":"\u0645\u0627\u0644\u06cc","name:sg":"Mal\u00efi","name:ne":"\u092e\u093e\u0932\u0940","name:sa":"\u092e\u093e\u0932\u0940","name:bn":"\u09ae\u09be\u09b2\u09bf","name:bo":"\u0f58\u0f0b\u0f63\u0f72\u0f0d","name:be":"\u041c\u0430\u043b\u0456","name:bg":"\u041c\u0430\u043b\u0438","name:ss":"IMali","name:sr":"\u041c\u0430\u043b\u0438","name:ga":"Mail\u00ed","name:gd":"M\u00e0ili","name:gl":"Mal\u00ed","name:gv":"Malee","name:gu":"\u0aae\u0abe\u0ab2\u0ac0"},"coordinates":[2428,3896]},{"type":"Point","properties":{"source":"openstreetmap.org","kind":"region","name:en":"North","name":"Nord","kind_detail":"state","min_zoom":4.0,"id":893395213},"coordinates":[2474,1707]},{"type":"Point","properties":{"source":"openstreetmap.org","kind":"region","name":"Sahel","kind_detail":"state","name:hu":"Sz\u00e1hel","min_zoom":4.0,"id":893364560},"coordinates":[3830,2387]},{"type":"Point","properties":{"source":"naturalearthdata.com","kind":"locality","name":"Ouagadougou","country_capital":true,"population":1149000,"min_zoom":5.0,"id":7087},"coordinates":[2984,896]},{"type":"Point","properties":{"source":"naturalearthdata.com","kind":"locality","name":"Bobo Dioulasso","population":360106,"region_capital":true,"min_zoom":5.0,"id":6751},"coordinates":[972,1]},{"type":"Point","properties":{"source":"naturalearthdata.com","kind":"locality","name":"Gao","population":116967,"region_capital":true,"min_zoom":5.0,"id":6584},"coordinates":[4060,3819]},{"type":"Point","properties":{"source":"naturalearthdata.com","kind":"locality","name":"Djenne","population":32944,"min_zoom":5.0,"id":6987},"coordinates":[783,2043]},{"type":"Point","properties":{"source":"naturalearthdata.com","kind":"locality","name":"Mopti","population":108456,"region_capital":true,"min_zoom":6.0,"id":5938},"coordinates":[1052,2485]}]},"transit":{"type":"GeometryCollection","geometries":[]},"pois":{"type":"GeometryCollection","geometries":[{"type":"Point","properties":{"kind":"nature_reserve","name:en":"Kabor\u00e9 Tambi National Park","protect_class":"2","area":2019860000,"source":"openstreetmap.org","min_zoom":6.8,"old_name":"Parc national de P\u00f4","tier":2,"id":307421065,"name":"Parc National Kabor\u00e9 Tambi"},"coordinates":[3113,259]}]},"boundaries":{"type":"GeometryCollection","geometries":[{"type":"MultiLineString","properties":{"source":"naturalearthdata.com","kind":"country","sort_rank":262,"kind_detail":"2","min_zoom":0.0,"id":285},"arcs":[[0],[1],[2],[3],[4],[5],[6],[7],[8],[9],[10],[11],[12],[13],[14],[15],[16],[17],[18],[19],[20],[21],[22],[23],[24],[25],[26],[27],[28],[29],[30],[31],[32],[33],[34],[35],[36],[37],[38],[39],[40],[41],[42],[43],[44],[45],[46],[47],[48],[49],[50],[51],[52],[53]]},{"type":"MultiLineString","properties":{"source":"naturalearthdata.com","kind":"country","sort_rank":262,"kind_detail":"2","min_zoom":0.0,"id":368},"arcs":[[54],[55]]},{"type":"LineString","properties":{"source":"naturalearthdata.com","kind":"region","sort_rank":256,"kind_detail":"4","min_zoom":5.0,"id":7004},"arcs":[56]},{"type":"LineString","properties":{"source":"naturalearthdata.com","kind":"region","sort_rank":256,"kind_detail":"4","min_zoom":6.8,"id":7696},"arcs":[57]},{"type":"MultiLineString","properties":{"source":"naturalearthdata.com","kind":"macroregion","sort_rank":257,"kind_detail":"3","min_zoom":6.7,"id":7725},"arcs":[[58],[59],[60]]},{"type":"LineString","properties":{"source":"naturalearthdata.com","kind":"region","sort_rank":256,"kind_detail":"4","min_zoom":6.8,"id":7739},"arcs":[61]},{"type":"MultiLineString","properties":{"source":"naturalearthdata.com","kind":"region","sort_rank":256,"kind_detail":"4","min_zoom":5.0,"id":6999},"arcs":[[62],[63],[64],[65],[66],[67],[68],[69]]},{"type":"LineString","properties":{"source":"naturalearthdata.com","kind":"region","sort_rank":256,"kind_detail":"4","min_zoom":5.0,"id":7006},"arcs":[70]},{"type":"MultiLineString","properties":{"source":"naturalearthdata.com","kind":"region","sort_rank":256,"kind_detail":"4","min_zoom":5.0,"id":7007},"arcs":[[71],[72],[73],[74],[75],[76],[77],[78],[79],[80],[81],[82]]},{"type":"MultiLineString","properties":{"source":"naturalearthdata.com","kind":"region","sort_rank":256,"kind_detail":"4","min_zoom":5.0,"id":7008},"arcs":[[83],[84],[85],[86],[87],[88],[89],[90],[91],[92],[93],[94],[95],[96],[97],[98],[99],[100]]},{"type":"LineString","properties":{"source":"naturalearthdata.com","kind":"macroregion","sort_rank":257,"kind_detail":"3","min_zoom":6.7,"id":7657},"arcs":[101]},{"type":"LineString","properties":{"source":"naturalearthdata.com","kind":"macroregion","sort_rank":257,"kind_detail":"3","min_zoom":6.7,"id":7726},"arcs":[102]},{"type":"LineString","properties":{"source":"naturalearthdata.com","kind":"macroregion","sort_rank":257,"kind_detail":"3","min_zoom":6.7,"id":7727},"arcs":[103]},{"type":"MultiLineString","properties":{"source":"naturalearthdata.com","kind":"macroregion","sort_rank":257,"kind_detail":"3","min_zoom":6.7,"id":7649},"arcs":[[104],[105],[106],[107],[108],[109],[110]]},{"type":"MultiLineString","properties":{"source":"naturalearthdata.com","kind":"macroregion","sort_rank":257,"kind_detail":"3","min_zoom":6.7,"id":7650},"arcs":[[111],[112],[113],[114],[115],[116],[117],[118],[119]]},{"type":"MultiLineString","properties":{"source":"naturalearthdata.com","kind":"macroregion","sort_rank":257,"kind_detail":"3","min_zoom":6.7,"id":7652},"arcs":[[120],[121],[122]]},{"type":"MultiLineString","properties":{"source":"naturalearthdata.com","kind":"region","sort_rank":256,"kind_detail":"4","min_zoom":6.8,"id":7653},"arcs":[[123],[124],[125],[126],[127],[128],[129],[130],[131],[132],[133]]},{"type":"MultiLineString","properties":{"source":"naturalearthdata.com","kind":"macroregion","sort_rank":257,"kind_detail":"3","min_zoom":6.7,"id":7654},"arcs":[[134],[135]]},{"type":"LineString","properties":{"source":"naturalearthdata.com","kind":"macroregion","sort_rank":257,"kind_detail":"3","min_zoom":6.7,"id":7655},"arcs":[136]},{"type":"MultiLineString","properties":{"source":"naturalearthdata.com","kind":"macroregion","sort_rank":257,"kind_detail":"3","min_zoom":6.7,"id":7656},"arcs":[[137],[138],[139]]},{"type":"MultiLineString","properties":{"source":"naturalearthdata.com","kind":"region","sort_rank":256,"kind_detail":"4","min_zoom":6.8,"id":7658},"arcs":[[140],[141],[142],[143],[144]]},{"type":"MultiLineString","properties":{"source":"naturalearthdata.com","kind":"region","sort_rank":256,"kind_detail":"4","min_zoom":6.8,"id":7659},"arcs":[[145],[146]]},{"type":"LineString","properties":{"source":"naturalearthdata.com","kind":"macroregion","sort_rank":257,"kind_detail":"3","min_zoom":6.7,"id":7660},"arcs":[147]},{"type":"LineString","properties":{"source":"naturalearthdata.com","kind":"macroregion","sort_rank":257,"kind_detail":"3","min_zoom":6.7,"id":7661},"arcs":[148]},{"type":"MultiLineString","properties":{"source":"naturalearthdata.com","kind":"region","sort_rank":256,"kind_detail":"4","min_zoom":6.8,"id":7662},"arcs":[[149],[150],[151]]},{"type":"MultiLineString","properties":{"source":"naturalearthdata.com","kind":"macroregion","sort_rank":257,"kind_detail":"3","min_zoom":6.7,"id":7663},"arcs":[[152],[153],[154],[155],[156],[157]]},{"type":"MultiLineString","properties":{"source":"naturalearthdata.com","kind":"macroregion","sort_rank":257,"kind_detail":"3","min_zoom":6.7,"id":7664},"arcs":[[158],[159]]},{"type":"LineString","properties":{"source":"naturalearthdata.com","kind":"macroregion","sort_rank":257,"kind_detail":"3","min_zoom":6.7,"id":7665},"arcs":[160]},{"type":"LineString","properties":{"source":"naturalearthdata.com","kind":"region","sort_rank":256,"kind_detail":"4","min_zoom":6.8,"id":7666},"arcs":[161]},{"type":"LineString","properties":{"source":"naturalearthdata.com","kind":"macroregion","sort_rank":257,"kind_detail":"3","min_zoom":6.7,"id":7667},"arcs":[162]},{"type":"MultiLineString","properties":{"source":"naturalearthdata.com","kind":"region","sort_rank":256,"kind_detail":"4","min_zoom":6.8,"id":7668},"arcs":[[163],[164],[165]]},{"type":"MultiLineString","properties":{"source":"naturalearthdata.com","kind":"macroregion","sort_rank":257,"kind_detail":"3","min_zoom":6.7,"id":7669},"arcs":[[166],[167],[168],[169],[170]]},{"type":"LineString","properties":{"source":"naturalearthdata.com","kind":"macroregion","sort_rank":257,"kind_detail":"3","min_zoom":6.7,"id":7670},"arcs":[171]},{"type":"MultiLineString","properties":{"source":"naturalearthdata.com","kind":"macroregion","sort_rank":257,"kind_detail":"3","min_zoom":6.7,"id":7671},"arcs":[[172],[173],[174],[175],[176],[177],[178],[179]]},{"type":"MultiLineString","properties":{"source":"naturalearthdata.com","kind":"macroregion","sort_rank":257,"kind_detail":"3","min_zoom":6.7,"id":7672},"arcs":[[180],[181],[182],[183],[184]]},{"type":"LineString","properties":{"source":"naturalearthdata.com","kind":"macroregion","sort_rank":257,"kind_detail":"3","min_zoom":6.7,"id":7673},"arcs":[185]},{"type":"LineString","properties":{"source":"naturalearthdata.com","kind":"region","sort_rank":256,"kind_detail":"4","min_zoom":6.8,"id":7674},"arcs":[186]},{"type":"LineString","properties":{"source":"naturalearthdata.com","kind":"macroregion","sort_rank":257,"kind_detail":"3","min_zoom":6.7,"id":7675},"arcs":[187]},{"type":"MultiLineString","properties":{"source":"naturalearthdata.com","kind":"region","sort_rank":256,"kind_detail":"4","min_zoom":6.8,"id":7676},"arcs":[[188],[189],[190],[191],[192],[193],[194],[195],[196],[197],[198]]},{"type":"MultiLineString","properties":{"source":"naturalearthdata.com","kind":"macroregion","sort_rank":257,"kind_detail":"3","min_zoom":6.7,"id":7677},"arcs":[[199],[200],[201],[202],[203],[204]]},{"type":"MultiLineString","properties":{"source":"naturalearthdata.com","kind":"macroregion","sort_rank":257,"kind_detail":"3","min_zoom":6.7,"id":7678},"arcs":[[205],[206],[207],[208],[209]]},{"type":"MultiLineString","properties":{"source":"naturalearthdata.com","kind":"macroregion","sort_rank":257,"kind_detail":"3","min_zoom":6.7,"id":7679},"arcs":[[210],[211],[212]]},{"type":"LineString","properties":{"source":"naturalearthdata.com","kind":"macroregion","sort_rank":257,"kind_detail":"3","min_zoom":6.7,"id":7680},"arcs":[213]},{"type":"LineString","properties":{"source":"naturalearthdata.com","kind":"macroregion","sort_rank":257,"kind_detail":"3","min_zoom":6.7,"id":7681},"arcs":[214]},{"type":"MultiLineString","properties":{"source":"naturalearthdata.com","kind":"region","sort_rank":256,"kind_detail":"4","min_zoom":6.8,"id":7682},"arcs":[[215],[216],[217],[218],[219]]},{"type":"LineString","properties":{"source":"naturalearthdata.com","kind":"macroregion","sort_rank":257,"kind_detail":"3","min_zoom":6.7,"id":7683},"arcs":[220]},{"type":"MultiLineString","properties":{"source":"naturalearthdata.com","kind":"macroregion","sort_rank":257,"kind_detail":"3","min_zoom":6.7,"id":7684},"arcs":[[221],[222]]},{"type":"LineString","properties":{"source":"naturalearthdata.com","kind":"macroregion","sort_rank":257,"kind_detail":"3","min_zoom":6.7,"id":7685},"arcs":[223]},{"type":"MultiLineString","properties":{"source":"naturalearthdata.com","kind":"macroregion","sort_rank":257,"kind_detail":"3","min_zoom":6.7,"id":7686},"arcs":[[224],[225]]},{"type":"MultiLineString","properties":{"source":"naturalearthdata.com","kind":"macroregion","sort_rank":257,"kind_detail":"3","min_zoom":6.7,"id":7687},"arcs":[[226],[227],[228],[229],[230],[231],[232]]},{"type":"LineString","properties":{"source":"naturalearthdata.com","kind":"macroregion","sort_rank":257,"kind_detail":"3","min_zoom":6.7,"id":7688},"arcs":[233]},{"type":"MultiLineString","properties":{"source":"naturalearthdata.com","kind":"region","sort_rank":256,"kind_detail":"4","min_zoom":6.8,"id":7689},"arcs":[[234],[235],[236]]},{"type":"MultiLineString","properties":{"source":"naturalearthdata.com","kind":"macroregion","sort_rank":257,"kind_detail":"3","min_zoom":6.7,"id":7690},"arcs":[[237],[238],[239],[240],[241]]},{"type":"MultiLineString","properties":{"source":"naturalearthdata.com","kind":"region","sort_rank":256,"kind_detail":"4","min_zoom":6.8,"id":7691},"arcs":[[242],[243],[244]]},{"type":"LineString","properties":{"source":"naturalearthdata.com","kind":"macroregion","sort_rank":257,"kind_detail":"3","min_zoom":6.7,"id":7692},"arcs":[245]},{"type":"MultiLineString","properties":{"source":"naturalearthdata.com","kind":"region","sort_rank":256,"kind_detail":"4","min_zoom":6.8,"id":7693},"arcs":[[246],[247],[248]]},{"type":"MultiLineString","properties":{"source":"naturalearthdata.com","kind":"macroregion","sort_rank":257,"kind_detail":"3","min_zoom":6.7,"id":7694},"arcs":[[249],[250],[251]]},{"type":"MultiLineString","properties":{"source":"naturalearthdata.com","kind":"region","sort_rank":256,"kind_detail":"4","min_zoom":6.8,"id":7695},"arcs":[[252],[253],[254],[255],[256],[257],[258],[259],[260]]},{"type":"LineString","properties":{"source":"naturalearthdata.com","kind":"macroregion","sort_rank":257,"kind_detail":"3","min_zoom":6.7,"id":7697},"arcs":[261]},{"type":"MultiLineString","properties":{"source":"naturalearthdata.com","kind":"region","sort_rank":256,"kind_detail":"4","min_zoom":6.8,"id":7698},"arcs":[[262],[263]]},{"type":"MultiLineString","properties":{"source":"naturalearthdata.com","kind":"macroregion","sort_rank":257,"kind_detail":"3","min_zoom":6.7,"id":7699},"arcs":[[264],[265],[266],[267]]},{"type":"MultiLineString","properties":{"source":"naturalearthdata.com","kind":"macroregion","sort_rank":257,"kind_detail":"3","min_zoom":6.7,"id":7700},"arcs":[[268],[269],[270]]},{"type":"MultiLineString","properties":{"source":"naturalearthdata.com","kind":"region","sort_rank":256,"kind_detail":"4","min_zoom":6.8,"id":7705},"arcs":[[271],[272],[273],[274],[275],[276]]},{"type":"MultiLineString","properties":{"source":"naturalearthdata.com","kind":"macroregion","sort_rank":257,"kind_detail":"3","min_zoom":6.7,"id":7706},"arcs":[[277],[278],[279]]},{"type":"LineString","properties":{"source":"naturalearthdata.com","kind":"macroregion","sort_rank":257,"kind_detail":"3","min_zoom":6.7,"id":7707},"arcs":[280]},{"type":"MultiLineString","properties":{"source":"naturalearthdata.com","kind":"macroregion","sort_rank":257,"kind_detail":"3","min_zoom":6.7,"id":7714},"arcs":[[281],[282],[283]]},{"type":"MultiLineString","properties":{"source":"naturalearthdata.com","kind":"region","sort_rank":256,"kind_detail":"4","min_zoom":6.8,"id":7715},"arcs":[[284],[285],[286]]},{"type":"MultiLineString","properties":{"source":"naturalearthdata.com","kind":"macroregion","sort_rank":257,"kind_detail":"3","min_zoom":6.7,"id":7716},"arcs":[[287],[288],[289],[290],[291],[292],[293]]},{"type":"LineString","properties":{"source":"naturalearthdata.com","kind":"macroregion","sort_rank":257,"kind_detail":"3","min_zoom":6.7,"id":7717},"arcs":[294]},{"type":"LineString","properties":{"source":"naturalearthdata.com","kind":"macroregion","sort_rank":257,"kind_detail":"3","min_zoom":6.7,"id":7718},"arcs":[295]},{"type":"MultiLineString","properties":{"source":"naturalearthdata.com","kind":"region","sort_rank":256,"kind_detail":"4","min_zoom":6.8,"id":7719},"arcs":[[296],[297],[298],[299],[300]]},{"type":"MultiLineString","properties":{"source":"naturalearthdata.com","kind":"region","sort_rank":256,"kind_detail":"4","min_zoom":6.8,"id":7728},"arcs":[[301],[302],[303],[304],[305]]},{"type":"MultiLineString","properties":{"source":"naturalearthdata.com","kind":"region","sort_rank":256,"kind_detail":"4","min_zoom":6.8,"id":7729},"arcs":[[306],[307],[308],[309],[310],[311],[312],[313]]},{"type":"MultiLineString","properties":{"source":"naturalearthdata.com","kind":"region","sort_rank":256,"kind_detail":"4","min_zoom":6.8,"id":7730},"arcs":[[314],[315],[316],[317]]},{"type":"LineString","properties":{"source":"naturalearthdata.com","kind":"macroregion","sort_rank":257,"kind_detail":"3","min_zoom":6.7,"id":7731},"arcs":[318]},{"type":"MultiLineString","properties":{"source":"naturalearthdata.com","kind":"region","sort_rank":256,"kind_detail":"4","min_zoom":6.8,"id":7732},"arcs":[[319],[320],[321],[322],[323],[324],[325],[326]]},{"type":"MultiLineString","properties":{"source":"naturalearthdata.com","kind":"macroregion","sort_rank":257,"kind_detail":"3","min_zoom":6.7,"id":7736},"arcs":[[327],[328],[329]]},{"type":"MultiLineString","properties":{"source":"naturalearthdata.com","kind":"macroregion","sort_rank":257,"kind_detail":"3","min_zoom":6.7,"id":7737},"arcs":[[330],[331]]},{"type":"LineString","properties":{"source":"naturalearthdata.com","kind":"macroregion","sort_rank":257,"kind_detail":"3","min_zoom":6.7,"id":7738},"arcs":[332]},{"type":"LineString","properties":{"source":"naturalearthdata.com","kind":"region","sort_rank":256,"kind_detail":"4","min_zoom":6.8,"id":7740},"arcs":[333]},{"type":"LineString","properties":{"source":"naturalearthdata.com","kind":"region","sort_rank":256,"kind_detail":"4","min_zoom":6.8,"id":7742},"arcs":[334]},{"type":"MultiLineString","properties":{"source":"naturalearthdata.com","kind":"macroregion","sort_rank":257,"kind_detail":"3","min_zoom":6.7,"id":7743},"arcs":[[335],[336]]},{"type":"MultiLineString","properties":{"source":"naturalearthdata.com","kind":"region","sort_rank":256,"kind_detail":"4","min_zoom":6.8,"id":7745},"arcs":[[337],[338],[339],[340],[341]]},{"type":"MultiLineString","properties":{"source":"naturalearthdata.com","kind":"region","sort_rank":256,"kind_detail":"4","min_zoom":6.8,"id":7746},"arcs":[[342],[343],[344],[345],[346],[347],[348],[349],[350]]},{"type":"MultiLineString","properties":{"source":"naturalearthdata.com","kind":"macroregion","sort_rank":257,"kind_detail":"3","min_zoom":6.7,"id":7747},"arcs":[[351],[352],[353],[354],[355],[356],[357],[358],[359],[360],[361],[362]]},{"type":"MultiLineString","properties":{"source":"naturalearthdata.com","kind":"region","sort_rank":256,"kind_detail":"4","min_zoom":6.8,"id":7791},"arcs":[[363],[364],[365]]},{"type":"LineString","properties":{"source":"naturalearthdata.com","kind":"region","sort_rank":256,"kind_detail":"4","min_zoom":6.8,"id":7792},"arcs":[366]},{"type":"MultiLineString","properties":{"source":"naturalearthdata.com","kind":"region","sort_rank":256,"kind_detail":"4","min_zoom":6.8,"id":7793},"arcs":[[367],[368],[369],[370],[371],[372],[373]]},{"type":"MultiLineString","properties":{"source":"naturalearthdata.com","kind":"region","sort_rank":256,"kind_detail":"4","min_zoom":6.8,"id":7794},"arcs":[[374],[375],[376],[377],[378],[379],[380],[381]]},{"type":"LineString","properties":{"source":"naturalearthdata.com","kind":"macroregion","sort_rank":257,"kind_detail":"3","min_zoom":6.7,"id":7795},"arcs":[382]},{"type":"MultiLineString","properties":{"source":"naturalearthdata.com","kind":"macroregion","sort_rank":257,"kind_detail":"3","min_zoom":6.7,"id":7796},"arcs":[[383],[384],[385],[386],[387]]},{"type":"LineString","properties":{"source":"naturalearthdata.com","kind":"macroregion","sort_rank":257,"kind_detail":"3","min_zoom":6.7,"id":7797},"arcs":[388]},{"type":"LineString","properties":{"source":"naturalearthdata.com","kind":"region","sort_rank":256,"kind_detail":"4","min_zoom":6.8,"id":7798},"arcs":[389]}]},"roads":{"type":"GeometryCollection","geometries":[{"type":"MultiLineString","properties":{"source":"naturalearthdata.com","kind":"major_road","sort_rank":379,"kind_detail":"secondary","min_zoom":3.0,"id":35347},"arcs":[[392],[393]]},{"type":"LineString","properties":{"source":"naturalearthdata.com","kind":"minor_road","sort_rank":355,"kind_detail":"tertiary","min_zoom":6.0,"id":35464},"arcs":[394]},{"type":"LineString","properties":{"source":"naturalearthdata.com","kind":"major_road","sort_rank":379,"kind_detail":"secondary","min_zoom":3.0,"id":35467},"arcs":[395]},{"type":"LineString","properties":{"source":"naturalearthdata.com","kind":"major_road","sort_rank":379,"kind_detail":"secondary","min_zoom":4.0,"id":35480},"arcs":[396]},{"type":"LineString","properties":{"source":"naturalearthdata.com","kind":"minor_road","sort_rank":355,"kind_detail":"tertiary","min_zoom":6.0,"id":35481},"arcs":[397]},{"type":"LineString","properties":{"source":"naturalearthdata.com","kind":"major_road","sort_rank":379,"kind_detail":"secondary","min_zoom":4.0,"id":35498},"arcs":[398]},{"type":"LineString","properties":{"source":"naturalearthdata.com","kind":"major_road","sort_rank":379,"kind_detail":"secondary","min_zoom":3.0,"id":35555},"arcs":[399]},{"type":"LineString","properties":{"source":"naturalearthdata.com","kind":"minor_road","sort_rank":355,"kind_detail":"tertiary","min_zoom":6.0,"id":35647},"arcs":[400]},{"type":"LineString","properties":{"source":"naturalearthdata.com","kind":"minor_road","sort_rank":355,"kind_detail":"tertiary","min_zoom":6.0,"id":35734},"arcs":[401]},{"type":"LineString","properties":{"source":"naturalearthdata.com","kind":"major_road","sort_rank":379,"kind_detail":"secondary","min_zoom":3.0,"id":35859},"arcs":[402]},{"type":"LineString","properties":{"source":"naturalearthdata.com","kind":"minor_road","sort_rank":355,"kind_detail":"tertiary","min_zoom":6.0,"id":35881},"arcs":[403]},{"type":"LineString","properties":{"source":"naturalearthdata.com","kind":"major_road","sort_rank":379,"kind_detail":"secondary","min_zoom":3.0,"id":35882},"arcs":[404]},{"type":"LineString","properties":{"source":"naturalearthdata.com","kind":"major_road","sort_rank":379,"kind_detail":"secondary","min_zoom":3.0,"id":36082},"arcs":[405]},{"type":"LineString","properties":{"source":"naturalearthdata.com","kind":"minor_road","sort_rank":355,"kind_detail":"tertiary","min_zoom":6.0,"id":36113},"arcs":[406]},{"type":"LineString","properties":{"source":"naturalearthdata.com","kind":"minor_road","sort_rank":355,"kind_detail":"tertiary","min_zoom":6.0,"id":36194},"arcs":[407]},{"type":"LineString","properties":{"source":"naturalearthdata.com","kind":"minor_road","sort_rank":355,"kind_detail":"tertiary","min_zoom":6.0,"id":36299},"arcs":[408]},{"type":"LineString","properties":{"source":"naturalearthdata.com","kind":"major_road","sort_rank":379,"kind_detail":"secondary","min_zoom":3.0,"id":36403},"arcs":[409]},{"type":"LineString","properties":{"source":"naturalearthdata.com","kind":"minor_road","sort_rank":355,"kind_detail":"tertiary","min_zoom":6.0,"id":36405},"arcs":[410]},{"type":"LineString","properties":{"source":"naturalearthdata.com","kind":"minor_road","sort_rank":355,"kind_detail":"tertiary","min_zoom":6.0,"id":36627},"arcs":[411]},{"type":"LineString","properties":{"source":"naturalearthdata.com","kind":"major_road","sort_rank":379,"kind_detail":"secondary","min_zoom":3.0,"id":36691},"arcs":[412]},{"type":"LineString","properties":{"source":"naturalearthdata.com","kind":"major_road","kind_detail":"secondary","sort_rank":379,"landuse_kind":"urban_area","min_zoom":4.0,"id":36731},"arcs":[413]},{"type":"MultiLineString","properties":{"source":"naturalearthdata.com","kind":"major_road","sort_rank":379,"kind_detail":"secondary","min_zoom":4.0,"id":36731},"arcs":[[414],[415]]},{"type":"LineString","properties":{"source":"naturalearthdata.com","kind":"major_road","sort_rank":379,"kind_detail":"secondary","min_zoom":3.0,"id":36736},"arcs":[416]},{"type":"LineString","properties":{"source":"naturalearthdata.com","kind":"minor_road","sort_rank":355,"kind_detail":"tertiary","min_zoom":6.0,"id":36793},"arcs":[417]},{"type":"LineString","properties":{"source":"naturalearthdata.com","kind":"major_road","sort_rank":379,"kind_detail":"secondary","min_zoom":3.0,"id":36851},"arcs":[418]},{"type":"LineString","properties":{"source":"naturalearthdata.com","kind":"minor_road","sort_rank":355,"kind_detail":"tertiary","min_zoom":6.0,"id":36899},"arcs":[419]},{"type":"LineString","properties":{"source":"naturalearthdata.com","kind":"minor_road","kind_detail":"tertiary","sort_rank":355,"landuse_kind":"urban_area","min_zoom":6.0,"id":37081},"arcs":[420]},{"type":"LineString","properties":{"source":"naturalearthdata.com","kind":"minor_road","sort_rank":355,"kind_detail":"tertiary","min_zoom":6.0,"id":37081},"arcs":[421]},{"type":"LineString","properties":{"source":"naturalearthdata.com","kind":"minor_road","kind_detail":"tertiary","sort_rank":355,"landuse_kind":"urban_area","min_zoom":6.0,"id":37096},"arcs":[422]},{"type":"LineString","properties":{"source":"naturalearthdata.com","kind":"minor_road","sort_rank":355,"kind_detail":"tertiary","min_zoom":6.0,"id":37096},"arcs":[423]},{"type":"LineString","properties":{"source":"naturalearthdata.com","kind":"major_road","kind_detail":"secondary","sort_rank":379,"landuse_kind":"urban_area","min_zoom":4.0,"id":37103},"arcs":[424]},{"type":"LineString","properties":{"source":"naturalearthdata.com","kind":"major_road","kind_detail":"secondary","sort_rank":379,"landuse_kind":"urban_area","min_zoom":3.0,"id":37164},"arcs":[425]},{"type":"LineString","properties":{"source":"naturalearthdata.com","kind":"major_road","sort_rank":379,"kind_detail":"secondary","min_zoom":3.0,"id":37164},"arcs":[426]},{"type":"LineString","properties":{"source":"naturalearthdata.com","kind":"minor_road","sort_rank":355,"kind_detail":"tertiary","min_zoom":6.0,"id":37167},"arcs":[427]},{"type":"LineString","properties":{"source":"naturalearthdata.com","kind":"major_road","kind_detail":"secondary","sort_rank":379,"landuse_kind":"urban_area","min_zoom":3.0,"id":37169},"arcs":[428]},{"type":"LineString","properties":{"source":"naturalearthdata.com","kind":"major_road","sort_rank":379,"kind_detail":"secondary","min_zoom":3.0,"id":37169},"arcs":[429]},{"type":"LineString","properties":{"source":"naturalearthdata.com","kind":"minor_road","kind_detail":"tertiary","sort_rank":355,"landuse_kind":"urban_area","min_zoom":6.0,"id":37172},"arcs":[430]},{"type":"LineString","properties":{"source":"naturalearthdata.com","kind":"minor_road","sort_rank":355,"kind_detail":"tertiary","min_zoom":6.0,"id":37172},"arcs":[431]},{"type":"LineString","properties":{"source":"naturalearthdata.com","kind":"major_road","sort_rank":379,"kind_detail":"secondary","min_zoom":4.0,"id":37176},"arcs":[432]},{"type":"LineString","properties":{"source":"naturalearthdata.com","kind":"major_road","sort_rank":379,"kind_detail":"secondary","min_zoom":3.0,"id":37224},"arcs":[433]},{"type":"LineString","properties":{"source":"naturalearthdata.com","kind":"major_road","sort_rank":379,"kind_detail":"secondary","min_zoom":3.0,"id":37253},"arcs":[434]},{"type":"LineString","properties":{"source":"naturalearthdata.com","kind":"major_road","sort_rank":379,"kind_detail":"secondary","min_zoom":4.0,"id":37277},"arcs":[435]},{"type":"LineString","properties":{"source":"naturalearthdata.com","kind":"major_road","kind_detail":"secondary","sort_rank":379,"landuse_kind":"urban_area","min_zoom":4.0,"id":37321},"arcs":[436]},{"type":"LineString","properties":{"source":"naturalearthdata.com","kind":"major_road","sort_rank":379,"kind_detail":"secondary","min_zoom":4.0,"id":37321},"arcs":[437]},{"type":"LineString","properties":{"source":"naturalearthdata.com","kind":"minor_road","sort_rank":355,"kind_detail":"tertiary","min_zoom":6.0,"id":37372},"arcs":[438]},{"type":"LineString","properties":{"source":"naturalearthdata.com","kind":"major_road","sort_rank":379,"kind_detail":"secondary","min_zoom":3.0,"id":37432},"arcs":[439]},{"type":"LineString","properties":{"source":"naturalearthdata.com","kind":"major_road","sort_rank":379,"kind_detail":"secondary","min_zoom":3.0,"id":37460},"arcs":[440]},{"type":"LineString","properties":{"source":"naturalearthdata.com","kind":"minor_road","kind_detail":"tertiary","sort_rank":355,"landuse_kind":"urban_area","min_zoom":6.0,"id":37599},"arcs":[441]},{"type":"LineString","properties":{"source":"naturalearthdata.com","kind":"minor_road","sort_rank":355,"kind_detail":"tertiary","min_zoom":6.0,"id":37599},"arcs":[442]},{"type":"LineString","properties":{"source":"naturalearthdata.com","kind":"major_road","sort_rank":379,"kind_detail":"secondary","min_zoom":3.0,"id":37613},"arcs":[443]},{"type":"LineString","properties":{"source":"naturalearthdata.com","kind":"major_road","kind_detail":"secondary","sort_rank":379,"landuse_kind":"nature_reserve","min_zoom":4.0,"id":37622},"arcs":[444]},{"type":"MultiLineString","properties":{"source":"naturalearthdata.com","kind":"major_road","sort_rank":379,"kind_detail":"secondary","min_zoom":4.0,"id":37622},"arcs":[[445],[446]]},{"type":"LineString","properties":{"source":"naturalearthdata.com","kind":"major_road","sort_rank":379,"kind_detail":"secondary","min_zoom":3.0,"id":37650},"arcs":[447]}]},"earth":{"type":"GeometryCollection","geometries":[{"type":"Polygon","properties":{"sort_rank":10,"source":"naturalearthdata.com","min_zoom":0.0,"kind":"earth","area":1568366174169},"arcs":[[448]]}]},"landuse":{"type":"GeometryCollection","geometries":[{"type":"MultiPolygon","properties":{"source":"naturalearthdata.com","kind":"urban_area","name":"","area":407456388,"sort_rank":11,"min_zoom":4.0},"arcs":[[[449]],[[450]],[[451]],[[452]],[[453]],[[454]],[[455]],[[456]]]},{"type":"Polygon","properties":{"kind":"nature_reserve","protect_class":"2","area":2019859968,"sort_rank":23,"source":"openstreetmap.org","min_zoom":4.0,"tier":2,"id":307421065},"arcs":[[457]]},{"type":"Polygon","properties":{"kind":"nature_reserve","protect_class":"6","area":1014280000,"sort_rank":23,"source":"openstreetmap.org","min_zoom":4.0,"tier":2,"id":-6454469,"osm_relation":true},"arcs":[[458]]}]}},"type":"Topology","transform":{"translate":[-5.625,11.1784018737],"scale":[0.001373291,0.0013324683]},"arcs":[[[3755,2928],[7,-3],[17,-46],[7,-9],[20,0]],[[2758,2477],[52,3],[50,10],[253,164],[31,15],[139,34],[28,12],[25,16],[0,1],[151,133],[39,39],[8,7],[14,9],[24,7],[160,1],[23,0]],[[3924,2917],[50,-12],[98,-40]],[[3806,2870],[27,11],[45,28],[46,8]],[[4072,2865],[24,-8]],[[4072,2865]],[[2699,2482],[59,-5]],[[2552,2229],[12,2],[14,6],[35,17],[7,5],[3,8],[13,184],[6,20],[22,10],[35,1]],[[2303,2328],[56,-12],[170,-81],[23,-6]],[[2008,2118],[19,32],[108,60],[12,14],[41,46],[17,14],[59,35],[39,9]],[[1932,1836],[5,1],[25,9],[26,10],[-21,71],[-3,40],[11,29],[13,21],[29,98],[-1,1],[-2,2],[-2,1]],[[2012,2119],[-4,-1]],[[1717,1905],[19,-7],[33,-24],[20,-3]],[[1575,1491],[9,3],[7,12],[0,13],[-9,26],[3,22],[16,6],[119,7],[10,7],[-25,187],[10,28],[4,17],[3,42],[-4,18],[-15,12],[14,14]],[[1820,1875],[19,-11],[13,-12],[3,-7],[2,-11],[5,-12]],[[1789,1871],[16,4],[15,0]],[[1898,1846],[17,-2],[6,-3],[6,-3],[5,-2]],[[1862,1822],[9,4],[12,14],[9,4],[6,2]],[[1200,1742],[2,0],[3,-3],[3,-5],[1,-1],[4,-15],[2,-4],[7,-3],[17,-3],[4,-2],[0,-8],[-5,-3],[-7,-2],[-6,-2],[-15,-14],[-6,-3],[-9,-9],[9,-8],[17,-4],[14,-1]],[[1054,1571],[8,5],[14,16],[11,18],[13,31],[7,13],[13,12],[6,3],[19,5],[7,4],[11,13],[9,3],[7,3],[11,7],[10,9],[4,7],[-6,4],[-9,0],[-4,4],[10,11],[2,3],[3,0]],[[1250,1654],[11,-3],[26,-10],[29,-8],[14,-5],[54,-44],[33,-20],[60,-47],[5,-2]],[[1235,1652],[15,2]],[[1041,1573],[7,-1],[6,-1]],[[1004,1497],[8,2],[5,7],[-1,6],[-16,9],[-5,7],[4,11],[10,13],[14,12],[11,8],[7,1]],[[1492,1517],[4,-2],[12,-13],[7,-4],[4,-1]],[[1482,1515],[10,2]],[[957,1499],[47,-2]],[[967,1151],[15,2],[14,5],[9,6],[1,0],[7,10],[15,48],[1,9],[-9,34],[2,43],[-6,21],[-13,17],[-21,18],[-10,13],[-19,43],[-21,20],[-4,7],[0,9],[3,6],[5,7],[9,25],[12,5]],[[1536,1498],[30,-5],[9,-2]],[[1519,1497],[17,1]],[[915,1171],[21,-4],[21,-13],[10,-3]],[[837,1154],[8,1],[21,8],[25,6],[24,2]],[[833,1155],[4,-1]],[[866,843],[22,4],[-7,32],[-27,64],[6,18],[13,16],[13,13],[11,14],[5,11],[-1,2],[-4,3],[-6,10],[-15,35],[-12,12],[-32,25],[-6,12],[4,39],[3,2]],[[847,863],[7,-6],[5,-8],[7,-6]],[[685,661],[8,0],[14,7],[1,2],[3,8],[1,12],[8,15],[26,15],[22,1],[7,8],[-18,36],[64,53],[3,3],[1,5],[-1,8],[2,12],[0,6],[2,5],[8,5],[11,1]],[[671,663],[14,-2]],[[596,614],[12,4],[21,4],[10,6],[6,8],[5,9],[5,9],[8,7],[8,2]],[[566,626],[16,0],[14,-12]],[[535,615],[31,11]],[[489,620],[16,-1],[15,-4],[15,0]],[[452,602],[7,2],[7,4],[7,6],[16,6]],[[443,603],[9,-1]],[[430,601],[13,2]],[[401,602],[29,-1]],[[249,494],[6,1],[5,4],[14,20],[29,24],[19,22],[11,9],[22,7],[24,15],[11,5],[11,1]],[[237,501],[4,-2],[4,-3],[4,-2]],[[186,482],[4,1],[5,6],[2,1],[26,5],[3,1],[3,3],[3,2],[5,0]],[[169,491],[4,-1],[9,-7],[4,-1]],[[185,460],[-3,3],[-18,11],[-5,2],[-4,8],[0,4],[5,1],[9,2]],[[243,320],[-6,1],[-6,9],[0,8],[4,8],[5,8],[4,8],[7,29],[1,17],[0,13],[-6,15],[-9,10],[-11,7],[-14,7],[-8,2],[-6,0]],[[198,462],[-13,-2]],[[225,0],[7,16],[23,23],[9,16],[1,12],[-5,78],[3,14],[11,10],[16,7],[6,7],[0,10],[-4,17],[0,62],[-7,26],[-26,21],[-8,2]],[[251,321],[-8,-1]],[[0,4026],[1,-11],[7,-12],[6,-12],[29,-20],[26,-18],[33,-23],[28,-19],[30,-21],[29,-20],[4,-4],[3,-4],[1,-5],[1,-4],[-4,-23],[-14,-71],[-13,-71],[-13,-71],[-13,-71],[-14,-72],[-14,-73],[-14,-73],[-13,-73],[-1,-4],[0,-3],[-1,0],[0,-4],[-1,-4],[0,-1],[0,-1],[-1,0],[-1,0]],[[81,3238],[0,1],[-1,0],[-1,0],[-79,0]],[[85,3248],[1,1],[109,34]],[[2465,549],[-10,-6]],[[4054,1774],[31,5],[11,5]],[[3971,1796],[25,-1],[31,-10],[27,-11]],[[3931,1740],[13,11],[15,27],[12,18]],[[3683,2225],[-13,4],[-20,21],[-10,32],[-7,80],[-9,9],[-11,9],[-17,20],[-18,33],[-53,52],[-1,18],[-8,22],[-18,32],[-46,65],[-22,14],[-36,48],[-42,31],[-16,17]],[[33,1230],[11,-6],[24,-55],[21,-16],[6,-41],[44,-40]],[[0,1211],[33,19]],[[259,1214],[14,-4],[77,-35],[9,-29],[27,-35],[-2,-45],[24,-18]],[[139,1072],[20,7],[22,48],[58,71],[20,16]],[[725,1184],[13,-40]],[[408,1048],[89,14],[94,14],[27,8],[15,29],[47,59],[45,12]],[[832,1159],[2,-1],[11,-3]],[[738,1144],[19,1],[12,12],[63,2]],[[3582,4096],[-3,-17],[6,-209],[2,-98],[4,-118],[29,-152],[6,-30],[12,-47],[34,-148],[17,-73],[43,-274],[0,-2]],[[195,3283],[10,-40],[80,-3],[23,-6],[13,-13],[21,-86],[40,-120],[-26,-40],[-52,-89],[-47,-38]],[[257,2848],[-56,2]],[[201,2850],[-112,-31],[-31,-3],[-19,-65],[-26,-61],[4,-31],[6,-27],[-14,-18],[-6,-53],[-3,-2]],[[0,2499],[82,-52],[125,-76],[42,-29],[70,-96],[-20,-101],[5,-35],[59,-25],[55,-8]],[[529,2096],[32,-2],[9,-30],[-9,-39],[-20,-18],[-1,-21],[19,-34],[-15,-64],[1,-43],[16,-36]],[[418,2077],[111,19]],[[1100,2071],[21,-8],[32,-66],[23,-105],[38,-76],[-2,-71],[0,-4],[-4,-7]],[[744,1799],[67,38],[55,12],[35,4],[14,33],[62,108],[83,66],[40,11]],[[686,1844],[10,-5],[18,-18],[30,-22]],[[649,1835],[37,9]],[[623,1841],[26,-6]],[[561,1809],[42,28],[20,4]],[[1764,3540],[28,-13],[6,-34]],[[1671,3447],[64,71],[29,22]],[[1939,3513],[28,-4],[39,-39],[71,-64],[14,-58],[77,-132],[37,-71],[47,-35],[60,-14]],[[1798,3493],[84,5],[57,15]],[[1196,3487],[20,-67],[63,-48],[15,-48],[2,-85]],[[682,3304],[174,56],[53,37],[100,11],[55,54],[21,14],[59,7],[52,4]],[[1605,3448],[66,-1]],[[1444,3237],[33,36],[53,24],[25,21],[-5,66],[10,34],[45,30]],[[288,3374],[57,-49],[43,-7]],[[195,3283],[46,42],[47,49]],[[452,3321],[114,-11],[116,-6]],[[388,3318],[64,3]],[[1380,3249],[64,-12]],[[1296,3239],[84,10]],[[2702,3194],[71,-6]],[[2312,3096],[87,26],[134,51],[115,16],[54,5]],[[2868,3191],[139,-42],[80,-39],[59,-45],[66,-63],[322,-91]],[[2773,3188],[95,3]],[[3139,267],[-24,37]],[[3931,1740],[-14,26],[4,22],[13,21],[2,21],[-32,8],[-47,3],[-29,15],[-20,24],[-20,16],[-16,26],[-5,34],[-11,25],[-41,45],[-21,16],[-28,13],[-13,5]],[[3653,2060],[-5,4],[-10,12],[-7,13],[-3,7]],[[1970,656],[2,-8],[6,-7],[12,-8],[4,-8],[1,-2],[3,-1]],[[2007,624],[3,-1],[4,-10],[-1,-7],[-2,-7],[-1,-9],[-2,-5],[-6,-14],[-2,-7],[15,-18],[12,-10],[8,-8],[-1,-11],[-29,-35],[-3,-7]],[[1998,622],[9,2]],[[2002,475],[-8,0],[-8,3],[-6,1]],[[1980,479],[-13,-14],[7,-14],[17,-9],[21,-4]],[[2056,439],[21,-8],[8,-21],[0,-4],[42,-64],[13,-16],[4,-2]],[[2012,438],[44,1]],[[1484,434],[31,-21],[26,-13],[45,-8],[24,-10],[13,-7],[3,-5],[-5,-10],[-15,-43],[5,-10],[24,-6],[9,-11],[11,-7],[17,-3],[14,-4],[4,-5],[0,-28],[5,-17],[15,-15]],[[1875,297],[18,-2],[19,-11],[14,-12],[13,-5]],[[1755,225],[13,4],[15,16],[16,9],[17,5],[17,10],[23,20],[9,5],[10,3]],[[1963,274],[10,-3],[12,-9],[10,-3]],[[1939,267],[14,3],[10,4]],[[2011,272],[11,-6],[14,-10],[0,-12],[-1,-7],[-3,-4],[-12,-11],[2,-7],[10,-11],[3,-7],[1,-8],[-1,-26],[-1,-8],[-7,-14],[-2,-9],[2,-24],[-2,-9],[-11,-17]],[[1995,259],[5,6],[3,7],[8,0]],[[1744,231],[11,-6]],[[1710,211],[19,7],[15,13]],[[2051,665],[4,7],[2,8],[5,18],[1,5],[-10,11],[-8,15],[-5,17],[0,11],[-5,20],[-10,12],[-28,22],[-3,14],[4,18],[9,15],[23,13],[0,15],[-2,6]],[[1987,695],[15,-4],[41,-25],[8,-1]],[[1970,656],[2,9],[7,13],[1,4],[7,13]],[[1818,672],[-38,19]],[[1780,691],[-21,-4],[-12,-9],[-2,-39],[9,-14],[18,-15],[8,-17],[15,-8],[27,-2],[14,-13],[6,-22],[1,-14],[-13,-9],[-17,-2]],[[1922,638],[-26,7],[-8,5],[-8,5],[-10,15],[-2,12],[-8,1]],[[1860,683],[-21,-7],[-21,-4]],[[1970,656],[-8,-7],[-14,-8],[-26,-3]],[[1640,605],[-7,3],[-18,2]],[[1615,610],[-60,-11],[-2,-8],[4,-18],[-6,-13],[-10,-9],[-14,-10],[-21,-2],[-12,-6],[-9,-10],[-7,-12],[-2,-17],[-11,-22],[3,-9],[8,-6],[6,-13],[2,-10]],[[1734,529],[-21,3],[-14,13],[1,21],[-7,20],[-42,22]],[[1651,608],[-11,-3]],[[1813,523],[-44,24]],[[1769,547],[-20,-6],[-15,-12]],[[1220,505],[4,-2],[18,-2],[3,-7],[2,-7],[12,-9],[13,-6],[3,-7],[-2,-10],[3,-9],[9,-4],[13,-3],[16,-8],[13,-8],[11,-8],[11,-6],[16,-3],[13,-1]],[[1378,405],[11,5],[13,9],[16,8],[13,3],[46,3],[7,1]],[[3758,607],[6,1],[14,14],[11,29],[-6,71],[5,10],[-40,39],[-5,16],[-4,23],[-19,50],[7,29],[-5,18],[-11,22],[-24,21],[-31,19],[-6,23],[-1,4]],[[3462,525],[-13,6]],[[3515,495],[-8,2],[-7,5],[-6,7],[-5,19],[-7,1]],[[3482,529],[-10,-3],[-10,-1]],[[2414,1103],[3,-10],[8,-18],[10,-15]],[[2469,1090],[9,-14],[-10,-31],[-17,-28],[-49,-32],[-16,-20],[-25,-12],[-24,-2],[-6,-14],[4,-14],[6,-7],[10,-84],[0,-46],[-18,-23],[-29,-16],[-11,-14],[19,-17],[13,-18],[-15,-20],[-15,-12],[-6,-4],[0,-16],[8,-27],[19,-7],[23,-3],[32,-29],[17,-9]],[[2435,1060],[8,3],[10,15],[16,12]],[[2442,591],[23,-1],[-4,-19],[-8,-20],[2,-8]],[[2388,571],[23,5],[31,15]],[[2609,603],[-2,-4],[-14,-11],[-24,-13],[-64,-23],[-29,-5]],[[2476,547],[-11,2]],[[3322,754],[1,16],[-2,6],[-4,7],[-4,3],[-6,1],[-5,3],[-5,8],[0,14]],[[2770,874],[6,-7],[-2,-15],[1,-14],[12,-13],[4,-14],[-1,-15],[-3,-12],[-8,-10],[-17,-14],[-19,-20],[-9,-15]],[[3383,1010],[28,-29],[22,-15]],[[3297,812],[0,2],[1,17],[-1,17],[-7,7],[-6,3],[-1,7],[4,15],[0,4],[-1,8],[1,4],[4,3],[5,1],[4,0],[3,1],[14,27],[7,25],[-5,21],[-9,6],[17,2],[14,4],[18,23],[24,1]],[[3433,966],[24,3],[21,10],[6,17],[0,14]],[[2969,1019],[-13,3],[-4,15],[3,18],[8,14],[-1,16],[-9,17],[-12,14],[-7,6]],[[3024,962],[-3,4],[2,4],[13,20],[4,12],[-3,14],[-9,9],[-12,16]],[[3016,1041],[-11,-5],[-17,-11],[-19,-6]],[[3278,807],[-49,25],[-10,1],[-17,22],[-21,11],[-10,2],[0,12],[2,13],[13,33],[1,19],[-6,21],[-10,16],[-32,7],[-8,4]],[[3131,993],[-10,-3],[-11,-4],[-16,-15],[-14,-6],[-56,-3]],[[3297,812],[-19,-5]],[[4034,790],[11,-13],[23,-17],[17,-20],[11,-10]],[[4096,683],[-14,-8],[-24,-7],[-22,-15],[-17,-32],[-3,-27],[3,-22],[-3,-13]],[[3945,1037],[-20,-62],[8,-31],[29,-17],[28,-19],[-1,-26],[-22,-30],[-5,-31],[23,-16],[49,-15]],[[4034,790],[7,8],[42,39],[13,17]],[[3449,531],[-4,7],[2,21],[-1,12],[-4,8],[-16,21],[-4,3],[-6,3],[-9,7],[-10,9],[-21,25],[-5,14],[-13,14],[-7,7],[-1,5],[-3,8],[-4,34],[-3,4],[-7,6],[-7,7],[-4,8]],[[3413,525],[-47,16],[-31,16],[-20,4]],[[3315,561],[-38,-12],[-48,-33],[-26,-25],[-9,-18],[-59,-97],[-20,-72]],[[3449,531],[-36,-6]],[[2609,603],[28,-21],[25,-37],[9,0]],[[2776,571],[17,-10],[62,-69],[16,-12],[17,-19],[17,-15],[19,-6],[17,-8],[14,-11],[12,-13],[49,-24],[12,-10],[8,-15],[20,-23],[56,-27],[3,-5]],[[2709,551],[27,1],[21,14],[19,5]],[[2683,552],[26,-1]],[[2671,545],[12,7]],[[2734,725],[-17,-1],[-21,-12],[-10,-12],[-16,-7],[-4,-19],[-9,-25],[-27,-21],[-11,-12],[-10,-13]],[[3006,763],[10,-2]],[[2838,659],[9,1],[26,25],[15,4],[15,6],[18,14],[18,6],[14,8],[10,18],[12,13],[17,7],[14,2]],[[3033,762],[13,-9],[14,-44],[8,-10]],[[3016,761],[8,0],[9,1]],[[3163,709],[12,4],[21,11],[32,5],[29,0],[15,3],[18,8],[22,4],[10,10]],[[2734,725],[36,-38],[12,-9],[22,-3],[6,0],[15,-6],[13,-10]],[[3145,722],[18,-13]],[[3068,699],[13,0],[15,9],[16,7],[18,6],[15,1]],[[2683,1125],[3,-4],[7,-7],[0,-16],[3,-15],[18,-7],[25,-7],[25,-12],[17,-21],[7,-26],[5,-38],[-9,-12],[-29,-13],[-22,-4]],[[2733,943],[-17,11],[-19,8],[-20,2]],[[2677,964],[-27,-1],[-15,-12],[-9,-17],[-10,-22],[-8,-29],[-16,-26],[-9,-17],[14,-14],[23,-8]],[[2756,875],[14,-1]],[[2620,818],[25,12],[29,21],[26,15],[28,7],[28,2]],[[2770,874],[6,4],[30,15],[45,13],[21,9],[-3,14],[-27,98],[1,12],[9,5],[14,5],[22,4],[12,0],[16,9],[5,17],[2,18],[7,16],[4,9]],[[2835,1293],[19,-18],[8,-3],[10,-1],[12,-5],[3,-17],[-2,-23],[6,-42],[5,-14],[8,-7],[24,-5],[6,-13],[0,-23]],[[2176,1169],[-21,-32],[-18,-15],[-20,-12],[-11,-12],[-11,-15],[-2,-22],[7,-24],[10,-20],[5,-16],[-32,-58],[-55,-51]],[[1599,1179],[7,0],[9,-4],[5,-3],[3,-5],[7,-19],[19,-33],[-1,-8],[-7,-11],[5,-3]],[[1723,1132],[7,-7],[-4,-73],[6,-34],[-1,-4],[6,-4]],[[1663,1090],[6,5],[5,20],[7,6],[20,6],[22,5]],[[1651,1096],[6,-5],[6,-1]],[[1646,1093],[1,1],[4,2]],[[1763,1014],[11,-2],[5,-5],[4,-7],[7,-7]],[[1737,1010],[9,1],[17,3]],[[1796,999],[30,-52],[10,-5],[1,-2],[2,-6],[1,-2],[10,-8],[5,-2],[8,-1],[10,-4],[30,-17],[15,-4],[8,-4],[13,-13],[4,-1]],[[1790,993],[6,6]],[[1994,912],[16,-1],[13,-9],[5,-10]],[[1943,878],[6,4],[10,5],[6,4],[17,15],[12,6]],[[2293,1142],[-22,3],[-3,17],[7,19],[10,17],[-3,19],[-14,10],[-9,1]],[[2259,1228],[-9,-2],[-15,-12],[-10,-10],[-21,-16],[-28,-19]],[[2321,1079],[-10,2],[-5,12],[11,20],[18,15],[5,11],[-16,5]],[[2324,1144],[-31,-2]],[[2414,1103],[-4,1]],[[2410,1104],[-35,-12],[-12,-3],[-18,-5],[-24,-5]],[[2674,1119],[-14,2],[-11,19],[-16,8],[-35,0]],[[2598,1148],[-9,-7],[-13,-5]],[[2576,1136],[-44,5]],[[2532,1141],[-22,-1],[-46,-11],[-23,-8],[-13,-10],[-5,-2],[-9,-6]],[[2683,1125],[-9,-6]],[[2884,1313],[27,-2],[30,-15],[20,-4]],[[2835,1293],[49,20]],[[2961,1292],[4,3]],[[2835,1293],[-94,-24],[-58,-54],[-15,-27],[-2,-28],[10,-25],[7,-10]],[[2176,1169],[-25,29],[-21,17],[-8,8],[1,24],[9,50],[5,15]],[[2467,1436],[26,-6],[29,-13],[24,-2]],[[2255,1336],[26,2],[34,7],[20,6],[35,38],[29,17],[68,30]],[[2140,1345],[16,-4],[33,-3]],[[2228,1340],[27,-4]],[[2189,1338],[39,2]],[[3606,1124],[9,-1],[19,-22],[13,-38],[0,-54],[2,-13]],[[3945,1037],[-132,-69],[-36,-1]],[[3777,967],[-120,29],[-8,0]],[[3931,1740],[3,-6],[-6,-13],[-26,-16],[-20,-26],[3,-25],[10,-19],[-3,-30],[-18,-38],[-7,-29],[9,-28],[-6,-21],[-21,-28],[-15,-35],[-4,-66],[5,-20],[12,-24],[4,-13],[10,-26],[13,-19],[16,-11],[33,-18],[28,-21],[-17,-59],[4,-11],[5,-12],[9,-27],[1,-29],[-8,-33]],[[3606,1124],[-17,2]],[[3589,1126],[-28,-3],[-11,-18],[4,-26],[0,-18],[-24,-22],[-28,-19],[-18,-10]],[[2965,1295],[12,-6],[20,-14],[17,-9]],[[3033,1267],[26,-1],[25,-5],[13,-1],[8,-11],[9,-14],[23,-8],[37,-9],[35,-18],[34,-26],[15,-26],[-1,-8],[3,-2],[5,-2],[5,-4],[3,-10],[-5,-7],[-8,-7],[-4,-9],[7,-8],[9,-1]],[[3014,1266],[19,1]],[[3293,1123],[7,-4],[1,-3],[13,-1]],[[3272,1090],[4,6],[1,10],[1,8],[2,5],[6,3],[7,1]],[[3346,1116],[31,-17],[49,-61],[37,-23],[21,-5]],[[3314,1115],[32,1]],[[3002,1363],[-21,-34],[-8,-29],[-8,-5]],[[3571,1337],[20,5],[9,14],[4,28],[-5,45],[4,46],[15,43],[5,40],[-8,42],[-11,38],[-9,52],[-14,12],[-12,22],[-18,82],[-1,43],[9,24],[17,13],[16,6],[14,25],[8,49],[-4,40],[8,25],[35,29]],[[3521,1367],[50,-30]],[[3606,1124],[-2,47],[-18,39],[-34,38],[-27,43],[-16,41],[-4,21],[5,10],[11,4]],[[2828,1459],[5,-5],[29,-24],[13,-19],[14,-16],[10,-6]],[[2916,1393],[2,-6],[2,-7],[4,-1]],[[2899,1389],[11,4],[6,0]],[[2939,1384],[12,-13],[11,-6],[33,-1],[7,-1]],[[2924,1379],[5,2],[4,3],[6,0]],[[3150,1469],[2,19],[-5,33],[3,18],[12,22],[4,21],[-19,41],[-26,32],[-14,30],[19,24],[8,29],[-10,33],[-1,18],[11,12],[11,22],[12,32],[-6,25],[-26,42]],[[3094,1473],[31,-1],[25,-3]],[[3002,1363],[-1,14],[-15,25],[2,24],[24,24],[42,15],[40,8]],[[2728,1774],[0,16],[8,32],[25,21],[30,16],[27,8],[18,12],[-1,20],[-7,11],[-4,4]],[[2207,325],[9,18],[0,38],[7,30],[13,26],[13,22],[18,15],[68,39],[27,8],[23,3],[51,16],[19,3]],[[2160,326],[47,-1]],[[2144,324],[16,2]],[[2144,324],[3,-6],[4,-16],[4,-48],[10,-12],[21,-16],[58,-37],[13,-14],[0,-17],[-10,-11],[-12,-7],[-19,-3],[-14,-15],[-17,-13]],[[2185,109],[-26,0],[-22,3],[-19,5]],[[2118,117],[-19,-7],[-18,-18],[-11,-14],[-13,-30],[-3,-7]],[[2465,549],[6,-25],[5,-39],[-4,-10],[-1,-13],[7,-17],[1,-18],[-2,-16],[-15,-8]],[[2462,403],[-31,1],[-27,5]],[[2404,409],[-12,-2],[-7,-88],[1,-23],[9,-21],[18,-15],[18,-6]],[[2467,255],[19,-2],[15,-8],[13,-13],[9,-9],[0,-3],[1,-11],[5,-20],[11,-22],[14,-18],[15,-14],[14,-9],[17,-6],[9,-12],[3,-14],[12,-7],[15,-5],[12,-1]],[[2431,254],[36,1]],[[2874,143],[11,0],[20,-4],[8,-11],[3,-8],[24,-12]],[[2781,82],[14,7],[11,7],[21,16],[14,19],[20,10],[13,2]],[[2699,135],[35,-9],[6,-7],[3,-12],[7,-10],[13,-13],[18,-2]],[[2651,81],[7,5],[9,18],[10,12],[22,19]],[[2014,82],[-7,-12],[-7,-16],[8,-7],[32,-1],[14,-5]],[[1769,13],[28,-4],[28,-9]],[[1705,0],[2,1],[22,6],[40,6]],[[1797,129],[19,-8],[11,-10]],[[1693,0],[1,3],[6,35],[5,13],[10,14],[30,38],[22,17],[30,9]],[[1880,123],[28,-1],[19,-10],[30,-7],[26,-9],[25,-12],[6,-2]],[[1827,111],[24,3],[29,9]],[[2054,41],[6,-12],[4,-29]],[[2106,6],[13,-2],[6,-4]],[[2102,0],[4,6]],[[3188,219],[-19,4],[-8,21],[-13,19],[-9,4]],[[3336,112],[-16,11],[-25,29],[-18,11],[-24,6],[-14,9],[-12,22],[-15,20]],[[3212,220],[-24,-1]],[[3482,0],[-26,12],[-18,21],[-12,9],[-13,21],[-15,10],[-10,5],[0,21],[-9,15],[-21,5]],[[3358,119],[-22,-7]],[[3530,14],[-10,-14]],[[2978,132],[16,6],[32,37],[19,15],[17,6],[15,8],[12,9],[9,9],[14,17],[27,28]],[[2967,134],[11,-2]],[[2940,108],[15,20],[12,6]],[[2940,108],[-1,-8],[0,-30],[-8,-12],[-7,-20],[-4,-19],[-10,-14],[-4,-5]],[[3723,609],[29,-2]],[[3515,495],[37,3],[38,12],[29,28],[12,21],[15,21],[15,17],[22,8],[40,4]],[[3752,607],[6,0]],[[3758,607],[1,-8],[0,-19],[-5,-18],[7,-23],[22,-30],[35,-27],[75,-18],[19,-2]],[[4012,560],[4,-1]],[[3912,462],[25,40],[65,54],[10,4]],[[3515,495],[-43,-60],[-18,-11],[-21,-27],[-10,-28],[41,-63],[23,-17],[34,-13],[32,-19]],[[3585,271],[55,-14],[14,-7],[8,-6],[25,-12],[8,-7],[13,-22],[-12,-27],[2,-21],[-1,-13]],[[3572,269],[13,2]],[[3570,270],[2,-1]],[[3553,257],[17,13]],[[3697,142],[-21,8]],[[3676,150],[-22,-9],[-20,-20],[-28,-18],[-26,-22],[-19,-10],[-9,-16],[-6,-23],[-10,-14],[-6,-4]],[[4096,502],[-23,5],[-24,17],[-8,25],[-15,7],[-10,3]],[[3530,14],[6,-14]],[[4096,407],[-16,2]],[[4080,409],[-12,-6],[-24,-21],[-14,-29],[-13,-13],[-10,-12],[-17,-37],[6,-16],[12,-17],[-4,-11],[-4,-10],[-1,-12],[-3,-26],[-8,-10],[-7,-11],[4,-12],[-2,-11],[-9,-11],[1,-16],[9,-8],[12,0],[14,-4]],[[4069,128],[20,-8],[7,-7]],[[4096,93],[-4,-6],[-8,-8],[-10,-9],[-8,-10],[-3,-11],[-6,-12],[-8,-9],[-12,-4],[-6,-7],[0,-11],[-4,-6]],[[4010,116],[13,2],[12,5],[14,4],[20,1]],[[4074,2251],[21,6],[1,0]],[[3916,2263],[28,-4],[28,-6]],[[3683,2225],[46,0],[135,13],[52,25]],[[4005,2259],[38,-1],[31,-7]],[[3972,2253],[33,6]],[[2764,1441],[-13,22],[-17,10]],[[2734,1473],[-18,-11],[-7,-12],[-12,-33],[-18,-4]],[[2828,1459],[-27,-14],[-37,-4]],[[2679,1413],[-13,5],[-12,2]],[[2654,1420],[-9,-10],[-9,-14],[-10,-7]],[[2574,1389],[-9,16],[-19,10]],[[2626,1389],[-43,2]],[[2583,1391],[-9,-2]],[[2522,1609],[-13,5],[-20,0],[-21,3],[-64,22],[-39,3],[-9,10],[-8,7]],[[2348,1659],[-29,-10],[-13,-9],[-5,-7],[-6,-7],[-15,-13],[-17,-9],[-19,-7],[-28,-6],[-6,-4]],[[2546,1415],[-15,13],[3,23],[3,2],[10,4],[2,2],[1,1],[4,17],[5,3],[5,1],[4,2],[1,7],[-1,6],[-4,10],[0,7],[8,24],[19,27],[-8,19],[-3,14],[-1,13],[-5,9],[-15,5]],[[2559,1624],[-37,-15]],[[2828,1459],[1,9],[9,13],[6,15],[-1,23],[-7,20],[-12,23],[-18,12],[-17,1],[-5,14],[-16,18],[-12,16],[-2,17],[3,75],[-29,59]],[[2253,2106],[-11,0],[-16,5],[-7,6],[1,16],[-7,19],[-27,35],[-39,37]],[[2571,1760],[-16,3],[-24,99],[-22,65],[-5,8],[-15,33],[1,25],[5,23],[-14,13],[-22,7],[-12,19],[-5,40],[-11,6],[-17,5],[-32,32],[-24,12],[-24,0]],[[2334,2150],[-18,-10],[-12,-12],[-8,-12],[-10,-2]],[[2286,2114],[-13,4]],[[2273,2118],[-11,-5],[-9,-7]],[[2728,1774],[-31,-8],[-23,-2],[-38,-9]],[[2636,1755],[-17,4],[-21,3]],[[2598,1762],[-27,-2]],[[3628,2096],[-11,-1],[-38,-36],[-103,-53],[-94,-22],[-52,-26]],[[3330,1958],[-18,3]],[[3312,1961],[-55,-22],[-37,-1],[-33,-5],[-31,-9],[-31,-2]],[[2978,2045],[9,-17],[9,-36],[27,-31],[40,-18],[38,-8],[21,-9],[3,-4]],[[2824,1914],[36,73],[30,23],[29,4],[59,31]],[[2824,1914],[-26,26],[-24,27],[-40,74],[-2,30],[6,29],[1,13],[-44,24],[-62,45],[-22,13],[-33,42]],[[3628,2096],[10,0],[23,9],[19,19],[10,29],[5,34],[-5,26],[-7,12]],[[1220,505],[-4,-13],[-5,-23],[3,-51],[-24,-73],[3,-26],[5,-23],[7,-25],[12,-20],[13,-15],[15,-12],[6,-8],[9,-36],[3,-28],[14,-14],[16,-2],[-1,-21],[-23,-100],[3,-15]],[[1217,504],[-3,7],[3,13],[0,10],[-5,22],[-5,3],[-7,3],[-3,4]],[[1220,505],[-3,-1]],[[705,390],[-10,5],[2,12],[3,11],[7,8],[12,3],[8,7],[1,10],[-5,8],[-1,12],[1,34],[8,37],[-2,22],[-10,45],[-9,12],[-37,21],[-12,6],[-11,2]],[[733,175],[11,4],[15,13],[11,14],[6,11],[7,19],[2,21],[-2,15],[-10,16],[-12,16],[-9,20],[-5,23],[2,13],[4,20],[-9,7],[-19,3]],[[725,390],[-20,0]],[[703,202],[8,-5],[8,-17],[6,-4],[8,-1]],[[662,0],[-35,24],[-9,1],[-4,4],[-5,11],[-4,12],[5,17],[18,36],[4,16],[1,17],[9,18],[10,9],[51,37]],[[1481,911],[10,7],[2,7],[-2,17],[2,10],[7,18],[1,8]],[[1441,937],[5,0],[3,-1],[10,-12],[5,-4],[6,-1],[6,-1],[5,-7]],[[1270,674],[4,10],[2,14],[3,7],[13,4],[12,8],[9,11],[4,11],[-5,56],[7,17],[25,6],[11,7],[7,16],[9,29],[26,41],[8,7],[28,16],[8,3]],[[1262,680],[8,-6]],[[1248,655],[2,0],[3,16],[3,9],[6,0]],[[1245,655],[3,0]],[[1210,571],[12,1],[-5,12],[1,13],[7,12],[12,4],[-4,9],[-2,3],[-4,3],[15,26],[3,1]],[[1199,576],[5,-1],[6,-4]],[[1197,566],[2,10]],[[856,404],[-14,1],[-14,14],[-2,19],[3,12],[20,48],[5,22],[3,23],[0,18],[2,15],[6,15],[4,14],[-5,9],[-14,1],[-10,4],[0,14],[4,18],[0,13],[-6,8],[-11,5],[-11,1]],[[816,678],[-21,-16],[-14,-2]],[[731,655],[-13,7],[-5,5],[-5,3]],[[781,660],[-15,2]],[[766,662],[-17,-4],[-18,-3]],[[1175,560],[-9,7],[-12,6],[-18,5]],[[1136,578],[-16,-3],[-10,-7],[-11,-5],[-18,-2]],[[1197,566],[-11,-4],[-11,-2]],[[1081,561],[-19,1],[-18,2]],[[1044,564],[-15,-4],[-19,-18],[-22,-50],[-4,-12],[-6,-26],[-8,-16],[-11,-15],[-15,-9],[-15,-2]],[[929,412],[-26,11]],[[903,423],[-13,-4],[-9,-6],[-12,-5],[-13,-4]],[[1599,1179],[-10,-1],[-9,-3],[-4,-4],[-3,-11],[-6,-2]],[[1567,1158],[-13,6]],[[1554,1164],[-20,0],[-3,-3],[0,-5],[-2,-6],[-12,-5],[1,-7],[6,-7],[10,-4],[4,-4],[-3,-10],[-4,-11],[-4,-6],[4,-7],[-2,-5],[-4,-4],[-4,-4],[1,-9],[1,-6],[-1,-5],[-4,-5],[3,-1],[0,-5],[-9,-5],[0,-8],[4,-20],[-2,-9],[-11,-11],[-2,-14]],[[1601,1207],[-2,-28]],[[1005,1164],[15,-14]],[[1033,1151],[10,-7],[12,-11],[15,-7],[1,-12],[-10,-8],[-7,-11],[3,-14],[-1,-28],[-4,-15],[2,-11],[12,-18],[7,-32],[1,-29],[14,-21],[31,-23],[17,-5]],[[1020,1150],[13,1]],[[1248,1023],[26,-2],[22,-5],[18,-2]],[[1136,899],[24,8],[17,11],[9,9],[4,8],[-1,6],[0,6],[3,14],[17,27],[5,17],[11,12],[23,6]],[[1349,1020],[56,-2],[28,-8],[45,-24],[23,-8]],[[1314,1014],[35,6]],[[1818,1325],[-13,2],[-12,14],[-10,18],[-11,8]],[[1772,1367],[-60,-13],[-17,-15],[-3,-16],[-7,-10],[-41,-22],[-15,-15],[-7,-14],[-5,-35],[-9,-14],[-7,-6]],[[2040,1288],[-25,2],[-23,5],[-19,10],[-17,13],[-23,14]],[[1933,1332],[-23,0],[-14,-16],[-12,-3]],[[1884,1313],[-15,10],[-18,6]],[[1851,1329],[-16,-1],[-17,-3]],[[2137,1312],[-25,5],[-11,2]],[[2101,1319],[-18,-4],[-23,-23],[-20,-4]],[[2140,1345],[0,-11],[-1,-16],[-2,-6]],[[2264,1566],[-19,1],[-20,9],[-15,11]],[[2215,1429],[25,6],[15,18],[23,38],[32,45],[7,21],[-14,9],[-21,4]],[[2282,1570],[-18,-4]],[[2158,1435],[33,-6],[24,0]],[[2140,1345],[-7,37],[0,29],[9,20],[16,4]],[[2210,1587],[-6,16],[-19,35],[-3,35],[0,14],[-2,16],[-7,8],[-14,7],[-15,3],[-12,11],[-8,16],[-17,10],[-68,15],[-25,13],[-31,31],[-15,20],[-5,8],[-1,1]],[[1601,1207],[-5,4],[-11,15],[-9,22],[-8,82],[7,43],[-11,48],[6,55],[0,11],[-4,6]],[[1187,3108],[4,-9],[7,-20],[-7,1],[-15,3],[-8,0],[-2,-1],[-3,-2],[-2,-1],[-2,0],[-4,2],[-2,0],[-2,-2],[-1,-3],[-2,-7],[-7,-2],[-9,5],[-9,8],[-4,7],[-5,2],[-13,5],[-6,2],[-9,0],[-8,-1],[-5,-4],[-1,-3],[1,-2],[2,-2],[1,-3],[0,-3],[-1,-3],[-3,-3],[-2,-2],[-2,-2],[-2,-1],[0,-3],[0,-2],[3,-4],[0,-2],[-1,-7],[-5,-2],[-6,-2],[-4,-3],[0,-5],[1,-7],[0,-6],[-6,-3],[-4,1],[-10,8],[-4,4],[-3,0],[-3,0],[-3,1],[-2,2],[-1,3],[1,3],[7,21],[0,7],[-21,-5],[-8,1],[3,7],[6,7],[9,6],[34,17],[7,4],[1,6],[-3,2],[-8,3],[-4,2],[-2,3],[-10,13],[-4,3],[-5,2],[-6,0],[-6,-2],[-10,-6],[-6,-2],[-7,1],[-1,3],[5,10],[2,6],[1,5],[0,6],[-3,12],[-1,21],[-3,10],[-7,15],[-12,18],[-5,9],[10,-2],[8,-4],[24,-19],[3,-4],[3,-5],[0,-5],[-1,-10],[2,-5],[3,-5],[4,-1],[5,0],[4,-2],[4,-4],[5,-9],[3,-4],[24,-13],[9,-6],[5,-2],[6,-2],[4,2],[3,4],[2,11],[3,4],[4,0],[6,-4],[12,-19],[7,-8],[13,-6],[8,-6],[34,-9],[8,-7]],[[1187,3108],[4,-9],[7,-20],[-7,1],[-15,3],[-8,0],[-2,-1],[-3,-2],[-2,-1],[-2,0],[-4,2],[-2,0],[-2,-2],[-1,-3],[-2,-7],[-7,-2],[-9,5],[-9,8],[-4,7],[-5,2],[-13,5],[-6,2],[-9,0],[-8,-1],[-5,-4],[-1,-3],[1,-2],[2,-2],[1,-3],[0,-3],[-1,-3],[-3,-3],[-2,-2],[-2,-2],[-2,-1],[0,-3],[0,-2],[3,-4],[0,-2],[-1,-7],[-5,-2],[-6,-2],[-4,-3],[0,-5],[1,-7],[0,-6],[-6,-3],[-4,1],[-10,8],[-4,4],[-3,0],[-3,0],[-3,1],[-2,2],[-1,3],[1,3],[7,21],[0,7],[-21,-5],[-8,1],[3,7],[6,7],[9,6],[34,17],[7,4],[1,6],[-3,2],[-8,3],[-4,2],[-2,3],[-10,13],[-4,3],[-5,2],[-6,0],[-6,-2],[-10,-6],[-6,-2],[-7,1],[-1,3],[5,10],[2,6],[1,5],[0,6],[-3,12],[-1,21],[-3,10],[-7,15],[-12,18],[-5,9],[10,-2],[8,-4],[24,-19],[3,-4],[3,-5],[0,-5],[-1,-10],[2,-5],[3,-5],[4,-1],[5,0],[4,-2],[4,-4],[5,-9],[3,-4],[24,-13],[9,-6],[5,-2],[6,-2],[4,2],[3,4],[2,11],[3,4],[4,0],[6,-4],[12,-19],[7,-8],[13,-6],[8,-6],[34,-9],[8,-7]],[[4095,3814],[-18,7],[0,9],[12,9],[7,14]],[[4096,3917],[-1,6],[-6,21],[-9,19],[-9,19],[-6,21],[-9,25],[-12,22],[-9,21],[-15,10],[-9,12],[-5,3]],[[1197,3561],[-6,12],[9,31],[3,25],[9,28],[24,24],[3,13],[6,6],[36,0],[12,3],[27,9],[39,6],[3,10],[-24,18],[-6,16],[12,18],[12,53],[9,25],[33,31],[27,21],[3,7],[3,18],[3,6],[27,22],[15,22],[12,9],[24,12],[34,25],[15,12],[33,25],[9,6],[33,4],[38,18]],[[4095,3814],[-9,-24],[-18,-19],[-27,-6],[-15,-12],[-9,-4],[-18,7],[-18,12],[-99,9],[-33,6],[-9,-6],[-39,0],[-42,-6],[-18,-3],[-24,3],[-15,-3],[-24,-12],[-21,-3],[-24,0],[-24,6],[-21,-3],[-39,-3],[-60,-13],[-9,-6],[-6,-25],[-51,-21],[-36,-19],[-24,-22],[-24,-12],[-22,-16],[-39,-24],[-6,-7],[-27,-9],[-9,-6],[-18,-25]],[[3218,3548],[-12,-15],[-18,-13]],[[2747,4096],[3,-6],[30,-37],[9,-16],[0,-24],[6,-25],[6,-19],[0,-25],[3,-21],[18,-37],[39,-62],[6,-19],[6,-37],[9,-15],[18,-7],[9,-6],[36,-43],[36,-34],[30,-22],[21,-12],[36,-19],[24,-15],[24,-3],[15,-7],[18,-18],[15,-19],[15,-9],[9,-19]],[[3188,3520],[-12,-9],[-12,-18],[-9,-19]],[[4096,3814],[-1,0]],[[206,3220],[6,9],[12,10],[33,9],[48,25],[48,31],[21,21],[39,25],[36,9],[18,10],[24,9],[21,12],[21,22],[6,6],[18,3],[21,-3],[9,6],[9,22],[6,9],[13,3],[24,0],[21,0],[36,13],[27,15],[18,3],[30,7],[24,9],[24,22],[36,21],[12,3],[24,-3],[18,-9],[9,0],[6,9],[33,0],[51,3],[6,3],[18,34],[21,19],[-3,9],[0,47],[6,21],[6,10],[9,0],[15,-22],[9,-37],[9,-9],[27,-7],[12,-9],[12,-25],[12,-15],[30,-9]],[[59,3065],[15,19],[15,19],[27,49],[9,9],[12,3],[18,13],[18,18],[27,16],[6,9]],[[3155,3474],[0,-25],[-9,-43],[-6,-50],[-9,-37],[-6,-12],[-9,-34],[-18,-31],[-9,-28],[-12,-16],[-12,-9],[-9,-12],[-12,-25],[-9,-9],[-30,-16],[-12,-9],[-21,-31],[-21,-25],[-9,-3],[-9,3],[-18,16],[-21,6],[-27,-3],[-18,3],[-24,-6],[-12,-6],[-21,-28],[-9,-7],[-42,-12],[-33,-12],[-30,-19],[-30,-12],[0,-13],[-30,-3],[-66,-15],[-30,-6],[-15,3],[-82,24],[-51,19],[-27,6],[-12,-3],[-18,-12],[-15,-6],[-24,-4],[-18,-3],[-21,0],[-12,-3],[-33,-18],[-21,-3],[-33,-19],[-36,-9],[-39,-6],[-6,-4],[-30,-21],[-24,0],[-18,-3],[-18,-13],[-21,-6]],[[1287,2836],[6,10],[0,18],[-9,31],[-9,12],[-6,22],[-6,13],[0,9],[18,18],[3,19],[9,34],[12,28],[15,15],[21,7],[24,6],[15,15],[0,22],[-33,49],[-6,31],[0,22],[9,16],[6,37],[12,3],[3,9],[6,22],[15,28],[3,12],[0,40],[6,19],[3,28],[3,49],[-21,6],[-24,0],[-15,7],[-12,6],[-9,18],[-24,3],[-12,10],[-36,9],[-12,6],[-15,3],[-30,13]],[[1948,2864],[-48,9],[-21,7],[-42,18],[-36,9],[-42,7],[-36,15],[-12,6],[-39,44],[-12,0],[-12,-3],[-21,0],[-30,3],[-21,-3],[-21,-4],[-27,-21],[-19,-22],[-18,-12],[-15,-3],[-45,-3],[-27,-10],[-18,-12],[-42,-37],[-27,-13],[-30,-3]],[[1287,2836],[-18,-6],[-6,-3],[0,-15],[-15,-19],[0,-9],[3,-25],[-9,-25],[0,-22],[-3,-34],[-9,-12],[-24,-12],[-36,-50],[-27,-28],[-18,-21],[-9,-28],[-3,-13]],[[3218,3548],[15,-25],[24,-21],[9,-19],[3,-31],[27,-65],[9,-18],[40,-47],[6,-15],[6,-19],[6,-34],[12,-31],[12,-40],[18,-43],[15,-22],[15,-34],[21,-28],[21,-25],[18,-15],[12,-25],[15,-15],[9,-7],[15,-15],[18,-19],[33,-43],[39,-40],[27,-19],[12,-21],[9,-16],[21,-37],[15,-31],[9,-37],[9,-31],[12,-22],[18,-12],[12,-19],[15,-6],[9,-9],[9,-28],[6,-12],[36,-47],[21,-22],[33,-31],[6,0]],[[0,2903],[17,11],[15,15],[9,28],[6,34],[-3,37],[6,22],[9,15]],[[3915,2452],[42,-34],[27,-24],[15,-25],[30,-65],[12,-31],[3,-34],[9,-62],[9,-31]],[[1113,2514],[0,-24],[6,-44],[-6,-31],[0,-28],[6,-18],[12,-25],[3,-25],[-3,-15],[-21,-31],[-6,-19],[-9,-24],[-15,-44],[-6,-28],[-39,-31],[-18,-34],[-12,-9],[-24,-28],[-9,-18],[-18,-22],[-9,-15]],[[774,2041],[18,-16],[33,-18],[27,-6],[63,-4],[30,4]],[[3855,1728],[9,16],[12,31],[24,34],[6,21],[6,16],[12,18],[27,31],[12,10],[24,24],[21,19],[12,12],[9,13],[6,21],[9,44],[6,21],[21,50],[6,18],[-6,10]],[[945,2001],[-15,-16],[-6,-15],[-12,-31],[-15,-19],[-9,-31],[-9,-12],[-18,-28],[-6,-9],[-36,-22],[-21,-25],[0,-25],[-24,-52],[-18,-56],[-12,-22],[-12,-9],[-18,-22]],[[531,1567],[-4,11]],[[527,1578],[-3,8]],[[542,1546],[-6,6],[-5,15]],[[714,1607],[-21,-34],[-9,-12],[-12,-9],[-33,3],[-43,-13],[-48,0],[-6,4]],[[3311,1428],[9,6],[34,6],[36,3],[18,13],[12,12],[15,9],[15,4],[45,9],[9,12],[21,28],[15,9],[24,7],[9,6],[21,3],[27,18],[21,4],[21,9],[24,6],[15,3],[18,9],[18,25],[12,13],[24,21],[12,6],[9,19],[24,15],[6,10],[30,15]],[[524,1586],[-24,-13],[-39,-15],[-12,-6],[-36,-6],[-15,-16],[-6,-31],[-18,-25],[-21,-9],[-15,-18],[-12,0],[-24,0],[-21,-7],[-36,-6],[-15,-6],[-12,-12],[-18,-28],[-12,-7],[-12,-3],[-21,-9],[-48,-6],[-24,-16],[-15,-9],[-27,-6],[-21,0],[-20,-2]],[[509,1239],[3,12],[15,41],[6,18],[3,41],[-9,27],[-6,25],[0,25],[-3,37],[15,59],[9,22]],[[116,908],[-3,6]],[[113,914],[-9,22],[-18,28],[-30,24],[-21,31],[-15,22],[-20,12]],[[2990,889],[12,19],[15,15],[7,5]],[[3024,928],[26,20],[15,16],[30,37],[45,37],[21,22],[18,9],[9,6],[18,40],[18,22],[12,9],[21,31],[15,13],[24,21],[24,25],[6,31],[-12,15],[-3,13],[0,28],[-6,31],[0,52],[6,22]],[[2981,883],[9,6]],[[2957,869],[24,14]],[[2645,756],[60,3],[24,-3],[18,6],[21,0],[42,13],[18,12],[42,44],[18,15],[27,12],[39,10],[3,1]],[[599,756],[-12,31],[-6,34],[-6,13],[-18,24],[-42,41],[-6,15],[0,16],[9,31],[3,27],[6,59],[-6,31],[0,78],[3,24],[-3,13],[-9,31],[-3,15]],[[2990,889],[15,10],[27,12],[9,3]],[[3041,914],[39,12],[60,35],[36,15],[18,3],[21,-3],[21,-9],[6,-6],[15,-22],[21,-19],[27,-12],[40,-28],[36,-19],[21,-12],[21,-9],[39,-3],[18,-3],[30,-13],[42,-15],[12,-3],[66,-10],[33,3],[24,-9],[33,-15],[24,-10],[36,-6]],[[116,908],[6,-12]],[[122,896],[6,-10],[18,-9],[18,-6],[39,-10],[21,-3],[39,-34],[15,-6],[24,-12],[72,-16],[18,-6],[48,-3],[39,0],[48,-19],[27,-6],[21,-3],[24,3]],[[3780,756],[39,-9],[12,0]],[[2474,657],[30,9],[27,16],[12,6],[21,16],[27,9],[24,18],[18,13],[12,12]],[[3831,747],[39,-9],[27,-13],[27,-21],[30,-22],[30,-34],[30,-28],[9,-6],[27,37],[39,19],[7,1]],[[2374,589],[18,9],[70,53],[12,6]],[[2981,883],[9,-9],[16,-18]],[[3006,856],[32,-38],[18,-22],[30,-55],[12,-28],[9,-16],[18,-37],[9,-9],[15,-9],[3,-16],[15,-62],[9,-62],[6,-15]],[[813,413],[-3,31],[3,46],[-6,37],[-18,28],[-15,31],[-12,12],[-18,13],[-9,18],[-30,19],[-9,12],[-12,25],[-24,25],[-15,9],[-34,22],[-12,15]],[[1720,273],[15,7],[18,9],[12,12],[15,3],[15,19],[21,37],[12,9],[36,13],[33,18],[21,6],[33,7],[12,9],[18,25],[6,9],[15,0],[39,0],[51,0],[48,9],[24,13],[21,15],[42,34],[21,19],[24,12],[30,3],[39,10],[33,18]],[[1537,230],[9,9],[45,22],[48,12],[33,0],[18,-3],[30,3]],[[969,4],[-8,25]],[[961,29],[-7,25],[-9,40],[-12,34],[-12,18],[-12,7],[-24,6],[-15,15],[-6,16],[-18,31],[-27,31],[-24,34],[-15,28],[-3,24],[6,16],[27,43],[3,16]],[[1112,0],[28,7],[39,6],[18,0],[57,3],[78,4],[42,6],[27,15],[15,10],[15,21],[9,19],[9,34],[15,18],[12,13],[27,12],[9,9],[25,50],[0,3]],[[3241,219],[10,-45],[3,-28],[6,-30],[9,-35],[2,-14]],[[3191,441],[3,-31],[9,-56],[6,-25],[21,-65],[11,-45]],[[3271,67],[1,-16],[-3,-35],[-3,-16]],[[0,92],[23,-11],[27,-15],[12,-3],[24,0],[18,-12],[15,-19],[30,-28],[2,-4]],[[4096,4096],[0,-4096],[-4096,0],[0,4096],[4096,0]],[[943,0],[21,33],[32,-25],[-1,-8],[-52,0]],[[2392,785],[-37,6],[0,25],[33,10],[4,-41]],[[3031,930],[19,-32],[-23,-32],[-33,-16],[-16,25],[-32,-9],[16,50],[69,14]],[[139,907],[-8,-16],[-26,15],[20,19],[14,-18]],[[540,1566],[-13,1],[0,25],[32,-8],[-19,-18]],[[2352,1767],[-18,7],[-11,51],[44,-42],[-15,-16]],[[4096,2118],[-17,16],[17,15],[0,-31]],[[1053,2476],[-13,20],[29,22],[2,-14],[-18,-28]],[[2845,425],[20,57],[60,-29],[119,29],[98,-113],[-4,-67],[115,-93],[147,-32],[65,-126],[-50,-21],[-32,40],[-163,-4],[-107,166],[-177,80],[-91,113]],[[2918,0],[106,76],[106,-27],[21,-49],[-233,0]]]}