{"objects":{"water":{"type":"GeometryCollection","geometries":[{"type":"MultiPolygon","properties":{"source":"naturalearthdata.com","kind":"ocean","area":1576712559132672,"sort_rank":200,"min_zoom":0.0,"id":1},"arcs":[[[4],[5]],[[6]]]},{"type":"MultiLineString","properties":{"source":"naturalearthdata.com","kind":"ocean","sort_rank":205,"boundary":true,"min_zoom":0.0,"id":525},"arcs":[[7],[8]]},{"type":"LineString","properties":{"source":"naturalearthdata.com","kind":"ocean","sort_rank":205,"boundary":true,"min_zoom":0.0,"id":530},"arcs":[9]}]},"buildings":{"type":"GeometryCollection","geometries":[]},"places":{"type":"GeometryCollection","geometries":[{"type":"Point","properties":{"name:ka":"\u10d0\u10dc\u10e2\u10d8\u10d2\u10e3\u10d0 \u10d3\u10d0 \u10d1\u10d0\u10e0\u10d1\u10e3\u10d3\u10d0","name:ko":"\uc564\ud2f0\uac00 \ubc14\ubd80\ub2e4","name:kn":"\u0c86\u0c82\u0c9f\u0cbf\u0c97\u0cc1\u0cb5\u0cbe \u0cae\u0ca4\u0ccd\u0ca4\u0cc1 \u0cac\u0cb0\u0ccd\u0cac\u0cc1\u0ca1\u0cbe","name:km":"\u17a2\u1784\u17cb\u1791\u17b8\u1782\u17d0\u179a \u1793\u17b7\u1784\u200b\u1794\u17b6\u1794\u17bb\u1799\u178a\u17b6","name:kl":"Antigua aamma Barbuda","name:cs":"Antigua a Barbuda","name:ki":"Antigua na Barbuda","name:kw":"Antiga ha Barbuda","name:ku":"Ant\u00eegua \u00fb Berb\u00fbda","name:ti":"\u12a0\u1295\u1272\u1313 \u12a5\u1293 \u1263\u1229\u12f3","name:ks":"\u0627\u066e\u06ea\u0646\u0679\u0650\u06af\u064f\u0648\u0627 \u062a\u06c1\u0655 \u0628\u0627\u0631\u0628\u0648\u0691\u0627","name:to":"Anitikua mo Palaputa","name:tl":"Antigua at Barbuda","name:ce":"\u0410\u043d\u0442\u0438\u0433\u0443\u0430 \u0430 \u0411\u0430\u0440\u0431\u0443\u0434\u0430","name:ta":"\u0b86\u0ba3\u0bcd\u0b9f\u0bbf\u0b95\u0bc1\u0bb5\u0bbe \u0bae\u0bb1\u0bcd\u0bb1\u0bc1\u0bae\u0bcd \u0baa\u0bbe\u0bb0\u0bcd\u0baa\u0bc1\u0b9f\u0bbe","name:tg":"\u0410\u043d\u0442\u0438\u0433\u0443\u0430\u044e \u0411\u0430\u0440\u0431\u0443\u0434\u0430","name:ca":"Antigua i Barbuda","name:te":"\u0c06\u0c02\u0c1f\u0c3f\u0c17\u0c4d\u0c35\u0c3e \u0c2e\u0c30\u0c3f\u0c2f\u0c41 \u0c2c\u0c3e\u0c30\u0c4d\u0c2c\u0c41\u0c21\u0c3e","name:cy":"Antigua a Barbuda","name:da":"Antigua og Barbuda","name:de":"Antigua und Barbuda","name:dz":"\u0f68\u0f53\u0f0b\u0f4a\u0f72\u0f0b\u0f42\u0f74\u0f0b\u0f5d\u0f0b \u0f68\u0f7a\u0f53\u0f4c\u0f0b \u0f56\u0fb7\u0f62\u0f0b\u0f56\u0fb7\u0f74\u0f0b\u0f4c","source":"openstreetmap.org","name:dv":"\u0787\u07ac\u0782\u07b0\u0793\u07a8\u078e\u07aa\u0787\u07a7 \u0787\u07a6\u078b\u07a8 \u0784\u07a7\u0784\u07a8\u0787\u07aa\u0791\u07a7","name:lv":"Antigva un Barbuda","name:lt":"Antigva ir Barbuda","name:uz":"Antigua va Barbuda","name:kk":"\u0410\u043d\u0442\u0438\u0433\u0443\u0430 \u0436\u04d9\u043d\u0435 \u0411\u0430\u0440\u0431\u0443\u0434\u0430","name:ur":"\u0627\u0646\u0679\u06cc\u06af\u0648\u0627 \u0627\u0648\u0631 \u0628\u0627\u0631\u0628\u0648\u062f\u0627","name:lb":"Antigua a Barbuda","name:la":"Antiqua et Barbuda","name:lg":"Antigwa ne Barabuda","name:uk":"\u0410\u043d\u0442\u0438\u0433\u0443\u0430 \u0456 \u0411\u0430\u0440\u0431\u0443\u0434\u0430","name:ug":"\u0626\u0627\u0646\u062a\u0649\u06af\u06c7\u0626\u0627 \u06cb\u06d5 \u0628\u0627\u0631\u0628\u06c7\u062f\u0627","name:li":"Antigua en Barbuda","name:ln":"Antiga mp\u00e9 Barbuda","name:lo":"\u0ec1\u0ead\u0e99\u0e95\u0eb5\u0e81\u0eb2\u0ea7 \u0ec1\u0ea5\u0eb0 \u0e9a\u0eb2\u0e9a\u0eb9\u0e94\u0eb2","name:el":"\u0391\u03bd\u03c4\u03af\u03b3\u03ba\u03bf\u03c5\u03b1 \u03ba\u03b1\u03b9 \u039c\u03c0\u03b1\u03c1\u03bc\u03c0\u03bf\u03cd\u03bd\u03c4\u03b1","name:eo":"Antigvo-Barbudo","name":"Antigua and Barbuda","name:ee":"\u0301Antigua kple Barbuda nutome","name:th":"\u0e1b\u0e23\u0e30\u0e40\u0e17\u0e28\u0e41\u0e2d\u0e19\u0e15\u0e34\u0e01\u0e32\u0e41\u0e25\u0e30\u0e1a\u0e32\u0e23\u0e4c\u0e1a\u0e39\u0e14\u0e32","name:eu":"Antigua eta Barbuda","name:et":"Antigua ja Barbuda","name:es":"Antigua y Barbuda","name:ay":"Antiwa wan Barbuda","name:rm":"Antigua e Barbuda","name:rn":"Antigwa na Baribuda","name:az":"Antiqua v\u0259 Barbuda","name:id":"Antigua dan Barbuda","name:ar":"\u0623\u0646\u062a\u064a\u063a\u0648\u0627 \u0648\u0628\u0631\u0628\u0648\u062f\u0627","name:io":"Antigua e Barbuda","name:ak":"Antigua ne Baabuda","name:am":"\u12a0\u1295\u1272\u1313 \u12a5\u1293 \u1263\u1229\u12f3","name:it":"Antigua e Barbuda","name:an":"Antigua y Barbuda","name:ru":"\u0410\u043d\u0442\u0438\u0433\u0443\u0430 \u0438 \u0411\u0430\u0440\u0431\u0443\u0434\u0430","name:rw":"Antigwa na Baribuda","name:af":"Antigua en Barbuda","name:zu":"i-Antigua and Barbuda","name:zh-yue":"\u5b89\u63d0\u74dc\u5df4\u5e03\u9054","name:zh":"\u5b89\u63d0\u74dc\u548c\u5df4\u5e03\u8fbe","name:so":"Antigua iyo Barbuda","name:sn":"Antigua ne Barbuda","name:sl":"Antigva in Barbuda","name:sk":"Antigua a Barbuda","name:ja":"\u30a2\u30f3\u30c6\u30a3\u30b0\u30a2\u30fb\u30d0\u30fc\u30d6\u30fc\u30c0","name:si":"\u0d87\u0db1\u0dca\u0da7\u0dd2\u0d9c\u0dd4\u0dc0\u0dcf \u0dc3\u0dc4 \u0db6\u0dcf\u0db6\u0dd2\u0dba\u0dd4\u0da9\u0dcf","name:sh":"Antigva i Barbuda","name:sg":"Ant\u00eegua na Barb\u00fbda","name:se":"Antigua ja Barbuda","name:sa":"\u0905\u0923\u094d\u091f\u0940\u0917\u094d\u0935\u093e","name:bs":"Antigva i Barbuda","name:bm":"Antiga-ni-Barbuda","name:bn":"\u098f\u09a8\u09cd\u099f\u09bf\u0997\u09c1\u09af\u09bc\u09be \u0993 \u09ac\u09be\u09b0\u09ac\u09c1\u09a1\u09be","name:bo":"\u0f68\u0f7a\u0f53\u0f0b\u0f4a\u0f72\u0f0b\u0f42\u0f74\u0f0b\u0f51\u0f44\u0f0b\u0f0d \u0f56\u0fb7\u0f62\u0f0b\u0f56\u0f74\u0f0b\u0f4c\u0f0d","name:br":"Antigua ha Barbuda","name:sw":"Antigua na Barbuda","name:be":"\u0410\u043d\u0442\u044b\u0433\u0443\u0430 \u0456 \u0411\u0430\u0440\u0431\u0443\u0434\u0430","name:su":"Antigua jeung Barbuda","name:bg":"\u0410\u043d\u0442\u0438\u0433\u0443\u0430 \u0438 \u0411\u0430\u0440\u0431\u0443\u0434\u0430","name:ss":"IBhabudi ne Anithikhu","name:sr":"\u0410\u043d\u0442\u0438\u0433\u0432\u0430 \u0438 \u0411\u0430\u0440\u0431\u0443\u0434\u0430","name:sq":"Antigua e Barbuda","name:jv":"Antigua lan Barbuda","name:ia":"Antigua e Barbuda","name:pt":"Ant\u00edgua e Barbuda","name:oc":"Antigua e Barbuda","min_zoom":2.0,"name:ro":"Antigua \u015fi Barbuda","name:zh-min-nan":"Antigua kap Barbuda","name:os":"\u0410\u043d\u0442\u0438\u0433\u0443\u00e6 \u00e6\u043c\u00e6 \u0411\u0430\u0440\u0431\u0443\u0434\u00e6","name:or":"\u0b06\u0b23\u0b4d\u0b1f\u0b3f\u0b17\u0b41\u0b06 \u0b0f\u0b2c\u0b02 \u0b2c\u0b3e\u0b30\u0b2c\u0b41\u0b26\u0b3e","name:pl":"Antigua i Barbuda","name:pa":"\u0a10\u0a02\u0a1f\u0a40\u0a17\u0a41\u0a06 \u0a05\u0a24\u0a47 \u0a2c\u0a30\u0a2c\u0a42\u0a21\u0a3e","name:tr":"Antigua ve Barbuda","name:hi":"\u0905\u0923\u094d\u091f\u0940\u0917\u0941\u0906 \u0914\u0930 \u092c\u093e\u0930\u092c\u0942\u0921\u093e","name:sv":"Antigua och Barbuda","name:he":"\u05d0\u05e0\u05d8\u05d9\u05d2\u05d5\u05d0\u05d4 \u05d5\u05d1\u05e8\u05d1\u05d5\u05d3\u05d4","name:ha":"Antigwa da Barbuba","name:hy":"\u0531\u0576\u057f\u056b\u0563\u0578\u0582\u0561-\u0532\u0561\u0580\u0562\u0578\u0582\u0564\u0561","name:ht":"Antigwa ak Babouda","name:hu":"Antigua \u00e9s Barbuda","name:hr":"Antigva i Barbuda","population":69842,"kind":"country","name:is":"Ant\u00edgva og Barb\u00fada","name:yo":"Or\u00edl\u1eb9\u0301\u00e8de \u00c0\u00e0nt\u00edg\u00fa\u00e0 \u00e0ti B\u00e1r\u00edb\u00fad\u00e0","name:mt":"Antigwa u Barbuda","name:ms":"Antigua dan Barbuda","name:mr":"\u0905\u0901\u091f\u093f\u0917\u094d\u0935\u093e \u0906\u0923\u093f \u092c\u0930\u094d\u092c\u0941\u0921\u093e","name:my":"\u1021\u1004\u103a\u1010\u102e\u1002\u103d\u102b\u1014\u103e\u1004\u1037\u103a \u1018\u102c\u1018\u1030\u1012\u102b\u1014\u102d\u102f\u1004\u103a\u1004\u1036","name:mg":"Antiga sy Barboda","name:ml":"\u0d06\u0d7b\u0d31\u0d3f\u0d17\u0d4d\u0d35\u0d2f\u0d41\u0d02 \u0d2c\u0d7c\u0d2c\u0d41\u0d21\u0d2f\u0d41\u0d02","name:vi":"Antigua v\u00e0 Barbuda","name:mn":"\u0410\u043d\u0442\u0438\u0433\u0443\u0430 \u0431\u0430 \u0411\u0430\u0440\u0431\u0443\u0434\u0430","id":432424929,"name:mk":"\u0410\u043d\u0442\u0438\u0433\u0432\u0430 \u0438 \u0411\u0430\u0440\u0431\u0443\u0434\u0430","name:vo":"Lantige\u00e4n e Barbude\u00e4n","name:fa":"\u0622\u0646\u062a\u06cc\u06af\u0648\u0627 \u0648 \u0628\u0627\u0631\u0628\u0648\u062f\u0627","name:ff":"Antiguwaa e Barbudaa","name:fi":"Antigua ja Barbuda","name:fo":"Antigua og Barbuda","name:fr":"Antigua-et-Barbuda","name:fy":"Antigua en Barb\u00fbda","name:nl":"Antigua en Barbuda","name:nn":"Antigua og Barbuda","name:no":"Antigua og Barbuda","name:na":"Antigua me Barbuda","name:nb":"Antigua og Barbuda","name:ne":"\u090f\u0928\u094d\u091f\u093f\u0917\u0941\u0906 \u0930 \u092c\u093e\u0930\u092c\u0941\u0921\u093e","name:wo":"Antigua ak Barbuda","name:nv":"Ant\u00ed\u00edgwa d\u00f3\u00f3 Hashk\u02bcaan Bik\u00e9yah Y\u00e1zh\u00ed","name:ga":"Antigua agus Barb\u00fada","name:gd":"Antigua agus Barbuda","name:gn":"Antigua ha Barbuda","name:gl":"Antiga e Barbuda","name:gv":"Antigua as Barbuda","name:gu":"\u0a8f\u0aa8\u0acd\u0a9f\u0ac0\u0a97\u0ac1\u0a86 \u0a85\u0aa8\u0ac7 \u0aac\u0ab0\u0aac\u0ac1\u0aa1\u0abe","name:tt":"\u0410\u043d\u0442\u0438\u0433\u0443\u0430 \u04bb\u04d9\u043c \u0411\u0430\u0440\u0431\u0443\u0434\u0430"},"coordinates":[154,1351]},{"type":"Point","properties":{"source":"naturalearthdata.com","kind":"locality","name":"Saint John's","country_capital":true,"population":35499,"min_zoom":5.0,"id":6768},"coordinates":[73,1470]},{"type":"Point","properties":{"name:ay":"Saint John's","name:pt":"Saint John's","name:id":"St. John's, Antigua dan Barbuda","name:ka":"\u10e1\u10d4\u10dc\u10e2-\u10ef\u10dd\u10dc\u10d6\u10d8","name:mr":"\u0938\u0947\u0902\u091f \u091c\u0949\u0928\u094d\u0938","name:ko":"\uc138\uc778\ud2b8\uc874\uc2a4","name:oc":"Saint John's","name:ar":"\u0633\u0627\u0646\u062a \u062c\u0648\u0646\u0632\u060c \u0623\u0646\u062a\u064a\u063a\u0648\u0627 \u0648\u0628\u0631\u0628\u0648\u062f\u0627","name:cs":"Saint John's","name:io":"St Johns","name:kw":"Saint John's, Antiga ha Barbuda","min_zoom":8.0,"name:am":"\u1234\u1295\u1275 \u1306\u1295\u1235\u1365 \u12a0\u1295\u1272\u130b \u12a5\u1293 \u1263\u122d\u1261\u12f3","name:tl":"San Juan, Antigua at Barbuda","name:an":"Saint John's","name:ru":"\u0421\u0435\u043d\u0442-\u0414\u0436\u043e\u043d\u0441","name:pl":"Saint John's","name:ta":"\u0b9a\u0bc6\u0baf\u0bbf\u0ba3\u0bcd\u0b9f\u0bcd. \u0b9c\u0bcb\u0ba9\u0bcd\u0bb8\u0bcd","id":425746989,"name:mk":"\u0421\u0435\u043d\u0442 \u040f\u043e\u043d","name:af":"St. John's, Antigua en Barbuda","name:fa":"\u0633\u06cc\u0646\u062a \u062c\u0627\u0646\u0632","name:lt":"Sent D\u017eonsas","kind_detail":"town","name:da":"Saint John's","source":"openstreetmap.org","name:fr":"Saint John's","name:fy":"Sint John's","name:zh":"\u8056\u7d04\u7ff0","name:pa":"\u0a38\u0a47\u0a02\u0a1f \u0a1c\u0a3e\u0a28","admin_level":"2","name:lv":"Sentd\u017eonsa","name:ja":"\u30bb\u30f3\u30c8\u30b8\u30e7\u30f3\u30ba","name:nn":"Saint John's","name:no":"Saint John's","name:he":"\u05e1\u05e0\u05d8 \u05d2'\u05d5\u05e0\u05e1","kind":"locality","name:br":"Saint John's","name:ur":"\u0633\u06cc\u0646\u0679 \u062c\u0648\u0646\u0632","name:bo":"\u0f66\u0f7a\u0f53\u0f4a\u0f72\u0f0b\u0f47\u0f71\u0f7c\u0f53\u0f0b\u0f66\u0f72\u0f0d","name:sk":"Saint John\u2019s","name:uk":"\u0421\u0435\u043d\u0442-\u0414\u0436\u043e\u043d\u0441","name:hy":"\u054d\u0565\u0576\u0569 \u054b\u0578\u0576\u057d","country_capital":true,"name:be":"\u0421\u0435\u043d\u0442-\u0414\u0436\u043e\u043d\u0441","name:ht":"Sen J\u00f2ns","name:bg":"\u0421\u0435\u0439\u043d\u0442 \u0414\u0436\u043e\u043d\u0441","name:sr":"\u0421\u0435\u043d\u0442 \u040f\u043e\u043d\u0441","name:sq":"Saint John's","population":21926,"name:el":"\u03a3\u03b1\u03b9\u03bd\u03c4 \u03a4\u03b6\u03bf\u03bd\u03c2","name:eo":"Santjonso","name":"St. John's","name:gd":"Saint John's, Antigua agus Barbuda","name:ku":"Saint John's","name:gl":"Saint John's","name:th":"\u0e40\u0e0b\u0e19\u0e15\u0e4c\u0e08\u0e2d\u0e19\u0e2a\u0e4c","name:la":"Urbs Sancti Iohannis","name:fi":"St. John\u2019s","name:et":"Saint John's"},"coordinates":[88,1471]},{"type":"Point","properties":{"kind":"locality","name":"Codrington","kind_detail":"town","source":"openstreetmap.org","min_zoom":8.0,"name:ru":"\u041a\u043e\u0434\u0440\u0438\u043d\u0433\u0442\u043e\u043d","id":480114381,"population":1000},"coordinates":[144,3064]}]},"transit":{"type":"GeometryCollection","geometries":[]},"pois":{"type":"GeometryCollection","geometries":[]},"boundaries":{"type":"GeometryCollection","geometries":[{"type":"LineString","properties":{"name:kg":"Fwalansa","name:ty":"Far\u0101ni","name:ka":"\u10e1\u10d0\u10e4\u10e0\u10d0\u10dc\u10d2\u10d4\u10d7\u10d8","name:ko":"\ud504\ub791\uc2a4","name:cv":"\u0424\u0440\u0430\u043d\u0446\u0438","name:cu":"\u0424\u0440\u0430\u043d\u043a\u0457\ua657","name:kl":"Frankrigi","name:cs":"Francie","name:ki":"Ubaranja","name:co":"Francia","name:kv":"\u0424\u0440\u0430\u043d\u0446\u0438\u044f","name:ku":"Fransa","name:ti":"\u1348\u1228\u1295\u1233\u12ed","name:ks":"\u0641\u0631\u065b\u0627\u0646\u0633","name:to":"Falanis\u0113","name:tl":"Pransiya","name:ce":"\u0424\u0440\u0430\u043d\u0446\u0438","name:ta":"\u0baa\u0bbf\u0bb0\u0bbe\u0ba9\u0bcd\u0b9a\u0bc1","name:tg":"\u0424\u0430\u0440\u043e\u043d\u0441\u0430","name:ca":"Fran\u00e7a","name:te":"\u0c2b\u0c4d\u0c30\u0c3e\u0c28\u0c4d\u0c38\u0c4d","name:cy":"Ffrainc","name:qu":"Ransiya","name:da":"Frankrig","name:de":"Frankreich","name:dz":"\u0f55\u0f62\u0f71\u0f53\u0f66\u0f72\u0f0b","source":"openstreetmap.org","name:kn":"\u0cab\u0ccd\u0cb0\u0cbe\u0ca8\u0ccd\u0cb8\u0ccd","name:dv":"\u078a\u07a6\u0783\u07a6\u0782\u07b0\u0790\u07ad\u0790\u07a8\u0788\u07a8\u078d\u07a7\u078c\u07b0","name:km":"\u1794\u17b6\u179a\u17b6\u17c6\u1784","name:lv":"Francija","name:lt":"Pranc\u016bzija","name:uz":"Fransiya","name:kk":"\u0424\u0440\u0430\u043d\u0446\u0438\u044f","name:ur":"\u0641\u0631\u0627\u0646\u0633","name:lb":"Frankr\u00e4ich","name:la":"Francia","name:lg":"Bufalansa","name:uk":"\u0424\u0440\u0430\u043d\u0446\u0456\u044f","name:ug":"\u0641\u0631\u0627\u0646\u0633\u0649\u064a\u06d5","name:li":"Frankriek","name:ln":"Falansia","name:lo":"\u0e9b\u0eb0\u0ec0\u0e97\u0e94\u0e9d\u0eb0\u0ea5\u0eb1\u0ec8\u0e87","name:el":"\u0393\u03b1\u03bb\u03bb\u03af\u03b1","name:eo":"Francujo","name":"France","name:tk":"Fransi\u00fda","name:th":"\u0e1b\u0e23\u0e30\u0e40\u0e17\u0e28\u0e1d\u0e23\u0e31\u0e48\u0e07\u0e40\u0e28\u0e2a","name:eu":"Frantzia","name:et":"Prantsusmaa","name:es":"Francia","name:ay":"Phransiya","name:rm":"Frantscha","name:rn":"Francia","name:az":"Fransa","name:ie":"Francia","name:id":"Perancis","name:ii":"\ua0d4\ua1e9","name:as":"\u09ab\u09cd\u09f0\u09be\u09a8\u09cd\u09b8","name:ar":"\u0641\u0631\u0646\u0633\u0627","name:io":"Francia","name:ak":"Fr\u025bnkyeman","name:am":"\u1348\u1228\u1295\u1223\u12ed","name:it":"Francia","name:an":"Francia","name:ru":"\u0424\u0440\u0430\u043d\u0446\u0438\u044f","name:rw":"Ubufaransa","name:af":"Frankryk","name:zu":"IFulansi","kind_detail":"2","name:za":"Fazgoz","name:zh-yue":"\u6cd5\u570b","name:zh":"\u6cd5\u570b","name:so":"Faransiiska","name:sm":"Farani","name:sl":"Francija","name:sk":"Franc\u00fazsko","name:ja":"\u30d5\u30e9\u30f3\u30b9","name:si":"\u0db4\u0dca\u200d\u0dbb\u0d82\u0dc1\u0dba","name:sh":"Francuska","name:sg":"Far\u00e2nzi","name:se":"Frankriika","name:sc":"Frantza","name:br":"Bro-C'hall","name:bs":"Francuska","name:bn":"\u09ab\u09cd\u09b0\u09be\u09a8\u09cd\u09b8","name:bo":"\u0f67\u0fa5\u0f0b\u0f62\u0f53\u0f0b\u0f66\u0f72\u0f0d","name:bi":"Franis","name:sw":"Ufaransa","name:be":"\u0424\u0440\u0430\u043d\u0446\u044b\u044f","name:su":"Perancis","name:bg":"\u0424\u0440\u0430\u043d\u0446\u0438\u044f","name:ss":"IFulansi","name:ba":"\u0424\u0440\u0430\u043d\u0446\u0438\u044f","name:sq":"Franca","name:jv":"Prancis","name:sa":"\u092b\u094d\u0930\u093e\u0928\u094d\u0938\u0926\u0947\u0936\u0903","name:ia":"Francia","name:pt":"Fran\u00e7a","name:ps":"\u0641\u0631\u0627\u0646\u0633\u0647","name:oc":"Fran\u00e7a","min_zoom":8.0,"name:ro":"Fran\u021ba","name:zh-min-nan":"Hoat-kok","name:os":"\u0424\u0440\u0430\u043d\u0446","name:or":"\u0b2b\u0b4d\u0b30\u0b3e\u0b28\u0b4d\u0b38","name:pl":"Francja","name:st":"Fora","sort_rank":262,"name:sr":"\u0424\u0440\u0430\u043d\u0446\u0443\u0441\u043a\u0430","osm_relation":true,"name:pa":"\u0a2b\u0a4d\u0a30\u0a3e\u0a02\u0a38","name:tr":"Fransa","name:hi":"\u092b\u093c\u094d\u0930\u093e\u0928\u094d\u0938","name:sv":"Frankrike","name:he":"\u05e6\u05e8\u05e4\u05ea","name:ha":"Faransa","name:hy":"\u0556\u0580\u0561\u0576\u057d\u056b\u0561","name:ht":"Frans","name:hu":"Franciaorsz\u00e1g","name:hr":"Francuska","kind":"country","name:is":"Frakkland","name:yi":"\u05e4\u05e8\u05d0\u05e0\u05e7\u05e8\u05d9\u05d9\u05da","name:yo":"Fr\u00e1ns\u00ec","name:mt":"Franza","alt_name:eo":"Francio","name:ms":"Perancis","name:mr":"\u092b\u094d\u0930\u093e\u0928\u094d\u0938","name:my":"\u1015\u103c\u1004\u103a\u101e\u1005\u103a\u1014\u102d\u102f\u1004\u103a\u1004\u1036","official_name":"R\u00e9publique fran\u00e7aise","name:kw":"Pow Frynk","name:mg":"Frantsa","name:vi":"Ph\u00e1p","name:ml":"\u0d2b\u0d4d\u0d30\u0d3e\u0d7b\u0d38\u0d4d","name:mn":"\u0424\u0440\u0430\u043d\u0446","name:mi":"W\u012bw\u012b","id":-2202162,"name:mk":"\u0424\u0440\u0430\u043d\u0446\u0438\u0458\u0430","name:vo":"Frans\u00e4n","name:fa":"\u0641\u0631\u0627\u0646\u0633\u0647","name:ff":"Faransi","name:fi":"Ranska","name:ky":"\u0424\u0440\u0430\u043d\u0446\u0438\u044f","name:fo":"Frakland","name:fy":"Frankryk","name:nl":"Frankrijk","name:nn":"Frankrike","name:no":"Frankrike","name:na":"Prant","name:ne":"\u092b\u094d\u0930\u093e\u0928\u094d\u0938","name:wo":"Faraas","name:nv":"D\u00e1\u00e1ghahii Din\u00e9\u02bci\u02bc Bik\u00e9yah","name:ga":"An Fhrainc","name:gd":"An Fhraing","name:gn":"Hy\u00e3sia","name:gl":"Francia","maritime_boundary":true,"name:gv":"Yn Rank","name:gu":"\u0aab\u0acd\u0ab0\u0abe\u0aa8\u0acd\u0ab8","name:tt":"\u0424\u0440\u0430\u043d\u0446\u0438\u044f"},"arcs":[0]},{"type":"MultiLineString","properties":{"name:ka":"\u10d0\u10dc\u10e2\u10d8\u10d2\u10e3\u10d0 \u10d3\u10d0 \u10d1\u10d0\u10e0\u10d1\u10e3\u10d3\u10d0","name:ko":"\uc564\ud2f0\uac00 \ubc14\ubd80\ub2e4","name:kn":"\u0c86\u0c82\u0c9f\u0cbf\u0c97\u0cc1\u0cb5 \u0cae\u0ca4\u0ccd\u0ca4\u0cc1 \u0cac\u0cbe\u0cb0\u0ccd\u0cac\u0cc1\u0ca1","name:km":"\u17a2\u1784\u17cb\u1791\u17b8\u1782\u17d0\u179a \u1793\u17b7\u1784\u200b\u1794\u17b6\u1794\u17bb\u1799\u178a\u17b6","name:kl":"Antigua aamma Barbuda","name:cs":"Antigua a Barbuda","name:ki":"Antigua na Barbuda","name:kw":"Antiga ha Barbuda","name:ku":"Ant\u00eegua \u00fb Berb\u00fbda","name:ti":"\u12a0\u1295\u1272\u1313 \u12a5\u1293 \u1263\u1229\u12f3","name:ks":"\u0627\u066e\u06ea\u0646\u0679\u0650\u06af\u064f\u0648\u0627 \u062a\u06c1\u0655 \u0628\u0627\u0631\u0628\u0648\u0691\u0627","name:to":"Anitikua mo Palaputa","name:tl":"Antigua at Barbuda","name:ce":"\u0410\u043d\u0442\u0438\u0301\u0433\u0443\u0430 \u0430 \u0411\u0430\u0440\u0431\u0443\u0301\u0434\u0430","name:ta":"\u0b85\u0ba9\u0bcd\u0b9f\u0bbf\u0b95\u0bc1\u0bb5\u0bbe \u0baa\u0bb0\u0bcd\u0baa\u0bc1\u0b9f\u0bbe","name:tg":"\u0410\u043d\u0442\u0438\u0433\u0443\u0430\u044e \u0411\u0430\u0440\u0431\u0443\u0434\u0430","name:ca":"Antigua i Barbuda","name:te":"\u0c06\u0c02\u0c1f\u0c3f\u0c17\u0c4d\u0c35\u0c3e \u0c2e\u0c30\u0c3f\u0c2f\u0c41 \u0c2c\u0c3e\u0c30\u0c4d\u0c2c\u0c41\u0c21\u0c3e","name:cy":"Antigwa a Barbiwda","name:qu":"Antiwa Barbudawan","name:da":"Antigua og Barbuda","name:de":"Antigua und Barbuda","name:dz":"\u0f68\u0f53\u0f0b\u0f4a\u0f72\u0f0b\u0f42\u0f74\u0f0b\u0f5d\u0f0b \u0f68\u0f7a\u0f53\u0f4c\u0f0b \u0f56\u0fb7\u0f62\u0f0b\u0f56\u0fb7\u0f74\u0f0b\u0f4c","source":"openstreetmap.org","name:dv":"\u0787\u07ac\u0782\u07b0\u0793\u07a8\u078e\u07aa\u0787\u07a7 \u0787\u07a6\u078b\u07a8 \u0784\u07a7\u0784\u07a8\u0787\u07aa\u0791\u07a7","name:lv":"Antigva un Barbuda","name:lt":"Antigva ir Barbuda","name:uz":"Antigua va Barbuda","name:kk":"\u0410\u043d\u0442\u0438\u0433\u0443\u0430 \u0436\u04d9\u043d\u0435 \u0411\u0430\u0440\u0431\u0443\u0434\u0430","name:ur":"\u0627\u06cc\u0646\u0679\u06cc\u06af\u0648\u0627 \u0648 \u0628\u0627\u0631\u0628\u0648\u0688\u0627","name:lb":"Antigua a Barbuda","name:la":"Antiqua et Barbuda","name:lg":"Antigwa ne Barabuda","name:uk":"\u0410\u043d\u0442\u0438\u0301\u0433\u0443\u0430 \u0456 \u0411\u0430\u0440\u0431\u0443\u0301\u0434\u0430","name:ug":"\u0626\u0627\u0646\u062a\u0649\u06af\u06c7\u0626\u0627 \u06cb\u06d5 \u0628\u0627\u0631\u0628\u06c7\u062f\u0627","name:li":"Antigua en Barbuda","name:ln":"Antigua mp\u00e9 Barbuda","name:lo":"\u0ec1\u0ead\u0e99\u0e95\u0eb5\u0e81\u0eb2\u0ea7 \u0ec1\u0ea5\u0eb0 \u0e9a\u0eb2\u0e9a\u0eb9\u0e94\u0eb2","name:el":"\u0391\u03bd\u03c4\u03af\u03b3\u03ba\u03bf\u03c5\u03b1 \u03ba\u03b1\u03b9 \u039c\u03c0\u03b1\u03c1\u03bc\u03c0\u03bf\u03cd\u03bd\u03c4\u03b1","name:eo":"Antigvo-Barbudo","name":"Antigua and Barbuda","name:th":"\u0e41\u0e2d\u0e19\u0e15\u0e34\u0e01\u0e32\u0e41\u0e25\u0e30\u0e1a\u0e32\u0e23\u0e4c\u0e1a\u0e39\u0e14\u0e32","name:eu":"Antigua eta Barbuda","name:et":"Antigua ja Barbuda","name:es":"Antigua y Barbuda","name:ay":"Antiwa wan Barbuda","name:rm":"Antigua e Barbuda","name:az":"Antiqua v\u0259 Barbuda","name:ie":"Antigua e Barbuda","name:id":"Antigua dan Barbuda","name:as":"\u098f\u09a3\u09cd\u099f\u09bf\u0997\u09c1\u09f1\u09be \u0986\u09f0\u09c1 \u09ac\u09be\u09f0\u09cd\u09ac\u09c1\u09a1\u09be","name:ar":"\u0623\u0646\u062a\u064a\u063a\u0648\u0627 \u0648\u0628\u0627\u0631\u0628\u0648\u062f\u0627","name:io":"Antigua e Barbuda","name:ak":"Antigua ne Baabuda","name:am":"\u12a0\u1295\u1272\u130b \u12a5\u1293 \u1263\u122d\u1261\u12f3","name:it":"Antigua e Barbuda","name:an":"Antigua y Barbuda","name:ru":"\u0410\u043d\u0442\u0438\u0301\u0433\u0443\u0430 \u0438 \u0411\u0430\u0440\u0431\u0443\u0301\u0434\u0430","name:rw":"Antigwa na Baribuda","name:af":"Antigua en Barbuda","name:zu":"i-Antigua and Barbuda","kind_detail":"2","name:za":"Antigua caeuq Barbuda","name:zh-yue":"\u5b89\u63d0\u74dc\u5df4\u5e03\u9054","name:zh":"\u5b89\u63d0\u74dc\u548c\u5df4\u5e03\u8fbe","name:so":"Antigua iyo Barbuda","name:sl":"Antigva in Barbuda","name:sk":"Antigua a Barbuda","name:ja":"\u30a2\u30f3\u30c6\u30a3\u30b0\u30a2\u30fb\u30d0\u30fc\u30d6\u30fc\u30c0","name:si":"\u0d87\u0db1\u0dca\u0da7\u0dd2\u0d9c\u0dd4\u0dc0\u0dcf \u0dc3\u0dc4 \u0db6\u0dcf\u0db6\u0dd2\u0dba\u0dd4\u0da9\u0dcf","name:sh":"Antigva i Barbuda","name:se":"Antigua ja Barbuda","name:sc":"Antigua e Barbuda","name:sa":"\u0905\u0923\u094d\u091f\u0940\u0917\u094d\u0935\u093e","name:bs":"Antigva i Barbuda","name:bm":"Antiga-ni-Barbuda","name:bn":"\u0985\u09cd\u09af\u09be\u09a8\u09cd\u099f\u09bf\u0997\u09c1\u09af\u09bc\u09be \u0993 \u09ac\u09be\u09b0\u09cd\u09ac\u09c1\u09a1\u09be","name:bo":"\u0f68\u0f7a\u0f53\u0f0b\u0f4a\u0f72\u0f0b\u0f42\u0f74\u0f60\u0f0b\u0f51\u0f44\u0f0b\u0f56\u0f62\u0f0b\u0f56\u0f74\u0f0b\u0f4c\u0f0d","name:br":"Antigua ha Barbuda","name:sw":"Antigua na Barbuda","name:be":"\u0410\u043d\u0442\u044b\u0433\u0443\u0430\u0301 \u0456 \u0411\u0430\u0440\u0431\u0443\u0301\u0434\u0430","name:su":"Antigua jeung Barbuda","name:bg":"\u0410\u043d\u0442\u0438\u0433\u0443\u0430 \u0438 \u0411\u0430\u0440\u0431\u0443\u0434\u0430","name:ss":"iBhabudi ne Anithikhu","name:ba":"\u0410\u043d\u0442\u0438\u0433\u0443\u0430 \u04bb\u04d9\u043c \u0411\u0430\u0440\u0431\u0443\u0434\u0430","name:sq":"Antigua dhe Barbuda","name:jv":"Antigua lan Barbuda","name:ia":"Antigua e Barbuda","name:pt":"Ant\u00edgua e Barbuda","name:om":"Antiiguwaa fi Baarbuudaa","name:oc":"Antiga e Barbuda","alt_name:gd":"Aint\u00ecoga is Barbuda","min_zoom":8.0,"name:ro":"Antigua \u0219i Barbuda","name:zh-min-nan":"Antigua kap Barbuda","name:os":"\u0410\u043d\u0442\u0438\u0433\u0443\u00e6 \u00e6\u043c\u00e6 \u0411\u0430\u0440\u0431\u0443\u0434\u00e6","name:or":"\u0b06\u0b23\u0b4d\u0b1f\u0b3f\u0b17\u0b41\u0b06 \u0b13 \u0b2c\u0b30\u0b2c\u0b41\u0b21\u0b3e","name:pl":"Antigua i Barbuda","sort_rank":262,"name:sr":"\u0410\u043d\u0442\u0438\u0433\u0432\u0430 \u0438 \u0411\u0430\u0440\u0431\u0443\u0434\u0430","osm_relation":true,"name:pa":"\u0a10\u0a02\u0a1f\u0a40\u0a17\u0a41\u0a06 \u0a05\u0a24\u0a47 \u0a2c\u0a30\u0a2c\u0a42\u0a21\u0a3e","name:tr":"Antigua ve Barbuda","name:hi":"\u0905\u0923\u094d\u091f\u0940\u0917\u0941\u0906 \u0914\u0930 \u092c\u093e\u0930\u092c\u0942\u0921\u093e","name:sv":"Antigua och Barbuda","name:he":"\u05d0\u05e0\u05d8\u05d9\u05d2\u05d5\u05d0\u05d4 \u05d5\u05d1\u05e8\u05d1\u05d5\u05d3\u05d4","name:ha":"Antigwa da Barbuba","name:hy":"\u0531\u0576\u057f\u056b\u0563\u0578\u0582\u0561 \u0587 \u0532\u0561\u0580\u0562\u0578\u0582\u0564\u0561","name:ht":"Antigwa ak Babouda","name:hu":"Antigua \u00e9s Barbuda","name:hr":"Antigva i Barbuda","kind":"country","name:is":"Ant\u00edgva og Barb\u00fada","alt_name:zh":"\u5b89\u5730\u5361\u53ca\u5df4\u5e03\u9054","name:yo":"\u00c1nt\u00edg\u00fa\u00e0 \u00e0ti B\u00e0rb\u00fad\u00e0","name:mt":"Antigwa u Barbuda","alt_name:eo":"Antigvo kaj Barbudo","name:ms":"Antigua dan Barbuda","name:mr":"\u0905\u0901\u091f\u093f\u0917\u093e \u0906\u0923\u093f \u092c\u093e\u0930\u094d\u092c\u0941\u0921\u093e","name:my":"\u1021\u1004\u103a\u1010\u102e\u1002\u103d\u102b\u1014\u103e\u1004\u1037\u103a \u1018\u102c\u1018\u1030\u1012\u102b","official_name":"State of Antigua and Barbuda","name:mg":"Antigua sy Barbuda","alt_name:ml":"\u0d06\u0d28\u0d4d\u0d31\u0d3f\u0d17\u0d4d\u0d35 \u0d2c\u0d7c\u0d2c\u0d41\u0d21","name:vi":"Antigua v\u00e0 Barbuda","name:mn":"\u0410\u043d\u0442\u0438\u0433\u0443\u0430 \u0431\u0430 \u0411\u0430\u0440\u0431\u0443\u0434\u0430","id":-536900,"name:mk":"\u0410\u043d\u0442\u0438\u0433\u0432\u0430 \u0438 \u0411\u0430\u0440\u0431\u0443\u0434\u0430","name:vo":"Lantige\u00e4n e Barbude\u00e4n","name:fa":"\u0622\u0646\u062a\u06cc\u06af\u0648\u0627 \u0648 \u0628\u0627\u0631\u0628\u0648\u062f\u0627","name:ff":"Antiguwaa e Barbudaa","name:fi":"Antigua ja Barbuda","name:ky":"\u0410\u043d\u0442\u0438\u0433\u0443\u0430 \u0436\u0430\u043d\u0430 \u0411\u0430\u0440\u0431\u0443\u0434\u0430","name:fo":"Antigua og Barbuda","name:fr":"Antigua-et-Barbuda","name:fy":"Antig\u00fba en Barb\u00fbda","name:nl":"Antigua en Barbuda","name:nn":"Antigua og Barbuda","name:no":"Antigua og Barbuda","name:na":"Antigua me Barbuda","name:nb":"Antigua og Barbuda","name:ne":"\u090f\u0928\u094d\u091f\u093f\u0917\u0941\u0906 \u0930 \u092c\u0930\u094d\u092c\u0941\u0921\u093e","alt_name:fr":"Antigue-et-Barbude","name:wo":"Antigua ak Barbuda","name:nv":"Ant\u00ed\u00edgwa d\u00f3\u00f3 Hashk\u02bcaan Bik\u00e9yah Y\u00e1zh\u00ed","name:ga":"Antigua agus Barb\u00fada","name:gd":"Antigua agus Barbuda","name:ml":"\u0d06\u0d28\u0d4d\u0d31\u0d3f\u0d17\u0d4d\u0d35\u0d2f \u0d06\u0d28\u0d4d\u0d31\u0d4d \u0d2c\u0d3e\u0d7c\u0d2c\u0d42\u0d21","name:gn":"Antigua ha Barbuda","name:gl":"Antiga e Barbuda","maritime_boundary":true,"name:gv":"Antigua as Barbuda","name:gu":"\u0a8f\u0aa8\u0acd\u0a9f\u0ac0\u0a97\u0ac1\u0a86 \u0a85\u0aa8\u0ac7 \u0aac\u0ab0\u0aac\u0ac1\u0aa1\u0abe","name:tt":"\u0410\u043d\u0442\u0438\u0301\u0433\u0443\u0430 \u04bb\u04d9\u043c \u0411\u0430\u0440\u0431\u0443\u0301\u0434\u0430"},"arcs":[[1],[2]]},{"type":"LineString","properties":{"name:ar":"\u0628\u0627\u0631\u0628\u0648\u062f\u0627","name:ja":"\u30d0\u30fc\u30d6\u30fc\u30c0\u5cf6","name:cy":"Barbiwda","name:hi":"\u092c\u093e\u0930\u092c\u0942\u0921\u093e","name:ko":"\ubc14\ubd80\ub2e4 \uc12c","name:he":"\u05d1\u05e8\u05d1\u05d5\u05d3\u05d4","name:eo":"Barbudo","name:ur":"\u0628\u0627\u0631\u0628\u0648\u0688\u0627","name:th":"\u0e1a\u0e32\u0e23\u0e4c\u0e1a\u0e39\u0e14\u0e32","name:uk":"\u0411\u0430\u0440\u0431\u0443\u0301\u0434\u0430","name:ml":"\u0d2c\u0d3e\u0d7c\u0d2c\u0d41\u0d21","name:ru":"\u0411\u0430\u0440\u0431\u0443\u0301\u0434\u0430","name:ta":"\u0baa\u0bb0\u0bcd\u0baa\u0bc1\u0b9f\u0bbe","id":-7742426,"name:mk":"\u0411\u0430\u0440\u0431\u0443\u0434\u0430","name:fa":"\u0628\u0627\u0631\u0627\u0628\u0648\u062f\u0627","kind":"region","name":"Barbuda","sort_rank":256,"kind_detail":"4","min_zoom":8.0,"name:sr":"\u0411\u0430\u0440\u0431\u0443\u0434\u0430","source":"openstreetmap.org","maritime_boundary":true,"osm_relation":true,"name:zh-yue":"\u5df4\u5e03\u9054\u5cf6","name:be":"\u0411\u0430\u0440\u0431\u0443\u0301\u0434\u0430","name:zh":"\u5df4\u5e03\u9054\u5cf6","name:el":"\u039c\u03c0\u03b1\u03c1\u03bc\u03c0\u03bf\u03cd\u03bd\u03c4\u03b1","name:yo":"B\u00e0rb\u00fad\u00e0"},"arcs":[3]}]},"roads":{"type":"GeometryCollection","geometries":[{"type":"MultiLineString","properties":{"sort_rank":380,"kind_detail":"primary","min_zoom":8.0,"kind":"major_road","source":"openstreetmap.org"},"arcs":[[10],[11],[12],[13],[14],[15],[16],[17],[18],[19],[20],[21],[22],[23],[24],[25],[26],[27],[28],[29],[30],[31],[32],[33],[34],[35],[36],[37],[38],[39],[40],[41],[42],[43],[44],[45],[46],[47],[48],[49],[50],[51],[52],[53],[54],[55],[56],[57],[58],[59],[60],[61],[62],[63],[64],[65],[66],[67],[68],[69],[70],[71],[72],[73]]},{"type":"LineString","properties":{"source":"openstreetmap.org","kind":"ferry","name":"Antigua - Montserrat","sort_rank":355,"landuse_kind":"urban_area","min_zoom":8.0,"id":392528536},"arcs":[74]},{"type":"LineString","properties":{"source":"openstreetmap.org","kind":"ferry","name":"Antigua - Montserrat","sort_rank":355,"min_zoom":8.0,"id":392528536},"arcs":[75]},{"type":"LineString","properties":{"source":"openstreetmap.org","kind":"ferry","name":"Antigua - Barbuda","sort_rank":355,"min_zoom":8.0,"id":388605140},"arcs":[76]},{"type":"MultiLineString","properties":{"source":"openstreetmap.org","kind":"major_road","landuse_kind":"urban_area","sort_rank":380,"kind_detail":"primary","min_zoom":8.0},"arcs":[[77],[78],[79],[80],[81],[82],[83],[84],[85],[86],[87],[88]]},{"type":"LineString","properties":{"sort_rank":355,"source":"openstreetmap.org","kind":"ferry","min_zoom":8.0,"id":394469913},"arcs":[89]},{"type":"LineString","properties":{"source":"openstreetmap.org","kind":"ferry","name":"Antigua - Barbuda","sort_rank":355,"landuse_kind":"urban_area","min_zoom":8.0,"id":388605140},"arcs":[90]}]},"earth":{"type":"GeometryCollection","geometries":[{"type":"MultiPolygon","properties":{"sort_rank":10,"source":"naturalearthdata.com","min_zoom":0.0,"kind":"earth","area":488199565},"arcs":[[[91]],[[92]]]}]},"landuse":{"type":"GeometryCollection","geometries":[{"type":"Polygon","properties":{"source":"naturalearthdata.com","kind":"urban_area","name":"","area":6679034,"sort_rank":11,"min_zoom":4.0,"id":4064},"arcs":[[93]]}]}},"type":"Topology","transform":{"translate":[-61.875,16.6361918784],"scale":[0.0003433228,0.0003277689]},"arcs":[[[1702,0],[-240,176],[-258,61],[-222,-36],[-421,-201]],[[0,527],[413,-30],[182,39],[142,67],[214,150],[151,168],[109,201],[33,208],[-47,225],[-154,254],[-244,250],[-243,116],[139,52],[129,88],[104,122],[65,131],[33,147],[3,280],[-84,324],[-109,174],[-261,262],[-302,162],[-273,22]],[[0,2251],[18,-12],[-18,-4]],[[0,2251],[556,-76],[196,85],[133,119],[99,165],[41,159],[6,238],[-26,195],[-65,195],[-90,143],[-187,211],[-354,220],[-156,36],[-153,-2]],[[0,4096],[4096,0],[0,-4096],[-4096,0],[0,1175],[68,-42],[38,-8],[60,0],[41,7],[59,30],[20,5],[21,-24],[47,-43],[48,-23],[21,37],[-13,75],[1,27],[22,11],[48,-13],[37,-19],[33,2],[33,53],[7,36],[-14,16],[-26,16],[-27,34],[20,-1],[40,3],[20,-2],[-13,35],[-10,15],[-15,15],[-22,0],[-39,-22],[-38,-1],[-30,21],[-14,43],[27,6],[12,8],[8,12],[15,16],[-34,-5],[-28,5],[-23,16],[-16,26],[-28,-39],[-8,-18],[-3,-27],[-48,38],[-22,63],[-37,54],[-93,12],[-42,-27],[-27,-32],[-5,-36],[24,-40],[-67,-21],[-28,-12],[0,2639]],[[68,3307],[-14,-58],[21,-34],[53,-29],[18,-69],[-5,-77],[-14,-57],[-34,19],[0,29],[11,36],[1,43],[-15,32],[-47,55],[-17,37],[-5,24],[-5,10],[-10,10],[-3,-59],[12,-48],[17,-47],[14,-56],[6,-125],[16,-43],[37,20],[129,-52],[52,-39],[18,-55],[50,19],[30,-3],[20,10],[19,58],[6,47],[-3,51],[-21,91],[-21,50],[-32,53],[-41,49],[-47,35],[-38,8],[-61,-21],[-38,13],[20,10],[19,11],[-58,75],[-40,-23]],[[0,1386],[5,-3],[21,-8],[-26,-13],[0,24]],[[0,1175],[68,-42],[38,-8],[60,0],[41,7],[59,30],[20,5],[21,-24],[47,-43],[48,-23],[21,37],[-13,75],[1,27],[22,11],[48,-13],[37,-19],[33,2],[33,53],[7,36],[-14,16],[-26,16],[-27,34],[20,-1],[40,3],[20,-2],[-13,35],[-10,15],[-15,15],[-22,0],[-39,-22],[-38,-1],[-30,21],[-14,43],[27,6],[12,8],[8,12],[15,16],[-34,-5],[-28,5],[-23,16],[-16,26],[-28,-39],[-8,-18],[-3,-27],[-48,38],[-22,63],[-37,54],[-93,12],[-42,-27],[-27,-32],[-5,-36],[24,-40],[-67,-21],[-28,-12]],[[0,1386],[5,-3],[21,-8],[-26,-13]],[[105,2920],[129,-52],[52,-39],[18,-55],[50,19],[30,-3],[20,10],[19,58],[6,47],[-3,51],[-21,91],[-21,50],[-32,53],[-41,49],[-47,35],[-38,8],[-61,-21],[-38,13],[20,10],[19,11],[-58,75],[-40,-23],[-14,-58],[21,-34],[53,-29],[18,-69],[-5,-77],[-14,-57],[-34,19],[0,29],[11,36],[1,43],[-15,32],[-47,55],[-17,37],[-5,24],[-5,10],[-10,10],[-3,-59],[12,-48],[17,-47],[14,-56],[6,-125],[16,-43],[37,20]],[[0,1191],[100,-36],[18,7],[-5,52],[120,52]],[[89,1460],[-13,-68],[-76,-80]],[[112,1587],[-28,7],[1,-22]],[[89,1513],[-1,-26]],[[89,1460],[1,4]],[[89,1460],[7,0]],[[101,1465],[-7,0]],[[94,1465],[-4,-1]],[[90,1464],[1,9]],[[90,1470],[1,0]],[[92,1474],[-1,-3]],[[91,1471],[3,-6]],[[94,1465],[2,-5]],[[102,1454],[-8,-16]],[[96,1460],[7,-6]],[[103,1454],[16,-16]],[[119,1438],[49,-47]],[[103,1485],[-1,-14]],[[102,1471],[3,-12],[-2,-5]],[[103,1454],[0,-1]],[[102,1471],[34,-2]],[[103,1486]],[[103,1486]],[[103,1486],[0,-1]],[[103,1485],[0,1]],[[103,1493],[39,106]],[[181,1495],[-78,-9]],[[118,1437],[1,1]],[[119,1438],[17,31]],[[137,1478],[-1,-9]],[[136,1469],[30,-2]],[[137,1489],[0,-3]],[[137,1478],[0,8]],[[166,1467],[59,58],[10,47],[-20,48],[-69,-18]],[[166,1467],[81,-37]],[[168,1390],[0,1]],[[168,1391],[0,-1]],[[168,1390]],[[168,1390]],[[168,1390],[66,-85]],[[181,1496],[-4,1]],[[178,1501],[4,-2]],[[179,1500],[2,-1]],[[233,1266],[1,39]],[[299,1379],[28,-60],[75,-15],[-40,-43],[-2,-46],[33,-26],[-115,-2],[-45,79]],[[297,1380],[-63,-75]],[[247,1429],[0,1]],[[247,1430],[1,-1]],[[249,1427],[-1,1]],[[249,1429],[0,-2]],[[249,1427],[49,-45]],[[298,1380],[-1,0]],[[297,1380],[1,1]],[[298,1381],[0,1]],[[299,1379],[-1,1]],[[298,1382],[0,-1]],[[298,1381],[1,-2]],[[103,1486]],[[103,1486]],[[168,1390]],[[168,1390]],[[248,1428],[-1,0],[1,1],[1,0],[-1,-1]],[[298,1380]],[[298,1380],[0,1],[0,-1]],[[77,1480],[-6,2]],[[71,1482],[-71,29]],[[72,1483],[-43,23],[-19,89],[9,434],[42,557],[97,326]],[[85,1572],[4,-59]],[[88,1487],[3,-2]],[[91,1473],[0,12]],[[91,1485],[9,2]],[[93,1485],[-1,-11]],[[100,1487],[3,6]],[[102,1486],[-2,1]],[[103,1486],[-1,0]],[[102,1486],[1,0]],[[143,1601],[-31,-14]],[[142,1599],[1,2]],[[146,1602],[-3,-1]],[[134,3069],[-70,29]],[[77,1480],[-5,3]],[[297,1496],[48,-38],[3,27],[8,18],[28,39],[16,-26],[23,-16],[28,-5],[34,5],[-15,-16],[-8,-12],[-12,-8],[-27,-6],[14,-43],[30,-21],[38,1],[39,22],[22,0],[15,-15],[10,-15],[13,-35],[-20,2],[-40,-3],[-20,1],[27,-34],[26,-16],[14,-16],[-7,-36],[-33,-53],[-33,-2],[-37,19],[-48,13],[-22,-11],[-1,-27],[13,-75],[-21,-37],[-48,23],[-47,43],[-21,24],[-20,-5],[-59,-30],[-41,-7],[-60,0],[-38,8],[-68,42],[0,187],[26,13],[-21,8],[-5,3],[0,71],[28,12],[67,21],[-24,40],[5,36],[27,32],[42,27],[93,-12],[37,-54],[22,-63]],[[127,3234],[38,-13],[61,21],[38,-8],[47,-35],[41,-49],[32,-53],[21,-50],[21,-91],[3,-51],[-6,-47],[-19,-58],[-20,-10],[-30,3],[-50,-19],[-18,55],[-52,39],[-129,52],[-37,-20],[-16,43],[-6,125],[-14,56],[-17,47],[-12,48],[3,59],[10,-10],[5,-10],[5,-24],[17,-37],[47,-55],[15,-32],[-1,-43],[-11,-36],[0,-29],[34,-19],[14,57],[5,77],[-18,69],[-53,29],[-21,34],[14,58],[40,23],[58,-75],[-19,-11],[-20,-10]],[[77,1468],[-23,9],[41,13],[-19,76],[92,56],[-59,-53],[-7,-91],[-25,-10]]]}