{"objects":{"water":{"type":"GeometryCollection","geometries":[{"type":"Polygon","properties":{"source":"naturalearthdata.com","kind":"ocean","area":1576712559132672,"sort_rank":200,"min_zoom":0.0,"id":1},"arcs":[[2],[3],[4],[5],[6],[7],[8],[9],[10],[11],[12],[13]]},{"type":"LineString","properties":{"source":"naturalearthdata.com","kind":"ocean","sort_rank":205,"boundary":true,"min_zoom":0.0,"id":518},"arcs":[14]},{"type":"LineString","properties":{"source":"naturalearthdata.com","kind":"ocean","sort_rank":205,"boundary":true,"min_zoom":0.0,"id":521},"arcs":[15]},{"type":"LineString","properties":{"source":"naturalearthdata.com","kind":"ocean","sort_rank":205,"boundary":true,"min_zoom":0.0,"id":522},"arcs":[16]},{"type":"LineString","properties":{"source":"naturalearthdata.com","kind":"ocean","sort_rank":205,"boundary":true,"min_zoom":0.0,"id":523},"arcs":[17]},{"type":"LineString","properties":{"source":"naturalearthdata.com","kind":"ocean","sort_rank":205,"boundary":true,"min_zoom":0.0,"id":529},"arcs":[18]},{"type":"LineString","properties":{"source":"naturalearthdata.com","kind":"ocean","sort_rank":205,"boundary":true,"min_zoom":0.0,"id":3736},"arcs":[19]},{"type":"LineString","properties":{"source":"naturalearthdata.com","kind":"ocean","sort_rank":205,"boundary":true,"min_zoom":0.0,"id":3737},"arcs":[20]}]},"buildings":{"type":"GeometryCollection","geometries":[]},"places":{"type":"GeometryCollection","geometries":[{"type":"Point","properties":{"name:ka":"\u10d3\u10dd\u10db\u10d8\u10dc\u10d8\u10d9\u10d0","alt_name:el":"\u039d\u03c4\u03bf\u03bc\u03af\u03bd\u03b9\u03ba\u03b1","name:ko":"\ub3c4\ubbf8\ub2c8\uce74","name:kn":"\u0ca1\u0cca\u0cae\u0cbf\u0ca8\u0cbf\u0c95\u0cbe","name:km":"\u178a\u17bc\u1798\u17b8\u1793\u17b8\u1780\u17b6","name:cs":"Dominika","name:ki":"Dominika","name:ku":"Dom\u00een\u00eek","name:ti":"\u12f6\u121a\u1292\u12ab","name:ks":"\u0688\u0648\u0645\u0650\u0646\u0650\u06a9\u0627","name:to":"Tominika","name:or":"\u0b21\u0b4b\u0b2e\u0b3f\u0b28\u0b3e\u0b15\u0b3e","name:pl":"Dominika","name:ta":"\u0b9f\u0bca\u0bae\u0bbf\u0ba9\u0bbf\u0b95\u0bbe","name:te":"\u0c21\u0c4b\u0c2e\u0c46\u0c28\u0c3f\u0c15","source":"openstreetmap.org","name:hr":"Dominika","name:dz":"\u0f4c\u0f7c\u0f0b\u0f58\u0f72\u0f0b\u0f53\u0f72\u0f0b\u0f40","name:tr":"Dominika","name:lv":"Dominika","name:lt":"Dominika","name:hi":"\u0921\u094b\u092e\u093f\u0928\u093f\u0915\u093e","name:he":"\u05d3\u05d5\u05de\u05d9\u05e0\u05d9\u05e7\u05d4","kind":"country","name:ur":"\u0688\u0648\u0645\u0646\u06cc\u06a9\u0627","name:lg":"Dominika","name:uk":"\u0414\u043e\u043c\u0456\u043d\u0456\u043a\u0430","name:hy":"\u0534\u0578\u0574\u056b\u0576\u056b\u056f\u0561","min_zoom":2.0,"name:hu":"Dominikai K\u00f6z\u00f6ss\u00e9g","name:ln":"Dom\u00ednike","name:lo":"\u0ec2\u0e94\u0ea1\u0eb5\u0e99\u0eb4\u0e84\u0eb2","population":72514,"name:el":"\u0394\u03bf\u03bc\u03af\u03bd\u03b9\u03ba\u03b1","name:eo":"Dominiko","name":"Dominica","name:is":"D\u00f3min\u00edka","name:ee":"Dominika nutome","name:th":"\u0e1b\u0e23\u0e30\u0e40\u0e17\u0e28\u0e42\u0e14\u0e21\u0e34\u0e19\u0e34\u0e01\u0e32","name:eu":"Dominika","name:yo":"Or\u00edl\u1eb9\u0301\u00e8de D\u00f2m\u00edn\u00edk\u00e0","name:mt":"Dominika","name:rn":"Dominika","name:az":"Dominika","name:id":"Dominika","name:mr":"\u0921\u094b\u092e\u093f\u0928\u093f\u0915\u093e","name:ar":"\u062f\u0648\u0645\u064a\u0646\u064a\u0643\u0627","name:my":"\u1012\u102d\u102f\u1019\u102e\u1014\u102e\u1000\u102c","name:io":"Dominika","name:ak":"D\u0254meneka","name:am":"\u12f6\u121a\u1292\u12ab","name:it":"Domin\u00ecca","name:ml":"\u0d21\u0d4a\u0d2e\u0d3f\u0d28\u0d3f\u0d15\u0d4d\u0d15","name:ru":"\u0414\u043e\u043c\u0438\u043d\u0438\u043a\u0430","name:mn":"\u0414\u043e\u043c\u0438\u043d\u0438\u043a\u0430","id":424297496,"name:mk":"\u0414\u043e\u043c\u0438\u043d\u0438\u043a\u0430","name:af":"Dominika","name:zu":"i-Dominica","name:ha":"Dominika","name:ff":"Dominika","name:mg":"Dominika","name:fo":"Dominika","official_name":"Commonwealth of Dominica","name:fr":"Dominique","name:fy":"Dominika","name:vo":"Dominike\u00e4n","name:zh":"\u591a\u660e\u5c3c\u52a0","name:so":"Domeenika","name:sl":"Dominika","name:sk":"Dominika","name:ja":"\u30c9\u30df\u30cb\u30ab\u56fd","name:si":"\u0da9\u0ddc\u0db8\u0dd2\u0db1\u0dd2\u0d9a\u0dcf\u0dc0","name:fa":"\u062f\u0648\u0645\u06cc\u0646\u06cc\u06a9\u0627","name:sg":"D\u00f6m\u00efn\u00eeka","name:ne":"\u0921\u094b\u092e\u093f\u0928\u093f\u0915\u093e","name:br":"Dominika","name:bs":"Dominika","name:bm":"D\u0254miniki","name:bn":"\u09a1\u09cb\u09ae\u09bf\u09a8\u09bf\u0995\u09be","name:bo":"\u0f4c\u0f7c\u0f0b\u0f58\u0f72\u0f53\u0f0b\u0f53\u0f72\u0f0b\u0f40\u0f0d","name:sw":"Dominika","name:be":"\u0414\u0430\u043c\u0456\u043d\u0456\u043a\u0430","name:bg":"\u0414\u043e\u043c\u0438\u043d\u0438\u043a\u0430","name:sr":"\u0414\u043e\u043c\u0438\u043d\u0438\u043a\u0430","name:sq":"Dominik\u00eb","name:ga":"Doiminice","name:gd":"Doiminicia","name:gu":"\u0aa1\u0acb\u0aae\u0abf\u0aa8\u0abf\u0a95\u0abe","name:tt":"\u0414\u043e\u043c\u0438\u043d\u0438\u043a\u0430"},"coordinates":[1484,385]},{"type":"Point","properties":{"name:pt":"Guadalupe","name:ka":"\u10d2\u10d5\u10d0\u10d3\u10d4\u10da\u10e3\u10de\u10d4","name:ko":"\uacfc\ub4e4\ub8e8\ud504","name:kn":"\u0c97\u0cc1\u0ca1\u0cc6\u0cb2\u0ccb\u0caa\u0ccd","name:km":"\u17a0\u17d2\u1782\u17c4\u178a\u17ba\u17a1\u17bb\u1794","name:ki":"Gwadelupe","name:th":"\u0e01\u0e27\u0e32\u0e40\u0e14\u0e2d\u0e25\u0e39\u0e1b","name:ti":"\u1309\u12cb\u12f0\u1209\u1355","name:ks":"\u06af\u064e\u0648\u0627\u0691\u06cc\u0644\u0648\u067e","name:to":"Kuatalupe","name:or":"\u0b17\u0b4c\u0b21\u0b47\u0b32\u0b4c\u0b2a\u0b47","name:pl":"Gwadelupa","name:ta":"\u0b95\u0bcd\u0bb5\u0bbe\u0ba4\u0bc7\u0bb2\u0bcb\u0baa\u0bcd","name:ca":"Guadalupe","name:te":"\u0c17\u0c4d\u0c35\u0c3e\u0c21\u0c47\u0c32\u0c4b\u0c2a\u0c4d","name:bg":"\u0413\u0432\u0430\u0434\u0435\u043b\u0443\u043f\u0430","name:ro":"Guadelupa","source":"openstreetmap.org","name:ln":"Gwad\u025blup\u025b","name:dz":"\u0f42\u0f7c\u0f0b\u0f4c\u0f7a\u0f0b\u0f63\u0f74\u0f0b\u0f54\u0f7a","name:tr":"Guadalupe","name:ak":"Guwadelup","name:lv":"Gvadelupa","name:lt":"Gvadelupa","name:hi":"\u0917\u094d\u0935\u093e\u0921\u0947\u0932\u094b\u092a","name:he":"\u05d2\u05d5\u05d5\u05d0\u05d3\u05dc\u05d5\u05e4","kind":"region","name:ur":"\u06af\u0648\u0627\u0688\u06cc\u0644\u0648\u067e","name:la":"Guadalupa","name:lg":"Gwadalupe","name:uk":"\u0413\u0432\u0430\u0434\u0435\u043b\u0443\u043f\u0430","min_zoom":4.0,"name:hr":"Gvadalupa","name:lo":"\u0e81\u0ea7\u0e94\u0ec0\u0e94\u0ea5\u0eb9\u0e9a","population":404635,"name:el":"\u0393\u03bf\u03c5\u03b1\u03b4\u03b5\u03bb\u03bf\u03cd\u03c0\u03b7","name:eo":"Gvadelupo","name":"Guadeloupe","name:ee":"Guadelupe nutome","name:is":"Gvadel\u00fapeyjar","name:eu":"Guadalupe","name:es":"Guadalupe","name:mt":"Gwadelupe","name:rn":"Gwadelupe","name:az":"Qvadelupa","name:mr":"\u0917\u094d\u0935\u093e\u0921\u0947\u0932\u094b\u0909\u092a\u0947","name:ar":"\u063a\u0648\u0627\u062f\u0644\u0648\u0628","official_name":"R\u00e9gion de la Guadeloupe","name:mg":"Goadelopy","name:am":"\u1309\u12cb\u12f0\u1209\u1355","name:it":"Guadalupa","name:ru":"\u0413\u0432\u0430\u0434\u0435\u043b\u0443\u043f\u0430","name:ml":"\u0d17\u0d41\u0d35\u0d3e\u0d21\u0d46\u0d32\u0d4b\u0d2a\u0d4d","name:mn":"\u0413\u0443\u0430\u0434\u0435\u043b\u0443\u043f\u0435","id":433483535,"name:mk":"\u0413\u0432\u0430\u0434\u0430\u043b\u0443\u043f\u0435","name:zu":"i-Guadeloupe","name:ff":"Gwaadalup","kind_detail":"state","name:fy":"Guadel\u00fbp","name:zh":"\u74dc\u5fb7\u7f57\u666e","name:sl":"Gvadalupa","name:ja":"\u30b0\u30a2\u30c9\u30eb\u30fc\u30d7","name:si":"\u0d9c\u0dca\u0dc0\u0ddd\u0da9\u0dbd\u0ddd\u0db4\u0dca","name:fa":"\u06af\u0648\u0627\u062f\u0644\u0648\u067e","name:sg":"Guadel\u00fbpu","name:ne":"\u0917\u094d\u0935\u093e\u0921\u0947\u0932\u0941\u092a","name:br":"Gwadeloup","name:bs":"Gvadelupe","name:bm":"Gwadelup","name:bn":"\u0997\u09c1\u09af\u09bc\u09be\u09a6\u09c7\u09b2\u09cc\u09aa","name:sw":"Gwadelupe","name:be":"\u0413\u0432\u0430\u0434\u044d\u043b\u0443\u043f\u0430","name:ha":"Gwadaluf","name:sr":"\u0413\u0432\u0430\u0434\u0430\u043b\u0443\u043f\u0430","name:ga":"Guadal\u00faip","name:gd":"Guadalup","name:gl":"Guadalupe","name:yo":"Or\u00edl\u1eb9\u0301\u00e8de Gadelope","name:gu":"\u0a97\u0acd\u0ab5\u0abe\u0aa1\u0ac7\u0ab2\u0acb\u0aaa"},"coordinates":[903,2923]},{"type":"Point","properties":{"source":"naturalearthdata.com","kind":"locality","name":"Roseau","country_capital":true,"population":23336,"min_zoom":5.0,"id":6497},"coordinates":[1421,51]},{"type":"Point","properties":{"source":"naturalearthdata.com","kind":"locality","name":"Basse-terre","population":307,"region_capital":true,"min_zoom":7.0,"id":4169},"coordinates":[1267,2867]},{"type":"Point","properties":{"source":"openstreetmap.org","kind":"locality","name":"Les Abymes","kind_detail":"town","population":59311,"min_zoom":8.0,"id":300147171},"coordinates":[1075,2989]},{"type":"Point","properties":{"source":"openstreetmap.org","kind":"locality","name":"Baie-Mahault","kind_detail":"town","population":30201,"min_zoom":8.0,"id":300147542},"coordinates":[839,2980]},{"type":"Point","properties":{"source":"openstreetmap.org","kind":"locality","name":"Le Gosier","kind_detail":"town","population":26739,"min_zoom":8.0,"id":306978797},"coordinates":[1112,2796]},{"type":"Point","properties":{"kind":"locality","name":"Sainte-Anne","kind_detail":"town","source":"openstreetmap.org","min_zoom":8.0,"alt_name:fr":"Sainte-Anne-en-Guadeloupe","id":306978708,"population":24346},"coordinates":[1425,2852]},{"type":"Point","properties":{"source":"openstreetmap.org","kind":"locality","name":"Petit-Bourg","kind_detail":"town","population":23729,"min_zoom":8.0,"id":306994869},"coordinates":[829,2748]},{"type":"Point","properties":{"kind":"locality","name":"Le Moule","kind_detail":"town","source":"openstreetmap.org","min_zoom":8.0,"name:ru":"\u041b\u0435-\u041c\u0443\u043b\u044c","id":247477762,"population":22533},"coordinates":[1536,3173]},{"type":"Point","properties":{"source":"openstreetmap.org","kind":"locality","name":"Sainte-Rose","kind_detail":"town","population":20241,"min_zoom":8.0,"id":518545529},"coordinates":[515,3177]},{"type":"Point","properties":{"source":"openstreetmap.org","kind":"locality","name":"Capesterre-Belle-Eau","kind_detail":"town","population":19448,"min_zoom":8.0,"id":306979169},"coordinates":[889,2297]},{"type":"Point","properties":{"source":"openstreetmap.org","kind":"locality","name":"Morne-\u00e0-l'Eau","kind_detail":"town","population":16767,"min_zoom":8.0,"id":306993083},"coordinates":[1215,3172]},{"type":"Point","properties":{"kind":"locality","name":"Pointe-\u00e0-Pitre","kind_detail":"town","source":"openstreetmap.org","min_zoom":8.0,"name:uk":"\u041f\u0443\u0435\u043d\u0442-\u0430-\u041f\u0456\u0442\u0440","name:ru":"\u041f\u0443\u044d\u043d\u0442-\u0430-\u041f\u0438\u0442\u0440","id":246825950,"population":16063},"coordinates":[995,2898]},{"type":"Point","properties":{"source":"openstreetmap.org","kind":"locality","name":"Lamentin","kind_detail":"town","population":15486,"min_zoom":8.0,"id":519536872},"coordinates":[713,2988]},{"type":"Point","properties":{"name:az":"Rozo","name:ka":"\u10e0\u10dd\u10d6\u10dd","name:mr":"\u0930\u0941\u0938\u093e\u0909","name:ko":"\ub85c\uc870","name:th":"\u0e42\u0e23\u0e42\u0e0b","name:am":"\u122e\u12de","name:pa":"\u0a30\u0a4b\u0a1c\u0a3c\u0a4b","name:os":"\u0420\u043e\u0437\u043e","name:ru":"\u0420\u043e\u0437\u043e","name:ce":"\u0420\u043e\u0437\u043e","name:ta":"\u0b89\u0bb1\u0bca\u0b9a\u0bcb","id":4950552057,"name:ky":"\u0420\u043e\u0437\u043e","kind_detail":"city","source":"openstreetmap.org","name:mk":"\u0420\u043e\u0437\u043e","name:zh":"\u7f85\u7d22","admin_level":"2","name:lv":"Rozo","name:ja":"\u30ed\u30be\u30fc","name:lt":"Rozo","name:uz":"Rozo","kind":"locality","name:bo":"\u0f62\u0f74\u0f0b\u0f5f\u0f7c\u0f0d","name:uk":"\u0420\u043e\u0437\u043e","name:hy":"\u054c\u0578\u0566\u0578","country_capital":true,"name:be":"\u0413\u043e\u0440\u0430\u0434 \u0420\u0430\u0437\u043e","name:ht":"Rozo","name:bg":"\u0420\u043e\u0437\u043e","name:sr":"\u0420\u043e\u0437\u043e","population":15000,"name:el":"\u03a1\u03bf\u03b6\u03cc","name:eo":"Roseo","name":"Roseau","min_zoom":8.0},"coordinates":[1421,45]},{"type":"Point","properties":{"source":"openstreetmap.org","kind":"locality","name":"Saint-Fran\u00e7ois","kind_detail":"town","population":14953,"min_zoom":8.0,"id":279727393},"coordinates":[1747,2936]},{"type":"Point","properties":{"name:ja":"\u30d0\u30b9\u30c6\u30fc\u30eb","name:ka":"\u10d1\u10d0\u10e1-\u10e2\u10d4\u10e0\u10d8","name:mr":"\u092c\u093e\u0938\u0947-\u0924\u0947\u0930","name:ko":"\ubc14\uc2a4\ud14c\ub974","name:he":"\u05d1\u05d0\u05e1-\u05d8\u05e8","min_zoom":8.0,"name:uk":"\u0411\u0430\u0441-\u0422\u0435\u0440","name:be":"\u0411\u0430\u0441\u0430-\u0422\u044d\u0440\u044d","name:ru":"\u0411\u0430\u0441-\u0422\u0435\u0440","name:bg":"\u0411\u0430\u0441-\u0422\u0435\u0440","name:lt":"Bas-Teras","id":246825527,"population":11730,"name:el":"\u039c\u03c0\u03b1\u03c2-\u03a4\u03b5\u03c1","kind":"locality","name":"Basse-Terre","kind_detail":"town","name:sr":"\u0411\u0430\u0441 \u0422\u0435\u0440","source":"openstreetmap.org","name:zh":"\u5df4\u65af\u7279\u723e"},"coordinates":[413,2169]},{"type":"Point","properties":{"source":"openstreetmap.org","kind":"locality","name":"Saint-Claude","kind_detail":"town","population":10505,"min_zoom":8.0,"id":282418648},"coordinates":[506,2248]},{"type":"Point","properties":{"source":"openstreetmap.org","kind":"locality","name":"Deshaies","kind_detail":"town","population":4356,"min_zoom":8.0,"id":518545532},"coordinates":[236,3096]}]},"transit":{"type":"GeometryCollection","geometries":[]},"pois":{"type":"GeometryCollection","geometries":[{"type":"Point","properties":{"kind":"protected_area","name":"Zone tampon de la r\u00e9serve de biosph\u00e8re de l'archipel de Guadeloupe","area":24542300,"name:de":"Pufferzone des Biosph\u00e4renreservats des Archipels von Guadeloupe","source":"openstreetmap.org","min_zoom":8.0,"tier":2,"id":-1109628,"osm_relation":true},"coordinates":[1353,3542]},{"type":"Point","properties":{"kind":"protected_area","name":"Aire de coop\u00e9ration de la r\u00e9serve de biosph\u00e8re de l'archipel de Guadeloupe","area":27507000,"name:de":"Kooperationsraum des Biosph\u00e4renreservats des Archipels von Guadeloupe","source":"openstreetmap.org","min_zoom":8.0,"tier":2,"id":-1109627,"osm_relation":true},"coordinates":[1122,3286]},{"type":"Point","properties":{"kind":"nature_reserve","name":"R\u00e9serve de biosph\u00e8re de l'archipel de Guadeloupe (zone centrale)","area":187471000,"source":"openstreetmap.org","min_zoom":8.51,"tier":2,"id":-1109626,"osm_relation":true},"coordinates":[583,2491]},{"type":"Point","properties":{"kind":"protected_area","name":"Aire d'adh\u00e9sion du Parc national de Guadeloupe","area":2446550000,"source":"openstreetmap.org","min_zoom":7.0,"tier":2,"id":-1106908,"osm_relation":true},"coordinates":[221,2871]},{"type":"Point","properties":{"kind":"protected_area","name":"Grand Cul de Sac marin","area":317033000,"source":"openstreetmap.org","min_zoom":7.0,"tier":2,"id":-1105234,"osm_relation":true},"coordinates":[787,3254]}]},"boundaries":{"type":"GeometryCollection","geometries":[{"type":"MultiLineString","properties":{"name:kg":"Fwalansa","name:ty":"Far\u0101ni","name:ka":"\u10e1\u10d0\u10e4\u10e0\u10d0\u10dc\u10d2\u10d4\u10d7\u10d8","name:ko":"\ud504\ub791\uc2a4","name:cv":"\u0424\u0440\u0430\u043d\u0446\u0438","name:cu":"\u0424\u0440\u0430\u043d\u043a\u0457\ua657","name:kl":"Frankrigi","name:cs":"Francie","name:ki":"Ubaranja","name:co":"Francia","name:kv":"\u0424\u0440\u0430\u043d\u0446\u0438\u044f","name:ku":"Fransa","name:ti":"\u1348\u1228\u1295\u1233\u12ed","name:ks":"\u0641\u0631\u065b\u0627\u0646\u0633","name:to":"Falanis\u0113","name:tl":"Pransiya","name:ce":"\u0424\u0440\u0430\u043d\u0446\u0438","name:ta":"\u0baa\u0bbf\u0bb0\u0bbe\u0ba9\u0bcd\u0b9a\u0bc1","name:tg":"\u0424\u0430\u0440\u043e\u043d\u0441\u0430","name:ca":"Fran\u00e7a","name:te":"\u0c2b\u0c4d\u0c30\u0c3e\u0c28\u0c4d\u0c38\u0c4d","name:cy":"Ffrainc","name:qu":"Ransiya","name:da":"Frankrig","name:de":"Frankreich","name:dz":"\u0f55\u0f62\u0f71\u0f53\u0f66\u0f72\u0f0b","source":"openstreetmap.org","name:kn":"\u0cab\u0ccd\u0cb0\u0cbe\u0ca8\u0ccd\u0cb8\u0ccd","name:dv":"\u078a\u07a6\u0783\u07a6\u0782\u07b0\u0790\u07ad\u0790\u07a8\u0788\u07a8\u078d\u07a7\u078c\u07b0","name:km":"\u1794\u17b6\u179a\u17b6\u17c6\u1784","name:lv":"Francija","name:lt":"Pranc\u016bzija","name:uz":"Fransiya","name:kk":"\u0424\u0440\u0430\u043d\u0446\u0438\u044f","name:ur":"\u0641\u0631\u0627\u0646\u0633","name:lb":"Frankr\u00e4ich","name:la":"Francia","name:lg":"Bufalansa","name:uk":"\u0424\u0440\u0430\u043d\u0446\u0456\u044f","name:ug":"\u0641\u0631\u0627\u0646\u0633\u0649\u064a\u06d5","name:li":"Frankriek","name:ln":"Falansia","name:lo":"\u0e9b\u0eb0\u0ec0\u0e97\u0e94\u0e9d\u0eb0\u0ea5\u0eb1\u0ec8\u0e87","name:el":"\u0393\u03b1\u03bb\u03bb\u03af\u03b1","name:eo":"Francujo","name":"France","name:tk":"Fransi\u00fda","name:th":"\u0e1b\u0e23\u0e30\u0e40\u0e17\u0e28\u0e1d\u0e23\u0e31\u0e48\u0e07\u0e40\u0e28\u0e2a","name:eu":"Frantzia","name:et":"Prantsusmaa","name:es":"Francia","name:ay":"Phransiya","name:rm":"Frantscha","name:rn":"Francia","name:az":"Fransa","name:ie":"Francia","name:id":"Perancis","name:ii":"\ua0d4\ua1e9","name:as":"\u09ab\u09cd\u09f0\u09be\u09a8\u09cd\u09b8","name:ar":"\u0641\u0631\u0646\u0633\u0627","name:io":"Francia","name:ak":"Fr\u025bnkyeman","name:am":"\u1348\u1228\u1295\u1223\u12ed","name:it":"Francia","name:an":"Francia","name:ru":"\u0424\u0440\u0430\u043d\u0446\u0438\u044f","name:rw":"Ubufaransa","name:af":"Frankryk","name:zu":"IFulansi","kind_detail":"2","name:za":"Fazgoz","name:zh-yue":"\u6cd5\u570b","name:zh":"\u6cd5\u570b","name:so":"Faransiiska","name:sm":"Farani","name:sl":"Francija","name:sk":"Franc\u00fazsko","name:ja":"\u30d5\u30e9\u30f3\u30b9","name:si":"\u0db4\u0dca\u200d\u0dbb\u0d82\u0dc1\u0dba","name:sh":"Francuska","name:sg":"Far\u00e2nzi","name:se":"Frankriika","name:sc":"Frantza","name:br":"Bro-C'hall","name:bs":"Francuska","name:bn":"\u09ab\u09cd\u09b0\u09be\u09a8\u09cd\u09b8","name:bo":"\u0f67\u0fa5\u0f0b\u0f62\u0f53\u0f0b\u0f66\u0f72\u0f0d","name:bi":"Franis","name:sw":"Ufaransa","name:be":"\u0424\u0440\u0430\u043d\u0446\u044b\u044f","name:su":"Perancis","name:bg":"\u0424\u0440\u0430\u043d\u0446\u0438\u044f","name:ss":"IFulansi","name:ba":"\u0424\u0440\u0430\u043d\u0446\u0438\u044f","name:sq":"Franca","name:jv":"Prancis","name:sa":"\u092b\u094d\u0930\u093e\u0928\u094d\u0938\u0926\u0947\u0936\u0903","name:ia":"Francia","name:pt":"Fran\u00e7a","name:ps":"\u0641\u0631\u0627\u0646\u0633\u0647","name:oc":"Fran\u00e7a","min_zoom":8.0,"name:ro":"Fran\u021ba","name:zh-min-nan":"Hoat-kok","name:os":"\u0424\u0440\u0430\u043d\u0446","name:or":"\u0b2b\u0b4d\u0b30\u0b3e\u0b28\u0b4d\u0b38","name:pl":"Francja","name:st":"Fora","sort_rank":262,"name:sr":"\u0424\u0440\u0430\u043d\u0446\u0443\u0441\u043a\u0430","osm_relation":true,"name:pa":"\u0a2b\u0a4d\u0a30\u0a3e\u0a02\u0a38","name:tr":"Fransa","name:hi":"\u092b\u093c\u094d\u0930\u093e\u0928\u094d\u0938","name:sv":"Frankrike","name:he":"\u05e6\u05e8\u05e4\u05ea","name:ha":"Faransa","name:hy":"\u0556\u0580\u0561\u0576\u057d\u056b\u0561","name:ht":"Frans","name:hu":"Franciaorsz\u00e1g","name:hr":"Francuska","kind":"country","name:is":"Frakkland","name:yi":"\u05e4\u05e8\u05d0\u05e0\u05e7\u05e8\u05d9\u05d9\u05da","name:yo":"Fr\u00e1ns\u00ec","name:mt":"Franza","alt_name:eo":"Francio","name:ms":"Perancis","name:mr":"\u092b\u094d\u0930\u093e\u0928\u094d\u0938","name:my":"\u1015\u103c\u1004\u103a\u101e\u1005\u103a\u1014\u102d\u102f\u1004\u103a\u1004\u1036","official_name":"R\u00e9publique fran\u00e7aise","name:kw":"Pow Frynk","name:mg":"Frantsa","name:vi":"Ph\u00e1p","name:ml":"\u0d2b\u0d4d\u0d30\u0d3e\u0d7b\u0d38\u0d4d","name:mn":"\u0424\u0440\u0430\u043d\u0446","name:mi":"W\u012bw\u012b","id":-2202162,"name:mk":"\u0424\u0440\u0430\u043d\u0446\u0438\u0458\u0430","name:vo":"Frans\u00e4n","name:fa":"\u0641\u0631\u0627\u0646\u0633\u0647","name:ff":"Faransi","name:fi":"Ranska","name:ky":"\u0424\u0440\u0430\u043d\u0446\u0438\u044f","name:fo":"Frakland","name:fy":"Frankryk","name:nl":"Frankrijk","name:nn":"Frankrike","name:no":"Frankrike","name:na":"Prant","name:ne":"\u092b\u094d\u0930\u093e\u0928\u094d\u0938","name:wo":"Faraas","name:nv":"D\u00e1\u00e1ghahii Din\u00e9\u02bci\u02bc Bik\u00e9yah","name:ga":"An Fhrainc","name:gd":"An Fhraing","name:gn":"Hy\u00e3sia","name:gl":"Francia","maritime_boundary":true,"name:gv":"Yn Rank","name:gu":"\u0aab\u0acd\u0ab0\u0abe\u0aa8\u0acd\u0ab8","name:tt":"\u0424\u0440\u0430\u043d\u0446\u0438\u044f"},"arcs":[[0],[1]]}]},"roads":{"type":"GeometryCollection","geometries":[{"type":"MultiLineString","properties":{"source":"openstreetmap.org","kind":"major_road","landuse_kind":"urban_area","sort_rank":380,"kind_detail":"primary","ref":"N 5","min_zoom":8.0},"arcs":[[21],[22]]},{"type":"MultiLineString","properties":{"source":"openstreetmap.org","kind":"major_road","landuse_kind":"urban_area","sort_rank":380,"kind_detail":"primary","ref":"D 126","min_zoom":8.0},"arcs":[[23],[24],[25],[26],[27],[28],[29],[30],[31],[32],[33],[34],[35],[36],[37],[38],[39]]},{"type":"LineString","properties":{"sort_rank":355,"source":"openstreetmap.org","kind":"ferry","min_zoom":8.0,"name":"Ligne Pointe-\u00e0-Pitre - Roseau"},"arcs":[40]},{"type":"MultiLineString","properties":{"source":"openstreetmap.org","kind":"major_road","landuse_kind":"urban_area","sort_rank":380,"kind_detail":"primary","ref":"N 10","min_zoom":8.0},"arcs":[[41],[42],[43],[44],[45],[46],[47],[48],[49],[50],[51],[52],[53],[54],[55],[56],[57],[58],[59]]},{"type":"MultiLineString","properties":{"source":"openstreetmap.org","kind":"major_road","landuse_kind":"urban_area","sort_rank":380,"kind_detail":"primary","ref":"D 24","min_zoom":8.0},"arcs":[[60],[61],[62],[63]]},{"type":"MultiLineString","properties":{"source":"openstreetmap.org","kind":"major_road","landuse_kind":"urban_area","sort_rank":380,"kind_detail":"primary","min_zoom":8.0},"arcs":[[64],[65],[66],[67],[68],[69],[70],[71],[72],[73],[74],[75],[76],[77],[78],[79],[80],[81],[82],[83],[84],[85],[86],[87],[88],[89],[90],[91],[92],[93]]},{"type":"MultiLineString","properties":{"kind":"major_road","network":null,"sort_rank":380,"kind_detail":"primary","source":"openstreetmap.org","min_zoom":8.0,"shield_text":"1","ref":"N 1"},"arcs":[[94],[95]]},{"type":"MultiLineString","properties":{"source":"openstreetmap.org","kind":"major_road","landuse_kind":"protected_area","sort_rank":380,"kind_detail":"primary","ref":"N 2","min_zoom":8.0},"arcs":[[96],[97],[98],[99],[100],[101],[102],[103],[104],[105],[106],[107],[108],[109],[110],[111],[112],[113],[114],[115],[116],[117],[118],[119],[120],[121],[122],[123],[124],[125],[126],[127],[128],[129],[130],[131],[132],[133],[134]]},{"type":"MultiLineString","properties":{"source":"openstreetmap.org","kind":"major_road","kind_detail":"trunk","sort_rank":381,"landuse_kind":"urban_area","ref":"N 11","min_zoom":8.0},"arcs":[[135],[136],[137],[138],[139],[140],[141],[142],[143]]},{"type":"MultiLineString","properties":{"kind":"major_road","network":null,"sort_rank":381,"landuse_kind":"protected_area","source":"openstreetmap.org","min_zoom":8.0,"kind_detail":"trunk","shield_text":"5","ref":"N 5"},"arcs":[[144],[145]]},{"type":"LineString","properties":{"source":"openstreetmap.org","kind":"ferry","name":"Ligne Terre de Haut - Terre de Bas","sort_rank":355,"min_zoom":8.0,"id":126546463},"arcs":[146]},{"type":"MultiLineString","properties":{"source":"openstreetmap.org","kind":"major_road","landuse_kind":"protected_area","sort_rank":380,"kind_detail":"primary","ref":"D 23","min_zoom":8.0},"arcs":[[147],[148],[149],[150],[151],[152],[153],[154],[155],[156]]},{"type":"LineString","properties":{"kind":"major_road","network":null,"sort_rank":380,"kind_detail":"primary","source":"openstreetmap.org","min_zoom":8.0,"landuse_kind":"urban_area","shield_text":"1","ref":"N 5","id":27610893},"arcs":[157]},{"type":"MultiLineString","properties":{"source":"openstreetmap.org","kind":"major_road","landuse_kind":"protected_area","sort_rank":380,"kind_detail":"primary","ref":"N 6","min_zoom":8.0},"arcs":[[158],[159],[160],[161],[162],[163],[164],[165],[166],[167],[168],[169],[170],[171],[172],[173],[174],[175],[176]]},{"type":"MultiLineString","properties":{"kind":"major_road","network":null,"sort_rank":381,"landuse_kind":"protected_area","source":"openstreetmap.org","min_zoom":8.0,"kind_detail":"trunk","shield_text":"1","ref":"N 1"},"arcs":[[177],[178],[179],[180],[181],[182],[183],[184],[185],[186],[187],[188],[189],[190],[191],[192],[193],[194],[195],[196],[197]]},{"type":"MultiLineString","properties":{"source":"openstreetmap.org","kind":"major_road","landuse_kind":"protected_area","sort_rank":381,"kind_detail":"trunk","min_zoom":8.0},"arcs":[[198],[199],[200],[201],[202]]},{"type":"MultiLineString","properties":{"source":"openstreetmap.org","kind":"major_road","landuse_kind":"urban_area","sort_rank":380,"kind_detail":"primary","ref":"D 32","min_zoom":8.0},"arcs":[[203],[204],[205]]},{"type":"MultiLineString","properties":{"source":"openstreetmap.org","kind":"major_road","network":null,"sort_rank":380,"kind_detail":"primary","min_zoom":8.0,"shield_text":"5"},"arcs":[[206],[207],[208],[209],[210],[211],[212],[213],[214],[215],[216],[217],[218],[219],[220],[221],[222]]},{"type":"MultiLineString","properties":{"source":"openstreetmap.org","kind":"major_road","landuse_kind":"protected_area","sort_rank":380,"kind_detail":"primary","ref":"D 103","min_zoom":8.0},"arcs":[[223],[224],[225]]},{"type":"MultiLineString","properties":{"source":"openstreetmap.org","kind":"major_road","sort_rank":380,"kind_detail":"primary","ref":"D 126","min_zoom":8.0},"arcs":[[226],[227],[228]]},{"type":"MultiLineString","properties":{"source":"openstreetmap.org","kind":"major_road","sort_rank":380,"kind_detail":"primary","ref":"N 3","min_zoom":8.0},"arcs":[[229],[230]]},{"type":"MultiLineString","properties":{"kind":"major_road","network":null,"sort_rank":380,"kind_detail":"primary","source":"openstreetmap.org","min_zoom":8.0,"shield_text":"5","ref":"N 5"},"arcs":[[231],[232],[233],[234],[235],[236],[237],[238],[239],[240],[241],[242],[243],[244],[245],[246],[247]]},{"type":"MultiLineString","properties":{"kind":"major_road","network":null,"sort_rank":380,"kind_detail":"primary","source":"openstreetmap.org","min_zoom":8.0,"landuse_kind":"protected_area","shield_text":"5","ref":"N 5"},"arcs":[[248],[249],[250],[251],[252],[253],[254],[255],[256],[257],[258],[259],[260],[261],[262]]},{"type":"MultiLineString","properties":{"sort_rank":381,"source":"openstreetmap.org","min_zoom":8.0,"kind":"major_road","kind_detail":"trunk"},"arcs":[[263],[264],[265],[266],[267],[268],[269]]},{"type":"MultiLineString","properties":{"source":"openstreetmap.org","kind":"major_road","landuse_kind":"protected_area","sort_rank":381,"kind_detail":"trunk","ref":"N 1","min_zoom":8.0},"arcs":[[270],[271],[272],[273],[274]]},{"type":"LineString","properties":{"source":"openstreetmap.org","kind":"ferry","name":"ligne Basse-Terre \u00e0 Terre-de-Haut","sort_rank":355,"min_zoom":8.0,"id":483208594},"arcs":[275]},{"type":"MultiLineString","properties":{"source":"openstreetmap.org","kind":"major_road","sort_rank":380,"kind_detail":"primary","ref":"D 125","min_zoom":8.0},"arcs":[[276],[277]]},{"type":"LineString","properties":{"kind":"major_road","network":null,"sort_rank":380,"landuse_kind":"protected_area","is_bicycle_related":true,"cycleway":"lane","source":"openstreetmap.org","min_zoom":8.0,"kind_detail":"primary","shield_text":"1","ref":"N 1"},"arcs":[278]},{"type":"MultiLineString","properties":{"source":"openstreetmap.org","kind":"major_road","landuse_kind":"protected_area","sort_rank":380,"kind_detail":"primary","ref":"N 8","min_zoom":8.0},"arcs":[[279],[280],[281],[282],[283]]},{"type":"LineString","properties":{"sort_rank":355,"source":"openstreetmap.org","kind":"ferry","min_zoom":8.0,"id":487731589},"arcs":[284]},{"type":"MultiLineString","properties":{"source":"openstreetmap.org","kind":"major_road","landuse_kind":"protected_area","sort_rank":380,"kind_detail":"primary","ref":"D 26","min_zoom":8.0},"arcs":[[285],[286]]},{"type":"LineString","properties":{"source":"openstreetmap.org","kind":"ferry","name":"Ligne Pointe-\u00e0-Pitre - Saint-Louis (Marie-Galante)","sort_rank":355,"min_zoom":8.0,"id":126546464},"arcs":[287]},{"type":"LineString","properties":{"kind":"major_road","network":null,"sort_rank":380,"kind_detail":"primary","is_bicycle_related":true,"cycleway":"lane","source":"openstreetmap.org","min_zoom":8.0,"landuse_kind":"protected_area","shield_text":"5","ref":"N 5","id":47019436},"arcs":[288]},{"type":"MultiLineString","properties":{"source":"openstreetmap.org","kind":"major_road","landuse_kind":"protected_area","sort_rank":380,"kind_detail":"primary","ref":"D 6","min_zoom":8.0},"arcs":[[289],[290],[291],[292],[293],[294]]},{"type":"MultiLineString","properties":{"kind":"major_road","network":null,"sort_rank":381,"landuse_kind":"urban_area","source":"openstreetmap.org","min_zoom":8.0,"kind_detail":"trunk","shield_text":"5","ref":"N 5"},"arcs":[[295],[296]]},{"type":"MultiLineString","properties":{"kind":"major_road","network":null,"sort_rank":380,"kind_detail":"primary","source":"openstreetmap.org","min_zoom":8.0,"landuse_kind":"protected_area","shield_text":"1"},"arcs":[[297],[298],[299],[300]]},{"type":"MultiLineString","properties":{"kind":"major_road","network":null,"sort_rank":380,"kind_detail":"primary","source":"openstreetmap.org","min_zoom":8.0,"landuse_kind":"urban_area","shield_text":"5","ref":"N 5"},"arcs":[[301],[302],[303],[304],[305],[306],[307],[308],[309],[310]]},{"type":"MultiLineString","properties":{"source":"openstreetmap.org","kind":"major_road","sort_rank":380,"kind_detail":"primary","ref":"N 9","min_zoom":8.0},"arcs":[[311],[312],[313],[314],[315],[316],[317],[318],[319]]},{"type":"MultiLineString","properties":{"source":"openstreetmap.org","kind":"major_road","landuse_kind":"urban_area","sort_rank":380,"kind_detail":"primary","ref":"D 103","min_zoom":8.0},"arcs":[[320],[321]]},{"type":"MultiLineString","properties":{"source":"openstreetmap.org","kind":"major_road","landuse_kind":"protected_area","sort_rank":381,"kind_detail":"trunk","ref":"N 11","min_zoom":8.0},"arcs":[[322],[323],[324]]},{"type":"LineString","properties":{"source":"openstreetmap.org","kind":"major_road","sort_rank":380,"kind_detail":"primary","loc_name":"Bay Front","min_zoom":8.0},"arcs":[325]},{"type":"MultiLineString","properties":{"sort_rank":380,"kind_detail":"primary","min_zoom":8.0,"kind":"major_road","source":"openstreetmap.org"},"arcs":[[326],[327],[328],[329],[330],[331],[332],[333],[334],[335],[336],[337],[338],[339],[340],[341],[342],[343],[344],[345],[346],[347],[348],[349],[350],[351],[352],[353],[354],[355],[356],[357],[358],[359],[360],[361],[362],[363],[364],[365],[366],[367],[368],[369],[370],[371],[372],[373]]},{"type":"LineString","properties":{"source":"openstreetmap.org","kind":"major_road","landuse_kind":"protected_area","sort_rank":380,"kind_detail":"primary","ref":"D 39","min_zoom":8.0},"arcs":[374]},{"type":"LineString","properties":{"source":"openstreetmap.org","kind":"ferry","name":"Ligne Pointe-\u00e0-Pitre - Grand-Bourg (Marie-Galante)","sort_rank":355,"min_zoom":8.0,"id":330784023},"arcs":[375]},{"type":"LineString","properties":{"kind":"major_road","network":null,"sort_rank":380,"kind_detail":"primary","source":"openstreetmap.org","min_zoom":8.0,"shield_text":"1","ref":"N 2","id":51245321},"arcs":[376]},{"type":"LineString","properties":{"source":"openstreetmap.org","kind":"major_road","sort_rank":380,"kind_detail":"primary","ref":"N 1","min_zoom":8.0},"arcs":[377]},{"type":"MultiLineString","properties":{"kind":"major_road","network":null,"sort_rank":381,"landuse_kind":"protected_area","source":"openstreetmap.org","min_zoom":8.0,"kind_detail":"trunk","shield_text":"1"},"arcs":[[378],[379],[380],[381],[382],[383],[384]]},{"type":"LineString","properties":{"kind":"major_road","network":null,"sort_rank":381,"kind_detail":"trunk","source":"openstreetmap.org","min_zoom":8.0,"landuse_kind":"urban_area","shield_text":"5","ref":"N 11","id":491826218},"arcs":[385]},{"type":"MultiLineString","properties":{"kind":"major_road","network":null,"sort_rank":380,"kind_detail":"primary","source":"openstreetmap.org","min_zoom":8.0,"landuse_kind":"urban_area","shield_text":"5"},"arcs":[[386],[387],[388]]},{"type":"MultiLineString","properties":{"source":"openstreetmap.org","kind":"major_road","kind_detail":"trunk","sort_rank":381,"landuse_kind":"urban_area","min_zoom":8.0},"arcs":[[389],[390],[391],[392],[393],[394],[395],[396],[397],[398],[399],[400],[401]]},{"type":"LineString","properties":{"source":"openstreetmap.org","kind":"major_road","landuse_kind":"urban_area","sort_rank":380,"kind_detail":"primary","ref":"C 105","min_zoom":8.0},"arcs":[402]},{"type":"MultiLineString","properties":{"source":"openstreetmap.org","kind":"major_road","sort_rank":380,"kind_detail":"primary","ref":"N 2","min_zoom":8.0},"arcs":[[403],[404],[405]]},{"type":"MultiLineString","properties":{"source":"openstreetmap.org","kind":"major_road","landuse_kind":"protected_area","sort_rank":380,"kind_detail":"primary","ref":"D 123","min_zoom":8.0},"arcs":[[406],[407],[408]]},{"type":"MultiLineString","properties":{"source":"openstreetmap.org","kind":"major_road","sort_rank":380,"kind_detail":"primary","ref":"D 118","min_zoom":8.0},"arcs":[[409],[410]]},{"type":"LineString","properties":{"source":"openstreetmap.org","kind":"ferry","name":"Ligne Trois Rivi\u00e8res - Les Saintes","sort_rank":355,"min_zoom":8.0,"id":26099947},"arcs":[411]},{"type":"MultiLineString","properties":{"source":"openstreetmap.org","kind":"major_road","sort_rank":381,"kind_detail":"trunk","ref":"N 11","min_zoom":8.0},"arcs":[[412],[413]]},{"type":"MultiLineString","properties":{"kind":"major_road","network":null,"sort_rank":381,"kind_detail":"trunk","source":"openstreetmap.org","min_zoom":8.0,"shield_text":"1","ref":"N 1"},"arcs":[[414],[415]]},{"type":"LineString","properties":{"kind":"major_road","sort_rank":381,"landuse_kind":"protected_area","is_bicycle_related":true,"cycleway":"lane","source":"openstreetmap.org","min_zoom":8.0,"kind_detail":"trunk","ref":"N 1"},"arcs":[416]},{"type":"MultiLineString","properties":{"source":"openstreetmap.org","kind":"major_road","landuse_kind":"protected_area","sort_rank":380,"kind_detail":"primary","min_zoom":8.0},"arcs":[[417],[418],[419],[420],[421],[422],[423],[424],[425],[426],[427],[428],[429],[430],[431],[432],[433],[434],[435],[436],[437],[438],[439],[440],[441],[442],[443],[444],[445],[446],[447],[448],[449],[450],[451],[452],[453],[454],[455],[456],[457],[458],[459],[460],[461],[462],[463],[464],[465],[466],[467],[468],[469],[470],[471],[472],[473],[474],[475],[476],[477],[478],[479],[480],[481],[482]]},{"type":"MultiLineString","properties":{"source":"openstreetmap.org","kind":"major_road","sort_rank":380,"kind_detail":"primary","ref":"N 4","min_zoom":8.0},"arcs":[[483],[484],[485],[486],[487],[488],[489],[490],[491],[492],[493],[494],[495],[496],[497],[498],[499],[500],[501],[502],[503],[504],[505]]},{"type":"LineString","properties":{"source":"openstreetmap.org","kind":"major_road","sort_rank":380,"kind_detail":"primary","ref":"Bay Street","min_zoom":8.0},"arcs":[506]},{"type":"MultiLineString","properties":{"kind":"major_road","network":null,"sort_rank":380,"kind_detail":"primary","source":"openstreetmap.org","min_zoom":8.0,"landuse_kind":"protected_area","shield_text":"1","ref":"N 1"},"arcs":[[507],[508],[509],[510],[511],[512],[513],[514],[515],[516],[517],[518],[519],[520],[521],[522],[523],[524]]},{"type":"LineString","properties":{"source":"openstreetmap.org","kind":"ferry","name":"Ligne Saint-Fran\u00e7ois - La D\u00e9sirade","sort_rank":355,"min_zoom":8.0,"id":126141193},"arcs":[525]},{"type":"LineString","properties":{"source":"openstreetmap.org","kind":"major_road","sort_rank":381,"kind_detail":"trunk","ref":"N 4","min_zoom":8.0},"arcs":[526]},{"type":"LineString","properties":{"kind":"major_road","sort_rank":380,"landuse_kind":"protected_area","source":"openstreetmap.org","min_zoom":8.0,"kind_detail":"primary","ref":"D 126","id":69638015},"arcs":[527]},{"type":"MultiLineString","properties":{"source":"openstreetmap.org","kind":"major_road","landuse_kind":"park","sort_rank":380,"kind_detail":"primary","ref":"D 23","min_zoom":8.0},"arcs":[[528],[529]]},{"type":"LineString","properties":{"source":"openstreetmap.org","kind":"major_road","landuse_kind":"protected_area","sort_rank":380,"kind_detail":"primary","ref":"N 3","min_zoom":8.0},"arcs":[530]},{"type":"MultiLineString","properties":{"source":"openstreetmap.org","kind":"major_road","landuse_kind":"protected_area","sort_rank":380,"kind_detail":"primary","ref":"N 10","min_zoom":8.0},"arcs":[[531],[532]]},{"type":"LineString","properties":{"kind":"major_road","sort_rank":380,"landuse_kind":"protected_area","source":"openstreetmap.org","min_zoom":8.0,"kind_detail":"primary","ref":"C 105","id":41958227},"arcs":[533]},{"type":"LineString","properties":{"source":"openstreetmap.org","kind":"ferry","name":"Ligne Saint-Fran\u00e7ois - Saint-Louis (Marie-Galante)","sort_rank":355,"min_zoom":8.0,"id":486720158},"arcs":[534]},{"type":"MultiLineString","properties":{"kind":"major_road","network":null,"sort_rank":381,"landuse_kind":"protected_area","is_bicycle_related":true,"cycleway":"lane","source":"openstreetmap.org","min_zoom":8.0,"kind_detail":"trunk","shield_text":"1","ref":"N 1"},"arcs":[[535],[536]]},{"type":"MultiLineString","properties":{"source":"openstreetmap.org","kind":"major_road","sort_rank":381,"kind_detail":"trunk","ref":"N 1","min_zoom":8.0},"arcs":[[537],[538]]},{"type":"MultiLineString","properties":{"source":"openstreetmap.org","kind":"major_road","landuse_kind":"urban_area","sort_rank":380,"kind_detail":"primary","ref":"D 125","min_zoom":8.0},"arcs":[[539],[540]]},{"type":"LineString","properties":{"source":"openstreetmap.org","kind":"major_road","landuse_kind":"protected_area","sort_rank":380,"kind_detail":"primary","ref":"N 1","min_zoom":8.0},"arcs":[541]},{"type":"LineString","properties":{"kind":"major_road","network":null,"sort_rank":380,"kind_detail":"primary","source":"openstreetmap.org","min_zoom":8.0,"landuse_kind":"protected_area","shield_text":"1","ref":"N 2","id":51245321},"arcs":[542]},{"type":"MultiLineString","properties":{"kind":"major_road","network":null,"sort_rank":381,"landuse_kind":"urban_area","source":"openstreetmap.org","min_zoom":8.0,"kind_detail":"trunk","shield_text":"1","ref":"N 1"},"arcs":[[543],[544],[545],[546]]},{"type":"LineString","properties":{"source":"openstreetmap.org","kind":"ferry","name":"Ligne Pointe \u00e0 Pitre - Les Saintes","sort_rank":355,"min_zoom":8.0,"id":126546461},"arcs":[547]},{"type":"MultiLineString","properties":{"kind":"major_road","network":null,"sort_rank":380,"kind_detail":"primary","source":"openstreetmap.org","min_zoom":8.0,"landuse_kind":"protected_area","shield_text":"5"},"arcs":[[548],[549],[550]]}]},"earth":{"type":"GeometryCollection","geometries":[{"type":"MultiPolygon","properties":{"sort_rank":10,"source":"naturalearthdata.com","min_zoom":0.0,"kind":"earth","area":4042529567},"arcs":[[[551]],[[552]],[[553]],[[554]],[[555]],[[556]],[[557]]]},{"type":"Point","properties":{"label_placement":true,"kind":"island","name":"Dominica","area":813211008,"source":"openstreetmap.org","min_zoom":8.0,"id":-7161200,"osm_relation":true},"coordinates":[1553,424]},{"type":"Point","properties":{"label_placement":true,"name:ja":"\u30d0\u30b9\u30c6\u30fc\u30eb","name:ka":"\u10d1\u10d0\u10e1-\u10e2\u10d4\u10e0\u10d8","name:mr":"\u092c\u093e\u0938\u0947-\u0924\u0947\u0930","name:ko":"\ubc14\uc2a4\ud14c\ub974","name:he":"\u05d1\u05d0\u05e1-\u05d8\u05e8","min_zoom":8.0,"name:uk":"\u0411\u0430\u0441-\u0422\u0435\u0440","name:ru":"\u0411\u0430\u0441-\u0422\u0435\u0440","name:be":"\u0411\u0430\u0441-\u0422\u044d\u0440\u044d","name:bg":"\u0411\u0430\u0441-\u0422\u0435\u0440","name:lt":"Bas Teras","id":-531250,"osm_relation":true,"name:el":"\u039c\u03c0\u03b1\u03c2-\u03a4\u03b5\u03c1","kind":"island","name":"Basse-Terre","area":923512000,"name:sr":"\u0411\u0430\u0441-\u0422\u0435\u0440","source":"openstreetmap.org","name:zh":"\u5df4\u65af\u7279\u5c14"},"coordinates":[574,2636]},{"type":"Point","properties":{"label_placement":true,"kind":"island","name":"Grande-Terre","area":644358976,"source":"openstreetmap.org","min_zoom":8.0,"id":-272896,"osm_relation":true},"coordinates":[1255,3246]}]},"landuse":{"type":"GeometryCollection","geometries":[{"type":"Polygon","properties":{"kind":"nature_reserve","area":187471008,"sort_rank":23,"source":"openstreetmap.org","min_zoom":6.0,"tier":2,"id":-1109626,"osm_relation":true},"arcs":[[558]]},{"type":"Polygon","properties":{"kind":"park","area":187460992,"sort_rank":24,"source":"openstreetmap.org","min_zoom":6.0,"tier":2,"id":-1106907,"osm_relation":true},"arcs":[[559]]},{"type":"MultiPolygon","properties":{"source":"naturalearthdata.com","kind":"urban_area","name":"","area":123330470,"sort_rank":11,"min_zoom":4.0},"arcs":[[[560]],[[561]]]},{"type":"Polygon","properties":{"kind":"protected_area","area":2446550016,"sort_rank":17,"source":"openstreetmap.org","min_zoom":4.0,"tier":2,"id":-1106908,"osm_relation":true},"arcs":[[562],[563],[564],[565],[566],[567],[568],[569],[570],[571]]},{"type":"MultiPolygon","properties":{"source":"openstreetmap.org","kind":"protected_area","tier":2,"area":283223802,"sort_rank":17,"min_zoom":8.0,"osm_relation":true},"arcs":[[[572],[573]],[[574]],[[575],[576]],[[577]],[[578]],[[579],[580]],[[581],[582]],[[583]],[[584]],[[585],[586]]]},{"type":"Polygon","properties":{"source":"openstreetmap.org","kind":"protected_area","tier":2,"area":647132923,"sort_rank":17,"min_zoom":6.0,"osm_relation":true},"arcs":[[587],[588],[589]]},{"type":"MultiPolygon","properties":{"source":"openstreetmap.org","kind":"park","tier":2,"area":48379062,"sort_rank":24,"min_zoom":8.0,"osm_relation":true},"arcs":[[[590]],[[591]],[[592]],[[593]]]},{"type":"MultiPolygon","properties":{"source":"openstreetmap.org","kind":"nature_reserve","tier":2,"area":71064877,"sort_rank":23,"min_zoom":8.0,"osm_relation":true},"arcs":[[[594]],[[595]],[[596]],[[597]]]}]}},"type":"Topology","transform":{"translate":[-61.875,15.2841851141],"scale":[0.0003433228,0.0003300798]},"arcs":[[[0,1641],[145,-263],[91,-109],[145,-103],[187,-75],[692,433],[346,-161],[540,-98],[204,146],[109,124],[95,173],[251,742],[310,515],[39,188],[-23,194],[-131,258],[-197,160],[-148,55],[-146,15],[-167,-24],[-146,-61],[-261,9],[-81,170],[-152,167]],[[561,4096],[-561,-255]],[[0,0],[0,4096],[4096,0],[0,-4096],[-2297,0],[2,4],[9,119],[-1,24],[-5,97],[19,110],[-15,6],[-12,10],[-13,5],[20,85],[-5,111],[-28,106],[-4,7],[-45,65],[-16,29],[-29,49],[-18,46],[-6,21],[-144,58],[-36,-8],[-44,-22],[-37,25],[-47,69],[-36,27],[-33,13],[-35,1],[-57,2],[-34,-129],[-24,-36],[22,-2],[35,-13],[21,-4],[-15,-30],[-49,-35],[-14,-20],[0,-28],[11,-16],[16,-15],[12,-23],[3,-74],[7,-37],[19,-15],[16,-10],[17,-25],[13,-31],[5,-28],[11,-26],[67,-66],[9,-27],[7,-56],[6,-21],[41,-89],[13,-55],[5,-75],[7,-36],[31,-37],[-1441,0]],[[1211,3719],[-10,4],[-8,-10],[-90,-49],[-28,-20],[-12,-20],[-45,-55],[-26,-39],[2,-30],[13,-27],[17,-108],[23,-6],[24,-9],[20,-13],[12,-14],[3,-20],[-1,-28],[-4,-26],[-8,-10],[-54,-13],[-27,-34],[-48,-158],[0,-1],[-11,-43],[-2,-40],[13,-37],[30,-37],[39,-32],[49,-29],[58,-23],[63,-10],[51,8],[98,44],[514,117],[45,-12],[22,-11],[82,-20],[24,0],[33,27],[-16,17],[-56,16],[-158,111],[-30,15],[-17,11],[-64,54],[-28,18],[-33,5],[-30,-1],[-28,2],[-30,16],[-20,-22],[-42,23],[-37,25],[-31,33],[-29,43],[-22,47],[-5,30],[7,80],[-13,80],[-34,62],[-51,51],[-94,68]],[[2435,3212],[-115,-98],[-38,-20],[67,-10],[83,36],[148,98],[-75,23],[-70,-29]],[[1838,2181],[-71,16],[-64,-36],[-52,-60],[-21,-33],[-8,-43],[-28,-40],[-12,-23],[9,-10],[11,-8],[10,-20],[7,-25],[3,-20],[38,-79],[88,-14],[99,25],[73,36],[34,27],[19,24],[9,27],[2,38],[-10,39],[-22,24],[-22,18],[-34,87],[-58,50]],[[894,1808],[-17,7],[-18,-7],[-15,-31],[-15,-10],[-15,-14],[8,-13],[31,10],[34,24],[16,14],[-3,7],[-1,5],[-5,8]],[[740,1768],[-11,11],[-29,-16],[-11,-39],[32,-19],[25,16],[8,24],[-14,23]],[[828,1807],[-15,2],[5,-10],[16,-2],[-6,10]],[[808,2159],[92,111],[24,160],[-20,166],[-37,106],[-6,140],[20,31],[52,12],[20,6],[-22,60],[18,68],[-7,15],[-19,18],[-36,-6],[-28,-23],[-15,-32],[-30,31],[-9,12],[-13,-10],[0,-3],[-5,3],[-24,10],[42,18],[-50,61],[-100,53],[-107,38],[-73,14],[-29,14],[-20,26],[-27,17],[-54,-14],[-42,-36],[-48,-86],[-29,-25],[10,-39],[-11,-95],[1,-52],[16,-32],[23,-33],[13,-36],[-14,-45],[43,-109],[3,-239],[35,-107],[26,-17],[12,-28],[10,-35],[21,-36],[34,-31],[30,-19],[26,-23],[20,-41],[-21,-20],[17,-45],[4,-17],[151,64],[133,80]],[[820,3228],[7,-13],[14,14],[28,8],[-13,9],[-9,5],[-13,-5],[-14,-18]],[[2223,2705],[-28,-2],[-17,2],[22,-20],[9,0],[20,3],[10,14],[-16,3]],[[827,1696],[1,-12],[14,-11],[-1,12],[-14,11]],[[791,1681],[-5,6],[-7,-1],[5,-5],[7,0]],[[942,3034],[-19,18],[-36,-6],[-28,-23],[-15,-32],[-30,31],[-9,12],[-13,-10],[0,-3],[-5,3],[-24,10],[42,18],[-50,61],[-100,53],[-107,38],[-73,14],[-29,14],[-20,26],[-27,17],[-54,-14],[-42,-36],[-48,-86],[-29,-25],[10,-39],[-11,-95],[1,-52],[16,-32],[23,-33],[13,-36],[-14,-45],[43,-109],[3,-239],[35,-107],[26,-17],[12,-28],[10,-35],[21,-36],[34,-31],[30,-19],[26,-23],[20,-41],[-21,-20],[17,-45],[4,-17],[151,64],[133,80],[92,111],[24,160],[-20,166],[-37,106],[-6,140],[20,31],[52,12],[20,6],[-22,60],[18,68],[-7,15]],[[964,3033],[-11,-43],[-2,-40],[13,-37],[30,-37],[39,-32],[49,-29],[58,-23],[63,-10],[51,8],[98,44],[514,117],[45,-12],[22,-11],[82,-20],[24,0],[33,27],[-16,17],[-56,16],[-158,111],[-30,15],[-17,11],[-64,54],[-28,18],[-33,5],[-30,-1],[-28,2],[-30,16],[-20,-22],[-42,23],[-37,25],[-31,33],[-29,43],[-22,47],[-5,30],[7,80],[-13,80],[-34,62],[-51,51],[-94,68],[-10,4],[-8,-10],[-90,-49],[-28,-20],[-12,-20],[-45,-55],[-26,-39],[2,-30],[13,-27],[17,-108],[23,-6],[24,-9],[20,-13],[12,-14],[3,-20],[-1,-28],[-4,-26],[-8,-10],[-54,-13],[-27,-34],[-48,-158],[0,-1]],[[2580,3218],[-75,23],[-70,-29],[-115,-98],[-38,-20],[67,-10],[83,36],[148,98]],[[1799,0],[2,4],[9,119],[-1,24],[-5,97],[19,110],[-15,6],[-12,10],[-13,5],[20,85],[-5,111],[-28,106],[-4,7],[-45,65],[-16,29],[-29,49],[-18,46],[-6,21],[-144,58],[-36,-8],[-44,-22],[-37,25],[-47,69],[-36,27],[-33,13],[-35,1],[-57,2],[-34,-129],[-24,-36],[22,-2],[35,-13],[21,-4],[-15,-30],[-49,-35],[-14,-20],[0,-28],[11,-16],[16,-15],[12,-23],[3,-74],[7,-37],[19,-15],[16,-10],[17,-25],[13,-31],[5,-28],[11,-26],[67,-66],[9,-27],[7,-56],[6,-21],[41,-89],[13,-55],[5,-75],[7,-36],[31,-37]],[[1984,1963],[-10,39],[-22,24],[-22,18],[-34,87],[-58,50],[-71,16],[-64,-36],[-52,-60],[-21,-33],[-8,-43],[-28,-40],[-12,-23],[9,-10],[11,-8],[10,-20],[7,-25],[3,-20],[38,-79],[88,-14],[99,25],[73,36],[34,27],[19,24],[9,27],[2,38]],[[899,1800],[-5,8],[-17,7],[-18,-7],[-15,-31],[-15,-10],[-15,-14],[8,-13],[31,10],[34,24],[16,14],[-3,7],[-1,5]],[[729,1779],[-29,-16],[-11,-39],[32,-19],[25,16],[8,24],[-14,23],[-11,11]],[[1003,2923]],[[1007,2926]],[[969,2935],[0,-7]],[[970,2926],[1,2]],[[971,2928],[-2,0],[0,-1],[1,-1]],[[970,2926],[11,-5]],[[971,2928],[0,6]],[[981,2922],[-10,5]],[[982,2921],[2,0]],[[984,2921],[-2,0]],[[984,2921],[8,-4]],[[992,2917],[2,-1]],[[994,2917],[-2,0]],[[1003,2923],[-8,-5]],[[1007,2926],[-4,-3]],[[1078,2995],[-2,-4]],[[971,2934],[2,3],[-3,2],[-1,-3],[2,-2]],[[982,2920],[0,1],[-1,1]],[[981,2922],[0,-1],[1,-1]],[[970,2899],[255,-748],[15,-176],[-90,-261],[-103,-138],[-146,-114],[-65,-178],[-49,-253],[-3,-157],[45,-166],[109,-208],[224,-294],[252,-166],[-2,-40]],[[851,2899],[-6,-1]],[[845,2897],[6,1]],[[884,2896],[-33,2]],[[851,2898],[34,-3]],[[897,2898],[-11,-1]],[[886,2896],[11,1]],[[901,2899],[-4,-1]],[[897,2897],[4,2]],[[917,2905],[-16,-6]],[[917,2905]],[[917,2905],[0,-1]],[[918,2904],[0,1]],[[918,2905],[-1,0],[0,-1]],[[917,2904],[1,0],[0,1]],[[918,2905]],[[918,2905],[13,-2]],[[852,2898],[-1,1],[0,-1],[1,0]],[[897,2897],[0,1],[0,-1]],[[932,2905],[-1,-1],[1,-1],[0,1],[0,1]],[[932,2905],[0,6]],[[932,2905],[0,6]],[[934,2937],[-2,-24]],[[933,2913],[2,15]],[[883,2908],[0,-1]],[[883,2908]],[[885,2921],[1,10]],[[886,2937],[0,-6]],[[886,2931],[0,7]],[[931,2904]],[[932,2912],[0,-1]],[[932,2911],[1,1]],[[935,2928],[3,4]],[[989,2899]],[[989,2899]],[[989,2899]],[[994,2916],[-5,-17]],[[989,2899]],[[989,2899],[0,-1]],[[989,2898],[2,0]],[[989,2898]],[[989,2898],[1,1],[2,9],[2,8]],[[995,2917],[0,1],[-1,-1]],[[1002,2904],[-3,-8]],[[999,2896],[3,8]],[[1008,2917],[-6,-12]],[[1003,2905],[5,12]],[[1014,2921],[-6,-3]],[[1008,2918],[6,2]],[[886,2896],[-1,1],[-1,-1],[1,-1],[1,1]],[[933,2912],[0,1],[-1,0],[0,-1],[1,0]],[[994,2917],[0,-1],[0,1]],[[1003,2905],[-1,0],[0,-1],[1,0],[0,1]],[[1008,2917],[0,1],[0,-1]],[[426,2143],[13,-13],[5,-2],[1,0]],[[444,2128],[-18,15]],[[234,3090],[-15,-11],[33,-29],[-44,-28],[-3,-69],[43,-5],[-11,-62],[32,-65]],[[257,3141],[-18,-37]],[[257,3142]],[[258,3143],[-1,-1]],[[258,3142],[0,1]],[[482,3174],[-42,54],[-80,11],[-57,-10],[-49,-55],[4,-31]],[[274,2813],[3,-5]],[[275,2793],[31,-225]],[[306,2568],[1,-3]],[[307,2565],[-5,-90],[34,-126],[-17,-8],[52,-60],[4,-73]],[[376,2207],[17,-10]],[[393,2197],[1,-12]],[[394,2187],[-1,10]],[[394,2185],[11,-15]],[[405,2170],[0,-1]],[[405,2170]],[[406,2169]],[[406,2169]],[[406,2169],[7,-8]],[[413,2161]],[[413,2161]],[[413,2161],[0,-1]],[[482,3174],[1,-1]],[[483,3173],[-1,1]],[[483,3173],[1,0]],[[484,3173],[-1,0]],[[490,3170],[-6,3]],[[490,3170],[0,-1]],[[490,3169],[0,1]],[[491,3169]],[[491,3169]],[[600,3018],[-8,69],[-69,86],[-32,-4]],[[600,3018],[1,-1]],[[601,3017],[-1,1]],[[745,2955],[-141,60]],[[752,2955],[30,-3]],[[785,2951],[32,-19],[15,-5]],[[829,2928],[-44,24]],[[258,3142],[-1,0],[1,0]],[[886,2960],[0,-19]],[[895,2965],[-9,-4]],[[886,2941],[0,19]],[[887,2961],[8,4]],[[1058,2981],[-1,0]],[[1057,2981],[-14,13]],[[1057,2983],[0,-2]],[[1057,2981],[2,-8]],[[1059,2974],[-1,5]],[[1066,3008],[-1,-2]],[[1067,3007],[0,1]],[[755,1726],[39,41],[55,4]],[[326,2720],[-51,31]],[[369,2720],[-21,-2]],[[599,2720],[44,37]],[[643,2757],[1,1]],[[644,2758],[-1,-1]],[[645,2758],[-1,0]],[[644,2758],[1,0]],[[645,2758],[153,71]],[[799,2829],[-1,0]],[[798,2829],[1,0]],[[1009,2927],[2,1]],[[1010,3432],[-1,-1]],[[1010,3432],[48,40],[-13,64],[22,62]],[[1052,3405],[-42,27]],[[1053,3405],[-1,0]],[[1052,3405],[1,0]],[[1054,3405],[1,0]],[[1055,3405],[-1,0]],[[1146,3369],[-91,36]],[[1126,3314],[22,52]],[[1126,3314],[9,-1]],[[1179,3307],[-44,6]],[[1146,3369],[2,-3]],[[1180,3306],[-1,1]],[[1211,3288],[-31,18]],[[1206,3173],[1,-5]],[[1208,3168],[-2,5]],[[1212,3287],[-1,1]],[[1212,3287],[-1,1]],[[1215,3190],[-3,97]],[[837,2931],[-54,-157],[11,-54]],[[794,2720],[-10,54],[20,56],[28,52],[2,7]],[[795,2719],[40,-27]],[[836,2692],[-41,28]],[[834,2892],[1,17]],[[834,2918],[3,13]],[[836,2691],[3,-5]],[[843,2640],[-3,46],[-4,6]],[[841,2662],[0,-5],[2,-17]],[[843,2640],[3,-12]],[[846,2628],[5,-22]],[[851,2606],[5,-25]],[[856,2581],[1,-8]],[[858,2573],[-2,8]],[[858,2572]],[[890,2329],[-19,-24],[-2,-5],[12,-38],[-23,-32]],[[859,2229],[23,33],[-12,38],[21,28]],[[859,2567],[30,-70]],[[892,2329],[0,1]],[[1026,2894],[-11,21]],[[1015,2914],[11,-20]],[[908,2433]],[[908,2433],[0,-1],[1,1],[-1,0]],[[908,2432],[1,-2],[0,3]],[[954,2993],[-6,-4]],[[948,2989],[97,5]],[[883,2907],[2,-10]],[[883,2908]],[[885,2897],[-2,11]],[[1051,2966],[1,0]],[[1550,3169],[-5,5],[-15,8]],[[1530,3182]],[[1530,3182]],[[1530,3181],[22,-16]],[[1587,3161]],[[1587,3160],[1,0]],[[1061,2973],[1,1],[-1,0],[0,-1]],[[1509,3183],[0,1],[-1,-1],[1,0]],[[1530,3181],[0,1]],[[1530,3182]],[[1530,3182],[0,-1]],[[1579,3170],[-1,0],[0,-1],[1,1]],[[1587,3160]],[[1587,3160],[1,1],[-1,0]],[[1587,3161],[0,-1]],[[1746,2947],[1,0],[-1,0]],[[1027,2894],[-11,0]],[[1016,2894],[11,-1]],[[1027,2894],[0,-1],[1,0],[0,1],[-1,0]],[[1064,2975],[-3,-1]],[[1061,2973],[3,2]],[[1076,2991],[-12,-16]],[[426,2143],[1,1]],[[427,2145],[1,0]],[[1050,2964],[9,7],[1,1],[1,1]],[[1061,2973],[-9,-6]],[[1487,3182],[-113,-23]],[[1487,3182],[21,1]],[[1508,3184],[-21,-2]],[[1509,3183],[21,-2]],[[1530,3182],[-21,1]],[[1548,3166],[2,3]],[[1552,3165],[26,5]],[[1578,3170]],[[1578,3170]],[[1578,3169],[1,0]],[[1579,3169],[0,1]],[[1586,3162],[-7,7]],[[1746,2948],[-55,134],[-59,22],[-44,56]],[[1746,2948],[0,-1]],[[1746,2947],[0,1]],[[1117,3096],[-50,-87]],[[1067,3009],[50,86]],[[1119,3098],[14,17]],[[1133,3115],[2,2]],[[1134,3117],[-1,-2]],[[1135,3117],[1,3],[-2,-3]],[[1207,3167],[-6,-4]],[[1207,3167],[1,1]],[[1207,3168],[0,-1]],[[1209,3169],[-1,-1]],[[1208,3168],[1,1]],[[1239,3164],[-30,5]],[[1374,3159],[-68,-22],[-66,27]],[[1117,3096],[0,-1],[0,1]],[[1135,3117],[-1,0],[1,0]],[[1054,2943],[-13,-11]],[[1054,2943],[1,0]],[[1054,2944],[0,-1]],[[1059,2953],[-4,-9]],[[1055,2944],[5,9]],[[1055,2944],[-1,-1],[1,0],[0,1]],[[1060,2954],[-1,0],[0,-1],[1,0],[0,1]],[[834,2889],[0,3]],[[839,2686],[2,-24]],[[859,2567]],[[1026,2894],[-3,-47]],[[1023,2848],[3,46]],[[411,2160],[49,-169],[302,-110],[87,-110]],[[979,2913],[-3,-9]],[[977,2904],[2,8]],[[856,2228],[-38,-40]],[[1071,3603],[-4,-5],[3,2],[1,3]],[[1234,3289],[-91,278],[-72,36]],[[1234,3289]],[[1234,3289]],[[1234,3289],[0,-1],[0,1]],[[1615,2029],[-69,-19],[-8,-55],[29,-121],[54,-29]],[[413,2186],[-17,-1]],[[413,2186],[2,0]],[[970,2899],[344,-737],[110,-94],[191,-39]],[[1201,3163],[-65,-43]],[[433,2150],[1,1]],[[437,2154],[-3,-2]],[[434,2152],[3,2]],[[449,2164],[-12,-10]],[[449,2164]],[[449,2164]],[[1065,3006],[-10,-21]],[[1056,2985],[5,8],[6,14]],[[600,2161],[-1,1]],[[539,2141],[1,0],[-1,1],[0,-1]],[[558,2140],[-1,0],[1,-1],[0,1]],[[818,2188],[-1,0],[0,-1],[1,0],[0,1]],[[1022,2935],[-14,-8]],[[1034,2949],[-12,-14]],[[1038,2954],[-4,-5]],[[1038,2954],[1,2]],[[1039,2956],[-1,-2]],[[1039,2956],[2,1]],[[1041,2957],[-2,-1]],[[1041,2957],[9,7]],[[1052,2967],[0,-1]],[[1007,2926],[1,0],[1,1],[-1,0],[-1,-1]],[[1620,2030],[16,-81],[-48,-30]],[[1589,1916],[42,-96]],[[1632,1810],[13,-4]],[[1645,1806],[-1,0]],[[1645,1806],[75,75]],[[1720,1882]],[[1721,1882],[-1,0]],[[1720,1882],[1,0]],[[1721,1882],[163,-12],[20,-33]],[[1016,2894],[-27,5]],[[991,2898],[8,-2],[17,-2]],[[948,2989],[-53,-24]],[[895,2965],[53,24]],[[1043,2994],[-89,-1]],[[1423,36],[-11,9]],[[413,2161]],[[419,2152]],[[419,2152]],[[419,2152]],[[419,2152]],[[425,2143]],[[427,2144],[-1,-1]],[[428,2145],[-1,0]],[[938,2932],[3,3]],[[989,2899],[-13,6]],[[977,2904],[12,-5]],[[1215,891],[-19,20],[10,54],[114,79],[52,-47],[26,-70],[144,10],[107,-42],[4,-77],[89,-61],[-2,-147],[-144,-133],[-55,-101],[5,-92]],[[1328,342],[-23,8],[16,22],[-110,216],[-29,123],[28,15],[-44,28],[54,81],[0,41]],[[1328,342],[-1,3]],[[1409,166],[-28,87],[-68,76],[15,13]],[[1409,165],[0,-21]],[[1409,138],[-1,5],[1,1]],[[1409,144],[0,-6]],[[1409,165]],[[1409,165],[0,1]],[[1409,166]],[[1412,47],[-3,91]],[[1409,166]],[[1410,155],[3,0]],[[1412,45],[0,2]],[[1413,155],[0,-3]],[[1413,155],[67,29],[66,99]],[[1444,0],[-20,36]],[[1546,283],[0,1],[0,-1]],[[1778,0],[-8,7],[67,113],[-11,57],[-45,37],[25,53],[-101,56],[-82,7],[-77,-46]],[[1588,1917],[0,-1]],[[1588,1918]],[[1631,1820],[1,-10]],[[1633,1811],[5,-3],[1,0]],[[419,2152]],[[419,2152]],[[419,2152]],[[425,2143],[1,0],[-1,0]],[[427,2145],[0,-1],[0,1]],[[1206,2798]],[[1218,2797],[1,0],[-1,0]],[[1409,165],[0,1],[0,-1]],[[1416,2847],[-1,0],[0,-1],[1,1]],[[1424,36],[-1,0],[1,0]],[[1469,2882],[1,-1],[0,1],[-1,0]],[[1497,2921],[0,1],[-1,-1],[1,0]],[[1503,2922],[0,-1],[0,1]],[[1720,1882]],[[254,2863],[-7,18]],[[1625,1807],[-76,36],[-179,474],[-367,493],[-33,89]],[[445,2128]],[[445,2128],[-1,0]],[[794,2720],[1,-1]],[[795,2720],[-1,0]],[[835,2909],[-1,9]],[[836,2692],[-1,0],[1,-1],[0,1]],[[857,2573],[1,-1],[0,1],[-1,0]],[[858,2230],[0,-1],[0,1]],[[892,2330],[-2,-1],[1,-1],[1,0],[0,2]],[[1058,2979],[0,2]],[[1051,2966],[-3,-3]],[[1052,2966],[-1,0]],[[1039,2956]],[[886,2940],[0,-3]],[[886,2938],[0,2]],[[1031,2931],[-17,-10]],[[1014,2920],[17,11]],[[1037,2931],[-5,1]],[[1032,2931],[5,0]],[[1041,2932],[-4,-1]],[[1045,2994],[12,-11]],[[886,2941],[-1,-1],[1,0]],[[886,2940],[1,1],[-1,0]],[[887,2961],[-1,0],[0,-1],[1,1]],[[1031,2932],[0,-1]],[[1031,2931],[1,0],[-1,1]],[[1093,3010],[-15,-15]],[[413,2161]],[[413,2160],[6,-8]],[[419,2152],[6,-9]],[[1212,3288],[21,1]],[[1234,3289],[-1,0]],[[1233,3289],[1,0]],[[1705,2945],[40,2]],[[1746,2947]],[[849,1771],[-179,301]],[[1059,2973],[0,-19]],[[1060,2954],[-1,17],[0,3]],[[961,2937],[-26,2]],[[935,2938],[17,-2],[10,1]],[[901,2342],[-2,-3]],[[238,3101],[-4,-9]],[[234,3092],[0,-2]],[[238,3102],[0,1]],[[238,3101],[1,3]],[[269,2821],[5,-8]],[[277,2808],[-2,-15]],[[375,2207],[0,1],[0,-1]],[[376,2207]],[[394,2184]],[[395,2185],[-1,2]],[[395,2185]],[[412,2162],[1,-1]],[[413,2161]],[[418,2186],[-5,0]],[[415,2186],[3,0]],[[427,2180],[-9,6]],[[427,2180],[1,-1]],[[428,2179],[-1,1]],[[432,2150],[-4,-5]],[[428,2179],[1,0]],[[429,2179],[-1,0]],[[439,2172],[-10,7]],[[434,2151],[-1,-1]],[[439,2172],[6,-4]],[[449,2165],[-4,3]],[[449,2165]],[[449,2165]],[[526,2170]],[[563,2142],[-1,-1]],[[601,3017],[1,0]],[[602,3017],[-1,0]],[[604,3015],[-2,2]],[[624,2155],[2,-3]],[[748,2956],[-3,-1],[3,0]],[[749,2955],[3,0],[-3,0]],[[784,2952],[0,-1]],[[827,2898],[2,0]],[[829,2898],[-2,1]],[[834,2930],[-5,-2]],[[832,2927],[2,0]],[[857,2229],[1,0]],[[1010,3431],[-1,0]],[[1071,3602],[0,1]],[[1210,3185],[-2,-4],[-3,-5],[1,-3]],[[1206,3173],[4,12]],[[1210,3185],[5,5]],[[375,2207],[1,0],[-1,0]],[[394,2185],[1,-1],[0,1]],[[395,2185],[-1,0]],[[406,2170],[-1,-1],[1,0],[0,1]],[[428,2179]],[[428,2179]],[[432,2150],[1,0],[-1,0]],[[434,2151],[0,1],[0,-1]],[[450,2165],[-1,0],[0,-1],[1,1]],[[483,3173],[0,1],[0,-1]],[[491,3169],[-1,1],[0,-1],[1,0]],[[601,3017]],[[601,3017]],[[644,2758]],[[749,2955],[0,1],[-1,-1],[0,-1],[1,1]],[[785,2951],[0,1],[-1,0]],[[784,2952],[0,-1],[1,0]],[[800,2830],[-1,-1],[1,0],[0,1]],[[827,2898],[-1,1],[-1,0],[1,-1],[1,0]],[[1053,3405],[1,-1],[0,1],[0,1],[-1,-1]],[[1082,2832],[123,-34]],[[1206,2798],[-1,0]],[[1205,2798],[1,0]],[[1207,2798],[-1,0]],[[1206,2798],[1,0]],[[1207,2798],[11,-1]],[[1219,2797],[193,50]],[[1415,2847],[-3,0]],[[1412,2847],[3,-1]],[[1415,2846],[39,10]],[[1454,2856],[-38,-9]],[[1454,2856],[15,25]],[[1496,2921],[-26,-38]],[[1496,2921],[1,0]],[[1496,2921]],[[1497,2921],[1,0]],[[1498,2921],[-1,0]],[[1502,2921],[-4,0]],[[1502,2921],[1,0]],[[1503,2922],[-1,-1]],[[1504,2923],[-1,-1]],[[1503,2922],[1,1]],[[1705,2945],[-201,-22]],[[1220,876],[-5,15]],[[446,2128],[80,42]],[[526,2170],[13,-29]],[[539,2142],[0,-1]],[[539,2141]],[[540,2141]],[[540,2141]],[[540,2141],[17,-2]],[[557,2140],[0,-1]],[[557,2139]],[[558,2139],[1,0]],[[559,2139],[-1,1]],[[562,2141],[-3,-2]],[[599,2162],[-36,-20]],[[624,2155],[-24,6]],[[816,2186],[-93,-74],[-40,53],[-57,-13]],[[816,2186],[1,1]],[[817,2187],[-1,-1]],[[818,2188],[1,1]],[[1753,2926],[23,-18],[308,-10],[254,188]],[[1026,2841],[56,-9],[-55,9]],[[1097,3014]],[[348,2718],[-22,2]],[[369,2720],[160,-18],[70,18]],[[428,2145],[4,5]],[[845,2898],[-16,0]],[[829,2898],[16,-1]],[[1097,3014],[-4,-4]],[[1753,2926],[-191,-699],[0,-74],[53,-124]],[[889,2497],[19,-63]],[[909,2430],[-8,-88]],[[1023,2847],[3,-6]],[[1027,2841],[-4,7]],[[981,2921],[-2,-8]],[[979,2912],[3,8]],[[526,2169],[-81,-41]],[[445,2128],[1,0]],[[935,2939],[-56,-1],[-42,-7]],[[837,2931],[98,7]],[[1015,2915],[-6,11],[-5,4],[-31,8],[-12,-1]],[[962,2937],[53,-23]],[[970,2899],[126,-503],[-1,-200],[-100,-164],[-159,-157],[13,-104]],[[1067,3009],[-1,0],[1,-1],[1,0],[-1,1]],[[1208,3168],[-1,0],[1,0]],[[1240,3164]],[[1799,0],[-358,0],[-31,37],[-7,36],[-5,75],[-13,55],[-41,89],[-6,21],[-7,56],[-9,27],[-67,66],[-11,26],[-5,28],[-13,31],[-17,25],[-16,10],[-19,15],[-7,37],[-3,74],[-12,23],[-16,15],[-11,16],[0,28],[14,20],[49,35],[15,30],[-21,4],[-35,13],[-22,2],[24,36],[34,129],[57,-2],[35,-1],[33,-13],[36,-27],[47,-69],[37,-25],[44,22],[36,8],[144,-58],[6,-21],[18,-46],[29,-49],[16,-29],[45,-65],[4,-7],[28,-106],[5,-111],[-20,-85],[13,-5],[12,-10],[15,-6],[-19,-110],[5,-97],[1,-24],[-9,-119],[-2,-4]],[[1847,1811],[-99,-25],[-88,14],[-38,79],[-3,20],[-7,25],[-10,20],[-11,8],[-9,10],[12,23],[28,40],[8,43],[21,33],[52,60],[64,36],[71,-16],[58,-50],[34,-87],[22,-18],[22,-24],[10,-39],[-2,-38],[-9,-27],[-19,-24],[-34,-27],[-73,-36]],[[2432,3120],[-83,-36],[-67,10],[38,20],[115,98],[70,29],[75,-23],[-148,-98]],[[787,3024],[5,-3],[0,3],[13,10],[9,-12],[30,-31],[15,32],[28,23],[36,6],[19,-18],[7,-15],[-18,-68],[22,-60],[-20,-6],[-52,-12],[-20,-31],[6,-140],[37,-106],[20,-166],[-24,-160],[-92,-111],[-133,-80],[-151,-64],[-4,17],[-17,45],[21,20],[-20,41],[-26,23],[-30,19],[-34,31],[-21,36],[-10,35],[-12,28],[-26,17],[-35,107],[-3,239],[-43,109],[14,45],[-13,36],[-23,33],[-16,32],[-1,52],[11,95],[-10,39],[29,25],[48,86],[42,36],[54,14],[27,-17],[20,-26],[29,-14],[73,-14],[107,-38],[100,-53],[50,-61],[-42,-18],[24,-10]],[[1520,3200],[42,-23],[20,22],[30,-16],[28,-2],[30,1],[33,-5],[28,-18],[64,-54],[17,-11],[30,-15],[158,-111],[56,-16],[16,-17],[-33,-27],[-24,0],[-82,20],[-22,11],[-45,12],[-514,-117],[-98,-44],[-51,-8],[-63,10],[-58,23],[-49,29],[-39,32],[-30,37],[-13,37],[2,40],[11,43],[0,1],[48,158],[27,34],[54,13],[8,10],[4,26],[1,28],[-3,20],[-12,14],[-20,13],[-24,9],[-23,6],[-17,108],[-13,27],[-2,30],[26,39],[45,55],[12,20],[28,20],[90,49],[8,10],[10,-4],[94,-68],[51,-51],[34,-62],[13,-80],[-7,-80],[5,-30],[22,-47],[29,-43],[31,-33],[37,-25]],[[746,1721],[-25,-16],[-32,19],[11,39],[29,16],[11,-11],[14,-23],[-8,-24]],[[853,1750],[-31,-10],[-8,13],[15,14],[15,10],[15,31],[18,7],[17,-7],[5,-8],[1,-5],[3,-7],[-16,-14],[-34,-24]],[[316,2741],[11,8],[16,-15],[-1,31],[46,3],[24,43],[3,-33],[76,19],[53,-54],[59,1],[-15,-95],[-27,-30],[20,-13],[45,35],[6,40],[5,-24],[-27,-62],[59,-13],[0,-63],[32,-2],[10,-27],[41,10],[12,-41],[-39,-32],[12,-99],[-27,3],[24,-113],[-38,-42],[-32,14],[-3,50],[-81,-15],[-2,57],[-67,93],[-38,-12],[-6,28],[-33,-24],[-16,18],[24,99],[35,39],[-16,49],[-95,34],[27,90],[-15,26],[-50,-7],[-12,26]],[[316,2741],[11,8],[16,-15],[-1,31],[46,3],[24,43],[3,-33],[76,19],[53,-54],[59,1],[-15,-95],[-27,-30],[20,-13],[45,35],[6,40],[5,-24],[-27,-62],[59,-13],[0,-63],[32,-2],[10,-27],[42,10],[11,-41],[-39,-32],[12,-99],[-27,3],[27,-88],[-41,-67],[-32,14],[-3,50],[-81,-15],[-2,57],[-67,93],[-38,-13],[-6,29],[-33,-24],[-16,19],[24,98],[35,39],[-16,49],[-95,34],[27,90],[-15,26],[-50,-7],[-12,26]],[[949,3019],[-18,-68],[22,-60],[-72,-18],[-23,-36],[5,20],[-57,26],[-41,59],[9,87],[31,5],[39,-43],[43,55],[36,6],[26,-33]],[[1023,2852],[-72,98],[43,185],[118,-106],[-64,-67],[-25,-110]],[[0,3417],[1092,317],[104,-7],[6,-44],[54,2],[5,-41],[92,-59],[35,-148],[-20,-77],[-36,-11],[14,-46],[-24,-9],[10,-46],[-34,-42],[29,-41],[46,3],[9,-63],[-62,-20],[-21,23],[-38,-57],[15,-28],[-24,-8],[1,-54],[-197,-75],[-36,-42],[-6,76],[71,20],[-12,17],[32,27],[-18,37],[-40,-27],[-95,-2],[3,-55],[-78,37],[-4,-19],[-31,-7],[27,18],[-22,22],[-48,-42],[38,-13],[12,-54],[-49,-74],[51,-17],[-23,-37],[31,-52],[-13,-34],[30,-80],[40,-20],[-29,-50],[35,-60],[10,-126],[-50,-92],[-121,-99],[-16,-55],[-85,-6],[-93,-58],[-79,-7],[-12,84],[-100,103],[-14,74],[-55,74],[9,96],[-316,-5],[0,979]],[[316,2741],[12,-26],[50,7],[15,-26],[-27,-90],[95,-34],[16,-49],[-35,-39],[-24,-98],[16,-19],[33,24],[6,-29],[38,13],[67,-93],[2,-57],[81,15],[3,-50],[32,-14],[41,67],[-27,88],[27,-3],[-12,99],[39,32],[-11,41],[-42,-10],[-10,27],[-32,2],[0,63],[-59,13],[27,62],[-5,24],[-6,-40],[-45,-35],[-20,13],[27,30],[15,95],[-59,-1],[-53,54],[-76,-19],[-3,33],[-24,-43],[-46,-3],[1,-31],[-27,7]],[[659,3059],[94,-35],[70,65],[-153,26],[-5,-25],[24,1],[-29,-20],[32,16],[10,-20],[-43,-8]],[[924,3052],[25,-59],[24,8],[9,48],[57,16],[-23,44],[-42,6],[-50,-63]],[[192,2679],[85,-88],[-22,169],[-63,-81]],[[271,3287],[4,-13],[9,-2],[-1,12],[-12,3]],[[757,3219],[72,-58],[64,72],[-21,47],[-112,14],[-3,-75]],[[541,3226],[44,-24],[12,9],[-41,20],[-15,-5]],[[643,3186],[13,-5],[6,4],[-4,9],[-15,-8]],[[881,3062],[7,-16],[4,24],[-11,-8]],[[462,2124],[51,24],[26,-30],[27,19],[1,-29],[44,-5],[-6,-44],[-38,-40],[-78,6],[-27,99]],[[474,2101],[10,-18],[3,2],[4,7],[-17,9]],[[347,2516],[35,76],[79,-20],[16,-49],[-16,-31],[-52,48],[-24,-27],[-38,3]],[[609,2596],[20,100],[32,32],[22,-12],[-13,-39],[49,-33],[-13,-17],[52,10],[-1,31],[12,-26],[5,5],[46,4],[-49,-7],[2,-42],[61,14],[-88,-73],[17,-42],[-43,-12],[-51,30],[0,63],[-60,14]],[[688,2584],[11,2],[4,17],[-6,-1],[-9,-18]],[[192,2679],[65,85],[8,65],[12,-232],[19,21],[7,-41],[-33,12],[-78,90]],[[1076,3619],[119,109],[9,-47],[53,3],[5,-41],[93,-59],[34,-117],[-21,-108],[-24,18],[24,118],[-37,66],[-86,35],[-13,-49],[-67,-61],[40,66],[21,-1],[22,64],[-89,71],[-11,-34],[-72,-33]],[[1124,2990],[15,23],[34,-16],[-18,38],[28,17],[-27,-7],[-10,54],[23,13],[-42,33],[42,8],[-3,-28],[12,21],[20,-26],[19,17],[32,-62],[9,25],[-40,51],[71,-20],[-9,-18],[17,7],[12,-14],[-47,-35],[12,-55],[-55,36],[38,-36],[-4,-57],[-41,-14],[-11,32],[-77,13]],[[1201,3062],[4,3],[13,-11],[-5,42],[-12,-34]],[[198,3114],[61,76],[26,-3],[29,-61],[41,30],[19,-25],[-41,-73],[13,-50],[41,40],[49,-11],[65,49],[-5,-84],[-31,6],[27,-31],[-31,-29],[52,-18],[38,-72],[31,8],[-1,-37],[32,-17],[-10,-71],[-59,2],[-53,54],[-76,-19],[8,31],[-49,29],[29,6],[-17,54],[-91,43],[16,33],[-23,42],[28,22],[-22,46],[-96,30]],[[564,2812],[19,0],[-7,19],[-4,-3],[-8,-16]],[[532,3172],[68,-25],[0,-18],[54,12],[27,-15],[-6,-22],[148,-15],[-63,-62],[-66,-7],[-24,-30],[15,19],[-19,1],[11,27],[-36,82],[-15,-34],[-94,87]],[[757,3219],[3,75],[112,-14],[21,-47],[-64,-72],[-72,58]],[[979,3405],[12,4],[12,4],[4,-32],[9,-16],[7,-6],[-18,48],[75,-42],[5,18],[31,-72],[65,-39],[9,-20],[16,-12],[-3,-16],[3,-7],[-3,1],[-1,-3],[-32,13],[23,-32],[-26,-19],[11,-14],[-22,-5],[-26,41],[0,-31],[-50,7],[-14,30],[19,12],[-23,11],[49,10],[-23,35],[18,37],[-37,-12],[-51,24],[-39,83]],[[1025,3360],[40,-24],[-5,5],[-5,7],[-4,0],[-12,4],[-14,8]],[[198,3114],[52,64],[-10,161],[13,51],[59,5],[415,-92],[277,-22],[13,24],[-61,172],[6,48],[44,39],[-7,-22],[50,-56],[-55,-31],[6,-39],[108,-57],[6,-47],[92,-72],[-7,-21],[-30,11],[24,-35],[-36,-26],[-8,25],[-28,5],[-15,-31],[-68,39],[-11,-50],[25,-60],[-31,8],[-3,-115],[-88,-4],[-69,28],[-63,-70],[-64,12],[-18,91],[-35,-33],[-23,45],[23,14],[-22,4],[27,20],[-20,-8],[-27,34],[-12,-32],[-7,29],[-67,24],[-25,39],[-59,0],[-47,66],[-40,16],[-94,-36],[-28,-39],[25,-3],[29,-61],[41,30],[19,-25],[-41,-73],[13,-50],[41,40],[49,-11],[65,49],[-5,-84],[-31,6],[27,-31],[-31,-29],[52,-18],[7,-44],[33,0],[10,-34],[18,15],[0,-38],[32,-17],[-11,-72],[20,-27],[-36,-70],[25,-1],[50,86],[22,-12],[-13,-39],[49,-33],[-13,-17],[52,10],[-2,31],[13,-26],[5,5],[46,4],[-49,-7],[2,-42],[61,14],[-91,-80],[12,-68],[108,25],[-72,-40],[29,-20],[-95,-6],[11,-109],[25,-15],[-42,3],[15,-88],[-41,-44],[-29,16],[-3,50],[-50,-34],[-38,10],[3,46],[-53,2],[44,39],[-9,21],[-29,-9],[18,29],[-48,-23],[17,32],[-1,14],[-23,-30],[-25,54],[-33,-24],[-16,18],[34,117],[-43,38],[-24,-27],[-38,2],[18,19],[-15,19],[32,7],[-19,51],[15,19],[-58,27],[73,39],[-15,26],[-50,-7],[-12,26],[27,-7],[2,34],[43,0],[11,34],[-26,48],[30,-6],[-6,27],[-78,76],[-24,-6],[16,33],[-23,42],[28,22],[-22,46],[-96,30]],[[564,2812],[19,0],[-7,19],[-4,-3],[-8,-16]],[[688,2584],[11,2],[4,17],[-6,-1],[-9,-18]],[[192,2679],[63,81],[22,-169],[-85,88]],[[924,3052],[50,63],[42,-6],[23,-44],[-57,-16],[-9,-48],[-24,-8],[-25,59]],[[757,3219],[3,75],[112,-14],[21,-47],[-64,-72],[-72,58]],[[659,3059],[43,8],[-10,20],[-32,-16],[29,20],[-24,-1],[5,25],[153,-26],[-70,-65],[-94,35]],[[192,2679],[63,81],[22,-169],[-1,0],[-84,88]],[[924,3052],[50,63],[42,-6],[23,-44],[-57,-16],[-9,-48],[-23,-8],[-26,59]],[[757,3219],[3,75],[112,-14],[21,-47],[-64,-72],[-72,58]],[[659,3060],[43,6],[-10,21],[-32,-16],[28,20],[-23,-1],[6,17],[152,-18],[-70,-65],[-94,36]]]}