{"objects":{"water":{"type":"GeometryCollection","geometries":[{"type":"Polygon","properties":{"source":"naturalearthdata.com","kind":"ocean","area":1576712559132672,"sort_rank":200,"min_zoom":0.0,"id":1},"arcs":[[1],[2]]},{"type":"MultiLineString","properties":{"source":"naturalearthdata.com","kind":"ocean","sort_rank":205,"boundary":true,"min_zoom":0.0,"id":523},"arcs":[[3],[4]]},{"type":"LineString","properties":{"source":"naturalearthdata.com","kind":"ocean","sort_rank":205,"boundary":true,"min_zoom":0.0,"id":552},"arcs":[5]},{"type":"MultiLineString","properties":{"source":"naturalearthdata.com","kind":"ocean","sort_rank":205,"boundary":true,"min_zoom":0.0,"id":554},"arcs":[[6],[7]]}]},"buildings":{"type":"GeometryCollection","geometries":[]},"places":{"type":"GeometryCollection","geometries":[{"type":"Point","properties":{"name:pt":"Martinica","name:ka":"\u10db\u10d0\u10e0\u10e2\u10d8\u10dc\u10d8\u10d9\u10d8","name:ko":"\ub9d0\ud2f0\ub2c8\ud06c","name:kn":"\u0cae\u0cbe\u0cb0\u0ccd\u0c9f\u0cbf\u0ca8\u0cbf\u0c95\u0ccd","name:km":"\u1798\u17c9\u17b6\u1791\u17b8\u1793\u17b8\u1780","name:cs":"Martinik","name:ki":"Martiniki","min_zoom":4.0,"name:ti":"\u121b\u122d\u1272\u1292\u12ad","name:ks":"\u0645\u0627\u0631\u0679\u0650\u0646\u0650\u06a9","name:to":"Mateniki","name:or":"\u0b2e\u0b3e\u0b30\u0b4d\u0b1f\u0b3f\u0b28\u0b3f\u0b15\u0b4d\u0b5f\u0b41","name:pl":"Martynika","name:ta":"\u0bae\u0bbe\u0bb0\u0bcd\u0b9f\u0bbf\u0ba9\u0bbf\u0b95\u0bcd","name:ca":"Martinica","name:te":"\u0c2e\u0c3e\u0c30\u0c4d\u0c1f\u0c3f\u0c28\u0c3f\u0c15\u0c4d","name:bg":"\u041c\u0430\u0440\u0442\u0438\u043d\u0438\u043a\u0430","name:ro":"Martinica","source":"openstreetmap.org","name:ln":"Martiniki","name:dz":"\u0f58\u0f71\u0f62\u0f0b\u0f4a\u0f72\u0f0b\u0f53\u0f72\u0f40","name:tr":"Martinik","name:ak":"Matinik","name:lv":"Martinika","name:lt":"Martinika","name:hi":"\u092e\u093e\u0930\u094d\u091f\u0940\u0928\u093f\u0915","name:he":"\u05de\u05e8\u05d8\u05d9\u05e0\u05d9\u05e7","kind":"region","name:ur":"\u0645\u0627\u0631\u0679\u06cc\u0646\u06a9","name:la":"Martinica","name:lg":"Maritiniiki","name:uk":"\u041c\u0430\u0440\u0442\u0438\u043d\u0456\u043a\u0430","name:hr":"Martinik","name:lo":"\u0ea1\u0eb2\u0e95\u0eb4\u0e99\u0eb4\u0e81","name:oc":"Martinica","population":392291,"name:el":"\u039c\u03b1\u03c1\u03c4\u03b9\u03bd\u03af\u03ba\u03b1","name:eo":"Martiniko","name":"Martinique","name:ee":"Martiniki nutome","name:th":"\u0e21\u0e32\u0e23\u0e4c\u0e15\u0e34\u0e19\u0e35\u0e01","name:eu":"Martinika","name:es":"Martinica","name:mt":"Martinik","name:rn":"Maritiniki","name:az":"Martiniqu","name:id":"Martinik","name:mr":"\u092e\u093e\u0930\u094d\u091f\u093f\u0928\u093f\u0915","name:ar":"\u0645\u0627\u0631\u062a\u064a\u0646\u064a\u0643","official_name":"R\u00e9gion de la Martinique","name:mg":"Martinika","name:am":"\u121b\u122d\u1272\u1292\u12ad","name:it":"Martinica","name:ru":"\u041c\u0430\u0440\u0442\u0438\u043d\u0438\u043a\u0430","name:ml":"\u0d2e\u0d3e\u0d7c\u0d1f\u0d4d\u0d1f\u0d40\u0d28\u0d3f\u0d15\u0d4d","name:mn":"\u041c\u0430\u0440\u0442\u0438\u043d\u0438\u043a","id":1251670424,"name:mk":"\u041c\u0430\u0440\u0442\u0438\u043d\u0438\u043a","name:zu":"i-Martinique","name:ff":"Martinik","kind_detail":"state","name:fy":"Martinyk","name:zh":"\u99ac\u63d0\u5c3c\u514b","name:sl":"Martinik","name:sk":"Martinik","name:ja":"\u30de\u30eb\u30c6\u30a3\u30cb\u30fc\u30af","name:si":"\u0db8\u0dbb\u0dca\u0da7\u0dd2\u0db1\u0dd2\u0d9a\u0dca","name:fa":"\u0645\u0627\u0631\u062a\u06cc\u0646\u06cc\u06a9","name:sg":"M\u00e4rt\u00efn\u00eeki","name:ne":"\u092e\u093e\u0930\u094d\u091f\u093f\u0928\u093f\u0915","name:br":"Martinik","name:bs":"Martinik","name:bm":"Maritiniki","name:bn":"\u09ae\u09be\u09b0\u09cd\u099f\u09bf\u09a8\u09bf\u0995","name:sw":"Martiniki","name:be":"\u041c\u0430\u0440\u0446\u0456\u043d\u0456\u043a\u0430","name:ha":"Martinik","name:sr":"\u041c\u0430\u0440\u0442\u0438\u043d\u0438\u043a","name:ga":"Martain\u00edc","name:gd":"Mairtinic","name:gl":"Martinica","name:yo":"Or\u00edl\u1eb9\u0301\u00e8de Matinikuwi","name:gu":"\u0aae\u0abe\u0ab0\u0acd\u0a9f\u0ac0\u0aa8\u0ac0\u0a95"},"coordinates":[2659,2071]},{"type":"Point","properties":{"source":"naturalearthdata.com","kind":"locality","name":"Castries","country_capital":true,"population":37963,"min_zoom":5.0,"id":6758},"coordinates":[2549,236]},{"type":"Point","properties":{"admin_level":"8","name:he":"\u05e4\u05d5\u05e8-\u05d3\u05d4-\u05e4\u05e8\u05d0\u05e0\u05e1","name:lv":"Fordefransa","name:ja":"\u30d5\u30a9\u30fc\u30eb\uff1d\u30c9\uff1d\u30d5\u30e9\u30f3\u30b9","name:ka":"\u10e4\u10dd\u10e0-\u10d3\u10d4-\u10e4\u10e0\u10d0\u10dc\u10e1\u10d8","name:mr":"\u092b\u094b\u0930\u094d\u091f-\u0926\u0947-\u092b\u094d\u0930\u093e\u0928\u094d\u0938","name:ko":"\ud3ec\ub974\ub4dc\ud504\ub791\uc2a4","name:ar":"\u0641\u0648\u0631 \u062f\u0648 \u0641\u0631\u0627\u0646\u0633","name:th":"\u0e1f\u0e2d\u0e23\u0e4c-\u0e40\u0e14\u0e2d-\u0e1f\u0e23\u0e47\u0e2d\u0e07\u0e2a\u0e4c","name:uk":"\u0424\u043e\u0440-\u0434\u0435-\u0424\u0440\u0430\u043d\u0441","old_name":"Fort Royal","name:os":"\u0424\u043e\u0440-\u0434\u0435-\u0424\u0440\u0430\u043d\u0441","name:ru":"\u0424\u043e\u0440-\u0434\u0435-\u0424\u0440\u0430\u043d\u0441","name:bg":"\u0424\u043e\u0440 \u0434\u044c\u043e \u0424\u0440\u0430\u043d\u0441","name":"Fort-de-France","id":246835820,"population":87216,"name:fa":"\u0641\u0648\u0631-\u062f\u0648-\u0641\u0631\u0627\u0646\u0633","kind":"locality","name:lt":"For de Fransas","kind_detail":"city","min_zoom":8.0,"name:sr":"\u0424\u043e\u0440 \u0434\u0435 \u0424\u0440\u0430\u043d\u0441","source":"openstreetmap.org","name:be":"\u0424\u043e\u0440\u0442-\u0434\u044d-\u0424\u0440\u0430\u043d\u0441","name:zh":"\u6cd5\u862d\u897f\u5821","name:el":"\u03a6\u03bf\u03c1-\u03bd\u03c4\u03b5-\u03a6\u03c1\u03b1\u03bd\u03c2"},"coordinates":[2352,2045]},{"type":"Point","properties":{"admin_level":"8","kind":"locality","name":"Le Lamentin","kind_detail":"town","source":"openstreetmap.org","min_zoom":8.0,"id":536675062,"population":39700},"coordinates":[2543,2080]},{"type":"Point","properties":{"name:az":"Kastris","name:ka":"\u10d9\u10d0\u10e1\u10e2\u10e0\u10d8","name:mr":"\u0915\u0945\u0938\u094d\u091f\u094d\u0930\u0940\u091d","name:ko":"\uce90\uc2a4\ud2b8\ub9ac\uc2a4","name:ar":"\u0643\u0627\u0633\u062a\u0631\u064a\u0633","name:th":"\u0e41\u0e04\u0e2a\u0e15\u0e23\u0e35\u0e2a\u0e4c","name:am":"\u12ab\u1235\u1275\u122a\u1235","name:ru":"\u041a\u0430\u0441\u0442\u0440\u0438","name:ta":"\u0b95\u0bbe\u0bb8\u0bcd\u0b9f\u0bcd\u0bb0\u0bc0\u0bb8\u0bcd","id":4428259435,"name:mk":"\u041a\u0430\u0441\u0442\u0440\u0438","name:fa":"\u06a9\u0627\u0633\u062a\u0631\u06cc\u0633","kind_detail":"town","source":"openstreetmap.org","name:fy":"Kastrys","name:zh":"\u5361\u65af\u7279\u91cc","admin_level":"2","name:lv":"Kastri","name:ja":"\u30ab\u30b9\u30c8\u30ea\u30fc\u30ba","name:lt":"Kastris","name:he":"\u05e7\u05e1\u05d8\u05e8\u05d9\u05d6","name:ur":"\u06a9\u0627\u0633\u062a\u0631\u06cc\u0633","name:bo":"\u0f41\u0f0b\u0f66\u0f72\u0f0b\u0f50\u0fb2\u0f72\u0f66\u0f0d","name:uk":"\u041a\u0430\u0441\u0442\u0440\u0456","country_capital":true,"name:be":"\u041a\u0430\u0441\u0442\u0440\u044b","name:ht":"Kastri","name:bg":"\u041a\u0430\u0441\u0442\u0440\u0438\u0439\u0441","name:sr":"\u041a\u0430\u0441\u0442\u0440\u0438","population":22000,"name:el":"\u039a\u03ac\u03c3\u03c4\u03c1\u03b9\u03c2","kind":"locality","name":"Castries","min_zoom":8.0},"coordinates":[2577,259]},{"type":"Point","properties":{"source":"openstreetmap.org","kind":"locality","name":"Gros Islet","kind_detail":"town","population":21660,"min_zoom":8.0,"id":3994579959},"coordinates":[2702,479]}]},"transit":{"type":"GeometryCollection","geometries":[]},"pois":{"type":"GeometryCollection","geometries":[{"type":"Point","properties":{"kind":"protected_area","protect_class":"5","area":395697000,"source":"openstreetmap.org","min_zoom":7.0,"tier":2,"id":-1106761,"osm_relation":true,"name":"Parc naturel r\u00e9gional de Martinique"},"coordinates":[2197,2523]}]},"boundaries":{"type":"GeometryCollection","geometries":[{"type":"LineString","properties":{"name:sk":"Sv\u00e4t\u00e1 Lucia","name:lt":"Sent Lusija","name:cs":"Svat\u00e1 Lucie","name:eo":"Sankta Lucio","min_zoom":8.0,"name:uk":"\u0421\u0435\u043d\u0442-\u041b\u044e\u0441\u0456\u044f","name:ru":"\u0421\u0435\u043d\u0442-\u041b\u044e\u0441\u0438\u044f","name:ta":"\u0b9a\u0bc6\u0baf\u0bbf\u0ba3\u0bcd\u0b9f\u0bcd \u0bb2\u0bc2\u0b9a\u0bbf\u0baf\u0bbe","name:hr":"Sveta Lucija","id":-550728,"osm_relation":true,"name:vo":"Sanlusiy\u00e4n","name:el":"\u0391\u03b3\u03af\u03b1 \u039b\u03bf\u03c5\u03ba\u03af\u03b1","kind":"country","name":"Saint Lucia","sort_rank":262,"kind_detail":"2","name:fr":"Sainte-Lucie","name:de":"St. Lucia","source":"openstreetmap.org","maritime_boundary":true,"name:es":"Santa Luc\u00eda"},"arcs":[0]}]},"roads":{"type":"GeometryCollection","geometries":[{"type":"MultiLineString","properties":{"source":"openstreetmap.org","kind":"major_road","sort_rank":380,"kind_detail":"primary","ref":"N 5","min_zoom":8.0},"arcs":[[8],[9],[10]]},{"type":"MultiLineString","properties":{"source":"openstreetmap.org","kind":"highway","sort_rank":383,"kind_detail":"motorway","ref":"N 5","min_zoom":8.0},"arcs":[[11],[12],[13],[14]]},{"type":"LineString","properties":{"sort_rank":355,"source":"openstreetmap.org","kind":"ferry","min_zoom":8.0,"name":"Ligne Pointe-\u00e0-Pitre - Roseau"},"arcs":[15]},{"type":"MultiLineString","properties":{"source":"openstreetmap.org","kind":"major_road","landuse_kind":"urban_area","sort_rank":380,"kind_detail":"primary","ref":"N 9","min_zoom":8.0},"arcs":[[16],[17],[18],[19]]},{"type":"MultiLineString","properties":{"source":"openstreetmap.org","kind":"major_road","landuse_kind":"urban_area","sort_rank":380,"kind_detail":"primary","min_zoom":8.0},"arcs":[[20],[21],[22],[23],[24],[25],[26],[27],[28],[29],[30],[31],[32],[33],[34],[35],[36],[37],[38],[39],[40],[41]]},{"type":"MultiLineString","properties":{"source":"openstreetmap.org","kind":"major_road","landuse_kind":"protected_area","sort_rank":380,"kind_detail":"primary","ref":"N 2","min_zoom":8.0},"arcs":[[42],[43],[44],[45],[46],[47],[48],[49],[50]]},{"type":"MultiLineString","properties":{"source":"openstreetmap.org","kind":"major_road","landuse_kind":"urban_area","sort_rank":380,"kind_detail":"primary","ref":"N 1","min_zoom":8.0},"arcs":[[51],[52],[53],[54],[55],[56],[57],[58],[59],[60],[61],[62],[63],[64]]},{"type":"MultiLineString","properties":{"source":"openstreetmap.org","kind":"major_road","landuse_kind":"protected_area","sort_rank":380,"kind_detail":"primary","ref":"N 6","min_zoom":8.0},"arcs":[[65],[66],[67],[68],[69],[70],[71],[72],[73],[74],[75],[76],[77]]},{"type":"LineString","properties":{"source":"openstreetmap.org","kind":"major_road","sort_rank":380,"kind_detail":"primary","ref":"D 10","min_zoom":8.0,"id":42418216},"arcs":[78]},{"type":"LineString","properties":{"kind":"highway","network":"FR:972:A-Road","sort_rank":383,"kind_detail":"motorway","source":"openstreetmap.org","min_zoom":8.0,"all_networks":["FR:972:A-Road"],"landuse_kind":"urban_area","shield_text":"1","id":58836520,"all_shield_texts":["1"]},"arcs":[79]},{"type":"LineString","properties":{"source":"openstreetmap.org","kind":"ferry","name":"Liaison Fort de France - Anse Mitan - Anse \u00e0 l'\u00c2ne","sort_rank":355,"landuse_kind":"protected_area","min_zoom":8.0,"id":543215610},"arcs":[80]},{"type":"LineString","properties":{"kind":"highway","network":"FR:972:A-Road","sort_rank":383,"kind_detail":"motorway","source":"openstreetmap.org","min_zoom":8.0,"all_networks":["FR:972:A-Road"],"shield_text":"1","ref":"A 1","id":375350480,"all_shield_texts":["1"]},"arcs":[81]},{"type":"MultiLineString","properties":{"sort_rank":381,"source":"openstreetmap.org","min_zoom":8.0,"kind":"major_road","kind_detail":"trunk"},"arcs":[[82],[83],[84],[85],[86]]},{"type":"LineString","properties":{"kind":"major_road","sort_rank":380,"landuse_kind":"protected_area","source":"openstreetmap.org","min_zoom":8.0,"kind_detail":"primary","ref":"D 8","id":430369953},"arcs":[87]},{"type":"MultiLineString","properties":{"source":"openstreetmap.org","kind":"major_road","sort_rank":381,"kind_detail":"trunk","ref":"N 2","min_zoom":8.0},"arcs":[[88],[89]]},{"type":"MultiLineString","properties":{"source":"openstreetmap.org","kind":"major_road","landuse_kind":"protected_area","sort_rank":380,"kind_detail":"primary","ref":"N 8","min_zoom":8.0},"arcs":[[90],[91],[92],[93],[94],[95],[96],[97],[98]]},{"type":"LineString","properties":{"source":"openstreetmap.org","kind":"major_road","sort_rank":380,"kind_detail":"primary","ref":"D 42","min_zoom":8.0},"arcs":[99]},{"type":"MultiLineString","properties":{"source":"openstreetmap.org","kind":"major_road","sort_rank":381,"kind_detail":"trunk","ref":"N 5","min_zoom":8.0},"arcs":[[100],[101],[102],[103],[104],[105],[106],[107],[108],[109],[110],[111],[112]]},{"type":"LineString","properties":{"kind":"highway","sort_rank":383,"landuse_kind":"urban_area","source":"openstreetmap.org","min_zoom":8.0,"kind_detail":"motorway","ref":"A 1","id":59290284},"arcs":[113]},{"type":"MultiLineString","properties":{"source":"openstreetmap.org","kind":"ferry","name":"Liaison Fort de France - Trois \u00celets","sort_rank":355,"min_zoom":8.0,"id":254154862},"arcs":[[114],[115]]},{"type":"MultiLineString","properties":{"source":"openstreetmap.org","kind":"major_road","landuse_kind":"protected_area","sort_rank":380,"kind_detail":"primary","ref":"D 18 A","min_zoom":8.0},"arcs":[[116],[117],[118]]},{"type":"MultiLineString","properties":{"source":"openstreetmap.org","kind":"major_road","sort_rank":380,"kind_detail":"primary","ref":"N 9","min_zoom":8.0},"arcs":[[119],[120],[121],[122],[123],[124],[125],[126],[127],[128],[129],[130],[131],[132]]},{"type":"MultiLineString","properties":{"sort_rank":380,"kind_detail":"primary","min_zoom":8.0,"kind":"major_road","source":"openstreetmap.org"},"arcs":[[133],[134],[135],[136],[137],[138],[139],[140],[141],[142],[143],[144],[145],[146],[147],[148],[149],[150],[151],[152],[153],[154],[155],[156],[157],[158],[159],[160],[161],[162],[163],[164],[165],[166],[167],[168],[169],[170],[171],[172],[173],[174],[175],[176],[177],[178],[179],[180],[181],[182],[183],[184],[185],[186],[187],[188],[189],[190],[191],[192],[193],[194],[195],[196],[197],[198],[199],[200],[201],[202],[203],[204],[205],[206],[207],[208],[209],[210],[211],[212],[213],[214],[215],[216],[217],[218],[219],[220],[221],[222],[223],[224],[225],[226],[227],[228],[229],[230],[231],[232],[233],[234],[235],[236],[237],[238],[239],[240],[241],[242],[243],[244],[245],[246],[247],[248],[249],[250],[251],[252],[253],[254],[255],[256],[257],[258],[259],[260],[261],[262],[263],[264],[265],[266],[267],[268],[269],[270],[271],[272],[273]]},{"type":"MultiLineString","properties":{"source":"openstreetmap.org","kind":"major_road","landuse_kind":"urban_area","sort_rank":380,"kind_detail":"primary","ref":"D 3","min_zoom":8.0},"arcs":[[274],[275],[276],[277]]},{"type":"MultiLineString","properties":{"source":"openstreetmap.org","kind":"major_road","sort_rank":380,"kind_detail":"primary","ref":"N 1","min_zoom":8.0},"arcs":[[278],[279],[280],[281],[282],[283],[284],[285],[286],[287],[288],[289],[290],[291],[292],[293],[294],[295],[296],[297],[298],[299],[300],[301],[302],[303],[304],[305],[306],[307],[308],[309],[310],[311],[312],[313],[314],[315],[316],[317],[318],[319],[320],[321],[322],[323]]},{"type":"MultiLineString","properties":{"kind":"highway","network":"FR:972:A-Road","sort_rank":383,"landuse_kind":"urban_area","source":"openstreetmap.org","min_zoom":8.0,"all_networks":["FR:972:A-Road"],"kind_detail":"motorway","shield_text":"1","ref":"A 1","all_shield_texts":["1"]},"arcs":[[324],[325],[326]]},{"type":"MultiLineString","properties":{"source":"openstreetmap.org","kind":"major_road","sort_rank":380,"kind_detail":"primary","ref":"N 6","min_zoom":8.0},"arcs":[[327],[328],[329],[330],[331],[332],[333],[334],[335],[336],[337],[338],[339],[340],[341],[342],[343],[344],[345],[346],[347],[348],[349],[350],[351],[352],[353],[354],[355],[356],[357],[358],[359],[360],[361],[362],[363],[364],[365],[366]]},{"type":"LineString","properties":{"source":"openstreetmap.org","kind":"ferry","name":"Liaison Fort de France - Case pilote","sort_rank":355,"min_zoom":8.0,"id":543215611},"arcs":[367]},{"type":"MultiLineString","properties":{"source":"openstreetmap.org","kind":"major_road","sort_rank":380,"kind_detail":"primary","ref":"N 8","min_zoom":8.0},"arcs":[[368],[369],[370],[371],[372],[373],[374],[375],[376],[377],[378],[379]]},{"type":"MultiLineString","properties":{"source":"openstreetmap.org","kind":"major_road","sort_rank":381,"kind_detail":"trunk","ref":"D 41","min_zoom":8.0},"arcs":[[380],[381]]},{"type":"LineString","properties":{"source":"openstreetmap.org","kind":"ferry","name":"Ligne Fort de France - Castries","sort_rank":355,"min_zoom":8.0,"id":126546459},"arcs":[382]},{"type":"LineString","properties":{"kind":"highway","network":"FR:972:A-Road","sort_rank":383,"kind_detail":"motorway","source":"openstreetmap.org","min_zoom":8.0,"all_networks":["FR:972:A-Road"],"shield_text":"1","id":58836520,"all_shield_texts":["1"]},"arcs":[383]},{"type":"LineString","properties":{"source":"openstreetmap.org","kind":"major_road","kind_detail":"trunk","sort_rank":381,"landuse_kind":"urban_area","min_zoom":8.0},"arcs":[384]},{"type":"MultiLineString","properties":{"source":"openstreetmap.org","kind":"major_road","landuse_kind":"protected_area","sort_rank":380,"kind_detail":"primary","ref":"N 5","min_zoom":8.0},"arcs":[[385],[386],[387],[388],[389],[390],[391],[392],[393],[394],[395],[396],[397],[398],[399],[400],[401],[402],[403],[404],[405],[406],[407],[408],[409],[410],[411],[412],[413],[414],[415]]},{"type":"MultiLineString","properties":{"source":"openstreetmap.org","kind":"major_road","landuse_kind":"urban_area","sort_rank":380,"kind_detail":"primary","ref":"D 3 C","min_zoom":8.0},"arcs":[[416],[417],[418],[419],[420]]},{"type":"LineString","properties":{"source":"openstreetmap.org","kind":"ferry","name":"Le Marin - Rodney Bay","sort_rank":355,"min_zoom":8.0,"id":354178292},"arcs":[421]},{"type":"MultiLineString","properties":{"source":"openstreetmap.org","kind":"major_road","sort_rank":380,"kind_detail":"primary","ref":"N 2","min_zoom":8.0},"arcs":[[422],[423],[424],[425],[426],[427],[428],[429],[430],[431],[432],[433],[434],[435],[436],[437],[438],[439],[440],[441],[442],[443],[444],[445],[446],[447],[448],[449],[450],[451],[452]]},{"type":"LineString","properties":{"source":"openstreetmap.org","kind":"ferry","name":"Liaison Fort de France - Trois \u00celets","sort_rank":355,"landuse_kind":"protected_area","min_zoom":8.0,"id":254154862},"arcs":[453]},{"type":"LineString","properties":{"source":"openstreetmap.org","kind":"ferry","name":"Liaison Fort-de-France Les Trois \u00celets","sort_rank":355,"min_zoom":8.0,"id":483041187},"arcs":[454]},{"type":"LineString","properties":{"source":"openstreetmap.org","kind":"major_road","sort_rank":380,"kind_detail":"primary","ref":"N 7","min_zoom":8.0},"arcs":[455]},{"type":"MultiLineString","properties":{"source":"openstreetmap.org","kind":"major_road","landuse_kind":"protected_area","sort_rank":380,"kind_detail":"primary","min_zoom":8.0},"arcs":[[456],[457],[458],[459],[460],[461],[462],[463],[464],[465],[466],[467],[468],[469],[470],[471],[472],[473],[474],[475],[476],[477]]},{"type":"LineString","properties":{"source":"openstreetmap.org","kind":"major_road","landuse_kind":"protected_area","sort_rank":380,"kind_detail":"primary","ref":"D 10","min_zoom":8.0},"arcs":[478]},{"type":"MultiLineString","properties":{"source":"openstreetmap.org","kind":"major_road","landuse_kind":"protected_area","sort_rank":380,"kind_detail":"primary","ref":"N 3","min_zoom":8.0},"arcs":[[479],[480],[481],[482],[483],[484],[485],[486],[487]]},{"type":"MultiLineString","properties":{"source":"openstreetmap.org","kind":"major_road","landuse_kind":"urban_area","sort_rank":380,"kind_detail":"primary","ref":"N 2","min_zoom":8.0},"arcs":[[488],[489],[490]]},{"type":"LineString","properties":{"sort_rank":355,"source":"openstreetmap.org","min_zoom":8.0,"name":"Liaison Fort de France - Anse Mitan - Anse \u00e0 l'\u00c2ne","kind":"ferry"},"arcs":[491]},{"type":"MultiLineString","properties":{"source":"openstreetmap.org","kind":"major_road","landuse_kind":"protected_area","sort_rank":380,"kind_detail":"primary","ref":"N 1","min_zoom":8.0},"arcs":[[492],[493],[494],[495],[496],[497],[498],[499],[500],[501],[502],[503],[504],[505],[506],[507],[508],[509],[510],[511],[512],[513],[514],[515],[516],[517]]},{"type":"MultiLineString","properties":{"source":"openstreetmap.org","kind":"major_road","kind_detail":"trunk","sort_rank":381,"landuse_kind":"urban_area","ref":"D 41","min_zoom":8.0},"arcs":[[518],[519],[520]]}]},"earth":{"type":"GeometryCollection","geometries":[{"type":"MultiPolygon","properties":{"sort_rank":10,"source":"naturalearthdata.com","min_zoom":0.0,"kind":"earth","area":4042529567},"arcs":[[[521]],[[522]],[[523]]]},{"type":"Point","properties":{"label_placement":true,"name:lt":"Martinika","name:oc":"Martinica","kind":"island","name:br":"Martinik","min_zoom":8.0,"name:uk":"\u041c\u0430\u0440\u0442\u0438\u043d\u0456\u043a\u0430","name:ru":"\u041c\u0430\u0440\u0442\u0438\u043d\u0438\u043a\u0430","name:be":"\u041c\u0430\u0440\u0446\u0456\u043d\u0456\u043a\u0430","id":-7112170,"osm_relation":true,"name:eo":"Martiniko","name":"Martinique","area":1167730048,"name:sr":"\u041c\u0430\u0440\u0442\u0438\u043d\u0438\u043a","source":"openstreetmap.org","name:ca":"Martinica","name:eu":"Martinika"},"coordinates":[2503,2148]}]},"landuse":{"type":"GeometryCollection","geometries":[{"type":"MultiPolygon","properties":{"kind":"protected_area","protect_class":"5","area":559025235,"sort_rank":17,"source":"openstreetmap.org","min_zoom":6.0,"tier":2,"osm_relation":true},"arcs":[[[524]],[[525]]]},{"type":"MultiPolygon","properties":{"source":"naturalearthdata.com","kind":"urban_area","name":"","area":123330470,"sort_rank":11,"min_zoom":4.0},"arcs":[[[526]]]},{"type":"MultiPolygon","properties":{"kind":"protected_area","protect_class":"5","area":126092814,"sort_rank":17,"source":"openstreetmap.org","min_zoom":8.0,"tier":2,"osm_relation":true},"arcs":[[[527]],[[528]]]},{"type":"MultiPolygon","properties":{"source":"openstreetmap.org","kind":"nature_reserve","tier":2,"area":71064877,"sort_rank":23,"min_zoom":8.0,"osm_relation":true},"arcs":[[[529]]]}]}},"type":"Topology","transform":{"translate":[-61.875,13.9234038977],"scale":[0.0003433228,0.000332222]},"arcs":[[[3512,0],[4,206],[-48,332],[-58,144],[-142,216],[-405,65],[-326,88],[-271,-72],[-92,-95],[-332,-581],[-111,-303]],[[2875,0],[14,93],[1,79],[-12,89],[-10,127],[-8,37],[-23,26],[-32,19],[-19,27],[13,52],[-57,18],[-41,-29],[-71,-102],[-12,-21],[-11,-53],[-7,-19],[-14,-15],[-29,-16],[-15,-12],[-71,-107],[-26,-68],[-70,-101],[-9,-24],[-2366,0],[0,4096],[1441,0],[6,-6],[16,-35],[-2,-12],[2,-88],[-10,-74],[6,-24],[33,-9],[35,10],[13,20],[1,2],[9,22],[41,18],[15,39],[16,14],[18,4],[25,-6],[30,4],[11,-1],[14,4],[21,16],[58,102],[2297,0],[0,-4096],[-1221,0]],[[2494,2704],[-114,51],[-128,83],[-99,32],[-102,-2],[-116,-66],[-26,-23],[-19,-34],[-8,-40],[8,-43],[20,-37],[84,-88],[22,-30],[17,-34],[6,-36],[-5,-21],[-10,-19],[-4,-20],[10,-22],[13,-14],[10,-14],[6,-16],[2,-19],[23,-54],[52,-51],[104,-71],[11,-13],[18,-36],[13,-13],[16,-3],[61,3],[32,-2],[31,1],[35,7],[44,15],[6,-51],[21,-42],[22,-32],[10,-19],[-21,-43],[-42,-16],[-45,14],[-31,45],[-25,-24],[-76,-37],[-80,-84],[27,-16],[12,-9],[4,-13],[-1,-22],[64,-91],[24,-14],[44,7],[72,29],[45,7],[170,-23],[81,14],[19,-3],[-2,-31],[46,-3],[47,29],[40,16],[28,-42],[-3,-46],[-28,-16],[-33,-10],[-18,-31],[13,-43],[35,-16],[41,4],[32,14],[31,41],[35,87],[36,16],[0,20],[-18,37],[-10,47],[-15,42],[-39,19],[10,13],[5,10],[7,8],[18,10],[-24,32],[-10,36],[2,38],[11,39],[-39,-22],[3,25],[-2,27],[-10,23],[-20,9],[-28,8],[-11,17],[-4,21],[-9,16],[-59,33],[-22,24],[-18,45],[16,7],[10,6],[11,6],[22,2],[-97,43],[-25,-34],[-25,8],[-6,26],[36,19],[-22,22],[80,43],[-16,17],[-18,11],[-21,2],[-25,-11],[-6,67],[8,57],[23,16],[35,-58],[61,63],[-7,20],[9,12],[18,11],[20,17],[-69,0],[-69,-18],[-59,-30],[-42,-34],[-51,105],[-34,9],[-15,23],[-7,26],[-12,22],[-48,31]],[[1492,3848],[35,10],[13,20],[1,2],[9,22],[41,18],[15,39],[16,14],[18,4],[25,-6],[30,4],[11,-1],[14,4],[21,16],[58,102]],[[1441,4096],[6,-6],[16,-35],[-2,-12],[2,-88],[-10,-74],[6,-24],[33,-9]],[[3101,1621],[0,20],[-18,37],[-10,47],[-15,42],[-39,19],[10,13],[5,10],[7,8],[18,10],[-24,32],[-10,36],[2,38],[11,39],[-39,-22],[3,25],[-2,27],[-10,23],[-20,9],[-28,8],[-11,17],[-4,21],[-9,16],[-59,33],[-22,24],[-18,45],[16,7],[10,6],[11,6],[22,2],[-97,43],[-25,-34],[-25,8],[-6,26],[36,19],[-22,22],[80,43],[-16,17],[-18,11],[-21,2],[-25,-11],[-6,67],[8,57],[23,16],[35,-58],[61,63],[-7,20],[9,12],[18,11],[20,17],[-69,0],[-69,-18],[-59,-30],[-42,-34],[-51,105],[-34,9],[-15,23],[-7,26],[-12,22],[-48,31],[-114,51],[-128,83],[-99,32],[-102,-2],[-116,-66],[-26,-23],[-19,-34],[-8,-40],[8,-43],[20,-37],[84,-88],[22,-30],[17,-34],[6,-36],[-5,-21],[-10,-19],[-4,-20],[10,-22],[13,-14],[10,-14],[6,-16],[2,-19],[23,-54],[52,-51],[104,-71],[11,-13],[18,-36],[13,-13],[16,-3],[61,3],[32,-2],[31,1],[35,7],[44,15],[6,-51],[21,-42],[22,-32],[10,-19],[-21,-43],[-42,-16],[-45,14],[-31,45],[-25,-24],[-76,-37],[-80,-84],[27,-16],[12,-9],[4,-13],[-1,-22],[64,-91],[24,-14],[44,7],[72,29],[45,7],[170,-23],[81,14],[19,-3],[-2,-31],[46,-3],[47,29],[40,16],[28,-42],[-3,-46],[-28,-16],[-33,-10],[-18,-31],[13,-43],[35,-16],[41,4],[32,14],[31,41],[35,87],[36,16]],[[2878,261],[-10,127],[-8,37],[-23,26],[-32,19],[-19,27],[13,52],[-57,18],[-41,-29],[-71,-102],[-12,-21],[-11,-53],[-7,-19],[-14,-15],[-29,-16],[-15,-12],[-71,-107],[-26,-68],[-70,-101],[-9,-24]],[[2875,0],[14,93],[1,79],[-12,89]],[[2646,1700],[1,-9]],[[2647,1691],[-1,10]],[[2647,1691],[8,-17]],[[2553,2029],[27,-5]],[[2580,2024],[13,-2]],[[2593,2022],[-13,2]],[[2580,2024],[-23,3]],[[1412,4096],[-10,-272],[101,-605],[-12,-100],[159,-622],[121,-173],[269,-302],[192,-45],[114,31],[13,37]],[[2424,2071],[1,-5]],[[2433,2090],[-8,-18]],[[2425,2066],[0,5]],[[2426,2072],[9,18]],[[2303,2051],[-1,0]],[[2338,2060],[0,-1]],[[2435,2090],[-2,0]],[[2552,2056],[1,-1]],[[2553,2055],[0,1]],[[2556,2038],[-3,17]],[[2553,2056],[-1,0]],[[2552,2056],[1,0]],[[2556,2038],[0,-1]],[[2556,2036],[0,1],[-1,-1],[1,0]],[[2556,2036]],[[2556,2037],[0,1]],[[2556,2036]],[[2394,2075],[0,-1],[1,0],[-1,1]],[[2399,2079],[-1,0],[1,0]],[[2426,2071],[-1,1],[-1,0],[1,-1],[1,0]],[[2514,2078],[-1,1],[0,-1],[1,0]],[[2534,2092],[1,1],[-1,1],[-1,-1],[1,-1]],[[2561,2074],[1,-1],[0,1],[-1,0]],[[2564,2095],[2,1],[-1,1],[-1,0],[0,-2]],[[2564,2080],[1,-1],[1,0],[-1,2],[-1,-1]],[[2581,2107],[-1,0],[0,-1],[1,0],[0,1]],[[2156,2554],[-127,-71],[-4,-149]],[[2025,2334],[1,0]],[[2026,2334],[-1,0]],[[2027,2334]],[[2027,2334]],[[2027,2334],[47,-17],[-5,-41]],[[2156,2554],[0,1]],[[2156,2555],[0,-1]],[[2156,2555]],[[2338,2059],[8,-3]],[[2353,2057],[-15,3]],[[2394,2074],[-11,-13]],[[2384,2061],[10,13]],[[2398,2079],[-4,-4]],[[2395,2075],[3,4]],[[2513,2078],[3,-1],[18,15]],[[2533,2093],[-19,-15]],[[2564,2096],[-29,-3]],[[2535,2092],[29,4]],[[2580,2107],[-15,-10]],[[2566,2096],[14,10]],[[2597,2112],[-16,-4]],[[2581,2107],[16,5]],[[2906,1655]],[[2908,1656],[-1,-1]],[[2907,1655],[1,1]],[[2908,1656],[1,0]],[[2909,1656],[3,0]],[[2912,1656],[1,0]],[[2913,1656]],[[2913,1656]],[[2921,1652]],[[2921,1651],[0,1]],[[2921,1652],[3,0]],[[2924,1652],[3,1]],[[2927,1653],[23,5],[6,59],[33,23]],[[2208,2846],[3,1]],[[2552,2032],[-1,1]],[[2382,1899],[-3,-7]],[[2551,2032],[2,-3]],[[2593,1968],[-1,-1],[1,0],[1,0],[-1,1]],[[2598,1834],[-1,0],[1,0]],[[2603,1951],[-1,0],[-1,0],[1,-1],[1,1]],[[2622,1873],[-1,0],[0,-1],[1,0],[0,1]],[[2645,1701],[1,-1],[0,1],[-1,1],[0,-1]],[[2828,1695],[0,1]],[[2285,2053],[3,-1]],[[2288,2053],[-3,0]],[[2775,1820],[41,-39],[12,-85]],[[2829,1696],[8,-1]],[[2837,1695]],[[2837,1695]],[[2838,1695]],[[2838,1694],[0,1]],[[2906,1656],[-16,69],[-52,-30]],[[2906,1656],[0,-1]],[[2907,1655],[-1,1]],[[2361,2052],[-14,-8]],[[2593,1967],[8,-16]],[[2602,1951],[-9,16]],[[2593,2022],[0,-54]],[[2594,1968],[11,11],[1,2],[0,11],[-13,30]],[[2597,1834],[-1,-48],[13,-48]],[[2621,1872],[-23,-37]],[[2609,1738],[-13,48],[5,29],[-3,18]],[[2598,1834],[24,38]],[[2602,1950],[29,-46],[-10,-31]],[[2622,1873],[10,31],[-29,46]],[[2609,1738],[34,-34]],[[2643,1704],[2,-3]],[[2646,1702],[-3,2]],[[2517,2078],[1,-1]],[[2343,2044],[53,-123]],[[2397,1917],[3,-6]],[[2833,1692],[4,2]],[[2837,1694]],[[2837,1694]],[[2378,2024],[-1,0]],[[2377,2024],[1,0]],[[2393,2032],[-15,-8]],[[2393,2032],[1,0]],[[2394,2033],[-1,-1]],[[2395,2033],[-1,0]],[[2394,2033],[1,0]],[[2400,2034],[-5,-1]],[[2400,2034],[6,3]],[[2406,2038],[-6,-4]],[[2424,2050],[-17,-12]],[[2407,2037],[18,13]],[[2425,2066],[0,-15]],[[2425,2051],[0,15]],[[1459,4071],[-15,25]],[[1475,3880],[26,64],[-51,73],[9,54]],[[1761,4012],[-35,0],[-10,-39],[-75,11],[-36,51],[-74,2],[-24,30],[-48,4]],[[1785,4060],[19,12],[-26,24]],[[2111,2210],[-9,4]],[[2205,2122]],[[2206,2121],[0,1]],[[2265,2079],[1,-1]],[[2267,2078]],[[2302,2051],[1,0]],[[2333,2047],[-1,-3]],[[2332,2044],[9,3]],[[2341,2047],[-8,0]],[[2347,2045],[-6,2]],[[2341,2047],[6,-3]],[[2360,2050],[1,0]],[[2361,2051],[0,-1]],[[2361,2050],[2,-2]],[[2363,2051],[1,1]],[[2371,2047],[-1,1]],[[2371,2047],[1,-1]],[[2372,2047],[-1,0]],[[2373,2047],[-1,0]],[[2372,2046],[1,1]],[[2373,2047],[9,-3]],[[2382,2042],[-6,-17]],[[2376,2025],[0,-1]],[[2377,2025],[-1,0]],[[2377,2025],[0,-1],[0,1]],[[2382,2043],[0,-1]],[[2382,2044]],[[2382,2042],[0,1]],[[2383,2043],[-1,1]],[[2660,0],[-41,38],[9,105],[-73,39],[-1,-3]],[[2554,179],[-14,-47],[-110,-66],[-7,-66]],[[2513,241],[37,20]],[[2514,240],[-1,1]],[[2513,241],[1,-1]],[[2514,238],[0,1]],[[2514,239],[0,-1]],[[2555,179],[-1,0]],[[2554,179],[-33,14],[-18,11],[11,34]],[[2549,263],[1,0]],[[2549,263],[0,-1]],[[2549,262],[-1,0],[1,1]],[[2550,261],[-1,1]],[[2549,262],[1,-1]],[[2550,263],[-1,-1]],[[2579,267],[-29,-4]],[[2556,2036],[1,-1]],[[2557,2035],[-1,1]],[[2556,2032],[1,3]],[[2556,2032],[0,-1],[1,0],[-1,1]],[[2578,270],[15,26]],[[2578,269],[0,1]],[[2578,270],[1,-1]],[[2579,267],[-1,1]],[[2579,268],[0,-1]],[[2579,269],[0,-1],[-1,1],[1,0]],[[2595,296],[-2,0]],[[2593,296],[1,0]],[[2594,2018],[-1,0]],[[2593,2018],[1,0]],[[2597,2019],[-3,-1]],[[2595,297],[16,21]],[[2612,317],[-17,-20]],[[2597,2019],[2,0]],[[2598,2020],[-1,-1]],[[2599,2019],[1,0]],[[2600,2019],[3,3],[-3,-1]],[[2617,1971],[-8,7]],[[2612,318],[24,17]],[[2636,335],[-24,-17]],[[2618,1971],[-1,0]],[[2617,1971],[1,0]],[[2618,1971],[-1,0]],[[2624,1872],[-2,0]],[[2637,336],[2,3]],[[2639,339],[-1,-4]],[[2694,499],[8,-54],[-63,-106]],[[2639,1963],[-3,1],[3,-1]],[[2639,1962],[1,0]],[[2643,1961],[-4,2]],[[2658,1883],[0,-1]],[[2658,1882]],[[2852,0],[-51,34],[-141,-34]],[[2702,2261],[0,-1]],[[2703,2261]],[[2097,2225],[-1,0],[1,0]],[[2206,2122],[-1,0]],[[2205,2122],[0,-1],[1,1]],[[2251,2092]],[[2252,2093]],[[2265,2066],[0,-1],[1,0],[-1,1]],[[2276,2059],[-1,-1],[1,0],[0,1]],[[2285,2054],[0,-1],[0,1]],[[2293,2051],[0,1],[-1,0],[1,-1]],[[2320,2046],[-1,0],[0,-1],[1,1]],[[2332,2044]],[[2332,2044],[-1,0],[1,0]],[[2332,2047],[1,0],[0,1],[-1,0],[0,-1]],[[2340,2047],[1,0]],[[2341,2047],[-1,0]],[[2347,2044],[0,1]],[[2347,2045],[0,-1]],[[2370,2048],[0,1],[0,-1]],[[2372,2046],[0,1]],[[2372,2047],[0,-1]],[[2372,2046]],[[2381,2058],[1,0],[-1,1],[0,-1]],[[2382,2044],[0,-1]],[[2382,2043],[0,1]],[[2394,2032],[0,1],[0,-1]],[[2406,2037],[1,0],[0,1],[-1,-1]],[[2425,2050],[0,1],[-1,-1],[1,0]],[[2514,240],[0,-1]],[[2514,239],[-1,1],[1,0]],[[2556,2599],[0,-1],[0,1]],[[2592,2018],[1,-1],[0,1],[-1,0]],[[2595,297],[0,-1],[0,1]],[[2599,2021],[-1,-1]],[[2598,2020],[1,-1],[2,1],[-2,1]],[[2610,2114],[-1,0],[0,-1],[1,0],[0,1]],[[2611,318],[1,0],[0,-1],[-1,1]],[[2617,2164],[0,1],[0,-1]],[[2618,1971],[0,-1],[0,1]],[[2622,2185],[-1,0],[0,-1],[1,1]],[[2629,2208],[-1,0],[0,-1],[1,1]],[[2637,336],[1,-1]],[[2638,335],[-1,0],[-1,0],[1,1]],[[2639,1963],[0,-1],[0,1]],[[2651,1961],[0,-1],[1,1],[-1,0]],[[2658,1882]],[[2703,2261],[-1,1],[0,-1],[0,-1],[1,1]],[[2713,2035],[0,1],[0,-1]],[[2718,2281],[-1,0],[0,-1],[1,0],[0,1]],[[2724,2301],[1,1],[-1,0],[-1,0],[1,-1]],[[2740,2039],[-1,0],[-1,0],[1,-1],[1,1]],[[2813,2083],[1,1],[-1,0],[-1,0],[1,-1]],[[2928,2013],[1,0],[0,1],[-1,0],[0,-1]],[[2997,1894],[-1,0],[0,-1],[1,1]],[[2562,2074],[-10,-18]],[[2553,2056],[9,17]],[[2565,2079],[-3,-5]],[[2562,2074],[3,5]],[[2211,2847],[5,-3]],[[2346,2056],[17,-5]],[[2364,2052],[-11,5]],[[2363,2051],[0,1]],[[2370,2048],[-7,3]],[[2363,2048],[7,0]],[[2381,2058],[-11,-9]],[[2371,2048],[11,10]],[[2383,2061],[-1,-2]],[[2382,2058],[2,3]],[[2451,2711],[105,-112]],[[2556,2598],[45,-73]],[[2597,2112],[12,1]],[[2609,2114],[-12,-2]],[[2601,2525],[1,-4]],[[2602,2521],[18,-24]],[[2617,2164],[-7,-50]],[[2610,2114],[7,50]],[[2621,2184],[-1,-2],[-3,-16],[0,-1]],[[2617,2165],[4,19]],[[2617,2446],[7,41]],[[2617,2446],[13,-10]],[[2624,2487],[-4,10]],[[2628,2207],[-7,-22]],[[2622,2185],[6,22]],[[2629,2208],[-1,0]],[[2629,2208],[38,39]],[[2629,2208]],[[2645,2433],[-15,3]],[[2648,2431],[-3,2]],[[2649,2431],[-1,0]],[[2655,2430],[-6,1]],[[2680,2436],[-25,-6]],[[2667,2247],[9,0]],[[2676,2247],[23,11]],[[2705,2263],[12,17]],[[2717,2280]],[[2717,2280]],[[2719,2283],[-2,-2]],[[2718,2281],[1,2]],[[2719,2283],[5,17]],[[2724,2303],[-1,5]],[[2724,2303],[0,-1]],[[2724,2301],[0,-1]],[[2724,2302],[0,1]],[[2724,2300],[0,1]],[[2395,2079],[122,-1]],[[2551,2033],[-4,8],[-5,8],[-20,26],[-8,4],[-37,13],[-82,-12]],[[2518,2077],[33,-45]],[[2603,2022],[18,12]],[[2633,2036],[-12,-2]],[[2633,2036],[15,4]],[[2648,2040],[11,6]],[[2659,2046],[11,-2]],[[2670,2044],[9,-4]],[[2685,2041],[-6,-1]],[[2693,2040],[-8,1]],[[2710,2034],[-17,6]],[[2710,2034],[3,1]],[[2713,2035],[-3,-1]],[[2718,2037],[-5,-1]],[[2713,2035],[5,2]],[[2734,2039],[-16,-2]],[[2734,2039],[5,-1]],[[2738,2038],[-4,1]],[[2739,2040],[0,-1]],[[2807,2083],[-68,-43]],[[2739,2039],[0,1]],[[2807,2083],[6,0]],[[2813,2084],[-6,-1]],[[2813,2083],[1,0]],[[2814,2083]],[[2830,2073],[-16,10]],[[2837,2072],[-7,1]],[[2907,2045],[-70,27]],[[2907,2045],[3,-3]],[[2915,2033],[-5,9]],[[2915,2033],[1,-4]],[[2928,2014],[-12,15]],[[2996,1894],[-68,119]],[[2989,1740],[28,75],[-13,53]],[[2996,1894]],[[2996,1893],[1,0]],[[2996,1894]],[[2997,1893]],[[3002,1878],[-5,15]],[[3002,1878],[2,-6]],[[3003,1870],[1,2]],[[3003,1870],[1,-2]],[[2341,2029],[-63,-4],[-52,75],[-84,37],[2,24]],[[2618,1971],[-18,47]],[[2618,1970],[1,0]],[[2619,1970],[-1,1]],[[2636,1964],[-17,6]],[[2640,1962],[11,-2]],[[2651,1961],[0,-1]],[[2651,1960],[1,0]],[[2652,1960],[0,1]],[[2658,1883],[-6,77]],[[2658,1883],[0,-1]],[[2658,1882],[0,1]],[[2658,1883],[117,-63]],[[2288,2052],[1,0],[5,3]],[[2292,2056],[-4,-3]],[[2570,265],[-65,64],[-285,1355],[6,154],[67,112],[66,57],[0,38]],[[2557,2027],[-5,5]],[[2351,2064],[3,0]],[[2655,1674],[23,-18]],[[2678,1656],[5,-5]],[[2683,1652],[-5,4]],[[2683,1651],[8,0]],[[2691,1651],[-7,1]],[[2691,1651],[51,-10]],[[2745,1641],[-3,0]],[[2742,1641],[3,0]],[[2747,1641],[-1,0]],[[2746,1641],[1,0]],[[2747,1641],[71,5]],[[2818,1615],[0,1]],[[2818,1616],[0,-1]],[[2818,1615],[29,-29],[25,31]],[[2818,1617]],[[2818,1646],[1,-1]],[[2820,1645],[-2,1]],[[2818,1617]],[[2822,1627],[-4,-10]],[[2820,1644],[2,-17]],[[2822,1627],[-2,18]],[[2872,1617]],[[2872,1617]],[[2877,1621],[-4,-3]],[[2873,1617],[4,4]],[[2877,1621],[22,29]],[[2917,1655],[-4,1]],[[2913,1656],[4,-1]],[[2917,1655],[3,-3]],[[2920,1652]],[[2920,1652]],[[2564,2094],[1,1]],[[2564,2095],[0,-1]],[[2564,2094],[1,-13]],[[2565,2081],[0,-1]],[[2565,2081]],[[2928,1644],[-118,-115],[-177,-1023],[65,-50]],[[2069,2276],[8,-35]],[[2080,2238],[-3,3]],[[2149,2153],[-69,85]],[[2149,2153],[3,-5]],[[2152,2148],[-3,5]],[[2152,2147],[4,-5]],[[2156,2142],[-3,5]],[[2205,2122],[-49,20]],[[2226,2120],[-20,1]],[[2253,2092],[-26,28]],[[2253,2092],[12,-13]],[[2265,2066],[-12,26]],[[2267,2078],[-2,-13]],[[2266,2065],[9,-6]],[[2275,2059],[-9,7]],[[2266,2078],[1,0]],[[2276,2058],[9,-5]],[[2285,2054],[-9,4]],[[2293,2051],[5,0]],[[2297,2051],[-4,1]],[[2302,2051]],[[2306,2051],[-3,0]],[[2303,2051],[3,0]],[[2319,2046],[-13,5]],[[2319,2046]],[[2319,2046]],[[2319,2045],[1,0]],[[2320,2045]],[[2320,2045],[12,2]],[[2333,2047]],[[2153,2147],[0,1],[-1,0],[0,-1],[1,0]],[[2396,1921],[1,-4]],[[2444,1858],[-8,67],[-94,117]],[[2622,1872],[36,10]],[[2034,2447],[2,38]],[[2828,1695],[1,0]],[[2829,1696],[0,-1]],[[2829,1695],[4,-3]],[[2026,2335],[0,-1],[1,0],[-1,1]],[[2143,2610],[0,-1],[0,1]],[[2152,2579],[0,1],[0,-1]],[[2156,2555]],[[2272,2759],[0,-1],[1,1],[-1,0]],[[2417,2733],[0,1],[0,-1]],[[2683,1651],[1,1],[-1,0],[0,-1]],[[2684,2439],[0,-1],[0,-1],[1,1],[-1,1]],[[2697,2423]],[[2705,2369],[0,1],[-1,0],[0,-1],[1,0]],[[2745,1641],[1,-1],[0,1],[-1,0]],[[2818,1616],[0,1],[0,-1]],[[2820,1645],[-1,0],[0,-1],[1,0],[0,1]],[[2838,1694],[-1,1],[0,-1],[1,0]],[[2873,1617],[0,1],[-1,0],[0,-1],[1,0]],[[2907,1655],[-1,0],[1,0]],[[2913,1656]],[[2921,1651],[0,1],[-1,0],[0,-1],[1,0]],[[2193,2845],[15,1]],[[2143,2609],[0,-1]],[[2143,2610]],[[2143,2608],[0,1]],[[2143,2608],[9,-28]],[[2143,2610],[45,47],[-2,39],[86,62]],[[2143,2610]],[[2152,2579],[4,-24]],[[2272,2758]],[[2272,2758]],[[2227,2120],[-1,0]],[[2302,2051],[-5,0]],[[2298,2051],[4,0]],[[2379,1892],[-19,4],[-4,-37],[-15,170],[8,-88],[33,-42]],[[2216,2844],[67,-53],[-11,-31]],[[2272,2760],[0,-1]],[[2273,2759],[-1,1]],[[2273,2758],[1,1]],[[2274,2759],[-1,0]],[[2274,2759],[32,12],[24,-29],[86,-8]],[[2416,2734],[1,-1]],[[2417,2734],[-1,0]],[[2417,2733],[1,0]],[[2418,2733],[-1,0]],[[2451,2711],[-33,22]],[[2682,2437],[-2,-1]],[[2682,2437],[2,1]],[[2684,2438],[-2,-1]],[[2685,2438],[12,-15]],[[2697,2423],[-3,5],[-9,10]],[[2697,2423],[1,-2]],[[2698,2421],[-1,2]],[[2703,2372],[-5,49]],[[2703,2372],[1,-3]],[[2705,2370],[-2,2]],[[2704,2369],[8,-10],[3,-4]],[[2715,2355],[-10,14]],[[2718,2352],[-3,3]],[[2718,2352],[0,-22]],[[2723,2308],[-5,22]],[[2395,2080],[-26,2],[-7,-4],[-8,-14],[-3,0],[-11,23],[-2,1],[-5,0],[-41,-32]],[[2294,2055],[39,33],[18,-24]],[[2354,2064],[41,15]],[[2366,0],[9,24],[70,101],[26,68],[71,107],[15,12],[29,16],[14,15],[7,19],[11,53],[12,21],[71,102],[41,29],[57,-18],[-13,-52],[19,-27],[32,-19],[23,-26],[8,-37],[10,-127],[12,-89],[-1,-79],[-14,-93],[-509,0]],[[2610,2593],[51,-105],[42,34],[59,30],[69,18],[69,0],[-20,-17],[-18,-11],[-9,-12],[7,-20],[-61,-63],[-35,58],[-23,-16],[-8,-57],[6,-67],[25,11],[21,-2],[18,-11],[16,-17],[-80,-43],[22,-22],[-36,-19],[6,-26],[25,-8],[25,34],[97,-43],[-22,-2],[-11,-6],[-10,-6],[-16,-7],[18,-45],[22,-24],[59,-33],[9,-16],[4,-21],[11,-17],[28,-8],[20,-9],[10,-23],[2,-27],[-3,-25],[39,22],[-11,-39],[-2,-38],[10,-36],[24,-32],[-18,-10],[-7,-8],[-5,-10],[-10,-13],[39,-19],[15,-42],[10,-47],[18,-37],[0,-20],[-36,-16],[-35,-87],[-31,-41],[-32,-14],[-41,-4],[-35,16],[-13,43],[18,31],[33,10],[28,16],[3,46],[-28,42],[-40,-16],[-47,-29],[-46,3],[2,31],[-19,3],[-81,-14],[-170,23],[-45,-7],[-72,-29],[-44,-7],[-24,14],[-64,91],[1,22],[-4,13],[-12,9],[-27,16],[80,84],[76,37],[25,24],[31,-45],[45,-14],[42,16],[21,43],[-10,19],[-22,32],[-21,42],[-6,51],[-44,-15],[-35,-7],[-31,-1],[-32,2],[-61,-3],[-16,3],[-13,13],[-18,36],[-11,13],[-104,71],[-52,51],[-23,54],[-2,19],[-6,16],[-10,14],[-13,14],[-10,22],[4,20],[10,19],[5,21],[-6,36],[-17,34],[-22,30],[-84,88],[-20,37],[-8,43],[8,40],[19,34],[26,23],[116,66],[102,2],[99,-32],[128,-83],[114,-51],[48,-31],[12,-22],[7,-26],[15,-23],[34,-9]],[[1441,4096],[358,0],[-58,-102],[-21,-16],[-14,-4],[-11,1],[-30,-4],[-25,6],[-18,-4],[-16,-14],[-15,-39],[-41,-18],[-9,-22],[-1,-2],[-13,-20],[-35,-10],[-33,9],[-6,24],[10,74],[-2,88],[2,12],[-16,35],[-6,6]],[[2632,1656],[106,82],[24,77],[16,-11],[-10,50],[-47,48],[22,-5],[52,59],[17,93],[37,-33],[19,-75],[33,-14],[13,-57],[-28,-25],[43,-15],[8,-47],[55,-46],[69,18],[40,-78],[-39,-26],[41,-36],[-34,-12],[-40,-98],[-39,14],[28,-51],[-22,7],[-27,-49],[-38,-7],[-72,77],[39,55],[-12,39],[20,-16],[16,36],[21,-10],[-5,48],[-34,1],[-61,-70],[-38,37],[5,28],[-70,-21],[-108,33]],[[1882,2706],[66,119],[169,50],[146,-46],[127,-91],[72,-8],[-41,-70],[0,-97],[-31,-74],[99,-50],[8,-50],[-27,-51],[-32,-11],[-16,-44],[-68,0],[7,-58],[-36,22],[-8,-38],[-43,-20],[-32,24],[-22,-43],[1,72],[-26,-36],[6,30],[-43,-26],[11,32],[-40,-4],[45,33],[-38,-13],[4,28],[-28,-18],[4,44],[-23,2],[-33,-51],[-51,101],[24,112],[-111,111],[-40,119]],[[2547,2163],[53,-40],[-19,-70],[-65,-46],[-15,68],[-203,-24],[-91,88],[105,34],[235,-10]],[[2255,1760],[39,79],[64,19],[39,65],[1,-33],[39,16],[-18,-31],[50,-35],[54,22],[4,-18],[36,45],[32,-50],[-50,-7],[-10,-87],[63,-4],[7,-57],[-15,-30],[-14,18],[2,3],[-3,4],[-2,1],[0,5],[-1,2],[2,-52],[-35,37],[-8,-23],[-37,29],[-39,-11],[-78,-69],[-66,49],[6,56],[-32,12],[15,37],[-45,8]],[[2643,2416],[41,23],[24,71],[75,5],[92,64],[44,-24],[-1,-42],[-31,29],[-37,-17],[23,-27],[-30,-25],[24,-15],[-14,-20],[-43,6],[-46,47],[-52,-27],[22,-30],[-22,6],[-1,-34],[28,-22],[12,19],[16,0],[-22,-43],[55,26],[-2,-39],[38,-1],[-29,-45],[-86,7],[-24,75],[-42,3],[-12,30]],[[1967,2758],[84,49],[10,-46],[71,-50],[-62,-102],[-50,26],[-2,67],[-41,8],[-10,48]]]}