{"objects":{"water":{"type":"GeometryCollection","geometries":[{"type":"Polygon","properties":{"source":"naturalearthdata.com","kind":"ocean","area":1576712559132672,"sort_rank":200,"min_zoom":0.0,"id":1},"arcs":[[6],[7],[8],[9],[10]]},{"type":"LineString","properties":{"source":"naturalearthdata.com","kind":"ocean","sort_rank":205,"boundary":true,"min_zoom":0.0,"id":526},"arcs":[11]},{"type":"LineString","properties":{"source":"naturalearthdata.com","kind":"ocean","sort_rank":205,"boundary":true,"min_zoom":0.0,"id":531},"arcs":[12]},{"type":"MultiLineString","properties":{"source":"naturalearthdata.com","kind":"ocean","sort_rank":205,"boundary":true,"min_zoom":0.0,"id":547},"arcs":[[13],[14]]}]},"buildings":{"type":"GeometryCollection","geometries":[]},"places":{"type":"GeometryCollection","geometries":[{"type":"Point","properties":{"name:pt":"Granada","name:ka":"\u10d2\u10e0\u10d4\u10dc\u10d0\u10d3\u10d0","name:ko":"\uadf8\ub808\ub098\ub2e4","name:kn":"\u0c97\u0ccd\u0cb0\u0cc6\u0ca8\u0cc6\u0ca1\u0cbe","name:km":"\u17a0\u17d2\u1782\u17d2\u179a\u17be\u178e\u17b6\u178a","name:tt":"\u0413\u0440\u0435\u043d\u0430\u0434\u0430","name:th":"\u0e1b\u0e23\u0e30\u0e40\u0e17\u0e28\u0e40\u0e01\u0e23\u0e40\u0e19\u0e14\u0e32","name:ti":"\u130d\u122c\u1293\u12f3","name:ks":"\u06af\u0631\u065b\u0646\u06cc\u0691\u0627","name:to":"Kelenat\u0101","name:or":"\u0b17\u0b4d\u0b30\u0b47\u0b28\u0b3e\u0b21\u0b3e","name:pl":"Granada","name:ta":"\u0b95\u0bbf\u0bb0\u0ba9\u0bc6\u0b9f\u0bbe","name:te":"\u0c17\u0c4d\u0c30\u0c46\u0c28\u0c46\u0c21\u0c3e","name:bg":"\u0413\u0440\u0435\u043d\u0430\u0434\u0430","name:dz":"\u0f42\u0fb2\u0f80\u0f0b\u0f53\u0f0b\u0f4c","source":"openstreetmap.org","name:lv":"Gren\u0101da","name:hi":"\u0917\u094d\u0930\u0947\u0928\u0947\u0921\u093e","name:he":"\u05d2\u05e8\u05e0\u05d3\u05d4","kind":"country","name:ha":"Girnada","name:lb":"Granada","name:la":"Granata","name:lg":"Gurenada","name:uk":"\u0413\u0440\u0435\u043d\u0430\u0434\u0430","name:hy":"\u0533\u0580\u0565\u0576\u0561\u0564\u0561","name:ln":"Gelenad\u025b","name:lo":"\u0ec1\u0e81\u0ea3\u0e99\u0e99\u0eb2\u0e94\u0eb2","population":107850,"name:el":"\u0393\u03c1\u03b5\u03bd\u03ac\u03b4\u03b1","name:eo":"Grenado","name":"Grenada","name:ee":"Grenada nutome","min_zoom":2.0,"name:es":"Granada","name:rn":"Gerenada","name:az":"Qrenada","name:mr":"\u0917\u094d\u0930\u0947\u0928\u0947\u0921\u093e","name:ar":"\u063a\u0631\u064a\u0646\u0627\u062f\u0627","name:mg":"Grenady","name:am":"\u130d\u122c\u1293\u12f3","name:ru":"\u0413\u0440\u0435\u043d\u0430\u0434\u0430","name:ml":"\u0d17\u0d4d\u0d30\u0d28\u0d47\u0d21","name:mn":"\u0413\u0440\u0435\u043d\u0430\u0434\u0430","id":424316074,"name:mk":"\u0413\u0440\u0435\u043d\u0430\u0434\u0430","name:vo":"Grenade\u00e4n","name:zu":"i-Grenada","name:ff":"Garnaad","name:fr":"Grenade","name:zh":"\u683c\u6797\u7eb3\u8fbe","name:so":"Giriinaada","name:ja":"\u30b0\u30ec\u30ca\u30c0","name:si":"\u0d9c\u0dca\u200d\u0dbb\u0dd0\u0db1\u0da9\u0dcf\u0dc0","name:fa":"\u06af\u0631\u0646\u0627\u062f\u0627","name:sg":"Gren\u00e2da","name:ne":"\u0917\u094d\u0930\u0947\u0928\u093e\u0921\u093e","name:bm":"Granadi","name:bn":"\u0997\u09cd\u09b0\u09c7\u09a8\u09be\u09a1\u09be","name:bo":"\u0f42\u0fb7\u0f0b\u0f62\u0f72\u0f0b\u0f53\u0f0b\u0f4c\u0f0d","name:be":"\u0413\u0440\u044d\u043d\u0430\u0434\u0430","name:ur":"\u063a\u0631\u0646\u0627\u0637\u06c1","name:sr":"\u0413\u0440\u0435\u043d\u0430\u0434\u0430","name:ga":"Grean\u00e1da","name:gd":"Greanada","name:gl":"Granada","name:yo":"Or\u00edl\u1eb9\u0301\u00e8de Genada","name:gu":"\u0a97\u0acd\u0ab0\u0ac7\u0aa8\u0ac7\u0aa1\u0abe"},"coordinates":[538,2850]},{"type":"Point","properties":{"source":"naturalearthdata.com","kind":"locality","name":"Saint George's","country_capital":true,"population":33734,"min_zoom":5.0,"id":6764},"coordinates":[388,2602]},{"type":"Point","properties":{"kind":"locality","name":"Scarborough","name:lt":"Skarboras","kind_detail":"town","source":"openstreetmap.org","min_zoom":8.0,"name:ru":"\u0421\u043a\u0430\u0440\u0431\u043e\u0440\u043e","id":1816584304,"population":17000},"coordinates":[3320,20]},{"type":"Point","properties":{"name:pt":"Saint George's","name:az":"Sent Corces","name:ka":"\u10e1\u10d4\u10dc\u10e2-\u10ef\u10dd\u10e0\u10ef\u10d4\u10e1\u10d8","name:mr":"\u0938\u0947\u0902\u091f \u091c\u0949\u0930\u094d\u091c\u0947\u0938","name:ko":"\uc138\uc778\ud2b8\uc870\uc9c0\uc2a4","name:ar":"\u0633\u0627\u0646\u062a \u062c\u0648\u0631\u062c\u0632","name:io":"St Georges","name:th":"\u0e40\u0e0b\u0e19\u0e15\u0e4c\u0e08\u0e2d\u0e23\u0e4c\u0e40\u0e08\u0e2a","name:be":"\u0421\u0435\u043d\u0442-\u0414\u0436\u043e\u0440\u0434\u0436\u044d\u0441","name:ru":"\u0421\u0435\u043d\u0442-\u0414\u0436\u043e\u0440\u0434\u0436\u0435\u0441","name:pl":"Saint George\u2019s","name:ta":"\u0b9a\u0bc6\u0baf\u0bbf\u0ba3\u0bcd\u0b9f\u0bcd. \u0b9c\u0bcb\u0bb0\u0bcd\u0b9c\u0bcd\u0bb8\u0bcd, \u0b95\u0bbf\u0bb0\u0bc6\u0ba9\u0b9f\u0bbe","id":246514396,"name:mk":"\u0421\u0435\u043d\u0442 \u040f\u043e\u0440\u045f","name:fa":"\u0633\u06cc\u0646\u062a\u200c\u062c\u0648\u0631\u062c\u0633","name:mn":"\u0421\u0435\u043d\u0442 \u0416\u043e\u0440\u0436\u0435\u0441","kind_detail":"town","name:da":"Saint George's","source":"openstreetmap.org","name:fr":"Saint-Georges","name:fy":"Sint George's","name:zh":"\u8056\u55ac\u6cbb","admin_level":"2","name:ja":"\u30bb\u30f3\u30c8\u30b8\u30e7\u30fc\u30b8\u30ba","name:lt":"Sent D\u017eord\u017eas","name:he":"\u05e1\u05e0\u05d8 \u05d2'\u05d5\u05e8\u05d2'","kind":"locality","name:bo":"\u0f66\u0f53\u0f0b\u0f50\u0f0b\u0f47\u0f7c\u0f62\u0f0b\u0f47\u0f72\u0f0d","name:uk":"\u0421\u0435\u043d\u0442-\u0414\u0436\u043e\u0440\u0434\u0436\u0435\u0441","name:hy":"\u054d\u0565\u0576\u057f \u054b\u0578\u0580\u057b\u0565\u057d","country_capital":true,"name:sv":"Saint George's","name:ht":"Sen J\u00f2j","name:bg":"\u0421\u0435\u0439\u043d\u0442 \u0414\u0436\u043e\u0440\u0434\u0436\u0438\u0441","name:sr":"\u0421\u0435\u043d\u0442 \u040f\u043e\u0440\u045f\u0438\u0437","population":3929,"name:el":"\u03a3\u03b1\u03b9\u03bd\u03c4 \u03a4\u03b6\u03cc\u03c1\u03c4\u03b6\u03b9\u03c2","name:eo":"Sankta Georgo","name":"St. George's","min_zoom":8.0,"name:gl":"Saint George's"},"coordinates":[359,2605]},{"type":"Point","properties":{"source":"openstreetmap.org","kind":"locality","name":"Hillsborough","kind_detail":"town","population":1000,"min_zoom":8.0,"id":279034393},"coordinates":[1218,3884]}]},"transit":{"type":"GeometryCollection","geometries":[]},"pois":{"type":"GeometryCollection","geometries":[]},"boundaries":{"type":"GeometryCollection","geometries":[{"type":"LineString","properties":{"name:pt":"Trindade e Tobago","name:nl":"Trinidad en Tobago","name:lt":"Trinidadas ir Tobagas","name:cs":"Trinidad a Tobago","name:eo":"Trinidado kaj Tobago","min_zoom":8.0,"name:uk":"\u0422\u0440\u0438\u043d\u0456\u0434\u0430\u0434 \u0456 \u0422\u043e\u0431\u0430\u0433\u043e","name:ru":"\u0422\u0440\u0438\u043d\u0438\u0434\u0430\u0434 \u0438 \u0422\u043e\u0431\u0430\u0433\u043e","name:sk":"Trinidad a Tobago","name:pl":"Trynidad i Tobago","name:ta":"\u0b9f\u0bbf\u0bb0\u0bbf\u0ba9\u0bbf\u0b9f\u0bbe\u0b9f\u0bcd \u0bae\u0bb1\u0bcd\u0bb1\u0bc1\u0bae\u0bcd \u0b9f\u0bca\u0baa\u0bbe\u0b95\u0bcb","name:hr":"Trinidad i Tobago","id":-555717,"osm_relation":true,"name:vo":"Trinidade\u00e4n e Tobage\u00e4ns","kind":"country","name":"Trinidad and Tobago","sort_rank":262,"kind_detail":"2","name:fr":"Trinit\u00e9-et-Tobago","name:de":"Trinidad und Tobago","source":"openstreetmap.org","maritime_boundary":true,"name:fy":"Trinidad en Tobago","name:es":"Trinidad y Tobago"},"arcs":[0]},{"type":"MultiLineString","properties":{"kind":"country","name":"Grenada","sort_rank":262,"kind_detail":"2","name:eo":"Grenado","name:fr":"Grenade","source":"openstreetmap.org","maritime_boundary":true,"name:uk":"\u0413\u0440\u0435\u043d\u0430\u0434\u0430","name:ru":"\u0413\u0440\u0435\u043d\u0430\u0434\u0430","min_zoom":8.0,"name:ta":"\u0b95\u0bbf\u0bb0\u0bc6\u0ba9\u0b9f\u0bbe","id":-550727,"osm_relation":true,"name:vo":"Grenade\u00e4n"},"arcs":[[1],[2]]},{"type":"MultiLineString","properties":{"kind":"region","name":"Tobago","sort_rank":256,"kind_detail":"4","source":"openstreetmap.org","min_zoom":8.0,"name:ru":"\u0422\u043e\u0431\u0430\u0433\u043e","id":-5176041,"osm_relation":true},"arcs":[[3],[4],[5]]}]},"roads":{"type":"GeometryCollection","geometries":[{"type":"MultiLineString","properties":{"sort_rank":380,"kind_detail":"primary","min_zoom":8.0,"kind":"major_road","source":"openstreetmap.org"},"arcs":[[15],[16],[17],[18],[19],[20],[21],[22],[23],[24],[25],[26],[27],[28],[29],[30],[31],[32],[33],[34],[35],[36],[37],[38],[39],[40],[41],[42],[43],[44],[45],[46],[47],[48],[49],[50],[51],[52],[53],[54],[55],[56],[57],[58],[59],[60],[61],[62],[63],[64],[65],[66],[67],[68],[69],[70],[71],[72],[73],[74],[75],[76],[77],[78],[79],[80],[81],[82],[83],[84],[85],[86],[87],[88],[89],[90],[91],[92],[93],[94],[95],[96],[97],[98],[99],[100],[101],[102],[103],[104],[105],[106],[107],[108],[109],[110],[111],[112]]},{"type":"LineString","properties":{"source":"openstreetmap.org","kind":"ferry","name":"Hillsborough to Petite Martinque","sort_rank":355,"min_zoom":8.0,"id":27591989},"arcs":[113]},{"type":"LineString","properties":{"source":"openstreetmap.org","kind":"ferry","name":"St. Georges to Hillsborough","sort_rank":355,"min_zoom":8.0,"id":106603174},"arcs":[114]},{"type":"MultiLineString","properties":{"source":"openstreetmap.org","kind":"major_road","sort_rank":380,"kind_detail":"primary","is_bicycle_related":true,"min_zoom":8.0},"arcs":[[115],[116],[117],[118],[119],[120],[121]]}]},"earth":{"type":"GeometryCollection","geometries":[{"type":"MultiPolygon","properties":{"sort_rank":10,"source":"naturalearthdata.com","min_zoom":0.0,"kind":"earth","area":1886281789},"arcs":[[[122]],[[123]],[[124]]]}]},"landuse":{"type":"GeometryCollection","geometries":[]}},"type":"Topology","transform":{"translate":[-61.875,11.1784018737],"scale":[0.0003433228,0.000335977]},"arcs":[[[4096,1121],[-22,7],[-189,16],[-438,-99],[-155,-62],[-1689,-983]],[[0,1865],[247,-57],[383,42],[325,164],[142,119],[126,161],[276,544],[43,179],[-12,172],[416,459],[71,155],[27,180],[-610,40],[-303,73]],[[551,4096],[-18,-40],[-31,-140],[-110,-101],[-156,-212],[-236,-210]],[[3418,0],[39,47],[69,-4],[11,-23],[57,22],[66,72],[72,19],[-11,27],[46,45],[85,-9],[4,67],[46,-35],[36,101],[-31,37],[47,60],[-32,75],[-81,-24],[22,-45],[-45,-25],[-58,42],[-76,-17],[-65,-45],[6,-19],[-45,11],[-74,-24],[0,-23],[-77,-9],[0,-33],[-242,-159],[7,-27],[-58,-46],[6,-29],[-43,-14],[12,-15]],[[3294,0],[32,0]],[[3903,344],[0,3],[3,1],[0,-5],[-3,1]],[[4096,0],[-787,0],[168,85],[27,-1],[36,-7],[36,0],[33,19],[21,18],[67,42],[11,2],[43,58],[6,14],[29,0],[29,-10],[25,5],[18,45],[18,0],[33,-8],[22,65],[10,91],[-3,74],[-22,22],[-31,-23],[-56,-66],[-21,-3],[-47,28],[-35,-7],[-34,-19],[-83,-18],[-95,-35],[-37,-20],[-30,-22],[-53,-52],[-246,-163],[-29,-39],[-17,-39],[-37,-15],[-41,-6],[-25,-13],[0,-2],[-2999,0],[0,4096],[4096,0],[0,-4096]],[[1225,3912],[-37,-51],[-63,19],[-18,-29],[-4,-12],[31,2],[9,-2],[-10,-18],[-20,-47],[-10,-18],[50,19],[48,25],[50,14],[51,-15],[2,61],[12,59],[5,54],[-19,49],[-45,-39],[-32,-71]],[[1405,3962],[13,-3],[13,35],[-43,-7],[4,-15],[13,-10]],[[825,3377],[-7,-17],[-16,-23],[-3,-6],[15,-9],[13,-11],[7,-3],[17,33],[-7,17],[14,15],[-20,11],[-13,-7]],[[353,2666],[14,-34],[9,-35],[-10,-43],[-19,-19],[-101,-65],[44,-12],[54,-2],[49,10],[30,26],[23,-14],[25,-11],[26,-8],[27,-5],[5,28],[12,22],[18,17],[25,12],[0,-22],[125,66],[16,26],[1,25],[4,23],[8,17],[15,7],[8,10],[-17,48],[-1,24],[20,45],[13,21],[7,21],[10,146],[-5,43],[-25,51],[19,17],[1,9],[-63,40],[-66,9],[-61,-11],[-170,-207],[-2,-51],[-60,-117],[-16,-66],[8,-41]],[[1302,3799],[2,61],[12,59],[5,54],[-19,49],[-45,-39],[-32,-71],[-37,-51],[-63,19],[-18,-29],[-4,-12],[31,2],[9,-2],[-10,-18],[-20,-47],[-10,-18],[50,19],[48,25],[50,14],[51,-15]],[[763,3084],[19,17],[1,9],[-63,40],[-66,9],[-61,-11],[-170,-207],[-2,-51],[-60,-117],[-16,-66],[8,-41],[14,-34],[9,-35],[-10,-43],[-19,-19],[-101,-65],[44,-12],[54,-2],[49,10],[30,26],[23,-14],[25,-11],[26,-8],[27,-5],[5,28],[12,22],[18,17],[25,12],[0,-22],[125,66],[16,26],[1,25],[4,23],[8,17],[15,7],[8,10],[-17,48],[-1,24],[20,45],[13,21],[7,21],[10,146],[-5,43],[-25,51]],[[3916,514],[-31,-23],[-56,-66],[-21,-3],[-47,28],[-35,-7],[-34,-19],[-83,-18],[-95,-35],[-37,-20],[-30,-22],[-53,-52],[-246,-163],[-29,-39],[-17,-39],[-37,-15],[-41,-6],[-25,-13],[0,-2]],[[3309,0],[168,85],[27,-1],[36,-7],[36,0],[33,19],[21,18],[67,42],[11,2],[43,58],[6,14],[29,0],[29,-10],[25,5],[18,45],[18,0],[33,-8],[22,65],[10,91],[-3,74],[-22,22]],[[258,2469],[4,-1]],[[264,2468],[-2,0]],[[264,2468],[54,7]],[[319,2475],[-1,0]],[[318,2475],[1,0]],[[320,2475],[21,18]],[[342,2492],[-22,-17]],[[338,2511],[0,2]],[[338,2513],[0,-2]],[[341,2494],[-3,17]],[[338,2514],[2,1]],[[340,2515],[-2,-2]],[[340,2515],[37,67]],[[341,2493],[0,1]],[[341,2494],[1,-1]],[[343,2493],[-1,-1]],[[342,2493],[1,0]],[[343,2493],[62,36]],[[352,2600],[6,-5]],[[352,2616],[0,-16]],[[359,2595],[-4,0],[-3,5]],[[352,2617],[-17,76],[43,68],[-12,71],[57,55],[20,100],[88,85],[41,21],[25,-39],[61,22],[18,38],[52,-74]],[[385,2620],[-33,-3]],[[352,2617],[0,-1],[0,1]],[[352,2617]],[[358,2595],[8,6]],[[359,2595],[-1,0]],[[366,2601],[-7,-6]],[[366,2593],[0,8]],[[367,2593],[-1,0]],[[366,2593],[1,0]],[[367,2592]],[[367,2592]],[[376,2584],[-9,8]],[[376,2583],[0,1]],[[376,2584],[1,-1]],[[377,2582],[-1,1]],[[377,2583],[0,-1]],[[377,2583]],[[377,2583]],[[378,2584],[-1,-1]],[[378,2585],[0,1]],[[378,2587]],[[378,2586],[0,-1]],[[405,2530],[-27,55]],[[378,2587],[0,-1]],[[387,2600],[-9,-13]],[[714,2812],[-76,15],[-132,-139],[-83,-16],[-37,-51]],[[386,2620],[1,-18]],[[387,2600],[0,1]],[[387,2602]],[[387,2601],[0,-1]],[[387,2602]],[[405,2530],[0,-1]],[[405,2529],[0,1]],[[405,2529],[26,-30],[95,1],[5,32]],[[531,2532]],[[531,2532]],[[532,2532],[-1,0]],[[532,2532]],[[532,2532],[59,11],[10,59],[112,58],[18,146]],[[714,2812],[10,5],[11,9]],[[733,2806],[-19,6]],[[729,3039],[-1,-1]],[[728,3038],[1,1]],[[728,3038],[-5,-166],[21,-24]],[[729,3039],[-1,1]],[[728,3040],[1,-1]],[[733,2806],[4,8]],[[737,2814],[7,33]],[[744,2848]],[[744,2848]],[[744,2848]],[[744,2848]],[[744,2848]],[[744,2847],[0,1]],[[744,2848],[0,-1]],[[3307,25],[4,-5]],[[3311,20],[3,-6]],[[3313,13],[1,1]],[[3458,48],[-18,-6]],[[3528,44],[-1,0]],[[3858,422],[49,-54],[-40,-97],[-240,-173]],[[257,2469],[1,0],[-1,0]],[[319,2475],[1,0]],[[320,2475],[-1,0]],[[338,2513],[0,1],[0,-1]],[[342,2493],[0,-1],[-1,0],[0,1]],[[341,2493],[1,0]],[[367,2593],[0,-1],[0,1]],[[377,2583],[-1,0],[1,0]],[[378,2587],[0,-1],[-1,0],[1,1]],[[386,2620],[-1,0],[1,1]],[[386,2621],[0,-1]],[[387,2602],[0,-1],[0,1]],[[531,2532]],[[531,2532]],[[729,3039]],[[1421,4012],[-151,23],[-47,-33],[-29,-109],[17,-8]],[[1211,3885],[-58,17],[-62,-33],[-146,-160],[-551,-758],[-66,-173],[-17,-123],[30,-69],[25,10]],[[3272,0],[12,6]],[[3284,6],[30,17],[70,-18],[56,37]],[[3288,0],[-2,5],[-2,1]],[[3284,6],[-3,2]],[[3314,13],[-21,-13]],[[3527,44],[-69,4]],[[3627,98],[-59,-66],[-40,12]],[[3938,492],[3,-74],[-10,-91],[-22,-65],[-33,8],[-18,0],[-18,-45],[-25,-5],[-29,10],[-29,0],[-6,-14],[-43,-58],[-11,-2],[-67,-42],[-21,-18],[-33,-19],[-36,0],[-36,7],[-27,1],[-168,-85],[-310,0],[0,2],[25,13],[41,6],[37,15],[17,39],[29,39],[246,163],[53,52],[30,22],[37,20],[95,35],[83,18],[34,19],[35,7],[47,-28],[21,3],[56,66],[31,23],[22,-22]],[[709,2577],[-125,-66],[0,22],[-25,-12],[-18,-17],[-12,-22],[-5,-28],[-27,5],[-26,8],[-25,11],[-23,14],[-30,-26],[-49,-10],[-54,2],[-44,12],[101,65],[19,19],[10,43],[-9,35],[-14,34],[-8,41],[16,66],[60,117],[2,51],[170,207],[61,11],[66,-9],[63,-40],[-1,-9],[-19,-17],[25,-51],[5,-43],[-10,-146],[-7,-21],[-13,-21],[-20,-45],[1,-24],[17,-48],[-8,-10],[-15,-7],[-8,-17],[-4,-23],[-1,-25],[-16,-26]],[[1316,3919],[-12,-59],[-2,-61],[-51,15],[-50,-14],[-48,-25],[-50,-19],[10,18],[20,47],[10,18],[-9,2],[-31,-2],[4,12],[18,29],[63,-19],[37,51],[32,71],[45,39],[19,-49],[-5,-54]]]}