{"objects":{"water":{"type":"GeometryCollection","geometries":[{"type":"Polygon","properties":{"source":"naturalearthdata.com","kind":"ocean","area":1576712559132672,"sort_rank":200,"min_zoom":0.0,"id":1},"arcs":[[17],[18],[19]]},{"type":"MultiLineString","properties":{"source":"naturalearthdata.com","kind":"ocean","sort_rank":205,"boundary":true,"min_zoom":0.0,"id":76},"arcs":[[20],[21],[22],[23],[24]]},{"type":"LineString","properties":{"source":"naturalearthdata.com","kind":"ocean","sort_rank":205,"boundary":true,"min_zoom":0.0,"id":547},"arcs":[25]},{"type":"MultiLineString","properties":{"source":"naturalearthdata.com","kind":"ocean","sort_rank":205,"boundary":true,"min_zoom":0.0,"id":550},"arcs":[[26],[27]]}]},"buildings":{"type":"GeometryCollection","geometries":[]},"places":{"type":"GeometryCollection","geometries":[{"type":"Point","properties":{"name:pt":"Trinidad e Tobago","name:cy":"Trinidad a Tobago","alt_name:el":"\u03a4\u03c1\u03b9\u03bd\u03b9\u03bd\u03c4\u03ac\u03bd\u03c4 \u03ba\u03b1\u03b9 \u03a4\u03bf\u03bc\u03c0\u03ac\u03b3\u03ba\u03bf","name:ko":"\ud2b8\ub9ac\ub2c8\ub2e4\ub4dc \ud1a0\ubc14\uace0","name:kn":"\u0c9f\u0ccd\u0cb0\u0cbf\u0ca8\u0cbf\u0ca1\u0cbe\u0ca1\u0ccd \u0cae\u0ca4\u0ccd\u0ca4\u0cc1 \u0c9f\u0cca\u0cac\u0ccd\u0caf\u0cbe\u0c97\u0cca","name:km":"\u1791\u17d2\u179a\u17b8\u1793\u17b8\u178a\u17b6\u178f \u1793\u17b7\u1784\u200b\u178f\u17bc\u1794\u17b6\u17a0\u17d2\u1782\u17c4","name:kl":"Trinidad aamma Tobago","name:cs":"Trinidad a Tobago","name:ki":"Trinidad na Tobago","name:tr":"Trinidad ve Tobago","name:ku":"Tr\u00een\u00eedad \u00fb Tobago","name:ti":"\u1275\u122a\u1292\u12f3\u12f5 \u12a5\u1293 \u1276\u1263\u130e","name:ks":"\u0679\u0631\u065b\u0646\u0650\u0646\u062f\u0627\u062f \u062a\u06c1\u0655 \u0679\u0648\u0628\u06cc\u06af\u0648","name:to":"Tilinitati mo Topako","name:sv":"Trinidad och Tobago","name:or":"\u0b24\u0b4d\u0b30\u0b3f\u0b28\u0b3f\u0b26\u0b3e\u0b26\u0b4d \u0b0f\u0b2c\u0b02 \u0b1f\u0b4b\u0b2c\u0b3e\u0b17\u0b4b","alt_name:pt":"Trindade e Tobago","name:ta":"\u0b9f\u0bcd\u0bb0\u0bbf\u0ba9\u0bbf\u0b9f\u0bbe\u0b9f\u0bcd \u0bae\u0bb1\u0bcd\u0bb1\u0bc1\u0bae\u0bcd \u0b9f\u0bc1\u0baa\u0bbe\u0b95\u0bcb","name:ca":"Trinitat i Tobago","name:te":"\u0c1f\u0c4d\u0c30\u0c3f\u0c28\u0c3f\u0c21\u0c47\u0c21\u0c4d \u0c2e\u0c30\u0c3f\u0c2f\u0c41 \u0c1f\u0c4a\u0c2c\u0c3e\u0c17\u0c4b","name:ro":"Trinidad \u015fi Tobago","name:ka":"\u10e2\u10e0\u10d8\u10dc\u10d8\u10d3\u10d0\u10d3\u10d8 \u10d3\u10d0 \u10e2\u10dd\u10d1\u10d0\u10d2\u10dd","name:hr":"Trinidad i Tobago","name:da":"Trinidad og Tobago","name:de":"Trinidad und Tobago","name:dz":"\u0f4a\u0f72\u0f0b\u0f53\u0f72\u0f0b\u0f4c\u0f71\u0f4c\u0f0b \u0f68\u0f7a\u0f53\u0f4c\u0f0b \u0f4a\u0f7c\u0f0b\u0f56\u0fb7\u0f7a\u0f0b\u0f42\u0fb7\u0f7c","source":"openstreetmap.org","name:lv":"Trinid\u0101da un Tob\u0101go","name:lt":"Trinidadas ir Tobagas","name:hi":"\u0924\u094d\u0930\u093f\u0928\u093f\u0926\u093e\u0926 \u0914\u0930 \u091f\u094b\u092c\u0948\u0917\u094b","name:he":"\u05d8\u05e8\u05d9\u05e0\u05d9\u05d3\u05d3 \u05d5\u05d8\u05d5\u05d1\u05d2\u05d5","kind":"country","name:ur":"\u062a\u0631\u06cc\u0646\u06cc\u062f\u0627\u062f \u0627\u0648\u0631 \u0679\u0648\u0628\u0627\u06af\u0648","name:la":"Trinitas et Tabacum","name:lg":"Turindaadi ne Tobago","name:uk":"\u0422\u0440\u0456\u043d\u0456\u0434\u0430\u0434 \u0442\u0430 \u0422\u043e\u0431\u0430\u0433\u043e","name:hy":"\u054f\u0580\u056b\u0576\u056b\u0564\u0561\u0564-\u054f\u0578\u0562\u0561\u0563\u0578","min_zoom":2.0,"name:hu":"Trinidad \u00e9s Tobago","name:ln":"Tinidad\u025b mp\u00e9 Tobago","name:lo":"\u0e97\u0eb2\u0e8d\u0e99\u0eb4\u0e94\u0eb2\u0e94 \u0ec1\u0ea5\u0eb0 \u0ec2\u0e97\u0e9a\u0eb2\u0ec2\u0e81\u0ec9","population":1328019,"name:el":"\u03a4\u03c1\u03b9\u03bd\u03b9\u03b4\u03ac\u03b4 \u03ba\u03b1\u03b9 \u03a4\u03bf\u03bc\u03c0\u03ac\u03b3\u03ba\u03bf","name:eo":"Trinidado kaj Tobago","name":"Trinidad and Tobago","official_name":"Republic of Trinidad and Tobago","name:ee":"Trinidad kple Tobago nutome","name:th":"\u0e1b\u0e23\u0e30\u0e40\u0e17\u0e28\u0e15\u0e23\u0e34\u0e19\u0e34\u0e41\u0e14\u0e14\u0e41\u0e25\u0e30\u0e42\u0e15\u0e40\u0e1a\u0e42\u0e01","name:gu":"\u0aa4\u0acd\u0ab0\u0abf\u0aa8\u0abf\u0aa1\u0abe\u0aa1 \u0a85\u0aa8\u0ac7 \u0a9f\u0acb\u0aac\u0ac7\u0a97\u0acb","name:eu":"Trinidad eta Tobago","name:et":"Trinidad ja Tobago","name:nl":"Trinidad en Tobago","name:es":"Trinidad y Tobago","name:ia":"Trinidad e Tobago","name:rm":"Trinidad e Tobago","name:rn":"Tirinidadi na Tobago","name:az":"Trinidan v\u0259 Tobaqo","name:id":"Trinidad dan Tobago","name:ms":"Trinidad dan Tobago","name:mr":"\u0924\u094d\u0930\u093f\u0928\u093f\u0926\u093e\u0926 \u0906\u0923\u093f \u091f\u094b\u092c\u0945\u0917\u094b","name:ar":"\u062a\u0631\u064a\u0646\u064a\u062f\u0627\u062f \u0648\u062a\u0648\u0628\u0627\u063a\u0648","name:io":"Trinidad e Tobago","name:is":"Tr\u00ednidad og T\u00f3bag\u00f3","name:am":"\u1275\u122a\u1293\u12f3\u12f5 \u12a5\u1293 \u1276\u1264\u130e","name:it":"Trinidad e Tobago","name:vi":"Trinidad v\u00e0 Tobago","name:ru":"\u0422\u0440\u0438\u043d\u0438\u0434\u0430\u0434 \u0438 \u0422\u043e\u0431\u0430\u0433\u043e","name:mn":"\u0422\u0440\u0438\u043d\u0438\u0434\u0430\u0434 \u0431\u0430 \u0422\u043e\u0431\u0430\u0433\u043e","name:pl":"Trynidad i Tobago","name:mk":"\u0422\u0440\u0438\u043d\u0438\u0434\u0430\u0434 \u0438 \u0422\u043e\u0431\u0430\u0433\u043e","name:af":"Trinidad en Tobago","name:zu":"i-Trinidad ne-Tobago","name:ha":"Tirinidad Da Tobago","name:nn":"Trinidad og Tobago","name:ff":"Tirnidaad e Tobaago","name:fi":"Trinidad ja Tobago","name:no":"Trinidad og Tobago","name:mg":"Trinidad sy Tobag\u00f4","id":249399444,"name:mt":"Trinidad u Tobago","name:fr":"Trinit\u00e9-et-Tobago","name:fy":"Trinidad en Tobago","name:vo":"Trinidade\u00e4n e Tobage\u00e4ns","name:zh":"\u7279\u7acb\u5c3c\u8fbe\u548c\u591a\u5df4\u54e5","name:gv":"Trinaid as Tobago","name:sl":"Trinidad in Tobago","name:sk":"Trinidad a Tobago","name:ja":"\u30c8\u30ea\u30cb\u30c0\u30fc\u30c9\u30fb\u30c8\u30d0\u30b4","name:si":"\u0da7\u0dca\u200d\u0dbb\u0dd2\u0db1\u0dd2\u0da9\u0dd1\u0da9\u0dca \u0dc3\u0dc4 \u0da7\u0ddc\u0db6\u0dd0\u0d9c\u0ddd","name:fa":"\u062a\u0631\u06cc\u0646\u06cc\u062f\u0627\u062f \u0648 \u062a\u0648\u0628\u0627\u06af\u0648","name:sg":"Trinit\u00f9ee na Tobag\u00f6","name:se":"Trinidad ja Tobago","name:ne":"\u0924\u094d\u0930\u093f\u0928\u093f\u0921\u093e\u0921 \u0930 \u0924\u094b\u092c\u093e\u0917\u094b","name:br":"Trinidad ha Tobago","name:bs":"Trinidad i Tobago","name:bm":"Trinite-ni-Tobago","name:bn":"\u09a4\u09cd\u09b0\u09bf\u09a8\u09bf\u09a8\u09be\u09a6 \u0993 \u099f\u09cb\u09ac\u09cd\u09af\u09be\u0997\u09cb","name:ml":"\u0d1f\u0d4d\u0d30\u0d3f\u0d28\u0d3f\u0d21\u0d3e\u0d21\u0d41\u0d02 \u0d31\u0d4d\u0d31\u0d4a\u0d2c\u0d3e\u0d17\u0d4b\u0d2f\u0d41\u0d02","name:sw":"Trinidad na Tobago","name:be":"\u0422\u0440\u044b\u043d\u0456\u0434\u0430\u0434 \u0456 \u0422\u0430\u0431\u0430\u0433\u0430","name:bg":"\u0422\u0440\u0438\u043d\u0438\u0434\u0430\u0434 \u0438 \u0422\u043e\u0431\u0430\u0433\u043e","name:sr":"\u0422\u0440\u0438\u043d\u0438\u0434\u0430\u0434 \u0438 \u0422\u043e\u0431\u0430\u0433\u043e","name:sq":"Trinidad e Tobago","name:ga":"Oile\u00e1n na Tr\u00edon\u00f3ide agus Tob\u00e1ga","name:gd":"Trianaid agus Tobago","name:gl":"Trindade e Tobago","name:fo":"Trinidad og Tobago","name:yo":"Or\u00edl\u1eb9\u0301\u00e8de Tirinida ati Tobaga","name:ak":"Trinidad ne Tobago","name:tt":"\u0422\u0440\u0438\u043d\u0438\u0434\u0430\u0434 \u04bb\u04d9\u043c \u0422\u043e\u0431\u0430\u0433\u043e"},"coordinates":[2601,3176]},{"type":"Point","properties":{"kind":"locality","name":"Chaguanas","name:lt":"\u010caguanasas","kind_detail":"town","source":"openstreetmap.org","min_zoom":8.0,"name:uk":"\u0427\u0430\u0433\u0443\u0430\u043d\u0430\u0441","id":1824462523,"population":67433},"coordinates":[1361,2130]},{"type":"Point","properties":{"kind":"locality","name":"San Fernando","kind_detail":"city","source":"openstreetmap.org","min_zoom":8.0,"name:ru":"\u0421\u0430\u043d-\u0424\u0435\u0440\u043d\u0430\u043d\u0434\u043e","id":1110779940,"population":55419},"coordinates":[1195,1437]},{"type":"Point","properties":{"admin_level":"2","kind":"locality","name":"Port of Spain","kind_detail":"city","source":"openstreetmap.org","min_zoom":8.0,"name:uk":"\u041f\u043e\u0440\u0442-\u043e\u0444-\u0421\u043f\u0435\u0439\u043d","country_capital":true,"name:ru":"\u041f\u043e\u0440\u0442-\u043e\u0444-\u0421\u043f\u0435\u0439\u043d","name:ta":"\u0baa\u0bcb\u0bb0\u0bcd\u0b9f\u0bcd \u0b86\u0b83\u0baa\u0bcd \u0bb8\u0bcd\u0baa\u0bc6\u0baf\u0bbf\u0ba9\u0bcd","name:zh":"\u897f\u73ed\u7259\u6e2f","id":2718091147,"population":37074},"coordinates":[1040,2552]}]},"transit":{"type":"GeometryCollection","geometries":[]},"pois":{"type":"GeometryCollection","geometries":[]},"boundaries":{"type":"GeometryCollection","geometries":[{"type":"MultiLineString","properties":{"name:right:yo":"Fenesuela","name:right:hy":"\u054e\u0565\u0576\u0565\u057d\u0578\u0582\u0565\u056c\u0561","name:right:qu":"Winisuyla","name:right:ug":"\u06cb\u06d0\u0646\u06d0\u0633\u06c7\u0626\u06d0\u0644\u0627","name:right:la":"Venetiola","name:right:yi":"\u05d5\u05d5\u05e2\u05e0\u05e2\u05d6\u05d5\u05e2\u05dc\u05e2","name:right:uk":"\u0412\u0435\u043d\u0435\u0441\u0443\u0435\u043b\u0430","name:right:ln":"Venezwela","name:right:ht":"Venezwela","name:right:lt":"Venesuela","name:right:hi":"\u0935\u0947\u0928\u0947\u091c\u093c\u0941\u090f\u0932\u093e","name:right:lv":"Venecu\u0113la","name:left:lt":"Trinidadas ir Tobagas","name:left:sk":"Trinidad a Tobago","name:right:mr":"\u0935\u094d\u0939\u0947\u0928\u0947\u091d\u0941\u090f\u0932\u093e","name:right:uz":"Venesuela","name:right:he":"\u05d5\u05e0\u05e6\u05d5\u05d0\u05dc\u05d4","name:left:hr":"Trinidad i Tobago","name:right:tg":"\u0412\u0435\u043d\u0435\u0441\u0443\u044d\u043b\u0430","source":"openstreetmap.org","sort_rank":262,"name:right:am":"\u126c\u1294\u12dd\u12cc\u120b","name:right:av":"\u0412\u0435\u043d\u0435\u0441\u0443\u044d\u043b\u0430","name:right:ar":"\u0641\u0646\u0632\u0648\u064a\u0644\u0627","name:right:or":"\u0b2d\u0b47\u0b28\u0b47\u0b1c\u0b41\u0b0f\u0b32\u0b3e","name:right:az":"Venesuela","name:left:cs":"Trinidad a Tobago","name:left":"Trinidad and Tobago","name:right:mk":"\u0412\u0435\u043d\u0435\u0446\u0443\u0435\u043b\u0430","name:right:sr":"\u0412\u0435\u043d\u0435\u0446\u0443\u0435\u043b\u0430","name:right:mn":"\u0412\u0435\u043d\u0435\u0441\u0443\u044d\u043b","name:right:ml":"\u0d35\u0d46\u0d28\u0d3f\u0d38\u0d4d\u0d35\u0d47\u0d32","name:right:vo":"Venesol\u00e4n","name:right:is":"Venes\u00faela","name:right:rw":"Venezuwela","name:right:ru":"\u0412\u0435\u043d\u0435\u0441\u0443\u044d\u043b\u0430","name:right:my":"\u1017\u1004\u103a\u1014\u102e\u1007\u103d\u1032\u101c\u102c\u1038\u1014\u102d\u102f\u1004\u103a\u1004\u1036","name:left:ru":"\u0422\u0440\u0438\u043d\u0438\u0434\u0430\u0434 \u0438 \u0422\u043e\u0431\u0430\u0433\u043e","name:left:vo":"Trinidade\u00e4n e Tobage\u00e4ns","name:right:fy":"Fenezu\u00ebla","name:right:eo":"Venezuelo","name:right:el":"\u0392\u03b5\u03bd\u03b5\u03b6\u03bf\u03c5\u03ad\u03bb\u03b1","name:right:mt":"Vene\u017cwela","name:right:bn":"\u09ad\u09c7\u09a8\u09c7\u099c\u09c1\u09af\u09bc\u09c7\u09b2\u09be","name":"Trinidad and Tobago - Venezuela","name:right:ur":"\u0648\u06cc\u0646\u06cc\u0632\u0648\u06cc\u0644\u0627","name:right:ba":"\u0412\u0435\u043d\u0435\u0441\u0443\u044d\u043b\u0430","min_zoom":8.0,"osm_relation":true,"name:right:be":"\u0412\u0435\u043d\u0435\u0441\u0443\u044d\u043b\u0430","name:left:fr":"Trinit\u00e9-et-Tobago","name:right:ay":"Win\u00efxwila","name:right:bs":"Venecuela","name:right:zh":"\u59d4\u5167\u745e\u62c9","name:left:fy":"Trinidad en Tobago","name:right:ka":"\u10d5\u10d4\u10dc\u10d4\u10e1\u10e3\u10d4\u10da\u10d0","name:right:ja":"\u30d9\u30cd\u30ba\u30a8\u30e9","name:right:wa":"Venezwela","name:right:wo":"Benesuwela","name:right:ne":"\u092d\u0947\u0928\u0947\u091c\u0941\u090f\u0932\u093e","name:right:su":"V\u00e9n\u00e9zu\u00e9la","id:right":-272644,"name:left:uk":"\u0422\u0440\u0438\u043d\u0456\u0434\u0430\u0434 \u0456 \u0422\u043e\u0431\u0430\u0433\u043e","name:right:sa":"\u0935\u0947\u0928\u0947\u091c\u094d\u0935\u0947\u0932\u093e","name:left:nl":"Trinidad en Tobago","name:right:sm":"Venesuela","name:right:so":"Fanansuwela","name:right:fa":"\u0648\u0646\u0632\u0648\u0626\u0644\u0627","name:right:nv":"T\u00e1\u0142k\u00e1\u00e1\u02bc Bighan Dine\u02bc\u00e9 Bik\u00e9yah","name:right:fo":"Venesuela","id":-555717,"name:right":"Venezuela","name:left:eo":"Trinidado kaj Tobago","name:right:kn":"\u0cb5\u0cc6\u0ca8\u0cc6\u0c9c\u0cc1\u0cb5\u0cc6\u0cb2\u0cbe","name:right:ca":"Vene\u00e7uela","kind_detail":"2","name:right:ce":"\u0412\u0435\u043d\u0435\u0441\u0443\u044d\u043b\u0430","kind":"country","name:right:tt":"\u0412\u0435\u043d\u0435\u0441\u0443\u044d\u043b\u0430","name:right:zh-yue":"\u59d4\u5167\u745e\u62c9","id:left":-555717,"name:left:es":"Trinidad y Tobago","name:right:cv":"\u0412\u0435\u043d\u0435\u0441\u0443\u044d\u043b\u0430","name:right:gu":"\u0ab5\u0ac7\u0aa8\u0ac7\u0a9d\u0ac1\u0a8f\u0ab2\u0abe","name:right:gv":"Yn Veneswaaley","name:left:pl":"Trynidad i Tobago","name:right:mg":"Venezoela","name:right:kk":"\u0412\u0435\u043d\u0435\u0441\u0443\u044d\u043b\u0430","name:right:oc":"Vene\u00e7u\u00e8la","name:right:bg":"\u0412\u0435\u043d\u0435\u0446\u0443\u0435\u043b\u0430","name:left:pt":"Trindade e Tobago","name:right:pa":"\u0a35\u0a48\u0a28\u0a47\u0a1c\u0a3c\u0a41\u0a0f\u0a32\u0a3e","name:right:ga":"Veinis\u00e9ala","name:right:ko":"\ubca0\ub124\uc218\uc5d8\ub77c","name:right:kw":"Veneswela","name:right:tk":"Wenesuela","name:left:ta":"\u0b9f\u0bbf\u0bb0\u0bbf\u0ba9\u0bbf\u0b9f\u0bbe\u0b9f\u0bcd \u0bae\u0bb1\u0bcd\u0bb1\u0bc1\u0bae\u0bcd \u0b9f\u0bca\u0baa\u0bbe\u0b95\u0bcb","name:right:gn":"Venesu\u00e9la","name:right:pl":"Wenezuela","name:right:ta":"\u0bb5\u0bc6\u0ba9\u0bbf\u0b9a\u0bc1\u0bb5\u0bc7\u0bb2\u0bbe","name:right:os":"\u0412\u0435\u043d\u0435\u0441\u0443\u044d\u043b\u00e6","name:right:bo":"\u0f5d\u0f7a\u0f0b\u0f53\u0f7a\u0f0b\u0f5f\u0f74\u0f60\u0f7a\u0f0b\u0f63\u0f0d","name:right:gd":"A' Bheiniseala","name:left:de":"Trinidad und Tobago","maritime_boundary":true,"name:right:th":"\u0e1b\u0e23\u0e30\u0e40\u0e17\u0e28\u0e40\u0e27\u0e40\u0e19\u0e0b\u0e38\u0e40\u0e2d\u0e25\u0e32","name:right:dv":"\u0788\u07ac\u0782\u07ac\u0792\u07aa\u0787\u07ad\u078d\u07a7"},"arcs":[[0],[1]]},{"type":"MultiLineString","properties":{"name:pt":"Trindade e Tobago","name:nl":"Trinidad en Tobago","name:lt":"Trinidadas ir Tobagas","name:cs":"Trinidad a Tobago","name:eo":"Trinidado kaj Tobago","min_zoom":8.0,"name:uk":"\u0422\u0440\u0438\u043d\u0456\u0434\u0430\u0434 \u0456 \u0422\u043e\u0431\u0430\u0433\u043e","name:ru":"\u0422\u0440\u0438\u043d\u0438\u0434\u0430\u0434 \u0438 \u0422\u043e\u0431\u0430\u0433\u043e","name:sk":"Trinidad a Tobago","name:pl":"Trynidad i Tobago","name:ta":"\u0b9f\u0bbf\u0bb0\u0bbf\u0ba9\u0bbf\u0b9f\u0bbe\u0b9f\u0bcd \u0bae\u0bb1\u0bcd\u0bb1\u0bc1\u0bae\u0bcd \u0b9f\u0bca\u0baa\u0bbe\u0b95\u0bcb","name:hr":"Trinidad i Tobago","id":-555717,"osm_relation":true,"name:vo":"Trinidade\u00e4n e Tobage\u00e4ns","kind":"country","name":"Trinidad and Tobago","sort_rank":262,"kind_detail":"2","name:fr":"Trinit\u00e9-et-Tobago","name:de":"Trinidad und Tobago","source":"openstreetmap.org","maritime_boundary":true,"name:fy":"Trinidad en Tobago","name:es":"Trinidad y Tobago"},"arcs":[[2],[3]]},{"type":"MultiLineString","properties":{"name:wa":"Venezwela","name:ka":"\u10d5\u10d4\u10dc\u10d4\u10e1\u10e3\u10d4\u10da\u10d0","name:ko":"\ubca0\ub124\uc218\uc5d8\ub77c","name:cv":"\u0412\u0435\u043d\u0435\u0441\u0443\u044d\u043b\u0430","name:kk":"\u0412\u0435\u043d\u0435\u0441\u0443\u044d\u043b\u0430","name:tt":"\u0412\u0435\u043d\u0435\u0441\u0443\u044d\u043b\u0430","name:kw":"Veneswela","name:tk":"Wenesuela","name:th":"\u0e1b\u0e23\u0e30\u0e40\u0e17\u0e28\u0e40\u0e27\u0e40\u0e19\u0e0b\u0e38\u0e40\u0e2d\u0e25\u0e32","name:pa":"\u0a35\u0a48\u0a28\u0a47\u0a1c\u0a3c\u0a41\u0a0f\u0a32\u0a3e","name:os":"\u0412\u0435\u043d\u0435\u0441\u0443\u044d\u043b\u00e6","name:or":"\u0b2d\u0b47\u0b28\u0b47\u0b1c\u0b41\u0b0f\u0b32\u0b3e","name:ce":"\u0412\u0435\u043d\u0435\u0441\u0443\u044d\u043b\u0430","name:ta":"\u0bb5\u0bc6\u0ba9\u0bbf\u0b9a\u0bc1\u0bb5\u0bc7\u0bb2\u0bbe","name:tg":"\u0412\u0435\u043d\u0435\u0441\u0443\u044d\u043b\u0430","name:ca":"Vene\u00e7uela","sort_rank":262,"name:ln":"Venezwela","name:ba":"\u0412\u0435\u043d\u0435\u0441\u0443\u044d\u043b\u0430","source":"openstreetmap.org","osm_relation":true,"name:kn":"\u0cb5\u0cc6\u0ca8\u0cc6\u0c9c\u0cc1\u0cb5\u0cc6\u0cb2\u0cbe","name:dv":"\u0788\u07ac\u0782\u07ac\u0792\u07aa\u0787\u07ad\u078d\u07a7","name:lv":"Venecu\u0113la","name:lt":"Venesuela","name:uz":"Venesuela","name:he":"\u05d5\u05e0\u05e6\u05d5\u05d0\u05dc\u05d4","name:eo":"Venezuelo","name:ur":"\u0648\u06cc\u0646\u06cc\u0632\u0648\u06cc\u0644\u0627","name:la":"Venetiola","name:uk":"\u0412\u0435\u043d\u0435\u0441\u0443\u0435\u043b\u0430","name:hy":"\u054e\u0565\u0576\u0565\u057d\u0578\u0582\u0565\u056c\u0561","name:ug":"\u06cb\u06d0\u0646\u06d0\u0633\u06c7\u0626\u06d0\u0644\u0627","name:qu":"Winisuyla","name:oc":"Vene\u00e7u\u00e8la","name:el":"\u0392\u03b5\u03bd\u03b5\u03b6\u03bf\u03c5\u03ad\u03bb\u03b1","kind":"country","name":"Venezuela","min_zoom":8.0,"name:yi":"\u05d5\u05d5\u05e2\u05e0\u05e2\u05d6\u05d5\u05e2\u05dc\u05e2","name:yo":"Fenesuela","name:ay":"Win\u00efxwila","name:mt":"Vene\u017cwela","name:az":"Venesuela","name:mr":"\u0935\u094d\u0939\u0947\u0928\u0947\u091d\u0941\u090f\u0932\u093e","name:ar":"\u0641\u0646\u0632\u0648\u064a\u0644\u0627","name:my":"\u1017\u1004\u103a\u1014\u102e\u1007\u103d\u1032\u101c\u102c\u1038\u1014\u102d\u102f\u1004\u103a\u1004\u1036","name:av":"\u0412\u0435\u043d\u0435\u0441\u0443\u044d\u043b\u0430","name:is":"Venes\u00faela","name:am":"\u126c\u1294\u12dd\u12cc\u120b","name:ru":"\u0412\u0435\u043d\u0435\u0441\u0443\u044d\u043b\u0430","id":-272644,"name:ml":"\u0d35\u0d46\u0d28\u0d3f\u0d38\u0d4d\u0d35\u0d47\u0d32","name:rw":"Venezuwela","name:pl":"Wenezuela","name:mk":"\u0412\u0435\u043d\u0435\u0446\u0443\u0435\u043b\u0430","name:vo":"Venesol\u00e4n","name:fa":"\u0648\u0646\u0632\u0648\u0626\u0644\u0627","name:mn":"\u0412\u0435\u043d\u0435\u0441\u0443\u044d\u043b","kind_detail":"2","name:hi":"\u0935\u0947\u0928\u0947\u091c\u093c\u0941\u090f\u0932\u093e","name:mg":"Venezoela","name:fo":"Venesuela","name:zh-yue":"\u59d4\u5167\u745e\u62c9","name:fy":"Fenezu\u00ebla","name:zh":"\u59d4\u5167\u745e\u62c9","name:so":"Fanansuwela","name:sm":"Venesuela","name:ja":"\u30d9\u30cd\u30ba\u30a8\u30e9","name:ne":"\u092d\u0947\u0928\u0947\u091c\u0941\u090f\u0932\u093e","name:sa":"\u0935\u0947\u0928\u0947\u091c\u094d\u0935\u0947\u0932\u093e","name:bs":"Venecuela","name:bn":"\u09ad\u09c7\u09a8\u09c7\u099c\u09c1\u09af\u09bc\u09c7\u09b2\u09be","name:bo":"\u0f5d\u0f7a\u0f0b\u0f53\u0f7a\u0f0b\u0f5f\u0f74\u0f60\u0f7a\u0f0b\u0f63\u0f0d","name:be":"\u0412\u0435\u043d\u0435\u0441\u0443\u044d\u043b\u0430","name:su":"V\u00e9n\u00e9zu\u00e9la","name:bg":"\u0412\u0435\u043d\u0435\u0446\u0443\u0435\u043b\u0430","name:wo":"Benesuwela","name:sr":"\u0412\u0435\u043d\u0435\u0446\u0443\u0435\u043b\u0430","name:nv":"T\u00e1\u0142k\u00e1\u00e1\u02bc Bighan Dine\u02bc\u00e9 Bik\u00e9yah","name:ga":"Veinis\u00e9ala","name:gd":"A' Bheiniseala","name:ht":"Venezwela","name:gn":"Venesu\u00e9la","maritime_boundary":true,"name:gv":"Yn Veneswaaley","name:gu":"\u0ab5\u0ac7\u0aa8\u0ac7\u0a9d\u0ac1\u0a8f\u0ab2\u0abe"},"arcs":[[4],[5]]},{"type":"LineString","properties":{"kind":"region","name":"Siparia","sort_rank":256,"kind_detail":"4","source":"openstreetmap.org","min_zoom":8.0,"name:ru":"\u0421\u0438\u043f\u0430\u0440\u0438\u044f","id":-7363417,"osm_relation":true},"arcs":[6]},{"type":"MultiLineString","properties":{"kind":"region","name":"Tobago","sort_rank":256,"kind_detail":"4","source":"openstreetmap.org","min_zoom":8.0,"name:ru":"\u0422\u043e\u0431\u0430\u0433\u043e","id":-5176041,"osm_relation":true},"arcs":[[7],[8],[9],[10]]},{"type":"MultiLineString","properties":{"kind":"region","name":"Tobago","sort_rank":256,"kind_detail":"4","min_zoom":8.0,"source":"openstreetmap.org","maritime_boundary":true,"name:ru":"\u0422\u043e\u0431\u0430\u0433\u043e","id":-5176041,"osm_relation":true},"arcs":[[11],[12]]},{"type":"LineString","properties":{"kind":"region","name:right":"Sucre","name:left:en":"Federal Dependencies","sort_rank":256,"kind_detail":"4","name:left:de":"Bundesterritorien","id:right":-272671,"source":"openstreetmap.org","maritime_boundary":true,"id:left":-3399075,"min_zoom":8.0,"name:left":"Dependencias Federales","id":-3399075,"osm_relation":true,"name":"Dependencias Federales - Sucre"},"arcs":[13]},{"type":"LineString","properties":{"kind":"region","name:en":"Federal Dependencies","name":"Dependencias Federales","sort_rank":256,"kind_detail":"4","min_zoom":8.0,"name:de":"Bundesterritorien","source":"openstreetmap.org","maritime_boundary":true,"id":-3399075,"osm_relation":true},"arcs":[14]},{"type":"LineString","properties":{"kind":"region","name":"Sucre","sort_rank":256,"kind_detail":"4","min_zoom":8.0,"source":"openstreetmap.org","maritime_boundary":true,"id":-272671,"osm_relation":true},"arcs":[15]},{"type":"LineString","properties":{"kind":"region","name":"Delta Amacuro","sort_rank":256,"kind_detail":"4","min_zoom":8.0,"source":"openstreetmap.org","maritime_boundary":true,"id":-272669,"osm_relation":true},"arcs":[16]}]},"roads":{"type":"GeometryCollection","geometries":[{"type":"MultiLineString","properties":{"sort_rank":380,"kind_detail":"primary","min_zoom":8.0,"kind":"major_road","source":"openstreetmap.org"},"arcs":[[28],[29],[30],[31],[32],[33],[34],[35],[36],[37],[38],[39],[40],[41],[42],[43],[44],[45],[46],[47],[48],[49],[50],[51],[52],[53],[54],[55],[56],[57],[58],[59],[60],[61],[62],[63],[64],[65],[66],[67],[68],[69],[70],[71],[72],[73],[74],[75],[76],[77],[78],[79],[80],[81],[82],[83],[84],[85],[86],[87],[88],[89],[90],[91],[92],[93],[94],[95],[96],[97],[98],[99],[100],[101],[102],[103],[104],[105],[106],[107],[108],[109],[110],[111],[112],[113],[114],[115],[116],[117],[118],[119],[120],[121],[122],[123],[124],[125],[126],[127],[128],[129],[130],[131],[132],[133],[134],[135],[136],[137],[138],[139],[140],[141],[142],[143],[144],[145],[146],[147],[148],[149],[150],[151],[152],[153],[154],[155],[156],[157],[158],[159],[160],[161],[162],[163],[164],[165],[166],[167],[168]]},{"type":"MultiLineString","properties":{"sort_rank":381,"source":"openstreetmap.org","min_zoom":8.0,"kind":"major_road","kind_detail":"trunk"},"arcs":[[169],[170],[171],[172],[173],[174],[175],[176],[177],[178],[179],[180],[181],[182],[183],[184],[185],[186],[187],[188]]},{"type":"LineString","properties":{"source":"openstreetmap.org","kind":"ferry","name":"San Fernando-Port of Spain Ferry","sort_rank":355,"min_zoom":8.0,"id":341340249},"arcs":[189]},{"type":"LineString","properties":{"kind":"major_road","sort_rank":380,"landuse_kind":"urban_area","source":"openstreetmap.org","min_zoom":8.0,"kind_detail":"primary","ref":"Diego Martin Highway Expansion Project\/Ministry of Works & Infrustructure","id":380570749},"arcs":[190]},{"type":"LineString","properties":{"source":"openstreetmap.org","kind":"major_road","landuse_kind":"urban_area","sort_rank":380,"kind_detail":"primary","is_bicycle_related":true,"min_zoom":8.0},"arcs":[191]},{"type":"MultiLineString","properties":{"source":"openstreetmap.org","kind":"highway","landuse_kind":"residential","sort_rank":383,"kind_detail":"motorway","min_zoom":8.0},"arcs":[[192],[193]]},{"type":"LineString","properties":{"source":"openstreetmap.org","kind":"highway","landuse_kind":"nature_reserve","sort_rank":383,"kind_detail":"motorway","min_zoom":8.0,"id":123279596},"arcs":[194]},{"type":"MultiLineString","properties":{"source":"openstreetmap.org","kind":"major_road","landuse_kind":"urban_area","sort_rank":380,"kind_detail":"primary","min_zoom":8.0},"arcs":[[195],[196],[197],[198],[199],[200],[201],[202],[203],[204],[205],[206],[207],[208],[209],[210],[211],[212],[213],[214],[215],[216],[217],[218],[219],[220],[221],[222],[223],[224],[225],[226],[227],[228],[229],[230],[231],[232],[233],[234],[235],[236],[237],[238],[239],[240],[241],[242],[243],[244],[245],[246],[247],[248],[249],[250],[251],[252],[253],[254],[255],[256],[257],[258],[259],[260],[261],[262],[263],[264],[265],[266],[267],[268],[269],[270],[271],[272],[273],[274],[275],[276],[277],[278],[279],[280],[281],[282],[283],[284],[285],[286],[287],[288],[289],[290],[291],[292],[293],[294],[295],[296],[297],[298],[299],[300],[301],[302],[303],[304],[305],[306],[307],[308],[309],[310],[311],[312],[313],[314],[315],[316],[317],[318],[319],[320],[321],[322],[323],[324],[325],[326],[327],[328],[329],[330],[331],[332],[333],[334],[335],[336],[337],[338],[339],[340],[341],[342],[343],[344],[345],[346],[347],[348],[349],[350],[351],[352],[353],[354],[355],[356],[357],[358],[359],[360],[361],[362],[363],[364],[365]]},{"type":"MultiLineString","properties":{"source":"openstreetmap.org","kind":"major_road","kind_detail":"trunk","sort_rank":381,"landuse_kind":"urban_area","min_zoom":8.0},"arcs":[[366],[367],[368],[369],[370],[371],[372],[373],[374],[375],[376],[377],[378],[379],[380],[381],[382],[383],[384],[385],[386],[387],[388],[389],[390],[391],[392],[393],[394],[395],[396],[397],[398],[399],[400],[401],[402]]},{"type":"LineString","properties":{"source":"openstreetmap.org","kind":"ferry","name":"San Fernando-Port of Spain Ferry","sort_rank":355,"landuse_kind":"urban_area","min_zoom":8.0,"id":341340249},"arcs":[403]},{"type":"MultiLineString","properties":{"source":"openstreetmap.org","kind":"highway","landuse_kind":"urban_area","sort_rank":383,"kind_detail":"motorway","min_zoom":8.0},"arcs":[[404],[405],[406],[407]]},{"type":"LineString","properties":{"source":"openstreetmap.org","kind":"major_road","int_name":"Solomon Hochoy Highway","sort_rank":380,"kind_detail":"primary","min_zoom":8.0,"id":92053785},"arcs":[408]},{"type":"LineString","properties":{"source":"openstreetmap.org","kind":"major_road","sort_rank":380,"kind_detail":"primary","ref":"point fortin","min_zoom":8.0,"id":203961037},"arcs":[409]},{"type":"MultiLineString","properties":{"source":"openstreetmap.org","kind":"major_road","int_name":"San Fernando Siparia Erin Road","sort_rank":380,"kind_detail":"primary","min_zoom":8.0},"arcs":[[410],[411]]},{"type":"LineString","properties":{"source":"openstreetmap.org","kind":"ferry","name":"G\u00fciria-Chaguaramas","sort_rank":355,"min_zoom":8.0,"id":469503743},"arcs":[412]},{"type":"MultiLineString","properties":{"source":"openstreetmap.org","kind":"major_road","landuse_kind":"residential","sort_rank":380,"kind_detail":"primary","min_zoom":8.0},"arcs":[[413],[414],[415]]},{"type":"LineString","properties":{"kind":"major_road","int_name":"Solomon Hochoy Highway","sort_rank":380,"landuse_kind":"urban_area","source":"openstreetmap.org","min_zoom":8.0,"kind_detail":"primary","id":92053785},"arcs":[416]},{"type":"LineString","properties":{"source":"openstreetmap.org","kind":"major_road","int_name":"Golconda Connector Road","sort_rank":380,"kind_detail":"primary","min_zoom":8.0,"id":341182008},"arcs":[417]},{"type":"MultiLineString","properties":{"sort_rank":383,"kind_detail":"motorway","min_zoom":8.0,"kind":"highway","source":"openstreetmap.org"},"arcs":[[418],[419],[420],[421],[422],[423],[424],[425]]},{"type":"MultiLineString","properties":{"source":"openstreetmap.org","kind":"major_road","landuse_kind":"residential","sort_rank":380,"kind_detail":"primary","is_bicycle_related":true,"min_zoom":8.0},"arcs":[[426],[427],[428]]},{"type":"MultiLineString","properties":{"source":"openstreetmap.org","kind":"major_road","sort_rank":380,"kind_detail":"primary","is_bicycle_related":true,"min_zoom":8.0},"arcs":[[429],[430],[431],[432]]},{"type":"MultiLineString","properties":{"source":"openstreetmap.org","kind":"major_road","landuse_kind":"nature_reserve","sort_rank":380,"kind_detail":"primary","min_zoom":8.0},"arcs":[[433],[434]]},{"type":"MultiLineString","properties":{"source":"openstreetmap.org","kind":"major_road","landuse_kind":"nature_reserve","sort_rank":381,"kind_detail":"trunk","min_zoom":8.0},"arcs":[[435],[436]]}]},"earth":{"type":"GeometryCollection","geometries":[{"type":"MultiPolygon","properties":{"sort_rank":10,"source":"naturalearthdata.com","min_zoom":0.0,"kind":"earth","area":22854124425},"arcs":[[[437]],[[438]],[[439]],[[440]],[[441]],[[442]],[[443]]]},{"type":"Point","properties":{"label_placement":true,"kind":"island","name":"Trinidad","area":5024320000,"source":"openstreetmap.org","min_zoom":7.0,"id":-5176042,"osm_relation":true},"coordinates":[1789,1918]}]},"landuse":{"type":"GeometryCollection","geometries":[{"type":"Polygon","properties":{"source":"openstreetmap.org","kind":"park","area":3035360000,"tier":2,"id":208079563,"min_zoom":4.0,"sort_rank":24},"arcs":[[444]]},{"type":"Polygon","properties":{"kind":"park","area":530720000,"sort_rank":24,"source":"openstreetmap.org","min_zoom":6.0,"tier":2,"id":-5793397,"osm_relation":true},"arcs":[[445]]},{"type":"MultiPolygon","properties":{"source":"naturalearthdata.com","kind":"urban_area","name":"","area":142988184,"sort_rank":11,"min_zoom":4.0},"arcs":[[[446]],[[447]],[[448]]]},{"type":"Polygon","properties":{"kind":"nature_reserve","natural":"wood","area":17236800,"sort_rank":23,"source":"openstreetmap.org","min_zoom":8.0,"tier":2,"id":121907022},"arcs":[[449]]},{"type":"Polygon","properties":{"source":"openstreetmap.org","kind":"residential","area":44667800,"tier":2,"id":372176948,"min_zoom":8.0,"sort_rank":20},"arcs":[[450]]},{"type":"MultiPolygon","properties":{"kind":"nature_reserve","natural":"wetland","area":121521675,"sort_rank":23,"source":"openstreetmap.org","min_zoom":8.0,"tier":2,"osm_relation":true},"arcs":[[[451]],[[452],[453],[454],[455],[456],[457],[458],[459]]]}]}},"type":"Topology","transform":{"translate":[-61.875,9.7956775828],"scale":[0.0003433228,0.0003375792]},"arcs":[[[0,576],[712,-10],[380,-50],[852,-282]],[[424,3413],[-5,-129],[-209,-562],[0,-372],[-174,-1],[-36,-91]],[[1603,4096],[-1179,-683]],[[1944,234],[242,7],[615,215],[158,86],[138,152],[999,2384]],[[424,3413],[-424,249]],[[2405,0],[-174,31],[-287,203]],[[0,777],[200,86],[76,-36],[86,30],[165,5],[75,-22],[52,-57],[68,-13],[162,54],[197,-6],[24,136],[65,96],[13,105],[-23,49],[-123,105],[-116,-24],[-200,60],[-32,-33],[20,-51],[-22,-34],[24,-52],[-117,-134],[-61,-14],[-39,61],[-241,-45],[-111,-39],[-22,-83],[-120,-42]],[[3111,4096],[-51,-19],[22,-14],[-65,18],[-7,-55]],[[3028,4000],[60,6],[44,-34]],[[3181,3981],[-1,20],[31,-12],[13,54],[70,53]],[[3326,4096],[47,-29],[45,29]],[[3010,4026],[-10,-25],[28,-1]],[[3132,3972],[49,9]],[[185,2642],[-185,-88]],[[0,2304],[36,45],[112,0],[62,64],[0,197],[-25,32]],[[185,2642],[55,155],[-36,113],[-87,81],[-117,8]],[[1413,0],[-79,138],[-223,203],[-324,131],[-190,21],[-96,-36],[-67,-112],[25,-134],[-256,48],[-132,-17],[-71,100]],[[1329,0],[-29,34],[-31,33],[-37,20],[-55,5],[-41,9],[-42,36],[-11,-7],[45,-48],[86,-32],[19,-50],[-56,0],[-14,18],[-99,71],[-96,63],[-117,75],[-84,44],[-45,22],[-28,12],[-83,4],[-17,-10],[18,-34],[39,-34],[42,-10],[7,-23],[4,-23],[49,-31],[21,-14],[21,-8],[32,-43],[38,-40],[11,-39],[-234,0],[-24,5],[-34,4],[-226,72],[-111,23],[-84,-3],[-27,-8],[13,-19],[6,-23],[19,-31],[16,-20],[-78,0],[-33,24],[-79,55],[0,668],[17,6],[56,34],[43,34],[53,25],[69,8],[252,0],[60,-7],[54,-16],[34,-19],[26,-20],[29,-16],[41,-6],[30,3],[57,14],[33,4],[83,33],[27,7],[116,-20],[3,0],[250,20],[229,-20],[186,36],[64,6],[178,-29],[41,4],[30,3],[131,31],[66,25],[52,35],[51,44],[67,41],[70,22],[62,-14],[-21,150],[1,174],[37,153],[84,91],[-108,77],[-52,77],[-19,38],[-15,40],[-30,164],[-10,54],[-2,83],[84,73],[-12,87],[-56,180],[-3,85],[15,89],[35,57],[54,-10],[153,190],[124,218],[-121,24],[-378,-42],[-53,-23],[-169,-20],[-49,-37],[-25,-19],[-338,1],[-154,19],[-10,-1],[-41,-3],[-19,-16],[-55,-65],[-24,-22],[-5,2],[-56,-2],[-7,-7],[-12,-14],[-17,-14],[-24,-5],[22,22],[-8,11],[-7,6],[-5,8],[-2,15],[-18,0],[1,-31],[-1,-9],[-22,0],[-15,36],[-14,-12],[-23,-30],[-36,-16],[-13,0],[-73,1],[-134,-32],[-119,10],[-40,-16],[-151,-105],[18,-35],[15,-15],[18,-6],[149,-10],[62,-14],[83,-38],[59,-27],[117,-79],[-22,-19],[70,-89],[30,-108],[-1,-117],[-19,-112],[-39,-92],[-17,-59],[7,-42],[11,-21],[17,-58],[2,-23],[-5,-8],[-9,-2],[-8,-5],[1,-16],[9,-13],[25,-21],[6,-16],[7,-56],[15,-48],[5,-27],[4,-23],[-11,-59],[-23,-38],[-35,-40],[-39,-32],[-33,-13],[-33,-1],[-8,0],[-115,-5],[-150,26],[-44,0],[-37,-20],[2,-89],[-2,-1],[-86,-78],[-112,-53],[-13,-7],[-225,-67],[-49,-24],[-45,-35],[-31,-44],[-19,-19],[-94,-18],[-12,-3],[0,1870],[38,28],[47,22],[-55,12],[-30,-5],[0,1289],[2999,0],[-6,-43],[24,-29],[40,-7],[44,22],[20,-47],[50,20],[78,68],[52,12],[8,4],[787,0],[0,-4096],[-2767,0]],[[320,2589],[16,2],[24,0],[6,9],[-17,12],[-4,10],[7,8],[9,4],[7,-2],[20,-12],[6,10],[-23,28],[-28,3],[-14,-12],[-4,-11],[-6,-37],[1,-12]],[[497,2621],[7,-6],[28,-5],[7,5],[3,9],[22,11],[-1,20],[4,14],[-5,12],[-21,0],[-23,-9],[-21,-51]],[[0,2807],[30,5],[55,-12],[-47,-22],[-38,-28]],[[0,79],[79,-55],[33,-24]],[[190,0],[-16,20],[-19,31],[-6,23],[-13,19],[27,8],[84,3],[111,-23],[226,-72],[34,-4],[24,-5]],[[876,0],[-11,39],[-38,40],[-32,43],[-21,8],[-21,14],[-49,31],[-4,23],[-7,23],[-42,10],[-39,34],[-18,34],[17,10],[83,-4],[28,-12],[45,-22],[84,-44],[117,-75],[96,-63],[99,-71],[14,-18]],[[1233,0],[-19,50],[-86,32],[-45,48],[11,7],[42,-36],[41,-9],[55,-5],[37,-20],[31,-33],[29,-34]],[[2999,4096],[-6,-43],[24,-29],[40,-7],[44,22],[20,-47],[50,20],[78,68],[52,12],[8,4]],[[2542,2677],[153,190],[124,218],[-121,24],[-378,-42],[-53,-23],[-169,-20],[-49,-37],[-25,-19],[-338,1],[-154,19],[-10,-1],[-41,-3],[-19,-16],[-55,-65],[-24,-22],[-5,2],[-56,-2],[-7,-7],[-12,-14],[-17,-14],[-24,-5],[22,22],[-8,11],[-7,6],[-5,8],[-2,15],[-18,0],[1,-31],[-1,-9],[-22,0],[-15,36],[-14,-12],[-23,-30],[-36,-16],[-13,0],[-73,1],[-134,-32],[-119,10],[-40,-16],[-151,-105],[18,-35],[15,-15],[18,-6],[149,-10],[62,-14],[83,-38],[59,-27],[117,-79],[-22,-19],[70,-89],[30,-108],[-1,-117],[-19,-112],[-39,-92],[-17,-59],[7,-42],[11,-21],[17,-58],[2,-23],[-5,-8],[-9,-2],[-8,-5],[1,-16],[9,-13],[25,-21],[6,-16],[7,-56],[15,-48],[5,-27],[4,-23],[-11,-59],[-23,-38],[-35,-40],[-39,-32],[-33,-13],[-33,-1],[-8,0],[-115,-5],[-150,26],[-44,0],[-37,-20],[2,-89],[-2,-1],[-86,-78],[-112,-53],[-13,-7],[-225,-67],[-49,-24],[-45,-35],[-31,-44],[-19,-19],[-94,-18],[-12,-3]],[[0,747],[17,6],[56,34],[43,34],[53,25],[69,8],[252,0],[60,-7],[54,-16],[34,-19],[26,-20],[29,-16],[41,-6],[30,3],[57,14],[33,4],[83,33],[27,7],[116,-20],[3,0],[250,20],[229,-20],[186,36],[64,6],[178,-29],[41,4],[30,3],[131,31],[66,25],[52,35],[51,44],[67,41],[70,22],[62,-14],[-21,150],[1,174],[37,153],[84,91],[-108,77],[-52,77],[-19,38],[-15,40],[-30,164],[-10,54],[-2,83],[84,73],[-12,87],[-56,180],[-3,85],[15,89],[35,57],[54,-10]],[[556,1125],[-68,-44],[16,-56],[-207,-62],[-63,-59],[-186,-21]],[[556,1126],[8,-6]],[[556,1125],[0,1]],[[556,1126],[0,-1]],[[556,1125]],[[563,1120],[-7,5]],[[564,1119],[0,1]],[[564,1120],[0,-1]],[[622,1104],[-58,15]],[[622,1104],[1,0]],[[623,1104],[-1,0]],[[623,1104],[1,0]],[[624,1104],[-1,0]],[[723,1282],[-16,-85],[-57,-90],[-26,-3]],[[723,1283],[0,-1]],[[723,1282],[0,1]],[[723,1284],[1,1]],[[723,1284]],[[724,1285],[-1,-1]],[[758,1317],[-34,-32]],[[760,1314],[-2,3]],[[849,1262],[-89,52]],[[773,2649],[7,3]],[[780,2652],[-7,-3]],[[780,2652],[44,-14]],[[974,1275],[-62,-21]],[[914,2733],[1,-17]],[[937,2731],[-23,2]],[[920,2773],[17,-42]],[[1060,2701],[-54,28],[-46,-21]],[[974,1275],[1,0]],[[975,1275],[-1,0]],[[1103,2727],[-41,-22],[-34,-72]],[[1636,2969],[-87,22],[-16,-26],[-41,27],[-96,-99],[-86,-35],[-126,6],[-75,-53],[-6,-84]],[[1234,2557],[6,37],[-56,133],[-81,0]],[[1119,2601],[53,-39]],[[1172,2562],[0,-3]],[[1172,2559],[0,-2]],[[1185,1708],[36,-139]],[[1188,1430],[1,11]],[[1189,1441],[0,-5]],[[1189,1436],[0,-2]],[[1190,1436],[-1,0]],[[1189,1436]],[[1189,1441],[2,-1]],[[1202,1856],[23,-1],[12,63],[132,117]],[[1211,1378],[-2,0]],[[1224,1260],[-13,120]],[[1219,1375],[-4,3]],[[1328,1839],[-111,-2]],[[1220,1250],[1,0]],[[1224,1257],[-4,-7]],[[1221,1250],[-1,0]],[[1224,1248],[-3,1]],[[1222,1250],[2,-2]],[[1225,1258],[-1,-1]],[[1224,1257],[0,1]],[[1224,1258],[1,1],[0,-1],[-1,0]],[[1224,1259],[0,1]],[[1225,1247],[-1,0]],[[1224,1260],[1,-1]],[[1225,1248],[0,-1]],[[1225,1247],[1,-132]],[[1298,1448],[-36,-16]],[[1264,1355],[10,-2]],[[1279,1461],[19,-13]],[[1298,1448],[122,12],[26,-53],[27,-6],[160,47],[83,-38],[43,21],[65,-10],[36,21],[-3,46],[185,23]],[[1328,1837],[0,2]],[[1328,1839],[2,-1]],[[1330,1838],[-1,-1]],[[1333,1842],[-3,-4]],[[1335,1842],[-2,0]],[[1333,1842],[1,1]],[[1335,1843],[0,-1]],[[1335,1842],[5,-3]],[[1364,2455],[4,-22]],[[1368,2431],[0,2]],[[1368,2433],[1,-2]],[[1369,2431],[37,-25]],[[1406,2405],[-14,6],[-23,19]],[[1439,2395],[-32,9]],[[1407,2405],[33,-10]],[[1440,2394],[-1,-1]],[[1439,2393],[0,1]],[[1439,2393],[22,-112]],[[1442,2394],[-2,0]],[[1440,2395],[2,-1]],[[1543,2393],[-28,-56],[-73,57]],[[2042,1511],[-71,65],[-102,6],[-122,57],[-39,115],[-43,10],[-58,-31],[15,82],[-18,37],[24,68],[-44,88],[-128,99]],[[1534,2498],[122,-31],[62,26]],[[1545,2394],[-2,-1]],[[1543,2393],[1,2]],[[1544,2396],[4,35]],[[1548,2431],[-3,-35]],[[1561,2482],[-13,-51]],[[1718,2493],[12,6]],[[1726,2498],[2,8]],[[1728,2506],[2,-7]],[[1728,2506],[34,2]],[[1767,2509],[-5,-1]],[[1767,2509],[60,-8],[132,37]],[[1909,2471],[0,35],[27,1]],[[1936,2507],[2,1]],[[1938,2507],[-2,0]],[[1939,2508],[2,0]],[[1941,2508],[-2,-1]],[[1941,2508],[35,13]],[[1976,2521],[0,1]],[[1976,2521]],[[1978,2520],[-1,1]],[[1977,2521],[1,-1]],[[1978,2520],[2,-4]],[[2042,1511],[121,33],[59,-39],[31,22],[222,-6],[56,-42]],[[2084,2379],[82,-38]],[[2166,2341],[9,0]],[[2175,2341],[-9,0]],[[2175,2340],[0,1]],[[2175,2341],[0,-1]],[[2175,2340],[247,-227],[42,-245]],[[2403,1004],[116,63],[24,81],[-12,331]],[[2504,1732],[62,-125],[-23,-13],[18,-29],[-30,-86]],[[3015,4021],[2,-1]],[[3017,4020],[3,2]],[[3215,4049],[-1,-1],[1,1]],[[3216,4050],[1,0],[-1,-1]],[[563,1120],[1,0],[-1,0]],[[1328,1837],[1,1],[0,-1]],[[1329,1837],[-1,0]],[[1334,1843],[0,1],[1,-1],[-1,0]],[[1368,2430],[0,1],[1,0]],[[1369,2431],[0,-1]],[[1369,2430],[-1,0]],[[1406,2405],[1,1],[0,-1],[0,-1],[-1,1]],[[1439,2395],[1,0]],[[1440,2395],[0,-1],[-1,1]],[[1544,2396],[1,0],[0,-1],[-1,-1],[0,2]],[[1939,2508],[0,-1],[-1,0],[1,1]],[[1976,2522],[1,0],[0,-1]],[[1977,2521],[-1,1]],[[2042,1511]],[[3215,4050],[1,0],[0,-1],[-1,0],[0,1]],[[837,1190]],[[837,1190]],[[837,1190],[85,-2]],[[922,1188],[48,79]],[[934,2721],[1,10]],[[935,2731],[-1,-10]],[[975,1274],[-5,-7]],[[975,1274]],[[976,1274],[-1,0]],[[975,1276],[1,1]],[[975,1276],[1,-1],[-1,-1],[0,1],[0,1]],[[1094,1335],[-118,-58]],[[976,1277],[0,-1]],[[1211,1380],[-7,-4],[-19,-6],[-21,-5],[-1,-1],[-1,0],[-2,0]],[[1160,1364],[-7,-3],[-59,-26]],[[1094,1335],[7,2],[59,27]],[[1160,1364],[2,1],[49,15]],[[1510,2457],[38,-28],[87,-2],[128,-21],[83,64],[63,1],[-63,-2],[-83,-63],[-215,23],[-39,28]],[[837,1190],[0,1],[0,-1]],[[837,1190]],[[1050,2525],[-14,-992],[143,-93]],[[935,2642],[0,1]],[[1239,2529]],[[1363,2100],[-27,179]],[[1336,2279],[25,-149],[2,-30]],[[1315,2395],[-5,20]],[[824,2638],[82,-12]],[[945,2615],[-22,5],[-17,6]],[[906,2626],[39,-9]],[[915,2716],[20,-73]],[[925,2701],[1,0]],[[926,2701],[-1,-1]],[[926,2701],[23,0]],[[939,2632],[-4,10]],[[938,2642],[22,66]],[[976,2601],[-4,1],[-10,6]],[[962,2608],[14,-7]],[[1013,2586],[-37,15]],[[992,2565],[-1,-1]],[[1003,2574],[-11,-9]],[[1003,2574],[10,-4],[19,-12]],[[1032,2558],[7,-4]],[[1014,2585],[-1,1]],[[1013,2586],[2,-1]],[[1015,2584],[-1,1],[1,0],[0,-1]],[[1016,2584],[-1,0]],[[1015,2584],[1,0]],[[1036,2567],[-20,17]],[[1024,2619],[1,2]],[[1026,2618],[-1,1]],[[1028,2633],[-3,-12]],[[1025,2621],[0,-2]],[[1025,2619],[1,-1]],[[1026,2618],[12,-16]],[[1036,2567],[-4,-7],[0,-2]],[[1032,2558],[-2,-3],[0,-1]],[[1039,2554],[-3,13]],[[1036,2550],[3,4]],[[1037,2584],[0,1]],[[1037,2584],[1,0]],[[1038,2584],[-1,-1],[0,1]],[[1037,2585],[1,17]],[[1037,2584],[0,1]],[[1038,2584],[-1,0]],[[1038,2584]],[[1038,2602],[22,-8]],[[1064,2574],[-26,10]],[[1050,2530],[24,1],[2,0]],[[1076,2531],[2,0],[1,0]],[[1064,2530],[-13,-1]],[[1060,2594],[2,-2]],[[1060,2594],[1,0]],[[1062,2593],[0,-1]],[[1063,2592],[-1,1]],[[1062,2593],[1,-1]],[[1062,2592],[3,-17]],[[1063,2592],[56,9]],[[1065,2523],[-1,1],[0,6]],[[1065,2575],[-1,-1]],[[1064,2574],[2,-1]],[[1065,2530],[0,-7]],[[1100,2514],[-35,16]],[[1065,2575],[1,-2]],[[1066,2573],[11,-32]],[[1076,2530],[0,1]],[[1076,2531],[0,5],[0,5],[1,0]],[[1077,2541],[2,-10]],[[1079,2531],[0,-1]],[[1079,2531],[7,-3]],[[1086,2528],[6,-3],[1,-2]],[[1093,2523]],[[1093,2523],[1,-4],[1,-1]],[[1086,2528],[13,-7],[1,0],[1,0]],[[1101,2521],[1,0]],[[1102,2521]],[[1097,2521]],[[1097,2521],[0,-1],[-1,-1]],[[1096,2519],[0,-1]],[[1096,2518],[0,-1],[-1,1]],[[1095,2518],[1,0]],[[1096,2518],[0,1]],[[1096,2519],[1,0],[0,2]],[[1097,2521]],[[1114,2521],[-12,0]],[[1102,2521],[-3,0],[-2,0]],[[1097,2521]],[[1097,2521],[-4,2]],[[1093,2523],[-12,3],[12,-3]],[[1093,2523],[4,-2]],[[1097,2521],[3,0],[1,0]],[[1101,2521],[13,0]],[[1177,2530],[-63,-9]],[[1172,2557],[7,-25]],[[1177,1833],[0,-1]],[[1177,1832],[0,1]],[[1177,1832],[8,-124]],[[1177,1834]],[[1177,2530],[2,0]],[[1179,2530],[1,0]],[[1180,2530],[2,0]],[[1179,2530],[-2,0]],[[1202,1856],[-26,1],[1,-23]],[[1177,1834]],[[1177,1833],[2,0]],[[1179,1833],[-2,0]],[[1217,1837],[-38,-4]],[[1179,2530]],[[1179,2530],[0,2]],[[1179,2532],[1,-2]],[[1180,2530]],[[1180,2530],[-1,0]],[[1180,2526],[-1,4]],[[1182,2530],[-2,0]],[[1180,2530],[0,-4]],[[1180,2526],[2,-8]],[[1182,2516],[0,2]],[[1182,2518],[2,-1]],[[1182,2530],[122,1]],[[1184,2517],[-1,-1]],[[1227,2530],[-43,-13]],[[1217,1386],[-31,30],[2,14]],[[1189,1434],[28,-48]],[[1204,1432],[-14,4]],[[1191,1440],[13,-8]],[[1204,1430],[0,2]],[[1242,1435],[-38,-5]],[[1204,1430],[22,3]],[[1211,1380],[4,-2]],[[1217,1386],[4,4]],[[1221,1569],[7,-25]],[[1228,1539],[0,1]],[[1228,1542],[0,2]],[[1228,1541],[0,-2]],[[1228,1539],[12,-38]],[[1228,1544],[0,-2]],[[1234,2557],[-2,-26]],[[1239,2529]],[[1239,2529]],[[1239,2529],[21,-49]],[[1240,1500],[0,1]],[[1240,1501],[1,-1]],[[1241,1498],[0,1]],[[1241,1499],[0,-1]],[[1241,1498],[9,-29]],[[1242,1435],[2,1]],[[1244,1435],[-2,0]],[[1245,1436],[1,-1]],[[1246,1435],[-1,0]],[[1246,1435],[16,-3]],[[1250,1468],[0,1]],[[1250,1469],[0,-1]],[[1259,2471],[0,3]],[[1262,2480],[4,-1],[1,-9],[-8,-2],[0,1]],[[1259,2470],[0,1]],[[1259,2471],[1,-1]],[[1260,2469],[2,9]],[[1260,2480],[1,0]],[[1262,2478],[-2,2]],[[1262,2478],[0,-2]],[[1276,1463],[3,-2]],[[1313,2532],[-9,-1]],[[1313,2532],[32,5]],[[1356,2531],[-11,6]],[[1356,2531],[-6,-44]],[[1351,2484],[-1,3]],[[1351,2484],[13,-29]],[[1356,2531],[178,-33]],[[1025,2619],[-1,0],[1,1],[0,-1]],[[1062,2593],[-1,0],[1,1],[0,-1]],[[1064,2530],[0,1],[1,-1],[-1,0]],[[1177,1834],[0,-1],[0,1]],[[1182,2515],[0,1],[1,0],[-1,-1]],[[1228,1542],[1,-1],[-1,-1],[-1,1],[1,1]],[[1240,1500],[1,0],[0,-1]],[[1241,1499],[-1,0],[0,1]],[[1259,2470],[1,0],[0,-1],[-1,0],[0,1]],[[1261,2480],[1,0],[0,-1],[-1,1]],[[1111,2514],[-54,10],[-66,39],[-52,58],[1,14],[-1,3],[-1,4],[-1,7]],[[937,2649],[0,3],[-2,25]],[[935,2677],[0,1],[-2,22],[1,21]],[[934,2721],[2,-43],[-1,-1]],[[935,2677],[-1,-17],[3,-11]],[[937,2649],[3,-15],[-1,-13],[1,-1],[2,-2],[5,-2],[22,-12],[1,-1],[3,-4],[16,-33],[2,-2],[19,-2],[26,-12],[22,-25],[53,-10]],[[1148,2512],[33,-2],[2,-1],[34,-22]],[[1217,2487],[24,-11],[26,-1],[8,0],[11,2]],[[1286,2477],[10,2]],[[1296,2479],[1,1]],[[1297,2480],[15,3],[1,0],[7,1],[80,8],[51,1],[17,-5],[41,-30],[1,-1]],[[1509,2457],[-58,36],[-52,-1],[-81,-9],[-19,-3],[-2,-1]],[[1297,2479]],[[1297,2479],[-2,0],[-7,-2],[-2,0]],[[1286,2477],[-69,10]],[[1217,2487],[-2,0],[-65,25]],[[1211,1380],[33,55]],[[1245,1435],[-2,-6],[-30,-48],[-2,-1]],[[1244,1436],[6,31]],[[1250,1467],[-5,-31]],[[1245,1435],[-1,0],[0,1],[1,0],[0,-1]],[[1250,1468],[2,0]],[[1252,1468],[-1,-1]],[[1252,1468],[3,0]],[[1255,1468],[10,-1]],[[1265,1467],[11,-4]],[[1300,2467],[-1,3],[-2,7],[0,1],[0,1]],[[1297,2479],[-1,0]],[[1296,2479],[0,1],[-4,13],[7,20]],[[1300,2512],[-7,-20],[4,-12]],[[1297,2480],[0,-1]],[[1297,2479],[0,-1],[3,-8],[1,-7]],[[1300,2514],[9,18]],[[1309,2532],[-9,-19]],[[1250,1468],[1,0],[-1,-1]],[[1250,1467],[0,1]],[[1299,2513],[1,0],[0,-1],[-1,1]],[[1050,2528],[0,-3]],[[1272,1448],[0,15],[20,83]],[[1293,1546],[-21,-97]],[[1301,2453],[-1,14]],[[1301,2463],[2,-10]],[[1214,1379],[-5,-3]],[[623,1104]],[[1221,1250],[1,0],[0,-1],[-1,0],[0,1]],[[1225,1248],[0,-1],[-1,1],[1,0]],[[784,2648],[-3,-35],[-65,-43],[-716,-119]],[[1340,2141],[5,-4]],[[1345,2137],[12,2],[-1,-9],[-5,3],[-6,4]],[[1461,2281],[-25,-108],[-41,-45],[61,-21]],[[1214,1379]],[[1219,1375],[45,-20]],[[1210,1221],[56,133],[6,94]],[[1210,1221],[0,-1],[0,1]],[[1272,1449],[-6,-95],[-56,-133]],[[1292,1546],[-2,108],[1,2],[32,43],[40,401]],[[1363,2100],[-39,-401],[-33,-45],[2,-108]],[[1310,2415],[-9,38]],[[1303,2453],[12,-44],[21,-130]],[[1336,2279],[-21,116]],[[1365,2129],[-9,1]],[[1356,2130],[9,-1]],[[1365,2129],[30,-1]],[[1226,1115],[-71,-68],[-93,-16]],[[3020,4022],[194,26]],[[3217,4050],[55,46]],[[3293,4096],[-5,0]],[[1980,2516],[104,-137]],[[2464,1868],[40,-136]],[[1150,2512],[-39,2]],[[1111,2515],[37,-3]],[[3309,4096],[-8,-4],[-52,-12],[-78,-68],[-50,-20],[-20,47],[-44,-22],[-40,7],[-24,29],[6,43],[310,0]],[[2819,3085],[-124,-218],[-153,-190],[-54,10],[-35,-57],[-15,-89],[3,-85],[56,-180],[12,-87],[-84,-73],[2,-83],[10,-54],[30,-164],[15,-40],[19,-38],[52,-77],[108,-77],[-84,-91],[-37,-153],[-1,-174],[21,-150],[-62,14],[-70,-22],[-67,-41],[-51,-44],[-52,-35],[-66,-25],[-131,-31],[-30,-3],[-41,-4],[-178,29],[-64,-6],[-186,-36],[-229,20],[-250,-20],[-3,0],[-116,20],[-27,-7],[-83,-33],[-33,-4],[-57,-14],[-30,-3],[-41,6],[-29,16],[-26,20],[-34,19],[-54,16],[-60,7],[-252,0],[-69,-8],[-53,-25],[-43,-34],[-56,-34],[-17,-6],[0,133],[12,3],[94,18],[19,19],[31,44],[45,35],[49,24],[225,67],[13,7],[112,53],[86,78],[2,1],[-2,89],[37,20],[44,0],[150,-26],[115,5],[8,0],[33,1],[33,13],[39,32],[35,40],[23,38],[11,59],[-4,23],[-5,27],[-15,48],[-7,56],[-6,16],[-25,21],[-9,13],[-1,16],[8,5],[9,2],[5,8],[-2,23],[-17,58],[-11,21],[-7,42],[17,59],[39,92],[19,112],[1,117],[-30,108],[-70,89],[22,19],[-117,79],[-59,27],[-83,38],[-62,14],[-149,10],[-18,6],[-15,15],[-18,35],[151,105],[40,16],[119,-10],[134,32],[73,-1],[13,0],[36,16],[23,30],[14,12],[15,-36],[22,0],[1,9],[-1,31],[18,0],[2,-15],[5,-8],[7,-6],[8,-11],[-22,-22],[24,5],[17,14],[12,14],[7,7],[56,2],[5,-2],[24,22],[55,65],[19,16],[41,3],[10,1],[154,-19],[338,-1],[25,19],[49,37],[169,20],[53,23],[378,42],[121,-24]],[[0,2807],[30,5],[55,-12],[-47,-22],[-38,-28],[0,57]],[[0,0],[0,79],[79,-55],[33,-24],[-112,0]],[[642,0],[-452,0],[-16,20],[-19,31],[-6,23],[-13,19],[27,8],[84,3],[111,-23],[226,-72],[34,-4],[24,-5]],[[1177,0],[-301,0],[-11,39],[-38,40],[-32,43],[-21,8],[-21,14],[-49,31],[-4,23],[-7,23],[-42,10],[-39,34],[-18,34],[17,10],[83,-4],[28,-12],[45,-22],[84,-44],[117,-75],[96,-63],[99,-71],[14,-18]],[[1329,0],[-96,0],[-19,50],[-86,32],[-45,48],[11,7],[42,-36],[41,-9],[55,-5],[37,-20],[31,-33],[29,-34]],[[881,0],[-56,60],[260,22],[21,-82],[-225,0]],[[0,2768],[36,54],[-4,-18],[48,-24],[-62,-34],[-18,22]],[[1199,1575],[125,-38],[-97,-165],[-51,26],[38,102],[-15,75]],[[1172,1694],[-29,10],[21,31],[-32,160],[56,-22],[43,-52],[-7,-70],[-52,-57]],[[1033,2623],[64,0],[65,-66],[259,0],[32,-33],[74,-9],[23,-57],[-442,-8],[17,25],[-117,79],[-193,76],[110,95],[76,-36],[32,-66]],[[1938,2379],[39,141],[109,-141],[-97,-24],[-51,24]],[[1260,2192],[2,65],[26,-2],[-8,-27],[55,17],[-25,34],[169,2],[-11,-56],[17,-6],[-40,-24],[30,-35],[-24,-19],[5,-37],[-94,-4],[-9,-31],[4,50],[-97,73]],[[2266,1855],[52,53],[18,102],[48,23],[35,74],[8,-111],[77,-264],[-51,6],[1,37],[-27,12],[-30,-25],[13,-16],[-21,4],[-7,-6],[35,-8],[-30,-15],[28,-52],[-49,16],[1,36],[-63,20],[3,59],[-30,10],[-11,45]],[[1083,2463],[28,52],[36,-2],[30,-13],[-14,-51],[149,-34],[12,-85],[-82,-86],[-64,-178],[-13,63],[37,86],[-76,214],[-43,34]],[[1247,2353],[5,-7],[38,3],[-18,6],[-25,-2]],[[1248,2359],[6,-2],[4,3],[11,-1],[7,4],[-28,-4]],[[1250,2335],[9,-4],[43,0],[4,4],[-56,0]],[[1220,2402],[13,0],[1,3],[-9,0],[-5,-3]],[[1250,2389],[1,-2],[14,0],[-7,6],[-8,-4]],[[1249,2321],[16,-2],[3,3],[-16,3],[-3,-4]],[[1205,2330],[6,-11],[11,1],[-10,11],[-7,-1]]]}