{"objects":{"water":{"type":"GeometryCollection","geometries":[]},"buildings":{"type":"GeometryCollection","geometries":[]},"places":{"type":"GeometryCollection","geometries":[]},"transit":{"type":"GeometryCollection","geometries":[]},"pois":{"type":"GeometryCollection","geometries":[{"type":"Point","properties":{"kind":"nature_reserve","name":"Parque Nacional Teniente Agripino Enciso","area":458286000,"source":"openstreetmap.org","min_zoom":7.87,"tier":2,"id":-7605057,"osm_relation":true},"coordinates":[723,2645]}]},"boundaries":{"type":"GeometryCollection","geometries":[]},"roads":{"type":"GeometryCollection","geometries":[{"type":"LineString","properties":{"source":"openstreetmap.org","kind":"major_road","sort_rank":380,"kind_detail":"primary","min_zoom":8.0,"id":29049167},"arcs":[0]},{"type":"LineString","properties":{"source":"openstreetmap.org","kind":"major_road","network":null,"sort_rank":380,"kind_detail":"primary","min_zoom":8.0,"shield_text":"9"},"arcs":[1]},{"type":"LineString","properties":{"source":"openstreetmap.org","kind":"major_road","sort_rank":380,"kind_detail":"primary","ref":"RN 9","min_zoom":8.0,"osm_relation":true},"arcs":[2]}]},"earth":{"type":"GeometryCollection","geometries":[{"type":"Polygon","properties":{"sort_rank":10,"source":"naturalearthdata.com","kind":"earth","min_zoom":0.0,"id":4462},"arcs":[[3]]},{"type":"Point","properties":{"name:ia":"America del Sud","label_placement":true,"name:pt":"Am\u00e9rica do Sul","name:ms":"Amerika Selatan","name:tr":"G\u00fcney Amerika","name:kn":"\u0ca6\u0c95\u0ccd\u0cb7\u0cbf\u0ca3 \u0c85\u0cae\u0cc7\u0cb0\u0cbf\u0c95","name:ar":"\u0623\u0645\u0631\u064a\u0643\u0627 \u0627\u0644\u062c\u0646\u0648\u0628\u064a\u0629","name:cs":"Ji\u017en\u00ed Amerika","name:io":"Sud-Amerika","min_zoom":0.0,"name:it":"America meridionale","name:tl":"Timog Amerika","name:ru":"\u042e\u0436\u043d\u0430\u044f \u0410\u043c\u0435\u0440\u0438\u043a\u0430","name:vi":"Nam M\u1ef9","name:pl":"Ameryka Po\u0142udniowa","name:mi":"Amerika ki te Tonga","id":36966069,"name:ca":"Am\u00e8rica del Sud","name:vo":"Sol\u00fcda-Merop","name:fa":"\u0622\u0645\u0631\u06cc\u06a9\u0627\u06cc \u062c\u0646\u0648\u0628\u06cc","name:hu":"D\u00e9l-Amerika","name:lt":"Piet\u0173 Amerika","name:fi":"Etel\u00e4-Amerikka","name:da":"Sydamerika","kind":"continent","name:de":"S\u00fcdamerika","source":"openstreetmap.org","name:fr":"Am\u00e9rique du Sud","name:zh":"\u5357\u7f8e\u6d32","name:sl":"Ju\u017ena Amerika","name:nl":"Zuid-Amerika","name:nn":"S\u00f8r-Amerika","name:hi":"\u0926\u0915\u094d\u0937\u093f\u0923 \u0905\u092e\u0947\u0930\u093f\u0915\u093e","name:nb":"S\u00f8r-Amerika","name:eo":"Sudameriko","name:la":"America Australis","name:sk":"Ju\u017en\u00e1 Amerika","name:uk":"\u041f\u0456\u0432\u0434\u0435\u043d\u043d\u0430 \u0410\u043c\u0435\u0440\u0438\u043a\u0430","name:be":"\u041f\u0430\u045e\u0434\u043d\u0451\u0432\u0430\u044f \u0410\u043c\u0435\u0440\u044b\u043a\u0430","name:li":"Zuud-Amerika","name:hr":"Ju\u017ena Amerika","name:sr":"\u0408\u0443\u0436\u043d\u0430 \u0410\u043c\u0435\u0440\u0438\u043a\u0430","name:el":"\u039d\u03cc\u03c4\u03b9\u03b1 \u0391\u03bc\u03b5\u03c1\u03b9\u03ba\u03ae","name:ga":"Meirice\u00e1 Theas","name":"South America","name:is":"Su\u00f0ur-Amer\u00edka","name:ku":"Amer\u00eekaya Ba\u015f\u00fbr","name:sv":"Sydamerika","name:eu":"Am\u00e9rica del Sur","name:no":"S\u00f8r-Amerika","name:es":"Am\u00e9rica del Sur"},"coordinates":[2547,2947]}]},"landuse":{"type":"GeometryCollection","geometries":[{"type":"Polygon","properties":{"kind":"nature_reserve","natural":"scrub","area":458286016,"sort_rank":23,"source":"openstreetmap.org","min_zoom":6.0,"tier":2,"id":-7605057,"osm_relation":true},"arcs":[[4]]}]}},"type":"Topology","transform":{"translate":[-61.875,-21.9430455334],"scale":[0.0003433228,0.000319888]},"arcs":[[[1028,1848],[-377,-409],[-37,-82],[-614,-272]],[[3400,0],[-2372,1848]],[[3400,0],[-2638,2059],[-762,1359]],[[0,0],[0,4096],[4096,0],[0,-4096],[-4096,0]],[[368,2762],[416,274],[302,-522],[-17,-9],[22,-37],[-427,-235],[-296,529]]]}