{"objects":{"water":{"type":"GeometryCollection","geometries":[{"type":"Polygon","properties":{"source":"naturalearthdata.com","kind":"lake","name":"Lago de Nicaragua","area":8197937152,"sort_rank":200,"min_zoom":0.0,"id":14},"arcs":[[152],[153],[154]]},{"type":"MultiPolygon","properties":{"source":"naturalearthdata.com","kind":"ocean","area":1576712559132672,"sort_rank":200,"min_zoom":0.0,"id":1},"arcs":[[[155]]]},{"type":"Polygon","properties":{"source":"naturalearthdata.com","kind":"lake","name":"Lago de Managua","area":1094113280,"sort_rank":200,"min_zoom":0.0,"id":61},"arcs":[[156]]},{"type":"Point","properties":{"label_placement":true,"kind":"lake","name":"Lago de Nicaragua","area":8197937152,"sort_rank":200,"source":"naturalearthdata.com","min_zoom":0.0,"id":14},"coordinates":[2729,593]},{"type":"Point","properties":{"label_placement":true,"kind":"lake","name":"Lago de Managua","area":1094113280,"sort_rank":200,"source":"naturalearthdata.com","min_zoom":0.0,"id":61},"coordinates":[1148,1729]},{"type":"MultiLineString","properties":{"source":"naturalearthdata.com","kind":"lake","sort_rank":367,"boundary":true,"min_zoom":0.0,"id":14},"arcs":[[157],[158],[159]]},{"type":"LineString","properties":{"source":"naturalearthdata.com","kind":"lake","sort_rank":367,"boundary":true,"min_zoom":0.0,"id":61},"arcs":[160]},{"type":"LineString","properties":{"source":"naturalearthdata.com","kind":"ocean","sort_rank":205,"boundary":true,"min_zoom":0.0,"id":72},"arcs":[161]}]},"buildings":{"type":"GeometryCollection","geometries":[]},"places":{"type":"GeometryCollection","geometries":[{"type":"Point","properties":{"name:pt":"Nicar\u00e1gua","name:ps":"\u0646\u06a9\u0627\u0631\u0627\u06ab\u0648\u0627","name:ka":"\u10dc\u10d8\u10d9\u10d0\u10e0\u10d0\u10d2\u10e3\u10d0","name:mt":"Nikaragwa","name:tr":"Nikaragua","name:kn":"\u0ca8\u0cbf\u0c95\u0cbe\u0cb0\u0cbe\u0c97\u0cc1\u0cb5\u0cbe","name:km":"\u1793\u17b8\u1780\u17b6\u179a\u17c9\u17b6\u17a0\u17d2\u1782\u17d0\u179a","name:cs":"Nikaragua","name:ki":"Nikaragwa","name:kw":"Nikaragwa","name:kv":"\u041d\u0438\u043a\u0430\u0440\u0430\u0433\u0443\u0430","name:ku":"N\u00eekaragua","name:ti":"\u1292\u12ab\u122b\u1313","name:ks":"\u0646\u0627\u06a9\u0627\u0631\u0627\u06af\u064f\u0648\u0627","name:to":"Nikalakua","name:pa":"\u0a28\u0a3f\u0a15\u0a3e\u0a30\u0a3e\u0a17\u0a41\u0a06","name:os":"\u041d\u0438\u043a\u0430\u0440\u0430\u0433\u0443\u00e6","name:or":"\u0b28\u0b3f\u0b15\u0b3e\u0b30\u0b3e\u0b17\u0b41\u0b06","name:ce":"\u041d\u0438\u043a\u0430\u0440\u0430\u0433\u0443\u0430","name:ta":"\u0ba8\u0bbf\u0b95\u0bbe\u0bb0\u0b95\u0bc1\u0bb5\u0bbe","name:tg":"\u041d\u0438\u043a\u0430\u0440\u0430\u0433\u0443\u0430","name:te":"\u0c28\u0c3f\u0c15\u0c30\u0c3e\u0c17\u0c41\u0c35\u0c3e","name:cy":"Nicaragwa","source":"openstreetmap.org","name:ln":"Nikaragwa","name:sr":"\u041d\u0438\u043a\u0430\u0440\u0430\u0433\u0432\u0430","name:dz":"\u0f53\u0f72\u0f0b\u0f40\u0fb2\u0f0b\u0f5d\u0f0b\u0f42","name:ko":"\ub2c8\uce74\ub77c\uacfc","name:dv":"\u0782\u07a8\u0786\u07a6\u0783\u07a7\u078e\u07aa\u0787\u07a7","name:lv":"Nikaragva","name:lt":"Nikaragva","name:uz":"Nikaragua","name:kk":"\u041d\u0438\u043a\u0430\u0440\u0430\u0433\u0443\u0430","name:he":"\u05e0\u05d9\u05e7\u05e8\u05d2\u05d5\u05d0\u05d4","min_zoom":2.0,"kind":"country","name:ur":"\u0646\u06a9\u0627\u0631\u0627\u06af\u0648\u0648\u0627","name:lg":"Nikaraguwa","name:uk":"\u041d\u0456\u043a\u0430\u0440\u0430\u0433\u0443\u0430","name:hy":"\u0546\u056b\u056f\u0561\u0580\u0561\u0563\u0578\u0582\u0561","name:ug":"\u0646\u0649\u0643\u0627\u0631\u0627\u06af\u06c7\u0626\u0627","name:hr":"Nikaragva","name:lo":"\u0e99\u0eb4\u0e81\u0e84\u0eb2\u0ea5\u0eb2\u0e81\u0ebb\u0ea7","population":5727707,"name:el":"\u039d\u03b9\u03ba\u03b1\u03c1\u03ac\u03b3\u03bf\u03c5\u03b1","name:eo":"Nikaragvo","name":"Nicaragua","official_name":"Rep\u00fablica de Nicaragua","name:ee":"Nicaraguaduk\u0254","name:th":"\u0e1b\u0e23\u0e30\u0e40\u0e17\u0e28\u0e19\u0e34\u0e01\u0e32\u0e23\u0e32\u0e01\u0e31\u0e27","name:gu":"\u0aa8\u0abf\u0a95\u0abe\u0ab0\u0abe\u0a97\u0ac1\u0a86","name:eu":"Nikaragua","name:yo":"Or\u00edl\u1eb9\u0301\u00e8de NIkaragua","name:ay":"Nikarwa","name:yi":"\u05e0\u05d9\u05e7\u05d0\u05e8\u05d0\u05d2\u05d5\u05d0","name:rn":"Nikaragwa","name:az":"Nikaraqua","name:id":"Nikaragua","name:mr":"\u0928\u093f\u0915\u093e\u0930\u093e\u0917\u094d\u0935\u0947","name:qu":"Nikarawa","name:ar":"\u0646\u064a\u0643\u0627\u0631\u0627\u063a\u0648\u0627","name:my":"\u1014\u102e\u1000\u102c\u101b\u102c\u1002\u103d\u102c","name:io":"Nikaragua","name:gn":"Nikaragua","name:is":"N\u00edkaragva","name:am":"\u1292\u12ab\u122b\u1313","name:fo":"Nikaragua","name:ml":"\u0d28\u0d3f\u0d15\u0d4d\u0d15\u0d3e\u0d30\u0d17\u0d4d\u0d35","name:ru":"\u041d\u0438\u043a\u0430\u0440\u0430\u0433\u0443\u0430","name:rw":"Nikaragwa","name:pl":"Nikaragua","name:mk":"\u041d\u0438\u043a\u0430\u0440\u0430\u0433\u0432\u0430","name:vo":"Nikaraguv\u00e4n","name:zu":"i-Nicaragua","name:ha":"Nikaraguwa","name:mn":"\u041d\u0438\u043a\u0430\u0440\u0430\u0433\u0443\u0430","name:ff":"Nikaraguwaa","name:hi":"\u0928\u093f\u0915\u093e\u0930\u093e\u0917\u0941\u0906","name:mg":"Nikarago\u00e0","id":424316671,"name:wo":"Nikaraaguwa","name:zh-yue":"\u5c3c\u52a0\u62c9\u74dc","name:fy":"Nikaragua","name:zh":"\u5c3c\u52a0\u62c9\u74dc","name:so":"Nikaraaguwa","name:sl":"Nikaragva","name:sk":"Nikaragua","name:ja":"\u30cb\u30ab\u30e9\u30b0\u30a2","name:si":"\u0db1\u0dd2\u0d9a\u0dbb\u0d9c\u0dd4\u0dc0\u0dcf\u0dc0","name:sh":"Nikaragva","name:sg":"Nikaragua","name:ne":"\u0928\u093f\u0915\u093e\u0930\u093e\u0917\u0941\u0935\u093e","name:sa":"\u0928\u093f\u0915\u093e\u0930\u0917\u0941\u0935\u093e","name:bs":"Nikaragva","name:bm":"Nikaragwa","name:bn":"\u09a8\u09bf\u0995\u09be\u09b0\u09be\u0997\u09c1\u09af\u09bc\u09be","name:bo":"\u0f53\u0f72\u0f0b\u0f40\u0f0b\u0f62\u0f0b\u0f42\u0f74\u0f0b\u0f68\u0f0d","name:sw":"Nikaragwa","name:be":"\u041d\u0456\u043a\u0430\u0440\u0430\u0433\u0443\u0430","name:su":"Nikaragua","name:bg":"\u041d\u0438\u043a\u0430\u0440\u0430\u0433\u0443\u0430","name:ss":"INikhalaga","name:ba":"\u041d\u0438\u043a\u0430\u0440\u0430\u0433\u0443\u0430","name:sq":"Nikaragua","name:ga":"Nicearagua","name:gd":"Niocaragua","name:ht":"Nikaragwa","name:jv":"Nikaragua","name:fa":"\u0646\u06cc\u06a9\u0627\u0631\u0627\u06af\u0648\u0622","name:gv":"Yn Nickeraag","name:ak":"Nekaraguwa","name:tt":"\u041d\u0438\u043a\u0430\u0440\u0430\u0433\u0443\u0430"},"coordinates":[3375,1782]},{"type":"Point","properties":{"admin_level":"4","kind":"region","name":"Rivas","kind_detail":"state","name:eo":"Rivaso","source":"openstreetmap.org","min_zoom":4.0,"id":2923223364},"coordinates":[2277,315]},{"type":"Point","properties":{"admin_level":"4","kind":"region","name":"R\u00edo San Juan","kind_detail":"state","name:eo":"Rivero Sankta Johano","source":"openstreetmap.org","min_zoom":4.0,"id":2923223365},"coordinates":[4043,51]},{"type":"Point","properties":{"admin_level":"4","kind":"region","name":"Chontales","kind_detail":"state","name:eo":"\u0108ontaleso","source":"openstreetmap.org","min_zoom":4.0,"id":2923223354},"coordinates":[3038,1064]},{"type":"Point","properties":{"admin_level":"4","kind":"region","name":"Boaco","kind_detail":"state","name:eo":"Boako","source":"openstreetmap.org","min_zoom":4.0,"id":2923223351},"coordinates":[2505,1938]},{"type":"Point","properties":{"admin_level":"4","kind":"region","name":"Carazo","kind_detail":"state","name:eo":"Karazo","source":"openstreetmap.org","min_zoom":4.0,"id":2923223352},"coordinates":[1279,724]},{"type":"Point","properties":{"admin_level":"4","kind":"region","name":"Chinandega","kind_detail":"state","name:eo":"\u0108inandego","source":"openstreetmap.org","min_zoom":4.0,"id":2923223353},"coordinates":[335,2553]},{"type":"Point","properties":{"admin_level":"4","kind":"region","name":"Granada","kind_detail":"state","name:eo":"Granado","source":"openstreetmap.org","min_zoom":4.0,"id":2923223356},"coordinates":[1870,948]},{"type":"Point","properties":{"admin_level":"4","kind":"region","name":"Le\u00f3n","kind_detail":"state","name:eo":"Leono","source":"openstreetmap.org","min_zoom":4.0,"id":2923223358},"coordinates":[868,2151]},{"type":"Point","properties":{"admin_level":"4","kind":"region","name":"Madriz","kind_detail":"state","name:eo":"Madrizo","source":"openstreetmap.org","min_zoom":4.0,"id":2923223359},"coordinates":[1231,3481]},{"type":"Point","properties":{"admin_level":"4","kind":"region","name":"Managua","kind_detail":"state","name:eo":"Managvo","source":"openstreetmap.org","min_zoom":4.0,"id":2923223360},"coordinates":[964,1127]},{"type":"Point","properties":{"admin_level":"4","kind":"region","name":"Matagalpa","kind_detail":"state","name:eo":"Matagalpo","source":"openstreetmap.org","min_zoom":4.0,"id":2923223361},"coordinates":[2457,2664]},{"type":"Point","properties":{"admin_level":"4","kind":"region","name":"Masaya","kind_detail":"state","name:eo":"Masajo","source":"openstreetmap.org","min_zoom":4.0,"id":2923256183},"coordinates":[1655,1227]},{"type":"Point","properties":{"admin_level":"4","kind":"region","name":"Jinotega","kind_detail":"state","name:eo":"\u0124inotegao","source":"openstreetmap.org","min_zoom":4.0,"id":2923223357},"coordinates":[1727,2882]},{"type":"Point","properties":{"admin_level":"4","kind":"region","name":"Estel\u00ed","kind_detail":"state","name:eo":"Estelio","source":"openstreetmap.org","min_zoom":4.0,"id":2923223355},"coordinates":[1066,3085]},{"type":"Point","properties":{"admin_level":"4","kind":"region","name":"Nueva Segovia","kind_detail":"state","name:eo":"Nova Segovio","source":"openstreetmap.org","min_zoom":4.0,"id":2923223362},"coordinates":[1638,3881]},{"type":"Point","properties":{"source":"naturalearthdata.com","kind":"locality","name":"Managua","country_capital":true,"population":920000,"min_zoom":5.0,"id":6842},"coordinates":[1336,1457]},{"type":"Point","properties":{"source":"naturalearthdata.com","kind":"locality","name":"Leon","population":164441,"region_capital":true,"min_zoom":6.0,"id":4976},"coordinates":[449,1876]},{"type":"Point","properties":{"source":"naturalearthdata.com","kind":"locality","name":"Chinandega","population":139023,"region_capital":true,"min_zoom":7.0,"id":2617},"coordinates":[84,2167]},{"type":"Point","properties":{"source":"naturalearthdata.com","kind":"locality","name":"Matagalpa","population":109089,"region_capital":true,"min_zoom":7.0,"id":2618},"coordinates":[1851,2594]},{"type":"Point","properties":{"source":"naturalearthdata.com","kind":"locality","name":"Granada","population":105219,"region_capital":true,"min_zoom":7.0,"id":2616},"coordinates":[1802,1127]},{"type":"Point","properties":{"source":"naturalearthdata.com","kind":"locality","name":"Rivas","population":31941,"region_capital":true,"min_zoom":7.0,"id":2545},"coordinates":[1992,391]}]},"transit":{"type":"GeometryCollection","geometries":[]},"pois":{"type":"GeometryCollection","geometries":[]},"boundaries":{"type":"GeometryCollection","geometries":[{"type":"MultiLineString","properties":{"source":"naturalearthdata.com","kind":"country","sort_rank":262,"kind_detail":"2","min_zoom":0.0,"id":303},"arcs":[[0],[1]]},{"type":"MultiLineString","properties":{"source":"naturalearthdata.com","kind":"country","sort_rank":262,"kind_detail":"2","min_zoom":0.0,"id":192},"arcs":[[2],[3],[4],[5],[6],[7],[8],[9],[10],[11],[12],[13],[14],[15],[16],[17],[18]]},{"type":"LineString","properties":{"source":"naturalearthdata.com","kind":"region","name":"Rivas - Chontales","sort_rank":256,"kind_detail":"4","min_zoom":6.8,"id":2909},"arcs":[19]},{"type":"MultiLineString","properties":{"source":"naturalearthdata.com","kind":"region","name":"Rivas - Granada","sort_rank":256,"kind_detail":"4","min_zoom":6.8,"id":2911},"arcs":[[20],[21],[22],[23],[24]]},{"type":"LineString","properties":{"source":"naturalearthdata.com","kind":"region","name":"Rivas - Carazo","sort_rank":256,"kind_detail":"4","min_zoom":6.8,"id":2919},"arcs":[25]},{"type":"LineString","properties":{"source":"naturalearthdata.com","kind":"region","name":"Estel\u00ed - Chinandega","sort_rank":256,"kind_detail":"4","min_zoom":6.8,"id":2928},"arcs":[26]},{"type":"LineString","properties":{"source":"naturalearthdata.com","kind":"region","sort_rank":256,"kind_detail":"4","min_zoom":6.8,"id":155},"arcs":[27]},{"type":"MultiLineString","properties":{"source":"naturalearthdata.com","kind":"region","name":"Boaco - Matagalpa","sort_rank":256,"kind_detail":"4","min_zoom":6.8,"id":2895},"arcs":[[28],[29],[30],[31],[32],[33],[34],[35],[36],[37],[38]]},{"type":"MultiLineString","properties":{"source":"naturalearthdata.com","kind":"region","name":"Jinotega - Matagalpa","sort_rank":256,"kind_detail":"4","min_zoom":6.8,"id":2896},"arcs":[[39],[40],[41],[42],[43],[44]]},{"type":"MultiLineString","properties":{"source":"naturalearthdata.com","kind":"region","name":"Nueva Segovia - Jinotega","sort_rank":256,"kind_detail":"4","min_zoom":6.8,"id":2897},"arcs":[[45],[46],[47],[48],[49]]},{"type":"MultiLineString","properties":{"source":"naturalearthdata.com","kind":"region","name":"Boaco - Chontales","sort_rank":256,"kind_detail":"4","min_zoom":6.8,"id":2898},"arcs":[[50],[51],[52],[53],[54]]},{"type":"LineString","properties":{"source":"naturalearthdata.com","kind":"region","name":"Matagalpa - Estel\u00ed","sort_rank":256,"kind_detail":"4","min_zoom":6.8,"id":2899},"arcs":[55]},{"type":"LineString","properties":{"source":"naturalearthdata.com","kind":"region","name":"Estel\u00ed - Jinotega","sort_rank":256,"kind_detail":"4","min_zoom":6.8,"id":2900},"arcs":[56]},{"type":"MultiLineString","properties":{"source":"naturalearthdata.com","kind":"region","name":"Madriz - Nueva Segovia","sort_rank":256,"kind_detail":"4","min_zoom":6.8,"id":2901},"arcs":[[57],[58],[59],[60],[61],[62],[63],[64]]},{"type":"MultiLineString","properties":{"source":"naturalearthdata.com","kind":"region","name":"Madriz - Jinotega","sort_rank":256,"kind_detail":"4","min_zoom":6.8,"id":2902},"arcs":[[65],[66],[67]]},{"type":"MultiLineString","properties":{"source":"naturalearthdata.com","kind":"region","name":"Estel\u00ed - Madriz","sort_rank":256,"kind_detail":"4","min_zoom":6.8,"id":2903},"arcs":[[68],[69],[70],[71]]},{"type":"MultiLineString","properties":{"source":"naturalearthdata.com","kind":"region","name":"Granada - Boaco","sort_rank":256,"kind_detail":"4","min_zoom":6.8,"id":2904},"arcs":[[72],[73]]},{"type":"LineString","properties":{"source":"naturalearthdata.com","kind":"region","name":"Chontales - Granada","sort_rank":256,"kind_detail":"4","min_zoom":6.8,"id":2905},"arcs":[74]},{"type":"LineString","properties":{"source":"naturalearthdata.com","kind":"region","name":"Granada - Masaya","sort_rank":256,"kind_detail":"4","min_zoom":6.8,"id":2906},"arcs":[75]},{"type":"MultiLineString","properties":{"source":"naturalearthdata.com","kind":"region","name":"Atl\u00e1ntico Norte - Matagalpa","sort_rank":256,"kind_detail":"4","min_zoom":6.8,"id":2907},"arcs":[[76],[77],[78],[79],[80],[81],[82]]},{"type":"MultiLineString","properties":{"source":"naturalearthdata.com","kind":"region","name":"Jinotega - Atl\u00e1ntico Norte","sort_rank":256,"kind_detail":"4","min_zoom":6.8,"id":2908},"arcs":[[83],[84],[85]]},{"type":"MultiLineString","properties":{"source":"naturalearthdata.com","kind":"region","name":"Rio San Juan - Chontales","sort_rank":256,"kind_detail":"4","min_zoom":6.8,"id":2910},"arcs":[[86],[87],[88],[89],[90],[91],[92],[93]]},{"type":"LineString","properties":{"source":"naturalearthdata.com","kind":"region","name":"Carazo - Granada","sort_rank":256,"kind_detail":"4","min_zoom":6.8,"id":2918},"arcs":[94]},{"type":"LineString","properties":{"source":"naturalearthdata.com","kind":"region","name":"Managua - Matagalpa","sort_rank":256,"kind_detail":"4","min_zoom":6.8,"id":2920},"arcs":[95]},{"type":"LineString","properties":{"source":"naturalearthdata.com","kind":"region","name":"Managua - Boaco","sort_rank":256,"kind_detail":"4","min_zoom":6.8,"id":2921},"arcs":[96]},{"type":"MultiLineString","properties":{"source":"naturalearthdata.com","kind":"region","name":"Matagalpa - Atl\u00e1ntico Sur","sort_rank":256,"kind_detail":"4","min_zoom":6.8,"id":2912},"arcs":[[97],[98],[99],[100],[101],[102],[103],[104],[105],[106],[107],[108],[109],[110],[111]]},{"type":"MultiLineString","properties":{"source":"naturalearthdata.com","kind":"region","name":"Atl\u00e1ntico Sur - Boaco","sort_rank":256,"kind_detail":"4","min_zoom":6.8,"id":2913},"arcs":[[112],[113],[114],[115],[116]]},{"type":"LineString","properties":{"source":"naturalearthdata.com","kind":"region","name":"Atl\u00e1ntico Sur - Chontales","sort_rank":256,"kind_detail":"4","min_zoom":6.8,"id":2914},"arcs":[117]},{"type":"LineString","properties":{"source":"naturalearthdata.com","kind":"region","name":"Atl\u00e1ntico Norte - Atl\u00e1ntico Sur","sort_rank":256,"kind_detail":"4","min_zoom":6.8,"id":2915},"arcs":[118]},{"type":"LineString","properties":{"source":"naturalearthdata.com","kind":"region","name":"Rio San Juan - Atl\u00e1ntico Sur","sort_rank":256,"kind_detail":"4","min_zoom":6.8,"id":2916},"arcs":[119]},{"type":"LineString","properties":{"source":"naturalearthdata.com","kind":"region","name":"Masaya - Carazo","sort_rank":256,"kind_detail":"4","min_zoom":6.8,"id":2917},"arcs":[120]},{"type":"MultiLineString","properties":{"source":"naturalearthdata.com","kind":"region","name":"Masaya - Managua","sort_rank":256,"kind_detail":"4","min_zoom":6.8,"id":2922},"arcs":[[121],[122],[123],[124]]},{"type":"MultiLineString","properties":{"source":"naturalearthdata.com","kind":"region","name":"Granada - Managua","sort_rank":256,"kind_detail":"4","min_zoom":6.8,"id":2923},"arcs":[[125],[126]]},{"type":"LineString","properties":{"source":"naturalearthdata.com","kind":"region","name":"Carazo - Managua","sort_rank":256,"kind_detail":"4","min_zoom":6.8,"id":2924},"arcs":[127]},{"type":"LineString","properties":{"source":"naturalearthdata.com","kind":"region","name":"Le\u00f3n - Matagalpa","sort_rank":256,"kind_detail":"4","min_zoom":6.8,"id":2925},"arcs":[128]},{"type":"MultiLineString","properties":{"source":"naturalearthdata.com","kind":"region","name":"Estel\u00ed - Le\u00f3n","sort_rank":256,"kind_detail":"4","min_zoom":6.8,"id":2926},"arcs":[[129],[130],[131],[132]]},{"type":"MultiLineString","properties":{"source":"naturalearthdata.com","kind":"region","name":"Managua - Le\u00f3n","sort_rank":256,"kind_detail":"4","min_zoom":6.8,"id":2927},"arcs":[[133],[134],[135]]},{"type":"LineString","properties":{"source":"naturalearthdata.com","kind":"region","name":"Chinandega - Madriz","sort_rank":256,"kind_detail":"4","min_zoom":6.8,"id":2929},"arcs":[136]},{"type":"LineString","properties":{"source":"naturalearthdata.com","kind":"region","name":"Chinandega - Le\u00f3n","sort_rank":256,"kind_detail":"4","min_zoom":6.8,"id":2930},"arcs":[137]},{"type":"MultiLineString","properties":{"source":"naturalearthdata.com","kind":"region","name":"Francisco Moraz\u00e1n - El Para\u00edso","sort_rank":256,"kind_detail":"4","min_zoom":6.7,"id":3772},"arcs":[[138],[139],[140],[141],[142]]},{"type":"MultiLineString","properties":{"source":"naturalearthdata.com","kind":"region","name":"El Para\u00edso - Choluteca","sort_rank":256,"kind_detail":"4","min_zoom":6.7,"id":3775},"arcs":[[143],[144],[145],[146],[147],[148],[149],[150]]},{"type":"LineString","properties":{"source":"naturalearthdata.com","kind":"region","name":"Rivas - Rio San Juan","sort_rank":256,"kind_detail":"4","min_zoom":7.0,"id":8088},"arcs":[151]}]},"roads":{"type":"GeometryCollection","geometries":[{"type":"LineString","properties":{"source":"naturalearthdata.com","kind":"major_road","sort_rank":380,"kind_detail":"primary","ref":"6","min_zoom":3.0,"id":3188},"arcs":[162]},{"type":"LineString","properties":{"source":"naturalearthdata.com","kind":"major_road","sort_rank":380,"kind_detail":"primary","ref":"5","min_zoom":3.0,"id":3197},"arcs":[163]},{"type":"LineString","properties":{"kind":"major_road","sort_rank":380,"landuse_kind":"park","source":"naturalearthdata.com","min_zoom":3.0,"kind_detail":"primary","ref":"15","id":3198},"arcs":[164]},{"type":"MultiLineString","properties":{"source":"naturalearthdata.com","kind":"major_road","sort_rank":380,"kind_detail":"primary","ref":"15","min_zoom":3.0,"id":3198},"arcs":[[165],[166]]},{"type":"LineString","properties":{"source":"naturalearthdata.com","kind":"highway","sort_rank":355,"kind_detail":"trunk","ref":"1","min_zoom":6.0,"id":3200},"arcs":[167]},{"type":"LineString","properties":{"source":"naturalearthdata.com","kind":"highway","sort_rank":355,"kind_detail":"trunk","ref":"1","min_zoom":6.0,"id":3210},"arcs":[168]},{"type":"LineString","properties":{"source":"naturalearthdata.com","kind":"major_road","sort_rank":380,"kind_detail":"primary","ref":"3","min_zoom":3.0,"id":3216},"arcs":[169]},{"type":"LineString","properties":{"kind":"highway","sort_rank":355,"landuse_kind":"nature_reserve","source":"naturalearthdata.com","min_zoom":3.0,"kind_detail":"trunk","ref":"1","id":3217},"arcs":[170]},{"type":"LineString","properties":{"kind":"highway","sort_rank":355,"landuse_kind":"urban_area","source":"naturalearthdata.com","min_zoom":3.0,"kind_detail":"trunk","ref":"1","id":3217},"arcs":[171]},{"type":"MultiLineString","properties":{"source":"naturalearthdata.com","kind":"highway","sort_rank":355,"kind_detail":"trunk","ref":"1","min_zoom":3.0,"id":3217},"arcs":[[172],[173],[174]]},{"type":"MultiLineString","properties":{"kind":"major_road","sort_rank":380,"landuse_kind":"park","source":"naturalearthdata.com","min_zoom":3.0,"kind_detail":"primary","ref":"12","id":3218},"arcs":[[175],[176],[177]]},{"type":"LineString","properties":{"kind":"major_road","sort_rank":380,"landuse_kind":"nature_reserve","source":"naturalearthdata.com","min_zoom":3.0,"kind_detail":"primary","ref":"12","id":3218},"arcs":[178]},{"type":"MultiLineString","properties":{"source":"naturalearthdata.com","kind":"major_road","sort_rank":380,"kind_detail":"primary","ref":"12","min_zoom":3.0,"id":3218},"arcs":[[179],[180],[181],[182],[183]]},{"type":"LineString","properties":{"source":"naturalearthdata.com","kind":"highway","sort_rank":355,"kind_detail":"trunk","ref":"1","min_zoom":3.0,"id":3219},"arcs":[184]},{"type":"LineString","properties":{"source":"naturalearthdata.com","kind":"highway","sort_rank":355,"kind_detail":"trunk","ref":"1","min_zoom":3.0,"id":3220},"arcs":[185]}]},"earth":{"type":"GeometryCollection","geometries":[{"type":"MultiPolygon","properties":{"sort_rank":10,"source":"naturalearthdata.com","min_zoom":0.0,"kind":"earth","area":262860752661},"arcs":[[[186]]]}]},"landuse":{"type":"GeometryCollection","geometries":[{"type":"Polygon","properties":{"source":"openstreetmap.org","kind":"park","area":203978000,"tier":2,"id":272819853,"min_zoom":6.0,"sort_rank":24},"arcs":[[187]]},{"type":"MultiPolygon","properties":{"source":"openstreetmap.org","kind":"park","tier":2,"area":580242805,"sort_rank":24,"min_zoom":7.0},"arcs":[[[188]],[[189]],[[190]]]},{"type":"MultiPolygon","properties":{"source":"openstreetmap.org","kind":"park","tier":2,"area":1476792233,"sort_rank":24,"min_zoom":6.0,"osm_relation":true},"arcs":[[[191]],[[192]],[[193]],[[194]]]},{"type":"MultiPolygon","properties":{"source":"openstreetmap.org","kind":"nature_reserve","tier":2,"area":2334326325,"sort_rank":23,"min_zoom":6.0,"osm_relation":true},"arcs":[[[195]],[[196]]]},{"type":"Polygon","properties":{"source":"openstreetmap.org","kind":"park","tier":2,"area":10686744886,"sort_rank":24,"min_zoom":4.0,"osm_relation":true},"arcs":[[197]]},{"type":"MultiPolygon","properties":{"source":"naturalearthdata.com","kind":"urban_area","name":"","area":430218221,"sort_rank":11,"min_zoom":4.0},"arcs":[[[198]]]},{"type":"MultiPolygon","properties":{"kind":"park","area":127280000,"sort_rank":24,"source":"openstreetmap.org","min_zoom":7.0,"tier":2,"id":-6049452,"osm_relation":true},"arcs":[[[199],[200],[201],[202],[203],[204],[205],[206],[207],[208],[209],[210],[211],[212],[213],[214]]]}]}},"type":"Topology","transform":{"translate":[-87.1875,11.1784018737],"scale":[0.0006866455,0.0006701665]},"arcs":[[[2315,47],[42,-22],[28,-25]],[[2247,0],[20,27],[48,20]],[[1817,4096],[5,-8],[10,-9],[20,-7]],[[1132,3836],[75,5],[27,6],[22,11],[17,19],[8,22],[12,45],[23,36],[95,103],[9,13]],[[2104,3947],[4,3],[10,9],[12,24],[3,23],[-8,18],[-22,7],[-6,13],[6,28],[8,24]],[[1899,4082],[32,-14],[17,-26],[14,-31],[24,-28],[32,-11]],[[1852,4072],[14,3],[13,6],[20,1]],[[2052,3973],[29,-3],[20,-21],[3,-1],[0,-1]],[[2018,3972],[34,1]],[[941,3885],[48,-26],[26,-8]],[[764,3859],[119,23],[58,3]],[[1077,3872],[23,-24],[8,-6],[14,-5],[10,-1]],[[1015,3851],[21,7],[19,11],[22,3]],[[701,3867],[63,-8]],[[638,3108],[14,4],[10,7],[11,7],[20,18],[11,20],[3,23],[-8,43],[-3,9],[-11,19],[-9,8],[-10,3],[-9,4],[-6,15],[3,21],[18,42],[3,23],[-47,179],[-1,25],[9,48],[-1,24],[-6,9],[-12,10],[-6,5],[-6,7],[-3,14],[4,79],[2,26],[3,21],[3,9],[6,6],[17,12],[33,16],[31,3]],[[516,3156],[25,-2],[84,-42],[13,-4]],[[222,2688],[8,24],[30,15],[38,24],[16,18],[34,53],[8,7],[22,10],[7,8],[4,15],[-6,5],[-8,4],[-3,9],[12,79],[-2,3],[-11,24],[-3,9],[2,4],[11,42],[10,20],[12,15],[70,60],[19,13],[24,7]],[[150,2712],[21,-2],[34,-21],[17,-1]],[[0,2702],[150,10]],[[3038,676],[-614,73]],[[2424,749],[-541,3]],[[1883,752],[-47,-14],[-65,-17]],[[1771,721],[-7,2],[-14,15],[-6,6],[-6,4],[-7,2],[-3,0]],[[1728,750],[-3,0],[-5,-3],[-4,-4],[-23,-49],[-15,-26],[-6,-4],[-40,-21],[-5,-5],[-11,-2]],[[1616,636],[-35,9]],[[1581,645],[-51,-34],[-4,-6],[-10,-18],[-42,-78]],[[688,3017],[-15,-14],[-1,-1],[-4,-14],[-5,-47],[17,-88]],[[97,1910]],[[2755,2200],[8,38],[2,4],[-11,8],[-23,1],[-27,15],[-48,17],[-11,5],[-5,14],[-12,15],[-14,12],[-13,4],[-9,2]],[[2592,2335],[-11,-8],[-2,-3],[-2,-6],[-4,-7],[-4,-6],[-3,-2],[-6,-4],[-7,-4],[-12,-3],[-3,-2],[-3,-3],[-1,-3],[-8,-3],[-15,-1]],[[2511,2280],[-94,5]],[[2417,2285],[-4,-1],[-4,-2],[-3,-2],[-2,-3],[-19,-38],[-4,-6],[-6,-3],[-9,-1],[-28,0],[-7,-1],[-13,-7],[-29,-6],[-18,-3],[-17,-15],[-6,-3]],[[2861,2160],[-9,2],[-46,51],[-16,3]],[[2790,2216],[-25,-16],[-10,0]],[[2925,2211],[1,-16],[-2,-14],[-3,-12],[-6,-10],[-10,0]],[[2248,2194],[-4,0],[-9,5],[-23,4],[-19,6]],[[2193,2209],[-253,-53],[-24,-12],[-26,-54],[-69,-39],[-8,-6],[-43,-40]],[[2905,2159],[-7,7],[-14,9],[-13,5]],[[2871,2180],[-6,-6],[-4,-14]],[[1815,2737],[19,2],[14,5],[32,23],[83,78],[67,58],[16,9],[55,48],[106,125],[26,44],[21,34],[20,23],[31,21],[34,0],[28,11],[81,53]],[[1612,2789],[13,-6],[21,-13],[23,-23],[50,-38]],[[1592,2788],[20,1]],[[1584,2788],[8,0]],[[1762,2739],[53,-2]],[[1719,2709],[19,23],[7,4],[17,3]],[[1846,3442],[19,3],[11,7],[24,35],[33,24],[26,13],[16,20],[-2,89],[4,37],[13,34],[43,72],[6,19],[4,19],[2,71],[9,24],[15,17],[35,22]],[[1673,3478],[15,-19]],[[1643,3454],[14,17],[16,7]],[[1779,3472],[25,-2],[16,-9],[12,-12],[14,-7]],[[1688,3459],[14,6],[77,7]],[[3000,1859],[9,0],[20,4],[43,21],[22,16],[16,16],[24,31],[7,17],[5,16],[0,55],[2,17],[4,12],[6,12],[55,82],[19,37]],[[2985,1861],[15,-2]],[[2602,1732],[105,18],[78,9],[60,21],[17,9],[85,59],[22,9],[16,4]],[[2445,1742],[16,-1],[36,-6],[43,-1],[62,-2]],[[2229,1295],[25,150],[7,15],[13,22],[2,2],[2,3],[2,3],[29,67],[3,11],[0,9],[-3,28],[0,36],[1,9],[3,8],[12,16],[7,7],[37,27],[55,27],[21,7]],[[1584,2788],[-54,-75],[-10,-38],[-3,-8],[-7,-8],[-12,-9],[-18,-6],[-38,-8],[-17,-6],[-32,-19],[-11,-11],[-6,-6],[-23,-48],[-8,-54]],[[1584,2788],[-22,28],[-64,38],[-110,110],[-10,15],[-10,21],[18,29],[4,25],[-4,18],[21,62],[-13,64],[0,32],[4,25],[9,23],[12,23]],[[909,3568],[-18,16],[-17,10],[-25,9],[-16,11],[-13,14],[-6,13],[-29,43],[-102,19],[-32,0]],[[651,3703],[-7,-5],[-4,-5],[-11,-15],[-12,-9]],[[1643,3454],[-44,53],[-33,58],[-14,17],[-12,12],[-50,41]],[[1490,3635],[-28,-9],[-32,-13],[-5,-7],[-4,-10],[-9,-42],[-13,-16]],[[1179,3576],[-81,26],[-104,2]],[[994,3604],[-15,-2],[-33,-9],[-14,-14],[-23,-11]],[[1399,3538],[-44,19],[-29,18],[-22,7],[-17,2]],[[1287,3584],[-61,-8],[-47,0]],[[1558,3376],[14,16],[57,45],[14,17]],[[1540,3384],[18,-8]],[[1419,3301],[54,57],[23,21],[24,4],[20,1]],[[1419,3301],[-11,20],[-15,32],[-6,10],[-27,9]],[[1360,3372],[-81,-4],[-112,-36],[-61,-10]],[[1106,3322],[-63,29],[-21,11],[-15,4]],[[1007,3366],[-39,-6],[-58,-50],[-60,-105],[-12,-26],[-27,-39],[-123,-123]],[[2120,1288],[-78,110],[-39,34],[-24,9],[-12,9],[-8,10],[-2,11],[-2,23],[-9,29]],[[2229,1295],[-109,-7]],[[2229,1295],[195,-546]],[[1729,1441],[48,-56],[5,-23],[-59,-130],[-52,-117],[-5,-11],[-14,-31],[-28,-62]],[[3356,3287],[6,-1],[5,-6],[9,-15],[145,-185],[27,-40]],[[3188,3156],[23,3],[13,5],[132,123]],[[2448,3271],[31,-68],[74,-100],[29,-28],[20,-8],[7,-4],[8,-6],[41,-39],[4,-2],[3,-2],[4,0],[5,-1]],[[3092,3159],[96,-3]],[[2834,2935],[38,9],[41,19],[15,11],[12,15],[18,38],[17,51],[12,27],[19,27],[37,22],[49,5]],[[2691,3017],[5,0],[6,-2],[11,-8],[20,-10],[5,-3],[3,-5],[2,-14],[3,-2],[17,-3],[10,-14],[45,-19],[16,-2]],[[2674,3013],[9,2],[8,2]],[[3096,3816],[7,3],[7,7],[169,270]],[[2957,3880],[139,-64]],[[2448,3271],[1,53],[8,20],[45,40],[79,51],[16,13],[5,12],[2,14],[0,7],[0,27],[16,47],[-3,14],[-7,20],[-10,16],[-11,26],[-2,13],[3,9],[15,10],[11,12],[11,18],[13,36],[7,13],[7,9],[117,16],[3,1],[178,110],[5,2]],[[3646,1029],[-6,0],[-12,4]],[[3628,1033],[-7,0],[-29,-6]],[[3758,1021],[-56,2],[-17,3],[-7,3],[-5,1],[-5,1]],[[3668,1031],[-22,-2]],[[3592,1027],[-108,2]],[[3484,1029],[-7,-1],[-7,-3],[-5,-7],[-96,-89],[-37,-24],[-62,-14],[-22,-34],[-4,-9],[0,-2],[-1,-6],[-3,-4],[-6,-7],[-2,-4],[-2,-3],[-2,-3],[-10,-11],[-7,-9],[-4,-8],[-5,-3],[-9,-5],[-27,-11],[-7,-1]],[[3159,771],[-4,1],[-7,3]],[[3148,775],[-9,-4],[-13,-7],[-29,-21],[-23,-11],[-6,-6],[-4,-4],[-26,-46]],[[1581,645],[-26,33],[-3,14],[-2,21],[6,46],[13,28],[18,24],[3,13],[0,18],[-6,25],[-5,37],[8,37],[30,54],[7,16]],[[1770,2005],[-24,5],[-90,35],[-14,9],[-16,13],[-22,25],[-22,20],[-26,9],[-247,55]],[[1946,1523],[7,41],[24,36],[3,9],[-3,5],[-128,121],[-4,8],[-3,11],[1,25],[3,29],[-2,9],[-5,8],[-37,40],[-18,25],[-10,17],[-7,22],[-6,50],[9,26]],[[3588,2804],[-5,0],[-5,0],[-4,2],[-3,2],[-3,2],[-5,5],[-4,6],[-21,44],[-9,29],[-2,3],[-11,15],[-6,5],[-3,2],[-4,1],[-4,1],[-3,2],[-4,2],[-10,10],[-3,1],[-3,2],[4,10],[5,8],[63,84]],[[3548,2643],[5,1],[2,22],[7,15],[1,5],[2,22],[9,50],[6,12],[31,34],[1,1],[9,8],[6,3],[1,1],[-4,1]],[[3624,2818],[-4,-1],[-4,0],[-4,-2],[-16,-10],[-4,-1],[-4,0]],[[3542,2644],[6,-1]],[[3519,2629],[15,12],[8,3]],[[3483,2641],[19,-5],[9,-6],[8,-1]],[[3334,2564],[33,23],[30,29],[22,15],[17,1],[27,8],[20,1]],[[3304,2569],[30,-5]],[[3247,2495],[5,7],[18,12],[9,8],[15,23],[10,24]],[[3141,2516],[87,-15],[19,-6]],[[3049,2498],[17,1],[21,4],[40,12],[14,1]],[[2995,2510],[12,-2],[26,-8],[16,-2]],[[2940,2444],[14,4],[16,15],[5,15],[0,23],[5,7],[15,2]],[[2906,2446],[16,-2],[18,0]],[[2925,2211],[-38,81],[-11,51],[-6,16],[-15,29],[-1,14],[2,15],[6,11],[10,10],[13,7],[21,1]],[[3069,2410],[27,-14],[43,-33],[7,-3],[12,-18],[13,-7],[9,-8],[8,-11],[13,-23],[6,-19],[2,-28],[-4,-23],[1,-7],[1,-5],[17,-8],[8,-8]],[[2995,2303],[7,22],[5,41],[7,18],[28,26],[27,0]],[[2991,2303],[4,0]],[[2949,2203],[12,12],[-1,22],[-15,24],[19,19],[5,2],[-1,5],[11,9],[12,7]],[[2925,2211],[24,-8]],[[3232,2195],[35,-51],[42,-39],[8,-14],[32,-72],[30,-46],[20,-19],[9,-15],[3,-11],[-2,-8],[-8,-20],[-4,-19],[-2,-25],[6,-48],[8,-25],[10,-18],[10,-11],[11,-8],[8,-10],[52,-92],[5,-22],[-10,-34],[2,-49],[20,-89],[92,-235],[10,-15],[186,-90],[-57,-24],[-11,-10],[1,-6],[2,-5],[10,-19],[8,-25]],[[3548,3040],[376,46],[172,1]],[[4096,270],[-4,4],[-116,73],[-42,26],[-97,36],[-5,57],[-11,58],[1,20],[4,28],[20,72],[15,34],[2,17],[1,12],[-15,47],[-15,37],[-2,39],[2,18],[-4,10],[-9,10],[-12,10],[-22,40],[-29,103]],[[1320,1162],[15,-19],[134,-54],[42,-21],[19,-26],[4,-4],[77,-23],[13,-4]],[[1729,1441],[-26,6],[-8,5],[-3,1],[-4,0]],[[1688,1453],[-25,-3],[-50,-21],[-42,-7],[-27,-20],[-88,-88],[4,-19],[22,-22],[7,-11],[4,-9],[-1,-33],[-17,-27],[-8,-9],[-9,-9],[-12,-6],[-13,-4],[-12,-1]],[[1421,1164],[-17,5],[-10,4],[-40,31]],[[1354,1204],[-34,-42]],[[1946,1523],[-26,10],[-11,1]],[[1909,1534],[-12,-5],[-46,-33],[-122,-55]],[[1320,1162],[-18,-27],[-91,-74],[-28,-47],[-11,-10],[-39,-30],[-15,-22],[-18,-18],[-6,-2],[-8,-3],[-17,-5],[-8,-1],[-12,0],[-15,-9],[-36,-36]],[[1309,2176],[15,131],[17,148],[4,37]],[[1014,2899],[18,-4],[11,-6],[26,-27],[38,-63],[15,-21],[8,-12],[10,-38],[-3,-46],[-32,-57],[-2,-18],[0,-12],[15,-26],[49,-25],[178,-52]],[[790,2842],[17,1],[30,7],[96,32],[81,17]],[[719,2864],[19,0],[23,-8],[29,-14]],[[680,2853],[25,10],[14,1]],[[1309,2176],[-58,-36],[-20,-20],[-13,-16],[-4,-9],[-1,-8],[0,-5],[-3,-15],[0,-6],[1,-4],[0,-7],[-2,-9],[-9,-26],[-1,-7],[0,-5],[3,-7],[2,-4],[14,-20],[9,-8],[1,-3],[1,-3],[1,-10],[1,-5],[1,-5],[-2,-5],[-6,-7],[-141,-141],[-98,-98],[-20,-29],[-2,-23],[0,-106],[2,-10],[3,-9],[7,-5],[7,-4],[9,-11],[2,-27],[-18,-41],[-29,-33],[-55,-43],[-8,-4],[-4,0]],[[879,1342],[-21,5],[-21,7],[-2,1],[-4,0]],[[831,1355],[-4,0],[-4,-1],[-22,-8],[-10,-3],[-5,-2],[-4,-3],[-2,-3],[-2,-3],[0,-5],[1,-4],[2,-8],[10,-21],[7,-8],[2,-3],[1,-5],[0,-4],[-1,-4],[-6,-11],[-5,-6],[-36,-26]],[[688,3017],[13,43],[2,3],[2,8],[1,9],[-2,11],[-4,13],[-8,6],[-28,6],[-2,3]],[[97,1910],[32,19],[72,8],[25,11],[25,15],[14,9],[75,78],[30,48],[11,29],[5,10],[29,27],[37,40],[35,39],[29,13],[28,34],[20,39],[10,10],[17,9],[105,14],[20,5],[12,5],[26,16],[18,42],[4,47],[-13,180],[-18,42],[-20,32],[-31,71],[-14,51]],[[198,3875],[23,0],[8,6],[24,32],[27,67],[6,69],[-2,29],[3,18]],[[96,3927],[22,-10],[33,-29],[12,-6],[35,-7]],[[83,3703],[1,6],[4,26],[11,24],[11,16],[1,23],[-16,31],[-9,11],[-5,16],[-1,21],[1,21],[3,12],[2,6],[10,11]],[[7,3734],[70,-30],[6,-1]],[[0,3732],[7,2]],[[541,3734],[10,2],[12,18],[10,9],[11,2],[21,9],[1,0]],[[530,3734],[11,0]],[[437,3691],[56,36],[12,5],[25,2]],[[0,3585],[1,-4],[4,-18],[20,-12],[67,-4],[13,-9],[0,-14],[13,-29],[26,-20],[17,-2]],[[371,3704],[10,-3],[7,-3]],[[161,3473],[10,3],[45,26],[33,38],[3,22],[6,12],[16,15],[21,7],[12,7],[16,13],[23,25],[11,16],[6,14],[5,28],[3,5]],[[431,3702],[6,-11]],[[388,3698],[43,4]],[[2712,0],[326,676]],[[2524,0],[-62,23],[-21,15],[-18,18],[-17,13],[-40,25],[-22,10],[-25,6],[-48,5],[-178,179],[-26,46],[-40,153],[-10,24],[-45,78],[-25,21],[0,-21],[-11,10],[-7,12],[-3,14],[1,16],[7,-4],[14,-3],[8,-4],[-18,88],[-11,25],[7,7],[1,7],[-3,8],[-5,9],[-10,0],[-1,-19],[2,-15],[9,-28],[-21,16],[-49,51],[-10,20],[4,14],[11,15],[11,11],[24,13],[0,17],[-10,27],[1,69],[-10,37],[-26,17],[-17,14],[13,26],[21,11],[8,-31],[10,0],[-15,44],[-13,13],[-27,5],[-10,12],[-2,28],[2,30],[4,21],[17,47],[46,93],[28,34],[39,-12],[39,9],[32,21],[29,15],[1,-3],[23,-17],[96,-53],[34,-12],[12,-9],[5,-16],[6,-9],[16,-2],[16,2],[12,4],[0,-10],[9,0],[33,24],[47,-36],[65,-80],[11,-9],[28,-44],[16,-40],[70,-70],[32,31],[63,-13],[64,-32],[40,-27],[12,-19],[10,-24],[12,-21],[22,-8],[17,-3],[12,-8],[20,-24],[12,-7],[31,-6],[12,-3],[56,-89],[54,-64],[3,-6],[4,-11],[3,-5],[4,-3],[12,-3],[4,-3],[24,-24],[11,-15],[12,-39],[17,-17],[36,-28],[58,-72],[33,-21],[48,-70],[12,-7],[10,-2],[8,-2],[10,-10],[5,-12],[3,-16],[2,-29],[7,-30],[17,-17],[20,-15],[15,-24],[-4,-5],[-8,-5],[-5,-7],[8,-13],[17,3],[14,0],[14,-9],[41,-42],[14,-21],[9,-34],[0,-94],[-979,0]],[[1907,790],[140,5],[-7,49],[-8,26],[-10,12],[-34,-11],[-17,-1],[-15,12],[-39,-31],[-4,-15],[2,-11],[8,-11],[14,-15],[-9,-1],[-21,-8]],[[2527,371],[5,22],[-11,23],[-14,20],[-4,15],[-5,8],[-17,3],[-22,4],[-19,7],[-17,4],[-17,-5],[-21,18],[-5,22],[1,25],[-4,28],[-9,15],[-15,12],[-18,8],[-9,5],[-11,11],[-17,-8],[-62,-1],[-30,-12],[-19,-25],[-24,-58],[-17,-19],[57,-34],[24,-8],[29,-2],[45,11],[25,2],[35,-20],[28,-83],[32,-19],[14,-2],[15,-7],[11,-2],[5,3],[19,14],[6,3],[20,7],[16,15]],[[0,0],[0,1965],[16,-14],[-15,55],[9,0],[33,-62],[13,-10],[20,-6],[18,-15],[37,-40],[-32,6],[-33,14],[-29,19],[-17,22],[4,-34],[101,-46],[44,-48],[82,-48],[19,-23],[298,-183],[36,-31],[15,-23],[51,-140],[55,-96],[34,-43],[36,-28],[16,-17],[8,-21],[4,-22],[25,-47],[23,-33],[38,-39],[15,-8],[16,-13],[39,-89],[28,-35],[174,-134],[16,-47],[20,-23],[22,-17],[135,-59],[54,-53],[45,-21],[14,-44],[5,-12],[21,-19],[64,-37],[50,-53],[38,-20],[49,-60],[23,-21],[51,-15],[4,-6],[23,-16],[6,-3],[13,-10],[156,-175],[14,-22],[-2004,0]],[[1549,1740],[39,-21],[9,-29],[-1,-33],[-16,-111],[-9,-31],[-13,-20],[-45,-17],[-221,-6],[-22,5],[-4,0],[-4,0],[-4,7],[-2,8],[1,10],[2,10],[4,3],[21,7],[15,19],[9,26],[0,30],[-21,50],[-42,17],[-47,-9],[-41,-28],[-16,-20],[-14,-13],[-17,0],[-47,33],[-129,54],[-43,24],[-27,37],[-5,60],[1,29],[3,11],[6,11],[10,6],[10,-2],[7,-7],[3,-12],[11,-14],[27,-11],[33,-4],[28,3],[34,23],[22,34],[25,31],[45,14],[21,3],[33,14],[25,3],[27,9],[18,17],[17,12],[24,-7],[9,7],[10,2],[10,-2],[10,-7],[10,-80],[-5,-12],[6,-9],[41,-43],[13,-9],[15,-23],[27,-110],[3,-40],[32,30],[39,44],[40,27]],[[2524,0],[-62,23],[-21,15],[-18,18],[-17,13],[-40,25],[-22,10],[-25,6],[-48,5],[-178,179],[-26,46],[-40,153],[-10,24],[-45,78],[-25,21],[0,-21],[-11,10],[-7,12],[-3,14],[1,16],[7,-4],[14,-3],[8,-4],[-18,88],[-11,25],[7,7],[1,7],[-3,8],[-5,9],[-10,0],[-1,-19],[2,-15],[9,-28],[-21,16],[-49,51],[-10,20],[4,14],[11,15],[11,11],[24,13],[0,17],[-10,27],[1,69],[-10,37],[-26,17],[-17,14],[13,26],[21,11],[8,-31],[10,0],[-15,44],[-13,13],[-27,5],[-10,12],[-2,28],[2,30],[4,21],[17,47],[46,93],[28,34],[39,-12],[39,9],[32,21],[29,15],[1,-3],[23,-17],[96,-53],[34,-12],[12,-9],[5,-16],[6,-9],[16,-2],[16,2],[12,4],[0,-10],[9,0],[33,24],[47,-36],[65,-80],[11,-9],[28,-44],[16,-40],[70,-70],[32,31],[63,-13],[64,-32],[40,-27],[12,-19],[10,-24],[12,-21],[22,-8],[17,-3],[12,-8],[20,-24],[12,-7],[31,-6],[12,-3],[56,-89],[54,-64],[3,-6],[4,-11],[3,-5],[4,-3],[12,-3],[4,-3],[24,-24],[11,-15],[12,-39],[17,-17],[36,-28],[58,-72],[33,-21],[48,-70],[12,-7],[10,-2],[8,-2],[10,-10],[5,-12],[3,-16],[2,-29],[7,-30],[17,-17],[20,-15],[15,-24],[-4,-5],[-8,-5],[-5,-7],[8,-13],[17,3],[14,0],[14,-9],[41,-42],[14,-21],[9,-34],[0,-94]],[[1907,790],[140,5],[-7,49],[-8,26],[-10,12],[-34,-11],[-17,-1],[-15,12],[-39,-31],[-4,-15],[2,-11],[8,-11],[14,-15],[-9,-1],[-21,-8]],[[2527,371],[5,22],[-11,23],[-14,20],[-4,15],[-5,8],[-17,3],[-22,4],[-19,7],[-17,4],[-17,-5],[-21,18],[-5,22],[1,25],[-4,28],[-9,15],[-15,12],[-18,8],[-9,5],[-11,11],[-17,-8],[-62,-1],[-30,-12],[-19,-25],[-24,-58],[-17,-19],[57,-34],[24,-8],[29,-2],[45,11],[25,2],[35,-20],[28,-83],[32,-19],[14,-2],[15,-7],[11,-2],[5,3],[19,14],[6,3],[20,7],[16,15]],[[1549,1740],[39,-21],[9,-29],[-1,-33],[-16,-111],[-9,-31],[-13,-20],[-45,-17],[-221,-6],[-22,5],[-4,0],[-4,0],[-4,7],[-2,8],[1,10],[2,10],[4,3],[21,7],[15,19],[9,26],[0,30],[-21,50],[-42,17],[-47,-9],[-41,-28],[-16,-20],[-14,-13],[-17,0],[-47,33],[-129,54],[-43,24],[-27,37],[-5,60],[1,29],[3,11],[6,11],[10,6],[10,-2],[7,-7],[3,-12],[11,-14],[27,-11],[33,-4],[28,3],[34,23],[22,34],[25,31],[45,14],[21,3],[33,14],[25,3],[27,9],[18,17],[17,12],[24,-7],[9,7],[10,2],[10,-2],[10,-7],[10,-80],[-5,-12],[6,-9],[41,-43],[13,-9],[15,-23],[27,-110],[3,-40],[32,30],[39,44],[40,27]],[[0,1965],[16,-14],[-15,55],[9,0],[33,-62],[13,-10],[20,-6],[18,-15],[37,-40],[-32,6],[-33,14],[-29,19],[-17,22],[4,-34],[101,-46],[44,-48],[82,-48],[19,-23],[298,-183],[36,-31],[15,-23],[51,-140],[55,-96],[34,-43],[36,-28],[16,-17],[8,-21],[4,-22],[25,-47],[23,-33],[38,-39],[15,-8],[16,-13],[39,-89],[28,-35],[174,-134],[16,-47],[20,-23],[22,-17],[135,-59],[54,-53],[45,-21],[14,-44],[5,-12],[21,-19],[64,-37],[50,-53],[38,-20],[49,-60],[23,-21],[51,-15],[4,-6],[23,-16],[6,-3],[13,-10],[156,-175],[14,-22]],[[996,4096],[84,-89],[28,-42],[7,-51]],[[49,4096],[-1,-48],[-8,-44],[-40,-56]],[[1114,3858],[-1,-30],[10,-36],[27,-49]],[[1150,3743],[24,-42],[20,-70],[-3,-44],[-15,-49],[-81,-236]],[[1115,3914],[-1,-56]],[[622,3344],[157,28],[147,-3],[86,-20],[83,-47]],[[0,3141],[56,0],[106,26],[351,143],[109,34]],[[0,2970],[134,-209]],[[1218,3009],[2,-35]],[[1464,1413],[-106,8],[0,-51]],[[1095,3302],[46,-54],[70,-112],[7,-127]],[[1220,2974],[2,-27],[20,-83],[23,-44],[141,-205],[56,-67],[96,-88],[40,-57],[11,-49],[5,-94],[81,-217],[17,-94],[10,-119],[5,-202],[5,-8],[-25,-20],[-86,-122],[-50,-44],[-23,-13],[-48,-11],[-36,3]],[[1358,1370],[0,-11]],[[221,2333],[-26,-47],[14,-61]],[[231,2350],[-8,-14]],[[250,2398],[-7,-26],[-5,-10]],[[261,2507],[2,-57],[-5,-20]],[[134,2761],[71,-104],[35,-68],[21,-69],[0,-13]],[[209,2225],[3,-16],[152,-140],[56,-63],[23,-36],[27,-101],[26,-54],[65,-91],[127,-140],[91,-192],[40,-59],[61,-52],[61,-31],[58,-13],[61,0],[179,26],[38,28],[51,57],[30,11]],[[223,2336],[-2,-3]],[[238,2362],[-7,-12]],[[258,2430],[-8,-32]],[[2238,148],[-94,55],[-96,115],[-30,201],[-71,109],[-78,106],[-88,153],[-43,34],[-119,36],[-190,101],[-56,153],[-15,148]],[[2266,0],[-28,148]],[[4096,4096],[0,-4096],[-2092,0],[-14,22],[-156,175],[-13,10],[-6,3],[-23,16],[-4,6],[-51,15],[-23,21],[-49,60],[-38,20],[-50,53],[-64,37],[-21,19],[-5,12],[-14,44],[-45,21],[-54,53],[-135,59],[-22,17],[-20,23],[-16,47],[-174,134],[-28,35],[-39,89],[-16,13],[-15,8],[-38,39],[-23,33],[-25,47],[-4,22],[-8,21],[-16,17],[-36,28],[-34,43],[-55,96],[-51,140],[-15,23],[-36,31],[-298,183],[-19,23],[-82,48],[-44,48],[-101,46],[-4,34],[17,-22],[29,-19],[33,-14],[32,-6],[-37,40],[-18,15],[-20,6],[-13,10],[-33,62],[-9,0],[15,-55],[-16,14],[0,2131],[4096,0]],[[2541,1660],[25,56],[70,-43],[39,27],[-16,-28],[33,-4],[9,-43],[61,22],[-21,-13],[33,-4],[-22,-62],[23,-3],[9,-69],[46,-33],[3,9],[23,-1],[-24,-41],[30,-31],[-32,-12],[-8,-37],[-41,16],[12,28],[-42,8],[22,28],[-41,26],[5,38],[-48,-37],[10,27],[-7,11],[-11,-20],[-39,17],[34,87],[-27,72],[-108,9]],[[2426,2592],[3,15],[25,1],[7,44],[87,-3],[23,34],[22,-11],[12,-81],[-62,-79],[-71,7],[-25,50],[12,30],[-33,-7]],[[2132,3103],[62,99],[124,-2],[-26,-38],[32,-11],[1,-33],[-41,-54],[-86,-11],[-54,19],[10,24],[-22,7]],[[2069,3585],[28,10],[-21,64],[81,36],[41,-34],[17,32],[34,-65],[-34,-98],[-23,0],[3,-41],[-59,36],[-28,-18],[-17,35],[19,34],[-41,9]],[[149,2289],[33,-2],[-21,18],[17,-3],[5,39],[23,-20],[-23,32],[42,-22],[-25,51],[49,-50],[16,-2],[-29,34],[10,41],[25,-49],[61,26],[-4,-57],[22,9],[-22,-22],[32,-10],[36,26],[-15,-29],[67,-33],[-5,-42],[-41,8],[-48,-64],[-17,39],[-6,-40],[-21,65],[-19,-51],[-61,53],[-48,-20],[11,38],[-30,-15],[-12,12],[30,16],[-32,24]],[[993,3813],[40,22],[-17,31],[51,30],[55,-45],[124,15],[52,70],[-4,55],[48,42],[58,-76],[-28,-85],[-46,8],[25,-27],[-20,-96],[-126,-26],[-75,16],[-17,-19],[-36,47],[-57,-9],[-27,47]],[[3007,4096],[231,0],[30,-36],[3,-27],[-71,-41],[46,-141],[-31,-108],[-49,-33],[-120,-12],[-42,67],[22,36],[-15,55],[-65,38],[-10,75],[7,17],[28,-15],[-11,39],[41,51],[6,35]],[[3772,4096],[131,0],[11,-142],[-22,-45],[-101,-51],[-95,-2],[-15,55],[66,77],[-55,40],[-1,42],[34,26],[30,0],[15,-7],[2,7]],[[0,2467],[0,244],[97,6],[54,-67],[5,-109],[101,-13],[18,-95],[-150,-25],[-72,16],[-53,43]],[[1213,2998],[36,77],[-34,41],[14,29],[62,-16],[2,27],[88,42],[34,-23],[-14,-45],[42,-11],[9,-39],[-29,-73],[-54,-17],[67,-29],[22,-43],[-24,-26],[-92,21],[-63,-24],[-46,42],[-20,67]],[[2313,4039],[22,14],[6,43],[1088,0],[-30,-23],[-20,-91],[-138,-67],[0,-118],[-28,-6],[2,-48],[-50,-34],[3,-31],[-151,-90],[-108,30],[9,54],[-170,94],[7,25],[-34,22],[-8,110],[-258,91],[-135,-4],[-7,29]],[[1462,1476],[2,-64],[-50,-49],[-129,17],[-7,95],[184,1]],[[609,1964],[59,25],[23,77],[3,-34],[16,23],[15,-2],[5,47],[20,-15],[3,-24],[5,13],[-6,24],[3,7],[1,-17],[47,13],[-30,-16],[-3,-10],[51,15],[-21,-31],[49,-46],[-33,-1],[16,-41],[-47,-8],[27,-10],[-15,-3],[26,-38],[-5,-4],[7,-2],[-12,-30],[4,15],[-33,13],[25,-25],[-31,10],[3,-18],[-16,-12],[-12,-1],[-27,24],[-6,20],[7,17],[36,-6],[-8,23],[-55,-3],[-17,17],[-34,-29],[14,24],[-53,1],[-1,18]],[[743,1947],[21,-11],[19,19],[-16,19],[-24,-27]],[[725,1899],[27,-36],[22,3],[-21,43],[-28,-10]],[[778,1919],[21,-7],[10,20],[-22,9],[-9,-22]],[[730,1947],[10,-8],[2,13],[-5,2],[-7,-7]],[[727,1995],[11,-7],[5,11],[-10,9],[-6,-13]],[[760,2040],[9,-12],[27,16],[-28,5],[-8,-9]],[[679,1971],[38,11],[10,64],[-14,2],[-4,-13],[-21,-4],[21,-23],[-30,-37]],[[701,1952],[17,-2],[4,12],[-14,0],[-7,-10]],[[743,2074],[1,-26],[5,-2],[0,27],[-6,1]],[[810,2025],[12,2],[0,2],[-7,2],[-5,-6]],[[782,2011],[5,-6],[4,2],[2,-2],[3,1],[-14,5]],[[621,1962],[11,-4],[1,11],[-1,-5],[-11,-2]],[[772,2014],[2,-4],[9,5],[-6,2],[-5,-3]],[[776,2020],[12,-5],[4,2],[-10,5],[-6,-2]],[[618,1959],[2,-8],[4,0],[-2,11],[-4,-3]]]}