{"objects":{"water":{"type":"GeometryCollection","geometries":[{"type":"Polygon","properties":{"source":"naturalearthdata.com","kind":"ocean","area":1576712559132672,"sort_rank":200,"min_zoom":0.0,"id":1},"arcs":[[6],[7],[8],[9],[10]]},{"type":"MultiLineString","properties":{"source":"naturalearthdata.com","kind":"ocean","sort_rank":205,"boundary":true,"min_zoom":0.0,"id":2734},"arcs":[[11],[12]]},{"type":"LineString","properties":{"source":"naturalearthdata.com","kind":"ocean","sort_rank":205,"boundary":true,"min_zoom":0.0,"id":2735},"arcs":[13]},{"type":"LineString","properties":{"source":"naturalearthdata.com","kind":"ocean","sort_rank":205,"boundary":true,"min_zoom":0.0,"id":2737},"arcs":[14]},{"type":"LineString","properties":{"source":"naturalearthdata.com","kind":"ocean","sort_rank":205,"boundary":true,"min_zoom":0.0,"id":2738},"arcs":[15]},{"type":"MultiLineString","properties":{"source":"naturalearthdata.com","kind":"ocean","sort_rank":205,"boundary":true,"min_zoom":0.0,"id":2740},"arcs":[[16],[17]]},{"type":"LineString","properties":{"source":"naturalearthdata.com","kind":"ocean","sort_rank":205,"boundary":true,"min_zoom":0.0,"id":2744},"arcs":[18]},{"type":"LineString","properties":{"source":"naturalearthdata.com","kind":"ocean","sort_rank":205,"boundary":true,"min_zoom":0.0,"id":2746},"arcs":[19]},{"type":"LineString","properties":{"source":"naturalearthdata.com","kind":"ocean","sort_rank":205,"boundary":true,"min_zoom":0.0,"id":2747},"arcs":[20]}]},"buildings":{"type":"GeometryCollection","geometries":[]},"places":{"type":"GeometryCollection","geometries":[{"type":"Point","properties":{"name:ka":"\u10d5\u10d0\u10dc\u10e3\u10d0\u10e2\u10e3","name:ko":"\ubc14\ub204\uc544\ud22c","name:kn":"\u0cb5\u0ca8\u0ccc\u0c9f\u0cc1","name:km":"\u179c\u17c9\u17b6\u1793\u17cb\u178e\u17c5\u1791\u17bc","name:kk":"\u0412\u0430\u043d\u0443\u0430\u0442\u0443","name:tt":"\u0412\u0430\u043d\u0443\u0430\u0442\u0443","min_zoom":2.0,"name:ti":"\u126b\u1291\u12a0\u1271","name:ks":"\u0648\u0627\u0646\u0648\u0657\u062a\u0648\u0657","name:pa":"\u0a35\u0a28\u0a41\u0a06\u0a24\u0a42","name:os":"\u0412\u0430\u043d\u0443\u0430\u0442\u0443","name:or":"\u0b2d\u0b3e\u0b28\u0b41\u0b06\u0b24\u0b41","name:ce":"\u0412\u0430\u043d\u0443\u0430\u0442\u0443","name:ta":"\u0bb5\u0ba9\u0bc1\u0bb5\u0bbe\u0b9f\u0bcd\u0b9f\u0bc1","name:tg":"\u0412\u0430\u043d\u0443\u0430\u0442\u0443","name:ky":"\u0412\u0430\u043d\u0443\u0430\u0442\u0443","name:te":"\u0c35\u0c28\u0c4c\u0c1f\u0c41","name:bg":"\u0412\u0430\u043d\u0443\u0430\u0442\u0443","name:dz":"\u0f5d\u0f0b\u0f53\u0f74\u0f0b\u0f68\u0f0b\u0f4f\u0f74","source":"openstreetmap.org","name:dv":"\u0788\u07a6\u0782\u07aa\u0787\u07a7\u0793\u07ab","name:ku":"Van\u00fbat\u00fb","name:hi":"\u0935\u093e\u0928\u0941\u0905\u0924\u0941","name:he":"\u05d5\u05e0\u05d5\u05d0\u05d8\u05d5","kind":"country","name:ha":"Banuwatu","name:lg":"Vanawuwatu","name:uk":"\u0412\u0430\u043d\u0443\u0430\u0442\u0443","name:hy":"\u054e\u0561\u0576\u0578\u0582\u0561\u057f\u0578\u0582","name:ug":"\u06cb\u0627\u0646\u06c7\u0626\u0627\u062a\u06c7","name:qu":"Wanwatu","name:lo":"\u0ea7\u0eb2\u0e99\u0ebb\u0ea7\u0e95\u0eb9","population":215446,"name:el":"\u0392\u03b1\u03bd\u03bf\u03c5\u03ac\u03c4\u03bf\u03c5","name:eo":"Vanuatuo","name":"Vanuatu","name:ee":"Vanuatu nutome","name:zh":"\u74e6\u52aa\u963f\u56fe","name:is":"Van\u00faat\u00fa","name:th":"\u0e1b\u0e23\u0e30\u0e40\u0e17\u0e28\u0e27\u0e32\u0e19\u0e39\u0e2d\u0e32\u0e15\u0e39","name:yo":"Or\u00edl\u1eb9\u0301\u00e8de Faniatu","name:mt":"Vanwatu","name:rn":"Vanuwatu","name:mr":"\u0935\u093e\u0928\u094c\u091f\u0941","name:ar":"\u0641\u0627\u0646\u0648\u0627\u062a\u0648","name:my":"\u1017\u1014\u103d\u102c\u1038\u1010\u1030\u1014\u102d\u102f\u1004\u103a\u1004\u1036","official_name":"Ripablik blong Vanuatu","name:mg":"Vanoat\u00f2","name:am":"\u126b\u1291\u12a0\u1271","name:ru":"\u0412\u0430\u043d\u0443\u0430\u0442\u0443","name:ml":"\u0d35\u0d28\u0d4d\u0d35\u0d3e\u0d24\u0d4d\u0d24\u0d41","name:ab":"\u0412\u0430\u043d\u0443\u0430\u0442\u0443","id":424313466,"name:mk":"\u0412\u0430\u043d\u0430\u0442\u0443","name:vo":"Vanuatu\u00e4ns","name:zu":"i-Vanuatu","name:rw":"Vanuwatu","name:ff":"Wanuwaatuu","name:fy":"Fanuat\u00fb","name:mn":"\u0412\u0430\u043d\u0443\u0430\u0442\u0443","name:ja":"\u30d0\u30cc\u30a2\u30c4","name:si":"\u0dc0\u0db1\u0dd4\u0dc0\u0dcf\u0da7\u0dd4","name:fa":"\u0648\u0627\u0646\u0648\u0627\u062a\u0648","name:sg":"Vanuat\u00fc","name:na":"Banuatu","name:ne":"\u092d\u093e\u0928\u0941\u0906\u0924\u0941","name:bm":"Vanuwatu","name:bn":"\u09ad\u09be\u09a8\u09c1\u09af\u09bc\u09be\u099f\u09c1","name:bo":"\u0f5d\u0f0b\u0f53\u0f74\u0f0b\u0f68\u0f0b\u0f50\u0f74\u0f0d","name:be":"\u0412\u0430\u043d\u0443\u0430\u0442\u0443","name:ur":"\u0648\u06cc\u0646\u0648\u0622\u0679\u0648","name:wo":"Wanuatu","name:sr":"\u0412\u0430\u043d\u0443\u0430\u0442\u0443","name:nv":"Bano\u02bc\u00e1\u00e1t\u02bcoo","name:ga":"Vanuat\u00fa","name:gd":"Bhanuatu","name:ht":"Vanwatou","name:gu":"\u0ab5\u0abe\u0aa8\u0ac1\u0a86\u0aa4\u0ac1"},"coordinates":[2223,335]}]},"transit":{"type":"GeometryCollection","geometries":[]},"pois":{"type":"GeometryCollection","geometries":[]},"boundaries":{"type":"GeometryCollection","geometries":[{"type":"LineString","properties":{"name:mt":"Vanwatu","name:ka":"\u10d5\u10d0\u10dc\u10e3\u10d0\u10e2\u10e3","name:mr":"\u0935\u094d\u0939\u093e\u0928\u0941\u0906\u0924\u0942","name:ko":"\ubc14\ub204\uc544\ud22c","name:kn":"\u0cb5\u0ca8\u0cc1\u0cb5\u0cbe\u0c9f\u0cc1","name:ar":"\u0641\u0627\u0646\u0648\u0627\u062a\u0648","name:kk":"\u0412\u0430\u043d\u0443\u0430\u0442\u0443","name:tt":"\u0412\u0430\u043d\u0443\u0430\u0442\u0443","name:is":"Van\u00faat\u00fa","name:rw":"Vanuwatu","name:or":"\u0b2d\u0b3e\u0b28\u0b41\u0b06\u0b1f\u0b41","name:os":"\u0412\u0430\u043d\u0443\u0430\u0442\u0443","name:ml":"\u0d35\u0d3e\u0d28\u0d41\u0d35\u0d3e\u0d1f\u0d41","name:ce":"\u0412\u0430\u043d\u0443\u0430\u0442\u0443","name:ta":"\u0bb5\u0ba9\u0bc1\u0bb5\u0bbe\u0b9f\u0bcd\u0b9f\u0bc1","name:tg":"\u0412\u0430\u043d\u0443\u0430\u0442\u0443","name:ky":"\u0412\u0430\u043d\u0443\u0430\u0442\u0443","name:te":"\u0c35\u0c28\u0c3e\u0c1f\u0c41","name:fa":"\u0648\u0627\u0646\u0648\u0627\u062a\u0648","name:ab":"\u0412\u0430\u043d\u0443\u0430\u0442\u0443","sort_rank":262,"kind_detail":"2","id":-2177246,"source":"openstreetmap.org","name:mk":"\u0412\u0430\u043d\u0443\u0430\u0442\u0443","name:fy":"Fanuat\u00fb","name:vo":"Vanuatu\u00e4ns","name:mn":"\u0412\u0430\u043d\u0443\u0430\u0442\u0443","name:ga":"Vanuat\u00fa","name:dv":"\u0788\u07a6\u0782\u07aa\u0787\u07a7\u0793\u07ab","name:pa":"\u0a35\u0a28\u0a41\u0a06\u0a24\u0a42","name:ku":"Van\u00fbat\u00fb","name:ja":"\u30d0\u30cc\u30a2\u30c4","name:hi":"\u0935\u093e\u0928\u0942\u0905\u0924\u0941","name:na":"Banuatu","name:he":"\u05d5\u05e0\u05d5\u05d0\u05d8\u05d5","name:eo":"Vanuatuo","name:ne":"\u092d\u093e\u0928\u0941\u0905\u091f\u0941","name:bn":"\u09ad\u09be\u09a8\u09c1\u09af\u09bc\u09be\u099f\u09c1","name:bo":"\u0f5d\u0f0b\u0f53\u0f74\u0f60\u0f0b\u0f4f\u0f74\u0f0d","name:uk":"\u0412\u0430\u043d\u0443\u0430\u0442\u0443","name:hy":"\u054e\u0561\u0576\u0578\u0582\u0561\u057f\u0578\u0582","name:ru":"\u0412\u0430\u043d\u0443\u0430\u0442\u0443","name:be":"\u0412\u0430\u043d\u0443\u0430\u0442\u0443","name:ug":"\u06cb\u0627\u0646\u06c7\u0626\u0627\u062a\u06c7","name:ur":"\u0648\u0627\u0646\u0648\u0627\u062a\u0648","name:qu":"Wanwatu","name:sr":"\u0412\u0430\u043d\u0443\u0430\u0442\u0443","name:nv":"Bano\u02bc\u00e1\u00e1t\u02bcoo","name:th":"\u0e1b\u0e23\u0e30\u0e40\u0e17\u0e28\u0e27\u0e32\u0e19\u0e39\u0e2d\u0e32\u0e15\u0e39","name:el":"\u0392\u03b1\u03bd\u03bf\u03c5\u03ac\u03c4\u03bf\u03c5","kind":"country","name":"Vanuatu","name:gd":"Bhanuatu","name:zh":"\u74e6\u52aa\u963f\u56fe","name:wo":"Wanuatu","min_zoom":8.0,"osm_relation":true,"maritime_boundary":true,"name:bg":"\u0412\u0430\u043d\u0443\u0430\u0442\u0443","name:my":"\u1017\u1014\u103d\u102c\u1038\u1010\u1030\u1014\u102d\u102f\u1004\u103a\u1004\u1036","name:yo":"Fanuatu","name:ht":"Vanwatou"},"arcs":[0]},{"type":"LineString","properties":{"name:right:ja":"\u30de\u30e9\u30f3\u30d1\u5dde","name:left:ja":"\u30b7\u30a7\u30d5\u30a1\u5dde","id:right":-3765629,"min_zoom":8.0,"id":-3765630,"osm_relation":true,"name":"Shefa - Malampa","kind":"region","name:left:en":"Shefa Province","sort_rank":256,"kind_detail":"4","source":"openstreetmap.org","maritime_boundary":true,"name:left:fr":"Sh\u00e9fa","id:left":-3765630,"name:right":"Malampa","name:left":"Shefa"},"arcs":[1]},{"type":"LineString","properties":{"kind":"region","name:en":"Shefa Province","name":"Shefa","sort_rank":256,"kind_detail":"4","min_zoom":8.0,"name:fr":"Sh\u00e9fa","source":"openstreetmap.org","maritime_boundary":true,"id":-3765630,"osm_relation":true,"name:ja":"\u30b7\u30a7\u30d5\u30a1\u5dde"},"arcs":[2]},{"type":"LineString","properties":{"kind":"region","name":"Malampa","sort_rank":256,"kind_detail":"4","source":"openstreetmap.org","min_zoom":8.0,"id":-3765629,"osm_relation":true,"name:ja":"\u30de\u30e9\u30f3\u30d1\u5dde"},"arcs":[3]},{"type":"MultiLineString","properties":{"kind":"region","name":"Malampa","sort_rank":256,"kind_detail":"4","min_zoom":8.0,"source":"openstreetmap.org","maritime_boundary":true,"id":-3765629,"osm_relation":true,"name:ja":"\u30de\u30e9\u30f3\u30d1\u5dde"},"arcs":[[4],[5]]}]},"roads":{"type":"GeometryCollection","geometries":[{"type":"MultiLineString","properties":{"sort_rank":380,"kind_detail":"primary","min_zoom":8.0,"kind":"major_road","source":"openstreetmap.org"},"arcs":[[21],[22]]}]},"earth":{"type":"GeometryCollection","geometries":[{"type":"MultiPolygon","properties":{"sort_rank":10,"source":"naturalearthdata.com","min_zoom":0.0,"kind":"earth","area":9517230782},"arcs":[[[23]],[[24]],[[25]],[[26]],[[27]],[[28]],[[29]],[[30]]]},{"type":"Point","properties":{"label_placement":true,"kind":"island","name":"Ambrym","name:lt":"Ambrimas","area":733465024,"source":"openstreetmap.org","min_zoom":8.0,"id":-5324349,"osm_relation":true},"coordinates":[2102,1215]},{"type":"Point","properties":{"label_placement":true,"kind":"island","name":"Malekula","area":2231490048,"source":"openstreetmap.org","min_zoom":7.0,"id":-4732513,"osm_relation":true},"coordinates":[453,1218]}]},"landuse":{"type":"GeometryCollection","geometries":[]}},"type":"Topology","transform":{"translate":[167.34375,-16.6361918784],"scale":[0.0003433228,0.0003300798]},"arcs":[[[4076,0],[-750,2300],[-251,1796]],[[4008,207],[-511,-101],[-1488,302],[-226,-408]],[[4076,0],[-68,207]],[[2445,1764],[-59,17]],[[2386,1781],[-962,283],[-1060,672],[-364,-122]],[[4008,207],[-484,1486],[-416,-124],[-663,195]],[[4096,4096],[0,-4096],[-1534,0],[-9,8],[-51,114],[-20,26],[-9,7],[-8,14],[-14,15],[-29,7],[-26,-6],[-18,-10],[-18,-2],[-28,18],[14,-45],[4,-21],[2,-29],[-6,-38],[-16,-20],[-18,-15],[-19,-22],[0,-1],[-2293,0],[0,1481],[42,-66],[15,-53],[7,-10],[13,-2],[14,-7],[6,-23],[-2,-54],[2,-18],[31,-147],[-15,-38],[-3,-186],[9,-65],[9,-5],[18,-5],[19,-10],[14,-20],[2,-16],[-2,-56],[4,-45],[12,-33],[73,-97],[25,-57],[17,-61],[8,-48],[-27,8],[-23,14],[-18,18],[-12,20],[-20,0],[7,-68],[35,-42],[39,-33],[36,-69],[80,-28],[24,-31],[18,0],[7,39],[15,0],[20,-15],[17,-3],[62,61],[76,10],[35,15],[28,37],[-26,5],[-10,7],[-8,12],[-19,18],[34,31],[58,41],[64,24],[55,-22],[27,-3],[44,8],[42,0],[18,-27],[15,-7],[77,-13],[27,-7],[20,-28],[11,-34],[21,-25],[47,0],[33,18],[2,23],[-3,25],[19,29],[30,34],[15,30],[18,21],[37,8],[23,10],[69,71],[-20,31],[-19,48],[-23,38],[-30,-2],[-32,-29],[-20,-29],[-12,-38],[-3,-58],[-45,33],[6,56],[54,100],[-24,150],[-40,68],[-75,-13],[-126,104],[-52,58],[19,43],[0,23],[-10,4],[-27,15],[-78,-33],[-42,22],[-37,53],[-66,63],[-38,19],[-68,20],[-33,21],[-22,26],[-17,31],[-13,34],[-8,35],[-12,-10],[-10,-6],[-8,-9],[-10,-16],[-17,0],[-16,10],[-66,31],[-4,24],[23,34],[3,27],[-42,65],[-27,32],[-13,-5],[16,-53],[5,-28],[-10,-11],[-30,9],[-45,42],[-58,19],[-27,24],[-25,29],[-26,22],[19,38],[-11,29],[-30,21],[-38,15],[51,106],[-148,190],[0,2033],[1732,0],[-136,-23],[-142,-56],[-49,-9],[-63,-21],[-356,-340],[-27,-53],[17,-34],[99,-50],[62,-20],[304,-2],[67,25],[193,161],[25,40],[9,56],[12,62],[30,68],[39,62],[38,46],[67,66],[-2,22],[362,0],[-9,-46],[34,-144],[4,-76],[-17,-70],[71,14],[31,0],[38,-14],[17,90],[3,88],[19,86],[6,57],[-6,15],[1624,0]],[[2362,3553],[-17,-242],[-71,-236],[-14,-126],[8,-119],[25,-108],[70,-169],[32,-233],[52,-183],[11,-122],[14,-44],[34,-21],[66,5],[82,46],[37,80],[8,106],[-7,120],[-12,53],[-34,70],[-14,44],[-23,156],[-68,195],[-9,42],[0,92],[-40,96],[-4,51],[23,186],[-6,46],[-14,15],[-19,8],[-19,27],[-9,30],[-18,141],[-64,-6]],[[2322,1655],[-45,-119],[-14,-17],[-40,-25],[-109,-111],[-61,-32],[-129,0],[-29,-6],[-43,-30],[-85,-21],[-72,-33],[-37,-40],[39,-35],[-16,-43],[31,-26],[51,-21],[42,-25],[46,-38],[97,-59],[27,-36],[43,20],[39,-7],[77,-55],[37,12],[39,-10],[39,-24],[34,-29],[36,-14],[41,12],[43,20],[40,11],[308,11],[99,78],[22,37],[-3,44],[-22,26],[-208,112],[-56,56],[-11,93],[-57,189],[-46,101],[-58,63],[-63,-16],[-26,-13]],[[2524,399],[46,-1],[52,31],[20,45],[3,106],[27,45],[-79,-7],[-33,-25],[-28,-114],[-29,-52],[21,-28]],[[2772,419],[35,-81],[25,-34],[39,-12],[61,2],[32,30],[-1,45],[-34,50],[-35,18],[-37,-1],[-85,-17]],[[1365,656],[-32,-29],[-20,-29],[-12,-38],[-3,-58],[-45,33],[6,56],[54,100],[-24,150],[-40,68],[-75,-13],[-126,104],[-52,58],[19,43],[0,23],[-10,4],[-27,15],[-78,-33],[-42,22],[-37,53],[-66,63],[-38,19],[-68,20],[-33,21],[-22,26],[-17,31],[-13,34],[-8,35],[-12,-10],[-10,-6],[-8,-9],[-10,-16],[-17,0],[-16,10],[-66,31],[-4,24],[23,34],[3,27],[-42,65],[-27,32],[-13,-5],[16,-53],[5,-28],[-10,-11],[-30,9],[-45,42],[-58,19],[-27,24],[-25,29],[-26,22],[19,38],[-11,29],[-30,21],[-38,15],[51,106],[-148,190]],[[0,1481],[42,-66],[15,-53],[7,-10],[13,-2],[14,-7],[6,-23],[-2,-54],[2,-18],[31,-147],[-15,-38],[-3,-186],[9,-65],[9,-5],[18,-5],[19,-10],[14,-20],[2,-16],[-2,-56],[4,-45],[12,-33],[73,-97],[25,-57],[17,-61],[8,-48],[-27,8],[-23,14],[-18,18],[-12,20],[-20,0],[7,-68],[35,-42],[39,-33],[36,-69],[80,-28],[24,-31],[18,0],[7,39],[15,0],[20,-15],[17,-3],[62,61],[76,10],[35,15],[28,37],[-26,5],[-10,7],[-8,12],[-19,18],[34,31],[58,41],[64,24],[55,-22],[27,-3],[44,8],[42,0],[18,-27],[15,-7],[77,-13],[27,-7],[20,-28],[11,-34],[21,-25],[47,0],[33,18],[2,23],[-3,25],[19,29],[30,34],[15,30],[18,21],[37,8],[23,10],[69,71],[-20,31],[-19,48],[-23,38],[-30,-2]],[[2871,292],[61,2],[32,30],[-1,45],[-34,50],[-35,18],[-37,-1],[-85,-17],[35,-81],[25,-34],[39,-12]],[[2281,4096],[-9,-46],[34,-144],[4,-76],[-17,-70],[71,14],[31,0],[38,-14],[17,90],[3,88],[19,86],[6,57],[-6,15]],[[2453,3388],[-9,30],[-18,141],[-64,-6],[-17,-242],[-71,-236],[-14,-126],[8,-119],[25,-108],[70,-169],[32,-233],[52,-183],[11,-122],[14,-44],[34,-21],[66,5],[82,46],[37,80],[8,106],[-7,120],[-12,53],[-34,70],[-14,44],[-23,156],[-68,195],[-9,42],[0,92],[-40,96],[-4,51],[23,186],[-6,46],[-14,15],[-19,8],[-19,27]],[[1735,3770],[12,62],[30,68],[39,62],[38,46],[67,66],[-2,22]],[[1732,4096],[-136,-23],[-142,-56],[-49,-9],[-63,-21],[-356,-340],[-27,-53],[17,-34],[99,-50],[62,-20],[304,-2],[67,25],[193,161],[25,40],[9,56]],[[2443,874],[308,11],[99,78],[22,37],[-3,44],[-22,26],[-208,112],[-56,56],[-11,93],[-57,189],[-46,101],[-58,63],[-63,-16],[-26,-13],[-45,-119],[-14,-17],[-40,-25],[-109,-111],[-61,-32],[-129,0],[-29,-6],[-43,-30],[-85,-21],[-72,-33],[-37,-40],[39,-35],[-16,-43],[31,-26],[51,-21],[42,-25],[46,-38],[97,-59],[27,-36],[43,20],[39,-7],[77,-55],[37,12],[39,-10],[39,-24],[34,-29],[36,-14],[41,12],[43,20],[40,11]],[[2532,479],[-29,-52],[21,-28],[46,-1],[52,31],[20,45],[3,106],[27,45],[-79,-7],[-33,-25],[-28,-114]],[[2562,0],[-9,8],[-51,114],[-20,26],[-9,7],[-8,14],[-14,15],[-29,7],[-26,-6],[-18,-10],[-18,-2],[-28,18],[14,-45],[4,-21],[2,-29],[-6,-38],[-16,-20],[-18,-15],[-19,-22],[0,-1]],[[2331,2813],[11,17],[-61,36],[-10,93],[35,-36],[32,13],[33,-28],[53,18],[30,-27],[5,63],[-56,132],[42,255],[-63,62],[-27,-2],[10,133],[-13,42],[-23,-11]],[[2389,2557],[19,-62],[-12,-114],[71,-213],[12,-114],[61,-23],[53,27],[31,-40],[58,3]],[[2932,294],[-61,-2],[-39,12],[-25,34],[-35,81],[85,17],[37,1],[35,-18],[34,-50],[1,-45],[-32,-30]],[[2451,184],[14,-15],[8,-14],[9,-7],[20,-26],[51,-114],[9,-8],[-269,0],[0,1],[19,22],[18,15],[16,20],[6,38],[-2,29],[-4,21],[-14,45],[28,-18],[18,2],[18,10],[26,6],[29,-7]],[[2622,429],[-52,-31],[-46,1],[-21,28],[29,52],[28,114],[33,25],[79,7],[-27,-45],[-3,-106],[-20,-45]],[[0,1481],[0,582],[148,-190],[-51,-106],[38,-15],[30,-21],[11,-29],[-19,-38],[26,-22],[25,-29],[27,-24],[58,-19],[45,-42],[30,-9],[10,11],[-5,28],[-16,53],[13,5],[27,-32],[42,-65],[-3,-27],[-23,-34],[4,-24],[66,-31],[16,-10],[17,0],[10,16],[8,9],[10,6],[12,10],[8,-35],[13,-34],[17,-31],[22,-26],[33,-21],[68,-20],[38,-19],[66,-63],[37,-53],[42,-22],[78,33],[27,-15],[10,-4],[0,-23],[-19,-43],[52,-58],[126,-104],[75,13],[40,-68],[24,-150],[-54,-100],[-6,-56],[45,-33],[3,58],[12,38],[20,29],[32,29],[30,2],[23,-38],[19,-48],[20,-31],[-69,-71],[-23,-10],[-37,-8],[-18,-21],[-15,-30],[-30,-34],[-19,-29],[3,-25],[-2,-23],[-33,-18],[-47,0],[-21,25],[-11,34],[-20,28],[-27,7],[-77,13],[-15,7],[-18,27],[-42,0],[-44,-8],[-27,3],[-55,22],[-64,-24],[-58,-41],[-34,-31],[19,-18],[8,-12],[10,-7],[26,-5],[-28,-37],[-35,-15],[-76,-10],[-62,-61],[-17,3],[-20,15],[-15,0],[-7,-39],[-18,0],[-24,31],[-80,28],[-36,69],[-39,33],[-35,42],[-7,68],[20,0],[12,-20],[18,-18],[23,-14],[27,-8],[-8,48],[-17,61],[-25,57],[-73,97],[-12,33],[-4,45],[2,56],[-2,16],[-14,20],[-19,10],[-18,5],[-9,5],[-9,65],[3,186],[15,38],[-31,147],[-2,18],[2,54],[-6,23],[-14,7],[-13,2],[-7,10],[-15,53],[-42,66]],[[2850,963],[-99,-78],[-308,-11],[-40,-11],[-43,-20],[-41,-12],[-36,14],[-34,29],[-39,24],[-39,10],[-37,-12],[-77,55],[-39,7],[-43,-20],[-27,36],[-97,59],[-46,38],[-42,25],[-51,21],[-31,26],[16,43],[-39,35],[37,40],[72,33],[85,21],[43,30],[29,6],[129,0],[61,32],[109,111],[40,25],[14,17],[45,119],[26,13],[63,16],[58,-63],[46,-101],[57,-189],[11,-93],[56,-56],[208,-112],[22,-26],[3,-44],[-22,-37]],[[2281,4096],[191,0],[6,-15],[-6,-57],[-19,-86],[-3,-88],[-17,-90],[-38,14],[-31,0],[-71,-14],[17,70],[-4,76],[-34,144],[9,46]],[[2572,1955],[-66,-5],[-34,21],[-14,44],[-11,122],[-52,183],[-32,233],[-70,169],[-25,108],[-8,119],[14,126],[71,236],[17,242],[64,6],[18,-141],[9,-30],[19,-27],[19,-8],[14,-15],[6,-46],[-23,-186],[4,-51],[40,-96],[0,-92],[9,-42],[68,-195],[23,-156],[14,-44],[34,-70],[12,-53],[7,-120],[-8,-106],[-37,-80],[-82,-46]],[[1732,4096],[187,0],[2,-22],[-67,-66],[-38,-46],[-39,-62],[-30,-68],[-12,-62],[-9,-56],[-25,-40],[-193,-161],[-67,-25],[-304,2],[-62,20],[-99,50],[-17,34],[27,53],[356,340],[63,21],[49,9],[142,56],[136,23]]]}