{"objects":{"water":{"type":"GeometryCollection","geometries":[{"type":"Polygon","properties":{"source":"naturalearthdata.com","kind":"ocean","area":1576712559132672,"sort_rank":200,"min_zoom":0.0,"id":1},"arcs":[[6],[7],[8],[9],[10],[11]]},{"type":"LineString","properties":{"source":"naturalearthdata.com","kind":"ocean","sort_rank":205,"boundary":true,"min_zoom":0.0,"id":2736},"arcs":[12]},{"type":"LineString","properties":{"source":"naturalearthdata.com","kind":"ocean","sort_rank":205,"boundary":true,"min_zoom":0.0,"id":2741},"arcs":[13]},{"type":"LineString","properties":{"source":"naturalearthdata.com","kind":"ocean","sort_rank":205,"boundary":true,"min_zoom":0.0,"id":2742},"arcs":[14]},{"type":"LineString","properties":{"source":"naturalearthdata.com","kind":"ocean","sort_rank":205,"boundary":true,"min_zoom":0.0,"id":2743},"arcs":[15]},{"type":"LineString","properties":{"source":"naturalearthdata.com","kind":"ocean","sort_rank":205,"boundary":true,"min_zoom":0.0,"id":2745},"arcs":[16]},{"type":"MultiLineString","properties":{"source":"naturalearthdata.com","kind":"ocean","sort_rank":205,"boundary":true,"min_zoom":0.0,"id":2747},"arcs":[[17],[18]]}]},"buildings":{"type":"GeometryCollection","geometries":[]},"places":{"type":"GeometryCollection","geometries":[{"type":"Point","properties":{"source":"naturalearthdata.com","kind":"locality","name":"Port Vila","country_capital":true,"population":44040,"min_zoom":5.0,"id":6823},"coordinates":[2834,749]},{"type":"Point","properties":{"name:ka":"\u10de\u10dd\u10e0\u10e2-\u10d5\u10d8\u10da\u10d0","name:mr":"\u092a\u094b\u0930\u094d\u091f \u0935\u094d\u0939\u093f\u0932\u093e","name:ko":"\ud3ec\ud2b8\ube4c\ub77c","name:ar":"\u0628\u0648\u0631\u062a \u0641\u064a\u0644\u0627","name:th":"\u0e1e\u0e2d\u0e23\u0e4c\u0e15\u0e27\u0e34\u0e25\u0e32","name:am":"\u1356\u122d\u1275 \u126a\u120b","name:os":"\u041f\u043e\u0440\u0442-\u0412\u0438\u043b\u00e6","name:ru":"\u041f\u043e\u0440\u0442-\u0412\u0438\u043b\u0430","name:ta":"\u0baa\u0bcb\u0bb0\u0bcd\u0b9f\u0bcd \u0bb5\u0bbf\u0bb2\u0bbe","id":115622916,"name:mk":"\u041f\u043e\u0440\u0442 \u0412\u0438\u043b\u0430","name:fa":"\u067e\u0648\u0631\u062a \u0648\u06cc\u0644\u0627","kind_detail":"city","source":"openstreetmap.org","name:fr":"Port-Vila","name:fy":"Port Fila","name:zh":"\u7dad\u62c9\u6e2f","admin_level":"2","name:lv":"Vila","name:ja":"\u30dd\u30fc\u30c8\u30d3\u30e9","name:he":"\u05e4\u05d5\u05e8\u05d8 \u05d5\u05d9\u05dc\u05d4","kind":"locality","name:ur":"\u067e\u0648\u0631\u0679 \u0648\u0644\u0627","name:bo":"\u0f5d\u0f7a\u0f0b\u0f63\u0f0b\u0f42\u0fb2\u0f74\u0f0b\u0f41\u0f0d","name:uk":"\u041f\u043e\u0440\u0442-\u0412\u0456\u043b\u0430","country_capital":true,"name:be":"\u041f\u043e\u0440\u0442-\u0412\u0456\u043b\u0430","name:ht":"P\u00f2 Vila","name:bg":"\u041f\u043e\u0440\u0442 \u0412\u0438\u043b\u0430","name:sr":"\u041f\u043e\u0440\u0442 \u0412\u0438\u043b\u0430","population":44039,"name:el":"\u03a0\u03bf\u03c1\u03c4 \u0392\u03af\u03bb\u03b1","name:eo":"Portvilao","name":"Port Vila","min_zoom":8.0},"coordinates":[2829,724]}]},"transit":{"type":"GeometryCollection","geometries":[]},"pois":{"type":"GeometryCollection","geometries":[]},"boundaries":{"type":"GeometryCollection","geometries":[{"type":"MultiLineString","properties":{"name:mt":"Vanwatu","name:ka":"\u10d5\u10d0\u10dc\u10e3\u10d0\u10e2\u10e3","name:mr":"\u0935\u094d\u0939\u093e\u0928\u0941\u0906\u0924\u0942","name:ko":"\ubc14\ub204\uc544\ud22c","name:kn":"\u0cb5\u0ca8\u0cc1\u0cb5\u0cbe\u0c9f\u0cc1","name:ar":"\u0641\u0627\u0646\u0648\u0627\u062a\u0648","name:kk":"\u0412\u0430\u043d\u0443\u0430\u0442\u0443","name:tt":"\u0412\u0430\u043d\u0443\u0430\u0442\u0443","name:is":"Van\u00faat\u00fa","name:rw":"Vanuwatu","name:or":"\u0b2d\u0b3e\u0b28\u0b41\u0b06\u0b1f\u0b41","name:os":"\u0412\u0430\u043d\u0443\u0430\u0442\u0443","name:ml":"\u0d35\u0d3e\u0d28\u0d41\u0d35\u0d3e\u0d1f\u0d41","name:ce":"\u0412\u0430\u043d\u0443\u0430\u0442\u0443","name:ta":"\u0bb5\u0ba9\u0bc1\u0bb5\u0bbe\u0b9f\u0bcd\u0b9f\u0bc1","name:tg":"\u0412\u0430\u043d\u0443\u0430\u0442\u0443","name:ky":"\u0412\u0430\u043d\u0443\u0430\u0442\u0443","name:te":"\u0c35\u0c28\u0c3e\u0c1f\u0c41","name:fa":"\u0648\u0627\u0646\u0648\u0627\u062a\u0648","name:ab":"\u0412\u0430\u043d\u0443\u0430\u0442\u0443","sort_rank":262,"kind_detail":"2","id":-2177246,"source":"openstreetmap.org","name:mk":"\u0412\u0430\u043d\u0443\u0430\u0442\u0443","name:fy":"Fanuat\u00fb","name:vo":"Vanuatu\u00e4ns","name:mn":"\u0412\u0430\u043d\u0443\u0430\u0442\u0443","name:ga":"Vanuat\u00fa","name:dv":"\u0788\u07a6\u0782\u07aa\u0787\u07a7\u0793\u07ab","name:pa":"\u0a35\u0a28\u0a41\u0a06\u0a24\u0a42","name:ku":"Van\u00fbat\u00fb","name:ja":"\u30d0\u30cc\u30a2\u30c4","name:hi":"\u0935\u093e\u0928\u0942\u0905\u0924\u0941","name:na":"Banuatu","name:he":"\u05d5\u05e0\u05d5\u05d0\u05d8\u05d5","name:eo":"Vanuatuo","name:ne":"\u092d\u093e\u0928\u0941\u0905\u091f\u0941","name:bn":"\u09ad\u09be\u09a8\u09c1\u09af\u09bc\u09be\u099f\u09c1","name:bo":"\u0f5d\u0f0b\u0f53\u0f74\u0f60\u0f0b\u0f4f\u0f74\u0f0d","name:uk":"\u0412\u0430\u043d\u0443\u0430\u0442\u0443","name:hy":"\u054e\u0561\u0576\u0578\u0582\u0561\u057f\u0578\u0582","name:ru":"\u0412\u0430\u043d\u0443\u0430\u0442\u0443","name:be":"\u0412\u0430\u043d\u0443\u0430\u0442\u0443","name:ug":"\u06cb\u0627\u0646\u06c7\u0626\u0627\u062a\u06c7","name:ur":"\u0648\u0627\u0646\u0648\u0627\u062a\u0648","name:qu":"Wanwatu","name:sr":"\u0412\u0430\u043d\u0443\u0430\u0442\u0443","name:nv":"Bano\u02bc\u00e1\u00e1t\u02bcoo","name:th":"\u0e1b\u0e23\u0e30\u0e40\u0e17\u0e28\u0e27\u0e32\u0e19\u0e39\u0e2d\u0e32\u0e15\u0e39","name:el":"\u0392\u03b1\u03bd\u03bf\u03c5\u03ac\u03c4\u03bf\u03c5","kind":"country","name":"Vanuatu","name:gd":"Bhanuatu","name:zh":"\u74e6\u52aa\u963f\u56fe","name:wo":"Wanuatu","min_zoom":8.0,"osm_relation":true,"maritime_boundary":true,"name:bg":"\u0412\u0430\u043d\u0443\u0430\u0442\u0443","name:my":"\u1017\u1014\u103d\u102c\u1038\u1010\u1030\u1014\u102d\u102f\u1004\u103a\u1004\u1036","name:yo":"Fanuatu","name:ht":"Vanwatou"},"arcs":[[0],[1]]},{"type":"LineString","properties":{"name:right:ja":"\u30de\u30e9\u30f3\u30d1\u5dde","name:left:ja":"\u30b7\u30a7\u30d5\u30a1\u5dde","id:right":-3765629,"min_zoom":8.0,"id":-3765630,"osm_relation":true,"name":"Shefa - Malampa","kind":"region","name:left:en":"Shefa Province","sort_rank":256,"kind_detail":"4","source":"openstreetmap.org","maritime_boundary":true,"name:left:fr":"Sh\u00e9fa","id:left":-3765630,"name:right":"Malampa","name:left":"Shefa"},"arcs":[2]},{"type":"MultiLineString","properties":{"kind":"region","name:en":"Shefa Province","name":"Shefa","sort_rank":256,"kind_detail":"4","min_zoom":8.0,"name:fr":"Sh\u00e9fa","source":"openstreetmap.org","maritime_boundary":true,"id":-3765630,"osm_relation":true,"name:ja":"\u30b7\u30a7\u30d5\u30a1\u5dde"},"arcs":[[3],[4]]},{"type":"LineString","properties":{"kind":"region","name":"Malampa","sort_rank":256,"kind_detail":"4","min_zoom":8.0,"source":"openstreetmap.org","maritime_boundary":true,"id":-3765629,"osm_relation":true,"name:ja":"\u30de\u30e9\u30f3\u30d1\u5dde"},"arcs":[5]}]},"roads":{"type":"GeometryCollection","geometries":[]},"earth":{"type":"GeometryCollection","geometries":[{"type":"MultiPolygon","properties":{"sort_rank":10,"source":"naturalearthdata.com","min_zoom":0.0,"kind":"earth","area":1568722516},"arcs":[[[19]],[[20]],[[21]],[[22]],[[23]],[[24]]]},{"type":"Point","properties":{"label_placement":true,"kind":"island","name":"Efate","name:lt":"Efat\u0117","area":991286016,"source":"openstreetmap.org","min_zoom":8.0,"id":-1140321,"osm_relation":true},"coordinates":[2975,930]}]},"landuse":{"type":"GeometryCollection","geometries":[]}},"type":"Topology","transform":{"translate":[167.34375,-17.9787330956],"scale":[0.0003433228,0.0003277689]},"arcs":[[[0,3626],[1895,-3207],[286,-419]],[[4096,4034],[-20,62]],[[1783,4096],[-131,-237],[-1345,-755]],[[307,3104],[1537,-2604],[340,-500]],[[4096,4034],[-20,62]],[[0,3607],[307,-503]],[[2293,4096],[-12,-47],[-6,-113],[-12,-37],[-1,-26],[24,-28],[46,-39],[6,-32],[-6,-84],[16,-28],[86,-85],[37,-23],[119,-28],[85,33],[86,51],[121,27],[44,-7],[56,-18],[48,-23],[48,-51],[154,-88],[29,13],[31,-13],[6,39],[-18,48],[-7,41],[39,18],[-49,67],[-67,23],[-154,-5],[-52,16],[-27,36],[-13,35],[-9,17],[-53,15],[-26,37],[-19,48],[-31,46],[-13,12],[-19,13],[-23,11],[-26,5],[-28,-7],[-48,-31],[-23,-3],[-25,28],[-12,50],[-7,48],[-6,21],[-20,18],[1534,0],[0,-4096],[-4096,0],[0,4096],[2293,0]],[[3650,3306],[-54,56],[-75,-7],[-54,-47],[3,-65],[-15,-42],[8,-26],[30,-13],[47,-4],[33,18],[77,130]],[[2852,2713],[29,-15],[30,3],[97,25],[16,16],[11,20],[16,19],[74,43],[25,20],[-68,17],[-39,-1],[-114,-56],[-29,-20],[-34,-36],[-14,-35]],[[3065,474],[207,50],[2,-7],[14,-14],[19,-14],[15,-7],[21,7],[14,13],[8,15],[6,7],[75,15],[39,17],[22,36],[23,78],[87,177],[-5,52],[-16,-12],[-25,-11],[-29,-5],[-30,7],[-19,18],[-23,58],[-18,30],[-54,22],[-27,49],[-16,60],[-24,56],[-29,45],[-17,13],[-24,5],[-12,11],[-10,55],[-7,19],[-41,29],[-47,8],[-201,-34],[-51,-31],[-14,19],[-11,32],[-15,19],[-88,-15],[-76,-64],[-116,-173],[-30,-34],[-75,-54],[-34,-37],[-73,-151],[-8,-38],[41,-26],[8,-31],[20,-13],[32,7],[19,19],[40,65],[20,22],[38,22],[36,9],[39,-5],[47,-26],[22,-8],[20,-3],[12,-10],[10,-64],[12,-15],[20,2],[24,15],[-13,-63],[-52,-29],[-65,-20],[-50,-38],[0,-19],[104,25],[47,20],[29,39],[19,0],[-19,-107],[15,19],[18,10],[23,1],[24,-7],[6,10],[0,3],[1,2],[13,4],[3,-25],[12,-31],[3,-25],[31,40],[13,-8],[6,-30],[12,-23],[51,-30],[22,1]],[[2670,1330],[65,37],[37,13],[-58,52],[-107,-38],[-90,-87],[-7,-94],[23,34],[30,26],[68,46],[39,11]],[[2971,1632],[-34,57],[-39,32],[-33,-14],[-13,-86],[33,-69],[64,-43],[46,15],[-24,108]],[[3540,3158],[33,18],[77,130],[-54,56],[-75,-7],[-54,-47],[3,-65],[-15,-42],[8,-26],[30,-13],[47,-4]],[[3512,878],[-19,18],[-23,58],[-18,30],[-54,22],[-27,49],[-16,60],[-24,56],[-29,45],[-17,13],[-24,5],[-12,11],[-10,55],[-7,19],[-41,29],[-47,8],[-201,-34],[-51,-31],[-14,19],[-11,32],[-15,19],[-88,-15],[-76,-64],[-116,-173],[-30,-34],[-75,-54],[-34,-37],[-73,-151],[-8,-38],[41,-26],[8,-31],[20,-13],[32,7],[19,19],[40,65],[20,22],[38,22],[36,9],[39,-5],[47,-26],[22,-8],[20,-3],[12,-10],[10,-64],[12,-15],[20,2],[24,15],[-13,-63],[-52,-29],[-65,-20],[-50,-38],[0,-19],[104,25],[47,20],[29,39],[19,0],[-19,-107],[15,19],[18,10],[23,1],[24,-7],[6,10],[0,3],[1,2],[13,4],[3,-25],[12,-31],[3,-25],[31,40],[13,-8],[6,-30],[12,-23],[51,-30],[22,1],[207,50],[2,-7],[14,-14],[19,-14],[15,-7],[21,7],[14,13],[8,15],[6,7],[75,15],[39,17],[22,36],[23,78],[87,177],[-5,52],[-16,-12],[-25,-11],[-29,-5],[-30,7]],[[2510,1213],[23,34],[30,26],[68,46],[39,11],[65,37],[37,13],[-58,52],[-107,-38],[-90,-87],[-7,-94]],[[2852,1621],[33,-69],[64,-43],[46,15],[-24,108],[-34,57],[-39,32],[-33,-14],[-13,-86]],[[3051,2781],[74,43],[25,20],[-68,17],[-39,-1],[-114,-56],[-29,-20],[-34,-36],[-14,-35],[29,-15],[30,3],[97,25],[16,16],[11,20],[16,19]],[[2471,3554],[119,-28],[85,33],[86,51],[121,27],[44,-7],[56,-18],[48,-23],[48,-51],[154,-88],[29,13],[31,-13],[6,39],[-18,48],[-7,41],[39,18],[-49,67],[-67,23],[-154,-5],[-52,16],[-27,36],[-13,35],[-9,17],[-53,15],[-26,37],[-19,48],[-31,46],[-13,12],[-19,13],[-23,11],[-26,5],[-28,-7],[-48,-31],[-23,-3],[-25,28],[-12,50],[-7,48],[-6,21],[-20,18]],[[2293,4096],[-12,-47],[-6,-113],[-12,-37],[-1,-26],[24,-28],[46,-39],[6,-32],[-6,-84],[16,-28],[86,-85],[37,-23]],[[2995,1524],[-46,-15],[-64,43],[-33,69],[13,86],[33,14],[39,-32],[34,-57],[24,-108]],[[2878,1310],[14,-19],[51,31],[201,34],[47,-8],[41,-29],[7,-19],[10,-55],[12,-11],[24,-5],[17,-13],[29,-45],[24,-56],[16,-60],[27,-49],[54,-22],[18,-30],[23,-58],[19,-18],[30,-7],[29,5],[25,11],[16,12],[5,-52],[-87,-177],[-23,-78],[-22,-36],[-39,-17],[-75,-15],[-6,-7],[-8,-15],[-14,-13],[-21,-7],[-15,7],[-19,14],[-14,14],[-2,7],[-207,-50],[-22,-1],[-51,30],[-12,23],[-6,30],[-13,8],[-31,-40],[-3,25],[-12,31],[-3,25],[-13,-4],[-1,-2],[0,-3],[-6,-10],[-24,7],[-23,-1],[-18,-10],[-15,-19],[19,107],[-19,0],[-29,-39],[-47,-20],[-104,-25],[0,19],[50,38],[65,20],[52,29],[13,63],[-24,-15],[-20,-2],[-12,15],[-10,64],[-12,10],[-20,3],[-22,8],[-47,26],[-39,5],[-36,-9],[-38,-22],[-20,-22],[-40,-65],[-19,-19],[-32,-7],[-20,13],[-8,31],[-41,26],[8,38],[73,151],[34,37],[75,54],[30,34],[116,173],[76,64],[88,15],[15,-19],[11,-32]],[[2533,1247],[-23,-34],[7,94],[90,87],[107,38],[58,-52],[-37,-13],[-65,-37],[-39,-11],[-68,-46],[-30,-26]],[[2911,2701],[-30,-3],[-29,15],[14,35],[34,36],[29,20],[114,56],[39,1],[68,-17],[-25,-20],[-74,-43],[-16,-19],[-11,-20],[-16,-16],[-97,-25]],[[3573,3176],[-33,-18],[-47,4],[-30,13],[-8,26],[15,42],[-3,65],[54,47],[75,7],[54,-56],[-77,-130]],[[2562,4096],[20,-18],[6,-21],[7,-48],[12,-50],[25,-28],[23,3],[48,31],[28,7],[26,-5],[23,-11],[19,-13],[13,-12],[31,-46],[19,-48],[26,-37],[53,-15],[9,-17],[13,-35],[27,-36],[52,-16],[154,5],[67,-23],[49,-67],[-39,-18],[7,-41],[18,-48],[-6,-39],[-31,13],[-29,-13],[-154,88],[-48,51],[-48,23],[-56,18],[-44,7],[-121,-27],[-86,-51],[-85,-33],[-119,28],[-37,23],[-86,85],[-16,28],[6,84],[-6,32],[-46,39],[-24,28],[1,26],[12,37],[6,113],[12,47],[269,0]]]}