{"objects":{"water":{"type":"GeometryCollection","geometries":[{"type":"MultiPolygon","properties":{"source":"naturalearthdata.com","kind":"ocean","area":1576712559132672,"sort_rank":200,"min_zoom":0.0,"id":1},"arcs":[[[3],[4],[5]]]},{"type":"MultiLineString","properties":{"source":"naturalearthdata.com","kind":"ocean","sort_rank":205,"boundary":true,"min_zoom":0.0,"id":2541},"arcs":[[6],[7]]},{"type":"LineString","properties":{"source":"naturalearthdata.com","kind":"ocean","sort_rank":205,"boundary":true,"min_zoom":0.0,"id":2544},"arcs":[8]},{"type":"MultiLineString","properties":{"source":"naturalearthdata.com","kind":"ocean","sort_rank":205,"boundary":true,"min_zoom":0.0,"id":2753},"arcs":[[9],[10]]},{"type":"LineString","properties":{"source":"naturalearthdata.com","kind":"ocean","sort_rank":205,"boundary":true,"min_zoom":0.0,"id":2911},"arcs":[11]}]},"buildings":{"type":"GeometryCollection","geometries":[]},"places":{"type":"GeometryCollection","geometries":[{"type":"Point","properties":{"name:ka":"\u10e4\u10d8\u10ef\u10d8","name:mt":"Fi\u0121i","name:ko":"\ud53c\uc9c0","name:kn":"\u0cab\u0cbf\u0c9c\u0cbf","name:km":"\u17a0\u17d2\u179c\u17b8\u1787\u17b8","name:cs":"Fid\u017ei","name:ku":"F\u00eej\u00ee","name:ti":"\u134a\u1302","name:ks":"\u0641\u0650\u062c\u06cc","name:to":"Fisi","name:tl":"Pidyi","name:or":"\u0b2b\u0b3f\u0b1c\u0b3f","name:pl":"Fid\u017ci","name:ta":"\u0b83\u0baa\u0bbf\u0b9c\u0bbf","name:te":"\u0c2b\u0c3f\u0c1c\u0c3f","name:hu":"Fidzsi-szigetek","name:cy":"Ffiji","name:hr":"Fid\u017ei","name:de":"Fidschi","name:dz":"\u0f55\u0f72\u0f0b\u0f47\u0f72","source":"openstreetmap.org","name:lv":"Fid\u017ei","name:lt":"Fid\u017eis","name:hi":"\u092b\u093f\u091c\u0940","name:he":"\u05e4\u05d9\u05d2'\u05d9","kind":"country","name:ur":"\u0641\u062c\u06cc","name:lb":"Fidschi","name:la":"Viti","official_name":"Matanitu Tu-Vaka-i-koya ko Viti","name:uk":"\u0424\u0456\u0434\u0436\u0456","name:hy":"\u0556\u056b\u057b\u056b","min_zoom":2.0,"name:li":"Fidzji-eilen","name:ln":"Fidzi","name:lo":"\u0e9f\u0eb4\u0e88\u0eb4","population":931741,"name:el":"\u03a6\u03af\u03c4\u03b6\u03b9","name:eo":"Fi\u011dio","name":"Fiji","name:is":"F\u00eddjieyjar","name:ee":"Fidzi nutome","name:th":"\u0e1b\u0e23\u0e30\u0e40\u0e17\u0e28\u0e1f\u0e34\u0e08\u0e34","name:et":"Fid\u017ei","name:es":"Fiyi","name:rm":"Fidschi","name:az":"Fici","name:mr":"\u092b\u093f\u091c\u0940","name:ar":"\u0641\u064a\u062c\u064a","name:my":"\u1016\u102e\u1002\u103b\u102e","name:io":"Fidji","name:ak":"Figyi","name:am":"\u134a\u1302","name:it":"Figi","name:ml":"\u0d2b\u0d3f\u0d1c\u0d3f","name:ru":"\u0424\u0438\u0434\u0436\u0438","name:mn":"\u0424\u0438\u0436\u0438","id":424313823,"name:mk":"\u0424\u0438\u045f\u0438","name:af":"Fidji","name:zu":"i-Fiji","name:ff":"Fijji","name:fi":"Fid\u017ei","name:mg":"Fidji","name:fr":"Fidji","name:fy":"Fidzjy","name:vo":"Ficiyu\u00e4ns","name:zh":"\u6590\u6d4e\u5c9b","name:sl":"Fid\u017ei","name:sk":"Fid\u017ei","name:ja":"\u30d5\u30a3\u30b8\u30fc","name:si":"\u0dc6\u0dd3\u0da2\u0dd3","name:fa":"\u0641\u06cc\u062c\u06cc","name:sg":"Fidy\u00efi","name:se":"Fijisullot","name:ne":"\u092b\u093f\u091c\u0940","name:br":"Fidji","name:bs":"Fid\u017ei","name:bn":"\u09ab\u09bf\u099c\u09bf","name:bo":"\u0f55\u0f72\u0f0b\u0f47\u0f72\u0f0d","name:be":"\u0424\u0456\u0434\u0436\u044b","name:bg":"\u0424\u0438\u0434\u0436\u0438","name:sr":"\u0424\u0438\u045f\u0438","name:sq":"Fixhi","name:ga":"Fids\u00ed","name:gd":"F\u00ecdi","name:gl":"Fixi","name:yo":"Or\u00edl\u1eb9\u0301\u00e8de Fiji","name:gu":"\u0aab\u0ac0\u0a9c\u0ac0"},"coordinates":[1219,3650]}]},"transit":{"type":"GeometryCollection","geometries":[]},"pois":{"type":"GeometryCollection","geometries":[]},"boundaries":{"type":"GeometryCollection","geometries":[{"type":"LineString","properties":{"name:pt":"Fiji","name:ka":"\u10e4\u10d8\u10ef\u10d8","name:ko":"\ud53c\uc9c0","name:cv":"\u0424\u0438\u0434\u0436\u0438","name:cs":"Fid\u017ei","name:tt":"Fiji","name:kw":"Fiji","name:sw":"Fiji","name:ku":"F\u00eej\u00ee","name:az":"Fici","alt_name:cs":"Republika Fid\u017eijsk\u00e9 ostrovy","name:to":"Fisi","name:tl":"Piyi","name:pa":"\u0a2b\u0a3c\u0a3f\u0a1c\u0a40","name:os":"\u0424\u0438\u0434\u0436\u0438","name:or":"\u0b2b\u0b3f\u0b1c\u0b3f","name:ce":"\u0424\u0438\u0434\u0436\u0438","name:ta":"\u0baa\u0bbf\u0b9c\u0bbf","name:tg":"\u0424\u0438\u04b7\u0438","name:ca":"Fiji","name:te":"\u0c2b\u0c3f\u0c1c\u0c40","name:li":"Fiji","name:fo":"Fiji","name:cy":"Fiji","source":"openstreetmap.org","sort_rank":262,"name:hr":"Fid\u017ei","name:da":"Fiji","name:de":"Fidschi","name:tr":"Fiji","name:nv":"F\u00ed\u00edjii","name:kn":"\u0cab\u0cbf\u0c9c\u0cbf","name:be":"\u0424\u0456\u0434\u0436\u044b","name:dv":"\u078a\u07a8\u0796\u07a9","name:ba":"\u0424\u0438\u0434\u0436\u0438","name:lv":"Fid\u017ei","name:lt":"Fid\u017eis","name:uz":"Fiji","name:kk":"\u0424\u0438\u0434\u0436\u0438","name:he":"\u05e4\u05d9\u05d2'\u05d9","name:eo":"Fi\u011dioj","name:ur":"\u0641\u062c\u06cc","name:lb":"Fidschi","name:an":"Fichi","name:uk":"\u0424\u0456\u0434\u0436\u0456","name:hy":"\u0556\u056b\u057b\u056b","name:ug":"\u0641\u0649\u062c\u0649","name:hu":"Fidzsi-szigetek","name:qu":"Phiyi","name:oc":"Fiji","name:el":"\u03a6\u03af\u03c4\u03b6\u03b9","kind":"country","name:en":"Fiji","name":"Viti","min_zoom":8.0,"name:th":"\u0e1b\u0e23\u0e30\u0e40\u0e17\u0e28\u0e1f\u0e34\u0e08\u0e34","name:eu":"Fiji","name:et":"Fid\u017ei","name:es":"Fiyi","name:ia":"Fiji","name:mt":"Fi\u0121i","name:ro":"Fiji","name:id":"Fiji","name:ms":"Fiji","name:mr":"\u092b\u093f\u091c\u0940","name:ar":"\u0641\u064a\u062c\u064a","name:my":"\u1016\u102e\u1002\u103b\u102e\u1014\u102d\u102f\u1004\u103a\u1004\u1036","name:io":"Fidji","name:is":"F\u00eddjieyjar","name:am":"\u134a\u1302","name:it":"Figi","name:vi":"Fiji","name:ml":"\u0d2b\u0d3f\u0d1c\u0d3f","name:rw":"Fiji","name:pl":"Fid\u017ci","name:mk":"\u0424\u0438\u045f\u0438","name:af":"Fidji","name:zu":"IFiji","name:mn":"\u0424\u0438\u0436\u0438","name:si":"\u0dc6\u0dd3\u0da2\u0dd2","name:ff":"Fiiji","kind_detail":"2","name:hi":"\u092b\u093c\u093f\u091c\u0940","id":-571747,"name:zh-min-nan":"Fiji","name:fr":"Fidji","name:zh-yue":"\u6590\u6fdf","name:fy":"Fidzjy","name:vo":"Ficiyu\u00e4ns","name:zh":"\u6590\u6fdf","name:so":"Fiji","name:sm":"Fiti","name:sl":"Fid\u017ei","name:nl":"Fiji","name:ja":"\u30d5\u30a3\u30b8\u30fc","name:nn":"Fiji","name:sh":"Fid\u017ei","name:sg":"Fidy\u00efi","name:na":"Bidji","name:se":"Fi\u017ei","name:ne":"\u092b\u093f\u091c\u0940","name:sa":"\u092b\u093f\u091c\u0940","name:bs":"Fid\u017ei","name:yi":"\u05e4\u05d9\u05d3\u05d6\u05e9\u05d9","name:bn":"\u09ab\u09bf\u099c\u09bf","name:bo":"\u0f67\u0fa5\u0f72\u0f0b\u0f47\u0f72\u0f0d","name:sk":"Fid\u017ei","name:br":"Fidji","name:no":"Fiji","name:ru":"\u0424\u0438\u0434\u0436\u0438","name:sv":"Fiji","name:su":"Fiji","name:bg":"\u0424\u0438\u0434\u0436\u0438","name:wo":"Fiiji","name:sr":"\u0424\u0438\u045f\u0438","osm_relation":true,"name:sq":"Fixhi","name:ga":"Fids\u00ed","name:gd":"F\u00ecdi","name:yo":"F\u00edj\u00ec","name:ht":"Fidji","name:jv":"Fiji","name:gl":"Fidxi - Viti","name:fa":"\u0641\u06cc\u062c\u06cc","maritime_boundary":true,"name:gv":"Fiji","name:fi":"Fid\u017ei"},"arcs":[0]},{"type":"MultiLineString","properties":{"kind":"region","name":"Eastern","sort_rank":256,"kind_detail":"4","min_zoom":8.0,"source":"openstreetmap.org","maritime_boundary":true,"id":-4632580,"osm_relation":true},"arcs":[[1],[2]]}]},"roads":{"type":"GeometryCollection","geometries":[]},"earth":{"type":"GeometryCollection","geometries":[{"type":"MultiPolygon","properties":{"sort_rank":10,"source":"naturalearthdata.com","min_zoom":0.0,"kind":"earth","area":16504620932},"arcs":[[[12]],[[13]],[[14]],[[15]]]}]},"landuse":{"type":"GeometryCollection","geometries":[]}},"type":"Topology","transform":{"translate":[178.59375,-19.3111433551],"scale":[0.0003433228,0.0003252955]},"arcs":[[[4096,0],[0,4096]],[[702,4096],[-29,-999],[-673,-259]],[[4096,0],[0,4096]],[[2146,4096],[1950,0],[0,-678],[0,-1533],[0,-1533],[0,-352],[-4096,0],[0,3628],[56,57],[147,75],[28,20],[34,34],[28,42],[12,42],[-2,29],[2,44],[6,20],[25,42],[7,22],[-18,0],[-6,-15],[-12,-21],[-15,-19],[-18,-7],[-31,3],[-8,8],[-1,13],[-11,17],[-31,37],[-15,25],[1724,0],[-3,-76],[12,-88],[13,-22],[26,8],[8,21],[-8,62],[12,33],[14,-52],[19,-36],[55,-70],[18,-37],[22,-84],[29,-37],[86,-53],[37,120],[-7,166],[-44,83],[-26,29],[-18,33]],[[3660,2245],[-57,-26],[7,-34],[58,-33],[22,-31],[32,-23],[2,-53],[30,-51],[53,12],[3,63],[56,48],[-10,34],[-14,0],[-41,-19],[-20,24],[52,43],[32,30],[70,17],[22,37],[-12,15],[-14,22],[-46,-5],[-115,-27],[-110,-43]],[[3420,479],[18,-47],[-14,6],[-33,9],[-15,6],[-10,-24],[-1,-5],[-5,-2],[-21,-11],[5,-27],[12,-12],[42,-7],[34,3],[87,22],[-13,49],[-10,62],[-16,54],[-32,24],[-61,-15],[4,-38],[29,-47]],[[343,4055],[-18,0],[-6,-15],[-12,-21],[-15,-19],[-18,-7],[-31,3],[-8,8],[-1,13],[-11,17],[-31,37],[-15,25]],[[0,3628],[56,57],[147,75],[28,20],[34,34],[28,42],[12,42],[-2,29],[2,44],[6,20],[25,42],[7,22]],[[3448,579],[-61,-15],[4,-38],[29,-47],[18,-47],[-14,6],[-33,9],[-15,6],[-10,-24],[-1,-5],[-5,-2],[-21,-11],[5,-27],[12,-12],[42,-7],[34,3],[87,22],[-13,49],[-10,62],[-16,54],[-32,24]],[[2190,4034],[-26,29],[-18,33]],[[1901,4096],[-3,-76],[12,-88],[13,-22],[26,8],[8,21],[-8,62],[12,33],[14,-52],[19,-36],[55,-70],[18,-37],[22,-84],[29,-37],[86,-53],[37,120],[-7,166],[-44,83]],[[3931,2320],[-46,-5],[-115,-27],[-110,-43],[-57,-26],[7,-34],[58,-33],[22,-31],[32,-23],[2,-53],[30,-51],[53,12],[3,63],[56,48],[-10,34],[-14,0],[-41,-19],[-20,24],[52,43],[32,30],[70,17],[22,37],[-12,15],[-14,22]],[[3506,439],[13,-49],[-87,-22],[-34,-3],[-42,7],[-12,12],[-5,27],[21,11],[5,2],[1,5],[10,24],[15,-6],[33,-9],[14,-6],[-18,47],[-29,47],[-4,38],[61,15],[32,-24],[16,-54],[10,-62]],[[3781,2156],[20,-24],[41,19],[14,0],[10,-34],[-56,-48],[-3,-63],[-53,-12],[-30,51],[-2,53],[-32,23],[-22,31],[-58,33],[-7,34],[57,26],[110,43],[115,27],[46,5],[14,-22],[12,-15],[-22,-37],[-70,-17],[-32,-30],[-52,-43]],[[1901,4096],[245,0],[18,-33],[26,-29],[44,-83],[7,-166],[-37,-120],[-86,53],[-29,37],[-22,84],[-18,37],[-55,70],[-19,36],[-14,52],[-12,-33],[8,-62],[-8,-21],[-26,-8],[-13,22],[-12,88],[3,76]],[[0,3628],[0,468],[177,0],[15,-25],[31,-37],[11,-17],[1,-13],[8,-8],[31,-3],[18,7],[15,19],[12,21],[6,15],[18,0],[-7,-22],[-25,-42],[-6,-20],[-2,-44],[2,-29],[-12,-42],[-28,-42],[-34,-34],[-28,-20],[-147,-75],[-56,-57]]]}