{"objects":{"water":{"type":"GeometryCollection","geometries":[]},"buildings":{"type":"GeometryCollection","geometries":[]},"places":{"type":"GeometryCollection","geometries":[]},"transit":{"type":"GeometryCollection","geometries":[]},"pois":{"type":"GeometryCollection","geometries":[]},"boundaries":{"type":"GeometryCollection","geometries":[{"type":"LineString","properties":{"int_name":"Chukotka Autonomous Okrug","name:nl":"Tsjoekotka","name:ja":"\u30c1\u30e5\u30af\u30c1\u81ea\u6cbb\u7ba1\u533a","short_name":"\u0427\u0443\u043a\u043e\u0442\u043a\u0430","name:cs":"\u010cukotsk\u00fd autonomn\u00ed okruh","min_zoom":8.0,"name:it":"Circondario autonomo della \u010cukotka","name:uk":"\u0427\u0443\u043a\u043e\u0442\u0441\u044c\u043a\u0438\u0439 \u0430\u0432\u0442\u043e\u043d\u043e\u043c\u043d\u0438\u0439 \u043e\u043a\u0440\u0443\u0433","name:vi":"Khu t\u1ef1 tr\u1ecb Chukotka","name:sv":"Tjuktjien","name:pl":"Czukocki Okr\u0119g Autonomiczny","name:lt":"\u010ciuk\u010di\u0173 autonomin\u0117 apygarda","id":-151231,"name:ca":"Txukotka","kind":"region","name:en":"Chukotka Autonomous Okrug","name":"\u0427\u0443\u043a\u043e\u0442\u0441\u043a\u0438\u0439 \u0430\u0432\u0442\u043e\u043d\u043e\u043c\u043d\u044b\u0439 \u043e\u043a\u0440\u0443\u0433","sort_rank":256,"kind_detail":"4","name:fr":"Tchoukotka","name:de":"Autonomer Kreis der Tschuktschen","source":"openstreetmap.org","maritime_boundary":true,"osm_relation":true,"name:zh":"\u695a\u79d1\u5947\u81ea\u6cbb\u533a","name:es":"Chukotka"},"arcs":[0]}]},"roads":{"type":"GeometryCollection","geometries":[]},"earth":{"type":"GeometryCollection","geometries":[{"type":"Polygon","properties":{"sort_rank":10,"source":"naturalearthdata.com","kind":"earth","min_zoom":0.0,"id":4814},"arcs":[[1]]}]},"landuse":{"type":"GeometryCollection","geometries":[]}},"type":"Topology","transform":{"translate":[178.59375,67.609220605],"scale":[0.0003433228,0.0001293045]},"arcs":[[[4096,0],[0,4096]],[[4096,4096],[0,-603],[0,-3493],[-4096,0],[0,4096],[4096,0]]]}