{"objects":{"water":{"type":"GeometryCollection","geometries":[{"type":"MultiPolygon","properties":{"source":"naturalearthdata.com","kind":"ocean","area":1576712559132672,"sort_rank":200,"min_zoom":0.0,"id":1},"arcs":[[[2]],[[3]]]},{"type":"MultiLineString","properties":{"source":"naturalearthdata.com","kind":"ocean","sort_rank":205,"boundary":true,"min_zoom":0.0,"id":1411},"arcs":[[4],[5]]}]},"buildings":{"type":"GeometryCollection","geometries":[]},"places":{"type":"GeometryCollection","geometries":[{"type":"Point","properties":{"admin_level":"4","kind":"locality","name:short":"Santa Cruz","name":"Santa Cruz de Tenerife","name:lt":"Tenerif\u0117s Santa Krusas","kind_detail":"city","min_zoom":8.0,"source":"openstreetmap.org","name:fr":"Santa Cruz de T\u00e9n\u00e9rife","name:ru":"\u0421\u0430\u043d\u0442\u0430-\u041a\u0440\u0443\u0441-\u0434\u0435-\u0422\u0435\u043d\u0435\u0440\u0438\u0444\u0435","population":220902,"id":29015863,"name:ja":"\u30b5\u30f3\u30bf\u30fb\u30af\u30eb\u30b9\u30fb\u30c7\u30fb\u30c6\u30cd\u30ea\u30d5\u30a7"},"coordinates":[1810,517]},{"type":"Point","properties":{"admin_level":"8","kind":"locality","name:short":"Puerto Cruz","name":"Puerto de la Cruz","kind_detail":"town","source":"openstreetmap.org","min_zoom":8.0,"id":29187022,"population":32571},"coordinates":[937,371]},{"type":"Point","properties":{"admin_level":"8","kind":"locality","name":"San Crist\u00f3bal de La Laguna","name:lt":"San Kristobal de la Lag\u016bna","kind_detail":"city","source":"openstreetmap.org","min_zoom":8.0,"loc_name":"La Laguna","name:ru":"\u0421\u0430\u043d-\u041a\u0440\u0438\u0441\u0442\u043e\u0431\u0430\u043b\u044c-\u0434\u0435-\u041b\u0430-\u041b\u0430\u0433\u0443\u043d\u0430","id":1036673662,"population":31337},"coordinates":[1628,604]},{"type":"Point","properties":{"admin_level":"8","kind":"locality","name":"La Orotava","kind_detail":"town","source":"openstreetmap.org","min_zoom":8.0,"id":29187020,"population":18157},"coordinates":[1024,285]},{"type":"Point","properties":{"admin_level":"8","kind":"locality","name":"Realejo Alto","kind_detail":"town","source":"openstreetmap.org","min_zoom":8.0,"id":1287724247,"population":17424},"coordinates":[848,257]},{"type":"Point","properties":{"admin_level":"8","kind":"locality","name":"Candelaria","kind_detail":"town","source":"openstreetmap.org","min_zoom":8.0,"id":544739230,"population":13992},"coordinates":[1468,167]},{"type":"Point","properties":{"admin_level":"8","kind":"locality","name":"G\u00fc\u00edmar","kind_detail":"town","source":"openstreetmap.org","min_zoom":8.0,"id":610283731,"population":12331},"coordinates":[1355,35]},{"type":"Point","properties":{"admin_level":"8","kind":"locality","name":"Icod de los Vinos","kind_detail":"town","source":"openstreetmap.org","min_zoom":8.0,"id":278739440,"population":7201},"coordinates":[458,212]},{"type":"Point","properties":{"admin_level":"8","kind":"locality","name":"La Matanza de Acentejo","kind_detail":"town","source":"openstreetmap.org","min_zoom":8.0,"id":1199947061,"population":5145},"coordinates":[1231,486]},{"type":"Point","properties":{"admin_level":"8","kind":"locality","name":"Tegueste","kind_detail":"town","source":"openstreetmap.org","min_zoom":8.0,"id":282200277,"population":3916},"coordinates":[1556,728]},{"type":"Point","properties":{"admin_level":"8","kind":"locality","name":"Buenavista del Norte","kind_detail":"town","source":"openstreetmap.org","min_zoom":8.0,"id":314028800,"population":3854},"coordinates":[69,225]},{"type":"Point","properties":{"admin_level":"8","kind":"locality","name":"Tacoronte","kind_detail":"town","source":"openstreetmap.org","min_zoom":8.0,"id":554814283,"population":3692},"coordinates":[1343,586]},{"type":"Point","properties":{"admin_level":"8","kind":"locality","name":"Santa \u00darsula","kind_detail":"town","source":"openstreetmap.org","min_zoom":8.0,"id":554797748,"population":3650},"coordinates":[1116,402]},{"type":"Point","properties":{"admin_level":"8","kind":"locality","name":"La Victoria de Acentejo","kind_detail":"town","source":"openstreetmap.org","min_zoom":8.0,"id":554808715,"population":2407},"coordinates":[1185,434]}]},"transit":{"type":"GeometryCollection","geometries":[]},"pois":{"type":"GeometryCollection","geometries":[{"type":"Point","properties":{"kind":"nature_reserve","protect_class":"6","area":185750000,"source":"openstreetmap.org","min_zoom":8.52,"tier":2,"ref":"T-12","id":-2629741,"osm_relation":true,"name":"Parque Rural de Anaga"},"coordinates":[1798,763]},{"type":"Point","properties":{"kind":"nature_reserve","protect_class":"6","area":103642000,"source":"openstreetmap.org","min_zoom":8.94,"tier":2,"ref":"T-13","id":-2625523,"osm_relation":true,"name":"Parque Rural de Teno"},"coordinates":[76,4]}]},"boundaries":{"type":"GeometryCollection","geometries":[{"type":"LineString","properties":{"name:kg":"Espania","name:ty":"Paniora","name:ka":"\u10d4\u10e1\u10de\u10d0\u10dc\u10d4\u10d7\u10d8","name:ko":"\uc2a4\ud398\uc778","name:cv":"\u0418\u0441\u043f\u0430\u043d\u0438","name:cu":"\u0407\u0441\u043f\u0430\u043d\u0457\ua657","name:kl":"Spania","name:cs":"\u0160pan\u011blsko","name:tt":"\u0418\u0441\u043f\u0430\u043d\u0438\u044f","name:co":"Spagna","name:kv":"\u0418\u0441\u043f\u0430\u043d\u0438\u044f","name:ku":"Spanya","name:to":"Sepeni","name:tl":"Espanya","name:ce":"\u0418\u0441\u043f\u0430\u043d\u0438","name:ta":"\u0b8e\u0b9a\u0bc1\u0baa\u0bcd\u0baa\u0bbe\u0ba9\u0bbf\u0baf\u0bbe","name:tg":"\u0418\u0441\u043f\u043e\u043d\u0438\u0451","name:ca":"Espanya","name:te":"\u0c38\u0c4d\u0c2a\u0c46\u0c2f\u0c3f\u0c28\u0c4d","name:cy":"Sbaen","name:qu":"Ispa\u00f1a","name:da":"Spanien","name:de":"Spanien","name:dz":"\u0f66\u0f72\u0f54\u0f71\u0f7a\u0f53\u0f0b","source":"openstreetmap.org","name:kn":"\u0cb8\u0ccd\u0caa\u0cc7\u0ca8\u0ccd","name:dv":"\u0787\u07a8\u0790\u07b0\u0795\u07ac\u0787\u07a8\u0782\u07b0","name:km":"\u17a2\u17c1\u179f\u17d2\u1794\u17c9\u17b6\u1789","name:lv":"Sp\u0101nija","name:lt":"Ispanija","name:uz":"Ispaniya","name:kk":"\u0418\u0441\u043f\u0430\u043d\u0438\u044f","name:ur":"\u06c1\u0633\u067e\u0627\u0646\u06cc\u06c1","name:lb":"Spuenien","name:la":"Hispania","name:uk":"\u0406\u0441\u043f\u0430\u043d\u0456\u044f","name:ug":"Ispaniye","name:li":"Spanje","name:ln":"Espania","name:el":"\u0399\u03c3\u03c0\u03b1\u03bd\u03af\u03b1","name:eo":"Hispanujo","name:en":"Spain","name":"Espa\u00f1a","name:tk":"Ispani\u00fda","name:ee":"Spain","name:th":"\u0e1b\u0e23\u0e30\u0e40\u0e17\u0e28\u0e2a\u0e40\u0e1b\u0e19","name:eu":"Espainia","name:et":"Hispaania","name:ay":"Ispa\u00f1a","name:rm":"Spagna","name:rn":"Esipanye","name:az":"\u0130spaniya","name:ie":"Hispania","name:id":"Spanyol","name:ig":"Spain","name:ik":"Spa\u00f1a","name:ar":"\u0625\u0633\u0628\u0627\u0646\u064a\u0627","name:io":"Hispania","name:is":"Sp\u00e1nn","name:am":"\u12a5\u1235\u1353\u1295\u12eb","name:it":"Spagna","name:an":"Espanya","name:ru":"\u0418\u0441\u043f\u0430\u043d\u0438\u044f","name:rw":"Esipanye","name:af":"Spanje","name:zu":"ISpeyini","kind_detail":"2","name:za":"Sihbanhyaz","name:zh-yue":"\u897f\u73ed\u7259","name:zh":"\u897f\u73ed\u7259","name:so":"Isbania","name:sm":"Spania","name:sl":"\u0160panija","name:sk":"\u0160panielsko","name:ja":"\u30b9\u30da\u30a4\u30f3","name:sh":"\u0160panija","name:se":"Sp\u00e1nia","name:sc":"Ispagna","name:br":"Spagn","name:bs":"\u0160panija","name:bn":"\u09b8\u09cd\u09aa\u09c7\u09a8","name:bo":"\u0f5e\u0f72\u0f0b\u0f54\u0f53\u0f0b\u0f61\u0f0d","name:bi":"Spain","name:sw":"Hispania","name:be":"\u0406\u0441\u043f\u0430\u043d\u0456\u044f","name:su":"Spanyol","name:bg":"\u0418\u0441\u043f\u0430\u043d\u0438\u044f","name:ss":"Sipeyini","name:ba":"\u0418\u0441\u043f\u0430\u043d\u0438\u044f","name:sq":"Spanja","name:jv":"Spanyol","name:sa":"\u0938\u094d\u092a\u0947\u0928\u094d","name:ia":"Espania","name:pt":"Espanha","name:ps":"\u0627\u0633\u067e\u0627\u0646\u06cc\u0627","name:oc":"Espanha","min_zoom":8.0,"name:ro":"Spania","name:zh-min-nan":"Se-pan-g\u00e2","name:os":"\u0418\u0441\u043f\u0430\u043d\u0438","name:or":"\u0b38\u0b4d\u0b2a\u0b47\u0b28","name:pl":"Hiszpania","name:st":"Spain","sort_rank":262,"name:sr":"\u0428\u043f\u0430\u043d\u0438\u0458\u0430","osm_relation":true,"name:pa":"\u0a38\u0a2a\u0a47\u0a28","name:tr":"\u0130spanya","name:hi":"\u0938\u094d\u092a\u0947\u0928","name:sv":"Spanien","name:he":"\u05e1\u05e4\u05e8\u05d3","name:hy":"\u053b\u057d\u057a\u0561\u0576\u056b\u0561","name:ht":"Espay","name:hu":"Spanyolorsz\u00e1g","name:hr":"\u0160panjolska","kind":"country","name:ts":"Spaniya","name:yi":"\u05e9\u05e4\u05d0\u05e0\u05d9\u05e2","name:iu":"\u14ef\u1438\u1403\u14d0","name:yo":"Sp\u00e9\u00ecn","name:mt":"Spanja","alt_name:eo":"Hispanio","name:ms":"Sepanyol","name:mr":"\u0938\u094d\u092a\u0947\u0928","name:my":"\u1005\u1015\u102d\u1014\u103a\u1014\u102d\u102f\u1004\u103a\u1004\u1036","official_name":"Reino de Espa\u00f1a","name:kw":"Spayn","name:mg":"Espaina","name:vi":"T\u00e2y Ban Nha","name:ml":"\u0d38\u0d4d\u0d2a\u0d46\u0d2f\u0d3f\u0d7b","name:mn":"\u0418\u0441\u043f\u0430\u043d\u0438","name:mi":"P\u0101niora","id":-1311341,"name:mk":"\u0428\u043f\u0430\u043d\u0438\u0458\u0430","name:vo":"Spany\u00e4n","name:fa":"\u0627\u0633\u067e\u0627\u0646\u06cc\u0627","name:fi":"Espanja","name:ky":"\u0418\u0441\u043f\u0430\u043d\u0438\u044f","name:fo":"Spania","name:fr":"Espagne","name:fy":"Spanje","int_name":"Spain","name:nl":"Spanje","name:nn":"Spania","name:no":"Spania","name:na":"Pain","name:ne":"\u0938\u094d\u092a\u0947\u0928","name:wa":"Espagne","name:wo":"Ispaa\u00f1","name:nv":"Dib\u00e9 Din\u00ed\u00ed Bik\u00e9yah","name:ga":"An Sp\u00e1inn","name:gd":"An Sp\u00e0inn","maritime_boundary":true,"name:gv":"Yn Spaainey","name:gu":"\u0ab8\u0acd\u0aaa\u0ac7\u0aa8"},"arcs":[0]},{"type":"LineString","properties":{"name:pt":"Can\u00e1rias","name:sl":"Kanarski otoki","name:nl":"Canarische Eilanden","name:ar":"\u062c\u0632\u0631 \u0627\u0644\u0643\u0646\u0627\u0631\u064a","min_zoom":8.0,"name:it":"Canarie","name:ru":"\u041a\u0430\u043d\u0430\u0440\u0441\u043a\u0438\u0435 \u043e\u0441\u0442\u0440\u043e\u0432\u0430","name:sv":"Kanarie\u00f6arna","name:pl":"Wyspy Kanaryjskie","name:hr":"Kanari","id":-349048,"name:ca":"Can\u00e0ries","name:el":"\u039a\u03b1\u03bd\u03ac\u03c1\u03b9\u03b1 \u039d\u03b7\u03c3\u03b9\u03ac","kind":"region","name:en":"Canary Islands","name":"Canarias","sort_rank":256,"kind_detail":"4","name:fr":"\u00celes Canaries","name:de":"Kanarische Inseln","alt_name:fr":"Canaries","source":"openstreetmap.org","maritime_boundary":true,"osm_relation":true,"name:be":"\u041a\u0430\u043d\u0430\u0440\u0441\u043a\u0456\u044f \u0430\u0441\u0442\u0440\u0430\u0432\u044b"},"arcs":[1]}]},"roads":{"type":"GeometryCollection","geometries":[{"type":"LineString","properties":{"sort_rank":355,"source":"openstreetmap.org","min_zoom":8.0,"name":"Morrojable (Fuerteventura) - Santa Cruz (Tenerife)","kind":"ferry"},"arcs":[6]},{"type":"LineString","properties":{"bus_network":null,"sort_rank":380,"kind_detail":"primary","kind":"major_road","source":"openstreetmap.org","min_zoom":8.0,"bus_shield_text":"076","landuse_kind":"nature_reserve","ref":"TF-12"},"arcs":[7]},{"type":"LineString","properties":{"bus_network":null,"sort_rank":380,"kind_detail":"primary","kind":"major_road","source":"openstreetmap.org","min_zoom":8.0,"bus_shield_text":"610","ref":"TF-13"},"arcs":[8]},{"type":"LineString","properties":{"bus_network":null,"sort_rank":380,"kind_detail":"primary","kind":"major_road","source":"openstreetmap.org","min_zoom":8.0,"bus_shield_text":"075","landuse_kind":"nature_reserve","ref":"TF-12"},"arcs":[9]},{"type":"LineString","properties":{"bus_network":null,"sort_rank":380,"kind_detail":"primary","kind":"major_road","source":"openstreetmap.org","min_zoom":8.0,"bus_shield_text":"107","ref":"TF-82"},"arcs":[10]},{"type":"MultiLineString","properties":{"bus_network":null,"sort_rank":380,"kind_detail":"primary","kind":"major_road","source":"openstreetmap.org","min_zoom":8.0,"bus_shield_text":"050","ref":"TF-16"},"arcs":[[11],[12],[13]]},{"type":"LineString","properties":{"kind":"major_road","sort_rank":380,"kind_detail":"primary","bus_network":null,"source":"openstreetmap.org","min_zoom":8.0,"bus_shield_text":"051","loc_name":"Variante de Tejina","ref":"TF-13","id":218625592},"arcs":[14]},{"type":"MultiLineString","properties":{"bus_network":null,"sort_rank":380,"kind_detail":"primary","kind":"major_road","source":"openstreetmap.org","min_zoom":8.0,"bus_shield_text":"373","ref":"TF-21"},"arcs":[[15],[16]]},{"type":"MultiLineString","properties":{"source":"openstreetmap.org","kind":"major_road","sort_rank":381,"kind_detail":"trunk","ref":"TF-5","min_zoom":8.0},"arcs":[[17],[18],[19]]},{"type":"LineString","properties":{"source":"openstreetmap.org","kind":"major_road","sort_rank":380,"kind_detail":"primary","ref":"TF-28","min_zoom":8.0,"id":409321818},"arcs":[20]},{"type":"LineString","properties":{"kind":"major_road","sort_rank":380,"kind_detail":"primary","bus_network":null,"source":"openstreetmap.org","min_zoom":8.0,"bus_shield_text":"347","ref":"TF-21","id":104013762},"arcs":[21]},{"type":"LineString","properties":{"bus_network":null,"sort_rank":380,"kind_detail":"primary","kind":"major_road","source":"openstreetmap.org","min_zoom":8.0,"bus_shield_text":"103","ref":"TF-31"},"arcs":[22]},{"type":"LineString","properties":{"kind":"major_road","sort_rank":380,"kind_detail":"primary","bus_network":null,"source":"openstreetmap.org","min_zoom":8.0,"bus_shield_text":"070","loc_name":"Carretera de Tejina","ref":"TF-13","id":218625595},"arcs":[23]},{"type":"LineString","properties":{"kind":"major_road","network":null,"sort_rank":380,"kind_detail":"primary","bus_network":null,"source":"openstreetmap.org","min_zoom":8.0,"bus_shield_text":"934","shield_text":"28","ref":"TF-28","id":217937788},"arcs":[24]},{"type":"MultiLineString","properties":{"source":"openstreetmap.org","kind":"major_road","sort_rank":380,"kind_detail":"primary","ref":"TF-21","min_zoom":8.0},"arcs":[[25],[26],[27],[28]]},{"type":"MultiLineString","properties":{"bus_network":null,"sort_rank":380,"kind_detail":"primary","kind":"major_road","source":"openstreetmap.org","min_zoom":8.0,"bus_shield_text":"050","loc_name":"Variante de Tejina","ref":"TF-13"},"arcs":[[29],[30]]},{"type":"LineString","properties":{"bus_network":null,"network":null,"sort_rank":380,"kind_detail":"primary","kind":"major_road","source":"openstreetmap.org","min_zoom":8.0,"bus_shield_text":"019","shield_text":"28","ref":"TF-28"},"arcs":[31]},{"type":"LineString","properties":{"bus_network":null,"sort_rank":380,"kind_detail":"primary","kind":"major_road","source":"openstreetmap.org","min_zoom":8.0,"bus_shield_text":"946","landuse_kind":"nature_reserve","ref":"TF-12"},"arcs":[32]},{"type":"MultiLineString","properties":{"source":"openstreetmap.org","kind":"major_road","landuse_kind":"nature_reserve","sort_rank":380,"kind_detail":"primary","ref":"TF-24","min_zoom":8.0},"arcs":[[33],[34],[35],[36],[37],[38],[39]]},{"type":"MultiLineString","properties":{"source":"openstreetmap.org","kind":"major_road","sort_rank":380,"kind_detail":"primary","ref":"TF-31","min_zoom":8.0},"arcs":[[40],[41],[42],[43]]},{"type":"MultiLineString","properties":{"source":"openstreetmap.org","kind":"major_road","sort_rank":380,"kind_detail":"primary","loc_name":"Variante de Tejina","ref":"TF-13","min_zoom":8.0},"arcs":[[44],[45],[46],[47],[48],[49],[50],[51]]},{"type":"LineString","properties":{"kind":"major_road","sort_rank":380,"kind_detail":"primary","bus_network":null,"source":"openstreetmap.org","min_zoom":8.0,"bus_shield_text":"947","landuse_kind":"nature_reserve","ref":"TF-12","id":93646233},"arcs":[52]},{"type":"MultiLineString","properties":{"source":"openstreetmap.org","kind":"major_road","sort_rank":380,"kind_detail":"primary","ref":"TF-13","min_zoom":8.0},"arcs":[[53],[54],[55],[56],[57],[58],[59],[60],[61],[62],[63],[64],[65],[66],[67]]},{"type":"LineString","properties":{"bus_network":null,"network":null,"sort_rank":380,"kind_detail":"primary","kind":"major_road","source":"openstreetmap.org","min_zoom":8.0,"bus_shield_text":"933","shield_text":"28","ref":"TF-28"},"arcs":[68]},{"type":"LineString","properties":{"sort_rank":355,"source":"openstreetmap.org","kind":"ferry","min_zoom":8.0,"name":"Santa Cruz (Tenerife) - Las Palmas de Gran Canaria(Gran Canaria)"},"arcs":[69]},{"type":"LineString","properties":{"bus_network":null,"sort_rank":380,"kind_detail":"primary","kind":"major_road","source":"openstreetmap.org","min_zoom":8.0,"bus_shield_text":"011","ref":"TF-16"},"arcs":[70]},{"type":"MultiLineString","properties":{"source":"openstreetmap.org","bus_network":null,"bus_shield_text":"903","sort_rank":380,"kind_detail":"primary","min_zoom":8.0,"kind":"major_road"},"arcs":[[71],[72]]},{"type":"LineString","properties":{"bus_network":null,"sort_rank":380,"kind_detail":"primary","kind":"major_road","source":"openstreetmap.org","min_zoom":8.0,"bus_shield_text":"325","landuse_kind":"nature_reserve","ref":"TF-82"},"arcs":[73]},{"type":"MultiLineString","properties":{"source":"openstreetmap.org","kind":"major_road","sort_rank":380,"kind_detail":"primary","ref":"TF-42","min_zoom":8.0},"arcs":[[74],[75],[76],[77]]},{"type":"MultiLineString","properties":{"kind":"major_road","network":null,"sort_rank":380,"kind_detail":"primary","source":"openstreetmap.org","min_zoom":8.0,"shield_text":"28","ref":"TF-28"},"arcs":[[78],[79],[80],[81],[82],[83],[84],[85],[86],[87]]},{"type":"MultiLineString","properties":{"bus_network":null,"sort_rank":380,"kind_detail":"primary","kind":"major_road","source":"openstreetmap.org","min_zoom":8.0,"bus_shield_text":"070","ref":"TF-12"},"arcs":[[88],[89],[90]]},{"type":"LineString","properties":{"kind":"major_road","sort_rank":380,"kind_detail":"primary","bus_network":null,"source":"openstreetmap.org","min_zoom":8.0,"bus_shield_text":"110","ref":"TF-4","id":79057046},"arcs":[91]},{"type":"LineString","properties":{"bus_network":null,"network":null,"sort_rank":380,"kind_detail":"primary","kind":"major_road","source":"openstreetmap.org","min_zoom":8.0,"bus_shield_text":"123","shield_text":"28","ref":"TF-28"},"arcs":[92]},{"type":"MultiLineString","properties":{"kind":"major_road","sort_rank":380,"kind_detail":"primary","bus_network":"ubn","source":"openstreetmap.org","min_zoom":8.0,"bus_shield_text":"910","ref":"TF-11"},"arcs":[[93],[94]]},{"type":"LineString","properties":{"bus_network":null,"sort_rank":380,"kind_detail":"primary","kind":"major_road","source":"openstreetmap.org","min_zoom":8.0,"bus_shield_text":"325","ref":"TF-42"},"arcs":[95]},{"type":"LineString","properties":{"kind":"major_road","sort_rank":380,"kind_detail":"primary","bus_network":null,"source":"openstreetmap.org","min_zoom":8.0,"bus_shield_text":"910","ref":"TF-11","id":159526602},"arcs":[96]},{"type":"LineString","properties":{"bus_network":null,"network":null,"sort_rank":381,"kind_detail":"trunk","kind":"major_road","source":"openstreetmap.org","min_zoom":8.0,"bus_shield_text":"110","shield_text":"4","ref":"TF-4"},"arcs":[97]},{"type":"LineString","properties":{"bus_network":null,"sort_rank":380,"kind_detail":"primary","kind":"major_road","source":"openstreetmap.org","min_zoom":8.0,"bus_shield_text":"910","ref":"TF-4"},"arcs":[98]},{"type":"MultiLineString","properties":{"bus_network":null,"sort_rank":381,"kind_detail":"trunk","kind":"major_road","source":"openstreetmap.org","min_zoom":8.0,"bus_shield_text":"910","ref":"TF-11"},"arcs":[[99],[100],[101]]},{"type":"MultiLineString","properties":{"source":"openstreetmap.org","bus_network":null,"bus_shield_text":"018","sort_rank":380,"kind_detail":"primary","min_zoom":8.0,"kind":"major_road"},"arcs":[[102],[103]]},{"type":"LineString","properties":{"kind":"major_road","sort_rank":380,"kind_detail":"primary","bus_network":null,"source":"openstreetmap.org","min_zoom":8.0,"bus_shield_text":"106","id":246291929},"arcs":[104]},{"type":"MultiLineString","properties":{"bus_network":null,"sort_rank":380,"kind_detail":"primary","kind":"major_road","source":"openstreetmap.org","min_zoom":8.0,"bus_shield_text":"325","ref":"TF-82"},"arcs":[[105],[106],[107],[108],[109]]},{"type":"MultiLineString","properties":{"bus_network":null,"sort_rank":380,"kind_detail":"primary","kind":"major_road","source":"openstreetmap.org","min_zoom":8.0,"bus_shield_text":"024","ref":"TF-16"},"arcs":[[110],[111],[112]]},{"type":"MultiLineString","properties":{"bus_network":null,"sort_rank":380,"kind_detail":"primary","kind":"major_road","source":"openstreetmap.org","min_zoom":8.0,"bus_shield_text":"106","ref":"TF-42"},"arcs":[[113],[114],[115],[116],[117]]},{"type":"LineString","properties":{"kind":"major_road","sort_rank":380,"kind_detail":"primary","bus_network":null,"source":"openstreetmap.org","min_zoom":8.0,"bus_shield_text":"071","ref":"TF-13","id":239074863},"arcs":[118]},{"type":"LineString","properties":{"sort_rank":355,"source":"openstreetmap.org","min_zoom":8.0,"name":"Santa Cruz de La Palma (La Palma) - Santa Cruz (Tenerife)","kind":"ferry"},"arcs":[119]},{"type":"LineString","properties":{"bus_network":null,"sort_rank":380,"kind_detail":"primary","kind":"major_road","source":"openstreetmap.org","min_zoom":8.0,"bus_shield_text":"077","landuse_kind":"nature_reserve","ref":"TF-12"},"arcs":[120]},{"type":"LineString","properties":{"bus_network":null,"network":null,"sort_rank":380,"kind_detail":"primary","kind":"major_road","source":"openstreetmap.org","min_zoom":8.0,"bus_shield_text":"033","shield_text":"28","ref":"TF-28"},"arcs":[121]},{"type":"MultiLineString","properties":{"bus_network":null,"sort_rank":380,"kind_detail":"primary","kind":"major_road","source":"openstreetmap.org","min_zoom":8.0,"bus_shield_text":"051","ref":"TF-16"},"arcs":[[122],[123],[124],[125],[126],[127]]},{"type":"MultiLineString","properties":{"bus_network":null,"sort_rank":380,"kind_detail":"primary","kind":"major_road","source":"openstreetmap.org","min_zoom":8.0,"bus_shield_text":"903","ref":"TF-29"},"arcs":[[128],[129],[130]]},{"type":"MultiLineString","properties":{"bus_network":null,"sort_rank":380,"kind_detail":"primary","kind":"major_road","source":"openstreetmap.org","min_zoom":8.0,"bus_shield_text":"050","loc_name":"Carretera de Tejina","ref":"TF-13"},"arcs":[[131],[132],[133],[134],[135],[136],[137],[138],[139],[140],[141],[142],[143],[144],[145],[146],[147]]},{"type":"LineString","properties":{"bus_network":null,"sort_rank":380,"kind_detail":"primary","kind":"major_road","source":"openstreetmap.org","min_zoom":8.0,"bus_shield_text":"073","landuse_kind":"nature_reserve","ref":"TF-12"},"arcs":[148]},{"type":"LineString","properties":{"kind":"major_road","sort_rank":380,"kind_detail":"primary","bus_network":null,"source":"openstreetmap.org","min_zoom":8.0,"bus_shield_text":"906","id":216737272},"arcs":[149]},{"type":"MultiLineString","properties":{"bus_network":null,"network":null,"sort_rank":380,"kind_detail":"primary","kind":"major_road","source":"openstreetmap.org","min_zoom":8.0,"bus_shield_text":"124","shield_text":"28","ref":"TF-28"},"arcs":[[150],[151]]},{"type":"MultiLineString","properties":{"bus_network":null,"sort_rank":380,"kind_detail":"primary","kind":"major_road","source":"openstreetmap.org","min_zoom":8.0,"bus_shield_text":"050","ref":"TF-13"},"arcs":[[152],[153],[154],[155],[156],[157],[158],[159],[160]]},{"type":"LineString","properties":{"kind":"major_road","sort_rank":380,"kind_detail":"primary","bus_network":null,"source":"openstreetmap.org","min_zoom":8.0,"bus_shield_text":"051","loc_name":"Carretera de Tejina","ref":"TF-13","id":198143264},"arcs":[161]},{"type":"MultiLineString","properties":{"bus_network":null,"network":null,"sort_rank":380,"kind_detail":"primary","kind":"major_road","source":"openstreetmap.org","min_zoom":8.0,"bus_shield_text":"121","shield_text":"28","ref":"TF-28"},"arcs":[[162],[163]]},{"type":"MultiLineString","properties":{"source":"openstreetmap.org","kind":"major_road","landuse_kind":"national_park","sort_rank":380,"kind_detail":"primary","ref":"TF-24","min_zoom":8.0},"arcs":[[164],[165]]},{"type":"MultiLineString","properties":{"sort_rank":380,"kind_detail":"primary","min_zoom":8.0,"kind":"major_road","source":"openstreetmap.org"},"arcs":[[166],[167],[168]]},{"type":"MultiLineString","properties":{"bus_network":null,"sort_rank":380,"kind_detail":"primary","kind":"major_road","source":"openstreetmap.org","min_zoom":8.0,"bus_shield_text":"021","ref":"TF-16"},"arcs":[[169],[170],[171],[172],[173]]},{"type":"MultiLineString","properties":{"kind":"major_road","network":null,"sort_rank":381,"kind_detail":"trunk","source":"openstreetmap.org","min_zoom":8.0,"shield_text":"4","ref":"TF-4"},"arcs":[[174],[175]]},{"type":"MultiLineString","properties":{"kind":"major_road","sort_rank":381,"kind_detail":"trunk","bus_network":"ubn","source":"openstreetmap.org","min_zoom":8.0,"bus_shield_text":"910","ref":"TF-11"},"arcs":[[176],[177]]},{"type":"MultiLineString","properties":{"bus_network":null,"network":null,"sort_rank":380,"kind_detail":"primary","kind":"major_road","source":"openstreetmap.org","min_zoom":8.0,"bus_shield_text":"127","shield_text":"28","ref":"TF-28"},"arcs":[[178],[179],[180],[181],[182]]},{"type":"LineString","properties":{"kind":"major_road","sort_rank":380,"kind_detail":"primary","bus_network":null,"source":"openstreetmap.org","min_zoom":8.0,"bus_shield_text":"052","loc_name":"Carretera de Tejina","ref":"TF-13","id":25489501},"arcs":[183]},{"type":"LineString","properties":{"bus_network":null,"sort_rank":380,"kind_detail":"primary","kind":"major_road","source":"openstreetmap.org","min_zoom":8.0,"bus_shield_text":"345","landuse_kind":"nature_reserve","ref":"TF-21"},"arcs":[184]},{"type":"LineString","properties":{"kind":"major_road","network":null,"sort_rank":380,"kind_detail":"primary","bus_network":null,"source":"openstreetmap.org","min_zoom":8.0,"bus_shield_text":"937","shield_text":"28","ref":"TF-28","id":75330402},"arcs":[185]},{"type":"LineString","properties":{"kind":"major_road","sort_rank":380,"kind_detail":"primary","bus_network":null,"source":"openstreetmap.org","min_zoom":8.0,"bus_shield_text":"035","ref":"TF-612","id":25368689},"arcs":[186]},{"type":"LineString","properties":{"source":"openstreetmap.org","bus_network":null,"bus_shield_text":"126","sort_rank":380,"kind_detail":"primary","min_zoom":8.0,"kind":"major_road"},"arcs":[187]},{"type":"LineString","properties":{"bus_network":null,"sort_rank":380,"kind_detail":"primary","kind":"major_road","source":"openstreetmap.org","min_zoom":8.0,"bus_shield_text":"946","ref":"TF-12"},"arcs":[188]},{"type":"LineString","properties":{"source":"openstreetmap.org","kind":"major_road","sort_rank":380,"kind_detail":"primary","ref":"TF-61","min_zoom":8.0},"arcs":[189]},{"type":"LineString","properties":{"kind":"major_road","sort_rank":380,"kind_detail":"primary","source":"openstreetmap.org","min_zoom":8.0,"landuse_kind":"nature_reserve","loc_name":"Variante de Tejina","ref":"TF-13"},"arcs":[190]},{"type":"LineString","properties":{"bus_network":null,"sort_rank":380,"kind_detail":"primary","kind":"major_road","source":"openstreetmap.org","min_zoom":8.0,"bus_shield_text":"073","ref":"TF-12"},"arcs":[191]},{"type":"LineString","properties":{"bus_network":null,"sort_rank":380,"kind_detail":"primary","kind":"major_road","source":"openstreetmap.org","min_zoom":8.0,"bus_shield_text":"070","ref":"TF-13"},"arcs":[192]},{"type":"LineString","properties":{"bus_network":null,"network":null,"sort_rank":380,"kind_detail":"primary","kind":"major_road","source":"openstreetmap.org","min_zoom":8.0,"bus_shield_text":"055","shield_text":"28","ref":"TF-28"},"arcs":[193]},{"type":"MultiLineString","properties":{"bus_network":null,"sort_rank":380,"kind_detail":"primary","kind":"major_road","source":"openstreetmap.org","min_zoom":8.0,"bus_shield_text":"106","ref":"TF-5"},"arcs":[[194],[195],[196],[197],[198],[199]]},{"type":"MultiLineString","properties":{"kind":"highway","network":null,"sort_rank":383,"kind_detail":"motorway","source":"openstreetmap.org","min_zoom":8.0,"all_networks":[null],"shield_text":"2","ref":"TF-2","all_shield_texts":["2"]},"arcs":[[200],[201],[202],[203]]},{"type":"MultiLineString","properties":{"source":"openstreetmap.org","kind":"major_road","bus_shield_text":"910","sort_rank":380,"kind_detail":"primary","min_zoom":8.0,"bus_network":"ubn"},"arcs":[[204],[205]]},{"type":"MultiLineString","properties":{"source":"openstreetmap.org","bus_network":null,"bus_shield_text":"910","sort_rank":380,"kind_detail":"primary","min_zoom":8.0,"kind":"major_road"},"arcs":[[206],[207]]},{"type":"MultiLineString","properties":{"bus_network":null,"sort_rank":380,"kind_detail":"primary","kind":"major_road","source":"openstreetmap.org","min_zoom":8.0,"bus_shield_text":"345","ref":"TF-21"},"arcs":[[208],[209],[210],[211],[212],[213],[214],[215],[216],[217]]},{"type":"MultiLineString","properties":{"source":"openstreetmap.org","kind":"major_road","sort_rank":380,"kind_detail":"primary","ref":"TF-29","min_zoom":8.0},"arcs":[[218],[219],[220],[221]]},{"type":"MultiLineString","properties":{"bus_network":null,"sort_rank":380,"kind_detail":"primary","kind":"major_road","source":"openstreetmap.org","min_zoom":8.0,"bus_shield_text":"101","ref":"TF-31"},"arcs":[[222],[223]]},{"type":"LineString","properties":{"bus_network":null,"sort_rank":380,"kind_detail":"primary","kind":"major_road","source":"openstreetmap.org","min_zoom":8.0,"bus_shield_text":"342","landuse_kind":"national_park","ref":"TF-21"},"arcs":[224]},{"type":"LineString","properties":{"bus_network":null,"sort_rank":380,"kind_detail":"primary","kind":"major_road","source":"openstreetmap.org","min_zoom":8.0,"bus_shield_text":"355","ref":"TF-42"},"arcs":[225]},{"type":"LineString","properties":{"source":"openstreetmap.org","kind":"highway","sort_rank":383,"kind_detail":"motorway","ref":"TF-5","min_zoom":8.0,"id":452955357},"arcs":[226]},{"type":"MultiLineString","properties":{"source":"openstreetmap.org","kind":"major_road","sort_rank":380,"kind_detail":"primary","ref":"TF-16","min_zoom":8.0},"arcs":[[227],[228]]},{"type":"MultiLineString","properties":{"bus_network":null,"sort_rank":380,"kind_detail":"primary","kind":"major_road","source":"openstreetmap.org","min_zoom":8.0,"bus_shield_text":"020","ref":"TF-16"},"arcs":[[229],[230]]},{"type":"LineString","properties":{"kind":"major_road","sort_rank":380,"kind_detail":"primary","bus_network":null,"source":"openstreetmap.org","min_zoom":8.0,"bus_shield_text":"352","ref":"TF-21","id":27436568},"arcs":[231]},{"type":"MultiLineString","properties":{"source":"openstreetmap.org","kind":"major_road","sort_rank":380,"kind_detail":"primary","ref":"TF-4","min_zoom":8.0},"arcs":[[232],[233]]},{"type":"MultiLineString","properties":{"bus_network":null,"sort_rank":380,"kind_detail":"primary","kind":"major_road","source":"openstreetmap.org","min_zoom":8.0,"bus_shield_text":"062","ref":"TF-21"},"arcs":[[234],[235],[236]]},{"type":"LineString","properties":{"bus_network":null,"sort_rank":380,"kind_detail":"primary","kind":"major_road","source":"openstreetmap.org","min_zoom":8.0,"bus_shield_text":"348","landuse_kind":"national_park","ref":"TF-21"},"arcs":[237]},{"type":"MultiLineString","properties":{"bus_network":null,"sort_rank":380,"kind_detail":"primary","kind":"major_road","source":"openstreetmap.org","min_zoom":8.0,"bus_shield_text":"107","ref":"TF-42"},"arcs":[[238],[239],[240],[241],[242],[243],[244],[245],[246],[247],[248],[249],[250],[251],[252],[253],[254],[255],[256]]},{"type":"LineString","properties":{"kind":"major_road","sort_rank":380,"kind_detail":"primary","bus_network":null,"source":"openstreetmap.org","min_zoom":8.0,"bus_shield_text":"906","ref":"TF-4","id":200035700},"arcs":[257]},{"type":"LineString","properties":{"source":"openstreetmap.org","kind":"ferry","name":"Agaete (Gran Canaria) - Santa Cruz (Tenerife)","sort_rank":355,"is_bicycle_related":true,"min_zoom":8.0,"id":315439269},"arcs":[258]},{"type":"LineString","properties":{"source":"openstreetmap.org","kind":"major_road","sort_rank":380,"kind_detail":"primary","ref":"TF-12","min_zoom":8.0,"id":138274848},"arcs":[259]},{"type":"LineString","properties":{"bus_network":null,"sort_rank":380,"kind_detail":"primary","kind":"major_road","source":"openstreetmap.org","min_zoom":8.0,"bus_shield_text":"348","landuse_kind":"nature_reserve","ref":"TF-21"},"arcs":[260]},{"type":"LineString","properties":{"source":"openstreetmap.org","kind":"ferry","name":"Santa Cruz (Tenerife) - Huelva","sort_rank":355,"name:ar":"\u0633\u0627\u0646\u062a\u0627 \u0643\u0631\u0648\u0632 (\u062a\u064a\u0646\u064a\u0631\u064a\u0641\u064a) - \u0647\u0648\u064a\u0644\u0641\u0627","min_zoom":8.0},"arcs":[261]},{"type":"LineString","properties":{"kind":"highway","network":null,"sort_rank":383,"kind_detail":"motorway","source":"openstreetmap.org","min_zoom":8.0,"all_networks":[null],"shield_text":"11","ref":"TF-11","all_shield_texts":["11"]},"arcs":[262]},{"type":"MultiLineString","properties":{"kind":"highway","network":null,"sort_rank":383,"kind_detail":"motorway","source":"openstreetmap.org","min_zoom":8.0,"all_networks":[null],"shield_text":"5","ref":"TF-5","all_shield_texts":["5"]},"arcs":[[263],[264],[265],[266],[267],[268],[269],[270],[271],[272],[273],[274],[275],[276],[277],[278],[279],[280],[281],[282],[283],[284],[285],[286],[287],[288],[289],[290],[291],[292],[293],[294],[295],[296],[297],[298],[299]]},{"type":"LineString","properties":{"bus_network":null,"sort_rank":380,"kind_detail":"primary","kind":"major_road","source":"openstreetmap.org","min_zoom":8.0,"bus_shield_text":"035","ref":"TF-61"},"arcs":[300]},{"type":"MultiLineString","properties":{"source":"openstreetmap.org","kind":"highway","sort_rank":383,"kind_detail":"motorway","ref":"TF-1","min_zoom":8.0},"arcs":[[301],[302],[303],[304],[305],[306],[307],[308],[309],[310],[311],[312],[313],[314]]},{"type":"MultiLineString","properties":{"source":"openstreetmap.org","kind":"major_road","sort_rank":380,"kind_detail":"primary","loc_name":"Carretera de Tejina","ref":"TF-13","min_zoom":8.0},"arcs":[[315],[316],[317],[318],[319],[320],[321]]},{"type":"MultiLineString","properties":{"bus_network":null,"sort_rank":380,"kind_detail":"primary","kind":"major_road","source":"openstreetmap.org","min_zoom":8.0,"bus_shield_text":"033","ref":"TF-61"},"arcs":[[322],[323],[324],[325],[326],[327],[328]]},{"type":"MultiLineString","properties":{"source":"openstreetmap.org","kind":"major_road","sort_rank":380,"kind_detail":"primary","ref":"TF-24","min_zoom":8.0},"arcs":[[329],[330],[331],[332]]}]},"earth":{"type":"GeometryCollection","geometries":[{"type":"MultiPolygon","properties":{"sort_rank":10,"source":"naturalearthdata.com","min_zoom":0.0,"kind":"earth","area":5312192499},"arcs":[[[333]]]}]},"landuse":{"type":"GeometryCollection","geometries":[{"type":"MultiPolygon","properties":{"kind":"nature_reserve","protect_class":"5","area":79213888,"sort_rank":23,"source":"openstreetmap.org","min_zoom":8.0,"tier":2,"osm_relation":true},"arcs":[[[334]],[[335]]]},{"type":"Polygon","properties":{"kind":"nature_reserve","protect_class":"6","area":185750000,"sort_rank":23,"source":"openstreetmap.org","min_zoom":6.0,"tier":2,"id":-2629741,"osm_relation":true},"arcs":[[336]]},{"type":"Polygon","properties":{"kind":"national_park","protect_class":"2","area":246540992,"sort_rank":18,"source":"openstreetmap.org","min_zoom":5.0,"tier":1,"id":142482725},"arcs":[[337]]},{"type":"Polygon","properties":{"kind":"nature_reserve","protect_class":"6","area":103642000,"sort_rank":23,"source":"openstreetmap.org","min_zoom":7.0,"tier":2,"id":-2625523,"osm_relation":true},"arcs":[[338]]},{"type":"Polygon","properties":{"kind":"nature_reserve","protect_class":"5","area":529492992,"sort_rank":23,"source":"openstreetmap.org","min_zoom":6.0,"tier":2,"id":-2691138,"osm_relation":true},"arcs":[[339]]},{"type":"Polygon","properties":{"kind":"nature_reserve","protect_class":"1","area":11741200,"sort_rank":23,"source":"openstreetmap.org","min_zoom":8.0,"tier":2,"id":-2656884,"osm_relation":true},"arcs":[[340]]}]}},"type":"Topology","transform":{"translate":[-16.875,28.304380683],"scale":[0.0003433228,0.0003005002]},"arcs":[[[2406,0],[351,394],[85,203],[19,176],[-47,334],[-122,234],[-127,121],[-114,67],[-255,62],[-594,-5],[-173,-28],[-160,-73],[-248,-171],[-1021,-353]],[[1495,0],[-22,165],[26,85],[174,116],[90,109],[60,25],[19,45],[-13,-42],[33,78],[-31,-26],[28,48],[50,13],[-16,-19],[169,115],[70,10],[22,42],[29,-6],[16,90],[-36,73],[-75,26],[-191,-78],[-143,42],[-12,-23],[-24,18],[-33,-25],[-55,7],[-24,27],[-31,-25],[1,-47],[-92,-42],[-60,4],[-72,-64],[-31,-31],[-21,-95],[-48,-50],[-8,0],[-9,11],[-2,-1],[-12,-57],[-52,-17],[-10,-47],[-58,-7],[-44,-63],[-124,-3],[-144,-83],[-204,27],[-19,-38],[-39,17],[-21,-40],[-52,13],[-17,-36],[-27,19],[-51,-39],[-165,18],[-71,56],[-123,-75]],[[0,0],[0,8],[5,-5],[1,-3],[-6,0]],[[1496,0],[10,34],[-8,33],[-16,56],[1,70],[30,62],[41,34],[51,21],[81,67],[80,85],[60,60],[49,90],[215,120],[89,65],[27,94],[-69,38],[-179,-65],[-284,9],[-47,18],[-18,-62],[-54,-23],[-65,-12],[-52,-29],[-24,-18],[-55,-30],[-10,-20],[-7,-49],[-18,-28],[-57,-51],[-137,-123],[-59,-47],[-61,-7],[-31,-14],[-75,-9],[-58,-47],[-58,-5],[-116,-11],[-58,15],[-67,-27],[-94,-32],[-64,-32],[-84,-24],[-36,-1],[-34,10],[-68,49],[-58,25],[-109,-52],[0,3859],[4096,0],[0,-4096],[-2600,0]],[[1496,0],[10,34],[-8,33],[-16,56],[1,70],[30,62],[41,34],[51,21],[81,67],[80,85],[60,60],[49,90],[215,120],[89,65],[27,94],[-69,38],[-179,-65],[-284,9],[-47,18],[-18,-62],[-54,-23],[-65,-12],[-52,-29],[-24,-18],[-55,-30],[-10,-20],[-7,-49],[-18,-28],[-57,-51],[-137,-123],[-59,-47],[-61,-7],[-31,-14],[-75,-9],[-58,-47],[-58,-5],[-116,-11],[-58,15],[-67,-27],[-94,-32],[-64,-32],[-84,-24],[-36,-1],[-34,10],[-68,49],[-58,25],[-109,-52]],[[0,8],[5,-5],[1,-3]],[[3908,0],[-2046,589],[-27,-40]],[[1767,779],[29,-21],[86,32]],[[1643,618],[7,-27]],[[1755,768],[12,11]],[[443,220]],[[1434,722],[27,24]],[[1493,764],[5,2]],[[1499,770],[5,2]],[[1514,747],[-1,1]],[[1066,280],[-1,-1]],[[1066,279]],[[297,177],[109,15],[65,-32],[106,96]],[[576,258],[1,-2]],[[577,256],[0,2]],[[1386,87],[0,1],[0,-1]],[[1034,281],[3,-1]],[[1032,334],[-3,0]],[[1657,694]],[[1636,411],[1,-1]],[[1032,296],[4,2]],[[1033,282]],[[1034,302],[1,-1]],[[1035,302]],[[1513,747]],[[1504,773],[0,1],[-1,0],[0,-1],[1,0]],[[1677,474]],[[1951,798],[28,2],[2,-103]],[[1056,0],[52,48]],[[1143,131],[69,108]],[[1211,242],[29,39]],[[1240,281],[81,66]],[[1322,347],[55,26],[20,45],[50,-13]],[[1448,406],[-1,-1]],[[1448,406],[11,20]],[[977,374],[32,-9]],[[977,374],[-6,2]],[[999,343],[6,13]],[[1009,365],[-4,-9]],[[1503,772],[0,1]],[[1503,773],[0,-1]],[[1505,768],[-2,4]],[[1515,748],[-9,19]],[[1513,748],[0,-1]],[[1513,747],[1,0]],[[1515,748],[-1,0]],[[1514,747],[1,1]],[[1946,809],[5,-11]],[[1526,733],[0,-1]],[[1526,732],[1,0]],[[1570,720],[-1,0]],[[1641,670],[1,0]],[[1642,670],[-1,0]],[[1656,661],[-14,9]],[[1659,659],[-16,-41]],[[1650,591],[-6,-25]],[[1656,661],[1,0]],[[1658,661],[-2,0]],[[1657,661],[1,-1]],[[1658,661]],[[1658,660],[1,-1]],[[1659,659],[-1,2]],[[1621,886],[2,2],[-1,0],[-1,-2]],[[1615,382],[0,4]],[[3366,0],[-1504,588],[-27,-39]],[[1351,600],[1,-1],[0,1],[-1,0]],[[1834,574],[7,6]],[[1842,582],[-7,-7]],[[204,33],[-5,31]],[[80,217],[-2,0]],[[180,202],[0,1]],[[406,227],[-31,0]],[[439,220],[5,5]],[[1614,385],[1,0]],[[1615,378],[0,4]],[[1637,411]],[[1643,430],[0,-1]],[[1644,430],[-1,0]],[[1665,453],[1,-1]],[[1666,453]],[[1673,465],[-1,0]],[[1674,470],[1,0]],[[1675,470]],[[1657,694],[41,39]],[[1698,733],[1,1]],[[1699,734],[6,4]],[[1810,505],[-16,-11]],[[1456,191],[3,5]],[[1843,582],[47,41]],[[1891,623],[1,1]],[[518,247],[-74,-22]],[[1890,623],[1,0]],[[1794,494],[-48,-32]],[[1811,505],[14,22]],[[1892,624],[15,0]],[[1908,624],[2,1]],[[1915,631],[5,3]],[[1640,564],[1,-1]],[[1643,564],[-1,1]],[[576,260],[-1,-2],[2,0],[0,1],[-1,1]],[[183,0],[21,33]],[[199,64],[53,60],[-7,23],[51,31]],[[296,178],[1,0]],[[297,178],[146,42]],[[443,220]],[[1393,690],[-2,-1]],[[1392,689],[1,1]],[[1393,690],[14,15]],[[518,247],[19,6]],[[537,253],[20,1]],[[557,254],[5,1]],[[575,259],[-13,-4]],[[562,255],[14,3]],[[1658,660],[0,1]],[[1835,549],[26,43],[118,9],[218,131],[30,111],[-66,180],[-32,21],[-2129,83]],[[1882,790],[64,19]],[[1345,0],[15,47]],[[1352,598],[0,1]],[[1360,635],[30,54]],[[1390,689],[1,0]],[[1391,689],[-1,0]],[[1391,689],[1,0]],[[1423,717],[6,3]],[[1740,475],[3,9]],[[1743,484],[-2,-6]],[[1743,484],[-1,5]],[[1525,733],[-12,14]],[[1528,731],[4,-1]],[[1536,730],[-4,0]],[[1569,720],[-33,10]],[[1570,720],[1,-1]],[[1571,720]],[[1602,713],[-30,5]],[[1604,713],[-2,0]],[[1602,713],[2,-1]],[[1604,712],[0,1]],[[1604,712],[1,0]],[[1605,712],[-1,1]],[[1657,695],[-52,17]],[[1642,672],[-1,-2]],[[1641,670],[1,2]],[[1642,672],[15,21]],[[1657,695],[0,-2]],[[1711,735],[44,33]],[[1825,528],[0,-1]],[[1386,87],[-25,-38]],[[1397,98],[-11,-10]],[[1504,775],[-1,-1]],[[1504,774],[0,1]],[[1504,775],[25,37]],[[1529,813],[92,73]],[[1529,812]],[[1567,722],[-4,1]],[[1569,720],[1,0]],[[1571,719],[0,1]],[[1525,733],[1,-1],[2,-1],[-2,2],[-1,0]],[[1515,746],[-1,1]],[[1360,47],[1,2]],[[1456,191],[-18,-63],[-41,-30]],[[906,6],[72,-6]],[[1108,48],[35,83]],[[1641,563],[2,1]],[[1825,527]],[[1826,528],[-1,0]],[[1347,582],[-7,-8]],[[1347,582]],[[1347,582]],[[1347,582],[5,17]],[[1352,600],[8,35]],[[1739,456],[54,38]],[[1746,462],[-6,-3]],[[1908,624],[-16,0]],[[1910,625],[5,6]],[[1459,196],[66,125],[68,30],[42,58]],[[1635,409],[3,2],[5,18],[11,10]],[[1677,474],[-32,-37],[-10,-28]],[[1658,443],[8,10],[11,20]],[[1677,474]],[[1533,731],[0,-1]],[[1083,185],[21,3]],[[1672,464]],[[1352,28],[0,2]],[[1642,565],[-2,-1]],[[1981,697],[5,-36]],[[1433,0]],[[1506,767],[-1,1]],[[1705,738],[6,-3]],[[1658,661],[-1,0]],[[1654,439],[4,4]],[[575,259],[5,19]],[[577,260],[-1,2]],[[580,278],[9,4]],[[589,282],[48,20],[124,-7]],[[786,292]],[[791,292],[63,0]],[[1662,534],[-14,-36],[2,-28],[1,-3],[1,-1]],[[1652,466],[3,-3],[10,-12],[5,-15],[-7,-18]],[[1663,419],[0,2],[1,30],[-3,0],[-3,6],[-6,9]],[[1652,466],[-2,5],[2,7],[-3,20],[8,17],[3,9],[2,9]],[[1835,575],[-10,-47]],[[1843,582],[-1,0]],[[1825,527],[9,47]],[[1841,580],[2,2]],[[1040,290],[-7,-8]],[[1033,282],[-1,-1],[2,0],[-1,1]],[[1034,298],[6,-8]],[[1034,301],[0,-1]],[[1040,290],[-4,9]],[[1037,280],[28,0]],[[1063,274],[-1,0]],[[1104,188],[-96,19],[63,42],[-29,-2],[20,27]],[[1063,274],[2,5]],[[1065,279],[0,1]],[[1740,468],[-1,0]],[[1741,478],[-1,-3]],[[1741,484],[2,0]],[[1742,489]],[[1029,334],[-30,9]],[[1051,330],[-19,4]],[[903,0],[0,6]],[[80,217],[-8,2]],[[1285,548],[0,-1]],[[1339,574],[0,-1]],[[1392,689]],[[1407,705],[27,17]],[[1461,746],[38,24]],[[1033,281],[1,0]],[[1794,494],[17,11]],[[1823,521],[-13,-16]],[[1035,302],[-1,-2],[0,-3]],[[1036,298],[-1,4]],[[1075,369],[-8,-49],[-31,-18]],[[903,6],[-15,13]],[[80,217]],[[80,217]],[[81,217],[-1,0]],[[80,217],[1,0]],[[81,217],[3,0]],[[87,216],[-3,1]],[[87,216],[12,-6]],[[100,210],[-1,0]],[[99,210],[1,-1]],[[100,209],[1,1],[-1,0],[0,-1]],[[101,210]],[[101,209],[0,1]],[[101,210],[58,-7]],[[159,203],[1,0]],[[160,203],[-1,0]],[[160,203],[20,-1]],[[180,202],[2,1]],[[182,203],[193,24]],[[406,227],[33,-7]],[[1825,527],[-2,-6]],[[1832,549],[28,44],[567,-593]],[[1986,661]],[[888,19],[-18,15],[110,27],[79,88],[-41,1],[65,35]],[[4096,2737],[-1809,-1986],[-222,-145],[-69,-25],[-135,10],[-26,-42]],[[1986,661],[-66,-27],[67,28]],[[1285,547],[-4,-4]],[[1281,543],[-11,-9],[-38,-23],[-53,-60],[-40,-25],[-2,-2],[-6,-4]],[[1131,420],[-13,-11],[-2,0],[-1,0]],[[1115,409],[-4,-1],[-1,-1]],[[1110,407],[-10,-7]],[[1100,400],[-14,-11],[-68,-78],[-23,0],[-25,-1],[-6,-1]],[[964,309],[-89,-18],[-3,-1],[-18,2],[97,17],[13,0]],[[964,309],[25,0],[6,2],[23,0],[29,18],[35,54],[18,17]],[[1100,400],[8,7]],[[1109,407],[1,0]],[[1110,407],[4,1],[1,1]],[[1115,409],[16,11]],[[1131,420],[6,4],[2,2],[40,25],[57,62],[39,22],[6,8]],[[1281,543],[7,10],[9,4]],[[1297,557],[5,3],[1,0]],[[1303,560],[32,7]],[[1335,567],[1,0],[11,4],[27,3],[0,1],[12,8]],[[1386,583],[13,9],[1,0],[4,2]],[[1404,594],[0,1],[3,1],[6,3]],[[1413,599],[3,2]],[[1416,601],[94,16]],[[1510,617],[6,1],[57,-2],[2,0]],[[1575,616],[3,-1],[7,-2]],[[1585,613],[10,-3],[6,-3]],[[1601,607],[5,-3],[93,-105],[3,-24],[6,-3],[28,12],[35,22],[11,2]],[[1811,517],[-36,-9],[-72,-33],[-2,21],[-3,5],[-78,88],[-14,16],[-5,2]],[[1601,607],[-16,6]],[[1585,613],[-5,2],[-3,1],[-2,0]],[[1575,616],[-10,0],[-33,-1],[-22,2]],[[1510,617],[-49,5],[-45,-21]],[[1416,601],[-3,-2]],[[1413,599],[-6,-2],[-1,-1],[-2,-2]],[[1404,594],[-18,-11]],[[1386,583],[-12,-8],[0,-1],[-25,-3],[-7,-1],[-1,-1],[-5,-2],[-1,0]],[[1335,567],[-8,-4],[-14,-4],[-10,1]],[[1303,560],[-3,1],[-3,-4]],[[1297,557],[-12,-9]],[[1430,3],[3,-3]],[[1444,0],[46,253],[8,12]],[[1498,265],[0,1],[46,30]],[[1544,296],[1,1],[6,8],[5,15],[15,13]],[[1571,333],[1,0],[7,3],[1,0]],[[1580,336],[18,-3],[7,4]],[[1605,337],[5,3]],[[1610,340],[13,8],[110,98],[32,56]],[[1773,507],[-14,-8],[-21,-40],[-7,-15],[-20,-16],[-52,-34],[-27,-35],[-22,-19]],[[1610,340],[-1,-1],[-4,-2]],[[1605,337],[-4,-3],[-18,3],[-3,-1]],[[1580,336],[-9,-3]],[[1571,333],[-1,-1],[-14,-11],[-5,-13],[-7,-12]],[[1544,296],[-1,0],[-45,-31]],[[1498,265],[-6,-4],[-29,-82],[-31,-172],[-1,-7]],[[1534,730],[0,1]],[[1571,720],[-1,0]],[[1571,719],[0,1]],[[1603,713]],[[1641,670]],[[1641,670],[0,1]],[[1657,694]],[[1350,29],[25,-2]],[[1376,27],[46,-18]],[[1422,8],[0,1],[0,-1]],[[1422,8],[6,-4]],[[1429,3],[1,0]],[[1376,27],[-1,1],[0,-1]],[[1375,27],[1,0]],[[1212,239],[-1,3]],[[1240,281]],[[1321,347],[1,0]],[[1459,426],[26,64],[135,96]],[[0,8],[0,229],[109,52],[58,-25],[68,-49],[34,-10],[36,1],[84,24],[64,32],[94,32],[67,27],[58,-15],[116,11],[58,5],[58,47],[75,9],[31,14],[61,7],[59,47],[137,123],[57,51],[18,28],[7,49],[10,20],[55,30],[24,18],[52,29],[65,12],[54,23],[18,62],[47,-18],[284,-9],[179,65],[69,-38],[-27,-94],[-89,-65],[-215,-120],[-49,-90],[-60,-60],[-80,-85],[-81,-67],[-51,-21],[-41,-34],[-30,-62],[-1,-70],[16,-56],[8,-33],[-10,-34],[-1490,0],[-1,3],[-5,5]],[[1285,0],[-32,0],[20,67],[-36,15],[38,44],[-10,57],[28,81],[39,-20],[-41,-45],[34,-63],[-36,-4],[23,-49],[-27,-34],[0,-49]],[[1071,331],[7,12],[25,-15],[7,-6],[66,4],[51,49],[25,-7],[55,51],[-25,12],[8,26],[79,26],[-1,39],[13,-33],[28,9],[54,-46],[-5,-33],[28,-20],[-10,-24],[-48,-9],[-11,-39],[-95,20],[-10,-42],[-70,-22],[-44,-58],[-19,21],[16,-31],[-86,11],[-38,105]],[[1504,768],[149,131],[32,-18],[70,30],[144,-42],[189,78],[75,-26],[38,-84],[-23,-31],[6,-46],[-33,2],[-19,-40],[-36,29],[2,34],[-22,-26],[10,-30],[-32,0],[-27,-38],[-37,43],[-9,-37],[-21,8],[20,-50],[-42,19],[-36,-48],[-14,32],[-24,-48],[-26,31],[15,-39],[-41,20],[8,-44],[-101,106],[-9,59],[-65,-37],[4,45],[-38,-18],[-107,35]],[[616,0],[80,51],[4,-31],[138,50],[9,-39],[63,-18],[15,21],[130,12],[10,33],[47,14],[34,45],[-36,-88],[-55,-50],[-439,0]],[[0,189],[18,-21],[127,21],[2,-24],[48,27],[12,-83],[-21,-42],[70,-15],[-6,-29],[-46,10],[-42,-33],[-162,0],[0,189]],[[351,0],[-22,96],[26,31],[45,-39],[156,13],[79,48],[0,37],[127,-42],[33,19],[0,62],[19,4],[38,-95],[51,-6],[88,56],[113,4],[10,38],[81,-11],[47,68],[71,23],[10,42],[99,-36],[-19,-52],[23,-7],[-3,-32],[-140,42],[-8,-137],[-37,-41],[35,-18],[-20,-67],[-198,0],[55,50],[36,88],[-34,-45],[-47,-14],[-10,-33],[-130,-12],[-15,-21],[-63,18],[-9,39],[-138,-50],[-4,31],[-80,-51],[-265,0]],[[2065,842],[110,51],[26,-57],[-23,-30],[6,-46],[-119,82]]]}