{"objects":{"water":{"type":"GeometryCollection","geometries":[{"type":"Polygon","properties":{"source":"naturalearthdata.com","kind":"ocean","area":1576712559132672,"sort_rank":200,"min_zoom":0.0,"id":1},"arcs":[[7]]},{"type":"LineString","properties":{"source":"naturalearthdata.com","kind":"ocean","sort_rank":205,"boundary":true,"min_zoom":0.0,"id":56},"arcs":[8]}]},"buildings":{"type":"GeometryCollection","geometries":[]},"places":{"type":"GeometryCollection","geometries":[{"type":"Point","properties":{"name:pt":"Nouakchott","name:az":"Nuak\u015fot","name:ka":"\u10dc\u10e3\u10d0\u10e5\u10e8\u10dd\u10e2\u10d8","name:mr":"\u0928\u0935\u093e\u0915\u0938\u0941\u0924","name:ko":"\ub204\uc545\uc1fc\ud2b8","name:cs":"Nuak\u0161ott","name:tr":"Nuak\u015fot","min_zoom":8.0,"int_name":"Nouakchott","name:am":"\u1291\u12cb\u12ad\u123e\u1275","name:vi":"Nouakchott","name:ru":"\u041d\u0443\u0430\u043a\u0448\u043e\u0442","name:pl":"Nawakszut","name:ta":"\u0ba8\u0bb5\u0bbe\u0b95\u0bcd\u0b9a\u0bcb\u0b9f\u0bcd","id":249166495,"name:mk":"\u041d\u0443\u0430\u043a\u0448\u043e\u0442","name:vo":"N\u00e4vakjut","name:fa":"\u0646\u0648\u0622\u06a9\u0634\u0648\u062a","name:bg":"\u041d\u0443\u0430\u043a\u0448\u043e\u0442","kind_detail":"city","name:da":"Nouakchott","name:tg":"\u041d\u0443\u0430\u043a\u0448\u043e\u0442","source":"openstreetmap.org","name:fr":"Nouakchott","name:ky":"\u041d\u0443\u0430\u043a\u0448\u043e\u0442","name:de":"Nuakschott","name:be":"\u041d\u0443\u0430\u043a\u0448\u043e\u0442","name:zh":"\u52aa\u74e6\u514b\u8096\u7279","name:so":"Nawakshot","admin_level":"2","name:lv":"Nuak\u0161ota","name:ja":"\u30cc\u30a2\u30af\u30b7\u30e7\u30c3\u30c8","name:lt":"Nuak\u0161otas","alt_name:de":"Nouakchott","name:kk":"\u041d\u0443\u0430\u043a\u0448\u043e\u0442 \u049b\u0430\u043b\u0430\u0441\u044b","name:he":"\u05e0\u05d5\u05d0\u05e7\u05e9\u05d5\u05d8","kind":"locality","name:ur":"\u0646\u0648\u0627\u06a9\u0634\u0648\u0637","name:bn":"\u09a8\u09c1\u0993\u09af\u09bc\u09be\u0995\u09b6\u09c1\u09a4","name:bo":"\u0f53\u0f60\u0f74\u0f0b\u0f40\u0f0b\u0f45\u0f7c\u0f0b\u0f4a\u0f72\u0f0d","name:uk":"\u041d\u0443\u0430\u043a\u0448\u043e\u0442","name:hy":"\u0546\u0578\u0582\u0561\u056f\u0577\u0578\u057f","country_capital":true,"name:sv":"Nouakchott","name:ht":"Nouakchot","name:hu":"Nouakchott","name:hr":"Nouakchott","name:sr":"\u041d\u0443\u0430\u043a\u0448\u043e\u0442","population":760000,"name:el":"\u039d\u03bf\u03c5\u03b1\u03ba\u03c3\u03cc\u03c4","name:eo":"Nuak\u015doto","name:en":"Nouakchott","name":"\u0646\u0648\u0627\u0643\u0634\u0648\u0637","name:is":"N\u00faaksjott","name:ku":"N\u00fbak\u015fot","name:th":"\u0e19\u0e39\u0e41\u0e2d\u0e01\u0e0a\u0e2d\u0e15","name:eu":"Nuakchot","name:es":"Nuakchot"},"coordinates":[2613,309]}]},"transit":{"type":"GeometryCollection","geometries":[]},"pois":{"type":"GeometryCollection","geometries":[]},"boundaries":{"type":"GeometryCollection","geometries":[{"type":"LineString","properties":{"name:kg":"Muritania","name:ka":"\u10db\u10d0\u10d5\u10e0\u10d8\u10e2\u10d0\u10dc\u10d8\u10d0","name:ko":"\ubaa8\ub9ac\ud0c0\ub2c8","name:cv":"\u041c\u0430\u0432\u0440\u0438\u0442\u0430\u043d\u0438","name:cs":"Maurit\u00e1nie","name:tt":"\u041c\u0430\u0432\u0440\u0438\u0442\u0430\u043d\u0438\u044f","name:kw":"Moritani","name:tk":"Mawritani\u00fda","name:ku":"Mor\u00eetanya","name:ti":"\u121e\u122a\u1273\u1292\u12eb","name:tl":"Mauritania","name:ce":"\u041c\u0430\u0432\u0440\u0438\u0442\u0430\u043d\u0438","name:ta":"\u0bae\u0bc2\u0bb0\u0bbf\u0ba4\u0bcd\u0ba4\u0bbe\u0ba9\u0bbf\u0baf\u0bbe","name:tg":"\u041c\u0430\u0432\u0440\u0438\u0442\u0430\u043d\u0438\u044f","name:ca":"Maurit\u00e0nia","name:te":"\u0c2e\u0c4c\u0c30\u0c3f\u0c1f\u0c3e\u0c28\u0c3f\u0c2f","name:cy":"Mauritania","name:qu":"Muritanya","name:da":"Mauretanien","name:de":"Mauretanien","source":"openstreetmap.org","name:kn":"\u0cae\u0cbe\u0cb0\u0cbf\u0c9f\u0cbe\u0ca8\u0cbf\u0caf","name:dv":"\u0789\u07ae\u0783\u07a8\u0793\u07a7\u0782\u07a8\u0787\u07a7","name:lv":"Maurit\u0101nija","name:lt":"Mauritanija","name:uz":"Mavritaniya","name:kk":"\u041c\u0430\u0432\u0440\u0438\u0442\u0430\u043d\u0438\u044f","name:ur":"\u0645\u0648\u0631\u06cc\u062a\u0627\u0646\u06cc\u06c1","name:lb":"Mauretanien","name:la":"Mauritania","name:uk":"\u041c\u0430\u0432\u0440\u0438\u0442\u0430\u043d\u0456\u044f","name:ug":"\u0645\u0627\u06cb\u0631\u0649\u062a\u0627\u0646\u0649\u064a\u06d5","name:li":"Mauritani\u00eb","name:ln":"Moritani","name:el":"\u039c\u03b1\u03c5\u03c1\u03b9\u03c4\u03b1\u03bd\u03af\u03b1","name:eo":"Ma\u016dritanio","name:en":"Mauritania","name":"\u0645\u0648\u0631\u064a\u062a\u0627\u0646\u064a\u0627","name:ee":"Mauritania","name:th":"\u0e1b\u0e23\u0e30\u0e40\u0e17\u0e28\u0e21\u0e2d\u0e23\u0e34\u0e40\u0e15\u0e40\u0e19\u0e35\u0e22","name:eu":"Mauritania","name:et":"Mauritaania","name:es":"Mauritania","name:ia":"Mauritania","name:az":"Mavritaniya","name:ie":"Mauritania","name:id":"Mauritania","name:io":"Mauritania","name:is":"M\u00e1ritan\u00eda","name:am":"\u121e\u122a\u1273\u1292\u12eb","name:it":"Mauritania","name:an":"Mauritania","name:ru":"\u041c\u0430\u0432\u0440\u0438\u0442\u0430\u043d\u0438\u044f","name:rw":"Moritaniya","name:af":"Mauritani\u00eb","name:zu":"IMoritaniya","kind_detail":"2","name:zh":"\u6bdb\u91cc\u5854\u5c3c\u4e9a","name:so":"Mauritania","name:sn":"Mauritania","name:sl":"Mavretanija","name:sk":"Maurit\u00e1nia","name:ja":"\u30e2\u30fc\u30ea\u30bf\u30cb\u30a2","name:sg":"Moritan\u00efi","name:se":"Maurit\u00e1nia","name:sc":"Maurit\u00e0nia","name:br":"Maouritania","name:bs":"Mauritanija","name:bm":"Moritani","name:bn":"\u09ae\u09cc\u09b0\u09bf\u09a4\u09be\u09a8\u09bf\u09af\u09bc\u09be","name:bo":"\u0f58\u0f60\u0f74\u0f0b\u0f62\u0f72\u0f0b\u0f4f\u0f0b\u0f53\u0f72\u0f0b\u0f61\u0f0d","name:sa":"\u092e\u093e\u0930\u093f\u091f\u0947\u0928\u093f\u092f\u093e","name:sw":"Mauritania","name:be":"\u041c\u0430\u045e\u0440\u044b\u0442\u0430\u043d\u0456\u044f","name:su":"Mauritania","name:bg":"\u041c\u0430\u0432\u0440\u0438\u0442\u0430\u043d\u0438\u044f","name:ss":"IMolithaniya","name:sr":"\u041c\u0430\u0443\u0440\u0438\u0442\u0430\u043d\u0438\u0458\u0430","name:sq":"Mauritania","name:jv":"Mauritania","name:pt":"Maurit\u00e2nia","name:ps":"\u0645\u0648\u0631\u06cc\u062a\u0627\u0646\u064a","name:oc":"Maurit\u00e0nia","min_zoom":8.0,"name:ro":"Mauritania","name:pa":"\u0a2e\u0a4c\u0a30\u0a40\u0a24\u0a3e\u0a28\u0a40\u0a06","name:os":"\u041c\u0430\u0432\u0440\u0438\u0442\u0430\u043d\u0438","name:or":"\u0b2e\u0b4b\u0b30\u0b3f\u0b24\u0b3e\u0b28\u0b3f\u0b06","name:pl":"Mauretania","name:st":"Mauritania","sort_rank":262,"osm_relation":true,"name:xh":"Mauritania","name:tr":"Moritanya","name:hi":"\u092e\u0949\u0930\u0940\u0924\u093e\u0928\u093f\u092f\u093e","name:sv":"Mauretanien","name:he":"\u05de\u05d0\u05d5\u05e8\u05d9\u05d8\u05e0\u05d9\u05d4","name:ha":"Muritaniya","name:hy":"\u0544\u0561\u057e\u0580\u056b\u057f\u0561\u0576\u056b\u0561","name:ht":"Moritani","name:hu":"Maurit\u00e1nia","name:hr":"Mauretanija","kind":"country","name:ts":"Maritana","name:yi":"\u05de\u05d0\u05e8\u05d9\u05d8\u05d0\u05e0\u05d9\u05e2","name:yo":"Maurit\u00e1n\u00ed\u00e0","name:mt":"Mawritanja","name:ms":"Mauritania","name:mr":"\u092e\u0949\u0930\u093f\u091f\u093e\u0928\u093f\u092f\u093e","name:my":"\u1019\u1031\u102c\u103a\u101b\u102e\u1010\u1031\u1038\u1014\u102e\u1038\u101a\u102c\u1038\u1014\u102d\u102f\u1004\u103a\u1004\u1036","official_name":"\u0627\u0644\u062c\u0645\u0647\u0648\u0631\u064a\u0629 \u0627\u0644\u0625\u0633\u0644\u0627\u0645\u064a\u0629 \u0627\u0644\u0645\u0648\u0631\u064a\u062a\u0627\u0646\u064a\u0629","name:mg":"Maoritania","name:vi":"Mauritanie","name:ml":"\u0d2e\u0d57\u0d31\u0d3f\u0d24\u0d4d\u0d24\u0d3e\u0d28\u0d3f\u0d2f","name:mn":"\u041c\u0430\u0432\u0440\u0438\u0442\u0430\u043d","id":-192763,"name:mk":"\u041c\u0430\u0432\u0440\u0438\u0442\u0430\u043d\u0438\u0458\u0430","name:vo":"Morit\u00e4n","name:fa":"\u0645\u0648\u0631\u06cc\u062a\u0627\u0646\u06cc","name:ff":"Muritani","name:fi":"Mauritania","name:fo":"M\u00f3ritania","name:fr":"Mauritanie","name:fy":"Mauritaanje","name:nl":"Mauritani\u00eb","name:nn":"Mauritania","name:no":"Mauritania","name:wa":"Moritanreye","name:wo":"G\u00e0nnaar","name:nv":"Moowit\u00e9\u00ednya","name:ga":"An Mh\u00e1rat\u00e1in","name:gd":"Moratainia","name:gl":"Mauritania","maritime_boundary":true,"name:gv":"Yn Varitaan"},"arcs":[0]},{"type":"LineString","properties":{"name:right:fr":"Inchiri","name:left:pl":"At-Tarariza","id:left":-3395245,"id:right":-3395037,"min_zoom":8.0,"name:left:ru":"\u0422\u0440\u0430\u0440\u0437\u0430","name:right:ru":"\u0418\u043d\u0448\u0438\u0440\u0438","name:right:pl":"Insziri","id":-3395245,"osm_relation":true,"name:right":"\u0625\u064a\u0646\u0634\u064a\u0631\u064a","kind":"region","name":"\u0627\u0644\u062a\u0631\u0627\u0631\u0632\u0629 - \u0625\u064a\u0646\u0634\u064a\u0631\u064a","source":"openstreetmap.org","sort_rank":256,"kind_detail":"4","name:left:de":"At-Tarariza","name:right:en":"Inchiri","name:left:en":"Trarza","name:left:fr":"Trarza","name:right:de":"Inchiri","name:left":"\u0627\u0644\u062a\u0631\u0627\u0631\u0632\u0629"},"arcs":[1]},{"type":"LineString","properties":{"kind":"region","name:en":"Trarza","name":"\u0627\u0644\u062a\u0631\u0627\u0631\u0632\u0629","sort_rank":256,"kind_detail":"4","min_zoom":8.0,"name:de":"At-Tarariza","source":"openstreetmap.org","name:fr":"Trarza","name:ru":"\u0422\u0440\u0430\u0440\u0437\u0430","name:pl":"At-Tarariza","id":-3395245,"osm_relation":true},"arcs":[2]},{"type":"LineString","properties":{"kind":"region","name:en":"Trarza","name":"\u0627\u0644\u062a\u0631\u0627\u0631\u0632\u0629","sort_rank":256,"kind_detail":"4","min_zoom":8.0,"name:de":"At-Tarariza","source":"openstreetmap.org","name:fr":"Trarza","name:ru":"\u0422\u0440\u0430\u0440\u0437\u0430","name:pl":"At-Tarariza","id":-3395245,"osm_relation":true},"arcs":[3]},{"type":"LineString","properties":{"kind":"region","name:en":"Trarza","name":"\u0627\u0644\u062a\u0631\u0627\u0631\u0632\u0629","sort_rank":256,"kind_detail":"4","min_zoom":8.0,"name:de":"At-Tarariza","source":"openstreetmap.org","maritime_boundary":true,"name:fr":"Trarza","name:ru":"\u0422\u0440\u0430\u0440\u0437\u0430","name:pl":"At-Tarariza","id":-3395245,"osm_relation":true},"arcs":[4]},{"type":"LineString","properties":{"kind":"region","name:en":"Inchiri","name":"\u0625\u064a\u0646\u0634\u064a\u0631\u064a","sort_rank":256,"kind_detail":"4","min_zoom":8.0,"name:de":"Inchiri","source":"openstreetmap.org","name:fr":"Inchiri","name:ru":"\u0418\u043d\u0448\u0438\u0440\u0438","name:pl":"Insziri","id":-3395037,"osm_relation":true},"arcs":[5]},{"type":"LineString","properties":{"kind":"region","name:en":"Inchiri","name":"\u0625\u064a\u0646\u0634\u064a\u0631\u064a","sort_rank":256,"kind_detail":"4","min_zoom":8.0,"name:de":"Inchiri","source":"openstreetmap.org","maritime_boundary":true,"name:fr":"Inchiri","name:ru":"\u0418\u043d\u0448\u0438\u0440\u0438","name:pl":"Insziri","id":-3395037,"osm_relation":true},"arcs":[6]}]},"roads":{"type":"GeometryCollection","geometries":[{"type":"LineString","properties":{"kind":"major_road","network":null,"sort_rank":381,"kind_detail":"trunk","min_zoom":8.0,"source":"openstreetmap.org","name:fr":"Autoroute Nouadhibou","landuse_kind":"residential","shield_text":"2","ref":"RN2","id":92784826},"arcs":[9]},{"type":"MultiLineString","properties":{"kind":"major_road","network":null,"sort_rank":381,"kind_detail":"trunk","source":"openstreetmap.org","min_zoom":8.0,"landuse_kind":"residential","shield_text":"2","ref":"RN2"},"arcs":[[10],[11],[12],[13],[14],[15]]},{"type":"MultiLineString","properties":{"kind":"major_road","network":null,"sort_rank":380,"kind_detail":"primary","name:fr":"Rue Ghary","source":"openstreetmap.org","min_zoom":8.0,"landuse_kind":"residential","shield_text":"1","ref":"RN1"},"arcs":[[16],[17]]},{"type":"LineString","properties":{"kind":"major_road","network":null,"sort_rank":381,"kind_detail":"trunk","min_zoom":8.0,"source":"openstreetmap.org","name:fr":"carrefour Al Quds","landuse_kind":"residential","shield_text":"2","id":237509049},"arcs":[18]},{"type":"MultiLineString","properties":{"source":"openstreetmap.org","kind":"major_road","sort_rank":381,"kind_detail":"trunk","ref":"N1","min_zoom":8.0},"arcs":[[19],[20]]},{"type":"LineString","properties":{"kind":"major_road","network":null,"sort_rank":381,"kind_detail":"trunk","name:fr":"Cheikh Zayed","source":"openstreetmap.org","min_zoom":8.0,"shield_text":"2","id":240127058},"arcs":[21]},{"type":"MultiLineString","properties":{"kind":"major_road","network":null,"sort_rank":381,"kind_detail":"trunk","name:fr":"Cheikh Zayed","source":"openstreetmap.org","min_zoom":8.0,"landuse_kind":"residential","shield_text":"2"},"arcs":[[22],[23],[24]]},{"type":"LineString","properties":{"kind":"major_road","sort_rank":380,"landuse_kind":"residential","source":"openstreetmap.org","min_zoom":8.0,"kind_detail":"primary","ref":"N 1","id":346372556},"arcs":[25]},{"type":"MultiLineString","properties":{"kind":"major_road","network":null,"sort_rank":381,"kind_detail":"trunk","source":"openstreetmap.org","min_zoom":8.0,"shield_text":"2","ref":"RN2"},"arcs":[[26],[27],[28]]},{"type":"MultiLineString","properties":{"kind":"major_road","network":null,"sort_rank":380,"kind_detail":"primary","source":"openstreetmap.org","min_zoom":8.0,"landuse_kind":"residential","shield_text":"1"},"arcs":[[29],[30]]},{"type":"MultiLineString","properties":{"kind":"major_road","network":null,"sort_rank":380,"kind_detail":"primary","source":"openstreetmap.org","min_zoom":8.0,"shield_text":"3","ref":"RN3"},"arcs":[[31],[32]]},{"type":"LineString","properties":{"kind":"major_road","network":null,"sort_rank":381,"kind_detail":"trunk","source":"openstreetmap.org","min_zoom":8.0,"shield_text":"2","id":92891279},"arcs":[33]},{"type":"LineString","properties":{"kind":"major_road","network":null,"sort_rank":381,"kind_detail":"trunk","min_zoom":8.0,"source":"openstreetmap.org","name:fr":"Autoroute de Rosso","landuse_kind":"residential","shield_text":"2","ref":"RN2","id":25500444},"arcs":[34]},{"type":"LineString","properties":{"kind":"major_road","network":null,"sort_rank":381,"kind_detail":"trunk","name:fr":"Cheikh Zayed","source":"openstreetmap.org","min_zoom":8.0,"shield_text":"2","ref":"RN2","id":238786149},"arcs":[35]},{"type":"LineString","properties":{"kind":"major_road","network":null,"sort_rank":381,"kind_detail":"trunk","min_zoom":8.0,"source":"openstreetmap.org","name:fr":"Carrefour Bamako","landuse_kind":"residential","shield_text":"2","id":92795006},"arcs":[36]},{"type":"LineString","properties":{"kind":"major_road","network":null,"sort_rank":380,"kind_detail":"primary","name:fr":"Route de l'Espoir","source":"openstreetmap.org","min_zoom":8.0,"landuse_kind":"residential","shield_text":"3","ref":"RN3"},"arcs":[37]},{"type":"LineString","properties":{"kind":"major_road","network":null,"sort_rank":381,"kind_detail":"trunk","min_zoom":8.0,"source":"openstreetmap.org","name:fr":"Rond-Point de Madrid","landuse_kind":"residential","shield_text":"2","id":92964150},"arcs":[38]},{"type":"MultiLineString","properties":{"kind":"major_road","network":null,"sort_rank":380,"kind_detail":"primary","source":"openstreetmap.org","min_zoom":8.0,"landuse_kind":"residential","shield_text":"3","ref":"RN3","id":25488851},"arcs":[[39],[40]]},{"type":"LineString","properties":{"kind":"major_road","network":null,"sort_rank":380,"kind_detail":"primary","source":"openstreetmap.org","min_zoom":8.0,"shield_text":"1","ref":"RN1"},"arcs":[41]},{"type":"MultiLineString","properties":{"kind":"major_road","network":null,"sort_rank":381,"kind_detail":"trunk","name:fr":"Ahmed Ould Mennih","source":"openstreetmap.org","min_zoom":8.0,"landuse_kind":"residential","shield_text":"2","ref":"RN2"},"arcs":[[42],[43],[44],[45]]},{"type":"LineString","properties":{"kind":"major_road","network":null,"sort_rank":381,"kind_detail":"trunk","min_zoom":8.0,"source":"openstreetmap.org","name:fr":"Cheikh Zayed","landuse_kind":"residential","shield_text":"2","ref":"RN2","id":238786149},"arcs":[46]},{"type":"LineString","properties":{"kind":"major_road","network":null,"sort_rank":380,"kind_detail":"primary","min_zoom":8.0,"source":"openstreetmap.org","name:fr":"Forces Arm\u00e9es","landuse_kind":"residential","shield_text":"1","ref":"RN1","id":228671742},"arcs":[47]},{"type":"MultiLineString","properties":{"source":"openstreetmap.org","kind":"major_road","landuse_kind":"residential","sort_rank":380,"kind_detail":"primary","min_zoom":8.0},"arcs":[[48],[49],[50]]},{"type":"LineString","properties":{"kind":"major_road","network":null,"sort_rank":380,"kind_detail":"primary","source":"openstreetmap.org","min_zoom":8.0,"landuse_kind":"residential","shield_text":"1","ref":"RN1"},"arcs":[51]},{"type":"LineString","properties":{"kind":"major_road","sort_rank":380,"landuse_kind":"residential","source":"openstreetmap.org","min_zoom":8.0,"kind_detail":"primary","ref":"N1","id":228696230},"arcs":[52]},{"type":"LineString","properties":{"kind":"major_road","network":null,"sort_rank":381,"kind_detail":"trunk","name:ar":"\u0634\u0627\u0631\u0639 \u062c\u0645\u0627\u0644 \u0639\u0628\u062f \u0627\u0644\u0646\u0627\u0635\u0631","source":"openstreetmap.org","min_zoom":8.0,"landuse_kind":"residential","shield_text":"2","id":450733796},"arcs":[53]},{"type":"LineString","properties":{"kind":"major_road","network":null,"sort_rank":381,"kind_detail":"trunk","name:fr":"Gamal Abdel Nasser","source":"openstreetmap.org","min_zoom":8.0,"landuse_kind":"residential","shield_text":"2","ref":"RN2"},"arcs":[54]},{"type":"LineString","properties":{"kind":"major_road","network":null,"sort_rank":381,"kind_detail":"trunk","min_zoom":8.0,"source":"openstreetmap.org","name:fr":"Carrefour Foire","landuse_kind":"residential","shield_text":"2","id":92986226},"arcs":[55]},{"type":"LineString","properties":{"kind":"major_road","network":null,"sort_rank":380,"kind_detail":"primary","name:fr":"Forces Arm\u00e9es","source":"openstreetmap.org","min_zoom":8.0,"shield_text":"1","ref":"RN1","id":228671742},"arcs":[56]},{"type":"MultiLineString","properties":{"kind":"major_road","network":null,"sort_rank":381,"kind_detail":"trunk","source":"openstreetmap.org","min_zoom":8.0,"landuse_kind":"residential","shield_text":"2"},"arcs":[[57],[58],[59],[60],[61],[62],[63]]}]},"earth":{"type":"GeometryCollection","geometries":[{"type":"Polygon","properties":{"sort_rank":10,"source":"naturalearthdata.com","min_zoom":0.0,"kind":"earth","area":73513424204},"arcs":[[64]]}]},"landuse":{"type":"GeometryCollection","geometries":[{"type":"Polygon","properties":{"source":"naturalearthdata.com","kind":"urban_area","name":"","area":109278080,"sort_rank":11,"min_zoom":4.0,"id":3615},"arcs":[[65]]},{"type":"Polygon","properties":{"source":"openstreetmap.org","kind":"residential","area":191584992,"tier":2,"id":546913345,"min_zoom":6.0,"sort_rank":20},"arcs":[[66]]},{"type":"Polygon","properties":{"source":"openstreetmap.org","kind":"aerodrome","area":17846000,"tier":3,"id":235394229,"min_zoom":8.0,"sort_rank":60},"arcs":[[67]]}]}},"type":"Topology","transform":{"translate":[-16.875,17.9787330956],"scale":[0.0003433228,0.0003252955]},"arcs":[[[333,4096],[159,-379],[741,-984],[340,-749],[199,-591],[61,-607],[35,-701],[-3,-85]],[[4096,3140],[-2188,0]],[[2396,1278],[790,-4],[-1,-1274]],[[1908,3140],[5,-14]],[[1913,3126],[94,-219],[60,-427],[38,-88],[56,-329],[111,-218],[96,-318],[28,-249]],[[1901,3151],[7,-11]],[[1090,4096],[79,-177],[340,-199],[143,-143],[150,-214],[99,-212]],[[1120,4096],[46,-124],[22,-35],[47,-28],[114,-34],[49,-33],[25,-12],[29,-3],[24,-7],[10,-21],[12,-6],[55,-52],[172,-201],[128,-213],[83,-200],[17,-41],[113,-425],[5,-85],[-26,-72],[50,-125],[69,-381],[150,-335],[32,-110],[100,-1053],[29,-500],[-2475,0],[0,4096],[1120,0]],[[1120,4096],[46,-124],[22,-35],[47,-28],[114,-34],[49,-33],[25,-12],[29,-3],[24,-7],[10,-21],[12,-6],[55,-52],[172,-201],[128,-213],[83,-200],[17,-41],[113,-425],[5,-85],[-26,-72],[50,-125],[69,-381],[150,-335],[32,-110],[100,-1053],[29,-500]],[[2558,366],[16,-39]],[[2660,337],[-72,-5]],[[2625,203],[-5,-160]],[[2621,43],[5,161]],[[2622,243],[3,-39]],[[2625,204],[-2,38]],[[2651,309],[10,26],[-12,-26]],[[2682,365],[-20,-27]],[[2665,339],[18,25]],[[2558,370],[-1,1],[-1,-1],[1,-1],[1,1]],[[3112,1039],[-94,-220],[-167,-251]],[[4096,2700],[-448,-513],[-17,-123],[-295,-784]],[[2521,560],[18,-94]],[[2539,466],[15,-82]],[[2554,384],[3,-14]],[[2558,371],[-3,13]],[[2765,475],[-80,-107]],[[2232,4096],[-81,-161],[1,-166],[-91,-145],[7,-38],[69,-6],[13,-74],[-54,-155],[-80,-124],[-14,-112],[127,-565],[102,-203],[-17,-210],[179,-328],[30,-136],[71,-153],[21,-457]],[[2515,1063],[-20,-158],[26,-344]],[[2522,561],[-27,344],[20,158]],[[2662,338],[3,1]],[[2684,365],[-1,2],[-1,-1],[1,-2],[1,1]],[[2900,264],[11,-1]],[[2984,254],[82,-10],[196,-116],[528,-123],[11,-5]],[[2522,560],[0,1],[-1,0],[0,-1],[1,0]],[[2621,40],[6,-40]],[[2539,467],[-17,94]],[[2622,42],[-1,1],[-1,-1],[1,0],[1,0]],[[2651,307],[213,-39],[-213,41]],[[2651,308],[-1,2],[-1,-1],[1,-2],[1,1]],[[2864,268],[36,-4]],[[2911,263],[73,-9]],[[4096,2702],[-443,-506],[-22,-132],[-331,-882],[-180,-130],[-102,-233],[-167,-251]],[[2626,251],[-4,-7]],[[2623,243],[4,8]],[[2649,308],[-23,-56]],[[2627,252],[23,55]],[[2555,385],[-16,82]],[[2685,368],[143,173]],[[2617,359],[0,-1]],[[2646,392],[3,0]],[[2682,365]],[[2684,366],[-1,1]],[[2671,369],[-1,1]],[[2588,332],[-1,-1]],[[2574,327],[86,10]],[[2627,251],[0,1],[-1,0],[0,-1],[1,0]],[[2828,541],[23,27]],[[2557,369],[1,0]],[[2621,42]],[[2661,335],[-1,2]],[[2660,337],[2,1]],[[2555,384],[0,1],[-1,0],[0,-1],[1,0]],[[2623,243],[0,1],[-1,-1],[1,-1],[0,1]],[[2625,203],[0,1],[0,-1]],[[2475,0],[-29,500],[-100,1053],[-32,110],[-150,335],[-51,281],[-18,100],[-50,125],[26,72],[-5,85],[-113,425],[-17,41],[-83,200],[-128,213],[-172,201],[-55,52],[-12,6],[-10,21],[-24,7],[-29,3],[-25,12],[-49,33],[-114,34],[-47,28],[-22,35],[-46,124],[2976,0],[0,-4096],[-1621,0]],[[2810,440],[-21,-56],[85,-12],[-26,-92],[-76,-40],[-221,-5],[-33,34],[37,79],[-37,92],[33,0],[68,65],[68,20],[90,-17],[33,-68]],[[2470,413],[35,-15],[56,113],[32,-62],[100,29],[37,70],[16,-13],[19,22],[-9,-40],[28,-23],[41,60],[14,-68],[-37,-44],[20,-16],[-42,-95],[14,15],[68,-30],[40,-54],[76,4],[22,-44],[-50,-16],[0,23],[-46,4],[-20,-61],[-71,33],[15,53],[-25,14],[-46,-67],[47,-18],[-1,-22],[-86,-106],[-40,4],[12,-28],[-27,-35],[-42,0],[-19,94],[-31,-7],[-9,43],[35,76],[-38,-2],[-40,48],[-25,52],[17,33],[-38,31],[-2,45]],[[2541,956],[34,30],[-16,20],[71,58],[80,-117],[-25,-31],[-37,28],[-107,12]]]}