{"objects":{"water":{"type":"GeometryCollection","geometries":[{"type":"MultiPolygon","properties":{"source":"naturalearthdata.com","kind":"ocean","area":1576712559132672,"sort_rank":200,"min_zoom":0.0,"id":1},"arcs":[[[6]]]},{"type":"MultiLineString","properties":{"source":"naturalearthdata.com","kind":"ocean","sort_rank":205,"boundary":true,"min_zoom":0.0,"id":56},"arcs":[[7],[8],[9],[10],[11],[12],[13]]}]},"buildings":{"type":"GeometryCollection","geometries":[]},"places":{"type":"GeometryCollection","geometries":[{"type":"Point","properties":{"name:kg":"Gambia","name:ka":"\u10d2\u10d0\u10db\u10d1\u10d8\u10d0","name:ko":"\uac10\ube44\uc544","name:cv":"\u0413\u0430\u043c\u0431\u0438","name:km":"\u17a0\u17d2\u1782\u17b6\u17c6\u1794\u17ca\u17b8","name:kl":"Gambia","name:cs":"Gambie","name:ki":"Gambia","name:kw":"Gambi","name:tk":"Gambi\u00fda","name:ku":"Gambiya","name:ti":"\u130b\u121d\u1262\u12eb","name:ks":"\u06af\u064e\u0645\u0628\u0650\u06cc\u0627","name:to":"Kamipia","name:tl":"Ang Gambiya","name:ce":"\u0413\u0430\u043c\u0431\u0438","name:ta":"\u0b95\u0bbe\u0bae\u0bcd\u0baa\u0bbf\u0baf\u0bbe","name:tg":"\u0413\u0430\u043c\u0431\u0438\u044f","name:ca":"G\u00e0mbia","name:te":"\u0c17\u0c3e\u0c02\u0c2c\u0c3f\u0c2f\u0c3e","name:cy":"Y Gambia","name:hr":"Gambija","name:da":"Gambia","name:de":"Gambia","name:dz":"\u0f42\u0fb7\u0f7a\u0f58\u0f0b\u0f56\u0f72\u0f0b\u0f61","source":"openstreetmap.org","name:kn":"\u0c97\u0ccd\u0caf\u0cbe\u0c82\u0cac\u0cbf\u0caf\u0cbe","name:dv":"\u078e\u07ac\u0789\u07b0\u0784\u07a8\u0787\u07a7","name:lv":"Gambija","name:lt":"Gambija","name:uz":"Gambia","name:kk":"\u0413\u0430\u043c\u0431\u0438\u044f","name:ur":"\u06af\u0627\u0645\u0628\u06cc\u0627","name:lb":"Gambia","name:la":"Gambia","name:lg":"Gambya","name:uk":"\u0413\u0430\u043c\u0431\u0456\u044f","name:ug":"\u06af\u0627\u0645\u0628\u0649\u064a\u06d5","name:li":"Gambia","name:ln":"Gambi","name:lo":"\u0ec1\u0e81\u0ea1\u0ec0\u0e9a\u0e8d","name:el":"\u0393\u03ba\u03ac\u03bc\u03c0\u03b9\u03b1","name:eo":"Gambio","name:en":"Gambia","name":"The Gambia","name:ee":"Gambia nutome","name:th":"\u0e1b\u0e23\u0e30\u0e40\u0e17\u0e28\u0e41\u0e01\u0e21\u0e40\u0e1a\u0e35\u0e22","name:eu":"Gambia","name:et":"Gambia","name:es":"Gambia","name:ia":"Gambia","name:rm":"Gambia","name:rn":"Gambiya","name:az":"Qambiya","name:id":"Gambia","name:ar":"\u063a\u0627\u0645\u0628\u064a\u0627","name:io":"Gambia","name:ak":"Gambia","name:am":"\u130b\u121d\u1262\u12eb","name:it":"Gambia","name:an":"Gambia","name:ru":"\u0413\u0430\u043c\u0431\u0438\u044f","name:rw":"Gambiya","name:af":"Gambi\u00eb","name:zu":"i-Gambia","name:ky":"\u0413\u0430\u043c\u0431\u0438\u044f","name:zh-yue":"\u7518\u6bd4\u4e9e","name:zh":"\u5188\u6bd4\u4e9a","name:so":"Gambiya","name:sn":"Gambia","name:sl":"Gambija","name:sk":"Gambia","name:ja":"\u30ac\u30f3\u30d3\u30a2","name:si":"\u0d9c\u0dd0\u0db8\u0dca\u0db6\u0dd2\u0dba\u0dcf\u0dc0","name:sh":"Gambija","name:sg":"Gamb\u00efi","name:se":"G\u00e1mbia","name:sc":"G\u00e0mbia","name:sa":"\u0917\u093e\u092e\u094d\u092c\u093f\u092f\u093e","name:bs":"Gambija","name:bm":"Ganbi","name:bn":"\u0997\u09be\u09ae\u09cd\u09ac\u09bf\u09af\u09bc\u09be","name:bo":"\u0f42\u0fb7\u0f58\u0f0b\u0f56\u0f72\u0f0b\u0f61\u0f0d","name:br":"Gambia","name:sw":"Gambia","name:be":"\u0413\u0430\u043c\u0431\u0456\u044f","name:su":"Gambia","name:bg":"\u0413\u0430\u043c\u0431\u0438\u044f","name:ss":"IGambiya","name:ba":"\u0413\u0430\u043c\u0431\u0438\u044f","name:sq":"Gambi","name:jv":"Gambia","name:pt":"G\u00e2mbia","name:ps":"\u06ab\u0627\u0645\u0628\u064a\u0627","name:oc":"G\u00e0mbia","min_zoom":2.0,"name:ro":"Gambia","name:zh-min-nan":"Gambia","name:os":"\u0413\u0430\u043c\u0431\u0438","name:or":"\u0b17\u0b3e\u0b2e\u0b4d\u0b2c\u0b3f\u0b06","name:pl":"Gambia","name:st":"Gambia","name:sr":"\u0413\u0430\u043c\u0431\u0438\u0458\u0430","name:pa":"\u0a17\u0a3e\u0a02\u0a2c\u0a40\u0a06","name:tr":"Gambiya","name:hi":"\u0917\u093e\u092e\u094d\u092c\u093f\u092f\u093e","name:sv":"Gambia","name:he":"\u05d2\u05de\u05d1\u05d9\u05d4","name:ha":"Gambiya","name:hy":"\u0533\u0561\u0574\u0562\u056b\u0561","name:ht":"Ganbi","name:hu":"Gambia","name:qu":"Gambya","population":1713267,"kind":"country","name:ts":"Gambiya","name:is":"Gamb\u00eda","name:yi":"\u05d3\u05d9 \u05d2\u05d0\u05de\u05d1\u05d9\u05e2","name:yo":"Or\u00edl\u1eb9\u0301\u00e8de Gambia","name:mt":"Gambja","name:ms":"Gambia","name:mr":"\u0917\u093e\u092e\u094d\u092c\u093f\u092f\u093e","name:my":"\u1002\u1014\u103a\u1018\u102e\u101b\u102c","official_name":"Republic of The Gambia","int_name":"Gambia","name:mg":"Gambia","name:ml":"\u0d17\u0d3e\u0d02\u0d2c\u0d3f\u0d2f","name:vi":"Gambia","name:mn":"\u0413\u0430\u043c\u0431\u0438","id":424297579,"name:mk":"\u0413\u0430\u043c\u0431\u0438\u0458\u0430","name:vo":"Gambiy\u00e4n","name:fa":"\u06af\u0627\u0645\u0628\u06cc\u0627","name:ff":"Gammbi","name:fi":"Gambia","name:fo":"Gambia","name:fr":"Gambie","name:fy":"Gambia","name:nl":"Gambia","name:nn":"Gambia","name:no":"Gambia","name:na":"Gambiya","name:nb":"Gambia","name:ne":"\u0917\u093e\u092e\u094d\u0935\u093f\u092f\u093e","name:wo":"G\u00e0mbi","name:nv":"G\u00e9\u00e9mbiya","name:ga":"An Ghaimbia","name:gd":"A' Ghaimbia","name:gl":"Gambia","name:gv":"Yn Ghambia","name:gu":"\u0a97\u0ac7\u0aae\u0acd\u0aac\u0abf\u0aaf\u0abe","name:tt":"\u0413\u0430\u043c\u0431\u0438\u044f"},"coordinates":[4034,2739]},{"type":"Point","properties":{"source":"openstreetmap.org","kind":"region","name":"S\u00e9dhiou","kind_detail":"state","min_zoom":4.0,"id":2242821245},"coordinates":[3842,1014]},{"type":"Point","properties":{"source":"naturalearthdata.com","kind":"locality","name":"Banjul","country_capital":true,"population":43094,"min_zoom":5.0,"id":6564},"coordinates":[825,2691]},{"type":"Point","properties":{"kind":"locality","name":"Serrekunda","kind_detail":"city","name:ar":"\u0633\u064a\u0631\u064a\u0643\u0648\u0646\u062f\u0627","source":"openstreetmap.org","min_zoom":8.0,"name:uk":"\u0421\u0435\u0440\u0435\u043a\u0443\u043d\u0434\u0430","id":495132694,"population":380000},"coordinates":[583,2646]},{"type":"Point","properties":{"source":"openstreetmap.org","kind":"locality","name":"Ziguinchor","kind_detail":"town","population":230000,"min_zoom":8.0,"id":2281987760},"coordinates":[1755,27]},{"type":"Point","properties":{"source":"openstreetmap.org","kind":"locality","name":"Sukuta","kind_detail":"town","population":31674,"min_zoom":8.0,"id":2616106113},"coordinates":[488,2574]},{"type":"Point","properties":{"name:ka":"\u10d1\u10d0\u10dc\u10ef\u10e3\u10da\u10d8","name:mr":"\u092c\u0902\u091c\u0941\u0932","name:ko":"\ubc18\uc904","name:ar":"\u0628\u0627\u0646\u062c\u0648\u0644","name:th":"\u0e1a\u0e31\u0e19\u0e08\u0e39\u0e25","name:am":"\u1263\u1295\u1301\u120d","name:ru":"\u0411\u0430\u043d\u0436\u0443\u043b","name:pl":"Band\u017cul","name:ta":"\u0baa\u0b9e\u0bcd\u0b9a\u0bc1\u0bb2\u0bcd","name:tg":"\u0411\u0430\u043d\u04b7\u0443\u043b","name:ky":"\u0411\u0430\u043d\u0436\u0443\u043b","name:fa":"\u0628\u0627\u0646\u062c\u0648\u0644","kind_detail":"city","id":249167555,"source":"openstreetmap.org","name:mk":"\u0411\u0430\u043d\u045f\u0443\u043b","name:zh":"\u73ed\u73e0\u723e","admin_level":"2","name:lv":"Band\u017eula","name:ja":"\u30d0\u30f3\u30b8\u30e5\u30fc\u30eb","name:lt":"Band\u017eulis","name:hi":"\u092c\u093e\u091e\u094d\u091c\u0941\u0932","name:he":"\u05d1\u05e0\u05d2'\u05d5\u05dc","kind":"locality","name:ur":"\u0628\u0627\u0646\u062c\u0648\u0644","name:la":"Bathurstopolis","name:uk":"\u0411\u0430\u043d\u0436\u0443\u043b","name:hy":"\u0532\u0561\u0576\u057b\u0578\u0582\u056c","country_capital":true,"name:be":"\u0411\u0430\u043d\u0436\u0443\u043b","name:ht":"Banjoul","name:bg":"\u0411\u0430\u043d\u0434\u0436\u0443\u043b","name:sr":"\u0411\u0430\u043d\u045f\u0443\u043b","population":31356,"name:el":"\u039c\u03c0\u03b1\u03bd\u03b6\u03bf\u03cd\u03bb","name:eo":"Ban\u0135ulo","name":"Banjul","min_zoom":8.0,"name:bo":"\u0f56\u0f71\u0f53\u0f0b\u0f47\u0f71\u0f74\u0f0b\u0f63\u0f0d","name:yi":"\u05d1\u05d0\u05e0\u05d6\u05e9\u05d5\u05dc"},"coordinates":[872,2695]},{"type":"Point","properties":{"admin_level":"3","kind":"locality","name":"S\u00e9dhiou","kind_detail":"town","source":"openstreetmap.org","min_zoom":8.0,"id":293467839,"population":20141},"coordinates":[3838,465]},{"type":"Point","properties":{"source":"openstreetmap.org","kind":"locality","name":"Farafenni","kind_detail":"town","population":19512,"min_zoom":8.0,"id":249169367},"coordinates":[3719,3045]},{"type":"Point","properties":{"source":"openstreetmap.org","kind":"locality","name":"Wellingara","kind_detail":"town","population":16116,"min_zoom":8.0,"id":2616149102},"coordinates":[585,2541]},{"type":"Point","properties":{"source":"openstreetmap.org","kind":"locality","name":"Sokone","kind_detail":"town","population":14500,"min_zoom":8.0,"id":293773405},"coordinates":[1464,3961]},{"type":"Point","properties":{"source":"openstreetmap.org","kind":"locality","name":"Yundum","kind_detail":"town","population":13021,"min_zoom":8.0,"id":1607155521},"coordinates":[602,2329]},{"type":"Point","properties":{"admin_level":"6","kind":"locality","name":"Goudomp","kind_detail":"town","source":"openstreetmap.org","min_zoom":8.0,"id":2288874677,"population":12012},"coordinates":[2909,53]},{"type":"Point","properties":{"source":"openstreetmap.org","kind":"locality","name":"Soma","kind_detail":"town","population":11050,"min_zoom":8.0,"id":3871387436},"coordinates":[3902,2663]},{"type":"Point","properties":{"source":"openstreetmap.org","kind":"locality","name":"Tionk Essil","kind_detail":"town","population":8507,"min_zoom":8.0,"id":2019941091},"coordinates":[1075,681]},{"type":"Point","properties":{"source":"openstreetmap.org","kind":"locality","name":"Abuko","kind_detail":"town","population":8089,"min_zoom":8.0,"id":2616155056},"coordinates":[625,2541]},{"type":"Point","properties":{"kind":"locality","name":"Barra","kind_detail":"town","source":"openstreetmap.org","min_zoom":8.0,"old_name":"Barrinding","id":1609226547,"population":5799},"coordinates":[966,2790]},{"type":"Point","properties":{"source":"openstreetmap.org","kind":"locality","name":"Ta\u00efba Niass\u00e8ne","kind_detail":"town","population":3957,"min_zoom":8.0,"id":2599359814},"coordinates":[2825,3617]}]},"transit":{"type":"GeometryCollection","geometries":[]},"pois":{"type":"GeometryCollection","geometries":[]},"boundaries":{"type":"GeometryCollection","geometries":[{"type":"MultiLineString","properties":{"name:right:yo":"G\u00e1mb\u00ed\u00e0","name:left:la":"Senegalia","name:right:qu":"Gambya","name:right:dv":"\u078e\u07ac\u0789\u07b0\u0784\u07a8\u0787\u07a7","name:right:yi":"\u05d3\u05d9 \u05d2\u05d0\u05de\u05d1\u05d9\u05e2","name:right:hy":"\u0533\u0561\u0574\u0562\u056b\u0561","name:left:li":"Senegal","name:left:sw":"Senegal","name:left:sv":"Senegal","name:left:sq":"Senegali","name:left:lb":"Senegal","name:left:ln":"Senegale","name:left:sr":"\u0421\u0435\u043d\u0435\u0433\u0430\u043b","name:left:sl":"Senegal","name:left:so":"Sinigaal","name:left:sn":"Senegal","name:left:lt":"Senegalas","name:left:sh":"Senegal","name:left:lv":"Seneg\u0101la","name:left:vo":"Senegal\u00e4n","name:left:se":"Senegal","name:left:sg":"Seneg\u00e4le","name:left:sa":"\u0938\u0947\u0928\u0947\u0917\u0932","name:right:he":"\u05d2\u05de\u05d1\u05d9\u05d4","name:left:sc":"Seneg\u00e0l","name:right:af":"Gambi\u00eb","name:left:ce":"\u0421\u0435\u043d\u0435\u0433\u0430\u043b","name:right:am":"\u130b\u121d\u1262\u12eb","name:left:ca":"Senegal","source":"openstreetmap.org","name:right:ar":"\u063a\u0627\u0645\u0628\u064a\u0627","name:left:st":"Senegal","name:left:cv":"\u0421\u0435\u043d\u0435\u0433\u0430\u043b","name:right:az":"Qambiya","name:left:cs":"Senegal","name:left:kg":"Senangale","name:left:ka":"\u10e1\u10d4\u10dc\u10d4\u10d2\u10d0\u10da\u10d8","name:left:yi":"\u05e1\u05e2\u05e0\u05e2\u05d2\u05d0\u05dc","name:right:ht":"Ganbi","name:left:ko":"\uc138\ub124\uac08","name:left:kn":"\u0cb8\u0cc6\u0ca8\u0cc6\u0c97\u0cb2\u0ccd","name:right:is":"Gamb\u00eda","name:right:rw":"Gambiya","name:left:kk":"\u0421\u0435\u043d\u0435\u0433\u0430\u043b","name:right:ru":"\u0413\u0430\u043c\u0431\u0438\u044f","name:left:ku":"Senegal","name:left:kw":"Senegal","name:left:rw":"Senegali","name:left:ru":"\u0421\u0435\u043d\u0435\u0433\u0430\u043b","name:right:ie":"The Gambia","name:left:ky":"\u0421\u0435\u043d\u0435\u0433\u0430\u043b","name":"S\u00e9n\u00e9gal - Gambia","name:left:wa":"Senegal","name:right:bn":"\u0997\u09be\u09ae\u09cd\u09ac\u09bf\u09af\u09bc\u09be","name:right:bo":"\u0f42\u0f7a\u0f58\u0f0b\u0f56\u0fb7\u0f72\u0f0b\u0f61\u0f0d","name:right:zu":"IGambia","name:right:ba":"\u0413\u0430\u043c\u0431\u0438\u044f","name:right:bg":"\u0413\u0430\u043c\u0431\u0438\u044f","name:left:zu":"ISenegal","name:left:zh":"\u585e\u5185\u52a0\u5c14","name:right:bs":"Gambija","name:right:zh":"\u5188\u6bd4\u4e9a","name:left:uz":"Senegal","name:right:fr":"Gambie","name:left:sk":"Senegal","name:right:sc":"G\u00e0mbia","name:left:ur":"\u0633\u06cc\u0646\u06cc\u06af\u0627\u0644","name:right:wo":"G\u00e0mbi","name:right:ne":"\u0917\u093e\u092e\u094d\u092c\u093f\u092f\u093e","id:right":-192774,"name:left:uk":"\u0421\u0435\u043d\u0435\u0433\u0430\u043b","name:left:no":"Senegal","name:left:nl":"Senegal","name:right:gv":"Yn Ghambia","name:right:hi":"\u0917\u093e\u092e\u094d\u092c\u093f\u092f\u093e","name:right:fa":"\u06af\u0627\u0645\u0628\u06cc\u0627","name:right:nv":"G\u00e9\u00e9mbiya","name:right:be":"\u0413\u0430\u043c\u0431\u0456\u044f","name:left:ug":"\u0633\u06d0\u0646\u06d0\u06af\u0627\u0644","name:left:na":"Senegal","name:left:eo":"Senegalo","name:left:en":"Senegal","name:left:el":"\u03a3\u03b5\u03bd\u03b5\u03b3\u03ac\u03bb\u03b7","kind_detail":"2","name:left:ee":"Senegal","name:left:pl":"Senegal","name:left:wo":"Senegaal","name:left:es":"Senegal","name:left:ie":"Senegal","name:left:eu":"Senegal","name:left:et":"Senegal","name:right:ps":"\u06ab\u0627\u0645\u0628\u064a\u0627","name:right:pt":"G\u00e2mbia","name:left:mk":"\u0421\u0435\u043d\u0435\u0433\u0430\u043b","name:left:tr":"Senegal","name:left:ts":"Senegal","name:left:tt":"\u0421\u0435\u043d\u0435\u0433\u0430\u043b","name:right:oc":"G\u00e0mbia","name:left:ml":"\u0d38\u0d46\u0d28\u0d46\u0d17\u0d7d","name:left:th":"\u0e1b\u0e23\u0e30\u0e40\u0e17\u0e28\u0e40\u0e0b\u0e40\u0e19\u0e01\u0e31\u0e25","name:left:mr":"\u0938\u0947\u0928\u0947\u0917\u093e\u0932","name:left:zh-min-nan":"Senegal","name:left:tk":"Senegal","name:left:tl":"Senegal","name:right:tr":"Gambiya","name:left:mt":"Senegal","name:left:ta":"\u0b9a\u0bc6\u0ba9\u0bbf\u0b95\u0bb2\u0bcd","name:left:my":"\u1006\u102e\u1014\u102e\u1002\u1031\u102b\u1014\u102d\u102f\u1004\u103a\u1004\u1036","name:right:th":"\u0e1b\u0e23\u0e30\u0e40\u0e17\u0e28\u0e41\u0e01\u0e21\u0e40\u0e1a\u0e35\u0e22","name:left:te":"\u0c38\u0c46\u0c28\u0c46\u0c17\u0c32\u0c4d","name:right:os":"\u0413\u0430\u043c\u0431\u0438","name:left:tg":"\u0421\u0435\u043d\u0435\u0433\u0430\u043b","name:left:pt":"Senegal","name:left:ti":"\u1234\u1294\u130b\u120d","name:left:da":"Senegal","name:left:de":"Senegal","name:right:ga":"An Ghaimbia","name:left:dv":"\u0790\u07ac\u0782\u07ac\u078e\u07a7\u078d\u07b0","name:left:yo":"S\u1eb9\u0300n\u1eb9\u0300g\u00e0l","name:right:ug":"\u06af\u0627\u0645\u0628\u0649\u064a\u06d5","name:left:hi":"\u0938\u0947\u0928\u0947\u0917\u0932","name:right:uk":"\u0413\u0430\u043c\u0431\u0456\u044f","name:left:he":"\u05e1\u05e0\u05d2\u05dc","name:right:ln":"Gambi","name:left:ps":"\u0633\u06d0\u0646\u06d0\u06ab\u0627\u0644","name:left:ha":"Senegal","name:right:lt":"Gambija","name:right:ur":"\u06af\u06cc\u0645\u0628\u06cc\u0627","name:right:lv":"Gambija","name:left:hy":"\u054d\u0565\u0576\u0565\u0563\u0561\u056c","name:right:te":"\u0c17\u0c3e\u0c02\u0c2c\u0c3f\u0c2f\u0c3e","name:left:ht":"Senegal","name:left:hu":"Szeneg\u00e1l","name:left:hr":"Senegal","name:left:ga":"An tSeineag\u00e1il","name:right:tg":"\u0413\u0430\u043c\u0431\u0438\u044f","name:left:gd":"Seanagal","sort_rank":262,"name:right:gd":"A' Ghaimbia","name:left:gl":"Senegal","osm_relation":true,"name:left:gv":"Yn Tenegaal","official_name:right":"Islamic Republic of The Gambia","name:right:or":"\u0b17\u0b3e\u0b2e\u0b4d\u0b2c\u0b3f\u0b06","name:left":"S\u00e9n\u00e9gal","name:right:mk":"\u0413\u0430\u043c\u0431\u0438\u0458\u0430","name:right:sr":"\u0413\u0430\u043c\u0431\u0438\u0458\u0430","name:right:mn":"\u0413\u0430\u043c\u0431\u0438","name:right:ml":"\u0d17\u0d3e\u0d02\u0d2c\u0d3f\u0d2f","name:right:vo":"Gambiy\u00e4n","name:left:os":"\u0421\u0435\u043d\u0435\u0433\u0430\u043b","name:left:or":"\u0b38\u0b47\u0b28\u0b47\u0b17\u0b3e\u0b32","name:right:my":"\u1002\u1019\u103a\u1018\u102e\u101a\u102c\u1014\u102d\u102f\u1004\u103a\u1004\u1036","name:right:pa":"\u0a17\u0a3e\u0a02\u0a2c\u0a40\u0a06","name:left:bg":"\u0421\u0435\u043d\u0435\u0433\u0430\u043b","name:right:mr":"\u0917\u093e\u0902\u092c\u093f\u092f\u093e","name:left:oc":"Senegal","name:right:na":"Gambiya","name:right:eo":"Gambio","name:right:mt":"Gambja","name:left:ff":"Senegaal","name:left:nn":"Senegal","kind":"country","name:left:fa":"\u0633\u0646\u06af\u0627\u0644","name:left:ia":"Senegal","name:left:fo":"Senegal","name:left:fi":"Senegal","name:left:fy":"Senegal","name:left:br":"Senegal","name:left:bs":"Senegal","name:right:ja":"\u30ac\u30f3\u30d3\u30a2","name:right:ss":"IGambiya","name:left:ja":"\u30bb\u30cd\u30ac\u30eb","name:right:sh":"Gambija","name:left:qu":"Sinigal","name:left:ba":"\u0421\u0435\u043d\u0435\u0433\u0430\u043b","name:right:sl":"Gambija","name:left:be":"\u0421\u0435\u043d\u0435\u0433\u0430\u043b","name:right:sa":"\u0917\u093e\u092e\u094d\u092c\u093f\u092f\u093e","name:right:ff":"Gammbi","name:left:jv":"Senegal","id":-192775,"name:right:sg":"Gamb\u00efi","name:right":"Gambia","name:right:ca":"G\u00e0mbia","name:right:se":"G\u00e1mbia","name:right:ce":"\u0413\u0430\u043c\u0431\u0438","name:left:bo":"\u0f66\u0f72\u0f0b\u0f53\u0f72\u0f0b\u0f42\u0f71\u0f63\u0f0d","name:right:cy":"Y Gambia","name:right:zh-yue":"\u7518\u6bd4\u4e9e","id:left":-192775,"min_zoom":8.0,"name:right:cs":"Gambie","name:left:bm":"Senegal","name:left:zh-yue":"\u585e\u5167\u52a0\u723e","name:right:cv":"\u0413\u0430\u043c\u0431\u0438","name:right:ka":"\u10d2\u10d0\u10db\u10d1\u10d8\u10d0","name:right:hr":"Gambija","name:left:io":"Senegal","name:left:ar":"\u0627\u0644\u0633\u0646\u063a\u0627\u0644","name:right:tt":"\u0413\u0430\u043c\u0431\u0438\u044f","name:right:kk":"\u0413\u0430\u043c\u0431\u0438\u044f","name:left:id":"Senegal","name:left:az":"Seneqal","name:right:ko":"\uac10\ube44\uc544","name:right:ts":"Gambiya","name:right:tl":"Ang Gambiya","name:left:af":"Senegal","name:right:ku":"Gambiya","name:right:kw":"Gambi","name:right:tk":"Gambi\u00fda","name:right:ky":"\u0413\u0430\u043c\u0431\u0438\u044f","name:left:an":"Senegal","name:left:am":"\u1234\u1294\u130b\u120d","name:left:it":"Senegal","name:left:is":"Senegal","name:right:ta":"\u0b95\u0bbe\u0bae\u0bcd\u0baa\u0bbf\u0baf\u0bbe","name:left:ms":"Senegal","name:right:el":"\u0393\u03ba\u03ac\u03bc\u03c0\u03b9\u03b1","name:right:dz":"\u0f42\u0fb7\u0f7a\u0f58\u0f0b\u0f56\u0f72\u0f0b\u0f61","name:left:pa":"\u0a38\u0a47\u0a28\u0a47\u0a17\u0a32","name:left:bn":"\u09b8\u09c7\u09a8\u09c7\u0997\u09be\u09b2","name:left:ro":"Senegal"},"arcs":[[0],[1]]},{"type":"MultiLineString","properties":{"name:right:yo":"G\u00e1mb\u00ed\u00e0","name:left:la":"Senegalia","name:right:qu":"Gambya","name:right:yi":"\u05d3\u05d9 \u05d2\u05d0\u05de\u05d1\u05d9\u05e2","name:right:hy":"\u0533\u0561\u0574\u0562\u056b\u0561","name:left:li":"Senegal","name:left:sw":"Senegal","name:left:sv":"Senegal","name:left:sq":"Senegali","name:left:lb":"Senegal","name:left:ln":"Senegale","name:left:sr":"\u0421\u0435\u043d\u0435\u0433\u0430\u043b","name:left:sl":"Senegal","name:left:so":"Sinigaal","name:left:sn":"Senegal","name:left:lt":"Senegalas","name:left:sh":"Senegal","name:left:lv":"Seneg\u0101la","name:right:mr":"\u0917\u093e\u0902\u092c\u093f\u092f\u093e","name:left:se":"Senegal","name:left:sg":"Seneg\u00e4le","name:left:sa":"\u0938\u0947\u0928\u0947\u0917\u0932","name:right:he":"\u05d2\u05de\u05d1\u05d9\u05d4","name:left:sc":"Seneg\u00e0l","name:right:af":"Gambi\u00eb","name:left:ce":"\u0421\u0435\u043d\u0435\u0433\u0430\u043b","name:right:am":"\u130b\u121d\u1262\u12eb","name:left:ca":"Senegal","source":"openstreetmap.org","name:right:ar":"\u063a\u0627\u0645\u0628\u064a\u0627","name:left:st":"Senegal","name:left:cv":"\u0421\u0435\u043d\u0435\u0433\u0430\u043b","name:left:oc":"Senegal","name:right:az":"Qambiya","name:left:cs":"Senegal","name:left:kg":"Senangale","name:left:ka":"\u10e1\u10d4\u10dc\u10d4\u10d2\u10d0\u10da\u10d8","name:right:zh-yue":"\u7518\u6bd4\u4e9e","name:right:ht":"Ganbi","name:left:ko":"\uc138\ub124\uac08","name:left:kn":"\u0cb8\u0cc6\u0ca8\u0cc6\u0c97\u0cb2\u0ccd","name:right:is":"Gamb\u00eda","name:right:rw":"Gambiya","name:left:kk":"\u0421\u0435\u043d\u0435\u0433\u0430\u043b","name:right:ru":"\u0413\u0430\u043c\u0431\u0438\u044f","name:left:ku":"Senegal","name:left:kw":"Senegal","name:left:rw":"Senegali","name:left:ru":"\u0421\u0435\u043d\u0435\u0433\u0430\u043b","name:right:ie":"The Gambia","name:left:ky":"\u0421\u0435\u043d\u0435\u0433\u0430\u043b","name:right:bo":"\u0f42\u0f7a\u0f58\u0f0b\u0f56\u0fb7\u0f72\u0f0b\u0f61\u0f0d","name:right:lt":"Gambija","name:right:bn":"\u0997\u09be\u09ae\u09cd\u09ac\u09bf\u09af\u09bc\u09be","name":"S\u00e9n\u00e9gal - Gambia","name:right:zu":"IGambia","name:right:ba":"\u0413\u0430\u043c\u0431\u0438\u044f","name:right:bg":"\u0413\u0430\u043c\u0431\u0438\u044f","name:left:zu":"ISenegal","name:left:zh":"\u585e\u5185\u52a0\u5c14","name:right:bs":"Gambija","name:right:zh":"\u5188\u6bd4\u4e9a","name:left:uz":"Senegal","name:right:fr":"Gambie","name:left:sk":"Senegal","name:right:ko":"\uac10\ube44\uc544","name:left:ur":"\u0633\u06cc\u0646\u06cc\u06af\u0627\u0644","name:right:wo":"G\u00e0mbi","name:right:ne":"\u0917\u093e\u092e\u094d\u092c\u093f\u092f\u093e","id:right":-192774,"name:left:uk":"\u0421\u0435\u043d\u0435\u0433\u0430\u043b","name:left:no":"Senegal","name:left:nl":"Senegal","name:right:ps":"\u06ab\u0627\u0645\u0628\u064a\u0627","name:right:hi":"\u0917\u093e\u092e\u094d\u092c\u093f\u092f\u093e","name:right:fa":"\u06af\u0627\u0645\u0628\u06cc\u0627","name:right:nv":"G\u00e9\u00e9mbiya","name:right:be":"\u0413\u0430\u043c\u0431\u0456\u044f","name:left:ug":"\u0633\u06d0\u0646\u06d0\u06af\u0627\u0644","name:left:na":"Senegal","name:left:eo":"Senegalo","name:left:en":"Senegal","name:left:el":"\u03a3\u03b5\u03bd\u03b5\u03b3\u03ac\u03bb\u03b7","kind_detail":"2","name:left:ee":"Senegal","name:right:tt":"\u0413\u0430\u043c\u0431\u0438\u044f","name:left:hr":"Senegal","name:left:es":"Senegal","name:right:kk":"\u0413\u0430\u043c\u0431\u0438\u044f","name:left:eu":"Senegal","name:left:et":"Senegal","name:right:gv":"Yn Ghambia","name:right:pt":"G\u00e2mbia","name:right:cy":"Y Gambia","name:left:mk":"\u0421\u0435\u043d\u0435\u0433\u0430\u043b","name:left:tr":"Senegal","name:left:ts":"Senegal","name:left:tt":"\u0421\u0435\u043d\u0435\u0433\u0430\u043b","name:right:oc":"G\u00e0mbia","name:left:ml":"\u0d38\u0d46\u0d28\u0d46\u0d17\u0d7d","name:left:th":"\u0e1b\u0e23\u0e30\u0e40\u0e17\u0e28\u0e40\u0e0b\u0e40\u0e19\u0e01\u0e31\u0e25","name:left:mr":"\u0938\u0947\u0928\u0947\u0917\u093e\u0932","name:left:tk":"Senegal","name:left:tl":"Senegal","name:right:tr":"Gambiya","name:left:mt":"Senegal","name:left:ta":"\u0b9a\u0bc6\u0ba9\u0bbf\u0b95\u0bb2\u0bcd","name:left:my":"\u1006\u102e\u1014\u102e\u1002\u1031\u102b\u1014\u102d\u102f\u1004\u103a\u1004\u1036","name:left:te":"\u0c38\u0c46\u0c28\u0c46\u0c17\u0c32\u0c4d","name:right:os":"\u0413\u0430\u043c\u0431\u0438","name:left:tg":"\u0421\u0435\u043d\u0435\u0433\u0430\u043b","name:right:tl":"Ang Gambiya","name:left:ti":"\u1234\u1294\u130b\u120d","name:left:da":"Senegal","name:left:ar":"\u0627\u0644\u0633\u0646\u063a\u0627\u0644","name:left:de":"Senegal","id":-192775,"name:right:ga":"An Ghaimbia","name:left:dv":"\u0790\u07ac\u0782\u07ac\u078e\u07a7\u078d\u07b0","name:right:ug":"\u06af\u0627\u0645\u0628\u0649\u064a\u06d5","name:left:hi":"\u0938\u0947\u0928\u0947\u0917\u0932","name:right:uk":"\u0413\u0430\u043c\u0431\u0456\u044f","name:left:he":"\u05e1\u05e0\u05d2\u05dc","name:right:ln":"Gambi","name:right:tk":"Gambi\u00fda","name:left:ha":"Senegal","name:left:wa":"Senegal","name:right:ur":"\u06af\u06cc\u0645\u0628\u06cc\u0627","name:right:lv":"Gambija","name:left:hy":"\u054d\u0565\u0576\u0565\u0563\u0561\u056c","name:left:an":"Senegal","name:left:ht":"Senegal","name:left:hu":"Szeneg\u00e1l","name:left:wo":"Senegaal","name:left:ga":"An tSeineag\u00e1il","name:left:it":"Senegal","name:left:gd":"Seanagal","sort_rank":262,"name:right:gd":"A' Ghaimbia","name:left:gl":"Senegal","osm_relation":true,"name:left:gv":"Yn Tenegaal","official_name:right":"Islamic Republic of The Gambia","name:right:or":"\u0b17\u0b3e\u0b2e\u0b4d\u0b2c\u0b3f\u0b06","name:right:ku":"Gambiya","name:left":"S\u00e9n\u00e9gal","name:right:mk":"\u0413\u0430\u043c\u0431\u0438\u0458\u0430","name:left:ja":"\u30bb\u30cd\u30ac\u30eb","name:right:mn":"\u0413\u0430\u043c\u0431\u0438","name:right:ml":"\u0d17\u0d3e\u0d02\u0d2c\u0d3f\u0d2f","name:right:vo":"Gambiy\u00e4n","name:left:os":"\u0421\u0435\u043d\u0435\u0433\u0430\u043b","name:left:or":"\u0b38\u0b47\u0b28\u0b47\u0b17\u0b3e\u0b32","name:right:my":"\u1002\u1019\u103a\u1018\u102e\u101a\u102c\u1014\u102d\u102f\u1004\u103a\u1004\u1036","name:right:pa":"\u0a17\u0a3e\u0a02\u0a2c\u0a40\u0a06","name:left:vo":"Senegal\u00e4n","min_zoom":8.0,"name:right:na":"Gambiya","name:right:eo":"Gambio","name:right:mt":"Gambja","name:left:ff":"Senegaal","name:left:nn":"Senegal","kind":"country","name:left:fa":"\u0633\u0646\u06af\u0627\u0644","name:left:fo":"Senegal","name:left:fi":"Senegal","name:right:te":"\u0c17\u0c3e\u0c02\u0c2c\u0c3f\u0c2f\u0c3e","name:left:fy":"Senegal","name:left:br":"Senegal","name:left:bs":"Senegal","name:right:ja":"\u30ac\u30f3\u30d3\u30a2","name:right:sl":"Gambija","name:right:ss":"IGambiya","name:right:sr":"\u0413\u0430\u043c\u0431\u0438\u0458\u0430","name:right:sh":"Gambija","name:left:qu":"Sinigal","name:left:ba":"\u0421\u0435\u043d\u0435\u0433\u0430\u043b","name:left:bg":"\u0421\u0435\u043d\u0435\u0433\u0430\u043b","name:left:be":"\u0421\u0435\u043d\u0435\u0433\u0430\u043b","name:right:sa":"\u0917\u093e\u092e\u094d\u092c\u093f\u092f\u093e","name:right:ff":"Gammbi","name:left:jv":"Senegal","name:right:sc":"G\u00e0mbia","name:right:sg":"Gamb\u00efi","name:right":"Gambia","name:right:ca":"G\u00e0mbia","name:right:se":"G\u00e1mbia","name:right:ce":"\u0413\u0430\u043c\u0431\u0438","maritime_boundary":true,"name:left:bo":"\u0f66\u0f72\u0f0b\u0f53\u0f72\u0f0b\u0f42\u0f71\u0f63\u0f0d","name:left:yo":"S\u1eb9\u0300n\u1eb9\u0300g\u00e0l","name:left:yi":"\u05e1\u05e2\u05e0\u05e2\u05d2\u05d0\u05dc","id:left":-192775,"name:right:dz":"\u0f42\u0fb7\u0f7a\u0f58\u0f0b\u0f56\u0f72\u0f0b\u0f61","name:right:cs":"Gambie","name:left:bm":"Senegal","name:right:cv":"\u0413\u0430\u043c\u0431\u0438","name:right:ka":"\u10d2\u10d0\u10db\u10d1\u10d8\u10d0","name:right:hr":"Gambija","name:left:io":"Senegal","name:left:pa":"\u0a38\u0a47\u0a28\u0a47\u0a17\u0a32","name:left:pl":"Senegal","name:left:ie":"Senegal","name:left:id":"Senegal","name:left:az":"Seneqal","name:left:ia":"Senegal","name:right:ts":"Gambiya","name:left:pt":"Senegal","name:left:af":"Senegal","name:right:th":"\u0e1b\u0e23\u0e30\u0e40\u0e17\u0e28\u0e41\u0e01\u0e21\u0e40\u0e1a\u0e35\u0e22","name:right:kw":"Gambi","name:left:ps":"\u0633\u06d0\u0646\u06d0\u06ab\u0627\u0644","name:right:ky":"\u0413\u0430\u043c\u0431\u0438\u044f","name:left:zh-min-nan":"Senegal","name:left:am":"\u1234\u1294\u130b\u120d","name:right:tg":"\u0413\u0430\u043c\u0431\u0438\u044f","name:left:is":"Senegal","name:right:ta":"\u0b95\u0bbe\u0bae\u0bcd\u0baa\u0bbf\u0baf\u0bbe","name:left:ms":"Senegal","name:right:el":"\u0393\u03ba\u03ac\u03bc\u03c0\u03b9\u03b1","name:left:zh-yue":"\u585e\u5167\u52a0\u723e","name:right:dv":"\u078e\u07ac\u0789\u07b0\u0784\u07a8\u0787\u07a7","name:left:bn":"\u09b8\u09c7\u09a8\u09c7\u0997\u09be\u09b2","name:left:ro":"Senegal"},"arcs":[[2],[3]]},{"type":"LineString","properties":{"name:kg":"Senangale","name:ka":"\u10e1\u10d4\u10dc\u10d4\u10d2\u10d0\u10da\u10d8","name:ko":"\uc138\ub124\uac08","name:cv":"\u0421\u0435\u043d\u0435\u0433\u0430\u043b","name:cs":"Senegal","name:tt":"\u0421\u0435\u043d\u0435\u0433\u0430\u043b","name:kw":"Senegal","name:tk":"Senegal","name:ku":"Senegal","name:ti":"\u1234\u1294\u130b\u120d","name:tl":"Senegal","name:ce":"\u0421\u0435\u043d\u0435\u0433\u0430\u043b","name:ta":"\u0b9a\u0bc6\u0ba9\u0bbf\u0b95\u0bb2\u0bcd","name:tg":"\u0421\u0435\u043d\u0435\u0433\u0430\u043b","name:ca":"Senegal","name:te":"\u0c38\u0c46\u0c28\u0c46\u0c17\u0c32\u0c4d","name:qu":"Sinigal","name:da":"Senegal","name:de":"Senegal","source":"openstreetmap.org","name:kn":"\u0cb8\u0cc6\u0ca8\u0cc6\u0c97\u0cb2\u0ccd","name:dv":"\u0790\u07ac\u0782\u07ac\u078e\u07a7\u078d\u07b0","name:lv":"Seneg\u0101la","name:lt":"Senegalas","name:uz":"Senegal","name:kk":"\u0421\u0435\u043d\u0435\u0433\u0430\u043b","name:ur":"\u0633\u06cc\u0646\u06cc\u06af\u0627\u0644","name:lb":"Senegal","name:la":"Senegalia","name:uk":"\u0421\u0435\u043d\u0435\u0433\u0430\u043b","name:ug":"\u0633\u06d0\u0646\u06d0\u06af\u0627\u0644","name:li":"Senegal","name:ln":"Senegale","name:el":"\u03a3\u03b5\u03bd\u03b5\u03b3\u03ac\u03bb\u03b7","name:eo":"Senegalo","name:en":"Senegal","name":"S\u00e9n\u00e9gal","name:ee":"Senegal","name:th":"\u0e1b\u0e23\u0e30\u0e40\u0e17\u0e28\u0e40\u0e0b\u0e40\u0e19\u0e01\u0e31\u0e25","name:eu":"Senegal","name:et":"Senegal","name:es":"Senegal","name:ia":"Senegal","name:az":"Seneqal","name:ie":"Senegal","name:id":"Senegal","name:ar":"\u0627\u0644\u0633\u0646\u063a\u0627\u0644","name:io":"Senegal","name:is":"Senegal","name:am":"\u1234\u1294\u130b\u120d","name:it":"Senegal","name:an":"Senegal","name:ru":"\u0421\u0435\u043d\u0435\u0433\u0430\u043b","name:rw":"Senegali","name:af":"Senegal","name:zu":"ISenegal","kind_detail":"2","name:ky":"\u0421\u0435\u043d\u0435\u0433\u0430\u043b","name:zh-yue":"\u585e\u5167\u52a0\u723e","name:zh":"\u585e\u5185\u52a0\u5c14","name:so":"Sinigaal","name:sn":"Senegal","name:sl":"Senegal","name:sk":"Senegal","name:ja":"\u30bb\u30cd\u30ac\u30eb","name:sh":"Senegal","name:sg":"Seneg\u00e4le","name:se":"Senegal","name:sc":"Seneg\u00e0l","name:br":"Senegal","name:bs":"Senegal","name:bm":"Senegal","name:bn":"\u09b8\u09c7\u09a8\u09c7\u0997\u09be\u09b2","name:bo":"\u0f66\u0f72\u0f0b\u0f53\u0f72\u0f0b\u0f42\u0f71\u0f63\u0f0d","name:sa":"\u0938\u0947\u0928\u0947\u0917\u0932","name:sw":"Senegal","name:be":"\u0421\u0435\u043d\u0435\u0433\u0430\u043b","name:bg":"\u0421\u0435\u043d\u0435\u0433\u0430\u043b","name:ba":"\u0421\u0435\u043d\u0435\u0433\u0430\u043b","name:sq":"Senegali","name:jv":"Senegal","name:pt":"Senegal","name:ps":"\u0633\u06d0\u0646\u06d0\u06ab\u0627\u0644","name:oc":"Senegal","min_zoom":8.0,"name:ro":"Senegal","name:zh-min-nan":"Senegal","name:os":"\u0421\u0435\u043d\u0435\u0433\u0430\u043b","name:or":"\u0b38\u0b47\u0b28\u0b47\u0b17\u0b3e\u0b32","name:pl":"Senegal","name:st":"Senegal","sort_rank":262,"name:sr":"\u0421\u0435\u043d\u0435\u0433\u0430\u043b","osm_relation":true,"name:pa":"\u0a38\u0a47\u0a28\u0a47\u0a17\u0a32","name:tr":"Senegal","name:hi":"\u0938\u0947\u0928\u0947\u0917\u0932","name:sv":"Senegal","name:he":"\u05e1\u05e0\u05d2\u05dc","name:ha":"Senegal","name:hy":"\u054d\u0565\u0576\u0565\u0563\u0561\u056c","name:ht":"Senegal","name:hu":"Szeneg\u00e1l","name:hr":"Senegal","kind":"country","name:ts":"Senegal","name:yi":"\u05e1\u05e2\u05e0\u05e2\u05d2\u05d0\u05dc","name:yo":"S\u1eb9\u0300n\u1eb9\u0300g\u00e0l","name:mt":"Senegal","name:ms":"Senegal","name:mr":"\u0938\u0947\u0928\u0947\u0917\u093e\u0932","name:my":"\u1006\u102e\u1014\u102e\u1002\u1031\u102b\u1014\u102d\u102f\u1004\u103a\u1004\u1036","name:ml":"\u0d38\u0d46\u0d28\u0d46\u0d17\u0d7d","id":-192775,"name:mk":"\u0421\u0435\u043d\u0435\u0433\u0430\u043b","name:vo":"Senegal\u00e4n","name:fa":"\u0633\u0646\u06af\u0627\u0644","name:ff":"Senegaal","name:fi":"Senegal","name:fo":"Senegal","name:fy":"Senegal","name:nl":"Senegal","name:nn":"Senegal","name:no":"Senegal","name:na":"Senegal","name:wa":"Senegal","name:wo":"Senegaal","name:ga":"An tSeineag\u00e1il","name:gd":"Seanagal","name:gl":"Senegal","maritime_boundary":true,"name:gv":"Yn Tenegaal"},"arcs":[4]},{"type":"LineString","properties":{"name:pt":"G\u00e2mbia","name:ps":"\u06ab\u0627\u0645\u0628\u064a\u0627","name:ka":"\u10d2\u10d0\u10db\u10d1\u10d8\u10d0","name:ko":"\uac10\ube44\uc544","name:cv":"\u0413\u0430\u043c\u0431\u0438","name:cs":"Gambie","name:tt":"\u0413\u0430\u043c\u0431\u0438\u044f","name:kw":"Gambi","name:tk":"Gambi\u00fda","name:ku":"Gambiya","name:tl":"Ang Gambiya","name:pa":"\u0a17\u0a3e\u0a02\u0a2c\u0a40\u0a06","name:os":"\u0413\u0430\u043c\u0431\u0438","name:or":"\u0b17\u0b3e\u0b2e\u0b4d\u0b2c\u0b3f\u0b06","name:ce":"\u0413\u0430\u043c\u0431\u0438","name:ta":"\u0b95\u0bbe\u0bae\u0bcd\u0baa\u0bbf\u0baf\u0bbe","name:tg":"\u0413\u0430\u043c\u0431\u0438\u044f","name:ca":"G\u00e0mbia","name:te":"\u0c17\u0c3e\u0c02\u0c2c\u0c3f\u0c2f\u0c3e","name:cy":"Y Gambia","source":"openstreetmap.org","sort_rank":262,"name:qu":"Gambya","name:ba":"\u0413\u0430\u043c\u0431\u0438\u044f","name:dz":"\u0f42\u0fb7\u0f7a\u0f58\u0f0b\u0f56\u0f72\u0f0b\u0f61","name:tr":"Gambiya","osm_relation":true,"name:ts":"Gambiya","name:dv":"\u078e\u07ac\u0789\u07b0\u0784\u07a8\u0787\u07a7","name:lv":"Gambija","name:lt":"Gambija","name:hi":"\u0917\u093e\u092e\u094d\u092c\u093f\u092f\u093e","name:kk":"\u0413\u0430\u043c\u0431\u0438\u044f","name:he":"\u05d2\u05de\u05d1\u05d9\u05d4","name:eo":"Gambio","name:ur":"\u06af\u06cc\u0645\u0628\u06cc\u0627","name:uk":"\u0413\u0430\u043c\u0431\u0456\u044f","name:hy":"\u0533\u0561\u0574\u0562\u056b\u0561","name:ug":"\u06af\u0627\u0645\u0628\u0649\u064a\u06d5","name:ln":"Gambi","name:oc":"G\u00e0mbia","name:el":"\u0393\u03ba\u03ac\u03bc\u03c0\u03b9\u03b1","kind":"country","name":"Gambia","min_zoom":8.0,"name:th":"\u0e1b\u0e23\u0e30\u0e40\u0e17\u0e28\u0e41\u0e01\u0e21\u0e40\u0e1a\u0e35\u0e22","name:yi":"\u05d3\u05d9 \u05d2\u05d0\u05de\u05d1\u05d9\u05e2","name:yo":"G\u00e1mb\u00ed\u00e0","name:mt":"Gambja","name:az":"Qambiya","name:ie":"The Gambia","name:mr":"\u0917\u093e\u0902\u092c\u093f\u092f\u093e","name:ar":"\u063a\u0627\u0645\u0628\u064a\u0627","name:my":"\u1002\u1019\u103a\u1018\u102e\u101a\u102c\u1014\u102d\u102f\u1004\u103a\u1004\u1036","official_name":"Islamic Republic of The Gambia","name:is":"Gamb\u00eda","name:am":"\u130b\u121d\u1262\u12eb","name:ru":"\u0413\u0430\u043c\u0431\u0438\u044f","name:ml":"\u0d17\u0d3e\u0d02\u0d2c\u0d3f\u0d2f","name:rw":"Gambiya","id":-192774,"name:mk":"\u0413\u0430\u043c\u0431\u0438\u0458\u0430","name:af":"Gambi\u00eb","name:zu":"IGambia","name:mn":"\u0413\u0430\u043c\u0431\u0438","name:ss":"IGambiya","name:ff":"Gammbi","kind_detail":"2","name:hr":"Gambija","name:fr":"Gambie","name:ky":"\u0413\u0430\u043c\u0431\u0438\u044f","name:zh-yue":"\u7518\u6bd4\u4e9e","name:vo":"Gambiy\u00e4n","name:zh":"\u5188\u6bd4\u4e9a","name:sl":"Gambija","name:ja":"\u30ac\u30f3\u30d3\u30a2","name:sh":"Gambija","name:sg":"Gamb\u00efi","name:na":"Gambiya","name:se":"G\u00e1mbia","name:sc":"G\u00e0mbia","name:ne":"\u0917\u093e\u092e\u094d\u092c\u093f\u092f\u093e","name:sa":"\u0917\u093e\u092e\u094d\u092c\u093f\u092f\u093e","name:bs":"Gambija","name:bn":"\u0997\u09be\u09ae\u09cd\u09ac\u09bf\u09af\u09bc\u09be","name:bo":"\u0f42\u0f7a\u0f58\u0f0b\u0f56\u0fb7\u0f72\u0f0b\u0f61\u0f0d","name:be":"\u0413\u0430\u043c\u0431\u0456\u044f","name:bg":"\u0413\u0430\u043c\u0431\u0438\u044f","name:wo":"G\u00e0mbi","name:sr":"\u0413\u0430\u043c\u0431\u0438\u0458\u0430","name:nv":"G\u00e9\u00e9mbiya","name:ga":"An Ghaimbia","name:gd":"A' Ghaimbia","name:ht":"Ganbi","name:fa":"\u06af\u0627\u0645\u0628\u06cc\u0627","maritime_boundary":true,"name:gv":"Yn Ghambia"},"arcs":[5]}]},"roads":{"type":"GeometryCollection","geometries":[{"type":"MultiLineString","properties":{"sort_rank":380,"kind_detail":"primary","min_zoom":8.0,"kind":"major_road","source":"openstreetmap.org"},"arcs":[[14],[15],[16],[17],[18],[19],[20],[21],[22],[23],[24],[25],[26],[27],[28],[29],[30],[31],[32],[33],[34],[35]]},{"type":"MultiLineString","properties":{"sort_rank":381,"source":"openstreetmap.org","min_zoom":8.0,"kind":"major_road","kind_detail":"trunk"},"arcs":[[36],[37],[38],[39],[40]]},{"type":"MultiLineString","properties":{"kind":"major_road","network":"Route nationale du S\u00e9n\u00e9gal","sort_rank":380,"kind_detail":"primary","source":"openstreetmap.org","min_zoom":8.0,"landuse_kind":"urban_area","shield_text":"4"},"arcs":[[41],[42]]},{"type":"LineString","properties":{"kind":"major_road","network":"Trans-African Highways","sort_rank":380,"kind_detail":"primary","source":"openstreetmap.org","min_zoom":8.0,"old_name":"Wellington Street","shield_text":null,"id":32352380},"arcs":[43]},{"type":"MultiLineString","properties":{"source":"openstreetmap.org","kind":"major_road","network":"Trans-African Highways","sort_rank":381,"kind_detail":"trunk","min_zoom":8.0,"shield_text":null},"arcs":[[44],[45],[46],[47],[48],[49]]},{"type":"MultiLineString","properties":{"kind":"major_road","network":"Route nationale du S\u00e9n\u00e9gal","sort_rank":380,"kind_detail":"primary","source":"openstreetmap.org","min_zoom":8.0,"landuse_kind":"urban_area","shield_text":"6","osm_relation":true},"arcs":[[50],[51],[52],[53]]},{"type":"MultiLineString","properties":{"kind":"major_road","network":"Trans-African Highways","sort_rank":381,"kind_detail":"trunk","source":"openstreetmap.org","min_zoom":8.0,"landuse_kind":"residential","shield_text":null},"arcs":[[54],[55],[56]]},{"type":"MultiLineString","properties":{"kind":"major_road","network":"Route nationale du S\u00e9n\u00e9gal","sort_rank":380,"kind_detail":"primary","source":"openstreetmap.org","min_zoom":8.0,"landuse_kind":"urban_area","shield_text":"6"},"arcs":[[57],[58],[59]]},{"type":"MultiLineString","properties":{"source":"openstreetmap.org","kind":"major_road","landuse_kind":"urban_area","sort_rank":380,"kind_detail":"primary","is_bicycle_related":true,"min_zoom":8.0},"arcs":[[60],[61],[62],[63],[64],[65]]},{"type":"MultiLineString","properties":{"source":"openstreetmap.org","kind":"major_road","landuse_kind":"urban_area","sort_rank":380,"kind_detail":"primary","min_zoom":8.0},"arcs":[[66],[67],[68],[69],[70],[71],[72],[73],[74],[75],[76],[77],[78],[79],[80],[81],[82],[83],[84],[85],[86]]},{"type":"MultiLineString","properties":{"kind":"ferry","name":"Ferry Aline Sito\u00e9 Diatta","sort_rank":355,"is_bicycle_related":true,"source":"openstreetmap.org","min_zoom":8.0,"id":-5385485,"osm_relation":true},"arcs":[[87],[88]]},{"type":"MultiLineString","properties":{"kind":"major_road","network":"Route nationale du S\u00e9n\u00e9gal","sort_rank":380,"kind_detail":"primary","source":"openstreetmap.org","min_zoom":8.0,"landuse_kind":"urban_area","shield_text":"4","osm_relation":true},"arcs":[[89],[90],[91],[92],[93],[94],[95],[96]]},{"type":"LineString","properties":{"kind":"major_road","network":"Trans-African Highways","sort_rank":380,"kind_detail":"primary","source":"openstreetmap.org","min_zoom":8.0,"old_name":"Russell Street","shield_text":null,"id":255682723},"arcs":[97]},{"type":"MultiLineString","properties":{"kind":"major_road","network":"Trans-African Highways","sort_rank":380,"kind_detail":"primary","source":"openstreetmap.org","min_zoom":8.0,"landuse_kind":"urban_area","shield_text":null},"arcs":[[98],[99],[100]]},{"type":"MultiLineString","properties":{"kind":"major_road","network":"Route nationale du S\u00e9n\u00e9gal","sort_rank":380,"kind_detail":"primary","source":"openstreetmap.org","min_zoom":8.0,"shield_text":"6","osm_relation":true},"arcs":[[101],[102],[103]]},{"type":"MultiLineString","properties":{"source":"openstreetmap.org","kind":"major_road","landuse_kind":"urban_area","sort_rank":380,"kind_detail":"primary","min_zoom":8.0,"osm_relation":true},"arcs":[[104],[105]]},{"type":"LineString","properties":{"kind":"ferry","name":"Banjul-Barra Ferry","sort_rank":355,"is_bicycle_related":true,"source":"openstreetmap.org","min_zoom":8.0,"all_networks":["Trans-African Highways"],"shield_text":null,"id":26782224,"all_shield_texts":[null],"network":"Trans-African Highways"},"arcs":[106]},{"type":"LineString","properties":{"source":"openstreetmap.org","kind":"ferry","sort_rank":355,"is_bicycle_related":true,"min_zoom":8.0,"id":26754531},"arcs":[107]},{"type":"LineString","properties":{"source":"openstreetmap.org","kind":"ferry","name":"St James Island","sort_rank":355,"min_zoom":8.0,"id":261742282},"arcs":[108]},{"type":"MultiLineString","properties":{"source":"openstreetmap.org","kind":"major_road","network":"Route nationale du S\u00e9n\u00e9gal","sort_rank":380,"kind_detail":"primary","min_zoom":8.0,"shield_text":"6"},"arcs":[[109],[110],[111]]},{"type":"MultiLineString","properties":{"kind":"major_road","network":"Route nationale du S\u00e9n\u00e9gal","sort_rank":380,"kind_detail":"primary","source":"openstreetmap.org","min_zoom":8.0,"shield_text":"4","osm_relation":true},"arcs":[[112],[113],[114]]},{"type":"MultiLineString","properties":{"source":"openstreetmap.org","kind":"major_road","network":"Trans-African Highways","sort_rank":380,"kind_detail":"primary","min_zoom":8.0,"shield_text":null},"arcs":[[115],[116],[117],[118],[119],[120],[121],[122],[123],[124],[125],[126],[127],[128],[129],[130],[131],[132],[133],[134],[135],[136],[137],[138],[139],[140],[141],[142],[143],[144],[145],[146],[147],[148],[149],[150],[151]]},{"type":"MultiLineString","properties":{"kind":"major_road","network":"Route nationale du S\u00e9n\u00e9gal","sort_rank":380,"kind_detail":"primary","source":"openstreetmap.org","min_zoom":8.0,"shield_text":"5","osm_relation":true},"arcs":[[152],[153],[154],[155],[156],[157],[158],[159],[160],[161],[162],[163],[164],[165],[166],[167],[168],[169],[170],[171],[172],[173],[174],[175],[176],[177],[178],[179],[180],[181],[182],[183],[184],[185],[186],[187]]},{"type":"MultiLineString","properties":{"source":"openstreetmap.org","kind":"major_road","network":"Route nationale du S\u00e9n\u00e9gal","sort_rank":380,"kind_detail":"primary","min_zoom":8.0,"shield_text":"4"},"arcs":[[188],[189],[190]]},{"type":"LineString","properties":{"kind":"ferry","name":"Ferry Aline Sito\u00e9 Diatta","sort_rank":355,"landuse_kind":"urban_area","is_bicycle_related":true,"source":"openstreetmap.org","min_zoom":8.0,"id":-5385485,"osm_relation":true},"arcs":[191]},{"type":"LineString","properties":{"source":"openstreetmap.org","kind":"major_road","sort_rank":380,"kind_detail":"primary","is_bicycle_related":true,"min_zoom":8.0},"arcs":[192]},{"type":"LineString","properties":{"kind":"major_road","network":"Route nationale du S\u00e9n\u00e9gal","sort_rank":380,"kind_detail":"primary","source":"openstreetmap.org","min_zoom":8.0,"shield_text":"5","id":450355828},"arcs":[193]},{"type":"MultiLineString","properties":{"kind":"major_road","network":"Trans-African Highways","sort_rank":381,"landuse_kind":"urban_area","source":"openstreetmap.org","min_zoom":8.0,"kind_detail":"trunk","shield_text":null},"arcs":[[194],[195],[196]]},{"type":"MultiLineString","properties":{"source":"openstreetmap.org","kind":"major_road","sort_rank":380,"kind_detail":"primary","min_zoom":8.0,"osm_relation":true},"arcs":[[197],[198],[199],[200],[201],[202]]}]},"earth":{"type":"GeometryCollection","geometries":[{"type":"MultiPolygon","properties":{"sort_rank":10,"source":"naturalearthdata.com","min_zoom":0.0,"kind":"earth","area":78523674797},"arcs":[[[203]],[[204]],[[205]],[[206]],[[207]],[[208]],[[209]]]}]},"landuse":{"type":"GeometryCollection","geometries":[{"type":"Polygon","properties":{"source":"openstreetmap.org","kind":"residential","area":11469300,"tier":2,"id":419418044,"min_zoom":8.0,"sort_rank":20},"arcs":[[210]]},{"type":"MultiPolygon","properties":{"source":"naturalearthdata.com","kind":"urban_area","name":"","area":219558937,"sort_rank":11,"min_zoom":4.0},"arcs":[[[211]],[[212]],[[213]],[[214]]]}]}},"type":"Topology","transform":{"translate":[-16.875,12.5545635286],"scale":[0.0003433228,0.0003341895]},"arcs":[[[4096,2486],[-87,30],[-47,-5],[-124,-103],[-75,-26],[-136,11],[-148,51],[-120,-59],[-243,-6],[5,-546],[-267,3],[-53,-20],[-2248,22],[-17,-27],[-31,7],[-1,-29],[-22,6],[29,-61],[-28,-1],[-8,-38],[-39,2],[26,-34],[-56,5],[-2,-27],[30,-17],[-22,-20],[13,-30],[-46,-28]],[[957,3098],[2740,4],[374,-21],[25,77]],[[379,1546],[-11,-30],[-368,0]],[[49,3137],[120,-48],[788,9]],[[0,3158],[49,-21]],[[49,3137],[-49,-54]],[[4096,808],[0,-87],[-34,-15],[-40,-4],[-43,4],[-42,-2],[-34,-20],[-25,-75],[10,-93],[26,-91],[29,-68],[-25,-24],[18,-16],[32,-14],[16,-19],[-8,-41],[-21,-21],[-29,-15],[-34,-25],[-89,-117],[-54,-55],[-24,-10],[-252,0],[-7,10],[-19,51],[-23,26],[-16,5],[-15,-8],[-17,-3],[-40,30],[-19,-1],[-18,-9],[-16,-14],[-61,27],[-41,-24],[-33,-39],[-33,-21],[-75,-19],[-25,-3],[-14,8],[-38,40],[-18,13],[-187,3],[-33,6],[-25,28],[-46,37],[-77,61],[-51,28],[-64,3],[-43,-23],[-38,-28],[-45,-13],[-70,-4],[-52,-13],[-227,-85],[-17,22],[-17,38],[-23,26],[-33,-14],[-67,-41],[-58,6],[-57,21],[-68,3],[-52,-28],[-70,-87],[-30,-15],[-96,0],[-78,37],[-88,24],[-97,56],[-58,13],[-51,-15],[-30,-36],[-2,-47],[-40,26],[-41,113],[-54,63],[-112,-82],[-19,-28],[-12,-25],[-17,-24],[-31,-27],[-77,-48],[-592,0],[0,4096],[283,0],[8,-253],[18,0],[-12,253],[77,0],[6,-64],[13,-46],[17,-41],[-20,-37],[-4,-63],[15,-59],[37,-27],[27,-13],[6,-32],[0,-37],[9,-29],[30,-14],[22,20],[29,55],[19,16],[33,20],[16,14],[15,28],[5,25],[10,25],[32,26],[56,18],[60,8],[52,16],[29,40],[21,0],[39,-11],[39,49],[30,74],[7,39],[59,0],[-21,-90],[-15,-41],[44,-21],[12,-59],[5,-76],[22,-68],[-42,-8],[-33,34],[-21,56],[-5,59],[-101,-19],[15,-49],[6,-14],[-17,10],[-45,22],[-17,11],[-18,-42],[-104,-123],[-26,-40],[-8,-30],[-5,-73],[-25,-118],[13,-55],[51,-54],[56,-18],[57,17],[46,42],[21,63],[42,-3],[31,40],[14,58],[-8,48],[59,-7],[5,-36],[-27,-46],[-37,-36],[16,-7],[30,-23],[15,-8],[-73,-58],[-74,-38],[-49,-47],[-2,-84],[14,-31],[29,-44],[0,-1],[20,-29],[16,-40],[3,-47],[-24,-126],[0,-61],[6,-11],[29,-18],[18,-33],[54,-41],[12,-21],[6,-22],[29,-60],[6,-41],[-6,-31],[-36,-74],[-17,-27],[94,-5],[226,-56],[62,-5],[101,3],[99,15],[58,29],[-15,6],[-13,9],[-14,4],[0,21],[12,3],[30,15],[-18,34],[6,25],[49,45],[13,-34],[-6,-35],[-8,-31],[1,-22],[25,-19],[22,9],[22,18],[22,10],[28,21],[122,124],[82,61],[52,29],[55,12],[58,-9],[92,-33],[933,74],[104,31],[128,70],[53,12],[51,-6],[78,-37],[50,2],[29,19],[42,58],[30,24],[57,16],[39,-9],[33,-17],[40,-9],[12,-6],[18,-15],[22,-14],[27,-6],[23,6],[25,11],[16,3],[0,-42],[-4,2],[-27,-7],[-30,-12],[-31,-5],[-30,13],[-26,21],[-33,19],[-37,11],[-34,-1],[-29,-20],[-46,-73],[-25,-30],[-33,-23],[-28,-12],[-30,-5],[-41,-1],[-28,10],[-42,43],[-28,10],[-28,-8],[-54,-39],[-28,-16],[-169,-53],[-60,-6],[-188,22],[-64,-4],[-8,-6],[-12,-12],[-16,-13],[-22,-10],[-27,-5],[-15,1],[-16,3],[-32,1],[-55,-5],[-156,-37],[-409,22],[-47,19],[-29,6],[-12,-15],[-10,-31],[-22,-24],[-116,-98],[-24,-37],[-9,-55],[1,-25],[6,-23],[9,-18],[14,-7],[19,-13],[6,-29],[2,-33],[13,-82],[12,-18],[28,21],[23,23],[27,17],[30,10],[32,3],[0,-22],[-100,-54],[-70,-22],[-52,15],[-8,53],[13,68],[-13,60],[-81,25],[-58,-16],[-107,-72],[-54,-16],[-48,-24],[-39,-41],[-34,-14],[-29,60],[-35,-18],[-40,-6],[-86,2],[0,-20],[41,3],[31,-11],[20,-25],[8,-38],[11,-8],[53,-54],[17,-31],[-38,30],[-26,-2],[-57,-48],[17,41],[-1,54],[-17,47],[-28,19],[-59,6],[-30,14],[-23,21],[-38,24],[-42,12],[-147,7],[-24,17],[-107,128],[7,50],[-21,89],[-38,86],[-46,40],[34,36],[48,3],[32,10],[-16,53],[-31,33],[-45,18],[-52,-3],[-51,-27],[-30,15],[-25,16],[-17,22],[-6,31],[-74,-63],[-171,-210],[-33,-27],[-38,-21],[-35,-8],[-31,-19],[-31,-92],[-26,-32],[27,-68],[11,-16],[-23,-48],[13,-39],[50,-58],[16,-39],[7,-39],[-7,-140],[2,-36],[56,-148],[6,-45],[-21,-43],[-12,-25],[7,-21],[45,-15],[44,-39],[13,-25],[5,-49],[-7,-79],[-29,-125],[-6,-62],[3,-35],[14,-70],[3,-38],[-11,-38],[-104,-156],[-17,-38],[-7,-36],[8,-45],[18,-12],[20,15],[13,33],[22,0],[14,-52],[-12,-45],[-64,-89],[18,-24],[6,-26],[-6,-26],[-18,-24],[37,-8],[34,24],[60,74],[51,18],[60,-12],[42,-33],[-5,-44],[-102,34],[-75,-59],[-46,-106],[-16,-105],[5,-102],[23,-77],[54,-32],[97,34],[128,108],[87,37],[7,49],[-21,106],[3,64],[12,39],[25,30],[58,54],[14,9],[13,13],[16,26],[7,23],[13,81],[18,-105],[-38,-68],[-58,-59],[-41,-78],[-3,-41],[12,-31],[24,-21],[34,-7],[47,11],[26,28],[23,33],[34,28],[13,-59],[107,-93],[39,-52],[21,0],[20,247],[10,-42],[17,-37],[28,-22],[45,-1],[0,-23],[-30,-6],[-26,-19],[-19,-27],[-5,-29],[15,-22],[27,-13],[26,-8],[12,-7],[19,-40],[45,-39],[97,-55],[119,-39],[26,20],[20,34],[15,32],[10,14],[26,6],[40,29],[32,6],[94,-19],[35,0],[31,9],[56,24],[33,8],[110,0],[70,-19],[31,-3],[18,8],[60,40],[31,13],[119,21],[81,52],[11,102],[14,19],[31,61],[4,13],[0,22],[18,0],[15,-34],[11,-64],[11,-11],[14,-5],[10,-10],[40,-80],[18,-24],[14,-8],[20,-6],[38,-5],[11,-8],[-1,-19],[-4,-21],[4,-15],[72,-49],[44,-23],[34,-10],[35,6],[49,29],[36,6],[35,-9],[21,-22],[13,-21],[10,-9],[51,12],[140,90],[207,-34],[88,-40],[-16,-90],[25,-21],[31,-14],[34,2],[39,24],[147,134],[22,30],[71,61],[8,20],[2,24],[-1,49],[-5,31],[-33,112],[0,173],[17,44],[39,21],[44,7],[30,0],[52,11],[70,52]],[[283,4096],[8,-253],[18,0],[-12,253]],[[374,4096],[6,-64],[13,-46],[17,-41],[-20,-37],[-4,-63],[15,-59],[37,-27],[27,-13],[6,-32],[0,-37],[9,-29],[30,-14],[22,20],[29,55],[19,16],[33,20],[16,14],[15,28],[5,25],[10,25],[32,26],[56,18],[60,8],[52,16],[29,40],[21,0],[39,-11],[39,49],[30,74],[7,39]],[[1083,4096],[-21,-90],[-15,-41],[44,-21],[12,-59],[5,-76],[22,-68],[-42,-8],[-33,34],[-21,56],[-5,59],[-101,-19],[15,-49],[6,-14],[-17,10],[-45,22],[-17,11],[-18,-42],[-104,-123],[-26,-40],[-8,-30],[-5,-73],[-25,-118],[13,-55],[51,-54],[56,-18],[57,17],[46,42],[21,63],[42,-3],[31,40],[14,58],[-8,48],[59,-7],[5,-36],[-27,-46],[-37,-36],[16,-7],[30,-23],[15,-8],[-73,-58],[-74,-38],[-49,-47],[-2,-84],[14,-31],[29,-44],[0,-1],[20,-29],[16,-40],[3,-47],[-24,-126],[0,-61],[6,-11],[29,-18],[18,-33],[54,-41],[12,-21],[6,-22],[29,-60],[6,-41],[-6,-31],[-36,-74],[-17,-27],[94,-5],[226,-56],[62,-5],[101,3],[99,15],[58,29],[-15,6],[-13,9],[-14,4],[0,21],[12,3],[30,15],[-18,34],[6,25],[49,45],[13,-34],[-6,-35],[-8,-31],[1,-22],[25,-19],[22,9],[22,18],[22,10],[28,21],[122,124],[82,61],[52,29],[55,12],[58,-9],[92,-33],[933,74],[104,31],[128,70],[53,12],[51,-6],[78,-37],[50,2],[29,19],[42,58],[30,24],[57,16],[39,-9],[33,-17],[40,-9],[12,-6],[18,-15],[22,-14],[27,-6],[23,6],[25,11],[16,3]],[[4096,2816],[-4,2],[-27,-7],[-30,-12],[-31,-5],[-30,13],[-26,21],[-33,19],[-37,11],[-34,-1],[-29,-20],[-46,-73],[-25,-30],[-33,-23],[-28,-12],[-30,-5],[-41,-1],[-28,10],[-42,43],[-28,10],[-28,-8],[-54,-39],[-28,-16],[-169,-53],[-60,-6],[-188,22],[-64,-4],[-8,-6],[-12,-12],[-16,-13],[-22,-10],[-27,-5],[-15,1],[-16,3],[-32,1],[-55,-5],[-156,-37],[-409,22],[-47,19],[-29,6],[-12,-15],[-10,-31],[-22,-24],[-116,-98],[-24,-37],[-9,-55],[1,-25],[6,-23],[9,-18],[14,-7],[19,-13],[6,-29],[2,-33],[13,-82],[12,-18],[28,21],[23,23],[27,17],[30,10],[32,3],[0,-22],[-100,-54],[-70,-22],[-52,15],[-8,53],[13,68],[-13,60],[-81,25],[-58,-16],[-107,-72],[-54,-16],[-48,-24],[-39,-41],[-34,-14],[-29,60],[-35,-18],[-40,-6],[-86,2],[0,-20],[41,3],[31,-11],[20,-25],[8,-38],[11,-8],[53,-54],[17,-31],[-38,30],[-26,-2],[-57,-48],[17,41],[-1,54],[-17,47],[-28,19],[-59,6],[-30,14],[-23,21],[-38,24],[-42,12],[-147,7],[-24,17],[-107,128],[7,50],[-21,89],[-38,86],[-46,40],[34,36],[48,3],[32,10],[-16,53],[-31,33],[-45,18],[-52,-3],[-51,-27],[-30,15],[-25,16],[-17,22],[-6,31],[-74,-63],[-171,-210],[-33,-27],[-38,-21],[-35,-8],[-31,-19],[-31,-92],[-26,-32],[27,-68],[11,-16],[-23,-48],[13,-39],[50,-58],[16,-39],[7,-39],[-7,-140],[2,-36],[56,-148],[6,-45],[-21,-43],[-12,-25],[7,-21],[45,-15],[44,-39],[13,-25],[5,-49],[-7,-79],[-29,-125],[-6,-62],[3,-35],[14,-70],[3,-38],[-11,-38],[-104,-156],[-17,-38],[-7,-36],[8,-45],[18,-12],[20,15],[13,33],[22,0],[14,-52],[-12,-45],[-64,-89],[18,-24],[6,-26],[-6,-26],[-18,-24],[37,-8],[34,24],[60,74],[51,18],[60,-12],[42,-33],[-5,-44],[-102,34],[-75,-59],[-46,-106],[-16,-105],[5,-102],[23,-77],[54,-32],[97,34],[128,108],[87,37],[7,49],[-21,106],[3,64],[12,39],[25,30],[58,54],[14,9],[13,13],[16,26],[7,23],[13,81],[18,-105],[-38,-68],[-58,-59],[-41,-78],[-3,-41],[12,-31],[24,-21],[34,-7],[47,11],[26,28],[23,33],[34,28],[13,-59],[107,-93],[39,-52],[21,0],[20,247],[10,-42],[17,-37],[28,-22],[45,-1],[0,-23],[-30,-6],[-26,-19],[-19,-27],[-5,-29],[15,-22],[27,-13],[26,-8],[12,-7],[19,-40],[45,-39],[97,-55],[119,-39],[26,20],[20,34],[15,32],[10,14],[26,6],[40,29],[32,6],[94,-19],[35,0],[31,9],[56,24],[33,8],[110,0],[70,-19],[31,-3],[18,8],[60,40],[31,13],[119,21],[81,52],[11,102],[14,19],[31,61],[4,13],[0,22],[18,0],[15,-34],[11,-64],[11,-11],[14,-5],[10,-10],[40,-80],[18,-24],[14,-8],[20,-6],[38,-5],[11,-8],[-1,-19],[-4,-21],[4,-15],[72,-49],[44,-23],[34,-10],[35,6],[49,29],[36,6],[35,-9],[21,-22],[13,-21],[10,-9],[51,12],[140,90],[207,-34],[88,-40],[-16,-90],[25,-21],[31,-14],[34,2],[39,24],[147,134],[22,30],[71,61],[8,20],[2,24],[-1,49],[-5,31],[-33,112],[0,173],[17,44],[39,21],[44,7],[30,0],[52,11],[70,52]],[[4096,721],[-34,-15],[-40,-4],[-43,4],[-42,-2],[-34,-20],[-25,-75],[10,-93],[26,-91],[29,-68],[-25,-24],[18,-16],[32,-14],[16,-19],[-8,-41],[-21,-21],[-29,-15],[-34,-25],[-89,-117],[-54,-55],[-24,-10]],[[3473,0],[-7,10],[-19,51],[-23,26],[-16,5],[-15,-8],[-17,-3],[-40,30],[-19,-1],[-18,-9],[-16,-14],[-61,27],[-41,-24],[-33,-39],[-33,-21],[-75,-19],[-25,-3],[-14,8],[-38,40],[-18,13],[-187,3],[-33,6],[-25,28],[-46,37],[-77,61],[-51,28],[-64,3],[-43,-23],[-38,-28],[-45,-13],[-70,-4],[-52,-13],[-227,-85],[-17,22],[-17,38],[-23,26],[-33,-14],[-67,-41],[-58,6],[-57,21],[-68,3],[-52,-28],[-70,-87],[-30,-15]],[[1399,0],[-78,37],[-88,24],[-97,56],[-58,13],[-51,-15],[-30,-36],[-2,-47],[-40,26],[-41,113],[-54,63],[-112,-82],[-19,-28],[-12,-25],[-17,-24],[-31,-27],[-77,-48]],[[373,1554],[-44,67],[-3,516],[-65,82],[-13,62]],[[333,1843],[86,39],[75,-11],[43,22],[119,250]],[[475,2528],[134,-136]],[[609,2392],[1,-1]],[[611,2391],[-2,1]],[[871,1847],[0,2]],[[871,1849]],[[872,1853],[-1,-4]],[[871,1849],[0,-1]],[[875,2690],[0,-1]],[[876,2689],[0,1]],[[880,2693],[0,-1]],[[1018,2797],[37,-25],[108,4],[144,56],[71,61],[111,3],[163,52],[54,-20],[451,-4],[65,-30],[43,-74],[32,-3],[110,84],[138,13],[398,131],[444,-39],[167,3],[165,40]],[[2979,3854],[6,-6]],[[3697,3102],[22,-53]],[[3719,3049],[7,-7]],[[3726,3042],[65,-149]],[[3726,3042],[21,-2]],[[3903,2648],[-102,223]],[[3920,2480],[-17,168]],[[4096,2646],[-193,2]],[[3935,3020],[135,-15],[26,29]],[[825,2173],[101,-9],[46,-29],[20,-55],[65,-13],[44,-94],[228,-107],[253,82],[258,-9],[92,21],[286,-30],[77,89],[429,20],[52,-23],[94,41],[83,-21],[82,51],[5,300],[100,127],[271,75],[84,-29],[222,4],[180,96]],[[851,2711]],[[851,2711],[1,0]],[[3898,2663],[-1,-3]],[[3897,2660],[3,-1]],[[1779,81],[1,0]],[[1780,81],[-1,0]],[[880,2670],[3,19]],[[669,2490],[-70,-126]],[[599,2364],[70,126]],[[599,2359],[36,-143]],[[664,2728],[187,-17]],[[852,2711],[-130,22],[-6,0],[-52,-5]],[[692,2180],[133,-7]],[[1780,81],[1,-2]],[[1781,79],[-1,2]],[[1781,79],[50,-33]],[[1779,81],[1,0],[-1,0]],[[598,2363],[1,1]],[[599,2364],[-1,-1]],[[598,2363],[1,-4]],[[1780,81],[1,-2]],[[1781,79],[-1,2]],[[1781,79],[45,-40]],[[389,2531],[34,18]],[[423,2549],[2,1]],[[425,2551],[-2,-2]],[[427,2552],[-2,-1]],[[425,2551],[2,1]],[[427,2552],[68,37]],[[424,2552],[-11,18],[67,124],[64,20]],[[544,2714],[42,13],[43,-4]],[[424,2552],[1,-2]],[[425,2551],[-1,1]],[[425,2550],[1,0]],[[426,2550],[-1,1]],[[426,2550],[49,-22]],[[581,2665],[-86,-76]],[[580,2666],[-36,48]],[[544,2714],[-21,28],[67,36]],[[580,2666],[1,-1]],[[581,2665],[-1,1]],[[581,2665],[2,-1]],[[583,2664],[-2,1]],[[629,2723],[6,-2]],[[636,2721],[-7,2]],[[646,2171],[10,-28]],[[3747,3040],[188,-20]],[[425,2551],[0,-1],[0,1]],[[581,2665]],[[581,2665]],[[1734,120],[-57,34],[-85,3],[-38,-34],[-42,-110],[-58,-12],[-276,153],[-167,16],[-100,104],[-71,24],[-74,-34],[-169,-216],[-82,-28],[-62,16],[-84,-17],[-36,-19]],[[59,0],[-59,64]],[[1778,79],[-21,-23],[9,-56]],[[1772,106],[8,-23]],[[1778,79],[2,2]],[[1779,81],[-1,-2]],[[1780,81],[-1,0]],[[1780,83],[-1,-2]],[[1780,81],[-1,0]],[[1780,81],[0,2]],[[883,2689],[-3,4]],[[1778,79],[-21,-24],[6,-55]],[[1778,79],[2,4]],[[1784,106],[-4,-23]],[[1831,46],[44,-30],[67,40],[102,-16],[286,75],[106,43],[62,61],[89,-40],[21,-52],[171,-84],[111,6],[128,-49]],[[3169,0],[31,14],[271,9],[18,-23]],[[3981,0],[43,111],[-60,67],[-3,41],[108,71],[27,4]],[[645,2173],[47,7]],[[3747,3040],[188,-20]],[[955,2780],[-73,-111]],[[3900,521],[-45,-46]],[[1497,2285],[-68,37]],[[1826,39],[39,-20],[86,35],[147,-3],[302,95],[85,71],[100,-36],[21,-52],[173,-86],[147,-5],[95,-38]],[[3169,0],[30,14],[262,10],[20,-24]],[[3982,0],[36,89],[-59,104],[41,65],[96,26]],[[3920,2480],[35,-59],[-2,-285],[-294,-602],[-627,-223],[-485,-102],[-24,-28],[-10,-119],[-182,-90],[-36,-58],[-124,-14],[-168,-121],[-159,-77],[48,-333],[-103,-30],[-58,-112],[41,-121]],[[2741,4096],[238,-242]],[[2985,3848],[184,-207],[41,-84],[309,-164],[155,-153],[23,-138]],[[806,1464],[0,-2]],[[806,1462],[0,-1]],[[806,1461]],[[806,1461],[1,0]],[[807,1461],[-1,1]],[[825,2173],[43,-480],[-62,-229]],[[807,1461],[-1,3]],[[807,1461]],[[807,1461],[141,-144],[249,-124],[90,-117],[294,-76],[72,-107],[216,-112]],[[851,2711],[2,-2]],[[853,2709],[-1,2]],[[853,2709],[22,-19]],[[875,2690],[1,0]],[[876,2690],[3,2]],[[879,2692],[1,0],[0,1],[-1,-1]],[[880,2670],[2,-1]],[[1466,3990],[22,-76],[-35,-74],[-25,-25],[-172,-23],[-73,-118],[137,-151],[-25,-200],[12,-306],[-138,-78],[-113,-127],[-101,-32]],[[1842,698],[50,-328],[-105,-34],[-56,-111],[53,-119]],[[1893,729],[-51,-31]],[[1842,698],[31,69]],[[1870,781],[-1,0]],[[1869,781],[2,-1]],[[1870,781],[0,-1],[0,1]],[[1871,780],[-1,1]],[[1871,780],[3,-10]],[[1874,769],[0,-1]],[[1874,768]],[[1874,768],[1,0]],[[1874,770],[0,-1]],[[1875,769],[-1,1]],[[806,1462]],[[806,1462],[0,-1]],[[806,1461]],[[806,1461],[0,1]],[[1875,768],[-1,1],[0,-1]],[[1874,768]],[[1874,768],[1,0]],[[805,1461],[1,0]],[[806,1461],[0,1]],[[806,1462]],[[806,1462]],[[806,1464],[0,-2]],[[806,1462],[0,-1]],[[806,1461]],[[806,1461],[1,0]],[[807,1461],[-1,1]],[[806,1462]],[[870,1831],[-2,-138],[-62,-229]],[[807,1461],[-1,3]],[[807,1461]],[[807,1461],[2,-1]],[[812,1457],[110,-90],[25,-49],[250,-125],[90,-117],[256,-55],[109,-128],[217,-112]],[[1614,4096],[-148,-106],[22,-77],[-54,-95],[-178,-26],[-72,-116],[136,-153],[-25,-200],[24,-220]],[[1842,698],[31,69]],[[1870,781],[-1,0]],[[1869,781],[2,-1]],[[1870,781],[0,-1],[0,1]],[[1871,780],[-1,1]],[[1871,780],[3,-10]],[[1874,769],[0,-1]],[[1874,768]],[[1874,768],[1,0]],[[1874,770],[0,-1]],[[1875,769],[-1,1]],[[806,1462]],[[806,1462],[0,-1]],[[806,1461]],[[806,1461]],[[806,1461],[0,1]],[[806,1462]],[[1875,768],[-1,1],[0,-1]],[[1874,768]],[[1874,768],[1,0]],[[3920,2480],[35,-59],[-2,-285],[-283,-587],[-638,-238],[-497,-109],[-21,-138],[-137,-70],[-99,-87],[-103,-5],[-282,-173]],[[2741,4096],[238,-242]],[[2985,3848],[246,-304],[266,-139],[179,-167],[21,-136]],[[1767,101],[-33,19]],[[248,2281],[-30,32],[34,143],[137,75]],[[1614,4096],[-148,-106]],[[635,2216],[10,-43],[47,7]],[[669,2490],[7,16],[-81,60],[-12,98],[81,64]],[[664,2728],[-82,-64],[13,-98],[74,-76]],[[692,2180],[234,-16],[46,-29],[21,-56],[61,-8],[50,-100],[223,-105],[255,82],[258,-9],[88,21],[290,-30],[83,91],[361,-2],[62,20],[52,-23],[89,40],[83,-21],[82,41],[22,56],[-10,259],[98,123],[271,75],[84,-29],[222,4],[183,95]],[[1018,2797],[37,-25],[108,4],[144,56],[71,61],[111,3],[163,52],[54,-20],[451,-4],[65,-30],[21,-42]],[[3387,3006],[167,3],[165,40]],[[3726,3042],[21,-2]],[[4096,2646],[-193,2]],[[3935,3020],[135,-15],[26,29]],[[1024,4096],[-7,-39],[-30,-74],[-39,-49],[-39,11],[-21,0],[-29,-40],[-52,-16],[-60,-8],[-56,-18],[-32,-26],[-10,-25],[-5,-25],[-15,-28],[-16,-14],[-33,-20],[-19,-16],[-29,-55],[-22,-20],[-30,14],[-9,29],[0,37],[-6,32],[-27,13],[-37,27],[-15,59],[4,63],[20,37],[-17,41],[-13,46],[-6,64],[650,0]],[[297,4096],[12,-253],[-18,0],[-8,253],[14,0]],[[4096,721],[0,-721],[-371,0],[24,10],[54,55],[89,117],[34,25],[29,15],[21,21],[8,41],[-16,19],[-32,14],[-18,16],[25,24],[-29,68],[-26,91],[-10,93],[25,75],[34,20],[42,2],[43,-4],[40,4],[34,15]],[[4096,2816],[0,-2008],[-70,-52],[-52,-11],[-30,0],[-44,-7],[-39,-21],[-17,-44],[0,-173],[33,-112],[5,-31],[1,-49],[-2,-24],[-8,-20],[-71,-61],[-22,-30],[-147,-134],[-39,-24],[-34,-2],[-31,14],[-25,21],[16,90],[-88,40],[-207,34],[-140,-90],[-51,-12],[-10,9],[-13,21],[-21,22],[-35,9],[-36,-6],[-49,-29],[-35,-6],[-34,10],[-44,23],[-72,49],[-4,15],[4,21],[1,19],[-11,8],[-38,5],[-20,6],[-14,8],[-18,24],[-40,80],[-10,10],[-14,5],[-11,11],[-11,64],[-15,34],[-18,0],[0,-22],[-4,-13],[-31,-61],[-14,-19],[-11,-102],[-81,-52],[-119,-21],[-31,-13],[-60,-40],[-18,-8],[-31,3],[-70,19],[-110,0],[-33,-8],[-56,-24],[-31,-9],[-35,0],[-94,19],[-32,-6],[-40,-29],[-26,-6],[-10,-14],[-15,-32],[-20,-34],[-26,-20],[-119,39],[-97,55],[-45,39],[-19,40],[-12,7],[-26,8],[-27,13],[-15,22],[5,29],[19,27],[26,19],[30,6],[0,23],[-45,1],[-28,22],[-17,37],[-10,42],[-20,-247],[-21,0],[-39,52],[-107,93],[-13,59],[-34,-28],[-23,-33],[-26,-28],[-47,-11],[-34,7],[-24,21],[-12,31],[3,41],[41,78],[58,59],[38,68],[-18,105],[-13,-81],[-7,-23],[-16,-26],[-13,-13],[-14,-9],[-58,-54],[-25,-30],[-12,-39],[-3,-64],[21,-106],[-7,-49],[-87,-37],[-128,-108],[-97,-34],[-54,32],[-23,77],[-5,102],[16,105],[46,106],[75,59],[102,-34],[5,44],[-42,33],[-60,12],[-51,-18],[-60,-74],[-34,-24],[-37,8],[18,24],[6,26],[-6,26],[-18,24],[64,89],[12,45],[-14,52],[-22,0],[-13,-33],[-20,-15],[-18,12],[-8,45],[7,36],[17,38],[104,156],[11,38],[-3,38],[-14,70],[-3,35],[6,62],[29,125],[7,79],[-5,49],[-13,25],[-44,39],[-45,15],[-7,21],[12,25],[21,43],[-6,45],[-56,148],[-2,36],[7,140],[-7,39],[-16,39],[-50,58],[-13,39],[23,48],[-11,16],[-27,68],[26,32],[31,92],[31,19],[35,8],[38,21],[33,27],[171,210],[74,63],[6,-31],[17,-22],[25,-16],[30,-15],[51,27],[52,3],[45,-18],[31,-33],[16,-53],[-32,-10],[-48,-3],[-34,-36],[46,-40],[38,-86],[21,-89],[-7,-50],[107,-128],[24,-17],[147,-7],[42,-12],[38,-24],[23,-21],[30,-14],[59,-6],[28,-19],[17,-47],[1,-54],[-17,-41],[57,48],[26,2],[38,-30],[-17,31],[-53,54],[-11,8],[-8,38],[-20,25],[-31,11],[-41,-3],[0,20],[86,-2],[40,6],[35,18],[29,-60],[34,14],[39,41],[48,24],[54,16],[107,72],[58,16],[81,-25],[13,-60],[-13,-68],[8,-53],[52,-15],[70,22],[100,54],[0,22],[-32,-3],[-30,-10],[-27,-17],[-23,-23],[-28,-21],[-12,18],[-13,82],[-2,33],[-6,29],[-19,13],[-14,7],[-9,18],[-6,23],[-1,25],[9,55],[24,37],[116,98],[22,24],[10,31],[12,15],[29,-6],[47,-19],[409,-22],[156,37],[55,5],[32,-1],[16,-3],[15,-1],[27,5],[22,10],[16,13],[12,12],[8,6],[64,4],[188,-22],[60,6],[169,53],[28,16],[54,39],[28,8],[28,-10],[42,-43],[28,-10],[41,1],[30,5],[28,12],[33,23],[25,30],[46,73],[29,20],[34,1],[37,-11],[33,-19],[26,-21],[30,-13],[31,5],[30,12],[27,7],[4,-2]],[[4096,4096],[0,-1238],[-16,-3],[-25,-11],[-23,-6],[-27,6],[-22,14],[-18,15],[-12,6],[-40,9],[-33,17],[-39,9],[-57,-16],[-30,-24],[-42,-58],[-29,-19],[-50,-2],[-78,37],[-51,6],[-53,-12],[-128,-70],[-104,-31],[-933,-74],[-92,33],[-58,9],[-55,-12],[-52,-29],[-82,-61],[-122,-124],[-28,-21],[-22,-10],[-22,-18],[-22,-9],[-25,19],[-1,22],[8,31],[6,35],[-13,34],[-49,-45],[-6,-25],[18,-34],[-30,-15],[-12,-3],[0,-21],[14,-4],[13,-9],[15,-6],[-58,-29],[-99,-15],[-101,-3],[-62,5],[-226,56],[-94,5],[17,27],[36,74],[6,31],[-6,41],[-29,60],[-6,22],[-12,21],[-54,41],[-18,33],[-29,18],[-6,11],[0,61],[24,126],[-3,47],[-16,40],[-20,29],[0,1],[-29,44],[-14,31],[2,84],[49,47],[74,38],[73,58],[-15,8],[-30,23],[-16,7],[37,36],[27,46],[-5,36],[-59,7],[8,-48],[-14,-58],[-31,-40],[-42,3],[-21,-63],[-46,-42],[-57,-17],[-56,18],[-51,54],[-13,55],[25,118],[5,73],[8,30],[26,40],[104,123],[18,42],[17,-11],[45,-22],[17,-10],[-6,14],[-15,49],[101,19],[5,-59],[21,-56],[33,-34],[42,8],[-22,68],[-5,76],[-12,59],[-44,21],[15,41],[21,90],[3013,0]],[[1399,0],[-807,0],[77,48],[31,27],[17,24],[12,25],[19,28],[112,82],[54,-63],[41,-113],[40,-26],[2,47],[30,36],[51,15],[58,-13],[97,-56],[88,-24],[78,-37]],[[3473,0],[-1978,0],[30,15],[70,87],[52,28],[68,-3],[57,-21],[58,-6],[67,41],[33,14],[23,-26],[17,-38],[17,-22],[227,85],[52,13],[70,4],[45,13],[38,28],[43,23],[64,-3],[51,-28],[77,-61],[46,-37],[25,-28],[33,-6],[187,-3],[18,-13],[38,-40],[14,-8],[25,3],[75,19],[33,21],[33,39],[41,24],[61,-27],[16,14],[18,9],[19,1],[40,-30],[17,3],[15,8],[16,-5],[23,-26],[19,-51],[7,-10]],[[483,2365],[11,39],[44,-11],[61,-23],[1,-41],[-70,-29],[-41,19],[-6,46]],[[1798,0],[-70,0],[-51,35],[54,86],[41,-15],[99,-5],[-73,-101]],[[739,2029],[-33,67],[-89,84],[24,49],[75,-73],[23,-127]],[[619,2749],[51,-4],[-28,-84],[76,-117],[-12,-49],[-54,-7],[-107,73],[-115,-55],[-53,33],[-27,35],[147,181],[74,63],[48,-69]],[[3927,3053],[15,-59],[-65,0],[-32,33],[-71,-26],[-28,14],[2,79],[134,-12],[45,-29]]]}