{"objects":{"water":{"type":"GeometryCollection","geometries":[{"type":"MultiPolygon","properties":{"source":"naturalearthdata.com","kind":"ocean","area":1576712559132672,"sort_rank":200,"min_zoom":0.0,"id":1},"arcs":[[[4]]]},{"type":"MultiLineString","properties":{"source":"naturalearthdata.com","kind":"ocean","sort_rank":205,"boundary":true,"min_zoom":0.0,"id":1405},"arcs":[[5],[6],[7]]},{"type":"LineString","properties":{"source":"naturalearthdata.com","kind":"ocean","sort_rank":205,"boundary":true,"min_zoom":0.0,"id":1414},"arcs":[8]},{"type":"MultiLineString","properties":{"source":"naturalearthdata.com","kind":"ocean","sort_rank":205,"boundary":true,"min_zoom":0.0,"id":1418},"arcs":[[9],[10]]},{"type":"MultiLineString","properties":{"source":"naturalearthdata.com","kind":"ocean","sort_rank":205,"boundary":true,"min_zoom":0.0,"id":1419},"arcs":[[11],[12],[13]]}]},"buildings":{"type":"GeometryCollection","geometries":[]},"places":{"type":"GeometryCollection","geometries":[]},"transit":{"type":"GeometryCollection","geometries":[]},"pois":{"type":"GeometryCollection","geometries":[]},"boundaries":{"type":"GeometryCollection","geometries":[{"type":"LineString","properties":{"name:right:yo":"Guinea-Bissau","name:left:la":"Guinea","name:right:qu":"Khiniya-Wisaw","name:right:yi":"\u05d2\u05d9\u05e0\u05e2-\u05d1\u05d9\u05e1\u05d0\u05d5","name:right:hy":"\u0533\u057e\u056b\u0576\u0565\u0561 \u0532\u056b\u057d\u0561\u0578\u0582","name:left:su":"Guin\u00e9a","name:left:li":"Guinee","name:left:sw":"Guinea","name:left:sv":"Guinea","name:left:sq":"Guinea","name:left:lb":"Guinea","name:left:ln":"Gine-Konakry","name:left:sr":"\u0413\u0432\u0438\u043d\u0435\u0458\u0430","name:left:sm":"Guinea","name:left:sl":"Gvineja","name:left:so":"Guinea","name:left:sn":"Guinea","name:left:lt":"Gvin\u0117ja","name:left:sh":"Gvineja","name:left:lv":"Gvineja","name:right:mr":"\u0917\u093f\u0928\u0940-\u092c\u093f\u0938\u093e\u0909","name:left:se":"Guinea","name:left:sg":"Gin\u00ebe","name:left:sa":"\u0917\u093f\u0928\u0940","name:right:he":"\u05d2\u05d9\u05e0\u05d0\u05d4 \u05d1\u05d9\u05e1\u05d0\u05d5","name:left:sc":"Guinea","name:right:la":"Guinea Bissaviensis","name:right:af":"Guinee-Bissau","name:left:ce":"\u0413\u0432\u0438\u043d\u0435","name:right:an":"Guinea-Bissau","name:right:am":"\u130a\u1294-\u1262\u1233\u12cd","name:left:ca":"Rep\u00fablica de Guinea","name:left:qu":"Khiniya","source":"openstreetmap.org","name:right:ar":"\u063a\u064a\u0646\u064a\u0627 \u0628\u064a\u0633\u0627\u0648","name:left:st":"Guinea","name:left:cv":"\u0413\u0432\u0438\u043d\u0435\u0439","name:right:az":"Qvineya-Bisau","name:left:cs":"Guinea","name:left:kg":"Ginea","name:left:ka":"\u10d2\u10d5\u10d8\u10dc\u10d4\u10d0","name:right:zh-yue":"\u757f\u5167\u4e9e\u6bd4\u7d39","name:right:ht":"Gine-Bisao","name:left:ko":"\uae30\ub2c8","name:right:it":"Guinea-Bissau","name:right:is":"G\u00ednea-Biss\u00e1","name:right:rw":"Gineya-Biso","name:left:kk":"\u0413\u0432\u0438\u043d\u0435\u044f","name:right:ru":"\u0413\u0432\u0438\u043d\u0435\u044f-\u0411\u0438\u0441\u0430\u0443","name:left:ku":"G\u00eene","name:left:kw":"Gyni","name:left:rw":"Gineya","name:left:ru":"\u0413\u0432\u0438\u043d\u0435\u044f","name:left:ro":"Guineea","name:right:ie":"Guinea-Bissau","name:right:id":"Guinea-Bissau","name:left:ky":"\u0413\u0432\u0438\u043d\u0435\u044f","name:right:ia":"Guinea-Bissau","name:right:bo":"\u0f42\u0f72\u0f0b\u0f53\u0f7a\u0f0b-\u0f56\u0f72\u0f0b\u0f66\u0f60\u0f7c\u0f0d","name:right:hu":"Bissau-Guinea","name:right:bn":"\u0997\u09bf\u09a8\u09bf-\u09ac\u09bf\u09b8\u09be\u0989","name":"Guin\u00e9e - Guin\u00e9-Bissau","name:right:zu":"IGini Bisawu","name:right:bm":"Gine Bisau","name:right:bg":"\u0413\u0432\u0438\u043d\u0435\u044f-\u0411\u0438\u0441\u0430\u0443","name:left:zu":"IGini","name:left:zh":"\u51e0\u5185\u4e9a","name:right:br":"Ginea-Bissau","name:right:bs":"Gvineja-Bisau","name:right:zh":"\u5e7e\u5167\u4e9e\u6bd4\u7d22","name:right:nn":"Guinea-Bissau","name:left:uz":"Gvineya","name:right:nl":"Guinee-Bissau","name:right:ba":"\u0413\u0432\u0438\u043d\u0435\u044f-\u0411\u0438\u0441\u0430\u0443","name:right:fr":"Guin\u00e9e-Bissau","name:left:sk":"Guinea","name:left:nv":"G\u00edn\u00ed","name:left:ur":"\u062c\u0645\u06c1\u0648\u0631\u06cc\u06c1 \u06af\u0646\u06cc","name:right:wo":"Gine Bisaaw\u00f3o","name:right:ne":"\u0917\u093f\u0928\u0940-\u092c\u093f\u0938\u093e\u0909","id:right":-192776,"name:left:uk":"\u0413\u0432\u0456\u043d\u0435\u044f","name:left:no":"Guinea","name:left:nl":"Guinee","name:right:hi":"\u0917\u093f\u0928\u0940-\u092c\u093f\u0938\u093e\u090a","name:right:fa":"\u06af\u06cc\u0646\u0647 \u0628\u06cc\u0633\u0627\u0626\u0648","name:right:nv":"G\u00edn\u00ed Bis\u00f3","name:right:fo":"Guinea-Bissau","name:right:be":"\u0413\u0432\u0456\u043d\u0435\u044f-\u0411\u0456\u0441\u0430\u0443","name:left:ug":"\u06cb\u0649\u0646\u06d0\u064a\u06d5","name:left:na":"Gini","name:left:eo":"Gvineo","name:left:en":"Guinea","name:left:el":"\u0393\u03bf\u03c5\u03b9\u03bd\u03ad\u03b1","kind_detail":"2","name:left:ee":"Guinea","name:right:tt":"\u0413\u0432\u0438\u043d\u0435\u044f-\u0411\u0438\u0441\u0430\u0443","name:left:hr":"Gvineja","name:left:es":"Guinea","name:left:ss":"IGiniya","name:right:kk":"\u0413\u0432\u0438\u043d\u0435\u044f-\u0411\u0438\u0441\u0430\u0443","name:left:eu":"Ginea","name:left:et":"Guinea","name:right:gv":"Yn Ghuinea-Bissau","name:left:bm":"Gine","name:left:mk":"\u0413\u0432\u0438\u043d\u0435\u0458\u0430","name:left:tr":"Gine","name:left:ts":"Gineya","name:left:tt":"\u0413\u0432\u0438\u043d\u0435\u044f","name:left:mn":"\u0413\u0432\u0438\u043d\u0435\u0439","name:right:oc":"Guin\u00e8a Bissau","name:left:ml":"\u0d17\u0d3f\u0d28\u0d3f","name:left:th":"\u0e1b\u0e23\u0e30\u0e40\u0e17\u0e28\u0e01\u0e34\u0e19\u0e35","name:right:pa":"\u0a17\u0a3f\u0a28\u0a40-\u0a2c\u0a3f\u0a38\u0a3e\u0a0a","name:left:tk":"Gwine\u00fda","name:left:tl":"Ginea","name:right:tr":"Gine-Bissau","name:left:ta":"\u0b95\u0bbf\u0ba9\u0bbf","name:left:my":"\u1002\u102e\u1014\u102e\u1014\u102d\u102f\u1004\u103a\u1004\u1036","name:right:pl":"Gwinea Bissau","name:right:os":"\u0413\u0432\u0438\u043d\u0435\u0439-\u0411\u0438\u0441\u0430\u0443","name:left:tg":"\u0413\u0432\u0438\u043d\u0435\u044f","name:right:tl":"Ginea-Bissau","name:right:ka":"\u10d2\u10d5\u10d8\u10dc\u10d4\u10d0-\u10d1\u10d8\u10e1\u10d0\u10e3","name:left:mr":"\u0917\u093f\u0928\u0940","name:left:da":"Guinea","name:left:ar":"\u063a\u064a\u0646\u064a\u0627","name:left:de":"Guinea","id":-192778,"name:right:ga":"Guine-Bissau","name:left:dv":"\u078e\u07a9\u0782\u07a8\u0787\u07a7","name:right:ug":"\u06af\u06cb\u0649\u0646\u06d0\u064a\u06d5 \u0628\u0649\u0633\u0633\u0627\u0626\u06c7","name:left:hi":"\u0917\u093f\u0928\u0940","name:right:lb":"Guinea-Bissau","name:right:no":"Guinea-Bissau","name:right:uk":"\u0413\u0432\u0456\u043d\u0435\u044f-\u0411\u0456\u0441\u0430\u0443","name:left:he":"\u05d2\u05d9\u05e0\u05d0\u05d4","name:right:ln":"Gine-Bisau","name:right:ko":"\uae30\ub2c8\ube44\uc0ac\uc6b0","name:left:ha":"Gine","name:right:lt":"Bisau Gvin\u0117ja","name:right:ur":"\u06af\u0646\u06cc \u0628\u0633\u0627\u0624","name:right:lv":"Gvineja-Bisava","name:left:hy":"\u0533\u057e\u056b\u0576\u0565\u0561","name:right:gl":"Guinea-Bisau","name:left:ht":"Gine","name:left:hu":"Guinea","name:left:wo":"Gine","name:left:ga":"An Ghuine","name:right:tg":"\u0413\u0432\u0438\u043d\u0435\u044f \u0411\u0438\u0441\u0430\u0443","name:left:gd":"Gini","sort_rank":262,"alt_name:left:fr":"Guin\u00e9e-Conakry","name:right:gd":"Gini-Bissau","name:left:gl":"Guinea","name:left:io":"Guinea","osm_relation":true,"name:left:gv":"Yn Ghuinea","id:left":-192778,"name:right:ku":"G\u00eene-Bissau","name:left":"Guin\u00e9e","name:right:es":"Guinea-Bis\u00e1u","name:right:mi":"Kini Pih\u014d","name:left:ja":"\u30ae\u30cb\u30a2","name:right:eu":"Ginea-Bissau","name:right:et":"Guinea-Bissau","name:right:vo":"Giney\u00e4n-Bisau\u00e4n","name:left:os":"\u0413\u0432\u0438\u043d\u0435\u0439","name:left:or":"\u0b17\u0b3f\u0b28\u0b3f","name:right:my":"\u1002\u1004\u103a\u1038\u1014\u102e\u1017\u1005\u103a\u1006\u1031\u102c\u1014\u102d\u102f\u1004\u103a\u1004\u1036","name:right:ee":"Guinea-Bissau","name:right:uz":"Gvineya-Bissau","name:left:vo":"Giney\u00e4n","name:left:oc":"Guin\u00e8a","name:right:na":"Gini-Bitau","name:right:eo":"Gvineo Bisa\u016da","name:right:en":"Guinea-Bissau","name:right:el":"\u0393\u03bf\u03c5\u03b9\u03bd\u03ad\u03b1-\u039c\u03c0\u03b9\u03c3\u03c3\u03ac\u03bf\u03c5","name:left:ff":"Gine","name:left:nn":"Guinea","kind":"country","name:left:fa":"\u06af\u06cc\u0646\u0647","name:left:fo":"Guinea","name:right:sk":"Guinea-Bissau","name:left:fi":"Guinea","name:right:fy":"Guinee-Bissau","name:left:fy":"Guinee","name:left:br":"Ginea","name:left:bs":"Gvineja","name:right:ja":"\u30ae\u30cb\u30a2\u30d3\u30b5\u30a6","name:right:sq":"Guinea Bisau","name:right:ss":"IGiniya-Bhasawu","name:right:sr":"\u0413\u0432\u0438\u043d\u0435\u0458\u0430 \u0411\u0438\u0441\u0430\u043e","name:right:su":"Guin\u00e9a-Bissau","name:right:st":"Guinea-Bissau","name:right:sw":"Guinea Bisau","name:right:sv":"Guinea-Bissau","name:right:sh":"Gvineja Bisau","name:right:ms":"Guinea-Bissau","name:left:ba":"\u0413\u0432\u0438\u043d\u0435\u044f","name:right:jv":"Guinea-Bissau","name:left:bg":"\u0413\u0432\u0438\u043d\u0435\u044f","name:right:so":"Guinea-Bissau","name:left:be":"\u0413\u0432\u0456\u043d\u0435\u044f","name:right:sl":"Gvineja Bissau","name:right:ff":"Gine-Bisaawo","name:left:jv":"Guinea","name:right:sc":"Guinea-Bissau","name:right:sg":"Gin\u00ebe-Bisau","name:right":"Guin\u00e9-Bissau","name:left:ne":"\u0917\u093f\u0928\u0940","name:right:co":"Guinea-Bissau","name:right:ca":"Guinea Bissau","name:right:se":"Guinea-Bissau","name:right:ml":"\u0d17\u0d3f\u0d28\u0d3f-\u0d2c\u0d3f\u0d38\u0d57","name:right:ce":"\u0413\u0432\u0438\u043d\u0435-\u0411\u0438\u0441\u0430\u0443","name:left:bo":"\u0f42\u0f72\u0f0b\u0f53\u0f7a\u0f0d","name:left:yo":"Guinea","name:left:yi":"\u05d2\u05d9\u05e0\u05e2","name:right:li":"Guinee-Bissau","min_zoom":8.0,"name:right:cs":"Guinea-Bissau","name:right:fi":"Guinea-Bissau","name:right:cv":"\u0413\u0432\u0438\u043d\u0435\u0439-\u0411\u0438\u0441\u0430\u0443","name:right:mk":"\u0413\u0432\u0438\u043d\u0435\u0458\u0430-\u0411\u0438\u0441\u0430\u0443","name:right:hr":"Gvineja Bisau","name:right:sn":"Guinea-Bissau","name:left:pa":"\u0a17\u0a3f\u0a28\u0a40","name:right:kg":"Ginea-Bisau","name:left:pl":"Gwinea","name:left:ie":"Guinea","name:left:id":"Guinea","name:left:az":"Qvineya","name:left:ia":"Guinea","name:right:ts":"Guinea-Bissau","name:left:pt":"Guin\u00e9","name:left:af":"Guinee","name:right:th":"\u0e1b\u0e23\u0e30\u0e40\u0e17\u0e28\u0e01\u0e34\u0e19\u0e35-\u0e1a\u0e34\u0e2a\u0e40\u0e0b\u0e32","name:right:kw":"Gyni-Bissaw","name:right:tk":"Gwine\u00fda-Bisau","name:right:ky":"\u0413\u0432\u0438\u043d\u0435\u044f-\u0411\u0438\u0441\u0430\u0443","name:left:an":"Guinea","name:left:am":"\u130a\u1294","name:left:it":"Guinea","name:left:is":"G\u00ednea","name:right:ta":"\u0b95\u0bbf\u0ba9\u0bbf-\u0baa\u0bbf\u0b9a\u0bbe\u0bb5\u0bc1","name:right:io":"Guinea Bisau","name:right:de":"Guinea-Bissau","name:left:ms":"Guinea","name:right:da":"Guinea-Bissau","maritime_boundary":true,"name:left:zh-yue":"\u757f\u5167\u4e9e","name:right:dv":"\u078e\u07a9\u0782\u07a9-\u0784\u07a8\u0790\u07a7\u0787\u07ab","name:left:bn":"\u0997\u09bf\u09a8\u09bf","name:right:ro":"Guineea-Bissau"},"arcs":[0]},{"type":"LineString","properties":{"name:kg":"Ginea","name:ka":"\u10d2\u10d5\u10d8\u10dc\u10d4\u10d0","name:ko":"\uae30\ub2c8","name:cv":"\u0413\u0432\u0438\u043d\u0435\u0439","name:cs":"Guinea","name:tt":"\u0413\u0432\u0438\u043d\u0435\u044f","name:kw":"Gyni","name:tk":"Gwine\u00fda","name:ku":"G\u00eene","name:tl":"Ginea","name:ce":"\u0413\u0432\u0438\u043d\u0435","name:ta":"\u0b95\u0bbf\u0ba9\u0bbf","name:tg":"\u0413\u0432\u0438\u043d\u0435\u044f","name:ca":"Rep\u00fablica de Guinea","name:qu":"Khiniya","name:da":"Guinea","name:de":"Guinea","source":"openstreetmap.org","name:ts":"Gineya","name:dv":"\u078e\u07a9\u0782\u07a8\u0787\u07a7","name:lv":"Gvineja","name:lt":"Gvin\u0117ja","name:uz":"Gvineya","name:kk":"\u0413\u0432\u0438\u043d\u0435\u044f","name:ur":"\u062c\u0645\u06c1\u0648\u0631\u06cc\u06c1 \u06af\u0646\u06cc","name:lb":"Guinea","name:la":"Guinea","name:uk":"\u0413\u0432\u0456\u043d\u0435\u044f","name:ug":"\u06cb\u0649\u0646\u06d0\u064a\u06d5","name:li":"Guinee","name:ln":"Gine-Konakry","name:el":"\u0393\u03bf\u03c5\u03b9\u03bd\u03ad\u03b1","name:eo":"Gvineo","name:en":"Guinea","name":"Guin\u00e9e","name:ee":"Guinea","name:th":"\u0e1b\u0e23\u0e30\u0e40\u0e17\u0e28\u0e01\u0e34\u0e19\u0e35","name:eu":"Ginea","name:et":"Guinea","name:es":"Guinea","name:ia":"Guinea","name:az":"Qvineya","name:ie":"Guinea","name:id":"Guinea","name:ar":"\u063a\u064a\u0646\u064a\u0627","name:io":"Guinea","name:is":"G\u00ednea","name:am":"\u130a\u1294","name:it":"Guinea","name:an":"Guinea","name:ru":"\u0413\u0432\u0438\u043d\u0435\u044f","name:rw":"Gineya","name:af":"Guinee","name:zu":"IGini","kind_detail":"2","name:ky":"\u0413\u0432\u0438\u043d\u0435\u044f","name:zh-yue":"\u757f\u5167\u4e9e","name:zh":"\u51e0\u5185\u4e9a","name:so":"Guinea","name:sn":"Guinea","name:sm":"Guinea","name:sl":"Gvineja","name:sk":"Guinea","name:ja":"\u30ae\u30cb\u30a2","name:sh":"Gvineja","name:sg":"Gin\u00ebe","name:se":"Guinea","name:sc":"Guinea","name:br":"Ginea","name:bs":"Gvineja","name:bm":"Gine","name:bn":"\u0997\u09bf\u09a8\u09bf","name:bo":"\u0f42\u0f72\u0f0b\u0f53\u0f7a\u0f0d","name:sa":"\u0917\u093f\u0928\u0940","name:sw":"Guinea","name:be":"\u0413\u0432\u0456\u043d\u0435\u044f","name:su":"Guin\u00e9a","name:bg":"\u0413\u0432\u0438\u043d\u0435\u044f","name:ss":"IGiniya","name:ba":"\u0413\u0432\u0438\u043d\u0435\u044f","name:sq":"Guinea","name:jv":"Guinea","name:pt":"Guin\u00e9","name:oc":"Guin\u00e8a","min_zoom":8.0,"name:ro":"Guineea","name:pa":"\u0a17\u0a3f\u0a28\u0a40","name:os":"\u0413\u0432\u0438\u043d\u0435\u0439","name:or":"\u0b17\u0b3f\u0b28\u0b3f","name:pl":"Gwinea","name:st":"Guinea","sort_rank":262,"name:sr":"\u0413\u0432\u0438\u043d\u0435\u0458\u0430","osm_relation":true,"name:tr":"Gine","name:hi":"\u0917\u093f\u0928\u0940","name:sv":"Guinea","name:he":"\u05d2\u05d9\u05e0\u05d0\u05d4","name:ha":"Gine","name:hy":"\u0533\u057e\u056b\u0576\u0565\u0561","name:ht":"Gine","name:hu":"Guinea","name:hr":"Gvineja","kind":"country","name:yi":"\u05d2\u05d9\u05e0\u05e2","name:yo":"Guinea","name:ms":"Guinea","name:mr":"\u0917\u093f\u0928\u0940","name:my":"\u1002\u102e\u1014\u102e\u1014\u102d\u102f\u1004\u103a\u1004\u1036","name:ml":"\u0d17\u0d3f\u0d28\u0d3f","name:mn":"\u0413\u0432\u0438\u043d\u0435\u0439","id":-192778,"name:mk":"\u0413\u0432\u0438\u043d\u0435\u0458\u0430","name:vo":"Giney\u00e4n","name:fa":"\u06af\u06cc\u0646\u0647","name:ff":"Gine","name:fi":"Guinea","name:fo":"Guinea","name:fy":"Guinee","name:nl":"Guinee","name:nn":"Guinea","name:no":"Guinea","name:na":"Gini","name:ne":"\u0917\u093f\u0928\u0940","alt_name:fr":"Guin\u00e9e-Conakry","name:wo":"Gine","name:nv":"G\u00edn\u00ed","name:ga":"An Ghuine","name:gd":"Gini","name:gl":"Guinea","maritime_boundary":true,"name:gv":"Yn Ghuinea"},"arcs":[1]},{"type":"LineString","properties":{"name:kg":"Ginea-Bisau","name:ka":"\u10d2\u10d5\u10d8\u10dc\u10d4\u10d0-\u10d1\u10d8\u10e1\u10d0\u10e3","name:ko":"\uae30\ub2c8\ube44\uc0ac\uc6b0","name:cv":"\u0413\u0432\u0438\u043d\u0435\u0439-\u0411\u0438\u0441\u0430\u0443","name:cs":"Guinea-Bissau","name:tt":"\u0413\u0432\u0438\u043d\u0435\u044f-\u0411\u0438\u0441\u0430\u0443","name:co":"Guinea-Bissau","name:tk":"Gwine\u00fda-Bisau","name:ku":"G\u00eene-Bissau","name:tl":"Ginea-Bissau","name:ce":"\u0413\u0432\u0438\u043d\u0435-\u0411\u0438\u0441\u0430\u0443","name:ta":"\u0b95\u0bbf\u0ba9\u0bbf-\u0baa\u0bbf\u0b9a\u0bbe\u0bb5\u0bc1","name:tg":"\u0413\u0432\u0438\u043d\u0435\u044f \u0411\u0438\u0441\u0430\u0443","name:ca":"Guinea Bissau","name:qu":"Khiniya-Wisaw","name:da":"Guinea-Bissau","name:de":"Guinea-Bissau","source":"openstreetmap.org","name:ts":"Guinea-Bissau","name:be":"\u0413\u0432\u0456\u043d\u0435\u044f-\u0411\u0456\u0441\u0430\u0443","name:dv":"\u078e\u07a9\u0782\u07a9-\u0784\u07a8\u0790\u07a7\u0787\u07ab","name:lv":"Gvineja-Bisava","name:lt":"Bisau Gvin\u0117ja","name:uz":"Gvineya-Bissau","name:kk":"\u0413\u0432\u0438\u043d\u0435\u044f-\u0411\u0438\u0441\u0430\u0443","name:ur":"\u06af\u0646\u06cc \u0628\u0633\u0627\u0624","name:lb":"Guinea-Bissau","name:la":"Guinea Bissaviensis","name:uk":"\u0413\u0432\u0456\u043d\u0435\u044f-\u0411\u0456\u0441\u0430\u0443","name:ug":"\u06af\u06cb\u0649\u0646\u06d0\u064a\u06d5 \u0628\u0649\u0633\u0633\u0627\u0626\u06c7","name:li":"Guinee-Bissau","name:ln":"Gine-Bisau","name:el":"\u0393\u03bf\u03c5\u03b9\u03bd\u03ad\u03b1-\u039c\u03c0\u03b9\u03c3\u03c3\u03ac\u03bf\u03c5","name:eo":"Gvineo Bisa\u016da","name:en":"Guinea-Bissau","name":"Guin\u00e9-Bissau","name:ee":"Guinea-Bissau","name:th":"\u0e1b\u0e23\u0e30\u0e40\u0e17\u0e28\u0e01\u0e34\u0e19\u0e35-\u0e1a\u0e34\u0e2a\u0e40\u0e0b\u0e32","name:eu":"Ginea-Bissau","name:et":"Guinea-Bissau","name:es":"Guinea-Bis\u00e1u","name:ia":"Guinea-Bissau","name:ro":"Guineea-Bissau","name:ie":"Guinea-Bissau","name:id":"Guinea-Bissau","name:ar":"\u063a\u064a\u0646\u064a\u0627 \u0628\u064a\u0633\u0627\u0648","name:io":"Guinea Bisau","name:is":"G\u00ednea-Biss\u00e1","name:am":"\u130a\u1294-\u1262\u1233\u12cd","name:it":"Guinea-Bissau","name:an":"Guinea-Bissau","name:ru":"\u0413\u0432\u0438\u043d\u0435\u044f-\u0411\u0438\u0441\u0430\u0443","name:rw":"Gineya-Biso","name:af":"Guinee-Bissau","name:zu":"IGini Bisawu","kind_detail":"2","name:ky":"\u0413\u0432\u0438\u043d\u0435\u044f-\u0411\u0438\u0441\u0430\u0443","name:zh-yue":"\u757f\u5167\u4e9e\u6bd4\u7d39","name:zh":"\u5e7e\u5167\u4e9e\u6bd4\u7d22","name:so":"Guinea-Bissau","name:sn":"Guinea-Bissau","name:sl":"Gvineja Bissau","name:sk":"Guinea-Bissau","name:ja":"\u30ae\u30cb\u30a2\u30d3\u30b5\u30a6","name:sh":"Gvineja Bisau","name:sg":"Gin\u00ebe-Bisau","name:se":"Guinea-Bissau","name:sc":"Guinea-Bissau","name:br":"Ginea-Bissau","name:bs":"Gvineja-Bisau","name:bm":"Gine Bisau","name:bn":"\u0997\u09bf\u09a8\u09bf-\u09ac\u09bf\u09b8\u09be\u0989","name:bo":"\u0f42\u0f72\u0f0b\u0f53\u0f7a\u0f0b-\u0f56\u0f72\u0f0b\u0f66\u0f60\u0f7c\u0f0d","name:sw":"Guinea Bisau","name:sv":"Guinea-Bissau","name:su":"Guin\u00e9a-Bissau","name:bg":"\u0413\u0432\u0438\u043d\u0435\u044f-\u0411\u0438\u0441\u0430\u0443","name:ss":"IGiniya-Bhasawu","name:ba":"\u0413\u0432\u0438\u043d\u0435\u044f-\u0411\u0438\u0441\u0430\u0443","osm_relation":true,"name:jv":"Guinea-Bissau","name:oc":"Guin\u00e8a Bissau","min_zoom":8.0,"name:az":"Qvineya-Bisau","name:pa":"\u0a17\u0a3f\u0a28\u0a40-\u0a2c\u0a3f\u0a38\u0a3e\u0a0a","name:os":"\u0413\u0432\u0438\u043d\u0435\u0439-\u0411\u0438\u0441\u0430\u0443","name:pl":"Gwinea Bissau","name:st":"Guinea-Bissau","sort_rank":262,"name:sr":"\u0413\u0432\u0438\u043d\u0435\u0458\u0430 \u0411\u0438\u0441\u0430\u043e","name:sq":"Guinea Bisau","name:tr":"Gine-Bissau","name:hi":"\u0917\u093f\u0928\u0940-\u092c\u093f\u0938\u093e\u090a","name:he":"\u05d2\u05d9\u05e0\u05d0\u05d4 \u05d1\u05d9\u05e1\u05d0\u05d5","name:hy":"\u0533\u057e\u056b\u0576\u0565\u0561 \u0532\u056b\u057d\u0561\u0578\u0582","name:ht":"Gine-Bisao","name:hu":"Bissau-Guinea","name:hr":"Gvineja Bisau","kind":"country","name:yi":"\u05d2\u05d9\u05e0\u05e2-\u05d1\u05d9\u05e1\u05d0\u05d5","name:yo":"Guinea-Bissau","name:ms":"Guinea-Bissau","name:mr":"\u0917\u093f\u0928\u0940-\u092c\u093f\u0938\u093e\u0909","name:my":"\u1002\u1004\u103a\u1038\u1014\u102e\u1017\u1005\u103a\u1006\u1031\u102c\u1014\u102d\u102f\u1004\u103a\u1004\u1036","name:kw":"Gyni-Bissaw","name:ml":"\u0d17\u0d3f\u0d28\u0d3f-\u0d2c\u0d3f\u0d38\u0d57","name:mi":"Kini Pih\u014d","id":-192776,"name:mk":"\u0413\u0432\u0438\u043d\u0435\u0458\u0430-\u0411\u0438\u0441\u0430\u0443","name:vo":"Giney\u00e4n-Bisau\u00e4n","name:fa":"\u06af\u06cc\u0646\u0647 \u0628\u06cc\u0633\u0627\u0626\u0648","name:ff":"Gine-Bisaawo","name:fi":"Guinea-Bissau","name:fo":"Guinea-Bissau","name:fr":"Guin\u00e9e-Bissau","name:fy":"Guinee-Bissau","name:nl":"Guinee-Bissau","name:nn":"Guinea-Bissau","name:no":"Guinea-Bissau","name:na":"Gini-Bitau","name:ne":"\u0917\u093f\u0928\u0940-\u092c\u093f\u0938\u093e\u0909","name:wo":"Gine Bisaaw\u00f3o","name:nv":"G\u00edn\u00ed Bis\u00f3","name:ga":"Guine-Bissau","name:gd":"Gini-Bissau","name:gl":"Guinea-Bisau","maritime_boundary":true,"name:gv":"Yn Ghuinea-Bissau"},"arcs":[2]},{"type":"LineString","properties":{"kind":"region","name":"Regi\u00e3o de Bolama","sort_rank":256,"kind_detail":"4","min_zoom":8.0,"source":"openstreetmap.org","maritime_boundary":true,"id":-1761581,"osm_relation":true},"arcs":[3]}]},"roads":{"type":"GeometryCollection","geometries":[{"type":"LineString","properties":{"source":"openstreetmap.org","kind":"ferry","name":"Bissau - Kamsar","sort_rank":355,"min_zoom":8.0,"osm_relation":true},"arcs":[14]}]},"earth":{"type":"GeometryCollection","geometries":[{"type":"MultiPolygon","properties":{"sort_rank":10,"source":"naturalearthdata.com","min_zoom":0.0,"kind":"earth","area":9248595855},"arcs":[[[15]],[[16]],[[17]],[[18]],[[19]]]}]},"landuse":{"type":"GeometryCollection","geometries":[]}},"type":"Topology","transform":{"translate":[-16.875,9.7956775828],"scale":[0.0003433228,0.0003375792]},"arcs":[[[4096,2580],[-271,0]],[[3825,2580],[-18,-198],[87,-264],[126,-147],[76,-38]],[[623,4096],[141,-176],[866,-727],[126,-82],[1425,-535],[552,-41],[92,45]],[[1453,4096],[576,-453],[1340,-489],[217,84],[129,130],[31,120],[16,608]],[[4096,4096],[0,-4096],[-4096,0],[0,4096],[2133,0],[-5,-8],[-26,-10],[-25,-18],[-23,-101],[-28,-22],[-33,-15],[-26,-26],[-9,11],[-5,9],[-3,9],[-3,13],[18,4],[40,17],[-44,10],[-49,-18],[-48,-34],[-38,-39],[39,-72],[63,-74],[72,-47],[67,9],[13,-21],[10,-9],[36,-11],[-18,41],[38,62],[18,0],[-10,-28],[-3,-25],[3,-24],[10,-26],[60,23],[51,-4],[52,3],[60,39],[-20,27],[15,44],[11,54],[-28,57],[0,22],[41,0],[-42,60],[-13,28],[-5,44],[11,30],[15,16],[33,0],[-22,-44],[2,-44],[33,-29],[66,0],[-30,-52],[3,-38],[17,-36],[10,-47],[15,-35],[34,21],[61,75],[29,45],[8,40],[-6,87],[-2,57],[47,0],[-1,-12],[16,-67],[2,-45],[-3,-36],[-13,-35],[-26,-44],[18,-22],[22,-20],[4,49],[29,16],[33,-11],[13,-34],[-17,-14],[-82,-38],[-30,-8],[-22,-3],[-9,-8],[-1,-16],[0,-24],[9,-14],[19,5],[18,12],[7,7],[76,-13],[31,-1],[23,14],[30,-8],[39,3],[35,18],[15,39],[-9,25],[-21,21],[-20,28],[-20,129],[-29,71],[-28,36],[423,0],[8,-16],[28,-15],[26,31],[26,0],[5,-1],[5,0],[4,1],[21,0],[5,-10],[9,-14],[6,-12],[11,36],[741,0]],[[3201,4096],[8,-16],[28,-15],[26,31]],[[3289,4096],[5,-1],[5,0],[4,1]],[[3324,4096],[5,-10],[9,-14],[6,-12],[11,36]],[[2670,4096],[-1,-12],[16,-67],[2,-45],[-3,-36],[-13,-35],[-26,-44],[18,-22],[22,-20],[4,49],[29,16],[33,-11],[13,-34],[-17,-14],[-82,-38],[-30,-8],[-22,-3],[-9,-8],[-1,-16],[0,-24],[9,-14],[19,5],[18,12],[7,7],[76,-13],[31,-1],[23,14],[30,-8],[39,3],[35,18],[15,39],[-9,25],[-21,21],[-20,28],[-20,129],[-29,71],[-28,36]],[[2625,4039],[-2,57]],[[2405,4096],[-22,-44],[2,-44],[33,-29],[66,0],[-30,-52],[3,-38],[17,-36],[10,-47],[15,-35],[34,21],[61,75],[29,45],[8,40],[-6,87]],[[2406,3918],[-42,60],[-13,28],[-5,44],[11,30],[15,16]],[[2207,4096],[-1,-16],[-29,16]],[[2133,4096],[-5,-8],[-26,-10],[-25,-18],[-23,-101],[-28,-22],[-33,-15],[-26,-26],[-9,11],[-5,9],[-3,9],[-3,13],[18,4],[40,17],[-44,10],[-49,-18],[-48,-34],[-38,-39],[39,-72],[63,-74],[72,-47],[67,9],[13,-21],[10,-9],[36,-11],[-18,41],[38,62],[18,0],[-10,-28],[-3,-25],[3,-24],[10,-26],[60,23],[51,-4],[52,3],[60,39],[-20,27],[15,44],[11,54],[-28,57],[0,22],[41,0]],[[4096,3695],[-280,96],[-209,121],[-43,69],[-17,115]],[[2357,4080],[-11,-30],[5,-44],[13,-28],[42,-60],[-41,0],[0,-22],[28,-57],[-11,-54],[-15,-44],[20,-27],[-60,-39],[-52,-3],[-51,4],[-60,-23],[-10,26],[-3,24],[3,25],[10,28],[-18,0],[-38,-62],[18,-41],[-36,11],[-10,9],[-13,21],[-67,-9],[-72,47],[-63,74],[-39,72],[38,39],[48,34],[49,18],[44,-10],[-40,-17],[-18,-4],[3,-13],[3,-9],[5,-9],[9,-11],[26,26],[33,15],[28,22],[23,101],[25,18],[26,10],[5,8],[44,0],[29,-16],[1,16],[165,0],[-15,-16]],[[2835,3989],[20,-129],[20,-28],[21,-21],[9,-25],[-15,-39],[-35,-18],[-39,-3],[-30,8],[-23,-14],[-31,1],[-76,13],[-7,-7],[-18,-12],[-19,-5],[-9,14],[0,24],[1,16],[9,8],[22,3],[30,8],[82,38],[17,14],[-13,34],[-33,11],[-29,-16],[-4,-49],[-22,20],[-18,22],[26,44],[13,35],[3,36],[-2,45],[-16,67],[1,12],[108,0],[28,-36],[29,-71]],[[2625,4039],[6,-87],[-8,-40],[-29,-45],[-61,-75],[-34,-21],[-15,35],[-10,47],[-17,36],[-3,38],[30,52],[-66,0],[-33,29],[-2,44],[22,44],[218,0],[2,-57]],[[3355,4096],[-11,-36],[-6,12],[-9,14],[-5,10],[31,0]],[[3263,4096],[-26,-31],[-28,15],[-8,16],[62,0]]]}