{"objects":{"water":{"type":"GeometryCollection","geometries":[{"type":"Polygon","properties":{"source":"naturalearthdata.com","kind":"ocean","area":1576712559132672,"sort_rank":200,"min_zoom":0.0,"id":1},"arcs":[[24],[25]]},{"type":"LineString","properties":{"source":"naturalearthdata.com","kind":"ocean","sort_rank":205,"boundary":true,"min_zoom":0.0,"id":2202},"arcs":[26]}]},"buildings":{"type":"GeometryCollection","geometries":[]},"places":{"type":"GeometryCollection","geometries":[{"type":"Point","properties":{"name:ka":"\u10dc\u10d0\u10e3\u10e0\u10e3","name:ko":"\ub098\uc6b0\ub8e8","name:kn":"\u0ca8\u0ccc\u0cb0\u0cc1","name:km":"\u178e\u17bc\u179a\u17bc","name:tt":"\u041d\u0430\u0443\u0440\u0443","name:th":"\u0e1b\u0e23\u0e30\u0e40\u0e17\u0e28\u0e19\u0e32\u0e2d\u0e39\u0e23\u0e39","name:ti":"\u1293\u12a1\u1229","name:ks":"\u0646\u0627\u0631\u0648\u0648\u0657","name:to":"Naulu","name:or":"\u0b28\u0b3e\u0b09\u0b30\u0b41","name:ta":"\u0ba8\u0bcc\u0bb0\u0bc1","name:te":"\u0c28\u0c4c\u0c30\u0c41","name:cy":"Nawrw","name:dz":"\u0f53\u0f60\u0f74\u0f0b\u0f62\u0f74\u0f0b","source":"openstreetmap.org","name:ku":"Na\u00fbr\u00fb","name:hi":"\u0928\u093e\u0909\u0930\u0941","name:he":"\u05e0\u05d0\u05d5\u05e8\u05d5","kind":"country","name:ur":"\u0646\u0624\u0631\u0648","name:lg":"Nawuru","name:uk":"\u041d\u0430\u0443\u0440\u0443","name:hy":"\u0546\u0561\u0578\u0582\u0580\u0578\u0582","min_zoom":2.0,"name:li":"Naoeroe","name:lo":"\u0e99\u0eb2\u0ead\u0eb9\u0ea3\u0eb9","population":10175,"name:el":"\u039d\u03b1\u03bf\u03c5\u03c1\u03bf\u03cd","name:eo":"Nauro","name":"Nauru","name:is":"N\u00e1r\u00fa","name:ee":"Nauru nutome","name:ak":"Naworu","name:yo":"Or\u00edl\u1eb9\u0301\u00e8de Nauru","name:rn":"Nawuru","name:mr":"\u0928\u090a\u0930\u0941","name:ar":"\u0646\u0627\u0648\u0631\u0648","official_name":"Republic of Nauru;Republik Naoero","name:mg":"Naor\u00f2","name:am":"\u1293\u12a1\u1229","name:ru":"\u041d\u0430\u0443\u0440\u0443","name:ml":"\u0d28\u0d57\u0d31\u0d42","name:mn":"\u041d\u0430\u0443\u0440\u0443","id":424297917,"name:mk":"\u041d\u0430\u0443\u0440\u0443","name:af":"Naoeroe","name:zu":"i-Nauru","name:ff":"Nawuru","name:fy":"Naur\u00fb","name:vo":"Naure\u00e4n","name:zh":"\u7459\u9b6f","name:ja":"\u30ca\u30a6\u30eb","name:si":"\u0db1\u0dcf\u0dc0\u0dd4\u0dbb\u0dd4","name:fa":"\u0646\u0627\u0626\u0648\u0631\u0648","name:ne":"\u0928\u093e\u0909\u0930\u0942","name:bm":"Nawuru","name:bn":"\u09a8\u09be\u0989\u09b0\u09c1","name:bo":"\u0f53\u0f7d\u0f0b\u0f62\u0f74\u0f0d","name:be":"\u041d\u0430\u045e\u0440\u0443","name:bg":"\u041d\u0430\u0443\u0440\u0443","name:sr":"\u041d\u0430\u0443\u0440\u0443","name:ga":"N\u00e1r\u00fa","name:gd":"Nabhru","name:gu":"\u0aa8\u0acc\u0ab0\u0ac1"},"coordinates":[1450,3331]}]},"transit":{"type":"GeometryCollection","geometries":[]},"pois":{"type":"GeometryCollection","geometries":[]},"boundaries":{"type":"GeometryCollection","geometries":[{"type":"LineString","properties":{"source":"naturalearthdata.com","kind":"region","name":"Anabar - Anetan","sort_rank":256,"kind_detail":"4","min_zoom":7.0,"id":8236},"arcs":[0]},{"type":"LineString","properties":{"source":"naturalearthdata.com","kind":"region","name":"Anibare - Buada","sort_rank":256,"kind_detail":"4","min_zoom":7.0,"id":8237},"arcs":[1]},{"type":"LineString","properties":{"source":"naturalearthdata.com","kind":"region","name":"Anibare - Nibok","sort_rank":256,"kind_detail":"4","min_zoom":7.0,"id":8238},"arcs":[2]},{"type":"LineString","properties":{"source":"naturalearthdata.com","kind":"region","name":"Anibare - Uaboe","sort_rank":256,"kind_detail":"4","min_zoom":7.0,"id":8239},"arcs":[3]},{"type":"LineString","properties":{"source":"naturalearthdata.com","kind":"region","name":"Anibare - Baiti","sort_rank":256,"kind_detail":"4","min_zoom":7.0,"id":8240},"arcs":[4]},{"type":"LineString","properties":{"source":"naturalearthdata.com","kind":"region","name":"Anibare - Ewa","sort_rank":256,"kind_detail":"4","min_zoom":7.0,"id":8241},"arcs":[5]},{"type":"LineString","properties":{"source":"naturalearthdata.com","kind":"region","name":"Meneng - Buada","sort_rank":256,"kind_detail":"4","min_zoom":7.0,"id":8242},"arcs":[6]},{"type":"LineString","properties":{"source":"naturalearthdata.com","kind":"region","name":"Yaren - Buada","sort_rank":256,"kind_detail":"4","min_zoom":7.0,"id":8243},"arcs":[7]},{"type":"LineString","properties":{"source":"naturalearthdata.com","kind":"region","name":"Yaren - Boe","sort_rank":256,"kind_detail":"4","min_zoom":7.0,"id":8244},"arcs":[8]},{"type":"LineString","properties":{"source":"naturalearthdata.com","kind":"region","name":"Meneng - Yaren","sort_rank":256,"kind_detail":"4","min_zoom":7.0,"id":8245},"arcs":[9]},{"type":"LineString","properties":{"source":"naturalearthdata.com","kind":"region","name":"Anibare - Meneng","sort_rank":256,"kind_detail":"4","min_zoom":7.0,"id":8246},"arcs":[10]},{"type":"LineString","properties":{"source":"naturalearthdata.com","kind":"region","name":"Ijuw - Anibare","sort_rank":256,"kind_detail":"4","min_zoom":7.0,"id":8247},"arcs":[11]},{"type":"LineString","properties":{"source":"naturalearthdata.com","kind":"region","name":"Anabar - Ijuw","sort_rank":256,"kind_detail":"4","min_zoom":7.0,"id":8248},"arcs":[12]},{"type":"LineString","properties":{"source":"naturalearthdata.com","kind":"region","name":"Ewa - Anetan","sort_rank":256,"kind_detail":"4","min_zoom":7.0,"id":8249},"arcs":[13]},{"type":"LineString","properties":{"source":"naturalearthdata.com","kind":"region","name":"Baiti - Ewa","sort_rank":256,"kind_detail":"4","min_zoom":7.0,"id":8250},"arcs":[14]},{"type":"LineString","properties":{"source":"naturalearthdata.com","kind":"region","name":"Uaboe - Baiti","sort_rank":256,"kind_detail":"4","min_zoom":7.0,"id":8251},"arcs":[15]},{"type":"LineString","properties":{"source":"naturalearthdata.com","kind":"region","name":"Nibok - Uaboe","sort_rank":256,"kind_detail":"4","min_zoom":7.0,"id":8252},"arcs":[16]},{"type":"LineString","properties":{"source":"naturalearthdata.com","kind":"region","name":"Buada - Boe","sort_rank":256,"kind_detail":"4","min_zoom":7.0,"id":8253},"arcs":[17]},{"type":"LineString","properties":{"source":"naturalearthdata.com","kind":"region","name":"Buada - Aiwo","sort_rank":256,"kind_detail":"4","min_zoom":7.0,"id":8254},"arcs":[18]},{"type":"LineString","properties":{"source":"naturalearthdata.com","kind":"region","name":"Buada - Denigomodu","sort_rank":256,"kind_detail":"4","min_zoom":7.0,"id":8255},"arcs":[19]},{"type":"LineString","properties":{"source":"naturalearthdata.com","kind":"region","name":"Buada - Nibok","sort_rank":256,"kind_detail":"4","min_zoom":7.0,"id":8256},"arcs":[20]},{"type":"LineString","properties":{"source":"naturalearthdata.com","kind":"region","name":"Aiwo - Boe","sort_rank":256,"kind_detail":"4","min_zoom":7.0,"id":8257},"arcs":[21]},{"type":"LineString","properties":{"source":"naturalearthdata.com","kind":"region","name":"Denigomodu - Aiwo","sort_rank":256,"kind_detail":"4","min_zoom":7.0,"id":8258},"arcs":[22]},{"type":"LineString","properties":{"source":"naturalearthdata.com","kind":"region","name":"Nibok - Denigomodu","sort_rank":256,"kind_detail":"4","min_zoom":7.0,"id":8259},"arcs":[23]}]},"roads":{"type":"GeometryCollection","geometries":[]},"earth":{"type":"GeometryCollection","geometries":[{"type":"Polygon","properties":{"sort_rank":10,"source":"naturalearthdata.com","kind":"earth","min_zoom":0.0,"id":1772},"arcs":[[27]]}]},"landuse":{"type":"GeometryCollection","geometries":[]}},"type":"Topology","transform":{"translate":[165.9375,-2.8113711933],"scale":[0.0006866455,0.0006863699]},"arcs":[[[1458,3382],[1,-21]],[[1454,3331],[-1,-7]],[[1455,3338],[0,-3],[-1,-4]],[[1456,3343],[-1,-5]],[[1457,3352],[-1,-4],[0,-5]],[[1459,3361],[-2,-9]],[[1453,3324],[-14,-7]],[[1439,3317],[-8,-6]],[[1431,3311],[-3,-2],[-2,-11]],[[1439,3317],[10,-23]],[[1453,3324],[15,-3],[11,-2]],[[1459,3361],[11,-6],[15,-4]],[[1459,3361],[24,9]],[[1459,3361],[-12,16]],[[1457,3352],[-19,22]],[[1456,3343],[-28,27]],[[1455,3338],[-34,29]],[[1428,3316],[3,-5]],[[1426,3332],[-1,-7],[3,-9]],[[1431,3337],[-5,-5]],[[1454,3331],[-11,3],[-12,3]],[[1419,3314],[9,2]],[[1412,3331],[14,1]],[[1417,3350],[14,-13]],[[0,4096],[4096,0],[0,-4096],[-4096,0],[0,4096]],[[1421,3367],[-9,-36],[14,-33],[32,-6],[19,18],[10,32],[-4,28],[-25,12],[-37,-15]],[[1458,3382],[-37,-15],[-9,-36],[14,-33],[32,-6],[19,18],[10,32],[-4,28],[-25,12]],[[1477,3310],[-19,-18],[-32,6],[-14,33],[9,36],[37,15],[25,-12],[4,-28],[-10,-32]]]}