{"objects":{"water":{"type":"GeometryCollection","geometries":[{"type":"MultiPolygon","properties":{"source":"naturalearthdata.com","kind":"ocean","area":1576712559132672,"sort_rank":200,"min_zoom":0.0,"id":1},"arcs":[[[154]],[[155]],[[156],[157]],[[158]]]},{"type":"MultiLineString","properties":{"source":"naturalearthdata.com","kind":"ocean","sort_rank":205,"boundary":true,"min_zoom":0.0,"id":40},"arcs":[[159],[160]]},{"type":"MultiLineString","properties":{"source":"naturalearthdata.com","kind":"ocean","sort_rank":205,"boundary":true,"min_zoom":0.0,"id":41},"arcs":[[161],[162],[163],[164],[165],[166],[167]]},{"type":"LineString","properties":{"source":"naturalearthdata.com","kind":"ocean","sort_rank":205,"boundary":true,"min_zoom":0.0,"id":1333},"arcs":[168]},{"type":"MultiLineString","properties":{"source":"naturalearthdata.com","kind":"ocean","sort_rank":205,"boundary":true,"min_zoom":0.0,"id":1335},"arcs":[[169],[170]]},{"type":"LineString","properties":{"source":"naturalearthdata.com","kind":"ocean","sort_rank":205,"boundary":true,"min_zoom":0.0,"id":1338},"arcs":[171]}]},"buildings":{"type":"GeometryCollection","geometries":[]},"places":{"type":"GeometryCollection","geometries":[{"type":"Point","properties":{"name:pt":"Reino Unido","name:ps":"\u0628\u0631\u062a\u0627\u0646\u06cc\u0647","name:cy":"Deyrnas Unedig","name:mt":"Ingilterra","name:tr":"Birle\u015fik Krall\u0131k","name:kn":"\u0cac\u0ccd\u0cb0\u0cbf\u0c9f\u0ca8\u0ccd\/\u0c87\u0c82\u0c97\u0ccd\u0cb2\u0cc6\u0c82\u0ca1\u0ccd","name:km":"\u1785\u1780\u17d2\u179a\u1797\u1796\u200b\u17a2\u1784\u17cb\u1782\u17d2\u179b\u17c1\u179f","name:kl":"Tuluit Nunaat","name:cs":"Velk\u00e1 Brit\u00e1nie","alt_name:eo":"Britio","name:ki":"Ngeretha","name:kw":"Rywvaneth Unys","name:ku":"Keyaniya Yekb\u00fby\u00ee","name:ti":"\u12a5\u1295\u130d\u120a\u12dd","name:ks":"\u06cc\u064f\u0646\u0627\u06cc\u0679\u0650\u0691 \u06a9\u0650\u0646\u065b\u06af\u0688\u064e\u0645","name:to":"Pilit\u0101nia","name:sv":"Storbritannien","name:os":"\u0421\u0442\u044b\u0440 \u0411\u0440\u0438\u0442\u0430\u043d\u0438","name:or":"\u0b2c\u0b4d\u0b30\u0b3f\u0b1f\u0b47\u0b28\u0b4d","name:pl":"Wielka Brytania","name:ta":"\u0baa\u0bbf\u0bb0\u0bbf\u0b9f\u0bbf\u0bb7\u0bcd \u0b95\u0bc2\u0b9f\u0bcd\u0b9f\u0bb0\u0b9a\u0bc1","name:ca":"Regne Unit","name:te":"\u0c2c\u0c4d\u0c30\u0c3f\u0c1f\u0c28\u0c4d","name:ro":"Marea Britanie","name:ka":"\u10d3\u10d8\u10d3\u10d8 \u10d1\u10e0\u10d8\u10e2\u10d0\u10dc\u10d4\u10d7\u10d8","source":"openstreetmap.org","name:hr":"Ujedinjeno Kraljevstvo Velike Britanije i Sjeverne Irske","name:da":"Storbritannien","name:de":"Vereinigtes K\u00f6nigreich","name:dz":"\u0f61\u0f74\u0f0b\u0f53\u0f71\u0f60\u0f72\u0f0b\u0f4a\u0f7a\u0f4c\u0f0b \u0f40\u0f72\u0f44\u0f0b\u0f4c\u0f58","name:ko":"\uc601\uad6d","name:lv":"Lielbrit\u0101nija","name:lt":"Did\u017eioji Britanija","name:uz":"\u0411\u0438\u0440\u043b\u0430\u0448\u0433\u0430\u043d \u049a\u0438\u0440\u043e\u043b\u043b\u0438\u043a","name:kk":"\u04b0\u043b\u044b\u0431\u0440\u0438\u0442\u0430\u043d\u0438\u044f","name:he":"\u05d1\u05e8\u05d9\u05d8\u05e0\u05d9\u05d4","kind":"country","name:ur":"\u0633\u0644\u0637\u0646\u062a \u0645\u062a\u062d\u062f\u06c1","name:lb":"Vereenegt Kinnekr\u00e4ich","name:lg":"Bungereza","name:uk":"\u0412\u0435\u043b\u0438\u043a\u0430 \u0411\u0440\u0438\u0442\u0430\u043d\u0456\u044f","name:hy":"\u0544\u0565\u056e \u0532\u0580\u056b\u057f\u0561\u0576\u056b\u0561","min_zoom":2.0,"name:hu":"Egyes\u00fclt Kir\u00e1lys\u00e1g","name:ln":"Ang\u025bl\u025bt\u025b\u0301l\u025b","name:lo":"\u0eaa\u0eb0\u0eab\u0eb0\u0ea5\u0eb2\u0e94\u0e8a\u0eb0\u0ead\u0eb2\u0e99\u0eb2\u0e88\u0eb1\u0e81","name:oc":"Reialme Unit","population":61792000,"name:el":"\u0397\u03bd\u03c9\u03bc\u03ad\u03bd\u03bf \u0392\u03b1\u03c3\u03af\u03bb\u03b5\u03b9\u03bf","name:eo":"Britujo","name":"United Kingdom","official_name":"United Kingdom of Great Britain and Northern Ireland","name:ee":"United Kingdom nutome","name:th":"\u0e2a\u0e2b\u0e23\u0e32\u0e0a\u0e2d\u0e32\u0e13\u0e32\u0e08\u0e31\u0e01\u0e23","name:gu":"\u0aaf\u0ac1\u0aa8\u0abe\u0a87\u0a9f\u0ac7\u0aa1 \u0a95\u0abf\u0a82\u0a97\u0aa1\u0aae","name:eu":"Erresuma Batua","name:et":"Suurbritannia","name:nl":"Verenigd Koninkrijk","name:es":"Reino Unido","name:ia":"Regno Unite","name:rm":"Reginavel Un\u00ec","name:rn":"Ubwongereza","name:az":"Birl\u0259\u015fmi\u015f Krall\u0131q","name:id":"Inggris","name:mr":"\u092c\u094d\u0930\u093f\u091f\u0928","name:ii":"\ua471\ua1e9","name:ar":"\u0627\u0644\u0645\u0645\u0644\u0643\u0629 \u0627\u0644\u0645\u062a\u062d\u062f\u0629","name:my":"\u101a\u1030\u1014\u102d\u102f\u1000\u103a\u1010\u1000\u103a\u1000\u1004\u103a\u1038\u1012\u1019\u103a\u1038","name:io":"Unionita Rejio","name:is":"Bretland","name:am":"\u12a5\u1295\u130d\u120a\u12dd","name:it":"Regno Unito","name:vi":"V\u01b0\u01a1ng qu\u1ed1c Anh","name:ru":"\u0412\u0435\u043b\u0438\u043a\u043e\u0431\u0440\u0438\u0442\u0430\u043d\u0438\u044f","id":838090640,"name:mk":"\u0412\u0435\u043b\u0438\u043a\u0430 \u0411\u0440\u0438\u0442\u0430\u043d\u0438\u0458\u0430","name:af":"Groot-Brittanje","name:zu":"i-United Kingdom","name:ha":"Birtaniya","short_name":"UK","name:ff":"Laamateeri Rentundi","name:fi":"Yhdistynyt kuningaskunta","name:hi":"\u092c\u094d\u0930\u093f\u0924\u0928","name:mg":"Angletera","name:fo":"St\u00f3ra Bretland","alt_name:vi":"V\u01b0\u01a1ng qu\u1ed1c Li\u00ean hi\u1ec7p Anh","name:fr":"Royaume-Uni","name:nn":"Storbritannia","name:fy":"Feriene Keninkryk","name:vo":"Reg\u00e4n Pebal\u00f6l","name:zh":"\u82f1\u56fd","name:gv":"Rywvaneth Unys","name:sr":"\u0423\u0458\u0435\u0434\u0438\u045a\u0435\u043d\u043e \u041a\u0440\u0430\u0459\u0435\u0432\u0441\u0442\u0432\u043e","name:sl":"Velika Britanija","name:sk":"Spojen\u00e9 kr\u00e1\u013eovstvo","name:ja":"\u30a4\u30ae\u30ea\u30b9","name:si":"\u0d91\u0d9a\u0dca\u0dc3\u0dad\u0dca \u0dbb\u0dcf\u0da2\u0db0\u0dcf\u0db1\u0dd2\u0dba","name:fa":"\u0628\u0631\u06cc\u062a\u0627\u0646\u06cc\u0627","name:sg":"K\u00f6d\u00f6r\u00f6gb\u00ef\u00e4--\u00d4ko","name:se":"Stuorra-Brit\u00e1nnia","name:ne":"\u0938\u0902\u092f\u0941\u0915\u094d\u0924 \u0905\u0927\u093f\u0930\u093e\u091c\u094d\u092f","name:br":"Rouantelezh-Unanet","name:bs":"Velika Britanija","name:bm":"Angil\u025bt\u025bri","name:bn":"\u09af\u09c1\u0995\u09cd\u09a4\u09b0\u09be\u099c\u09cd\u09af","name:bo":"\u0f51\u0f56\u0fb1\u0f72\u0f53\u0f0b\u0f47\u0f72\u0f0b","name:ml":"\u0d2c\u0d4d\u0d30\u0d3f\u0d1f\u0d4d\u0d1f\u0d7b","name:no":"Storbritannia","name:sw":"Uingereza","name:be":"\u0412\u044f\u043b\u0456\u043a\u0430\u0431\u0440\u044b\u0442\u0430\u043d\u0456\u044f","name:bg":"\u041e\u0431\u0435\u0434\u0438\u043d\u0435\u043d\u043e \u043a\u0440\u0430\u043b\u0441\u0442\u0432\u043e","name:ba":"\u0411\u04e9\u0439\u04e9\u043a \u0411\u0440\u0438\u0442\u0430\u043d\u0438\u044f","name:sq":"Mbret\u00ebria e Bashkuar","name:ga":"An R\u00edocht Aontaithe","alt_name:sr":"\u0423\u041a; \u0423.\u041a.","name:gd":"An R\u00ecoghachd Aonaichte","name:gl":"Reino Unido","name:yo":"Or\u00edl\u1eb9\u0301\u00e8de Omobabirin","name:ak":"Ahendiman Nkabom","name:tt":"\u0411\u04e9\u0435\u043a\u0431\u0440\u0438\u0442\u0430\u043d\u0438\u044f"},"coordinates":[3420,1370]},{"type":"Point","properties":{"name:ia":"Insula de Man","name:ar":"\u062c\u0632\u064a\u0631\u0629 \u0645\u0627\u0646","name:cs":"Ostrov Man","name:io":"Man-Insulo","name:ku":"Girava Man\u00ea","name:it":"Isola di Man","name:vi":"\u0110\u1ea3o Man","name:ru":"\u041e\u0441\u0442\u0440\u043e\u0432 \u041c\u044d\u043d","name:pl":"Wyspa Man","id":1602889766,"name:ca":"Illa de Man","name:vo":"M\u00e4ne\u00e4n","alt_name:vi":"\u0110\u1ea3o Mann","name:fi":"Mansaari","name:de":"Insel Man","source":"openstreetmap.org","name:fr":"\u00cele de Man","name:zh":"\u9a6c\u6069\u5c9b","name:nl":"het eiland Man","name:ja":"\u30de\u30f3\u5cf6","name:lt":"Meno Sala","name:no":"Man","name:he":"\u05d4\u05d0\u05d9 \u05de\u05d0\u05df","kind":"country","name:br":"Enez Vanav","name:sk":"Ostrov Man","name:tt":"\u041c\u044d\u043d \u0443\u0442\u0440\u0430\u0432\u044b","name:uk":"\u041e\u0441\u0442\u0440\u0456\u0432 \u041c\u0435\u043d","name:be":"\u0412\u043e\u0441\u0442\u0440\u0430\u045e \u041c\u044d\u043d","name:sr":"\u041e\u0441\u0442\u0440\u0432\u043e \u041c\u0430\u043d","population":84497,"name:el":"\u039d\u03ae\u03c3\u03bf\u03c2 \u039c\u03b1\u03bd","name:eo":"Manksinsulo","name":"Isle of Man","min_zoom":2.0,"name:gv":"Vannin","name:et":"Man","name:es":"Isla de Man"},"coordinates":[1552,79]},{"type":"Point","properties":{"source":"naturalearthdata.com","kind":"locality","name":"Ayr","population":69042,"min_zoom":7.0,"id":2382},"coordinates":[1468,3268]},{"type":"Point","properties":{"source":"naturalearthdata.com","kind":"locality","name":"Dumfries","population":31044,"min_zoom":7.0,"id":2397},"coordinates":[3022,2296]}]},"transit":{"type":"GeometryCollection","geometries":[{"type":"LineString","properties":{"kind":"train","network":"Transpennine","sort_rank":275,"colour":"#1893d1","name":"Transpennine Northwest: Edinburgh Waverley => Manchester Airport","source":"openstreetmap.org","min_zoom":6.0,"operator":"Transpennine Express","ref":"TP NW","osm_relation":true,"colour_name":"lightteal"},"arcs":[67]},{"type":"LineString","properties":{"kind":"train","network":"national","service":"night","sort_rank":275,"source":"openstreetmap.org","min_zoom":6.0,"operator":"Serco","ref":"CS H","osm_relation":true,"name":"Highland Caledonian Sleeper: London Euston => Fort William"},"arcs":[68]},{"type":"LineString","properties":{"kind":"train","name":"Highland Caledonian Sleeper: London Euston => Inverness","service":"night","sort_rank":275,"source":"openstreetmap.org","min_zoom":6.0,"operator":"Serco","ref":"CS H","osm_relation":true,"network":"national"},"arcs":[69]},{"type":"LineString","properties":{"kind":"train","name":"Transpennine Northwest: Manchester Airport => Edinburgh Waverley","sort_rank":275,"source":"openstreetmap.org","min_zoom":6.0,"operator":"Transpennine Express","ref":"TP NW","osm_relation":true,"network":"Transpennine"},"arcs":[70]},{"type":"LineString","properties":{"kind":"train","network":"national","sort_rank":275,"source":"openstreetmap.org","min_zoom":6.0,"operator":"Virgin Trains","ref":"VT A","osm_relation":true,"name":"Glasgow Central => London Euston (via Trent Valley)"},"arcs":[71]},{"type":"LineString","properties":{"sort_rank":275,"source":"openstreetmap.org","min_zoom":6.0,"kind":"train","osm_relation":true},"arcs":[72]},{"type":"LineString","properties":{"kind":"train","network":"national","service":"night","sort_rank":275,"source":"openstreetmap.org","min_zoom":6.0,"operator":"Serco","ref":"CS L","osm_relation":true,"name":"Lowland Caledonian Sleeper: London Euston => Glasgow Central"},"arcs":[73]},{"type":"MultiLineString","properties":{"osm_relation":true,"source":"openstreetmap.org","kind":"train","name":"Furness Line","sort_rank":275,"min_zoom":6.0,"operator":"First Transpennine Express"},"arcs":[[74],[75],[76]]},{"type":"LineString","properties":{"kind":"train","network":"SPT","sort_rank":275,"colour":"#71bf44","name":"Argyle Line (Larkhall-Dalmuir)","source":"openstreetmap.org","min_zoom":6.0,"operator":"First Scotrail","ref":"Argyle","id":-300351,"osm_relation":true,"colour_name":"yellowgreen"},"arcs":[77]},{"type":"LineString","properties":{"source":"openstreetmap.org","kind":"train","name":"Lakeside & Haverthwaite Railway","sort_rank":275,"min_zoom":6.0,"osm_relation":true,"id":-4254002},"arcs":[78]},{"type":"MultiLineString","properties":{"source":"openstreetmap.org","kind":"train","name":"Ayrshire Coast Line","sort_rank":275,"min_zoom":6.0,"osm_relation":true},"arcs":[[79],[80],[81],[82]]},{"type":"LineString","properties":{"kind":"train","network":"national","service":"night","sort_rank":275,"source":"openstreetmap.org","min_zoom":6.0,"operator":"Serco","ref":"CS L","osm_relation":true,"name":"Lowland Caledonian Sleeper: Glasgow Central => London Euston"},"arcs":[83]},{"type":"LineString","properties":{"kind":"train","network":"national","service":"night","sort_rank":275,"source":"openstreetmap.org","min_zoom":6.0,"operator":"Serco","ref":"CS H","osm_relation":true,"name":"Highland Caledonian Sleeper: Aberdeen => London Euston"},"arcs":[84]},{"type":"LineString","properties":{"kind":"train","network":"Transpennine","sort_rank":275,"source":"openstreetmap.org","min_zoom":6.0,"operator":"Transpennine Express","ref":"TP NW","osm_relation":true,"name":"Transpennine Northwest: Manchester Airport => Glasgow Central"},"arcs":[85]},{"type":"LineString","properties":{"kind":"train","network":"national","sort_rank":275,"source":"openstreetmap.org","min_zoom":6.0,"operator":"Virgin Trains","ref":"VT A","osm_relation":true,"name":"London Euston => Glasgow Central (via Trent Valley)"},"arcs":[86]},{"type":"MultiLineString","properties":{"kind":"train","name":"Argyle Line (Dalmuir-Lanark)","sort_rank":275,"colour":"#71bf44","source":"openstreetmap.org","min_zoom":6.0,"network":"SPT","operator":"First Scotrail","ref":"Argyle","osm_relation":true,"colour_name":"yellowgreen"},"arcs":[[87],[88],[89],[90],[91],[92],[93],[94],[95],[96]]},{"type":"LineString","properties":{"kind":"train","network":"regional","sort_rank":275,"source":"openstreetmap.org","min_zoom":6.0,"operator":"Arriva Trains North","ref":"NT","osm_relation":true,"name":"Carlisle => Newcastle"},"arcs":[97]},{"type":"MultiLineString","properties":{"kind":"train","name":"Argyle Line (Milngavie-Lanark)","sort_rank":275,"colour":"#71bf44","source":"openstreetmap.org","min_zoom":6.0,"network":"SPT","operator":"First ScotRail","ref":"Argyle","osm_relation":true,"colour_name":"yellowgreen"},"arcs":[[98],[99],[100],[101],[102],[103],[104],[105]]},{"type":"MultiLineString","properties":{"source":"openstreetmap.org","kind":"train","name":"Glasgow South Western Line","sort_rank":275,"min_zoom":6.0,"osm_relation":true},"arcs":[[106],[107],[108],[109],[110],[111],[112],[113],[114],[115],[116],[117]]},{"type":"MultiLineString","properties":{"osm_relation":true,"source":"openstreetmap.org","kind":"train","name":"Cumbrian Coast Line","sort_rank":275,"min_zoom":6.0,"operator":"Northern"},"arcs":[[118],[119],[120],[121],[122],[123],[124]]},{"type":"MultiLineString","properties":{"kind":"train","network":"national","service":"night","sort_rank":275,"source":"openstreetmap.org","min_zoom":6.0,"operator":"Serco","ref":"CS L","osm_relation":true,"name":"Lowland Caledonian Sleeper: Edinburgh Waverley => London Euston"},"arcs":[[125],[126],[127],[128],[129],[130],[131],[132],[133],[134],[135]]},{"type":"LineString","properties":{"source":"openstreetmap.org","kind":"train","name":"Borders Railway","sort_rank":275,"min_zoom":6.0,"osm_relation":true},"arcs":[136]},{"type":"LineString","properties":{"kind":"train","name":"Highland Caledonian Sleeper: London Euston => Aberdeen","service":"night","sort_rank":275,"source":"openstreetmap.org","min_zoom":6.0,"operator":"Serco","ref":"CS H","osm_relation":true,"network":"national"},"arcs":[137]},{"type":"LineString","properties":{"kind":"train","network":"national","service":"night","sort_rank":275,"source":"openstreetmap.org","min_zoom":6.0,"operator":"Serco","ref":"CS H","osm_relation":true,"name":"Highland Caledonian Sleeper: Inverness => London Euston"},"arcs":[138]},{"type":"MultiLineString","properties":{"kind":"train","network":"national","service":"night","sort_rank":275,"source":"openstreetmap.org","min_zoom":6.0,"operator":"Serco","ref":"CS L","osm_relation":true,"name":"Lowland Caledonian Sleeper: London Euston => Edinburgh Waverley"},"arcs":[[139],[140],[141],[142],[143],[144],[145],[146]]},{"type":"LineString","properties":{"kind":"train","network":"national","service":"long_distance","sort_rank":275,"source":"openstreetmap.org","min_zoom":5.0,"operator":"Virgin Trains","ref":"VT A","osm_relation":true,"name":"London Euston => Glasgow Central (via Birmingham)"},"arcs":[147]},{"type":"LineString","properties":{"kind":"train","network":"national","sort_rank":275,"source":"openstreetmap.org","min_zoom":6.0,"operator":"Virgin Trains","ref":"VT A","osm_relation":true,"name":"London Euston => Edinburgh Waverley (via Birmingham)"},"arcs":[148]},{"type":"LineString","properties":{"kind":"train","network":"national","service":"night","sort_rank":275,"source":"openstreetmap.org","min_zoom":6.0,"operator":"Serco","ref":"CS H","osm_relation":true,"name":"Highland Caledonian Sleeper: Fort William => London Euston"},"arcs":[149]},{"type":"LineString","properties":{"kind":"train","network":"regional","sort_rank":275,"source":"openstreetmap.org","min_zoom":6.0,"operator":"Arriva Trains North","ref":"NT","osm_relation":true,"name":"Newcastle => Carlisle"},"arcs":[150]},{"type":"LineString","properties":{"kind":"train","network":"national","sort_rank":275,"colour":"#1893d1","name":"Glasgow Central => London Euston (via Birmingham)","source":"openstreetmap.org","min_zoom":6.0,"operator":"Virgin Trains","ref":"VT A","osm_relation":true,"colour_name":"lightteal"},"arcs":[151]},{"type":"LineString","properties":{"kind":"train","network":"national","sort_rank":275,"colour":"#1893d1","name":"Edinburgh Waverley => London Euston (via Birmingham)","source":"openstreetmap.org","min_zoom":6.0,"operator":"Virgin Trains","ref":"VT A","osm_relation":true,"colour_name":"lightteal"},"arcs":[152]},{"type":"LineString","properties":{"kind":"train","network":"Transpennine","sort_rank":275,"source":"openstreetmap.org","min_zoom":6.0,"operator":"Transpennine Express","ref":"TP NW","osm_relation":true,"name":"Transpennine Northwest: Glasgow Central => Manchester Airport"},"arcs":[153]}]},"pois":{"type":"GeometryCollection","geometries":[{"type":"Point","properties":{"kind":"nature_reserve","protect_class":"98","area":2181700000,"source":"openstreetmap.org","min_zoom":6.74,"tier":2,"id":-6016582,"osm_relation":true,"name":"Clyde Sea Sill Marine Protected Area"},"coordinates":[295,2554]},{"type":"Point","properties":{"kind":"nature_reserve","protect_class":"97","area":866335000,"source":"openstreetmap.org","min_zoom":7.41,"tier":2,"id":-6013732,"osm_relation":true,"name":"South Arran Marine Protected Area"},"coordinates":[363,3337]},{"type":"Point","properties":{"kind":"national_park","name":"Lake District National Park","name:cy":"Parc Cenedlaethol Ardal y Llynnoedd","area":6991010000,"source":"openstreetmap.org","min_zoom":4.4,"tier":1,"id":-287917,"osm_relation":true},"coordinates":[3727,804]}]},"boundaries":{"type":"GeometryCollection","geometries":[{"type":"LineString","properties":{"source":"naturalearthdata.com","kind":"map_unit","sort_rank":258,"kind_detail":"2","min_zoom":5.0,"id":2},"arcs":[0]},{"type":"LineString","properties":{"source":"naturalearthdata.com","kind":"region","name":"North Ayshire - East Renfrewshire","sort_rank":256,"kind_detail":"4","min_zoom":6.8,"id":5515},"arcs":[1]},{"type":"MultiLineString","properties":{"source":"naturalearthdata.com","kind":"region","name":"South Lanarkshire - North Lanarkshire","sort_rank":256,"kind_detail":"4","min_zoom":6.8,"id":5528},"arcs":[[2],[3]]},{"type":"LineString","properties":{"source":"naturalearthdata.com","kind":"region","sort_rank":256,"kind_detail":"4","min_zoom":6.8,"id":350},"arcs":[4]},{"type":"LineString","properties":{"source":"naturalearthdata.com","kind":"region","sort_rank":256,"kind_detail":"4","min_zoom":7.0,"id":542},"arcs":[5]},{"type":"MultiLineString","properties":{"source":"naturalearthdata.com","kind":"region","name":"Renfrewshire - North Ayshire","sort_rank":256,"kind_detail":"4","min_zoom":6.8,"id":5486},"arcs":[[6],[7],[8]]},{"type":"LineString","properties":{"source":"naturalearthdata.com","kind":"region","name":"East Renfrewshire - Renfrewshire","sort_rank":256,"kind_detail":"4","min_zoom":6.8,"id":5516},"arcs":[9]},{"type":"MultiLineString","properties":{"source":"naturalearthdata.com","kind":"region","name":"South Ayrshire - North Ayshire","sort_rank":256,"kind_detail":"4","min_zoom":6.8,"id":5466},"arcs":[[10],[11]]},{"type":"MultiLineString","properties":{"source":"naturalearthdata.com","kind":"region","name":"Dumfries and Galloway - South Ayrshire","sort_rank":256,"kind_detail":"4","min_zoom":6.8,"id":5467},"arcs":[[12],[13],[14],[15],[16],[17],[18]]},{"type":"MultiLineString","properties":{"source":"naturalearthdata.com","kind":"region","name":"Dumfries and Galloway - Scottish Borders","sort_rank":256,"kind_detail":"4","min_zoom":6.8,"id":5491},"arcs":[[19],[20],[21],[22],[23],[24],[25],[26],[27],[28],[29]]},{"type":"MultiLineString","properties":{"source":"naturalearthdata.com","kind":"region","name":"Midlothian - Scottish Borders","sort_rank":256,"kind_detail":"4","min_zoom":6.8,"id":5494},"arcs":[[30],[31],[32],[33]]},{"type":"LineString","properties":{"source":"naturalearthdata.com","kind":"region","name":"Scottish Borders - West Lothian","sort_rank":256,"kind_detail":"4","min_zoom":6.8,"id":5495},"arcs":[34]},{"type":"MultiLineString","properties":{"source":"naturalearthdata.com","kind":"region","name":"East Ayrshire - South Ayrshire","sort_rank":256,"kind_detail":"4","min_zoom":6.8,"id":5520},"arcs":[[35],[36],[37],[38],[39]]},{"type":"MultiLineString","properties":{"source":"naturalearthdata.com","kind":"region","name":"North Ayshire - East Ayrshire","sort_rank":256,"kind_detail":"4","min_zoom":6.8,"id":5521},"arcs":[[40],[41],[42]]},{"type":"MultiLineString","properties":{"source":"naturalearthdata.com","kind":"region","name":"Dumfries and Galloway - East Ayrshire","sort_rank":256,"kind_detail":"4","min_zoom":6.8,"id":5522},"arcs":[[43],[44],[45],[46],[47],[48],[49]]},{"type":"MultiLineString","properties":{"source":"naturalearthdata.com","kind":"region","name":"East Ayrshire - East Renfrewshire","sort_rank":256,"kind_detail":"4","min_zoom":6.8,"id":5523},"arcs":[[50],[51]]},{"type":"MultiLineString","properties":{"source":"naturalearthdata.com","kind":"region","name":"Dumfries and Galloway - South Lanarkshire","sort_rank":256,"kind_detail":"4","min_zoom":6.8,"id":5525},"arcs":[[52],[53],[54],[55],[56]]},{"type":"LineString","properties":{"source":"naturalearthdata.com","kind":"region","name":"South Lanarkshire - West Lothian","sort_rank":256,"kind_detail":"4","min_zoom":6.8,"id":5526},"arcs":[57]},{"type":"MultiLineString","properties":{"source":"naturalearthdata.com","kind":"region","name":"Scottish Borders - South Lanarkshire","sort_rank":256,"kind_detail":"4","min_zoom":6.8,"id":5527},"arcs":[[58],[59],[60]]},{"type":"LineString","properties":{"source":"naturalearthdata.com","kind":"region","name":"East Renfrewshire - South Lanarkshire","sort_rank":256,"kind_detail":"4","min_zoom":6.8,"id":5530},"arcs":[61]},{"type":"MultiLineString","properties":{"source":"naturalearthdata.com","kind":"region","name":"South Lanarkshire - East Ayrshire","sort_rank":256,"kind_detail":"4","min_zoom":6.8,"id":5531},"arcs":[[62],[63],[64]]},{"type":"LineString","properties":{"source":"naturalearthdata.com","kind":"region","name":"Ards - North Down","sort_rank":256,"kind_detail":"4","min_zoom":6.8,"id":5585},"arcs":[65]},{"type":"LineString","properties":{"source":"naturalearthdata.com","kind":"region","name":"Lancashire - Cumbria","sort_rank":256,"kind_detail":"4","min_zoom":6.8,"id":5634},"arcs":[66]}]},"roads":{"type":"GeometryCollection","geometries":[{"type":"LineString","properties":{"kind":"highway","network":"e-road","sort_rank":383,"kind_detail":"motorway","source":"naturalearthdata.com","min_zoom":3.0,"all_networks":["e-road"],"landuse_kind":"urban_area","shield_text":"5","ref":"5","id":4244,"all_shield_texts":["5"]},"arcs":[172]},{"type":"MultiLineString","properties":{"kind":"highway","network":"e-road","sort_rank":383,"kind_detail":"motorway","source":"naturalearthdata.com","min_zoom":3.0,"all_networks":["e-road"],"shield_text":"5","ref":"5","id":4244,"all_shield_texts":["5"]},"arcs":[[173],[174]]},{"type":"LineString","properties":{"kind":"major_road","network":"e-road","sort_rank":380,"kind_detail":"primary","source":"naturalearthdata.com","min_zoom":6.0,"landuse_kind":"urban_area","shield_text":"18","ref":"18","id":5747},"arcs":[175]},{"type":"LineString","properties":{"kind":"major_road","network":"e-road","sort_rank":380,"kind_detail":"primary","source":"naturalearthdata.com","min_zoom":6.0,"shield_text":"18","ref":"18","id":5747},"arcs":[176]},{"type":"LineString","properties":{"source":"naturalearthdata.com","kind":"major_road","kind_detail":"primary","sort_rank":380,"landuse_kind":"urban_area","min_zoom":7.0,"id":5942},"arcs":[177]},{"type":"LineString","properties":{"source":"naturalearthdata.com","kind":"major_road","sort_rank":380,"kind_detail":"primary","min_zoom":7.0,"id":5942},"arcs":[178]},{"type":"LineString","properties":{"sort_rank":355,"source":"naturalearthdata.com","min_zoom":7.0,"kind":"ferry","id":7896},"arcs":[179]},{"type":"LineString","properties":{"source":"naturalearthdata.com","kind":"major_road","sort_rank":379,"kind_detail":"secondary","min_zoom":6.0,"id":54384},"arcs":[180]},{"type":"LineString","properties":{"source":"naturalearthdata.com","kind":"major_road","sort_rank":379,"kind_detail":"secondary","min_zoom":6.0,"id":54388},"arcs":[181]},{"type":"LineString","properties":{"source":"naturalearthdata.com","kind":"major_road","kind_detail":"secondary","sort_rank":379,"landuse_kind":"urban_area","min_zoom":6.0,"id":54396},"arcs":[182]},{"type":"LineString","properties":{"source":"naturalearthdata.com","kind":"major_road","sort_rank":379,"kind_detail":"secondary","min_zoom":6.0,"id":54396},"arcs":[183]},{"type":"LineString","properties":{"source":"naturalearthdata.com","kind":"major_road","sort_rank":379,"kind_detail":"secondary","min_zoom":6.0,"id":54409},"arcs":[184]}]},"earth":{"type":"GeometryCollection","geometries":[{"type":"MultiPolygon","properties":{"sort_rank":10,"source":"naturalearthdata.com","min_zoom":0.0,"kind":"earth","area":237910306942},"arcs":[[[185]],[[186]],[[187]],[[188]],[[189]],[[190]],[[191]],[[192]],[[193]]]}]},"landuse":{"type":"GeometryCollection","geometries":[{"type":"MultiPolygon","properties":{"source":"openstreetmap.org","kind":"park","tier":2,"area":11786895103,"sort_rank":24,"min_zoom":4.0,"osm_relation":true},"arcs":[[[194]]]},{"type":"MultiPolygon","properties":{"source":"naturalearthdata.com","kind":"urban_area","name":"","area":30505972181,"sort_rank":11,"min_zoom":4.0},"arcs":[[[195]],[[196]],[[197]],[[198]],[[199]],[[200]],[[201]],[[202]],[[203]],[[204]],[[205]],[[206]]]},{"type":"MultiPolygon","properties":{"source":"openstreetmap.org","kind":"national_park","tier":1,"area":24930860143,"sort_rank":18,"min_zoom":3.0,"osm_relation":true},"arcs":[[[207]]]},{"type":"MultiPolygon","properties":{"source":"openstreetmap.org","kind":"nature_reserve","area":873339008,"tier":2,"id":421685070,"min_zoom":6.0,"sort_rank":23},"arcs":[[[208]],[[209]]]},{"type":"Polygon","properties":{"kind":"nature_reserve","protect_class":"98","area":2181700096,"sort_rank":23,"source":"openstreetmap.org","min_zoom":4.0,"tier":2,"id":-6016582,"osm_relation":true},"arcs":[[210],[211],[212]]},{"type":"Polygon","properties":{"kind":"nature_reserve","protect_class":"97","area":866334976,"sort_rank":23,"source":"openstreetmap.org","min_zoom":6.0,"tier":2,"id":-6013732,"osm_relation":true},"arcs":[[213],[214],[215]]}]}},"type":"Topology","transform":{"translate":[-5.625,54.1624339681],"scale":[0.0006866455,0.0003940769]},"arcs":[[[4096,2480],[-15,-12],[-40,-60],[-32,-48],[-5,-9],[-11,-13],[-10,-9],[-47,-22],[-8,-8],[-24,-55],[-6,-8],[-8,-6],[-23,-5],[-11,2],[-55,29],[-8,3],[-8,-5],[-6,-12],[-2,-67],[-2,-11],[-19,-39],[-6,-47]],[[1612,4052],[0,1],[3,8]],[[2539,3985],[-23,4],[-40,32],[-83,73],[-3,2]],[[2731,4096],[-46,-34],[-95,-49],[-51,-28]],[[863,2109]],[[977,4096],[-15,-163],[-8,-206]],[[1411,4096],[31,-25],[81,-8]],[[1576,4065],[39,-4]],[[1523,4063],[53,2]],[[1659,4096],[-4,-1],[-38,-24],[-2,-10]],[[1519,3626],[-42,-38],[-57,-34],[-11,-3]],[[1409,3551],[-13,1]],[[1655,2510],[-73,25]],[[1582,2535],[-18,-6],[-87,-48],[-53,-52],[-7,-30],[11,-56],[36,-22],[4,-19],[-4,-22],[-16,-18],[-103,-30],[-91,-2],[-17,-17]],[[1686,2526],[-31,-16]],[[1237,2213],[-36,24]],[[1201,2237],[-102,-19],[-16,-19],[-11,-36],[-36,-38],[-16,-5]],[[1020,2120],[-50,24],[-41,1]],[[929,2145],[-66,-36]],[[3408,2991],[-28,4],[-8,16],[9,31],[0,60],[30,42],[60,44],[2,18],[-18,8],[-55,2],[-38,22]],[[3362,3238],[-28,-57],[-14,-10],[-95,0],[-48,-19]],[[3177,3152],[-83,13]],[[3584,3013],[-26,33],[-37,24]],[[3521,3070],[-76,-45],[-37,-34]],[[3773,2818],[-17,20],[3,31],[-19,36],[-60,57],[0,42],[-9,15],[-38,11]],[[3633,3030],[-49,-17]],[[4041,2408],[0,1],[0,1],[-13,61],[-35,25],[-9,23],[8,119],[29,42],[0,32],[-7,15],[-43,2],[-11,13],[11,25],[38,23],[-9,26],[-19,15],[-47,6],[-31,19]],[[3903,2856],[-40,-15],[-36,-35]],[[3827,2806],[-21,23]],[[3806,2829],[-33,-11]],[[3647,3932],[40,17],[4,18],[-7,26],[32,39],[75,64]],[[3418,4096],[12,-7]],[[3582,4096],[2,-27],[30,-69],[-2,-42],[35,-26]],[[3430,4089],[58,6],[1,1]],[[3176,4096],[-20,-18]],[[1519,3626],[23,-23],[52,-23],[57,-42],[70,-30],[24,-69],[-2,-49],[-6,-38],[-35,-42],[-33,-23],[-7,-31],[11,-30],[15,-27],[7,-30],[0,-42],[-7,-23],[-28,0]],[[1575,3123],[-37,8]],[[1538,3131],[-14,-20],[3,-19],[24,-42],[17,-38],[22,-26],[42,-35],[43,-38],[31,-38],[13,-34],[2,-42],[0,-61],[0,-46],[-2,-57],[-15,-42],[-18,-50],[0,-17]],[[1660,3104],[-44,19]],[[1616,3123],[-41,0]],[[1510,3790],[-33,4],[-22,19],[11,30],[37,39],[51,57],[39,80],[19,33]],[[1519,3626],[9,8],[50,34],[46,34],[13,38],[0,23],[-48,27]],[[1589,3790],[-35,0],[-44,0]],[[2391,3295],[-23,-8],[-14,-9],[14,-41],[-6,-8],[-98,-51],[-35,-48],[-5,-62],[18,-62],[-41,-77],[0,-43],[-31,-40]],[[2170,2846],[-25,12],[-31,49],[-22,15],[-62,7]],[[2030,2929],[-9,-28],[-10,-3]],[[2011,2898],[-59,14]],[[1952,2912],[-18,-6],[-36,-82],[-40,-32],[-6,-54],[-35,-61],[-11,-90],[-25,-22],[-2,-51],[-22,-26],[-19,-2]],[[1738,2486],[-8,85]],[[1730,2571],[-19,0],[-12,-38],[-13,-7]],[[1997,3865],[-44,13],[-92,51],[-232,102],[-17,21]],[[2001,3866],[-4,-1]],[[2430,3278],[-29,21]],[[2401,3299],[-10,-4]],[[2888,2860],[-42,52],[-45,27],[-8,26],[-2,81],[-50,21],[-39,97],[-82,94],[-77,22]],[[2543,3280],[-113,-2]],[[3094,3165],[-98,-66],[3,-48],[-9,-40],[0,-49],[-52,-28],[-8,-16],[-5,-50],[-37,-8]],[[3156,4078],[-41,18]],[[3156,4078],[-1,-21],[34,-69],[-1,-40],[20,-14]],[[3240,3935],[8,-14],[-123,-150],[-2,-29],[13,-10],[4,-19],[-13,-34],[-56,-9],[-16,-21],[35,-58],[3,-29],[20,-15],[6,-18],[-8,-27],[6,-70],[-40,-58],[-1,-34],[-32,-103],[50,-72]],[[3208,3934],[32,1]],[[2001,3866],[18,4],[20,8],[6,32],[3,43],[-9,38],[-14,16],[-25,21],[-9,29],[8,11],[12,19],[2,9]],[[2001,3866],[16,-49],[32,-65],[25,-31],[30,-30],[11,-27],[0,-19],[-15,-27],[-35,-41],[-7,-31],[22,-19]],[[2351,3580],[27,-7],[30,-38],[16,-39],[0,-45],[-5,-38],[-15,-69],[-13,-49]],[[2080,3527],[29,0],[37,0],[81,0],[46,4],[24,26],[26,20],[28,3]],[[87,1294],[-10,-9],[-10,-6],[3,-33],[-40,-20],[-17,-39],[-13,-8]],[[4096,28],[-32,-14],[-3,-1]],[[4096,1477],[-114,293],[-96,117],[-149,269],[-153,42],[-97,91],[-123,14],[-6,64],[-41,35],[-80,189],[7,164],[-40,92],[-117,158],[-35,118],[-95,78],[-83,29],[7,79],[-61,29],[8,95],[117,217],[-47,68],[4,89],[-43,67],[76,151],[6,71]],[[4096,1477],[-115,294],[-95,116],[-149,269],[-153,42],[-97,91],[-123,14],[-6,64],[-41,35],[-80,189],[7,164],[-40,92],[-117,158],[-35,118],[-95,78],[-83,29],[7,79],[-61,29],[8,95],[117,217],[-47,68],[4,89],[-43,67],[75,151],[6,71]],[[4096,1477],[-115,294],[-95,116],[-149,269],[-153,42],[-97,91],[-123,14],[-6,64],[-41,35],[-80,189],[7,164],[-40,92],[-117,158],[-35,118],[-95,78],[-83,29],[7,79],[-61,29],[8,95],[117,217],[-47,68],[4,89],[-43,67],[75,151],[6,71]],[[4096,1477],[-114,293],[-96,117],[-149,269],[-153,42],[-97,91],[-123,14],[-6,64],[-41,35],[-80,189],[7,164],[-40,92],[-117,158],[-35,118],[-95,78],[-83,29],[7,79],[-61,29],[8,95],[117,217],[-47,68],[4,89],[-43,67],[75,151],[6,71]],[[4096,1478],[-113,289],[-97,120],[-142,261],[-160,50],[-97,91],[-121,11],[-8,67],[-41,35],[-80,189],[7,164],[-40,92],[-117,158],[-36,119],[-183,115],[16,61],[-64,38],[5,86],[121,229],[-48,67],[0,96],[-52,65],[-78,-7],[-134,38],[-78,126],[-125,58]],[[3529,0],[-6,85],[30,100],[-64,63]],[[4096,1477],[-113,290],[-97,120],[-142,261],[-160,50],[-97,91],[-121,11],[-8,67],[-41,35],[-80,189],[7,164],[-40,92],[-117,158],[-36,119],[-184,115],[17,61],[-64,38],[5,86],[120,229],[-48,67],[1,96],[-54,65],[-75,-7],[-135,38],[-79,126],[-124,58]],[[3529,0],[-6,82],[27,96]],[[4096,25],[-21,75],[-42,12],[-73,-31],[-11,-21],[-6,-8],[-4,-14],[-1,-2],[-1,-2],[-4,-6],[-5,-8],[-2,-3],[-2,-2],[-1,-1],[-1,0],[-3,-1],[-4,0],[-2,0],[-1,0],[-39,17],[-3,1],[-2,2],[-7,6],[-5,3],[-24,3],[-3,0],[-2,1],[-4,1],[-2,1],[-12,8],[-27,23],[-34,19],[-28,-3],[-7,-4],[-13,-11],[-1,-1],[-3,-2],[-2,0],[-3,-1],[-33,-6],[-17,-5],[-5,-6],[-1,-4],[0,-6],[0,-2],[0,-1],[0,-1],[-1,-2],[-1,-2],[-1,-2],[-43,-39]],[[4096,26],[-21,73],[-1,2],[-1,1],[-2,3],[-5,3],[-33,4],[-72,-30],[-3,-2],[-5,-8],[-11,-20],[-5,-18],[-20,-21],[-163,83],[-3,1],[-4,1],[-4,0],[-21,-3],[-4,-1],[-5,-3],[-17,-14],[-38,-6],[-15,-5],[-2,-1],[-1,-1],[-56,-64]],[[2403,3999],[-49,80],[-64,17]],[[3888,294],[-72,-74]],[[1170,3749],[28,5],[-67,88],[-22,130],[13,124]],[[1203,3751],[90,-10],[40,56]],[[1333,3797],[-1,124],[116,175]],[[1333,3797],[79,-218],[-1,-74],[60,-82],[-16,-135]],[[4096,1478],[-113,289],[-97,120],[-142,261],[-160,50],[-97,91],[-121,11],[-8,67],[-41,35],[-80,189],[7,164],[-40,92],[-117,158],[-36,119],[-183,115],[16,61],[-64,38],[5,86],[121,229],[-48,67],[0,96],[-52,65],[-78,-7],[-134,38],[-78,126],[-125,58]],[[4096,1477],[-114,293],[-96,117],[-149,269],[-153,42],[-97,91],[-123,14],[-6,64],[-41,35],[-80,189],[7,164],[-40,92],[-117,158],[-35,118],[-95,78],[-83,29],[7,79],[-61,29],[8,95],[117,217],[-47,68],[4,89],[-43,67],[76,151],[6,71]],[[4096,1477],[-113,290],[-97,120],[-142,261],[-160,50],[-97,91],[-121,11],[-8,67],[-41,35],[-80,189],[7,164],[-40,92],[-117,158],[-36,119],[-184,115],[17,61],[-64,38],[5,86],[120,229],[-48,67],[1,96],[-54,65],[-75,-7],[-135,38],[-79,126],[-124,58]],[[4096,1477],[-113,290],[-97,120],[-142,261],[-160,50],[-97,91],[-121,11],[-8,67],[-41,35],[-80,189],[7,164],[-40,92],[-117,158],[-36,119],[-184,115],[17,61],[-64,38],[5,86],[120,229],[-48,67],[1,96],[-54,65],[-75,-7],[-135,38],[-79,126],[-124,58]],[[2431,4096],[3,-2]],[[2434,4094],[23,-16]],[[2434,4094],[26,0]],[[2461,4093],[2,-1]],[[2470,4087],[74,-42]],[[2541,4047],[-15,4]],[[2538,4048],[3,-1]],[[2541,4047],[3,-2]],[[2544,4045],[85,-129],[128,-39]],[[2758,3877],[-36,-48],[-25,6]],[[3921,1847],[175,-8]],[[2355,4096],[-19,-24],[-46,24]],[[2458,4096],[86,-51]],[[2460,4094],[1,-1]],[[2541,4047],[-15,4]],[[2538,4048],[3,-1]],[[2541,4047],[3,-2]],[[2544,4045],[85,-129],[128,-39]],[[2758,3877],[-36,-48],[-25,6]],[[874,1895],[-1,1]],[[1418,3547],[-7,-42],[60,-84],[-17,-141],[42,-101],[-138,-167],[42,-60],[-37,-64],[-232,-132],[-7,-104],[44,-35],[-19,-117],[79,-131],[-61,-56],[-9,-115],[-66,-147],[52,-231],[-104,3],[-162,69]],[[1635,3682],[-64,-45],[-84,-4],[-68,-88]],[[1635,3682],[-41,48],[18,130],[-24,126],[45,80],[51,30]],[[3756,2122],[-293,-44],[-139,10],[-278,194],[-98,21],[-182,287],[-15,130],[-52,88],[10,58],[-68,87],[-182,134],[-411,84],[-29,33],[-1,72],[-105,50],[-119,103],[-42,168],[-117,85]],[[2105,4069],[-87,-14],[-34,41]],[[3875,1910],[-49,108],[-4,7],[-1,3],[-2,3],[-4,5],[-58,85]],[[3901,1868],[-17,23],[-3,5],[-59,129],[-19,30]],[[3900,1869],[-11,13],[-6,9],[-23,50]],[[3888,1884],[-2,3],[-3,5],[-8,16],[-11,16]],[[3901,1868],[13,-16]],[[3923,1844],[-10,8]],[[2967,995],[12,45],[-2,47],[23,54],[14,126],[78,119],[187,77],[106,104],[195,123],[172,13],[99,36],[77,97]],[[3529,0],[-6,85],[29,104],[-46,59],[-24,-2],[-43,-112],[-31,-21],[-49,23],[-43,46],[-50,68],[-3,4],[-2,5],[0,2],[-5,33],[-3,10],[-2,11],[-18,118],[0,40],[-5,16],[-112,104],[-153,212],[28,89],[-24,100]],[[2976,1034],[-2,-4],[0,-5],[0,-2],[-1,-2],[-9,-12],[3,-14]],[[2967,995],[0,-1]],[[2967,994],[1,-4]],[[3229,488],[2,-4],[1,-4],[1,-4],[1,-7],[1,-11],[-1,-26],[18,-123],[4,-15],[4,-22],[1,-12],[7,-13],[12,-9],[2,-2],[2,-2],[31,-50]],[[3923,1844],[5,-8],[0,-1],[0,-1],[-1,-1]],[[2852,3878],[-1,0]],[[2851,3878],[0,1]],[[2851,3879],[-2,0]],[[2849,3879],[-1,1]],[[2848,3880]],[[2848,3880],[-1,0]],[[2847,3880],[-1,1]],[[2846,3881],[-1,0]],[[2852,3878],[1,-1]],[[4096,1477],[-115,294],[-95,116],[-149,269],[-153,42],[-97,91],[-123,14],[-6,64],[-41,35],[-80,189],[7,164],[-40,92],[-117,158],[-36,119],[-183,115],[16,61],[-64,38],[5,86],[121,232],[-48,62],[3,91],[-48,68]],[[2941,4096],[-61,-207],[-27,-12]],[[3896,4096],[83,-123],[6,-68],[31,-21],[-17,-62],[18,-42],[51,-65],[28,-14]],[[4096,1477],[-115,294],[-95,116],[-149,269],[-153,42],[-97,91],[-123,14],[-6,64],[-41,35],[-80,189],[7,164],[-40,92],[-117,158],[-35,118],[-95,78],[-83,29],[7,79],[-61,29],[8,95],[117,217],[-47,68],[4,89],[-43,67],[75,151],[6,71]],[[4096,1477],[-114,293],[-96,117],[-149,269],[-153,42],[-97,91],[-123,14],[-6,64],[-41,35],[-80,189],[7,164],[-40,92],[-117,158],[-35,118],[-95,78],[-83,29],[7,79],[-61,29],[8,95],[117,217],[-47,68],[4,89],[-43,67],[76,151],[6,71]],[[2851,3878],[-2,1]],[[2849,3879],[-1,0]],[[2848,3879],[-1,1]],[[2847,3880],[-1,0]],[[2846,3880],[-1,1]],[[2845,3881],[-1,0]],[[4096,1477],[-115,294],[-95,116],[-149,269],[-153,42],[-97,91],[-123,14],[-6,64],[-41,35],[-80,189],[7,164],[-40,92],[-117,158],[-36,119],[-184,115],[17,61],[-64,38],[5,86],[121,232],[-49,64],[3,93],[-49,65]],[[2851,3878],[29,11],[60,207]],[[4096,1477],[-113,290],[-97,120],[-142,261],[-160,50],[-97,91],[-121,11],[-8,67],[-41,35],[-80,189],[7,164],[-40,92],[-117,158],[-36,119],[-184,115],[17,61],[-64,38],[5,86],[120,229],[-48,67],[1,96],[-54,65],[-75,-7],[-135,38],[-79,126],[-124,58]],[[4096,1477],[-115,294],[-95,116],[-149,269],[-153,42],[-97,91],[-123,14],[-6,64],[-41,35],[-80,189],[7,164],[-40,92],[-117,158],[-35,118],[-95,78],[-83,29],[7,79],[-61,29],[8,95],[117,217],[-47,68],[4,89],[-43,67],[75,151],[6,71]],[[4096,1477],[-114,293],[-96,117],[-149,269],[-153,42],[-97,91],[-123,14],[-6,64],[-41,35],[-80,189],[7,164],[-40,92],[-117,158],[-35,118],[-95,78],[-83,29],[7,79],[-61,29],[8,95],[117,217],[-47,68],[4,89],[-43,67],[76,151],[6,71]],[[3921,1847],[175,-8]],[[4096,1478],[-113,289],[-97,120],[-142,261],[-160,50],[-97,91],[-121,11],[-8,67],[-41,35],[-80,189],[7,164],[-40,92],[-117,158],[-36,119],[-183,115],[16,61],[-64,38],[5,86],[121,229],[-48,67],[0,96],[-52,65],[-78,-7],[-134,38],[-78,126],[-125,58]],[[4096,1477],[-114,293],[-96,117],[-149,269],[-153,42],[-97,91],[-123,14],[-6,64],[-41,35],[-80,189],[7,164],[-40,92],[-117,158],[-35,118],[-95,78],[-83,29],[7,79],[-61,29],[8,95],[117,217],[-47,68],[4,89],[-43,67],[76,151],[6,71]],[[4096,1478],[-113,289],[-97,120],[-142,261],[-160,50],[-97,91],[-121,11],[-8,67],[-41,35],[-80,189],[7,164],[-40,92],[-117,158],[-36,119],[-183,115],[16,61],[-64,38],[5,86],[121,229],[-48,67],[0,96],[-52,65],[-78,-7],[-134,38],[-78,126],[-125,58]],[[28,4096],[-10,-32],[19,1],[18,7],[29,24],[56,0],[-15,-14],[-42,-18],[-19,-16],[-25,-37],[-22,-44],[-9,-35],[-8,-22],[0,186],[28,0]],[[4096,168],[0,-46],[-30,-29],[-31,-13],[5,-24],[21,-43],[7,-13],[-129,0],[11,37],[12,27],[26,22],[53,29],[43,36],[12,17]],[[893,4096],[216,0],[4,-50],[-23,-55],[-64,-68],[28,-41],[48,-42],[84,-55],[0,-19],[-11,-24],[14,-9],[47,-2],[79,-34],[43,-36],[31,-53],[7,-53],[0,-3],[-30,-46],[53,-18],[35,-44],[13,-61],[-13,-69],[-35,-51],[-97,-45],[-47,-43],[-13,-29],[-13,-59],[-8,-24],[-12,-15],[-26,-22],[-49,-60],[-8,-16],[-2,-24],[3,-55],[-1,-25],[-6,-23],[-33,-85],[-1,-13],[0,-27],[-2,-8],[-15,-4],[-8,-6],[-94,-129],[-60,-38],[-28,-29],[-12,-47],[-4,-52],[-10,-35],[-26,-62],[-6,-21],[-3,-17],[-1,-57],[5,-29],[20,-51],[1,-4],[4,-20],[8,-24],[52,-106],[0,-17],[-6,-9],[-4,-10],[-26,-27],[-26,4],[-24,23],[-19,28],[-7,23],[2,62],[-1,27],[-7,27],[-11,24],[-22,36],[-5,14],[-14,28],[-14,13],[-7,-29],[-7,-8],[-16,-2],[-31,1],[-21,-20],[-9,-46],[-5,-91],[8,-101],[26,-90],[42,-77],[139,-169],[29,-14],[14,-14],[10,-33],[6,-35],[6,-23],[10,-10],[12,-4],[27,-4],[-6,-19],[0,-17],[6,-17],[11,-16],[-17,-23],[-1,-42],[9,-40],[14,-18],[30,-7],[62,-35],[31,-8],[-18,41],[-1,12],[0,24],[8,46],[0,22],[-42,37],[-24,60],[-16,60],[-10,27],[-15,11],[-11,26],[-7,30],[-3,21],[0,19],[2,13],[6,15],[12,23],[22,32],[29,31],[34,26],[34,16],[56,1],[31,-14],[27,-71],[31,-20],[66,-19],[172,-108],[48,-48],[84,-131],[13,-10],[52,1],[14,-6],[36,-28],[31,-14],[34,-5],[15,5],[10,12],[7,12],[8,5],[10,21],[-8,48],[-5,53],[19,37],[-21,37],[7,31],[13,29],[-5,32],[-17,24],[-19,13],[-21,6],[-23,2],[-10,16],[-11,37],[-14,60],[5,28],[10,31],[11,26],[9,11],[23,-6],[10,-18],[7,-28],[14,-36],[13,-18],[17,-13],[108,-53],[22,-3],[23,12],[36,46],[22,13],[-13,-102],[51,-86],[75,-49],[56,10],[-14,40],[5,44],[17,36],[21,19],[1,-12],[20,-9],[3,-26],[-6,-33],[3,-26],[0,-2],[-5,-9],[-4,-7],[4,-7],[4,-4],[5,-1],[6,-3],[0,-19],[46,-3],[69,10],[114,87],[76,35],[14,12],[-49,50],[20,16],[9,3],[-3,10],[-7,26],[23,22],[17,29],[6,-8],[2,-8],[2,-19],[-7,12],[-7,3],[-17,-31],[8,-16],[9,-10],[11,-2],[13,9],[-5,5],[-2,1],[-3,13],[103,-16],[32,53],[37,6],[136,-13],[25,14],[16,41],[3,41],[-3,55],[-7,50],[-12,27],[19,70],[42,-38],[23,-9],[24,12],[-2,11],[-1,2],[-1,1],[-5,5],[21,8],[22,-7],[22,-13],[25,-7],[464,-35],[124,34],[6,2],[35,-17],[0,-19],[-28,12],[-22,-10],[-22,-14],[-28,-5],[0,-17],[100,0],[-26,-19],[-121,-36],[-29,2],[-54,18],[-12,10],[-8,10],[-11,9],[-18,6],[-92,-28],[-22,-17],[-37,-42],[73,-37],[18,-15],[-60,-33],[-15,-1],[-24,9],[-16,19],[-16,13],[-29,-7],[-34,-42],[-29,-69],[-47,-149],[13,-43],[-12,-48],[-23,-42],[-19,-24],[-15,-11],[-32,-13],[-13,-11],[-10,-22],[-20,-63],[-49,-115],[-39,-198],[-31,-88],[-6,-6],[-16,-19],[-11,-19],[16,-17],[15,-37],[7,-8],[24,-13],[137,-196],[34,-32],[50,-106],[35,-17],[4,-5],[3,-26],[10,-36],[-2,-22],[-7,-21],[-3,-20],[8,-40],[19,-34],[43,-56],[52,-96],[32,-32],[30,13],[24,5],[33,-3],[22,12],[-13,49],[14,64],[12,27],[23,13],[-3,-51],[4,-86],[-12,-74],[-49,-16],[0,-17],[13,-11],[-1776,0],[18,17],[50,28],[31,37],[-12,69],[40,24],[9,9],[9,19],[8,23],[8,20],[11,9],[21,44],[8,8],[13,10],[-2,21],[-9,23],[-7,14],[-11,8],[-27,4],[-11,7],[-8,17],[-10,42],[-7,19],[-3,34],[30,95],[8,37],[-24,13],[-26,-8],[-27,-16],[-55,-13],[-78,-47],[-52,-50],[-34,-68],[-64,-159],[-20,-29],[-45,-40],[-30,-41],[-36,-24],[-32,-8],[-3,-10],[2,-18],[-5,-24],[-14,-38],[-5,-32],[0,-26],[-1307,0],[0,237],[11,-3],[7,2],[48,51],[39,58],[18,73],[-15,97],[-42,46],[-62,-17],[-4,-3],[0,459],[72,-70],[26,-43],[15,-58],[5,-79],[-7,-39],[-33,-43],[-10,-30],[2,-28],[11,-29],[15,-22],[17,-9],[15,-50],[14,-36],[17,-18],[20,4],[18,35],[22,13],[-21,28],[7,20],[19,17],[15,20],[5,42],[-10,42],[9,31],[28,44],[7,16],[1,13],[-4,10],[-2,14],[10,24],[-9,7],[-46,72],[-6,35],[-9,100],[-10,21],[-25,14],[-17,37],[-23,89],[-4,26],[0,21],[-5,15],[-16,6],[-14,8],[-17,36],[-9,8],[-73,-13],[0,1600],[13,2],[32,17],[29,23],[24,24],[48,68],[14,39],[-17,16],[-1,11],[-24,57],[-13,19],[-13,14],[-15,6],[-18,-3],[0,16],[33,21],[24,34],[32,85],[7,7],[6,-4],[5,2],[2,20],[-1,48],[1,14],[9,24],[31,61],[-10,47],[18,15],[23,10],[9,33],[-12,26],[-17,5],[-13,15],[2,58],[-3,8],[-6,11],[-3,11],[32,24],[3,21],[4,45],[4,21],[10,31],[14,28],[16,24],[67,74],[22,16],[49,16],[21,16],[5,19],[320,0],[74,-69],[17,-44],[14,-22],[19,-1],[10,16],[-3,21],[-11,20],[-16,10],[15,35],[10,13],[2,16],[-1,5]],[[527,3960],[-12,2],[-38,-2],[3,-9],[4,-19],[3,-9],[-49,-9],[-45,-39],[-35,-54],[-20,-55],[-7,-82],[13,-61],[27,-51],[36,-50],[-7,-12],[-3,-8],[-3,-7],[-7,-6],[0,-18],[6,-19],[13,-68],[1,-17],[0,-17],[60,-52],[60,-38],[67,-23],[78,-8],[67,12],[37,16],[20,24],[-3,41],[-15,40],[-3,33],[32,23],[-59,27],[-12,9],[-8,34],[13,9],[21,0],[14,9],[-3,57],[-63,65],[17,34],[-29,125],[-21,54],[-30,48],[-26,24],[-94,47]],[[3822,0],[-88,0],[6,20],[5,28],[8,33],[5,35],[-7,35],[20,10],[16,-11],[14,-24],[10,-30],[-13,-26],[8,-40],[16,-30]],[[0,1301],[73,13],[9,-8],[17,-36],[14,-8],[16,-6],[5,-15],[0,-21],[4,-26],[23,-89],[17,-37],[25,-14],[10,-21],[9,-100],[6,-35],[46,-72],[9,-7],[-10,-24],[2,-14],[4,-10],[-1,-13],[-7,-16],[-28,-44],[-9,-31],[10,-42],[-5,-42],[-15,-20],[-19,-17],[-7,-20],[21,-28],[-22,-13],[-18,-35],[-20,-4],[-17,18],[-14,36],[-15,50],[-17,9],[-15,22],[-11,29],[-2,28],[10,30],[33,43],[7,39],[-5,79],[-15,58],[-26,43],[-72,70]],[[0,541],[4,3],[62,17],[42,-46],[15,-97],[-18,-73],[-39,-58],[-48,-51],[-7,-2],[-11,3]],[[4068,0],[-7,13],[-21,43],[-5,24],[31,13],[30,29]],[[4096,168],[-12,-17],[-43,-36],[-53,-29],[-26,-22],[-12,-27],[-11,-37]],[[3822,0],[-16,30],[-8,40],[13,26],[-10,30],[-14,24],[-16,11],[-20,-10],[7,-35],[-5,-35],[-8,-33],[-5,-28],[-6,-20]],[[3474,0],[-13,11],[0,17],[49,16],[12,74],[-4,86],[3,51],[-23,-13],[-12,-27],[-14,-64],[13,-49],[-22,-12],[-33,3],[-24,-5],[-30,-13],[-32,32],[-52,96],[-43,56],[-19,34],[-8,40],[3,20],[7,21],[2,22],[-10,36],[-3,26],[-4,5],[-35,17],[-50,106],[-34,32],[-137,196],[-24,13],[-7,8],[-15,37],[-16,17],[11,19],[16,19],[6,6],[31,88],[39,198],[49,115],[20,63],[10,22],[13,11],[32,13],[15,11],[19,24],[23,42],[12,48],[-13,43],[47,149],[29,69],[34,42],[29,7],[16,-13],[16,-19],[24,-9],[15,1],[60,33],[-18,15],[-73,37],[37,42],[22,17],[92,28],[18,-6],[11,-9],[8,-10],[12,-10],[54,-18],[29,-2],[121,36],[26,19],[-100,0],[0,17],[28,5],[22,14],[22,10],[28,-12],[0,19],[-35,17],[-6,-2],[-124,-34],[-464,35],[-25,7],[-22,13],[-22,7],[-21,-8],[5,-5],[1,-1],[1,-2],[2,-11],[-24,-12],[-23,9],[-42,38],[-19,-70],[12,-27],[7,-50],[3,-55],[-3,-41],[-16,-41],[-25,-14],[-136,13],[-37,-6],[-32,-53],[-103,16],[3,-13],[2,-1],[5,-5],[-13,-9],[-11,2],[-9,10],[-8,16],[17,31],[7,-3],[7,-12],[-2,19],[-2,8],[-6,8],[-17,-29],[-23,-22],[7,-26],[3,-10],[-9,-3],[-20,-16],[49,-50],[-14,-12],[-76,-35],[-114,-87],[-69,-10],[-46,3],[0,19],[-6,3],[-5,1],[-4,4],[-4,7],[4,7],[5,9],[0,2],[-3,26],[6,33],[-3,26],[-20,9],[-1,12],[-21,-19],[-17,-36],[-5,-44],[14,-40],[-56,-10],[-75,49],[-51,86],[13,102],[-22,-13],[-36,-46],[-23,-12],[-22,3],[-108,53],[-17,13],[-13,18],[-14,36],[-7,28],[-10,18],[-23,6],[-9,-11],[-11,-26],[-10,-31],[-5,-28],[14,-60],[11,-37],[10,-16],[23,-2],[21,-6],[19,-13],[17,-24],[5,-32],[-13,-29],[-7,-31],[21,-37],[-19,-37],[5,-53],[8,-48],[-10,-21],[-8,-5],[-7,-12],[-10,-12],[-15,-5],[-34,5],[-31,14],[-36,28],[-14,6],[-52,-1],[-13,10],[-84,131],[-48,48],[-172,108],[-66,19],[-31,20],[-27,71],[-31,14],[-56,-1],[-34,-16],[-34,-26],[-29,-31],[-22,-32],[-12,-23],[-6,-15],[-2,-13],[0,-19],[3,-21],[7,-30],[11,-26],[15,-11],[10,-27],[16,-60],[24,-60],[42,-37],[0,-22],[-8,-46],[0,-24],[1,-12],[18,-41],[-31,8],[-62,35],[-30,7],[-14,18],[-9,40],[1,42],[17,23],[-11,16],[-6,17],[0,17],[6,19],[-27,4],[-12,4],[-10,10],[-6,23],[-6,35],[-10,33],[-14,14],[-29,14],[-139,169],[-42,77],[-26,90],[-8,101],[5,91],[9,46],[21,20],[31,-1],[16,2],[7,8],[7,29],[14,-13],[14,-28],[5,-14],[22,-36],[11,-24],[7,-27],[1,-27],[-2,-62],[7,-23],[19,-28],[24,-23],[26,-4],[26,27],[4,10],[6,9],[0,17],[-52,106],[-8,24],[-4,20],[-1,4],[-20,51],[-5,29],[1,57],[3,17],[6,21],[26,62],[10,35],[4,52],[12,47],[28,29],[60,38],[94,129],[8,6],[15,4],[2,8],[0,27],[1,13],[33,85],[6,23],[1,25],[-3,55],[2,24],[8,16],[49,60],[26,22],[12,15],[8,24],[13,59],[13,29],[47,43],[97,45],[35,51],[13,69],[-13,61],[-35,44],[-53,18],[30,46],[0,3],[-7,53],[-31,53],[-43,36],[-79,34],[-47,2],[-14,9],[11,24],[0,19],[-84,55],[-48,42],[-28,41],[64,68],[23,55],[-4,50]],[[443,4096],[-5,-19],[-21,-16],[-49,-16],[-22,-16],[-67,-74],[-16,-24],[-14,-28],[-10,-31],[-4,-21],[-4,-45],[-3,-21],[-32,-24],[3,-11],[6,-11],[3,-8],[-2,-58],[13,-15],[17,-5],[12,-26],[-9,-33],[-23,-10],[-18,-15],[10,-47],[-31,-61],[-9,-24],[-1,-14],[1,-48],[-2,-20],[-5,-2],[-6,4],[-7,-7],[-32,-85],[-24,-34],[-33,-21],[0,-16],[18,3],[15,-6],[13,-14],[13,-19],[24,-57],[1,-11],[17,-16],[-14,-39],[-48,-68],[-24,-24],[-29,-23],[-32,-17],[-13,-2]],[[0,3910],[8,22],[9,35],[22,44],[25,37],[19,16],[42,18],[15,14]],[[84,4096],[-29,-24],[-18,-7],[-19,-1],[10,32]],[[807,3418],[-59,27],[-12,9],[-8,34],[13,9],[21,0],[14,9],[-3,57],[-63,65],[17,34],[-29,125],[-21,54],[-30,48],[-26,24],[-94,47],[-12,2],[-38,-2],[3,-9],[4,-19],[3,-9],[-49,-9],[-45,-39],[-35,-54],[-20,-55],[-7,-82],[13,-61],[27,-51],[36,-50],[-7,-12],[-3,-8],[-3,-7],[-7,-6],[0,-18],[6,-19],[13,-68],[1,-17],[0,-17],[60,-52],[60,-38],[67,-23],[78,-8],[67,12],[37,16],[20,24],[-3,41],[-15,40],[-3,33],[32,23]],[[867,4027],[15,35],[10,13],[2,16],[-1,5]],[[763,4096],[74,-69],[17,-44],[14,-22],[19,-1],[10,16],[-3,21],[-11,20],[-16,10]],[[1698,0],[18,17],[50,28],[31,37],[-12,69],[40,24],[9,9],[9,19],[8,23],[8,20],[11,9],[21,44],[8,8],[13,10],[-2,21],[-9,23],[-7,14],[-11,8],[-27,4],[-11,7],[-8,17],[-10,42],[-7,19],[-3,34],[30,95],[8,37],[-24,13],[-26,-8],[-27,-16],[-55,-13],[-78,-47],[-52,-50],[-34,-68],[-64,-159],[-20,-29],[-45,-40],[-30,-41],[-36,-24],[-32,-8],[-3,-10],[2,-18],[-5,-24],[-14,-38],[-5,-32],[0,-26]],[[3979,1818],[-4,13],[-8,19],[-14,25]],[[3953,1875],[-5,10],[-51,78],[-109,132],[-32,28],[-207,122],[-131,49],[-31,18],[-30,24],[-28,32],[-22,35],[-20,39],[-18,42],[-14,46],[-49,249],[-8,27],[-9,26],[-20,48],[-113,223],[-12,19],[-13,16],[-15,15],[-15,10],[-16,6],[-33,6],[-16,6],[-8,5],[-6,7],[-6,8],[-6,9],[-3,10],[-9,31],[-10,24],[-13,23],[-28,39],[-61,73],[-127,111],[-29,32],[-25,39],[-143,276],[-54,127],[-19,33],[-45,68]],[[4096,1459],[-6,16],[-75,155],[-8,22],[-6,24],[-8,50],[-8,63],[-4,21],[-2,8]],[[3979,1834],[2,1]],[[3981,1835],[115,67]],[[1725,56],[-15,-13],[-68,-42],[-2,-1]],[[1759,515],[-10,-30],[2,-37],[9,-37],[51,-143],[5,-17],[2,-19],[-3,-20],[-5,-18],[-17,-42],[-11,-22],[-27,-39],[-29,-34],[-1,-1]],[[0,1352],[42,-1],[120,-22],[156,-53],[160,-83],[52,-47],[48,-54],[43,-65],[20,-35],[18,-38],[17,-40],[29,-89],[177,-765],[20,-60]],[[3904,4096],[59,-115],[35,-40],[5,-49],[24,-26],[-8,-49],[7,-43],[16,-24],[42,-40],[2,-20]],[[4086,3690],[10,-14]],[[1510,3303],[-17,-11],[-4,-31]],[[1531,3427],[9,-37],[0,-47],[-16,-31],[-14,-9]],[[2966,2293],[15,24],[27,105],[16,73],[15,38],[84,96],[23,15],[15,29],[22,112],[18,53]],[[1698,0],[-391,0],[0,26],[5,32],[14,38],[5,24],[-2,18],[3,10],[32,8],[36,24],[30,41],[45,40],[20,29],[64,159],[34,68],[52,50],[78,47],[55,13],[27,16],[26,8],[24,-13],[-8,-37],[-30,-95],[3,-34],[7,-19],[10,-42],[8,-17],[11,-7],[27,-4],[11,-8],[7,-14],[9,-23],[2,-21],[-13,-10],[-8,-8],[-21,-44],[-11,-9],[-8,-20],[-8,-23],[-9,-19],[-9,-9],[-40,-24],[12,-69],[-31,-37],[-50,-28],[-18,-17]],[[0,541],[4,3],[62,17],[42,-46],[15,-97],[-18,-73],[-39,-58],[-48,-51],[-7,-2],[-11,3],[0,304]],[[4096,122],[0,-122],[-28,0],[-7,13],[-21,43],[-5,24],[31,13],[30,29]],[[4096,4096],[0,-3928],[-12,-17],[-43,-36],[-53,-29],[-26,-22],[-12,-27],[-11,-37],[-117,0],[-16,30],[-8,40],[13,26],[-10,30],[-14,24],[-16,11],[-20,-10],[7,-35],[-5,-35],[-8,-33],[-5,-28],[-6,-20],[-260,0],[-13,11],[0,17],[49,16],[12,74],[-4,86],[3,51],[-23,-13],[-12,-27],[-14,-64],[13,-49],[-22,-12],[-33,3],[-24,-5],[-30,-13],[-32,32],[-52,96],[-43,56],[-19,34],[-8,40],[3,20],[7,21],[2,22],[-10,36],[-3,26],[-4,5],[-35,17],[-50,106],[-34,32],[-137,196],[-24,13],[-7,8],[-15,37],[-16,17],[11,19],[16,19],[6,6],[31,88],[39,198],[49,115],[20,63],[10,22],[13,11],[32,13],[15,11],[19,24],[23,42],[12,48],[-13,43],[47,149],[29,69],[34,42],[29,7],[16,-13],[16,-19],[24,-9],[15,1],[60,33],[-18,15],[-73,37],[37,42],[22,17],[92,28],[18,-6],[11,-9],[8,-10],[12,-10],[54,-18],[29,-2],[121,36],[26,19],[-100,0],[0,17],[28,5],[22,14],[22,10],[28,-12],[0,19],[-35,17],[-6,-2],[-124,-34],[-464,35],[-25,7],[-22,13],[-22,7],[-21,-8],[5,-5],[1,-1],[1,-2],[2,-11],[-24,-12],[-23,9],[-42,38],[-19,-70],[12,-27],[7,-50],[3,-55],[-3,-41],[-16,-41],[-25,-14],[-136,13],[-37,-6],[-32,-53],[-103,16],[3,-13],[2,-1],[5,-5],[-13,-9],[-11,2],[-9,10],[-8,16],[17,31],[7,-3],[7,-12],[-2,19],[-2,8],[-6,8],[-17,-29],[-23,-22],[7,-26],[3,-10],[-9,-3],[-20,-16],[49,-50],[-14,-12],[-76,-35],[-114,-87],[-69,-10],[-46,3],[0,19],[-6,3],[-5,1],[-4,4],[-4,7],[4,7],[5,9],[0,2],[-3,26],[6,33],[-3,26],[-20,9],[-1,12],[-21,-19],[-17,-36],[-5,-44],[14,-40],[-56,-10],[-75,49],[-51,86],[13,102],[-22,-13],[-36,-46],[-23,-12],[-22,3],[-108,53],[-17,13],[-13,18],[-14,36],[-7,28],[-10,18],[-23,6],[-9,-11],[-11,-26],[-10,-31],[-5,-28],[14,-60],[11,-37],[10,-16],[23,-2],[21,-6],[19,-13],[17,-24],[5,-32],[-13,-29],[-7,-31],[21,-37],[-19,-37],[5,-53],[8,-48],[-10,-21],[-8,-5],[-7,-12],[-10,-12],[-15,-5],[-34,5],[-31,14],[-36,28],[-14,6],[-52,-1],[-13,10],[-84,131],[-48,48],[-172,108],[-66,19],[-31,20],[-27,71],[-31,14],[-56,-1],[-34,-16],[-34,-26],[-29,-31],[-22,-32],[-12,-23],[-6,-15],[-2,-13],[0,-19],[3,-21],[7,-30],[11,-26],[15,-11],[10,-27],[16,-60],[24,-60],[42,-37],[0,-22],[-8,-46],[0,-24],[1,-12],[18,-41],[-31,8],[-62,35],[-30,7],[-14,18],[-9,40],[1,42],[17,23],[-11,16],[-6,17],[0,17],[6,19],[-27,4],[-12,4],[-10,10],[-6,23],[-6,35],[-10,33],[-14,14],[-29,14],[-139,169],[-42,77],[-26,90],[-8,101],[5,91],[9,46],[21,20],[31,-1],[16,2],[7,8],[7,29],[14,-13],[14,-28],[5,-14],[22,-36],[11,-24],[7,-27],[1,-27],[-2,-62],[7,-23],[19,-28],[24,-23],[26,-4],[26,27],[4,10],[6,9],[0,17],[-52,106],[-8,24],[-4,20],[-1,4],[-20,51],[-5,29],[1,57],[3,17],[6,21],[26,62],[10,35],[4,52],[12,47],[28,29],[60,38],[94,129],[8,6],[15,4],[2,8],[0,27],[1,13],[33,85],[6,23],[1,25],[-3,55],[2,24],[8,16],[49,60],[26,22],[12,15],[8,24],[13,59],[13,29],[47,43],[97,45],[35,51],[13,69],[-13,61],[-35,44],[-53,18],[30,46],[0,3],[-7,53],[-31,53],[-43,36],[-79,34],[-47,2],[-14,9],[11,24],[0,19],[-84,55],[-48,42],[-28,41],[64,68],[23,55],[-4,50],[2987,0]],[[0,1301],[73,13],[9,-8],[17,-36],[14,-8],[16,-6],[5,-15],[0,-21],[4,-26],[23,-89],[17,-37],[25,-14],[10,-21],[9,-100],[6,-35],[46,-72],[9,-7],[-10,-24],[2,-14],[4,-10],[-1,-13],[-7,-16],[-28,-44],[-9,-31],[10,-42],[-5,-42],[-15,-20],[-19,-17],[-7,-20],[21,-28],[-22,-13],[-18,-35],[-20,-4],[-17,18],[-14,36],[-15,50],[-17,9],[-15,22],[-11,29],[-2,28],[10,30],[33,43],[7,39],[-5,79],[-15,58],[-26,43],[-72,70],[0,301]],[[897,3976],[-10,-16],[-19,1],[-14,22],[-17,44],[-74,69],[130,0],[1,-5],[-2,-16],[-10,-13],[-15,-35],[16,-10],[11,-20],[3,-21]],[[739,3241],[-67,-12],[-78,8],[-67,23],[-60,38],[-60,52],[0,17],[-1,17],[-13,68],[-6,19],[0,18],[7,6],[3,7],[3,8],[7,12],[-36,50],[-27,51],[-13,61],[7,82],[20,55],[35,54],[45,39],[49,9],[-3,9],[-4,19],[-3,9],[38,2],[12,-2],[94,-47],[26,-24],[30,-48],[21,-54],[29,-125],[-17,-34],[63,-65],[3,-57],[-14,-9],[-21,0],[-13,-9],[8,-34],[12,-9],[59,-27],[-32,-23],[3,-33],[15,-40],[3,-41],[-20,-24],[-37,-16]],[[443,4096],[-5,-19],[-21,-16],[-49,-16],[-22,-16],[-67,-74],[-16,-24],[-14,-28],[-10,-31],[-4,-21],[-4,-45],[-3,-21],[-32,-24],[3,-11],[6,-11],[3,-8],[-2,-58],[13,-15],[17,-5],[12,-26],[-9,-33],[-23,-10],[-18,-15],[10,-47],[-31,-61],[-9,-24],[-1,-14],[1,-48],[-2,-20],[-5,-2],[-6,4],[-7,-7],[-32,-85],[-24,-34],[-33,-21],[0,-16],[18,3],[15,-6],[13,-14],[13,-19],[24,-57],[1,-11],[17,-16],[-14,-39],[-48,-68],[-24,-24],[-29,-23],[-32,-17],[-13,-2],[0,1009],[8,22],[9,35],[22,44],[25,37],[19,16],[42,18],[15,14],[303,0]],[[84,4096],[-29,-24],[-18,-7],[-19,-1],[10,32],[56,0]],[[0,268],[23,0],[76,104],[-23,57],[-76,-32],[2,657],[97,-37],[42,-53],[19,-163],[33,-62],[-37,-22],[25,-64],[-28,-52],[55,5],[-2,53],[42,7],[16,-83],[-40,-51],[-14,-98],[-210,-279],[0,113]],[[1708,0],[-95,0],[3,14],[73,54],[27,4],[18,-32],[-26,-40]],[[3944,1783],[-59,34],[17,113],[81,-85],[-8,-52],[-31,-10]],[[1507,3226],[-77,53],[37,104],[-14,62],[38,7],[25,-24],[-9,-202]],[[1672,3626],[-68,23],[48,93],[66,-36],[-46,-80]],[[1270,3773],[10,-61],[-105,30],[11,43],[-33,22],[47,21],[70,-55]],[[1484,3629],[-62,-145],[-56,22],[30,46],[-7,56],[-71,87],[28,121],[64,-25],[33,-85],[48,-28],[-7,-49]],[[3077,1140],[-87,18],[44,135],[36,-67],[7,-86]],[[2161,4096],[-9,-70],[-44,-37],[-45,4],[-22,79],[18,19],[102,5]],[[2566,4096],[-39,-24],[-1,-28],[-80,0],[-81,52],[201,0]],[[2334,4096],[-2,-52],[-51,3],[-50,49],[103,0]],[[1950,4096],[-45,-46],[-42,-6],[8,52],[79,0]],[[3542,0],[-26,0],[16,46],[10,-46]],[[4096,208],[0,-70],[-65,-57],[-64,53],[-27,-36],[-45,10],[-12,51],[-38,12],[-58,-33],[-39,20],[-41,85],[-116,-12],[-74,60],[-23,-16],[-11,32],[-166,-196],[-112,192],[-23,145],[-48,51],[83,54],[-31,88],[-61,64],[41,139],[-65,60],[133,64],[-21,69],[84,62],[-50,8],[28,53],[-22,18],[83,72],[13,26],[-42,54],[71,88],[22,-20],[34,15],[13,-25],[13,43],[117,37],[54,-22],[44,20],[-23,42],[83,16],[12,-35],[44,1],[15,-38],[54,-22],[21,-82],[-20,-37],[74,-91],[146,7],[15,-9],[0,-964],[-3,0],[1,-45],[2,-1]],[[1447,4096],[-10,-4],[-44,-81],[11,69],[43,16]],[[1372,4096],[-67,-59],[15,-40],[-70,-11],[10,-34],[-38,-33],[-5,-66],[-7,29],[-44,-4],[15,46],[-61,43],[19,70],[-16,59],[249,0]],[[0,2906],[91,39],[42,66],[160,-102],[345,-493],[-48,-174],[92,-96],[-12,-18],[-269,-3],[-401,468],[0,313]],[[40,2834],[22,-12],[24,21],[-29,8],[-17,-17]],[[74,2869],[2,-8],[5,1],[-4,8],[-3,-1]],[[262,3414],[132,49],[-2,-54],[42,-20],[21,-85],[90,-65],[105,-12],[97,15],[41,36],[-16,95],[23,46],[-72,47],[67,56],[-38,55],[152,7],[51,-143],[-52,-223],[-53,-78],[-71,-49],[-294,36],[-123,85],[-100,202]],[[780,3483],[3,-25],[36,-33],[-18,58],[-21,0]],[[733,3210],[3,-6],[3,-1],[-1,15],[-5,-8]]]}