{"objects":{"water":{"type":"GeometryCollection","geometries":[{"type":"Polygon","properties":{"kind":"lake","name":"Embalse de Garcia  de Sola","reservoir":true,"area":31888454,"sort_rank":200,"source":"naturalearthdata.com","min_zoom":0.0,"id":1226},"arcs":[[2663]]},{"type":"Polygon","properties":{"kind":"lake","name":"Embalse de Orellana","reservoir":true,"area":76469304,"sort_rank":200,"source":"naturalearthdata.com","min_zoom":0.0,"id":1227},"arcs":[[2664]]},{"type":"Polygon","properties":{"source":"naturalearthdata.com","kind":"lake","area":318084608,"sort_rank":200,"min_zoom":0.0,"id":634},"arcs":[[2665]]},{"type":"Polygon","properties":{"kind":"lake","name":"Embalse de  Cara","reservoir":true,"area":148384576,"sort_rank":200,"source":"naturalearthdata.com","min_zoom":0.0,"id":1231},"arcs":[[2666]]},{"type":"Point","properties":{"label_placement":true,"kind":"lake","name":"Embalse de  Cara","reservoir":true,"area":148384576,"sort_rank":200,"source":"naturalearthdata.com","min_zoom":0.0,"id":1231},"coordinates":[1093,977]},{"type":"Point","properties":{"label_placement":true,"kind":"lake","name":"Embalse de Orellana","reservoir":true,"area":76469304,"sort_rank":200,"source":"naturalearthdata.com","min_zoom":0.0,"id":1227},"coordinates":[674,772]},{"type":"Point","properties":{"label_placement":true,"kind":"lake","name":"Embalse de Garcia  de Sola","reservoir":true,"area":31888454,"sort_rank":200,"source":"naturalearthdata.com","min_zoom":0.0,"id":1226},"coordinates":[857,941]},{"type":"MultiLineString","properties":{"source":"naturalearthdata.com","kind":"lake","sort_rank":367,"boundary":true,"min_zoom":0.0,"id":634},"arcs":[[2667],[2668]]},{"type":"LineString","properties":{"source":"naturalearthdata.com","kind":"lake","reservoir":true,"sort_rank":367,"boundary":true,"min_zoom":0.0,"id":1226},"arcs":[2669]},{"type":"LineString","properties":{"source":"naturalearthdata.com","kind":"lake","reservoir":true,"sort_rank":367,"boundary":true,"min_zoom":0.0,"id":1227},"arcs":[2670]},{"type":"LineString","properties":{"source":"naturalearthdata.com","kind":"lake","reservoir":true,"sort_rank":367,"boundary":true,"min_zoom":0.0,"id":1231},"arcs":[2671]}]},"buildings":{"type":"GeometryCollection","geometries":[]},"places":{"type":"GeometryCollection","geometries":[{"type":"Point","properties":{"name:pt":"Espanha","name:ps":"\u0647\u0633\u067e\u0627\u0646\u06cc\u0647","name:ka":"\u10d4\u10e1\u10de\u10d0\u10dc\u10d4\u10d7\u10d8","name:mt":"Spanja","name:ko":"\uc2a4\ud398\uc778","name:kn":"\u0cb8\u0ccd\u0caa\u0cc8\u0ca8\u0ccd","name:km":"\u17a2\u17c1\u179f\u17d2\u1794\u17c9\u17b6\u1789","name:kl":"Spania","name:cs":"\u0160pan\u011blsko","alt_name:eo":"Hispanio","name:ki":"Hispania","name:tr":"\u0130spanya","name:ku":"Spanya","name:ti":"\u1235\u1354\u1295","name:ks":"\u0633\u0655\u067e\u06cc\u0646","name:to":"Sipeini","name:tl":"Espanya","name:sv":"Spanien","name:or":"\u0b38\u0b4d\u0b2a\u0b47\u0b28\u0b4d","name:pl":"Hiszpania","name:ta":"\u0bb8\u0bcd\u0baa\u0bc6\u0baf\u0bbf\u0ba9\u0bcd","name:tg":"\u0418\u0441\u043f\u0430\u043d\u0438\u044f","name:ca":"Espanya","name:te":"\u0c38\u0c4d\u0c2a\u0c47\u0c28\u0c4d","name:ro":"Spania","name:cy":"Sbaen","name:hr":"\u0160panjolska","name:da":"Spanien","name:fr":"Espagne","name:de":"Spanien","name:dz":"\u0f68\u0f72\u0f66\u0f0b\u0f54\u0f7a\u0f53","source":"openstreetmap.org","name:lv":"Sp\u0101nija","name:lt":"Ispanija","name:hi":"\u0938\u094d\u092a\u0947\u0928","name:kk":"\u0418\u0441\u043f\u0430\u043d\u0438\u044f","name:he":"\u05e1\u05e4\u05e8\u05d3","kind":"country","name:ur":"\u06c1\u0633\u067e\u0627\u0646\u06cc\u06c1","name:lb":"Spuenien","name:la":"Hispania","name:lg":"Sipeyini","name:uk":"\u0406\u0441\u043f\u0430\u043d\u0456\u044f","name:hy":"\u053b\u057d\u057a\u0561\u0576\u056b\u0561","min_zoom":2.0,"name:hu":"Spanyolorsz\u00e1g","name:ln":"Esipanye","name:lo":"\u0eaa\u0eb0\u0ec0\u0e9b\u0e99","population":46157822,"name:el":"\u0399\u03c3\u03c0\u03b1\u03bd\u03af\u03b1","name:eo":"Hispanujo","name:en":"Spain","name":"Espa\u00f1a","official_name":"Reino de Espa\u00f1a","name:ee":"Spania nutome","name:th":"\u0e1b\u0e23\u0e30\u0e40\u0e17\u0e28\u0e2a\u0e40\u0e1b\u0e19","name:gu":"\u0ab8\u0acd\u0aaa\u0ac7\u0aa8","name:eu":"Espainia","name:et":"Hispaania","name:nl":"Spanje","name:yo":"Or\u00edl\u1eb9\u0301\u00e8de Sipani","name:ia":"Espania","name:rm":"Spagna","name:rn":"Hisipaniya","name:az":"\u0130spaniya","name:id":"Spanyol","name:ms":"Sepanyol","name:mr":"\u0938\u094d\u092a\u0947\u0928","name:ar":"\u0625\u0633\u0628\u0627\u0646\u064a\u0627","name:my":"\u1005\u1015\u102d\u1014\u103a","name:io":"Hispania","name:is":"Sp\u00e1nn","name:am":"\u1235\u1354\u1295","name:it":"Spagna","name:vi":"T\u00e2y Ban Nha","name:ru":"\u0418\u0441\u043f\u0430\u043d\u0438\u044f","name:mn":"\u0418\u0441\u043f\u0430\u043d\u0438","name:mi":"P\u0101niora","id":148332300,"name:mk":"\u0428\u043f\u0430\u043d\u0438\u0458\u0430","name:af":"Spanje","name:zu":"i-Spain","name:ha":"Sipen","old_name:ku":"Key\u00eetiya Spanyay\u00ea","name:nn":"Spania","name:ff":"Espaa\u00f1","name:fi":"Espanja","old_name:vi":"Y Pha Nho","name:mg":"Espaina","name:fo":"Spania","name:ba":"\u0418\u0441\u043f\u0430\u043d\u0438\u044f","name:fy":"Spanje","name:vo":"Spany\u00e4n","name:zh":"\u897f\u73ed\u7259","name:nb":"Spania","name:so":"Isbeyn","name:sn":"Spain","name:sl":"\u0160panija","name:sk":"\u0160panielsko","name:ja":"\u30b9\u30da\u30a4\u30f3","name:si":"\u0dc3\u0dca\u0db4\u0dcf\u0da4\u0dca\u0da4\u0dba","name:fa":"\u0627\u0633\u067e\u0627\u0646\u06cc\u0627","name:sg":"Esp\u00e2nye","name:se":"Sp\u00e1nia","name:ne":"\u0938\u094d\u092a\u0947\u0928","name:br":"Spagn","name:bs":"\u0160panija","name:bm":"Esipa\u0272i","name:bn":"\u09b8\u09cd\u09aa\u09c7\u09a8","name:bo":"\u0f66\u0f72\u0f0b\u0f54\u0f53\u0f0d","name:ml":"\u0d38\u0d4d\u0d2a\u0d46\u0d2f\u0d3f\u0d7b","name:no":"Spania","name:sw":"Hispania","name:be":"\u0406\u0441\u043f\u0430\u043d\u0456\u044f","name:bg":"\u0418\u0441\u043f\u0430\u043d\u0438\u044f","name:sr":"\u0428\u043f\u0430\u043d\u0438\u0458\u0430","name:sq":"Spanj\u00eb","name:ga":"An Sp\u00e1inn","name:gd":"An Sp\u00e0inn","name:gv":"Yn Spaainey","name:ak":"Spain","name:tt":"\u0418\u0441\u043f\u0430\u043d\u0438\u044f"},"coordinates":[2362,2241]},{"type":"Point","properties":{"source":"naturalearthdata.com","kind":"locality","name":"Madrid","country_capital":true,"population":5567000,"min_zoom":3.0,"id":7233},"coordinates":[2825,2999]},{"type":"Point","properties":{"source":"naturalearthdata.com","kind":"locality","name":"Toledo","population":74632,"region_capital":true,"min_zoom":7.0,"id":2118},"coordinates":[2342,1983]},{"type":"Point","properties":{"source":"naturalearthdata.com","kind":"locality","name":"Guadalajara","population":72850,"min_zoom":7.0,"id":2119},"coordinates":[3580,3439]}]},"transit":{"type":"GeometryCollection","geometries":[{"type":"MultiLineString","properties":{"kind":"train","network":"Media Distancia Renfe","sort_rank":275,"source":"openstreetmap.org","min_zoom":6.0,"ref":"R-2","osm_relation":true,"name":"R-2"},"arcs":[[129],[130],[131],[132],[133],[134],[135],[136],[137],[138],[139],[140],[141]]},{"type":"MultiLineString","properties":{"kind":"train","name":"C-5. Fuenlabrada => Atocha => M\u00f3stoles El Soto","sort_rank":275,"colour":"#FAB700","source":"openstreetmap.org","min_zoom":6.0,"network":"Cercan\u00edas de Madrid","operator":"Renfe Operadora","ref":"C-5","osm_relation":true,"colour_name":"orange"},"arcs":[[142],[143],[144],[145],[146],[147],[148],[149],[150],[151],[152],[153],[154],[155],[156],[157],[158],[159]]},{"type":"MultiLineString","properties":{"kind":"train","network":"Cercan\u00edas de Madrid","sort_rank":275,"colour":"#008A29","name":"C-2 Guadalajara","source":"openstreetmap.org","min_zoom":6.0,"ref":"C-2","osm_relation":true,"colour_name":"green"},"arcs":[[160],[161],[162],[163],[164],[165],[166],[167],[168],[169],[170],[171],[172],[173],[174],[175]]},{"type":"MultiLineString","properties":{"kind":"train","name":"C-5. M\u00f3stoles-El Soto => Atocha => Humanes","sort_rank":275,"colour":"#FAB700","source":"openstreetmap.org","min_zoom":6.0,"network":"Cercan\u00edas de Madrid","operator":"Renfe Operadora","ref":"C-5","osm_relation":true,"colour_name":"orange"},"arcs":[[176],[177],[178],[179],[180],[181],[182],[183],[184],[185],[186],[187],[188],[189],[190]]},{"type":"MultiLineString","properties":{"source":"openstreetmap.org","kind":"train","name":"AVE Madrid - Alicante","sort_rank":275,"ref":"AVE","min_zoom":6.0,"osm_relation":true},"arcs":[[191],[192],[193],[194],[195],[196],[197],[198],[199],[200],[201],[202],[203],[204],[205],[206],[207],[208],[209],[210],[211],[212],[213],[214],[215],[216],[217],[218],[219]]},{"type":"MultiLineString","properties":{"source":"openstreetmap.org","kind":"train","name":"AVE Madrid - Valladolid","sort_rank":275,"ref":"AVE","min_zoom":6.0,"osm_relation":true},"arcs":[[220],[221],[222],[223]]},{"type":"MultiLineString","properties":{"source":"openstreetmap.org","kind":"train","name":"AVE Madrid - Valencia","sort_rank":275,"ref":"AVE","min_zoom":6.0,"osm_relation":true},"arcs":[[224],[225],[226],[227],[228]]},{"type":"MultiLineString","properties":{"kind":"train","name":"C-5. Humanes => Atocha => M\u00f3stoles El Soto","sort_rank":275,"colour":"#FAB700","source":"openstreetmap.org","min_zoom":6.0,"network":"Cercan\u00edas de Madrid","operator":"Renfe Operadora","ref":"C-5","osm_relation":true,"colour_name":"orange"},"arcs":[[229],[230],[231],[232],[233],[234],[235],[236],[237],[238],[239],[240],[241],[242],[243],[244],[245],[246],[247]]},{"type":"MultiLineString","properties":{"kind":"train","network":"Media Distancia Renfe","sort_rank":275,"source":"openstreetmap.org","min_zoom":6.0,"operator":"RENFE","ref":"R-20","osm_relation":true,"name":"R-20"},"arcs":[[248],[249],[250]]},{"type":"MultiLineString","properties":{"kind":"train","network":"AVANT Madrid-Toledo","sort_rank":275,"source":"openstreetmap.org","min_zoom":6.0,"operator":"AVE","ref":"AVANT Madrid-Toledo","osm_relation":true,"name":"AVANT Madrid-Toledo"},"arcs":[[251],[252],[253],[254],[255]]},{"type":"MultiLineString","properties":{"source":"openstreetmap.org","kind":"train","name":"L\u00ednea de Carcan\u00edas de Madrid de RENFE - C-7 -Alcal\u00e1 de Henares \u2013 Atocha \u2013 Chamart\u00edn \u2013 P. P\u00edo \u2013 Atocha - Chamart\u00edn - Fuente de la Mora","sort_rank":275,"ref":"C-7","min_zoom":6.0,"osm_relation":true},"arcs":[[256],[257]]},{"type":"LineString","properties":{"kind":"train","network":"FFCC MADRID-ALICANTE","sort_rank":275,"source":"openstreetmap.org","min_zoom":6.0,"operator":"RENFE","ref":"FFCC MADRID-ALICANTE","osm_relation":true,"name":"FFCC MADRID-ALICANTE"},"arcs":[258]},{"type":"MultiLineString","properties":{"kind":"train","name":"Linea convencional Madrid - Sevilla","sort_rank":275,"source":"openstreetmap.org","min_zoom":6.0,"operator":"RENFE","ref":"L\u00ednea 77","osm_relation":true,"network":"RENFE Media Distancia"},"arcs":[[259],[260],[261],[262],[263],[264],[265],[266],[267],[268],[269],[270],[271],[272],[273],[274],[275],[276],[277],[278],[279],[280],[281],[282],[283],[284],[285],[286],[287],[288],[289],[290],[291],[292],[293],[294],[295],[296],[297],[298],[299],[300],[301],[302],[303],[304],[305],[306],[307],[308],[309],[310],[311],[312],[313],[314],[315],[316]]},{"type":"MultiLineString","properties":{"kind":"train","network":"TGV Europe","service":"international","sort_rank":275,"source":"openstreetmap.org","min_zoom":5.0,"operator":"SNCF-Renfe","ref":"TGV","osm_relation":true,"name":"TGV : Marseille \u2212 Madrid"},"arcs":[[317],[318],[319],[320],[321],[322],[323],[324],[325],[326],[327],[328],[329],[330],[331],[332],[333],[334],[335],[336],[337],[338],[339],[340],[341],[342],[343],[344],[345],[346],[347],[348],[349],[350],[351],[352],[353],[354],[355],[356],[357],[358],[359],[360],[361],[362],[363],[364],[365],[366],[367],[368],[369],[370],[371],[372],[373],[374],[375],[376],[377],[378],[379],[380],[381],[382],[383],[384],[385],[386],[387],[388],[389],[390],[391],[392],[393],[394],[395],[396],[397],[398],[399],[400],[401],[402],[403],[404],[405],[406],[407],[408],[409],[410],[411],[412],[413],[414]]},{"type":"MultiLineString","properties":{"kind":"train","network":"Cercan\u00edas de Madrid","sort_rank":275,"colour":"#DE0118","name":"C-7. Alcal\u00e1 de Henares \u2192 Atocha \u2192 Chamart\u00edn \u2192 P. P\u00edo \u2192 Atocha \u2192 Chamart\u00edn \u2192 Fuente de la Mora","source":"openstreetmap.org","min_zoom":6.0,"ref":"C-7","osm_relation":true,"colour_name":"crimson"},"arcs":[[415],[416],[417],[418],[419],[420],[421],[422],[423],[424],[425],[426],[427],[428],[429],[430],[431],[432],[433],[434],[435],[436],[437],[438],[439],[440],[441],[442],[443],[444],[445],[446],[447],[448],[449],[450],[451],[452],[453],[454],[455],[456],[457],[458],[459],[460],[461]]},{"type":"MultiLineString","properties":{"kind":"train","network":"Cercan\u00edas de Madrid","sort_rank":275,"colour":"#D8001D","name":"C-7 Fuente de la Mora => Chamart\u00edn => Atocha => P. P\u00edo => Chamart\u00edn => Atocha => Alcal\u00e1 de Henares","source":"openstreetmap.org","min_zoom":6.0,"osm_relation":true,"colour_name":"crimson"},"arcs":[[462],[463],[464],[465],[466],[467],[468],[469]]},{"type":"MultiLineString","properties":{"kind":"train","network":"Cercan\u00edas de Madrid","sort_rank":275,"colour":"#8FBE00","name":"C-1 Pr\u00edncipe P\u00edo - Atocha - Chamart\u00edn - Aeropuerto T4","source":"openstreetmap.org","min_zoom":6.0,"ref":"C-1","osm_relation":true,"colour_name":"yellowgreen"},"arcs":[[470],[471],[472],[473],[474],[475],[476],[477],[478],[479],[480],[481],[482],[483],[484],[485],[486],[487],[488],[489],[490],[491],[492]]},{"type":"MultiLineString","properties":{"kind":"train","name":"L\u00ednea \u00c1vila-Salamanca","sort_rank":275,"source":"openstreetmap.org","min_zoom":6.0,"old_name":"Servicio Territorial de Sanidad","operator":"Renfe","osm_relation":true},"arcs":[[493],[494]]},{"type":"MultiLineString","properties":{"source":"openstreetmap.org","kind":"train","name":"Alcazar de San Juan - Badajoz","sort_rank":275,"ref":"IR","min_zoom":6.0,"osm_relation":true},"arcs":[[495],[496],[497],[498],[499],[500],[501],[502]]},{"type":"MultiLineString","properties":{"source":"openstreetmap.org","kind":"train","name":"L\u00ednea convencional Madrid - Zaragoza","sort_rank":275,"min_zoom":6.0,"osm_relation":true},"arcs":[[503],[504],[505],[506],[507],[508],[509],[510],[511],[512],[513],[514],[515],[516],[517],[518],[519],[520],[521],[522],[523],[524],[525],[526],[527],[528],[529],[530],[531],[532],[533],[534],[535],[536],[537],[538],[539],[540],[541],[542],[543],[544],[545],[546],[547],[548],[549],[550],[551],[552],[553],[554],[555],[556],[557],[558],[559],[560],[561],[562],[563],[564],[565],[566],[567],[568],[569],[570],[571],[572],[573],[574],[575],[576],[577],[578],[579],[580],[581],[582],[583],[584],[585],[586],[587],[588],[589],[590],[591],[592],[593],[594],[595],[596],[597],[598],[599],[600],[601],[602],[603],[604],[605],[606],[607],[608],[609],[610],[611],[612],[613],[614],[615],[616],[617],[618],[619],[620],[621],[622],[623],[624],[625],[626],[627],[628],[629],[630],[631],[632],[633],[634],[635],[636],[637],[638],[639],[640],[641],[642],[643],[644],[645],[646],[647],[648],[649],[650],[651],[652],[653],[654],[655],[656],[657],[658],[659],[660],[661],[662],[663],[664],[665],[666],[667],[668],[669],[670],[671],[672],[673],[674],[675],[676],[677],[678],[679],[680],[681],[682],[683],[684],[685],[686],[687],[688],[689],[690],[691],[692],[693],[694],[695],[696],[697],[698],[699],[700],[701],[702],[703],[704],[705],[706],[707],[708],[709],[710],[711],[712],[713],[714],[715],[716],[717],[718],[719],[720],[721],[722],[723],[724],[725],[726],[727],[728],[729],[730],[731],[732],[733],[734],[735],[736],[737],[738],[739],[740],[741],[742],[743],[744],[745],[746],[747],[748],[749],[750],[751],[752],[753],[754],[755],[756],[757],[758],[759],[760],[761],[762],[763],[764],[765],[766],[767],[768],[769],[770],[771],[772],[773],[774],[775],[776],[777],[778],[779],[780],[781],[782],[783],[784],[785],[786],[787],[788],[789],[790],[791],[792],[793],[794],[795],[796],[797],[798],[799],[800],[801],[802],[803],[804],[805],[806],[807],[808],[809],[810],[811],[812],[813],[814],[815],[816],[817],[818],[819],[820],[821],[822],[823],[824],[825],[826],[827],[828],[829],[830],[831],[832],[833],[834],[835],[836],[837],[838],[839],[840],[841],[842],[843],[844],[845],[846],[847],[848],[849],[850],[851],[852],[853],[854],[855],[856],[857],[858],[859],[860],[861],[862],[863],[864],[865],[866],[867],[868],[869],[870],[871],[872],[873],[874],[875],[876],[877],[878],[879],[880],[881],[882],[883],[884],[885],[886],[887],[888],[889],[890],[891],[892],[893],[894],[895],[896],[897],[898],[899],[900],[901],[902],[903],[904],[905],[906],[907],[908],[909],[910],[911],[912],[913],[914],[915],[916],[917],[918],[919],[920],[921],[922],[923],[924],[925],[926],[927],[928],[929],[930],[931],[932],[933],[934],[935],[936],[937],[938],[939],[940],[941],[942],[943],[944],[945],[946],[947],[948],[949],[950],[951],[952],[953],[954],[955],[956],[957],[958],[959],[960],[961],[962],[963],[964],[965],[966],[967],[968],[969],[970],[971],[972],[973],[974],[975],[976],[977],[978],[979],[980],[981],[982],[983],[984],[985],[986],[987],[988],[989],[990],[991],[992],[993],[994],[995],[996],[997],[998],[999],[1000],[1001],[1002],[1003],[1004],[1005],[1006],[1007],[1008],[1009],[1010],[1011],[1012],[1013],[1014],[1015],[1016],[1017],[1018],[1019],[1020],[1021],[1022],[1023],[1024],[1025],[1026],[1027],[1028],[1029],[1030],[1031],[1032],[1033],[1034],[1035],[1036],[1037],[1038],[1039],[1040],[1041],[1042],[1043],[1044],[1045],[1046],[1047],[1048],[1049],[1050],[1051],[1052],[1053],[1054],[1055],[1056],[1057],[1058],[1059],[1060],[1061],[1062],[1063],[1064],[1065],[1066],[1067],[1068],[1069],[1070],[1071],[1072],[1073],[1074],[1075],[1076],[1077],[1078],[1079],[1080],[1081],[1082],[1083],[1084],[1085],[1086],[1087],[1088],[1089],[1090],[1091],[1092],[1093],[1094],[1095],[1096],[1097],[1098],[1099],[1100],[1101],[1102],[1103],[1104],[1105],[1106],[1107],[1108],[1109],[1110],[1111],[1112],[1113],[1114],[1115],[1116],[1117],[1118],[1119],[1120],[1121],[1122],[1123],[1124],[1125],[1126],[1127],[1128],[1129],[1130],[1131],[1132],[1133],[1134],[1135],[1136],[1137],[1138],[1139],[1140],[1141],[1142],[1143],[1144],[1145],[1146],[1147],[1148],[1149],[1150],[1151],[1152],[1153],[1154],[1155],[1156],[1157],[1158],[1159],[1160],[1161],[1162],[1163],[1164],[1165],[1166],[1167],[1168],[1169],[1170],[1171],[1172],[1173],[1174],[1175],[1176],[1177],[1178],[1179],[1180],[1181],[1182],[1183],[1184],[1185],[1186],[1187],[1188],[1189],[1190],[1191],[1192],[1193],[1194],[1195],[1196],[1197],[1198],[1199],[1200],[1201],[1202],[1203],[1204],[1205],[1206],[1207],[1208],[1209],[1210],[1211],[1212],[1213],[1214],[1215],[1216],[1217],[1218],[1219],[1220],[1221],[1222],[1223],[1224],[1225],[1226],[1227],[1228],[1229],[1230],[1231],[1232],[1233],[1234],[1235],[1236],[1237],[1238],[1239],[1240],[1241],[1242],[1243],[1244],[1245],[1246],[1247],[1248],[1249],[1250],[1251],[1252],[1253],[1254],[1255],[1256],[1257],[1258],[1259],[1260],[1261],[1262],[1263],[1264],[1265],[1266],[1267],[1268],[1269],[1270],[1271],[1272],[1273],[1274],[1275],[1276],[1277],[1278],[1279],[1280],[1281],[1282],[1283],[1284],[1285],[1286],[1287],[1288],[1289],[1290],[1291],[1292],[1293],[1294],[1295],[1296],[1297],[1298],[1299],[1300],[1301],[1302],[1303],[1304],[1305],[1306],[1307],[1308],[1309],[1310],[1311],[1312],[1313],[1314],[1315],[1316],[1317],[1318],[1319],[1320],[1321],[1322],[1323],[1324],[1325],[1326],[1327],[1328],[1329],[1330],[1331],[1332],[1333],[1334],[1335],[1336],[1337],[1338],[1339],[1340],[1341],[1342],[1343],[1344],[1345],[1346],[1347],[1348],[1349],[1350],[1351],[1352],[1353],[1354],[1355],[1356],[1357],[1358],[1359],[1360],[1361],[1362],[1363],[1364],[1365],[1366],[1367],[1368],[1369],[1370],[1371],[1372],[1373],[1374],[1375],[1376],[1377],[1378],[1379],[1380],[1381],[1382],[1383],[1384],[1385],[1386],[1387],[1388],[1389],[1390],[1391],[1392],[1393],[1394],[1395],[1396],[1397],[1398],[1399],[1400],[1401],[1402],[1403],[1404],[1405],[1406],[1407],[1408],[1409],[1410],[1411],[1412],[1413],[1414],[1415],[1416],[1417],[1418],[1419],[1420],[1421],[1422],[1423],[1424],[1425],[1426],[1427],[1428],[1429],[1430],[1431],[1432],[1433],[1434],[1435],[1436],[1437],[1438],[1439],[1440],[1441],[1442],[1443],[1444],[1445],[1446],[1447],[1448],[1449],[1450],[1451],[1452],[1453],[1454],[1455],[1456],[1457],[1458],[1459],[1460],[1461],[1462],[1463],[1464],[1465],[1466],[1467],[1468],[1469],[1470],[1471],[1472],[1473],[1474],[1475],[1476],[1477],[1478],[1479],[1480],[1481],[1482],[1483],[1484],[1485],[1486],[1487],[1488],[1489],[1490],[1491],[1492],[1493],[1494],[1495],[1496],[1497],[1498],[1499],[1500],[1501],[1502],[1503],[1504],[1505],[1506],[1507],[1508],[1509],[1510],[1511],[1512],[1513],[1514],[1515],[1516],[1517],[1518],[1519],[1520],[1521],[1522],[1523],[1524],[1525],[1526],[1527],[1528],[1529],[1530],[1531],[1532],[1533],[1534],[1535],[1536],[1537],[1538],[1539],[1540],[1541],[1542],[1543],[1544],[1545],[1546],[1547],[1548],[1549],[1550],[1551],[1552],[1553],[1554],[1555],[1556],[1557],[1558],[1559],[1560],[1561],[1562],[1563],[1564],[1565],[1566],[1567],[1568],[1569],[1570],[1571],[1572],[1573],[1574],[1575],[1576],[1577],[1578],[1579],[1580],[1581],[1582],[1583],[1584],[1585],[1586],[1587],[1588],[1589],[1590],[1591],[1592],[1593],[1594],[1595],[1596],[1597],[1598],[1599],[1600],[1601],[1602],[1603],[1604],[1605],[1606],[1607],[1608],[1609],[1610],[1611],[1612],[1613],[1614],[1615],[1616],[1617],[1618],[1619],[1620],[1621],[1622],[1623],[1624],[1625],[1626],[1627],[1628],[1629],[1630],[1631],[1632],[1633],[1634],[1635],[1636],[1637],[1638],[1639],[1640],[1641],[1642],[1643],[1644],[1645],[1646],[1647],[1648],[1649],[1650],[1651],[1652],[1653],[1654],[1655],[1656],[1657],[1658],[1659],[1660],[1661],[1662],[1663],[1664],[1665],[1666],[1667],[1668],[1669],[1670],[1671],[1672],[1673],[1674],[1675],[1676],[1677],[1678],[1679],[1680],[1681],[1682],[1683],[1684],[1685],[1686],[1687],[1688],[1689],[1690],[1691],[1692],[1693],[1694],[1695],[1696],[1697],[1698],[1699],[1700],[1701],[1702],[1703],[1704],[1705],[1706],[1707],[1708],[1709],[1710],[1711],[1712],[1713],[1714],[1715],[1716],[1717],[1718],[1719],[1720],[1721],[1722],[1723],[1724],[1725],[1726],[1727],[1728],[1729],[1730],[1731],[1732],[1733],[1734],[1735],[1736],[1737],[1738],[1739],[1740],[1741],[1742],[1743],[1744],[1745],[1746],[1747],[1748],[1749],[1750],[1751],[1752],[1753],[1754],[1755],[1756],[1757],[1758],[1759],[1760],[1761],[1762],[1763],[1764],[1765],[1766],[1767],[1768],[1769],[1770],[1771],[1772],[1773],[1774],[1775],[1776],[1777],[1778],[1779],[1780],[1781],[1782],[1783],[1784],[1785],[1786],[1787],[1788],[1789],[1790],[1791],[1792],[1793],[1794],[1795],[1796],[1797],[1798],[1799],[1800],[1801],[1802],[1803],[1804],[1805],[1806],[1807],[1808],[1809],[1810],[1811],[1812],[1813],[1814],[1815],[1816],[1817],[1818],[1819],[1820],[1821],[1822],[1823],[1824],[1825],[1826],[1827],[1828],[1829],[1830],[1831],[1832],[1833],[1834],[1835],[1836],[1837],[1838],[1839],[1840],[1841],[1842],[1843],[1844],[1845],[1846],[1847],[1848],[1849],[1850],[1851],[1852],[1853],[1854],[1855],[1856],[1857],[1858],[1859],[1860],[1861],[1862],[1863],[1864],[1865],[1866],[1867],[1868],[1869],[1870],[1871],[1872],[1873],[1874],[1875],[1876],[1877],[1878],[1879],[1880],[1881],[1882],[1883],[1884],[1885],[1886],[1887],[1888],[1889],[1890],[1891],[1892],[1893],[1894],[1895],[1896],[1897],[1898],[1899],[1900],[1901],[1902],[1903],[1904],[1905],[1906],[1907],[1908],[1909],[1910],[1911],[1912],[1913],[1914],[1915],[1916],[1917],[1918],[1919],[1920],[1921],[1922],[1923],[1924],[1925],[1926],[1927],[1928],[1929],[1930],[1931],[1932],[1933],[1934],[1935],[1936],[1937],[1938],[1939],[1940],[1941],[1942],[1943],[1944],[1945],[1946],[1947],[1948],[1949],[1950],[1951],[1952],[1953],[1954],[1955],[1956],[1957],[1958],[1959],[1960],[1961],[1962],[1963],[1964],[1965],[1966],[1967],[1968],[1969],[1970],[1971],[1972],[1973],[1974],[1975],[1976],[1977],[1978],[1979],[1980],[1981],[1982],[1983],[1984],[1985],[1986],[1987],[1988],[1989],[1990],[1991],[1992],[1993],[1994],[1995],[1996],[1997],[1998],[1999],[2000],[2001],[2002],[2003],[2004],[2005],[2006],[2007],[2008],[2009],[2010],[2011],[2012],[2013],[2014],[2015],[2016],[2017],[2018],[2019],[2020],[2021],[2022],[2023],[2024],[2025],[2026],[2027],[2028],[2029],[2030],[2031],[2032],[2033],[2034],[2035],[2036],[2037],[2038],[2039],[2040],[2041],[2042],[2043],[2044],[2045],[2046],[2047],[2048],[2049],[2050],[2051],[2052],[2053],[2054],[2055],[2056],[2057],[2058],[2059],[2060],[2061],[2062],[2063],[2064],[2065],[2066],[2067],[2068],[2069],[2070],[2071],[2072],[2073],[2074],[2075],[2076],[2077],[2078],[2079],[2080],[2081],[2082],[2083],[2084],[2085],[2086],[2087],[2088],[2089],[2090],[2091],[2092],[2093],[2094],[2095],[2096],[2097],[2098],[2099],[2100],[2101],[2102],[2103],[2104],[2105],[2106],[2107],[2108],[2109],[2110],[2111],[2112],[2113],[2114],[2115],[2116],[2117],[2118],[2119],[2120],[2121],[2122],[2123],[2124],[2125],[2126],[2127],[2128],[2129],[2130],[2131],[2132],[2133],[2134],[2135],[2136],[2137],[2138],[2139],[2140],[2141],[2142],[2143],[2144],[2145],[2146],[2147],[2148],[2149],[2150],[2151],[2152],[2153],[2154],[2155],[2156],[2157],[2158],[2159],[2160],[2161],[2162],[2163],[2164],[2165],[2166],[2167],[2168],[2169],[2170],[2171],[2172],[2173],[2174],[2175],[2176],[2177],[2178],[2179],[2180],[2181],[2182],[2183],[2184],[2185],[2186],[2187],[2188],[2189],[2190],[2191],[2192],[2193],[2194],[2195],[2196],[2197],[2198],[2199],[2200],[2201],[2202],[2203],[2204],[2205],[2206],[2207],[2208],[2209],[2210],[2211],[2212],[2213],[2214],[2215],[2216],[2217],[2218],[2219],[2220],[2221],[2222],[2223],[2224],[2225],[2226],[2227],[2228],[2229],[2230],[2231],[2232],[2233],[2234],[2235],[2236],[2237],[2238],[2239],[2240],[2241],[2242],[2243],[2244],[2245],[2246],[2247],[2248],[2249],[2250],[2251],[2252],[2253],[2254],[2255],[2256],[2257],[2258],[2259],[2260],[2261],[2262],[2263],[2264],[2265],[2266],[2267],[2268],[2269],[2270],[2271],[2272],[2273],[2274],[2275],[2276],[2277],[2278],[2279],[2280],[2281],[2282],[2283],[2284],[2285],[2286],[2287],[2288],[2289],[2290],[2291],[2292],[2293],[2294],[2295],[2296],[2297],[2298],[2299],[2300],[2301],[2302],[2303],[2304],[2305],[2306],[2307],[2308],[2309],[2310],[2311],[2312],[2313],[2314],[2315],[2316],[2317],[2318],[2319],[2320],[2321],[2322],[2323],[2324],[2325],[2326],[2327],[2328],[2329],[2330],[2331],[2332],[2333],[2334],[2335],[2336],[2337],[2338],[2339],[2340],[2341],[2342],[2343],[2344],[2345],[2346],[2347],[2348],[2349],[2350],[2351],[2352],[2353],[2354],[2355],[2356],[2357],[2358],[2359],[2360],[2361],[2362],[2363],[2364],[2365],[2366],[2367],[2368],[2369],[2370],[2371],[2372],[2373],[2374],[2375],[2376],[2377],[2378],[2379],[2380],[2381],[2382],[2383],[2384],[2385],[2386],[2387],[2388],[2389],[2390],[2391],[2392],[2393],[2394],[2395],[2396],[2397],[2398],[2399],[2400],[2401],[2402],[2403],[2404],[2405],[2406],[2407],[2408],[2409],[2410],[2411],[2412],[2413],[2414],[2415],[2416],[2417],[2418],[2419],[2420],[2421],[2422],[2423],[2424],[2425],[2426],[2427],[2428],[2429],[2430],[2431],[2432],[2433],[2434],[2435],[2436],[2437],[2438],[2439],[2440],[2441],[2442],[2443],[2444],[2445],[2446],[2447],[2448],[2449],[2450],[2451],[2452],[2453],[2454],[2455],[2456],[2457],[2458],[2459],[2460],[2461],[2462],[2463],[2464],[2465],[2466]]},{"type":"MultiLineString","properties":{"kind":"train","network":"Cercan\u00edas de Madrid","sort_rank":275,"colour":"#008A29","name":"C-2 Chamart\u00edn","source":"openstreetmap.org","min_zoom":6.0,"ref":"C-2","osm_relation":true,"colour_name":"green"},"arcs":[[2467],[2468],[2469],[2470],[2471]]},{"type":"MultiLineString","properties":{"kind":"train","name":"AVE Madrid - Barcelona","sort_rank":275,"source":"openstreetmap.org","min_zoom":6.0,"operator":"AVE","ref":"AVE","osm_relation":true},"arcs":[[2472],[2473]]},{"type":"LineString","properties":{"kind":"train","name":"L\u00ednea de Cercan\u00edas de Madrid de Renfe-C-2-Guadalajara \u2013 Alcal\u00e1 de Henares \u2013 Atocha \u2013 Chamart\u00edn","sort_rank":275,"source":"openstreetmap.org","min_zoom":6.0,"operator":"CRTM - RENFE","ref":"C-2","id":-3410047,"osm_relation":true},"arcs":[2474]},{"type":"MultiLineString","properties":{"kind":"train","network":"Media Distancia Renfe","sort_rank":275,"source":"openstreetmap.org","min_zoom":6.0,"operator":"Renfe","ref":"R-1","osm_relation":true,"name":"R-1"},"arcs":[[2475],[2476],[2477],[2478],[2479],[2480],[2481],[2482],[2483],[2484],[2485],[2486],[2487],[2488],[2489],[2490],[2491],[2492]]},{"type":"MultiLineString","properties":{"source":"openstreetmap.org","kind":"train","name":"AVE Madrid - Malaga","sort_rank":275,"ref":"AVE","min_zoom":6.0,"osm_relation":true},"arcs":[[2493],[2494],[2495],[2496],[2497]]},{"type":"MultiLineString","properties":{"kind":"train","network":"Cercan\u00edas Madrid","sort_rank":275,"source":"openstreetmap.org","min_zoom":6.0,"ref":"C-3a","osm_relation":true,"name":"L\u00ednea C-3a"},"arcs":[[2498],[2499],[2500],[2501],[2502],[2503],[2504],[2505],[2506],[2507],[2508],[2509],[2510],[2511]]},{"type":"MultiLineString","properties":{"kind":"train","name":"C-7. Fuente de la Mora \u2192 Chamart\u00edn \u2192 Atocha \u2192 Pr\u00edncipe P\u00edo \u2192 Chamart\u00edn \u2192 Atocha \u2192 Alcal\u00e1 de Henares","sort_rank":275,"colour":"#DE0118","source":"openstreetmap.org","min_zoom":6.0,"network":"Cercan\u00edas de Madrid","ref":"C-7","osm_relation":true,"colour_name":"crimson"},"arcs":[[2512],[2513],[2514],[2515],[2516],[2517],[2518],[2519],[2520],[2521],[2522],[2523],[2524],[2525],[2526],[2527],[2528],[2529],[2530],[2531],[2532],[2533],[2534],[2535],[2536],[2537],[2538],[2539],[2540],[2541],[2542],[2543],[2544],[2545],[2546],[2547],[2548],[2549],[2550],[2551],[2552],[2553],[2554],[2555],[2556],[2557],[2558],[2559],[2560],[2561],[2562],[2563],[2564],[2565],[2566],[2567],[2568],[2569],[2570],[2571],[2572],[2573],[2574],[2575],[2576],[2577],[2578],[2579],[2580],[2581],[2582],[2583],[2584],[2585],[2586],[2587],[2588],[2589],[2590],[2591],[2592],[2593],[2594],[2595],[2596],[2597],[2598],[2599],[2600],[2601],[2602],[2603],[2604],[2605],[2606],[2607],[2608],[2609],[2610],[2611],[2612],[2613],[2614],[2615],[2616],[2617],[2618],[2619],[2620],[2621],[2622],[2623],[2624],[2625],[2626],[2627],[2628],[2629],[2630],[2631],[2632],[2633],[2634],[2635],[2636],[2637],[2638],[2639],[2640],[2641],[2642],[2643],[2644],[2645],[2646],[2647],[2648]]},{"type":"MultiLineString","properties":{"kind":"train","name":"C-5. M\u00f3stoles-El Soto => Atocha => Fuenlabrada","sort_rank":275,"colour":"#FAB700","source":"openstreetmap.org","min_zoom":6.0,"network":"Cercan\u00edas de Madrid","operator":"Renfe Operadora","ref":"C-5","osm_relation":true,"colour_name":"orange"},"arcs":[[2649],[2650],[2651],[2652],[2653],[2654],[2655],[2656],[2657],[2658],[2659],[2660],[2661],[2662]]}]},"pois":{"type":"GeometryCollection","geometries":[{"type":"Point","properties":{"kind":"protected_area","protect_class":"6","area":1698720000,"source":"openstreetmap.org","min_zoom":7.0,"tier":2,"id":-3124542,"osm_relation":true,"name":"Zona Perif\u00e9rica de Protecci\u00f3n del Parque Nacional de la Sierra de Guadarrama"},"coordinates":[2574,3941]},{"type":"Point","properties":{"kind":"nature_reserve","protect_class":"2","area":594988000,"source":"openstreetmap.org","min_zoom":7.68,"tier":2,"id":-3121944,"osm_relation":true,"name":"Parque Nacional de la Sierra de Guadarrama"},"coordinates":[2444,3921]},{"type":"Point","properties":{"kind":"nature_reserve","protect_class":"2","area":692193000,"source":"openstreetmap.org","min_zoom":7.57,"tier":2,"id":220938972,"name":"Parque Nacional de Caba\u00f1eros"},"coordinates":[1576,1155]}]},"boundaries":{"type":"GeometryCollection","geometries":[{"type":"MultiLineString","properties":{"source":"naturalearthdata.com","kind":"macroregion","name":"\u00c1vila - Toledo","sort_rank":257,"kind_detail":"3","min_zoom":3.0,"id":1870},"arcs":[[0],[1],[2],[3],[4],[5],[6],[7]]},{"type":"LineString","properties":{"source":"naturalearthdata.com","kind":"macroregion","name":"\u00c1vila - Madrid","sort_rank":257,"kind_detail":"3","min_zoom":5.5,"id":9450},"arcs":[8]},{"type":"MultiLineString","properties":{"source":"naturalearthdata.com","kind":"region","name":"\u00c1vila - Segovia","sort_rank":256,"kind_detail":"4","min_zoom":5.5,"id":9460},"arcs":[[9],[10]]},{"type":"MultiLineString","properties":{"source":"naturalearthdata.com","kind":"macroregion","name":"Madrid - Segovia","sort_rank":257,"kind_detail":"3","min_zoom":5.5,"id":9461},"arcs":[[11],[12]]},{"type":"MultiLineString","properties":{"source":"naturalearthdata.com","kind":"region","name":"Ciudad Real - Toledo","sort_rank":256,"kind_detail":"4","min_zoom":5.5,"id":9474},"arcs":[[13],[14]]},{"type":"MultiLineString","properties":{"source":"naturalearthdata.com","kind":"macroregion","name":"Toledo - C\u00e1ceres","sort_rank":257,"kind_detail":"3","min_zoom":3.0,"id":1865},"arcs":[[15],[16],[17],[18],[19]]},{"type":"MultiLineString","properties":{"source":"naturalearthdata.com","kind":"region","name":"Badajoz - C\u00e1ceres","sort_rank":256,"kind_detail":"4","min_zoom":5.5,"id":9436},"arcs":[[20],[21],[22],[23],[24],[25],[26],[27]]},{"type":"MultiLineString","properties":{"source":"naturalearthdata.com","kind":"region","name":"Albacete - Ciudad Real","sort_rank":256,"kind_detail":"4","min_zoom":5.5,"id":9437},"arcs":[[28],[29],[30]]},{"type":"MultiLineString","properties":{"source":"naturalearthdata.com","kind":"region","name":"Ciudad Real - Cuenca","sort_rank":256,"kind_detail":"4","min_zoom":5.5,"id":9439},"arcs":[[31],[32]]},{"type":"MultiLineString","properties":{"source":"naturalearthdata.com","kind":"region","name":"\u00c1vila - Salamanca","sort_rank":256,"kind_detail":"4","min_zoom":5.5,"id":9459},"arcs":[[33],[34],[35],[36],[37]]},{"type":"MultiLineString","properties":{"source":"naturalearthdata.com","kind":"region","name":"Cuenca - Guadalajara","sort_rank":256,"kind_detail":"4","min_zoom":5.5,"id":9443},"arcs":[[38],[39],[40],[41],[42],[43]]},{"type":"MultiLineString","properties":{"source":"naturalearthdata.com","kind":"macroregion","name":"Ciudad Real - Badajoz","sort_rank":257,"kind_detail":"3","min_zoom":3.0,"id":9499},"arcs":[[44],[45]]},{"type":"MultiLineString","properties":{"source":"naturalearthdata.com","kind":"region","name":"\u00c1vila - Segovia","sort_rank":256,"kind_detail":"4","min_zoom":5.5,"id":9462},"arcs":[[46],[47],[48],[49]]},{"type":"MultiLineString","properties":{"source":"naturalearthdata.com","kind":"region","name":"Cuenca - Toledo","sort_rank":256,"kind_detail":"4","min_zoom":5.5,"id":9472},"arcs":[[50],[51],[52]]},{"type":"MultiLineString","properties":{"source":"naturalearthdata.com","kind":"region","name":"Ciudad Real - Toledo","sort_rank":256,"kind_detail":"4","min_zoom":5.5,"id":9473},"arcs":[[53],[54],[55],[56],[57],[58],[59],[60],[61],[62],[63],[64],[65],[66],[67],[68],[69],[70],[71],[72],[73],[74],[75]]},{"type":"MultiLineString","properties":{"source":"naturalearthdata.com","kind":"macroregion","name":"Ciudad Real - Badajoz","sort_rank":257,"kind_detail":"3","min_zoom":3.0,"id":9500},"arcs":[[76],[77],[78],[79],[80],[81],[82],[83],[84]]},{"type":"LineString","properties":{"source":"naturalearthdata.com","kind":"macroregion","name":"Toledo - Badajoz","sort_rank":257,"kind_detail":"3","min_zoom":3.0,"id":9501},"arcs":[85]},{"type":"MultiLineString","properties":{"source":"naturalearthdata.com","kind":"macroregion","name":"C\u00e1ceres - \u00c1vila","sort_rank":257,"kind_detail":"3","min_zoom":3.0,"id":9505},"arcs":[[86],[87],[88]]},{"type":"MultiLineString","properties":{"source":"naturalearthdata.com","kind":"macroregion","name":"Madrid - Cuenca","sort_rank":257,"kind_detail":"3","min_zoom":3.0,"id":9506},"arcs":[[89],[90]]},{"type":"MultiLineString","properties":{"source":"naturalearthdata.com","kind":"macroregion","name":"Madrid - Toledo","sort_rank":257,"kind_detail":"3","min_zoom":3.0,"id":9507},"arcs":[[91],[92],[93],[94],[95],[96],[97],[98],[99],[100],[101],[102],[103],[104],[105],[106],[107]]},{"type":"MultiLineString","properties":{"source":"naturalearthdata.com","kind":"macroregion","name":"Madrid - Guadalajara","sort_rank":257,"kind_detail":"3","min_zoom":3.0,"id":9508},"arcs":[[108],[109],[110],[111],[112],[113],[114],[115],[116],[117],[118]]},{"type":"MultiLineString","properties":{"source":"naturalearthdata.com","kind":"macroregion","name":"Segovia - Madrid","sort_rank":257,"kind_detail":"3","min_zoom":3.0,"id":9509},"arcs":[[119],[120],[121]]},{"type":"MultiLineString","properties":{"source":"naturalearthdata.com","kind":"macroregion","name":"\u00c1vila - Madrid","sort_rank":257,"kind_detail":"3","min_zoom":3.0,"id":9510},"arcs":[[122],[123],[124],[125],[126],[127],[128]]}]},"roads":{"type":"GeometryCollection","geometries":[{"type":"MultiLineString","properties":{"source":"naturalearthdata.com","kind":"highway","kind_detail":"motorway","sort_rank":383,"landuse_kind":"urban_area","min_zoom":3.0,"id":4261},"arcs":[[2672],[2673]]},{"type":"LineString","properties":{"source":"naturalearthdata.com","kind":"highway","sort_rank":383,"kind_detail":"motorway","min_zoom":3.0,"id":4261},"arcs":[2674]},{"type":"LineString","properties":{"source":"naturalearthdata.com","kind":"highway","kind_detail":"motorway","sort_rank":383,"landuse_kind":"urban_area","min_zoom":3.0,"id":4262},"arcs":[2675]},{"type":"LineString","properties":{"source":"naturalearthdata.com","kind":"highway","kind_detail":"motorway","sort_rank":383,"landuse_kind":"urban_area","min_zoom":4.0,"id":4263},"arcs":[2676]},{"type":"LineString","properties":{"source":"naturalearthdata.com","kind":"highway","kind_detail":"motorway","sort_rank":383,"landuse_kind":"urban_area","min_zoom":4.0,"id":4263},"arcs":[2677]},{"type":"LineString","properties":{"source":"naturalearthdata.com","kind":"highway","sort_rank":383,"kind_detail":"motorway","min_zoom":4.0,"id":4263},"arcs":[2678]},{"type":"MultiLineString","properties":{"source":"naturalearthdata.com","kind":"highway","kind_detail":"motorway","sort_rank":383,"landuse_kind":"urban_area","min_zoom":3.0,"id":4265},"arcs":[[2679],[2680],[2681]]},{"type":"MultiLineString","properties":{"source":"naturalearthdata.com","kind":"highway","sort_rank":383,"kind_detail":"motorway","min_zoom":3.0,"id":4265},"arcs":[[2682],[2683]]},{"type":"LineString","properties":{"source":"naturalearthdata.com","kind":"highway","kind_detail":"motorway","sort_rank":383,"landuse_kind":"urban_area","min_zoom":4.0,"id":4270},"arcs":[2684]},{"type":"LineString","properties":{"source":"naturalearthdata.com","kind":"highway","sort_rank":383,"kind_detail":"motorway","min_zoom":4.0,"id":4270},"arcs":[2685]},{"type":"LineString","properties":{"source":"naturalearthdata.com","kind":"highway","sort_rank":383,"kind_detail":"motorway","min_zoom":4.0,"id":4271},"arcs":[2686]},{"type":"LineString","properties":{"kind":"highway","network":"e-road","sort_rank":383,"kind_detail":"motorway","source":"naturalearthdata.com","min_zoom":3.0,"all_networks":["e-road"],"landuse_kind":"urban_area","shield_text":"90","ref":"90","id":4277,"all_shield_texts":["90"]},"arcs":[2687]},{"type":"LineString","properties":{"kind":"highway","network":"e-road","sort_rank":383,"kind_detail":"motorway","source":"naturalearthdata.com","min_zoom":3.0,"all_networks":["e-road"],"shield_text":"90","ref":"90","id":4277,"all_shield_texts":["90"]},"arcs":[2688]},{"type":"LineString","properties":{"source":"naturalearthdata.com","kind":"highway","kind_detail":"motorway","sort_rank":383,"landuse_kind":"park","min_zoom":3.0,"id":4281},"arcs":[2689]},{"type":"MultiLineString","properties":{"source":"naturalearthdata.com","kind":"highway","kind_detail":"motorway","sort_rank":383,"landuse_kind":"urban_area","min_zoom":3.0,"id":4281},"arcs":[[2690],[2691]]},{"type":"MultiLineString","properties":{"kind":"highway","network":"e-road","sort_rank":383,"kind_detail":"motorway","source":"naturalearthdata.com","min_zoom":3.0,"all_networks":["e-road"],"landuse_kind":"urban_area","shield_text":"5","ref":"5","id":4288,"all_shield_texts":["5"]},"arcs":[[2692],[2693],[2694],[2695]]},{"type":"LineString","properties":{"kind":"highway","network":"e-road","sort_rank":383,"kind_detail":"motorway","source":"naturalearthdata.com","min_zoom":3.0,"all_networks":["e-road"],"landuse_kind":"urban_area","shield_text":"5","ref":"5","id":4288,"all_shield_texts":["5"]},"arcs":[2696]},{"type":"MultiLineString","properties":{"kind":"highway","network":"e-road","sort_rank":383,"kind_detail":"motorway","source":"naturalearthdata.com","min_zoom":3.0,"all_networks":["e-road"],"shield_text":"5","ref":"5","id":4288,"all_shield_texts":["5"]},"arcs":[[2697],[2698],[2699],[2700],[2701]]},{"type":"LineString","properties":{"kind":"highway","network":"e-road","sort_rank":383,"kind_detail":"motorway","source":"naturalearthdata.com","min_zoom":3.0,"all_networks":["e-road"],"landuse_kind":"urban_area","shield_text":"90","ref":"90","id":4311,"all_shield_texts":["90"]},"arcs":[2702]},{"type":"LineString","properties":{"kind":"highway","network":"e-road","sort_rank":383,"kind_detail":"motorway","source":"naturalearthdata.com","min_zoom":3.0,"all_networks":["e-road"],"landuse_kind":"urban_area","shield_text":"90","ref":"90","id":4311,"all_shield_texts":["90"]},"arcs":[2703]},{"type":"LineString","properties":{"kind":"highway","network":"e-road","sort_rank":383,"kind_detail":"motorway","source":"naturalearthdata.com","min_zoom":3.0,"all_networks":["e-road"],"landuse_kind":"urban_area","shield_text":"90","ref":"90","id":4311,"all_shield_texts":["90"]},"arcs":[2704]},{"type":"MultiLineString","properties":{"kind":"highway","network":"e-road","sort_rank":383,"kind_detail":"motorway","source":"naturalearthdata.com","min_zoom":3.0,"all_networks":["e-road"],"shield_text":"90","ref":"90","id":4311,"all_shield_texts":["90"]},"arcs":[[2705],[2706],[2707]]},{"type":"MultiLineString","properties":{"kind":"highway","network":"e-road","sort_rank":383,"kind_detail":"motorway","source":"naturalearthdata.com","min_zoom":6.0,"all_networks":["e-road"],"landuse_kind":"urban_area","shield_text":"901","ref":"901","id":5214,"all_shield_texts":["901"]},"arcs":[[2708],[2709],[2710]]},{"type":"MultiLineString","properties":{"kind":"highway","network":"e-road","sort_rank":383,"kind_detail":"motorway","source":"naturalearthdata.com","min_zoom":6.0,"all_networks":["e-road"],"shield_text":"901","ref":"901","id":5214,"all_shield_texts":["901"]},"arcs":[[2711],[2712],[2713]]},{"type":"LineString","properties":{"kind":"highway","network":"e-road","sort_rank":383,"kind_detail":"motorway","source":"naturalearthdata.com","min_zoom":6.0,"all_networks":["e-road"],"shield_text":"901","ref":"901","id":5215,"all_shield_texts":["901"]},"arcs":[2714]},{"type":"LineString","properties":{"source":"naturalearthdata.com","kind":"highway","kind_detail":"motorway","sort_rank":383,"landuse_kind":"urban_area","min_zoom":7.0,"id":5802},"arcs":[2715]},{"type":"LineString","properties":{"source":"naturalearthdata.com","kind":"highway","sort_rank":383,"kind_detail":"motorway","min_zoom":7.0,"id":5802},"arcs":[2716]},{"type":"LineString","properties":{"source":"naturalearthdata.com","kind":"highway","kind_detail":"motorway","sort_rank":383,"landuse_kind":"protected_area","min_zoom":7.0,"id":5806},"arcs":[2717]},{"type":"LineString","properties":{"source":"naturalearthdata.com","kind":"highway","kind_detail":"motorway","sort_rank":383,"landuse_kind":"urban_area","min_zoom":7.0,"id":5806},"arcs":[2718]},{"type":"LineString","properties":{"source":"naturalearthdata.com","kind":"highway","kind_detail":"motorway","sort_rank":383,"landuse_kind":"urban_area","min_zoom":7.0,"id":5806},"arcs":[2719]},{"type":"MultiLineString","properties":{"source":"naturalearthdata.com","kind":"highway","sort_rank":383,"kind_detail":"motorway","min_zoom":7.0,"id":5806},"arcs":[[2720],[2721]]},{"type":"LineString","properties":{"source":"naturalearthdata.com","kind":"highway","kind_detail":"motorway","sort_rank":383,"landuse_kind":"urban_area","min_zoom":7.0,"id":5808},"arcs":[2722]},{"type":"LineString","properties":{"source":"naturalearthdata.com","kind":"highway","kind_detail":"motorway","sort_rank":383,"landuse_kind":"urban_area","min_zoom":7.0,"id":5808},"arcs":[2723]},{"type":"MultiLineString","properties":{"source":"naturalearthdata.com","kind":"highway","sort_rank":383,"kind_detail":"motorway","min_zoom":7.0,"id":5808},"arcs":[[2724],[2725]]},{"type":"LineString","properties":{"source":"naturalearthdata.com","kind":"highway","sort_rank":383,"kind_detail":"motorway","min_zoom":7.0,"id":5813},"arcs":[2726]},{"type":"LineString","properties":{"source":"naturalearthdata.com","kind":"major_road","sort_rank":380,"kind_detail":"primary","min_zoom":7.0,"id":6080},"arcs":[2727]},{"type":"LineString","properties":{"source":"naturalearthdata.com","kind":"highway","sort_rank":383,"kind_detail":"motorway","min_zoom":7.0,"id":6081},"arcs":[2728]},{"type":"LineString","properties":{"source":"naturalearthdata.com","kind":"highway","sort_rank":383,"kind_detail":"motorway","min_zoom":7.0,"id":6082},"arcs":[2729]},{"type":"LineString","properties":{"source":"naturalearthdata.com","kind":"major_road","sort_rank":380,"kind_detail":"primary","min_zoom":7.0,"id":6192},"arcs":[2730]},{"type":"MultiLineString","properties":{"source":"naturalearthdata.com","kind":"major_road","sort_rank":380,"kind_detail":"primary","min_zoom":7.0,"id":6203},"arcs":[[2731],[2732]]},{"type":"LineString","properties":{"source":"naturalearthdata.com","kind":"highway","kind_detail":"motorway","sort_rank":383,"landuse_kind":"urban_area","min_zoom":7.0,"id":6296},"arcs":[2733]},{"type":"LineString","properties":{"source":"naturalearthdata.com","kind":"highway","kind_detail":"motorway","sort_rank":383,"landuse_kind":"urban_area","min_zoom":7.0,"id":6297},"arcs":[2734]},{"type":"LineString","properties":{"kind":"highway","network":"e-road","sort_rank":383,"kind_detail":"motorway","source":"naturalearthdata.com","min_zoom":3.0,"all_networks":["e-road"],"landuse_kind":"urban_area","shield_text":"5","ref":"5","id":8052,"all_shield_texts":["5"]},"arcs":[2735]},{"type":"LineString","properties":{"kind":"highway","network":"e-road","sort_rank":383,"kind_detail":"motorway","source":"naturalearthdata.com","min_zoom":3.0,"all_networks":["e-road"],"landuse_kind":"urban_area","shield_text":"5","ref":"5","id":8052,"all_shield_texts":["5"]},"arcs":[2736]},{"type":"MultiLineString","properties":{"kind":"highway","network":"e-road","sort_rank":383,"kind_detail":"motorway","source":"naturalearthdata.com","min_zoom":3.0,"all_networks":["e-road"],"shield_text":"5","ref":"5","id":8052,"all_shield_texts":["5"]},"arcs":[[2737],[2738]]}]},"earth":{"type":"GeometryCollection","geometries":[{"type":"MultiPolygon","properties":{"sort_rank":10,"source":"naturalearthdata.com","min_zoom":0.0,"kind":"earth","area":346236012916},"arcs":[[[2739]]]}]},"landuse":{"type":"GeometryCollection","geometries":[{"type":"Polygon","properties":{"kind":"nature_reserve","protect_class":"3","area":119336000,"sort_rank":23,"source":"openstreetmap.org","min_zoom":7.0,"tier":2,"id":-2127938,"osm_relation":true},"arcs":[[2740]]},{"type":"MultiPolygon","properties":{"source":"openstreetmap.org","kind":"park","tier":2,"area":1290465446,"sort_rank":24,"min_zoom":6.0,"osm_relation":true},"arcs":[[[2741]]]},{"type":"Polygon","properties":{"kind":"nature_reserve","protect_class":"2","area":692193024,"sort_rank":23,"source":"openstreetmap.org","min_zoom":6.0,"tier":2,"id":220938972},"arcs":[[2742]]},{"type":"MultiPolygon","properties":{"source":"naturalearthdata.com","kind":"urban_area","name":"","area":10242983031,"sort_rank":11,"min_zoom":4.0},"arcs":[[[2743]],[[2744]],[[2745]],[[2746]],[[2747]],[[2748]],[[2749]],[[2750]],[[2751]],[[2752]],[[2753]],[[2754]],[[2755]],[[2756]],[[2757]],[[2758]],[[2759],[2760],[2761],[2762],[2763]],[[2764]],[[2765]],[[2766]],[[2767]],[[2768]],[[2769]],[[2770]]]},{"type":"MultiPolygon","properties":{"source":"openstreetmap.org","kind":"nature_reserve","tier":2,"area":360979812,"sort_rank":23,"min_zoom":7.0},"arcs":[[[2771]]]},{"type":"Polygon","properties":{"kind":"protected_area","protect_class":"6","area":1698720000,"sort_rank":17,"source":"openstreetmap.org","min_zoom":4.0,"tier":2,"id":-3124542,"osm_relation":true},"arcs":[[2772],[2773],[2774],[2775],[2776],[2777],[2778],[2779],[2780]]},{"type":"Polygon","properties":{"kind":"nature_reserve","protect_class":"5","area":243727008,"sort_rank":23,"source":"openstreetmap.org","min_zoom":6.0,"tier":2,"id":274212526},"arcs":[[2781]]},{"type":"MultiPolygon","properties":{"kind":"nature_reserve","protect_class":"2","area":594988032,"sort_rank":23,"source":"openstreetmap.org","min_zoom":6.0,"tier":2,"id":-3121944,"osm_relation":true},"arcs":[[[2782]]]}]}},"type":"Topology","transform":{"translate":[-5.625,38.8225909762],"scale":[0.0006866455,0.0005266863]},"arcs":[[[1331,2759],[16,0],[8,-12],[-2,-13],[3,-15],[4,-13],[6,-45],[4,-13],[8,-11],[10,-9],[28,-13],[19,-5]],[[1231,2739],[68,10],[32,10]],[[1200,2740],[31,-1]],[[927,2452],[32,7],[22,10],[31,22],[11,11],[7,12],[5,14],[3,14],[13,24],[15,14],[25,16],[15,13],[33,19],[23,21],[18,23],[3,17],[1,16],[8,26],[8,9]],[[1435,2610],[21,1],[33,9],[45,18]],[[879,2530],[10,-8],[10,-54],[7,-10],[21,-6]],[[667,2404],[24,5],[14,6],[9,8],[5,7],[60,45],[6,9],[13,15],[11,9],[17,10],[37,11],[16,1]],[[433,2456],[142,-18],[41,-20],[17,-13],[34,-1]],[[1964,3551],[26,-59],[-92,-7]],[[2132,3540],[-35,16],[-88,10]],[[2009,3566],[-23,-4],[-22,-11]],[[1964,3551],[-33,6]],[[1931,3557],[-28,-26],[-5,-46]],[[1270,1131],[-19,31],[35,82],[-6,25],[-12,21],[-30,33],[-128,70]],[[1110,1393],[-16,-10],[-36,-65],[-67,-237]],[[433,2456],[-44,-21],[-4,-7],[-6,-15],[-8,-48],[-1,-19],[3,-18],[-8,-102],[-24,-142],[0,-51],[7,-23]],[[429,2025],[13,-3],[12,-6],[11,-9],[9,-11],[8,-11],[7,-12],[0,-13],[-4,-12],[-16,-25],[-7,-16],[-4,-23],[-2,-22],[-4,-19],[-3,-41],[5,-16],[7,-9],[50,-11],[20,-1]],[[348,2010],[14,5],[27,6],[40,4]],[[645,1850],[9,-1],[11,-7],[7,-15],[6,-25],[1,-18],[-10,-29],[5,-11],[19,-24],[11,-16],[1,-15],[-2,-14],[-6,-13],[-6,-26],[-2,-40],[-5,-13],[-3,-13],[-5,-12],[-16,-23],[-6,-13],[-8,-12],[-8,-12],[-16,-23],[-2,-11],[4,-11],[9,-10],[11,-10],[23,-16],[11,-9],[54,-70],[31,-34],[21,-18],[11,-13],[22,-14],[26,-7],[10,-7],[21,-36],[44,-51],[15,-22],[19,-21],[7,-7],[15,-12],[17,-15]],[[531,1765],[9,3],[8,7],[16,27],[13,15],[29,25],[10,3],[29,5]],[[827,1027],[-38,53],[-23,13]],[[766,1093],[-21,-21],[-4,-18],[1,-39],[-2,-18],[-9,-16],[-26,-24],[-55,-32]],[[991,1081],[-69,-40],[-95,-14]],[[650,925],[-100,1],[-108,34]],[[442,960],[-26,-9],[-14,-41],[-9,-74],[2,-13],[9,-23],[2,-13],[-1,-16],[-36,-64],[-36,-44],[-20,-15],[-50,-10]],[[263,638],[-36,22],[-70,74],[-36,10]],[[121,744],[-35,-10],[-68,-39],[8,-7],[43,-70],[0,-20],[-18,-39],[-17,-21],[-19,-8]],[[15,530],[-15,0]],[[4096,656],[-44,-64],[44,-87]],[[4096,425],[-98,-192],[-3,-27],[16,-36],[34,-13]],[[4045,157],[51,4]],[[3994,1003],[-20,30],[39,45],[-55,76],[-35,78]],[[4096,1046],[-26,-35],[-76,-8]],[[764,4096],[-5,-12],[-34,-37],[23,-75],[-74,-88],[4,-72],[-3,-22],[-26,-49],[-56,-39],[-38,-62],[-174,-124],[-32,-104],[-41,-38],[-49,-25],[-94,-8]],[[165,3341],[-8,1]],[[157,3342],[8,-65],[109,-1],[-33,-130],[-11,-21],[-17,-16],[-53,-8],[9,-52],[-17,-18],[-20,-1]],[[132,3030],[-22,15],[-35,41],[-3,36],[-7,10],[-15,3]],[[50,3135],[-38,-12],[-12,-9]],[[4096,2911],[-4,-58],[4,-22]],[[4096,2661],[-6,-27],[-10,-11],[-62,-12],[-11,-10],[-17,-38],[-10,-15],[-14,-10],[-16,-3]],[[3950,2535],[-50,23],[-74,75]],[[3826,2633],[-32,-31],[8,-72]],[[3802,2530],[-72,25]],[[3730,2555],[-13,-20]],[[1085,1033],[36,22],[8,1],[10,3],[10,7],[33,16],[52,15],[16,8],[20,26]],[[991,1081],[94,-48]],[[1570,3800],[-19,13],[-1,19],[18,43],[4,23],[-21,73],[-5,61],[-7,14],[-10,7],[-23,8],[-16,12],[-13,17],[-3,6]],[[1756,3438],[-37,224],[-12,23],[-32,37],[-8,28],[-4,35],[-6,15],[-12,13],[-22,4]],[[1623,3817],[-53,-17]],[[1898,3485],[-32,-21],[-110,-26]],[[3585,2361],[-10,-34],[40,-120]],[[3682,2211],[0,-102],[-41,-105],[42,-17],[53,-60],[28,-95],[37,-44],[23,-80],[133,-152],[-25,-77],[-9,-247]],[[3615,2207],[67,4]],[[2185,1407],[-50,25]],[[2135,1432],[-49,-149],[-72,-39]],[[2250,1195],[22,26],[6,15],[1,19],[-4,14],[-18,24],[-4,12],[4,23],[15,11],[19,7],[15,14],[4,15],[-1,38],[-3,16]],[[2306,1429],[-121,-22]],[[1691,1257],[-18,3],[-17,12],[-16,19],[-19,87]],[[1621,1378],[-39,0],[-22,-17],[-12,-32],[-8,-48],[-23,-9],[-25,-18],[-19,-25],[-7,-30],[-108,-8]],[[2014,1244],[-269,59]],[[1745,1303],[-13,-4],[-8,-7],[-9,-19],[-5,-7],[-19,-9]],[[3722,1191],[-108,86]],[[3614,1277],[-60,-14],[-1,-26],[-158,-6],[-17,-16],[-18,-73],[-13,-26],[-23,-11]],[[3923,1232],[-68,-51]],[[3855,1181],[-65,24]],[[3790,1205],[-68,-14]],[[2194,1205],[56,-10]],[[2212,987],[-14,4],[-36,27],[-8,17],[3,18],[23,60],[14,92]],[[3324,1105],[-82,1]],[[3242,1106],[-104,-62],[-10,-56],[-115,-83]],[[2597,830],[-50,4],[-38,35],[-94,35],[-8,102],[-147,25]],[[2260,1031],[-36,-38],[-12,-6]],[[3013,905],[-44,16]],[[2969,921],[-135,-24],[-63,-48],[-20,0]],[[2751,849],[-65,47]],[[2686,896],[-26,-5],[-23,-14],[-40,-47]],[[1358,1191],[21,-61],[-5,-33],[-21,-42],[-22,-65],[-14,-17],[-14,-10],[-15,-4],[-13,-6],[-11,-15],[1,-20],[4,-17],[28,-69],[25,-47],[2,-8],[8,-12],[16,-14],[42,-52],[18,-32]],[[1242,707],[-13,0],[-26,8]],[[1203,715],[-11,-1],[-10,-8],[-9,-11],[-9,-13],[-20,-22],[-11,-9],[-6,-12],[-6,-21],[-18,-80],[0,-27],[5,-19],[10,-10],[25,-15],[10,-11],[3,-16],[-5,-13],[-35,-21],[-13,-5],[-14,-2]],[[1408,667],[-19,1],[-7,2],[-51,26],[-12,8],[-12,6],[-25,4]],[[1282,714],[-26,-6],[-14,-1]],[[1089,399],[-26,9],[-36,22],[-13,5],[-13,3]],[[1001,438],[-13,-4],[-11,-11],[1,-12],[3,-14],[6,-14],[1,-14],[3,-14],[7,-9],[8,-6],[4,-3],[1,-1],[1,-15],[1,-13],[2,-14],[4,-14],[7,-11],[10,-9],[49,-14],[10,-6],[39,-6],[9,-12],[6,-21],[-8,-27],[-6,-42],[-7,-10],[-12,-1]],[[1116,121],[-40,5]],[[1076,126],[-14,-2],[-13,-4],[-12,-7],[-10,-9],[-11,-13],[-23,-41],[-6,-18],[-9,-32]],[[1270,1131],[72,38],[16,22]],[[124,2610],[-55,20],[-38,22],[-31,43]],[[433,2456],[-26,41],[-5,14],[-7,12],[-11,25],[-5,86],[1,14],[4,14],[16,40],[1,10],[-7,8]],[[394,2720],[-27,-1],[-74,-22],[-49,-42],[-10,-12],[-20,-20],[-12,-5],[-12,-4],[-9,-2],[-57,-2]],[[3706,2538],[11,-3]],[[3585,2361],[73,4],[28,8],[22,19],[15,15],[8,15],[1,13],[-5,13],[-9,11],[-6,12],[-5,13],[-3,15],[-6,13],[-2,17],[4,8],[6,1]],[[1834,2823],[8,-3],[9,-7],[6,-11],[1,-13],[-3,-28],[0,-14],[4,-13],[11,-25],[10,-11],[13,-11],[22,-9],[20,-23],[6,-1]],[[1590,2611],[18,2],[14,8],[7,11],[14,13],[19,11],[44,19],[20,15],[14,15],[7,15],[45,46],[9,13],[7,14],[18,27],[8,3]],[[2099,2775],[13,-1],[11,-8],[9,-11],[42,-41],[22,-8],[28,-4]],[[1941,2654],[8,4],[20,17],[10,11],[12,18],[11,20],[8,11],[16,11],[37,6],[36,23]],[[2270,2728],[13,-2],[32,-13],[13,-9],[11,-11],[9,-13],[7,-13],[13,-11],[18,-8],[78,-25],[46,-23],[70,-18],[7,-5],[8,-8],[8,-11],[14,-11],[13,-1]],[[2224,2702],[20,6],[13,9],[13,11]],[[1534,2638],[33,-22],[23,-5]],[[2655,2552],[12,-3],[10,-9],[22,-32],[11,-7],[8,-4],[18,-5]],[[2630,2546],[25,6]],[[2772,2498],[20,-3],[23,-7],[27,-2],[71,-36],[16,-12],[5,-10],[-1,-9],[1,-19],[-2,-10],[-13,-39],[-4,-8],[-12,-18],[-3,-7],[-7,-6],[-17,-11],[-11,-2],[-19,-11],[-67,-73],[-24,-19],[-27,-8],[-8,-7],[-24,-27],[-7,-6],[-17,-2],[-91,-28],[-17,-10],[-14,-12],[7,-13],[17,-17],[46,-29],[24,-4]],[[2736,2492],[36,6]],[[3550,2403],[26,-15],[6,-8],[3,-19]],[[3325,2320],[18,6],[60,10],[88,47],[59,20]],[[3282,2344],[27,-21],[16,-3]],[[3231,2322],[51,22]],[[3092,2328],[139,-6]],[[2644,2033],[17,5],[11,13],[23,18],[12,6],[21,20],[13,16],[10,9],[11,5],[16,5],[27,3],[16,8],[26,18],[34,10],[12,6],[3,10],[-1,27],[7,8],[22,9],[28,7],[2,1],[10,10],[9,6],[12,6],[58,15],[13,6],[6,10],[10,21],[20,17]],[[3190,3518],[-11,5],[-10,9],[-9,12],[-5,11],[5,17],[18,25],[5,12],[0,14],[-5,14],[-2,25],[-3,19],[-10,21],[-10,12],[-42,13],[-10,7],[-4,6],[0,7],[5,7],[5,7],[9,18],[8,19],[3,12],[8,55],[4,9],[5,7],[7,5],[6,3],[8,8],[6,10],[0,20],[-7,16],[1,15],[5,13],[5,18],[7,14],[5,14],[13,44],[6,13],[5,15],[3,7]],[[3332,3457],[-11,2],[-16,10],[-16,18],[-21,36],[-12,16]],[[3256,3539],[-10,0],[-5,-10],[-7,-8]],[[3234,3521],[-21,3]],[[3213,3524],[-23,-6]],[[3401,3248],[-5,4],[-3,7],[3,8],[4,5],[2,6],[2,9],[-3,15],[-5,13],[-20,19],[-13,8],[-8,12],[-7,16],[3,52],[9,41],[-10,3]],[[3350,3466],[-7,-4],[-11,-5]],[[3563,2695],[-11,14],[-4,27],[1,20],[4,18],[5,17],[2,17],[4,21],[9,14],[20,20],[7,11],[3,10],[1,9],[6,18],[4,8],[2,9],[0,10],[-2,18],[1,6],[4,8],[2,15],[-5,21],[-22,37],[-18,15],[-16,9],[-13,3],[-10,8],[-6,13],[2,54],[-3,37],[0,8],[-1,8],[-4,12],[-30,29],[-12,9],[-10,10],[-12,6],[-13,2]],[[3448,3266],[-9,-3],[-10,-6],[-9,-6],[-9,-3],[-10,0]],[[3717,2535],[-15,76],[1,39],[-1,18],[-5,22],[-13,34],[-12,24],[-17,12]],[[3655,2760],[-14,-3],[-38,-27],[-10,-12],[-9,-12],[-10,-10],[-11,-1]],[[2339,3715],[34,7],[8,3],[9,8],[5,15],[7,13],[10,28],[3,14],[2,28],[3,15],[6,15],[9,17],[5,15],[0,14],[-5,26],[3,14],[4,13],[20,34],[21,27],[12,19],[14,15],[15,12],[84,29]],[[2279,3724],[18,0],[17,-3],[12,-5],[13,-1]],[[2132,3540],[41,61],[6,12],[56,83],[16,14],[28,14]],[[2014,3380],[28,5],[25,11],[16,4],[15,6],[15,12],[4,13],[0,29],[5,30],[0,13],[10,37]],[[1960,3427],[8,-8],[11,-23],[9,-8],[13,-5],[13,-3]],[[1821,3004],[6,1],[10,5],[42,3],[15,7],[1,10],[-7,27],[12,41],[5,16],[2,12],[-1,13],[-4,13],[1,23],[2,10],[0,9],[-3,11],[1,28],[-1,16],[0,19],[10,19],[11,10],[11,7],[5,6],[4,7],[3,6],[6,22],[1,13],[-1,13],[-3,14],[-5,13],[0,18],[6,10],[10,1]],[[1782,3013],[10,-1],[12,-3],[8,-3],[9,-2]],[[1644,2836],[25,3],[14,4],[17,12],[11,17],[14,28],[6,18],[2,14],[0,11],[5,32],[6,11],[13,14],[8,6],[8,5],[9,2]],[[1602,2879],[10,-8],[16,-25],[9,-7],[7,-3]],[[1534,2638],[20,33],[12,64],[19,39],[7,11],[3,14],[-2,15],[-8,24],[-2,15],[1,17],[8,8],[10,1]],[[2355,3424],[-166,-52],[-26,-40]],[[2268,3634],[-61,-22],[-29,-41],[-81,23],[2,79],[-44,68],[124,133],[24,138]],[[2348,3426],[-44,69],[32,50],[-66,29],[30,48],[-32,12]],[[2348,3426],[0,-1],[2,0]],[[2350,3425],[-2,1]],[[2362,3423],[-7,2]],[[2362,3423],[-1,0]],[[2452,3314],[-10,3],[-6,3],[-3,3]],[[2433,3323],[-7,7]],[[2426,3330],[-3,6],[-3,14],[-12,8],[-5,12],[-10,5],[-3,2],[-28,46]],[[2452,3315],[-19,8]],[[2433,3323],[-7,7]],[[2426,3330],[-3,6],[-2,10],[0,2],[-1,2],[-1,1],[-2,1],[-9,6],[-4,10],[-1,2],[-1,1],[-2,1],[-7,3],[-3,2],[-3,10],[-4,8],[-4,10],[-1,3],[-3,4],[-8,9],[-2,1],[-1,1],[-2,0]],[[2537,2863],[25,-6],[153,112],[13,22],[94,12]],[[2822,3003]],[[2822,3003],[-22,-117],[-4,-3],[-71,-1],[-14,-9],[-23,-32],[-20,-44],[-10,-25]],[[2539,2865],[-2,-2],[2,2]],[[2563,2857],[1,2],[3,2],[-1,0],[-3,-4]],[[2594,2883],[2,2],[-2,-2]],[[2612,2902],[-1,-2],[-1,0],[2,2]],[[2634,2912],[2,1],[-2,-1]],[[2658,2771],[1,1],[1,4],[-1,-4],[-1,-1]],[[2668,2798],[1,2],[-1,-2]],[[2672,2954],[-2,-2],[2,2]],[[2681,2826],[2,4],[-2,-4]],[[2698,2858],[1,1],[2,4],[0,-2],[-3,-3]],[[2731,2882],[4,1],[-4,0],[0,-1]],[[2789,2883],[-4,1],[4,-1]],[[2796,2928],[1,5],[-1,-5]],[[2820,3006],[2,-3]],[[2822,3003],[-2,3]],[[2819,3008],[9,122]],[[2828,3130],[1,3]],[[2829,3133],[2,4]],[[2842,2985],[-16,15]],[[2960,3001],[-28,-34],[-22,-7],[-32,-10],[-1,0],[-3,0],[-3,-1],[-3,1],[-3,0],[-2,1],[-3,1],[-3,2],[-3,2],[-2,2],[-3,3],[-2,3],[0,3],[-2,4],[-3,14]],[[2843,2984],[20,-33],[51,10]],[[3051,3078],[-27,-12],[-21,-30],[-3,-4],[-40,-31]],[[2960,3001],[4,3],[38,31],[10,17],[2,3],[3,4],[2,2],[2,2],[4,4],[3,2],[2,1],[3,2],[4,2],[4,1],[126,36],[53,23],[63,28]],[[3431,3295],[-109,-113],[-11,-8],[-22,-10]],[[3336,3197],[-3,-3]],[[3390,3253],[5,5]],[[2831,3132],[-2,1]],[[2828,3130],[3,2]],[[3121,3098],[4,1],[-4,-1]],[[3252,3148],[-4,-2],[3,1],[1,1]],[[3289,3164],[-2,-1],[4,2],[-2,-1]],[[2537,2863],[5,3],[2,1],[4,0],[14,-11],[153,113],[13,22],[87,19],[19,-20],[-34,-42],[0,-63],[-94,-16],[-18,-28],[-20,-44],[-9,-23],[0,-1],[-1,-2],[-42,-50]],[[2539,2864],[-2,-1],[2,1]],[[2563,2857],[4,4],[-4,-4]],[[2596,2884],[-2,-2],[0,1],[2,2],[0,-1]],[[2613,2901],[0,1],[-2,-2],[0,-1],[2,2]],[[2616,2720],[2,3],[-2,-3]],[[2634,2912],[2,1],[-2,-1]],[[2658,2771],[1,2],[1,2],[-1,0],[-1,-4]],[[2668,2798],[1,2],[-1,-2]],[[2672,2954],[-2,-2],[2,2]],[[2681,2826],[1,4],[1,0],[-2,-4]],[[2698,2858],[1,1],[2,3],[-3,-4]],[[2731,2883],[4,0],[-4,0]],[[2789,2884],[-4,0],[4,0]],[[2796,2928],[1,4],[-1,-4]],[[2732,2627],[-2,-27],[2,-12],[5,-9],[3,-5],[3,-4],[46,-47],[28,-28],[24,-51],[2,-21],[-5,-26],[0,-15],[4,-37],[1,-10],[1,-3],[2,-11],[3,-7]],[[2818,3006],[23,-19],[1,-11],[-12,-17],[-1,-7],[15,-43],[4,-6],[16,-21],[12,-19],[2,-23],[-15,-24],[-70,-49],[-15,-18],[-15,-13],[-3,-3],[-6,-8],[-6,-9],[-5,-13],[-11,-71]],[[2848,2316],[-5,114],[-2,14],[-5,14],[-19,37],[-77,79],[-9,26],[20,121],[9,12],[14,11],[4,5],[15,18],[12,8],[16,6],[2,1],[7,4],[3,2],[3,3],[28,26],[3,2],[3,4],[3,4],[1,2],[2,4],[1,4],[1,3],[1,3],[0,4],[0,4],[-1,5],[-1,3],[-1,4],[-2,4],[-10,16],[-5,7],[-5,5],[-6,8],[-4,6],[-10,32],[-5,11],[1,7],[11,14],[0,1],[1,2],[1,1],[0,2],[0,2],[0,2],[-2,4],[0,1],[-1,2],[-2,2],[-2,2],[-18,12]],[[2849,2314],[-1,2]],[[2849,2314],[2,-4]],[[2851,2310],[2,-5]],[[2853,2305],[4,-7]],[[2857,2298],[-4,7]],[[2853,2305],[-2,5]],[[2851,2310],[-2,4]],[[2857,2298],[2,-4]],[[2859,2294],[4,-7]],[[2863,2287],[2,-3]],[[2865,2284],[1,-2]],[[2866,2282],[2,-2]],[[2868,2280],[2,-2]],[[2870,2278],[1,-2]],[[2871,2276],[3,-3]],[[2874,2273],[-3,3]],[[2871,2276],[-2,3]],[[2869,2279],[-1,1]],[[2868,2280],[-2,2]],[[2866,2282],[-1,2]],[[2865,2284],[-1,3]],[[2864,2287],[-5,8]],[[2859,2295],[-2,3]],[[2874,2273],[99,-80],[107,-64],[20,-7],[10,-2],[8,-1],[4,0],[97,12],[15,4],[82,24],[23,5],[88,-19],[19,-2],[8,0],[5,1],[7,1],[10,1],[9,3],[4,1],[123,46],[34,5],[101,-22],[9,-1],[12,-1],[17,2],[5,1],[5,1],[11,3],[58,21],[7,4],[9,5],[32,23],[29,13],[21,4],[29,1],[14,2],[5,1],[13,4],[53,17],[20,3]],[[3036,2164],[-8,5],[-5,3],[-50,21],[-43,50],[-8,6],[-13,6],[-12,4],[-7,3],[-16,11]],[[4096,2283],[-3,-1],[-12,-2],[-5,-1],[-5,-1],[-11,-4],[-37,-12],[-16,-5],[-16,-2],[-20,0],[-6,-1],[-5,0],[-10,-2],[-7,-1],[-5,-2],[-8,-2],[-7,-3],[-4,-2],[-7,-5],[-6,-3],[-26,-20],[-14,-8],[-76,-26],[-39,-2],[-19,4],[-10,4],[-16,7],[-7,2],[-4,2],[-6,1],[-7,2],[-4,1],[-5,0],[-4,1],[-9,0],[-6,0],[-8,-1],[-11,-1],[-6,0],[-6,-2],[-6,-1],[-5,-1],[-83,-27],[-7,-3],[-7,-3],[-18,-9],[-12,-5],[-26,-5],[-32,1],[-16,4],[-24,9],[-6,2],[-5,1],[-7,2],[-5,1],[-6,0],[-6,0],[-6,0],[-7,0],[-6,-1],[-10,-2],[-7,-2],[-82,-24],[-15,-3],[-13,-2],[-21,0],[-6,0],[-6,0],[-59,-10],[-74,41]],[[2708,3697],[-17,18],[-62,54],[-56,36],[-113,53],[-241,110],[-56,19],[-25,16],[-8,8],[-11,13],[-5,5],[-5,4],[-34,30],[-10,8],[-5,3],[-3,2],[-8,5],[-4,2],[-28,13]],[[2017,4096],[47,-25],[74,-68],[25,-16],[410,-182],[181,-160],[28,-86],[-15,-165],[19,-111],[40,-63],[5,-88]],[[2831,3132]],[[2831,3132]],[[2732,2627],[-2,-27],[2,-12],[5,-9],[3,-5],[3,-4],[46,-47],[28,-28],[19,-38],[7,-27],[-5,-33],[0,-15],[5,-44],[1,-6],[2,-11],[2,-5],[3,-6],[2,-5],[10,-18],[3,-5],[2,-2],[3,-4],[5,-4],[5,-4]],[[2818,3006],[5,-5],[0,-1],[13,-6],[5,-7],[1,-11],[-2,-3],[-8,-11],[-2,-3],[-1,-1],[0,-2],[0,-2],[0,-2],[1,-3],[5,-10],[0,-2],[1,-5],[1,-3],[5,-16],[2,-4],[2,-3],[2,-3],[16,-21],[12,-19],[2,-23],[-15,-24],[-33,-30],[-25,-11],[-4,-2],[-8,-6],[-6,-7],[-9,-11],[-15,-13],[-3,-3],[-5,-6],[-1,-2],[-3,-4],[-3,-5],[-2,-5],[-2,-5],[-1,-3],[-1,-7],[-8,-43],[-1,-8],[-1,-13]],[[3036,2164],[-63,29],[-43,50],[-64,39],[-22,50],[-6,50],[5,41],[0,7],[-1,8],[-1,6],[-5,14],[-5,12],[-14,25],[-85,96],[18,128],[10,14],[18,16],[15,18],[37,19],[34,31],[14,23],[-2,23],[-47,89],[13,24],[-1,11],[-5,7],[-18,12]],[[2915,2252],[15,-9],[4,-5],[15,-22],[4,-5],[5,-5],[4,-4],[7,-6],[4,-3],[107,-64],[23,-8],[11,-1],[11,-1],[94,12],[15,4],[82,24],[23,5],[88,-19],[19,-2],[8,0],[5,1],[7,1],[10,1],[9,3],[4,1],[123,46],[34,5],[101,-22],[9,-1],[12,-1],[17,2],[5,1],[5,1],[11,3],[58,21],[7,4],[9,5],[32,23],[29,13],[21,4],[29,1],[16,2],[89,21]],[[4096,2283],[-3,-1],[-12,-2],[-5,-1],[-5,-1],[-11,-4],[-37,-12],[-16,-5],[-16,-2],[-20,0],[-6,-1],[-5,0],[-10,-2],[-7,-1],[-5,-2],[-8,-2],[-7,-3],[-4,-2],[-7,-5],[-6,-3],[-26,-20],[-14,-8],[-76,-26],[-39,-2],[-19,4],[-10,4],[-16,7],[-7,2],[-4,2],[-6,1],[-7,2],[-4,1],[-5,0],[-4,1],[-9,0],[-6,0],[-8,-1],[-11,-1],[-6,0],[-6,-2],[-6,-1],[-5,-1],[-83,-27],[-7,-3],[-7,-3],[-18,-9],[-12,-5],[-26,-5],[-32,1],[-16,4],[-24,9],[-6,2],[-5,1],[-7,2],[-5,1],[-6,0],[-6,0],[-6,0],[-7,0],[-6,-1],[-10,-2],[-7,-2],[-82,-24],[-15,-3],[-13,-2],[-21,0],[-6,0],[-6,0],[-59,-10],[-74,41]],[[2537,2863],[25,-6],[153,112],[13,22],[94,12]],[[2822,3003]],[[2822,3003],[-22,-117],[-4,-3],[-71,-1],[-19,-13],[-91,-150]],[[2539,2865],[-2,-2],[2,2]],[[2563,2857],[1,2],[3,2],[-1,0],[-3,-4]],[[2594,2883],[2,2],[-2,-2]],[[2612,2902],[-1,-2],[-1,0],[2,2]],[[2616,2720],[2,3],[-2,-3]],[[2634,2912],[2,1],[-2,-1]],[[2658,2771],[1,1],[1,4],[-1,-4],[-1,-1]],[[2668,2798],[1,2],[-1,-2]],[[2672,2954],[-2,-2],[2,2]],[[2681,2826],[2,4],[-2,-4]],[[2698,2858],[1,1],[2,4],[0,-2],[-3,-3]],[[2731,2882],[4,1],[-4,0],[0,-1]],[[2789,2883],[-4,1],[4,-1]],[[2796,2928],[1,5],[-1,-5]],[[2820,3006],[2,-3]],[[2822,3003],[-2,3]],[[2774,3182],[-1,0],[-1,-1],[-1,0],[-1,0],[-12,-10],[-72,4],[-140,34],[-36,90],[-75,22],[-84,104],[-163,-54],[-39,-107],[-138,-42],[-30,93],[-40,5],[-30,-32],[-52,64],[-81,-9],[-55,49],[-71,-26],[-19,38],[-62,-12],[-16,60],[-27,-16],[-51,32],[-101,7],[-29,47],[-28,-3],[11,75],[-30,-4],[-44,69],[-33,-24],[-33,110],[-38,-21],[-27,46],[-31,-8],[-67,41],[-53,78],[-74,20],[-149,-35],[-278,180],[-99,5],[-134,45]],[[106,4096],[-106,-12]],[[2827,3127],[-30,58],[-16,-4],[-9,0],[-11,-9],[-3,-1],[-5,0]],[[2349,1975],[9,0]],[[2351,1974],[14,1],[17,-1],[2,0],[2,0],[2,1],[27,9],[4,2],[3,1],[3,2],[6,3],[4,2],[1,1],[30,26],[4,2],[12,7],[4,3],[24,18],[2,2],[2,2],[2,2],[3,3],[19,29],[12,23],[29,25],[7,9],[5,10],[3,9],[30,134],[38,84],[2,5],[2,6],[1,4],[6,41],[3,11],[4,8],[32,61],[2,4],[1,2],[1,4],[4,12],[4,11],[2,5],[1,7],[2,11],[1,5],[0,5],[1,35]],[[2828,2998],[49,-161],[-131,-126],[-13,-63],[-7,-91],[-50,-107],[-53,-153],[-33,-142],[-40,-43],[-33,-53],[-26,-23],[-133,-61]],[[2358,1975],[-7,0]],[[2817,3005],[9,-6]],[[3289,3164],[-6,-3]],[[3289,3164],[-5,-2]],[[4096,860],[-119,83],[-197,68],[-134,77],[-129,7]],[[2820,3006],[23,-25],[-14,-24],[2,-39]],[[2831,2918],[-3,-4],[-1,-4],[-2,-35],[-6,-6],[-15,-4],[-2,0],[-4,-3],[-9,-14],[9,-158],[63,-91],[72,-56],[-38,-183],[6,-21],[16,-16],[5,-25],[-38,-27],[-17,-5],[-25,-10],[-8,-5],[-89,-115],[-5,-8],[-17,-64],[2,-23],[3,-5],[3,-4],[15,-11],[25,-22],[2,-2],[34,-20],[28,-22],[25,-15],[8,-15],[0,-22],[1,-6],[1,-2],[1,-3],[14,-31],[87,-65],[95,-34],[42,-65],[99,-50],[15,-6],[20,-3],[11,-11],[61,-50],[33,-100],[77,-131],[12,-61],[17,-33],[-3,-25],[3,-33],[58,-94],[2,-3],[3,-2]],[[2830,2917],[3,4],[0,1],[1,2],[1,2],[0,2],[0,3],[1,2],[0,1],[-1,3],[-1,4],[-1,2],[-3,7],[-1,7],[12,17],[1,1],[0,2],[1,2],[0,2],[-1,2],[-1,4],[-1,3],[-1,1],[-1,2],[-2,1],[-1,1],[-1,0],[-6,2],[-8,9]],[[2830,2917],[1,1]],[[3515,1096],[-61,98],[-3,34],[3,15],[1,3],[0,2],[0,1],[-1,3],[-1,3],[-1,2],[-1,2],[-14,26],[-10,55],[-1,3],[-1,3],[-1,4],[-2,3],[-74,123],[-3,11],[-3,36],[-1,11],[0,1],[-1,3],[-1,2],[-1,4],[-2,3],[-1,3],[-18,25],[-2,2],[-3,3],[-3,3],[-55,44],[-7,8],[-2,2],[-2,1],[-2,1],[-2,1],[-2,1],[-1,0],[-3,0],[-6,0],[-4,0],[-15,6],[-7,3],[-10,10],[-5,3],[-6,3],[-71,31],[-34,57],[-2,2],[-2,2],[-3,3],[-1,1],[-3,1],[-2,1],[-2,1],[-88,31],[-73,59],[-1,1],[-2,1],[-2,1],[-6,1],[-3,2],[-15,33],[-2,9],[1,14],[-1,4],[0,3],[-1,3],[-2,4],[-2,4],[-1,2],[-1,2],[-3,3],[-2,1],[-2,2],[-2,1],[-3,2],[-11,5],[-4,3],[-25,20],[-2,2],[-35,19],[-25,24],[-2,1],[-14,10],[-5,8],[19,96],[34,37],[4,5],[4,5],[47,68],[8,5],[25,10],[13,3],[2,1],[2,1],[32,19],[2,2],[2,2],[1,2],[1,1],[0,1],[0,6],[0,2],[-5,17],[-1,2],[-2,2],[-13,12],[-6,21],[43,158],[0,4],[0,3],[0,2],[-1,1],[-4,15],[-1,3],[-1,2],[-3,4],[-2,2],[-2,2],[-30,27],[-3,2],[-2,1],[-2,0],[-6,0],[-4,2],[-16,11],[-18,31],[-45,60],[0,80],[-8,78],[8,14],[5,3],[13,3],[3,1],[1,0],[2,2],[2,2],[1,2],[1,3],[1,2],[0,1],[0,29],[3,7]],[[3250,139],[-12,-139]],[[3238,0],[10,106],[0,7],[2,27]],[[3250,139],[0,1]],[[3517,1095],[2,-3],[2,-2],[1,0],[3,-2],[2,-1],[4,-2],[3,-1],[4,-8],[-3,-27],[-17,-207],[-30,-158],[-29,-177],[-21,-48],[-21,-11],[-7,-5],[-113,-84],[-22,-17],[-2,-1],[-1,-2],[-1,-1],[-1,-2],[-1,-1],[-6,-15],[-1,-3],[-1,-3],[-11,-175]],[[3250,140],[20,196],[168,123],[21,46],[1,4],[1,3],[27,172],[30,156],[0,4],[6,71],[10,115]],[[3515,1096],[2,-1]],[[3515,1096],[2,-1]],[[3534,1030],[1,13]],[[3535,1043],[0,3]],[[3535,1046],[1,3]],[[3536,1049],[0,3]],[[3536,1052],[1,14]],[[3537,1066],[0,3]],[[3537,1069],[0,1]],[[3537,1070],[0,1]],[[3537,1071],[1,2]],[[3538,1073],[0,1]],[[3538,1074]],[[3538,1074],[0,1]],[[3538,1075],[0,1]],[[3538,1076],[0,1]],[[3538,1077]],[[3538,1077],[0,1]],[[3538,1078],[0,1]],[[3538,1079],[-1,0]],[[3537,1079],[0,1]],[[3537,1080],[0,1]],[[3537,1081],[-1,0]],[[3536,1081],[0,1]],[[3536,1082],[-1,1]],[[3535,1083],[0,1]],[[3535,1084],[-1,0]],[[3534,1084]],[[3534,1084],[-1,1]],[[3533,1085]],[[3533,1085],[-2,0]],[[3531,1085],[0,1]],[[3531,1086],[-1,0]],[[3530,1086],[-2,1]],[[3528,1087]],[[3528,1087],[-1,0]],[[3527,1087],[-1,0]],[[3526,1087],[-1,0]],[[3525,1087],[0,1]],[[3525,1088],[-1,0]],[[3524,1088],[-1,1]],[[3523,1089],[-1,1]],[[3522,1090],[-1,0]],[[3521,1090]],[[3521,1090],[-1,1]],[[3520,1091],[-1,1]],[[3519,1092],[-1,1]],[[3518,1093],[-1,2]],[[2817,3006],[2,-3]],[[2819,3003],[2,-2],[1,-1],[1,-1],[1,0]],[[2824,2999],[1,0]],[[2825,2999],[3,-1]],[[2828,2998],[1,-1]],[[2829,2997],[1,0]],[[2830,2997],[1,0]],[[2831,2997]],[[2831,2997],[1,0]],[[2817,3006],[2,-3]],[[2819,3003],[3,-3],[3,-1]],[[2825,2999],[1,0]],[[2826,2999],[1,-1]],[[2827,2998],[2,-1]],[[2817,3005],[5,-5],[0,-1],[1,0],[2,0]],[[2825,2999],[1,0]],[[2817,3005],[2,-2]],[[2819,3003],[2,-3],[2,-1],[1,0]],[[2824,2999],[1,0]],[[2817,3006],[2,-2]],[[2819,3004],[3,-4],[1,0],[1,-1]],[[2817,3006],[2,-2]],[[2819,3004],[3,-3],[1,-1]],[[2817,3006],[3,-2]],[[2820,3004],[2,-4],[1,0],[1,0]],[[2824,3000],[1,-1]],[[2817,3006],[3,-2]],[[2820,3004],[3,-4],[1,-1]],[[2824,2999],[1,0]],[[2818,3006],[2,-2]],[[2820,3004],[3,-4],[1,0],[1,-1]],[[2825,2999],[1,0]],[[2818,3006],[2,-2]],[[2820,3004],[3,-4],[1,0],[2,-1]],[[2826,2999]],[[2826,2999],[1,0]],[[3871,3683],[-10,-11],[-14,-12],[-63,-49],[-21,-22],[-98,-211],[-12,-15],[-145,-149],[-36,-51],[-25,-22],[-99,-50],[-40,-29],[-22,-10],[-31,-8],[-79,-3],[-31,-14],[-42,-23],[-7,-3],[-50,-14],[-22,-18],[-23,-44],[-27,-25],[-70,-28],[-58,35],[-3,5],[-1,4],[-7,22],[-5,12],[0,1],[0,2],[0,4],[0,2],[1,2],[10,13],[2,8],[-12,15]],[[2831,2997]],[[2831,2997],[-1,0]],[[2830,2997],[-4,2]],[[2826,2999],[-1,0]],[[2825,2999],[-1,1],[-1,0],[-3,4]],[[2820,3004],[-2,2]],[[2818,3007],[2,-3]],[[2820,3004],[3,-4],[1,0],[1,0]],[[2825,3000],[0,-1]],[[2818,3007],[2,-3]],[[2820,3004],[3,-3],[1,-1],[1,0]],[[2825,3000],[0,-1]],[[2825,2999],[1,0]],[[2826,2999],[1,-1]],[[2827,2998]],[[2827,2998],[1,0]],[[2818,3007],[2,-3]],[[2820,3004],[4,-4],[1,-1]],[[2825,2999]],[[2819,3006],[2,-2]],[[2821,3004],[4,-5]],[[2823,3000],[1,-1]],[[2824,2999],[1,0]],[[2823,3000],[1,0]],[[2824,3000],[0,-1]],[[2824,2999],[1,0]],[[2825,2999],[1,0]],[[2825,2999]],[[2825,2999],[1,0]],[[2827,2999],[-1,0]],[[2826,2999],[-1,0]],[[4096,3865],[-74,-35],[-76,-61],[-85,-97],[-77,-61],[-6,-5],[-6,-6],[-6,-7],[-3,-4],[-5,-7],[-14,-22],[-5,-10],[-75,-174],[-156,-162],[-3,-3],[-4,-5],[-4,-5],[-25,-37],[-25,-23],[-54,-26],[-6,-3],[-39,-21],[-10,-6],[-6,-4],[-24,-18],[-22,-11],[-31,-8],[-18,-1],[-21,2],[-11,0],[-7,0],[-7,-1],[-8,-1],[-7,-2],[-6,-2],[-13,-5],[-12,-6],[-42,-24],[-7,-3],[-36,-9],[-5,-1],[-5,-2],[-3,-1],[-2,-2],[-4,-2],[-5,-3],[-6,-5],[-3,-3],[-2,-3],[-2,-2],[-3,-3],[-2,-4],[-2,-3],[-15,-33],[-27,-25],[-70,-28],[-58,35],[-4,8],[-7,24],[-2,5],[-3,6],[0,2],[1,8],[10,13],[1,3],[1,2],[0,1],[0,2],[0,2],[-1,4],[-2,2],[-1,3],[-3,2],[-1,1],[-3,2]],[[2832,2997],[-1,0]],[[2831,2997],[-6,2]],[[2826,2999],[1,-1]],[[2827,2998],[1,0]],[[2829,2998],[-2,1]],[[2828,2998],[1,0]],[[2829,2998],[1,-1]],[[2829,2998],[-1,0]],[[2831,2997],[-1,0]],[[2830,2997],[-1,1]],[[2831,2997],[-1,0]],[[2830,2997],[-1,1]],[[2829,2998],[1,-1]],[[2830,2997],[1,0]],[[2819,3006],[0,2],[-3,-1],[3,-4]],[[2819,3003]],[[2819,3003]],[[2819,3003],[0,1]],[[2819,3004]],[[2819,3004],[1,0]],[[2820,3004]],[[2820,3004]],[[2820,3004]],[[2820,3004]],[[2820,3004]],[[2820,3004]],[[2820,3004]],[[2820,3004],[1,0]],[[2821,3004],[-2,2]],[[2774,3182],[-1,0],[-1,-1],[-1,0],[-1,0],[-12,-10],[-72,4],[-122,35],[-11,-23]],[[2553,3187],[1,-3]],[[2554,3184],[29,-37]],[[2583,3147],[1,-1]],[[2584,3146],[0,-2]],[[2584,3144],[1,-2]],[[2585,3142],[1,-2]],[[2586,3140],[1,0]],[[2587,3140],[0,-1]],[[2587,3139],[1,-1]],[[2787,3000],[-29,58],[-99,26],[-4,33],[-67,21]],[[2819,3008],[-6,17],[1,7],[3,9],[2,7],[1,8],[0,3],[0,2],[-6,15],[1,8],[0,1],[2,3],[1,3],[0,3],[8,17],[2,7],[1,2],[-1,7],[0,3]],[[2828,3130],[1,3]],[[2829,3133],[-32,52],[-16,-4],[-9,0],[-11,-9],[-3,-1],[-5,0]],[[2823,3004],[3,-4],[7,-3],[2,-1],[2,-2]],[[2837,2994]],[[2837,2994],[0,-3],[0,-2],[-1,-1],[0,-1],[-1,0],[-2,-1],[-1,0],[-1,0],[-2,0],[-12,8]],[[2817,2994],[-3,2]],[[2814,2996],[-18,1],[-2,1],[-7,2]],[[2822,3003],[3,-3]],[[2825,3000],[11,-13],[-19,7]],[[2817,2994],[-2,1],[-1,1]],[[2814,2996],[-1,0],[-1,0],[-16,1],[-2,1],[-5,2],[-2,0]],[[2825,3000],[2,-1],[5,-2],[5,-3]],[[2837,2994],[5,-9]],[[2960,3001],[-28,-34],[-22,-7],[-37,-11],[-6,1],[-4,1],[-2,0],[-11,8],[-9,29],[-4,6]],[[2837,2994],[-2,1],[-3,2],[-6,3],[-1,1],[-2,2]],[[2823,3003],[-3,4]],[[2820,3007],[-5,5],[-2,12],[2,60],[0,1],[1,3],[2,5],[8,18],[2,12]],[[2857,3156],[-21,-6]],[[2843,2984],[20,-33],[51,10]],[[3051,3078],[-27,-12],[-21,-30],[-3,-4],[-40,-31]],[[2960,3001],[4,3],[38,31],[10,17],[2,3],[3,4],[2,2],[2,2],[4,4],[3,2],[2,1],[3,2],[4,2],[4,1],[126,36],[53,23],[44,19],[20,9]],[[2814,2996],[3,-2]],[[2817,2994]],[[2817,2994],[-2,2],[-1,0]],[[2814,2996]],[[2814,2996]],[[2819,3006],[2,-2]],[[2821,3004],[1,-1]],[[2822,3003],[1,0]],[[2820,3007],[-1,-1]],[[2831,3132],[-2,1]],[[2828,3130],[3,2]],[[3121,3098],[4,1],[-4,-1]],[[3252,3148],[-4,-2],[3,1],[1,1]],[[3289,3164],[2,1],[-4,-2],[2,1]],[[2949,2992],[-13,-22]],[[2960,3001],[-10,-9]],[[3034,3072],[-74,-71]],[[3002,3035],[-42,-34]],[[3283,3161],[-232,-83]],[[3121,3098],[4,1],[-4,-1]],[[3252,3148],[-4,-2],[3,1],[1,1]],[[3289,3164],[2,1],[-4,-2],[2,1]],[[2787,3000],[-11,35]],[[2823,3004],[13,-9],[1,-2],[0,-3],[0,-1],[-1,-2],[-1,0],[-1,-1],[-2,0],[-1,0],[-2,0],[-1,1],[-11,7]],[[2817,2994],[-3,2]],[[2814,2996],[-18,1],[-2,1],[-7,2]],[[2822,3003],[15,-14],[-20,5]],[[2817,2994],[-2,1],[-1,1]],[[2814,2996],[-1,0],[-1,0],[-16,1],[-2,1],[-5,2],[-2,0]],[[2843,3160],[-7,-10]],[[2857,3156],[-1,0]],[[2856,3156],[-2,1]],[[2854,3157],[-2,1]],[[2852,3158],[-6,2]],[[2846,3160],[-1,0]],[[2845,3160],[-1,0]],[[2844,3160],[0,1]],[[2844,3161],[-1,-1]],[[2881,3151],[-24,5]],[[2958,3170],[-8,-19],[-90,5]],[[2814,2996],[3,-2]],[[2817,2994]],[[2817,2994],[-2,2],[-1,0]],[[2814,2996]],[[2814,2996]],[[0,4084],[106,12]],[[240,4096],[134,-45],[99,-5],[278,-180],[149,35],[74,-20],[53,-78],[67,-41],[31,8],[27,-46],[38,21],[33,-110],[33,24],[44,-69],[30,4],[-11,-75],[27,4],[24,-32]],[[2492,311],[5,-11]],[[2497,300]],[[2497,300],[-79,-171],[-139,-119],[-3,-10]],[[3287,351],[-24,-11],[-329,112],[-139,-314],[-51,68],[-246,93]],[[2498,299],[-1,2]],[[2497,301],[-4,10]],[[2497,301],[0,-1]],[[2497,300],[1,-1]],[[2960,3001],[-1,-1]],[[2959,3000],[-1,-1]],[[2958,2999],[-2,-2]],[[2956,2997],[-2,-1]],[[2954,2996],[-1,-1]],[[2953,2995],[-1,-1]],[[2952,2994],[-1,0]],[[2951,2994],[0,-1]],[[2951,2993],[-1,0]],[[2950,2993],[0,-1]],[[2950,2992],[-1,0]],[[2949,2992],[-1,-1]],[[2948,2991],[-1,-1]],[[2947,2990]],[[2947,2990],[-1,-1]],[[2946,2989],[-1,0]],[[2945,2989],[0,-1]],[[2945,2988],[-1,-1]],[[2944,2987]],[[2944,2987],[-1,-1]],[[2943,2986],[0,-1]],[[2943,2985],[0,-1]],[[2943,2984],[-1,-1]],[[2942,2983],[-1,-3]],[[2941,2980]],[[2941,2980],[-1,-3]],[[2940,2977],[-1,-2]],[[2939,2975],[0,-1]],[[2939,2974],[-1,-1]],[[2938,2973],[-1,-1]],[[2937,2972],[-1,-2]],[[2936,2970],[-1,0]],[[2935,2970],[-1,-1]],[[2934,2969],[-1,-1]],[[2933,2968],[-1,-1]],[[2932,2967],[-1,0]],[[2931,2967],[-1,-1]],[[2930,2966],[-1,0]],[[2929,2966],[-1,-1]],[[2928,2965],[-3,-1]],[[2925,2964],[-4,-1]],[[2921,2963],[-4,-1]],[[2917,2962],[-3,-1]],[[2914,2961]],[[2914,2961]],[[2914,2961],[-1,0]],[[2913,2961],[-3,-1]],[[2910,2960],[-2,-1]],[[2908,2959],[-3,-1]],[[2905,2958],[-3,-1]],[[2902,2957],[-4,-1]],[[2898,2956],[-4,-1]],[[2894,2955],[-1,0]],[[2893,2955],[-4,-2]],[[2889,2953],[-5,-1]],[[2884,2952],[-3,-1]],[[2881,2951],[-3,-1]],[[2878,2950],[-1,0]],[[2877,2950],[-2,0]],[[2875,2950],[-1,0]],[[2874,2950]],[[2874,2950],[-1,-1]],[[2873,2949],[-2,0]],[[2871,2949],[-2,0]],[[2869,2949]],[[2869,2949],[-1,1]],[[2868,2950],[-1,0]],[[2867,2950],[-1,0]],[[2866,2950],[-1,0]],[[2865,2950],[-1,0]],[[2864,2950],[-1,1]],[[2863,2951]],[[2863,2951],[-2,0]],[[2861,2951],[-1,1]],[[2860,2952],[-2,1]],[[2858,2953]],[[2858,2953],[-1,1]],[[2857,2954],[-1,0]],[[2856,2954],[-1,1]],[[2855,2955],[-1,1]],[[2854,2956],[-1,1]],[[2853,2957],[-1,1]],[[2852,2958],[-2,1]],[[2850,2959],[-1,2]],[[2849,2961],[-1,3]],[[2848,2964],[-1,0]],[[2847,2964],[0,2]],[[2847,2966],[0,1]],[[2847,2967],[-1,1]],[[2846,2968],[0,2]],[[2846,2970],[-1,1]],[[2845,2971],[0,2]],[[2845,2973]],[[2845,2973],[0,1]],[[2845,2974],[-1,2]],[[2844,2976],[0,2]],[[2844,2978],[-1,1]],[[2843,2979],[0,2]],[[2843,2981]],[[2843,2981],[0,1]],[[2843,2982],[0,1]],[[2843,2983]],[[2843,2983]],[[2843,2983],[0,1]],[[2843,2984],[-1,1]],[[2842,2985],[0,1]],[[2842,2986],[0,1]],[[2842,2987]],[[2842,2987],[-1,1]],[[2841,2988]],[[2841,2988],[0,1]],[[2841,2989]],[[2841,2989],[-1,1]],[[2840,2990],[0,1]],[[2840,2991],[-1,0]],[[2839,2991],[0,1]],[[2839,2992]],[[2839,2992],[-1,1]],[[2838,2993],[-1,1]],[[2837,2994]],[[2837,2994],[-1,0]],[[2836,2994],[0,1]],[[2836,2995]],[[2836,2995],[-1,0]],[[2835,2995]],[[2835,2995],[-1,1]],[[2834,2996]],[[2834,2996],[-1,0]],[[2833,2996],[0,1]],[[2833,2997]],[[2833,2997],[-1,0]],[[2832,2997]],[[2832,2997],[-1,0]],[[2831,2997],[0,1]],[[2831,2998],[-2,0]],[[2829,2998],[-1,1]],[[2828,2999]],[[2828,2999],[-1,0]],[[2827,2999],[0,1]],[[2827,3000],[-1,0]],[[2826,3000]],[[2826,3000]],[[2826,3000],[-1,1]],[[2825,3001]],[[2825,3001],[-1,0]],[[2824,3001],[0,1]],[[2824,3002],[-1,0]],[[2823,3002],[0,1]],[[2823,3003],[-3,4]],[[2848,2964],[-6,22],[-1,2],[-1,2],[-1,2],[-2,2],[-1,1],[-4,2],[-6,3],[-6,7]],[[2960,3001],[1,0]],[[2961,3001],[0,1]],[[2961,3002],[1,0]],[[2962,3002],[1,1]],[[2963,3003],[1,1]],[[2964,3004],[2,1]],[[2966,3005],[1,2]],[[2967,3007],[2,1]],[[2969,3008],[2,2]],[[2971,3010],[4,2]],[[2975,3012],[3,3]],[[2978,3015],[4,3]],[[2982,3018],[4,3]],[[2986,3021],[6,5]],[[2992,3026],[1,1]],[[2993,3027],[2,2]],[[2995,3029],[2,1]],[[2997,3030],[0,1]],[[2997,3031],[1,0]],[[2998,3031],[1,1]],[[2999,3032],[1,0]],[[3000,3032],[0,1]],[[3000,3033]],[[3000,3033],[1,0]],[[3001,3033],[0,1]],[[3001,3034],[1,0]],[[3002,3034],[0,1]],[[3002,3035],[1,0]],[[3003,3035]],[[3003,3035],[0,1]],[[3003,3036]],[[3003,3036],[1,0]],[[3004,3036],[0,1]],[[3004,3037],[1,0]],[[3005,3037],[0,1]],[[3005,3038],[1,1]],[[3006,3039],[0,1]],[[3006,3040],[0,1]],[[3006,3041],[1,1]],[[3007,3042],[1,2]],[[3008,3044]],[[3008,3044],[1,2]],[[3009,3046]],[[3009,3046],[1,2]],[[3010,3048]],[[3010,3048],[1,2]],[[3011,3050],[0,1]],[[3011,3051],[1,1]],[[3012,3052],[1,1]],[[3013,3053],[0,1]],[[3013,3054],[1,1]],[[3014,3055],[1,2]],[[3015,3057],[1,1]],[[3016,3058],[1,1]],[[3017,3059],[1,1]],[[3018,3060],[1,1]],[[3019,3061],[1,1]],[[3020,3062],[1,1]],[[3021,3063],[1,1]],[[3022,3064],[2,2]],[[3024,3066],[1,1]],[[3025,3067],[1,1]],[[3026,3068],[2,1]],[[3028,3069],[2,1]],[[3030,3070],[1,1]],[[3031,3071],[1,0]],[[3032,3071],[1,1]],[[3033,3072],[1,0]],[[2960,3001],[1,0]],[[2961,3001],[0,1]],[[2961,3002],[1,0]],[[2962,3002],[1,1]],[[2963,3003],[1,1]],[[2964,3004],[2,1]],[[2966,3005],[1,2]],[[2967,3007],[2,1]],[[2969,3008],[2,2]],[[2971,3010],[3,3]],[[2974,3013],[3,2]],[[2977,3015],[4,3]],[[2981,3018],[4,3]],[[2985,3021],[2,1]],[[2987,3022],[2,2]],[[2989,3024],[3,3]],[[2992,3027],[3,2]],[[2995,3029],[1,1]],[[2996,3030],[2,1]],[[2998,3031],[1,1]],[[2999,3032],[1,1]],[[3000,3033],[1,1]],[[3001,3034],[1,1]],[[3002,3035]],[[3764,3959],[-10,1]],[[3754,3960],[-18,1]],[[3736,3961]],[[3736,3961],[-2,0]],[[3734,3961],[-1,1]],[[3733,3962],[-2,0]],[[3731,3962],[-2,0]],[[3729,3962],[-2,0]],[[3727,3962],[-3,0]],[[3724,3962],[-2,0]],[[3722,3962],[-2,1]],[[3720,3963],[-4,0]],[[3716,3963],[-1,0]],[[3715,3963],[-1,0]],[[3714,3963]],[[3714,3963],[-2,0]],[[3712,3963],[-2,0]],[[3710,3963],[-2,1]],[[3708,3964]],[[3708,3964],[-1,0]],[[3707,3964],[-1,-1]],[[3706,3963],[-1,0]],[[3705,3963],[-1,0]],[[3704,3963]],[[3704,3963],[-1,0]],[[3703,3963],[-1,-1]],[[3702,3962],[-2,0]],[[3700,3962],[-1,-1]],[[3699,3961]],[[3699,3961],[-1,-1]],[[3698,3960],[-1,0]],[[3697,3960],[-1,-1]],[[3696,3959],[-1,0]],[[3695,3959],[-1,-1]],[[3694,3958],[-1,-1]],[[3693,3957],[0,-1]],[[3693,3956],[-1,-1]],[[3692,3955],[0,-1]],[[3692,3954],[-1,0]],[[3691,3954],[-1,-1]],[[3690,3953],[0,-1]],[[3690,3952],[-1,-2]],[[3689,3950],[-2,-3]],[[3687,3947],[-1,-2]],[[3686,3945],[-2,-2]],[[3684,3943],[0,-2]],[[3684,3941],[-1,-1]],[[3683,3940]],[[3683,3940],[-1,-1]],[[3682,3939],[-1,-1]],[[3681,3938],[-1,0]],[[3680,3938],[0,-1]],[[3680,3937],[-1,0]],[[3679,3937],[-1,-1]],[[3678,3936],[-1,0]],[[3677,3936],[-1,0]],[[3676,3936],[-1,0]],[[3675,3936],[-1,0]],[[3674,3936]],[[3674,3936],[-1,0]],[[3673,3936],[-1,0]],[[3672,3936],[-1,0]],[[3671,3936],[-1,0]],[[3670,3936],[-1,1]],[[3669,3937],[-3,1]],[[3666,3938],[-1,0]],[[3665,3938],[-1,1]],[[3664,3939],[-1,0]],[[3663,3939]],[[3663,3939],[-1,0]],[[3662,3939],[-1,0]],[[3661,3939],[-1,0]],[[3660,3939],[-1,-1]],[[3659,3938],[-2,0]],[[3657,3938],[0,-1]],[[3657,3937],[-1,0]],[[3656,3937],[-1,-1]],[[3655,3936]],[[3655,3936],[-1,-1]],[[3654,3935],[-1,-1]],[[3653,3934],[0,-1]],[[3653,3933]],[[3653,3933],[-1,-1]],[[3652,3932],[0,-1]],[[3652,3931],[0,-1]],[[3652,3930]],[[3652,3930],[0,-2]],[[3652,3928],[0,-1]],[[3652,3927],[-1,-3]],[[3651,3924],[0,-3]],[[3651,3921],[0,-3]],[[3651,3918],[0,-3]],[[3651,3915],[0,-1]],[[3651,3914],[-1,-1]],[[3650,3913]],[[3650,3913],[0,-1]],[[3650,3912],[1,-1]],[[3651,3911]],[[3651,3911],[0,-1]],[[3651,3910],[0,-1]],[[3651,3909],[0,-2]],[[3651,3907],[1,-1]],[[3652,3906],[0,-2]],[[3652,3904],[1,-2]],[[3653,3902],[1,-3]],[[3654,3899],[0,-1]],[[3654,3898],[1,-1]],[[3655,3897],[0,-1]],[[3655,3896]],[[3655,3896]],[[3655,3896],[0,-1]],[[3655,3895],[0,-1]],[[3655,3894],[-1,-1]],[[3654,3893],[0,-1]],[[3654,3892]],[[3654,3892],[0,-1]],[[3654,3891],[-1,-1]],[[3653,3890],[0,-1]],[[3653,3889],[-1,-1]],[[3652,3888]],[[3652,3888]],[[3652,3888],[-1,-1]],[[3651,3887],[-1,-1]],[[3650,3886],[-2,-2]],[[3648,3884],[-2,-1]],[[3646,3883],[-3,-2]],[[3643,3881],[-1,-2]],[[3642,3879],[-4,-3]],[[3638,3876],[-2,-2]],[[3636,3874],[-2,-1]],[[3634,3873],[-2,-2]],[[3632,3871],[-1,-1]],[[3631,3870],[-1,-1]],[[3630,3869],[-1,-1]],[[3629,3868],[-1,-1]],[[3628,3867],[-1,0]],[[3627,3867],[0,-1]],[[3627,3866],[-1,-1]],[[3626,3865],[0,-1]],[[3626,3864]],[[3626,3864],[-1,-1]],[[3625,3863],[0,-1]],[[3625,3862],[0,-1]],[[3625,3861]],[[3625,3861],[-1,-1]],[[3624,3860],[0,-1]],[[3624,3859],[0,-1]],[[3624,3858]],[[3624,3858],[0,-1]],[[3624,3857],[1,-2]],[[3625,3855],[0,-1]],[[3625,3854],[0,-4]],[[3625,3850],[0,-2]],[[3625,3848],[0,-1]],[[3625,3847],[1,-3]],[[3626,3844],[0,-1]],[[3626,3843],[0,-1]],[[3626,3842],[0,-1]],[[3626,3841],[0,-1]],[[3626,3840],[0,-2]],[[3626,3838],[0,-1]],[[3626,3837],[0,-1]],[[3626,3836],[0,-1]],[[3626,3835],[0,-1]],[[3626,3834],[0,-1]],[[3626,3833],[0,-1]],[[3626,3832],[0,-1]],[[3626,3831],[-1,-1]],[[3625,3830],[0,-3]],[[3625,3827],[-1,-2]],[[3624,3825],[0,-1]],[[3624,3824],[-1,-2]],[[3623,3822],[0,-1]],[[3623,3821],[0,-2]],[[3623,3819],[-1,-1]],[[3622,3818],[0,-2]],[[3622,3816],[-1,-3]],[[3621,3813],[-1,-1]],[[3620,3812],[0,-1]],[[3620,3811],[0,-2]],[[3620,3809],[-1,-1]],[[3619,3808],[0,-2]],[[3619,3806],[0,-1]],[[3619,3805],[0,-1]],[[3619,3804],[0,-1]],[[3619,3803],[0,-1]],[[3619,3802],[0,-1]],[[3619,3801],[0,-1]],[[3619,3800],[0,-1]],[[3619,3799],[0,-1]],[[3619,3798],[0,-1]],[[3619,3797]],[[3619,3797],[2,-5]],[[3621,3792],[1,-4]],[[3622,3788],[1,-4]],[[3623,3784],[0,-1]],[[3623,3783],[1,-1]],[[3624,3782],[0,-1]],[[3624,3781],[0,-1]],[[3624,3780],[0,-1]],[[3624,3779],[0,-1]],[[3624,3778],[0,-1]],[[3624,3777]],[[3624,3777],[-1,-1]],[[3623,3776],[0,-2]],[[3623,3774]],[[3623,3774],[-1,-2]],[[3622,3772],[0,-1]],[[3622,3771],[-1,0]],[[3621,3771],[-1,-2]],[[3620,3769],[-1,-1]],[[3619,3768],[-2,-3]],[[3617,3765],[-1,-2]],[[3616,3763],[-1,-1]],[[3615,3762],[-2,-2]],[[3613,3760],[-1,-2]],[[3612,3758],[-1,-1]],[[3611,3757],[0,-1]],[[3611,3756],[-1,-1]],[[3610,3755],[-1,-1]],[[3609,3754],[-1,0]],[[3608,3754],[-1,-1]],[[3607,3753],[-2,-1]],[[3605,3752],[-2,-1]],[[3603,3751],[-1,-1]],[[3602,3750],[-1,-1]],[[3601,3749],[-1,0]],[[3600,3749],[-1,-1]],[[3599,3748],[0,-1]],[[3599,3747],[-1,-1]],[[3598,3746],[0,-1]],[[3598,3745],[-1,0]],[[3597,3745],[0,-2]],[[3597,3743],[-1,-2]],[[3596,3741],[-1,-2]],[[3595,3739],[-1,-2]],[[3594,3737],[-1,-3]],[[3593,3734],[-1,-1]],[[3592,3733],[-1,-2]],[[3591,3731],[0,-1]],[[3591,3730],[0,-2]],[[3591,3728],[0,-1]],[[3591,3727],[-1,-1]],[[3590,3726],[0,-2]],[[3590,3724],[0,-1]],[[3590,3723],[0,-2]],[[3590,3721],[0,-1]],[[3590,3720],[0,-1]],[[3590,3719],[0,-2]],[[3590,3717],[0,-3]],[[3590,3714],[1,-2]],[[3591,3712],[0,-3]],[[3591,3709],[0,-4]],[[3591,3705],[1,-4]],[[3592,3701],[0,-6]],[[3592,3695],[1,-7]],[[3593,3688],[0,-1]],[[3593,3687]],[[3593,3687],[0,-3]],[[3593,3684],[1,-3]],[[3594,3681],[0,-1]],[[3594,3680],[0,-1]],[[3594,3679],[0,-1]],[[3594,3678],[0,-1]],[[3594,3677],[0,-2]],[[3594,3675],[-1,0]],[[3593,3675],[0,-1]],[[3593,3674],[0,-1]],[[3593,3673],[0,-1]],[[3593,3672],[0,-1]],[[3593,3671],[-1,-1]],[[3592,3670],[0,-1]],[[3592,3669],[-1,-2]],[[3591,3667],[0,-1]],[[3591,3666],[-2,-3]],[[3589,3663],[0,-1]],[[3589,3662],[-1,-1]],[[3588,3661],[0,-2]],[[3588,3659],[-1,-1]],[[3587,3658],[0,-2]],[[3587,3656],[-1,-2]],[[3586,3654],[-1,-1]],[[3585,3653],[0,-1]],[[3585,3652],[0,-1]],[[3585,3651],[-1,0]],[[3584,3651],[0,-1]],[[3584,3650],[0,-1]],[[3584,3649],[-1,-1]],[[3583,3648]],[[3583,3648]],[[3583,3648],[0,-1]],[[3583,3647],[-1,-2]],[[3582,3645],[-1,-2]],[[3581,3643]],[[3581,3643],[0,-1]],[[3581,3642],[-1,-2]],[[3580,3640],[0,-2]],[[3580,3638],[-1,-1]],[[3579,3637],[0,-2]],[[3579,3635],[0,-1]],[[3579,3634],[0,-2]],[[3579,3632],[-1,-2]],[[3578,3630],[0,-4]],[[3578,3626],[0,-5]],[[3578,3621],[-1,-1]],[[3577,3620],[0,-1]],[[3577,3619],[0,-3]],[[3577,3616],[0,-5]],[[3577,3611],[-1,-4]],[[3576,3607],[0,-2]],[[3576,3605],[0,-2]],[[3576,3603],[0,-4]],[[3576,3599],[-1,-4]],[[3575,3595],[0,-4]],[[3575,3591],[0,-1]],[[3575,3590],[0,-2]],[[3575,3588],[-1,-4]],[[3574,3584],[0,-4]],[[3574,3580],[0,-3]],[[3574,3577],[-1,-5]],[[3573,3572],[0,-6]],[[3573,3566],[-1,-14]],[[3572,3552],[-1,-3]],[[3571,3549],[0,-4]],[[3571,3545],[0,-4]],[[3571,3541],[-1,-4]],[[3570,3537],[0,-4]],[[3570,3533],[0,-2]],[[3570,3531],[0,-2]],[[3570,3529],[-1,-4]],[[3569,3525],[0,-4]],[[3569,3521],[0,-1]],[[3569,3520]],[[3569,3520],[0,-3]],[[3569,3517],[-1,-3]],[[3568,3514],[0,-3]],[[3568,3511],[0,-2]],[[3568,3509],[-1,-5]],[[3567,3504]],[[3567,3504],[0,-2]],[[3567,3502],[0,-2]],[[3567,3500],[0,-2]],[[3567,3498],[-1,-9]],[[3566,3489],[0,-4]],[[3566,3485],[-1,-4]],[[3565,3481],[0,-7]],[[3565,3474],[0,-1]],[[3565,3473],[-1,-2]],[[3564,3471],[0,-1]],[[3564,3470],[0,-1]],[[3564,3469],[-1,-1]],[[3563,3468],[0,-2]],[[3563,3466],[-1,0]],[[3562,3466],[0,-1]],[[3562,3465],[-1,-1]],[[3561,3464],[0,-1]],[[3561,3463],[-1,0]],[[3560,3463],[0,-1]],[[3560,3462],[-1,-2]],[[3559,3460],[-2,-2]],[[3557,3458],[-1,-1]],[[3556,3457],[-1,-2]],[[3555,3455],[-1,-1]],[[3554,3454],[-2,-2]],[[3552,3452],[0,-1]],[[3552,3451],[-1,-1]],[[3551,3450]],[[3551,3450],[-1,-1]],[[3550,3449],[-1,-2]],[[3549,3447],[-2,-3]],[[3547,3444],[-3,-3]],[[3544,3441],[-1,-1]],[[3543,3440],[-1,-2]],[[3542,3438],[-3,-3]],[[3539,3435],[-2,-3]],[[3537,3432],[-1,-1]],[[3536,3431],[-1,-2]],[[3535,3429],[-1,-2]],[[3534,3427],[-3,-3]],[[3531,3424],[-1,-2]],[[3530,3422],[-4,-4]],[[3526,3418],[-5,-7]],[[3521,3411],[-2,-3]],[[3519,3408],[-3,-4]],[[3516,3404],[-2,-3]],[[3514,3401],[-3,-3]],[[3511,3398],[-1,-2]],[[3510,3396],[-1,-1]],[[3509,3395],[-1,-2]],[[3508,3393],[-1,0]],[[3507,3393],[0,-1]],[[3507,3392],[-1,-1]],[[3506,3391],[-8,-11]],[[3498,3380],[-12,-16]],[[3486,3364],[-1,-1]],[[3485,3363],[0,-1]],[[3485,3362],[-2,-2]],[[3483,3360],[-8,-11]],[[3475,3349],[-6,-7]],[[3469,3342],[-1,-1]],[[3468,3341],[-2,-3]],[[3466,3338],[-3,-4]],[[3463,3334],[-3,-4]],[[3460,3330],[0,-1]],[[3460,3329],[-4,-4]],[[3456,3325],[-2,-3]],[[3454,3322],[-2,-2]],[[3452,3320],[-1,-2]],[[3451,3318],[-3,-4]],[[3448,3314],[-3,-5]],[[3445,3309],[-2,-2]],[[3443,3307],[-2,-2]],[[3441,3305],[-1,-1]],[[3440,3304],[-1,-1]],[[3439,3303],[-2,-2]],[[3437,3301],[0,-1]],[[3437,3300],[-6,-5]],[[3431,3295],[-6,-6]],[[3425,3289],[-11,-12]],[[3414,3277],[-3,-3]],[[3411,3274],[-3,-3]],[[3408,3271],[0,-1]],[[3408,3270],[-5,-4]],[[3403,3266],[-8,-8]],[[3395,3258]],[[3395,3258],[-1,-2]],[[3394,3256],[-2,-2]],[[3392,3254],[-1,0]],[[3391,3254],[-1,-1]],[[3390,3253],[-1,-2]],[[3389,3251],[-1,-1]],[[3388,3250],[-1,-1]],[[3387,3249],[-3,-3]],[[3384,3246],[-2,-2]],[[3382,3244],[-3,-3]],[[3379,3241],[-2,-3]],[[3377,3238],[-5,-4]],[[3372,3234],[-4,-4]],[[3368,3230],[-4,-5]],[[3364,3225],[-4,-4]],[[3360,3221],[-5,-5]],[[3355,3216],[-3,-3]],[[3352,3213],[-3,-3]],[[3349,3210],[-2,-2]],[[3347,3208],[-2,-2]],[[3345,3206],[-2,-2]],[[3343,3204],[-2,-3]],[[3341,3201],[-2,-2]],[[3339,3199],[-4,-4]],[[3335,3195],[-5,-5]],[[3330,3190],[-2,-2]],[[3328,3188],[-3,-3]],[[3325,3185],[-1,-2]],[[3324,3183],[-2,-1]],[[3322,3182],[-2,-2]],[[3320,3180],[-2,-2]],[[3318,3178],[-2,-1]],[[3316,3177],[-3,-2]],[[3313,3175],[-2,-1]],[[3311,3174]],[[3311,3174],[-1,-1]],[[3310,3173],[-2,-1]],[[3308,3172],[-1,0]],[[3307,3172],[-4,-2]],[[3303,3170],[-3,-1]],[[3300,3169],[-2,-1]],[[3298,3168],[-1,-1]],[[3297,3167],[-1,0]],[[3296,3167],[-1,0]],[[3295,3167],[-1,-1]],[[3294,3166],[-1,0]],[[3293,3166],[-2,-1]],[[3291,3165],[-2,-1]],[[3289,3164],[-1,-1]],[[3288,3163],[-2,0]],[[3286,3163],[-1,-1]],[[3285,3162],[-2,0]],[[3283,3162],[-1,-1]],[[3282,3161]],[[3282,3161],[-3,-1]],[[3279,3160],[-4,-2]],[[3275,3158],[-3,-1]],[[3272,3157],[-4,-2]],[[3268,3155],[-4,-2]],[[3264,3153],[-1,0]],[[3263,3153],[-4,-2]],[[3259,3151],[-4,-2]],[[3255,3149],[-1,0]],[[3254,3149],[-1,-1]],[[3253,3148],[-2,-1]],[[3251,3147],[-3,-1]],[[3248,3146],[-1,0]],[[3247,3146],[-1,0]],[[3246,3146],[-5,-3]],[[3241,3143],[-5,-2]],[[3236,3141],[-4,-2]],[[3232,3139],[-3,-1]],[[3229,3138],[-5,-2]],[[3224,3136],[-4,-2]],[[3220,3134],[-3,-1]],[[3217,3133],[-3,-2]],[[3214,3131],[-4,-1]],[[3210,3130],[-1,-1]],[[3209,3129],[-3,-1]],[[3206,3128],[-5,-2]],[[3201,3126],[-4,-2]],[[3197,3124],[-2,-1]],[[3195,3123],[-1,0]],[[3194,3123],[-4,-2]],[[3190,3121],[-3,-2]],[[3187,3119],[-4,-1]],[[3183,3118],[-3,-2]],[[3180,3116],[-4,-1]],[[3176,3115],[-3,-2]],[[3173,3113],[-3,-1]],[[3170,3112],[-3,-1]],[[3167,3111],[-2,-1]],[[3165,3110],[-3,-1]],[[3162,3109],[-1,0]],[[3161,3109],[-2,-1]],[[3159,3108],[-3,-1]],[[3156,3107],[-5,-1]],[[3151,3106],[-3,-1]],[[3148,3105],[-3,-1]],[[3145,3104],[-2,0]],[[3143,3104],[-2,-1]],[[3141,3103],[-2,0]],[[3139,3103],[-2,-1]],[[3137,3102],[-1,0]],[[3136,3102],[-2,-1]],[[3134,3101],[-1,0]],[[3133,3101],[-1,0]],[[3132,3101],[-2,-1]],[[3130,3100],[-1,0]],[[3129,3100],[-1,0]],[[3128,3100],[-2,-1]],[[3126,3099],[-2,0]],[[3124,3099],[-1,-1]],[[3123,3098],[-1,0]],[[3122,3098],[-1,0]],[[3121,3098],[-1,-1]],[[3120,3097],[-2,0]],[[3118,3097],[-1,0]],[[3117,3097],[-1,-1]],[[3116,3096],[-2,0]],[[3114,3096],[-1,0]],[[3113,3096],[-1,-1]],[[3112,3095],[-3,-1]],[[3109,3094],[-2,0]],[[3107,3094],[-1,-1]],[[3106,3093],[-4,-1]],[[3102,3092],[-4,-1]],[[3098,3091],[-4,-1]],[[3094,3090],[-3,-1]],[[3091,3089],[-4,-1]],[[3087,3088],[-4,-1]],[[3083,3087],[-2,-1]],[[3081,3086],[-3,0]],[[3078,3086],[-2,-1]],[[3076,3085],[-2,-1]],[[3074,3084],[-2,0]],[[3072,3084],[-3,-1]],[[3069,3083],[-1,0]],[[3068,3083],[-3,-1]],[[3065,3082],[-2,-1]],[[3063,3081],[-3,-1]],[[3060,3080],[-3,-1]],[[3057,3079],[-1,0]],[[3056,3079],[-2,0]],[[3054,3079],[-2,-1]],[[3052,3078],[-1,0]],[[3051,3078],[-3,-1]],[[3048,3077],[-2,-1]],[[3046,3076],[-1,0]],[[3045,3076],[-2,0]],[[3043,3076],[-2,-1]],[[3041,3075],[-1,0]],[[3040,3075]],[[3040,3075],[-2,-1]],[[3038,3074]],[[3038,3074],[-1,0]],[[3037,3074],[-2,-1]],[[3764,3959],[12,-1]],[[3776,3958],[16,-2]],[[3792,3956],[4,0]],[[3796,3956],[4,0]],[[3800,3956],[1,-1]],[[3801,3955],[1,0]],[[3802,3955],[1,0]],[[3803,3955],[1,0]],[[3804,3955]],[[3804,3955],[1,0]],[[3805,3955],[4,1]],[[3809,3956],[2,1]],[[3811,3957],[2,0]],[[3813,3957],[3,0]],[[3816,3957],[2,1]],[[3818,3958],[1,0]],[[3819,3958],[1,0]],[[3820,3958]],[[3820,3958],[1,0]],[[3821,3958],[2,0]],[[3823,3958],[1,0]],[[3824,3958],[1,0]],[[3825,3958],[1,0]],[[3826,3958],[3,-1]],[[3829,3957],[1,0]],[[3830,3957],[2,0]],[[3832,3957],[1,0]],[[3833,3957],[3,-1]],[[3836,3956],[2,0]],[[3838,3956],[3,0]],[[3841,3956],[3,-1]],[[3844,3955],[1,0]],[[3845,3955],[3,0]],[[3848,3955],[3,-1]],[[3851,3954],[1,0]],[[3852,3954],[1,0]],[[3853,3954],[1,0]],[[3854,3954],[1,0]],[[3855,3954]],[[3855,3954],[1,0]],[[3856,3954],[2,1]],[[3858,3955]],[[3858,3955],[1,0]],[[3859,3955],[1,0]],[[3860,3955],[1,0]],[[3861,3955],[1,1]],[[3862,3956],[1,0]],[[3863,3956],[1,1]],[[3864,3957]],[[3390,3253],[1,0]],[[3391,3253],[0,1]],[[3391,3254],[1,0]],[[3392,3254],[2,3]],[[3394,3257],[1,1]],[[3508,3393],[0,1]],[[3508,3394],[1,0]],[[3509,3394],[0,1]],[[3509,3395],[1,1]],[[3510,3396]],[[3510,3396],[1,1]],[[3511,3397],[0,1]],[[3511,3398],[1,1]],[[3512,3399],[1,0]],[[3513,3399],[0,1]],[[3513,3400],[1,1]],[[3514,3401]],[[3514,3401],[1,1]],[[3515,3402],[0,1]],[[3515,3403],[1,1]],[[3516,3404],[1,1]],[[3517,3405],[0,1]],[[3517,3406],[1,1]],[[3518,3407],[1,1]],[[3519,3408]],[[3519,3408],[0,1]],[[3519,3409],[1,0]],[[3520,3409],[0,1]],[[3520,3410],[1,0]],[[3521,3410],[0,1]],[[3521,3411],[1,0]],[[3522,3411],[0,1]],[[3522,3412],[1,1]],[[3523,3413],[1,1]],[[3524,3414],[1,1]],[[3525,3415],[0,1]],[[3525,3416],[1,1]],[[3526,3417],[1,1]],[[3527,3418],[0,1]],[[3527,3419],[1,1]],[[3528,3420]],[[3528,3420],[1,1]],[[3529,3421],[1,1]],[[3530,3422],[0,1]],[[3530,3423],[1,1]],[[3531,3424],[2,2]],[[3533,3426],[1,2]],[[3534,3428],[1,1]],[[3535,3429],[1,1]],[[3536,3430],[0,1]],[[3536,3431],[1,1]],[[3537,3432]],[[3537,3432],[1,1]],[[3538,3433],[1,1]],[[3539,3434],[1,1]],[[3540,3435],[1,2]],[[3541,3437],[1,1]],[[3542,3438],[1,2]],[[3543,3440],[2,2]],[[3545,3442],[1,2]],[[3546,3444],[1,1]],[[3547,3445],[1,2]],[[3548,3447],[1,1]],[[3549,3448],[1,1]],[[3550,3449],[1,1]],[[3551,3450],[0,1]],[[3551,3451],[1,0]],[[3552,3451],[1,2]],[[3553,3453],[0,1]],[[3553,3454],[1,0]],[[3554,3454],[1,1]],[[3555,3455],[1,2]],[[3556,3457],[1,2]],[[3557,3459],[2,1]],[[3559,3460],[0,1]],[[3559,3461],[1,1]],[[3560,3462],[0,1]],[[3560,3463],[1,0]],[[3561,3463],[0,1]],[[3561,3464],[1,1]],[[3562,3465],[0,1]],[[3562,3466]],[[3562,3466],[1,2]],[[3563,3468],[0,1]],[[3563,3469],[1,1]],[[3564,3470],[0,1]],[[3564,3471],[1,2]],[[3565,3473],[0,1]],[[3565,3474],[0,7]],[[3565,3481],[1,4]],[[3566,3485],[0,4]],[[3566,3489],[1,9]],[[3567,3498],[0,2]],[[3567,3500],[0,2]],[[3567,3502],[0,2]],[[3567,3504]],[[3567,3504],[1,5]],[[3568,3509],[0,2]],[[3568,3511],[0,3]],[[3568,3514],[0,3]],[[3568,3517],[1,3]],[[3569,3520]],[[3569,3520],[0,1]],[[3569,3521],[0,4]],[[3569,3525],[1,4]],[[3570,3529],[0,2]],[[3570,3531],[0,2]],[[3570,3533],[0,4]],[[3570,3537],[1,4]],[[3571,3541],[0,4]],[[3571,3545],[0,4]],[[3571,3549],[0,3]],[[3571,3552],[2,14]],[[3573,3566],[0,6]],[[3573,3572],[1,5]],[[3574,3577],[0,3]],[[3574,3580],[0,4]],[[3574,3584],[1,4]],[[3575,3588],[0,2]],[[3575,3590],[0,1]],[[3575,3591],[0,4]],[[3575,3595],[1,4]],[[3576,3599],[0,4]],[[3576,3603],[0,2]],[[3576,3605],[0,2]],[[3576,3607],[1,4]],[[3577,3611],[0,5]],[[3577,3616],[0,3]],[[3577,3619],[0,1]],[[3577,3620],[1,1]],[[3578,3621],[0,5]],[[3578,3626],[0,4]],[[3578,3630],[1,2]],[[3579,3632],[0,2]],[[3579,3634],[0,1]],[[3579,3635],[0,2]],[[3579,3637],[1,1]],[[3580,3638],[0,2]],[[3580,3640],[1,2]],[[3581,3642],[0,1]],[[3581,3643]],[[3581,3643],[1,2]],[[3582,3645],[1,2]],[[3583,3647],[0,1]],[[3583,3648]],[[3583,3648],[1,2]],[[3584,3650],[1,1]],[[3585,3651],[0,2]],[[3585,3653],[1,1]],[[3586,3654],[1,2]],[[3587,3656],[0,2]],[[3587,3658],[1,1]],[[3588,3659],[1,2]],[[3589,3661],[0,2]],[[3589,3663],[2,3]],[[3591,3666],[0,2]],[[3591,3668],[1,1]],[[3592,3669],[0,1]],[[3592,3670],[0,1]],[[3592,3671],[1,1]],[[3593,3672],[0,1]],[[3593,3673],[0,1]],[[3593,3674],[0,1]],[[3593,3675]],[[3593,3675],[1,2]],[[3594,3677],[0,1]],[[3594,3678],[0,1]],[[3594,3679],[0,1]],[[3594,3680],[0,1]],[[3594,3681],[-1,3]],[[3593,3684],[0,3]],[[3593,3687]],[[3593,3687],[-1,9]],[[3592,3696],[-1,15]],[[3591,3711],[-1,5]],[[3590,3716],[0,2]],[[3590,3718],[0,1]],[[3590,3719],[0,2]],[[3590,3721],[0,1]],[[3590,3722],[0,1]],[[3590,3723],[0,2]],[[3590,3725],[0,2]],[[3590,3727],[1,0]],[[3591,3727],[0,3]],[[3591,3730],[0,1]],[[3591,3731],[1,1]],[[3592,3732],[0,2]],[[3592,3734],[1,1]],[[3593,3735],[1,2]],[[3594,3737],[1,2]],[[3595,3739],[1,4]],[[3596,3743],[1,1]],[[3597,3744],[1,1]],[[3598,3745],[0,1]],[[3598,3746],[1,1]],[[3599,3747]],[[3599,3747],[1,1]],[[3600,3748],[1,1]],[[3601,3749],[1,1]],[[3602,3750]],[[3602,3750],[2,1]],[[3604,3751],[1,1]],[[3605,3752],[1,1]],[[3606,3753],[1,0]],[[3607,3753],[1,1]],[[3608,3754],[1,1]],[[3609,3755],[1,0]],[[3610,3755],[0,1]],[[3610,3756],[2,2]],[[3612,3758],[1,2]],[[3613,3760],[2,2]],[[3615,3762],[2,3]],[[3617,3765],[2,3]],[[3619,3768],[1,2]],[[3620,3770],[1,1]],[[3621,3771],[1,0]],[[3622,3771],[0,1]],[[3622,3772],[0,1]],[[3622,3773],[1,1]],[[3623,3774],[0,1]],[[3623,3775],[0,1]],[[3623,3776],[1,1]],[[3624,3777],[0,1]],[[3624,3778],[0,1]],[[3624,3779],[0,1]],[[3624,3780]],[[3624,3780],[0,1]],[[3624,3781],[-1,1]],[[3623,3782],[0,1]],[[3623,3783],[0,2]],[[3623,3785],[-1,2]],[[3622,3787],[-1,5]],[[3621,3792],[-2,4]],[[3619,3796],[0,1]],[[3619,3797],[0,2]],[[3619,3799],[0,1]],[[3619,3800],[0,2]],[[3619,3802]],[[3619,3802],[0,1]],[[3619,3803],[0,2]],[[3619,3805],[0,1]],[[3619,3806],[0,2]],[[3619,3808],[1,2]],[[3620,3810],[0,1]],[[3620,3811],[1,3]],[[3621,3814],[0,1]],[[3621,3815],[1,2]],[[3622,3817],[0,2]],[[3622,3819]],[[3622,3819],[1,4]],[[3623,3823],[1,2]],[[3624,3825],[1,2]],[[3625,3827],[0,3]],[[3625,3830],[1,2]],[[3626,3832],[0,2]],[[3626,3834],[0,1]],[[3626,3835],[0,2]],[[3626,3837],[0,2]],[[3626,3839],[0,1]],[[3626,3840],[0,4]],[[3626,3844],[-1,3]],[[3625,3847],[0,1]],[[3625,3848],[0,2]],[[3625,3850],[0,3]],[[3625,3853],[-1,5]],[[3624,3858],[0,1]],[[3624,3859],[1,2]],[[3625,3861],[0,1]],[[3625,3862]],[[3625,3862],[0,1]],[[3625,3863]],[[3625,3863],[1,1]],[[3626,3864]],[[3626,3864],[0,1]],[[3626,3865],[1,1]],[[3627,3866]],[[3627,3866],[1,1]],[[3628,3867],[1,1]],[[3629,3868],[1,1]],[[3630,3869],[5,5]],[[3635,3874],[15,13]],[[3650,3887],[2,1]],[[3652,3888],[1,1]],[[3653,3889],[0,1]],[[3653,3890],[1,0]],[[3654,3890],[0,2]],[[3654,3892]],[[3654,3892],[0,1]],[[3654,3893]],[[3654,3893],[1,1]],[[3655,3894],[0,1]],[[3655,3895],[0,1]],[[3655,3896]],[[3655,3896],[-1,1]],[[3654,3897],[0,1]],[[3654,3898],[-1,4]],[[3653,3902],[-1,4]],[[3652,3906],[-1,2]],[[3651,3908],[0,1]],[[3651,3909],[0,1]],[[3651,3910],[0,1]],[[3651,3911],[-1,0]],[[3650,3911],[0,1]],[[3650,3912],[0,1]],[[3650,3913],[0,2]],[[3650,3915],[1,1]],[[3651,3916],[0,3]],[[3651,3919],[0,5]],[[3651,3924],[1,3]],[[3652,3927],[0,1]],[[3652,3928],[0,2]],[[3652,3930]],[[3652,3930],[0,2]],[[3652,3932]],[[3652,3932],[1,1]],[[3653,3933],[0,1]],[[3653,3934]],[[3653,3934],[1,0]],[[3654,3934],[0,1]],[[3654,3935]],[[3654,3935],[1,1]],[[3655,3936]],[[3655,3936],[1,1]],[[3656,3937]],[[3656,3937],[1,0]],[[3657,3937],[0,1]],[[3657,3938],[1,0]],[[3658,3938],[1,0]],[[3659,3938],[1,1]],[[3660,3939],[1,0]],[[3661,3939],[1,0]],[[3662,3939],[1,0]],[[3663,3939]],[[3663,3939],[1,0]],[[3664,3939],[1,0]],[[3665,3939],[0,-1]],[[3665,3938],[1,0]],[[3666,3938],[2,-1]],[[3668,3937],[2,0]],[[3670,3937],[1,-1]],[[3671,3936],[1,0]],[[3672,3936]],[[3672,3936],[1,0]],[[3673,3936],[1,0]],[[3674,3936],[1,0]],[[3675,3936]],[[3675,3936],[1,0]],[[3676,3936],[1,0]],[[3677,3936],[1,0]],[[3678,3936],[1,1]],[[3679,3937],[1,0]],[[3680,3937],[1,1]],[[3681,3938],[1,1]],[[3682,3939]],[[3682,3939],[1,1]],[[3683,3940],[0,1]],[[3683,3941],[1,1]],[[3684,3942],[3,5]],[[3687,3947],[1,2]],[[3688,3949],[2,3]],[[3690,3952],[1,2]],[[3691,3954],[1,1]],[[3692,3955],[1,1]],[[3693,3956],[1,1]],[[3694,3957],[1,1]],[[3695,3958],[0,1]],[[3695,3959],[1,0]],[[3696,3959],[1,1]],[[3697,3960],[1,0]],[[3698,3960],[0,1]],[[3698,3961],[1,0]],[[3699,3961],[1,1]],[[3700,3962],[1,0]],[[3701,3962],[1,1]],[[3702,3963],[2,0]],[[3704,3963],[1,0]],[[3705,3963],[1,0]],[[3706,3963],[1,1]],[[3707,3964],[1,0]],[[3708,3964]],[[3708,3964],[1,0]],[[3709,3964],[2,0]],[[3711,3964],[0,-1]],[[3711,3963],[3,0]],[[3714,3963],[2,0]],[[3716,3963],[4,0]],[[3720,3963],[3,-1]],[[3723,3962],[3,0]],[[3726,3962],[7,0]],[[3733,3962],[3,-1]],[[3736,3961]],[[3736,3961],[3,0]],[[3739,3961],[15,-1]],[[3754,3960],[43,-4]],[[3797,3956],[3,0]],[[3800,3956],[1,0]],[[3801,3956],[1,-1]],[[3802,3955],[1,0]],[[3803,3955],[1,0]],[[3804,3955]],[[3804,3955],[1,1]],[[3805,3956],[4,0]],[[3809,3956],[2,1]],[[3811,3957],[2,0]],[[3813,3957],[3,0]],[[3816,3957],[2,1]],[[3818,3958],[1,0]],[[3819,3958],[1,0]],[[3820,3958]],[[3820,3958],[1,0]],[[3821,3958],[2,0]],[[3823,3958],[1,0]],[[3824,3958],[1,0]],[[3825,3958],[1,0]],[[3826,3958],[3,-1]],[[3829,3957],[1,0]],[[3830,3957],[2,0]],[[3832,3957],[1,0]],[[3833,3957],[3,-1]],[[3836,3956],[2,0]],[[3838,3956],[3,0]],[[3841,3956],[3,-1]],[[3844,3955],[1,0]],[[3845,3955],[3,0]],[[3848,3955],[3,0]],[[3851,3955],[1,-1]],[[3852,3954],[1,0]],[[3853,3954],[1,0]],[[3854,3954],[1,0]],[[3855,3954]],[[3855,3954],[1,0]],[[3856,3954],[2,1]],[[3858,3955]],[[3858,3955],[1,0]],[[3859,3955],[1,0]],[[3860,3955],[1,0]],[[3861,3955],[1,1]],[[3862,3956],[1,0]],[[3863,3956],[1,1]],[[3864,3957]],[[3864,3957],[1,0]],[[3865,3957],[4,2]],[[3869,3959],[0,1]],[[3869,3960],[2,0]],[[3871,3960],[0,1]],[[3871,3961],[1,0]],[[3872,3961]],[[3872,3961],[1,0]],[[3873,3961],[0,1]],[[3873,3962],[1,0]],[[3874,3962],[0,1]],[[3874,3963],[1,1]],[[3875,3964],[1,1]],[[3876,3965],[1,0]],[[3877,3965],[1,1]],[[3878,3966],[0,1]],[[3878,3967],[1,1]],[[3879,3968],[2,2]],[[3881,3970],[1,1]],[[3882,3971],[1,1]],[[3883,3972],[2,2]],[[3885,3974],[1,1]],[[3886,3975],[1,1]],[[3887,3976],[1,1]],[[3888,3977],[2,2]],[[3890,3979],[2,3]],[[3892,3982],[2,1]],[[3894,3983],[0,1]],[[3894,3984],[1,1]],[[3895,3985]],[[3895,3985],[1,0]],[[3896,3985],[0,1]],[[3896,3986],[1,0]],[[3897,3986],[1,0]],[[3898,3986],[0,1]],[[3898,3987],[1,0]],[[3899,3987]],[[3899,3987],[1,0]],[[3900,3987]],[[3900,3987],[1,1]],[[3901,3988],[1,0]],[[3902,3988],[2,0]],[[3904,3988],[2,0]],[[3906,3988],[1,1]],[[3907,3989],[1,0]],[[3908,3989],[1,0]],[[3909,3989]],[[3909,3989],[1,0]],[[3910,3989],[1,1]],[[3911,3990]],[[3911,3990],[1,1]],[[3912,3991]],[[3912,3991],[1,0]],[[3913,3991],[1,1]],[[3914,3992],[0,1]],[[3914,3993]],[[3914,3993],[1,1]],[[3915,3994]],[[3915,3994],[0,1]],[[3915,3995],[1,1]],[[3916,3996]],[[3916,3996],[0,1]],[[3916,3997],[0,1]],[[3916,3998],[0,1]],[[3916,3999]],[[3916,3999],[0,1]],[[3916,4000],[0,2]],[[3916,4002],[0,3]],[[3916,4005],[0,2]],[[3916,4007],[0,1]],[[3916,4008],[0,1]],[[3916,4009],[-1,0]],[[3915,4009],[0,1]],[[3915,4010]],[[3915,4010],[0,1]],[[3915,4011]],[[3915,4011],[0,1]],[[3915,4012]],[[3915,4012],[-1,1]],[[3914,4013]],[[3914,4013]],[[3914,4013],[-1,1]],[[3913,4014]],[[3913,4014],[-1,1]],[[3912,4015]],[[3912,4015],[-1,1]],[[3911,4016]],[[3911,4016],[-1,1]],[[3910,4017],[-1,0]],[[3909,4017],[-1,1]],[[3908,4018]],[[3908,4018],[-1,1]],[[3907,4019]],[[3907,4019]],[[3907,4019],[-1,1]],[[3906,4020]],[[3906,4020]],[[3906,4020],[0,1]],[[3906,4021]],[[3906,4021]],[[3906,4021],[0,1]],[[3906,4022],[-1,0]],[[3905,4022]],[[3905,4022],[0,1]],[[3905,4023]],[[3905,4023],[0,1]],[[3905,4024]],[[3905,4024],[1,0]],[[3906,4024],[0,1]],[[3906,4025]],[[3906,4025],[0,1]],[[3906,4026]],[[3906,4026]],[[3906,4026],[1,1]],[[3907,4027]],[[3907,4027]],[[3907,4027],[1,1]],[[3908,4028]],[[3908,4028]],[[3908,4028],[1,0]],[[3909,4028],[0,1]],[[3909,4029],[1,0]],[[3910,4029]],[[3910,4029],[1,0]],[[3911,4029],[3,1]],[[3914,4030]],[[3914,4030],[1,0]],[[3915,4030]],[[3915,4030],[1,0]],[[3916,4030],[0,1]],[[3916,4031]],[[3916,4031],[1,0]],[[3917,4031],[0,1]],[[3917,4032]],[[3917,4032],[1,0]],[[3918,4032],[0,1]],[[3918,4033]],[[3918,4033],[0,1]],[[3918,4034]],[[3918,4034],[0,1]],[[3918,4035]],[[3918,4035],[1,0]],[[3919,4035],[0,1]],[[3919,4036],[0,1]],[[3919,4037],[0,1]],[[3919,4038],[0,1]],[[3919,4039]],[[3919,4039]],[[3919,4039],[0,1]],[[3919,4040]],[[3919,4040],[0,1]],[[3919,4041]],[[3919,4041]],[[3919,4041],[0,1]],[[3919,4042]],[[3919,4042],[1,0]],[[3920,4042],[0,1]],[[3920,4043]],[[3920,4043],[1,1]],[[3921,4044]],[[3921,4044]],[[3921,4044]],[[3921,4044],[1,0]],[[3922,4044],[0,1]],[[3922,4045]],[[3922,4045],[1,0]],[[3923,4045]],[[3923,4045]],[[3923,4045],[1,0]],[[3924,4045]],[[3924,4045]],[[3924,4045],[1,0]],[[3925,4045],[1,1]],[[3926,4046]],[[3926,4046],[1,0]],[[3927,4046],[2,0]],[[3929,4046],[2,0]],[[3931,4046],[4,-1]],[[3935,4045],[1,0]],[[3936,4045],[1,0]],[[3937,4045]],[[3937,4045],[1,0]],[[3938,4045],[1,0]],[[3939,4045]],[[3939,4045],[1,0]],[[3940,4045],[0,-1]],[[3940,4044],[1,0]],[[3941,4044]],[[3941,4044],[1,-1]],[[3942,4043]],[[3942,4043],[1,0]],[[3943,4043],[2,-2]],[[3945,4041],[2,-2]],[[3947,4039],[5,-4]],[[3952,4035],[1,0]],[[3953,4035],[1,-1]],[[3954,4034],[1,-1]],[[3955,4033],[1,-1]],[[3956,4032],[1,0]],[[3957,4032]],[[3957,4032],[1,-1]],[[3958,4031],[1,0]],[[3959,4031],[1,0]],[[3960,4031],[1,0]],[[3961,4031],[1,-1]],[[3962,4030],[1,0]],[[3963,4030],[1,0]],[[3964,4030]],[[3964,4030],[1,0]],[[3965,4030],[1,0]],[[3966,4030],[1,0]],[[3967,4030],[0,1]],[[3967,4031],[2,0]],[[3969,4031],[1,0]],[[3970,4031],[2,1]],[[3972,4032],[1,0]],[[3973,4032],[2,1]],[[3975,4033],[2,0]],[[3977,4033],[3,1]],[[3980,4034],[4,1]],[[3984,4035],[1,0]],[[3985,4035],[1,1]],[[3986,4036],[1,0]],[[3987,4036],[1,0]],[[3988,4036]],[[3988,4036],[1,0]],[[3989,4036],[1,0]],[[3990,4036],[1,0]],[[3991,4036],[1,0]],[[3992,4036]],[[3992,4036],[1,0]],[[3993,4036]],[[3993,4036],[1,-1]],[[3994,4035],[1,0]],[[3995,4035],[1,-1]],[[3996,4034],[1,0]],[[3997,4034],[1,0]],[[3998,4034],[1,-1]],[[3999,4033]],[[3999,4033],[1,0]],[[4000,4033]],[[4000,4033],[1,0]],[[4001,4033],[1,0]],[[4002,4033]],[[4002,4033],[3,0]],[[4005,4033],[4,0]],[[4009,4033],[1,0]],[[4010,4033],[1,0]],[[4011,4033],[2,0]],[[4013,4033],[2,0]],[[4015,4033],[1,0]],[[4016,4033],[1,1]],[[4017,4034],[1,0]],[[4018,4034],[2,0]],[[4020,4034],[1,0]],[[4021,4034],[2,1]],[[4023,4035],[2,1]],[[4025,4036],[1,0]],[[4026,4036],[2,0]],[[4028,4036],[1,1]],[[4029,4037],[2,1]],[[4031,4038],[4,1]],[[4035,4039],[2,1]],[[4037,4040],[6,3]],[[4043,4043],[2,1]],[[4045,4044],[1,1]],[[4046,4045],[1,0]],[[4047,4045],[1,0]],[[4048,4045],[1,1]],[[4049,4046],[2,1]],[[4051,4047],[1,0]],[[4052,4047],[2,1]],[[4054,4048],[1,1]],[[4055,4049],[4,1]],[[4059,4050],[2,1]],[[4061,4051],[1,0]],[[4062,4051],[0,1]],[[4062,4052],[1,0]],[[4063,4052]],[[4063,4052],[1,1]],[[4064,4053],[1,1]],[[4065,4054],[1,0]],[[4066,4054],[0,1]],[[4066,4055],[1,1]],[[4067,4056],[1,1]],[[4068,4057],[2,1]],[[4070,4058],[2,4]],[[4072,4062],[1,1]],[[4073,4063],[2,2]],[[4075,4065],[0,1]],[[4075,4066],[1,1]],[[4076,4067],[2,2]],[[4078,4069],[1,1]],[[4079,4070],[0,1]],[[4079,4071]],[[4079,4071],[1,1]],[[4080,4072],[0,1]],[[4080,4073],[1,0]],[[4081,4073],[0,1]],[[4081,4074],[1,2]],[[4082,4076],[0,2]],[[4082,4078],[1,1]],[[4083,4079],[0,1]],[[4083,4080],[0,1]],[[4083,4081],[1,0]],[[4084,4081],[1,2]],[[4085,4083],[0,1]],[[4085,4084],[1,1]],[[4086,4085]],[[4086,4085],[1,1]],[[4087,4086]],[[4087,4086],[1,1]],[[4088,4087]],[[4088,4087],[1,1]],[[4089,4088],[1,1]],[[4090,4089],[4,3]],[[4094,4092],[2,1]],[[4096,4093]],[[3864,3957],[1,0]],[[3865,3957],[4,2]],[[3869,3959]],[[3869,3959],[2,1]],[[3871,3960]],[[3871,3960],[1,1]],[[3872,3961]],[[3872,3961],[1,0]],[[3873,3961],[0,1]],[[3873,3962],[1,0]],[[3874,3962],[0,1]],[[3874,3963],[1,1]],[[3875,3964],[1,1]],[[3876,3965],[1,0]],[[3877,3965],[1,1]],[[3878,3966],[1,1]],[[3879,3967],[0,1]],[[3879,3968],[2,2]],[[3881,3970],[1,1]],[[3882,3971],[1,1]],[[3883,3972],[2,2]],[[3885,3974],[1,1]],[[3886,3975],[1,1]],[[3887,3976],[1,1]],[[3888,3977],[2,2]],[[3890,3979],[2,3]],[[3892,3982],[2,1]],[[3894,3983],[0,1]],[[3894,3984],[1,1]],[[3895,3985]],[[3895,3985],[1,0]],[[3896,3985],[1,1]],[[3897,3986]],[[3897,3986],[1,0]],[[3898,3986],[0,1]],[[3898,3987],[1,0]],[[3899,3987]],[[3899,3987],[1,0]],[[3900,3987]],[[3900,3987],[1,0]],[[3901,3987],[1,1]],[[3902,3988],[2,0]],[[3904,3988],[2,0]],[[3906,3988],[1,1]],[[3907,3989],[1,0]],[[3908,3989],[1,0]],[[3909,3989]],[[3909,3989],[1,0]],[[3910,3989],[1,1]],[[3911,3990]],[[3911,3990],[1,1]],[[3912,3991],[1,0]],[[3913,3991]],[[3913,3991],[1,1]],[[3914,3992],[0,1]],[[3914,3993],[1,0]],[[3915,3993],[0,1]],[[3915,3994]],[[3915,3994],[0,1]],[[3915,3995],[1,1]],[[3916,3996]],[[3916,3996],[0,1]],[[3916,3997]],[[3916,3997],[0,1]],[[3916,3998],[0,1]],[[3916,3999]],[[3916,3999],[0,1]],[[3916,4000],[0,2]],[[3916,4002],[0,3]],[[3916,4005],[0,1]],[[3916,4006],[0,1]],[[3916,4007],[0,1]],[[3916,4008],[0,1]],[[3916,4009]],[[3916,4009]],[[3916,4009],[-1,1]],[[3915,4010]],[[3915,4010],[0,1]],[[3915,4011]],[[3915,4011],[0,1]],[[3915,4012]],[[3915,4012],[-1,1]],[[3914,4013]],[[3914,4013]],[[3914,4013],[-1,1]],[[3913,4014],[0,1]],[[3913,4015],[-1,0]],[[3912,4015]],[[3912,4015],[-1,1]],[[3911,4016]],[[3911,4016],[-1,1]],[[3910,4017],[-1,0]],[[3909,4017],[-1,1]],[[3908,4018]],[[3908,4018],[-1,1]],[[3907,4019]],[[3907,4019]],[[3907,4019],[-1,1]],[[3906,4020]],[[3906,4020]],[[3906,4020],[0,1]],[[3906,4021]],[[3906,4021]],[[3906,4021],[0,1]],[[3906,4022]],[[3906,4022],[-1,0]],[[3905,4022],[0,1]],[[3905,4023]],[[3905,4023],[0,1]],[[3905,4024],[1,0]],[[3906,4024]],[[3906,4024],[0,1]],[[3906,4025]],[[3906,4025],[0,1]],[[3906,4026]],[[3906,4026]],[[3906,4026],[1,0]],[[3907,4026],[0,1]],[[3907,4027],[1,0]],[[3908,4027],[0,1]],[[3908,4028]],[[3908,4028]],[[3908,4028],[1,0]],[[3909,4028]],[[3909,4028],[1,1]],[[3910,4029]],[[3910,4029],[1,0]],[[3911,4029],[3,1]],[[3914,4030]],[[3914,4030],[1,0]],[[3915,4030]],[[3915,4030],[1,0]],[[3916,4030],[0,1]],[[3916,4031]],[[3916,4031],[1,0]],[[3917,4031],[0,1]],[[3917,4032],[1,0]],[[3918,4032]],[[3918,4032],[0,1]],[[3918,4033]],[[3918,4033],[0,1]],[[3918,4034]],[[3918,4034],[0,1]],[[3918,4035],[1,0]],[[3919,4035]],[[3919,4035],[0,1]],[[3919,4036],[0,1]],[[3919,4037],[0,1]],[[3919,4038],[0,1]],[[3919,4039]],[[3919,4039]],[[3919,4039],[0,1]],[[3919,4040]],[[3919,4040],[0,1]],[[3919,4041]],[[3919,4041]],[[3919,4041]],[[3919,4041],[0,1]],[[3919,4042],[1,0]],[[3920,4042],[0,1]],[[3920,4043]],[[3920,4043],[1,0]],[[3921,4043],[0,1]],[[3921,4044]],[[3921,4044],[1,0]],[[3922,4044]],[[3922,4044],[0,1]],[[3922,4045]],[[3922,4045],[1,0]],[[3923,4045]],[[3923,4045]],[[3923,4045],[1,0]],[[3924,4045]],[[3924,4045]],[[3924,4045],[1,0]],[[3925,4045],[1,0]],[[3926,4045]],[[3926,4045],[1,0]],[[3927,4045],[2,0]],[[3929,4045],[2,0]],[[3931,4045],[4,0]],[[3935,4045],[1,0]],[[3936,4045],[1,0]],[[3937,4045]],[[3937,4045],[1,0]],[[3938,4045],[1,0]],[[3939,4045]],[[3939,4045],[1,0]],[[3940,4045],[0,-1]],[[3940,4044]],[[3940,4044],[1,0]],[[3941,4044],[1,-1]],[[3942,4043]],[[3942,4043],[1,-1]],[[3943,4042],[2,-1]],[[3945,4041],[2,-2]],[[3947,4039],[5,-4]],[[3952,4035],[1,0]],[[3953,4035],[1,-1]],[[3954,4034],[1,-1]],[[3955,4033],[1,-1]],[[3956,4032],[1,0]],[[3957,4032]],[[3957,4032],[1,-1]],[[3958,4031],[1,0]],[[3959,4031],[1,0]],[[3960,4031],[1,-1]],[[3961,4030],[1,0]],[[3962,4030],[1,0]],[[3963,4030],[1,0]],[[3964,4030]],[[3964,4030],[1,0]],[[3965,4030],[1,0]],[[3966,4030],[1,0]],[[3967,4030]],[[3967,4030],[2,1]],[[3969,4031],[1,0]],[[3970,4031],[2,1]],[[3972,4032],[1,0]],[[3973,4032],[2,1]],[[3975,4033],[2,0]],[[3977,4033],[3,1]],[[3980,4034],[4,1]],[[3984,4035],[1,0]],[[3985,4035],[1,1]],[[3986,4036],[1,0]],[[3987,4036],[1,0]],[[3988,4036]],[[3988,4036],[1,0]],[[3989,4036],[1,0]],[[3990,4036],[1,0]],[[3991,4036],[1,0]],[[3992,4036]],[[3992,4036],[1,0]],[[3993,4036],[0,-1]],[[3993,4035],[1,0]],[[3994,4035],[1,0]],[[3995,4035],[1,-1]],[[3996,4034],[1,0]],[[3997,4034],[1,0]],[[3998,4034],[1,-1]],[[3999,4033]],[[3999,4033],[1,0]],[[4000,4033]],[[4000,4033],[1,0]],[[4001,4033],[1,0]],[[4002,4033]],[[4002,4033],[3,0]],[[4005,4033],[4,0]],[[4009,4033],[1,0]],[[4010,4033],[1,0]],[[4011,4033],[2,0]],[[4013,4033],[2,0]],[[4015,4033],[1,0]],[[4016,4033],[1,1]],[[4017,4034],[1,0]],[[4018,4034],[2,0]],[[4020,4034],[1,0]],[[4021,4034],[2,1]],[[4023,4035],[2,0]],[[4025,4035],[1,1]],[[4026,4036],[2,0]],[[4028,4036],[1,1]],[[4029,4037],[2,1]],[[4031,4038],[4,1]],[[4035,4039],[2,1]],[[4037,4040],[6,3]],[[4043,4043],[2,1]],[[4045,4044],[1,1]],[[4046,4045],[1,0]],[[4047,4045],[1,0]],[[4048,4045],[1,1]],[[4049,4046],[2,1]],[[4051,4047],[1,0]],[[4052,4047],[2,1]],[[4054,4048],[1,1]],[[4055,4049],[1,0]],[[4056,4049],[3,1]],[[4059,4050],[2,1]],[[4061,4051],[1,0]],[[4062,4051],[0,1]],[[4062,4052],[1,0]],[[4063,4052]],[[4063,4052],[1,1]],[[4064,4053],[1,1]],[[4065,4054],[1,0]],[[4066,4054],[0,1]],[[4066,4055],[2,1]],[[4068,4056],[0,1]],[[4068,4057],[2,1]],[[4070,4058],[2,4]],[[4072,4062],[2,1]],[[4074,4063],[1,2]],[[4075,4065],[0,1]],[[4075,4066],[1,1]],[[4076,4067],[2,2]],[[4078,4069],[0,1]],[[4078,4070],[1,0]],[[4079,4070],[0,1]],[[4079,4071],[1,1]],[[4080,4072]],[[4080,4072],[0,1]],[[4080,4073],[1,1]],[[4081,4074]],[[4081,4074],[0,1]],[[4081,4075],[1,1]],[[4082,4076],[0,1]],[[4082,4077],[0,1]],[[4082,4078],[1,1]],[[4083,4079]],[[4083,4079],[0,1]],[[4083,4080],[1,1]],[[4084,4081]],[[4084,4081],[0,1]],[[4084,4082],[0,1]],[[4084,4083],[1,0]],[[4085,4083],[0,1]],[[4085,4084]],[[4085,4084],[1,0]],[[4086,4084],[0,1]],[[4086,4085]],[[4086,4085],[1,1]],[[4087,4086],[1,1]],[[4088,4087]],[[4088,4087],[1,1]],[[4089,4088]],[[4089,4088],[1,1]],[[4090,4089],[1,0]],[[4091,4089],[1,1]],[[4092,4090],[1,1]],[[4093,4091],[2,1]],[[4095,4092],[1,1]],[[4096,4093]],[[3557,3458],[-239,-280],[-267,-100]],[[3336,3196],[-3,-3]],[[3121,3098],[4,1],[-4,-1]],[[3252,3148],[-4,-2],[3,1],[1,1]],[[3289,3164],[2,1],[-4,-2],[2,1]],[[4096,3865],[-74,-35],[-76,-61],[-74,-85],[-11,-12],[-95,-79],[-101,-215],[-12,-15],[-145,-149],[-36,-51],[-25,-22],[-99,-50],[-40,-29],[-22,-10],[-31,-8],[-79,-3],[-31,-14],[-42,-23],[-7,-3],[-50,-14],[-22,-18],[-23,-44],[-27,-25],[-70,-28],[-58,35],[-3,5],[-1,4],[-12,37],[1,8],[11,15],[0,10],[-6,8],[-12,6],[-6,6]],[[4096,3865],[-74,-35],[-8,-4],[-10,-8],[-48,-40],[-10,-9],[-6,-7],[-6,-6],[-49,-57],[-4,-5],[-20,-22],[-77,-61],[-6,-5],[-6,-6],[-6,-7],[-3,-4],[-5,-7],[-14,-22],[-5,-10],[-75,-174],[-156,-162],[-3,-3],[-4,-5],[-4,-5],[-25,-37],[-25,-23],[-54,-26],[-6,-3],[-39,-21],[-10,-6],[-6,-4],[-24,-18],[-22,-11],[-31,-8],[-18,-1],[-21,2],[-11,0],[-7,0],[-7,-1],[-8,-1],[-7,-2],[-6,-2],[-13,-5],[-12,-6],[-42,-24],[-7,-3],[-36,-9],[-5,-1],[-5,-2],[-3,-1],[-2,-2],[-4,-2],[-5,-3],[-6,-5],[-3,-3],[-2,-3],[-2,-2],[-3,-3],[-2,-4],[-2,-3],[-15,-33],[-27,-25],[-70,-28],[-58,35],[-4,8],[-7,24],[-5,14],[1,7],[10,13],[1,1],[0,2],[1,2],[0,2],[0,2],[-1,3],[-1,2],[-1,3],[-2,2],[-2,2],[-1,1],[-2,1],[-9,4],[-6,7]],[[3289,3164],[-6,-2]],[[2774,3182],[-88,-7],[-140,34],[-36,90],[-75,22],[-83,104],[-164,-54],[-37,-106],[-135,-43],[-25,27],[5,56],[-40,8]],[[1956,3313],[-2,1]],[[1954,3314],[-43,-26],[-52,64],[-81,-9],[-55,49],[-71,-26],[-19,38],[-62,-12],[-16,60],[-27,-16],[-157,49]],[[2822,3003],[-3,4]],[[2819,3007]],[[2819,3007]],[[2819,3007],[-20,17],[29,106]],[[2828,3130],[1,3]],[[2829,3133],[4,17],[-36,35],[-16,-4],[-9,0],[-3,-1],[-6,-7],[-1,-1],[-1,0],[-1,-1],[-2,0],[-1,0],[-4,0]],[[1954,3314]],[[1956,3313],[-2,1]],[[2819,3006],[0,1]],[[2819,3007],[-3,0],[5,-3]],[[2821,3004],[-2,2]],[[2821,3004],[1,-1]],[[2819,3007],[0,-1]],[[2831,3132],[-2,1]],[[2828,3130],[3,2]],[[2275,0],[16,19],[28,18],[4,3],[5,4],[45,45],[35,38],[4,5],[2,3],[2,3],[2,4],[1,4],[2,3],[1,4],[1,5],[5,26],[8,17],[18,26],[6,6],[18,15],[3,2],[2,3],[4,3],[3,4],[3,5],[2,5],[2,3],[1,5],[1,4],[1,4],[0,3],[-1,2],[0,3],[-1,4],[-2,4]],[[2496,302],[-2,5],[-3,7]],[[2818,3006],[5,-5],[0,-1],[13,-6],[6,-8],[0,-10],[-2,-3],[-8,-11],[-2,-3],[-1,-1],[0,-2],[0,-2],[0,-2],[1,-3],[5,-10],[0,-2],[1,-5],[1,-3],[5,-16],[2,-4],[2,-3],[2,-3],[16,-21],[12,-19],[1,-26],[-84,-70],[-6,-7],[-9,-11],[-15,-13],[-3,-3],[-3,-3],[-3,-5],[-3,-4],[-3,-5],[-2,-5],[-2,-5],[-1,-3],[-1,-5],[-7,-37],[-2,-13],[-8,-93],[-5,-14],[-5,-14],[-2,-6],[-33,-63],[-3,-6],[-1,-2],[-53,-153],[-1,-4],[-1,-3],[-27,-122],[-3,-12],[-10,-16],[-23,-21],[-2,-2],[-3,-3],[-3,-3],[-2,-3],[-2,-4],[-2,-3],[-2,-5],[-1,-3],[-2,-4],[-1,-5],[-1,-6],[0,-4],[0,-3],[0,-4],[0,-2],[1,-8],[1,-6],[1,-4],[2,-5],[16,-34],[3,-13],[2,-17],[3,-16],[0,-33],[1,-8],[1,-4],[1,-4],[1,-6],[2,-4],[11,-25],[2,-3],[3,-5],[9,-13],[4,-8],[3,-10],[4,-20],[1,-4],[2,-6],[1,-4],[3,-6],[12,-19],[6,-16],[25,-150],[1,-13],[-4,-43],[0,-4],[0,-4],[1,-5],[1,-7],[2,-7],[3,-11],[2,-5],[1,-13],[-5,-24],[-24,-50],[-1,-3],[-2,-4],[-1,-5],[-1,-5],[0,-3],[-18,-153],[-1,-3],[0,-4],[0,-4],[1,-3],[0,-4],[1,-3],[1,-4],[0,-3],[2,-3],[1,-4],[2,-2],[9,-19],[5,-12],[-1,-32],[-21,-64],[-3,-6],[-31,-52],[-4,-7],[-35,-74],[-1,-4],[-2,-6],[-1,-4],[-1,-6],[0,-4],[-1,-5],[1,-5],[0,-4],[1,-6],[1,-3],[4,-14],[1,-12],[0,-13],[-4,-18],[-1,-5],[0,-3],[-1,-5],[0,-3],[1,-3],[0,-5],[1,-3],[1,-5],[5,-17],[3,-24],[2,-6],[1,-4],[2,-3],[10,-21],[11,-37],[3,-22],[-55,-186],[-4,-10],[-5,-10],[-1,-3],[-2,-5],[-26,-64],[-2,-5],[-1,-6],[-1,-6],[0,-3],[0,-3],[0,-11],[0,-13],[0,-7],[1,-5],[1,-3],[1,-4],[1,-5],[1,-4],[3,-6],[8,-16],[5,-12],[-1,-19],[-12,-20],[-8,-8],[-18,-15],[-6,-6],[-19,-26],[-7,-17],[-7,-35],[-12,-21],[-82,-84],[-36,-25],[-16,-19]],[[2496,302],[-2,5],[-3,7]],[[2491,314],[-11,81],[41,101],[54,184],[0,2],[0,5],[-1,6],[-2,11],[-36,120],[0,16],[5,24],[0,2],[0,5],[1,8],[-8,55],[78,157],[21,64],[1,32],[-21,68],[19,161],[28,62],[5,21],[0,6],[0,3],[-1,7],[-9,35],[4,51],[-1,13],[-25,150],[-6,16],[-16,29],[-6,28],[-2,5],[-2,7],[-32,64],[-3,49],[-5,34],[-24,82],[10,28],[34,33],[6,10],[2,4],[2,3],[1,3],[134,398],[20,154],[131,126],[-1,26],[-47,89],[13,24],[1,5],[-2,6],[-5,7],[-18,12]],[[2798,2695],[6,-15]],[[2803,2681],[1,-1]],[[2804,2680],[11,-13],[8,-11],[23,-2],[4,-2],[6,-4],[4,-2],[8,1],[12,7],[2,1],[2,1],[5,0],[9,-1],[13,-5],[8,1],[28,26],[2,1],[3,1],[11,2],[2,0],[2,0],[3,-1],[5,-4],[2,-3],[1,-3],[2,-11],[6,-6]],[[2986,2653],[1,0]],[[2987,2653],[5,-1]],[[2813,2669],[-5,6]],[[3000,2652],[-9,0],[-1,0],[-2,0]],[[2988,2652],[-1,1],[-2,1]],[[2985,2654],[-2,1],[-1,1],[-1,2],[-1,1],[-1,2],[-1,9],[-2,5],[-11,6],[-17,-4],[-4,-3],[-3,-6],[-1,-2],[-1,-1],[-1,-1],[-1,-1],[-6,-3],[-7,-7],[-2,-1],[-3,-2],[-2,0],[-2,0],[-2,0],[-2,0],[-3,0],[-1,1],[-9,4],[-10,1],[-7,-2],[-10,-6],[-2,-1],[-1,-1],[-2,0],[-2,0],[-1,0],[-3,0],[-2,0],[-1,1],[-1,0],[-2,2],[-4,3],[-4,2],[-18,0],[-2,0],[-2,1],[-2,1],[-3,2],[-2,3],[-5,9]],[[2985,2654],[1,-1]],[[2988,2652],[-1,1]],[[3000,2652],[-6,0]],[[2994,2652],[-1,0]],[[3000,2652],[-5,0],[-1,0]],[[2774,3182],[-88,-7],[-122,35],[-11,-23]],[[2553,3187],[1,-3]],[[2582,3149],[0,1]],[[2582,3150],[-1,0]],[[2581,3150],[0,1]],[[2581,3151],[-1,1]],[[2580,3152],[0,1]],[[2580,3153],[-1,0]],[[2579,3153],[0,1]],[[2579,3154],[-1,0]],[[2578,3154],[-1,1]],[[2577,3155]],[[2577,3155],[-2,1]],[[2575,3156],[-4,3]],[[2571,3159],[-3,2]],[[2568,3161],[-1,1]],[[2567,3162],[-1,1]],[[2566,3163]],[[2566,3163],[-1,1]],[[2565,3164]],[[2565,3164],[-1,1]],[[2564,3165],[0,1]],[[2564,3166],[-1,1]],[[2563,3167],[-2,3]],[[2561,3170],[0,1]],[[2561,3171],[-1,1]],[[2560,3172],[-1,2]],[[2559,3174],[-1,1]],[[2558,3175],[-2,5]],[[2556,3180],[-1,2]],[[2555,3182],[-1,1]],[[2554,3183],[0,1]],[[2583,3147],[-1,2]],[[2588,3138],[-1,1]],[[2587,3139],[0,1]],[[2587,3140],[-1,0]],[[2586,3140],[-1,2]],[[2585,3142],[0,2]],[[2585,3144],[-1,2]],[[2584,3146],[-1,1]],[[2590,3137],[-2,1]],[[2659,3106]],[[2659,3106],[0,1]],[[2659,3107],[0,1]],[[2659,3108]],[[2659,3108],[0,1]],[[2659,3109]],[[2659,3109],[0,1]],[[2659,3110],[0,1]],[[2659,3111]],[[2659,3111],[0,1]],[[2659,3112]],[[2659,3112],[-1,1]],[[2658,3113]],[[2658,3113],[0,1]],[[2658,3114],[-1,0]],[[2657,3114],[0,1]],[[2657,3115]],[[2657,3115],[-1,1]],[[2656,3116],[-1,0]],[[2655,3116],[0,1]],[[2655,3117]],[[2655,3117],[-1,0]],[[2654,3117]],[[2654,3117],[-1,1]],[[2653,3118]],[[2653,3118],[-1,0]],[[2652,3118]],[[2652,3118],[-1,0]],[[2651,3118],[-4,1]],[[2647,3119],[-2,1]],[[2645,3120],[-6,1]],[[2639,3121],[-2,0]],[[2637,3121],[-2,1]],[[2635,3122],[-1,1]],[[2634,3123],[-3,1]],[[2631,3124],[-2,1]],[[2629,3125],[-5,2]],[[2624,3127],[-3,2]],[[2621,3129],[-3,1]],[[2618,3130],[-1,1]],[[2617,3131],[-1,0]],[[2616,3131],[-4,1]],[[2612,3132],[-6,1]],[[2606,3133],[-9,1]],[[2597,3134],[-1,1]],[[2596,3135],[-2,0]],[[2594,3135]],[[2594,3135],[-1,0]],[[2593,3135]],[[2593,3135],[-1,1]],[[2592,3136],[-1,0]],[[2591,3136]],[[2591,3136],[-1,1]],[[2746,3059],[-87,25],[0,22]],[[2747,3059],[-1,0]],[[2747,3059]],[[2747,3059],[2,0]],[[2776,3035],[-27,24]],[[2819,3008],[-6,17],[7,31],[-5,28],[0,1],[2,3],[1,3],[0,3],[8,17],[2,7],[0,12]],[[2828,3130],[1,3]],[[2829,3133],[4,17],[-36,35],[-16,-4],[-9,0],[-3,-1],[-6,-7],[-1,-1],[-1,0],[-1,-1],[-2,0],[-1,0],[-4,0]],[[2776,3035],[-1,1]],[[2787,3000],[-11,35]],[[2823,3004],[3,-4],[7,-3],[2,-1],[2,-2]],[[2837,2994]],[[2837,2994],[0,-3],[0,-2],[-1,-1],[0,-1],[-1,0],[-2,-1],[-1,0],[-1,0],[-2,0],[-12,8]],[[2817,2994],[-3,2]],[[2814,2996],[-18,1],[-2,1],[-7,2]],[[2822,3003],[3,-3]],[[2825,3000],[11,-13],[-19,7]],[[2817,2994],[-2,1],[-1,1]],[[2814,2996],[-27,4]],[[2825,3000],[2,-1],[5,-2],[5,-3]],[[2837,2994],[5,-9]],[[2960,3001],[-28,-34],[-22,-7],[-37,-11],[-6,1],[-4,1],[-2,0],[-11,8],[-9,29],[0,1],[-1,2],[-1,1],[-2,2]],[[2837,2994],[-2,1],[-3,2],[-6,3],[-1,1],[-2,2]],[[2823,3003],[-3,4]],[[2820,3007],[-1,1],[-1,1],[-1,1],[-2,2],[0,2],[-2,10],[0,3],[1,5],[6,24],[-6,20],[0,3],[1,5],[0,1],[1,3],[2,5],[6,14],[2,4],[2,12]],[[2857,3156],[-21,-6]],[[2843,2984],[20,-33],[51,10]],[[3051,3078],[-27,-12],[-21,-30],[-3,-4],[-40,-31]],[[2960,3001],[42,34],[15,24],[4,4],[4,4],[8,5],[251,90]],[[2814,2996],[3,-2]],[[2817,2994]],[[2817,2994],[-2,2],[-1,0]],[[2814,2996]],[[2814,2996]],[[2819,3006],[2,-2]],[[2821,3004],[1,-1]],[[2822,3003],[1,0]],[[2820,3007],[-1,-1]],[[2831,3132],[-2,1]],[[2828,3130],[3,2]],[[3121,3098],[4,1],[-4,-1]],[[3252,3148],[-4,-2],[3,1],[1,1]],[[3289,3164],[2,1],[-4,-2],[2,1]],[[2537,2863],[5,3],[2,1],[4,0],[14,-11],[153,113],[13,22],[89,18],[18,-22],[-35,-39],[0,-62],[-75,-4],[-14,-9],[-53,-101]],[[2539,2864],[-2,-1],[2,1]],[[2563,2857],[4,4],[-4,-4]],[[2596,2884],[-2,-2],[0,1],[2,2],[0,-1]],[[2613,2901],[0,1],[-2,-2],[0,-1],[2,2]],[[2634,2912],[2,1],[-2,-1]],[[2658,2771],[1,2],[1,2],[-1,0],[-1,-4]],[[2668,2798],[1,2],[-1,-2]],[[2672,2954],[-2,-2],[2,2]],[[2681,2826],[1,4],[1,0],[-2,-4]],[[2698,2858],[1,1],[2,3],[-3,-4]],[[2731,2883],[4,0],[-4,0]],[[2789,2884],[-4,0],[4,0]],[[2796,2928],[1,4],[-1,-4]],[[783,882],[41,31],[52,108],[30,-6],[-22,-59],[-16,-30],[-24,-19],[-14,-27],[-13,-10],[-1,-9],[0,-6],[-33,27]],[[816,855],[0,-14],[-3,-7],[-9,0],[-10,2],[-8,-2],[-13,-7],[-24,-10],[-13,-8],[-24,-21],[-32,-37],[-8,-5],[-4,-9],[-2,-45],[-3,-18],[-6,-14],[-10,-8],[0,-13],[-17,26],[0,30],[17,62],[18,91],[12,26],[61,-27],[45,35],[33,-27]],[[588,1888],[15,-14],[-22,-22],[-39,-20],[-35,-9],[-38,5],[-36,11],[-32,16],[-24,20],[-17,-17],[-19,-11],[-18,-3],[-16,5],[20,24],[-9,13],[-20,-1],[-11,-16],[-10,-21],[-24,5],[-34,22],[-41,14],[-45,5],[-39,-11],[-26,-34],[-19,3],[-44,-22],[-5,-2],[0,36],[210,97],[23,5],[52,-3],[23,8],[19,21],[2,11],[-6,7],[-16,8],[0,14],[16,3],[6,-1],[9,-2],[3,8],[4,5],[13,13],[14,-13],[11,-16],[8,-18],[7,-19],[-34,-21],[17,-32],[95,-78],[17,-9],[25,-3],[19,8],[33,28],[18,3]],[[876,1021],[-39,99],[0,14],[10,0],[14,-14],[25,-13],[26,-9],[15,-3],[19,15],[13,21],[15,13],[162,-62],[0,-14],[-41,6],[-66,28],[-37,6],[-23,-8],[22,-19],[93,-48],[13,-9],[7,-15],[2,-25],[5,-20],[21,-32],[4,-13],[15,-30],[72,-46],[23,-34],[-63,18],[-29,16],[-23,23],[-19,36],[-27,67],[-18,21],[-34,5],[-16,8],[-8,10],[-7,13],[-11,11],[-20,5],[-4,4],[-32,14],[-8,2],[-3,7],[-8,-3],[-8,-6],[-7,-4],[-7,-6],[2,-14],[10,-21],[-30,6]],[[588,1888],[15,-14],[-22,-22],[-39,-20],[-35,-9],[-38,5],[-36,11],[-32,16],[-24,20],[-17,-17],[-19,-11],[-18,-3],[-16,5],[20,24],[-9,13],[-20,-1],[-11,-16],[-10,-21],[-24,5],[-34,22],[-41,14],[-45,5],[-39,-11],[-26,-34],[-19,3],[-44,-22],[-5,-2]],[[0,1864],[210,97],[23,5],[52,-3],[23,8],[19,21],[2,11],[-6,7],[-16,8],[0,14],[16,3],[6,-1],[9,-2],[3,8],[4,5],[13,13],[14,-13],[11,-16],[8,-18],[7,-19],[-34,-21],[17,-32],[95,-78],[17,-9],[25,-3],[19,8],[33,28],[18,3]],[[783,882],[41,31],[52,108],[30,-6],[-22,-59],[-16,-30],[-24,-19],[-14,-27],[-13,-10],[-1,-9],[0,-6],[-33,27]],[[816,855],[0,-14],[-3,-7],[-9,0],[-10,2],[-8,-2],[-13,-7],[-24,-10],[-13,-8],[-24,-21],[-32,-37],[-8,-5],[-4,-9],[-2,-45],[-3,-18],[-6,-14],[-10,-8],[0,-13],[-17,26],[0,30],[17,62],[18,91],[12,26],[61,-27],[45,35],[33,-27]],[[876,1021],[-39,99],[0,14],[10,0],[14,-14],[25,-13],[26,-9],[15,-3],[19,15],[13,21],[15,13],[162,-62],[0,-14],[-41,6],[-66,28],[-37,6],[-23,-8],[22,-19],[93,-48],[13,-9],[7,-15],[2,-25],[5,-20],[21,-32],[4,-13],[15,-30],[72,-46],[23,-34],[-63,18],[-29,16],[-23,23],[-19,36],[-27,67],[-18,21],[-34,5],[-16,8],[-8,10],[-7,13],[-11,11],[-20,5],[-4,4],[-32,14],[-8,2],[-3,7],[-8,-3],[-8,-6],[-7,-4],[-7,-6],[2,-14],[10,-21],[-30,6]],[[2854,3175],[29,0],[13,4],[13,8],[6,7],[34,48],[11,11],[12,7],[3,1]],[[3065,3165],[-4,-10],[-2,-8],[-2,-14],[-2,-3],[-2,-3],[-10,-9],[-2,-4],[-2,-4],[-2,-5],[-1,-5],[0,-9]],[[2975,3261],[10,2],[13,-4],[7,-3],[17,-16],[34,-23],[6,-5],[5,-6],[4,-9],[0,-10],[-2,-11],[-4,-11]],[[2538,2877],[-1,40],[0,8],[-3,8],[-6,15],[-4,7],[-15,18],[-9,15],[-8,17],[-4,18],[1,18],[5,35],[0,20],[-3,18],[-11,46],[-1,10],[0,10],[2,9],[5,10],[6,8],[7,8],[7,6]],[[2610,3111],[-29,-1],[-14,1],[-14,4],[-5,3],[-6,6],[-4,6],[-4,6],[-6,14],[-22,69],[-12,25],[-9,16],[-5,8],[-23,25],[-4,5],[-5,4],[-6,3],[-18,9],[-7,4],[-5,6],[-25,46],[-9,15],[-22,22],[-27,13],[-85,14],[-13,3],[-14,6],[-13,7],[-12,11],[-5,6]],[[2044,3595],[-6,10],[-8,2]],[[2187,3467],[-46,51],[-25,20],[-54,33],[-10,8],[-8,16]],[[2869,2827],[-41,-46],[-18,-17],[-7,-3],[-7,0],[-100,16],[-127,49],[-5,3],[-5,4],[-5,5],[-4,6],[-4,8],[-3,8],[-5,17]],[[2980,2899],[-1,-1],[-12,-6],[-33,-14],[-7,-4],[-32,-26]],[[3036,3091],[3,-36],[-1,-18],[-4,-17],[-6,-14]],[[2895,2848],[-20,-15],[-6,-6]],[[3028,3006],[-1,-2],[-20,-33],[-1,-3],[-1,-4],[-2,-8],[-1,-9],[0,-18],[-1,-8],[-4,-8],[-6,-6],[-11,-8]],[[2030,3607],[-17,1]],[[2013,3608],[-100,5],[-14,2],[-174,51],[-23,11],[-24,16],[-46,41],[-85,97],[-16,23],[-7,11],[-5,13],[-5,13],[-3,13],[-2,14],[0,6],[1,43]],[[1510,3967],[0,15],[-6,12],[-21,7],[-13,2],[-15,2],[-6,2],[-6,5],[-21,29],[-29,33],[-9,12],[-5,10]],[[2429,2777],[14,3],[27,12],[24,20],[52,57]],[[0,1966],[1,0],[183,36],[104,41],[36,10],[17,2],[17,0],[17,-2],[16,-6],[48,-29],[16,-7],[16,-4],[17,-1],[16,2],[16,4],[17,8],[8,5],[30,30],[14,10],[14,7],[12,4],[14,2],[88,-7],[52,-13],[30,-1],[29,2],[59,13],[28,11],[159,78],[24,17],[43,44],[24,14],[26,-8],[25,-22],[13,-11],[14,-7],[14,-3],[57,-4],[44,3],[14,2],[13,6],[12,7],[23,20],[6,4],[7,3],[14,4],[229,22],[23,8],[22,10],[35,20],[24,18],[11,11],[11,14],[9,15],[24,47],[8,12],[10,8],[13,5],[75,2],[5,2],[5,4],[15,26],[3,3],[5,4],[6,4],[7,2],[7,0],[29,-5],[14,0],[7,1],[6,2],[8,4],[6,5],[12,12],[9,12],[14,28],[9,13],[21,26],[11,11],[14,9],[6,3],[7,2],[11,0],[3,1],[3,3],[106,124],[22,18],[24,13],[25,10],[68,18]],[[2746,3193],[-10,-22],[-4,-7],[-10,-12],[-11,-8],[-12,-6],[-8,-3]],[[2691,3135],[-71,-25],[-5,-3],[-6,-4],[-4,-5],[-5,-6],[-3,-7],[-5,-15]],[[2874,3164],[-9,13],[-11,9],[-13,6],[-41,13],[-14,2],[-15,1],[-6,-1],[-7,-1],[-6,-3],[-4,-6],[-2,-4]],[[2918,3694],[-3,5],[-7,15]],[[2918,3500],[-1,7],[7,18],[32,35],[9,15],[4,16],[-2,15],[-3,6]],[[2949,3338],[5,9],[3,11],[1,10],[1,11],[-3,30],[-2,10],[-3,8],[-7,16],[-17,30],[-5,12]],[[2925,3236],[-7,31],[8,27],[9,18]],[[2931,3871],[3,15],[0,16],[-4,21],[-5,19],[-2,8],[-4,7]],[[2919,3957],[-21,45],[-6,16],[-5,17],[-2,19],[-2,18],[0,19],[0,5]],[[2908,3714],[0,1],[-6,16],[-3,18],[-1,18],[2,19],[5,18],[21,48],[5,17],[0,2]],[[2922,3485],[-3,5],[-1,10]],[[2964,3612],[-3,8],[-43,74]],[[2935,3312],[14,26]],[[3229,3178],[65,32],[17,11],[1,1]],[[3042,3091],[16,8],[17,4],[34,5],[17,5],[17,8],[20,13]],[[3474,3388],[11,9],[28,16],[66,21],[20,14],[14,18],[12,21],[12,24]],[[3163,3134],[61,41],[5,3]],[[3312,3222],[26,21],[121,133],[15,12]],[[3637,3511],[10,21],[18,29],[86,100],[188,163],[157,109]],[[2960,2891],[15,-10]],[[3034,2825],[48,-29],[4,-4]],[[3126,2745],[23,-16],[12,-5],[13,-1],[59,8]],[[2975,2881],[10,-7],[11,-10],[10,-12],[9,-12],[5,-6],[5,-4],[9,-5]],[[3086,2792],[5,-5],[25,-33],[6,-5],[4,-4]],[[3233,2731],[14,2],[6,1],[6,-1],[14,-3],[13,-7],[11,-10],[7,-17],[0,-17],[-8,-35],[0,-18],[3,-8],[4,-7],[9,-13],[10,-12],[10,-10],[53,-43],[22,-13],[11,-6],[87,-26],[26,-11],[13,-8],[22,-18],[112,-123],[49,-66],[3,-6],[3,-7],[7,-19],[2,-3],[3,-3],[5,-5],[5,-3],[7,-3],[7,-1],[62,1],[14,-3],[13,-7]],[[3858,2203],[9,-14],[15,-32],[9,-14],[10,-10],[12,-7],[12,-4],[13,-2],[49,1],[5,-1],[5,-2],[65,-54],[11,-8],[12,-6],[11,-4]],[[2228,4048],[-9,29]],[[2219,4077],[-7,19]],[[2074,3756],[2,1],[19,11],[12,11],[10,12]],[[2038,3605],[-2,18],[0,6]],[[2226,3983],[1,4],[0,9],[-2,29],[0,9],[3,24]],[[2036,3629],[0,30],[-1,18],[-8,37],[-1,9],[4,7],[5,6],[5,5],[7,4],[27,11]],[[2117,3791],[1,1],[21,28],[4,5],[5,4],[9,7],[12,7],[5,5],[4,7],[41,100],[4,16],[3,12]],[[2624,2616]],[[2705,2741],[0,2],[9,25]],[[2315,1976],[-6,5],[-5,5],[-3,7],[-2,9],[-1,9],[1,9],[2,8],[3,8],[7,17],[16,30],[46,74],[3,8],[2,7],[1,9],[1,27],[1,10],[2,10],[2,5],[4,5],[125,125],[43,54],[18,26],[7,15],[4,16],[6,37],[9,36],[16,53],[7,16]],[[2624,2616],[16,31],[53,73],[7,11],[5,10]],[[4096,1250],[-271,123],[-48,33],[-21,20],[-12,13],[-5,7],[-67,125],[-36,83],[-30,97],[-10,25],[-13,21],[-6,8],[-63,51],[-121,123],[-34,23],[-34,16],[-235,51]],[[2577,1436],[0,-49],[6,-49],[11,-47],[61,-199],[13,-71],[7,-52],[3,-15],[5,-14],[6,-14],[28,-53],[2,-6],[1,-8],[-1,-17],[-4,-17],[-6,-15],[-9,-13],[-60,-75],[-78,-124],[-45,-57],[-12,-22],[-5,-12],[-4,-14],[-6,-29],[-12,-150],[-2,-15],[-4,-15]],[[2472,284],[-9,-15],[-10,-12],[-22,-22],[-9,-10],[-7,-11],[-73,-150]],[[2342,64],[-22,-7],[-19,-14],[-17,-18],[-14,-24],[0,-1]],[[2312,1957],[35,-86],[2,-6],[19,-89],[13,-92],[6,-24],[2,-9],[4,-7],[6,-12],[3,-4],[3,-3],[10,-9],[12,-9],[14,-6],[29,-10],[12,-6],[12,-7],[12,-9],[11,-10],[11,-12],[10,-14],[18,-31],[16,-40],[2,-5],[3,-17],[1,-5],[4,-13]],[[2473,278],[-22,-22],[-6,-5],[-6,-4],[-6,-3],[-7,-2],[-14,-1],[-14,-1],[-14,1],[-13,3],[-29,12],[-137,80],[-38,16],[-37,5],[-17,-2],[-17,-5],[-45,-21],[-13,-4],[-13,0],[-12,6],[-33,27],[-12,8],[-16,6],[-32,8],[-33,5],[-33,1],[-17,-3],[-103,-30],[-35,-7],[-36,0],[-35,9],[-33,16],[-85,59],[-27,14],[-30,5],[-6,-1],[-65,-18],[-27,-4],[-13,0],[-28,4],[-28,10],[-105,53],[-61,22],[-62,13],[-79,3],[-250,-39],[-18,-6],[-18,-8],[-16,-10],[-14,-11],[-51,-53],[-13,-12],[-15,-10],[-16,-8],[-66,-23],[-23,-13],[-21,-17],[-38,-40],[-123,-104],[-23,-23],[-20,-26],[-18,-29],[-47,-99]],[[31,0],[-2,3],[-29,39]],[[2753,2905],[28,2],[14,4],[14,6],[7,4],[25,20],[12,8],[12,7],[6,4],[5,6],[3,7],[4,19],[4,9],[4,9],[5,6],[28,28],[5,6],[3,7],[1,6],[0,3],[-1,4],[-3,5],[-1,3],[-3,3],[-37,30],[-4,5],[-3,6],[-3,8],[-1,4],[0,13],[-1,9],[-2,8]],[[2592,3070],[0,-17],[0,-8],[1,-8],[1,-4],[1,-3],[2,-3],[2,-3],[1,-3],[0,-3],[-3,-5],[-7,-16],[-2,-8],[-3,-9],[0,-8],[1,-8],[3,-7],[4,-6],[9,-11],[11,-8],[36,-13],[104,-14]],[[2838,2438],[0,6],[-2,34],[0,21]],[[2794,2703],[4,83]],[[2836,2499],[3,67],[-2,6],[-3,6],[-16,22],[-7,12],[-6,12],[-4,13],[-3,14],[-2,14],[-3,30],[1,8]],[[3234,0],[5,285],[23,251],[1,45],[-2,44],[-6,42],[-10,39],[-12,38],[-16,37],[-104,201],[-31,70],[-19,57],[-14,60],[-8,62],[-1,63],[2,29],[1,10],[2,8],[16,52],[2,9],[1,8],[-1,8],[-3,8],[-3,8],[-8,15],[-4,8],[-2,8],[-1,21],[0,20],[1,16],[22,145],[3,35],[13,92],[3,38],[-2,38],[-2,18],[-1,17],[1,17],[6,17],[7,17],[7,18],[5,16],[1,9],[1,9],[-2,19],[-2,9],[-2,9],[-3,8],[-3,8],[-9,14],[-8,10],[-223,188],[-4,3],[-3,4],[-5,18],[0,19],[10,55],[2,18],[-1,9],[-3,8],[-8,15],[-2,6],[-2,8],[-1,2]],[[4096,4096],[0,-4096],[-4096,0],[0,4096],[4096,0]],[[0,2705],[22,-60],[-14,-16],[-8,3],[0,73]],[[2528,3319],[19,37],[90,10],[7,27],[9,-20],[135,-30],[8,-83],[-49,-48],[-4,-63],[-85,-23],[-54,20],[1,51],[-24,7],[-53,115]],[[1378,1404],[48,35],[39,-50],[32,40],[35,-4],[62,-79],[-21,-4],[4,-71],[84,-81],[4,-67],[220,-94],[118,8],[-17,-56],[-18,11],[-10,-34],[-45,14],[-3,-67],[-42,-33],[-250,80],[-174,-15],[107,31],[12,27],[-96,28],[-26,38],[-5,34],[75,45],[-44,65],[60,27],[-31,29],[21,19],[-30,59],[-42,-9],[-67,74]],[[3842,2309],[43,-10],[-32,-63],[-63,41],[-31,-16],[46,80],[37,-32]],[[2947,2384],[88,-19],[4,-74],[-136,-53],[-34,51],[5,75],[66,43],[7,-23]],[[1572,2805],[-61,47],[-4,38],[51,-18],[14,-67]],[[1817,2507],[-25,21],[-10,88],[81,-43],[-46,-66]],[[2462,2742],[-48,-48],[-1,-36],[-30,5],[-18,79],[97,0]],[[2089,2733],[17,-54],[-114,21],[23,46],[38,10],[36,-23]],[[1976,2869],[33,-64],[-21,-18],[-33,29],[-27,-11],[-33,-84],[-44,58],[44,5],[0,64],[81,21]],[[1919,2967],[9,-56],[-70,1],[-20,-69],[-56,-38],[-113,21],[16,106],[33,-42],[46,82],[83,2],[-16,85],[43,-13],[45,-79]],[[3934,2890],[4,100],[36,26],[41,-21],[-28,-69],[-53,-36]],[[3454,2893],[-38,18],[65,84],[27,-31],[-54,-71]],[[1410,3586],[46,-29],[-10,-65],[-117,-54],[-14,39],[30,130],[65,-21]],[[24,4093],[43,-1],[-32,-84],[-35,-4],[0,92],[24,-3]],[[3207,3994],[-33,-49],[-21,8],[-44,118],[32,21],[54,-26],[12,-72]],[[2268,4071],[-17,-63],[-64,-63],[-23,16],[39,110],[65,25],[0,-25]],[[2347,3925],[-31,20],[14,29],[83,34],[-8,-46],[-58,-37]],[[3368,3101],[3,-44],[54,-24],[7,-38],[-145,85],[-49,-21],[-33,72],[37,71],[49,28],[109,-45],[-32,-84]],[[2624,2615],[-75,62],[-39,2],[17,39],[27,18],[69,-15],[-16,84],[-113,0],[-32,-42],[-33,0],[0,42],[-64,-21],[-49,42],[16,43],[-16,84],[75,-34],[23,94],[-49,88],[22,15],[75,-36],[-42,116],[-71,-32],[-1,-21],[-72,45],[-8,-24],[-65,63],[46,51],[-13,55],[-114,21],[-65,-21],[-32,42],[40,59],[170,47],[-48,42],[0,126],[113,43],[0,42],[49,-27],[16,27],[64,-42],[65,42],[210,0],[-64,63],[81,106],[16,-64],[32,-21],[-61,-177],[-133,-13],[-16,-63],[76,17],[37,-59],[62,-22],[3,-41],[56,42],[10,-83],[79,-44],[-16,-63],[81,0],[3,33],[-51,30],[0,42],[-33,20],[0,23],[51,-1],[7,41],[-51,0],[-7,-20],[-16,34],[34,70],[-2,129],[31,1],[18,-67],[45,-47],[3,-77],[42,18],[54,76],[34,-10],[-5,-36],[-51,-18],[-8,-51],[15,-42],[68,-23],[13,23],[14,-28],[-46,-99],[-25,21],[-1,72],[-52,2],[-3,-74],[-32,0],[-27,-44],[10,-83],[-48,-63],[32,-21],[62,62],[84,-83],[48,21],[49,-84],[-30,-56],[-51,-29],[8,-29],[57,-13],[49,-81],[-8,-172],[-28,-19],[-29,40],[-32,-9],[-86,-65],[-12,-74],[-81,0],[-48,106],[32,84],[65,0],[-16,-84],[19,1],[16,32],[126,72],[0,42],[-113,-21],[-32,128],[48,41],[-32,53],[-41,-5],[-8,-111],[-32,-64],[-47,26],[-28,-16],[-32,-104],[42,-95],[-113,84],[-32,-63],[-24,16],[-9,68],[-80,-21],[0,-106]],[[2451,3579],[59,-14],[6,-40],[28,-6],[15,46],[-31,0],[-36,59],[-46,-17],[5,-28]],[[2640,3396],[16,-63],[-36,-19],[4,-23],[45,18],[84,108],[-49,63],[-47,4],[-21,-20],[4,-68]],[[2478,2890],[-97,-21],[0,-53],[90,41],[7,33]],[[3166,2820],[-9,-14],[49,0],[-16,63],[-24,-49]],[[2057,3270],[-19,-78],[-78,14],[33,52],[64,12]],[[3609,3561],[-7,-61],[73,23],[-24,-103],[-73,-18],[-32,-69],[-33,0],[-41,-57],[-23,15],[6,44],[58,167],[57,58],[39,1]],[[2125,3600],[-26,-27],[-41,25],[-49,-12],[6,34],[75,29],[-33,85],[97,-42],[0,-85],[-29,-7]],[[3222,3459],[-29,27],[13,58],[-33,105],[88,20],[23,-35],[-29,-27],[16,-42],[-49,-106]],[[3141,3755],[-32,63],[-65,21],[11,53],[35,28],[84,-18],[-33,-147]],[[2951,3862],[-85,40],[23,46],[38,11],[36,-23],[16,-55],[-28,-19]],[[2873,2571],[74,-19],[3,-34],[-35,-71],[-33,21],[-39,-34],[-27,24],[27,53],[21,-13],[9,73]],[[1382,2924],[15,38],[27,1],[6,57],[99,16],[9,-30],[23,35],[10,-41],[42,-1],[-1,-68],[23,-23],[-121,-23],[-66,47],[-66,-8]],[[2055,3742],[169,132],[14,49],[4,-19],[31,5],[43,46],[57,-37],[-1,75],[-48,9],[48,94],[373,0],[-11,-72],[20,-14],[-33,-54],[89,-48],[-129,-49],[-2,-32],[35,-31],[-56,1],[49,-42],[-2,-38],[-66,-76],[-102,5],[11,-36],[-45,-20],[-55,48],[-73,-26],[0,38],[-57,-22],[-32,30],[-42,-55],[-50,-16],[-10,17],[-31,-31],[-20,8],[8,32],[-24,-23],[-24,11],[27,40],[-65,101]],[[2654,4051],[20,-15],[7,13],[-20,14],[-7,-12]],[[2318,3903],[22,-11],[8,20],[-22,4],[-8,-13]],[[2530,3959],[11,-18],[11,1],[-2,19],[-20,-2]],[[2587,3984],[7,-9],[2,-15],[5,26],[-14,-2]],[[2520,3915],[26,-10],[-5,31],[-15,-4],[-6,-17]],[[2620,4000],[10,-10],[6,4],[-1,4],[-15,2]],[[2575,3971],[5,-4],[2,7],[-3,3],[-4,-6]],[[2560,3959],[7,-6],[5,9],[-3,4],[-9,-7]],[[2528,3319],[22,39],[87,8],[12,27],[4,-20],[135,-30],[8,-83],[-50,-50],[-73,47],[13,-33],[-22,-2],[32,-15],[28,-61],[-66,-20],[-54,20],[1,51],[-24,7],[-53,115]],[[2164,3736],[66,81],[19,76],[28,12],[24,-26],[-27,-68],[18,-62],[106,-27],[28,23],[-67,72],[54,77],[-17,32],[27,28],[-10,58],[69,14],[-19,9],[36,61],[153,0],[-42,-6],[-14,-39],[-84,-59],[-14,-107],[-63,-91],[8,-32],[71,31],[70,100],[77,-42],[-47,-38],[38,-56],[-52,-13],[17,-70],[-44,-6],[6,-27],[-71,24],[-9,-26],[-74,0],[-32,9],[-21,46],[-11,-27],[-16,28],[-61,-7],[-4,33],[-52,-53],[-3,72],[-60,-20],[-1,16]]]}