{"objects":{"water":{"type":"GeometryCollection","geometries":[{"type":"MultiPolygon","properties":{"source":"naturalearthdata.com","kind":"ocean","area":1576712559132672,"sort_rank":200,"min_zoom":0.0,"id":1},"arcs":[[[4]]]},{"type":"LineString","properties":{"source":"naturalearthdata.com","kind":"ocean","sort_rank":205,"boundary":true,"min_zoom":0.0,"id":56},"arcs":[5]}]},"buildings":{"type":"GeometryCollection","geometries":[]},"places":{"type":"GeometryCollection","geometries":[{"type":"Point","properties":{"admin_level":"4","kind":"region","name":"Ogun","kind_detail":"state","source":"openstreetmap.org","min_zoom":4.0,"name:uk":"\u041e\u0433\u0443\u043d","name:ru":"\u041e\u0433\u0443\u043d","id":2163706714},"coordinates":[1825,3994]},{"type":"Point","properties":{"admin_level":"4","kind":"region","name":"Lagos","kind_detail":"state","source":"openstreetmap.org","min_zoom":4.0,"name:uk":"\u041b\u0430\u0433\u043e\u0441","name:ru":"\u041b\u0430\u0433\u043e\u0441","id":2163706711},"coordinates":[2228,2670]},{"type":"Point","properties":{"admin_level":"4","kind":"locality","name":"Lagos","name:hi":"\u0932\u093e\u0917\u094b\u0938\u094d","kind_detail":"city","name:eo":"Lagoso","alt_name:eo":"Lejgoso","source":"openstreetmap.org","min_zoom":8.0,"name:uk":"\u041b\u0430\u0491\u043e\u0441","name:kn":"\u0cb2\u0cbe\u0c97\u0ccb\u0cb8\u0ccd","name:ru":"\u041b\u0430\u0433\u043e\u0441","id":27565124,"population":10404112},"coordinates":[1694,2459]},{"type":"Point","properties":{"kind":"locality","name":"Ikorodu","kind_detail":"city","source":"openstreetmap.org","min_zoom":8.0,"name:ru":"\u0418\u043a\u043e\u0440\u043e\u0434\u0443","id":501483970,"population":535619},"coordinates":[2015,2940]},{"type":"Point","properties":{"source":"openstreetmap.org","kind":"locality","name":"Victoria Island","kind_detail":"city","population":217362,"min_zoom":8.0,"id":501471396},"coordinates":[1760,2395]},{"type":"Point","properties":{"kind":"locality","name":"Epe","kind_detail":"town","source":"openstreetmap.org","min_zoom":8.0,"name:ru":"\u042d\u043f\u0435","id":501496653,"population":181409},"coordinates":[3387,2842]}]},"transit":{"type":"GeometryCollection","geometries":[]},"pois":{"type":"GeometryCollection","geometries":[]},"boundaries":{"type":"GeometryCollection","geometries":[{"type":"LineString","properties":{"name:kg":"Nizeria","name:wa":"Nidjeria","name:pt":"Nig\u00e9ria","name:ps":"\u0646\u0627\u064a\u062c\u06d0\u0631\u064a\u0627","name:ka":"\u10dc\u10d8\u10d2\u10d4\u10e0\u10d8\u10d0","name:ko":"\ub098\uc774\uc9c0\ub9ac\uc544","name:cv":"\u041d\u0438\u0433\u0435\u0440\u0438","name:tr":"Nijerya","name:cs":"Nig\u00e9rie","name:tt":"\u041d\u0438\u0433\u0435\u0440\u0438\u044f","name:kw":"Nijeri","name:tk":"Nigeri\u00fda","name:ku":"N\u00eejerya","name:ti":"\u1293\u12ed\u1302\u122a\u12eb","name:tl":"Nigerya","name:pa":"\u0a28\u0a3e\u0a08\u0a1c\u0a40\u0a30\u0a40\u0a06","name:os":"\u041d\u0438\u0433\u0435\u0440\u0438","name:or":"\u0b28\u0b3e\u0b07\u0b1c\u0b47\u0b30\u0b3f\u0b06","name:ce":"\u041d\u0438\u0433\u0435\u0440\u0438","name:ta":"\u0ba8\u0bc8\u0b9c\u0bc0\u0bb0\u0bbf\u0baf\u0bbe","name:tg":"\u041d\u0438\u04b7\u0435\u0440\u0438\u044f","name:ca":"Nig\u00e8ria","name:te":"\u0c28\u0c48\u0c1c\u0c40\u0c30\u0c3f\u0c2f\u0c3e","name:bg":"\u041d\u0438\u0433\u0435\u0440\u0438\u044f","sort_rank":262,"name:qu":"Niqirya","name:ba":"\u041d\u0438\u0433\u0435\u0440\u0438\u044f","source":"openstreetmap.org","name:xh":"INigeria","name:kn":"\u0ca8\u0cc8\u0c9c\u0cc0\u0cb0\u0cbf\u0caf","name:dv":"\u0782\u07a6\u0787\u07a8\u0796\u07a9\u0783\u07a8\u0787\u07a7","name:lv":"Nig\u0113rija","name:lt":"Nigerija","name:uz":"Nigeriya","name:kk":"\u041d\u0438\u0433\u0435\u0440\u0438\u044f","name:he":"\u05e0\u05d9\u05d2\u05e8\u05d9\u05d4","name:eo":"Ni\u011derio","name:ur":"\u0646\u0627\u0626\u062c\u06cc\u0631\u06cc\u0627","name:uk":"\u041d\u0456\u0433\u0435\u0440\u0456\u044f","name:hy":"\u0546\u056b\u0563\u0565\u0580\u056b\u0561","name:ug":"\u0646\u0649\u06af\u06d0\u0631\u0649\u064a\u06d5","name:hu":"Nig\u00e9ria","name:ln":"Nizeria","name:oc":"Nig\u00e8ria","name:el":"\u039d\u03b9\u03b3\u03b7\u03c1\u03af\u03b1","kind":"country","name":"Nigeria","min_zoom":8.0,"name:th":"\u0e1b\u0e23\u0e30\u0e40\u0e17\u0e28\u0e44\u0e19\u0e08\u0e35\u0e40\u0e23\u0e35\u0e22","name:yi":"\u05e0\u05d9\u05d2\u05e2\u05e8\u05d9\u05e2","name:et":"Nigeeria","name:yo":"N\u00e0\u00ecj\u00edr\u00ed\u00e0","name:mt":"Ni\u0121erja","name:az":"Nigeriya","name:ig":"Naigeria","name:mr":"\u0928\u093e\u092f\u091c\u0947\u0930\u093f\u092f\u093e","name:ar":"\u0646\u064a\u062c\u064a\u0631\u064a\u0627","name:my":"\u1014\u102d\u102f\u1004\u103a\u1002\u103b\u102e\u1038\u101b\u102e\u1038\u101a\u102c\u1038\u1014\u102d\u102f\u1004\u103a\u1004\u1036","name:is":"N\u00edger\u00eda","name:am":"\u1293\u12ed\u1304\u122a\u12eb","name:an":"Nicheria","name:ml":"\u0d28\u0d48\u0d1c\u0d40\u0d30\u0d3f\u0d2f","name:rw":"Nijeriya","id":-192787,"name:mk":"\u041d\u0438\u0433\u0435\u0440\u0438\u0458\u0430","name:af":"Nigeri\u00eb","name:zu":"INigeria","name:mn":"\u041d\u0438\u0433\u0435\u0440\u0438","name:ff":"Niiseriya","kind_detail":"2","name:hi":"\u0928\u093e\u0908\u091c\u0940\u0930\u093f\u092f\u093e","name:mg":"Nizeria","name:fr":"Nig\u00e9ria","name:za":"Nizywlihya","name:zh-yue":"\u5c3c\u65e5\u5229\u4e9e","name:fy":"Nigearia","name:vo":"Nigeriy\u00e4n","name:zh":"\u5948\u53ca\u5229\u4e9e","name:hr":"Nigerija","name:so":"Nayjeeriya","name:sl":"Nigerija","name:sk":"Nig\u00e9ria","name:ja":"\u30ca\u30a4\u30b8\u30a7\u30ea\u30a2","name:sh":"Nigerija","name:sg":"Nizer\u00efa","name:sc":"Nig\u00e9ria","name:ne":"\u0928\u093e\u0907\u091c\u0947\u0930\u093f\u092f\u093e","name:sa":"\u0928\u0948\u091c\u0940\u0930\u093f\u092f\u093e","name:bs":"Nigerija","name:bm":"Nijeria","name:bn":"\u09a8\u09be\u0987\u099c\u09c7\u09b0\u09bf\u09af\u09bc\u09be","name:bo":"\u0f53\u0f72\u0f0b\u0f47\u0f72\u0f0b\u0f62\u0f72\u0f0b\u0f61\u0f0d","name:ru":"\u041d\u0438\u0433\u0435\u0440\u0438\u044f","name:be":"\u041d\u0456\u0433\u0435\u0440\u044b\u044f","name:ha":"Nijeriya","name:ss":"INayijeriya","name:sr":"\u041d\u0438\u0433\u0435\u0440\u0438\u0458\u0430","osm_relation":true,"name:ga":"An Nig\u00e9ir","name:gd":"N\u00ecgeiria","name:ht":"Nijerya","name:gn":"Niheria","name:gl":"Nixeria","name:fa":"\u0646\u06cc\u062c\u0631\u06cc\u0647","maritime_boundary":true,"name:gv":"Yn Naigeer","name:gu":"\u0aa8\u0abe\u0a88\u0a9c\u0ac7\u0ab0\u0abf\u0aaf\u0abe"},"arcs":[0]},{"type":"MultiLineString","properties":{"name:right:uk":"\u041b\u0430\u0433\u043e\u0441","name:right:ru":"\u041b\u0430\u0433\u043e\u0441","name:left:uk":"\u041e\u0433\u0443\u043d","min_zoom":8.0,"name:left:ru":"\u041e\u0433\u0443\u043d","id:right":-3718182,"id":-3718463,"osm_relation":true,"name:right":"Lagos","kind":"region","name":"Ogun - Lagos","sort_rank":256,"kind_detail":"4","source":"openstreetmap.org","id:left":-3718463,"name:left":"Ogun"},"arcs":[[1],[2]]},{"type":"LineString","properties":{"kind":"region","name":"Lagos","sort_rank":256,"kind_detail":"4","min_zoom":8.0,"source":"openstreetmap.org","maritime_boundary":true,"name:uk":"\u041b\u0430\u0433\u043e\u0441","name:ru":"\u041b\u0430\u0433\u043e\u0441","id":-3718182,"osm_relation":true},"arcs":[3]}]},"roads":{"type":"GeometryCollection","geometries":[{"type":"MultiLineString","properties":{"kind":"major_road","network":"Trans-African Highways","sort_rank":381,"kind_detail":"trunk","source":"openstreetmap.org","min_zoom":8.0,"shield_text":null,"ref":"A151"},"arcs":[[6],[7]]},{"type":"MultiLineString","properties":{"kind":"major_road","network":null,"sort_rank":380,"kind_detail":"primary","source":"openstreetmap.org","min_zoom":8.0,"shield_text":"101","ref":"F101"},"arcs":[[8],[9],[10],[11],[12],[13],[14]]},{"type":"LineString","properties":{"kind":"major_road","network":null,"sort_rank":380,"kind_detail":"primary","source":"openstreetmap.org","min_zoom":8.0,"landuse_kind":"urban_area","shield_text":"262","ref":"F262","id":133758773},"arcs":[15]},{"type":"MultiLineString","properties":{"kind":"highway","network":null,"sort_rank":383,"landuse_kind":"residential","source":"openstreetmap.org","min_zoom":8.0,"all_networks":[null],"kind_detail":"motorway","shield_text":"263","ref":"F263","all_shield_texts":["263"]},"arcs":[[16],[17]]},{"type":"MultiLineString","properties":{"source":"openstreetmap.org","kind":"major_road","sort_rank":381,"kind_detail":"trunk","ref":"A121-1","min_zoom":8.0},"arcs":[[18],[19]]},{"type":"MultiLineString","properties":{"kind":"major_road","network":null,"sort_rank":381,"landuse_kind":"urban_area","source":"openstreetmap.org","min_zoom":8.0,"kind_detail":"trunk","shield_text":"5","ref":"A5"},"arcs":[[20],[21],[22],[23],[24],[25],[26],[27],[28],[29],[30],[31],[32],[33],[34],[35],[36],[37],[38],[39]]},{"type":"MultiLineString","properties":{"kind":"major_road","network":null,"sort_rank":380,"kind_detail":"primary","source":"openstreetmap.org","min_zoom":8.0,"landuse_kind":"urban_area","shield_text":"204","ref":"F204"},"arcs":[[40],[41],[42],[43]]},{"type":"LineString","properties":{"kind":"major_road","sort_rank":381,"landuse_kind":"urban_area","source":"openstreetmap.org","min_zoom":8.0,"kind_detail":"trunk","ref":"A1","id":538323249},"arcs":[44]},{"type":"MultiLineString","properties":{"kind":"highway","network":null,"sort_rank":383,"kind_detail":"motorway","source":"openstreetmap.org","min_zoom":8.0,"all_networks":[null],"shield_text":"1","ref":"E1","all_shield_texts":["1"]},"arcs":[[45],[46],[47],[48],[49],[50]]},{"type":"MultiLineString","properties":{"source":"openstreetmap.org","kind":"highway","sort_rank":383,"kind_detail":"motorway","ref":"F264","min_zoom":8.0},"arcs":[[51],[52],[53],[54]]},{"type":"MultiLineString","properties":{"kind":"highway","network":null,"sort_rank":383,"kind_detail":"motorway","source":"openstreetmap.org","min_zoom":8.0,"all_networks":[null],"landuse_kind":"urban_area","shield_text":"265","all_shield_texts":["265"]},"arcs":[[55],[56]]},{"type":"MultiLineString","properties":{"kind":"major_road","network":"Trans-African Highways","sort_rank":380,"kind_detail":"primary","source":"openstreetmap.org","min_zoom":8.0,"shield_text":null,"ref":"F100"},"arcs":[[57],[58],[59],[60],[61],[62],[63],[64],[65],[66],[67],[68]]},{"type":"MultiLineString","properties":{"kind":"major_road","network":null,"sort_rank":381,"kind_detail":"trunk","source":"openstreetmap.org","min_zoom":8.0,"shield_text":"5-1","ref":"A5-1"},"arcs":[[69],[70],[71]]},{"type":"MultiLineString","properties":{"kind":"major_road","network":null,"sort_rank":380,"kind_detail":"primary","source":"openstreetmap.org","min_zoom":8.0,"shield_text":"105","ref":"F105"},"arcs":[[72],[73],[74],[75],[76],[77]]},{"type":"MultiLineString","properties":{"kind":"major_road","network":null,"sort_rank":380,"kind_detail":"primary","source":"openstreetmap.org","min_zoom":8.0,"landuse_kind":"urban_area","shield_text":"269","ref":"F269"},"arcs":[[78],[79],[80],[81]]},{"type":"LineString","properties":{"kind":"major_road","network":null,"sort_rank":380,"kind_detail":"primary","source":"openstreetmap.org","min_zoom":8.0,"landuse_kind":"urban_area","shield_text":"1","ref":"A1"},"arcs":[82]},{"type":"LineString","properties":{"kind":"highway","network":null,"sort_rank":383,"kind_detail":"motorway","source":"openstreetmap.org","min_zoom":8.0,"all_networks":[null],"landuse_kind":"urban_area","shield_text":"269","ref":"F269","id":134144417,"all_shield_texts":["269"]},"arcs":[83]},{"type":"MultiLineString","properties":{"kind":"major_road","network":null,"sort_rank":380,"kind_detail":"primary","source":"openstreetmap.org","min_zoom":8.0,"shield_text":"200","ref":"F200"},"arcs":[[84],[85]]},{"type":"LineString","properties":{"source":"openstreetmap.org","kind":"major_road","sort_rank":380,"kind_detail":"primary","ref":"A121","min_zoom":8.0,"id":281967784},"arcs":[86]},{"type":"MultiLineString","properties":{"kind":"highway","network":null,"sort_rank":383,"landuse_kind":"urban_area","source":"openstreetmap.org","min_zoom":8.0,"all_networks":[null],"kind_detail":"motorway","shield_text":"1","ref":"A1","all_shield_texts":["1"]},"arcs":[[87],[88],[89],[90],[91],[92]]},{"type":"MultiLineString","properties":{"sort_rank":381,"source":"openstreetmap.org","min_zoom":8.0,"kind":"major_road","kind_detail":"trunk"},"arcs":[[93],[94]]},{"type":"LineString","properties":{"kind":"major_road","sort_rank":380,"landuse_kind":"urban_area","source":"openstreetmap.org","min_zoom":8.0,"kind_detail":"primary","ref":"F105","id":285143858},"arcs":[95]},{"type":"MultiLineString","properties":{"kind":"major_road","network":null,"sort_rank":380,"kind_detail":"primary","source":"openstreetmap.org","min_zoom":8.0,"shield_text":"205","ref":"F205"},"arcs":[[96],[97],[98]]},{"type":"MultiLineString","properties":{"kind":"highway","network":null,"sort_rank":383,"kind_detail":"motorway","source":"openstreetmap.org","min_zoom":8.0,"all_networks":[null],"landuse_kind":"residential","shield_text":"265","ref":"F265","all_shield_texts":["265"]},"arcs":[[99],[100]]},{"type":"LineString","properties":{"source":"openstreetmap.org","kind":"major_road","sort_rank":381,"kind_detail":"trunk","ref":"A5-1","min_zoom":8.0,"id":239128095},"arcs":[101]},{"type":"MultiLineString","properties":{"kind":"major_road","network":null,"sort_rank":381,"landuse_kind":"urban_area","source":"openstreetmap.org","min_zoom":8.0,"kind_detail":"trunk","shield_text":"1-1","ref":"A1-1"},"arcs":[[102],[103],[104],[105],[106],[107],[108],[109],[110],[111],[112],[113]]},{"type":"LineString","properties":{"kind":"major_road","network":null,"sort_rank":381,"landuse_kind":"urban_area","source":"openstreetmap.org","min_zoom":8.0,"kind_detail":"trunk","shield_text":"5-1","ref":"A5-1"},"arcs":[114]},{"type":"MultiLineString","properties":{"source":"openstreetmap.org","kind":"highway","sort_rank":383,"kind_detail":"motorway","ref":"E1","min_zoom":8.0},"arcs":[[115],[116],[117],[118]]},{"type":"MultiLineString","properties":{"kind":"major_road","network":null,"sort_rank":380,"kind_detail":"primary","source":"openstreetmap.org","min_zoom":8.0,"landuse_kind":"urban_area","shield_text":"265","ref":"F265"},"arcs":[[119],[120],[121],[122]]},{"type":"MultiLineString","properties":{"source":"openstreetmap.org","kind":"major_road","landuse_kind":"urban_area","sort_rank":380,"kind_detail":"primary","min_zoom":8.0},"arcs":[[123],[124],[125],[126],[127],[128],[129],[130],[131],[132],[133],[134],[135],[136],[137],[138],[139],[140],[141],[142],[143],[144],[145],[146],[147],[148]]},{"type":"MultiLineString","properties":{"kind":"highway","network":null,"sort_rank":383,"kind_detail":"motorway","source":"openstreetmap.org","min_zoom":8.0,"all_networks":[null],"shield_text":"265","ref":"F264","all_shield_texts":["265"]},"arcs":[[149],[150]]},{"type":"MultiLineString","properties":{"source":"openstreetmap.org","kind":"highway","landuse_kind":"urban_area","sort_rank":383,"kind_detail":"motorway","min_zoom":8.0},"arcs":[[151],[152],[153],[154],[155],[156],[157],[158]]},{"type":"MultiLineString","properties":{"kind":"major_road","network":"Trans-African Highways","sort_rank":380,"kind_detail":"primary","source":"openstreetmap.org","min_zoom":8.0,"landuse_kind":"urban_area","shield_text":null,"ref":"F100"},"arcs":[[159],[160],[161],[162],[163],[164],[165]]},{"type":"MultiLineString","properties":{"kind":"major_road","network":null,"sort_rank":380,"kind_detail":"primary","source":"openstreetmap.org","min_zoom":8.0,"landuse_kind":"residential","shield_text":"204","ref":"F204"},"arcs":[[166],[167],[168],[169],[170],[171],[172],[173],[174],[175],[176],[177],[178]]},{"type":"MultiLineString","properties":{"kind":"highway","network":"Trans-African Highways","sort_rank":383,"landuse_kind":"urban_area","source":"openstreetmap.org","min_zoom":8.0,"all_networks":["Trans-African Highways",null],"kind_detail":"motorway","shield_text":null,"ref":"A1","all_shield_texts":[null,"1"]},"arcs":[[179],[180]]},{"type":"MultiLineString","properties":{"kind":"major_road","network":null,"sort_rank":381,"kind_detail":"trunk","source":"openstreetmap.org","min_zoom":8.0,"shield_text":"121-1","ref":"A121-1"},"arcs":[[181],[182],[183],[184],[185],[186],[187],[188]]},{"type":"MultiLineString","properties":{"kind":"major_road","network":null,"sort_rank":381,"landuse_kind":"aerodrome","source":"openstreetmap.org","min_zoom":8.0,"kind_detail":"trunk","shield_text":"152","ref":"A152"},"arcs":[[189],[190]]},{"type":"MultiLineString","properties":{"kind":"major_road","network":null,"sort_rank":380,"kind_detail":"primary","source":"openstreetmap.org","min_zoom":8.0,"landuse_kind":"urban_area","shield_text":"263","ref":"F263"},"arcs":[[191],[192],[193],[194],[195],[196]]},{"type":"MultiLineString","properties":{"kind":"highway","network":null,"sort_rank":383,"landuse_kind":"residential","source":"openstreetmap.org","min_zoom":8.0,"all_networks":[null],"kind_detail":"motorway","shield_text":"1-2","ref":"A1-2","all_shield_texts":["1-2"]},"arcs":[[197],[198]]},{"type":"MultiLineString","properties":{"kind":"major_road","network":null,"sort_rank":380,"kind_detail":"primary","source":"openstreetmap.org","min_zoom":8.0,"landuse_kind":"urban_area","shield_text":"205","ref":"F205"},"arcs":[[199],[200],[201],[202],[203]]},{"type":"MultiLineString","properties":{"kind":"major_road","network":null,"sort_rank":380,"kind_detail":"primary","source":"openstreetmap.org","min_zoom":8.0,"landuse_kind":"urban_area","shield_text":"121","ref":"A121"},"arcs":[[204],[205],[206],[207],[208]]},{"type":"MultiLineString","properties":{"source":"openstreetmap.org","kind":"major_road","kind_detail":"primary","sort_rank":380,"landuse_kind":"residential","ref":"F264","min_zoom":8.0},"arcs":[[209],[210],[211]]},{"type":"LineString","properties":{"kind":"major_road","network":null,"sort_rank":380,"kind_detail":"primary","source":"openstreetmap.org","min_zoom":8.0,"landuse_kind":"residential","shield_text":"200","ref":"F200"},"arcs":[212]},{"type":"LineString","properties":{"kind":"major_road","network":null,"sort_rank":380,"kind_detail":"primary","source":"openstreetmap.org","min_zoom":8.0,"landuse_kind":"urban_area","shield_text":"100","ref":"F100","id":264916645},"arcs":[213]},{"type":"MultiLineString","properties":{"kind":"major_road","network":null,"sort_rank":381,"landuse_kind":"urban_area","source":"openstreetmap.org","min_zoom":8.0,"kind_detail":"trunk","shield_text":"152","ref":"A152"},"arcs":[[214],[215],[216],[217]]},{"type":"MultiLineString","properties":{"kind":"major_road","network":null,"sort_rank":380,"kind_detail":"primary","source":"openstreetmap.org","min_zoom":8.0,"shield_text":"121","ref":"A121"},"arcs":[[218],[219],[220],[221],[222],[223],[224],[225]]},{"type":"MultiLineString","properties":{"kind":"major_road","network":null,"sort_rank":381,"kind_detail":"trunk","source":"openstreetmap.org","min_zoom":8.0,"landuse_kind":"residential","shield_text":"121-1","ref":"A121-1"},"arcs":[[226],[227]]},{"type":"LineString","properties":{"kind":"major_road","network":null,"sort_rank":380,"kind_detail":"primary","source":"openstreetmap.org","min_zoom":8.0,"landuse_kind":"urban_area","shield_text":"205","id":282833177},"arcs":[228]},{"type":"MultiLineString","properties":{"source":"openstreetmap.org","kind":"major_road","sort_rank":380,"kind_detail":"primary","ref":"F204","min_zoom":8.0},"arcs":[[229],[230]]},{"type":"LineString","properties":{"source":"openstreetmap.org","kind":"major_road","landuse_kind":"urban_area","sort_rank":380,"kind_detail":"primary","ref":"F200","min_zoom":8.0},"arcs":[231]},{"type":"MultiLineString","properties":{"sort_rank":380,"kind_detail":"primary","min_zoom":8.0,"kind":"major_road","source":"openstreetmap.org"},"arcs":[[232],[233],[234],[235],[236],[237],[238],[239],[240],[241],[242],[243],[244]]},{"type":"MultiLineString","properties":{"kind":"major_road","network":null,"sort_rank":380,"kind_detail":"primary","source":"openstreetmap.org","min_zoom":8.0,"landuse_kind":"residential","shield_text":"262","ref":"F262"},"arcs":[[245],[246],[247],[248]]},{"type":"LineString","properties":{"source":"openstreetmap.org","kind":"major_road","sort_rank":380,"kind_detail":"primary","ref":"F200","min_zoom":8.0},"arcs":[249]},{"type":"MultiLineString","properties":{"kind":"major_road","network":null,"sort_rank":380,"kind_detail":"primary","source":"openstreetmap.org","min_zoom":8.0,"landuse_kind":"residential","shield_text":"121","ref":"A121"},"arcs":[[250],[251],[252],[253],[254],[255],[256],[257]]},{"type":"LineString","properties":{"source":"openstreetmap.org","kind":"major_road","sort_rank":380,"kind_detail":"primary","ref":"F101","min_zoom":8.0,"id":282181607},"arcs":[258]},{"type":"MultiLineString","properties":{"kind":"major_road","network":null,"sort_rank":380,"kind_detail":"primary","source":"openstreetmap.org","min_zoom":8.0,"landuse_kind":"urban_area","shield_text":"270","ref":"F270"},"arcs":[[259],[260],[261]]},{"type":"MultiLineString","properties":{"kind":"major_road","network":null,"sort_rank":380,"kind_detail":"primary","source":"openstreetmap.org","min_zoom":8.0,"landuse_kind":"residential","shield_text":"205","ref":"F205"},"arcs":[[262],[263],[264],[265],[266],[267]]},{"type":"MultiLineString","properties":{"kind":"highway","network":null,"sort_rank":383,"landuse_kind":"urban_area","source":"openstreetmap.org","min_zoom":8.0,"all_networks":[null],"kind_detail":"motorway","shield_text":"1-2","ref":"A1-2","all_shield_texts":["1-2"]},"arcs":[[268],[269]]},{"type":"MultiLineString","properties":{"kind":"major_road","network":null,"sort_rank":381,"kind_detail":"trunk","source":"openstreetmap.org","min_zoom":8.0,"shield_text":"1","ref":"A1"},"arcs":[[270],[271],[272],[273],[274],[275]]},{"type":"LineString","properties":{"kind":"major_road","network":null,"sort_rank":380,"kind_detail":"primary","source":"openstreetmap.org","min_zoom":8.0,"landuse_kind":"urban_area","shield_text":"105","ref":"F105","id":285014368},"arcs":[276]},{"type":"MultiLineString","properties":{"kind":"major_road","network":null,"sort_rank":380,"kind_detail":"primary","source":"openstreetmap.org","min_zoom":8.0,"shield_text":"270","ref":"F270"},"arcs":[[277],[278],[279],[280],[281],[282],[283]]},{"type":"LineString","properties":{"kind":"major_road","network":null,"sort_rank":380,"kind_detail":"primary","source":"openstreetmap.org","min_zoom":8.0,"landuse_kind":"urban_area","shield_text":"200","ref":"F200"},"arcs":[284]},{"type":"MultiLineString","properties":{"source":"openstreetmap.org","kind":"major_road","landuse_kind":"residential","sort_rank":381,"kind_detail":"trunk","ref":"F264","min_zoom":8.0},"arcs":[[285],[286],[287]]},{"type":"MultiLineString","properties":{"source":"openstreetmap.org","kind":"major_road","kind_detail":"trunk","sort_rank":381,"landuse_kind":"urban_area","min_zoom":8.0},"arcs":[[288],[289],[290],[291],[292],[293]]},{"type":"MultiLineString","properties":{"kind":"major_road","network":null,"sort_rank":381,"kind_detail":"trunk","source":"openstreetmap.org","min_zoom":8.0,"landuse_kind":"residential","shield_text":"5-1","ref":"A5-1"},"arcs":[[294],[295],[296],[297]]},{"type":"MultiLineString","properties":{"kind":"highway","network":null,"sort_rank":383,"kind_detail":"motorway","source":"openstreetmap.org","min_zoom":8.0,"all_networks":[null],"shield_text":"265","ref":"F265","all_shield_texts":["265"]},"arcs":[[298],[299]]},{"type":"MultiLineString","properties":{"source":"openstreetmap.org","kind":"major_road","network":"Trans-African Highways","sort_rank":380,"kind_detail":"primary","min_zoom":8.0,"shield_text":null},"arcs":[[300],[301]]},{"type":"MultiLineString","properties":{"kind":"major_road","network":null,"sort_rank":380,"kind_detail":"primary","source":"openstreetmap.org","min_zoom":8.0,"shield_text":"204","ref":"F204"},"arcs":[[302],[303],[304],[305]]},{"type":"MultiLineString","properties":{"kind":"major_road","network":"Trans-African Highways","sort_rank":380,"kind_detail":"primary","source":"openstreetmap.org","min_zoom":8.0,"landuse_kind":"urban_area","shield_text":null},"arcs":[[306],[307]]},{"type":"LineString","properties":{"kind":"major_road","network":null,"sort_rank":380,"kind_detail":"primary","source":"openstreetmap.org","min_zoom":8.0,"landuse_kind":"aerodrome","shield_text":"269","ref":"F269"},"arcs":[308]},{"type":"MultiLineString","properties":{"source":"openstreetmap.org","kind":"highway","landuse_kind":"residential","sort_rank":383,"kind_detail":"motorway","ref":"F264","min_zoom":8.0},"arcs":[[309],[310]]},{"type":"MultiLineString","properties":{"kind":"major_road","network":null,"sort_rank":381,"kind_detail":"trunk","source":"openstreetmap.org","min_zoom":8.0,"shield_text":"5","ref":"A5"},"arcs":[[311],[312],[313],[314],[315],[316],[317],[318],[319],[320]]},{"type":"MultiLineString","properties":{"kind":"major_road","network":null,"sort_rank":380,"kind_detail":"primary","source":"openstreetmap.org","min_zoom":8.0,"landuse_kind":"urban_area","shield_text":"101","ref":"F101"},"arcs":[[321],[322],[323],[324]]},{"type":"MultiLineString","properties":{"kind":"major_road","network":null,"sort_rank":381,"kind_detail":"trunk","source":"openstreetmap.org","min_zoom":8.0,"shield_text":"102","ref":"F102"},"arcs":[[325],[326],[327],[328],[329],[330],[331],[332],[333],[334],[335],[336]]},{"type":"LineString","properties":{"kind":"major_road","network":null,"sort_rank":380,"kind_detail":"primary","source":"openstreetmap.org","min_zoom":8.0,"shield_text":"1","ref":"A1"},"arcs":[337]},{"type":"MultiLineString","properties":{"source":"openstreetmap.org","kind":"major_road","landuse_kind":"residential","sort_rank":380,"kind_detail":"primary","min_zoom":8.0},"arcs":[[338],[339],[340],[341],[342],[343],[344],[345],[346],[347]]},{"type":"LineString","properties":{"source":"openstreetmap.org","kind":"major_road","landuse_kind":"aerodrome","sort_rank":381,"kind_detail":"trunk","min_zoom":8.0,"id":134398962},"arcs":[348]},{"type":"MultiLineString","properties":{"kind":"highway","network":null,"sort_rank":383,"kind_detail":"motorway","source":"openstreetmap.org","min_zoom":8.0,"all_networks":[null],"landuse_kind":"urban_area","shield_text":"265","ref":"F265","all_shield_texts":["265"]},"arcs":[[349],[350],[351],[352],[353],[354],[355],[356]]},{"type":"MultiLineString","properties":{"kind":"major_road","network":"Trans-African Highways","sort_rank":381,"kind_detail":"trunk","source":"openstreetmap.org","min_zoom":8.0,"shield_text":null,"ref":"A5"},"arcs":[[357],[358]]},{"type":"LineString","properties":{"kind":"major_road","network":null,"sort_rank":380,"kind_detail":"primary","source":"openstreetmap.org","min_zoom":8.0,"shield_text":"268","ref":"F268","id":215649060},"arcs":[359]},{"type":"MultiLineString","properties":{"kind":"highway","network":null,"sort_rank":383,"kind_detail":"motorway","source":"openstreetmap.org","min_zoom":8.0,"all_networks":[null],"landuse_kind":"residential","shield_text":"265","all_shield_texts":["265"]},"arcs":[[360],[361]]},{"type":"MultiLineString","properties":{"kind":"major_road","network":null,"sort_rank":380,"kind_detail":"primary","source":"openstreetmap.org","min_zoom":8.0,"landuse_kind":"urban_area","shield_text":"266","ref":"F266"},"arcs":[[362],[363]]},{"type":"MultiLineString","properties":{"kind":"highway","network":null,"sort_rank":383,"kind_detail":"motorway","source":"openstreetmap.org","min_zoom":8.0,"all_networks":[null],"landuse_kind":"residential","shield_text":"265","ref":"F264","all_shield_texts":["265"]},"arcs":[[364],[365]]},{"type":"MultiLineString","properties":{"kind":"highway","network":null,"sort_rank":383,"landuse_kind":"urban_area","source":"openstreetmap.org","min_zoom":8.0,"all_networks":[null],"kind_detail":"motorway","shield_text":"1","ref":"E1","all_shield_texts":["1"]},"arcs":[[366],[367],[368],[369]]},{"type":"MultiLineString","properties":{"source":"openstreetmap.org","kind":"major_road","sort_rank":381,"kind_detail":"trunk","ref":"F264","min_zoom":8.0},"arcs":[[370],[371]]},{"type":"MultiLineString","properties":{"kind":"major_road","network":"Trans-African Highways","sort_rank":381,"landuse_kind":"urban_area","source":"openstreetmap.org","min_zoom":8.0,"kind_detail":"trunk","shield_text":null,"ref":"A151"},"arcs":[[372],[373],[374],[375]]},{"type":"LineString","properties":{"kind":"major_road","network":null,"sort_rank":381,"kind_detail":"trunk","source":"openstreetmap.org","min_zoom":8.0,"shield_text":"5-1","id":207523516},"arcs":[376]},{"type":"MultiLineString","properties":{"kind":"highway","network":null,"sort_rank":383,"kind_detail":"motorway","source":"openstreetmap.org","min_zoom":8.0,"all_networks":[null],"shield_text":"1-2","ref":"A1-2","all_shield_texts":["1-2"]},"arcs":[[377],[378]]},{"type":"MultiLineString","properties":{"kind":"highway","network":"Trans-African Highways","sort_rank":383,"landuse_kind":"urban_area","source":"openstreetmap.org","min_zoom":8.0,"all_networks":["Trans-African Highways",null],"kind_detail":"motorway","shield_text":null,"ref":"A151","all_shield_texts":[null,"151"]},"arcs":[[379],[380]]},{"type":"LineString","properties":{"source":"openstreetmap.org","kind":"major_road","sort_rank":381,"kind_detail":"trunk","ref":"A1","min_zoom":8.0},"arcs":[381]},{"type":"MultiLineString","properties":{"source":"openstreetmap.org","kind":"highway","landuse_kind":"urban_area","sort_rank":383,"kind_detail":"motorway","ref":"F264","min_zoom":8.0},"arcs":[[382],[383]]},{"type":"MultiLineString","properties":{"kind":"highway","network":null,"sort_rank":383,"landuse_kind":"urban_area","source":"openstreetmap.org","min_zoom":8.0,"all_networks":[null],"kind_detail":"motorway","shield_text":"263","ref":"F263","all_shield_texts":["263"]},"arcs":[[384],[385]]},{"type":"MultiLineString","properties":{"kind":"highway","network":null,"sort_rank":383,"kind_detail":"motorway","source":"openstreetmap.org","min_zoom":8.0,"all_networks":[null],"shield_text":"265","all_shield_texts":["265"]},"arcs":[[386],[387],[388],[389]]},{"type":"MultiLineString","properties":{"source":"openstreetmap.org","kind":"major_road","sort_rank":380,"kind_detail":"primary","ref":"F264","min_zoom":8.0},"arcs":[[390],[391]]},{"type":"LineString","properties":{"kind":"major_road","network":null,"sort_rank":380,"kind_detail":"primary","source":"openstreetmap.org","min_zoom":8.0,"landuse_kind":"urban_area","shield_text":"268","ref":"F268","id":215649060},"arcs":[392]},{"type":"MultiLineString","properties":{"source":"openstreetmap.org","kind":"highway","landuse_kind":"urban_area","sort_rank":383,"kind_detail":"motorway","ref":"E1","min_zoom":8.0},"arcs":[[393],[394]]},{"type":"LineString","properties":{"source":"openstreetmap.org","kind":"major_road","landuse_kind":"residential","sort_rank":381,"kind_detail":"trunk","min_zoom":8.0},"arcs":[395]},{"type":"MultiLineString","properties":{"kind":"major_road","network":null,"sort_rank":380,"kind_detail":"primary","source":"openstreetmap.org","min_zoom":8.0,"shield_text":"265","ref":"F265"},"arcs":[[396],[397],[398],[399],[400],[401],[402],[403]]},{"type":"MultiLineString","properties":{"kind":"major_road","network":null,"sort_rank":381,"landuse_kind":"urban_area","source":"openstreetmap.org","min_zoom":8.0,"kind_detail":"trunk","shield_text":"1","ref":"A1"},"arcs":[[404],[405],[406],[407],[408],[409],[410],[411],[412],[413],[414],[415],[416],[417],[418],[419],[420]]},{"type":"MultiLineString","properties":{"kind":"major_road","network":null,"sort_rank":381,"landuse_kind":"urban_area","source":"openstreetmap.org","min_zoom":8.0,"kind_detail":"trunk","shield_text":"121-1","ref":"A121-1"},"arcs":[[421],[422],[423],[424],[425],[426],[427],[428],[429],[430]]},{"type":"MultiLineString","properties":{"kind":"major_road","network":null,"sort_rank":381,"landuse_kind":"aerodrome","source":"openstreetmap.org","min_zoom":8.0,"kind_detail":"trunk","shield_text":"5","ref":"A5"},"arcs":[[431],[432],[433]]},{"type":"LineString","properties":{"kind":"major_road","network":null,"sort_rank":380,"kind_detail":"primary","source":"openstreetmap.org","min_zoom":8.0,"shield_text":"271","ref":"F271"},"arcs":[434]},{"type":"LineString","properties":{"kind":"highway","network":"Trans-African Highways","sort_rank":383,"kind_detail":"motorway","source":"openstreetmap.org","min_zoom":8.0,"all_networks":["Trans-African Highways"],"landuse_kind":"urban_area","shield_text":null,"ref":"A151","id":133792632,"all_shield_texts":[null]},"arcs":[435]}]},"earth":{"type":"GeometryCollection","geometries":[{"type":"MultiPolygon","properties":{"sort_rank":10,"source":"naturalearthdata.com","min_zoom":0.0,"kind":"earth","area":77734008112},"arcs":[[[436]]]}]},"landuse":{"type":"GeometryCollection","geometries":[{"type":"MultiPolygon","properties":{"source":"naturalearthdata.com","kind":"urban_area","name":"","area":3926197658,"sort_rank":11,"min_zoom":4.0},"arcs":[[[437]],[[438]],[[439]],[[440]],[[441]],[[442]],[[443]],[[444]],[[445]],[[446]],[[447]]]},{"type":"MultiPolygon","properties":{"source":"openstreetmap.org","kind":"residential","tier":2,"area":573134900,"sort_rank":20,"min_zoom":8.0},"arcs":[[[448]],[[449]],[[450]]]},{"type":"Polygon","properties":{"kind":"aerodrome","area":15779900,"sort_rank":60,"operator":"Nigerian Ministry of Aviation","source":"openstreetmap.org","min_zoom":8.0,"tier":3,"id":370666112},"arcs":[[451]]},{"type":"Polygon","properties":{"kind":"residential","name":"Lagos Island","area":194068992,"sort_rank":20,"source":"openstreetmap.org","min_zoom":6.0,"tier":2,"id":-5404351,"osm_relation":true},"arcs":[[452]]}]}},"type":"Topology","transform":{"translate":[2.8125,5.6159858192],"scale":[0.0003433228,0.000341231]},"arcs":[[[0,1676],[1104,49],[580,-31],[157,15],[164,68],[631,16],[286,34],[397,-24],[777,-129]],[[0,2462],[86,-35],[51,69],[98,36],[-3,64],[593,-12],[237,31],[78,62],[-20,137],[125,117],[6,128],[61,108],[158,-86],[81,-6],[92,-78],[236,2],[-41,78],[16,23],[37,-18],[-2,48],[1836,-15],[11,-80],[-40,-41],[-66,-5],[-24,-49],[42,-166],[75,-2],[12,-47],[24,0],[39,52],[133,84],[145,-31],[20,-29]],[[4096,2695],[-182,-108],[14,-70],[164,-35],[4,-8]],[[0,2261],[1135,39],[588,-31],[118,56],[1167,49],[425,-14],[663,-100]],[[4096,2278],[0,-2278],[-4096,0],[0,2234],[336,32],[450,-23],[384,45],[326,-16],[170,19],[15,65],[-16,14],[-5,18],[-7,15],[-15,15],[-15,26],[12,18],[21,16],[11,21],[9,35],[41,63],[12,31],[-1,27],[-17,44],[-4,20],[11,24],[26,7],[31,1],[23,9],[64,70],[36,31],[50,29],[-3,-41],[-20,-63],[3,-36],[12,-38],[9,-9],[19,-15],[35,2],[37,-13],[7,-7],[38,2],[34,7],[34,12],[102,55],[30,4],[53,0],[142,46],[156,91],[164,62],[165,-39],[22,6],[17,-1],[19,-8],[22,-17],[-242,-35],[-37,-15],[-15,-62],[-42,-47],[-58,-35],[-65,-26],[-39,12],[-129,-41],[-62,-13],[-118,0],[-29,-10],[-2,-25],[6,-33],[-5,-32],[-40,-46],[-45,-24],[-49,-9],[-56,-1],[-38,-14],[-22,1],[-10,23],[-17,2],[-103,-94],[-11,44],[-6,44],[-17,16],[-45,-42],[-18,15],[-17,4],[-19,-5],[-28,-14],[42,-31],[28,-32],[36,-26],[65,-11],[1243,62],[744,-62],[271,-50]],[[0,2234],[336,32],[450,-23],[384,45],[326,-16],[170,19],[15,65],[-16,14],[-5,18],[-7,15],[-15,15],[-15,26],[12,18],[21,16],[11,21],[9,35],[41,63],[12,31],[-1,27],[-17,44],[-4,20],[11,24],[26,7],[31,1],[23,9],[64,70],[36,31],[50,29],[-3,-41],[-20,-63],[3,-36],[12,-38],[9,-9],[19,-15],[35,2],[37,-13],[7,-7],[38,2],[34,7],[34,12],[102,55],[30,4],[53,0],[142,46],[156,91],[164,62],[165,-39],[22,6],[17,-1],[19,-8],[22,-17],[-242,-35],[-37,-15],[-15,-62],[-42,-47],[-58,-35],[-65,-26],[-39,12],[-129,-41],[-62,-13],[-118,0],[-29,-10],[-2,-25],[6,-33],[-5,-32],[-40,-46],[-45,-24],[-49,-9],[-56,-1],[-38,-14],[-22,1],[-10,23],[-17,2],[-103,-94],[-11,44],[-6,44],[-17,16],[-45,-42],[-18,15],[-17,4],[-19,-5],[-28,-14],[42,-31],[28,-32],[36,-26],[65,-11],[1243,62],[744,-62],[271,-50]],[[1667,2495],[-12,4]],[[1655,2500],[5,0]],[[2913,3068],[-255,-51],[-213,85],[-52,-32],[-132,-8],[-75,-32]],[[3095,2992],[-112,29]],[[3096,2993],[-1,-1]],[[3095,2992],[1,0]],[[3098,2992],[-1,1]],[[3097,2992],[1,0]],[[3098,2992],[156,-32],[55,-112],[40,-12]],[[1717,2420],[-1,1]],[[1707,2426],[8,-6]],[[1716,2421],[-9,6]],[[4096,3357],[-68,11],[-209,-11],[-3,-1]],[[3819,3357],[209,10],[68,-10]],[[1154,3791],[43,101]],[[1197,3892],[-43,-100]],[[1157,3374],[42,-149],[71,-36],[68,-99],[98,-64],[-21,-75],[52,-51],[32,0]],[[1500,2900],[-11,8],[-22,-8],[-52,51],[21,75],[-96,64],[-70,99],[-71,36],[-42,149]],[[1611,2639],[0,1]],[[1611,2640]],[[1611,2640],[-34,33],[4,18]],[[1581,2691],[5,26]],[[1586,2717],[0,1],[-69,170],[-8,6]],[[1509,2893],[19,-33]],[[1528,2859],[58,-142]],[[1586,2717],[-5,-26]],[[1581,2691],[-4,-18],[33,-33],[1,0]],[[1611,2640],[9,-1]],[[1620,2639]],[[1620,2640],[-9,0]],[[1611,2640],[-1,0]],[[1620,2640],[0,-1]],[[1620,2639],[1,-3],[42,-104],[-1,-21]],[[1664,2515],[-1,17]],[[3291,3862],[-24,104]],[[3269,3623],[0,-1]],[[3269,3623],[8,83]],[[3270,3622],[-1,1]],[[2020,2961],[13,18]],[[1752,3147],[-16,-37]],[[1737,3110],[16,37]],[[2368,3802],[-100,-43],[-69,-81],[-298,-127],[-89,-71],[-29,-47],[-31,-205],[4,-58]],[[1757,3170],[27,262],[29,47],[89,72],[298,127],[70,81],[99,42]],[[2565,4096],[-65,-49],[-75,-157]],[[2426,3890],[74,156],[66,50]],[[1730,2439],[6,12],[0,1]],[[1736,2452],[-9,16]],[[1734,2462],[2,-10]],[[1736,2452],[0,-1],[-7,-12]],[[1718,2674],[-2,-68]],[[1719,2611],[8,21],[-6,27]],[[0,2284],[39,2]],[[39,2286],[46,2]],[[85,2288],[2,0],[70,75],[72,14]],[[229,2377],[-72,-14],[-12,-12],[-60,-63]],[[85,2288],[0,-1],[-46,-1]],[[39,2286],[-39,-2]],[[787,2578],[-281,-75],[-70,-30],[-44,-56],[-114,-3],[-1,-1]],[[277,2413],[-11,-8]],[[266,2405],[-37,-27]],[[229,2377],[37,28]],[[266,2405],[10,8],[1,0]],[[277,2413],[115,4],[44,55],[71,31],[280,75]],[[405,3171],[-100,6]],[[592,3131],[-12,4]],[[1020,3127],[-187,-55]],[[0,3756],[458,-33],[131,12]],[[589,3735],[1,-1]],[[591,3735],[-2,0]],[[591,3734],[1,0]],[[592,3734],[-1,0]],[[592,3734],[1,-1]],[[1493,2752],[26,-15]],[[1519,2737],[5,-3]],[[1520,2737],[-1,0]],[[1519,2737],[-26,16]],[[2460,3667],[47,235]],[[1524,2735],[-4,2]],[[432,2469],[-35,252],[-52,109],[102,108],[2,54],[68,49],[-8,30]],[[536,3241],[14,196],[40,42],[-13,215]],[[2979,3641],[-23,19],[-46,-14]],[[1604,2513],[4,8]],[[1608,2521],[3,7],[-11,52],[15,214],[57,84]],[[1607,2489],[-2,13]],[[1609,2464],[-2,18]],[[1671,2878],[-51,-71],[-3,-6],[-2,-7],[-16,-214],[12,-52],[-3,-7]],[[1608,2521],[-5,-12],[9,-52]],[[1647,2420],[0,-1],[1,-1],[0,1],[-1,1]],[[2204,3736],[-3,-2],[3,-4],[3,2],[-3,4]],[[596,3732],[12,-6]],[[3382,3606],[69,82],[48,120],[-54,152]],[[3445,3960],[2,6]],[[3558,4061],[37,35]],[[1694,2483],[5,-5]],[[1709,2472],[-15,11]],[[833,3072],[-241,59]],[[1454,2428],[2,1]],[[1456,2429],[-1,2]],[[1456,2429],[1,0]],[[1457,2429],[1,-1]],[[1458,2428],[16,13],[5,-2]],[[1458,2429]],[[1458,2429],[-1,0]],[[1479,2439],[-3,3],[-3,-1],[-6,-4],[-6,-4],[-3,-4]],[[1458,2429],[0,-1]],[[1458,2428]],[[1479,2439],[126,23]],[[1568,2458],[16,1],[17,3]],[[1254,3198],[-89,-69]],[[1756,3170],[-4,-23]],[[1753,3147],[4,23]],[[2389,3820],[-21,-18]],[[2369,3801],[21,19]],[[1600,2412],[42,3]],[[1642,2416],[-42,-4]],[[1800,2453],[-18,-48]],[[1782,2405],[18,47]],[[830,2592],[-2,0]],[[1490,2612],[9,-88],[-34,-50]],[[1466,2474],[34,50],[-9,88]],[[1468,2479],[0,1]],[[1486,2421],[5,2]],[[1569,2756],[-2,-1]],[[1569,2750],[2,1]],[[1608,2635],[-4,-74]],[[1620,2536],[-16,-20]],[[1605,2562],[4,72]],[[1609,2528],[-2,-6]],[[1608,2475],[12,58]],[[1608,2473],[2,-9]],[[1615,2532],[-2,2]],[[1689,2742],[-35,-10],[-39,33]],[[1615,2757],[38,-25],[39,4]],[[1619,2642],[2,-6]],[[1726,2438],[-7,0]],[[1782,2405],[-1,-41]],[[1781,2364],[1,41]],[[3270,3621],[-1,1]],[[1594,2416],[-1,1],[0,-2],[1,0],[0,1]],[[1622,2535],[-1,2],[-2,-3],[1,-1],[2,2]],[[1733,2407],[1,-1],[1,1],[-1,0],[-1,0]],[[3371,2830],[0,-1],[1,0],[0,1],[-1,0]],[[3464,4005],[-1,1],[0,-1],[1,0]],[[1725,2467],[9,-5]],[[1727,2468],[-1,0]],[[1604,2563],[-1,3]],[[1660,2565],[5,1]],[[1665,2566],[10,2],[13,-9]],[[1684,2563],[-9,5],[-10,-2]],[[1665,2566],[-5,-1]],[[1660,2866],[41,-49],[-3,-40],[6,-48]],[[1705,2727],[-6,50],[4,22],[-2,18],[-40,49]],[[1691,3035],[0,1]],[[1602,2524],[-38,6],[-30,-13],[-92,-44],[-6,0],[-293,2]],[[1143,2475],[-2,0],[-110,72]],[[1031,2547],[-35,23],[-209,8]],[[787,2578],[209,-9],[35,-22]],[[1031,2547],[112,-72]],[[1143,2475],[4,-2],[295,0],[93,44],[72,5]],[[1608,2521],[-5,3]],[[3157,3463],[-13,-23]],[[3157,3463],[41,37]],[[3197,3501],[-40,-38]],[[3212,3516],[-14,-15]],[[3198,3501],[14,15]],[[3216,3527],[-4,-11]],[[3212,3516],[5,11]],[[3222,3542],[-6,-15]],[[3217,3527],[6,15]],[[3230,3577],[-7,-34]],[[3223,3543],[7,34]],[[3269,3621],[-39,-43]],[[3230,3578],[40,43]],[[1605,2502],[-1,11]],[[1607,2482],[0,7]],[[2228,3715],[135,-69],[15,5]],[[2378,3651],[-150,64]],[[2700,3707],[99,-35],[136,-130],[196,-66]],[[3131,3476],[-196,66],[-137,131],[-98,34]],[[3816,3356],[-110,-20],[-258,88],[-3,1]],[[3445,3425],[-13,2]],[[3432,3427],[12,-2],[1,0]],[[3445,3425],[261,-90],[113,22]],[[1527,2855],[-7,-2]],[[1520,2852],[7,2]],[[1736,2399],[8,-35],[6,0]],[[1750,2364],[25,0]],[[1775,2364],[6,0]],[[1781,2364],[-6,0]],[[1775,2364],[-25,-1],[0,1]],[[1750,2364],[-13,35]],[[1659,2476],[8,-24]],[[1668,2452],[-7,21],[-2,3]],[[3296,3551],[86,55]],[[3447,3966],[16,37]],[[3463,4005],[0,-2]],[[3463,4003],[1,2]],[[3463,4006],[95,55]],[[2493,3641],[-38,0]],[[2456,3640],[37,1]],[[2493,3641],[29,27],[83,6],[75,-28]],[[3138,3572],[-31,5]],[[3274,3501],[194,-56]],[[1653,2469],[1,4]],[[1658,2459],[-5,10]],[[1661,2477],[-2,-19]],[[509,3071],[-20,72],[47,98]],[[1607,2522],[1,-1]],[[1527,2854],[13,5],[8,7],[10,-10]],[[1558,2856],[60,-55]],[[1618,2800],[-60,56]],[[1558,2856],[-10,10],[-21,-11]],[[2680,3646],[104,-39],[54,19]],[[2838,3630],[-1,0]],[[2837,3630],[1,0]],[[2838,3630],[72,16]],[[2838,3626],[1,1]],[[2839,3627],[-1,-1]],[[3107,3577],[-68,11],[-60,53]],[[3468,3445],[151,-43],[67,-57],[71,7],[2,70]],[[3131,3476],[48,-17],[17,-2]],[[3197,3457],[-66,19]],[[3464,4005],[1,0]],[[2981,3306],[-68,-45]],[[3211,4096]],[[607,3750],[-11,-38]],[[229,2377]],[[229,2377],[0,1]],[[263,2411],[1,-1]],[[361,2854],[172,56],[171,120],[100,33]],[[1723,2458],[11,4]],[[1744,2469],[-21,-11]],[[1735,2442],[4,1]],[[1738,2443],[6,0]],[[1739,2443],[16,0],[-15,1]],[[591,3735],[-1,-1],[1,0],[0,1]],[[1739,2444],[-1,0],[1,-1],[1,0],[-1,1]],[[3097,2993],[-1,0],[0,-1],[1,1]],[[3444,3960],[1,0],[-1,0]],[[1660,2460],[2,0]],[[1660,2459],[2,1]],[[1662,2460],[43,-28]],[[1716,2421],[-4,4]],[[673,4096],[14,-58],[-80,-288]],[[3197,3501],[-13,63],[-46,8]],[[3197,3501]],[[3198,3501],[-1,0]],[[3198,3500],[17,-4],[42,9]],[[3257,3505],[-59,-4]],[[3257,3505],[2,0]],[[3259,3505],[-2,1]],[[3259,3505],[15,-4]],[[2983,3021],[-70,47]],[[1967,2893],[45,49]],[[2012,2943],[0,-1]],[[2012,2942],[1,1]],[[3217,3527],[23,2]],[[3240,3529],[-23,-2]],[[3245,3529],[-4,0]],[[3241,3529],[4,0]],[[3245,3529],[51,22]],[[3240,3529],[1,0],[-1,0]],[[1608,2550],[3,-6],[38,-55]],[[1649,2490],[-39,58]],[[1647,2420],[-12,6]],[[1636,2425],[11,-6]],[[1930,2947],[-64,-4]],[[1866,2943],[46,-4],[18,8]],[[2045,3195],[3,27]],[[2140,3376],[107,111],[76,36]],[[593,3733],[3,-1]],[[1930,2940],[30,-46]],[[1961,2895],[-30,45]],[[1961,2894],[1,-1]],[[1962,2894],[-1,1]],[[1963,2893],[4,0]],[[1961,2894],[0,1],[-1,-1],[1,0]],[[1962,2893],[1,0],[-1,1],[0,-1]],[[577,3694],[19,18]],[[1653,2469]],[[1664,2479],[35,-3]],[[1699,2486],[-18,3]],[[1298,3153]],[[1298,3153],[0,-1]],[[1634,2427],[-1,0],[0,-1],[1,0],[0,1]],[[2013,2944],[-1,0],[1,-1],[0,1]],[[2020,2961]],[[2455,3641],[0,-1],[1,0],[-1,1]],[[494,3166],[-89,5]],[[501,3163],[-7,3]],[[580,3135],[-79,28]],[[1165,3129],[-145,-2]],[[1707,2720],[1,0]],[[1708,2720]],[[229,2378],[0,-1]],[[229,2377]],[[2913,3261],[-44,-61],[-8,-152]],[[3144,3440],[-163,-134]],[[3267,3966],[-56,130]],[[3277,3706],[14,156]],[[1603,2524],[-1,0]],[[1607,2522],[1,-47]],[[1493,2753],[-14,64],[14,-65]],[[1667,2452],[49,-31]],[[1716,2421],[-48,31]],[[1133,3753],[-37,-113],[19,-117],[42,-149]],[[1157,3374],[-61,264],[37,115]],[[1154,3792],[-21,-38]],[[1134,3753],[20,38]],[[1208,4096],[-13,-192],[2,-12]],[[1197,3892],[23,204]],[[1662,2511],[-2,-11]],[[1667,2495],[-3,20]],[[1133,3753],[1,0]],[[1134,3753],[-1,0]],[[2186,3030],[-166,-69]],[[3349,2836],[21,-6]],[[3370,2830],[1,-1]],[[3371,2830],[-1,0]],[[2033,4096],[43,-12],[21,-54]],[[2097,4030],[3,-9]],[[2100,4021],[-6,-124],[89,-74]],[[2183,3823],[11,-9]],[[2194,3814],[10,-78]],[[2206,3734],[-11,79],[-1,1]],[[2194,3814],[-11,9]],[[2183,3823],[-88,74],[6,123],[-1,1]],[[2100,4021],[-3,9]],[[2097,4030],[-21,55],[-42,11]],[[2203,3731],[25,-16]],[[2228,3715],[-22,18]],[[2497,4096],[10,-194]],[[1707,2438],[12,0]],[[1723,2458]],[[3269,3622],[1,-1]],[[1658,2459],[0,-1],[2,0],[0,2],[-2,-1]],[[3198,3501],[-1,0],[1,-1],[0,1]],[[3212,3516]],[[3217,3527],[-1,0],[1,0]],[[3223,3543],[-1,-1],[1,0],[0,1]],[[3230,3578],[0,-1],[0,1]],[[3257,3506],[0,-1],[0,1]],[[1520,2853],[-1,0],[0,-1],[1,0],[0,1]],[[1695,2739],[-41,-7],[-37,30],[-48,-9],[-40,-34],[-9,-77],[-30,-30],[9,-87],[-34,-53],[15,-45],[1,0]],[[1481,2427],[17,-6]],[[1498,2421],[28,-10],[5,-6],[58,2],[11,5]],[[1600,2412],[-1,1],[-11,-5],[-57,-3],[-5,7],[-28,9]],[[1498,2421],[-17,6]],[[1481,2427],[-16,45],[35,53],[-10,87],[30,29],[9,78],[40,34],[48,9],[36,-30],[42,6]],[[1704,2729],[3,-9]],[[1708,2720],[-3,7]],[[1660,2500],[9,-9]],[[1669,2490],[-2,5]],[[1627,2450],[9,-13]],[[1691,2496],[3,-13]],[[1694,2483],[-3,13]],[[1663,2532],[6,11],[-29,93],[-20,4]],[[1620,2639],[20,-3],[20,-71]],[[1699,2478],[11,-7],[15,-4]],[[1726,2468],[-17,4]],[[1736,3110],[-20,-50],[-86,-57],[-22,-31],[-1,-6],[53,-100]],[[1661,2866],[-52,106],[107,88],[21,50]],[[2425,3890],[-32,-66]],[[2394,3823],[32,67]],[[1656,2479],[8,0]],[[1681,2489],[-19,-7]],[[1626,2500],[5,1],[22,-2],[0,1]],[[1653,2500],[2,0]],[[1655,2499],[-2,1]],[[1653,2500],[-1,0],[-21,2],[-2,-1]],[[305,3177],[-36,17],[-163,-52],[-106,-6]],[[1649,2489],[10,-13]],[[1659,2476],[-10,14]],[[1607,2489],[19,11]],[[1629,2501],[-4,-1]],[[2048,3222],[31,39],[6,66],[55,49]],[[1716,2421],[14,18]],[[1729,2439],[-13,-18]],[[1715,2420],[21,-21]],[[1737,2399],[-1,4],[-5,7],[-15,11]],[[1716,2606],[-25,-110]],[[1691,2496],[28,115]],[[1708,2720],[10,-46]],[[1721,2659],[-13,61]],[[1654,2473],[2,6]],[[1662,2482],[-1,-5]],[[1611,2470],[16,-20]],[[2393,3824],[-4,-4]],[[2390,3820],[4,3]],[[1699,2476],[0,10]],[[1647,2419],[-5,-3]],[[1642,2415],[6,4]],[[1734,2462],[9,5],[64,7]],[[1807,2474],[-1,-1]],[[1806,2473],[-6,-20]],[[1800,2452],[0,2],[6,19]],[[1806,2473],[1,1]],[[1807,2474],[-63,-5]],[[1634,2427],[-25,37]],[[1612,2457],[21,-30]],[[1634,2426],[2,-1]],[[1635,2426],[-1,1]],[[1866,2943],[-8,1],[-24,-22],[-5,-7],[-124,-10],[-34,-27]],[[1672,2878],[33,27],[125,10],[36,28]],[[1930,2947],[82,-4]],[[2012,2944],[-52,15],[-30,-12]],[[2020,2961],[-7,-17]],[[2013,2944],[7,17]],[[2020,2961],[39,82],[-25,80],[11,72]],[[2323,3523],[95,45],[38,71]],[[2454,3665],[0,-24]],[[2454,3641],[1,-1]],[[2455,3641],[-1,0]],[[2455,3640],[1,-1]],[[2456,3639],[0,1]],[[2378,3651],[216,65]],[[2594,3716],[8,0]],[[2602,3716],[83,-4],[15,-5]],[[2700,3707],[-14,5],[-84,4]],[[2602,3716],[-8,0]],[[2594,3716],[-1,0],[-215,-65]],[[3196,3457],[171,-22]],[[3367,3435],[65,-8]],[[3432,3427],[-65,8]],[[3367,3435],[-170,22]],[[1499,2900],[10,-7]],[[1509,2894],[-9,6]],[[1528,2860],[0,-1]],[[1739,2444],[34,10],[-34,-10]],[[1625,2500],[-11,-1]],[[0,4096],[4096,0],[0,-1818],[-271,50],[-744,62],[-1243,-62],[-65,11],[-36,26],[-28,32],[-42,31],[28,14],[19,5],[17,-4],[18,-15],[45,42],[17,-16],[6,-44],[11,-44],[103,94],[17,-2],[10,-23],[22,-1],[38,14],[56,1],[49,9],[45,24],[40,46],[5,32],[-6,33],[2,25],[29,10],[118,0],[62,13],[129,41],[39,-12],[65,26],[58,35],[42,47],[15,62],[37,15],[242,35],[-22,17],[-19,8],[-17,1],[-22,-6],[-165,39],[-164,-62],[-156,-91],[-142,-46],[-53,0],[-30,-4],[-102,-55],[-34,-12],[-34,-7],[-38,-2],[-7,7],[-37,13],[-35,-2],[-19,15],[-9,9],[-12,38],[-3,36],[20,63],[3,41],[-50,-29],[-36,-31],[-64,-70],[-23,-9],[-31,-1],[-26,-7],[-11,-24],[4,-20],[17,-44],[1,-27],[-12,-31],[-41,-63],[-9,-35],[-11,-21],[-21,-16],[-12,-18],[15,-26],[15,-15],[7,-15],[5,-18],[16,-14],[-15,-65],[-170,-19],[-326,16],[-384,-45],[-450,23],[-336,-32],[0,1862]],[[2157,3110],[34,-62],[-42,-157],[40,-74],[-64,-66],[-68,73],[-67,-43],[-27,133],[-33,33],[16,106],[81,57],[-19,72],[19,26],[130,-98]],[[3430,3137],[54,-60],[-56,-74],[49,-75],[7,-79],[-130,-32],[-33,130],[-32,0],[33,98],[64,0],[0,98],[44,-6]],[[2286,2491],[-59,-64],[-188,-21],[-111,-74],[-155,7],[-106,89],[47,19],[35,-19],[45,42],[34,-104],[103,94],[49,-26],[143,24],[85,70],[5,38],[73,-75]],[[682,3660],[-111,36],[31,53],[63,12],[56,-28],[12,-70],[-51,-3]],[[3516,3924],[-74,45],[4,66],[54,43],[81,-24],[0,-49],[-65,-81]],[[2577,3826],[65,0],[65,-98],[-32,-97],[-10,-18],[-88,18],[-54,-34],[-107,-162],[-39,2],[-59,63],[17,82],[113,179],[-97,98],[21,24],[139,19],[66,-10],[0,-66]],[[1186,3696],[-33,24],[1,172],[97,0],[2,-68],[-58,-72],[-9,-56]],[[3333,3863],[-141,-4],[75,108],[59,17],[60,-28],[-8,-65],[-45,-28]],[[1401,3374],[44,-134],[162,0],[32,-65],[65,0],[32,-65],[33,0],[0,-65],[97,-65],[0,-66],[32,-53],[-100,-101],[-80,-17],[-11,-24],[22,-91],[-106,-184],[58,-88],[-15,-65],[-146,-16],[-1,39],[-41,14],[-2,33],[-96,-33],[-70,46],[-189,19],[-32,33],[-162,32],[-33,98],[-96,0],[-39,85],[-53,27],[-5,149],[-33,32],[33,33],[50,1],[15,-131],[64,0],[33,-33],[129,33],[-33,-98],[184,-1],[75,-32],[18,33],[-22,53],[-52,43],[-73,1],[5,44],[92,54],[2,29],[-34,69],[0,98],[-98,65],[18,38],[112,60],[-37,109],[5,53],[32,33],[32,-33],[140,34],[43,-30]],[[3322,3710],[64,-112],[65,33],[33,-33],[-40,-89],[33,-59],[-91,-47],[-223,42],[-55,64],[-4,145],[56,42],[162,14]],[[1219,4096],[59,0],[-7,-5],[-53,-4],[1,9]],[[1019,3147],[90,19],[87,-58],[-27,-29],[-68,10],[-25,-47],[-54,59],[-3,46]],[[391,3185],[62,-10],[13,32],[14,-29],[17,73],[28,16],[58,-141],[-36,-24],[-39,13],[8,-43],[-17,-3],[-28,62],[-20,-7],[-60,61]],[[3126,3470],[55,72],[-44,21],[1,30],[127,31],[28,-15],[6,-94],[-149,-84],[-24,39]],[[1429,2760],[19,126],[56,16],[24,-42],[-8,-56],[-48,-91],[-27,0],[-16,47]],[[1639,2464],[55,33],[9,70],[37,37],[-16,52],[36,51],[-21,53],[83,-3],[20,53],[72,58],[34,-10],[-39,-119],[79,-57],[91,-20],[108,20],[79,81],[152,-25],[-48,-117],[-107,47],[-56,-40],[6,-62],[-38,-43],[-172,-44],[-48,28],[-37,-20],[-98,18],[-90,-18],[-19,-89],[-72,66]]]}