{"objects":{"water":{"type":"GeometryCollection","geometries":[{"type":"Polygon","properties":{"source":"naturalearthdata.com","kind":"ocean","area":1576712559132672,"sort_rank":200,"min_zoom":0.0,"id":1},"arcs":[[1]]}]},"buildings":{"type":"GeometryCollection","geometries":[]},"places":{"type":"GeometryCollection","geometries":[]},"transit":{"type":"GeometryCollection","geometries":[]},"pois":{"type":"GeometryCollection","geometries":[]},"boundaries":{"type":"GeometryCollection","geometries":[{"type":"LineString","properties":{"name:kg":"Pays-Bas","name:ka":"\u10dc\u10d8\u10d3\u10d4\u10e0\u10da\u10d0\u10dc\u10d3\u10d8","name:ko":"\ub124\ub35c\ub780\ub4dc","name:cv":"\u041d\u0438\u0434\u0435\u0440\u043b\u0430\u043d\u0434\u0441\u0435\u043c","name:cu":"\u041d\u0438\u0434\u0454\u0440\u043b\u0430\u043d\u0434\ua651","name:kl":"Hollandi","name:cs":"Nizozemsko","name:tt":"\u041d\u0438\u0434\u0435\u0440\u043b\u0430\u043d\u0434\u043b\u0430\u0440","name:co":"Paesi Bassi","name:kv":"\u041d\u0438\u0434\u0435\u0440\u043b\u0430\u043d\u0434\u044a\u044f\u0441","name:ku":"Holenda","alt_name:cs":"Nizozem\u00ed","name:to":"Holani","name:tl":"Olanda","name:ce":"\u041d\u0438\u0434\u0435\u0440\u043b\u0430\u043d\u0434\u0430\u0448","name:ta":"\u0ba8\u0bc6\u0ba4\u0bb0\u0bcd\u0bb2\u0bbe\u0ba8\u0bcd\u0ba4\u0bc1","name:tg":"\u041d\u0438\u0434\u0435\u0440\u043b\u0430\u043d\u0434","name:ca":"Pa\u00efsos Baixos","name:te":"\u0c28\u0c46\u0c26\u0c30\u0c4d\u0c32\u0c3e\u0c02\u0c21\u0c4d","name:cy":"Yr Iseldiroedd","name:qu":"Urasuyu","name:da":"Holland","name:de":"Niederlande","name:dz":"\u0f53\u0f7a\u0f0b\u0f51\u0f62\u0f0b\u0f63\u0f7a\u0f53\u0f4c\u0f66\u0f72\u0f0b","source":"openstreetmap.org","name:kn":"\u0ca8\u0cc6\u0ca6\u0cb0\u0ccd\u200d\u0cb2\u0ccd\u0caf\u0cbe\u0c82\u0ca1\u0ccd\u0cb8\u0ccd","name:dv":"\u0782\u07ac\u078b\u07a6\u078d\u07ad\u0782\u07b0\u0791\u07aa","name:lv":"N\u012bderlande","name:lt":"Nyderlandai","name:uz":"Niderlandlar","name:kk":"\u041d\u0438\u0434\u0435\u0440\u043b\u0430\u043d\u0434","name:ur":"\u06c1\u0627\u0644\u06cc\u0646\u0688","name:lb":"Holland","name:la":"Nederlandia","name:uk":"\u041d\u0456\u0434\u0435\u0440\u043b\u0430\u043d\u0434\u0438","name:ug":"\u06af\u0648\u0644\u0644\u0627\u0646\u062f\u0649\u064a\u06d5","name:ln":"Holanda","name:el":"\u039a\u03ac\u03c4\u03c9 \u03a7\u03ce\u03c1\u03b5\u03c2","name:eo":"Nederlando","name:en":"The Netherlands","name":"Nederland","name:tk":"Niderlandlar","name:ee":"Netherlands","name:th":"\u0e1b\u0e23\u0e30\u0e40\u0e17\u0e28\u0e40\u0e19\u0e40\u0e18\u0e2d\u0e23\u0e4c\u0e41\u0e25\u0e19\u0e14\u0e4c","name:eu":"Herbehereak","name:et":"Holland","name:es":"Pa\u00edses Bajos","name:ay":"Aynacha Jach'a Markanaka","name:rm":"Pajais Bass","name:az":"Niderland","name:id":"Belanda","name:ar":"\u0647\u0648\u0644\u0646\u062f\u0627","name:io":"Nederlando","name:is":"Holland","name:am":"\u1206\u120b\u1295\u12f5","name:it":"Paesi Bassi","name:an":"Pa\u00edses Baixos","name:ru":"\u041d\u0438\u0434\u0435\u0440\u043b\u0430\u043d\u0434\u044b","name:rw":"Ubuholandi","name:zu":"Netherlands","kind_detail":"2","name:ky":"\u041d\u0438\u0434\u0435\u0440\u043b\u0430\u043d\u0434\u0442\u0430\u0440","name:zh-yue":"\u8377\u862d","old_name:cs":"Holandsko","name:zh":"\u8377\u862d","name:so":"Holland","name:sl":"Nizozemska","name:sk":"Holandsko","name:ja":"\u30aa\u30e9\u30f3\u30c0","name:si":"\u0db1\u0dd9\u0daf\u0dbb\u0dca\u0dbd\u0db1\u0dca\u0dad\u0dba","name:sh":"Holandija","name:se":"Vuolleeatnamat","name:sc":"Logos Bascios","name:sa":"\u0928\u0947\u0926\u0930\u0932\u0948\u0902\u0921\u094d\u0938","name:bs":"Holandija","name:bn":"\u09a8\u09c7\u09a6\u09be\u09b0\u09b2\u09cd\u09af\u09be\u09a8\u09cd\u09a1\u09b8","name:bo":"\u0f67\u0f7c\u0f0b\u0f63\u0f53\u0f0d","name:bi":"Netherlands","name:sw":"Uholanzi","name:be":"\u041d\u0456\u0434\u044d\u0440\u043b\u0430\u043d\u0434\u044b","name:su":"Walanda","name:bg":"\u041d\u0438\u0434\u0435\u0440\u043b\u0430\u043d\u0434\u0438\u044f","name:ss":"IDashi","name:ba":"\u041d\u0438\u0434\u0435\u0440\u043b\u0430\u043d\u0434\u0442\u0430\u0440","name:sq":"Holanda","name:jv":"Walanda","name:br":"Izelvroio\u00f9","name:ia":"Pais Basse","name:pt":"Pa\u00edses Baixos","name:ps":"\u0647\u0627\u0644\u0646\u0689","name:oc":"Pa\u00efses Basses","min_zoom":8.0,"name:ro":"\u021a\u0103rile de Jos","name:zh-min-nan":"H\u00f4-l\u00e2n-kok","name:os":"\u041d\u0438\u0434\u0435\u0440\u043b\u0430\u043d\u0434\u0442\u00e6","name:pl":"Kr\u00f3lestwo Niderland\u00f3w","name:st":"H\u00f4lan\u00ea","sort_rank":262,"name:sr":"\u0425\u043e\u043b\u0430\u043d\u0434\u0438\u0458\u0430","osm_relation":true,"name:xh":"ENetherlands","name:pa":"\u0a28\u0a40\u0a26\u0a30\u0a32\u0a48\u0a02\u0a21","name:tr":"Hollanda","name:hi":"\u0928\u0940\u0926\u0930\u0932\u0948\u0923\u094d\u0921","name:sv":"Nederl\u00e4nderna","name:he":"\u05d4\u05d5\u05dc\u05e0\u05d3","name:hy":"\u0546\u056b\u0564\u0565\u0580\u056c\u0561\u0576\u0564\u0576\u0565\u0580","name:ht":"Peyiba","name:hu":"Hollandia","name:hr":"Nizozemska","kind":"country","name:yi":"\u05d4\u05d0\u05dc\u05d0\u05e0\u05d3","name:yo":"N\u1eb9\u0301d\u00e1l\u00e1nd\u00ec","name:mt":"Pajji\u017ci l-Baxxi","name:ms":"Belanda","name:mr":"\u0928\u0947\u0926\u0930\u0932\u0901\u0921\u094d\u0938","name:my":"\u1014\u101a\u103a\u101e\u102c\u101c\u1014\u103a\u1014\u102d\u102f\u1004\u103a\u1004\u1036","official_name":"Koninkrijk der Nederlanden","name:kw":"Iseldiryow","name:vi":"H\u00e0 Lan","name:ml":"\u0d28\u0d46\u0d24\u0d7c\u0d32\u0d28\u0d4d\u0d31\u0d4d\u0d38\u0d4d","name:mn":"\u041d\u0438\u0434\u0435\u0440\u043b\u0430\u043d\u0434","name:mi":"H\u014drana","id":-2323309,"name:mk":"\u0425\u043e\u043b\u0430\u043d\u0434\u0438\u0458\u0430","name:vo":"Ned\u00e4n","name:fa":"\u0647\u0644\u0646\u062f","name:ff":"Holannda","name:fi":"Alankomaat","name:fo":"Ni\u00f0urlond","name:fr":"Pays-Bas","name:fy":"Nederl\u00e2n","name:na":"Eben Eyong","name:ne":"\u0928\u0947\u0926\u0930\u0932\u094d\u092f\u093e\u0923\u094d\u0921\u094d\u0938","name:wa":"Bas Payis","name:wo":"Olaand","name:nv":"K\u00e9yah W\u00f3yahgo Si\u02bc\u00e1n\u00edg\u00ed\u00ed","name:ga":"An \u00cdsilt\u00edr","name:gd":"Na T\u00ecrean \u00ccsle","name:gn":"Holanda","name:gl":"Pa\u00edses Baixos","maritime_boundary":true,"name:gv":"Yn \u00c7heer Injil","name:gu":"\u0aa8\u0ac7\u0aa7\u0ab0\u0ab2\u0ac7\u0a82\u0aa1"},"arcs":[0]}]},"roads":{"type":"GeometryCollection","geometries":[{"type":"LineString","properties":{"source":"openstreetmap.org","kind":"ferry","name":"Rotterdam - Teesport","sort_rank":355,"min_zoom":8.0,"id":96109913},"arcs":[2]},{"type":"LineString","properties":{"source":"openstreetmap.org","kind":"ferry","name":"Newcastle - IJmuiden","sort_rank":355,"min_zoom":8.0,"osm_relation":true,"id":-273886},"arcs":[3]},{"type":"LineString","properties":{"sort_rank":355,"source":"openstreetmap.org","min_zoom":8.0,"name":"Newcastle - IJmuiden","kind":"ferry"},"arcs":[4]},{"type":"LineString","properties":{"sort_rank":355,"source":"openstreetmap.org","min_zoom":8.0,"kind":"ferry","name":"Rotterdam-Immingham"},"arcs":[5]},{"type":"LineString","properties":{"source":"openstreetmap.org","kind":"ferry","name":"Kingston upon Hull-Rotterdam","sort_rank":355,"is_bicycle_related":true,"min_zoom":8.0,"id":32340204},"arcs":[6]}]},"earth":{"type":"GeometryCollection","geometries":[]},"landuse":{"type":"GeometryCollection","geometries":[]}},"type":"Topology","transform":{"translate":[2.8125,52.4827802221],"scale":[0.0003433228,0.0002070539]},"arcs":[[[4096,237],[-57,-237]],[[4096,0],[-4096,0],[0,4096],[4096,0],[0,-4096]],[[0,740],[750,-740]],[[4096,588],[-4096,2979]],[[4096,588],[-4096,2979]],[[429,0],[-429,284]],[[0,194],[294,-194]]]}