{"objects":{"water":{"type":"GeometryCollection","geometries":[{"type":"Polygon","properties":{"source":"naturalearthdata.com","kind":"ocean","area":1576712559132672,"sort_rank":200,"min_zoom":0.0,"id":1},"arcs":[[34]]},{"type":"LineString","properties":{"source":"naturalearthdata.com","kind":"ocean","sort_rank":205,"boundary":true,"min_zoom":0.0,"id":19},"arcs":[35]}]},"buildings":{"type":"GeometryCollection","geometries":[]},"places":{"type":"GeometryCollection","geometries":[{"type":"Point","properties":{"admin_level":"8","name:pt":"Gerunda","name:he":"\u05d6'\u05d9\u05e8\u05d5\u05e0\u05d4","name:nl":"Gerona","name:ja":"\u30b8\u30ed\u30fc\u30ca","name:lt":"Cherona","name:el":"\u0396\u03b9\u03c1\u03cc\u03bd\u03b1","name:ko":"\uc9c0\ub85c\ub098","name:ar":"\u062c\u0631\u0646\u062f\u0629","min_zoom":8.0,"name:uk":"\u0416\u0456\u0440\u043e\u043d\u0430","name:an":"Chirona","name:ru":"\u0416\u0438\u0440\u043e\u043d\u0430","name:gl":"Xirona","id":30894545,"population":92186,"name:fa":"\u062e\u0631\u0646\u0627","kind":"locality","name":"Girona","kind_detail":"city","name:sr":"\u0402\u0438\u0440\u043e\u043d\u0430","source":"openstreetmap.org","name:fr":"G\u00e9rone","name:be":"\u0425\u0435\u0440\u043e\u043d\u0430","name:zh":"\u8d6b\u7f57\u7eb3","name:es":"Gerona"},"coordinates":[22,3887]},{"type":"Point","properties":{"admin_level":"8","kind":"locality","name":"Lloret de Mar","kind_detail":"town","source":"openstreetmap.org","min_zoom":8.0,"name:ru":"\u041b\u044c\u043e\u0440\u0435\u0442 \u0434\u0435 \u041c\u0430\u0440","id":1470838480,"population":34984},"coordinates":[78,2791]},{"type":"Point","properties":{"admin_level":"8","kind":"locality","name":"Palafrugell","kind_detail":"town","source":"openstreetmap.org","min_zoom":8.0,"id":1470838631,"population":22763},"coordinates":[1018,3650]},{"type":"Point","properties":{"admin_level":"8","kind":"locality","name":"Sant Feliu de Gu\u00edxols","kind_detail":"town","source":"openstreetmap.org","min_zoom":8.0,"id":1470838830,"name:es":"San Fel\u00edu de Guixols","population":21477},"coordinates":[629,3127]},{"type":"Point","properties":{"admin_level":"8","kind":"locality","name":"Palam\u00f3s","kind_detail":"town","source":"openstreetmap.org","min_zoom":8.0,"id":1470838632,"population":17766},"coordinates":[919,3383]},{"type":"Point","properties":{"admin_level":"8","kind":"locality","name":"la Bisbal d'Empord\u00e0","kind_detail":"town","source":"openstreetmap.org","min_zoom":8.0,"id":1470838432,"population":10329},"coordinates":[662,3812]},{"type":"Point","properties":{"admin_level":"8","kind":"locality","name":"Platja d'Aro","name:lt":"Kastiljo de Aras","kind_detail":"town","source":"openstreetmap.org","min_zoom":8.0,"name:uk":"\u041a\u0430\u0441\u0442\u0435\u043b\u044c-\u041f\u043b\u0430\u0442\u0436\u0430-\u0434'\u0410\u0440\u0443","name:ru":"\u041a\u0430\u0441\u0442\u0435\u043b\u044c-\u041f\u043b\u0430\u0434\u0436\u0430-\u0434\u0435-\u0410\u0440\u043e","id":290730984,"population":9768},"coordinates":[747,3262]},{"type":"Point","properties":{"admin_level":"8","kind":"locality","name":"Calonge","kind_detail":"town","source":"openstreetmap.org","min_zoom":8.0,"id":1470838168,"population":5712},"coordinates":[771,3431]},{"type":"Point","properties":{"admin_level":"8","kind":"locality","name":"Tossa de Mar","kind_detail":"town","source":"openstreetmap.org","min_zoom":8.0,"loc_name":"Tossa","id":331106659,"name:ca":"https:\/\/ca.wikipedia.org\/wiki\/Tossa_de_Mar","population":5464},"coordinates":[346,2878]},{"type":"Point","properties":{"source":"openstreetmap.org","kind":"locality","name":"Sant Antoni de Calonge","kind_detail":"town","population":2744,"min_zoom":8.0,"id":338084408},"coordinates":[845,3374]}]},"transit":{"type":"GeometryCollection","geometries":[{"type":"MultiLineString","properties":{"kind":"train","name":"R11: Portbou - Barcelona - Sants Estaci\u00f3","sort_rank":275,"colour":"#002369","source":"openstreetmap.org","min_zoom":6.0,"network":"Rodalies de Catalunya - Mitja dist\u00e0ncia","operator":"RENFE","ref":"R11","osm_relation":true,"colour_name":"navy"},"arcs":[[3],[4]]},{"type":"MultiLineString","properties":{"kind":"train","network":"TGV","service":"national","sort_rank":275,"colour":"#e55c00","name":"TGV 752 : Lyon \u2212 Montpellier \u2212 Toulouse \u2212 Bordeaux \/ Perpignan \u2212 Barcelone","source":"openstreetmap.org","min_zoom":6.0,"operator":"SNCF","ref":"TGV 752","osm_relation":true,"colour_name":"orangered"},"arcs":[[5],[6],[7],[8],[9]]},{"type":"MultiLineString","properties":{"source":"openstreetmap.org","kind":"train","name":"Ferrocarril Cerb\u00e8re-Barcelona","sort_rank":275,"min_zoom":6.0,"osm_relation":true},"arcs":[[10],[11]]},{"type":"MultiLineString","properties":{"kind":"train","name":"R11: Barcelona - Sants Estaci\u00f3 - Portbou","sort_rank":275,"colour":"#002369","source":"openstreetmap.org","min_zoom":6.0,"network":"Rodalies de Catalunya - Mitja dist\u00e0ncia","operator":"RENFE","ref":"R11","osm_relation":true,"colour_name":"navy"},"arcs":[[12],[13]]},{"type":"MultiLineString","properties":{"kind":"train","network":"TGV Europe","service":"international","sort_rank":275,"source":"openstreetmap.org","min_zoom":5.0,"operator":"SNCF-Renfe","ref":"TGV","osm_relation":true,"name":"TGV : Marseille \u2212 Madrid"},"arcs":[[14],[15],[16],[17],[18]]},{"type":"MultiLineString","properties":{"kind":"train","network":"TGV Europe","service":"international","sort_rank":275,"min_zoom":5.0,"source":"openstreetmap.org","name:fr":"TGV : Lyon \u2212 Barcelone","operator":"SNCF-Renfe","ref":"TGV","osm_relation":true,"name":"TGV : Lyon \u2212 Barcelona"},"arcs":[[19],[20],[21],[22],[23]]},{"type":"MultiLineString","properties":{"kind":"train","network":"TGV Europe","service":"international","sort_rank":275,"source":"openstreetmap.org","min_zoom":5.0,"operator":"SNCF - Renfe","ref":"TGV","osm_relation":true,"name":"TGV : Paris \u2212 Barcelone"},"arcs":[[24],[25],[26],[27],[28]]},{"type":"MultiLineString","properties":{"kind":"train","network":"TGV Europe","service":"international","sort_rank":275,"min_zoom":5.0,"source":"openstreetmap.org","name:fr":"TGV : Toulouse \u2212 Barcelone","operator":"SNCF-Renfe","ref":"TGV","osm_relation":true,"name":"TGV : Toulouse \u2212 Barcelona"},"arcs":[[29],[30],[31],[32],[33]]}]},"pois":{"type":"GeometryCollection","geometries":[{"type":"Point","properties":{"kind":"nature_reserve","tier":2,"name":"Espai d'inter\u00e8s natural de les Gavarres","area":519190000,"source":"openstreetmap.org","min_zoom":7.78,"operator":"Generalitat de Catalunya","id":-6050286,"osm_relation":true},"coordinates":[367,3684]},{"type":"Point","properties":{"kind":"nature_reserve","tier":2,"name":"PEIN - Mass\u00eds de les Cadiretes","area":171787000,"source":"openstreetmap.org","min_zoom":8.58,"operator":"Generalitat de Catalunya","id":229150521},"coordinates":[360,3050]}]},"boundaries":{"type":"GeometryCollection","geometries":[{"type":"LineString","properties":{"name:kg":"Espania","name:ty":"Paniora","name:ka":"\u10d4\u10e1\u10de\u10d0\u10dc\u10d4\u10d7\u10d8","name:ko":"\uc2a4\ud398\uc778","name:cv":"\u0418\u0441\u043f\u0430\u043d\u0438","name:cu":"\u0407\u0441\u043f\u0430\u043d\u0457\ua657","name:kl":"Spania","name:cs":"\u0160pan\u011blsko","name:tt":"\u0418\u0441\u043f\u0430\u043d\u0438\u044f","name:co":"Spagna","name:kv":"\u0418\u0441\u043f\u0430\u043d\u0438\u044f","name:ku":"Spanya","name:to":"Sepeni","name:tl":"Espanya","name:ce":"\u0418\u0441\u043f\u0430\u043d\u0438","name:ta":"\u0b8e\u0b9a\u0bc1\u0baa\u0bcd\u0baa\u0bbe\u0ba9\u0bbf\u0baf\u0bbe","name:tg":"\u0418\u0441\u043f\u043e\u043d\u0438\u0451","name:ca":"Espanya","name:te":"\u0c38\u0c4d\u0c2a\u0c46\u0c2f\u0c3f\u0c28\u0c4d","name:cy":"Sbaen","name:qu":"Ispa\u00f1a","name:da":"Spanien","name:de":"Spanien","name:dz":"\u0f66\u0f72\u0f54\u0f71\u0f7a\u0f53\u0f0b","source":"openstreetmap.org","name:kn":"\u0cb8\u0ccd\u0caa\u0cc7\u0ca8\u0ccd","name:dv":"\u0787\u07a8\u0790\u07b0\u0795\u07ac\u0787\u07a8\u0782\u07b0","name:km":"\u17a2\u17c1\u179f\u17d2\u1794\u17c9\u17b6\u1789","name:lv":"Sp\u0101nija","name:lt":"Ispanija","name:uz":"Ispaniya","name:kk":"\u0418\u0441\u043f\u0430\u043d\u0438\u044f","name:ur":"\u06c1\u0633\u067e\u0627\u0646\u06cc\u06c1","name:lb":"Spuenien","name:la":"Hispania","name:uk":"\u0406\u0441\u043f\u0430\u043d\u0456\u044f","name:ug":"Ispaniye","name:li":"Spanje","name:ln":"Espania","name:el":"\u0399\u03c3\u03c0\u03b1\u03bd\u03af\u03b1","name:eo":"Hispanujo","name:en":"Spain","name":"Espa\u00f1a","name:tk":"Ispani\u00fda","name:ee":"Spain","name:th":"\u0e1b\u0e23\u0e30\u0e40\u0e17\u0e28\u0e2a\u0e40\u0e1b\u0e19","name:eu":"Espainia","name:et":"Hispaania","name:ay":"Ispa\u00f1a","name:rm":"Spagna","name:rn":"Esipanye","name:az":"\u0130spaniya","name:ie":"Hispania","name:id":"Spanyol","name:ig":"Spain","name:ik":"Spa\u00f1a","name:ar":"\u0625\u0633\u0628\u0627\u0646\u064a\u0627","name:io":"Hispania","name:is":"Sp\u00e1nn","name:am":"\u12a5\u1235\u1353\u1295\u12eb","name:it":"Spagna","name:an":"Espanya","name:ru":"\u0418\u0441\u043f\u0430\u043d\u0438\u044f","name:rw":"Esipanye","name:af":"Spanje","name:zu":"ISpeyini","kind_detail":"2","name:za":"Sihbanhyaz","name:zh-yue":"\u897f\u73ed\u7259","name:zh":"\u897f\u73ed\u7259","name:so":"Isbania","name:sm":"Spania","name:sl":"\u0160panija","name:sk":"\u0160panielsko","name:ja":"\u30b9\u30da\u30a4\u30f3","name:sh":"\u0160panija","name:se":"Sp\u00e1nia","name:sc":"Ispagna","name:br":"Spagn","name:bs":"\u0160panija","name:bn":"\u09b8\u09cd\u09aa\u09c7\u09a8","name:bo":"\u0f5e\u0f72\u0f0b\u0f54\u0f53\u0f0b\u0f61\u0f0d","name:bi":"Spain","name:sw":"Hispania","name:be":"\u0406\u0441\u043f\u0430\u043d\u0456\u044f","name:su":"Spanyol","name:bg":"\u0418\u0441\u043f\u0430\u043d\u0438\u044f","name:ss":"Sipeyini","name:ba":"\u0418\u0441\u043f\u0430\u043d\u0438\u044f","name:sq":"Spanja","name:jv":"Spanyol","name:sa":"\u0938\u094d\u092a\u0947\u0928\u094d","name:ia":"Espania","name:pt":"Espanha","name:ps":"\u0627\u0633\u067e\u0627\u0646\u06cc\u0627","name:oc":"Espanha","min_zoom":8.0,"name:ro":"Spania","name:zh-min-nan":"Se-pan-g\u00e2","name:os":"\u0418\u0441\u043f\u0430\u043d\u0438","name:or":"\u0b38\u0b4d\u0b2a\u0b47\u0b28","name:pl":"Hiszpania","name:st":"Spain","sort_rank":262,"name:sr":"\u0428\u043f\u0430\u043d\u0438\u0458\u0430","osm_relation":true,"name:pa":"\u0a38\u0a2a\u0a47\u0a28","name:tr":"\u0130spanya","name:hi":"\u0938\u094d\u092a\u0947\u0928","name:sv":"Spanien","name:he":"\u05e1\u05e4\u05e8\u05d3","name:hy":"\u053b\u057d\u057a\u0561\u0576\u056b\u0561","name:ht":"Espay","name:hu":"Spanyolorsz\u00e1g","name:hr":"\u0160panjolska","kind":"country","name:ts":"Spaniya","name:yi":"\u05e9\u05e4\u05d0\u05e0\u05d9\u05e2","name:iu":"\u14ef\u1438\u1403\u14d0","name:yo":"Sp\u00e9\u00ecn","name:mt":"Spanja","alt_name:eo":"Hispanio","name:ms":"Sepanyol","name:mr":"\u0938\u094d\u092a\u0947\u0928","name:my":"\u1005\u1015\u102d\u1014\u103a\u1014\u102d\u102f\u1004\u103a\u1004\u1036","official_name":"Reino de Espa\u00f1a","name:kw":"Spayn","name:mg":"Espaina","name:vi":"T\u00e2y Ban Nha","name:ml":"\u0d38\u0d4d\u0d2a\u0d46\u0d2f\u0d3f\u0d7b","name:mn":"\u0418\u0441\u043f\u0430\u043d\u0438","name:mi":"P\u0101niora","id":-1311341,"name:mk":"\u0428\u043f\u0430\u043d\u0438\u0458\u0430","name:vo":"Spany\u00e4n","name:fa":"\u0627\u0633\u067e\u0627\u0646\u06cc\u0627","name:fi":"Espanja","name:ky":"\u0418\u0441\u043f\u0430\u043d\u0438\u044f","name:fo":"Spania","name:fr":"Espagne","name:fy":"Spanje","int_name":"Spain","name:nl":"Spanje","name:nn":"Spania","name:no":"Spania","name:na":"Pain","name:ne":"\u0938\u094d\u092a\u0947\u0928","name:wa":"Espagne","name:wo":"Ispaa\u00f1","name:nv":"Dib\u00e9 Din\u00ed\u00ed Bik\u00e9yah","name:ga":"An Sp\u00e1inn","name:gd":"An Sp\u00e0inn","maritime_boundary":true,"name:gv":"Yn Spaainey","name:gu":"\u0ab8\u0acd\u0aaa\u0ac7\u0aa8"},"arcs":[0]},{"type":"MultiLineString","properties":{"name:pt":"Catalunha","name:oc":"Catalonha","name:ar":"\u0643\u062a\u0627\u0644\u0648\u0646\u064a\u0627","name:cs":"Autonomn\u00ed spole\u010denstv\u00ed Katal\u00e1nsko","alt_name:eo":"Katalunio","name:io":"Katalunia","min_zoom":8.0,"name:sv":"Katalonien","name:ru":"\u041a\u0430\u0442\u0430\u043b\u043e\u043d\u0438\u044f","name:pl":"Katalonia","id":-349053,"name:vo":"Katalon\u00e4n","short_name":"CAT","sort_rank":256,"name:fi":"Katalonia","name:de":"Katalonien","source":"openstreetmap.org","name:fr":"Catalogne","name:fy":"Kataloanje","name:sl":"Katalonija","name:nl":"Cataloni\u00eb","name:lt":"Katalonija","name:eo":"Katalunujo","name:be":"\u041a\u0430\u0442\u0430\u043b\u043e\u043d\u0456\u044f","name:hr":"Katalonija","osm_relation":true,"kind":"region","name:en":"Catalonia","name":"Catalunya","maritime_boundary":true,"kind_detail":"4","name:eu":"Katalunia","name:es":"Catalu\u00f1a"},"arcs":[[1],[2]]}]},"roads":{"type":"GeometryCollection","geometries":[{"type":"LineString","properties":{"kind":"major_road","sort_rank":381,"kind_detail":"trunk","is_bicycle_related":true,"source":"openstreetmap.org","min_zoom":8.0,"landuse_kind":"urban_area","ref":"C-66","id":355368674},"arcs":[36]},{"type":"MultiLineString","properties":{"source":"openstreetmap.org","kind":"major_road","sort_rank":380,"kind_detail":"primary","ref":"C-66z","min_zoom":8.0},"arcs":[[37],[38],[39]]},{"type":"MultiLineString","properties":{"source":"openstreetmap.org","kind":"major_road","landuse_kind":"urban_area","sort_rank":380,"kind_detail":"primary","ref":"C-31","min_zoom":8.0},"arcs":[[40],[41],[42],[43],[44],[45],[46],[47],[48],[49],[50],[51],[52],[53],[54],[55],[56],[57],[58],[59],[60]]},{"type":"MultiLineString","properties":{"source":"openstreetmap.org","kind":"major_road","kind_detail":"trunk","sort_rank":381,"landuse_kind":"urban_area","ref":"C-66","min_zoom":8.0},"arcs":[[61],[62],[63]]},{"type":"LineString","properties":{"kind":"major_road","sort_rank":377,"kind_detail":"tertiary","is_bicycle_related":true,"bicycle_shield_text":"EV8","bicycle_network":"ncn","source":"openstreetmap.org","min_zoom":8.0,"landuse_kind":"urban_area","ref":"GIP-6543","id":167826125},"arcs":[64]},{"type":"MultiLineString","properties":{"source":"openstreetmap.org","kind":"major_road","landuse_kind":"urban_area","sort_rank":380,"kind_detail":"primary","ref":"GI-652","min_zoom":8.0},"arcs":[[65],[66],[67],[68],[69],[70],[71],[72]]},{"type":"LineString","properties":{"kind":"major_road","sort_rank":380,"kind_detail":"primary","is_bicycle_related":true,"bicycle_shield_text":"EV8","bicycle_network":"ncn","source":"openstreetmap.org","min_zoom":8.0,"landuse_kind":"urban_area","ref":"C-31"},"arcs":[73]},{"type":"MultiLineString","properties":{"kind":"minor_road","sort_rank":360,"kind_detail":"residential","is_bicycle_related":true,"bicycle_shield_text":"EV8","bicycle_network":"ncn","source":"openstreetmap.org","min_zoom":8.0},"arcs":[[74],[75],[76],[77],[78],[79],[80],[81]]},{"type":"LineString","properties":{"kind":"major_road","sort_rank":380,"kind_detail":"primary","is_bicycle_related":true,"bicycle_shield_text":"EV8","bicycle_network":"ncn","source":"openstreetmap.org","min_zoom":8.0,"landuse_kind":"urban_area","ref":"GI-652"},"arcs":[82]},{"type":"MultiLineString","properties":{"bus_network":null,"sort_rank":377,"landuse_kind":"urban_area","is_bicycle_related":true,"kind":"major_road","bicycle_shield_text":"EV8","bicycle_network":"ncn","source":"openstreetmap.org","min_zoom":8.0,"bus_shield_text":"L3","kind_detail":"tertiary"},"arcs":[[83],[84]]},{"type":"MultiLineString","properties":{"kind":"minor_road","sort_rank":360,"kind_detail":"residential","is_bicycle_related":true,"bicycle_shield_text":"EV8","bicycle_network":"ncn","source":"openstreetmap.org","min_zoom":8.0,"landuse_kind":"urban_area"},"arcs":[[85],[86],[87],[88],[89],[90],[91],[92],[93]]},{"type":"LineString","properties":{"kind":"major_road","sort_rank":379,"kind_detail":"secondary","is_bicycle_related":true,"bicycle_shield_text":"EV8","bicycle_network":"ncn","source":"openstreetmap.org","min_zoom":8.0,"ref":"C-253"},"arcs":[94]},{"type":"LineString","properties":{"sort_rank":355,"source":"openstreetmap.org","min_zoom":8.0,"name":"Barcelona - Porto Torres","kind":"ferry"},"arcs":[95]},{"type":"MultiLineString","properties":{"source":"openstreetmap.org","kind":"major_road","landuse_kind":"nature_reserve","sort_rank":380,"kind_detail":"primary","ref":"C-66","min_zoom":8.0},"arcs":[[96],[97]]},{"type":"MultiLineString","properties":{"source":"openstreetmap.org","kind":"ferry","name":"Calella - Tossa","sort_rank":355,"min_zoom":8.0,"id":131355067},"arcs":[[98],[99]]},{"type":"MultiLineString","properties":{"source":"openstreetmap.org","kind":"highway","landuse_kind":"urban_area","sort_rank":383,"kind_detail":"motorway","ref":"C-65","min_zoom":8.0},"arcs":[[100],[101]]},{"type":"MultiLineString","properties":{"source":"openstreetmap.org","kind":"major_road","landuse_kind":"urban_area","sort_rank":380,"kind_detail":"primary","ref":"C-65","min_zoom":8.0},"arcs":[[102],[103],[104],[105],[106],[107],[108],[109],[110],[111],[112],[113],[114],[115],[116]]},{"type":"MultiLineString","properties":{"source":"openstreetmap.org","kind":"highway","sort_rank":383,"kind_detail":"motorway","ref":"C-65","min_zoom":8.0},"arcs":[[117],[118]]},{"type":"MultiLineString","properties":{"source":"openstreetmap.org","kind":"ferry","name":"Barcelona - Porto Torres - Civitavecchia","sort_rank":355,"min_zoom":8.0,"osm_relation":true},"arcs":[[119],[120]]},{"type":"MultiLineString","properties":{"source":"openstreetmap.org","kind":"major_road","landuse_kind":"urban_area","sort_rank":380,"kind_detail":"primary","ref":"C-63","min_zoom":8.0},"arcs":[[121],[122],[123],[124],[125],[126],[127],[128],[129],[130]]},{"type":"MultiLineString","properties":{"kind":"minor_road","sort_rank":360,"landuse_kind":"urban_area","is_bicycle_related":true,"bicycle_shield_text":"EV8","bicycle_network":"ncn","source":"openstreetmap.org","min_zoom":8.0,"kind_detail":"unclassified"},"arcs":[[131],[132],[133],[134],[135],[136]]},{"type":"MultiLineString","properties":{"kind":"highway","sort_rank":383,"kind_detail":"motorway","source":"openstreetmap.org","min_zoom":8.0,"landuse_kind":"urban_area","ref":"C-35","osm_relation":true},"arcs":[[137],[138]]},{"type":"LineString","properties":{"source":"openstreetmap.org","kind":"ferry","name":"Barcelona - Savona","sort_rank":355,"min_zoom":8.0,"osm_relation":true,"id":-5286138},"arcs":[139]},{"type":"LineString","properties":{"source":"openstreetmap.org","kind":"ferry","name":"Marseille - \u0648\u0647\u0631\u0627\u0646","sort_rank":355,"name:ar":"\u0648\u0647\u0631\u0627\u0646 - \u0645\u0631\u0633\u064a\u0644\u064a\u0627","min_zoom":8.0,"name:fr":"Marseille - Oran"},"arcs":[140]},{"type":"LineString","properties":{"kind":"major_road","sort_rank":355,"kind_detail":"tertiary_link","is_bicycle_related":true,"bicycle_shield_text":"EV8","bicycle_network":"ncn","source":"openstreetmap.org","min_zoom":8.0,"is_link":true,"landuse_kind":"urban_area","ref":"GI-652a"},"arcs":[141]},{"type":"MultiLineString","properties":{"source":"openstreetmap.org","kind":"highway","landuse_kind":"urban_area","sort_rank":383,"kind_detail":"motorway","ref":"C-35","min_zoom":8.0},"arcs":[[142],[143]]},{"type":"MultiLineString","properties":{"source":"openstreetmap.org","kind":"major_road","landuse_kind":"urban_area","sort_rank":380,"kind_detail":"primary","min_zoom":8.0},"arcs":[[144],[145],[146],[147],[148],[149]]},{"type":"LineString","properties":{"kind":"minor_road","sort_rank":360,"kind_detail":"living_street","is_bicycle_related":true,"bicycle_shield_text":"EV8","bicycle_network":"ncn","source":"openstreetmap.org","min_zoom":8.0},"arcs":[150]},{"type":"MultiLineString","properties":{"source":"openstreetmap.org","kind":"major_road","landuse_kind":"urban_area","sort_rank":380,"kind_detail":"primary","ref":"C-66","min_zoom":8.0},"arcs":[[151],[152],[153],[154],[155],[156],[157],[158],[159],[160],[161],[162],[163],[164],[165],[166],[167],[168],[169],[170],[171],[172],[173],[174],[175]]},{"type":"MultiLineString","properties":{"kind":"path","sort_rank":354,"landuse_kind":"urban_area","is_bicycle_related":true,"bicycle_shield_text":"EV8","bicycle_network":"ncn","source":"openstreetmap.org","min_zoom":8.0,"kind_detail":"path"},"arcs":[[176],[177],[178]]},{"type":"LineString","properties":{"sort_rank":355,"source":"openstreetmap.org","min_zoom":8.0,"name":"Barcelona - Savona","kind":"ferry"},"arcs":[179]},{"type":"MultiLineString","properties":{"source":"openstreetmap.org","kind":"major_road","landuse_kind":"urban_area","sort_rank":380,"kind_detail":"primary","ref":"C-250","min_zoom":8.0},"arcs":[[180],[181],[182],[183],[184],[185],[186],[187],[188],[189],[190],[191],[192],[193],[194],[195],[196],[197],[198],[199],[200]]},{"type":"MultiLineString","properties":{"kind":"path","sort_rank":354,"landuse_kind":"urban_area","is_bicycle_related":true,"bicycle_shield_text":"EV8","bicycle_network":"ncn","source":"openstreetmap.org","min_zoom":8.0,"kind_detail":"track"},"arcs":[[201],[202],[203],[204],[205]]},{"type":"MultiLineString","properties":{"source":"openstreetmap.org","kind":"major_road","sort_rank":380,"kind_detail":"primary","ref":"C-66","min_zoom":8.0},"arcs":[[206],[207],[208],[209],[210],[211],[212],[213],[214],[215],[216],[217],[218],[219],[220],[221],[222],[223],[224],[225],[226],[227],[228],[229],[230],[231],[232],[233],[234],[235],[236],[237],[238],[239],[240],[241],[242],[243],[244],[245],[246],[247],[248],[249],[250],[251],[252],[253],[254],[255],[256],[257]]},{"type":"LineString","properties":{"sort_rank":355,"source":"openstreetmap.org","min_zoom":8.0,"name":"Genova - Barcelona","kind":"ferry"},"arcs":[258]},{"type":"LineString","properties":{"kind":"minor_road","sort_rank":360,"kind_detail":"road","is_bicycle_related":true,"bicycle_shield_text":"EV8","bicycle_network":"ncn","source":"openstreetmap.org","min_zoom":8.0,"landuse_kind":"urban_area","id":35557168},"arcs":[259]},{"type":"LineString","properties":{"source":"openstreetmap.org","kind":"ferry","name":"S\u00e8te - Tanger \/ \u0637\u0646\u062c\u0629 - \u0633\u064a\u062a","sort_rank":355,"min_zoom":8.0,"name:ar":"\u0637\u0646\u062c\u0629 - \u0633\u064a\u062a","name:fr":"S\u00e8te - Tanger"},"arcs":[260]},{"type":"LineString","properties":{"sort_rank":380,"kind_detail":"primary","min_zoom":8.0,"kind":"major_road","source":"openstreetmap.org"},"arcs":[261]},{"type":"MultiLineString","properties":{"source":"openstreetmap.org","kind":"highway","sort_rank":383,"kind_detail":"motorway","ref":"C-35","min_zoom":8.0,"osm_relation":true},"arcs":[[262],[263],[264],[265]]},{"type":"MultiLineString","properties":{"source":"openstreetmap.org","kind":"ferry","name":"Calella - Tossa","sort_rank":355,"landuse_kind":"urban_area","min_zoom":8.0,"id":131355067},"arcs":[[266],[267]]},{"type":"LineString","properties":{"sort_rank":355,"source":"openstreetmap.org","min_zoom":8.0,"name":"Barcelona-Civitavecchia","kind":"ferry"},"arcs":[268]},{"type":"MultiLineString","properties":{"kind":"highway","network":"e-road","sort_rank":383,"landuse_kind":"urban_area","source":"openstreetmap.org","min_zoom":8.0,"all_networks":["e-road","ES:A-road"],"kind_detail":"motorway","shield_text":"15","ref":"AP-7","all_shield_texts":["15","7"]},"arcs":[[269],[270],[271],[272]]},{"type":"MultiLineString","properties":{"kind":"major_road","sort_rank":379,"landuse_kind":"urban_area","is_bicycle_related":true,"bicycle_shield_text":"EV8","bicycle_network":"ncn","source":"openstreetmap.org","min_zoom":8.0,"kind_detail":"secondary","ref":"C-253"},"arcs":[[273],[274],[275],[276],[277],[278],[279],[280],[281],[282],[283],[284],[285],[286],[287],[288]]},{"type":"MultiLineString","properties":{"kind":"minor_road","sort_rank":360,"kind_detail":"road","is_bicycle_related":true,"bicycle_shield_text":"EV8","bicycle_network":"ncn","source":"openstreetmap.org","min_zoom":8.0},"arcs":[[289],[290]]},{"type":"MultiLineString","properties":{"source":"openstreetmap.org","kind":"highway","sort_rank":383,"kind_detail":"motorway","ref":"C-35","min_zoom":8.0},"arcs":[[291],[292]]},{"type":"LineString","properties":{"source":"openstreetmap.org","kind":"ferry","name":"Tanger - Barcelona - Savona","sort_rank":355,"min_zoom":8.0,"osm_relation":true,"id":-5286144},"arcs":[293]},{"type":"LineString","properties":{"kind":"major_road","sort_rank":381,"kind_detail":"trunk","is_bicycle_related":true,"source":"openstreetmap.org","min_zoom":8.0,"landuse_kind":"nature_reserve","ref":"C-66"},"arcs":[294]},{"type":"MultiLineString","properties":{"kind":"path","sort_rank":354,"kind_detail":"pedestrian","is_bicycle_related":true,"bicycle_shield_text":"EV8","bicycle_network":"ncn","source":"openstreetmap.org","min_zoom":8.0,"landuse_kind":"urban_area"},"arcs":[[295],[296]]},{"type":"MultiLineString","properties":{"source":"openstreetmap.org","kind":"highway","landuse_kind":"urban_area","sort_rank":383,"kind_detail":"motorway","ref":"C-31","min_zoom":8.0},"arcs":[[297],[298],[299],[300],[301],[302]]},{"type":"MultiLineString","properties":{"source":"openstreetmap.org","kind":"major_road","sort_rank":380,"kind_detail":"primary","ref":"C-63","min_zoom":8.0},"arcs":[[303],[304]]},{"type":"MultiLineString","properties":{"kind":"major_road","sort_rank":377,"kind_detail":"tertiary","is_bicycle_related":true,"bicycle_shield_text":"EV8","bicycle_network":"ncn","source":"openstreetmap.org","min_zoom":8.0,"ref":"GI-651"},"arcs":[[305],[306],[307]]},{"type":"MultiLineString","properties":{"sort_rank":383,"kind_detail":"motorway","min_zoom":8.0,"kind":"highway","source":"openstreetmap.org"},"arcs":[[308],[309]]},{"type":"MultiLineString","properties":{"source":"openstreetmap.org","kind":"major_road","sort_rank":380,"kind_detail":"primary","ref":"C-250","min_zoom":8.0},"arcs":[[310],[311],[312],[313]]},{"type":"LineString","properties":{"source":"openstreetmap.org","kind":"ferry","name":"S\u00e8te - Tanger","sort_rank":355,"min_zoom":8.0,"osm_relation":true},"arcs":[314]},{"type":"LineString","properties":{"kind":"major_road","sort_rank":377,"kind_detail":"tertiary","is_bicycle_related":true,"bicycle_shield_text":"EV8","bicycle_network":"ncn","source":"openstreetmap.org","min_zoom":8.0,"ref":"GIV-6501","id":220239707},"arcs":[315]},{"type":"MultiLineString","properties":{"source":"openstreetmap.org","kind":"major_road","kind_detail":"trunk","sort_rank":381,"landuse_kind":"urban_area","ref":"C-65","min_zoom":8.0},"arcs":[[316],[317]]},{"type":"MultiLineString","properties":{"source":"openstreetmap.org","kind":"major_road","ref":"C-66","sort_rank":380,"kind_detail":"primary","is_bicycle_related":true,"min_zoom":8.0},"arcs":[[318],[319],[320],[321],[322],[323]]},{"type":"MultiLineString","properties":{"source":"openstreetmap.org","kind":"major_road","sort_rank":380,"kind_detail":"primary","ref":"C-65","min_zoom":8.0},"arcs":[[324],[325],[326],[327]]},{"type":"LineString","properties":{"source":"openstreetmap.org","kind":"major_road","landuse_kind":"urban_area","sort_rank":380,"kind_detail":"primary","ref":"GI-680","min_zoom":8.0},"arcs":[328]},{"type":"LineString","properties":{"sort_rank":355,"source":"openstreetmap.org","min_zoom":8.0,"name":"Barcelona - Livorno","kind":"ferry"},"arcs":[329]},{"type":"LineString","properties":{"source":"openstreetmap.org","kind":"major_road","landuse_kind":"nature_reserve","sort_rank":381,"kind_detail":"trunk","ref":"N-II","min_zoom":8.0},"arcs":[330]},{"type":"LineString","properties":{"sort_rank":355,"source":"openstreetmap.org","min_zoom":8.0,"name":"S\u00e8te - Barcelona","kind":"ferry"},"arcs":[331]},{"type":"MultiLineString","properties":{"source":"openstreetmap.org","kind":"major_road","kind_detail":"trunk","sort_rank":381,"landuse_kind":"urban_area","ref":"N-II","min_zoom":8.0},"arcs":[[332],[333]]},{"type":"LineString","properties":{"bus_network":null,"sort_rank":381,"landuse_kind":"urban_area","kind":"major_road","source":"openstreetmap.org","min_zoom":8.0,"bus_shield_text":"L0324","kind_detail":"trunk","ref":"N-II"},"arcs":[334]},{"type":"LineString","properties":{"kind":"major_road","sort_rank":377,"kind_detail":"tertiary","is_bicycle_related":true,"bicycle_shield_text":"EV8","bicycle_network":"ncn","source":"openstreetmap.org","min_zoom":8.0,"landuse_kind":"urban_area","ref":"GI-652a","id":525782704},"arcs":[335]},{"type":"MultiLineString","properties":{"kind":"path","sort_rank":354,"kind_detail":"cycleway","is_bicycle_related":true,"bicycle_shield_text":"EV8","bicycle_network":"ncn","source":"openstreetmap.org","min_zoom":8.0,"landuse_kind":"urban_area"},"arcs":[[336],[337],[338]]},{"type":"LineString","properties":{"bus_network":null,"sort_rank":380,"kind_detail":"primary","kind":"major_road","source":"openstreetmap.org","min_zoom":8.0,"bus_shield_text":"L0324","landuse_kind":"urban_area","ref":"C-65"},"arcs":[339]},{"type":"LineString","properties":{"kind":"minor_road","sort_rank":360,"kind_detail":"living_street","is_bicycle_related":true,"bicycle_shield_text":"EV8","bicycle_network":"ncn","source":"openstreetmap.org","min_zoom":8.0,"landuse_kind":"urban_area","id":169743478},"arcs":[340]},{"type":"MultiLineString","properties":{"kind":"path","sort_rank":354,"landuse_kind":"urban_area","is_bicycle_related":true,"bicycle_shield_text":"EV8","bicycle_network":"ncn","source":"openstreetmap.org","min_zoom":8.0,"kind_detail":"footway"},"arcs":[[341],[342],[343],[344]]},{"type":"MultiLineString","properties":{"kind":"major_road","sort_rank":377,"landuse_kind":"urban_area","is_bicycle_related":true,"bicycle_shield_text":"EV8","bicycle_network":"ncn","source":"openstreetmap.org","min_zoom":8.0,"kind_detail":"tertiary"},"arcs":[[345],[346],[347],[348],[349],[350],[351],[352],[353],[354],[355],[356],[357],[358],[359],[360],[361],[362],[363],[364]]},{"type":"LineString","properties":{"kind":"major_road","sort_rank":377,"landuse_kind":"urban_area","is_bicycle_related":true,"bicycle_shield_text":"EV8","bicycle_network":"ncn","source":"openstreetmap.org","min_zoom":8.0,"kind_detail":"tertiary","ref":"GI-650a"},"arcs":[365]},{"type":"MultiLineString","properties":{"source":"openstreetmap.org","kind":"major_road","sort_rank":381,"kind_detail":"trunk","ref":"C-65","min_zoom":8.0},"arcs":[[366],[367],[368],[369]]},{"type":"LineString","properties":{"kind":"major_road","sort_rank":381,"kind_detail":"trunk","bus_network":null,"source":"openstreetmap.org","min_zoom":8.0,"bus_shield_text":"L0324","landuse_kind":"urban_area","ref":"C-65","id":348311921},"arcs":[370]},{"type":"MultiLineString","properties":{"kind":"minor_road","sort_rank":360,"kind_detail":"unclassified","is_bicycle_related":true,"bicycle_shield_text":"EV8","bicycle_network":"ncn","source":"openstreetmap.org","min_zoom":8.0},"arcs":[[371],[372],[373],[374],[375]]}]},"earth":{"type":"GeometryCollection","geometries":[{"type":"Polygon","properties":{"sort_rank":10,"source":"naturalearthdata.com","kind":"earth","min_zoom":0.0,"id":4739},"arcs":[[376]]}]},"landuse":{"type":"GeometryCollection","geometries":[{"type":"Polygon","properties":{"kind":"nature_reserve","area":171787008,"sort_rank":23,"operator":"Generalitat de Catalunya","source":"openstreetmap.org","min_zoom":6.0,"tier":2,"id":229150521},"arcs":[[377]]},{"type":"MultiPolygon","properties":{"source":"openstreetmap.org","kind":"residential","tier":2,"area":40263272,"sort_rank":20,"min_zoom":8.0,"osm_relation":true},"arcs":[[[378]]]},{"type":"Polygon","properties":{"kind":"park","area":121646000,"sort_rank":24,"source":"openstreetmap.org","min_zoom":7.0,"tier":2,"id":-7096603,"osm_relation":true},"arcs":[[379]]},{"type":"MultiPolygon","properties":{"source":"naturalearthdata.com","kind":"urban_area","name":"","area":2826052866,"sort_rank":11,"min_zoom":4.0},"arcs":[[[380]],[[381]],[[382]]]},{"type":"Polygon","properties":{"kind":"park","area":10095700,"sort_rank":24,"source":"openstreetmap.org","min_zoom":8.0,"tier":2,"id":-7096602,"osm_relation":true},"arcs":[[383]]},{"type":"Polygon","properties":{"kind":"nature_reserve","area":519190016,"sort_rank":23,"operator":"Generalitat de Catalunya","source":"openstreetmap.org","min_zoom":6.0,"tier":2,"id":-6050286,"osm_relation":true},"arcs":[[384],[385],[386],[387],[388]]}]}},"type":"Topology","transform":{"translate":[2.8125,40.9798980696],"scale":[0.0003433228,0.0002570987]},"arcs":[[[0,1787],[285,126],[190,143],[298,130],[199,172],[177,111],[210,214],[282,225],[226,314],[133,389],[99,485]],[[0,2728],[120,73],[98,5],[136,52],[125,167],[99,56],[61,-2],[-5,32],[39,-5],[6,39],[31,-4],[30,51],[16,75],[88,98],[58,12],[18,-20],[-24,-5],[31,0],[61,79],[73,16],[17,82],[59,17],[19,41],[25,157],[45,31],[-6,72],[-61,18],[-42,146],[2,85]],[[0,2728]],[[0,3845],[60,213],[30,15],[35,-19],[115,42]],[[10,3882],[2,7]],[[0,3846],[15,81],[-15,38]],[[0,4039],[31,57]],[[19,4096],[-19,-57]],[[0,3963],[0,-116]],[[9,3887],[1,0],[0,-2],[-1,1],[0,1]],[[0,3845],[14,47]],[[2,3851],[59,207],[29,15],[35,-19],[117,42]],[[0,3845],[60,213],[30,15],[35,-19],[115,42]],[[11,3882],[2,7]],[[0,3846],[13,47],[1,8],[1,26],[-2,9],[-1,5],[-12,24]],[[0,4039],[31,57]],[[19,4096],[-19,-57]],[[0,3963],[0,-116]],[[9,3887],[1,0],[0,-2],[-1,1],[0,1]],[[0,3846],[13,47],[1,8],[1,26],[-2,9],[-1,5],[-12,24]],[[0,4039],[31,57]],[[19,4096],[-19,-57]],[[0,3963],[0,-116]],[[9,3887],[1,0],[0,-2],[-1,1],[0,1]],[[0,3846],[15,81],[-15,38]],[[0,4039],[31,57]],[[19,4096],[-19,-57]],[[0,3963],[0,-116]],[[9,3887],[1,0],[0,-2],[-1,1],[0,1]],[[0,3846],[13,47],[1,8],[1,26],[-2,9],[-1,5],[-12,24]],[[0,4039],[31,57]],[[19,4096],[-19,-57]],[[0,3963],[0,-116]],[[9,3887],[1,0],[0,-2],[-1,1],[0,1]],[[0,2685],[2,0],[11,29],[9,17],[45,41],[14,8],[31,10],[77,18],[68,19],[94,22],[52,85],[261,205],[83,47],[28,107],[111,82],[98,-9],[82,116],[48,51],[36,100],[72,125],[11,76],[-15,29],[-55,45],[-11,21],[-3,26],[-16,81],[-16,60],[2979,0],[0,-4096],[-4096,0],[0,2685]],[[1117,4096],[16,-60],[16,-81],[3,-26],[11,-21],[55,-45],[15,-29],[-11,-76],[-72,-125],[-36,-100],[-48,-51],[-82,-116],[-98,9],[-111,-82],[-28,-107],[-83,-47],[-261,-205],[-52,-85],[-94,-22],[-68,-19],[-77,-18],[-31,-10],[-14,-8],[-45,-41],[-9,-17],[-11,-29],[-2,0]],[[101,4067],[-1,1]],[[640,3844],[1,-1]],[[641,3843],[-1,2]],[[657,3817],[-16,26]],[[913,4091],[-3,5]],[[913,4091],[6,-7]],[[952,4048],[-33,36]],[[952,4048],[10,-22]],[[973,3982],[-11,44]],[[973,3982],[4,-14]],[[981,3950],[-4,18]],[[981,3950],[5,-11]],[[984,3830],[0,1]],[[984,3833],[0,-2]],[[988,3863],[-4,-30]],[[985,3832],[-1,1]],[[986,3869],[-1,-1]],[[985,3868],[-1,-2],[2,-1],[1,2],[-2,1]],[[985,3865],[3,-2]],[[986,3869],[10,40]],[[986,3868],[0,1]],[[995,3919],[-9,20]],[[988,3863],[-1,3]],[[995,3919],[1,-10]],[[961,3689],[1,0],[-1,1],[0,-1]],[[38,4096],[5,-5]],[[43,4091],[-2,5]],[[100,4068],[-57,23]],[[1042,3613],[-5,8]],[[908,3753],[-1,-1]],[[907,3752],[1,1]],[[908,3753],[10,17]],[[926,3775],[-8,-5]],[[926,3775],[49,30]],[[975,3805],[5,10]],[[979,3812],[-4,-7]],[[984,3829],[1,1]],[[984,3831],[0,-1]],[[853,4016],[6,-5]],[[853,4079],[2,0]],[[935,3371],[-13,-15],[-5,8]],[[918,3366]],[[918,3366],[-1,-1],[1,0]],[[918,3365],[0,1]],[[918,3365],[0,1]],[[919,3372],[-1,-6]],[[979,3812],[5,18]],[[1036,3623],[1,-1]],[[1038,3623],[-1,0]],[[735,3217],[1,0]],[[751,3268],[1,-1]],[[824,3354],[-18,-17],[-10,-7]],[[796,3331],[1,0]],[[838,3366],[40,14]],[[919,3373],[0,-1]],[[948,3383],[-13,-12]],[[935,3422],[6,14]],[[979,3850],[-12,16]],[[774,3288],[15,16]],[[0,1372],[4096,-195]],[[146,4065],[-24,-12]],[[894,3763],[-21,2]],[[4,2722],[-4,-3]],[[271,2829],[-64,-16]],[[503,3251],[29,-22],[12,-5]],[[544,3224],[-41,28]],[[13,3744],[83,-40],[15,-63]],[[111,3641],[0,-1]],[[111,3639],[1,-1]],[[112,3640],[-1,1]],[[112,3638],[0,1]],[[112,3638],[25,-82]],[[137,3556],[0,-2]],[[138,3554],[-1,2]],[[557,3221],[3,-1]],[[560,3220],[-1,2]],[[560,3220],[43,-48]],[[604,3172],[1,-7]],[[112,3640],[-1,0],[0,-1],[1,0],[0,1]],[[138,3553],[0,1],[-2,0],[1,-1],[1,0]],[[557,3221],[2,3],[-4,1],[-1,-2],[3,-2]],[[503,3252],[-44,43],[-101,16]],[[371,3300],[88,-5],[44,-44]],[[4096,1177],[-4096,195]],[[0,1437],[4096,-51]],[[11,2983],[-2,7]],[[11,2983],[1,-77],[41,-49]],[[53,2857],[1,-1]],[[54,2856],[-1,1]],[[54,2855],[1,-1]],[[54,2855],[0,1]],[[55,2854],[-1,1]],[[55,2854],[3,-17]],[[58,2837],[0,-1]],[[58,2836],[0,1]],[[953,3889],[14,-23]],[[973,3480],[17,73]],[[1009,3722],[4,-2]],[[1013,3720],[1,0],[0,1],[0,1],[-1,-2]],[[1014,3721],[16,-26]],[[1022,3553],[21,59]],[[0,3171],[93,35]],[[93,3206],[-93,-35]],[[0,2311],[3845,1785]],[[1778,0],[2318,3713]],[[979,3812],[0,-4]],[[0,3171],[92,33]],[[92,3205],[-92,-34]],[[603,3173]],[[603,3172],[1,-1]],[[606,3165],[-1,1]],[[610,3154]],[[604,3172],[-1,1],[0,-1],[1,0]],[[606,3165],[-1,0],[0,-1],[1,0],[0,1]],[[848,4076],[0,-5]],[[161,4073],[-15,-8]],[[161,4073],[1,0]],[[162,4074],[-1,-1]],[[162,4073],[2,0],[-1,2],[-1,-1],[0,-1]],[[163,4073],[1,1]],[[164,4074]],[[215,4087],[-51,-13]],[[215,4087],[1,0]],[[216,4087],[-1,0]],[[217,4088],[-1,0]],[[216,4087],[1,1]],[[243,4096],[-26,-8]],[[905,3753],[-11,10]],[[905,3753],[1,-1]],[[906,3752],[-1,1]],[[906,3752],[0,-1],[1,0]],[[907,3751],[0,1],[-1,0]],[[907,3751],[1,-1]],[[908,3750],[-1,1]],[[946,3706],[-38,44]],[[957,3693],[-9,11]],[[957,3693],[4,-4]],[[961,3690],[-4,3]],[[216,4088],[0,-1],[0,1]],[[946,3705],[1,-1],[1,1],[-1,1],[-1,-1]],[[735,3217]],[[879,3380],[-1,0]],[[1027,3677],[3,-5]],[[0,2311],[3845,1785]],[[604,3136],[-1,-3],[0,-5]],[[603,3127],[2,-9]],[[604,3128],[0,7]],[[605,3118],[-1,9]],[[607,3143],[-3,-7]],[[604,3136],[4,7]],[[606,3164]],[[606,3164]],[[606,3164],[0,-2]],[[608,3157],[-2,5]],[[610,3153],[-2,-9]],[[608,3116],[1,0]],[[608,3144],[2,9]],[[608,3157],[2,-4]],[[609,3116],[1,0]],[[610,3153]],[[610,3153]],[[604,3127],[0,1]],[[604,3128],[-1,0],[1,-1]],[[604,3135],[0,1],[0,-1]],[[607,3143],[1,0],[0,1],[-1,0],[0,-1]],[[943,3437],[30,43]],[[1009,3722],[-29,86]],[[1022,3553],[-32,0]],[[1030,3672],[-1,-7]],[[1030,3695],[0,-22]],[[618,3887],[-11,14]],[[618,3887],[0,-1]],[[619,3887],[-1,0]],[[618,3885],[1,0]],[[619,3885],[0,1]],[[633,3858],[-14,27]],[[633,3858],[1,-1]],[[634,3857],[-1,1]],[[634,3857],[0,-1],[1,0],[0,1],[-1,0]],[[634,3856],[1,-1]],[[635,3855],[0,1]],[[639,3848],[-4,7]],[[639,3848],[0,-3]],[[639,3845],[0,3]],[[639,3844],[0,-1]],[[639,3843],[0,1]],[[640,3820],[-1,23]],[[681,3802],[-35,-5],[-6,22]],[[640,3820],[-1,-1],[1,0],[0,1]],[[682,3803],[-25,14]],[[681,3802],[1,0]],[[682,3802],[-1,0]],[[682,3803],[0,-1]],[[683,3803],[-1,0]],[[683,3802],[-1,0]],[[682,3802],[1,0]],[[683,3802],[1,-1]],[[684,3801],[-1,1]],[[710,3804],[-26,-3]],[[710,3804],[2,0]],[[712,3805],[-2,-1]],[[713,3804],[0,2],[-1,0],[0,-2]],[[712,3804],[1,0]],[[713,3804],[3,0]],[[716,3804],[-3,1]],[[727,3803],[-11,1]],[[727,3803],[3,-1]],[[730,3803],[-3,0]],[[731,3802],[1,0]],[[732,3802],[-1,1]],[[746,3797],[-14,5]],[[748,3797],[-2,0]],[[746,3797],[1,0]],[[749,3796],[2,0]],[[751,3796],[-2,1]],[[873,3765],[-122,31]],[[468,4086],[6,-6]],[[608,3904],[-2,0],[0,-1],[1,0],[1,1]],[[618,3886],[0,-1],[1,1],[0,1],[-1,-1]],[[639,3844],[1,1],[-1,1],[-1,-1],[1,-1]],[[731,3802],[0,1],[-1,0],[0,-1],[1,0]],[[749,3797],[-1,1],[-1,-1],[1,-1],[1,1]],[[3925,4096],[-3925,-1797]],[[952,3889],[1,0]],[[1482,4096],[-100,-441],[-1382,-2174]],[[606,3116]],[[93,3206],[143,24],[104,73]],[[340,3303]],[[358,3311],[-18,-8]],[[340,3303],[-74,-33],[-30,-40],[-96,-6],[-47,-18]],[[207,2813],[-142,-34],[-61,-57]],[[353,2872],[-82,-43]],[[0,1437],[4096,-51]],[[0,4021],[11,28],[44,38],[3,3]],[[58,4090],[4,6]],[[63,4096],[-5,-6]],[[58,4090],[-3,-3],[-26,-16],[-18,-21],[-11,-28]],[[754,3279],[-7,-9]],[[754,3279],[1,1]],[[754,3280],[0,-1]],[[757,3281],[-2,0]],[[755,3280],[2,1]],[[757,3281],[4,2]],[[761,3283],[1,1]],[[762,3284],[-1,-1]],[[763,3284],[3,1]],[[766,3285],[-3,-1]],[[766,3285],[8,3]],[[789,3304],[7,27]],[[754,3281],[0,-1],[1,0]],[[755,3280],[0,1],[-1,0]],[[762,3284]],[[762,3284],[1,0],[-1,0]],[[868,4006],[47,-90]],[[899,3906],[53,-17]],[[92,3204],[144,26],[69,58],[66,12]],[[358,3311],[-46,-15],[-76,-66],[-144,-25]],[[0,2311],[3845,1785]],[[122,4053],[-21,14]],[[736,3217],[16,50]],[[747,3270],[4,-2]],[[961,3688],[14,-65],[-32,-177],[-45,-29],[-28,6],[-105,-10],[-6,-18],[14,-42]],[[773,3353],[0,-2],[-17,-14]],[[756,3337],[-3,-3],[-49,-65],[-32,-15],[-9,-24],[-119,-6]],[[544,3224],[10,-1],[6,0],[85,-2],[15,7],[4,2],[10,24],[21,9],[8,5],[13,13],[37,50],[0,3],[3,3]],[[756,3337],[17,16]],[[773,3353],[3,3],[-11,56],[15,-3],[90,13],[24,-5],[4,-1],[45,30],[4,8],[14,70],[11,65],[4,35],[0,5],[-4,22],[-10,38]],[[0,2998],[9,-6]],[[9,2992],[0,-2]],[[915,3916],[-16,-9]],[[898,3906],[1,0],[0,1]],[[899,3907],[-1,0],[0,-1]],[[386,3297],[-9,2]],[[406,3295],[-8,0]],[[605,3118],[0,-2]],[[605,3116],[1,0]],[[605,3117],[0,1]],[[606,3116],[2,0]],[[1482,4096],[-100,-441],[-1382,-2174]],[[859,4011],[9,-5]],[[0,3788],[0,1]],[[138,3551],[7,-19]],[[517,4051],[-45,45]],[[517,4051],[8,-7]],[[605,3905],[-80,139]],[[605,3905],[1,-1]],[[607,3905],[-2,0]],[[607,3903]],[[204,3470],[1,-1]],[[204,3470],[0,2],[-1,-1],[0,-1],[1,0]],[[205,3469],[-1,1]],[[205,3469],[16,-98]],[[58,2836]],[[0,2286],[4009,1810]],[[100,3873],[21,193]],[[1615,4096],[-397,-1140],[-1218,-599]],[[10,3734],[91,85],[-1,54]],[[121,4066],[5,30]],[[0,3725],[10,9]],[[979,3808],[1,0]],[[948,3383],[-13,39]],[[941,3436],[2,1]],[[1030,3673],[-3,4]],[[0,3788],[13,-44]],[[824,3354],[0,-6]],[[654,3228],[81,-11]],[[825,3348],[15,15]],[[919,3373],[-40,7]],[[1027,3677]],[[1029,3665],[13,0]],[[1037,3623],[-1,0]],[[1038,3624],[-1,-1]],[[1037,3622],[1,2]],[[1037,3621],[0,1]],[[1044,3631],[-6,-7]],[[1043,3612],[-1,1]],[[1043,3665],[-1,0]],[[1042,3665],[1,0]],[[1043,3665],[0,-1]],[[1043,3664],[0,1]],[[1043,3664],[1,-32]],[[1044,3631]],[[1044,3631]],[[1044,3632]],[[1044,3632]],[[1043,3665],[1,0],[-1,0]],[[1044,3632],[0,-1],[0,1]],[[1044,3632]],[[1044,3632]],[[979,3850],[5,-19]],[[145,3532],[58,-60]],[[221,3371],[58,-64],[51,3]],[[330,3310],[41,-10]],[[358,3311],[-28,-1]],[[0,3789],[0,-1]],[[861,4096],[-14,-9]],[[847,4086],[8,-7]],[[848,4071],[5,-55]],[[853,4079],[-5,-3]],[[847,4087],[0,-1]],[[1117,4096],[16,-60],[16,-81],[3,-26],[11,-21],[55,-45],[15,-29],[-11,-76],[-72,-125],[-36,-100],[-48,-51],[-82,-116],[-98,9],[-111,-82],[-28,-107],[-83,-47],[-261,-205],[-52,-85],[-94,-22],[-68,-19],[-77,-18],[-31,-10],[-14,-8],[-45,-41],[-9,-17],[-11,-29],[-2,0],[0,1411],[1117,0]],[[97,3145],[23,38],[61,-24],[30,17],[26,-62],[69,47],[11,91],[43,-36],[8,-49],[11,48],[57,30],[38,-37],[-3,-39],[41,-4],[34,-53],[10,19],[30,-10],[3,-37],[57,6],[0,-25],[-43,-13],[-193,-206],[-30,80],[-44,-10],[-38,45],[-30,-9],[1,25],[-31,3],[-1,-82],[52,-20],[-40,1],[-17,-32],[-14,34],[-38,8],[32,48],[-110,105],[16,12],[-21,91]],[[0,3908],[31,19],[2,-52],[32,-41],[-37,-23],[-10,-51],[-18,148]],[[1237,4096],[1,-3],[-88,-1],[0,4],[87,0]],[[0,2986],[29,11],[25,64],[23,-23],[9,-150],[204,7],[122,46],[-61,-92],[-270,-69],[-81,-95],[21,203],[-21,16],[0,82]],[[865,4096],[252,0],[35,-167],[81,-95],[-11,-76],[-108,-225],[-130,-167],[-98,9],[-111,-82],[-28,-107],[-124,-79],[-126,72],[7,84],[31,32],[101,26],[97,172],[129,44],[65,86],[-17,86],[-48,44],[97,86],[-20,134],[20,39],[-94,84]],[[0,4096],[336,0],[-23,-127],[-130,0],[-65,-130],[18,-95],[94,-112],[13,-177],[-93,81],[-64,-43],[0,-129],[64,-44],[-10,-45],[-86,-128],[-54,0],[0,949]],[[1159,4092],[0,4],[78,0],[1,-3],[-79,-1]],[[39,3983],[12,62],[41,23],[64,-4],[33,-34],[165,20],[48,-118],[79,-25],[25,-41],[-15,-13],[-20,21],[-3,-36],[-16,7],[6,-85],[60,-14],[3,-27],[37,16],[12,-42],[40,-22],[24,68],[57,-5],[33,31],[14,-29],[40,-6],[13,29],[16,-16],[25,23],[61,-1],[24,-100],[22,18],[27,-22],[-27,-126],[-54,1],[-16,-74],[-53,-19],[-51,78],[-45,-18],[-12,-15],[22,-20],[-60,-84],[0,-46],[-91,-23],[-29,16],[9,18],[-21,-25],[-43,44],[-29,-30],[3,-39],[-84,1],[-20,33],[50,5],[14,62],[-38,-23],[-14,35],[-113,19],[-30,45],[14,62],[-73,39],[-78,181],[22,98],[-70,62],[27,6],[9,39],[-46,20]],[[445,3422],[26,-7],[12,36],[-22,3],[-16,-32]],[[528,3438],[16,-19],[42,-2],[-20,26],[-38,-5]],[[500,3396],[5,-3],[1,7],[-6,1],[0,-5]],[[243,3914],[15,-21],[18,4],[-21,20],[-12,-3]]]}