{"objects":{"water":{"type":"GeometryCollection","geometries":[{"type":"MultiPolygon","properties":{"source":"naturalearthdata.com","kind":"ocean","area":1576712559132672,"sort_rank":200,"min_zoom":0.0,"id":1},"arcs":[[[8],[9]],[[10]]]},{"type":"MultiLineString","properties":{"source":"naturalearthdata.com","kind":"ocean","sort_rank":205,"boundary":true,"min_zoom":0.0,"id":1133},"arcs":[[11],[12],[13],[14]]},{"type":"LineString","properties":{"source":"naturalearthdata.com","kind":"ocean","sort_rank":205,"boundary":true,"min_zoom":0.0,"id":1136},"arcs":[15]},{"type":"LineString","properties":{"source":"naturalearthdata.com","kind":"ocean","sort_rank":205,"boundary":true,"min_zoom":0.0,"id":3961},"arcs":[16]}]},"buildings":{"type":"GeometryCollection","geometries":[]},"places":{"type":"GeometryCollection","geometries":[{"type":"Point","properties":{"admin_level":"8","kind":"locality","name":"Inca","kind_detail":"town","source":"openstreetmap.org","min_zoom":8.0,"name:ru":"\u0418\u043d\u043a\u0430","id":26486417,"population":29321},"coordinates":[287,3385]},{"type":"Point","properties":{"admin_level":"8","kind":"locality","name":"Manacor","kind_detail":"town","source":"openstreetmap.org","min_zoom":8.0,"name:ru":"\u041c\u0430\u043d\u0430\u043a\u043e\u0440","id":26482361,"population":28003},"coordinates":[1160,2815]},{"type":"Point","properties":{"admin_level":"8","kind":"locality","name":"Llucmajor","kind_detail":"town","source":"openstreetmap.org","min_zoom":8.0,"name:ru":"\u041b\u044c\u044e\u043a\u043c\u0430\u0436\u043e\u0440","id":26483383,"name:es":"Lluchmayor","population":13199},"coordinates":[230,2518]},{"type":"Point","properties":{"admin_level":"8","kind":"locality","name":"Sa Pobla","kind_detail":"town","official_name":"sa Pobla","source":"openstreetmap.org","min_zoom":8.0,"id":252314034,"name:es":"La Puebla","population":12831},"coordinates":[619,3569]},{"type":"Point","properties":{"admin_level":"8","kind":"locality","name":"Felanitx","kind_detail":"town","source":"openstreetmap.org","min_zoom":8.0,"name:ru":"\u0424\u0435\u043b\u0430\u043d\u0438\u0447","id":26475225,"population":9812},"coordinates":[976,2451]},{"type":"Point","properties":{"admin_level":"8","kind":"locality","name":"Pollen\u00e7a","kind_detail":"town","source":"openstreetmap.org","min_zoom":8.0,"id":30417672,"name:es":"Pollensa","population":9122},"coordinates":[592,3981]},{"type":"Point","properties":{"admin_level":"8","kind":"locality","name":"Campos","kind_detail":"town","source":"openstreetmap.org","min_zoom":8.0,"name:ru":"\u041a\u0430\u043c\u043f\u043e\u0441","id":26475934,"population":8497},"coordinates":[604,2293]},{"type":"Point","properties":{"admin_level":"8","kind":"locality","name":"Binissalem","kind_detail":"town","source":"openstreetmap.org","min_zoom":8.0,"id":678587584,"name:es":"Binisalem","population":7368},"coordinates":[86,3264]},{"type":"Point","properties":{"admin_level":"8","kind":"locality","name":"Alc\u00fadia","kind_detail":"town","source":"openstreetmap.org","min_zoom":8.0,"id":30417673,"name:es":"Alcudia","population":6868},"coordinates":[899,3883]},{"type":"Point","properties":{"admin_level":"8","kind":"locality","name":"Art\u00e0","kind_detail":"town","source":"openstreetmap.org","min_zoom":8.0,"id":35345420,"name:es":"Art\u00e1","population":6741},"coordinates":[1567,3287]},{"type":"Point","properties":{"admin_level":"8","kind":"locality","name":"Muro","kind_detail":"town","source":"openstreetmap.org","min_zoom":8.0,"id":240974549,"population":6507},"coordinates":[711,3445]},{"type":"Point","properties":{"admin_level":"8","kind":"locality","name":"Porreres","kind_detail":"town","source":"openstreetmap.org","min_zoom":8.0,"name:ru":"\u041f\u043e\u0440\u0440\u0435\u0440\u0430\u0441","id":26476151,"name:es":"Porreras","population":5531},"coordinates":[612,2616]},{"type":"Point","properties":{"admin_level":"8","kind":"locality","name":"Son Servera","kind_detail":"town","source":"openstreetmap.org","min_zoom":8.0,"id":275390477,"population":4980},"coordinates":[1596,3013]},{"type":"Point","properties":{"admin_level":"8","kind":"locality","name":"Santa Margalida","kind_detail":"town","source":"openstreetmap.org","min_zoom":8.0,"id":252135241,"name:es":"Santa Margarita","population":3719},"coordinates":[845,3318]},{"type":"Point","properties":{"admin_level":"8","kind":"locality","name":"Sant Lloren\u00e7 des Cardassar","kind_detail":"town","source":"openstreetmap.org","min_zoom":8.0,"name:es":"San Lorenzo del Cardessar","id":335572997,"alt_name:es":"San Lorenzo de Descardazar","population":3529},"coordinates":[1378,2969]},{"type":"Point","properties":{"admin_level":"8","kind":"locality","name":"Santany\u00ed","kind_detail":"town","source":"openstreetmap.org","min_zoom":8.0,"id":32727982,"name:es":"Santa\u00f1y","population":3389},"coordinates":[923,2003]},{"type":"Point","properties":{"admin_level":"8","kind":"locality","name":"Capdepera","kind_detail":"town","source":"openstreetmap.org","min_zoom":8.0,"id":35346037,"population":3331},"coordinates":[1805,3315]},{"type":"Point","properties":{"admin_level":"8","kind":"locality","name":"Petra","kind_detail":"town","source":"openstreetmap.org","min_zoom":8.0,"name:ru":"\u041f\u0435\u0442\u0440\u0430","id":26481776,"population":2928},"coordinates":[875,2980]}]},"transit":{"type":"GeometryCollection","geometries":[{"type":"LineString","properties":{"source":"openstreetmap.org","kind":"train","name":"Palma - Manacor","sort_rank":275,"min_zoom":6.0,"osm_relation":true,"id":-1664338},"arcs":[5]},{"type":"MultiLineString","properties":{"source":"openstreetmap.org","kind":"train","name":"Palma - Sa Pobla","sort_rank":275,"min_zoom":6.0,"osm_relation":true},"arcs":[[6],[7]]}]},"pois":{"type":"GeometryCollection","geometries":[{"type":"Point","properties":{"kind":"nature_reserve","name:en":"Cabrera National Park","protect_class":"2","area":140437000,"official_name":"Parc Nacional Mar\u00edtimo Terrestre de l'Arxip\u00e8lag de Cabrera","source":"openstreetmap.org","min_zoom":8.72,"tier":2,"id":55528836,"name:es":"Parque Nacional del Archipi\u00e9lago de Cabrera","name":"Parc Nacional de l'Arxip\u00e8lag de Cabrera"},"coordinates":[446,1371]}]},"boundaries":{"type":"GeometryCollection","geometries":[{"type":"LineString","properties":{"name:kg":"Espania","name:ty":"Paniora","name:ka":"\u10d4\u10e1\u10de\u10d0\u10dc\u10d4\u10d7\u10d8","name:ko":"\uc2a4\ud398\uc778","name:cv":"\u0418\u0441\u043f\u0430\u043d\u0438","name:cu":"\u0407\u0441\u043f\u0430\u043d\u0457\ua657","name:kl":"Spania","name:cs":"\u0160pan\u011blsko","name:tt":"\u0418\u0441\u043f\u0430\u043d\u0438\u044f","name:co":"Spagna","name:kv":"\u0418\u0441\u043f\u0430\u043d\u0438\u044f","name:ku":"Spanya","name:to":"Sepeni","name:tl":"Espanya","name:ce":"\u0418\u0441\u043f\u0430\u043d\u0438","name:ta":"\u0b8e\u0b9a\u0bc1\u0baa\u0bcd\u0baa\u0bbe\u0ba9\u0bbf\u0baf\u0bbe","name:tg":"\u0418\u0441\u043f\u043e\u043d\u0438\u0451","name:ca":"Espanya","name:te":"\u0c38\u0c4d\u0c2a\u0c46\u0c2f\u0c3f\u0c28\u0c4d","name:cy":"Sbaen","name:qu":"Ispa\u00f1a","name:da":"Spanien","name:de":"Spanien","name:dz":"\u0f66\u0f72\u0f54\u0f71\u0f7a\u0f53\u0f0b","source":"openstreetmap.org","name:kn":"\u0cb8\u0ccd\u0caa\u0cc7\u0ca8\u0ccd","name:dv":"\u0787\u07a8\u0790\u07b0\u0795\u07ac\u0787\u07a8\u0782\u07b0","name:km":"\u17a2\u17c1\u179f\u17d2\u1794\u17c9\u17b6\u1789","name:lv":"Sp\u0101nija","name:lt":"Ispanija","name:uz":"Ispaniya","name:kk":"\u0418\u0441\u043f\u0430\u043d\u0438\u044f","name:ur":"\u06c1\u0633\u067e\u0627\u0646\u06cc\u06c1","name:lb":"Spuenien","name:la":"Hispania","name:uk":"\u0406\u0441\u043f\u0430\u043d\u0456\u044f","name:ug":"Ispaniye","name:li":"Spanje","name:ln":"Espania","name:el":"\u0399\u03c3\u03c0\u03b1\u03bd\u03af\u03b1","name:eo":"Hispanujo","name:en":"Spain","name":"Espa\u00f1a","name:tk":"Ispani\u00fda","name:ee":"Spain","name:th":"\u0e1b\u0e23\u0e30\u0e40\u0e17\u0e28\u0e2a\u0e40\u0e1b\u0e19","name:eu":"Espainia","name:et":"Hispaania","name:ay":"Ispa\u00f1a","name:rm":"Spagna","name:rn":"Esipanye","name:az":"\u0130spaniya","name:ie":"Hispania","name:id":"Spanyol","name:ig":"Spain","name:ik":"Spa\u00f1a","name:ar":"\u0625\u0633\u0628\u0627\u0646\u064a\u0627","name:io":"Hispania","name:is":"Sp\u00e1nn","name:am":"\u12a5\u1235\u1353\u1295\u12eb","name:it":"Spagna","name:an":"Espanya","name:ru":"\u0418\u0441\u043f\u0430\u043d\u0438\u044f","name:rw":"Esipanye","name:af":"Spanje","name:zu":"ISpeyini","kind_detail":"2","name:za":"Sihbanhyaz","name:zh-yue":"\u897f\u73ed\u7259","name:zh":"\u897f\u73ed\u7259","name:so":"Isbania","name:sm":"Spania","name:sl":"\u0160panija","name:sk":"\u0160panielsko","name:ja":"\u30b9\u30da\u30a4\u30f3","name:sh":"\u0160panija","name:se":"Sp\u00e1nia","name:sc":"Ispagna","name:br":"Spagn","name:bs":"\u0160panija","name:bn":"\u09b8\u09cd\u09aa\u09c7\u09a8","name:bo":"\u0f5e\u0f72\u0f0b\u0f54\u0f53\u0f0b\u0f61\u0f0d","name:bi":"Spain","name:sw":"Hispania","name:be":"\u0406\u0441\u043f\u0430\u043d\u0456\u044f","name:su":"Spanyol","name:bg":"\u0418\u0441\u043f\u0430\u043d\u0438\u044f","name:ss":"Sipeyini","name:ba":"\u0418\u0441\u043f\u0430\u043d\u0438\u044f","name:sq":"Spanja","name:jv":"Spanyol","name:sa":"\u0938\u094d\u092a\u0947\u0928\u094d","name:ia":"Espania","name:pt":"Espanha","name:ps":"\u0627\u0633\u067e\u0627\u0646\u06cc\u0627","name:oc":"Espanha","min_zoom":8.0,"name:ro":"Spania","name:zh-min-nan":"Se-pan-g\u00e2","name:os":"\u0418\u0441\u043f\u0430\u043d\u0438","name:or":"\u0b38\u0b4d\u0b2a\u0b47\u0b28","name:pl":"Hiszpania","name:st":"Spain","sort_rank":262,"name:sr":"\u0428\u043f\u0430\u043d\u0438\u0458\u0430","osm_relation":true,"name:pa":"\u0a38\u0a2a\u0a47\u0a28","name:tr":"\u0130spanya","name:hi":"\u0938\u094d\u092a\u0947\u0928","name:sv":"Spanien","name:he":"\u05e1\u05e4\u05e8\u05d3","name:hy":"\u053b\u057d\u057a\u0561\u0576\u056b\u0561","name:ht":"Espay","name:hu":"Spanyolorsz\u00e1g","name:hr":"\u0160panjolska","kind":"country","name:ts":"Spaniya","name:yi":"\u05e9\u05e4\u05d0\u05e0\u05d9\u05e2","name:iu":"\u14ef\u1438\u1403\u14d0","name:yo":"Sp\u00e9\u00ecn","name:mt":"Spanja","alt_name:eo":"Hispanio","name:ms":"Sepanyol","name:mr":"\u0938\u094d\u092a\u0947\u0928","name:my":"\u1005\u1015\u102d\u1014\u103a\u1014\u102d\u102f\u1004\u103a\u1004\u1036","official_name":"Reino de Espa\u00f1a","name:kw":"Spayn","name:mg":"Espaina","name:vi":"T\u00e2y Ban Nha","name:ml":"\u0d38\u0d4d\u0d2a\u0d46\u0d2f\u0d3f\u0d7b","name:mn":"\u0418\u0441\u043f\u0430\u043d\u0438","name:mi":"P\u0101niora","id":-1311341,"name:mk":"\u0428\u043f\u0430\u043d\u0438\u0458\u0430","name:vo":"Spany\u00e4n","name:fa":"\u0627\u0633\u067e\u0627\u0646\u06cc\u0627","name:fi":"Espanja","name:ky":"\u0418\u0441\u043f\u0430\u043d\u0438\u044f","name:fo":"Spania","name:fr":"Espagne","name:fy":"Spanje","int_name":"Spain","name:nl":"Spanje","name:nn":"Spania","name:no":"Spania","name:na":"Pain","name:ne":"\u0938\u094d\u092a\u0947\u0928","name:wa":"Espagne","name:wo":"Ispaa\u00f1","name:nv":"Dib\u00e9 Din\u00ed\u00ed Bik\u00e9yah","name:ga":"An Sp\u00e1inn","name:gd":"An Sp\u00e0inn","maritime_boundary":true,"name:gv":"Yn Spaainey","name:gu":"\u0ab8\u0acd\u0aaa\u0ac7\u0aa8"},"arcs":[0]},{"type":"MultiLineString","properties":{"name:pt":"Ilhas Baleares","name:ka":"\u10d1\u10d0\u10da\u10d4\u10d0\u10e0\u10d8\u10e1 \u10d9\u10e3\u10dc\u10eb\u10e3\u10da\u10d4\u10d1\u10d8","name:ko":"\ubc1c\ub808\uc544\ub808\uc2a4 \uc81c\ub3c4","name:kk":"\u0411\u0430\u043b\u0435\u0430\u0440 \u0430\u0440\u0430\u043b\u0434\u0430\u0440\u044b","name:co":"Baleare","name:th":"\u0e2b\u0e21\u0e39\u0e48\u0e40\u0e01\u0e32\u0e30\u0e41\u0e1a\u0e25\u0e35\u0e41\u0e2d\u0e23\u0e34\u0e01","alt_name:cs":"Bale\u00e1rsk\u00e9 ostrovy","name:sv":"Balearerna","name:pl":"Baleary","name:cy":"Ynysoedd Balearig","sort_rank":256,"name:da":"Baleariske \u00d8er","name:de":"Balearische Inseln","source":"openstreetmap.org","name:lv":"Bale\u0101ru Salas","name:tr":"Balear Adalar\u0131","name:cs":"Bale\u00e1ry","name:he":"\u05d4\u05d0\u05d9\u05d9\u05dd \u05d4\u05d1\u05dc\u05d0\u05e8\u05d9\u05d9\u05dd","name:lb":"Balearesch Inselen","name:la":"Insulae Baliares","name:uk":"\u0411\u0430\u043b\u0435\u0430\u0440\u0441\u044c\u043a\u0456 \u043e\u0441\u0442\u0440\u043e\u0432\u0438","name:hy":"\u0532\u0561\u056c\u0565\u0561\u0580\u0575\u0561\u0576 \u056f\u0572\u0566\u056b\u0576\u0565\u0580","name:hu":"Bale\u00e1r-szigetek","name:hr":"Balearski otoci","name:oc":"Illas Balearas","name:el":"\u0392\u03b1\u03bb\u03b5\u03b1\u03c1\u03af\u03b4\u03b5\u03c2 \u039d\u03ae\u03c3\u03bf\u03b9","kind":"region","name:en":"Balearic Islands","name":"Illes Balears","min_zoom":8.0,"name:eu":"Balear uharteak","name:et":"Baleaarid","name:es":"Islas Baleares","name:ro":"Insulele Baleare","name:id":"Kepulauan Balears","name:ms":"Kepulauan Balearic","name:mr":"\u092c\u093e\u0932\u0947\u0906\u0930\u093f\u0915 \u0926\u094d\u0935\u0940\u092a\u0938\u092e\u0942\u0939","name:ar":"\u0645\u0646\u0637\u0642\u0629 \u062c\u0632\u0631 \u0627\u0644\u0628\u0644\u064a\u0627\u0631","name:kw":"Ynysow Balearek","name:is":"Baleareyjar","name:it":"Isole Baleari","name:an":"Islas Balears","name:vi":"Qu\u1ea7n \u0111\u1ea3o Baleares","id":-348981,"name:mk":"\u0411\u0430\u043b\u0435\u0430\u0440\u0441\u043a\u0438 \u041e\u0441\u0442\u0440\u043e\u0432\u0438","name:fa":"\u062c\u0632\u0627\u06cc\u0631 \u0628\u0627\u0644\u0626\u0627\u0631\u0633","name:lt":"Balear\u0173 salos","kind_detail":"4","name:fr":"\u00celes Bal\u00e9ares","name:fy":"Balearen","name:zh":"\u5df4\u5229\u963f\u91cc\u7fa4\u5c9b","name:sl":"Balearski otoki","name:nl":"Balearen","name:ja":"\u30d0\u30ec\u30a2\u30ec\u30b9\u8af8\u5cf6","name:nn":"Balearane","name:no":"Balearene","name:br":"Belearez","name:bs":"Balearska ostrva","name:sk":"Bale\u00e1ry","name:ru":"\u0411\u0430\u043b\u0435\u0430\u0440\u0441\u043a\u0438\u0435 \u043e\u0441\u0442\u0440\u043e\u0432\u0430","name:be":"\u0411\u0430\u043b\u0435\u0430\u0440\u0441\u043a\u0456\u044f \u0430\u0441\u0442\u0440\u0430\u0432\u044b","alt_name:fr":"Bal\u00e9ares","name:bg":"\u0411\u0430\u043b\u0435\u0430\u0440\u0441\u043a\u0438 \u043e\u0441\u0442\u0440\u043e\u0432\u0438","osm_relation":true,"name:ga":"Na hOile\u00e1in Bhail\u00e9aracha","name:gd":"Na h-Eileanan Bal\u00e8arach","name:gl":"Illas Baleares","maritime_boundary":true,"name:gv":"Ny h-Ellanyn Balearagh","name:fi":"Baleaarit"},"arcs":[[1],[2],[3],[4]]}]},"roads":{"type":"GeometryCollection","geometries":[{"type":"MultiLineString","properties":{"source":"openstreetmap.org","kind":"major_road","sort_rank":380,"kind_detail":"primary","ref":"Ma-4040","min_zoom":8.0},"arcs":[[17],[18],[19],[20],[21],[22]]},{"type":"LineString","properties":{"source":"openstreetmap.org","kind":"ferry","name":"Valencia - Mallorca - Mah\u00f3n","sort_rank":355,"min_zoom":8.0,"osm_relation":true},"arcs":[23]},{"type":"MultiLineString","properties":{"bus_network":null,"sort_rank":380,"kind_detail":"primary","kind":"major_road","source":"openstreetmap.org","min_zoom":8.0,"bus_shield_text":"501","ref":"Ma-19"},"arcs":[[24],[25],[26]]},{"type":"LineString","properties":{"source":"openstreetmap.org","kind":"ferry","name":"\u0627\u0644\u062c\u0632\u0627\u0626\u0631 - Marseille","sort_rank":355,"name:ar":"\u0627\u0644\u062c\u0632\u0627\u0626\u0631 - \u0645\u0631\u0633\u064a\u0644\u064a\u0627","min_zoom":8.0,"name:fr":"Alger - Marseille"},"arcs":[27]},{"type":"LineString","properties":{"kind":"major_road","sort_rank":380,"kind_detail":"primary","is_bicycle_related":true,"bus_network":"Transports p\u00fablics de Mallorca","source":"openstreetmap.org","min_zoom":8.0,"bus_shield_text":"A32","landuse_kind":"nature_reserve","ref":"Ma-12","id":23265948},"arcs":[28]},{"type":"MultiLineString","properties":{"source":"openstreetmap.org","kind":"major_road","sort_rank":380,"kind_detail":"primary","ref":"MA-13","min_zoom":8.0},"arcs":[[29],[30]]},{"type":"MultiLineString","properties":{"source":"openstreetmap.org","kind":"major_road","sort_rank":380,"kind_detail":"primary","ref":"Ma-15","min_zoom":8.0},"arcs":[[31],[32],[33],[34],[35],[36],[37],[38],[39],[40],[41],[42],[43],[44],[45],[46],[47],[48],[49],[50],[51],[52],[53],[54],[55],[56],[57],[58]]},{"type":"MultiLineString","properties":{"source":"openstreetmap.org","bus_network":"Transports p\u00fablics de Mallorca","bus_shield_text":"340","sort_rank":380,"kind_detail":"primary","min_zoom":8.0,"kind":"major_road"},"arcs":[[59],[60],[61],[62],[63],[64],[65],[66],[67],[68],[69],[70],[71],[72],[73],[74],[75],[76],[77]]},{"type":"MultiLineString","properties":{"bus_network":"Transports p\u00fablics de Mallorca","sort_rank":380,"kind_detail":"primary","kind":"major_road","source":"openstreetmap.org","min_zoom":8.0,"bus_shield_text":"390","ref":"Ma-3410"},"arcs":[[78],[79],[80]]},{"type":"MultiLineString","properties":{"bus_network":"Transports p\u00fablics de Mallorca","sort_rank":380,"kind_detail":"primary","kind":"major_road","source":"openstreetmap.org","min_zoom":8.0,"bus_shield_text":"395","ref":"Ma-3500"},"arcs":[[81],[82],[83]]},{"type":"LineString","properties":{"source":"openstreetmap.org","kind":"ferry","name":"Ciutadella - Alc\u00fadia","sort_rank":355,"min_zoom":8.0,"name:es":"Ciudadela - Alcudia","id":128215533},"arcs":[84]},{"type":"MultiLineString","properties":{"bus_network":"Transports p\u00fablics de Mallorca","sort_rank":380,"kind_detail":"primary","kind":"major_road","source":"openstreetmap.org","min_zoom":8.0,"bus_shield_text":"411","ref":"Ma-15"},"arcs":[[85],[86],[87],[88],[89],[90],[91],[92],[93],[94],[95],[96],[97],[98],[99],[100],[101],[102],[103],[104],[105],[106],[107],[108],[109],[110],[111],[112],[113],[114],[115],[116],[117]]},{"type":"LineString","properties":{"bus_network":"Transports p\u00fablics de Mallorca","sort_rank":380,"kind_detail":"primary","kind":"major_road","source":"openstreetmap.org","min_zoom":8.0,"bus_shield_text":"331","ref":"Ma-2110"},"arcs":[118]},{"type":"MultiLineString","properties":{"source":"openstreetmap.org","kind":"major_road","sort_rank":380,"kind_detail":"primary","ref":"Ma-3470","min_zoom":8.0},"arcs":[[119],[120],[121],[122]]},{"type":"MultiLineString","properties":{"bus_network":"Transports p\u00fablics de Mallorca","sort_rank":380,"kind_detail":"primary","kind":"major_road","source":"openstreetmap.org","min_zoom":8.0,"bus_shield_text":"423","ref":"Ma-15"},"arcs":[[123],[124]]},{"type":"MultiLineString","properties":{"bus_network":"Transports p\u00fablics de Mallorca","sort_rank":380,"kind_detail":"primary","is_bicycle_related":true,"kind":"major_road","cycleway":"lane","source":"openstreetmap.org","min_zoom":8.0,"bus_shield_text":"A32","landuse_kind":"nature_reserve","ref":"Ma-12"},"arcs":[[125],[126]]},{"type":"LineString","properties":{"kind":"major_road","sort_rank":380,"kind_detail":"primary","bus_network":"Transports p\u00fablics de Mallorca","source":"openstreetmap.org","min_zoom":8.0,"bus_shield_text":"390","ref":"Ma-12","id":492365048},"arcs":[127]},{"type":"LineString","properties":{"kind":"major_road","sort_rank":380,"kind_detail":"primary","bus_network":"Transports p\u00fablics de Mallorca","source":"openstreetmap.org","min_zoom":8.0,"bus_shield_text":"403","ref":"Ma-3301","id":14484314},"arcs":[128]},{"type":"LineString","properties":{"source":"openstreetmap.org","kind":"ferry","name":"Alger - Marseille","sort_rank":355,"name:ar":"\u0627\u0644\u062c\u0632\u0627\u0626\u0631 - \u0645\u0631\u0633\u064a\u0644\u064a\u0627","min_zoom":8.0,"osm_relation":true},"arcs":[129]},{"type":"LineString","properties":{"source":"openstreetmap.org","kind":"ferry","name":"Barcelona - Alc\u00fadia","sort_rank":355,"min_zoom":8.0,"osm_relation":true,"id":-1664838},"arcs":[130]},{"type":"MultiLineString","properties":{"bus_network":"Transports p\u00fablics de Mallorca","sort_rank":380,"kind_detail":"primary","kind":"major_road","source":"openstreetmap.org","min_zoom":8.0,"bus_shield_text":"445","ref":"Ma-12"},"arcs":[[131],[132],[133]]},{"type":"MultiLineString","properties":{"source":"openstreetmap.org","bus_network":"Transports p\u00fablics de Mallorca","bus_shield_text":"356A","sort_rank":380,"kind_detail":"primary","min_zoom":8.0,"kind":"major_road"},"arcs":[[134],[135]]},{"type":"LineString","properties":{"bus_network":"Transports p\u00fablics de Mallorca","sort_rank":380,"kind_detail":"primary","kind":"major_road","source":"openstreetmap.org","min_zoom":8.0,"bus_shield_text":"310","ref":"Ma-3240"},"arcs":[136]},{"type":"LineString","properties":{"bus_network":"Transports p\u00fablics de Mallorca","sort_rank":380,"kind_detail":"primary","kind":"major_road","source":"openstreetmap.org","min_zoom":8.0,"bus_shield_text":"A32","ref":"Ma-3440"},"arcs":[137]},{"type":"MultiLineString","properties":{"source":"openstreetmap.org","kind":"major_road","sort_rank":380,"kind_detail":"primary","ref":"Ma-3440","min_zoom":8.0},"arcs":[[138],[139],[140],[141],[142],[143],[144],[145]]},{"type":"MultiLineString","properties":{"bus_network":"Transports p\u00fablics de Mallorca","sort_rank":380,"kind_detail":"primary","kind":"major_road","source":"openstreetmap.org","min_zoom":8.0,"bus_shield_text":"441","ref":"Ma-4040"},"arcs":[[146],[147],[148],[149],[150],[151],[152]]},{"type":"MultiLineString","properties":{"bus_network":null,"sort_rank":380,"kind_detail":"primary","kind":"major_road","source":"openstreetmap.org","min_zoom":8.0,"bus_shield_text":"530","ref":"Ma-6030"},"arcs":[[153],[154],[155],[156],[157],[158]]},{"type":"MultiLineString","properties":{"source":"openstreetmap.org","kind":"major_road","sort_rank":380,"kind_detail":"primary","ref":"MA-13a","min_zoom":8.0},"arcs":[[159],[160],[161]]},{"type":"LineString","properties":{"bus_network":null,"sort_rank":380,"kind_detail":"primary","kind":"major_road","source":"openstreetmap.org","min_zoom":8.0,"bus_shield_text":"01","ref":"Me-1"},"arcs":[162]},{"type":"LineString","properties":{"kind":"major_road","sort_rank":380,"kind_detail":"primary","is_bicycle_related":true,"cycleway":"yes","source":"openstreetmap.org","min_zoom":8.0,"ref":"Ma-2200","id":491207468},"arcs":[163]},{"type":"LineString","properties":{"source":"openstreetmap.org","kind":"ferry","name":"Barcelona - Alc\u00fadia","sort_rank":355,"min_zoom":8.0,"name:es":"Barcelona - Alcudia"},"arcs":[164]},{"type":"LineString","properties":{"source":"openstreetmap.org","kind":"major_road","sort_rank":380,"kind_detail":"primary","ref":"Ma-3220","min_zoom":8.0,"id":104484656},"arcs":[165]},{"type":"LineString","properties":{"source":"openstreetmap.org","kind":"major_road","sort_rank":380,"kind_detail":"primary","ref":"Ma-3410","min_zoom":8.0,"id":441624049},"arcs":[166]},{"type":"LineString","properties":{"kind":"major_road","sort_rank":380,"kind_detail":"primary","is_bicycle_related":true,"cycleway":"lane","source":"openstreetmap.org","min_zoom":8.0,"ref":"Ma-2200","id":491165153},"arcs":[167]},{"type":"LineString","properties":{"kind":"major_road","sort_rank":380,"landuse_kind":"nature_reserve","source":"openstreetmap.org","min_zoom":8.0,"kind_detail":"primary","ref":"Ma-3410","id":441624049},"arcs":[168]},{"type":"MultiLineString","properties":{"bus_network":"Transports p\u00fablics de Mallorca","sort_rank":380,"kind_detail":"primary","kind":"major_road","source":"openstreetmap.org","min_zoom":8.0,"bus_shield_text":"L481","ref":"Ma-15"},"arcs":[[169],[170],[171]]},{"type":"MultiLineString","properties":{"bus_network":"Transports p\u00fablics de Mallorca","sort_rank":380,"kind_detail":"primary","kind":"major_road","source":"openstreetmap.org","min_zoom":8.0,"bus_shield_text":"340","ref":"Ma-3242"},"arcs":[[172],[173],[174]]},{"type":"MultiLineString","properties":{"bus_network":"Transports p\u00fablics de Mallorca","sort_rank":380,"kind_detail":"primary","kind":"major_road","source":"openstreetmap.org","min_zoom":8.0,"bus_shield_text":"L472","ref":"Ma-15"},"arcs":[[175],[176]]},{"type":"LineString","properties":{"bus_network":"Transports p\u00fablics de Mallorca","sort_rank":380,"kind_detail":"primary","kind":"major_road","source":"openstreetmap.org","min_zoom":8.0,"bus_shield_text":"406a","ref":"Ma-3132"},"arcs":[177]},{"type":"MultiLineString","properties":{"bus_network":"Transports p\u00fablics de Mallorca","sort_rank":380,"kind_detail":"primary","kind":"major_road","source":"openstreetmap.org","min_zoom":8.0,"bus_shield_text":"L481","ref":"Ma-12"},"arcs":[[178],[179],[180]]},{"type":"MultiLineString","properties":{"bus_network":"Transports p\u00fablics de Mallorca","sort_rank":381,"kind_detail":"trunk","kind":"major_road","source":"openstreetmap.org","min_zoom":8.0,"bus_shield_text":"411","ref":"Ma-15"},"arcs":[[181],[182],[183],[184],[185],[186],[187],[188],[189],[190],[191],[192],[193],[194],[195],[196],[197],[198],[199],[200],[201],[202]]},{"type":"MultiLineString","properties":{"source":"openstreetmap.org","bus_network":"Transports p\u00fablics de Mallorca","bus_shield_text":"333","sort_rank":380,"kind_detail":"primary","min_zoom":8.0,"kind":"major_road"},"arcs":[[203],[204]]},{"type":"MultiLineString","properties":{"bus_network":"Transports p\u00fablics de Mallorca","sort_rank":380,"kind_detail":"primary","kind":"major_road","source":"openstreetmap.org","min_zoom":8.0,"bus_shield_text":"320","ref":"Ma-13A"},"arcs":[[205],[206]]},{"type":"LineString","properties":{"source":"openstreetmap.org","kind":"major_road","sort_rank":380,"kind_detail":"primary","ref":"Ma-3431","min_zoom":8.0,"id":384143961},"arcs":[207]},{"type":"LineString","properties":{"source":"openstreetmap.org","kind":"major_road","sort_rank":380,"kind_detail":"primary","ref":"Ma-3120","min_zoom":8.0},"arcs":[208]},{"type":"MultiLineString","properties":{"source":"openstreetmap.org","bus_network":"Transports p\u00fablics de Mallorca","bus_shield_text":"432","sort_rank":380,"kind_detail":"primary","min_zoom":8.0,"kind":"major_road"},"arcs":[[209],[210]]},{"type":"MultiLineString","properties":{"sort_rank":355,"source":"openstreetmap.org","min_zoom":8.0,"kind":"ferry"},"arcs":[[211],[212]]},{"type":"LineString","properties":{"kind":"major_road","sort_rank":380,"kind_detail":"primary","bus_network":"Transports p\u00fablics de Mallorca","source":"openstreetmap.org","min_zoom":8.0,"bus_shield_text":"421","id":4346991},"arcs":[213]},{"type":"MultiLineString","properties":{"bus_network":"Transports p\u00fablics de Mallorca","sort_rank":380,"kind_detail":"primary","kind":"major_road","source":"openstreetmap.org","min_zoom":8.0,"bus_shield_text":"A32","ref":"Ma-12","name:es":"Carretera de Art\u00e1"},"arcs":[[214],[215],[216],[217]]},{"type":"LineString","properties":{"source":"openstreetmap.org","kind":"major_road","sort_rank":380,"kind_detail":"primary","ref":"Ma-3020","min_zoom":8.0,"id":51556659},"arcs":[218]},{"type":"MultiLineString","properties":{"bus_network":"Transports p\u00fablics de Mallorca","sort_rank":380,"kind_detail":"primary","kind":"major_road","source":"openstreetmap.org","min_zoom":8.0,"bus_shield_text":"A32","ref":"MA-13"},"arcs":[[219],[220],[221]]},{"type":"LineString","properties":{"kind":"major_road","sort_rank":380,"kind_detail":"primary","bus_network":"Transports p\u00fablics de Mallorca","source":"openstreetmap.org","min_zoom":8.0,"bus_shield_text":"330","ref":"Ma-2110","id":83634001},"arcs":[222]},{"type":"MultiLineString","properties":{"bus_network":"Transports p\u00fablics de Mallorca","sort_rank":380,"kind_detail":"primary","kind":"major_road","source":"openstreetmap.org","min_zoom":8.0,"bus_shield_text":"390","ref":"Ma-3440"},"arcs":[[223],[224],[225],[226],[227],[228],[229],[230],[231]]},{"type":"MultiLineString","properties":{"source":"openstreetmap.org","kind":"major_road","sort_rank":380,"kind_detail":"primary","ref":"Ma-3011","min_zoom":8.0},"arcs":[[232],[233]]},{"type":"MultiLineString","properties":{"source":"openstreetmap.org","kind":"major_road","sort_rank":380,"kind_detail":"primary","ref":"Ma-3210","min_zoom":8.0},"arcs":[[234],[235],[236],[237],[238],[239],[240],[241]]},{"type":"MultiLineString","properties":{"bus_network":"Transports p\u00fablics de Mallorca","sort_rank":380,"kind_detail":"primary","kind":"major_road","source":"openstreetmap.org","min_zoom":8.0,"bus_shield_text":"A32","ref":"Ma-3240"},"arcs":[[242],[243],[244]]},{"type":"LineString","properties":{"kind":"major_road","sort_rank":380,"kind_detail":"primary","bus_network":"Transports p\u00fablics de Mallorca","source":"openstreetmap.org","min_zoom":8.0,"bus_shield_text":"406b","ref":"Ma-3232","id":30921389},"arcs":[245]},{"type":"LineString","properties":{"source":"openstreetmap.org","kind":"major_road","sort_rank":380,"kind_detail":"primary","ref":"Ma-3132","min_zoom":8.0},"arcs":[246]},{"type":"MultiLineString","properties":{"source":"openstreetmap.org","kind":"major_road","sort_rank":380,"kind_detail":"primary","ref":"Ma-4023","min_zoom":8.0},"arcs":[[247],[248],[249],[250],[251],[252],[253],[254],[255],[256],[257],[258],[259],[260],[261],[262],[263],[264],[265],[266],[267],[268],[269],[270],[271]]},{"type":"LineString","properties":{"source":"openstreetmap.org","bus_network":"Transports p\u00fablics de Mallorca","bus_shield_text":"390","sort_rank":380,"kind_detail":"primary","min_zoom":8.0,"kind":"major_road"},"arcs":[272]},{"type":"LineString","properties":{"kind":"ferry","name":"Cabrera - Col\u00f2nia de Sant Jordi","sort_rank":355,"landuse_kind":"nature_reserve","source":"openstreetmap.org","min_zoom":8.0,"id":-4140288,"osm_relation":true},"arcs":[273]},{"type":"MultiLineString","properties":{"bus_network":"Transports p\u00fablics de Mallorca","sort_rank":380,"kind_detail":"primary","kind":"major_road","source":"openstreetmap.org","min_zoom":8.0,"bus_shield_text":"310","ref":"Ma-3020"},"arcs":[[274],[275],[276],[277]]},{"type":"LineString","properties":{"source":"openstreetmap.org","kind":"major_road","sort_rank":380,"kind_detail":"primary","ref":"Ma 13A","min_zoom":8.0},"arcs":[278]},{"type":"LineString","properties":{"source":"openstreetmap.org","kind":"highway","sort_rank":383,"kind_detail":"motorway","ref":"Ma-13","min_zoom":8.0},"arcs":[279]},{"type":"LineString","properties":{"source":"openstreetmap.org","kind":"ferry","name":"Cabrera - Col\u00f2nia de Sant Jordi","sort_rank":355,"min_zoom":8.0,"osm_relation":true,"id":-4140288},"arcs":[280]},{"type":"MultiLineString","properties":{"bus_network":"Transports p\u00fablics de Mallorca","sort_rank":380,"kind_detail":"primary","kind":"major_road","source":"openstreetmap.org","min_zoom":8.0,"bus_shield_text":"432","ref":"Ma-4030"},"arcs":[[281],[282],[283]]},{"type":"LineString","properties":{"kind":"major_road","sort_rank":380,"kind_detail":"primary","bus_network":"Transports p\u00fablics de Mallorca","source":"openstreetmap.org","min_zoom":8.0,"bus_shield_text":"330","ref":"Ma-13A","id":351494697},"arcs":[284]},{"type":"MultiLineString","properties":{"source":"openstreetmap.org","kind":"major_road","sort_rank":380,"kind_detail":"primary","ref":"Ma-5030","min_zoom":8.0},"arcs":[[285],[286]]},{"type":"LineString","properties":{"kind":"major_road","sort_rank":380,"kind_detail":"primary","bus_network":"Transports p\u00fablics de Mallorca","source":"openstreetmap.org","min_zoom":8.0,"bus_shield_text":"390","ref":"Ma-3340","id":239287580},"arcs":[287]},{"type":"LineString","properties":{"bus_network":"Transports p\u00fablics de Mallorca","sort_rank":380,"kind_detail":"primary","kind":"major_road","source":"openstreetmap.org","min_zoom":8.0,"bus_shield_text":"340","ref":"Ma-3421"},"arcs":[288]},{"type":"MultiLineString","properties":{"source":"openstreetmap.org","kind":"major_road","sort_rank":380,"kind_detail":"primary","ref":"Ma-13","min_zoom":8.0},"arcs":[[289],[290],[291]]},{"type":"MultiLineString","properties":{"bus_network":"Transports p\u00fablics de Mallorca","sort_rank":380,"kind_detail":"primary","is_bicycle_related":true,"kind":"major_road","cycleway":"lane","source":"openstreetmap.org","min_zoom":8.0,"bus_shield_text":"A32","ref":"Ma-12"},"arcs":[[292],[293],[294],[295]]},{"type":"MultiLineString","properties":{"bus_network":"Transports P\u00fablics de Mallorca","sort_rank":380,"kind_detail":"primary","kind":"major_road","source":"openstreetmap.org","min_zoom":8.0,"bus_shield_text":"L503","ref":"Ma-19"},"arcs":[[296],[297],[298],[299],[300],[301]]},{"type":"MultiLineString","properties":{"source":"openstreetmap.org","kind":"major_road","landuse_kind":"nature_reserve","sort_rank":380,"kind_detail":"primary","ref":"Ma-3431","min_zoom":8.0},"arcs":[[302],[303]]},{"type":"LineString","properties":{"bus_network":"Transports p\u00fablics de Mallorca","sort_rank":380,"kind_detail":"primary","kind":"major_road","source":"openstreetmap.org","min_zoom":8.0,"bus_shield_text":"340","ref":"Ma-2200A"},"arcs":[304]},{"type":"MultiLineString","properties":{"sort_rank":380,"kind_detail":"primary","min_zoom":8.0,"kind":"major_road","source":"openstreetmap.org"},"arcs":[[305],[306],[307],[308],[309],[310],[311],[312],[313],[314],[315],[316],[317],[318],[319],[320],[321],[322],[323],[324],[325],[326],[327],[328],[329],[330],[331],[332],[333],[334],[335],[336],[337],[338],[339]]},{"type":"MultiLineString","properties":{"bus_network":"Transports p\u00fablics de Mallorca","sort_rank":380,"kind_detail":"primary","kind":"major_road","source":"openstreetmap.org","min_zoom":8.0,"bus_shield_text":"L473","ref":"Ma-15"},"arcs":[[340],[341],[342],[343],[344],[345],[346],[347],[348],[349],[350],[351],[352]]},{"type":"MultiLineString","properties":{"source":"openstreetmap.org","kind":"major_road","sort_rank":380,"kind_detail":"primary","ref":"Ma-12","min_zoom":8.0},"arcs":[[353],[354],[355],[356],[357],[358],[359],[360],[361],[362],[363],[364],[365],[366],[367],[368],[369],[370],[371],[372],[373],[374]]},{"type":"LineString","properties":{"source":"openstreetmap.org","kind":"major_road","sort_rank":380,"kind_detail":"primary","ref":"Ma-3232","min_zoom":8.0,"id":494710189},"arcs":[375]},{"type":"LineString","properties":{"source":"openstreetmap.org","kind":"ferry","name":"Cabrera - Col\u00f2nia de Sant Jordi","sort_rank":355,"landuse_kind":"nature_reserve","min_zoom":8.0,"id":44730344},"arcs":[376]},{"type":"LineString","properties":{"kind":"major_road","sort_rank":380,"kind_detail":"primary","bus_network":"Transports p\u00fablics de Mallorca","source":"openstreetmap.org","min_zoom":8.0,"bus_shield_text":"310","ref":"Ma-3011","id":488744814},"arcs":[377]},{"type":"MultiLineString","properties":{"bus_network":"Transports p\u00fablics de Mallorca","sort_rank":380,"kind_detail":"primary","kind":"major_road","source":"openstreetmap.org","min_zoom":8.0,"bus_shield_text":"446","ref":"Ma-4040"},"arcs":[[378],[379]]},{"type":"MultiLineString","properties":{"source":"openstreetmap.org","kind":"major_road","sort_rank":380,"kind_detail":"primary","ref":"Ma-5120","min_zoom":8.0},"arcs":[[380],[381],[382],[383],[384],[385],[386],[387],[388],[389],[390],[391],[392],[393],[394]]},{"type":"MultiLineString","properties":{"bus_network":"Transports p\u00fablics de Mallorca","sort_rank":380,"kind_detail":"primary","kind":"major_road","source":"openstreetmap.org","min_zoom":8.0,"bus_shield_text":"320","ref":"Ma-2050"},"arcs":[[395],[396],[397]]},{"type":"MultiLineString","properties":{"bus_network":"Transports p\u00fablics de Mallorca","sort_rank":380,"kind_detail":"primary","is_bicycle_related":true,"kind":"major_road","cycleway":"lane","source":"openstreetmap.org","min_zoom":8.0,"bus_shield_text":"340","ref":"Ma-2200"},"arcs":[[398],[399],[400]]},{"type":"LineString","properties":{"bus_network":"Transports p\u00fablics de Mallorca","sort_rank":380,"kind_detail":"primary","kind":"major_road","source":"openstreetmap.org","min_zoom":8.0,"bus_shield_text":"L473","ref":"Ma-4040"},"arcs":[401]},{"type":"MultiLineString","properties":{"bus_network":"Transports p\u00fablics de Mallorca","sort_rank":380,"kind_detail":"primary","kind":"major_road","source":"openstreetmap.org","min_zoom":8.0,"bus_shield_text":"A32","ref":"Ma-13"},"arcs":[[402],[403],[404],[405],[406],[407]]},{"type":"LineString","properties":{"kind":"major_road","sort_rank":380,"kind_detail":"primary","bus_network":"Transports p\u00fablics de Mallorca","source":"openstreetmap.org","min_zoom":8.0,"bus_shield_text":"447","ref":"Ma-12","id":493510735},"arcs":[408]},{"type":"MultiLineString","properties":{"source":"openstreetmap.org","bus_network":"Transports p\u00fablics de Mallorca","bus_shield_text":"352","sort_rank":380,"kind_detail":"primary","min_zoom":8.0,"kind":"major_road"},"arcs":[[409],[410],[411],[412],[413]]},{"type":"MultiLineString","properties":{"bus_network":"TIB","sort_rank":380,"kind_detail":"primary","kind":"major_road","source":"openstreetmap.org","min_zoom":8.0,"bus_shield_text":"500","ref":"Ma-19"},"arcs":[[414],[415],[416],[417],[418],[419],[420],[421],[422],[423],[424],[425],[426],[427],[428],[429],[430]]},{"type":"LineString","properties":{"source":"openstreetmap.org","kind":"ferry","name":"Cabrera - Col\u00f2nia de Sant Jordi","sort_rank":355,"min_zoom":8.0,"id":44730344},"arcs":[431]},{"type":"MultiLineString","properties":{"source":"openstreetmap.org","kind":"major_road","sort_rank":380,"kind_detail":"primary","ref":"Ma-13A","min_zoom":8.0},"arcs":[[432],[433],[434],[435],[436],[437],[438],[439],[440],[441],[442],[443]]},{"type":"MultiLineString","properties":{"source":"openstreetmap.org","kind":"major_road","sort_rank":380,"kind_detail":"primary","ref":"Ma-2200","min_zoom":8.0},"arcs":[[444],[445],[446],[447],[448],[449],[450],[451],[452],[453],[454],[455],[456]]},{"type":"LineString","properties":{"source":"openstreetmap.org","kind":"major_road","sort_rank":380,"kind_detail":"primary","ref":"Ma-3400","min_zoom":8.0,"id":493467655},"arcs":[457]},{"type":"LineString","properties":{"source":"openstreetmap.org","kind":"major_road","sort_rank":380,"kind_detail":"primary","ref":"Ma-2200a","min_zoom":8.0},"arcs":[458]},{"type":"MultiLineString","properties":{"source":"openstreetmap.org","kind":"major_road","sort_rank":380,"kind_detail":"primary","ref":"Ma-19","min_zoom":8.0},"arcs":[[459],[460],[461],[462],[463],[464]]},{"type":"MultiLineString","properties":{"source":"openstreetmap.org","kind":"major_road","sort_rank":380,"kind_detail":"primary","ref":"Ma-3240","min_zoom":8.0},"arcs":[[465],[466],[467],[468]]},{"type":"MultiLineString","properties":{"bus_network":"Transports p\u00fablics de Mallorca","sort_rank":380,"kind_detail":"primary","kind":"major_road","source":"openstreetmap.org","min_zoom":8.0,"bus_shield_text":"447","ref":"Ma-3340"},"arcs":[[469],[470],[471],[472]]},{"type":"MultiLineString","properties":{"bus_network":"Transports p\u00fablics de Mallorca","sort_rank":380,"kind_detail":"primary","kind":"major_road","source":"openstreetmap.org","min_zoom":8.0,"bus_shield_text":"447","ref":"Ma-4023"},"arcs":[[473],[474]]},{"type":"MultiLineString","properties":{"bus_network":"Transports p\u00fablics de Mallorca","sort_rank":380,"kind_detail":"primary","kind":"major_road","source":"openstreetmap.org","min_zoom":8.0,"bus_shield_text":"L472","ref":"Ma-4040"},"arcs":[[475],[476],[477]]},{"type":"LineString","properties":{"bus_network":"Transports p\u00fablics de Mallorca","sort_rank":380,"kind_detail":"primary","kind":"major_road","source":"openstreetmap.org","min_zoom":8.0,"bus_shield_text":"390","landuse_kind":"nature_reserve","ref":"Ma-3431"},"arcs":[478]},{"type":"MultiLineString","properties":{"source":"openstreetmap.org","kind":"major_road","sort_rank":380,"kind_detail":"primary","ref":"Ma-13a","min_zoom":8.0},"arcs":[[479],[480],[481],[482],[483],[484],[485]]},{"type":"MultiLineString","properties":{"source":"openstreetmap.org","kind":"major_road","sort_rank":380,"kind_detail":"primary","ref":"Ma-5040","min_zoom":8.0},"arcs":[[486],[487],[488]]},{"type":"MultiLineString","properties":{"bus_network":"Transports p\u00fablics de Mallorca","sort_rank":380,"kind_detail":"primary","kind":"major_road","source":"openstreetmap.org","min_zoom":8.0,"bus_shield_text":"425","ref":"Ma-14"},"arcs":[[489],[490],[491],[492],[493],[494],[495],[496],[497],[498],[499]]},{"type":"LineString","properties":{"kind":"major_road","sort_rank":380,"kind_detail":"primary","bus_network":"Transports p\u00fablics de Mallorca","source":"openstreetmap.org","min_zoom":8.0,"bus_shield_text":"354","ref":"Ma-2200","id":11301308},"arcs":[500]},{"type":"MultiLineString","properties":{"source":"openstreetmap.org","kind":"major_road","sort_rank":380,"kind_detail":"primary","ref":"Ma-12","min_zoom":8.0,"name:es":"Carretera de Art\u00e1"},"arcs":[[501],[502]]},{"type":"LineString","properties":{"kind":"major_road","sort_rank":380,"kind_detail":"primary","bus_network":"Transports p\u00fablics de Mallorca","source":"openstreetmap.org","min_zoom":8.0,"bus_shield_text":"395","ref":"Ma-3400","id":493488647},"arcs":[503]},{"type":"MultiLineString","properties":{"source":"openstreetmap.org","bus_network":"TIB","bus_shield_text":"500","sort_rank":380,"kind_detail":"primary","min_zoom":8.0,"kind":"major_road"},"arcs":[[504],[505],[506]]},{"type":"MultiLineString","properties":{"bus_network":"Transports p\u00fablics de Mallorca","sort_rank":380,"kind_detail":"primary","kind":"major_road","source":"openstreetmap.org","min_zoom":8.0,"bus_shield_text":"415","ref":"Ma-14"},"arcs":[[507],[508],[509]]},{"type":"MultiLineString","properties":{"source":"openstreetmap.org","bus_network":null,"bus_shield_text":"530","sort_rank":380,"kind_detail":"primary","min_zoom":8.0,"kind":"major_road"},"arcs":[[510],[511]]},{"type":"MultiLineString","properties":{"bus_network":"Transports p\u00fablics de Mallorca","sort_rank":380,"kind_detail":"primary","kind":"major_road","source":"openstreetmap.org","min_zoom":8.0,"bus_shield_text":"441","ref":"Ma-15"},"arcs":[[512],[513],[514]]},{"type":"MultiLineString","properties":{"source":"openstreetmap.org","kind":"major_road","sort_rank":380,"kind_detail":"primary","ref":"Ma-6030","min_zoom":8.0},"arcs":[[515],[516],[517],[518],[519],[520],[521],[522],[523],[524],[525]]},{"type":"MultiLineString","properties":{"bus_network":"Transports p\u00fablics de Mallorca","sort_rank":380,"kind_detail":"primary","kind":"major_road","source":"openstreetmap.org","min_zoom":8.0,"bus_shield_text":"400","ref":"Ma-3011"},"arcs":[[526],[527]]},{"type":"MultiLineString","properties":{"bus_network":"Transports p\u00fablics de Mallorca","sort_rank":380,"kind_detail":"primary","kind":"major_road","source":"openstreetmap.org","min_zoom":8.0,"bus_shield_text":"412","ref":"Ma-4020"},"arcs":[[528],[529],[530],[531],[532],[533],[534],[535],[536],[537],[538],[539],[540],[541]]},{"type":"MultiLineString","properties":{"bus_network":"Transports p\u00fablics de Mallorca","sort_rank":380,"kind_detail":"primary","kind":"major_road","source":"openstreetmap.org","min_zoom":8.0,"bus_shield_text":"A32","ref":"Ma-12"},"arcs":[[542],[543],[544],[545],[546],[547],[548]]},{"type":"MultiLineString","properties":{"bus_network":"Transports p\u00fablics de Mallorca","sort_rank":380,"kind_detail":"primary","kind":"major_road","source":"openstreetmap.org","min_zoom":8.0,"bus_shield_text":"447","ref":"Ma-3320"},"arcs":[[549],[550],[551]]},{"type":"MultiLineString","properties":{"bus_network":"Transports p\u00fablics de Mallorca","sort_rank":380,"kind_detail":"primary","kind":"major_road","source":"openstreetmap.org","min_zoom":8.0,"bus_shield_text":"333H","ref":"Ma-3240"},"arcs":[[552],[553],[554],[555]]},{"type":"MultiLineString","properties":{"bus_network":"Transports p\u00fablics de Mallorca","sort_rank":380,"kind_detail":"primary","kind":"major_road","source":"openstreetmap.org","min_zoom":8.0,"bus_shield_text":"333H","ref":"Ma-3242"},"arcs":[[556],[557],[558],[559]]},{"type":"MultiLineString","properties":{"bus_network":"Transports p\u00fablics de Mallorca","sort_rank":380,"kind_detail":"primary","kind":"major_road","source":"openstreetmap.org","min_zoom":8.0,"bus_shield_text":"447","ref":"Ma-3330"},"arcs":[[560],[561]]},{"type":"LineString","properties":{"kind":"major_road","sort_rank":380,"kind_detail":"primary","bus_network":"Transports p\u00fablics de Mallorca","source":"openstreetmap.org","min_zoom":8.0,"bus_shield_text":"340","ref":"Ma-13A","id":388996097},"arcs":[562]},{"type":"MultiLineString","properties":{"bus_network":"Transports p\u00fablics de Mallorca","sort_rank":380,"kind_detail":"primary","kind":"major_road","source":"openstreetmap.org","min_zoom":8.0,"bus_shield_text":"403","ref":"Ma-3510"},"arcs":[[563],[564]]},{"type":"LineString","properties":{"kind":"major_road","sort_rank":380,"kind_detail":"primary","bus_network":"Transports p\u00fablics de Mallorca","source":"openstreetmap.org","min_zoom":8.0,"bus_shield_text":"351","id":491170276},"arcs":[565]},{"type":"MultiLineString","properties":{"bus_network":"Transports p\u00fablics de Mallorca","sort_rank":380,"kind_detail":"primary","kind":"major_road","source":"openstreetmap.org","min_zoom":8.0,"bus_shield_text":"340","ref":"Ma-2200"},"arcs":[[566],[567],[568],[569],[570],[571],[572],[573],[574],[575],[576]]},{"type":"LineString","properties":{"bus_network":"Transports p\u00fablics de Mallorca","sort_rank":380,"kind_detail":"primary","kind":"major_road","source":"openstreetmap.org","min_zoom":8.0,"bus_shield_text":"340","ref":"Ma-3400"},"arcs":[577]},{"type":"LineString","properties":{"kind":"major_road","sort_rank":380,"kind_detail":"primary","bus_network":"Transports p\u00fablics de Mallorca","source":"openstreetmap.org","min_zoom":8.0,"bus_shield_text":"330","ref":"Ma 13A","id":215126750},"arcs":[578]},{"type":"MultiLineString","properties":{"bus_network":"Transports p\u00fablics de Mallorca","sort_rank":380,"kind_detail":"primary","kind":"major_road","source":"openstreetmap.org","min_zoom":8.0,"bus_shield_text":"447","ref":"Ma-4040"},"arcs":[[579],[580],[581]]},{"type":"MultiLineString","properties":{"source":"openstreetmap.org","kind":"major_road","sort_rank":380,"kind_detail":"primary","ref":"Ma-3330","min_zoom":8.0},"arcs":[[582],[583]]},{"type":"LineString","properties":{"bus_network":"Transports p\u00fablics de Mallorca","sort_rank":380,"kind_detail":"primary","kind":"major_road","source":"openstreetmap.org","min_zoom":8.0,"bus_shield_text":"333","ref":"Ma-13a"},"arcs":[584]},{"type":"MultiLineString","properties":{"bus_network":"Transports p\u00fablics de Mallorca","sort_rank":380,"kind_detail":"primary","kind":"major_road","source":"openstreetmap.org","min_zoom":8.0,"bus_shield_text":"390","ref":"Ma-3400"},"arcs":[[585],[586],[587],[588]]},{"type":"MultiLineString","properties":{"source":"openstreetmap.org","kind":"major_road","sort_rank":380,"kind_detail":"primary","ref":"Ma-2050","min_zoom":8.0},"arcs":[[589],[590]]},{"type":"LineString","properties":{"bus_network":"Transports p\u00fablics de Mallorca","sort_rank":380,"kind_detail":"primary","kind":"major_road","source":"openstreetmap.org","min_zoom":8.0,"bus_shield_text":"421","ref":"Ma-5030"},"arcs":[591]},{"type":"MultiLineString","properties":{"bus_network":"Transports p\u00fablics de Mallorca","sort_rank":380,"kind_detail":"primary","kind":"major_road","source":"openstreetmap.org","min_zoom":8.0,"bus_shield_text":"356A","ref":"Ma-3460"},"arcs":[[592],[593]]},{"type":"MultiLineString","properties":{"source":"openstreetmap.org","kind":"highway","sort_rank":383,"kind_detail":"motorway","ref":"Ma-19","min_zoom":8.0},"arcs":[[594],[595]]},{"type":"MultiLineString","properties":{"bus_network":"Transports p\u00fablics de Mallorca","sort_rank":380,"kind_detail":"primary","kind":"major_road","source":"openstreetmap.org","min_zoom":8.0,"bus_shield_text":"412","ref":"Ma-4023"},"arcs":[[596],[597],[598],[599],[600],[601]]},{"type":"MultiLineString","properties":{"source":"openstreetmap.org","kind":"major_road","sort_rank":380,"kind_detail":"primary","ref":"Ma-14","min_zoom":8.0},"arcs":[[602],[603]]},{"type":"MultiLineString","properties":{"bus_network":"Transports p\u00fablics de Mallorca","sort_rank":380,"kind_detail":"primary","kind":"major_road","source":"openstreetmap.org","min_zoom":8.0,"bus_shield_text":"392","ref":"Ma-12"},"arcs":[[604],[605],[606],[607],[608]]},{"type":"MultiLineString","properties":{"bus_network":"Transports p\u00fablics de Mallorca","sort_rank":380,"kind_detail":"primary","kind":"major_road","source":"openstreetmap.org","min_zoom":8.0,"bus_shield_text":"421","ref":"Ma-3210"},"arcs":[[609],[610],[611],[612]]},{"type":"MultiLineString","properties":{"bus_network":"Transports p\u00fablics de Mallorca","sort_rank":380,"kind_detail":"primary","kind":"major_road","source":"openstreetmap.org","min_zoom":8.0,"bus_shield_text":"351","ref":"Ma-12"},"arcs":[[613],[614]]},{"type":"LineString","properties":{"source":"openstreetmap.org","kind":"ferry","name":"Palma- Ma\u00f3","sort_rank":355,"min_zoom":8.0,"name:es":"Palma - Mah\u00f3n"},"arcs":[615]},{"type":"MultiLineString","properties":{"bus_network":"Transports p\u00fablics de Mallorca","sort_rank":380,"kind_detail":"primary","kind":"major_road","source":"openstreetmap.org","min_zoom":8.0,"bus_shield_text":"352","ref":"Ma-2220"},"arcs":[[616],[617],[618],[619]]},{"type":"MultiLineString","properties":{"bus_network":"Transports p\u00fablics de Mallorca","sort_rank":380,"kind_detail":"primary","kind":"major_road","source":"openstreetmap.org","min_zoom":8.0,"bus_shield_text":"A32","landuse_kind":"nature_reserve","ref":"Ma-12"},"arcs":[[620],[621],[622],[623],[624],[625]]},{"type":"LineString","properties":{"bus_network":"Transports p\u00fablics de Mallorca","sort_rank":380,"kind_detail":"primary","kind":"major_road","source":"openstreetmap.org","min_zoom":8.0,"bus_shield_text":"352","ref":"Ma-12"},"arcs":[626]},{"type":"MultiLineString","properties":{"sort_rank":355,"source":"openstreetmap.org","min_zoom":8.0,"name":"Starfish boat trip","kind":"ferry"},"arcs":[[627],[628],[629],[630],[631],[632],[633],[634],[635],[636]]},{"type":"MultiLineString","properties":{"bus_network":"Transports p\u00fablics de Mallorca","sort_rank":380,"kind_detail":"primary","kind":"major_road","source":"openstreetmap.org","min_zoom":8.0,"bus_shield_text":"406b","ref":"Ma-3220"},"arcs":[[637],[638],[639],[640],[641]]},{"type":"MultiLineString","properties":{"bus_network":"Transports p\u00fablics de Mallorca","sort_rank":380,"kind_detail":"primary","kind":"major_road","source":"openstreetmap.org","min_zoom":8.0,"bus_shield_text":"L471","ref":"Ma-15"},"arcs":[[642],[643],[644],[645],[646],[647],[648],[649],[650],[651],[652]]},{"type":"LineString","properties":{"kind":"major_road","sort_rank":380,"kind_detail":"primary","bus_network":"Transports p\u00fablics de Mallorca","source":"openstreetmap.org","min_zoom":8.0,"bus_shield_text":"421","ref":"Ma-15","id":494897281},"arcs":[653]},{"type":"LineString","properties":{"bus_network":"Transports p\u00fablics de Mallorca","sort_rank":380,"kind_detail":"primary","kind":"major_road","source":"openstreetmap.org","min_zoom":8.0,"bus_shield_text":"432","ref":"Ma-15"},"arcs":[654]},{"type":"LineString","properties":{"bus_network":"TIB","sort_rank":380,"kind_detail":"primary","kind":"major_road","source":"openstreetmap.org","min_zoom":8.0,"bus_shield_text":"500","ref":"Ma-6020"},"arcs":[655]},{"type":"LineString","properties":{"bus_network":"Transports p\u00fablics de Mallorca","sort_rank":380,"kind_detail":"primary","kind":"major_road","source":"openstreetmap.org","min_zoom":8.0,"bus_shield_text":"340","ref":"Ma-2200a"},"arcs":[656]},{"type":"MultiLineString","properties":{"source":"openstreetmap.org","kind":"major_road","landuse_kind":"nature_reserve","sort_rank":380,"kind_detail":"primary","ref":"Ma-12","min_zoom":8.0},"arcs":[[657],[658],[659],[660]]},{"type":"MultiLineString","properties":{"source":"openstreetmap.org","kind":"major_road","sort_rank":380,"kind_detail":"primary","ref":"Ma-3460","min_zoom":8.0},"arcs":[[661],[662],[663],[664],[665]]},{"type":"LineString","properties":{"bus_network":"Transports p\u00fablics de Mallorca","sort_rank":380,"kind_detail":"primary","kind":"major_road","source":"openstreetmap.org","min_zoom":8.0,"bus_shield_text":"340","ref":"Ma-3440"},"arcs":[666]},{"type":"MultiLineString","properties":{"source":"openstreetmap.org","bus_network":"Transports p\u00fablics de Mallorca","bus_shield_text":"A32","sort_rank":380,"kind_detail":"primary","min_zoom":8.0,"kind":"major_road"},"arcs":[[667],[668],[669],[670],[671],[672],[673]]},{"type":"LineString","properties":{"bus_network":"Transports p\u00fablics de Mallorca","sort_rank":380,"kind_detail":"primary","kind":"major_road","source":"openstreetmap.org","min_zoom":8.0,"bus_shield_text":"390","ref":"Ma-3431"},"arcs":[674]},{"type":"MultiLineString","properties":{"bus_network":"Transports p\u00fablics de Mallorca","sort_rank":380,"kind_detail":"primary","kind":"major_road","source":"openstreetmap.org","min_zoom":8.0,"bus_shield_text":"406a","ref":"Ma-3232"},"arcs":[[675],[676],[677]]},{"type":"MultiLineString","properties":{"source":"openstreetmap.org","bus_network":"Transports p\u00fablics de Mallorca","bus_shield_text":"412","sort_rank":380,"kind_detail":"primary","min_zoom":8.0,"kind":"major_road"},"arcs":[[678],[679],[680],[681],[682],[683],[684],[685]]},{"type":"LineString","properties":{"bus_network":"Transports p\u00fablics de Mallorca","sort_rank":380,"kind_detail":"primary","is_bicycle_related":true,"kind":"major_road","cycleway":"yes","source":"openstreetmap.org","min_zoom":8.0,"bus_shield_text":"340","ref":"Ma-2200"},"arcs":[686]},{"type":"MultiLineString","properties":{"bus_network":"Transports p\u00fablics de Mallorca","sort_rank":380,"kind_detail":"primary","kind":"major_road","source":"openstreetmap.org","min_zoom":8.0,"bus_shield_text":"403","ref":"Ma-3340"},"arcs":[[687],[688],[689],[690]]},{"type":"LineString","properties":{"kind":"major_road","sort_rank":380,"kind_detail":"primary","bus_network":"Transports p\u00fablics de Mallorca","source":"openstreetmap.org","min_zoom":8.0,"bus_shield_text":"390","landuse_kind":"nature_reserve","ref":"Ma-3410","id":429070625},"arcs":[691]}]},"earth":{"type":"GeometryCollection","geometries":[{"type":"MultiPolygon","properties":{"sort_rank":10,"source":"naturalearthdata.com","min_zoom":0.0,"kind":"earth","area":5796536397},"arcs":[[[692]],[[693]],[[694]],[[695]]]},{"type":"Point","properties":{"label_placement":true,"name:pt":"Maiorca","name:mr":"\u092e\u093e\u092f\u094b\u0930\u094d\u0915\u093e","name:tr":"Mayorka","name:ar":"\u0627\u0644\u0639\u0631\u0628\u064a\u0629","min_zoom":7.0,"name:it":"Maiorca","name:ko":"\ub9c8\uc694\ub974\uce74 \uc12c","loc_name":"Vila","name:ru":"\u041c\u0430\u043b\u044c\u043e\u0440\u043a\u0430","name:pl":"Majorka","id":-6803636,"name:mk":"\u041c\u0430\u0458\u043e\u0440\u043a\u0430","name:fa":"\u0645\u0627\u06cc\u0648\u0631\u06a9\u0627","area":6112180224,"name:oc":"Malhorca","name:fr":"Majorque","name:zh":"\u99ac\u7565\u5361\u5cf6","alt_name:be":"\u041c\u0430\u0451\u0440\u043a\u0430","name:lv":"Ma\u013corka","name:ja":"\u30de\u30e8\u30eb\u30ab\u5cf6","name:lt":"Maljorka","name:la":"Maiorica","name:sk":"Malorka","name:uk":"\u041c\u0430\u043b\u044c\u043e\u0440\u043a\u0430","name:be":"\u041c\u0430\u043b\u044c\u0451\u0440\u043a\u0430","name:bg":"\u041c\u0430\u0439\u043e\u0440\u043a\u0430","name:sr":"\u041c\u0430\u0458\u043e\u0440\u043a\u0430","osm_relation":true,"name:el":"\u039c\u03b1\u03b3\u03b9\u03cc\u03c1\u03ba\u03b1","kind":"island","name:en":"Majorca","name":"Mallorca","name:is":"Majorka","name:th":"\u0e21\u0e32\u0e08\u0e2d\u0e23\u0e4c\u0e01\u0e32","source":"openstreetmap.org","name:nl":"Majorca"},"coordinates":[221,2983]}]},"landuse":{"type":"GeometryCollection","geometries":[{"type":"Polygon","properties":{"source":"openstreetmap.org","kind":"nature_reserve","area":27744900,"tier":2,"id":23258613,"min_zoom":8.0,"sort_rank":23},"arcs":[[696]]},{"type":"MultiPolygon","properties":{"source":"openstreetmap.org","kind":"nature_reserve","tier":2,"area":67694846,"sort_rank":23,"min_zoom":8.0,"osm_relation":true},"arcs":[[[697]]]},{"type":"Polygon","properties":{"source":"openstreetmap.org","kind":"protected_area","area":23560200,"tier":2,"id":96760773,"min_zoom":8.0,"sort_rank":17},"arcs":[[698]]},{"type":"Polygon","properties":{"kind":"nature_reserve","protect_class":"2","area":140436992,"sort_rank":23,"source":"openstreetmap.org","min_zoom":7.0,"tier":2,"id":55528836},"arcs":[[699]]}]}},"type":"Topology","transform":{"translate":[2.8125,38.8225909762],"scale":[0.0003433228,0.0002654163]},"arcs":[[[0,444],[236,-63],[317,7],[234,80],[209,165],[865,988],[505,823],[198,375],[121,370],[20,223],[1391,-476]],[[0,2036],[48,-26],[44,37],[110,1],[93,-52],[44,45],[88,-9],[90,-91],[-12,-82],[22,-14],[23,21],[36,-28],[13,-58],[70,-58],[23,-53],[67,11],[131,168],[57,15],[26,49],[71,-13],[-5,26],[23,-16],[35,32],[-3,54],[80,11],[-18,2],[5,35],[26,-30],[35,18],[8,22],[-17,-5],[-16,11],[-4,14],[24,-18],[41,36],[10,59],[59,85],[-27,2],[21,44],[12,-52],[14,7],[14,191],[36,104],[65,100],[75,53],[-12,20],[-10,-10],[-3,3],[1,8],[18,5],[0,-13],[7,-3],[82,50],[31,96],[71,11],[-54,47],[35,139],[36,34],[77,-14],[14,84],[44,1],[2,185],[65,38],[-76,25],[25,97],[-83,-12],[-84,72],[-88,17],[-75,79],[-38,-21],[-16,-90],[-222,-116],[-243,114],[-95,80],[-56,111],[9,85],[30,31],[27,-34],[114,38],[50,74],[-30,6],[4,69],[47,28],[-41,13],[-90,-80],[-53,-25],[-28,17],[-73,-43],[-66,66],[-11,102],[28,28]],[[819,4096],[50,-39],[-2,39]],[[512,4096],[-1,-2],[-37,2]],[[375,4096],[-15,-21],[-119,-35],[-59,-64],[-63,-14],[-24,-47],[-95,-12]],[[0,3233],[75,35],[93,101],[95,9],[123,-97],[166,-67],[0,-78],[72,-137],[87,20],[99,-30],[80,12],[47,-99],[148,-101],[53,18]],[[0,3234],[4,4],[4,3],[4,2],[62,24],[5,5],[79,89],[5,4],[1,1],[4,3],[3,1],[3,2],[21,6],[5,1],[4,0],[6,1],[39,0],[7,0],[4,-1],[4,-1],[43,-21],[4,-2],[3,-2],[3,-3],[8,-10],[10,-14],[47,-42],[49,-16],[212,171],[-12,111]],[[0,3233],[73,34],[6,5],[85,94],[41,13],[106,-24],[24,-28],[43,-41],[3,-2],[24,-14]],[[1282,2123],[47,156],[11,-10],[29,-18],[27,210],[92,181],[122,148],[119,109],[-22,59],[10,59],[32,44],[49,18],[39,22],[31,53],[40,105],[-18,47],[9,24],[18,15],[11,19],[-5,31],[-10,28],[-2,31],[17,39],[-101,9],[-165,97],[-83,25],[-42,-21],[-88,-90],[-51,-20],[-200,0],[-84,20],[-94,53],[-76,74],[-34,84],[4,79],[21,29],[92,23],[48,21],[16,11],[18,20],[9,28],[-2,28],[3,26],[29,21],[0,23],[-223,-63],[-103,19],[6,107],[48,0],[7,-4],[4,4],[2708,0],[380,-250],[121,-59],[0,-3787],[-4096,0],[0,2054],[38,-16],[254,-18],[28,4],[46,17],[35,5],[25,-9],[46,-37],[28,-9],[21,-14],[10,-35],[6,-42],[13,-35],[17,-14],[46,-21],[18,-14],[80,-119],[12,-15],[27,10],[27,20],[12,12],[22,37],[112,97],[267,166],[92,99]],[[345,1114],[91,-8],[59,87],[9,102],[-14,73],[-117,-52],[-78,-75],[50,-127]],[[325,4096],[-149,-99],[-85,-41],[-28,-5],[-61,5],[-2,-2],[0,142],[325,0]],[[1579,3624],[-42,-21],[-88,-90],[-51,-20],[-200,0],[-84,20],[-94,53],[-76,74],[-34,84],[4,79],[21,29],[92,23],[48,21],[16,11],[18,20],[9,28],[-2,28],[3,26],[29,21],[0,23],[-223,-63],[-103,19],[6,107]],[[876,4096],[7,-4],[4,4]],[[325,4096],[-149,-99],[-85,-41],[-28,-5],[-61,5],[-2,-2]],[[0,2054],[38,-16],[254,-18],[28,4],[46,17],[35,5],[25,-9],[46,-37],[28,-9],[21,-14],[10,-35],[6,-42],[13,-35],[17,-14],[46,-21],[18,-14],[80,-119],[12,-15],[27,10],[27,20],[12,12],[22,37],[112,97],[267,166],[92,99],[47,156],[11,-10],[29,-18],[27,210],[92,181],[122,148],[119,109],[-22,59],[10,59],[32,44],[49,18],[39,22],[31,53],[40,105],[-18,47],[9,24],[18,15],[11,19],[-5,31],[-10,28],[-2,31],[17,39],[-101,9],[-165,97],[-83,25]],[[3595,4096],[380,-250],[121,-59]],[[504,1295],[-9,-102],[-59,-87],[-91,8],[-50,127],[78,75],[117,52],[14,-73]],[[1586,3035],[-1,-1]],[[1585,3033],[1,2]],[[1592,3038],[-6,-3]],[[1610,3057],[1,0]],[[1610,3058],[1,0]],[[1611,3059]],[[0,1937],[684,-320],[87,1],[3325,1912]],[[910,2020],[-293,254]],[[938,2023],[-14,-1]],[[616,2273],[1,0],[0,1],[-1,0],[0,-1]],[[3399,0],[697,2036]],[[892,3686],[1,-2]],[[782,3838],[1,-1]],[[784,3838],[0,1]],[[288,2802],[0,1]],[[899,2836],[0,1]],[[1090,2828],[-1,-1]],[[1143,2866],[1,-1]],[[1145,2866],[0,1]],[[1225,2868],[0,1]],[[1338,2935],[1,0]],[[1340,2937],[-1,0]],[[1342,2936],[-2,0]],[[1340,2935],[2,1]],[[1342,2936],[54,7]],[[1396,2944]],[[1397,2943]],[[1397,2944],[19,20]],[[1398,2997],[0,-1]],[[1400,2998],[-2,0]],[[1399,2996],[2,-1]],[[1401,2995],[-1,2]],[[1401,2995],[15,-27]],[[1416,2965],[0,-1]],[[1416,2964],[1,1]],[[1416,2968],[0,-1]],[[1417,2967],[-1,1]],[[1553,3264],[1,0]],[[1554,3265]],[[1871,3336],[-11,-10]],[[1873,3337],[-2,-1]],[[1871,3335],[0,1]],[[306,3383],[0,-1]],[[306,3382],[0,1]],[[306,3383],[24,29]],[[369,3438],[2,-2]],[[607,3661],[2,-2]],[[609,3659],[-1,3]],[[609,3659]],[[609,3659],[0,-3]],[[609,3656],[0,3]],[[760,4045],[1,-2]],[[761,4060],[-1,-2]],[[761,4043],[0,2]],[[761,4043],[0,-18]],[[761,4025],[1,-3]],[[762,4023],[-1,2]],[[761,4060],[4,14]],[[761,4058],[0,2]],[[765,4075],[0,-1]],[[765,4074],[1,1]],[[837,3330],[-1,0]],[[836,3330],[1,0]],[[837,3330],[119,241]],[[431,3346],[-1,0]],[[434,3351],[163,66]],[[634,3428],[61,3]],[[1966,4096],[-33,-10],[-892,-318],[-80,17],[-9,29]],[[288,2803],[0,-1]],[[747,2818],[-1,0]],[[899,2837],[0,-1]],[[1089,2827],[2,1]],[[1091,2828],[-1,0]],[[1092,2829],[-1,-1]],[[1091,2828]],[[1091,2828],[1,1]],[[1092,2829],[50,36]],[[1146,2867],[-4,-2]],[[1146,2867],[76,4]],[[1222,2871],[1,-2]],[[1223,2870],[-1,1]],[[1223,2870],[0,-1]],[[1223,2869],[2,-1]],[[1227,2869],[-4,1]],[[1225,2868],[2,1]],[[1227,2869],[111,65]],[[1338,2934],[2,3]],[[1339,2937],[-1,-3]],[[1400,3001],[-2,-4]],[[1398,2996],[2,5]],[[1553,3264],[-76,-96],[-20,-83],[-57,-84]],[[1553,3264],[2,2]],[[1559,3271],[-4,-5]],[[1585,3280],[-1,0]],[[1585,3280]],[[1776,3309],[-191,-29]],[[1776,3309]],[[1776,3309]],[[1777,3310],[1,0]],[[1799,3327],[1,0]],[[1801,3328],[0,1]],[[257,3380],[-80,1]],[[828,3846],[3,-6]],[[831,3840],[3,3]],[[850,3734],[-19,106]],[[831,3843],[1,-1],[0,1],[-1,0]],[[1396,2944],[1,-1]],[[1397,2943],[-1,1]],[[910,3640],[46,-59]],[[951,3585],[5,-5]],[[1004,3522],[-1,-1]],[[838,3102],[-220,-19],[-22,22]],[[3399,0],[697,2036]],[[952,3814],[-1,-21],[58,-21],[56,9],[88,125],[26,190]],[[1155,3397],[4,-5]],[[1159,3392],[-3,4]],[[1159,3392],[44,-74],[115,-11]],[[898,3832],[1,1]],[[961,3825],[2,-1]],[[320,3356],[127,-170]],[[306,3381],[-1,0]],[[305,3381],[1,0]],[[556,3284],[-19,6]],[[557,3283],[1,1]],[[558,3284],[-1,1],[-1,-2],[1,0],[1,1]],[[558,3284]],[[558,3284],[33,24]],[[591,3308],[1,0]],[[592,3309],[-1,-1]],[[1622,3072],[97,131]],[[1719,3203],[1,1]],[[1720,3205],[-1,-2]],[[1721,3205],[0,1]],[[1776,3309],[0,-1]],[[1783,3288]],[[1783,3287]],[[414,2040],[-8,-4]],[[414,2040],[1,0]],[[414,2041],[0,-1]],[[446,2063],[-31,-22]],[[464,2106],[-14,-38]],[[414,2041],[0,-1],[1,1],[-1,0]],[[426,3494]],[[427,3494],[-1,0]],[[426,3494],[0,-1],[1,1]],[[4023,4096],[73,-46]],[[748,4069],[0,1]],[[952,3814],[-1,-21],[58,-21],[56,9],[88,125],[32,190]],[[510,2824]],[[956,3571]],[[766,4077]],[[956,3572],[0,-1]],[[1560,3272],[-1,-1]],[[1560,3272]],[[1560,3273],[0,-1]],[[324,3372],[-3,-3]],[[324,3372]],[[324,3373],[0,-1]],[[1799,3327],[-21,-17]],[[1776,3309],[1,-1],[1,1],[-1,1],[-1,-1]],[[586,3101],[-9,-25]],[[1318,3307],[226,-35]],[[1546,3273],[-2,-1]],[[1544,3272],[2,0]],[[0,2818],[285,-15]],[[285,2803],[-11,5],[-81,6],[-193,4]],[[461,2786],[-171,17]],[[290,2802],[171,-16]],[[464,2785],[1,0],[2,0]],[[467,2785],[57,-4]],[[524,2781],[4,0],[8,0],[39,-3],[170,39]],[[745,2817],[-170,-39],[-41,3],[-6,0],[-4,0]],[[524,2781],[-32,-1],[-7,0],[-14,3],[-4,2]],[[467,2785],[-2,0],[-1,1]],[[896,2836],[-1,0],[-3,-1]],[[892,2835],[-3,-1]],[[889,2834],[-25,-6],[-17,-15]],[[847,2813],[-29,-26],[-10,6]],[[808,2793],[-50,27],[-8,0]],[[750,2819],[47,-32],[11,6]],[[808,2793],[39,20]],[[847,2813],[1,0],[41,21]],[[889,2834],[1,1],[2,0]],[[892,2835],[4,1]],[[1087,2828],[-186,8]],[[901,2836],[187,-9]],[[443,3533],[2,0]],[[466,3554],[2,2]],[[0,3187],[23,14]],[[30,3205],[0,-1]],[[960,3575],[-1,-1]],[[281,3346],[0,-1],[1,2],[-1,-1]],[[1585,3033],[-1,0]],[[1584,3033]],[[788,4073],[85,-18],[26,41]],[[1523,2705],[16,-11],[81,48],[24,76],[80,30],[-48,94],[14,43],[123,63],[46,59],[40,237]],[[526,2784],[4,-6]],[[886,3797],[-2,-5]],[[884,3791],[2,6]],[[898,3832],[-11,-30],[-1,-4]],[[886,3798],[13,34]],[[81,3061],[-81,12]],[[623,3673],[158,164]],[[781,3837],[4,2]],[[816,3850],[-31,-11]],[[257,3380],[9,-3]],[[429,3345],[-99,25]],[[430,3346],[-1,-1]],[[429,3345],[1,0]],[[431,3345],[0,1]],[[431,3345]],[[536,3292],[-35,37],[-70,16]],[[536,3292],[1,0]],[[834,3329],[-130,-31],[-36,2],[-2,25],[-73,-15]],[[593,3310],[-1,0]],[[223,2999],[1,0]],[[337,3019],[224,62]],[[510,2824],[0,-1]],[[510,2823],[0,1]],[[516,2807],[-6,16]],[[516,2807]],[[516,2807]],[[516,2806]],[[526,2786],[-1,0]],[[526,2785],[0,1]],[[299,3368]],[[318,3357],[-6,5]],[[316,3360],[1,-2]],[[632,2913],[-1,0]],[[577,3076],[-17,13],[26,12]],[[1573,2784],[4,10]],[[1577,2794],[-4,-9]],[[1577,2794],[9,32]],[[1586,2826],[0,1]],[[1586,2827],[0,-1]],[[1587,2829],[-1,-1]],[[1587,2827],[0,2]],[[1587,2829],[26,81]],[[1611,3057]],[[1613,2911],[0,-1]],[[1613,2913],[0,-1]],[[1613,2912],[-1,-1],[1,0]],[[1613,2911],[0,1]],[[1613,2910],[0,1]],[[1613,2913],[6,17]],[[1613,2912],[0,1]],[[1624,2941],[-5,-11]],[[1625,2945],[-1,-4]],[[1629,2957],[-4,-12]],[[1626,2981],[0,-1]],[[1627,2983],[-1,0]],[[1626,2980],[1,1]],[[1626,2980],[3,-23]],[[1587,2827],[-1,1]],[[1586,2828],[0,-1],[1,0]],[[834,3329],[2,0],[0,1],[-1,0],[-1,-1]],[[496,1482],[-14,-109],[-93,-99],[-38,0],[-16,-24],[17,-15]],[[141,3076],[-59,-14]],[[82,3062],[0,-1]],[[141,3076],[1,0]],[[239,3099],[-97,-23]],[[299,3367],[-16,-21]],[[0,3164],[309,187],[18,15],[3,5],[144,195],[32,18],[45,39],[43,26],[24,19],[-71,-47],[-28,-25],[-42,-26],[-31,-26],[-138,-192],[-308,-187]],[[544,1857],[-48,-375]],[[1418,2966],[165,66]],[[1583,3032],[1,1]],[[1584,3033],[-1,-1]],[[32,3206]],[[531,2778],[-1,-1]],[[532,2776],[48,-62],[5,-65]],[[840,3313],[-4,16]],[[536,3607],[1,0]],[[818,3851],[-2,-1]],[[819,3850],[-1,0]],[[820,3852],[-1,-1]],[[956,3581],[3,-5]],[[956,3580],[3,-4]],[[959,3576],[1,-1]],[[960,3576],[-1,0]],[[910,2019],[2,1]],[[912,2020],[-2,0]],[[923,2022],[-11,-2]],[[910,2020],[-1,0],[1,-1],[0,1]],[[910,2020]],[[923,2022],[1,0],[0,1],[-1,0],[0,-1]],[[957,3573],[0,-1]],[[958,3573],[-1,0]],[[766,4077]],[[109,2479],[0,-1]],[[110,2484],[1,-1]],[[271,3344],[-12,-2]],[[259,3342],[12,2]],[[279,3345],[-8,-1]],[[282,3346]],[[305,3381],[0,-1]],[[371,3436],[-2,2]],[[370,3435],[1,-1]],[[445,3533],[-2,0]],[[465,2108],[3,7]],[[468,3556],[-2,-2]],[[468,3556],[0,-1]],[[469,3556],[0,1]],[[553,2319],[2,0]],[[609,3657],[0,-1]],[[609,3656]],[[610,3656],[-1,1]],[[761,4045],[-1,0]],[[761,4046],[-1,-1]],[[760,4058],[1,0]],[[760,4044],[1,0]],[[761,4058],[0,-1]],[[761,4059]],[[761,4046],[0,11]],[[761,4045],[0,1]],[[761,4057],[0,1]],[[762,4022],[0,1]],[[882,3877],[0,1]],[[1508,2727],[-1,0]],[[1535,2731]],[[1584,3033]],[[1584,3033],[1,0]],[[514,3584],[-1,1],[0,-1],[0,-1],[1,1]],[[963,2442],[0,-1],[0,1]],[[1561,3272]],[[1561,3272],[0,1],[-1,0],[1,-1]],[[1561,3272],[0,1]],[[1574,3271],[-13,1]],[[1575,3271],[-1,0]],[[1574,3271],[1,-1]],[[1576,3271],[-1,0]],[[1575,3271],[0,-1]],[[1575,3270],[1,1]],[[1584,3279],[-8,-8]],[[1576,3271]],[[1576,3271],[8,8]],[[1584,3279]],[[879,3740]],[[879,3739]],[[881,3733]],[[881,3732]],[[889,3699]],[[889,3698],[1,0]],[[960,3576],[0,-1]],[[971,3562]],[[972,3561]],[[979,3552],[-7,9]],[[979,3552]],[[979,3552],[14,-17]],[[993,3535]],[[993,3535]],[[1003,3522]],[[1545,3273],[0,-1]],[[1546,3272],[0,-1]],[[1546,3271],[0,1]],[[1546,3272],[0,1]],[[1553,3266],[-7,5]],[[1553,3266],[0,-1]],[[1554,3265],[-1,1]],[[632,2912],[0,1]],[[496,1482],[-14,-109],[-93,-99],[-38,0],[-16,-24],[17,-15]],[[118,2984],[-80,-13],[-38,-45]],[[1776,3308],[1,0]],[[1784,3288],[-1,0]],[[627,2300],[-2,-1]],[[625,2299],[2,1]],[[627,2300],[153,82],[174,43]],[[954,2425],[1,0]],[[955,2425],[-1,0]],[[956,2425],[-1,0]],[[955,2425]],[[955,2425],[0,1]],[[956,2426],[7,15]],[[962,2459],[1,0]],[[963,2460],[-1,-1]],[[963,2442],[-1,17]],[[956,2425],[-1,0]],[[955,2425],[0,1],[0,-1]],[[955,2425],[0,-1],[1,1]],[[0,3248],[30,-42]],[[30,3206],[0,-1]],[[30,3204],[0,2]],[[747,4069],[-133,-66]],[[763,4075],[-14,-5]],[[766,4077]],[[1720,3205],[0,-1],[1,1],[0,1],[-1,-1]],[[618,3668],[5,5]],[[820,3852],[-6,-2]],[[816,3850],[4,2]],[[820,3852],[60,24]],[[880,3876],[2,1]],[[881,3877],[-1,-1]],[[1004,3520],[1,1]],[[761,4024],[-1,0]],[[761,4022],[0,-1]],[[761,4021],[1,1]],[[777,3997],[-16,24]],[[881,3877],[1,0]],[[302,2469],[1,0]],[[303,2469],[-1,1]],[[551,2320],[-150,62],[-98,87]],[[593,2312],[-40,8]],[[603,2309],[-10,3]],[[621,2287],[-17,21]],[[610,2278],[11,8]],[[621,2286],[1,0],[-1,1],[0,-1]],[[301,2470],[0,-1],[1,1]],[[302,2470],[0,1],[-1,-1]],[[552,2320],[-1,0],[1,-1],[1,1]],[[553,2320],[-1,0]],[[593,2312]],[[604,2309],[-1,0]],[[603,2309],[0,-1],[1,0],[0,1]],[[610,2278]],[[610,2278],[-1,0],[1,0]],[[544,1857],[-48,-375]],[[102,3247],[-71,-41]],[[32,3205],[0,1]],[[113,3255],[1,0]],[[114,3255],[1,1]],[[115,3256],[-1,0]],[[258,3341],[-143,-85]],[[258,3342],[0,-1],[1,1],[0,1],[-1,-1]],[[258,3342],[1,2]],[[281,3346],[0,-1]],[[514,3584],[22,23]],[[536,3607],[72,50]],[[114,3256],[-1,0],[1,-1],[0,1]],[[607,3966],[-22,-20]],[[607,3667],[0,1]],[[607,3668],[0,1]],[[607,3966],[2,1]],[[608,3967],[-1,-1]],[[610,3971],[-2,-2]],[[608,3969],[0,-1],[1,-1],[0,1],[-1,1]],[[609,3968],[1,3]],[[611,3974],[-1,-3]],[[612,4001],[-1,1]],[[775,4093],[1,0]],[[776,4093]],[[778,4096],[-1,-1]],[[430,3346],[0,-1]],[[776,4094]],[[610,2278],[6,-3]],[[616,2275],[0,-2]],[[617,2274],[-1,1]],[[617,2273],[5,-2]],[[909,2021],[0,-1]],[[937,2023],[1,0]],[[317,3361],[-1,-1]],[[447,3186],[146,-78]],[[593,3108],[1,-1]],[[594,3107],[-1,1]],[[828,3151],[12,162]],[[900,2994],[-32,15],[-30,92]],[[900,2994],[1,0]],[[901,2994],[-1,0]],[[1627,2983],[-16,75]],[[1627,2981],[0,1]],[[1783,3286],[-61,-80]],[[1776,3308],[7,-20]],[[1783,3288],[0,-1],[1,1],[-1,0]],[[957,3572],[2,2]],[[427,3495],[0,-1]],[[427,3494],[0,1]],[[427,3495],[17,36]],[[444,3531],[0,2]],[[444,3533],[0,-2]],[[446,3534],[-1,0]],[[470,3557],[43,27]],[[604,2309]],[[604,2309]],[[620,2589],[-16,-280]],[[964,2460],[-1,-1]],[[963,2459],[1,1]],[[964,2460],[20,0]],[[984,2460],[2,-1]],[[986,2459],[1,2]],[[987,2461],[2,-1]],[[989,2460],[1,-2]],[[990,2458],[1,0]],[[991,2458],[8,5]],[[999,2463],[1,2]],[[1000,2465],[117,223]],[[611,4000],[1,0]],[[887,3802],[0,-1]],[[887,3802]],[[431,3345],[0,1]],[[109,2477],[2,7]],[[108,2477],[1,-1],[0,1],[-1,1],[0,-1]],[[110,2484],[1,0],[1,1],[-1,0],[-1,-1]],[[1117,2688],[30,93]],[[1147,2781],[1,1]],[[1147,2782],[0,-1]],[[446,2063],[3,3]],[[464,2106],[1,2]],[[1778,3310],[-1,0]],[[1799,3327]],[[1801,3329],[-1,0]],[[406,2036],[-5,-2]],[[450,2068],[-4,-5]],[[492,2154],[-28,-48]],[[492,2154],[1,0]],[[493,2155],[-1,-1]],[[495,2157],[-2,-1]],[[494,2155],[1,2]],[[495,2157],[91,131]],[[494,2155],[-1,1]],[[493,2156],[0,-1]],[[493,2155],[0,-1],[1,1]],[[118,2984],[105,15]],[[224,2999],[113,20]],[[1192,2800],[2,1]],[[1194,2801],[-2,1]],[[1194,2801],[218,-26],[78,-41]],[[1491,2735],[-1,-1]],[[1490,2734],[1,0]],[[1491,2735],[0,-1]],[[1491,2734],[2,0]],[[1493,2735],[-2,0]],[[1493,2734],[1,0]],[[1493,2734],[0,1]],[[1494,2734],[-1,1]],[[1494,2734],[13,-6]],[[1507,2728],[0,-1]],[[1508,2727],[-1,1]],[[884,3792],[5,-93]],[[890,3696],[-6,95]],[[886,3798],[0,-1]],[[886,3797],[0,1]],[[889,3698],[0,-1]],[[960,3575],[19,-23]],[[972,3561],[-12,15]],[[901,2993],[1,-1]],[[902,2992],[0,1]],[[1050,2833],[-123,82],[-25,77]],[[299,3368],[1,-1]],[[300,3367],[-1,1]],[[311,3363],[-11,4]],[[311,3363],[1,-1],[0,1],[-1,0]],[[316,3369],[-4,-6]],[[318,3369],[-2,0]],[[320,3369],[-2,0]],[[320,3369],[1,-1],[0,1],[-1,0]],[[901,2994],[0,-1]],[[902,2993],[-1,1]],[[330,3412],[38,25]],[[586,3101],[8,5]],[[594,3106],[1,1],[-1,-1]],[[608,3662],[-1,-1]],[[585,3946],[61,-66],[-39,-209]],[[607,3662],[0,-1]],[[607,3662],[0,4]],[[608,3662],[-1,0]],[[607,3671],[0,-5]],[[612,3999],[-1,-25]],[[612,3999],[0,2],[2,2],[-3,-2],[1,-2]],[[764,4076],[1,-1]],[[775,4092],[-9,-14]],[[776,4093],[-1,0]],[[776,4093]],[[324,3372],[0,1]],[[255,3340],[-1,0]],[[1592,3038],[20,22]],[[1611,3058],[1,2]],[[1612,3060],[10,12]],[[901,2994]],[[901,2993],[1,0]],[[445,3533],[21,21]],[[324,3373],[0,-1]],[[330,3370],[-5,3]],[[431,3346],[-1,0]],[[430,3345],[1,0]],[[30,3205],[0,-1]],[[31,3206],[-1,-1]],[[530,2777],[1,1]],[[909,3856],[0,-1]],[[927,3857],[1,-1]],[[0,2508],[100,-27],[161,-15],[38,4]],[[299,2470],[-299,39]],[[1535,2732],[0,-1]],[[1535,2731],[0,1]],[[1535,2732],[37,50]],[[1572,2782],[1,2]],[[1573,2785],[-1,-3]],[[1627,2982],[0,-1]],[[963,2459],[0,1]],[[1001,2465],[0,-2]],[[1003,3521],[2,-1]],[[1005,3520],[0,2]],[[1005,3520],[38,-64],[110,-58]],[[1153,3398],[2,-1]],[[1156,3396],[-3,2]],[[516,2805],[0,1],[-1,0],[1,0],[0,-1]],[[525,2787],[-9,18]],[[525,2786],[1,-1]],[[526,2786]],[[889,3699],[0,-1]],[[961,3574],[0,1]],[[0,1937],[723,-327],[57,12],[3316,1912]],[[778,3997],[-1,0]],[[778,3997],[40,-74],[63,-44]],[[881,3879],[0,-1]],[[882,3878],[-1,1]],[[889,3697],[3,-10]],[[892,3687],[-2,9]],[[892,3686],[0,1]],[[893,3684],[1,-5]],[[894,3680],[9,-28]],[[903,3652],[7,-12]],[[1005,3522],[-26,30]],[[1053,1910],[46,18],[23,62]],[[1122,1990],[1,3]],[[1118,1989],[4,1]],[[1122,1990],[97,29],[11,45]],[[1230,2059],[9,24]],[[1233,2058],[13,36]],[[1247,2081],[20,46]],[[1275,2122],[4,26]],[[1287,2151],[20,60]],[[1318,2214],[-6,42]],[[511,2824],[-1,0]],[[510,2824],[1,0]],[[511,2824],[121,87]],[[631,2912],[1,-1]],[[632,2911],[0,1]],[[1801,3329],[39,-9]],[[1840,3320],[0,-1]],[[1840,3320]],[[1860,3325],[-20,-5]],[[1840,3319],[0,1]],[[1840,3319],[20,6]],[[1861,3325],[-1,0]],[[1860,3325]],[[1860,3325],[1,0]],[[1861,3325],[15,14]],[[1799,3327],[1,0],[1,1],[-1,1],[-1,-2]],[[746,2818],[1,0]],[[1416,2966],[2,0]],[[198,2502],[-86,-18]],[[775,4093],[1,0]],[[894,3680]],[[894,3679]],[[903,3652]],[[903,3652]],[[832,3843],[-12,6]],[[908,3856],[-76,-13]],[[834,3843],[-2,0]],[[927,3856],[-17,0]],[[928,3856],[34,-30]],[[324,3373],[-18,9]],[[299,3368],[7,13]],[[305,3381]],[[315,3361],[1,-1]],[[317,3358],[1,-1]],[[882,3878],[-1,-1]],[[882,3877]],[[899,3833],[-1,-1]],[[959,3574],[1,0]],[[577,3076],[54,-162]],[[631,2914],[1,-2]],[[632,2913],[-1,1]],[[1507,2727],[1,0]],[[1508,2727]],[[1508,2727],[26,4]],[[1535,2731],[-1,0]],[[1534,2731],[1,-1]],[[1535,2731],[0,-1]],[[1535,2730],[0,1]],[[1535,2731]],[[747,4069],[1,0],[1,1],[-1,0],[-1,-1]],[[838,3104],[-10,47]],[[839,3103],[-1,0]],[[838,3104],[0,-1]],[[839,3103],[-1,1]],[[956,3571],[1,1]],[[495,1193],[-59,-87],[-91,8],[-50,127],[78,75],[117,52],[14,-73],[-9,-102]],[[876,4096],[11,0],[-4,-4],[-7,4]],[[325,4096],[503,0],[-6,-107],[103,-19],[223,63],[0,-23],[-29,-21],[-3,-26],[2,-28],[-9,-28],[-18,-20],[-16,-11],[-48,-21],[-92,-23],[-21,-29],[-4,-79],[34,-84],[76,-74],[94,-53],[84,-20],[200,0],[51,20],[88,90],[42,21],[83,-25],[165,-97],[101,-9],[-17,-39],[2,-31],[10,-28],[5,-31],[-11,-19],[-18,-15],[-9,-24],[18,-47],[-40,-105],[-31,-53],[-39,-22],[-49,-18],[-32,-44],[-10,-59],[22,-59],[-119,-109],[-122,-148],[-92,-181],[-27,-210],[-29,18],[-11,10],[-47,-156],[-92,-99],[-267,-166],[-112,-97],[-22,-37],[-12,-12],[-27,-20],[-27,-10],[-12,15],[-80,119],[-18,14],[-46,21],[-17,14],[-13,35],[-6,42],[-10,35],[-21,14],[-28,9],[-46,37],[-25,9],[-35,-5],[-46,-17],[-28,-4],[-254,18],[-38,16],[0,1900],[2,2],[61,-5],[28,5],[85,41],[149,99]],[[3595,4096],[501,0],[0,-309],[-121,59],[-380,250]],[[741,3659],[69,53],[65,10],[84,-147],[-25,-34],[9,34],[-47,37],[-19,-18],[17,-26],[-32,-12],[-29,28],[-27,-19],[-65,94]],[[1012,2015],[45,61],[25,-8],[33,-74],[-29,-5],[20,-16],[-14,-40],[-35,-11],[-45,93]],[[1477,3455],[70,71],[14,65],[-17,21],[105,-57],[-47,-32],[91,-11],[-21,-45],[-60,10],[-79,-50],[-15,36],[-41,-8]],[[244,1261],[220,221],[76,-1],[-1,-410],[-291,1],[-4,189]]]}