{"objects":{"water":{"type":"GeometryCollection","geometries":[]},"buildings":{"type":"GeometryCollection","geometries":[]},"places":{"type":"GeometryCollection","geometries":[{"type":"Point","properties":{"source":"naturalearthdata.com","kind":"locality","name":"Moscow","country_capital":true,"population":10452000,"min_zoom":2.0,"id":7270},"coordinates":[1531,4039]},{"type":"Point","properties":{"name:pt":"Moscovo","int_name":"Moscow","name:sk":"Moskva","name:ja":"\u30e2\u30b9\u30af\u30ef\u9023\u90a6\u5e02","name:eo":"Moskvo","min_zoom":4.0,"name:it":"Mosca","name:sv":"Moskva","name:pl":"Moskwa","id":2452912060,"kind":"region","name:en":"Moscow","name":"\u041c\u043e\u0441\u043a\u0432\u0430","kind_detail":"state","name:de":"Moskau","source":"openstreetmap.org","name:fr":"Moscou","name:nl":"Moskou","name:es":"Mosc\u00fa"},"coordinates":[1114,3341]},{"type":"Point","properties":{"name:pt":"Oblast de Moscou","name:cy":"Oblast Moscfa","name:ko":"\ubaa8\uc2a4\ud06c\ubc14 \uc8fc","name:cv":"\u041c\u0443\u0441\u043a\u0430\u0432 \u043e\u0431\u043b\u0430\u00e7\u0115","name:cu":"\u041c\u043e\u0441\u043a\u044a\u0432\u044c\u0441\u043a\u0430 \u043e\u0431\u043b\u0430\u0441\u0442\u044c","name:cs":"Moskevsk\u00e1 oblast","name:tt":"\u041c\u04d9\u0441\u043a\u04d9\u04af \u04e9\u043b\u043a\u04d9\u0441\u0435","name:kv":"\u041c\u04e7\u0441\u043a\u0443\u0430 \u043e\u0431\u043b\u0430\u0441\u044c\u0442","min_zoom":4.0,"name:ro":"Regiunea Moscova","name:tl":"Moscow Oblast","name:sv":"Moskva oblast","name:os":"\u041c\u00e6\u0441\u043a\u0443\u044b\u0439\u044b \u043e\u0431\u043b\u00e6\u0441\u0442","name:ce":"\u041c\u043e\u0441\u043a\u0432\u0430\u043d \u043e\u0431\u043b\u0430\u0441\u0442\u044c","name:ta":"\u0bae\u0bbe\u0bb8\u0bcd\u0b95\u0bcb \u0b93\u0baa\u0bcd\u0bb2\u0bb8\u0bcd\u0ba4\u0bc1","name:tg":"\u0412\u0438\u043b\u043e\u044f\u0442\u0438 \u041c\u0430\u0441\u043a\u0430\u0432","name:ky":"\u041c\u043e\u0441\u043a\u0432\u0430 \u043e\u0431\u043b\u0430\u0441\u0442\u044b","name:ka":"\u10db\u10dd\u10e1\u10d9\u10dd\u10d5\u10d8\u10e1 \u10dd\u10da\u10e5\u10d8","name:da":"Moskva oblast","name:de":"Oblast Moskau","source":"openstreetmap.org","name:ba":"\u041c\u04d9\u0441\u043a\u04d9\u04af \u04e9\u043b\u043a\u04d9\u04bb\u0435","name:lv":"Maskavas apgabals","name:tr":"Moskova Oblast\u0131","name:uz":"Moskva viloyati","name:he":"\u05de\u05d5\u05e1\u05e7\u05d1\u05d4 (\u05de\u05d7\u05d5\u05d6)","kind":"region","name:ur":"\u0645\u0627\u0633\u06a9\u0648 \u0627\u0648\u0628\u0644\u0627\u0633\u062a","name:la":"Regio Moscuensis","name:uk":"\u041c\u043e\u0441\u043a\u043e\u0432\u0441\u044c\u043a\u0430 \u043e\u0431\u043b\u0430\u0441\u0442\u044c","name:hy":"\u0544\u0578\u057d\u056f\u057e\u0561\u0575\u056b \u0574\u0561\u0580\u0566","name:hu":"Moszkvai ter\u00fclet","name:hr":"Moskovska oblast","name:el":"\u03a0\u03b5\u03c1\u03b9\u03c6\u03ad\u03c1\u03b5\u03b9\u03b1 \u039c\u03cc\u03c3\u03c7\u03b1\u03c2","name:eo":"Moskva Provinco","name:en":"Moscow Oblast","name":"\u041c\u043e\u0441\u043a\u043e\u0432\u0441\u043a\u0430\u044f \u043e\u0431\u043b\u0430\u0441\u0442\u044c","name:eu":"Moskuko oblasta","name:et":"Moskva oblast","name:nl":"Oblast Moskou","name:es":"\u00d3blast de Mosc\u00fa","name:az":"Moskva vilay\u0259ti","name:id":"Oblast Moskwa","name:ms":"Wilayah Moscow","name:mr":"\u092e\u0949\u0938\u094d\u0915\u094b \u0913\u092c\u094d\u0932\u093e\u0938\u094d\u0924","name:ar":"\u0645\u062d\u0627\u0641\u0638\u0629 \u0645\u0648\u0633\u0643\u0648","name:it":"Oblast' di Mosca","name:vi":"Moskva (t\u1ec9nh)","name:mn":"\u041c\u043e\u0441\u043a\u0432\u0430 \u043c\u0443\u0436","name:pl":"Obw\u00f3d moskiewski","name:mk":"\u041c\u043e\u0441\u043a\u043e\u0432\u0441\u043a\u0430 \u043e\u0431\u043b\u0430\u0441\u0442","name:af":"Moskou-oblast","name:fa":"\u0627\u0633\u062a\u0627\u0646 \u0645\u0633\u06a9\u0648","name:lt":"Maskvos sritis","kind_detail":"state","id":658312593,"name:fr":"Oblast de Moscou","name:ca":"Prov\u00edncia de Moscou","name:zh":"\u83ab\u65af\u79d1\u5dde","name:sl":"Moskovska oblast","name:sk":"Moskovsk\u00e1 oblas\u0165","name:ja":"\u30e2\u30b9\u30af\u30ef\u5dde","name:nn":"Moskva oblast","name:no":"Moskva oblast","name:se":"Moskva oblast","name:br":"Oblast Moskov","name:bs":"Moskovska oblast","name:sw":"Moscow Oblast","name:be":"\u041c\u0430\u0441\u043a\u043e\u045e\u0441\u043a\u0430\u044f \u0432\u043e\u0431\u043b\u0430\u0441\u0446\u044c","name:bg":"\u041c\u043e\u0441\u043a\u043e\u0432\u0441\u043a\u0430 \u043e\u0431\u043b\u0430\u0441\u0442","name:sr":"\u041c\u043e\u0441\u043a\u043e\u0432\u0441\u043a\u0430 \u043e\u0431\u043b\u0430\u0441\u0442","name:ga":"C\u00faige Mhosc\u00f3","name:fi":"Moskovan alue"},"coordinates":[2145,3405]},{"type":"Point","properties":{"source":"naturalearthdata.com","kind":"locality","name":"Tula","population":489486,"region_capital":true,"min_zoom":6.0,"id":5019},"coordinates":[1555,95]},{"type":"Point","properties":{"source":"naturalearthdata.com","kind":"locality","name":"Podolsk","population":320635,"min_zoom":7.0,"id":2878},"coordinates":[1409,3091]},{"type":"Point","properties":{"source":"naturalearthdata.com","kind":"locality","name":"Serpukhov","population":135584,"min_zoom":7.0,"id":2881},"coordinates":[1263,1949]},{"type":"Point","properties":{"source":"naturalearthdata.com","kind":"locality","name":"Obninsk","population":107392,"min_zoom":7.0,"id":2873},"coordinates":[84,2330]},{"type":"Point","properties":{"source":"naturalearthdata.com","kind":"locality","name":"Yegoryevsk","population":89795,"min_zoom":7.0,"id":2877},"coordinates":[3593,3102]}]},"transit":{"type":"GeometryCollection","geometries":[{"type":"MultiLineString","properties":{"kind":"train","name":"\u041c\u043e\u0441\u043a\u0432\u0430 \u2014 \u041a\u043b\u0438\u043c\u043e\u0432","sort_rank":275,"source":"openstreetmap.org","min_zoom":6.0,"operator":"\u0420\u0416\u0414","ref":"\u041c\u043e\u0441\u043a\u0432\u0430 - \u041a\u043b\u0438\u043c\u043e\u0432","osm_relation":true,"network":"train"},"arcs":[[56],[57],[58],[59],[60],[61],[62],[63],[64],[65],[66],[67],[68],[69]]},{"type":"MultiLineString","properties":{"source":"openstreetmap.org","kind":"train","network":"\u0420\u0416\u0414","sort_rank":275,"ref":"105\/106 \u041c\u043e\u0441\u043a\u0432\u0430 - \u041a\u0443\u0440\u0441\u043a","min_zoom":6.0,"osm_relation":true},"arcs":[[70],[71],[72],[73]]},{"type":"MultiLineString","properties":{"source":"openstreetmap.org","kind":"train","sort_rank":275,"ref":"K3\/4","min_zoom":6.0,"osm_relation":true},"arcs":[[74],[75]]},{"type":"MultiLineString","properties":{"kind":"train","name":"7 \u041c\u043e\u0441\u043a\u0432\u0430 \u2014 \u0410\u043b\u043c\u0430\u0442\u044b","sort_rank":275,"name:de":"7 Moskau - Almaty","source":"openstreetmap.org","min_zoom":6.0,"ref":"7","osm_relation":true,"description":"7 Moskau -> Almaty \/ 7 Almaty -> Moskau"},"arcs":[[76],[77],[78],[79],[80],[81],[82],[83],[84],[85],[86],[87]]},{"type":"MultiLineString","properties":{"kind":"train","name":"055\/056 \u041c\u043e\u0441\u043a\u0432\u0430 \u2014 \u041a\u0440\u0430\u0441\u043d\u043e\u044f\u0440\u0441\u043a","sort_rank":275,"name:de":"055\/056 Moskau \u2014 Krasnojarsk","source":"openstreetmap.org","min_zoom":6.0,"operator":"\u0420\u043e\u0441\u0441\u0438\u0439\u0441\u043a\u0438\u0435 \u0436\u0435\u043b\u0435\u0437\u043d\u044b\u0435 \u0434\u043e\u0440\u043e\u0433\u0438","ref":"055\/056 \u041c\u043e\u0441\u043a\u0432\u0430 \u2014 \u041a\u0440\u0430\u0441\u043d\u043e\u044f\u0440\u0441\u043a","osm_relation":true},"arcs":[[88],[89]]},{"type":"MultiLineString","properties":{"kind":"train","network":"\u0420\u0416\u0414","sort_rank":275,"source":"openstreetmap.org","min_zoom":6.0,"ref":"6702","osm_relation":true,"name":"\u041c\u043e\u0441\u043a\u0432\u0430 \u2014 \u0411\u0430\u043b\u0430\u0448\u0438\u0445\u0430"},"arcs":[[90],[91],[92],[93],[94],[95],[96],[97],[98],[99],[100],[101],[102],[103],[104]]},{"type":"LineString","properties":{"kind":"train","name":"\u041c\u043e\u0441\u043a\u0432\u0430 \u2014 \u041d\u0438\u043a\u043e\u043b\u0430\u0435\u0432","sort_rank":275,"name:de":"Moskau \u2014 Mykolajiw","source":"openstreetmap.org","min_zoom":6.0,"name:uk":"\u041c\u043e\u0441\u043a\u0432\u0430 \u2014 \u041c\u0438\u043a\u043e\u043b\u0430\u0457\u0432","ref":"061\u0425","osm_relation":true,"network":"\u0420\u0416\u0414"},"arcs":[105]},{"type":"LineString","properties":{"kind":"train","network":"\u0420\u0416\u0414","sort_rank":275,"name:de":"Mykolajiw \u2014 Moskau","source":"openstreetmap.org","min_zoom":6.0,"name:uk":"\u041c\u0438\u043a\u043e\u043b\u0430\u0457\u0432 - \u041c\u043e\u0441\u043a\u0432\u0430","ref":"062\u041e","osm_relation":true,"name":"\u041d\u0438\u043a\u043e\u043b\u0430\u0435\u0432 \u2014 \u041c\u043e\u0441\u043a\u0432\u0430"},"arcs":[106]},{"type":"MultiLineString","properties":{"kind":"train","network":"\u0420\u0416\u0414","sort_rank":275,"source":"openstreetmap.org","min_zoom":6.0,"ref":"379\/380","osm_relation":true,"name":"\u041f\u043e\u0435\u0437\u0434 \u2116379\/380: \u041c\u043e\u0441\u043a\u0432\u0430 \u2014 \u041a\u0430\u043c\u044b\u0448\u0438\u043d"},"arcs":[[107],[108],[109],[110],[111],[112],[113],[114],[115],[116],[117],[118],[119],[120]]},{"type":"LineString","properties":{"kind":"train","network":"\u0420\u0416\u0414","sort_rank":275,"source":"openstreetmap.org","min_zoom":6.0,"ref":"602\u042f","id":-1757569,"osm_relation":true,"name":"\u041c\u043e\u0441\u043a\u0432\u0430 \u2014 \u0420\u044b\u0431\u0438\u043d\u0441\u043a"},"arcs":[121]},{"type":"LineString","properties":{"kind":"train","name":"\u041c\u043e\u0441\u043a\u0432\u0430 \u042f\u0440\u043e\u0441\u043b\u0430\u0432\u0441\u043a\u0430\u044f \u2014 \u041f\u0435\u0440\u043c\u044c","sort_rank":275,"source":"openstreetmap.org","min_zoom":6.0,"ref":"007\u0415;008\u0415","id":-1758077,"osm_relation":true},"arcs":[122]},{"type":"MultiLineString","properties":{"kind":"train","name":"\u041f\u043e\u0435\u0437\u0434 \u2116025 \u041c\u043e\u0441\u043a\u0432\u0430 \u2014 \u0412\u043e\u0440\u043e\u043d\u0435\u0436","sort_rank":275,"source":"openstreetmap.org","min_zoom":6.0,"ref":"025","osm_relation":true,"network":"\u0420\u0416\u0414"},"arcs":[[123],[124],[125],[126],[127],[128],[129],[130],[131],[132],[133],[134],[135],[136]]},{"type":"MultiLineString","properties":{"source":"openstreetmap.org","kind":"train","sort_rank":275,"ref":"\u041c\u043e\u0441\u043a\u0432\u0430-\u041a\u0443\u0440\u0441\u043a\u0430\u044f - \u042d\u043b\u0435\u043a\u0442\u0440\u043e\u0433\u043e\u0440\u0441\u043a","min_zoom":6.0,"osm_relation":true},"arcs":[[137],[138],[139],[140],[141],[142],[143],[144],[145],[146],[147],[148],[149]]},{"type":"MultiLineString","properties":{"kind":"train","network":"\u0420\u0416\u0414","sort_rank":275,"source":"openstreetmap.org","min_zoom":6.0,"ref":"6036","osm_relation":true,"name":"\u041a\u0443\u0431\u0438\u043d\u043a\u0430 \u2014 \u041b\u044e\u0431\u043b\u0438\u043d\u043e-\u0414\u0430\u0447\u043d\u043e\u0435"},"arcs":[[150],[151]]},{"type":"LineString","properties":{"kind":"train","network":"\u0420\u0416\u0414","sort_rank":275,"source":"openstreetmap.org","min_zoom":6.0,"ref":"601\u042f","id":-3630027,"osm_relation":true,"name":"\u0420\u044b\u0431\u0438\u043d\u0441\u043a \u2014\u00a0\u041c\u043e\u0441\u043a\u0432\u0430"},"arcs":[152]},{"type":"MultiLineString","properties":{"kind":"train","name:en":"Smolensk Direction Zvenigorod Branch","name":"\u0421\u043c\u043e\u043b\u0435\u043d\u0441\u043a\u043e\u0435 \u043d\u0430\u043f\u0440\u0430\u0432\u043b\u0435\u043d\u0438\u0435 (\u0417\u0432\u0435\u043d\u0438\u0433\u043e\u0440\u043e\u0434\u0441\u043a\u0430\u044f \u0432\u0435\u0442\u043a\u0430)","sort_rank":275,"name:de":"Zwenigorod-Strecke","source":"openstreetmap.org","min_zoom":6.0,"osm_relation":true,"network":"\u041c\u043e\u0441\u043a\u043e\u0432\u0441\u043a\u0430\u044f \u0436\u0435\u043b\u0435\u0437\u043d\u0430\u044f \u0434\u043e\u0440\u043e\u0433\u0430"},"arcs":[[153],[154],[155],[156],[157],[158]]},{"type":"MultiLineString","properties":{"source":"openstreetmap.org","kind":"train","sort_rank":275,"ref":"\u041c\u043e\u0441\u043a\u0432\u0430 - \u041e\u0436\u0435\u0440\u0435\u043b\u044c\u0435","min_zoom":6.0,"osm_relation":true},"arcs":[[159],[160],[161],[162],[163],[164],[165],[166],[167],[168],[169],[170],[171]]},{"type":"MultiLineString","properties":{"source":"openstreetmap.org","kind":"train","name":"\u0420\u0435\u043b\u044c\u0441\u043e\u0432\u044b\u0439 \u0430\u0432\u0442\u043e\u0431\u0443\u0441 \u0413\u043e\u043b\u0443\u0442\u0432\u0438\u043d - \u041e\u0437\u0451\u0440\u044b","sort_rank":275,"min_zoom":6.0,"osm_relation":true},"arcs":[[172],[173],[174],[175],[176],[177],[178],[179],[180],[181],[182],[183],[184],[185]]},{"type":"MultiLineString","properties":{"source":"openstreetmap.org","kind":"train","name":"\u041f\u043e\u0435\u0437\u0434 \u2116 036\u042d \"\u041d\u0438\u0436\u0435\u0433\u043e\u0440\u043e\u0434\u0435\u0446\": \u041c\u043e\u0441\u043a\u0432\u0430 \u042f\u0440\u043e\u0441\u043b\u0430\u0432\u0441\u043a\u0430\u044f - \u041d\u0438\u0436\u043d\u0438\u0439 \u041d\u043e\u0432\u0433\u043e\u0440\u043e\u0434","sort_rank":275,"ref":"036\u042d","min_zoom":6.0,"osm_relation":true},"arcs":[[186],[187]]},{"type":"MultiLineString","properties":{"source":"openstreetmap.org","kind":"train","sort_rank":275,"ref":"\u0412\u043e\u0441\u043a\u0440\u0435\u0441\u0435\u043d\u0441\u043a - \u041a\u0443\u0440\u043e\u0432\u0441\u043a\u0430\u044f","min_zoom":6.0,"osm_relation":true},"arcs":[[188],[189],[190],[191],[192],[193],[194],[195],[196],[197],[198]]},{"type":"MultiLineString","properties":{"source":"openstreetmap.org","kind":"train","network":"\u0420\u0416\u0414","sort_rank":275,"min_zoom":6.0,"osm_relation":true,"name":"\u041a\u0430\u043b\u0443\u0433\u0430 \u2014 \u0422\u0443\u043b\u0430"},"arcs":[[199],[200],[201],[202],[203],[204],[205]]},{"type":"MultiLineString","properties":{"kind":"train","name":"025\/026 \u041c\u043e\u0441\u043a\u0432\u0430 \u041a\u0430\u0437\u0430\u043d\u0441\u043a\u0430\u044f \u2014 \u0418\u0436\u0435\u0432\u0441\u043a","sort_rank":275,"source":"openstreetmap.org","min_zoom":6.0,"operator":"\u0420\u0416\u0414","ref":"025\/026","osm_relation":true},"arcs":[[206],[207],[208]]},{"type":"MultiLineString","properties":{"kind":"train","name":"057\/058 \u041c\u043e\u0441\u043a\u0432\u0430 \u041a\u0430\u0437\u0430\u043d\u0441\u043a\u0430\u044f \u2014 \u0419\u043e\u0448\u043a\u0430\u0440-\u041e\u043b\u0430","sort_rank":275,"source":"openstreetmap.org","min_zoom":6.0,"operator":"\u0420\u0416\u0414","ref":"057\/058","osm_relation":true},"arcs":[[209],[210],[211]]},{"type":"MultiLineString","properties":{"kind":"train","name":"111\/112 \u041c\u043e\u0441\u043a\u0432\u0430 \u041a\u0430\u0437\u0430\u043d\u0441\u043a\u0430\u044f \u2014 \u041a\u0440\u0443\u0433\u043b\u043e\u0435 \u041f\u043e\u043b\u0435","sort_rank":275,"source":"openstreetmap.org","min_zoom":6.0,"operator":"\u0420\u0416\u0414","ref":"111\/112","osm_relation":true},"arcs":[[212],[213],[214]]},{"type":"LineString","properties":{"kind":"train","name:en":"EN 453 : Paris \u2212 Berlin \u2212 Moscow","network":"EuroNight","service":"international","sort_rank":275,"source":"openstreetmap.org","min_zoom":5.0,"operator":"\u0420\u043e\u0441\u0441\u0438\u0439\u0441\u043a\u0438\u0435 \u0436\u0435\u043b\u0435\u0437\u043d\u044b\u0435 \u0434\u043e\u0440\u043e\u0433\u0438","ref":"EN 453","osm_relation":true,"name":"EN 453 : Paris \u2212 Berlin \u2212 Moscou"},"arcs":[215]},{"type":"MultiLineString","properties":{"kind":"train","name":"054\/055 \u041c\u043e\u0441\u043a\u0432\u0430 \u041a\u0430\u0437\u0430\u043d\u0441\u043a\u0430\u044f \u2014 \u0427\u0435\u0431\u043e\u043a\u0441\u0430\u0440\u044b","sort_rank":275,"source":"openstreetmap.org","min_zoom":6.0,"operator":"\u0420\u0416\u0414","ref":"054\/055","osm_relation":true},"arcs":[[216],[217],[218]]},{"type":"LineString","properties":{"source":"openstreetmap.org","kind":"train","name":"\u0411\u0440\u0435\u0441\u0442 - \u0413\u043e\u043c\u0435\u043b\u044c - \u041c\u043e\u0441\u043a\u0432\u0430","sort_rank":275,"min_zoom":6.0,"osm_relation":true},"arcs":[219]},{"type":"MultiLineString","properties":{"source":"openstreetmap.org","kind":"train","sort_rank":275,"ref":"\u041c\u043e\u0441\u043a\u0432\u0430-\u041a\u0443\u0440\u0441\u043a\u0430\u044f - \u0417\u0430\u0445\u0430\u0440\u043e\u0432\u043e","min_zoom":6.0,"osm_relation":true},"arcs":[[220],[221],[222],[223],[224],[225],[226],[227],[228],[229],[230],[231]]},{"type":"MultiLineString","properties":{"kind":"train","network":"\u0420\u0416\u0414","sort_rank":275,"source":"openstreetmap.org","min_zoom":6.0,"ref":"029 \u041c\u043e\u0441\u043a\u0432\u0430 - \u041b\u0438\u043f\u0435\u0446\u043a","osm_relation":true,"name":"\u041f\u043e\u0435\u0437\u0434 \u2116029: \u041c\u043e\u0441\u043a\u0432\u0430 - \u041b\u0438\u043f\u0435\u0446\u043a"},"arcs":[[232],[233],[234],[235],[236],[237],[238],[239],[240],[241],[242]]},{"type":"MultiLineString","properties":{"kind":"train","network":"\u041c\u041c\u0416\u0414","sort_rank":275,"source":"openstreetmap.org","min_zoom":6.0,"operator":"\u041c\u041c\u0416\u0414","ref":"\u041c\u041c\u0416\u0414","osm_relation":true},"arcs":[[243],[244]]},{"type":"LineString","properties":{"kind":"train","name:en":"Smolensk Direction Usovo Branch","network":"\u041c\u043e\u0441\u043a\u043e\u0432\u0441\u043a\u0430\u044f \u0436\u0435\u043b\u0435\u0437\u043d\u0430\u044f \u0434\u043e\u0440\u043e\u0433\u0430","sort_rank":275,"source":"openstreetmap.org","min_zoom":6.0,"ref":"\u0423\u0441\u043e\u0432\u043e - \u041c\u043e\u0441\u043a\u0432\u0430","id":-6704844,"osm_relation":true,"name":"\u0421\u043c\u043e\u043b\u0435\u043d\u0441\u043a\u043e\u0435 \u043d\u0430\u043f\u0440\u0430\u0432\u043b\u0435\u043d\u0438\u0435 (\u0423\u0441\u043e\u0432\u0441\u043a\u0430\u044f \u0432\u0435\u0442\u043a\u0430)"},"arcs":[245]},{"type":"MultiLineString","properties":{"kind":"train","network":"\u0420\u0416\u0414","sort_rank":275,"source":"openstreetmap.org","min_zoom":6.0,"ref":"6701","osm_relation":true,"name":"\u0411\u0430\u043b\u0430\u0448\u0438\u0445\u0430 \u2014 \u041c\u043e\u0441\u043a\u0432\u0430"},"arcs":[[246],[247],[248],[249],[250],[251],[252],[253],[254],[255],[256],[257],[258]]},{"type":"MultiLineString","properties":{"kind":"train","name":"5\/6 \u0422\u0430\u0448\u043a\u0435\u043d\u0442<=>\u041c\u043e\u0441\u043a\u0432\u0430","sort_rank":275,"name:de":"5\/6 Taschkent<=>Moskau","source":"openstreetmap.org","min_zoom":6.0,"network":"\u0423\u0422\u0419","ref":"5\/6","osm_relation":true,"description":"5 \u0422\u0430\u0448\u043a\u0435\u043d\u0442 -> \u041c\u043e\u0441\u043a\u0432\u0430 \/ 6 \u041c\u043e\u0441\u043a\u0432\u0430 -> \u0422\u0430\u0448\u043a\u0435\u043d\u0442"},"arcs":[[259],[260],[261]]},{"type":"MultiLineString","properties":{"kind":"train","name:en":"Baku \u2014 Moscow","name":"\u0411\u0430\u043a\u0443 \u2014 \u041c\u043e\u0441\u043a\u0432\u0430","sort_rank":275,"name:de":"Baku \u2014 Moskau","source":"openstreetmap.org","min_zoom":6.0,"ref":"055","osm_relation":true},"arcs":[[262],[263],[264],[265],[266],[267],[268]]},{"type":"MultiLineString","properties":{"source":"openstreetmap.org","kind":"train","name":"\u0420\u044f\u0436\u0441\u043a-1 \u2014 \u0427\u0435\u0440\u0435\u043f\u0435\u0442\u044c","sort_rank":275,"ref":"\u0420\u044f\u0436\u0441\u043a - \u0427\u0435\u0440\u0435\u043f\u0435\u0442\u044c","min_zoom":6.0,"osm_relation":true},"arcs":[[269],[270],[271],[272],[273],[274],[275],[276],[277],[278],[279],[280],[281],[282],[283],[284],[285],[286],[287],[288],[289],[290]]},{"type":"MultiLineString","properties":{"kind":"train","network":"train","sort_rank":275,"name:de":"Moskau - Kischinau","source":"openstreetmap.org","min_zoom":6.0,"name:uk":"\u041c\u043e\u0441\u043a\u0432\u0430 - \u041a\u0456\u0448\u0456\u043d\u0435\u0443","operator":"CFM","ref":"47\u0429: \u041c\u043e\u0441\u043a\u0432\u0430 - \u041a\u0438\u0448\u0438\u043d\u044d\u0443","osm_relation":true,"name":"\u041c\u043e\u0441\u043a\u0432\u0430 - \u041a\u0438\u0448\u0438\u043d\u044d\u0443"},"arcs":[[291],[292],[293],[294],[295],[296],[297],[298],[299],[300],[301],[302],[303],[304]]},{"type":"MultiLineString","properties":{"kind":"train","name:en":"Moscow \u2014 Severobaykalsk","name":"\u041c\u043e\u0441\u043a\u0432\u0430 \u2014 \u0421\u0435\u0432\u0435\u0440\u043e\u0431\u0430\u0439\u043a\u0430\u043b\u044c\u0441\u043a","sort_rank":275,"name:de":"Moskau \u2014 Sewerobaikalsk","source":"openstreetmap.org","min_zoom":6.0,"operator":"\u0420\u043e\u0441\u0441\u0438\u0439\u0441\u043a\u0438\u0435 \u0436\u0435\u043b\u0435\u0437\u043d\u044b\u0435 \u0434\u043e\u0440\u043e\u0433\u0438","ref":"092\u0418","osm_relation":true},"arcs":[[305],[306],[307],[308],[309],[310]]},{"type":"LineString","properties":{"source":"openstreetmap.org","kind":"train","sort_rank":275,"ref":"\u041c\u043e\u0441\u043a\u0432\u0430 - \u041a\u0443\u0431\u0438\u043d\u043a\u0430","min_zoom":6.0,"osm_relation":true},"arcs":[311]},{"type":"MultiLineString","properties":{"source":"openstreetmap.org","kind":"train","sort_rank":275,"ref":"\u0410\u043b\u0435\u043a\u0441\u0430\u043d\u0434\u0440\u043e\u0432 - \u041a\u0443\u0440\u043e\u0432\u0441\u043a\u0430\u044f","min_zoom":6.0,"osm_relation":true},"arcs":[[312],[313],[314],[315],[316],[317]]},{"type":"MultiLineString","properties":{"source":"openstreetmap.org","kind":"train","sort_rank":275,"ref":"\u041c\u043e\u0441\u043a\u0432\u0430 - \u041c\u043e\u0433\u0438\u043b\u0451\u0432 - \u0413\u043e\u043c\u0435\u043b\u044c","min_zoom":6.0,"osm_relation":true},"arcs":[[318],[319],[320],[321],[322],[323],[324],[325],[326],[327],[328],[329],[330],[331]]},{"type":"MultiLineString","properties":{"source":"openstreetmap.org","kind":"train","sort_rank":275,"ref":"\u041c\u043e\u0441\u043a\u0432\u0430 - \u041f\u043e\u043b\u043e\u0446\u043a","min_zoom":6.0,"osm_relation":true},"arcs":[[332],[333],[334],[335],[336],[337],[338],[339],[340],[341],[342],[343],[344]]},{"type":"MultiLineString","properties":{"source":"openstreetmap.org","kind":"train","sort_rank":275,"ref":"\u0414\u0435\u0442\u043a\u043e\u0432\u043e - \u042f\u0433\u0430\u043d\u043e\u0432\u043e","min_zoom":6.0,"osm_relation":true},"arcs":[[345],[346],[347],[348],[349],[350],[351],[352]]},{"type":"MultiLineString","properties":{"kind":"train","name":"\u041c\u043e\u0441\u043a\u0432\u0430 \u2014 \u0410\u0434\u043b\u0435\u0440","sort_rank":275,"name:de":"Moskau \u2014 Adler","source":"openstreetmap.org","min_zoom":6.0,"ref":"\u041c\u043e\u0441\u043a\u0432\u0430 - \u0410\u0434\u043b\u0435\u0440","osm_relation":true},"arcs":[[353],[354],[355],[356],[357]]},{"type":"MultiLineString","properties":{"kind":"train","name":"\u0422\u043e\u043c\u0441\u043a \u2014 \u041c\u043e\u0441\u043a\u0432\u0430","sort_rank":275,"source":"openstreetmap.org","min_zoom":6.0,"operator":"\u0420\u043e\u0441\u0441\u0438\u0439\u0441\u043a\u0438\u0435 \u0436\u0435\u043b\u0435\u0437\u043d\u044b\u0435 \u0434\u043e\u0440\u043e\u0433\u0438","ref":"37","osm_relation":true,"network":"RU-railway"},"arcs":[[358],[359]]},{"type":"MultiLineString","properties":{"kind":"train","name":"\u0414\u0435\u0442\u043a\u043e\u0432\u043e - \u041f\u043e\u0432\u0430\u0440\u043e\u0432\u043e II","sort_rank":275,"source":"openstreetmap.org","min_zoom":6.0,"operator":"\u041e\u0410\u041e \u0426\u041f\u041f\u041a \/ \u0422\u0427-20 \u0410\u043f\u0440\u0435\u043b\u0435\u0432\u043a\u0430","ref":"\u0414\u0435\u0442\u043a\u043e\u0432\u043e - \u041f\u043e\u0432\u0430\u0440\u043e\u0432\u043e II","osm_relation":true},"arcs":[[360],[361],[362],[363],[364],[365],[366],[367],[368],[369],[370],[371],[372],[373],[374],[375],[376],[377],[378],[379],[380]]},{"type":"MultiLineString","properties":{"source":"openstreetmap.org","kind":"train","sort_rank":275,"ref":"\u0424\u0440\u044f\u0437\u0435\u0432\u043e \u2014 \u041c\u043e\u0441\u043a\u0432\u0430","min_zoom":6.0,"osm_relation":true},"arcs":[[381],[382]]},{"type":"LineString","properties":{"source":"openstreetmap.org","kind":"train","description":"\u041c\u041c\u0416\u0414","sort_rank":275,"min_zoom":6.0,"osm_relation":true,"id":-1392674},"arcs":[383]},{"type":"LineString","properties":{"kind":"train","name":"EN 452 : Moscou \u2212 Berlin \u2212 Paris","service":"international","sort_rank":275,"source":"openstreetmap.org","min_zoom":5.0,"operator":"\u0420\u043e\u0441\u0441\u0438\u0439\u0441\u043a\u0438\u0435 \u0436\u0435\u043b\u0435\u0437\u043d\u044b\u0435 \u0434\u043e\u0440\u043e\u0433\u0438","ref":"EN 452","osm_relation":true,"network":"EuroNight"},"arcs":[384]},{"type":"MultiLineString","properties":{"kind":"train","name":"080 \u041c\u043e\u0441\u043a\u0432\u0430 \u041a\u0430\u0437\u0430\u043d\u0441\u043a\u0430\u044f \u2014 \u0411\u0435\u0440\u0435\u0449\u0438\u043d\u043e \u2014 \u041f\u0435\u0440\u0432\u043e\u043c\u0430\u0439\u0441\u043a","sort_rank":275,"source":"openstreetmap.org","min_zoom":6.0,"operator":"\u0420\u0416\u0414","ref":"080","osm_relation":true},"arcs":[[385],[386],[387]]},{"type":"MultiLineString","properties":{"kind":"train","name":"\u041f\u043e\u0435\u0437\u0434 \u2116001\/002 \u041c\u043e\u0441\u043a\u0432\u0430 \u2014 \u0412\u043e\u043b\u0433\u043e\u0433\u0440\u0430\u0434","sort_rank":275,"source":"openstreetmap.org","min_zoom":6.0,"operator":"\u0420\u0416\u0414","ref":"001\/002","osm_relation":true},"arcs":[[388],[389],[390]]},{"type":"MultiLineString","properties":{"source":"openstreetmap.org","kind":"train","sort_rank":275,"ref":"\u041c\u0438\u043d\u0441\u043a - \u041c\u043e\u0441\u043a\u0432\u0430","min_zoom":6.0,"osm_relation":true},"arcs":[[391],[392],[393],[394],[395],[396],[397],[398],[399],[400],[401],[402],[403]]},{"type":"MultiLineString","properties":{"source":"openstreetmap.org","kind":"train","sort_rank":275,"ref":"\u041c\u043e\u0441\u043a\u0432\u0430 \u2014 \u0424\u0440\u044f\u0437\u0435\u0432\u043e","min_zoom":6.0,"osm_relation":true},"arcs":[[404],[405]]},{"type":"MultiLineString","properties":{"kind":"train","network":"\u0420\u0416\u0414","sort_rank":275,"source":"openstreetmap.org","min_zoom":6.0,"operator":"\u0426\u0435\u043d\u0442\u0440\u0430\u043b\u044c\u043d\u0430\u044f \u043f\u0440\u0438\u0433\u043e\u0440\u043e\u0434\u043d\u0430\u044f \u043f\u0430\u0441\u0441\u0430\u0436\u0438\u0440\u0441\u043a\u0430\u044f \u043a\u043e\u043c\u043f\u0430\u043d\u0438\u044f","ref":"\u041c\u043e\u0441\u043a\u0432\u0430 \u2014 \u0420\u044f\u0437\u0430\u043d\u044c","osm_relation":true,"name":"\u041f\u043e\u0435\u0437\u0434: \u041c\u043e\u0441\u043a\u0432\u0430 \u2014 \u0420\u044f\u0437\u0430\u043d\u044c-1"},"arcs":[[406],[407],[408],[409]]},{"type":"MultiLineString","properties":{"kind":"train","name":"Warszawa - Moskwa","sort_rank":275,"source":"openstreetmap.org","min_zoom":6.0,"name:ru":"\u0412\u0430\u0440\u0448\u0430\u0432\u0430 - \u041c\u043e\u0441\u043a\u0432\u0430","name:be":"\u0412\u0430\u0440\u0448\u0430\u0432\u0430 - \u041c\u0430\u0441\u043a\u0432\u0430","ref":"Warszawa - Moskwa","osm_relation":true},"arcs":[[410],[411],[412],[413],[414],[415],[416],[417],[418],[419],[420],[421],[422]]},{"type":"MultiLineString","properties":{"kind":"train","name":"\u041c\u043e\u0441\u043a\u0432\u0430 \u041a\u0430\u0437\u0430\u043d\u0441\u043a\u0430\u044f \u2014 \u041d\u043e\u0432\u043e\u043a\u0443\u0437\u043d\u0435\u0446\u043a","sort_rank":275,"source":"openstreetmap.org","min_zoom":6.0,"operator":"\u0420\u0416\u0414","ref":"117\u041d;118\u0415","osm_relation":true},"arcs":[[423],[424],[425]]},{"type":"MultiLineString","properties":{"kind":"train","network":"\u0420\u0416\u0414","sort_rank":275,"source":"openstreetmap.org","min_zoom":6.0,"ref":"343","osm_relation":true,"name":"\u041f\u043e\u0435\u0437\u0434 \u2116343: \u041c\u043e\u0441\u043a\u0432\u0430 \u2014 \u0411\u0430\u043b\u0430\u0448\u043e\u0432-1"},"arcs":[[426],[427],[428],[429],[430],[431],[432],[433],[434],[435],[436],[437],[438],[439]]},{"type":"MultiLineString","properties":{"source":"openstreetmap.org","kind":"train","network":"\u0420\u0416\u0414","sort_rank":275,"ref":"355\/356 \u041c\u043e\u0441\u043a\u0432\u0430 \u2014 \u0423\u0444\u0430","min_zoom":6.0,"osm_relation":true},"arcs":[[440],[441],[442],[443]]},{"type":"MultiLineString","properties":{"kind":"train","name":"080 \u041c\u043e\u0441\u043a\u0432\u0430 \u041a\u0430\u0437\u0430\u043d\u0441\u043a\u0430\u044f \u2014 \u0411\u0435\u0440\u0435\u0449\u0438\u043d\u043e \u2014 \u0421\u0430\u0440\u043e\u0432","sort_rank":275,"source":"openstreetmap.org","min_zoom":6.0,"operator":"\u0420\u0416\u0414","ref":"080","osm_relation":true},"arcs":[[444],[445],[446]]},{"type":"MultiLineString","properties":{"source":"openstreetmap.org","kind":"train","name":"\u0420\u0435\u043b\u044c\u0441\u043e\u0432\u044b\u0439 \u0430\u0432\u0442\u043e\u0431\u0443\u0441 \u041e\u0437\u0451\u0440\u044b - \u0413\u043e\u043b\u0443\u0442\u0432\u0438\u043d","sort_rank":275,"min_zoom":6.0,"osm_relation":true},"arcs":[[447],[448],[449],[450],[451],[452],[453],[454],[455],[456],[457],[458],[459],[460]]},{"type":"MultiLineString","properties":{"kind":"train","name":"\u041b\u044e\u0431\u043b\u0438\u043d\u043e-\u0414\u0430\u0447\u043d\u043e\u0435 \u2014 \u041a\u0443\u0431\u0438\u043d\u043a\u0430","sort_rank":275,"source":"openstreetmap.org","min_zoom":6.0,"ref":"6035","osm_relation":true,"network":"\u0420\u0416\u0414"},"arcs":[[461],[462]]},{"type":"MultiLineString","properties":{"kind":"train","name":"\u041f\u043e\u0435\u0437\u0434 \u2116 076: \u041c\u043e\u0441\u043a\u0432\u0430 \u041a\u0430\u0437\u0430\u043d\u0441\u043a\u0430\u044f \u2014 \u041d\u0435\u0440\u044e\u043d\u0433\u0440\u0438","sort_rank":275,"source":"openstreetmap.org","min_zoom":6.0,"operator":"\u0420\u0416\u0414","ref":"076","osm_relation":true},"arcs":[[463],[464],[465]]},{"type":"MultiLineString","properties":{"kind":"train","name":"Moscova - Chi\u015fin\u0103u","sort_rank":275,"name:de":"Moskau - Kischinau","source":"openstreetmap.org","min_zoom":6.0,"name:uk":"\u041c\u043e\u0441\u043a\u0432\u0430 - \u041a\u0456\u0448\u0456\u043d\u0435\u0443","operator":"CFM","ref":"341\u0424: Moscova - Chi\u015fin\u0103u","osm_relation":true,"network":"train"},"arcs":[[466],[467],[468],[469],[470],[471],[472],[473],[474],[475],[476],[477],[478],[479]]},{"type":"LineString","properties":{"kind":"train","name":"Moscow \u2014 Beijing","sort_rank":275,"name:de":"Moskau \u2014 Peking","source":"openstreetmap.org","min_zoom":6.0,"id":-2950595,"osm_relation":true},"arcs":[480]},{"type":"LineString","properties":{"source":"openstreetmap.org","kind":"train","sort_rank":275,"ref":"\u041c\u0438\u0445\u043d\u0435\u0432\u043e - \u0414\u0435\u0442\u043a\u043e\u0432\u043e","min_zoom":6.0,"osm_relation":true,"id":-2463830},"arcs":[481]},{"type":"MultiLineString","properties":{"kind":"train","name":"\u0416\u0438\u043b\u0451\u0432\u043e \u2014 \u041a\u0443\u0440\u043e\u0432\u0441\u043a\u0430\u044f","sort_rank":275,"source":"openstreetmap.org","min_zoom":6.0,"ref":"\u0416\u0438\u043b\u0451\u0432\u043e - \u041a\u0443\u0440\u043e\u0432\u0441\u043a\u0430\u044f","osm_relation":true,"network":"\u041c\u043e\u0441\u043a\u043e\u0432\u0441\u043a\u0430\u044f \u043e\u0431\u043b\u0430\u0441\u0442\u044c"},"arcs":[[482],[483],[484],[485],[486],[487],[488],[489],[490],[491],[492],[493],[494],[495],[496],[497],[498],[499],[500],[501]]},{"type":"MultiLineString","properties":{"kind":"train","network":"\u0420\u0416\u0414","sort_rank":275,"source":"openstreetmap.org","min_zoom":6.0,"ref":"151\/1 \u041c\u043e\u0441\u043a\u0432\u0430 \u2014 \u0410\u043d\u0430\u043f\u0430","osm_relation":true,"name":"\u041c\u043e\u0441\u043a\u0432\u0430 \u2014 \u0410\u043d\u0430\u043f\u0430"},"arcs":[[502],[503],[504],[505],[506]]}]},"pois":{"type":"GeometryCollection","geometries":[]},"boundaries":{"type":"GeometryCollection","geometries":[{"type":"MultiLineString","properties":{"source":"naturalearthdata.com","kind":"region","name":"Kaluga - Moskovsskaya","sort_rank":256,"kind_detail":"4","min_zoom":2.0,"id":6413},"arcs":[[0],[1],[2],[3],[4]]},{"type":"LineString","properties":{"source":"naturalearthdata.com","kind":"region","name":"Kaluga - Moskva","sort_rank":256,"kind_detail":"4","min_zoom":2.0,"id":6414},"arcs":[5]},{"type":"MultiLineString","properties":{"source":"naturalearthdata.com","kind":"region","name":"Tula - Moskovsskaya","sort_rank":256,"kind_detail":"4","min_zoom":2.0,"id":6418},"arcs":[[6],[7],[8],[9],[10],[11],[12],[13],[14],[15],[16],[17],[18]]},{"type":"MultiLineString","properties":{"source":"naturalearthdata.com","kind":"region","name":"Tula - Kaluga","sort_rank":256,"kind_detail":"4","min_zoom":2.0,"id":6370},"arcs":[[19],[20],[21],[22],[23],[24],[25],[26],[27],[28],[29]]},{"type":"MultiLineString","properties":{"source":"naturalearthdata.com","kind":"region","name":"Ryazan' - Tula","sort_rank":256,"kind_detail":"4","min_zoom":2.0,"id":6371},"arcs":[[30],[31],[32]]},{"type":"MultiLineString","properties":{"source":"naturalearthdata.com","kind":"region","name":"Vladimir - Moskovsskaya","sort_rank":256,"kind_detail":"4","min_zoom":2.0,"id":6416},"arcs":[[33],[34]]},{"type":"MultiLineString","properties":{"source":"naturalearthdata.com","kind":"region","name":"Moskovsskaya - Ryazan'","sort_rank":256,"kind_detail":"4","min_zoom":2.0,"id":6417},"arcs":[[35],[36],[37],[38],[39],[40],[41],[42],[43]]},{"type":"MultiLineString","properties":{"source":"naturalearthdata.com","kind":"region","name":"Moskva - Moskovsskaya","sort_rank":256,"kind_detail":"4","min_zoom":2.0,"id":6549},"arcs":[[44],[45],[46],[47],[48],[49],[50],[51],[52],[53]]},{"type":"MultiLineString","properties":{"source":"naturalearthdata.com","kind":"region","name":"Moskva - Moskovsskaya","sort_rank":256,"kind_detail":"4","min_zoom":7.0,"id":8406},"arcs":[[54],[55]]}]},"roads":{"type":"GeometryCollection","geometries":[{"type":"LineString","properties":{"source":"naturalearthdata.com","kind":"major_road","kind_detail":"secondary","sort_rank":379,"landuse_kind":"urban_area","min_zoom":3.0,"id":12706},"arcs":[507]},{"type":"LineString","properties":{"source":"naturalearthdata.com","kind":"highway","kind_detail":"motorway","sort_rank":383,"landuse_kind":"urban_area","min_zoom":5.0,"id":12707},"arcs":[508]},{"type":"LineString","properties":{"source":"naturalearthdata.com","kind":"major_road","kind_detail":"secondary","sort_rank":379,"landuse_kind":"urban_area","min_zoom":3.0,"id":12710},"arcs":[509]},{"type":"LineString","properties":{"source":"naturalearthdata.com","kind":"major_road","kind_detail":"secondary","sort_rank":379,"landuse_kind":"urban_area","min_zoom":3.0,"id":12711},"arcs":[510]},{"type":"LineString","properties":{"source":"naturalearthdata.com","kind":"major_road","kind_detail":"secondary","sort_rank":379,"landuse_kind":"urban_area","min_zoom":3.0,"id":12712},"arcs":[511]},{"type":"LineString","properties":{"source":"naturalearthdata.com","kind":"major_road","kind_detail":"secondary","sort_rank":379,"landuse_kind":"urban_area","min_zoom":3.0,"id":12713},"arcs":[512]},{"type":"LineString","properties":{"source":"naturalearthdata.com","kind":"major_road","kind_detail":"secondary","sort_rank":379,"landuse_kind":"urban_area","min_zoom":3.0,"id":12714},"arcs":[513]},{"type":"LineString","properties":{"source":"naturalearthdata.com","kind":"major_road","kind_detail":"secondary","sort_rank":379,"landuse_kind":"urban_area","min_zoom":3.0,"id":12716},"arcs":[514]},{"type":"LineString","properties":{"source":"naturalearthdata.com","kind":"major_road","kind_detail":"secondary","sort_rank":379,"landuse_kind":"urban_area","min_zoom":3.0,"id":12717},"arcs":[515]},{"type":"LineString","properties":{"source":"naturalearthdata.com","kind":"minor_road","kind_detail":"tertiary","sort_rank":355,"landuse_kind":"urban_area","min_zoom":6.0,"id":12722},"arcs":[516]},{"type":"MultiLineString","properties":{"source":"naturalearthdata.com","kind":"minor_road","sort_rank":355,"kind_detail":"tertiary","min_zoom":6.0,"id":12722},"arcs":[[517],[518]]},{"type":"LineString","properties":{"source":"naturalearthdata.com","kind":"major_road","kind_detail":"secondary","sort_rank":379,"landuse_kind":"urban_area","min_zoom":3.0,"id":12724},"arcs":[519]},{"type":"LineString","properties":{"source":"naturalearthdata.com","kind":"minor_road","kind_detail":"tertiary","sort_rank":355,"landuse_kind":"urban_area","min_zoom":6.0,"id":12728},"arcs":[520]},{"type":"LineString","properties":{"source":"naturalearthdata.com","kind":"minor_road","sort_rank":355,"kind_detail":"tertiary","min_zoom":6.0,"id":12728},"arcs":[521]},{"type":"LineString","properties":{"source":"naturalearthdata.com","kind":"major_road","kind_detail":"secondary","sort_rank":379,"landuse_kind":"urban_area","min_zoom":3.0,"id":12733},"arcs":[522]},{"type":"LineString","properties":{"source":"naturalearthdata.com","kind":"major_road","kind_detail":"secondary","sort_rank":379,"landuse_kind":"urban_area","min_zoom":3.0,"id":12734},"arcs":[523]},{"type":"LineString","properties":{"source":"naturalearthdata.com","kind":"major_road","kind_detail":"secondary","sort_rank":379,"landuse_kind":"urban_area","min_zoom":3.0,"id":12743},"arcs":[524]},{"type":"MultiLineString","properties":{"source":"naturalearthdata.com","kind":"highway","kind_detail":"motorway","sort_rank":383,"landuse_kind":"urban_area","min_zoom":5.0,"id":12744},"arcs":[[525],[526]]},{"type":"LineString","properties":{"source":"naturalearthdata.com","kind":"highway","sort_rank":383,"kind_detail":"motorway","min_zoom":5.0,"id":12744},"arcs":[527]},{"type":"LineString","properties":{"source":"naturalearthdata.com","kind":"major_road","kind_detail":"secondary","sort_rank":379,"landuse_kind":"urban_area","min_zoom":3.0,"id":12747},"arcs":[528]},{"type":"LineString","properties":{"source":"naturalearthdata.com","kind":"major_road","sort_rank":379,"kind_detail":"secondary","min_zoom":3.0,"id":12747},"arcs":[529]},{"type":"LineString","properties":{"source":"naturalearthdata.com","kind":"highway","kind_detail":"motorway","sort_rank":383,"landuse_kind":"urban_area","min_zoom":5.0,"id":12750},"arcs":[530]},{"type":"LineString","properties":{"source":"naturalearthdata.com","kind":"major_road","kind_detail":"secondary","sort_rank":379,"landuse_kind":"urban_area","min_zoom":3.0,"id":12751},"arcs":[531]},{"type":"LineString","properties":{"source":"naturalearthdata.com","kind":"major_road","kind_detail":"secondary","sort_rank":379,"landuse_kind":"urban_area","min_zoom":3.0,"id":12761},"arcs":[532]},{"type":"LineString","properties":{"source":"naturalearthdata.com","kind":"minor_road","kind_detail":"tertiary","sort_rank":355,"landuse_kind":"urban_area","min_zoom":6.0,"id":12764},"arcs":[533]},{"type":"LineString","properties":{"source":"naturalearthdata.com","kind":"major_road","kind_detail":"secondary","sort_rank":379,"landuse_kind":"urban_area","min_zoom":3.0,"id":12765},"arcs":[534]},{"type":"LineString","properties":{"source":"naturalearthdata.com","kind":"major_road","kind_detail":"secondary","sort_rank":379,"landuse_kind":"urban_area","min_zoom":3.0,"id":12766},"arcs":[535]},{"type":"LineString","properties":{"source":"naturalearthdata.com","kind":"major_road","kind_detail":"secondary","sort_rank":379,"landuse_kind":"urban_area","min_zoom":3.0,"id":12768},"arcs":[536]},{"type":"LineString","properties":{"source":"naturalearthdata.com","kind":"highway","kind_detail":"motorway","sort_rank":383,"landuse_kind":"urban_area","min_zoom":5.0,"id":12769},"arcs":[537]},{"type":"MultiLineString","properties":{"source":"naturalearthdata.com","kind":"minor_road","kind_detail":"tertiary","sort_rank":355,"landuse_kind":"urban_area","min_zoom":6.0,"id":12772},"arcs":[[538],[539]]},{"type":"LineString","properties":{"source":"naturalearthdata.com","kind":"minor_road","sort_rank":355,"kind_detail":"tertiary","min_zoom":6.0,"id":12772},"arcs":[540]},{"type":"LineString","properties":{"source":"naturalearthdata.com","kind":"minor_road","sort_rank":355,"kind_detail":"tertiary","min_zoom":6.0,"id":12776},"arcs":[541]},{"type":"LineString","properties":{"source":"naturalearthdata.com","kind":"minor_road","kind_detail":"tertiary","sort_rank":355,"landuse_kind":"urban_area","min_zoom":6.0,"id":12777},"arcs":[542]},{"type":"LineString","properties":{"source":"naturalearthdata.com","kind":"minor_road","sort_rank":355,"kind_detail":"tertiary","min_zoom":6.0,"id":12777},"arcs":[543]},{"type":"MultiLineString","properties":{"source":"naturalearthdata.com","kind":"major_road","kind_detail":"secondary","sort_rank":379,"landuse_kind":"urban_area","min_zoom":3.0,"id":12779},"arcs":[[544],[545]]},{"type":"MultiLineString","properties":{"source":"naturalearthdata.com","kind":"major_road","sort_rank":379,"kind_detail":"secondary","min_zoom":3.0,"id":12779},"arcs":[[546],[547]]},{"type":"LineString","properties":{"source":"naturalearthdata.com","kind":"major_road","kind_detail":"secondary","sort_rank":379,"landuse_kind":"urban_area","min_zoom":3.0,"id":12784},"arcs":[548]},{"type":"LineString","properties":{"source":"naturalearthdata.com","kind":"highway","kind_detail":"motorway","sort_rank":383,"landuse_kind":"urban_area","min_zoom":5.0,"id":12785},"arcs":[549]},{"type":"LineString","properties":{"source":"naturalearthdata.com","kind":"major_road","kind_detail":"secondary","sort_rank":379,"landuse_kind":"urban_area","min_zoom":3.0,"id":12789},"arcs":[550]},{"type":"LineString","properties":{"source":"naturalearthdata.com","kind":"major_road","kind_detail":"secondary","sort_rank":379,"landuse_kind":"urban_area","min_zoom":3.0,"id":12794},"arcs":[551]},{"type":"LineString","properties":{"source":"naturalearthdata.com","kind":"major_road","sort_rank":379,"kind_detail":"secondary","min_zoom":3.0,"id":12794},"arcs":[552]},{"type":"LineString","properties":{"source":"naturalearthdata.com","kind":"minor_road","kind_detail":"tertiary","sort_rank":355,"landuse_kind":"urban_area","min_zoom":6.0,"id":12795},"arcs":[553]},{"type":"LineString","properties":{"source":"naturalearthdata.com","kind":"minor_road","sort_rank":355,"kind_detail":"tertiary","min_zoom":6.0,"id":12795},"arcs":[554]},{"type":"LineString","properties":{"source":"naturalearthdata.com","kind":"highway","kind_detail":"motorway","sort_rank":383,"landuse_kind":"urban_area","min_zoom":5.0,"id":12796},"arcs":[555]},{"type":"LineString","properties":{"source":"naturalearthdata.com","kind":"major_road","kind_detail":"secondary","sort_rank":379,"landuse_kind":"urban_area","min_zoom":3.0,"id":12797},"arcs":[556]},{"type":"MultiLineString","properties":{"source":"naturalearthdata.com","kind":"highway","kind_detail":"motorway","sort_rank":383,"landuse_kind":"urban_area","min_zoom":5.0,"id":12800},"arcs":[[557],[558]]},{"type":"LineString","properties":{"source":"naturalearthdata.com","kind":"highway","sort_rank":383,"kind_detail":"motorway","min_zoom":5.0,"id":12800},"arcs":[559]},{"type":"LineString","properties":{"source":"naturalearthdata.com","kind":"major_road","kind_detail":"secondary","sort_rank":379,"landuse_kind":"urban_area","min_zoom":3.0,"id":12804},"arcs":[560]},{"type":"LineString","properties":{"source":"naturalearthdata.com","kind":"highway","kind_detail":"motorway","sort_rank":383,"landuse_kind":"urban_area","min_zoom":5.0,"id":12805},"arcs":[561]},{"type":"LineString","properties":{"source":"naturalearthdata.com","kind":"major_road","sort_rank":379,"kind_detail":"secondary","min_zoom":3.0,"id":12806},"arcs":[562]},{"type":"LineString","properties":{"source":"naturalearthdata.com","kind":"highway","kind_detail":"motorway","sort_rank":383,"landuse_kind":"urban_area","min_zoom":5.0,"id":12807},"arcs":[563]},{"type":"MultiLineString","properties":{"source":"naturalearthdata.com","kind":"major_road","kind_detail":"secondary","sort_rank":379,"landuse_kind":"urban_area","min_zoom":3.0,"id":12819},"arcs":[[564],[565]]},{"type":"LineString","properties":{"source":"naturalearthdata.com","kind":"major_road","sort_rank":379,"kind_detail":"secondary","min_zoom":3.0,"id":12819},"arcs":[566]},{"type":"LineString","properties":{"source":"naturalearthdata.com","kind":"major_road","kind_detail":"secondary","sort_rank":379,"landuse_kind":"urban_area","min_zoom":3.0,"id":12824},"arcs":[567]},{"type":"LineString","properties":{"source":"naturalearthdata.com","kind":"major_road","sort_rank":379,"kind_detail":"secondary","min_zoom":3.0,"id":12824},"arcs":[568]},{"type":"LineString","properties":{"source":"naturalearthdata.com","kind":"major_road","sort_rank":379,"kind_detail":"secondary","min_zoom":3.0,"id":12840},"arcs":[569]},{"type":"LineString","properties":{"source":"naturalearthdata.com","kind":"major_road","kind_detail":"secondary","sort_rank":379,"landuse_kind":"urban_area","min_zoom":3.0,"id":12844},"arcs":[570]},{"type":"MultiLineString","properties":{"source":"naturalearthdata.com","kind":"major_road","kind_detail":"secondary","sort_rank":379,"landuse_kind":"urban_area","min_zoom":3.0,"id":12844},"arcs":[[571],[572]]},{"type":"MultiLineString","properties":{"source":"naturalearthdata.com","kind":"major_road","sort_rank":379,"kind_detail":"secondary","min_zoom":3.0,"id":12844},"arcs":[[573],[574],[575]]},{"type":"LineString","properties":{"source":"naturalearthdata.com","kind":"minor_road","kind_detail":"tertiary","sort_rank":355,"landuse_kind":"urban_area","min_zoom":6.0,"id":12845},"arcs":[576]},{"type":"LineString","properties":{"source":"naturalearthdata.com","kind":"minor_road","sort_rank":355,"kind_detail":"tertiary","min_zoom":6.0,"id":12845},"arcs":[577]},{"type":"LineString","properties":{"source":"naturalearthdata.com","kind":"minor_road","kind_detail":"tertiary","sort_rank":355,"landuse_kind":"urban_area","min_zoom":6.0,"id":12858},"arcs":[578]},{"type":"MultiLineString","properties":{"source":"naturalearthdata.com","kind":"minor_road","sort_rank":355,"kind_detail":"tertiary","min_zoom":6.0,"id":12858},"arcs":[[579],[580]]},{"type":"LineString","properties":{"source":"naturalearthdata.com","kind":"major_road","sort_rank":379,"kind_detail":"secondary","min_zoom":3.0,"id":12865},"arcs":[581]},{"type":"LineString","properties":{"source":"naturalearthdata.com","kind":"minor_road","kind_detail":"tertiary","sort_rank":355,"landuse_kind":"urban_area","min_zoom":6.0,"id":12866},"arcs":[582]},{"type":"MultiLineString","properties":{"source":"naturalearthdata.com","kind":"minor_road","sort_rank":355,"kind_detail":"tertiary","min_zoom":6.0,"id":12866},"arcs":[[583],[584]]},{"type":"LineString","properties":{"source":"naturalearthdata.com","kind":"minor_road","kind_detail":"tertiary","sort_rank":355,"landuse_kind":"urban_area","min_zoom":7.0,"id":12883},"arcs":[585]},{"type":"LineString","properties":{"source":"naturalearthdata.com","kind":"minor_road","kind_detail":"tertiary","sort_rank":355,"landuse_kind":"urban_area","min_zoom":7.0,"id":12883},"arcs":[586]},{"type":"LineString","properties":{"source":"naturalearthdata.com","kind":"minor_road","sort_rank":355,"kind_detail":"tertiary","min_zoom":7.0,"id":12883},"arcs":[587]},{"type":"LineString","properties":{"source":"naturalearthdata.com","kind":"minor_road","kind_detail":"tertiary","sort_rank":355,"landuse_kind":"urban_area","min_zoom":6.0,"id":12887},"arcs":[588]},{"type":"MultiLineString","properties":{"source":"naturalearthdata.com","kind":"minor_road","sort_rank":355,"kind_detail":"tertiary","min_zoom":6.0,"id":12887},"arcs":[[589],[590]]},{"type":"MultiLineString","properties":{"source":"naturalearthdata.com","kind":"major_road","kind_detail":"secondary","sort_rank":379,"landuse_kind":"urban_area","min_zoom":3.0,"id":12888},"arcs":[[591],[592]]},{"type":"MultiLineString","properties":{"source":"naturalearthdata.com","kind":"major_road","sort_rank":379,"kind_detail":"secondary","min_zoom":3.0,"id":12888},"arcs":[[593],[594]]},{"type":"LineString","properties":{"source":"naturalearthdata.com","kind":"major_road","kind_detail":"secondary","sort_rank":379,"landuse_kind":"urban_area","min_zoom":4.0,"id":12893},"arcs":[595]},{"type":"LineString","properties":{"source":"naturalearthdata.com","kind":"major_road","kind_detail":"secondary","sort_rank":379,"landuse_kind":"urban_area","min_zoom":4.0,"id":12893},"arcs":[596]},{"type":"MultiLineString","properties":{"source":"naturalearthdata.com","kind":"major_road","sort_rank":379,"kind_detail":"secondary","min_zoom":4.0,"id":12893},"arcs":[[597],[598]]},{"type":"LineString","properties":{"source":"naturalearthdata.com","kind":"minor_road","sort_rank":355,"kind_detail":"tertiary","min_zoom":6.0,"id":12894},"arcs":[599]},{"type":"LineString","properties":{"source":"naturalearthdata.com","kind":"minor_road","sort_rank":355,"kind_detail":"tertiary","min_zoom":6.0,"id":12895},"arcs":[600]},{"type":"LineString","properties":{"source":"naturalearthdata.com","kind":"major_road","sort_rank":379,"kind_detail":"secondary","min_zoom":3.0,"id":12905},"arcs":[601]},{"type":"LineString","properties":{"source":"naturalearthdata.com","kind":"minor_road","kind_detail":"tertiary","sort_rank":355,"landuse_kind":"urban_area","min_zoom":6.0,"id":12911},"arcs":[602]},{"type":"LineString","properties":{"source":"naturalearthdata.com","kind":"minor_road","sort_rank":355,"kind_detail":"tertiary","min_zoom":6.0,"id":12911},"arcs":[603]},{"type":"LineString","properties":{"source":"naturalearthdata.com","kind":"minor_road","kind_detail":"tertiary","sort_rank":355,"landuse_kind":"urban_area","min_zoom":7.0,"id":12913},"arcs":[604]},{"type":"LineString","properties":{"source":"naturalearthdata.com","kind":"minor_road","sort_rank":355,"kind_detail":"tertiary","min_zoom":7.0,"id":12913},"arcs":[605]},{"type":"LineString","properties":{"source":"naturalearthdata.com","kind":"minor_road","sort_rank":355,"kind_detail":"tertiary","min_zoom":6.0,"id":12914},"arcs":[606]},{"type":"LineString","properties":{"source":"naturalearthdata.com","kind":"major_road","sort_rank":379,"kind_detail":"secondary","min_zoom":3.0,"id":12922},"arcs":[607]},{"type":"LineString","properties":{"source":"naturalearthdata.com","kind":"major_road","sort_rank":379,"kind_detail":"secondary","min_zoom":3.0,"id":12929},"arcs":[608]},{"type":"LineString","properties":{"source":"naturalearthdata.com","kind":"minor_road","sort_rank":355,"kind_detail":"tertiary","min_zoom":6.0,"id":12935},"arcs":[609]},{"type":"LineString","properties":{"source":"naturalearthdata.com","kind":"highway","kind_detail":"motorway","sort_rank":383,"landuse_kind":"urban_area","min_zoom":3.0,"id":12936},"arcs":[610]},{"type":"LineString","properties":{"source":"naturalearthdata.com","kind":"highway","kind_detail":"motorway","sort_rank":383,"landuse_kind":"urban_area","min_zoom":3.0,"id":12936},"arcs":[611]},{"type":"MultiLineString","properties":{"source":"naturalearthdata.com","kind":"highway","sort_rank":383,"kind_detail":"motorway","min_zoom":3.0,"id":12936},"arcs":[[612],[613]]},{"type":"LineString","properties":{"source":"naturalearthdata.com","kind":"minor_road","sort_rank":355,"kind_detail":"tertiary","min_zoom":6.0,"id":12941},"arcs":[614]},{"type":"LineString","properties":{"source":"naturalearthdata.com","kind":"highway","kind_detail":"motorway","sort_rank":383,"landuse_kind":"urban_area","min_zoom":3.0,"id":12942},"arcs":[615]},{"type":"LineString","properties":{"source":"naturalearthdata.com","kind":"highway","sort_rank":383,"kind_detail":"motorway","min_zoom":3.0,"id":12942},"arcs":[616]},{"type":"LineString","properties":{"source":"naturalearthdata.com","kind":"minor_road","kind_detail":"tertiary","sort_rank":355,"landuse_kind":"urban_area","min_zoom":7.0,"id":12944},"arcs":[617]},{"type":"LineString","properties":{"source":"naturalearthdata.com","kind":"minor_road","sort_rank":355,"kind_detail":"tertiary","min_zoom":7.0,"id":12944},"arcs":[618]},{"type":"LineString","properties":{"source":"naturalearthdata.com","kind":"minor_road","sort_rank":355,"kind_detail":"tertiary","min_zoom":6.0,"id":12945},"arcs":[619]},{"type":"LineString","properties":{"source":"naturalearthdata.com","kind":"minor_road","sort_rank":355,"kind_detail":"tertiary","min_zoom":6.0,"id":12946},"arcs":[620]},{"type":"LineString","properties":{"source":"naturalearthdata.com","kind":"minor_road","kind_detail":"tertiary","sort_rank":355,"landuse_kind":"urban_area","min_zoom":6.0,"id":12948},"arcs":[621]},{"type":"LineString","properties":{"source":"naturalearthdata.com","kind":"minor_road","sort_rank":355,"kind_detail":"tertiary","min_zoom":6.0,"id":12948},"arcs":[622]},{"type":"LineString","properties":{"source":"naturalearthdata.com","kind":"highway","sort_rank":383,"kind_detail":"motorway","min_zoom":3.0,"id":12960},"arcs":[623]},{"type":"LineString","properties":{"source":"naturalearthdata.com","kind":"minor_road","sort_rank":355,"kind_detail":"tertiary","min_zoom":7.0,"id":12962},"arcs":[624]},{"type":"LineString","properties":{"source":"naturalearthdata.com","kind":"major_road","sort_rank":379,"kind_detail":"secondary","min_zoom":4.0,"id":12963},"arcs":[625]},{"type":"LineString","properties":{"source":"naturalearthdata.com","kind":"major_road","kind_detail":"secondary","sort_rank":379,"landuse_kind":"urban_area","min_zoom":3.0,"id":12965},"arcs":[626]},{"type":"MultiLineString","properties":{"source":"naturalearthdata.com","kind":"major_road","sort_rank":379,"kind_detail":"secondary","min_zoom":3.0,"id":12965},"arcs":[[627],[628]]},{"type":"LineString","properties":{"source":"naturalearthdata.com","kind":"major_road","sort_rank":379,"kind_detail":"secondary","min_zoom":3.0,"id":12966},"arcs":[629]},{"type":"LineString","properties":{"source":"naturalearthdata.com","kind":"minor_road","sort_rank":355,"kind_detail":"tertiary","min_zoom":6.0,"id":12989},"arcs":[630]},{"type":"LineString","properties":{"source":"naturalearthdata.com","kind":"major_road","sort_rank":379,"kind_detail":"secondary","min_zoom":4.0,"id":12999},"arcs":[631]},{"type":"LineString","properties":{"source":"naturalearthdata.com","kind":"major_road","sort_rank":379,"kind_detail":"secondary","min_zoom":3.0,"id":13000},"arcs":[632]},{"type":"LineString","properties":{"source":"naturalearthdata.com","kind":"highway","sort_rank":383,"kind_detail":"motorway","min_zoom":3.0,"id":13001},"arcs":[633]},{"type":"LineString","properties":{"source":"naturalearthdata.com","kind":"minor_road","kind_detail":"tertiary","sort_rank":355,"landuse_kind":"urban_area","min_zoom":7.0,"id":13019},"arcs":[634]},{"type":"MultiLineString","properties":{"source":"naturalearthdata.com","kind":"minor_road","sort_rank":355,"kind_detail":"tertiary","min_zoom":7.0,"id":13019},"arcs":[[635],[636]]},{"type":"LineString","properties":{"source":"naturalearthdata.com","kind":"major_road","kind_detail":"secondary","sort_rank":379,"landuse_kind":"urban_area","min_zoom":3.0,"id":13020},"arcs":[637]},{"type":"LineString","properties":{"source":"naturalearthdata.com","kind":"major_road","sort_rank":379,"kind_detail":"secondary","min_zoom":3.0,"id":13020},"arcs":[638]},{"type":"LineString","properties":{"source":"naturalearthdata.com","kind":"major_road","kind_detail":"secondary","sort_rank":379,"landuse_kind":"urban_area","min_zoom":3.0,"id":13021},"arcs":[639]},{"type":"LineString","properties":{"source":"naturalearthdata.com","kind":"major_road","sort_rank":379,"kind_detail":"secondary","min_zoom":3.0,"id":13021},"arcs":[640]},{"type":"LineString","properties":{"source":"naturalearthdata.com","kind":"highway","sort_rank":383,"kind_detail":"motorway","min_zoom":3.0,"id":13022},"arcs":[641]},{"type":"LineString","properties":{"source":"naturalearthdata.com","kind":"major_road","sort_rank":379,"kind_detail":"secondary","min_zoom":3.0,"id":13041},"arcs":[642]},{"type":"LineString","properties":{"source":"naturalearthdata.com","kind":"major_road","kind_detail":"secondary","sort_rank":379,"landuse_kind":"urban_area","min_zoom":3.0,"id":13042},"arcs":[643]},{"type":"LineString","properties":{"source":"naturalearthdata.com","kind":"major_road","sort_rank":379,"kind_detail":"secondary","min_zoom":3.0,"id":13042},"arcs":[644]},{"type":"LineString","properties":{"source":"naturalearthdata.com","kind":"minor_road","kind_detail":"tertiary","sort_rank":355,"landuse_kind":"urban_area","min_zoom":7.0,"id":13048},"arcs":[645]},{"type":"MultiLineString","properties":{"source":"naturalearthdata.com","kind":"minor_road","sort_rank":355,"kind_detail":"tertiary","min_zoom":7.0,"id":13048},"arcs":[[646],[647]]},{"type":"LineString","properties":{"source":"naturalearthdata.com","kind":"major_road","sort_rank":379,"kind_detail":"secondary","min_zoom":3.0,"id":13052},"arcs":[648]},{"type":"LineString","properties":{"source":"naturalearthdata.com","kind":"minor_road","kind_detail":"tertiary","sort_rank":355,"landuse_kind":"protected_area","min_zoom":7.0,"id":13064},"arcs":[649]},{"type":"LineString","properties":{"source":"naturalearthdata.com","kind":"minor_road","kind_detail":"tertiary","sort_rank":355,"landuse_kind":"urban_area","min_zoom":7.0,"id":13064},"arcs":[650]},{"type":"LineString","properties":{"source":"naturalearthdata.com","kind":"minor_road","kind_detail":"tertiary","sort_rank":355,"landuse_kind":"urban_area","min_zoom":7.0,"id":13064},"arcs":[651]},{"type":"MultiLineString","properties":{"source":"naturalearthdata.com","kind":"minor_road","sort_rank":355,"kind_detail":"tertiary","min_zoom":7.0,"id":13064},"arcs":[[652],[653]]},{"type":"LineString","properties":{"source":"naturalearthdata.com","kind":"major_road","kind_detail":"secondary","sort_rank":379,"landuse_kind":"urban_area","min_zoom":3.0,"id":13065},"arcs":[654]},{"type":"LineString","properties":{"source":"naturalearthdata.com","kind":"major_road","sort_rank":379,"kind_detail":"secondary","min_zoom":3.0,"id":13065},"arcs":[655]},{"type":"LineString","properties":{"source":"naturalearthdata.com","kind":"major_road","sort_rank":379,"kind_detail":"secondary","min_zoom":3.0,"id":13066},"arcs":[656]},{"type":"LineString","properties":{"source":"naturalearthdata.com","kind":"major_road","kind_detail":"secondary","sort_rank":379,"landuse_kind":"urban_area","min_zoom":3.0,"id":13067},"arcs":[657]},{"type":"LineString","properties":{"source":"naturalearthdata.com","kind":"major_road","kind_detail":"secondary","sort_rank":379,"landuse_kind":"urban_area","min_zoom":3.0,"id":13067},"arcs":[658]},{"type":"MultiLineString","properties":{"source":"naturalearthdata.com","kind":"major_road","sort_rank":379,"kind_detail":"secondary","min_zoom":3.0,"id":13067},"arcs":[[659],[660]]},{"type":"LineString","properties":{"source":"naturalearthdata.com","kind":"major_road","sort_rank":379,"kind_detail":"secondary","min_zoom":3.0,"id":13068},"arcs":[661]},{"type":"LineString","properties":{"source":"naturalearthdata.com","kind":"major_road","sort_rank":379,"kind_detail":"secondary","min_zoom":3.0,"id":13070},"arcs":[662]},{"type":"LineString","properties":{"source":"naturalearthdata.com","kind":"highway","sort_rank":383,"kind_detail":"motorway","min_zoom":3.0,"id":13071},"arcs":[663]},{"type":"LineString","properties":{"source":"naturalearthdata.com","kind":"highway","sort_rank":383,"kind_detail":"motorway","min_zoom":3.0,"id":13082},"arcs":[664]},{"type":"LineString","properties":{"source":"naturalearthdata.com","kind":"major_road","sort_rank":379,"kind_detail":"secondary","min_zoom":3.0,"id":13083},"arcs":[665]},{"type":"LineString","properties":{"source":"naturalearthdata.com","kind":"minor_road","sort_rank":355,"kind_detail":"tertiary","min_zoom":6.0,"id":13091},"arcs":[666]},{"type":"LineString","properties":{"source":"naturalearthdata.com","kind":"minor_road","sort_rank":355,"kind_detail":"tertiary","min_zoom":7.0,"id":13092},"arcs":[667]},{"type":"LineString","properties":{"source":"naturalearthdata.com","kind":"major_road","sort_rank":379,"kind_detail":"secondary","min_zoom":3.0,"id":13120},"arcs":[668]},{"type":"LineString","properties":{"source":"naturalearthdata.com","kind":"minor_road","kind_detail":"tertiary","sort_rank":355,"landuse_kind":"urban_area","min_zoom":6.0,"id":13130},"arcs":[669]},{"type":"MultiLineString","properties":{"source":"naturalearthdata.com","kind":"minor_road","sort_rank":355,"kind_detail":"tertiary","min_zoom":6.0,"id":13130},"arcs":[[670],[671]]},{"type":"LineString","properties":{"source":"naturalearthdata.com","kind":"major_road","sort_rank":379,"kind_detail":"secondary","min_zoom":3.0,"id":13133},"arcs":[672]},{"type":"LineString","properties":{"source":"naturalearthdata.com","kind":"major_road","kind_detail":"secondary","sort_rank":379,"landuse_kind":"park","min_zoom":3.0,"id":13134},"arcs":[673]},{"type":"LineString","properties":{"source":"naturalearthdata.com","kind":"major_road","kind_detail":"secondary","sort_rank":379,"landuse_kind":"urban_area","min_zoom":3.0,"id":13134},"arcs":[674]},{"type":"MultiLineString","properties":{"source":"naturalearthdata.com","kind":"major_road","sort_rank":379,"kind_detail":"secondary","min_zoom":3.0,"id":13134},"arcs":[[675],[676],[677]]},{"type":"LineString","properties":{"source":"naturalearthdata.com","kind":"major_road","kind_detail":"secondary","sort_rank":379,"landuse_kind":"urban_area","min_zoom":3.0,"id":13138},"arcs":[678]},{"type":"LineString","properties":{"source":"naturalearthdata.com","kind":"major_road","kind_detail":"secondary","sort_rank":379,"landuse_kind":"urban_area","min_zoom":3.0,"id":13138},"arcs":[679]},{"type":"LineString","properties":{"source":"naturalearthdata.com","kind":"major_road","sort_rank":379,"kind_detail":"secondary","min_zoom":3.0,"id":13138},"arcs":[680]},{"type":"LineString","properties":{"source":"naturalearthdata.com","kind":"highway","sort_rank":383,"kind_detail":"motorway","min_zoom":3.0,"id":13141},"arcs":[681]},{"type":"LineString","properties":{"source":"naturalearthdata.com","kind":"major_road","sort_rank":379,"kind_detail":"secondary","min_zoom":3.0,"id":13157},"arcs":[682]},{"type":"LineString","properties":{"source":"naturalearthdata.com","kind":"highway","sort_rank":383,"kind_detail":"motorway","min_zoom":3.0,"id":13159},"arcs":[683]},{"type":"LineString","properties":{"source":"naturalearthdata.com","kind":"minor_road","sort_rank":355,"kind_detail":"tertiary","min_zoom":7.0,"id":13160},"arcs":[684]},{"type":"LineString","properties":{"source":"naturalearthdata.com","kind":"minor_road","kind_detail":"tertiary","sort_rank":355,"landuse_kind":"urban_area","min_zoom":7.0,"id":13172},"arcs":[685]},{"type":"LineString","properties":{"source":"naturalearthdata.com","kind":"minor_road","sort_rank":355,"kind_detail":"tertiary","min_zoom":7.0,"id":13172},"arcs":[686]},{"type":"LineString","properties":{"source":"naturalearthdata.com","kind":"highway","kind_detail":"motorway","sort_rank":383,"landuse_kind":"urban_area","min_zoom":3.0,"id":13209},"arcs":[687]},{"type":"MultiLineString","properties":{"source":"naturalearthdata.com","kind":"highway","sort_rank":383,"kind_detail":"motorway","min_zoom":3.0,"id":13209},"arcs":[[688],[689]]},{"type":"LineString","properties":{"source":"naturalearthdata.com","kind":"highway","sort_rank":383,"kind_detail":"motorway","min_zoom":3.0,"id":13210},"arcs":[690]},{"type":"LineString","properties":{"source":"naturalearthdata.com","kind":"minor_road","kind_detail":"tertiary","sort_rank":355,"landuse_kind":"urban_area","min_zoom":7.0,"id":13211},"arcs":[691]},{"type":"LineString","properties":{"source":"naturalearthdata.com","kind":"minor_road","sort_rank":355,"kind_detail":"tertiary","min_zoom":7.0,"id":13211},"arcs":[692]},{"type":"LineString","properties":{"source":"naturalearthdata.com","kind":"highway","sort_rank":383,"kind_detail":"motorway","min_zoom":3.0,"id":13213},"arcs":[693]},{"type":"LineString","properties":{"source":"naturalearthdata.com","kind":"major_road","kind_detail":"secondary","sort_rank":379,"landuse_kind":"urban_area","min_zoom":3.0,"id":13273},"arcs":[694]},{"type":"LineString","properties":{"source":"naturalearthdata.com","kind":"major_road","sort_rank":379,"kind_detail":"secondary","min_zoom":3.0,"id":13273},"arcs":[695]},{"type":"LineString","properties":{"source":"naturalearthdata.com","kind":"major_road","sort_rank":379,"kind_detail":"secondary","min_zoom":3.0,"id":13312},"arcs":[696]},{"type":"LineString","properties":{"source":"naturalearthdata.com","kind":"highway","sort_rank":383,"kind_detail":"motorway","min_zoom":3.0,"id":13327},"arcs":[697]},{"type":"LineString","properties":{"source":"naturalearthdata.com","kind":"minor_road","kind_detail":"tertiary","sort_rank":355,"landuse_kind":"urban_area","min_zoom":7.0,"id":13331},"arcs":[698]},{"type":"LineString","properties":{"source":"naturalearthdata.com","kind":"minor_road","sort_rank":355,"kind_detail":"tertiary","min_zoom":7.0,"id":13331},"arcs":[699]},{"type":"LineString","properties":{"source":"naturalearthdata.com","kind":"minor_road","kind_detail":"tertiary","sort_rank":355,"landuse_kind":"urban_area","min_zoom":7.0,"id":13338},"arcs":[700]},{"type":"LineString","properties":{"source":"naturalearthdata.com","kind":"major_road","sort_rank":379,"kind_detail":"secondary","min_zoom":3.0,"id":13362},"arcs":[701]},{"type":"LineString","properties":{"source":"naturalearthdata.com","kind":"minor_road","sort_rank":355,"kind_detail":"tertiary","min_zoom":5.0,"id":13368},"arcs":[702]},{"type":"LineString","properties":{"source":"naturalearthdata.com","kind":"major_road","sort_rank":379,"kind_detail":"secondary","min_zoom":3.0,"id":13390},"arcs":[703]},{"type":"LineString","properties":{"source":"naturalearthdata.com","kind":"minor_road","sort_rank":355,"kind_detail":"tertiary","min_zoom":7.0,"id":13411},"arcs":[704]},{"type":"LineString","properties":{"source":"naturalearthdata.com","kind":"major_road","sort_rank":379,"kind_detail":"secondary","min_zoom":3.0,"id":13412},"arcs":[705]},{"type":"LineString","properties":{"source":"naturalearthdata.com","kind":"minor_road","sort_rank":355,"kind_detail":"tertiary","min_zoom":5.0,"id":13416},"arcs":[706]},{"type":"LineString","properties":{"source":"naturalearthdata.com","kind":"minor_road","kind_detail":"tertiary","sort_rank":355,"landuse_kind":"urban_area","min_zoom":7.0,"id":13432},"arcs":[707]},{"type":"LineString","properties":{"source":"naturalearthdata.com","kind":"minor_road","sort_rank":355,"kind_detail":"tertiary","min_zoom":7.0,"id":13432},"arcs":[708]},{"type":"LineString","properties":{"source":"naturalearthdata.com","kind":"major_road","sort_rank":379,"kind_detail":"secondary","min_zoom":4.0,"id":13433},"arcs":[709]},{"type":"LineString","properties":{"source":"naturalearthdata.com","kind":"major_road","sort_rank":379,"kind_detail":"secondary","min_zoom":4.0,"id":13458},"arcs":[710]},{"type":"LineString","properties":{"source":"naturalearthdata.com","kind":"major_road","sort_rank":379,"kind_detail":"secondary","min_zoom":3.0,"id":13459},"arcs":[711]},{"type":"LineString","properties":{"source":"naturalearthdata.com","kind":"minor_road","kind_detail":"tertiary","sort_rank":355,"landuse_kind":"urban_area","min_zoom":7.0,"id":13475},"arcs":[712]},{"type":"LineString","properties":{"source":"naturalearthdata.com","kind":"minor_road","sort_rank":355,"kind_detail":"tertiary","min_zoom":7.0,"id":13475},"arcs":[713]},{"type":"MultiLineString","properties":{"source":"naturalearthdata.com","kind":"minor_road","kind_detail":"tertiary","sort_rank":355,"landuse_kind":"urban_area","min_zoom":5.0,"id":13476},"arcs":[[714],[715]]},{"type":"MultiLineString","properties":{"source":"naturalearthdata.com","kind":"minor_road","sort_rank":355,"kind_detail":"tertiary","min_zoom":5.0,"id":13476},"arcs":[[716],[717]]},{"type":"LineString","properties":{"source":"naturalearthdata.com","kind":"major_road","sort_rank":379,"kind_detail":"secondary","min_zoom":3.0,"id":13483},"arcs":[718]},{"type":"LineString","properties":{"source":"naturalearthdata.com","kind":"minor_road","kind_detail":"tertiary","sort_rank":355,"landuse_kind":"urban_area","min_zoom":7.0,"id":13497},"arcs":[719]},{"type":"MultiLineString","properties":{"source":"naturalearthdata.com","kind":"minor_road","sort_rank":355,"kind_detail":"tertiary","min_zoom":7.0,"id":13497},"arcs":[[720],[721]]},{"type":"LineString","properties":{"source":"naturalearthdata.com","kind":"major_road","sort_rank":379,"kind_detail":"secondary","min_zoom":4.0,"id":13498},"arcs":[722]},{"type":"LineString","properties":{"source":"naturalearthdata.com","kind":"minor_road","kind_detail":"tertiary","sort_rank":355,"landuse_kind":"urban_area","min_zoom":5.0,"id":13499},"arcs":[723]},{"type":"LineString","properties":{"source":"naturalearthdata.com","kind":"minor_road","sort_rank":355,"kind_detail":"tertiary","min_zoom":7.0,"id":13502},"arcs":[724]},{"type":"LineString","properties":{"source":"naturalearthdata.com","kind":"major_road","kind_detail":"secondary","sort_rank":379,"landuse_kind":"urban_area","min_zoom":4.0,"id":13504},"arcs":[725]},{"type":"LineString","properties":{"source":"naturalearthdata.com","kind":"major_road","sort_rank":379,"kind_detail":"secondary","min_zoom":4.0,"id":13504},"arcs":[726]},{"type":"LineString","properties":{"source":"naturalearthdata.com","kind":"major_road","sort_rank":379,"kind_detail":"secondary","min_zoom":4.0,"id":13515},"arcs":[727]},{"type":"LineString","properties":{"source":"naturalearthdata.com","kind":"major_road","sort_rank":379,"kind_detail":"secondary","min_zoom":3.0,"id":13562},"arcs":[728]},{"type":"LineString","properties":{"source":"naturalearthdata.com","kind":"major_road","kind_detail":"secondary","sort_rank":379,"landuse_kind":"urban_area","min_zoom":4.0,"id":13564},"arcs":[729]},{"type":"LineString","properties":{"source":"naturalearthdata.com","kind":"minor_road","kind_detail":"tertiary","sort_rank":355,"landuse_kind":"urban_area","min_zoom":5.0,"id":13595},"arcs":[730]},{"type":"LineString","properties":{"source":"naturalearthdata.com","kind":"minor_road","sort_rank":355,"kind_detail":"tertiary","min_zoom":7.0,"id":13596},"arcs":[731]},{"type":"LineString","properties":{"source":"naturalearthdata.com","kind":"major_road","sort_rank":379,"kind_detail":"secondary","min_zoom":3.0,"id":13629},"arcs":[732]},{"type":"LineString","properties":{"source":"naturalearthdata.com","kind":"highway","kind_detail":"motorway","sort_rank":383,"landuse_kind":"urban_area","min_zoom":3.0,"id":48648},"arcs":[733]},{"type":"MultiLineString","properties":{"source":"naturalearthdata.com","kind":"highway","sort_rank":383,"kind_detail":"motorway","min_zoom":3.0,"id":48648},"arcs":[[734],[735]]},{"type":"LineString","properties":{"source":"naturalearthdata.com","kind":"highway","sort_rank":383,"kind_detail":"motorway","min_zoom":3.0,"id":48651},"arcs":[736]}]},"earth":{"type":"GeometryCollection","geometries":[{"type":"Polygon","properties":{"sort_rank":10,"source":"naturalearthdata.com","min_zoom":0.0,"kind":"earth","area":392091543542},"arcs":[[737]]}]},"landuse":{"type":"GeometryCollection","geometries":[{"type":"Polygon","properties":{"kind":"protected_area","protect_class":"14","area":159183008,"sort_rank":17,"operator":"\u041a\u0420\u041e\u041e\u0438\u0420","source":"openstreetmap.org","min_zoom":6.0,"tier":2,"id":-4243710,"osm_relation":true},"arcs":[[738]]},{"type":"MultiPolygon","properties":{"source":"naturalearthdata.com","kind":"urban_area","name":"","area":9536403218,"sort_rank":11,"min_zoom":4.0},"arcs":[[[739]],[[740]],[[741]],[[742]],[[743]],[[744]],[[745]],[[746]],[[747]],[[748]],[[749]],[[750]],[[751]],[[752]],[[753]],[[754]],[[755]],[[756]],[[757]],[[758]],[[759]],[[760]],[[761]],[[762]],[[763]],[[764]],[[765]],[[766]],[[767]],[[768]],[[769]],[[770]],[[771]],[[772],[773]],[[774]],[[775]],[[776]]]},{"type":"Polygon","properties":{"kind":"nature_reserve","protect_class":"1","area":146220992,"sort_rank":23,"operator":"\u0424\u0413\u0411\u0423 \u00ab\u041f\u0440\u0438\u043e\u043a\u0441\u043a\u043e-\u0422\u0435\u0440\u0440\u0430\u0441\u043d\u044b\u0439 \u0433\u043e\u0441\u0443\u0434\u0430\u0440\u0441\u0442\u0432\u0435\u043d\u043d\u044b\u0439 \u0437\u0430\u043f\u043e\u0432\u0435\u0434\u043d\u0438\u043a\u00bb","source":"openstreetmap.org","min_zoom":7.0,"tier":2,"id":104412092},"arcs":[[777]]},{"type":"Polygon","properties":{"kind":"park","area":1428359936,"sort_rank":24,"source":"openstreetmap.org","min_zoom":4.0,"tier":2,"id":-2169138,"osm_relation":true},"arcs":[[778],[779]]}]}},"type":"Topology","transform":{"translate":[36.5625,54.1624339681],"scale":[0.0006866455,0.0003940769]},"arcs":[[[51,2818],[-9,4],[-6,7],[-2,9],[-2,8],[0,9],[-1,10],[1,9],[3,23],[0,12],[-4,15],[-8,7],[-10,3],[-13,2]],[[325,2609],[-8,4],[-5,6],[-1,7],[1,7],[7,16],[6,34],[-4,16],[-5,13],[-6,13],[-35,49],[-18,14],[-10,6],[-10,3],[-52,7],[-58,30],[-16,4]],[[111,2838],[-9,-1],[-8,-3],[-15,-11],[-10,-5],[-18,0]],[[498,2707],[-12,-2],[-13,-8],[-8,-8],[-4,-9],[-1,-9],[-2,-12],[-3,-12],[-8,-15],[-17,-8],[-105,-15]],[[1014,1709],[-86,60],[-18,21],[2,7],[4,12],[7,16],[4,12],[2,12],[-2,21],[-4,11],[-6,9],[-49,52],[-8,14],[-5,13],[1,10],[-3,14],[-5,18],[-36,91]],[[812,2102],[-47,119],[-4,16],[-3,16],[-2,39],[4,76],[-5,10],[-7,11],[-21,2],[-11,3],[-14,13],[-6,10],[-11,42],[-57,77],[-31,24],[-16,8],[-7,8],[-4,9],[-12,39],[-4,10],[-26,56],[-21,17],[-9,0]],[[2054,1540],[-9,2],[-8,6],[-4,11],[1,21],[1,15],[-1,19],[-3,13],[-20,48],[-7,25],[-138,15]],[[1866,1715],[-20,-5],[-35,-24],[-15,-6]],[[1197,1675],[-183,34]],[[1615,1398],[-156,59],[-7,5],[-3,11],[-1,9],[0,10],[-3,8],[-4,6],[-5,6],[-66,45],[-8,8],[-19,25],[-8,14],[-7,15],[-7,25],[-6,15],[-7,15],[-4,7],[-5,6],[-10,8],[-9,2],[-13,0]],[[1267,1697],[-70,-22]],[[1796,1680],[-40,2]],[[1756,1682],[-18,-5],[-9,-8],[1,-27],[3,-9],[4,-9],[13,-21],[3,-7],[3,-8],[2,-8],[1,-10],[-1,-10],[-16,-104],[-26,-23],[-101,-35]],[[2302,1316],[-9,4],[-9,11],[-20,32],[-18,10],[-56,2],[-24,13],[-15,11],[-6,8],[-4,10],[-1,18],[1,14],[4,22],[1,10],[-1,9],[-5,11],[-10,12],[-21,18],[-12,7],[-8,4]],[[2089,1542],[-35,-2]],[[2589,1236],[-177,25],[-14,10],[-9,16],[-5,11],[-11,26],[-4,7],[-6,5],[-9,3]],[[2354,1339],[-26,-8],[-7,-4],[-12,-9],[-7,-2]],[[3077,209],[-56,22],[-61,46],[-107,44],[-8,59],[-3,132],[-7,45],[-7,17],[-7,11],[-8,5],[-30,11],[-8,5],[-7,6],[-5,7],[-54,91],[-39,53],[-8,14],[-3,9],[-1,12],[-1,31],[-4,18],[-2,9],[-10,22],[-1,8],[3,8],[12,8],[9,4],[51,13],[14,7],[7,5],[22,39],[24,55],[14,22],[11,12],[26,5],[7,4],[6,7],[0,17],[-2,13],[-31,63],[-19,26],[-7,8],[-7,6],[-13,5],[-100,10],[-11,4],[-26,25],[-7,2]],[[2623,1254],[-9,-5],[-14,-10],[-5,-2],[-6,-1]],[[1014,1709],[-12,-21],[-17,-23],[-15,-27],[-7,-36],[-3,-39],[-8,-36],[-19,-56],[-23,-39],[-6,-21],[14,-9],[28,-10],[4,-26],[-11,-33],[-173,-353],[-24,-32]],[[519,1076],[-10,0],[-6,4],[-5,5],[-5,7],[-7,18],[-3,6],[-6,5],[-7,5],[-80,27]],[[390,1153],[-10,0],[-8,-2],[-7,-3],[-7,-5],[-5,-7],[-3,-14],[-1,-17],[4,-61],[0,-9],[-1,-9],[-2,-14],[0,-10],[3,-11],[8,-14],[27,-36],[17,-28],[3,-11],[2,-14],[1,-67],[5,-35],[4,-11],[5,-11],[13,-14],[10,-4]],[[742,948],[-13,18],[-9,25],[-4,7],[-18,28],[-5,7],[-12,12],[-15,11],[-36,17],[-62,13]],[[568,1086],[-49,-10]],[[496,759],[8,-3],[7,-5],[18,-26],[43,-90],[13,-20],[2,-10],[0,-13],[-9,-22],[-7,-13],[-27,-38],[-5,-7],[-2,-10],[4,-13],[4,-10],[9,-15],[3,-8],[2,-8],[2,-11],[1,-14],[-3,-24],[-8,-30],[-22,-36],[-25,-17],[-25,-10],[-11,0]],[[448,746],[9,0],[22,10],[8,3],[9,0]],[[249,294],[-7,3],[-5,6],[4,14],[5,9],[13,14],[4,8],[-1,11],[-2,9],[-39,25]],[[221,393],[-221,-60]],[[468,306],[-12,1],[-20,7],[-31,16],[-9,3]],[[396,333],[-27,-4],[-57,-30],[-63,-5]],[[3077,209],[0,-120],[-4,-41],[-1,-10],[1,-10],[3,-9],[10,-7]],[[3155,63],[9,-1],[9,-4],[6,-5],[5,-7],[4,-7],[3,-8],[1,-10],[2,-12],[0,-9]],[[3086,12],[6,2],[6,5],[15,25],[5,6],[6,6],[15,5],[16,2]],[[4015,4096],[4,-5],[38,-29],[14,-5]],[[4071,4057],[11,0],[7,5],[7,2]],[[4029,1409],[16,5],[12,8],[9,15],[6,11],[1,10],[-5,6],[-28,11],[-7,5],[-5,7],[-1,8],[1,10],[4,8],[43,71],[8,18],[5,11],[3,12],[2,10],[2,20],[1,20],[0,9],[-2,21],[1,16],[1,7]],[[3974,1416],[55,-7]],[[3864,1192],[14,3],[10,5],[5,7],[4,9],[4,9],[3,9],[1,10],[1,9],[-1,10],[-1,8],[-9,42],[-3,18],[-2,26],[0,9],[1,6],[5,20],[40,22],[38,2]],[[3807,1201],[57,-9]],[[3495,1092],[8,3],[5,7],[10,16],[11,13],[61,36],[18,6],[146,9],[15,4],[13,5],[13,9],[12,1]],[[3435,1157],[9,-2],[8,-4],[5,-7],[5,-7],[9,-24],[6,-9],[10,-10],[8,-2]],[[3327,534],[12,1],[8,8],[7,12],[7,16],[8,7],[8,4],[23,6],[17,9],[9,9],[4,8],[2,20],[-46,36],[-109,47],[-13,8],[-9,8],[-5,15],[-5,17],[-4,16],[-1,9],[1,10],[9,57],[1,7],[-1,9],[0,8],[-4,25],[-18,61],[4,26],[20,39],[18,53],[18,30],[24,11],[105,30],[18,1]],[[3307,556],[7,-2],[2,-8],[5,-8],[6,-4]],[[3077,209],[32,22],[11,19],[8,15],[3,12],[0,20],[0,9],[-2,18],[2,19],[4,25],[14,57],[9,24],[9,14],[38,19],[8,7],[4,7],[2,11],[5,6],[7,4],[19,3],[23,14],[23,19],[11,3]],[[1154,4096],[-10,-83],[96,-213],[-296,-148],[-52,-390],[-220,0]],[[1916,3940],[15,57],[-66,63],[-6,36]],[[1860,3944],[56,-4]],[[1461,3035],[91,297],[45,237],[53,24],[90,66],[81,114],[39,171]],[[672,3262],[-4,181]],[[668,3443],[-158,-7],[2,-230],[146,-316],[-160,-183]],[[1311,3087],[150,-52]],[[1132,2426],[124,167],[56,245],[-76,101],[75,148]],[[1050,2503],[82,-77]],[[812,2102],[132,65],[8,171],[98,165]],[[700,3824],[98,43],[63,26],[16,90],[-122,27]],[[755,4010],[-115,-27],[-31,-84],[15,-48],[76,-27]],[[22,2276],[-13,-13],[-9,-1]],[[0,2261],[6,1],[3,1],[3,1],[8,6],[6,12],[-2,15],[6,9],[28,-1],[2,0],[3,1],[5,3],[5,6],[3,9],[2,24]],[[213,3044],[-38,-54],[-26,-95],[11,-129],[-17,-69],[-3,-28],[0,-26],[2,-25],[6,-16],[-1,-40],[-38,-90],[-31,-124],[-5,-33],[-13,-10],[-24,2],[-2,0],[-2,0],[-2,-1],[-2,-1],[-3,-4],[-1,-2],[-1,-2],[0,-18]],[[140,2663],[4,34],[9,40],[6,22],[1,5],[0,9],[-1,31],[-10,92],[88,201],[66,5],[292,339],[168,101],[217,212],[132,12],[35,24],[43,0],[22,10]],[[1212,3800],[-9,-3],[-13,-7],[-6,0],[-17,1],[-5,0],[-12,-1],[-3,0],[-10,-4]],[[1442,4002],[-31,-11],[-17,-8],[-3,-2],[-5,-4],[-25,-18],[-2,-3],[-3,-6],[-6,-27],[-18,-15],[-11,-11],[-2,-4],[-8,-16],[-29,-29],[-6,-8],[-9,-15],[-55,-25]],[[1232,3806],[6,2],[20,10],[5,4],[3,2],[2,2],[1,2],[4,7],[3,5],[6,8],[29,29],[2,3],[3,7]],[[1232,3806],[6,2],[20,10],[5,3],[3,3],[3,4],[13,20],[29,29],[2,3],[3,7]],[[1317,3889],[13,18],[16,11],[2,2],[2,3],[1,2],[4,11],[1,3],[0,7],[0,3],[3,7],[3,3],[8,5],[10,8],[8,6],[3,3],[3,1],[17,9],[3,1],[6,1],[7,2],[15,7]],[[1442,4002],[4,2]],[[1358,3953],[105,58]],[[1446,4004],[-1,-1]],[[1446,4004],[17,7]],[[1451,4006],[12,5]],[[1491,114],[-44,-102],[1,-12]],[[1493,153],[-17,44],[24,41],[21,90],[76,75],[7,39],[3,99],[24,37],[1,9],[-1,48],[31,84],[1,4],[0,5],[-9,31],[0,14],[0,3],[-1,4],[-28,59],[-3,4],[-2,3],[-85,84],[-10,12],[1,48],[0,3],[-1,5],[-3,10],[-130,257],[-14,15],[-74,45],[-31,76],[-2,2],[-5,5],[-39,34],[-17,34],[-19,97],[-34,95],[6,12],[18,13],[4,5],[3,4],[5,49],[61,68]],[[1602,4048],[94,-112],[11,-66],[-75,-147],[-95,-90],[-10,-59],[-58,-69],[-25,-157],[20,-112],[-52,-143],[-70,-411],[16,-322],[-64,-323],[1,-136],[-102,-149],[-1,-3],[-2,-5],[-1,-3],[-2,-39],[-5,-7],[-15,-11],[-3,-2],[-1,-2],[-2,-3],[-2,-4],[-1,-3],[-1,-4],[0,-3],[2,-15],[0,-3],[1,-2],[31,-70],[1,-5],[1,-31],[0,-4],[1,-5],[2,-6],[12,-43],[2,-3],[3,-7],[12,-24],[2,-3],[4,-4],[41,-36],[28,-71],[2,-4],[2,-2],[3,-2],[4,-3],[67,-40],[14,-15],[130,-257],[4,-15],[0,-7],[-4,-32],[0,-3],[1,-2],[0,-3],[2,-4],[1,-2],[2,-3],[7,-7],[87,-87],[4,-7],[6,-25],[1,-4],[1,-2],[20,-29],[0,-3],[0,-11],[0,-3],[8,-38],[-19,-51],[-11,-32],[-1,-3],[-1,-8],[0,-9],[2,-31],[-1,-9],[-22,-29],[-1,-4],[-1,-4],[-2,-8],[-4,-40],[3,-50],[-7,-40],[-33,-25],[-27,-28],[-10,-12],[-4,-6],[-2,-4],[-2,-5],[-4,-18],[-10,-30],[-1,-3],[-1,-3],[-2,-26],[-1,-4],[-4,-7],[-14,-19],[-2,-3],[-1,-3],[-1,-4],[-2,-6],[0,-2],[1,-5],[0,-2],[5,-11],[11,-24],[3,-8],[2,-16],[-31,-54]],[[1480,96],[7,10]],[[3490,4096],[-110,-77],[-113,13],[-168,58],[-20,4],[-24,-1],[-356,-131],[-86,87],[-97,47]],[[2768,3982],[288,111],[43,-3],[92,-37],[12,-3],[35,-10],[29,-8],[9,-2],[101,-11],[3,0],[3,0],[3,0],[3,1],[3,1],[78,48],[7,5],[4,4],[9,18]],[[1573,3960],[0,-1]],[[1573,3959],[-39,-63],[0,-2],[1,-12],[1,-6],[5,-17],[2,-80],[10,-66],[9,-27],[20,-34],[38,-114],[115,-229],[37,-100],[18,-34],[84,-200],[58,-125],[33,-160],[31,-116],[36,-118],[15,-101],[83,-237]],[[2996,950],[5,91],[-33,110],[-3,6],[-36,51],[-60,98],[-55,41],[-21,27],[-2,2],[-19,15],[-2,2],[-154,75],[-5,5],[-19,23],[-2,3],[-28,24],[-60,71],[-19,68],[-3,4],[-3,4],[-39,34],[-10,29],[-15,16],[-6,8],[-2,3],[-2,1],[-3,2],[-10,2],[-41,-4],[-34,33],[-64,25],[-110,262]],[[2141,2081],[-2,9]],[[2139,2090],[-4,12]],[[2135,2102],[0,1]],[[2135,2103],[-1,2]],[[2134,2105],[-42,141],[-44,109],[-16,101],[-27,98],[-8,20],[-7,32],[-24,84],[-9,48],[-18,85],[0,7],[-1,2],[-6,18],[-18,47],[-46,93],[-133,319],[-92,199],[-1,2],[-13,15],[-5,7],[-4,6],[-38,114],[-6,11],[-2,6],[-2,3],[-10,14],[-9,27],[-10,64],[1,31],[0,18],[-2,31],[-1,2],[0,3],[-6,16],[-1,16],[19,29],[12,7],[3,3],[3,4],[2,5],[1,5],[0,6],[-1,5],[0,1]],[[2134,2105],[-3,12]],[[2139,2090],[2,-9]],[[2141,2081],[2,-5],[26,-87],[9,-31],[1,-4],[15,-34],[24,-44],[8,-11],[10,-27],[1,-2],[4,-5],[10,-13],[23,-21],[3,-2],[3,-2],[3,0],[3,-1],[4,0],[18,3],[6,-1],[30,-30],[1,-1],[4,-3],[3,0],[3,0],[35,5],[13,-4],[4,-4],[4,-6],[2,-2],[15,-16],[5,-19],[3,-7],[2,-3],[44,-41],[17,-136],[60,-2],[30,-26],[3,-3],[19,-23],[3,-3],[2,-2],[3,-3],[2,-2],[3,-2],[21,-12],[46,-26],[2,-2],[2,-1],[2,0],[20,-4],[6,-3],[15,-10],[3,-1],[3,-2],[3,-1],[21,-5],[4,-3],[41,-44],[56,-41],[60,-98],[2,-4],[34,-47],[3,-6],[15,-81],[1,-3],[1,-1],[13,-18],[2,-7],[-3,-38],[-1,-53]],[[2996,950],[68,-152],[91,-56],[120,-267],[346,-385],[15,-90]],[[2516,4096],[97,-47],[86,-87],[356,131],[325,-74],[110,77]],[[3490,4096],[-110,-77],[-286,73]],[[1600,4044],[3,-4],[2,-1]],[[1600,4044],[5,-5]],[[1607,4037],[-1,1]],[[1606,4038],[-1,1]],[[1605,4039],[-4,5]],[[1601,4044],[4,-5]],[[1606,4038],[-2,2],[-3,5]],[[1601,4045],[3,-4],[2,-3]],[[1601,4045],[5,-7]],[[1606,4038],[27,-15],[5,-4],[3,-4],[8,-15],[16,-8],[104,1]],[[1605,4039],[5,-7],[4,-2],[19,-8],[16,-22],[13,-7],[5,-2],[53,-8],[7,-1],[4,0],[6,1],[2,0],[5,2],[29,10],[122,42]],[[1770,3994],[-36,-11],[-35,4]],[[1900,4038],[-5,-1]],[[1895,4037],[-103,-35],[-21,-8]],[[1899,4038],[-1,58]],[[0,2254],[20,16],[8,35],[45,10],[74,248],[2,333],[87,200],[67,6],[292,339],[168,101],[217,212],[133,12],[149,55],[99,138],[102,52]],[[0,2254],[20,16],[8,35],[45,10],[74,248],[2,333],[87,200],[67,6],[292,339],[168,101],[217,212],[133,12],[149,55],[99,138],[102,52]],[[1604,3578],[-7,30],[-15,44],[-29,61],[-10,64],[-9,119],[38,43],[-2,37]],[[1577,3660],[29,-90],[14,-32],[311,-685]],[[2040,2402],[-8,54],[-66,234],[-28,144],[-24,63],[-136,308]],[[1931,2852],[34,-162],[31,-116],[36,-118],[15,-101],[83,-237]],[[2996,950],[5,91],[-33,110],[-3,6],[-36,51],[-60,98],[-55,41],[-21,27],[-2,2],[-19,15],[-2,2],[-154,75],[-5,5],[-19,23],[-2,3],[-28,24],[-60,71],[-19,68],[-3,4],[-3,4],[-39,34],[-10,29],[-15,16],[-6,8],[-2,3],[-2,1],[-3,2],[-10,2],[-41,-4],[-34,33],[-64,25],[-110,262]],[[2141,2081],[-2,9]],[[2139,2090],[-4,12]],[[2135,2102],[0,1]],[[2135,2103],[-1,2]],[[2134,2105],[-5,18]],[[2134,2105],[-3,12]],[[2139,2090],[2,-9]],[[2141,2081],[2,-5],[26,-87],[9,-31],[1,-4],[15,-34],[24,-44],[8,-11],[10,-27],[1,-2],[4,-5],[10,-13],[23,-21],[3,-2],[3,-2],[3,0],[3,-1],[4,0],[18,3],[6,-1],[30,-30],[1,-1],[4,-3],[3,0],[3,0],[35,5],[13,-4],[4,-4],[4,-6],[2,-2],[15,-16],[5,-19],[3,-7],[2,-3],[44,-41],[17,-136],[60,-2],[30,-26],[3,-3],[19,-23],[3,-3],[2,-2],[3,-3],[2,-2],[3,-2],[21,-12],[46,-26],[2,-2],[2,-1],[2,0],[20,-4],[6,-3],[15,-10],[3,-1],[3,-2],[3,-1],[21,-5],[4,-3],[41,-44],[56,-41],[60,-98],[2,-4],[34,-47],[3,-6],[15,-81],[1,-3],[1,-1],[13,-18],[2,-7],[-3,-38],[-1,-53]],[[2996,950],[68,-152],[91,-56],[120,-267],[346,-385],[15,-90]],[[1479,4095],[2,1]],[[2516,4096],[97,-47],[86,-87],[356,131],[325,-74],[110,77]],[[1604,3578],[-7,30],[-15,44],[-29,61],[-10,64],[-9,119],[38,43],[-2,37]],[[1577,3660],[29,-90],[14,-32],[115,-229],[37,-100],[18,-34],[84,-200],[57,-122]],[[2040,2402],[-8,54],[-66,234],[-28,144],[-24,63],[-136,308]],[[1931,2852],[34,-162],[31,-116],[36,-118],[15,-101],[83,-237]],[[2996,950],[1,14],[0,38],[4,36],[0,3],[-1,2],[-1,2],[-1,3],[-15,22],[-3,38],[-7,24],[-4,17],[-1,2],[0,2],[-3,4],[-36,51],[-14,29],[-46,69],[-23,26],[-2,1],[-7,6],[-2,1],[-3,2],[-13,2],[-5,3],[-21,27],[-2,2],[-19,15],[-2,2],[-154,75],[-5,5],[-19,23],[-2,3],[-4,3],[-21,19],[-3,2],[-60,71],[-15,39],[-2,24],[0,1],[-2,4],[-3,4],[-3,4],[-39,34],[-5,10],[-2,11],[-1,3],[-2,5],[-1,1],[-2,3],[-12,12],[-6,8],[-2,3],[-2,1],[-3,2],[-6,2],[-4,0],[-19,0],[-7,-2],[-8,-3],[-7,1],[-5,3],[-28,28],[-1,2],[-64,25],[-110,262]],[[2141,2081],[-2,9]],[[2139,2090],[-4,12]],[[2135,2102],[0,1]],[[2135,2103],[-1,2]],[[2134,2105],[-1,3],[-2,8],[-2,7]],[[2134,2105],[-3,12]],[[2139,2090],[2,-9]],[[2141,2081],[110,-263],[98,-58],[6,0],[35,5],[13,-4],[35,-57],[44,-41],[17,-136],[60,-2],[30,-26],[3,-3],[19,-23],[3,-3],[2,-2],[5,-5],[151,-72],[41,-44],[56,-41],[60,-98],[39,-57],[15,-81],[17,-29],[-3,-38],[-1,-53]],[[2996,950],[68,-152],[91,-56],[120,-267],[346,-385],[15,-90]],[[1607,4037],[3,-5],[4,-2],[19,-8],[8,-8],[5,-10],[3,-4],[4,-2],[9,-5],[5,-2],[53,-8],[7,-1],[4,0],[6,1],[2,0],[5,2],[29,10],[160,55],[19,5],[10,-1],[34,-11],[34,-10],[4,0],[3,-1],[137,4]],[[1607,4037],[26,-14],[32,-31],[104,1]],[[1770,3994],[-36,-11],[-35,4]],[[1769,3994],[64,22],[110,37],[4,1],[3,1],[4,0],[4,0],[17,-4],[59,-18]],[[1900,4038],[-129,-44]],[[2034,4033],[-38,11],[-11,3],[-23,7],[-4,1],[-4,0],[-7,-1],[-47,-16]],[[2041,4033],[84,2]],[[2125,4035],[-84,-3]],[[2765,3982],[-85,-30],[-252,9],[-15,5],[-28,14],[-108,54],[-4,2],[-6,2],[-6,0],[-4,1],[-3,0],[-129,-4]],[[2174,4036],[95,1],[144,-71],[12,-4],[3,-1],[3,0],[236,-9],[11,0],[16,2],[13,4],[333,131],[53,3]],[[3096,4092],[-11,1],[-6,1],[-12,0],[-9,-1],[-9,-1],[-8,-2],[-7,-3]],[[3093,4092],[3,0]],[[3096,4092],[40,4]],[[187,3595],[294,89],[132,0],[303,125],[120,13],[190,146],[147,27],[50,88],[59,13]],[[1585,4096],[20,-56],[91,-105],[10,-71]],[[1479,4095],[2,1]],[[464,3903],[-5,-1],[-3,-1]],[[464,3903],[-5,-1],[-3,-1]],[[456,3901],[-1,-1]],[[455,3900],[9,3]],[[464,3903],[-9,-3]],[[455,3900],[24,-45],[120,-34],[10,-137]],[[1604,3578],[-7,30],[-15,44],[-29,61],[-10,64],[-9,119],[38,43],[-2,37]],[[1577,3660],[19,-51],[3,-19],[7,-20],[14,-32],[115,-229],[37,-100],[18,-34],[84,-200],[57,-122]],[[2040,2402],[-8,54],[-66,234],[-28,144],[-24,63],[-136,308]],[[1931,2852],[34,-162],[31,-116],[36,-118],[15,-101],[83,-237]],[[2491,1621],[-5,17],[-1,19],[0,1],[-2,4],[-3,4],[-3,4],[-39,34],[-5,10],[-2,11],[-1,3],[-2,5],[-1,1],[-2,3],[-12,12],[-6,8],[-2,3],[-2,1],[-3,2],[-6,2],[-4,0],[-19,0],[-7,-2],[-8,-3],[-7,1],[-5,3],[-28,28],[-2,2],[-3,1],[-3,1],[-2,-1],[-20,-3],[-11,4],[-34,35],[-100,250]],[[2141,2081],[-2,9]],[[2139,2090],[-4,12]],[[2135,2102],[0,1]],[[2135,2103],[-1,2]],[[2134,2105],[-5,18]],[[2134,2105],[-3,12]],[[2139,2090],[2,-9]],[[2141,2081],[100,-250],[34,-35],[74,-36],[6,0],[35,5],[15,-5],[33,-56],[44,-41],[4,-27],[5,-15]],[[2878,1775],[2,0]],[[2903,1933],[1,1]],[[3269,2342],[11,-7],[3,-6],[-8,-14],[-115,-26],[-64,16],[-72,-47],[-60,-227],[-92,-145],[-10,-100],[57,-13]],[[2941,1990],[0,-1]],[[2976,2093],[0,-2]],[[2989,2158],[0,-1]],[[3000,2205],[0,-1]],[[3049,2282],[1,1]],[[3092,2304],[-1,-1]],[[3151,2289],[4,0]],[[3257,2314],[2,0]],[[3268,2342],[4,-2]],[[2918,1773],[3,-1],[-3,1]],[[3194,2304],[-2,-1],[2,1]],[[2516,4096],[97,-47],[86,-87],[356,131],[325,-74],[110,77]],[[3490,4096],[-110,-77],[-286,73]],[[3568,3105],[-3,-31],[-182,-91],[-131,3],[-135,-67]],[[3374,3510],[3,35]],[[3377,3545],[17,29],[42,6]],[[3375,3543],[-3,-7],[-1,-3],[-1,-5],[1,-4],[17,-75],[32,-93]],[[3420,3356],[13,-24]],[[3433,3332],[1,-1]],[[3377,3545],[-2,-2]],[[3375,3543],[-1,-33]],[[3374,3510],[60,-179]],[[3434,3331],[126,-209]],[[3560,3122],[8,-17]],[[0,1063],[27,-19],[79,-123],[195,-31],[70,-66],[63,42],[78,-18],[82,35],[58,-53],[54,0],[38,49],[14,-46],[108,-93],[172,-2],[248,-95],[19,-63],[54,-36],[11,-69],[-63,-104],[37,-157],[59,-49],[12,1],[13,7],[10,8],[4,2],[14,5],[5,-1]],[[1461,187],[2,0]],[[1465,186],[-2,1]],[[1463,187],[-20,-3],[-3,-2],[-6,-5],[-6,-5],[-10,-6],[-3,0],[-4,-2],[-3,0],[-2,0]],[[1465,186],[-2,1],[-2,0]],[[1491,115],[-25,70]],[[1472,83],[18,31]],[[1594,4087],[10,5]],[[1594,4087],[5,2],[1,0],[3,2],[3,3]],[[1675,4096],[86,-111],[208,-149],[143,-17],[230,-72],[290,-24],[77,-45],[298,-34],[333,-73],[110,10],[269,-35],[377,39]],[[1594,4087],[10,5]],[[1594,4087],[6,2],[3,2],[3,3]],[[1675,4096],[86,-111],[208,-149],[143,-17],[230,-72],[290,-24],[77,-45],[298,-34],[333,-73],[110,10],[269,-35],[377,39]],[[1594,4087],[10,5]],[[1594,4087],[5,2],[1,0],[3,2],[3,3]],[[1675,4096],[86,-111],[208,-149],[143,-17],[230,-72],[290,-24],[77,-45],[298,-34],[333,-73],[110,10],[269,-35],[377,39]],[[0,3616],[153,-31],[328,99],[132,1],[303,124],[120,13],[190,146],[147,27],[50,88],[60,12]],[[1594,4087],[10,5]],[[1594,4087],[5,2],[1,0],[3,2],[3,3]],[[1675,4096],[86,-111],[208,-149],[143,-17],[230,-72],[290,-24],[77,-45],[298,-34],[333,-73],[110,10],[269,-35],[377,39]],[[0,3617],[153,-33],[328,100],[132,0],[303,125],[120,13],[190,146],[147,27],[50,88],[60,12]],[[1607,4037],[3,-5],[4,-2],[19,-8],[8,-8],[5,-10],[3,-4],[4,-2],[9,-5],[5,-2],[53,-8],[7,-1],[4,0],[6,1],[2,0],[5,2],[29,10],[160,55],[19,5],[10,-1],[68,-21],[4,0],[3,-1],[137,4]],[[1607,4037],[26,-14],[32,-31],[104,1]],[[1770,3994],[-36,-11],[-35,4]],[[1769,3994],[64,22],[110,37],[4,1],[3,1],[4,0],[4,0],[17,-4],[59,-18]],[[1900,4038],[-129,-44]],[[2034,4033],[-72,21],[-4,1],[-4,0],[-7,-1],[-47,-16]],[[2041,4033],[65,2],[16,0],[3,0]],[[2125,4035],[-84,-3]],[[2765,3982],[-85,-30],[-252,9],[-15,5],[-28,14],[-108,54],[-4,2],[-6,2],[-6,0],[-4,1],[-3,0],[-129,-4]],[[2174,4036],[95,1],[144,-71],[14,-5],[249,-9],[4,0],[7,1],[12,3],[36,13]],[[2768,3982],[27,18],[-24,96]],[[2771,4096],[21,-89],[-24,-24]],[[1570,3976],[2,-37],[-38,-43],[19,-183],[67,-175],[115,-229],[37,-100],[18,-34],[84,-200],[58,-125],[115,-495],[83,-237]],[[1931,2853],[-17,44],[-40,79],[-96,229]],[[2499,1599],[-13,36],[-1,22],[-2,5],[-45,42],[-10,29],[-23,27],[-15,5],[-41,-4],[-35,33],[-8,1],[-20,-3],[-11,4],[-34,35],[-100,250]],[[2141,2081],[-2,9]],[[2139,2090],[-4,12]],[[2135,2102],[0,1]],[[2135,2103],[-1,2]],[[2134,2105],[-1,3],[-2,8],[-2,7]],[[2134,2105],[-3,12]],[[2397,0],[29,55],[-4,124],[41,203],[-42,156],[18,53],[-37,157],[24,33],[-16,215],[25,136],[-28,101],[32,36],[-31,43],[-17,98],[8,55],[73,35],[35,79],[-5,13],[-15,41],[-2,7],[0,17],[-2,5],[-45,42],[-2,3],[-3,7],[-5,19],[-15,16],[-8,11],[-15,5],[-35,-5],[-3,0],[-3,0],[-4,3],[-1,1],[-30,30],[-8,1],[-12,-2],[-4,-1],[-4,0],[-3,1],[-3,0],[-3,2],[-2,1],[-24,22],[-10,13],[-4,5],[-1,2],[-10,27],[-8,11],[-24,44],[-15,35],[-10,34],[-26,87],[-2,5]],[[2141,2081],[-2,9]],[[2292,3651],[9,-28]],[[2323,3613],[-1,7]],[[944,3976],[177,52],[42,-52],[113,-6]],[[1600,4044],[5,-5]],[[1600,4044],[5,-5]],[[1689,3988],[-38,10],[-4,5],[-5,11],[-5,5],[-5,4],[-2,2],[-16,5],[-8,8]],[[1606,4038],[-1,1]],[[1605,4039],[-4,5]],[[1601,4044],[4,-5]],[[1606,4038],[-5,7]],[[1605,4039],[5,-7],[4,-2],[19,-8],[8,-8],[5,-10],[1,-2],[2,-2],[1,-1],[3,-1],[9,-5],[2,-1],[3,-1],[53,-8],[7,-1],[4,0],[6,1],[2,0],[5,2],[29,10],[122,42]],[[1659,3995],[1,-1]],[[1770,3994],[-71,-7]],[[1900,4038],[-5,-1]],[[1895,4037],[-103,-35],[-21,-8]],[[1899,4038],[-1,58]],[[1594,4087],[10,5]],[[1594,4087],[6,2],[3,2],[3,3]],[[1675,4096],[95,-119],[247,-183],[201,-89],[310,-212],[239,-210],[184,-92],[76,-8],[64,-87],[2,-142],[70,-103],[48,-139],[30,-180],[-5,-168],[202,-178],[118,-49],[69,-66],[125,-20],[252,-219],[94,-52]],[[1384,2899],[-42,-217],[16,-322],[-64,-323],[0,-10],[1,-126],[-102,-149],[-4,-11],[-1,-37],[-25,-24],[-4,-7],[-2,-5],[0,-5],[3,-20],[30,-65],[6,-56],[12,-43],[2,-3],[15,-31],[79,-120],[88,-60],[130,-257],[4,-15],[-4,-42],[4,-11],[128,-163],[0,-18],[8,-38],[-55,-180],[-6,-48],[3,-50],[-7,-40],[-33,-25],[-43,-50],[-17,-56],[-4,-33],[-20,-29],[-4,-13],[17,-44]],[[1480,95],[6,11]],[[1561,135],[-48,22],[-10,-11],[-5,-19],[-2,-6],[-10,-18]],[[1488,109],[11,29],[-23,59],[4,13],[16,21],[2,3],[2,4],[1,5],[3,29],[11,33],[6,23],[43,50],[5,4],[17,8],[4,4],[3,2],[2,3],[2,4],[7,39],[1,12],[-4,39],[6,48],[2,8],[4,5],[11,11],[2,3],[2,3],[3,7],[31,143],[1,2],[0,3],[0,2],[-1,5],[-8,26],[0,14],[0,4],[-1,3],[-2,4],[-3,5],[-12,13],[-2,3],[-8,31],[-1,3],[-3,4],[-2,3],[-85,84],[-9,10],[-3,11],[3,35],[0,7],[-1,5],[-1,4],[-2,6],[-18,38],[-101,199],[-11,20],[-2,4],[-3,4],[-3,2],[-6,5],[-74,45],[-5,8],[-24,64],[-2,3],[-1,2],[-1,1],[-2,2],[-3,3],[-35,30],[-6,7],[-16,34],[-18,94],[-1,5],[-16,39],[-13,26],[-4,23],[6,14],[18,13],[4,5],[1,1],[2,3],[1,4],[1,5],[-1,30],[4,10],[17,21],[19,16],[15,14],[4,5],[3,5],[10,20],[3,6],[29,57],[2,4],[1,2],[0,7],[-2,119],[1,10],[36,186],[27,137],[0,7],[-4,70],[-2,46],[0,17],[-10,182],[53,270],[17,141],[52,141],[-19,114],[25,159],[57,67],[10,59],[96,91],[74,143],[-11,68],[-94,113]],[[1546,103],[0,3]],[[1560,85],[-8,6],[-2,1],[-1,2],[-2,3],[-1,1],[0,4],[-1,3],[1,5],[2,3],[11,15],[2,7]],[[1720,0],[-23,34],[-147,58],[11,43]],[[1465,186],[-1,0]],[[1464,186],[-1,1]],[[1463,187],[-20,-3],[-3,-2],[-6,-5],[-6,-5],[-10,-6],[-3,0],[-4,-2],[-2,0],[-2,0],[-69,54],[-64,-19],[-133,26],[-118,103],[-74,-21],[-30,-72],[-196,-112]],[[723,123],[-2,-2]],[[721,121],[-19,-12]],[[702,109],[-9,-4]],[[693,105],[-152,23],[-70,-72],[-49,83],[-28,5],[-178,-91],[-90,16],[-35,-69]],[[693,105],[2,1],[2,0],[2,1],[2,1]],[[701,108],[3,2]],[[704,110],[17,11]],[[702,109],[-1,-1]],[[723,123],[-2,-2],[-17,-11]],[[1463,187],[-2,0]],[[1461,187],[-18,-3],[-35,-20]],[[1465,186],[-2,1],[-2,0]],[[1644,56],[-86,30],[-12,18],[2,8],[9,13],[3,4],[0,2],[1,4],[0,1],[-1,3],[-1,3],[-1,2],[-1,2],[-2,1],[-2,2],[-1,1],[-2,0],[-9,2],[-9,6],[-2,1],[-2,0],[-3,1],[-5,0],[-19,-4],[-9,1],[-6,6],[-3,9],[-1,1],[-1,2],[-2,2],[-1,1],[-13,8]],[[1465,186],[-1,0]],[[1466,185],[14,-10],[5,-12],[7,-6],[9,-1],[27,3],[13,-7],[11,-3],[5,-3],[3,-15],[-2,-4],[-10,-14],[-1,-2],[-2,-8],[4,-10],[3,-2],[8,-6]],[[1654,45],[-3,1],[-7,10]],[[1644,56],[8,-10]],[[1715,0],[-16,33],[-45,12]],[[1654,45],[-2,1]],[[22,2276],[-13,-13],[-9,-1]],[[0,2261],[6,1],[3,1],[3,1],[8,6],[6,12],[-2,15],[6,9],[28,-1],[2,0],[3,1],[3,2],[2,1],[3,3],[2,3],[1,4],[2,5],[0,3],[2,17],[0,4]],[[213,3044],[-30,-38],[-3,-4],[-5,-12],[-3,-8],[-13,-56],[-8,-24],[-2,-7],[-1,-4],[4,-42],[7,-46],[1,-37],[-17,-69],[0,-1],[-3,-27],[0,-26],[2,-25],[6,-16],[-1,-40],[-38,-90],[-31,-124],[-5,-33],[-13,-10],[-24,2],[-4,0],[-2,-1],[-2,-1],[-5,-8],[0,-18]],[[140,2663],[20,101],[-1,40],[-10,92],[88,201],[66,5],[292,339],[168,101],[217,212],[132,12],[35,24],[43,0],[22,10]],[[1212,3800],[-9,-3],[-13,-7],[-6,0],[-17,1],[-5,0],[-12,-1],[-3,0],[-10,-4]],[[1442,4002],[-48,-19],[-33,-24],[-2,-3],[-3,-6],[-6,-27],[-18,-15],[-11,-11],[-2,-4],[-8,-16],[-2,-2],[-26,-26],[-1,-1],[-6,-8],[-9,-15],[-55,-25]],[[1232,3806],[34,18],[3,4],[7,12],[6,8],[29,29],[5,10]],[[1232,3806],[34,18],[3,4],[13,20],[29,29],[5,10]],[[1317,3889],[13,18],[16,11],[2,2],[2,3],[1,2],[4,11],[1,3],[0,7],[0,3],[3,7],[3,3],[80,43]],[[1442,4002],[4,2]],[[1358,3953],[105,58]],[[1446,4004],[-1,-1]],[[1446,4004],[17,7]],[[1451,4006],[12,5]],[[1593,4089],[14,7]],[[1603,4093],[3,2]],[[1606,4095],[1,1]],[[1607,4096]],[[1675,4096],[84,-103],[196,62],[83,-23],[224,6],[161,-76],[249,-10],[383,141],[325,-74],[110,77]],[[1607,4096]],[[1276,3970],[-85,-23],[-154,-124],[-121,-14],[-303,-124],[-132,-1],[-329,-100],[-152,33]],[[3492,3984],[-4,-4],[-1,-3],[-2,-3],[-1,-6],[-1,-2],[-7,-8],[-2,-2],[-1,-2],[0,-4],[-3,-57],[-4,-14],[-73,-97],[-1,-3],[-3,-8],[-6,-19],[-10,-20],[-1,-4],[-2,-4],[-5,-15],[0,-3],[0,-1],[0,-4],[0,-3],[1,-3],[16,-37]],[[3436,3580],[-35,1],[-19,77]],[[3382,3658],[-12,66],[96,155],[4,14],[4,61],[9,12],[1,2],[2,7],[1,3],[6,6]],[[3492,3984],[1,0]],[[3512,4096],[-20,-112]],[[3493,3984],[3,3],[2,3],[9,21],[7,85]],[[1470,4089],[-9,-1],[-5,0],[-4,1],[-3,0],[-2,0],[-9,-2],[-6,0],[-3,-1],[-3,-1],[-1,-1],[-2,-1],[-1,-2],[-2,-2],[-1,-2],[0,-2],[-10,-45],[-5,-5],[-12,-6],[-2,-2],[-3,-3],[-2,-2],[-8,-14],[-4,-3],[-81,-25],[-57,0],[-1,0],[-2,0],[-4,-1],[-2,-1],[-35,-21],[-34,-21],[-2,-2],[-2,-1],[-1,-2],[-2,-2],[-23,-28],[-4,-6],[-4,-8],[-2,-4],[-12,-11],[-6,-3],[-30,-11],[-4,-2],[-2,-2],[-2,-1],[-20,-18],[-5,-3],[-42,-2],[-72,-10],[-4,0],[-2,-1],[-3,-1],[-3,-1],[-3,-2],[-71,-42],[-23,-8],[-38,-1],[-7,0],[-4,-1],[-30,-13],[-14,-7],[-78,-35],[-29,-13],[-4,-1],[-49,-5],[-34,-4],[-39,9],[-2,0],[-2,0],[-2,0],[-6,-1],[-78,-23],[-66,-20],[-35,-11],[-88,-27],[-11,-4],[-6,-2],[-32,-10],[-6,-1],[-63,14],[-62,3],[-5,2],[-23,11]],[[0,3609],[28,-7],[125,-18],[3,1],[170,53],[155,46],[45,-9],[83,9],[4,0],[223,78],[80,47],[120,13],[69,40],[121,106],[67,2],[80,25],[4,3],[1,1],[9,15],[17,10],[4,5],[2,5],[6,24],[2,11]],[[1418,4071],[51,18]],[[1469,4089],[6,2],[8,4]],[[1469,4089],[1,0]],[[1471,4090],[-1,0]],[[1470,4090],[0,-1]],[[1483,4095],[-11,-5]],[[1472,4090],[-2,0]],[[1483,4095],[-12,-5]],[[1472,4091],[-1,-1]],[[1483,4095],[-11,-5]],[[1483,4096],[-11,-5]],[[1483,4096],[-11,-5]],[[1470,4089],[-9,-1],[-5,0],[-4,1],[-3,0],[-17,-2],[-6,-2],[-3,-2],[-3,-4],[-1,-4],[-10,-45],[-22,-16],[-14,-19],[-81,-25],[-57,0],[-3,0],[-6,-2],[-121,-106],[-40,-16],[-29,-24],[-42,-2],[-78,-11],[-3,-1],[-3,-1],[-3,-2],[-71,-42],[-23,-8],[-38,-1],[-7,0],[-4,-1],[-30,-13],[-14,-7],[-78,-35],[-29,-13],[-132,-1],[-150,-44],[-178,-55],[-63,14],[-62,3],[-28,10]],[[0,3609],[28,-7],[5,-1],[57,-2],[54,-14],[4,-1],[5,0],[3,1],[170,53],[155,46],[6,0],[5,-1],[27,-7],[2,0],[5,-1],[2,0],[32,4],[49,5],[4,0],[1,1],[8,3],[20,10],[78,35],[14,6],[30,13],[9,2],[30,0],[5,0],[5,1],[4,1],[6,2],[13,4],[26,16],[48,29],[6,2],[78,11],[35,1],[4,0],[3,1],[3,1],[3,3],[23,20],[34,13],[3,1],[3,2],[121,106],[9,2],[50,0],[6,0],[2,0],[3,1],[64,17],[3,1],[10,6],[4,3],[1,1],[9,15],[17,10],[2,3],[1,1],[2,2],[0,2],[1,2],[6,25],[2,6],[1,10],[4,7],[8,5],[6,0],[12,2],[3,0],[4,-1],[4,-1],[5,1],[4,1]],[[1469,4089],[6,2],[8,4]],[[1469,4089],[1,0]],[[1471,4090],[-1,0]],[[1470,4090],[0,-1]],[[1483,4095],[-11,-5]],[[1472,4090],[-2,0]],[[1483,4095],[-12,-5]],[[1472,4091],[-1,-1]],[[1483,4095],[-11,-5]],[[1483,4096],[-11,-5]],[[1483,4096],[-9,-4],[-2,-1]],[[2017,2492],[-186,86],[-3,0],[-32,1],[-140,1],[-127,-23],[-44,8],[-114,143]],[[1404,2665],[71,-93],[3,-4],[2,-1],[2,-1],[4,-2],[36,-7],[9,0],[299,21],[165,-89],[3,0],[7,0],[3,0],[14,4]],[[2022,2493],[11,-37]],[[2033,2454],[-11,39]],[[2022,2493],[-79,316]],[[2040,2402],[-7,52]],[[2033,2454],[0,2]],[[2033,2456],[14,-49],[318,31],[88,-90],[44,12]],[[1594,4088],[10,5]],[[1604,4092],[1,2]],[[1605,4094],[3,2]],[[1675,4096],[15,-68],[327,-234],[201,-89],[310,-212],[239,-210],[184,-92],[76,-8],[64,-87],[2,-142],[70,-103],[48,-139],[30,-180],[-5,-168],[202,-178],[118,-49],[69,-66],[125,-20],[252,-219],[94,-52]],[[1604,4092],[1,2]],[[2516,4096],[97,-47],[86,-87],[356,131],[325,-74],[110,77]],[[3094,4092],[286,-73],[110,77]],[[627,3691],[-146,-7],[-261,-79]],[[220,3605],[-73,-20],[-147,31]],[[153,3578],[15,-46],[1,-6],[0,-2],[-3,-11]],[[153,3578],[7,8]],[[169,3526],[-23,-30],[62,-202],[86,-50],[54,2],[36,-49]],[[384,3197],[50,20]],[[197,3598],[23,7]],[[220,3605],[17,40]],[[237,3645],[30,93],[17,19],[-1,9],[1,4],[6,26],[-1,4],[-5,7],[-2,5],[0,6],[2,5],[67,149],[-4,13],[7,23],[-12,44],[13,44]],[[355,4096],[1,-22],[-2,-4],[-9,-11],[-1,-6],[6,-16],[0,-3],[0,-7],[2,-8],[2,-11],[0,-3],[-1,-4],[-6,-16],[4,-9],[0,-1],[0,-2],[-25,-80],[-42,-72],[-2,-9],[7,-11],[1,-3],[0,-2],[0,-3],[-6,-24],[0,-3],[0,-6],[0,-2],[0,-1],[-1,-2],[-1,-2],[-15,-15],[-16,-66],[-1,-2],[-2,-4],[-11,-21]],[[373,3185],[11,12]],[[384,3197],[30,28]],[[414,3225],[2,1],[2,2],[4,0],[3,-2],[5,-3],[2,-2],[70,-116]],[[486,3123],[68,-153],[232,-144],[234,-35],[58,-39],[139,33],[117,-8],[32,28]],[[1366,2805],[1,0]],[[1295,1960],[63,400],[-16,317],[1,9],[18,96],[5,23]],[[1366,2805],[18,94]],[[1406,2663],[-29,40],[-25,24],[18,79]],[[2017,2492],[-186,86],[-346,-13],[-7,4],[-107,139]],[[190,3596],[1,0],[-6,-2],[5,2]],[[1358,2764],[-1,-5],[1,5]],[[2774,3985],[-85,-21],[-74,84],[-99,48]],[[2621,4042],[4,-5],[-4,5]],[[2292,3651],[11,-46],[19,15]],[[1483,4095],[-60,-12],[-50,-88],[-147,-27],[-190,-146],[-120,-13],[-303,-125],[-132,0],[-328,-100],[-153,33]],[[1594,4087],[10,5]],[[1594,4087],[6,2],[3,2],[3,3]],[[1675,4096],[86,-111],[208,-149],[143,-17],[230,-72],[290,-24],[77,-45],[298,-34],[333,-73],[110,10],[269,-35],[377,39]],[[1604,3578],[-7,30],[-15,44],[-9,19],[-1,1],[-2,3]],[[1570,3976],[2,-37],[-38,-43],[19,-183],[9,-27],[20,-34],[23,-80],[15,-34],[312,-688],[115,-495],[83,-237]],[[2139,2090],[102,-259],[108,-71],[54,1],[79,-98],[17,-136],[60,-2],[310,-219],[99,-155],[32,-110],[-3,-95],[65,-146],[91,-55],[122,-270],[346,-384],[15,-91]],[[0,3609],[28,-7],[5,-1],[57,-2],[54,-14],[4,-1],[5,0],[3,1],[170,53],[155,46],[6,0],[5,-1],[27,-7],[2,0],[5,-1],[2,0],[32,4],[49,5],[4,0],[1,1],[8,3],[20,10],[78,35],[14,6],[30,13],[9,2],[30,0],[5,0],[5,1],[4,1],[6,2],[13,4],[26,16],[48,29],[6,2],[78,11],[35,1],[4,0],[3,1],[3,1],[3,3],[23,20],[34,13],[3,1],[3,2],[121,106],[9,2],[50,0],[6,0],[2,0],[3,1],[64,17],[3,1],[10,6],[4,3],[1,1],[9,15],[17,10],[2,3],[1,1],[2,2],[0,2],[1,2],[6,25],[2,6],[1,10],[4,7],[8,5],[6,0],[12,2],[3,0],[4,-1],[4,-1],[5,1],[4,1]],[[1470,4089],[-9,-1],[-5,0],[-4,1],[-3,0],[-17,-2],[-6,-2],[-3,-2],[-3,-4],[-1,-4],[-10,-45],[-22,-16],[-14,-19],[-81,-25],[-57,0],[-3,0],[-6,-2],[-121,-106],[-40,-16],[-29,-24],[-42,-2],[-78,-11],[-3,-1],[-3,-1],[-3,-2],[-71,-42],[-23,-8],[-38,-1],[-7,0],[-4,-1],[-30,-13],[-14,-7],[-78,-35],[-29,-13],[-132,-1],[-150,-44],[-178,-55],[-63,14],[-62,3],[-28,10]],[[1469,4089],[6,2],[8,4]],[[1469,4089],[1,0]],[[1471,4090],[-1,0]],[[1470,4090],[0,-1]],[[1483,4095],[-11,-5]],[[1472,4090],[-2,0]],[[1483,4095],[-12,-5]],[[1472,4091],[-1,-1]],[[1483,4095],[-11,-5]],[[1483,4096],[-11,-5]],[[1483,4096],[-9,-4],[-2,-1]],[[2516,4096],[99,-48],[74,-84],[85,21]],[[2621,4042],[4,-5],[-3,3],[-1,2]],[[1594,4087],[10,5]],[[1594,4087],[6,2],[3,2],[3,3]],[[1675,4096],[95,-119],[247,-183],[201,-89],[310,-212],[239,-210],[184,-92],[19,-3],[27,4],[5,1],[6,-1],[9,-2],[2,-2],[4,-2],[4,-3],[57,-73],[3,-5],[4,-9],[2,-11],[0,-131],[62,-88],[3,-6],[5,-9],[2,-4],[4,-11],[42,-124],[1,-8],[29,-172],[-5,-168],[202,-178],[45,-11],[73,-38],[12,-11],[17,-26],[40,-29],[39,-11],[46,0],[40,-9],[252,-219],[43,-19],[35,-18],[16,-15]],[[4096,1780],[-18,15],[-33,18],[-32,13],[-5,3],[-3,1],[-3,2],[-252,219],[-40,9],[-34,-1],[-4,0],[-4,0],[-4,1],[-5,1],[-3,0],[-7,2],[-24,8],[-4,2],[-1,2],[-33,24],[-2,1],[-4,5],[-13,21],[-13,11],[-72,38],[-34,6],[-5,2],[-4,2],[-2,1],[-199,174],[-3,5],[-2,4],[-1,2],[-2,4],[0,5],[10,152],[-29,175],[-47,141],[-10,17],[-59,81],[-2,3],[-1,4],[-1,4],[-1,4],[1,95],[1,29],[-6,20],[-68,83],[-17,5],[-22,-4],[-5,-1],[-5,0],[-5,0],[-4,0],[-4,1],[-6,2],[-52,22],[-15,7],[-5,2],[-17,7],[-4,2],[-5,3],[-25,14],[-58,34],[-3,1],[-4,4],[-8,6],[-17,12],[-23,19],[-22,16],[-66,48],[-9,7],[-7,6],[-3,4],[-62,71]],[[0,3609],[28,-7],[125,-18],[3,1],[170,53],[155,46],[45,-9],[83,9],[4,0],[223,78],[80,47],[120,13],[69,40],[121,106],[67,2],[80,25],[4,3],[1,1],[9,15],[17,10],[5,6],[14,52],[8,5],[6,0],[12,2],[3,0],[4,-1],[4,-1],[5,1],[4,1]],[[1470,4089],[-9,-1],[-5,0],[-4,1],[-3,0],[-2,0],[-9,-2],[-6,0],[-3,-1],[-3,-1],[-1,-1],[-2,-1],[-1,-2],[-2,-2],[-1,-2],[0,-2],[-10,-45],[-5,-5],[-12,-6],[-2,-2],[-3,-3],[-2,-2],[-8,-14],[-4,-3],[-81,-25],[-57,0],[-1,0],[-2,0],[-4,-1],[-2,-1],[-35,-21],[-34,-21],[-2,-2],[-2,-1],[-1,-2],[-2,-2],[-23,-28],[-4,-6],[-4,-8],[-2,-4],[-12,-11],[-6,-3],[-30,-11],[-4,-2],[-2,-2],[-2,-1],[-20,-18],[-5,-3],[-42,-2],[-72,-10],[-4,0],[-2,-1],[-3,-1],[-3,-1],[-3,-2],[-71,-42],[-23,-8],[-38,-1],[-7,0],[-4,-1],[-30,-13],[-14,-7],[-78,-35],[-29,-13],[-4,-1],[-49,-5],[-34,-4],[-39,9],[-2,0],[-2,0],[-2,0],[-6,-1],[-78,-23],[-66,-20],[-35,-11],[-88,-27],[-11,-4],[-6,-2],[-32,-10],[-6,-1],[-63,14],[-62,3],[-5,2],[-23,11]],[[1469,4089],[6,2],[8,4]],[[1469,4089],[1,0]],[[1471,4090],[-1,0]],[[1470,4090],[0,-1]],[[1483,4095],[-11,-5]],[[1472,4090],[-2,0]],[[1483,4095],[-12,-5]],[[1472,4091],[-1,-1]],[[1483,4095],[-11,-5]],[[1483,4096],[-11,-5]],[[1483,4096],[-11,-5]],[[1594,4087],[10,5]],[[1594,4087],[5,2],[1,0],[3,2],[3,3]],[[1675,4096],[86,-111],[208,-149],[143,-17],[230,-72],[290,-24],[77,-45],[298,-34],[333,-73],[110,10],[269,-35],[377,39]],[[1604,3578],[-7,30],[-15,44],[-29,61],[-10,64],[-9,119],[38,43],[-2,37]],[[1577,3660],[29,-90],[14,-32],[115,-229],[37,-100],[18,-34],[84,-200],[57,-122]],[[2040,2402],[-4,32],[-4,22],[-27,98],[-8,20],[-7,32],[-24,84],[-9,48],[-19,96],[-24,63],[-136,308]],[[1931,2852],[34,-162],[31,-116],[36,-118],[15,-101],[83,-237]],[[2996,950],[5,91],[-33,110],[-3,6],[-36,51],[-60,98],[-55,41],[-21,27],[-2,2],[-19,15],[-2,2],[-154,75],[-5,5],[-19,23],[-2,3],[-28,24],[-60,71],[-19,68],[-3,4],[-3,4],[-39,34],[-10,29],[-15,16],[-6,8],[-2,3],[-2,1],[-3,2],[-10,2],[-41,-4],[-34,33],[-64,25],[-110,262]],[[2141,2081],[-2,9]],[[2139,2090],[-4,12]],[[2135,2102],[0,1]],[[2135,2103],[-1,2]],[[2134,2105],[-5,18]],[[2134,2105],[-3,12]],[[2139,2090],[2,-9]],[[2141,2081],[2,-5],[26,-87],[9,-31],[1,-4],[15,-34],[24,-44],[8,-11],[10,-27],[1,-2],[4,-5],[10,-13],[23,-21],[3,-2],[3,-2],[3,0],[3,-1],[4,0],[18,3],[6,-1],[30,-30],[1,-1],[4,-3],[3,0],[3,0],[35,5],[13,-4],[4,-4],[4,-6],[2,-2],[15,-16],[5,-19],[3,-7],[2,-3],[44,-41],[17,-136],[60,-2],[30,-26],[3,-3],[19,-23],[3,-3],[2,-2],[3,-3],[2,-2],[3,-2],[21,-12],[46,-26],[2,-2],[2,-1],[2,0],[20,-4],[6,-3],[15,-10],[3,-1],[3,-2],[3,-1],[21,-5],[4,-3],[41,-44],[56,-41],[60,-98],[2,-4],[34,-47],[3,-6],[15,-81],[1,-3],[1,-1],[13,-18],[2,-7],[-3,-38],[-1,-53]],[[2996,950],[68,-152],[91,-56],[120,-267],[346,-385],[15,-90]],[[1594,4087],[10,5]],[[1594,4087],[5,2],[1,0],[3,2],[3,3]],[[1675,4096],[95,-119],[247,-183],[201,-89],[310,-212],[239,-210],[184,-92],[19,-3],[27,4],[5,1],[6,-1],[2,0],[3,-1],[4,-1],[2,-2],[4,-2],[2,-1],[2,-2],[3,-3],[2,-2],[19,-26],[33,-42],[3,-5],[2,-5],[2,-4],[0,-2],[1,-4],[1,-5],[0,-131],[62,-88],[3,-6],[5,-9],[2,-4],[4,-11],[34,-101],[6,-18],[2,-5],[1,-8],[28,-166],[1,-6],[0,-6],[0,-7],[-2,-86],[-2,-16],[-6,-37],[5,-16],[73,-43],[56,-50],[3,-3],[6,-5],[36,-48],[28,-29],[11,-5],[24,-3],[5,-1],[5,-2],[8,-4],[65,-34],[5,-5],[5,-4],[2,-2],[17,-26],[40,-29],[39,-11],[46,0],[25,-4],[5,-1],[5,-2],[5,-2],[79,-51],[9,-6],[6,-6],[44,-36],[6,-5],[17,-18],[91,-97],[43,-19],[35,-18],[4,-3],[4,-3],[8,-9]],[[4096,1780],[-94,52],[-252,219],[-40,9],[-34,-1],[-8,0],[-4,1],[-5,1],[-34,10],[-40,29],[-30,37],[-72,38],[-34,6],[-11,5],[-199,174],[-3,5],[-3,6],[-2,9],[10,152],[-29,175],[-47,141],[-72,105],[-6,152],[-68,83],[-17,5],[-32,-5],[-19,3],[-93,40],[-88,51],[-3,1],[-4,4],[-217,189]],[[1594,4087],[10,5]],[[1594,4087],[5,2],[1,0],[3,2],[3,3]],[[1675,4096],[86,-111],[208,-149],[143,-17],[230,-72],[290,-24],[77,-45],[298,-34],[333,-73],[110,10],[269,-35],[377,39]],[[2878,1775],[2,0]],[[2903,1933],[1,1]],[[3269,2342],[11,-7],[3,-6],[-8,-14],[-115,-26],[-64,16],[-72,-47],[-60,-227],[-92,-145],[-10,-100],[57,-13]],[[2941,1990],[0,-1]],[[2976,2093],[0,-2]],[[2989,2158],[0,-1]],[[3000,2205],[0,-1]],[[3049,2282],[1,1]],[[3092,2304],[-1,-1]],[[3151,2289],[4,0]],[[3257,2314],[2,0]],[[3268,2342],[4,-2]],[[2918,1773],[3,-1],[-3,1]],[[3194,2304],[-2,-1],[2,1]],[[1706,3864],[-10,71],[-91,105],[-19,56]],[[1481,4096],[-58,-13],[-50,-88],[-147,-27],[-190,-146],[-120,-13],[-303,-124],[-132,-1],[-294,-89]],[[1594,4087],[12,7]],[[1675,4096],[86,-111],[208,-149],[143,-17],[230,-72],[290,-24],[77,-45],[298,-34],[333,-73],[110,10],[269,-35],[377,39]],[[1594,4087],[5,2],[2,1],[-2,-1],[-5,-2]],[[22,2276],[-13,-13],[-9,-1]],[[0,2261],[6,1],[3,1],[3,1],[8,6],[6,12],[-2,15],[6,9],[28,-1],[2,0],[3,1],[3,2],[2,1],[3,3],[2,3],[1,4],[2,5],[0,3],[2,17],[0,4]],[[213,3044],[-38,-54],[-26,-95],[11,-129],[-17,-69],[-3,-28],[0,-26],[2,-25],[6,-16],[-1,-40],[-38,-90],[-31,-124],[-5,-33],[-13,-10],[-24,2],[-4,0],[-2,-1],[-2,-1],[-5,-8],[0,-18]],[[140,2663],[4,34],[9,40],[6,22],[1,5],[0,9],[-1,31],[-10,92],[88,201],[66,5],[292,339],[168,101],[217,212],[132,12],[35,24],[43,0],[5,1],[17,9]],[[1212,3800],[-22,-10],[-28,1],[-12,-1],[-3,0],[-10,-4]],[[1442,4002],[-31,-11],[-17,-8],[-3,-2],[-5,-4],[-25,-18],[-2,-3],[-3,-6],[-6,-27],[-18,-15],[-11,-11],[-2,-4],[-8,-16],[-2,-2],[-26,-26],[-1,-1],[-6,-8],[-9,-15],[-55,-25]],[[1232,3806],[34,18],[3,4],[13,20],[29,29],[5,10]],[[1232,3806],[6,2],[20,10],[5,3],[3,3],[3,4],[13,20],[13,12],[16,17],[2,3],[3,7]],[[1317,3889],[33,34],[6,26],[3,7],[3,3],[80,43]],[[1442,4002],[4,2]],[[1358,3953],[105,58]],[[1446,4004],[-1,-1]],[[1446,4004],[17,7]],[[1451,4006],[12,5]],[[2516,4096],[99,-48],[71,-82],[48,3]],[[2040,2402],[-5,91],[-40,-4],[-159,88],[-348,-13],[-84,101]],[[2330,1779],[-93,57],[-98,254]],[[2139,2090],[-4,12]],[[2135,2102],[0,1]],[[2135,2103],[-1,2]],[[2134,2105],[-5,18]],[[3105,2861],[-25,-39],[-121,-115],[-15,-37],[-55,-22],[-48,-67],[-92,-2],[-172,-190],[-310,-140],[-70,-124],[-58,12],[-5,-32]],[[3433,3332],[-1,-21],[-107,-76],[-2,-2],[-2,-1],[-2,-2],[-170,-217]],[[3149,3013],[-57,-38],[2,-25],[26,-35],[2,-2],[2,-1],[9,-4],[3,-4],[-2,-15],[-23,-16],[-31,-51],[-119,-112],[-2,-3],[-1,-1],[-1,-2],[-2,-3]],[[3113,2925],[8,-11],[11,-6],[3,-1],[2,-3],[-1,-11]],[[3377,3545],[-2,-2]],[[3375,3543],[-1,-33]],[[3374,3510],[60,-179]],[[3434,3331],[3,-11],[-2,-5],[-2,-3],[-2,-2],[-111,-80],[-171,-217]],[[3374,3510],[3,35]],[[3377,3545],[17,29],[42,6]],[[3375,3543],[-4,-19],[17,-75],[5,-20],[7,-27],[1,-3],[4,-11],[7,-15],[8,-17]],[[3420,3356],[13,-24]],[[3433,3332]],[[3420,3356],[11,-20],[2,-4]],[[3434,3331],[-1,1]],[[1491,114],[-44,-102],[1,-12]],[[1493,153],[-17,44],[4,13],[16,21],[2,3],[2,4],[1,5],[3,29],[11,33],[6,23],[43,50],[5,4],[17,8],[4,4],[3,2],[2,3],[2,4],[7,39],[1,12],[-4,39],[6,48],[2,8],[4,5],[11,11],[2,3],[2,3],[3,7],[1,5],[0,4],[-1,48],[31,84],[1,4],[0,3],[0,2],[-1,5],[-8,26],[0,14],[0,3],[-1,4],[-28,59],[-3,4],[-2,3],[-85,84],[-10,12],[1,48],[0,3],[-1,5],[-1,4],[-2,6],[-18,38],[-101,199],[-11,20],[-2,4],[-3,4],[-3,2],[-6,5],[-74,45],[-5,8],[-24,64],[-2,4],[-2,2],[-2,2],[-3,3],[-39,34],[-17,34],[-19,97],[-1,5],[-16,39],[-13,26],[-4,25],[6,12],[18,13],[4,5],[1,1],[2,3],[1,4],[1,5],[-1,30],[4,10],[51,51],[4,5],[2,3],[4,9]],[[1479,4095],[2,1]],[[1585,4096],[20,-56],[91,-105],[11,-65],[-75,-147],[-95,-90],[-10,-59],[-58,-69],[-25,-157],[20,-112],[-52,-143],[-70,-411],[16,-322],[-64,-323],[1,-136],[-102,-149],[-4,-11],[-2,-39],[-24,-22],[-4,-7],[-1,-3],[-1,-4],[3,-23],[31,-70],[17,-94],[2,-3],[3,-7],[12,-24],[79,-120],[88,-60],[130,-257],[4,-15],[-4,-42],[1,-5],[2,-4],[1,-2],[9,-10],[87,-87],[32,-67],[0,-17],[8,-38],[-31,-86],[0,-57],[-22,-29],[-2,-8],[-6,-48],[3,-50],[-7,-40],[-33,-25],[-43,-50],[-17,-56],[-4,-33],[-20,-29],[-4,-13],[22,-68],[-31,-54]],[[1480,96],[7,10]],[[1867,4055],[70,41]],[[1864,4096],[3,-41]],[[1574,4096],[-25,-51]],[[1531,4045],[18,0]],[[1531,4045],[-41,51]],[[1519,4035],[12,10]],[[1549,4045],[24,0],[36,-21]],[[1477,4024],[42,11]],[[1609,4024],[18,-10],[96,0],[48,10],[96,31]],[[426,3993],[44,45]],[[426,3993]],[[470,4038],[16,17],[20,41]],[[1519,4035],[-6,-63]],[[2737,4096],[13,-51],[5,-45]],[[2755,4000],[1,-18],[-6,-21]],[[1513,3972],[-12,-21]],[[1519,3940],[-6,32]],[[1189,3919],[48,21],[132,42],[72,32],[36,10]],[[1150,4093],[0,3]],[[1189,3919],[-30,42],[-4,15]],[[1155,3976],[-8,27],[-6,42],[9,48]],[[3488,4096],[-9,-28]],[[3479,4068],[-8,-23],[-6,-42],[24,-105]],[[1861,4003],[-18,-136]],[[1603,3993],[60,-21],[78,-21],[78,-53],[24,-31]],[[1501,3951],[-42,-63],[-42,-52],[-54,-53]],[[2060,3783],[-66,0],[-30,-10]],[[1843,3867],[36,-31],[61,-42],[24,-21]],[[1537,3773],[-6,42],[-24,52],[12,73]],[[1363,3783],[-60,-31]],[[1303,3752],[-78,94],[-36,73]],[[2076,3783],[-16,0]],[[2336,3741],[-54,21],[-36,32],[-60,10],[-46,-18]],[[2140,3786],[-8,-3],[-56,0]],[[2750,3961],[-24,-52],[-60,-84],[-60,-125]],[[2356,3736],[-20,5]],[[2606,3700],[-84,31],[-72,0],[-42,-10],[-52,15]],[[807,3694],[69,16],[2,1]],[[919,3727],[66,25],[24,21],[36,42],[72,52],[72,52]],[[786,3689],[21,5]],[[878,3711],[41,16]],[[1363,3783],[48,-42],[-6,-20],[-36,-53]],[[1369,3668],[-66,84]],[[1507,3647],[18,53],[12,73]],[[624,3626],[87,34]],[[711,3660],[75,29]],[[624,3626],[-18,53],[-6,94],[-8,34]],[[592,3807],[-4,18],[-18,32],[-36,10],[-48,11],[-48,41],[-24,63],[12,11]],[[1843,3867],[-24,-84],[-42,-73],[-60,-73],[-24,-11]],[[1537,3773],[42,-42],[42,-42],[72,-63]],[[1446,3623],[-77,45]],[[1495,3595],[-26,15]],[[1469,3610],[-23,13]],[[1507,3647],[18,-63]],[[1525,3584],[-30,11]],[[3489,3898],[0,-31],[-24,-73],[0,-42],[-12,-52],[-54,-95],[-30,-31]],[[1693,3626],[-66,-42],[-54,-10],[-48,10]],[[1693,3626],[15,-19]],[[1721,3566],[2,-13]],[[1708,3607],[9,-12],[4,-29]],[[594,3617],[30,9]],[[186,3522],[162,52],[114,10],[60,11],[72,22]],[[0,3491],[96,10],[90,21]],[[746,3494],[-8,-4],[-4,-2]],[[1014,3595],[-52,-25]],[[1303,3752],[-120,-73],[-62,-32]],[[734,3488],[-104,-61]],[[962,3570],[-14,-6],[-108,-32],[-94,-38]],[[1121,3647],[-40,-21],[-67,-31]],[[614,3510],[10,64],[0,52]],[[630,3427],[-18,74],[2,9]],[[2656,3456],[-2,-8],[-33,-57]],[[2606,3700],[6,-53],[42,-115],[6,-52],[-4,-24]],[[2621,3391],[-3,-5]],[[3369,3574],[-24,-21],[-24,-42],[0,-52],[36,-94],[6,-32]],[[2748,3660],[-39,9]],[[2709,3669],[-49,10],[-54,21]],[[3363,3333],[-84,42],[-66,21],[-78,42],[-108,52],[-90,74],[-54,20],[-72,63],[-63,13]],[[1447,3229],[6,62],[12,84],[5,26]],[[1477,3459],[0,63],[18,73]],[[1470,3401],[7,37],[0,21]],[[2535,3232],[-1,-3],[-56,-49]],[[2478,3180],[-28,-25]],[[2618,3386],[-66,-95],[-17,-59]],[[1964,3773],[11,-15]],[[2047,3658],[1,0],[51,-58]],[[1975,3758],[72,-100]],[[2099,3600],[15,-16],[54,-62],[30,-53],[36,-31],[90,-105],[24,-31],[48,-84],[30,-31],[24,-32]],[[1114,3389],[-21,-24],[-20,-35]],[[1369,3668],[-45,-52]],[[1073,3330],[-16,-28],[-24,-73],[-42,-63],[-37,-32]],[[1324,3616],[-63,-73],[-132,-136],[-15,-18]],[[954,3134],[-48,11],[-18,52],[-18,32],[-168,83],[-48,53],[-24,42],[0,20]],[[2450,3155],[-60,-31]],[[3363,3333],[-18,-52],[-54,-73],[-90,-105]],[[3609,3093],[-34,42]],[[3575,3135],[-8,10],[-60,73],[-60,84],[-84,31]],[[1447,3229],[-96,-21],[-5,-3]],[[1346,3205],[-49,-29],[-102,-94]],[[1195,3082],[-102,32],[-30,10],[-109,10]],[[630,3427],[-156,-177],[-36,-63],[-24,-32],[-60,-62],[-60,-42]],[[294,3051],[-48,-42]],[[2390,3124],[-42,-31],[-48,-21],[-54,-11],[-78,-10],[-78,0],[-60,0],[-48,-11],[-66,-52],[-43,-21],[-42,10],[-36,-10]],[[1747,3295],[-10,-87]],[[1723,3553],[6,-31],[24,-115],[0,-12]],[[1737,3208],[-2,-11],[0,-42],[6,-31],[30,-73],[24,-84]],[[1753,3395],[0,-41],[-6,-59]],[[1795,2967],[-102,-10],[-84,10],[-72,-10],[-78,-21]],[[1525,3584],[12,-125],[0,-18]],[[1537,3441],[0,-191],[-6,-105],[-24,-94],[-48,-115]],[[1400,2979],[41,135],[6,115]],[[1393,2925],[6,52],[1,2]],[[1459,2936],[-66,-11]],[[1393,2925],[-30,0],[-42,42],[-48,73],[-78,42]],[[3668,3033],[-59,60]],[[4096,2894],[-36,42],[-48,10],[-138,-42],[-42,32],[-18,21],[-133,62],[-13,14]],[[1795,2967],[12,-42],[18,-115]],[[1195,3082],[-42,-42],[-42,-42],[-102,-62],[-163,-105],[-48,-31]],[[954,3134],[-54,-73],[-42,-84],[-36,-83],[-24,-94]],[[3148,3037],[-49,-60],[-42,-31],[-36,-16]],[[3021,2930],[-60,-26],[-60,-42],[-84,-62]],[[3201,3103],[-53,-66]],[[2450,3155],[48,-41],[54,-21],[108,-53],[48,-52],[66,-136],[43,-52]],[[5,2705],[-5,7]],[[798,2800],[-186,-105],[-60,-32]],[[0,2703],[5,2]],[[1825,2810],[24,-105],[36,-52]],[[1400,2745],[1,17]],[[1333,2580],[48,73],[18,63],[1,29]],[[1401,2762],[4,79],[-12,84]],[[150,2620],[0,-40]],[[246,3009],[-12,-21],[-36,-84],[-12,-42],[-6,-83],[-30,-116],[0,-43]],[[150,2580],[-37,21]],[[113,2601],[-35,21],[-55,62],[-18,21]],[[1459,2936],[-24,-74],[-6,-73],[-12,-209]],[[552,2663],[-48,-20],[-18,-11],[-36,-63],[-36,-31],[-84,-63]],[[165,2570],[-15,10]],[[330,2475],[-114,63],[-51,32]],[[1291,2513],[2,4]],[[1273,2444],[0,21],[18,48]],[[1293,2517],[4,10],[36,53]],[[2817,2800],[-49,-42],[-42,-32],[-96,-125],[-54,-63],[-72,-52],[-96,-63],[-48,-21]],[[3254,2502],[1,4]],[[3219,2339],[18,52],[1,9]],[[3593,3041],[4,31],[12,21]],[[3238,2400],[5,44],[11,58]],[[3255,2506],[24,32],[90,115],[36,73],[36,32],[54,31],[72,11],[12,136],[14,105]],[[3170,2368],[49,-29]],[[2817,2800],[60,-95],[48,-62],[42,-42],[36,-32],[90,-73],[18,-31],[18,-53],[18,-31],[23,-13]],[[330,2475],[-42,-31],[-60,-32],[-78,-63],[-18,-20]],[[124,2467],[-16,-65],[-36,-62]],[[150,2580],[-18,-79]],[[72,2340],[-1,-1],[0,-10]],[[132,2501],[-6,-26],[-2,-8]],[[71,2329],[61,0]],[[2360,2402],[-126,-32],[-78,11],[-42,-11],[-120,-62]],[[1885,2653],[7,-63],[12,-42],[66,-94],[6,-63],[18,-83]],[[1417,2580],[12,-94],[42,-147],[0,-31],[-6,-95]],[[1994,2308],[-78,-11],[-79,0],[-36,0],[-60,-31],[-78,-21],[-72,-11],[-126,-21]],[[1465,2213],[-48,0],[-90,11],[-78,-21]],[[1249,2203],[18,146],[6,53],[0,42]],[[1231,2109],[18,94]],[[62,2313],[-5,-10]],[[57,2303],[-4,-6],[-53,-42]],[[71,2329],[-9,-16]],[[1225,2025],[6,84]],[[762,2258],[-84,39],[-108,42],[-62,29]],[[1208,2032],[-69,28]],[[508,2368],[-70,34],[-108,73]],[[1139,2060],[-16,7],[-60,21],[-78,42],[-31,21],[-186,104],[-6,3]],[[1225,2025],[-17,7]],[[3560,2045],[43,-41]],[[3219,2339],[54,-42],[42,-10],[41,-48]],[[3356,2239],[67,-78],[114,-94],[23,-22]],[[1994,2308],[12,-53],[18,-104],[-6,-42],[18,-32],[48,-83]],[[71,2329],[-12,-84],[-59,-59]],[[1369,1910],[24,31],[12,84],[18,73],[30,74],[12,41]],[[1231,2109],[66,-53],[30,-41],[36,-63],[6,-42]],[[1243,1879],[-10,82]],[[1233,1961],[-8,64]],[[2239,1717],[19,-16],[52,-31]],[[2084,1994],[12,-74],[42,-83],[36,-63],[65,-57]],[[2310,1670],[20,-11]],[[1267,1648],[66,115],[36,84],[0,63]],[[1247,1854],[-4,25]],[[1267,1648],[-12,105],[0,63],[-8,38]],[[2330,1659],[-6,-32]],[[3603,2004],[3,-3]],[[3606,2001],[51,-60],[139,-136],[60,-63],[78,-83],[60,-53],[72,-73],[30,-29]],[[2324,1627],[-6,-52],[-6,-105],[6,-104],[18,-136],[0,-74],[6,-136]],[[1285,926],[6,157],[-12,63],[-6,115],[12,63],[0,136],[0,31],[-12,115],[-6,42]],[[780,895],[32,2]],[[812,897],[94,8],[193,11],[102,0],[84,10]],[[678,863],[18,21],[84,11]],[[2324,1627],[6,-31],[12,-63],[36,-52],[42,-42],[102,-94],[36,-42],[72,-126],[78,-146],[54,-84],[67,-94],[54,-73]],[[1315,748],[-24,115],[-6,63]],[[2883,780],[66,-74],[78,-52],[54,-52]],[[2312,445],[168,10]],[[2342,1020],[12,-157],[0,-94],[24,-63],[0,-62],[-24,-74],[-42,-125]],[[1441,434],[-30,63],[-36,84],[-30,94],[-30,73]],[[780,895],[-6,-32]],[[774,863],[-6,-31],[0,-42],[48,-136],[36,-178],[24,-42],[6,-31],[-6,-63]],[[0,615],[71,-34],[109,-42],[66,-11],[84,-31],[54,-10],[102,-42],[180,-63],[60,-11],[120,-21],[30,-10]],[[4096,647],[-18,-24],[-72,-74],[-48,-52],[-36,-52],[-72,-105],[-24,-31],[-36,-32],[-78,-21],[-25,-10],[-84,-63]],[[3081,602],[48,-53],[36,-52],[30,-21],[48,-31],[84,-21],[54,0],[36,-11],[42,-42],[144,-188]],[[1703,245],[-22,-10],[-54,-42],[-36,-62],[-36,-32],[-24,0]],[[2312,445],[-108,-11],[-126,-42],[-72,-21],[-78,-21],[-225,-105]],[[1484,331],[-14,33]],[[1531,99],[6,32],[-6,73],[-20,55]],[[1470,364],[-29,70]],[[1511,259],[-22,60],[-5,12]],[[3603,183],[78,-94]],[[1404,319],[-17,-84],[-22,-31]],[[1365,204],[-14,-21],[-12,-63],[6,-94]],[[1441,434],[-24,-52],[-13,-63]],[[876,340],[48,-10],[115,-32],[54,-42],[66,-83],[48,-42],[36,-42],[36,-32],[66,-31]],[[1483,16],[12,41],[36,42]],[[2480,455],[54,-21],[24,-10],[48,-74],[108,-115],[18,-73],[70,-162]],[[1443,0],[40,16]],[[1345,26],[48,-21],[18,-5]],[[3603,183],[-90,-42],[-36,-21],[-108,-104],[-19,-16]],[[2312,445],[0,-32],[24,-94],[0,-31],[-30,-84],[-66,-157],[-27,-47]],[[1548,0],[-11,26],[-6,73]],[[1478,0],[5,16]],[[1345,26],[-4,-26]],[[3681,89],[57,-89]],[[946,4076],[-16,-10],[-19,7]],[[911,4073],[-35,14],[-24,9]],[[976,4096],[-30,-20]],[[1285,926],[-42,-63],[-12,-125],[0,-168],[6,-136],[0,-125],[6,-126],[-6,-84],[0,-99]],[[0,4096],[3133,0],[963,0],[0,-4096],[-4096,0],[0,4096]],[[3252,2502],[124,156],[40,-34],[53,22],[40,-64],[52,26],[17,-17],[-19,-54],[-201,1],[-28,-59],[-35,-8],[-14,33],[-29,-2]],[[1590,0],[-162,0],[-72,234],[32,74],[97,67],[-2,-75],[-62,-38],[18,-33],[79,33],[68,-57],[110,57],[10,-24],[-10,-89],[42,-149],[-97,0],[-26,36],[-22,-8],[-3,-28]],[[810,908],[9,-50],[-52,6],[-12,-34],[-80,0],[-18,-29],[-11,16],[0,57],[60,69],[76,-6],[28,-29]],[[3394,1474],[-28,39],[0,61],[23,54],[38,15],[-33,-169]],[[2958,1728],[-80,9],[-1,48],[50,19],[31,-76]],[[2428,1791],[83,20],[26,-27],[3,-41],[-51,-43],[-17,-57],[-23,-2],[-24,57],[-115,-26],[-16,-29],[-64,57],[64,113],[40,-18],[9,-39],[48,57],[37,-22]],[[3572,1982],[-16,84],[16,85],[55,-93],[-9,-50],[-46,-26]],[[1206,2053],[4,-43],[-35,29],[-30,-29],[-19,17],[36,96],[44,-70]],[[970,1793],[-51,20],[8,35],[73,21],[-30,-76]],[[2234,1817],[-46,-1],[-37,47],[-2,91],[113,-85],[-28,-52]],[[1275,1841],[-113,56],[2,34],[62,23],[49,56],[0,-28],[81,-28],[0,-51],[-81,-62]],[[1404,2743],[-97,56],[21,48],[34,-3],[31,-38],[11,-63]],[[3605,3279],[16,-56],[65,-29],[-33,-56],[16,-113],[-129,28],[48,113],[-11,29],[-53,6],[0,50],[32,28],[49,0]],[[3303,2988],[-86,-161],[16,-56],[-16,-56],[-26,4],[-55,108],[-33,0],[-113,142],[32,56],[17,-56],[64,56],[108,30],[54,1],[49,-31],[-11,-37]],[[281,3059],[-93,26],[38,125],[108,-40],[-13,-74],[-40,-37]],[[2497,3167],[-41,27],[49,113],[28,-35],[4,-78],[-40,-27]],[[1780,3173],[-58,46],[-10,60],[29,21],[58,-46],[10,-60],[-29,-21]],[[3475,3561],[-64,0],[6,61],[26,20],[26,-20],[6,-61]],[[2747,3645],[-42,26],[-6,87],[51,-39],[-3,-74]],[[3341,3641],[-44,32],[10,67],[68,45],[36,-27],[-13,-54],[-57,-63]],[[40,3676],[-28,17],[-2,69],[65,0],[-6,-60],[-29,-26]],[[965,4069],[19,-85],[-35,-17],[-30,45],[-16,-85],[-49,57],[28,66],[43,35],[40,-16]],[[463,3959],[-48,44],[-16,93],[51,0],[22,-26],[-9,-111]],[[3549,4096],[-9,-28],[-65,0],[-48,-84],[-49,56],[-64,-56],[-65,28],[32,84],[268,0]],[[2585,3955],[-62,19],[-18,94],[59,-23],[21,-90]],[[2828,4096],[-32,-28],[16,-113],[-90,71],[-7,42],[14,28],[99,0]],[[2341,4096],[2,-56],[-22,-14],[-65,70],[85,0]],[[3166,4096],[-37,-61],[-90,5],[-12,56],[139,0]],[[2966,4096],[-19,-20],[-21,20],[40,0]],[[576,3450],[-80,30],[17,49],[57,-18],[23,-31],[-17,-30]],[[1100,3324],[-74,17],[-10,79],[97,-28],[13,-36],[-26,-32]],[[2619,3390],[-82,1],[16,142],[113,-85],[-14,-45],[-33,-13]],[[1514,3233],[-12,-95],[-33,0],[16,-57],[-16,-56],[-57,-19],[-8,-38],[-64,142],[17,30],[32,-63],[32,5],[-4,49],[-107,111],[-19,65],[97,-84],[43,66],[6,131],[48,-28],[29,-159]],[[724,3630],[-2,-65],[33,-57],[-17,-28],[-64,113],[-39,-17],[-10,-68],[-21,4],[-27,307],[91,-68],[56,-121]],[[1992,4096],[11,-56],[-48,-56],[32,-85],[38,2],[9,36],[-15,103],[211,28],[-5,-35],[-76,-49],[-10,-130],[45,-40],[94,0],[54,-27],[27,-57],[-30,-53],[-19,-4],[-25,82],[-37,-23],[46,-59],[5,-69],[76,-43],[86,35],[22,-15],[-2,-82],[-57,33],[-65,-28],[-16,28],[-116,14],[-14,99],[-80,-28],[27,157],[-59,36],[-49,-52],[32,-56],[24,-155],[-27,-67],[-159,109],[18,52],[24,-1],[58,-70],[30,3],[-5,99],[-60,86],[-37,0],[-44,-113],[-97,28],[-105,-69],[-8,-43],[145,28],[-32,-85],[36,-92],[-20,-21],[-89,5],[-78,94],[-50,-58],[-58,44],[0,-28],[-33,-18],[-70,51],[-26,-5],[-28,30],[22,81],[-27,30],[-16,-56],[-21,6],[-60,106],[-97,8],[-12,-26],[45,-38],[-25,-30],[-71,24],[-15,56],[46,7],[-17,84],[65,113],[-39,22],[-59,-94],[-63,-41],[6,-58],[44,-43],[-131,-96],[-49,84],[0,85],[-65,28],[49,-98],[-32,-15],[-59,38],[-21,48],[31,83],[-49,113],[36,6],[126,-147],[31,6],[-33,51],[18,28],[15,-31],[79,44],[11,212],[89,0],[-72,-143],[8,-54],[43,10],[5,47],[66,53],[-8,53],[-41,34],[614,0],[0,-28],[59,-2],[21,30],[152,0]],[[1447,3707],[6,-59],[-16,-59],[47,31],[17,82],[-40,27],[-14,-22]],[[3378,2235],[-162,29],[-45,39],[-3,158],[97,-84],[162,-29],[-49,-113]],[[0,2409],[0,113],[34,-42],[106,-15],[-29,129],[13,40],[42,-23],[-4,-130],[-22,-16],[0,-113],[-72,-13],[-9,-43],[-33,113],[-26,0]],[[1358,2504],[-15,-47],[-19,32],[-33,0],[0,28],[-32,-28],[-33,29],[33,56],[32,-56],[67,-14]],[[1447,1890],[38,31],[105,-4],[45,-150],[-148,-19],[0,29],[-32,-1],[-8,114]],[[305,1991],[27,34],[2,74],[33,29],[18,127],[111,94],[51,79],[90,-36],[82,6],[17,-39],[21,39],[49,-22],[3,-90],[-50,-17],[18,-61],[88,-82],[-32,-22],[54,-59],[-16,-45],[47,-69],[-37,-72],[12,-42],[-20,-50],[-57,19],[3,35],[-25,-14],[-35,33],[-72,-3],[1,31],[-45,-20],[-55,33],[-72,-14],[0,22],[-75,17],[-92,47],[12,27],[-56,11]],[[793,1838],[7,-12],[33,-7],[-12,26],[-28,-7]]]}