{"objects":{"water":{"type":"GeometryCollection","geometries":[{"type":"Polygon","properties":{"source":"naturalearthdata.com","kind":"ocean","area":1576712559132672,"sort_rank":200,"min_zoom":0.0,"id":1},"arcs":[[40]]},{"type":"LineString","properties":{"source":"naturalearthdata.com","kind":"ocean","sort_rank":205,"boundary":true,"min_zoom":0.0,"id":45},"arcs":[41]}]},"buildings":{"type":"GeometryCollection","geometries":[]},"places":{"type":"GeometryCollection","geometries":[{"type":"Point","properties":{"name:kg":"Eritrea","name:ka":"\u10d4\u10e0\u10d8\u10e2\u10e0\u10d4\u10d0","name:ko":"\uc5d0\ub9ac\ud2b8\ub9ac\uc544","name:kn":"\u0c8f\u0cb0\u0cbf\u0c9f\u0ccd\u0cb0\u0cbf\u0caf\u0cbe","name:cu":"\u0404\u0440\u0477\u0473\u0440\u0457\ua657","name:kl":"Eritrea","name:cs":"Eritrea","name:ki":"Eritrea","name:kw":"Eritrea","name:tk":"Eritre\u00fda","name:ku":"Er\u00eetrea","name:ks":"\u0627\u0650\u0631\u0655\u0679\u0650\u06cc\u0627","name:to":"\u02bbElitulia","name:tl":"Eritrea","name:ce":"\u042d\u0440\u0438\u0442\u0440\u0435","name:ta":"\u0b8e\u0bb0\u0bbf\u0b9f\u0bcd\u0bb0\u0bbf\u0baf\u0bbe","name:tg":"\u042d\u0440\u0438\u0442\u0440\u0435\u044f","name:ca":"Eritrea","name:te":"\u0c0e\u0c30\u0c3f\u0c1f\u0c4d\u0c30\u0c3f\u0c2f\u0c3e","name:cy":"Eritrea","name:hr":"Eritreja","name:da":"Eritrea","name:de":"Eritrea","name:dz":"\u0f68\u0f7a\u0f0b\u0f62\u0f72\u0f0b\u0f4a\u0fb2\u0f7a\u0f0b\u0f61","source":"openstreetmap.org","name:ts":"Eritreya","name:dv":"\u0787\u07ac\u0783\u07a8\u078c\u07aa\u0783\u07a8\u0787\u07a7","name:km":"\u17a2\u17c1\u179a\u17b8\u1791\u17d2\u179a\u17b6","name:lv":"Eritreja","name:lt":"Eritr\u0117ja","name:uz":"Eritriya","name:kk":"\u042d\u0440\u0438\u0442\u0440\u0435\u044f","name:ur":"\u0627\u0631\u06cc\u0679\u06cc\u0631\u06cc\u0627","name:lb":"Eritrea","name:la":"Erythraea","name:lg":"Eritureya","name:uk":"\u0415\u0440\u0438\u0442\u0440\u0435\u044f","name:ug":"\u0626\u06d0\u0631\u0649\u062a\u0631\u06d0\u064a\u06d5","name:li":"Eritrea","name:ln":"Elitel\u025b","name:lo":"\u0ec0\u0ead\u0ea3\u0eb4\u0ec0\u0e97\u0ea3\u0e8d","name:el":"\u0395\u03c1\u03c5\u03b8\u03c1\u03b1\u03af\u03b1","name:eo":"Eritreo","name:en":"Eritrea","name":"\u12a4\u122d\u1275\u122b","name:ee":"Eritrea nutome","name:th":"\u0e1b\u0e23\u0e30\u0e40\u0e17\u0e28\u0e40\u0e2d\u0e23\u0e34\u0e40\u0e17\u0e23\u0e35\u0e22","name:eu":"Eritrea","name:et":"Eritrea","name:es":"Eritrea","name:ia":"Eritrea","name:rm":"Eritrea","name:rn":"Elitereya","name:az":"Eritreya","name:ie":"Eritr\u00e9a","name:id":"Eritrea","name:ar":"\u0625\u0631\u064a\u062a\u0631\u064a\u0627","name:io":"Eritrea","name:ak":"\u0190ritrea","name:it":"Eritrea","name:an":"Eritrea","name:aa":"Eretria","name:ru":"\u042d\u0440\u0438\u0442\u0440\u0435\u044f","name:rw":"Eritereya","name:af":"Eritrea","name:zu":"i-Eritrea","name:ky":"\u042d\u0440\u0438\u0442\u0440\u0435\u044f","name:zh-yue":"\u5384\u7acb\u7279\u91cc\u4e9e","name:zh":"\u5384\u7acb\u7279\u91cc\u4e9a","name:so":"Eretereeya","name:sn":"Eritrea","name:sl":"Eritreja","name:sk":"Eritrea","name:ja":"\u30a8\u30ea\u30c8\u30ea\u30a2","name:si":"\u0d91\u0dbb\u0dd2\u0dad\u0dca\u200d\u0dbb\u0dd2\u0dba\u0dcf\u0dc0","name:sh":"Eritreja","name:sg":"Eritr\u00ebe","name:se":"Eritrea","name:sc":"Eritrea","name:sa":"\u0907\u0930\u0940\u091f\u094d\u0930\u093f\u092f\u093e","name:bs":"Eritreja","name:bm":"Eritere","name:bn":"\u0987\u09b0\u09bf\u09a4\u09cd\u09b0\u09bf\u09af\u09bc\u09be","name:bo":"\u0f68\u0f7a\u0f0b\u0f62\u0f72\u0f0b\u0f4f\u0fb2\u0f7a\u0f0b\u0f68\u0f0d","name:br":"Eritrea","name:sw":"Eritrea","name:be":"\u042d\u0440\u044b\u0442\u0440\u044d\u044f","name:su":"\u00c9ritr\u00e9a","name:bg":"\u0415\u0440\u0438\u0442\u0440\u0435\u044f","name:ss":"IRitheya","name:ba":"\u042d\u0440\u0438\u0442\u0440\u0435\u044f","name:sq":"Eritre","name:jv":"Eritrea","name:pt":"Eritreia;Eritr\u00e9ia","name:ps":"\u0627\u0631\u06cc\u062a\u0631\u0647","name:om":"Eritrea","name:oc":"Eritr\u00e8a","min_zoom":2.0,"name:ro":"Eritreea","name:zh-min-nan":"Eritrea","name:os":"\u042d\u0440\u0438\u0442\u0440\u0435\u0439","name:or":"\u0b07\u0b30\u0b3f\u0b1f\u0b4d\u0b30\u0b3f\u0b5f\u0b3e","name:pl":"Erytrea","name:st":"Eritrea","name:sr":"\u0415\u0440\u0438\u0442\u0440\u0435\u0458\u0430","name:pa":"\u0a07\u0a30\u0a40\u0a24\u0a30\u0a40\u0a06","name:tr":"Eritre","name:hi":"\u0907\u0930\u093f\u091f\u094d\u0930\u093f\u092f\u093e","name:sv":"Eritrea","name:he":"\u05d0\u05e8\u05d9\u05ea\u05e8\u05d9\u05d0\u05d4","name:ha":"Eritireya","name:hy":"\u0537\u0580\u056b\u057f\u0580\u0565\u0561","name:ht":"Eritre","name:hu":"Eritrea","name:qu":"Iritriya","population":5293800,"kind":"country","name:is":"Er\u00edtrea","name:yi":"\u05e2\u05e8\u05d9\u05d8\u05e8\u05e2\u05d0","name:yo":"Or\u00edl\u1eb9\u0301\u00e8de Eritira","name:mt":"Eritreja","name:ms":"Eritrea","name:mr":"\u0907\u0930\u093f\u091f\u094d\u0930\u093f\u092f\u093e","name:my":"\u1021\u102e\u101b\u102e\u1011\u101b\u102e\u1038\u101a\u102c\u1038\u1014\u102d\u102f\u1004\u103a\u1004\u1036","official_name":"\u1203\u1308\u1228 \u12a4\u122d\u1275\u122b;\u062f\u0648\u0644\u0629 \u0625\u0631\u062a\u0631\u064a\u0627","int_name":"Eritrea","name:mg":"Eritrea","name:ml":"\u0d0e\u0d31\u0d3f\u0d24\u0d4d\u0d30\u0d3f\u0d2f","name:vi":"Eritrea","name:mn":"\u042d\u043d\u044d\u0442\u0445\u044d\u0433","id":424316022,"name:mk":"\u0415\u0440\u0438\u0442\u0440\u0435\u0458\u0430","name:vo":"Ler\u00fctr\u00e4n","name:fa":"\u0627\u0631\u06cc\u062a\u0631\u0647","name:ff":"Eriteree","name:fi":"Eritrea","name:fo":"Eritrea","name:fr":"\u00c9rythr\u00e9e","name:fy":"Eritre\u00e4","name:nl":"Eritrea","name:nn":"Eritrea","name:no":"Eritrea","name:na":"Eritrea","name:ne":"\u090f\u0930\u093f\u0924\u094d\u0930\u093f\u092f\u093e","name:wo":"Eritere","name:ga":"An Eiritr\u00e9","name:gd":"Ertra","name:gn":"Erityrea","name:gl":"Eritrea","name:gv":"Eritrea","name:gu":"\u0a8f\u0ab0\u0abf\u0a9f\u0acd\u0ab0\u0abf\u0aaf\u0abe","name:tt":"\u042d\u0440\u0438\u0442\u0440\u0435\u044f"},"coordinates":[2093,3060]},{"type":"Point","properties":{"kind":"region","name:en":"Southern Zone","name":"\u12de\u1263 \u12f0\u1261\u1265 \u0627\u0644\u0645\u0646\u0637\u0642\u0629 \u0627\u0644\u062c\u0646\u0648\u0628\u064a\u0629","kind_detail":"state","name:ar":"\u0627\u0644\u0645\u0646\u0637\u0642\u0629 \u0627\u0644\u062c\u0646\u0648\u0628\u064a\u0629","name:de":"S\u00fcd-Region","source":"openstreetmap.org","min_zoom":4.0,"name:ti":"\u12de\u1263 \u12f0\u1261\u1265","name:ru":"\u042e\u0436\u043d\u0430\u044f \u043f\u0440\u043e\u0432\u0438\u043d\u0446\u0438\u044f","id":321516870,"population":755379},"coordinates":[3281,1490]},{"type":"Point","properties":{"kind":"region","name:en":"Gash-Barka Zone","name":"\u0645\u0646\u0637\u0642\u0629 \u0627\u0644\u0642\u0627\u0634 \u0648\u0628\u0631\u0643\u0627 Zoba Gash-Barka","kind_detail":"state","name:ar":"\u0645\u0646\u0637\u0642\u0629 \u0627\u0644\u0642\u0627\u0634 \u0648\u0628\u0631\u0643\u0627","name:de":"Region Gash-Barka","source":"openstreetmap.org","min_zoom":4.0,"name:ti":"\u12de\u1263 \u130b\u123d \u1263\u122d\u12ab","name:it":"Regione di Gash-Barka","name:ru":"\u0413\u0430\u0448-\u0411\u0430\u0440\u043a\u0430","id":321516872,"population":564574},"coordinates":[1365,2003]},{"type":"Point","properties":{"kind":"region","name:en":"Central Zone","name":"\u0627\u0644\u0645\u0646\u0637\u0642\u0629 \u0627\u0644\u0645\u0631\u0643\u0632\u064a\u0629 Zoba Ma\u2019\u0101kel","kind_detail":"state","name:ar":"\u0627\u0644\u0645\u0646\u0637\u0642\u0629 \u0627\u0644\u0645\u0631\u0643\u0632\u064a\u0629","name:de":"Zentral-Region","source":"openstreetmap.org","min_zoom":4.0,"name:ti":"\u12de\u1263 \u121b\u12a5\u12a8\u120d","name:ru":"\u0426\u0435\u043d\u0442\u0440\u0430\u043b\u044c\u043d\u0430\u044f \u043f\u0440\u043e\u0432\u0438\u043d\u0446\u0438\u044f","id":321516867,"population":538749},"coordinates":[3429,2129]},{"type":"Point","properties":{"kind":"region","name:en":"Zoba \u0100nseba","name":"\u0625\u0642\u0644\u064a\u0645 \u0639\u0646\u0633\u0628\u0627 Zoba \u0100nseba","kind_detail":"state","name:ar":"\u0645\u0646\u0637\u0642\u0629 \u0639\u0646\u0633\u0628\u0627","name:de":"Region Anseba","source":"openstreetmap.org","min_zoom":4.0,"name:ti":"\u12de\u1263 \u12d3\u1295\u1235\u1263","name:it":"Regione dell'Anseba","name:ru":"\u0410\u043d\u0441\u044d\u0431\u0430","id":321516869},"coordinates":[1365,3890]},{"type":"Point","properties":{"kind":"region","name:en":"Northern Red Sea Zone","name":"\u0645\u0646\u0637\u0642\u0629 \u0627\u0644\u0628\u062d\u0631 \u0627\u0644\u0623\u062d\u0645\u0631 \u0627\u0644\u0634\u0645\u0627\u0644 Zoba Sem\u0113naw\u012b K\u2019eyih Bahr\u012b","kind_detail":"state","name:ar":"\u0645\u0646\u0637\u0642\u0629 \u0627\u0644\u0628\u062d\u0631 \u0627\u0644\u0623\u062d\u0645\u0631 \u0627\u0644\u0634\u0645\u0627\u0644","name:de":"Region des n\u00f6rdlichen Roten Meeres","source":"openstreetmap.org","min_zoom":4.0,"name:ti":"\u12de\u1263 \u1230\u121c\u1293\u12ca \u1240\u12ed\u1215 \u1263\u1215\u122a","name:ru":"\u0421\u0435\u0432\u0435\u0440\u043d\u0430\u044f \u041a\u0440\u0430\u0441\u043d\u043e\u043c\u043e\u0440\u0441\u043a\u0430\u044f \u043f\u0440\u043e\u0432\u0438\u043d\u0446\u0438\u044f","id":321516868},"coordinates":[3550,3135]},{"type":"Point","properties":{"source":"naturalearthdata.com","kind":"locality","name":"Asmara","country_capital":true,"population":620802,"min_zoom":5.0,"id":6953},"coordinates":[3453,2129]},{"type":"Point","properties":{"source":"naturalearthdata.com","kind":"locality","name":"Mendefera","population":257390,"region_capital":true,"min_zoom":7.0,"id":3598},"coordinates":[3282,1453]},{"type":"Point","properties":{"source":"naturalearthdata.com","kind":"locality","name":"Keren","population":150000,"min_zoom":7.0,"id":3597},"coordinates":[2749,2653]},{"type":"Point","properties":{"source":"naturalearthdata.com","kind":"locality","name":"Aksum","population":47487,"min_zoom":7.0,"id":3979},"coordinates":[3142,313]},{"type":"Point","properties":{"source":"naturalearthdata.com","kind":"locality","name":"Agordat","population":28600,"min_zoom":7.0,"id":3595},"coordinates":[1928,2455]},{"type":"Point","properties":{"source":"naturalearthdata.com","kind":"locality","name":"Tessenei","population":15255,"min_zoom":7.0,"id":3594},"coordinates":[138,1792]}]},"transit":{"type":"GeometryCollection","geometries":[]},"pois":{"type":"GeometryCollection","geometries":[{"type":"Point","properties":{"kind":"protected_area","protect_class":"2","area":2017160000,"source":"openstreetmap.org","min_zoom":7.0,"tier":2,"id":-3308129,"osm_relation":true,"name":"Kafta-Shiraro National Park"},"coordinates":[979,499]}]},"boundaries":{"type":"GeometryCollection","geometries":[{"type":"LineString","properties":{"source":"naturalearthdata.com","kind":"country","sort_rank":262,"kind_detail":"2","min_zoom":0.0,"id":396},"arcs":[0]},{"type":"MultiLineString","properties":{"source":"naturalearthdata.com","kind":"country","sort_rank":262,"kind_detail":"2","min_zoom":0.0,"id":397},"arcs":[[1],[2],[3],[4],[5],[6],[7],[8],[9],[10],[11],[12],[13],[14],[15],[16],[17],[18],[19],[20],[21]]},{"type":"LineString","properties":{"source":"naturalearthdata.com","kind":"region","name":"Gash Barka - Anseba","sort_rank":256,"kind_detail":"4","min_zoom":6.0,"id":4030},"arcs":[22]},{"type":"MultiLineString","properties":{"source":"naturalearthdata.com","kind":"region","name":"Gash Barka - Semenawi Keyih Bahri","sort_rank":256,"kind_detail":"4","min_zoom":6.0,"id":4031},"arcs":[[23],[24],[25],[26],[27],[28]]},{"type":"MultiLineString","properties":{"source":"naturalearthdata.com","kind":"region","name":"Anseba - Semenawi Keyih Bahri","sort_rank":256,"kind_detail":"4","min_zoom":6.0,"id":4032},"arcs":[[29],[30],[31]]},{"type":"LineString","properties":{"source":"naturalearthdata.com","kind":"region","name":"Debub - Anseba","sort_rank":256,"kind_detail":"4","min_zoom":6.0,"id":4033},"arcs":[32]},{"type":"LineString","properties":{"source":"naturalearthdata.com","kind":"region","name":"Semenawi Keyih Bahri - Debub","sort_rank":256,"kind_detail":"4","min_zoom":6.0,"id":4034},"arcs":[33]},{"type":"MultiLineString","properties":{"source":"naturalearthdata.com","kind":"region","name":"Maekel - Gash Barka","sort_rank":256,"kind_detail":"4","min_zoom":6.0,"id":4036},"arcs":[[34],[35]]},{"type":"MultiLineString","properties":{"source":"naturalearthdata.com","kind":"region","name":"Maekel - Anseba","sort_rank":256,"kind_detail":"4","min_zoom":6.0,"id":4037},"arcs":[[36],[37],[38]]},{"type":"LineString","properties":{"source":"naturalearthdata.com","kind":"region","name":"Debub - Maekel","sort_rank":256,"kind_detail":"4","min_zoom":6.0,"id":4038},"arcs":[39]}]},"roads":{"type":"GeometryCollection","geometries":[{"type":"LineString","properties":{"source":"naturalearthdata.com","kind":"major_road","kind_detail":"secondary","sort_rank":379,"landuse_kind":"urban_area","min_zoom":4.0,"id":35622},"arcs":[42]},{"type":"LineString","properties":{"source":"naturalearthdata.com","kind":"major_road","sort_rank":379,"kind_detail":"secondary","min_zoom":4.0,"id":35622},"arcs":[43]},{"type":"LineString","properties":{"source":"naturalearthdata.com","kind":"major_road","sort_rank":379,"kind_detail":"secondary","min_zoom":4.0,"id":35666},"arcs":[44]},{"type":"LineString","properties":{"source":"naturalearthdata.com","kind":"major_road","sort_rank":379,"kind_detail":"secondary","min_zoom":3.0,"id":35695},"arcs":[45]},{"type":"LineString","properties":{"source":"naturalearthdata.com","kind":"major_road","kind_detail":"secondary","sort_rank":379,"landuse_kind":"urban_area","min_zoom":4.0,"id":35709},"arcs":[46]},{"type":"LineString","properties":{"source":"naturalearthdata.com","kind":"major_road","kind_detail":"secondary","sort_rank":379,"landuse_kind":"urban_area","min_zoom":4.0,"id":35709},"arcs":[47]},{"type":"LineString","properties":{"source":"naturalearthdata.com","kind":"major_road","sort_rank":379,"kind_detail":"secondary","min_zoom":4.0,"id":35709},"arcs":[48]},{"type":"LineString","properties":{"source":"naturalearthdata.com","kind":"major_road","kind_detail":"secondary","sort_rank":379,"landuse_kind":"urban_area","min_zoom":3.0,"id":35720},"arcs":[49]},{"type":"LineString","properties":{"source":"naturalearthdata.com","kind":"major_road","sort_rank":379,"kind_detail":"secondary","min_zoom":3.0,"id":35720},"arcs":[50]},{"type":"LineString","properties":{"source":"naturalearthdata.com","kind":"major_road","kind_detail":"secondary","sort_rank":379,"landuse_kind":"urban_area","min_zoom":3.0,"id":35730},"arcs":[51]},{"type":"LineString","properties":{"source":"naturalearthdata.com","kind":"major_road","sort_rank":379,"kind_detail":"secondary","min_zoom":3.0,"id":35730},"arcs":[52]},{"type":"LineString","properties":{"source":"naturalearthdata.com","kind":"major_road","kind_detail":"secondary","sort_rank":379,"landuse_kind":"nature_reserve","min_zoom":4.0,"id":35797},"arcs":[53]},{"type":"LineString","properties":{"source":"naturalearthdata.com","kind":"major_road","sort_rank":379,"kind_detail":"secondary","min_zoom":4.0,"id":35797},"arcs":[54]},{"type":"LineString","properties":{"source":"naturalearthdata.com","kind":"major_road","kind_detail":"secondary","sort_rank":379,"landuse_kind":"nature_reserve","min_zoom":4.0,"id":35798},"arcs":[55]},{"type":"LineString","properties":{"source":"naturalearthdata.com","kind":"major_road","sort_rank":379,"kind_detail":"secondary","min_zoom":4.0,"id":35798},"arcs":[56]},{"type":"LineString","properties":{"source":"naturalearthdata.com","kind":"major_road","sort_rank":379,"kind_detail":"secondary","min_zoom":4.0,"id":35804},"arcs":[57]},{"type":"LineString","properties":{"source":"naturalearthdata.com","kind":"major_road","sort_rank":379,"kind_detail":"secondary","min_zoom":4.0,"id":35820},"arcs":[58]},{"type":"LineString","properties":{"source":"naturalearthdata.com","kind":"major_road","sort_rank":379,"kind_detail":"secondary","min_zoom":3.0,"id":35825},"arcs":[59]},{"type":"LineString","properties":{"source":"naturalearthdata.com","kind":"major_road","sort_rank":379,"kind_detail":"secondary","min_zoom":4.0,"id":35827},"arcs":[60]},{"type":"LineString","properties":{"source":"naturalearthdata.com","kind":"minor_road","kind_detail":"tertiary","sort_rank":355,"landuse_kind":"urban_area","min_zoom":6.0,"id":35834},"arcs":[61]},{"type":"LineString","properties":{"source":"naturalearthdata.com","kind":"minor_road","sort_rank":355,"kind_detail":"tertiary","min_zoom":6.0,"id":35834},"arcs":[62]},{"type":"LineString","properties":{"source":"naturalearthdata.com","kind":"major_road","kind_detail":"secondary","sort_rank":379,"landuse_kind":"urban_area","min_zoom":3.0,"id":35835},"arcs":[63]},{"type":"LineString","properties":{"source":"naturalearthdata.com","kind":"major_road","sort_rank":379,"kind_detail":"secondary","min_zoom":3.0,"id":35835},"arcs":[64]},{"type":"LineString","properties":{"source":"naturalearthdata.com","kind":"major_road","kind_detail":"secondary","sort_rank":379,"landuse_kind":"urban_area","min_zoom":4.0,"id":35842},"arcs":[65]},{"type":"MultiLineString","properties":{"source":"naturalearthdata.com","kind":"major_road","sort_rank":379,"kind_detail":"secondary","min_zoom":4.0,"id":35842},"arcs":[[66],[67]]},{"type":"LineString","properties":{"source":"naturalearthdata.com","kind":"major_road","sort_rank":379,"kind_detail":"secondary","min_zoom":4.0,"id":35908},"arcs":[68]},{"type":"LineString","properties":{"source":"naturalearthdata.com","kind":"major_road","sort_rank":379,"kind_detail":"secondary","min_zoom":4.0,"id":36029},"arcs":[69]},{"type":"LineString","properties":{"source":"naturalearthdata.com","kind":"major_road","kind_detail":"secondary","sort_rank":379,"landuse_kind":"urban_area","min_zoom":3.0,"id":36174},"arcs":[70]},{"type":"LineString","properties":{"source":"naturalearthdata.com","kind":"major_road","kind_detail":"secondary","sort_rank":379,"landuse_kind":"urban_area","min_zoom":3.0,"id":36174},"arcs":[71]},{"type":"LineString","properties":{"source":"naturalearthdata.com","kind":"major_road","kind_detail":"secondary","sort_rank":379,"landuse_kind":"urban_area","min_zoom":3.0,"id":36174},"arcs":[72]},{"type":"MultiLineString","properties":{"source":"naturalearthdata.com","kind":"major_road","sort_rank":379,"kind_detail":"secondary","min_zoom":3.0,"id":36174},"arcs":[[73],[74],[75],[76],[77]]},{"type":"LineString","properties":{"source":"naturalearthdata.com","kind":"major_road","sort_rank":379,"kind_detail":"secondary","min_zoom":4.0,"id":36191},"arcs":[78]},{"type":"LineString","properties":{"source":"naturalearthdata.com","kind":"major_road","sort_rank":379,"kind_detail":"secondary","min_zoom":4.0,"id":36215},"arcs":[79]},{"type":"LineString","properties":{"source":"naturalearthdata.com","kind":"major_road","sort_rank":379,"kind_detail":"secondary","min_zoom":4.0,"id":36216},"arcs":[80]},{"type":"LineString","properties":{"source":"naturalearthdata.com","kind":"major_road","kind_detail":"secondary","sort_rank":379,"landuse_kind":"urban_area","min_zoom":4.0,"id":36279},"arcs":[81]},{"type":"MultiLineString","properties":{"source":"naturalearthdata.com","kind":"major_road","sort_rank":379,"kind_detail":"secondary","min_zoom":4.0,"id":36279},"arcs":[[82],[83]]},{"type":"LineString","properties":{"source":"naturalearthdata.com","kind":"major_road","sort_rank":379,"kind_detail":"secondary","min_zoom":4.0,"id":36983},"arcs":[84]}]},"earth":{"type":"GeometryCollection","geometries":[{"type":"Polygon","properties":{"sort_rank":10,"source":"naturalearthdata.com","min_zoom":0.0,"kind":"earth","area":390557059637},"arcs":[[85]]}]},"landuse":{"type":"GeometryCollection","geometries":[{"type":"Polygon","properties":{"source":"openstreetmap.org","kind":"nature_reserve","area":130768000,"tier":2,"id":421569952,"min_zoom":7.0,"sort_rank":23},"arcs":[[86]]},{"type":"MultiPolygon","properties":{"source":"naturalearthdata.com","kind":"urban_area","name":"","area":589961513,"sort_rank":11,"min_zoom":4.0},"arcs":[[[87]],[[88]],[[89]],[[90]],[[91]],[[92]],[[93]],[[94]],[[95]],[[96]],[[97]],[[98]]]},{"type":"Polygon","properties":{"kind":"protected_area","protect_class":"2","area":2017159936,"sort_rank":17,"source":"openstreetmap.org","min_zoom":4.0,"tier":2,"id":-3308129,"osm_relation":true},"arcs":[[99]]}]}},"type":"Topology","transform":{"translate":[36.5625,13.9234038977],"scale":[0.0006866455,0.0006623018]},"arcs":[[[0,2163],[19,57],[28,46],[48,32],[-20,66],[4,64],[79,289],[18,34],[72,75],[39,64],[70,199],[66,188],[48,138],[24,39],[61,63],[15,39],[-4,32],[-27,61],[-7,32],[2,32],[5,27],[1,27],[-10,26],[-1,4],[-21,28],[-23,24],[-19,27],[-10,35],[1,21],[18,60],[5,29],[-3,49],[2,26]],[[1935,1444],[26,-23],[17,-26],[28,-55],[7,-5],[14,-2],[5,-5],[1,-6],[-1,-16],[1,-5],[6,-11],[3,-10],[6,-7],[16,-3],[15,-11],[3,-12],[1,-13],[8,-15],[12,-10],[158,-65],[27,-5]],[[1444,275],[16,17],[52,127],[84,203],[92,221],[93,227],[95,229],[59,145]],[[2371,1153],[34,-2],[22,-9],[15,-18],[10,-23],[2,-7],[8,-42],[7,-15],[14,-13],[17,-9],[15,-12],[9,-19],[14,-58],[12,-26],[17,-22],[23,-18],[78,-43],[11,-12],[10,-32],[8,-14],[18,-13],[12,-2]],[[2288,1139],[83,14]],[[3564,1099],[2,-5],[52,-6],[42,-10],[14,-6],[32,-20],[29,-27],[26,-31],[20,-33],[42,-125],[30,-56]],[[3148,809],[27,3],[28,6],[87,37],[65,6],[27,19],[48,45],[60,28],[30,19],[21,27],[4,28],[-2,28],[2,25],[19,19]],[[4056,843],[28,2],[12,3]],[[3977,856],[79,-13]],[[3853,780],[36,1],[32,51],[20,18],[36,6]],[[3067,822],[28,-1],[27,-9],[26,-3]],[[2811,747],[112,13],[54,15],[90,47]],[[1065,806],[36,-30],[27,-17],[55,-80],[22,-23],[6,-12],[2,-22],[-1,-35],[4,-16],[21,-12],[59,-50],[7,-9],[10,-28],[8,-38],[8,-17],[19,-7],[15,-3],[15,-7],[11,-12],[5,-14],[1,-39],[7,-25],[15,-18],[27,-17]],[[1013,792],[32,11],[20,3]],[[905,794],[108,-2]],[[714,531],[11,3],[18,12],[16,19],[11,25],[4,32],[1,36],[5,31],[11,29],[22,33],[42,32],[50,11]],[[2740,748],[71,-1]],[[2727,744],[13,4]],[[370,617],[47,-6],[95,-29],[48,-6],[8,-6],[27,-36],[11,-9],[12,-6],[12,-5],[15,-1]],[[0,554],[5,4],[24,6],[31,1],[20,4],[45,22],[30,4],[65,0],[12,4],[24,15],[14,3],[100,0]],[[687,535],[27,-4]],[[645,513],[9,3],[21,18],[12,1]],[[3241,1860],[-2,606]],[[1440,2903],[-22,8],[-10,11],[1,14],[-3,14],[-11,15],[-27,18],[-44,19],[-50,15],[-29,21],[-24,36],[-28,64],[-44,68],[-55,56],[-91,55],[-74,25],[-137,33],[-33,12],[-20,13],[-10,14],[-20,47],[-12,17],[-13,13],[-12,10],[-11,11],[-11,15],[-9,23],[-10,38],[-9,84],[-10,39],[-12,33],[-28,42],[-41,7]],[[2275,2665],[-26,9],[-142,96],[-84,37],[-47,15],[-39,5],[-51,2],[-33,6],[-30,16],[-42,30],[-51,26],[-41,10],[-40,0]],[[1649,2917],[-103,-13],[-106,-1]],[[3089,2448],[-266,8],[-49,13],[-30,22],[-40,79],[-39,52],[-49,48],[-68,45],[-49,15],[-39,1]],[[2460,2731],[-36,-12],[-80,-40],[-32,-11],[-37,-3]],[[3239,2466],[-150,-18]],[[3490,2495],[-92,-15],[-55,-20],[-16,-3]],[[3327,2457],[-12,1],[-16,14],[-12,6],[-19,3]],[[3268,2481],[-12,-1],[-17,-14]],[[3490,2495],[25,-67],[36,-68],[132,-206],[85,-94],[70,-62],[126,-67],[61,-40]],[[3490,2495],[-50,185],[-128,216],[-22,28],[-18,13],[-197,25],[-69,20],[-68,29],[-71,48],[-32,42],[-16,50],[-3,122],[5,38],[9,27],[13,23],[7,22],[4,30],[-1,34],[-9,45],[-18,51],[-41,76],[-38,44],[-34,30],[-33,37],[-14,38],[-22,81],[-18,33],[-29,42],[-13,31],[-9,31],[-9,22],[-16,13],[-332,60],[-30,15]],[[3241,1860],[-97,12]],[[3144,1872],[-46,-8],[-60,-25],[-126,-31],[-130,-10],[-21,-4],[-22,-9],[-26,-17],[-56,-62],[-32,-55],[-21,-28],[-20,-18],[-55,-22],[-32,-19],[-26,-24],[-14,-20],[-21,-60],[-27,-55],[-5,-27],[2,-35],[10,-44],[46,-102],[7,-54],[-17,-42]],[[4025,1891],[-16,-19],[-12,-8],[-18,-6]],[[3979,1858],[-15,3]],[[3964,1861],[-723,-1]],[[4025,1891],[46,-75],[25,-58]],[[4096,2917],[-3,5],[-87,53],[-28,53],[-51,196],[-34,76],[-5,22],[-6,67],[-45,197],[0,22],[9,37],[2,19],[-2,18],[-13,24],[-6,14],[-2,19],[2,60],[-2,19],[-6,13],[-6,11],[-5,14],[-2,14],[2,53],[-8,5],[-16,0],[-14,7],[-2,23],[10,-10],[6,39],[-23,68],[27,29],[-1,12],[309,0],[0,-1179]],[[4096,2917],[-3,5],[-87,53],[-28,53],[-51,196],[-34,76],[-5,22],[-6,67],[-45,197],[0,22],[9,37],[2,19],[-2,18],[-13,24],[-6,14],[-2,19],[2,60],[-2,19],[-6,13],[-6,11],[-5,14],[-2,14],[2,53],[-8,5],[-16,0],[-14,7],[-2,23],[10,-10],[6,39],[-23,68],[27,29],[-1,12]],[[2760,2789],[14,12]],[[1916,2440],[36,-13],[60,-6],[42,-6],[60,12],[18,13],[12,87],[18,25],[12,12],[126,19],[48,12],[126,69],[90,37],[30,19],[48,12],[30,-6],[30,6],[18,13],[24,31],[16,13]],[[0,2269],[47,15],[43,25],[24,0],[0,-6]],[[3615,2153],[6,44],[30,12],[12,25],[-18,13],[0,25],[12,18],[42,6],[25,25],[12,7],[0,31],[18,25],[30,25],[42,6],[0,43],[48,13],[30,31],[60,19],[42,12],[90,26]],[[3406,2181],[5,-22],[24,-37]],[[2774,2801],[25,0],[28,-17]],[[2827,2784],[44,-27],[30,-6],[24,-19],[30,-6],[24,-25],[30,-18],[54,-19],[24,-25],[48,-81],[42,-50],[42,-31],[42,-12],[36,-56],[6,-56],[72,-75],[24,-69],[7,-28]],[[3435,2122],[36,44],[12,-13],[10,-23]],[[3493,2130],[8,-20],[30,12],[30,-19],[12,-6],[30,13],[12,43]],[[3430,2094],[5,28]],[[3441,2054],[-12,37],[1,3]],[[186,1829],[12,7],[9,12]],[[207,1848],[15,19],[42,31],[60,31],[42,13],[60,12],[30,0],[84,-31],[30,0],[18,12],[42,-18],[42,-13],[30,13],[18,0],[48,-25]],[[184,1837],[2,-8]],[[114,2303],[0,-150],[-12,-124],[6,-44],[12,-43],[18,-32],[36,-37],[10,-36]],[[1489,1811],[-24,93],[0,19],[18,62],[54,56],[36,50],[12,31],[18,31],[36,25],[30,25],[30,50],[24,31],[48,25],[78,31],[24,25],[25,31],[18,44]],[[1441,1767],[24,0],[24,25],[0,19]],[[3573,1755],[-12,12],[-18,87],[-18,50],[-18,6],[-6,13],[0,31],[-30,19],[-18,31],[-12,50]],[[768,1892],[12,-7],[60,13],[60,-31],[30,-6],[73,-56],[30,-7],[84,7],[24,-25],[30,-19],[30,6],[42,-19],[30,19],[42,6],[30,19],[30,-19],[30,-6],[36,0]],[[3622,1726],[-1,-2]],[[3615,2153],[36,-18],[12,-38],[-12,-31],[-18,-44],[-30,-24],[-6,-38],[18,-75],[18,-56],[6,-37],[-12,-50],[-5,-16]],[[3621,1724],[-1,0]],[[3620,1724],[-35,18],[-12,13]],[[3410,2038],[-29,-16],[-6,-18],[-10,-22]],[[3365,1982],[-20,-47],[-6,-31],[6,-43],[-18,-44],[-12,-50],[-36,-56]],[[3441,2054],[-31,-16]],[[3279,1711],[-12,-25],[12,-31],[0,-25],[-24,-56],[0,-31],[12,-44],[6,-37]],[[3273,1462],[-6,-68],[24,-44],[6,-31],[12,-25],[6,-50],[0,-44],[18,-43],[-6,-62],[-30,-32]],[[4091,1366],[-16,34]],[[3877,1554],[-8,17]],[[3667,1704],[-16,7],[-30,13]],[[3869,1571],[-25,53],[-18,56],[-30,12],[-30,-12],[-73,12],[-26,12]],[[4075,1400],[-21,43],[-42,0],[-36,44],[-90,50],[-9,17]],[[4096,1356],[-5,10]],[[4096,727],[-18,19],[-18,43],[12,50],[24,44]],[[4096,978],[-6,11],[0,31],[6,12]],[[4096,459],[-18,0],[-30,19],[-30,37],[-30,-6],[-36,44],[-66,56],[-24,-19],[-30,6],[-12,-6],[-42,-43],[-24,-7]],[[3754,540],[-85,-25],[-24,13],[-66,-44],[-48,-37],[-36,0],[-48,-6],[-30,-13],[-36,-31]],[[3297,1063],[-12,-12],[0,-37],[-18,-19],[-36,0],[-30,-25],[-12,-31],[0,-13],[24,-31],[-6,-43],[24,-44],[12,-87],[18,-62],[0,-44],[24,-50],[12,-25],[72,-87],[12,-12],[0,-44]],[[3271,334],[-46,-18],[-54,6],[-30,-6],[-17,-12]],[[3124,304],[-43,-31],[-30,6],[-48,18],[-12,-12],[-18,6],[-30,19],[-30,-6],[-48,-13],[-103,0],[-30,-6],[-24,-31],[-18,-13],[-36,7],[-30,0],[-36,-13],[-24,19],[-6,31],[-18,12],[-18,0],[-12,-6]],[[3381,397],[-12,-12],[-42,-31],[-18,6],[-36,-25],[-2,-1]],[[2510,291],[-12,-31],[-42,-25],[-24,-25],[0,-43],[-36,-44],[-18,-31],[0,-37],[-30,-44],[-2,-11]],[[0,4096],[3133,0],[654,0],[1,-12],[-27,-29],[23,-68],[-6,-39],[-10,10],[2,-23],[14,-7],[16,0],[8,-5],[-2,-53],[2,-14],[5,-14],[6,-11],[6,-13],[2,-19],[-2,-60],[2,-19],[6,-14],[13,-24],[2,-18],[-2,-19],[-9,-37],[0,-22],[45,-197],[6,-67],[5,-22],[34,-76],[51,-196],[28,-53],[87,-53],[3,-5],[0,-2917],[-4096,0],[0,4096]],[[163,1827],[148,72],[107,-22],[31,42],[46,-32],[94,-14],[-20,-26],[-98,14],[-57,-50],[-97,21],[-65,-41],[-89,36]],[[3281,368],[-18,-60],[-29,-15],[25,-46],[-10,-30],[-23,-4],[-26,54],[-48,0],[-31,30],[31,71],[65,0],[0,-17],[64,17]],[[4096,1361],[-19,17],[-3,30],[22,0],[0,-47]],[[3911,1543],[-47,16],[10,24],[71,-7],[-34,-33]],[[3702,1710],[-97,-17],[-2,19],[69,51],[30,-3],[0,-50]],[[3669,2590],[33,-24],[-33,-34],[-34,28],[2,39],[32,-9]],[[2828,2784],[-79,5],[-18,12],[56,35],[34,-15],[7,-37]],[[2408,3253],[-43,32],[-22,52],[35,15],[27,-25],[3,-74]],[[2921,4061],[-12,-19],[-113,17],[5,37],[91,0],[29,-35]],[[2683,4058],[-33,1],[2,37],[63,0],[-32,-38]],[[3420,2305],[-42,26],[15,28],[66,-28],[-39,-26]],[[3376,1979],[-35,9],[-11,41],[81,17],[-3,-47],[-32,-20]],[[3492,2045],[-130,101],[10,21],[117,47],[67,-17],[0,-30],[-64,-38],[0,-84]],[[192,571],[72,32],[131,-21],[51,19],[150,-43],[70,-62],[113,36],[6,91],[49,111],[127,52],[126,6],[122,-124],[-18,-31],[35,-14],[-16,-52],[85,-76],[29,0],[-8,-51],[77,-61],[10,-88],[50,-18],[27,65],[113,23],[27,-66],[-26,-53],[-242,-36],[-4,76],[-96,11],[-221,88],[28,51],[-73,-96],[-40,13],[8,-39],[-34,-40],[-246,0],[-4,-37],[-68,61],[-2,61],[-145,22],[-38,24],[-7,54],[-117,55],[-36,-44],[-65,101]]]}