{"objects":{"water":{"type":"GeometryCollection","geometries":[{"type":"Polygon","properties":{"source":"naturalearthdata.com","kind":"ocean","area":1576712559132672,"sort_rank":200,"min_zoom":0.0,"id":1},"arcs":[[0]]}]},"buildings":{"type":"GeometryCollection","geometries":[]},"places":{"type":"GeometryCollection","geometries":[{"type":"Point","properties":{"name:pt":"Terras Austrais e Ant\u00e1rticas Francesas","name:ka":"\u10e4\u10e0\u10d0\u10dc\u10d2\u10e3\u10da\u10d8 \u10e1\u10d0\u10db\u10ee\u10e0\u10d4\u10d7\u10d8\u10e1 \u10e2\u10d4\u10e0\u10d8\u10e2\u10dd\u10e0\u10d8\u10d4\u10d1\u10d8","name:mt":"Territorji Fran\u010bi\u017ci ta\u2019 Nofsinhar","name:ko":"\ud504\ub791\uc2a4\ub839 \ub0a8\ubd80\uc640 \ub0a8\uadf9 \uc9c0\uc5ed","name:kn":"\u0cab\u0ccd\u0cb0\u0cc6\u0c82\u0c9a\u0ccd \u0ca6\u0c95\u0ccd\u0cb7\u0cbf\u0ca3 \u0caa\u0ccd\u0cb0\u0ca6\u0cc7\u0cb6\u0c97\u0cb3\u0cc1","name:km":"\u178a\u17c2\u1793\u200b\u200b\u17a0\u17d2\u179c\u17d2\u179a\u17c1\u1793\u200b\u1781\u17b6\u1784\u200b\u178f\u17d2\u1794\u17bc\u1784","name:cs":"Francouzsk\u00e1 ji\u017en\u00ed a antarktick\u00e1 \u00fazem\u00ed","name:kw":"Tiryow Deghow hag Antarktik Frynkek","name:tr":"Frans\u0131z G\u00fcney ve Antarktika Topraklar\u0131","name:th":"\u0e40\u0e1f\u0e23\u0e19\u0e0a\u0e4c\u0e40\u0e0b\u0e32\u0e40\u0e17\u0e34\u0e23\u0e4c\u0e19\u0e40\u0e17\u0e23\u0e4c\u0e23\u0e34\u0e17\u0e2d\u0e23\u0e35\u0e2a\u0e4c","name:ti":"\u12e8\u1348\u1228\u1295\u1233\u12ed \u12f0\u1261\u1263\u12ca \u130d\u12db\u1276\u127d","name:ks":"\u0641\u0631\u065b\u0627\u0646\u0633\u0650\u0633\u06cc \u062c\u064e\u0646\u0648\u0657\u0628\u06cc \u0639\u064e\u0644\u0627\u0642\u06c1\u0655","name:to":"Potu fonua tonga fakafalanis\u0113","name:be":"\u0424\u0440\u0430\u043d\u0446\u0443\u0437\u0441\u043a\u0456\u044f \u041f\u0430\u045e\u0434\u043d\u0451\u0432\u044b\u044f \u0442\u044d\u0440\u044b\u0442\u043e\u0440\u044b\u0456","name:or":"\u0b2b\u0b30\u0b3e\u0b38\u0b40 \u0b26\u0b15\u0b4d\u0b37\u0b3f\u0b23 \u0b15\u0b4d\u0b37\u0b47\u0b24\u0b4d\u0b30","name:pl":"Francuskie Terytoria Po\u0142udniowe i Antarktyczne","name:ta":"\u0baa\u0bbf\u0bb0\u0bc6\u0b9e\u0bcd\u0b9a\u0bc1 \u0ba4\u0bc6\u0ba9\u0bcd\u0ba9\u0b95 \u0ba8\u0bbf\u0bb2\u0b99\u0bcd\u0b95\u0bb3\u0bc1\u0bae\u0bcd \u0b85\u0ba3\u0bcd\u0b9f\u0bbe\u0b9f\u0bbf\u0b95\u0bcd \u0ba8\u0bbf\u0bb2\u0bae\u0bc1\u0bae\u0bcd","name:ca":"Terres Australs i Ant\u00e0rtiques Franceses","name:te":"\u0c2b\u0c4d\u0c30\u0c46\u0c02\u0c1a\u0c4d \u0c26\u0c15\u0c4d\u0c37\u0c3f\u0c23 \u0c2a\u0c4d\u0c30\u0c3e\u0c02\u0c24\u0c3e\u0c32\u0c41","name:vi":"V\u00f9ng \u0111\u1ea5t ph\u00eda Nam v\u00e0 ch\u00e2u Nam C\u1ef1c thu\u1ed9c Ph\u00e1p","name:ro":"Teritoriile australe \u015fi antarctice franceze","name:cy":"Tiriogaethau Ffrengig y De","name:da":"Franske sydlige og Antarktiske territorier","name:de":"Franz\u00f6sische S\u00fcd- und Antarktisgebiete","name:dz":"\u0f55\u0fb2\u0f53\u0f45\u0f0b\u0f42\u0f72\u0f0b\u0f63\u0fb7\u0f7c\u0f0b\u0f55\u0fb1\u0f7c\u0f42\u0f66\u0f0b\u0f58\u0f44\u0f60\u0f0b\u0f41\u0f7c\u0f44\u0f66","source":"openstreetmap.org","name:lv":"Francijas Dienvidj\u016bru un Antarktikas Zemes","name:lt":"Pranc\u016bzijos Piet\u0173 Sritys","name:hi":"\u092b\u093c\u094d\u0930\u093e\u0902\u0938\u0940\u0938\u0940 \u0926\u0915\u094d\u0937\u093f\u0923\u0940 \u0915\u094d\u0937\u0947\u0924\u094d\u0930","name:he":"\u05d8\u05e8\u05d9\u05d8\u05d5\u05e8\u05d9\u05d5\u05ea \u05d3\u05e8\u05d5\u05de\u05d9\u05d5\u05ea \u05e9\u05dc \u05e6\u05e8\u05e4\u05ea","kind":"region","name:ur":"\u0641\u0631\u0627\u0646\u0633\u06cc\u0633\u06cc \u062c\u0646\u0648\u0628\u06cc \u062e\u0637\u06d2","name:uk":"\u0424\u0440\u0430\u043d\u0446\u0443\u0437\u044c\u043a\u0456 \u041f\u0456\u0432\u0434\u0435\u043d\u043d\u0456 \u0442\u0435\u0440\u0438\u0442\u043e\u0440\u0456\u0457","min_zoom":4.0,"name:hu":"Francia d\u00e9li \u00e9s antarktiszi ter\u00fcletek","name:hr":"Francuski ju\u017eni i antarkti\u010dki teritoriji","name:lo":"\u0ead\u0eb2\u0e99\u0eb2\u0ec0\u0e82\u0e94\u0e97\u0eb2\u0e87\u0ec3\u0e95\u0ec9\u0e82\u0ead\u0e87\u0e9d\u0ea5\u0eb1\u0ec8\u0e87\u0ec0\u0eaa\u0e94","name:oc":"T\u00e8rras Australas e Antarticas Francesas","name:el":"\u0393\u03b1\u03bb\u03bb\u03b9\u03ba\u03ac \u03bd\u03cc\u03c4\u03b9\u03b1 \u03ba\u03b1\u03b9 \u03b1\u03bd\u03c4\u03b1\u03c1\u03ba\u03c4\u03b9\u03ba\u03ac \u03b5\u03b4\u03ac\u03c6\u03b7","name:eo":"Francaj Sudaj Teritorioj","name:en":"French Southern and Antarctic Lands","name":"Terres australes et antarctiques fran\u00e7aises","name:ee":"Anyiehe Franseme nutome","name:ku":"Xak\u00ean Ba\u015f\u00fbr \u00fb Antarkt\u00eek \u00ean Fransay\u00ea","name:eu":"Frantziaren lurralde austral eta antartikoak","name:et":"Prantsuse L\u00f5unaalad","name:nl":"Franse Zuidelijke en Antarctische Gebieden","name:es":"Tierras Australes y Ant\u00e1rticas Francesas","name:ia":"Territorios meridional francese","name:rm":"Territoris Franzos Meridiunals","name:az":"Frans\u0131z C\u0259nub teritoriyas\u0131","name:id":"Daratan Selatan dan Antarktika Perancis","name:ms":"French Southern Territories","name:mr":"\u092b\u094d\u0930\u0947\u0902\u091a \u0926\u093e\u0915\u094d\u0937\u093f\u0923\u093e\u0924\u094d\u092f \u092a\u094d\u0930\u0926\u0947\u0936","name:ar":"\u0627\u0644\u0623\u0631\u0627\u0636\u064a \u0627\u0644\u062c\u0646\u0648\u0628\u064a\u0629 \u0627\u0644\u0641\u0631\u0646\u0633\u064a\u0629","name:my":"\u1015\u103c\u1004\u103a\u101e\u1005\u103a \u1010\u1031\u102c\u1004\u103a\u1015\u102d\u102f\u1004\u103a\u1038 \u1015\u102d\u102f\u1004\u103a\u1014\u1000\u103a\u1019\u103b\u102c\u1038","name:is":"Fr\u00f6nsku su\u00f0l\u00e6gu landsv\u00e6\u00f0in","name:am":"\u12e8\u1348\u1228\u1295\u1233\u12ed \u12f0\u1261\u1263\u12ca \u130d\u12db\u1276\u127d","name:it":"Terre Australi e Antartiche Francesi","name:an":"Territorios Australs Franzeses","name:ru":"\u0424\u0440\u0430\u043d\u0446\u0443\u0437\u0441\u043a\u0438\u0435 \u042e\u0436\u043d\u044b\u0435 \u0438 \u0410\u043d\u0442\u0430\u0440\u043a\u0442\u0438\u0447\u0435\u0441\u043a\u0438\u0435 \u0442\u0435\u0440\u0440\u0438\u0442\u043e\u0440\u0438\u0438","name:mn":"\u0424\u0440\u0430\u043d\u0446\u044b\u043d \u04e9\u043c\u043d\u04e9\u0434 \u0433\u0430\u0437\u0430\u0440 \u043d\u0443\u0442\u0430\u0433","id":424314262,"name:mk":"\u0424\u0440\u0430\u043d\u0446\u0443\u0441\u043a\u0438 \u0408\u0443\u0436\u043d\u0438 \u0442\u0435\u0440\u0438\u0442\u043e\u0440\u0438\u0438","name:af":"Franse Suidelike en Antarktiese Gebiede","name:zu":"e-French Southern Territories","name:nn":"Franske s\u00f8romr\u00e5de","kind_detail":"state","name:no":"De franske s\u00f8rterritorier","name:fy":"Fr\u00e2nske S\u00fadlike en Antarktyske Lannen","name:zh":"\u6cd5\u5c5e\u5357\u90e8\u9886\u5730","name:sl":"Francoske ju\u017ene in antarkti\u010dne de\u017eele","name:sk":"Franc\u00fazske ju\u017en\u00e9 a antarktick\u00e9 \u00fazemia","name:ja":"\u30d5\u30e9\u30f3\u30b9\u9818\u5357\u65b9\u30fb\u5357\u6975\u5730\u57df","name:si":"\u0daf\u0d9a\u0dd4\u0dab\u0dd4 \u0db4\u0dca\u200d\u0dbb\u0d82\u0dc1 \u0daf\u0dd6\u0db4\u0dad\u0dca \u0dc3\u0db8\u0dd6\u0dc4\u0dba","name:sh":"Francuske Ju\u017ene Teritorije","name:ne":"\u092b\u094d\u0930\u093e\u0928\u094d\u0938\u0947\u0932\u0940 \u0926\u0915\u094d\u0937\u093f\u0923\u0940 \u0915\u094d\u0937\u0947\u0924\u094d\u0930","name:br":"Douaro\u00f9 Aostral hag Antarktikel Fra\u00f1s","name:bs":"Francuske Ju\u017ene Teritorije","name:bn":"\u09ab\u09b0\u09be\u09b8\u09c0 \u09a6\u0995\u09cd\u09b7\u09bf\u09a3\u09be\u099e\u09cd\u099a\u09b2","name:ml":"\u0d2b\u0d4d\u0d30\u0d1e\u0d4d\u0d1a\u0d4d \u0d26\u0d15\u0d4d\u0d37\u0d3f\u0d23 \u0d2d\u0d42\u0d2a\u0d4d\u0d30\u0d26\u0d47\u0d36\u0d02","name:sw":"Maeneo ya Kusini ya Ufaransa","name:sv":"Franska sydterritorierna","name:bg":"\u0424\u0440\u0435\u043d\u0441\u043a\u0438 \u044e\u0436\u043d\u0438 \u0438 \u0430\u043d\u0442\u0430\u0440\u043a\u0442\u0438\u0447\u0435\u0441\u043a\u0438 \u0442\u0435\u0440\u0438\u0442\u043e\u0440\u0438\u0438","name:sr":"\u0424\u0440\u0430\u043d\u0446\u0443\u0441\u043a\u0435 \u0458\u0443\u0436\u043d\u0435 \u0438 \u0430\u043d\u0442\u0430\u0440\u043a\u0442\u0438\u0447\u043a\u0435 \u0437\u0435\u043c\u0459\u0435","name:ga":"Cr\u00edocha Deisceartacha na Fraince","name:gd":"Ranntairean a Deas na Frainge","name:gl":"Terras Austrais e Ant\u00e1rticas Francesas","name:fa":"\u0645\u0633\u062a\u0639\u0645\u0631\u0647\u200c\u0647\u0627\u06cc \u062c\u0646\u0648\u0628\u06cc \u0641\u0631\u0627\u0646\u0633\u0647","name:gu":"\u0aab\u0acd\u0ab0\u0ac7\u0a82\u0a9a \u0ab8\u0aa6\u0ab0\u0acd\u0aa8 \u0a9f\u0ac7\u0ab0\u0abf\u0a9f\u0ab0\u0ac0\u0a9d","name:fi":"Ranskan etel\u00e4iset ja antarktiset alueet"},"coordinates":[2892,1902]}]},"transit":{"type":"GeometryCollection","geometries":[]},"pois":{"type":"GeometryCollection","geometries":[]},"boundaries":{"type":"GeometryCollection","geometries":[]},"roads":{"type":"GeometryCollection","geometries":[]},"earth":{"type":"GeometryCollection","geometries":[]},"landuse":{"type":"GeometryCollection","geometries":[]}},"type":"Topology","transform":{"translate":[61.875,-45.0890355648],"scale":[0.0006866455,0.0004932001]},"arcs":[[[4096,0],[-4096,0],[0,4096],[4096,0],[0,-4096]]]}