{"objects":{"water":{"type":"GeometryCollection","geometries":[{"type":"Polygon","properties":{"source":"naturalearthdata.com","kind":"ocean","area":1576712559132672,"sort_rank":200,"min_zoom":0.0,"id":1},"arcs":[[15]]},{"type":"MultiLineString","properties":{"source":"naturalearthdata.com","kind":"ocean","sort_rank":205,"boundary":true,"min_zoom":0.0,"id":78},"arcs":[[16],[17]]}]},"buildings":{"type":"GeometryCollection","geometries":[]},"places":{"type":"GeometryCollection","geometries":[{"type":"Point","properties":{"name:ja":"\u30c1\u30a7\u30f3\u30ca\u30a4","name:lt":"\u010cenajus","name:hi":"\u091a\u0947\u0928\u094d\u0928\u0908","name:ko":"\uccb8\ub098\uc774","name:kn":"\u0c9a\u0cc6\u0ca8\u0ccd\u0ca8\u0cc8","min_zoom":8.0,"name:uk":"\u0427\u0435\u043d\u043d\u0430\u0457","old_name":"Madras","name:ru":"\u0427\u0435\u043d\u043d\u0430\u0438","name:ml":"\u0d1a\u0d46\u0d28\u0d4d\u0d28\u0d48","name:pl":"\u0106ennaj","name:ta":"\u0b9a\u0bc6\u0ba9\u0bcd\u0ba9\u0bc8","id":3233393892,"name:te":"\u0c1a\u0c46\u0c28\u0c4d\u0c28\u0c48","kind":"locality","name":"Chennai","kind_detail":"city","source":"openstreetmap.org","population":4681087,"name:zh":"\u91d1\u5948"},"coordinates":[372,1573]}]},"transit":{"type":"GeometryCollection","geometries":[{"type":"MultiLineString","properties":{"source":"openstreetmap.org","kind":"train","name":"Chennai Central - Thiruvallur suburban line","service":"commuter","sort_rank":275,"min_zoom":6.0,"osm_relation":true},"arcs":[[5],[6]]},{"type":"LineString","properties":{"kind":"train","network":"Blue Line","sort_rank":275,"source":"openstreetmap.org","min_zoom":6.0,"operator":"Chennai Metro Rail Limited","id":-7181322,"osm_relation":true,"name":"CMRL"},"arcs":[7]},{"type":"LineString","properties":{"kind":"subway","name":"Chennai Metro Line 1","sort_rank":275,"colour":"#3281c4","source":"openstreetmap.org","min_zoom":8.0,"ref":"1","id":-1290608,"osm_relation":true,"colour_name":"steelblue"},"arcs":[8]},{"type":"LineString","properties":{"kind":"subway","name":"Chennai Metro Line 2","sort_rank":275,"colour":"#53b848","source":"openstreetmap.org","min_zoom":8.0,"ref":"2","id":-1290606,"osm_relation":true,"colour_name":"limegreen"},"arcs":[9]},{"type":"MultiLineString","properties":{"kind":"train","name":"Chennai Beach - Tambaram suburban line","service":"commuter","sort_rank":275,"source":"openstreetmap.org","min_zoom":6.0,"operator":"Southern Railways","osm_relation":true},"arcs":[[10],[11]]},{"type":"MultiLineString","properties":{"kind":"train","network":"Green Line","sort_rank":275,"source":"openstreetmap.org","min_zoom":6.0,"operator":"Chennai Metro Rail Limited","osm_relation":true,"name":"CMRL"},"arcs":[[12],[13],[14]]}]},"pois":{"type":"GeometryCollection","geometries":[]},"boundaries":{"type":"GeometryCollection","geometries":[{"type":"LineString","properties":{"name:pt":"\u00cdndia","name:ty":"\u2019In\u012btia","name:ps":"\u0647\u0646\u062f","name:ka":"\u10d8\u10dc\u10d3\u10dd\u10d4\u10d7\u10d8","name:ko":"\uc778\ub3c4","name:cv":"\u0418\u043d\u0434\u0438","name:km":"\u17a5\u178e\u17d2\u178c\u17b6","name:cs":"Indie","name:rn":"Ubuhindi","name:tt":"\u04ba\u0438\u043d\u0434\u0441\u0442\u0430\u043d","name:kw":"Eynda","name:kv":"\u0418\u043d\u0434\u0438\u044f","name:ku":"Hindistan","name:ks":"\u0628\u064b\u0627\u0631\u062a","name:to":"\u02bbInitia","name:tl":"Indiya","name:zh-min-nan":"\u00ccn-t\u014d\u0358","name:os":"\u0418\u043d\u0434\u0438","name:or":"\u0b2d\u0b3e\u0b30\u0b24","name:ce":"\u0418\u043d\u0434\u0438","name:ta":"\u0b87\u0ba8\u0bcd\u0ba4\u0bbf\u0baf\u0bbe","name:tg":"\u04b2\u0438\u043d\u0434\u0443\u0441\u0442\u043e\u043d","name:ca":"\u00cdndia","name:te":"\u0c2d\u0c3e\u0c30\u0c24 \u0c26\u0c47\u0c36\u0c02","name:bg":"\u0418\u043d\u0434\u0438\u044f","source":"openstreetmap.org","sort_rank":262,"name:hr":"Indija","name:da":"Indien","name:sw":"Uhindi","name:de":"Indien","name:dz":"\u0f62\u0f92\u0fb1\u0f0b\u0f42\u0f62","name:tr":"Hindistan","osm_relation":true,"name:kn":"\u0cad\u0cbe\u0cb0\u0ca4","name:be":"\u0406\u043d\u0434\u044b\u044f","name:dv":"\u0787\u07a8\u0782\u07b0\u0791\u07a8\u0794\u07a7","name:za":"Yindu","name:ba":"\u04ba\u0438\u043d\u0434\u043e\u0441\u0442\u0430\u043d","name:ar":"\u0627\u0644\u0647\u0646\u062f","name:lv":"Indija","name:lt":"Indija","name:uz":"Hindiston","name:kk":"\u04ae\u043d\u0434\u0456\u0441\u0442\u0430\u043d","name:he":"\u05d4\u05d5\u05d3\u05d5","name:eo":"Barato","name:ur":"\u0628\u06be\u0627\u0631\u062a","name:lb":"Indien","name:uk":"\u0406\u043d\u0434\u0456\u044f","name:hy":"\u0540\u0576\u0564\u056f\u0561\u057d\u057f\u0561\u0576","name:ug":"\u06be\u0649\u0646\u062f\u0649\u0633\u062a\u0627\u0646","name:qu":"Indya","name:oc":"\u00cdndia","name:el":"\u0399\u03bd\u03b4\u03af\u03b1","kind":"country","name":"India","name:tk":"Hindistan","min_zoom":8.0,"name:th":"\u0e1b\u0e23\u0e30\u0e40\u0e17\u0e28\u0e2d\u0e34\u0e19\u0e40\u0e14\u0e35\u0e22","name:yi":"\u05d0\u05d9\u05e0\u05d3\u05d9\u05e2","name:iu":"\u1403\u14d0\u144e\u140a","name:yo":"\u00cdnd\u00ed\u00e0","name:mt":"Indja","alt_name:eo":"Hindujo;Hindio","name:az":"Hindistan","name:ig":"Ndia","name:mr":"\u092d\u093e\u0930\u0924","name:pa":"\u0a2d\u0a3e\u0a30\u0a24","name:my":"\u1021\u102d\u1014\u1039\u1012\u102d\u101a\u1014\u102d\u102f\u1004\u103a\u1004\u1036","name:is":"Indland","name:am":"\u1205\u1295\u12f5","name:vi":"\u1ea4n \u0110\u1ed9","name:ml":"\u0d07\u0d28\u0d4d\u0d24\u0d4d\u0d2f","name:rw":"Ubuhinde","name:mi":"\u012ania","name:pl":"Indie","name:mk":"\u0418\u043d\u0434\u0438\u0458\u0430","name:vo":"Lind\u00e4n","name:zu":"INdiya","name:mn":"\u042d\u043d\u044d\u0442\u0445\u044d\u0433","name:ss":"INdiya","kind_detail":"2","name:hi":"\u092d\u093e\u0930\u0924","id":-304716,"alt_name:vi":"Thi\u00ean Tr\u00fac;Quy\u00ean \u0110\u1ed9c","name:fr":"Inde","name:ky":"\u0418\u043d\u0434\u0438\u044f","name:zh-yue":"\u5370\u5ea6","name:fy":"Yndia","name:pi":"\u092d\u093e\u0930\u0924","name:zh":"\u5370\u5ea6","name:so":"Hindiya","name:sm":"Igitia","name:sl":"Indija","name:ja":"\u30a4\u30f3\u30c9","name:si":"\u0db7\u0dcf\u0dbb\u0dad \u0da2\u0db1\u0dbb\u0da2\u0dba","name:sh":"Indija","name:na":"Indjiya","name:sd":"\u0680\u0627\u0631\u062a","name:sc":"\u00ccndia","name:ne":"\u092d\u093e\u0930\u0924","name:sa":"\u092d\u093e\u0930\u0924\u092e\u094d","name:bs":"Indija","name:bn":"\u09ad\u09be\u09b0\u09a4","name:bo":"\u0f62\u0f92\u0fb1\u0f0b\u0f42\u0f62\u0f0d","name:ru":"\u0418\u043d\u0434\u0438\u044f","name:sv":"Indien","name:ha":"Indiya","name:wo":"End","name:sr":"\u0418\u043d\u0434\u0438\u0458\u0430","name:nv":"T\u00f3 W\u00f3naan\u00edd\u0119\u0301\u0119\u0301\u02bc Bits\u012f\u02bc Yisht\u0142izhii Bik\u00e9yah","name:ga":"An India","name:gd":"Na h-Innseachan","name:ht":"End","name:wa":"Inde","name:fa":"\u0647\u0646\u062f","maritime_boundary":true,"name:gv":"Yn Injey","name:gu":"\u0aad\u0abe\u0ab0\u0aa4","name:fi":"Intia"},"arcs":[0]},{"type":"LineString","properties":{"name:right:ja":"\u30bf\u30df\u30eb\u30fb\u30ca\u30fc\u30c9\u30a5","name:left:hi":"\u0906\u0928\u094d\u0927\u094d\u0930 \u092a\u094d\u0930\u0926\u0947\u0936","name:right:uk":"\u0422\u0430\u043c\u0456\u043b-\u041d\u0430\u0434\u0443","name:left:ja":"\u30a2\u30fc\u30f3\u30c9\u30e9\u30fb\u30d7\u30e9\u30c7\u30fc\u30b7\u30e5","id:right":-96905,"name:left:uk":"\u0410\u043d\u0434\u0445\u0440\u0430-\u041f\u0440\u0430\u0434\u0435\u0448","name:right:hi":"\u0924\u092e\u093f\u0932 \u0928\u093e\u0921\u0941","min_zoom":8.0,"name:left:ta":"\u0b86\u0ba8\u0bcd\u0ba4\u0bbf\u0bb0\u0baa\u0bcd \u0baa\u0bbf\u0bb0\u0ba4\u0bc7\u0b9a\u0bae\u0bcd","id":-2022095,"name:right":"Tamil Nadu","sort_rank":256,"kind_detail":"4","name:right:ta":"\u0ba4\u0bae\u0bbf\u0bb4\u0bcd\u0ba8\u0bbe\u0b9f\u0bc1","source":"openstreetmap.org","id:left":-2022095,"name:left":"Andhra Pradesh","name:left:or":"\u0b06\u0b28\u0b4d\u0b27\u0b4d\u0b30 \u0b2a\u0b4d\u0b30\u0b26\u0b47\u0b36","name:right:ml":"\u0d24\u0d2e\u0d3f\u0d34\u0d4d\u200c\u0d28\u0d3e\u0d1f\u0d4d","name:left:kn":"\u0c86\u0c82\u0ca7\u0ccd\u0cb0 \u0caa\u0ccd\u0cb0\u0ca6\u0cc7\u0cb6","name:right:ko":"\ud0c0\ubc00\ub098\ub450 \uc8fc","name:right:kn":"\u0ca4\u0cae\u0cbf\u0cb3\u0cc1\u0ca8\u0cbe\u0ca1\u0cc1","name:left:mr":"\u0906\u0902\u0927\u094d\u0930 \u092a\u094d\u0930\u0926\u0947\u0936","name:left:ru":"\u0410\u043d\u0434\u0445\u0440\u0430-\u041f\u0440\u0430\u0434\u0435\u0448","name:right:te":"\u0c24\u0c2e\u0c3f\u0c33\u0c28\u0c3e\u0c21\u0c41","name:right:ru":"\u0422\u0430\u043c\u0438\u043b\u043d\u0430\u0434","name:left:te":"\u0c06\u0c02\u0c27\u0c4d\u0c30 \u0c2a\u0c4d\u0c30\u0c26\u0c47\u0c36\u0c4d","osm_relation":true,"kind":"region","name":"Andhra Pradesh - Tamil Nadu","name:left:zh":"\u5b89\u5f97\u62c9\u90a6","name:right:zh":"\u6cf0\u7c73\u5c14\u7eb3\u5fb7\u90a6"},"arcs":[1]},{"type":"LineString","properties":{"name:right:ja":"\u30bf\u30df\u30eb\u30fb\u30ca\u30fc\u30c9\u30a5","name:left:hi":"\u0906\u0928\u094d\u0927\u094d\u0930 \u092a\u094d\u0930\u0926\u0947\u0936","name:right:uk":"\u0422\u0430\u043c\u0456\u043b-\u041d\u0430\u0434\u0443","name:left:ja":"\u30a2\u30fc\u30f3\u30c9\u30e9\u30fb\u30d7\u30e9\u30c7\u30fc\u30b7\u30e5","id:right":-96905,"name:left:uk":"\u0410\u043d\u0434\u0445\u0440\u0430-\u041f\u0440\u0430\u0434\u0435\u0448","name:right:hi":"\u0924\u092e\u093f\u0932 \u0928\u093e\u0921\u0941","min_zoom":8.0,"name:right:te":"\u0c24\u0c2e\u0c3f\u0c33\u0c28\u0c3e\u0c21\u0c41","id":-2022095,"name:right":"Tamil Nadu","sort_rank":256,"kind_detail":"4","name:left:zh":"\u5b89\u5f97\u62c9\u90a6","name:left:te":"\u0c06\u0c02\u0c27\u0c4d\u0c30 \u0c2a\u0c4d\u0c30\u0c26\u0c47\u0c36\u0c4d","source":"openstreetmap.org","id:left":-2022095,"name:left":"Andhra Pradesh","name:left:kn":"\u0c86\u0c82\u0ca7\u0ccd\u0cb0 \u0caa\u0ccd\u0cb0\u0ca6\u0cc7\u0cb6","name:right:ml":"\u0d24\u0d2e\u0d3f\u0d34\u0d4d\u200c\u0d28\u0d3e\u0d1f\u0d4d","name:left:or":"\u0b06\u0b28\u0b4d\u0b27\u0b4d\u0b30 \u0b2a\u0b4d\u0b30\u0b26\u0b47\u0b36","name:right:ko":"\ud0c0\ubc00\ub098\ub450 \uc8fc","name:right:kn":"\u0ca4\u0cae\u0cbf\u0cb3\u0cc1\u0ca8\u0cbe\u0ca1\u0cc1","name:left:mr":"\u0906\u0902\u0927\u094d\u0930 \u092a\u094d\u0930\u0926\u0947\u0936","name:left:ru":"\u0410\u043d\u0434\u0445\u0440\u0430-\u041f\u0440\u0430\u0434\u0435\u0448","name:left:ta":"\u0b86\u0ba8\u0bcd\u0ba4\u0bbf\u0bb0\u0baa\u0bcd \u0baa\u0bbf\u0bb0\u0ba4\u0bc7\u0b9a\u0bae\u0bcd","name:right:ru":"\u0422\u0430\u043c\u0438\u043b\u043d\u0430\u0434","name:right:ta":"\u0ba4\u0bae\u0bbf\u0bb4\u0bcd\u0ba8\u0bbe\u0b9f\u0bc1","osm_relation":true,"kind":"region","name":"Andhra Pradesh - Tamil Nadu","maritime_boundary":true,"name:right:zh":"\u6cf0\u7c73\u5c14\u7eb3\u5fb7\u90a6"},"arcs":[2]},{"type":"LineString","properties":{"name:ja":"\u30a2\u30fc\u30f3\u30c9\u30e9\u30fb\u30d7\u30e9\u30c7\u30fc\u30b7\u30e5","name:mr":"\u0906\u0902\u0927\u094d\u0930 \u092a\u094d\u0930\u0926\u0947\u0936","name:kn":"\u0c86\u0c82\u0ca7\u0ccd\u0cb0 \u0caa\u0ccd\u0cb0\u0ca6\u0cc7\u0cb6","min_zoom":8.0,"name:uk":"\u0410\u043d\u0434\u0445\u0440\u0430-\u041f\u0440\u0430\u0434\u0435\u0448","name:ru":"\u0410\u043d\u0434\u0445\u0440\u0430-\u041f\u0440\u0430\u0434\u0435\u0448","name:or":"\u0b06\u0b28\u0b4d\u0b27\u0b4d\u0b30 \u0b2a\u0b4d\u0b30\u0b26\u0b47\u0b36","name:ta":"\u0b86\u0ba8\u0bcd\u0ba4\u0bbf\u0bb0\u0baa\u0bcd \u0baa\u0bbf\u0bb0\u0ba4\u0bc7\u0b9a\u0bae\u0bcd","id":-2022095,"osm_relation":true,"name:te":"\u0c06\u0c02\u0c27\u0c4d\u0c30 \u0c2a\u0c4d\u0c30\u0c26\u0c47\u0c36\u0c4d","kind":"region","name":"Andhra Pradesh","sort_rank":256,"kind_detail":"4","name:hi":"\u0906\u0928\u094d\u0927\u094d\u0930 \u092a\u094d\u0930\u0926\u0947\u0936","source":"openstreetmap.org","maritime_boundary":true,"name:zh":"\u5b89\u5f97\u62c9\u90a6"},"arcs":[3]},{"type":"LineString","properties":{"name:ja":"\u30bf\u30df\u30eb\u30fb\u30ca\u30fc\u30c9\u30a5","name:hi":"\u0924\u092e\u093f\u0932 \u0928\u093e\u0921\u0941","name:ko":"\ud0c0\ubc00\ub098\ub450 \uc8fc","name:kn":"\u0ca4\u0cae\u0cbf\u0cb3\u0cc1\u0ca8\u0cbe\u0ca1\u0cc1","min_zoom":8.0,"name:uk":"\u0422\u0430\u043c\u0456\u043b-\u041d\u0430\u0434\u0443","name:ru":"\u0422\u0430\u043c\u0438\u043b\u043d\u0430\u0434","name:ml":"\u0d24\u0d2e\u0d3f\u0d34\u0d4d\u200c\u0d28\u0d3e\u0d1f\u0d4d","name:ta":"\u0ba4\u0bae\u0bbf\u0bb4\u0bcd\u0ba8\u0bbe\u0b9f\u0bc1","id":-96905,"osm_relation":true,"name:te":"\u0c24\u0c2e\u0c3f\u0c33\u0c28\u0c3e\u0c21\u0c41","kind":"region","name":"Tamil Nadu","sort_rank":256,"kind_detail":"4","source":"openstreetmap.org","maritime_boundary":true,"name:zh":"\u6cf0\u7c73\u5c14\u7eb3\u5fb7\u90a6"},"arcs":[4]}]},"roads":{"type":"GeometryCollection","geometries":[{"type":"MultiLineString","properties":{"source":"openstreetmap.org","kind":"major_road","landuse_kind":"urban_area","sort_rank":380,"kind_detail":"primary","name:ta":"\u0ba4\u0bbf\u0bb0\u0bc1.\u0bb5\u0bbf.\u0b95 \u0b9a\u0bbe\u0bb2\u0bc8","min_zoom":8.0},"arcs":[[18],[19],[20],[21]]},{"type":"MultiLineString","properties":{"kind":"major_road","network":"AsianHighway","sort_rank":381,"landuse_kind":"urban_area","source":"openstreetmap.org","min_zoom":8.0,"kind_detail":"trunk","shield_text":"45","ref":"NH16"},"arcs":[[22],[23]]},{"type":"LineString","properties":{"source":"openstreetmap.org","kind":"major_road","landuse_kind":"urban_area","sort_rank":380,"kind_detail":"primary","name:ta":"\u0b85\u0ba3\u0bcd\u0ba3\u0bbe \u0ba8\u0b95\u0bb0\u0bcd 3 \u0bb5\u0ba4\u0bc1 \u0ba8\u0bbf\u0bb4\u0bb1\u0bcd\u0b9a\u0bbe\u0bb2\u0bc8","min_zoom":8.0},"arcs":[24]},{"type":"LineString","properties":{"kind":"major_road","sort_rank":380,"landuse_kind":"urban_area","source":"openstreetmap.org","min_zoom":8.0,"kind_detail":"primary","name:ta":"2\u0bb5\u0ba4\u0bc1 \u0ba8\u0bbf\u0bb4\u0bb1\u0bcd\u0b9a\u0bbe\u0bb2\u0bc8","id":34549705},"arcs":[25]},{"type":"LineString","properties":{"kind":"major_road","network":"IN:NH","sort_rank":380,"kind_detail":"primary","source":"openstreetmap.org","min_zoom":8.0,"landuse_kind":"urban_area","shield_text":null,"name:ta":"GH \u0b9a\u0bbe\u0bb2\u0bc8","ref":"NH4","id":23970229},"arcs":[26]},{"type":"LineString","properties":{"kind":"major_road","sort_rank":380,"kind_detail":"primary","source":"openstreetmap.org","min_zoom":8.0,"landuse_kind":"urban_area","name:ta":"\u0bae\u0bbe\u0ba4\u0bb5\u0bb0\u0bae\u0bcd \u0ba8\u0bc6\u0b9f\u0bc1\u0b9e\u0bcd\u0b9a\u0bbe\u0bb2\u0bc8","ref":"SH111"},"arcs":[27]},{"type":"MultiLineString","properties":{"kind":"major_road","network":"IN:NH","sort_rank":381,"landuse_kind":"urban_area","source":"openstreetmap.org","min_zoom":8.0,"kind_detail":"trunk","shield_text":"16","osm_relation":true},"arcs":[[28],[29],[30],[31],[32],[33],[34],[35]]},{"type":"LineString","properties":{"kind":"major_road","sort_rank":380,"landuse_kind":"urban_area","source":"openstreetmap.org","min_zoom":8.0,"kind_detail":"primary","name:ta":"1\u0bb5\u0ba4\u0bc1 \u0ba8\u0bbf\u0bb4\u0bb1\u0bcd\u0b9a\u0bbe\u0bb2\u0bc8","id":28682080},"arcs":[36]},{"type":"MultiLineString","properties":{"kind":"major_road","network":"AsianHighway","sort_rank":381,"landuse_kind":"urban_area","source":"openstreetmap.org","min_zoom":8.0,"kind_detail":"trunk","shield_text":"45","ref":"NH48"},"arcs":[[37],[38]]},{"type":"MultiLineString","properties":{"source":"openstreetmap.org","kind":"major_road","landuse_kind":"urban_area","sort_rank":380,"kind_detail":"primary","name:ta":"\u0b95\u0bbe\u0bae\u0bb0\u0bbe\u0b9c\u0bb0\u0bcd \u0b9a\u0bbe\u0bb2\u0bc8","min_zoom":8.0},"arcs":[[39],[40],[41]]},{"type":"LineString","properties":{"kind":"major_road","sort_rank":381,"kind_detail":"trunk","source":"openstreetmap.org","min_zoom":8.0,"landuse_kind":"urban_area","name:ta":"\u0baa\u0bc7\u0b9a\u0bbf\u0ba9\u0bcd \u0baa\u0bbe\u0bb2\u0bae\u0bcd","ref":"NH 5","id":35283349},"arcs":[42]},{"type":"MultiLineString","properties":{"kind":"major_road","network":"IN:NH","sort_rank":381,"landuse_kind":"urban_area","source":"openstreetmap.org","min_zoom":8.0,"kind_detail":"trunk","shield_text":"32","ref":"NH32"},"arcs":[[43],[44],[45]]},{"type":"LineString","properties":{"kind":"major_road","sort_rank":380,"kind_detail":"primary","source":"openstreetmap.org","min_zoom":8.0,"landuse_kind":"urban_area","name:ta":"\u0b95\u0ba4\u0bcd\u0ba4\u0bbf\u0baa\u0bcd\u0baa\u0bbe\u0bb0\u0bbe \u0b87\u0b9f\u0bc8\u0bae\u0bbe\u0bb1\u0bcd\u0bb1\u0bc1\u0b9a\u0bcd\u0b9a\u0ba8\u0bcd\u0ba4\u0bbf","ref":"NH32","id":28078045},"arcs":[46]},{"type":"LineString","properties":{"kind":"major_road","sort_rank":380,"landuse_kind":"urban_area","source":"openstreetmap.org","min_zoom":8.0,"kind_detail":"primary","name:ta":"\u0baa\u0b9f\u0bcd \u0b9a\u0bbe\u0bb2\u0bc8","id":27443120},"arcs":[47]},{"type":"LineString","properties":{"kind":"major_road","sort_rank":381,"kind_detail":"trunk","bus_network":"MTC","source":"openstreetmap.org","min_zoom":8.0,"bus_shield_text":"27D","landuse_kind":"urban_area","id":23499971},"arcs":[48]},{"type":"MultiLineString","properties":{"kind":"major_road","sort_rank":380,"kind_detail":"primary","source":"openstreetmap.org","min_zoom":8.0,"landuse_kind":"urban_area","name:ta":"\u0ba4\u0bbf\u0bb2\u0bcd\u0bb2\u0bc8 \u0b95\u0b99\u0bcd\u0b95\u0bbe \u0ba8\u0b95\u0bb0\u0bcd \u0b9a\u0bc1\u0bb0\u0b99\u0bcd\u0b95\u0baa\u0bcd\u0baa\u0bbe\u0ba4\u0bc8","ref":"IRR"},"arcs":[[49],[50]]},{"type":"MultiLineString","properties":{"source":"openstreetmap.org","kind":"major_road","kind_detail":"trunk","sort_rank":381,"landuse_kind":"urban_area","ref":"NH 5","min_zoom":8.0},"arcs":[[51],[52],[53]]},{"type":"MultiLineString","properties":{"kind":"major_road","sort_rank":380,"kind_detail":"primary","source":"openstreetmap.org","min_zoom":8.0,"landuse_kind":"urban_area","name:ta":"\u0b9c\u0bb5\u0b95\u0bb0\u0bcd\u0bb2\u0bbe\u0bb2\u0bcd \u0ba8\u0bc7\u0bb0\u0bc1 \u0b9a\u0bbe\u0bb2\u0bc8 (100 \u0b85\u0b9f\u0bbf \u0b9a\u0bbe\u0bb2\u0bc8)","ref":"IRR"},"arcs":[[54],[55],[56],[57]]},{"type":"MultiLineString","properties":{"kind":"major_road","sort_rank":380,"kind_detail":"primary","source":"openstreetmap.org","min_zoom":8.0,"landuse_kind":"urban_area","name:ta":"\u0baa\u0bb2\u0bcd\u0bb2\u0bbe\u0bb5\u0bb0\u0bae\u0bcd \u0ba4\u0bc1\u0bb0\u0bc8\u0baa\u0bcd\u0baa\u0bbe\u0b95\u0bcd\u0b95\u0bae\u0bcd \u0b86\u0bb0 \u0b9a\u0bbe\u0bb2\u0bc8","ref":"SH109"},"arcs":[[58],[59],[60]]},{"type":"LineString","properties":{"kind":"major_road","network":"IN:NH","sort_rank":381,"landuse_kind":"urban_area","source":"openstreetmap.org","min_zoom":8.0,"kind_detail":"trunk","shield_text":null,"name:ta":"\u0bae\u0bc1\u0ba4\u0bcd\u0ba4\u0bc1\u0b9a\u0bc1\u0bb5\u0bbe\u0bae\u0bbf \u0b9a\u0bbe\u0bb2\u0bc8","ref":"NH4"},"arcs":[61]},{"type":"MultiLineString","properties":{"kind":"major_road","sort_rank":380,"kind_detail":"primary","source":"openstreetmap.org","min_zoom":8.0,"landuse_kind":"urban_area","name:ta":"\u0b89\u0bb3\u0bcd\u0bb5\u0b9f\u0bcd\u0b9f\u0b9a\u0bcd \u0b9a\u0bbe\u0bb2\u0bc8","ref":"IRR"},"arcs":[[62],[63],[64],[65],[66],[67],[68],[69],[70],[71],[72],[73],[74],[75]]},{"type":"MultiLineString","properties":{"kind":"major_road","network":"IN:NH","sort_rank":381,"landuse_kind":"urban_area","source":"openstreetmap.org","min_zoom":8.0,"kind_detail":"trunk","shield_text":null,"ref":"NH716"},"arcs":[[76],[77],[78]]},{"type":"LineString","properties":{"source":"openstreetmap.org","kind":"major_road","sort_rank":380,"kind_detail":"primary","ref":"SH56","min_zoom":8.0},"arcs":[79]},{"type":"MultiLineString","properties":{"source":"openstreetmap.org","kind":"major_road","landuse_kind":"urban_area","sort_rank":380,"kind_detail":"primary","name:ta":"\u0b95\u0bc7\u0bbe\u0baf\u0bae\u0bcd\u0baa\u0bc7\u0b9f\u0bc1 \u0baa\u0bbe\u0bb2\u0bae\u0bcd","min_zoom":8.0},"arcs":[[80],[81]]},{"type":"MultiLineString","properties":{"bus_network":"MTC","sort_rank":380,"kind_detail":"primary","bus_shield_text":"588C","kind":"major_road","source":"openstreetmap.org","min_zoom":8.0,"landuse_kind":"urban_area","name:ta":"\u0b95\u0bbf\u0bb4\u0b95\u0bcd\u0b95\u0bc1 \u0b95\u0b9f\u0bb1\u0bcd\u0b95\u0bb0\u0bc8\u0b9a\u0bcd \u0b9a\u0bbe\u0bb2\u0bc8","ref":"ECR"},"arcs":[[82],[83]]},{"type":"LineString","properties":{"kind":"major_road","sort_rank":380,"landuse_kind":"urban_area","source":"openstreetmap.org","min_zoom":8.0,"kind_detail":"primary","name:ta":"\u0b95\u0bb2\u0bcd\u0b95\u0bbf \u0b95\u0bbf\u0bb0\u0bc1\u0bb7\u0bcd\u0ba3\u0bae\u0bc2\u0bb0\u0bcd\u0ba4\u0bcd\u0ba4\u0bbf \u0b9a\u0bbe\u0bb2\u0bc8","id":129613432},"arcs":[84]},{"type":"MultiLineString","properties":{"kind":"major_road","network":"IN:NH","sort_rank":381,"landuse_kind":"urban_area","source":"openstreetmap.org","min_zoom":8.0,"kind_detail":"trunk","shield_text":null},"arcs":[[85],[86],[87]]},{"type":"LineString","properties":{"source":"openstreetmap.org","kind":"major_road","landuse_kind":"urban_area","sort_rank":380,"kind_detail":"primary","name:ta":"\u0bb0\u0bbe\u0bae\u0b95\u0bbf\u0bb0\u0bc1\u0bb7\u0bcd\u0ba3 \u0bae\u0b9f\u0bae\u0bcd \u0b9a\u0bbe\u0bb2\u0bc8","min_zoom":8.0},"arcs":[88]},{"type":"LineString","properties":{"kind":"major_road","sort_rank":380,"landuse_kind":"urban_area","source":"openstreetmap.org","min_zoom":8.0,"kind_detail":"primary","name:ta":"\u0bb5\u0bc7\u0bb3\u0b9a\u0bcd\u0b9a\u0bc7\u0bb0\u0bbf - \u0ba4\u0bbe\u0bae\u0bcd\u0baa\u0bb0\u0bae\u0bcd \u0b9a\u0bbe\u0bb2\u0bc8","id":179259179},"arcs":[89]},{"type":"LineString","properties":{"kind":"major_road","sort_rank":380,"kind_detail":"primary","source":"openstreetmap.org","min_zoom":8.0,"landuse_kind":"urban_area","name:ta":"\u0bb5\u0bbe\u0ba9\u0b95\u0bb0\u0bae\u0bcd \u0b85\u0bae\u0bcd\u0baa\u0ba4\u0bcd\u0ba4\u0bc2\u0bb0\u0bcd \u0b9a\u0bbe\u0bb2\u0bc8","ref":"SH 205"},"arcs":[90]},{"type":"MultiLineString","properties":{"bus_network":"MTC","network":"IN:NH","sort_rank":381,"kind_detail":"trunk","kind":"major_road","source":"openstreetmap.org","min_zoom":8.0,"bus_shield_text":"15B","shield_text":null,"landuse_kind":"urban_area"},"arcs":[[91],[92],[93]]},{"type":"LineString","properties":{"source":"openstreetmap.org","kind":"major_road","sort_rank":380,"kind_detail":"primary","ref":"ECR","min_zoom":8.0},"arcs":[94]},{"type":"LineString","properties":{"kind":"major_road","sort_rank":380,"landuse_kind":"urban_area","source":"openstreetmap.org","min_zoom":8.0,"kind_detail":"primary","name:ta":"\u0bb2\u0bb8\u0bcd \u0b9a\u0bb0\u0bcd\u0b9a\u0bcd \u0b9a\u0bbe\u0bb2\u0bc8","id":208567680},"arcs":[95]},{"type":"MultiLineString","properties":{"kind":"major_road","network":"IN:NH","sort_rank":381,"landuse_kind":"urban_area","source":"openstreetmap.org","min_zoom":8.0,"kind_detail":"trunk","shield_text":null,"ref":"NH4"},"arcs":[[96],[97],[98],[99]]},{"type":"MultiLineString","properties":{"kind":"major_road","network":"IN:NH","sort_rank":381,"landuse_kind":"urban_area","source":"openstreetmap.org","min_zoom":8.0,"kind_detail":"trunk","shield_text":null,"ref":"NH32"},"arcs":[[100],[101],[102],[103],[104],[105]]},{"type":"LineString","properties":{"kind":"major_road","sort_rank":380,"landuse_kind":"urban_area","source":"openstreetmap.org","min_zoom":8.0,"kind_detail":"primary","name:ta":"\u0ba4\u0bc1\u0bb0\u0bc8\u0b9a\u0bbe\u0bae\u0bbf \u0b9a\u0bbe\u0bb2\u0bc8","id":28632290},"arcs":[106]},{"type":"MultiLineString","properties":{"sort_rank":380,"kind_detail":"primary","min_zoom":8.0,"kind":"major_road","source":"openstreetmap.org"},"arcs":[[107],[108],[109],[110],[111],[112],[113],[114],[115],[116],[117]]},{"type":"LineString","properties":{"kind":"major_road","sort_rank":380,"landuse_kind":"urban_area","source":"openstreetmap.org","min_zoom":8.0,"kind_detail":"primary","name:ta":"\u0bae\u0bc1\u0b9a\u0bbf\u0bb1\u0bbf \u0b9a\u0bc1\u0baa\u0bcd\u0bb0\u0bae\u0ba3\u0bbf\u0baf\u0bae\u0bcd \u0b9a\u0bbe\u0bb2\u0bc8","id":188036068},"arcs":[118]},{"type":"LineString","properties":{"source":"openstreetmap.org","kind":"major_road","landuse_kind":"urban_area","sort_rank":380,"kind_detail":"primary","name:ta":"\u0b85\u0b9a\u0bc7\u0bbe\u0b95\u0bcd \u0baa\u0bbf\u0bb2\u0bcd\u0bb2\u0bb0\u0bcd \u0b9a\u0bbe\u0bb2\u0bc8","min_zoom":8.0},"arcs":[119]},{"type":"MultiLineString","properties":{"kind":"major_road","sort_rank":380,"kind_detail":"primary","old_name":"First Line Beach Road","source":"openstreetmap.org","min_zoom":8.0,"landuse_kind":"urban_area","name:ta":"\u0bb0\u0bbe\u0b9c\u0bbe\u0b9c\u0bbf \u0b9a\u0bbe\u0bb2\u0bc8"},"arcs":[[120],[121]]},{"type":"LineString","properties":{"kind":"major_road","sort_rank":380,"landuse_kind":"urban_area","source":"openstreetmap.org","min_zoom":8.0,"kind_detail":"primary","name:ta":"5 \u0bb5\u0ba4\u0bc1 \u0ba8\u0bbf\u0bb4\u0bb1\u0bcd\u0b9a\u0bbe\u0bb2\u0bc8","id":23306346},"arcs":[122]},{"type":"LineString","properties":{"kind":"major_road","sort_rank":380,"landuse_kind":"urban_area","source":"openstreetmap.org","min_zoom":8.0,"kind_detail":"primary","name:ta":"\u0baa\u0bc1\u0bb3\u0bbf\u0baf\u0ba8\u0bcd\u0ba4\u0bc7\u0bbe\u0baa\u0bcd\u0baa\u0bc1 \u0ba8\u0bc6\u0b9f\u0bc1\u0b9e\u0bcd\u0b9a\u0bbe\u0bb2\u0bc8","id":23892862},"arcs":[123]},{"type":"MultiLineString","properties":{"source":"openstreetmap.org","kind":"major_road","landuse_kind":"urban_area","sort_rank":380,"kind_detail":"primary","name:ta":"\u0b87\u0bb0\u0bbe\u0bae\u0b95\u0bbf\u0bb0\u0bc1\u0bb7\u0bcd\u0ba3 \u0bae\u0b9f\u0bae\u0bcd \u0b9a\u0bbe\u0bb2\u0bc8","min_zoom":8.0},"arcs":[[124],[125],[126]]},{"type":"MultiLineString","properties":{"source":"openstreetmap.org","kind":"major_road","landuse_kind":"urban_area","sort_rank":380,"kind_detail":"primary","is_bicycle_related":true,"min_zoom":8.0},"arcs":[[127],[128],[129]]},{"type":"MultiLineString","properties":{"source":"openstreetmap.org","kind":"major_road","landuse_kind":"urban_area","sort_rank":380,"kind_detail":"primary","name:ta":"\u0b95\u0ba4\u0bc0\u0b9f\u0bcd\u0bb0\u0bb2\u0bcd \u0b9a\u0bbe\u0bb2\u0bc8","min_zoom":8.0},"arcs":[[130],[131]]},{"type":"LineString","properties":{"kind":"major_road","sort_rank":380,"landuse_kind":"urban_area","source":"openstreetmap.org","min_zoom":8.0,"kind_detail":"primary","name:ta":"80 \u0b85\u0b9f\u0bbf \u0b9a\u0bbe\u0bb2\u0bc8","id":25466207},"arcs":[132]},{"type":"MultiLineString","properties":{"source":"openstreetmap.org","kind":"major_road","landuse_kind":"urban_area","sort_rank":380,"kind_detail":"primary","name:ta":"\u0b89\u0ba4\u0bcd\u0ba4\u0bae\u0bb0\u0bcd \u0b95\u0bbe\u0ba8\u0bcd\u0ba4\u0bbf \u0b9a\u0bbe\u0bb2\u0bc8","min_zoom":8.0},"arcs":[[133],[134]]},{"type":"MultiLineString","properties":{"kind":"major_road","sort_rank":380,"kind_detail":"primary","is_bicycle_related":true,"source":"openstreetmap.org","min_zoom":8.0,"landuse_kind":"urban_area","name:ta":"\u0ba4\u0bbf\u0bb0\u0bc1 \u0bb5\u0bbf \u0b95\u0bbe \u0bae\u0bc7\u0bae\u0bcd\u0baa\u0bbe\u0bb2\u0bae\u0bcd"},"arcs":[[135],[136]]},{"type":"LineString","properties":{"source":"openstreetmap.org","kind":"major_road","landuse_kind":"urban_area","sort_rank":380,"kind_detail":"primary","name:ta":"\u0b9a\u0bbf.\u0b90.\u0b9f\u0bbf \u0ba8\u0b95\u0bb0\u0bcd 3 \u0bb5\u0ba4\u0bc1 \u0bae\u0bc1\u0ba4\u0ba9\u0bcd\u0bae\u0bc8\u0b9a\u0bcd \u0b9a\u0bbe\u0bb2\u0bc8","min_zoom":8.0},"arcs":[137]},{"type":"MultiLineString","properties":{"kind":"major_road","sort_rank":380,"kind_detail":"primary","source":"openstreetmap.org","min_zoom":8.0,"landuse_kind":"urban_area","name:ta":"\u0b8e\u0ba3\u0bcd\u0ba3\u0bc2\u0bb0\u0bcd \u0ba8\u0bc6\u0b9f\u0bc1\u0b9e\u0bcd\u0b9a\u0bbe\u0bb2\u0bc8","ref":"SH114"},"arcs":[[138],[139]]},{"type":"LineString","properties":{"kind":"major_road","network":"IN:NH","sort_rank":381,"landuse_kind":"urban_area","source":"openstreetmap.org","min_zoom":8.0,"kind_detail":"trunk","shield_text":"32"},"arcs":[140]},{"type":"MultiLineString","properties":{"kind":"major_road","sort_rank":380,"kind_detail":"primary","source":"openstreetmap.org","min_zoom":8.0,"landuse_kind":"urban_area","name:ta":"\u0ba8\u0ba8\u0bcd\u0ba4\u0bae\u0bcd\u0baa\u0bbe\u0b95\u0bcd\u0b95\u0bae\u0bcd \u0baa\u0bbe\u0bb2\u0bae\u0bcd","ref":"SH 55"},"arcs":[[141],[142]]},{"type":"LineString","properties":{"kind":"major_road","sort_rank":380,"landuse_kind":"urban_area","source":"openstreetmap.org","min_zoom":8.0,"kind_detail":"primary","name:ta":"\u0b9f\u0bbe\u0b95\u0bcd\u0b9f\u0bb0\u0bcd \u0b8e\u0bae\u0bcd.\u0b9c\u0bc0.\u0b86\u0bb0\u0bcd \u0b9a\u0bbe\u0bb2\u0bc8","id":147260256},"arcs":[143]},{"type":"LineString","properties":{"kind":"major_road","sort_rank":380,"kind_detail":"primary","source":"openstreetmap.org","min_zoom":8.0,"landuse_kind":"urban_area","name:ta":"\u0b95\u0ba4\u0bcd\u0ba4\u0bbf\u0bb5\u0bbe\u0b95\u0bcd\u0b95\u0bae\u0bcd \u0baa\u0bbe\u0bb2\u0bae\u0bcd","ref":"SH114"},"arcs":[144]},{"type":"LineString","properties":{"kind":"major_road","sort_rank":380,"landuse_kind":"urban_area","source":"openstreetmap.org","min_zoom":8.0,"kind_detail":"primary","name:ta":"\u0b87\u0ba3\u0bc8\u0baa\u0bcd\u0baa\u0bc1 \u0b9a\u0bbe\u0bb2\u0bc8","id":204781924},"arcs":[145]},{"type":"MultiLineString","properties":{"source":"openstreetmap.org","kind":"major_road","old_name":"Mount Road","sort_rank":381,"landuse_kind":"urban_area","min_zoom":8.0,"kind_detail":"trunk"},"arcs":[[146],[147],[148],[149]]},{"type":"MultiLineString","properties":{"source":"openstreetmap.org","kind":"major_road","landuse_kind":"urban_area","sort_rank":380,"kind_detail":"primary","name:ta":"\u0b8e\u0bb0\u0bcd\u0ba3\u0bbe\u0bb5\u0bc2\u0bb0\u0bcd \u0baa\u0bbe\u0bb2\u0bae\u0bcd","min_zoom":8.0},"arcs":[[150],[151]]},{"type":"MultiLineString","properties":{"source":"openstreetmap.org","kind":"major_road","landuse_kind":"urban_area","sort_rank":380,"kind_detail":"primary","name:ta":"\u0bae\u0bbe\u0ba4\u0bb5\u0bb0\u0bae\u0bcd \u0baa\u0bbe\u0bb2\u0bae\u0bcd","min_zoom":8.0},"arcs":[[152],[153]]},{"type":"LineString","properties":{"bus_network":"MTC","sort_rank":380,"kind_detail":"primary","kind":"major_road","source":"openstreetmap.org","min_zoom":8.0,"bus_shield_text":"27D","landuse_kind":"urban_area"},"arcs":[154]},{"type":"LineString","properties":{"kind":"major_road","sort_rank":380,"kind_detail":"primary","is_bicycle_related":true,"source":"openstreetmap.org","min_zoom":8.0,"landuse_kind":"urban_area","name:ta":"\u0bae\u0bbe\u0ba4\u0bb5\u0bb0\u0bae\u0bcd \u0ba8\u0bc6\u0b9f\u0bc1\u0b9e\u0bcd\u0b9a\u0bbe\u0bb2\u0bc8","ref":"SH111","id":25474459},"arcs":[155]},{"type":"MultiLineString","properties":{"source":"openstreetmap.org","kind":"major_road","landuse_kind":"urban_area","sort_rank":380,"kind_detail":"primary","name:ta":"\u0b9a\u0bbe\u0ba8\u0bcd\u0ba4\u0bc7\u0bbe\u0bae\u0bcd \u0ba8\u0bc6\u0b9f\u0bc1\u0b9e\u0bcd\u0b9a\u0bbe\u0bb2\u0bc8","min_zoom":8.0},"arcs":[[156],[157],[158]]},{"type":"LineString","properties":{"kind":"major_road","sort_rank":380,"landuse_kind":"urban_area","source":"openstreetmap.org","min_zoom":8.0,"kind_detail":"primary","name:ta":"\u0bb5\u0bc6\u0b99\u0bcd\u0b95\u0b9f\u0bbe\u0b9a\u0bb2\u0bae\u0bcd \u0ba4\u0bc6\u0bb0\u0bc1","id":23930011},"arcs":[159]},{"type":"LineString","properties":{"kind":"major_road","sort_rank":380,"landuse_kind":"urban_area","source":"openstreetmap.org","min_zoom":8.0,"kind_detail":"primary","name:ta":"\u0b95\u0bc7\u0bbe\u0b9f\u0bae\u0bcd\u0baa\u0bbe\u0b95\u0bcd\u0b95\u0bae\u0bcd \u0baa\u0bbe\u0bb2\u0bae\u0bcd","id":23186335},"arcs":[160]},{"type":"LineString","properties":{"kind":"major_road","sort_rank":380,"landuse_kind":"urban_area","source":"openstreetmap.org","min_zoom":8.0,"kind_detail":"primary","name:ta":"\u0bae\u0b95\u0bbe\u0bb2\u0bbf\u0b99\u0bcd\u0b95\u0baa\u0bc1\u0bb0\u0bae\u0bcd \u0bae\u0bc1\u0ba4\u0ba9\u0bcd\u0bae\u0bc8\u0b9a\u0bcd \u0b9a\u0bbe\u0bb2\u0bc8","id":23610928},"arcs":[161]},{"type":"LineString","properties":{"bus_network":"MTC","name:ta":"\u0b95\u0bbf\u0bb4\u0b95\u0bcd\u0b95\u0bc1\u0b95\u0bcd \u0b95\u0b9f\u0bb1\u0bcd\u0b95\u0bb0\u0bc8\u0b9a\u0bcd \u0b9a\u0bbe\u0bb2\u0bc8 (\u0bae\u0bbe.\u0ba8\u0bc6 49)","sort_rank":380,"kind_detail":"primary","kind":"major_road","source":"openstreetmap.org","min_zoom":8.0,"bus_shield_text":"588C","landuse_kind":"urban_area","ref":"ECR"},"arcs":[162]},{"type":"LineString","properties":{"kind":"major_road","sort_rank":380,"landuse_kind":"urban_area","source":"openstreetmap.org","min_zoom":8.0,"kind_detail":"primary","name:ta":"\u0baa\u0bc7\u0b9a\u0bbf\u0ba9\u0bcd \u0baa\u0bbe\u0bb2\u0bae\u0bcd \u0b9a\u0bbe\u0bb2\u0bc8","id":217859486},"arcs":[163]},{"type":"LineString","properties":{"source":"openstreetmap.org","kind":"major_road","landuse_kind":"urban_area","sort_rank":380,"kind_detail":"primary","ref":"SH 1A","min_zoom":8.0},"arcs":[164]},{"type":"MultiLineString","properties":{"source":"openstreetmap.org","kind":"major_road","landuse_kind":"urban_area","sort_rank":380,"kind_detail":"primary","name:ta":"\u0bb5\u0b9f\u0b95\u0bcd\u0b95\u0bc1 \u0b89\u0bb8\u0bcd\u0bae\u0bbe\u0ba9\u0bcd \u0b9a\u0bbe\u0bb2\u0bc8","min_zoom":8.0},"arcs":[[165],[166],[167],[168],[169],[170],[171]]},{"type":"MultiLineString","properties":{"source":"openstreetmap.org","kind":"major_road","sort_rank":380,"kind_detail":"primary","name:ta":"\u0bb0\u0bbe\u0b9c\u0bc0\u0bb5\u0bcd \u0b95\u0bbe\u0ba8\u0bcd\u0ba4\u0bbf \u0b9a\u0bbe\u0bb2\u0bc8","ref":"OMR","min_zoom":8.0},"arcs":[[172],[173]]},{"type":"LineString","properties":{"kind":"major_road","sort_rank":380,"kind_detail":"primary","source":"openstreetmap.org","min_zoom":8.0,"landuse_kind":"urban_area","name:ta":"\u0b95\u0bc1\u0ba9\u0bcd\u0bb1\u0ba4\u0bcd\u0ba4\u0bc2\u0bb0\u0bcd \u0b9a\u0bbe\u0bb2\u0bc8","ref":"SH 113","id":268051704},"arcs":[174]},{"type":"MultiLineString","properties":{"source":"openstreetmap.org","kind":"major_road","landuse_kind":"urban_area","sort_rank":380,"kind_detail":"primary","name:ta":"\u0b9a\u0bc7\u0ba4\u0bcd\u0ba4\u0bc1\u0baa\u0bcd\u0baa\u0b9f\u0bcd\u0b9f\u0bc1 \u0baa\u0bbe\u0bb2\u0bae\u0bcd","min_zoom":8.0},"arcs":[[175],[176]]},{"type":"LineString","properties":{"source":"openstreetmap.org","kind":"ferry","name":"Port Blair to Chennai","sort_rank":355,"landuse_kind":"urban_area","min_zoom":8.0,"id":84517904},"arcs":[177]},{"type":"LineString","properties":{"kind":"major_road","sort_rank":380,"kind_detail":"primary","bus_network":"MTC","source":"openstreetmap.org","min_zoom":8.0,"bus_shield_text":"27D","landuse_kind":"urban_area","name:ta":"\u0baa\u0bc1\u0bb0\u0b9a\u0bc8\u0bb5\u0bbe\u0b95\u0bcd\u0b95\u0bae\u0bcd \u0ba8\u0bc6\u0b9f\u0bc1\u0b9e\u0bcd\u0b9a\u0bbe\u0bb2\u0bc8","id":26808454},"arcs":[178]},{"type":"LineString","properties":{"source":"openstreetmap.org","kind":"major_road","landuse_kind":"urban_area","sort_rank":380,"kind_detail":"primary","name:ta":"\u0bae\u0b95\u0bbe\u0bb2\u0bbf\u0b99\u0bcd\u0b95\u0baa\u0bc1\u0bb0\u0bae\u0bcd \u0bae\u0bc7\u0bae\u0bcd\u0baa\u0bbe\u0bb2\u0bae\u0bcd","min_zoom":8.0},"arcs":[179]},{"type":"MultiLineString","properties":{"source":"openstreetmap.org","kind":"major_road","landuse_kind":"urban_area","sort_rank":380,"kind_detail":"primary","name:ta":"\u0ba4\u0bbf\u0bb0\u0bc1.\u0bb5\u0bbf.\u0b95 \u0baa\u0bbe\u0bb2\u0bae\u0bcd","min_zoom":8.0},"arcs":[[180],[181]]},{"type":"LineString","properties":{"source":"openstreetmap.org","kind":"major_road","landuse_kind":"urban_area","sort_rank":380,"kind_detail":"primary","name:ta":"\u0ba4\u0bb0\u0bae\u0ba3\u0bbf \u0b87\u0ba3\u0bc8\u0baa\u0bcd\u0baa\u0bc1 \u0b9a\u0bbe\u0bb2\u0bc8","min_zoom":8.0},"arcs":[182]},{"type":"MultiLineString","properties":{"bus_network":"MTC","sort_rank":380,"kind_detail":"primary","bus_shield_text":"588C","kind":"major_road","source":"openstreetmap.org","min_zoom":8.0,"landuse_kind":"urban_area","name:ta":"\u0b9c\u0bb5\u0b95\u0bb0\u0bcd\u0bb2\u0bbe\u0bb2\u0bcd \u0ba8\u0bc7\u0bb0\u0bc1 \u0b9a\u0bbe\u0bb2\u0bc8 (100 \u0b85\u0b9f\u0bbf \u0b9a\u0bbe\u0bb2\u0bc8)","ref":"IRR"},"arcs":[[183],[184],[185]]},{"type":"MultiLineString","properties":{"source":"openstreetmap.org","kind":"major_road","landuse_kind":"urban_area","sort_rank":380,"kind_detail":"primary","name:ta":"\u0b89\u0bb8\u0bcd\u0bae\u0bbe\u0ba9\u0bcd \u0b9a\u0bbe\u0bb2\u0bc8 \u0bae\u0bc7\u0bae\u0bcd\u0baa\u0bbe\u0bb2\u0bae\u0bcd","min_zoom":8.0},"arcs":[[186],[187]]},{"type":"MultiLineString","properties":{"source":"openstreetmap.org","kind":"major_road","landuse_kind":"urban_area","sort_rank":380,"kind_detail":"primary","name:ta":"\u0baa\u0bc6\u0bb0\u0bae\u0bcd\u0baa\u0bc2\u0bb0\u0bcd \u0ba8\u0bc6\u0b9f\u0bc1\u0b9e\u0bcd\u0b9a\u0bbe\u0bb2\u0bc8","min_zoom":8.0},"arcs":[[188],[189]]},{"type":"LineString","properties":{"kind":"major_road","sort_rank":380,"landuse_kind":"urban_area","source":"openstreetmap.org","min_zoom":8.0,"kind_detail":"primary","name:ta":"\u0b87\u0ba8\u0bcd\u0ba4\u0bbf\u0baf\u0bbe \u0bb0\u0bbf\u0b9a\u0bb0\u0bcd\u0bb5\u0bcd \u0bb5\u0b99\u0bcd\u0b95\u0bbf \u0b9a\u0bc1\u0bb0\u0b99\u0bcd\u0b95\u0baa\u0bcd\u0baa\u0bbe\u0ba4\u0bc8","id":23893951},"arcs":[190]},{"type":"MultiLineString","properties":{"bus_network":"MTC","sort_rank":380,"kind_detail":"primary","kind":"major_road","source":"openstreetmap.org","min_zoom":8.0,"bus_shield_text":"588C","landuse_kind":"urban_area"},"arcs":[[191],[192],[193],[194],[195]]},{"type":"LineString","properties":{"source":"openstreetmap.org","kind":"major_road","sort_rank":380,"kind_detail":"primary","ref":"SH121","min_zoom":8.0},"arcs":[196]},{"type":"MultiLineString","properties":{"bus_network":"MTC","sort_rank":380,"kind_detail":"primary","bus_shield_text":"588C","kind":"major_road","source":"openstreetmap.org","min_zoom":8.0,"landuse_kind":"urban_area","name:ta":"\u0b95\u0bbe\u0bb3\u0bbf\u0baf\u0bae\u0bcd\u0bae\u0ba9\u0bcd \u0b95\u0bc7\u0bbe\u0baf\u0bbf\u0bb2\u0bcd \u0ba4\u0bc6\u0bb0\u0bc1"},"arcs":[[197],[198]]},{"type":"LineString","properties":{"kind":"ferry","name":"Port Blair - Chennai Ferry","sort_rank":355,"landuse_kind":"urban_area","source":"openstreetmap.org","min_zoom":8.0,"id":-1263226,"osm_relation":true},"arcs":[199]},{"type":"LineString","properties":{"kind":"major_road","sort_rank":380,"kind_detail":"primary","bus_network":"MTC","source":"openstreetmap.org","min_zoom":8.0,"bus_shield_text":"588C","landuse_kind":"urban_area","name:ta":"\u0b95\u0ba4\u0bcd\u0ba4\u0bbf\u0baa\u0bcd\u0baa\u0bbe\u0bb0\u0bbe \u0b87\u0b9f\u0bc8\u0bae\u0bbe\u0bb1\u0bcd\u0bb1\u0bc1\u0b9a\u0bcd\u0b9a\u0ba8\u0bcd\u0ba4\u0bbf","id":231391866},"arcs":[200]},{"type":"MultiLineString","properties":{"source":"openstreetmap.org","kind":"major_road","landuse_kind":"urban_area","sort_rank":380,"kind_detail":"primary","name:ta":"\u0bb0\u0bbe\u0b9c\u0bbe\u0b9c\u0bbf \u0b9a\u0bbe\u0bb2\u0bc8","min_zoom":8.0},"arcs":[[201],[202]]},{"type":"LineString","properties":{"kind":"major_road","sort_rank":380,"landuse_kind":"urban_area","source":"openstreetmap.org","min_zoom":8.0,"kind_detail":"primary","name:ta":"\u0baa\u0bc7\u0baa\u0bcd\u0baa\u0bb0\u0bcd \u0bae\u0bbf\u0bb2\u0bcd\u0bb8\u0bcd \u0b9a\u0bbe\u0bb2\u0bc8","id":28342112},"arcs":[203]},{"type":"LineString","properties":{"kind":"major_road","sort_rank":380,"kind_detail":"primary","bus_network":"MTC","source":"openstreetmap.org","min_zoom":8.0,"bus_shield_text":"588C","landuse_kind":"urban_area","name:ta":"\u0b95\u0bbe\u0ba8\u0bcd\u0ba4\u0bbf \u0bae\u0ba3\u0bcd\u0b9f\u0baa\u0bae\u0bcd \u0bae\u0bc7\u0bae\u0bcd\u0baa\u0bbe\u0bb2\u0bae\u0bcd","id":28233862},"arcs":[204]},{"type":"LineString","properties":{"kind":"major_road","sort_rank":380,"kind_detail":"primary","is_bicycle_related":true,"cycleway":"lane","source":"openstreetmap.org","min_zoom":8.0,"landuse_kind":"urban_area","name:ta":"\u0bb5\u0bc7\u0bb3\u0b9a\u0bcd\u0b9a\u0bc7\u0bb0\u0bbf \u0baa\u0bb1\u0b95\u0bcd\u0b95\u0bc1\u0bae\u0bcd \u0ba4\u0bca\u0b9f\u0bb0\u0bc1\u0ba8\u0bcd\u0ba4\u0bc1 \u0baa\u0bbe\u0bb2\u0bae\u0bcd","ref":"SH48","id":30598638},"arcs":[205]},{"type":"MultiLineString","properties":{"source":"openstreetmap.org","kind":"major_road","landuse_kind":"urban_area","sort_rank":380,"kind_detail":"primary","name:ta":"\u0b95\u0bbe\u0bb3\u0bbf\u0baf\u0bae\u0bcd\u0bae\u0ba9\u0bcd \u0b95\u0bc7\u0bbe\u0baf\u0bbf\u0bb2\u0bcd \u0ba4\u0bc6\u0bb0\u0bc1","min_zoom":8.0},"arcs":[[206],[207]]},{"type":"MultiLineString","properties":{"source":"openstreetmap.org","kind":"major_road","landuse_kind":"urban_area","sort_rank":380,"kind_detail":"primary","name:ta":"\u0b85\u0ba3\u0bcd\u0ba3\u0bbe \u0bae\u0bc1\u0ba4\u0ba9\u0bcd\u0bae\u0bc8\u0b9a\u0bcd \u0b9a\u0bbe\u0bb2\u0bc8","min_zoom":8.0},"arcs":[[208],[209]]},{"type":"LineString","properties":{"kind":"major_road","sort_rank":380,"kind_detail":"primary","bus_network":"MTC","source":"openstreetmap.org","min_zoom":8.0,"bus_shield_text":"588C","name:ta":"\u0b95\u0bbf\u0bb4\u0b95\u0bcd\u0b95\u0bc1\u0b95\u0bcd \u0b95\u0b9f\u0bb1\u0bcd\u0b95\u0bb0\u0bc8\u0b9a\u0bcd \u0b9a\u0bbe\u0bb2\u0bc8 (\u0bae\u0bbe.\u0ba8\u0bc6 49)","ref":"ECR SH49","id":132083268},"arcs":[210]},{"type":"LineString","properties":{"source":"openstreetmap.org","kind":"major_road","kind_detail":"trunk","sort_rank":381,"landuse_kind":"urban_area","name:ta":"\u0bb0\u0bbe\u0b9c\u0bbe \u0bae\u0bc1\u0ba4\u0baf\u0bbe\u0bb9\u0bcd \u0b9a\u0bbe\u0bb2\u0bc8","min_zoom":8.0},"arcs":[211]},{"type":"MultiLineString","properties":{"kind":"major_road","sort_rank":381,"landuse_kind":"urban_area","source":"openstreetmap.org","min_zoom":8.0,"kind_detail":"trunk","name:ta":"\u0bb5\u0bbe\u0bb2\u0bcd \u0b9f\u0b95\u0bcd\u0bb8\u0bcd \u0b9a\u0bbe\u0bb2\u0bc8","ref":"NH 5"},"arcs":[[212],[213]]},{"type":"LineString","properties":{"kind":"major_road","sort_rank":380,"kind_detail":"primary","bus_network":"MTC","source":"openstreetmap.org","min_zoom":8.0,"bus_shield_text":"15B","landuse_kind":"urban_area","id":24240271},"arcs":[214]},{"type":"LineString","properties":{"source":"openstreetmap.org","kind":"major_road","landuse_kind":"urban_area","sort_rank":380,"kind_detail":"primary","name:ta":"\u0bb0\u0bc6\u0b9f\u0bcd\u0bb9\u0bbf\u0bb2\u0bcd\u0bb8\u0bcd \u0b9a\u0bbe\u0bb2\u0bc8","min_zoom":8.0},"arcs":[215]},{"type":"LineString","properties":{"source":"openstreetmap.org","kind":"major_road","landuse_kind":"urban_area","sort_rank":380,"kind_detail":"primary","name:ta":"\u0baa\u0bc7\u0b9a\u0bbf\u0ba9\u0bcd \u0baa\u0bbf\u0bb0\u0bbf\u0b9f\u0bcd\u0b9c\u0bcd \u0b9a\u0bbe\u0bb2\u0bc8","min_zoom":8.0},"arcs":[216]},{"type":"MultiLineString","properties":{"bus_network":"MTC","sort_rank":380,"kind_detail":"primary","bus_shield_text":"15B","kind":"major_road","source":"openstreetmap.org","min_zoom":8.0,"landuse_kind":"urban_area","name:ta":"\u0b9c\u0bb5\u0b95\u0bb0\u0bcd\u0bb2\u0bbe\u0bb2\u0bcd \u0ba8\u0bc7\u0bb0\u0bc1 \u0b9a\u0bbe\u0bb2\u0bc8 (100 \u0b85\u0b9f\u0bbf \u0b9a\u0bbe\u0bb2\u0bc8)","ref":"IRR"},"arcs":[[217],[218],[219],[220]]},{"type":"MultiLineString","properties":{"kind":"major_road","network":"IN:NH","sort_rank":381,"kind_detail":"trunk","source":"openstreetmap.org","min_zoom":8.0,"shield_text":"16","osm_relation":true},"arcs":[[221],[222]]},{"type":"MultiLineString","properties":{"kind":"major_road","sort_rank":380,"kind_detail":"primary","source":"openstreetmap.org","min_zoom":8.0,"landuse_kind":"urban_area","name:ta":"\u0b8e\u0bb0\u0bcd\u0ba3\u0bbe\u0bb5\u0bc2\u0bb0\u0bcd \u0b9a\u0bbe\u0bb2\u0bc8","ref":"IRR"},"arcs":[[223],[224],[225],[226]]},{"type":"LineString","properties":{"source":"openstreetmap.org","kind":"major_road","sort_rank":380,"kind_detail":"primary","ref":"SH107","min_zoom":8.0},"arcs":[227]},{"type":"LineString","properties":{"kind":"major_road","sort_rank":380,"landuse_kind":"urban_area","source":"openstreetmap.org","min_zoom":8.0,"kind_detail":"primary","name:ta":"\u0b87\u0bb0\u0bbe\u0baf\u0baa\u0bc1\u0bb0\u0bae\u0bcd \u0baa\u0bbe\u0bb2\u0bae\u0bcd","id":28345207},"arcs":[228]},{"type":"MultiLineString","properties":{"kind":"major_road","sort_rank":380,"kind_detail":"primary","source":"openstreetmap.org","min_zoom":8.0,"landuse_kind":"urban_area","name:ta":"\u0bae\u0ba3\u0bb2\u0bbf \u0baa\u0bc6\u0bbe\u0ba9\u0bcd\u0ba9\u0bc7\u0bb0\u0bbf \u0b9a\u0bbe\u0bb2\u0bc8","ref":"SH56"},"arcs":[[229],[230]]},{"type":"MultiLineString","properties":{"kind":"major_road","sort_rank":380,"kind_detail":"primary","source":"openstreetmap.org","min_zoom":8.0,"landuse_kind":"urban_area","name:ta":"\u0b85\u0bae\u0bcd\u0baa\u0ba4\u0bcd\u0ba4\u0bc2\u0bb0\u0bcd \u0ba4\u0bca\u0bb4\u0bbf\u0bb1\u0bcd\u0baa\u0bc7\u0b9f\u0bcd\u0b9f\u0bc8 \u0b9a\u0bbe\u0bb2\u0bc8","ref":"SH112"},"arcs":[[231],[232]]},{"type":"LineString","properties":{"kind":"major_road","sort_rank":380,"landuse_kind":"urban_area","source":"openstreetmap.org","min_zoom":8.0,"kind_detail":"primary","name:ta":"\u0b95\u0bc6\u0bbe\u0b9f\u0bc1\u0b99\u0bcd\u0b95\u0bc8\u0baf\u0bc2\u0bb0\u0bcd \u0bae\u0ba3\u0bb2\u0bbf \u0b9a\u0bbe\u0bb2\u0bc8","id":26482340},"arcs":[233]},{"type":"LineString","properties":{"kind":"major_road","network":"IN:NH","sort_rank":381,"kind_detail":"trunk","source":"openstreetmap.org","min_zoom":8.0,"landuse_kind":"urban_area","shield_text":null,"ref":"NH205","id":155831556},"arcs":[234]},{"type":"MultiLineString","properties":{"bus_network":"MTC","network":"IN:NH","sort_rank":381,"landuse_kind":"urban_area","kind":"major_road","source":"openstreetmap.org","min_zoom":8.0,"bus_shield_text":"588C","shield_text":"32","kind_detail":"trunk","ref":"NH32"},"arcs":[[235],[236],[237]]},{"type":"LineString","properties":{"source":"openstreetmap.org","kind":"major_road","sort_rank":380,"kind_detail":"primary","name:ta":"\u0bb0\u0bbe\u0b9c\u0bbf\u0bb5\u0bcd \u0b95\u0bbe\u0ba8\u0bcd\u0ba4\u0bbf \u0b9a\u0bbe\u0bb2\u0bc8","ref":"OMR","min_zoom":8.0},"arcs":[238]},{"type":"MultiLineString","properties":{"source":"openstreetmap.org","kind":"major_road","landuse_kind":"urban_area","sort_rank":380,"kind_detail":"primary","name:ta":"\u0b9a\u0bbf.\u0b90.\u0b9f\u0bbf \u0ba8\u0b95\u0bb0\u0bcd 1 \u0bb5\u0ba4\u0bc1 \u0bae\u0bc1\u0ba4\u0ba9\u0bcd\u0bae\u0bc8\u0b9a\u0bcd \u0b9a\u0bbe\u0bb2\u0bc8","min_zoom":8.0},"arcs":[[239],[240],[241],[242]]},{"type":"MultiLineString","properties":{"kind":"major_road","network":"IN:NH","sort_rank":381,"landuse_kind":"urban_area","source":"openstreetmap.org","min_zoom":8.0,"kind_detail":"trunk","shield_text":null,"ref":"Nh5"},"arcs":[[243],[244]]},{"type":"LineString","properties":{"source":"openstreetmap.org","kind":"major_road","sort_rank":380,"kind_detail":"primary","name:ta":"\u0bb5\u0bc7\u0bb3\u0b9a\u0bcd\u0b9a\u0bc7\u0bb0\u0bbf \u0ba4\u0bbe\u0bae\u0bcd\u0baa\u0bb0\u0bae\u0bcd \u0b9a\u0bbe\u0bb2\u0bc8","min_zoom":8.0,"id":179259795},"arcs":[245]},{"type":"MultiLineString","properties":{"bus_network":"MTC","sort_rank":380,"kind_detail":"primary","bus_shield_text":"588C","kind":"major_road","source":"openstreetmap.org","min_zoom":8.0,"landuse_kind":"urban_area","name:ta":"\u0b9c\u0bbe\u0b83\u0baa\u0bb0\u0bcd\u0b95\u0bbe\u0ba9\u0bcd \u0baa\u0bc7\u0b9f\u0bcd\u0b9f\u0bc8  \u0baa\u0bbe\u0bb2\u0bae\u0bcd"},"arcs":[[246],[247]]},{"type":"LineString","properties":{"kind":"highway","network":"AsianHighway","sort_rank":383,"landuse_kind":"urban_area","source":"openstreetmap.org","min_zoom":8.0,"all_networks":["AsianHighway","IN:NH"],"kind_detail":"motorway","shield_text":"45","ref":"NH16","all_shield_texts":["45","16"]},"arcs":[248]},{"type":"MultiLineString","properties":{"source":"openstreetmap.org","kind":"major_road","landuse_kind":"urban_area","sort_rank":380,"kind_detail":"primary","name:ta":"\u0bae\u0bbf\u0baf\u0bc2\u0b9a\u0bbf\u0b95\u0bcd \u0b85\u0b95\u0bbe\u0b9f\u0bae\u0bbf \u0bae\u0bc7\u0bae\u0bcd\u0baa\u0bbe\u0bb2\u0bae\u0bcd","min_zoom":8.0},"arcs":[[249],[250]]},{"type":"LineString","properties":{"kind":"major_road","sort_rank":380,"landuse_kind":"urban_area","source":"openstreetmap.org","min_zoom":8.0,"kind_detail":"primary","name:ta":"\u0bae\u0bc7\u0bb1\u0bcd\u0b95\u0bc1 \u0ba8\u0bbf\u0bb4\u0bb1\u0bcd\u0b9a\u0bbe\u0bb2\u0bc8","id":28278662},"arcs":[251]},{"type":"MultiLineString","properties":{"kind":"major_road","sort_rank":381,"landuse_kind":"urban_area","source":"openstreetmap.org","min_zoom":8.0,"old_name":"Mount Road","kind_detail":"trunk","ref":"NH45"},"arcs":[[252],[253],[254],[255]]},{"type":"MultiLineString","properties":{"kind":"major_road","sort_rank":380,"kind_detail":"primary","source":"openstreetmap.org","min_zoom":8.0,"landuse_kind":"urban_area","name:ta":"\u0bb0\u0bbe\u0b9c\u0bc0\u0bb5\u0bcd \u0b95\u0bbe\u0ba8\u0bcd\u0ba4\u0bbf \u0b9a\u0bbe\u0bb2\u0bc8","ref":"OMR"},"arcs":[[256],[257]]},{"type":"MultiLineString","properties":{"bus_network":"MTC","name:ta":"\u0ba4\u0bbf\u0bb0\u0bc1\u0bb5\u0bb3\u0bcd\u0bb3\u0bc1\u0bb5\u0bb0\u0bcd \u0b9a\u0bbe\u0bb2\u0bc8","sort_rank":380,"kind_detail":"primary","kind":"major_road","source":"openstreetmap.org","min_zoom":8.0,"bus_shield_text":"588C","landuse_kind":"urban_area"},"arcs":[[258],[259]]},{"type":"LineString","properties":{"kind":"major_road","sort_rank":380,"kind_detail":"primary","source":"openstreetmap.org","min_zoom":8.0,"landuse_kind":"urban_area","name:ta":"\u0b86\u0bb0\u0bcd\u0b95\u0bbe\u0b9f\u0bcd \u0b9a\u0bbe\u0bb2\u0bc8","ref":"SH113","id":30833812},"arcs":[260]},{"type":"LineString","properties":{"kind":"major_road","sort_rank":380,"landuse_kind":"urban_area","source":"openstreetmap.org","min_zoom":8.0,"kind_detail":"primary","name:ta":"\u0bb8\u0bcd\u0b9f\u0bc0\u0baa\u0ba9\u0bcd\u0b9a\u0ba9\u0bcd \u0b9a\u0bbe\u0bb2\u0bc8","id":23803355},"arcs":[261]},{"type":"LineString","properties":{"kind":"major_road","sort_rank":380,"landuse_kind":"urban_area","source":"openstreetmap.org","min_zoom":8.0,"kind_detail":"primary","name:ta":"\u0b95\u0bb2\u0bcd\u0bb2\u0bc2\u0bb0\u0bbf \u0b9a\u0bbe\u0bb2\u0bc8","id":353683588},"arcs":[262]},{"type":"LineString","properties":{"source":"openstreetmap.org","kind":"major_road","landuse_kind":"urban_area","sort_rank":380,"kind_detail":"primary","name:ta":"\u0baa\u0ba9\u0b95\u0bb2\u0bcd \u0baa\u0bc2\u0b99\u0bcd\u0b95\u0bbe","min_zoom":8.0},"arcs":[263]},{"type":"MultiLineString","properties":{"kind":"major_road","sort_rank":380,"kind_detail":"primary","old_name":"Edward Elliots Road","source":"openstreetmap.org","min_zoom":8.0,"landuse_kind":"urban_area","name:ta":"\u0b9f\u0bbe\u0b95\u0bcd\u0b9f\u0bb0\u0bcd \u0bb0\u0bbe\u0ba4\u0bbe\u0b95\u0bbf\u0bb0\u0bc1\u0bb7\u0bcd\u0ba3\u0ba9\u0bcd \u0b9a\u0bbe\u0bb2\u0bc8"},"arcs":[[264],[265]]},{"type":"LineString","properties":{"kind":"major_road","name:ta":"\u0b85\u0bae\u0bcd\u0baa\u0bc7\u0ba4\u0bcd\u0b95\u0bb0\u0bcd \u0b95\u0bb2\u0bcd\u0bb2\u0bc2\u0bb0\u0bbf \u0b9a\u0bbe\u0bb2\u0bc8","sort_rank":380,"kind_detail":"primary","source":"openstreetmap.org","min_zoom":8.0,"old_name":"Gantz Road","landuse_kind":"urban_area","id":85732774},"arcs":[266]},{"type":"LineString","properties":{"kind":"major_road","sort_rank":380,"landuse_kind":"urban_area","source":"openstreetmap.org","min_zoom":8.0,"kind_detail":"primary","name:ta":"\u0bae\u0bc1\u0ba9\u0bc1\u0b9a\u0bbe\u0bae\u0bbf \u0b9a\u0bbe\u0bb2\u0bc8","id":26526086},"arcs":[267]},{"type":"MultiLineString","properties":{"source":"openstreetmap.org","kind":"major_road","landuse_kind":"urban_area","sort_rank":380,"kind_detail":"primary","name:ta":"\u0b9a\u0bb0\u0bcd\u0ba4\u0bbe\u0bb0\u0bcd \u0baa\u0b9f\u0bc7\u0bb2\u0bcd \u0b9a\u0bbe\u0bb2\u0bc8","min_zoom":8.0},"arcs":[[268],[269]]},{"type":"LineString","properties":{"source":"openstreetmap.org","kind":"major_road","sort_rank":380,"kind_detail":"primary","name:ta":"\u0bb5\u0bc7\u0bb3\u0b9a\u0bcd\u0b9a\u0bc7\u0bb0\u0bbf - \u0ba4\u0bbe\u0bae\u0bcd\u0baa\u0bb0\u0bae\u0bcd \u0b9a\u0bbe\u0bb2\u0bc8","min_zoom":8.0,"id":179259179},"arcs":[270]},{"type":"LineString","properties":{"kind":"major_road","sort_rank":381,"kind_detail":"trunk","is_bicycle_related":true,"bus_network":"MTC","source":"openstreetmap.org","min_zoom":8.0,"bus_shield_text":"27D","landuse_kind":"urban_area","id":23803998},"arcs":[271]},{"type":"LineString","properties":{"kind":"major_road","sort_rank":380,"kind_detail":"primary","source":"openstreetmap.org","min_zoom":8.0,"landuse_kind":"urban_area","name:ta":"\u0b8e\u0ba9\u0bcd.\u0b8e\u0bb8\u0bcd.\u0b95\u0bc7 \u0b9a\u0bbe\u0bb2\u0bc8","ref":"SH113","id":30832991},"arcs":[272]},{"type":"LineString","properties":{"kind":"major_road","sort_rank":380,"kind_detail":"primary","source":"openstreetmap.org","min_zoom":8.0,"name:ta":"\u0bb5\u0bc7\u0bb3\u0b9a\u0bcd\u0b9a\u0bc7\u0bb0\u0bbf - \u0ba4\u0bbe\u0bae\u0bcd\u0baa\u0bb0\u0bae\u0bcd \u0bae\u0bc1\u0ba4\u0ba9\u0bcd\u0bae\u0bc8\u0b9a\u0bcd \u0b9a\u0bbe\u0bb2\u0bc8","ref":"SH48","id":133593218},"arcs":[273]},{"type":"LineString","properties":{"sort_rank":355,"source":"openstreetmap.org","kind":"ferry","min_zoom":8.0,"id":85127725},"arcs":[274]},{"type":"MultiLineString","properties":{"source":"openstreetmap.org","kind":"highway","landuse_kind":"urban_area","sort_rank":383,"kind_detail":"motorway","min_zoom":8.0},"arcs":[[275],[276],[277],[278],[279],[280],[281],[282],[283],[284],[285],[286],[287],[288]]},{"type":"LineString","properties":{"kind":"major_road","network":"IN:NH","sort_rank":381,"landuse_kind":"urban_area","source":"openstreetmap.org","min_zoom":8.0,"kind_detail":"trunk","shield_text":"716","ref":"NH716"},"arcs":[289]},{"type":"LineString","properties":{"kind":"major_road","sort_rank":380,"kind_detail":"primary","is_bicycle_related":true,"cycleway":"lane","source":"openstreetmap.org","min_zoom":8.0,"landuse_kind":"urban_area","name:ta":"\u0bb5\u0bc7\u0bb3\u0b9a\u0bcd\u0b9a\u0bc7\u0bb0\u0bbf \u0baa\u0bc1\u0bb1\u0bb5\u0bb4\u0bbf\u0b9a\u0bcd \u0b9a\u0bbe\u0bb2\u0bc8","id":22688386},"arcs":[290]},{"type":"LineString","properties":{"kind":"major_road","sort_rank":380,"kind_detail":"primary","source":"openstreetmap.org","min_zoom":8.0,"landuse_kind":"urban_area","name:ta":"\u0ba8\u0bbe.\u0b9a\u0bc1.\u0b95\u0bbf\u0bb0\u0bc1\u0bb7\u0bcd\u0ba3\u0ba9\u0bcd (\u0b8e\u0ba9\u0bcd.\u0b8e\u0bb8\u0bcd.\u0b95\u0bc7) \u0b9a\u0bbe\u0bb2\u0bc8","ref":"SH113","id":23037581},"arcs":[291]},{"type":"LineString","properties":{"kind":"major_road","sort_rank":380,"kind_detail":"primary","source":"openstreetmap.org","min_zoom":8.0,"landuse_kind":"urban_area","name:ta":"\u0b86\u0bb1\u0bcd\u0b95\u0bbe\u0b9f\u0bc1 \u0b9a\u0bbe\u0bb2\u0bc8","ref":"SH113","id":27786584},"arcs":[292]},{"type":"MultiLineString","properties":{"source":"openstreetmap.org","kind":"major_road","sort_rank":380,"kind_detail":"primary","ref":"SH104","min_zoom":8.0},"arcs":[[293],[294]]},{"type":"LineString","properties":{"kind":"major_road","sort_rank":380,"kind_detail":"primary","source":"openstreetmap.org","min_zoom":8.0,"name:ta":"\u0ba4\u0bbf\u0bb0\u0bc1\u0bb5\u0bb3\u0bcd\u0bb3\u0bc2\u0bb0\u0bcd \u0ba8\u0bc6\u0b9f\u0bc1\u0b9e\u0bcd\u0b9a\u0bbe\u0bb2\u0bc8","ref":"SH57","id":102550189},"arcs":[295]},{"type":"LineString","properties":{"source":"openstreetmap.org","kind":"ferry","name":"Port Blair - Chennai Ferry","sort_rank":355,"min_zoom":8.0,"osm_relation":true},"arcs":[296]},{"type":"LineString","properties":{"kind":"major_road","sort_rank":380,"landuse_kind":"urban_area","source":"openstreetmap.org","min_zoom":8.0,"kind_detail":"primary","name:ta":"\u0baa\u0bc1\u0ba4\u0bbf\u0baf \u0b86\u0bb5\u0b9f\u0bbf \u0b9a\u0bbe\u0bb2\u0bc8","id":217923919},"arcs":[297]},{"type":"LineString","properties":{"source":"openstreetmap.org","kind":"major_road","landuse_kind":"urban_area","sort_rank":380,"kind_detail":"primary","ref":"SH114","min_zoom":8.0},"arcs":[298]},{"type":"LineString","properties":{"kind":"major_road","sort_rank":381,"landuse_kind":"urban_area","source":"openstreetmap.org","min_zoom":8.0,"kind_detail":"trunk","ref":"NH45","id":214413795},"arcs":[299]},{"type":"MultiLineString","properties":{"bus_network":"MTC","network":"IN:NH","sort_rank":381,"kind_detail":"trunk","kind":"major_road","source":"openstreetmap.org","min_zoom":8.0,"bus_shield_text":"15B","shield_text":null,"landuse_kind":"urban_area","ref":"NH4"},"arcs":[[300],[301],[302],[303]]},{"type":"MultiLineString","properties":{"bus_network":"MTC","network":"IN:NH","sort_rank":381,"kind_detail":"trunk","bus_shield_text":"15B","kind":"major_road","source":"openstreetmap.org","min_zoom":8.0,"landuse_kind":"urban_area","shield_text":null,"name:ta":"GH \u0b9a\u0bbe\u0bb2\u0bc8","ref":"NH4"},"arcs":[[304],[305]]},{"type":"MultiLineString","properties":{"source":"openstreetmap.org","kind":"major_road","kind_detail":"trunk","sort_rank":381,"landuse_kind":"urban_area","min_zoom":8.0},"arcs":[[306],[307],[308],[309],[310],[311],[312],[313],[314],[315],[316],[317],[318],[319],[320],[321],[322],[323],[324],[325],[326],[327],[328],[329],[330],[331],[332],[333],[334],[335],[336],[337],[338],[339],[340],[341],[342],[343],[344],[345],[346],[347],[348]]},{"type":"LineString","properties":{"kind":"major_road","sort_rank":380,"kind_detail":"primary","is_bicycle_related":true,"cycleway":"lane","source":"openstreetmap.org","min_zoom":8.0,"landuse_kind":"urban_area","name:ta":"\u0bb5\u0bc7\u0bb3\u0b9a\u0bcd\u0b9a\u0bc7\u0bb0\u0bbf \u0baa\u0bb1\u0b95\u0bcd\u0b95\u0bc1\u0bae\u0bcd \u0ba4\u0bca\u0b9f\u0bb0\u0bc1\u0ba8\u0bcd\u0ba4\u0bc1 \u0baa\u0bbe\u0bb2\u0bae\u0bcd","ref":"SH 48","id":27480304},"arcs":[349]},{"type":"LineString","properties":{"kind":"major_road","sort_rank":380,"landuse_kind":"urban_area","source":"openstreetmap.org","min_zoom":8.0,"kind_detail":"primary","name:ta":"\u0b9a\u0bc6\u0b99\u0bcd\u0b95\u0bb1\u0bcd\u0b9a\u0bc2\u0bb3\u0bc8 \u0b9a\u0bbe\u0bb2\u0bc8","id":30972303},"arcs":[350]},{"type":"MultiLineString","properties":{"kind":"major_road","network":"IN:NH","sort_rank":381,"landuse_kind":"urban_area","source":"openstreetmap.org","min_zoom":8.0,"kind_detail":"trunk","shield_text":null,"name:ta":"GH \u0b9a\u0bbe\u0bb2\u0bc8","ref":"NH4"},"arcs":[[351],[352]]},{"type":"MultiLineString","properties":{"bus_network":"MTC","name:ta":"\u0bb0\u0bbe\u0b9c\u0bc0\u0bb5\u0bcd \u0b95\u0bbe\u0ba8\u0bcd\u0ba4\u0bbf \u0bb5\u0bbf\u0bb0\u0bc8\u0bb5\u0bc1\u0bb5\u0bb4\u0bbf","sort_rank":380,"kind_detail":"primary","kind":"major_road","source":"openstreetmap.org","min_zoom":8.0,"bus_shield_text":"588C","landuse_kind":"urban_area","ref":"OMR"},"arcs":[[353],[354]]},{"type":"MultiLineString","properties":{"kind":"major_road","sort_rank":381,"landuse_kind":"urban_area","source":"openstreetmap.org","min_zoom":8.0,"kind_detail":"trunk","name:ta":"\u0b85\u0ba3\u0bcd\u0ba3\u0bbe \u0b9a\u0bbe\u0bb2\u0bc8","ref":"NH45"},"arcs":[[355],[356]]},{"type":"MultiLineString","properties":{"bus_network":"MTC","sort_rank":380,"kind_detail":"primary","bus_shield_text":"588C","kind":"major_road","source":"openstreetmap.org","min_zoom":8.0,"landuse_kind":"urban_area","name:ta":"\u0bae\u0bc7\u0bb1\u0bcd\u0b95\u0bc1 \u0ba8\u0bbf\u0bb4\u0bb1\u0bcd\u0b9a\u0bbe\u0bb2\u0bc8"},"arcs":[[357],[358]]},{"type":"LineString","properties":{"kind":"major_road","network":"IN:NH","sort_rank":381,"kind_detail":"trunk","bus_network":"MTC","source":"openstreetmap.org","min_zoom":8.0,"bus_shield_text":"588C","shield_text":"32","landuse_kind":"urban_area","id":204209805},"arcs":[359]},{"type":"MultiLineString","properties":{"source":"openstreetmap.org","kind":"major_road","kind_detail":"trunk","sort_rank":381,"landuse_kind":"urban_area","ref":"NH205","min_zoom":8.0},"arcs":[[360],[361],[362]]},{"type":"MultiLineString","properties":{"kind":"major_road","network":"IN:NH","sort_rank":380,"kind_detail":"primary","source":"openstreetmap.org","min_zoom":8.0,"landuse_kind":"urban_area","shield_text":null,"name:ta":"\u0bae\u0bc1\u0ba4\u0bcd\u0ba4\u0bc1\u0b9a\u0bc1\u0bb5\u0bbe\u0bae\u0bbf \u0b9a\u0bbe\u0bb2\u0bc8","ref":"NH4"},"arcs":[[363],[364]]},{"type":"LineString","properties":{"kind":"major_road","sort_rank":380,"landuse_kind":"urban_area","source":"openstreetmap.org","min_zoom":8.0,"kind_detail":"primary","name:ta":"\u0b87\u0bb0\u0bbe\u0baf\u0baa\u0bc1\u0bb0\u0bae\u0bcd \u0ba4\u0bc1\u0bb1\u0bc8\u0bae\u0bc1\u0b95\u0bae\u0bcd \u0baa\u0bbe\u0bb2\u0bae\u0bcd","id":28345111},"arcs":[365]},{"type":"LineString","properties":{"kind":"major_road","sort_rank":380,"kind_detail":"primary","bus_network":"MTC","source":"openstreetmap.org","min_zoom":8.0,"bus_shield_text":"588C","landuse_kind":"urban_area","name:ta":"11\u0bb5\u0ba4\u0bc1 \u0ba8\u0bbf\u0bb4\u0bb1\u0bcd\u0b9a\u0bbe\u0bb2\u0bc8","id":26607377},"arcs":[366]},{"type":"MultiLineString","properties":{"source":"openstreetmap.org","kind":"major_road","landuse_kind":"urban_area","sort_rank":380,"kind_detail":"primary","name:ta":"\u0b9f\u0bbe\u0b95\u0bcd\u0b9f\u0bb0\u0bcd \u0b8e\u0bae\u0bcd.\u0b9c\u0bbf.\u0b86\u0bb0\u0bcd \u0b9a\u0bbe\u0bb2\u0bc8","min_zoom":8.0},"arcs":[[367],[368],[369]]},{"type":"MultiLineString","properties":{"bus_network":"MTC","sort_rank":380,"kind_detail":"primary","bus_shield_text":"588C","kind":"major_road","source":"openstreetmap.org","min_zoom":8.0,"landuse_kind":"urban_area","name:ta":"\u0b89\u0bb3\u0bcd\u0bb5\u0b9f\u0bcd\u0b9f\u0b9a\u0bcd \u0b9a\u0bbe\u0bb2\u0bc8"},"arcs":[[370],[371],[372],[373],[374],[375],[376]]},{"type":"MultiLineString","properties":{"source":"openstreetmap.org","kind":"major_road","landuse_kind":"urban_area","sort_rank":380,"kind_detail":"primary","name:ta":"\u0bb5\u0b9f\u0b95\u0bcd\u0b95\u0bc1 \u0b95\u0bcb\u0b9f\u0bcd\u0b9f\u0bc8 \u0b9a\u0bbe\u0bb2\u0bc8","min_zoom":8.0},"arcs":[[377],[378]]},{"type":"LineString","properties":{"kind":"major_road","sort_rank":380,"kind_detail":"primary","bus_network":"MTC","source":"openstreetmap.org","min_zoom":8.0,"bus_shield_text":"588C","landuse_kind":"urban_area","name:ta":"\u0b95\u0bbf\u0bb4\u0b95\u0bcd\u0b95\u0bc1\u0b95\u0bcd \u0b95\u0b9f\u0bb1\u0bcd\u0b95\u0bb0\u0bc8\u0b9a\u0bcd \u0b9a\u0bbe\u0bb2\u0bc8 (\u0bae\u0bbe.\u0ba8\u0bc6 49)","ref":"ECR SH49","id":132083268},"arcs":[379]},{"type":"LineString","properties":{"kind":"major_road","sort_rank":380,"landuse_kind":"urban_area","source":"openstreetmap.org","min_zoom":8.0,"kind_detail":"primary","name:ta":"\u0ba4\u0bbf\u0bb0\u0bc1\u0bb5\u0bb3\u0bcd\u0bb3\u0bc1\u0bb5\u0bb0\u0bcd \u0ba4\u0bc6\u0bb0\u0bc1","id":26480972},"arcs":[380]},{"type":"LineString","properties":{"source":"openstreetmap.org","kind":"major_road","sort_rank":380,"kind_detail":"primary","name:ta":"\u0bb5\u0bc7\u0bb3\u0b9a\u0bcd\u0b9a\u0bc7\u0bb0\u0bbf \u0bae\u0bc1\u0ba4\u0ba9\u0bcd\u0bae\u0bc8\u0b9a\u0bcd \u0b9a\u0bbe\u0bb2\u0bc8","ref":"SH48","min_zoom":8.0},"arcs":[381]},{"type":"MultiLineString","properties":{"bus_network":"MTC","sort_rank":380,"kind_detail":"primary","bus_shield_text":"588C","kind":"major_road","source":"openstreetmap.org","min_zoom":8.0,"landuse_kind":"urban_area","name:ta":"\u0b9a\u0bb0\u0bcd\u0ba4\u0bbe\u0bb0\u0bcd \u0baa\u0b9f\u0bc7\u0bb2\u0bcd \u0b9a\u0bbe\u0bb2\u0bc8"},"arcs":[[382],[383]]},{"type":"LineString","properties":{"kind":"major_road","sort_rank":380,"kind_detail":"primary","source":"openstreetmap.org","min_zoom":8.0,"landuse_kind":"urban_area","name:ta":"\u0bae\u0bc1\u0ba4\u0bcd\u0ba4\u0bc1\u0b9a\u0bc1\u0bb5\u0bbe\u0bae\u0bbf \u0b9a\u0bbe\u0bb2\u0bc8","ref":"NH4","id":217848748},"arcs":[384]},{"type":"LineString","properties":{"source":"openstreetmap.org","kind":"major_road","landuse_kind":"urban_area","sort_rank":380,"kind_detail":"primary","name:ta":"\u0baa\u0b9f\u0bcd\u0b9f\u0bc1\u0bb2\u0bbe\u0bb8\u0bcd \u0b9a\u0bbe\u0bb2\u0bc8","min_zoom":8.0},"arcs":[385]},{"type":"MultiLineString","properties":{"source":"openstreetmap.org","kind":"major_road","landuse_kind":"urban_area","sort_rank":380,"kind_detail":"primary","name:ta":"\u0baa\u0bbe\u0bb0\u0bcd\u0ba4\u0bcd\u0ba4\u0b9a\u0bbe\u0bb0\u0ba4\u0bbf \u0baa\u0bbe\u0bb2\u0bae\u0bcd","min_zoom":8.0},"arcs":[[386],[387]]},{"type":"LineString","properties":{"bus_network":"MTC","sort_rank":381,"landuse_kind":"urban_area","kind":"major_road","source":"openstreetmap.org","min_zoom":8.0,"bus_shield_text":"15B","kind_detail":"trunk","ref":"NH4"},"arcs":[388]},{"type":"LineString","properties":{"kind":"major_road","sort_rank":380,"kind_detail":"primary","source":"openstreetmap.org","min_zoom":8.0,"name:ta":"\u0bae\u0ba3\u0bb2\u0bbf \u0baa\u0bc6\u0bbe\u0ba9\u0bcd\u0ba9\u0bc7\u0bb0\u0bbf \u0b9a\u0bbe\u0bb2\u0bc8","ref":"SH56","id":102554331},"arcs":[389]},{"type":"MultiLineString","properties":{"bus_network":"MTC","sort_rank":381,"landuse_kind":"urban_area","kind":"major_road","source":"openstreetmap.org","min_zoom":8.0,"bus_shield_text":"588C","kind_detail":"trunk"},"arcs":[[390],[391],[392]]},{"type":"LineString","properties":{"kind":"highway","network":"IN:NH","sort_rank":383,"kind_detail":"motorway","source":"openstreetmap.org","min_zoom":8.0,"all_networks":["IN:NH"],"landuse_kind":"urban_area","shield_text":"16","ref":"NH16","id":59294078,"all_shield_texts":["16"]},"arcs":[393]},{"type":"MultiLineString","properties":{"kind":"major_road","sort_rank":380,"kind_detail":"primary","is_bicycle_related":true,"cycleway":"lane","source":"openstreetmap.org","min_zoom":8.0,"landuse_kind":"urban_area","name:ta":"\u0ba4\u0bb0\u0bae\u0ba3\u0bbf \u0b9a\u0bbe\u0bb2\u0bc8"},"arcs":[[394],[395],[396],[397],[398],[399]]},{"type":"MultiLineString","properties":{"source":"openstreetmap.org","kind":"major_road","landuse_kind":"urban_area","sort_rank":380,"kind_detail":"primary","name:ta":"\u0ba4\u0bc6\u0bb1\u0bcd\u0b95\u0bc1 \u0b89\u0bb8\u0bcd\u0bae\u0bbe\u0ba9\u0bcd \u0b9a\u0bbe\u0bb2\u0bc8","min_zoom":8.0},"arcs":[[400],[401],[402],[403]]},{"type":"LineString","properties":{"sort_rank":355,"source":"openstreetmap.org","min_zoom":8.0,"name":"Port Blair to Chennai","kind":"ferry"},"arcs":[404]},{"type":"LineString","properties":{"kind":"major_road","sort_rank":380,"kind_detail":"primary","bus_network":"Chennai MTC","source":"openstreetmap.org","min_zoom":8.0,"bus_shield_text":null,"landuse_kind":"urban_area","id":211260248},"arcs":[405]},{"type":"LineString","properties":{"bus_network":"MTC","sort_rank":381,"landuse_kind":"urban_area","kind":"major_road","source":"openstreetmap.org","min_zoom":8.0,"bus_shield_text":"15B","kind_detail":"trunk"},"arcs":[406]},{"type":"LineString","properties":{"kind":"major_road","sort_rank":380,"landuse_kind":"urban_area","source":"openstreetmap.org","min_zoom":8.0,"kind_detail":"primary","name:ta":"\u0bb5\u0bc6\u0bb8\u0bcd\u0b9f\u0bcd\u0b95\u0bbe\u0b9f\u0bcd \u0b9a\u0bbe\u0bb2\u0bc8","id":23914890},"arcs":[407]},{"type":"LineString","properties":{"kind":"major_road","sort_rank":380,"kind_detail":"primary","bus_network":"MTC","source":"openstreetmap.org","min_zoom":8.0,"bus_shield_text":"27D","landuse_kind":"urban_area","name:ta":"\u0b95\u0ba3\u0bcd\u0b9f\u0bc0\u0bb8\u0bcd\u0bb5\u0bb0\u0bae\u0bcd \u0b95\u0bc7\u0bbe\u0baf\u0bbf\u0bb2\u0bcd \u0ba4\u0bc6\u0bb0\u0bc1","id":23499289},"arcs":[408]},{"type":"MultiLineString","properties":{"kind":"major_road","sort_rank":380,"kind_detail":"primary","source":"openstreetmap.org","min_zoom":8.0,"landuse_kind":"urban_area","name:ta":"\u0bb0\u0bbe\u0b9c\u0bc0\u0bb5\u0bcd \u0b95\u0bbe\u0ba8\u0bcd\u0ba4\u0bbf \u0bb5\u0bbf\u0bb0\u0bc8\u0bb5\u0bc1\u0bb5\u0bb4\u0bbf","ref":"OMR"},"arcs":[[409],[410],[411],[412]]},{"type":"LineString","properties":{"kind":"major_road","sort_rank":380,"kind_detail":"primary","bus_network":"MTC","source":"openstreetmap.org","min_zoom":8.0,"bus_shield_text":"588C","landuse_kind":"urban_area","name:ta":"\u0ba4\u0bbe\u0bb2\u0bc1\u0b95\u0bbe \u0b85\u0bb2\u0bc1\u0bb5\u0bb2\u0b95 \u0b9a\u0bbe\u0bb2\u0bc8","id":240320632},"arcs":[413]},{"type":"LineString","properties":{"kind":"major_road","sort_rank":380,"landuse_kind":"urban_area","source":"openstreetmap.org","min_zoom":8.0,"kind_detail":"primary","name:ta":"\u0bb8\u0bcd\u0b9f\u0bc6\u0bb0\u0bcd\u0bb2\u0bbf\u0b99\u0bcd \u0b9a\u0bbe\u0bb2\u0bc8","id":28161770},"arcs":[414]},{"type":"LineString","properties":{"kind":"major_road","sort_rank":380,"kind_detail":"primary","source":"openstreetmap.org","min_zoom":8.0,"landuse_kind":"urban_area","name:ta":"\u0b95\u0bbe\u0bae\u0bb0\u0bbe\u0b9c\u0bb0\u0bcd \u0b9a\u0bbe\u0bb2\u0bc8","ref":"SH 1A","id":29246362},"arcs":[415]},{"type":"LineString","properties":{"bus_network":"MTC","sort_rank":380,"kind_detail":"primary","kind":"major_road","source":"openstreetmap.org","min_zoom":8.0,"bus_shield_text":"588C","ref":"ECR"},"arcs":[416]},{"type":"MultiLineString","properties":{"source":"openstreetmap.org","kind":"major_road","landuse_kind":"urban_area","sort_rank":380,"kind_detail":"primary","min_zoom":8.0},"arcs":[[417],[418],[419],[420],[421],[422],[423],[424],[425],[426],[427],[428],[429],[430],[431],[432],[433],[434],[435],[436],[437],[438],[439],[440],[441],[442],[443],[444],[445],[446],[447],[448],[449],[450],[451],[452],[453],[454],[455],[456],[457],[458],[459],[460],[461],[462],[463],[464],[465],[466],[467],[468],[469],[470],[471],[472],[473],[474],[475],[476],[477],[478],[479],[480],[481],[482],[483],[484],[485],[486],[487],[488],[489],[490],[491],[492],[493],[494],[495],[496],[497],[498],[499],[500],[501],[502],[503],[504],[505],[506],[507],[508],[509],[510],[511],[512],[513]]},{"type":"LineString","properties":{"kind":"major_road","sort_rank":380,"kind_detail":"primary","source":"openstreetmap.org","min_zoom":8.0,"landuse_kind":"urban_area","name:ta":"\u0ba4\u0bbf\u0bb0\u0bc1\u0bb5\u0bb3\u0bcd\u0bb3\u0bc2\u0bb0\u0bcd \u0ba8\u0bc6\u0b9f\u0bc1\u0b9e\u0bcd\u0b9a\u0bbe\u0bb2\u0bc8","ref":"SH57"},"arcs":[514]},{"type":"LineString","properties":{"kind":"major_road","sort_rank":380,"landuse_kind":"urban_area","source":"openstreetmap.org","min_zoom":8.0,"kind_detail":"primary","name:ta":"\u0b85\u0b9f\u0bc8\u0baf\u0bbe\u0bb1\u0bc1 \u0bae\u0bc7\u0bae\u0bcd\u0baa\u0bbe\u0bb2\u0bae\u0bcd","id":27954897},"arcs":[515]},{"type":"LineString","properties":{"kind":"major_road","sort_rank":380,"landuse_kind":"urban_area","source":"openstreetmap.org","min_zoom":8.0,"kind_detail":"primary","name:ta":"21\u0bb5\u0ba4\u0bc1 \u0ba8\u0bbf\u0bb4\u0bb1\u0bcd\u0b9a\u0bbe\u0bb2\u0bc8","id":26524735},"arcs":[516]},{"type":"MultiLineString","properties":{"source":"openstreetmap.org","kind":"major_road","landuse_kind":"urban_area","sort_rank":380,"kind_detail":"primary","name:ta":"\u0bae\u0bc1\u0bb0\u0b9a\u0bca\u0bb2\u0bbf \u0bae\u0bbe\u0bb1\u0ba9\u0bcd \u0bae\u0bc7\u0bae\u0bcd\u0baa\u0bbe\u0bb2\u0bae\u0bcd","min_zoom":8.0},"arcs":[[517],[518],[519]]},{"type":"LineString","properties":{"kind":"major_road","sort_rank":380,"kind_detail":"primary","source":"openstreetmap.org","min_zoom":8.0,"landuse_kind":"urban_area","name:ta":"\u0bae\u0ba3\u0bb2\u0bbf \u0ba8\u0bc6\u0b9f\u0bc1\u0b9e\u0bcd\u0b9a\u0bbe\u0bb2\u0bc8","ref":"SH56"},"arcs":[520]},{"type":"MultiLineString","properties":{"kind":"major_road","network":"AsianHighway","sort_rank":381,"kind_detail":"trunk","source":"openstreetmap.org","min_zoom":8.0,"shield_text":"45","ref":"NH16"},"arcs":[[521],[522]]},{"type":"LineString","properties":{"kind":"highway","network":"AsianHighway","sort_rank":383,"landuse_kind":"urban_area","source":"openstreetmap.org","min_zoom":8.0,"all_networks":["AsianHighway","IN:NH","IN:NH:TN"],"kind_detail":"motorway","shield_text":"45","ref":"NH16","all_shield_texts":["45","16","16"]},"arcs":[523]},{"type":"LineString","properties":{"kind":"major_road","sort_rank":380,"landuse_kind":"urban_area","source":"openstreetmap.org","min_zoom":8.0,"kind_detail":"primary","ref":"NH5","id":217674879},"arcs":[524]},{"type":"MultiLineString","properties":{"source":"openstreetmap.org","kind":"major_road","landuse_kind":"urban_area","sort_rank":380,"kind_detail":"primary","name:ta":"\u0b89\u0bb3\u0bcd\u0bb5\u0b9f\u0bcd\u0b9f\u0b9a\u0bcd \u0b9a\u0bbe\u0bb2\u0bc8","min_zoom":8.0},"arcs":[[525],[526]]},{"type":"LineString","properties":{"kind":"major_road","sort_rank":380,"landuse_kind":"urban_area","source":"openstreetmap.org","min_zoom":8.0,"kind_detail":"primary","name:ta":"\u0b95\u0bb1\u0bcd\u0baa\u0b95\u0bbe\u0bae\u0bcd\u0baa\u0bbe\u0bb3\u0bcd \u0ba8\u0b95\u0bb0\u0bcd \u0b9a\u0bbe\u0bb2\u0bc8","id":23929818},"arcs":[527]},{"type":"LineString","properties":{"kind":"major_road","network":"IN:NH","sort_rank":381,"kind_detail":"trunk","source":"openstreetmap.org","min_zoom":8.0,"landuse_kind":"urban_area","shield_text":null,"name:ta":"\u0bae\u0bc1\u0ba4\u0bcd\u0ba4\u0bc1\u0b9a\u0bc1\u0bb5\u0bbe\u0bae\u0bbf \u0baa\u0bbe\u0bb2\u0bae","ref":"NH4","id":217848746},"arcs":[528]},{"type":"LineString","properties":{"kind":"major_road","sort_rank":380,"landuse_kind":"urban_area","source":"openstreetmap.org","min_zoom":8.0,"kind_detail":"primary","name:ta":"\u0b95\u0ba3\u0bcd\u0b9f\u0bc0\u0bb8\u0bcd\u0bb5\u0bb0\u0bae\u0bcd \u0b95\u0bc7\u0bbe\u0baf\u0bbf\u0bb2\u0bcd \u0ba4\u0bc6\u0bb0\u0bc1","id":237621837},"arcs":[529]},{"type":"LineString","properties":{"kind":"major_road","sort_rank":380,"kind_detail":"primary","source":"openstreetmap.org","min_zoom":8.0,"name:ta":"\u0ba4\u0bbe\u0bae\u0bcd\u0baa\u0bb0\u0bae\u0bcd - \u0bb5\u0bc7\u0bb3\u0b9a\u0bcd\u0b9a\u0bc7\u0bb0\u0bbf \u0b9a\u0bbe\u0bb2\u0bc8","ref":"SH48","id":183386138},"arcs":[530]},{"type":"MultiLineString","properties":{"kind":"highway","network":"AsianHighway","sort_rank":383,"landuse_kind":"urban_area","source":"openstreetmap.org","min_zoom":8.0,"all_networks":["AsianHighway"],"kind_detail":"motorway","shield_text":"45","all_shield_texts":["45"]},"arcs":[[531],[532]]},{"type":"LineString","properties":{"source":"openstreetmap.org","kind":"major_road","landuse_kind":"urban_area","sort_rank":380,"kind_detail":"primary","name:ta":"\u0baa\u0bbe\u0bb2\u0bcd \u0bb5\u0bc6\u0bb2\u0bcd\u0bb8\u0bcd \u0b9a\u0bbe\u0bb2\u0bc8","min_zoom":8.0},"arcs":[533]},{"type":"LineString","properties":{"kind":"major_road","sort_rank":380,"landuse_kind":"urban_area","source":"openstreetmap.org","min_zoom":8.0,"kind_detail":"primary","name:ta":"\u0bae\u0bbe\u0ba4\u0bb5\u0bb0\u0bae\u0bcd \u0ba8\u0bc6\u0b9f\u0bc1\u0b9e\u0bcd\u0b9a\u0bbe\u0bb2\u0bc8","id":26518353},"arcs":[534]},{"type":"MultiLineString","properties":{"kind":"major_road","sort_rank":380,"kind_detail":"primary","is_bicycle_related":true,"source":"openstreetmap.org","min_zoom":8.0,"landuse_kind":"urban_area","name:ta":"\u0b87\u0bb0\u0bbe\u0baf\u0baa\u0bcd\u0baa\u0bc7\u0b9f\u0bcd\u0b9f\u0bc8 \u0ba8\u0bc6\u0b9f\u0bc1\u0b9e\u0bcd\u0b9a\u0bbe\u0bb2\u0bc8"},"arcs":[[535],[536],[537]]},{"type":"MultiLineString","properties":{"source":"openstreetmap.org","kind":"major_road","sort_rank":380,"kind_detail":"primary","ref":"SH 49A","min_zoom":8.0},"arcs":[[538],[539],[540],[541],[542]]},{"type":"MultiLineString","properties":{"source":"openstreetmap.org","kind":"major_road","landuse_kind":"urban_area","sort_rank":380,"kind_detail":"primary","name:ta":"\u0ba8\u0bc7\u0baa\u0bcd\u0baa\u0bbf\u0baf\u0bb0\u0bcd \u0baa\u0bbe\u0bb2\u0bae\u0bcd","min_zoom":8.0},"arcs":[[543],[544]]},{"type":"LineString","properties":{"kind":"major_road","sort_rank":380,"kind_detail":"primary","is_bicycle_related":true,"cycleway":"lane","source":"openstreetmap.org","min_zoom":8.0,"landuse_kind":"urban_area","name:ta":"\u0bb5\u0bc7\u0bb3\u0b9a\u0bcd\u0b9a\u0bc7\u0bb0\u0bbf \u0baa\u0bc1\u0bb1\u0bb5\u0bb4\u0bbf\u0b9a\u0bcd\u0b9a\u0bbe\u0bb2\u0bc8","id":30604301},"arcs":[545]},{"type":"MultiLineString","properties":{"kind":"major_road","sort_rank":380,"kind_detail":"primary","source":"openstreetmap.org","min_zoom":8.0,"landuse_kind":"urban_area","name:ta":"\u0bae\u0bb5\u0bc1\u0ba3\u0bcd\u0b9f\u0bcd \u0baa\u0bc2\u0ba8\u0bcd\u0ba4\u0bae\u0bb2\u0bcd\u0bb2\u0bbf \u0ba8\u0bc6\u0b9f\u0bc1\u0b9e\u0bcd\u0b9a\u0bbe\u0bb2\u0bc8","ref":"SH 55"},"arcs":[[546],[547],[548],[549]]},{"type":"LineString","properties":{"kind":"major_road","sort_rank":380,"landuse_kind":"urban_area","source":"openstreetmap.org","min_zoom":8.0,"kind_detail":"primary","name:ta":"\u0b9a\u0bbf.\u0b90.\u0b9f\u0bbf \u0ba8\u0b95\u0bb0\u0bcd 4 \u0bb5\u0ba4\u0bc1 \u0bae\u0bc1\u0ba4\u0ba9\u0bcd\u0bae\u0bc8\u0b9a\u0bcd \u0b9a\u0bbe\u0bb2\u0bc8","id":22936525},"arcs":[550]},{"type":"LineString","properties":{"kind":"major_road","sort_rank":380,"kind_detail":"primary","source":"openstreetmap.org","min_zoom":8.0,"landuse_kind":"urban_area","name:ta":"\u0ba8\u0bbe.\u0b9a\u0bc1.\u0b95\u0bbf\u0bb0\u0bc1\u0bb7\u0bcd\u0ba3\u0ba9\u0bcd \u0b9a\u0bbe\u0bb2\u0bc8","ref":"SH113"},"arcs":[551]},{"type":"MultiLineString","properties":{"source":"openstreetmap.org","kind":"major_road","landuse_kind":"urban_area","sort_rank":380,"kind_detail":"primary","name:ta":"\u0ba4\u0bc1\u0bb0\u0bcd\u0b95\u0bbe\u0baa\u0bbe\u0baf\u0bcd \u0ba4\u0bc7\u0bb7\u0bcd\u0bae\u0bc1\u0b95\u0bcd \u0b9a\u0bbe\u0bb2\u0bc8","min_zoom":8.0},"arcs":[[552],[553],[554],[555],[556]]},{"type":"MultiLineString","properties":{"source":"openstreetmap.org","kind":"major_road","landuse_kind":"urban_area","sort_rank":380,"kind_detail":"primary","name:ta":"\u0b87\u0baa\u0bcd\u0bb0\u0bbe\u0bb9\u0bbf\u0bae\u0bcd \u0b9a\u0bbe\u0bb9\u0bbf\u0baa\u0bcd \u0ba4\u0bc6\u0bb0\u0bc1","min_zoom":8.0},"arcs":[[557],[558],[559],[560]]},{"type":"LineString","properties":{"kind":"major_road","sort_rank":380,"landuse_kind":"urban_area","source":"openstreetmap.org","min_zoom":8.0,"kind_detail":"primary","name:ta":"22\u0bb5\u0ba4\u0bc1 \u0ba4\u0bc6\u0bb0\u0bc1","id":28278664},"arcs":[561]},{"type":"LineString","properties":{"kind":"major_road","sort_rank":380,"kind_detail":"primary","is_bicycle_related":true,"cycleway":"lane","source":"openstreetmap.org","min_zoom":8.0,"landuse_kind":"urban_area","name:ta":"\u0bb5\u0bc7\u0bb3\u0b9a\u0bcd\u0b9a\u0bc7\u0bb0\u0bbf \u0baa\u0bc1\u0bb1\u0bb5\u0bb4\u0bbf\u0b9a\u0bcd \u0b9a\u0bbe\u0bb2\u0bc8","ref":"SH48","id":204242708},"arcs":[562]},{"type":"LineString","properties":{"kind":"major_road","sort_rank":380,"landuse_kind":"urban_area","source":"openstreetmap.org","min_zoom":8.0,"kind_detail":"primary","name:ta":"\u0b95\u0bc1\u0b95\u0bcd\u0bb8\u0bcd \u0b9a\u0bbe\u0bb2\u0bc8","id":23802573},"arcs":[563]},{"type":"MultiLineString","properties":{"kind":"major_road","sort_rank":380,"kind_detail":"primary","source":"openstreetmap.org","min_zoom":8.0,"landuse_kind":"urban_area","name:ta":"\u0bb5\u0bc7\u0bb3\u0b9a\u0bcd\u0b9a\u0bc7\u0bb0\u0bbf \u0bae\u0bc1\u0ba4\u0ba9\u0bcd\u0bae\u0bc8\u0b9a\u0bcd \u0b9a\u0bbe\u0bb2\u0bc8","ref":"SH48"},"arcs":[[564],[565],[566],[567],[568],[569],[570]]},{"type":"LineString","properties":{"kind":"major_road","network":"IN:SH:TN","sort_rank":380,"kind_detail":"primary","source":"openstreetmap.org","min_zoom":8.0,"shield_text":"121","ref":"SH121","id":24160185},"arcs":[571]},{"type":"LineString","properties":{"kind":"major_road","sort_rank":380,"landuse_kind":"urban_area","source":"openstreetmap.org","min_zoom":8.0,"kind_detail":"primary","name:ta":"\u0b9a\u0bc2\u0bb0\u0bbf\u0baf \u0ba8\u0bbe\u0bb0\u0bbe\u0baf\u0ba3 \u0b9a\u0bbe\u0bb2\u0bc8","id":28345155},"arcs":[572]},{"type":"LineString","properties":{"kind":"major_road","sort_rank":380,"kind_detail":"primary","source":"openstreetmap.org","min_zoom":8.0,"landuse_kind":"urban_area","name:ta":"\u0b8e\u0ba3\u0bcd\u0ba3\u0bc2\u0bb0\u0bcd \u0ba8\u0bc6\u0b9f\u0bc1\u0b9e\u0bcd\u0b9a\u0bbe\u0bb2\u0bc8","ref":"SH56","id":25851510},"arcs":[573]},{"type":"LineString","properties":{"kind":"major_road","sort_rank":380,"kind_detail":"primary","bus_network":"MTC","source":"openstreetmap.org","min_zoom":8.0,"bus_shield_text":"588C","landuse_kind":"urban_area","name:ta":"15\u0bb5\u0ba4\u0bc1 \u0ba8\u0bbf\u0bb4\u0bb1\u0bcd\u0b9a\u0bbe\u0bb2\u0bc8","id":26607380},"arcs":[574]},{"type":"MultiLineString","properties":{"kind":"major_road","network":"IN:NH","sort_rank":381,"landuse_kind":"urban_area","source":"openstreetmap.org","min_zoom":8.0,"kind_detail":"trunk","shield_text":null,"ref":"NH48"},"arcs":[[575],[576]]},{"type":"MultiLineString","properties":{"source":"openstreetmap.org","kind":"major_road","landuse_kind":"urban_area","sort_rank":380,"kind_detail":"primary","ref":"SH112","min_zoom":8.0},"arcs":[[577],[578]]}]},"earth":{"type":"GeometryCollection","geometries":[{"type":"MultiPolygon","properties":{"sort_rank":10,"source":"naturalearthdata.com","kind":"earth","min_zoom":0.0,"id":4707},"arcs":[[[579]],[[580]]]}]},"landuse":{"type":"GeometryCollection","geometries":[{"type":"MultiPolygon","properties":{"source":"naturalearthdata.com","kind":"urban_area","name":"","area":1459182665,"sort_rank":11,"min_zoom":4.0},"arcs":[[[581]],[[582]]]}]}},"type":"Topology","transform":{"translate":[80.15625,12.5545635286],"scale":[0.0003433228,0.0003341895]},"arcs":[[[1003,0],[213,694],[317,1996],[-160,1406]],[[0,2766],[161,10],[86,-36],[108,-188],[-7,-55],[106,-59],[-5,162],[44,61]],[[493,2661],[1040,29]],[[1533,2690],[-160,1406]],[[1003,0],[213,694],[317,1996]],[[0,1680],[316,-20],[19,-29]],[[343,1583],[-1,9]],[[130,1342],[-5,-4]],[[363,1659],[11,-69],[-39,-15],[8,-30],[-66,-55],[-16,-53],[-250,-169]],[[124,1319],[40,124],[-3,83],[-48,18],[11,43],[63,-1],[30,-28],[126,20]],[[396,1613],[-8,-23],[-4,-3],[-9,1],[-3,-1],[-3,-2],[-6,-10],[-3,-2],[-22,2],[-11,-2],[-55,-12],[-39,-12],[-2,-1],[-3,-2],[-2,-3],[-1,-3],[-15,-87],[-28,-81],[-22,-17],[-2,-3],[-10,-20],[-9,-8],[-48,-20],[-64,-30],[-5,-3],[-22,-21]],[[397,1613],[-8,-23],[-2,-2],[-2,-1],[-13,0],[-8,-12],[-2,-1],[-1,-1],[-2,-1],[-10,-1],[-12,4],[-10,-2],[-99,-27],[-14,-76],[-1,-6],[-14,-55],[-17,-37],[-22,-18],[-12,-22],[-8,-9],[-118,-52],[-22,-28]],[[124,1319],[9,29]],[[149,1357],[-16,-9]],[[133,1348],[5,22]],[[81,0],[3,38],[33,139],[22,55],[53,83],[19,45],[14,108],[53,154],[33,218],[18,365],[39,216],[9,114],[12,27],[53,58],[17,29],[-20,90],[0,31],[20,55],[30,48],[25,53],[4,69],[-46,-13],[-13,-6],[12,48],[5,54],[12,-6],[30,-12],[6,84],[27,150],[7,83],[-11,79],[-29,113],[-21,52],[-38,-10],[-5,-12],[-15,-30],[-40,48],[-54,33],[-36,33],[10,51],[-16,1],[-20,0],[-29,11],[-24,17],[-22,23],[-23,6],[-128,5],[-57,13],[0,660],[80,-105],[39,-106],[141,-155],[94,-237],[85,-215],[20,0],[-12,115],[-63,143],[-85,194],[-61,204],[-30,51],[-20,59],[19,71],[53,105],[11,134],[-35,117],[-121,251],[3981,0],[0,-4096],[-4015,0]],[[81,0],[3,38],[33,139],[22,55],[53,83],[19,45],[14,108],[53,154],[33,218],[18,365],[39,216],[9,114],[12,27],[53,58],[17,29],[-20,90],[0,31],[20,55],[30,48],[25,53],[4,69],[-46,-13],[-13,-6],[12,48],[5,54],[12,-6],[30,-12],[6,84],[27,150],[7,83],[-11,79],[-29,113],[-21,52],[-38,-10],[-5,-12],[-15,-30],[-40,48],[-54,33],[-36,33],[10,51],[-16,1],[-20,0],[-29,11],[-24,17],[-22,23],[-23,6],[-128,5],[-57,13]],[[0,3470],[80,-105],[39,-106],[141,-155],[94,-237],[85,-215],[20,0],[-12,115],[-63,143],[-85,194],[-61,204],[-30,51],[-20,59],[19,71],[53,105],[11,134],[-35,117],[-121,251]],[[326,1456],[0,1]],[[326,1457],[-2,6]],[[326,1460],[0,-3]],[[326,1457],[-1,-14]],[[151,1792],[-92,171]],[[60,1963],[43,-64],[48,-107]],[[179,1586],[4,36],[-3,-36]],[[171,1466],[-8,0]],[[366,1579],[-2,0]],[[190,1842],[63,-126]],[[14,1514],[28,211],[2,1]],[[44,1726],[93,51]],[[137,1777],[18,11],[-101,175]],[[157,1788],[-20,-11]],[[137,1777],[-92,-48],[-1,-3]],[[44,1726],[-30,-212]],[[54,1964],[103,-176]],[[157,1788],[1,-1],[2,2],[-2,1],[-1,-2]],[[162,1437],[1,-2]],[[16,1516],[-16,-2]],[[0,1516],[9,1]],[[254,1747],[-5,-26]],[[356,1445],[3,17]],[[373,1537],[-13,-74]],[[334,1648],[7,-4]],[[146,1356],[-16,-12]],[[132,1349],[5,4]],[[138,1357],[7,-1]],[[138,1364],[-6,-15]],[[132,1355],[-15,4]],[[276,1627],[1,-1]],[[109,1308],[-1,2],[0,6]],[[108,1316],[1,-8]],[[320,1662],[14,-14]],[[340,1643],[-6,5],[-13,14]],[[341,1644],[7,1]],[[124,1567],[-5,102],[66,94]],[[125,1559],[-1,5]],[[185,1763],[-65,-94],[4,-102]],[[125,1564],[2,-9]],[[84,1181],[-15,2],[-69,22]],[[0,1206],[84,-25]],[[85,1181],[118,1],[43,-2],[-161,0]],[[376,1554],[-12,25]],[[107,1324],[-3,4]],[[105,1328],[3,-4]],[[108,1323],[-1,1],[1,0]],[[108,1324],[0,-1]],[[108,1316],[0,7]],[[108,1323],[0,-7]],[[156,1254],[-47,54]],[[109,1308],[69,-71]],[[157,1254],[-1,0]],[[178,1235],[-22,19]],[[183,1245],[-5,-8]],[[178,1237],[5,10]],[[292,1871],[-75,-33],[-30,-71]],[[331,1875],[-16,1]],[[96,1635],[-79,1],[-17,26]],[[103,1637],[-7,-2]],[[96,1635],[7,2]],[[0,2233],[50,24],[57,87],[67,-132],[129,-46]],[[124,1564],[0,3]],[[124,1567],[1,-3]],[[297,1255],[4,30]],[[302,1295],[-4,-40]],[[290,1296]],[[120,1560],[3,0]],[[130,1561],[-10,-2]],[[363,1573],[15,-20]],[[325,1440],[-5,-29]],[[153,1169],[0,-1]],[[15,1599],[-15,-43]],[[123,1560],[7,2]],[[193,1555],[-2,0]],[[191,1556],[2,-1]],[[112,221],[-73,-41],[-39,-45]],[[324,1443],[-9,3]],[[19,1516],[101,44]],[[120,1559],[-100,-43]],[[133,1561],[-3,0]],[[366,1579],[-3,-3]],[[0,1256],[7,8],[11,8],[3,2]],[[21,1274],[23,12],[33,23]],[[77,1309],[55,40]],[[132,1349],[-35,-28],[-12,-6],[-8,-6]],[[77,1309],[-56,-35]],[[21,1274],[-3,-2],[-18,-22]],[[170,1484],[0,-10]],[[0,3502],[22,-3]],[[22,3499],[1,1],[0,-1],[-1,-1],[0,1]],[[259,688],[-72,5]],[[209,1035],[-1,1]],[[208,1037],[1,1]],[[266,1027],[-44,9],[-12,0]],[[210,1036],[-1,0]],[[209,1037],[13,-1],[44,-9]],[[210,1036]],[[210,1036],[-1,0]],[[217,1106],[0,-2]],[[315,1446],[1,6]],[[140,1441],[0,-1]],[[389,1596],[10,42]],[[402,1635],[-12,-38]],[[157,1580],[0,7]],[[327,1627],[-25,5]],[[311,1397],[9,14]],[[321,1420],[3,23]],[[325,1443],[0,-3]],[[189,1232],[-11,1]],[[180,1238],[9,-1]],[[190,1236],[0,-1]],[[276,1490],[19,-20]],[[295,1470],[-19,18]],[[125,1475],[-2,-12]],[[276,1488],[-22,36]],[[265,1516],[11,-26]],[[324,1463],[-2,4]],[[322,1467],[2,-4]],[[223,1416],[1,-4]],[[463,1951],[15,24]],[[465,1930],[2,-47]],[[190,1369],[0,1]],[[88,1388],[-2,4]],[[86,1392],[3,-3]],[[254,1491],[-28,3]],[[463,1951],[2,-21]],[[155,1343],[0,1]],[[273,1482],[-1,-1]],[[272,1481],[-2,-6],[-46,-63],[-11,-5]],[[272,1481]],[[272,1481],[1,1]],[[447,1888],[-7,1]],[[440,1890],[7,-2]],[[187,1767],[-2,-4]],[[185,1763],[2,4]],[[285,1578],[-11,11]],[[99,1893],[91,-51]],[[324,1390],[19,15]],[[343,1405],[-19,-16]],[[343,1405],[13,40]],[[327,1466],[-1,-6]],[[212,1495],[14,-1]],[[229,1499],[0,2]],[[298,1255],[-9,-49],[8,49]],[[348,1645],[12,4]],[[235,1758],[24,74]],[[222,1462],[1,5]],[[223,1467],[5,27]],[[229,1494],[-6,-29]],[[223,1465],[-1,-3]],[[223,1467]],[[223,1467],[0,-2]],[[223,1465],[-1,-6]],[[216,1104],[14,36]],[[226,1141],[-9,-35]],[[1,1436],[-1,0]],[[252,1536],[-1,2]],[[252,1538],[0,-2]],[[456,1666],[-36,-36]],[[274,1590],[12,-1]],[[227,1488],[2,11]],[[300,1367],[0,10]],[[300,1377],[0,-10]],[[248,1277],[5,0],[28,-4],[-37,4]],[[162,1437],[-20,105]],[[142,1542],[20,-26],[1,-34]],[[164,1466],[-1,-30]],[[219,1450],[3,12]],[[222,1462],[-3,-12]],[[256,1657],[-6,0]],[[283,1647],[-31,4]],[[390,1597],[-3,-16]],[[138,1356],[-1,-3]],[[163,1436],[-2,-8]],[[163,1482],[1,-16]],[[211,1360],[31,-6]],[[301,1285],[-4,10]],[[0,846],[102,-98],[89,-44]],[[130,1542],[3,7]],[[134,1549],[-4,-7]],[[456,1666],[-36,-36]],[[138,1357],[0,7]],[[374,1541],[15,55]],[[387,1581],[-13,-40]],[[249,1661],[-85,63],[-25,49]],[[242,1354],[7,-1]],[[180,1239],[-3,-7]],[[105,1480],[11,35]],[[130,1542]],[[132,1442],[-26,5],[33,-6]],[[140,1440],[-1,0]],[[278,1122],[-12,-95]],[[330,1604],[5,-29],[-5,29]],[[349,1578],[-7,66]],[[345,1638],[5,-60]],[[142,1542]],[[61,1743],[75,63]],[[333,1641]],[[142,1542],[-8,7],[-1,0],[-3,4]],[[130,1553],[-5,6]],[[127,1555],[3,-2]],[[130,1553],[4,-4],[8,-7]],[[54,1963],[-54,93]],[[0,2057],[54,-93]],[[440,1889],[-47,-32],[-62,9]],[[332,1867],[61,-10],[47,33]],[[466,1882],[-19,6]],[[447,1888],[19,-5]],[[303,2166],[73,158],[-19,160],[-56,15],[5,32]],[[392,1645],[1,4]],[[329,1815],[3,47]],[[331,1879],[12,174]],[[15,1600],[89,-5]],[[123,1594],[-18,0]],[[267,1744],[7,25]],[[119,1640],[6,2]],[[137,1353],[1,4]],[[145,1356],[54,22]],[[190,1369],[-35,-12]],[[217,1104],[2,-295],[-29,-106],[29,106],[-3,295]],[[219,1411],[-1,7]],[[218,1418],[-1,7]],[[217,1425],[1,-7]],[[218,1418],[0,-2]],[[185,1765],[-34,27]],[[151,1792],[34,-25]],[[150,1163],[-39,-78]],[[149,1412],[2,3]],[[152,1415],[-2,-3]],[[14,1521],[30,207],[109,62]],[[295,1470],[11,-2]],[[306,1468],[-11,2]],[[277,1297]],[[199,1389],[13,18],[52,42]],[[213,1407],[-14,-18]],[[282,1494],[63,54]],[[345,1548],[-63,-54]],[[249,1188],[-23,-47]],[[230,1140],[16,40],[35,93]],[[297,1295],[-7,1]],[[290,1296],[12,-1]],[[0,1437],[162,45]],[[303,1638],[-20,9]],[[256,1531],[11,5]],[[221,1456],[0,-1]],[[359,1462],[-10,0],[-43,6]],[[306,1468],[53,-5]],[[303,1638],[-1,-6]],[[106,1447],[3,18]],[[293,1353],[-31,0]],[[266,1353],[32,2]],[[153,1168],[-3,-5]],[[250,1624],[-101,18]],[[162,1482],[8,2]],[[110,1085],[-110,9]],[[313,2701],[32,8],[87,-84],[47,-4],[-4,-34]],[[0,1499],[11,12]],[[11,1511],[3,3],[-1,2]],[[14,1514],[-3,-3]],[[11,1511],[-11,-13]],[[13,1508],[-2,3]],[[11,1511]],[[11,1511],[-2,5]],[[14,1517],[-2,-1]],[[20,1516],[-7,-7]],[[14,1521],[5,-5]],[[15,1516],[-1,2]],[[145,1776],[11,13],[5,-4]],[[159,1785],[-6,-5]],[[248,1185]],[[17,1636],[26,-5]],[[184,1307],[4,-48]],[[212,1495],[-42,-11]],[[159,1481],[-159,-44]],[[107,2344],[70,141],[98,52],[124,6]],[[490,2592],[-68,-55],[-22,6]],[[39,1916],[-39,8]],[[4096,1096],[-3640,570]],[[183,1622],[-15,6]],[[393,1651],[74,232]],[[199,1378],[2,5]],[[130,1562],[61,-6]],[[191,1555],[-58,6]],[[193,1555],[141,20]],[[335,1575],[-142,-20]],[[334,1575],[12,2]],[[341,1576],[-6,-1]],[[96,1321],[1,0]],[[97,1635]],[[131,1561],[-6,0]],[[127,1561],[-2,1]],[[149,1642],[-24,0]],[[125,1559],[1,2]],[[131,1347],[3,8]],[[188,1763],[-1,0]],[[187,1763],[-2,0]],[[308,1684],[-67,40],[-54,39]],[[187,1763],[0,1]],[[188,1765],[120,-81]],[[189,1370],[0,-1]],[[205,1374],[-10,-7]],[[199,1389],[2,-6]],[[199,1389],[2,-6],[1,-2]],[[202,1381],[1,-3]],[[202,1381]],[[202,1381],[-1,0]],[[226,1560],[0,-1]],[[330,1609],[-80,15]],[[264,1449],[-9,3],[5,24],[4,4],[2,1]],[[266,1481]],[[266,1481]],[[266,1481],[6,0]],[[273,1482],[9,12]],[[282,1494],[-9,-12]],[[275,1490],[1,0]],[[308,1684]],[[313,1674],[-5,10]],[[308,1684],[5,-10]],[[313,1674],[8,-12]],[[330,1605],[0,4]],[[330,1609],[0,-4]],[[348,1645]],[[348,1645],[-8,-2]],[[348,1645]],[[348,1645],[1,-7],[-4,0]],[[345,1548],[2,3]],[[348,1551],[-3,-3]],[[365,1568],[0,-1]],[[185,1764],[0,3],[2,-1],[0,-2],[-2,0]],[[330,1604],[0,1],[0,-1]],[[177,1232],[3,7]],[[277,1626],[-3,-36]],[[364,1579],[-23,-3]],[[346,1577],[8,2],[11,0],[1,0]],[[277,1297],[-15,56]],[[266,1353],[11,-56]],[[347,1551],[18,17]],[[365,1567],[-17,-16]],[[290,1296],[-13,1]],[[277,1297],[13,-1]],[[155,1357],[-9,-1]],[[111,1637],[-12,-1]],[[99,1636],[12,4]],[[108,1637],[0,1]],[[364,1577],[1,2]],[[373,1588],[-7,-9]],[[403,1649],[-1,-14]],[[161,1428],[-5,1]],[[226,1494],[31,-3]],[[274,1494],[-17,-3]],[[257,1491],[17,3]],[[138,1364],[6,27]],[[144,1391],[5,21]],[[150,1412],[-6,-21]],[[144,1391],[-6,-23]],[[151,1415],[4,15]],[[156,1429],[-4,-14]],[[158,1438],[4,-1]],[[373,1589],[16,7]],[[389,1594],[-16,-6]],[[289,1206],[-11,-84]],[[288,1741],[-34,6]],[[110,1085],[42,83]],[[262,1353],[-14,0],[-38,7],[-15,7]],[[249,1353],[17,0]],[[365,1579],[8,10]],[[310,1517],[0,-11]],[[362,1655],[-3,7]],[[359,1662],[3,-7]],[[133,1561],[-4,0]],[[343,2053],[3,63],[-43,50]],[[146,1356],[-8,0]],[[195,1367],[-5,2]],[[199,1378],[6,-4]],[[14,1514],[0,7]],[[188,1259],[6,5]],[[192,1263],[-4,-4]],[[194,1264],[54,13]],[[227,1277],[-33,-13]],[[227,1277]],[[244,1277],[-12,0],[-5,0]],[[221,1455],[-2,-7]],[[219,1448],[-3,-9]],[[217,1425],[2,23]],[[219,1448],[0,2]],[[4096,1096],[-3640,570]],[[312,1412],[8,-1]],[[125,1559],[-2,1]],[[318,1507],[-4,-13]],[[287,1589],[-1,-10]],[[277,1297],[0,-1]],[[277,1296],[-22,-93],[-2,-3]],[[281,1273],[-4,23]],[[277,1296],[0,1]],[[205,1374],[6,-14]],[[254,1531],[2,0]],[[259,1832],[70,-17]],[[266,1027],[-15,-285],[18,-92],[-157,-429]],[[0,1712],[61,31]],[[44,1915],[14,1]],[[73,1921],[26,-28]],[[96,1895],[9,-11]],[[105,1480],[11,-5]],[[109,1465],[14,-2]],[[115,1179]],[[116,1515],[8,16]],[[117,1358]],[[124,1594],[-1,0]],[[123,1588],[56,-2]],[[123,1308],[10,-6]],[[180,1579],[-57,2]],[[139,1440],[-7,2]],[[138,1356],[-6,-1]],[[201,1815],[-65,68]],[[138,1357],[2,0]],[[140,1357],[3,-1],[2,0]],[[138,1354],[1,2]],[[138,1807],[4,-7]],[[140,1356],[0,1]],[[140,1357],[-1,1]],[[139,1441],[1,0]],[[140,1774],[2,26]],[[155,1351]],[[156,1429],[-1,1]],[[157,1437],[1,1]],[[157,1255],[0,-2]],[[163,1474],[-3,8]],[[168,1628],[2,6]],[[176,1325],[0,-1]],[[179,1557],[0,22]],[[180,1575],[0,-18]],[[184,1307],[2,-2]],[[189,1772],[23,59],[34,26],[46,15],[23,5]],[[219,1450],[-2,-25]],[[226,1488],[1,0]],[[255,1452],[-3,1]],[[252,1453],[-26,3]],[[227,1457],[25,-4]],[[252,1453],[9,-2],[3,-1]],[[253,1200],[-4,-12]],[[254,1659],[-1,-1]],[[253,1658],[-3,0]],[[250,1658]],[[250,1657],[0,1]],[[250,1658],[-1,3],[6,1]],[[251,1661],[0,-1]],[[251,1658],[2,0]],[[253,1658],[1,0]],[[251,1538],[-5,26],[5,-23]],[[251,1539],[1,-1]],[[254,1524],[-2,12]],[[252,1536],[2,-5]],[[255,1653],[16,-2]],[[256,1661],[0,-4]],[[257,1566],[15,11]],[[267,1536],[-2,-20]],[[273,1576],[0,-8]],[[274,1494]],[[274,1589],[0,1]],[[286,1533],[1,1]],[[315,1877],[-23,-6]],[[300,1367],[0,-3]],[[324,1389],[-14,1]],[[310,1390],[-3,0]],[[310,1389],[0,1]],[[310,1390],[0,3],[1,4],[0,-4]],[[311,1390],[13,0]],[[311,1506],[7,0]],[[312,1412],[9,8]],[[314,1494],[11,37]],[[315,1877],[16,0],[0,-1],[1,-9]],[[317,1457],[9,-1]],[[331,1866],[0,9]],[[333,1641],[2,5]],[[336,1645],[-3,-4]],[[361,1649],[-1,0]],[[360,1649]],[[360,1649],[-12,-4]],[[355,1667],[-1,-1]],[[360,1462],[-4,-17]],[[359,1662]],[[360,1463],[13,74]],[[360,1650],[2,5]],[[380,1645],[-20,4]],[[362,1655],[-2,-6]],[[391,1640],[0,1]],[[393,1640],[-1,5]],[[393,1649],[10,0]],[[393,1651],[2,-1]],[[404,1640],[-1,-2]],[[466,1883],[1,1]],[[360,1462],[-1,1],[1,0],[0,-1]],[[360,1649]],[[360,1649]],[[360,1649]],[[73,1922],[-34,-6]],[[300,1364],[-7,-11]],[[170,1474],[1,-8]],[[250,1653],[2,-2]],[[252,1651],[2,8]],[[254,1658],[1,-5]],[[386,1790],[-57,25]],[[59,1963],[-59,122]],[[0,2086],[60,-123]],[[155,1789],[-111,-61],[-30,-214]],[[361,1649],[19,-4]],[[138,1368],[0,-4]],[[187,1767],[3,8]],[[316,1452],[1,5]],[[363,1576],[0,-3]],[[286,1579],[-1,-1]],[[0,1100],[110,-15]],[[9,1517],[5,4]],[[14,1514],[2,2]],[[117,1359],[21,-2]],[[256,1661],[-7,60]],[[322,1467],[-8,27]],[[314,1494],[8,-27]],[[324,1463],[2,-3]],[[54,283],[-15,-103],[14,98]],[[72,417],[-18,-134]],[[73,419],[-1,-2]],[[73,419],[15,53]],[[88,472],[102,231]],[[373,1537],[1,4]],[[374,1541],[-1,-4]],[[188,1259],[-4,49]],[[86,1392],[-86,35]],[[0,1437],[75,-38],[11,-7]],[[117,1359],[-29,29]],[[89,1389],[28,-30]],[[218,1416],[5,0]],[[170,1484],[42,11]],[[298,1355],[2,12]],[[300,1377],[6,10]],[[306,1387],[4,6]],[[307,1389],[-1,-2]],[[306,1387],[-6,-10]],[[380,1645],[6,-2]],[[386,1643],[6,-2]],[[403,1638],[-17,5]],[[386,1643],[-6,2]],[[301,1285]],[[184,1308],[0,-1]],[[283,1647],[-7,-20]],[[152,1168],[25,64]],[[177,1232],[-24,-63]],[[180,1239],[8,20]],[[188,1259],[-8,-20]],[[185,1307],[-1,0]],[[196,1367],[-11,-60]],[[186,1305],[-9,12],[-2,8],[20,42]],[[190,703],[-88,45],[-102,97]],[[393,1649],[0,2]],[[434,1803],[-48,-13]],[[155,1430],[3,8]],[[9,1517],[10,-1]],[[20,1516],[-4,0]],[[105,1594],[-90,5]],[[104,1595],[20,-1]],[[115,4096],[121,-251],[35,-117],[-11,-134],[-53,-105],[-19,-71],[20,-59],[30,-51],[61,-204],[85,-194],[63,-143],[12,-115],[-20,0],[-85,215],[-94,237],[-141,155],[-39,106],[-80,105],[0,626],[115,0]],[[0,2810],[57,-13],[128,-5],[23,-6],[22,-23],[24,-17],[29,-11],[20,0],[16,-1],[-10,-51],[36,-33],[54,-33],[40,-48],[15,30],[5,12],[38,10],[21,-52],[29,-113],[11,-79],[-7,-83],[-27,-150],[-6,-84],[-30,12],[-12,6],[-5,-54],[-12,-48],[13,6],[46,13],[-4,-69],[-25,-53],[-30,-48],[-20,-55],[0,-31],[20,-90],[-17,-29],[-53,-58],[-12,-27],[-9,-114],[-39,-216],[-18,-365],[-33,-218],[-53,-154],[-14,-108],[-19,-45],[-53,-83],[-22,-55],[-33,-139],[-3,-38],[-81,0],[0,2810]],[[0,2619],[0,61],[23,-15],[-23,-46]],[[0,1381],[0,459],[19,13],[36,113],[97,-66],[29,13],[-36,68],[7,52],[118,31],[130,-19],[59,197],[86,17],[-21,-115],[-6,-84],[-42,18],[-17,-102],[59,19],[-4,-69],[-75,-156],[20,-121],[-82,-114],[-53,-429],[-172,62],[-152,-43],[0,204],[23,6],[-23,46]]]}