{"objects":{"water":{"type":"GeometryCollection","geometries":[{"type":"Polygon","properties":{"kind":"lake","name":"Senanayake Samudra","reservoir":true,"area":97305112,"sort_rank":200,"source":"naturalearthdata.com","min_zoom":0.0,"id":1257},"arcs":[[15]]},{"type":"MultiPolygon","properties":{"source":"naturalearthdata.com","kind":"ocean","area":1576712559132672,"sort_rank":200,"min_zoom":0.0,"id":1},"arcs":[[[16]],[[17]]]},{"type":"Polygon","properties":{"source":"naturalearthdata.com","kind":"lake","area":52214300,"sort_rank":200,"min_zoom":0.0,"id":700},"arcs":[[18]]},{"type":"Polygon","properties":{"source":"naturalearthdata.com","kind":"lake","reservoir":true,"area":85294320,"sort_rank":200,"min_zoom":0.0,"id":1048},"arcs":[[19]]},{"type":"Point","properties":{"label_placement":true,"kind":"lake","name":"Senanayake Samudra","reservoir":true,"area":97305112,"sort_rank":200,"source":"naturalearthdata.com","min_zoom":0.0,"id":1257},"coordinates":[3914,503]},{"type":"MultiLineString","properties":{"source":"naturalearthdata.com","kind":"ocean","sort_rank":205,"boundary":true,"min_zoom":0.0,"id":21},"arcs":[[20],[21]]},{"type":"LineString","properties":{"source":"naturalearthdata.com","kind":"lake","sort_rank":367,"boundary":true,"min_zoom":0.0,"id":700},"arcs":[22]},{"type":"LineString","properties":{"source":"naturalearthdata.com","kind":"lake","reservoir":true,"sort_rank":367,"boundary":true,"min_zoom":0.0,"id":1048},"arcs":[23]},{"type":"LineString","properties":{"source":"naturalearthdata.com","kind":"lake","reservoir":true,"sort_rank":367,"boundary":true,"min_zoom":0.0,"id":1257},"arcs":[24]}]},"buildings":{"type":"GeometryCollection","geometries":[]},"places":{"type":"GeometryCollection","geometries":[{"type":"Point","properties":{"name:cy":"Sri Lanka","name:ko":"\uc2a4\ub9ac\ub791\uce74","name:cv":"\u0428\u0440\u0438-\u041b\u0430\u043d\u043a\u0430","name:km":"\u179f\u17d2\u179a\u17b8\u179b\u1784\u17d2\u1780\u17b6","name:cs":"Sr\u00ed Lanka","name:ki":"Sri Lanka","name:kw":"Shri Lanka","name:kv":"\u0428\u0440\u0438-\u041b\u0430\u043d\u043a\u0430","name:ku":"Sr\u00ee Lanka","name:tl":"Sri Lanka","name:ta":"\u0b87\u0bb2\u0b99\u0bcd\u0b95\u0bc8","name:tg":"\u0428\u0440\u0438-\u041b\u0430\u043d\u043a\u0430","name:ca":"Sri Lanka","name:te":"\u0c36\u0c4d\u0c30\u0c40\u0c32\u0c02\u0c15","name:ka":"\u10e8\u10e0\u10d8-\u10da\u10d0\u10dc\u10d9\u10d0","name:hr":"\u0160ri Lanka","name:da":"Sri Lanka","name:de":"Sri Lanka","name:dz":"\u0f64\u0fb2\u0f71\u0f80\u0f0b\u0f63\u0f44\u0f40\u0f0b","source":"openstreetmap.org","name:kn":"\u0cb6\u0ccd\u0cb0\u0cc0\u0cb2\u0c82\u0c95\u0cbe","name:dv":"\u0787\u07ae\u0785\u07aa\u078b\u07ab\u0786\u07a6\u0783\u07a6","name:lv":"\u0160rilanka","name:lt":"\u0160ri Lanka","name:uz":"Shri-Lanka","name:kk":"\u0428\u0440\u0438-\u041b\u0430\u043d\u043a\u0430","name:ur":"\u0633\u0631\u06cc \u0644\u0646\u06a9\u0627","name:lb":"Sri Lanka","name:la":"Taprobane","name:tt":"\u0428\u0440\u0438-\u041b\u0430\u043d\u043a\u0430","name:uk":"\u0428\u0440\u0456-\u041b\u0430\u043d\u043a\u0430","name:ug":"\u0633\u0631\u0649\u0644\u0627\u0646\u0643\u0627","name:li":"Sri Lanka","name:ln":"Sri Lanka","name:el":"\u03a3\u03c1\u03b9 \u039b\u03ac\u03bd\u03ba\u03b1","name:eo":"Sri-Lanko","name:en":"Sri Lanka","name":"\u0dc1\u0dca\u200d\u0dbb\u0dd3 \u0dbd\u0d82\u0d9a\u0dcf","name:tk":"\u015eri-Lanka","name:th":"\u0e1b\u0e23\u0e30\u0e40\u0e17\u0e28\u0e28\u0e23\u0e35\u0e25\u0e31\u0e07\u0e01\u0e32","name:eu":"Sri Lanka","name:et":"Sri Lanka","name:es":"Sri Lanka","name:ia":"Sri Lanka","name:az":"\u015eri-Lanka","name:ie":"Sri Lanka","name:id":"Sri Lanka","name:ar":"\u0633\u0631\u064a\u0644\u0627\u0646\u0643\u0627","name:io":"Sri Lanka","name:is":"Sr\u00ed Lanka","name:am":"\u123d\u122a \u120b\u1295\u12ab","name:it":"Sri Lanka","name:an":"Sri Lanka","name:ru":"\u0428\u0440\u0438-\u041b\u0430\u043d\u043a\u0430","name:rw":"Siri Lanka","name:af":"Sri Lanka","name:zh-yue":"\u65af\u91cc\u862d\u5361","name:zh":"\u65af\u91cc\u862d\u5361","name:so":"Siri Lanka","name:sm":"Sri Lanka","name:sl":"\u0160rilanka","name:sk":"Sr\u00ed Lanka","name:ja":"\u30b9\u30ea\u30e9\u30f3\u30ab","name:si":"\u0dc1\u0dca\u200d\u0dbb\u0dd3 \u0dbd\u0d82\u0d9a\u0dcf\u0dc0","name:sh":"\u0160ri Lanka","name:se":"Sri Lanka","name:br":"Sri Lanka","name:bs":"\u0160ri Lanka","name:bn":"\u09b6\u09cd\u09b0\u09c0\u09b2\u0999\u09cd\u0995\u09be","name:bo":"\u0f66\u0f7a\u0f44\u0f0b\u0f42\u0f0b\u0f42\u0fb3\u0f72\u0f44\u0f0b\u0f0d","name:sa":"\u0936\u094d\u0930\u0940\u0932\u0919\u094d\u0915\u093e","name:sw":"Sri Lanka","name:be":"\u0428\u0440\u044b-\u041b\u0430\u043d\u043a\u0430","name:su":"Sri Langka","name:bg":"\u0428\u0440\u0438 \u041b\u0430\u043d\u043a\u0430","name:ss":"Siri Lanka","name:ba":"\u0428\u0440\u0438-\u041b\u0430\u043d\u043a\u0430","name:sq":"Sri Lanka","name:jv":"Sri Lanka","name:pt":"Seri-Lanca","name:ps":"\u0633\u0631\u06cc\u0644\u0627\u0646\u06a9\u0627","name:om":"Sirilaankaa","name:oc":"Sri Lanka","min_zoom":2.0,"name:ro":"Sri Lanka","name:zh-min-nan":"Sri Lanka","name:os":"\u0428\u0440\u0438-\u041b\u0430\u043d\u043a\u0430","name:or":"\u0b36\u0b4d\u0b30\u0b40\u0b32\u0b19\u0b4d\u0b15\u0b3e","name:pl":"Sri Lanka","name:sr":"\u0428\u0440\u0438 \u041b\u0430\u043d\u043a\u0430","name:pa":"\u0a38\u0a4d\u0a30\u0a40\u0a32\u0a70\u0a15\u0a3e","name:tr":"Sri Lanka","name:hi":"\u0936\u094d\u0930\u0940\u0932\u0902\u0915\u093e","name:sv":"Sri Lanka","name:he":"\u05e1\u05e8\u05d9 \u05dc\u05e0\u05e7\u05d4","name:hy":"\u0547\u0580\u056b \u053c\u0561\u0576\u056f\u0561","name:ht":"Srilanka","name:hu":"Sr\u00ed Lanka","name:qu":"Sri Lanka","population":20277597,"kind":"country","name:yi":"\u05e1\u05e8\u05d9 \u05dc\u05d0\u05e0\u05e7\u05d0","name:yo":"Sri Lanka","name:mt":"Sri Lanka","alt_name:eo":"Srilanko","name:ms":"Sri Lanka","name:mr":"\u0936\u094d\u0930\u0940\u0932\u0902\u0915\u093e","name:my":"\u101e\u102e\u101b\u102d\u101c\u1004\u103a\u1039\u1000\u102c\u1014\u102d\u102f\u1004\u103a\u1004\u1036","name:mg":"Sri Lanka","name:ml":"\u0d36\u0d4d\u0d30\u0d40\u0d32\u0d19\u0d4d\u0d15","name:vi":"Sri Lanka","name:mn":"\u0428\u0440\u0438 \u041b\u0430\u043d\u043a\u0430","id":3997635385,"name:mk":"\u0428\u0440\u0438 \u041b\u0430\u043d\u043a\u0430","name:vo":"Sri-Lank\u00e4n","name:fa":"\u0633\u0631\u06cc\u200c\u0644\u0627\u0646\u06a9\u0627","name:fi":"Sri Lanka","name:fo":"Sri Lanka","name:fr":"Sri Lanka","name:fy":"Sry Lanka","name:nl":"Sri Lanka","name:nn":"Sri Lanka","name:no":"Sri Lanka","name:na":"Sri Lanka","name:ne":"\u0936\u094d\u0930\u0940\u0932\u0902\u0915\u093e","name:wo":"Siri Laanka","name:nv":"Swii Lank\u02bca","name:ga":"Sr\u00ed Lanca","name:gd":"Sri Lanca","name:gl":"Sri Lanka - Sri Lank\u0101","name:gv":"Sri Lanka","name:gu":"\u0ab6\u0acd\u0ab0\u0ac0\u0ab2\u0a82\u0a95\u0abe"},"coordinates":[1936,657]},{"type":"Point","properties":{"admin_level":"4","kind":"region","name":"Central Province","name:si":"\u0db8\u0db0\u0dca\u200d\u0dba\u0db8 \u0db4\u0dc5\u0dcf\u0dad","kind_detail":"state","source":"openstreetmap.org","min_zoom":4.0,"name:ta":"\u0bae\u0ba4\u0bcd\u0ba4\u0bbf\u0baf \u0bae\u0bbe\u0b95\u0bbe\u0ba3\u0bae\u0bcd","id":4344959727,"name:ja":"\u4e2d\u90e8\u5dde"},"coordinates":[1924,927]},{"type":"Point","properties":{"admin_level":"4","kind":"region","name:en":"Uva","name":"Uva Province","name:si":"\u0d8c\u0dc0 \u0db4\u0dc5\u0dcf\u0dad","kind_detail":"state","source":"openstreetmap.org","min_zoom":4.0,"name:ta":"\u0b8a\u0bb5\u0bbe \u0bae\u0bbe\u0b95\u0bbe\u0ba3\u0bae\u0bcd","id":4354962371,"name:ja":"\u30a6\u30d0\u5dde"},"coordinates":[3438,192]},{"type":"Point","properties":{"admin_level":"4","kind":"region","name:en":"Eastern","name":"Eastern Province","name:si":"\u0db1\u0dd0\u0d9c\u0dd9\u0db1\u0dc4\u0dd2\u0dbb \u0db4\u0dc5\u0dcf\u0dad","kind_detail":"state","source":"openstreetmap.org","min_zoom":4.0,"name:ta":"\u0b95\u0bbf\u0bb4\u0b95\u0bcd\u0b95\u0bc1 \u0bae\u0bbe\u0b95\u0bbe\u0ba3\u0bae\u0bcd","id":4344963555,"name:ja":"\u6771\u90e8\u5dde"},"coordinates":[3870,2693]},{"type":"Point","properties":{"admin_level":"4","kind":"region","name":"North Central","name:si":"\u0d8b\u0dad\u0dd4\u0dbb\u0dd4 \u0db8\u0dd0\u0daf \u0db4\u0dc5\u0dcf\u0dad","kind_detail":"state","source":"openstreetmap.org","min_zoom":4.0,"name:ta":"\u0bb5\u0b9f \u0bae\u0ba4\u0bcd\u0ba4\u0bbf\u0baf \u0bae\u0bbe\u0b95\u0bbe\u0ba3\u0bae\u0bcd","id":4344966660,"name:ja":"\u5317\u4e2d\u90e8\u5dde"},"coordinates":[965,3865]},{"type":"Point","properties":{"kind":"locality","name":"Kandy","name:si":"\u0db8\u0dc4\u0db1\u0dd4\u0dc0\u0dbb","kind_detail":"city","source":"openstreetmap.org","min_zoom":8.0,"name:kn":"\u0c95\u0ccd\u0caf\u0cbe\u0c82\u0ca1\u0cbf","population":125000,"name:ru":"\u041a\u0430\u043d\u0434\u0438","name:ta":"\u0b95\u0ba3\u0bcd\u0b9f\u0bbf","id":2908772560,"name:ja":"\u30ad\u30e3\u30f3\u30c7\u30a3"},"coordinates":[1395,821]},{"type":"Point","properties":{"kind":"locality","name":"Rambukkana","kind_detail":"town","source":"openstreetmap.org","min_zoom":8.0,"name:kn":"\u0cb0\u0c82\u0cac\u0cc1\u0c95\u0ccd\u0c95\u0ca8","population":84260,"id":634201943,"name:ja":"\u30e9\u30f3\u30d0\u30c3\u30af\u30ab\u30fc\u30ca"},"coordinates":[698,912]},{"type":"Point","properties":{"kind":"locality","name":"Dambulla","kind_detail":"city","source":"openstreetmap.org","min_zoom":8.0,"name:kn":"\u0ca1\u0c82\u0cac\u0cc1\u0cb2\u0ccd\u0cb2\u0cbe","population":68800,"name:ru":"\u0414\u0430\u043c\u0431\u0443\u043b\u043b\u0430","name:ta":"\u0ba4\u0bae\u0bcd\u0baa\u0bc1\u0bb3\u0bcd\u0bb3\u0bc8","id":258031093,"name:ja":"\u30c0\u30f3\u30d6\u30c3\u30e9"},"coordinates":[1441,2529]},{"type":"Point","properties":{"kind":"locality","name":"Anuradhapura","name:si":"\u0d85\u0db1\u0dd4\u0dbb\u0dcf\u0db0\u0db4\u0dd4\u0dbb\u0dba","kind_detail":"city","source":"openstreetmap.org","min_zoom":8.0,"name:uk":"\u0410\u043d\u0443\u0440\u0430\u0434\u0445\u0430\u043f\u0443\u0440\u0430","name:kn":"\u0c85\u0ca8\u0cc1\u0cbc\u0cb0\u0cbe\u0ca6\u0caa\u0cc1\u0cb0\u0c82","population":63200,"name:ru":"\u0410\u043d\u0443\u0440\u0430\u0434\u0445\u0430\u043f\u0443\u0440\u0430","name:ta":"\u0b85\u0ba9\u0bc1\u0bb0\u0bbe\u0ba4\u0baa\u0bc1\u0bb0\u0bae\u0bcd","id":566574942,"name:ja":"\u30a2\u30cc\u30e9\u30fc\u30c0\u30d7\u30e9"},"coordinates":[741,3884]},{"type":"Point","properties":{"kind":"locality","name":"Matale","kind_detail":"city","source":"openstreetmap.org","min_zoom":8.0,"name:kn":"\u0cae\u0ca4\u0cb2\u0cc6","population":40800,"name:ru":"\u041c\u0430\u0442\u0430\u043b\u0435","name:ta":"\u0bae\u0bbe\u0ba4\u0bcd\u0ba4\u0bb3\u0bc8","id":258049423,"name:ja":"\u30de\u30fc\u30bf\u30ec\u30fc"},"coordinates":[1361,1348]},{"type":"Point","properties":{"kind":"locality","name":"Kurunegala","kind_detail":"city","source":"openstreetmap.org","min_zoom":8.0,"name:kn":"\u0c95\u0cc1\u0cb0\u0cc1\u0ca8\u0cc6\u0c97\u0cb2","name:ru":"\u041a\u0443\u0440\u0443\u043d\u0435\u0433\u0430\u043b\u0430","population":30300,"id":2907017040,"name:ja":"\u30af\u30eb\u30cd\u30fc\u30ac\u30e9"},"coordinates":[608,1391]},{"type":"Point","properties":{"kind":"locality","name":"Gampola","name:si":"\u0d9c\u0db8\u0dca\u0db4\u0ddc\u0dbd","kind_detail":"city","source":"openstreetmap.org","min_zoom":8.0,"name:ta":"\u0b95\u0bae\u0bcd\u0baa\u0bb3\u0bc8","id":1830490058,"population":27600},"coordinates":[1206,441]},{"type":"Point","properties":{"kind":"locality","name":"Warakapola","kind_detail":"city","source":"openstreetmap.org","min_zoom":8.0,"name:kn":"\u0cb5\u0cb0\u0c95\u0caa\u0cca\u0cb2","population":20000,"id":1733768118,"name:ja":"\u30ef\u30e9\u30ab\u30dd\u30e9"},"coordinates":[117,621]},{"type":"Point","properties":{"source":"openstreetmap.org","kind":"locality","name":"Alawwa","kind_detail":"town","population":20000,"min_zoom":8.0,"id":1239560146},"coordinates":[242,824]},{"type":"Point","properties":{"source":"openstreetmap.org","kind":"locality","name":"Pilimathalawa","kind_detail":"town","population":20000,"min_zoom":8.0,"id":3738555775},"coordinates":[1153,741]},{"type":"Point","properties":{"source":"openstreetmap.org","kind":"locality","name":"Gelioya","kind_detail":"town","population":20000,"min_zoom":8.0,"id":263179576},"coordinates":[1287,591]},{"type":"Point","properties":{"source":"openstreetmap.org","kind":"locality","name":"Bibile","kind_detail":"town","population":20000,"min_zoom":8.0,"id":1979375865},"coordinates":[3111,422]},{"type":"Point","properties":{"kind":"locality","name":"Kegalle","name:si":"\u0d9a\u0dd1\u0d9c\u0dbd\u0dca\u0dbd","kind_detail":"city","source":"openstreetmap.org","min_zoom":8.0,"name:kn":"\u0c95\u0cc6\u0c97\u0cb2\u0ccd\u0cb2\u0cc6","name:ta":"\u0b95\u0bc7\u0b95\u0bbe\u0bb2\u0bc8","id":49374844,"population":17900},"coordinates":[551,704]},{"type":"Point","properties":{"kind":"locality","name":"Nawalapitiya","name:si":"\u0db1\u0dcf\u0dc0\u0dbd\u0db4\u0dd2\u0da7\u0dd2\u0dba","kind_detail":"town","source":"openstreetmap.org","min_zoom":8.0,"name:ta":"\u0ba8\u0bbe\u0bb5\u0bb2\u0baa\u0bcd\u0baa\u0bbf\u0b9f\u0bcd\u0b9f\u0bbf","id":1974499447,"population":15400},"coordinates":[1103,124]},{"type":"Point","properties":{"source":"openstreetmap.org","kind":"locality","name":"Mahiyanganaya","kind_detail":"town","population":15000,"min_zoom":8.0,"id":1783976655},"coordinates":[2437,959]},{"type":"Point","properties":{"source":"openstreetmap.org","kind":"locality","name":"Lunugala","kind_detail":"town","population":15000,"min_zoom":8.0,"id":1945700048},"coordinates":[3046,83]},{"type":"Point","properties":{"source":"openstreetmap.org","kind":"locality","name":"Welikanda","kind_detail":"town","population":15000,"min_zoom":8.0,"id":2211160989},"coordinates":[3179,2744]},{"type":"Point","properties":{"source":"openstreetmap.org","kind":"locality","name":"Karawanella","kind_detail":"town","population":15000,"min_zoom":8.0,"id":1805745147},"coordinates":[306,29]},{"type":"Point","properties":{"source":"openstreetmap.org","kind":"locality","name":"Yatiyantota","kind_detail":"town","population":15000,"min_zoom":8.0,"id":1809578921},"coordinates":[404,45]},{"type":"Point","properties":{"source":"openstreetmap.org","kind":"locality","name":"Ruwanwella","kind_detail":"town","population":15000,"min_zoom":8.0,"id":1805745304},"coordinates":[284,95]},{"type":"Point","properties":{"source":"openstreetmap.org","kind":"locality","name":"Anguruwella","kind_detail":"town","population":15000,"min_zoom":8.0,"id":3158787186},"coordinates":[302,137]},{"type":"Point","properties":{"source":"openstreetmap.org","kind":"locality","name":"Thunthota","kind_detail":"town","population":15000,"min_zoom":8.0,"id":2015265416},"coordinates":[316,528]},{"type":"Point","properties":{"source":"openstreetmap.org","kind":"locality","name":"Hettimulla","kind_detail":"town","population":15000,"min_zoom":8.0,"id":2361308993},"coordinates":[599,598]},{"type":"Point","properties":{"source":"openstreetmap.org","kind":"locality","name":"Mawanella","kind_detail":"town","population":15000,"min_zoom":8.0,"id":51237600},"coordinates":[845,705]},{"type":"Point","properties":{"source":"openstreetmap.org","kind":"locality","name":"Kadugannawa","kind_detail":"town","population":15000,"min_zoom":8.0,"id":3226291259},"coordinates":[1058,716]},{"type":"Point","properties":{"source":"openstreetmap.org","kind":"locality","name":"Medawala Town","kind_detail":"town","population":15000,"min_zoom":8.0,"id":3343528437},"coordinates":[1193,1010]},{"type":"Point","properties":{"source":"openstreetmap.org","kind":"locality","name":"Katugasthota","kind_detail":"town","population":15000,"min_zoom":8.0,"id":258034509},"coordinates":[1365,907]},{"type":"Point","properties":{"source":"openstreetmap.org","kind":"locality","name":"Madawala","kind_detail":"town","population":15000,"min_zoom":8.0,"id":4039761952},"coordinates":[1507,926]},{"type":"Point","properties":{"source":"openstreetmap.org","kind":"locality","name":"Wattegama","kind_detail":"town","population":15000,"min_zoom":8.0,"id":1156534098},"coordinates":[1533,992]},{"type":"Point","properties":{"source":"openstreetmap.org","kind":"locality","name":"Thalathuoya","kind_detail":"town","population":15000,"min_zoom":8.0,"id":2382094322},"coordinates":[1555,699]},{"type":"Point","properties":{"source":"openstreetmap.org","kind":"locality","name":"Menikhinna","kind_detail":"town","population":15000,"min_zoom":8.0,"id":2334261103},"coordinates":[1589,888]},{"type":"Point","properties":{"source":"openstreetmap.org","kind":"locality","name":"Digana","kind_detail":"town","population":15000,"min_zoom":8.0,"id":2334261043},"coordinates":[1681,831]},{"type":"Point","properties":{"source":"openstreetmap.org","kind":"locality","name":"Teldeniya","kind_detail":"town","population":15000,"min_zoom":8.0,"id":2334155482},"coordinates":[1773,870]},{"type":"Point","properties":{"source":"openstreetmap.org","kind":"locality","name":"Hunnasgiriya","kind_detail":"town","population":15000,"min_zoom":8.0,"id":1783925992},"coordinates":[2026,834]},{"type":"Point","properties":{"source":"openstreetmap.org","kind":"locality","name":"Narammala","kind_detail":"town","population":15000,"min_zoom":8.0,"id":637029092},"coordinates":[169,1230]},{"type":"Point","properties":{"source":"openstreetmap.org","kind":"locality","name":"Mawathagama","kind_detail":"town","population":15000,"min_zoom":8.0,"id":1924902377},"coordinates":[845,1233]},{"type":"Point","properties":{"source":"openstreetmap.org","kind":"locality","name":"Paadeniya","kind_detail":"town","population":15000,"min_zoom":8.0,"id":1239591372},"coordinates":[189,1887]},{"type":"Point","properties":{"source":"openstreetmap.org","kind":"locality","name":"Ankumbura","kind_detail":"town","population":15000,"min_zoom":8.0,"id":3213933910},"coordinates":[1208,1251]},{"type":"Point","properties":{"source":"openstreetmap.org","kind":"locality","name":"Walapane","kind_detail":"town","population":15000,"min_zoom":8.0,"id":3588043678},"coordinates":[2057,241]},{"type":"Point","properties":{"source":"openstreetmap.org","kind":"locality","name":"Ududumbara","kind_detail":"town","population":15000,"min_zoom":8.0,"id":2306122120},"coordinates":[2103,897]},{"type":"Point","properties":{"source":"openstreetmap.org","kind":"locality","name":"Girandurukotte","kind_detail":"town","population":15000,"min_zoom":8.0,"id":1974676458},"coordinates":[2504,1341]},{"type":"Point","properties":{"source":"openstreetmap.org","kind":"locality","name":"Dehiattakandiya","kind_detail":"town","population":15000,"min_zoom":8.0,"id":2304546463},"coordinates":[2577,1934]},{"type":"Point","properties":{"source":"openstreetmap.org","kind":"locality","name":"Padiyathalawa","kind_detail":"town","population":15000,"min_zoom":8.0,"id":1975993021},"coordinates":[3164,1136]},{"type":"Point","properties":{"source":"openstreetmap.org","kind":"locality","name":"Mahaoya","kind_detail":"town","population":15000,"min_zoom":8.0,"id":2001999522},"coordinates":[3496,1520]},{"type":"Point","properties":{"source":"openstreetmap.org","kind":"locality","name":"Galagedara","kind_detail":"town","population":15000,"min_zoom":8.0,"id":634207826},"coordinates":[1073,1056]},{"type":"Point","properties":{"source":"openstreetmap.org","kind":"locality","name":"Habarana","kind_detail":"town","population":15000,"min_zoom":8.0,"id":258047343},"coordinates":[1745,3016]},{"type":"Point","properties":{"source":"openstreetmap.org","kind":"locality","name":"Aralaganwila","kind_detail":"town","population":15000,"min_zoom":8.0,"id":1974755458},"coordinates":[2996,2260]},{"type":"Point","properties":{"source":"openstreetmap.org","kind":"locality","name":"Manampitiya","kind_detail":"town","population":15000,"min_zoom":8.0,"id":2821280145},"coordinates":[2784,2631]},{"type":"Point","properties":{"source":"openstreetmap.org","kind":"locality","name":"Kaduruwela","kind_detail":"town","population":15000,"min_zoom":8.0,"id":2272544113},"coordinates":[2553,2695]},{"type":"Point","properties":{"kind":"locality","name":"Polonnaruwa","kind_detail":"city","source":"openstreetmap.org","min_zoom":8.0,"name:kn":"\u0caa\u0cca\u0cb2\u0cca\u0ca8\u0ccd\u0ca8\u0cb0\u0cc1\u0cb5","population":15000,"name:ta":"\u0baa\u0bc6\u0bbe\u0bb2\u0ba9\u0bcd\u0ba9\u0bb1\u0bc1\u0bb5\u0bc8","id":258523517,"name:ja":"\u30dd\u30ed\u30f3\u30ca\u30eb\u30ef"},"coordinates":[2458,2722]},{"type":"Point","properties":{"source":"openstreetmap.org","kind":"locality","name":"Mihintale","kind_detail":"town","population":15000,"min_zoom":8.0,"id":1880627994},"coordinates":[1037,3952]},{"type":"Point","properties":{"source":"openstreetmap.org","kind":"locality","name":"Hemmathagama","kind_detail":"town","population":10000,"min_zoom":8.0,"id":1831898259},"coordinates":[1001,471]},{"type":"Point","properties":{"source":"openstreetmap.org","kind":"locality","name":"Polgahawela","kind_detail":"town","population":10000,"min_zoom":8.0,"id":3722684420},"coordinates":[419,946]},{"type":"Point","properties":{"source":"openstreetmap.org","kind":"locality","name":"Uthuwankanda","kind_detail":"town","population":10000,"min_zoom":8.0,"id":1855232234},"coordinates":[778,699]},{"type":"Point","properties":{"source":"openstreetmap.org","kind":"locality","name":"Medamahanuwara","kind_detail":"town","population":10000,"min_zoom":8.0,"id":2315533328},"coordinates":[1925,810]},{"type":"Point","properties":{"source":"openstreetmap.org","kind":"locality","name":"Wariyapola","kind_detail":"town","population":10000,"min_zoom":8.0,"id":1239435079},"coordinates":[262,1782]},{"type":"Point","properties":{"source":"openstreetmap.org","kind":"locality","name":"Katupotha NWP","kind_detail":"town","population":10000,"min_zoom":8.0,"id":1239494580},"coordinates":[91,1529]},{"type":"Point","properties":{"source":"openstreetmap.org","kind":"locality","name":"Nildandahinna","kind_detail":"town","population":10000,"min_zoom":8.0,"id":3590215201},"coordinates":[2148,195]},{"type":"Point","properties":{"kind":"locality","name":"Peradeniya","name:si":"\u0db4\u0dda\u0dbb\u0dcf\u0daf\u0dd9\u0dab\u0dd2\u0dba","kind_detail":"town","source":"openstreetmap.org","min_zoom":8.0,"name:ru":"\u041f\u0435\u0440\u0430\u0434\u0435\u043d\u0438\u044f","name:ta":"\u0baa\u0bc7\u0bb0\u0bbe\u0ba4\u0ba9\u0bc8","id":264605806,"population":10000},"coordinates":[1272,736]},{"type":"Point","properties":{"source":"openstreetmap.org","kind":"locality","name":"Maho","kind_detail":"town","population":10000,"min_zoom":8.0,"id":1239690493},"coordinates":[342,2382]},{"type":"Point","properties":{"source":"openstreetmap.org","kind":"locality","name":"Galewela","kind_detail":"town","population":10000,"min_zoom":8.0,"id":3613139445},"coordinates":[1208,2193]},{"type":"Point","properties":{"source":"openstreetmap.org","kind":"locality","name":"Galkulama","kind_detail":"town","population":10000,"min_zoom":8.0,"id":1237275871},"coordinates":[1002,3705]},{"type":"Point","properties":{"source":"openstreetmap.org","kind":"locality","name":"Serunuwara","kind_detail":"town","population":10000,"min_zoom":8.0,"id":1880414068},"coordinates":[3333,3856]},{"type":"Point","properties":{"source":"openstreetmap.org","kind":"locality","name":"Valaichchenai EP","kind_detail":"town","population":10000,"min_zoom":8.0,"id":1880414146},"coordinates":[4013,2629]},{"type":"Point","properties":{"source":"openstreetmap.org","kind":"locality","name":"Galgamuwa","kind_detail":"town","population":10000,"min_zoom":8.0,"id":3578458836},"coordinates":[334,2888]},{"type":"Point","properties":{"source":"openstreetmap.org","kind":"locality","name":"Kurunduwatte","kind_detail":"town","population":8000,"min_zoom":8.0,"id":1831930947},"coordinates":[1088,334]},{"type":"Point","properties":{"source":"openstreetmap.org","kind":"locality","name":"Hasalaka","kind_detail":"town","population":8000,"min_zoom":8.0,"id":2055565043},"coordinates":[2312,993]},{"type":"Point","properties":{"source":"openstreetmap.org","kind":"locality","name":"Delthota","kind_detail":"town","population":8000,"min_zoom":8.0,"id":3591163621},"coordinates":[1572,467]},{"type":"Point","properties":{"source":"openstreetmap.org","kind":"locality","name":"Hedeniya","kind_detail":"town","population":8000,"min_zoom":8.0,"id":4432698030},"coordinates":[1170,957]},{"type":"Point","properties":{"source":"openstreetmap.org","kind":"locality","name":"Pussellawa","kind_detail":"town","population":7000,"min_zoom":8.0,"id":51226428},"coordinates":[1391,284]},{"type":"Point","properties":{"source":"openstreetmap.org","kind":"locality","name":"Dolosbage","kind_detail":"town","population":6000,"min_zoom":8.0,"id":3938776007},"coordinates":[911,200]},{"type":"Point","properties":{"source":"openstreetmap.org","kind":"locality","name":"Weligalla","kind_detail":"town","population":6000,"min_zoom":8.0,"id":1981249135},"coordinates":[1271,517]},{"type":"Point","properties":{"source":"openstreetmap.org","kind":"locality","name":"Walala","kind_detail":"town","population":6000,"min_zoom":8.0,"id":4039501513},"coordinates":[1560,901]},{"type":"Point","properties":{"admin_level":"8","kind":"locality","name":"Meegahakiula","kind_detail":"town","source":"openstreetmap.org","min_zoom":8.0,"id":3769289831,"population":5000},"coordinates":[2597,362]},{"type":"Point","properties":{"admin_level":"8","kind":"locality","name":"Diyabeduma","kind_detail":"town","source":"openstreetmap.org","min_zoom":8.0,"id":3803000351,"population":5000},"coordinates":[2073,2706]},{"type":"Point","properties":{"source":"openstreetmap.org","kind":"locality","name":"Hiripitiya","kind_detail":"town","population":5000,"min_zoom":8.0,"id":2024849122},"coordinates":[620,1891]},{"type":"Point","properties":{"admin_level":"8","kind":"locality","name":"Kandegedara","kind_detail":"town","source":"openstreetmap.org","min_zoom":8.0,"id":3774570520,"population":5000},"coordinates":[2517,17]},{"type":"Point","properties":{"source":"openstreetmap.org","kind":"locality","name":"Bulathkohupitiya","kind_detail":"town","population":5000,"min_zoom":8.0,"id":4402350584},"coordinates":[523,268]},{"type":"Point","properties":{"admin_level":"8","kind":"locality","name":"Metikumbura","kind_detail":"town","source":"openstreetmap.org","min_zoom":8.0,"id":3803777364,"population":5000},"coordinates":[459,1066]},{"type":"Point","properties":{"source":"openstreetmap.org","kind":"locality","name":"Rikillagaskada","kind_detail":"town","population":5000,"min_zoom":8.0,"id":3650726151},"coordinates":[1828,389]},{"type":"Point","properties":{"source":"openstreetmap.org","kind":"locality","name":"Hanguranketha","kind_detail":"town","population":5000,"min_zoom":8.0,"id":3872230600},"coordinates":[1804,481]},{"type":"Point","properties":{"source":"openstreetmap.org","kind":"locality","name":"Barigama","kind_detail":"town","population":5000,"min_zoom":8.0,"id":4440274519},"coordinates":[1228,924]},{"type":"Point","properties":{"source":"openstreetmap.org","kind":"locality","name":"Bamunakotuwa","kind_detail":"town","population":5000,"min_zoom":8.0,"id":1239494570},"coordinates":[270,1640]},{"type":"Point","properties":{"source":"openstreetmap.org","kind":"locality","name":"Bokkawala","kind_detail":"town","population":5000,"min_zoom":8.0,"id":4440274514},"coordinates":[1156,1116]},{"type":"Point","properties":{"source":"openstreetmap.org","kind":"locality","name":"Ukuwela","kind_detail":"town","population":5000,"min_zoom":8.0,"id":1175899378},"coordinates":[1389,1198]},{"type":"Point","properties":{"admin_level":"8","kind":"locality","name":"Galauda","kind_detail":"town","source":"openstreetmap.org","min_zoom":8.0,"id":3774543377,"population":5000},"coordinates":[2415,83]},{"type":"Point","properties":{"admin_level":"8","kind":"locality","name":"Kandaketiya","kind_detail":"town","source":"openstreetmap.org","min_zoom":8.0,"id":3773755242,"population":5000},"coordinates":[2470,460]},{"type":"Point","properties":{"source":"openstreetmap.org","kind":"locality","name":"Rattota","kind_detail":"town","population":5000,"min_zoom":8.0,"id":1727645733},"coordinates":[1518,1490]},{"type":"Point","properties":{"kind":"locality","name":"Padiyapelella","name:si":"\u0db4\u0daf\u0dd2\u0dba\u0db4\u0dd0\u0dbd\u0dd0\u0dbd\u0dca\u0dbd","kind_detail":"town","source":"openstreetmap.org","min_zoom":8.0,"id":2035882234,"population":5000},"coordinates":[1870,229]},{"type":"Point","properties":{"source":"openstreetmap.org","kind":"locality","name":"Kotiyakumbura","kind_detail":"town","population":5000,"min_zoom":8.0,"id":2015279495},"coordinates":[382,324]},{"type":"Point","properties":{"source":"openstreetmap.org","kind":"locality","name":"Kantale","kind_detail":"town","population":5000,"min_zoom":8.0,"id":636867709},"coordinates":[2466,3978]},{"type":"Point","properties":{"source":"openstreetmap.org","kind":"locality","name":"Giritale","kind_detail":"town","population":5000,"min_zoom":8.0,"id":1241525013},"coordinates":[2238,2900]},{"type":"Point","properties":{"source":"openstreetmap.org","kind":"locality","name":"Hingurakgoda","kind_detail":"town","population":5000,"min_zoom":8.0,"id":618688780},"coordinates":[2321,3021]},{"type":"Point","properties":{"source":"openstreetmap.org","kind":"locality","name":"Bakamuna","kind_detail":"town","population":5000,"min_zoom":8.0,"id":1924916088},"coordinates":[1924,2244]},{"type":"Point","properties":{"source":"openstreetmap.org","kind":"locality","name":"Nochchiyagama","kind_detail":"town","population":5000,"min_zoom":8.0,"id":2383121120},"coordinates":[158,3675]},{"type":"Point","properties":{"source":"openstreetmap.org","kind":"locality","name":"Moronthota","kind_detail":"town","population":2000,"min_zoom":8.0,"id":4402367910},"coordinates":[600,472]},{"type":"Point","properties":{"source":"openstreetmap.org","kind":"locality","name":"Medagama","kind_detail":"town","population":1500,"min_zoom":8.0,"id":4561226329},"coordinates":[3262,61]},{"type":"Point","properties":{"kind":"locality","name":"Galnewa","name:si":"\u0d9c\u0dbd\u0dca\u0db1\u0dd1\u0dc0 \u0db1\u0d9c\u0dbb\u0dba","kind_detail":"town","source":"openstreetmap.org","min_zoom":8.0,"id":4406851218,"population":1500},"coordinates":[944,3003]},{"type":"Point","properties":{"kind":"locality","name":"Bulnewa","name:si":"\u0db6\u0dd4\u0dbd\u0dca\u0db1\u0dd1\u0dc0 \u0db1\u0d9c\u0dbb\u0dba","kind_detail":"town","source":"openstreetmap.org","min_zoom":8.0,"id":4406862722,"population":1500},"coordinates":[841,3030]},{"type":"Point","properties":{"source":"openstreetmap.org","kind":"locality","name":"Ibbagamuwa","kind_detail":"town","population":1000,"min_zoom":8.0,"id":1536695366},"coordinates":[855,1570]},{"type":"Point","properties":{"source":"openstreetmap.org","kind":"locality","name":"Aranayake","kind_detail":"town","population":1000,"min_zoom":8.0,"id":4075115740},"coordinates":[877,482]},{"type":"Point","properties":{"source":"openstreetmap.org","kind":"locality","name":"Galaha","kind_detail":"town","population":1000,"min_zoom":8.0,"id":1909549007},"coordinates":[1495,541]}]},"transit":{"type":"GeometryCollection","geometries":[{"type":"MultiLineString","properties":{"osm_relation":true,"source":"openstreetmap.org","kind":"train","name":"Batticaloa Line","sort_rank":275,"min_zoom":6.0,"operator":"Sri Lanka Railway"},"arcs":[[7],[8]]},{"type":"MultiLineString","properties":{"osm_relation":true,"source":"openstreetmap.org","kind":"train","name":"Northern Line","sort_rank":275,"min_zoom":6.0,"operator":"Sri Lanka Railway"},"arcs":[[9],[10]]},{"type":"LineString","properties":{"kind":"train","name":"Matale Line","sort_rank":275,"source":"openstreetmap.org","min_zoom":6.0,"operator":"Sri Lanka Railway","id":-4139207,"osm_relation":true},"arcs":[11]},{"type":"LineString","properties":{"source":"openstreetmap.org","kind":"train","name":"Up-Country","sort_rank":275,"min_zoom":6.0,"osm_relation":true,"id":-5167389},"arcs":[12]},{"type":"LineString","properties":{"kind":"train","name":"Trincomalee Line","sort_rank":275,"source":"openstreetmap.org","min_zoom":6.0,"operator":"Sri Lanka Railway","id":-4140758,"osm_relation":true},"arcs":[13]},{"type":"LineString","properties":{"source":"openstreetmap.org","kind":"train","name":"Mihintale Line","sort_rank":275,"min_zoom":6.0,"osm_relation":true,"id":-4140690},"arcs":[14]}]},"pois":{"type":"GeometryCollection","geometries":[{"type":"Point","properties":{"kind":"national_park","protect_class":"2","name:si":"\u0dc0\u0dc3\u0dca\u0d9c\u0db8\u0dd4\u0dc0 \u0da2\u0dcf\u0dad\u0dd2\u0d9a \u0d8b\u0daf\u0dca\u200d\u0dba\u0dcf\u0db1\u0dba","area":401932000,"source":"openstreetmap.org","min_zoom":6.46,"tier":1,"id":-6315786,"osm_relation":true,"name":"Wasgamuwa National Park"},"coordinates":[2212,2145]},{"type":"Point","properties":{"kind":"national_park","name":"Minneriya National Park","area":85409800,"source":"openstreetmap.org","min_zoom":8.0,"tier":1,"name:ru":"\u041d\u0430\u0446\u0438\u043e\u043d\u0430\u043b\u044c\u043d\u044b\u0439 \u043f\u0430\u0440\u043a \u041c\u0438\u043d\u043d\u0435\u0440\u0438\u044f","id":-5683596,"osm_relation":true},"coordinates":[2022,2946]}]},"boundaries":{"type":"GeometryCollection","geometries":[{"type":"LineString","properties":{"name:right:ja":"\u6771\u90e8\u5dde","name:left:ja":"\u30a6\u30d0\u5dde","id:right":-4630810,"name:right:si":"\u0db1\u0dd0\u0d9c\u0dd9\u0db1\u0dc4\u0dd2\u0dbb \u0db4\u0dc5\u0dcf\u0dad","min_zoom":8.0,"name:left:si":"\u0d8c\u0dc0 \u0db4\u0dc5\u0dcf\u0dad","name:left:ru":"\u043f\u0440\u043e\u0432\u0438\u043d\u0446\u0438\u044f \u0423\u0432\u0430","name:left:ta":"\u0b8a\u0bb5\u0bbe \u0bae\u0bbe\u0b95\u0bbe\u0ba3\u0bae\u0bcd","name:right:ru":"\u0412\u043e\u0441\u0442\u043e\u0447\u043d\u0430\u044f \u043f\u0440\u043e\u0432\u0438\u043d\u0446\u0438\u044f","id":-4630840,"osm_relation":true,"name:right":"Eastern Province","kind":"region","name":"Uva Province - Eastern Province","source":"openstreetmap.org","sort_rank":256,"kind_detail":"4","name:right:ta":"\u0b95\u0bbf\u0bb4\u0b95\u0bcd\u0b95\u0bc1 \u0bae\u0bbe\u0b95\u0bbe\u0ba3\u0bae\u0bcd","name:left:en":"Uva","name:left:zh":"\u4e4c\u74e6\u7701","name:right:en":"Eastern","id:left":-4630840,"name:right:zh":"\u4e1c\u90e8\u7701","name:left":"Uva Province","name:left:cs":"provincie Uva","name:right:cs":"V\u00fdchodn\u00ed provincie"},"arcs":[0]},{"type":"LineString","properties":{"kind":"region","name:en":"Uva","name":"Uva Province","name:si":"\u0d8c\u0dc0 \u0db4\u0dc5\u0dcf\u0dad","sort_rank":256,"kind_detail":"4","name:cs":"provincie Uva","source":"openstreetmap.org","min_zoom":8.0,"name:ru":"\u043f\u0440\u043e\u0432\u0438\u043d\u0446\u0438\u044f \u0423\u0432\u0430","name:ta":"\u0b8a\u0bb5\u0bbe \u0bae\u0bbe\u0b95\u0bbe\u0ba3\u0bae\u0bcd","name:zh":"\u4e4c\u74e6\u7701","id":-4630840,"osm_relation":true,"name:ja":"\u30a6\u30d0\u5dde"},"arcs":[1]},{"type":"LineString","properties":{"name:right:ja":"\u5317\u4e2d\u90e8\u5dde","name:left:ja":"\u5317\u897f\u90e8\u5dde","id:right":-4630836,"name:right:si":"\u0d8b\u0dad\u0dd4\u0dbb\u0dd4 \u0db8\u0dd0\u0daf \u0db4\u0dc5\u0dcf\u0dad","min_zoom":8.0,"name:left:si":"\u0dc0\u0dba\u0db9 \u0db4\u0dc5\u0dcf\u0dad","name:left:ru":"\u0421\u0435\u0432\u0435\u0440\u043e-\u0417\u0430\u043f\u0430\u0434\u043d\u0430\u044f \u043f\u0440\u043e\u0432\u0438\u043d\u0446\u0438\u044f","name:left:ta":"\u0bb5\u0b9f \u0bae\u0bc7\u0bb2\u0bcd \u0bae\u0bbe\u0b95\u0bbe\u0ba3\u0bae\u0bcd","name:right:ru":"\u0421\u0435\u0432\u0435\u0440\u043e-\u0426\u0435\u043d\u0442\u0440\u0430\u043b\u044c\u043d\u0430\u044f \u043f\u0440\u043e\u0432\u0438\u043d\u0446\u0438\u044f","id":-4630837,"osm_relation":true,"name:right":"North Central Province","kind":"region","name":"North Western Province - North Central Province","sort_rank":256,"kind_detail":"4","name:right:ta":"\u0bb5\u0b9f \u0bae\u0ba4\u0bcd\u0ba4\u0bbf\u0baf \u0bae\u0bbe\u0b95\u0bbe\u0ba3\u0bae\u0bcd","source":"openstreetmap.org","name:left:zh":"\u897f\u5317\u7701","id:left":-4630837,"name:right:zh":"\u5317\u4e2d\u592e\u7701","name:left":"North Western Province","name:left:cs":"Severoz\u00e1padn\u00ed provincie","name:right:cs":"St\u0159edosevern\u00ed provincie"},"arcs":[2]},{"type":"LineString","properties":{"kind":"region","name":"North Western Province","name:si":"\u0dc0\u0dba\u0db9 \u0db4\u0dc5\u0dcf\u0dad","sort_rank":256,"kind_detail":"4","name:cs":"Severoz\u00e1padn\u00ed provincie","source":"openstreetmap.org","min_zoom":8.0,"name:ru":"\u0421\u0435\u0432\u0435\u0440\u043e-\u0417\u0430\u043f\u0430\u0434\u043d\u0430\u044f \u043f\u0440\u043e\u0432\u0438\u043d\u0446\u0438\u044f","name:ta":"\u0bb5\u0b9f \u0bae\u0bc7\u0bb2\u0bcd \u0bae\u0bbe\u0b95\u0bbe\u0ba3\u0bae\u0bcd","name:zh":"\u897f\u5317\u7701","id":-4630837,"osm_relation":true,"name:ja":"\u5317\u897f\u90e8\u5dde"},"arcs":[3]},{"type":"LineString","properties":{"name:right:ja":"\u6771\u90e8\u5dde","name:left:ja":"\u5317\u4e2d\u90e8\u5dde","id:right":-4630810,"name:right:si":"\u0db1\u0dd0\u0d9c\u0dd9\u0db1\u0dc4\u0dd2\u0dbb \u0db4\u0dc5\u0dcf\u0dad","min_zoom":8.0,"name:left:si":"\u0d8b\u0dad\u0dd4\u0dbb\u0dd4 \u0db8\u0dd0\u0daf \u0db4\u0dc5\u0dcf\u0dad","name:left:ru":"\u0421\u0435\u0432\u0435\u0440\u043e-\u0426\u0435\u043d\u0442\u0440\u0430\u043b\u044c\u043d\u0430\u044f \u043f\u0440\u043e\u0432\u0438\u043d\u0446\u0438\u044f","name:left:ta":"\u0bb5\u0b9f \u0bae\u0ba4\u0bcd\u0ba4\u0bbf\u0baf \u0bae\u0bbe\u0b95\u0bbe\u0ba3\u0bae\u0bcd","name:right:ru":"\u0412\u043e\u0441\u0442\u043e\u0447\u043d\u0430\u044f \u043f\u0440\u043e\u0432\u0438\u043d\u0446\u0438\u044f","id":-4630836,"osm_relation":true,"name:right":"Eastern Province","kind":"region","name":"North Central Province - Eastern Province","sort_rank":256,"kind_detail":"4","name:right:ta":"\u0b95\u0bbf\u0bb4\u0b95\u0bcd\u0b95\u0bc1 \u0bae\u0bbe\u0b95\u0bbe\u0ba3\u0bae\u0bcd","source":"openstreetmap.org","name:left:zh":"\u5317\u4e2d\u592e\u7701","name:right:en":"Eastern","id:left":-4630836,"name:right:zh":"\u4e1c\u90e8\u7701","name:left":"North Central Province","name:left:cs":"St\u0159edosevern\u00ed provincie","name:right:cs":"V\u00fdchodn\u00ed provincie"},"arcs":[4]},{"type":"LineString","properties":{"kind":"region","name":"North Central Province","name:si":"\u0d8b\u0dad\u0dd4\u0dbb\u0dd4 \u0db8\u0dd0\u0daf \u0db4\u0dc5\u0dcf\u0dad","sort_rank":256,"kind_detail":"4","name:cs":"St\u0159edosevern\u00ed provincie","source":"openstreetmap.org","min_zoom":8.0,"name:ru":"\u0421\u0435\u0432\u0435\u0440\u043e-\u0426\u0435\u043d\u0442\u0440\u0430\u043b\u044c\u043d\u0430\u044f \u043f\u0440\u043e\u0432\u0438\u043d\u0446\u0438\u044f","name:ta":"\u0bb5\u0b9f \u0bae\u0ba4\u0bcd\u0ba4\u0bbf\u0baf \u0bae\u0bbe\u0b95\u0bbe\u0ba3\u0bae\u0bcd","name:zh":"\u5317\u4e2d\u592e\u7701","id":-4630836,"osm_relation":true,"name:ja":"\u5317\u4e2d\u90e8\u5dde"},"arcs":[5]},{"type":"LineString","properties":{"kind":"region","name:en":"Eastern","name":"Eastern Province","name:si":"\u0db1\u0dd0\u0d9c\u0dd9\u0db1\u0dc4\u0dd2\u0dbb \u0db4\u0dc5\u0dcf\u0dad","sort_rank":256,"kind_detail":"4","name:cs":"V\u00fdchodn\u00ed provincie","source":"openstreetmap.org","min_zoom":8.0,"name:ru":"\u0412\u043e\u0441\u0442\u043e\u0447\u043d\u0430\u044f \u043f\u0440\u043e\u0432\u0438\u043d\u0446\u0438\u044f","name:ta":"\u0b95\u0bbf\u0bb4\u0b95\u0bcd\u0b95\u0bc1 \u0bae\u0bbe\u0b95\u0bbe\u0ba3\u0bae\u0bcd","name:zh":"\u4e1c\u90e8\u7701","id":-4630810,"osm_relation":true,"name:ja":"\u6771\u90e8\u5dde"},"arcs":[6]}]},"roads":{"type":"GeometryCollection","geometries":[{"type":"LineString","properties":{"source":"openstreetmap.org","kind":"major_road","sort_rank":380,"kind_detail":"primary","ref":"B036","min_zoom":8.0},"arcs":[25]},{"type":"LineString","properties":{"source":"openstreetmap.org","kind":"major_road","sort_rank":380,"kind_detail":"primary","ref":"B019","min_zoom":8.0},"arcs":[26]},{"type":"MultiLineString","properties":{"source":"openstreetmap.org","kind":"major_road","sort_rank":381,"kind_detail":"trunk","ref":"A28","min_zoom":8.0},"arcs":[[27],[28],[29],[30],[31],[32],[33],[34],[35],[36],[37],[38]]},{"type":"MultiLineString","properties":{"source":"openstreetmap.org","kind":"major_road","landuse_kind":"urban_area","sort_rank":380,"kind_detail":"primary","min_zoom":8.0},"arcs":[[39],[40],[41],[42],[43],[44],[45],[46]]},{"type":"MultiLineString","properties":{"source":"openstreetmap.org","kind":"major_road","name:si":"\u0db8\u0dc4\u0dd2\u0dba\u0d82\u0d9c\u0db1\u0dba-\u0daf\u0dd2\u0db9\u0dd4\u0dbd\u0dcf\u0d9c\u0dbd-\u0daf\u0dc5\u0dd4\u0d9a\u0dcf\u0db1 \u0db8\u0dcf\u0dbb\u0dca\u0d9c\u0dba","sort_rank":380,"kind_detail":"primary","ref":"AB044","min_zoom":8.0},"arcs":[[47],[48],[49],[50]]},{"type":"LineString","properties":{"kind":"major_road","network":"Pannala_Junction","sort_rank":381,"kind_detail":"trunk","source":"openstreetmap.org","min_zoom":8.0,"shield_text":"15","ref":"A9"},"arcs":[51]},{"type":"LineString","properties":{"kind":"major_road","network":"Pannala_Junction","sort_rank":381,"kind_detail":"trunk","source":"openstreetmap.org","min_zoom":8.0,"shield_text":"15","ref":"A 09"},"arcs":[52]},{"type":"LineString","properties":{"kind":"major_road","sort_rank":380,"landuse_kind":"urban_area","source":"openstreetmap.org","min_zoom":8.0,"kind_detail":"primary","ref":"A 13","id":99090558},"arcs":[53]},{"type":"MultiLineString","properties":{"bus_network":null,"sort_rank":381,"kind_detail":"trunk","kind":"major_road","source":"openstreetmap.org","min_zoom":8.0,"bus_shield_text":"10","ref":"AA001"},"arcs":[[54],[55],[56],[57]]},{"type":"MultiLineString","properties":{"source":"openstreetmap.org","kind":"major_road","sort_rank":381,"kind_detail":"trunk","ref":"AB042","min_zoom":8.0},"arcs":[[58],[59],[60],[61]]},{"type":"MultiLineString","properties":{"kind":"major_road","network":"Pannala_Junction","sort_rank":381,"kind_detail":"trunk","source":"openstreetmap.org","min_zoom":8.0,"shield_text":"15","ref":"A09"},"arcs":[[62],[63]]},{"type":"MultiLineString","properties":{"bus_network":null,"sort_rank":381,"kind_detail":"trunk","kind":"major_road","source":"openstreetmap.org","min_zoom":8.0,"bus_shield_text":"49","ref":"A6"},"arcs":[[64],[65]]},{"type":"MultiLineString","properties":{"bus_network":null,"network":"Pannala_Junction","sort_rank":381,"kind_detail":"trunk","kind":"major_road","source":"openstreetmap.org","min_zoom":8.0,"bus_shield_text":"49","shield_text":"15","ref":"AA009"},"arcs":[[66],[67]]},{"type":"LineString","properties":{"source":"openstreetmap.org","kind":"major_road","sort_rank":381,"kind_detail":"trunk","ref":"A27","min_zoom":8.0},"arcs":[68]},{"type":"MultiLineString","properties":{"source":"openstreetmap.org","kind":"major_road","sort_rank":381,"kind_detail":"trunk","ref":"A10","min_zoom":8.0},"arcs":[[69],[70],[71],[72],[73],[74],[75]]},{"type":"MultiLineString","properties":{"source":"openstreetmap.org","kind":"major_road","sort_rank":381,"kind_detail":"trunk","ref":"AA010","min_zoom":8.0},"arcs":[[76],[77],[78],[79],[80],[81],[82],[83],[84]]},{"type":"MultiLineString","properties":{"source":"openstreetmap.org","kind":"major_road","sort_rank":381,"kind_detail":"trunk","ref":"A5","min_zoom":8.0},"arcs":[[85],[86]]},{"type":"MultiLineString","properties":{"source":"openstreetmap.org","kind":"major_road","landuse_kind":"urban_area","sort_rank":380,"kind_detail":"primary","ref":"B133","min_zoom":8.0},"arcs":[[87],[88]]},{"type":"LineString","properties":{"source":"openstreetmap.org","kind":"major_road","sort_rank":381,"kind_detail":"trunk","ref":"A13","min_zoom":8.0},"arcs":[89]},{"type":"LineString","properties":{"source":"openstreetmap.org","kind":"major_road","sort_rank":381,"kind_detail":"trunk","ref":"A25","min_zoom":8.0,"id":365378251},"arcs":[90]},{"type":"MultiLineString","properties":{"source":"openstreetmap.org","kind":"major_road","sort_rank":381,"kind_detail":"trunk","ref":"AA007","min_zoom":8.0},"arcs":[[91],[92]]},{"type":"MultiLineString","properties":{"bus_network":null,"network":"Pannala_Junction","sort_rank":381,"kind_detail":"trunk","kind":"major_road","source":"openstreetmap.org","min_zoom":8.0,"bus_shield_text":"06","shield_text":"15","ref":"AA006"},"arcs":[[93],[94],[95],[96],[97]]},{"type":"LineString","properties":{"source":"openstreetmap.org","kind":"major_road","sort_rank":380,"kind_detail":"primary","ref":"B 413","min_zoom":8.0},"arcs":[98]},{"type":"MultiLineString","properties":{"sort_rank":381,"source":"openstreetmap.org","min_zoom":8.0,"kind":"major_road","kind_detail":"trunk"},"arcs":[[99],[100],[101],[102],[103],[104],[105],[106],[107],[108],[109],[110],[111],[112],[113],[114],[115],[116],[117],[118],[119],[120],[121],[122],[123],[124],[125],[126],[127],[128],[129],[130],[131],[132],[133],[134],[135],[136],[137],[138],[139],[140],[141],[142],[143],[144],[145],[146],[147],[148],[149],[150],[151],[152],[153],[154],[155],[156],[157],[158],[159],[160],[161],[162],[163],[164],[165],[166],[167],[168],[169],[170],[171],[172],[173],[174],[175],[176],[177],[178],[179],[180],[181],[182],[183],[184],[185],[186],[187],[188],[189]]},{"type":"LineString","properties":{"source":"openstreetmap.org","kind":"major_road","sort_rank":380,"kind_detail":"primary","ref":"B57","min_zoom":8.0,"id":186847177},"arcs":[190]},{"type":"MultiLineString","properties":{"source":"openstreetmap.org","kind":"major_road","sort_rank":381,"kind_detail":"trunk","ref":"AA001","min_zoom":8.0},"arcs":[[191],[192]]},{"type":"LineString","properties":{"source":"openstreetmap.org","kind":"major_road","sort_rank":380,"kind_detail":"primary","ref":"AB01","min_zoom":8.0},"arcs":[193]},{"type":"MultiLineString","properties":{"bus_network":"National","sort_rank":381,"kind_detail":"trunk","kind":"major_road","source":"openstreetmap.org","min_zoom":8.0,"bus_shield_text":"01","ref":"A1"},"arcs":[[194],[195],[196],[197]]},{"type":"LineString","properties":{"source":"openstreetmap.org","kind":"major_road","sort_rank":380,"kind_detail":"primary","ref":"B278","min_zoom":8.0,"id":225071842},"arcs":[198]},{"type":"LineString","properties":{"source":"openstreetmap.org","kind":"major_road","sort_rank":380,"kind_detail":"primary","ref":"AB044","min_zoom":8.0,"id":458363412},"arcs":[199]},{"type":"MultiLineString","properties":{"source":"openstreetmap.org","kind":"major_road","sort_rank":380,"kind_detail":"primary","ref":"A11","min_zoom":8.0},"arcs":[[200],[201]]},{"type":"LineString","properties":{"source":"openstreetmap.org","kind":"major_road","sort_rank":380,"kind_detail":"primary","ref":"AB003","min_zoom":8.0,"id":381745785},"arcs":[202]},{"type":"MultiLineString","properties":{"source":"openstreetmap.org","kind":"major_road","sort_rank":381,"kind_detail":"trunk","ref":"A26","min_zoom":8.0},"arcs":[[203],[204]]},{"type":"LineString","properties":{"source":"openstreetmap.org","kind":"major_road","sort_rank":380,"kind_detail":"primary","ref":"B205","min_zoom":8.0},"arcs":[205]},{"type":"MultiLineString","properties":{"source":"openstreetmap.org","kind":"major_road","kind_detail":"trunk","sort_rank":381,"landuse_kind":"urban_area","ref":"A12","min_zoom":8.0},"arcs":[[206],[207]]},{"type":"LineString","properties":{"bus_network":null,"network":"Pannala_Junction","sort_rank":381,"kind_detail":"trunk","kind":"major_road","source":"openstreetmap.org","min_zoom":8.0,"bus_shield_text":"49","shield_text":"15","ref":"A1"},"arcs":[208]},{"type":"LineString","properties":{"source":"openstreetmap.org","kind":"major_road","sort_rank":380,"kind_detail":"primary","ref":"B057","min_zoom":8.0,"id":186718180},"arcs":[209]},{"type":"LineString","properties":{"bus_network":null,"sort_rank":381,"kind_detail":"trunk","kind":"major_road","source":"openstreetmap.org","min_zoom":8.0,"bus_shield_text":"01","ref":"B518"},"arcs":[210]},{"type":"LineString","properties":{"source":"openstreetmap.org","kind":"major_road","sort_rank":380,"kind_detail":"primary","ref":"B461","min_zoom":8.0},"arcs":[211]},{"type":"LineString","properties":{"source":"openstreetmap.org","kind":"major_road","sort_rank":381,"kind_detail":"trunk","ref":"B518","min_zoom":8.0},"arcs":[212]},{"type":"MultiLineString","properties":{"bus_network":null,"network":"Pannala_Junction","sort_rank":381,"kind_detail":"trunk","kind":"major_road","source":"openstreetmap.org","min_zoom":8.0,"bus_shield_text":"49","shield_text":"15","ref":"AA006"},"arcs":[[213],[214]]},{"type":"LineString","properties":{"source":"openstreetmap.org","kind":"major_road","sort_rank":380,"kind_detail":"primary","ref":"A10","min_zoom":8.0,"id":405085648},"arcs":[215]},{"type":"LineString","properties":{"source":"openstreetmap.org","kind":"major_road","sort_rank":380,"kind_detail":"primary","ref":"B502","min_zoom":8.0,"id":221425376},"arcs":[216]},{"type":"LineString","properties":{"source":"openstreetmap.org","kind":"major_road","sort_rank":381,"kind_detail":"trunk","ref":"AB02","min_zoom":8.0,"id":443166146},"arcs":[217]},{"type":"MultiLineString","properties":{"source":"openstreetmap.org","kind":"major_road","sort_rank":381,"kind_detail":"trunk","ref":"A9","min_zoom":8.0},"arcs":[[218],[219],[220],[221],[222]]},{"type":"MultiLineString","properties":{"source":"openstreetmap.org","kind":"major_road","sort_rank":381,"kind_detail":"trunk","ref":"AA021","min_zoom":8.0},"arcs":[[223],[224],[225],[226],[227],[228],[229],[230]]},{"type":"LineString","properties":{"source":"openstreetmap.org","kind":"major_road","sort_rank":380,"kind_detail":"primary","ref":"B517","min_zoom":8.0,"id":362104277},"arcs":[231]},{"type":"MultiLineString","properties":{"sort_rank":380,"kind_detail":"primary","min_zoom":8.0,"kind":"major_road","source":"openstreetmap.org"},"arcs":[[232],[233],[234],[235],[236],[237],[238],[239],[240],[241],[242],[243],[244],[245],[246],[247],[248],[249],[250],[251],[252],[253],[254],[255],[256],[257],[258],[259],[260],[261],[262],[263],[264],[265],[266],[267],[268],[269],[270],[271],[272],[273],[274],[275],[276],[277],[278],[279],[280],[281],[282],[283],[284],[285],[286],[287],[288],[289],[290],[291],[292],[293],[294],[295],[296],[297],[298],[299],[300]]},{"type":"LineString","properties":{"bus_network":null,"sort_rank":380,"kind_detail":"primary","kind":"major_road","source":"openstreetmap.org","min_zoom":8.0,"bus_shield_text":"34","ref":"B308"},"arcs":[301]},{"type":"LineString","properties":{"kind":"major_road","sort_rank":381,"kind_detail":"trunk","official_name":"Kandy - Kirimetiya Road","source":"openstreetmap.org","min_zoom":8.0,"ref":"B195","id":525136517},"arcs":[302]},{"type":"MultiLineString","properties":{"source":"openstreetmap.org","kind":"major_road","sort_rank":381,"kind_detail":"trunk","ref":"AA006","min_zoom":8.0},"arcs":[[303],[304],[305]]},{"type":"MultiLineString","properties":{"bus_network":null,"sort_rank":381,"kind_detail":"trunk","kind":"major_road","source":"openstreetmap.org","min_zoom":8.0,"bus_shield_text":"87","ref":"A20"},"arcs":[[306],[307],[308]]},{"type":"LineString","properties":{"source":"openstreetmap.org","kind":"major_road","sort_rank":381,"kind_detail":"trunk","ref":"AA026","min_zoom":8.0,"id":489138402},"arcs":[309]},{"type":"MultiLineString","properties":{"source":"openstreetmap.org","kind":"major_road","sort_rank":381,"kind_detail":"trunk","ref":"AA005","min_zoom":8.0},"arcs":[[310],[311],[312]]},{"type":"MultiLineString","properties":{"bus_network":null,"network":"Pannala_Junction","sort_rank":381,"kind_detail":"trunk","kind":"major_road","source":"openstreetmap.org","min_zoom":8.0,"bus_shield_text":"49","shield_text":"15","ref":"A6"},"arcs":[[313],[314]]},{"type":"MultiLineString","properties":{"bus_network":null,"sort_rank":380,"kind_detail":"primary","kind":"major_road","source":"openstreetmap.org","min_zoom":8.0,"bus_shield_text":"34","ref":"B247"},"arcs":[[315],[316],[317]]},{"type":"MultiLineString","properties":{"source":"openstreetmap.org","kind":"major_road","sort_rank":381,"kind_detail":"trunk","ref":"A12","min_zoom":8.0},"arcs":[[318],[319],[320],[321],[322],[323],[324],[325],[326],[327]]},{"type":"LineString","properties":{"kind":"major_road","sort_rank":380,"kind_detail":"primary","bus_network":null,"source":"openstreetmap.org","min_zoom":8.0,"bus_shield_text":"34","ref":"B27;B247","id":404511443},"arcs":[328]},{"type":"MultiLineString","properties":{"source":"openstreetmap.org","kind":"major_road","sort_rank":380,"kind_detail":"primary","ref":"B133","min_zoom":8.0},"arcs":[[329],[330],[331]]},{"type":"MultiLineString","properties":{"source":"openstreetmap.org","kind":"major_road","kind_detail":"trunk","sort_rank":381,"landuse_kind":"urban_area","min_zoom":8.0},"arcs":[[332],[333],[334]]},{"type":"LineString","properties":{"bus_network":null,"sort_rank":381,"kind_detail":"trunk","kind":"major_road","source":"openstreetmap.org","min_zoom":8.0,"bus_shield_text":"10","ref":"A1"},"arcs":[335]},{"type":"LineString","properties":{"source":"openstreetmap.org","kind":"major_road","sort_rank":381,"kind_detail":"trunk","ref":"A09","min_zoom":8.0},"arcs":[336]},{"type":"LineString","properties":{"source":"openstreetmap.org","kind":"major_road","sort_rank":380,"kind_detail":"primary","ref":"AB024","min_zoom":8.0,"id":152353163},"arcs":[337]},{"type":"MultiLineString","properties":{"source":"openstreetmap.org","kind":"major_road","sort_rank":381,"kind_detail":"trunk","ref":"A15","min_zoom":8.0},"arcs":[[338],[339],[340],[341],[342]]},{"type":"LineString","properties":{"source":"openstreetmap.org","kind":"major_road","sort_rank":380,"kind_detail":"primary","ref":"B527","min_zoom":8.0,"id":156935834},"arcs":[343]},{"type":"LineString","properties":{"bus_network":"National","sort_rank":381,"kind_detail":"trunk","kind":"major_road","source":"openstreetmap.org","min_zoom":8.0,"bus_shield_text":"01","ref":"AA001"},"arcs":[344]},{"type":"MultiLineString","properties":{"source":"openstreetmap.org","kind":"major_road","sort_rank":381,"kind_detail":"trunk","ref":"A11","min_zoom":8.0},"arcs":[[345],[346],[347],[348],[349],[350]]},{"type":"MultiLineString","properties":{"source":"openstreetmap.org","kind":"major_road","sort_rank":380,"kind_detail":"primary","ref":"B317","min_zoom":8.0},"arcs":[[351],[352]]},{"type":"MultiLineString","properties":{"bus_network":null,"sort_rank":381,"kind_detail":"trunk","kind":"major_road","source":"openstreetmap.org","min_zoom":8.0,"bus_shield_text":"34","ref":"AA010"},"arcs":[[353],[354]]},{"type":"LineString","properties":{"sort_rank":383,"kind_detail":"motorway","min_zoom":8.0,"kind":"highway","source":"openstreetmap.org"},"arcs":[355]},{"type":"LineString","properties":{"source":"openstreetmap.org","kind":"major_road","sort_rank":380,"kind_detail":"primary","ref":"A 13","min_zoom":8.0,"id":99090558},"arcs":[356]},{"type":"LineString","properties":{"bus_network":null,"network":"Pannala_Junction","sort_rank":381,"kind_detail":"trunk","kind":"major_road","source":"openstreetmap.org","min_zoom":8.0,"bus_shield_text":"49","shield_text":"15","ref":"A09"},"arcs":[357]},{"type":"MultiLineString","properties":{"bus_network":null,"sort_rank":381,"kind_detail":"trunk","kind":"major_road","source":"openstreetmap.org","min_zoom":8.0,"bus_shield_text":"87","ref":"A12"},"arcs":[[358],[359],[360]]},{"type":"MultiLineString","properties":{"source":"openstreetmap.org","kind":"major_road","landuse_kind":"urban_area","sort_rank":380,"kind_detail":"primary","ref":"A13","min_zoom":8.0},"arcs":[[361],[362],[363],[364]]},{"type":"MultiLineString","properties":{"source":"openstreetmap.org","bus_network":null,"bus_shield_text":"49","sort_rank":381,"kind_detail":"trunk","min_zoom":8.0,"kind":"major_road"},"arcs":[[365],[366],[367]]},{"type":"LineString","properties":{"source":"openstreetmap.org","kind":"major_road","sort_rank":380,"kind_detail":"primary","ref":"B492","min_zoom":8.0},"arcs":[368]},{"type":"LineString","properties":{"source":"openstreetmap.org","bus_network":null,"bus_shield_text":"87","sort_rank":381,"kind_detail":"trunk","min_zoom":8.0,"kind":"major_road"},"arcs":[369]},{"type":"MultiLineString","properties":{"source":"openstreetmap.org","kind":"major_road","sort_rank":380,"kind_detail":"primary","ref":"AB013","min_zoom":8.0},"arcs":[[370],[371],[372],[373],[374]]},{"type":"LineString","properties":{"kind":"major_road","network":"Pannala_Junction","sort_rank":381,"kind_detail":"trunk","bus_network":null,"source":"openstreetmap.org","min_zoom":8.0,"bus_shield_text":"06","shield_text":"15","id":311215116},"arcs":[375]},{"type":"MultiLineString","properties":{"bus_network":null,"sort_rank":381,"kind_detail":"trunk","kind":"major_road","source":"openstreetmap.org","min_zoom":8.0,"bus_shield_text":"47","ref":"AA005"},"arcs":[[376],[377],[378]]},{"type":"MultiLineString","properties":{"source":"openstreetmap.org","kind":"major_road","sort_rank":381,"kind_detail":"trunk","ref":"AA026","min_zoom":8.0,"official_name":"Kandy - Mahiyangana - Padiyatalawa Road"},"arcs":[[379],[380],[381],[382],[383],[384]]},{"type":"MultiLineString","properties":{"source":"openstreetmap.org","kind":"major_road","sort_rank":380,"kind_detail":"primary","ref":"B413","min_zoom":8.0},"arcs":[[385],[386],[387],[388],[389],[390]]},{"type":"MultiLineString","properties":{"source":"openstreetmap.org","kind":"major_road","sort_rank":380,"kind_detail":"primary","ref":"B213","min_zoom":8.0},"arcs":[[391],[392],[393]]},{"type":"LineString","properties":{"source":"openstreetmap.org","kind":"major_road","sort_rank":380,"kind_detail":"primary","ref":"B 527","min_zoom":8.0},"arcs":[394]},{"type":"MultiLineString","properties":{"source":"openstreetmap.org","kind":"major_road","sort_rank":381,"kind_detail":"trunk","ref":"AA009","min_zoom":8.0},"arcs":[[395],[396],[397]]},{"type":"LineString","properties":{"kind":"major_road","sort_rank":381,"landuse_kind":"national_park","source":"openstreetmap.org","min_zoom":8.0,"kind_detail":"trunk","ref":"A11","id":48749135},"arcs":[398]},{"type":"LineString","properties":{"source":"openstreetmap.org","kind":"major_road","sort_rank":380,"kind_detail":"primary","ref":"AA019","min_zoom":8.0},"arcs":[399]},{"type":"LineString","properties":{"source":"openstreetmap.org","kind":"major_road","sort_rank":380,"kind_detail":"primary","ref":"B580","min_zoom":8.0,"id":472052262},"arcs":[400]},{"type":"MultiLineString","properties":{"source":"openstreetmap.org","kind":"major_road","sort_rank":381,"kind_detail":"trunk","ref":"A1","min_zoom":8.0},"arcs":[[401],[402],[403]]},{"type":"LineString","properties":{"bus_network":null,"network":"Pannala_Junction","sort_rank":381,"kind_detail":"trunk","kind":"major_road","source":"openstreetmap.org","min_zoom":8.0,"bus_shield_text":"06","shield_text":"15","ref":"A6"},"arcs":[404]},{"type":"LineString","properties":{"source":"openstreetmap.org","kind":"major_road","sort_rank":380,"kind_detail":"primary","ref":"B369","min_zoom":8.0},"arcs":[405]},{"type":"LineString","properties":{"source":"openstreetmap.org","kind":"major_road","sort_rank":380,"kind_detail":"primary","ref":"A9","min_zoom":8.0},"arcs":[406]},{"type":"MultiLineString","properties":{"source":"openstreetmap.org","kind":"major_road","sort_rank":380,"kind_detail":"primary","ref":"B051","min_zoom":8.0},"arcs":[[407],[408]]},{"type":"LineString","properties":{"source":"openstreetmap.org","kind":"major_road","sort_rank":380,"kind_detail":"primary","ref":"B256","min_zoom":8.0},"arcs":[409]},{"type":"MultiLineString","properties":{"source":"openstreetmap.org","kind":"major_road","sort_rank":381,"kind_detail":"trunk","ref":"B365","min_zoom":8.0,"official_name":"Peradeniya - Halloluwa - Katugastota Road"},"arcs":[[410],[411],[412],[413],[414],[415],[416],[417],[418]]},{"type":"MultiLineString","properties":{"source":"openstreetmap.org","kind":"major_road","sort_rank":380,"kind_detail":"primary","ref":"A13","min_zoom":8.0},"arcs":[[419],[420],[421]]},{"type":"LineString","properties":{"source":"openstreetmap.org","kind":"major_road","sort_rank":380,"kind_detail":"primary","ref":"B521","min_zoom":8.0},"arcs":[422]}]},"earth":{"type":"GeometryCollection","geometries":[{"type":"Polygon","properties":{"sort_rank":10,"source":"naturalearthdata.com","kind":"earth","min_zoom":0.0,"id":2260},"arcs":[[423]]},{"type":"Point","properties":{"label_placement":true,"kind":"island","name":"Sri Lanka","area":67343900672,"name:cs":"Cejlon","source":"openstreetmap.org","min_zoom":7.0,"old_name":"Ceylon","id":-7681917,"osm_relation":true},"coordinates":[1472,2552]}]},"landuse":{"type":"GeometryCollection","geometries":[{"type":"Polygon","properties":{"source":"openstreetmap.org","kind":"park","area":58870200,"tier":2,"id":75973169,"min_zoom":8.0,"sort_rank":24},"arcs":[[424]]},{"type":"Polygon","properties":{"kind":"national_park","protect_class":"2","area":401932000,"sort_rank":18,"source":"openstreetmap.org","min_zoom":3.0,"tier":1,"id":-6315786,"osm_relation":true},"arcs":[[425]]},{"type":"Polygon","properties":{"kind":"national_park","protect_class":"2","area":1365289984,"sort_rank":18,"source":"openstreetmap.org","min_zoom":3.0,"tier":1,"id":199462550},"arcs":[[426]]},{"type":"Polygon","properties":{"kind":"park","natural":"wood","area":82437904,"sort_rank":24,"source":"openstreetmap.org","min_zoom":8.0,"tier":2,"id":-7668082,"osm_relation":true},"arcs":[[427],[428]]},{"type":"MultiPolygon","properties":{"source":"naturalearthdata.com","kind":"urban_area","name":"","area":221500070,"sort_rank":11,"min_zoom":4.0},"arcs":[[[429]],[[430]],[[431]],[[432]],[[433]],[[434]]]},{"type":"Polygon","properties":{"kind":"national_park","area":85409800,"sort_rank":18,"source":"openstreetmap.org","min_zoom":8.0,"tier":1,"id":-5683596,"osm_relation":true},"arcs":[[435]]}]}},"type":"Topology","transform":{"translate":[80.15625,7.0136679276],"scale":[0.0003433228,0.00034021]},"arcs":[[[4096,199],[-130,55],[-13,106],[-39,40],[65,141],[90,58],[-88,75],[-12,139],[-116,101],[34,39],[-53,162],[13,84],[-44,26],[49,71],[-65,11],[-142,-74],[-6,-48],[-89,-19],[32,-119],[-61,-36],[-5,-49],[-124,-10],[6,-219],[-109,-66],[-52,118],[12,31],[-73,127],[-27,22],[-50,-27],[-77,132],[21,55],[-53,144],[48,77],[17,250],[-45,50],[-76,-11],[-147,-74],[-107,-96],[-101,-20],[-76,140],[-7,126],[-80,45],[-23,41]],[[2393,1797],[-24,-622],[38,-55],[-19,-93],[117,-387],[-24,-44],[-72,-11],[-30,-48],[-89,2],[55,-117],[-2,-44],[-23,10],[-11,-21],[4,-28],[42,-21],[-39,-60],[40,-70],[-105,-116],[-15,-72]],[[1001,2359],[-47,20],[-43,79],[32,80],[-41,81],[-14,119],[-40,29],[-40,-21],[-44,16],[22,28],[-37,252],[-126,27],[-181,175],[-121,-5],[-41,50],[-109,32],[-23,29],[-55,-6],[-13,32],[-80,25]],[[0,815],[84,-87],[40,-10],[234,178],[109,8],[14,22],[49,-22],[34,53],[-22,35],[40,29],[-27,78],[133,26],[56,-39],[9,-79],[89,3],[34,-21],[-16,34],[60,94],[-32,50],[27,6],[104,-77],[35,8],[-4,72],[115,15],[-46,91],[75,23],[-4,35],[34,27],[-8,89],[-31,14],[-30,110],[28,64],[37,6],[-18,56],[26,32],[-35,77],[-49,32],[2,186],[-38,10],[2,89],[-51,98],[-60,30],[2,99]],[[2426,2081],[175,-8],[57,35],[74,-17],[68,-103],[292,-123],[14,70],[49,23],[-17,124],[23,50],[-42,123],[-6,125],[34,283],[47,49],[64,1],[42,29],[54,-27],[94,0],[0,57],[-98,214],[15,654],[-85,16],[-48,-48],[9,-19],[-54,-25],[-52,-205],[-115,-15],[59,83],[-26,13],[-15,139],[-96,10],[-78,77],[-99,-14],[-81,45],[-121,22],[-138,-17],[-25,116],[-82,30],[-33,58],[-29,8],[-19,-24],[9,107],[49,99]],[[1001,2359],[0,29],[71,4],[119,63],[31,57],[42,-3],[28,-34],[67,38],[0,41],[47,18],[-19,34],[63,44],[14,132],[68,-10],[69,103],[146,60],[68,-51],[-3,-78],[28,-17],[31,-6],[1,47],[46,21],[32,-36],[80,-25],[-56,-25],[-42,-88],[-25,-213],[-25,-88],[-26,-14],[6,-36],[-78,-8],[-22,-30],[8,-171],[31,-94],[-14,-34],[-12,14],[-13,2],[51,-52],[76,5],[13,-24],[80,28],[48,59],[7,-30],[43,-4],[19,-29],[20,104],[128,-20],[179,39]],[[2426,2081],[16,-177],[-49,-107]],[[348,2376],[162,28],[12,40],[101,35],[105,120],[91,34],[43,116],[88,90],[75,28],[12,51],[55,50],[-14,61],[72,43],[353,30],[181,-60],[87,32],[37,-12],[54,106],[122,154],[27,5],[90,-47],[29,-176],[126,-19],[44,-38],[136,-175],[71,-39],[7,-75],[116,-136],[80,23],[175,-16],[407,161],[271,9],[326,-64],[170,-127],[24,-30],[-13,-152],[26,-62]],[[3034,2674],[-11,-16]],[[427,934],[-15,151],[119,161],[87,52],[5,58],[27,14],[2,77],[-27,123],[-60,118],[-32,341],[-54,136],[-56,45],[-111,200],[-48,317],[64,111],[6,101],[42,112],[-24,112],[22,95],[51,48],[10,71],[88,62],[2,66],[93,153],[30,135],[89,88],[37,171]],[[774,4052],[28,44]],[[1265,708],[124,107],[-1,115],[146,63],[-147,210],[-22,133]],[[427,934],[98,-25]],[[2554,4096],[-69,-139],[-160,-158],[-93,-246],[-161,-249]],[[764,3954],[81,2],[59,75],[73,-9],[29,-69]],[[3884,609],[138,-5],[28,-12],[-4,-30],[-44,-85],[-7,-11],[-3,-9],[0,-24],[-5,-16],[-18,-51],[-7,-16],[-30,-14],[-7,28],[7,107],[-6,23],[-18,-1],[-36,-31],[-16,-32],[-19,-88],[-16,-31],[-57,-13],[-42,-3],[-29,6],[33,27],[68,78],[27,15],[10,23],[-8,46],[-33,43],[-57,9],[-28,-13],[-58,-39],[-25,-8],[-32,9],[-18,21],[-3,21],[13,9],[58,8],[92,31],[61,1],[-25,40],[-9,41],[13,36],[38,27],[0,-42],[21,-52],[53,-23]],[[4096,2767],[-5,10],[-1,18],[0,18],[6,15],[0,-61]],[[4096,2885],[-5,12],[-15,-11],[-30,-15],[-15,-12],[-2,13],[-3,6],[-1,2],[-6,7],[-6,10],[13,15],[-13,27],[-9,-13],[-18,-14],[-15,-15],[-36,83],[-21,35],[-32,36],[-24,40],[-24,106],[-5,10],[-19,33],[-18,0],[-17,-63],[-49,-4],[-51,38],[-24,61],[-5,9],[0,1],[-25,7],[-9,12],[-5,17],[0,15],[3,8],[2,-1],[-4,30],[4,93],[21,0],[44,-123],[5,-17],[29,-121],[53,73],[-23,134],[-61,206],[-9,30],[-6,48],[-4,13],[-22,78],[-18,112],[-32,15],[-39,0],[-1,0],[-17,8],[-20,9],[-16,37],[-1,7],[-14,95],[1,22],[34,-17],[39,-78],[37,-26],[-2,40],[-1,39],[-15,49],[522,0],[0,-1211]],[[2872,2898],[18,-29],[6,-31],[-16,-62],[-167,-201],[-8,-19],[-16,-12],[-14,-56],[-11,-13],[-8,-3],[-71,-26],[-45,-34],[-42,-20],[-37,-25],[-26,-52],[-10,42],[18,47],[31,37],[30,14],[55,8],[38,22],[29,32],[246,381]],[[1905,776],[11,7],[-5,-24],[0,-16],[5,-17],[-14,-35],[-6,-46],[-33,11],[-25,15],[-41,33],[19,-30],[38,-92],[-28,-62],[-21,-23],[-31,-15],[36,75],[-19,60],[-42,17],[-34,-52],[-27,5],[-26,-9],[-27,4],[-8,11],[-4,16],[-12,14],[-35,1],[23,19],[21,11],[20,1],[15,-10],[40,39],[26,-17],[10,10],[0,18],[-6,9],[-30,3],[-22,6],[-18,7],[-81,22],[-53,22],[-41,38],[-24,63],[20,-20],[35,-27],[51,-25],[147,-50],[20,3],[8,27],[14,13],[32,-16],[34,-25],[19,-19],[-5,38],[-15,22],[-42,38],[-16,26],[-43,95],[19,-5],[20,-10],[14,-16],[6,-20],[4,-23],[9,-2],[13,3],[15,-7],[28,-21],[25,-13],[13,-21],[-5,-45],[29,11]],[[4096,2767],[-5,10],[-1,18],[0,18],[6,15]],[[4096,2885],[-5,12],[-15,-11],[-30,-15],[-15,-12],[-2,13],[-3,6],[-1,2],[-6,7],[-6,10],[13,15],[-13,27],[-9,-13],[-18,-14],[-15,-15],[-36,83],[-21,35],[-32,36],[-24,40],[-24,106],[-5,10],[-19,33],[-18,0],[-17,-63],[-49,-4],[-51,38],[-24,61],[-5,9],[0,1],[-25,7],[-9,12],[-5,17],[0,15],[3,8],[2,-1],[-4,30],[4,93],[21,0],[44,-123],[5,-17],[29,-121],[53,73],[-23,134],[-61,206],[-9,30],[-6,48],[-4,13],[-22,78],[-18,112],[-32,15],[-39,0],[-1,0],[-17,8],[-20,9],[-16,37],[-1,7],[-14,95],[1,22],[34,-17],[39,-78],[37,-26],[-2,40],[-1,39],[-15,49]],[[2872,2898],[18,-29],[6,-31],[-16,-62],[-167,-201],[-8,-19],[-16,-12],[-14,-56],[-11,-13],[-8,-3],[-71,-26],[-45,-34],[-42,-20],[-37,-25],[-26,-52],[-10,42],[18,47],[31,37],[30,14],[55,8],[38,22],[29,32],[246,381]],[[1905,776],[11,7],[-5,-24],[0,-16],[5,-17],[-14,-35],[-6,-46],[-33,11],[-25,15],[-41,33],[19,-30],[38,-92],[-28,-62],[-21,-23],[-31,-15],[36,75],[-19,60],[-42,17],[-34,-52],[-27,5],[-26,-9],[-27,4],[-8,11],[-4,16],[-12,14],[-35,1],[23,19],[21,11],[20,1],[15,-10],[40,39],[26,-17],[10,10],[0,18],[-6,9],[-30,3],[-22,6],[-18,7],[-81,22],[-53,22],[-41,38],[-24,63],[20,-20],[35,-27],[51,-25],[147,-50],[20,3],[8,27],[14,13],[32,-16],[34,-25],[19,-19],[-5,38],[-15,22],[-42,38],[-16,26],[-43,95],[19,-5],[20,-10],[14,-16],[6,-20],[4,-23],[9,-2],[13,3],[15,-7],[28,-21],[25,-13],[13,-21],[-5,-45],[29,11]],[[3884,609],[138,-5],[28,-12],[-4,-30],[-44,-85],[-7,-11],[-3,-9],[0,-24],[-5,-16],[-18,-51],[-7,-16],[-30,-14],[-7,28],[7,107],[-6,23],[-18,-1],[-36,-31],[-16,-32],[-19,-88],[-16,-31],[-57,-13],[-42,-3],[-29,6],[33,27],[68,78],[27,15],[10,23],[-8,46],[-33,43],[-57,9],[-28,-13],[-58,-39],[-25,-8],[-32,9],[-18,21],[-3,21],[13,9],[58,8],[92,31],[61,1],[-25,40],[-9,41],[13,36],[38,27],[0,-42],[21,-52],[53,-23]],[[2631,0],[9,89],[-58,225],[45,86],[-28,90],[-87,49],[-15,42],[52,33]],[[330,2882],[-88,56],[-103,-20],[-43,-33],[-96,12]],[[189,1886],[63,126],[33,208],[-40,281],[24,84],[-27,81],[71,147],[62,237],[-32,112],[76,211]],[[419,3374]],[[419,3374],[0,-1]],[[419,3374],[60,50],[87,170]],[[567,3594],[-1,0]],[[566,3594]],[[567,3595]],[[567,3595]],[[567,3595],[89,247]],[[657,3843],[-1,-1]],[[419,3373],[0,1],[0,-1]],[[566,3594],[0,1],[1,0],[0,-1],[-1,0]],[[674,3860],[13,20]],[[718,3876],[-4,2]],[[718,3875],[0,1]],[[718,3876],[1,-1]],[[719,3875],[1,-1]],[[732,3865],[0,1],[0,-1]],[[741,3859],[-1,0],[0,1],[1,-1]],[[751,3852]],[[2597,1789],[-36,-229],[-47,-40],[-20,-189],[-41,-104],[-29,-10],[16,-244]],[[2440,960],[0,13]],[[2440,973],[0,-13]],[[2863,2556],[-4,-26],[-82,-31],[-15,-79],[-79,-53],[-44,-142],[-52,-21],[-81,-126],[7,-84],[91,-121],[-6,-84]],[[1002,3705],[59,-76],[25,-199],[98,-156]],[[1288,3016],[-4,3]],[[777,3810],[14,-44]],[[1275,736],[-3,0]],[[1275,736],[8,11]],[[1283,747],[25,10]],[[1317,763],[-8,-4]],[[1345,778],[-36,-20]],[[1309,758],[36,20]],[[1368,794],[-23,-16]],[[1394,821],[-26,-27]],[[1284,3019],[-100,255]],[[1443,2561],[-155,455]],[[1443,2561],[66,69],[236,386]],[[1746,3017],[358,521],[78,66],[355,492]],[[1441,2530],[-4,24],[5,-24]],[[1442,2529],[-2,-19],[2,18]],[[3557,1565],[359,-82],[180,29]],[[261,1783],[-98,144],[-163,135]],[[261,1782],[0,1]],[[261,1783],[1,-1]],[[263,1781],[-1,0]],[[262,1781],[1,0]],[[554,1437],[-291,344]],[[261,1782],[1,0],[0,-1],[0,1],[-1,0]],[[556,1435],[36,-35]],[[599,1396],[-7,4]],[[592,1400],[7,-3]],[[611,1391],[-3,0]],[[634,1366],[-21,23]],[[1167,957],[-112,156],[-313,210],[-108,43]],[[1359,908],[-192,49]],[[1365,907],[-6,1]],[[1359,908],[6,-1]],[[3050,0],[9,185],[30,46],[-32,34],[104,373],[-42,190],[-16,192],[19,66],[94,173],[341,306]],[[3901,1804],[5,-30]],[[1593,3545],[19,92]],[[1657,3826],[-33,-127]],[[923,3804],[78,-99]],[[4028,0],[-22,61],[78,117],[-11,83],[23,38]],[[308,0],[-2,28]],[[307,29],[94,28],[33,-57]],[[552,1298],[17,52]],[[596,1376],[-27,-26]],[[569,1350],[27,26]],[[596,1376],[12,15]],[[608,1391],[-12,-15]],[[1870,228],[-42,161]],[[188,1887],[1,1]],[[262,1782]],[[262,1781],[0,1]],[[306,29],[0,-1],[0,1]],[[306,29],[0,1],[0,-1]],[[307,29],[-1,0]],[[332,2886],[2,1]],[[419,3373]],[[522,698],[22,-9]],[[538,702]],[[540,703]],[[542,703]],[[544,703]],[[546,690],[0,1],[0,-1]],[[547,690],[-1,0]],[[546,690],[1,0]],[[617,696],[-70,-6]],[[559,705]],[[612,1390]],[[612,1390],[1,0],[-1,0]],[[613,1390],[0,-1],[0,1]],[[655,3843],[1,0]],[[656,3842],[-1,0]],[[656,3843],[1,1]],[[658,3844],[0,-1]],[[737,3906]],[[737,3906],[0,-1]],[[738,3906],[-1,0]],[[738,3907],[1,-1]],[[739,3906],[-1,0]],[[738,3906],[-1,0],[0,1],[1,-1]],[[744,3906],[-5,0]],[[758,3945],[1,0]],[[763,3945],[0,1]],[[835,3941],[88,-137]],[[994,3950],[1,0]],[[995,3950],[2,0]],[[1001,3705],[1,0]],[[1002,3705],[-1,0],[1,0]],[[1002,3705],[0,-1]],[[1212,450],[0,1],[0,-1]],[[1212,450],[1,0],[-1,0]],[[1270,760]],[[1270,776],[0,1]],[[1276,775],[0,-1]],[[1283,773]],[[1283,3020],[1,0]],[[1284,3019],[1,-1]],[[1300,764]],[[1308,758],[-4,3]],[[1304,761],[5,-3]],[[1360,1332],[0,30]],[[1361,1329],[-1,1]],[[1369,906],[0,-1]],[[1394,862],[6,7]],[[1394,821]],[[1394,821],[0,1],[1,0]],[[1397,821],[3,16]],[[1419,818],[1,-4]],[[1434,239]],[[1442,2528],[-1,1]],[[1442,2529],[-1,0]],[[1441,2530],[1,0]],[[1745,3016],[1,1]],[[2437,960],[7,0]],[[2458,2721],[0,1]],[[2458,2722],[1,0]],[[2460,2722],[-1,-1]],[[3974,2652],[1,0]],[[3976,2652],[1,-1]],[[3977,2741],[2,1]],[[306,29]],[[329,174],[0,1],[0,-1]],[[546,690]],[[546,690]],[[546,690]],[[608,1392],[0,-1],[0,1]],[[634,1366]],[[656,3842],[0,1],[0,-1]],[[657,3843],[0,1],[0,-1]],[[762,3945],[1,0],[-1,0]],[[1212,450]],[[1284,3019]],[[1308,758],[1,0],[-1,0]],[[1361,1330],[0,-1],[0,1]],[[1394,822],[1,0],[0,-1],[-1,1]],[[1486,787]],[[2437,959],[0,1],[0,-1]],[[2459,2721],[-1,0],[0,1],[1,0]],[[2459,2722],[0,-1]],[[3975,2652],[1,0],[-1,0]],[[2936,472],[69,21],[109,-61]],[[1309,758],[-1,0]],[[1309,758]],[[4045,605],[51,9]],[[160,669],[20,-31],[44,25],[34,-24],[197,10],[28,9],[4,41],[86,9],[29,-12],[23,1],[18,5]],[[643,702],[80,13],[41,-28],[106,6]],[[643,702]],[[1154,741],[118,-5]],[[837,696],[13,4]],[[2598,1789],[-1,0]],[[2183,3015]],[[2352,2855],[1,0]],[[1213,439],[-7,1]],[[2435,959],[-89,39],[-99,-34],[-37,46],[-17,-92],[-35,29],[-73,-57],[-24,-66],[-224,-48],[-125,148]],[[2444,960],[79,-17],[90,57],[96,118],[52,15],[133,-34],[228,-13]],[[1369,916],[135,7],[4,19]],[[719,3874],[-42,-32]],[[720,3877],[-1,-2]],[[0,544],[44,8],[116,117]],[[2493,890],[-15,22],[-44,-3],[2,49]],[[1402,816],[30,-13]],[[1531,1004],[4,181]],[[1403,821],[-1,-5]],[[1437,2522],[-29,-39]],[[1442,2529],[-1,0]],[[1167,957]],[[2937,2452],[-26,72],[-62,45],[-25,53]],[[737,3905],[-12,-22]],[[1362,1329],[-1,0]],[[1362,1329],[-1,377],[45,68],[-3,159]],[[1369,916],[-32,71],[-23,193],[71,73],[-23,76]],[[1400,869],[-27,34]],[[1394,862],[9,-41]],[[306,30],[-22,67],[44,77]],[[330,174],[-2,0]],[[328,174],[1,0]],[[329,174],[1,0]],[[544,688],[59,-119],[7,-197],[-111,-23],[24,-81],[-165,-113],[-28,19]],[[546,691],[-2,12]],[[546,690],[-2,-2]],[[544,688],[2,2]],[[2578,1933],[55,57]],[[406,1319],[-8,1]],[[578,1384],[3,3]],[[657,3844],[1,0]],[[658,3844]],[[658,3844],[16,16]],[[687,3880],[2,3]],[[714,3878],[-9,4]],[[813,701],[-1,-1]],[[814,700],[23,-4]],[[850,700],[5,-2]],[[855,698],[1,0]],[[856,698]],[[856,698]],[[856,698],[0,1]],[[857,698],[-1,0]],[[1002,3705],[0,1]],[[1032,3948],[2,9]],[[1105,101],[1,0]],[[1194,403]],[[1212,450]],[[1283,3019],[1,0]],[[1391,813],[-3,-2]],[[1391,818],[1,-4]],[[1392,814],[1,-1]],[[1393,814],[-1,0]],[[1392,814],[-1,-1]],[[1392,812],[-1,1]],[[1392,812],[1,1]],[[1393,813],[-1,-1]],[[1393,813]],[[1395,817],[-2,-1]],[[1393,813],[4,-2]],[[1395,821],[-1,0]],[[1395,820],[0,1]],[[1402,816],[-5,-5]],[[1397,811]],[[1743,587],[1,0]],[[1744,586]],[[1744,586]],[[1744,586],[-1,0]],[[1744,586]],[[1744,587],[0,-1]],[[2001,448],[-23,7],[0,36],[-90,47],[-20,79],[-57,-29],[-24,38],[-9,-37],[-24,20],[-10,-22]],[[2162,3087],[0,90],[-83,125],[-95,35]],[[2183,3015],[65,-18],[73,24]],[[2497,577],[-68,1],[-55,-45],[-75,-12]],[[2459,2721],[-1,-73]],[[2458,2648],[0,1]],[[2458,2649],[46,16],[38,29]],[[2542,2694],[8,6]],[[2458,2649],[0,-1]],[[2458,2648]],[[2459,2721],[-1,0]],[[2459,2721]],[[2481,2729],[-22,-11]],[[2936,472],[-195,228],[-155,94],[-61,2],[-32,94]],[[2532,2711],[10,-17]],[[2542,2694],[3,-5],[13,-1]],[[2633,1990],[73,118],[162,26],[109,82]],[[3087,2068],[-61,107],[-47,6],[22,213],[-64,58]],[[3088,2067],[3,-148],[37,-60],[6,-85],[152,-127],[188,-62],[21,-64]],[[3629,3572],[-1,0]],[[4092,614],[0,1]],[[578,1384],[0,-1],[0,1]],[[690,3883],[-1,0],[1,0]],[[701,3883]],[[1744,586]],[[1744,586]],[[1744,586]],[[0,1062],[146,91],[23,73]],[[1420,814],[12,-11]],[[608,1392],[32,20],[-32,-20]],[[1441,2529],[-5,-8],[-28,-38]],[[1437,2522],[4,7]],[[758,3945],[1,1]],[[759,3946],[93,150]],[[759,3946],[0,-1]],[[2444,960],[-7,-1]],[[3906,1774],[-68,-81],[-168,-40],[-113,-88]],[[3927,1937],[-26,-133]],[[4096,2146],[-168,-208]],[[160,669],[26,87],[60,68]],[[1408,2483],[-111,-187],[-145,-171],[-32,-137],[-161,-219],[-104,-199],[-62,-78],[-153,-80]],[[169,1226],[405,154]],[[575,1380],[3,3]],[[581,1387],[18,9]],[[656,3842],[-1,1]],[[677,3842],[-19,1]],[[725,3883],[-5,-6]],[[744,3906],[0,4]],[[745,3906],[17,38]],[[762,3945],[0,-1]],[[763,3945],[-1,-1]],[[762,3946],[233,4]],[[995,3950],[450,146]],[[995,3950],[1,0],[-1,0]],[[574,1380],[1,0]],[[1403,3163],[-11,133],[201,249]],[[1624,3699],[-12,-62]],[[1726,4096],[-69,-270]],[[718,3874],[0,1]],[[719,3875],[1,1]],[[719,3875],[0,-1],[-1,1],[1,0]],[[1390,822],[-73,-59]],[[1403,1933],[46,81],[21,267],[-30,229]],[[1422,2502],[23,-13]],[[3246,4096],[87,-71],[-46,-54],[46,-115],[116,-93],[89,-27],[3,-102],[97,-101],[24,-144],[51,-52],[25,-139],[99,-200],[126,-183],[16,-72],[-46,-5],[42,-86]],[[3975,2652],[38,-24],[13,-129]],[[4026,2499]],[[4026,2499],[51,-133]],[[4077,2366],[19,-19]],[[4029,738],[63,-123]],[[870,693],[284,48]],[[1184,3274],[115,-92],[165,-17],[217,-135],[64,-13]],[[1746,3016],[171,-27]],[[1959,3006],[22,66],[77,-30],[38,55],[77,-15],[10,-67]],[[2183,3015],[19,-101],[31,11],[8,-33],[111,-37]],[[2353,2855],[82,-74],[23,-59]],[[2459,2722],[86,-14],[82,-86],[32,0],[67,22],[151,-19],[413,165],[284,7],[359,-59]],[[1105,101],[-3,21]],[[1279,0],[-2,4],[-52,13],[-52,73],[-67,11]],[[608,1391],[-9,5]],[[599,1397],[9,-5]],[[1337,736],[-1,1],[1,0],[0,-1]],[[791,3766],[35,-1],[26,32]],[[1437,2554],[6,7]],[[0,3616],[8,6],[609,234],[38,-13]],[[762,3945],[-3,0]],[[761,3945],[1,0]],[[732,3866],[-13,8]],[[740,3860],[-8,5]],[[751,3852],[-10,7]],[[777,3810],[-26,42]],[[1441,2529],[0,1]],[[1442,2530],[0,-1]],[[1746,3017],[-1,-1]],[[2299,521],[-66,25],[-69,-84],[18,-48],[-61,-18],[1,40],[-23,4],[-71,-54],[-27,62]],[[759,3945],[2,0]],[[1194,403],[-6,-133],[-86,-148]],[[1191,430],[0,-3]],[[1191,427],[0,2],[0,1]],[[1191,427],[3,-24]],[[1191,430],[21,19]],[[596,1376]],[[1272,736],[14,-198],[-74,-87]],[[1434,239],[-40,62],[-69,-13],[-39,69],[-36,3],[-37,90]],[[1434,239],[146,-107],[3,-55],[21,5],[70,-82]],[[1485,788],[-66,30]],[[1486,787],[-1,1]],[[1485,788],[1,-1]],[[1486,787],[1,0]],[[1487,787],[-1,0]],[[1487,787],[83,-3],[51,25],[25,-17],[66,132]],[[1486,786],[0,1]],[[1486,787],[0,-1]],[[1486,786],[174,-67],[15,-34],[-29,-18],[68,-11],[30,-71]],[[1744,586],[0,-1]],[[1744,585],[28,-88],[35,-17],[21,-91]],[[2033,19],[73,108],[-68,116],[19,56],[-55,43],[-100,-34],[-32,-80]],[[567,3594]],[[567,3595],[0,-1]],[[1284,3019],[-194,86],[-39,66],[-307,152],[-108,122],[-69,149]],[[4029,738],[-51,55],[-28,-17],[-49,16],[-66,129],[-48,30],[-41,-7],[-143,-68],[-64,-159],[-40,18],[-118,-75],[-36,-152],[-100,-75],[-87,7],[-4,-27],[-44,4]],[[1365,907],[1,0],[3,-1]],[[1369,905],[-4,2]],[[1442,2528],[-1,1]],[[1917,2989],[42,17]],[[512,697],[-48,207],[-44,40]],[[2549,614],[61,138],[-27,41]],[[573,708],[-39,-7]],[[1390,822],[4,0]],[[1395,822],[8,-1]],[[246,824],[174,123],[132,351]],[[1531,1004],[-23,-62]],[[1002,3705],[3,180],[31,64],[-25,147]],[[599,1397],[9,4]],[[609,1396],[3,-5]],[[1507,926],[178,-87]],[[1270,756],[2,21]],[[1272,777],[6,-3]],[[1278,774],[25,-12]],[[1303,762],[1,-1]],[[1304,761],[-1,1]],[[1303,762],[-3,2],[-22,10]],[[1278,774],[-6,3]],[[1272,777],[-2,-21]],[[1270,756],[1,-15]],[[690,3883],[11,0]],[[705,3882],[-4,1]],[[923,3804],[-71,-7]],[[1402,816],[-8,5]],[[3574,4096],[15,-49],[1,-39],[2,-40],[-37,26],[-39,78],[-34,17],[-1,-22],[14,-95],[1,-7],[16,-37],[20,-9],[17,-8],[1,0],[39,0],[32,-15],[18,-112],[22,-78],[4,-13],[6,-48],[9,-30],[61,-206],[23,-134],[-53,-73],[-29,121],[-5,17],[-44,123],[-21,0],[-4,-93],[4,-30],[-2,1],[-3,-8],[0,-15],[5,-17],[9,-12],[25,-7],[0,-1],[5,-9],[24,-61],[51,-38],[49,4],[17,63],[18,0],[19,-33],[5,-10],[24,-106],[24,-40],[32,-36],[21,-35],[36,-83],[15,15],[18,14],[9,13],[13,-27],[-13,-15],[6,-10],[6,-7],[1,-2],[3,-6],[2,-13],[15,12],[30,15],[15,11],[5,-12],[0,-57],[-6,-15],[0,-18],[1,-18],[5,-10],[0,-2767],[-4096,0],[0,4096],[3574,0]],[[2093,3317],[70,177],[130,-4],[-46,-284],[-113,23],[-4,49],[-37,39]],[[1995,2104],[60,206],[38,-1],[15,114],[32,30],[143,40],[141,3],[58,46],[101,-18],[58,18],[-11,-79],[-109,-4],[-116,-106],[16,-373],[25,-83],[-60,-125],[-133,-20],[-38,45],[-55,-16],[-143,95],[20,175],[-42,53]],[[0,4096],[10,0],[-10,-40],[0,40]],[[2111,2701],[81,84],[9,65],[84,-73],[-12,-33],[142,-25],[-38,-59],[-24,25],[-10,-31],[-12,27],[-23,-25],[29,-53],[-28,15],[-18,-4],[46,-45],[-70,-20],[-28,-69],[-52,-7],[-41,62],[-35,166]],[[2295,2715],[10,-4],[4,19],[-8,-5],[-6,-10]],[[2482,2868],[-65,33],[97,131],[65,-33],[-97,-131]],[[2417,3156],[-32,-59],[-84,23],[-17,36],[79,74],[35,-16],[19,-58]],[[2451,3255],[-79,28],[-19,76],[104,11],[122,-44],[-41,-55],[-87,-16]],[[767,3718],[-76,54],[-21,109],[75,-6],[40,-44],[8,-61],[-26,-52]],[[2534,3918],[-52,-5],[13,102],[84,30],[-13,-102],[-32,-25]],[[1823,3814],[25,-53],[-13,-43],[-32,0],[0,-66],[-173,-129],[-54,31],[20,79],[77,20],[-100,95],[3,68],[115,14],[65,85],[67,-101]],[[1826,2907],[79,29],[-20,41],[81,32],[15,63],[76,-31],[43,54],[70,-17],[-44,-230],[-51,10],[-51,-59],[-75,19],[-32,35],[-46,-19],[-45,73]]]}