{"objects":{"water":{"type":"GeometryCollection","geometries":[{"type":"MultiPolygon","properties":{"source":"naturalearthdata.com","kind":"ocean","area":1576712559132672,"sort_rank":200,"min_zoom":0.0,"id":1},"arcs":[[[22]],[[23]]]},{"type":"MultiLineString","properties":{"source":"naturalearthdata.com","kind":"ocean","sort_rank":205,"boundary":true,"min_zoom":0.0,"id":2040},"arcs":[[24],[25]]}]},"buildings":{"type":"GeometryCollection","geometries":[]},"places":{"type":"GeometryCollection","geometries":[{"type":"Point","properties":{"name:ka":"\u10d0\u10e6\u10db\u10dd\u10e1\u10d0\u10d5\u10da\u10d4\u10d7\u10d8 \u10e2\u10d8\u10db\u10dd\u10e0\u10d8","name:mt":"Timor tal-Lvant","name:ko":"\ub3d9\ud2f0\ubaa8\ub974","name:kn":"\u0c88\u0cb8\u0ccd\u0c9f\u0ccd \u0c9f\u0cbf\u0cae\u0ccb\u0cb0\u0ccd","name:km":"\u1791\u17b8\u1798\u17d0\u179a\u200b\u1781\u17b6\u1784\u200b\u1780\u17be\u178f","name:kl":"Timor Kangilliit","name:cs":"V\u00fdchodn\u00ed Timor","name:ki":"Timori ya Mashariki","name:tr":"Do\u011fu Timor","name:ku":"T\u00eemora Rojhilat","name:ti":"\u121d\u1235\u122b\u1245 \u1272\u121e\u122d","name:ks":"\u0645\u064e\u0634\u0631\u0650\u0642\u06cc \u062a\u0627\u06cc\u0645\u0648\u0631","name:to":"Timoa Hahake","name:tl":"Silangang Timor","name:sv":"\u00d6sttimor","name:or":"\u0b2a\u0b41\u0b30\u0b4d\u0b2c \u0b24\u0b3f\u0b2e\u0b4b\u0b30\u0b4d","name:pl":"Timor Wschodni","name:ta":"\u0b95\u0bbf\u0bb4\u0b95\u0bcd\u0b95\u0bc1 \u0ba4\u0bc8\u0bae\u0bcb\u0bb0\u0bcd","name:tg":"\u0422\u0438\u043c\u043e\u0440\u0438 \u0428\u0430\u0440\u049b\u04e3","name:ca":"Timor Oriental","name:te":"\u0c24\u0c42\u0c30\u0c4d\u0c2a\u0c41 \u0c1f\u0c3f\u0c2e\u0c4b\u0c30\u0c4d","name:hu":"Kelet-Timor","name:ro":"Timorul de Est","name:cy":"Dwyrain Timor","name:hr":"Isto\u010dni Timor","name:da":"\u00d8sttimor","name:de":"Osttimor","name:dz":"\u0f64\u0f62\u0f0b\u0f55\u0fb1\u0f7c\u0f42\u0f66\u0f0b\u0f4f\u0f72\u0f0b\u0f0b\u0f58\u0f7c\u0f62","source":"openstreetmap.org","name:lv":"Austrumtimora","name:lt":"Ryt\u0173 Timoras","name:hi":"\u092a\u0942\u0930\u094d\u0935\u0940 \u0924\u093f\u092e\u094b\u0930","name:he":"\u05de\u05d6\u05e8\u05d7 \u05d8\u05d9\u05de\u05d5\u05e8","kind":"country","name:ur":"\u0645\u0634\u0631\u0642\u06cc \u062a\u06cc\u0645\u0648\u0631","name:la":"Timoria Orientalis","name:lg":"Timowa","name:uk":"\u0421\u0445\u0456\u0434\u043d\u0438\u0439 \u0422\u0438\u043c\u043e\u0440","min_zoom":2.0,"name:li":"Oos-Timor","name:ln":"Timor ya mony\u025bl\u025b","name:lo":"\u0e95\u0eb5\u0ea1\u0ecd \u0e95\u0eb2\u0ec0\u0ea7\u0eb1\u0e99\u0ead\u0ead\u0e81","population":1115000,"name:el":"\u0391\u03bd\u03b1\u03c4\u03bf\u03bb\u03b9\u03ba\u03cc \u03a4\u03b9\u03bc\u03cc\u03c1","name:eo":"Orienta Timoro","name:en":"East Timor","name":"Timor-Leste","official_name":"Rep\u00fablika Demokr\u00e1tika Timor Lorosa'e;Rep\u00fablica Democr\u00e1tica de Timor-Leste","name:ee":"\u0194edze\u0192e Tim\u0254 nutome","name:th":"\u0e1b\u0e23\u0e30\u0e40\u0e17\u0e28\u0e15\u0e34\u0e21\u0e2d\u0e23\u0e4c\u0e15\u0e30\u0e27\u0e31\u0e19\u0e2d\u0e2d\u0e01","name:gu":"\u0aaa\u0ac2\u0ab0\u0acd\u0ab5 \u0aa4\u0abf\u0aae\u0acb\u0ab0","name:eu":"Timor ekialdea","name:et":"Ida-Timor","name:nl":"Oost-Timor","name:es":"Timor Oriental","name:ia":"Timor del Est","name:rm":"Timor da l'Ost","name:rn":"Timoru y'iburasirazuba","name:az":"\u015e\u0259rq Timor","name:id":"Timor Leste","name:ms":"Timor Timur","name:mr":"\u092a\u0942\u0930\u094d\u0935 \u0924\u093f\u092e\u094b\u0930","name:ar":"\u062c\u0645\u0647\u0648\u0631\u064a\u0629 \u062a\u064a\u0645\u0648\u0631","name:my":"\u1021\u101b\u103e\u1031\u1037\u1010\u102e\u1019\u1031\u102c","name:io":"Esta Timor","name:is":"Austur-T\u00edmor","name:am":"\u121d\u1235\u122b\u1245 \u1272\u121e\u122d","name:it":"Timor Est","name:vi":"\u0110\u00f4ng Timor","name:ru":"\u0412\u043e\u0441\u0442\u043e\u0447\u043d\u044b\u0439 \u0422\u0438\u043c\u043e\u0440","name:mn":"\u0417\u04af\u04af\u043d \u0422\u0438\u043c\u043e\u0440","id":432424972,"name:mk":"\u0418\u0441\u0442\u043e\u0447\u0435\u043d \u0422\u0438\u043c\u043e\u0440","name:af":"Oos-Timor","name:zu":"i-East Timor","name:ha":"Timor Ta Gabas","name:nn":"Aust-Timor","name:ff":"Timoor Fu\u0257naange","name:fi":"It\u00e4-Timor","name:no":"\u00d8st-Timor","name:mg":"Timor Atsinanana","name:fo":"Eystur-Timor","name:fr":"Timor Oriental","name:fy":"East-Timor","name:vo":"Lof\u00fcda-Timore\u00e4n","name:zh":"\u4e1c\u5e1d\u6c76","name:gv":"Yn Teemor Hiar","name:so":"Timorka bari","name:sn":"East Timor","name:sl":"Vzhodni Timor","name:sk":"V\u00fdchodn\u00fd Timor","name:ja":"\u6771\u30c6\u30a3\u30e2\u30fc\u30eb","name:si":"\u0db1\u0dd0\u0d9f\u0dd9\u0db1\u0dc4\u0dd2\u0dbb \u0da7\u0dd2\u0db8\u0ddd\u0dbb\u0dba","alt_name:ru":"\u0422\u0438\u043c\u043e\u0440-\u041b\u0435\u0448\u0442\u0438","name:sg":"Tim\u00f4ro t\u00ee T\u00f6","name:se":"Nuorta-Timor","name:ne":"\u092a\u0943\u0930\u094d\u0935\u0940 \u091f\u0940\u092e\u094b\u0930","name:br":"Timor ar Reter","name:bs":"Isto\u010dni Timor","name:bm":"K\u0254r\u0254n Tim\u0254r","name:bn":"\u09aa\u09c2\u09b0\u09cd\u09ac \u099f\u09bf\u09ae\u09cb\u09b0","name:ml":"\u0d15\u0d3f\u0d34\u0d15\u0d4d\u0d15\u0d7b \u0d24\u0d3f\u0d2e\u0d4b\u0d7c","name:sw":"Timori Mashariki","name:be":"\u0423\u0441\u0445\u043e\u0434\u043d\u0456 \u0422\u044b\u043c\u043e\u0440","name:bg":"\u0418\u0437\u0442\u043e\u0447\u0435\u043d \u0422\u0438\u043c\u043e\u0440","name:sr":"\u0418\u0441\u0442\u043e\u0447\u043d\u0438 \u0422\u0438\u043c\u043e\u0440","name:ga":"An T\u00edom\u00f3r Thoir","name:gd":"Tiomor an Ear","name:fa":"\u062a\u06cc\u0645\u0648\u0631 \u0634\u0631\u0642\u06cc","name:yo":"Or\u00edl\u1eb9\u0301\u00e8de \u00ccl\u00e0O\u00f2r\u00f9n T\u00edm\u1ecd\u0300","name:ak":"Tim\u0254 Boka"},"coordinates":[1985,3777]},{"type":"Point","properties":{"admin_level":"2","name:pt":"D\u00edli","name:ja":"\u30c7\u30a3\u30ea","name:lt":"Dilis","name:kn":"\u0ca1\u0cbf\u0cb2\u0cbf","name:ar":"\u062f\u064a\u0644\u064a","min_zoom":8.0,"name:uk":"\u0414\u0456\u043b\u0456","country_capital":true,"name:ru":"\u0414\u0438\u043b\u0438","name:ta":"\u0b9f\u0bbf\u0bb2\u0bbf","id":262310617,"population":222323,"kind":"locality","name":"Dili","kind_detail":"city","source":"openstreetmap.org","name:zh":"\u5e1d\u529b"},"coordinates":[1230,3664]},{"type":"Point","properties":{"kind":"locality","name":"Same","kind_detail":"city","source":"openstreetmap.org","min_zoom":8.0,"population":25000,"id":1785440273,"name:ja":"\u30b5\u30e1"},"coordinates":[1432,2337]},{"type":"Point","properties":{"kind":"locality","name":"Suai","kind_detail":"city","source":"openstreetmap.org","min_zoom":8.0,"population":23000,"name:zh":"\u8607\u827e","id":1785440275,"name:ja":"\u30b9\u30a2\u30a4"},"coordinates":[286,1434]},{"type":"Point","properties":{"kind":"locality","name":"Maliana","kind_detail":"city","source":"openstreetmap.org","min_zoom":8.0,"population":22000,"id":1785440264,"name:ja":"\u30de\u30ea\u30a2\u30ca"},"coordinates":[178,2372]},{"type":"Point","properties":{"kind":"locality","name":"Aileu","kind_detail":"city","source":"openstreetmap.org","min_zoom":8.0,"population":17326,"id":265911791,"name:ja":"\u30a2\u30a4\u30ec\u30a6"},"coordinates":[1194,3150]},{"type":"Point","properties":{"kind":"locality","name":"Baucau","name:lt":"Baukau","kind_detail":"city","name:he":"\u05d1\u05d0\u05d5\u05e7\u05d0\u05d5","source":"openstreetmap.org","min_zoom":8.0,"population":14961,"name:zh":"\u5305\u8003","id":1013912389,"name:ja":"\u30d0\u30a6\u30ab\u30a6"},"coordinates":[3793,3925]},{"type":"Point","properties":{"kind":"locality","name":"Ainaro","kind_detail":"city","source":"openstreetmap.org","min_zoom":8.0,"population":14000,"name:zh":"\u963f\u4f0a\u7d0d\u7f85","id":265920664,"name:ja":"\u30a2\u30a4\u30ca\u30ed"},"coordinates":[1015,2356]},{"type":"Point","properties":{"kind":"locality","name":"Manatuto","kind_detail":"city","source":"openstreetmap.org","min_zoom":8.0,"name:ru":"\u041c\u0430\u043d\u0430\u0442\u0443\u0442\u0443","population":12000,"id":262313641,"name:ja":"\u30de\u30ca\u30c8\u30a5\u30c8"},"coordinates":[2498,3790]},{"type":"Point","properties":{"kind":"locality","name":"Ermera","kind_detail":"town","source":"openstreetmap.org","min_zoom":8.0,"population":8907,"id":1785401076,"name:ja":"\u30a8\u30eb\u30e1\u30e9"},"coordinates":[699,3079]},{"type":"Point","properties":{"kind":"locality","name":"Gleno","name:lt":"Glenas","kind_detail":"city","source":"openstreetmap.org","min_zoom":8.0,"population":8133,"id":910495998,"name:ja":"\u30b0\u30ec\u30ce"},"coordinates":[814,3170]},{"type":"Point","properties":{"source":"openstreetmap.org","kind":"locality","name":"Viqueque","id":494074921,"kind_detail":"city","min_zoom":8.0,"name:ja":"\u30f4\u30a3\u30b1\u30b1"},"coordinates":[3523,2739]}]},"transit":{"type":"GeometryCollection","geometries":[]},"pois":{"type":"GeometryCollection","geometries":[]},"boundaries":{"type":"GeometryCollection","geometries":[{"type":"LineString","properties":{"name:right:yo":"Indon\u00e9s\u00ed\u00e0","name:right:hy":"\u053b\u0576\u0564\u0578\u0576\u0565\u0566\u056b\u0561","name:right:qu":"Indunisya","name:right:yi":"\u05d0\u05d9\u05e0\u05d3\u05d0\u05e0\u05e2\u05d6\u05d9\u05e2","name:right:hr":"Indonezija","name:right:ht":"Endonezi","name:right:hu":"Indon\u00e9zia","name:right:hi":"\u0907\u0902\u0921\u094b\u0928\u0947\u0936\u093f\u092f\u093e","name:left:lt":"Ryt\u0173 Timoras","name:left:sk":"V\u00fdchodn\u00fd Timor","name:right:he":"\u05d0\u05d9\u05e0\u05d3\u05d5\u05e0\u05d6\u05d9\u05d4","name:right:af":"Indonesi\u00eb","name:right:am":"\u12a2\u1295\u12f6\u1294\u12e5\u12eb","source":"openstreetmap.org","name:right:fr":"Indon\u00e9sie","name:right:ar":"\u0625\u0646\u062f\u0648\u0646\u064a\u0633\u064a\u0627","name:right:mt":"Indone\u017cja","name:right:az":"\u0130ndoneziya","name:left:cs":"V\u00fdchodn\u00ed Timor","name:right:iu":"\u1404\u14c5\u14ef\u140a","name:right:is":"Ind\u00f3nes\u00eda","name:right:rw":"Indonesiya","name:right:ru":"\u0418\u043d\u0434\u043e\u043d\u0435\u0437\u0438\u044f","name:right:io":"Indonezia","name:right:ro":"Indonezia","name:left:ru":"\u0412\u043e\u0441\u0442\u043e\u0447\u043d\u044b\u0439 \u0422\u0438\u043c\u043e\u0440","name":"Tim\u00f3r Lorosa'e - Indonesia","name:right:bn":"\u0987\u09a8\u09cd\u09a6\u09cb\u09a8\u09c7\u09b6\u09bf\u09af\u09bc\u09be","name:right:bo":"\u0f68\u0f72\u0f53\u0f0b\u0f62\u0fa1\u0f74\u0f0b\u0f53\u0f72\u0f0b\u0f64\u0f72\u0f66\u0f0b\u0f61\u0f0d","name:right:ba":"\u0418\u043d\u0434\u043e\u043d\u0435\u0437\u0438\u044f","name:right:bg":"\u0418\u043d\u0434\u043e\u043d\u0435\u0437\u0438\u044f","name:right:be":"\u0406\u043d\u0434\u0430\u043d\u0435\u0437\u0456\u044f","name:right:za":"Yindunizsihya","name:right:br":"Indonezia","name:right:bs":"Indonezija","name:right:zh":"\u5370\u5ea6\u5c3c\u897f\u4e9a","name:right:gu":"\u0a88\u0a82\u0aa1\u0acb\u0aa8\u0ac7\u0ab6\u0abf\u0aaf\u0abe","name:right:nl":"Indonesi\u00eb","name:right:wa":"Indonezeye","name:right:wo":"Endoneesi","name:right:ne":"\u0907\u0923\u094d\u0921\u094b\u0928\u0947\u0936\u093f\u092f\u093e","id:right":-304751,"name:left:uk":"\u0421\u0445\u0456\u0434\u043d\u0438\u0439 \u0422\u0438\u043c\u043e\u0440","name:left:no":"\u00d8st-Timor","name:right:gv":"Yn Indoneesh","name:right:fa":"\u0627\u0646\u062f\u0648\u0646\u0632\u06cc","name:right:nv":"Indon\u00ed\u00edzha","name:left:en":"East Timor","name:left:el":"\u0391\u03bd\u03b1\u03c4\u03bf\u03bb\u03b9\u03ba\u03cc \u03a4\u03b9\u03bc\u03cc\u03c1","kind_detail":"2","name:left:pl":"Timor Wschodni","name:right:om":"Indoneeshiyaa","name:right:zh-min-nan":"\u00ccn-n\u00ee","name:right:ps":"\u0627\u0646\u062f\u0648\u0646\u064a\u0632\u064a\u0627","name:right:pt":"Indon\u00e9sia","name:left:tt":"\u041a\u04e9\u043d\u0447\u044b\u0433\u044b\u0448 \u0422\u0438\u043c\u043e\u0440","name:left:ms":"Timor Timur","name:right:pa":"\u0a07\u0a70\u0a21\u0a4b\u0a28\u0a47\u0a38\u0a3c\u0a40\u0a06","name:right:ga":"An Indin\u00e9is","name:right:tr":"Endonezya","name:left:ta":"\u0b95\u0bbf\u0bb4\u0b95\u0bcd\u0b95\u0bc1\u0ba4\u0bcd \u0ba4\u0bbf\u0bae\u0bcb\u0bb0\u0bcd","name:right:pl":"Indonezja","osm_relation":true,"name:right:or":"\u0b07\u0b23\u0b4d\u0b21\u0b4b\u0b28\u0b47\u0b38\u0b3f\u0b06","name:right:gd":"An Innd-Innse","name:left:de":"Osttimor","name:right:th":"\u0e1b\u0e23\u0e30\u0e40\u0e17\u0e28\u0e2d\u0e34\u0e19\u0e42\u0e14\u0e19\u0e35\u0e40\u0e0b\u0e35\u0e22","name:right:ug":"\u06be\u0649\u0646\u062f\u0648\u0646\u06d0\u0632\u0649\u064a\u06d5","name:right:lb":"Indonesien","name:right:uk":"\u0406\u043d\u0434\u043e\u043d\u0435\u0437\u0456\u044f","name:right:ln":"Indonez\u00ed","name:right:kv":"\u0418\u043d\u0434\u043e\u043d\u0435\u0437\u0438\u044f","name:right:li":"Indonesi\u00eb","name:right:lt":"Indonezija","name:right:ur":"\u0627\u0646\u0688\u0648\u0646\u06cc\u0634\u06cc\u0627","name:right:lv":"Indon\u0113zija","name:right:uz":"Indoneziya","name:left:hr":"Isto\u010dni Timor","sort_rank":262,"name:right:os":"\u0418\u043d\u0434\u043e\u043d\u0435\u0437\u0438","name:left":"Tim\u00f3r Lorosa'e","name:right:mk":"\u0418\u043d\u0434\u043e\u043d\u0435\u0437\u0438\u0458\u0430","name:right:mi":"Initon\u012bhia","name:right:mn":"\u0418\u043d\u0434\u043e\u043d\u0435\u0437","name:right:et":"Indoneesia","name:right:vo":"Lind\u00e4na-Se\u00e4nu\u00e4ns","name:right:mg":"Indonezia","name:right:my":"\u1021\u1004\u103a\u1012\u102d\u102f\u1014\u102e\u1038\u101b\u103e\u102c\u1038\u1014\u102d\u102f\u1004\u103a\u1004\u1036","name:right:mr":"\u0907\u0902\u0921\u094b\u0928\u0947\u0936\u093f\u092f\u093e","min_zoom":8.0,"name:right:na":"Indonitsiya","name:right:eo":"Indonezio","name:right:el":"\u0399\u03bd\u03b4\u03bf\u03bd\u03b7\u03c3\u03af\u03b1","kind":"country","name:left:fr":"Timor oriental","name:right:ay":"Indunisya","name:right:jv":"Indon\u00e9sia","name:right:fy":"Yndoneezje","name:right:ja":"\u30a4\u30f3\u30c9\u30cd\u30b7\u30a2","name:right:sq":"Indonezia","name:right:ss":"INdonesiya","name:right:sr":"\u0418\u043d\u0434\u043e\u043d\u0435\u0437\u0438\u0458\u0430","name:right:su":"Indon\u00e9sia","name:right:sv":"Indonesien","name:right:si":"\u0d89\u0db1\u0dca\u0daf\u0dd4\u0db1\u0dd3\u0dc3\u0dd2\u0dba\u0dcf\u0dc0","name:right:sh":"Indonezija","name:right:sk":"Indon\u00e9zia","name:right:sm":"Indyunisia","name:right:sl":"Indonezija","name:right:so":"Indunisiya","name:right:sa":"\u0907\u0923\u094d\u0921\u094b\u0928\u0947\u0936\u093f\u092f\u093e","id":-305142,"name:right:sg":"\u00canndonez\u00efi","name:right":"Indonesia","name:right:co":"Indunesia","name:right:ca":"Indon\u00e8sia","name:right:ml":"\u0d07\u0d28\u0d4d\u0d24\u0d4b\u0d28\u0d47\u0d37\u0d4d\u0d2f","name:right:ce":"\u0418\u043d\u0434\u043e\u043d\u0435\u0437\u0438","name:right:zh-yue":"\u5370\u5c3c","id:left":-305142,"name:right:cs":"Indon\u00e9sie","name:right:cu":"\u0407\u043d\u0434\u043e\u043d\u0438\u0441\u0457\ua657","name:right:cv":"\u0418\u043d\u0434\u043e\u043d\u0435\u0437\u0438","name:right:ka":"\u10d8\u10dc\u10d3\u10dd\u10dc\u10d4\u10d6\u10d8\u10d0","name:right:tt":"\u0418\u043d\u0434\u043e\u043d\u0435\u0437\u0438\u044f","name:right:kk":"\u0418\u043d\u0434\u043e\u043d\u0435\u0437\u0438\u044f","name:right:km":"\u17a5\u178e\u17d2\u178c\u17bc\u1793\u17c1\u179f\u17ca\u17b8","name:right:ko":"\uc778\ub3c4\ub124\uc2dc\uc544","name:right:kn":"\u0c87\u0c82\u0ca1\u0ccb\u0ca8\u0cc7\u0cb7\u0ccd\u0caf\u0cbe","name:right:tl":"Indonesya","name:left:af":"Oos-Timor","name:right:ku":"\u00cendonezya","name:right:kw":"Indonesi","name:right:tk":"Indonezi\u00fda","name:right:ky":"\u0418\u043d\u0434\u043e\u043d\u0435\u0437\u0438\u044f","name:right:te":"\u0c07\u0c02\u0c21\u0c4b\u0c28\u0c47\u0c37\u0c3f\u0c2f\u0c3e","name:right:tg":"\u0418\u043d\u0434\u043e\u043d\u0435\u0437\u0438\u044f","name:right:ta":"\u0b87\u0ba8\u0bcd\u0ba4\u0bcb\u0ba9\u0bc7\u0b9a\u0bbf\u0baf\u0bbe","name:right:de":"Indonesien","name:right:da":"Indonesien","name:right:dv":"\u0787\u07a8\u0782\u07b0\u0791\u07ae\u0782\u07ad\u079d\u07a8\u0794\u07a7"},"arcs":[0]},{"type":"MultiLineString","properties":{"name:right:yo":"Indon\u00e9s\u00ed\u00e0","name:right:hy":"\u053b\u0576\u0564\u0578\u0576\u0565\u0566\u056b\u0561","name:right:qu":"Indunisya","name:right:yi":"\u05d0\u05d9\u05e0\u05d3\u05d0\u05e0\u05e2\u05d6\u05d9\u05e2","name:right:hr":"Indonezija","name:right:ht":"Endonezi","name:right:hu":"Indon\u00e9zia","name:right:hi":"\u0907\u0902\u0921\u094b\u0928\u0947\u0936\u093f\u092f\u093e","name:left:lt":"Ryt\u0173 Timoras","name:left:sk":"V\u00fdchodn\u00fd Timor","name:right:he":"\u05d0\u05d9\u05e0\u05d3\u05d5\u05e0\u05d6\u05d9\u05d4","name:right:af":"Indonesi\u00eb","name:right:am":"\u12a2\u1295\u12f6\u1294\u12e5\u12eb","source":"openstreetmap.org","name:right:ar":"\u0625\u0646\u062f\u0648\u0646\u064a\u0633\u064a\u0627","name:right:el":"\u0399\u03bd\u03b4\u03bf\u03bd\u03b7\u03c3\u03af\u03b1","name:right:az":"\u0130ndoneziya","name:left:cs":"V\u00fdchodn\u00ed Timor","name:right:iu":"\u1404\u14c5\u14ef\u140a","name:right:is":"Ind\u00f3nes\u00eda","name:right:rw":"Indonesiya","name:right:ru":"\u0418\u043d\u0434\u043e\u043d\u0435\u0437\u0438\u044f","name:right:io":"Indonezia","name:right:ro":"Indonezia","name:left:ru":"\u0412\u043e\u0441\u0442\u043e\u0447\u043d\u044b\u0439 \u0422\u0438\u043c\u043e\u0440","name:right:bo":"\u0f68\u0f72\u0f53\u0f0b\u0f62\u0fa1\u0f74\u0f0b\u0f53\u0f72\u0f0b\u0f64\u0f72\u0f66\u0f0b\u0f61\u0f0d","name:right:bn":"\u0987\u09a8\u09cd\u09a6\u09cb\u09a8\u09c7\u09b6\u09bf\u09af\u09bc\u09be","name":"Tim\u00f3r Lorosa'e - Indonesia","name:right:ba":"\u0418\u043d\u0434\u043e\u043d\u0435\u0437\u0438\u044f","name:right:bg":"\u0418\u043d\u0434\u043e\u043d\u0435\u0437\u0438\u044f","name:right:be":"\u0406\u043d\u0434\u0430\u043d\u0435\u0437\u0456\u044f","name:right:za":"Yindunizsihya","name:right:br":"Indonezia","name:right:bs":"Indonezija","name:right:zh":"\u5370\u5ea6\u5c3c\u897f\u4e9a","name:right:om":"Indoneeshiyaa","name:right:nl":"Indonesi\u00eb","name:right:wa":"Indonezeye","name:right:wo":"Endoneesi","name:right:ne":"\u0907\u0923\u094d\u0921\u094b\u0928\u0947\u0936\u093f\u092f\u093e","id:right":-304751,"name:left:uk":"\u0421\u0445\u0456\u0434\u043d\u0438\u0439 \u0422\u0438\u043c\u043e\u0440","name:left:no":"\u00d8st-Timor","name:right:ps":"\u0627\u0646\u062f\u0648\u0646\u064a\u0632\u064a\u0627","name:right:fa":"\u0627\u0646\u062f\u0648\u0646\u0632\u06cc","name:right:nv":"Indon\u00ed\u00edzha","name:right:uz":"Indoneziya","name:left:en":"East Timor","name:left:el":"\u0391\u03bd\u03b1\u03c4\u03bf\u03bb\u03b9\u03ba\u03cc \u03a4\u03b9\u03bc\u03cc\u03c1","kind_detail":"2","name:right:tt":"\u0418\u043d\u0434\u043e\u043d\u0435\u0437\u0438\u044f","name:right:gu":"\u0a88\u0a82\u0aa1\u0acb\u0aa8\u0ac7\u0ab6\u0abf\u0aaf\u0abe","name:right:zh-min-nan":"\u00ccn-n\u00ee","name:right:gv":"Yn Indoneesh","name:right:pt":"Indon\u00e9sia","name:left:tt":"\u041a\u04e9\u043d\u0447\u044b\u0433\u044b\u0448 \u0422\u0438\u043c\u043e\u0440","name:left:ms":"Timor Timur","name:right:pa":"\u0a07\u0a70\u0a21\u0a4b\u0a28\u0a47\u0a38\u0a3c\u0a40\u0a06","name:right:ga":"An Indin\u00e9is","name:right:ko":"\uc778\ub3c4\ub124\uc2dc\uc544","name:left:ta":"\u0b95\u0bbf\u0bb4\u0b95\u0bcd\u0b95\u0bc1\u0ba4\u0bcd \u0ba4\u0bbf\u0bae\u0bcb\u0bb0\u0bcd","name:right:pl":"Indonezja","osm_relation":true,"name:right:or":"\u0b07\u0b23\u0b4d\u0b21\u0b4b\u0b28\u0b47\u0b38\u0b3f\u0b06","name:right:gd":"An Innd-Innse","name:left:de":"Osttimor","name:right:ku":"\u00cendonezya","name:right:ug":"\u06be\u0649\u0646\u062f\u0648\u0646\u06d0\u0632\u0649\u064a\u06d5","name:right:lb":"Indonesien","name:right:uk":"\u0406\u043d\u0434\u043e\u043d\u0435\u0437\u0456\u044f","name:right:ln":"Indonez\u00ed","name:right:tk":"Indonezi\u00fda","name:right:li":"Indonesi\u00eb","name:right:lt":"Indonezija","name:right:ur":"\u0627\u0646\u0688\u0648\u0646\u06cc\u0634\u06cc\u0627","name:right:lv":"Indon\u0113zija","name:right:fr":"Indon\u00e9sie","name:left:hr":"Isto\u010dni Timor","sort_rank":262,"name:right:os":"\u0418\u043d\u0434\u043e\u043d\u0435\u0437\u0438","name:left":"Tim\u00f3r Lorosa'e","name:right:mk":"\u0418\u043d\u0434\u043e\u043d\u0435\u0437\u0438\u0458\u0430","name:right:mi":"Initon\u012bhia","name:right:mn":"\u0418\u043d\u0434\u043e\u043d\u0435\u0437","name:right:et":"Indoneesia","name:right:vo":"Lind\u00e4na-Se\u00e4nu\u00e4ns","name:right:mg":"Indonezia","name:right:my":"\u1021\u1004\u103a\u1012\u102d\u102f\u1014\u102e\u1038\u101b\u103e\u102c\u1038\u1014\u102d\u102f\u1004\u103a\u1004\u1036","name:right:mr":"\u0907\u0902\u0921\u094b\u0928\u0947\u0936\u093f\u092f\u093e","min_zoom":8.0,"name:right:na":"Indonitsiya","name:right:eo":"Indonezio","name:right:mt":"Indone\u017cja","kind":"country","name:left:fr":"Timor oriental","name:right:ay":"Indunisya","name:right:sm":"Indyunisia","name:right:fy":"Yndoneezje","name:right:ja":"\u30a4\u30f3\u30c9\u30cd\u30b7\u30a2","name:right:sq":"Indonezia","name:right:ss":"INdonesiya","name:right:sr":"\u0418\u043d\u0434\u043e\u043d\u0435\u0437\u0438\u0458\u0430","name:right:su":"Indon\u00e9sia","name:right:sv":"Indonesien","name:right:si":"\u0d89\u0db1\u0dca\u0daf\u0dd4\u0db1\u0dd3\u0dc3\u0dd2\u0dba\u0dcf\u0dc0","name:right:sh":"Indonezija","name:right:sk":"Indon\u00e9zia","name:right:jv":"Indon\u00e9sia","name:right:sl":"Indonezija","name:right:so":"Indunisiya","name:right:sa":"\u0907\u0923\u094d\u0921\u094b\u0928\u0947\u0936\u093f\u092f\u093e","id":-305142,"name:right:sg":"\u00canndonez\u00efi","name:right":"Indonesia","name:right:co":"Indunesia","name:right:ca":"Indon\u00e8sia","name:right:ml":"\u0d07\u0d28\u0d4d\u0d24\u0d4b\u0d28\u0d47\u0d37\u0d4d\u0d2f","name:right:ce":"\u0418\u043d\u0434\u043e\u043d\u0435\u0437\u0438","name:right:zh-yue":"\u5370\u5c3c","id:left":-305142,"name:right:cs":"Indon\u00e9sie","name:right:cu":"\u0407\u043d\u0434\u043e\u043d\u0438\u0441\u0457\ua657","name:right:cv":"\u0418\u043d\u0434\u043e\u043d\u0435\u0437\u0438","name:right:ka":"\u10d8\u10dc\u10d3\u10dd\u10dc\u10d4\u10d6\u10d8\u10d0","name:left:pl":"Timor Wschodni","name:right:kk":"\u0418\u043d\u0434\u043e\u043d\u0435\u0437\u0438\u044f","name:right:km":"\u17a5\u178e\u17d2\u178c\u17bc\u1793\u17c1\u179f\u17ca\u17b8","name:right:tr":"Endonezya","name:right:kn":"\u0c87\u0c82\u0ca1\u0ccb\u0ca8\u0cc7\u0cb7\u0ccd\u0caf\u0cbe","name:right:tl":"Indonesya","name:left:af":"Oos-Timor","name:right:th":"\u0e1b\u0e23\u0e30\u0e40\u0e17\u0e28\u0e2d\u0e34\u0e19\u0e42\u0e14\u0e19\u0e35\u0e40\u0e0b\u0e35\u0e22","name:right:kw":"Indonesi","name:right:kv":"\u0418\u043d\u0434\u043e\u043d\u0435\u0437\u0438\u044f","name:right:ky":"\u0418\u043d\u0434\u043e\u043d\u0435\u0437\u0438\u044f","name:right:te":"\u0c07\u0c02\u0c21\u0c4b\u0c28\u0c47\u0c37\u0c3f\u0c2f\u0c3e","name:right:tg":"\u0418\u043d\u0434\u043e\u043d\u0435\u0437\u0438\u044f","name:right:ta":"\u0b87\u0ba8\u0bcd\u0ba4\u0bcb\u0ba9\u0bc7\u0b9a\u0bbf\u0baf\u0bbe","name:right:de":"Indonesien","name:right:da":"Indonesien","maritime_boundary":true,"name:right:dv":"\u0787\u07a8\u0782\u07b0\u0791\u07ae\u0782\u07ad\u079d\u07a8\u0794\u07a7"},"arcs":[[1],[2]]},{"type":"LineString","properties":{"name:sk":"V\u00fdchodn\u00fd Timor","name:ms":"Timor Timur","name:no":"\u00d8st-Timor","name:cs":"V\u00fdchodn\u00ed Timor","name:tt":"\u041a\u04e9\u043d\u0447\u044b\u0433\u044b\u0448 \u0422\u0438\u043c\u043e\u0440","min_zoom":8.0,"name:uk":"\u0421\u0445\u0456\u0434\u043d\u0438\u0439 \u0422\u0438\u043c\u043e\u0440","name:ru":"\u0412\u043e\u0441\u0442\u043e\u0447\u043d\u044b\u0439 \u0422\u0438\u043c\u043e\u0440","name:pl":"Timor Wschodni","name:ta":"\u0b95\u0bbf\u0bb4\u0b95\u0bcd\u0b95\u0bc1\u0ba4\u0bcd \u0ba4\u0bbf\u0bae\u0bcb\u0bb0\u0bcd","name:hr":"Isto\u010dni Timor","id":-305142,"osm_relation":true,"name:af":"Oos-Timor","name:el":"\u0391\u03bd\u03b1\u03c4\u03bf\u03bb\u03b9\u03ba\u03cc \u03a4\u03b9\u03bc\u03cc\u03c1","kind":"country","name:en":"East Timor","name":"Tim\u00f3r Lorosa'e","sort_rank":262,"kind_detail":"2","maritime_boundary":true,"name:de":"Osttimor","source":"openstreetmap.org","name:lt":"Ryt\u0173 Timoras","name:fr":"Timor oriental"},"arcs":[3]},{"type":"LineString","properties":{"name:pt":"Indon\u00e9sia","name:ps":"\u0627\u0646\u062f\u0648\u0646\u064a\u0632\u064a\u0627","name:ka":"\u10d8\u10dc\u10d3\u10dd\u10dc\u10d4\u10d6\u10d8\u10d0","name:ko":"\uc778\ub3c4\ub124\uc2dc\uc544","name:cv":"\u0418\u043d\u0434\u043e\u043d\u0435\u0437\u0438","name:km":"\u17a5\u178e\u17d2\u178c\u17bc\u1793\u17c1\u179f\u17ca\u17b8","name:kk":"\u0418\u043d\u0434\u043e\u043d\u0435\u0437\u0438\u044f","name:tt":"\u0418\u043d\u0434\u043e\u043d\u0435\u0437\u0438\u044f","name:co":"Indunesia","name:kv":"\u0418\u043d\u0434\u043e\u043d\u0435\u0437\u0438\u044f","name:ku":"\u00cendonezya","name:az":"\u0130ndoneziya","name:tl":"Indonesya","name:zh-min-nan":"\u00ccn-n\u00ee","name:os":"\u0418\u043d\u0434\u043e\u043d\u0435\u0437\u0438","name:or":"\u0b07\u0b23\u0b4d\u0b21\u0b4b\u0b28\u0b47\u0b38\u0b3f\u0b06","name:ce":"\u0418\u043d\u0434\u043e\u043d\u0435\u0437\u0438","name:ta":"\u0b87\u0ba8\u0bcd\u0ba4\u0bcb\u0ba9\u0bc7\u0b9a\u0bbf\u0baf\u0bbe","name:tg":"\u0418\u043d\u0434\u043e\u043d\u0435\u0437\u0438\u044f","name:ca":"Indon\u00e8sia","name:te":"\u0c07\u0c02\u0c21\u0c4b\u0c28\u0c47\u0c37\u0c3f\u0c2f\u0c3e","name:li":"Indonesi\u00eb","name:om":"Indoneeshiyaa","sort_rank":262,"name:hr":"Indonezija","name:da":"Indonesien","name:sr":"\u0418\u043d\u0434\u043e\u043d\u0435\u0437\u0438\u0458\u0430","name:de":"Indonesien","source":"openstreetmap.org","osm_relation":true,"name:kn":"\u0c87\u0c82\u0ca1\u0ccb\u0ca8\u0cc7\u0cb7\u0ccd\u0caf\u0cbe","name:be":"\u0406\u043d\u0434\u0430\u043d\u0435\u0437\u0456\u044f","name:dv":"\u0787\u07a8\u0782\u07b0\u0791\u07ae\u0782\u07ad\u079d\u07a8\u0794\u07a7","name:cu":"\u0407\u043d\u0434\u043e\u043d\u0438\u0441\u0457\ua657","name:za":"Yindunizsihya","name:ar":"\u0625\u0646\u062f\u0648\u0646\u064a\u0633\u064a\u0627","name:lv":"Indon\u0113zija","name:lt":"Indonezija","name:hi":"\u0907\u0902\u0921\u094b\u0928\u0947\u0936\u093f\u092f\u093e","name:cs":"Indon\u00e9sie","name:he":"\u05d0\u05d9\u05e0\u05d3\u05d5\u05e0\u05d6\u05d9\u05d4","name:eo":"Indonezio","name:ur":"\u0627\u0646\u0688\u0648\u0646\u06cc\u0634\u06cc\u0627","name:lb":"Indonesien","name:uk":"\u0406\u043d\u0434\u043e\u043d\u0435\u0437\u0456\u044f","name:hy":"\u053b\u0576\u0564\u0578\u0576\u0565\u0566\u056b\u0561","name:ug":"\u06be\u0649\u0646\u062f\u0648\u0646\u06d0\u0632\u0649\u064a\u06d5","name:hu":"Indon\u00e9zia","name:ln":"Indonez\u00ed","name:el":"\u0399\u03bd\u03b4\u03bf\u03bd\u03b7\u03c3\u03af\u03b1","kind":"country","name":"Indonesia","name:tk":"Indonezi\u00fda","min_zoom":8.0,"name:th":"\u0e1b\u0e23\u0e30\u0e40\u0e17\u0e28\u0e2d\u0e34\u0e19\u0e42\u0e14\u0e19\u0e35\u0e40\u0e0b\u0e35\u0e22","name:yi":"\u05d0\u05d9\u05e0\u05d3\u05d0\u05e0\u05e2\u05d6\u05d9\u05e2","name:et":"Indoneesia","name:yo":"Indon\u00e9s\u00ed\u00e0","name:ay":"Indunisya","name:mt":"Indone\u017cja","name:ro":"Indonezia","name:mr":"\u0907\u0902\u0921\u094b\u0928\u0947\u0936\u093f\u092f\u093e","name:pa":"\u0a07\u0a70\u0a21\u0a4b\u0a28\u0a47\u0a38\u0a3c\u0a40\u0a06","name:my":"\u1021\u1004\u103a\u1012\u102d\u102f\u1014\u102e\u1038\u101b\u103e\u102c\u1038\u1014\u102d\u102f\u1004\u103a\u1004\u1036","name:io":"Indonezia","name:kw":"Indonesi","name:is":"Ind\u00f3nes\u00eda","name:am":"\u12a2\u1295\u12f6\u1294\u12e5\u12eb","name:ru":"\u0418\u043d\u0434\u043e\u043d\u0435\u0437\u0438\u044f","name:ml":"\u0d07\u0d28\u0d4d\u0d24\u0d4b\u0d28\u0d47\u0d37\u0d4d\u0d2f","name:rw":"Indonesiya","name:mi":"Initon\u012bhia","name:pl":"Indonezja","name:mk":"\u0418\u043d\u0434\u043e\u043d\u0435\u0437\u0438\u0458\u0430","name:af":"Indonesi\u00eb","name:fa":"\u0627\u0646\u062f\u0648\u0646\u0632\u06cc","name:iu":"\u1404\u14c5\u14ef\u140a","name:mn":"\u0418\u043d\u0434\u043e\u043d\u0435\u0437","name:ss":"INdonesiya","kind_detail":"2","name:uz":"Indoneziya","name:mg":"Indonezia","id":-304751,"name:sg":"\u00canndonez\u00efi","name:fr":"Indon\u00e9sie","name:tr":"Endonezya","name:ky":"\u0418\u043d\u0434\u043e\u043d\u0435\u0437\u0438\u044f","name:zh-yue":"\u5370\u5c3c","name:fy":"Yndoneezje","name:vo":"Lind\u00e4na-Se\u00e4nu\u00e4ns","name:zh":"\u5370\u5ea6\u5c3c\u897f\u4e9a","name:so":"Indunisiya","name:sm":"Indyunisia","name:sl":"Indonezija","name:nl":"Indonesi\u00eb","name:ja":"\u30a4\u30f3\u30c9\u30cd\u30b7\u30a2","name:si":"\u0d89\u0db1\u0dca\u0daf\u0dd4\u0db1\u0dd3\u0dc3\u0dd2\u0dba\u0dcf\u0dc0","name:sh":"Indonezija","name:qu":"Indunisya","name:na":"Indonitsiya","name:ne":"\u0907\u0923\u094d\u0921\u094b\u0928\u0947\u0936\u093f\u092f\u093e","name:sa":"\u0907\u0923\u094d\u0921\u094b\u0928\u0947\u0936\u093f\u092f\u093e","name:bs":"Indonezija","name:wa":"Indonezeye","name:bo":"\u0f68\u0f72\u0f53\u0f0b\u0f62\u0fa1\u0f74\u0f0b\u0f53\u0f72\u0f0b\u0f64\u0f72\u0f66\u0f0b\u0f61\u0f0d","name:sk":"Indon\u00e9zia","name:br":"Indonezia","name:jv":"Indon\u00e9sia","name:sv":"Indonesien","name:su":"Indon\u00e9sia","name:bg":"\u0418\u043d\u0434\u043e\u043d\u0435\u0437\u0438\u044f","name:wo":"Endoneesi","name:ba":"\u0418\u043d\u0434\u043e\u043d\u0435\u0437\u0438\u044f","name:nv":"Indon\u00ed\u00edzha","name:sq":"Indonezia","name:ga":"An Indin\u00e9is","name:gd":"An Innd-Innse","name:ht":"Endonezi","name:bn":"\u0987\u09a8\u09cd\u09a6\u09cb\u09a8\u09c7\u09b6\u09bf\u09af\u09bc\u09be","maritime_boundary":true,"name:gv":"Yn Indoneesh","name:gu":"\u0a88\u0a82\u0aa1\u0acb\u0aa8\u0ac7\u0ab6\u0abf\u0aaf\u0abe"},"arcs":[4]},{"type":"LineString","properties":{"kind":"region","name:right:ja":"\u30de\u30ca\u30c8\u30a5\u30c8","name":"Viqueque - Manatuto","sort_rank":256,"kind_detail":"4","name:left:ja":"\u30f4\u30a3\u30b1\u30b1","id:right":-4631027,"source":"openstreetmap.org","min_zoom":8.0,"id:left":-4631029,"name:left":"Viqueque","id":-4631029,"osm_relation":true,"name:right":"Manatuto"},"arcs":[5]},{"type":"LineString","properties":{"kind":"region","name:right:ja":"\u30de\u30ca\u30c8\u30a5\u30c8","name":"Viqueque - Manatuto","sort_rank":256,"kind_detail":"4","name:left:ja":"\u30f4\u30a3\u30b1\u30b1","min_zoom":8.0,"id:right":-4631027,"source":"openstreetmap.org","maritime_boundary":true,"id:left":-4631029,"name:right":"Manatuto","id":-4631029,"osm_relation":true,"name:left":"Viqueque"},"arcs":[6]},{"type":"LineString","properties":{"kind":"region","name:right:ja":"\u30d0\u30a6\u30ab\u30a6","name":"Viqueque - Baucau","sort_rank":256,"kind_detail":"4","name:left:ja":"\u30f4\u30a3\u30b1\u30b1","id:right":-4631019,"source":"openstreetmap.org","min_zoom":8.0,"id:left":-4631029,"name:left":"Viqueque","id":-4631029,"osm_relation":true,"name:right":"Baucau"},"arcs":[7]},{"type":"LineString","properties":{"kind":"region","name":"Viqueque","sort_rank":256,"kind_detail":"4","min_zoom":8.0,"source":"openstreetmap.org","maritime_boundary":true,"id":-4631029,"osm_relation":true,"name:ja":"\u30f4\u30a3\u30b1\u30b1"},"arcs":[8]},{"type":"LineString","properties":{"kind":"region","name:right:ja":"\u30c7\u30a3\u30ea","name":"Manatuto - Dili","sort_rank":256,"kind_detail":"4","name:left:ja":"\u30de\u30ca\u30c8\u30a5\u30c8","id:right":-4631022,"source":"openstreetmap.org","min_zoom":8.0,"id:left":-4631027,"name:left":"Manatuto","id":-4631027,"osm_relation":true,"name:right":"Dili"},"arcs":[9]},{"type":"LineString","properties":{"kind":"region","name:right:ja":"\u30c7\u30a3\u30ea","name":"Manatuto - Dili","sort_rank":256,"kind_detail":"4","name:left:ja":"\u30de\u30ca\u30c8\u30a5\u30c8","min_zoom":8.0,"id:right":-4631022,"source":"openstreetmap.org","maritime_boundary":true,"id:left":-4631027,"name:right":"Dili","id":-4631027,"osm_relation":true,"name:left":"Manatuto"},"arcs":[10]},{"type":"LineString","properties":{"kind":"region","name:right:ja":"\u30d0\u30a6\u30ab\u30a6","name":"Manatuto - Baucau","sort_rank":256,"kind_detail":"4","name:left:ja":"\u30de\u30ca\u30c8\u30a5\u30c8","id:right":-4631019,"source":"openstreetmap.org","min_zoom":8.0,"id:left":-4631027,"name:left":"Manatuto","id":-4631027,"osm_relation":true,"name:right":"Baucau"},"arcs":[11]},{"type":"LineString","properties":{"kind":"region","name:right:ja":"\u30d0\u30a6\u30ab\u30a6","name":"Manatuto - Baucau","sort_rank":256,"kind_detail":"4","name:left:ja":"\u30de\u30ca\u30c8\u30a5\u30c8","min_zoom":8.0,"id:right":-4631019,"source":"openstreetmap.org","maritime_boundary":true,"id:left":-4631027,"name:right":"Baucau","id":-4631027,"osm_relation":true,"name:left":"Manatuto"},"arcs":[12]},{"type":"LineString","properties":{"kind":"region","name":"Manatuto","sort_rank":256,"kind_detail":"4","source":"openstreetmap.org","min_zoom":8.0,"id":-4631027,"osm_relation":true,"name:ja":"\u30de\u30ca\u30c8\u30a5\u30c8"},"arcs":[13]},{"type":"LineString","properties":{"kind":"region","name":"Manatuto","sort_rank":256,"kind_detail":"4","min_zoom":8.0,"source":"openstreetmap.org","maritime_boundary":true,"id":-4631027,"osm_relation":true,"name:ja":"\u30de\u30ca\u30c8\u30a5\u30c8"},"arcs":[14]},{"type":"LineString","properties":{"kind":"region","name:right:ja":"\u30c7\u30a3\u30ea","name":"Liqui\u00e7\u00e1 - Dili","sort_rank":256,"kind_detail":"4","name:left:ja":"\u30ea\u30ad\u30b7\u30e3","id:right":-4631022,"source":"openstreetmap.org","min_zoom":8.0,"id:left":-4631025,"name:left":"Liqui\u00e7\u00e1","id":-4631025,"osm_relation":true,"name:right":"Dili"},"arcs":[15]},{"type":"LineString","properties":{"kind":"region","name:right:ja":"\u30c7\u30a3\u30ea","name":"Liqui\u00e7\u00e1 - Dili","sort_rank":256,"kind_detail":"4","name:left:ja":"\u30ea\u30ad\u30b7\u30e3","min_zoom":8.0,"id:right":-4631022,"source":"openstreetmap.org","maritime_boundary":true,"id:left":-4631025,"name:right":"Dili","id":-4631025,"osm_relation":true,"name:left":"Liqui\u00e7\u00e1"},"arcs":[16]},{"type":"LineString","properties":{"name:right:ja":"\u6771\u30cc\u30b5\u30fb\u30c8\u30a5\u30f3\u30ac\u30e9","name:left:ja":"\u30ea\u30ad\u30b7\u30e3","name:right:ru":"\u0412\u043e\u0441\u0442\u043e\u0447\u043d\u044b\u0435 \u041c\u0430\u043b\u044b\u0435 \u0417\u043e\u043d\u0434\u0441\u043a\u0438\u0435 \u043e\u0441\u0442\u0440\u043e\u0432\u0430","min_zoom":8.0,"id:left":-4631025,"name:right:vi":"T\u1ec9nh \u0110\u00f4ng Nusa Tenggara","id":-4631025,"osm_relation":true,"name:right":"Nusa Tenggara Timur","kind":"region","name":"Liqui\u00e7\u00e1 - Nusa Tenggara Timur","sort_rank":256,"kind_detail":"4","name:right:en":"East Nusa Tenggara","source":"openstreetmap.org","maritime_boundary":true,"name:right:de":"Ost-Nusa Tenggara","id:right":-2396778,"name:left":"Liqui\u00e7\u00e1"},"arcs":[17]},{"type":"LineString","properties":{"kind":"region","name":"Liqui\u00e7\u00e1","sort_rank":256,"kind_detail":"4","source":"openstreetmap.org","min_zoom":8.0,"id":-4631025,"osm_relation":true,"name:ja":"\u30ea\u30ad\u30b7\u30e3"},"arcs":[18]},{"type":"LineString","properties":{"kind":"region","name":"Dili","sort_rank":256,"kind_detail":"4","source":"openstreetmap.org","min_zoom":8.0,"id":-4631022,"osm_relation":true,"name:ja":"\u30c7\u30a3\u30ea"},"arcs":[19]},{"type":"LineString","properties":{"kind":"region","name:en":"East Nusa Tenggara","name":"Nusa Tenggara Timur","sort_rank":256,"kind_detail":"4","name:de":"Ost-Nusa Tenggara","source":"openstreetmap.org","min_zoom":8.0,"name:ru":"\u0412\u043e\u0441\u0442\u043e\u0447\u043d\u044b\u0435 \u041c\u0430\u043b\u044b\u0435 \u0417\u043e\u043d\u0434\u0441\u043a\u0438\u0435 \u043e\u0441\u0442\u0440\u043e\u0432\u0430","name:vi":"T\u1ec9nh \u0110\u00f4ng Nusa Tenggara","id":-2396778,"osm_relation":true,"name:ja":"\u6771\u30cc\u30b5\u30fb\u30c8\u30a5\u30f3\u30ac\u30e9"},"arcs":[20]},{"type":"LineString","properties":{"kind":"region","name:en":"East Nusa Tenggara","name":"Nusa Tenggara Timur","sort_rank":256,"kind_detail":"4","min_zoom":8.0,"name:de":"Ost-Nusa Tenggara","source":"openstreetmap.org","maritime_boundary":true,"name:vi":"T\u1ec9nh \u0110\u00f4ng Nusa Tenggara","name:ru":"\u0412\u043e\u0441\u0442\u043e\u0447\u043d\u044b\u0435 \u041c\u0430\u043b\u044b\u0435 \u0417\u043e\u043d\u0434\u0441\u043a\u0438\u0435 \u043e\u0441\u0442\u0440\u043e\u0432\u0430","id":-2396778,"osm_relation":true,"name:ja":"\u6771\u30cc\u30b5\u30fb\u30c8\u30a5\u30f3\u30ac\u30e9"},"arcs":[21]}]},"roads":{"type":"GeometryCollection","geometries":[{"type":"MultiLineString","properties":{"sort_rank":380,"kind_detail":"primary","min_zoom":8.0,"kind":"major_road","source":"openstreetmap.org"},"arcs":[[26],[27],[28],[29],[30],[31],[32],[33],[34],[35],[36],[37],[38],[39],[40],[41],[42],[43],[44],[45],[46],[47],[48],[49],[50],[51],[52],[53],[54],[55],[56],[57],[58],[59],[60],[61],[62],[63],[64],[65],[66],[67],[68],[69],[70],[71],[72],[73],[74],[75],[76],[77],[78],[79],[80],[81],[82]]},{"type":"MultiLineString","properties":{"source":"openstreetmap.org","kind":"major_road","landuse_kind":"residential","sort_rank":380,"kind_detail":"primary","min_zoom":8.0},"arcs":[[83],[84],[85],[86],[87],[88]]},{"type":"LineString","properties":{"kind":"major_road","sort_rank":380,"kind_detail":"primary","source":"openstreetmap.org","min_zoom":8.0,"old_name":"Avenida Governador Alves Aldeia","landuse_kind":"residential","id":41193749},"arcs":[89]},{"type":"LineString","properties":{"kind":"major_road","sort_rank":380,"kind_detail":"primary","source":"openstreetmap.org","min_zoom":8.0,"old_name":"Avenida Almirante Am\u00e9rico Tom\u00e1s","landuse_kind":"residential","id":41193745},"arcs":[90]},{"type":"LineString","properties":{"source":"openstreetmap.org","kind":"major_road","old_name":"Rua Comoro","sort_rank":380,"kind_detail":"primary","min_zoom":8.0,"id":515977669},"arcs":[91]},{"type":"LineString","properties":{"kind":"major_road","sort_rank":380,"kind_detail":"primary","source":"openstreetmap.org","min_zoom":8.0,"old_name":"Avenida dos Direitos Humanos","landuse_kind":"residential","id":41193751},"arcs":[92]},{"type":"LineString","properties":{"source":"openstreetmap.org","kind":"major_road","old_name":"Avenida dos Direitos Humanos","sort_rank":380,"kind_detail":"primary","min_zoom":8.0,"id":41193751},"arcs":[93]},{"type":"LineString","properties":{"kind":"major_road","sort_rank":380,"kind_detail":"primary","source":"openstreetmap.org","min_zoom":8.0,"old_name":"Av. Bispo Medeiros","landuse_kind":"residential","id":28904735},"arcs":[94]},{"type":"LineString","properties":{"kind":"major_road","sort_rank":380,"kind_detail":"primary","source":"openstreetmap.org","min_zoom":8.0,"old_name":"Ponte Comoro","landuse_kind":"residential","id":39207287},"arcs":[95]},{"type":"MultiLineString","properties":{"source":"openstreetmap.org","kind":"major_road","old_name":"Rua Comoro","sort_rank":380,"kind_detail":"primary","landuse_kind":"residential","min_zoom":8.0},"arcs":[[96],[97],[98]]},{"type":"LineString","properties":{"sort_rank":355,"source":"openstreetmap.org","min_zoom":8.0,"name":"Dili - Oecussi","kind":"ferry"},"arcs":[99]},{"type":"LineString","properties":{"source":"openstreetmap.org","kind":"ferry","name":"Dili - Atauro Island","sort_rank":355,"min_zoom":8.0,"id":41226636},"arcs":[100]},{"type":"LineString","properties":{"kind":"major_road","sort_rank":380,"kind_detail":"primary","is_bicycle_related":true,"cycleway":"opposite","source":"openstreetmap.org","min_zoom":8.0,"id":168665380},"arcs":[101]}]},"earth":{"type":"GeometryCollection","geometries":[{"type":"MultiPolygon","properties":{"sort_rank":10,"source":"naturalearthdata.com","min_zoom":0.0,"kind":"earth","area":26220348783},"arcs":[[[102]]]}]},"landuse":{"type":"GeometryCollection","geometries":[{"type":"Polygon","properties":{"source":"openstreetmap.org","kind":"residential","area":25416000,"tier":2,"id":150773470,"min_zoom":8.0,"sort_rank":20},"arcs":[[103]]}]}},"type":"Topology","transform":{"translate":[125.15625,-9.7956775828],"scale":[0.0003433228,0.0003389916]},"arcs":[[[0,2339],[90,-78],[3,-129],[-43,-96],[20,-35],[-27,-17],[19,-59],[44,-39],[-52,-55],[-54,1]],[[301,4096],[-58,-109],[-243,-130]],[[0,846],[243,-163]],[[243,683],[2404,943],[1449,474]],[[0,111],[9,10],[283,529],[-49,33]],[[3100,3298],[-146,-37],[-158,10],[-203,-266],[128,-216],[4,-53],[-34,-52],[36,-27],[11,-84],[36,-49],[79,-42],[87,-234]],[[2940,2248],[209,-458]],[[4096,3335],[-70,25],[-205,5],[-111,-103],[-49,-3],[-88,42],[-143,-32],[-99,7],[-147,56],[-84,-34]],[[3149,1790],[947,310]],[[1957,3948],[-30,-79],[102,-90],[-243,-176],[-157,-22]],[[2013,4096],[-56,-148]],[[3100,3298],[-68,180],[22,85],[-88,391]],[[2966,3954],[-23,142]],[[1629,3581],[4,-80],[67,-18],[44,-54],[2,-57],[64,-90],[-50,-227],[-100,-124],[165,-7],[106,-44],[123,-160],[71,-152],[236,-61],[68,-131],[57,5],[119,-72],[100,-185]],[[2705,2124],[147,-431],[297,97]],[[1085,3481],[21,230],[-64,66]],[[1042,3777],[-306,319]],[[301,4096],[-58,-109],[-243,-130]],[[0,3080],[57,-6],[124,58],[84,-2],[104,32],[211,164],[74,-2],[67,31],[171,119],[193,7]],[[1085,3481],[326,67],[101,48],[117,-15]],[[0,1832],[54,-1],[52,55],[-44,39],[-19,59],[27,17],[-20,35],[43,96],[-3,129],[-90,78]],[[0,111],[9,10],[283,529],[-292,196]],[[4096,4096],[0,-221],[-40,-14],[-107,103],[-43,14],[-68,5],[-67,14],[-62,25],[-52,39],[-31,-14],[-58,-1],[-32,-5],[-97,-55],[-93,-27],[-128,-91],[-61,-31],[-117,-16],[-131,-2],[-38,-5],[-25,-4],[-123,-39],[-64,-13],[-78,9],[-117,57],[-304,54],[-138,-8],[-342,-112],[-158,-25],[-86,2],[-54,23],[-79,-80],[-34,-2],[-76,22],[-71,-9],[-157,-71],[-60,-13],[-192,13],[-58,-7],[-193,-56],[-87,-51],[-32,-9],[-107,16],[-23,-6],[-56,-30],[-134,-21],[-23,-8],[0,650],[4096,0]],[[4096,2850],[0,-2850],[-4096,0],[0,1086],[118,8],[42,15],[32,26],[31,35],[54,81],[36,42],[80,35],[150,126],[105,64],[318,119],[187,69],[60,34],[59,48],[48,10],[148,-22],[53,2],[187,105],[61,15],[121,0],[34,12],[64,54],[32,17],[58,4],[171,-26],[55,17],[292,202],[217,150],[46,19],[82,34],[770,100],[123,35],[103,91],[105,182],[54,61]],[[0,1086],[118,8],[42,15],[32,26],[31,35],[54,81],[36,42],[80,35],[150,126],[105,64],[318,119],[187,69],[60,34],[59,48],[48,10],[148,-22],[53,2],[187,105],[61,15],[121,0],[34,12],[64,54],[32,17],[58,4],[171,-26],[55,17],[292,202],[217,150],[46,19],[82,34],[770,100],[123,35],[103,91],[105,182],[54,61]],[[4096,3875],[-40,-14],[-107,103],[-43,14],[-68,5],[-67,14],[-62,25],[-52,39],[-31,-14],[-58,-1],[-32,-5],[-97,-55],[-93,-27],[-128,-91],[-61,-31],[-117,-16],[-131,-2],[-38,-5],[-25,-4],[-123,-39],[-64,-13],[-78,9],[-117,57],[-304,54],[-138,-8],[-342,-112],[-158,-25],[-86,2],[-54,23],[-79,-80],[-34,-2],[-76,22],[-71,-9],[-157,-71],[-60,-13],[-192,13],[-58,-7],[-193,-56],[-87,-51],[-32,-9],[-107,16],[-23,-6],[-56,-30],[-134,-21],[-23,-8]],[[0,3444],[159,64],[222,5],[286,108],[274,-22],[33,22]],[[0,2397],[52,-25],[157,-6],[44,-51],[119,6],[5,-40],[40,-17],[-103,-78],[-63,-105],[-1,-133],[-99,-17],[-63,-65],[61,-66],[7,-90],[30,-37],[-21,-110],[19,-59],[120,-93]],[[304,1411],[6,-4]],[[0,2122],[2,5],[48,30],[-47,65]],[[0,1234],[24,57],[254,119],[26,1]],[[304,1411],[70,1],[110,136],[325,253],[46,79],[-7,-33],[29,-21],[199,-30],[49,143]],[[284,1434],[1,-1]],[[974,3621],[-26,-69],[13,-73],[-28,-22],[-32,22],[-1,-40],[-161,-158],[26,-53],[51,-27],[1,-117],[-44,-36],[-72,32]],[[813,3155],[2,20]],[[1078,3665],[-133,-13],[29,-31]],[[1078,3665],[1,1]],[[1079,3664],[-1,1]],[[1081,3665],[21,-2]],[[1262,1995],[-62,-54],[-75,-2]],[[1247,3563],[-24,-26],[72,-6],[37,-40],[46,12],[27,-32],[-71,-54],[-155,-49],[-40,-92],[54,-115],[-30,-218],[120,-24],[15,-61],[-52,-123],[64,-48],[-3,-2]],[[1307,2685],[-43,-23],[5,-30],[-87,-87],[-60,-19],[-37,-64],[-21,8],[-5,-80],[-57,-43],[29,-141],[63,-57],[-18,-82],[57,-82],[-8,-46]],[[1281,3682],[-20,-2]],[[1546,2108],[-18,-68],[-77,-27],[-98,7],[-46,-64],[-45,39]],[[1281,3682],[2,0]],[[1310,3686],[-15,0]],[[1305,2686],[2,-1]],[[1307,2685],[16,-14],[26,-47],[-24,-32],[22,-9],[-38,-43],[49,-13],[40,19],[77,-106],[-42,-106],[18,-77],[65,-58],[30,-91]],[[1312,3685],[-2,1]],[[1312,3685],[63,59],[111,0],[18,-51],[103,22],[21,44],[29,-26],[84,-2],[149,67],[112,86],[287,3],[31,-48],[81,27],[52,-46],[6,-51],[23,10]],[[1435,2349],[1,2]],[[2582,2415],[-73,-44],[-49,-110],[-244,-117],[-57,-128],[-146,-27],[-85,-69],[-57,25],[-122,-84],[-79,-1],[-93,86],[-31,162]],[[2479,3767],[-29,-223],[-34,-70],[14,-199],[-37,-53],[10,-64],[-34,-53],[14,-11],[-30,-86],[27,-120],[94,-75],[-55,-48],[37,-33],[-107,-198],[50,-58],[63,11],[120,-72]],[[2479,3768],[3,11]],[[2482,3779],[13,15],[205,-65],[22,31],[83,-38],[33,16],[61,-42],[369,177],[63,-29],[30,22],[158,-18],[187,92],[67,-9],[3,0]],[[3776,3931],[2,0]],[[3778,3931],[15,2]],[[2582,2415],[197,88]],[[3520,2739],[-101,-2],[-154,-161],[-64,-22],[-95,-18],[-11,34],[-82,-50],[-117,36],[-113,-48]],[[3795,3916],[-65,-169],[-142,-144],[-54,-274],[14,-75],[-32,-60],[15,-63],[48,-27],[-17,-47],[-41,-20],[37,-22],[11,-113],[-51,-160]],[[3523,2740],[-5,2]],[[3521,2739],[8,-1]],[[3523,2740],[6,-2]],[[3529,2738],[55,-53],[33,-111],[48,-43],[110,-29]],[[3778,3934],[-7,3]],[[3771,3937],[-1,0]],[[3770,3937]],[[3771,3938],[0,-1]],[[3771,3937],[64,18],[51,-54],[210,-35]],[[3771,3937],[7,-3],[0,-3]],[[3778,3931]],[[3777,3931],[-1,0]],[[3776,3931],[-1,3]],[[3793,3933],[7,-9]],[[3795,3916],[2,4]],[[3797,3920],[3,4]],[[1081,3664],[-2,0],[0,2]],[[1079,3666],[1,0],[1,-2]],[[2478,3768],[1,0],[0,-1],[-1,0],[0,1]],[[3771,3937]],[[3771,3937],[-1,0]],[[3770,3937],[0,1],[1,0]],[[3771,3938],[0,-1]],[[1102,3663],[86,-1]],[[1155,3663],[2,0]],[[1234,3647],[8,-45],[15,6],[-10,-45]],[[1295,3686],[-11,-4]],[[1284,3682],[-1,0]],[[1233,3647],[0,1],[1,-1],[-1,0]],[[1222,3663],[10,3]],[[1201,3663],[21,0]],[[1102,3663],[-21,1]],[[1232,3666],[8,3]],[[1240,3669],[21,11]],[[1232,3666],[2,-18]],[[1110,3662],[-6,1]],[[1104,3663],[-2,0]],[[1188,3662],[-78,0]],[[1199,3663],[2,0]],[[0,3576],[1103,159],[117,-71]],[[1220,3664],[60,432]],[[4096,2935],[-9,19],[-48,-39],[-93,-107],[-13,-166],[-40,-88],[-42,-45],[-76,-7]],[[4096,3875],[0,-1025],[-54,-61],[-105,-182],[-103,-91],[-123,-35],[-770,-100],[-82,-34],[-46,-19],[-217,-150],[-292,-202],[-55,-17],[-171,26],[-58,-4],[-32,-17],[-64,-54],[-34,-12],[-121,0],[-61,-15],[-187,-105],[-53,-2],[-148,22],[-48,-10],[-59,-48],[-60,-34],[-187,-69],[-318,-119],[-105,-64],[-150,-126],[-80,-35],[-36,-42],[-54,-81],[-31,-35],[-32,-26],[-42,-15],[-118,-8],[0,2360],[23,8],[134,21],[56,30],[23,6],[107,-16],[32,9],[87,51],[193,56],[58,7],[192,-13],[60,13],[157,71],[71,9],[76,-22],[34,2],[79,80],[54,-23],[86,-2],[158,25],[342,112],[138,8],[304,-54],[117,-57],[78,-9],[64,13],[123,39],[25,4],[38,5],[131,2],[117,16],[61,31],[128,91],[93,27],[97,55],[32,5],[58,1],[31,14],[52,-39],[62,-25],[67,-14],[68,-5],[43,-14],[107,-103],[40,14]],[[1101,3609],[3,101],[116,-47],[82,25],[-21,-11],[18,-22],[37,3],[42,-35],[-22,1],[2,-34],[-66,31],[-49,-64],[-12,61],[-29,0],[-19,-34],[-16,31],[-66,-6]]]}