{"objects":{"water":{"type":"GeometryCollection","geometries":[{"type":"Polygon","properties":{"source":"naturalearthdata.com","kind":"ocean","area":1576712559132672,"sort_rank":200,"min_zoom":0.0,"id":1},"arcs":[[62],[63]]},{"type":"LineString","properties":{"source":"naturalearthdata.com","kind":"ocean","sort_rank":205,"boundary":true,"min_zoom":0.0,"id":58},"arcs":[64]}]},"buildings":{"type":"GeometryCollection","geometries":[]},"places":{"type":"GeometryCollection","geometries":[{"type":"Point","properties":{"name:pt":"Pyongan Sul","name:nl":"P'y\u014fngan-namdo","name:id":"P'y\u014fngan Selatan","name:lt":"Piet\u0173 Pchenjano provincija","name:no":"S\u00f8r-Pyongan","name:ko":"P\u2019y\u014fngan-namdo","name:sv":"S\u00f6dra P'y\u014fngan","name:cs":"Ji\u017en\u00ed Pchj\u014fngan","kind":"region","name:th":"\u0e21\u0e13\u0e11\u0e25\u0e1e\u0e22\u0e2d\u0e07\u0e2d\u0e31\u0e19\u0e43\u0e15\u0e49","name:en":"Pyongannam-do","name:it":"Sud Pyongan","name:uk":"\u041f\u0456\u0432\u0434\u0435\u043d\u043d\u0430 \u043f\u0440\u043e\u0432\u0456\u043d\u0446\u0456\u044f \u041f\u0445\u044c\u043e\u043d\u0430\u043d","name:ru":"\u041f\u0445\u0451\u043d\u0430\u043d-\u041d\u0430\u043c\u0434\u043e","name:vi":"B\u00ecnh An Nam","name:pl":"P'y\u014fngan Po\u0142udniowy","name:hu":"D\u00e9l-Phjongan","id":3708224038,"name:ja":"\u5e73\u5b89\u5357\u9053","name:eo":"Sud-Pjongan","name:bg":"\u042e\u0436\u0435\u043d \u041f\u0445\u044c\u043e\u043d\u0430\u043d","name":"\ud3c9\uc548\ub0a8\ub3c4","name:fi":"Etel\u00e4-P'y\u014fngan","name:da":"Sydpyongan","min_zoom":4.0,"name:de":"S\u00fcd-P\u2019y\u014fngan","source":"openstreetmap.org","name:fr":"Pyongan du Sud","kind_detail":"state","name:zh":"\u5e73\u5b89\u5357\u9053","name:es":"P'y\u014fngan del Sur"},"coordinates":[2646,2709]},{"type":"Point","properties":{"name:pt":"Pyongyang","name:ps":"\u067e\u064a\u0648\u0646\u06ab\u064a\u0627\u0646\u06ab","name:ka":"\u10e4\u10ee\u10d4\u10dc\u10d8\u10d0\u10dc\u10d8","name:tr":"Pyongyang","name:kn":"\u0caa\u0ccd\u0caf\u0cca\u0ca8\u0ccd\u0c97\u0ccd\u0caf\u0cbe\u0c82\u0c97\u0ccd","name:kl":"Pyongyang","name:cs":"Pchjongjang","name:tt":"\u041f\u0445\u0435\u043d\u044c\u044f\u043d","name:ku":"Pyongyang","name:ro":"Phenian","name:tl":"Pyongyang","name:sv":"Pyongyang","name:os":"\u041f\u0445\u0435\u043d\u044c\u044f\u043d","name:pl":"Pjongjang","name:ta":"\u0baa\u0bbf\u0baf\u0bca\u0b99\u0bcd\u0baf\u0bbe\u0b99\u0bcd","name:ht":"Pyongyang","name:ca":"Pyongyang","name:vi":"B\u00ecnh Nh\u01b0\u1ee1ng","name:cy":"P'y\u014fngyang","old_name:pl":"Phenian","name:da":"Pyongyang","name:de":"Pj\u00f6ngjang","source":"openstreetmap.org","admin_level":"2","name:lv":"Phenjana","name:lt":"Pchenjanas","name:hi":"\u092a\u094d\u092f\u094b\u0902\u0917\u092f\u093e\u0902\u0917","name:kk":"\u041f\u0445\u0435\u043d\u044c\u044f\u043d","name:he":"\u05e4\u05d9\u05d5\u05e0\u05d2\u05d9\u05d0\u05e0\u05d2","min_zoom":8.0,"kind":"locality","name:ur":"\u067e\u06cc\u0627\u0646\u06af \u06cc\u0627\u0646\u06af","name:la":"Pyeongyangum","official_name":"\ud3c9\uc591\uc9c1\ud560\uc2dc","name:uk":"\u041f\u0445\u0435\u043d\u044c\u044f\u043d","name:hy":"\u054a\u056d\u0565\u0576\u0575\u0561\u0576","country_capital":true,"name:ug":"Pyongyang","name:hu":"Phenjan","name:hr":"Pjongjang","name:oc":"Pyeongyang","population":3871335,"name:el":"\u03a0\u03b9\u03bf\u03bd\u03b3\u03b9\u03ac\u03bd\u03b3\u03ba","name:eo":"Pjongjango","name:en":"Pyongyang","name":"\ud3c9\uc591","name:th":"\u0e40\u0e1b\u0e35\u0e22\u0e07\u0e22\u0e32\u0e07","name:eu":"Piongiang","name:et":"P'y\u014fngyang","name:nl":"Pyongyang","name:es":"Pyongyang","name:az":"Pxenyan","name:id":"Pyongyang","name:ms":"Pyongyang","name:mr":"\u092a\u094d\u092f\u093e\u0901\u0917\u092f\u093e\u0902\u0917","name:ar":"\u0628\u064a\u0648\u0646\u063a\u064a\u0627\u0646\u063a","name:io":"Pyongyang","name:is":"Pjongjang","name:am":"\u1355\u12ee\u1295\u130d\u12eb\u1295\u130d","name:it":"Pyongyang","name:an":"Pyongyang","name:ru":"\u041f\u0445\u0435\u043d\u044c\u044f\u043d","name:mn":"\u041f\u0445\u0435\u043d\u044c\u044f\u043d","name:mi":"Pyongyang","id":32013127,"name:mk":"\u041f\u0458\u043e\u043d\u0433\u0458\u0430\u043d\u0433","name:af":"Pjongjang","name:fa":"\u067e\u06cc\u0648\u0646\u06af\u200c\u06cc\u0627\u0646\u06af","kind_detail":"city","name:no":"Pyongyang","name:fo":"Pyongyang","name:zh-min-nan":"Pyongyang","name:fr":"Pyongyang","name:zh-yue":"\u5e73\u58e4","name:fy":"Pyongyang","name:vo":"Py\u00f6ngyang","name:zh":"\u5e73\u58e4","name:sl":"Pjongjang","name:sk":"Pchjongjang","name:ja":"\u5e73\u58cc","name:nn":"Pyongyang","name:sh":"Pjongjang","name:br":"Pyongyang","name:bs":"Pjongjang","name:yi":"\u05e4\u05d9\u05d0\u05e0\u05d2\u05d9\u05d0\u05e0\u05d2","name:bn":"\u09aa\u09bf\u09af\u09bc\u0982 \u0987\u09af\u09bc\u09be\u0982","name:bo":"\u0f55\u0f7c\u0f44\u0f0b\u0f61\u0f44\u0f0b\u0f0d","name:sw":"Pyongyang","name:be":"\u041f\u0445\u0435\u043d\u044c\u044f\u043d","name:bg":"\u041f\u0445\u0435\u043d\u044f\u043d","name:sr":"\u041f\u0458\u043e\u043d\u0433\u0458\u0430\u043d\u0433","name:sq":"Pjongian","name:ko":"P'y\u014fngyang","name:ga":"Pyongyang","name:gd":"Pyongyang","name:jv":"Pyongyang","name:gl":"Pyongyang","name:yo":"Pyongyang","name:fi":"Pjongjang"},"coordinates":[1739,742]},{"type":"Point","properties":{"int_name":"Phyongsong","name:nl":"Pyongsong","name:ja":"\u5e73\u57ce","name:lt":"Pchensanas","name:ko":"P'yong-song","min_zoom":8.0,"name:vi":"B\u00ecnh Th\u00e0nh","name:ru":"\u041f\u0445\u0451\u043d\u0441\u043e\u043d","id":256633075,"population":236583,"kind":"locality","name:en":"Phyongsong","name":"\ud3c9\uc131\uc2dc","kind_detail":"city","name:de":"Pyongsong","source":"openstreetmap.org","name:fr":"Pyongsong","name:zh":"\u5e73\u57ce\u5e02"},"coordinates":[2081,1592]}]},"transit":{"type":"GeometryCollection","geometries":[{"type":"MultiLineString","properties":{"kind":"subway","name:en":"Hy\u014fksin line","name":"\ud601\uc2e0\uc120","sort_rank":275,"name:zh":"\u9769\u65b0\u7ebf","colour":"green","name:fr":"ligne Hy\u014fksin","source":"openstreetmap.org","min_zoom":8.0,"network":"\ud3c9\uc591 \uc9c0\ud558\ucca0\ub3c4","ref":"2","osm_relation":true,"colour_name":"green"},"arcs":[[6],[7],[8],[9],[10],[11],[12],[13],[14],[15],[16],[17],[18],[19],[20],[21],[22],[23],[24],[25],[26],[27],[28],[29],[30],[31],[32],[33],[34],[35],[36],[37]]},{"type":"LineString","properties":{"kind":"train","network":"\uc870\uc120\ubbfc\uc8fc\uc8fc\uc758\uc778\ubbfc\uacf5\ud654\uad6d \ucca0\ub3c4\uc131","sort_rank":275,"source":"openstreetmap.org","min_zoom":6.0,"name:ru":"\u041f\u0445\u0435\u043d\u044c\u044f\u043d \u2014 \u0421\u0438\u043d\u044b\u0439\u0434\u0436\u0443","osm_relation":true,"name":"\ud3c9\uc591\u2013\uc2e0\uc758\uc8fc"},"arcs":[38]},{"type":"LineString","properties":{"kind":"train","name":"Pyongyang \u2014 Moscow","sort_rank":275,"name:de":"Pj\u00f6ngjang \u2014 Moskau","source":"openstreetmap.org","min_zoom":6.0,"name:ko":"\ud3c9\uc591\u2013\ubaa8\uc2a4\ucf54\ubc14","name:ru":"\u041f\u0445\u0435\u043d\u044c\u044f\u043d \u2014 \u041c\u043e\u0441\u043a\u0432\u0430","ref":"002 Pyongyang - Moscow","osm_relation":true},"arcs":[39]},{"type":"MultiLineString","properties":{"kind":"subway","name:en":"Chollima Line","name:ja":"\u5343\u91cc\u99ac\u7dda","sort_rank":275,"ref":"1","colour":"red","min_zoom":8.0,"source":"openstreetmap.org","name:fr":"ligne Chollima","osm_relation":true,"network":"\ud3c9\uc591 \uc9c0\ud558\ucca0\ub3c4","name:pl":"Linia Chollima","name:zh":"\u5343\u91cc\u9a6c\u7ebf","colour_name":"red","name":"\ucc9c\ub9ac\ub9c8\uc120"},"arcs":[[40],[41],[42],[43],[44],[45],[46],[47],[48],[49],[50],[51],[52],[53],[54],[55],[56],[57],[58],[59]]},{"type":"LineString","properties":{"source":"openstreetmap.org","kind":"train","sort_rank":275,"ref":"\u0423\u0441\u0441\u0443\u0440\u0438\u0439\u0441\u043a \u2014 \u041f\u0445\u0435\u043d\u044c\u044f\u043d","min_zoom":6.0,"osm_relation":true},"arcs":[60]},{"type":"LineString","properties":{"kind":"train","name":"\u5317\u4eac\u2013\u5e73\u58e4","name:ko":"\ubd81\uacbd\u2013\ud3c9\uc591","source":"openstreetmap.org","min_zoom":6.0,"name:ru":"\u041f\u0435\u043a\u0438\u043d \u2014 \u041f\u0445\u0435\u043d\u044c\u044f\u043d","ref":"K27\/K28","osm_relation":true,"sort_rank":275},"arcs":[61]}]},"pois":{"type":"GeometryCollection","geometries":[{"type":"Point","properties":{"kind":"prison","name:en":"Bukchang concentration camp","name":"\ubd81\ucc3d\uad00\ub9ac\uc18c18\ud638","area":124069000,"alt_name:de":"Internierungslager T\u016dkchang","alt_name:en":"T\u016dkchang concentration camp","name:de":"Internierungslager Pukch\u2019ang","source":"openstreetmap.org","min_zoom":6.36,"int_name":"Kwan-li-so 18","name:ru":"\u041f\u0443\u043a\u0447\u0445\u0430\u043d\u0441\u043a\u0438\u0439 \u043d\u0430\u0434\u0437\u043e\u0440\u043d\u044b\u0439 \u0446\u0435\u043d\u0442\u0440 \u2116\u00a018","name:zh":"\u5317\u4ed3\u7b2c\u5341\u516b\u53f7\u7ba1\u7406\u6240","id":123365703,"name:ja":"\u5317\u5009\u5f37\u5236\u53ce\u5bb9\u6240(\u7b2c18\u53f7\u7ba1\u7406\u6240)"},"coordinates":[2657,2747]},{"type":"Point","properties":{"kind":"prison","name:en":"Kaechon internment camp","name":"\uac1c\ucc9c\uad00\ub9ac\uc18c14\ud638","area":274736000,"min_zoom":5.79,"name:de":"Internierungslager Kaech'\u014fn","source":"openstreetmap.org","name:fr":"Centre de d\u00e9tention de Kaechon","int_name":"Kwan-li-so 14","name:ru":"\u041a\u044d\u0447\u0445\u043e\u043d\u0441\u043a\u0438\u0439 \u043d\u0430\u0434\u0437\u043e\u0440\u043d\u044b\u0439 \u0446\u0435\u043d\u0442\u0440 \u2116\u00a014","id":257817336},"coordinates":[2769,3034]}]},"boundaries":{"type":"GeometryCollection","geometries":[{"type":"LineString","properties":{"name:left:la":"Pyeongyangum","name:left:hi":"\u092a\u094d\u092f\u094b\u0902\u0917\u092f\u093e\u0902\u0917","name:right:no":"Nord-Hwanghae","name:right:uk":"\u041f\u0456\u0432\u043d\u0456\u0447\u043d\u0430 \u043f\u0440\u043e\u0432\u0456\u043d\u0446\u0456\u044f \u0425\u0432\u0430\u043d\u0445\u0435","name:left:he":"\u05e4\u05d9\u05d5\u05e0\u05d2\u05d9\u05d0\u05e0\u05d2","name:left:sw":"Pyongyang","name:left:sv":"Pyongyang","name:left:sq":"Pjongian","name:left:sr":"\u041f\u0458\u043e\u043d\u0433\u0458\u0430\u043d\u0433","name:right:lt":"\u0160iaur\u0117s Hvangh\u0117s provincija","name:left:sl":"Pjongjang","min_zoom":8.0,"name:left:lt":"Pchenjanas","name:left:sh":"Pjongjang","name:left:lv":"Phenjana","name:left:an":"Pyongyang","name:left:ht":"Pyongyang","name:left:hu":"Phenjan","name:left:hr":"Pyongyang","name:left:ga":"Pyongyang","name:right:vi":"Ho\u00e0ng H\u1ea3i B\u1eafc","name:left:gd":"Pyongyang","sort_rank":256,"name:right:pl":"Hwanghae P\u00f3\u0142nocne","name:left:ca":"Pyongyang","name:left:gl":"Pyongyang","source":"openstreetmap.org","name:left:cy":"P'y\u014fngyang","name:left:cs":"Pchjongjang","name:left":"\ud3c9\uc591","name:right:es":"Hwanghae del Norte","name:left:ka":"\u10e4\u10ee\u10d4\u10dc\u10d8\u10d0\u10dc\u10d8","name:right:mn":"\u0423\u043c\u0430\u0440 \u0425\u0443\u0430\u043d\u0445\u044d","name:left:kl":"Pyongyang","name:left:ko":"P'y\u014fngyang","name:left:kn":"\u0caa\u0ccd\u0caf\u0cca\u0ca8\u0ccd\u0c97\u0ccd\u0caf\u0cbe\u0c82\u0c97\u0ccd","name:left:ro":"Phenian","name:left:kk":"\u041f\u0445\u0435\u043d\u044c\u044f\u043d","name:right:ru":"\u0425\u0432\u0430\u043d\u0445\u044d-\u041f\u0443\u043a\u0442\u043e","name:left:ku":"Pyongyang","name:left:ru":"\u041f\u0445\u0435\u043d\u044c\u044f\u043d","name:left:vo":"Py\u00f6ngyang","name:left:oc":"Pyeongyang","name:right:id":"Hwanghae Utara","name:right:eo":"Nord-H\u016danghae","name:right:en":"Hwanghaebuk-do","name:left:vi":"B\u00ecnh Nh\u01b0\u1ee1ng","name:left:uk":"\u041f\u0445\u0435\u043d\u044c\u044f\u043d","kind":"region","name":"\ud3c9\uc591 - \ud669\ud574\ubd81\ub3c4","name:left:fa":"\u067e\u06cc\u0648\u0646\u06af\u200c\u06cc\u0627\u0646\u06af","name:left:fo":"Pyongyang","name:right:bg":"\u0421\u0435\u0432\u0435\u0440\u0435\u043d \u0425\u0432\u0430\u043d\u0445\u0435","name:left:fi":"Pjongjang","name:left:zh":"\u5e73\u58e4\u7279\u522b\u5e02","name:left:fr":"Pyongyang","name:left:da":"Pyongyang","name:right:zh":"\u9ec4\u6d77\u5317\u9053","official_name:left":"\ud3c9\uc591\uc9c1\ud560\uc2dc","name:left:hy":"\u054a\u056d\u0565\u0576\u0575\u0561\u0576","name:left:br":"Pyongyang","name:left:bs":"Pjongjang","name:right:nl":"Hwanghae-pukto","name:right:ja":"\u9ec4\u6d77\u5317\u9053","name:right:fr":"Hwanghae du Nord","name:left:sk":"Pchjongjang","name:left:ur":"\u067e\u06cc\u0627\u0646\u06af \u06cc\u0627\u0646\u06af","name:left:ja":"\u5e73\u58cc","name:left:th":"\u0e40\u0e1b\u0e35\u0e22\u0e07\u0e22\u0e32\u0e07","name:right:sv":"Norra Hwanghae","name:left:nn":"Pyongyang","name:left:no":"Pyongyang","name:left:nl":"Pyongyang","name:left:bg":"\u041f\u0445\u0435\u043d\u044f\u043d","name:left:be":"\u041f\u0445\u0435\u043d\u044c\u044f\u043d","name:left:ta":"\u0baa\u0bbf\u0baf\u0bca\u0b99\u0bcd\u0baf\u0bbe\u0b99\u0bcd","name:left:bn":"\u09aa\u09bf\u09af\u09bc\u0982 \u0987\u09af\u09bc\u09be\u0982","name:left:bo":"\u0f55\u0f7c\u0f44\u0f0b\u0f61\u0f44\u0f0b\u0f0d","name:right:fi":"Pohjois-Hwanghae","name:left:eo":"Pjongjango","name:left:en":"Pyongyang","name:left:el":"\u03a0\u03b9\u03bf\u03bd\u03b3\u03b9\u03ac\u03bd\u03b3\u03ba","name:left:jv":"Pyongyang","id":-356443,"name:left:yo":"Pyongyang","name:left:mk":"\u041f\u0458\u043e\u043d\u0433\u0458\u0430\u043d\u0433","name:left:ug":"Pyongyang","name:left:yi":"\u05e4\u05d9\u05d0\u05e0\u05d2\u05d9\u05d0\u05e0\u05d2","id:left":-356443,"name:left:es":"Pyongyang","name:right:cs":"Severn\u00ed Hwangh\u00e4","name:right":"\ud669\ud574\ubd81\ub3c4","id:right":-356442,"name:left:os":"\u041f\u0445\u0435\u043d\u044c\u044f\u043d","name:left:eu":"Piongiang","name:left:et":"P'y\u014fngyang","name:left:io":"Pyongyang","name:right:it":"Nord Hwanghae","name:right:pt":"Hwanghae Norte","name:left:ar":"\u0628\u064a\u0648\u0646\u063a\u064a\u0627\u0646\u063a","name:left:pl":"Pjongjang","name:left:mi":"Pyongyang","name:left:id":"Pyongyang","name:left:tt":"\u041f\u0445\u0435\u043d\u044c\u044f\u043d","name:left:mn":"\u041f\u0445\u0435\u043d\u044c\u044f\u043d","name:left:az":"Pxenyan","name:left:pt":"Pyongyang","name:left:mr":"\u092a\u094d\u092f\u093e\u0901\u0917\u092f\u093e\u0902\u0917","name:left:de":"Pj\u00f6ngjang","name:left:tl":"Pyongyang","name:left:ps":"\u067e\u064a\u0648\u0646\u06ab\u064a\u0627\u0646\u06ab","name:left:tr":"Pyongyang","name:left:zh-min-nan":"Pyongyang","name:left:am":"\u1355\u12ee\u1295\u130d\u12eb\u1295\u130d","name:left:it":"Pyongyang","name:left:is":"Pjongjang","osm_relation":true,"name:left:ms":"Pyongyang","name:left:af":"Pjongjang","name:right:de":"Hwanghae-pukto","name:right:da":"Nordhwanghae","name:left:zh-yue":"\u5e73\u58e4","kind_detail":"4","name:left:fy":"Pyongyang"},"arcs":[0]},{"type":"LineString","properties":{"name:left:la":"Pyeongyangum","name:left:hi":"\u092a\u094d\u092f\u094b\u0902\u0917\u092f\u093e\u0902\u0917","name:right:no":"S\u00f8r-Pyongan","name:right:uk":"\u041f\u0456\u0432\u0434\u0435\u043d\u043d\u0430 \u043f\u0440\u043e\u0432\u0456\u043d\u0446\u0456\u044f \u041f\u0445\u044c\u043e\u043d\u0430\u043d","name:left:he":"\u05e4\u05d9\u05d5\u05e0\u05d2\u05d9\u05d0\u05e0\u05d2","name:left:sw":"Pyongyang","name:left:sv":"Pyongyang","name:left:sq":"Pjongian","name:right:hu":"D\u00e9l-Phjongan","name:left:sr":"\u041f\u0458\u043e\u043d\u0433\u0458\u0430\u043d\u0433","name:right:lt":"Piet\u0173 Pchenjano provincija","name:left:sl":"Pjongjang","min_zoom":8.0,"name:left:lt":"Pchenjanas","name:left:sh":"Pjongjang","name:left:lv":"Phenjana","name:left:an":"Pyongyang","name:left:ht":"Pyongyang","name:left:hu":"Phenjan","name:left:hr":"Pyongyang","name:left:ga":"Pyongyang","name:right:vi":"B\u00ecnh An Nam","name:left:gd":"Pyongyang","sort_rank":256,"name:right:pl":"P'y\u014fngan Po\u0142udniowy","name:left:ca":"Pyongyang","name:left:gl":"Pyongyang","source":"openstreetmap.org","name:left:cy":"P'y\u014fngyang","name:left:cs":"Pchjongjang","name:left":"\ud3c9\uc591","name:right:es":"P'y\u014fngan del Sur","name:left:ka":"\u10e4\u10ee\u10d4\u10dc\u10d8\u10d0\u10dc\u10d8","name:left:kl":"Pyongyang","name:left:ko":"P'y\u014fngyang","name:left:kn":"\u0caa\u0ccd\u0caf\u0cca\u0ca8\u0ccd\u0c97\u0ccd\u0caf\u0cbe\u0c82\u0c97\u0ccd","name:left:ro":"Phenian","name:left:kk":"\u041f\u0445\u0435\u043d\u044c\u044f\u043d","name:right:ru":"\u041f\u0445\u0451\u043d\u0430\u043d-\u041d\u0430\u043c\u0434\u043e","name:left:ku":"Pyongyang","name:left:ru":"\u041f\u0445\u0435\u043d\u044c\u044f\u043d","name:left:vo":"Py\u00f6ngyang","name:left:oc":"Pyeongyang","name:right:id":"P'y\u014fngan Selatan","name:right:eo":"Sud-Pjongan","name:right:en":"Pyongannam-do","name:left:vi":"B\u00ecnh Nh\u01b0\u1ee1ng","name:left:uk":"\u041f\u0445\u0435\u043d\u044c\u044f\u043d","kind":"region","name":"\ud3c9\uc591 - \ud3c9\uc548\ub0a8\ub3c4","name:left:fa":"\u067e\u06cc\u0648\u0646\u06af\u200c\u06cc\u0627\u0646\u06af","name:left:fo":"Pyongyang","name:right:bg":"\u042e\u0436\u0435\u043d \u041f\u0445\u044c\u043e\u043d\u0430\u043d","name:left:fi":"Pjongjang","name:left:zh":"\u5e73\u58e4\u7279\u522b\u5e02","name:left:fr":"Pyongyang","name:left:da":"Pyongyang","name:right:zh":"\u5e73\u5b89\u5357\u9053","official_name:left":"\ud3c9\uc591\uc9c1\ud560\uc2dc","name:left:hy":"\u054a\u056d\u0565\u0576\u0575\u0561\u0576","name:left:br":"Pyongyang","name:left:bs":"Pjongjang","name:right:nl":"P'y\u014fngan-namdo","name:right:ja":"\u5e73\u5b89\u5357\u9053","name:right:fr":"Pyongan du Sud","name:left:sk":"Pchjongjang","name:left:ur":"\u067e\u06cc\u0627\u0646\u06af \u06cc\u0627\u0646\u06af","name:left:ja":"\u5e73\u58cc","name:left:th":"\u0e40\u0e1b\u0e35\u0e22\u0e07\u0e22\u0e32\u0e07","name:right:sv":"S\u00f6dra P'y\u014fngan","name:left:nn":"Pyongyang","name:left:no":"Pyongyang","name:left:nl":"Pyongyang","name:left:bg":"\u041f\u0445\u0435\u043d\u044f\u043d","name:left:be":"\u041f\u0445\u0435\u043d\u044c\u044f\u043d","name:left:ta":"\u0baa\u0bbf\u0baf\u0bca\u0b99\u0bcd\u0baf\u0bbe\u0b99\u0bcd","name:left:bn":"\u09aa\u09bf\u09af\u09bc\u0982 \u0987\u09af\u09bc\u09be\u0982","name:left:bo":"\u0f55\u0f7c\u0f44\u0f0b\u0f61\u0f44\u0f0b\u0f0d","name:right:fi":"Etel\u00e4-P'y\u014fngan","name:left:eo":"Pjongjango","name:left:en":"Pyongyang","name:left:el":"\u03a0\u03b9\u03bf\u03bd\u03b3\u03b9\u03ac\u03bd\u03b3\u03ba","name:left:jv":"Pyongyang","id":-356443,"name:left:yo":"Pyongyang","name:left:mk":"\u041f\u0458\u043e\u043d\u0433\u0458\u0430\u043d\u0433","name:left:ug":"Pyongyang","name:left:yi":"\u05e4\u05d9\u05d0\u05e0\u05d2\u05d9\u05d0\u05e0\u05d2","id:left":-356443,"name:left:es":"Pyongyang","name:right:cs":"Ji\u017en\u00ed Pchj\u014fngan","name:right":"\ud3c9\uc548\ub0a8\ub3c4","id:right":-356419,"name:left:os":"\u041f\u0445\u0435\u043d\u044c\u044f\u043d","name:left:eu":"Piongiang","name:left:et":"P'y\u014fngyang","name:left:io":"Pyongyang","name:right:it":"Sud Pyongan","name:right:pt":"Pyongan Sul","name:left:ar":"\u0628\u064a\u0648\u0646\u063a\u064a\u0627\u0646\u063a","name:left:pl":"Pjongjang","name:left:mi":"Pyongyang","name:left:id":"Pyongyang","name:left:tt":"\u041f\u0445\u0435\u043d\u044c\u044f\u043d","name:left:mn":"\u041f\u0445\u0435\u043d\u044c\u044f\u043d","name:right:ko":"P\u2019y\u014fngan-namdo","name:left:az":"Pxenyan","name:left:pt":"Pyongyang","name:left:mr":"\u092a\u094d\u092f\u093e\u0901\u0917\u092f\u093e\u0902\u0917","name:left:de":"Pj\u00f6ngjang","name:left:tl":"Pyongyang","name:left:ps":"\u067e\u064a\u0648\u0646\u06ab\u064a\u0627\u0646\u06ab","name:left:tr":"Pyongyang","name:left:zh-min-nan":"Pyongyang","name:left:am":"\u1355\u12ee\u1295\u130d\u12eb\u1295\u130d","name:left:it":"Pyongyang","name:left:is":"Pjongjang","osm_relation":true,"name:left:ms":"Pyongyang","name:left:af":"Pjongjang","name:right:de":"S\u00fcd-P\u2019y\u014fngan","name:right:da":"Sydpyongan","name:left:zh-yue":"\u5e73\u58e4","kind_detail":"4","name:right:th":"\u0e21\u0e13\u0e11\u0e25\u0e1e\u0e22\u0e2d\u0e07\u0e2d\u0e31\u0e19\u0e43\u0e15\u0e49","name:left:fy":"Pyongyang"},"arcs":[1]},{"type":"MultiLineString","properties":{"name:right:no":"S\u00f8r-Pyongan","name:right:nl":"P'y\u014fngan-namdo","name:right:ja":"\u5e73\u5b89\u5357\u9053","name:right:fr":"Pyongan du Sud","name:right:uk":"\u041f\u0456\u0432\u0434\u0435\u043d\u043d\u0430 \u043f\u0440\u043e\u0432\u0456\u043d\u0446\u0456\u044f \u041f\u0445\u044c\u043e\u043d\u0430\u043d","name:left:ja":"\u9ec4\u6d77\u5317\u9053","name:right:hu":"D\u00e9l-Phjongan","name:right:sv":"S\u00f6dra P'y\u014fngan","name:right:lt":"Piet\u0173 Pchenjano provincija","name:left:no":"Nord-Hwanghae","min_zoom":8.0,"name:left:lt":"\u0160iaur\u0117s Hvangh\u0117s provincija","name:left:bg":"\u0421\u0435\u0432\u0435\u0440\u0435\u043d \u0425\u0432\u0430\u043d\u0445\u0435","id":-356442,"name:right":"\ud3c9\uc548\ub0a8\ub3c4","name:left:it":"Nord Hwanghae","name:left:eo":"Nord-H\u016danghae","name:left:en":"Hwanghaebuk-do","sort_rank":256,"name:right:pl":"P'y\u014fngan Po\u0142udniowy","source":"openstreetmap.org","name:left:nl":"Hwanghae-pukto","id:left":-356442,"name:left:es":"Hwanghae del Norte","name:right:cs":"Ji\u017en\u00ed Pchj\u014fngan","name:right:fi":"Etel\u00e4-P'y\u014fngan","id:right":-356419,"name:left:cs":"Severn\u00ed Hwangh\u00e4","name:left":"\ud669\ud574\ubd81\ub3c4","name:right:es":"P'y\u014fngan del Sur","name:right:it":"Sud Pyongan","name:right:pt":"Pyongan Sul","name:left:pl":"Hwanghae P\u00f3\u0142nocne","name:left:id":"Hwanghae Utara","name:left:mn":"\u0423\u043c\u0430\u0440 \u0425\u0443\u0430\u043d\u0445\u044d","name:right:ko":"P\u2019y\u014fngan-namdo","name:right:vi":"B\u00ecnh An Nam","name:left:pt":"Hwanghae Norte","name:left:de":"Hwanghae-pukto","name:right:th":"\u0e21\u0e13\u0e11\u0e25\u0e1e\u0e22\u0e2d\u0e07\u0e2d\u0e31\u0e19\u0e43\u0e15\u0e49","name:left:ru":"\u0425\u0432\u0430\u043d\u0445\u044d-\u041f\u0443\u043a\u0442\u043e","name:right:bg":"\u042e\u0436\u0435\u043d \u041f\u0445\u044c\u043e\u043d\u0430\u043d","name:right:id":"P'y\u014fngan Selatan","name:right:eo":"Sud-Pjongan","name:right:en":"Pyongannam-do","osm_relation":true,"name:left:vi":"Ho\u00e0ng H\u1ea3i B\u1eafc","name:left:sv":"Norra Hwanghae","name:left:uk":"\u041f\u0456\u0432\u043d\u0456\u0447\u043d\u0430 \u043f\u0440\u043e\u0432\u0456\u043d\u0446\u0456\u044f \u0425\u0432\u0430\u043d\u0445\u0435","kind":"region","name":"\ud669\ud574\ubd81\ub3c4 - \ud3c9\uc548\ub0a8\ub3c4","name:left:da":"Nordhwanghae","name:right:ru":"\u041f\u0445\u0451\u043d\u0430\u043d-\u041d\u0430\u043c\u0434\u043e","name:right:da":"Sydpyongan","name:left:fi":"Pohjois-Hwanghae","name:left:zh":"\u9ec4\u6d77\u5317\u9053","name:left:fr":"Hwanghae du Nord","name:right:de":"S\u00fcd-P\u2019y\u014fngan","kind_detail":"4","name:right:zh":"\u5e73\u5b89\u5357\u9053"},"arcs":[[2],[3]]},{"type":"LineString","properties":{"name:pt":"Pyongan Sul","name:id":"P'y\u014fngan Selatan","name:ko":"P\u2019y\u014fngan-namdo","name:cs":"Ji\u017en\u00ed Pchj\u014fngan","name:th":"\u0e21\u0e13\u0e11\u0e25\u0e1e\u0e22\u0e2d\u0e07\u0e2d\u0e31\u0e19\u0e43\u0e15\u0e49","name:it":"Sud Pyongan","name:ru":"\u041f\u0445\u0451\u043d\u0430\u043d-\u041d\u0430\u043c\u0434\u043e","name:vi":"B\u00ecnh An Nam","name:pl":"P'y\u014fngan Po\u0142udniowy","id":-356419,"name:bg":"\u042e\u0436\u0435\u043d \u041f\u0445\u044c\u043e\u043d\u0430\u043d","sort_rank":256,"name:fi":"Etel\u00e4-P'y\u014fngan","name:da":"Sydpyongan","name:de":"S\u00fcd-P\u2019y\u014fngan","source":"openstreetmap.org","name:fr":"Pyongan du Sud","name:zh":"\u5e73\u5b89\u5357\u9053","name:nl":"P'y\u014fngan-namdo","name:ja":"\u5e73\u5b89\u5357\u9053","name:lt":"Piet\u0173 Pchenjano provincija","name:no":"S\u00f8r-Pyongan","kind":"region","name:uk":"\u041f\u0456\u0432\u0434\u0435\u043d\u043d\u0430 \u043f\u0440\u043e\u0432\u0456\u043d\u0446\u0456\u044f \u041f\u0445\u044c\u043e\u043d\u0430\u043d","name:sv":"S\u00f6dra P'y\u014fngan","name:hu":"D\u00e9l-Phjongan","osm_relation":true,"name:eo":"Sud-Pjongan","name:en":"Pyongannam-do","name":"\ud3c9\uc548\ub0a8\ub3c4","min_zoom":8.0,"kind_detail":"4","name:es":"P'y\u014fngan del Sur"},"arcs":[4]},{"type":"LineString","properties":{"name:pt":"Pyongan Sul","name:id":"P'y\u014fngan Selatan","name:ko":"P\u2019y\u014fngan-namdo","name:cs":"Ji\u017en\u00ed Pchj\u014fngan","name:th":"\u0e21\u0e13\u0e11\u0e25\u0e1e\u0e22\u0e2d\u0e07\u0e2d\u0e31\u0e19\u0e43\u0e15\u0e49","name:it":"Sud Pyongan","name:vi":"B\u00ecnh An Nam","name:ru":"\u041f\u0445\u0451\u043d\u0430\u043d-\u041d\u0430\u043c\u0434\u043e","name:pl":"P'y\u014fngan Po\u0142udniowy","id":-356419,"name:hu":"D\u00e9l-Phjongan","sort_rank":256,"name:fi":"Etel\u00e4-P'y\u014fngan","name:da":"Sydpyongan","name:de":"S\u00fcd-P\u2019y\u014fngan","source":"openstreetmap.org","name:fr":"Pyongan du Sud","name:zh":"\u5e73\u5b89\u5357\u9053","name:nl":"P'y\u014fngan-namdo","name:ja":"\u5e73\u5b89\u5357\u9053","name:lt":"Piet\u0173 Pchenjano provincija","name:no":"S\u00f8r-Pyongan","name:eo":"Sud-Pjongan","name:uk":"\u041f\u0456\u0432\u0434\u0435\u043d\u043d\u0430 \u043f\u0440\u043e\u0432\u0456\u043d\u0446\u0456\u044f \u041f\u0445\u044c\u043e\u043d\u0430\u043d","name:sv":"S\u00f6dra P'y\u014fngan","name:bg":"\u042e\u0436\u0435\u043d \u041f\u0445\u044c\u043e\u043d\u0430\u043d","osm_relation":true,"kind":"region","name:en":"Pyongannam-do","name":"\ud3c9\uc548\ub0a8\ub3c4","min_zoom":8.0,"maritime_boundary":true,"kind_detail":"4","name:es":"P'y\u014fngan del Sur"},"arcs":[5]}]},"roads":{"type":"GeometryCollection","geometries":[{"type":"LineString","properties":{"kind":"major_road","name:en":"Chongnyon Street","sort_rank":380,"landuse_kind":"urban_area","source":"openstreetmap.org","min_zoom":8.0,"kind_detail":"primary","name:ru":"\u043f\u0440\u043e\u0441\u043f\u0435\u043a\u0442 \u0427\u0445\u043e\u043d\u043d\u0451\u043d\u0433\u043e\u0440\u0438"},"arcs":[65]},{"type":"MultiLineString","properties":{"kind":"major_road","name:en":"Rakwon Street","sort_rank":380,"kind_detail":"primary","source":"openstreetmap.org","min_zoom":8.0,"name:ko":"\u6a02\u5712\uac70\ub9ac","landuse_kind":"urban_area","name:ru":"\u0443\u043b\u0438\u0446\u0430 \u041d\u0430\u043a\u0432\u043e\u043d\u0433\u043e\u0440\u0438"},"arcs":[[66],[67]]},{"type":"LineString","properties":{"kind":"major_road","name:en":"Future Scientists Street","sort_rank":380,"kind_detail":"primary","source":"openstreetmap.org","min_zoom":8.0,"landuse_kind":"urban_area","name:ru":"\u043f\u0440\u043e\u0441\u043f\u0435\u043a\u0442 \u041c\u0438\u0440\u044d-\u0413\u0432\u0430\u0445\u0430\u043a\u0447\u0430\u043a\u043a\u043e\u0440\u0438"},"arcs":[68]},{"type":"LineString","properties":{"kind":"major_road","name:en":"Munsu Street","sort_rank":380,"kind_detail":"primary","source":"openstreetmap.org","min_zoom":8.0,"int_name":"Munsu Street","landuse_kind":"urban_area","name:ru":"\u043f\u0440\u043e\u0441\u043f\u0435\u043a\u0442 \u041c\u0443\u043d\u0441\u0443\u0433\u043e\u0440\u0438","id":108024079},"arcs":[69]},{"type":"LineString","properties":{"kind":"major_road","name:en":"Yokjon Street","sort_rank":380,"kind_detail":"primary","source":"openstreetmap.org","min_zoom":8.0,"landuse_kind":"urban_area","name:ru":"\u0401\u043a\u0434\u0436\u043e\u043d\u0433\u0430 \u0443\u043b\u0438\u0446\u0430","id":42403186},"arcs":[70]},{"type":"LineString","properties":{"kind":"major_road","name:en":"Chollima Street","network":"AH","name:ko":"\ucc9c\ub9ac\ub9c8 \uac70\ub9ac","kind_detail":"primary","source":"openstreetmap.org","min_zoom":8.0,"landuse_kind":"urban_area","shield_text":"1","name:ru":"\u0443\u043b\u0438\u0446\u0430 \u0427\u0445\u043e\u043b\u043b\u0438\u043c\u0430\u043a\u043a\u043e\u0440\u0438","sort_rank":380},"arcs":[71]},{"type":"MultiLineString","properties":{"kind":"highway","name:en":"Pyongyang\u2013Huichon Motorway","name:ko":"\u5e73\u58e4\u7199\u5ddd\u9ad8\u901f\u9053\u8def","landuse_kind":"residential","source":"openstreetmap.org","min_zoom":8.0,"kind_detail":"motorway","sort_rank":383},"arcs":[[72],[73]]},{"type":"LineString","properties":{"kind":"major_road","sort_rank":380,"landuse_kind":"urban_area","source":"openstreetmap.org","min_zoom":8.0,"kind_detail":"primary","id":42411447,"name:es":"Calle Hashin"},"arcs":[74]},{"type":"MultiLineString","properties":{"kind":"major_road","name:en":"Hyoksin Street","name:ko":"\u9769\u65b0\uac70\ub9ac","kind_detail":"primary","source":"openstreetmap.org","min_zoom":8.0,"landuse_kind":"urban_area","name:ru":"\u0443\u043b\u0438\u0446\u0430 \u0425\u0451\u043a\u0441\u0438\u043d\u0433\u043e\u0440\u0438","sort_rank":380},"arcs":[[75],[76]]},{"type":"MultiLineString","properties":{"kind":"major_road","name:en":"Ryomyong Street","name:ko":"\u91d1\u57ce\uac70\ub9ac","kind_detail":"primary","source":"openstreetmap.org","min_zoom":8.0,"landuse_kind":"urban_area","sort_rank":380},"arcs":[[77],[78],[79],[80]]},{"type":"LineString","properties":{"kind":"major_road","name:en":"Chongim Bridge","name:ko":"\u8c9e\u4efb\ub2e4\ub9ac","kind_detail":"primary","source":"openstreetmap.org","min_zoom":8.0,"landuse_kind":"urban_area","name:ru":"\u043c\u043e\u0441\u0442 \u0427\u043e\u043d\u0438\u043c\u0434\u0430\u0440\u0438","id":42267740,"name:es":"Puente Cheong-im","sort_rank":380},"arcs":[81]},{"type":"LineString","properties":{"kind":"major_road","name:en":"Chollima Street","sort_rank":380,"kind_detail":"primary","source":"openstreetmap.org","min_zoom":8.0,"landuse_kind":"urban_area","name:ru":"\u0443\u043b\u0438\u0446\u0430 \u0427\u0445\u043e\u043b\u043b\u0438\u043c\u0430\u043a\u043a\u043e\u0440\u0438","id":366971013},"arcs":[82]},{"type":"LineString","properties":{"kind":"major_road","int_name":"Saesallim Street","name:ko":"\uc0c8\uc0b4\ub9bc\uac70\ub9ac","kind_detail":"primary","source":"openstreetmap.org","min_zoom":8.0,"name:en":"Saesallim Street","name:ru":"\u043f\u0440\u043e\u0441\u043f\u0435\u043a\u0442 \u0421\u044d\u0441\u0430\u043b\u043b\u0438\u043c","sort_rank":380},"arcs":[83]},{"type":"MultiLineString","properties":{"kind":"major_road","int_name":"Mansudae Street","name:ko":"\u842c\u58fd\u81fa\uac70\ub9ac","kind_detail":"primary","source":"openstreetmap.org","min_zoom":8.0,"name:en":"Mansudae Street","landuse_kind":"urban_area","name:ru":"\u0443\u043b\u0438\u0446\u0430 \u041c\u0430\u043d\u0441\u0443\u0434\u044d\u043a\u043a\u043e\u0440\u0438","name:zh":"\u842c\u58fd\u81fa\u8def","sort_rank":380},"arcs":[[84],[85]]},{"type":"LineString","properties":{"kind":"major_road","name:en":"Potong Bridge","name:ko":"\u666e\u901a\u6a4b","kind_detail":"primary","source":"openstreetmap.org","min_zoom":8.0,"landuse_kind":"urban_area","name:ru":"\u043c\u043e\u0441\u0442 \u041f\u043e\u0442\u0445\u043e\u043d\u0433\u0451","id":24991900,"sort_rank":380},"arcs":[86]},{"type":"MultiLineString","properties":{"kind":"major_road","name:en":"Pipa Bridge","name:ko":"\u7435\u7436\u6a4b","kind_detail":"primary","source":"openstreetmap.org","min_zoom":8.0,"landuse_kind":"urban_area","name:ru":"\u043c\u043e\u0441\u0442 \u041f\u0438\u043f\u0445\u0430\u0433\u0451","name:es":"Puente Bipa","sort_rank":380},"arcs":[[87],[88]]},{"type":"LineString","properties":{"kind":"major_road","name:en":"Chollima Street","network":"AH","sort_rank":380,"kind_detail":"primary","source":"openstreetmap.org","min_zoom":8.0,"landuse_kind":"urban_area","shield_text":"1","name:ru":"\u0443\u043b\u0438\u0446\u0430 \u0427\u0445\u043e\u043b\u043b\u0438\u043c\u0430\u043a\u043a\u043e\u0440\u0438"},"arcs":[89]},{"type":"MultiLineString","properties":{"kind":"major_road","name:en":"Yonggwang Street","sort_rank":380,"kind_detail":"primary","source":"openstreetmap.org","min_zoom":8.0,"int_name":"Yonggwang Street","landuse_kind":"urban_area","name:ru":"\u0443\u043b\u0438\u0446\u0430 \u0401\u043d\u0433\u0432\u0430\u043d\u0433\u043e\u0440\u0438"},"arcs":[[90],[91]]},{"type":"MultiLineString","properties":{"source":"openstreetmap.org","kind":"highway","name:en":"Youth Hero Motorway","sort_rank":383,"kind_detail":"motorway","min_zoom":8.0},"arcs":[[92],[93]]},{"type":"LineString","properties":{"kind":"major_road","int_name":"Okryu Bridge","name:ko":"\u7389\u6d41\u6a4b","kind_detail":"primary","min_zoom":8.0,"source":"openstreetmap.org","name:fr":"Pont Okryu","name:en":"Okryu Bridge","landuse_kind":"urban_area","name:ru":"\u043c\u043e\u0441\u0442 \u041e\u043d\u043d\u044e\u0433\u0451","sort_rank":380},"arcs":[94]},{"type":"LineString","properties":{"kind":"major_road","name:en":"Ryomyong Street","name:ko":"\u91d1\u57ce\uac70\ub9ac","kind_detail":"primary","name:km":"\u179a\u17d2\u1799\u17c9\u17bc\u1798\u17d2\u1799\u17c9\u17bb\u1784","source":"openstreetmap.org","min_zoom":8.0,"landuse_kind":"urban_area","id":42451619,"name:es":"Ryomyong","sort_rank":380},"arcs":[95]},{"type":"MultiLineString","properties":{"kind":"major_road","name:en":"Changjon Street","sort_rank":380,"kind_detail":"primary","source":"openstreetmap.org","min_zoom":8.0,"int_name":"Chilsongmun Street","name:ko":"\u5009\u7530\uac70\ub9ac","landuse_kind":"urban_area","name:ru":"\u0443\u043b\u0438\u0446\u0430 \u0427\u0445\u0430\u043d\u0434\u0436\u043e\u043d\u0433\u043e\u0440\u0438"},"arcs":[[96],[97],[98],[99]]},{"type":"LineString","properties":{"kind":"major_road","int_name":"Chongnyu Bridge","name:ko":"\uc885\ub274\uad50","kind_detail":"primary","name:de":"Chongnyu-Br\u00fccke","source":"openstreetmap.org","min_zoom":8.0,"landuse_kind":"urban_area","sort_rank":380},"arcs":[100]},{"type":"LineString","properties":{"source":"openstreetmap.org","kind":"major_road","name:en":"Pyongyang\u2013Huichon Motorway","name:ko":"\u5e73\u58e4\u7199\u5ddd\u9ad8\u901f\u9053\u8def","kind_detail":"trunk","min_zoom":8.0,"sort_rank":381},"arcs":[101]},{"type":"LineString","properties":{"kind":"major_road","name:en":"Pyongyang\u2013Huichon Motorway","name:ko":"\u5e73\u58e4\u7199\u5ddd\u9ad8\u901f\u9053\u8def","landuse_kind":"urban_area","source":"openstreetmap.org","min_zoom":8.0,"kind_detail":"trunk","sort_rank":381},"arcs":[102]},{"type":"LineString","properties":{"kind":"major_road","name:en":"Ansan Street","name:ko":"\u978d\u5c71\uac70\ub9ac","kind_detail":"primary","source":"openstreetmap.org","min_zoom":8.0,"landuse_kind":"urban_area","name:ru":"\u0443\u043b\u0438\u0446\u0430 \u0410\u043d\u0441\u0430\u043d\u0433\u043e\u0440\u0438","id":24162938,"sort_rank":380},"arcs":[103]},{"type":"MultiLineString","properties":{"sort_rank":381,"source":"openstreetmap.org","min_zoom":8.0,"kind":"major_road","kind_detail":"trunk"},"arcs":[[104],[105],[106],[107],[108],[109]]},{"type":"LineString","properties":{"source":"openstreetmap.org","kind":"major_road","service":"spur","sort_rank":380,"kind_detail":"primary","min_zoom":8.0,"id":238082025},"arcs":[110]},{"type":"LineString","properties":{"kind":"major_road","name:en":"Chollima Street","network":"AH","name:ko":"\ucc9c\ub9ac\ub9c8 \uac70\ub9ac","kind_detail":"primary","min_zoom":8.0,"source":"openstreetmap.org","name:fr":"Rue Chollima","landuse_kind":"urban_area","shield_text":"1","name:ru":"\u0443\u043b\u0438\u0446\u0430 \u0427\u0445\u043e\u043b\u043b\u0438\u043c\u0430\u043a\u043a\u043e\u0440\u0438","id":205214455,"sort_rank":380},"arcs":[111]},{"type":"LineString","properties":{"kind":"major_road","name:en":"Sochon Street","network":"AH","name:ko":"\u897f\u5ddd\uac70\ub9ac","kind_detail":"primary","source":"openstreetmap.org","min_zoom":8.0,"landuse_kind":"urban_area","shield_text":"1","name:ru":"\u0443\u043b\u0438\u0446\u0430 \u0421\u043e\u0447\u0445\u043e\u043d\u0433\u043e\u0440\u0438","id":426120888,"sort_rank":380},"arcs":[112]},{"type":"MultiLineString","properties":{"kind":"major_road","int_name":"Sungri Street","name:ko":"\u52dd\u5229\uac70\ub9ac","kind_detail":"primary","source":"openstreetmap.org","min_zoom":8.0,"old_name":"\uc4f0\ub538\ub9b0\uac70\ub7ec","name:ru":"\u0443\u043b\u0438\u0446\u0430 \u0421\u044b\u043d\u043d\u0438\u043a\u043a\u043e\u0440\u0438","landuse_kind":"urban_area","name:zh":"\u52dd\u5229\u8def","sort_rank":380},"arcs":[[113],[114],[115]]},{"type":"MultiLineString","properties":{"kind":"major_road","name:en":"Pipa Street","name:ko":"\u7435\u7436\uac70\ub9ac","kind_detail":"primary","source":"openstreetmap.org","min_zoom":8.0,"landuse_kind":"urban_area","name:ru":"\u0443\u043b\u0438\u0446\u0430 \u041f\u0438\u043f\u0445\u0430\u043a\u043a\u043e\u0440\u0438","sort_rank":380},"arcs":[[116],[117]]},{"type":"MultiLineString","properties":{"kind":"major_road","name:en":"Chongchun Street","name:ko":"\u9751\u6625\uac70\ub9ac","kind_detail":"primary","source":"openstreetmap.org","min_zoom":8.0,"landuse_kind":"urban_area","name:ru":"\u0443\u043b\u0438\u0446\u0430 \u0427\u0445\u043e\u043d\u0447\u0445\u0443\u043d\u0433\u043e\u0440\u0438","sort_rank":380},"arcs":[[118],[119],[120]]},{"type":"MultiLineString","properties":{"source":"openstreetmap.org","kind":"major_road","landuse_kind":"urban_area","sort_rank":380,"kind_detail":"primary","min_zoom":8.0},"arcs":[[121],[122],[123],[124],[125],[126],[127],[128],[129],[130],[131],[132],[133],[134],[135],[136],[137],[138],[139],[140],[141],[142],[143],[144],[145],[146],[147],[148],[149],[150],[151],[152],[153],[154],[155],[156],[157],[158],[159],[160],[161],[162],[163],[164],[165],[166],[167],[168],[169],[170],[171],[172],[173],[174],[175],[176],[177]]},{"type":"MultiLineString","properties":{"source":"openstreetmap.org","kind":"major_road","network":"AH","sort_rank":381,"kind_detail":"trunk","min_zoom":8.0,"shield_text":"1"},"arcs":[[178],[179]]},{"type":"LineString","properties":{"kind":"major_road","name:en":"Taehak Street","sort_rank":380,"kind_detail":"primary","source":"openstreetmap.org","min_zoom":8.0,"int_name":"Taehak Street","landuse_kind":"urban_area","name:ru":"\u043f\u0440\u043e\u0441\u043f\u0435\u043a\u0442 \u0422\u0445\u044d\u0445\u0430\u043a\u043a\u043e\u0440\u0438","id":264584113},"arcs":[180]},{"type":"MultiLineString","properties":{"source":"openstreetmap.org","kind":"major_road","int_name":"Yanggak Bridge","landuse_kind":"urban_area","sort_rank":380,"kind_detail":"primary","min_zoom":8.0},"arcs":[[181],[182]]},{"type":"LineString","properties":{"kind":"major_road","name:en":"Sochon Street","network":"AH","name:ko":"\u897f\u5ddd\uac70\ub9ac","kind_detail":"primary","source":"openstreetmap.org","min_zoom":8.0,"landuse_kind":"urban_area","shield_text":"1","name:ru":"\u0443\u043b\u0438\u0446\u0430 \u0421\u043e\u0447\u0445\u043e\u043d\u0433\u043e\u0440\u0438","id":24623308,"name:es":"Calle Seocheon","sort_rank":380},"arcs":[183]},{"type":"MultiLineString","properties":{"kind":"major_road","name:en":"Ryomyong Street","name:ko":"\u91d1\u57ce\uac70\ub9ac","kind_detail":"primary","name:km":"\u179a\u17d2\u1799\u17c9\u17bc\u1798\u17d2\u1799\u17c9\u17bb\u1784","source":"openstreetmap.org","min_zoom":8.0,"landuse_kind":"urban_area","sort_rank":380},"arcs":[[184],[185],[186],[187],[188],[189],[190],[191],[192]]},{"type":"LineString","properties":{"kind":"major_road","name:en":"Chongchun Street","name:ko":"\uccad\ucd98\uac70\ub9ac","kind_detail":"primary","source":"openstreetmap.org","min_zoom":8.0,"landuse_kind":"urban_area","name:ru":"\u043f\u0440\u043e\u0441\u043f\u0435\u043a\u0442 \u0427\u0445\u043e\u043d\u0447\u0445\u0443\u043d","id":203424809,"sort_rank":380},"arcs":[193]},{"type":"LineString","properties":{"kind":"major_road","name:en":"Taehak Street","sort_rank":380,"kind_detail":"primary","source":"openstreetmap.org","min_zoom":8.0,"landuse_kind":"urban_area","name:ru":"\u043f\u0440\u043e\u0441\u043f\u0435\u043a\u0442 \u0422\u0445\u044d\u0445\u0430\u043a\u043a\u043e\u0440\u0438","id":231336025},"arcs":[194]},{"type":"LineString","properties":{"kind":"major_road","name:en":"Ponghwa Bridge","name:ko":"\u70fd\u706b\u6a4b","kind_detail":"primary","source":"openstreetmap.org","min_zoom":8.0,"landuse_kind":"urban_area","name:ru":"\u043c\u043e\u0441\u0442 \u041f\u043e\u043d\u0445\u0432\u0430\u0433\u0451","id":303341361,"sort_rank":380},"arcs":[195]},{"type":"LineString","properties":{"kind":"major_road","name:en":"Hyoksin Street","name:ko":"\u9769\u65b0\uac70\ub9ac","kind_detail":"primary","source":"openstreetmap.org","min_zoom":8.0,"landuse_kind":"urban_area","name:ru":"\u0443\u043b\u0438\u0446\u0430 \u0425\u0451\u043a\u0441\u0438\u043d\u0433\u043e\u0440\u0438","id":205195161,"name:es":"Calle Hyeokshin","sort_rank":380},"arcs":[196]},{"type":"LineString","properties":{"kind":"major_road","int_name":"Chilsongmun Street","name:ko":"\uce60\uc131\ubb38 \ub300\ub85c","kind_detail":"primary","source":"openstreetmap.org","min_zoom":8.0,"landuse_kind":"urban_area","name:ru":"\u043f\u0440\u043e\u0441\u043f\u0435\u043a\u0442 \u0427\u0445\u0438\u043b\u044c\u0441\u043e\u043d\u043c\u0443\u043d","id":285037317,"sort_rank":380},"arcs":[197]},{"type":"LineString","properties":{"kind":"major_road","name:en":"Kwangbok Street","name:ko":"\u5149\u5fa9\uac70\ub9ac","kind_detail":"trunk","source":"openstreetmap.org","min_zoom":8.0,"name:ru":"\u043f\u0440\u043e\u0441\u043f\u0435\u043a\u0442 \u041a\u0432\u0430\u043d\u0431\u043e\u043a\u043a\u043e\u0440\u0438","id":209130235,"name:es":"Calle Kwangbok","sort_rank":381},"arcs":[198]},{"type":"LineString","properties":{"kind":"major_road","name:en":"Chollima Street","name:ko":"\ucc9c\ub9ac\ub9c8 \uac70\ub9ac","landuse_kind":"urban_area","source":"openstreetmap.org","min_zoom":8.0,"kind_detail":"primary","name:ru":"\u0443\u043b\u0438\u0446\u0430 \u0427\u0445\u043e\u043b\u043b\u0438\u043c\u0430\u043a\u043a\u043e\u0440\u0438","sort_rank":380},"arcs":[199]},{"type":"LineString","properties":{"kind":"major_road","name:en":"Mansudae Street","name:ko":"\ub9cc\uc218\ub300\uac70\ub9ac","kind_detail":"primary","source":"openstreetmap.org","min_zoom":8.0,"int_name":"Mansudae Street","landuse_kind":"urban_area","name:ru":"\u043f\u0440\u043e\u0441\u043f\u0435\u043a\u0442 \u041c\u0430\u043d\u0441\u0443\u0434\u044d","name:zh":"\u842c\u58fd\u81fa\u8def","id":196297921,"sort_rank":380},"arcs":[200]},{"type":"MultiLineString","properties":{"sort_rank":380,"kind_detail":"primary","min_zoom":8.0,"kind":"major_road","source":"openstreetmap.org"},"arcs":[[201],[202],[203],[204],[205],[206],[207],[208],[209],[210],[211],[212],[213],[214],[215],[216],[217],[218],[219],[220],[221],[222],[223],[224],[225],[226],[227],[228],[229],[230],[231],[232],[233],[234],[235],[236],[237],[238],[239],[240],[241],[242],[243],[244],[245],[246],[247],[248],[249],[250],[251],[252],[253],[254],[255],[256],[257],[258],[259],[260],[261],[262],[263],[264],[265],[266],[267],[268],[269],[270],[271],[272],[273],[274],[275],[276],[277],[278],[279],[280],[281],[282],[283],[284],[285],[286],[287],[288],[289],[290],[291],[292],[293],[294],[295],[296],[297],[298],[299],[300],[301],[302],[303],[304],[305],[306],[307],[308],[309],[310],[311],[312],[313],[314],[315],[316],[317],[318],[319],[320],[321],[322],[323],[324],[325],[326],[327],[328],[329],[330],[331],[332],[333],[334],[335],[336]]},{"type":"LineString","properties":{"kind":"major_road","name:en":"Pyongyang\u2013Huichon Motorway","network":"AH","name:ko":"\u5e73\u58e4\u7199\u5ddd\u9ad8\u901f\u9053\u8def","kind_detail":"trunk","source":"openstreetmap.org","min_zoom":8.0,"shield_text":"1","sort_rank":381},"arcs":[337]},{"type":"MultiLineString","properties":{"kind":"highway","name:en":"Pyongyang\u2013Huichon Motorway","network":"AH","name:ko":"\u5e73\u58e4\u7199\u5ddd\u9ad8\u901f\u9053\u8def","kind_detail":"motorway","source":"openstreetmap.org","min_zoom":8.0,"all_networks":["AH"],"shield_text":"1","all_shield_texts":["1"],"sort_rank":383},"arcs":[[338],[339],[340]]},{"type":"MultiLineString","properties":{"kind":"major_road","int_name":"Yokjon Street","sort_rank":380,"kind_detail":"primary","source":"openstreetmap.org","min_zoom":8.0,"name:en":"Yokjon Street","landuse_kind":"urban_area","name:ru":"\u0401\u043a\u0434\u0436\u043e\u043d\u0433\u0430 \u0443\u043b\u0438\u0446\u0430"},"arcs":[[341],[342]]},{"type":"MultiLineString","properties":{"kind":"major_road","name:en":"Kwangbok Street","sort_rank":380,"kind_detail":"primary","source":"openstreetmap.org","min_zoom":8.0,"name:ko":"\u5149\u5fa9\uac70\ub9ac","landuse_kind":"urban_area","name:ru":"\u043f\u0440\u043e\u0441\u043f\u0435\u043a\u0442 \u041a\u0432\u0430\u043d\u0431\u043e\u043a\u043a\u043e\u0440\u0438"},"arcs":[[343],[344]]},{"type":"MultiLineString","properties":{"kind":"major_road","name:en":"Pipa Street","name:ko":"\u7435\u7436\uac70\ub9ac","kind_detail":"primary","source":"openstreetmap.org","min_zoom":8.0,"landuse_kind":"urban_area","name:ru":"\u0443\u043b\u0438\u0446\u0430 \u041f\u0438\u043f\u0445\u0430\u043a\u043a\u043e\u0440\u0438","name:es":"Calle Bipa","sort_rank":380},"arcs":[[345],[346],[347],[348]]},{"type":"MultiLineString","properties":{"kind":"highway","name:en":"Pyongyang-Kaesong Motorway","network":"AH","sort_rank":383,"kind_detail":"motorway","source":"openstreetmap.org","min_zoom":8.0,"all_networks":["AH"],"name:ko":"\u5e73\u58e4-\u958b\u57ce\u9ad8\u901f\u9053\u8def","shield_text":"1","name:ru":"\u0448\u043e\u0441\u0441\u0435 \u041f\u0445\u0435\u043d\u044c\u044f\u043d-\u041a\u044d\u0441\u043e\u043d","all_shield_texts":["1"]},"arcs":[[349],[350]]},{"type":"LineString","properties":{"kind":"major_road","name:en":"Sochon Street","network":"AH","name:ko":"\u897f\u5ddd\uac70\ub9ac","kind_detail":"primary","source":"openstreetmap.org","min_zoom":8.0,"shield_text":"1","name:ru":"\u0443\u043b\u0438\u0446\u0430 \u0421\u043e\u0447\u0445\u043e\u043d\u0433\u043e\u0440\u0438","id":24623308,"name:es":"Calle Seocheon","sort_rank":380},"arcs":[351]},{"type":"MultiLineString","properties":{"source":"openstreetmap.org","kind":"major_road","kind_detail":"trunk","sort_rank":381,"landuse_kind":"urban_area","min_zoom":8.0},"arcs":[[352],[353]]},{"type":"LineString","properties":{"kind":"major_road","int_name":"Taedong Bridge","sort_rank":380,"kind_detail":"primary","source":"openstreetmap.org","min_zoom":8.0,"name:en":"Taedong Bridge","landuse_kind":"urban_area","name:ru":"\u043c\u043e\u0441\u0442 \u0422\u044d\u0434\u043e\u043d\u0434\u0430\u0440\u0438"},"arcs":[354]},{"type":"LineString","properties":{"kind":"major_road","name:en":"Tongil Street","sort_rank":381,"kind_detail":"trunk","source":"openstreetmap.org","min_zoom":8.0,"name:ko":"\u7d71\u4e00\u5927\u8def","name:ru":"\u043f\u0440\u043e\u0441\u043f\u0435\u043a\u0442 \u0422\u0445\u043e\u043d\u044a\u0438\u043b\u044c\u0434\u044d\u0440\u043e"},"arcs":[355]},{"type":"LineString","properties":{"kind":"major_road","name:en":"Kwangbok Bridge","name:ko":"\u5149\u5fa9\ub2e4\ub9ac","kind_detail":"primary","source":"openstreetmap.org","min_zoom":8.0,"landuse_kind":"urban_area","name:ru":"\u043c\u043e\u0441\u0442 \u041a\u0432\u0430\u043d\u0431\u043e\u043a\u0442\u0430\u0440\u0438","id":210289848,"name:es":"Puente Kwangbok","sort_rank":380},"arcs":[356]},{"type":"LineString","properties":{"kind":"major_road","name:en":"Kwangbok Street","name:ko":"\u5149\u5fa9\uac70\ub9ac","kind_detail":"trunk","source":"openstreetmap.org","min_zoom":8.0,"name:ru":"\u043f\u0440\u043e\u0441\u043f\u0435\u043a\u0442 \u041a\u0432\u0430\u043d\u0431\u043e\u043a\u043a\u043e\u0440\u0438","id":209130247,"sort_rank":381},"arcs":[357]},{"type":"LineString","properties":{"kind":"major_road","name:en":"Pulgun Street","sort_rank":380,"kind_detail":"primary","source":"openstreetmap.org","min_zoom":8.0,"landuse_kind":"urban_area","name:ru":"\u0443\u043b\u0438\u0446\u0430 \u041f\u0443\u043b\u044c\u0433\u044b\u043d\u0433\u043e\u0440\u0438"},"arcs":[358]},{"type":"LineString","properties":{"kind":"major_road","name:en":"Kwangbok Street","name:ko":"\u5149\u5fa9\uac70\ub9ac","kind_detail":"trunk","source":"openstreetmap.org","min_zoom":8.0,"landuse_kind":"urban_area","name:ru":"\u043f\u0440\u043e\u0441\u043f\u0435\u043a\u0442 \u041a\u0432\u0430\u043d\u0431\u043e\u043a\u043a\u043e\u0440\u0438","id":209130235,"name:es":"Calle Kwangbok","sort_rank":381},"arcs":[359]},{"type":"MultiLineString","properties":{"source":"openstreetmap.org","kind":"major_road","network":"AH","sort_rank":380,"kind_detail":"primary","min_zoom":8.0,"shield_text":"1"},"arcs":[[360],[361],[362],[363],[364],[365],[366],[367]]},{"type":"LineString","properties":{"kind":"major_road","name:en":"Ansan Bridge","name:ko":"\u978d\u5c71\ub2e4\ub9ac","kind_detail":"primary","source":"openstreetmap.org","min_zoom":8.0,"landuse_kind":"urban_area","name:ru":"\u043c\u043e\u0441\u0442 \u0410\u043d\u0441\u0430\u043d\u0434\u0430\u0440\u0438","id":26407403,"sort_rank":380},"arcs":[368]},{"type":"LineString","properties":{"kind":"major_road","name:en":"Tongil Street","sort_rank":381,"landuse_kind":"urban_area","source":"openstreetmap.org","min_zoom":8.0,"name:ko":"\u7d71\u4e00\u5927\u8def","kind_detail":"trunk","name:ru":"\u043f\u0440\u043e\u0441\u043f\u0435\u043a\u0442 \u0422\u0445\u043e\u043d\u044a\u0438\u043b\u044c\u0434\u044d\u0440\u043e"},"arcs":[369]},{"type":"MultiLineString","properties":{"source":"openstreetmap.org","kind":"major_road","landuse_kind":"residential","sort_rank":380,"kind_detail":"primary","min_zoom":8.0},"arcs":[[370],[371],[372],[373],[374],[375],[376],[377],[378],[379],[380],[381],[382],[383],[384],[385]]},{"type":"LineString","properties":{"kind":"major_road","name:en":"Palgol Bridge","name:ko":"\u516b\uace8\ub2e4\ub9ac","kind_detail":"primary","source":"openstreetmap.org","min_zoom":8.0,"landuse_kind":"urban_area","name:ru":"\u043c\u043e\u0441\u0442 \u041f\u0445\u0430\u043b\u044c\u0433\u043e\u043b\u044c\u0434\u0430\u0440\u0438","id":26407506,"sort_rank":380},"arcs":[386]},{"type":"LineString","properties":{"kind":"major_road","name:en":"Tongdaewon Street","name:ko":"\ud1b5\ub300\uc6d0\uac70\ub9ac","kind_detail":"primary","source":"openstreetmap.org","min_zoom":8.0,"int_name":"Tongdaewon Street","landuse_kind":"urban_area","name:ru":"\u043f\u0440\u043e\u0441\u043f\u0435\u043a\u0442 \u0422\u0445\u043e\u043d\u0434\u044d\u0432\u043e\u043d\u0433\u043e\u0440\u0438","id":205189629,"sort_rank":380},"arcs":[387]},{"type":"LineString","properties":{"kind":"major_road","name:en":"Sosong Street","name:ko":"\u897f\u57ce\uac70\ub9ac","kind_detail":"primary","min_zoom":8.0,"source":"openstreetmap.org","name:fr":"Rue Sosong","landuse_kind":"urban_area","name:ru":"\u0443\u043b\u0438\u0446\u0430 \u0421\u043e\u0441\u043e\u043d\u0433\u043e\u0440\u0438","id":26396583,"sort_rank":380},"arcs":[388]},{"type":"LineString","properties":{"kind":"major_road","name:en":"Sunhwachon Bridge","name:ko":"\u9806\u548c\u5ddd\ub2e4\ub9ac","kind_detail":"primary","source":"openstreetmap.org","min_zoom":8.0,"name:ru":"\u043c\u043e\u0441\u0442 \u0421\u0443\u043d\u0445\u0432\u0430\u0447\u0445\u043e\u043d\u0434\u0430\u0440\u0438","id":203424810,"sort_rank":380},"arcs":[389]},{"type":"LineString","properties":{"kind":"major_road","name:en":"Sinso Bridge","network":"AH","name:ko":"\u65b0\u897f\ub2e4\ub9ac","kind_detail":"primary","source":"openstreetmap.org","min_zoom":8.0,"landuse_kind":"urban_area","shield_text":"1","name:ru":"\u043c\u043e\u0441\u0442 \u0421\u0438\u043d\u0441\u043e\u0442\u0442\u0430\u0440\u0438","id":26381473,"sort_rank":380},"arcs":[390]},{"type":"LineString","properties":{"kind":"major_road","name:en":"Taehak Street","sort_rank":380,"kind_detail":"primary","bus_network":null,"source":"openstreetmap.org","min_zoom":8.0,"int_name":"Taehak Street","bus_shield_text":"1","name:ru":"\u043f\u0440\u043e\u0441\u043f\u0435\u043a\u0442 \u0422\u0445\u044d\u0445\u0430\u043a\u043a\u043e\u0440\u0438","landuse_kind":"urban_area","id":183879921},"arcs":[391]},{"type":"LineString","properties":{"kind":"major_road","name:en":"Chollima Street","network":"AH","sort_rank":380,"kind_detail":"primary","name:fr":"Rue Chollima","source":"openstreetmap.org","min_zoom":8.0,"landuse_kind":"urban_area","shield_text":"1","name:ru":"\u0443\u043b\u0438\u0446\u0430 \u0427\u0445\u043e\u043b\u043b\u0438\u043c\u0430\u043a\u043a\u043e\u0440\u0438"},"arcs":[392]},{"type":"MultiLineString","properties":{"kind":"major_road","name:en":"Chilsongmun Street","name:ko":"\u4e03\u661f\u9580\uac70\ub9ac","kind_detail":"primary","source":"openstreetmap.org","min_zoom":8.0,"int_name":"Chilsongmun Street","landuse_kind":"urban_area","name:ru":"\u0443\u043b\u0438\u0446\u0430 \u0427\u0445\u0438\u043b\u044c\u0441\u043e\u043d\u043c\u0443\u043d\u0433\u043e\u0440\u0438","sort_rank":380},"arcs":[[393],[394],[395],[396],[397],[398],[399],[400],[401],[402],[403]]},{"type":"LineString","properties":{"kind":"major_road","name:en":"Kyonghung Street","network":"AH","name:ko":"\u6176\u8208\uac70\ub9ac","kind_detail":"primary","source":"openstreetmap.org","min_zoom":8.0,"landuse_kind":"urban_area","shield_text":"1","name:ru":"\u0443\u043b\u0438\u0446\u0430 \u041a\u0451\u043d\u0445\u044b\u043d\u0433\u043e\u0440\u0438","id":26381472,"sort_rank":380},"arcs":[404]},{"type":"LineString","properties":{"kind":"major_road","name:en":"Mangyongdae Bridge","name:ko":"\u842c\u666f\u81fa\ub2e4\ub9ac","kind_detail":"primary","source":"openstreetmap.org","min_zoom":8.0,"name:ru":"\u043c\u043e\u0441\u0442 \u041c\u0430\u043d\u0433\u0451\u043d\u0434\u044d\u0442\u0442\u0430\u0440\u0438","id":210311617,"sort_rank":380},"arcs":[405]},{"type":"MultiLineString","properties":{"source":"openstreetmap.org","kind":"highway","name:en":"Pyongyang\u2013Huichon Motorway","name:ko":"\u5e73\u58e4\u7199\u5ddd\u9ad8\u901f\u9053\u8def","kind_detail":"motorway","min_zoom":8.0,"sort_rank":383},"arcs":[[406],[407],[408],[409]]},{"type":"LineString","properties":{"kind":"major_road","name:en":"Haebangsan Street","sort_rank":380,"kind_detail":"primary","min_zoom":8.0,"source":"openstreetmap.org","name:fr":"Rue Haebangsan","landuse_kind":"urban_area","name:ru":"\u0443\u043b\u0438\u0446\u0430 \u0425\u044d\u0431\u0430\u043d\u0441\u0430\u043d\u0433\u043e\u0440\u0438","id":205217686},"arcs":[410]},{"type":"LineString","properties":{"kind":"major_road","name:en":"Ansan Street","name:ko":"\u978d\u5c71\uac70\ub9ac","kind_detail":"primary","source":"openstreetmap.org","min_zoom":8.0,"landuse_kind":"urban_area","name:ru":"\u043c\u043e\u0441\u0442 \u0410\u043d\u0441\u0430\u043d\u0433\u043e\u0440\u0438","sort_rank":380},"arcs":[411]},{"type":"LineString","properties":{"source":"openstreetmap.org","kind":"major_road","name:en":"Pyongyang\u2013Wonsan Tourist Motorway","sort_rank":381,"kind_detail":"trunk","min_zoom":8.0},"arcs":[412]},{"type":"LineString","properties":{"kind":"major_road","int_name":"Ponghwa Street","sort_rank":380,"landuse_kind":"urban_area","source":"openstreetmap.org","min_zoom":8.0,"name:en":"Ponghwa Street","kind_detail":"primary","name:ru":"\u0443\u043b\u0438\u0446\u0430 \u041f\u043e\u043d\u0445\u0432\u0430\u043a\u043a\u043e\u0440\u0438"},"arcs":[413]},{"type":"MultiLineString","properties":{"kind":"major_road","name:en":"Ryomyong Street","name:ko":"\u91d1\u57ce\uac70\ub9ac","kind_detail":"primary","name:km":"\u179a\u17d2\u1799\u17c9\u17bc\u1798\u17d2\u1799\u17c9\u17bb\u1784","source":"openstreetmap.org","min_zoom":8.0,"landuse_kind":"urban_area","name:ru":"\u043c\u043e\u0441\u0442 \u0425\u0430\u043f\u0447\u0430\u043d\u0434\u0430\u0440\u0438","sort_rank":380},"arcs":[[414],[415]]},{"type":"LineString","properties":{"kind":"major_road","name:en":"Munsu Street","sort_rank":380,"kind_detail":"primary","source":"openstreetmap.org","min_zoom":8.0,"landuse_kind":"urban_area","name:ru":"\u043f\u0440\u043e\u0441\u043f\u0435\u043a\u0442 \u041c\u0443\u043d\u0441\u0443\u0433\u043e\u0440\u0438","id":107975916},"arcs":[416]},{"type":"LineString","properties":{"kind":"major_road","name:en":"Kwangbok Street","sort_rank":381,"landuse_kind":"urban_area","source":"openstreetmap.org","min_zoom":8.0,"name:ko":"\u5149\u5fa9\uac70\ub9ac","kind_detail":"trunk","name:ru":"\u043f\u0440\u043e\u0441\u043f\u0435\u043a\u0442 \u041a\u0432\u0430\u043d\u0431\u043e\u043a\u043a\u043e\u0440\u0438"},"arcs":[417]},{"type":"MultiLineString","properties":{"kind":"major_road","name:en":"Kaeson Street","name:ko":"\u51f1\u65cb\uac70\ub9ac","kind_detail":"primary","source":"openstreetmap.org","min_zoom":8.0,"landuse_kind":"urban_area","name:ru":"\u0443\u043b\u0438\u0446\u0430 \u041a\u044d\u0441\u043e\u043d\u0433\u043e\u0440\u0438","sort_rank":380},"arcs":[[418],[419],[420],[421],[422],[423],[424],[425],[426],[427]]},{"type":"LineString","properties":{"kind":"major_road","name:en":"Sungri Street","name:ko":"\u52dd\u5229\uac70\ub9ac","kind_detail":"primary","old_name:ru":"\u0443\u043b\u0438\u0446\u0430 \u0421\u0442\u0430\u043b\u0438\u043d\u0433\u043e\u0440\u043e","source":"openstreetmap.org","min_zoom":8.0,"old_name:en":"Stalin Street","old_name":"\uc4f0\ub538\ub9b0\uac70\ub7ec","name:ru":"\u0443\u043b\u0438\u0446\u0430 \u0421\u044b\u043d\u043d\u0438\u043a\u043a\u043e\u0440\u0438","landuse_kind":"urban_area","name:zh":"\u52dd\u5229\u8def","id":285030752,"old_name:ko":"\uc4f0\ub538\ub9b0\uac70\ub7ec","sort_rank":380},"arcs":[428]},{"type":"LineString","properties":{"kind":"major_road","name:en":"Yongung Street","sort_rank":380,"kind_detail":"primary","source":"openstreetmap.org","min_zoom":8.0,"int_name":"Yongung Street","landuse_kind":"urban_area","name:ru":"\u043f\u0440\u043e\u0441\u043f\u0435\u043a\u0442 \u0401\u043d\u044b\u043d\u0433\u043e\u0440\u0438"},"arcs":[429]},{"type":"MultiLineString","properties":{"kind":"major_road","int_name":"Tongdaewon Street","sort_rank":380,"landuse_kind":"urban_area","source":"openstreetmap.org","min_zoom":8.0,"name:en":"Tongdaewon Street","kind_detail":"primary","name:ru":"\u043f\u0440\u043e\u0441\u043f\u0435\u043a\u0442 \u0422\u0445\u043e\u043d\u0434\u044d\u0432\u043e\u043d\u0433\u043e\u0440\u0438"},"arcs":[[430],[431]]},{"type":"LineString","properties":{"kind":"major_road","name:en":"Taehak Street","sort_rank":380,"kind_detail":"primary","source":"openstreetmap.org","min_zoom":8.0,"int_name":"Taehak Street","name:ru":"\u043f\u0440\u043e\u0441\u043f\u0435\u043a\u0442 \u0422\u0445\u044d\u0445\u0430\u043a\u043a\u043e\u0440\u0438","id":264584113},"arcs":[432]},{"type":"LineString","properties":{"kind":"major_road","name:en":"Saesallim Street","name:ko":"\uc0c8\uc0b4\ub9bc\uac70\ub9ac","kind_detail":"primary","source":"openstreetmap.org","min_zoom":8.0,"int_name":"Saesallim Street","landuse_kind":"urban_area","name:ru":"\u043f\u0440\u043e\u0441\u043f\u0435\u043a\u0442 \u0421\u044d\u0441\u0430\u043b\u043b\u0438\u043c","id":302572778,"sort_rank":380},"arcs":[433]},{"type":"MultiLineString","properties":{"kind":"major_road","network":"AH","sort_rank":380,"kind_detail":"primary","source":"openstreetmap.org","min_zoom":8.0,"landuse_kind":"urban_area","shield_text":"1"},"arcs":[[434],[435],[436],[437]]},{"type":"LineString","properties":{"kind":"major_road","name:en":"Sosong Street","network":"AH","name:ko":"\u897f\u57ce\uac70\ub9ac","kind_detail":"primary","source":"openstreetmap.org","min_zoom":8.0,"landuse_kind":"urban_area","shield_text":"1","name:ru":"\u0443\u043b\u0438\u0446\u0430 \u0421\u043e\u0441\u043e\u043d\u0433\u043e\u0440\u0438","id":288977336,"sort_rank":380},"arcs":[438]},{"type":"MultiLineString","properties":{"kind":"major_road","name:en":"Chungsong Bridge","network":"AH","name:ko":"\u5fe0\u8aa0\ub2e4\ub9ac","kind_detail":"primary","source":"openstreetmap.org","min_zoom":8.0,"landuse_kind":"urban_area","shield_text":"1","name:ru":"\u043c\u043e\u0441\u0442 \u0427\u0445\u0443\u043d\u0441\u043e\u043d\u0434\u0430\u0440\u0438","sort_rank":380},"arcs":[[439],[440]]},{"type":"LineString","properties":{"kind":"major_road","name:en":"Rakwon Bridge","name:ko":"\u697d\u5712\ub2e4\ub9ac","kind_detail":"primary","source":"openstreetmap.org","min_zoom":8.0,"landuse_kind":"urban_area","name:ru":"\u043c\u043e\u0441\u0442 \u041d\u0430\u043a\u0432\u043e\u043d\u0434\u0430\u0440\u0438","sort_rank":380},"arcs":[441]}]},"earth":{"type":"GeometryCollection","geometries":[{"type":"MultiPolygon","properties":{"sort_rank":10,"source":"naturalearthdata.com","min_zoom":0.0,"kind":"earth","area":74900403722},"arcs":[[[442]]]}]},"landuse":{"type":"GeometryCollection","geometries":[{"type":"MultiPolygon","properties":{"source":"openstreetmap.org","kind":"residential","tier":2,"area":109539259,"sort_rank":20,"min_zoom":8.0},"arcs":[[[443]],[[444]],[[445]],[[446]]]},{"type":"MultiPolygon","properties":{"source":"naturalearthdata.com","kind":"urban_area","name":"","area":618091681,"sort_rank":11,"min_zoom":4.0},"arcs":[[[447]]]}]}},"type":"Topology","transform":{"translate":[125.15625,38.8225909762],"scale":[0.0003433228,0.0002654163]},"arcs":[[[1487,0],[9,25],[55,-9],[36,88],[-38,16],[4,34],[106,122],[-21,44],[37,89],[53,-47],[7,-105],[37,-18],[201,75],[80,1],[40,-18],[49,-81],[116,51],[6,55],[82,-7],[52,62],[39,5],[2,101],[-73,48],[-11,84],[-118,69],[-14,94],[-123,42],[34,64],[138,-10],[36,101],[56,50],[128,9],[29,-56],[99,4],[60,-64],[64,-24],[12,-183],[-30,-106],[57,-65],[57,43],[62,-38],[3,43],[47,-9],[-3,41],[37,-19],[-10,53],[66,-31],[27,18],[85,-21],[-15,-33],[37,-11],[30,-52],[28,8],[17,-39],[23,27],[11,-31],[38,48],[307,-160]],[[3630,377],[-44,175],[-169,225],[24,85],[-89,40],[-122,3],[-16,61],[-111,99],[-4,56],[32,66],[55,40],[-37,40],[-395,66],[-45,62],[-3,108],[-137,66],[-86,-5],[-2,23],[-249,-100],[-74,12],[-55,66],[-84,26],[-81,-84],[-85,8],[-57,52],[-15,90],[-72,19],[-56,64],[-14,-42],[-89,-28],[-49,-100],[-141,83],[36,-121],[-31,-105],[76,-77],[-54,-74],[92,-139],[-33,-52],[5,-127],[-39,-21],[-117,48],[-72,-43],[28,-138],[52,-57],[22,6],[-18,-36],[-49,-12],[-19,-80],[42,-85],[76,4],[38,-32],[-16,-35],[-113,-70],[12,-86],[-27,-71],[-177,-97],[26,-153]],[[4096,593],[-85,-3],[-41,96],[-74,-5],[-43,-49],[17,-60],[-47,-239],[-74,35],[-119,9]],[[4096,1278],[-35,-94],[5,-119],[30,-62]],[[3540,4096],[3,-106],[-20,-14],[-163,12],[-95,-99],[-163,-27],[-106,-86],[-95,36],[-116,-121],[-117,55],[-52,65],[-103,12],[-115,-26],[-51,-60],[-12,-79],[-93,-34],[-80,-111],[-115,5],[-26,-123],[-102,-24],[-124,-116],[-122,-59],[-9,-66],[-75,-55],[-204,-56],[-58,9],[-131,-93],[-246,-107],[-170,21],[-48,-20],[-223,-285]],[[509,2544],[-235,-292],[-199,-329],[-75,-87]],[[1562,796],[8,2]],[[1570,798],[7,2]],[[1577,800],[10,0]],[[1587,800],[9,-3]],[[1596,797],[17,-8]],[[1613,789],[30,-13]],[[1643,776],[4,-2]],[[1647,774],[5,0]],[[1652,774],[8,0]],[[1660,774],[4,0]],[[1664,774],[4,1]],[[1668,775],[4,2]],[[1672,777],[4,4]],[[1676,781],[2,4]],[[1678,785],[2,4]],[[1680,789],[0,8]],[[1680,797],[2,11]],[[1682,808],[2,9]],[[1684,817],[12,26]],[[1696,843],[5,9]],[[1701,852],[5,7]],[[1706,859],[5,7]],[[1711,866],[10,11]],[[1721,877],[4,4]],[[1725,881],[5,3]],[[1730,884],[8,2]],[[1738,886],[46,18]],[[1784,904],[27,9]],[[1811,913],[14,4]],[[1825,917],[21,4]],[[1846,921],[58,13]],[[1904,934],[18,4]],[[1694,677],[-38,97],[35,332],[-98,62],[-18,181],[-48,85],[52,59],[26,190],[-68,58],[-35,115],[-105,74],[-42,148],[12,121],[-92,127],[4,190],[-92,157],[15,81],[109,139],[-13,65],[29,38],[-58,136],[-114,56],[-180,-31],[-135,-173],[-71,-43],[-262,-32],[-142,120],[-30,42],[-7,75],[-114,97],[-99,25],[-115,-52]],[[1694,677],[86,-130],[177,206],[72,25],[148,-19],[159,-66],[21,-38],[54,-7],[26,-33],[97,40],[53,95],[69,-40],[94,-13],[22,-39],[77,33],[121,0],[-43,141],[17,69],[-52,76],[4,103],[-43,19],[-22,80],[107,97],[-11,80],[25,57],[36,9],[55,77],[-37,81],[9,68],[97,132],[40,190],[56,6],[196,-89],[47,-50],[83,-8],[30,-45],[98,-23],[67,-47],[59,2],[188,-109],[37,15],[83,-37]],[[1633,708],[11,-2]],[[1644,706],[40,-7]],[[1684,699],[5,-1]],[[1689,698],[5,2]],[[1694,700],[5,2]],[[1699,702],[14,13]],[[1713,715],[17,14]],[[1730,729],[4,4]],[[1734,733],[2,4]],[[1736,737],[1,5]],[[1737,742],[11,47]],[[1748,789],[0,4]],[[1748,793],[0,5]],[[1748,798],[-6,19]],[[1742,817],[-1,4]],[[1741,821],[0,3]],[[1741,824],[0,7]],[[1741,831],[7,57]],[[1748,888],[0,10]],[[1748,898],[0,21]],[[1694,677],[86,-130],[177,206],[72,25],[148,-19],[159,-66],[21,-38],[54,-7],[26,-33],[97,40],[53,95],[69,-40],[94,-13],[22,-39],[77,33],[121,0],[-43,141],[17,69],[-52,76],[4,103],[-43,19],[-22,80],[107,97],[-11,80],[25,57],[36,9],[55,77],[-37,81],[9,68],[97,132],[40,190],[56,6],[196,-89],[47,-50],[83,-8],[30,-45],[98,-23],[67,-47],[59,2],[188,-109],[37,15],[83,-37]],[[1694,677],[-38,97],[35,332],[-98,62],[-18,181],[-48,85],[52,59],[26,190],[-68,58],[-35,115],[-105,74],[-42,148],[12,121],[-92,127],[4,190],[-92,157],[15,81],[109,139],[-13,65],[29,38],[-57,134],[-115,58],[-180,-31],[-135,-173],[-71,-43],[-268,-30],[-136,118],[-30,42],[-7,75],[-110,95],[-98,28],[-120,-54]],[[0,2793],[44,0],[-10,22],[-20,58],[-10,23],[197,0],[-44,-68],[27,-25],[51,-14],[27,-35],[13,-9],[77,-95],[26,-18],[26,7],[25,16],[65,22],[302,159],[45,34],[20,-49],[-5,-50],[-24,-40],[-82,-33],[-21,-42],[-11,-52],[-16,-45],[-52,-58],[-55,-44],[-42,-57],[-10,-98],[26,14],[30,10],[31,4],[32,-3],[-69,-102],[-8,-54],[56,-24],[181,-28],[61,0],[-15,-40],[-25,-28],[-62,-37],[-16,13],[-12,5],[-30,10],[26,-38],[14,-13],[-21,-66],[15,-50],[38,-30],[46,-6],[-38,-38],[-112,-207],[7,-34],[26,-29],[18,-57],[-64,24],[-70,3],[-62,-31],[-43,-73],[9,-32],[23,-33],[10,-27],[-33,-11],[-73,-2],[-30,-15],[-27,-35],[21,-18],[-4,-15],[-12,-17],[-5,-27],[2,-31],[-6,-25],[13,-21],[0,-26],[-11,-28],[-8,-28],[149,-23],[-56,-15],[-72,4],[-59,0],[-32,-54],[-23,-63],[-54,-74],[-62,-107],[-40,-58],[7,-41],[-32,-63],[-49,-74],[-28,-88],[-21,-57],[0,2393],[5,-4],[16,24],[-20,0],[-1,0],[0,10],[21,3],[-3,11],[-6,32],[-12,-2],[0,33]],[[112,2653],[25,-27],[22,-9],[20,30],[-34,16],[-7,19],[-25,-12],[-1,-17]],[[0,2793],[44,0],[-10,22],[-20,58],[-10,23],[197,0],[-44,-68],[27,-25],[51,-14],[27,-35],[13,-9],[77,-95],[26,-18],[26,7],[25,16],[65,22],[302,159],[45,34],[20,-49],[-5,-50],[-24,-40],[-82,-33],[-21,-42],[-11,-52],[-16,-45],[-52,-58],[-55,-44],[-42,-57],[-10,-98],[26,14],[30,10],[31,4],[32,-3],[-69,-102],[-8,-54],[56,-24],[181,-28],[61,0],[-15,-40],[-25,-28],[-62,-37],[-16,13],[-12,5],[-30,10],[26,-38],[14,-13],[-21,-66],[15,-50],[38,-30],[46,-6],[-38,-38],[-112,-207],[7,-34],[26,-29],[18,-57],[-64,24],[-70,3],[-62,-31],[-43,-73],[9,-32],[23,-33],[10,-27],[-33,-11],[-73,-2],[-30,-15],[-27,-35],[21,-18],[-4,-15],[-12,-17],[-5,-27],[2,-31],[-6,-25],[13,-21],[0,-26],[-11,-28],[-8,-28],[149,-23],[-56,-15],[-72,4],[-59,0],[-32,-54],[-23,-63],[-54,-74],[-62,-107],[-40,-58],[7,-41],[-32,-63],[-49,-74],[-28,-88],[-21,-57]],[[1760,616],[37,139]],[[1651,805],[-37,-17]],[[1658,809],[-2,-1]],[[1648,639],[55,20]],[[1809,811],[0,11]],[[1699,679],[-5,9]],[[1668,722],[5,7]],[[1577,3241],[-42,-26]],[[1535,3215],[42,26]],[[1665,867],[-3,5]],[[1665,816],[-7,-7]],[[1690,839],[-17,-16]],[[1743,889]],[[1743,888],[1,1]],[[1758,894],[2,0]],[[1840,920]],[[1568,796],[11,3]],[[1684,743],[20,27]],[[1877,659],[30,-45],[-3,-51]],[[1707,770],[11,1]],[[1750,766],[-31,5]],[[1703,773],[-3,3]],[[1705,859],[-2,-1]],[[1704,857],[1,2]],[[1648,641]],[[1731,707],[-37,-18]],[[1694,689],[37,18]],[[1438,721],[-14,-5],[-34,-26],[-86,-146],[-113,17],[-77,-52],[-24,-17],[-50,-55],[-20,-60],[-41,-18],[-90,-81],[-69,-183],[-4,-95]],[[817,0],[4,95],[69,182],[130,99],[71,115],[100,70],[113,-18],[86,147],[48,30]],[[1751,765],[23,-5]],[[1905,934],[-36,-7]],[[1749,784]],[[1749,784],[-1,-3],[-2,-9],[-1,-5]],[[1745,767],[4,14],[0,3]],[[1749,784],[0,2]],[[1794,838],[14,-13]],[[1770,1088],[-91,146]],[[1823,1000],[-53,88]],[[1635,738],[10,3]],[[1599,1354],[-37,32]],[[2001,893],[11,4],[13,6],[10,7],[111,150],[19,9],[103,16],[10,4],[5,3]],[[2283,1092],[78,50]],[[2361,1142],[1,1],[1,1],[46,59],[-11,66],[25,11],[28,13],[37,-19],[-36,20],[-54,-25],[10,-66],[-45,-59],[-1,-1],[-1,-1]],[[2361,1142],[-16,-15],[-62,-35]],[[2283,1092],[-5,-3],[-10,-4],[-98,-14],[-5,-1],[-19,-10],[-4,-3],[-142,-163]],[[2647,3388],[-1,0]],[[1653,688],[15,34]],[[1658,809],[-1,19]],[[1732,710],[-1,-3]],[[1731,707],[14,60]],[[1745,767],[-12,-50]],[[1738,887],[2,0]],[[1740,888],[-2,-1]],[[1538,724],[12,-30]],[[1550,694],[1,-12]],[[1552,682],[-2,12]],[[1603,746],[-94,-32],[-34,14]],[[1542,676],[-45,-16]],[[1542,676],[6,0],[3,2]],[[1551,678],[2,1]],[[1558,679],[-7,-1]],[[1551,678],[-4,0],[-5,-2]],[[1551,682],[7,-3]],[[1567,679],[-15,3]],[[1567,679],[-9,0]],[[1648,639],[-81,40]],[[1746,916],[-22,-5],[-47,-33],[-8,-7],[-11,-12]],[[1662,872],[0,7]],[[1690,839],[-25,28]],[[1700,776],[-14,16]],[[1690,691],[0,-1]],[[1691,689],[2,2]],[[1693,688],[1,-1]],[[1694,688],[0,1]],[[1705,772],[-2,1]],[[1703,659],[1,1]],[[1704,669],[4,-8]],[[1748,931],[-41,98]],[[1721,640],[-7,8]],[[1753,609],[-21,18]],[[1741,584],[19,32]],[[1770,871],[-21,58]],[[1750,932],[50,150]],[[1761,712],[3,-1]],[[1766,711],[-2,0]],[[1764,711],[2,-1]],[[1767,710],[108,-47],[-107,48]],[[1770,871],[2,1]],[[1773,860],[-3,11]],[[1773,860],[13,-14]],[[1786,846],[8,-8]],[[1800,1082],[11,20]],[[1809,822],[-1,3]],[[1815,1108],[-4,-6]],[[1824,999],[-2,-1]],[[1823,995],[11,-50]],[[1835,946],[-10,49]],[[1835,946],[-1,-1]],[[1834,945],[1,-1]],[[1835,944],[1,0]],[[1835,944],[5,-24]],[[1836,944],[-1,2]],[[1840,920],[-4,24]],[[1870,924],[-1,1]],[[1905,934],[97,-127]],[[1704,770],[2,-1],[1,2],[-2,1],[-1,-2]],[[1718,771],[1,0]],[[1748,930],[2,0],[0,1],[-2,0]],[[1748,931],[0,-1]],[[1766,710],[1,0],[0,1],[-1,0],[0,-1]],[[1825,996],[-1,3]],[[1824,999],[-2,-2],[1,-2]],[[1823,995],[2,1]],[[1635,554],[-21,-77]],[[1615,477],[20,77]],[[1937,753],[54,10]],[[1714,648],[-10,12]],[[1732,627],[-11,13]],[[1657,828],[31,181]],[[1740,887],[3,1]],[[1743,889],[-3,-1]],[[1847,922],[-7,-2],[-97,-31]],[[1744,889],[14,5]],[[1760,894],[80,26]],[[1840,920],[7,1]],[[1858,924],[9,1]],[[1867,927],[-9,-3]],[[1869,926],[36,8]],[[1553,679],[-1,3]],[[1936,753],[1,0]],[[1673,823],[-8,-7]],[[1701,853],[-11,-14]],[[1744,792],[-2,2]],[[1481,745],[-43,-24]],[[1673,729],[11,14]],[[1751,765],[-1,1]],[[207,3264],[29,193],[88,83],[-66,115],[-19,123],[19,216],[-19,41],[48,61]],[[694,157],[53,41],[40,103],[-43,68],[25,19],[64,-12],[69,125],[113,-44]],[[1030,1578],[17,-42],[-64,-166],[-148,-165],[-50,-171],[-3,-95]],[[782,939],[-2,-65]],[[826,91],[-26,21]],[[800,112],[-19,14]],[[1035,362],[-2,-1]],[[1033,361],[-62,-22],[-13,-42],[-54,-8],[-26,-76],[-66,-58],[-12,-43]],[[800,112],[-19,-72],[15,-40]],[[882,2517],[55,-20],[62,-36],[270,103]],[[989,2464],[1,2]],[[991,2464],[1,-2]],[[993,2463],[-2,-150],[67,-16],[27,-34],[-1,-62],[-44,-41],[11,-130],[-42,-46],[-46,-195],[67,-211]],[[1428,1898],[-39,-83],[-55,19],[-35,-16],[-269,-240]],[[1030,1578],[-71,6],[-138,-38],[-154,-197],[-129,-52],[-14,-138],[181,-207],[77,-13]],[[782,939],[46,-7],[268,31]],[[1096,963],[1,-1]],[[1097,962],[0,1],[-1,0]],[[1097,962],[31,-143],[74,-78],[-26,-137],[21,-29]],[[1197,575],[99,-30],[29,-46],[-109,-106],[-171,-44],[-12,12]],[[1033,361],[-17,18],[-29,25],[27,28],[33,89],[150,54]],[[1235,3319],[-2,-1]],[[1277,2583],[10,-175],[26,-18],[51,-178]],[[1312,2898],[34,-79],[-68,-235]],[[1307,3100],[297,81]],[[1474,2833],[-126,74]],[[1361,2918],[1,1]],[[1403,3896],[132,-107],[32,-2]],[[1567,3787],[17,-2],[1,0],[96,2],[117,16],[25,-62],[68,-5],[21,-47]],[[1446,612],[-31,-21]],[[1452,715],[6,12]],[[1465,732],[-13,-17]],[[1452,715],[-21,-75],[22,-20]],[[1453,620],[5,0]],[[1458,620],[4,0]],[[1456,619],[-3,1]],[[1456,619],[-1,-1]],[[1460,621],[-2,-1]],[[1458,620],[-2,-1]],[[1464,625],[-4,-4]],[[1460,621],[2,-1]],[[1462,620],[2,5]],[[1469,629],[-5,-4]],[[1475,728],[-9,4]],[[1471,2995],[56,52],[-7,39],[0,3]],[[1520,3089],[-1,1]],[[1519,3090],[-5,28],[0,3],[-6,32]],[[1497,660],[-13,-8]],[[1516,3089],[3,4]],[[1518,3083],[2,6]],[[1520,3089]],[[1522,3090],[-3,0]],[[1519,3090]],[[1520,3088],[7,-3]],[[1562,1386],[-40,43]],[[1566,3785],[1,2]],[[1567,3787],[41,56],[48,19],[62,229],[114,-4],[9,9]],[[1707,1029],[-9,41]],[[917,4096],[23,-22],[106,-32],[21,-56],[154,3],[131,-34],[48,-56],[-32,-188],[-45,-88],[18,-93],[-17,-39],[28,-36],[371,-206]],[[1912,3689],[-73,-76],[-40,-150],[-46,-49],[5,-70]],[[1870,1201],[-55,-93]],[[1904,563],[-17,-205],[17,-45],[-62,-82],[8,-231]],[[1870,1201],[1,10]],[[2243,2221],[-18,-28],[-1,-26]],[[2224,2167],[-2,-25],[-5,-51],[-2,-40],[11,-31],[-7,-50],[-112,-207],[-62,-346],[-50,-64],[-56,17],[-13,-75],[-55,-84]],[[2149,3107],[38,19],[-19,40],[-67,12],[14,60],[-24,12],[-2,6]],[[2089,3256],[-9,13],[-79,89],[30,40],[2,94],[-34,133],[-87,64]],[[1986,3501],[17,0]],[[2039,773],[-37,34]],[[2137,3328],[-95,132]],[[2043,772],[99,-23],[60,37],[329,-23],[38,-38],[41,14],[57,-35],[85,-7],[20,-36],[83,29],[122,-4]],[[2078,3253],[11,3]],[[2089,3256],[1,1],[46,17],[2,3],[1,48]],[[2139,3325],[-2,3]],[[2137,3328],[3,0]],[[2140,3328],[-1,-3]],[[2513,3934],[-48,-133],[-104,-77],[-27,-73],[-122,-99],[-10,-142],[-62,-82]],[[3308,3532],[-7,0]],[[3301,3532],[-19,-1],[-1,0],[-76,0],[-15,4],[-46,-10],[-43,-63],[-217,-82],[-75,19],[-76,-39],[-86,28],[-34,-75],[-90,-10],[-155,-100],[-94,30],[-60,-5],[-72,52]],[[2143,3279],[0,1]],[[2206,2318],[-60,13],[-130,350],[35,39],[-10,114],[84,57],[50,103],[-2,124]],[[2500,2153],[-28,-48],[-44,-1],[-103,56],[-85,11],[-16,-4]],[[2224,2167],[-4,-1]],[[2241,2222],[-1,-5]],[[2241,2219],[0,3]],[[2286,2338],[183,6]],[[2435,2774],[-48,22],[-62,103],[-36,-56]],[[2362,3204],[-32,-97],[28,-129],[-34,-68]],[[2553,1922],[-63,-245],[18,-19],[-70,-85],[-87,-48]],[[2470,2375],[-17,57],[26,34]],[[2513,3934],[-34,-7]],[[2879,1212],[-91,-30],[-300,92]],[[2500,2153],[188,4],[164,54]],[[2553,1922],[-19,67],[15,71],[-49,93]],[[2513,3934],[64,108],[77,43]],[[2526,3948],[75,-30]],[[2531,3953],[70,-35]],[[2712,3947],[-169,30]],[[3053,1602],[-43,44],[-114,46],[-2,45],[-210,128],[-95,16],[-36,41]],[[2601,3918],[28,-15]],[[2657,4088],[-3,8]],[[2654,4085],[23,11]],[[2712,3947],[-57,36],[-1,102]],[[3301,3531],[0,1]],[[3301,3532],[6,97],[-31,25],[-134,-6],[-59,38],[-8,155],[-64,-22],[-13,103],[-50,64],[-122,-47],[-114,8]],[[2845,1139],[49,-42],[10,-151],[36,-51],[-27,-35],[48,-82],[25,-116],[63,-31],[76,-100],[-10,-169],[38,-39],[34,-131]],[[3465,2975],[-35,-86],[-74,-45],[-26,-146],[-69,-77],[-113,-19],[-162,-332],[-134,-59]],[[3337,0],[-117,81],[-35,72],[23,33],[-145,22],[-44,-17],[2,-32]],[[4096,1584],[-241,70],[-82,88],[-56,3]],[[3717,1745],[-6,0],[-69,27],[-75,0],[-66,41],[-3,-44],[-110,-48],[8,-33],[-82,-23],[-61,-53],[-70,21],[-40,-48]],[[3312,3532],[0,2]],[[3312,3534]],[[3359,3505],[-12,11],[0,1],[-5,12]],[[3342,3529],[-4,9]],[[3988,3272],[-35,27],[-36,-15],[-162,57],[-59,28],[-24,42],[-66,-7],[-43,44],[-43,-33],[-57,32],[-25,6],[-72,26],[-18,9]],[[3363,3537],[-2,4]],[[3361,3541],[-3,6]],[[3359,3505],[72,46],[-31,15]],[[3359,3505],[-11,-12],[-30,-110],[-16,-132],[50,-138],[8,-133],[38,18],[277,-27],[104,27],[30,-14],[20,29]],[[3377,3537],[-5,11]],[[3372,3548],[-2,5]],[[3400,3566],[-88,-32]],[[3312,3534],[-4,-2]],[[3308,3532],[21,-11],[13,8]],[[3342,3529],[19,12]],[[3361,3541],[11,7]],[[3372,3548],[28,18]],[[3714,1739],[3,6]],[[3717,1745],[18,34],[-49,38],[22,49],[68,-6],[-13,40],[38,41],[-11,36],[41,2],[-14,25],[69,19],[-3,42],[52,46],[10,-59],[82,46],[17,72],[-54,59],[48,9],[-28,44],[44,0],[-12,17],[49,43],[-36,177],[-30,23],[10,89],[-48,82],[-28,5],[-14,51],[39,58],[1,49],[-41,63],[13,54],[-29,64]],[[3928,3057],[-12,-34],[-76,-10],[-77,34]],[[4001,3202],[-37,10],[18,-33],[-80,-100],[26,-22]],[[3988,3272],[-7,31],[92,64],[23,-15]],[[4001,3202],[-29,29],[16,41]],[[4001,3202],[22,-85],[26,17],[47,-41]],[[1278,2583],[-1,0]],[[1277,2583],[0,1],[1,-1]],[[1599,1354],[66,-50],[14,-70]],[[1357,2902],[-20,-150],[12,-216],[21,-39],[35,-40],[37,-84],[77,-222],[30,-178],[-18,-154],[13,-61],[1,-6],[29,-29],[25,-12]],[[1599,1711],[-53,41],[-15,67],[18,154],[-30,178],[-77,222],[-37,84],[-56,79],[-12,216],[15,70],[6,84]],[[1594,1367],[5,344]],[[1694,687],[10,-18]],[[1705,669],[-6,10]],[[1579,799],[4,0]],[[1589,798],[3,-1]],[[1703,858],[-2,-4]],[[1702,854],[2,3]],[[1738,887],[-33,-28]],[[1705,859],[33,28]],[[1614,477],[-20,-66],[-11,-47],[-37,-275],[-9,-89]],[[1538,0],[77,477]],[[1688,1009],[8,53]],[[2000,894],[-53,-15],[-77,45]],[[1870,924],[69,-47],[6,1],[56,15]],[[1741,717],[20,-5]],[[1600,585],[36,0]],[[1583,799],[6,-1]],[[1438,720],[42,23]],[[1599,796],[59,-26]],[[1520,767],[-39,-22]],[[0,3245],[122,39],[267,-78],[277,54],[99,59],[100,-25],[69,33],[18,-28],[172,-5],[79,1],[30,23],[37,-45],[7,-102],[54,-166],[-27,-57],[8,-49]],[[1313,2899],[48,19]],[[1640,578],[-5,-24]],[[1635,554],[4,18],[1,5]],[[1698,1070],[-8,150]],[[1312,2898],[1,1]],[[1313,2899],[-1,0]],[[1312,2899],[0,-1]],[[1603,746],[32,-8]],[[1636,585],[105,-1]],[[1604,3181],[57,14]],[[2272,2262],[-28,23],[-1,1]],[[2243,2286],[-19,19],[-8,9],[-10,4]],[[2241,2222],[-4,57],[6,7]],[[2243,2286],[21,31],[11,15]],[[2275,2332],[3,4],[8,2]],[[2241,2222],[0,1]],[[2258,2238],[-15,-17]],[[2275,2333],[0,-1]],[[2275,2332],[24,-34],[-41,-60]],[[2283,2279],[-25,-41]],[[2469,2344],[4,0],[1,0],[5,-1]],[[2479,2343],[11,-1],[43,24],[33,44]],[[2479,2343]],[[2479,2343],[-9,32]],[[2479,2466],[70,74]],[[1592,797],[7,-1]],[[1778,759],[4,-1]],[[1689,691],[-18,31]],[[1455,618],[-9,-6]],[[1662,755],[-2,7]],[[1814,751],[64,30],[58,-28]],[[1649,648],[4,40]],[[1738,839],[0,-12]],[[1738,837],[0,-10]],[[1738,827],[1,-25],[1,-1]],[[1740,801],[6,-11]],[[1746,790],[1,-2],[2,-4]],[[1739,827],[0,13]],[[1739,827],[0,10]],[[1742,794],[-2,7]],[[1740,801],[-1,0],[0,26]],[[1749,786],[-2,2],[-1,2]],[[1746,790],[-2,2]],[[1660,762],[-2,8]],[[1484,652],[-15,-23]],[[1535,3215],[-52,-31],[-90,-58],[-20,-20],[-14,-58],[-2,-146]],[[1358,2906],[15,200],[162,109]],[[2610,4096],[-72,-61],[-89,-195],[-92,-75],[-39,-106],[-75,-29],[-101,-112],[-92,8],[-108,-47],[-177,-145],[-124,-55],[-64,-38]],[[1577,3241],[65,38],[59,21],[30,13],[34,21],[177,145],[108,46],[92,-7],[52,40],[49,72],[75,29],[40,106],[48,36],[44,38],[62,119],[26,77],[81,61]],[[1738,717],[3,0]],[[1645,741],[19,6]],[[3308,0],[-15,46],[-67,18],[-17,43],[-188,48],[-98,14],[-230,-105],[-135,62],[-63,-13],[-206,48],[-362,247],[-201,23],[-116,40]],[[1658,770],[28,22]],[[1858,924],[-11,-2]],[[1847,921],[11,3]],[[1809,811],[-12,-56]],[[1480,743],[88,53],[-48,-29]],[[1738,845],[0,-6]],[[1741,890],[0,-1]],[[1741,889],[2,-22]],[[1743,867],[1,-4],[-5,-12],[-1,-6]],[[1738,845],[0,-8]],[[1739,837],[0,8]],[[1739,845],[5,18],[-1,4]],[[1743,867],[-3,15],[0,4],[0,1],[1,2]],[[1741,889],[0,3],[0,1],[8,36]],[[1739,840],[0,5]],[[1733,717],[-1,-7]],[[1712,815],[-22,24]],[[1774,760],[4,-1]],[[1782,758],[32,-7]],[[1991,763],[48,10]],[[1875,663],[2,-4]],[[1644,610],[-4,-32]],[[1640,577],[4,33]],[[1648,641],[-1,-4]],[[1647,637],[1,4]],[[1671,722],[-9,33]],[[1647,637],[-3,-27]],[[1644,610],[3,27]],[[1656,808],[-5,-3]],[[4096,4096],[0,-4096],[-4096,0],[0,293],[21,57],[28,88],[49,74],[32,63],[-7,41],[40,58],[62,107],[54,74],[23,63],[32,54],[59,0],[72,-4],[56,15],[-149,23],[8,28],[11,28],[0,26],[-13,21],[6,25],[-2,31],[5,27],[12,17],[4,15],[-21,18],[27,35],[30,15],[73,2],[33,11],[-10,27],[-23,33],[-9,32],[43,73],[62,31],[70,-3],[64,-24],[-18,57],[-26,29],[-7,34],[112,207],[38,38],[-46,6],[-38,30],[-15,50],[21,66],[-14,13],[-26,38],[30,-10],[12,-5],[16,-13],[62,37],[25,28],[15,40],[-61,0],[-181,28],[-56,24],[8,54],[69,102],[-32,3],[-31,-4],[-30,-10],[-26,-14],[10,98],[42,57],[55,44],[52,58],[16,45],[11,52],[21,42],[82,33],[24,40],[5,50],[-20,49],[-45,-34],[-302,-159],[-65,-22],[-25,-16],[-26,-7],[-26,18],[-77,95],[-13,9],[-27,35],[-51,14],[-27,25],[44,68],[-197,0],[10,-23],[20,-58],[10,-22],[-44,0],[0,1303],[4096,0]],[[2193,2278],[39,2],[-36,16],[23,50],[103,-13],[-50,-119],[-51,13],[9,28],[-37,23]],[[1521,3167],[43,49],[-33,-1],[10,30],[52,-6],[4,-26],[1,27],[92,-3],[-42,-96],[-53,48],[-74,-22]],[[2428,2315],[41,28],[1,36],[17,-35],[26,50],[15,-13],[48,51],[-48,-149],[-23,1],[5,35],[-82,-4]],[[2400,2463],[83,30],[102,88],[27,-25],[-64,-38],[80,-39],[-90,31],[2,-34],[-29,7],[21,-58],[-58,45],[-43,-21],[-31,14]],[[1730,464],[-32,15],[-65,110],[-162,84],[5,66],[92,102],[0,42],[189,199],[57,26],[78,-16],[11,-148],[119,-61],[-33,-126],[-204,-179],[-55,-114]]]}