{"objects":{"water":{"type":"GeometryCollection","geometries":[{"type":"Polygon","properties":{"source":"naturalearthdata.com","kind":"lake","name":"Puma Yumco","area":333712416,"sort_rank":200,"min_zoom":0.0,"id":1038},"arcs":[[95]]},{"type":"Polygon","properties":{"source":"naturalearthdata.com","kind":"lake","name":"Nam Co","area":2550437888,"sort_rank":200,"min_zoom":0.0,"id":507},"arcs":[[96]]},{"type":"MultiPolygon","properties":{"sort_rank":200,"source":"naturalearthdata.com","min_zoom":0.0,"kind":"lake","area":720360924},"arcs":[[[97]],[[98]]]},{"type":"Polygon","properties":{"source":"naturalearthdata.com","kind":"lake","name":"Yamzho Yumco","area":878976064,"sort_rank":200,"min_zoom":0.0,"id":579},"arcs":[[99]]},{"type":"Point","properties":{"label_placement":true,"kind":"lake","name":"Nam Co","area":2550437888,"sort_rank":200,"source":"naturalearthdata.com","min_zoom":0.0,"id":507},"coordinates":[424,3069]},{"type":"Point","properties":{"label_placement":true,"kind":"lake","name":"Yamzho Yumco","area":878976064,"sort_rank":200,"source":"naturalearthdata.com","min_zoom":0.0,"id":579},"coordinates":[653,1616]},{"type":"Point","properties":{"label_placement":true,"kind":"lake","name":"Puma Yumco","area":333712416,"sort_rank":200,"source":"naturalearthdata.com","min_zoom":0.0,"id":1038},"coordinates":[286,1265]},{"type":"LineString","properties":{"source":"naturalearthdata.com","kind":"lake","sort_rank":367,"boundary":true,"min_zoom":0.0,"id":507},"arcs":[100]},{"type":"LineString","properties":{"source":"naturalearthdata.com","kind":"lake","sort_rank":367,"boundary":true,"min_zoom":0.0,"id":579},"arcs":[101]},{"type":"LineString","properties":{"source":"naturalearthdata.com","kind":"lake","sort_rank":367,"boundary":true,"min_zoom":0.0,"id":621},"arcs":[102]},{"type":"LineString","properties":{"source":"naturalearthdata.com","kind":"lake","sort_rank":367,"boundary":true,"min_zoom":0.0,"id":864},"arcs":[103]},{"type":"LineString","properties":{"source":"naturalearthdata.com","kind":"lake","sort_rank":367,"boundary":true,"min_zoom":0.0,"id":1038},"arcs":[104]}]},"buildings":{"type":"GeometryCollection","geometries":[]},"places":{"type":"GeometryCollection","geometries":[{"type":"Point","properties":{"name:ka":"\u10d1\u10e3\u10e2\u10d0\u10dc\u10d8","name:ko":"\ubd80\ud0c4","name:cv":"\u0411\u0443\u0442\u0430\u043d","name:km":"\u1794\u17ca\u17bc\u178f\u17b6\u1793","name:kl":"Bhutan","name:cs":"Bh\u00fat\u00e1n","name:tw":"Butan","name:ki":"Butani","name:kw":"Bhoutan","name:kv":"\u0411\u0443\u0442\u0430\u043d","name:ku":"B\u00fbtan","name:ti":"\u1261\u1205\u1273\u1295","name:ks":"\u0628\u0648\u0657\u0679\u0627\u0646","name:to":"P\u016btani","name:tl":"Bhutan","name:ce":"\u0411\u0443\u0442\u0430\u043d","name:ta":"\u0baa\u0bc2\u0b9f\u0bbe\u0ba9\u0bcd","name:tg":"\u041f\u043e\u0434\u0448\u043e\u04b3\u0438\u0438 \u0411\u0443\u0442\u0430\u043d","name:ca":"Bhutan","name:te":"\u0c2d\u0c42\u0c1f\u0c3e\u0c28\u0c4d","name:cy":"Bhutan","name:hr":"Butan","name:da":"Bhutan","name:de":"Bhutan","source":"openstreetmap.org","name:kn":"\u0cad\u0cc2\u0ca4\u0cbe\u0ca8\u0ccd","name:dv":"\u0784\u07ab\u0793\u07a7\u0782\u07b0","name:lv":"But\u0101na","name:lt":"Butanas","name:uz":"Butan podsholigi","name:kk":"\u0411\u0443\u0442\u0430\u043d","name:ur":"\u0628\u06be\u0648\u0679\u0627\u0646","name:lb":"Bhutan","name:la":"Butania","name:lg":"Butaani","name:uk":"\u0411\u0443\u0442\u0430\u043d","name:ug":"\u0628\u06c7\u062a\u0627\u0646","name:li":"Bhoetaan","name:ln":"But\u00e1ni","name:lo":"\u0e9a\u0eb9\u0e95\u0eb2\u0e99","name:el":"\u039c\u03c0\u03bf\u03c5\u03c4\u03ac\u03bd","name:eo":"Butano","name:en":"Bhutan","name":"\u0f60\u0f56\u0fb2\u0f74\u0f42\u0f61\u0f74\u0f63\u0f0b","name:tk":"Butan","name:ee":"Bhutan nutome","name:th":"\u0e1b\u0e23\u0e30\u0e40\u0e17\u0e28\u0e20\u0e39\u0e0f\u0e32\u0e19","name:eu":"Bhutan","name:et":"Bhutan","name:es":"But\u00e1n","name:ia":"Bhutan","name:rm":"Bhutan","name:rn":"Butani","name:az":"Butan","name:ie":"Bhutan","name:id":"Bhutan","name:as":"\u09ad\u09c2\u099f\u09be\u09a8","name:ar":"\u0628\u0648\u062a\u0627\u0646","name:io":"Bhutan","name:ak":"Butan","name:am":"\u1261\u1205\u1273\u1295","name:it":"Bhutan","name:an":"But\u00e1n","name:ru":"\u0411\u0443\u0442\u0430\u043d","name:rw":"Butani","name:af":"Bhoetan","name:zu":"i-Bhutan","name:ky":"\u0411\u0443\u0442\u0430\u043d","name:zh-yue":"\u4e0d\u4e39","name:zh":"\u4e0d\u4e39","name:so":"Bhutan","name:sn":"Bhutani","name:sl":"Butan","name:sk":"Bhut\u00e1n","name:ja":"\u30d6\u30fc\u30bf\u30f3","name:si":"\u0db7\u0dd6\u0dad\u0dcf\u0db1\u0dba","name:sh":"Butan","name:sg":"But\u00e4an","name:se":"Bhutan","name:br":"Bhoutan","name:bs":"Butan","name:bm":"Buta\u014b","name:bn":"\u09ad\u09c1\u099f\u09be\u09a8","name:bo":"\u0f60\u0f56\u0fb2\u0f74\u0f42\u0f0b\u0f61\u0f74\u0f63\u0f0d","name:bi":"Bhutan","name:sw":"Butani","name:be":"\u0411\u0443\u0442\u0430\u043d","name:su":"Butan","name:bg":"\u0411\u0443\u0442\u0430\u043d","name:ss":"IBhuthani","name:ba":"\u0411\u0443\u0442\u0430\u043d","name:sq":"Butan","name:jv":"Bhutan","name:pt":"But\u00e3o","name:ps":"\u0628\u0648\u062a\u0627\u0646","name:oc":"Botan","min_zoom":2.0,"name:ro":"Bhutan","name:zh-min-nan":"Bhutan","name:os":"\u0411\u0443\u0442\u0430\u043d","name:or":"\u0b2d\u0b41\u0b1f\u0b3e\u0b28\u0b4d","name:pl":"Bhutan","name:sr":"\u0411\u0443\u0442\u0430\u043d","name:pa":"\u0a2d\u0a42\u0a1f\u0a3e\u0a28","name:tr":"Butan","name:hi":"\u092d\u0942\u091f\u093e\u0928","name:sv":"Bhutan","name:he":"\u05d1\u05d5\u05d8\u05df","name:ha":"Butan","name:hy":"\u0532\u0578\u0582\u057f\u0561\u0576","name:ht":"Boutan","name:hu":"Bhut\u00e1n","name:qu":"Butan","population":672425,"kind":"country","name:is":"B\u00fatan","name:yi":"\u05d1\u05d4\u05d5\u05d8\u05d0\u05df","name:yo":"Or\u00edl\u1eb9\u0301\u00e8de B\u00fat\u00e1n\u00ec","name:mt":"Butan","name:ms":"Bhutan","name:mr":"\u092d\u0942\u0924\u093e\u0928","name:my":"\u1018\u1030\u1010\u1014\u103a","int_name":"Bhutan","name:mg":"Bhotana","name:ml":"\u0d2d\u0d42\u0d1f\u0d4d\u0d1f\u0d3e\u0d7b","name:vi":"Bhutan","name:mn":"\u0411\u0443\u0442\u0430\u043d","id":424311028,"name:mk":"\u0411\u0443\u0442\u0430\u043d","name:vo":"But\u00e4n","name:fa":"\u0628\u0648\u062a\u0627\u0646","name:ff":"Butaan","name:fi":"Bhutan","name:fo":"Butan","name:fr":"Bhoutan","name:fy":"B\u00fbtan","name:nl":"Bhutan","name:nn":"Bhutan","name:no":"Bhutan","name:na":"Butan","name:ne":"\u092d\u0941\u091f\u093e\u0928","name:wo":"Butaan","name:nv":"Ii\u02bcni\u02bc T\u0142\u02bciishtsoh Bik\u00e9yah","name:ga":"An Bh\u00fatain","name:gd":"But\u00e0n","name:gn":"Vut\u00e3","name:gl":"But\u00e1n","name:gv":"Yn Vutaan","name:gu":"\u0aad\u0ac2\u0a9f\u0abe\u0aa8","name:tt":"\u0411\u0443\u0442\u0430\u043d"},"coordinates":[373,411]},{"type":"Point","properties":{"admin_level":"4","kind":"region","name:en":"Mongar District","name":"\u0f58\u0f7c\u0f44\u0f0b\u0f66\u0f92\u0f62\u0f0b\u0f62\u0fab\u0f7c\u0f44\u0f0b\u0f41\u0f42\u0f0b","kind_detail":"state","name:de":"Mongar","source":"openstreetmap.org","min_zoom":4.0,"id":4353321179,"name:ja":"\u30e2\u30f3\u30ac\u30fc"},"coordinates":[794,123]},{"type":"Point","properties":{"admin_level":"4","kind":"region","name:en":"Trashigang District","name":"\u0f56\u0f40\u0fb2\u0f0b\u0f64\u0f72\u0f66\u0f0b\u0f66\u0f92\u0f44\u0f0b\u0f62\u0fab\u0f7c\u0f44\u0f0b\u0f41\u0f42\u0f0b","kind_detail":"state","name:de":"Trashigang","source":"openstreetmap.org","min_zoom":4.0,"id":4353328607,"name:ja":"\u30bf\u30b7\u30ac\u30f3"},"coordinates":[1146,189]},{"type":"Point","properties":{"admin_level":"4","kind":"region","name:en":"Trashiyangtse District","name":"\u0f56\u0f40\u0fb2\u0f0b\u0f64\u0f72\u0f66\u0f0b\u0f42\u0fb1\u0f44\u0f0b\u0f59\u0f7a\u0f0b\u0f62\u0fab\u0f7c\u0f44\u0f0b\u0f41\u0f42\u0f0b","kind_detail":"state","name:de":"Trashiyangtse","source":"openstreetmap.org","min_zoom":4.0,"name:ru":"\u0422\u0440\u0430\u0448\u0438\u044f\u043d\u0433\u0446\u0435","id":4353336012,"name:ja":"\u30bf\u30b7 \u30e4\u30f3\u30c4\u30a7"},"coordinates":[1031,554]},{"type":"Point","properties":{"kind":"region","name":"Arunachal Pradesh","name:hi":"\u0905\u0930\u0941\u0923\u093e\u091a\u0932 \u092a\u094d\u0930\u0926\u0947\u0936","kind_detail":"state","name:eo":"Aruna\u0109al-Prade\u015do","source":"openstreetmap.org","min_zoom":4.0,"name:uk":"\u0410\u0440\u0443\u043d\u0430\u0447\u0430\u043b-\u041f\u0440\u0430\u0434\u0435\u0448","name:kn":"\u0c85\u0cb0\u0cc1\u0ca3\u0cbe\u0c9a\u0cb2 \u0caa\u0ccd\u0cb0\u0ca6\u0cc7\u0cb6","name:ru":"\u0410\u0440\u0443\u043d\u0430\u0447\u0430\u043b-\u041f\u0440\u0430\u0434\u0435\u0448","name:hu":"Arun\u00e1csal Prades","name:zh":"\u85cf\u5357\u5730\u533a","id":2240851562,"name:ja":"\u30a2\u30eb\u30ca\u30fc\u30c1\u30e3\u30eb\u30fb\u30d7\u30e9\u30c7\u30fc\u30b7\u30e5"},"coordinates":[3465,1092]},{"type":"Point","properties":{"admin_level":"4","kind":"region","name:en":"Trongsa District","name":"\u0f40\u0fb2\u0f7c\u0f44\u0f0b\u0f42\u0f66\u0f62\u0f0b\u0f62\u0fab\u0f7c\u0f44\u0f0b\u0f41\u0f42\u0f0b","kind_detail":"state","name:de":"Trongsa","source":"openstreetmap.org","min_zoom":4.0,"id":4353336394,"name:ja":"\u30c8\u30f3\u30b5"},"coordinates":[342,368]},{"type":"Point","properties":{"admin_level":"4","kind":"region","name:en":"Bumthang District","name":"\u0f56\u0f74\u0f58\u0f0b\u0f50\u0f44\u0f0b\u0f62\u0fab\u0f7c\u0f44\u0f0b\u0f41\u0f42\u0f0b","kind_detail":"state","name:de":"Bumthang","source":"openstreetmap.org","min_zoom":4.0,"name:ru":"\u0411\u0443\u043c\u0442\u0430\u043d\u0433","id":4353309595,"name:ja":"\u30d6\u30e0\u30bf\u30f3"},"coordinates":[496,540]},{"type":"Point","properties":{"admin_level":"4","kind":"region","name:en":"Lhuntse District","name":"\u0f63\u0fb7\u0f74\u0f53\u0f0b\u0f62\u0fa9\u0f7a\u0f0b\u0f62\u0fab\u0f7c\u0f44\u0f0b\u0f41\u0f42\u0f0b","kind_detail":"state","name:de":"Lhuntse","source":"openstreetmap.org","min_zoom":4.0,"name:ru":"\u041b\u0445\u0443\u043d\u0446\u0435","id":4353316861,"name:ja":"\u30eb\u30cf\u30f3\u30c8\u30b9"},"coordinates":[753,553]},{"type":"Point","properties":{"admin_level":"4","kind":"region","name:en":"Zhemgang District","name":"\u0f42\u0f5e\u0f63\u0f58\u0f0b\u0f66\u0f92\u0f44\u0f0b\u0f62\u0fab\u0f7c\u0f44\u0f0b\u0f41\u0f42\u0f0b","kind_detail":"state","name:de":"Zhemgang","source":"openstreetmap.org","min_zoom":4.0,"id":4353339743,"name:ja":"\u30b7\u30a7\u30e0\u30ac\u30f3"},"coordinates":[555,96]},{"type":"Point","properties":{"source":"naturalearthdata.com","kind":"locality","name":"Lhasa","population":219599,"region_capital":true,"min_zoom":5.0,"id":6956},"coordinates":[801,2165]},{"type":"Point","properties":{"source":"naturalearthdata.com","kind":"locality","name":"Dibrugarh","population":166366,"min_zoom":6.0,"id":5326},"coordinates":[3568,355]},{"type":"Point","properties":{"source":"naturalearthdata.com","kind":"locality","name":"Nagchu","population":2500,"min_zoom":6.0,"id":5212},"coordinates":[1493,3701]},{"type":"Point","properties":{"source":"naturalearthdata.com","kind":"locality","name":"Nyingchi","population":100,"min_zoom":6.0,"id":5213},"coordinates":[3216,2071]}]},"transit":{"type":"GeometryCollection","geometries":[{"type":"LineString","properties":{"source":"openstreetmap.org","kind":"train","name":"Kamrup Express","sort_rank":275,"ref":"15960","min_zoom":6.0,"osm_relation":true},"arcs":[94]}]},"pois":{"type":"GeometryCollection","geometries":[{"type":"Point","properties":{"kind":"national_park","protect_class":"2","area":362109000,"source":"openstreetmap.org","min_zoom":6.54,"tier":1,"id":120851795,"name":"Dibru-Saikhowa National Park"},"coordinates":[3922,523]}]},"boundaries":{"type":"GeometryCollection","geometries":[{"type":"MultiLineString","properties":{"source":"naturalearthdata.com","kind":"disputed","sort_rank":261,"kind_detail":"2","min_zoom":0.0,"id":34},"arcs":[[0],[1],[2],[3],[4],[5],[6],[7],[8],[9],[10],[11],[12],[13],[14],[15],[16],[17],[18],[19],[20],[21],[22],[23],[24],[25],[26],[27],[28],[29],[30],[31],[32],[33],[34],[35],[36],[37]]},{"type":"MultiLineString","properties":{"source":"naturalearthdata.com","kind":"country","sort_rank":262,"kind_detail":"2","min_zoom":0.0,"id":43},"arcs":[[38],[39],[40],[41],[42],[43],[44],[45]]},{"type":"MultiLineString","properties":{"source":"naturalearthdata.com","kind":"country","sort_rank":262,"kind_detail":"2","min_zoom":0.0,"id":145},"arcs":[[46],[47],[48],[49],[50]]},{"type":"MultiLineString","properties":{"source":"naturalearthdata.com","kind":"disputed","sort_rank":261,"kind_detail":"2","min_zoom":0.0,"id":457},"arcs":[[51],[52],[53],[54],[55],[56],[57],[58]]},{"type":"MultiLineString","properties":{"source":"naturalearthdata.com","kind":"region","sort_rank":256,"kind_detail":"4","min_zoom":2.0,"id":4451},"arcs":[[59],[60],[61]]},{"type":"LineString","properties":{"source":"naturalearthdata.com","kind":"macroregion","sort_rank":257,"kind_detail":"3","min_zoom":6.8,"id":4705},"arcs":[62]},{"type":"MultiLineString","properties":{"source":"naturalearthdata.com","kind":"macroregion","sort_rank":257,"kind_detail":"3","min_zoom":6.8,"id":4700},"arcs":[[63],[64],[65],[66],[67],[68],[69]]},{"type":"LineString","properties":{"source":"naturalearthdata.com","kind":"macroregion","sort_rank":257,"kind_detail":"3","min_zoom":6.8,"id":4703},"arcs":[70]},{"type":"MultiLineString","properties":{"source":"naturalearthdata.com","kind":"macroregion","sort_rank":257,"kind_detail":"3","min_zoom":6.8,"id":4704},"arcs":[[71],[72],[73]]},{"type":"LineString","properties":{"source":"naturalearthdata.com","kind":"macroregion","sort_rank":257,"kind_detail":"3","min_zoom":6.8,"id":4707},"arcs":[74]},{"type":"MultiLineString","properties":{"source":"naturalearthdata.com","kind":"macroregion","sort_rank":257,"kind_detail":"3","min_zoom":6.8,"id":4717},"arcs":[[75],[76],[77]]},{"type":"MultiLineString","properties":{"source":"naturalearthdata.com","kind":"macroregion","sort_rank":257,"kind_detail":"3","min_zoom":6.8,"id":4718},"arcs":[[78],[79],[80]]},{"type":"MultiLineString","properties":{"source":"naturalearthdata.com","kind":"region","sort_rank":256,"kind_detail":"4","min_zoom":2.0,"id":7449},"arcs":[[81],[82],[83],[84],[85],[86],[87],[88],[89],[90],[91],[92],[93]]}]},"roads":{"type":"GeometryCollection","geometries":[{"type":"LineString","properties":{"source":"naturalearthdata.com","kind":"major_road","sort_rank":379,"kind_detail":"secondary","min_zoom":4.0,"id":27056},"arcs":[105]},{"type":"MultiLineString","properties":{"source":"naturalearthdata.com","kind":"major_road","sort_rank":379,"kind_detail":"secondary","min_zoom":4.0,"id":27264},"arcs":[[106],[107]]},{"type":"LineString","properties":{"source":"naturalearthdata.com","kind":"major_road","sort_rank":379,"kind_detail":"secondary","min_zoom":3.0,"id":27384},"arcs":[108]},{"type":"LineString","properties":{"source":"naturalearthdata.com","kind":"major_road","sort_rank":379,"kind_detail":"secondary","min_zoom":3.0,"id":27454},"arcs":[109]},{"type":"LineString","properties":{"source":"naturalearthdata.com","kind":"major_road","sort_rank":379,"kind_detail":"secondary","min_zoom":3.0,"id":27496},"arcs":[110]},{"type":"LineString","properties":{"source":"naturalearthdata.com","kind":"highway","sort_rank":383,"kind_detail":"motorway","min_zoom":5.0,"id":27500},"arcs":[111]},{"type":"LineString","properties":{"source":"naturalearthdata.com","kind":"major_road","sort_rank":379,"kind_detail":"secondary","min_zoom":4.0,"id":27501},"arcs":[112]},{"type":"LineString","properties":{"source":"naturalearthdata.com","kind":"highway","sort_rank":383,"kind_detail":"motorway","min_zoom":3.0,"id":27544},"arcs":[113]},{"type":"LineString","properties":{"source":"naturalearthdata.com","kind":"highway","sort_rank":383,"kind_detail":"motorway","min_zoom":5.0,"id":27851},"arcs":[114]},{"type":"LineString","properties":{"source":"naturalearthdata.com","kind":"minor_road","sort_rank":355,"kind_detail":"tertiary","min_zoom":6.0,"id":28251},"arcs":[115]},{"type":"LineString","properties":{"source":"naturalearthdata.com","kind":"minor_road","sort_rank":355,"kind_detail":"tertiary","min_zoom":6.0,"id":28324},"arcs":[116]},{"type":"LineString","properties":{"source":"naturalearthdata.com","kind":"highway","sort_rank":383,"kind_detail":"motorway","min_zoom":3.0,"id":28363},"arcs":[117]},{"type":"LineString","properties":{"source":"naturalearthdata.com","kind":"highway","sort_rank":383,"kind_detail":"motorway","min_zoom":3.0,"id":28464},"arcs":[118]},{"type":"LineString","properties":{"source":"naturalearthdata.com","kind":"minor_road","sort_rank":355,"kind_detail":"tertiary","min_zoom":6.0,"id":28633},"arcs":[119]},{"type":"LineString","properties":{"source":"naturalearthdata.com","kind":"minor_road","sort_rank":355,"kind_detail":"tertiary","min_zoom":6.0,"id":28810},"arcs":[120]},{"type":"LineString","properties":{"source":"naturalearthdata.com","kind":"highway","sort_rank":383,"kind_detail":"motorway","min_zoom":3.0,"id":28828},"arcs":[121]},{"type":"LineString","properties":{"source":"naturalearthdata.com","kind":"major_road","sort_rank":379,"kind_detail":"secondary","min_zoom":3.0,"id":28994},"arcs":[122]},{"type":"LineString","properties":{"source":"naturalearthdata.com","kind":"minor_road","sort_rank":355,"kind_detail":"tertiary","min_zoom":5.0,"id":29088},"arcs":[123]},{"type":"LineString","properties":{"source":"naturalearthdata.com","kind":"major_road","sort_rank":379,"kind_detail":"secondary","min_zoom":3.0,"id":29130},"arcs":[124]},{"type":"LineString","properties":{"source":"naturalearthdata.com","kind":"minor_road","kind_detail":"tertiary","sort_rank":355,"landuse_kind":"urban_area","min_zoom":6.0,"id":29137},"arcs":[125]},{"type":"LineString","properties":{"source":"naturalearthdata.com","kind":"minor_road","sort_rank":355,"kind_detail":"tertiary","min_zoom":6.0,"id":29137},"arcs":[126]},{"type":"LineString","properties":{"source":"naturalearthdata.com","kind":"highway","kind_detail":"motorway","sort_rank":383,"landuse_kind":"urban_area","min_zoom":3.0,"id":29141},"arcs":[127]},{"type":"LineString","properties":{"source":"naturalearthdata.com","kind":"highway","sort_rank":383,"kind_detail":"motorway","min_zoom":3.0,"id":29141},"arcs":[128]},{"type":"LineString","properties":{"source":"naturalearthdata.com","kind":"highway","sort_rank":383,"kind_detail":"motorway","min_zoom":3.0,"id":29142},"arcs":[129]},{"type":"LineString","properties":{"source":"naturalearthdata.com","kind":"highway","kind_detail":"motorway","sort_rank":383,"landuse_kind":"urban_area","min_zoom":3.0,"id":29149},"arcs":[130]},{"type":"LineString","properties":{"source":"naturalearthdata.com","kind":"highway","sort_rank":383,"kind_detail":"motorway","min_zoom":3.0,"id":29149},"arcs":[131]},{"type":"LineString","properties":{"source":"naturalearthdata.com","kind":"highway","sort_rank":383,"kind_detail":"motorway","min_zoom":3.0,"id":29206},"arcs":[132]},{"type":"LineString","properties":{"source":"naturalearthdata.com","kind":"major_road","sort_rank":379,"kind_detail":"secondary","min_zoom":3.0,"id":29207},"arcs":[133]},{"type":"LineString","properties":{"source":"naturalearthdata.com","kind":"major_road","sort_rank":379,"kind_detail":"secondary","min_zoom":3.0,"id":29227},"arcs":[134]},{"type":"LineString","properties":{"source":"naturalearthdata.com","kind":"minor_road","sort_rank":355,"kind_detail":"tertiary","min_zoom":5.0,"id":29284},"arcs":[135]},{"type":"LineString","properties":{"source":"naturalearthdata.com","kind":"minor_road","sort_rank":355,"kind_detail":"tertiary","min_zoom":5.0,"id":29321},"arcs":[136]},{"type":"LineString","properties":{"source":"naturalearthdata.com","kind":"major_road","sort_rank":379,"kind_detail":"secondary","min_zoom":3.0,"id":29371},"arcs":[137]},{"type":"LineString","properties":{"source":"naturalearthdata.com","kind":"major_road","sort_rank":379,"kind_detail":"secondary","min_zoom":3.0,"id":29403},"arcs":[138]},{"type":"LineString","properties":{"source":"naturalearthdata.com","kind":"minor_road","sort_rank":355,"kind_detail":"tertiary","min_zoom":5.0,"id":29478},"arcs":[139]},{"type":"LineString","properties":{"source":"naturalearthdata.com","kind":"minor_road","sort_rank":355,"kind_detail":"tertiary","min_zoom":5.0,"id":29500},"arcs":[140]},{"type":"LineString","properties":{"source":"naturalearthdata.com","kind":"minor_road","sort_rank":355,"kind_detail":"tertiary","min_zoom":5.0,"id":29538},"arcs":[141]},{"type":"LineString","properties":{"source":"naturalearthdata.com","kind":"minor_road","sort_rank":355,"kind_detail":"tertiary","min_zoom":5.0,"id":29541},"arcs":[142]},{"type":"LineString","properties":{"source":"naturalearthdata.com","kind":"minor_road","sort_rank":355,"kind_detail":"tertiary","min_zoom":5.0,"id":29582},"arcs":[143]},{"type":"LineString","properties":{"source":"naturalearthdata.com","kind":"minor_road","kind_detail":"tertiary","sort_rank":355,"landuse_kind":"urban_area","min_zoom":5.0,"id":29625},"arcs":[144]},{"type":"MultiLineString","properties":{"source":"naturalearthdata.com","kind":"minor_road","sort_rank":355,"kind_detail":"tertiary","min_zoom":5.0,"id":29625},"arcs":[[145],[146]]},{"type":"LineString","properties":{"source":"naturalearthdata.com","kind":"minor_road","sort_rank":355,"kind_detail":"tertiary","min_zoom":5.0,"id":29627},"arcs":[147]},{"type":"LineString","properties":{"source":"naturalearthdata.com","kind":"minor_road","sort_rank":355,"kind_detail":"tertiary","min_zoom":5.0,"id":29655},"arcs":[148]},{"type":"LineString","properties":{"source":"naturalearthdata.com","kind":"minor_road","sort_rank":355,"kind_detail":"tertiary","min_zoom":5.0,"id":29673},"arcs":[149]},{"type":"LineString","properties":{"source":"naturalearthdata.com","kind":"minor_road","sort_rank":355,"kind_detail":"tertiary","min_zoom":5.0,"id":29698},"arcs":[150]},{"type":"LineString","properties":{"source":"naturalearthdata.com","kind":"major_road","sort_rank":379,"kind_detail":"secondary","min_zoom":3.0,"id":29759},"arcs":[151]},{"type":"LineString","properties":{"source":"naturalearthdata.com","kind":"major_road","sort_rank":379,"kind_detail":"secondary","min_zoom":3.0,"id":29840},"arcs":[152]},{"type":"LineString","properties":{"source":"naturalearthdata.com","kind":"minor_road","sort_rank":355,"kind_detail":"tertiary","min_zoom":5.0,"id":29845},"arcs":[153]},{"type":"LineString","properties":{"source":"naturalearthdata.com","kind":"minor_road","sort_rank":355,"kind_detail":"tertiary","min_zoom":5.0,"id":30092},"arcs":[154]},{"type":"LineString","properties":{"source":"naturalearthdata.com","kind":"minor_road","sort_rank":355,"kind_detail":"tertiary","min_zoom":5.0,"id":30096},"arcs":[155]},{"type":"LineString","properties":{"source":"naturalearthdata.com","kind":"minor_road","sort_rank":355,"kind_detail":"tertiary","min_zoom":6.0,"id":30281},"arcs":[156]},{"type":"LineString","properties":{"source":"naturalearthdata.com","kind":"minor_road","sort_rank":355,"kind_detail":"tertiary","min_zoom":6.0,"id":30303},"arcs":[157]},{"type":"LineString","properties":{"source":"naturalearthdata.com","kind":"minor_road","sort_rank":355,"kind_detail":"tertiary","min_zoom":6.0,"id":30314},"arcs":[158]},{"type":"LineString","properties":{"source":"naturalearthdata.com","kind":"minor_road","sort_rank":355,"kind_detail":"tertiary","min_zoom":5.0,"id":30356},"arcs":[159]},{"type":"LineString","properties":{"source":"naturalearthdata.com","kind":"minor_road","sort_rank":355,"kind_detail":"tertiary","min_zoom":6.0,"id":30364},"arcs":[160]},{"type":"LineString","properties":{"source":"naturalearthdata.com","kind":"minor_road","sort_rank":355,"kind_detail":"tertiary","min_zoom":5.0,"id":30381},"arcs":[161]},{"type":"LineString","properties":{"source":"naturalearthdata.com","kind":"minor_road","sort_rank":355,"kind_detail":"tertiary","min_zoom":5.0,"id":30615},"arcs":[162]},{"type":"LineString","properties":{"source":"naturalearthdata.com","kind":"minor_road","sort_rank":355,"kind_detail":"tertiary","min_zoom":5.0,"id":30616},"arcs":[163]},{"type":"LineString","properties":{"source":"naturalearthdata.com","kind":"minor_road","sort_rank":355,"kind_detail":"tertiary","min_zoom":6.0,"id":30639},"arcs":[164]},{"type":"LineString","properties":{"source":"naturalearthdata.com","kind":"minor_road","sort_rank":355,"kind_detail":"tertiary","min_zoom":6.0,"id":30657},"arcs":[165]},{"type":"LineString","properties":{"source":"naturalearthdata.com","kind":"minor_road","sort_rank":355,"kind_detail":"tertiary","min_zoom":5.0,"id":30663},"arcs":[166]},{"type":"LineString","properties":{"source":"naturalearthdata.com","kind":"minor_road","sort_rank":355,"kind_detail":"tertiary","min_zoom":6.0,"id":30713},"arcs":[167]},{"type":"LineString","properties":{"source":"naturalearthdata.com","kind":"minor_road","sort_rank":355,"kind_detail":"tertiary","min_zoom":5.0,"id":30719},"arcs":[168]},{"type":"LineString","properties":{"source":"naturalearthdata.com","kind":"minor_road","sort_rank":355,"kind_detail":"tertiary","min_zoom":5.0,"id":30767},"arcs":[169]},{"type":"LineString","properties":{"source":"naturalearthdata.com","kind":"major_road","kind_detail":"secondary","sort_rank":379,"landuse_kind":"urban_area","min_zoom":3.0,"id":30776},"arcs":[170]},{"type":"MultiLineString","properties":{"source":"naturalearthdata.com","kind":"major_road","sort_rank":379,"kind_detail":"secondary","min_zoom":3.0,"id":30776},"arcs":[[171],[172]]},{"type":"LineString","properties":{"source":"naturalearthdata.com","kind":"minor_road","sort_rank":355,"kind_detail":"tertiary","min_zoom":6.0,"id":30809},"arcs":[173]},{"type":"LineString","properties":{"source":"naturalearthdata.com","kind":"minor_road","sort_rank":355,"kind_detail":"tertiary","min_zoom":5.0,"id":30841},"arcs":[174]},{"type":"LineString","properties":{"source":"naturalearthdata.com","kind":"minor_road","sort_rank":355,"kind_detail":"tertiary","min_zoom":6.0,"id":30908},"arcs":[175]},{"type":"LineString","properties":{"source":"naturalearthdata.com","kind":"minor_road","sort_rank":355,"kind_detail":"tertiary","min_zoom":5.0,"id":30963},"arcs":[176]},{"type":"LineString","properties":{"source":"naturalearthdata.com","kind":"minor_road","sort_rank":355,"kind_detail":"tertiary","min_zoom":6.0,"id":31098},"arcs":[177]},{"type":"LineString","properties":{"source":"naturalearthdata.com","kind":"major_road","kind_detail":"secondary","sort_rank":379,"landuse_kind":"urban_area","min_zoom":3.0,"id":31150},"arcs":[178]},{"type":"MultiLineString","properties":{"source":"naturalearthdata.com","kind":"major_road","sort_rank":379,"kind_detail":"secondary","min_zoom":3.0,"id":31150},"arcs":[[179],[180]]}]},"earth":{"type":"GeometryCollection","geometries":[{"type":"MultiPolygon","properties":{"sort_rank":10,"source":"naturalearthdata.com","min_zoom":0.0,"kind":"earth","area":1557050615552},"arcs":[[[181]]]}]},"landuse":{"type":"GeometryCollection","geometries":[{"type":"MultiPolygon","properties":{"source":"naturalearthdata.com","kind":"urban_area","name":"","area":2395943433,"sort_rank":11,"min_zoom":4.0},"arcs":[[[182]],[[183]],[[184]],[[185]],[[186]],[[187]]]},{"type":"Polygon","properties":{"kind":"park","area":5299999744,"sort_rank":24,"source":"openstreetmap.org","min_zoom":4.0,"tier":2,"id":-6089721,"osm_relation":true},"arcs":[[188]]},{"type":"MultiPolygon","properties":{"source":"openstreetmap.org","kind":"park","tier":2,"area":1191365140,"sort_rank":24,"min_zoom":6.0,"osm_relation":true},"arcs":[[[189]]]},{"type":"MultiPolygon","properties":{"source":"openstreetmap.org","kind":"national_park","tier":1,"protect_class":"2","area":1112253690,"sort_rank":18,"min_zoom":3.0},"arcs":[[[190]]]}]}},"type":"Topology","transform":{"translate":[90.0,27.0591257844],"scale":[0.001373291,0.001194589]},"arcs":[[[3372,1892],[27,-11],[27,-18],[38,-45],[8,-14],[-5,-33],[11,-7],[16,0]],[[3148,1747],[9,3],[8,8],[12,22],[7,9],[17,9],[19,3],[39,0],[17,4],[12,5],[10,8],[39,60],[13,12],[22,2]],[[4072,1834],[24,-11]],[[4013,1735],[8,5],[0,20],[-7,30],[2,10],[26,3],[1,6],[-1,8],[2,8],[8,5],[6,2],[6,0],[8,2]],[[3965,1781],[2,-32],[13,-22]],[[3939,1734],[11,39],[15,8]],[[3535,1767],[27,-8],[54,-25],[16,-5]],[[3494,1764],[12,2],[29,1]],[[3608,1766],[13,-7],[12,-5],[43,-11],[37,-23],[13,-5],[54,-9],[6,-2],[6,-4],[4,-7],[1,-7],[1,-7],[7,-5],[41,-5]],[[3632,1729],[-4,7],[-13,14],[-7,16]],[[3122,1749],[26,-2]],[[2895,1487],[12,8],[14,7],[11,9],[39,16],[40,12],[28,27],[56,3],[30,37],[41,39],[-28,30],[-28,32],[12,42]],[[3911,1741],[28,-7]],[[3846,1669],[-5,50],[23,20],[47,2]],[[3987,1739],[26,-4]],[[3980,1727],[7,12]],[[2883,1488],[12,-1]],[[2698,1367],[13,4],[50,45],[11,7],[43,14],[6,5],[2,9],[8,2],[9,0],[6,3],[3,6],[-2,5],[-2,5],[0,6],[8,7],[15,3],[15,0]],[[2676,1376],[10,-3],[12,-6]],[[2627,1350],[13,0],[13,7],[12,11],[11,8]],[[2586,1356],[41,-6]],[[2043,937],[10,1],[11,3],[12,7],[10,11],[18,26],[10,12],[14,7],[28,10],[10,10],[19,22],[67,49],[18,20],[14,28],[10,31],[4,28],[23,19],[24,20],[32,17],[38,35],[28,17],[66,40],[77,6]],[[2024,952],[2,-5],[2,-6],[4,-4],[11,0]],[[1959,783],[8,26],[0,10],[-9,9],[-25,3],[-11,5],[-2,12],[13,28],[18,23],[21,19],[45,30],[7,4]],[[1768,638],[8,2],[26,19],[36,11],[10,8],[19,22],[9,5],[18,3],[20,9],[25,20],[18,24],[3,22]],[[1960,783],[-1,0]],[[1631,675],[7,-2],[6,-12],[13,-31],[10,-16],[11,-5]],[[1609,625],[9,1],[5,3],[4,9],[-1,8],[-3,7],[0,8],[8,14]],[[1742,667],[9,-2],[9,-21],[8,-6]],[[1711,622],[13,1],[6,15],[4,18],[8,11]],[[1696,648],[4,-2],[4,-13],[7,-11]],[[1678,609],[9,14],[9,25]],[[1548,631],[61,-6]],[[1422,557],[16,2],[27,12],[42,44],[27,14],[14,2]],[[1292,590],[29,-8],[26,-16],[11,-4]],[[1189,586],[103,4]],[[1390,563],[32,-6]],[[1358,562],[32,1]],[[1189,586],[-4,59],[1,19],[6,21],[9,17],[3,16],[-11,19],[-12,9],[-15,8],[-16,4],[-30,4],[-30,12],[-26,1],[-11,1],[-7,3],[-13,4],[-56,30],[-23,22],[-15,29]],[[939,864],[-14,-15],[-18,-2]],[[766,756],[-31,4],[-25,13],[-11,10],[-37,32],[-42,9],[-46,3],[-24,7],[-21,5],[-31,22],[-12,2]],[[486,863],[-12,-3],[-21,-11],[-18,-2],[-16,-4]],[[907,847],[-18,3]],[[889,850],[-19,-3],[-14,-11],[-30,-37],[-11,-16],[-19,-19],[-30,-8]],[[419,843],[-48,7],[-12,0]],[[359,850],[-13,-2]],[[1274,299],[-3,6],[-1,13],[-12,18],[-17,7],[-17,3],[-17,6],[-12,13],[-6,14],[-21,17],[-7,12],[-15,61],[4,32],[35,49],[4,36]],[[1466,0],[-10,10],[-9,28],[1,15],[2,15],[3,15],[6,12],[2,3],[2,3],[9,10],[4,7],[2,7],[3,16],[2,7],[10,13],[23,20],[5,14],[-3,10],[-64,121],[-16,20]],[[1438,346],[-8,-3],[-22,-17],[-9,-3]],[[1399,323],[-27,2]],[[1372,325],[-20,-4],[-56,-20],[-22,-2]],[[240,1002],[-28,4],[-21,32],[0,30],[-27,20]],[[164,1088],[-19,-9],[-17,-19],[-16,-3]],[[112,1057],[-22,11],[-38,9]],[[52,1077],[-52,-19]],[[303,1024],[-21,14]],[[282,1038],[-24,0],[-18,-36]],[[346,848],[8,44],[21,25],[24,3],[15,27],[21,8],[-7,28],[-29,11],[-31,3],[-36,27]],[[332,1024],[-29,0]],[[4003,3920],[-8,4],[-22,23],[-27,20],[-9,11],[-6,12],[-3,12],[-3,40],[-5,14],[-20,40]],[[4096,3937],[-2,0]],[[4094,3937],[-22,-1],[-25,-5],[-23,-8],[-14,-3],[-7,0]],[[706,277],[-15,-5],[-2,-1],[-11,-12]],[[339,600],[-1,-12],[-7,-38],[-2,-10],[-4,-6],[-8,-6],[-33,-14],[-4,-1]],[[280,513],[-3,2],[-8,5]],[[269,520],[-3,0],[-4,-1],[-6,-2],[-6,-1],[-4,-1]],[[246,515],[-3,1],[-2,0],[-3,2],[-2,0]],[[236,518],[-3,0],[-3,-2],[-2,-4],[-2,-3],[-2,-6],[-1,-15],[-2,-5],[-10,-13],[0,-6],[1,-5],[3,-7],[2,-3],[1,-3],[0,-3],[3,-7],[1,-4],[13,-28],[8,-9],[21,-11],[-8,-8],[-3,-3],[-2,-3],[-2,-1],[-3,-1]],[[246,368],[-3,3],[-4,0]],[[239,371],[-6,0],[-10,-3],[-6,-3],[-13,-13],[-4,-3],[-27,-7],[14,-22],[2,-7],[3,-26],[12,-21],[9,-12],[0,-3],[0,-3],[-1,-3],[2,-4],[3,-4],[22,-20],[5,-7],[3,-8],[3,-24],[12,-7],[1,-11],[-4,-14],[-14,-20]],[[706,277],[-11,23],[0,4],[1,6],[4,4],[3,4],[11,26],[-11,15],[-8,7],[-4,5],[-2,4],[1,4],[2,4],[0,6],[-1,20],[-7,14],[0,3],[2,6],[6,22],[5,17],[-1,20],[-3,19],[-2,8],[-3,6],[-20,21],[-3,2],[-4,1],[-11,1],[-5,3],[-2,2],[0,20],[-7,33],[-2,5],[-5,2],[-7,5],[-3,1],[-5,1],[-3,2],[-4,5],[-6,8],[-11,11],[-10,5],[-2,22],[-10,26],[-5,5],[-3,1],[-8,2],[-5,2],[-5,3],[-9,7],[-2,5],[-1,3],[4,8],[0,5],[2,5],[4,3],[7,5],[2,4],[1,6],[0,20],[-3,8],[0,7],[0,8],[3,27]],[[338,641],[4,2],[4,7],[9,16],[4,24],[-1,8],[-1,5],[-2,3],[-2,3],[-2,3],[-1,7],[-1,3],[-2,4],[-2,1],[-3,1],[-8,2],[-2,2],[-2,3],[-2,5],[-2,7],[-2,4],[-2,3],[-1,1],[0,2],[1,2],[2,2],[2,3],[2,4],[2,8],[0,6],[-2,6],[-16,21],[12,19],[22,20]],[[336,641],[2,0]],[[339,600],[-6,34],[1,3],[2,4]],[[741,0],[-20,45],[-1,23],[5,15],[5,12],[1,5],[1,14],[-1,13],[-7,10],[-1,14],[-1,4],[-2,5],[-10,10],[-3,1],[-7,19],[-7,27],[-6,14],[-9,28]],[[343,61],[-3,1],[-3,0],[-3,2],[-5,3],[-5,7],[-9,5],[-24,20],[-46,27]],[[376,56],[-10,1],[-11,4],[-4,0]],[[351,61],[-4,0],[-4,0]],[[376,56],[5,-14],[13,-13],[12,-10],[18,-10],[11,-5],[4,-1]],[[459,10],[17,-9],[1,-1]],[[439,3],[4,0],[4,1],[6,4],[6,2]],[[4096,747],[-27,-17],[-14,-12],[-18,-12],[-37,-14],[-62,-13],[-18,0]],[[3920,679],[-12,2],[-10,3],[-9,4],[-20,12],[-6,0]],[[3863,700],[-8,-2],[-34,-22],[-218,-81],[-38,-20],[-50,-27],[-21,-10],[-7,-2],[-48,-10],[-44,-16],[-40,-18],[-32,-24],[-5,-3],[-22,-9]],[[3170,447],[-22,11],[-8,3],[-17,4],[-5,5],[-8,11],[-4,5],[-7,6],[-4,1]],[[3095,493],[-5,0],[-18,-18],[-5,-12],[4,-13],[8,-11],[9,-7],[7,-8],[4,-12],[1,-3],[-6,-11],[-4,-7],[-95,-87],[-34,-31],[-28,-19],[-25,-22],[-8,-7],[-17,-18],[-82,-90],[-9,-13],[-5,-14],[-1,-21],[7,-23],[-1,-7],[-6,-8],[-21,-13],[-18,-13],[-6,-5]],[[3258,448],[-18,18]],[[3240,466],[-70,-19]],[[3296,456],[-8,1],[-11,1]],[[3277,458],[-19,-10]],[[4038,180],[10,-2],[12,-6],[16,-14],[18,-12],[2,-1]],[[3842,0],[21,17],[38,30],[9,6],[12,5],[14,4],[13,7],[18,15],[11,15],[8,15],[3,12],[4,17],[3,10],[4,7],[6,5],[7,5],[17,8],[8,2]],[[2012,0],[-16,3],[-31,3]],[[1965,6],[-14,-4],[-2,-2]],[[3664,0],[34,11],[155,83],[30,39],[-18,142],[32,81],[-99,13],[-109,-35],[-94,6]],[[194,1311],[46,-4],[14,4],[7,1],[6,-3],[5,-3],[4,-3],[5,0],[8,9],[6,1],[23,-1],[15,-6],[31,-22],[11,-12],[3,-2],[3,-1],[3,-2],[2,-4],[2,-3],[1,-28],[-2,-3],[-2,-3],[-3,-1],[-11,1],[-27,-4],[-5,1],[-4,3],[-6,7],[-4,0],[-4,-1],[-10,-11],[-4,-3],[-5,-1],[-6,1],[-7,3],[-5,3],[0,3],[2,2],[2,4],[0,3],[-3,0],[-4,0],[-3,0],[-3,2],[-4,6],[-2,1],[-2,-1],[-9,-7],[-1,1],[-2,5],[-2,6],[-4,2],[-5,-2],[-8,-11],[-5,-4],[-4,-1],[-7,5],[-11,3],[-3,2],[-5,4],[-2,3],[0,2],[-1,2],[0,1],[-10,8],[-3,4],[-8,14],[-2,1],[-3,1],[-2,2],[0,3],[5,19],[6,4],[13,0]],[[287,2910],[-7,-10],[-17,-10],[-17,-6],[-9,6],[0,3],[1,3],[4,5],[4,13],[-10,10],[-12,11],[-7,15],[3,7],[10,16],[0,3],[-23,8],[-5,3],[0,16],[16,41],[4,15],[-3,19],[-17,47],[-4,36],[9,29],[22,15],[33,-5],[15,-6],[15,0],[12,6],[8,1],[7,-4],[30,-41],[13,-8],[18,-5],[44,-1],[9,4],[12,16],[9,3],[42,0],[-17,21],[9,19],[26,20],[4,-2],[5,-1],[11,1],[7,-2],[3,-3],[0,-4],[2,-3],[10,-4],[11,-2],[10,2],[4,7],[5,3],[20,-18],[5,4],[5,2],[21,-20],[9,-3],[2,9],[-7,28],[3,12],[8,3],[8,-7],[8,-11],[9,-5],[2,23],[5,8],[10,4],[11,-1],[12,-2],[10,-6],[4,-12],[3,-4],[13,-17],[4,-10],[-1,-10],[-16,-52],[-9,-11],[-13,-2],[-96,0],[13,-59],[-47,-47],[-121,-55],[-31,-9],[-26,-2],[-14,-12],[-9,-6],[-8,8],[-10,-1],[-46,-17],[-18,-1],[-8,-2],[-4,-6]],[[461,3578],[-11,-28],[-4,-15],[3,-11],[8,-16],[-6,-24],[6,-15],[-13,-35],[-2,-8],[-5,-5],[-12,-6],[-12,-3],[-9,3],[-24,26],[-1,5],[-3,6],[14,48],[13,17],[4,9],[-1,12],[-5,21],[1,13],[3,13],[3,7],[6,2],[13,1],[11,1],[10,-1],[9,-6],[4,-11]],[[1105,4096],[1,-1],[-9,-7],[-32,-11],[4,12],[-3,7],[39,0]],[[741,1517],[-11,4],[-64,53],[-7,-4],[-4,1],[-3,5],[-1,9],[-5,0],[-2,-12],[-5,-9],[-8,-7],[-10,-6],[-1,6],[0,6],[2,5],[4,6],[-11,0],[-8,-2],[-16,-9],[-1,6],[-3,10],[-1,6],[-8,-12],[-13,-11],[-13,-2],[-6,11],[2,4],[3,3],[3,4],[2,6],[-3,6],[-7,4],[-15,5],[-2,-11],[-3,-7],[31,-47],[1,-20],[-27,-13],[4,9],[-1,5],[-4,4],[-4,6],[-2,1],[-13,14],[0,2],[-9,3],[-12,1],[-12,-4],[-6,-12],[25,-3],[-2,-8],[-55,-48],[-4,-7],[-1,-14],[-3,-9],[-8,-4],[-12,1],[0,6],[-9,-3],[-22,1],[-4,-1],[-2,-3],[-6,0],[-5,3],[-2,6],[1,5],[3,7],[2,6],[-1,8],[-9,8],[-26,11],[-5,6],[-3,12],[-5,12],[-1,10],[11,3],[5,-1],[10,-8],[6,-1],[7,-1],[2,-2],[0,-4],[3,-5],[-1,-3],[-3,-5],[-1,-5],[5,-4],[5,0],[5,3],[4,5],[1,6],[2,3],[3,0],[3,-3],[2,-6],[-1,-6],[-4,-14],[-1,-11],[1,-9],[6,-4],[14,1],[-4,8],[-2,4],[4,2],[8,7],[4,2],[-9,7],[4,26],[-5,13],[8,-1],[7,1],[6,4],[4,8],[0,2],[32,6],[8,3],[-1,6],[-8,4],[-16,3],[-6,4],[-2,9],[3,7],[7,5],[10,2],[18,-1],[10,1],[7,3],[9,7],[5,0],[3,3],[0,13],[-3,20],[-9,16],[-22,30],[13,8],[0,22],[-7,23],[-4,10],[-10,3],[-6,11],[-18,5],[-15,7],[-8,3],[-20,-4],[-31,-20],[-31,-10],[-18,-13],[-30,-28],[4,-9],[-2,-6],[-5,-1],[-2,7],[-4,11],[-9,5],[-6,5],[4,11],[10,-11],[15,12],[16,18],[16,10],[21,5],[34,24],[20,5],[43,-4],[39,-13],[11,-7],[9,-7],[10,-6],[24,-6],[5,-5],[-2,-6],[-12,-4],[7,-12],[4,-4],[-6,-7],[-5,4],[-5,3],[3,-46],[5,-6],[3,-3],[4,-6],[6,-6],[7,-2],[7,1],[13,3],[7,1],[-5,-10],[-8,-5],[-10,-2],[-12,1],[12,-14],[17,-11],[36,-16],[0,6],[-10,6],[3,10],[17,19],[-5,0],[4,7],[1,4],[12,-8],[9,0],[8,5],[9,3],[25,-1],[9,-3],[-2,-7],[8,-12],[8,-6],[36,-22],[7,-9],[-4,-9],[-9,-2],[-10,5],[-9,6],[-7,2],[-12,-5],[-1,-8],[6,-8],[7,-7],[40,-29],[13,-14],[-18,-3]],[[287,2910],[-7,-10],[-17,-10],[-17,-6],[-9,6],[0,3],[1,3],[4,5],[4,13],[-10,10],[-12,11],[-7,15],[3,7],[10,16],[0,3],[-23,8],[-5,3],[0,16],[16,41],[4,15],[-3,19],[-17,47],[-4,36],[9,29],[22,15],[33,-5],[15,-6],[15,0],[12,6],[8,1],[7,-4],[30,-41],[13,-8],[18,-5],[44,-1],[9,4],[12,16],[9,3],[42,0],[-17,21],[9,19],[26,20],[4,-2],[5,-1],[11,1],[7,-2],[3,-3],[0,-4],[2,-3],[10,-4],[11,-2],[10,2],[4,7],[5,3],[20,-18],[5,4],[5,2],[21,-20],[9,-3],[2,9],[-7,28],[3,12],[8,3],[8,-7],[8,-11],[9,-5],[2,23],[5,8],[10,4],[11,-1],[12,-2],[10,-6],[4,-12],[3,-4],[13,-17],[4,-10],[-1,-10],[-16,-52],[-9,-11],[-13,-2],[-96,0],[13,-59],[-47,-47],[-121,-55],[-31,-9],[-26,-2],[-14,-12],[-9,-6],[-8,8],[-10,-1],[-46,-17],[-18,-1],[-8,-2],[-4,-6]],[[741,1517],[-11,4],[-64,53],[-7,-4],[-4,1],[-3,5],[-1,9],[-5,0],[-2,-12],[-5,-9],[-8,-7],[-10,-6],[-1,6],[0,6],[2,5],[4,6],[-11,0],[-8,-2],[-16,-9],[-1,6],[-3,10],[-1,6],[-8,-12],[-13,-11],[-13,-2],[-6,11],[2,4],[3,3],[3,4],[2,6],[-3,6],[-7,4],[-15,5],[-2,-11],[-3,-7],[31,-47],[1,-20],[-27,-13],[4,9],[-1,5],[-4,4],[-4,6],[-2,1],[-13,14],[0,2],[-9,3],[-12,1],[-12,-4],[-6,-12],[25,-3],[-2,-8],[-55,-48],[-4,-7],[-1,-14],[-3,-9],[-8,-4],[-12,1],[0,6],[-9,-3],[-22,1],[-4,-1],[-2,-3],[-6,0],[-5,3],[-2,6],[1,5],[3,7],[2,6],[-1,8],[-9,8],[-26,11],[-5,6],[-3,12],[-5,12],[-1,10],[11,3],[5,-1],[10,-8],[6,-1],[7,-1],[2,-2],[0,-4],[3,-5],[-1,-3],[-3,-5],[-1,-5],[5,-4],[5,0],[5,3],[4,5],[1,6],[2,3],[3,0],[3,-3],[2,-6],[-1,-6],[-4,-14],[-1,-11],[1,-9],[6,-4],[14,1],[-4,8],[-2,4],[4,2],[8,7],[4,2],[-9,7],[4,26],[-5,13],[8,-1],[7,1],[6,4],[4,8],[0,2],[32,6],[8,3],[-1,6],[-8,4],[-16,3],[-6,4],[-2,9],[3,7],[7,5],[10,2],[18,-1],[10,1],[7,3],[9,7],[5,0],[3,3],[0,13],[-3,20],[-9,16],[-22,30],[13,8],[0,22],[-7,23],[-4,10],[-10,3],[-6,11],[-18,5],[-15,7],[-8,3],[-20,-4],[-31,-20],[-31,-10],[-18,-13],[-30,-28],[4,-9],[-2,-6],[-5,-1],[-2,7],[-4,11],[-9,5],[-6,5],[4,11],[10,-11],[15,12],[16,18],[16,10],[21,5],[34,24],[20,5],[43,-4],[39,-13],[11,-7],[9,-7],[10,-6],[24,-6],[5,-5],[-2,-6],[-12,-4],[7,-12],[4,-4],[-6,-7],[-5,4],[-5,3],[3,-46],[5,-6],[3,-3],[4,-6],[6,-6],[7,-2],[7,1],[13,3],[7,1],[-5,-10],[-8,-5],[-10,-2],[-12,1],[12,-14],[17,-11],[36,-16],[0,6],[-10,6],[3,10],[17,19],[-5,0],[4,7],[1,4],[12,-8],[9,0],[8,5],[9,3],[25,-1],[9,-3],[-2,-7],[8,-12],[8,-6],[36,-22],[7,-9],[-4,-9],[-9,-2],[-10,5],[-9,6],[-7,2],[-12,-5],[-1,-8],[6,-8],[7,-7],[40,-29],[13,-14],[-18,-3]],[[1105,4096],[1,-1],[-9,-7],[-32,-11],[4,12],[-3,7]],[[461,3578],[-11,-28],[-4,-15],[3,-11],[8,-16],[-6,-24],[6,-15],[-13,-35],[-2,-8],[-5,-5],[-12,-6],[-12,-3],[-9,3],[-24,26],[-1,5],[-3,6],[14,48],[13,17],[4,9],[-1,12],[-5,21],[1,13],[3,13],[3,7],[6,2],[13,1],[11,1],[10,-1],[9,-6],[4,-11]],[[194,1311],[46,-4],[14,4],[7,1],[6,-3],[5,-3],[4,-3],[5,0],[8,9],[6,1],[23,-1],[15,-6],[31,-22],[11,-12],[3,-2],[3,-1],[3,-2],[2,-4],[2,-3],[1,-28],[-2,-3],[-2,-3],[-3,-1],[-11,1],[-27,-4],[-5,1],[-4,3],[-6,7],[-4,0],[-4,-1],[-10,-11],[-4,-3],[-5,-1],[-6,1],[-7,3],[-5,3],[0,3],[2,2],[2,4],[0,3],[-3,0],[-4,0],[-3,0],[-3,2],[-4,6],[-2,1],[-2,-1],[-9,-7],[-1,1],[-2,5],[-2,6],[-4,2],[-5,-2],[-8,-11],[-5,-4],[-4,-1],[-7,5],[-11,3],[-3,2],[-5,4],[-2,3],[0,2],[-1,2],[0,1],[-10,8],[-3,4],[-8,14],[-2,1],[-3,1],[-2,2],[0,3],[5,19],[6,4],[13,0]],[[566,4094],[7,2]],[[0,4012],[29,0],[60,6],[27,7],[12,11],[33,41],[16,19]],[[447,4096],[29,-5],[42,0],[48,3]],[[1278,3818],[9,14],[30,17],[15,21],[3,21],[-9,14],[-51,55],[-24,34],[-9,35],[0,21],[9,27],[0,19]],[[1437,3749],[-27,11],[-24,3],[-45,17],[-33,7],[-21,7],[-9,14],[0,10]],[[1494,3704],[-3,14],[-9,14],[-15,10],[-30,7]],[[1494,3697],[24,7],[33,14],[27,17],[18,18],[33,31],[21,10],[36,48],[22,14],[39,21],[15,10],[21,24],[21,14],[21,11],[45,13],[21,-3],[33,-7],[33,-7],[45,-3],[12,10],[21,28],[15,10],[33,14],[45,21],[27,20],[39,18],[15,3]],[[1494,3697],[0,7]],[[1437,3646],[57,51]],[[2209,4053],[24,7],[30,0],[24,0],[51,3],[39,0],[48,7],[57,7],[39,-3],[30,-7],[33,-17],[15,-4],[46,4],[15,-4],[18,-7],[48,-27],[21,0],[9,13],[9,25],[24,17],[45,14],[48,7],[48,0],[33,-7],[33,-14],[48,-21],[87,-31],[21,-7],[33,-7],[18,4],[33,10],[24,-3],[12,-11],[6,-20],[18,-76],[6,-14],[18,-7],[15,-11],[12,-20],[9,-24],[3,-31],[3,-18],[27,-24],[6,7],[30,31],[33,28],[27,31],[12,10],[49,7],[30,14],[33,-4],[18,4],[42,-4],[9,-7],[18,-27],[12,-42],[3,-6],[30,-11],[21,-7],[36,-14],[24,-13],[15,-11],[21,-17],[21,-14],[27,-14],[21,-3],[30,-10],[21,-4],[48,-17],[30,-14],[30,-14],[10,-6]],[[2308,3021],[-15,3],[-63,14],[-84,21],[-27,13],[-12,21],[-18,0],[-27,-7],[-21,4],[-18,7],[-36,13],[-42,11],[-69,10],[-15,11],[-3,17],[-3,17],[3,24],[9,17],[27,18],[6,20],[-3,7],[-21,7],[-15,7],[-15,21],[-21,17],[-21,14],[-9,24],[-9,4],[-6,-21],[-3,-7],[-15,21],[-6,3],[-21,0],[-12,4],[-28,20],[-21,18],[-21,3],[-12,14],[-9,24],[-21,3],[-15,11],[-18,17],[-6,17],[-6,35],[-9,7],[-18,-4],[-21,4],[-18,7],[-12,13],[-27,52],[6,28],[-9,14],[-21,7]],[[2542,2969],[-33,7],[-18,17],[-18,0],[-12,-10],[-9,-4],[-18,18],[-18,6],[-78,11],[-30,7]],[[1086,2945],[18,24],[15,34],[3,11],[36,93],[18,41],[12,52],[18,62],[9,56],[9,24],[9,31],[9,17],[27,31],[9,17],[9,32],[9,27],[12,24],[6,7],[42,28],[30,27],[18,18],[33,45]],[[795,2852],[33,13],[60,14],[33,14],[33,14],[21,14],[15,6],[18,4],[33,-4],[30,7],[15,11]],[[2542,2969],[30,-7],[6,-7],[12,7],[16,-14],[9,0],[12,11],[27,0],[21,6],[42,0],[33,-20],[12,-11],[24,-3],[12,-10],[12,-4],[18,-14],[9,-14],[9,-3],[15,-24],[12,-10],[15,3],[15,-7],[6,4],[27,-11],[15,4],[12,-4],[6,-17],[6,-7],[12,7],[18,-7],[21,7],[9,-4],[24,-20],[45,-7],[9,0],[15,-4],[30,0],[12,-13],[9,-4],[12,4],[24,-11],[9,-14],[15,-10],[9,-10],[12,-4],[12,0],[15,-7],[12,11],[21,-4],[21,-14],[12,-3],[18,3],[30,-3],[12,0],[54,-7]],[[3467,2703],[12,-10],[49,-24],[15,-14],[15,-38],[12,-11],[18,-7],[33,-6],[15,-11],[51,-34],[3,-7]],[[395,2524],[3,41],[9,31],[9,24],[12,14],[15,10],[30,14],[15,7],[39,17],[69,45],[27,21],[15,7],[51,41],[45,28],[61,28]],[[3690,2541],[18,-7],[51,-14],[9,-3],[12,-14],[15,-7],[21,-4],[21,-6],[27,-21],[33,-28],[21,-17],[18,0],[18,-21],[18,-7],[33,0],[30,-20],[12,0],[30,10],[12,3]],[[0,2275],[5,7],[30,27],[21,18],[21,38],[15,7],[27,7],[33,13],[24,7],[81,28],[30,17],[15,21],[9,17],[21,24],[30,18],[9,3],[24,-3]],[[3690,2541],[-36,-49],[-18,-17],[-15,-7],[-60,0],[-18,-7],[-12,-24],[-37,-17],[-12,-14],[-15,-34],[-9,-18],[-3,-24],[-12,-65],[3,-49],[-6,-31]],[[848,2180],[-20,-2],[-18,-7]],[[1086,2945],[30,-11],[36,-20],[36,-18],[9,-17],[36,-27],[12,-18],[0,-14],[-12,-27],[-30,-24],[-21,-11],[-21,-3],[-27,-7],[-36,-21],[-27,0],[-30,-10],[-18,-10],[-21,-18],[-15,-20],[-24,-18],[-24,-17],[-21,-17],[-9,-21],[9,-21],[15,-10],[3,-10],[-18,-35],[0,-17],[9,-38],[-9,-31],[-9,-18],[-18,-24],[18,-3],[72,-28],[48,-20],[21,-18],[0,-10],[-15,-35],[-12,-34],[-6,-10],[-69,-35],[-18,-7],[-30,-7],[-52,-5]],[[761,2172],[18,3],[31,-4]],[[725,2161],[27,10],[9,1]],[[725,2161],[-30,10],[-27,11],[-21,14],[-24,13],[-21,14],[-24,24],[-18,28],[-27,52],[-15,41],[-15,42],[-15,27],[-21,28],[-33,24],[-39,35]],[[810,2171],[21,-13],[1,-1]],[[832,2157],[32,-3],[30,4],[48,13],[27,7],[30,4],[18,3],[12,11],[9,13],[12,28],[18,28],[21,17],[15,7],[18,0],[33,-4],[21,4],[66,20],[12,0],[39,-13],[24,-11],[45,-20],[30,-18],[51,-24],[48,-14],[66,-13],[30,3],[30,-10],[21,0],[12,10],[18,17],[15,35],[19,31],[6,21],[-9,31],[0,20],[12,14],[24,11],[33,0],[51,-25],[48,-13],[30,-4],[42,4],[15,3],[15,10],[39,31],[21,11],[33,14],[21,13],[15,35],[6,7],[15,7],[27,3],[36,-3],[21,-7],[15,-7],[30,-21],[18,-17],[21,-24],[24,-24],[30,-7],[33,0],[27,3],[42,0],[39,4],[33,-7],[39,3],[27,7],[21,0],[40,-14],[21,-10]],[[2663,2351],[30,-21],[24,-14],[36,-13],[27,-14],[33,-7],[39,0],[30,0],[21,-4],[18,-7],[27,-31],[12,-3],[18,0],[45,10],[39,4],[30,-4],[21,-3],[15,-10],[30,-18],[24,-24],[48,-59],[30,-17],[9,-10],[3,-11]],[[4089,2385],[7,-1]],[[3440,2185],[-3,-10],[-9,-17],[-18,-14],[-15,-7],[-33,3],[-21,-14],[-9,-13],[-12,-14],[-27,-17],[-12,0],[-9,13]],[[3317,2037],[-27,-18],[-18,-3],[-18,7],[-3,21],[12,38],[9,13]],[[3317,2037],[-12,-24],[-18,-21],[-12,-21]],[[491,1909],[9,7],[42,10],[24,11],[33,10],[24,10],[30,14],[12,21],[12,31],[21,52],[30,79],[-3,7]],[[500,1888],[0,7],[-9,14]],[[500,1888],[9,7],[9,-3],[15,-31],[9,-14],[33,-4],[36,7],[117,11],[21,0],[88,-7],[69,-11],[21,-3],[21,-7],[33,-3],[18,3],[63,-3]],[[1062,1830],[15,3],[45,-7],[21,-3],[54,-4],[45,-3],[39,0]],[[2993,1774],[30,11],[42,27],[36,21],[21,10],[15,11],[15,20],[12,11],[36,21],[24,24],[24,24],[27,17]],[[2915,1778],[48,-7],[30,3]],[[2822,1726],[18,10],[30,28],[21,10],[24,4]],[[1289,1820],[3,2]],[[1281,1816],[8,4]],[[1292,1822],[13,8],[36,10],[18,0],[24,-4],[36,-10],[24,-14],[15,-10],[21,-35],[3,-13],[12,-25],[21,-13],[21,-4],[18,0],[9,-3],[21,-14],[15,-10]],[[1599,1685],[18,-7],[21,-7],[21,0],[18,3],[31,14],[27,-14],[9,0],[18,7],[21,10],[18,7],[9,11],[3,20],[15,7],[33,-7],[9,-13]],[[1870,1716],[9,-7],[27,3],[24,0],[18,-7],[9,-17],[15,-7],[33,0],[33,-3],[42,-4],[30,-7],[24,-3],[36,-14],[33,0],[18,3],[12,11],[6,7]],[[2416,1633],[15,10],[21,24],[27,35],[18,17],[21,28],[15,7],[27,3],[33,0],[40,-14],[33,-7],[33,-7],[30,0],[21,-6],[21,-4],[30,0],[21,7]],[[2239,1671],[12,27],[6,4],[9,-4],[9,-24],[0,-27],[6,-7],[30,-18],[18,-7],[24,-3],[27,3],[24,11],[12,7]],[[260,1540],[12,34],[3,21],[0,20],[-6,28],[-3,38],[-3,7],[-15,14],[-6,14],[15,7],[27,20],[21,11],[54,24],[27,7],[57,7],[12,10],[0,10],[-3,28],[9,17],[39,28],[0,3]],[[0,1457],[23,0],[12,10],[12,14],[18,31],[12,10],[18,4],[54,-7],[63,0],[21,0],[15,7],[12,14]],[[1281,1816],[6,-14],[12,-31],[30,-52],[30,-59],[9,-24],[15,-62],[12,-21],[21,-24],[42,-31],[48,-38],[18,-10]],[[1524,1450],[18,-11],[9,-13],[12,-25],[15,-17],[27,-31],[12,-31],[3,-31],[0,-17],[6,-18],[27,-51],[6,-28],[3,-28],[-3,-10]],[[1659,1139],[-48,-3]],[[3654,987],[-12,-17],[-15,-7],[-21,10],[-12,4],[-12,-11],[-21,4],[-15,-11],[-15,0],[-15,-20],[-16,-7]],[[4096,1013],[-37,-26],[-18,-3],[-12,-11],[-33,-41],[-12,-21],[-15,4],[-18,10],[-12,0]],[[3939,925],[-24,-3],[-36,-28],[-18,3],[-12,21],[-18,14],[-45,14],[-36,-28],[-24,-3],[-30,3],[-12,7],[-15,21],[-12,41],[-3,0]],[[1611,1136],[-9,-4],[-39,-17],[-24,-7],[-36,-7],[-18,0],[-36,14],[-18,7],[-21,-4],[-15,-7],[-3,-10],[0,-21],[-9,-31],[3,-17],[18,-28],[9,-55],[3,-27],[-6,-21],[0,-17],[9,-35],[3,-17]],[[3500,932],[0,-14],[-6,-17],[-9,-11],[6,-17],[-3,-10],[-9,-14],[-15,0],[-18,-24],[-18,-7]],[[1422,832],[-3,-38]],[[1419,794],[-6,-17],[-18,-35],[-9,-10],[-6,-21],[-6,-31],[0,-21],[6,-21],[15,-41],[-12,-35],[9,-31],[9,-17],[0,-28],[6,-20],[0,-24],[6,-11]],[[1413,431],[9,0],[21,4]],[[3428,818],[-3,-38],[3,-31],[3,-17],[12,-11],[21,-27],[33,-14],[3,-14],[-12,-17],[-3,-17],[0,-28],[-9,-28],[0,-10],[6,-17],[-9,-28],[-9,-17],[-9,-4],[-9,4],[-27,24],[-24,0],[-6,-7],[0,-10],[12,-4],[6,-7],[3,-10],[12,-4],[-3,-13],[6,-21],[-9,-17],[0,-11],[0,-24]],[[4096,597],[-10,-14],[-9,-31],[-15,-24],[-3,-28],[-15,-17],[-6,-14],[3,-45],[-6,-13],[-30,-21],[-24,-7],[-24,-10]],[[3416,400],[12,-3],[42,-21],[27,-10]],[[3110,324],[24,0],[9,-7],[15,-20],[9,-4],[12,7],[30,0],[24,4],[36,6],[24,7],[18,18],[21,34],[9,21],[9,14],[9,3],[36,-3],[21,-4]],[[1443,435],[12,-11],[30,-7],[12,-6],[12,-14],[24,-14],[6,-14],[0,-24],[12,-17],[6,-18],[30,-27]],[[1587,283],[24,-7],[12,-7],[18,-21],[21,-10],[18,-7],[43,-7],[12,-3]],[[3966,357],[3,-5],[35,-3]],[[3957,373],[9,-16]],[[4004,349],[1,-1],[12,11],[15,-4],[27,-14],[21,-17],[9,-24],[6,-24],[1,-2]],[[2990,162],[12,0],[6,14],[33,72],[12,24],[6,32],[6,10],[9,7],[36,3]],[[1735,221],[12,-18],[15,0],[9,-13],[0,-11],[-12,-24],[3,-17],[21,0],[15,-7],[6,-7]],[[2861,34],[9,24],[27,21],[21,14],[21,21],[45,44],[6,4]],[[1804,124],[3,-17],[0,-18],[-6,-17],[-9,-10],[-21,-17],[-12,-18],[0,-27]],[[2846,0],[0,7],[15,27]],[[3726,336],[15,4]],[[3415,0],[1,7],[30,41],[3,14],[3,24],[9,28],[3,10],[15,17],[6,11],[0,13],[3,21],[12,17],[34,25],[9,13],[9,35],[15,31],[-9,21],[0,10],[9,14],[24,7],[21,-11],[24,-17],[75,0],[15,5]],[[3741,340],[15,5],[15,3],[54,18],[12,3],[39,-7],[33,0],[21,7],[27,4]],[[4096,4096],[0,-4096],[-4096,0],[0,1616],[0,2480],[3615,0],[481,0]],[[3977,360],[7,-6],[33,6],[-29,-25],[-43,15],[32,10]],[[1922,1029],[-17,14],[29,34],[3,-8],[-15,-40]],[[1299,1863],[-8,-43],[-9,1],[-23,33],[16,22],[24,-13]],[[864,2203],[-35,-50],[-72,20],[41,28],[-9,33],[75,-31]],[[3964,297],[-15,-39],[-13,18],[-47,-38],[-1,-46],[-40,10],[8,65],[37,-8],[27,73],[44,-35]],[[3737,364],[5,-32],[-28,6],[4,31],[19,-5]],[[0,931],[104,-55],[48,36],[51,-18],[-142,-82],[-49,-62],[17,-147],[-29,-30],[0,358]],[[1293,198],[79,47],[-56,56],[31,57],[68,-23],[54,18],[35,-129],[44,-38],[-58,-10],[8,-68],[-78,-29],[-62,61],[-19,-38],[-27,5],[3,73],[-22,18]],[[3760,437],[19,42],[122,45],[86,81],[27,-2],[-8,-62],[-111,-95],[-135,-9]]]}