{"objects":{"water":{"type":"GeometryCollection","geometries":[{"type":"Polygon","properties":{"kind":"lake","name":"Karnaphuli Reservoir","reservoir":true,"area":609938368,"sort_rank":200,"source":"naturalearthdata.com","min_zoom":0.0,"id":1235},"arcs":[[180]]},{"type":"MultiPolygon","properties":{"source":"naturalearthdata.com","kind":"ocean","area":1576712559132672,"sort_rank":200,"min_zoom":0.0,"id":1},"arcs":[[[181]],[[182]],[[183],[184],[185],[186],[187],[188],[189],[190],[191],[192],[193],[194],[195],[196],[197],[198]]]},{"type":"MultiPolygon","properties":{"sort_rank":200,"source":"naturalearthdata.com","min_zoom":0.0,"kind":"lake","area":720360924},"arcs":[[[199]]]},{"type":"Point","properties":{"label_placement":true,"kind":"lake","name":"Karnaphuli Reservoir","reservoir":true,"area":609938368,"sort_rank":200,"source":"naturalearthdata.com","min_zoom":0.0,"id":1235},"coordinates":[1674,651]},{"type":"MultiLineString","properties":{"source":"naturalearthdata.com","kind":"ocean","sort_rank":205,"boundary":true,"min_zoom":0.0,"id":79},"arcs":[[200],[201],[202],[203]]},{"type":"LineString","properties":{"source":"naturalearthdata.com","kind":"lake","sort_rank":367,"boundary":true,"min_zoom":0.0,"id":681},"arcs":[204]},{"type":"LineString","properties":{"source":"naturalearthdata.com","kind":"lake","reservoir":true,"sort_rank":367,"boundary":true,"min_zoom":0.0,"id":1235},"arcs":[205]},{"type":"LineString","properties":{"source":"naturalearthdata.com","kind":"ocean","sort_rank":205,"boundary":true,"min_zoom":0.0,"id":1570},"arcs":[206]},{"type":"LineString","properties":{"source":"naturalearthdata.com","kind":"ocean","sort_rank":205,"boundary":true,"min_zoom":0.0,"id":1571},"arcs":[207]},{"type":"MultiLineString","properties":{"source":"naturalearthdata.com","kind":"ocean","sort_rank":205,"boundary":true,"min_zoom":0.0,"id":1572},"arcs":[[208],[209]]},{"type":"LineString","properties":{"source":"naturalearthdata.com","kind":"ocean","sort_rank":205,"boundary":true,"min_zoom":0.0,"id":1573},"arcs":[210]},{"type":"MultiLineString","properties":{"source":"naturalearthdata.com","kind":"ocean","sort_rank":205,"boundary":true,"min_zoom":0.0,"id":1574},"arcs":[[211],[212]]},{"type":"LineString","properties":{"source":"naturalearthdata.com","kind":"ocean","sort_rank":205,"boundary":true,"min_zoom":0.0,"id":1575},"arcs":[213]},{"type":"LineString","properties":{"source":"naturalearthdata.com","kind":"ocean","sort_rank":205,"boundary":true,"min_zoom":0.0,"id":1576},"arcs":[214]},{"type":"LineString","properties":{"source":"naturalearthdata.com","kind":"ocean","sort_rank":205,"boundary":true,"min_zoom":0.0,"id":1577},"arcs":[215]},{"type":"LineString","properties":{"source":"naturalearthdata.com","kind":"ocean","sort_rank":205,"boundary":true,"min_zoom":0.0,"id":1578},"arcs":[216]},{"type":"LineString","properties":{"source":"naturalearthdata.com","kind":"ocean","sort_rank":205,"boundary":true,"min_zoom":0.0,"id":1579},"arcs":[217]},{"type":"LineString","properties":{"source":"naturalearthdata.com","kind":"ocean","sort_rank":205,"boundary":true,"min_zoom":0.0,"id":1580},"arcs":[218]},{"type":"LineString","properties":{"source":"naturalearthdata.com","kind":"ocean","sort_rank":205,"boundary":true,"min_zoom":0.0,"id":1581},"arcs":[219]},{"type":"LineString","properties":{"source":"naturalearthdata.com","kind":"ocean","sort_rank":205,"boundary":true,"min_zoom":0.0,"id":1582},"arcs":[220]},{"type":"LineString","properties":{"source":"naturalearthdata.com","kind":"ocean","sort_rank":205,"boundary":true,"min_zoom":0.0,"id":1583},"arcs":[221]},{"type":"LineString","properties":{"source":"naturalearthdata.com","kind":"ocean","sort_rank":205,"boundary":true,"min_zoom":0.0,"id":1584},"arcs":[222]},{"type":"LineString","properties":{"source":"naturalearthdata.com","kind":"ocean","sort_rank":205,"boundary":true,"min_zoom":0.0,"id":1585},"arcs":[223]},{"type":"LineString","properties":{"source":"naturalearthdata.com","kind":"ocean","sort_rank":205,"boundary":true,"min_zoom":0.0,"id":1586},"arcs":[224]},{"type":"LineString","properties":{"source":"naturalearthdata.com","kind":"ocean","sort_rank":205,"boundary":true,"min_zoom":0.0,"id":1587},"arcs":[225]}]},"buildings":{"type":"GeometryCollection","geometries":[]},"places":{"type":"GeometryCollection","geometries":[{"type":"Point","properties":{"name:ps":"\u0628\u0646\u06ab\u0644\u0647\u200c\u062f\u06cc\u0634","name:ka":"\u10d1\u10d0\u10dc\u10d2\u10da\u10d0\u10d3\u10d4\u10e8\u10d8","alt_name:el":"\u039c\u03c0\u03b1\u03bd\u03b3\u03ba\u03bb\u03b1\u03bd\u03c4\u03ad\u03c2","name:tr":"Banglade\u015f","name:cv":"\u0411\u0430\u043d\u0433\u043b\u0430\u0434\u0435\u0448","name:km":"\u1794\u1784\u17cb\u1780\u17d2\u179b\u17b6\u178a\u17c1\u179f\u17d2\u17a0","name:cs":"Banglad\u00e9\u0161","name:ki":"Bangladeshi","name:kv":"\u0411\u0430\u043d\u0433\u043b\u0430\u0434\u0435\u0448","name:ku":"Banglade\u015f","name:ti":"\u1263\u1295\u130d\u120b\u12f2\u123d","name:ks":"\u0628\u064e\u0646\u065b\u06af\u0644\u0627\u062f\u06cc\u0634","name:to":"Pengil\u0101tesi","name:pa":"\u0a2c\u0a70\u0a17\u0a32\u0a3e\u0a26\u0a47\u0a38\u0a3c","name:os":"\u0411\u0430\u043d\u0433\u043b\u0430\u0434\u0435\u0448","name:or":"\u0b2c\u0b3e\u0b19\u0b4d\u0b17\u0b32\u0b3e\u0b26\u0b47\u0b36\u0b4d","name:ce":"\u0411\u0430\u043d\u0433\u043b\u0430\u0434\u0435\u0448","name:ta":"\u0baa\u0b99\u0bcd\u0b95\u0bb3\u0bbe\u0ba4\u0bc7\u0bb7\u0bcd","name:tg":"\u0411\u0430\u043d\u0433\u043b\u0430\u0434\u0435\u0448","name:ca":"Bangla Desh","name:te":"\u0c2c\u0c3e\u0c02\u0c17\u0c4d\u0c32\u0c3e\u0c26\u0c47\u0c37\u0c4d","name:hu":"Banglades","source":"openstreetmap.org","name:hr":"Banglade\u0161","name:ln":"Bengalid\u025bsi","name:de":"Bangladesch","name:dz":"\u0f56\u0f44\u0f92\u0f0b\u0f63\u0f0b\u0f51\u0f7a\u0f64","name:ko":"\ubc29\uae00\ub77c\ub370\uc2dc","name:nv":"Bangla Bik\u00e9yah","name:kn":"\u0cac\u0cbe\u0c82\u0c97\u0ccd\u0cb2\u0cbe\u0ca6\u0cc7\u0cb6\u0ccd","name:dv":"\u0784\u07a6\u0782\u07b0\u078e\u07a7\u0785\u07aa","name:lv":"Banglade\u0161a","name:lt":"Banglade\u0161as","name:hi":"\u092c\u093e\u0902\u0917\u094d\u0932\u093e\u0926\u0947\u0936","name:kk":"\u0411\u0430\u043d\u0433\u043b\u0430\u0434\u0435\u0448","name:he":"\u05d1\u05e0\u05d2\u05dc\u05d3\u05e9","min_zoom":2.0,"kind":"country","name:ur":"\u0628\u0646\u06af\u0644\u06c1 \u062f\u06cc\u0634","name:lb":"Bangladesch","name:la":"Bangladesha","name:lg":"Bangaladesi","name:uk":"\u0411\u0430\u043d\u0433\u043b\u0430\u0434\u0435\u0448","name:hy":"\u0532\u0561\u0576\u0563\u056c\u0561\u0564\u0565\u0577","name:ug":"\u0628\u0627\u0646\u06af\u0644\u0627\u062f\u06d0\u0634","name:li":"Bangladesj","name:qu":"Banladish","name:lo":"\u0e9a\u0eb1\u0e87\u0e81\u0eb0\u0ea5\u0eb2\u0ec0\u0e97\u0e94","name:oc":"Banglad\u00e8sh","population":162221000,"name:el":"\u039c\u03c0\u03b1\u03b3\u03ba\u03bb\u03b1\u03bd\u03c4\u03ad\u03c2","name:eo":"Banglade\u015do","name":"Bangladesh","name:is":"Bangladess","name:tk":"Banglade\u015f","name:ee":"Bangladesh nutome","name:th":"\u0e1b\u0e23\u0e30\u0e40\u0e17\u0e28\u0e1a\u0e31\u0e07\u0e01\u0e25\u0e32\u0e40\u0e17\u0e28","name:yi":"\u05d1\u05d0\u05e0\u05d2\u05dc\u05d0\u05d3\u05e2\u05e9","name:es":"Banglad\u00e9s","name:rm":"Bangladesch","name:rn":"Bangaladeshi","name:az":"Banqlade\u015f","name:mr":"\u092c\u093e\u0902\u0917\u094d\u0932\u093e\u0926\u0947\u0936","name:as":"\u09ac\u09be\u0982\u09b2\u09be\u09a6\u09c7\u09b6","name:ar":"\u0628\u0646\u063a\u0644\u0627\u062f\u064a\u0634","name:my":"\u1018\u1004\u103a\u1039\u1002\u101c\u102c\u1038\u1012\u1031\u1037\u101b\u103e\u103a","name:ak":"Banglad\u025bhye","name:am":"\u1263\u1295\u130d\u120b\u12f2\u123d","name:fo":"Bangladesj","name:ml":"\u0d2c\u0d02\u0d17\u0d4d\u0d32\u0d3e\u0d26\u0d47\u0d36\u0d4d","name:ru":"\u0411\u0430\u043d\u0433\u043b\u0430\u0434\u0435\u0448","name:rw":"Bangaladeshi","name:pl":"Bangladesz","name:mk":"\u0411\u0430\u043d\u0433\u043b\u0430\u0434\u0435\u0448","name:af":"Bangladesj","name:zu":"i-Bangladesh","name:ha":"Bangiladas","name:mn":"\u0411\u0430\u043d\u0433\u043b\u0430\u0434\u0435\u0448","name:ff":"Banglaadees","name:mg":"Bangladesy","id":432424937,"name:mt":"Bangladexx","name:wo":"Banglaades","name:ky":"\u0411\u0430\u04a3\u0433\u043b\u0430\u0434\u0435\u0448","name:zh-yue":"\u5b5f\u52a0\u62c9\u570b","name:fy":"Banglades","name:pi":"\u092c\u0902\u0917\u0932\u093e\u0926\u0947\u0936","name:zh":"\u5b5f\u52a0\u62c9\u56fd","name:gv":"Yn Vangladesh","name:so":"Bangaaladheesh","name:sn":"Bangladeshi","name:sr":"\u0411\u0430\u043d\u0433\u043b\u0430\u0434\u0435\u0448","name:sl":"Banglade\u0161","name:sk":"Banglad\u00e9\u0161","name:ja":"\u30d0\u30f3\u30b0\u30e9\u30c7\u30b7\u30e5","name:si":"\u0db6\u0d82\u0d9c\u0dbd\u0dd2\u0daf\u0dda\u0dc1\u0dba","name:sh":"Banglade\u0161","name:sg":"Benglad\u00eashi","name:na":"Bangradet","name:sd":"\u0628\u0646\u06af\u0644\u0627\u062f\u064a\u0634","name:ne":"\u092c\u0919\u094d\u0917\u0932\u093e\u0926\u0947\u0936","name:sa":"\u092c\u0902\u0917\u0932\u093e\u0926\u0947\u0936\u0903","name:bs":"Banglade\u0161","name:bm":"B\u025bngilad\u025bsi","name:bn":"\u09ac\u09be\u0982\u09b2\u09be\u09a6\u09c7\u09b6","name:bo":"\u0f56\u0f44\u0f92\u0f0b\u0f63\u0f0b\u0f51\u0f7a\u0f64\u0f0d","name:vo":"Bangladej\u00e4n","name:sw":"Bangladeshi","name:be":"\u0411\u0430\u043d\u0433\u043b\u0430\u0434\u044d\u0448","name:su":"Banglad\u00e9s","name:bg":"\u0411\u0430\u043d\u0433\u043b\u0430\u0434\u0435\u0448","name:ss":"IBhangladeshi","name:ba":"\u0411\u0430\u043d\u0433\u043b\u0430\u0434\u0435\u0448","name:sq":"Bangladeshi","name:ga":"An Bhanglad\u00e9is","name:gd":"Bangladais","name:ht":"Banglad\u00e8ch","name:gn":"Vangylad\u1ebd","name:fa":"\u0628\u0646\u06af\u0644\u0627\u062f\u0634","name:yo":"Or\u00edl\u1eb9\u0301\u00e8de B\u00e1ng\u00e1l\u00e1d\u00e9s\u00ec","name:gu":"\u0aac\u0abe\u0a82\u0a97\u0acd\u0ab2\u0abe\u0aa6\u0ac7\u0ab6","name:tt":"\u0411\u0430\u043d\u0433\u043b\u0430\u0434\u0435\u0448"},"coordinates":[214,2029]},{"type":"Point","properties":{"source":"naturalearthdata.com","kind":"locality","name":"Dhaka","country_capital":true,"population":12797394,"min_zoom":4.0,"id":7217},"coordinates":[296,1427]},{"type":"Point","properties":{"source":"naturalearthdata.com","kind":"locality","name":"Chittagong","population":4529000,"region_capital":true,"min_zoom":4.0,"id":7220},"coordinates":[1309,311]},{"type":"Point","properties":{"kind":"region","name:en":"Sagaing","name":"\u1005\u1005\u103a\u1000\u102d\u102f\u1004\u103a\u1038\u1010\u102d\u102f\u1004\u103a\u1038 (Sagaing)","kind_detail":"state","name:my":"\u1005\u1005\u103a\u1000\u102d\u102f\u1004\u103a\u1038\u1010\u102d\u102f\u1004\u103a\u1038","source":"openstreetmap.org","min_zoom":4.0,"int_name":"Sagaing Region","name:ru":"\u0421\u0438\u043a\u0430\u0439\u043d","id":4354915157,"name:ja":"\u30b6\u30ac\u30a4\u30f3"},"coordinates":[3980,2024]},{"type":"Point","properties":{"admin_level":"4","kind":"region","name:en":"Chittagong Division","name":"\u099a\u099f\u09cd\u099f\u0997\u09cd\u09b0\u09be\u09ae \u09ac\u09bf\u09ad\u09be\u0997","kind_detail":"state","name:de":"Division Chittagong","source":"openstreetmap.org","min_zoom":4.0,"id":4344801339,"name:ja":"\u30c1\u30c3\u30bf\u30b4\u30f3"},"coordinates":[1090,792]},{"type":"Point","properties":{"admin_level":"4","kind":"region","name:en":"Barisal Division","name":"\u09ac\u09b0\u09bf\u09b6\u09be\u09b2 \u09ac\u09bf\u09ad\u09be\u0997","kind_detail":"state","name:de":"Division Barishal","source":"openstreetmap.org","min_zoom":4.0,"id":4344792547,"name:ja":"\u30d0\u30ea\u30b5\u30eb"},"coordinates":[218,467]},{"type":"Point","properties":{"kind":"region","name":"Tripura","name:hi":"\u0924\u094d\u0930\u093f\u092a\u0941\u0930\u093e","kind_detail":"state","name:eo":"Tripuro","source":"openstreetmap.org","name:bn":"\u09a4\u09cd\u09b0\u09bf\u09aa\u09c1\u09b0\u09be","name:uk":"\u0422\u0440\u0456\u043f\u0443\u0440\u0430","name:kn":"\u0ca4\u0ccd\u0cb0\u0cbf\u0caa\u0cc1\u0cb0\u0cbe","name:ru":"\u0422\u0440\u0438\u043f\u0443\u0440\u0430","min_zoom":4.0,"id":2240851596,"name:ja":"\u30c8\u30ea\u30d7\u30e9"},"coordinates":[1240,1467]},{"type":"Point","properties":{"admin_level":"4","kind":"region","name:en":"Chin State","name":"Chin","kind_detail":"state","name:my":"\u1001\u103b\u1004\u103a\u1038\u1015\u103c\u100a\u103a\u1014\u101a\u103a\u200c","source":"openstreetmap.org","min_zoom":4.0,"int_name":"Chin State","name:zh":"\u94a6\u90a6","id":4344659009,"name:ja":"\u30c1\u30f3"},"coordinates":[2551,60]},{"type":"Point","properties":{"kind":"region","name":"Mizoram","name:hi":"\u092e\u093f\u091c\u093c\u094b\u0930\u092e","kind_detail":"state","name:eo":"Mizoramo","source":"openstreetmap.org","min_zoom":4.0,"name:uk":"\u041c\u0456\u0437\u043e\u0440\u0430\u043c","name:kn":"\u0cae\u0cbf\u0c9c\u0cca\u0cb0\u0cbe\u0cae\u0ccd","name:ru":"\u041c\u0438\u0437\u043e\u0440\u0430\u043c","id":2240851584,"name:ja":"\u30df\u30be\u30e9\u30e0"},"coordinates":[2089,1018]},{"type":"Point","properties":{"name:ka":"\u10db\u10d0\u10dc\u10d8\u10de\u10e3\u10e0\u10d8","name:mr":"\u092e\u0923\u093f\u092a\u0942\u0930","name:ko":"\ub9c8\ub2c8\ud478\ub974 \uc8fc","name:kn":"\u0cae\u0ca3\u0cbf\u0caa\u0cc1\u0cb0","name:as":"\u09ae\u09a3\u09bf\u09aa\u09c1\u09f0","name:ar":"\u0645\u0627\u0646\u064a\u0628\u0648\u0631","name:cs":"Man\u00edpur","name:is":"Kanglapak","name:ks":"\u0645\u0646\u06cc \u067e\u0648\u0631","name:pa":"\u0a2e\u0a28\u0a40\u0a2a\u0a41\u0a30","name:ml":"\u0d2e\u0d23\u0d3f\u0d2a\u0d4d\u0d2a\u0d42\u0d7c","name:ce":"\u041c\u0430\u043d\u0438\u043f\u0443\u0301\u0440","name:ta":"\u0bae\u0ba3\u0bbf\u0baa\u0bcd\u0baa\u0bc2\u0bb0\u0bcd","id":2240851573,"name:mk":"\u041c\u0430\u043d\u0438\u043f\u0443\u0440","name:te":"\u0c2e\u0c23\u0c3f\u0c2a\u0c42\u0c30\u0c4d","name:fa":"\u0645\u0627\u0646\u06cc\u067e\u0648\u0631","kind_detail":"state","kind":"region","source":"openstreetmap.org","name:af":"Manipoer","name:dv":"\u0789\u07a6\u0782\u07a8\u0795\u07ab\u0783\u07aa","name:lv":"Manipura","name:ja":"\u30de\u30cb\u30d7\u30eb\u5dde","name:lt":"Manipuras","name:hi":"\u092e\u0923\u093f\u092a\u0941\u0930","name:my":"\u1019\u100f\u102d\u1015\u1030\u101b\u1015\u103c\u100a\u103a\u1014\u101a\u103a","name:he":"\u05de\u05e0\u05d9\u05e4\u05d5\u05e8","name:ne":"\u092e\u0923\u093f\u092a\u0941\u0930","name:sa":"\u092e\u0923\u093f\u092a\u0941\u0930\u0930\u093e\u091c\u094d\u092f\u092e\u094d","name:ur":"\u0645\u0646\u06cc \u067e\u0648\u0631","name:bn":"\u09ae\u09a3\u09bf\u09aa\u09c1\u09b0","name:la":"Ma\u1e47ipura","name:sk":"Man\u00edpur","name:uk":"\u041c\u0430\u043d\u0456\u043f\u0443\u0440","name:ru":"\u041c\u0430\u043d\u0438\u043f\u0443\u0440","name:be":"\u041c\u0430\u043d\u0456\u043f\u0443\u0440","alt_name:fr":"Manipour","name:bg":"\u041c\u0430\u043d\u0438\u043f\u0443\u0440","name:or":"\u0b2e\u0b23\u0b3f\u0b2a\u0b41\u0b30","name:sr":"\u041c\u0430\u043d\u0438\u043f\u0443\u0440","name:oc":"Manipor","name:el":"\u039c\u03b1\u03bd\u03b9\u03c0\u03bf\u03cd\u03c1","name:eo":"Manipuro","name":"Manipur","name:zh":"\u66fc\u5c3c\u666e\u5c14\u90a6","min_zoom":4.0,"name:th":"\u0e23\u0e31\u0e10\u0e21\u0e13\u0e35\u0e1b\u0e38\u0e23\u0e30","name:bo":"\u0f58\u0f71\u0f0b\u0f53\u0f72\u0f0b\u0f54\u0f74\u0f62\u0f0d","name:gu":"\u0aae\u0aa3\u0abf\u0aaa\u0ac1\u0ab0"},"coordinates":[2857,2224]},{"type":"Point","properties":{"admin_level":"4","kind":"region","name:en":"Dhaka Division","name":"\u09a2\u09be\u0995\u09be \u09ac\u09bf\u09ad\u09be\u0997","kind_detail":"state","name:de":"Division Dhaka","source":"openstreetmap.org","min_zoom":4.0,"id":4353277097,"name:ja":"\u30c0\u30c3\u30ab"},"coordinates":[157,1864]},{"type":"Point","properties":{"admin_level":"4","kind":"region","name:en":"Sylhet Division","name":"\u09b8\u09bf\u09b2\u09c7\u099f \u09ac\u09bf\u09ad\u09be\u0997","kind_detail":"state","name:de":"Division Sylhet","source":"openstreetmap.org","min_zoom":4.0,"id":4344824693,"name:ja":"\u30b7\u30ec\u30c3\u30c8"},"coordinates":[1244,2042]},{"type":"Point","properties":{"kind":"region","name":"Meghalaya","name:hi":"\u092e\u0947\u0918\u093e\u0932\u092f","kind_detail":"state","name:eo":"Meghalajo","source":"openstreetmap.org","min_zoom":4.0,"name:uk":"\u041c\u0435\u0491\u0445\u0430\u043b\u0430\u044f","name:kn":"\u0cae\u0cc7\u0c98\u0cbe\u0cb2\u0caf","name:ru":"\u041c\u0435\u0433\u0445\u0430\u043b\u0430\u044f","name:hu":"Megh\u00e1laja","id":2240851577,"name:ja":"\u30e1\u30fc\u30ac\u30fc\u30e9\u30e4"},"coordinates":[947,2878]},{"type":"Point","properties":{"admin_level":"4","kind":"region","name:en":"Samdrup Jongkhar District","name":"\u0f56\u0f66\u0f58\u0f0b\u0f42\u0fb2\u0f74\u0f56\u0f0b\u0f63\u0f97\u0f7c\u0f44\u0f66\u0f0b\u0f58\u0f41\u0f62\u0f0b\u0f62\u0fab\u0f7c\u0f44\u0f0b\u0f41\u0f42\u0f0b","kind_detail":"state","name:de":"Samdrup Jongkhar","source":"openstreetmap.org","min_zoom":4.0,"id":4353325419,"name:ja":"\u30b5\u30e0\u30c9\u30e9\u30c3\u30d7\u30fb\u30b8\u30e7\u30f3\u30ab\u30fc"},"coordinates":[1129,3949]},{"type":"Point","properties":{"admin_level":"4","kind":"region","name:en":"Pemagatshel District","name":"\u0f54\u0f51\u0fa8\u0f0b\u0f51\u0f42\u0f60\u0f0b\u0f5a\u0f63\u0f0b\u0f62\u0fab\u0f7c\u0f44\u0f0b\u0f41\u0f42\u0f0b","kind_detail":"state","name:de":"Pemagatshel","source":"openstreetmap.org","min_zoom":4.0,"id":4353319280,"name:ja":"\u30da\u30de\u30ac\u30c3\u30c8\u30b7\u30a7\u30eb"},"coordinates":[1036,4069]},{"type":"Point","properties":{"kind":"region","name":"Assam","name:hi":"\u0905\u0938\u092e","kind_detail":"state","name:as":"\u0985\u09b8\u09ae","name:eo":"Asamo","source":"openstreetmap.org","min_zoom":4.0,"name:uk":"\u0410\u0441\u0441\u0430\u043c","name:kn":"\u0c85\u0cb8\u0cbe\u0cae\u0ccd","name:ru":"\u0410\u0441\u0441\u0430\u043c","name:hu":"Assz\u00e1m","id":2240851570,"name:ja":"\u30a2\u30c3\u30b5\u30e0"},"coordinates":[2370,3574]},{"type":"Point","properties":{"kind":"region","name":"Nagaland","name:hi":"\u0928\u093e\u0917\u093e\u0932\u0948\u0923\u094d\u0921","kind_detail":"state","name:eo":"Nagalando","source":"openstreetmap.org","min_zoom":4.0,"name:uk":"\u041d\u0430\u0433\u0430\u043b\u0435\u043d\u0434","name:kn":"\u0ca8\u0cbe\u0c97\u0cbe\u0cb2\u0ccd\u0caf\u0cbe\u0c82\u0ca1\u0ccd","name:ru":"\u041d\u0430\u0433\u0430\u043b\u0435\u043d\u0434","name:hu":"N\u00e1gaf\u00f6ld","id":2240851587,"name:ja":"\u30ca\u30ac\u30e9\u30f3\u30c9"},"coordinates":[3341,3379]},{"type":"Point","properties":{"admin_level":"4","kind":"region","name:en":"Tsirang District","name":"\u0f62\u0fa9\u0f72\u0f0b\u0f62\u0f44\u0f0b\u0f62\u0fab\u0f7c\u0f44\u0f0b\u0f41\u0f42\u0f0b","kind_detail":"state","name:de":"Tsirang","source":"openstreetmap.org","min_zoom":4.0,"id":4353337248,"name:ja":"\u30c1\u30e9\u30f3"},"coordinates":[86,4091]},{"type":"Point","properties":{"admin_level":"4","kind":"region","name:en":"Sarpang District","name":"\u0f42\u0f66\u0f62\u0f0b\u0f66\u0fa4\u0f44\u0f0b\u0f62\u0fab\u0f7c\u0f44\u0f0b\u0f41\u0f42","kind_detail":"state","name:de":"Sarpang","source":"openstreetmap.org","min_zoom":4.0,"id":4353327241,"name:ja":"\u30b5\u30eb\u30d1\u30f3"},"coordinates":[277,4038]},{"type":"Point","properties":{"source":"naturalearthdata.com","kind":"locality","name":"Guwahati","population":983000,"min_zoom":5.0,"id":6578},"coordinates":[1287,3378]},{"type":"Point","properties":{"source":"naturalearthdata.com","kind":"locality","name":"Dispur","population":16140,"region_capital":true,"min_zoom":5.0,"id":6194},"coordinates":[1286,3363]},{"type":"Point","properties":{"source":"naturalearthdata.com","kind":"locality","name":"Imphal","population":264986,"region_capital":true,"min_zoom":6.0,"id":5327},"coordinates":[2876,2287]},{"type":"Point","properties":{"source":"naturalearthdata.com","kind":"locality","name":"Monywa","population":226222,"min_zoom":6.0,"id":5616},"coordinates":[3750,130]}]},"transit":{"type":"GeometryCollection","geometries":[{"type":"LineString","properties":{"source":"openstreetmap.org","kind":"train","name":"Kamrup Express","sort_rank":275,"ref":"15960","min_zoom":6.0,"osm_relation":true},"arcs":[179]}]},"pois":{"type":"GeometryCollection","geometries":[]},"boundaries":{"type":"GeometryCollection","geometries":[{"type":"LineString","properties":{"source":"naturalearthdata.com","kind":"country","sort_rank":262,"kind_detail":"2","min_zoom":0.0,"id":295},"arcs":[0]},{"type":"LineString","properties":{"source":"naturalearthdata.com","kind":"country","sort_rank":262,"kind_detail":"2","min_zoom":0.0,"id":164},"arcs":[1]},{"type":"MultiLineString","properties":{"source":"naturalearthdata.com","kind":"country","sort_rank":262,"kind_detail":"2","min_zoom":0.0,"id":145},"arcs":[[2],[3],[4],[5],[6],[7],[8],[9],[10],[11],[12],[13],[14],[15],[16],[17],[18]]},{"type":"MultiLineString","properties":{"source":"naturalearthdata.com","kind":"country","sort_rank":262,"kind_detail":"2","min_zoom":0.0,"id":256},"arcs":[[19],[20],[21],[22],[23],[24],[25],[26],[27],[28],[29],[30],[31],[32],[33],[34],[35],[36],[37],[38],[39],[40],[41],[42],[43],[44],[45],[46],[47]]},{"type":"LineString","properties":{"source":"naturalearthdata.com","kind":"region","sort_rank":256,"kind_detail":"4","min_zoom":2.0,"id":7445},"arcs":[48]},{"type":"MultiLineString","properties":{"source":"naturalearthdata.com","kind":"region","sort_rank":256,"kind_detail":"4","min_zoom":2.0,"id":2552},"arcs":[[49],[50],[51]]},{"type":"MultiLineString","properties":{"source":"naturalearthdata.com","kind":"region","sort_rank":256,"kind_detail":"4","min_zoom":2.0,"id":2553},"arcs":[[52],[53],[54],[55],[56],[57],[58],[59],[60]]},{"type":"MultiLineString","properties":{"source":"naturalearthdata.com","kind":"region","sort_rank":256,"kind_detail":"4","min_zoom":2.0,"id":2556},"arcs":[[61],[62],[63],[64],[65]]},{"type":"MultiLineString","properties":{"source":"naturalearthdata.com","kind":"region","sort_rank":256,"kind_detail":"4","min_zoom":2.0,"id":2558},"arcs":[[66],[67],[68],[69],[70],[71],[72]]},{"type":"MultiLineString","properties":{"source":"naturalearthdata.com","kind":"macroregion","sort_rank":257,"kind_detail":"3","min_zoom":6.8,"id":4710},"arcs":[[73],[74],[75]]},{"type":"MultiLineString","properties":{"source":"naturalearthdata.com","kind":"macroregion","sort_rank":257,"kind_detail":"3","min_zoom":6.8,"id":4707},"arcs":[[76],[77],[78]]},{"type":"MultiLineString","properties":{"source":"naturalearthdata.com","kind":"macroregion","sort_rank":257,"kind_detail":"3","min_zoom":6.8,"id":4718},"arcs":[[79],[80],[81],[82],[83]]},{"type":"MultiLineString","properties":{"source":"naturalearthdata.com","kind":"region","sort_rank":256,"kind_detail":"4","min_zoom":2.0,"id":7448},"arcs":[[84],[85],[86],[87],[88],[89],[90]]},{"type":"MultiLineString","properties":{"source":"naturalearthdata.com","kind":"region","sort_rank":256,"kind_detail":"4","min_zoom":2.0,"id":7446},"arcs":[[91],[92],[93],[94],[95],[96],[97],[98],[99],[100],[101],[102],[103],[104],[105],[106],[107],[108],[109],[110],[111],[112],[113],[114],[115],[116],[117],[118],[119],[120],[121],[122],[123],[124],[125]]},{"type":"MultiLineString","properties":{"source":"naturalearthdata.com","kind":"region","sort_rank":256,"kind_detail":"4","min_zoom":2.0,"id":7447},"arcs":[[126],[127],[128]]},{"type":"MultiLineString","properties":{"source":"naturalearthdata.com","kind":"region","sort_rank":256,"kind_detail":"4","min_zoom":2.0,"id":7449},"arcs":[[129],[130],[131],[132],[133],[134],[135],[136],[137]]},{"type":"MultiLineString","properties":{"source":"naturalearthdata.com","kind":"region","sort_rank":256,"kind_detail":"4","min_zoom":2.0,"id":7450},"arcs":[[138],[139],[140]]},{"type":"MultiLineString","properties":{"source":"naturalearthdata.com","kind":"region","sort_rank":256,"kind_detail":"4","min_zoom":2.0,"id":7451},"arcs":[[141],[142],[143],[144],[145],[146]]},{"type":"LineString","properties":{"source":"naturalearthdata.com","kind":"region","sort_rank":256,"kind_detail":"4","min_zoom":6.0,"id":7768},"arcs":[147]},{"type":"MultiLineString","properties":{"source":"naturalearthdata.com","kind":"region","sort_rank":256,"kind_detail":"4","min_zoom":6.0,"id":7764},"arcs":[[148],[149],[150],[151],[152]]},{"type":"MultiLineString","properties":{"source":"naturalearthdata.com","kind":"region","sort_rank":256,"kind_detail":"4","min_zoom":6.0,"id":7769},"arcs":[[153],[154],[155],[156]]},{"type":"MultiLineString","properties":{"source":"naturalearthdata.com","kind":"region","sort_rank":256,"kind_detail":"4","min_zoom":2.0,"id":7902},"arcs":[[157],[158],[159],[160],[161],[162],[163],[164],[165]]},{"type":"LineString","properties":{"source":"naturalearthdata.com","kind":"region","sort_rank":256,"kind_detail":"4","min_zoom":2.0,"id":7903},"arcs":[166]},{"type":"MultiLineString","properties":{"source":"naturalearthdata.com","kind":"region","sort_rank":256,"kind_detail":"4","min_zoom":2.0,"id":7904},"arcs":[[167],[168],[169],[170],[171],[172],[173],[174],[175],[176],[177]]},{"type":"LineString","properties":{"source":"naturalearthdata.com","kind":"region","sort_rank":256,"kind_detail":"4","min_zoom":2.0,"id":7905},"arcs":[178]}]},"roads":{"type":"GeometryCollection","geometries":[{"type":"LineString","properties":{"source":"naturalearthdata.com","kind":"minor_road","sort_rank":355,"kind_detail":"tertiary","min_zoom":5.0,"id":30963},"arcs":[226]},{"type":"LineString","properties":{"source":"naturalearthdata.com","kind":"minor_road","sort_rank":355,"kind_detail":"tertiary","min_zoom":5.0,"id":31044},"arcs":[227]},{"type":"LineString","properties":{"source":"naturalearthdata.com","kind":"minor_road","sort_rank":355,"kind_detail":"tertiary","min_zoom":6.0,"id":31098},"arcs":[228]},{"type":"LineString","properties":{"source":"naturalearthdata.com","kind":"minor_road","sort_rank":355,"kind_detail":"tertiary","min_zoom":5.0,"id":31099},"arcs":[229]},{"type":"LineString","properties":{"source":"naturalearthdata.com","kind":"major_road","sort_rank":379,"kind_detail":"secondary","min_zoom":3.0,"id":31150},"arcs":[230]},{"type":"LineString","properties":{"source":"naturalearthdata.com","kind":"minor_road","sort_rank":355,"kind_detail":"tertiary","min_zoom":6.0,"id":31155},"arcs":[231]},{"type":"LineString","properties":{"source":"naturalearthdata.com","kind":"major_road","sort_rank":379,"kind_detail":"secondary","min_zoom":3.0,"id":31257},"arcs":[232]},{"type":"LineString","properties":{"source":"naturalearthdata.com","kind":"highway","sort_rank":383,"kind_detail":"motorway","min_zoom":3.0,"id":31289},"arcs":[233]},{"type":"LineString","properties":{"source":"naturalearthdata.com","kind":"minor_road","sort_rank":355,"kind_detail":"tertiary","min_zoom":5.0,"id":31319},"arcs":[234]},{"type":"LineString","properties":{"source":"naturalearthdata.com","kind":"major_road","sort_rank":379,"kind_detail":"secondary","min_zoom":3.0,"id":31321},"arcs":[235]},{"type":"LineString","properties":{"source":"naturalearthdata.com","kind":"highway","sort_rank":383,"kind_detail":"motorway","min_zoom":3.0,"id":31333},"arcs":[236]},{"type":"LineString","properties":{"source":"naturalearthdata.com","kind":"minor_road","sort_rank":355,"kind_detail":"tertiary","min_zoom":6.0,"id":31334},"arcs":[237]},{"type":"LineString","properties":{"source":"naturalearthdata.com","kind":"minor_road","sort_rank":355,"kind_detail":"tertiary","min_zoom":5.0,"id":31386},"arcs":[238]},{"type":"LineString","properties":{"source":"naturalearthdata.com","kind":"highway","kind_detail":"motorway","sort_rank":383,"landuse_kind":"urban_area","min_zoom":3.0,"id":31409},"arcs":[239]},{"type":"MultiLineString","properties":{"source":"naturalearthdata.com","kind":"highway","sort_rank":383,"kind_detail":"motorway","min_zoom":3.0,"id":31409},"arcs":[[240],[241]]},{"type":"LineString","properties":{"source":"naturalearthdata.com","kind":"major_road","sort_rank":379,"kind_detail":"secondary","min_zoom":3.0,"id":31433},"arcs":[242]},{"type":"LineString","properties":{"source":"naturalearthdata.com","kind":"highway","kind_detail":"motorway","sort_rank":383,"landuse_kind":"urban_area","min_zoom":3.0,"id":31468},"arcs":[243]},{"type":"MultiLineString","properties":{"source":"naturalearthdata.com","kind":"highway","sort_rank":383,"kind_detail":"motorway","min_zoom":3.0,"id":31468},"arcs":[[244],[245]]},{"type":"LineString","properties":{"source":"naturalearthdata.com","kind":"highway","sort_rank":383,"kind_detail":"motorway","min_zoom":3.0,"id":31470},"arcs":[246]},{"type":"LineString","properties":{"source":"naturalearthdata.com","kind":"highway","sort_rank":383,"kind_detail":"motorway","min_zoom":3.0,"id":31471},"arcs":[247]},{"type":"LineString","properties":{"source":"naturalearthdata.com","kind":"minor_road","sort_rank":355,"kind_detail":"tertiary","min_zoom":5.0,"id":31500},"arcs":[248]},{"type":"LineString","properties":{"source":"naturalearthdata.com","kind":"highway","sort_rank":383,"kind_detail":"motorway","min_zoom":3.0,"id":31533},"arcs":[249]},{"type":"LineString","properties":{"source":"naturalearthdata.com","kind":"minor_road","sort_rank":355,"kind_detail":"tertiary","min_zoom":5.0,"id":31544},"arcs":[250]},{"type":"LineString","properties":{"source":"naturalearthdata.com","kind":"minor_road","sort_rank":355,"kind_detail":"tertiary","min_zoom":5.0,"id":31561},"arcs":[251]},{"type":"LineString","properties":{"source":"naturalearthdata.com","kind":"major_road","sort_rank":379,"kind_detail":"secondary","min_zoom":3.0,"id":31562},"arcs":[252]},{"type":"LineString","properties":{"source":"naturalearthdata.com","kind":"major_road","kind_detail":"secondary","sort_rank":379,"landuse_kind":"urban_area","min_zoom":4.0,"id":31719},"arcs":[253]},{"type":"LineString","properties":{"source":"naturalearthdata.com","kind":"major_road","sort_rank":379,"kind_detail":"secondary","min_zoom":4.0,"id":31719},"arcs":[254]},{"type":"LineString","properties":{"source":"naturalearthdata.com","kind":"major_road","kind_detail":"secondary","sort_rank":379,"landuse_kind":"urban_area","min_zoom":4.0,"id":31780},"arcs":[255]},{"type":"LineString","properties":{"source":"naturalearthdata.com","kind":"major_road","sort_rank":379,"kind_detail":"secondary","min_zoom":4.0,"id":31780},"arcs":[256]},{"type":"LineString","properties":{"source":"naturalearthdata.com","kind":"major_road","sort_rank":379,"kind_detail":"secondary","min_zoom":4.0,"id":32097},"arcs":[257]},{"type":"LineString","properties":{"source":"naturalearthdata.com","kind":"minor_road","sort_rank":355,"kind_detail":"tertiary","min_zoom":5.0,"id":32121},"arcs":[258]},{"type":"LineString","properties":{"source":"naturalearthdata.com","kind":"major_road","kind_detail":"secondary","sort_rank":379,"landuse_kind":"urban_area","min_zoom":3.0,"id":32204},"arcs":[259]},{"type":"LineString","properties":{"source":"naturalearthdata.com","kind":"major_road","sort_rank":379,"kind_detail":"secondary","min_zoom":3.0,"id":32204},"arcs":[260]},{"type":"LineString","properties":{"source":"naturalearthdata.com","kind":"minor_road","kind_detail":"tertiary","sort_rank":355,"landuse_kind":"urban_area","min_zoom":5.0,"id":32362},"arcs":[261]},{"type":"LineString","properties":{"source":"naturalearthdata.com","kind":"minor_road","kind_detail":"tertiary","sort_rank":355,"landuse_kind":"urban_area","min_zoom":5.0,"id":32362},"arcs":[262]},{"type":"MultiLineString","properties":{"source":"naturalearthdata.com","kind":"minor_road","sort_rank":355,"kind_detail":"tertiary","min_zoom":5.0,"id":32362},"arcs":[[263],[264]]},{"type":"LineString","properties":{"source":"naturalearthdata.com","kind":"major_road","kind_detail":"secondary","sort_rank":379,"landuse_kind":"urban_area","min_zoom":3.0,"id":32476},"arcs":[265]},{"type":"LineString","properties":{"source":"naturalearthdata.com","kind":"major_road","sort_rank":379,"kind_detail":"secondary","min_zoom":3.0,"id":32476},"arcs":[266]},{"type":"LineString","properties":{"source":"naturalearthdata.com","kind":"minor_road","sort_rank":355,"kind_detail":"tertiary","min_zoom":5.0,"id":32560},"arcs":[267]},{"type":"LineString","properties":{"source":"naturalearthdata.com","kind":"minor_road","kind_detail":"tertiary","sort_rank":355,"landuse_kind":"urban_area","min_zoom":5.0,"id":32659},"arcs":[268]},{"type":"LineString","properties":{"source":"naturalearthdata.com","kind":"minor_road","sort_rank":355,"kind_detail":"tertiary","min_zoom":5.0,"id":32659},"arcs":[269]},{"type":"LineString","properties":{"source":"naturalearthdata.com","kind":"major_road","kind_detail":"secondary","sort_rank":379,"landuse_kind":"urban_area","min_zoom":4.0,"id":32669},"arcs":[270]},{"type":"LineString","properties":{"source":"naturalearthdata.com","kind":"major_road","sort_rank":379,"kind_detail":"secondary","min_zoom":4.0,"id":32669},"arcs":[271]},{"type":"LineString","properties":{"source":"naturalearthdata.com","kind":"major_road","kind_detail":"secondary","sort_rank":379,"landuse_kind":"urban_area","min_zoom":4.0,"id":32673},"arcs":[272]},{"type":"LineString","properties":{"source":"naturalearthdata.com","kind":"major_road","sort_rank":379,"kind_detail":"secondary","min_zoom":4.0,"id":32673},"arcs":[273]},{"type":"LineString","properties":{"source":"naturalearthdata.com","kind":"minor_road","kind_detail":"tertiary","sort_rank":355,"landuse_kind":"urban_area","min_zoom":5.0,"id":32683},"arcs":[274]},{"type":"LineString","properties":{"source":"naturalearthdata.com","kind":"minor_road","sort_rank":355,"kind_detail":"tertiary","min_zoom":5.0,"id":32683},"arcs":[275]},{"type":"LineString","properties":{"source":"naturalearthdata.com","kind":"minor_road","kind_detail":"tertiary","sort_rank":355,"landuse_kind":"urban_area","min_zoom":5.0,"id":32684},"arcs":[276]},{"type":"LineString","properties":{"source":"naturalearthdata.com","kind":"major_road","kind_detail":"secondary","sort_rank":379,"landuse_kind":"urban_area","min_zoom":4.0,"id":32697},"arcs":[277]},{"type":"LineString","properties":{"source":"naturalearthdata.com","kind":"major_road","sort_rank":379,"kind_detail":"secondary","min_zoom":4.0,"id":32697},"arcs":[278]},{"type":"LineString","properties":{"source":"naturalearthdata.com","kind":"major_road","kind_detail":"secondary","sort_rank":379,"landuse_kind":"urban_area","min_zoom":4.0,"id":32763},"arcs":[279]},{"type":"LineString","properties":{"source":"naturalearthdata.com","kind":"major_road","sort_rank":379,"kind_detail":"secondary","min_zoom":4.0,"id":32763},"arcs":[280]},{"type":"LineString","properties":{"source":"naturalearthdata.com","kind":"major_road","sort_rank":379,"kind_detail":"secondary","min_zoom":4.0,"id":32805},"arcs":[281]},{"type":"LineString","properties":{"source":"naturalearthdata.com","kind":"major_road","kind_detail":"secondary","sort_rank":379,"landuse_kind":"urban_area","min_zoom":4.0,"id":32842},"arcs":[282]},{"type":"LineString","properties":{"source":"naturalearthdata.com","kind":"major_road","kind_detail":"secondary","sort_rank":379,"landuse_kind":"urban_area","min_zoom":4.0,"id":32842},"arcs":[283]},{"type":"MultiLineString","properties":{"source":"naturalearthdata.com","kind":"major_road","sort_rank":379,"kind_detail":"secondary","min_zoom":4.0,"id":32842},"arcs":[[284],[285]]},{"type":"LineString","properties":{"source":"naturalearthdata.com","kind":"major_road","kind_detail":"secondary","sort_rank":379,"landuse_kind":"urban_area","min_zoom":4.0,"id":32843},"arcs":[286]},{"type":"LineString","properties":{"source":"naturalearthdata.com","kind":"major_road","sort_rank":379,"kind_detail":"secondary","min_zoom":4.0,"id":32843},"arcs":[287]},{"type":"LineString","properties":{"source":"naturalearthdata.com","kind":"major_road","sort_rank":379,"kind_detail":"secondary","min_zoom":3.0,"id":32978},"arcs":[288]},{"type":"LineString","properties":{"source":"naturalearthdata.com","kind":"major_road","kind_detail":"secondary","sort_rank":379,"landuse_kind":"urban_area","min_zoom":4.0,"id":33098},"arcs":[289]},{"type":"LineString","properties":{"source":"naturalearthdata.com","kind":"major_road","sort_rank":379,"kind_detail":"secondary","min_zoom":4.0,"id":33098},"arcs":[290]},{"type":"MultiLineString","properties":{"source":"naturalearthdata.com","kind":"minor_road","sort_rank":355,"kind_detail":"tertiary","min_zoom":5.0,"id":33140},"arcs":[[291],[292]]},{"type":"LineString","properties":{"source":"naturalearthdata.com","kind":"major_road","sort_rank":379,"kind_detail":"secondary","min_zoom":3.0,"id":33145},"arcs":[293]},{"type":"LineString","properties":{"source":"naturalearthdata.com","kind":"minor_road","sort_rank":355,"kind_detail":"tertiary","min_zoom":5.0,"id":33159},"arcs":[294]},{"type":"LineString","properties":{"source":"naturalearthdata.com","kind":"major_road","sort_rank":379,"kind_detail":"secondary","min_zoom":4.0,"id":33244},"arcs":[295]},{"type":"LineString","properties":{"source":"naturalearthdata.com","kind":"major_road","sort_rank":379,"kind_detail":"secondary","min_zoom":3.0,"id":33245},"arcs":[296]},{"type":"LineString","properties":{"source":"naturalearthdata.com","kind":"major_road","sort_rank":379,"kind_detail":"secondary","min_zoom":3.0,"id":33251},"arcs":[297]},{"type":"LineString","properties":{"source":"naturalearthdata.com","kind":"minor_road","sort_rank":355,"kind_detail":"tertiary","min_zoom":5.0,"id":33392},"arcs":[298]},{"type":"LineString","properties":{"source":"naturalearthdata.com","kind":"major_road","kind_detail":"secondary","sort_rank":379,"landuse_kind":"urban_area","min_zoom":4.0,"id":33465},"arcs":[299]},{"type":"LineString","properties":{"source":"naturalearthdata.com","kind":"major_road","kind_detail":"secondary","sort_rank":379,"landuse_kind":"urban_area","min_zoom":4.0,"id":33465},"arcs":[300]},{"type":"MultiLineString","properties":{"source":"naturalearthdata.com","kind":"major_road","sort_rank":379,"kind_detail":"secondary","min_zoom":4.0,"id":33465},"arcs":[[301],[302],[303]]},{"type":"LineString","properties":{"source":"naturalearthdata.com","kind":"minor_road","kind_detail":"tertiary","sort_rank":355,"landuse_kind":"urban_area","min_zoom":5.0,"id":33475},"arcs":[304]},{"type":"MultiLineString","properties":{"source":"naturalearthdata.com","kind":"minor_road","sort_rank":355,"kind_detail":"tertiary","min_zoom":5.0,"id":33475},"arcs":[[305],[306]]},{"type":"LineString","properties":{"source":"naturalearthdata.com","kind":"minor_road","kind_detail":"tertiary","sort_rank":355,"landuse_kind":"urban_area","min_zoom":5.0,"id":33620},"arcs":[307]},{"type":"MultiLineString","properties":{"source":"naturalearthdata.com","kind":"minor_road","sort_rank":355,"kind_detail":"tertiary","min_zoom":5.0,"id":33620},"arcs":[[308],[309],[310]]},{"type":"LineString","properties":{"source":"naturalearthdata.com","kind":"minor_road","kind_detail":"tertiary","sort_rank":355,"landuse_kind":"urban_area","min_zoom":5.0,"id":33739},"arcs":[311]},{"type":"LineString","properties":{"source":"naturalearthdata.com","kind":"minor_road","sort_rank":355,"kind_detail":"tertiary","min_zoom":5.0,"id":33739},"arcs":[312]},{"type":"LineString","properties":{"source":"naturalearthdata.com","kind":"minor_road","sort_rank":355,"kind_detail":"tertiary","min_zoom":5.0,"id":33794},"arcs":[313]},{"type":"LineString","properties":{"source":"naturalearthdata.com","kind":"minor_road","sort_rank":355,"kind_detail":"tertiary","min_zoom":5.0,"id":33800},"arcs":[314]}]},"earth":{"type":"GeometryCollection","geometries":[{"type":"MultiPolygon","properties":{"sort_rank":10,"source":"naturalearthdata.com","min_zoom":0.0,"kind":"earth","area":1557050615552},"arcs":[[[315]],[[316]],[[317]],[[318]],[[319]],[[320]],[[321]],[[322]],[[323]],[[324]],[[325]],[[326]],[[327]],[[328]],[[329]],[[330]],[[331]],[[332]],[[333]]]}]},"landuse":{"type":"GeometryCollection","geometries":[{"type":"MultiPolygon","properties":{"source":"openstreetmap.org","kind":"park","tier":2,"area":1294123278,"sort_rank":24,"min_zoom":6.0},"arcs":[[[334]],[[335]]]},{"type":"MultiPolygon","properties":{"source":"naturalearthdata.com","kind":"urban_area","name":"","area":2395943433,"sort_rank":11,"min_zoom":4.0},"arcs":[[[336]],[[337]],[[338]],[[339]],[[340]],[[341]],[[342]],[[343]],[[344]],[[345]],[[346]],[[347]],[[348]],[[349]],[[350]],[[351]]]},{"type":"MultiPolygon","properties":{"source":"openstreetmap.org","kind":"park","tier":2,"area":1191365140,"sort_rank":24,"min_zoom":6.0,"osm_relation":true},"arcs":[[[352]]]}]}},"type":"Topology","transform":{"translate":[90.0,21.9430455334],"scale":[0.001373291,0.001249043]},"arcs":[[[1876,28],[-1,7],[-1,7],[-10,53],[-16,54],[8,7],[11,0],[8,4],[2,21],[-43,261],[-1,14],[-9,25],[-3,13],[2,47],[-6,62],[-3,12],[-8,12],[-19,17],[-9,12],[-5,25],[-6,62],[-11,13],[-24,11],[-14,20],[-5,27],[0,56],[-18,113],[1,32],[3,12],[13,28],[5,15],[-1,8],[-3,7],[-4,14],[0,8],[2,15],[-1,8],[-3,4],[-9,7],[-4,6],[-1,5],[1,11],[-1,6],[-4,7],[-9,10],[-4,6],[-4,12],[-4,39],[-28,91],[-2,27],[9,34],[-2,14],[0,3],[-15,8],[-12,-7],[-9,-37],[-11,-11],[-10,14],[-7,31],[-15,22],[-31,-11],[-12,-13],[-23,-34],[-13,-11],[-17,-4],[-11,6],[-31,35],[-9,14],[-9,11],[-10,0],[-4,-10],[-2,-18],[1,-30],[19,-93],[-1,-31],[-16,-29],[-10,-10],[-11,-9],[-41,-17],[-11,-11],[-19,-26],[-22,-37],[-13,-40],[4,-32],[10,-25],[11,-55],[10,-25],[2,-9],[-3,-7],[-11,-13],[-1,0],[-7,1],[-3,0],[-3,-4],[-1,-3],[1,-4],[-1,-3],[-12,-19],[-5,-6],[-13,-11],[-5,-6],[-9,-6],[-20,-5],[-10,-3],[-5,-2],[-5,2],[-5,1],[-5,1],[-7,-2],[-3,-7],[-3,-8],[-4,-5],[-12,-7],[-2,3],[0,7],[-5,9],[-10,5],[-9,2],[-10,4],[-10,10],[-3,9],[-1,23],[-1,3],[-7,2],[-2,3],[-4,20],[-17,59],[-3,8],[-5,25],[-2,0],[-11,11],[0,4],[0,4],[0,6],[-4,6],[-1,-1],[-2,-5],[0,-1],[-6,12],[-11,15],[-14,12],[-16,-1],[-8,-12],[-4,-18],[0,-36],[14,-67],[-3,-27],[-24,7],[-18,24],[-9,33],[-17,129],[-3,8],[-4,7],[-1,6],[5,7],[7,8],[3,6],[-2,5],[-10,2],[-9,7],[-7,16],[-10,34],[-4,20],[-1,7],[-5,7],[-13,8],[-6,6],[-6,13],[-7,26],[-5,14],[-21,40],[-4,14],[3,19],[9,2],[10,-1],[7,13],[-5,12],[-12,4],[-11,7],[-3,17],[6,16],[12,4],[14,1],[13,7],[8,13],[14,44],[2,15],[-3,10],[-8,18],[0,11],[3,11],[24,45],[8,11],[10,8],[13,6],[9,-1],[3,-1],[5,-3],[8,-1],[9,6],[8,33],[1,30],[9,21],[30,2],[55,-12],[27,-2],[30,4],[17,5],[11,7],[6,11],[6,17],[8,51],[3,9],[8,-3],[13,-32],[6,-12],[13,-9],[15,-2],[12,5],[9,12],[-1,14],[-4,17],[-2,15],[7,10],[46,-10],[8,0],[2,-5],[1,-18],[2,-8],[22,-22],[15,-4],[9,6],[5,14],[16,68],[1,16],[-8,32],[2,14],[16,6],[7,-6],[16,-12],[14,-5],[0,11],[-17,27],[1,9],[61,-5],[21,2],[19,8],[14,20],[2,23],[-4,48],[4,16],[9,8],[11,7],[9,7],[2,2],[7,12],[4,12],[4,27],[7,31],[37,104],[2,13],[0,12],[-2,13],[-9,26],[-3,14],[4,13],[21,10],[28,-10],[49,-30],[1,-6],[3,-4],[5,-2],[8,-1],[44,15],[26,6],[10,16],[2,9],[-2,14],[-5,13],[-7,7],[-18,8],[6,5],[-3,4],[-7,3],[-23,18],[0,2],[-1,0],[-12,5],[-6,2],[-1,7],[-3,15],[-18,11],[-21,9],[-11,16],[-7,5],[-37,5],[-13,3],[-10,5],[-9,6],[-10,9],[-11,14],[-5,4],[-6,1],[-10,-3],[-4,2],[-5,4],[-10,0],[-6,2],[-4,4],[-7,12],[-6,4],[-20,8],[-23,6],[-23,1],[-20,-6],[-13,-5],[-41,7],[-78,-10],[-35,3],[-11,-1],[-5,-5],[-4,-10],[-5,-4],[-7,2],[-9,5],[-9,0],[-3,-13],[-8,-8],[-17,-2],[-18,1],[-13,3],[-11,9],[-5,9],[-6,7],[-12,0],[-6,-2],[-13,-10],[-8,-2],[-8,-2],[-15,-4],[-7,-1],[-28,3],[-108,33],[-35,18],[-8,0],[-16,-8],[-9,-2],[-40,2],[-117,-19],[-23,-9],[-6,0],[-82,-12],[-21,3],[-10,5],[-10,7],[-9,6],[-12,1],[-3,-2],[-8,-8],[-4,-3],[-7,0],[-27,5],[-15,7],[-9,2],[-10,1],[-29,-8],[-60,6],[-74,-16],[-25,1],[-57,24],[-114,25],[-95,40]],[[1882,0],[-6,28]],[[1438,3926],[44,6],[27,27],[6,27],[2,12],[-12,47],[-12,25],[-27,26]],[[254,3966],[25,-4],[67,-48],[82,-41],[94,-11]],[[194,3930],[13,4],[12,9],[10,10],[10,8],[15,5]],[[1390,3957],[12,-5],[23,-20],[13,-6]],[[1368,3891],[6,9],[-1,13],[-8,11],[15,7],[0,12],[-1,11],[11,3]],[[1034,3946],[30,-2],[10,-3],[7,-10],[17,-36],[9,-8]],[[929,3868],[15,0],[12,3],[13,6],[11,7],[9,9],[9,15],[6,15],[7,12],[13,9],[10,2]],[[1329,3935],[14,-7],[4,-12],[2,-13],[8,-11],[11,-1]],[[1204,3887],[35,4],[22,11],[46,29],[22,4]],[[167,3931],[27,-1]],[[0,3836],[65,6],[28,8],[18,16],[18,48],[25,16],[13,1]],[[1161,3897],[32,-9],[11,-1]],[[1107,3887],[14,1],[26,9],[14,0]],[[795,3892],[26,-3]],[[522,3862],[166,10],[46,2],[3,2],[36,16],[22,0]],[[872,3890],[25,-5],[22,-13],[10,-4]],[[821,3889],[51,1]],[[4059,3901],[12,7],[9,16],[7,19],[8,10],[1,0]],[[4028,3905],[17,-3],[14,-1]],[[3831,3767],[13,4],[27,13],[56,18],[13,8],[21,27],[17,33],[20,27],[30,8]],[[3803,3785],[12,-17],[6,0],[10,-1]],[[3308,2213],[9,1],[10,6],[9,11],[6,14],[3,15],[0,14],[4,24],[29,40],[12,21],[13,68],[12,17],[14,24],[4,34],[-6,33],[-12,23],[-27,13],[-29,6],[-26,9],[-17,25],[-3,33],[42,119],[17,27],[14,15],[7,7],[24,17],[14,5],[25,3],[13,4],[13,10],[19,31],[11,13],[6,3],[14,0],[7,4],[1,3],[-6,7],[0,5],[3,2],[8,5],[2,2],[66,96],[5,6],[7,3],[16,2],[6,5],[5,14],[-1,18],[-15,83],[1,15],[4,18],[9,7],[27,10],[12,8],[31,33],[23,28],[8,16],[-1,17],[-9,9],[-26,9],[-10,8],[-7,54],[3,7],[5,6],[4,6],[-3,6],[-6,3],[-6,2],[-6,2],[-5,5],[-9,25],[-4,31],[2,32],[5,26],[10,26],[1,12],[-3,16],[-14,26],[-2,13],[10,15],[12,9],[21,24],[8,12],[4,9],[0,6],[0,5],[3,23],[2,6],[7,7],[7,3],[16,4],[7,4],[6,6],[10,15],[7,6],[13,2]],[[3299,2213],[9,0]],[[2998,1520],[9,10],[2,2],[2,17],[-1,17],[1,16],[7,16],[33,45],[3,12],[4,30],[3,8],[8,9],[3,14],[3,29],[8,30],[36,85],[3,13],[2,27],[4,13],[5,7],[15,11],[6,6],[0,7],[-2,14],[0,5],[8,9],[9,6],[7,9],[2,33],[4,9],[9,7],[11,7],[10,41],[5,11],[9,9],[33,21],[8,19],[16,54],[6,13],[10,2]],[[2438,1718],[15,-8],[20,-33],[8,-9],[23,-25],[5,-11],[2,-10],[6,-7],[13,-2]],[[2364,850],[19,1],[19,10],[14,12],[11,15],[31,62],[0,10],[-2,10],[0,12],[6,54],[-3,34],[1,14],[4,13],[15,20],[2,7],[0,8],[-1,9],[-4,46],[0,23],[23,154],[-1,27],[-3,8],[-10,15],[-5,8],[-23,16],[-12,93],[1,29],[-2,12],[-3,6],[-5,4],[-6,8],[-15,26],[-6,13],[-4,14],[-1,17],[1,15],[0,5],[5,18],[9,13],[19,7]],[[2665,1656],[37,-5],[24,-8],[29,-40],[15,-7]],[[2593,1619],[7,2],[5,4],[3,5],[3,7],[2,6],[17,11],[35,2]],[[2580,1632],[5,-3],[4,-5],[4,-5]],[[2530,1613],[16,1],[22,13],[12,5]],[[2828,1603],[21,-5],[20,-8],[26,-6],[16,-4],[42,-23],[11,-9],[11,-15],[10,-12],[13,-1]],[[2770,1596],[58,7]],[[2313,893],[15,-4],[11,-11],[10,-15],[15,-13]],[[2269,685],[7,18],[26,32],[10,17],[2,14],[-5,17],[-14,28],[-6,17],[-4,22],[2,22],[8,14],[18,7]],[[2266,686],[3,-1]],[[2279,231],[16,8],[7,1],[6,3],[3,10],[0,8],[-6,94],[-9,33],[-26,28],[-6,13],[-7,26],[-1,19],[8,32],[1,17],[-4,16],[-17,29],[-6,16],[-2,16],[6,64],[24,22]],[[2275,232],[4,-1]],[[2272,190],[16,6],[-14,24],[0,10],[1,2]],[[2218,211],[19,-3],[13,-5],[10,-8],[12,-5]],[[2157,35],[4,0],[5,3],[2,2],[1,2],[1,5],[0,6],[-2,6],[-2,5],[-4,11],[-3,10],[2,11],[13,26],[7,6],[9,2],[13,6],[-2,6],[1,55],[-1,6],[1,4],[9,4],[7,0]],[[1954,169],[18,-5],[46,-35],[47,-46],[13,-18],[6,-23],[4,-23],[7,-8]],[[1944,120],[3,2],[1,8],[-3,23],[2,10],[7,6]],[[1938,121],[2,0],[4,-1]],[[1876,28],[5,2],[6,3],[5,4],[4,5],[8,11],[9,2],[9,1],[8,5],[6,11],[0,11],[-2,11],[0,12],[4,15]],[[2127,63],[12,-7],[9,-14],[4,-5],[5,-2]],[[2095,11],[9,8],[7,23],[5,17],[11,4]],[[1674,1837],[-49,8],[-5,6],[-3,7],[25,59],[3,12],[1,12],[0,14],[-2,9],[-13,26],[-3,7],[-1,9],[0,25],[-2,7],[-3,5],[-4,4],[-46,31],[-6,3]],[[918,1817],[-18,4],[-60,31]],[[953,1641],[0,5],[3,13],[0,7],[0,1],[-4,5],[-6,8],[-4,13],[-1,5],[-3,9],[-1,6],[-1,14],[1,10],[-2,7],[-2,7],[-5,12],[-1,7],[1,6],[2,4],[3,2],[3,2],[3,1],[15,3],[3,1],[2,2],[-1,1],[-4,3],[-17,5],[-4,2],[0,4],[1,3],[3,2],[20,12],[10,8],[3,4],[1,2],[-1,3],[-4,3],[-5,1]],[[961,1844],[-9,-1],[-5,-2],[-5,-3],[-24,-21]],[[140,904],[8,-2],[6,-3],[5,-6],[2,-6],[2,-21],[4,-13],[14,-17],[10,-8],[9,-3]],[[0,759],[14,14],[18,26],[10,22],[4,5],[14,14],[6,9],[13,13],[13,7],[6,15],[6,13],[36,7]],[[238,904],[9,-3],[15,-3],[16,-13],[10,-10],[19,-9]],[[220,879],[-7,2],[6,13],[9,5],[9,3],[1,2]],[[307,866],[13,8],[3,3],[3,7],[2,2]],[[238,863],[-1,14],[-6,4]],[[231,881],[-11,-2]],[[237,863],[1,0]],[[200,825],[6,1],[5,1],[7,4],[8,14],[5,5],[2,5],[3,4],[1,4]],[[733,2342],[-21,10],[-48,79],[9,28],[6,14],[8,12],[2,8],[0,10],[-11,35],[3,35]],[[840,2205],[-4,2],[-5,14],[6,42],[-3,36],[-5,17],[-10,35]],[[819,2351],[-86,-9]],[[840,1852],[6,10],[5,5],[11,27],[25,12],[15,11],[-9,16],[8,8],[4,2],[4,7],[-1,6],[-4,7],[-4,5],[-16,14],[12,9],[1,9],[-2,5],[-2,14],[-9,5],[-8,0],[-6,3],[-5,7],[0,3],[1,3],[2,2],[4,5],[7,9],[8,15],[10,27],[-13,7],[-4,3],[-5,5],[-4,9],[-9,11],[0,6],[4,3],[8,2],[5,3],[2,5],[1,5],[0,4],[0,6],[2,5],[4,4],[2,4],[0,7],[-3,9],[-4,6],[-7,4],[-23,1]],[[853,2207],[-5,-1],[-5,0],[-3,-1]],[[840,1852],[-10,-7],[-12,-4],[-14,-1],[-7,-4],[0,-8],[2,-9],[-2,-7],[-5,0]],[[792,1812],[-6,2],[-10,7]],[[776,1821],[-24,-33],[-8,-3],[-8,-3],[-5,-2],[3,-16],[-1,-4],[13,-19],[-5,-11],[14,-9],[-5,-16],[-14,-17],[-12,-7],[-9,-8],[-6,-19],[3,-15],[-4,-20],[-14,-34],[-28,-38],[-10,-9],[-7,-4]],[[649,1534],[-5,1],[-3,2],[-6,3],[-16,11]],[[619,1551],[-5,-3],[-5,-2],[-4,-2],[-6,0]],[[599,1544],[-22,0]],[[577,1544],[-5,0],[-5,-2],[-5,-3],[-4,-5],[-5,-4],[-2,-6],[-1,-7],[4,-17],[0,-6],[-1,-6],[-15,-39],[-11,-18],[-2,-7],[3,-5],[10,-7],[5,-4],[3,-5],[1,-6],[0,-6],[-6,-11],[-6,-6],[19,-20],[7,-9],[-2,-4],[-11,-2],[-9,-4],[-3,-7],[5,-9],[-7,-8],[-16,-11],[-7,-9],[0,-1]],[[862,4002],[-8,-29],[-7,-12],[-13,-5],[-34,-2],[-7,-14]],[[793,3940],[-2,0],[-3,1]],[[788,3941],[-2,0],[-9,-6],[-32,-7],[-4,-2],[-5,-4],[-4,-6],[-1,-5],[-2,-5],[-1,-3],[1,-4],[8,-23]],[[841,3998],[-4,1],[-6,2],[-5,5],[-5,8],[-8,5],[-5,3],[-6,1],[-6,5],[-5,4],[-6,37],[-9,8],[-3,3],[-28,8],[-4,8]],[[862,4002],[-13,1]],[[849,4003],[-8,-5]],[[477,4096],[6,-7],[3,-5],[1,-8],[2,-7],[4,-5],[1,-4],[1,-9],[0,-4],[2,-7],[1,-4],[-2,-6],[-4,-6],[3,-13],[7,-4],[22,-3],[4,-2],[5,-5],[6,-9],[4,-5],[4,-2],[4,-1],[3,-2],[4,-5],[6,-4],[6,-9],[1,-6],[8,-14],[2,-4],[3,-17],[4,-10],[4,-5],[4,-2]],[[690,3910],[7,-31],[-1,-2],[-2,-1],[-5,-2],[-1,-2]],[[646,3900],[27,2],[2,1],[3,2],[12,5]],[[609,3905],[27,-2],[6,-2],[4,-1]],[[596,3902],[13,3]],[[2008,2034],[6,-2],[9,-9],[4,-7],[33,-67],[6,-8],[10,-2]],[[1800,1749],[6,1],[7,3],[9,7],[7,7],[10,12],[23,21],[23,24],[8,6],[8,4],[5,1],[5,3],[1,6],[-1,7],[-2,8],[1,13],[6,11],[35,38],[16,16],[4,6],[3,5],[3,14],[23,62],[3,7],[5,3]],[[2167,1952],[12,0],[19,14]],[[2134,1960],[10,-5],[23,-3]],[[2076,1939],[9,1],[49,20]],[[1725,1840],[34,-1],[5,-2],[3,-2],[1,-2],[1,-2],[-2,-4],[-1,-4],[-6,-10],[-1,-4],[-1,-5],[7,-22],[5,-13],[4,-6],[6,-5],[6,-5],[8,-3],[6,-1]],[[1674,1837],[51,3]],[[1400,3279],[-14,1],[-9,3],[-10,7],[-21,21],[-17,9]],[[1329,3320],[-13,-1],[-10,-5],[-30,-27],[-5,-7],[-3,-8],[-5,-24],[-3,-8],[-9,-18],[-8,-11],[-10,-10],[-15,-8],[-13,-1]],[[1581,2995],[-3,4],[0,9],[5,44],[0,14],[-2,12],[-3,9],[-1,8],[1,7],[12,24],[10,30],[13,28],[-1,10],[-4,5],[-15,3],[-6,4],[-3,9],[-1,9],[1,8],[3,6],[3,4],[57,50],[6,15],[-1,4],[-3,3],[-7,2],[-66,3]],[[1576,3319],[-11,-3],[-23,-10],[-46,-12]],[[1496,3294],[-9,0],[-8,2]],[[1479,3296],[-8,-1],[-48,-13],[-23,-3]],[[1205,3192],[-10,2],[-7,6],[-1,7],[2,10],[4,9],[4,15],[1,7],[1,1],[-1,12],[-5,8],[-9,6],[-14,3]],[[1170,3278],[-11,-2],[-7,-6],[-10,-22],[-8,-12],[-12,-14],[-13,-13],[-15,-26],[-5,-5],[-15,-13],[-2,-5],[2,-4],[10,-2]],[[336,3257],[-11,0],[-36,5]],[[289,3262],[-10,0],[-7,-2],[-12,-7],[-15,-13],[-4,-2],[-5,-2],[-20,-4],[-12,-4],[-46,-1],[-59,-11],[-12,-6],[-4,-6],[-18,-19],[-24,-17],[-11,-11],[-7,-9],[-3,-11],[-5,-7],[-15,-15]],[[0,2936],[0,-1],[2,-4],[1,-5],[-1,-9],[-2,-3]],[[389,3177],[-3,1],[1,3],[1,4],[5,11],[7,14],[2,7],[-2,10],[-3,6],[-22,15],[-15,8],[-7,2],[-7,0]],[[346,3258],[-10,-1]],[[469,3193],[-5,1],[-3,5],[0,7],[-2,7],[-3,6],[-6,5]],[[450,3224],[-6,0],[-4,-3],[-6,-10],[-2,-4],[-10,-9],[-30,-21],[-3,0]],[[567,3188],[-4,2],[-3,7],[0,14],[-2,5],[-3,2],[-7,0]],[[548,3218],[-44,-10],[-18,-7],[-17,-8]],[[673,3201],[-19,5],[-22,3]],[[632,3209],[-32,-4],[-7,-2],[-19,-13],[-7,-2]],[[751,3117],[-5,2],[-1,7],[5,21],[1,10],[-2,10],[-3,8],[-7,6],[-7,1],[-8,0],[-5,4],[-4,11],[-5,6],[-8,1]],[[702,3204],[-29,-3]],[[1112,3169],[4,0],[-1,-5],[-3,-6],[-39,-21],[-42,-2],[-40,-12],[-13,-8],[-10,-10],[-11,-18],[-33,-38],[-13,-11],[-13,-5],[-8,-1]],[[1084,3154],[6,0],[4,2],[18,13]],[[890,3032],[-10,5],[-7,19],[-1,28],[-3,15],[1,12],[3,23],[-2,9],[-13,1]],[[858,3144],[-59,-24],[-11,-2]],[[788,3118],[-7,2],[-2,6],[-4,3],[-2,0]],[[773,3129],[-11,-7],[-11,-5]],[[1893,2915],[-2,1],[-1,1],[-2,0],[-52,60],[-32,31],[-32,23],[-14,18],[-12,8],[-11,2]],[[1735,3059],[-11,-3],[-10,-6],[-9,-6],[-7,-7],[-11,-7],[-36,-3],[-29,-8],[-17,-8],[-11,-8],[-8,-7],[-5,-1]],[[1929,2572],[23,26],[91,32],[4,5],[0,5],[-9,9],[-3,5],[-2,6],[-1,4],[-2,5],[-1,5],[0,7],[4,10],[3,9],[2,10],[-2,8],[-5,9],[-5,5],[-13,9],[-7,7],[-9,13],[-30,27],[-8,5],[-6,3],[-8,3],[-25,7],[-3,3],[-5,6],[-4,9],[-5,4],[-19,8],[-2,5],[0,3],[3,3],[16,10],[13,12],[6,7],[5,7],[7,13],[3,5],[5,5],[6,5],[5,6],[3,8],[-1,8],[-3,3],[-6,2]],[[1944,2938],[-5,0],[-5,-1],[-10,-5],[-13,-10],[-5,-3],[-10,-4],[-3,0]],[[1922,2573],[7,-1]],[[1895,2567],[27,6]],[[1868,2569],[15,-2],[12,0]],[[1737,2451],[17,17],[33,36],[25,19],[16,15],[10,7],[7,3],[9,0],[8,2],[2,5],[-1,6],[2,7],[3,1]],[[1674,1837],[4,-12],[4,-6],[2,-2],[3,-3],[3,-5],[2,-5],[1,-6],[3,-69],[-1,-6],[-7,-30],[0,-17],[1,-8],[1,-5],[1,-2],[5,-10],[1,-4],[1,-4],[-2,-12],[-9,-24],[-1,-5],[-1,-6],[0,-20],[0,-5],[1,-2],[3,-8],[1,-3],[0,-4],[0,-6],[0,-8],[-1,-7],[-1,-6],[-1,-2],[-3,-2]],[[1684,1523],[-2,0],[-2,2],[-2,2],[-2,2],[-2,1],[-3,0]],[[1671,1530],[-2,0],[-2,-2],[-2,-2],[-6,-6],[-2,-3],[-4,-7],[-1,-6],[0,-4],[2,-5],[0,-4],[-3,-7],[-5,-17],[6,-45],[-7,-13]],[[2741,4096],[-3,-3],[-18,-18],[-13,-10],[-17,-12],[-45,-18],[-22,-5],[-41,-3],[-15,-4],[-33,-15],[-14,-2]],[[3814,4083],[9,2],[8,3],[11,8]],[[2199,4011],[-23,4],[-17,6],[-15,11],[-4,7],[-1,7],[0,3],[-1,1],[-24,13],[-64,26],[-38,7]],[[1949,4096],[-15,-13],[-11,-12],[-11,-8],[-15,-7],[-42,-8],[-52,-18],[-80,-21],[-27,-12],[-10,-2],[-27,0],[-15,-7],[-34,-10]],[[3786,4086],[12,0],[16,-3]],[[3769,4075],[7,7],[4,2],[6,2]],[[2520,4006],[-22,17],[-8,7],[-14,7],[-18,3]],[[2458,4040],[-259,-29]],[[1610,3978],[-72,7],[-23,1]],[[2316,2295],[6,1],[8,5],[3,5],[1,7],[1,12],[15,26],[19,28],[-1,10],[-3,4],[-5,6],[-1,4],[2,4],[3,2],[4,1],[4,1],[6,3],[6,7],[2,5],[0,6],[-12,23],[0,16],[2,5],[4,8],[5,5],[4,4],[5,2],[12,2],[6,3],[3,7],[3,10],[6,9],[8,11],[4,10],[15,43],[21,46],[12,21],[8,12],[20,20]],[[2295,2307],[1,0],[2,-1],[9,-8],[4,-2],[5,-1]],[[2198,1966],[-5,11],[18,2],[7,24],[5,62],[9,29],[6,7],[12,2],[8,6],[-4,13],[-11,25],[14,24],[5,14],[-7,6],[-4,2],[-2,6],[-1,14],[2,5],[2,2],[4,9],[4,13],[6,30],[4,13],[5,10],[3,4],[5,4],[3,1],[6,2],[3,1]],[[2198,1966],[3,-7],[-3,-18],[3,-11],[14,-10],[3,-12],[-2,-9],[-12,-12],[-6,-9],[-3,-11],[-1,-10],[3,-18],[-1,-6],[-5,-14],[0,-9],[-1,-5],[-4,-10],[-3,-20],[0,-18],[0,-5],[-2,-4],[-3,-4],[-4,-3],[-4,-4],[-2,-3],[2,-3],[3,-3],[8,-5],[55,-19],[10,-6],[6,-6],[4,-5],[5,-4],[7,-1]],[[2354,1702],[4,-2],[8,-8],[2,-6],[1,-6],[-1,-5],[-2,-5],[-2,-5],[2,-4],[6,0]],[[2314,1679],[7,0],[12,3],[7,4],[4,5],[3,6],[3,4],[4,1]],[[2287,1697],[5,-1],[8,-1],[7,-4],[2,-3],[0,-4],[0,-2],[1,-3],[4,0]],[[2268,1682],[7,4],[8,8],[4,3]],[[2372,1661],[26,14],[7,0]],[[2946,0],[3,2],[3,5],[0,6],[-2,3],[-5,15],[-17,54],[4,17],[14,36],[3,20],[0,16],[-20,107],[-1,15],[3,10],[16,28],[3,11],[-3,7],[-6,2],[-10,2],[-1,6],[7,19],[2,11],[-9,83],[3,29],[-1,14],[-8,27],[-6,43]],[[3003,1227],[3,2],[5,6],[3,5],[2,4],[0,2],[7,59],[4,22],[10,76],[-5,20],[-13,32],[-4,14],[-4,53],[-4,8]],[[2956,1248],[5,-1],[24,-16],[11,-3],[7,-1]],[[2939,1115],[6,3],[3,7],[4,60],[-2,11],[-5,19],[0,24],[4,7],[3,1],[4,1]],[[2920,1116],[19,-1]],[[2918,588],[-9,53],[4,22],[4,7],[6,28],[-4,53],[-5,12],[-3,10],[-4,9],[1,10],[16,63],[3,33],[0,16],[-13,76],[-3,42],[1,9],[9,38],[-1,13],[-7,29],[7,5]],[[2984,615],[4,0],[7,-2],[5,-12],[2,-7],[-1,-6],[-1,-3],[1,-3],[8,-6],[1,-2],[0,-2],[2,-8],[1,-3],[7,-12],[7,-8],[12,-12],[31,-39],[34,-62],[20,-45],[3,-10],[1,-16],[-3,-11],[-28,-60],[-5,-12],[-1,-8],[-1,-11],[9,-93],[5,-15],[6,-9],[6,-7],[7,-3],[8,0]],[[2918,588],[21,3],[10,0],[10,2],[10,5],[5,3],[4,4],[6,10]],[[3153,135],[14,-1],[12,-25],[6,-4],[9,-6],[9,-3],[5,-6],[4,-13],[3,-16],[1,-24],[-4,-37]],[[3131,128],[22,7]],[[3328,2998],[3,-2],[0,-7],[0,-6],[-3,-11],[0,-27],[-6,-21],[-5,-14],[-13,-42],[-1,-9],[4,-9],[8,-10],[34,-24],[12,-6],[25,-5]],[[3065,2844],[31,4],[54,9],[29,13],[15,11],[11,10],[15,24],[10,8],[30,17],[10,7],[54,48],[4,3]],[[2862,2891],[33,-5]],[[2625,2612],[5,5],[3,6],[24,34],[22,42],[0,8],[0,3],[14,15],[19,14],[61,66],[4,8],[0,5],[-2,7],[-2,6],[-5,6],[-6,3],[-23,7],[-1,0],[-1,1],[1,3],[4,10],[2,7],[1,5],[8,5],[16,5],[93,8]],[[2932,2891],[10,-5],[8,-5],[15,-13],[9,-5],[9,-3],[10,0]],[[2895,2886],[15,2],[22,3]],[[3022,2865],[10,-2],[6,-4],[4,-5],[4,-6],[1,-1],[2,0],[6,-2],[10,-1]],[[2993,2860],[12,1],[17,4]],[[2512,2689],[5,-6],[7,-7],[5,-3],[6,-2],[5,-2],[4,0],[4,-1],[1,-2],[6,-7],[5,-4],[6,-3],[16,-3],[9,-3],[6,-5],[5,-7],[10,-16],[7,-5],[6,-1]],[[3769,4075],[3,-23],[7,-7],[7,-2],[7,-4],[12,-11],[4,-11],[3,-12],[-2,-30],[-2,-8],[-3,-7],[-4,-6],[-4,-4],[-5,-3],[-4,-5],[-2,-6],[-1,-14],[2,-9],[4,-8],[14,-11],[6,-7],[1,-6],[-6,-25],[-1,-14],[0,-9],[2,-5],[13,-36],[1,-24]],[[3769,4075],[-7,-7],[-6,-11],[-4,-5],[-2,-3],[-1,0],[-85,-54],[-10,-4],[-14,-4]],[[3640,3987],[-13,1],[-11,2],[-8,5],[-17,12],[-5,2],[-5,1]],[[3581,4010],[-5,-4],[-7,-7],[-20,-18],[-9,-11],[-21,-36],[-25,-34],[-24,-21],[-54,-38],[-16,-7],[-60,-26]],[[3340,3808],[-21,1],[-6,1]],[[3313,3810],[-7,-4],[-6,-7],[-8,-7],[-8,-2]],[[3284,3790],[-10,1]],[[3274,3791],[-7,-1],[-5,-4],[-7,-9],[-8,-10],[-22,-25],[-5,-10],[-1,-9],[1,-7],[-1,-14],[-18,-26],[-6,-8],[-12,-10],[-9,-11],[-10,-7],[-13,-6],[-7,0]],[[3144,3634],[-7,3],[-4,5],[-3,6],[0,1],[-4,23],[-1,11],[-16,9]],[[3109,3692],[-16,-25],[-29,-32],[-9,-14],[-5,-15],[-3,-41],[-5,-19],[-5,-9],[-7,-8],[-19,-14],[-23,-24],[-70,-95],[-3,-10],[-1,-6],[5,-18],[1,-9],[-5,-43],[-3,-7],[-5,-7],[-6,-5],[-8,-11],[-2,-10],[-1,-22],[1,-5],[1,-7],[2,-6],[5,-8],[6,-17],[-2,-6],[-3,-6],[-6,-6],[-19,-30],[-10,-10],[-22,-14],[-14,-4],[-36,-5],[-22,-9],[-12,-2],[-7,0]],[[2752,3113],[-3,2],[-1,6],[1,4],[3,7],[12,13],[5,8],[4,8],[1,10],[0,11],[-1,11],[-3,9],[-6,7],[-7,4],[-13,4]],[[2744,3217],[-7,0],[-5,-2],[-3,-3],[-17,-9],[-20,-8],[-9,-5],[-5,-6],[0,-7],[2,-7],[5,-6],[11,-11],[3,-5],[2,-4],[-2,-5],[-7,-7],[-71,-60],[-14,-14],[-41,-59],[-34,-29],[-42,-29],[-29,-29],[-25,-19],[-5,-6],[-2,-9],[4,-7],[11,-11],[4,-6],[3,-6],[0,-1],[1,-2],[3,-3],[5,-4],[5,-6],[4,-8],[4,-7],[7,-6],[8,-4],[8,-5],[7,-9],[5,-8],[4,-14],[3,-7],[3,-12],[1,-13],[-3,-21],[0,-12],[-4,-17]],[[2512,2689]],[[3292,3896],[174,88],[55,68],[143,44]],[[1696,615],[4,-4],[39,-33],[-14,-9],[-9,-3],[-7,1],[0,5],[-8,23],[-1,2],[-5,3],[-21,0],[-8,2],[-9,7],[-8,0],[-8,-4],[-7,-5],[0,-6],[10,-7],[12,-14],[18,-28],[-6,0],[-4,1],[-5,2],[-4,3],[4,10],[-13,8],[-7,2],[-10,1],[2,-10],[4,-8],[9,-15],[-3,2],[-8,2],[-4,2],[0,-11],[-8,4],[-5,-3],[1,-4],[10,-3],[4,-5],[-4,-13],[-7,-13],[-5,-7],[9,-5],[9,2],[5,7],[2,12],[4,0],[2,-17],[8,-11],[2,-8],[-12,-7],[13,-2],[8,5],[8,10],[11,9],[-2,-5],[0,-2],[-1,-1],[-2,-3],[0,-5],[14,-1],[13,-15],[13,-2],[-6,-5],[-5,-11],[-5,-9],[-6,1],[-9,6],[-6,3],[-5,5],[-3,10],[-10,-5],[2,-1],[1,0],[1,0],[1,-4],[-6,2],[-13,8],[-6,0],[-5,-3],[-3,-6],[-1,-7],[5,-5],[0,-5],[-10,-3],[-10,2],[-5,4],[5,7],[-4,7],[-4,3],[-5,1],[-7,0],[0,5],[6,1],[9,4],[9,3],[5,4],[1,4],[-3,2],[-8,2],[-10,4],[-9,5],[-5,5],[-4,10],[0,11],[-3,8],[-11,3],[-5,5],[-7,28],[-5,11],[7,-6],[5,-8],[8,-19],[4,0],[2,14],[-4,21],[2,9],[3,-3],[8,-8],[-2,10],[-5,6],[-8,2],[-11,-1],[0,16],[7,-1],[3,-2],[3,-2],[2,-6],[6,11],[-2,7],[-6,3],[-10,1],[-6,2],[-10,12],[-7,3],[5,1],[15,4],[-5,7],[-1,3],[0,3],[1,4],[-9,2],[-9,-1],[-7,1],[-4,9],[5,0],[0,5],[-15,0],[0,6],[15,5],[0,5],[-3,6],[-4,5],[-6,4],[-8,2],[2,4],[2,9],[2,4],[-6,1],[-9,3],[-6,1],[0,6],[8,4],[2,6],[-4,7],[-6,4],[0,6],[6,0],[0,5],[-3,4],[-6,11],[-1,5],[-2,2],[-7,2],[-4,1],[-3,5],[2,3],[2,4],[1,4],[-1,12],[-8,33],[-5,13],[4,3],[0,3],[0,5],[0,6],[4,-29],[10,-39],[15,-33],[21,-15],[-9,-12],[5,-9],[9,-8],[6,-11],[3,-11],[7,-10],[10,-9],[9,-7],[-10,-4],[-5,-1],[6,-8],[14,-10],[6,-9],[-2,-3],[-4,-8],[15,-6],[12,-13],[9,-18],[5,-18],[7,0],[7,0],[0,11],[-4,7],[-5,4],[-5,5],[-4,6],[-6,22],[4,0],[7,-15],[6,-7],[7,-6],[7,8],[7,3],[4,4],[2,10],[-2,5],[-10,11],[-3,9],[6,0],[3,-3],[1,0],[2,-1],[3,-2],[-6,11],[-2,4],[-1,7],[-11,-5],[-2,8],[0,13],[-3,12],[-4,0],[-3,-5],[-2,-2],[-3,-1],[-3,-3],[7,17],[4,5],[-8,3],[-8,-1],[-7,-3],[-8,-5],[4,6],[5,5],[5,3],[6,3],[-20,0],[0,5],[13,2],[0,8],[-8,9],[-10,8],[4,6],[5,9],[0,9],[-6,4],[-5,3],[-5,18],[-3,7],[8,0],[4,-5],[3,-8],[6,-4],[8,0],[1,6],[-4,6],[-5,5],[0,4],[10,10],[-5,8],[-12,7],[-14,3],[0,5],[10,0],[-4,5],[-3,6],[0,5],[3,7],[4,-1],[15,-8],[1,-2],[0,-1],[6,0],[3,1],[0,3],[6,18],[3,1],[1,-2],[0,-2],[1,-2],[2,-8],[4,-3],[7,2],[7,4],[-6,-20],[-2,-5],[-6,-3],[-6,0],[-4,-1],[-1,-7],[2,-14],[6,-3],[8,1],[9,-4],[-11,-4],[0,-6],[3,-3],[8,-8],[-13,6],[-4,-3],[2,-10],[4,-9],[5,0],[2,2],[5,1],[3,2],[-3,-16],[3,-14],[6,-13],[5,-17],[0,-25],[-2,-6],[-2,-7],[0,-7],[4,-10],[4,0],[1,5],[4,11],[10,-27],[2,7],[1,8],[-3,18],[5,0],[1,-13],[5,-8],[15,-12],[0,-6],[-11,-4],[-9,-7],[-6,-11],[0,-16],[6,4],[8,1],[8,-1]],[[0,97],[11,11],[7,9],[11,39],[9,14],[19,7],[-4,-10],[-7,-5],[-8,-3],[-7,-8],[-3,-12],[-3,-9],[3,-24],[-2,-13],[-5,-5],[-6,-3],[-7,-6],[-6,-10],[0,-12],[-2,-4],[0,44]],[[0,45],[21,-9],[7,-1],[10,2],[4,4],[2,5],[10,15],[6,17],[5,9],[43,47],[12,8],[20,2],[10,8],[9,18],[13,35],[2,-21],[-5,-22],[-12,-18],[-15,-11],[-4,1],[-6,4],[-6,1],[-7,-3],[-3,-5],[-6,-9],[-3,-5],[-30,-28],[-7,-11],[-3,-10],[-1,-10],[-4,-12],[-6,-10],[-8,-7],[-9,-5],[-6,-6],[-8,-18],[-25,0],[0,45]],[[220,0],[2,18],[3,15],[14,29],[3,14],[2,3],[9,11],[13,21],[3,7],[3,10],[3,25],[2,8],[2,1],[4,-2],[3,0],[2,11],[1,3],[2,2],[1,1],[5,6],[4,5],[1,6],[-3,8],[-4,3],[-4,2],[-6,6],[-2,11],[7,36],[-3,16],[12,-3],[3,-10],[-5,-25],[2,-10],[8,-23],[-3,-19],[-18,-38],[-4,-20],[5,-7],[10,-7],[13,-5],[9,-3],[9,4],[7,9],[21,38],[4,12],[2,11],[3,7],[8,7],[19,11],[14,3],[17,28],[24,62],[4,33],[-1,16],[-3,16],[-15,29],[-5,14],[0,18],[4,-2],[11,-4],[-13,28],[-8,27],[-13,23],[-26,16],[-14,3],[-13,-2],[-11,-7],[-7,-10],[-2,-9],[3,-16],[-1,-8],[-3,-5],[-5,-4],[-5,-5],[-2,-8],[0,12],[8,44],[4,12],[7,5],[17,2],[6,4],[7,9],[2,6],[-2,28],[-9,26],[-3,25],[-2,8],[-8,12],[-13,11],[-12,2],[-7,-14],[-14,7],[-21,7],[-11,8],[16,11],[9,-9],[10,4],[3,10],[-12,11],[21,5],[8,22],[7,27],[14,17],[10,1],[11,-3],[11,-1],[11,6],[3,7],[-3,6],[-8,7],[-3,3],[-3,1],[-2,0],[-2,1],[-2,5],[1,10],[-2,4],[-14,19],[-14,24],[-10,25],[-3,18],[-1,5],[3,13],[9,4],[28,-1],[14,3],[10,6],[8,8],[8,11],[5,0],[0,-6],[-7,-5],[-4,-8],[2,-7],[9,-2],[4,5],[20,28],[3,19],[-3,48],[-4,15],[7,-7],[5,-8],[3,-4],[-2,28],[-3,13],[-22,33],[-6,5],[-47,6],[-12,4],[-20,10],[-23,5],[-6,8],[-5,10],[-7,10],[-11,9],[-95,58],[-6,9],[0,9],[25,-17],[28,-10],[142,-28],[25,-11],[1,13],[5,14],[6,12],[5,5],[3,8],[-2,72],[-6,7],[-27,1],[-12,2],[-12,4],[-10,9],[-6,12],[18,-12],[10,-3],[12,-1],[11,1],[9,3],[4,7],[-4,11],[27,11],[12,1],[5,-7],[3,1],[1,0],[0,1],[2,3],[4,-5],[-18,-9],[-12,-18],[-3,-23],[11,-32],[4,-3],[10,8],[18,6],[15,8],[8,-1],[12,-7],[5,16],[-13,11],[-6,7],[2,4],[13,0],[7,-1],[4,-4],[3,-11],[0,-30],[-17,-9],[-43,0],[-18,-11],[-6,-19],[-1,-47],[2,-15],[7,-24],[13,-16],[18,6],[0,-4],[1,-1],[2,0],[2,-1],[-8,-7],[1,-10],[12,-27],[-5,0],[3,-15],[-6,-14],[-8,-16],[-4,-18],[-1,-32],[-8,-49],[0,-9],[1,-9],[8,-21],[56,-78],[4,-10],[2,-18],[6,-14],[6,-11],[6,-14],[5,-28],[9,-22],[1,-8],[3,-5],[10,-16],[5,-14],[5,-4],[7,-3],[6,-5],[8,-29],[4,-4],[21,2],[8,-4],[6,-22],[10,-15],[3,-7],[4,-8],[20,-14],[5,-11],[9,-8],[22,-2],[24,4],[15,8],[1,15],[-5,23],[-10,23],[-11,11],[11,3],[6,-7],[8,-24],[8,-14],[7,-10],[8,-34],[14,-22],[28,-13],[36,7],[19,6],[13,11],[15,14],[8,31],[6,11],[3,11],[-8,16],[-20,8],[-42,11],[0,6],[17,-1],[5,6],[-3,9],[-9,8],[0,5],[25,0],[11,-2],[8,-3],[1,-2],[-1,-12],[1,-3],[3,0],[3,0],[23,-4],[0,-1],[12,1],[12,3],[9,7],[2,11],[-5,5],[-12,6],[-13,4],[38,1],[12,3],[8,7],[-2,7],[-16,5],[0,6],[16,-1],[13,-2],[10,-5],[11,-9],[-2,19],[4,18],[10,13],[16,5],[7,9],[12,42],[3,15],[5,0],[0,-19],[-12,-34],[-4,-23],[-7,-10],[-2,-10],[2,-10],[3,-8],[5,-4],[5,3],[6,-13],[10,-14],[13,-12],[23,-10],[93,-132],[50,-99],[8,-29],[12,-92],[11,-18],[16,-1],[13,10],[0,15],[-7,5],[-9,4],[-8,6],[-2,12],[6,8],[18,10],[2,4],[13,5],[11,9],[8,9],[5,5],[-1,6],[7,31],[2,12],[10,-1],[4,1],[-16,-57],[-8,-14],[-16,-9],[-19,-6],[-13,-9],[2,-20],[6,-5],[7,-3],[7,-7],[1,-13],[-4,-7],[-6,-6],[-7,-8],[-4,-12],[1,-20],[5,-20],[7,-17],[8,-14],[4,0],[0,15],[6,11],[6,1],[4,-10],[-3,1],[-7,4],[1,-28],[19,-82],[0,-30],[2,-7],[10,-13],[1,-1],[-942,0],[-3,9],[-3,6],[-3,3],[0,17],[-49,-35],[-39,0],[3,2],[7,25],[-9,22],[-28,30],[-5,5],[-9,-8],[-3,-7],[2,-26],[-2,-17],[-4,-10],[-5,-8],[-3,-8],[-20,0],[16,28],[3,18],[-17,-5],[-12,-14],[-14,-27],[-24,0]],[[257,40],[21,24],[4,20],[-10,-2],[-11,-18],[-9,-24],[-5,-17],[5,0],[5,17]],[[354,92],[-2,-18],[5,0],[4,8],[31,18],[4,-5],[-25,-23],[-4,-7],[0,-11],[4,-9],[7,-4],[14,5],[16,19],[6,27],[4,31],[9,27],[4,-9],[1,-5],[0,-8],[15,49],[-7,1],[-8,-5],[-9,-8],[-6,-9],[-9,0],[-20,-22],[-9,-6],[-13,-5],[-8,-13],[-4,-18]],[[461,144],[-10,-17],[-8,-23],[-4,-23],[5,-16],[12,2],[40,61],[-8,-22],[-14,-25],[-8,-23],[5,-17],[8,-1],[9,4],[9,5],[7,2],[19,33],[6,5],[17,17],[4,-8],[1,-3],[13,11],[39,62],[6,20],[-1,129],[15,77],[-15,19],[-32,29],[-18,18],[-9,25],[-5,38],[-12,19],[-11,15],[-10,19],[-13,26],[-9,22],[-8,28],[-7,24],[-14,-1],[-13,-4],[-13,-5],[-8,-5],[-5,-9],[-16,-66],[-2,-28],[4,-30],[12,-3],[41,-30],[11,-10],[9,-20],[8,-48],[8,-15],[0,-5],[-2,-10],[1,-15],[6,-24],[-4,-14],[-1,-47],[-2,-15],[-4,-13],[-30,-68],[-7,-29],[8,-18]],[[471,307],[-5,32],[5,14],[2,-6],[8,-16],[-1,18],[-8,23],[-11,19],[-10,11],[-4,3],[-5,1],[-4,-1],[-2,-5],[2,-11],[4,-1],[5,1],[4,-3],[5,-15],[6,-31],[4,-14],[-5,0],[1,-9],[0,-9],[0,-8],[4,-7],[5,14]],[[476,433],[-5,-47],[5,5],[2,2],[8,4],[0,16],[-2,8],[-3,9],[-3,0],[-2,3]],[[398,673],[11,4],[21,20],[27,-1],[25,-6],[12,3],[-11,16],[-13,17],[-14,6],[-14,16],[-11,4],[-29,0],[-6,-1],[-5,-11],[-11,-2],[-26,4],[-9,-4],[-6,-10],[-2,-15],[0,-14],[2,-22],[-1,-8],[-6,-9],[20,-6],[7,-5],[3,-8],[1,-8],[9,-9],[7,-9],[10,14],[-3,13],[1,19],[11,12]],[[1037,466],[4,-26],[12,-32],[22,-31],[23,-14],[34,4],[7,27],[-6,34],[-64,87],[-15,-8],[-17,-41]],[[882,442],[-8,16],[-30,-9],[-26,-12],[-7,-22],[15,-10],[18,1],[15,7],[16,11],[7,18]],[[783,357],[-4,-62],[-1,-57],[-7,-39],[-5,-13],[-13,-21],[-21,-26],[4,-12],[9,-5],[11,-3],[18,-1],[14,9],[8,14],[10,2],[10,7],[15,13],[10,18],[4,10],[7,12],[12,25],[-3,26],[-1,19],[-7,29],[-11,9],[-5,20],[-16,15],[-26,13],[-12,-2]],[[697,162],[0,43],[-2,7],[-2,4],[-3,-1],[-4,-5],[-5,6],[-6,-18],[-5,-24],[-1,-23],[8,-12],[14,4],[6,19]],[[711,237],[0,-43],[8,8],[5,15],[3,17],[-1,15],[-10,4],[-5,-16]],[[694,227],[27,44],[3,16],[-1,17],[-2,14],[-5,13],[-5,6],[-7,-13],[-5,-20],[-2,-36],[-5,-11],[-7,-14],[-3,-11],[12,-5]],[[469,803],[-8,6],[6,-1],[19,1],[0,5],[-16,12],[-28,35],[-15,13],[-18,-2],[-25,-20],[-14,-25],[12,-18],[7,-2],[20,0],[8,2],[6,2],[3,4],[3,1],[7,-2],[6,-6],[9,-16],[6,-6],[6,-3],[23,-2],[-4,7],[-5,8],[-8,7]],[[348,856],[16,21],[11,11],[2,6],[-5,7],[-6,-3],[-6,-1],[-28,-1],[4,-11],[6,-33],[6,4]],[[427,1088],[-6,17],[-28,21],[-35,19],[-26,9],[-19,1],[-2,-8],[7,-11],[23,-24],[14,-10],[14,-4],[13,6],[4,9],[14,-6],[27,-19]],[[881,1937],[4,6],[17,-26],[-16,-11],[-24,-12],[-11,-27],[-6,-5],[-5,-10],[-10,-7],[-12,-4],[-14,-1],[-7,-4],[0,-8],[1,-9],[-2,-7],[-4,-1],[-6,3],[-10,7],[-24,-33],[-8,-3],[-9,-3],[-4,-2],[3,-16],[30,-18],[7,-13],[-1,-21],[-1,-8],[-3,-7],[-21,-15],[-4,-4],[-2,-4],[-13,-21],[-15,-38],[-5,17],[3,22],[6,19],[8,8],[12,7],[15,16],[5,17],[-14,9],[5,11],[-13,19],[-18,8],[-9,-21],[-5,0],[0,14],[-4,6],[-5,-2],[-1,-13],[-8,6],[3,9],[10,9],[25,6],[5,8],[0,28],[6,-3],[4,-6],[2,-8],[-1,-10],[4,0],[8,11],[9,9],[9,12],[4,17],[0,12],[-3,13],[-1,11],[4,7],[12,2],[11,-7],[17,-16],[10,-4],[9,-1],[7,4],[4,8],[0,9],[-4,8],[-6,7],[-5,7],[-3,13],[3,5],[7,4],[8,6],[0,-1],[7,4],[3,-3],[3,-1],[2,-1],[2,-1],[3,-3],[20,15]],[[0,433],[7,5],[-7,-6]],[[0,97],[11,11],[7,9],[11,39],[9,14],[19,7],[-4,-10],[-7,-5],[-8,-3],[-7,-8],[-3,-12],[-3,-9],[3,-24],[-2,-13],[-5,-5],[-6,-3],[-7,-6],[-6,-10],[0,-12],[-2,-4]],[[0,45],[21,-9],[7,-1],[10,2],[4,4],[2,5],[10,15],[6,17],[5,9],[43,47],[12,8],[20,2],[10,8],[9,18],[13,35],[2,-21],[-5,-22],[-12,-18],[-15,-11],[-4,1],[-6,4],[-6,1],[-7,-3],[-3,-5],[-6,-9],[-3,-5],[-30,-28],[-7,-11],[-3,-10],[-1,-10],[-4,-12],[-6,-10],[-8,-7],[-9,-5],[-6,-6],[-8,-18]],[[220,0],[2,18],[3,15],[14,29],[3,14],[2,3],[9,11],[13,21],[3,7],[3,10],[3,25],[2,8],[2,1],[4,-2],[3,0],[2,11],[1,3],[2,2],[1,1],[5,6],[4,5],[1,6],[-3,8],[-4,3],[-4,2],[-6,6],[-2,11],[7,36],[-3,16],[12,-3],[3,-10],[-5,-25],[2,-10],[8,-23],[-3,-19],[-18,-38],[-4,-20],[5,-7],[10,-7],[13,-5],[9,-3],[9,4],[7,9],[21,38],[4,12],[2,11],[3,7],[8,7],[19,11],[14,3],[17,28],[24,62],[4,33],[-1,16],[-3,16],[-15,29],[-5,14],[0,18],[4,-2],[11,-4],[-13,28],[-8,27],[-13,23],[-26,16],[-14,3],[-13,-2],[-11,-7],[-7,-10],[-2,-9],[3,-16],[-1,-8],[-3,-5],[-5,-4],[-5,-5],[-2,-8],[0,12],[8,44],[4,12],[7,5],[17,2],[6,4],[7,9],[2,6],[-2,28],[-9,26],[-3,25],[-2,8],[-8,12],[-13,11],[-12,2],[-7,-14],[-14,7],[-21,7],[-11,8],[16,11],[9,-9],[10,4],[3,10],[-12,11],[21,5],[8,22],[7,27],[14,17],[10,1],[11,-3],[11,-1],[11,6],[3,7],[-3,6],[-8,7],[-3,3],[-3,1],[-2,0],[-2,1],[-2,5],[1,10],[-2,4],[-14,19],[-14,24],[-10,25],[-3,18],[-1,5],[3,13],[9,4],[28,-1],[14,3],[10,6],[8,8],[8,11],[5,0],[0,-6],[-7,-5],[-4,-8],[2,-7],[9,-2],[4,5],[20,28],[3,19],[-3,48],[-4,15],[7,-7],[5,-8],[3,-4],[-2,28],[-3,13],[-22,33],[-6,5],[-47,6],[-12,4],[-20,10],[-23,5],[-6,8],[-5,10],[-7,10],[-11,9],[-95,58],[-6,9],[0,9],[25,-17],[28,-10],[142,-28],[25,-11],[1,13],[5,14],[6,12],[5,5],[3,8],[-2,72],[-6,7],[-27,1],[-12,2],[-12,4],[-10,9],[-6,12],[18,-12],[10,-3],[12,-1],[11,1],[9,3],[4,7],[-4,11],[27,11],[12,1],[5,-7],[3,1],[1,0],[0,1],[2,3],[4,-5],[-18,-9],[-12,-18],[-3,-23],[11,-32],[4,-3],[10,8],[18,6],[15,8],[8,-1],[12,-7],[5,16],[-13,11],[-6,7],[2,4],[13,0],[7,-1],[4,-4],[3,-11],[0,-30],[-17,-9],[-43,0],[-18,-11],[-6,-19],[-1,-47],[2,-15],[7,-24],[13,-16],[18,6],[0,-4],[1,-1],[2,0],[2,-1],[-8,-7],[1,-10],[12,-27],[-5,0],[3,-15],[-6,-14],[-8,-16],[-4,-18],[-1,-32],[-8,-49],[0,-9],[1,-9],[8,-21],[56,-78],[4,-10],[2,-18],[6,-14],[6,-11],[6,-14],[5,-28],[9,-22],[1,-8],[3,-5],[10,-16],[5,-14],[5,-4],[7,-3],[6,-5],[8,-29],[4,-4],[21,2],[8,-4],[6,-22],[10,-15],[3,-7],[4,-8],[20,-14],[5,-11],[9,-8],[22,-2],[24,4],[15,8],[1,15],[-5,23],[-10,23],[-11,11],[11,3],[6,-7],[8,-24],[8,-14],[7,-10],[8,-34],[14,-22],[28,-13],[36,7],[19,6],[13,11],[15,14],[8,31],[6,11],[3,11],[-8,16],[-20,8],[-42,11],[0,6],[17,-1],[5,6],[-3,9],[-9,8],[0,5],[25,0],[11,-2],[8,-3],[1,-2],[-1,-12],[1,-3],[3,0],[3,0],[23,-4],[0,-1],[12,1],[12,3],[9,7],[2,11],[-5,5],[-12,6],[-13,4],[38,1],[12,3],[8,7],[-2,7],[-16,5],[0,6],[16,-1],[13,-2],[10,-5],[11,-9],[-2,19],[4,18],[10,13],[16,5],[7,9],[12,42],[3,15],[5,0],[0,-19],[-12,-34],[-4,-23],[-7,-10],[-2,-10],[2,-10],[3,-8],[5,-4],[5,3],[6,-13],[10,-14],[13,-12],[23,-10],[93,-132],[50,-99],[8,-29],[12,-92],[11,-18],[16,-1],[13,10],[0,15],[-7,5],[-9,4],[-8,6],[-2,12],[6,8],[18,10],[2,4],[13,5],[11,9],[8,9],[5,5],[-1,6],[7,31],[2,12],[10,-1],[4,1],[-16,-57],[-8,-14],[-16,-9],[-19,-6],[-13,-9],[2,-20],[6,-5],[7,-3],[7,-7],[1,-13],[-4,-7],[-6,-6],[-7,-8],[-4,-12],[1,-20],[5,-20],[7,-17],[8,-14],[4,0],[0,15],[6,11],[6,1],[4,-10],[-3,1],[-7,4],[1,-28],[19,-82],[0,-30],[2,-7],[10,-13],[1,-1]],[[881,1937],[4,6],[17,-26],[-16,-11],[-24,-12],[-11,-27],[-6,-5],[-5,-10],[-10,-7],[-12,-4],[-14,-1],[-7,-4],[0,-8],[1,-9],[-2,-7],[-4,-1],[-6,3],[-10,7],[-24,-33],[-8,-3],[-9,-3],[-4,-2],[3,-16],[30,-18],[7,-13],[-1,-21],[-1,-8],[-3,-7],[-21,-15],[-4,-4],[-2,-4],[-13,-21],[-15,-38],[-5,17],[3,22],[6,19],[8,8],[12,7],[15,16],[5,17],[-14,9],[5,11],[-13,19],[-18,8],[-9,-21],[-5,0],[0,14],[-4,6],[-5,-2],[-1,-13],[-8,6],[3,9],[10,9],[25,6],[5,8],[0,28],[6,-3],[4,-6],[2,-8],[-1,-10],[4,0],[8,11],[9,9],[9,12],[4,17],[0,12],[-3,13],[-1,11],[4,7],[12,2],[11,-7],[17,-16],[10,-4],[9,-1],[7,4],[4,8],[0,9],[-4,8],[-6,7],[-5,7],[-3,13],[3,5],[7,4],[8,6],[0,-1],[7,4],[3,-3],[3,-1],[2,-1],[2,-1],[3,-3],[20,15]],[[1696,615],[4,-4],[39,-33],[-14,-9],[-9,-3],[-7,1],[0,5],[-8,23],[-1,2],[-5,3],[-21,0],[-8,2],[-9,7],[-8,0],[-8,-4],[-7,-5],[0,-6],[10,-7],[12,-14],[18,-28],[-6,0],[-4,1],[-5,2],[-4,3],[4,10],[-13,8],[-7,2],[-10,1],[2,-10],[4,-8],[9,-15],[-3,2],[-8,2],[-4,2],[0,-11],[-8,4],[-5,-3],[1,-4],[10,-3],[4,-5],[-4,-13],[-7,-13],[-5,-7],[9,-5],[9,2],[5,7],[2,12],[4,0],[2,-17],[8,-11],[2,-8],[-12,-7],[13,-2],[8,5],[8,10],[11,9],[-2,-5],[0,-2],[-1,-1],[-2,-3],[0,-5],[14,-1],[13,-15],[13,-2],[-6,-5],[-5,-11],[-5,-9],[-6,1],[-9,6],[-6,3],[-5,5],[-3,10],[-10,-5],[2,-1],[1,0],[1,0],[1,-4],[-6,2],[-13,8],[-6,0],[-5,-3],[-3,-6],[-1,-7],[5,-5],[0,-5],[-10,-3],[-10,2],[-5,4],[5,7],[-4,7],[-4,3],[-5,1],[-7,0],[0,5],[6,1],[9,4],[9,3],[5,4],[1,4],[-3,2],[-8,2],[-10,4],[-9,5],[-5,5],[-4,10],[0,11],[-3,8],[-11,3],[-5,5],[-7,28],[-5,11],[7,-6],[5,-8],[8,-19],[4,0],[2,14],[-4,21],[2,9],[3,-3],[8,-8],[-2,10],[-5,6],[-8,2],[-11,-1],[0,16],[7,-1],[3,-2],[3,-2],[2,-6],[6,11],[-2,7],[-6,3],[-10,1],[-6,2],[-10,12],[-7,3],[5,1],[15,4],[-5,7],[-1,3],[0,3],[1,4],[-9,2],[-9,-1],[-7,1],[-4,9],[5,0],[0,5],[-15,0],[0,6],[15,5],[0,5],[-3,6],[-4,5],[-6,4],[-8,2],[2,4],[2,9],[2,4],[-6,1],[-9,3],[-6,1],[0,6],[8,4],[2,6],[-4,7],[-6,4],[0,6],[6,0],[0,5],[-3,4],[-6,11],[-1,5],[-2,2],[-7,2],[-4,1],[-3,5],[2,3],[2,4],[1,4],[-1,12],[-8,33],[-5,13],[4,3],[0,3],[0,5],[0,6],[4,-29],[10,-39],[15,-33],[21,-15],[-9,-12],[5,-9],[9,-8],[6,-11],[3,-11],[7,-10],[10,-9],[9,-7],[-10,-4],[-5,-1],[6,-8],[14,-10],[6,-9],[-2,-3],[-4,-8],[15,-6],[12,-13],[9,-18],[5,-18],[7,0],[7,0],[0,11],[-4,7],[-5,4],[-5,5],[-4,6],[-6,22],[4,0],[7,-15],[6,-7],[7,-6],[7,8],[7,3],[4,4],[2,10],[-2,5],[-10,11],[-3,9],[6,0],[3,-3],[1,0],[2,-1],[3,-2],[-6,11],[-2,4],[-1,7],[-11,-5],[-2,8],[0,13],[-3,12],[-4,0],[-3,-5],[-2,-2],[-3,-1],[-3,-3],[7,17],[4,5],[-8,3],[-8,-1],[-7,-3],[-8,-5],[4,6],[5,5],[5,3],[6,3],[-20,0],[0,5],[13,2],[0,8],[-8,9],[-10,8],[4,6],[5,9],[0,9],[-6,4],[-5,3],[-5,18],[-3,7],[8,0],[4,-5],[3,-8],[6,-4],[8,0],[1,6],[-4,6],[-5,5],[0,4],[10,10],[-5,8],[-12,7],[-14,3],[0,5],[10,0],[-4,5],[-3,6],[0,5],[3,7],[4,-1],[15,-8],[1,-2],[0,-1],[6,0],[3,1],[0,3],[6,18],[3,1],[1,-2],[0,-2],[1,-2],[2,-8],[4,-3],[7,2],[7,4],[-6,-20],[-2,-5],[-6,-3],[-6,0],[-4,-1],[-1,-7],[2,-14],[6,-3],[8,1],[9,-4],[-11,-4],[0,-6],[3,-3],[8,-8],[-13,6],[-4,-3],[2,-10],[4,-9],[5,0],[2,2],[5,1],[3,2],[-3,-16],[3,-14],[6,-13],[5,-17],[0,-25],[-2,-6],[-2,-7],[0,-7],[4,-10],[4,0],[1,5],[4,11],[10,-27],[2,7],[1,8],[-3,18],[5,0],[1,-13],[5,-8],[15,-12],[0,-6],[-11,-4],[-9,-7],[-6,-11],[0,-16],[6,4],[8,1],[8,-1]],[[282,84],[-10,-2],[-11,-18],[-9,-24],[-5,-17],[5,0],[5,17],[21,24],[4,20]],[[268,0],[16,28],[3,18],[-17,-5],[-12,-14],[-14,-27]],[[317,79],[-5,5],[-9,-8],[-3,-7],[2,-26],[-2,-17],[-4,-10],[-5,-8],[-3,-8]],[[344,0],[3,2],[7,25],[-9,22],[-28,30]],[[396,95],[-25,-23],[-4,-7],[0,-11],[4,-9],[7,-4],[14,5],[16,19],[6,27],[4,31],[9,27],[4,-9],[1,-5],[0,-8],[15,49],[-7,1],[-8,-5],[-9,-8],[-6,-9],[-9,0],[-20,-22],[-9,-6],[-13,-5],[-8,-13],[-4,-18],[-2,-18],[5,0],[4,8],[31,18],[4,-5]],[[432,35],[-49,-35]],[[441,0],[-3,9],[-3,6],[-3,3],[0,17]],[[471,386],[5,5],[2,2],[8,4],[0,16],[-2,8],[-3,9],[-3,0],[-2,3],[-5,-47]],[[451,386],[5,-15],[6,-31],[4,-14],[-5,0],[1,-9],[0,-9],[0,-8],[4,-7],[5,14],[-5,32],[5,14],[2,-6],[8,-16],[-1,18],[-8,23],[-11,19],[-10,11],[-4,3],[-5,1],[-4,-1],[-2,-5],[2,-11],[4,-1],[5,1],[4,-3]],[[576,442],[-18,18],[-9,25],[-5,38],[-12,19],[-11,15],[-10,19],[-13,26],[-9,22],[-8,28],[-7,24],[-14,-1],[-13,-4],[-13,-5],[-8,-5],[-5,-9],[-16,-66],[-2,-28],[4,-30],[12,-3],[41,-30],[11,-10],[9,-20],[8,-48],[8,-15],[0,-5],[-2,-10],[1,-15],[6,-24],[-4,-14],[-1,-47],[-2,-15],[-4,-13],[-30,-68],[-7,-29],[8,-18],[-10,-17],[-8,-23],[-4,-23],[5,-16],[12,2],[40,61],[-8,-22],[-14,-25],[-8,-23],[5,-17],[8,-1],[9,4],[9,5],[7,2],[19,33],[6,5],[17,17],[4,-8],[1,-3],[13,11],[39,62],[6,20],[-1,129],[15,77],[-15,19],[-32,29]],[[470,726],[-14,6],[-14,16],[-11,4],[-29,0],[-6,-1],[-5,-11],[-11,-2],[-26,4],[-9,-4],[-6,-10],[-2,-15],[0,-14],[2,-22],[-1,-8],[-6,-9],[20,-6],[7,-5],[3,-8],[1,-8],[9,-9],[7,-9],[10,14],[-3,13],[1,19],[11,12],[11,4],[21,20],[27,-1],[25,-6],[12,3],[-11,16],[-13,17]],[[382,1104],[4,9],[14,-6],[27,-19],[-6,17],[-28,21],[-35,19],[-26,9],[-19,1],[-2,-8],[7,-11],[23,-24],[14,-10],[14,-4],[13,6]],[[372,901],[-6,-3],[-6,-1],[-28,-1],[4,-11],[6,-33],[6,4],[16,21],[11,11],[2,6],[-5,7]],[[486,809],[0,5],[-16,12],[-28,35],[-15,13],[-18,-2],[-25,-20],[-14,-25],[12,-18],[7,-2],[20,0],[8,2],[6,2],[3,4],[3,1],[7,-2],[6,-6],[9,-16],[6,-6],[6,-3],[23,-2],[-4,7],[-5,8],[-8,7],[-8,6],[6,-1],[19,1]],[[711,194],[8,8],[5,15],[3,17],[-1,15],[-10,4],[-5,-16],[0,-43]],[[686,210],[-5,6],[-6,-18],[-5,-24],[-1,-23],[8,-12],[14,4],[6,19],[0,43],[-2,7],[-2,4],[-3,-1],[-4,-5]],[[694,227],[27,44],[3,16],[-1,17],[-2,14],[-5,13],[-5,6],[-7,-13],[-5,-20],[-2,-36],[-5,-11],[-7,-14],[-3,-11],[12,-5]],[[1069,515],[-15,-8],[-17,-41],[4,-26],[12,-32],[22,-31],[23,-14],[34,4],[7,27],[-6,34],[-64,87]],[[844,449],[-26,-12],[-7,-22],[15,-10],[18,1],[15,7],[16,11],[7,18],[-8,16],[-30,-9]],[[837,331],[-16,15],[-26,13],[-12,-2],[-4,-62],[-1,-57],[-7,-39],[-5,-13],[-13,-21],[-21,-26],[4,-12],[9,-5],[11,-3],[18,-1],[14,9],[8,14],[10,2],[10,7],[15,13],[10,18],[4,10],[7,12],[12,25],[-3,26],[-1,19],[-7,29],[-11,9],[-5,20]],[[1759,4096],[6,-76]],[[1765,4020],[12,-30],[21,-20],[15,-20],[12,-13],[18,0],[90,-3],[33,0],[54,-3],[18,0]],[[2218,3838],[48,0],[66,10],[45,3],[27,7],[18,20],[27,-4],[9,4],[21,-4],[18,4],[36,13],[36,20],[30,10],[31,16],[24,17],[27,13],[9,3],[27,-3],[12,-3],[9,0],[12,13],[27,13],[15,7],[39,26],[18,17],[3,6],[0,17],[-6,19],[0,14]],[[2038,3931],[9,-17],[15,-10],[12,-13],[21,-13],[21,-7],[9,0],[42,13],[24,-6],[27,-40]],[[2753,3756],[15,9],[18,4],[33,3],[24,3],[12,7],[30,30],[21,13],[24,3],[36,-3],[27,-3],[24,10],[15,16],[18,7],[45,10],[84,26],[39,20],[30,0],[18,13],[12,13],[6,17],[9,39],[3,10],[9,4],[48,3],[21,26],[15,10],[12,17],[9,16],[5,17]],[[2218,3838],[-3,-3],[-45,-7],[-18,4],[-15,-7],[-18,0],[-12,-7],[-9,-16],[-24,-17],[-36,-36]],[[449,3633],[-18,-3],[-24,-3]],[[1176,3594],[-30,3],[-36,10],[-9,0],[-42,-7],[-21,0],[-21,14],[-12,13],[-12,26],[-9,13],[-15,0],[-33,-3],[-36,-10],[-15,-3],[-33,7],[-27,-10],[-52,-30],[-24,-27],[-18,-6],[-33,6],[-15,14],[-15,6],[-12,0],[-24,-6],[-21,-7],[-9,3],[-12,10],[-15,17],[-9,0],[-30,-4],[-18,10],[-18,-3],[-27,7],[-15,0],[-9,-4]],[[458,3538],[-12,19],[-18,17],[-18,40],[-3,13]],[[2753,3756],[-24,0],[-15,-4],[-18,4],[-24,-4],[-39,7],[-21,0],[-37,-17],[-24,-6],[-18,0],[-24,-10],[-36,-7],[-63,-3],[-63,-7],[-42,-6],[-12,0],[-45,10],[-12,-10],[-21,-4],[-9,4],[-30,16],[-9,-13],[-21,-16],[-15,3],[-24,-10],[-15,-17],[-9,-3],[-15,0],[-18,10],[-9,-10],[0,-16],[-18,-7],[-21,-36],[0,-37],[-3,-13],[-6,-6],[-18,-7],[-9,-10]],[[1260,3521],[-24,3],[-27,-3],[0,13],[-15,14],[-3,6],[-6,33],[-9,7]],[[2038,3749],[-9,23],[-18,3],[-24,10],[-15,-3],[-15,3],[-39,10],[-24,4],[-42,9],[-12,0],[-18,4],[-21,0],[-51,-10],[-45,3],[-3,-6],[-16,-40],[-15,-13],[-12,-17],[-12,-10],[-18,-16],[-48,-23],[-24,-27],[-48,-26],[-15,-7],[-18,-6],[-6,-17],[-6,-7],[-39,-16],[-36,-7],[-18,-13],[-24,-26],[-6,-7],[-72,0],[-9,0]],[[413,3429],[0,26],[12,20],[18,20],[15,26],[0,17]],[[1230,3411],[24,4],[-3,10],[-1,4]],[[1215,3409],[15,2]],[[1250,3429],[-5,16],[-6,20],[9,26],[12,30]],[[1218,3373],[-9,19],[6,17]],[[1322,3348],[-17,15],[-36,29],[-9,-16],[-3,-2]],[[1257,3374],[-6,-5],[-15,-3],[-18,7]],[[1362,3320],[-18,10],[-22,18]],[[407,3627],[-21,-4],[-9,-3],[-42,-10],[-42,-10],[-54,-16],[-42,-17],[-33,-16],[-24,-13],[6,-7],[12,-36],[15,-60],[-6,-3],[-24,7],[-42,-17],[-15,-13],[-24,-7],[-21,-20],[-41,-47]],[[1362,3320],[18,16],[12,7],[18,0],[24,-7],[24,4],[15,0],[24,-7],[36,3],[21,-6],[12,0],[42,10],[33,6],[15,-3],[9,-13],[18,-4],[25,17],[6,10],[0,13],[9,16],[36,17],[33,7],[21,3],[12,3],[6,17],[12,13],[12,6],[30,17],[18,13],[24,20],[24,20],[15,13]],[[455,3389],[-15,-23],[-36,-43],[30,-13],[30,-30]],[[1966,3531],[12,-33],[6,-23],[15,-23],[3,-13],[-6,-33],[3,-20],[18,-13],[24,-10],[36,-10],[6,-7],[18,-30],[24,-46],[12,-43],[6,-13],[9,-3]],[[464,3280],[9,-7],[39,-23],[72,-26],[18,-7],[24,-3],[21,3],[24,0],[27,7],[51,-13],[43,-13],[33,-7],[15,0],[18,7],[54,29],[42,37],[21,9],[48,17],[42,20],[33,23],[33,16],[24,7],[30,0],[18,7],[15,10]],[[2753,3756],[36,-20],[0,-10],[-12,-10],[6,-13],[6,-10],[30,-10],[24,-26],[24,-10],[0,-4],[-21,-46],[-15,-16],[-12,-30],[-6,-20],[3,-30],[-3,-13],[-30,-56],[-21,-59],[-18,-57],[-6,-23],[0,-10],[6,-10],[12,-13],[3,-13],[-15,-26],[-9,-20],[-6,-30]],[[2152,3211],[9,3],[39,30],[30,16],[30,13],[39,10],[18,10],[30,-13],[6,-13],[12,-7],[18,-20],[6,0],[27,7],[24,0],[30,-7],[18,-3],[6,-10],[15,-6],[27,-7],[18,3],[21,17],[6,0],[12,-10],[34,13],[15,0],[15,-3],[27,-23],[15,-4],[9,-6],[6,-23],[15,-7]],[[1379,2945],[-11,-38]],[[1362,3320],[-3,-10],[0,-83],[-9,-20],[15,-6],[9,-46],[0,-40],[-9,-40],[0,-19],[3,-27],[9,-26],[12,-20],[-10,-38]],[[1368,2907],[3,-3],[27,-12]],[[1398,2892],[33,-15],[24,0],[15,-3],[36,10],[21,-3],[12,-4],[36,-10],[9,-13],[6,-33],[12,-16]],[[1602,2805],[39,3],[33,-3],[12,-4],[3,-16],[-3,-23],[9,-17],[13,-6],[6,-17],[15,-3],[9,-37],[-3,-16],[3,-23],[0,-20],[0,-23],[6,-13],[0,-14],[-9,-9],[3,-14],[-15,-19],[-3,-7],[6,-17],[24,-13],[45,-33],[18,-26],[21,-10],[39,-10]],[[464,3280],[-30,-30],[-12,-23],[-27,-39],[-36,-40],[-18,-26],[-12,-20],[-12,-17],[-36,-39],[-9,-14],[0,-23],[-15,-26],[-12,-27],[-15,-19],[-9,-7],[-30,0],[-9,-7],[-6,-33],[-9,-23],[-6,-29],[6,-17],[-6,-20],[6,-26],[0,-36],[-9,-37],[3,-33],[-3,-43],[-15,-20],[-39,-26],[-33,-26],[-24,-10],[-12,-13],[-12,-37],[-15,-33],[-8,-8]],[[2853,2336],[5,-4],[6,-6],[3,-23],[-3,-27]],[[2729,3171],[9,-23],[18,-53],[15,-13],[0,-10],[6,-10],[18,-10],[12,0],[33,7],[24,6],[12,-13],[18,-6],[15,-14],[12,0],[15,-13],[3,-13],[9,-13],[9,-10],[24,-3],[3,-14],[9,-10],[0,-16],[12,-20],[-3,-16],[12,-10],[0,-7],[-6,-10],[3,-10],[0,-16],[-3,-13],[6,-24],[-9,-16],[-12,-7],[-6,-19],[-24,-53],[-9,-17],[-12,-29],[-21,-34],[-39,-99],[-12,-19],[-21,-63],[-21,-36],[-3,-14],[3,-43],[12,-16],[13,-13]],[[1379,2365],[-11,-3],[-3,-13],[-2,-2]],[[1368,2907],[-13,-11]],[[1363,2347],[-28,-21],[-12,-23],[-18,-17],[-6,-13],[-3,-30],[-12,-16],[-21,-13],[-6,-7],[-3,-20],[-18,-23],[-15,-17],[0,-29],[6,-10],[21,0],[9,-20],[0,-26],[3,-14],[12,-13],[12,-3]],[[1355,2896],[-14,-12],[-15,-17],[-9,-26],[6,-17],[6,-13],[27,-20],[12,-49],[9,-17],[3,-13],[9,-20],[24,-10],[9,-29],[9,-10],[3,-20],[6,-7],[36,-26],[15,-7],[30,0],[15,-23],[6,-29],[-6,-27],[-6,-13],[-30,-36],[-21,-30],[-18,-23],[-12,-10],[-42,-20],[-28,-7]],[[2864,2276],[1,-20]],[[2865,2256],[2,-26],[6,-33],[12,-17],[33,-26],[9,-16],[6,-20],[-3,-33],[-9,-30],[0,-16],[6,-24],[12,-6],[18,-20],[21,3],[6,-6],[12,-17],[24,-13],[18,-17],[18,-9],[9,-10],[12,-4],[21,-26],[15,-10],[6,-26],[15,-20]],[[0,1772],[2,-1],[33,-20],[30,-23],[15,-3],[24,-7],[42,0],[12,-10]],[[927,1517],[-9,4]],[[918,1521],[-27,16],[-6,6],[3,23],[-6,43],[15,23],[9,23],[-6,10],[3,20],[9,13],[18,7],[15,20],[21,33],[15,6],[9,-9],[18,3],[24,-7],[18,0],[18,4],[18,9],[15,20],[3,30],[-27,53],[3,6],[15,10],[15,0],[39,-3],[12,3],[24,4],[30,6],[21,-3],[12,3],[9,7],[12,39],[9,24],[9,62],[-3,7]],[[927,1517],[2,-1]],[[929,1516],[7,-3],[24,0],[24,7],[12,-3],[15,-13],[15,0],[21,3],[15,0],[18,-7],[18,-3],[24,3],[18,-6],[12,6],[12,0],[21,7],[3,13],[24,0],[21,3],[18,14],[72,3],[15,3],[15,23],[42,10],[24,13],[6,7],[0,17],[24,33],[12,9],[9,37],[0,20],[-9,16],[0,17],[15,16],[51,20],[21,26],[24,14],[27,39],[6,33],[18,7],[9,6],[6,30],[0,50],[6,26],[6,33],[0,27],[9,9],[27,20],[6,23],[3,27],[10,20],[9,33],[3,39],[6,10],[6,27],[3,42],[24,-9],[18,3],[30,16],[12,0],[18,4],[27,-4],[9,7],[9,17],[6,29],[-3,27],[-9,3]],[[248,1474],[-21,6],[-23,-2]],[[204,1478],[-13,-1],[-36,10],[-21,3],[-57,4],[-30,0],[-36,23],[-11,1]],[[287,1451],[-3,86],[-3,49],[0,23],[-2,10]],[[279,1619],[-1,7],[-9,3],[-12,23],[-15,7],[-33,10],[-18,10],[-33,29]],[[287,1451],[-18,13],[-21,10]],[[921,1516],[6,1]],[[822,1434],[30,30],[15,23],[18,20],[24,6],[12,3]],[[391,1390],[-8,18],[-18,-7],[-9,20],[-9,3],[-21,-10],[-21,-3],[-9,7],[-9,33]],[[443,1335],[-24,27],[-21,13],[-7,15]],[[494,1279],[-21,7],[-12,16],[-6,17]],[[861,1216],[4,15]],[[838,1356],[-1,15]],[[837,1371],[0,7],[-18,33],[-3,13],[6,10]],[[865,1231],[2,5],[0,20],[-3,20],[-18,43],[-6,23],[-2,14]],[[841,1222],[20,-6]],[[524,1276],[15,-17],[18,7],[12,0],[36,3],[30,-16],[24,-10],[27,0],[36,-7],[30,-7],[58,-3],[30,-3],[1,-1]],[[2987,1028],[9,23],[-6,17],[-12,10],[-3,16],[15,30],[3,59],[12,43],[-3,33],[6,56],[3,20],[6,40],[9,49],[0,20],[-3,53],[6,30],[12,26],[12,40],[18,26],[9,23],[3,17],[12,29],[9,24],[3,13],[6,30],[3,9],[15,37],[6,20],[-3,13]],[[861,1216],[4,0]],[[865,1216],[17,-3],[6,-10],[6,-40],[6,-16],[12,-20],[18,-20],[6,-16],[6,-40],[6,-36],[6,-53],[6,-26],[6,-14],[30,-29],[9,-17],[6,-23]],[[4062,797],[-3,7],[-27,52],[-9,23],[-6,27],[3,23],[-3,17],[0,26],[-9,49],[0,10],[24,27],[0,13],[-9,13],[0,13],[6,17],[12,26],[9,4],[21,6],[18,23],[7,8]],[[4096,1533],[-1,0],[-51,-13],[-15,3],[-3,20],[-24,23],[-3,40],[-15,26],[6,20],[-3,13],[-6,14],[-18,9],[-21,0],[-18,17],[-15,0],[-3,13],[6,20],[6,17],[36,9],[24,20],[18,20],[12,20],[21,23],[12,23],[3,23],[6,7],[12,10],[9,16],[15,33],[10,15]],[[2987,1028],[12,0],[18,10],[15,13],[15,-3],[9,-20],[18,-7],[6,-6],[15,3],[9,-3],[36,10],[15,-4],[12,-16],[3,-20],[6,-3],[6,3],[15,3],[27,7],[30,-7],[45,-6],[15,0],[15,6],[15,14],[15,6],[9,0],[12,10],[15,0],[27,13],[15,0],[27,0],[18,-6],[9,-23],[0,-23],[15,-7],[19,0],[18,-7],[9,-3],[18,-20],[9,-23],[30,-3],[12,-7],[12,-23],[39,-23],[9,0],[27,7],[21,-24],[9,-3],[21,0],[24,-13],[12,-17],[18,-19],[6,-4],[24,10],[21,-3],[15,3],[30,0]],[[4062,797],[21,-33]],[[4083,764],[-3,-23],[3,-17],[3,-39],[10,-17]],[[3909,800],[9,-16],[6,-23],[18,-33],[6,-14],[6,-26],[0,-36]],[[4096,655],[-13,0],[-27,-10],[-24,0],[-27,-7],[-51,14]],[[2987,1028],[-24,-23],[0,-23],[-24,-23],[-9,-13],[-3,-17],[3,-46],[12,-63],[0,-16],[-6,-14],[0,-16],[9,-17],[18,-23],[12,-23],[0,-13],[-3,-30],[0,-56],[3,-13],[9,-27],[0,-6],[-6,-23],[3,-30],[-6,-26],[3,-20],[12,-40],[3,-16]],[[1283,349],[10,-11],[36,-23],[4,-5]],[[1236,469],[24,-54]],[[1011,853],[9,-13],[21,-20],[24,-16],[9,-10],[36,-53],[48,-89],[18,-47],[21,-46],[15,-36],[24,-54]],[[1260,415],[3,-8],[9,-36],[9,-20],[2,-2]],[[1333,310],[2,-2]],[[1342,301],[-2,1]],[[1340,302],[-5,6]],[[1398,308],[-12,4],[-12,-7],[-9,-13],[-21,6],[-2,3]],[[3735,130],[6,-1]],[[3741,129],[9,-2],[15,-30],[33,-23],[15,-27],[21,-33],[9,-3],[24,-10],[2,-1]],[[3997,0],[8,4],[15,0],[11,-4]],[[4067,0],[13,18],[15,10],[1,0]],[[3732,127],[3,3]],[[3663,0],[30,18],[21,33],[9,16],[3,23],[0,30],[6,7]],[[2993,411],[0,-17],[6,-13],[18,-17],[6,-13],[0,-20],[6,-19],[0,-14],[-6,-19],[3,-24],[-9,-36],[6,-13],[-6,-17],[-15,-19],[-9,-24],[3,-33],[-3,-23],[-9,-23],[-3,-30],[6,-33],[12,-3],[0,-1]],[[1398,308],[12,-3],[15,-10],[18,-23],[18,-27],[12,-26],[18,-30],[9,-19],[6,-37],[9,-20],[15,-10],[6,-9],[0,-20],[-9,-30],[-21,-20],[-3,-13],[1,-11]],[[393,1126],[28,-21],[6,-17],[-27,19],[-14,6],[-4,-9],[-13,-6],[-14,4],[-14,10],[-23,24],[-7,11],[2,8],[19,-1],[26,-9],[35,-19]],[[1132,367],[-34,-4],[-23,14],[-22,31],[-12,32],[-4,26],[17,41],[15,8],[64,-87],[6,-34],[-7,-27]],[[470,826],[16,-12],[0,-5],[-19,-1],[-6,1],[8,-6],[8,-7],[5,-8],[4,-7],[-23,2],[-6,3],[-6,6],[-9,16],[-6,6],[-7,2],[-3,-1],[-3,-4],[-6,-2],[-8,-2],[-20,0],[-7,2],[-12,18],[14,25],[25,20],[18,2],[15,-13],[28,-35]],[[348,856],[-6,-4],[-6,33],[-4,11],[28,1],[6,1],[6,3],[5,-7],[-2,-6],[-11,-11],[-16,-21]],[[383,0],[49,35],[0,-17],[3,-3],[3,-6],[3,-9],[-58,0]],[[244,0],[14,27],[12,14],[17,5],[-3,-18],[-16,-28],[-24,0]],[[252,23],[-5,0],[5,17],[9,24],[11,18],[10,2],[-4,-20],[-21,-24],[-5,-17]],[[788,127],[-14,-9],[-18,1],[-11,3],[-9,5],[-4,12],[21,26],[13,21],[5,13],[7,39],[1,57],[4,62],[12,2],[26,-13],[16,-15],[5,-20],[11,-9],[7,-29],[1,-19],[3,-26],[-12,-25],[-7,-12],[-4,-10],[-10,-18],[-15,-13],[-10,-7],[-10,-2],[-8,-14]],[[476,391],[-5,-5],[5,47],[2,-3],[3,0],[3,-9],[2,-8],[0,-16],[-8,-4],[-2,-2]],[[695,212],[2,-7],[0,-43],[-6,-19],[-14,-4],[-8,12],[1,23],[5,24],[6,18],[5,-6],[4,5],[3,1],[2,-4]],[[719,202],[-8,-8],[0,43],[5,16],[10,-4],[1,-15],[-3,-17],[-5,-15]],[[721,271],[-27,-44],[-12,5],[3,11],[7,14],[5,11],[2,36],[5,20],[7,13],[5,-6],[5,-13],[2,-14],[1,-17],[-3,-16]],[[461,391],[11,-19],[8,-23],[1,-18],[-8,16],[-2,6],[-5,-14],[5,-32],[-5,-14],[-4,7],[0,8],[0,9],[-1,9],[5,0],[-4,14],[-6,31],[-5,15],[-4,3],[-5,-1],[-4,1],[-2,11],[2,5],[4,1],[5,-1],[4,-3],[10,-11]],[[288,0],[3,8],[5,8],[4,10],[2,17],[-2,26],[3,7],[9,8],[5,-5],[28,-30],[9,-22],[-7,-25],[-3,-2],[-56,0]],[[447,177],[-15,-49],[0,8],[-1,5],[-4,9],[-9,-27],[-4,-31],[-6,-27],[-16,-19],[-14,-5],[-7,4],[-4,9],[0,11],[4,7],[25,23],[-4,5],[-31,-18],[-4,-8],[-5,0],[2,18],[4,18],[8,13],[13,5],[9,6],[20,22],[9,0],[6,9],[9,8],[8,5],[7,-1]],[[603,168],[-39,-62],[-13,-11],[-1,3],[-4,8],[-17,-17],[-6,-5],[-19,-33],[-7,-2],[-9,-5],[-9,-4],[-8,1],[-5,17],[8,23],[14,25],[8,22],[-40,-61],[-12,-2],[-5,16],[4,23],[8,23],[10,17],[-8,18],[7,29],[30,68],[4,13],[2,15],[1,47],[4,14],[-6,24],[-1,15],[2,10],[0,5],[-8,15],[-8,48],[-9,20],[-11,10],[-41,30],[-12,3],[-4,30],[2,28],[16,66],[5,9],[8,5],[13,5],[13,4],[14,1],[7,-24],[8,-28],[9,-22],[13,-26],[10,-19],[11,-15],[12,-19],[5,-38],[9,-25],[18,-18],[32,-29],[15,-19],[-15,-77],[1,-129],[-6,-20]],[[844,406],[-18,-1],[-15,10],[7,22],[26,12],[30,9],[8,-16],[-7,-18],[-16,-11],[-15,-7]],[[442,748],[14,-16],[14,-6],[13,-17],[11,-16],[-12,-3],[-25,6],[-27,1],[-21,-20],[-11,-4],[-11,-12],[-1,-19],[3,-13],[-10,-14],[-7,9],[-9,9],[-1,8],[-3,8],[-7,5],[-20,6],[6,9],[1,8],[-2,22],[0,14],[2,15],[6,10],[9,4],[26,-4],[11,2],[5,11],[6,1],[29,0],[11,-4]],[[0,4096],[4096,0],[0,-4096],[-481,0],[-2232,0],[-1,1],[-10,13],[-2,7],[0,30],[-19,82],[-1,28],[7,-4],[3,-1],[-4,10],[-6,-1],[-6,-11],[0,-15],[-4,0],[-8,14],[-7,17],[-5,20],[-1,20],[4,12],[7,8],[6,6],[4,7],[-1,13],[-7,7],[-7,3],[-6,5],[-2,20],[13,9],[19,6],[16,9],[8,14],[16,57],[-4,-1],[-10,1],[-2,-12],[-7,-31],[1,-6],[-5,-5],[-8,-9],[-11,-9],[-13,-5],[-2,-4],[-18,-10],[-6,-8],[2,-12],[8,-6],[9,-4],[7,-5],[0,-15],[-13,-10],[-16,1],[-11,18],[-12,92],[-8,29],[-50,99],[-93,132],[-23,10],[-13,12],[-10,14],[-6,13],[-5,-3],[-5,4],[-3,8],[-2,10],[2,10],[7,10],[4,23],[12,34],[0,19],[-5,0],[-3,-15],[-12,-42],[-7,-9],[-16,-5],[-10,-13],[-4,-18],[2,-19],[-11,9],[-10,5],[-13,2],[-16,1],[0,-6],[16,-5],[2,-7],[-8,-7],[-12,-3],[-38,-1],[13,-4],[12,-6],[5,-5],[-2,-11],[-9,-7],[-12,-3],[-12,-1],[0,1],[-23,4],[-3,0],[-3,0],[-1,3],[1,12],[-1,2],[-8,3],[-11,2],[-25,0],[0,-5],[9,-8],[3,-9],[-5,-6],[-17,1],[0,-6],[42,-11],[20,-8],[8,-16],[-3,-11],[-6,-11],[-8,-31],[-15,-14],[-13,-11],[-19,-6],[-36,-7],[-28,13],[-14,22],[-8,34],[-7,10],[-8,14],[-8,24],[-6,7],[-11,-3],[11,-11],[10,-23],[5,-23],[-1,-15],[-15,-8],[-24,-4],[-22,2],[-9,8],[-5,11],[-20,14],[-4,8],[-3,7],[-10,15],[-6,22],[-8,4],[-21,-2],[-4,4],[-8,29],[-6,5],[-7,3],[-5,4],[-5,14],[-10,16],[-3,5],[-1,8],[-9,22],[-5,28],[-6,14],[-6,11],[-6,14],[-2,18],[-4,10],[-56,78],[-8,21],[-1,9],[0,9],[8,49],[1,32],[4,18],[8,16],[6,14],[-3,15],[5,0],[-12,27],[-1,10],[8,7],[-2,1],[-2,0],[-1,1],[0,4],[-18,-6],[-13,16],[-7,24],[-2,15],[1,47],[6,19],[18,11],[43,0],[17,9],[0,30],[-3,11],[-4,4],[-7,1],[-13,0],[-2,-4],[6,-7],[13,-11],[-5,-16],[-12,7],[-8,1],[-15,-8],[-18,-6],[-10,-8],[-4,3],[-11,32],[3,23],[12,18],[18,9],[-4,5],[-2,-3],[0,-1],[-1,0],[-3,-1],[-5,7],[-12,-1],[-27,-11],[4,-11],[-4,-7],[-9,-3],[-11,-1],[-12,1],[-10,3],[-18,12],[6,-12],[10,-9],[12,-4],[12,-2],[27,-1],[6,-7],[2,-72],[-3,-8],[-5,-5],[-6,-12],[-5,-14],[-1,-13],[-25,11],[-142,28],[-28,10],[-25,17],[0,-9],[6,-9],[95,-58],[11,-9],[7,-10],[5,-10],[6,-8],[23,-5],[20,-10],[12,-4],[47,-6],[6,-5],[22,-33],[3,-13],[2,-28],[-3,4],[-5,8],[-7,7],[4,-15],[3,-48],[-3,-19],[-20,-28],[-4,-5],[-9,2],[-2,7],[4,8],[7,5],[0,6],[-5,0],[-8,-11],[-8,-8],[-10,-6],[-14,-3],[-28,1],[-9,-4],[-3,-13],[1,-5],[3,-18],[10,-25],[14,-24],[14,-19],[2,-4],[-1,-10],[2,-5],[2,-1],[2,0],[3,-1],[3,-3],[8,-7],[3,-6],[-3,-7],[-11,-6],[-11,1],[-11,3],[-10,-1],[-14,-17],[-7,-27],[-8,-22],[-21,-5],[12,-11],[-3,-10],[-10,-4],[-9,9],[-16,-11],[11,-8],[21,-7],[14,-7],[7,14],[12,-2],[13,-11],[8,-12],[2,-8],[3,-25],[9,-26],[2,-28],[-2,-6],[-7,-9],[-6,-4],[-17,-2],[-7,-5],[-4,-12],[-8,-44],[0,-12],[2,8],[5,5],[5,4],[3,5],[1,8],[-3,16],[2,9],[7,10],[11,7],[13,2],[14,-3],[26,-16],[13,-23],[8,-27],[13,-28],[-11,4],[-4,2],[0,-18],[5,-14],[15,-29],[3,-16],[1,-16],[-4,-33],[-24,-62],[-17,-28],[-14,-3],[-19,-11],[-8,-7],[-3,-7],[-2,-11],[-4,-12],[-21,-38],[-7,-9],[-9,-4],[-9,3],[-13,5],[-10,7],[-5,7],[4,20],[18,38],[3,19],[-8,23],[-2,10],[5,25],[-3,10],[-12,3],[3,-16],[-7,-36],[2,-11],[6,-6],[4,-2],[4,-3],[3,-8],[-1,-6],[-4,-5],[-5,-6],[-1,-1],[-2,-2],[-1,-3],[-2,-11],[-3,0],[-4,2],[-2,-1],[-2,-8],[-3,-25],[-3,-10],[-3,-7],[-13,-21],[-9,-11],[-2,-3],[-3,-14],[-14,-29],[-3,-15],[-2,-18],[-195,0],[8,18],[6,6],[9,5],[8,7],[6,10],[4,12],[1,10],[3,10],[7,11],[30,28],[3,5],[6,9],[3,5],[7,3],[6,-1],[6,-4],[4,-1],[15,11],[12,18],[5,22],[-2,21],[-13,-35],[-9,-18],[-10,-8],[-20,-2],[-12,-8],[-43,-47],[-5,-9],[-6,-17],[-10,-15],[-2,-5],[-4,-4],[-10,-2],[-7,1],[-21,9],[0,8],[2,4],[0,12],[6,10],[7,6],[6,3],[5,5],[2,13],[-3,24],[3,9],[3,12],[7,8],[8,3],[7,5],[4,10],[-19,-7],[-9,-14],[-11,-39],[-7,-9],[-11,-11],[0,335],[7,6],[-7,-5],[0,3663]],[[492,2702],[7,24],[49,-8],[72,-44],[39,4],[35,-49],[-77,-39],[-123,88],[-2,24]],[[2239,3719],[285,127],[89,-44],[-65,-36],[3,-22],[-78,-24],[-234,-1]],[[3738,124],[-31,18],[-5,28],[48,-26],[-12,-20]],[[1256,403],[-30,60],[17,10],[17,-56],[-4,-14]],[[845,1244],[22,-14],[-5,-28],[-22,11],[5,31]],[[1332,295],[4,-36],[-19,32],[48,24],[-33,-20]],[[1340,366],[33,7],[-6,-36],[-63,-50],[26,-42],[-29,-9],[-23,107],[37,41],[25,-18]],[[830,1353],[16,41],[31,-8],[-3,-21],[-44,-12]],[[266,1621],[55,-10],[24,-89],[-16,-17],[64,-89],[-9,-119],[-39,12],[-57,89],[-81,53],[-8,71],[39,-14],[-7,103],[35,10]],[[911,1554],[24,-5],[-8,-44],[-32,62],[16,-13]],[[280,2279],[32,-18],[-8,-27],[-56,62],[32,-17]],[[1363,2347],[-28,21],[-3,17],[56,-9],[-25,-29]],[[1307,3399],[27,-40],[-30,-25],[-78,65],[9,27],[80,18],[-8,-45]],[[1396,2883],[-41,13],[-15,41],[69,14],[-13,-68]],[[411,3730],[28,-53],[-32,-46],[-38,17],[-8,-17],[-32,53],[56,-9],[-23,47],[49,8]],[[3417,3870],[-23,19],[41,8],[-2,-18],[-16,-9]],[[2894,2290],[-17,-35],[-28,2],[-21,75],[49,9],[17,-51]],[[2044,2296],[-41,27],[4,11],[37,7],[0,-45]],[[1922,4064],[94,11],[76,-20],[78,-59],[-79,-56],[-12,55],[-38,34],[-119,35]]]}