{"objects":{"water":{"type":"GeometryCollection","geometries":[{"type":"MultiPolygon","properties":{"source":"naturalearthdata.com","kind":"ocean","area":1576712559132672,"sort_rank":200,"min_zoom":0.0,"id":1},"arcs":[[[8]],[[9]]]},{"type":"MultiLineString","properties":{"source":"naturalearthdata.com","kind":"ocean","sort_rank":205,"boundary":true,"min_zoom":0.0,"id":54},"arcs":[[10],[11],[12]]}]},"buildings":{"type":"GeometryCollection","geometries":[]},"places":{"type":"GeometryCollection","geometries":[{"type":"Point","properties":{"int_name":"Alexandria","name:sk":"Alexandria","name:ms":"Iskandariah","name:mr":"\u0938\u093f\u0915\u0928\u094d\u0926\u0930\u093f\u092f\u093e","name:kn":"\u0cb8\u0cbf\u0c95\u0c82\u0ca6\u0cb0\u0cbf\u0caf\u0cbe","name:cs":"Alexandrie","kind":"locality","min_zoom":8.0,"name:ru":"\u0410\u043b\u0435\u043a\u0441\u0430\u043d\u0434\u0440\u0438\u044f","name:pl":"Aleksandria","name:hu":"Alexandria","name:hr":"Aleksandrija","id":27565020,"name:ca":"Alexandria","population":4546231,"name:el":"\u0391\u03bb\u03b5\u03be\u03ac\u03bd\u03b4\u03c1\u03b5\u03b9\u03b1","name:eo":"Aleksandrio","name:en":"Alexandria","name:lt":"Aleksandrija","kind_detail":"city","name:hi":"\u0938\u093f\u0915\u0928\u094d\u0926\u0930\u093f\u092f\u093e","name:ku":"\u00ceskenderiye","name:de":"Alexandria","source":"openstreetmap.org","name:fr":"Alexandrie","name:zh":"\u4e9a\u5386\u5c71\u5927","name":"\u0627\u0644\u0625\u0633\u0643\u0646\u062f\u0631\u064a\u0629","name:es":"Alejandr\u00eda"},"coordinates":[1058,1527]},{"type":"Point","properties":{"kind":"locality","name:en":"Damanhur","name":"\u062f\u0645\u0646\u0647\u0648\u0631","kind_detail":"city","min_zoom":8.0,"source":"openstreetmap.org","name:fr":"Damanhour","int_name":"Damanhur","name:ru":"\u0414\u0430\u043c\u0430\u043d\u0445\u0443\u0440","id":299499376,"population":227943},"coordinates":[2728,978]},{"type":"Point","properties":{"name:az":"D\u0259suk","name:lt":"Disukas","name:ur":"\u062f\u0633\u0648\u0642","min_zoom":8.0,"int_name":"Desouk","name:ru":"\u0414\u0438\u0441\u0443\u043a","name:sv":"Disuq","name:ka":"\u10d3\u10d8\u10e1\u10e3\u10d9\u10d8","id":299569447,"name:ca":"Dosoq","population":110000,"kind":"locality","name:en":"Desouk","name":"\u062f\u0633\u0648\u0642\u200e","kind_detail":"city","name:sr":"\u0414\u0435\u0441\u0443\u043a","source":"openstreetmap.org","name:fr":"Dessouk","name:fi":"Disuk"},"coordinates":[3248,1286]},{"type":"Point","properties":{"kind":"locality","name:en":"Rosetta","name":"\u0631\u0634\u064a\u062f","kind_detail":"town","min_zoom":8.0,"name:de":"Rosetta","source":"openstreetmap.org","name:fr":"Rosetta","int_name":"Rosetta, Rosetta, Al Rashid, Rashid","name:ru":"\u0420\u0430\u0448\u0438\u0434","name:hu":"Rosetta","name:zh":"\u7f57\u585e\u5854","id":768815269,"population":68947},"coordinates":[2578,2228]},{"type":"Point","properties":{"kind":"locality","name:en":"Abu Qir","name":"\u0623\u0628\u0648 \u0642\u064a\u0631","kind_detail":"town","source":"openstreetmap.org","min_zoom":8.0,"id":332504177,"population":37997},"coordinates":[1552,1941]}]},"transit":{"type":"GeometryCollection","geometries":[{"type":"LineString","properties":{"source":"openstreetmap.org","kind":"train","network":"EG-railway","sort_rank":275,"min_zoom":6.0,"osm_relation":true,"name":"Alexandria-Aswan line"},"arcs":[7]}]},"pois":{"type":"GeometryCollection","geometries":[]},"boundaries":{"type":"GeometryCollection","geometries":[{"type":"LineString","properties":{"name:kg":"Misiri","alt_name:ce":"\u0415\u0433\u0438\u0301\u043f\u0435\u0442","name:ty":"\u2019Aifiti","name:ka":"\u10d4\u10d2\u10d5\u10d8\u10de\u10e2\u10d4","name:tr":"M\u0131s\u0131r","name:ts":"Gibita","name:km":"\u17a2\u17c1\u17a0\u17ca\u17d2\u179f\u17b8\u1794","name:kl":"Egypt","name:kk":"\u041c\u044b\u0441\u044b\u0440","name:tw":"Egypt","name:tt":"\u041c\u0438\u0441\u044b\u0301\u0440","name:kw":"Ejyp","name:tk":"M\u00fcs\u00fcr","name:ku":"Misir","name:ti":"\u130d\u1265\u133d","name:ks":"\u0645\u0650\u0633\u0631","name:to":"\u02bbIsipite","name:tl":"Ehipto","name:ce":"\u041c\u0438\u0441\u0430\u0440","name:ta":"\u0b8e\u0b95\u0bbf\u0baa\u0bcd\u0ba4\u0bc1","name:tg":"\u041c\u0438\u0441\u0440","name:ky":"\u0415\u0433\u0438\u043f\u0435\u0442","name:te":"\u0c08\u0c1c\u0c3f\u0c2a\u0c4d\u0c1f\u0c41","alt_name:ts":"Egypt","alt_name:ln":"Ejipiti;Misiri","name:cy":"Yr Aifft","name:qu":"Ihiptu","alt_name:ty":"Egipt","name:de":"\u00c4gypten","source":"openstreetmap.org","name:kn":"\u0c88\u0c9c\u0cbf\u0caa\u0ccd\u0c9f\u0ccd","alt_name:th":"\u0e2d\u0e35\u0e22\u0e34\u0e1b\u0e15\u0e4c","name:dv":"\u0789\u07a8\u079e\u07b0\u0783\u07aa","name:cu":"\u0404\u0433\u0477\u043f\u0442\u044a","alt_name:da":"\u00c6gypten","name:lv":"\u0112\u0123ipte","name:lt":"Egiptas","name:uz":"Misr","name:cs":"Egypt","name:lb":"Egypten","name:la":"Aegyptus","name:ki":"Egypt","name:uk":"\u0404\u0433\u0438\u0301\u043f\u0435\u0442","name:ug":"\u0645\u0649\u0633\u0649\u0631","name:li":"Egypte","name:ln":"Ejipte","name:lo":"\u0ead\u0eb5\u0ea2\u0eb4\u0e9a","name:el":"\u0391\u03af\u03b3\u03c5\u03c0\u03c4\u03bf\u03c2","name:eo":"Egiptujo","name:en":"Egypt","name":"\u0645\u0635\u0631","name:kv":"\u0415\u0433\u0438\u043f\u0435\u0442","name:ee":"Edzipti","name:th":"\u0e1b\u0e23\u0e30\u0e40\u0e17\u0e28\u0e2d\u0e35\u0e22\u0e34\u0e1b\u0e15\u0e4c","name:eu":"Egipto","name:et":"Egiptus","name:es":"Egipto","name:ia":"Egypto","name:rm":"Egipta","name:rn":"Egipto","name:az":"Misir","name:ie":"Egiptia","name:id":"Mesir","name:ig":"Egypt","name:as":"\u0987\u099c\u09bf\u09aa\u09cd\u09a4","name:zh-min-nan":"Ai-ki\u030dp","name:io":"Egiptia","name:ak":"Igyipt","name:am":"\u130d\u1265\u1345","name:it":"Egitto","name:an":"Echipto","name:ru":"\u0415\u0433\u0438\u0301\u043f\u0435\u0442","name:ab":"\u041c\u044b\u0301\u0441\u0440\u044b","name:af":"Egipte","name:zu":"iGibhithe","kind_detail":"2","name:za":"Aehciz","name:zh-yue":"\u57c3\u53ca","alt_name:rn":"Misiri","name:zh":"\u57c3\u53ca","name:so":"Masar","name:sn":"Egypt","name:sm":"Aikupito","name:sl":"Egipt","name:sk":"Egypt","alt_name:ba":"\u0415\u0433\u0438\u043f\u0435\u0442","name:si":"\u0d8a\u0da2\u0dd3\u0db4\u0dca\u0dad\u0dd4\u0dc0","name:sh":"Egipat","name:sg":"K\u00e2mit\u00e2","name:se":"Egypta","name:sc":"Egittu","name:br":"Egipt","name:bs":"Egipat","name:bm":"Misra","name:bn":"\u09ae\u09bf\u09b6\u09b0","name:bo":"\u0f68\u0f60\u0f72\u0f0b\u0f45\u0f72\u0f0d","name:sa":"\u0908\u091c\u093f\u092a\u094d\u0924\u0926\u0947\u0936\u0903","alt_name:br":"Ejipt","name:sw":"Misri","name:be":"\u0415\u0433\u0456\u0301\u043f\u0435\u0442","name:su":"Mesir","name:bg":"\u0415\u0433\u0438\u043f\u0435\u0442","name:ss":"iGibhithe","name:sr":"\u0415\u0433\u0438\u043f\u0430\u0442","name:sq":"Egjipti","alt_name:sq":"Misiri","alt_name:kg":"Ngipiti","name:jv":"Mesir","alt_name:ky":"\u041c\u0438\u0441\u0438\u0440","alt_name:sl":"Misr","name:pt":"Egito","name:da":"Egypten","name:om":"Ijiipti","name:oc":"Egipte","alt_name:gd":"\u00c8iphit","min_zoom":8.0,"name:ro":"Egipt","name:ko":"\uc774\uc9d1\ud2b8","name:pa":"\u0a2e\u0a3f\u0a38\u0a30","name:os":"\u041c\u044b\u0441\u044b\u0440","name:or":"\u0b07\u0b1c\u0b3f\u0b2a\u0b4d\u0b1f","name:pl":"Egipt","alt_name:gv":"Eajipt","alt_name:gu":"\u0aae\u0abf\u0ab8\u0ab0","name:pi":"\u0908\u091c\u093f\u092a\u094d\u091f","name:st":"Egepeta","sort_rank":262,"name:ba":"\u041c\u044b\u0441\u044b\u0440","osm_relation":true,"alt_name:as":"\u09ae\u09bf\u099b\u09f0","name:hi":"\u092e\u093f\u0938\u094d\u0930","name:sv":"Egypten","name:he":"\u05de\u05e6\u05e8\u05d9\u05dd","name:ha":"Misra","name:ja":"\u30a8\u30b8\u30d7\u30c8","name:hy":"\u0535\u0563\u056b\u057a\u057f\u0578\u057d","name:ht":"Ejip","name:hu":"Egyiptom","name:hr":"Egipat","kind":"country","name:is":"Egyptaland","alt_name:is":"Egiptaland","name:yi":"\u05e2\u05d2\u05d9\u05e4\u05d8\u05df","name:yo":"\u1eb8\u0301g\u00edpt\u00ec","name:mt":"E\u0121ittu","alt_name:eo":"Egipto;Egiptio","name:ms":"Mesir","name:mr":"\u0907\u091c\u093f\u092a\u094d\u0924","alt_name:ee":"Egipte","name:my":"\u1021\u102e\u1002\u103b\u1005\u103a\u1014\u102d\u102f\u1004\u103a\u1004\u1036","official_name":"\u062c\u0645\u0647\u0648\u0631\u064a\u0629 \u0645\u0635\u0631 \u0627\u0644\u0639\u0631\u0628\u064a\u0629","int_name":"Egypt \u0645\u0635\u0631","name:mg":"Ejipta","name:ml":"\u0d08\u0d1c\u0d3f\u0d2a\u0d4d\u0d24\u0d4d","name:vi":"Ai C\u1eadp","name:mn":"\u0415\u0433\u0438\u043f\u0435\u0442","id":-1473947,"name:mk":"\u0415\u0433\u0438\u043f\u0435\u0442","name:vo":"L\u00e4g\u00fcpt\u00e4n","old_name:fi":"Yhdistynyt arabitasavalta","name:ff":"Ejipt","name:fi":"Egypti","name:fj":"Ijipta","name:fo":"Egyptaland","name:fr":"\u00c9gypte","name:ca":"Egipte","name:fy":"Egypte","alt_name:qu":"Misir","name:nl":"Egypte","name:nn":"Egypt","name:no":"Egypt","name:na":"Idjipt","name:ne":"\u092e\u093f\u0936\u094d\u0930","name:wa":"Edjipe","name:wo":"Isipt","name:nv":"\u00cd\u00edjip","name:ga":"An \u00c9igipt","name:gd":"An \u00c8ipheit","name:gn":"Ehipto","name:gl":"Exipto","maritime_boundary":true,"alt_name:wo":"Ejipt","name:gv":"Yn Egypt","name:gu":"\u0a87\u0a9c\u0abf\u0aaa\u0acd\u0aa4","name:lg":"Egypt"},"arcs":[0]},{"type":"LineString","properties":{"int_name:right":"Al-Gharbiyya","name:left:pl":"Muhafaza Kafr asz-Szajch","id:left":-4103405,"name:right:hu":"Nyugati korm\u00e1nyz\u00f3s\u00e1g","id:right":-3584607,"min_zoom":8.0,"name:left:ru":"\u043c\u0443\u0445\u0430\u0444\u0430\u0437\u0430 \u041a\u0430\u0444\u0440-\u044d\u0448-\u0428\u0435\u0439\u0445","name:left:hu":"Kafr es-Sajh korm\u00e1nyz\u00f3s\u00e1g","name:right:ru":"\u043c\u0443\u0445\u0430\u0444\u0430\u0437\u0430 \u0413\u0430\u0440\u0431\u0438\u044f","id":-4103405,"osm_relation":true,"name:right":"\u200f\u0645\u062d\u0627\u0641\u0638\u0629 \u0627\u0644\u063a\u0631\u0628\u064a","kind":"region","name:left:eo":"Provinco Kafr a\u015d-\u015cej\u0125","name":"\u0643\u0641\u0631 \u0627\u0644\u0634\u064a\u062e - \u200f\u0645\u062d\u0627\u0641\u0638\u0629 \u0627\u0644\u063a\u0631\u0628\u064a","source":"openstreetmap.org","sort_rank":256,"kind_detail":"4","name:left:de":"Gouvernement Kafr asch-Schaich","name:right:en":"Gharbiyya Governorate","name:left:en":"Kafr el-Sheikh Governorate","name:right:de":"Gouvernement al-Gharbiyya","name:left":"\u0643\u0641\u0631 \u0627\u0644\u0634\u064a\u062e"},"arcs":[1]},{"type":"LineString","properties":{"kind":"region","name:en":"Kafr el-Sheikh Governorate","name":"\u0643\u0641\u0631 \u0627\u0644\u0634\u064a\u062e","sort_rank":256,"kind_detail":"4","name:eo":"Provinco Kafr a\u015d-\u015cej\u0125","name:de":"Gouvernement Kafr asch-Schaich","source":"openstreetmap.org","min_zoom":8.0,"name:ru":"\u043c\u0443\u0445\u0430\u0444\u0430\u0437\u0430 \u041a\u0430\u0444\u0440-\u044d\u0448-\u0428\u0435\u0439\u0445","name:pl":"Muhafaza Kafr asz-Szajch","name:hu":"Kafr es-Sajh korm\u00e1nyz\u00f3s\u00e1g","id":-4103405,"osm_relation":true},"arcs":[2]},{"type":"LineString","properties":{"kind":"region","name:en":"Kafr el-Sheikh Governorate","name":"\u0643\u0641\u0631 \u0627\u0644\u0634\u064a\u062e","sort_rank":256,"kind_detail":"4","name:eo":"Provinco Kafr a\u015d-\u015cej\u0125","name:de":"Gouvernement Kafr asch-Schaich","source":"openstreetmap.org","maritime_boundary":true,"id":-4103405,"name:ru":"\u043c\u0443\u0445\u0430\u0444\u0430\u0437\u0430 \u041a\u0430\u0444\u0440-\u044d\u0448-\u0428\u0435\u0439\u0445","min_zoom":8.0,"name:hu":"Kafr es-Sajh korm\u00e1nyz\u00f3s\u00e1g","name:pl":"Muhafaza Kafr asz-Szajch","osm_relation":true},"arcs":[3]},{"type":"LineString","properties":{"kind":"region","name:en":"Gharbiyya Governorate","name":"\u200f\u0645\u062d\u0627\u0641\u0638\u0629 \u0627\u0644\u063a\u0631\u0628\u064a","sort_rank":256,"kind_detail":"4","name:de":"Gouvernement al-Gharbiyya","source":"openstreetmap.org","min_zoom":8.0,"int_name":"Al-Gharbiyya","name:ru":"\u043c\u0443\u0445\u0430\u0444\u0430\u0437\u0430 \u0413\u0430\u0440\u0431\u0438\u044f","name:hu":"Nyugati korm\u00e1nyz\u00f3s\u00e1g","id":-3584607,"osm_relation":true},"arcs":[4]},{"type":"LineString","properties":{"kind":"region","name:en":"Matrouh Governorate","name":"\u0645\u0637\u0631\u0648\u062d","sort_rank":256,"kind_detail":"4","name:de":"Gouvernement Matruh","source":"openstreetmap.org","min_zoom":8.0,"name:ru":"\u043c\u0443\u0445\u0430\u0444\u0430\u0437\u0430 \u041c\u0430\u0442\u0440\u0443\u0445","name:hu":"Matr\u00fah korm\u00e1nyz\u00f3s\u00e1g","id":-3061826,"osm_relation":true},"arcs":[5]},{"type":"LineString","properties":{"kind":"region","name:en":"Matrouh Governorate","name":"\u0645\u0637\u0631\u0648\u062d","sort_rank":256,"kind_detail":"4","min_zoom":8.0,"name:de":"Gouvernement Matruh","source":"openstreetmap.org","maritime_boundary":true,"name:ru":"\u043c\u0443\u0445\u0430\u0444\u0430\u0437\u0430 \u041c\u0430\u0442\u0440\u0443\u0445","name:hu":"Matr\u00fah korm\u00e1nyz\u00f3s\u00e1g","id":-3061826,"osm_relation":true},"arcs":[6]}]},"roads":{"type":"GeometryCollection","geometries":[{"type":"LineString","properties":{"source":"openstreetmap.org","kind":"major_road","sort_rank":381,"kind_detail":"trunk","ref":"7","min_zoom":8.0,"id":189353408},"arcs":[13]},{"type":"LineString","properties":{"kind":"major_road","name:en":"Sabaa Banat","sort_rank":380,"landuse_kind":"urban_area","source":"openstreetmap.org","min_zoom":8.0,"kind_detail":"primary","id":509196849},"arcs":[14]},{"type":"LineString","properties":{"source":"openstreetmap.org","kind":"major_road","name:en":"Circular Road","sort_rank":381,"kind_detail":"trunk","min_zoom":8.0,"id":236023064},"arcs":[15]},{"type":"MultiLineString","properties":{"kind":"major_road","name:en":"North Coast","sort_rank":380,"kind_detail":"primary","source":"openstreetmap.org","min_zoom":8.0,"landuse_kind":"urban_area","ref":"01"},"arcs":[[16],[17],[18],[19],[20]]},{"type":"MultiLineString","properties":{"source":"openstreetmap.org","kind":"major_road","name:en":"Ahmed Oraby","landuse_kind":"urban_area","sort_rank":380,"kind_detail":"primary","min_zoom":8.0},"arcs":[[21],[22]]},{"type":"MultiLineString","properties":{"source":"openstreetmap.org","kind":"major_road","name:en":"Malak Hefney","landuse_kind":"urban_area","sort_rank":380,"kind_detail":"primary","min_zoom":8.0},"arcs":[[23],[24]]},{"type":"MultiLineString","properties":{"source":"openstreetmap.org","kind":"major_road","name:en":"El Nasr","landuse_kind":"urban_area","sort_rank":380,"kind_detail":"primary","min_zoom":8.0},"arcs":[[25],[26]]},{"type":"MultiLineString","properties":{"source":"openstreetmap.org","kind":"major_road","name:en":"El Horreya Road","landuse_kind":"urban_area","sort_rank":380,"kind_detail":"primary","min_zoom":8.0},"arcs":[[27],[28],[29]]},{"type":"LineString","properties":{"kind":"major_road","name:en":"Mohamed Nagib","sort_rank":380,"kind_detail":"primary","name:ar":"\u0634\u0627\u0631\u0639 \u0627\u0644\u062a\u0631\u0639\u0629 \u0627\u0644\u0645\u0631\u062f\u0648\u0645\u0629","source":"openstreetmap.org","min_zoom":8.0,"landuse_kind":"urban_area","id":28806136},"arcs":[30]},{"type":"MultiLineString","properties":{"source":"openstreetmap.org","kind":"major_road","name:en":"El-Badala Bridge","sort_rank":381,"kind_detail":"trunk","min_zoom":8.0},"arcs":[[31],[32]]},{"type":"MultiLineString","properties":{"source":"openstreetmap.org","kind":"major_road","name:en":"Borg El Arab road","sort_rank":380,"kind_detail":"primary","min_zoom":8.0},"arcs":[[33],[34]]},{"type":"LineString","properties":{"kind":"major_road","name:en":"Nabawi El Mohandes","sort_rank":380,"landuse_kind":"urban_area","source":"openstreetmap.org","min_zoom":8.0,"kind_detail":"primary","id":178126177},"arcs":[35]},{"type":"LineString","properties":{"kind":"major_road","name:en":"El Korneesh","sort_rank":381,"kind_detail":"trunk","source":"openstreetmap.org","min_zoom":8.0,"alt_name:en":"El Geesh","name:zh":"\u6ee8\u6d77\u8def","id":385724395},"arcs":[36]},{"type":"MultiLineString","properties":{"source":"openstreetmap.org","kind":"major_road","name:en":"Al-Sharikat","sort_rank":380,"kind_detail":"primary","min_zoom":8.0},"arcs":[[37],[38]]},{"type":"LineString","properties":{"source":"openstreetmap.org","kind":"major_road","name:en":"Ahmed Zewail","sort_rank":380,"kind_detail":"primary","min_zoom":8.0,"id":292849566},"arcs":[39]},{"type":"MultiLineString","properties":{"kind":"highway","name:en":"Alexandria - Cairo Desert Road","sort_rank":383,"landuse_kind":"urban_area","source":"openstreetmap.org","min_zoom":8.0,"kind_detail":"motorway","id":93885838},"arcs":[[40],[41]]},{"type":"MultiLineString","properties":{"kind":"major_road","name:en":"El Korneesh","sort_rank":381,"landuse_kind":"urban_area","source":"openstreetmap.org","min_zoom":8.0,"alt_name:en":"El Geesh","kind_detail":"trunk","name:zh":"\u6ee8\u6d77\u8def"},"arcs":[[42],[43],[44],[45],[46],[47],[48]]},{"type":"LineString","properties":{"kind":"major_road","name:en":"Ibrahim Sherif","sort_rank":380,"landuse_kind":"urban_area","source":"openstreetmap.org","min_zoom":8.0,"kind_detail":"primary","id":34821989},"arcs":[49]},{"type":"MultiLineString","properties":{"source":"openstreetmap.org","kind":"major_road","landuse_kind":"urban_area","sort_rank":380,"kind_detail":"primary","ref":"20","min_zoom":8.0},"arcs":[[50],[51]]},{"type":"MultiLineString","properties":{"kind":"major_road","name:en":"El Korneesh","sort_rank":381,"landuse_kind":"urban_area","source":"openstreetmap.org","min_zoom":8.0,"alt_name:en":"El Geesh","kind_detail":"trunk"},"arcs":[[52],[53]]},{"type":"LineString","properties":{"kind":"major_road","name:en":"Desouk - Fouah Road","sort_rank":380,"kind_detail":"primary","name:ar":"\u0637\u0631\u064a\u0642 \u062f\u0633\u0648\u0642 \u0641\u0648\u0647","source":"openstreetmap.org","min_zoom":8.0,"id":97608307},"arcs":[54]},{"type":"MultiLineString","properties":{"kind":"highway","name:en":"Cairo Alexandria Desert Road","sort_rank":383,"kind_detail":"motorway","alt_name:ar":"\u0637\u0631\u064a\u0642 \u0627\u0644\u0642\u0627\u0647\u0631\u0629-\u0627\u0644\u0623\u0633\u0643\u0646\u062f\u0631\u064a\u0629 \u0627\u0644\u0635\u062d\u0631\u0627\u0648\u064a","source":"openstreetmap.org","min_zoom":8.0,"ref":"M75"},"arcs":[[55],[56]]},{"type":"MultiLineString","properties":{"source":"openstreetmap.org","kind":"major_road","name:en":"14 May","landuse_kind":"urban_area","sort_rank":380,"kind_detail":"primary","min_zoom":8.0},"arcs":[[57],[58],[59]]},{"type":"LineString","properties":{"source":"openstreetmap.org","kind":"major_road","name:en":"Desouk High Bridge","sort_rank":381,"kind_detail":"trunk","min_zoom":8.0},"arcs":[60]},{"type":"MultiLineString","properties":{"sort_rank":381,"source":"openstreetmap.org","min_zoom":8.0,"kind":"major_road","kind_detail":"trunk"},"arcs":[[61],[62],[63],[64],[65],[66],[67],[68],[69]]},{"type":"MultiLineString","properties":{"source":"openstreetmap.org","kind":"major_road","landuse_kind":"urban_area","sort_rank":380,"kind_detail":"primary","ref":"7","min_zoom":8.0},"arcs":[[70],[71]]},{"type":"MultiLineString","properties":{"source":"openstreetmap.org","kind":"major_road","name:en":"Waday Al Kamar Road","landuse_kind":"urban_area","sort_rank":380,"kind_detail":"primary","min_zoom":8.0},"arcs":[[72],[73],[74],[75],[76],[77]]},{"type":"MultiLineString","properties":{"kind":"highway","name:en":"\u0650Alexandria - Cairo Desert Road","sort_rank":383,"landuse_kind":"urban_area","source":"openstreetmap.org","min_zoom":8.0,"kind_detail":"motorway","id":25190591},"arcs":[[78],[79]]},{"type":"LineString","properties":{"kind":"highway","name:en":"Suez Canal Road","sort_rank":383,"kind_detail":"motorway","source":"openstreetmap.org","min_zoom":8.0,"landuse_kind":"urban_area","name:zh":"\u82cf\u4f0a\u58eb\u8fd0\u6cb3\u8def","id":25212295},"arcs":[80]},{"type":"MultiLineString","properties":{"source":"openstreetmap.org","kind":"major_road","name:en":"Al-Geish","sort_rank":380,"kind_detail":"primary","min_zoom":8.0},"arcs":[[81],[82],[83],[84]]},{"type":"MultiLineString","properties":{"kind":"major_road","name:en":"El Geesh","sort_rank":381,"landuse_kind":"urban_area","source":"openstreetmap.org","min_zoom":8.0,"kind_detail":"trunk","id":178126173},"arcs":[[85],[86]]},{"type":"LineString","properties":{"kind":"major_road","name:en":"Stanley Bridge","sort_rank":381,"kind_detail":"trunk","name:ar":"\u0643\u0648\u0628\u0631\u0649 \u0633\u062a\u0627\u0646\u0644\u0649","source":"openstreetmap.org","min_zoom":8.0,"landuse_kind":"urban_area","id":384991457},"arcs":[87]},{"type":"MultiLineString","properties":{"kind":"major_road","name:en":"Cairo - Alexandria Agricultural Road","sort_rank":381,"landuse_kind":"urban_area","source":"openstreetmap.org","min_zoom":8.0,"kind_detail":"trunk","ref":"01"},"arcs":[[88],[89],[90],[91],[92],[93],[94],[95],[96],[97],[98],[99],[100],[101],[102],[103]]},{"type":"MultiLineString","properties":{"source":"openstreetmap.org","kind":"major_road","landuse_kind":"urban_area","sort_rank":380,"kind_detail":"primary","min_zoom":8.0},"arcs":[[104],[105],[106],[107],[108],[109],[110],[111],[112],[113],[114],[115],[116],[117],[118],[119],[120],[121],[122],[123],[124],[125],[126],[127],[128],[129],[130],[131],[132],[133],[134],[135],[136],[137],[138],[139],[140],[141],[142],[143],[144],[145],[146],[147],[148],[149],[150],[151],[152],[153],[154],[155],[156],[157],[158],[159],[160],[161],[162],[163],[164],[165],[166],[167],[168],[169],[170],[171],[172],[173],[174],[175],[176],[177],[178],[179],[180],[181],[182],[183],[184],[185],[186],[187],[188],[189],[190],[191],[192],[193],[194],[195],[196],[197],[198],[199],[200],[201],[202],[203],[204],[205],[206],[207],[208]]},{"type":"MultiLineString","properties":{"source":"openstreetmap.org","kind":"highway","landuse_kind":"urban_area","sort_rank":383,"kind_detail":"motorway","min_zoom":8.0},"arcs":[[209],[210],[211],[212],[213],[214],[215],[216],[217],[218],[219],[220],[221]]},{"type":"MultiLineString","properties":{"source":"openstreetmap.org","kind":"major_road","name:en":"Albert El Awwal","landuse_kind":"urban_area","sort_rank":380,"kind_detail":"primary","min_zoom":8.0},"arcs":[[222],[223],[224],[225],[226],[227],[228]]},{"type":"LineString","properties":{"kind":"major_road","name:en":"Al Kabary Fast Road","sort_rank":381,"landuse_kind":"urban_area","source":"openstreetmap.org","min_zoom":8.0,"kind_detail":"trunk","id":174458515},"arcs":[229]},{"type":"LineString","properties":{"source":"openstreetmap.org","kind":"highway","name:en":"International Highway","sort_rank":383,"kind_detail":"motorway","min_zoom":8.0,"id":88223992},"arcs":[230]},{"type":"MultiLineString","properties":{"source":"openstreetmap.org","kind":"major_road","name:en":"International Coastal Road","sort_rank":381,"kind_detail":"trunk","min_zoom":8.0},"arcs":[[231],[232],[233],[234],[235],[236],[237]]},{"type":"MultiLineString","properties":{"source":"openstreetmap.org","kind":"highway","name:en":"Ring Road","sort_rank":383,"kind_detail":"motorway","min_zoom":8.0},"arcs":[[238],[239]]},{"type":"LineString","properties":{"source":"openstreetmap.org","kind":"major_road","name:en":"Desouk - Kafr El-Sheikh Road","sort_rank":380,"kind_detail":"primary","ref":"7","min_zoom":8.0},"arcs":[240]},{"type":"LineString","properties":{"kind":"major_road","name:en":"Bor Said","sort_rank":380,"landuse_kind":"urban_area","source":"openstreetmap.org","min_zoom":8.0,"kind_detail":"primary","id":27000989},"arcs":[241]},{"type":"MultiLineString","properties":{"kind":"major_road","name:en":"Hanoville","sort_rank":380,"kind_detail":"primary","source":"openstreetmap.org","min_zoom":8.0,"landuse_kind":"urban_area","ref":"01"},"arcs":[[242],[243]]},{"type":"LineString","properties":{"source":"openstreetmap.org","kind":"highway","name:en":"\u0650Alexandria - Cairo Desert Road","sort_rank":383,"kind_detail":"motorway","min_zoom":8.0,"id":25190591},"arcs":[244]},{"type":"MultiLineString","properties":{"source":"openstreetmap.org","kind":"major_road","name:en":"Albert El Awal","landuse_kind":"urban_area","sort_rank":380,"kind_detail":"primary","min_zoom":8.0},"arcs":[[245],[246],[247]]},{"type":"MultiLineString","properties":{"source":"openstreetmap.org","kind":"highway","name:en":"Mehwar al-Tameer","landuse_kind":"urban_area","sort_rank":383,"kind_detail":"motorway","min_zoom":8.0},"arcs":[[248],[249]]},{"type":"LineString","properties":{"kind":"major_road","name:en":"International Coastal Road","sort_rank":381,"kind_detail":"trunk","name:ar":"\u0627\u0644\u0637\u0631\u064a\u0642 \u0627\u0644\u062f\u0648\u0644\u064a \u0627\u0644\u0633\u0631\u064a\u0639","source":"openstreetmap.org","min_zoom":8.0,"id":97535170},"arcs":[250]},{"type":"LineString","properties":{"kind":"major_road","name:en":"Stanley Bridge","sort_rank":381,"landuse_kind":"urban_area","source":"openstreetmap.org","min_zoom":8.0,"kind_detail":"trunk","id":25189328},"arcs":[251]},{"type":"LineString","properties":{"kind":"major_road","name:en":"Al-Sa'aa Bridge","sort_rank":380,"kind_detail":"primary","name:ar":"\u0643\u0648\u0628\u0631\u064a \u0627\u0644\u0633\u0627\u0639\u0629","source":"openstreetmap.org","min_zoom":8.0,"landuse_kind":"urban_area","id":483476897},"arcs":[252]},{"type":"MultiLineString","properties":{"sort_rank":380,"kind_detail":"primary","min_zoom":8.0,"kind":"major_road","source":"openstreetmap.org"},"arcs":[[253],[254],[255],[256],[257],[258],[259],[260],[261],[262],[263],[264],[265],[266],[267],[268],[269],[270],[271],[272],[273],[274],[275],[276],[277],[278],[279],[280],[281],[282],[283],[284],[285],[286],[287]]},{"type":"MultiLineString","properties":{"source":"openstreetmap.org","kind":"major_road","sort_rank":380,"kind_detail":"primary","ref":"7","min_zoom":8.0},"arcs":[[288],[289],[290],[291]]},{"type":"MultiLineString","properties":{"kind":"major_road","name:en":"Al Kabary Fast Road","sort_rank":381,"landuse_kind":"urban_area","source":"openstreetmap.org","min_zoom":8.0,"kind_detail":"trunk","ref":"01"},"arcs":[[292],[293]]},{"type":"MultiLineString","properties":{"source":"openstreetmap.org","kind":"major_road","name:en":"Victor Emanuel Al-Thaleth","landuse_kind":"urban_area","sort_rank":380,"kind_detail":"primary","min_zoom":8.0},"arcs":[[294],[295],[296]]},{"type":"MultiLineString","properties":{"source":"openstreetmap.org","kind":"major_road","name:en":"Kafr Al Zayat - Berket Al Sabea","sort_rank":381,"kind_detail":"trunk","min_zoom":8.0},"arcs":[[297],[298]]},{"type":"MultiLineString","properties":{"source":"openstreetmap.org","kind":"major_road","name:en":"Gawad Hosny","landuse_kind":"urban_area","sort_rank":380,"kind_detail":"primary","min_zoom":8.0},"arcs":[[299],[300]]},{"type":"LineString","properties":{"source":"openstreetmap.org","kind":"major_road","sort_rank":380,"kind_detail":"primary","name:ar":"\u0627\u0644\u062c\u064a\u0634","min_zoom":8.0},"arcs":[301]},{"type":"LineString","properties":{"kind":"major_road","name:en":"Al-Geish","sort_rank":380,"kind_detail":"primary","source":"openstreetmap.org","min_zoom":8.0,"int_name":"El-Gesh","id":311580976},"arcs":[302]},{"type":"MultiLineString","properties":{"source":"openstreetmap.org","kind":"major_road","name:en":"International Coastal Road","kind_detail":"trunk","sort_rank":381,"landuse_kind":"urban_area","min_zoom":8.0},"arcs":[[303],[304]]},{"type":"LineString","properties":{"source":"openstreetmap.org","kind":"major_road","sort_rank":380,"kind_detail":"primary","ref":"20","min_zoom":8.0},"arcs":[305]},{"type":"LineString","properties":{"source":"openstreetmap.org","kind":"major_road","name:en":"El Geesh","sort_rank":381,"kind_detail":"trunk","min_zoom":8.0,"id":178126173},"arcs":[306]},{"type":"MultiLineString","properties":{"source":"openstreetmap.org","kind":"major_road","kind_detail":"trunk","sort_rank":381,"landuse_kind":"urban_area","min_zoom":8.0},"arcs":[[307],[308],[309],[310],[311],[312],[313],[314],[315],[316],[317],[318],[319],[320],[321],[322],[323],[324],[325],[326],[327],[328],[329],[330],[331],[332],[333],[334],[335],[336],[337],[338],[339],[340],[341],[342],[343],[344],[345],[346],[347],[348],[349],[350],[351],[352],[353],[354],[355],[356],[357],[358]]},{"type":"MultiLineString","properties":{"source":"openstreetmap.org","kind":"highway","name:en":"Ring Road","landuse_kind":"urban_area","sort_rank":383,"kind_detail":"motorway","min_zoom":8.0},"arcs":[[359],[360],[361]]},{"type":"MultiLineString","properties":{"source":"openstreetmap.org","kind":"highway","name:en":"International Coastal Road","landuse_kind":"urban_area","sort_rank":383,"kind_detail":"motorway","min_zoom":8.0},"arcs":[[362],[363],[364],[365],[366],[367],[368],[369],[370],[371]]},{"type":"MultiLineString","properties":{"source":"openstreetmap.org","kind":"major_road","name:en":"Mohamed Fawzy Moaz","landuse_kind":"urban_area","sort_rank":380,"kind_detail":"primary","min_zoom":8.0},"arcs":[[372],[373],[374],[375]]},{"type":"MultiLineString","properties":{"kind":"major_road","name:en":"Al-Max","sort_rank":380,"kind_detail":"primary","source":"openstreetmap.org","min_zoom":8.0,"landuse_kind":"urban_area","ref":"01"},"arcs":[[376],[377]]},{"type":"MultiLineString","properties":{"kind":"major_road","name:en":"Bitash","sort_rank":380,"kind_detail":"primary","source":"openstreetmap.org","min_zoom":8.0,"landuse_kind":"urban_area","ref":"01"},"arcs":[[378],[379]]},{"type":"LineString","properties":{"source":"openstreetmap.org","kind":"major_road","name:en":"Qaytbay","sort_rank":380,"kind_detail":"primary","min_zoom":8.0,"id":179103022},"arcs":[380]},{"type":"LineString","properties":{"kind":"major_road","name:en":"Gamal Abdel-Nasser","sort_rank":380,"landuse_kind":"urban_area","source":"openstreetmap.org","min_zoom":8.0,"kind_detail":"primary","id":251317408},"arcs":[381]},{"type":"MultiLineString","properties":{"source":"openstreetmap.org","kind":"major_road","name:en":"Al-Max","landuse_kind":"urban_area","sort_rank":380,"kind_detail":"primary","min_zoom":8.0},"arcs":[[382],[383],[384]]},{"type":"LineString","properties":{"source":"openstreetmap.org","kind":"major_road","name:en":"Ahmed Zweil Sq.","sort_rank":380,"kind_detail":"primary","min_zoom":8.0,"id":156190701},"arcs":[385]},{"type":"MultiLineString","properties":{"source":"openstreetmap.org","kind":"major_road","landuse_kind":"urban_area","sort_rank":380,"kind_detail":"primary","ref":"01","min_zoom":8.0},"arcs":[[386],[387],[388],[389],[390]]},{"type":"LineString","properties":{"source":"openstreetmap.org","kind":"major_road","name:en":"Mustafa Kamel","landuse_kind":"urban_area","sort_rank":380,"kind_detail":"primary","min_zoom":8.0},"arcs":[391]},{"type":"MultiLineString","properties":{"source":"openstreetmap.org","kind":"major_road","name:en":"Cairo - Alexandria Agricultural Road","sort_rank":381,"kind_detail":"trunk","ref":"01","min_zoom":8.0},"arcs":[[392],[393],[394],[395],[396],[397],[398],[399]]},{"type":"MultiLineString","properties":{"kind":"major_road","name:en":"North Coast Road","sort_rank":381,"landuse_kind":"urban_area","source":"openstreetmap.org","min_zoom":8.0,"kind_detail":"trunk","ref":"01"},"arcs":[[400],[401],[402],[403],[404],[405]]},{"type":"MultiLineString","properties":{"source":"openstreetmap.org","kind":"major_road","landuse_kind":"residential","sort_rank":380,"kind_detail":"primary","min_zoom":8.0},"arcs":[[406],[407],[408],[409],[410],[411],[412],[413],[414],[415],[416],[417],[418],[419],[420]]},{"type":"MultiLineString","properties":{"sort_rank":383,"kind_detail":"motorway","min_zoom":8.0,"kind":"highway","source":"openstreetmap.org"},"arcs":[[421],[422],[423],[424],[425],[426],[427],[428],[429],[430],[431],[432],[433],[434],[435]]},{"type":"MultiLineString","properties":{"source":"openstreetmap.org","kind":"major_road","name:en":"Borg El Arab road","landuse_kind":"urban_area","sort_rank":380,"kind_detail":"primary","min_zoom":8.0},"arcs":[[436],[437]]},{"type":"MultiLineString","properties":{"source":"openstreetmap.org","kind":"major_road","name:en":"Kafr Al Zayat - Berket Al Sabea","kind_detail":"trunk","sort_rank":381,"landuse_kind":"urban_area","min_zoom":8.0},"arcs":[[438],[439],[440]]},{"type":"MultiLineString","properties":{"source":"openstreetmap.org","kind":"major_road","name:en":"North Coast Road","sort_rank":381,"kind_detail":"trunk","ref":"01","min_zoom":8.0},"arcs":[[441],[442]]},{"type":"LineString","properties":{"source":"openstreetmap.org","kind":"major_road","sort_rank":381,"kind_detail":"trunk","ref":"01","min_zoom":8.0,"id":54327488},"arcs":[443]},{"type":"MultiLineString","properties":{"kind":"highway","name:en":"Cairo Alex Desert Road","sort_rank":383,"kind_detail":"motorway","source":"openstreetmap.org","min_zoom":8.0,"landuse_kind":"urban_area","ref":"11"},"arcs":[[444],[445],[446],[447],[448],[449],[450],[451],[452],[453]]},{"type":"LineString","properties":{"source":"openstreetmap.org","kind":"major_road","name:en":"Desouk - Fouah Road","sort_rank":380,"kind_detail":"primary","min_zoom":8.0,"id":292849565},"arcs":[454]},{"type":"MultiLineString","properties":{"kind":"major_road","name:en":"Suez Canal Road","sort_rank":381,"landuse_kind":"urban_area","source":"openstreetmap.org","min_zoom":8.0,"kind_detail":"trunk","name:zh":"\u82cf\u4f0a\u58eb\u8fd0\u6cb3\u8def"},"arcs":[[455],[456],[457],[458]]},{"type":"LineString","properties":{"kind":"major_road","name:en":"Nabawi Al-Mohandes","sort_rank":380,"kind_detail":"primary","name:ar":"\u0634\u0627\u0631\u0639 \u0646\u0628\u0648\u064a \u0627\u0644\u0645\u0647\u0646\u062f\u0633","source":"openstreetmap.org","min_zoom":8.0,"landuse_kind":"urban_area","id":251667794},"arcs":[459]},{"type":"LineString","properties":{"kind":"major_road","name:en":"Kafr Al Zayat - Berket Al Sabea","sort_rank":381,"kind_detail":"trunk","source":"openstreetmap.org","min_zoom":8.0,"landuse_kind":"urban_area","ref":"01","id":305413116},"arcs":[460]},{"type":"LineString","properties":{"source":"openstreetmap.org","kind":"highway","name:en":"Alexandria - Cairo Desert Road","sort_rank":383,"kind_detail":"motorway","min_zoom":8.0,"id":93885838},"arcs":[461]},{"type":"MultiLineString","properties":{"source":"openstreetmap.org","kind":"highway","name:en":"International Coastal Road","sort_rank":383,"kind_detail":"motorway","min_zoom":8.0},"arcs":[[462],[463],[464],[465],[466],[467],[468]]},{"type":"MultiLineString","properties":{"source":"openstreetmap.org","kind":"major_road","name:en":"Fouah Road","sort_rank":380,"kind_detail":"primary","min_zoom":8.0},"arcs":[[469],[470],[471]]},{"type":"MultiLineString","properties":{"source":"openstreetmap.org","kind":"major_road","name:en":"Salah Salem","landuse_kind":"urban_area","sort_rank":380,"kind_detail":"primary","min_zoom":8.0},"arcs":[[472],[473],[474]]},{"type":"LineString","properties":{"kind":"major_road","name:en":"Qaytbay","sort_rank":380,"landuse_kind":"urban_area","source":"openstreetmap.org","min_zoom":8.0,"kind_detail":"primary","id":179103022},"arcs":[475]},{"type":"MultiLineString","properties":{"source":"openstreetmap.org","kind":"major_road","name:en":"Suez Canal Road","kind_detail":"trunk","sort_rank":381,"landuse_kind":"urban_area","min_zoom":8.0},"arcs":[[476],[477]]},{"type":"MultiLineString","properties":{"kind":"highway","name:en":"Cairo Alexandria Desert Road","sort_rank":383,"kind_detail":"motorway","alt_name:ar":"\u0637\u0631\u064a\u0642 \u0627\u0644\u0642\u0627\u0647\u0631\u0629-\u0627\u0644\u0623\u0633\u0643\u0646\u062f\u0631\u064a\u0629 \u0627\u0644\u0635\u062d\u0631\u0627\u0648\u064a","source":"openstreetmap.org","min_zoom":8.0,"landuse_kind":"urban_area","ref":"M75"},"arcs":[[478],[479]]},{"type":"LineString","properties":{"source":"openstreetmap.org","kind":"major_road","name:en":"Corniche Al-Nil","sort_rank":380,"kind_detail":"primary","min_zoom":8.0,"id":236022016},"arcs":[480]},{"type":"LineString","properties":{"kind":"major_road","name:en":"Tut Ankh Amoun","sort_rank":380,"landuse_kind":"urban_area","source":"openstreetmap.org","min_zoom":8.0,"kind_detail":"primary","id":434703408},"arcs":[481]},{"type":"LineString","properties":{"kind":"major_road","name:en":"Malik Hanafy","sort_rank":380,"landuse_kind":"urban_area","source":"openstreetmap.org","min_zoom":8.0,"kind_detail":"primary","id":384656196},"arcs":[482]},{"type":"LineString","properties":{"kind":"major_road","name:en":"Al-Awayed Bridge","sort_rank":381,"landuse_kind":"urban_area","source":"openstreetmap.org","min_zoom":8.0,"kind_detail":"trunk","id":33222802},"arcs":[483]},{"type":"MultiLineString","properties":{"source":"openstreetmap.org","kind":"major_road","kind_detail":"trunk","sort_rank":381,"landuse_kind":"urban_area","ref":"01","min_zoom":8.0},"arcs":[[484],[485],[486],[487],[488]]},{"type":"MultiLineString","properties":{"source":"openstreetmap.org","kind":"major_road","name:en":"Abu Qir","landuse_kind":"urban_area","sort_rank":380,"kind_detail":"primary","min_zoom":8.0},"arcs":[[489],[490],[491],[492],[493]]},{"type":"MultiLineString","properties":{"source":"openstreetmap.org","kind":"major_road","name:en":"El Mandara","landuse_kind":"urban_area","sort_rank":380,"kind_detail":"primary","min_zoom":8.0},"arcs":[[494],[495]]},{"type":"MultiLineString","properties":{"source":"openstreetmap.org","kind":"major_road","name:en":"Cairo - Alexandria Agricultural Road","kind_detail":"trunk","sort_rank":381,"landuse_kind":"urban_area","min_zoom":8.0},"arcs":[[496],[497],[498]]}]},"earth":{"type":"GeometryCollection","geometries":[{"type":"MultiPolygon","properties":{"sort_rank":10,"source":"naturalearthdata.com","kind":"earth","min_zoom":0.0,"id":4728},"arcs":[[[499]],[[500]]]}]},"landuse":{"type":"GeometryCollection","geometries":[{"type":"MultiPolygon","properties":{"source":"naturalearthdata.com","kind":"urban_area","name":"","area":1490935973,"sort_rank":11,"min_zoom":4.0},"arcs":[[[501]],[[502]],[[503]],[[504]],[[505]],[[506]],[[507]],[[508]],[[509]],[[510]]]},{"type":"Polygon","properties":{"kind":"residential","name:en":"Borg El Arab El Gadida","name":"\u0645\u062f\u064a\u0646\u0629 \u0628\u0631\u062c \u0627\u0644\u0639\u0631\u0628 \u0627\u0644\u062c\u062f\u064a\u062f\u0629","area":18240800,"sort_rank":20,"source":"openstreetmap.org","min_zoom":8.0,"tier":2,"id":289019132},"arcs":[[511]]}]}},"type":"Topology","transform":{"translate":[29.53125,30.7512777763],"scale":[0.0003433228,0.0002931847]},"arcs":[[[4096,3529],[-1277,-389],[-186,77],[-181,35],[-114,-1],[-220,-58],[-823,-545],[-919,-718],[-376,-191]],[[3583,804],[32,-1],[70,-81],[129,2],[77,36],[114,-36],[55,79],[36,0]],[[2423,2448],[67,-87],[116,-36],[12,-69],[-25,-108],[73,-18],[40,-134],[71,38],[102,-65],[-2,-198],[-65,-105],[18,-35],[67,-7],[-16,-88],[51,-40],[81,38],[121,-97],[41,-99],[106,-116],[192,-146],[-15,-147],[99,-66],[26,-59]],[[4096,3529],[-1277,-389],[-186,77],[-181,35],[-226,-20],[-207,-94],[-44,-30],[448,-660]],[[3583,804],[-41,-63],[107,-127],[-82,-161],[96,-47],[16,-46],[-92,-117],[20,-15],[73,35],[51,-30],[-162,-143],[-7,-34],[19,-32],[60,21],[43,-41],[-2,-4]],[[201,0],[-23,817],[-64,147]],[[114,964],[-114,273]],[[1092,1507],[59,26],[60,70],[197,-53],[118,-65],[128,-156],[1043,-323],[80,-132],[238,-163],[540,-500],[195,20],[346,-78]],[[4096,2392],[-1,-3],[-10,-7],[-1,-15],[4,-3],[7,0],[1,0],[0,-9],[-32,-30],[-50,-31],[-49,-16],[-40,11],[-1,16],[4,4],[8,0],[9,3],[-35,18],[-41,-4],[-37,-10],[-28,-4],[-43,19],[-38,25],[-32,15],[-26,-10],[-43,-23],[-54,-47],[-45,-60],[-19,-59],[-20,0],[-33,48],[-61,50],[-58,16],[-27,-55],[-35,-33],[-79,-24],[-82,-4],[-44,26],[-20,0],[-18,-17],[-21,0],[-60,17],[0,25],[44,67],[13,1],[25,14],[116,9],[51,18],[110,77],[24,9],[40,7],[16,7],[124,85],[155,74],[225,129],[207,79],[0,-405]],[[4096,4096],[0,-1284],[-760,-271],[-410,-111],[-126,-15],[-105,12],[-90,37],[-79,60],[-106,60],[-19,-61],[44,-100],[81,-62],[-58,11],[-41,46],[-26,64],[-14,65],[-20,0],[25,-119],[-12,-143],[-40,-137],[-63,-104],[-178,-161],[-103,-58],[-108,-28],[0,-23],[172,9],[47,14],[0,-23],[-10,-1],[-21,3],[-9,-2],[0,-21],[52,12],[43,22],[41,10],[45,-23],[-30,-91],[-12,-23],[-21,10],[-14,19],[-6,28],[2,36],[-19,0],[-3,-27],[-5,-14],[-6,-11],[-7,-20],[-10,8],[-2,1],[-8,17],[-88,-85],[-12,-23],[-13,-2],[-25,5],[-16,19],[15,39],[-121,-72],[-31,18],[-32,25],[-10,27],[34,23],[-10,3],[-9,0],[-4,5],[2,18],[24,14],[33,38],[24,15],[-107,12],[-109,33],[-10,3],[-83,66],[9,98],[-80,-44],[-1,-18],[4,-4],[8,0],[9,-4],[-27,-20],[-20,-23],[-23,-19],[-40,-8],[-24,-18],[-58,-82],[-38,-18],[-40,-27],[-136,-122],[-33,-38],[-22,0],[-17,36],[-23,0],[-23,-24],[-16,-35],[24,13],[11,2],[26,-38],[-134,-121],[-85,-40],[-81,19],[-45,-90],[-429,-315],[-23,-25],[-21,-34],[-16,-8],[-122,-64],[-73,-55],[0,3334],[4096,0]],[[4096,2392],[-1,-3],[-10,-7],[-1,-15],[4,-3],[7,0],[1,0]],[[4096,2355],[-32,-30],[-50,-31],[-49,-16],[-40,11],[-1,16],[4,4],[8,0],[9,3],[-35,18],[-41,-4],[-37,-10],[-28,-4],[-43,19],[-38,25],[-32,15],[-26,-10],[-43,-23],[-54,-47],[-45,-60],[-19,-59],[-20,0],[-33,48],[-61,50],[-58,16],[-27,-55],[-35,-33],[-79,-24],[-82,-4],[-44,26],[-20,0],[-18,-17],[-21,0],[-60,17],[0,25],[44,67],[13,1],[25,14],[116,9],[51,18],[110,77],[24,9],[40,7],[16,7],[124,85],[155,74],[225,129],[207,79]],[[4096,2812],[-760,-271],[-410,-111],[-126,-15],[-105,12],[-90,37],[-79,60],[-106,60],[-19,-61],[44,-100],[81,-62],[-58,11],[-41,46],[-26,64],[-14,65],[-20,0],[25,-119],[-12,-143],[-40,-137],[-63,-104],[-178,-161],[-103,-58],[-108,-28],[0,-23],[172,9],[47,14],[0,-23],[-10,-1],[-21,3],[-9,-2],[0,-21],[52,12],[43,22],[41,10],[45,-23],[-30,-91],[-12,-23],[-21,10],[-14,19],[-6,28],[2,36],[-19,0],[-3,-27],[-5,-14],[-6,-11],[-7,-20],[-10,8],[-2,1],[-8,17],[-88,-85],[-12,-23],[-13,-2],[-25,5],[-16,19],[15,39],[-121,-72],[-31,18],[-32,25],[-10,27],[34,23],[-10,3],[-9,0],[-4,5],[2,18],[24,14],[33,38],[24,15],[-107,12],[-109,33],[-10,3],[-83,66],[9,98],[-80,-44],[-1,-18],[4,-4],[8,0],[9,-4],[-27,-20],[-20,-23],[-23,-19],[-40,-8],[-24,-18],[-58,-82],[-38,-18],[-40,-27],[-136,-122],[-33,-38],[-22,0],[-17,36],[-23,0],[-23,-24],[-16,-35],[24,13],[11,2],[26,-38],[-134,-121],[-85,-40],[-81,19],[-45,-90],[-429,-315],[-23,-25],[-21,-34],[-16,-8],[-122,-64],[-73,-55]],[[3022,1121],[-2,-1]],[[1036,1478],[8,20]],[[3275,1257],[17,23]],[[668,1165],[-67,-44],[-7,-5]],[[594,1116],[-1,-2]],[[594,1116]],[[594,1116],[1,-1]],[[596,1114],[72,51]],[[1055,1532],[-3,-9]],[[1054,1522],[3,9]],[[1517,1844],[-106,-40]],[[1411,1804],[106,39]],[[1039,1524],[-10,-7]],[[1029,1516],[10,8]],[[1160,1558],[-45,-24],[45,24]],[[1197,1598],[-37,-40]],[[1161,1558],[36,40]],[[1305,1617],[-11,29],[27,30]],[[3296,1289],[-4,-9]],[[3292,1280],[4,9]],[[12,520],[46,-89]],[[60,433],[-45,84]],[[1411,1804],[30,-40]],[[1305,1737],[28,32]],[[3229,1299],[5,3]],[[3280,1322],[-15,-5]],[[3224,1360],[39,-41]],[[1014,1228],[-61,-35]],[[1158,1461],[12,-55],[-23,-27]],[[1032,1544],[7,-1]],[[1039,1543],[36,-5]],[[1075,1538],[1,0],[182,140],[47,59]],[[1212,1647],[-137,-109]],[[1075,1538],[-1,-1],[-35,6]],[[1039,1543],[-7,1]],[[1333,1769],[78,35]],[[1209,1612],[8,-5]],[[2566,2152],[5,-15]],[[2752,1001],[-1,38]],[[1022,1564],[10,-20]],[[1032,1544],[-10,21]],[[3023,1556],[169,-175]],[[827,797],[305,-554],[218,-243]],[[1351,0],[-219,244],[-305,556]],[[1208,1579],[29,-9]],[[1237,1570],[-28,10]],[[1237,1570],[4,-2]],[[3229,1222],[46,35]],[[251,865],[1,0]],[[252,866],[1,-1]],[[373,788],[1,0]],[[1537,1630],[144,-50],[-144,51]],[[1610,1609],[-13,10]],[[3292,1280],[-91,-68],[28,10]],[[3272,1247],[-2,0]],[[3303,1328],[-7,-39]],[[3296,1289],[9,41]],[[2795,955],[-10,-8]],[[4051,1274],[18,-15]],[[893,1341],[43,-54]],[[936,1287],[0,-1]],[[936,1286],[13,-96]],[[950,1186],[-13,99],[-1,1]],[[936,1286],[0,1]],[[936,1287],[-41,56]],[[954,1193],[60,33]],[[1148,1379],[32,36]],[[1180,1415],[-21,46]],[[3226,1305],[-18,29]],[[3226,1305],[3,-6]],[[3258,1259],[10,-10]],[[3275,1242],[-8,8]],[[1278,1714],[-57,-59]],[[1411,1804],[-77,-33]],[[1218,1652],[-6,-5]],[[1439,1527],[-33,15],[-135,2],[-105,-73]],[[1166,1470],[105,74],[168,-18]],[[1860,1256],[-46,15],[-61,11],[-14,-3],[-73,15]],[[1666,1294],[72,-15],[75,-9],[47,-14]],[[2800,857],[-113,77]],[[2688,933],[112,-76]],[[3648,218],[48,10]],[[3696,228],[2,0]],[[3734,213],[-18,12],[-20,3]],[[3696,228],[-9,1],[-37,-9]],[[3734,213],[32,-19],[18,16],[2,12]],[[3785,222],[-51,-9]],[[3858,208],[-45,11],[-25,4]],[[3788,223],[-2,0]],[[3786,223],[2,0]],[[3788,223],[25,-5],[45,-11]],[[7,541]],[[8,539],[1,0]],[[15,527]],[[22,515]],[[146,490],[-8,-5]],[[147,490],[-1,0]],[[244,584],[-97,-93]],[[149,488],[-2,2]],[[147,490],[98,93]],[[180,449],[-6,8]],[[225,573],[-1,1]],[[715,992],[3,-3]],[[718,989],[5,-8]],[[723,981],[11,-16]],[[716,987],[1,1]],[[717,988],[1,1]],[[718,989]],[[731,972],[-8,9]],[[723,981],[-6,7]],[[717,988]],[[737,1216]],[[823,1288],[-2,-4]],[[862,1320],[-38,-23]],[[1022,1565],[1,3]],[[1031,1469],[2,1]],[[1044,1498],[8,23]],[[1161,1558],[-1,0]],[[1160,1558]],[[1160,1558]],[[1160,1558],[2,-1]],[[1173,1560],[1,0]],[[1186,1586],[1,0]],[[1189,1571],[1,1]],[[1241,1568],[39,-24]],[[1257,1662],[-2,-2]],[[1357,1772],[8,-11]],[[1365,1761],[42,-33]],[[1407,1728],[-38,31],[-3,3]],[[1366,1762],[-8,10]],[[1360,1754],[5,7]],[[1365,1761],[1,1]],[[1366,1762],[4,6]],[[1374,1694],[-13,-7]],[[1370,1768],[30,34]],[[1400,1802],[-30,-34]],[[1380,1697],[0,1]],[[1381,1700],[1,-1]],[[1401,1717],[-1,0]],[[1401,1719],[1,0]],[[1411,1803],[1,-1]],[[1417,1732],[-1,0]],[[1418,1733],[1,0]],[[1449,1755],[-19,58]],[[1448,1753],[-3,-6]],[[1449,1755],[-3,-2]],[[1481,1817],[-32,-62]],[[1486,1820],[-5,-3]],[[1481,1817],[1,2]],[[1482,1819],[0,-1]],[[1517,1844],[35,106],[-35,-106]],[[1537,1901],[10,-2]],[[1547,1899],[-10,3]],[[1552,1896],[-5,3]],[[2679,1013],[46,-14]],[[2725,999]],[[2725,999],[1,0]],[[2726,999],[1,0]],[[2717,1001],[-1,-1]],[[2716,1000],[-3,-2]],[[2713,998],[-6,-4],[-26,-36]],[[2682,956],[25,37],[6,5]],[[2713,998],[3,2]],[[2716,1000],[1,1]],[[2708,1035],[-2,0],[3,-2],[16,-34]],[[2725,999]],[[2725,999],[6,-12]],[[2710,1032],[1,0]],[[2711,1032]],[[2732,986],[-6,13]],[[2726,999]],[[2726,999],[-15,33]],[[2727,999],[-1,0]],[[2726,999],[-1,0]],[[2725,999]],[[2725,999],[-12,-1]],[[2713,998]],[[2713,998],[-2,0]],[[2773,882],[-2,4]],[[2771,886],[-4,8]],[[2779,943],[-12,-46],[4,-11]],[[2771,886],[2,-4]],[[2779,943],[3,2],[3,2],[-6,-4]],[[4072,1256],[-1,1]],[[4085,1256],[1,-1],[10,5]],[[4096,1260],[-10,-4]],[[4096,1239],[-27,20],[27,-20]],[[1028,1517],[1,-1]],[[1161,1558],[-1,0]],[[1160,1558]],[[1160,1558]],[[1160,1558],[1,0]],[[1189,1584],[0,1],[-1,-1],[1,0]],[[1194,1558],[-2,0],[0,-1],[1,-1],[1,2]],[[1209,1580],[-2,1],[-1,-1],[1,-2],[2,2]],[[1518,1844],[-1,0],[0,-1],[1,1]],[[220,669],[-71,-43],[16,-77],[-19,-58]],[[147,491],[19,56],[-15,80],[69,42]],[[308,876],[54,-84]],[[363,792],[-53,86]],[[734,964],[-210,-129]],[[533,836],[209,119]],[[681,1065],[-1,0]],[[680,1064],[2,1]],[[735,966],[-19,26]],[[1176,1425],[-1,-2]],[[2676,1011],[39,29],[14,17]],[[2727,1058],[-50,-46]],[[2704,1033],[2,2]],[[1188,1584],[1,-4]],[[1189,1580],[0,-5],[1,-3]],[[1190,1572],[-1,8]],[[1189,1580],[-1,3]],[[1189,1571],[3,-13]],[[1192,1558],[-2,13]],[[1194,1557],[37,-14],[-37,14]],[[1057,1419],[-6,-3]],[[2600,2068],[-22,-15]],[[2604,2071],[4,11]],[[2608,2082],[15,40],[13,59]],[[2746,2302],[-34,-9],[-28,-31],[-48,-81],[-13,-38],[0,-21],[-15,-40]],[[2608,2082],[-4,-10]],[[2637,2181],[75,112],[36,9]],[[3935,2729],[161,53]],[[4096,2783],[-156,-52]],[[1232,1450],[30,20],[67,-18],[26,29],[-1,11]],[[1354,1492],[-25,-40],[-67,19],[-24,-15]],[[3313,1334],[262,78],[46,61],[56,-8]],[[1112,1561],[84,51]],[[700,1186],[-32,-21]],[[668,1165],[15,5],[17,15]],[[1014,1226],[134,153]],[[1188,1588],[0,-4]],[[1188,1584],[0,-1]],[[1188,1584]],[[680,1065],[-105,-13],[-244,-184]],[[331,868],[236,177],[113,19]],[[2636,2181],[1,0]],[[1221,1655],[-3,-3]],[[1327,1683],[-11,-9]],[[29,503]],[[33,495]],[[34,492],[1,0]],[[34,490],[1,1]],[[49,455]],[[169,338],[9,-1]],[[777,640],[-336,42],[-28,-14]],[[413,668]],[[413,668],[-169,-84]],[[245,583],[168,85]],[[413,668]],[[413,668],[-33,95]],[[379,763],[34,-95]],[[413,668]],[[413,668],[0,-1]],[[1023,1568],[0,1]],[[2681,958],[-10,-13]],[[2674,943],[8,13]],[[3201,1212],[-69,-9]],[[3208,1334],[18,-29]],[[3209,1330],[17,-33],[0,-1],[2,-2]],[[3228,1294],[0,-1]],[[3212,1216],[52,-58],[97,-22],[36,-56],[27,-137]],[[3226,1297],[3,1]],[[3230,1295],[-2,-1]],[[3228,1294]],[[3237,1280],[2,1]],[[3260,1257],[-22,25]],[[3265,1317],[-2,2]],[[3264,1317],[1,0]],[[3265,1317],[37,12]],[[3302,1329],[-22,-7]],[[3312,1333],[-8,-3]],[[3305,1330],[7,3]],[[3313,1334],[-1,-1]],[[3020,1120],[-225,-165]],[[3132,1203],[-110,-82]],[[3313,1334]],[[3677,1465],[233,-40],[52,-91],[89,-60]],[[1051,1416],[91,41]],[[1142,1458],[-90,-41]],[[1216,1605],[-10,-24]],[[1208,1581],[8,24]],[[1215,1603],[1,2]],[[3796,166],[297,-157],[3,-1]],[[4096,9],[-299,157]],[[1160,1557],[12,3]],[[1173,1560],[-12,-2]],[[3267,1250],[-7,7]],[[3238,1282],[-12,23]],[[3940,2731],[-672,-300],[-522,-129]],[[2748,2302],[520,129],[667,298]],[[2751,1039],[-11,179],[159,166],[6,86],[-28,10],[-8,83],[-68,104],[61,102],[9,196],[-101,57],[-51,-47],[-129,101],[-19,61]],[[1334,1771],[-56,-57]],[[3,696],[0,-1]],[[40,717],[0,-1]],[[41,717]],[[69,735],[1,-1]],[[81,741],[1,0]],[[94,750],[0,-1]],[[111,762]],[[123,772],[0,-1]],[[127,775]],[[146,790],[0,-1]],[[146,790],[1,0]],[[175,810],[0,-1]],[[175,810],[1,-1]],[[202,828],[0,-1]],[[214,836]],[[215,837],[0,-1]],[[353,811],[0,1]],[[418,984]],[[419,985]],[[466,1023],[1,0]],[[467,1024]],[[488,1042],[1,-1]],[[489,1042],[1,0]],[[528,1069]],[[529,1070],[0,-1]],[[554,1088]],[[555,1089],[0,-1]],[[730,985],[-67,115],[-10,1]],[[653,1101],[-65,10]],[[600,1113],[53,-12]],[[653,1101],[11,-2],[67,-126]],[[1047,1401],[3,10]],[[1108,1441],[-1,1]],[[1132,1452],[0,1]],[[1133,1453]],[[1142,1505],[1,-3]],[[1143,1505]],[[1170,1409],[1,-2]],[[1171,1408],[3,6]],[[1174,1414],[2,0]],[[1226,1519],[0,1]],[[1347,1603],[0,8]],[[1350,1537],[-2,27],[0,23]],[[1351,1543],[-2,20]],[[1398,1811],[1,-1]],[[1411,1728],[13,-39],[26,-34],[36,-12],[51,-13]],[[1537,1631],[-87,24],[-36,75]],[[3717,224],[-7,-8]],[[3761,179],[1,5]],[[3762,184],[2,10]],[[3765,183],[-3,1]],[[3762,184]],[[1238,1456],[-59,-38]],[[1180,1415],[52,35]],[[1354,1492],[-4,45],[4,-45]],[[1166,1392],[-10,10],[-40,36],[-18,-7]],[[1098,1431],[-13,-4]],[[1085,1427],[-18,-6],[-146,-118],[-240,-238]],[[682,1065],[239,238],[36,20],[90,78],[38,26]],[[1085,1427],[9,6],[4,-2]],[[1098,1431],[58,-29],[10,-10]],[[2056,1820],[-76,-41]],[[1981,1779],[75,40]],[[2430,2015],[-168,-43],[-96,-70]],[[2167,1901],[95,70],[169,44]],[[1190,1572],[-17,-12]],[[1174,1560],[15,11]],[[1206,1580],[-16,-8]],[[1191,1572],[15,7]],[[893,1340],[130,122]],[[1022,1462],[-120,-103]],[[767,1240],[-67,-54]],[[700,1185],[67,55]],[[1023,1569],[0,-1]],[[1347,1743],[13,11]],[[1036,1478],[-3,-7],[-9,-5],[-2,-4]],[[1023,1462],[8,7]],[[1033,1470],[1,0],[2,8]],[[3265,1317]],[[821,1284],[-54,-44]],[[767,1240],[126,100]],[[902,1359],[-78,-72]],[[892,1343],[0,-3]],[[895,1344],[-1,1]],[[1321,1678],[124,69],[-127,-68]],[[1439,1526],[47,-21],[163,-207],[17,-4]],[[1666,1294],[-180,211],[-47,22]],[[2687,934],[-185,124],[-642,198]],[[1860,1256],[642,-199],[186,-124]],[[3650,220],[-84,-17],[-548,504],[-218,150]],[[2800,857],[218,-150],[274,-257],[274,-247],[5,-2],[77,17]],[[4096,154],[-238,54]],[[3858,207],[238,-53]],[[0,699],[18,9]],[[18,708],[68,36],[148,108]],[[222,853],[-204,-145]],[[18,708],[-18,-12]],[[347,934],[233,171]],[[580,1106],[-230,-163]],[[139,407],[-10,19]],[[130,425],[9,-18]],[[138,485],[-44,-29],[0,-1]],[[94,455],[4,-6]],[[98,449],[71,-111]],[[146,490],[1,0]],[[147,490],[24,-32],[3,-2],[62,-81]],[[236,375],[0,-1],[-34,-21]],[[202,353],[-29,-18],[-75,114]],[[98,449],[-4,6]],[[94,455],[52,35]],[[174,457],[-25,31]],[[178,337],[24,16]],[[202,353],[34,22]],[[236,375],[1,0],[-57,74]],[[378,764],[-158,-95]],[[220,669],[158,94]],[[295,895],[13,-19]],[[310,878],[-12,19]],[[362,792],[16,-27]],[[379,766],[-16,26]],[[378,763],[2,0],[0,2],[-2,0]],[[378,765],[0,-2]],[[524,835],[-144,-69]],[[380,764],[87,35],[66,37]],[[1534,1480],[-14,-2]],[[2677,1012],[-27,-10],[-28,-15]],[[2625,988],[25,13],[20,6],[6,4]],[[2754,1094],[-27,-36]],[[2729,1057],[26,32]],[[0,542],[12,-22]],[[15,517],[-15,28]],[[3762,184],[-23,14],[-28,22],[-13,9]],[[3711,220],[28,-22],[26,-16],[31,-16]],[[3797,166],[-32,17]],[[350,943],[-128,-90]],[[234,852],[113,82]],[[288,891],[0,-1]],[[953,1193],[-7,-7],[-29,-45]],[[917,1141],[-18,-28],[0,-1]],[[899,1112],[-164,-110],[0,-1]],[[735,1001]],[[735,1001],[2,-41]],[[739,960],[-4,41]],[[735,1001]],[[735,1001],[163,109],[1,2]],[[899,1112],[18,29]],[[917,1141],[29,45],[8,7]],[[3193,1381],[31,-21]],[[1109,1565],[11,-27]],[[1120,1538],[-10,28]],[[1121,1535],[37,-74]],[[1159,1461],[-38,74]],[[1441,1764],[6,-13]],[[3698,228],[13,-8]],[[1147,1379],[-133,-151]],[[1166,1392],[3,-3],[184,11],[172,72],[157,110],[118,46],[181,151]],[[1980,1779],[-180,-151],[-119,-46],[-157,-110],[-171,-72],[-187,-8]],[[2056,1819],[53,29],[58,53]],[[2166,1902],[-110,-82]],[[2578,2053],[-148,-38]],[[2431,2015],[148,38],[21,15],[4,3]],[[2604,2072],[-4,-4]],[[3192,1381],[1,0]],[[3224,1360]],[[3263,1319],[2,-2]],[[1040,1524],[17,-4]],[[1040,1525],[-1,0],[0,-1],[1,1]],[[1057,1521],[-17,4]],[[1023,1568],[-1,-4]],[[1120,1538],[1,-3]],[[1121,1535],[-1,3]],[[737,960],[90,-163]],[[827,800],[-88,160]],[[3228,1293],[9,-13]],[[1188,1583],[1,1]],[[1446,1815]],[[1348,1587],[-1,16]],[[588,1111],[-8,-5]],[[580,1105],[20,8]],[[1166,1471],[-24,-13]],[[1142,1457],[24,13]],[[3710,215],[7,9]],[[1223,1624],[-26,-26]],[[1197,1598],[26,26]],[[1225,1626],[-2,-2]],[[1225,1626],[80,70]],[[1255,1660],[-30,-34]],[[1401,1803],[1,4]],[[1400,1802],[1,0],[0,1],[-1,0],[0,-1]],[[3698,229],[-11,0]],[[3786,223],[-1,-1]],[[3786,222],[0,1]],[[4096,2355],[0,-2355],[-4096,0],[0,762],[73,55],[122,64],[16,8],[21,34],[23,25],[429,315],[45,90],[81,-19],[85,40],[134,121],[-26,38],[-11,-2],[-24,-13],[16,35],[23,24],[23,0],[17,-36],[22,0],[33,38],[136,122],[40,27],[38,18],[58,82],[24,18],[40,8],[23,19],[20,23],[27,20],[-9,4],[-8,0],[-4,4],[1,18],[80,44],[-9,-98],[83,-66],[10,-3],[109,-33],[107,-12],[-24,-15],[-33,-38],[-24,-14],[-2,-18],[4,-5],[9,0],[10,-3],[-34,-23],[10,-27],[32,-25],[31,-18],[121,72],[-15,-39],[16,-19],[25,-5],[13,2],[12,23],[88,85],[8,-17],[2,-1],[10,-8],[7,20],[6,11],[5,14],[3,27],[19,0],[-2,-36],[6,-28],[14,-19],[21,-10],[12,23],[30,91],[-45,23],[-41,-10],[-43,-22],[-52,-12],[0,21],[9,2],[21,-3],[10,1],[0,23],[-47,-14],[-172,-9],[0,23],[108,28],[103,58],[178,161],[63,104],[40,137],[12,143],[-25,119],[20,0],[14,-65],[26,-64],[41,-46],[58,-11],[-81,62],[-44,100],[19,61],[106,-60],[79,-60],[90,-37],[105,-12],[126,15],[410,111],[760,271],[0,-15],[-207,-79],[-225,-129],[-155,-74],[-124,-85],[-16,-7],[-40,-7],[-24,-9],[-110,-77],[-51,-18],[-116,-9],[-25,-14],[-13,-1],[-44,-67],[0,-25],[60,-17],[21,0],[18,17],[20,0],[44,-26],[82,4],[79,24],[35,33],[27,55],[58,-16],[61,-50],[33,-48],[20,0],[19,59],[45,60],[54,47],[43,23],[26,10],[32,-15],[38,-25],[43,-19],[28,4],[37,10],[41,4],[35,-18],[-9,-3],[-8,0],[-4,-4],[1,-16],[40,-11],[49,16],[50,31],[32,30]],[[4096,2364],[-1,0],[-7,0],[-4,3],[1,15],[10,7],[1,3],[0,-28]],[[3869,166],[-195,-1],[-32,39],[41,90],[82,19],[78,-46],[26,-101]],[[2801,848],[-113,82],[-17,69],[33,77],[88,-68],[9,-160]],[[3124,2137],[7,34],[147,35],[-40,-51],[-114,-18]],[[3329,2416],[-185,-104],[-141,-23],[-88,13],[-17,-52],[-65,38],[-202,32],[-27,70],[34,60],[162,-35],[126,15],[410,111],[760,271],[-767,-396]],[[0,531],[0,225],[151,102],[126,-10],[54,48],[64,155],[289,212],[45,90],[81,-19],[85,40],[134,121],[-26,38],[-35,-15],[39,59],[62,-36],[247,205],[58,82],[134,88],[-20,26],[80,44],[-9,-98],[80,-64],[-97,-148],[-11,-103],[-25,-43],[-64,0],[-33,-38],[-129,0],[-129,-113],[-65,0],[0,-38],[-65,-38],[-32,-341],[-68,-134],[-94,-18],[0,-38],[-186,-11],[-102,76],[-154,-23],[-122,-114],[-51,-4],[33,-113],[64,-38],[6,-113],[-38,-115],[-72,21],[-205,193]],[[4096,1145],[-33,82],[-33,0],[10,39],[56,42],[0,-163]],[[1742,1176],[-42,13],[-21,37],[-43,229],[159,-61],[58,-55],[10,-112],[-121,-51]],[[1811,1721],[-46,37],[22,25],[81,-9],[-57,-53]],[[2057,1834],[-3,-51],[-166,-9],[0,23],[169,37]],[[2468,2372],[58,-11],[-19,14],[33,3],[78,-94],[-9,-116],[-87,-71],[-109,2],[32,-152],[-258,-62],[-46,36],[136,123],[63,104],[51,283],[77,-59]],[[92,456],[55,34],[95,-117],[-70,-39],[-25,33],[-21,-13],[-34,102]]]}