{"objects":{"water":{"type":"GeometryCollection","geometries":[]},"buildings":{"type":"GeometryCollection","geometries":[]},"places":{"type":"GeometryCollection","geometries":[{"type":"Point","properties":{"name:pt":"Ruanda","name:ps":"\u0631\u0648\u0646\u062f\u0627","name:ka":"\u10e0\u10e3\u10d0\u10dc\u10d3\u10d0","name:tr":"Ruanda","name:cv":"\u0420\u0443\u0430\u043d\u0434\u0430","name:km":"\u179a\u179c\u17c9\u17b6\u1793\u17cb\u178a\u17b6","name:kk":"\u0420\u0443\u0430\u043d\u0434\u0430","name:tt":"\u0420\u0443\u0430\u043d\u0434\u0430","name:tk":"Ruanda","name:th":"\u0e1b\u0e23\u0e30\u0e40\u0e17\u0e28\u0e23\u0e27\u0e31\u0e19\u0e14\u0e32","name:ti":"\u1229\u12cb\u1295\u12f3","name:ks":"\u0631\u0648\u0657\u0648\u0627\u0646\u065b\u0688\u0627","name:to":"Luanit\u0101","name:tl":"Ruwanda","name:pa":"\u0a30\u0a35\u0a3e\u0a02\u0a21\u0a3e","name:os":"\u0420\u0443\u0430\u043d\u0434\u00e6","name:or":"\u0b30\u0b3e\u0b71\u0b3e\u0b23\u0b4d\u0b21\u0b3e","name:ce":"\u0420\u0443\u0430\u043d\u0434\u0430","name:ta":"\u0bb0\u0bc1\u0bb5\u0bbe\u0ba9\u0bcd\u0b9f\u0bbe","name:tg":"\u0420\u0443\u0430\u043d\u0434\u0430","name:te":"\u0c30\u0c4d\u0c35\u0c3e\u0c02\u0c21\u0c3e","name:hu":"Ruanda","name:wo":"Ruwandaa","name:de":"Ruanda","name:dz":"\u0f62\u0f74\u0f0b\u0f5d\u0f53\u0f0b\u0f4c","source":"openstreetmap.org","name:nv":"W\u00e1nda Dine\u02bc\u00e9 Bik\u00e9yah","name:kn":"\u0cb0\u0cc1\u0cb5\u0cbe\u0c82\u0ca1\u0cbe","name:yi":"\u05e8\u05d5\u05d5\u05d0\u05e0\u05d3\u05e2","name:dv":"\u0783\u07aa\u0788\u07a7\u0782\u07b0\u0791\u07a7","name:lv":"Ruanda","name:lt":"Ruanda","name:uz":"Ruanda","name:he":"\u05e8\u05d5\u05d0\u05e0\u05d3\u05d4","kind":"country","name:ur":"\u0631\u0648\u0627\u0646\u0688\u0627","name:lb":"Ruanda","name:la":"Ruanda","official_name":"Republic of Rwanda;Repubulika y'u Rwanda;R\u00e9publique du Rwanda","name:uk":"\u0420\u0443\u0430\u043d\u0434\u0430","name:hy":"\u054c\u0578\u0582\u0561\u0576\u0564\u0561","name:ug":"\u0631\u06cb\u0627\u0646\u062f\u0627","name:li":"Roeanda","name:hr":"Ruanda","name:lo":"\u0ead\u0eb2\u0ea7\u0eb1\u0e99\u0e94\u0eb2","population":11400000,"name:el":"\u03a1\u03bf\u03c5\u03ac\u03bd\u03c4\u03b1","name:eo":"Ruando","name":"Rwanda","name:ee":"Rwanda nutome","min_zoom":2.0,"name:eu":"Ruanda","name:es":"Ruanda","name:ia":"Ruanda","name:rm":"Ruanda","name:rn":"u Rwanda","name:az":"Rvanda","name:mr":"\u0930\u0935\u093e\u0902\u0921\u093e","name:ar":"\u0631\u0648\u0627\u0646\u062f\u0627","name:my":"\u101b\u101d\u1014\u103a\u1012\u102b","name:io":"Ruanda","name:is":"R\u00faanda","name:am":"\u1229\u12cb\u1295\u12f3","name:it":"Ruanda","name:an":"Ruanda","name:ru":"\u0420\u0443\u0430\u043d\u0434\u0430","name:mn":"\u0420\u0443\u0430\u043d\u0434\u0430","id":424311738,"name:mk":"\u0420\u0443\u0430\u043d\u0434\u0430","name:vo":"Ruand\u00e4n","name:zu":"i-Rwanda","name:ha":"Ruwanda","name:ff":"Ruwanndaa","name:fi":"Ruanda","name:hi":"\u0930\u0942\u0906\u0923\u094d\u0921\u093e","name:mg":"Roanda","name:fo":"Ruanda","name:zh-yue":"\u76e7\u65fa\u9054","name:fy":"R\u00fbanda","name:zh":"\u5362\u65fa\u8fbe","name:gv":"Rooandey","name:so":"Ruwanda","name:sr":"\u0420\u0443\u0430\u043d\u0434\u0430","name:sl":"Ruanda","name:ja":"\u30eb\u30ef\u30f3\u30c0","name:si":"\u0dbb\u0dd4\u0dc0\u0db1\u0dca\u0da9\u0dcf\u0dc0","name:sh":"Ruanda","name:sg":"Ruand\u00e4a","name:sc":"Ruanda","name:ne":"\u0930\u0935\u093e\u0923\u094d\u0921\u093e","name:sa":"\u0930\u0935\u093e\u0923\u094d\u0921\u093e","name:bs":"Ruanda","name:bm":"Ruwanda","name:bn":"\u09b0\u09c1\u09af\u09bc\u09be\u09a8\u09cd\u09a1\u09be","name:bo":"\u0f62\u0f74\u0f0b\u0f5d\u0f53\u0f0b\u0f4c\u0f0d","name:ml":"\u0d31\u0d41\u0d35\u0d3e\u0d23\u0d4d\u0d1f","name:be":"\u0420\u0443\u0430\u043d\u0434\u0430","name:bg":"\u0420\u0443\u0430\u043d\u0434\u0430","name:ss":"IRuwanda","name:ba":"\u0420\u0443\u0430\u043d\u0434\u0430","name:sq":"Ruanda","name:ko":"\ub974\uc644\ub2e4","name:ga":"Ruanda","name:gd":"Ruanda","name:gl":"Ruanda","name:fa":"\u0631\u0648\u0627\u0646\u062f\u0627","name:yo":"Or\u00edl\u1eb9\u0301\u00e8de Ruwanda","name:gu":"\u0ab0\u0ab5\u0abe\u0a82\u0aa1\u0abe"},"coordinates":[1553,2468]},{"type":"Point","properties":{"admin_level":"4","kind":"region","name:en":"Kigali City","name":"Umujyi wa Kigali","kind_detail":"state","name:de":"Kigali","source":"openstreetmap.org","min_zoom":4.0,"id":4353399472},"coordinates":[1743,2697]},{"type":"Point","properties":{"admin_level":"4","kind":"region","name:en":"Northern Province, Rwanda","name":"majyaruguru","alt_name:de":"Nordprovinz","kind_detail":"state","name:cs":"Severn\u00ed provincie (Rwanda)","source":"openstreetmap.org","min_zoom":4.0,"id":4346195932},"coordinates":[1153,3586]},{"type":"Point","properties":{"admin_level":"4","kind":"region","name:en":"Southern Province, Rwanda","name":"Amajvepfo","alt_name:de":"S\u00fcd Provinz","kind_detail":"state","name:cs":"Ji\u017en\u00ed provincie (Rwanda)","source":"openstreetmap.org","min_zoom":4.0,"id":4346189875},"coordinates":[219,537]},{"type":"Point","properties":{"source":"openstreetmap.org","kind":"region","name":"Kirundo","kind_detail":"province","min_zoom":4.0,"id":1387564891},"coordinates":[1846,731]},{"type":"Point","properties":{"source":"openstreetmap.org","kind":"region","name":"Muyinga","kind_detail":"province","min_zoom":4.0,"id":1383494996},"coordinates":[2252,190]},{"type":"Point","properties":{"admin_level":"4","kind":"region","name":"Muyinga","source":"openstreetmap.org","kind_detail":"state","min_zoom":4.0,"id":4353406216},"coordinates":[2414,294]},{"type":"Point","properties":{"source":"naturalearthdata.com","kind":"locality","name":"Ngara","population":16890,"min_zoom":7.0,"id":2492},"coordinates":[3259,996]},{"type":"Point","properties":{"name:az":"Kiqali","name:ka":"\u10d9\u10d8\u10d2\u10d0\u10da\u10d8","name:mr":"\u0915\u093f\u0917\u093e\u0932\u0940","name:ko":"\ud0a4\uac08\ub9ac","name:cv":"\u041a\u0438\u0433\u0430\u043b\u0438","name:ar":"\u0643\u064a\u063a\u0627\u0644\u064a","name:is":"K\u00edgal\u00ed","name:am":"\u12aa\u130b\u120a","name:os":"\u041a\u0438\u0433\u0430\u043b\u0438","name:ru":"\u041a\u0438\u0433\u0430\u043b\u0438","name:ta":"\u0b95\u0bbf\u0b95\u0bbe\u0bb2\u0bbf","name:tg":"\u041a\u0438\u0433\u0430\u043b\u0438","name:mk":"\u041a\u0438\u0433\u0430\u043b\u0438","name:fa":"\u06a9\u06cc\u06af\u0627\u0644\u06cc","name:lt":"Kigalis","kind_detail":"city","id":60485579,"source":"openstreetmap.org","name:ky":"\u041a\u0438\u0433\u0430\u043b\u0438","name:kn":"\u0c95\u0cbf\u0c97\u0cbe\u0cb2\u0cc0","name:fy":"Kigaly","name:zh":"\u5409\u4f73\u5229","name:ja":"\u30ad\u30ac\u30ea","name:si":"\u0d9a\u0dd2\u0d9c\u0dcf\u0dbd\u0dd2","name:hi":"\u0915\u093f\u0917\u093e\u0932\u0940","name:he":"\u05e7\u05d9\u05d2\u05d0\u05dc\u05d9","kind":"locality","name:ur":"\u06a9\u06cc\u06af\u0627\u0644\u06cc","name:bo":"\u0f40\u0f72\u0f0b\u0f42\u0f0b\u0f63\u0f72\u0f0d","name:uk":"\u041a\u0456\u0433\u0430\u043b\u0456","name:hy":"\u053f\u056b\u0563\u0561\u056c\u056b","country_capital":true,"name:be":"\u041a\u0456\u0433\u0430\u043b\u0456","min_zoom":8.0,"name:bg":"\u041a\u0438\u0433\u0430\u043b\u0438","name:sr":"\u041a\u0438\u0433\u0430\u043b\u0438","population":1132686,"name:el":"\u039a\u03b9\u03b3\u03ba\u03ac\u03bb\u03b9","name:eo":"Kigalo","name":"Kigali","name:ku":"K\u00eegal\u00ee","name:th":"\u0e04\u0e34\u0e01\u0e32\u0e25\u0e35"},"coordinates":[1544,2508]}]},"transit":{"type":"GeometryCollection","geometries":[]},"pois":{"type":"GeometryCollection","geometries":[{"type":"Point","properties":{"kind":"national_park","name":"Akagera National Park","area":1086040000,"source":"openstreetmap.org","min_zoom":5.75,"tier":1,"id":-1708935,"osm_relation":true},"coordinates":[3528,3405]}]},"boundaries":{"type":"GeometryCollection","geometries":[{"type":"LineString","properties":{"name:left:lb":"Tansania","name:left:hi":"\u0924\u0902\u091c\u093c\u093e\u0928\u093f\u092f\u093e","name:left:uz":"Tanzaniya","name:right:uk":"\u0411\u0443\u0440\u0443\u043d\u0434\u0456","name:left:he":"\u05d8\u05e0\u05d6\u05e0\u05d9\u05d4","name:left:mr":"\u091f\u093e\u0902\u091d\u093e\u0928\u093f\u092f\u093e","name:left:ss":"IThanzaniya","name:left:sr":"\u0422\u0430\u043d\u0437\u0430\u043d\u0438\u0458\u0430","name:left:sl":"Tanzanija","name:left:so":"Tansaaniya","name:left:lt":"Tanzanija","name:left:sh":"Tanzanija","name:left:lv":"Tanz\u0101nija","name:left:se":"Tanz\u00e1nia","name:left:hu":"Tanz\u00e1nia","name:left:sg":"Tanzan\u00efi","name:left:sa":"\u091f\u0902\u091c\u093e\u0928\u093f\u092f\u093e","name:left:my":"\u1010\u1014\u103a\u1007\u1031\u1038\u1014\u102e\u1038\u101a\u102c\u1038\u1014\u102d\u102f\u1004\u103a\u1004\u1036","name:left:sc":"Tanz\u00e0nia","name:left:ga":"An Tans\u00e1in","name:left:gd":"Tansain\u00eca","name:left:ce":"\u0422\u0430\u043d\u0437\u0430\u043d\u0438","name:left:ca":"Tanz\u00e0nia","name:left:te":"\u0c1f\u0c3e\u0c02\u0c1c\u0c3e\u0c28\u0c3f\u0c2f\u0c3e","source":"openstreetmap.org","name:left:gu":"\u0a9f\u0abe\u0aa8\u0acd\u0a9d\u0abe\u0aa8\u0abf\u0aaf\u0abe","name:left:cv":"\u0422\u0430\u043d\u0437\u0430\u043d\u0438","name:left:cs":"Tanzanie","name:left":"Tanzania","name:left:ka":"\u10e2\u10d0\u10dc\u10d6\u10d0\u10dc\u10d8\u10d0","name:right:vo":"Rundiy\u00e4n","name:left:ko":"\ud0c4\uc790\ub2c8\uc544","name:left:kn":"\u0c9f\u0cbe\u0c82\u0c9c\u0cbe\u0ca8\u0cbf\u0caf","name:left:rn":"Tanzaniya","name:left:kk":"\u0422\u0430\u043d\u0437\u0430\u043d\u0438\u044f","name:left:rm":"Tansania","name:left:ku":"Tanzanya","name:left:rw":"Tanzaniya","name:left:ru":"\u0422\u0430\u043d\u0437\u0430\u043d\u0438\u044f","name:left:vo":"Tansan\u00e4n","id:right":-195269,"name:right:eo":"Burundo","kind":"country","name":"Tanzania - Burundi","name:left:fa":"\u062a\u0627\u0646\u0632\u0627\u0646\u06cc\u0627","name:left:fo":"Tansania","name:right:ru":"\u0411\u0443\u0440\u0443\u043d\u0434\u0438","min_zoom":8.0,"alt_name:left:cs":"Sjednocen\u00e1 tanzansk\u00e1 republika","name:left:fi":"Tansania","name:left:zh":"\u5766\u6851\u5c3c\u4e9a","name:left:fr":"Tanzanie","name:left:hy":"\u054f\u0561\u0576\u0566\u0561\u0576\u056b\u0561","name:left:bs":"Tanzanija","name:left:sk":"Tanz\u00e1nia","name:left:nv":"T\u02bcanzan\u00ed\u00edya","name:left:ur":"\u062a\u0646\u0632\u0627\u0646\u06cc\u06c1","name:left:ja":"\u30bf\u30f3\u30b6\u30cb\u30a2","name:right:fy":"Boer\u00fbndy","name:left:uk":"\u0422\u0430\u043d\u0437\u0430\u043d\u0456\u044f","name:left:ht":"Tanzani","name:left:qu":"Tansanya","name:left:ba":"\u0422\u0430\u043d\u0437\u0430\u043d\u0438\u044f","name:left:bg":"\u0422\u0430\u043d\u0437\u0430\u043d\u0438\u044f","name:left:be":"\u0422\u0430\u043d\u0437\u0430\u043d\u0456\u044f","name:left:zu":"ITanzania","name:left:bn":"\u09a4\u09be\u09a8\u099c\u09be\u09a8\u09bf\u09af\u09bc\u09be","name:left:bo":"\u0f4f\u0f53\u0f0b\u0f5b\u0f0b\u0f53\u0f72\u0f0b\u0f61\u0f0d","name:right":"Burundi","name:left:ne":"\u0924\u0928\u094d\u091c\u093e\u0928\u093f\u092f\u093e","name:left:eo":"Tanzanio","name:left:el":"\u03a4\u03b1\u03bd\u03b6\u03b1\u03bd\u03af\u03b1","name:left:ug":"\u062a\u0627\u0646\u0632\u0627\u0646\u0649\u064a\u06d5","id":-195270,"name:left:yo":"T\u00e0ns\u00e1n\u00ed\u00e0","name:left:hr":"Tanzanija","name:left:yi":"\u05d8\u05d0\u05e0\u05d6\u05d0\u05e0\u05d9\u05e2","id:left":-195270,"name:left:os":"\u0422\u0430\u043d\u0437\u0430\u043d\u0438","name:left:et":"Tansaania","name:left:or":"\u0b24\u0b3e\u0b1e\u0b4d\u0b1c\u0b3e\u0b28\u0b3f\u0b06","name:left:ar":"\u062a\u0646\u0632\u0627\u0646\u064a\u0627","name:left:mk":"\u0422\u0430\u043d\u0437\u0430\u043d\u0438\u0458\u0430","name:left:mi":"T\u0101nahia","name:left:tt":"\u0422\u0430\u043d\u0437\u0430\u043d\u0438\u044f","name:left:az":"Tanzaniya","name:left:mn":"\u0422\u0430\u043d\u0437\u0430\u043d\u0438","name:left:th":"\u0e1b\u0e23\u0e30\u0e40\u0e17\u0e28\u0e41\u0e17\u0e19\u0e0b\u0e32\u0e40\u0e19\u0e35\u0e22","name:left:af":"Tanzani\u00eb","name:left:tk":"Tanzani\u00fda","name:left:mt":"Tan\u017canija","name:left:tr":"Tanzanya","name:left:ta":"\u0ba4\u0ba9\u0bcd\u0b9a\u0bbe\u0ba9\u0bbf\u0baf\u0bbe","name:left:am":"\u1273\u1295\u12db\u1292\u12eb","name:left:ml":"\u0d1f\u0d3e\u0d7b\u0d38\u0d3e\u0d28\u0d3f\u0d2f","name:left:is":"Tansan\u00eda","name:right:ta":"\u0baa\u0bc1\u0bb0\u0bc1\u0ba3\u0bcd\u0b9f\u0bbf","osm_relation":true,"name:left:tg":"\u0422\u0430\u043d\u0437\u0430\u043d\u0438\u044f","name:left:pt":"Tanz\u00e2nia","name:left:wo":"Tansani","name:left:ti":"\u1273\u1295\u12db\u1292\u12eb","name:left:de":"Tansania","sort_rank":262,"name:left:zh-yue":"\u5766\u6851\u5c3c\u4e9e","kind_detail":"2","name:left:pa":"\u0a24\u0a28\u0a1c\u0a3c\u0a3e\u0a28\u0a40\u0a06","name:left:dv":"\u0793\u07ac\u0782\u07b0\u0792\u07ad\u0782\u07a8\u0787\u07a7"},"arcs":[0]},{"type":"LineString","properties":{"name:right:yo":"R\u00f9w\u00e1nd\u00e0","name:right:hy":"\u054c\u0578\u0582\u0561\u0576\u0564\u0561","name:left:lb":"Tansania","name:right:yi":"\u05e8\u05d5\u05d5\u05d0\u05e0\u05d3\u05e2","name:right:hr":"Ruanda","name:right:dv":"\u0783\u07aa\u0788\u07a7\u0782\u07b0\u0791\u07a7","name:right:hu":"Ruanda","name:left:ss":"IThanzaniya","name:left:sr":"\u0422\u0430\u043d\u0437\u0430\u043d\u0438\u0458\u0430","name:left:sl":"Tanzanija","name:left:so":"Tansaaniya","name:left:lt":"Tanzanija","name:left:sh":"Tanzanija","name:left:lv":"Tanz\u0101nija","name:left:vo":"Tansan\u00e4n","name:left:se":"Tanz\u00e1nia","name:left:sg":"Tanzan\u00efi","name:left:sa":"\u091f\u0902\u091c\u093e\u0928\u093f\u092f\u093e","name:right:he":"\u05e8\u05d5\u05d0\u05e0\u05d3\u05d4","name:left:sc":"Tanz\u00e0nia","name:left:hi":"\u0924\u0902\u091c\u093c\u093e\u0928\u093f\u092f\u093e","name:left:ce":"\u0422\u0430\u043d\u0437\u0430\u043d\u0438","name:right:an":"Ruanda","name:right:am":"\u1229\u12cb\u1295\u12f3","name:left:ca":"Tanz\u00e0nia","source":"openstreetmap.org","name:right:ar":"\u0631\u0648\u0627\u0646\u062f\u0627","name:left:cv":"\u0422\u0430\u043d\u0437\u0430\u043d\u0438","name:right:az":"Ruanda","name:left:cs":"Tanzanie","name:left:ka":"\u10e2\u10d0\u10dc\u10d6\u10d0\u10dc\u10d8\u10d0","name:left:yi":"\u05d8\u05d0\u05e0\u05d6\u05d0\u05e0\u05d9\u05e2","name:left:ko":"\ud0c4\uc790\ub2c8\uc544","name:right:it":"Ruanda","name:left:rn":"Tanzaniya","name:left:kk":"\u0422\u0430\u043d\u0437\u0430\u043d\u0438\u044f","name:left:rm":"Tansania","name:left:ku":"Tanzanya","name:left:rw":"Tanzaniya","name:left:ru":"\u0422\u0430\u043d\u0437\u0430\u043d\u0438\u044f","name:right:ia":"Ruanda","name":"Tanzania - Rwanda","name:right:bn":"\u09b0\u09c1\u09af\u09bc\u09be\u09a8\u09cd\u09a1\u09be","name:right:bo":"\u0f62\u0f74\u0f0b\u0f5d\u0f53\u0f0b\u0f4c\u0f0d","name:right:zu":"IRuwanda","name:right:ba":"\u0420\u0443\u0430\u043d\u0434\u0430","name:right:bg":"\u0420\u0443\u0430\u043d\u0434\u0430","alt_name:left:cs":"Sjednocen\u00e1 tanzansk\u00e1 republika","name:left:zu":"ITanzania","name:left:zh":"\u5766\u6851\u5c3c\u4e9a","name:right:bs":"Ruanda","name:right:zh":"\u5362\u65fa\u8fbe","name:left:uz":"Tanzaniya","name:left:sk":"Tanz\u00e1nia","name:left:nv":"T\u02bcanzan\u00ed\u00edya","name:left:ur":"\u062a\u0646\u0632\u0627\u0646\u06cc\u06c1","name:right:wo":"Ruwandaa","name:right:ne":"\u0930\u0941\u0935\u093e\u0923\u094d\u0921\u093e","id:right":-171496,"name:left:uk":"\u0422\u0430\u043d\u0437\u0430\u043d\u0456\u044f","name:right:gv":"Rooandey","name:right:hi":"\u0930\u0935\u093e\u0923\u094d\u0921\u093e","name:right:fa":"\u0631\u0648\u0627\u0646\u062f\u0627","name:right:nv":"W\u00e1nda Dine\u02bc\u00e9 Bik\u00e9yah","name:right:fo":"Ruanda","name:right:be":"\u0420\u0443\u0430\u043d\u0434\u0430","name:left:ug":"\u062a\u0627\u0646\u0632\u0627\u0646\u0649\u064a\u06d5","name:right:fi":"Ruanda","name:left:eo":"Tanzanio","name:left:el":"\u03a4\u03b1\u03bd\u03b6\u03b1\u03bd\u03af\u03b1","kind_detail":"2","name:left:wo":"Tansani","name:left:mi":"T\u0101nahia","name:left:et":"Tansaania","name:right:ps":"\u0631\u0627\u0648\u0646\u0689\u0627","name:right:pt":"Ruanda","name:left:mk":"\u0422\u0430\u043d\u0437\u0430\u043d\u0438\u0458\u0430","name:left:tr":"Tanzanya","name:left:tt":"\u0422\u0430\u043d\u0437\u0430\u043d\u0438\u044f","name:left:mn":"\u0422\u0430\u043d\u0437\u0430\u043d\u0438","name:left:ml":"\u0d1f\u0d3e\u0d7b\u0d38\u0d3e\u0d28\u0d3f\u0d2f","name:left:th":"\u0e1b\u0e23\u0e30\u0e40\u0e17\u0e28\u0e41\u0e17\u0e19\u0e0b\u0e32\u0e40\u0e19\u0e35\u0e22","name:left:ti":"\u1273\u1295\u12db\u1292\u12eb","name:left:tk":"Tanzani\u00fda","name:right:ga":"Ruanda","name:right:tr":"Ruanda","name:left:mt":"Tan\u017canija","name:left:ta":"\u0ba4\u0ba9\u0bcd\u0b9a\u0bbe\u0ba9\u0bbf\u0baf\u0bbe","name:left:my":"\u1010\u1014\u103a\u1007\u1031\u1038\u1014\u102e\u1038\u101a\u102c\u1038\u1014\u102d\u102f\u1004\u103a\u1004\u1036","name:left:te":"\u0c1f\u0c3e\u0c02\u0c1c\u0c3e\u0c28\u0c3f\u0c2f\u0c3e","osm_relation":true,"name:left:tg":"\u0422\u0430\u043d\u0437\u0430\u043d\u0438\u044f","name:left:pt":"Tanz\u00e2nia","name:right:pa":"\u0a30\u0a35\u0a3e\u0a02\u0a21\u0a3e","name:left:mr":"\u091f\u093e\u0902\u091d\u093e\u0928\u093f\u092f\u093e","name:left:de":"Tansania","name:left:dv":"\u0793\u07ac\u0782\u07b0\u0792\u07ad\u0782\u07a8\u0787\u07a7","name:right:ug":"\u0631\u06cb\u0627\u0646\u062f\u0627","name:right:la":"Ruanda","name:right:lb":"Ruanda","name:right:uk":"\u0420\u0443\u0430\u043d\u0434\u0430","name:left:he":"\u05d8\u05e0\u05d6\u05e0\u05d9\u05d4","name:right:lt":"Ruanda","name:right:ur":"\u0631\u0648\u0627\u0646\u0688\u0627","name:right:lv":"Ruanda","name:left:hy":"\u054f\u0561\u0576\u0566\u0561\u0576\u056b\u0561","name:left:hu":"Tanz\u00e1nia","name:right:gl":"Ruanda","name:left:ht":"Tanzani","name:right:uz":"Ruanda","name:left:hr":"Tanzanija","name:left:ga":"An Tans\u00e1in","name:right:tg":"\u0420\u0443\u0430\u043d\u0434\u0430","name:left:gd":"Tansain\u00eca","sort_rank":262,"name:right:gd":"Rubhanda","name:left:gu":"\u0a9f\u0abe\u0aa8\u0acd\u0a9d\u0abe\u0aa8\u0abf\u0aaf\u0abe","name:right:os":"\u0420\u0443\u0430\u043d\u0434\u00e6","name:right:or":"\u0b30\u0b35\u0b3e\u0b23\u0b4d\u0b21\u0b3e","name:left":"Tanzania","name:right:es":"Ruanda","name:right:sr":"\u0420\u0443\u0430\u043d\u0434\u0430","name:right:mn":"\u0420\u0443\u0430\u043d\u0434\u0430","name:right:eu":"Ruanda","name:right:ml":"\u0d31\u0d41\u0d35\u0d3e\u0d23\u0d4d\u0d1f","name:right:vo":"Ruand\u00e4n","name:left:os":"\u0422\u0430\u043d\u0437\u0430\u043d\u0438","name:left:or":"\u0b24\u0b3e\u0b1e\u0b4d\u0b1c\u0b3e\u0b28\u0b3f\u0b06","name:right:my":"\u101b\u101d\u1019\u103a\u1012\u102b\u1014\u102d\u102f\u1004\u103a\u1004\u1036","name:right:mr":"\u0931\u094d\u0935\u093e\u0928\u094d\u0921\u093e","min_zoom":8.0,"name:right:fy":"R\u00fbanda","name:right:eo":"Ruando","name:right:el":"\u03a1\u03bf\u03c5\u03ac\u03bd\u03c4\u03b1","kind":"country","name:left:fa":"\u062a\u0627\u0646\u0632\u0627\u0646\u06cc\u0627","name:left:fo":"Tansania","name:left:fi":"Tansania","name:left:fr":"Tanzanie","name:left:bg":"\u0422\u0430\u043d\u0437\u0430\u043d\u0438\u044f","name:left:bs":"Tanzanija","name:right:mk":"\u0420\u0443\u0430\u043d\u0434\u0430","name:right:ja":"\u30eb\u30ef\u30f3\u30c0","name:right:sq":"Ruanda","name:right:ss":"IRuwanda","name:left:ja":"\u30bf\u30f3\u30b6\u30cb\u30a2","name:right:si":"\u0dbb\u0dd4\u0dc0\u0db1\u0dca\u0da9\u0dcf \u0da2\u0db1\u0dbb\u0da2\u0dba","name:right:sh":"Ruanda","name:left:qu":"Tansanya","name:left:ba":"\u0422\u0430\u043d\u0437\u0430\u043d\u0438\u044f","name:right:sl":"Ruanda","name:right:so":"Ruwanda","name:left:be":"\u0422\u0430\u043d\u0437\u0430\u043d\u0456\u044f","name:right:sa":"\u0930\u0935\u093e\u0923\u094d\u0921\u093e","name:right:sc":"Ruanda","name:left:bn":"\u09a4\u09be\u09a8\u099c\u09be\u09a8\u09bf\u09af\u09bc\u09be","name:left:bo":"\u0f4f\u0f53\u0f0b\u0f5b\u0f0b\u0f53\u0f72\u0f0b\u0f61\u0f0d","name:right:sg":"Ruand\u00e4a","name:right":"Rwanda","name:left:ne":"\u0924\u0928\u094d\u091c\u093e\u0928\u093f\u092f\u093e","name:right:ce":"\u0420\u0443\u0430\u043d\u0434\u0430","id":-195270,"name:left:yo":"T\u00e0ns\u00e1n\u00ed\u00e0","name:right:zh-yue":"\u76e7\u65fa\u9054","id:left":-195270,"name:right:cv":"\u0420\u0443\u0430\u043d\u0434\u0430","name:right:ka":"\u10e0\u10e3\u10d0\u10dc\u10d3\u10d0","name:left:kn":"\u0c9f\u0cbe\u0c82\u0c9c\u0cbe\u0ca8\u0cbf\u0caf","name:left:ar":"\u062a\u0646\u0632\u0627\u0646\u064a\u0627","name:right:tt":"\u0420\u0443\u0430\u043d\u0434\u0430","name:right:is":"R\u00faanda","name:right:kk":"\u0420\u0443\u0430\u043d\u0434\u0430","name:left:az":"Tanzaniya","name:right:ko":"\ub974\uc644\ub2e4","name:right:kn":"\u0cb0\u0ccd\u0cb5\u0cbe\u0c82\u0ca1","name:right:tl":"Ruwanda","name:left:af":"Tanzani\u00eb","name:right:th":"\u0e1b\u0e23\u0e30\u0e40\u0e17\u0e28\u0e23\u0e27\u0e31\u0e19\u0e14\u0e32","name:right:ti":"\u1229\u12cb\u1295\u12f3","name:right:tk":"Ruanda","name:right:te":"\u0c30\u0c41\u0c35\u0c3e\u0c02\u0c21\u0c3e","name:left:am":"\u1273\u1295\u12db\u1292\u12eb","name:right:ru":"\u0420\u0443\u0430\u043d\u0434\u0430","name:left:is":"Tansan\u00eda","name:right:ta":"\u0bb0\u0bc1\u0bb5\u0bbe\u0ba3\u0bcd\u0b9f\u0bbe","name:right:io":"Ruanda","name:right:de":"Ruanda","name:left:zh-yue":"\u5766\u6851\u5c3c\u4e9e","name:left:pa":"\u0a24\u0a28\u0a1c\u0a3c\u0a3e\u0a28\u0a40\u0a06"},"arcs":[1]},{"type":"MultiLineString","properties":{"name:right:yo":"R\u00f9w\u00e1nd\u00e0","name:right:hy":"\u054c\u0578\u0582\u0561\u0576\u0564\u0561","name:right:ug":"\u0631\u06cb\u0627\u0646\u062f\u0627","name:right:la":"Ruanda","name:right:yi":"\u05e8\u05d5\u05d5\u05d0\u05e0\u05d3\u05e2","name:right:uk":"\u0420\u0443\u0430\u043d\u0434\u0430","name:right:hr":"Ruanda","name:right:hu":"Ruanda","name:right:lt":"Ruanda","name:right:hi":"\u0930\u0935\u093e\u0923\u094d\u0921\u093e","name:right:lv":"Ruanda","name:right:te":"\u0c30\u0c41\u0c35\u0c3e\u0c02\u0c21\u0c3e","name:right:uz":"Ruanda","name:right:he":"\u05e8\u05d5\u05d0\u05e0\u05d3\u05d4","name:right:os":"\u0420\u0443\u0430\u043d\u0434\u00e6","name:right:lb":"Ruanda","sort_rank":262,"name:right:an":"Ruanda","name:right:am":"\u1229\u12cb\u1295\u12f3","name":"Burundi - Rwanda","source":"openstreetmap.org","name:right:ar":"\u0631\u0648\u0627\u0646\u062f\u0627","name:right:az":"Ruanda","name:left":"Burundi","name:right:mk":"\u0420\u0443\u0430\u043d\u0434\u0430","name:right:ne":"\u0930\u0941\u0935\u093e\u0923\u094d\u0921\u093e","name:right:mn":"\u0420\u0443\u0430\u043d\u0434\u0430","name:right:eu":"Ruanda","name:right:ml":"\u0d31\u0d41\u0d35\u0d3e\u0d23\u0d4d\u0d1f","name:left:ta":"\u0baa\u0bc1\u0bb0\u0bc1\u0ba3\u0bcd\u0b9f\u0bbf","name:right:vo":"Ruand\u00e4n","name:right:it":"Ruanda","name:right:is":"R\u00faanda","name:right:ru":"\u0420\u0443\u0430\u043d\u0434\u0430","name:right:io":"Ruanda","name:right:my":"\u101b\u101d\u1019\u103a\u1012\u102b\u1014\u102d\u102f\u1004\u103a\u1004\u1036","name:left:ru":"\u0411\u0443\u0440\u0443\u043d\u0434\u0438","name:left:vo":"Rundiy\u00e4n","id:right":-171496,"name:right:eo":"Ruando","name:right:ia":"Ruanda","name:right:el":"\u03a1\u03bf\u03c5\u03ac\u03bd\u03c4\u03b1","name:left:uk":"\u0411\u0443\u0440\u0443\u043d\u0434\u0456","kind":"country","name:right:bn":"\u09b0\u09c1\u09af\u09bc\u09be\u09a8\u09cd\u09a1\u09be","name:right:bo":"\u0f62\u0f74\u0f0b\u0f5d\u0f53\u0f0b\u0f4c\u0f0d","name:right:zu":"IRuwanda","name:right:ba":"\u0420\u0443\u0430\u043d\u0434\u0430","min_zoom":8.0,"name:right:be":"\u0420\u0443\u0430\u043d\u0434\u0430","name:right:bs":"Ruanda","name:right:zh":"\u5362\u65fa\u8fbe","name:left:fy":"Boer\u00fbndy","name:right:es":"Ruanda","name:right:ja":"\u30eb\u30ef\u30f3\u30c0","name:right:sq":"Ruanda","name:right:ss":"IRuwanda","name:right:sr":"\u0420\u0443\u0430\u043d\u0434\u0430","name:right:fy":"R\u00fbanda","name:right:si":"\u0dbb\u0dd4\u0dc0\u0db1\u0dca\u0da9\u0dcf \u0da2\u0db1\u0dbb\u0da2\u0dba","name:right:sh":"Ruanda","name:right:ps":"\u0631\u0627\u0648\u0646\u0689\u0627","name:right:sl":"Ruanda","name:right:so":"Ruwanda","name:right:fa":"\u0631\u0648\u0627\u0646\u062f\u0627","name:right:nv":"W\u00e1nda Dine\u02bc\u00e9 Bik\u00e9yah","name:right:fo":"Ruanda","name:right:sc":"Ruanda","id":-195269,"name:right:sg":"Ruand\u00e4a","name:right:fi":"Ruanda","name:left:eo":"Burundo","name:right:kn":"\u0cb0\u0ccd\u0cb5\u0cbe\u0c82\u0ca1","kind_detail":"2","name:right:ce":"\u0420\u0443\u0430\u043d\u0434\u0430","name:right:mr":"\u0931\u094d\u0935\u093e\u0928\u094d\u0921\u093e","name:right:zh-yue":"\u76e7\u65fa\u9054","id:left":-195269,"name:right":"Rwanda","name:right:cv":"\u0420\u0443\u0430\u043d\u0434\u0430","name:right:ka":"\u10e0\u10e3\u10d0\u10dc\u10d3\u10d0","name:right:gv":"Rooandey","name:right:pt":"Ruanda","name:right:tt":"\u0420\u0443\u0430\u043d\u0434\u0430","name:right:kk":"\u0420\u0443\u0430\u043d\u0434\u0430","name:right:tr":"Ruanda","name:right:bg":"\u0420\u0443\u0430\u043d\u0434\u0430","name:right:tl":"Ruwanda","name:right:pa":"\u0a30\u0a35\u0a3e\u0a02\u0a21\u0a3e","name:right:ga":"Ruanda","name:right:ko":"\ub974\uc644\ub2e4","name:right:tk":"Ruanda","name:right:gl":"Ruanda","name:right:tg":"\u0420\u0443\u0430\u043d\u0434\u0430","name:right:ta":"\u0bb0\u0bc1\u0bb5\u0bbe\u0ba3\u0bcd\u0b9f\u0bbe","osm_relation":true,"name:right:or":"\u0b30\u0b35\u0b3e\u0b23\u0b4d\u0b21\u0b3e","name:right:sa":"\u0930\u0935\u093e\u0923\u094d\u0921\u093e","name:right:gd":"Rubhanda","name:right:de":"Ruanda","name:right:ur":"\u0631\u0648\u0627\u0646\u0688\u0627","name:right:wo":"Ruwandaa","name:right:th":"\u0e1b\u0e23\u0e30\u0e40\u0e17\u0e28\u0e23\u0e27\u0e31\u0e19\u0e14\u0e32","name:right:dv":"\u0783\u07aa\u0788\u07a7\u0782\u07b0\u0791\u07a7","name:right:ti":"\u1229\u12cb\u1295\u12f3"},"arcs":[[2],[3],[4]]},{"type":"LineString","properties":{"name:right:yo":"R\u00f9w\u00e1nd\u00e0","name:right:hy":"\u054c\u0578\u0582\u0561\u0576\u0564\u0561","name:right:yi":"\u05e8\u05d5\u05d5\u05d0\u05e0\u05d3\u05e2","name:left:lg":"Yuganda","name:left:li":"Oeganda","name:right:hr":"Ruanda","name:right:hu":"Ruanda","name:left:ss":"IBuganda","name:left:sr":"\u0423\u0433\u0430\u043d\u0434\u0430","name:right:hi":"\u0930\u0935\u093e\u0923\u094d\u0921\u093e","name:left:so":"Yugandha","name:left:vo":"Luganday\u00e4n","name:left:sg":"Ugand\u00e4a","name:right:he":"\u05e8\u05d5\u05d0\u05e0\u05d3\u05d4","name:right:la":"Ruanda","name:left:ce":"\u0423\u0433\u0430\u043d\u0434\u0430","name:right:an":"Ruanda","name:right:am":"\u1229\u12cb\u1295\u12f3","source":"openstreetmap.org","name:right:ar":"\u0631\u0648\u0627\u0646\u062f\u0627","name:left:cv":"\u0423\u0433\u0430\u043d\u0434\u0430","name:right:az":"Ruanda","name:left:ka":"\u10e3\u10d2\u10d0\u10dc\u10d3\u10d0","name:right:zh-yue":"\u76e7\u65fa\u9054","name:left:ko":"\uc6b0\uac04\ub2e4","name:left:kn":"\u0c89\u0c97\u0cbe\u0c82\u0ca1","name:right:is":"R\u00faanda","name:left:kk":"\u0423\u0433\u0430\u043d\u0434\u0430","name:right:ru":"\u0420\u0443\u0430\u043d\u0434\u0430","name:left:ku":"\u00dbganda","name:left:kw":"Ouganda","name:left:rw":"Ubugande","name:left:ru":"\u0423\u0433\u0430\u043d\u0434\u0430","name:right:ia":"Ruanda","name":"Uganda - Rwanda","name:right:bn":"\u09b0\u09c1\u09af\u09bc\u09be\u09a8\u09cd\u09a1\u09be","name:right:bo":"\u0f62\u0f74\u0f0b\u0f5d\u0f53\u0f0b\u0f4c\u0f0d","name:right:zu":"IRuwanda","name:right:ba":"\u0420\u0443\u0430\u043d\u0434\u0430","min_zoom":8.0,"name:left:zu":"IYuganda","name:left:zh":"\u4e4c\u5e72\u8fbe","name:right:bs":"Ruanda","name:right:zh":"\u5362\u65fa\u8fbe","name:left:nv":"Yog\u00e9nda","name:left:ur":"\u06cc\u0648\u06af\u0646\u0688\u0627","name:right:wo":"Ruwandaa","name:right:ne":"\u0930\u0941\u0935\u093e\u0923\u094d\u0921\u093e","id:right":-171496,"name:left:uk":"\u0423\u0433\u0430\u043d\u0434\u0430","name:left:nl":"Oeganda","name:right:gv":"Rooandey","name:right:fa":"\u0631\u0648\u0627\u0646\u062f\u0627","name:right:nv":"W\u00e1nda Dine\u02bc\u00e9 Bik\u00e9yah","name:right:fo":"Ruanda","name:right:be":"\u0420\u0443\u0430\u043d\u0434\u0430","name:left:ug":"\u0626\u06c7\u06af\u0627\u0646\u062f\u0627","name:right:fi":"Ruanda","name:left:eo":"Ugando","name:left:el":"\u039f\u03c5\u03b3\u03ba\u03ac\u03bd\u03c4\u03b1","kind_detail":"2","name:right:ps":"\u0631\u0627\u0648\u0646\u0689\u0627","name:right:pt":"Ruanda","name:left:mk":"\u0423\u0433\u0430\u043d\u0434\u0430","name:left:mi":"Uk\u0101nga","name:left:tt":"\u0423\u0433\u0430\u043d\u0434\u0430","name:left:mn":"\u0423\u0433\u0430\u043d\u0434\u0430","name:left:ml":"\u0d09\u0d17\u0d3e\u0d23\u0d4d\u0d1f","name:left:th":"\u0e1b\u0e23\u0e30\u0e40\u0e17\u0e28\u0e22\u0e39\u0e01\u0e31\u0e19\u0e14\u0e32","name:right:pa":"\u0a30\u0a35\u0a3e\u0a02\u0a21\u0a3e","name:right:ga":"Ruanda","name:right:ko":"\ub974\uc644\ub2e4","name:left:ta":"\u0b89\u0b95\u0bbe\u0ba3\u0bcd\u0b9f\u0bbe","name:left:my":"\u101a\u1030\u1002\u1014\u103a\u1038\u1012\u102b\u1038\u1014\u102d\u102f\u1004\u103a\u1004\u1036","name:left:te":"\u0c09\u0c17\u0c3e\u0c02\u0c21\u0c3e","name:right:os":"\u0420\u0443\u0430\u043d\u0434\u00e6","name:right:or":"\u0b30\u0b35\u0b3e\u0b23\u0b4d\u0b21\u0b3e","name:left:mr":"\u092f\u0941\u0917\u093e\u0902\u0921\u093e","name:left:dv":"\u0794\u07aa\u078e\u07ac\u0782\u07b0\u0791\u07a7","name:right:ug":"\u0631\u06cb\u0627\u0646\u062f\u0627","name:left:hi":"\u092f\u0941\u0917\u093e\u0923\u094d\u0921\u093e","name:right:lb":"Ruanda","name:right:uk":"\u0420\u0443\u0430\u043d\u0434\u0430","name:left:he":"\u05d0\u05d5\u05d2\u05e0\u05d3\u05d4","name:right:lt":"Ruanda","name:right:ur":"\u0631\u0648\u0627\u0646\u0688\u0627","name:right:lv":"Ruanda","name:left:hy":"\u0548\u0582\u0563\u0561\u0576\u0564\u0561","name:right:gl":"Ruanda","name:left:ht":"Ouganda","name:right:uz":"Ruanda","name:left:wo":"Ugandaa","sort_rank":262,"name:right:gd":"Rubhanda","osm_relation":true,"name:left:gv":"Ooganda","name:left:tg":"\u0423\u0433\u0430\u043d\u0434\u0430","name:left":"Uganda","name:right:mk":"\u0420\u0443\u0430\u043d\u0434\u0430","name:right:sr":"\u0420\u0443\u0430\u043d\u0434\u0430","name:right:mn":"\u0420\u0443\u0430\u043d\u0434\u0430","name:right:eu":"Ruanda","name:right:ml":"\u0d31\u0d41\u0d35\u0d3e\u0d23\u0d4d\u0d1f","name:right:vo":"Ruand\u00e4n","name:left:os":"\u0423\u0433\u0430\u043d\u0434\u00e6","name:left:or":"\u0b09\u0b17\u0b3e\u0b23\u0b4d\u0b21\u0b3e","name:right:my":"\u101b\u101d\u1019\u103a\u1012\u102b\u1014\u102d\u102f\u1004\u103a\u1004\u1036","name:right:mr":"\u0931\u094d\u0935\u093e\u0928\u094d\u0921\u093e","name:left:oc":"Oganda","name:right:fy":"R\u00fbanda","name:right:eo":"Ruando","name:right:el":"\u03a1\u03bf\u03c5\u03ac\u03bd\u03c4\u03b1","kind":"country","name:left:fa":"\u0627\u0648\u06af\u0627\u0646\u062f\u0627","name:left:fr":"Ouganda","name:left:bg":"\u0423\u0433\u0430\u043d\u0434\u0430","name:left:br":"Ouganda","name:right:es":"Ruanda","name:right:ja":"\u30eb\u30ef\u30f3\u30c0","name:right:sq":"Ruanda","name:right:ss":"IRuwanda","name:left:ja":"\u30a6\u30ac\u30f3\u30c0","name:right:si":"\u0dbb\u0dd4\u0dc0\u0db1\u0dca\u0da9\u0dcf \u0da2\u0db1\u0dbb\u0da2\u0dba","name:right:sh":"Ruanda","name:left:ba":"\u0423\u0433\u0430\u043d\u0434\u0430","name:right:sl":"Ruanda","name:right:so":"Ruwanda","name:left:be":"\u0423\u0433\u0430\u043d\u0434\u0430","name:right:sa":"\u0930\u0935\u093e\u0923\u094d\u0921\u093e","name:right:sc":"Ruanda","name:left:bn":"\u0989\u0997\u09be\u09a8\u09cd\u09a1\u09be","name:left:bo":"\u0f68\u0f74\u0f0b\u0f42\u0f53\u0f0b\u0f51\u0f0d","name:right:sg":"Ruand\u00e4a","name:right":"Rwanda","name:right:ce":"\u0420\u0443\u0430\u043d\u0434\u0430","id":-192796,"name:left:yo":"\u00d9g\u00e1nd\u00e0","name:left:yi":"\u05d0\u05d5\u05d2\u05d0\u05e0\u05d3\u05e2","id:left":-192796,"name:right:cv":"\u0420\u0443\u0430\u043d\u0434\u0430","name:right:ka":"\u10e0\u10e3\u10d0\u10dc\u10d3\u10d0","name:right:it":"Ruanda","name:right:bg":"\u0420\u0443\u0430\u043d\u0434\u0430","name:left:ar":"\u0623\u0648\u063a\u0646\u062f\u0627","name:right:tt":"\u0420\u0443\u0430\u043d\u0434\u0430","name:right:kk":"\u0420\u0443\u0430\u043d\u0434\u0430","name:left:az":"Uqanda","name:right:tr":"Ruanda","name:right:kn":"\u0cb0\u0ccd\u0cb5\u0cbe\u0c82\u0ca1","name:right:tl":"Ruwanda","name:right:th":"\u0e1b\u0e23\u0e30\u0e40\u0e17\u0e28\u0e23\u0e27\u0e31\u0e19\u0e14\u0e32","name:right:ti":"\u1229\u12cb\u1295\u12f3","name:right:tk":"Ruanda","name:right:te":"\u0c30\u0c41\u0c35\u0c3e\u0c02\u0c21\u0c3e","name:left:am":"\u12e9\u130b\u1295\u12f3","name:right:tg":"\u0420\u0443\u0430\u043d\u0434\u0430","name:left:is":"\u00daganda","name:right:ta":"\u0bb0\u0bc1\u0bb5\u0bbe\u0ba3\u0bcd\u0b9f\u0bbe","name:right:io":"Ruanda","name:right:de":"Ruanda","name:left:zh-yue":"\u70cf\u5e72\u9054","name:left:pa":"\u0a2f\u0a41\u0a17\u0a3e\u0a02\u0a21\u0a3e","name:right:dv":"\u0783\u07aa\u0788\u07a7\u0782\u07b0\u0791\u07a7"},"arcs":[5]},{"type":"LineString","properties":{"name:right:yo":"R\u00f9w\u00e1nd\u00e0","name:left:la":"Respublica Democratica Congensis","name:left:lb":"Demokratesch Republik Kongo","alt_name:left:eo":"Kongo Kin\u015dasa","alt_name:left:en":"Congo-Kinshasa","name:right:yi":"\u05e8\u05d5\u05d5\u05d0\u05e0\u05d3\u05e2","name:right:hy":"\u054c\u0578\u0582\u0561\u0576\u0564\u0561","name:left:su":"R\u00e9publik D\u00e9mokratik Kongo","name:right:hr":"Ruanda","name:left:sv":"Demokratiska Republiken Kongo","name:left:sq":"Republika Demokratike e Kongos","name:right:hu":"Ruanda","name:left:ss":"IKhongo","name:left:sr":"\u0414\u0435\u043c\u043e\u043a\u0440\u0430\u0442\u0441\u043a\u0430 \u0420\u0435\u043f\u0443\u0431\u043b\u0438\u043a\u0430 \u041a\u043e\u043d\u0433\u043e","name:left:sl":"Demokrati\u010dna republika Kongo","name:left:so":"Jamhuuriyada Dimuqaraadiga Kongo","name:left:sn":"Democratic Republic of the Congo","name:left:lt":"Kongo Demokratin\u0117 Respublika","name:left:sh":"Demokratska Republika Kongo","name:left:lv":"Kongo Demokr\u0101tisk\u0101 Republika","name:left:vo":"Kongo\u00e4n (Rep\u00fcblik\u00e4n Demokratik)","name:left:se":"Kongo demokr\u00e1htala\u0161 d\u00e1ssev\u00e1ldi","name:left:sg":"K\u00f9od\u00f9or\u00f9os\u00ease t\u00ee Ngunuhal\u00ebzo t\u00ee Kong\u00f6","name:right:he":"\u05e8\u05d5\u05d0\u05e0\u05d3\u05d4","name:left:sc":"Rep\u00f9brica Democr\u00e0tiga de su Congo","name:left:hi":"\u0915\u093e\u0902\u0917\u094b \u0932\u094b\u0915\u0924\u093e\u0928\u094d\u0924\u094d\u0930\u093f\u0915 \u0917\u0923\u0930\u093e\u091c\u094d\u092f","name:left:ce":"\u0425\u0430\u043b\u043a\u044a\u0430 \u043a\u0443\u044c\u0439\u0433\u0430\u043b\u043b\u0438\u0439\u0446\u0430 \u0439\u043e\u043b\u0443 \u041f\u0430\u0447\u0445\u044c\u0430\u043b\u043a\u0445 \u041a\u043e\u043d\u0433\u043e","name:right:an":"Ruanda","name:right:am":"\u1229\u12cb\u1295\u12f3","name:left:ca":"Rep\u00fablica Democr\u00e0tica del Congo","source":"openstreetmap.org","name:left:cy":"Gweriniaeth Ddemocrataidd Congo","alt_name:left:ln":"Kong\u00f3-Kins\u00e1s\u00e1","name:left:cv":"\u041a\u043e\u043d\u0433\u043e \u0414\u0435\u043c\u043e\u043a\u0440\u0430\u0442\u0438\u043b\u043b\u0115 \u0420\u0435\u0441\u043f\u0443\u0431\u043b\u0438\u043a\u0438","name:right:az":"Ruanda","name:left:cs":"Demokratick\u00e1 republika Kongo","name:left:kg":"Repubilika ya Kongo ya Dimokalasi","name:left:ka":"\u10d9\u10dd\u10dc\u10d2\u10dd\u10e1 \u10d3\u10d4\u10db\u10dd\u10d9\u10e0\u10d0\u10e2\u10d8\u10e3\u10da\u10d8 \u10e0\u10d4\u10e1\u10de\u10e3\u10d1\u10da\u10d8\u10d9\u10d0","name:left:yi":"\u05d3\u05e2\u05de\u05d0\u05e7\u05e8\u05d0\u05d8\u05d9\u05e9\u05e2 \u05e8\u05e2\u05e4\u05d5\u05d1\u05dc\u05d9\u05e7 \u05e4\u05d5\u05df \u05e7\u05d0\u05e0\u05d2\u05d0","name:right:dv":"\u0783\u07aa\u0788\u07a7\u0782\u07b0\u0791\u07a7","name:left:ko":"\ucf69\uace0 \ubbfc\uc8fc \uacf5\ud654\uad6d","name:left:kn":"\u0c95\u0cbe\u0c82\u0c97\u0ccb \u0caa\u0ccd\u0cb0\u0c9c\u0cbe\u0cb8\u0ca4\u0ccd\u0ca4\u0cbe\u0ca4\u0ccd\u0cae\u0c95 \u0c97\u0ca3\u0cb0\u0cbe\u0c9c\u0ccd\u0caf","name:right:is":"R\u00faanda","name:left:ro":"Republica Democrat\u0103 Congo","name:left:kk":"\u041a\u043e\u043d\u0433\u043e \u0414\u0435\u043c\u043e\u043a\u0440\u0430\u0442\u0438\u044f\u043b\u044b\u049b \u0420\u0435\u0441\u043f\u0443\u0431\u043b\u0438\u043a\u0430\u0441\u044b","name:right:ru":"\u0420\u0443\u0430\u043d\u0434\u0430","name:right:io":"Ruanda","name:left:kw":"Repoblek Werinel Kongo","name:left:rw":"Repubulika Iharanira Demokarasi ya Kongo","name:left:ru":"\u0414\u0435\u043c\u043e\u043a\u0440\u0430\u0442\u0438\u0447\u0435\u0441\u043a\u0430\u044f \u0420\u0435\u0441\u043f\u0443\u0431\u043b\u0438\u043a\u0430 \u041a\u043e\u043d\u0433\u043e","alt_name:left:li":"Kongo-Kinshasa","alt_name:left:sv":"Kongo-Kinshasa","name:right:ia":"Ruanda","name":"R\u00e9publique d\u00e9mocratique du Congo - Rwanda","name:left:wa":"Republike democratike do Congo","name:right:bn":"\u09b0\u09c1\u09af\u09bc\u09be\u09a8\u09cd\u09a1\u09be","name:right:bo":"\u0f62\u0f74\u0f0b\u0f5d\u0f53\u0f0b\u0f4c\u0f0d","name:right:zu":"IRuwanda","old_name:left:fr":"Za\u00efre","name:right:ba":"\u0420\u0443\u0430\u043d\u0434\u0430","name:right:bg":"\u0420\u0443\u0430\u043d\u0434\u0430","name:left:zu":"IRiphabliki Labantu weKongo","name:left:zh":"\u521a\u679c\u6c11\u4e3b\u5171\u548c\u56fd","name:left:si":"\u0d9a\u0ddc\u0d82\u0d9c\u0ddd \u0db4\u0dca\u200d\u0dbb\u0da2\u0dcf\u0dad\u0db1\u0dca\u0dad\u0dca\u200d\u0dbb\u0dc0\u0dcf\u0daf\u0dd3 \u0da2\u0db1\u0dbb\u0da2\u0dba","name:right:zh":"\u5362\u65fa\u8fbe","name:left:za":"Ganggoj Minzcuj Gunghozgoz","name:left:uz":"Kongo Demokratik Respublikasi","name:left:sk":"Kongo (b\u00fdv. Zair)","name:left:nv":"K\u00e9yah K\u00e1ango Sh\u00e1di\u02bc\u00e1\u00e1hj\u00ed Si\u02bc\u00e1n\u00edg\u00ed\u00ed","name:left:ur":"\u062c\u0645\u06c1\u0648\u0631\u06cc \u062c\u0645\u06c1\u0648\u0631\u06cc\u06c1 \u06a9\u0627\u0646\u06af\u0648","name:right:wo":"Ruwandaa","name:right:ne":"\u0930\u0941\u0935\u093e\u0923\u094d\u0921\u093e","id:right":-171496,"name:left:uk":"\u0414\u0435\u043c\u043e\u043a\u0440\u0430\u0442\u0438\u0447\u043d\u0430 \u0420\u0435\u0441\u043f\u0443\u0431\u043b\u0456\u043a\u0430 \u041a\u043e\u043d\u0433\u043e","name:left:no":"Den demokratiske republikken Kongo","name:right:gv":"Rooandey","name:right:hi":"\u0930\u0935\u093e\u0923\u094d\u0921\u093e","name:right:fa":"\u0631\u0648\u0627\u0646\u062f\u0627","name:right:nv":"W\u00e1nda Dine\u02bc\u00e9 Bik\u00e9yah","name:right:fo":"Ruanda","name:right:be":"\u0420\u0443\u0430\u043d\u0434\u0430","name:left:ug":"\u0643\u0648\u0646\u06af\u0648 \u062f\u06d0\u0645\u0648\u0643\u0631\u0627\u062a\u0649\u0643 \u062c\u06c7\u0645\u06be\u06c7\u0631\u0649\u064a\u0649\u062a\u0649","name:left:na":"Ripubrikit Engame Kongo","name:left:eo":"Demokratia Respubliko Kongo","name:left:en":"Democratic Republic of the Congo","name:left:el":"\u039b\u03b1\u03ca\u03ba\u03ae \u0394\u03b7\u03bc\u03bf\u03ba\u03c1\u03b1\u03c4\u03af\u03b1 \u03c4\u03bf\u03c5 \u039a\u03bf\u03bd\u03b3\u03ba\u03cc","kind_detail":"2","old_name:left:en":"Zaire","name:left:pl":"Demokratyczna Republika Konga","name:left:wo":"Republik Demokaraatik bu Kong\u00f3o","name:left:es":"Rep\u00fablica Democr\u00e1tica del Congo","name:left:ie":"Democratic Republic de Congo","name:left:eu":"Kongoko Errepublika Demokratikoa","name:left:et":"Kongo Demokraatlik Vabariik","name:right:ps":"\u0631\u0627\u0648\u0646\u0689\u0627","name:left:mg":"Repoblika Demokratikan'i Kongo","name:left:mk":"\u0414\u0435\u043c\u043e\u043a\u0440\u0430\u0442\u0441\u043a\u0430 \u0420\u0435\u043f\u0443\u0431\u043b\u0438\u043a\u0430 \u041a\u043e\u043d\u0433\u043e","name:left:tr":"Demokratik Kongo Cumhuriyeti","name:left:ts":"Democratic Republic of the Congo","name:left:tt":"\u041a\u043e\u043d\u0433\u043e \u0414\u0435\u043c\u043e\u043a\u0440\u0430\u0442\u0438\u043a \u0496\u04e9\u043c\u04bb\u04af\u0440\u0438\u044f\u0442\u0435","name:left:mn":"\u0411\u04af\u0433\u0434 \u041d\u0430\u0439\u0440\u0430\u043c\u0434\u0430\u0445 \u0410\u0440\u0434\u0447\u0438\u043b\u0441\u0430\u043d \u041a\u043e\u043d\u0433\u043e \u0423\u043b\u0441","name:left:ml":"\u0d21\u0d46\u0d2e\u0d4b\u0d15\u0d4d\u0d30\u0d3e\u0d31\u0d4d\u0d31\u0d3f\u0d15\u0d4d \u0d31\u0d3f\u0d2a\u0d2c\u0d4d\u0d32\u0d3f\u0d15\u0d4d\u0d15\u0d4d \u0d13\u0d2b\u0d4d \u0d15\u0d4b\u0d02\u0d17\u0d4b","name:left:th":"\u0e2a\u0e32\u0e18\u0e32\u0e23\u0e13\u0e23\u0e31\u0e10\u0e1b\u0e23\u0e30\u0e0a\u0e32\u0e18\u0e34\u0e1b\u0e44\u0e15\u0e22\u0e04\u0e2d\u0e07\u0e42\u0e01","name:right:pa":"\u0a30\u0a35\u0a3e\u0a02\u0a21\u0a3e","name:left:zh-min-nan":"Congo B\u00een-ch\u00fa Ki\u014dng-h\u00f4-kok","name:left:tk":"Kongo Demokratik Respublikasy","name:left:tl":"Demokratikong Republika ng Konggo","name:right:ko":"\ub974\uc644\ub2e4","name:right:fi":"Ruanda","name:right:bs":"Ruanda","name:right:gl":"Ruanda","alt_name:left:nl":"Congo-Kinshasa","alt_name:left:fr":"Congo-Kinshasa","name:right:os":"\u0420\u0443\u0430\u043d\u0434\u00e6","name:right:or":"\u0b30\u0b35\u0b3e\u0b23\u0b4d\u0b21\u0b3e","name:left:pt":"Rep\u00fablica Popular do Congo","name:right:ka":"\u10e0\u10e3\u10d0\u10dc\u10d3\u10d0","name:left:mr":"\u0915\u093e\u0901\u0917\u094b\u091a\u0947 \u0932\u094b\u0915\u0936\u093e\u0939\u0940 \u092a\u094d\u0930\u091c\u093e\u0938\u0924\u094d\u0924\u093e\u0915","name:left:da":"Demokratiske Republik Congo","name:left:de":"Demokratische Republik Kongo","name:right:ga":"Ruanda","old_name:left":"Za\u00efre","name:left:dv":"\u0786\u07ae\u0782\u07b0\u078e\u07af (\u078b\u07a8\u0789\u07a8\u07a4\u07b0\u0783\u07a7\u07a0\u07a9 \u0796\u07aa\u0789\u07b0\u0780\u07ab\u0783\u07a8\u0787\u07b0\u0794\u07a7)","name:right:ug":"\u0631\u06cb\u0627\u0646\u062f\u0627","name:right:la":"Ruanda","name:right:lb":"Ruanda","name:right:uk":"\u0420\u0443\u0430\u043d\u0434\u0430","name:left:he":"\u05d4\u05e8\u05e4\u05d5\u05d1\u05dc\u05d9\u05e7\u05d4 \u05d4\u05d3\u05de\u05d5\u05e7\u05e8\u05d8\u05d9\u05ea \u05e9\u05dc \u05e7\u05d5\u05e0\u05d2\u05d5","alt_name:left:is":"Austur-Kong\u00f3;Kong\u00f3-Kinsasa","name:left:ha":"Jamhuriyar dimokuradiyya Kwango","name:right:lt":"Ruanda","name:right:ur":"\u0631\u0648\u0627\u0646\u0688\u0627","name:right:lv":"Ruanda","name:left:hy":"\u053f\u0578\u0576\u0563\u0578\u0575\u056b \u0534\u0565\u0574\u0578\u056f\u0580\u0561\u057f\u0561\u056f\u0561\u0576 \u0540\u0561\u0576\u0580\u0561\u057a\u0565\u057f\u0578\u0582\u0569\u0575\u0578\u0582\u0576","name:left:ta":"\u0b95\u0bbe\u0b99\u0bcd\u0b95\u0bcb \u0bae\u0b95\u0bcd\u0b95\u0bb3\u0bbe\u0b9f\u0bcd\u0b9a\u0bbf\u0b95\u0bcd \u0b95\u0bc1\u0b9f\u0bbf\u0baf\u0bb0\u0b9a\u0bc1","name:left:hu":"Kong\u00f3i Demokratikus K\u00f6zt\u00e1rsas\u00e1g","name:left:my":"\u1000\u103d\u1014\u103a\u1002\u102d\u102f\u1012\u102e\u1019\u102d\u102f\u1000\u101b\u1000\u103a\u1010\u1005\u103a\u101e\u1019\u1039\u1019\u1010\u1014\u102d\u102f\u1004\u103a\u1004\u1036","name:left:hr":"Demokratska Republika Kongo","name:left:ga":"Poblacht Dhaonlathach an Chong\u00f3","short_name:left":"RD Congo","name:right:tg":"\u0420\u0443\u0430\u043d\u0434\u0430","name:left:gd":"Poblachd Dheamocrach na Congo","sort_rank":262,"name:right:gd":"Rubhanda","name:left:gl":"Rep\u00fablica Democr\u00e1tica do Congo","name:left:gn":"Tet\u00e3 Jekopytyjoja Kongo","osm_relation":true,"name:left:gv":"Pobblaght Gheynlagh ny Congo","name:right:ar":"\u0631\u0648\u0627\u0646\u062f\u0627","name:right:es":"Ruanda","name:right:sr":"\u0420\u0443\u0430\u043d\u0434\u0430","name:right:pt":"Ruanda","name:right:mn":"\u0420\u0443\u0430\u043d\u0434\u0430","name:right:eu":"Ruanda","name:right:ml":"\u0d31\u0d41\u0d35\u0d3e\u0d23\u0d4d\u0d1f","alt_name:left:ht":"Kongo-Kinchasa","name:right:vo":"Ruand\u00e4n","name:left:os":"\u041a\u043e\u043d\u0433\u043e\u0439\u044b \u0414\u0435\u043c\u043e\u043a\u0440\u0430\u0442\u043e\u043d \u0420\u0435\u0441\u043f\u0443\u0431\u043b\u0438\u043a\u00e6","name:left:or":"\u0b15\u0b19\u0b4d\u0b17\u0b4b","alt_name:left:wo":"Kong\u00f3o-Kinshasa","name:left:sw":"Jamhuri ya Kidemokrasia ya Kongo","name:right:my":"\u101b\u101d\u1019\u103a\u1012\u102b\u1014\u102d\u102f\u1004\u103a\u1004\u1036","name:right:uz":"Ruanda","name:right:mr":"\u0931\u094d\u0935\u093e\u0928\u094d\u0921\u093e","name:left:oc":"Republica Democratica de C\u00f2ngo","name:right:fy":"R\u00fbanda","name:right:eo":"Ruando","name:left:vi":"C\u1ed9ng h\u00f2a D\u00e2n ch\u1ee7 Congo","name:left:nn":"Den demokratiske republikken Kongo","kind":"country","name:left:fa":"\u062c\u0645\u0647\u0648\u0631\u06cc \u062f\u0645\u0648\u06a9\u0631\u0627\u062a\u06cc\u06a9 \u06a9\u0646\u06af\u0648","name:left:ia":"Republica Democratic del Congo","name:left:fo":"F\u00f3lkar\u00e6\u00f0iliga L\u00fd\u00f0veldi\u00f0 Kongo","name:left:fi":"Kongon demokraattinen tasavalta","name:right:te":"\u0c30\u0c41\u0c35\u0c3e\u0c02\u0c21\u0c3e","name:left":"R\u00e9publique d\u00e9mocratique du Congo","name:left:fy":"Demokratyske Republyk Kongo","name:left:br":"Republik Demokratel Kongo","name:left:bs":"Demokratska Republika Kongo","name:right:ja":"\u30eb\u30ef\u30f3\u30c0","name:right:sq":"Ruanda","name:right:ss":"IRuwanda","name:left:ja":"\u30b3\u30f3\u30b4\u6c11\u4e3b\u5171\u548c\u56fd","name:right:si":"\u0dbb\u0dd4\u0dc0\u0db1\u0dca\u0da9\u0dcf \u0da2\u0db1\u0dbb\u0da2\u0dba","name:right:sh":"Ruanda","name:left:qu":"Kungu Runakamaq Republika","name:left:bg":"\u0414\u0435\u043c\u043e\u043a\u0440\u0430\u0442\u0438\u0447\u043d\u0430 \u0440\u0435\u043f\u0443\u0431\u043b\u0438\u043a\u0430 \u041a\u043e\u043d\u0433\u043e","name:right:so":"Ruwanda","name:left:be":"\u0414\u044d\u043c\u0430\u043a\u0440\u0430\u0442\u044b\u0447\u043d\u0430\u044f \u0420\u044d\u0441\u043f\u0443\u0431\u043b\u0456\u043a\u0430 \u041a\u043e\u043d\u0433\u0430","name:right:sa":"\u0930\u0935\u093e\u0923\u094d\u0921\u093e","name:right:sl":"Ruanda","name:right:sc":"Ruanda","name:left:bn":"\u0997\u09a3\u09a4\u09be\u09a8\u09cd\u09a4\u09cd\u09b0\u09bf\u0995 \u0995\u0999\u09cd\u0997\u09cb \u09aa\u09cd\u09b0\u099c\u09be\u09a4\u09a8\u09cd\u09a4\u09cd\u09b0","name:left:bo":"\u0f40\u0f7c\u0f44\u0f0b\u0f42\u0f7c\u0f0b\u0f58\u0f72\u0f0b\u0f51\u0f58\u0f44\u0f66\u0f0b\u0f51\u0f58\u0f44\u0f66\u0f0b\u0f42\u0f59\u0f7c\u0f0d","name:right:sg":"Ruand\u00e4a","name:left:bm":"Kongo ka B\u025bj\u025bfanga Fasojamana","name:left:ne":"\u092a\u094d\u0930\u091c\u093e\u0924\u093e\u0928\u094d\u0924\u094d\u0930\u093f\u0915 \u0917\u0923\u0924\u0928\u094d\u0924\u094d\u0930 \u0915\u0902\u0917\u094b","old_name:left:is":"Sa\u00edr","name:left:jv":"Republik Dh\u00e9mokratis Kongo","name:right:ce":"\u0420\u0443\u0430\u043d\u0434\u0430","id":-192795,"name:left:yo":"Or\u00edl\u1eb9\u0300-\u00e8d\u00e8 Ol\u00f3m\u00ecnira Ol\u00f3\u1e63\u00e8l\u00fa il\u1eb9\u0300 K\u00f3ng\u00f2","name:right:zh-yue":"\u76e7\u65fa\u9054","id:left":-192795,"old_name:left:sk":"Zair","min_zoom":8.0,"name:right":"Rwanda","name:right:cv":"\u0420\u0443\u0430\u043d\u0434\u0430","name:right:mk":"\u0420\u0443\u0430\u043d\u0434\u0430","name:right:it":"Ruanda","name:left:io":"Demokratial Republiko Kongo","name:left:ar":"\u062c\u0645\u0647\u0648\u0631\u064a\u0629 \u0627\u0644\u0643\u0648\u0646\u063a\u0648 \u0627\u0644\u062f\u064a\u0645\u0642\u0631\u0627\u0637\u064a\u0629","name:right:tt":"\u0420\u0443\u0430\u043d\u0434\u0430","name:right:kk":"\u0420\u0443\u0430\u043d\u0434\u0430","name:left:id":"Republik Demokratik Kongo","name:left:az":"Konqo Demokratik Respublikas\u0131","name:right:tr":"Ruanda","name:right:kn":"\u0cb0\u0ccd\u0cb5\u0cbe\u0c82\u0ca1","name:right:tl":"Ruwanda","name:left:af":"Demokratiese Republiek van die Kongo","name:right:th":"\u0e1b\u0e23\u0e30\u0e40\u0e17\u0e28\u0e23\u0e27\u0e31\u0e19\u0e14\u0e32","name:right:ti":"\u1229\u12cb\u1295\u12f3","name:right:tk":"Ruanda","name:left:an":"Republica Democratica d'o Congo","name:left:am":"\u12ae\u1295\u130e \u12f2\u121e\u12ad\u122b\u1232\u12eb\u12ca \u122a\u1350\u1265\u120a\u12ad","name:left:it":"Repubblica Democratica del Congo","name:left:is":"L\u00fd\u00f0r\u00e6\u00f0islega L\u00fd\u00f0veldi\u00f0 Kong\u00f3","name:right:ta":"\u0bb0\u0bc1\u0bb5\u0bbe\u0ba3\u0bcd\u0b9f\u0bbe","name:left:ku":"Kongoya Demokrat\u00eek","name:right:de":"Ruanda","name:left:ms":"Republik Demokratik Congo","name:right:el":"\u03a1\u03bf\u03c5\u03ac\u03bd\u03c4\u03b1","name:left:zh-yue":"\u525b\u679c\u6c11\u4e3b\u5171\u548c\u570b","name:left:pa":"\u0a15\u0a3e\u0a02\u0a17\u0a4b \u0a32\u0a4b\u0a15\u0a24\u0a70\u0a24\u0a30\u0a40 \u0a17\u0a23\u0a30\u0a3e\u0a1c"},"arcs":[6]},{"type":"LineString","properties":{"kind":"region","name:en":"North Kivu","name":"Nord-Kivu","sort_rank":256,"kind_detail":"4","name:de":"Nordkivu","source":"openstreetmap.org","min_zoom":8.0,"id":-5642698,"osm_relation":true},"arcs":[7]},{"type":"MultiLineString","properties":{"kind":"region","name:left:en":"Southern Province, Rwanda","name":"Amajvepfo - Ngozi","sort_rank":256,"kind_detail":"4","alt_name:left:de":"S\u00fcd Provinz","id:right":-1700331,"source":"openstreetmap.org","min_zoom":8.0,"osm_relation":true,"id:left":-1707122,"name:left":"Amajvepfo","id":-1707122,"name:left:cs":"Ji\u017en\u00ed provincie (Rwanda)","name:right":"Ngozi"},"arcs":[[8],[9],[10]]},{"type":"LineString","properties":{"alt_name:left:de":"S\u00fcd Provinz","name:right:ru":"\u041a\u0430\u044f\u043d\u0437\u0430","min_zoom":8.0,"id:right":-1700316,"id":-1707122,"osm_relation":true,"name:left:en":"Southern Province, Rwanda","kind":"region","name":"Amajvepfo - Kayanza","sort_rank":256,"kind_detail":"4","source":"openstreetmap.org","id:left":-1707122,"name:right":"Kayanza","name:left:cs":"Ji\u017en\u00ed provincie (Rwanda)","name:left":"Amajvepfo"},"arcs":[11]},{"type":"LineString","properties":{"kind":"region","name:en":"Southern Province, Rwanda","name":"Amajvepfo","alt_name:de":"S\u00fcd Provinz","sort_rank":256,"kind_detail":"4","name:cs":"Ji\u017en\u00ed provincie (Rwanda)","source":"openstreetmap.org","min_zoom":8.0,"id":-1707122,"osm_relation":true},"arcs":[12]},{"type":"LineString","properties":{"kind":"region","name":"Ngozi - Muyinga","sort_rank":256,"kind_detail":"4","id:right":-1700330,"source":"openstreetmap.org","min_zoom":8.0,"id:left":-1700331,"name:left":"Ngozi","id":-1700331,"osm_relation":true,"name:right":"Muyinga"},"arcs":[13]},{"type":"LineString","properties":{"name:left":"Ngozi","kind":"region","name":"Ngozi - Kayanza","sort_rank":256,"kind_detail":"4","name:right:ru":"\u041a\u0430\u044f\u043d\u0437\u0430","source":"openstreetmap.org","min_zoom":8.0,"id:left":-1700331,"id:right":-1700316,"id":-1700331,"osm_relation":true,"name:right":"Kayanza"},"arcs":[14]},{"type":"LineString","properties":{"kind":"region","name":"Ngozi","sort_rank":256,"kind_detail":"4","source":"openstreetmap.org","min_zoom":8.0,"id":-1700331,"osm_relation":true},"arcs":[15]},{"type":"LineString","properties":{"name:left":"Muyinga","kind":"region","name":"Muyinga - Kagera","source":"openstreetmap.org","name:right:uk":"\u041a\u0430\u0491\u0435\u0440\u0430","kind_detail":"4","name:right:ru":"\u041a\u0430\u0433\u0435\u0440\u0430","sort_rank":256,"min_zoom":8.0,"id:left":-1700330,"id:right":-1600767,"id":-1700330,"osm_relation":true,"name:right":"Kagera"},"arcs":[16]},{"type":"LineString","properties":{"kind":"region","name":"Muyinga","sort_rank":256,"kind_detail":"4","source":"openstreetmap.org","min_zoom":8.0,"id":-1700330,"osm_relation":true},"arcs":[17]},{"type":"LineString","properties":{"kind":"region","name":"Kagera","sort_rank":256,"kind_detail":"4","source":"openstreetmap.org","min_zoom":8.0,"name:uk":"\u041a\u0430\u0491\u0435\u0440\u0430","name:ru":"\u041a\u0430\u0433\u0435\u0440\u0430","id":-1600767,"osm_relation":true},"arcs":[18]}]},"roads":{"type":"GeometryCollection","geometries":[{"type":"MultiLineString","properties":{"kind":"major_road","network":"sadc","sort_rank":381,"kind_detail":"trunk","source":"openstreetmap.org","min_zoom":8.0,"shield_text":null,"ref":"NR4"},"arcs":[[19],[20],[21],[22]]},{"type":"MultiLineString","properties":{"source":"openstreetmap.org","kind":"major_road","landuse_kind":"urban_area","sort_rank":380,"kind_detail":"primary","ref":"NR16","min_zoom":8.0},"arcs":[[23],[24]]},{"type":"LineString","properties":{"kind":"major_road","network":"sadc","sort_rank":381,"landuse_kind":"urban_area","source":"openstreetmap.org","min_zoom":8.0,"kind_detail":"trunk","shield_text":null},"arcs":[25]},{"type":"LineString","properties":{"kind":"major_road","network":"sadc","sort_rank":380,"kind_detail":"primary","source":"openstreetmap.org","min_zoom":8.0,"landuse_kind":"urban_area","shield_text":null,"id":315177862},"arcs":[26]},{"type":"LineString","properties":{"source":"openstreetmap.org","kind":"major_road","sort_rank":381,"kind_detail":"trunk","ref":"NR3","min_zoom":8.0},"arcs":[27]},{"type":"LineString","properties":{"kind":"major_road","sort_rank":381,"landuse_kind":"urban_area","source":"openstreetmap.org","min_zoom":8.0,"kind_detail":"trunk","ref":"NR3","id":106463416},"arcs":[28]},{"type":"LineString","properties":{"source":"openstreetmap.org","kind":"major_road","sort_rank":381,"kind_detail":"trunk","ref":"RN4","min_zoom":8.0,"id":204892585},"arcs":[29]},{"type":"MultiLineString","properties":{"sort_rank":381,"source":"openstreetmap.org","min_zoom":8.0,"kind":"major_road","kind_detail":"trunk"},"arcs":[[30],[31],[32],[33],[34],[35]]},{"type":"MultiLineString","properties":{"kind":"major_road","network":"sadc","sort_rank":381,"kind_detail":"trunk","is_bicycle_related":true,"source":"openstreetmap.org","min_zoom":8.0,"landuse_kind":"residential","shield_text":null,"ref":"NR3"},"arcs":[[36],[37],[38]]},{"type":"LineString","properties":{"source":"openstreetmap.org","kind":"major_road","landuse_kind":"urban_area","sort_rank":380,"kind_detail":"primary","ref":"NR11","min_zoom":8.0},"arcs":[39]},{"type":"LineString","properties":{"kind":"major_road","sort_rank":381,"landuse_kind":"residential","is_bicycle_related":true,"source":"openstreetmap.org","min_zoom":8.0,"kind_detail":"trunk","id":25796187},"arcs":[40]},{"type":"LineString","properties":{"source":"openstreetmap.org","kind":"major_road","sort_rank":380,"kind_detail":"primary","ref":"RN1","min_zoom":8.0},"arcs":[41]},{"type":"LineString","properties":{"source":"openstreetmap.org","kind":"major_road","sort_rank":381,"kind_detail":"trunk","ref":"NR5","min_zoom":8.0},"arcs":[42]},{"type":"MultiLineString","properties":{"kind":"major_road","network":"sadc","sort_rank":381,"kind_detail":"trunk","source":"openstreetmap.org","min_zoom":8.0,"shield_text":null,"ref":"NR3"},"arcs":[[43],[44]]},{"type":"LineString","properties":{"kind":"major_road","network":"sadc","sort_rank":381,"kind_detail":"trunk","source":"openstreetmap.org","min_zoom":8.0,"landuse_kind":"residential","shield_text":null},"arcs":[45]},{"type":"MultiLineString","properties":{"source":"openstreetmap.org","kind":"major_road","sort_rank":380,"kind_detail":"primary","ref":"NR7","min_zoom":8.0},"arcs":[[46],[47],[48],[49]]},{"type":"MultiLineString","properties":{"kind":"major_road","network":"sadc","sort_rank":381,"kind_detail":"trunk","source":"openstreetmap.org","min_zoom":8.0,"shield_text":null,"ref":"T3"},"arcs":[[50],[51],[52]]},{"type":"MultiLineString","properties":{"source":"openstreetmap.org","kind":"major_road","sort_rank":381,"kind_detail":"trunk","ref":"NR2","min_zoom":8.0},"arcs":[[53],[54],[55],[56],[57],[58]]},{"type":"MultiLineString","properties":{"source":"openstreetmap.org","kind":"major_road","sort_rank":380,"kind_detail":"primary","ref":"NR16","min_zoom":8.0},"arcs":[[59],[60],[61]]},{"type":"MultiLineString","properties":{"source":"openstreetmap.org","kind":"major_road","sort_rank":380,"kind_detail":"primary","ref":"NR6","min_zoom":8.0},"arcs":[[62],[63]]},{"type":"LineString","properties":{"kind":"major_road","sort_rank":381,"kind_detail":"trunk","is_bicycle_related":true,"bus_network":null,"source":"openstreetmap.org","min_zoom":8.0,"bus_shield_text":"302","landuse_kind":"residential","id":456635786},"arcs":[64]},{"type":"LineString","properties":{"source":"openstreetmap.org","kind":"major_road","sort_rank":380,"kind_detail":"primary","ref":"NR20","min_zoom":8.0},"arcs":[65]},{"type":"MultiLineString","properties":{"sort_rank":380,"kind_detail":"primary","min_zoom":8.0,"kind":"major_road","source":"openstreetmap.org"},"arcs":[[66],[67],[68],[69],[70],[71],[72],[73],[74],[75]]},{"type":"MultiLineString","properties":{"source":"openstreetmap.org","kind":"major_road","sort_rank":380,"kind_detail":"primary","ref":"RN 14","min_zoom":8.0},"arcs":[[76],[77],[78]]},{"type":"LineString","properties":{"source":"openstreetmap.org","kind":"major_road","sort_rank":380,"kind_detail":"primary","ref":"RN 6","min_zoom":8.0},"arcs":[79]},{"type":"MultiLineString","properties":{"source":"openstreetmap.org","kind":"major_road","network":"sadc","sort_rank":381,"kind_detail":"trunk","min_zoom":8.0,"shield_text":null},"arcs":[[80],[81],[82],[83]]},{"type":"LineString","properties":{"kind":"major_road","network":"sadc","sort_rank":381,"kind_detail":"trunk","source":"openstreetmap.org","min_zoom":8.0,"landuse_kind":"urban_area","shield_text":null,"ref":"NR3","id":265418282},"arcs":[84]},{"type":"LineString","properties":{"source":"openstreetmap.org","kind":"ferry","name":"ferry?","sort_rank":355,"min_zoom":8.0,"id":125859106},"arcs":[85]},{"type":"MultiLineString","properties":{"source":"openstreetmap.org","kind":"major_road","kind_detail":"trunk","sort_rank":381,"landuse_kind":"urban_area","min_zoom":8.0},"arcs":[[86],[87],[88],[89],[90]]},{"type":"MultiLineString","properties":{"source":"openstreetmap.org","kind":"major_road","sort_rank":380,"kind_detail":"primary","ref":"NR15","min_zoom":8.0},"arcs":[[91],[92],[93],[94],[95]]},{"type":"MultiLineString","properties":{"bus_network":null,"sort_rank":381,"landuse_kind":"residential","kind":"major_road","source":"openstreetmap.org","min_zoom":8.0,"bus_shield_text":"302","kind_detail":"trunk"},"arcs":[[96],[97],[98],[99],[100],[101],[102],[103],[104],[105]]},{"type":"LineString","properties":{"kind":"major_road","network":"TANROADS","sort_rank":380,"kind_detail":"primary","source":"openstreetmap.org","min_zoom":8.0,"shield_text":"11","ref":"T11"},"arcs":[106]},{"type":"LineString","properties":{"source":"openstreetmap.org","kind":"major_road","sort_rank":380,"kind_detail":"primary","ref":"NR17","min_zoom":8.0},"arcs":[107]},{"type":"MultiLineString","properties":{"source":"openstreetmap.org","kind":"major_road","sort_rank":381,"kind_detail":"trunk","ref":"NR4","min_zoom":8.0},"arcs":[[108],[109],[110]]},{"type":"MultiLineString","properties":{"bus_network":null,"network":"sadc","sort_rank":380,"kind_detail":"primary","kind":"major_road","source":"openstreetmap.org","min_zoom":8.0,"bus_shield_text":"305","shield_text":null,"landuse_kind":"residential"},"arcs":[[111],[112]]},{"type":"LineString","properties":{"kind":"major_road","network":"sadc","sort_rank":381,"kind_detail":"trunk","source":"openstreetmap.org","min_zoom":8.0,"landuse_kind":"urban_area","shield_text":null,"ref":"NR4","id":306164627},"arcs":[113]},{"type":"LineString","properties":{"kind":"major_road","network":"sadc","sort_rank":380,"kind_detail":"primary","source":"openstreetmap.org","min_zoom":8.0,"shield_text":null,"ref":"NR3","id":25796139},"arcs":[114]},{"type":"LineString","properties":{"source":"openstreetmap.org","kind":"major_road","sort_rank":380,"kind_detail":"primary","ref":"RN14","min_zoom":8.0},"arcs":[115]},{"type":"LineString","properties":{"kind":"major_road","sort_rank":380,"landuse_kind":"urban_area","source":"openstreetmap.org","min_zoom":8.0,"kind_detail":"primary","ref":"RN 14","id":27449998},"arcs":[116]},{"type":"MultiLineString","properties":{"source":"openstreetmap.org","kind":"major_road","sort_rank":381,"kind_detail":"trunk","ref":"NR1","min_zoom":8.0},"arcs":[[117],[118]]},{"type":"MultiLineString","properties":{"bus_network":null,"network":"sadc","sort_rank":380,"kind_detail":"primary","kind":"major_road","source":"openstreetmap.org","min_zoom":8.0,"bus_shield_text":"305","shield_text":null,"landuse_kind":"urban_area"},"arcs":[[119],[120],[121]]},{"type":"MultiLineString","properties":{"kind":"major_road","network":"sadc","sort_rank":381,"landuse_kind":"urban_area","is_bicycle_related":true,"source":"openstreetmap.org","min_zoom":8.0,"kind_detail":"trunk","shield_text":null,"ref":"NR3"},"arcs":[[122],[123],[124]]},{"type":"MultiLineString","properties":{"kind":"major_road","network":"sadc","sort_rank":380,"kind_detail":"primary","source":"openstreetmap.org","min_zoom":8.0,"landuse_kind":"residential","shield_text":null},"arcs":[[125],[126],[127],[128],[129],[130],[131],[132],[133],[134],[135],[136],[137]]},{"type":"LineString","properties":{"source":"openstreetmap.org","kind":"major_road","sort_rank":380,"kind_detail":"primary","ref":"NR1","min_zoom":8.0,"id":515207780},"arcs":[138]},{"type":"MultiLineString","properties":{"bus_network":null,"sort_rank":381,"landuse_kind":"residential","kind":"major_road","source":"openstreetmap.org","min_zoom":8.0,"bus_shield_text":"305","kind_detail":"trunk"},"arcs":[[139],[140]]},{"type":"LineString","properties":{"source":"openstreetmap.org","kind":"major_road","sort_rank":380,"kind_detail":"primary","ref":"NR11","min_zoom":8.0},"arcs":[141]},{"type":"LineString","properties":{"kind":"major_road","network":"sadc","sort_rank":380,"kind_detail":"primary","source":"openstreetmap.org","min_zoom":8.0,"shield_text":null,"ref":"NR10"},"arcs":[142]},{"type":"MultiLineString","properties":{"kind":"major_road","network":"sadc","sort_rank":381,"kind_detail":"trunk","source":"openstreetmap.org","min_zoom":8.0,"shield_text":null,"ref":"NR1"},"arcs":[[143],[144],[145],[146]]},{"type":"MultiLineString","properties":{"source":"openstreetmap.org","kind":"major_road","landuse_kind":"residential","sort_rank":381,"kind_detail":"trunk","min_zoom":8.0},"arcs":[[147],[148],[149],[150],[151],[152],[153],[154],[155],[156],[157],[158],[159],[160],[161],[162],[163],[164],[165]]},{"type":"LineString","properties":{"source":"openstreetmap.org","kind":"major_road","sort_rank":380,"kind_detail":"primary","ref":"T38","min_zoom":8.0,"id":439844152},"arcs":[166]},{"type":"MultiLineString","properties":{"kind":"major_road","network":"sadc","sort_rank":381,"landuse_kind":"urban_area","source":"openstreetmap.org","min_zoom":8.0,"kind_detail":"trunk","shield_text":null,"ref":"NR1"},"arcs":[[167],[168],[169],[170]]},{"type":"LineString","properties":{"source":"openstreetmap.org","kind":"major_road","kind_detail":"trunk","sort_rank":381,"landuse_kind":"urban_area","ref":"NR2","min_zoom":8.0},"arcs":[171]}]},"earth":{"type":"GeometryCollection","geometries":[{"type":"Polygon","properties":{"sort_rank":10,"source":"naturalearthdata.com","kind":"earth","min_zoom":0.0,"id":4697},"arcs":[[172]]}]},"landuse":{"type":"GeometryCollection","geometries":[{"type":"Polygon","properties":{"kind":"park","area":163126000,"sort_rank":24,"source":"openstreetmap.org","min_zoom":6.0,"tier":2,"id":-1708161,"osm_relation":true},"arcs":[[173]]},{"type":"MultiPolygon","properties":{"source":"openstreetmap.org","kind":"residential","tier":2,"area":96868510,"sort_rank":20,"min_zoom":8.0,"osm_relation":true},"arcs":[[[174],[175],[176],[177],[178],[179],[180],[181],[182],[183],[184],[185],[186]]]},{"type":"MultiPolygon","properties":{"source":"naturalearthdata.com","kind":"urban_area","name":"","area":657601054,"sort_rank":11,"min_zoom":4.0},"arcs":[[[187]],[[188]],[[189]],[[190]],[[191]],[[192]],[[193]],[[194]],[[195]],[[196]],[[197]],[[198]],[[199]]]},{"type":"Polygon","properties":{"kind":"national_park","area":1086040064,"sort_rank":18,"source":"openstreetmap.org","min_zoom":3.0,"tier":1,"id":-1708935,"osm_relation":true},"arcs":[[200]]},{"type":"Polygon","properties":{"kind":"park","area":7863309824,"sort_rank":24,"operator":"ICCN","source":"openstreetmap.org","min_zoom":4.0,"tier":2,"id":-404784,"osm_relation":true},"arcs":[[201]]}]}},"type":"Topology","transform":{"translate":[29.53125,-2.8113711933],"scale":[0.0003433228,0.0003430816]},"arcs":[[[2949,1161],[-106,-269],[-70,-66],[4,-84],[-189,-308],[33,-48],[36,2],[46,-38],[196,109],[-4,-77],[-119,-122],[-19,19],[-34,-11],[-6,-47],[-69,-28],[13,-109],[-50,-84]],[[3378,4096],[131,-131],[6,16],[21,-227],[276,-372],[-54,-122],[30,-354],[-70,-361],[266,-406],[-75,-126],[7,-42],[-30,-25],[-17,-105],[-46,-75],[-6,-103],[33,-97],[-7,-112],[18,-4],[-55,-45],[-55,-100],[-66,-9],[-45,-67],[-39,-6],[-151,105],[-60,-25],[-37,-78],[-74,-66],[-137,42],[-104,-56],[-89,16]],[[504,0],[-162,71],[-94,-67],[-80,21],[-36,-25]],[[592,0],[-7,0]],[[2949,1161],[-95,34],[-73,102],[-43,0],[-5,45],[-32,20],[9,70],[-91,-25],[-63,55],[-82,-47],[-21,-77],[-210,-57],[-141,-1],[-83,66],[-119,-229],[-162,-26],[-92,42],[-91,81],[-103,138],[-206,59],[-6,-64],[-40,-61],[54,-130],[19,-179],[-12,-35],[-64,-29],[-64,-172],[32,-93],[-9,-129],[22,-25],[-52,-176],[-117,-167],[-112,-24],[-23,-34],[-57,24],[-31,47],[-88,-26],[-52,-136],[-46,-2]],[[1032,4096],[23,-133],[65,-89],[30,3],[204,98],[75,101],[93,-53],[-4,73]],[[0,4092],[6,4]],[[0,4092],[6,4]],[[394,58],[110,-58]],[[585,0],[7,0]],[[600,0],[46,2],[52,136],[88,26],[31,-47],[57,-24],[23,34],[151,55],[78,136],[34,135]],[[132,0],[36,25],[80,-21],[84,66],[62,-12]],[[1160,453],[18,41],[-22,25],[9,129],[-32,93],[64,172],[73,37],[8,71],[-77,277],[39,49],[-3,57],[30,30],[-14,85],[85,217],[-26,129],[12,69],[53,28],[49,77],[-3,110],[-105,47],[-1,42],[73,44],[-9,26],[29,21],[-66,57],[28,28],[3,83],[-76,143],[-43,-5],[-9,37],[-93,77],[-136,42],[-83,-57],[-44,53],[-96,9],[-20,15],[5,51],[-80,57],[-20,81],[-47,28],[-3,65],[-91,-14],[-62,62],[-81,7],[-24,-9],[42,-135],[-29,-234],[34,-103],[-40,-69],[-1,-55],[36,-63],[-56,-46],[-93,1],[42,-56],[-24,-78],[31,-79],[-17,-88],[-61,-75],[20,-27],[-72,-107],[34,-21],[0,-88],[-56,-15],[-5,-25],[-23,14],[-47,-25],[-28,17],[-59,-62]],[[1653,0],[12,22],[-77,60]],[[394,58],[-11,-58]],[[1588,82],[-51,-4],[8,33],[-64,99],[-90,59],[30,31],[-43,57],[-21,-6],[-7,35],[-136,68],[-54,-1]],[[2611,0],[50,84],[-13,109],[69,28],[6,47],[34,11],[19,-19],[119,122],[4,77],[-196,-109],[-46,38],[-36,-2],[-33,48],[189,308],[-4,84],[70,66],[106,269]],[[2949,1161],[-95,34],[-73,102],[-43,0],[-5,45],[-32,20],[9,70],[-33,5],[-39,-33],[-44,9],[-38,49],[-49,-11],[-54,-92],[6,-120],[122,-247],[-53,-80],[53,-90],[-51,-192],[-124,-12],[-44,-82],[-55,-9],[-133,-173],[-24,-7],[-15,45],[-139,-45],[-138,-125],[-59,23],[-87,-155],[-61,27],[-63,-35]],[[3378,4096],[131,-131],[6,16],[21,-227],[276,-372],[-54,-122],[30,-354],[-70,-361],[266,-406],[-75,-126],[7,-42],[-30,-25],[-17,-105],[-46,-75],[-6,-103],[33,-97],[-7,-112],[18,-4],[-55,-45],[-55,-100],[-66,-9],[-45,-67],[-39,-6],[-151,105],[-60,-25],[-37,-78],[-74,-66],[-137,42],[-104,-56],[-89,16]],[[2843,2649],[-40,-47],[81,-106],[100,-70],[25,-226],[-50,-206],[53,-65],[19,19],[27,-20],[-57,-130],[-35,-239],[70,-27],[180,71],[105,-39],[80,8],[31,-39],[80,14],[-13,-21],[34,-17],[13,-55]],[[3567,1364],[66,-97]],[[3641,1249],[-8,18]],[[3641,1249],[4,1]],[[286,2644],[1,-41],[71,-17]],[[358,2585],[24,0],[-3,-43]],[[1488,2532],[-1,0]],[[1549,2551],[9,-14]],[[1511,2626],[137,161],[-49,89],[55,38],[44,-24],[42,54],[6,60],[-23,29],[18,87],[-30,61],[15,23],[-92,113],[16,42],[45,13],[-30,73]],[[1493,2542],[18,84]],[[277,3826],[1,1]],[[1665,3445],[-63,174],[-147,147],[-56,276]],[[1636,2362],[2,-7]],[[1677,2330],[-59,-146],[35,-45],[-70,-77],[-21,-61],[16,-38],[57,-21],[56,-138],[90,-35],[71,-73]],[[1949,1675],[39,-38],[-39,-235],[56,-76]],[[2585,2530],[23,-26],[50,10]],[[2843,2651]],[[1734,2474],[9,6]],[[1744,2481],[16,10]],[[1824,2470],[51,-22]],[[358,2586],[0,-1]],[[1635,2503],[0,7]],[[398,58],[-13,-58]],[[2505,4096],[48,-274],[-66,-343],[4,-82],[59,-44],[15,-148],[-91,-163],[182,-135],[-2,-40],[39,9],[58,-35],[95,-139],[-3,-50]],[[1894,2432],[21,-24],[108,16],[42,75],[71,9],[34,45],[-10,107],[80,16],[62,-122],[77,-76],[206,52]],[[2658,2514],[29,35],[-35,60],[13,70],[176,-28]],[[1706,2483],[24,-10],[4,1],[-28,10]],[[285,2129],[-3,0]],[[338,2120],[-2,0]],[[453,2139],[-1,-2]],[[476,2169],[1,-5]],[[3647,1251],[4,-3]],[[3651,1243],[35,6],[51,-88],[47,-14],[-21,-45],[81,-86],[20,-209],[113,-99],[45,-125],[74,-71]],[[3651,1248],[0,-5]],[[277,3826],[-84,-45],[-40,7],[-101,-162],[-48,-15],[-4,-5]],[[278,3827],[104,-76],[53,-96],[67,-9],[153,-104],[15,-49],[25,3],[14,-105],[83,0],[16,-23]],[[809,3367],[49,-4]],[[859,3362],[37,-25],[45,44],[72,-18]],[[1442,2560],[-56,30],[-89,199],[-47,3],[-76,130],[-44,265],[-107,168]],[[1430,2513],[12,15]],[[0,3280],[55,3],[22,-37],[-39,-67],[-9,-106],[44,-48],[129,-28],[22,-40],[-18,-27],[66,-5],[-5,-97],[31,-24],[-36,-133],[24,-27]],[[379,2542],[-1,-13]],[[381,2529],[87,-29],[-8,-59],[49,-75],[47,-15],[-32,-28],[16,-50],[42,10],[35,-52],[-27,-59]],[[618,640],[0,-2]],[[2866,1829],[53,-5],[69,141]],[[1634,2510],[0,-7]],[[1310,3490],[-17,-28],[34,-48],[-1,-67],[-22,-37],[-164,23],[-83,78],[-45,-47]],[[1446,3447],[-56,36],[-29,-19],[-51,26]],[[1399,4042],[-14,54]],[[1446,3446],[118,144],[101,-145]],[[1990,1632],[78,125],[279,70],[98,-3],[62,-126],[196,107],[65,95],[113,3],[-15,-74]],[[2005,1326],[0,-1]],[[2589,433],[-1,0]],[[3038,3528],[-11,-105],[29,-60],[-98,-139],[-118,-256],[-133,-118]],[[2924,3087],[29,-4],[0,46]],[[3040,3528],[17,22],[42,-10],[8,-178],[131,-93],[42,-127],[-2,-93],[-46,-136],[9,-62],[46,-29],[-61,-141],[12,-69],[-63,-71],[-13,-65],[109,73],[40,-4],[-91,-252],[88,-78],[23,-55],[-10,-60],[210,-84],[47,27],[38,68],[75,10],[131,160],[42,-88],[-49,-124],[36,-64],[-11,-90],[-57,-178],[-70,-47],[-2,-43]],[[3521,1518],[191,123]],[[1858,764],[-84,-20],[-122,-128],[-25,17],[-36,-47],[55,-62],[6,-97]],[[1657,0],[16,41],[-51,38],[-4,51],[43,42],[4,116]],[[2005,1325],[-7,-149],[-104,-101],[-6,-57]],[[2588,433],[-32,-18],[-19,-65],[21,-110],[-88,-78],[-77,-162]],[[2843,2651],[-1,-1]],[[2843,2650]],[[3645,1250],[2,1]],[[2843,2651],[0,-1],[0,1]],[[1893,2433],[1,-1]],[[2267,2074],[6,-79]],[[1490,2533],[-2,-1]],[[1494,2538],[-1,4]],[[1643,2375],[-7,-13]],[[1638,2355],[39,-25]],[[1852,1696],[57,17],[40,-38]],[[282,2129],[-33,13],[-28,64],[-191,-46],[-30,17]],[[336,2120],[-51,9]],[[452,2137],[-1,-26],[-47,-14],[-66,23]],[[477,2164],[-24,-25]],[[674,2133],[-93,43],[-36,-39],[-69,32]],[[1613,2508],[-66,19]],[[1634,2503],[-19,6]],[[1644,2500],[-9,11]],[[1683,2482],[-38,17]],[[1545,2529],[-1,-1],[2,-1],[1,1],[-2,1]],[[1634,2511],[1,-1],[0,1],[-1,0]],[[1644,2499],[1,0],[-1,1]],[[1644,2500],[0,-1]],[[1683,2481],[1,0],[-1,1]],[[1683,2482],[0,-1]],[[3864,807],[-150,-46],[-152,91],[-159,-1],[-94,43],[-509,-314],[-97,-100],[-114,-47]],[[303,3811],[134,47],[44,101],[107,122],[6,15]],[[808,3368],[1,-1]],[[858,3363],[1,-1]],[[1023,3355],[-10,8]],[[1490,2535],[2,2]],[[1503,2541],[38,8]],[[3546,1454],[21,-90]],[[2585,2530],[45,7],[28,-23]],[[1888,1018],[33,-81],[-59,-102],[-4,-71]],[[1665,288],[-13,139]],[[605,486],[6,-39],[-32,-10],[-17,-57],[-36,-25],[-1,-71],[-29,-1],[28,-13],[-38,-25],[12,-37],[-58,-20],[-35,-45],[-7,-85]],[[618,639],[-4,-81],[-27,-21],[18,-51]],[[1488,2534],[2,1]],[[1492,2537],[11,4]],[[1541,2549],[8,2]],[[1743,2480],[1,1]],[[1760,2491],[64,-21]],[[1875,2448],[18,-15]],[[1558,2537],[25,-42]],[[1583,2495],[0,-1]],[[1583,2493],[37,-38]],[[1620,2455],[-37,40]],[[1620,2455],[43,4]],[[1663,2459],[1,1]],[[1664,2460],[-1,-1]],[[1665,2462],[-1,-2]],[[1665,2460],[0,2]],[[1665,2462],[41,22]],[[1583,2493],[0,1],[-1,0],[0,-1],[1,0]],[[1664,2460],[1,0]],[[1665,2460],[-1,0]],[[605,486]],[[1635,2511],[9,-12]],[[1645,2499],[38,-17]],[[378,2529],[3,0]],[[618,639],[-75,97],[-84,56],[-61,5],[-74,65],[-116,29],[-76,111],[-62,-48],[-70,-2]],[[676,775],[-25,-115],[-33,-21]],[[754,2174],[-31,-35],[-79,-16],[10,-39],[-45,-68],[42,-88],[-14,-25],[62,-43],[13,-47],[31,-3],[33,-63],[-34,-52],[21,-105],[-91,-110],[48,-73],[-33,-57],[63,-116],[-48,-54],[19,-65],[-40,-51],[10,-28],[-39,-24],[11,-17]],[[674,980],[27,-100]],[[1442,2523],[-128,-60],[-14,-45],[-85,15],[-62,-52],[-85,-18],[-20,-42],[-116,-23],[-34,-58]],[[1546,2529],[-56,4]],[[1494,2534],[0,4]],[[1546,2527],[36,-33]],[[1580,2501]],[[1580,2501]],[[1580,2501]],[[1582,2494],[-2,7]],[[1580,2501]],[[1580,2501],[0,1]],[[1580,2500],[0,1]],[[1580,2501]],[[1580,2501],[3,9],[0,1],[29,-3]],[[1615,2509],[-5,1]],[[1613,2508],[22,-5]],[[1635,2510],[0,1]],[[1665,2460],[-22,-85]],[[1684,2481],[22,2]],[[1706,2484],[-22,-2]],[[1730,2474],[0,-1]],[[4096,997],[-144,-49],[3,-19],[-108,-9]],[[663,995],[11,-15]],[[701,880],[-25,-105]],[[898,2240],[-65,-47],[-46,17],[-33,-36]],[[1487,2532],[-45,-9]],[[1442,2528],[0,32]],[[4096,4096],[0,-4096],[-4096,0],[0,4096],[4096,0]],[[0,4092],[6,4],[470,0],[-8,-15],[-81,15],[-67,-39],[-116,22],[-46,-19],[-77,28],[-81,-54],[0,58]],[[1462,2405],[42,62],[-6,44],[-29,0],[28,4],[-8,21],[45,19],[49,-36],[45,-5],[-82,45],[50,-11],[-27,28],[71,-41],[6,45],[-2,-5],[-9,-7],[-5,0],[-5,2],[-10,-1],[-9,2],[-7,7],[36,14],[-12,37],[45,-32],[7,-101],[7,44],[26,-12],[-33,63],[60,-32],[16,31],[23,-30],[-20,-67],[116,-39],[27,-37],[-21,-29],[-48,36],[4,-44],[-33,11],[-20,-21],[1,41],[47,36],[-68,28],[-42,-15],[87,-19],[-36,-2],[-15,-61],[-1,62],[-26,-13],[-25,35],[-18,-7],[19,-1],[37,-102],[-86,33],[-27,-27],[-61,63],[2,-67],[-16,8],[-2,20],[-6,4],[-53,-14],[-28,33]],[[1640,2513],[23,-1],[-8,34],[-2,0],[-2,-4],[-1,-1],[-1,0],[-8,1],[-1,-29]],[[1643,2543],[6,-2],[2,1],[-7,6],[-1,-5]],[[1603,2423],[6,0],[5,8],[-6,3],[-5,-11]],[[1620,2479],[4,-6],[6,1],[-5,13],[-5,-8]],[[1599,2578],[2,-1],[6,-6],[9,-2],[9,1],[9,-1],[-12,13],[-23,-4]],[[1670,2387],[21,-15],[9,4],[-7,12],[-23,-1]],[[1515,2533],[7,-12],[12,12],[-7,-4],[-12,4]],[[1612,2496],[4,-4],[4,3],[-4,5],[-4,-4]],[[1522,2405],[26,-12],[-17,16],[44,49],[-4,27],[-49,-80]],[[1623,2469],[4,-5],[17,1],[-9,10],[-12,-6]],[[1614,2433],[9,-5],[2,4],[-10,4],[-1,-3]],[[1730,2481],[14,-1],[5,14],[-9,-3],[-10,-10]],[[2413,257],[-74,16],[-16,45],[57,101],[49,-23],[-16,-139]],[[1765,257],[-142,43],[-24,48],[69,104],[49,-6],[48,-189]],[[1798,1326],[65,0],[32,-65],[-21,-51],[-39,-14],[-135,33],[20,77],[45,52],[33,-32]],[[3605,1340],[-57,36],[-3,112],[162,-32],[-34,-86],[-68,-30]],[[2607,646],[-60,7],[-30,34],[25,89],[76,-55],[12,-35],[-23,-40]],[[694,885],[68,-45],[-39,-59],[-45,-8],[-77,67],[0,33],[-33,0],[70,88],[-5,41],[50,-12],[-18,-20],[29,-85]],[[1914,1650],[-50,22],[-22,44],[21,96],[43,-13],[23,-91],[31,-26],[-46,-32]],[[954,2206],[2,-38],[-113,25],[-114,-25],[72,131],[153,-93]],[[1645,2646],[55,-89],[178,-55],[17,-75],[-143,-52],[-33,-41],[-72,-7],[-11,35],[-176,5],[-51,27],[33,98],[0,130],[64,0],[33,32],[106,-8]],[[360,2532],[-115,89],[11,18],[86,15],[0,-32],[50,-16],[14,-49],[-46,-25]],[[1529,2910],[-53,14],[-37,49],[3,70],[55,-2],[74,-96],[-42,-35]],[[2024,3237],[-109,35],[-20,95],[162,-65],[-33,-65]],[[1323,3534],[-53,13],[-40,45],[-15,66],[46,20],[55,-13],[45,-40],[16,-64],[-54,-27]],[[2948,3988],[46,108],[384,0],[131,-131],[6,16],[21,-227],[276,-372],[-54,-122],[30,-354],[-23,-96],[19,-28],[-55,-62],[-2,-49],[-46,-9],[-48,-86],[-89,-82],[-56,-19],[-22,-64],[-17,67],[-87,36],[33,88],[-44,56],[-20,114],[48,103],[-24,10],[0,33],[44,70],[-16,36],[-52,23],[-77,235],[-17,60],[31,57],[-27,26],[3,85],[-44,140],[-57,56],[-37,100],[-109,101],[-49,81]],[[6,4096],[-6,-4],[0,4],[6,0]]]}