{"objects":{"water":{"type":"GeometryCollection","geometries":[]},"buildings":{"type":"GeometryCollection","geometries":[]},"places":{"type":"GeometryCollection","geometries":[{"type":"Point","properties":{"name:pt":"Zimb\u00e1bue","name:ps":"\u0632\u06d0\u0645\u0628\u0627\u0628\u0648\u06d0","name:ka":"\u10d6\u10d8\u10db\u10d1\u10d0\u10d1\u10d5\u10d4","name:mt":"\u017bimbabwe","name:ko":"\uc9d0\ubc14\ube0c\uc6e8","name:cv":"\u0417\u0438\u043c\u0431\u0430\u0431\u0432\u0435","name:km":"\u17a0\u17d2\u179f\u17ca\u17b8\u1798\u1794\u17b6\u1794\u179c\u17c9\u17c1","name:kk":"\u0417\u0438\u043c\u0431\u0430\u0431\u0432\u0435","name:tt":"\u0417\u0438\u043c\u0431\u0430\u0431\u0432\u0435","name:tr":"Zimbabve","name:ku":"Z\u00eembabwe","name:ti":"\u12da\u121d\u1267\u1264","name:ks":"\u0632\u0650\u0645\u0628\u0627\u0628\u06d2","name:to":"Simipapuei","name:tl":"Simbabwe","name:pa":"\u0a1c\u0a3c\u0a3f\u0a70\u0a2c\u0a3e\u0a2c\u0a35\u0a47","name:os":"\u0417\u0438\u043c\u0431\u0430\u0431\u0432\u0435","name:or":"\u0b1c\u0b3f\u0b2e\u0b4d\u0b2c\u0b3e\u0b71\u0b47","name:ce":"\u0417\u0438\u043c\u0431\u0430\u0431\u0432\u0435","name:ta":"\u0b9c\u0bbf\u0bae\u0bcd\u0baa\u0bbe\u0baa\u0bcd\u0bb5\u0bc7","name:tg":"\u0417\u0438\u043c\u0431\u0430\u0431\u0432\u0435","name:te":"\u0c1c\u0c3f\u0c02\u0c2c\u0c3e\u0c2c\u0c4d\u0c35\u0c47","name:hr":"Zimbabve","name:de":"Simbabwe","name:dz":"\u0f5b\u0f72\u0f58\u0f0b\u0f56\u0fb7\u0f56\u0f0b\u0f5d\u0f7a","source":"openstreetmap.org","name:nv":"Hooghan Ts\u00e9 Bee \u00c1daalyaa\u00ed Bik\u00e9yah","name:kn":"\u0c9c\u0cbf\u0c82\u0cac\u0cbe\u0cac\u0ccd\u0cb5\u0cc6","name:dv":"\u0792\u07a8\u0789\u07b0\u0784\u07a7\u0784\u07aa\u0788\u07ad","name:lv":"Zimbabve","name:lt":"Zimbabv\u0117","name:uz":"Zimbabve","name:he":"\u05d6\u05d9\u05de\u05d1\u05d0\u05d1\u05d5\u05d5\u05d4","min_zoom":2.0,"kind":"country","name:ur":"\u0632\u0645\u0628\u0627\u0628\u0648\u06d2","name:lb":"Simbabwe","name:la":"Zimbabua","name:uk":"\u0417\u0456\u043c\u0431\u0430\u0431\u0432\u0435","name:hy":"\u0536\u056b\u0574\u0562\u0561\u0562\u057e\u0565","name:ug":"\u0632\u0649\u0645\u0628\u0627\u0628\u06cb\u06d0","name:qu":"Simbabwi","name:lo":"\u0e8a\u0eb4\u0ea1\u0e9a\u0eb1\u0e9a\u0ec0\u0ea7","population":12521000,"name:el":"\u0396\u03b9\u03bc\u03c0\u03ac\u03bc\u03c0\u03bf\u03c5\u03b5","name:eo":"Zimbabvo","name":"Zimbabwe","name:ee":"Zimbabwe nutome","name:th":"\u0e0b\u0e34\u0e21\u0e1a\u0e31\u0e1a\u0e40\u0e27","name:gu":"\u0a9d\u0abf\u0aae\u0acd\u0aac\u0abe\u0aac\u0acd\u0ab5\u0ac7","name:yi":"\u05d6\u05d9\u05de\u05d1\u05d0\u05d1\u05d5\u05d5\u05e2","name:es":"Zimbabue","name:rm":"Simbabwe","name:az":"Zimbabve","name:mr":"\u091d\u093f\u092e\u094d\u092c\u093e\u092c\u094d\u0935\u0947","name:ar":"\u0632\u064a\u0645\u0628\u0627\u0628\u0648\u064a","name:my":"\u1007\u1004\u103a\u1018\u102c\u1018\u103d\u1031","name:is":"Simbabve","name:am":"\u12da\u121d\u1267\u1264","name:ve":"Zimbagwe","name:ml":"\u0d38\u0d3f\u0d02\u0d2c\u0d3e\u0d2c\u0d4d\u0d35\u0d47","name:ru":"\u0417\u0438\u043c\u0431\u0430\u0431\u0432\u0435","name:mn":"\u0417\u0438\u043c\u0431\u0430\u0431\u0432\u0435","id":1640880787,"name:mk":"\u0417\u0438\u043c\u0431\u0430\u0431\u0432\u0435","name:vo":"Zimbabiy\u00e4n","name:zu":"i-Zimbabwe","name:ha":"Zimbabuwe","name:ff":"Simbaabuwe","name:hi":"\u091c\u093f\u092e\u094d\u092c\u093e\u092c\u094d\u0935\u0947","name:mg":"Zimbaboe","name:fo":"Simbabvi","name:zh-yue":"\u6d25\u5df4\u5e03\u97cb","name:fy":"Simbabwe","name:zh":"\u6d25\u5df4\u5e03\u97e6","name:gv":"Yn \u00c7himbabwe","name:so":"Simbaabwe","name:sr":"\u0417\u0438\u043c\u0431\u0430\u0431\u0432\u0435","name:sl":"Zimbabve","name:ja":"\u30b8\u30f3\u30d0\u30d6\u30a8","name:si":"\u0dc3\u0dd2\u0db8\u0dca\u0db6\u0dcf\u0db6\u0dca\u0dc0\u0dda","name:sh":"Zimbabve","name:sg":"Zimb\u00e4bwe","name:ne":"\u091c\u093f\u092e\u094d\u092c\u093e\u092c\u0947","name:sa":"\u091c\u093f\u092e\u094d\u092c\u093e\u092c\u0935\u0947","name:bs":"Zimbabve","name:bm":"Zimbabuwe","name:bn":"\u099c\u09bf\u09ae\u09cd\u09ac\u09be\u09ac\u09c1\u09af\u09bc\u09c7","name:bo":"\u0f5b\u0f72\u0f58\u0f0b\u0f56\u0fb7\u0f71\u0f0b\u0f56\u0f7a\u0f0d","name:be":"\u0417\u0456\u043c\u0431\u0430\u0431\u0432\u044d","name:su":"Zimbabw\u00e9","name:bg":"\u0417\u0438\u043c\u0431\u0430\u0431\u0432\u0435","name:ss":"IZimbabhwe","name:ba":"\u0417\u0438\u043c\u0431\u0430\u0431\u0432\u0435","name:sq":"Zimbabve","name:ga":"An tSiomb\u00e1ib","name:gd":"An t-S\u00ecombab","name:wo":"Simbaawee","name:gl":"Cimbabue","name:fa":"\u0632\u06cc\u0645\u0628\u0627\u0628\u0648\u0647","name:yo":"Or\u00edl\u1eb9\u0301\u00e8de \u1e63imibabe","name:ak":"Zembabwe"},"coordinates":[628,2630]},{"type":"Point","properties":{"source":"openstreetmap.org","kind":"region","name":"Midlands","kind_detail":"state","min_zoom":4.0,"id":2702989759},"coordinates":[1013,100]},{"type":"Point","properties":{"kind":"locality","name":"Kwekwe","kind_detail":"city","source":"openstreetmap.org","min_zoom":8.0,"name:ru":"\u041a\u0432\u0435\u043a\u0432\u0435","id":252622793,"population":93072},"coordinates":[824,1176]},{"type":"Point","properties":{"kind":"locality","name":"Chegutu","kind_detail":"town","source":"openstreetmap.org","min_zoom":8.0,"old_name":"Hartley","id":295148550,"population":42959},"coordinates":[1791,3630]},{"type":"Point","properties":{"source":"openstreetmap.org","kind":"locality","name":"Redcliff","kind_detail":"town","population":32346,"min_zoom":8.0,"id":2288155260},"coordinates":[723,876]}]},"transit":{"type":"GeometryCollection","geometries":[{"type":"MultiLineString","properties":{"source":"openstreetmap.org","kind":"train","name":"Train: Bulawayo\u2013Harare","sort_rank":275,"min_zoom":6.0,"osm_relation":true},"arcs":[[5],[6]]}]},"pois":{"type":"GeometryCollection","geometries":[{"type":"Point","properties":{"kind":"military","name":"Fylde Air Base","area":22533100,"source":"openstreetmap.org","min_zoom":8.0,"tier":3,"id":-5684836,"osm_relation":true},"coordinates":[1289,3523]}]},"boundaries":{"type":"GeometryCollection","geometries":[{"type":"LineString","properties":{"kind":"region","name":"Midlands Province - Masvingo Province","sort_rank":256,"kind_detail":"4","id:right":-3336979,"source":"openstreetmap.org","min_zoom":8.0,"id:left":-3336982,"name:left":"Midlands Province","id":-3336982,"osm_relation":true,"name:right":"Masvingo Province"},"arcs":[0]},{"type":"LineString","properties":{"kind":"region","name":"Midlands Province - Mashonaland West","sort_rank":256,"kind_detail":"4","id:left":-3336982,"id:right":-3336978,"source":"openstreetmap.org","min_zoom":8.0,"name:right:de":"Westmaschonaland","name:left":"Midlands Province","id":-3336982,"osm_relation":true,"name:right":"Mashonaland West"},"arcs":[1]},{"type":"LineString","properties":{"kind":"region","name":"Midlands Province - Mashonaland East","sort_rank":256,"kind_detail":"4","id:left":-3336982,"id:right":-3336977,"source":"openstreetmap.org","min_zoom":8.0,"name:right:de":"Ostmaschonaland","name:left":"Midlands Province","id":-3336982,"osm_relation":true,"name:right":"Mashonaland East"},"arcs":[2]},{"type":"LineString","properties":{"kind":"region","name":"Masvingo Province - Mashonaland East","sort_rank":256,"kind_detail":"4","id:left":-3336979,"id:right":-3336977,"source":"openstreetmap.org","min_zoom":8.0,"name:right:de":"Ostmaschonaland","name:left":"Masvingo Province","id":-3336979,"osm_relation":true,"name:right":"Mashonaland East"},"arcs":[3]},{"type":"LineString","properties":{"kind":"region","name":"Mashonaland West - Mashonaland East","sort_rank":256,"kind_detail":"4","id:left":-3336978,"name:left:de":"Westmaschonaland","id:right":-3336977,"source":"openstreetmap.org","min_zoom":8.0,"name:right:de":"Ostmaschonaland","name:left":"Mashonaland West","id":-3336978,"osm_relation":true,"name:right":"Mashonaland East"},"arcs":[4]}]},"roads":{"type":"GeometryCollection","geometries":[{"type":"MultiLineString","properties":{"sort_rank":380,"kind_detail":"primary","min_zoom":8.0,"kind":"major_road","source":"openstreetmap.org"},"arcs":[[7],[8],[9]]},{"type":"LineString","properties":{"kind":"major_road","network":"sadc","sort_rank":381,"kind_detail":"trunk","source":"openstreetmap.org","min_zoom":8.0,"shield_text":null,"ref":"A4"},"arcs":[10]},{"type":"MultiLineString","properties":{"kind":"major_road","network":"sadc","sort_rank":381,"kind_detail":"trunk","source":"openstreetmap.org","min_zoom":8.0,"shield_text":null,"ref":"A5"},"arcs":[[11],[12],[13],[14],[15],[16],[17],[18],[19],[20],[21],[22]]},{"type":"MultiLineString","properties":{"kind":"major_road","network":"sadc","sort_rank":381,"landuse_kind":"urban_area","source":"openstreetmap.org","min_zoom":8.0,"kind_detail":"trunk","shield_text":null},"arcs":[[23],[24]]},{"type":"MultiLineString","properties":{"source":"openstreetmap.org","kind":"major_road","landuse_kind":"urban_area","sort_rank":380,"kind_detail":"primary","min_zoom":8.0},"arcs":[[25],[26]]},{"type":"MultiLineString","properties":{"kind":"major_road","network":"sadc","sort_rank":381,"landuse_kind":"urban_area","source":"openstreetmap.org","min_zoom":8.0,"kind_detail":"trunk","shield_text":null,"ref":"A5"},"arcs":[[27],[28],[29],[30],[31],[32],[33],[34],[35],[36],[37]]},{"type":"LineString","properties":{"kind":"major_road","network":"zw","sort_rank":381,"kind_detail":"trunk","source":"openstreetmap.org","min_zoom":8.0,"shield_text":"17","ref":"A17"},"arcs":[38]}]},"earth":{"type":"GeometryCollection","geometries":[{"type":"Polygon","properties":{"sort_rank":10,"source":"naturalearthdata.com","kind":"earth","min_zoom":0.0,"id":4687},"arcs":[[39]]}]},"landuse":{"type":"GeometryCollection","geometries":[{"type":"Polygon","properties":{"kind":"military","area":22533100,"sort_rank":45,"source":"openstreetmap.org","min_zoom":8.0,"tier":3,"id":-5684836,"osm_relation":true},"arcs":[[40]]},{"type":"MultiPolygon","properties":{"source":"openstreetmap.org","kind":"nature_reserve","tier":2,"area":157210046,"sort_rank":23,"min_zoom":8.0},"arcs":[[[41]],[[42]],[[43]],[[44]]]},{"type":"MultiPolygon","properties":{"source":"naturalearthdata.com","kind":"urban_area","name":"","area":191114790,"sort_rank":11,"min_zoom":4.0},"arcs":[[[45]],[[46]],[[47]]]}]}},"type":"Topology","transform":{"translate":[29.53125,-19.3111433551],"scale":[0.0003433228,0.0003252955]},"arcs":[[[3716,0],[220,177]],[[2791,1257],[-36,-10],[-88,33],[-78,101],[-21,-17],[-55,31],[-10,45],[-20,-30],[-85,6],[-1,66],[-33,-13],[-49,22],[-27,71],[-58,16],[-65,-43],[-44,77],[-107,9],[-50,101],[-68,58],[-106,33],[-216,-12],[-7,36],[-84,40],[-68,-45],[-25,53],[-51,-3],[-50,51],[-57,-37],[-69,11],[-21,-50],[-43,31],[-49,-27],[-73,61],[-34,-23],[-36,65],[-39,-35],[-71,22],[-14,72],[-58,6],[-12,59],[-76,-49],[-39,5],[-4,78],[-33,26],[-111,-11],[-67,30],[-43,-39],[-93,49],[-47,57],[-67,9],[-28,-22],[-40,19],[-25,111],[30,101],[-26,172],[64,88],[-16,69],[42,91],[-6,44],[-83,13],[-40,62],[-5,4]],[[3936,177],[-200,-46],[-308,247],[64,183],[-18,98],[-83,125],[-100,10],[20,273],[-33,41],[-162,-3],[-106,40],[-54,60],[-54,25],[-58,-10],[-53,37]],[[4096,410],[-100,-15],[41,-136],[-101,-82]],[[2791,1257],[50,90],[129,-35],[-13,161],[152,56],[18,286],[138,-39],[111,246],[229,237],[-17,420],[99,92],[-11,92],[-222,184],[-75,202],[184,124],[64,128],[-18,166],[71,82],[-25,113],[11,117],[109,64],[-19,53]],[[647,0],[-66,95],[58,170],[109,150],[66,234],[40,41],[-23,54],[38,77],[-4,90],[-41,172],[50,79]],[[874,1163],[18,50],[-36,175],[11,69],[-101,118],[-64,391],[118,129],[40,112],[6,240],[-35,221],[47,69],[6,96],[214,132],[123,145],[599,554],[46,81],[329,207],[278,25],[88,58],[24,61]],[[754,1272],[-139,66],[-194,-72],[-75,75],[-224,59],[-122,94]],[[1804,4096],[-17,-132],[26,-74],[5,-197]],[[3979,896],[117,2]],[[4096,3899],[-182,-348],[-24,-100],[18,-133],[-54,-98],[16,-248],[104,-334],[-68,-390],[60,-93],[36,-216],[-8,-696],[24,-99],[-41,-257],[-162,-38],[-52,-59],[-158,-54],[-360,-241],[-160,-252],[-116,-92],[-48,-109],[14,-42]],[[797,1101],[45,-257],[-88,-195],[51,-293],[-65,-260],[25,-96]],[[1021,2918],[-135,-86],[-30,-658],[-54,-221],[11,-270],[-37,-298],[31,-92]],[[1761,3599],[-613,-584]],[[2609,3787],[-128,8],[-149,-77],[-506,-72]],[[2611,3787],[-2,0]],[[2609,3787],[1,1]],[[2612,3788],[1,0]],[[2613,3788],[-1,-1]],[[3106,4096],[-158,-121],[-100,-46],[-63,-80],[-172,-61]],[[2611,3787],[-1,1]],[[2610,3788],[1,0],[1,-1]],[[2612,3787],[-1,0]],[[801,1185],[9,17],[-8,-17]],[[802,1184],[-1,0],[0,1],[1,-1]],[[813,1274],[-59,-2]],[[1820,3646],[-2,47]],[[800,1162],[-3,-61]],[[800,1162],[1,22]],[[802,1162],[-2,0]],[[802,1184],[0,-21]],[[802,1163],[1,-1],[-1,0]],[[802,1162],[0,1]],[[807,1293],[3,-91]],[[1063,2945],[-42,-27]],[[1065,2945],[-2,0]],[[1148,3015],[-83,-70]],[[1826,3646],[-65,-47]],[[2454,0],[266,37],[74,37],[127,-32]],[[4096,4096],[0,-4096],[-4096,0],[0,4096],[4096,0]],[[1194,3552],[149,37],[30,-79],[-44,-43],[-62,-13],[-73,98]],[[1974,874],[39,83],[83,-36],[61,6],[43,-37],[89,-18],[-1,-101],[-142,3],[-172,100]],[[2378,1849],[48,153],[78,-40],[52,59],[123,8],[-114,-266],[-84,35],[-7,36],[-96,15]],[[2572,3617],[30,48],[41,-6],[82,-175],[-15,-16],[-79,6],[-59,143]],[[2305,3537],[14,34],[66,19],[70,65],[73,-87],[-112,15],[-36,-81],[-75,35]],[[838,1083],[-173,75],[40,77],[66,50],[185,44],[-51,-223],[-67,-23]],[[1183,2899],[-141,5],[-45,30],[-8,68],[63,32],[74,-2],[54,-43],[3,-90]],[[1789,3591],[-89,26],[55,80],[35,13],[40,-25],[-7,-63],[-34,-31]]]}