{"objects":{"water":{"type":"GeometryCollection","geometries":[]},"buildings":{"type":"GeometryCollection","geometries":[]},"places":{"type":"GeometryCollection","geometries":[{"type":"Point","properties":{"name:sr":"\u0412\u0435\u043b\u0438\u043a\u0438 \u041b\u0443\u043a\u0438","name:lt":"Didieji Lukai","min_zoom":8.0,"name:uk":"\u0412\u0435\u043b\u0438\u043a\u0456 \u041b\u0443\u043a\u0438","name:be":"\u0412\u044f\u043b\u0456\u043a\u0456\u044f \u041b\u0443\u043a\u0456","name:pl":"Wielkie \u0141uki","name:hu":"Velikije Luki","id":27072632,"population":96514,"kind":"locality","name:en":"Velikiye Luki","name":"\u0412\u0435\u043b\u0438\u043a\u0438\u0435 \u041b\u0443\u043a\u0438","kind_detail":"city","name:de":"Welikije Luki","source":"openstreetmap.org","name:fr":"Veliki\u00e9 Louki","name:et":"Velikije Luki"},"coordinates":[2903,2960]},{"type":"Point","properties":{"kind":"locality","name:en":"Nevel","name":"\u041d\u0435\u0432\u0435\u043b\u044c","name:lt":"Nevelis","kind_detail":"town","name:de":"Newel","source":"openstreetmap.org","min_zoom":8.0,"name:pl":"Newel","id":26163795,"population":16272},"coordinates":[1124,1261]},{"type":"Point","properties":{"kind":"locality","name:en":"Novosokolniki","name":"\u041d\u043e\u0432\u043e\u0441\u043e\u043a\u043e\u043b\u044c\u043d\u0438\u043a\u0438","name:lt":"Novosokolnikai","kind_detail":"town","name:de":"Nowosokolniki","source":"openstreetmap.org","min_zoom":8.0,"id":356482952,"population":8089},"coordinates":[1811,2986]}]},"transit":{"type":"GeometryCollection","geometries":[{"type":"MultiLineString","properties":{"source":"openstreetmap.org","kind":"train","sort_rank":275,"ref":"\u041d\u043e\u0432\u043e\u0441\u043e\u043a\u043e\u043b\u044c\u043d\u0438\u043a\u0438 - \u0412\u0435\u043b\u0438\u043a\u0438\u0435 \u041b\u0443\u043a\u0438","min_zoom":6.0,"osm_relation":true},"arcs":[[2],[3],[4],[5],[6],[7]]},{"type":"MultiLineString","properties":{"kind":"train","network":"\u0420\u0416\u0414","sort_rank":275,"source":"openstreetmap.org","min_zoom":6.0,"operator":"\u0421\u0435\u0432\u0435\u0440\u043e-\u0437\u0430\u043f\u0430\u0434\u043d\u0430\u044f \u043f\u0440\u0438\u0433\u043e\u0440\u043e\u0434\u043d\u0430\u044f \u043f\u0430\u0441\u0441\u0430\u0436\u0438\u0440\u0441\u043a\u0430\u044f \u043a\u043e\u043c\u043f\u0430\u043d\u0438\u044f","ref":"\u0412\u0435\u043b\u0438\u043a\u0438\u0435 \u041b\u0443\u043a\u0438 - \u0414\u043d\u043e","osm_relation":true,"name":"\u041f\u043e\u0435\u0437\u0434: \u0412\u0435\u043b\u0438\u043a\u0438\u0435 \u041b\u0443\u043a\u0438 - \u0414\u043d\u043e"},"arcs":[[8],[9]]},{"type":"LineString","properties":{"source":"openstreetmap.org","kind":"train","sort_rank":275,"ref":"\u0412\u0438\u0442\u0435\u0431\u0441\u043a - \u041d\u0435\u0432\u0435\u043b\u044c","min_zoom":6.0,"osm_relation":true},"arcs":[10]},{"type":"LineString","properties":{"source":"openstreetmap.org","kind":"train","sort_rank":275,"ref":"\u0411\u043e\u043b\u043e\u0433\u043e\u0435 - \u0412\u0435\u043b\u0438\u043a\u0438\u0435 \u041b\u0443\u043a\u0438","min_zoom":6.0,"osm_relation":true,"id":-1757590},"arcs":[11]},{"type":"LineString","properties":{"kind":"train","name":"\u041c\u043e\u0441\u043a\u0432\u0430-\u0420\u0438\u0436\u0441\u043a\u0430\u044f - \u0412\u0435\u043b\u0438\u043a\u0438\u0435 \u041b\u0443\u043a\u0438","sort_rank":275,"source":"openstreetmap.org","min_zoom":6.0,"ref":"\u041c\u043e\u0441\u043a\u0432\u0430 - \u0412\u0435\u043b\u0438\u043a\u0438\u0435 \u041b\u0443\u043a\u0438","id":-1759272,"osm_relation":true},"arcs":[12]},{"type":"LineString","properties":{"kind":"train","name:en":"Riga - Moscow","name":"R\u012bga - Maskava","sort_rank":275,"name:de":"Riga - Moskau","source":"openstreetmap.org","min_zoom":6.0,"name:ru":"\u0420\u0438\u0433\u0430 - \u041c\u043e\u0441\u043a\u0432\u0430","ref":"R\u012bga - Maskava","osm_relation":true},"arcs":[13]}]},"pois":{"type":"GeometryCollection","geometries":[]},"boundaries":{"type":"GeometryCollection","geometries":[{"type":"LineString","properties":{"name:kg":"Belarusia","name:ty":"Belarus","name:ka":"\u10d1\u10d4\u10da\u10d0\u10e0\u10e3\u10e1\u10d8","name:ko":"\ubca8\ub77c\ub8e8\uc2a4","name:cv":"\u0411\u0435\u043b\u0430\u0440\u0443\u00e7","name:cu":"\u0411\u0463\u043b\u0430 \u0420\u043e\u0443\u0441\u044c","name:kl":"Hvideruslandi","name:cs":"B\u011blorusko","name:tt":"\u0411\u0435\u043b\u0430\u0440\u0443\u0441\u0438\u044f","name:co":"Bielorussia","name:tk":"Belorussi\u00fda","name:ku":"Belar\u00fbs","name:tl":"Biyelorusya","name:ce":"\u0411\u0435\u043b\u043e\u0440\u0443\u0441\u0441\u0438","name:ta":"\u0baa\u0bc6\u0bb2\u0bb0\u0bc1\u0bb8\u0bcd","name:tg":"\u0411\u0435\u043b\u0430\u0440\u0443\u0441","name:ca":"Bielor\u00fassia","name:te":"\u0c2c\u0c46\u0c32\u0c3e\u0c30\u0c38\u0c4d","name:cy":"Belarws","name:hr":"Bjelorusija","name:da":"Hviderusland","name:de":"Wei\u00dfrussland","name:dz":"\u0f56\u0f7a\u0f0b\u0f63\u0f0b\u0f62\u0f74\u0f0b\u0f66\u0f74\u0f0d","source":"openstreetmap.org","name:kn":"\u0cac\u0cc6\u0cb2\u0cbe\u0cb0\u0cc1\u0cb8\u0ccd","name:dv":"\u0784\u07ac\u078d\u07a6\u0783\u07ab\u0790\u07b0","name:lv":"Baltkrievija","name:lt":"Baltarusija","name:uz":"Belarus","name:ur":"\u0628\u06cc\u0644\u0627\u0631\u0648\u0633","name:lb":"W\u00e4issrussland","name:la":"Ruthenia Alba","name:uk":"\u0411\u0456\u043b\u043e\u0440\u0443\u0441\u044c","name:ug":"\u0628\u06d0\u0644\u0648\u0631\u06c7\u0633\u0633\u0649\u064a\u06d5","name:li":"Wit-Rusland","name:ln":"Bielorusia","name:el":"\u039b\u03b5\u03c5\u03ba\u03bf\u03c1\u03c9\u03c3\u03af\u03b1","name:eo":"Belorusujo","name:en":"Belarus","name":"\u0411\u0435\u043b\u0430\u0440\u0443\u0441\u044c","name:ee":"Belarus","name:th":"\u0e1b\u0e23\u0e30\u0e40\u0e17\u0e28\u0e40\u0e1a\u0e25\u0e32\u0e23\u0e38\u0e2a","name:eu":"Bielorrusia","name:et":"Valgevene","name:es":"Bielorrusia","name:ia":"Bielorussia","name:rm":"Bielorussia","name:az":"Belarus","name:ie":"Bielorussia","name:id":"Belarus","name:ar":"\u0631\u0648\u0633\u064a\u0627 \u0627\u0644\u0628\u064a\u0636\u0627\u0621","name:io":"Bielorusia","name:is":"Hv\u00edta-R\u00fassland","name:it":"Bielorussia","name:rw":"Belarusi","name:af":"Wit-Rusland","name:zu":"IBelarusi","kind_detail":"2","name:ky":"\u0411\u0435\u043b\u0430\u0440\u0443\u0441\u0438\u044f","name:zh-yue":"\u767d\u4fc4\u7f85\u65af","name:zh":"\u767d\u4fc4\u7f57\u65af","name:so":"Belarus","name:sl":"Belorusija","name:sk":"Bielorusko","name:ja":"\u30d9\u30e9\u30eb\u30fc\u30b7","name:si":"\u0db6\u0dd9\u0dbd\u0dcf\u0dbb\u0dc3\u0dca","name:sh":"Belorusija","name:se":"Vilges-Ruo\u0161\u0161a","name:sa":"\u092c\u0947\u0932\u093e\u0930\u0942\u0938","name:bs":"Bjelorusija","name:bn":"\u09ac\u09c7\u09b2\u09be\u09b0\u09c1\u09b6","name:bo":"\u0f56\u0fb7\u0f7a\u0f0b\u0f63\u0f0b\u0f62\u0f66\u0f74\u0f0d","name:br":"Belarus","name:sw":"Belarus","name:sv":"Vitryssland","name:su":"B\u00e9larus","name:bg":"\u0411\u0435\u043b\u0430\u0440\u0443\u0441","name:ss":"IBhelalasi","name:sr":"\u0411\u0435\u043b\u043e\u0440\u0443\u0441\u0438\u0458\u0430","name:sq":"Bjellorusia","name:jv":"B\u00e9larus","name:bi":"Belarus","name:pt":"Bielorr\u00fassia","name:ps":"\u0628\u06d0\u0644\u0627\u0631\u0648\u0633","name:oc":"Bielorussia","min_zoom":8.0,"name:ro":"Belarus","name:zh-min-nan":"Belarus","name:os":"\u0411\u0435\u043b\u043e\u0440\u0443\u0441\u0441\u0438","name:or":"\u0b2c\u0b47\u0b32\u0b3e\u0b0b\u0b37","name:pl":"Bia\u0142oru\u015b","sort_rank":262,"osm_relation":true,"name:tr":"Beyaz Rusya","name:hi":"\u092c\u0947\u0932\u093e\u0930\u0942\u0938","name:he":"\u05d1\u05dc\u05d0\u05e8\u05d5\u05e1","old_name:eo":"Bjelorusio;Bjelorusujo","name:hy":"\u0532\u0565\u056c\u0561\u057c\u0578\u0582\u057d","name:ht":"Byelorisi","name:hu":"Feh\u00e9roroszorsz\u00e1g","name:qu":"Bilarus","kind":"country","name:ts":"Belarus","name:yi":"\u05d1\u05e2\u05dc\u05d0\u05e8\u05d5\u05e1","name:yo":"B\u1eb9\u0300l\u00e1r\u00f9s","name:mt":"Belarus","alt_name:eo":"Belorusio","name:ms":"Belarus","name:mr":"\u092c\u0947\u0932\u093e\u0930\u0942\u0938","name:my":"\u1018\u102e\u101c\u102c\u101b\u102f\u1007\u103a\u1014\u102d\u102f\u1004\u103a\u1004\u1036","official_name":"\u0420\u044d\u0441\u043f\u0443\u0431\u043b\u0456\u043a\u0430 \u0411\u0435\u043b\u0430\u0440\u0443\u0441\u044c","name:kw":"Belarussi","name:ml":"\u0d2c\u0d46\u0d32\u0d3e\u0d31\u0d41\u0d38\u0d4d","name:vi":"Belarus","name:mi":"P\u0113rara","id":-59065,"name:mk":"\u0411\u0435\u043b\u043e\u0440\u0443\u0441\u0438\u0458\u0430","name:vo":"Belarus\u00e4n","name:fa":"\u0628\u0644\u0627\u0631\u0648\u0633","name:ff":"Belaruusiya","name:fi":"Valko-Ven\u00e4j\u00e4","name:fo":"Hv\u00edtarussland","alt_name:vi":"B\u1ea1ch Nga","name:fr":"B\u00e9larus","name:fy":"Wyt-Rusl\u00e2n","int_name":"Belarus","name:nl":"Wit-Rusland","name:nn":"Kviterussland","name:no":"Hviterussland","name:na":"Berarut","name:ne":"\u092c\u0947\u0932\u093e\u0930\u0941\u0938","alt_name:fr":"Bi\u00e9lorussie","name:wo":"Belaarus","name:ga":"An Bhealar\u00fais","name:gd":"A' Bhealaruis","name:gn":"Vielorrusia","name:gl":"Bielorrusia","name:gv":"Yn Velaroosh","name:gu":"\u0aac\u0ac7\u0ab2\u0abe\u0ab0\u0ac1\u0ab8"},"arcs":[0]},{"type":"LineString","properties":{"name:left:bs":"Pskovska oblast","name:left:la":"Regio Pscoviensis","old_name:right:en":"Vitebsk region","name:right:uk":"\u0412\u0456\u0442\u0435\u0431\u0441\u044c\u043a\u0430 \u043e\u0431\u043b\u0430\u0441\u0442\u044c","name:left:sr":"\u041f\u0441\u043a\u043e\u0432\u0441\u043a\u0430 \u043e\u0431\u043b\u0430\u0441\u0442","name:right:lt":"Vitebsko sritis","name:left:sl":"Pskovska oblast","min_zoom":8.0,"name:left:lt":"Pskovo sritis","name:left:sh":"Pskovska oblast","name:left:lv":"Pleskavas apgabals","name:left:hu":"Pszkovi ter\u00fclet","name:left:hr":"Pskovska oblast","old_name:right:fr":"Voblast de Vitebsk","sort_rank":256,"name:left:ca":"Prov\u00edncia de Pskov","int_name:right":"Viciebskaja voblas\u0107","source":"openstreetmap.org","name:left:cv":"\u041f\u0441\u043a\u043e\u0432 \u043e\u0431\u043b\u0430\u00e7\u0115","name:left:cs":"Pskovsk\u00e1 oblast","name:left":"\u041f\u0441\u043a\u043e\u0432\u0441\u043a\u0430\u044f \u043e\u0431\u043b\u0430\u0441\u0442\u044c","name:left:ka":"\u10e4\u10e1\u10d9\u10dd\u10d5\u10d8\u10e1 \u10dd\u10da\u10e5\u10d8","name:left:os":"\u041f\u0441\u043a\u043e\u0432\u044b \u043e\u0431\u043b\u00e6\u0441\u0442","name:left:ro":"Regiunea Pskov","name:left:kv":"\u041f\u0441\u043a\u043e\u0432 \u043e\u0431\u043b\u0430\u0441\u044c\u0442","name:right:eo":"Vicebska regiono","name:right:en":"Vitsebsk Voblast","kind":"region","name":"\u041f\u0441\u043a\u043e\u0432\u0441\u043a\u0430\u044f \u043e\u0431\u043b\u0430\u0441\u0442\u044c - \u0412\u0438\u0442\u0435\u0431\u0441\u043a\u0430\u044f \u043e\u0431\u043b\u0430\u0441\u0442\u044c","name:left:fa":"\u0627\u0633\u062a\u0627\u0646 \u067e\u0633\u06a9\u0648\u0641","name:right:sk":"Vicebsk\u00e1 oblas\u0165","name:left:fi":"Pihkovan alue","name:left:zh":"\u666e\u65af\u79d1\u592b\u5dde","name:left:fr":"Oblast de Pskov","name:left:da":"Pskov oblast","name:left:hy":"\u054a\u057d\u056f\u0578\u057e\u056b \u0574\u0561\u0580\u0566","name:left:uz":"Pskov viloyati","name:right:fr":"Voblast de Vitsebsk","name:left:ur":"\u067e\u0633\u06a9\u0648\u0641 \u0627\u0648\u0628\u0644\u0627\u0633\u062a","name:left:ja":"\u30d7\u30b9\u30b3\u30d5\u5dde","id:right":-59506,"name:left:uk":"\u041f\u0441\u043a\u043e\u0432\u0441\u044c\u043a\u0430 \u043e\u0431\u043b\u0430\u0441\u0442\u044c","name:left:nl":"Oblast Pskov","name:left:ba":"\u041f\u0441\u043a\u043e\u0432 \u04e9\u043b\u043a\u04d9\u04bb\u0435","name:left:bg":"\u041f\u0441\u043a\u043e\u0432\u0441\u043a\u0430 \u043e\u0431\u043b\u0430\u0441\u0442","name:left:be":"\u041f\u0441\u043a\u043e\u045e\u0441\u043a\u0430\u044f \u0432\u043e\u0431\u043b\u0430\u0441\u0446\u044c","name:right:be":"\u0412\u0456\u0446\u0435\u0431\u0441\u043a\u0430\u044f \u0432\u043e\u0431\u043b\u0430\u0441\u0446\u044c","id":-155262,"name:right":"\u0412\u0438\u0442\u0435\u0431\u0441\u043a\u0430\u044f \u043e\u0431\u043b\u0430\u0441\u0442\u044c","name:left:en":"Pskov Oblast","name:left:el":"\u03a0\u03b5\u03c1\u03b9\u03c6\u03ad\u03c1\u03b5\u03b9\u03b1 \u03a0\u03c3\u03ba\u03bf\u03c6","name:right:ca":"Prov\u00edncia de V\u00edtsiebsk","kind_detail":"4","name:left:pl":"Obw\u00f3d pskowski","id:left":-155262,"name:left:es":"\u00d3blast de Pskov","name:left:ko":"\ud504\uc2a4\ucf54\ud504 \uc8fc","name:left:eu":"Pskov oblasta","name:left:et":"Pihkva oblast","name:left:ar":"\u0628\u0633\u0643\u0648\u0641 \u0623\u0648\u0628\u0644\u0627\u0633\u062a","name:left:mk":"\u041f\u0441\u043a\u043e\u0432\u0441\u043a\u0430 \u043e\u0431\u043b\u0430\u0441\u0442","name:left:tr":"Pskov Oblast\u0131","name:left:id":"Oblast Pskov","name:left:tt":"\u041f\u0441\u043a\u043e\u0432 \u04e9\u043b\u043a\u04d9\u0441\u0435","name:left:az":"Pskov vilay\u0259ti","name:left:af":"Pskof-oblast","name:left:ta":"\u0baa\u0bbf\u0b9a\u0bc1\u0b95\u0bcd\u0b95\u0bcb\u0bb5\u0bcd \u0bae\u0bbe\u0b95\u0bbe\u0ba3\u0bae\u0bcd","name:left:it":"Oblast' di Pskov","name:right:pl":"obw\u00f3d witebski","osm_relation":true,"name:right:de":"Wizebskaja Woblasz","name:left:de":"Oblast Pskow","name:left:ce":"\u041f\u0441\u043a\u043e\u0432\u0430\u043d \u043e\u0431\u043b\u0430\u0441\u0442\u044c"},"arcs":[1]}]},"roads":{"type":"GeometryCollection","geometries":[{"type":"MultiLineString","properties":{"sort_rank":380,"kind_detail":"primary","min_zoom":8.0,"kind":"major_road","source":"openstreetmap.org"},"arcs":[[14],[15],[16]]},{"type":"MultiLineString","properties":{"sort_rank":381,"source":"openstreetmap.org","min_zoom":8.0,"kind":"major_road","kind_detail":"trunk"},"arcs":[[17],[18],[19],[20]]},{"type":"LineString","properties":{"kind":"major_road","network":"ru:regional","sort_rank":380,"kind_detail":"primary","source":"openstreetmap.org","min_zoom":8.0,"shield_text":"58\u041a","ref":"58\u041a-037"},"arcs":[21]},{"type":"LineString","properties":{"kind":"major_road","int_name":"Lieninskaja vulica","network":"by:national","sort_rank":381,"kind_detail":"trunk","source":"openstreetmap.org","min_zoom":8.0,"shield_text":"8","name:be":"\u041b\u0435\u043d\u0456\u043d\u0441\u043a\u0430\u044f \u0432\u0443\u043b\u0456\u0446\u0430","ref":"\u041c8","id":242387074},"arcs":[22]},{"type":"MultiLineString","properties":{"kind":"major_road","network":"ru:national","sort_rank":381,"kind_detail":"trunk","source":"openstreetmap.org","min_zoom":8.0,"shield_text":"9","ref":"\u041c-9"},"arcs":[[23],[24]]},{"type":"MultiLineString","properties":{"kind":"major_road","network":"by:national","sort_rank":381,"kind_detail":"trunk","source":"openstreetmap.org","min_zoom":8.0,"shield_text":"8","ref":"\u041c8"},"arcs":[[25],[26]]},{"type":"LineString","properties":{"kind":"major_road","network":"by:national","sort_rank":381,"kind_detail":"trunk","source":"openstreetmap.org","min_zoom":8.0,"landuse_kind":"residential","shield_text":"8","ref":"\u041c8","id":153793207},"arcs":[27]},{"type":"MultiLineString","properties":{"source":"openstreetmap.org","kind":"major_road","landuse_kind":"urban_area","sort_rank":380,"kind_detail":"primary","name:be":"\u043f\u0440\u0430\u0441\u043f\u0435\u043a\u0442 \u041b\u0435\u043d\u0456\u043d\u0430","min_zoom":8.0},"arcs":[[28],[29]]},{"type":"LineString","properties":{"kind":"major_road","name:en":"Velikolukskoe highway","network":"ru:regional","sort_rank":380,"kind_detail":"primary","source":"openstreetmap.org","min_zoom":8.0,"shield_text":"58\u041a","ref":"58\u041a-037"},"arcs":[30]},{"type":"MultiLineString","properties":{"source":"openstreetmap.org","kind":"major_road","landuse_kind":"urban_area","sort_rank":380,"kind_detail":"primary","min_zoom":8.0},"arcs":[[31],[32]]},{"type":"LineString","properties":{"kind":"major_road","network":"ru:national","sort_rank":381,"kind_detail":"trunk","source":"openstreetmap.org","min_zoom":8.0,"landuse_kind":"residential","shield_text":"9","ref":"\u041c-9"},"arcs":[33]},{"type":"LineString","properties":{"source":"openstreetmap.org","kind":"major_road","sort_rank":380,"kind_detail":"primary","ref":"58\u041a-079","min_zoom":8.0},"arcs":[34]},{"type":"LineString","properties":{"kind":"major_road","network":"ru:national","sort_rank":381,"kind_detail":"trunk","source":"openstreetmap.org","min_zoom":8.0,"shield_text":"23","ref":"\u0420-23"},"arcs":[35]},{"type":"MultiLineString","properties":{"kind":"major_road","int_name":"Lieninskaja vulica","network":"by:national","sort_rank":381,"kind_detail":"trunk","source":"openstreetmap.org","min_zoom":8.0,"landuse_kind":"residential","shield_text":"8","name:be":"\u041b\u0435\u043d\u0456\u043d\u0441\u043a\u0430\u044f \u0432\u0443\u043b\u0456\u0446\u0430","ref":"\u041c8"},"arcs":[[36],[37],[38]]},{"type":"LineString","properties":{"kind":"major_road","network":"ru:national","sort_rank":381,"kind_detail":"trunk","source":"openstreetmap.org","min_zoom":8.0,"shield_text":"23","ref":"\u041c8","id":398854892},"arcs":[39]},{"type":"LineString","properties":{"kind":"major_road","network":"e-road","sort_rank":381,"kind_detail":"trunk","source":"openstreetmap.org","min_zoom":8.0,"shield_text":"95","ref":"\u0420-23"},"arcs":[40]},{"type":"LineString","properties":{"kind":"major_road","network":"ru:regional","sort_rank":380,"kind_detail":"primary","source":"openstreetmap.org","min_zoom":8.0,"shield_text":"58\u041a","ref":"58\u041a-079"},"arcs":[41]},{"type":"LineString","properties":{"kind":"major_road","sort_rank":380,"kind_detail":"primary","bus_network":null,"source":"openstreetmap.org","min_zoom":8.0,"bus_shield_text":"5","name:be":"\u043f\u0440\u0430\u0441\u043f\u0435\u043a\u0442 \u041b\u0435\u043d\u0456\u043d\u0430","landuse_kind":"urban_area","id":4419659},"arcs":[42]},{"type":"MultiLineString","properties":{"source":"openstreetmap.org","kind":"major_road","landuse_kind":"urban_area","sort_rank":380,"kind_detail":"primary","name:be":"\u041a\u0430\u0441\u0442\u0440\u044b\u0447\u043d\u0456\u0446\u043a\u0456 \u043f\u0440\u0430\u0441\u043f.","min_zoom":8.0},"arcs":[[43],[44]]},{"type":"LineString","properties":{"source":"openstreetmap.org","kind":"major_road","name:en":"Komsomolskaya Street","sort_rank":381,"kind_detail":"trunk","ref":"58\u041a-202","min_zoom":8.0},"arcs":[45]},{"type":"LineString","properties":{"source":"openstreetmap.org","kind":"major_road","kind_detail":"primary","sort_rank":380,"name:be":"\u041a\u0430\u0441\u0442\u0440\u044b\u0447\u043d\u0456\u0446\u043a\u0456 \u043f\u0440\u0430\u0441\u043f.","min_zoom":8.0,"id":77689942},"arcs":[46]},{"type":"MultiLineString","properties":{"source":"openstreetmap.org","kind":"major_road","sort_rank":381,"kind_detail":"trunk","ref":"58\u041a-202","min_zoom":8.0},"arcs":[[47],[48]]},{"type":"LineString","properties":{"kind":"major_road","name:en":"Gvardeyskaya street","sort_rank":381,"kind_detail":"trunk","source":"openstreetmap.org","min_zoom":8.0,"ref":"58\u041a-202","id":4419411},"arcs":[49]}]},"earth":{"type":"GeometryCollection","geometries":[{"type":"Polygon","properties":{"sort_rank":10,"source":"naturalearthdata.com","kind":"earth","min_zoom":0.0,"id":4769},"arcs":[[50]]}]},"landuse":{"type":"GeometryCollection","geometries":[{"type":"Polygon","properties":{"kind":"residential","name:en":"Novosokolniki","name":"\u041d\u043e\u0432\u043e\u0441\u043e\u043a\u043e\u043b\u044c\u043d\u0438\u043a\u0438","area":44289700,"sort_rank":20,"name:de":"Nowosokolniki","source":"openstreetmap.org","min_zoom":8.0,"tier":2,"id":120342404},"arcs":[[51]]},{"type":"Polygon","properties":{"source":"naturalearthdata.com","kind":"urban_area","name":"","area":130736952,"sort_rank":11,"min_zoom":4.0,"id":6707},"arcs":[[52]]},{"type":"MultiPolygon","properties":{"source":"openstreetmap.org","kind":"residential","tier":2,"area":28650512,"sort_rank":20,"min_zoom":8.0},"arcs":[[[53]]]},{"type":"Polygon","properties":{"kind":"nature_reserve","protect_class":"7","area":73749800,"sort_rank":23,"source":"openstreetmap.org","min_zoom":8.0,"tier":2,"id":-7155001,"osm_relation":true},"arcs":[[54]]}]}},"type":"Topology","transform":{"translate":[29.53125,55.7765730187],"scale":[0.0003433228,0.00019114]},"arcs":[[[2825,0],[-24,33],[73,31],[2,30],[-92,57],[-16,38],[-189,-16],[-33,3],[-2,31],[-102,-40],[-88,140],[-154,-19],[-5,173],[-23,28],[-9,-32],[-102,41],[-32,-37],[-36,27],[-102,-39],[-43,87],[-26,-23],[37,-58],[-18,-11],[5,-61],[-65,5],[-30,-95],[-62,11],[-12,-18],[-92,86],[-12,-45],[-27,7],[-38,80],[-207,85],[-40,-42],[20,-37],[-88,-27],[-134,57],[-90,-71],[40,-40],[-25,-54],[-63,-78],[-27,9],[1,-73],[-120,-122],[-82,-9],[-17,85],[-53,37],[-84,-56],[-113,-1],[-66,-54],[-111,-23]],[[249,0],[111,23],[66,54],[113,1],[84,56],[53,-37],[17,-85],[82,9],[120,122],[-1,73],[27,-9],[63,78],[25,54],[-40,40],[90,71],[134,-57],[88,27],[-20,37],[40,42],[207,-85],[38,-80],[27,-7],[12,45],[92,-86],[12,18],[62,-11],[30,95],[65,-5],[-5,61],[18,11],[-37,58],[26,23],[43,-87],[102,39],[36,-27],[32,37],[102,-41],[9,32],[23,-28],[5,-173],[154,19],[88,-140],[102,40],[2,-31],[33,-3],[189,16],[16,-38],[92,-57],[-2,-30],[-73,-31],[24,-33]],[[1170,1282],[1,-4]],[[1171,1278],[4,-11]],[[1171,1280],[0,1]],[[1171,1281],[-31,113],[17,115],[84,129],[9,153],[82,68],[107,8],[88,60],[68,223],[-32,157],[12,105],[55,85],[71,46],[72,261],[77,62],[-55,101]],[[3014,2949],[-124,-41],[-116,-133],[-80,-141],[-249,-201],[-191,-324],[-214,-226],[-79,-117],[-248,-177],[-101,-18],[-85,-86],[-274,-84],[-81,-63],[-1,-57]],[[1171,1281],[0,-3]],[[1797,2956],[98,346],[55,476],[-43,193],[-77,125]],[[1796,2946],[47,-61],[208,-66],[342,47],[323,-22],[71,85],[91,-24],[129,39]],[[1373,0],[-7,132],[-107,272],[-5,165],[-38,87],[47,145],[-35,162],[47,97],[-23,121],[-77,86]],[[3007,2944],[106,-4],[366,86],[362,7],[159,82],[96,87]],[[3007,2944],[256,6],[184,-66],[217,-9],[62,-24],[149,17],[221,-112]],[[4096,2756],[-178,104],[-108,12],[-84,-21],[-62,24],[-213,9],[-188,66],[-76,-16],[-135,16],[-174,-45],[-87,25],[-54,-77],[-34,-11],[-276,25],[-381,-48],[-228,80],[-32,101],[-30,24],[-86,15],[-275,-22],[-105,31],[-53,-49],[-95,52],[-261,-4],[-148,36],[-206,-62],[-220,-5],[-126,-47],[-181,7]],[[1246,974],[12,-293]],[[2752,3044],[18,-10]],[[2865,2768],[-1,-28]],[[1019,1369],[15,10],[72,-67],[19,-44]],[[1126,1261],[0,1]],[[1127,1260],[1,0]],[[1127,1260],[-1,1],[0,-1],[1,-1],[0,1]],[[2864,2740],[46,-274],[-80,-218],[1,-119],[-58,-168],[-158,-62],[-470,-295],[-269,-209],[-94,-15],[-366,-223]],[[1286,358],[4,-7]],[[0,2907],[245,1],[286,59],[146,-2],[100,47],[352,-19],[245,-102],[222,6],[137,-45]],[[1804,2822],[331,-162],[385,-81],[185,75],[176,22],[774,-15],[207,-56],[234,19]],[[1261,416],[25,-58]],[[1363,187],[49,-187]],[[1363,187]],[[2827,3004],[8,-5]],[[2856,2985],[34,-23]],[[1416,1157],[-170,-183]],[[2770,3034],[57,-30]],[[2875,2937],[-6,-10]],[[1733,2852],[71,-30]],[[2747,3048],[5,-4]],[[1259,421],[-1,260],[-150,101],[-82,111],[29,77],[-15,79],[18,152],[-40,174],[-462,453],[-196,33],[-190,373],[-170,158]],[[1290,351],[32,-73]],[[1322,278],[6,-13]],[[1328,265],[35,-78]],[[1261,416],[-2,5]],[[1259,447],[1,156]],[[1871,4096],[102,-118],[-42,-387],[85,-99],[142,-80],[91,-112],[214,-82],[284,-170]],[[2835,2999],[21,-14]],[[2869,2927],[-3,-121]],[[2890,2962],[-15,-25]],[[1167,1246],[-40,14]],[[2866,2806],[-1,-38]],[[1126,1260],[-1,8]],[[3053,0],[-254,158],[-120,176],[-676,443],[-363,140],[-270,171],[-51,39],[3,30],[-69,19]],[[1253,1176],[-86,70]],[[4096,4096],[0,-4096],[-4096,0],[0,4096],[4096,0]],[[1694,2865],[31,34],[26,-32],[18,19],[3,104],[92,154],[26,-65],[-14,-38],[28,12],[-50,-135],[46,18],[1,-40],[-47,-12],[-88,-109],[-38,16],[11,59],[-45,15]],[[2930,2799],[-42,-5],[-120,63],[-19,85],[19,90],[35,39],[338,6],[1,-152],[-51,-46],[-128,-22],[-33,-58]],[[1285,348],[58,29],[29,-47],[-37,-30],[42,-13],[-22,-39],[25,-46],[-22,-19],[-73,165]],[[891,207],[3,7],[25,-1],[67,74],[24,52],[-25,27],[118,3],[1,-49],[58,-1],[-20,-25],[14,-24],[125,-14],[-126,-95],[-34,13],[-34,-46],[-37,19],[-77,-39],[-40,10],[-42,89]]]}