{"objects":{"water":{"type":"GeometryCollection","geometries":[]},"buildings":{"type":"GeometryCollection","geometries":[]},"places":{"type":"GeometryCollection","geometries":[{"type":"Point","properties":{"int_name":"Viciebsk","name:lt":"Vitebskas","name:eo":"Vicebsko","min_zoom":8.0,"name:uk":"\u0412\u0456\u0442\u0435\u0431\u0441\u044c\u043a","name:be":"\u0412\u0456\u0446\u0435\u0431\u0441\u043a","name:pl":"Witebsk","id":242978887,"name:ca":"V\u00edtsiebsk","population":369933,"kind":"locality","name:en":"Vitebsk","name":"\u0412\u0438\u0442\u0435\u0431\u0441\u043a","kind_detail":"city","name:de":"Wizebsk","source":"openstreetmap.org","name:fr":"Vitebsk","name:es":"V\u00edtebsk"},"coordinates":[1968,1104]},{"type":"Point","properties":{"kind":"locality","name:en":"Haradok","name":"\u0413\u043e\u0440\u043e\u0434\u043e\u043a","name:lt":"Haradokas","kind_detail":"town","source":"openstreetmap.org","min_zoom":8.0,"int_name":"Haradok","name:be":"\u0413\u0430\u0440\u0430\u0434\u043e\u043a","name:pl":"Horodek","id":242978970,"population":12186},"coordinates":[1328,2480]},{"type":"Point","properties":{"kind":"locality","int_name":"\u0160umilina","name":"\u0428\u0443\u043c\u0438\u043b\u0438\u043d\u043e","name:lt":"\u0160umilinas","kind_detail":"town","source":"openstreetmap.org","min_zoom":8.0,"name:be":"\u0428\u0443\u043c\u0456\u043b\u0456\u043d\u0430","name:pl":"Szumilino","id":132174058,"population":7395},"coordinates":[254,1639]}]},"transit":{"type":"GeometryCollection","geometries":[{"type":"LineString","properties":{"source":"openstreetmap.org","kind":"train","name":"\u0412\u0438\u0442\u0435\u0431\u0441\u043a - \u041f\u043e\u043b\u043e\u0446\u043a","sort_rank":275,"ref":"\u0412\u0438\u0442\u0435\u0431\u0441\u043a - \u041f\u043e\u043b\u043e\u0446\u043a","min_zoom":6.0,"osm_relation":true},"arcs":[14]},{"type":"LineString","properties":{"source":"openstreetmap.org","kind":"train","sort_rank":275,"ref":"\u041c\u043e\u0441\u043a\u0432\u0430 - \u041f\u043e\u043b\u043e\u0446\u043a","min_zoom":6.0,"osm_relation":true},"arcs":[15]},{"type":"LineString","properties":{"source":"openstreetmap.org","kind":"train","sort_rank":275,"ref":"\u0421\u043c\u043e\u043b\u0435\u043d\u0441\u043a - \u0412\u0438\u0442\u0435\u0431\u0441\u043a","min_zoom":6.0,"osm_relation":true},"arcs":[16]},{"type":"MultiLineString","properties":{"source":"openstreetmap.org","kind":"train","sort_rank":275,"ref":"\u0412\u0438\u0442\u0435\u0431\u0441\u043a - \u041d\u0435\u0432\u0435\u043b\u044c","min_zoom":6.0,"osm_relation":true},"arcs":[[17],[18],[19],[20],[21],[22],[23],[24],[25],[26],[27],[28]]},{"type":"MultiLineString","properties":{"source":"openstreetmap.org","kind":"train","sort_rank":275,"ref":"\u0412\u0438\u0442\u0435\u0431\u0441\u043a - \u041e\u0440\u0448\u0430","min_zoom":6.0,"osm_relation":true},"arcs":[[29],[30],[31],[32],[33],[34],[35],[36],[37],[38]]}]},"pois":{"type":"GeometryCollection","geometries":[]},"boundaries":{"type":"GeometryCollection","geometries":[{"type":"MultiLineString","properties":{"name:kg":"Belarusia","name:ty":"Belarus","name:ka":"\u10d1\u10d4\u10da\u10d0\u10e0\u10e3\u10e1\u10d8","name:ko":"\ubca8\ub77c\ub8e8\uc2a4","name:cv":"\u0411\u0435\u043b\u0430\u0440\u0443\u00e7","name:cu":"\u0411\u0463\u043b\u0430 \u0420\u043e\u0443\u0441\u044c","name:kl":"Hvideruslandi","name:cs":"B\u011blorusko","name:tt":"\u0411\u0435\u043b\u0430\u0440\u0443\u0441\u0438\u044f","name:co":"Bielorussia","name:tk":"Belorussi\u00fda","name:ku":"Belar\u00fbs","name:tl":"Biyelorusya","name:ce":"\u0411\u0435\u043b\u043e\u0440\u0443\u0441\u0441\u0438","name:ta":"\u0baa\u0bc6\u0bb2\u0bb0\u0bc1\u0bb8\u0bcd","name:tg":"\u0411\u0435\u043b\u0430\u0440\u0443\u0441","name:ca":"Bielor\u00fassia","name:te":"\u0c2c\u0c46\u0c32\u0c3e\u0c30\u0c38\u0c4d","name:cy":"Belarws","name:hr":"Bjelorusija","name:da":"Hviderusland","name:de":"Wei\u00dfrussland","name:dz":"\u0f56\u0f7a\u0f0b\u0f63\u0f0b\u0f62\u0f74\u0f0b\u0f66\u0f74\u0f0d","source":"openstreetmap.org","name:kn":"\u0cac\u0cc6\u0cb2\u0cbe\u0cb0\u0cc1\u0cb8\u0ccd","name:dv":"\u0784\u07ac\u078d\u07a6\u0783\u07ab\u0790\u07b0","name:lv":"Baltkrievija","name:lt":"Baltarusija","name:uz":"Belarus","name:ur":"\u0628\u06cc\u0644\u0627\u0631\u0648\u0633","name:lb":"W\u00e4issrussland","name:la":"Ruthenia Alba","name:uk":"\u0411\u0456\u043b\u043e\u0440\u0443\u0441\u044c","name:ug":"\u0628\u06d0\u0644\u0648\u0631\u06c7\u0633\u0633\u0649\u064a\u06d5","name:li":"Wit-Rusland","name:ln":"Bielorusia","name:el":"\u039b\u03b5\u03c5\u03ba\u03bf\u03c1\u03c9\u03c3\u03af\u03b1","name:eo":"Belorusujo","name:en":"Belarus","name":"\u0411\u0435\u043b\u0430\u0440\u0443\u0441\u044c","name:ee":"Belarus","name:th":"\u0e1b\u0e23\u0e30\u0e40\u0e17\u0e28\u0e40\u0e1a\u0e25\u0e32\u0e23\u0e38\u0e2a","name:eu":"Bielorrusia","name:et":"Valgevene","name:es":"Bielorrusia","name:ia":"Bielorussia","name:rm":"Bielorussia","name:az":"Belarus","name:ie":"Bielorussia","name:id":"Belarus","name:ar":"\u0631\u0648\u0633\u064a\u0627 \u0627\u0644\u0628\u064a\u0636\u0627\u0621","name:io":"Bielorusia","name:is":"Hv\u00edta-R\u00fassland","name:it":"Bielorussia","name:rw":"Belarusi","name:af":"Wit-Rusland","name:zu":"IBelarusi","kind_detail":"2","name:ky":"\u0411\u0435\u043b\u0430\u0440\u0443\u0441\u0438\u044f","name:zh-yue":"\u767d\u4fc4\u7f85\u65af","name:zh":"\u767d\u4fc4\u7f57\u65af","name:so":"Belarus","name:sl":"Belorusija","name:sk":"Bielorusko","name:ja":"\u30d9\u30e9\u30eb\u30fc\u30b7","name:si":"\u0db6\u0dd9\u0dbd\u0dcf\u0dbb\u0dc3\u0dca","name:sh":"Belorusija","name:se":"Vilges-Ruo\u0161\u0161a","name:sa":"\u092c\u0947\u0932\u093e\u0930\u0942\u0938","name:bs":"Bjelorusija","name:bn":"\u09ac\u09c7\u09b2\u09be\u09b0\u09c1\u09b6","name:bo":"\u0f56\u0fb7\u0f7a\u0f0b\u0f63\u0f0b\u0f62\u0f66\u0f74\u0f0d","name:br":"Belarus","name:sw":"Belarus","name:sv":"Vitryssland","name:su":"B\u00e9larus","name:bg":"\u0411\u0435\u043b\u0430\u0440\u0443\u0441","name:ss":"IBhelalasi","name:sr":"\u0411\u0435\u043b\u043e\u0440\u0443\u0441\u0438\u0458\u0430","name:sq":"Bjellorusia","name:jv":"B\u00e9larus","name:bi":"Belarus","name:pt":"Bielorr\u00fassia","name:ps":"\u0628\u06d0\u0644\u0627\u0631\u0648\u0633","name:oc":"Bielorussia","min_zoom":8.0,"name:ro":"Belarus","name:zh-min-nan":"Belarus","name:os":"\u0411\u0435\u043b\u043e\u0440\u0443\u0441\u0441\u0438","name:or":"\u0b2c\u0b47\u0b32\u0b3e\u0b0b\u0b37","name:pl":"Bia\u0142oru\u015b","sort_rank":262,"osm_relation":true,"name:tr":"Beyaz Rusya","name:hi":"\u092c\u0947\u0932\u093e\u0930\u0942\u0938","name:he":"\u05d1\u05dc\u05d0\u05e8\u05d5\u05e1","old_name:eo":"Bjelorusio;Bjelorusujo","name:hy":"\u0532\u0565\u056c\u0561\u057c\u0578\u0582\u057d","name:ht":"Byelorisi","name:hu":"Feh\u00e9roroszorsz\u00e1g","name:qu":"Bilarus","kind":"country","name:ts":"Belarus","name:yi":"\u05d1\u05e2\u05dc\u05d0\u05e8\u05d5\u05e1","name:yo":"B\u1eb9\u0300l\u00e1r\u00f9s","name:mt":"Belarus","alt_name:eo":"Belorusio","name:ms":"Belarus","name:mr":"\u092c\u0947\u0932\u093e\u0930\u0942\u0938","name:my":"\u1018\u102e\u101c\u102c\u101b\u102f\u1007\u103a\u1014\u102d\u102f\u1004\u103a\u1004\u1036","official_name":"\u0420\u044d\u0441\u043f\u0443\u0431\u043b\u0456\u043a\u0430 \u0411\u0435\u043b\u0430\u0440\u0443\u0441\u044c","name:kw":"Belarussi","name:ml":"\u0d2c\u0d46\u0d32\u0d3e\u0d31\u0d41\u0d38\u0d4d","name:vi":"Belarus","name:mi":"P\u0113rara","id":-59065,"name:mk":"\u0411\u0435\u043b\u043e\u0440\u0443\u0441\u0438\u0458\u0430","name:vo":"Belarus\u00e4n","name:fa":"\u0628\u0644\u0627\u0631\u0648\u0633","name:ff":"Belaruusiya","name:fi":"Valko-Ven\u00e4j\u00e4","name:fo":"Hv\u00edtarussland","alt_name:vi":"B\u1ea1ch Nga","name:fr":"B\u00e9larus","name:fy":"Wyt-Rusl\u00e2n","int_name":"Belarus","name:nl":"Wit-Rusland","name:nn":"Kviterussland","name:no":"Hviterussland","name:na":"Berarut","name:ne":"\u092c\u0947\u0932\u093e\u0930\u0941\u0938","alt_name:fr":"Bi\u00e9lorussie","name:wo":"Belaarus","name:ga":"An Bhealar\u00fais","name:gd":"A' Bhealaruis","name:gn":"Vielorrusia","name:gl":"Bielorrusia","name:gv":"Yn Velaroosh","name:gu":"\u0aac\u0ac7\u0ab2\u0abe\u0ab0\u0ac1\u0ab8"},"arcs":[[0],[1],[2],[3],[4],[5]]},{"type":"LineString","properties":{"name:left:la":"Regio Pscoviensis","name:right:hy":"\u054d\u0574\u0578\u056c\u0565\u0576\u057d\u056f\u056b \u0574\u0561\u0580\u0566","name:right:uk":"\u0421\u043c\u043e\u043b\u0435\u043d\u0441\u044c\u043a\u0430 \u043e\u0431\u043b\u0430\u0441\u0442\u044c","name:right:hu":"Szmolenszki ter\u00fclet","name:left:sr":"\u041f\u0441\u043a\u043e\u0432\u0441\u043a\u0430 \u043e\u0431\u043b\u0430\u0441\u0442","name:right:lt":"Smolensko sritis","name:left:sl":"Pskovska oblast","min_zoom":8.0,"name:left:lt":"Pskovo sritis","name:left:sh":"Pskovska oblast","name:left:lv":"Pleskavas apgabals","name:right:uz":"Smolensk viloyati","name:left:hu":"Pszkovi ter\u00fclet","name:left:hr":"Pskovska oblast","name:left:ce":"\u041f\u0441\u043a\u043e\u0432\u0430\u043d \u043e\u0431\u043b\u0430\u0441\u0442\u044c","name:left:ca":"Prov\u00edncia de Pskov","source":"openstreetmap.org","name:left:cv":"\u041f\u0441\u043a\u043e\u0432 \u043e\u0431\u043b\u0430\u00e7\u0115","name:left:cs":"Pskovsk\u00e1 oblast","name:left":"\u041f\u0441\u043a\u043e\u0432\u0441\u043a\u0430\u044f \u043e\u0431\u043b\u0430\u0441\u0442\u044c","name:right:sr":"\u0421\u043c\u043e\u043b\u0435\u043d\u0441\u043a\u0430 \u043e\u0431\u043b\u0430\u0441\u0442","name:left:ka":"\u10e4\u10e1\u10d9\u10dd\u10d5\u10d8\u10e1 \u10dd\u10da\u10e5\u10d8","name:right:et":"Smolenski oblast","name:left:ko":"\ud504\uc2a4\ucf54\ud504 \uc8fc","name:left:ro":"Regiunea Pskov","name:left:kv":"\u041f\u0441\u043a\u043e\u0432 \u043e\u0431\u043b\u0430\u0441\u044c\u0442","name:left:pl":"Obw\u00f3d pskowski","name:right:ro":"Regiunea Smolensk","name:left:uz":"Pskov viloyati","name:right:id":"Oblast Smolensk","name:right:eo":"Smolenska provinco","name:right:en":"Smolensk Oblast","name:right:el":"\u03a0\u03b5\u03c1\u03b9\u03c6\u03ad\u03c1\u03b5\u03b9\u03b1 \u03a3\u03bc\u03bf\u03bb\u03ad\u03bd\u03c3\u03ba","kind":"region","name":"\u041f\u0441\u043a\u043e\u0432\u0441\u043a\u0430\u044f \u043e\u0431\u043b\u0430\u0441\u0442\u044c - \u0421\u043c\u043e\u043b\u0435\u043d\u0441\u043a\u0430\u044f \u043e\u0431\u043b\u0430\u0441\u0442\u044c","name:left:fa":"\u0627\u0633\u062a\u0627\u0646 \u067e\u0633\u06a9\u0648\u0641","name:right:bg":"\u0421\u043c\u043e\u043b\u0435\u043d\u0441\u043a\u0430 \u043e\u0431\u043b\u0430\u0441\u0442","name:right:be":"\u0421\u043c\u0430\u043b\u0435\u043d\u0441\u043a\u0430\u044f \u0432\u043e\u0431\u043b\u0430\u0441\u0446\u044c","name:left:zh":"\u666e\u65af\u79d1\u592b\u5dde","name:left:fr":"Oblast de Pskov","name:left:da":"Pskov oblast","name:left:et":"Pihkva oblast","name:left:hy":"\u054a\u057d\u056f\u0578\u057e\u056b \u0574\u0561\u0580\u0566","name:left:bs":"Pskovska oblast","name:right:nl":"Oblast Smolensk","name:left:ur":"\u067e\u0633\u06a9\u0648\u0641 \u0627\u0648\u0628\u0644\u0627\u0633\u062a","name:left:ja":"\u30d7\u30b9\u30b3\u30d5\u5dde","id:right":-81996,"name:left:uk":"\u041f\u0441\u043a\u043e\u0432\u0441\u044c\u043a\u0430 \u043e\u0431\u043b\u0430\u0441\u0442\u044c","name:right:sh":"Smolenska oblast","name:left:nl":"Oblast Pskov","name:left:ba":"\u041f\u0441\u043a\u043e\u0432 \u04e9\u043b\u043a\u04d9\u04bb\u0435","name:left:bg":"\u041f\u0441\u043a\u043e\u0432\u0441\u043a\u0430 \u043e\u0431\u043b\u0430\u0441\u0442","name:left:be":"\u041f\u0441\u043a\u043e\u045e\u0441\u043a\u0430\u044f \u0432\u043e\u0431\u043b\u0430\u0441\u0446\u044c","name:left:fi":"Pihkovan alue","id":-155262,"name:right":"\u0421\u043c\u043e\u043b\u0435\u043d\u0441\u043a\u0430\u044f \u043e\u0431\u043b\u0430\u0441\u0442\u044c","name:left:en":"Pskov Oblast","name:left:el":"\u03a0\u03b5\u03c1\u03b9\u03c6\u03ad\u03c1\u03b5\u03b9\u03b1 \u03a0\u03c3\u03ba\u03bf\u03c6","name:right:ca":"Prov\u00edncia de Smolensk","kind_detail":"4","name:right:ce":"\u0421\u043c\u043e\u043b\u0435\u043d\u0441\u043a\u0430\u043d \u043e\u0431\u043b\u0430\u0441\u0442\u044c","name:left:mk":"\u041f\u0441\u043a\u043e\u0432\u0441\u043a\u0430 \u043e\u0431\u043b\u0430\u0441\u0442","id:left":-155262,"name:left:es":"\u00d3blast de Pskov","name:right:cs":"Smolensk\u00e1 oblast","name:left:os":"\u041f\u0441\u043a\u043e\u0432\u044b \u043e\u0431\u043b\u00e6\u0441\u0442","name:left:eu":"Pskov oblasta","name:right:cv":"\u0421\u043c\u0443\u043b\u0435\u043d \u043e\u0431\u043b\u0430\u00e7\u0115","name:right:ka":"\u10e1\u10db\u10dd\u10da\u10d4\u10dc\u10e1\u10d9\u10d8\u10e1 \u10dd\u10da\u10e5\u10d8","name:left:ar":"\u0628\u0633\u0643\u0648\u0641 \u0623\u0648\u0628\u0644\u0627\u0633\u062a","name:right:tt":"\u0421\u043c\u043e\u043b\u0435\u043d\u0441\u043a \u04e9\u043b\u043a\u04d9\u0441\u0435","name:left:tr":"Pskov Oblast\u0131","name:left:id":"Oblast Pskov","name:left:tt":"\u041f\u0441\u043a\u043e\u0432 \u04e9\u043b\u043a\u04d9\u0441\u0435","name:left:az":"Pskov vilay\u0259ti","name:right:tr":"Smolensk Oblast\u0131","name:left:af":"Pskof-oblast","name:right:kv":"\u0421\u043c\u043e\u043b\u0435\u043d\u0441\u043a \u043e\u0431\u043b\u0430\u0441\u044c\u0442","name:left:ta":"\u0baa\u0bbf\u0b9a\u0bc1\u0b95\u0bcd\u0b95\u0bcb\u0bb5\u0bcd \u0bae\u0bbe\u0b95\u0bbe\u0ba3\u0bae\u0bcd","name:left:it":"Oblast' di Pskov","name:right:pl":"Obw\u00f3d smole\u0144ski","osm_relation":true,"name:right:de":"Oblast Smolensk","name:left:de":"Oblast Pskow","sort_rank":256},"arcs":[6]},{"type":"MultiLineString","properties":{"name:left:bs":"Pskovska oblast","name:left:la":"Regio Pscoviensis","old_name:right:en":"Vitebsk region","name:right:uk":"\u0412\u0456\u0442\u0435\u0431\u0441\u044c\u043a\u0430 \u043e\u0431\u043b\u0430\u0441\u0442\u044c","name:left:sr":"\u041f\u0441\u043a\u043e\u0432\u0441\u043a\u0430 \u043e\u0431\u043b\u0430\u0441\u0442","name:right:lt":"Vitebsko sritis","name:left:sl":"Pskovska oblast","min_zoom":8.0,"name:left:lt":"Pskovo sritis","name:left:sh":"Pskovska oblast","name:left:lv":"Pleskavas apgabals","name:left:hu":"Pszkovi ter\u00fclet","name:left:hr":"Pskovska oblast","old_name:right:fr":"Voblast de Vitebsk","sort_rank":256,"name:left:ca":"Prov\u00edncia de Pskov","int_name:right":"Viciebskaja voblas\u0107","source":"openstreetmap.org","name:left:cv":"\u041f\u0441\u043a\u043e\u0432 \u043e\u0431\u043b\u0430\u00e7\u0115","name:left:cs":"Pskovsk\u00e1 oblast","name:left":"\u041f\u0441\u043a\u043e\u0432\u0441\u043a\u0430\u044f \u043e\u0431\u043b\u0430\u0441\u0442\u044c","name:left:ka":"\u10e4\u10e1\u10d9\u10dd\u10d5\u10d8\u10e1 \u10dd\u10da\u10e5\u10d8","name:left:os":"\u041f\u0441\u043a\u043e\u0432\u044b \u043e\u0431\u043b\u00e6\u0441\u0442","name:left:ro":"Regiunea Pskov","name:left:kv":"\u041f\u0441\u043a\u043e\u0432 \u043e\u0431\u043b\u0430\u0441\u044c\u0442","name:right:eo":"Vicebska regiono","name:right:en":"Vitsebsk Voblast","kind":"region","name":"\u041f\u0441\u043a\u043e\u0432\u0441\u043a\u0430\u044f \u043e\u0431\u043b\u0430\u0441\u0442\u044c - \u0412\u0438\u0442\u0435\u0431\u0441\u043a\u0430\u044f \u043e\u0431\u043b\u0430\u0441\u0442\u044c","name:left:fa":"\u0627\u0633\u062a\u0627\u0646 \u067e\u0633\u06a9\u0648\u0641","name:right:sk":"Vicebsk\u00e1 oblas\u0165","name:left:fi":"Pihkovan alue","name:left:zh":"\u666e\u65af\u79d1\u592b\u5dde","name:left:fr":"Oblast de Pskov","name:left:da":"Pskov oblast","name:left:hy":"\u054a\u057d\u056f\u0578\u057e\u056b \u0574\u0561\u0580\u0566","name:left:uz":"Pskov viloyati","name:right:fr":"Voblast de Vitsebsk","name:left:ur":"\u067e\u0633\u06a9\u0648\u0641 \u0627\u0648\u0628\u0644\u0627\u0633\u062a","name:left:ja":"\u30d7\u30b9\u30b3\u30d5\u5dde","id:right":-59506,"name:left:uk":"\u041f\u0441\u043a\u043e\u0432\u0441\u044c\u043a\u0430 \u043e\u0431\u043b\u0430\u0441\u0442\u044c","name:left:nl":"Oblast Pskov","name:left:ba":"\u041f\u0441\u043a\u043e\u0432 \u04e9\u043b\u043a\u04d9\u04bb\u0435","name:left:bg":"\u041f\u0441\u043a\u043e\u0432\u0441\u043a\u0430 \u043e\u0431\u043b\u0430\u0441\u0442","name:left:be":"\u041f\u0441\u043a\u043e\u045e\u0441\u043a\u0430\u044f \u0432\u043e\u0431\u043b\u0430\u0441\u0446\u044c","name:right:be":"\u0412\u0456\u0446\u0435\u0431\u0441\u043a\u0430\u044f \u0432\u043e\u0431\u043b\u0430\u0441\u0446\u044c","id":-155262,"name:right":"\u0412\u0438\u0442\u0435\u0431\u0441\u043a\u0430\u044f \u043e\u0431\u043b\u0430\u0441\u0442\u044c","name:left:en":"Pskov Oblast","name:left:el":"\u03a0\u03b5\u03c1\u03b9\u03c6\u03ad\u03c1\u03b5\u03b9\u03b1 \u03a0\u03c3\u03ba\u03bf\u03c6","name:right:ca":"Prov\u00edncia de V\u00edtsiebsk","kind_detail":"4","name:left:pl":"Obw\u00f3d pskowski","id:left":-155262,"name:left:es":"\u00d3blast de Pskov","name:left:ko":"\ud504\uc2a4\ucf54\ud504 \uc8fc","name:left:eu":"Pskov oblasta","name:left:et":"Pihkva oblast","name:left:ar":"\u0628\u0633\u0643\u0648\u0641 \u0623\u0648\u0628\u0644\u0627\u0633\u062a","name:left:mk":"\u041f\u0441\u043a\u043e\u0432\u0441\u043a\u0430 \u043e\u0431\u043b\u0430\u0441\u0442","name:left:tr":"Pskov Oblast\u0131","name:left:id":"Oblast Pskov","name:left:tt":"\u041f\u0441\u043a\u043e\u0432 \u04e9\u043b\u043a\u04d9\u0441\u0435","name:left:az":"Pskov vilay\u0259ti","name:left:af":"Pskof-oblast","name:left:ta":"\u0baa\u0bbf\u0b9a\u0bc1\u0b95\u0bcd\u0b95\u0bcb\u0bb5\u0bcd \u0bae\u0bbe\u0b95\u0bbe\u0ba3\u0bae\u0bcd","name:left:it":"Oblast' di Pskov","name:right:pl":"obw\u00f3d witebski","osm_relation":true,"name:right:de":"Wizebskaja Woblasz","name:left:de":"Oblast Pskow","name:left:ce":"\u041f\u0441\u043a\u043e\u0432\u0430\u043d \u043e\u0431\u043b\u0430\u0441\u0442\u044c"},"arcs":[[7],[8]]},{"type":"MultiLineString","properties":{"name:left:uz":"Smolensk viloyati","name:right:fr":"Voblast de Vitsebsk","old_name:right:en":"Vitebsk region","name:right:uk":"\u0412\u0456\u0442\u0435\u0431\u0441\u044c\u043a\u0430 \u043e\u0431\u043b\u0430\u0441\u0442\u044c","id:right":-59506,"name:right:lt":"Vitebsko sritis","name:right:sk":"Vicebsk\u00e1 oblas\u0165","name:left:lt":"Smolensko sritis","name:left:sh":"Smolenska oblast","name:left:be":"\u0421\u043c\u0430\u043b\u0435\u043d\u0441\u043a\u0430\u044f \u0432\u043e\u0431\u043b\u0430\u0441\u0446\u044c","name:right:eo":"Vicebska regiono","name:left:hu":"Szmolenszki ter\u00fclet","id":-81996,"name:right":"\u0412\u0438\u0442\u0435\u0431\u0441\u043a\u0430\u044f \u043e\u0431\u043b\u0430\u0441\u0442\u044c","old_name:right:fr":"Voblast de Vitebsk","name:right:ca":"Prov\u00edncia de V\u00edtsiebsk","name:left:eo":"Smolenska provinco","name:left:en":"Smolensk Oblast","name:left:el":"\u03a0\u03b5\u03c1\u03b9\u03c6\u03ad\u03c1\u03b5\u03b9\u03b1 \u03a3\u03bc\u03bf\u03bb\u03ad\u03bd\u03c3\u03ba","name:left:ce":"\u0421\u043c\u043e\u043b\u0435\u043d\u0441\u043a\u0430\u043d \u043e\u0431\u043b\u0430\u0441\u0442\u044c","kind_detail":"4","name:left:ca":"Prov\u00edncia de Smolensk","int_name:right":"Viciebskaja voblas\u0107","source":"openstreetmap.org","name:left:nl":"Oblast Smolensk","id:left":-81996,"name:left:cv":"\u0421\u043c\u0443\u043b\u0435\u043d \u043e\u0431\u043b\u0430\u00e7\u0115","name:left:cs":"Smolensk\u00e1 oblast","name:left":"\u0421\u043c\u043e\u043b\u0435\u043d\u0441\u043a\u0430\u044f \u043e\u0431\u043b\u0430\u0441\u0442\u044c","name:left:ka":"\u10e1\u10db\u10dd\u10da\u10d4\u10dc\u10e1\u10d9\u10d8\u10e1 \u10dd\u10da\u10e5\u10d8","name:left:pl":"Obw\u00f3d smole\u0144ski","name:left:tr":"Smolensk Oblast\u0131","name:left:id":"Oblast Smolensk","name:left:tt":"\u0421\u043c\u043e\u043b\u0435\u043d\u0441\u043a \u04e9\u043b\u043a\u04d9\u0441\u0435","name:left:ro":"Regiunea Smolensk","name:left:kv":"\u0421\u043c\u043e\u043b\u0435\u043d\u0441\u043a \u043e\u0431\u043b\u0430\u0441\u044c\u0442","name:left:bg":"\u0421\u043c\u043e\u043b\u0435\u043d\u0441\u043a\u0430 \u043e\u0431\u043b\u0430\u0441\u0442","name:left:sr":"\u0421\u043c\u043e\u043b\u0435\u043d\u0441\u043a\u0430 \u043e\u0431\u043b\u0430\u0441\u0442","name:right:pl":"obw\u00f3d witebski","name:right:en":"Vitsebsk Voblast","osm_relation":true,"name:left:uk":"\u0421\u043c\u043e\u043b\u0435\u043d\u0441\u044c\u043a\u0430 \u043e\u0431\u043b\u0430\u0441\u0442\u044c","kind":"region","name":"\u0421\u043c\u043e\u043b\u0435\u043d\u0441\u043a\u0430\u044f \u043e\u0431\u043b\u0430\u0441\u0442\u044c - \u0412\u0438\u0442\u0435\u0431\u0441\u043a\u0430\u044f \u043e\u0431\u043b\u0430\u0441\u0442\u044c","name:right:de":"Wizebskaja Woblasz","min_zoom":8.0,"name:right:be":"\u0412\u0456\u0446\u0435\u0431\u0441\u043a\u0430\u044f \u0432\u043e\u0431\u043b\u0430\u0441\u0446\u044c","name:left:de":"Oblast Smolensk","sort_rank":256,"name:left:et":"Smolenski oblast","name:left:hy":"\u054d\u0574\u0578\u056c\u0565\u0576\u057d\u056f\u056b \u0574\u0561\u0580\u0566"},"arcs":[[9],[10],[11],[12],[13]]}]},"roads":{"type":"GeometryCollection","geometries":[{"type":"MultiLineString","properties":{"kind":"major_road","int_name":"\u0160asejnaja vulica","network":"by:national","sort_rank":381,"landuse_kind":"residential","source":"openstreetmap.org","min_zoom":8.0,"kind_detail":"trunk","shield_text":"21","name:be":"\u0428\u0430\u0441\u044d\u0439\u043d\u0430\u044f \u0432\u0443\u043b\u0456\u0446\u0430","ref":"\u042021"},"arcs":[[39],[40]]},{"type":"MultiLineString","properties":{"kind":"major_road","int_name":"vulica Budzionaha","network":"by:national","sort_rank":380,"kind_detail":"primary","official_name":"\u0412\u0438\u0442\u0435\u0431\u0441\u043a \u2014 \u0413\u043e\u0440\u043e\u0434\u043e\u043a (\u0434\u043e \u0430\u0432\u0442\u043e\u043c\u043e\u0431\u0438\u043b\u044c\u043d\u043e\u0439 \u0434\u043e\u0440\u043e\u0433\u0438 \u041c-8)","source":"openstreetmap.org","min_zoom":8.0,"landuse_kind":"urban_area","shield_text":"115","name:be":"\u0432\u0443\u043b\u0456\u0446\u0430 \u0411\u0443\u0434\u0437\u0451\u043d\u043d\u0430\u0433\u0430","ref":"\u0420115"},"arcs":[[41],[42]]},{"type":"LineString","properties":{"kind":"major_road","int_name":"Viali\u017eskaja vulica","network":"by:national","sort_rank":380,"kind_detail":"primary","official_name":"\u0412\u0438\u0442\u0435\u0431\u0441\u043a \u2014 \u0421\u0443\u0440\u0430\u0436 \u2014 \u0433\u0440\u0430\u043d\u0438\u0446\u0430 \u0420\u043e\u0441\u0441\u0438\u0439\u0441\u043a\u043e\u0439 \u0424\u0435\u0434\u0435\u0440\u0430\u0446\u0438\u0438 (\u0421\u0442\u0430\u0439\u043a\u0438)","source":"openstreetmap.org","min_zoom":8.0,"shield_text":"112","name:be":"\u0412\u044f\u043b\u0456\u0436\u0441\u043a\u0430\u044f \u0432\u0443\u043b\u0456\u0446\u0430","ref":"\u0420112","id":237980946},"arcs":[43]},{"type":"LineString","properties":{"kind":"major_road","network":"by:national","sort_rank":380,"kind_detail":"primary","source":"openstreetmap.org","min_zoom":8.0,"landuse_kind":"residential","shield_text":"20","ref":"\u042020","id":70595177},"arcs":[44]},{"type":"LineString","properties":{"kind":"major_road","int_name":"vulica Voina\u016d-Internacyjanalista\u016d","sort_rank":380,"kind_detail":"primary","name:fr":"oulitsa Voynov-Internationalistov (rue des Guerriers internationalistes)","name:de":"uliza Woynow-Internazionalistow (Krieger-Internationalisten Stra\u00dfe)","source":"openstreetmap.org","min_zoom":8.0,"name:be":"\u0432\u0443\u043b\u0456\u0446\u0430 \u0412\u043e\u0456\u043d\u0430\u045e-\u0406\u043d\u0442\u044d\u0440\u043d\u0430\u0446\u044b\u044f\u043d\u0430\u043b\u0456\u0441\u0442\u0430\u045e","id":130405141},"arcs":[45]},{"type":"LineString","properties":{"kind":"major_road","int_name":"vulica Kasmana\u016dta\u016d","sort_rank":380,"kind_detail":"primary","bus_network":null,"official_name":"\u0412\u0438\u0442\u0435\u0431\u0441\u043a \u2014 \u0413\u043e\u0440\u043e\u0434\u043e\u043a (\u0434\u043e \u0430\u0432\u0442\u043e\u043c\u043e\u0431\u0438\u043b\u044c\u043d\u043e\u0439 \u0434\u043e\u0440\u043e\u0433\u0438 \u041c-8)","source":"openstreetmap.org","min_zoom":8.0,"bus_shield_text":"1","name:be":"\u0432\u0443\u043b\u0456\u0446\u0430 \u041a\u0430\u0441\u043c\u0430\u043d\u0430\u045e\u0442\u0430\u045e","landuse_kind":"urban_area","ref":"\u0420115","id":58640704},"arcs":[46]},{"type":"LineString","properties":{"source":"openstreetmap.org","kind":"major_road","sort_rank":380,"kind_detail":"primary","ref":"\u042025","min_zoom":8.0},"arcs":[47]},{"type":"LineString","properties":{"kind":"major_road","int_name":"vulica Kirava","sort_rank":380,"kind_detail":"primary","bus_network":null,"source":"openstreetmap.org","min_zoom":8.0,"bus_shield_text":"6","name:be":"\u0432\u0443\u043b\u0456\u0446\u0430 \u041a\u0456\u0440\u0430\u0432\u0430","landuse_kind":"urban_area","id":28254561},"arcs":[48]},{"type":"LineString","properties":{"kind":"major_road","int_name":"Masko\u016dski praspiekt","sort_rank":380,"kind_detail":"primary","source":"openstreetmap.org","min_zoom":8.0,"name:be":"\u041c\u0430\u0441\u043a\u043e\u045e\u0441\u043a\u0456 \u043f\u0440\u0430\u0441\u043f\u0435\u043a\u0442","id":381499911},"arcs":[49]},{"type":"MultiLineString","properties":{"kind":"major_road","network":"by:national","sort_rank":380,"kind_detail":"primary","source":"openstreetmap.org","min_zoom":8.0,"shield_text":"87","ref":"\u042087"},"arcs":[[50],[51],[52],[53],[54]]},{"type":"MultiLineString","properties":{"kind":"major_road","int_name":"Smalienskaja vulica","sort_rank":380,"landuse_kind":"urban_area","min_zoom":8.0,"name:de":"uliza Smolenskaya (Smolensk-Stra\u00dfe)","source":"openstreetmap.org","name:fr":"oulitsa Smolenskaya (rue de Smolensk)","kind_detail":"primary","name:be":"\u0421\u043c\u0430\u043b\u0435\u043d\u0441\u043a\u0430\u044f \u0432\u0443\u043b\u0456\u0446\u0430"},"arcs":[[55],[56]]},{"type":"MultiLineString","properties":{"kind":"major_road","network":"by:national","sort_rank":381,"kind_detail":"trunk","source":"openstreetmap.org","min_zoom":8.0,"shield_text":"21","ref":"\u042021"},"arcs":[[57],[58],[59],[60],[61],[62],[63],[64],[65]]},{"type":"MultiLineString","properties":{"bus_network":null,"int_name":"vulica Haharyna","sort_rank":380,"kind_detail":"primary","min_zoom":8.0,"name:de":"uliza Gagarina (Gagarin-Stra\u00dfe)","source":"openstreetmap.org","name:fr":"oulitsa Gagarina (rue de Gagarine)","bus_shield_text":"26","name:be":"\u0432\u0443\u043b\u0456\u0446\u0430 \u0413\u0430\u0433\u0430\u0440\u044b\u043d\u0430","landuse_kind":"urban_area","kind":"major_road"},"arcs":[[66],[67],[68]]},{"type":"MultiLineString","properties":{"kind":"major_road","int_name":"vulica Citova","sort_rank":380,"kind_detail":"primary","source":"openstreetmap.org","min_zoom":8.0,"landuse_kind":"urban_area","name:be":"\u0432\u0443\u043b\u0456\u0446\u0430 \u0426\u0456\u0442\u043e\u0432\u0430"},"arcs":[[69],[70],[71]]},{"type":"MultiLineString","properties":{"kind":"major_road","network":"by:national","sort_rank":381,"kind_detail":"trunk","source":"openstreetmap.org","min_zoom":8.0,"shield_text":"8","name:be":"\u0412\u0430\u0440\u043e\u043d\u0430\u045e\u0441\u043a\u0430\u0435 \u043a\u0430\u043b\u044c\u0446\u043e"},"arcs":[[72],[73]]},{"type":"LineString","properties":{"kind":"major_road","network":"ru:regional","sort_rank":381,"kind_detail":"trunk","source":"openstreetmap.org","min_zoom":8.0,"shield_text":"58\u041a","ref":"58\u041a-202"},"arcs":[74]},{"type":"MultiLineString","properties":{"bus_network":null,"int_name":"praspiekt Frunze","sort_rank":380,"kind_detail":"primary","kind":"major_road","source":"openstreetmap.org","min_zoom":8.0,"bus_shield_text":"3","name:be":"\u043f\u0440\u0430\u0441\u043f\u0435\u043a\u0442 \u0424\u0440\u0443\u043d\u0437\u044d","landuse_kind":"urban_area"},"arcs":[[75],[76],[77],[78]]},{"type":"MultiLineString","properties":{"source":"openstreetmap.org","kind":"major_road","int_name":"vulica Voina\u016d-Internacyjanalista\u016d","name:be":"\u0432\u0443\u043b\u0456\u0446\u0430 \u0412\u043e\u0456\u043d\u0430\u045e-\u0406\u043d\u0442\u044d\u0440\u043d\u0430\u0446\u044b\u044f\u043d\u0430\u043b\u0456\u0441\u0442\u0430\u045e","sort_rank":380,"kind_detail":"primary","min_zoom":8.0},"arcs":[[79],[80]]},{"type":"MultiLineString","properties":{"kind":"major_road","network":"by:national","sort_rank":380,"kind_detail":"primary","source":"openstreetmap.org","min_zoom":8.0,"shield_text":"25","ref":"\u042025"},"arcs":[[81],[82]]},{"type":"LineString","properties":{"source":"openstreetmap.org","kind":"ferry","sort_rank":355,"landuse_kind":"urban_area","min_zoom":8.0,"id":96480346},"arcs":[83]},{"type":"MultiLineString","properties":{"kind":"major_road","network":"by:national","sort_rank":380,"kind_detail":"primary","source":"openstreetmap.org","min_zoom":8.0,"landuse_kind":"urban_area","shield_text":"20","ref":"\u042020"},"arcs":[[84],[85]]},{"type":"LineString","properties":{"kind":"major_road","int_name":"vulica Citova","network":"by:national","sort_rank":380,"kind_detail":"primary","source":"openstreetmap.org","min_zoom":8.0,"landuse_kind":"urban_area","shield_text":"20","name:be":"\u0432\u0443\u043b\u0456\u0446\u0430 \u0426\u0456\u0442\u043e\u0432\u0430","ref":"\u042020"},"arcs":[86]},{"type":"LineString","properties":{"bus_network":null,"int_name":"Bie\u0161ankovickaja \u0161a\u0161a","sort_rank":380,"kind_detail":"primary","kind":"major_road","source":"openstreetmap.org","min_zoom":8.0,"bus_shield_text":"11","name:be":"\u0411\u0435\u0448\u0430\u043d\u043a\u043e\u0432\u0456\u0446\u043a\u0430\u044f \u0448\u0430\u0448\u0430","landuse_kind":"urban_area"},"arcs":[87]},{"type":"MultiLineString","properties":{"kind":"major_road","int_name":"Smalienskaja vulica","sort_rank":380,"landuse_kind":"urban_area","source":"openstreetmap.org","min_zoom":8.0,"kind_detail":"primary","name:be":"\u0421\u043c\u0430\u043b\u0435\u043d\u0441\u043a\u0430\u044f \u0432\u0443\u043b\u0456\u0446\u0430"},"arcs":[[88],[89],[90],[91]]},{"type":"LineString","properties":{"bus_network":null,"int_name":"vulica Citova","sort_rank":380,"landuse_kind":"urban_area","kind":"major_road","source":"openstreetmap.org","min_zoom":8.0,"bus_shield_text":"1","kind_detail":"primary","name:be":"\u0432\u0443\u043b\u0456\u0446\u0430 \u0426\u0456\u0442\u043e\u0432\u0430"},"arcs":[92]},{"type":"MultiLineString","properties":{"kind":"major_road","int_name":"vulica Hienierala Bielabarodava","network":"by:national","sort_rank":380,"kind_detail":"primary","min_zoom":8.0,"official_name":"\u0412\u0438\u0442\u0435\u0431\u0441\u043a \u2014 \u0413\u043e\u0440\u043e\u0434\u043e\u043a (\u0434\u043e \u0430\u0432\u0442\u043e\u043c\u043e\u0431\u0438\u043b\u044c\u043d\u043e\u0439 \u0434\u043e\u0440\u043e\u0433\u0438 \u041c-8)","name:de":"uliza Generala Beloborodowa (Allgemeine Beloborodow Stra\u00dfe)","source":"openstreetmap.org","name:fr":"oulitsa guenerala Byeloborodova (rue du g\u00e9n\u00e9ral Byeloborodov)","landuse_kind":"urban_area","shield_text":"115","name:be":"\u0432\u0443\u043b\u0456\u0446\u0430 \u0413\u0435\u043d\u0435\u0440\u0430\u043b\u0430 \u0411\u0435\u043b\u0430\u0431\u0430\u0440\u043e\u0434\u0430\u0432\u0430","ref":"\u0420115"},"arcs":[[93],[94]]},{"type":"MultiLineString","properties":{"sort_rank":380,"kind_detail":"primary","min_zoom":8.0,"kind":"major_road","source":"openstreetmap.org"},"arcs":[[95],[96],[97],[98]]},{"type":"LineString","properties":{"kind":"major_road","int_name":"Bie\u0161ankovickaja \u0161a\u0161a","sort_rank":380,"kind_detail":"primary","name:fr":"Byeshenkovitcheskoe chauss\u00e9e (autoroute de Byechenkovitchi)","name:de":"Beshenkovicheskoe Shosse (Beshenkowichy Autobahn)","source":"openstreetmap.org","min_zoom":8.0,"name:be":"\u0411\u0435\u0448\u0430\u043d\u043a\u043e\u0432\u0456\u0446\u043a\u0430\u044f \u0448\u0430\u0448\u0430","id":352012238},"arcs":[99]},{"type":"LineString","properties":{"kind":"major_road","network":"by:national","sort_rank":380,"kind_detail":"primary","official_name":"\u0412\u0438\u0442\u0435\u0431\u0441\u043a \u2014 \u0421\u0443\u0440\u0430\u0436 \u2014 \u0433\u0440\u0430\u043d\u0438\u0446\u0430 \u0420\u043e\u0441\u0441\u0438\u0439\u0441\u043a\u043e\u0439 \u0424\u0435\u0434\u0435\u0440\u0430\u0446\u0438\u0438 (\u0421\u0442\u0430\u0439\u043a\u0438)","source":"openstreetmap.org","min_zoom":8.0,"shield_text":"112","ref":"\u0420112","id":240438010},"arcs":[100]},{"type":"LineString","properties":{"bus_network":null,"int_name":"Lieninhradskaja vulica","official_name":"\u0412\u0438\u0442\u0435\u0431\u0441\u043a \u2014 \u0413\u043e\u0440\u043e\u0434\u043e\u043a (\u0434\u043e \u0430\u0432\u0442\u043e\u043c\u043e\u0431\u0438\u043b\u044c\u043d\u043e\u0439 \u0434\u043e\u0440\u043e\u0433\u0438 \u041c-8)","min_zoom":8.0,"bus_shield_text":"14","name:be":"\u041b\u0435\u043d\u0456\u043d\u0433\u0440\u0430\u0434\u0441\u043a\u0430\u044f \u0432\u0443\u043b\u0456\u0446\u0430","id":370588505,"kind":"major_road","network":"by:national","sort_rank":380,"kind_detail":"primary","name:de":"Leningradskaya uliza (Leningrad Stra\u00dfe)","source":"openstreetmap.org","name:fr":"Leningradskaya oulitsa (rue de Leningrad)","shield_text":"115","ref":"\u0420115"},"arcs":[101]},{"type":"MultiLineString","properties":{"kind":"major_road","network":"by:national","sort_rank":380,"kind_detail":"primary","source":"openstreetmap.org","min_zoom":8.0,"shield_text":"112","ref":"\u0420112"},"arcs":[[102],[103],[104],[105],[106],[107],[108]]},{"type":"MultiLineString","properties":{"bus_network":null,"int_name":"praspiekt Frunze","sort_rank":380,"kind_detail":"primary","kind":"major_road","source":"openstreetmap.org","min_zoom":8.0,"bus_shield_text":"1","name:be":"\u043f\u0440\u0430\u0441\u043f\u0435\u043a\u0442 \u0424\u0440\u0443\u043d\u0437\u044d","landuse_kind":"urban_area"},"arcs":[[109],[110],[111]]},{"type":"LineString","properties":{"bus_network":null,"int_name":"Kamunisty\u010dnaja vulica","sort_rank":380,"kind_detail":"primary","kind":"major_road","source":"openstreetmap.org","min_zoom":8.0,"bus_shield_text":"1","name:be":"\u041a\u0430\u043c\u0443\u043d\u0456\u0441\u0442\u044b\u0447\u043d\u0430\u044f \u0432\u0443\u043b\u0456\u0446\u0430","landuse_kind":"urban_area"},"arcs":[112]},{"type":"MultiLineString","properties":{"bus_network":null,"int_name":"vulica Haharyna","sort_rank":380,"kind_detail":"primary","min_zoom":8.0,"name:de":"uliza Gagarina (Gagarin-Stra\u00dfe)","source":"openstreetmap.org","name:fr":"oulitsa Gagarina (rue de Gagarine)","bus_shield_text":"26","name:be":"\u0432\u0443\u043b\u0456\u0446\u0430 \u0413\u0430\u0433\u0430\u0440\u044b\u043d\u0430","kind":"major_road"},"arcs":[[113],[114]]},{"type":"MultiLineString","properties":{"kind":"major_road","int_name":"vulica Kasmana\u016dta\u016d","network":"by:national","sort_rank":380,"kind_detail":"primary","official_name":"\u0412\u0438\u0442\u0435\u0431\u0441\u043a \u2014 \u0413\u043e\u0440\u043e\u0434\u043e\u043a (\u0434\u043e \u0430\u0432\u0442\u043e\u043c\u043e\u0431\u0438\u043b\u044c\u043d\u043e\u0439 \u0434\u043e\u0440\u043e\u0433\u0438 \u041c-8)","source":"openstreetmap.org","min_zoom":8.0,"landuse_kind":"urban_area","shield_text":"115","name:be":"\u0432\u0443\u043b\u0456\u0446\u0430 \u041a\u0430\u0441\u043c\u0430\u043d\u0430\u045e\u0442\u0430\u045e","ref":"\u0420115"},"arcs":[[115],[116]]},{"type":"LineString","properties":{"bus_network":null,"int_name":"vulica Hara\u016dca","sort_rank":380,"kind_detail":"primary","kind":"major_road","source":"openstreetmap.org","min_zoom":8.0,"bus_shield_text":"11","name:be":"\u0432\u0443\u043b\u0456\u0446\u0430 \u0413\u0430\u0440\u0430\u045e\u0446\u0430","landuse_kind":"urban_area"},"arcs":[117]},{"type":"LineString","properties":{"kind":"major_road","int_name":"Masko\u016dski praspiekt","sort_rank":380,"kind_detail":"primary","bus_network":null,"source":"openstreetmap.org","min_zoom":8.0,"bus_shield_text":"27","name:be":"\u041c\u0430\u0441\u043a\u043e\u045e\u0441\u043a\u0456 \u043f\u0440\u0430\u0441\u043f\u0435\u043a\u0442","landuse_kind":"urban_area","id":65726977},"arcs":[118]},{"type":"MultiLineString","properties":{"kind":"major_road","network":"by:national","sort_rank":381,"kind_detail":"trunk","source":"openstreetmap.org","min_zoom":8.0,"shield_text":"3","ref":"\u041c3"},"arcs":[[119],[120],[121]]},{"type":"LineString","properties":{"bus_network":null,"int_name":"Masko\u016dski praspiekt","sort_rank":380,"landuse_kind":"urban_area","kind":"major_road","name:de":"Moskovsky Prospect","source":"openstreetmap.org","min_zoom":8.0,"name:fr":"Moskovsky Prospect (avenue de Moscou)","bus_shield_text":"27","kind_detail":"primary","name:be":"\u041c\u0430\u0441\u043a\u043e\u045e\u0441\u043a\u0456 \u043f\u0440\u0430\u0441\u043f\u0435\u043a\u0442","ref":"\u042021"},"arcs":[122]},{"type":"MultiLineString","properties":{"bus_network":null,"int_name":"vulica Ciera\u0161kovaj","sort_rank":380,"kind_detail":"primary","kind":"major_road","source":"openstreetmap.org","min_zoom":8.0,"bus_shield_text":"1","name:be":"\u0432\u0443\u043b\u0456\u0446\u0430 \u0426\u0435\u0440\u0430\u0448\u043a\u043e\u0432\u0430\u0439","landuse_kind":"urban_area"},"arcs":[[123],[124]]},{"type":"LineString","properties":{"kind":"major_road","network":"by:national","sort_rank":380,"kind_detail":"primary","source":"openstreetmap.org","min_zoom":8.0,"landuse_kind":"residential","shield_text":"109","ref":"\u0420109"},"arcs":[125]},{"type":"MultiLineString","properties":{"bus_network":null,"int_name":"Masko\u016dski praspiekt","sort_rank":380,"kind_detail":"primary","min_zoom":8.0,"name:de":"Moskovsky Prospect (Moskau Avenue)","source":"openstreetmap.org","name:fr":"Moskovsky Prospect (avenue de Moscou)","bus_shield_text":"27","name:be":"\u041c\u0430\u0441\u043a\u043e\u045e\u0441\u043a\u0456 \u043f\u0440\u0430\u0441\u043f\u0435\u043a\u0442","landuse_kind":"urban_area","ref":"\u042021","kind":"major_road"},"arcs":[[126],[127],[128]]},{"type":"MultiLineString","properties":{"kind":"major_road","int_name":"Masko\u016dski praspiekt","sort_rank":380,"landuse_kind":"urban_area","min_zoom":8.0,"name:de":"Moskovsky Prospect (Moskau Avenue)","source":"openstreetmap.org","name:fr":"Moskovsky Prospect (avenue de Moscou)","kind_detail":"primary","name:be":"\u041c\u0430\u0441\u043a\u043e\u045e\u0441\u043a\u0456 \u043f\u0440\u0430\u0441\u043f\u0435\u043a\u0442"},"arcs":[[129],[130],[131],[132]]},{"type":"LineString","properties":{"kind":"major_road","network":"by:national","sort_rank":380,"kind_detail":"primary","source":"openstreetmap.org","min_zoom":8.0,"landuse_kind":"nature_reserve","shield_text":"112","ref":"\u0420112","id":240438007},"arcs":[133]},{"type":"MultiLineString","properties":{"bus_network":null,"network":"by:national","sort_rank":380,"kind_detail":"primary","kind":"major_road","source":"openstreetmap.org","min_zoom":8.0,"bus_shield_text":"1","shield_text":"115","landuse_kind":"urban_area","ref":"\u0420115"},"arcs":[[134],[135]]},{"type":"MultiLineString","properties":{"bus_network":null,"int_name":"vulica Kirava","sort_rank":380,"kind_detail":"primary","kind":"major_road","source":"openstreetmap.org","min_zoom":8.0,"bus_shield_text":"1","name:be":"\u0432\u0443\u043b\u0456\u0446\u0430 \u041a\u0456\u0440\u0430\u0432\u0430","landuse_kind":"urban_area"},"arcs":[[136],[137],[138],[139]]},{"type":"LineString","properties":{"kind":"major_road","int_name":"Savieckaja vulica","network":"by:national","sort_rank":380,"kind_detail":"primary","official_name":"\u0412\u0438\u0442\u0435\u0431\u0441\u043a \u2014 \u0421\u0443\u0440\u0430\u0436 \u2014 \u0433\u0440\u0430\u043d\u0438\u0446\u0430 \u0420\u043e\u0441\u0441\u0438\u0439\u0441\u043a\u043e\u0439 \u0424\u0435\u0434\u0435\u0440\u0430\u0446\u0438\u0438 (\u0421\u0442\u0430\u0439\u043a\u0438)","source":"openstreetmap.org","min_zoom":8.0,"shield_text":"112","name:be":"\u0421\u0430\u0432\u0435\u0446\u043a\u0430\u044f \u0432\u0443\u043b\u0456\u0446\u0430","ref":"\u0420112"},"arcs":[140]},{"type":"LineString","properties":{"kind":"major_road","network":"by:national","sort_rank":381,"kind_detail":"trunk","source":"openstreetmap.org","min_zoom":8.0,"shield_text":"21","name:be":"\u0412\u0430\u0440\u043e\u043d\u0430\u045e\u0441\u043a\u0430\u0435 \u043a\u0430\u043b\u044c\u0446\u043e","id":30156076},"arcs":[141]},{"type":"LineString","properties":{"kind":"major_road","int_name":"\u0160asejnaja vulica","network":"by:national","sort_rank":381,"kind_detail":"trunk","source":"openstreetmap.org","min_zoom":8.0,"shield_text":"21","name:be":"\u0428\u0430\u0441\u044d\u0439\u043d\u0430\u044f \u0432\u0443\u043b\u0456\u0446\u0430","ref":"\u042021"},"arcs":[142]},{"type":"LineString","properties":{"kind":"major_road","int_name":"Bie\u0161ankovickaja \u0161a\u0161a","sort_rank":380,"kind_detail":"primary","source":"openstreetmap.org","min_zoom":8.0,"name:be":"\u0411\u0435\u0448\u0430\u043d\u043a\u043e\u0432\u0456\u0446\u043a\u0430\u044f \u0448\u0430\u0448\u0430","id":70368573},"arcs":[143]},{"type":"LineString","properties":{"kind":"major_road","network":"by:national","sort_rank":380,"kind_detail":"primary","official_name":"\u0413\u043e\u0440\u043e\u0434\u043e\u043a \u2014 \u0423\u043b\u043b\u0430 \u2014 \u041a\u0430\u043c\u0435\u043d\u044c","source":"openstreetmap.org","min_zoom":8.0,"shield_text":"114","ref":"\u0420114"},"arcs":[144]},{"type":"MultiLineString","properties":{"bus_network":null,"int_name":"praspiekt \u010carniacho\u016dskaha","sort_rank":380,"kind_detail":"primary","kind":"major_road","source":"openstreetmap.org","min_zoom":8.0,"bus_shield_text":"2","name:be":"\u043f\u0440\u0430\u0441\u043f\u0435\u043a\u0442 \u0427\u0430\u0440\u043d\u044f\u0445\u043e\u045e\u0441\u043a\u0430\u0433\u0430","landuse_kind":"urban_area"},"arcs":[[145],[146]]},{"type":"LineString","properties":{"kind":"major_road","int_name":"vulica Voina\u016d-Internacyjanalista\u016d","sort_rank":380,"kind_detail":"primary","bus_network":null,"source":"openstreetmap.org","min_zoom":8.0,"bus_shield_text":"11","name:be":"\u0432\u0443\u043b\u0456\u0446\u0430 \u0412\u043e\u0456\u043d\u0430\u045e-\u0406\u043d\u0442\u044d\u0440\u043d\u0430\u0446\u044b\u044f\u043d\u0430\u043b\u0456\u0441\u0442\u0430\u045e","landuse_kind":"urban_area","id":59618501},"arcs":[147]},{"type":"LineString","properties":{"kind":"major_road","network":"ru:regional","sort_rank":380,"kind_detail":"primary","source":"openstreetmap.org","min_zoom":8.0,"landuse_kind":"nature_reserve","shield_text":"66\u0410","ref":"66\u0410-1","id":335529493},"arcs":[148]},{"type":"LineString","properties":{"bus_network":null,"int_name":"Bie\u0161ankovickaja \u0161a\u0161a","sort_rank":380,"kind_detail":"primary","name:fr":"Byeshenkovitcheskoe chauss\u00e9e (autoroute de Byechenkovitchi)","name:de":"Beshenkovicheskoe Shosse (Beshenkowichy Autobahn)","source":"openstreetmap.org","min_zoom":8.0,"bus_shield_text":"11","name:be":"\u0411\u0435\u0448\u0430\u043d\u043a\u043e\u0432\u0456\u0446\u043a\u0430\u044f \u0448\u0430\u0448\u0430","landuse_kind":"urban_area","kind":"major_road"},"arcs":[149]},{"type":"LineString","properties":{"kind":"major_road","int_name":"vulica Kirava","sort_rank":380,"kind_detail":"primary","source":"openstreetmap.org","min_zoom":8.0,"landuse_kind":"urban_area","name:be":"\u0432\u0443\u043b\u0456\u0446\u0430 \u041a\u0456\u0440\u0430\u0432\u0430","id":487195462},"arcs":[150]},{"type":"LineString","properties":{"kind":"major_road","int_name":"Masko\u016dski praspiekt","sort_rank":380,"kind_detail":"primary","source":"openstreetmap.org","min_zoom":8.0,"name:be":"\u041c\u0430\u0441\u043a\u043e\u045e\u0441\u043a\u0456 \u043f\u0440\u0430\u0441\u043f\u0435\u043a\u0442","ref":"\u042021"},"arcs":[151]},{"type":"MultiLineString","properties":{"kind":"major_road","network":"by:national","sort_rank":380,"kind_detail":"primary","source":"openstreetmap.org","min_zoom":8.0,"shield_text":"20","ref":"\u042020"},"arcs":[[152],[153],[154],[155],[156],[157],[158],[159],[160],[161],[162],[163]]},{"type":"LineString","properties":{"kind":"major_road","int_name":"vulica Kasmana\u016dta\u016d","network":"by:national","sort_rank":380,"kind_detail":"primary","min_zoom":8.0,"official_name":"\u0412\u0438\u0442\u0435\u0431\u0441\u043a \u2014 \u0413\u043e\u0440\u043e\u0434\u043e\u043a (\u0434\u043e \u0430\u0432\u0442\u043e\u043c\u043e\u0431\u0438\u043b\u044c\u043d\u043e\u0439 \u0434\u043e\u0440\u043e\u0433\u0438 \u041c-8)","name:de":"uliza Kosmonawtof (Kosmonauten-Stra\u00dfe)","source":"openstreetmap.org","name:fr":"oulitsa Cosmonautov (rue des Cosmonautes)","landuse_kind":"urban_area","shield_text":"115","name:be":"\u0432\u0443\u043b\u0456\u0446\u0430 \u041a\u0430\u0441\u043c\u0430\u043d\u0430\u045e\u0442\u0430\u045e","ref":"\u0420115"},"arcs":[164]},{"type":"LineString","properties":{"kind":"major_road","int_name":"vulica Karla Marksa","network":"by:national","sort_rank":380,"kind_detail":"primary","official_name":"\u0412\u0438\u0442\u0435\u0431\u0441\u043a \u2014 \u0413\u043e\u0440\u043e\u0434\u043e\u043a (\u0434\u043e \u0430\u0432\u0442\u043e\u043c\u043e\u0431\u0438\u043b\u044c\u043d\u043e\u0439 \u0434\u043e\u0440\u043e\u0433\u0438 \u041c-8)","source":"openstreetmap.org","min_zoom":8.0,"shield_text":"115","name:be":"\u0432\u0443\u043b\u0456\u0446\u0430 \u041a\u0430\u0440\u043b\u0430 \u041c\u0430\u0440\u043a\u0441\u0430","ref":"\u0420115"},"arcs":[165]},{"type":"LineString","properties":{"kind":"major_road","int_name":"praspiekt Hienierala Liudnikava","sort_rank":380,"kind_detail":"primary","source":"openstreetmap.org","min_zoom":8.0,"landuse_kind":"urban_area","name:be":"\u043f\u0440\u0430\u0441\u043f\u0435\u043a\u0442 \u0413\u0435\u043d\u0435\u0440\u0430\u043b\u0430 \u041b\u044e\u0434\u043d\u0456\u043a\u0430\u0432\u0430","id":28255568},"arcs":[166]},{"type":"MultiLineString","properties":{"bus_network":null,"int_name":"vulica Ciera\u0161kovaj","sort_rank":380,"kind_detail":"primary","min_zoom":8.0,"name:de":"uliza Tereschkowoy (Tereschkowa Stra\u00dfe)","source":"openstreetmap.org","name:fr":"oulitsa Terechkovoy (rue de Terechkova)","bus_shield_text":"1","name:be":"\u0432\u0443\u043b\u0456\u0446\u0430 \u0426\u0435\u0440\u0430\u0448\u043a\u043e\u0432\u0430\u0439","landuse_kind":"urban_area","kind":"major_road"},"arcs":[[167],[168]]},{"type":"LineString","properties":{"source":"openstreetmap.org","kind":"major_road","landuse_kind":"residential","sort_rank":381,"kind_detail":"trunk","ref":"58\u041a-202","min_zoom":8.0},"arcs":[169]},{"type":"LineString","properties":{"kind":"major_road","int_name":"vulica Uryckaha","sort_rank":380,"kind_detail":"primary","bus_network":null,"source":"openstreetmap.org","min_zoom":8.0,"bus_shield_text":"1","name:be":"\u0432\u0443\u043b\u0456\u0446\u0430 \u0423\u0440\u044b\u0446\u043a\u0430\u0433\u0430","landuse_kind":"urban_area","id":40699062},"arcs":[170]},{"type":"LineString","properties":{"sort_rank":381,"source":"openstreetmap.org","min_zoom":8.0,"kind":"major_road","kind_detail":"trunk"},"arcs":[171]},{"type":"LineString","properties":{"kind":"major_road","int_name":"vulica Piatrusia Bro\u016dki","sort_rank":380,"kind_detail":"primary","bus_network":null,"source":"openstreetmap.org","min_zoom":8.0,"bus_shield_text":"9","name:be":"\u0432\u0443\u043b\u0456\u0446\u0430 \u041f\u044f\u0442\u0440\u0443\u0441\u044f \u0411\u0440\u043e\u045e\u043a\u0456","landuse_kind":"urban_area","id":130146027},"arcs":[172]},{"type":"LineString","properties":{"bus_network":null,"int_name":"vulica Piatrusia Bro\u016dki","sort_rank":380,"kind_detail":"primary","name:fr":"oulitsa Pyatroussya Browki (rue de Pyatrous Browka)","name:de":"uliza Pyatrusya Browki (Pyatrus Browka Stra\u00dfe)","source":"openstreetmap.org","min_zoom":8.0,"bus_shield_text":"2","name:be":"\u0432\u0443\u043b\u0456\u0446\u0430 \u041f\u044f\u0442\u0440\u0443\u0441\u044f \u0411\u0440\u043e\u045e\u043a\u0456","landuse_kind":"urban_area","kind":"major_road"},"arcs":[173]},{"type":"MultiLineString","properties":{"kind":"major_road","network":"by:national","sort_rank":381,"kind_detail":"trunk","source":"openstreetmap.org","min_zoom":8.0,"shield_text":"8","ref":"\u041c8"},"arcs":[[174],[175],[176],[177],[178],[179],[180],[181],[182],[183],[184],[185],[186],[187]]},{"type":"LineString","properties":{"kind":"major_road","int_name":"vulica Hara\u016dca","sort_rank":380,"kind_detail":"primary","source":"openstreetmap.org","min_zoom":8.0,"landuse_kind":"urban_area","name:be":"\u0432\u0443\u043b\u0456\u0446\u0430 \u0413\u0430\u0440\u0430\u045e\u0446\u0430"},"arcs":[188]},{"type":"LineString","properties":{"kind":"major_road","int_name":"5-ja Liasnaja vulica","network":"by:national","sort_rank":381,"kind_detail":"trunk","source":"openstreetmap.org","min_zoom":8.0,"shield_text":"8","name:be":"5-\u044f \u041b\u044f\u0441\u043d\u0430\u044f \u0432\u0443\u043b\u0456\u0446\u0430","ref":"\u041c8"},"arcs":[189]},{"type":"MultiLineString","properties":{"bus_network":null,"int_name":"vulica Lienina","sort_rank":380,"kind_detail":"primary","kind":"major_road","name:de":"Uliza Lenina (Lenin-Stra\u00dfe)","source":"openstreetmap.org","min_zoom":8.0,"bus_shield_text":"1","name:be":"\u0432\u0443\u043b\u0456\u0446\u0430 \u041b\u0435\u043d\u0456\u043d\u0430","landuse_kind":"urban_area"},"arcs":[[190],[191]]},{"type":"MultiLineString","properties":{"kind":"major_road","int_name":"praspiekt Pieramohi","sort_rank":380,"landuse_kind":"urban_area","source":"openstreetmap.org","min_zoom":8.0,"kind_detail":"primary","name:be":"\u043f\u0440\u0430\u0441\u043f\u0435\u043a\u0442 \u041f\u0435\u0440\u0430\u043c\u043e\u0433\u0456"},"arcs":[[192],[193],[194]]},{"type":"MultiLineString","properties":{"kind":"major_road","network":"by:national","sort_rank":381,"kind_detail":"trunk","source":"openstreetmap.org","min_zoom":8.0,"landuse_kind":"residential","shield_text":"21","ref":"\u042021"},"arcs":[[195],[196]]},{"type":"LineString","properties":{"kind":"major_road","network":"by:national","sort_rank":381,"kind_detail":"trunk","bus_network":null,"source":"openstreetmap.org","min_zoom":8.0,"bus_shield_text":"26","shield_text":"112","id":232546876},"arcs":[197]},{"type":"LineString","properties":{"kind":"major_road","int_name":"Lieninhradskaja vulica","network":"by:national","sort_rank":380,"kind_detail":"primary","min_zoom":8.0,"official_name":"\u0412\u0438\u0442\u0435\u0431\u0441\u043a \u2014 \u0413\u043e\u0440\u043e\u0434\u043e\u043a (\u0434\u043e \u0430\u0432\u0442\u043e\u043c\u043e\u0431\u0438\u043b\u044c\u043d\u043e\u0439 \u0434\u043e\u0440\u043e\u0433\u0438 \u041c-8)","name:de":"Leningradskaya uliza (Leningrad Stra\u00dfe)","source":"openstreetmap.org","name:fr":"Leningradskaya oulitsa (rue de Leningrad)","landuse_kind":"urban_area","shield_text":"115","name:be":"\u041b\u0435\u043d\u0456\u043d\u0433\u0440\u0430\u0434\u0441\u043a\u0430\u044f \u0432\u0443\u043b\u0456\u0446\u0430","ref":"\u0420115","id":258956649},"arcs":[198]},{"type":"MultiLineString","properties":{"bus_network":null,"int_name":"Lieninhradskaja vulica","network":"by:national","sort_rank":380,"kind_detail":"primary","kind":"major_road","official_name":"\u0412\u0438\u0442\u0435\u0431\u0441\u043a \u2014 \u0413\u043e\u0440\u043e\u0434\u043e\u043a (\u0434\u043e \u0430\u0432\u0442\u043e\u043c\u043e\u0431\u0438\u043b\u044c\u043d\u043e\u0439 \u0434\u043e\u0440\u043e\u0433\u0438 \u041c-8)","source":"openstreetmap.org","min_zoom":8.0,"bus_shield_text":"7","shield_text":"115","name:be":"\u041b\u0435\u043d\u0456\u043d\u0433\u0440\u0430\u0434\u0441\u043a\u0430\u044f \u0432\u0443\u043b\u0456\u0446\u0430","landuse_kind":"urban_area","ref":"\u0420115"},"arcs":[[199],[200],[201]]},{"type":"MultiLineString","properties":{"kind":"major_road","network":"e-road","sort_rank":381,"kind_detail":"trunk","source":"openstreetmap.org","min_zoom":8.0,"shield_text":"95","ref":"\u041c8"},"arcs":[[202],[203],[204]]},{"type":"LineString","properties":{"kind":"major_road","int_name":"Jubiliejnaja vulica","network":"by:national","sort_rank":380,"landuse_kind":"residential","source":"openstreetmap.org","min_zoom":8.0,"kind_detail":"primary","shield_text":"20","name:be":"\u042e\u0431\u0456\u043b\u0435\u0439\u043d\u0430\u044f \u0432\u0443\u043b\u0456\u0446\u0430","ref":"\u042020"},"arcs":[205]},{"type":"MultiLineString","properties":{"kind":"major_road","int_name":"Jubiliejnaja vulica","network":"by:national","sort_rank":380,"kind_detail":"primary","source":"openstreetmap.org","min_zoom":8.0,"shield_text":"20","name:be":"\u042e\u0431\u0456\u043b\u0435\u0439\u043d\u0430\u044f \u0432\u0443\u043b\u0456\u0446\u0430","ref":"\u042020"},"arcs":[[206],[207]]},{"type":"MultiLineString","properties":{"bus_network":null,"int_name":"praspiekt Hienierala Liudnikava","sort_rank":380,"kind_detail":"primary","kind":"major_road","source":"openstreetmap.org","min_zoom":8.0,"bus_shield_text":"7","name:be":"\u043f\u0440\u0430\u0441\u043f\u0435\u043a\u0442 \u0413\u0435\u043d\u0435\u0440\u0430\u043b\u0430 \u041b\u044e\u0434\u043d\u0456\u043a\u0430\u0432\u0430","landuse_kind":"urban_area"},"arcs":[[208],[209]]},{"type":"MultiLineString","properties":{"kind":"major_road","network":"by:national","sort_rank":380,"kind_detail":"primary","source":"openstreetmap.org","min_zoom":8.0,"shield_text":"21","ref":"\u042021"},"arcs":[[210],[211]]},{"type":"MultiLineString","properties":{"bus_network":null,"int_name":"vulica Ciera\u0161kovaj","sort_rank":380,"kind_detail":"primary","kind":"major_road","source":"openstreetmap.org","min_zoom":8.0,"bus_shield_text":"2","name:be":"\u0432\u0443\u043b\u0456\u0446\u0430 \u0426\u0435\u0440\u0430\u0448\u043a\u043e\u0432\u0430\u0439","landuse_kind":"urban_area"},"arcs":[[212],[213]]},{"type":"LineString","properties":{"kind":"major_road","int_name":"vulica Uryckaha","sort_rank":380,"kind_detail":"primary","bus_network":null,"source":"openstreetmap.org","min_zoom":8.0,"bus_shield_text":"27","name:be":"\u0432\u0443\u043b\u0456\u0446\u0430 \u0423\u0440\u044b\u0446\u043a\u0430\u0433\u0430","landuse_kind":"urban_area","id":67219190},"arcs":[214]},{"type":"LineString","properties":{"kind":"major_road","network":"e-road","sort_rank":381,"kind_detail":"trunk","source":"openstreetmap.org","min_zoom":8.0,"shield_text":"95","id":58704997},"arcs":[215]},{"type":"LineString","properties":{"kind":"major_road","int_name":"Viciebskaja vulica","network":"by:national","sort_rank":380,"kind_detail":"primary","official_name":"\u0412\u0438\u0442\u0435\u0431\u0441\u043a \u2014 \u0421\u0443\u0440\u0430\u0436 \u2014 \u0433\u0440\u0430\u043d\u0438\u0446\u0430 \u0420\u043e\u0441\u0441\u0438\u0439\u0441\u043a\u043e\u0439 \u0424\u0435\u0434\u0435\u0440\u0430\u0446\u0438\u0438 (\u0421\u0442\u0430\u0439\u043a\u0438)","source":"openstreetmap.org","min_zoom":8.0,"shield_text":"112","name:be":"\u0412\u0456\u0446\u0435\u0431\u0441\u043a\u0430\u044f \u0432\u0443\u043b\u0456\u0446\u0430","ref":"\u0420112"},"arcs":[216]},{"type":"LineString","properties":{"kind":"major_road","int_name":"Nievie\u013askaja \u0161a\u0161a","network":"by:national","sort_rank":380,"kind_detail":"primary","official_name":"\u0412\u0438\u0442\u0435\u0431\u0441\u043a \u2014 \u0413\u043e\u0440\u043e\u0434\u043e\u043a (\u0434\u043e \u0430\u0432\u0442\u043e\u043c\u043e\u0431\u0438\u043b\u044c\u043d\u043e\u0439 \u0434\u043e\u0440\u043e\u0433\u0438 \u041c-8)","source":"openstreetmap.org","min_zoom":8.0,"shield_text":"115","name:be":"\u041d\u0435\u0432\u0435\u043b\u044c\u0441\u043a\u0430\u044f \u0448\u0430\u0448\u0430","ref":"\u0420115"},"arcs":[217]},{"type":"LineString","properties":{"kind":"major_road","int_name":"Siennienskaja vulica","network":"by:national","sort_rank":380,"kind_detail":"primary","source":"openstreetmap.org","min_zoom":8.0,"shield_text":"25","name:be":"\u0421\u0435\u043d\u043d\u0435\u043d\u0441\u043a\u0430\u044f \u0432\u0443\u043b\u0456\u0446\u0430","ref":"\u042025","id":198707704},"arcs":[218]},{"type":"LineString","properties":{"bus_network":null,"int_name":"Masko\u016dski praspiekt","sort_rank":380,"kind_detail":"primary","kind":"major_road","source":"openstreetmap.org","min_zoom":8.0,"bus_shield_text":"27","name:be":"\u041c\u0430\u0441\u043a\u043e\u045e\u0441\u043a\u0456 \u043f\u0440\u0430\u0441\u043f\u0435\u043a\u0442","ref":"\u042021"},"arcs":[219]},{"type":"MultiLineString","properties":{"bus_network":null,"int_name":"praspiekt Buda\u016dniko\u016d","sort_rank":380,"kind_detail":"primary","kind":"major_road","source":"openstreetmap.org","min_zoom":8.0,"bus_shield_text":"2","name:be":"\u043f\u0440\u0430\u0441\u043f\u0435\u043a\u0442 \u0411\u0443\u0434\u0430\u045e\u043d\u0456\u043a\u043e\u045e","landuse_kind":"urban_area"},"arcs":[[220],[221],[222]]},{"type":"MultiLineString","properties":{"bus_network":null,"int_name":"vulica Lienina","sort_rank":380,"kind_detail":"primary","name:fr":"oulitsa L\u00e9nina (rue L\u00e9nine)","name:de":"Uliza Lenina (Lenin-Stra\u00dfe)","source":"openstreetmap.org","min_zoom":8.0,"bus_shield_text":"1","name:be":"\u0432\u0443\u043b\u0456\u0446\u0430 \u041b\u0435\u043d\u0456\u043d\u0430","landuse_kind":"urban_area","kind":"major_road"},"arcs":[[223],[224],[225]]},{"type":"LineString","properties":{"kind":"major_road","int_name":"Masko\u016dski praspiekt","network":"by:national","sort_rank":380,"kind_detail":"primary","name:fr":"Moskovsky Prospect (avenue de Moscou)","name:de":"Moskovsky Prospect (Moskau Avenue)","source":"openstreetmap.org","min_zoom":8.0,"shield_text":"21","name:be":"\u041c\u0430\u0441\u043a\u043e\u045e\u0441\u043a\u0456 \u043f\u0440\u0430\u0441\u043f\u0435\u043a\u0442","ref":"\u042021","id":55121085},"arcs":[226]},{"type":"LineString","properties":{"source":"openstreetmap.org","kind":"major_road","kind_detail":"trunk","sort_rank":381,"name:be":"\u0412\u0430\u0440\u043e\u043d\u0430\u045e\u0441\u043a\u0430\u0435 \u043a\u0430\u043b\u044c\u0446\u043e","min_zoom":8.0,"id":232546870},"arcs":[227]},{"type":"LineString","properties":{"kind":"major_road","int_name":"Masko\u016dski praspiekt","sort_rank":380,"kind_detail":"primary","name:fr":"Moskovsky Prospect (avenue de Moscou)","name:de":"Moskovsky Prospect (Moskau Avenue)","source":"openstreetmap.org","min_zoom":8.0,"name:be":"\u041c\u0430\u0441\u043a\u043e\u045e\u0441\u043a\u0456 \u043f\u0440\u0430\u0441\u043f\u0435\u043a\u0442","id":327413959},"arcs":[228]},{"type":"MultiLineString","properties":{"bus_network":null,"int_name":"vulica Kirava","sort_rank":380,"kind_detail":"primary","name:fr":"oulitsa Kirova (rue de Kirov)","name:de":"uliza Kirowa (Kirow-Stra\u00dfe)","source":"openstreetmap.org","min_zoom":8.0,"bus_shield_text":"1","name:be":"\u0432\u0443\u043b\u0456\u0446\u0430 \u041a\u0456\u0440\u0430\u0432\u0430","landuse_kind":"urban_area","kind":"major_road"},"arcs":[[229],[230]]},{"type":"LineString","properties":{"kind":"major_road","int_name":"Masko\u016dski praspiekt","sort_rank":380,"kind_detail":"primary","min_zoom":8.0,"name:de":"Moskovsky Prospect","source":"openstreetmap.org","name:fr":"Moskovsky Prospect","landuse_kind":"urban_area","name:be":"\u041c\u0430\u0441\u043a\u043e\u045e\u0441\u043a\u0456 \u043f\u0440\u0430\u0441\u043f\u0435\u043a\u0442","id":231134081},"arcs":[231]},{"type":"LineString","properties":{"kind":"major_road","int_name":"vulica Haharyna","network":"by:national","sort_rank":380,"kind_detail":"primary","official_name":"\u0413\u043e\u0440\u043e\u0434\u043e\u043a \u2014 \u0423\u043b\u043b\u0430 \u2014 \u041a\u0430\u043c\u0435\u043d\u044c","source":"openstreetmap.org","min_zoom":8.0,"shield_text":"114","name:be":"\u0432\u0443\u043b\u0456\u0446\u0430 \u0413\u0430\u0433\u0430\u0440\u044b\u043d\u0430","ref":"\u0420114","id":31782733},"arcs":[232]},{"type":"MultiLineString","properties":{"bus_network":null,"int_name":"vulica Voina\u016d-Internacyjanalista\u016d","sort_rank":380,"kind_detail":"primary","name:fr":"oulitsa Voynov-Internationalistov (rue des Guerriers internationalistes)","name:de":"uliza Woynow-Internazionalistow (Krieger-Internationalisten Stra\u00dfe)","source":"openstreetmap.org","min_zoom":8.0,"bus_shield_text":"6","name:be":"\u0432\u0443\u043b\u0456\u0446\u0430 \u0412\u043e\u0456\u043d\u0430\u045e-\u0406\u043d\u0442\u044d\u0440\u043d\u0430\u0446\u044b\u044f\u043d\u0430\u043b\u0456\u0441\u0442\u0430\u045e","landuse_kind":"urban_area","kind":"major_road"},"arcs":[[233],[234],[235],[236]]},{"type":"LineString","properties":{"bus_network":null,"int_name":"vulica Piatrusia Bro\u016dki","sort_rank":380,"kind_detail":"primary","kind":"major_road","source":"openstreetmap.org","min_zoom":8.0,"bus_shield_text":"2","name:be":"\u0432\u0443\u043b\u0456\u0446\u0430 \u041f\u044f\u0442\u0440\u0443\u0441\u044f \u0411\u0440\u043e\u045e\u043a\u0456","landuse_kind":"urban_area"},"arcs":[237]},{"type":"LineString","properties":{"bus_network":null,"int_name":"Masko\u016dski praspiekt","sort_rank":380,"kind_detail":"primary","min_zoom":8.0,"name:de":"Moskovsky Prospect (Moskau Avenue)","source":"openstreetmap.org","name:fr":"Moskovsky Prospect (avenue de Moscou)","bus_shield_text":"27","name:be":"\u041c\u0430\u0441\u043a\u043e\u045e\u0441\u043a\u0456 \u043f\u0440\u0430\u0441\u043f\u0435\u043a\u0442","ref":"\u042021","kind":"major_road"},"arcs":[238]},{"type":"LineString","properties":{"kind":"major_road","network":"ru:regional","sort_rank":381,"kind_detail":"trunk","source":"openstreetmap.org","min_zoom":8.0,"landuse_kind":"residential","shield_text":"58\u041a","ref":"58\u041a-202"},"arcs":[239]},{"type":"LineString","properties":{"kind":"major_road","int_name":"vulica Ciera\u0161kovaj","sort_rank":380,"kind_detail":"primary","bus_network":null,"source":"openstreetmap.org","min_zoom":8.0,"bus_shield_text":"4","name:be":"\u0432\u0443\u043b\u0456\u0446\u0430 \u0426\u0435\u0440\u0430\u0448\u043a\u043e\u0432\u0430\u0439","landuse_kind":"urban_area","id":66532561},"arcs":[240]},{"type":"LineString","properties":{"kind":"major_road","int_name":"vulica Lienina","network":"by:national","sort_rank":380,"kind_detail":"primary","official_name":"\u041b\u0438\u043e\u0437\u043d\u043e \u2014 \u041e\u0440\u0435\u0445\u043e\u0432\u0441\u043a (\u0434\u043e \u0430\u0432\u0442\u043e\u043c\u043e\u0431\u0438\u043b\u044c\u043d\u043e\u0439 \u0434\u043e\u0440\u043e\u0433\u0438 \u041c-8)","source":"openstreetmap.org","min_zoom":8.0,"landuse_kind":"residential","shield_text":"109","name:be":"\u0432\u0443\u043b\u0456\u0446\u0430 \u041b\u0435\u043d\u0456\u043d\u0430","ref":"\u0420109"},"arcs":[241]},{"type":"LineString","properties":{"kind":"major_road","int_name":"Masko\u016dski praspiekt","sort_rank":380,"kind_detail":"primary","bus_network":null,"name:de":"Moskovsky Prospect (Moskau Avenue)","source":"openstreetmap.org","name:fr":"Moskovsky Prospect (avenue de Moscou)","bus_shield_text":"27","name:be":"\u041c\u0430\u0441\u043a\u043e\u045e\u0441\u043a\u0456 \u043f\u0440\u0430\u0441\u043f\u0435\u043a\u0442","min_zoom":8.0,"id":381499912},"arcs":[242]},{"type":"LineString","properties":{"bus_network":null,"int_name":"vulica Lienina","sort_rank":380,"kind_detail":"primary","name:fr":"oulitsa L\u00e9nina (rue L\u00e9nine)","name:de":"Uliza Lenina (Lenin-Stra\u00dfe)","source":"openstreetmap.org","min_zoom":8.0,"bus_shield_text":"2","name:be":"\u0432\u0443\u043b\u0456\u0446\u0430 \u041b\u0435\u043d\u0456\u043d\u0430","landuse_kind":"urban_area","kind":"major_road"},"arcs":[243]},{"type":"LineString","properties":{"bus_network":null,"int_name":"praspiekt Buda\u016dniko\u016d","sort_rank":380,"kind_detail":"primary","kind":"major_road","source":"openstreetmap.org","min_zoom":8.0,"bus_shield_text":"9","name:be":"\u043f\u0440\u0430\u0441\u043f\u0435\u043a\u0442 \u0411\u0443\u0434\u0430\u045e\u043d\u0456\u043a\u043e\u045e","landuse_kind":"urban_area"},"arcs":[244]},{"type":"LineString","properties":{"bus_network":null,"int_name":"praspiekt \u010carniacho\u016dskaha","sort_rank":380,"kind_detail":"primary","min_zoom":8.0,"name:de":"Prospect Tschernjachowskogo (Avenue Tschernjachowski)","source":"openstreetmap.org","name:fr":"Prospect Tcherniakhovskogo (Avenue de Tcherniakhovski)","bus_shield_text":"2","name:be":"\u043f\u0440\u0430\u0441\u043f\u0435\u043a\u0442 \u0427\u0430\u0440\u043d\u044f\u0445\u043e\u045e\u0441\u043a\u0430\u0433\u0430","landuse_kind":"urban_area","kind":"major_road"},"arcs":[245]},{"type":"LineString","properties":{"kind":"major_road","network":"by:national","sort_rank":380,"kind_detail":"primary","official_name":"\u0412\u0438\u0442\u0435\u0431\u0441\u043a \u2014 \u0421\u0443\u0440\u0430\u0436 \u2014 \u0433\u0440\u0430\u043d\u0438\u0446\u0430 \u0420\u043e\u0441\u0441\u0438\u0439\u0441\u043a\u043e\u0439 \u0424\u0435\u0434\u0435\u0440\u0430\u0446\u0438\u0438 (\u0421\u0442\u0430\u0439\u043a\u0438)","source":"openstreetmap.org","min_zoom":8.0,"shield_text":"112","name:be":"\u0421\u0443\u0440\u0430\u0436\u0441\u043a\u0430\u044f \u0432\u0443\u043b\u0456\u0446\u0430","ref":"\u0420112","id":380221718},"arcs":[246]},{"type":"LineString","properties":{"kind":"major_road","int_name":"Masko\u016dski praspiekt","network":"by:national","sort_rank":380,"kind_detail":"primary","source":"openstreetmap.org","min_zoom":8.0,"shield_text":"21","name:be":"\u041c\u0430\u0441\u043a\u043e\u045e\u0441\u043a\u0456 \u043f\u0440\u0430\u0441\u043f\u0435\u043a\u0442","ref":"\u042021","id":158074141},"arcs":[247]},{"type":"LineString","properties":{"kind":"major_road","network":"by:national","sort_rank":381,"kind_detail":"trunk","source":"openstreetmap.org","min_zoom":8.0,"shield_text":"21","name:be":"\u041b\u0435\u043d\u0456\u043d\u0441\u043a\u0430\u044f \u0432\u0443\u043b\u0456\u0446\u0430","ref":"\u042021","id":163686423},"arcs":[248]},{"type":"LineString","properties":{"kind":"major_road","int_name":"vul. Hryhorjeva","network":"by:national","sort_rank":380,"kind_detail":"primary","source":"openstreetmap.org","min_zoom":8.0,"shield_text":"87","name:be":"\u0432\u0443\u043b\u0456\u0446\u0430 \u0413\u0440\u044b\u0433\u043e\u0440\u2019\u0435\u0432\u0430","ref":"\u042087","id":182542853},"arcs":[249]},{"type":"LineString","properties":{"bus_network":null,"int_name":"vulica Kasmana\u016dta\u016d","network":"by:national","sort_rank":380,"kind_detail":"primary","kind":"major_road","official_name":"\u0412\u0438\u0442\u0435\u0431\u0441\u043a \u2014 \u0413\u043e\u0440\u043e\u0434\u043e\u043a (\u0434\u043e \u0430\u0432\u0442\u043e\u043c\u043e\u0431\u0438\u043b\u044c\u043d\u043e\u0439 \u0434\u043e\u0440\u043e\u0433\u0438 \u041c-8)","source":"openstreetmap.org","min_zoom":8.0,"bus_shield_text":"1","shield_text":"115","name:be":"\u0432\u0443\u043b\u0456\u0446\u0430 \u041a\u0430\u0441\u043c\u0430\u043d\u0430\u045e\u0442\u0430\u045e","landuse_kind":"urban_area","ref":"\u0420115"},"arcs":[250]},{"type":"LineString","properties":{"kind":"major_road","int_name":"praspiekt Buda\u016dniko\u016d","sort_rank":380,"kind_detail":"primary","source":"openstreetmap.org","min_zoom":8.0,"landuse_kind":"urban_area","name:be":"\u043f\u0440\u0430\u0441\u043f\u0435\u043a\u0442 \u0411\u0443\u0434\u0430\u045e\u043d\u0456\u043a\u043e\u045e","id":59207092},"arcs":[251]},{"type":"LineString","properties":{"kind":"major_road","int_name":"vulica Budzionaha","network":"by:national","sort_rank":380,"kind_detail":"primary","min_zoom":8.0,"official_name":"\u0412\u0438\u0442\u0435\u0431\u0441\u043a \u2014 \u0413\u043e\u0440\u043e\u0434\u043e\u043a (\u0434\u043e \u0430\u0432\u0442\u043e\u043c\u043e\u0431\u0438\u043b\u044c\u043d\u043e\u0439 \u0434\u043e\u0440\u043e\u0433\u0438 \u041c-8)","name:de":"uliza Budyonnogo (Budyonny Stra\u00dfe)","source":"openstreetmap.org","name:fr":"oulitsa Boudiennogo (rue de Boudienny)","landuse_kind":"urban_area","shield_text":"115","name:be":"\u0432\u0443\u043b\u0456\u0446\u0430 \u0411\u0443\u0434\u0437\u0451\u043d\u043d\u0430\u0433\u0430","ref":"\u0420115"},"arcs":[252]},{"type":"MultiLineString","properties":{"kind":"major_road","int_name":"Viciebskaja abjaznaja","sort_rank":381,"kind_detail":"trunk","source":"openstreetmap.org","min_zoom":8.0,"name:be":"\u041f\u0430\u045e\u0434\u043d\u0451\u0432\u0430-\u0417\u0430\u0445\u043e\u0434\u043d\u0456 \u0430\u0431\u044b\u0445\u043e\u0434 \u0412\u0456\u0446\u0435\u0431\u0441\u043a\u0430","ref":"\u042049"},"arcs":[[253],[254],[255],[256],[257],[258]]},{"type":"MultiLineString","properties":{"kind":"major_road","network":"by:national","sort_rank":380,"kind_detail":"primary","source":"openstreetmap.org","min_zoom":8.0,"shield_text":"114","ref":"\u0420114"},"arcs":[[259],[260]]},{"type":"MultiLineString","properties":{"kind":"major_road","int_name":"vulica Voina\u016d-Internacyjanalista\u016d","sort_rank":380,"landuse_kind":"urban_area","source":"openstreetmap.org","min_zoom":8.0,"kind_detail":"primary","name:be":"\u0432\u0443\u043b\u0456\u0446\u0430 \u0412\u043e\u0456\u043d\u0430\u045e-\u0406\u043d\u0442\u044d\u0440\u043d\u0430\u0446\u044b\u044f\u043d\u0430\u043b\u0456\u0441\u0442\u0430\u045e"},"arcs":[[261],[262],[263]]},{"type":"MultiLineString","properties":{"bus_network":null,"int_name":"Bie\u0161ankovickaja \u0161a\u0161a","sort_rank":380,"kind_detail":"primary","name:fr":"Byeshenkovitcheskoe chauss\u00e9e (autoroute de Byechenkovitchi)","name:de":"Beshenkovicheskoe Shosse (Beshenkowichy Autobahn)","source":"openstreetmap.org","min_zoom":8.0,"bus_shield_text":"11","name:be":"\u0411\u0435\u0448\u0430\u043d\u043a\u043e\u0432\u0456\u0446\u043a\u0430\u044f \u0448\u0430\u0448\u0430","kind":"major_road"},"arcs":[[264],[265]]},{"type":"MultiLineString","properties":{"bus_network":null,"int_name":"praspiekt Hienierala Liudnikava","sort_rank":380,"landuse_kind":"urban_area","kind":"major_road","source":"openstreetmap.org","min_zoom":8.0,"bus_shield_text":"27","kind_detail":"primary","name:be":"\u043f\u0440\u0430\u0441\u043f\u0435\u043a\u0442 \u0413\u0435\u043d\u0435\u0440\u0430\u043b\u0430 \u041b\u044e\u0434\u043d\u0456\u043a\u0430\u0432\u0430"},"arcs":[[266],[267],[268]]},{"type":"MultiLineString","properties":{"bus_network":null,"int_name":"Masko\u016dski praspiekt","sort_rank":380,"kind_detail":"primary","min_zoom":8.0,"name:de":"Moskovsky Prospect (Moskau Avenue)","source":"openstreetmap.org","name:fr":"Moskovsky Prospect (avenue de Moscou)","bus_shield_text":"27","name:be":"\u041c\u0430\u0441\u043a\u043e\u045e\u0441\u043a\u0456 \u043f\u0440\u0430\u0441\u043f\u0435\u043a\u0442","landuse_kind":"urban_area","kind":"major_road"},"arcs":[[269],[270],[271]]},{"type":"LineString","properties":{"kind":"major_road","int_name":"vulica Citova","sort_rank":380,"kind_detail":"primary","bus_network":null,"name:de":"uliza Titowa (Titow Stra\u00dfe)","source":"openstreetmap.org","name:fr":"oulitsa Titova (rue de Titov)","bus_shield_text":"1","name:be":"\u0432\u0443\u043b\u0456\u0446\u0430 \u0426\u0456\u0442\u043e\u0432\u0430","min_zoom":8.0,"landuse_kind":"urban_area","id":130361458},"arcs":[272]},{"type":"MultiLineString","properties":{"source":"openstreetmap.org","kind":"major_road","sort_rank":381,"kind_detail":"trunk","ref":"\u042049","min_zoom":8.0},"arcs":[[273],[274]]},{"type":"LineString","properties":{"kind":"major_road","int_name":"praspiekt \u010carniacho\u016dskaha","sort_rank":380,"kind_detail":"primary","bus_network":null,"name:de":"Prospect Tschernjachowskogo (Avenue Tschernjachowski)","source":"openstreetmap.org","name:fr":"Prospect Tcherniakhovskogo (Avenue de Tcherniakhovski)","bus_shield_text":"6","name:be":"\u043f\u0440\u0430\u0441\u043f\u0435\u043a\u0442 \u0427\u0430\u0440\u043d\u044f\u0445\u043e\u045e\u0441\u043a\u0430\u0433\u0430","min_zoom":8.0,"landuse_kind":"urban_area","id":130160444},"arcs":[275]},{"type":"MultiLineString","properties":{"bus_network":null,"network":"by:national","sort_rank":381,"kind_detail":"trunk","kind":"major_road","source":"openstreetmap.org","min_zoom":8.0,"bus_shield_text":"26","shield_text":"8","ref":"\u041c8"},"arcs":[[276],[277],[278]]},{"type":"MultiLineString","properties":{"bus_network":null,"sort_rank":380,"kind_detail":"primary","kind":"major_road","source":"openstreetmap.org","min_zoom":8.0,"bus_shield_text":"11","landuse_kind":"urban_area"},"arcs":[[279],[280],[281]]},{"type":"LineString","properties":{"kind":"major_road","int_name":"Masko\u016dski praspiekt","sort_rank":380,"kind_detail":"primary","min_zoom":8.0,"name:de":"Moskovsky Prospect (Moskau Avenue)","source":"openstreetmap.org","name:fr":"Moskovsky Prospect (avenue de Moscou)","name:be":"\u041c\u0430\u0441\u043a\u043e\u045e\u0441\u043a\u0456 \u043f\u0440\u0430\u0441\u043f\u0435\u043a\u0442","ref":"\u042021"},"arcs":[282]},{"type":"LineString","properties":{"kind":"major_road","int_name":"Sadovaja vulica","network":"by:national","sort_rank":380,"kind_detail":"primary","source":"openstreetmap.org","min_zoom":8.0,"shield_text":"87","name:be":"\u0421\u0430\u0434\u043e\u0432\u0430\u044f \u0432\u0443\u043b\u0456\u0446\u0430","ref":"\u042087"},"arcs":[283]},{"type":"MultiLineString","properties":{"bus_network":null,"int_name":"Zialionahurskaja vulica","sort_rank":380,"kind_detail":"primary","kind":"major_road","source":"openstreetmap.org","min_zoom":8.0,"bus_shield_text":"11","name:be":"\u0417\u044f\u043b\u0451\u043d\u0430\u0433\u0443\u0440\u0441\u043a\u0430\u044f \u0432\u0443\u043b\u0456\u0446\u0430","landuse_kind":"urban_area"},"arcs":[[284],[285],[286],[287]]},{"type":"LineString","properties":{"kind":"major_road","int_name":"Lieninhradskaja vulica","network":"by:national","sort_rank":380,"kind_detail":"primary","name:fr":"Leningradskaya oulitsa (rue de Leningrad)","official_name":"\u0412\u0438\u0442\u0435\u0431\u0441\u043a \u2014 \u0413\u043e\u0440\u043e\u0434\u043e\u043a (\u0434\u043e \u0430\u0432\u0442\u043e\u043c\u043e\u0431\u0438\u043b\u044c\u043d\u043e\u0439 \u0434\u043e\u0440\u043e\u0433\u0438 \u041c-8)","name:de":"Leningradskaya uliza (Leningrad Stra\u00dfe)","source":"openstreetmap.org","min_zoom":8.0,"shield_text":"115","name:be":"\u041b\u0435\u043d\u0456\u043d\u0433\u0440\u0430\u0434\u0441\u043a\u0430\u044f \u0432\u0443\u043b\u0456\u0446\u0430","ref":"\u0420115","id":226867611},"arcs":[288]},{"type":"LineString","properties":{"kind":"major_road","network":"by:national","sort_rank":380,"kind_detail":"primary","source":"openstreetmap.org","min_zoom":8.0,"shield_text":"113","ref":"\u0420113"},"arcs":[289]},{"type":"MultiLineString","properties":{"source":"openstreetmap.org","kind":"major_road","sort_rank":380,"kind_detail":"primary","ref":"\u042087","min_zoom":8.0},"arcs":[[290],[291]]},{"type":"MultiLineString","properties":{"bus_network":null,"int_name":"vulica Voina\u016d-Internacyjanalista\u016d","sort_rank":380,"kind_detail":"primary","kind":"major_road","source":"openstreetmap.org","min_zoom":8.0,"bus_shield_text":"6","name:be":"\u0432\u0443\u043b\u0456\u0446\u0430 \u0412\u043e\u0456\u043d\u0430\u045e-\u0406\u043d\u0442\u044d\u0440\u043d\u0430\u0446\u044b\u044f\u043d\u0430\u043b\u0456\u0441\u0442\u0430\u045e","landuse_kind":"urban_area"},"arcs":[[292],[293],[294],[295],[296],[297]]},{"type":"MultiLineString","properties":{"bus_network":null,"int_name":"Masko\u016dski praspiekt","sort_rank":380,"kind_detail":"primary","kind":"major_road","source":"openstreetmap.org","min_zoom":8.0,"bus_shield_text":"14","name:be":"\u041c\u0430\u0441\u043a\u043e\u045e\u0441\u043a\u0456 \u043f\u0440\u0430\u0441\u043f\u0435\u043a\u0442","landuse_kind":"urban_area"},"arcs":[[298],[299]]},{"type":"LineString","properties":{"bus_network":null,"int_name":"vulica Ciera\u0161kovaj","sort_rank":380,"kind_detail":"primary","name:fr":"oulitsa Terechkovoy (rue de Terechkova)","name:de":"uliza Tereschkowoy (Tereschkowa Stra\u00dfe)","source":"openstreetmap.org","min_zoom":8.0,"bus_shield_text":"2","name:be":"\u0432\u0443\u043b\u0456\u0446\u0430 \u0426\u0435\u0440\u0430\u0448\u043a\u043e\u0432\u0430\u0439","landuse_kind":"urban_area","kind":"major_road"},"arcs":[300]},{"type":"LineString","properties":{"bus_network":null,"sort_rank":380,"kind_detail":"primary","kind":"major_road","source":"openstreetmap.org","min_zoom":8.0,"bus_shield_text":"26","landuse_kind":"urban_area"},"arcs":[301]},{"type":"LineString","properties":{"kind":"major_road","int_name":"\u0160asejnaja vulica","network":"by:national","sort_rank":380,"kind_detail":"primary","official_name":"\u0412\u0438\u0442\u0435\u0431\u0441\u043a \u2014 \u0421\u0443\u0440\u0430\u0436 \u2014 \u0433\u0440\u0430\u043d\u0438\u0446\u0430 \u0420\u043e\u0441\u0441\u0438\u0439\u0441\u043a\u043e\u0439 \u0424\u0435\u0434\u0435\u0440\u0430\u0446\u0438\u0438 (\u0421\u0442\u0430\u0439\u043a\u0438)","source":"openstreetmap.org","min_zoom":8.0,"shield_text":"112","name:be":"\u0428\u0430\u0441\u044d\u0439\u043d\u0430\u044f \u0432\u0443\u043b\u0456\u0446\u0430","ref":"\u0420112","id":33590513},"arcs":[302]},{"type":"LineString","properties":{"kind":"major_road","network":"by:national","sort_rank":381,"kind_detail":"trunk","source":"openstreetmap.org","min_zoom":8.0,"shield_text":"21","name:be":"\u0412\u0456\u0446\u0435\u0431\u0441\u043a\u0430\u044f \u0432\u0443\u043b\u0456\u0446\u0430","ref":"\u042021","id":361194404},"arcs":[303]},{"type":"MultiLineString","properties":{"bus_network":null,"int_name":"praspiekt \u010carniacho\u016dskaha","sort_rank":380,"kind_detail":"primary","kind":"major_road","source":"openstreetmap.org","min_zoom":8.0,"bus_shield_text":"6","name:be":"\u043f\u0440\u0430\u0441\u043f\u0435\u043a\u0442 \u0427\u0430\u0440\u043d\u044f\u0445\u043e\u045e\u0441\u043a\u0430\u0433\u0430","landuse_kind":"urban_area"},"arcs":[[304],[305],[306]]},{"type":"LineString","properties":{"kind":"major_road","network":"by:national","sort_rank":380,"kind_detail":"primary","source":"openstreetmap.org","min_zoom":8.0,"shield_text":"109","ref":"\u0420109"},"arcs":[307]},{"type":"MultiLineString","properties":{"bus_network":null,"network":"by:national","sort_rank":380,"kind_detail":"primary","kind":"major_road","source":"openstreetmap.org","min_zoom":8.0,"bus_shield_text":"26","shield_text":"112","ref":"\u0420112"},"arcs":[[308],[309],[310]]},{"type":"MultiLineString","properties":{"bus_network":null,"int_name":"Zamkavaja vulica","sort_rank":380,"kind_detail":"primary","name:fr":"Zamkovaya oulitsa (rue du Ch\u00e2teau)","name:de":"Samkovaya Uliza (Schl\u00f6sserstra\u00dfe)","source":"openstreetmap.org","min_zoom":8.0,"name:uk":"\u0417\u0430\u043c\u043a\u043e\u0432\u0430 \u0432\u0443\u043b\u0438\u0446\u044f","bus_shield_text":"1","name:be":"\u0417\u0430\u043c\u043a\u0430\u0432\u0430\u044f \u0432\u0443\u043b\u0456\u0446\u0430","landuse_kind":"urban_area","kind":"major_road"},"arcs":[[311],[312]]},{"type":"LineString","properties":{"kind":"major_road","int_name":"praspiekt Pieramohi","sort_rank":380,"landuse_kind":"urban_area","name:fr":"prospect Pobiedy (avenue de la Victoire)","name:de":"prospect Pobiedy (Sieges Avenue)","source":"openstreetmap.org","min_zoom":8.0,"kind_detail":"primary","name:be":"\u043f\u0440\u0430\u0441\u043f\u0435\u043a\u0442 \u041f\u0435\u0440\u0430\u043c\u043e\u0433\u0456"},"arcs":[313]},{"type":"MultiLineString","properties":{"bus_network":null,"int_name":"praspiekt Hienierala Liudnikava","sort_rank":380,"landuse_kind":"urban_area","name:be":"\u043f\u0440\u0430\u0441\u043f\u0435\u043a\u0442 \u0413\u0435\u043d\u0435\u0440\u0430\u043b\u0430 \u041b\u044e\u0434\u043d\u0456\u043a\u0430\u0432\u0430","kind":"major_road","name:de":"Prospect Generala Lyudnikowa (Allgemeine Lyudnikov Avenue)","source":"openstreetmap.org","name:fr":"prospect gu\u00e9n\u00e9rala Lioudnikova (avenue de g\u00e9n\u00e9ral Lioudnikov )","bus_shield_text":"27","kind_detail":"primary","min_zoom":8.0},"arcs":[[314],[315],[316]]},{"type":"MultiLineString","properties":{"bus_network":null,"int_name":"vulica Piatrusia Bro\u016dki","sort_rank":380,"kind_detail":"primary","kind":"major_road","source":"openstreetmap.org","min_zoom":8.0,"bus_shield_text":"6","name:be":"\u0432\u0443\u043b\u0456\u0446\u0430 \u041f\u044f\u0442\u0440\u0443\u0441\u044f \u0411\u0440\u043e\u045e\u043a\u0456","landuse_kind":"urban_area"},"arcs":[[317],[318]]},{"type":"LineString","properties":{"kind":"major_road","int_name":"Lieninhradskaja vulica","network":"by:national","sort_rank":380,"kind_detail":"primary","official_name":"\u0412\u0438\u0442\u0435\u0431\u0441\u043a \u2014 \u0413\u043e\u0440\u043e\u0434\u043e\u043a (\u0434\u043e \u0430\u0432\u0442\u043e\u043c\u043e\u0431\u0438\u043b\u044c\u043d\u043e\u0439 \u0434\u043e\u0440\u043e\u0433\u0438 \u041c-8)","source":"openstreetmap.org","min_zoom":8.0,"shield_text":"115","name:be":"\u041b\u0435\u043d\u0456\u043d\u0433\u0440\u0430\u0434\u0441\u043a\u0430\u044f \u0432\u0443\u043b\u0456\u0446\u0430","ref":"\u0420115","id":370588507},"arcs":[319]},{"type":"MultiLineString","properties":{"bus_network":null,"int_name":"Masko\u016dski praspiekt","sort_rank":380,"landuse_kind":"urban_area","kind":"major_road","source":"openstreetmap.org","min_zoom":8.0,"bus_shield_text":"27","kind_detail":"primary","name:be":"\u041c\u0430\u0441\u043a\u043e\u045e\u0441\u043a\u0456 \u043f\u0440\u0430\u0441\u043f\u0435\u043a\u0442","ref":"\u042021"},"arcs":[[320],[321],[322]]},{"type":"LineString","properties":{"bus_network":null,"int_name":"Masko\u016dski praspiekt","sort_rank":380,"kind_detail":"primary","min_zoom":8.0,"name:de":"Moskovsky Prospect (Moskau Avenue)","source":"openstreetmap.org","name:fr":"Moskovsky Prospect (avenue de Moscou)","bus_shield_text":"14","name:be":"\u041c\u0430\u0441\u043a\u043e\u045e\u0441\u043a\u0456 \u043f\u0440\u0430\u0441\u043f\u0435\u043a\u0442","landuse_kind":"urban_area","kind":"major_road"},"arcs":[323]},{"type":"LineString","properties":{"kind":"major_road","int_name":"vulica Bahramiana","network":"by:national","sort_rank":380,"kind_detail":"primary","official_name":"\u0412\u0438\u0442\u0435\u0431\u0441\u043a \u2014 \u0413\u043e\u0440\u043e\u0434\u043e\u043a (\u0434\u043e \u0430\u0432\u0442\u043e\u043c\u043e\u0431\u0438\u043b\u044c\u043d\u043e\u0439 \u0434\u043e\u0440\u043e\u0433\u0438 \u041c-8)","source":"openstreetmap.org","min_zoom":8.0,"shield_text":"115","name:be":"\u0432\u0443\u043b\u0456\u0446\u0430 \u0411\u0430\u0433\u0440\u0430\u043c\u044f\u043d\u0430","ref":"\u0420115","id":31782797},"arcs":[324]},{"type":"MultiLineString","properties":{"bus_network":null,"int_name":"Bie\u0161ankovickaja \u0161a\u0161a","sort_rank":380,"kind_detail":"primary","kind":"major_road","source":"openstreetmap.org","min_zoom":8.0,"bus_shield_text":"11","name:be":"\u0411\u0435\u0448\u0430\u043d\u043a\u043e\u0432\u0456\u0446\u043a\u0430\u044f \u0448\u0430\u0448\u0430"},"arcs":[[325],[326]]},{"type":"LineString","properties":{"kind":"major_road","int_name":"Dabramyslianskaja vulica","network":"by:national","sort_rank":380,"kind_detail":"primary","official_name":"\u041b\u0438\u043e\u0437\u043d\u043e \u2014 \u041e\u0440\u0435\u0445\u043e\u0432\u0441\u043a (\u0434\u043e \u0430\u0432\u0442\u043e\u043c\u043e\u0431\u0438\u043b\u044c\u043d\u043e\u0439 \u0434\u043e\u0440\u043e\u0433\u0438 \u041c-8)","source":"openstreetmap.org","min_zoom":8.0,"landuse_kind":"residential","shield_text":"109","name:be":"\u0414\u0430\u0431\u0440\u0430\u043c\u044b\u0441\u043b\u044f\u043d\u0441\u043a\u0430\u044f \u0432\u0443\u043b\u0456\u0446\u0430","ref":"\u0420109","id":30663606},"arcs":[327]},{"type":"MultiLineString","properties":{"bus_network":null,"int_name":"vulica Lienina","sort_rank":380,"kind_detail":"primary","kind":"major_road","source":"openstreetmap.org","min_zoom":8.0,"bus_shield_text":"1","name:be":"\u0432\u0443\u043b\u0456\u0446\u0430 \u041b\u0435\u043d\u0456\u043d\u0430","landuse_kind":"urban_area"},"arcs":[[328],[329],[330],[331],[332],[333]]},{"type":"MultiLineString","properties":{"bus_network":null,"int_name":"Lieninhradskaja vulica","network":"by:national","sort_rank":380,"kind_detail":"primary","kind":"major_road","official_name":"\u0412\u0438\u0442\u0435\u0431\u0441\u043a \u2014 \u0413\u043e\u0440\u043e\u0434\u043e\u043a (\u0434\u043e \u0430\u0432\u0442\u043e\u043c\u043e\u0431\u0438\u043b\u044c\u043d\u043e\u0439 \u0434\u043e\u0440\u043e\u0433\u0438 \u041c-8)","source":"openstreetmap.org","min_zoom":8.0,"bus_shield_text":"14","shield_text":"115","name:be":"\u041b\u0435\u043d\u0456\u043d\u0433\u0440\u0430\u0434\u0441\u043a\u0430\u044f \u0432\u0443\u043b\u0456\u0446\u0430","ref":"\u0420115"},"arcs":[[334],[335]]},{"type":"MultiLineString","properties":{"bus_network":null,"int_name":"praspiekt \u010carniacho\u016dskaha","sort_rank":380,"landuse_kind":"urban_area","kind":"major_road","source":"openstreetmap.org","min_zoom":8.0,"bus_shield_text":"11","kind_detail":"primary","name:be":"\u043f\u0440\u0430\u0441\u043f\u0435\u043a\u0442 \u0427\u0430\u0440\u043d\u044f\u0445\u043e\u045e\u0441\u043a\u0430\u0433\u0430"},"arcs":[[336],[337]]},{"type":"MultiLineString","properties":{"kind":"major_road","int_name":"vulica Citova","sort_rank":380,"kind_detail":"primary","name:fr":"oulitsa Titova (rue de Titov)","name:de":"uliza Titowa (Titow Stra\u00dfe)","source":"openstreetmap.org","min_zoom":8.0,"landuse_kind":"urban_area","name:be":"\u0432\u0443\u043b\u0456\u0446\u0430 \u0426\u0456\u0442\u043e\u0432\u0430"},"arcs":[[338],[339]]},{"type":"LineString","properties":{"kind":"major_road","int_name":"praspiekt Hienierala Liudnikava","sort_rank":380,"kind_detail":"primary","min_zoom":8.0,"name:de":"Prospect Generala Lyudnikowa (Allgemeine Lyudnikov Avenue)","source":"openstreetmap.org","name:fr":"prospect gu\u00e9n\u00e9rala Lioudnikova (avenue de g\u00e9n\u00e9ral Lioudnikov )","landuse_kind":"urban_area","name:be":"\u043f\u0440\u0430\u0441\u043f\u0435\u043a\u0442 \u0413\u0435\u043d\u0435\u0440\u0430\u043b\u0430 \u041b\u044e\u0434\u043d\u0456\u043a\u0430\u0432\u0430","id":28254576},"arcs":[340]},{"type":"MultiLineString","properties":{"bus_network":null,"int_name":"praspiekt Hienierala Liudnikava","sort_rank":380,"kind_detail":"primary","kind":"major_road","name:de":"Prospect Generala Lyudnikowa (Allgemeine Lyudnikov Avenue)","source":"openstreetmap.org","name:fr":"prospect gu\u00e9n\u00e9rala Lioudnikova (avenue de g\u00e9n\u00e9ral Lioudnikov )","bus_shield_text":"7","name:be":"\u043f\u0440\u0430\u0441\u043f\u0435\u043a\u0442 \u0413\u0435\u043d\u0435\u0440\u0430\u043b\u0430 \u041b\u044e\u0434\u043d\u0456\u043a\u0430\u0432\u0430","min_zoom":8.0,"landuse_kind":"urban_area"},"arcs":[[341],[342]]},{"type":"MultiLineString","properties":{"source":"openstreetmap.org","kind":"major_road","landuse_kind":"urban_area","sort_rank":380,"kind_detail":"primary","min_zoom":8.0},"arcs":[[343],[344],[345],[346]]},{"type":"MultiLineString","properties":{"bus_network":null,"int_name":"Lieninhradskaja vulica","network":"by:national","sort_rank":380,"kind_detail":"primary","kind":"major_road","official_name":"\u0412\u0438\u0442\u0435\u0431\u0441\u043a \u2014 \u0413\u043e\u0440\u043e\u0434\u043e\u043a (\u0434\u043e \u0430\u0432\u0442\u043e\u043c\u043e\u0431\u0438\u043b\u044c\u043d\u043e\u0439 \u0434\u043e\u0440\u043e\u0433\u0438 \u041c-8)","source":"openstreetmap.org","min_zoom":8.0,"bus_shield_text":"14","shield_text":"115","name:be":"\u041b\u0435\u043d\u0456\u043d\u0433\u0440\u0430\u0434\u0441\u043a\u0430\u044f \u0432\u0443\u043b\u0456\u0446\u0430","landuse_kind":"urban_area","ref":"\u0420115"},"arcs":[[347],[348],[349]]},{"type":"MultiLineString","properties":{"bus_network":null,"int_name":"vulica Lienina","sort_rank":380,"kind_detail":"primary","kind":"major_road","source":"openstreetmap.org","min_zoom":8.0,"bus_shield_text":"2","name:be":"\u0432\u0443\u043b\u0456\u0446\u0430 \u041b\u0435\u043d\u0456\u043d\u0430","landuse_kind":"urban_area"},"arcs":[[350],[351],[352]]},{"type":"LineString","properties":{"bus_network":null,"int_name":"vulica Piatrusia Bro\u016dki","sort_rank":380,"kind_detail":"primary","name:fr":"oulitsa Pyatroussya Browki (rue de Pyatrous Browka)","name:de":"uliza Pyatrusya Browki (Pyatrus Browka Stra\u00dfe)","source":"openstreetmap.org","min_zoom":8.0,"bus_shield_text":"6","name:be":"\u0432\u0443\u043b\u0456\u0446\u0430 \u041f\u044f\u0442\u0440\u0443\u0441\u044f \u0411\u0440\u043e\u045e\u043a\u0456","landuse_kind":"urban_area","kind":"major_road"},"arcs":[353]},{"type":"LineString","properties":{"kind":"major_road","int_name":"vulica Pieramo\u017eca\u016d","network":"by:national","sort_rank":380,"kind_detail":"primary","source":"openstreetmap.org","min_zoom":8.0,"shield_text":"87","name:be":"\u0432\u0443\u043b\u0456\u0446\u0430 \u041f\u0435\u0440\u0430\u043c\u043e\u0436\u0446\u0430\u045e","ref":"\u042087","id":182542851},"arcs":[354]},{"type":"MultiLineString","properties":{"bus_network":null,"int_name":"Lieninhradskaja vulica","official_name":"\u0412\u0438\u0442\u0435\u0431\u0441\u043a \u2014 \u0413\u043e\u0440\u043e\u0434\u043e\u043a (\u0434\u043e \u0430\u0432\u0442\u043e\u043c\u043e\u0431\u0438\u043b\u044c\u043d\u043e\u0439 \u0434\u043e\u0440\u043e\u0433\u0438 \u041c-8)","min_zoom":8.0,"bus_shield_text":"7","name:be":"\u041b\u0435\u043d\u0456\u043d\u0433\u0440\u0430\u0434\u0441\u043a\u0430\u044f \u0432\u0443\u043b\u0456\u0446\u0430","kind":"major_road","network":"by:national","sort_rank":380,"kind_detail":"primary","name:de":"Leningradskaya uliza (Leningrad Stra\u00dfe)","source":"openstreetmap.org","name:fr":"Leningradskaya oulitsa (rue de Leningrad)","landuse_kind":"urban_area","shield_text":"115","ref":"\u0420115"},"arcs":[[355],[356],[357],[358],[359]]},{"type":"LineString","properties":{"kind":"major_road","network":"by:national","sort_rank":381,"kind_detail":"trunk","source":"openstreetmap.org","min_zoom":8.0,"shield_text":"21","name:be":"\u0428\u0430\u0441\u044d\u0439\u043d\u0430\u044f \u0432\u0443\u043b\u0456\u0446\u0430","ref":"\u042021","id":163686426},"arcs":[360]},{"type":"MultiLineString","properties":{"bus_network":null,"int_name":"Lieninhradskaja vulica","official_name":"\u0412\u0438\u0442\u0435\u0431\u0441\u043a \u2014 \u0413\u043e\u0440\u043e\u0434\u043e\u043a (\u0434\u043e \u0430\u0432\u0442\u043e\u043c\u043e\u0431\u0438\u043b\u044c\u043d\u043e\u0439 \u0434\u043e\u0440\u043e\u0433\u0438 \u041c-8)","min_zoom":8.0,"bus_shield_text":"14","name:be":"\u041b\u0435\u043d\u0456\u043d\u0433\u0440\u0430\u0434\u0441\u043a\u0430\u044f \u0432\u0443\u043b\u0456\u0446\u0430","kind":"major_road","network":"by:national","sort_rank":380,"kind_detail":"primary","name:de":"Leningradskaya uliza (Leningrad Stra\u00dfe)","source":"openstreetmap.org","name:fr":"Leningradskaya oulitsa (rue de Leningrad)","landuse_kind":"urban_area","shield_text":"115","ref":"\u0420115"},"arcs":[[361],[362]]},{"type":"MultiLineString","properties":{"kind":"major_road","network":"by:national","sort_rank":380,"kind_detail":"primary","source":"openstreetmap.org","min_zoom":8.0,"shield_text":"115","ref":"\u0420115"},"arcs":[[363],[364]]},{"type":"MultiLineString","properties":{"kind":"major_road","int_name":"Masko\u016dski praspiekt","sort_rank":380,"landuse_kind":"urban_area","source":"openstreetmap.org","min_zoom":8.0,"kind_detail":"primary","name:be":"\u041c\u0430\u0441\u043a\u043e\u045e\u0441\u043a\u0456 \u043f\u0440\u0430\u0441\u043f\u0435\u043a\u0442"},"arcs":[[365],[366],[367],[368],[369],[370]]},{"type":"MultiLineString","properties":{"bus_network":null,"int_name":"praspiekt Frunze","sort_rank":380,"kind_detail":"primary","kind":"major_road","name:de":"Prospect Frunse (Frunse Avenue)","source":"openstreetmap.org","name:fr":"Prospect Frounze (Avenue de Frounze)","bus_shield_text":"3","name:be":"\u043f\u0440\u0430\u0441\u043f\u0435\u043a\u0442 \u0424\u0440\u0443\u043d\u0437\u044d","min_zoom":8.0,"landuse_kind":"urban_area"},"arcs":[[371],[372]]},{"type":"MultiLineString","properties":{"bus_network":null,"int_name":"vulica Kasmana\u016dta\u016d","official_name":"\u0412\u0438\u0442\u0435\u0431\u0441\u043a \u2014 \u0413\u043e\u0440\u043e\u0434\u043e\u043a (\u0434\u043e \u0430\u0432\u0442\u043e\u043c\u043e\u0431\u0438\u043b\u044c\u043d\u043e\u0439 \u0434\u043e\u0440\u043e\u0433\u0438 \u041c-8)","min_zoom":8.0,"bus_shield_text":"1","name:be":"\u0432\u0443\u043b\u0456\u0446\u0430 \u041a\u0430\u0441\u043c\u0430\u043d\u0430\u045e\u0442\u0430\u045e","kind":"major_road","network":"by:national","sort_rank":380,"kind_detail":"primary","name:de":"uliza Kosmonawtof (Kosmonauten-Stra\u00dfe)","source":"openstreetmap.org","name:fr":"oulitsa Cosmonautov (rue des Cosmonautes)","landuse_kind":"urban_area","shield_text":"115","ref":"\u0420115"},"arcs":[[373],[374],[375],[376]]},{"type":"LineString","properties":{"kind":"major_road","int_name":"Pralietarskaja vulica","network":"by:national","sort_rank":380,"kind_detail":"primary","official_name":"\u0412\u0438\u0442\u0435\u0431\u0441\u043a \u2014 \u0413\u043e\u0440\u043e\u0434\u043e\u043a (\u0434\u043e \u0430\u0432\u0442\u043e\u043c\u043e\u0431\u0438\u043b\u044c\u043d\u043e\u0439 \u0434\u043e\u0440\u043e\u0433\u0438 \u041c-8)","source":"openstreetmap.org","min_zoom":8.0,"shield_text":"115","name:be":"\u041f\u0440\u0430\u043b\u0435\u0442\u0430\u0440\u0441\u043a\u0430\u044f \u0432\u0443\u043b\u0456\u0446\u0430","ref":"\u0420115"},"arcs":[377]},{"type":"MultiLineString","properties":{"bus_network":null,"int_name":"praspiekt Buda\u016dniko\u016d","sort_rank":380,"kind_detail":"primary","name:fr":"Prospect Ctroyteley (Avenue des constructeurs)","name:de":"Prospect Ctroiteley (Bauarbeiter Avenue)","source":"openstreetmap.org","min_zoom":8.0,"bus_shield_text":"2","name:be":"\u043f\u0440\u0430\u0441\u043f\u0435\u043a\u0442 \u0411\u0443\u0434\u0430\u045e\u043d\u0456\u043a\u043e\u045e","landuse_kind":"urban_area","kind":"major_road"},"arcs":[[378],[379],[380]]},{"type":"MultiLineString","properties":{"bus_network":null,"sort_rank":380,"kind_detail":"primary","kind":"major_road","source":"openstreetmap.org","min_zoom":8.0,"bus_shield_text":"1","landuse_kind":"urban_area"},"arcs":[[381],[382],[383]]},{"type":"LineString","properties":{"kind":"major_road","int_name":"vulica Lienina","sort_rank":380,"landuse_kind":"urban_area","source":"openstreetmap.org","min_zoom":8.0,"kind_detail":"primary","name:be":"\u0432\u0443\u043b\u0456\u0446\u0430 \u041b\u0435\u043d\u0456\u043d\u0430"},"arcs":[384]},{"type":"MultiLineString","properties":{"bus_network":null,"int_name":"Zialionahurskaja vulica","sort_rank":380,"kind_detail":"primary","kind":"major_road","name:de":"Selienogurskaya uliza (Zielona G\u00f3ra Stra\u00dfe)","source":"openstreetmap.org","name:fr":"Zelienogourskaya oulitsa (rue de Zielona G\u00f3ra)","bus_shield_text":"11","name:be":"\u0417\u044f\u043b\u0451\u043d\u0430\u0433\u0443\u0440\u0441\u043a\u0430\u044f \u0432\u0443\u043b\u0456\u0446\u0430","min_zoom":8.0,"landuse_kind":"urban_area"},"arcs":[[385],[386]]},{"type":"MultiLineString","properties":{"kind":"major_road","int_name":"vulica Hienierala Bielabarodava","network":"by:national","sort_rank":380,"kind_detail":"primary","official_name":"\u0412\u0438\u0442\u0435\u0431\u0441\u043a \u2014 \u0413\u043e\u0440\u043e\u0434\u043e\u043a (\u0434\u043e \u0430\u0432\u0442\u043e\u043c\u043e\u0431\u0438\u043b\u044c\u043d\u043e\u0439 \u0434\u043e\u0440\u043e\u0433\u0438 \u041c-8)","source":"openstreetmap.org","min_zoom":8.0,"landuse_kind":"urban_area","shield_text":"115","name:be":"\u0432\u0443\u043b\u0456\u0446\u0430 \u0413\u0435\u043d\u0435\u0440\u0430\u043b\u0430 \u0411\u0435\u043b\u0430\u0431\u0430\u0440\u043e\u0434\u0430\u0432\u0430","ref":"\u0420115"},"arcs":[[387],[388],[389],[390]]},{"type":"MultiLineString","properties":{"kind":"major_road","int_name":"Bie\u0161ankovickaja \u0161a\u0161a","network":"by:national","sort_rank":380,"kind_detail":"primary","source":"openstreetmap.org","min_zoom":8.0,"shield_text":"3","name:be":"\u0411\u0435\u0448\u0430\u043d\u043a\u043e\u0432\u0456\u0446\u043a\u0430\u044f \u0448\u0430\u0448\u0430"},"arcs":[[391],[392]]},{"type":"LineString","properties":{"source":"openstreetmap.org","kind":"major_road","sort_rank":381,"kind_detail":"trunk","ref":"58\u041a-202","min_zoom":8.0},"arcs":[393]},{"type":"MultiLineString","properties":{"bus_network":null,"int_name":"vulica Haharyna","sort_rank":380,"kind_detail":"primary","kind":"major_road","source":"openstreetmap.org","min_zoom":8.0,"bus_shield_text":"26","name:be":"\u0432\u0443\u043b\u0456\u0446\u0430 \u0413\u0430\u0433\u0430\u0440\u044b\u043d\u0430","landuse_kind":"urban_area"},"arcs":[[394],[395],[396]]}]},"earth":{"type":"GeometryCollection","geometries":[{"type":"Polygon","properties":{"sort_rank":10,"source":"naturalearthdata.com","kind":"earth","min_zoom":0.0,"id":4769},"arcs":[[397]]}]},"landuse":{"type":"GeometryCollection","geometries":[{"type":"Polygon","properties":{"kind":"nature_reserve","protect_class":"4","area":11340400,"sort_rank":23,"source":"openstreetmap.org","min_zoom":8.0,"tier":2,"id":292280132},"arcs":[[398]]},{"type":"MultiPolygon","properties":{"source":"openstreetmap.org","kind":"military","tier":3,"area":227434142,"sort_rank":45,"min_zoom":8.0},"arcs":[[[399]]]},{"type":"MultiPolygon","properties":{"source":"naturalearthdata.com","kind":"urban_area","name":"","area":739159569,"sort_rank":11,"min_zoom":4.0},"arcs":[[[400]]]},{"type":"MultiPolygon","properties":{"source":"openstreetmap.org","kind":"residential","tier":2,"area":301611055,"sort_rank":20,"min_zoom":8.0},"arcs":[[[401]],[[402]],[[403]]]},{"type":"Polygon","properties":{"kind":"nature_reserve","protect_class":"4","area":13451400,"sort_rank":23,"source":"openstreetmap.org","min_zoom":8.0,"tier":2,"id":-7154967,"osm_relation":true},"arcs":[[404]]},{"type":"Polygon","properties":{"kind":"nature_reserve","protect_class":"7","area":673681984,"sort_rank":23,"source":"openstreetmap.org","min_zoom":6.0,"tier":2,"id":-5172321,"osm_relation":true},"arcs":[[405]]},{"type":"Polygon","properties":{"kind":"residential","name":"\u0423\u0441\u0432\u044f\u0442\u044b","area":25807300,"sort_rank":20,"source":"openstreetmap.org","min_zoom":8.0,"tier":2,"id":93878831},"arcs":[[406]]},{"type":"MultiPolygon","properties":{"kind":"nature_reserve","protect_class":"4","area":1711941121,"sort_rank":23,"source":"openstreetmap.org","min_zoom":6.0,"tier":2,"osm_relation":true},"arcs":[[[407]],[[408]],[[409]]]}]}},"type":"Topology","transform":{"translate":[29.53125,54.9776136707],"scale":[0.0003433228,0.0001950584]},"arcs":[[[249,4096],[-92,-92],[-19,-126],[-138,-124]],[[4096,3175],[-8,99],[-28,33],[-26,-15],[-177,55],[-50,-8],[52,-40],[-63,-35],[-5,-79],[-46,21],[-24,-16],[2,-48],[-130,-1],[-21,41],[-20,-5],[25,43],[-79,288],[-99,-22],[-4,-69],[-71,-41],[-12,59],[21,58],[-55,1],[44,75],[-18,23],[-70,-13],[-6,72],[34,44],[-64,165],[-138,106],[-162,8],[-73,122]],[[4096,150],[-79,60],[79,89]],[[4096,1147],[-41,-4],[-14,144],[-39,60],[10,59],[-80,68],[-16,79],[-159,-4],[-6,187],[34,92],[96,53],[106,156],[72,22],[29,106],[-85,208],[18,99],[-29,11],[-2,58],[-25,18],[75,0],[56,61]],[[4096,2735],[-28,10],[1,41],[-37,-6],[-7,39],[2,23],[36,-6],[33,44]],[[4096,3099],[0,71]],[[4060,3307],[22,11],[-14,87],[28,11]],[[0,3754],[138,124],[19,126],[92,92]],[[2825,4096],[73,-122],[162,-8],[138,-106],[64,-165],[-34,-44],[6,-72],[70,13],[18,-23],[-44,-75],[55,-1],[-21,-58],[12,-59],[71,41],[4,69],[99,22],[79,-288],[-25,-43],[20,5],[21,-41],[130,1],[-2,48],[24,16],[46,-21],[5,79],[63,35],[-52,40],[102,8],[125,-55],[26,15]],[[4060,3307],[28,-33],[8,-99]],[[4096,299],[-79,-89],[79,-60]],[[4096,2620],[-56,-61],[-75,0],[25,-18],[2,-58],[29,-11],[-18,-99],[85,-208],[-29,-106],[-72,-22],[-106,-156],[-96,-53],[-34,-92],[6,-187],[159,4],[16,-79],[80,-68],[-10,-59],[39,-60],[14,-144],[41,4]],[[4096,2880],[-33,-44],[-36,6],[-2,-23],[7,-39],[37,6],[-1,-41],[28,-10]],[[4096,3170],[0,-71]],[[0,1724],[84,-7],[404,-110],[146,-126],[222,-83],[268,-178],[84,-102],[195,-63],[220,-32],[56,15],[126,149],[95,-26],[3,-63]],[[4096,60],[-314,130],[-133,-8],[-199,63],[-540,-23],[-358,85],[-404,482],[-183,124],[-65,142],[-9,112],[-103,16],[-109,-145],[-56,-15],[-220,32],[-195,63],[-84,102],[-268,178],[-222,83],[-146,126],[-404,110],[-84,7]],[[4096,60],[-314,130],[-133,-8],[-199,63],[-540,-23],[-363,87],[-399,480],[-183,124],[-65,142],[8,79]],[[1367,4052],[-59,-73]],[[1624,1947],[-15,160],[-109,151],[-12,73],[-145,273],[-102,124],[-23,91],[19,87],[-15,131],[-54,122],[47,231],[122,305],[-43,159],[14,125]],[[1308,3979],[44,47],[4,5],[3,5],[8,16]],[[1367,4052],[6,44]],[[1623,1779],[0,1]],[[1623,1780],[1,47]],[[1624,1827],[-2,57]],[[1622,1884],[3,61]],[[1639,1742],[-16,36]],[[1681,1453],[-9,200],[-33,88]],[[1903,1107],[-7,56],[-45,3],[-6,2],[-18,10],[-9,3],[-24,-3],[-4,1],[-5,1],[-5,3],[-29,19],[-42,29],[-4,4],[-2,3],[-3,7],[-4,16],[0,7],[3,14],[0,8],[-7,21],[-4,15],[0,5],[-1,65],[6,34],[-12,23]],[[1681,1453],[12,-20],[10,-195],[82,-58],[33,1],[77,-17],[7,-6],[6,-11],[-4,-39]],[[1907,1135],[0,-3]],[[1907,1132],[-1,-3]],[[1906,1129],[-1,-6]],[[1905,1123],[-1,-7]],[[1904,1116],[0,-1]],[[1904,1115],[-1,-4]],[[1903,1111],[0,-2]],[[1903,1109],[0,-1]],[[1903,1108],[0,-1]],[[1903,1107],[-45,-49],[-21,-101],[-37,-47],[61,-340],[-25,-161],[52,-289],[-5,-120]],[[3739,259],[-86,28]],[[3653,287],[86,-28]],[[1919,1097],[-4,-31]],[[1915,1066],[0,1]],[[3494,2231],[17,27]],[[169,1685],[-4,1]],[[2055,910],[-6,9]],[[1916,1125],[0,-1]],[[1679,690],[-33,-33]],[[1915,1113],[0,-2]],[[2178,994],[1,0]],[[2085,864],[-21,32]],[[2166,744],[-45,67]],[[2181,720],[-4,6]],[[2194,646],[-3,28]],[[2297,0],[-54,211],[-49,430]],[[2038,1062],[-7,-31]],[[2045,1109],[-2,-26]],[[2389,942],[3,0]],[[2392,942],[-2,2]],[[2479,902],[-87,40]],[[3066,614],[-524,258]],[[3403,449],[-297,146]],[[3631,300],[-189,129]],[[3631,300],[6,-4]],[[3637,296],[-6,4]],[[4096,83],[-347,172]],[[2038,1210],[-48,-45]],[[2060,1231],[-9,-9]],[[2078,1248],[4,4]],[[1777,1108],[2,1]],[[1858,1132],[10,1]],[[1901,1137],[0,1]],[[2388,945],[-1,-3]],[[2389,941],[1,3]],[[4096,3755],[-303,237],[-80,11]],[[1967,1102],[1,0]],[[1968,1103],[-1,0]],[[2091,1118],[-60,-9]],[[2031,1108],[61,10]],[[2047,921],[0,1]],[[2064,896],[-9,14]],[[1579,580],[-69,-205],[5,-225],[-170,-135],[-93,-15]],[[1646,657],[-62,-49]],[[1945,1068],[-17,108],[-80,8],[79,-9],[18,-107]],[[1764,1104],[-13,-1]],[[1751,1103],[14,1]],[[1765,1104],[-1,0]],[[1860,933],[-40,-20]],[[2031,1031],[-1,-4]],[[2032,1027],[7,34],[7,37],[-1,13]],[[2043,1083],[-5,-21]],[[2044,1111],[1,-2]],[[1901,1138],[0,-1]],[[1935,1060],[-20,7]],[[1935,1059],[10,-4]],[[2156,1000],[0,-1]],[[2235,982]],[[2264,975],[0,1]],[[2400,795],[-37,68]],[[1758,900],[-11,-1]],[[3810,2423],[51,6]],[[1702,1351],[6,-69]],[[2348,1428],[-2,0]],[[2346,1426],[2,2]],[[2348,1428],[124,50]],[[2499,1486],[209,47],[154,1],[66,103],[399,374],[61,31]],[[3399,2072],[33,100]],[[3511,2258],[97,97],[202,68]],[[3861,2429],[160,38]],[[1966,1102],[1,0]],[[1967,1103],[-1,0]],[[2092,1119],[-1,-1]],[[1976,1148],[9,12]],[[2082,1252],[16,14]],[[2098,1266],[63,44],[-61,-43],[-2,-1]],[[1913,1114],[6,-17]],[[1919,1097],[0,2]],[[1971,1155],[14,7]],[[2078,1017],[1,-1]],[[0,444],[4,8],[193,100],[469,138],[242,166],[421,51]],[[1329,907],[375,-17]],[[1704,891],[-90,21],[-42,1],[-243,-6]],[[2096,1013],[23,-6]],[[2085,1044],[7,33]],[[2091,1118],[0,-40]],[[3664,124],[-1,0]],[[2116,1009],[-17,4]],[[2145,1002],[-26,6]],[[2154,1000],[-8,2]],[[1994,1039],[2,-1]],[[2007,1036],[-6,2]],[[2003,1036],[3,-1]],[[2034,1027],[44,-10]],[[4021,2467],[2,1]],[[1913,1133],[-12,5]],[[1901,1137],[12,-5]],[[1912,1111],[3,0]],[[1914,1113],[-1,1]],[[1939,1107],[-14,4]],[[1932,1107],[7,0]],[[3463,2201],[31,30]],[[2390,944],[-2,1]],[[3739,259]],[[1748,898],[10,1]],[[174,1961],[47,28]],[[1956,1052],[-10,-48]],[[1947,1005],[0,2]],[[2046,923],[-1,2]],[[4096,2484],[-73,-16]],[[1822,913],[39,20]],[[1913,1113],[1,-1]],[[2179,994],[51,-11]],[[165,1686],[-165,21]],[[1425,1203],[-150,107],[-106,20],[-195,-19],[-292,146],[-377,125]],[[1425,1203],[155,-120],[11,-2]],[[1591,1081]],[[1591,1081],[5,-1],[7,0],[9,0]],[[1612,1080],[43,5]],[[1655,1085],[4,0],[92,18]],[[1751,1103],[-48,-1],[-44,-16],[-4,-1]],[[1655,1085],[-15,-4],[-28,-1]],[[1612,1080],[-9,0],[-12,1]],[[1591,1081]],[[1591,1081],[-133,101],[-33,21]],[[1919,1099],[-5,14]],[[1325,2487],[-10,4]],[[2031,1109],[0,-1]],[[2091,1078],[-7,-34]],[[2092,1077],[0,41]],[[3683,4002],[-152,-45],[-79,-50]],[[1976,1148],[-6,1]],[[2194,642],[1,2],[-1,1],[-1,-2],[1,-1]],[[2045,925],[-1,-1]],[[2078,1017],[-9,-38]],[[1412,4096],[-119,-1233],[55,-126],[88,-105]],[[2282,1674],[-43,81],[-419,248],[-174,291],[-118,99],[-89,233]],[[2277,1682],[5,-8]],[[2282,1674],[1,-2]],[[2291,1658],[23,-102]],[[2345,1425],[2,-2]],[[2347,1423],[-1,3]],[[2377,1323],[-30,100]],[[2379,0],[-101,365],[-13,195],[-26,63],[55,73],[93,243]],[[2390,948],[31,87],[-2,141],[-36,119]],[[2387,942],[0,-3]],[[2387,939],[2,2]],[[2390,948],[-2,-3]],[[2390,944],[0,4]],[[1984,1160],[-14,-4]],[[2283,1672],[8,-14]],[[1965,1090],[-1,-6]],[[1968,1125],[-1,-9]],[[2030,1027],[-20,-83]],[[2011,943],[1,2]],[[2031,1025],[1,2]],[[3637,296],[16,-9]],[[3653,287],[-16,9]],[[2345,1425],[1,1],[0,2],[-2,-1],[1,-2]],[[1710,1256],[1,-5]],[[1827,1167],[23,-7]],[[1871,1154],[-44,13]],[[1871,1154],[21,-11]],[[2239,1755],[38,-73]],[[2383,1295],[-6,28]],[[2419,1176],[-3,15]],[[169,1685],[116,-88]],[[302,1583],[-17,14]],[[305,1582],[-3,1]],[[2028,1118],[3,-9]],[[2032,1108],[0,1]],[[2257,977],[129,-34]],[[2387,945],[-130,33]],[[2084,1044],[-6,-27]],[[2079,1016],[0,2]],[[1970,1149]],[[1436,2632],[-1,-4],[3,-2],[2,5],[-4,1]],[[3432,2172],[31,29]],[[1315,2491],[-41,86]],[[1584,608],[-5,-28]],[[2154,1000],[24,-6]],[[1946,1004],[40,-8]],[[1986,996],[-1,0]],[[2040,983],[30,-6]],[[1964,1084],[-4,-22]],[[1967,1111],[1,5]],[[1970,1156],[-1,-20]],[[2231,983],[26,-6]],[[2387,942],[2,-1]],[[2230,983],[1,0]],[[1925,1111],[-11,2]],[[1915,1111],[17,-4]],[[2029,1029],[-14,5]],[[1230,2517],[47,18]],[[1941,976],[33,-23]],[[1975,954],[-34,23]],[[2010,945],[-21,6]],[[2023,938],[21,-14]],[[2070,977],[9,39]],[[2178,995],[-24,5]],[[3713,4003],[-30,-1]],[[2092,1118],[0,1]],[[3686,276],[11,-95]],[[2179,995],[-1,0]],[[1957,1052],[3,10]],[[2070,977],[-3,1]],[[1947,1007],[10,44]],[[3388,2042],[11,30]],[[2257,978],[-25,5]],[[2542,872],[-63,30]],[[2177,726],[-11,18]],[[1913,1132],[3,-7]],[[1947,1005],[-1,0]],[[1915,1067],[4,30]],[[1622,1074],[-66,-142]],[[1556,932],[3,-50]],[[1559,882],[100,-191],[99,-57],[434,8]],[[1622,1082],[0,-8]],[[1622,1074],[0,8]],[[2197,643],[24,2]],[[0,1813],[174,148]],[[221,1989],[194,131],[625,272],[190,125]],[[1940,978]],[[2046,923],[1,-2]],[[2047,922],[-1,1]],[[1799,907],[-41,-7]],[[1803,907],[19,6]],[[2022,1130],[-12,20],[-20,12]],[[2013,1145],[15,-27]],[[2031,1109],[1,-1]],[[2079,1016],[11,-2]],[[2119,1008],[-3,1]],[[2146,1002],[-1,0]],[[1897,1135],[-10,-1]],[[2193,644],[0,-2]],[[2195,643],[0,1]],[[1946,1003],[-3,-11]],[[2314,1556],[30,-126]],[[2344,1430],[0,-3]],[[2346,1428],[-2,2]],[[1925,964],[-5,-2]],[[1921,961],[4,2]],[[1970,1149],[1,6]],[[2232,983],[-53,12]],[[2121,811],[-36,53]],[[1871,939],[-11,-6]],[[1861,933],[40,20]],[[1920,962],[-20,-9]],[[1909,956],[12,5]],[[1701,1360],[1,-9]],[[259,0],[-3,17],[-136,146],[-120,77]],[[2194,644],[-1,0]],[[2194,642],[1,1]],[[1940,978],[1,-2]],[[1941,977],[-1,1]],[[1974,953],[49,-15]],[[1989,951],[-14,3]],[[2045,925],[-22,14],[-13,6]],[[2044,924],[2,-1]],[[1956,1052],[1,-1]],[[1997,1039],[-37,13]],[[2079,1018],[6,26]],[[1985,1160],[0,2]],[[2472,1478],[27,8]],[[3442,429],[-39,20]],[[1943,992],[-3,-14]],[[1940,978],[7,27]],[[1946,1004],[0,-1]],[[3663,124],[-71,-124]],[[2161,1310],[181,115]],[[2342,1425],[3,1]],[[2344,1427],[-2,-2]],[[1950,1105],[16,-3]],[[1966,1103],[-16,2]],[[2012,945],[19,80]],[[1988,1163],[25,-18]],[[2029,1119],[-7,11]],[[2032,1111],[-1,2]],[[2069,979],[-24,-54]],[[2046,923]],[[1702,1357],[-1,3]],[[2099,1013],[-18,4]],[[2090,1014],[6,-1]],[[2119,1007],[35,-7]],[[1957,1051],[37,-12]],[[1393,2374],[-72,83]],[[1758,899],[45,8]],[[1820,913],[-21,-6]],[[3697,181],[-33,-57]],[[1960,1062],[-1,0]],[[1960,1062],[4,22],[3,27]],[[1966,1102],[-1,-12]],[[1967,1116],[-1,-13]],[[1968,1116],[2,33]],[[1969,1136],[-1,-11]],[[1708,1279],[-6,78]],[[1708,1282],[0,-3]],[[1940,978],[-15,-14]],[[1925,963],[15,15]],[[1779,1109],[79,23]],[[1868,1133],[19,1]],[[1990,1162],[-1,1]],[[2031,1113],[-2,6]],[[2032,1109],[0,2]],[[2042,1081],[1,0]],[[2048,1025],[-1,-1]],[[2090,1014],[0,2]],[[2093,1015],[0,-1]],[[1708,1279],[2,-23]],[[1785,1194],[-77,85]],[[1785,1193],[42,-26]],[[1959,1062],[-3,-10]],[[1957,1051],[0,1]],[[1966,1103],[0,-1]],[[2046,923],[24,54]],[[2191,674],[-10,46]],[[1850,1160],[21,-6]],[[1901,1138],[-6,3]],[[1895,1141],[-24,13]],[[1892,1143],[3,-2]],[[1895,1141],[6,-4]],[[3106,595],[-40,19]],[[1711,1251],[74,-58]],[[1827,1167],[-42,27]],[[1274,2577],[18,288]],[[1701,1360],[-49,395],[-77,199],[29,146],[-211,274]],[[1960,1052],[-3,1]],[[1996,1038],[7,-2]],[[2001,1038],[-4,1]],[[2006,1035],[28,-8]],[[2015,1034],[-8,2]],[[2081,1017],[-52,12]],[[1968,1102],[20,1],[21,1],[22,4]],[[2031,1109],[-63,-6]],[[1916,1124],[-2,-7],[0,-1]],[[1914,1116],[-1,-2]],[[1914,1113],[0,3]],[[1914,1116],[-1,17]],[[1321,2457],[4,30]],[[1985,996],[-38,9]],[[1986,996],[54,-13]],[[2067,978],[-81,18]],[[1939,1107],[11,-2]],[[1950,1105],[-11,2]],[[1985,1160],[0,2]],[[1970,1149],[1,7]],[[1900,953],[-29,-14]],[[1901,953],[8,3]],[[1915,1067]],[[1915,1066],[20,-7]],[[1957,1053],[-22,7]],[[1945,1055],[11,-3]],[[1747,899],[-21,-3],[-22,-5]],[[1704,890],[44,8]],[[3452,3907],[-140,35],[-259,154]],[[1990,1165]],[[2051,1222],[-13,-12]],[[2078,1248],[-18,-17]],[[0,4096],[4096,0],[0,-4096],[-4096,0],[0,4096]],[[1194,586],[59,63],[60,-53],[-58,-71],[-61,61]],[[1193,1765],[15,42],[26,-22],[45,7],[12,25],[-23,18],[37,24],[17,-100],[33,34],[-11,-35],[18,-9],[-10,-15],[-109,36],[-39,-24],[-11,19]],[[1725,1296],[8,-39],[88,36],[74,-36],[0,-57],[65,57],[52,10],[125,-27],[49,-40],[-36,-221],[-123,-68],[-327,4],[3,68],[62,103],[-97,114],[7,45],[50,51]],[[3632,290],[5,7],[39,-17],[30,40],[42,-41],[-44,-94],[40,-15],[-43,-7],[-30,-55],[-27,53],[27,74],[-32,14],[13,37],[-20,4]],[[1712,787],[44,-4],[-7,33],[29,18],[54,-13],[2,46],[27,-43],[-5,-37],[-29,11],[-27,-48],[-22,20],[-37,-26],[-29,43]],[[157,1624],[51,19],[-44,44],[47,2],[-2,64],[6,-27],[67,2],[-2,-67],[24,-15],[-21,-53],[22,-13],[-91,-20],[-10,-55],[-47,119]],[[2040,2898],[88,-1],[28,-72],[-110,-19],[-6,92]],[[3966,2557],[94,3],[36,-44],[0,-362],[-93,219],[19,99],[-30,11],[-2,58],[-24,16]],[[3451,3908],[61,61],[-15,37],[38,-29],[176,35],[4,-22],[-88,-35],[-69,-65],[-14,-36],[33,-42],[-22,-17],[-36,83],[-68,30]],[[0,2655],[0,26],[15,0],[-15,-26]],[[0,2559],[0,37],[14,-13],[-14,-24]],[[0,2363],[0,95],[70,-20],[-23,-2],[4,-38],[-44,-35],[-7,0]]]}