{"objects":{"water":{"type":"GeometryCollection","geometries":[]},"buildings":{"type":"GeometryCollection","geometries":[]},"places":{"type":"GeometryCollection","geometries":[{"type":"Point","properties":{"name:pt":"Orsha","int_name":"Or\u0161a","name:lt":"Or\u0161a","alt_name:eo":"Vor\u015da","min_zoom":8.0,"name:eo":"Or\u015da","name:it":"Or\u0161a","name:pl":"Orsza","name:hu":"Orsa","id":4230154696,"population":115938,"kind":"locality","name:en":"Orsha","name":"\u041e\u0440\u0448\u0430","kind_detail":"city","name:de":"Orscha","source":"openstreetmap.org","name:fr":"Orcha","name:es":"Orsha"},"coordinates":[2605,1756]},{"type":"Point","properties":{"kind":"locality","name:en":"Shklov","name":"\u0428\u043a\u043b\u043e\u0432","name:lt":"\u0160klovas","kind_detail":"town","source":"openstreetmap.org","min_zoom":8.0,"int_name":"\u0160klo\u016d","name:be":"\u0428\u043a\u043b\u043e\u045e","name:pl":"Szk\u0142\u00f3w","id":242978984,"population":16359},"coordinates":[2191,257]},{"type":"Point","properties":{"kind":"locality","name:en":"Bara\u0144","name":"\u0411\u0430\u0440\u0430\u043d\u044c","name:lt":"Baranis","kind_detail":"town","source":"openstreetmap.org","min_zoom":8.0,"int_name":"Bara\u0144","name:pl":"Bara\u0144","id":242979085,"population":11466},"coordinates":[2285,1592]},{"type":"Point","properties":{"alt_name:be":"\u0422\u0430\u043b\u0430\u0447\u044b\u043d\u043e;\u0422\u0430\u043b\u043e\u0447\u044b\u043d","kind":"locality","name:en":"Talachyn","name":"\u0422\u043e\u043b\u043e\u0447\u0438\u043d","kind_detail":"town","source":"openstreetmap.org","min_zoom":8.0,"int_name":"Tala\u010dyn","name:be":"\u0422\u0430\u043b\u0430\u0447\u044b\u043d","name:pl":"To\u0142oczyn","id":242978975,"population":9817},"coordinates":[502,1225]},{"type":"Point","properties":{"kind":"locality","name:en":"Sianno","name":"\u0421\u0435\u043d\u043d\u043e","name:lt":"Siano","kind_detail":"town","source":"openstreetmap.org","min_zoom":8.0,"int_name":"Sianno","name:uk":"\u0421\u0454\u043d\u043d\u043e","name:be":"\u0421\u044f\u043d\u043d\u043e","name:pl":"Sienno","id":242978974,"population":7656},"coordinates":[514,3275]},{"type":"Point","properties":{"kind":"locality","int_name":"Kruhlaje","name":"\u041a\u0440\u0443\u0433\u043b\u043e\u0435","kind_detail":"town","source":"openstreetmap.org","min_zoom":8.0,"name:be":"\u041a\u0440\u0443\u0433\u043b\u0430\u0435","name:pl":"Kruh\u0142e","id":242978964,"population":7469},"coordinates":[775,432]},{"type":"Point","properties":{"kind":"locality","name:en":"Dubrovno","name":"\u0414\u0443\u0431\u0440\u043e\u0432\u043d\u043e","name:lt":"Dubrouna","old_name:pl":"D\u0105browna","kind_detail":"town","name:de":"Dubrouna","source":"openstreetmap.org","min_zoom":8.0,"int_name":"Dubro\u016dna","name:be":"\u0414\u0443\u0431\u0440\u043e\u045e\u043d\u0430","name:pl":"Dubrowna","id":242978980,"population":7345},"coordinates":[3375,2059]}]},"transit":{"type":"GeometryCollection","geometries":[{"type":"MultiLineString","properties":{"source":"openstreetmap.org","kind":"train","sort_rank":275,"ref":"\u041c\u0438\u043d\u0441\u043a - \u041c\u043e\u0441\u043a\u0432\u0430","min_zoom":6.0,"osm_relation":true},"arcs":[[5],[6],[7],[8]]},{"type":"MultiLineString","properties":{"source":"openstreetmap.org","kind":"train","sort_rank":275,"ref":"\u044d\u043b. \u041c\u0438\u043d\u0441\u043a - \u0411\u043e\u0440\u0438\u0441\u043e\u0432 - \u041e\u0440\u0448\u0430","min_zoom":6.0,"osm_relation":true},"arcs":[[9],[10]]},{"type":"LineString","properties":{"kind":"train","name:en":"EN 453 : Paris \u2212 Berlin \u2212 Moscow","network":"EuroNight","service":"international","sort_rank":275,"source":"openstreetmap.org","min_zoom":5.0,"operator":"\u0420\u043e\u0441\u0441\u0438\u0439\u0441\u043a\u0438\u0435 \u0436\u0435\u043b\u0435\u0437\u043d\u044b\u0435 \u0434\u043e\u0440\u043e\u0433\u0438","ref":"EN 453","osm_relation":true,"name":"EN 453 : Paris \u2212 Berlin \u2212 Moscou"},"arcs":[11]},{"type":"MultiLineString","properties":{"source":"openstreetmap.org","kind":"train","sort_rank":275,"ref":"\u041c\u043e\u0441\u043a\u0432\u0430 - \u041c\u043e\u0433\u0438\u043b\u0451\u0432 - \u0413\u043e\u043c\u0435\u043b\u044c","min_zoom":6.0,"osm_relation":true},"arcs":[[12],[13]]},{"type":"MultiLineString","properties":{"kind":"train","name":"Warszawa - Moskwa","sort_rank":275,"source":"openstreetmap.org","min_zoom":6.0,"name:ru":"\u0412\u0430\u0440\u0448\u0430\u0432\u0430 - \u041c\u043e\u0441\u043a\u0432\u0430","name:be":"\u0412\u0430\u0440\u0448\u0430\u0432\u0430 - \u041c\u0430\u0441\u043a\u0432\u0430","ref":"Warszawa - Moskwa","osm_relation":true},"arcs":[[14],[15],[16],[17]]},{"type":"MultiLineString","properties":{"source":"openstreetmap.org","kind":"train","sort_rank":275,"ref":"\u0412\u0438\u0442\u0435\u0431\u0441\u043a - \u041e\u0440\u0448\u0430","min_zoom":6.0,"osm_relation":true},"arcs":[[18],[19],[20],[21]]},{"type":"LineString","properties":{"source":"openstreetmap.org","kind":"train","sort_rank":275,"ref":"\u0411\u0440\u0435\u0441\u0442 - \u041c\u043e\u0441\u043a\u0432\u0430","min_zoom":6.0,"osm_relation":true},"arcs":[22]},{"type":"LineString","properties":{"kind":"train","name":"EN 452 : Moscou \u2212 Berlin \u2212 Paris","service":"international","sort_rank":275,"source":"openstreetmap.org","min_zoom":5.0,"operator":"\u0420\u043e\u0441\u0441\u0438\u0439\u0441\u043a\u0438\u0435 \u0436\u0435\u043b\u0435\u0437\u043d\u044b\u0435 \u0434\u043e\u0440\u043e\u0433\u0438","ref":"EN 452","osm_relation":true,"network":"EuroNight"},"arcs":[23]},{"type":"LineString","properties":{"kind":"train","name":"Praha \u2014 Moskva","sort_rank":275,"source":"openstreetmap.org","min_zoom":6.0,"name:ru":"\u041f\u0440\u0430\u0433\u0430 \u2014 \u041c\u043e\u0441\u043a\u0432\u0430","name:be":"\u041f\u0440\u0430\u0433\u0430 \u2014 \u041c\u0430\u0441\u043a\u0432\u0430","ref":"Praha - Moskva","osm_relation":true},"arcs":[24]}]},"pois":{"type":"GeometryCollection","geometries":[{"type":"Point","properties":{"kind":"nature_reserve","protect_class":"4","area":326437000,"source":"openstreetmap.org","min_zoom":8.11,"tier":2,"name:be":"\u0420\u044d\u0441\u043f\u0443\u0431\u043b\u0456\u043a\u0430\u043d\u0441\u043a\u0456 \u043b\u0430\u043d\u0434\u0448\u0430\u0444\u0442\u043d\u044b \u0437\u0430\u043a\u0430\u0437\u043d\u0456\u043a \u00ab\u0411\u0430\u0431\u0456\u043d\u0430\u0432\u0456\u0446\u043a\u0456\u00bb","id":-7812148,"osm_relation":true,"name":"\u0420\u0435\u0441\u043f\u0443\u0431\u043b\u0438\u043a\u0430\u043d\u0441\u043a\u0438\u0439 \u043b\u0430\u043d\u0434\u0448\u0430\u0444\u0442\u043d\u044b\u0439 \u0437\u0430\u043a\u0430\u0437\u043d\u0438\u043a \u00ab\u0411\u0430\u0431\u0438\u043d\u043e\u0432\u0438\u0447\u0441\u043a\u0438\u0439\u00bb"},"coordinates":[3110,3453]}]},"boundaries":{"type":"GeometryCollection","geometries":[{"type":"MultiLineString","properties":{"name:kg":"Belarusia","name:ty":"Belarus","name:ka":"\u10d1\u10d4\u10da\u10d0\u10e0\u10e3\u10e1\u10d8","name:ko":"\ubca8\ub77c\ub8e8\uc2a4","name:cv":"\u0411\u0435\u043b\u0430\u0440\u0443\u00e7","name:cu":"\u0411\u0463\u043b\u0430 \u0420\u043e\u0443\u0441\u044c","name:kl":"Hvideruslandi","name:cs":"B\u011blorusko","name:tt":"\u0411\u0435\u043b\u0430\u0440\u0443\u0441\u0438\u044f","name:co":"Bielorussia","name:tk":"Belorussi\u00fda","name:ku":"Belar\u00fbs","name:tl":"Biyelorusya","name:ce":"\u0411\u0435\u043b\u043e\u0440\u0443\u0441\u0441\u0438","name:ta":"\u0baa\u0bc6\u0bb2\u0bb0\u0bc1\u0bb8\u0bcd","name:tg":"\u0411\u0435\u043b\u0430\u0440\u0443\u0441","name:ca":"Bielor\u00fassia","name:te":"\u0c2c\u0c46\u0c32\u0c3e\u0c30\u0c38\u0c4d","name:cy":"Belarws","name:hr":"Bjelorusija","name:da":"Hviderusland","name:de":"Wei\u00dfrussland","name:dz":"\u0f56\u0f7a\u0f0b\u0f63\u0f0b\u0f62\u0f74\u0f0b\u0f66\u0f74\u0f0d","source":"openstreetmap.org","name:kn":"\u0cac\u0cc6\u0cb2\u0cbe\u0cb0\u0cc1\u0cb8\u0ccd","name:dv":"\u0784\u07ac\u078d\u07a6\u0783\u07ab\u0790\u07b0","name:lv":"Baltkrievija","name:lt":"Baltarusija","name:uz":"Belarus","name:ur":"\u0628\u06cc\u0644\u0627\u0631\u0648\u0633","name:lb":"W\u00e4issrussland","name:la":"Ruthenia Alba","name:uk":"\u0411\u0456\u043b\u043e\u0440\u0443\u0441\u044c","name:ug":"\u0628\u06d0\u0644\u0648\u0631\u06c7\u0633\u0633\u0649\u064a\u06d5","name:li":"Wit-Rusland","name:ln":"Bielorusia","name:el":"\u039b\u03b5\u03c5\u03ba\u03bf\u03c1\u03c9\u03c3\u03af\u03b1","name:eo":"Belorusujo","name:en":"Belarus","name":"\u0411\u0435\u043b\u0430\u0440\u0443\u0441\u044c","name:ee":"Belarus","name:th":"\u0e1b\u0e23\u0e30\u0e40\u0e17\u0e28\u0e40\u0e1a\u0e25\u0e32\u0e23\u0e38\u0e2a","name:eu":"Bielorrusia","name:et":"Valgevene","name:es":"Bielorrusia","name:ia":"Bielorussia","name:rm":"Bielorussia","name:az":"Belarus","name:ie":"Bielorussia","name:id":"Belarus","name:ar":"\u0631\u0648\u0633\u064a\u0627 \u0627\u0644\u0628\u064a\u0636\u0627\u0621","name:io":"Bielorusia","name:is":"Hv\u00edta-R\u00fassland","name:it":"Bielorussia","name:rw":"Belarusi","name:af":"Wit-Rusland","name:zu":"IBelarusi","kind_detail":"2","name:ky":"\u0411\u0435\u043b\u0430\u0440\u0443\u0441\u0438\u044f","name:zh-yue":"\u767d\u4fc4\u7f85\u65af","name:zh":"\u767d\u4fc4\u7f57\u65af","name:so":"Belarus","name:sl":"Belorusija","name:sk":"Bielorusko","name:ja":"\u30d9\u30e9\u30eb\u30fc\u30b7","name:si":"\u0db6\u0dd9\u0dbd\u0dcf\u0dbb\u0dc3\u0dca","name:sh":"Belorusija","name:se":"Vilges-Ruo\u0161\u0161a","name:sa":"\u092c\u0947\u0932\u093e\u0930\u0942\u0938","name:bs":"Bjelorusija","name:bn":"\u09ac\u09c7\u09b2\u09be\u09b0\u09c1\u09b6","name:bo":"\u0f56\u0fb7\u0f7a\u0f0b\u0f63\u0f0b\u0f62\u0f66\u0f74\u0f0d","name:br":"Belarus","name:sw":"Belarus","name:sv":"Vitryssland","name:su":"B\u00e9larus","name:bg":"\u0411\u0435\u043b\u0430\u0440\u0443\u0441","name:ss":"IBhelalasi","name:sr":"\u0411\u0435\u043b\u043e\u0440\u0443\u0441\u0438\u0458\u0430","name:sq":"Bjellorusia","name:jv":"B\u00e9larus","name:bi":"Belarus","name:pt":"Bielorr\u00fassia","name:ps":"\u0628\u06d0\u0644\u0627\u0631\u0648\u0633","name:oc":"Bielorussia","min_zoom":8.0,"name:ro":"Belarus","name:zh-min-nan":"Belarus","name:os":"\u0411\u0435\u043b\u043e\u0440\u0443\u0441\u0441\u0438","name:or":"\u0b2c\u0b47\u0b32\u0b3e\u0b0b\u0b37","name:pl":"Bia\u0142oru\u015b","sort_rank":262,"osm_relation":true,"name:tr":"Beyaz Rusya","name:hi":"\u092c\u0947\u0932\u093e\u0930\u0942\u0938","name:he":"\u05d1\u05dc\u05d0\u05e8\u05d5\u05e1","old_name:eo":"Bjelorusio;Bjelorusujo","name:hy":"\u0532\u0565\u056c\u0561\u057c\u0578\u0582\u057d","name:ht":"Byelorisi","name:hu":"Feh\u00e9roroszorsz\u00e1g","name:qu":"Bilarus","kind":"country","name:ts":"Belarus","name:yi":"\u05d1\u05e2\u05dc\u05d0\u05e8\u05d5\u05e1","name:yo":"B\u1eb9\u0300l\u00e1r\u00f9s","name:mt":"Belarus","alt_name:eo":"Belorusio","name:ms":"Belarus","name:mr":"\u092c\u0947\u0932\u093e\u0930\u0942\u0938","name:my":"\u1018\u102e\u101c\u102c\u101b\u102f\u1007\u103a\u1014\u102d\u102f\u1004\u103a\u1004\u1036","official_name":"\u0420\u044d\u0441\u043f\u0443\u0431\u043b\u0456\u043a\u0430 \u0411\u0435\u043b\u0430\u0440\u0443\u0441\u044c","name:kw":"Belarussi","name:ml":"\u0d2c\u0d46\u0d32\u0d3e\u0d31\u0d41\u0d38\u0d4d","name:vi":"Belarus","name:mi":"P\u0113rara","id":-59065,"name:mk":"\u0411\u0435\u043b\u043e\u0440\u0443\u0441\u0438\u0458\u0430","name:vo":"Belarus\u00e4n","name:fa":"\u0628\u0644\u0627\u0631\u0648\u0633","name:ff":"Belaruusiya","name:fi":"Valko-Ven\u00e4j\u00e4","name:fo":"Hv\u00edtarussland","alt_name:vi":"B\u1ea1ch Nga","name:fr":"B\u00e9larus","name:fy":"Wyt-Rusl\u00e2n","int_name":"Belarus","name:nl":"Wit-Rusland","name:nn":"Kviterussland","name:no":"Hviterussland","name:na":"Berarut","name:ne":"\u092c\u0947\u0932\u093e\u0930\u0941\u0938","alt_name:fr":"Bi\u00e9lorussie","name:wo":"Belaarus","name:ga":"An Bhealar\u00fais","name:gd":"A' Bhealaruis","name:gn":"Vielorrusia","name:gl":"Bielorrusia","name:gv":"Yn Velaroosh","name:gu":"\u0aac\u0ac7\u0ab2\u0abe\u0ab0\u0ac1\u0ab8"},"arcs":[[0],[1]]},{"type":"MultiLineString","properties":{"name:left:uz":"Smolensk viloyati","name:right:fr":"Voblast de Vitsebsk","old_name:right:en":"Vitebsk region","name:right:uk":"\u0412\u0456\u0442\u0435\u0431\u0441\u044c\u043a\u0430 \u043e\u0431\u043b\u0430\u0441\u0442\u044c","id:right":-59506,"name:right:lt":"Vitebsko sritis","name:right:sk":"Vicebsk\u00e1 oblas\u0165","name:left:lt":"Smolensko sritis","name:left:sh":"Smolenska oblast","name:left:be":"\u0421\u043c\u0430\u043b\u0435\u043d\u0441\u043a\u0430\u044f \u0432\u043e\u0431\u043b\u0430\u0441\u0446\u044c","name:right:eo":"Vicebska regiono","name:left:hu":"Szmolenszki ter\u00fclet","id":-81996,"name:right":"\u0412\u0438\u0442\u0435\u0431\u0441\u043a\u0430\u044f \u043e\u0431\u043b\u0430\u0441\u0442\u044c","old_name:right:fr":"Voblast de Vitebsk","name:right:ca":"Prov\u00edncia de V\u00edtsiebsk","name:left:eo":"Smolenska provinco","name:left:en":"Smolensk Oblast","name:left:el":"\u03a0\u03b5\u03c1\u03b9\u03c6\u03ad\u03c1\u03b5\u03b9\u03b1 \u03a3\u03bc\u03bf\u03bb\u03ad\u03bd\u03c3\u03ba","name:left:ce":"\u0421\u043c\u043e\u043b\u0435\u043d\u0441\u043a\u0430\u043d \u043e\u0431\u043b\u0430\u0441\u0442\u044c","kind_detail":"4","name:left:ca":"Prov\u00edncia de Smolensk","int_name:right":"Viciebskaja voblas\u0107","source":"openstreetmap.org","name:left:nl":"Oblast Smolensk","id:left":-81996,"name:left:cv":"\u0421\u043c\u0443\u043b\u0435\u043d \u043e\u0431\u043b\u0430\u00e7\u0115","name:left:cs":"Smolensk\u00e1 oblast","name:left":"\u0421\u043c\u043e\u043b\u0435\u043d\u0441\u043a\u0430\u044f \u043e\u0431\u043b\u0430\u0441\u0442\u044c","name:left:ka":"\u10e1\u10db\u10dd\u10da\u10d4\u10dc\u10e1\u10d9\u10d8\u10e1 \u10dd\u10da\u10e5\u10d8","name:left:pl":"Obw\u00f3d smole\u0144ski","name:left:tr":"Smolensk Oblast\u0131","name:left:id":"Oblast Smolensk","name:left:tt":"\u0421\u043c\u043e\u043b\u0435\u043d\u0441\u043a \u04e9\u043b\u043a\u04d9\u0441\u0435","name:left:ro":"Regiunea Smolensk","name:left:kv":"\u0421\u043c\u043e\u043b\u0435\u043d\u0441\u043a \u043e\u0431\u043b\u0430\u0441\u044c\u0442","name:left:bg":"\u0421\u043c\u043e\u043b\u0435\u043d\u0441\u043a\u0430 \u043e\u0431\u043b\u0430\u0441\u0442","name:left:sr":"\u0421\u043c\u043e\u043b\u0435\u043d\u0441\u043a\u0430 \u043e\u0431\u043b\u0430\u0441\u0442","name:right:pl":"obw\u00f3d witebski","name:right:en":"Vitsebsk Voblast","osm_relation":true,"name:left:uk":"\u0421\u043c\u043e\u043b\u0435\u043d\u0441\u044c\u043a\u0430 \u043e\u0431\u043b\u0430\u0441\u0442\u044c","kind":"region","name":"\u0421\u043c\u043e\u043b\u0435\u043d\u0441\u043a\u0430\u044f \u043e\u0431\u043b\u0430\u0441\u0442\u044c - \u0412\u0438\u0442\u0435\u0431\u0441\u043a\u0430\u044f \u043e\u0431\u043b\u0430\u0441\u0442\u044c","name:right:de":"Wizebskaja Woblasz","min_zoom":8.0,"name:right:be":"\u0412\u0456\u0446\u0435\u0431\u0441\u043a\u0430\u044f \u0432\u043e\u0431\u043b\u0430\u0441\u0446\u044c","name:left:de":"Oblast Smolensk","sort_rank":256,"name:left:et":"Smolenski oblast","name:left:hy":"\u054d\u0574\u0578\u056c\u0565\u0576\u057d\u056f\u056b \u0574\u0561\u0580\u0566"},"arcs":[[2],[3]]},{"type":"LineString","properties":{"name:right:nl":"Oblast Mahiljow","name:right:fr":"Voblast de Mahiliow","old_name:right:en":"Mogilev Region","name:right:uk":"\u041c\u043e\u0433\u0438\u043b\u044c\u043e\u0432\u0441\u044c\u043a\u0430 \u043e\u0431\u043b\u0430\u0441\u0442\u044c","int_name:left":"Viciebskaja voblas\u0107","name:right:hu":"Mahiljovi ter\u00fclet","id:right":-59162,"name:right:lt":"Mogiliovo sritis","min_zoom":8.0,"name:left:lt":"Vitebsko sritis","name:left:sk":"Vicebsk\u00e1 oblas\u0165","name:left:be":"\u0412\u0456\u0446\u0435\u0431\u0441\u043a\u0430\u044f \u0432\u043e\u0431\u043b\u0430\u0441\u0446\u044c","name:right:eo":"Mahilova regiono","name:right:uz":"Mogilyov viloyati","id":-59506,"name:right":"\u041c\u043e\u0433\u0438\u043b\u0451\u0432\u0441\u043a\u0430\u044f \u043e\u0431\u043b\u0430\u0441\u0442\u044c","old_name:right:fr":"Voblast de Moguilev","name:left:eo":"Vicebska regiono","name:left:en":"Vitsebsk Voblast","sort_rank":256,"kind_detail":"4","name:left:ca":"Prov\u00edncia de V\u00edtsiebsk","int_name:right":"Mahilio\u016dskaja voblas\u0107","name:right:sk":"Mahi\u013eovsk\u00e1 oblas\u0165","old_name:left:en":"Vitebsk region","source":"openstreetmap.org","id:left":-59506,"name:right:az":"Mogilyov vilay\u0259ti","name:left":"\u0412\u0438\u0442\u0435\u0431\u0441\u043a\u0430\u044f \u043e\u0431\u043b\u0430\u0441\u0442\u044c","name:right:ka":"\u10db\u10dd\u10d2\u10d8\u10da\u10d4\u10d5\u10d8\u10e1 \u10dd\u10da\u10e5\u10d8","name:right:pt":"Voblast de Mahilou","name:left:pl":"obw\u00f3d witebski","name:right:kk":"\u041c\u043e\u0433\u0438\u043b\u0435\u0432 \u043e\u0431\u043b\u044b\u0441\u044b","name:right:tr":"Mahilyov Voblast\u0131","name:right:ro":"Regiunea Moghil\u0103u","name:right:ky":"\u041c\u043e\u0433\u0438\u043b\u0451\u0432 \u043e\u0431\u043b\u0430\u0441\u0442\u044b","name:right:pl":"obw\u00f3d mohylewski","name:right:en":"Mahilyow Voblasts","osm_relation":true,"name:left:uk":"\u0412\u0456\u0442\u0435\u0431\u0441\u044c\u043a\u0430 \u043e\u0431\u043b\u0430\u0441\u0442\u044c","kind":"region","name":"\u0412\u0438\u0442\u0435\u0431\u0441\u043a\u0430\u044f \u043e\u0431\u043b\u0430\u0441\u0442\u044c - \u041c\u043e\u0433\u0438\u043b\u0451\u0432\u0441\u043a\u0430\u044f \u043e\u0431\u043b\u0430\u0441\u0442\u044c","name:right:de":"Woblast Mahiljou","old_name:left:fr":"Voblast de Vitebsk","name:left:de":"Wizebskaja Woblasz","name:right:be":"\u041c\u0430\u0433\u0456\u043b\u0451\u045e\u0441\u043a\u0430\u044f \u0432\u043e\u0431\u043b\u0430\u0441\u0446\u044c","name:left:fr":"Voblast de Vitsebsk"},"arcs":[4]}]},"roads":{"type":"GeometryCollection","geometries":[{"type":"LineString","properties":{"kind":"major_road","int_name":"vulica Cimirazieva","network":"by:national","sort_rank":380,"kind_detail":"primary","source":"openstreetmap.org","min_zoom":8.0,"landuse_kind":"urban_area","shield_text":"15","name:be":"\u0432\u0443\u043b\u0456\u0446\u0430 \u0426\u0456\u043c\u0456\u0440\u0430\u0437\u0435\u0432\u0430","ref":"\u042015"},"arcs":[25]},{"type":"MultiLineString","properties":{"kind":"major_road","network":"by:national","sort_rank":380,"kind_detail":"primary","source":"openstreetmap.org","min_zoom":8.0,"shield_text":"87","ref":"\u042087"},"arcs":[[26],[27]]},{"type":"LineString","properties":{"kind":"major_road","network":"by:national","sort_rank":380,"kind_detail":"primary","source":"openstreetmap.org","min_zoom":8.0,"landuse_kind":"residential","shield_text":"76","name:be":"\u0432\u0443\u043b\u0456\u0446\u0430 70 \u0433\u043e\u0434 \u0412\u044f\u043b\u0456\u043a\u0430\u0439 \u041f\u0435\u0440\u0430\u043c\u043e\u0433\u0456","ref":"\u042076","id":205325080},"arcs":[28]},{"type":"LineString","properties":{"kind":"major_road","int_name":"vulica Cimirazieva","network":"by:national","sort_rank":380,"kind_detail":"primary","source":"openstreetmap.org","min_zoom":8.0,"shield_text":"15","name:be":"\u0432\u0443\u043b\u0456\u0446\u0430 \u0426\u0456\u043c\u0456\u0440\u0430\u0437\u0435\u0432\u0430","ref":"\u042015","id":41681001},"arcs":[29]},{"type":"LineString","properties":{"kind":"major_road","int_name":"vulica Karla Marksa","network":"by:national","sort_rank":380,"kind_detail":"primary","source":"openstreetmap.org","min_zoom":8.0,"landuse_kind":"residential","shield_text":"25","name:be":"\u0432\u0443\u043b\u0456\u0446\u0430 \u041a\u0430\u0440\u043b\u0430 \u041c\u0430\u0440\u043a\u0441\u0430","ref":"\u042025","id":25249224},"arcs":[30]},{"type":"MultiLineString","properties":{"bus_network":null,"int_name":"vulica Lienina","sort_rank":380,"kind_detail":"primary","kind":"major_road","source":"openstreetmap.org","min_zoom":8.0,"bus_shield_text":"14","name:be":"\u0432\u0443\u043b\u0456\u0446\u0430 \u041b\u0435\u043d\u0456\u043d\u0430","landuse_kind":"urban_area"},"arcs":[[31],[32]]},{"type":"LineString","properties":{"kind":"major_road","int_name":"Minskaja vulica","network":"by:national","sort_rank":380,"kind_detail":"primary","source":"openstreetmap.org","min_zoom":8.0,"shield_text":"19","name:be":"\u041c\u0456\u043d\u0441\u043a\u0430\u044f \u0432\u0443\u043b\u0456\u0446\u0430","ref":"\u042019","id":165802120},"arcs":[33]},{"type":"LineString","properties":{"kind":"major_road","int_name":"vulica Valadarskaha","network":"by:national","sort_rank":380,"kind_detail":"primary","source":"openstreetmap.org","min_zoom":8.0,"landuse_kind":"residential","shield_text":"25","name:be":"\u0432\u0443\u043b\u0456\u0446\u0430 \u0412\u0430\u043b\u0430\u0434\u0430\u0440\u0441\u043a\u0430\u0433\u0430","ref":"\u042025","id":77853254},"arcs":[34]},{"type":"LineString","properties":{"kind":"major_road","int_name":"Kamsamo\u013askaja vulica","sort_rank":380,"kind_detail":"primary","source":"openstreetmap.org","min_zoom":8.0,"landuse_kind":"urban_area","name:be":"\u041a\u0430\u043c\u0441\u0430\u043c\u043e\u043b\u044c\u0441\u043a\u0430\u044f \u0432\u0443\u043b\u0456\u0446\u0430"},"arcs":[35]},{"type":"MultiLineString","properties":{"kind":"major_road","network":"by:national","sort_rank":380,"kind_detail":"primary","source":"openstreetmap.org","min_zoom":8.0,"shield_text":"25","ref":"\u042025"},"arcs":[[36],[37],[38],[39],[40],[41],[42],[43],[44]]},{"type":"LineString","properties":{"kind":"major_road","int_name":"Parkavaja vulica","network":"by:national","sort_rank":380,"kind_detail":"primary","source":"openstreetmap.org","min_zoom":8.0,"landuse_kind":"residential","shield_text":"86","name:be":"\u041f\u0430\u0440\u043a\u0430\u0432\u0430\u044f \u0432\u0443\u043b\u0456\u0446\u0430","ref":"\u042086"},"arcs":[45]},{"type":"MultiLineString","properties":{"kind":"major_road","network":"by:national","sort_rank":380,"kind_detail":"primary","source":"openstreetmap.org","min_zoom":8.0,"shield_text":"26","ref":"\u042026"},"arcs":[[46],[47],[48]]},{"type":"LineString","properties":{"kind":"major_road","int_name":"Zavodskaja vulica","network":"by:national","sort_rank":380,"kind_detail":"primary","source":"openstreetmap.org","min_zoom":8.0,"landuse_kind":"residential","shield_text":"86","name:be":"\u0417\u0430\u0432\u043e\u0434\u0441\u043a\u0430\u044f \u0432\u0443\u043b\u0456\u0446\u0430","ref":"\u042086","id":30165951},"arcs":[49]},{"type":"MultiLineString","properties":{"sort_rank":380,"kind_detail":"primary","min_zoom":8.0,"kind":"major_road","source":"openstreetmap.org"},"arcs":[[50],[51],[52],[53],[54],[55]]},{"type":"LineString","properties":{"kind":"major_road","network":"by:national","sort_rank":380,"kind_detail":"primary","source":"openstreetmap.org","min_zoom":8.0,"landuse_kind":"residential","shield_text":"76","ref":"\u042076","id":207524346},"arcs":[56]},{"type":"MultiLineString","properties":{"kind":"major_road","network":"by:national","sort_rank":380,"kind_detail":"primary","source":"openstreetmap.org","min_zoom":8.0,"shield_text":"86","ref":"\u042086"},"arcs":[[57],[58],[59]]},{"type":"LineString","properties":{"kind":"major_road","network":"by:national","sort_rank":380,"kind_detail":"primary","source":"openstreetmap.org","min_zoom":8.0,"shield_text":"26","id":37745708},"arcs":[60]},{"type":"LineString","properties":{"source":"openstreetmap.org","kind":"major_road","sort_rank":380,"kind_detail":"primary","ref":"\u041d2711","min_zoom":8.0},"arcs":[61]},{"type":"MultiLineString","properties":{"kind":"major_road","network":"by:national","sort_rank":380,"kind_detail":"primary","source":"openstreetmap.org","min_zoom":8.0,"landuse_kind":"residential","shield_text":"109","ref":"\u0420109"},"arcs":[[62],[63]]},{"type":"LineString","properties":{"kind":"major_road","int_name":"Kastry\u010dnickaja vulica","network":"by:national","sort_rank":380,"kind_detail":"primary","source":"openstreetmap.org","min_zoom":8.0,"landuse_kind":"residential","shield_text":"25","name:be":"\u041a\u0430\u0441\u0442\u0440\u044b\u0447\u043d\u0456\u0446\u043a\u0430\u044f \u0432\u0443\u043b\u0456\u0446\u0430","ref":"\u042025"},"arcs":[64]},{"type":"LineString","properties":{"kind":"major_road","int_name":"Centra\u013anaja vulica","network":"by:national","sort_rank":380,"kind_detail":"primary","source":"openstreetmap.org","min_zoom":8.0,"shield_text":"113","name:be":"\u0426\u044d\u043d\u0442\u0440\u0430\u043b\u044c\u043d\u0430\u044f \u0432\u0443\u043b\u0456\u0446\u0430","ref":"\u0420113","id":259157570},"arcs":[65]},{"type":"MultiLineString","properties":{"kind":"major_road","network":"by:national","sort_rank":380,"kind_detail":"primary","source":"openstreetmap.org","min_zoom":8.0,"shield_text":"22","ref":"\u042022"},"arcs":[[66],[67],[68],[69]]},{"type":"MultiLineString","properties":{"kind":"major_road","int_name":"Viciebskaja vulica","network":"by:national","sort_rank":380,"kind_detail":"primary","source":"openstreetmap.org","min_zoom":8.0,"shield_text":"25","name:be":"\u0412\u0456\u0446\u0435\u0431\u0441\u043a\u0430\u044f \u0432\u0443\u043b\u0456\u0446\u0430","ref":"\u042025"},"arcs":[[70],[71]]},{"type":"LineString","properties":{"kind":"major_road","int_name":"vulica Mi\u010duryna","network":"by:national","sort_rank":380,"kind_detail":"primary","source":"openstreetmap.org","min_zoom":8.0,"landuse_kind":"residential","shield_text":"25","name:be":"\u0432\u0443\u043b\u0456\u0446\u0430 \u041c\u0456\u0447\u0443\u0440\u044b\u043d\u0430","ref":"\u042025"},"arcs":[72]},{"type":"MultiLineString","properties":{"kind":"major_road","network":"by:national","sort_rank":380,"kind_detail":"primary","source":"openstreetmap.org","min_zoom":8.0,"shield_text":"19","ref":"\u042019"},"arcs":[[73],[74],[75],[76]]},{"type":"LineString","properties":{"kind":"major_road","int_name":"praspiekt Teksty\u013a\u0161\u010dyka\u016d","network":"by:national","sort_rank":380,"kind_detail":"primary","source":"openstreetmap.org","min_zoom":8.0,"landuse_kind":"urban_area","shield_text":"76","name:be":"\u043f\u0440\u0430\u0441\u043f\u0435\u043a\u0442 \u0422\u044d\u043a\u0441\u0442\u044b\u043b\u044c\u0448\u0447\u044b\u043a\u0430\u045e","ref":"\u042076","id":95847473},"arcs":[77]},{"type":"LineString","properties":{"kind":"major_road","network":"by:national","sort_rank":380,"kind_detail":"primary","official_name":"\u041b\u0438\u043e\u0437\u043d\u043e \u2014 \u041e\u0440\u0435\u0445\u043e\u0432\u0441\u043a (\u0434\u043e \u0430\u0432\u0442\u043e\u043c\u043e\u0431\u0438\u043b\u044c\u043d\u043e\u0439 \u0434\u043e\u0440\u043e\u0433\u0438 \u041c-8)","source":"openstreetmap.org","min_zoom":8.0,"shield_text":"109","ref":"\u0420109","id":167427950},"arcs":[78]},{"type":"LineString","properties":{"kind":"major_road","int_name":"Kamsamo\u013askaja vulica","network":"by:national","sort_rank":380,"kind_detail":"primary","source":"openstreetmap.org","min_zoom":8.0,"landuse_kind":"urban_area","shield_text":"15","name:be":"\u041a\u0430\u043c\u0441\u0430\u043c\u043e\u043b\u044c\u0441\u043a\u0430\u044f \u0432\u0443\u043b\u0456\u0446\u0430","ref":"\u042015"},"arcs":[79]},{"type":"LineString","properties":{"kind":"major_road","int_name":"\u0160klo\u016dskaja vulica","network":"by:national","sort_rank":380,"kind_detail":"primary","source":"openstreetmap.org","min_zoom":8.0,"landuse_kind":"urban_area","shield_text":"76","name:be":"\u0428\u043a\u043b\u043e\u045e\u0441\u043a\u0430\u044f \u0432\u0443\u043b\u0456\u0446\u0430","ref":"\u042076"},"arcs":[80]},{"type":"LineString","properties":{"kind":"major_road","int_name":"vulica Hara\u016dca","network":"by:national","sort_rank":380,"kind_detail":"primary","source":"openstreetmap.org","min_zoom":8.0,"landuse_kind":"residential","shield_text":"113","name:be":"\u0432\u0443\u043b\u0456\u0446\u0430 \u0413\u0430\u0440\u0430\u045e\u0446\u0430","ref":"\u0420113","id":30659850},"arcs":[81]},{"type":"LineString","properties":{"bus_network":"national","network":"by:national","sort_rank":380,"kind_detail":"primary","kind":"major_road","source":"openstreetmap.org","min_zoom":8.0,"bus_shield_text":null,"shield_text":"70","ref":"\u042070"},"arcs":[82]},{"type":"LineString","properties":{"kind":"major_road","int_name":"vulica Hryca\u016dca","network":"by:national","sort_rank":380,"kind_detail":"primary","source":"openstreetmap.org","min_zoom":8.0,"landuse_kind":"urban_area","shield_text":"15","name:be":"\u0432\u0443\u043b\u0456\u0446\u0430 \u0413\u0440\u044b\u0446\u0430\u045e\u0446\u0430","ref":"\u042015"},"arcs":[83]},{"type":"MultiLineString","properties":{"kind":"major_road","network":"by:national","sort_rank":380,"kind_detail":"primary","source":"openstreetmap.org","min_zoom":8.0,"landuse_kind":"urban_area","shield_text":"15","ref":"\u042015"},"arcs":[[84],[85]]},{"type":"LineString","properties":{"kind":"major_road","network":"by:national","sort_rank":380,"kind_detail":"primary","source":"openstreetmap.org","min_zoom":8.0,"shield_text":"121","ref":"\u0420121"},"arcs":[86]},{"type":"LineString","properties":{"kind":"major_road","network":"by:national","sort_rank":380,"kind_detail":"primary","source":"openstreetmap.org","min_zoom":8.0,"landuse_kind":"residential","shield_text":"19","ref":"\u042019"},"arcs":[87]},{"type":"LineString","properties":{"kind":"major_road","network":"by:national","sort_rank":380,"kind_detail":"primary","source":"openstreetmap.org","min_zoom":8.0,"landuse_kind":"nature_reserve","shield_text":"109","ref":"\u0420109"},"arcs":[88]},{"type":"LineString","properties":{"kind":"major_road","int_name":"Minskaja vulica","network":"by:national","sort_rank":380,"kind_detail":"primary","source":"openstreetmap.org","min_zoom":8.0,"landuse_kind":"residential","shield_text":"19","name:be":"\u041c\u0456\u043d\u0441\u043a\u0430\u044f \u0432\u0443\u043b\u0456\u0446\u0430","ref":"\u042019","id":165802120},"arcs":[89]},{"type":"LineString","properties":{"kind":"major_road","int_name":"Savieckaja vulica","network":"by:national","sort_rank":380,"landuse_kind":"urban_area","source":"openstreetmap.org","min_zoom":8.0,"kind_detail":"primary","shield_text":"76","name:be":"\u0421\u0430\u0432\u0435\u0446\u043a\u0430\u044f \u0432\u0443\u043b\u0456\u0446\u0430","ref":"\u042076"},"arcs":[90]},{"type":"LineString","properties":{"kind":"major_road","int_name":"\u010cyhuna\u010dnaja vulica","network":"by:national","sort_rank":380,"kind_detail":"primary","source":"openstreetmap.org","min_zoom":8.0,"landuse_kind":"residential","shield_text":"121","name:be":"\u0427\u044b\u0433\u0443\u043d\u0430\u0447\u043d\u0430\u044f \u0432\u0443\u043b\u0456\u0446\u0430","ref":"\u0420121","id":215108821},"arcs":[91]},{"type":"MultiLineString","properties":{"kind":"major_road","network":"by:national","sort_rank":380,"kind_detail":"primary","source":"openstreetmap.org","min_zoom":8.0,"landuse_kind":"residential","shield_text":"113","ref":"\u0420113"},"arcs":[[92],[93]]},{"type":"LineString","properties":{"kind":"major_road","int_name":"Partyzanskaja vulica","network":"by:national","sort_rank":380,"kind_detail":"primary","source":"openstreetmap.org","min_zoom":8.0,"landuse_kind":"urban_area","shield_text":"15","name:be":"\u041f\u0430\u0440\u0442\u044b\u0437\u0430\u043d\u0441\u043a\u0430\u044f \u0432\u0443\u043b\u0456\u0446\u0430","ref":"\u042015","id":42045970},"arcs":[94]},{"type":"MultiLineString","properties":{"kind":"major_road","network":"by:national","sort_rank":381,"kind_detail":"trunk","source":"openstreetmap.org","min_zoom":8.0,"shield_text":"8","ref":"\u041c8"},"arcs":[[95],[96],[97],[98],[99],[100],[101],[102]]},{"type":"MultiLineString","properties":{"bus_network":null,"network":"by:national","sort_rank":381,"kind_detail":"trunk","kind":"major_road","source":"openstreetmap.org","min_zoom":8.0,"bus_shield_text":"14","shield_text":"8","ref":"\u041c8"},"arcs":[[103],[104]]},{"type":"LineString","properties":{"kind":"major_road","int_name":"Kastry\u010dnickaja vulica","network":"by:national","sort_rank":380,"kind_detail":"primary","source":"openstreetmap.org","min_zoom":8.0,"landuse_kind":"residential","shield_text":"86","name:be":"\u041a\u0430\u0441\u0442\u0440\u044b\u0447\u043d\u0456\u0446\u043a\u0430\u044f \u0432\u0443\u043b\u0456\u0446\u0430","ref":"\u042086","id":30664311},"arcs":[105]},{"type":"LineString","properties":{"kind":"major_road","network":"by:national","sort_rank":380,"kind_detail":"primary","source":"openstreetmap.org","min_zoom":8.0,"shield_text":"87","name:be":"\u0428\u0430\u0441\u044d\u0439\u043d\u0430\u044f \u0432\u0443\u043b\u0456\u0446\u0430","ref":"\u042087","id":165371675},"arcs":[106]},{"type":"LineString","properties":{"bus_network":null,"int_name":"Ar\u0161anskaja vulica","network":"by:national","sort_rank":380,"kind_detail":"primary","kind":"major_road","source":"openstreetmap.org","min_zoom":8.0,"bus_shield_text":"1","shield_text":"22","name:be":"\u0410\u0440\u0448\u0430\u043d\u0441\u043a\u0430\u044f \u0432\u0443\u043b\u0456\u0446\u0430","ref":"\u042022"},"arcs":[107]},{"type":"MultiLineString","properties":{"kind":"major_road","network":"e-road","sort_rank":381,"kind_detail":"trunk","source":"openstreetmap.org","min_zoom":8.0,"shield_text":"95","ref":"\u041c8"},"arcs":[[108],[109],[110],[111]]},{"type":"LineString","properties":{"source":"openstreetmap.org","kind":"major_road","sort_rank":380,"kind_detail":"primary","ref":"\u042086","min_zoom":8.0,"id":275619482},"arcs":[112]},{"type":"LineString","properties":{"kind":"major_road","int_name":"vulica Lienina","network":"by:national","sort_rank":380,"landuse_kind":"residential","source":"openstreetmap.org","min_zoom":8.0,"kind_detail":"primary","shield_text":"26","name:be":"\u0432\u0443\u043b\u0456\u0446\u0430 \u041b\u0435\u043d\u0456\u043d\u0430","ref":"\u042026"},"arcs":[113]},{"type":"LineString","properties":{"kind":"major_road","network":"by:national","sort_rank":380,"kind_detail":"primary","source":"openstreetmap.org","min_zoom":8.0,"shield_text":"15","name:be":"\u0410\u0440\u0448\u0430\u043d\u0441\u043a\u0430\u044f \u0432\u0443\u043b\u0456\u0446\u0430","ref":"\u042015","id":207270168},"arcs":[114]},{"type":"LineString","properties":{"kind":"major_road","int_name":"\u010cyrvonaarmiejskaja vulica","network":"by:national","sort_rank":380,"kind_detail":"primary","source":"openstreetmap.org","min_zoom":8.0,"landuse_kind":"residential","shield_text":"86","name:be":"\u0427\u044b\u0440\u0432\u043e\u043d\u0430\u0430\u0440\u043c\u0435\u0439\u0441\u043a\u0430\u044f \u0432\u0443\u043b\u0456\u0446\u0430","ref":"\u042086","id":30659853},"arcs":[115]},{"type":"LineString","properties":{"kind":"major_road","network":"by:national","sort_rank":380,"kind_detail":"primary","official_name":"\u041b\u0438\u043e\u0437\u043d\u043e \u2014 \u041e\u0440\u0435\u0445\u043e\u0432\u0441\u043a (\u0434\u043e \u0430\u0432\u0442\u043e\u043c\u043e\u0431\u0438\u043b\u044c\u043d\u043e\u0439 \u0434\u043e\u0440\u043e\u0433\u0438 \u041c-8)","source":"openstreetmap.org","min_zoom":8.0,"shield_text":"109","name:be":"\u0410\u0440\u0448\u0430\u043d\u0441\u043a\u0430\u044f \u0432\u0443\u043b\u0456\u0446\u0430","ref":"\u0420109","id":167432638},"arcs":[116]},{"type":"LineString","properties":{"bus_network":"national","network":"by:national","sort_rank":381,"kind_detail":"trunk","kind":"major_road","source":"openstreetmap.org","min_zoom":8.0,"bus_shield_text":null,"shield_text":"8","ref":"\u041c8"},"arcs":[117]},{"type":"LineString","properties":{"kind":"major_road","int_name":"\u0160asejnaja vulica","network":"by:national","sort_rank":380,"kind_detail":"primary","source":"openstreetmap.org","min_zoom":8.0,"landuse_kind":"residential","shield_text":"86","name:be":"\u0428\u0430\u0441\u044d\u0439\u043d\u0430\u044f \u0432\u0443\u043b\u0456\u0446\u0430","ref":"\u042086"},"arcs":[118]},{"type":"LineString","properties":{"kind":"major_road","int_name":"\u010cyrvonaflockaja vulica","network":"by:national","sort_rank":380,"kind_detail":"primary","source":"openstreetmap.org","min_zoom":8.0,"landuse_kind":"urban_area","shield_text":"22","name:be":"\u0427\u044b\u0440\u0432\u043e\u043d\u0430\u0444\u043b\u043e\u0446\u043a\u0430\u044f \u0432\u0443\u043b\u0456\u0446\u0430","ref":"\u042022","id":30095153},"arcs":[119]},{"type":"LineString","properties":{"source":"openstreetmap.org","kind":"major_road","kind_detail":"primary","sort_rank":380,"name:be":"\u041c\u0430\u0433\u0456\u043b\u0451\u045e\u0441\u043a\u0430\u044f \u0432\u0443\u043b\u0456\u0446\u0430","min_zoom":8.0,"id":263220149},"arcs":[120]},{"type":"LineString","properties":{"kind":"major_road","int_name":"vulica Valadarskaha","network":"by:national","sort_rank":380,"kind_detail":"primary","source":"openstreetmap.org","min_zoom":8.0,"shield_text":"25","name:be":"\u0432\u0443\u043b\u0456\u0446\u0430 \u0412\u0430\u043b\u0430\u0434\u0430\u0440\u0441\u043a\u0430\u0433\u0430","ref":"\u042025","id":77853254},"arcs":[121]},{"type":"MultiLineString","properties":{"kind":"highway","network":"by:national","sort_rank":383,"kind_detail":"motorway","source":"openstreetmap.org","min_zoom":8.0,"all_networks":["by:national","e-road"],"shield_text":"1","ref":"\u041c1","all_shield_texts":["1","30"]},"arcs":[[122],[123],[124],[125],[126]]},{"type":"MultiLineString","properties":{"source":"openstreetmap.org","kind":"major_road","network":"by:national","sort_rank":380,"kind_detail":"primary","min_zoom":8.0,"shield_text":"25"},"arcs":[[127],[128]]},{"type":"MultiLineString","properties":{"kind":"major_road","network":"by:national","sort_rank":380,"kind_detail":"primary","source":"openstreetmap.org","min_zoom":8.0,"landuse_kind":"residential","shield_text":"86","ref":"\u042086"},"arcs":[[129],[130]]},{"type":"LineString","properties":{"source":"openstreetmap.org","kind":"major_road","sort_rank":380,"kind_detail":"primary","ref":"\u041d3500","min_zoom":8.0},"arcs":[131]},{"type":"LineString","properties":{"kind":"major_road","int_name":"1-y Ar\u0161anski zavulak","network":"by:national","sort_rank":380,"kind_detail":"primary","source":"openstreetmap.org","min_zoom":8.0,"landuse_kind":"residential","shield_text":"19","name:be":"1-\u044b \u0410\u0440\u0448\u0430\u043d\u0441\u043a\u0456 \u0437\u0430\u0432\u0443\u043b\u0430\u043a","ref":"\u042019","id":160070440},"arcs":[132]},{"type":"LineString","properties":{"kind":"major_road","int_name":"vulica Lienina","network":"by:national","sort_rank":380,"kind_detail":"primary","official_name":"\u041b\u0438\u043e\u0437\u043d\u043e \u2014 \u041e\u0440\u0435\u0445\u043e\u0432\u0441\u043a (\u0434\u043e \u0430\u0432\u0442\u043e\u043c\u043e\u0431\u0438\u043b\u044c\u043d\u043e\u0439 \u0434\u043e\u0440\u043e\u0433\u0438 \u041c-8)","source":"openstreetmap.org","min_zoom":8.0,"landuse_kind":"residential","shield_text":"109","name:be":"\u0432\u0443\u043b\u0456\u0446\u0430 \u041b\u0435\u043d\u0456\u043d\u0430","ref":"\u0420109"},"arcs":[133]},{"type":"LineString","properties":{"kind":"major_road","network":"by:national","sort_rank":380,"kind_detail":"primary","source":"openstreetmap.org","min_zoom":8.0,"shield_text":"70","ref":"\u042070"},"arcs":[134]},{"type":"LineString","properties":{"bus_network":null,"int_name":"Vakza\u013anaja vulica","network":"by:national","sort_rank":380,"kind_detail":"primary","kind":"major_road","source":"openstreetmap.org","min_zoom":8.0,"bus_shield_text":"1","shield_text":"22","name:be":"\u0412\u0430\u043a\u0437\u0430\u043b\u044c\u043d\u0430\u044f \u0432\u0443\u043b\u0456\u0446\u0430","ref":"\u042022"},"arcs":[135]},{"type":"LineString","properties":{"kind":"major_road","int_name":"\u010cyrvonaarmiejskaja vulica","network":"by:national","sort_rank":380,"kind_detail":"primary","source":"openstreetmap.org","min_zoom":8.0,"shield_text":"86","name:be":"\u0427\u044b\u0440\u0432\u043e\u043d\u0430\u0430\u0440\u043c\u0435\u0439\u0441\u043a\u0430\u044f \u0432\u0443\u043b\u0456\u0446\u0430","ref":"\u042086","id":30659853},"arcs":[136]},{"type":"LineString","properties":{"source":"openstreetmap.org","kind":"major_road","sort_rank":380,"kind_detail":"primary","ref":"\u042077","min_zoom":8.0},"arcs":[137]},{"type":"LineString","properties":{"kind":"major_road","int_name":"vulica Ma\u0161erava","network":"by:national","sort_rank":380,"kind_detail":"primary","source":"openstreetmap.org","min_zoom":8.0,"landuse_kind":"residential","shield_text":"113","name:be":"\u0432\u0443\u043b\u0456\u0446\u0430 \u041c\u0430\u0448\u044d\u0440\u0430\u0432\u0430","ref":"\u0420113","id":193052386},"arcs":[138]},{"type":"LineString","properties":{"kind":"major_road","int_name":"Ar\u0161anskaja vulica","network":"by:national","sort_rank":380,"kind_detail":"primary","source":"openstreetmap.org","min_zoom":8.0,"shield_text":"22","name:be":"\u0410\u0440\u0448\u0430\u043d\u0441\u043a\u0430\u044f \u0432\u0443\u043b\u0456\u0446\u0430","ref":"\u042022"},"arcs":[139]},{"type":"LineString","properties":{"kind":"major_road","int_name":"Savieckaja vulica","sort_rank":380,"kind_detail":"primary","source":"openstreetmap.org","min_zoom":8.0,"landuse_kind":"urban_area","name:be":"\u0421\u0430\u0432\u0435\u0446\u043a\u0430\u044f \u0432\u0443\u043b\u0456\u0446\u0430"},"arcs":[140]},{"type":"MultiLineString","properties":{"kind":"major_road","network":"by:national","sort_rank":381,"kind_detail":"trunk","source":"openstreetmap.org","min_zoom":8.0,"shield_text":"1","ref":"\u041c1"},"arcs":[[141],[142]]},{"type":"LineString","properties":{"kind":"major_road","int_name":"\u0160klo\u016dskaja vulica","network":"by:national","sort_rank":380,"kind_detail":"primary","source":"openstreetmap.org","min_zoom":8.0,"shield_text":"76","name:be":"\u0428\u043a\u043b\u043e\u045e\u0441\u043a\u0430\u044f \u0432\u0443\u043b\u0456\u0446\u0430","ref":"\u042076","id":225174306},"arcs":[143]},{"type":"LineString","properties":{"source":"openstreetmap.org","kind":"major_road","sort_rank":380,"kind_detail":"primary","ref":"\u041d2700","min_zoom":8.0},"arcs":[144]},{"type":"MultiLineString","properties":{"kind":"major_road","int_name":"Viciebskaja vulica","network":"by:national","sort_rank":380,"kind_detail":"primary","source":"openstreetmap.org","min_zoom":8.0,"landuse_kind":"residential","shield_text":"25","name:be":"\u0412\u0456\u0446\u0435\u0431\u0441\u043a\u0430\u044f \u0432\u0443\u043b\u0456\u0446\u0430","ref":"\u042025","id":30411944},"arcs":[[145],[146]]},{"type":"LineString","properties":{"bus_network":null,"int_name":"vulica Miru","network":"by:national","sort_rank":380,"kind_detail":"primary","kind":"major_road","source":"openstreetmap.org","min_zoom":8.0,"bus_shield_text":"14","shield_text":"15","name:be":"\u0432\u0443\u043b\u0456\u0446\u0430 \u041c\u0456\u0440\u0443","landuse_kind":"urban_area","ref":"\u042015"},"arcs":[147]},{"type":"MultiLineString","properties":{"source":"openstreetmap.org","kind":"major_road","landuse_kind":"residential","sort_rank":380,"kind_detail":"primary","min_zoom":8.0},"arcs":[[148],[149]]},{"type":"LineString","properties":{"kind":"major_road","int_name":"vulica Lienina","network":"by:national","sort_rank":380,"kind_detail":"primary","source":"openstreetmap.org","min_zoom":8.0,"shield_text":"26","name:be":"\u0432\u0443\u043b\u0456\u0446\u0430 \u041b\u0435\u043d\u0456\u043d\u0430","ref":"\u042026","id":402176822},"arcs":[150]},{"type":"MultiLineString","properties":{"kind":"major_road","network":"by:national","sort_rank":381,"landuse_kind":"urban_area","source":"openstreetmap.org","min_zoom":8.0,"kind_detail":"trunk","shield_text":"8","ref":"\u041c8"},"arcs":[[151],[152],[153],[154]]},{"type":"MultiLineString","properties":{"kind":"major_road","network":"by:national","sort_rank":380,"kind_detail":"primary","source":"openstreetmap.org","min_zoom":8.0,"shield_text":"113","ref":"\u0420113"},"arcs":[[155],[156]]},{"type":"LineString","properties":{"kind":"major_road","network":"by:national","sort_rank":380,"kind_detail":"primary","official_name":"\u041b\u0438\u043e\u0437\u043d\u043e \u2014 \u041e\u0440\u0435\u0445\u043e\u0432\u0441\u043a (\u0434\u043e \u0430\u0432\u0442\u043e\u043c\u043e\u0431\u0438\u043b\u044c\u043d\u043e\u0439 \u0434\u043e\u0440\u043e\u0433\u0438 \u041c-8)","source":"openstreetmap.org","min_zoom":8.0,"landuse_kind":"nature_reserve","shield_text":"109","ref":"\u0420109","id":167427950},"arcs":[157]},{"type":"MultiLineString","properties":{"kind":"major_road","network":"by:national","sort_rank":380,"kind_detail":"primary","source":"openstreetmap.org","min_zoom":8.0,"shield_text":"76","ref":"\u042076"},"arcs":[[158],[159],[160],[161]]},{"type":"MultiLineString","properties":{"bus_network":null,"network":"by:national","sort_rank":381,"landuse_kind":"urban_area","kind":"major_road","source":"openstreetmap.org","min_zoom":8.0,"bus_shield_text":"14","shield_text":"8","kind_detail":"trunk","ref":"\u041c8"},"arcs":[[162],[163],[164]]},{"type":"LineString","properties":{"kind":"major_road","int_name":"Horackaja vulica","network":"by:national","sort_rank":380,"kind_detail":"primary","source":"openstreetmap.org","min_zoom":8.0,"landuse_kind":"urban_area","shield_text":"15","name:be":"\u0413\u043e\u0440\u0430\u0446\u043a\u0430\u044f \u0432\u0443\u043b\u0456\u0446\u0430","ref":"\u042015","id":100792293},"arcs":[165]},{"type":"LineString","properties":{"kind":"major_road","int_name":"vulica Enhie\u013asa","sort_rank":380,"kind_detail":"primary","source":"openstreetmap.org","min_zoom":8.0,"landuse_kind":"residential","name:be":"\u0432\u0443\u043b\u0456\u0446\u0430 \u042d\u043d\u0433\u0435\u043b\u044c\u0441\u0430"},"arcs":[166]},{"type":"LineString","properties":{"kind":"major_road","network":"by:national","sort_rank":380,"kind_detail":"primary","source":"openstreetmap.org","min_zoom":8.0,"landuse_kind":"urban_area","shield_text":"22","ref":"\u042022","id":483331902},"arcs":[167]},{"type":"LineString","properties":{"kind":"major_road","int_name":"\u0160asejnaja vulica","network":"by:national","sort_rank":380,"kind_detail":"primary","source":"openstreetmap.org","min_zoom":8.0,"shield_text":"86","name:be":"\u0428\u0430\u0441\u044d\u0439\u043d\u0430\u044f \u0432\u0443\u043b\u0456\u0446\u0430","ref":"\u042086","id":30382342},"arcs":[168]},{"type":"LineString","properties":{"bus_network":null,"network":"by:national","sort_rank":380,"kind_detail":"primary","kind":"major_road","source":"openstreetmap.org","min_zoom":8.0,"bus_shield_text":"1","shield_text":"22","ref":"\u042022"},"arcs":[169]},{"type":"LineString","properties":{"kind":"major_road","int_name":"vulica Miru","network":"by:national","sort_rank":380,"kind_detail":"primary","source":"openstreetmap.org","min_zoom":8.0,"landuse_kind":"urban_area","shield_text":"15","name:be":"\u0432\u0443\u043b\u0456\u0446\u0430 \u041c\u0456\u0440\u0443","ref":"\u042015","id":279873752},"arcs":[170]},{"type":"LineString","properties":{"kind":"major_road","int_name":"Pralietarskaja vulica","sort_rank":380,"kind_detail":"primary","source":"openstreetmap.org","min_zoom":8.0,"landuse_kind":"residential","name:be":"\u041f\u0440\u0430\u043b\u0435\u0442\u0430\u0440\u0441\u043a\u0430\u044f \u0432\u0443\u043b\u0456\u0446\u0430"},"arcs":[171]},{"type":"MultiLineString","properties":{"kind":"major_road","network":"by:national","sort_rank":380,"kind_detail":"primary","source":"openstreetmap.org","min_zoom":8.0,"shield_text":"109","ref":"\u0420109"},"arcs":[[172],[173],[174],[175]]},{"type":"MultiLineString","properties":{"kind":"major_road","network":"by:national","sort_rank":380,"kind_detail":"primary","source":"openstreetmap.org","min_zoom":8.0,"landuse_kind":"residential","shield_text":"25","ref":"\u042025"},"arcs":[[176],[177]]},{"type":"LineString","properties":{"kind":"major_road","int_name":"Horackaja vulica","network":"by:national","sort_rank":380,"kind_detail":"primary","source":"openstreetmap.org","min_zoom":8.0,"shield_text":"15","name:be":"\u0413\u043e\u0440\u0430\u0446\u043a\u0430\u044f \u0432\u0443\u043b\u0456\u0446\u0430","ref":"\u042015","id":100792293},"arcs":[178]},{"type":"LineString","properties":{"kind":"major_road","int_name":"Lieninskaja vulica","network":"by:national","sort_rank":380,"kind_detail":"primary","source":"openstreetmap.org","min_zoom":8.0,"landuse_kind":"residential","shield_text":"76","name:be":"\u041b\u0435\u043d\u0456\u043d\u0441\u043a\u0430\u044f \u0432\u0443\u043b\u0456\u0446\u0430","ref":"\u042076"},"arcs":[179]},{"type":"MultiLineString","properties":{"kind":"major_road","int_name":"vulica Lienina","network":"by:national","sort_rank":380,"kind_detail":"primary","source":"openstreetmap.org","min_zoom":8.0,"landuse_kind":"urban_area","shield_text":"15","name:be":"\u0432\u0443\u043b\u0456\u0446\u0430 \u041b\u0435\u043d\u0456\u043d\u0430","ref":"\u042015"},"arcs":[[180],[181]]},{"type":"LineString","properties":{"kind":"major_road","int_name":"\u010cyhuna\u010dnaja vulica","network":"by:national","sort_rank":380,"kind_detail":"primary","source":"openstreetmap.org","min_zoom":8.0,"shield_text":"121","name:be":"\u0427\u044b\u0433\u0443\u043d\u0430\u0447\u043d\u0430\u044f \u0432\u0443\u043b\u0456\u0446\u0430","ref":"\u0420121","id":215108821},"arcs":[182]},{"type":"LineString","properties":{"source":"openstreetmap.org","kind":"major_road","name:be":"\u0428\u043a\u043e\u043b\u044c\u043d\u0430\u044f \u0432\u0443\u043b\u0456\u0446\u0430","sort_rank":380,"kind_detail":"primary","min_zoom":8.0},"arcs":[183]},{"type":"LineString","properties":{"source":"openstreetmap.org","kind":"major_road","landuse_kind":"urban_area","sort_rank":380,"kind_detail":"primary","min_zoom":8.0},"arcs":[184]},{"type":"LineString","properties":{"kind":"major_road","int_name":"Mahilio\u016dskaja vulica","network":"by:national","sort_rank":380,"kind_detail":"primary","source":"openstreetmap.org","min_zoom":8.0,"shield_text":"26","name:be":"\u041c\u0430\u0433\u0456\u043b\u0451\u045e\u0441\u043a\u0430\u044f \u0432\u0443\u043b\u0456\u0446\u0430","ref":"\u042026","id":80216882},"arcs":[185]},{"type":"LineString","properties":{"kind":"major_road","int_name":"vulica Dziar\u017eynskaha","sort_rank":380,"kind_detail":"primary","source":"openstreetmap.org","min_zoom":8.0,"name:be":"\u0432\u0443\u043b\u0456\u0446\u0430 \u0414\u0437\u044f\u0440\u0436\u044b\u043d\u0441\u043a\u0430\u0433\u0430","id":77853259},"arcs":[186]},{"type":"LineString","properties":{"source":"openstreetmap.org","kind":"major_road","landuse_kind":"residential","sort_rank":380,"kind_detail":"primary","name:be":"\u041c\u0430\u0433\u0456\u043b\u0451\u045e\u0441\u043a\u0430\u044f \u0432\u0443\u043b\u0456\u0446\u0430","min_zoom":8.0},"arcs":[187]},{"type":"MultiLineString","properties":{"kind":"highway","network":"by:national","sort_rank":383,"kind_detail":"motorway","is_bicycle_related":true,"source":"openstreetmap.org","min_zoom":8.0,"all_networks":["by:national","e-road"],"shield_text":"1","ref":"\u041c1","all_shield_texts":["1","30"]},"arcs":[[188],[189],[190]]},{"type":"MultiLineString","properties":{"kind":"major_road","network":"by:national","sort_rank":380,"kind_detail":"primary","source":"openstreetmap.org","min_zoom":8.0,"shield_text":"77","ref":"\u042077"},"arcs":[[191],[192]]},{"type":"LineString","properties":{"kind":"major_road","network":"by:national","sort_rank":380,"kind_detail":"primary","source":"openstreetmap.org","min_zoom":8.0,"shield_text":"76","name:be":"\u0432\u0443\u043b\u0456\u0446\u0430 70 \u0433\u043e\u0434 \u0412\u044f\u043b\u0456\u043a\u0430\u0439 \u041f\u0435\u0440\u0430\u043c\u043e\u0433\u0456","ref":"\u042076","id":205325080},"arcs":[193]},{"type":"LineString","properties":{"kind":"major_road","int_name":"Savieckaja vulica","network":"by:national","sort_rank":380,"kind_detail":"primary","source":"openstreetmap.org","min_zoom":8.0,"shield_text":"26","name:be":"\u0421\u0430\u0432\u0435\u0446\u043a\u0430\u044f \u0432\u0443\u043b\u0456\u0446\u0430","ref":"\u042026","id":80216881},"arcs":[194]},{"type":"LineString","properties":{"kind":"major_road","int_name":"vulica \u010cyrvonaja Slabada","network":"by:national","sort_rank":380,"kind_detail":"primary","source":"openstreetmap.org","min_zoom":8.0,"landuse_kind":"residential","shield_text":"121","name:be":"\u0432\u0443\u043b\u0456\u0446\u0430 \u0427\u044b\u0440\u0432\u043e\u043d\u0430\u044f \u0421\u043b\u0430\u0431\u0430\u0434\u0430","ref":"\u0420121","id":178676915},"arcs":[195]},{"type":"MultiLineString","properties":{"kind":"major_road","network":"by:national","sort_rank":380,"kind_detail":"primary","source":"openstreetmap.org","min_zoom":8.0,"shield_text":"15","ref":"\u042015"},"arcs":[[196],[197],[198]]},{"type":"LineString","properties":{"kind":"major_road","int_name":"vulica Dziar\u017eynskaha","sort_rank":380,"kind_detail":"primary","source":"openstreetmap.org","min_zoom":8.0,"landuse_kind":"residential","name:be":"\u0432\u0443\u043b\u0456\u0446\u0430 \u0414\u0437\u044f\u0440\u0436\u044b\u043d\u0441\u043a\u0430\u0433\u0430","id":77853259},"arcs":[199]},{"type":"LineString","properties":{"kind":"major_road","int_name":"Dubrovienskaja vulica","network":"by:national","sort_rank":380,"kind_detail":"primary","source":"openstreetmap.org","min_zoom":8.0,"landuse_kind":"urban_area","shield_text":"22","name:be":"\u0414\u0443\u0431\u0440\u043e\u0432\u0435\u043d\u0441\u043a\u0430\u044f \u0432\u0443\u043b\u0456\u0446\u0430","ref":"\u042022","id":95784662},"arcs":[200]},{"type":"LineString","properties":{"kind":"major_road","int_name":"Mahilio\u016dskaja vulica","sort_rank":380,"kind_detail":"primary","source":"openstreetmap.org","min_zoom":8.0,"landuse_kind":"urban_area","name:be":"\u041c\u0430\u0433\u0456\u043b\u0451\u045e\u0441\u043a\u0430\u044f \u0432\u0443\u043b\u0456\u0446\u0430"},"arcs":[201]}]},"earth":{"type":"GeometryCollection","geometries":[{"type":"Polygon","properties":{"sort_rank":10,"source":"naturalearthdata.com","kind":"earth","min_zoom":0.0,"id":4769},"arcs":[[202]]}]},"landuse":{"type":"GeometryCollection","geometries":[{"type":"MultiPolygon","properties":{"source":"naturalearthdata.com","kind":"urban_area","name":"","area":739159569,"sort_rank":11,"min_zoom":4.0},"arcs":[[[203]]]},{"type":"MultiPolygon","properties":{"source":"openstreetmap.org","kind":"residential","tier":2,"area":301611055,"sort_rank":20,"min_zoom":8.0},"arcs":[[[204]],[[205]],[[206]],[[207]],[[208]],[[209]],[[210]],[[211]],[[212]]]},{"type":"MultiPolygon","properties":{"kind":"nature_reserve","protect_class":"4","area":1711941121,"sort_rank":23,"source":"openstreetmap.org","min_zoom":6.0,"tier":2,"osm_relation":true},"arcs":[[[213]]]}]}},"type":"Topology","transform":{"translate":[29.53125,54.1624339681],"scale":[0.0003433228,0.0001990185]},"arcs":[[[4096,2941],[-20,18],[-24,-19],[-24,42],[-53,-8],[-186,173],[-209,74],[-26,30],[118,327],[87,27],[-22,70],[60,69],[-18,90],[-31,15],[2,59],[46,42],[215,2],[-18,49],[37,16],[66,-14]],[[4096,4039],[0,56]],[[4096,4003],[-66,14],[-37,-16],[18,-49],[-215,-2],[-46,-42],[-2,-59],[31,-15],[18,-90],[-60,-69],[22,-70],[-87,-27],[-118,-327],[26,-30],[209,-74],[186,-173],[53,8],[24,-42],[24,19],[20,-18]],[[4096,4095],[0,-56]],[[0,728],[32,18],[80,-28],[-32,111],[48,83],[128,27],[0,-27],[112,-56],[96,-110],[64,55],[96,0],[64,-27],[32,82],[96,-55],[80,83],[80,-55],[48,55],[0,55],[48,0],[16,-55],[-26,-38],[58,-100],[-32,-28],[99,-66],[109,11],[0,-83],[96,0],[0,-27],[48,27],[-64,138],[0,56],[64,0],[48,-56],[32,56],[64,0],[0,27],[-80,28],[-32,83],[16,27],[80,-27],[64,-83],[27,24],[-6,51],[41,55],[-78,91],[32,55],[128,0],[112,-166],[15,-79],[81,24],[16,55],[-32,55],[32,28],[80,-55],[72,2],[56,-30],[32,166],[64,27],[16,-27],[-32,-83],[17,-88],[-62,-79],[-53,-25],[-51,-160],[85,-34],[32,27],[96,-55],[48,138],[48,28],[80,-28],[32,28],[0,82],[32,28],[48,-28],[27,-165],[53,0],[16,-138],[80,55],[16,-83],[64,-27],[-32,0],[48,-56],[16,28],[-32,83],[112,0],[-96,55],[112,110],[-48,28],[80,138],[64,0],[16,55],[-112,83],[0,28],[203,79],[41,-23],[108,54],[-48,110],[32,0],[0,56],[129,-10],[47,-46],[112,0],[-16,-82],[144,27],[112,-55],[80,55],[-16,28],[48,83],[0,55],[64,55],[32,-55]],[[0,844],[31,45],[213,59],[108,89],[107,45],[41,76],[169,51],[300,230],[209,95],[114,-9],[542,76],[329,173],[225,-2]],[[2447,1794],[-57,-21]],[[2576,1896],[49,271],[27,33]],[[4096,2621],[-106,17],[-406,-69],[-197,-68],[-386,-201],[-319,-81],[-59,-67]],[[0,844],[31,45],[213,59],[108,89],[107,45],[41,76],[169,51],[300,230],[209,95],[114,-9],[542,76],[329,173],[225,-2]],[[2390,1773],[23,6]],[[0,836],[30,52],[214,60],[108,89],[107,45],[41,76],[169,51],[300,230],[209,95],[114,-9],[542,76],[329,173],[197,-12],[118,49],[105,94],[43,265],[54,48],[319,81],[388,202],[199,69],[404,69],[106,-17]],[[2216,0],[-5,142],[-44,66],[-2,119],[-62,132],[-11,156],[80,200],[104,546],[55,121],[75,82],[18,66],[58,36],[-51,115],[152,124],[42,262],[27,33]],[[4096,2621],[-106,17],[-406,-69],[-197,-68],[-386,-201],[-319,-81],[-59,-67]],[[0,844],[31,45],[213,59],[108,89],[107,45],[41,76],[169,51],[300,230],[209,95],[114,-9],[542,76],[329,173],[225,-2]],[[2447,1794],[-57,-21]],[[2576,1896],[49,271],[27,33]],[[4096,2621],[-106,17],[-406,-69],[-197,-68],[-386,-201],[-319,-81],[-59,-67]],[[1883,4096],[-3,-63],[20,-146],[50,-96],[-20,-200],[21,-120],[52,-174],[147,-224],[33,-250],[106,-124],[4,-126],[169,-209],[100,-224],[-16,-77],[30,-65],[-12,-55]],[[2390,1773],[51,20]],[[2471,1807],[-23,-10]],[[2516,1857],[-17,-27]],[[0,839],[30,49],[214,60],[108,89],[107,45],[41,76],[169,51],[300,230],[209,95],[114,-9],[542,76],[312,168],[173,-1]],[[4096,2621],[-106,17],[-406,-69],[-197,-68],[-386,-201],[-319,-81],[-56,-49],[-42,-264],[-107,-96],[-118,-48],[-196,12],[-329,-174],[-542,-75],[-114,9],[-208,-95],[-301,-230],[-169,-51],[-41,-76],[-107,-45],[-108,-89],[-214,-60],[-30,-53]],[[0,839],[30,49],[214,60],[108,89],[107,45],[41,76],[169,51],[300,230],[209,95],[114,-9],[542,76],[312,168],[173,-1]],[[2431,1760],[-27,-4]],[[2614,2426],[-218,1293],[-99,377]],[[2634,2315],[-9,51]],[[2181,298],[29,-64]],[[2404,1756],[-14,-2]],[[510,3270],[13,-78]],[[2686,1941],[-72,-189]],[[2615,1751],[72,190]],[[577,1234]],[[493,1289],[-20,-46]],[[2594,1745],[12,-6]],[[522,1484],[15,-57],[-34,-115]],[[521,1487],[1,-3]],[[523,1505],[-1,-3]],[[522,1484],[2,3]],[[522,1492],[1,5]],[[523,3191],[35,-140],[132,-151],[25,-319],[94,-183],[-80,-104],[-119,-56],[3,-95],[-39,-138],[14,-104],[-77,-256],[12,-140]],[[524,1502],[-1,3]],[[848,4031],[-33,-84],[-105,-41],[-111,-99],[15,-80],[-51,-359]],[[1252,4096],[-343,-54]],[[2031,3411],[-60,-8]],[[576,1191],[150,-141],[19,-190],[-29,-178],[42,-114]],[[807,368],[62,-162],[18,-178]],[[888,26],[11,-26]],[[460,3250],[-42,10]],[[2253,219],[172,59],[249,2]],[[2646,1459],[-5,137]],[[2648,1408],[-1,21]],[[2654,1233],[-1,27]],[[2654,1233],[1,-38]],[[2656,1173],[-2,60]],[[2252,162],[1,-3]],[[398,3263],[-73,-35],[-127,4],[-198,-85]],[[1914,3434],[-48,-57],[-117,-40],[-95,24],[-282,-3],[-39,32],[-216,-69],[-96,-7],[-313,64],[-106,-50]],[[2548,3309],[-76,-49],[-136,19],[-66,82],[-64,37],[-164,15]],[[887,28],[-1,-1],[2,-1],[0,1],[-1,1]],[[3481,2060],[-13,-32],[-73,-27],[-81,33]],[[2828,2559],[-18,-15]],[[2849,2687],[-1,-1]],[[510,3270],[17,6]],[[479,3331],[-17,40]],[[2704,1737],[286,68],[318,225]],[[3294,2495],[2,-1]],[[3296,2494],[1,2]],[[3328,2130],[-32,364]],[[543,3274],[1,0]],[[909,4042],[-61,-11]],[[563,3366],[-18,-93]],[[418,1186],[-102,-36],[-316,-214]],[[1109,1562],[-177,-143],[-355,-185]],[[1109,1562],[13,11]],[[1119,1584],[-10,-22]],[[2556,1700],[-23,-32]],[[3333,3862],[-17,-8]],[[2611,1735],[-5,4]],[[2533,1668],[-78,-25]],[[494,3307],[-15,22]],[[2701,80],[61,-16],[335,24],[121,33],[91,65],[256,43],[316,-34],[215,29]],[[2489,1755],[-58,5]],[[2509,1769],[-8,-9]],[[2640,1713],[-29,22]],[[2167,241],[-118,12],[-195,89],[-213,44],[-67,-81],[-88,28],[-106,-25],[-175,27],[-32,-21],[-356,27]],[[489,1210],[-71,-24]],[[3296,3844],[-135,-137],[-24,-86],[-83,-113],[1,-93]],[[577,1234],[-73,-18]],[[2583,1732],[-27,-32]],[[2197,228],[-25,11]],[[479,3329],[0,1]],[[495,3306],[-1,1]],[[2501,1760],[-12,-5]],[[2381,4087],[-2,9]],[[2640,2282],[13,412],[-151,931],[-39,81],[-75,358]],[[2640,2282],[39,-235]],[[2679,2047],[-39,235]],[[2655,1195],[84,95],[29,74]],[[2669,748],[-13,417]],[[2690,80],[-19,610]],[[2797,1448],[61,180],[-32,131],[-90,136]],[[2679,2047],[6,-34]],[[2685,2013],[-6,34]],[[460,3250],[50,20]],[[2625,2366],[-11,60]],[[3321,2039],[33,26]],[[2388,4064],[-7,23]],[[2656,1165],[-1,30]],[[2671,690],[-2,58]],[[2768,1364],[29,84]],[[2478,3261],[-6,-1]],[[473,1243],[101,-50]],[[3952,819],[-36,29]],[[585,3314],[-37,-31]],[[3052,3405],[-5,-81]],[[2692,0],[-2,80]],[[1971,3403],[-48,30]],[[2639,1712],[-2,9]],[[2653,1260],[0,2]],[[503,1312],[-10,-23]],[[1782,1780],[-82,-54],[-188,-31],[-405,-119],[-286,9],[-301,-90],[-477,-171],[-43,-24]],[[0,1299],[43,25],[778,261],[286,-10],[405,119],[188,31],[82,54]],[[2385,2179],[13,19]],[[2634,2315],[-31,-7]],[[2603,2308],[31,7]],[[523,1497],[2,3],[-2,3],[-3,-3],[3,-3]],[[523,1486],[2,3],[-3,3],[-2,-3],[3,-3]],[[418,3260],[-20,3]],[[2042,3413],[-11,-2]],[[431,1306],[-65,137]],[[504,1216],[-15,-6]],[[2848,2686],[-29,-16],[-16,-60],[25,-51]],[[3218,121],[-20,-4]],[[3354,2065],[-24,52]],[[602,3328],[-17,-14]],[[2254,151],[-2,-1]],[[511,3270],[-16,36]],[[3308,2030],[13,9]],[[2583,1732],[11,13]],[[4096,2652],[-453,-34],[-327,-113],[-226,-92],[-456,-98]],[[2634,2315],[458,98],[551,204],[453,34]],[[2455,1643],[-26,-14]],[[3481,2060],[503,92],[112,54]],[[527,3276],[16,-2]],[[544,3274],[1,-1]],[[2615,1751],[-75,14]],[[2253,219]],[[2648,1406],[0,2]],[[574,1193],[2,-2]],[[2688,1994],[0,5]],[[2693,1967],[-2,14]],[[2693,1969],[0,-2]],[[2736,1895],[-43,72]],[[462,3371],[-51,84],[8,93],[-47,154],[-49,28],[-64,366]],[[479,3330],[0,1]],[[3316,3854],[-20,-10]],[[2169,849],[-341,-160],[291,-261],[39,-82]],[[2169,849],[2,5]],[[2429,1629],[-136,-162],[14,-28],[-136,-585]],[[2253,159],[14,-159]],[[2685,2013],[8,-44]],[[2688,1999],[-3,14]],[[2691,1981],[-3,13]],[[2671,1697],[-31,16]],[[418,1186],[55,57]],[[2683,1732],[21,5]],[[1923,3433],[-9,1]],[[3330,2117],[-2,13]],[[2540,1765],[-31,4]],[[2226,201],[27,18]],[[2810,2544],[-105,-36],[-65,11]],[[3047,3324],[-133,-249],[44,-264],[-42,-90],[-67,-34]],[[3055,3415],[-3,-10]],[[3592,4096],[-22,-39],[-146,-91],[-10,-57],[-81,-47]],[[523,3192],[0,-1]],[[563,3368],[0,-2]],[[2679,1693],[-8,4]],[[2210,234],[42,-72]],[[2614,1752],[-8,-13]],[[2606,1739],[9,12]],[[2172,239],[-5,2]],[[2647,1429],[-1,30]],[[2641,1596],[0,27]],[[770,406],[37,-38]],[[432,1305],[-1,1]],[[2653,1262],[-5,144]],[[2603,2308],[-42,-9],[-19,-9],[-136,-82],[-145,-168],[-76,-52],[-248,-76],[-155,-132]],[[1782,1779],[155,132],[249,77],[75,52],[111,121],[13,18]],[[2398,2198],[205,110]],[[886,27],[-165,-27]],[[2254,151],[-57,-43],[-231,-65],[-135,2],[-51,27],[-282,-66],[-76,14],[-117,98],[-150,-51],[-267,-40]],[[2158,346],[23,-48]],[[758,568],[12,-162]],[[2210,234],[-13,-6]],[[2390,1754],[-69,-7],[-40,59],[-226,83],[-28,65],[-82,71],[-508,135],[-480,167],[-150,57],[-204,124],[-603,181]],[[3916,848],[-189,172],[-90,2],[-94,110],[-104,34],[-123,114],[-208,120],[-116,123],[-313,170]],[[4096,733],[-144,86]],[[473,1243],[-41,62]],[[2637,1721],[46,11]],[[2641,1623],[-4,87]],[[4096,4096],[0,-4096],[-4096,0],[0,4096],[4096,0]],[[2704,1810],[0,-111],[-32,0],[-33,-112],[-28,-4],[-69,60],[-162,0],[35,163],[43,58],[52,2],[16,-60],[41,47],[40,181],[42,4],[87,-60],[0,-112],[-32,-56]],[[2172,234],[2,62],[29,9],[2,-32],[47,-35],[7,-85],[-87,81]],[[657,281],[29,8],[-8,39],[72,15],[9,-27],[-24,-14],[39,-63],[-85,-18],[-32,60]],[[406,1218],[18,32],[33,-11],[-47,26],[16,42],[55,-18],[13,30],[-1,-34],[55,-24],[-1,-34],[30,8],[-9,-31],[55,33],[54,-8],[-6,30],[31,-13],[-27,-70],[-27,-4],[-47,32],[-105,-45],[-52,35],[-26,-8],[-12,32]],[[2606,1292],[36,9],[4,107],[38,1],[10,-43],[-24,-32],[32,4],[2,-30],[-35,-3],[50,-32],[-99,-16],[-14,35]],[[2231,1565],[3,37],[45,32],[68,-13],[-21,-76],[-62,-10],[-33,30]],[[2209,2339],[54,41],[31,-5],[14,-126],[-13,-10],[-53,60],[-29,-7],[-4,47]],[[2771,2552],[10,138],[59,15],[24,-49],[-42,-55],[31,-65],[-82,16]],[[395,3267],[85,63],[64,-57],[-19,79],[21,20],[22,-5],[2,-58],[45,15],[-63,-57],[-28,-76],[-26,11],[-2,33],[-15,-31],[-52,2],[-34,61]],[[1913,3433],[36,1],[9,70],[20,-61],[28,31],[26,-60],[23,-3],[-121,-36],[-21,58]],[[2925,3627],[21,46],[18,-5],[4,75],[29,31],[-34,31],[44,0],[20,-28],[9,28],[44,-5],[-15,42],[107,-42],[115,67],[52,-23],[37,-72],[-50,-87],[80,-15],[26,52],[12,-15],[-2,-46],[-93,-29],[25,-36],[-6,-64],[-63,14],[-76,-41],[-25,-56],[30,-11],[20,-72],[44,-5],[9,51],[22,5],[33,-44],[-27,-3],[-42,-68],[-62,15],[45,-89],[-34,-12],[26,-13],[-40,-32],[12,-19],[40,15],[2,-23],[-145,-101],[-45,61],[-73,21],[-22,-51],[-26,5],[-11,86],[30,9],[59,148],[44,-19],[-1,44],[-36,31],[20,29],[-90,32],[40,-3],[-31,62],[26,17],[-3,41],[-24,3],[0,34],[-64,9],[-5,25]]]}