{"objects":{"water":{"type":"GeometryCollection","geometries":[{"type":"Polygon","properties":{"kind":"lake","name":"Kiyevskoye","reservoir":true,"area":1631239040,"sort_rank":200,"source":"naturalearthdata.com","min_zoom":0.0,"id":1057},"arcs":[[7]]},{"type":"Point","properties":{"label_placement":true,"kind":"lake","name":"Kiyevskoye","reservoir":true,"area":1631239040,"sort_rank":200,"source":"naturalearthdata.com","min_zoom":0.0,"id":1057},"coordinates":[2819,796]},{"type":"MultiLineString","properties":{"source":"naturalearthdata.com","kind":"lake","reservoir":true,"sort_rank":367,"boundary":true,"min_zoom":0.0,"id":1057},"arcs":[[8],[9]]}]},"buildings":{"type":"GeometryCollection","geometries":[]},"places":{"type":"GeometryCollection","geometries":[{"type":"Point","properties":{"source":"naturalearthdata.com","kind":"locality","name":"Chernobyl","kind_detail":"hamlet","population":0,"min_zoom":6.0,"id":5464},"coordinates":[1653,3034]},{"type":"Point","properties":{"kind":"locality","name:en":"Slavutych","name":"\u0421\u043b\u0430\u0432\u0443\u0442\u0438\u0447","name:lt":"Slavuti\u010dius","kind_detail":"town","name:de":"Slawutytsch","source":"openstreetmap.org","min_zoom":8.0,"name:pl":"S\u0142awutycz","id":337507300,"population":24492},"coordinates":[3568,3641]},{"type":"Point","properties":{"kind":"locality","name:en":"Ivankiv","name":"\u0406\u0432\u0430\u043d\u043a\u0456\u0432","kind_detail":"town","name:de":"Iwankiw","source":"openstreetmap.org","min_zoom":8.0,"name:ru":"\u0418\u0432\u0430\u043d\u043a\u043e\u0432","name:pl":"Iwank\u00f3w","id":337513819,"population":10602},"coordinates":[1088,913]},{"type":"Point","properties":{"kind":"locality","name:en":"Desna","name":"\u0414\u0435\u0441\u043d\u0430","kind_detail":"town","source":"openstreetmap.org","min_zoom":8.0,"name:pl":"Desna","id":337513949,"population":7562},"coordinates":[3617,875]},{"type":"Point","properties":{"kind":"locality","name:en":"Dymer","name":"\u0414\u0438\u043c\u0435\u0440","kind_detail":"town","source":"openstreetmap.org","min_zoom":8.0,"name:ru":"\u0414\u044b\u043c\u0435\u0440","name:pl":"Dymer","id":1585808480,"population":5786},"coordinates":[2262,219]},{"type":"Point","properties":{"kind":"locality","name:en":"Kamaryn","name":"\u041a\u043e\u043c\u0430\u0440\u0438\u043d","kind_detail":"town","source":"openstreetmap.org","min_zoom":8.0,"int_name":"Kamaryn","name:be":"\u041a\u0430\u043c\u0430\u0440\u044b\u043d","name:pl":"Komaryn","id":242979080,"population":1957},"coordinates":[3015,3281]},{"type":"Point","properties":{"kind":"locality","name:en":"Krasiatychi","name":"\u041a\u0440\u0430\u0441\u044f\u0442\u0438\u0447\u0456","kind_detail":"town","name:de":"Krasjatytschi","source":"openstreetmap.org","min_zoom":8.0,"name:ru":"\u041a\u0440\u0430\u0441\u044f\u0442\u0438\u0447\u0438","name:pl":"Krasiatyczi","id":337512030,"population":660},"coordinates":[310,1588]},{"type":"Point","properties":{"name:pt":"Chernobyl","name:ro":"Cernob\u00eel","name:id":"Chernobyl","name:ms":"Chernobyl","name:ko":"\ucd08\ub974\ub178\ube4c","name:ar":"\u062a\u0634\u064a\u0631\u0646\u0648\u0628\u064a\u0644","name:cs":"\u010cernobyl","min_zoom":8.0,"name:it":"\u010cernobyl","name:vi":"Chernobyl","name:ru":"\u0427\u0435\u0440\u043d\u043e\u0431\u044b\u043b\u044c","name:pl":"Czarnobyl","id":127834997,"name:ca":"Txern\u00f2bil","name:af":"\u010cernobylis","name:lt":"\u010cernobylis","source":"openstreetmap.org","name:fi":"T\u0161ernobyl","name:da":"Tjernobyl","name:de":"Tschornobyl","name:tr":"\u00c7ernobil","name:fr":"Tchernobyl","name:be":"\u0427\u0430\u0440\u043d\u043e\u0431\u044b\u043b\u044c","name:zh":"\u5207\u5c14\u8bfa\u8d1d\u5229","name:sl":"\u010cernobil","name:nl":"Tsjernobyl","name:ja":"\u30c1\u30e7\u30eb\u30ce\u30fc\u30d6\u30a3\u30ea","name:nn":"Tsjernobyl","name:no":"Tsjernobyl","name:he":"\u05e6'\u05e8\u05e0\u05d5\u05d1\u05d9\u05dc","kind":"locality","name:lb":"Tschernobyl","name:eu":"Txernobyl","name:sk":"\u010cernoby\u013e","name:sv":"Tjernobyl","name:hu":"Csernobil","name:hr":"\u010cernuob\u012blis","name:sr":"\u010cernobilj","name:oc":"Chornobyl","population":550,"name:eo":"\u0108ernobilo","name:en":"Chornobyl","name":"\u0427\u043e\u0440\u043d\u043e\u0431\u0438\u043b\u044c","kind_detail":"town","name:yi":"\u05d8\u05e9\u05e2\u05e8\u05e0\u05d0\u05d1\u05dc","name:et":"T\u0161ornob\u00f5l","name:es":"Chern\u00f3bil"},"coordinates":[2004,2481]},{"type":"Point","properties":{"name:pt":"Pripyat","name:ro":"Pripiat","name:id":"Prypiat","name:ko":"\ud504\ub9ac\ud53c\uc57c\ud2f0","name:cs":"Pripja\u0165","min_zoom":8.0,"name:it":"Pripjat","name:be":"\u041f\u0440\u044b\u043f'\u044f\u0446\u044c","name:ru":"\u041f\u0440\u0438\u043f\u044f\u0442\u044c","name:pl":"Prype\u0107","id":127835001,"name:ca":"Pripyat","name:hu":"Pripjaty","kind_detail":"town","name:da":"Prypiat","name:de":"Prypjat","source":"openstreetmap.org","name:fr":"Pripiat","name:zh":"\u666e\u91cc\u76ae\u4e9a\u7279","name:sl":"Pripjat","name:sk":"Pripja\u0165","name:ja":"\u30d7\u30ea\u30d4\u30e3\u30c1","name:lt":"Pripet\u0117","name:no":"Pripjat","kind":"locality","name:sv":"Pripjat","name:bg":"\u041f\u0440\u0438\u043f\u044f\u0300\u0442","name:hr":"Pr\u0117pet\u0117","name:sr":"\u041f\u0440\u0438\u043f\u0458\u0430\u0442","population":5,"name:eo":"Pripjat","name:en":"Pripyat","name":"\u041f\u0440\u0438\u043f\u2019\u044f\u0442\u044c","name:fi":"Prypjat","name:et":"Pr\u00f5pjat","name:nl":"Prypjat","name:es":"Pr\u00edpiat"},"coordinates":[1532,3111]}]},"transit":{"type":"GeometryCollection","geometries":[]},"pois":{"type":"GeometryCollection","geometries":[{"type":"Point","properties":{"kind":"nature_reserve","name:en":"Dneprovsko-Teterevsky reserve","name":"\u0414\u043d\u0456\u043f\u0440\u043e\u0432\u0441\u044c\u043a\u043e-\u0422\u0435\u0442\u0435\u0440\u0456\u0432\u0441\u044c\u043a\u0435 \u0414\u041b\u041c\u0413","area":776322000,"official_name":"\u0414\u043d\u0456\u043f\u0440\u043e\u0432\u0441\u044c\u043a\u043e-\u0422\u0435\u0442\u0435\u0440\u0456\u0432\u0441\u044c\u043a\u0435 \u0434\u0435\u0440\u0436\u0430\u0432\u043d\u0435 \u043b\u0456\u0441\u043e\u043c\u0438\u0441\u043b\u0438\u0432\u0441\u044c\u043a\u0435 \u0433\u043e\u0441\u043f\u043e\u0434\u0430\u0440\u0441\u0442\u0432\u043e","source":"openstreetmap.org","min_zoom":7.49,"tier":2,"name:ru":"\u0414\u043d\u0435\u043f\u0440\u043e\u0432\u0441\u043a\u043e-\u0422\u0435\u0442\u0435\u0440\u0435\u0432\u0441\u043a\u043e\u0435 \u0437\u0430\u043f\u043e\u0432\u0435\u0434\u043d\u0438\u043a","id":-7317519,"osm_relation":true},"coordinates":[2177,1220]},{"type":"Point","properties":{"kind":"protected_area","name:en":"Zoological reserve of national importance \"Chornobylskyi spetsialnyi\"","protect_class":"4","area":1369570000,"source":"openstreetmap.org","min_zoom":7.0,"tier":2,"name:ru":"\u041e\u0431\u0449\u0435\u0437\u043e\u043e\u043b\u043e\u0433\u0438\u0447\u0435\u0441\u043a\u0438\u0439 \u0437\u0430\u043a\u0430\u0437\u043d\u0438\u043a \u043e\u0431\u0449\u0435\u0433\u043e\u0441\u0443\u0434\u0430\u0440\u0441\u0442\u0432\u0435\u043d\u043d\u043e\u0433\u043e \u0437\u043d\u0430\u0447\u0435\u043d\u0438\u044f \"\u0427\u0435\u0440\u043d\u043e\u0431\u044b\u043b\u044c\u0441\u043a\u0438\u0439 \u0441\u043f\u0435\u0446\u0438\u0430\u043b\u044c\u043d\u044b\u0439\"","id":-6491211,"osm_relation":true,"name":"\u0417\u0430\u0433\u0430\u043b\u044c\u043d\u043e\u0437\u043e\u043e\u043b\u043e\u0433\u0456\u0447\u043d\u0438\u0439 \u0437\u0430\u043a\u0430\u0437\u043d\u0438\u043a \u0437\u0430\u0433\u0430\u043b\u044c\u043d\u043e\u0434\u0435\u0440\u0436\u0430\u0432\u043d\u043e\u0433\u043e \u0437\u043d\u0430\u0447\u0435\u043d\u043d\u044f \"\u0427\u043e\u0440\u043d\u043e\u0431\u0438\u043b\u044c\u0441\u043a\u0438\u0439 \u0441\u043f\u0435\u0446\u0456\u0430\u043b\u044c\u043d\u0438\u0439\""},"coordinates":[2335,2174]},{"type":"Point","properties":{"kind":"protected_area","name:en":"Landscape reserve of local impirtance \u201cChernynskyi\u201d","protect_class":"4","area":21745100,"source":"openstreetmap.org","min_zoom":8.0,"tier":2,"name:ru":"\u041b\u0430\u043d\u0434\u0448\u0430\u0444\u0442\u043d\u044b\u0439 \u0437\u0430\u043a\u0430\u0437\u043d\u0438\u043a \u043c\u0435\u0441\u0442\u043d\u043e\u0433\u043e \u0437\u043d\u0430\u0447\u0435\u043d\u0438\u044f \u201c\u0427\u0435\u0440\u043d\u0438\u043d\u0441\u043a\u0438\u0439\u201d","id":-6200588,"osm_relation":true,"name":"\u041b\u0430\u043d\u0434\u0448\u0430\u0444\u0442\u043d\u0438\u0439 \u0437\u0430\u043a\u0430\u0437\u043d\u0438\u043a \u043c\u0456\u0441\u0446\u0435\u0432\u043e\u0433\u043e \u0437\u043d\u0430\u0447\u0435\u043d\u043d\u044f \u201c\u0427\u0435\u0440\u043d\u0438\u043d\u0441\u044c\u043a\u0438\u0439\u201d"},"coordinates":[3142,1222]},{"type":"Point","properties":{"kind":"protected_area","name:en":"Landscape reserve of national importance \"Dniprovsko-Desnyanskyi\"","protect_class":"4","area":14951000,"source":"openstreetmap.org","min_zoom":8.0,"tier":2,"name:ru":"\u041b\u0430\u043d\u0434\u0448\u0430\u0444\u0442\u043d\u044b\u0439 \u0437\u0430\u043a\u0430\u0437\u043d\u0438\u043a \u043e\u0431\u0449\u0435\u0433\u043e\u0441\u0443\u0434\u0430\u0440\u0441\u0442\u0432\u0435\u043d\u043d\u043e\u0433\u043e \u0437\u043d\u0430\u0447\u0435\u043d\u0438\u044f \"\u0414\u043d\u0438\u043f\u0440\u043e\u0432\u0441\u043a\u043e-\u0414\u0435\u0441\u043d\u044f\u043d\u0441\u043a\u0438\u0439\"","id":-6179048,"osm_relation":true,"name":"\u041b\u0430\u043d\u0434\u0448\u0430\u0444\u0442\u043d\u0438\u0439 \u0437\u0430\u043a\u0430\u0437\u043d\u0438\u043a \u0437\u0430\u0433\u0430\u043b\u044c\u043d\u043e\u0434\u0435\u0440\u0436\u0430\u0432\u043d\u043e\u0433\u043e \u0437\u043d\u0430\u0447\u0435\u043d\u043d\u044f \"\u0414\u043d\u0456\u043f\u0440\u043e\u0432\u0441\u044c\u043a\u043e-\u0414\u0435\u0441\u043d\u044f\u043d\u0441\u044c\u043a\u0438\u0439\""},"coordinates":[3196,996]},{"type":"Point","properties":{"kind":"nature_reserve","name:en":"Polesie State Radioecological Reserve","name":"\u041f\u043e\u043b\u0435\u0441\u0441\u043a\u0438\u0439 \u0433\u043e\u0441\u0443\u0434\u0430\u0440\u0441\u0442\u0432\u0435\u043d\u043d\u044b\u0439 \u0440\u0430\u0434\u0438\u0430\u0446\u0438\u043e\u043d\u043d\u043e-\u044d\u043a\u043e\u043b\u043e\u0433\u0438\u0447\u0435\u0441\u043a\u0438\u0439 \u0437\u0430\u043f\u043e\u0432\u0435\u0434\u043d\u0438\u043a","area":5717410000,"name:de":"Staatliches radioaktiv-\u00f6kologisches Naturschutzgebiet in Polesien","source":"openstreetmap.org","min_zoom":6.05,"name:uk":"\u041f\u043e\u043b\u0456\u0441\u044c\u043a\u0438\u0439 \u0434\u0435\u0440\u0436\u0430\u0432\u043d\u0438\u0439 \u0440\u0430\u0434\u0456\u0430\u0446\u0456\u0439\u043d\u043e-\u0435\u043a\u043e\u043b\u043e\u0433\u0456\u0447\u043d\u0438\u0439 \u0437\u0430\u043f\u043e\u0432\u0456\u0434\u043d\u0438\u043a","tier":2,"name:be":"\u041f\u0430\u043b\u0435\u0441\u043a\u0456 \u0434\u0437\u044f\u0440\u0436\u0430\u045e\u043d\u044b \u0440\u0430\u0434\u044b\u044f\u0446\u044b\u0439\u043d\u0430-\u044d\u043a\u0430\u043b\u0430\u0433\u0456\u0447\u043d\u044b \u0437\u0430\u043f\u0430\u0432\u0435\u0434\u043d\u0456\u043a","name:pl":"Poleski Pa\u0144stwowy rezerwat radiacyjno-ekologiczny","id":-3397849,"osm_relation":true},"coordinates":[1078,4031]},{"type":"Point","properties":{"name:pt":"Zona de Exclus\u00e3o da Usina Nuclear de Chern\u00f3bil","alt_name:en":"Chernobyl Exclusion Zone","name:id":"Zona Eksklusi Chernobyl","name:lt":"\u010cernobylio radioaktyvi zona","name:ar":"\u0645\u0646\u0637\u0642\u0629 \u062a\u0634\u0631\u0646\u0648\u0628\u0644 \u0627\u0644\u0645\u062d\u0638\u0648\u0631\u0629","tier":2,"min_zoom":7.0,"name:it":"Zona di alienazione di Chernobyl","name:be":"\u0417\u043e\u043d\u0430 \u0430\u0434\u0447\u0443\u0436\u044d\u043d\u043d\u044f \u0427\u0430\u0440\u043d\u043e\u0431\u044b\u043b\u044c\u0441\u043a\u0430\u0439 \u0410\u042d\u0421","operator":"\u0414\u0435\u0440\u0436\u0430\u0432\u043d\u0430 \u0441\u043b\u0443\u0436\u0431\u0430 \u0423\u043a\u0440\u0430\u0457\u043d\u0438 \u0437 \u043d\u0430\u0434\u0437\u0432\u0438\u0447\u0430\u0439\u043d\u0438\u0445 \u0441\u0438\u0442\u0443\u0430\u0446\u0456\u0439","name:ru":"\u0417\u043e\u043d\u0430 \u043e\u0442\u0447\u0443\u0436\u0434\u0435\u043d\u0438\u044f \u0427\u0435\u0440\u043d\u043e\u0431\u044b\u043b\u044c\u0441\u043a\u043e\u0439 \u0410\u042d\u0421","name:pl":"Strefa Wykluczenia wok\u00f3\u0142 Czarnobylskiej Elektrowni J\u0105drowej","id":-3311547,"osm_relation":true,"name":"\u0417\u043e\u043d\u0430 \u0432\u0456\u0434\u0447\u0443\u0436\u0435\u043d\u043d\u044f \u0427\u043e\u0440\u043d\u043e\u0431\u0438\u043b\u044c\u0441\u044c\u043a\u043e\u0457 \u0410\u0415\u0421","kind":"protected_area","name:en":"Chernobyl Nuclear Power Plant Zone of Alienation (Chernobyl Exclusion Zone)","protect_class":"16","area":5235330000,"name:de":"Sperrzone von Tschernobyl","source":"openstreetmap.org","name:fr":"Zone d'ali\u00e9nation de la centrale nucl\u00e9aire de Tchernobyl"},"coordinates":[1614,2614]}]},"boundaries":{"type":"GeometryCollection","geometries":[{"type":"LineString","properties":{"name:right:yo":"B\u1eb9\u0300l\u00e1r\u00f9s","old_name:right:eo":"Bjelorusio;Bjelorusujo","name:left:la":"Ucraina","name:right:qu":"Bilarus","name:right:yi":"\u05d1\u05e2\u05dc\u05d0\u05e8\u05d5\u05e1","name:left:li":"Oekra\u00efne","name:left:vi":"Ukraina","name:left:sw":"Ukraine","name:left:kg":"Ukrayina","name:left:ka":"\u10e3\u10d9\u10e0\u10d0\u10d8\u10dc\u10d0","name:left:km":"\u17a2\u17ca\u17bb\u1799\u1780\u17d2\u179a\u17c2\u1793","name:left:kl":"Ukraine","name:left:ko":"\uc6b0\ud06c\ub77c\uc774\ub098","name:left:kn":"\u0caf\u0cc1\u0c95\u0ccd\u0cb0\u0cc7\u0ca8\u0ccd","name:right:is":"Hv\u00edta-R\u00fassland","name:left:ro":"Ucraina","name:left:kk":"\u0423\u043a\u0440\u0430\u0438\u043d\u0430","name:left:rm":"Ucraina","name:left:ku":"\u00dbkrayna","name:left:kw":"Ukrayn","name:left:kv":"\u0423\u043a\u0440\u0430\u0438\u043d\u0430","name:left:pl":"Ukraina","name:right:ro":"Belarus","name:left:ru":"\u0423\u043a\u0440\u0430\u0438\u043d\u0430","name:right:ie":"Bielorussia","name:right:id":"Belarus","name:left:ky":"\u0423\u043a\u0440\u0430\u0438\u043d\u0430","name:right:ia":"Bielorussia","name:right:bi":"Belarus","name:right:bn":"\u09ac\u09c7\u09b2\u09be\u09b0\u09c1\u09b6","name:right:bo":"\u0f56\u0fb7\u0f7a\u0f0b\u0f63\u0f0b\u0f62\u0f66\u0f74\u0f0d","name:left:sl":"Ukrajina","name:right:bg":"\u0411\u0435\u043b\u0430\u0440\u0443\u0441","name:right:br":"Belarus","name:right:bs":"Bjelorusija","name:right:nn":"Kviterussland","name:right:no":"Hviterussland","name:right:nl":"Wit-Rusland","name:left:lv":"Ukraina","name:right:wo":"Belaarus","name:right:ne":"\u092c\u0947\u0932\u093e\u0930\u0941\u0938","name:right:na":"Berarut","name:right:gv":"Yn Velaroosh","alt_name:left:vi":"Uy Ki\u00ean","name:left:mg":"Okraina","kind_detail":"2","alt_name:right:vi":"B\u1ea1ch Nga","name:left:mi":"\u016akareinga","name:right:gu":"\u0aac\u0ac7\u0ab2\u0abe\u0ab0\u0ac1\u0ab8","name:right:ps":"\u0628\u06d0\u0644\u0627\u0631\u0648\u0633","name:right:pt":"Bielorr\u00fassia","name:left:mk":"\u0423\u043a\u0440\u0430\u0438\u043d\u0430","name:left:tr":"Ukrayna","name:left:ts":"Ukraine","name:left:tt":"\u0423\u043a\u0440\u0430\u0438\u043d\u0430","name:left:mn":"\u0423\u043a\u0440\u0430\u0439\u043d","name:left:ml":"\u0d09\u0d15\u0d4d\u0d30\u0d48\u0d7b","name:left:th":"\u0e1b\u0e23\u0e30\u0e40\u0e17\u0e28\u0e22\u0e39\u0e40\u0e04\u0e23\u0e19","name:left:mr":"\u092f\u0941\u0915\u094d\u0930\u0947\u0928","name:left:tk":"Ukraina","name:left:tl":"Ukranya","name:left:mt":"Ukrajna","name:right:gl":"Bielorrusia","name:left:my":"\u101a\u1030\u1000\u101b\u102d\u1014\u103a\u1038\u1014\u102d\u102f\u1004\u103a\u1004\u1036","name:right:gn":"Vielorrusia","name:right:pl":"Bia\u0142oru\u015b","name:left:te":"\u0c09\u0c15\u0c4d\u0c30\u0c46\u0c2f\u0c3f\u0c28\u0c4d","name:left:tg":"\u0423\u043a\u0440\u0430\u0439\u0438\u043d\u0430","name:left:ms":"Ukraine","name:right:gd":"A' Bhealaruis","name:left:da":"Ukraine","name:left:de":"Ukraine","name:right:ga":"An Bhealar\u00fais","name:left:dv":"\u0794\u07aa\u0786\u07b0\u0783\u07ac\u0787\u07a8\u0782\u07b0","name:right:ug":"\u0628\u06d0\u0644\u0648\u0631\u06c7\u0633\u0633\u0649\u064a\u06d5","name:left:hi":"\u092f\u0941\u0915\u094d\u0930\u0947\u0928","name:right:lb":"W\u00e4issrussland","name:right:uk":"\u0411\u0456\u043b\u043e\u0440\u0443\u0441\u044c","name:left:he":"\u05d0\u05d5\u05e7\u05e8\u05d0\u05d9\u05e0\u05d4","name:right:ln":"Bielorusia","name:right:li":"Wit-Rusland","name:right:lt":"Baltarusija","name:right:ur":"\u0628\u06cc\u0644\u0627\u0631\u0648\u0633","name:right:lv":"Baltkrievija","name:left:hy":"\u0548\u0582\u056f\u0580\u0561\u056b\u0576\u0561","name:left:ta":"\u0b89\u0b95\u0bcd\u0bb0\u0bc8\u0ba9\u0bcd","name:left:ht":"Ikr\u00e8n","name:left:hu":"Ukrajna","name:left:hr":"Ukrajina","sort_rank":262,"name:right:os":"\u0411\u0435\u043b\u043e\u0440\u0443\u0441\u0441\u0438","name:right:es":"Bielorrusia","name:right:sr":"\u0411\u0435\u043b\u043e\u0440\u0443\u0441\u0438\u0458\u0430","name:right:eu":"Bielorrusia","name:right:et":"Valgevene","name:left:os":"\u0423\u043a\u0440\u0430\u0438\u043d\u00e6","name:left:or":"\u0b5f\u0b41\u0b15\u0b4d\u0b30\u0b47\u0b28","name:right:ee":"Belarus","name:left:vo":"Lukray\u00e4n","name:left:oc":"Ucra\u00efna","name:right:eo":"Belorusujo","name:right:en":"Belarus","name:right:el":"\u039b\u03b5\u03c5\u03ba\u03bf\u03c1\u03c9\u03c3\u03af\u03b1","name:left:fa":"\u0627\u0648\u06a9\u0631\u0627\u06cc\u0646","name:left:ia":"Ukraina","name:left:fo":"Ukraina","name:right:sk":"Bielorusko","name:left:fi":"Ukraina","name:left:fr":"Ukraine","name:left:fy":"Oekra\u00efne","name:right:ja":"\u30d9\u30e9\u30eb\u30fc\u30b7","name:right:sq":"Bjellorusia","name:right:ss":"IBhelalasi","name:left:ja":"\u30a6\u30af\u30e9\u30a4\u30ca","name:right:su":"B\u00e9larus","name:right:sw":"Belarus","name:right:sv":"Vitryssland","name:right:si":"\u0db6\u0dd9\u0dbd\u0dcf\u0dbb\u0dc3\u0dca","name:right:sh":"Belorusija","name:left:qu":"Ukranya","name:right:jv":"B\u00e9larus","name:right:sl":"Belorusija","name:right:so":"Belarus","name:right:sa":"\u092c\u0947\u0932\u093e\u0930\u0942\u0938","name:left:jv":"Ukraina","id":-60199,"old_name:left:vi":"\u00d4 Kh\u1eafc Lan","name:right:co":"Bielorussia","name:right:ca":"Bielor\u00fassia","name:right:se":"Vilges-Ruo\u0161\u0161a","name:right:ce":"\u0411\u0435\u043b\u043e\u0440\u0443\u0441\u0441\u0438","name:right:cy":"Belarws","name:right:zh-yue":"\u767d\u4fc4\u7f85\u65af","name:right:cs":"B\u011blorusko","name:right:cu":"\u0411\u0463\u043b\u0430 \u0420\u043e\u0443\u0441\u044c","name:right:cv":"\u0411\u0435\u043b\u0430\u0440\u0443\u00e7","name:right:it":"Bielorussia","name:left:ar":"\u0623\u0648\u0643\u0631\u0627\u0646\u064a\u0627","name:left:az":"Ukrayna","name:right:rw":"Belarusi","name:left:af":"Oekra\u00efne","name:left:ab":"\u0423\u043a\u0440\u0430\u0438\u043d\u0430","name:left:an":"Ucra\u00edna","name:left:am":"\u12e9\u12ad\u122c\u1295","name:right:io":"Bielorusia","name:left:zh-yue":"\u70cf\u514b\u862d","name:left:rw":"Ikerene","name:right:hy":"\u0532\u0565\u056c\u0561\u057c\u0578\u0582\u057d","name:left:lb":"Ukrain","alt_name:left:eo":"Ukrainio","name:left:su":"Ukraina","int_name:left":"Ukraine","name:right:hr":"Bjelorusija","name:left:sv":"Ukraina","name:left:sq":"Ukraina","name:right:hu":"Feh\u00e9roroszorsz\u00e1g","name:left:ss":"IYukhureni","name:left:sr":"\u0423\u043a\u0440\u0430\u0458\u0438\u043d\u0430","name:left:sm":"Ukraine","name:right:hi":"\u092c\u0947\u0932\u093e\u0930\u0942\u0938","name:left:so":"Ukrain","name:left:sn":"Ukraine","name:left:lt":"Ukraina","name:left:sh":"Ukrajina","name:left:sk":"Ukrajina","name:left:se":"Ukraina","name:right:he":"\u05d1\u05dc\u05d0\u05e8\u05d5\u05e1","name:left:sc":"Ucraina","name:right:la":"Ruthenia Alba","name:right:af":"Wit-Rusland","name:left:ce":"\u0423\u043a\u0440\u0430\u0438\u043d\u0430","name:left:ca":"Ucra\u00efna","source":"openstreetmap.org","name:left:cy":"Wcr\u00e1in","name:right:ar":"\u0631\u0648\u0633\u064a\u0627 \u0627\u0644\u0628\u064a\u0636\u0627\u0621","name:left:cu":"\u041e\u0443\u043a\u0440\u0430\u0438\u043d\u0430","name:left:cv":"\u0423\u043a\u0440\u0430\u0438\u043d\u0430","name:right:az":"Belarus","name:left:cs":"Ukrajina","name:right:rm":"Bielorussia","name":"\u0423\u043a\u0440\u0430\u0457\u043d\u0430 - \u0411\u0435\u043b\u0430\u0440\u0443\u0441\u044c","name:right:zu":"IBelarusi","name:left:zh":"\u4e4c\u514b\u5170","name:right:zh":"\u767d\u4fc4\u7f57\u65af","name:left:uz":"Ukraina","name:right:fr":"B\u00e9larus","name:left:nv":"Y\u00f3\u00f3kwein","name:left:ur":"\u06cc\u0648\u06a9\u0631\u06cc\u0646","id:right":-59065,"name:right:ff":"Belaruusiya","name:left:no":"Ukraina","name:left:nl":"Oekra\u00efne","alt_name:right:eo":"Belorusio","name:left:gd":"An Ucr\u00e0in","name:right:fa":"\u0628\u0644\u0627\u0631\u0648\u0633","name:right:fo":"Hv\u00edtarussland","name:left:ne":"\u092f\u0941\u0915\u094d\u0930\u0947\u0928","name:left:ug":"\u0626\u06c7\u0643\u0631\u0627\u0626\u0649\u0646\u0627","name:left:na":"Ukraine","name:left:eo":"Ukrainujo","name:left:en":"Ukraine","name:left:el":"\u039f\u03c5\u03ba\u03c1\u03b1\u03bd\u03af\u03b1","name:left:ee":"Ukraine","name:left:ig":"Yukrain","name:left:es":"Ucrania","name:left:eu":"Ukraina","name:left:et":"Ukraina","name:right:zh-min-nan":"Belarus","name:right:oc":"Bielorussia","name:right:ko":"\ubca8\ub77c\ub8e8\uc2a4","name:right:ts":"Belarus","name:right:uz":"Belarus","osm_relation":true,"name:right:or":"\u0b2c\u0b47\u0b32\u0b3e\u0b0b\u0b37","name:left:pt":"Ucr\u00e2nia","name:right:ku":"Belar\u00fbs","name:left:ps":"\u0627\u0648\u06a9\u0631\u0627\u06cc\u0646","name:left:gl":"Ucra\u00edna","name:left:wa":"Oucrinne","min_zoom":8.0,"name:left:zh-min-nan":"Ukrayina","name:left:ln":"Ukraine","name:left:wo":"Ukreen","name:left:ga":"An \u00dacr\u00e1in","name:left:it":"Ucraina","alt_name:right:fr":"Bi\u00e9lorussie","int_name:right":"Belarus","name:left:gn":"Ukya\u00f1a","name:left:gu":"\u0aaf\u0ac1\u0a95\u0acd\u0ab0\u0ac7\u0aa8","name:left:gv":"Yn Ookraan","official_name:right":"\u0420\u044d\u0441\u043f\u0443\u0431\u043b\u0456\u043a\u0430 \u0411\u0435\u043b\u0430\u0440\u0443\u0441\u044c","name:left":"\u0423\u043a\u0440\u0430\u0457\u043d\u0430","name:right:mk":"\u0411\u0435\u043b\u043e\u0440\u0443\u0441\u0438\u0458\u0430","name:right:mi":"P\u0113rara","name:right:ml":"\u0d2c\u0d46\u0d32\u0d3e\u0d31\u0d41\u0d38\u0d4d","name:right:vo":"Belarus\u00e4n","name:right:vi":"Belarus","name:right:my":"\u1018\u102e\u101c\u102c\u101b\u102f\u1007\u103a\u1014\u102d\u102f\u1004\u103a\u1004\u1036","name:right:ms":"Belarus","name:right:mr":"\u092c\u0947\u0932\u093e\u0930\u0942\u0938","name:right:fy":"Wyt-Rusl\u00e2n","name:right:mt":"Belarus","name:left:nn":"Ukraina","kind":"country","name:left:tw":"Ukraine","name:left:br":"Ukraina","name:left:bs":"Ukrajina","name:left:ba":"\u0423\u043a\u0440\u0430\u0438\u043d\u0430","name:left:bg":"\u0423\u043a\u0440\u0430\u0439\u043d\u0430","name:left:be":"\u0423\u043a\u0440\u0430\u0456\u043d\u0430","name:left:bi":"Ukraine","name:left:bn":"\u0987\u0989\u0995\u09cd\u09b0\u09c7\u09a8","name:left:bo":"\u0f68\u0f74\u0f40\u0f0b\u0f62\u0f61\u0f72\u0f0b\u0f53\u0f72\u0f0d","name:right":"\u0411\u0435\u043b\u0430\u0440\u0443\u0441\u044c","name:left:yo":"Ukr\u00e9\u00ecn","name:left:yi":"\u05d0\u05d5\u05e7\u05e8\u05d0\u05d9\u05e0\u05e2","id:left":-60199,"name:right:fi":"Valko-Ven\u00e4j\u00e4","name:right:ka":"\u10d1\u10d4\u10da\u10d0\u10e0\u10e3\u10e1\u10d8","name:left:io":"Ukrainia","name:right:ty":"Belarus","name:right:kg":"Belarusia","name:right:tt":"\u0411\u0435\u043b\u0430\u0440\u0443\u0441\u0438\u044f","name:left:ie":"Ucraina","name:left:id":"Ukraina","name:right:kl":"Hvideruslandi","name:right:tr":"Beyaz Rusya","name:right:kn":"\u0cac\u0cc6\u0cb2\u0cbe\u0cb0\u0cc1\u0cb8\u0ccd","name:right:tl":"Biyelorusya","name:right:th":"\u0e1b\u0e23\u0e30\u0e40\u0e17\u0e28\u0e40\u0e1a\u0e25\u0e32\u0e23\u0e38\u0e2a","name:right:kw":"Belarussi","name:right:tk":"Belorussi\u00fda","name:right:ky":"\u0411\u0435\u043b\u0430\u0440\u0443\u0441\u0438\u044f","name:right:te":"\u0c2c\u0c46\u0c32\u0c3e\u0c30\u0c38\u0c4d","name:right:tg":"\u0411\u0435\u043b\u0430\u0440\u0443\u0441","name:left:is":"\u00dakra\u00edna","name:right:ta":"\u0baa\u0bc6\u0bb2\u0bb0\u0bc1\u0bb8\u0bcd","name:right:de":"Wei\u00dfrussland","name:right:da":"Hviderusland","name:right:dz":"\u0f56\u0f7a\u0f0b\u0f63\u0f0b\u0f62\u0f74\u0f0b\u0f66\u0f74\u0f0d","name:left:pa":"\u0a2f\u0a42\u0a15\u0a4d\u0a30\u0a47\u0a28","name:right:dv":"\u0784\u07ac\u078d\u07a6\u0783\u07ab\u0790\u07b0","name:right:ht":"Byelorisi"},"arcs":[0]},{"type":"LineString","properties":{"name:right:hy":"\u053f\u056b\u0587\u056b \u0574\u0561\u0580\u0566","name:right:no":"Kiev oblast","name:left:he":"\u05de\u05d7\u05d5\u05d6 \u05e6'\u05e8\u05e0\u05d9\u05d4\u05d9\u05d1","name:right:hr":"Kijevska oblast","name:left:sv":"Tjernihiv oblast","name:right:lt":"Kijevo sritis","name:right:lv":"Kijevas apgabals","name:left:lt":"\u010cernigovo sritis","name:left:sh":"\u010cernigivska oblast","name:left:lv":"\u010cer\u0146igovas apgabals","name:left:hu":"Csernyihivi ter\u00fclet","name:left:hr":"\u010cernigivska oblast","name:right:os":"\u041a\u0438\u0435\u0432\u044b \u043e\u0431\u043b\u00e6\u0441\u0442","name:right:vi":"Kiev (t\u1ec9nh)","sort_rank":256,"name:left:ca":"Prov\u00edncia de Txern\u00edhiv","source":"openstreetmap.org","name:right:ar":"\u0643\u064a\u064a\u0641 \u0623\u0648\u0628\u0644\u0627\u0633\u062a","name:left:cs":"\u010cernihovsk\u00e1 oblast","name:left":"\u0427\u0435\u0440\u043d\u0456\u0433\u0456\u0432\u0441\u044c\u043a\u0430 \u043e\u0431\u043b\u0430\u0441\u0442\u044c","name:right:es":"\u00d3blast de Kiev","name:right:sh":"Kijevska oblast","name:right:sr":"\u041a\u0438\u0458\u0435\u0432\u0441\u043a\u0430 \u043e\u0431\u043b\u0430\u0441\u0442","name:left:ka":"\u10e9\u10d4\u10e0\u10dc\u10d8\u10d2\u10dd\u10d5\u10d8\u10e1 \u10dd\u10da\u10e5\u10d8","name:right:eu":"Kieveko oblasta","name:right:et":"Kiievi oblast","name:left:ko":"\uccb4\ub974\ub2c8\ud788\uc6b0 \uc8fc","name:right:it":"Oblast' di Kiev","name:left:ro":"Regiunea Cernig\u0103u","name:right:ru":"\u041a\u0438\u0435\u0432\u0441\u043a\u0430\u044f \u043e\u0431\u043b\u0430\u0441\u0442\u044c","name:right:ro":"Regiunea Kiev","name:left:ru":"\u0427\u0435\u0440\u043d\u0438\u0433\u043e\u0432\u0441\u043a\u0430\u044f \u043e\u0431\u043b\u0430\u0441\u0442\u044c","name:right:ms":"Oblast Kiev","name:right:mr":"\u0915\u094d\u092f\u0940\u0935 \u0913\u092c\u094d\u0932\u093e\u0938\u094d\u0924","name:right:id":"Oblast Kiev","name:right:eo":"Kieva provinco","name:right:en":"Kyiv Oblast","name:left:vi":"Chernihiv (t\u1ec9nh)","kind":"region","name":"\u0427\u0435\u0440\u043d\u0456\u0433\u0456\u0432\u0441\u044c\u043a\u0430 \u043e\u0431\u043b\u0430\u0441\u0442\u044c - \u041a\u0438\u0457\u0432\u0441\u044c\u043a\u0430 \u043e\u0431\u043b\u0430\u0441\u0442\u044c","name:left:fa":"\u0627\u0633\u062a\u0627\u0646 \u0686\u0631\u0646\u06cc\u0647\u06cc\u0648","name:right:fa":"\u0627\u0633\u062a\u0627\u0646 \u06a9\u06cc\u0641","min_zoom":8.0,"name:right:be":"\u041a\u0456\u0435\u045e\u0441\u043a\u0430\u044f \u0432\u043e\u0431\u043b\u0430\u0441\u0446\u044c","name:left:zh":"\u5207\u723e\u5c3c\u6208\u592b\u5dde","name:left:fr":"Oblast de Tchernihiv","name:right:bs":"Kijevska oblast","name:right:zh":"\u57fa\u8f85\u5dde","name:left:et":"T\u0161ernigivi oblast","name:left:hy":"\u0549\u0565\u057c\u0576\u056b\u0563\u0578\u057e\u056b \u0574\u0561\u0580\u0566","name:right:nn":"Kiev oblast","name:right:mk":"\u041a\u0438\u0435\u0432\u0441\u043a\u0430 \u043e\u0431\u043b\u0430\u0441\u0442","name:right:nl":"Oblast Kiev","name:right:ja":"\u30ad\u30a8\u30d5\u5dde","name:right:fr":"Oblast de Kiev","alt_name:left:ro":"Regiunea Cernigov","name:left:ja":"\u30c1\u30a7\u30eb\u30cb\u30fc\u30d2\u30a6\u5dde","id:right":-71248,"name:left:nn":"Tsjernihiv oblast","name:left:no":"Tsjernihiv oblast","name:right:sk":"Kyjevsk\u00e1 oblas\u0165","name:left:bg":"\u0427\u0435\u0440\u043d\u0438\u0433\u043e\u0432\u0441\u043a\u0430 \u043e\u0431\u043b\u0430\u0441\u0442","name:left:be":"\u0427\u0430\u0440\u043d\u0456\u0433\u0430\u045e\u0441\u043a\u0430\u044f \u0432\u043e\u0431\u043b\u0430\u0441\u0446\u044c","name:left:fi":"T\u0161ernihivin alue","id":-71249,"name:right:fi":"Kiovan alue","name:left:eo":"\u0108ernihiva provinco","name:left:en":"Chernihiv Oblast","name:right:ca":"Prov\u00edncia de K\u00edev","kind_detail":"4","name:left:sk":"\u010cernihivsk\u00e1 oblas\u0165","name:left:mk":"\u0427\u0435\u0440\u043d\u0438\u0433\u043e\u0432\u0441\u043a\u0430 \u043e\u0431\u043b\u0430\u0441\u0442","name:left:nl":"Oblast Tsjernihiv","id:left":-71249,"name:left:es":"\u00d3blast de Chernihiv","name:right:cs":"Kyjevsk\u00e1 oblast","name:right":"\u041a\u0438\u0457\u0432\u0441\u044c\u043a\u0430 \u043e\u0431\u043b\u0430\u0441\u0442\u044c","name:left:os":"\u0427\u0435\u0440\u043d\u0438\u0433\u043e\u0432\u044b \u043e\u0431\u043b\u00e6\u0441\u0442","name:left:eu":"Txernihiveko oblasta","name:right:cv":"\u041a\u0435\u0439\u04f3 \u043e\u0431\u043b\u0430\u00e7\u0115","name:right:ka":"\u10d9\u10d8\u10d4\u10d5\u10d8\u10e1 \u10dd\u10da\u10e5\u10d8","name:right:zh-min-nan":"Kyyiv s\u00e9ng","name:right:pt":"Oblast de Kiev","name:left:ar":"\u062a\u0634\u0631\u0646\u064a\u0647\u064a\u0641 \u0623\u0648\u0628\u0644\u0627\u0633\u062a","name:left:pl":"Obw\u00f3d czernihowski","name:left:tr":"\u00c7ernigov Oblast\u0131","name:left:id":"Oblast Chernihiv","name:right:tr":"Kiev Oblast\u0131","name:right:bg":"\u041a\u0438\u0435\u0432\u0441\u043a\u0430 \u043e\u0431\u043b\u0430\u0441\u0442","name:left:pt":"Oblast de Chernigov","name:left:mr":"\u091a\u0947\u0930\u094d\u0928\u093f\u0939\u093f\u0935\u094d\u0939 \u0913\u092c\u094d\u0932\u093e\u0938\u094d\u0924","name:right:sv":"Kiev oblast","name:right:ko":"\ud0a4\uc608\ud504 \uc8fc","name:left:zh-min-nan":"Chernigiv s\u00e9ng","name:left:it":"Oblast' di \u010cernihiv","name:right:pl":"Obw\u00f3d kijowski","osm_relation":true,"name:right:de":"Oblast Kiew","name:left:de":"Oblast Tschernihiw"},"arcs":[1]},{"type":"LineString","properties":{"name:right:uk":"\u0413\u043e\u043c\u0454\u043b\u044c\u0441\u044c\u043a\u0430 \u043e\u0431\u043b\u0430\u0441\u0442\u044c","name:left:he":"\u05de\u05d7\u05d5\u05d6 \u05e6'\u05e8\u05e0\u05d9\u05d4\u05d9\u05d1","name:left:sv":"Tjernihiv oblast","name:right:lt":"Gomelio sritis","min_zoom":8.0,"name:left:lt":"\u010cernigovo sritis","name:left:sh":"\u010cernigivska oblast","name:left:lv":"\u010cer\u0146igovas apgabals","name:left:hu":"Csernyihivi ter\u00fclet","name:left:hr":"\u010cernigivska oblast","sort_rank":256,"name:left:ca":"Prov\u00edncia de Txern\u00edhiv","int_name:right":"Homie\u013askaja voblas\u0107","source":"openstreetmap.org","name:left:cs":"\u010cernihovsk\u00e1 oblast","name:left":"\u0427\u0435\u0440\u043d\u0456\u0433\u0456\u0432\u0441\u044c\u043a\u0430 \u043e\u0431\u043b\u0430\u0441\u0442\u044c","name:left:ka":"\u10e9\u10d4\u10e0\u10dc\u10d8\u10d2\u10dd\u10d5\u10d8\u10e1 \u10dd\u10da\u10e5\u10d8","name:left:os":"\u0427\u0435\u0440\u043d\u0438\u0433\u043e\u0432\u044b \u043e\u0431\u043b\u00e6\u0441\u0442","name:left:ro":"Regiunea Cernig\u0103u","name:left:ru":"\u0427\u0435\u0440\u043d\u0438\u0433\u043e\u0432\u0441\u043a\u0430\u044f \u043e\u0431\u043b\u0430\u0441\u0442\u044c","name:right:eo":"Homela regiono","name:right:en":"Homel Region","name:left:vi":"Chernihiv (t\u1ec9nh)","kind":"region","name":"\u0427\u0435\u0440\u043d\u0456\u0433\u0456\u0432\u0441\u044c\u043a\u0430 \u043e\u0431\u043b\u0430\u0441\u0442\u044c - \u0413\u043e\u043c\u0435\u043b\u044c\u0441\u043a\u0430\u044f \u043e\u0431\u043b\u0430\u0441\u0442\u044c","name:left:fa":"\u0627\u0633\u062a\u0627\u0646 \u0686\u0631\u0646\u06cc\u0647\u06cc\u0648","name:left:fi":"T\u0161ernihivin alue","name:left:zh":"\u5207\u723e\u5c3c\u6208\u592b\u5dde","name:left:fr":"Oblast de Tchernihiv","name:left:hy":"\u0549\u0565\u057c\u0576\u056b\u0563\u0578\u057e\u056b \u0574\u0561\u0580\u0566","name:right:fr":"Voblast de Homiel","alt_name:left:ro":"Regiunea Cernigov","name:left:ja":"\u30c1\u30a7\u30eb\u30cb\u30fc\u30d2\u30a6\u5dde","id:right":-59161,"name:left:nn":"Tsjernihiv oblast","name:left:no":"Tsjernihiv oblast","name:left:nl":"Oblast Tsjernihiv","name:left:bg":"\u0427\u0435\u0440\u043d\u0438\u0433\u043e\u0432\u0441\u043a\u0430 \u043e\u0431\u043b\u0430\u0441\u0442","name:left:be":"\u0427\u0430\u0440\u043d\u0456\u0433\u0430\u045e\u0441\u043a\u0430\u044f \u0432\u043e\u0431\u043b\u0430\u0441\u0446\u044c","name:right:be":"\u0413\u043e\u043c\u0435\u043b\u044c\u0441\u043a\u0430\u044f \u0432\u043e\u0431\u043b\u0430\u0441\u0446\u044c","id":-71249,"name:right":"\u0413\u043e\u043c\u0435\u043b\u044c\u0441\u043a\u0430\u044f \u043e\u0431\u043b\u0430\u0441\u0442\u044c","name:left:eo":"\u0108ernihiva provinco","name:left:en":"Chernihiv Oblast","kind_detail":"4","name:left:sk":"\u010cernihivsk\u00e1 oblas\u0165","name:left:pl":"Obw\u00f3d czernihowski","id:left":-71249,"name:left:es":"\u00d3blast de Chernihiv","name:left:ko":"\uccb4\ub974\ub2c8\ud788\uc6b0 \uc8fc","name:left:eu":"Txernihiveko oblasta","name:left:et":"T\u0161ernigivi oblast","name:left:ar":"\u062a\u0634\u0631\u0646\u064a\u0647\u064a\u0641 \u0623\u0648\u0628\u0644\u0627\u0633\u062a","name:left:mk":"\u0427\u0435\u0440\u043d\u0438\u0433\u043e\u0432\u0441\u043a\u0430 \u043e\u0431\u043b\u0430\u0441\u0442","name:left:tr":"\u00c7ernigov Oblast\u0131","name:left:id":"Oblast Chernihiv","name:left:pt":"Oblast de Chernigov","name:left:mr":"\u091a\u0947\u0930\u094d\u0928\u093f\u0939\u093f\u0935\u094d\u0939 \u0913\u092c\u094d\u0932\u093e\u0938\u094d\u0924","old_name:right:uk":"\u0413\u043e\u043c\u0435\u043b\u044c\u0441\u044c\u043a\u0430 \u043e\u0431\u043b\u0430\u0441\u0442\u044c","name:left:zh-min-nan":"Chernigiv s\u00e9ng","name:left:it":"Oblast' di \u010cernihiv","name:right:pl":"obw\u00f3d homelski","osm_relation":true,"name:right:de":"Woblast Homel","name:left:de":"Oblast Tschernihiw"},"arcs":[2]},{"type":"LineString","properties":{"name:pt":"Oblast de Chernigov","name:ro":"Regiunea Cernig\u0103u","name:id":"Oblast Chernihiv","name:ka":"\u10e9\u10d4\u10e0\u10dc\u10d8\u10d2\u10dd\u10d5\u10d8\u10e1 \u10dd\u10da\u10e5\u10d8","name:mr":"\u091a\u0947\u0930\u094d\u0928\u093f\u0939\u093f\u0935\u094d\u0939 \u0913\u092c\u094d\u0932\u093e\u0938\u094d\u0924","name:ko":"\uccb4\ub974\ub2c8\ud788\uc6b0 \uc8fc","name:ar":"\u062a\u0634\u0631\u0646\u064a\u0647\u064a\u0641 \u0623\u0648\u0628\u0644\u0627\u0633\u062a","name:cs":"\u010cernihovsk\u00e1 oblast","min_zoom":8.0,"name:it":"Oblast' di \u010cernihiv","name:zh-min-nan":"Chernigiv s\u00e9ng","name:os":"\u0427\u0435\u0440\u043d\u0438\u0433\u043e\u0432\u044b \u043e\u0431\u043b\u00e6\u0441\u0442","name:vi":"Chernihiv (t\u1ec9nh)","name:pl":"Obw\u00f3d czernihowski","id":-71249,"name:ca":"Prov\u00edncia de Txern\u00edhiv","name:fa":"\u0627\u0633\u062a\u0627\u0646 \u0686\u0631\u0646\u06cc\u0647\u06cc\u0648","name:bg":"\u0427\u0435\u0440\u043d\u0438\u0433\u043e\u0432\u0441\u043a\u0430 \u043e\u0431\u043b\u0430\u0441\u0442","name:lt":"\u010cernigovo sritis","source":"openstreetmap.org","sort_rank":256,"kind_detail":"4","name:sh":"\u010cernigivska oblast","name:de":"Oblast Tschernihiw","name:tr":"\u00c7ernigov Oblast\u0131","name:fr":"Oblast de Tchernihiv","name:mk":"\u0427\u0435\u0440\u043d\u0438\u0433\u043e\u0432\u0441\u043a\u0430 \u043e\u0431\u043b\u0430\u0441\u0442","name:be":"\u0427\u0430\u0440\u043d\u0456\u0433\u0430\u045e\u0441\u043a\u0430\u044f \u0432\u043e\u0431\u043b\u0430\u0441\u0446\u044c","alt_name:ro":"Regiunea Cernigov","name:zh":"\u5207\u723e\u5c3c\u6208\u592b\u5dde","name:lv":"\u010cer\u0146igovas apgabals","name:ja":"\u30c1\u30a7\u30eb\u30cb\u30fc\u30d2\u30a6\u5dde","name:nn":"Tsjernihiv oblast","name:no":"Tsjernihiv oblast","name:he":"\u05de\u05d7\u05d5\u05d6 \u05e6'\u05e8\u05e0\u05d9\u05d4\u05d9\u05d1","kind":"region","name:sk":"\u010cernihivsk\u00e1 oblas\u0165","name:hy":"\u0549\u0565\u057c\u0576\u056b\u0563\u0578\u057e\u056b \u0574\u0561\u0580\u0566","name:ru":"\u0427\u0435\u0440\u043d\u0438\u0433\u043e\u0432\u0441\u043a\u0430\u044f \u043e\u0431\u043b\u0430\u0441\u0442\u044c","name:sv":"Tjernihiv oblast","name:hu":"Csernyihivi ter\u00fclet","name:hr":"\u010cernigivska oblast","osm_relation":true,"name:eo":"\u0108ernihiva provinco","name:en":"Chernihiv Oblast","name":"\u0427\u0435\u0440\u043d\u0456\u0433\u0456\u0432\u0441\u044c\u043a\u0430 \u043e\u0431\u043b\u0430\u0441\u0442\u044c","name:fi":"T\u0161ernihivin alue","name:eu":"Txernihiveko oblasta","name:et":"T\u0161ernigivi oblast","name:nl":"Oblast Tsjernihiv","name:es":"\u00d3blast de Chernihiv"},"arcs":[3]},{"type":"MultiLineString","properties":{"name:right:hy":"\u053a\u056b\u057f\u0578\u0574\u056b\u0580\u056b \u0574\u0561\u0580\u0566","name:right:yi":"\u05d6\u05e9\u05d9\u05d8\u05d0\u05de\u05d9\u05e8\u05e2\u05e8 \u05d2\u05d5\u05d1\u05e2\u05e8\u05e0\u05d9\u05e2","name:right:no":"Zjytomyr oblast","name:right:hr":"\u017ditomirska oblast","name:left:sv":"Kiev oblast","name:left:sr":"\u041a\u0438\u0458\u0435\u0432\u0441\u043a\u0430 \u043e\u0431\u043b\u0430\u0441\u0442","name:right:lt":"\u017dytomyro sritis","name:right:lv":"\u017ditomiras apgabals","name:left:lt":"Kijevo sritis","name:left:sh":"Kijevska oblast","name:left:sk":"Kyjevsk\u00e1 oblas\u0165","name:left:hr":"Kijevska oblast","name:right:vi":"Zhytomyr (t\u1ec9nh)","sort_rank":256,"name:left:ca":"Prov\u00edncia de K\u00edev","source":"openstreetmap.org","name:right:ar":"\u0632\u064a\u062a\u0648\u0645\u064a\u0631 \u0623\u0648\u0628\u0644\u0627\u0633\u062a","name:left:cv":"\u041a\u0435\u0439\u04f3 \u043e\u0431\u043b\u0430\u00e7\u0115","name:left:cs":"Kyjevsk\u00e1 oblast","name:left":"\u041a\u0438\u0457\u0432\u0441\u044c\u043a\u0430 \u043e\u0431\u043b\u0430\u0441\u0442\u044c","name:right:es":"\u00d3blast de Zhytomyr","name:right:sr":"\u0416\u0438\u0442\u043e\u043c\u0438\u0440\u0441\u043a\u0430 \u043e\u0431\u043b\u0430\u0441\u0442","name:left:ka":"\u10d9\u10d8\u10d4\u10d5\u10d8\u10e1 \u10dd\u10da\u10e5\u10d8","name:right:eu":"Zhytomyrko oblasta","name:right:et":"\u017d\u00f5tom\u00f5ri oblast","name:left:ko":"\ud0a4\uc608\ud504 \uc8fc","name:right:it":"Oblast' di \u017dytomyr","name:left:ro":"Regiunea Kiev","name:right:ru":"\u0416\u0438\u0442\u043e\u043c\u0438\u0440\u0441\u043a\u0430\u044f \u043e\u0431\u043b\u0430\u0441\u0442\u044c","name:right:ro":"Regiunea J\u00eetom\u00eer","name:left:ru":"\u041a\u0438\u0435\u0432\u0441\u043a\u0430\u044f \u043e\u0431\u043b\u0430\u0441\u0442\u044c","name:right:mr":"\u091d\u093f\u0924\u094b\u092e\u093f\u0930 \u0913\u092c\u094d\u0932\u093e\u0938\u094d\u0924","name:right:id":"Oblast Zhytomyr","name:right:eo":"\u0134itomira provinco","name:right:en":"Zhytomyr Oblast","name:left:vi":"Kiev (t\u1ec9nh)","kind":"region","name":"\u041a\u0438\u0457\u0432\u0441\u044c\u043a\u0430 \u043e\u0431\u043b\u0430\u0441\u0442\u044c - \u0416\u0438\u0442\u043e\u043c\u0438\u0440\u0441\u044c\u043a\u0430 \u043e\u0431\u043b\u0430\u0441\u0442\u044c","name:left:fa":"\u0627\u0633\u062a\u0627\u0646 \u06a9\u06cc\u0641","name:right:fa":"\u0627\u0633\u062a\u0627\u0646 \u0698\u06cc\u062a\u0648\u0645\u06cc\u0631","min_zoom":8.0,"name:right:be":"\u0416\u044b\u0442\u043e\u043c\u0456\u0440\u0441\u043a\u0430\u044f \u0432\u043e\u0431\u043b\u0430\u0441\u0446\u044c","name:left:zh":"\u57fa\u8f85\u5dde","name:left:fr":"Oblast de Kiev","name:right:bs":"\u017ditomirska oblast","name:right:zh":"\u65e5\u6258\u7c73\u723e\u5dde","name:left:et":"Kiievi oblast","name:left:hy":"\u053f\u056b\u0587\u056b \u0574\u0561\u0580\u0566","name:right:nn":"Zjytomyr oblast","name:left:bs":"Kijevska oblast","name:right:nl":"Oblast Zjytomyr","name:right:ja":"\u30b8\u30c8\u30fc\u30e0\u30a3\u30eb\u5dde","name:right:fr":"Oblast de Jytomyr","name:left:lv":"Kijevas apgabals","name:left:ja":"\u30ad\u30a8\u30d5\u5dde","id:right":-71245,"name:left:nn":"Kiev oblast","name:right:sh":"\u017ditomirska oblast","name:right:sk":"\u017dytomyrsk\u00e1 oblas\u0165","name:left:bg":"\u041a\u0438\u0435\u0432\u0441\u043a\u0430 \u043e\u0431\u043b\u0430\u0441\u0442","name:left:be":"\u041a\u0456\u0435\u045e\u0441\u043a\u0430\u044f \u0432\u043e\u0431\u043b\u0430\u0441\u0446\u044c","name:left:no":"Kiev oblast","name:left:fi":"Kiovan alue","id":-71248,"name:right:fi":"\u017dytomyrin alue","name:left:eo":"Kieva provinco","name:left:en":"Kyiv Oblast","name:right:ca":"Prov\u00edncia de Jyt\u00f3myr","kind_detail":"4","name:left:mk":"\u041a\u0438\u0435\u0432\u0441\u043a\u0430 \u043e\u0431\u043b\u0430\u0441\u0442","name:left:nl":"Oblast Kiev","id:left":-71248,"name:left:es":"\u00d3blast de Kiev","name:right:cs":"\u017dytomyrsk\u00e1 oblast","name:right":"\u0416\u0438\u0442\u043e\u043c\u0438\u0440\u0441\u044c\u043a\u0430 \u043e\u0431\u043b\u0430\u0441\u0442\u044c","name:right:cu":"\u0416\u0438\u0442\u043e\u043c\u0438\u0440\u044c\u0441\u043a\u0430 \u043e\u0431\u043b\u0430\u0441\u0442\u044c","name:left:os":"\u041a\u0438\u0435\u0432\u044b \u043e\u0431\u043b\u00e6\u0441\u0442","name:left:eu":"Kieveko oblasta","name:right:cv":"\u0416\u0438\u0442\u043e\u043c\u0438\u0440 \u043e\u0431\u043b\u0430\u00e7\u0115","name:right:mk":"\u0416\u0438\u0442\u043e\u043c\u0438\u0440\u0441\u043a\u0430 \u043e\u0431\u043b\u0430\u0441\u0442","name:right:zh-min-nan":"Zhytomyr s\u00e9ng","name:right:pt":"Oblast de Jitomir","name:left:ar":"\u0643\u064a\u064a\u0641 \u0623\u0648\u0628\u0644\u0627\u0633\u062a","name:left:pl":"Obw\u00f3d kijowski","name:left:tr":"Kiev Oblast\u0131","name:left:id":"Oblast Kiev","name:right:tr":"Jitomir Oblast\u0131","name:right:bg":"\u0416\u0438\u0442\u043e\u043c\u0438\u0440\u0441\u043a\u0430 \u043e\u0431\u043b\u0430\u0441\u0442","name:left:ms":"Oblast Kiev","name:left:mr":"\u0915\u094d\u092f\u0940\u0935 \u0913\u092c\u094d\u0932\u093e\u0938\u094d\u0924","name:right:sv":"Zjytomyr oblast","name:right:ko":"\uc9c0\ud1a0\ubbf8\ub974 \uc8fc","name:left:zh-min-nan":"Kyyiv s\u00e9ng","name:left:it":"Oblast' di Kiev","name:right:pl":"Obw\u00f3d \u017cytomierski","osm_relation":true,"name:left:pt":"Oblast de Kiev","name:right:ka":"\u10df\u10d8\u10e2\u10dd\u10db\u10d8\u10e0\u10d8\u10e1 \u10dd\u10da\u10e5\u10d8","name:right:de":"Oblast Schytomyr","name:left:de":"Oblast Kiew"},"arcs":[[4],[5]]},{"type":"LineString","properties":{"name:right:uk":"\u0413\u043e\u043c\u0454\u043b\u044c\u0441\u044c\u043a\u0430 \u043e\u0431\u043b\u0430\u0441\u0442\u044c","name:left:sv":"Kiev oblast","name:left:sr":"\u041a\u0438\u0458\u0435\u0432\u0441\u043a\u0430 \u043e\u0431\u043b\u0430\u0441\u0442","name:right:lt":"Gomelio sritis","min_zoom":8.0,"name:left:lt":"Kijevo sritis","name:left:sh":"Kijevska oblast","name:left:sk":"Kyjevsk\u00e1 oblas\u0165","name:left:hr":"Kijevska oblast","sort_rank":256,"name:left:ca":"Prov\u00edncia de K\u00edev","int_name:right":"Homie\u013askaja voblas\u0107","source":"openstreetmap.org","name:left:cv":"\u041a\u0435\u0439\u04f3 \u043e\u0431\u043b\u0430\u00e7\u0115","name:left:cs":"Kyjevsk\u00e1 oblast","name:left":"\u041a\u0438\u0457\u0432\u0441\u044c\u043a\u0430 \u043e\u0431\u043b\u0430\u0441\u0442\u044c","name:left:ka":"\u10d9\u10d8\u10d4\u10d5\u10d8\u10e1 \u10dd\u10da\u10e5\u10d8","name:left:os":"\u041a\u0438\u0435\u0432\u044b \u043e\u0431\u043b\u00e6\u0441\u0442","name:left:ro":"Regiunea Kiev","name:left:ru":"\u041a\u0438\u0435\u0432\u0441\u043a\u0430\u044f \u043e\u0431\u043b\u0430\u0441\u0442\u044c","name:right:eo":"Homela regiono","name:right:en":"Homel Region","name:left:vi":"Kiev (t\u1ec9nh)","kind":"region","name":"\u041a\u0438\u0457\u0432\u0441\u044c\u043a\u0430 \u043e\u0431\u043b\u0430\u0441\u0442\u044c - \u0413\u043e\u043c\u0435\u043b\u044c\u0441\u043a\u0430\u044f \u043e\u0431\u043b\u0430\u0441\u0442\u044c","name:left:fa":"\u0627\u0633\u062a\u0627\u0646 \u06a9\u06cc\u0641","name:left:fi":"Kiovan alue","name:left:zh":"\u57fa\u8f85\u5dde","name:left:fr":"Oblast de Kiev","name:left:hy":"\u053f\u056b\u0587\u056b \u0574\u0561\u0580\u0566","name:left:bs":"Kijevska oblast","name:right:fr":"Voblast de Homiel","name:left:lv":"Kijevas apgabals","name:left:ja":"\u30ad\u30a8\u30d5\u5dde","id:right":-59161,"name:left:nn":"Kiev oblast","name:left:no":"Kiev oblast","name:left:nl":"Oblast Kiev","name:left:bg":"\u041a\u0438\u0435\u0432\u0441\u043a\u0430 \u043e\u0431\u043b\u0430\u0441\u0442","name:left:be":"\u041a\u0456\u0435\u045e\u0441\u043a\u0430\u044f \u0432\u043e\u0431\u043b\u0430\u0441\u0446\u044c","name:right:be":"\u0413\u043e\u043c\u0435\u043b\u044c\u0441\u043a\u0430\u044f \u0432\u043e\u0431\u043b\u0430\u0441\u0446\u044c","id":-71248,"name:right":"\u0413\u043e\u043c\u0435\u043b\u044c\u0441\u043a\u0430\u044f \u043e\u0431\u043b\u0430\u0441\u0442\u044c","name:left:eo":"Kieva provinco","name:left:en":"Kyiv Oblast","kind_detail":"4","name:left:pl":"Obw\u00f3d kijowski","id:left":-71248,"name:left:es":"\u00d3blast de Kiev","name:left:ko":"\ud0a4\uc608\ud504 \uc8fc","name:left:eu":"Kieveko oblasta","name:left:et":"Kiievi oblast","name:left:ar":"\u0643\u064a\u064a\u0641 \u0623\u0648\u0628\u0644\u0627\u0633\u062a","name:left:mk":"\u041a\u0438\u0435\u0432\u0441\u043a\u0430 \u043e\u0431\u043b\u0430\u0441\u0442","name:left:tr":"Kiev Oblast\u0131","name:left:id":"Oblast Kiev","name:left:ms":"Oblast Kiev","name:left:mr":"\u0915\u094d\u092f\u0940\u0935 \u0913\u092c\u094d\u0932\u093e\u0938\u094d\u0924","old_name:right:uk":"\u0413\u043e\u043c\u0435\u043b\u044c\u0441\u044c\u043a\u0430 \u043e\u0431\u043b\u0430\u0441\u0442\u044c","name:left:zh-min-nan":"Kyyiv s\u00e9ng","name:left:it":"Oblast' di Kiev","name:right:pl":"obw\u00f3d homelski","osm_relation":true,"name:left:pt":"Oblast de Kiev","name:right:de":"Woblast Homel","name:left:de":"Oblast Kiew"},"arcs":[6]}]},"roads":{"type":"GeometryCollection","geometries":[{"type":"LineString","properties":{"kind":"major_road","name:en":"Kyivska Street","network":"ua:regional","sort_rank":380,"kind_detail":"primary","source":"openstreetmap.org","min_zoom":8.0,"shield_text":"02","name:ru":"\u041a\u0438\u0435\u0432\u0441\u043a\u0430\u044f \u0443\u043b\u0438\u0446\u0430","ref":"\u0420-02","id":279493101},"arcs":[10]},{"type":"MultiLineString","properties":{"kind":"major_road","network":"ua:regional","sort_rank":380,"kind_detail":"primary","source":"openstreetmap.org","min_zoom":8.0,"shield_text":"56","ref":"\u0420-56"},"arcs":[[11],[12],[13],[14],[15]]},{"type":"LineString","properties":{"kind":"major_road","network":"by:national","sort_rank":380,"kind_detail":"primary","source":"openstreetmap.org","min_zoom":8.0,"shield_text":"35","name:be":"\u0410\u044d\u0440\u0430\u0434\u0440\u043e\u043c\u043d\u0430\u044f \u0432\u0443\u043b\u0456\u0446\u0430","ref":"\u042035","id":359090788},"arcs":[16]},{"type":"LineString","properties":{"kind":"major_road","network":"e-road","sort_rank":381,"kind_detail":"trunk","source":"openstreetmap.org","min_zoom":8.0,"shield_text":"373","ref":"\u041c-07"},"arcs":[17]},{"type":"LineString","properties":{"source":"openstreetmap.org","kind":"major_road","landuse_kind":"residential","sort_rank":380,"kind_detail":"primary","min_zoom":8.0,"id":28738387},"arcs":[18]},{"type":"MultiLineString","properties":{"kind":"major_road","network":"ua:regional","sort_rank":380,"kind_detail":"primary","source":"openstreetmap.org","min_zoom":8.0,"shield_text":"02","ref":"\u0420-02"},"arcs":[[19],[20],[21],[22],[23],[24],[25],[26],[27],[28],[29],[30],[31],[32],[33],[34],[35],[36],[37]]},{"type":"LineString","properties":{"source":"openstreetmap.org","kind":"ferry","name":"\u0411\u0430\u0437\u0430 \"\u0421\u043e\u0440\u043e\u043a\u043e\u0448\u0438\u0447\u0456\" - \u041f\u043b\u0430\u0432\u0431\u0430\u0437\u0430 \"\u041d\u0435\u043f\u0442\u0443\u043d\"","sort_rank":355,"min_zoom":8.0,"id":238469107},"arcs":[38]},{"type":"LineString","properties":{"kind":"major_road","network":"ua:regional","sort_rank":380,"kind_detail":"primary","source":"openstreetmap.org","min_zoom":8.0,"landuse_kind":"urban_area","shield_text":"69","ref":"\u0420-69"},"arcs":[39]},{"type":"LineString","properties":{"kind":"major_road","network":"ua:regional","sort_rank":380,"kind_detail":"primary","source":"openstreetmap.org","min_zoom":8.0,"landuse_kind":"urban_area","shield_text":"56","name:ru":"\u0413\u0435\u0440\u043e\u0435\u0432 \u0427\u0435\u0440\u043d\u043e\u0431\u044b\u043b\u044f \u043f\u0440\u043e\u0441\u043f\u0435\u043a\u0442","name:pl":"aleja Bohater\u00f3w Czarnobyla","ref":"\u0420-56","id":228981914},"arcs":[40]},{"type":"LineString","properties":{"kind":"major_road","network":"ua:regional","sort_rank":380,"kind_detail":"primary","source":"openstreetmap.org","min_zoom":8.0,"landuse_kind":"protected_area","shield_text":"02","ref":"\u0420-02;\u041e-101106","id":393032102},"arcs":[41]},{"type":"LineString","properties":{"kind":"major_road","network":"ua:regional","sort_rank":380,"kind_detail":"primary","source":"openstreetmap.org","min_zoom":8.0,"landuse_kind":"urban_area","shield_text":"56","ref":"\u0420-56"},"arcs":[42]},{"type":"MultiLineString","properties":{"kind":"major_road","network":"ua:regional","sort_rank":380,"kind_detail":"primary","source":"openstreetmap.org","min_zoom":8.0,"landuse_kind":"residential","shield_text":"02","ref":"\u0420-02"},"arcs":[[43],[44],[45],[46],[47]]},{"type":"LineString","properties":{"source":"openstreetmap.org","kind":"major_road","sort_rank":380,"kind_detail":"primary","ref":"\u0420-56","min_zoom":8.0,"id":521463752},"arcs":[48]},{"type":"MultiLineString","properties":{"source":"openstreetmap.org","kind":"major_road","network":"ua:regional","sort_rank":380,"kind_detail":"primary","min_zoom":8.0,"shield_text":"02"},"arcs":[[49],[50]]},{"type":"MultiLineString","properties":{"kind":"major_road","sort_rank":380,"kind_detail":"primary","source":"openstreetmap.org","min_zoom":8.0,"landuse_kind":"urban_area","name:ru":"\u0413\u0435\u0440\u043e\u0435\u0432 \u0427\u0435\u0440\u043d\u043e\u0431\u044b\u043b\u044f \u043f\u0440\u043e\u0441\u043f\u0435\u043a\u0442","name:pl":"aleja Bohater\u00f3w Czarnobyla"},"arcs":[[51],[52]]},{"type":"LineString","properties":{"kind":"major_road","network":"ua:regional","sort_rank":380,"kind_detail":"primary","source":"openstreetmap.org","min_zoom":8.0,"shield_text":"02","name:ru":"\u041a\u0438\u0435\u0432\u0441\u043a\u0430\u044f \u0443\u043b\u0438\u0446\u0430","ref":"\u0420-02","id":286676287},"arcs":[53]},{"type":"MultiLineString","properties":{"source":"openstreetmap.org","kind":"major_road","landuse_kind":"protected_area","sort_rank":380,"kind_detail":"primary","min_zoom":8.0},"arcs":[[54],[55]]},{"type":"LineString","properties":{"kind":"major_road","network":"ua:regional","sort_rank":380,"kind_detail":"primary","source":"openstreetmap.org","min_zoom":8.0,"landuse_kind":"nature_reserve","shield_text":"56","ref":"\u0420-56","id":404448245},"arcs":[56]},{"type":"LineString","properties":{"kind":"major_road","network":"ua:regional","sort_rank":380,"kind_detail":"primary","source":"openstreetmap.org","min_zoom":8.0,"shield_text":"02","ref":"\u0420-02;\u041e-101106","id":393032102},"arcs":[57]},{"type":"MultiLineString","properties":{"kind":"major_road","network":"ua:regional","sort_rank":380,"kind_detail":"primary","source":"openstreetmap.org","min_zoom":8.0,"landuse_kind":"residential","shield_text":"69","ref":"\u0420-69"},"arcs":[[58],[59]]},{"type":"MultiLineString","properties":{"kind":"major_road","network":"ua:regional","sort_rank":380,"kind_detail":"primary","source":"openstreetmap.org","min_zoom":8.0,"landuse_kind":"protected_area","shield_text":"56","ref":"\u0420-56"},"arcs":[[60],[61],[62]]},{"type":"MultiLineString","properties":{"kind":"major_road","network":"by:national","sort_rank":380,"kind_detail":"primary","source":"openstreetmap.org","min_zoom":8.0,"shield_text":"35","ref":"\u042035"},"arcs":[[63],[64]]},{"type":"MultiLineString","properties":{"kind":"major_road","network":"ua:regional","sort_rank":380,"kind_detail":"primary","source":"openstreetmap.org","min_zoom":8.0,"shield_text":"69","ref":"\u0420-69"},"arcs":[[65],[66],[67],[68]]},{"type":"LineString","properties":{"source":"openstreetmap.org","kind":"major_road","sort_rank":380,"kind_detail":"primary","ref":"\u042035","min_zoom":8.0},"arcs":[69]},{"type":"LineString","properties":{"kind":"major_road","name:en":"Myru Street","network":"ua:regional","sort_rank":380,"kind_detail":"primary","source":"openstreetmap.org","min_zoom":8.0,"shield_text":"69","name:ru":"\u041c\u0438\u0440\u0430 \u0443\u043b\u0438\u0446\u0430","ref":"\u0420-69","id":204094955},"arcs":[70]},{"type":"LineString","properties":{"kind":"major_road","network":"by:national","sort_rank":380,"kind_detail":"primary","source":"openstreetmap.org","min_zoom":8.0,"shield_text":"35","name:be":"\u0427\u044b\u0433\u0443\u043d\u0430\u0447\u043d\u0430\u044f \u0432\u0443\u043b\u0456\u0446\u0430","ref":"\u042035","id":359090792},"arcs":[71]}]},"earth":{"type":"GeometryCollection","geometries":[{"type":"Polygon","properties":{"sort_rank":10,"source":"naturalearthdata.com","kind":"earth","min_zoom":0.0,"id":4755},"arcs":[[72]]}]},"landuse":{"type":"GeometryCollection","geometries":[{"type":"Polygon","properties":{"kind":"protected_area","protect_class":"4","area":1369570048,"sort_rank":17,"source":"openstreetmap.org","min_zoom":4.0,"tier":2,"id":-6491211,"osm_relation":true},"arcs":[[73]]},{"type":"Polygon","properties":{"kind":"national_park","protect_class":"2","area":335849984,"sort_rank":18,"source":"openstreetmap.org","min_zoom":3.0,"tier":1,"id":-6178989,"osm_relation":true},"arcs":[[74]]},{"type":"Polygon","properties":{"kind":"nature_reserve","area":776321984,"sort_rank":23,"source":"openstreetmap.org","min_zoom":6.0,"tier":2,"id":-7317519,"osm_relation":true},"arcs":[[75],[76],[77],[78],[79],[80],[81]]},{"type":"Polygon","properties":{"kind":"residential","name":"\u041a\u043e\u0440\u043e\u043f\u2019\u0454","area":11102800,"sort_rank":20,"source":"openstreetmap.org","min_zoom":8.0,"tier":2,"id":438208275},"arcs":[[82]]},{"type":"Polygon","properties":{"kind":"nature_reserve","area":5717409792,"sort_rank":23,"source":"openstreetmap.org","min_zoom":4.0,"tier":2,"id":-3397849,"osm_relation":true},"arcs":[[83]]},{"type":"Polygon","properties":{"kind":"protected_area","protect_class":"4","area":74443863,"sort_rank":17,"source":"openstreetmap.org","min_zoom":8.0,"tier":2,"osm_relation":true},"arcs":[[84],[85],[86],[87],[88],[89],[90],[91],[92],[93],[94],[95],[96],[97],[98],[99],[100]]},{"type":"Polygon","properties":{"kind":"residential","name":"\u041e\u0431\u0443\u0445\u043e\u0432\u0438\u0447\u0456","area":10070000,"sort_rank":20,"source":"openstreetmap.org","min_zoom":8.0,"tier":2,"id":196982848},"arcs":[[101]]},{"type":"Polygon","properties":{"kind":"protected_area","protect_class":"16","area":5235330048,"sort_rank":17,"operator":"\u0414\u0435\u0440\u0436\u0430\u0432\u043d\u0430 \u0441\u043b\u0443\u0436\u0431\u0430 \u0423\u043a\u0440\u0430\u0457\u043d\u0438 \u0437 \u043d\u0430\u0434\u0437\u0432\u0438\u0447\u0430\u0439\u043d\u0438\u0445 \u0441\u0438\u0442\u0443\u0430\u0446\u0456\u0439","source":"openstreetmap.org","min_zoom":4.0,"tier":2,"id":-3311547,"osm_relation":true},"arcs":[[102]]},{"type":"MultiPolygon","properties":{"source":"openstreetmap.org","kind":"military","tier":3,"area":95546542,"sort_rank":45,"min_zoom":8.0},"arcs":[[[103]]]},{"type":"MultiPolygon","properties":{"source":"naturalearthdata.com","kind":"urban_area","name":"","area":1010810745,"sort_rank":11,"min_zoom":4.0},"arcs":[[[104]],[[105]],[[106]],[[107]]]},{"type":"Polygon","properties":{"kind":"residential","name":"\u0406\u0432\u0430\u043d\u043a\u0456\u0432","area":15275100,"sort_rank":20,"source":"openstreetmap.org","min_zoom":8.0,"tier":2,"name:ru":"\u0418\u0432\u0430\u043d\u043a\u043e\u0432","id":147267005},"arcs":[[108]]},{"type":"Polygon","properties":{"name:pt":"Chernobyl","name:ro":"Cernob\u00eel","name:id":"Chernobyl","name:ms":"Chernobyl","name:ko":"\ucd08\ub974\ub178\ube4c","name:ar":"\u062a\u0634\u064a\u0631\u0646\u0648\u0628\u064a\u0644","name:cs":"\u010cernobyl","name:tr":"\u00c7ernobil","min_zoom":8.0,"name:it":"\u010cernobyl","name:vi":"Chernobyl","name:ru":"\u0427\u0435\u0440\u043d\u043e\u0431\u044b\u043b\u044c","name:pl":"Czarnobyl","id":-2313456,"name:ca":"Txern\u00f2bil","name:af":"\u010cernobylis","name:nn":"Tsjernobyl","area":15107600,"sort_rank":20,"name:fi":"T\u0161ernobyl","name:da":"Tjernobyl","name:de":"Tschornobyl","name:oc":"Chornobyl","name:fr":"Tchernobyl","name:zh":"\u5207\u5c14\u8bfa\u8d1d\u5229","name:sl":"\u010cernobil","name:nl":"Tsjernobyl","name:ja":"\u30c1\u30e7\u30eb\u30ce\u30fc\u30d6\u30a3\u30ea","name:lt":"\u010cernobylis","name:no":"Tsjernobyl","name:he":"\u05e6'\u05e8\u05e0\u05d5\u05d1\u05d9\u05dc","name:eo":"\u0108ernobilo","name:lb":"Tschernobyl","name:yi":"\u05d8\u05e9\u05e2\u05e8\u05e0\u05d0\u05d1\u05dc","name:sk":"\u010cernoby\u013e","tier":2,"name:sv":"Tjernobyl","name:hu":"Csernobil","name:hr":"\u010cernuob\u012blis","name:sr":"\u0427\u0435\u0440\u043d\u043e\u0431\u0438\u0459","osm_relation":true,"kind":"residential","name:en":"Chornobyl","name":"\u0427\u043e\u0440\u043d\u043e\u0431\u0438\u043b\u044c","source":"openstreetmap.org","name:eu":"Txernobyl","name:et":"T\u0161ornob\u00f5l","name:es":"Chern\u00f3bil"},"arcs":[[109]]},{"type":"MultiPolygon","properties":{"source":"openstreetmap.org","kind":"residential","tier":2,"area":194612982,"sort_rank":20,"min_zoom":8.0},"arcs":[[[110]],[[111]],[[112]],[[113]]]}]}},"type":"Topology","transform":{"translate":[29.53125,50.736455137],"scale":[0.0003433228,0.000215225]},"arcs":[[[2913,4096],[1,-71],[-73,-10],[23,-40],[114,-61],[-6,-27],[-50,9],[-22,-25],[55,-130],[78,51],[33,-29],[-45,-162],[50,-59],[22,-104],[76,-22],[12,-32],[-126,-70],[18,-89],[28,-32],[40,32],[35,-8],[99,-245],[-61,-70],[61,-69],[-12,-50],[-86,-13],[-83,-97],[59,-18],[-40,-16],[9,-17],[56,18],[-13,-77],[-31,-37],[-88,-28],[-28,-77],[-184,102],[-133,-20],[-12,29],[35,47],[-11,70],[-113,-5],[-77,33],[-213,223],[112,88],[-41,204],[-77,47],[-101,141],[-119,100],[-100,36],[-94,90],[-34,-16],[-13,-93],[-105,79],[-20,-7],[16,-65],[-27,-15],[-289,87],[-9,-74],[-70,-36],[-45,15],[-38,-67],[-36,13],[-3,47],[-65,37],[-96,-32],[-24,-31],[18,-22],[-8,-51],[-30,-23],[8,-54],[-85,17],[-17,39],[-85,-40],[-11,48],[-55,-9],[8,-76],[-155,73],[-36,163],[30,4],[12,40],[-17,135],[-69,-5],[-43,-51],[-73,-32],[-12,-42],[-53,15],[-33,-34],[-28,34],[-26,-55],[-46,-4],[-9,-102],[-59,-36],[-136,86],[-10,-91],[-12,-24]],[[2938,2465],[0,-41],[58,-75],[-4,-44],[-28,-14],[-67,31],[-60,-44],[74,-115],[-39,-69],[56,-14],[12,-27],[-34,-22],[-85,7],[-27,-46],[13,-153],[65,-98],[-14,-43],[-89,-48],[82,-83],[-49,-114],[18,-140],[295,39],[7,-83],[61,1],[52,-34],[8,-179],[115,-289],[141,-31],[10,-34],[104,-62],[15,-192],[-35,-34],[16,-39],[-31,-33],[-43,42],[-39,-10],[46,-118],[-35,-39],[16,-60],[37,25],[26,-18],[24,32],[187,-81],[31,53],[75,35],[-80,-73],[-7,-48],[-36,10],[16,-54],[119,9],[7,100],[34,25],[8,-36],[120,-13],[12,-23]],[[2924,4096],[-3,-64],[-62,0],[-19,-29],[138,-89],[-6,-27],[-50,9],[-22,-25],[55,-130],[84,51],[33,-44],[-51,-147],[50,-59],[22,-104],[76,-22],[12,-32],[-32,-34],[-60,-7],[-36,-44],[35,-100],[88,18],[99,-245],[-60,-80],[63,-76],[-24,-43],[-77,-3],[-83,-97],[59,-18],[-40,-16],[9,-17],[56,18],[-26,-98],[-101,-39],[-33,-82],[-80,44]],[[3264,3658],[56,33],[100,-3],[-4,110],[92,-24],[1,-37],[144,-9],[-9,-125],[-247,48],[-114,-17],[-19,24]],[[0,411],[32,16],[13,-48],[5,-27],[-50,11]],[[0,179],[13,7],[100,-23],[-12,-38],[55,-77],[-17,-27],[20,-21]],[[2938,2465],[-104,58],[-133,-20],[-12,29],[35,47],[-11,70],[-113,-5],[-77,33],[-213,223],[112,88],[-41,204],[-77,47],[-101,141],[-119,100],[-100,36],[-94,90],[-34,-16],[-13,-93],[-105,79],[-20,-7],[16,-65],[-27,-15],[-289,87],[-9,-74],[-70,-36],[-45,15],[-38,-67],[-36,13],[-3,47],[-65,37],[-96,-32],[-24,-31],[18,-22],[-8,-51],[-30,-23],[8,-54],[-85,17],[-17,39],[-85,-40],[-11,48],[-55,-9],[8,-76],[-155,73],[-36,163],[30,4],[12,40],[-17,135],[-69,-5],[-43,-51],[-73,-32],[-12,-42],[-53,15],[-33,-34],[-28,34],[-26,-55],[-46,-4],[-9,-102],[-59,-36],[-136,86],[-10,-91],[-12,-24]],[[2620,591],[16,60],[3,67],[-13,66],[41,24],[-1,77],[-12,95],[11,89],[-48,35],[-51,177],[-70,41],[-344,39],[-47,22],[8,24],[85,11],[27,10],[37,43],[35,10],[41,-10],[37,-16],[36,-3],[35,29],[-12,12],[-6,13],[-6,16],[-13,23],[37,35],[15,-22],[24,-17],[29,-7],[30,11],[17,22],[1,29],[-2,34],[6,45],[44,80],[50,2],[56,-11],[60,39],[15,43],[-6,47],[-21,38],[-29,15],[-41,14],[-6,31],[17,66],[9,14],[21,8],[21,20],[9,54],[12,38],[27,32],[60,43],[42,-2],[21,-33],[13,-40],[25,-23],[30,9],[90,89],[-4,-91],[-21,-71],[-24,-59],[-11,-52],[-9,-237],[-13,-63],[28,24],[30,-2],[26,-30],[18,-59],[-4,-45],[-15,-52],[-75,-183],[-18,-100],[3,-107],[29,-113],[-27,-69],[-9,-117],[9,-129],[27,-102],[-30,-97],[-42,-371],[-25,-123],[-460,0],[-1,18],[15,187],[14,52],[26,57],[44,163],[54,114]],[[2620,591],[16,60],[3,67],[-13,66],[41,24],[-1,77],[-12,95],[11,89],[-48,35],[-51,177],[-70,41],[-344,39],[-47,22],[8,24],[85,11],[27,10],[37,43],[35,10],[41,-10],[37,-16],[36,-3],[35,29],[-12,12],[-6,13],[-6,16],[-13,23],[37,35],[15,-22],[24,-17],[29,-7],[30,11],[17,22],[1,29],[-2,34],[6,45],[44,80],[50,2],[56,-11],[60,39],[15,43],[-6,47],[-21,38],[-29,15],[-41,14],[-6,31],[17,66],[9,14],[21,8],[21,20],[9,54],[12,38],[27,32],[60,43],[42,-2],[21,-33],[13,-40],[25,-23],[30,9],[90,89],[-4,-91],[-21,-71],[-24,-59],[-11,-52],[-9,-237],[-13,-63],[28,24],[30,-2],[26,-30],[18,-59],[-4,-45],[-15,-52],[-75,-183],[-18,-100],[3,-107],[29,-113],[-27,-69],[-9,-117],[9,-129],[27,-102],[-30,-97],[-42,-371],[-25,-123]],[[2468,0],[-1,18],[15,187],[14,52],[26,57],[44,163],[54,114]],[[2325,0],[0,2]],[[3247,3063],[32,15]],[[3279,3078],[6,2]],[[3285,3080],[229,-1]],[[3514,3079],[199,17],[153,81],[140,23],[42,39],[48,3]],[[3514,3079],[22,531]],[[2849,3533],[10,-44]],[[0,10],[45,-10]],[[1961,2571],[-12,-2]],[[0,1976],[19,-17],[291,-350],[-1,-36],[158,-259],[87,-73],[110,-33]],[[673,1205],[7,-2]],[[704,1196],[1,-1]],[[730,1184],[286,-186]],[[1011,945],[-13,-73],[58,-13]],[[1019,989],[-3,-18]],[[1016,998],[3,-3]],[[1020,997],[-4,1]],[[1019,989],[2,3]],[[1019,993],[0,-4]],[[1025,999],[-4,-2]],[[1024,995],[1,4]],[[1025,999],[20,14]],[[1077,852],[-21,7]],[[1730,350],[-158,105],[-74,119],[-127,64],[-80,88],[-133,58],[-81,68]],[[1630,1419],[58,31]],[[1721,1485],[6,33]],[[2325,2],[-29,206],[-496,120]],[[1020,993],[3,0],[0,4],[-4,-1],[1,-3]],[[3087,2165],[-120,-30],[-52,34]],[[3531,913],[89,14],[22,119]],[[3537,3625],[4,24]],[[1720,1774],[0,-3]],[[3536,3610],[1,15]],[[664,1208],[9,-3]],[[680,1203],[24,-7]],[[705,1195],[25,-11]],[[1016,971],[-5,-26]],[[1688,1450],[33,35]],[[3233,3056],[14,7]],[[1045,1013],[283,239],[158,62],[144,105]],[[1720,1744],[7,-226]],[[3540,3650],[0,-2]],[[3539,3651],[1,-2],[2,1],[-1,2],[-2,-1]],[[1800,328],[-70,22]],[[1949,2569],[-7,-1]],[[2186,2590],[-225,-19]],[[2492,2727],[-9,-8]],[[1720,1771],[0,-27]],[[3376,294],[3,3]],[[3389,313],[37,54]],[[2318,2616],[-132,-26]],[[2318,2616],[5,1]],[[2483,2719],[-102,-89],[-58,-13]],[[2756,4096],[-19,-59],[87,-233],[-6,-214],[26,-38]],[[2859,3489],[177,-365],[-8,-160],[187,83]],[[3271,0],[44,67],[-33,85],[94,142]],[[3379,297],[10,16]],[[3426,367],[113,171],[58,44],[0,158],[-51,55],[34,46],[-26,1],[-23,71]],[[3642,1046],[44,75],[43,292],[164,198],[36,219],[140,233]],[[3215,3047],[18,9]],[[4096,2117],[-27,-54]],[[2844,3552],[5,-19]],[[4096,4096],[0,-4096],[-4096,0],[0,4096],[4096,0]],[[1716,2056],[72,153],[50,22],[19,-24],[88,65],[10,24],[-32,46],[20,22],[55,-4],[19,90],[-14,80],[27,9],[0,40],[337,39],[125,109],[31,-50],[77,-33],[113,5],[11,-70],[-32,-68],[142,12],[104,-58],[0,-41],[62,-88],[-31,-44],[-72,30],[-58,-37],[72,-122],[-39,-69],[69,-35],[-35,-28],[-85,7],[-27,-46],[13,-153],[65,-98],[-14,-43],[-89,-48],[-269,-14],[-13,-24],[-63,27],[-21,-17],[-109,81],[-25,82],[-63,-1],[-97,-47],[-150,47],[-23,-40],[-208,26],[-12,286]],[[3660,0],[-8,66],[40,110],[103,8],[21,60],[30,9],[100,-13],[20,-102],[45,-37],[1,-95],[-352,-6]],[[1559,1147],[12,-18],[38,52],[16,78],[15,-33],[-9,46],[24,31],[53,18],[29,-44],[41,33],[55,-3],[54,49],[-23,32],[15,26],[26,-32],[61,9],[4,52],[149,-28],[7,25],[49,10],[-12,27],[46,-21],[27,37],[65,0],[34,-46],[60,-3],[29,26],[-47,65],[32,26],[47,-30],[89,7],[8,20],[298,2],[-49,-107],[18,-140],[-52,0],[-22,-37],[-3,-173],[-105,1],[-15,-49],[21,-58],[-26,-12],[-103,31],[-26,-47],[-73,77],[8,26],[-87,10],[-86,-41],[-1,-52],[-99,-35],[-71,21],[-122,-53],[-24,-44],[-234,3],[35,62],[-37,62],[-91,5],[-48,137]],[[2039,1367],[4,-14],[67,-4],[22,22],[-93,-4]],[[2236,1372],[42,-6],[6,23],[26,-11],[-41,18],[-33,-24]],[[1799,1083],[36,-2],[-21,74],[-11,0],[-4,-72]],[[1917,1337],[15,-15],[49,15],[-1,35],[-63,-35]],[[2093,1287],[15,-1],[21,8],[6,13],[-18,11],[-24,-31]],[[2021,1086],[43,-13],[4,30],[-24,15],[-23,-32]],[[3726,1345],[38,33],[-10,16],[24,-3],[-13,54],[84,-68],[-40,-12],[1,-63],[-84,43]],[[2211,4096],[114,-46],[126,-158],[21,-61],[209,-146],[-47,-64],[80,-106],[-98,-29],[10,-170],[29,3],[10,-244],[-110,-11],[-16,-110],[31,-115],[-6,-178],[-41,16],[-213,223],[112,88],[-41,204],[-77,47],[-101,141],[-119,100],[-100,36],[-94,90],[-34,-16],[-13,-93],[-105,79],[-20,-7],[16,-65],[-27,-15],[-289,87],[-9,-74],[-70,-36],[-45,15],[-38,-67],[-36,13],[-3,47],[-65,37],[-96,-32],[-24,-31],[18,-22],[-8,-51],[-30,-23],[8,-54],[-85,17],[-17,39],[-85,-38],[-11,46],[-56,-9],[9,-76],[-155,73],[-36,163],[30,3],[12,41],[-17,135],[-69,-5],[-43,-51],[-73,-32],[-12,-42],[-53,15],[-33,-34],[-28,34],[-26,-55],[-46,-4],[-1,-86],[-39,-38],[-46,-19],[-118,92],[-12,-88],[-10,-3],[0,720],[2211,0]],[[3065,826],[54,77],[-28,37],[2,-39],[-21,16],[30,41],[56,-56],[29,12],[0,1],[-66,60],[17,11],[-48,2],[2,76],[56,43],[25,-46],[-1,28],[-22,85],[-19,3],[23,-30],[-59,-17],[-34,56],[13,116],[14,31],[7,-30],[19,3],[-15,39],[19,3],[6,-75],[32,-12],[13,-66],[-11,77],[51,-20],[-8,-121],[-19,27],[-10,-51],[6,-53],[46,-91],[-27,27],[8,-28],[44,-71],[3,-32],[80,-42],[1,-21],[11,-14],[-39,-40],[-9,43],[-21,-3],[15,13],[-49,-19],[-5,31],[14,-19],[13,8],[-20,25],[-12,-2],[2,-46],[-68,-11],[-13,75],[31,35],[-22,18],[-56,-31],[7,-58],[-19,45],[-28,-20]],[[3174,1040],[-5,-8],[6,-4],[-1,12]],[[3163,1037],[-6,33],[-23,13],[13,-64],[3,29],[13,-11]],[[3147,1018],[43,-10],[0,1],[-43,9]],[[3188,960],[-10,-2],[-10,-8],[20,-13],[0,23]],[[3187,902],[-1,-5],[1,0],[0,5]],[[3203,896],[9,0],[18,-23],[-22,51],[-5,3],[6,-31],[-6,0]],[[3228,913],[3,-2],[-3,2]],[[3234,887],[3,-26],[-3,26]],[[3232,865],[-29,28],[0,-1],[29,-27]],[[3207,867],[0,-1],[120,-90],[1,5],[-121,86]],[[3168,790],[4,-18],[13,5],[-10,16],[-7,-3]],[[3173,843],[1,-6],[4,-19],[4,4],[-9,21]],[[3116,1201],[12,15],[-12,-15],[9,57],[-8,7],[-22,-4],[18,-22],[-19,-55],[-13,16],[29,-49],[9,28],[-1,0],[-2,22]],[[3128,1215],[3,-29],[12,-3],[-15,32]],[[3145,1182],[2,-1],[14,27],[-16,-26]],[[3162,1209],[9,-90],[2,63],[-11,27]],[[643,1157],[48,3],[5,28],[-35,8],[31,11],[-47,-5],[45,14],[-6,66],[26,-17],[-10,-18],[51,12],[9,-8],[-60,-29],[4,-28],[12,23],[15,-28],[-13,-39],[52,-16],[-17,-18],[-35,16],[18,-77],[-30,-2],[8,24],[-20,4],[18,26],[-3,84],[-14,-69],[-52,35]],[[0,3142],[25,9],[151,8],[50,24],[4,87],[-51,39],[15,35],[-44,18],[372,88],[50,79],[47,8],[-35,-24],[36,-163],[155,-73],[-8,76],[55,9],[11,-48],[85,40],[17,-39],[85,-17],[-8,54],[30,23],[8,51],[-18,22],[24,31],[96,32],[65,-37],[3,-47],[36,-13],[38,67],[45,-15],[70,36],[9,74],[289,-87],[27,15],[-16,65],[20,7],[105,-79],[13,93],[34,16],[94,-90],[100,-36],[119,-100],[101,-141],[77,-47],[41,-204],[-112,-88],[213,-223],[77,-33],[113,5],[11,-70],[-35,-47],[12,-29],[133,20],[104,-58],[0,-41],[44,-36],[10,-83],[-28,-14],[-67,31],[-60,-44],[74,-115],[-39,-69],[69,-35],[-35,-28],[-85,7],[-27,-46],[4,-119],[72,-122],[-6,-44],[-95,-57],[-269,-14],[-30,-23],[-141,52],[-60,120],[-63,-1],[-97,-47],[-158,47],[-15,-40],[-77,1],[-140,26],[-70,57],[-31,-22],[-191,44],[-1,-28],[-146,-4],[-39,32],[-105,-17],[-29,51],[-72,-40],[3,42],[-42,22],[38,71],[-25,184],[-93,143],[-165,88],[-252,1],[-5,79],[118,40],[-9,40],[-67,8],[-13,57],[-197,-63],[-15,179],[-56,163],[-64,45],[-191,-18],[0,217]],[[3310,1324],[90,172],[-39,166],[147,27],[30,-124],[-28,-136],[15,-138],[-215,33]],[[3642,865],[-83,5],[-43,67],[-5,95],[34,91],[61,19],[4,33],[32,-38],[0,-272]],[[2059,2532],[-71,-8],[-61,45],[28,71],[167,84],[-9,-127],[-54,-65]],[[1533,3270],[6,-30],[291,52],[-32,-155],[-65,0],[0,-103],[-130,51],[-129,0],[0,155],[17,-5],[15,57],[27,-22]],[[3713,3893],[59,-85],[-22,-85],[-60,-52],[-178,-70],[45,293],[20,17],[1,-51],[76,-6],[35,57],[24,-18]],[[1004,958],[42,45],[92,-38],[-60,-94],[-29,6],[-45,81]],[[1935,2498],[35,29],[-28,40],[18,5],[115,-70],[-29,-56],[-51,-9],[-60,61]],[[4054,0],[30,17],[10,-17],[-40,0]],[[3313,302],[45,22],[-18,42],[23,13],[3,45],[22,-5],[1,-64],[38,39],[-11,24],[17,-9],[-19,-107],[-48,-10],[26,11],[-12,34],[-45,-71],[-22,36]],[[3874,980],[14,44],[54,3],[29,75],[4,-70],[29,27],[-6,-31],[41,26],[30,-17],[-8,-23],[-18,26],[-32,-13],[-3,-41],[-64,7],[-14,-59],[-26,9],[12,29],[-42,8]],[[1681,1472],[10,18],[86,-14],[38,-40],[-52,1],[-59,-37],[-23,72]]]}