{"objects":{"water":{"type":"GeometryCollection","geometries":[{"type":"Polygon","properties":{"source":"naturalearthdata.com","kind":"ocean","area":1576712559132672,"sort_rank":200,"min_zoom":0.0,"id":1},"arcs":[[232]]},{"type":"Polygon","properties":{"source":"naturalearthdata.com","kind":"lake","area":719768640,"sort_rank":200,"min_zoom":0.0,"id":643},"arcs":[[233]]},{"type":"LineString","properties":{"source":"naturalearthdata.com","kind":"ocean","sort_rank":205,"boundary":true,"min_zoom":0.0,"id":50},"arcs":[234]},{"type":"LineString","properties":{"source":"naturalearthdata.com","kind":"lake","sort_rank":367,"boundary":true,"min_zoom":0.0,"id":643},"arcs":[235]},{"type":"Point","properties":{"label_placement":true,"kind":"sea","name":"\u041e\u0434\u0435\u0441\u044c\u043a\u0430 \u0437\u0430\u0442\u043e\u043a\u0430","source":"openstreetmap.org","sort_rank":200,"min_zoom":3.0,"id":4820510080},"coordinates":[3766,1782]}]},"buildings":{"type":"GeometryCollection","geometries":[]},"places":{"type":"GeometryCollection","geometries":[{"type":"Point","properties":{"name:pt":"Oblast de Odessa","name:ro":"Regiunea Odesa","name:eo":"Odesa Provinco","min_zoom":4.0,"name:be":"\u0410\u0434\u044d\u0441\u043a\u0430\u044f \u0432\u043e\u0431\u043b\u0430\u0441\u0446\u044c","name:ru":"\u041e\u0434\u0435\u0441\u0441\u043a\u0430\u044f \u043e\u0431\u043b\u0430\u0441\u0442\u044c","name:pl":"obw\u00f3d odeski","id":681769612,"kind":"region","name:en":"Odessa Oblast","name":"\u041e\u0434\u0435\u0441\u044c\u043a\u0430 \u043e\u0431\u043b\u0430\u0441\u0442\u044c","kind_detail":"state","name:de":"Oblast Odessa","source":"openstreetmap.org","name:fr":"Oblast d'Odessa","name:es":"\u00d3blast de Odesa"},"coordinates":[1239,176]},{"type":"Point","properties":{"alt_name:eo":"Odesa;Odessa","name:ro":"Odesa","name:ka":"\u10dd\u10d3\u10d4\u10e1\u10d0","name:kn":"\u0c93\u0ca6\u0cc6\u0cb8","name:cs":"Od\u011bsa","name:io":"Odessa","min_zoom":8.0,"alt_name:en":"Odesa","name:ru":"\u041e\u0434\u0435\u0441\u0441\u0430","name:pl":"Odessa","id":26150437,"name:ca":"Odessa","kind_detail":"city","name:de":"Odessa","source":"openstreetmap.org","name:fr":"Odessa","name:sk":"Odesa","name:ja":"\u30aa\u30c7\u30c3\u30b5","name:lt":"Odessa","name:hi":"\u0913\u0926\u0946\u0938","name:he":"\u05d0\u05d5\u05d3\u05e1\u05d4","kind":"locality","name:hy":"\u0555\u0564\u0565\u057d\u0561","name:be":"\u0410\u0434\u044d\u0441\u0430","name:hu":"Odessza","name:hr":"Odesa","population":1008852,"name:eo":"Odeso","name:en":"Odessa","name":"\u041e\u0434\u0435\u0441\u0430","name:yi":"\u05d0\u05d3\u05e2\u05e1","name:et":"Odessa"},"coordinates":[3499,1743]},{"type":"Point","properties":{"name:az":"Tiraspol","name:ka":"\u10e2\u10d8\u10e0\u10d0\u10e1\u10de\u10dd\u10da\u10d8","name:ko":"\ud2f0\ub77c\uc2a4\ud3f4","name:ar":"\u062a\u064a\u0631\u0627\u0633\u0628\u0648\u0644","name:tr":"Tiraspol","name:th":"\u0e15\u0e35\u0e23\u0e31\u0e2a\u0e1b\u0e2d\u0e25","int_name":"Tiraspol","name:lv":"Tiraspole","name:pl":"Tyraspol","name:ta":"\u0ba4\u0bbf\u0bb0\u0b9a\u0bc1\u0baa\u0bcd\u0baa\u0bcb\u0bb2\u0bcd","id":2339172677,"name:ca":"Tiraspol","name:fa":"\u062a\u06cc\u0631\u0627\u0633\u067e\u0644","kind_detail":"city","name:de":"Tiraspol","source":"openstreetmap.org","name:fr":"Tiraspol","name:zh":"\u8482\u62c9\u65af\u6ce2\u5c14","admin_level":"2","name:ro":"Tiraspol","name:ja":"\u30c6\u30a3\u30e9\u30b9\u30dd\u30ea","name:lt":"Tiraspolis","name:he":"\u05d8\u05d9\u05e8\u05e1\u05e4\u05d5\u05dc","kind":"locality","name:ur":"\u062a\u06cc\u0631\u0627\u0633\u067e\u0648\u0644","name:hy":"\u054f\u056b\u0580\u0561\u057d\u057a\u0578\u056c","name:be":"\u0426\u0456\u0440\u0430\u0441\u043f\u0430\u043b\u044c","name:hu":"Tiraszpol","population":135700,"name:el":"\u03a4\u03b9\u03c1\u03ac\u03c3\u03c0\u03bf\u03bb","name:eo":"Tiraspolo","name:en":"Tiraspol","name":"\u0422\u0438\u0440\u0430\u0441\u043f\u043e\u043b\u044c","min_zoom":8.0,"name:gl":"Tir\u00e1spol","name:es":"Tir\u00e1spol"},"coordinates":[302,3297]},{"type":"Point","properties":{"kind":"locality","min_zoom":8.0,"old_name:eo":"Illi\u0109ivsk","old_name:en":"Illichivsk","old_name":"\u0406\u043b\u043b\u0456\u0447\u0456\u0432\u0441\u044c\u043a","name:ru":"\u0427\u0435\u0440\u043d\u043e\u043c\u043e\u0440\u0441\u043a","name:pl":"Czarnomorsk","id":337690843,"population":59229,"old_name:uk":"\u0406\u043b\u043b\u0456\u0447\u0456\u0432\u0441\u044c\u043a","name:eo":"\u0108ornomorsk","name:en":"Chornomorsk","old_name:de":"Illitschiwsk","name":"\u0427\u043e\u0440\u043d\u043e\u043c\u043e\u0440\u0441\u044c\u043a","old_name:ro":"Illicivsk","old_name:pl":"Illicziw\u015bk","kind_detail":"town","old_name:ru":"\u0418\u043b\u044c\u0438\u0447\u0451\u0432\u0441\u043a","name:de":"Tschornomorsk","source":"openstreetmap.org","old_name:hu":"Illichivsk"},"coordinates":[3269,969]},{"type":"Point","properties":{"name:ro":"Cetatea Alb\u0103","alt_name:de":"Bilhorod-Dnistrowskyj","name:tr":"Akkerman","name:eo":"Bilhorod-Dnistrovskij","min_zoom":8.0,"old_name":"\u0422\u0456\u0440\u0430, \u0410\u043a\u043a\u0435\u0440\u043c\u0430\u043d","name:ru":"\u0411\u0435\u043b\u0433\u043e\u0440\u043e\u0434-\u0414\u043d\u0435\u0441\u0442\u0440\u043e\u0432\u0441\u043a\u0438\u0439","name:pl":"Bia\u0142ogr\u00f3d nad Dniestrem","name:hu":"Dnyeszterfeh\u00e9rv\u00e1r","id":738536340,"population":50296,"kind":"locality","name:en":"Bilhorod-Dnistrovskyi","name":"\u0411\u0456\u043b\u0433\u043e\u0440\u043e\u0434-\u0414\u043d\u0456\u0441\u0442\u0440\u043e\u0432\u0441\u044c\u043a\u0438\u0439","kind_detail":"town","name:de":"Bilhorod-Dnistrowskyj","source":"openstreetmap.org"},"coordinates":[2373,499]},{"type":"Point","properties":{"kind":"locality","name:en":"Rozdilna","name":"\u0420\u043e\u0437\u0434\u0456\u043b\u044c\u043d\u0430","kind_detail":"town","name:de":"Rosdilna","source":"openstreetmap.org","min_zoom":8.0,"name:ro":"Razdelna","name:ru":"\u0420\u0430\u0437\u0434\u0435\u043b\u044c\u043d\u0430\u044f","name:pl":"Rozdilna","id":337686106,"population":17931},"coordinates":[1541,3300]},{"type":"Point","properties":{"kind":"locality","name:en":"Slobodzeya","name:ro":"Slobozia","name":"\u0421\u043b\u043e\u0431\u043e\u0434\u0437\u0435\u044f","kind_detail":"town","name:de":"Slobodseja","source":"openstreetmap.org","min_zoom":8.0,"int_name":"Slobozia","id":273185788,"population":16062},"coordinates":[517,2772]},{"type":"Point","properties":{"old_name:uk":"\u041c\u0456\u0437\u0456\u043a\u0435\u0432\u0438\u0447\u0430","kind":"locality","name:en":"Lymanka","name":"\u041b\u0438\u043c\u0430\u043d\u043a\u0430","kind_detail":"town","old_name:ru":"\u041c\u0438\u0437\u0438\u043a\u0435\u0432\u0438\u0447\u0430","source":"openstreetmap.org","min_zoom":8.0,"old_name:en":"Mizikevycha","old_name":"\u041c\u0456\u0437\u0456\u043a\u0435\u0432\u0438\u0447\u0430","id":337690298,"population":13085},"coordinates":[3350,1337]},{"type":"Point","properties":{"kind":"locality","name:ro":"Vel\u00eekodol\u00eenske","name":"\u0412\u0435\u043b\u0438\u043a\u043e\u0434\u043e\u043b\u0438\u043d\u0441\u044c\u043a\u0435","kind_detail":"town","name:ar":"\u0641\u064a\u0644\u064a\u0643\u0648\u062f\u0648\u0644\u064a\u0646\u0633\u0643\u064a","name:de":"Welykodolynske","source":"openstreetmap.org","min_zoom":8.0,"name:en":"Velykodolynske","old_name":"Gro\u00dfliebental","name:ru":"\u0412\u0435\u043b\u0438\u043a\u043e\u0434\u043e\u043b\u0438\u043d\u0441\u043a\u043e\u0435","name:pl":"We\u0142ykodo\u0142yn\u015bke","name:bg":"\u0412\u0435\u043b\u0438\u043a\u043e\u0434\u043e\u043b\u0438\u043d\u0441\u043a\u0435","id":337690595,"population":13036},"coordinates":[3043,1158]},{"type":"Point","properties":{"kind":"locality","name:en":"Dnestrovsk","name:ro":"Dnestrovsc","name":"\u0414\u043d\u0435\u0441\u0442\u0440\u043e\u0432\u0441\u043a","kind_detail":"town","name:de":"Dnestrowsk","source":"openstreetmap.org","min_zoom":8.0,"int_name":"Dnestrovsk","name:uk":"\u0414\u043d\u0456\u0441\u0442\u0440\u043e\u0432\u0441\u044c\u043a","id":278767851,"population":12382},"coordinates":[1099,2338]},{"type":"Point","properties":{"kind":"locality","name:en":"Biliaivka","name":"\u0411\u0456\u043b\u044f\u0457\u0432\u043a\u0430","name:lt":"Biliajivka","kind_detail":"town","name:de":"Biljajiwka","source":"openstreetmap.org","min_zoom":8.0,"name:ro":"Biliaivka","name:ru":"\u0411\u0435\u043b\u044f\u0435\u0432\u043a\u0430","name:pl":"Bielajewka","id":337689781,"population":12213},"coordinates":[1952,1734]},{"type":"Point","properties":{"kind":"locality","name:en":"Ovidiopol","name":"\u041e\u0432\u0456\u0434\u0456\u043e\u043f\u043e\u043b\u044c","name:tr":"Hac\u0131dere","kind_detail":"town","name:de":"Owidiopol","source":"openstreetmap.org","min_zoom":8.0,"name:ro":"Ovidiopol","name:hy":"\u0555\u057e\u056b\u0564\u056b\u0578\u057a\u0578\u056c","name:ru":"\u041e\u0432\u0438\u0434\u0438\u043e\u043f\u043e\u043b\u044c","name:pl":"Owidiopol","name:zh":"\u5965\u7ef4\u5b63\u5965\u6ce2\u5229","id":337691323,"population":11741},"coordinates":[2661,736]},{"type":"Point","properties":{"kind":"locality","name:en":"Teplodar","name":"\u0422\u0435\u043f\u043b\u043e\u0434\u0430\u0440","kind_detail":"town","name:de":"Teplodar","source":"openstreetmap.org","min_zoom":8.0,"name:ro":"Teplodar","name:pl":"Tep\u0142odar","id":337689608,"population":10081},"coordinates":[2318,1829]},{"type":"Point","properties":{"kind":"locality","name:en":"Kitskany","name:ro":"Chi\u021bcani","name":"\u041a\u0438\u0446\u043a\u0430\u043d\u044b","name:ka":"\u10d9\u10d8\u10ea\u10d9\u10d0\u10dc\u10d8","kind_detail":"town","name:de":"Kizkany","source":"openstreetmap.org","min_zoom":8.0,"int_name":"Chi\u021bcani","name:uk":"\u041a\u0456\u0446\u043a\u0430\u043d\u044c","name:pl":"Kickany","id":273184231,"population":8952},"coordinates":[231,3001]},{"type":"Point","properties":{"kind":"locality","name":"\u0218tefan Vod\u0103","kind_detail":"town","source":"openstreetmap.org","min_zoom":8.0,"old_name":"\u0421\u0443\u0432\u043e\u0440\u043e\u0432\u043e","name:ru":"\u0428\u0442\u0435\u0444\u0430\u043d-\u0412\u043e\u0434\u044d","name:pl":"Stefan Voda","id":265099169,"population":8700},"coordinates":[381,1881]},{"type":"Point","properties":{"kind":"locality","name:en":"Lymanske","old_name:de":"Selz","name":"\u041b\u0438\u043c\u0430\u043d\u0441\u044c\u043a\u0435","alt_name:de":"Limanskoje","kind_detail":"town","name:de":"Lymanske","source":"openstreetmap.org","min_zoom":8.0,"alt_name:en":"Limanskoye","name:ru":"\u041b\u0438\u043c\u0430\u043d\u0441\u043a\u043e\u0435","name:pl":"\u0141yman\u015bke","id":337688166,"population":7301},"coordinates":[1302,2586]},{"type":"Point","properties":{"kind":"locality","name:en":"Oleksandrivka","name":"\u041e\u043b\u0435\u043a\u0441\u0430\u043d\u0434\u0440\u0456\u0432\u043a\u0430","kind_detail":"town","source":"openstreetmap.org","min_zoom":8.0,"name:ru":"\u0410\u043b\u0435\u043a\u0441\u0430\u043d\u0434\u0440\u043e\u0432\u043a\u0430","name:pl":"Aleksandr\u00f3wka","id":337690726,"population":6953},"coordinates":[3204,1079]},{"type":"Point","properties":{"kind":"locality","name:en":"Chornomorske","name":"\u0427\u043e\u0440\u043d\u043e\u043c\u043e\u0440\u0441\u044c\u043a\u0435","kind_detail":"town","name:de":"Tschornomorske","source":"openstreetmap.org","min_zoom":8.0,"name:ru":"\u0427\u0435\u0440\u043d\u043e\u043c\u043e\u0440\u0441\u043a\u043e\u0435","name:pl":"Czornomor\u015bke","id":337689002,"population":5978},"coordinates":[4085,2167]},{"type":"Point","properties":{"kind":"locality","name:en":"Petrivka","name":"\u041f\u0435\u0442\u0440\u0456\u0432\u043a\u0430","kind_detail":"town","name:de":"Petriwka","source":"openstreetmap.org","min_zoom":8.0,"name:ru":"\u041f\u0435\u0442\u0440\u043e\u0432\u043a\u0430","name:pl":"Petriwka","id":337685440,"population":4647},"coordinates":[3476,3539]},{"type":"Point","properties":{"kind":"locality","name:en":"Pervomaisk","name:ro":"Pervomaisc","name":"\u041f\u0435\u0440\u0432\u043e\u043c\u0430\u0439\u0441\u043a","kind_detail":"town","name:de":"Perwomaisk","source":"openstreetmap.org","min_zoom":8.0,"int_name":"Pervomaisc","name:uk":"\u041f\u0435\u0440\u0432\u043e\u043c\u0430\u0439\u0441\u044c\u043a","id":278767899,"population":4434},"coordinates":[1271,2857]},{"type":"Point","properties":{"kind":"locality","name:en":"Ivanivka","name":"\u0406\u0432\u0430\u043d\u0456\u0432\u043a\u0430","name:lt":"Ivanivka","kind_detail":"town","name:de":"Iwaniwka","source":"openstreetmap.org","min_zoom":8.0,"name:ro":"Ivanivka","old_name":"\u042f\u043d\u0456\u0432\u043a\u0430","name:ru":"\u0418\u0432\u0430\u043d\u043e\u0432\u043a\u0430","name:pl":"Iwan\u00f3wka","id":702132126,"population":2618},"coordinates":[2713,3851]}]},"transit":{"type":"GeometryCollection","geometries":[{"type":"MultiLineString","properties":{"kind":"train","name":"\u041a\u0438\u0457\u0432 - \u041e\u0434\u0435\u0441\u0430","sort_rank":275,"source":"openstreetmap.org","min_zoom":6.0,"name:ru":"\u041a\u0438\u0435\u0432 - \u041e\u0434\u0435\u0441\u0441\u0430","ref":"\u041a\u0438\u0457\u0432 - \u041e\u0434\u0435\u0441\u0430","osm_relation":true},"arcs":[[9],[10],[11],[12],[13],[14],[15],[16],[17],[18],[19],[20],[21],[22],[23],[24],[25],[26],[27],[28],[29],[30],[31],[32],[33],[34],[35],[36],[37],[38],[39],[40],[41],[42],[43],[44],[45],[46],[47],[48],[49],[50],[51],[52],[53],[54],[55],[56],[57],[58],[59],[60],[61],[62],[63],[64],[65],[66],[67],[68],[69],[70],[71],[72],[73],[74],[75],[76],[77],[78],[79],[80],[81],[82],[83],[84],[85],[86],[87],[88],[89],[90],[91],[92],[93],[94],[95],[96],[97],[98],[99],[100],[101],[102],[103],[104],[105],[106],[107],[108],[109],[110],[111],[112],[113],[114],[115],[116],[117],[118],[119],[120],[121],[122],[123],[124],[125],[126],[127],[128],[129],[130],[131],[132],[133],[134],[135],[136],[137],[138],[139],[140],[141],[142],[143],[144],[145],[146],[147],[148],[149],[150],[151],[152],[153],[154],[155],[156],[157],[158],[159],[160],[161],[162],[163],[164],[165],[166],[167],[168],[169],[170],[171],[172],[173]]},{"type":"MultiLineString","properties":{"source":"openstreetmap.org","kind":"train","name":"\u0420\u0430\u0437\u0434\u0456\u043b\u044c\u043d\u0430 - \u041e\u0434\u0435\u0441\u0430","sort_rank":275,"ref":"\u0420\u0430\u0437\u0434\u0456\u043b\u044c\u043d\u0430 - \u041e\u0434\u0435\u0441\u0430","min_zoom":6.0,"osm_relation":true},"arcs":[[174],[175],[176],[177],[178],[179]]},{"type":"MultiLineString","properties":{"source":"openstreetmap.org","kind":"train","name":"\u0406\u0437\u043c\u0430\u0457\u043b - \u041e\u0434\u0435\u0441\u0430","sort_rank":275,"ref":"\u0406\u0437\u043c\u0430\u0457\u043b - \u041e\u0434\u0435\u0441\u0430","min_zoom":6.0,"osm_relation":true},"arcs":[[180],[181],[182],[183],[184],[185],[186],[187],[188],[189],[190],[191],[192],[193],[194],[195],[196],[197],[198],[199],[200],[201],[202],[203],[204],[205],[206],[207],[208],[209],[210],[211],[212],[213],[214]]},{"type":"MultiLineString","properties":{"kind":"train","name":"\u041a\u043e\u043b\u043e\u0441\u0456\u0432\u043a\u0430 - \u041e\u0434\u0435\u0441\u0430","sort_rank":275,"colour":"blue","source":"openstreetmap.org","min_zoom":6.0,"network":"\u0423\u043a\u0440\u0437\u0430\u043b\u0456\u0437\u043d\u0438\u0446\u044f","operator":"\u041e\u0434\u0435\u0441\u044c\u043a\u0430 \u0437\u0430\u043b\u0456\u0437\u043d\u0438\u0446\u044f","ref":"\u041a\u043e\u043b\u043e\u0441\u0456\u0432\u043a\u0430 - \u041e\u0434\u0435\u0441\u0430","osm_relation":true,"colour_name":"blue"},"arcs":[[215],[216],[217],[218],[219],[220],[221],[222],[223],[224]]},{"type":"MultiLineString","properties":{"source":"openstreetmap.org","kind":"train","name":"066 Chisinau - Moskva","sort_rank":275,"ref":"066","min_zoom":6.0,"osm_relation":true},"arcs":[[225],[226],[227],[228],[229],[230],[231]]}]},"pois":{"type":"GeometryCollection","geometries":[{"type":"Point","properties":{"kind":"nature_reserve","name:en":"Lower Dniester National Nature Park","protect_class":"2","area":343838000,"source":"openstreetmap.org","min_zoom":8.08,"name:ro":"Parcul Na\u021bional Nistrul de Jos","tier":2,"name:ru":"\u041d\u0438\u0436\u043d\u0435\u0434\u043d\u0435\u0441\u0442\u0440\u043e\u0432\u0441\u043a\u0438\u0439 \u043d\u0430\u0446\u0438\u043e\u043d\u0430\u043b\u044c\u043d\u044b\u0439 \u043f\u0440\u0438\u0440\u043e\u0434\u043d\u044b\u0439 \u043f\u0430\u0440\u043a","id":-7397948,"osm_relation":true,"name":"\u041d\u0438\u0436\u043d\u044c\u043e\u0434\u043d\u0456\u0441\u0442\u0440\u043e\u0432\u0441\u044c\u043a\u0438\u0439 \u043d\u0430\u0446\u0456\u043e\u043d\u0430\u043b\u044c\u043d\u0438\u0439 \u043f\u0440\u0438\u0440\u043e\u0434\u043d\u0438\u0439 \u043f\u0430\u0440\u043a"},"coordinates":[2066,1323]},{"type":"Point","properties":{"kind":"protected_area","protect_class":"4","area":210256000,"source":"openstreetmap.org","min_zoom":7.0,"tier":2,"name:ru":"\u0417\u0430\u043f\u043e\u0432\u0435\u0434\u043d\u043e\u0435 \u0443\u0440\u043e\u0447\u0438\u0449\u0435 \u00ab\u0414\u043d\u0435\u0441\u0442\u0440\u043e\u0432\u0441\u043a\u0438\u0435 \u043f\u043b\u0430\u0432\u043d\u0438\u00bb","id":-7397945,"osm_relation":true,"name":"\u0417\u0430\u043f\u043e\u0432\u0456\u0434\u043d\u0435 \u0443\u0440\u043e\u0447\u0438\u0449\u0435 \u00ab\u0414\u043d\u0456\u0441\u0442\u0440\u043e\u0432\u0441\u044c\u043a\u0456 \u043f\u043b\u0430\u0432\u043d\u0456\u00bb"},"coordinates":[1844,1537]},{"type":"Point","properties":{"source":"openstreetmap.org","kind":"military","name":"\"\u0427\u0430\u0431\u0430\u043d\u043a\u0430\"","area":32046800,"tier":3,"min_zoom":8.0,"id":369385269},"coordinates":[4085,2272]},{"type":"Point","properties":{"kind":"nature_reserve","name:en":"\"Lower Dniester\" Ramsar Site","name":"Zona Ramsar \"Nistrul de Jos\"","area":1291800000,"source":"openstreetmap.org","min_zoom":7.12,"tier":2,"id":534343953},"coordinates":[696,2088]}]},"boundaries":{"type":"GeometryCollection","geometries":[{"type":"LineString","properties":{"name:right:yo":"M\u00f3ld\u00f3f\u00e0","name:left:la":"Ucraina","name:right:qu":"Mulduwa","alt_name:left:eo":"Ukrainio","name:right:dv":"\u0789\u07ae\u078d\u07b0\u0791\u07af\u0788\u07a7","name:right:yi":"\u05de\u05d0\u05dc\u05d3\u05d0\u05d5\u05d5\u05e2","name:right:hy":"\u0544\u0578\u056c\u0564\u0578\u057e\u0561","name:left:su":"Ukraina","name:left:li":"Oekra\u00efne","name:left:sw":"Ukraine","name:left:sv":"Ukraina","name:left:sq":"Ukraina","name:left:lb":"Ukrain","name:left:ln":"Ukraine","name:left:sr":"\u0423\u043a\u0440\u0430\u0458\u0438\u043d\u0430","name:left:sm":"Ukraine","name:left:sl":"Ukrajina","name:left:so":"Ukrain","name:left:sn":"Ukraine","name:left:lt":"Ukraina","name:left:sh":"Ukrajina","name:left:lv":"Ukraina","name:left:vo":"Lukray\u00e4n","name:left:se":"Ukraina","name:right:he":"\u05de\u05d5\u05dc\u05d3\u05d5\u05d1\u05d4","name:left:sc":"Ucraina","name:left:hi":"\u092f\u0941\u0915\u094d\u0930\u0947\u0928","name:right:af":"Moldowa","name:right:ab":"\u041c\u043e\u043b\u0434\u043e\u0432\u0430","name:left:ce":"\u0423\u043a\u0440\u0430\u0438\u043d\u0430","name:right:an":"Republica de Moldavia","name:right:am":"\u121e\u120d\u12f6\u126b","name:left:ca":"Ucra\u00efna","source":"openstreetmap.org","name:left:cy":"Wcr\u00e1in","name:right:ar":"\u0645\u0648\u0644\u062f\u0648\u0641\u0627","int_name:left":"Ukraine","name:left:cu":"\u041e\u0443\u043a\u0440\u0430\u0438\u043d\u0430","name:left:cv":"\u0423\u043a\u0440\u0430\u0438\u043d\u0430","name:left:cs":"Ukrajina","name:left:kg":"Ukrayina","name:left:ka":"\u10e3\u10d9\u10e0\u10d0\u10d8\u10dc\u10d0","name:left:yi":"\u05d0\u05d5\u05e7\u05e8\u05d0\u05d9\u05e0\u05e2","name:left:km":"\u17a2\u17ca\u17bb\u1799\u1780\u17d2\u179a\u17c2\u1793","name:left:kl":"Ukraine","name:left:ko":"\uc6b0\ud06c\ub77c\uc774\ub098","name:left:kn":"\u0caf\u0cc1\u0c95\u0ccd\u0cb0\u0cc7\u0ca8\u0ccd","name:right:is":"Mold\u00f3va","name:left:ro":"Ucraina","name:left:kk":"\u0423\u043a\u0440\u0430\u0438\u043d\u0430","name:left:rm":"Ucraina","name:left:ku":"\u00dbkrayna","name:left:kw":"Ukrayn","name:left:kv":"\u0423\u043a\u0440\u0430\u0438\u043d\u0430","name:left:pl":"Ukraina","name:left:ss":"IYukhureni","name:left:ru":"\u0423\u043a\u0440\u0430\u0438\u043d\u0430","name:right:ie":"Moldavia","name:left:ky":"\u0423\u043a\u0440\u0430\u0438\u043d\u0430","name":"\u0423\u043a\u0440\u0430\u0457\u043d\u0430 - Moldova","name:left:wa":"Oucrinne","name:right:bn":"\u09ae\u09b2\u09a6\u09cb\u09ad\u09be","name:right:bo":"\u0f58\u0f7c\u0f63\u0f0b\u0f51\u0f7c\u0f0b\u0f5d\u0f0d","name:right:hi":"\u092e\u0949\u0932\u094d\u0921\u094b\u0935\u093e","name:right:ba":"\u041c\u043e\u043b\u0434\u043e\u0432\u0430","name:right:bg":"\u041c\u043e\u043b\u0434\u043e\u0432\u0430","name:right:be":"\u041c\u0430\u043b\u0434\u043e\u0432\u0430","name:left:zh":"\u4e4c\u514b\u5170","name:right:bs":"Moldavija","name:right:zh":"\u6469\u5c14\u591a\u74e6","name:left:uz":"Ukraina","name:right:nl":"Moldavi\u00eb","name:right:fr":"Moldavie","name:left:sk":"Ukrajina","name:left:nv":"Y\u00f3\u00f3kwein","name:left:ur":"\u06cc\u0648\u06a9\u0631\u06cc\u0646","name:right:wo":"Moldaawi","name:right:ne":"\u092e\u094b\u0932\u094d\u0926\u094b\u0935\u093e","id:right":-58974,"name:left:nn":"Ukraina","name:left:no":"Ukraina","name:left:nl":"Oekra\u00efne","alt_name:right:eo":"Moldavio","name:right:fa":"\u0645\u0648\u0644\u062f\u0627\u0648\u06cc","name:left:mg":"Okraina","name:left:ne":"\u092f\u0941\u0915\u094d\u0930\u0947\u0928","name:left:ug":"\u0626\u06c7\u0643\u0631\u0627\u0626\u0649\u0646\u0627","name:left:na":"Ukraine","name:left:eo":"Ukrainujo","name:left:en":"Ukraine","name:left:el":"\u039f\u03c5\u03ba\u03c1\u03b1\u03bd\u03af\u03b1","kind_detail":"2","name:left:ee":"Ukraine","name:left:ig":"Yukrain","name:left:wo":"Ukreen","name:left:es":"Ucrania","name:left:ps":"\u0627\u0648\u06a9\u0631\u0627\u06cc\u0646","name:left:tr":"Ukrayna","name:left:eu":"Ukraina","name:left:et":"Ukraina","name:right:gu":"\u0aae\u0acb\u0ab2\u0acd\u0aa6\u0acb\u0ab5\u0abe","name:right:pt":"Mold\u00e1via","name:left:mk":"\u0423\u043a\u0440\u0430\u0438\u043d\u0430","name:left:mi":"\u016akareinga","name:left:ts":"Ukraine","name:left:tt":"\u0423\u043a\u0440\u0430\u0438\u043d\u0430","name:left:mn":"\u0423\u043a\u0440\u0430\u0439\u043d","name:right:oc":"Mold\u00e0via","name:left:tw":"Ukraine","name:left:th":"\u0e1b\u0e23\u0e30\u0e40\u0e17\u0e28\u0e22\u0e39\u0e40\u0e04\u0e23\u0e19","name:right:pa":"\u0a2e\u0a4b\u0a32\u0a26\u0a4b\u0a35\u0a3e","name:left:zh-min-nan":"Ukrayina","name:left:tk":"Ukraina","name:left:tl":"Ukranya","name:left:ia":"Ukraina","name:left:mt":"Ukrajna","name:right:gl":"Moldavia - Moldova","name:left:my":"\u101a\u1030\u1000\u101b\u102d\u1014\u103a\u1038\u1014\u102d\u102f\u1004\u103a\u1004\u1036","name:left:ml":"\u0d09\u0d15\u0d4d\u0d30\u0d48\u0d7b","name:right:pl":"Mo\u0142dawia","name:left:te":"\u0c09\u0c15\u0c4d\u0c30\u0c46\u0c2f\u0c3f\u0c28\u0c4d","name:right:os":"\u041c\u043e\u043b\u0434\u0430\u0432\u0438","name:left:tg":"\u0423\u043a\u0440\u0430\u0439\u0438\u043d\u0430","name:left:pt":"Ucr\u00e2nia","name:left:mr":"\u092f\u0941\u0915\u094d\u0930\u0947\u0928","name:left:da":"Ukraine","name:left:de":"Ukraine","name:left:ie":"Ucraina","name:right:ga":"An Mhold\u00f3iv","alt_name:left:vi":"Uy Ki\u00ean","name:left:dv":"\u0794\u07aa\u0786\u07b0\u0783\u07ac\u0787\u07a8\u0782\u07b0","name:left:yo":"Ukr\u00e9\u00ecn","name:right:ug":"\u0645\u0648\u0644\u062f\u0648\u06cb\u0627","name:right:la":"Respublica Moldavica","name:right:lb":"Moldawien","name:right:uk":"\u041c\u043e\u043b\u0434\u043e\u0432\u0430","name:left:he":"\u05d0\u05d5\u05e7\u05e8\u05d0\u05d9\u05e0\u05d4","name:right:tk":"Moldawi\u00fda","name:right:li":"Moldavi\u00eb","name:right:lt":"Moldavija","name:right:ur":"\u0645\u0627\u0644\u062f\u0648\u0648\u0627","min_zoom":8.0,"name:left:hy":"\u0548\u0582\u056f\u0580\u0561\u056b\u0576\u0561","name:left:ta":"\u0b89\u0b95\u0bcd\u0bb0\u0bc8\u0ba9\u0bcd","name:left:ht":"Ikr\u00e8n","name:left:hu":"Ukrajna","name:left:hr":"Ukrajina","name:left:ga":"An \u00dacr\u00e1in","name:left:it":"Ucraina","name:left:gd":"An Ucr\u00e0in","sort_rank":262,"name:right:gd":"Mold\u00e0ibhia","name:left:gl":"Ucra\u00edna","name:right:rw":"Molidova","name:left:gn":"Ukya\u00f1a","name:left:gu":"\u0aaf\u0ac1\u0a95\u0acd\u0ab0\u0ac7\u0aa8","osm_relation":true,"name:left:gv":"Yn Ookraan","official_name:right":"Republica Moldova","name:right:or":"\u0b2e\u0b3e\u0b32\u0b21\u0b4b\u0b2d\u0b3e","name:left":"\u0423\u043a\u0440\u0430\u0457\u043d\u0430","name:right:es":"Moldavia","name:right:mi":"Morotawa","name:left:ja":"\u30a6\u30af\u30e9\u30a4\u30ca","name:right:mn":"\u041c\u043e\u043b\u0434\u0430\u0432","name:right:eu":"Moldavia","name:right:ml":"\u0d2e\u0d4a\u0d7e\u0d21\u0d4b\u0d35","name:right:vo":"Moldov\u00e4n","name:left:os":"\u0423\u043a\u0440\u0430\u0438\u043d\u00e6","name:left:or":"\u0b5f\u0b41\u0b15\u0b4d\u0b30\u0b47\u0b28","name:right:my":"\u1019\u1031\u102c\u103a\u101c\u103a\u1012\u102d\u102f\u1017\u102c\u1014\u102d\u102f\u1004\u103a\u1004\u1036","name:right:mr":"\u092e\u094b\u0932\u094d\u0926\u094b\u0935\u094d\u0939\u093e","name:left:oc":"Ucra\u00efna","name:right:na":"Ripubrikin Mordowa","name:right:eo":"Moldavujo","name:left:vi":"Ukraina","kind":"country","name:left:fa":"\u0627\u0648\u06a9\u0631\u0627\u06cc\u0646","name:left:fo":"Ukraina","name:right:ru":"\u041c\u043e\u043b\u0434\u0430\u0432\u0438\u044f","name:right:sk":"Moldavsko","name:left:fi":"Ukraina","name:right:te":"\u0c2e\u0c4b\u0c32\u0c4d\u0c21\u0c4b\u0c35\u0c3e","name:left:fr":"Ukraine","name:right:fy":"Moldaavje","name:left:fy":"Oekra\u00efne","name:left:br":"Ukraina","name:left:bs":"Ukrajina","name:right:mk":"\u041c\u043e\u043b\u0434\u0430\u0432\u0438\u0458\u0430","name:right:ja":"\u30e2\u30eb\u30c9\u30d0","name:right:sq":"Moldavia","name:right:ss":"IMolidiva","name:right:sr":"\u041c\u043e\u043b\u0434\u0430\u0432\u0438\u0458\u0430","name:right:sv":"Moldavien","name:right:sh":"Moldavija","name:left:qu":"Ukranya","name:left:ba":"\u0423\u043a\u0440\u0430\u0438\u043d\u0430","name:left:bg":"\u0423\u043a\u0440\u0430\u0439\u043d\u0430","name:right:so":"Moldofa","name:left:be":"\u0423\u043a\u0440\u0430\u0456\u043d\u0430","name:right:sa":"\u092e\u094b\u0932\u094d\u0926\u094b\u0935\u093e","name:right:sl":"Moldavija","name:left:bi":"Ukraine","name:left:jv":"Ukraina","name:left:bo":"\u0f68\u0f74\u0f40\u0f0b\u0f62\u0f61\u0f72\u0f0b\u0f53\u0f72\u0f0d","name:right":"Moldova","old_name:left:vi":"\u00d4 Kh\u1eafc Lan","name:right:co":"Moldavia","name:right:ca":"Rep\u00fablica de Mold\u00e0via","name:left:bn":"\u0987\u0989\u0995\u09cd\u09b0\u09c7\u09a8","name:right:ce":"\u041c\u043e\u043b\u0434\u0430\u0432\u0438","id":-60199,"name:right:cy":"Moldofa","name:right:zh-yue":"\u6469\u723e\u591a\u74e6","id:left":-60199,"name:right:cs":"Moldavsko","name:right:cu":"\u041c\u043e\u043b\u0434\u043e\u0432\u0430","name:right:cv":"\u041c\u043e\u043b\u0434\u0430\u0432\u0438","name:right:ka":"\u10db\u10dd\u10da\u10d3\u10dd\u10d5\u10d0","name:right:it":"Moldavia","name:left:io":"Ukrainia","name:left:ar":"\u0623\u0648\u0643\u0631\u0627\u0646\u064a\u0627","name:right:tt":"\u041c\u043e\u043b\u0434\u0430\u0432\u0438\u044f","name:right:kk":"\u041c\u043e\u043b\u0434\u043e\u0432\u0430","name:left:id":"Ukraina","name:left:az":"Ukrayna","name:right:ko":"\ubab0\ub3c4\ubc14","name:right:kn":"\u0cae\u0cbe\u0cb2\u0ccd\u0ca1\u0ccb\u0cb5","name:right:tl":"Moldavia","name:left:af":"Oekra\u00efne","name:right:th":"\u0e1b\u0e23\u0e30\u0e40\u0e17\u0e28\u0e21\u0e2d\u0e25\u0e42\u0e14\u0e27\u0e32","name:left:ab":"\u0423\u043a\u0440\u0430\u0438\u043d\u0430","name:right:kv":"\u041c\u043e\u043b\u0434\u043e\u0432\u0430","name:right:ky":"\u041c\u043e\u043b\u0434\u043e\u0432\u0430","name:left:an":"Ucra\u00edna","name:left:am":"\u12e9\u12ad\u122c\u1295","name:right:tg":"\u041c\u043e\u043b\u0434\u043e\u0432\u0430","name:left:is":"\u00dakra\u00edna","name:right:ta":"\u0bae\u0bb2\u0bcd\u0ba4\u0bcb\u0bb5\u0bbe","name:right:de":"Moldawien","name:left:ms":"Ukraine","name:right:el":"\u039c\u03bf\u03bb\u03b4\u03b1\u03b2\u03af\u03b1","name:left:zh-yue":"\u70cf\u514b\u862d","name:left:pa":"\u0a2f\u0a42\u0a15\u0a4d\u0a30\u0a47\u0a28","name:right:ht":"Moldavi","name:left:rw":"Ikerene"},"arcs":[0]},{"type":"LineString","properties":{"name:right:yo":"M\u00f3ld\u00f3f\u00e0","name:left:la":"Ucraina","name:right:qu":"Mulduwa","alt_name:left:eo":"Ukrainio","name:right:dv":"\u0789\u07ae\u078d\u07b0\u0791\u07af\u0788\u07a7","name:right:yi":"\u05de\u05d0\u05dc\u05d3\u05d0\u05d5\u05d5\u05e2","name:right:hy":"\u0544\u0578\u056c\u0564\u0578\u057e\u0561","name:left:su":"Ukraina","name:left:li":"Oekra\u00efne","name:left:sw":"Ukraine","name:left:sv":"Ukraina","name:left:sq":"Ukraina","name:left:lb":"Ukrain","name:left:ln":"Ukraine","name:left:sr":"\u0423\u043a\u0440\u0430\u0458\u0438\u043d\u0430","name:left:sm":"Ukraine","name:left:sl":"Ukrajina","name:left:so":"Ukrain","name:left:sn":"Ukraine","name:left:lt":"Ukraina","name:left:sh":"Ukrajina","name:left:lv":"Ukraina","name:left:vo":"Lukray\u00e4n","name:left:se":"Ukraina","name:right:he":"\u05de\u05d5\u05dc\u05d3\u05d5\u05d1\u05d4","name:left:sc":"Ucraina","name:left:hi":"\u092f\u0941\u0915\u094d\u0930\u0947\u0928","name:right:af":"Moldowa","name:right:ab":"\u041c\u043e\u043b\u0434\u043e\u0432\u0430","name:left:ce":"\u0423\u043a\u0440\u0430\u0438\u043d\u0430","name:right:an":"Republica de Moldavia","name:right:am":"\u121e\u120d\u12f6\u126b","name:left:ca":"Ucra\u00efna","source":"openstreetmap.org","name:left:cy":"Wcr\u00e1in","name:right:ar":"\u0645\u0648\u0644\u062f\u0648\u0641\u0627","int_name:left":"Ukraine","name:left:cu":"\u041e\u0443\u043a\u0440\u0430\u0438\u043d\u0430","name:left:cv":"\u0423\u043a\u0440\u0430\u0438\u043d\u0430","name:left:cs":"Ukrajina","name:left:kg":"Ukrayina","name:left:ka":"\u10e3\u10d9\u10e0\u10d0\u10d8\u10dc\u10d0","name:left:yi":"\u05d0\u05d5\u05e7\u05e8\u05d0\u05d9\u05e0\u05e2","name:left:km":"\u17a2\u17ca\u17bb\u1799\u1780\u17d2\u179a\u17c2\u1793","name:left:kl":"Ukraine","name:left:ko":"\uc6b0\ud06c\ub77c\uc774\ub098","name:left:kn":"\u0caf\u0cc1\u0c95\u0ccd\u0cb0\u0cc7\u0ca8\u0ccd","name:right:is":"Mold\u00f3va","name:left:ro":"Ucraina","name:left:kk":"\u0423\u043a\u0440\u0430\u0438\u043d\u0430","name:left:rm":"Ucraina","name:left:ku":"\u00dbkrayna","name:left:kw":"Ukrayn","name:left:kv":"\u0423\u043a\u0440\u0430\u0438\u043d\u0430","name:left:pl":"Ukraina","name:left:ss":"IYukhureni","name:left:ru":"\u0423\u043a\u0440\u0430\u0438\u043d\u0430","name:right:ie":"Moldavia","name:left:ky":"\u0423\u043a\u0440\u0430\u0438\u043d\u0430","name":"\u0423\u043a\u0440\u0430\u0457\u043d\u0430 - Moldova","name:left:wa":"Oucrinne","name:right:bn":"\u09ae\u09b2\u09a6\u09cb\u09ad\u09be","name:right:bo":"\u0f58\u0f7c\u0f63\u0f0b\u0f51\u0f7c\u0f0b\u0f5d\u0f0d","name:right:hi":"\u092e\u0949\u0932\u094d\u0921\u094b\u0935\u093e","name:right:ba":"\u041c\u043e\u043b\u0434\u043e\u0432\u0430","name:right:bg":"\u041c\u043e\u043b\u0434\u043e\u0432\u0430","name:right:be":"\u041c\u0430\u043b\u0434\u043e\u0432\u0430","name:left:zh":"\u4e4c\u514b\u5170","name:right:bs":"Moldavija","name:right:zh":"\u6469\u5c14\u591a\u74e6","name:left:uz":"Ukraina","name:right:nl":"Moldavi\u00eb","name:right:fr":"Moldavie","name:left:sk":"Ukrajina","name:left:nv":"Y\u00f3\u00f3kwein","name:left:ur":"\u06cc\u0648\u06a9\u0631\u06cc\u0646","name:right:wo":"Moldaawi","name:right:ne":"\u092e\u094b\u0932\u094d\u0926\u094b\u0935\u093e","id:right":-58974,"name:left:nn":"Ukraina","name:left:no":"Ukraina","name:left:nl":"Oekra\u00efne","alt_name:right:eo":"Moldavio","name:right:fa":"\u0645\u0648\u0644\u062f\u0627\u0648\u06cc","name:left:mg":"Okraina","name:left:ne":"\u092f\u0941\u0915\u094d\u0930\u0947\u0928","name:left:ug":"\u0626\u06c7\u0643\u0631\u0627\u0626\u0649\u0646\u0627","name:left:na":"Ukraine","name:left:eo":"Ukrainujo","name:left:en":"Ukraine","name:left:el":"\u039f\u03c5\u03ba\u03c1\u03b1\u03bd\u03af\u03b1","kind_detail":"2","name:left:ee":"Ukraine","name:left:ig":"Yukrain","name:left:wo":"Ukreen","name:left:es":"Ucrania","name:left:ps":"\u0627\u0648\u06a9\u0631\u0627\u06cc\u0646","name:left:tr":"Ukrayna","name:left:eu":"Ukraina","name:left:et":"Ukraina","name:right:gu":"\u0aae\u0acb\u0ab2\u0acd\u0aa6\u0acb\u0ab5\u0abe","name:right:pt":"Mold\u00e1via","name:left:mk":"\u0423\u043a\u0440\u0430\u0438\u043d\u0430","name:left:mi":"\u016akareinga","name:left:ts":"Ukraine","name:left:tt":"\u0423\u043a\u0440\u0430\u0438\u043d\u0430","name:left:mn":"\u0423\u043a\u0440\u0430\u0439\u043d","name:right:oc":"Mold\u00e0via","name:left:tw":"Ukraine","name:left:th":"\u0e1b\u0e23\u0e30\u0e40\u0e17\u0e28\u0e22\u0e39\u0e40\u0e04\u0e23\u0e19","name:right:pa":"\u0a2e\u0a4b\u0a32\u0a26\u0a4b\u0a35\u0a3e","name:left:zh-min-nan":"Ukrayina","name:left:tk":"Ukraina","name:left:tl":"Ukranya","name:left:ia":"Ukraina","name:left:mt":"Ukrajna","name:right:gl":"Moldavia - Moldova","name:left:my":"\u101a\u1030\u1000\u101b\u102d\u1014\u103a\u1038\u1014\u102d\u102f\u1004\u103a\u1004\u1036","name:left:ml":"\u0d09\u0d15\u0d4d\u0d30\u0d48\u0d7b","name:right:pl":"Mo\u0142dawia","name:left:te":"\u0c09\u0c15\u0c4d\u0c30\u0c46\u0c2f\u0c3f\u0c28\u0c4d","name:right:os":"\u041c\u043e\u043b\u0434\u0430\u0432\u0438","name:left:tg":"\u0423\u043a\u0440\u0430\u0439\u0438\u043d\u0430","name:left:pt":"Ucr\u00e2nia","name:left:mr":"\u092f\u0941\u0915\u094d\u0930\u0947\u0928","name:left:da":"Ukraine","name:left:de":"Ukraine","name:left:ie":"Ucraina","name:right:ga":"An Mhold\u00f3iv","alt_name:left:vi":"Uy Ki\u00ean","name:left:dv":"\u0794\u07aa\u0786\u07b0\u0783\u07ac\u0787\u07a8\u0782\u07b0","name:left:yo":"Ukr\u00e9\u00ecn","name:right:ug":"\u0645\u0648\u0644\u062f\u0648\u06cb\u0627","name:right:la":"Respublica Moldavica","name:right:lb":"Moldawien","name:right:uk":"\u041c\u043e\u043b\u0434\u043e\u0432\u0430","name:left:he":"\u05d0\u05d5\u05e7\u05e8\u05d0\u05d9\u05e0\u05d4","name:right:tk":"Moldawi\u00fda","name:right:li":"Moldavi\u00eb","name:right:lt":"Moldavija","name:right:ur":"\u0645\u0627\u0644\u062f\u0648\u0648\u0627","min_zoom":8.0,"name:left:hy":"\u0548\u0582\u056f\u0580\u0561\u056b\u0576\u0561","name:left:ta":"\u0b89\u0b95\u0bcd\u0bb0\u0bc8\u0ba9\u0bcd","name:left:ht":"Ikr\u00e8n","name:left:hu":"Ukrajna","name:left:hr":"Ukrajina","name:left:ga":"An \u00dacr\u00e1in","name:left:it":"Ucraina","name:left:gd":"An Ucr\u00e0in","sort_rank":262,"name:right:gd":"Mold\u00e0ibhia","name:left:gl":"Ucra\u00edna","name:right:rw":"Molidova","name:left:gn":"Ukya\u00f1a","name:left:gu":"\u0aaf\u0ac1\u0a95\u0acd\u0ab0\u0ac7\u0aa8","osm_relation":true,"name:left:gv":"Yn Ookraan","official_name:right":"Republica Moldova","name:right:or":"\u0b2e\u0b3e\u0b32\u0b21\u0b4b\u0b2d\u0b3e","name:left":"\u0423\u043a\u0440\u0430\u0457\u043d\u0430","name:right:es":"Moldavia","name:right:mi":"Morotawa","name:left:ja":"\u30a6\u30af\u30e9\u30a4\u30ca","name:right:mn":"\u041c\u043e\u043b\u0434\u0430\u0432","name:right:eu":"Moldavia","name:right:ml":"\u0d2e\u0d4a\u0d7e\u0d21\u0d4b\u0d35","name:right:vo":"Moldov\u00e4n","name:left:os":"\u0423\u043a\u0440\u0430\u0438\u043d\u00e6","name:left:or":"\u0b5f\u0b41\u0b15\u0b4d\u0b30\u0b47\u0b28","name:right:my":"\u1019\u1031\u102c\u103a\u101c\u103a\u1012\u102d\u102f\u1017\u102c\u1014\u102d\u102f\u1004\u103a\u1004\u1036","name:right:mr":"\u092e\u094b\u0932\u094d\u0926\u094b\u0935\u094d\u0939\u093e","name:left:oc":"Ucra\u00efna","name:right:na":"Ripubrikin Mordowa","name:right:eo":"Moldavujo","name:left:vi":"Ukraina","kind":"country","name:left:fa":"\u0627\u0648\u06a9\u0631\u0627\u06cc\u0646","name:left:fo":"Ukraina","name:right:ru":"\u041c\u043e\u043b\u0434\u0430\u0432\u0438\u044f","name:right:sk":"Moldavsko","name:left:fi":"Ukraina","name:right:te":"\u0c2e\u0c4b\u0c32\u0c4d\u0c21\u0c4b\u0c35\u0c3e","name:left:fr":"Ukraine","name:right:fy":"Moldaavje","name:left:fy":"Oekra\u00efne","name:left:br":"Ukraina","name:left:bs":"Ukrajina","name:right:mk":"\u041c\u043e\u043b\u0434\u0430\u0432\u0438\u0458\u0430","name:right:ja":"\u30e2\u30eb\u30c9\u30d0","name:right:sq":"Moldavia","name:right:ss":"IMolidiva","name:right:sr":"\u041c\u043e\u043b\u0434\u0430\u0432\u0438\u0458\u0430","name:right:sv":"Moldavien","name:right:sh":"Moldavija","name:left:qu":"Ukranya","name:left:ba":"\u0423\u043a\u0440\u0430\u0438\u043d\u0430","name:left:bg":"\u0423\u043a\u0440\u0430\u0439\u043d\u0430","name:right:so":"Moldofa","name:left:be":"\u0423\u043a\u0440\u0430\u0456\u043d\u0430","name:right:sa":"\u092e\u094b\u0932\u094d\u0926\u094b\u0935\u093e","name:right:sl":"Moldavija","name:left:bi":"Ukraine","name:left:jv":"Ukraina","name:left:bo":"\u0f68\u0f74\u0f40\u0f0b\u0f62\u0f61\u0f72\u0f0b\u0f53\u0f72\u0f0d","name:right":"Moldova","old_name:left:vi":"\u00d4 Kh\u1eafc Lan","name:right:co":"Moldavia","name:right:ca":"Rep\u00fablica de Mold\u00e0via","name:left:bn":"\u0987\u0989\u0995\u09cd\u09b0\u09c7\u09a8","name:right:ce":"\u041c\u043e\u043b\u0434\u0430\u0432\u0438","id":-60199,"name:right:cy":"Moldofa","name:right:zh-yue":"\u6469\u723e\u591a\u74e6","id:left":-60199,"name:right:cs":"Moldavsko","name:right:cu":"\u041c\u043e\u043b\u0434\u043e\u0432\u0430","name:right:cv":"\u041c\u043e\u043b\u0434\u0430\u0432\u0438","name:right:ka":"\u10db\u10dd\u10da\u10d3\u10dd\u10d5\u10d0","name:right:it":"Moldavia","name:left:io":"Ukrainia","name:left:ar":"\u0623\u0648\u0643\u0631\u0627\u0646\u064a\u0627","name:right:tt":"\u041c\u043e\u043b\u0434\u0430\u0432\u0438\u044f","name:right:kk":"\u041c\u043e\u043b\u0434\u043e\u0432\u0430","name:left:id":"Ukraina","name:left:az":"Ukrayna","name:right:ko":"\ubab0\ub3c4\ubc14","name:right:kn":"\u0cae\u0cbe\u0cb2\u0ccd\u0ca1\u0ccb\u0cb5","name:right:tl":"Moldavia","name:left:af":"Oekra\u00efne","name:right:th":"\u0e1b\u0e23\u0e30\u0e40\u0e17\u0e28\u0e21\u0e2d\u0e25\u0e42\u0e14\u0e27\u0e32","name:left:ab":"\u0423\u043a\u0440\u0430\u0438\u043d\u0430","name:right:kv":"\u041c\u043e\u043b\u0434\u043e\u0432\u0430","name:right:ky":"\u041c\u043e\u043b\u0434\u043e\u0432\u0430","name:left:an":"Ucra\u00edna","name:left:am":"\u12e9\u12ad\u122c\u1295","name:right:tg":"\u041c\u043e\u043b\u0434\u043e\u0432\u0430","name:left:is":"\u00dakra\u00edna","name:right:ta":"\u0bae\u0bb2\u0bcd\u0ba4\u0bcb\u0bb5\u0bbe","name:right:de":"Moldawien","name:left:ms":"Ukraine","name:right:el":"\u039c\u03bf\u03bb\u03b4\u03b1\u03b2\u03af\u03b1","name:left:zh-yue":"\u70cf\u514b\u862d","name:left:pa":"\u0a2f\u0a42\u0a15\u0a4d\u0a30\u0a47\u0a28","name:right:ht":"Moldavi","name:left:rw":"Ikerene"},"arcs":[1]},{"type":"LineString","properties":{"name:kg":"Ukrayina","name:ka":"\u10e3\u10d9\u10e0\u10d0\u10d8\u10dc\u10d0","name:ko":"\uc6b0\ud06c\ub77c\uc774\ub098","name:cv":"\u0423\u043a\u0440\u0430\u0438\u043d\u0430","name:cu":"\u041e\u0443\u043a\u0440\u0430\u0438\u043d\u0430","name:kl":"Ukraine","name:cs":"Ukrajina","name:tw":"Ukraine","name:tt":"\u0423\u043a\u0440\u0430\u0438\u043d\u0430","name:kw":"Ukrayn","name:kv":"\u0423\u043a\u0440\u0430\u0438\u043d\u0430","name:th":"\u0e1b\u0e23\u0e30\u0e40\u0e17\u0e28\u0e22\u0e39\u0e40\u0e04\u0e23\u0e19","name:tl":"Ukranya","name:ce":"\u0423\u043a\u0440\u0430\u0438\u043d\u0430","name:ta":"\u0b89\u0b95\u0bcd\u0bb0\u0bc8\u0ba9\u0bcd","name:tg":"\u0423\u043a\u0440\u0430\u0439\u0438\u043d\u0430","name:ca":"Ucra\u00efna","name:te":"\u0c09\u0c15\u0c4d\u0c30\u0c46\u0c2f\u0c3f\u0c28\u0c4d","name:cy":"Wcr\u00e1in","name:qu":"Ukranya","name:da":"Ukraine","name:de":"Ukraine","source":"openstreetmap.org","name:kn":"\u0caf\u0cc1\u0c95\u0ccd\u0cb0\u0cc7\u0ca8\u0ccd","name:dv":"\u0794\u07aa\u0786\u07b0\u0783\u07ac\u0787\u07a8\u0782\u07b0","name:km":"\u17a2\u17ca\u17bb\u1799\u1780\u17d2\u179a\u17c2\u1793","name:lv":"Ukraina","name:lt":"Ukraina","name:uz":"Ukraina","name:kk":"\u0423\u043a\u0440\u0430\u0438\u043d\u0430","name:ur":"\u06cc\u0648\u06a9\u0631\u06cc\u0646","name:lb":"Ukrain","name:la":"Ucraina","name:ug":"\u0626\u06c7\u0643\u0631\u0627\u0626\u0649\u0646\u0627","name:li":"Oekra\u00efne","name:ln":"Ukraine","name:el":"\u039f\u03c5\u03ba\u03c1\u03b1\u03bd\u03af\u03b1","name:eo":"Ukrainujo","name:en":"Ukraine","name":"\u0423\u043a\u0440\u0430\u0457\u043d\u0430","name:tk":"Ukraina","name:ee":"Ukraine","name:ku":"\u00dbkrayna","name:eu":"Ukraina","name:et":"Ukraina","name:es":"Ucrania","name:ia":"Ukraina","name:rm":"Ucraina","name:az":"Ukrayna","name:ie":"Ucraina","name:id":"Ukraina","name:ig":"Yukrain","name:ar":"\u0623\u0648\u0643\u0631\u0627\u0646\u064a\u0627","name:io":"Ukrainia","name:is":"\u00dakra\u00edna","name:am":"\u12e9\u12ad\u122c\u1295","name:it":"Ucraina","name:an":"Ucra\u00edna","name:ru":"\u0423\u043a\u0440\u0430\u0438\u043d\u0430","name:ab":"\u0423\u043a\u0440\u0430\u0438\u043d\u0430","name:af":"Oekra\u00efne","kind_detail":"2","name:ky":"\u0423\u043a\u0440\u0430\u0438\u043d\u0430","name:zh-yue":"\u70cf\u514b\u862d","name:zh":"\u4e4c\u514b\u5170","name:so":"Ukrain","name:sn":"Ukraine","name:sm":"Ukraine","name:sl":"Ukrajina","name:sk":"Ukrajina","name:ja":"\u30a6\u30af\u30e9\u30a4\u30ca","name:sh":"Ukrajina","name:se":"Ukraina","name:sc":"Ucraina","name:br":"Ukraina","name:bs":"Ukrajina","name:bn":"\u0987\u0989\u0995\u09cd\u09b0\u09c7\u09a8","name:bo":"\u0f68\u0f74\u0f40\u0f0b\u0f62\u0f61\u0f72\u0f0b\u0f53\u0f72\u0f0d","name:bi":"Ukraine","name:sw":"Ukraine","name:be":"\u0423\u043a\u0440\u0430\u0456\u043d\u0430","name:su":"Ukraina","name:bg":"\u0423\u043a\u0440\u0430\u0439\u043d\u0430","name:ss":"IYukhureni","name:ba":"\u0423\u043a\u0440\u0430\u0438\u043d\u0430","name:sq":"Ukraina","name:jv":"Ukraina","name:pt":"Ucr\u00e2nia","name:ps":"\u0627\u0648\u06a9\u0631\u0627\u06cc\u0646","name:oc":"Ucra\u00efna","min_zoom":8.0,"name:ro":"Ucraina","name:zh-min-nan":"Ukrayina","name:os":"\u0423\u043a\u0440\u0430\u0438\u043d\u00e6","name:or":"\u0b5f\u0b41\u0b15\u0b4d\u0b30\u0b47\u0b28","name:pl":"Ukraina","sort_rank":262,"name:sr":"\u0423\u043a\u0440\u0430\u0458\u0438\u043d\u0430","osm_relation":true,"name:pa":"\u0a2f\u0a42\u0a15\u0a4d\u0a30\u0a47\u0a28","name:tr":"Ukrayna","name:hi":"\u092f\u0941\u0915\u094d\u0930\u0947\u0928","name:sv":"Ukraina","name:he":"\u05d0\u05d5\u05e7\u05e8\u05d0\u05d9\u05e0\u05d4","name:hy":"\u0548\u0582\u056f\u0580\u0561\u056b\u0576\u0561","name:ht":"Ikr\u00e8n","name:hu":"Ukrajna","name:hr":"Ukrajina","kind":"country","name:ts":"Ukraine","name:yi":"\u05d0\u05d5\u05e7\u05e8\u05d0\u05d9\u05e0\u05e2","name:yo":"Ukr\u00e9\u00ecn","name:mt":"Ukrajna","alt_name:eo":"Ukrainio","name:ms":"Ukraine","name:mr":"\u092f\u0941\u0915\u094d\u0930\u0947\u0928","name:my":"\u101a\u1030\u1000\u101b\u102d\u1014\u103a\u1038\u1014\u102d\u102f\u1004\u103a\u1004\u1036","int_name":"Ukraine","name:mg":"Okraina","name:vi":"Ukraina","name:ml":"\u0d09\u0d15\u0d4d\u0d30\u0d48\u0d7b","name:mn":"\u0423\u043a\u0440\u0430\u0439\u043d","name:mi":"\u016akareinga","id":-60199,"name:mk":"\u0423\u043a\u0440\u0430\u0438\u043d\u0430","name:vo":"Lukray\u00e4n","name:fa":"\u0627\u0648\u06a9\u0631\u0627\u06cc\u0646","name:rw":"Ikerene","name:fi":"Ukraina","old_name:vi":"\u00d4 Kh\u1eafc Lan","name:fo":"Ukraina","alt_name:vi":"Uy Ki\u00ean","name:fr":"Ukraine","name:fy":"Oekra\u00efne","name:nl":"Oekra\u00efne","name:nn":"Ukraina","name:no":"Ukraina","name:na":"Ukraine","name:ne":"\u092f\u0941\u0915\u094d\u0930\u0947\u0928","name:wa":"Oucrinne","name:wo":"Ukreen","name:nv":"Y\u00f3\u00f3kwein","name:ga":"An \u00dacr\u00e1in","name:gd":"An Ucr\u00e0in","name:gn":"Ukya\u00f1a","name:gl":"Ucra\u00edna","maritime_boundary":true,"name:gv":"Yn Ookraan","name:gu":"\u0aaf\u0ac1\u0a95\u0acd\u0ab0\u0ac7\u0aa8"},"arcs":[2]},{"type":"LineString","properties":{"name:right:hy":"\u0555\u0564\u0565\u057d\u0561\u0575\u056b \u0574\u0561\u0580\u0566","name:right:no":"Odessa oblast","name:right:hr":"Ode\u0161ka oblast","name:right:hu":"Odesszai ter\u00fclet","name:left:sr":"\u041f\u0440\u0438\u0434\u045a\u0435\u0441\u0442\u0440\u043e\u0432\u0459\u0435","name:right:lt":"Odesos sritis","name:right:ur":"\u0627\u0648\u062f\u06cc\u0633\u0627 \u0627\u0648\u0628\u0644\u0627\u0633\u062a","name:right:lv":"Odesas apgabals","name:left:hu":"Dnyeszter Menti K\u00f6zt\u00e1rsas\u00e1g","name:right:os":"\u041e\u0434\u0435\u0441\u0441\u00e6\u0439\u044b \u043e\u0431\u043b\u00e6\u0441\u0442","sort_rank":256,"name:left:ca":"Transn\u00edstria","source":"openstreetmap.org","name:right:ar":"\u0623\u0648\u062f\u064a\u0633\u0627 \u0623\u0648\u0628\u0644\u0627\u0633\u062a","name:right:az":"Odessa vilay\u0259ti","name:left:cs":"Podn\u011bst\u0159\u00ed","name:left":"\u041f\u0440\u0438\u0434\u043d\u0435\u0441\u0442\u0440\u043e\u0432\u044c\u0435","name:right:es":"\u00d3blast de Odesa","name:right:eu":"Odesako oblasta","name:right:et":"Odessa oblast","name:right:it":"Oblast' di Odessa","name:left:ro":"Transnistria","name:right:vi":"Odessa (t\u1ec9nh)","name:right:ro":"Regiunea Odesa","name:right:mr":"\u0913\u0926\u0947\u0938\u093e \u0913\u092c\u094d\u0932\u093e\u0938\u094d\u0924","name:right:id":"Oblast Odessa","name:right:eo":"Odesa provinco","name:right:en":"Odessa Oblast","kind":"region","name":"\u041f\u0440\u0438\u0434\u043d\u0435\u0441\u0442\u0440\u043e\u0432\u044c\u0435 - \u041e\u0434\u0435\u0441\u044c\u043a\u0430 \u043e\u0431\u043b\u0430\u0441\u0442\u044c","min_zoom":8.0,"name:right:be":"\u0410\u0434\u044d\u0441\u043a\u0430\u044f \u0432\u043e\u0431\u043b\u0430\u0441\u0446\u044c","name:right:zh":"\u6556\u5fb7\u8428\u5dde","official_name:left":"Unitatea teritorial\u0103 autonom\u0103 cu statut juridic special Transnistria","name:right:nn":"Odessa oblast","name:right:mk":"\u041e\u0434\u0435\u0441\u043a\u0430 \u043e\u0431\u043b\u0430\u0441\u0442","name:right:nl":"Oblast Odessa","name:right:ja":"\u30aa\u30c7\u30c3\u30b5\u5dde","name:right:fr":"Oblast d'Odessa","name:right:sr":"\u041e\u0434\u0435\u0448\u043a\u0430 \u043e\u0431\u043b\u0430\u0441\u0442","id:right":-72634,"name:left:uk":"\u041f\u0440\u0438\u0434\u043d\u0456\u0441\u0442\u0440\u043e\u0432'\u044f","name:right:sh":"Ode\u0161ka oblast","name:right:sk":"Odesk\u00e1 oblas\u0165","name:right:fa":"\u0627\u0633\u062a\u0627\u0646 \u0627\u0648\u062f\u0633\u0627","id":-2607033,"name:right":"\u041e\u0434\u0435\u0441\u044c\u043a\u0430 \u043e\u0431\u043b\u0430\u0441\u0442\u044c","name:left:en":"Transnistria","name:right:ca":"Prov\u00edncia d'Odessa","kind_detail":"4","id:left":-2607033,"name:left:es":"Transnistria","name:right:cs":"Od\u011bsk\u00e1 oblast","name:right:fi":"Odessan alue","name:right:ka":"\u10dd\u10d3\u10d4\u10e1\u10d8\u10e1 \u10dd\u10da\u10e5\u10d8","name:right:zh-min-nan":"Odesa s\u00e9ng","name:right:pt":"Oblast de Odesa","name:left:ar":"\u062a\u0631\u0627\u0646\u0633\u0646\u064a\u0633\u062a\u0631\u064a\u0627","name:right:tr":"Odessa Oblast\u0131","name:right:bg":"\u041e\u0434\u0435\u0441\u043a\u0430 \u043e\u0431\u043b\u0430\u0441\u0442","name:right:sv":"Odessa oblast","name:right:ko":"\uc624\ub370\uc0ac \uc8fc","name:right:ru":"\u041e\u0434\u0435\u0441\u0441\u043a\u0430\u044f \u043e\u0431\u043b\u0430\u0441\u0442\u044c","name:right:pl":"Obw\u00f3d odeski","osm_relation":true,"name:right:de":"Oblast Odessa","name:left:de":"Transnistrien"},"arcs":[3]},{"type":"LineString","properties":{"name:right:hy":"\u0555\u0564\u0565\u057d\u0561\u0575\u056b \u0574\u0561\u0580\u0566","name:right:no":"Odessa oblast","name:right:hr":"Ode\u0161ka oblast","name:right:hu":"Odesszai ter\u00fclet","name:left:sr":"\u041f\u0440\u0438\u0434\u045a\u0435\u0441\u0442\u0440\u043e\u0432\u0459\u0435","name:right:lt":"Odesos sritis","name:right:ur":"\u0627\u0648\u062f\u06cc\u0633\u0627 \u0627\u0648\u0628\u0644\u0627\u0633\u062a","name:right:lv":"Odesas apgabals","name:left:hu":"Dnyeszter Menti K\u00f6zt\u00e1rsas\u00e1g","name:right:os":"\u041e\u0434\u0435\u0441\u0441\u00e6\u0439\u044b \u043e\u0431\u043b\u00e6\u0441\u0442","sort_rank":256,"name:left:ca":"Transn\u00edstria","source":"openstreetmap.org","name:right:ar":"\u0623\u0648\u062f\u064a\u0633\u0627 \u0623\u0648\u0628\u0644\u0627\u0633\u062a","name:right:az":"Odessa vilay\u0259ti","name:left:cs":"Podn\u011bst\u0159\u00ed","name:left":"\u041f\u0440\u0438\u0434\u043d\u0435\u0441\u0442\u0440\u043e\u0432\u044c\u0435","name:right:es":"\u00d3blast de Odesa","name:right:eu":"Odesako oblasta","name:right:et":"Odessa oblast","name:right:it":"Oblast' di Odessa","name:left:ro":"Transnistria","name:right:vi":"Odessa (t\u1ec9nh)","name:right:ro":"Regiunea Odesa","name:right:mr":"\u0913\u0926\u0947\u0938\u093e \u0913\u092c\u094d\u0932\u093e\u0938\u094d\u0924","name:right:id":"Oblast Odessa","name:right:eo":"Odesa provinco","name:right:en":"Odessa Oblast","kind":"region","name":"\u041f\u0440\u0438\u0434\u043d\u0435\u0441\u0442\u0440\u043e\u0432\u044c\u0435 - \u041e\u0434\u0435\u0441\u044c\u043a\u0430 \u043e\u0431\u043b\u0430\u0441\u0442\u044c","min_zoom":8.0,"name:right:be":"\u0410\u0434\u044d\u0441\u043a\u0430\u044f \u0432\u043e\u0431\u043b\u0430\u0441\u0446\u044c","name:right:zh":"\u6556\u5fb7\u8428\u5dde","official_name:left":"Unitatea teritorial\u0103 autonom\u0103 cu statut juridic special Transnistria","name:right:nn":"Odessa oblast","name:right:mk":"\u041e\u0434\u0435\u0441\u043a\u0430 \u043e\u0431\u043b\u0430\u0441\u0442","name:right:nl":"Oblast Odessa","name:right:ja":"\u30aa\u30c7\u30c3\u30b5\u5dde","name:right:fr":"Oblast d'Odessa","name:right:sr":"\u041e\u0434\u0435\u0448\u043a\u0430 \u043e\u0431\u043b\u0430\u0441\u0442","id:right":-72634,"name:left:uk":"\u041f\u0440\u0438\u0434\u043d\u0456\u0441\u0442\u0440\u043e\u0432'\u044f","name:right:sh":"Ode\u0161ka oblast","name:right:sk":"Odesk\u00e1 oblas\u0165","name:right:fa":"\u0627\u0633\u062a\u0627\u0646 \u0627\u0648\u062f\u0633\u0627","id":-2607033,"name:right":"\u041e\u0434\u0435\u0441\u044c\u043a\u0430 \u043e\u0431\u043b\u0430\u0441\u0442\u044c","name:left:en":"Transnistria","name:right:ca":"Prov\u00edncia d'Odessa","kind_detail":"4","id:left":-2607033,"name:left:es":"Transnistria","name:right:cs":"Od\u011bsk\u00e1 oblast","name:right:fi":"Odessan alue","name:right:ka":"\u10dd\u10d3\u10d4\u10e1\u10d8\u10e1 \u10dd\u10da\u10e5\u10d8","name:right:zh-min-nan":"Odesa s\u00e9ng","name:right:pt":"Oblast de Odesa","name:left:ar":"\u062a\u0631\u0627\u0646\u0633\u0646\u064a\u0633\u062a\u0631\u064a\u0627","name:right:tr":"Odessa Oblast\u0131","name:right:bg":"\u041e\u0434\u0435\u0441\u043a\u0430 \u043e\u0431\u043b\u0430\u0441\u0442","name:right:sv":"Odessa oblast","name:right:ko":"\uc624\ub370\uc0ac \uc8fc","name:right:ru":"\u041e\u0434\u0435\u0441\u0441\u043a\u0430\u044f \u043e\u0431\u043b\u0430\u0441\u0442\u044c","name:right:pl":"Obw\u00f3d odeski","osm_relation":true,"name:right:de":"Oblast Odessa","name:left:de":"Transnistrien"},"arcs":[4]},{"type":"LineString","properties":{"name:ro":"Transnistria","name:ar":"\u062a\u0631\u0627\u0646\u0633\u0646\u064a\u0633\u062a\u0631\u064a\u0627","name:cs":"Podn\u011bst\u0159\u00ed","official_name":"Unitatea teritorial\u0103 autonom\u0103 cu statut juridic special Transnistria","min_zoom":8.0,"name:uk":"\u041f\u0440\u0438\u0434\u043d\u0456\u0441\u0442\u0440\u043e\u0432'\u044f","name:hu":"Dnyeszter Menti K\u00f6zt\u00e1rsas\u00e1g","name:sr":"\u041f\u0440\u0438\u0434\u045a\u0435\u0441\u0442\u0440\u043e\u0432\u0459\u0435","osm_relation":true,"kind":"region","name:en":"Transnistria","name":"\u041f\u0440\u0438\u0434\u043d\u0435\u0441\u0442\u0440\u043e\u0432\u044c\u0435","sort_rank":256,"kind_detail":"4","id":-2607033,"source":"openstreetmap.org","name:ca":"Transn\u00edstria","name:de":"Transnistrien","name:es":"Transnistria"},"arcs":[5]},{"type":"LineString","properties":{"name:ro":"Transnistria","name:ar":"\u062a\u0631\u0627\u0646\u0633\u0646\u064a\u0633\u062a\u0631\u064a\u0627","name:cs":"Podn\u011bst\u0159\u00ed","official_name":"Unitatea teritorial\u0103 autonom\u0103 cu statut juridic special Transnistria","min_zoom":8.0,"name:uk":"\u041f\u0440\u0438\u0434\u043d\u0456\u0441\u0442\u0440\u043e\u0432'\u044f","name:hu":"Dnyeszter Menti K\u00f6zt\u00e1rsas\u00e1g","name:sr":"\u041f\u0440\u0438\u0434\u045a\u0435\u0441\u0442\u0440\u043e\u0432\u0459\u0435","osm_relation":true,"kind":"region","name:en":"Transnistria","name":"\u041f\u0440\u0438\u0434\u043d\u0435\u0441\u0442\u0440\u043e\u0432\u044c\u0435","sort_rank":256,"kind_detail":"4","id":-2607033,"source":"openstreetmap.org","name:ca":"Transn\u00edstria","name:de":"Transnistrien","name:es":"Transnistria"},"arcs":[6]},{"type":"LineString","properties":{"name:pt":"Oblast de Odesa","name:az":"Odessa vilay\u0259ti","name:id":"Oblast Odessa","name:ka":"\u10dd\u10d3\u10d4\u10e1\u10d8\u10e1 \u10dd\u10da\u10e5\u10d8","name:mr":"\u0913\u0926\u0947\u0938\u093e \u0913\u092c\u094d\u0932\u093e\u0938\u094d\u0924","name:ko":"\uc624\ub370\uc0ac \uc8fc","name:ar":"\u0623\u0648\u062f\u064a\u0633\u0627 \u0623\u0648\u0628\u0644\u0627\u0633\u062a","name:cs":"Od\u011bsk\u00e1 oblast","min_zoom":8.0,"name:ro":"Regiunea Odesa","name:it":"Oblast' di Odessa","name:zh-min-nan":"Odesa s\u00e9ng","name:os":"\u041e\u0434\u0435\u0441\u0441\u00e6\u0439\u044b \u043e\u0431\u043b\u00e6\u0441\u0442","name:vi":"Odessa (t\u1ec9nh)","name:pl":"Obw\u00f3d odeski","id":-72634,"name:ca":"Prov\u00edncia d'Odessa","name:fa":"\u0627\u0633\u062a\u0627\u0646 \u0627\u0648\u062f\u0633\u0627","name:hu":"Odesszai ter\u00fclet","name:lt":"Odesos sritis","source":"openstreetmap.org","sort_rank":256,"kind_detail":"4","name:sh":"Ode\u0161ka oblast","name:de":"Oblast Odessa","name:tr":"Odessa Oblast\u0131","name:fr":"Oblast d'Odessa","name:mk":"\u041e\u0434\u0435\u0441\u043a\u0430 \u043e\u0431\u043b\u0430\u0441\u0442","name:be":"\u0410\u0434\u044d\u0441\u043a\u0430\u044f \u0432\u043e\u0431\u043b\u0430\u0441\u0446\u044c","name:zh":"\u6556\u5fb7\u8428\u5dde","name:lv":"Odesas apgabals","name:ja":"\u30aa\u30c7\u30c3\u30b5\u5dde","name:nn":"Odessa oblast","name:no":"Odessa oblast","kind":"region","name:ur":"\u0627\u0648\u062f\u06cc\u0633\u0627 \u0627\u0648\u0628\u0644\u0627\u0633\u062a","name:sk":"Odesk\u00e1 oblas\u0165","name:hy":"\u0555\u0564\u0565\u057d\u0561\u0575\u056b \u0574\u0561\u0580\u0566","name:ru":"\u041e\u0434\u0435\u0441\u0441\u043a\u0430\u044f \u043e\u0431\u043b\u0430\u0441\u0442\u044c","name:sv":"Odessa oblast","name:bg":"\u041e\u0434\u0435\u0441\u043a\u0430 \u043e\u0431\u043b\u0430\u0441\u0442","name:hr":"Ode\u0161ka oblast","name:sr":"\u041e\u0434\u0435\u0448\u043a\u0430 \u043e\u0431\u043b\u0430\u0441\u0442","osm_relation":true,"name:eo":"Odesa provinco","name:en":"Odessa Oblast","name":"\u041e\u0434\u0435\u0441\u044c\u043a\u0430 \u043e\u0431\u043b\u0430\u0441\u0442\u044c","name:fi":"Odessan alue","name:eu":"Odesako oblasta","name:et":"Odessa oblast","name:nl":"Oblast Odessa","name:es":"\u00d3blast de Odesa"},"arcs":[7]},{"type":"LineString","properties":{"name:pt":"Oblast de Odesa","name:az":"Odessa vilay\u0259ti","name:id":"Oblast Odessa","name:ka":"\u10dd\u10d3\u10d4\u10e1\u10d8\u10e1 \u10dd\u10da\u10e5\u10d8","name:mr":"\u0913\u0926\u0947\u0938\u093e \u0913\u092c\u094d\u0932\u093e\u0938\u094d\u0924","name:ko":"\uc624\ub370\uc0ac \uc8fc","name:ar":"\u0623\u0648\u062f\u064a\u0633\u0627 \u0623\u0648\u0628\u0644\u0627\u0633\u062a","name:cs":"Od\u011bsk\u00e1 oblast","name:tr":"Odessa Oblast\u0131","min_zoom":8.0,"name:ro":"Regiunea Odesa","name:it":"Oblast' di Odessa","name:zh-min-nan":"Odesa s\u00e9ng","name:os":"\u041e\u0434\u0435\u0441\u0441\u00e6\u0439\u044b \u043e\u0431\u043b\u00e6\u0441\u0442","name:vi":"Odessa (t\u1ec9nh)","name:pl":"Obw\u00f3d odeski","id":-72634,"name:ca":"Prov\u00edncia d'Odessa","name:fa":"\u0627\u0633\u062a\u0627\u0646 \u0627\u0648\u062f\u0633\u0627","name:bg":"\u041e\u0434\u0435\u0441\u043a\u0430 \u043e\u0431\u043b\u0430\u0441\u0442","name:nn":"Odessa oblast","sort_rank":256,"kind_detail":"4","name:no":"Odessa oblast","name:de":"Oblast Odessa","source":"openstreetmap.org","name:fr":"Oblast d'Odessa","name:mk":"\u041e\u0434\u0435\u0441\u043a\u0430 \u043e\u0431\u043b\u0430\u0441\u0442","name:zh":"\u6556\u5fb7\u8428\u5dde","name:lv":"Odesas apgabals","name:ja":"\u30aa\u30c7\u30c3\u30b5\u5dde","name:lt":"Odesos sritis","name:sh":"Ode\u0161ka oblast","name:sv":"Odessa oblast","name:eo":"Odesa provinco","name:ur":"\u0627\u0648\u062f\u06cc\u0633\u0627 \u0627\u0648\u0628\u0644\u0627\u0633\u062a","name:sk":"Odesk\u00e1 oblas\u0165","name:hy":"\u0555\u0564\u0565\u057d\u0561\u0575\u056b \u0574\u0561\u0580\u0566","name:ru":"\u041e\u0434\u0435\u0441\u0441\u043a\u0430\u044f \u043e\u0431\u043b\u0430\u0441\u0442\u044c","name:be":"\u0410\u0434\u044d\u0441\u043a\u0430\u044f \u0432\u043e\u0431\u043b\u0430\u0441\u0446\u044c","name:hu":"Odesszai ter\u00fclet","name:hr":"Ode\u0161ka oblast","name:sr":"\u041e\u0434\u0435\u0448\u043a\u0430 \u043e\u0431\u043b\u0430\u0441\u0442","osm_relation":true,"kind":"region","name:en":"Odessa Oblast","name":"\u041e\u0434\u0435\u0441\u044c\u043a\u0430 \u043e\u0431\u043b\u0430\u0441\u0442\u044c","maritime_boundary":true,"name:fi":"Odessan alue","name:eu":"Odesako oblasta","name:et":"Odessa oblast","name:nl":"Oblast Odessa","name:es":"\u00d3blast de Odesa"},"arcs":[8]}]},"roads":{"type":"GeometryCollection","geometries":[{"type":"LineString","properties":{"kind":"major_road","name:ro":"Strada 9 Ianuarie","sort_rank":380,"kind_detail":"primary","source":"openstreetmap.org","min_zoom":8.0,"name:uk":"\u0432\u0443\u043b\u0438\u0446\u044f 9 \u0421\u0456\u0447\u043d\u044f","landuse_kind":"residential","id":415351865},"arcs":[236]},{"type":"LineString","properties":{"kind":"major_road","name:en":"Mira Street","sort_rank":380,"kind_detail":"primary","bus_shield_text":"3","bus_network":"\u0422\u0438\u0440\u0430\u0441\u043f\u043e\u043b\u044c","name:de":"uliza Mira","source":"openstreetmap.org","min_zoom":8.0,"name:ro":"Strada P\u0103cii","name:uk":"\u0432\u0443\u043b\u0438\u0446\u044f \u041c\u0438\u0440\u0443","old_name":"\u0421\u0443\u043a\u043b\u0435\u0439\u0441\u043a\u043e\u0435 \u0448\u043e\u0441\u0441\u0435","landuse_kind":"residential","id":25480905},"arcs":[237]},{"type":"LineString","properties":{"kind":"major_road","name:ro":"Strada Odessa","sort_rank":381,"kind_detail":"trunk","name:de":"Odesskaja uliza","source":"openstreetmap.org","min_zoom":8.0,"name:en":"Odesskaya Street","name:uk":"\u041e\u0434\u0435\u0441\u044c\u043a\u0430 \u0432\u0443\u043b\u0438\u0446\u044f","landuse_kind":"residential"},"arcs":[238]},{"type":"LineString","properties":{"kind":"major_road","name:en":"Tyraspols'ke highway","sort_rank":380,"kind_detail":"primary","source":"openstreetmap.org","min_zoom":8.0,"landuse_kind":"urban_area","name:ru":"\u0422\u0438\u0440\u0430\u0441\u043f\u043e\u043b\u044c\u0441\u043a\u043e\u0435 \u0448\u043e\u0441\u0441\u0435","id":139426494},"arcs":[239]},{"type":"LineString","properties":{"kind":"major_road","sort_rank":380,"landuse_kind":"residential","source":"openstreetmap.org","min_zoom":8.0,"kind_detail":"primary","ref":"R28","id":49524275},"arcs":[240]},{"type":"LineString","properties":{"kind":"major_road","name:en":"Kyshynivska Street","network":null,"sort_rank":380,"kind_detail":"primary","source":"openstreetmap.org","min_zoom":8.0,"shield_text":"72","name:ru":"\u041a\u0438\u0448\u0438\u043d\u0451\u0432\u0441\u043a\u0430\u044f \u0443\u043b\u0438\u0446\u0430","ref":"\u0420-72"},"arcs":[241]},{"type":"MultiLineString","properties":{"source":"openstreetmap.org","kind":"major_road","landuse_kind":"residential","sort_rank":380,"kind_detail":"primary","ref":"R27","min_zoom":8.0},"arcs":[[242],[243]]},{"type":"LineString","properties":{"bus_network":null,"name:en":"Liustdorfska Road","sort_rank":380,"kind_detail":"primary","is_bicycle_related":true,"kind":"major_road","source":"openstreetmap.org","min_zoom":8.0,"bus_shield_text":"127","name:ru":"\u041b\u044e\u0441\u0442\u0434\u043e\u0440\u0444\u0441\u043a\u0430\u044f \u0434\u043e\u0440\u043e\u0433\u0430","landuse_kind":"urban_area"},"arcs":[244]},{"type":"LineString","properties":{"kind":"major_road","network":"ua:international","sort_rank":381,"kind_detail":"trunk","bus_network":null,"source":"openstreetmap.org","min_zoom":8.0,"bus_shield_text":"78","shield_text":"05","name:ru":"\u0427\u0435\u0440\u043d\u043e\u043c\u043e\u0440\u0446\u0435\u0432 \u0443\u043b\u0438\u0446\u0430","landuse_kind":"urban_area","ref":"\u041c-05","id":486369113},"arcs":[245]},{"type":"LineString","properties":{"kind":"major_road","name:en":"Pryvokzalna Square","sort_rank":380,"kind_detail":"primary","bus_network":null,"source":"openstreetmap.org","min_zoom":8.0,"bus_shield_text":"7","name:ru":"\u041f\u0440\u0438\u0432\u043e\u043a\u0437\u0430\u043b\u044c\u043d\u0430\u044f \u043f\u043b\u043e\u0449\u0430\u0434\u044c","landuse_kind":"urban_area","id":163459556},"arcs":[246]},{"type":"MultiLineString","properties":{"source":"openstreetmap.org","kind":"major_road","sort_rank":381,"kind_detail":"trunk","ref":"M4;A279","min_zoom":8.0},"arcs":[[247],[248]]},{"type":"LineString","properties":{"kind":"major_road","name:en":"Kyshynivska Street","sort_rank":380,"kind_detail":"primary","source":"openstreetmap.org","min_zoom":8.0,"landuse_kind":"urban_area","name:ru":"\u041a\u0438\u0448\u0438\u043d\u0451\u0432\u0441\u043a\u0430\u044f \u0443\u043b\u0438\u0446\u0430","id":71554703},"arcs":[249]},{"type":"MultiLineString","properties":{"bus_network":null,"int_name":"Dnipropetrovs'ka Rd","sort_rank":380,"kind_detail":"primary","kind":"major_road","source":"openstreetmap.org","min_zoom":8.0,"name:en":"Dnipropetrovska Road","bus_shield_text":"120","name:ru":"\u0414\u043d\u0435\u043f\u0440\u043e\u043f\u0435\u0442\u0440\u043e\u0432\u0441\u043a\u0430\u044f \u0434\u043e\u0440\u043e\u0433\u0430","landuse_kind":"urban_area"},"arcs":[[250],[251],[252],[253]]},{"type":"LineString","properties":{"kind":"major_road","name:en":"Sovetskaya Street","sort_rank":380,"kind_detail":"primary","name:de":"Sowetskaja uliza","source":"openstreetmap.org","min_zoom":8.0,"name:ro":"Strada Sovietic\u0103","name:uk":"\u0420\u0430\u0434\u044f\u043d\u0441\u044c\u043a\u0430 \u0432\u0443\u043b\u0438\u0446\u044f","landuse_kind":"residential","ref":"R27","id":236189112},"arcs":[254]},{"type":"LineString","properties":{"kind":"major_road","name:en":"Miasoiedovska Street","sort_rank":380,"kind_detail":"primary","source":"openstreetmap.org","min_zoom":8.0,"landuse_kind":"urban_area","name:ru":"\u041c\u044f\u0441\u043e\u0435\u0434\u043e\u0432\u0441\u043a\u0430\u044f \u0443\u043b\u0438\u0446\u0430"},"arcs":[255]},{"type":"MultiLineString","properties":{"bus_network":null,"name:en":"Paustovskoho Street","sort_rank":380,"kind_detail":"primary","kind":"major_road","source":"openstreetmap.org","min_zoom":8.0,"bus_shield_text":"120","name:ru":"\u041f\u0430\u0443\u0441\u0442\u043e\u0432\u0441\u043a\u043e\u0433\u043e \u0443\u043b\u0438\u0446\u0430","landuse_kind":"urban_area"},"arcs":[[256],[257]]},{"type":"LineString","properties":{"kind":"major_road","name:ro":"\u015eoseaua Odessa","sort_rank":381,"kind_detail":"trunk","name:de":"Odesskoje schosse","source":"openstreetmap.org","min_zoom":8.0,"name:en":"Odessa Highway","name:uk":"\u041e\u0434\u0435\u0441\u044c\u043a\u0435 \u0448\u043e\u0441\u0435","landuse_kind":"residential"},"arcs":[258]},{"type":"LineString","properties":{"kind":"major_road","network":"e-road","sort_rank":381,"kind_detail":"trunk","source":"openstreetmap.org","min_zoom":8.0,"shield_text":"58","name:ru":"\u041e\u0434\u0435\u0441\u0441\u043a\u0430\u044f \u0443\u043b\u0438\u0446\u0430","ref":"\u041c-16","id":76000951},"arcs":[259]},{"type":"LineString","properties":{"source":"openstreetmap.org","kind":"major_road","name:ru":"\u041b\u0435\u043d\u0438\u043d\u0430 \u0443\u043b\u0438\u0446\u0430","sort_rank":380,"kind_detail":"primary","ref":"\u0420-71","min_zoom":8.0},"arcs":[260]},{"type":"LineString","properties":{"kind":"major_road","sort_rank":380,"kind_detail":"primary","source":"openstreetmap.org","min_zoom":8.0,"landuse_kind":"nature_reserve","name:ru":"\u0443\u043b\u0438\u0446\u0430 \u041c\u0438\u0445\u0430\u044f \u042d\u043c\u0438\u043d\u0435\u0441\u043a\u0443","ref":"R52","id":532427785},"arcs":[261]},{"type":"LineString","properties":{"kind":"major_road","name:en":"Akademika Zabolotnoho Street","network":"e-road","sort_rank":381,"kind_detail":"trunk","bus_network":null,"source":"openstreetmap.org","min_zoom":8.0,"bus_shield_text":"6","shield_text":"58","name:ru":"\u0410\u043a\u0430\u0434\u0435\u043c\u0438\u043a\u0430 \u0417\u0430\u0431\u043e\u043b\u043e\u0442\u043d\u043e\u0433\u043e \u0443\u043b\u0438\u0446\u0430","landuse_kind":"urban_area","ref":"\u041c-05","id":55894661},"arcs":[262]},{"type":"LineString","properties":{"kind":"major_road","name:en":"Mala Arnautska Street","sort_rank":380,"kind_detail":"primary","bus_network":null,"source":"openstreetmap.org","min_zoom":8.0,"bus_shield_text":"12","name:ru":"\u041c\u0430\u043b\u0430\u044f \u0410\u0440\u043d\u0430\u0443\u0442\u0441\u043a\u0430\u044f \u0443\u043b\u0438\u0446\u0430","landuse_kind":"urban_area","id":538864349},"arcs":[263]},{"type":"MultiLineString","properties":{"bus_network":null,"name:en":"Ovidiopolska Road","sort_rank":380,"kind_detail":"primary","kind":"major_road","source":"openstreetmap.org","min_zoom":8.0,"bus_shield_text":"78","name:ru":"\u041e\u0432\u0438\u0434\u0438\u043e\u043f\u043e\u043b\u044c\u0441\u043a\u0430\u044f \u0434\u043e\u0440\u043e\u0433\u0430","landuse_kind":"urban_area"},"arcs":[[264],[265],[266]]},{"type":"LineString","properties":{"kind":"major_road","name:en":"Ovidiopolska Road","network":"ua:national","sort_rank":380,"kind_detail":"primary","source":"openstreetmap.org","min_zoom":8.0,"landuse_kind":"urban_area","shield_text":"33","name:ru":"\u041e\u0432\u0438\u0434\u0438\u043e\u043f\u043e\u043b\u044c\u0441\u043a\u0430\u044f \u0434\u043e\u0440\u043e\u0433\u0430","ref":"\u041d-33","id":359826687},"arcs":[267]},{"type":"LineString","properties":{"kind":"major_road","sort_rank":380,"kind_detail":"primary","source":"openstreetmap.org","min_zoom":8.0,"landuse_kind":"urban_area","name:ru":"\u041f\u043e\u0431\u0435\u0434\u043d\u044b\u0439 \u043f\u0435\u0440\u0435\u0443\u043b\u043e\u043a","id":59543576},"arcs":[268]},{"type":"MultiLineString","properties":{"sort_rank":355,"landuse_kind":"urban_area","min_zoom":8.0,"kind":"ferry","source":"openstreetmap.org"},"arcs":[[269],[270],[271],[272],[273]]},{"type":"LineString","properties":{"kind":"major_road","name:en":"Akademika Hlushka Avenue","sort_rank":380,"kind_detail":"primary","bus_network":null,"source":"openstreetmap.org","min_zoom":8.0,"bus_shield_text":"12","name:ru":"\u0410\u043a\u0430\u0434\u0435\u043c\u0438\u043a\u0430 \u0413\u043b\u0443\u0448\u043a\u043e \u043f\u0440\u043e\u0441\u043f\u0435\u043a\u0442","landuse_kind":"urban_area","id":26544533},"arcs":[274]},{"type":"LineString","properties":{"bus_network":null,"name:ro":"Strada Karl Liebknecht","sort_rank":380,"kind_detail":"primary","bus_shield_text":"Chi\u0219in\u0103u-Tiraspol","kind":"major_road","name:de":"uliza Karla Libknechta","source":"openstreetmap.org","min_zoom":8.0,"name:en":"Karla Libknekhta Street","name:uk":"\u0432\u0443\u043b\u0438\u0446\u044f \u041a\u0430\u0440\u043b\u0430 \u041b\u0456\u0431\u043a\u043d\u0435\u0445\u0442\u0430","old_name":"\u0420\u0435\u043c\u0435\u0441\u043b\u0435\u043d\u043d\u0430\u044f \u0443\u043b\u0438\u0446\u0430","landuse_kind":"residential","ref":"R26"},"arcs":[275]},{"type":"MultiLineString","properties":{"bus_network":null,"network":"ua:international","sort_rank":381,"kind_detail":"trunk","kind":"major_road","source":"openstreetmap.org","min_zoom":8.0,"bus_shield_text":"6","shield_text":"05","landuse_kind":"urban_area","ref":"\u041c-05"},"arcs":[[276],[277]]},{"type":"LineString","properties":{"source":"openstreetmap.org","kind":"major_road","network":"e-road","sort_rank":381,"kind_detail":"trunk","min_zoom":8.0,"shield_text":"58"},"arcs":[278]},{"type":"LineString","properties":{"kind":"major_road","name:en":"Yevhena Kolisnychenka Street","network":"ua:national","sort_rank":380,"kind_detail":"primary","old_name:ru":"\u0414\u0437\u0435\u0440\u0436\u0438\u043d\u0441\u043a\u043e\u0433\u043e \u0443\u043b\u0438\u0446\u0430","source":"openstreetmap.org","min_zoom":8.0,"old_name":"\u0414\u0437\u0435\u0440\u0436\u0438\u043d\u0441\u044c\u043a\u043e\u0433\u043e \u0432\u0443\u043b\u0438\u0446\u044f","shield_text":"33","name:ru":"\u0415\u0432\u0433\u0435\u043d\u0438\u044f \u041a\u043e\u043b\u0438\u0441\u043d\u0438\u0447\u0435\u043d\u043a\u043e \u0443\u043b\u0438\u0446\u0430","landuse_kind":"residential","ref":"\u041d-33"},"arcs":[279]},{"type":"MultiLineString","properties":{"source":"openstreetmap.org","kind":"major_road","landuse_kind":"nature_reserve","sort_rank":380,"kind_detail":"primary","ref":"R30","min_zoom":8.0},"arcs":[[280],[281],[282],[283]]},{"type":"MultiLineString","properties":{"kind":"major_road","sort_rank":380,"kind_detail":"primary","source":"openstreetmap.org","min_zoom":8.0,"landuse_kind":"nature_reserve","name:ru":"\u0422\u0443\u0434\u043e\u0440\u0430-\u041f\u0430\u043b\u0430\u043d\u043a\u0430","ref":"R52"},"arcs":[[284],[285]]},{"type":"MultiLineString","properties":{"sort_rank":380,"kind_detail":"primary","min_zoom":8.0,"kind":"major_road","source":"openstreetmap.org"},"arcs":[[286],[287],[288],[289],[290],[291],[292]]},{"type":"LineString","properties":{"kind":"major_road","name:en":"Central Street","network":"ua:national","sort_rank":380,"kind_detail":"primary","source":"openstreetmap.org","min_zoom":8.0,"shield_text":"33","name:ru":"\u0426\u0435\u043d\u0442\u0440\u0430\u043b\u044c\u043d\u0430\u044f \u0443\u043b\u0438\u0446\u0430","ref":"\u041d-33"},"arcs":[293]},{"type":"LineString","properties":{"kind":"major_road","network":"ua:international","sort_rank":381,"kind_detail":"trunk","source":"openstreetmap.org","min_zoom":8.0,"landuse_kind":"urban_area","shield_text":"05","ref":"\u041c-05","id":485413937},"arcs":[294]},{"type":"LineString","properties":{"kind":"major_road","name:en":"Tsaryova Street","sort_rank":380,"kind_detail":"primary","name:de":"uliza Zarjowa","source":"openstreetmap.org","min_zoom":8.0,"name:ro":"Strada \u021aariov","name:uk":"\u0432\u0443\u043b\u0438\u0446\u044f \u0426\u0430\u0440\u044c\u043e\u0432\u0430","landuse_kind":"residential"},"arcs":[295]},{"type":"MultiLineString","properties":{"kind":"major_road","network":"ua:international","sort_rank":381,"kind_detail":"trunk","source":"openstreetmap.org","min_zoom":8.0,"shield_text":"28","ref":"\u041c-28"},"arcs":[[296],[297]]},{"type":"LineString","properties":{"kind":"major_road","name:en":"Stepova Street","sort_rank":380,"kind_detail":"primary","source":"openstreetmap.org","min_zoom":8.0,"landuse_kind":"urban_area","name:ru":"\u0421\u0442\u0435\u043f\u043d\u0430\u044f \u0443\u043b\u0438\u0446\u0430","id":143604549},"arcs":[298]},{"type":"MultiLineString","properties":{"kind":"major_road","name:ro":"Strada Lenin","sort_rank":380,"kind_detail":"primary","name:de":"uliza Lenina","source":"openstreetmap.org","min_zoom":8.0,"name:en":"Lenina Street","name:uk":"\u0432\u0443\u043b\u0438\u0446\u044f \u041b\u0435\u043d\u0456\u043d\u0430","landuse_kind":"residential","ref":"R27"},"arcs":[[299],[300],[301],[302]]},{"type":"LineString","properties":{"kind":"major_road","name:en":"Tolbukhina Square","sort_rank":380,"kind_detail":"primary","bus_network":null,"source":"openstreetmap.org","min_zoom":8.0,"bus_shield_text":"12","name:ru":"\u0422\u043e\u043b\u0431\u0443\u0445\u0438\u043d\u0430 \u043f\u043b\u043e\u0449\u0430\u0434\u044c","landuse_kind":"urban_area","id":520496760},"arcs":[303]},{"type":"LineString","properties":{"bus_network":null,"name:en":"Pivdenna road","sort_rank":380,"kind_detail":"primary","kind":"major_road","source":"openstreetmap.org","min_zoom":8.0,"int_name":"Dnipropetrovs'ka Rd","bus_shield_text":"120","name:ru":"\u042e\u0436\u043d\u0430\u044f \u0434\u043e\u0440\u043e\u0433\u0430","landuse_kind":"urban_area"},"arcs":[304]},{"type":"LineString","properties":{"kind":"major_road","name:en":"Mechnykova Street","sort_rank":380,"kind_detail":"primary","source":"openstreetmap.org","min_zoom":8.0,"landuse_kind":"urban_area","name:ru":"\u041c\u0435\u0447\u043d\u0438\u043a\u043e\u0432\u0430 \u0443\u043b\u0438\u0446\u0430","id":56735043},"arcs":[305]},{"type":"LineString","properties":{"kind":"major_road","name:en":"Ovidiopolska Road","network":"ua:national","sort_rank":380,"kind_detail":"primary","source":"openstreetmap.org","min_zoom":8.0,"shield_text":"33","name:ru":"\u041e\u0432\u0438\u0434\u0438\u043e\u043f\u043e\u043b\u044c\u0441\u043a\u0430\u044f \u0434\u043e\u0440\u043e\u0433\u0430","ref":"\u041d-33"},"arcs":[306]},{"type":"MultiLineString","properties":{"bus_network":null,"network":"ua:international","sort_rank":381,"kind_detail":"trunk","kind":"major_road","source":"openstreetmap.org","min_zoom":8.0,"bus_shield_text":"78","shield_text":"05","ref":"\u041c-05"},"arcs":[[307],[308],[309],[310]]},{"type":"LineString","properties":{"kind":"ferry","name":"Chornomorsk - Varna","sort_rank":355,"landuse_kind":"urban_area","source":"openstreetmap.org","min_zoom":8.0,"name:uk":"\u0427\u043e\u0440\u043d\u043e\u043c\u043e\u0440\u0441\u044c\u043a - \u0412\u0430\u0440\u043d\u0430","name:ru":"\u0427\u0435\u0440\u043d\u043e\u043c\u043e\u0440\u0441\u043a - \u0412\u0430\u0440\u043d\u0430","id":464181828},"arcs":[311]},{"type":"MultiLineString","properties":{"old_name:uk":"\u0411\u043e\u0440\u0438\u0441\u0430 \u0414\u0435\u0440\u0435\u0432\u2019\u044f\u043d\u043a\u0430 \u043f\u043b\u043e\u0449\u0430","bus_network":null,"sort_rank":380,"kind_detail":"primary","old_name:ru":"\u0411\u043e\u0440\u0438\u0441\u0430 \u0414\u0435\u0440\u0435\u0432\u044f\u043d\u043a\u043e \u043f\u043b\u043e\u0449\u0430\u0434\u044c","kind":"major_road","source":"openstreetmap.org","min_zoom":8.0,"old_name:en":"Derevianko Square","old_name":"\u0411\u043e\u0440\u0438\u0441\u0430 \u0414\u0435\u0440\u0435\u0432\u2019\u044f\u043d\u043a\u0430 \u043f\u043b\u043e\u0449\u0430","name:ru":"\u041d\u0435\u0437\u0430\u0432\u0438\u0441\u0438\u043c\u043e\u0441\u0442\u0438 \u043f\u043b\u043e\u0449\u0430\u0434\u044c","landuse_kind":"urban_area","bus_shield_text":"7"},"arcs":[[312],[313]]},{"type":"LineString","properties":{"bus_network":null,"name:en":"Melnytska Street","sort_rank":380,"kind_detail":"primary","kind":"major_road","source":"openstreetmap.org","min_zoom":8.0,"bus_shield_text":"12","name:ru":"\u041c\u0435\u043b\u044c\u043d\u0438\u0446\u043a\u0430\u044f \u0443\u043b\u0438\u0446\u0430","landuse_kind":"urban_area"},"arcs":[314]},{"type":"LineString","properties":{"kind":"major_road","name:en":"Ivanova Street","sort_rank":380,"kind_detail":"primary","source":"openstreetmap.org","min_zoom":8.0,"landuse_kind":"urban_area","name:ru":"\u0418\u0432\u0430\u043d\u043e\u0432\u0430 \u0443\u043b\u0438\u0446\u0430","ref":"\u0420-71","id":389204440},"arcs":[315]},{"type":"MultiLineString","properties":{"kind":"major_road","name:en":"Lenina Street","sort_rank":380,"kind_detail":"primary","name:de":"uliza Lenina","source":"openstreetmap.org","min_zoom":8.0,"name:ro":"Strada Lenin","name:uk":"\u0432\u0443\u043b\u0438\u0446\u044f \u041b\u0435\u043d\u0456\u043d\u0430","id":100402791},"arcs":[[316],[317]]},{"type":"MultiLineString","properties":{"old_name:uk":"\u041c\u0430\u0440\u0448\u0430\u043b\u0430 \u0416\u0443\u043a\u043e\u0432\u0430 \u043f\u0440\u043e\u0441\u043f\u0435\u043a\u0442","kind":"major_road","name:en":"Nebesnoi Sotni Avenue","sort_rank":380,"kind_detail":"primary","old_name:ru":"\u041c\u0430\u0440\u0448\u0430\u043b\u0430 \u0416\u0443\u043a\u043e\u0432\u0430 \u043f\u0440\u043e\u0441\u043f\u0435\u043a\u0442","source":"openstreetmap.org","min_zoom":8.0,"old_name:en":"Marshala Zhukova Avenue","old_name":"\u041c\u0430\u0440\u0448\u0430\u043b\u0430 \u0416\u0443\u043a\u043e\u0432\u0430 \u043f\u0440\u043e\u0441\u043f\u0435\u043a\u0442","name:ru":"\u041d\u0435\u0431\u0435\u0441\u043d\u043e\u0439 \u0421\u043e\u0442\u043d\u0438 \u043f\u0440\u043e\u0441\u043f\u0435\u043a\u0442","landuse_kind":"urban_area"},"arcs":[[318],[319]]},{"type":"MultiLineString","properties":{"bus_network":null,"int_name":"Dnipropetrovs'ka Rd","network":"ua:international","sort_rank":381,"kind_detail":"trunk","kind":"major_road","source":"openstreetmap.org","min_zoom":8.0,"name:en":"Dnipropetrovska Road","bus_shield_text":"120","shield_text":"05","name:ru":"\u0414\u043d\u0435\u043f\u0440\u043e\u043f\u0435\u0442\u0440\u043e\u0432\u0441\u043a\u0430\u044f \u0434\u043e\u0440\u043e\u0433\u0430","landuse_kind":"urban_area","ref":"\u041c-05"},"arcs":[[320],[321]]},{"type":"LineString","properties":{"source":"openstreetmap.org","kind":"major_road","sort_rank":380,"kind_detail":"primary","ref":"R27","min_zoom":8.0,"id":25300355},"arcs":[322]},{"type":"LineString","properties":{"kind":"ferry","name":"Chornomorsk - Batumi","name:ka":"\u10e9\u10d4\u10e0\u10dc\u10dd\u10db\u10dd\u10e0\u10e1\u10d9\u10d8 - \u10d1\u10d0\u10d7\u10e3\u10db\u10d8","sort_rank":355,"source":"openstreetmap.org","min_zoom":8.0,"name:uk":"\u0427\u043e\u0440\u043d\u043e\u043c\u043e\u0440\u0441\u044c\u043a - \u0411\u0430\u0442\u0443\u043c\u0456","name:ru":"\u0427\u0435\u0440\u043d\u043e\u043c\u043e\u0440\u0441\u043a - \u0411\u0430\u0442\u0443\u043c\u0438","ref":"\u0427\u043e\u0440\u043d\u043e\u043c\u043e\u0440\u0441\u044c\u043a - \u0411\u0430\u0442\u0443\u043c\u0456","osm_relation":true},"arcs":[323]},{"type":"LineString","properties":{"kind":"major_road","name:en":"Odeska Street","network":"ua:national","sort_rank":380,"kind_detail":"primary","source":"openstreetmap.org","min_zoom":8.0,"shield_text":"33","name:ru":"\u041e\u0434\u0435\u0441\u0441\u043a\u0430\u044f \u0443\u043b\u0438\u0446\u0430","ref":"\u041d-33","id":500417769},"arcs":[324]},{"type":"LineString","properties":{"kind":"major_road","sort_rank":380,"kind_detail":"primary","source":"openstreetmap.org","min_zoom":8.0,"landuse_kind":"urban_area","name:ru":"\u0410\u0440\u0442\u0435\u043b\u044c\u043d\u0430\u044f \u0443\u043b\u0438\u0446\u0430","id":59547345},"arcs":[325]},{"type":"LineString","properties":{"kind":"major_road","name:en":"Akademyka Hlushko Avenue","sort_rank":380,"kind_detail":"primary","bus_network":null,"source":"openstreetmap.org","min_zoom":8.0,"bus_shield_text":"12","name:ru":"\u0410\u043a\u0430\u0434\u0435\u043c\u0438\u043a\u0430 \u0413\u043b\u0443\u0448\u043a\u043e \u043f\u0440\u043e\u0441\u043f\u0435\u043a\u0442","landuse_kind":"urban_area","id":26544522},"arcs":[326]},{"type":"LineString","properties":{"kind":"ferry","name:en":"Chornomorsk - Poti","name":"\u0427\u043e\u0440\u043d\u043e\u043c\u043e\u0440\u0441\u044c\u043a - \u041f\u043e\u0442\u0456","sort_rank":355,"landuse_kind":"urban_area","source":"openstreetmap.org","min_zoom":8.0,"name:ru":"\u0427\u0435\u0440\u043d\u043e\u043c\u043e\u0440\u0441\u043a - \u041f\u043e\u0442\u0438","id":360191253},"arcs":[327]},{"type":"MultiLineString","properties":{"bus_network":null,"name:en":"Stovpova Street","sort_rank":380,"kind_detail":"primary","kind":"major_road","source":"openstreetmap.org","min_zoom":8.0,"bus_shield_text":"12","name:ru":"\u0421\u0442\u043e\u043b\u0431\u043e\u0432\u0430\u044f \u0443\u043b\u0438\u0446\u0430","landuse_kind":"urban_area"},"arcs":[[328],[329],[330],[331],[332]]},{"type":"LineString","properties":{"kind":"major_road","name:en":"Lenina Street","sort_rank":380,"kind_detail":"primary","name:de":"uliza Lenina","source":"openstreetmap.org","min_zoom":8.0,"name:ro":"Strada Lenin","name:uk":"\u0432\u0443\u043b\u0438\u0446\u044f \u041b\u0435\u043d\u0456\u043d\u0430","ref":"R27","id":51414862},"arcs":[333]},{"type":"LineString","properties":{"kind":"major_road","name:en":"Lenina Street","sort_rank":380,"kind_detail":"primary","name:de":"uliza Lenina","source":"openstreetmap.org","min_zoom":8.0,"name:ro":"Strada Lenin","name:uk":"\u0432\u0443\u043b\u0438\u0446\u044f \u041b\u0435\u043d\u0456\u043d\u0430","landuse_kind":"urban_area","id":100402791},"arcs":[334]},{"type":"LineString","properties":{"kind":"ferry","name:en":"Chornomorsk - Varna","name":"\u0427\u043e\u0440\u043d\u043e\u043c\u043e\u0440\u0441\u044c\u043a - \u0412\u0430\u0440\u043d\u0430","sort_rank":355,"source":"openstreetmap.org","min_zoom":8.0,"name:ru":"\u0427\u0435\u0440\u043d\u043e\u043c\u043e\u0440\u0441\u043a - \u0412\u0430\u0440\u043d\u0430","ref":"\u0427\u043e\u0440\u043d\u043e\u043c\u043e\u0440\u0441\u044c\u043a - \u0412\u0430\u0440\u043d\u0430","osm_relation":true},"arcs":[335]},{"type":"LineString","properties":{"source":"openstreetmap.org","kind":"major_road","landuse_kind":"residential","sort_rank":381,"kind_detail":"trunk","min_zoom":8.0,"id":28655605},"arcs":[336]},{"type":"LineString","properties":{"kind":"major_road","network":"ua:international","sort_rank":381,"kind_detail":"trunk","bus_network":null,"source":"openstreetmap.org","min_zoom":8.0,"bus_shield_text":"6","shield_text":"05","name:ru":"\u0410\u043d\u0433\u0430\u0440\u0441\u043a\u0430\u044f \u0443\u043b\u0438\u0446\u0430","landuse_kind":"urban_area","ref":"\u041c-05","id":331864655},"arcs":[337]},{"type":"LineString","properties":{"kind":"major_road","sort_rank":380,"landuse_kind":"urban_area","source":"openstreetmap.org","min_zoom":8.0,"kind_detail":"primary","ref":"R27","id":228211102},"arcs":[338]},{"type":"LineString","properties":{"kind":"major_road","network":"ua:international","sort_rank":381,"kind_detail":"trunk","source":"openstreetmap.org","min_zoom":8.0,"shield_text":"28","name:ru":"\u042e\u0436\u043d\u0430\u044f \u0434\u043e\u0440\u043e\u0433\u0430","ref":"\u041c-28","id":71750713},"arcs":[339]},{"type":"LineString","properties":{"bus_network":null,"name:en":"Liustdorfska Road","sort_rank":380,"kind_detail":"primary","kind":"major_road","source":"openstreetmap.org","min_zoom":8.0,"bus_shield_text":"149","name:ru":"\u041b\u044e\u0441\u0442\u0434\u043e\u0440\u0444\u0441\u043a\u0430\u044f \u0434\u043e\u0440\u043e\u0433\u0430","landuse_kind":"urban_area"},"arcs":[340]},{"type":"LineString","properties":{"kind":"major_road","name:en":"Ivanivskyi Bridge","sort_rank":380,"kind_detail":"primary","bus_network":null,"source":"openstreetmap.org","min_zoom":8.0,"bus_shield_text":"12","name:ru":"\u0418\u0432\u0430\u043d\u043e\u0432\u0441\u043a\u0438\u0439 \u043f\u0443\u0442\u0435\u043f\u0440\u043e\u0432\u043e\u0434","landuse_kind":"urban_area","id":28851606},"arcs":[341]},{"type":"MultiLineString","properties":{"bus_network":null,"name:en":"Vodoprovidna Street","sort_rank":380,"kind_detail":"primary","kind":"major_road","source":"openstreetmap.org","min_zoom":8.0,"bus_shield_text":"149","name:ru":"\u0412\u043e\u0434\u043e\u043f\u0440\u043e\u0432\u043e\u0434\u043d\u0430\u044f \u0443\u043b\u0438\u0446\u0430","landuse_kind":"urban_area"},"arcs":[[342],[343]]},{"type":"LineString","properties":{"kind":"major_road","network":"ua:national","sort_rank":380,"kind_detail":"primary","source":"openstreetmap.org","min_zoom":8.0,"shield_text":"33","name:ru":"\u0428\u0430\u0431\u0441\u043a\u0430\u044f \u0443\u043b\u0438\u0446\u0430","ref":"\u041d-33","id":359835349},"arcs":[344]},{"type":"MultiLineString","properties":{"kind":"major_road","name:en":"Dalnytska Street","sort_rank":380,"kind_detail":"primary","source":"openstreetmap.org","min_zoom":8.0,"landuse_kind":"urban_area","name:ru":"\u0414\u0430\u043b\u044c\u043d\u0438\u0446\u043a\u0430\u044f \u0443\u043b\u0438\u0446\u0430"},"arcs":[[345],[346],[347]]},{"type":"LineString","properties":{"kind":"major_road","sort_rank":380,"kind_detail":"primary","source":"openstreetmap.org","min_zoom":8.0,"landuse_kind":"urban_area","name:ru":"\u0410\u043a\u0430\u0434\u0435\u043c\u0438\u043a\u0430 \u0417\u0430\u0431\u043e\u043b\u043e\u0442\u043d\u043e\u0433\u043e \u0443\u043b\u0438\u0446\u0430","id":196870220},"arcs":[348]},{"type":"LineString","properties":{"kind":"major_road","name:en":"Shkilna Street","network":"ua:national","sort_rank":380,"kind_detail":"primary","source":"openstreetmap.org","min_zoom":8.0,"landuse_kind":"urban_area","shield_text":"33","name:ru":"\u0428\u043a\u043e\u043b\u044c\u043d\u0430\u044f \u0443\u043b\u0438\u0446\u0430","ref":"\u041d-33"},"arcs":[349]},{"type":"LineString","properties":{"bus_network":null,"name:en":"Bohdana Khmelnytskoho Street","sort_rank":380,"kind_detail":"primary","kind":"major_road","source":"openstreetmap.org","min_zoom":8.0,"bus_shield_text":"8","name:ru":"\u0411\u043e\u0433\u0434\u0430\u043d\u0430 \u0425\u043c\u0435\u043b\u044c\u043d\u0438\u0446\u043a\u043e\u0433\u043e \u0443\u043b\u0438\u0446\u0430","landuse_kind":"urban_area"},"arcs":[350]},{"type":"LineString","properties":{"kind":"major_road","name:en":"Lenina Street","sort_rank":380,"kind_detail":"primary","name:de":"uliza Lenina","source":"openstreetmap.org","min_zoom":8.0,"name:ro":"Strada Lenin","name:uk":"\u0432\u0443\u043b\u0438\u0446\u044f \u041b\u0435\u043d\u0456\u043d\u0430","landuse_kind":"residential","ref":"R28","id":49524276},"arcs":[351]},{"type":"MultiLineString","properties":{"bus_network":null,"network":"ua:international","sort_rank":381,"kind_detail":"trunk","kind":"major_road","source":"openstreetmap.org","min_zoom":8.0,"bus_shield_text":"78","shield_text":"05","landuse_kind":"urban_area","ref":"\u041c-05"},"arcs":[[352],[353]]},{"type":"LineString","properties":{"kind":"major_road","name:en":"Ovidiopolska Way","network":"ua:national","sort_rank":380,"kind_detail":"primary","source":"openstreetmap.org","min_zoom":8.0,"shield_text":"33","name:ru":"\u041e\u0432\u0438\u0434\u0438\u043e\u043f\u043e\u043b\u044c\u0441\u043a\u0430\u044f \u0434\u043e\u0440\u043e\u0433\u0430","ref":"\u041d-33"},"arcs":[354]},{"type":"LineString","properties":{"kind":"major_road","name:en":"Izmailska Street","network":"ua:national","sort_rank":380,"kind_detail":"primary","source":"openstreetmap.org","min_zoom":8.0,"shield_text":"33","name:ru":"\u0418\u0437\u043c\u0430\u0438\u043b\u044c\u0441\u043a\u0430\u044f \u0443\u043b\u0438\u0446\u0430","ref":"\u041d-33","id":157916293},"arcs":[355]},{"type":"LineString","properties":{"bus_network":null,"name:en":"Mykhaila Hrushevskoho Street","network":"e-road","sort_rank":380,"kind_detail":"primary","kind":"major_road","source":"openstreetmap.org","min_zoom":8.0,"bus_shield_text":"8","shield_text":"95","name:ru":"\u041c\u0438\u0445\u0430\u0438\u043b\u0430 \u0413\u0440\u0443\u0448\u0435\u0432\u0441\u043a\u043e\u0433\u043e \u0443\u043b\u0438\u0446\u0430","landuse_kind":"urban_area"},"arcs":[356]},{"type":"LineString","properties":{"kind":"major_road","sort_rank":380,"landuse_kind":"urban_area","source":"openstreetmap.org","min_zoom":8.0,"kind_detail":"primary","ref":"\u0420-71","id":495627672},"arcs":[357]},{"type":"LineString","properties":{"kind":"major_road","sort_rank":380,"kind_detail":"primary","source":"openstreetmap.org","min_zoom":8.0,"landuse_kind":"urban_area","name:ru":"\u0422\u0438\u0440\u0430\u0441\u043f\u043e\u043b\u044c\u0441\u043a\u043e\u0435 \u0448\u043e\u0441\u0441\u0435","id":139426497},"arcs":[358]},{"type":"LineString","properties":{"bus_network":null,"name:en":"Velyka Arnautska Street","sort_rank":380,"landuse_kind":"urban_area","kind":"major_road","source":"openstreetmap.org","min_zoom":8.0,"bus_shield_text":"8","name:ru":"\u0411\u043e\u043b\u044c\u0448\u0430\u044f \u0410\u0440\u043d\u0430\u0443\u0442\u0441\u043a\u0430\u044f \u0443\u043b\u0438\u0446\u0430","kind_detail":"primary"},"arcs":[359]},{"type":"MultiLineString","properties":{"kind":"major_road","network":"e-road","sort_rank":381,"landuse_kind":"urban_area","source":"openstreetmap.org","min_zoom":8.0,"kind_detail":"trunk","shield_text":"95","ref":"\u041c-05"},"arcs":[[360],[361],[362],[363],[364]]},{"type":"MultiLineString","properties":{"kind":"major_road","network":"ua:regional","sort_rank":380,"kind_detail":"primary","source":"openstreetmap.org","min_zoom":8.0,"shield_text":"33","ref":"\u0420-33"},"arcs":[[365],[366]]},{"type":"LineString","properties":{"kind":"major_road","network":"ua:national","sort_rank":380,"kind_detail":"primary","source":"openstreetmap.org","min_zoom":8.0,"landuse_kind":"residential","shield_text":"33","ref":"\u041d-33","id":4424807},"arcs":[367]},{"type":"LineString","properties":{"bus_network":null,"name:ro":"Chi\u0219in\u0103u-Tiraspol","sort_rank":380,"kind_detail":"primary","kind":"major_road","source":"openstreetmap.org","min_zoom":8.0,"name:uk":"\u041a\u0438\u0448\u0438\u043d\u0456\u0432-\u0422\u0438\u0440\u0430\u0441\u043f\u043e\u043b\u044c","bus_shield_text":"Chi\u0219in\u0103u-Tiraspol","landuse_kind":"urban_area","ref":"R26"},"arcs":[368]},{"type":"LineString","properties":{"bus_network":null,"name:en":"Chornomorskoho Kozatstva Street","sort_rank":380,"kind_detail":"primary","kind":"major_road","source":"openstreetmap.org","min_zoom":8.0,"bus_shield_text":"120","name:ru":"\u0427\u0435\u0440\u043d\u043e\u043c\u043e\u0440\u0441\u043a\u043e\u0433\u043e \u043a\u0430\u0437\u0430\u0447\u0435\u0441\u0442\u0432\u0430 \u0443\u043b\u0438\u0446\u0430","landuse_kind":"urban_area"},"arcs":[369]},{"type":"LineString","properties":{"kind":"major_road","name:en":"Gagarina Street","sort_rank":380,"kind_detail":"primary","name:de":"uliza Gagarina","source":"openstreetmap.org","min_zoom":8.0,"name:ro":"Strada Gagarin","name:uk":"\u0432\u0443\u043b\u0438\u0446\u044f \u0413\u0430\u0433\u0430\u0440\u0456\u043d\u0430","landuse_kind":"urban_area","ref":"R27","id":417554071},"arcs":[370]},{"type":"LineString","properties":{"bus_network":null,"name:en":"Ovidiopolska Road","sort_rank":380,"landuse_kind":"urban_area","kind":"major_road","source":"openstreetmap.org","min_zoom":8.0,"bus_shield_text":"14","name:ru":"\u041e\u0432\u0438\u0434\u0438\u043e\u043f\u043e\u043b\u044c\u0441\u043a\u0430\u044f \u0434\u043e\u0440\u043e\u0433\u0430","kind_detail":"primary"},"arcs":[371]},{"type":"LineString","properties":{"kind":"major_road","name:en":"Liustdorfska Road","sort_rank":380,"kind_detail":"primary","bus_network":null,"source":"openstreetmap.org","min_zoom":8.0,"bus_shield_text":"150","name:ru":"\u041b\u044e\u0441\u0442\u0434\u043e\u0440\u0444\u0441\u043a\u0430\u044f \u0434\u043e\u0440\u043e\u0433\u0430","landuse_kind":"urban_area","id":153870138},"arcs":[372]},{"type":"LineString","properties":{"kind":"major_road","name:ro":"Strada Odessa","sort_rank":380,"kind_detail":"primary","name:de":"Odesskaja uliza","source":"openstreetmap.org","min_zoom":8.0,"name:en":"Odesskaya Street","name:uk":"\u041e\u0434\u0435\u0441\u044c\u043a\u0430 \u0432\u0443\u043b\u0438\u0446\u044f","landuse_kind":"residential"},"arcs":[373]},{"type":"LineString","properties":{"kind":"major_road","name:en":"Tiraspolskaya Street","sort_rank":380,"kind_detail":"primary","name:de":"Tiraspolskaja uliza","source":"openstreetmap.org","min_zoom":8.0,"name:ro":"Strada Tiraspol","name:uk":"\u0422\u0438\u0440\u0430\u0441\u043f\u043e\u043b\u044c\u0441\u044c\u043a\u0430 \u0432\u0443\u043b\u0438\u0446\u044f","landuse_kind":"residential","ref":"R27","id":114681188},"arcs":[374]},{"type":"LineString","properties":{"kind":"major_road","sort_rank":381,"landuse_kind":"urban_area","source":"openstreetmap.org","min_zoom":8.0,"kind_detail":"trunk","ref":"M4;A279","id":231780939},"arcs":[375]},{"type":"LineString","properties":{"kind":"major_road","name:en":"Ovidiopolska Way","network":"ua:national","sort_rank":380,"kind_detail":"primary","source":"openstreetmap.org","min_zoom":8.0,"landuse_kind":"urban_area","shield_text":"33","name:ru":"\u041e\u0432\u0438\u0434\u0438\u043e\u043f\u043e\u043b\u044c\u0441\u043a\u0430\u044f \u0434\u043e\u0440\u043e\u0433\u0430","ref":"\u041d-33","id":114962929},"arcs":[376]},{"type":"LineString","properties":{"kind":"major_road","name:en":"Shevchenko Street","sort_rank":380,"kind_detail":"primary","source":"openstreetmap.org","min_zoom":8.0,"landuse_kind":"urban_area","name:ru":"\u0428\u0435\u0432\u0447\u0435\u043d\u043a\u043e \u0443\u043b\u0438\u0446\u0430","ref":"\u0420-71","id":389204442},"arcs":[377]},{"type":"LineString","properties":{"kind":"major_road","name:en":"Stepova Street","sort_rank":380,"kind_detail":"primary","bus_network":null,"source":"openstreetmap.org","min_zoom":8.0,"bus_shield_text":"12","name:ru":"\u0421\u0442\u0435\u043f\u043d\u0430\u044f \u0443\u043b\u0438\u0446\u0430","landuse_kind":"urban_area","id":55952505},"arcs":[378]},{"type":"LineString","properties":{"kind":"ferry","name":"\u0421hornomorsk - Poti","sort_rank":355,"source":"openstreetmap.org","min_zoom":8.0,"name:uk":"\u0427\u043e\u0440\u043d\u043e\u043c\u043e\u0440\u0441\u044c\u043a - \u041f\u043e\u0442\u0456","name:ru":"\u0427\u0435\u0440\u043d\u043e\u043c\u043e\u0440\u0441\u043a - \u041f\u043e\u0442\u0438","osm_relation":true},"arcs":[379]},{"type":"LineString","properties":{"kind":"major_road","name:en":"Tolbukhina Square","sort_rank":380,"kind_detail":"primary","source":"openstreetmap.org","min_zoom":8.0,"landuse_kind":"urban_area","name:ru":"\u0422\u043e\u043b\u0431\u0443\u0445\u0438\u043d\u0430 \u043f\u043b\u043e\u0449\u0430\u0434\u044c","id":520496759},"arcs":[380]},{"type":"MultiLineString","properties":{"kind":"major_road","network":"ua:international","sort_rank":381,"landuse_kind":"urban_area","source":"openstreetmap.org","min_zoom":8.0,"kind_detail":"trunk","shield_text":"28","ref":"\u041c-28"},"arcs":[[381],[382]]},{"type":"LineString","properties":{"bus_network":null,"name:en":"Krasnova Street","sort_rank":380,"kind_detail":"primary","kind":"major_road","source":"openstreetmap.org","min_zoom":8.0,"bus_shield_text":"148","name:ru":"\u041a\u0440\u0430\u0441\u043d\u043e\u0432\u0430 \u0443\u043b\u0438\u0446\u0430","landuse_kind":"urban_area"},"arcs":[383]},{"type":"MultiLineString","properties":{"source":"openstreetmap.org","kind":"major_road","landuse_kind":"residential","sort_rank":381,"kind_detail":"trunk","ref":"M4;A279","min_zoom":8.0},"arcs":[[384],[385]]},{"type":"MultiLineString","properties":{"bus_network":null,"name:en":"Tolbukhina Square","sort_rank":380,"kind_detail":"primary","kind":"major_road","source":"openstreetmap.org","min_zoom":8.0,"bus_shield_text":"7","name:ru":"\u0422\u043e\u043b\u0431\u0443\u0445\u0438\u043d\u0430 \u043f\u043b\u043e\u0449\u0430\u0434\u044c","landuse_kind":"urban_area"},"arcs":[[386],[387]]},{"type":"MultiLineString","properties":{"bus_network":null,"network":"e-road","sort_rank":381,"kind_detail":"trunk","kind":"major_road","source":"openstreetmap.org","min_zoom":8.0,"bus_shield_text":"6","shield_text":"58","landuse_kind":"urban_area","ref":"\u041c-05"},"arcs":[[388],[389],[390],[391],[392],[393],[394],[395],[396],[397],[398],[399],[400]]},{"type":"MultiLineString","properties":{"bus_network":null,"name:en":"Ovidiopolska Way","sort_rank":380,"kind_detail":"primary","kind":"major_road","source":"openstreetmap.org","min_zoom":8.0,"bus_shield_text":"6","name:ru":"\u041e\u0432\u0438\u0434\u0438\u043e\u043f\u043e\u043b\u044c\u0441\u043a\u0430\u044f \u0434\u043e\u0440\u043e\u0433\u0430","landuse_kind":"urban_area"},"arcs":[[401],[402]]},{"type":"LineString","properties":{"kind":"major_road","name:en":"Izmailska Street","network":"ua:national","sort_rank":380,"kind_detail":"primary","source":"openstreetmap.org","min_zoom":8.0,"landuse_kind":"urban_area","shield_text":"33","name:ru":"\u0418\u0437\u043c\u0430\u0438\u043b\u044c\u0441\u043a\u0430\u044f \u0443\u043b\u0438\u0446\u0430","ref":"\u041d-33"},"arcs":[403]},{"type":"LineString","properties":{"kind":"major_road","name:en":"Lenina Street","network":"ua:national","sort_rank":380,"kind_detail":"primary","source":"openstreetmap.org","min_zoom":8.0,"shield_text":"33","name:ru":"\u041b\u0435\u043d\u0438\u043d\u0430 \u0443\u043b\u0438\u0446\u0430","ref":"\u041d-33","id":109362332},"arcs":[404]},{"type":"MultiLineString","properties":{"bus_network":null,"name:en":"Italiiskyi Boulevard","sort_rank":380,"kind_detail":"primary","kind":"major_road","source":"openstreetmap.org","min_zoom":8.0,"bus_shield_text":"7","name:ru":"\u0418\u0442\u0430\u043b\u044c\u044f\u043d\u0441\u043a\u0438\u0439 \u0431\u0443\u043b\u044c\u0432\u0430\u0440","landuse_kind":"urban_area"},"arcs":[[405],[406]]},{"type":"LineString","properties":{"kind":"major_road","name:en":"Mira Street","sort_rank":380,"kind_detail":"primary","bus_shield_text":"2","bus_network":"\u0422\u0438\u0440\u0430\u0441\u043f\u043e\u043b\u044c","name:de":"uliza Mira","source":"openstreetmap.org","min_zoom":8.0,"name:ro":"Strada P\u0103cii","name:uk":"\u0432\u0443\u043b\u0438\u0446\u044f \u041c\u0438\u0440\u0443","old_name":"\u0421\u0443\u043a\u043b\u0435\u0439\u0441\u043a\u043e\u0435 \u0448\u043e\u0441\u0441\u0435","landuse_kind":"residential","id":133320724},"arcs":[407]},{"type":"LineString","properties":{"kind":"major_road","name:en":"Liustdorfska Road","sort_rank":380,"kind_detail":"primary","bus_network":null,"source":"openstreetmap.org","min_zoom":8.0,"bus_shield_text":"148","name:ru":"\u041b\u044e\u0441\u0442\u0434\u043e\u0440\u0444\u0441\u043a\u0430\u044f \u0434\u043e\u0440\u043e\u0433\u0430","landuse_kind":"urban_area","id":538614474},"arcs":[408]},{"type":"LineString","properties":{"old_name:uk":"\u0411\u043e\u0440\u0438\u0441\u0430 \u0414\u0435\u0440\u0435\u0432\u2019\u044f\u043d\u043a\u0430 \u043f\u043b\u043e\u0449\u0430","kind":"major_road","name:en":"Nezalezhnosti Square","sort_rank":380,"kind_detail":"primary","old_name:ru":"\u0411\u043e\u0440\u0438\u0441\u0430 \u0414\u0435\u0440\u0435\u0432\u044f\u043d\u043a\u043e \u043f\u043b\u043e\u0449\u0430\u0434\u044c","bus_network":null,"source":"openstreetmap.org","min_zoom":8.0,"old_name:en":"Derevianko Square","old_name":"\u0411\u043e\u0440\u0438\u0441\u0430 \u0414\u0435\u0440\u0435\u0432\u2019\u044f\u043d\u043a\u0430 \u043f\u043b\u043e\u0449\u0430","name:ru":"\u041d\u0435\u0437\u0430\u0432\u0438\u0441\u0438\u043c\u043e\u0441\u0442\u0438 \u043f\u043b\u043e\u0449\u0430\u0434\u044c","landuse_kind":"urban_area","bus_shield_text":"7","id":26544523},"arcs":[409]},{"type":"LineString","properties":{"kind":"major_road","name:ro":"Strada Gagarin","sort_rank":380,"kind_detail":"primary","name:de":"uliza Gagarina","source":"openstreetmap.org","min_zoom":8.0,"name:en":"Gagarina Street","name:uk":"\u0432\u0443\u043b\u0438\u0446\u044f \u0413\u0430\u0433\u0430\u0440\u0456\u043d\u0430","landuse_kind":"residential","ref":"R27"},"arcs":[410]},{"type":"MultiLineString","properties":{"kind":"major_road","network":"ua:national","sort_rank":380,"kind_detail":"primary","source":"openstreetmap.org","min_zoom":8.0,"landuse_kind":"urban_area","shield_text":"33","ref":"\u041d-33"},"arcs":[[411],[412]]},{"type":"MultiLineString","properties":{"source":"openstreetmap.org","kind":"major_road","sort_rank":380,"kind_detail":"primary","ref":"R30","min_zoom":8.0},"arcs":[[413],[414],[415],[416],[417],[418]]},{"type":"LineString","properties":{"kind":"major_road","sort_rank":380,"kind_detail":"primary","source":"openstreetmap.org","min_zoom":8.0,"name:ru":"\u0422\u0443\u0434\u043e\u0440\u0430-\u041f\u0430\u043b\u0430\u043d\u043a\u0430","ref":"R52","id":155861803},"arcs":[419]},{"type":"LineString","properties":{"kind":"major_road","name:ro":"Strada Gagarin","sort_rank":380,"kind_detail":"primary","name:de":"uliza Gagarina","source":"openstreetmap.org","min_zoom":8.0,"name:en":"Gagarina Street","name:uk":"\u0432\u0443\u043b\u0438\u0446\u044f \u0413\u0430\u0433\u0430\u0440\u0456\u043d\u0430","landuse_kind":"residential"},"arcs":[420]},{"type":"MultiLineString","properties":{"kind":"major_road","network":"e-road","sort_rank":381,"kind_detail":"trunk","source":"openstreetmap.org","min_zoom":8.0,"shield_text":"87","ref":"\u041c-15"},"arcs":[[421],[422],[423],[424],[425],[426],[427]]},{"type":"LineString","properties":{"kind":"major_road","name:en":"Vodoprovidna Street","sort_rank":380,"kind_detail":"primary","bus_network":null,"source":"openstreetmap.org","min_zoom":8.0,"bus_shield_text":"78","name:ru":"\u0412\u043e\u0434\u043e\u043f\u0440\u043e\u0432\u043e\u0434\u043d\u0430\u044f \u0443\u043b\u0438\u0446\u0430","landuse_kind":"urban_area","id":540026555},"arcs":[428]},{"type":"MultiLineString","properties":{"source":"openstreetmap.org","kind":"major_road","sort_rank":380,"kind_detail":"primary","ref":"\u0420-71","min_zoom":8.0},"arcs":[[429],[430]]},{"type":"LineString","properties":{"bus_network":null,"name:en":"Pryvokzal'na Square","sort_rank":380,"kind_detail":"primary","kind":"major_road","source":"openstreetmap.org","min_zoom":8.0,"bus_shield_text":"7","name:ru":"\u041f\u0440\u0438\u0432\u043e\u043a\u0437\u0430\u043b\u044c\u043d\u0430\u044f \u043f\u043b\u043e\u0449\u0430\u0434\u044c","landuse_kind":"urban_area"},"arcs":[431]},{"type":"MultiLineString","properties":{"kind":"major_road","name:en":"Vysokyi Lane","sort_rank":380,"kind_detail":"primary","source":"openstreetmap.org","min_zoom":8.0,"landuse_kind":"urban_area","name:ru":"\u0412\u044b\u0441\u043e\u043a\u0438\u0439 \u043f\u0435\u0440\u0435\u0443\u043b\u043e\u043a"},"arcs":[[432],[433],[434],[435],[436]]},{"type":"LineString","properties":{"kind":"major_road","sort_rank":380,"kind_detail":"primary","bus_network":null,"source":"openstreetmap.org","min_zoom":8.0,"bus_shield_text":"150","landuse_kind":"urban_area","id":521551235},"arcs":[437]},{"type":"LineString","properties":{"kind":"ferry","name":"\u0421hornomorsk - Poti","sort_rank":355,"landuse_kind":"urban_area","source":"openstreetmap.org","min_zoom":8.0,"name:uk":"\u0427\u043e\u0440\u043d\u043e\u043c\u043e\u0440\u0441\u044c\u043a - \u041f\u043e\u0442\u0456","name:ru":"\u0427\u0435\u0440\u043d\u043e\u043c\u043e\u0440\u0441\u043a - \u041f\u043e\u0442\u0438","id":-2532119,"osm_relation":true},"arcs":[438]},{"type":"MultiLineString","properties":{"kind":"major_road","network":"e-road","sort_rank":381,"kind_detail":"trunk","source":"openstreetmap.org","min_zoom":8.0,"shield_text":"95","ref":"\u041c-05"},"arcs":[[439],[440],[441],[442],[443],[444]]},{"type":"LineString","properties":{"kind":"major_road","network":"ua:national","sort_rank":380,"kind_detail":"primary","source":"openstreetmap.org","min_zoom":8.0,"shield_text":"33","name:ru":"\u0416\u0435\u043b\u0435\u0437\u043d\u043e\u0434\u043e\u0440\u043e\u0436\u043d\u0430\u044f \u0443\u043b\u0438\u0446\u0430","ref":"\u041d-33"},"arcs":[445]},{"type":"LineString","properties":{"kind":"major_road","name:en":"Mira Street","sort_rank":380,"kind_detail":"primary","name:de":"uliza Mira","source":"openstreetmap.org","min_zoom":8.0,"name:ro":"Strada P\u0103cii","name:uk":"\u0432\u0443\u043b\u0438\u0446\u044f \u041c\u0438\u0440\u0443","landuse_kind":"residential","id":133195485},"arcs":[446]},{"type":"MultiLineString","properties":{"kind":"major_road","network":null,"sort_rank":380,"kind_detail":"primary","source":"openstreetmap.org","min_zoom":8.0,"shield_text":"72","ref":"\u0420-72"},"arcs":[[447],[448],[449],[450],[451],[452],[453],[454]]},{"type":"LineString","properties":{"kind":"major_road","name:en":"Sovetskaya Street","sort_rank":380,"kind_detail":"primary","name:de":"Sowetskaja uliza","source":"openstreetmap.org","min_zoom":8.0,"name:ro":"Strada Sovietic\u0103","name:uk":"\u0420\u0430\u0434\u044f\u043d\u0441\u044c\u043a\u0430 \u0432\u0443\u043b\u0438\u0446\u044f","ref":"R27"},"arcs":[455]},{"type":"MultiLineString","properties":{"kind":"major_road","network":"e-road","sort_rank":381,"kind_detail":"trunk","source":"openstreetmap.org","min_zoom":8.0,"landuse_kind":"residential","shield_text":"87","ref":"\u041c-15"},"arcs":[[456],[457]]},{"type":"MultiLineString","properties":{"bus_network":null,"name:en":"Liustdorfska Road","sort_rank":380,"kind_detail":"primary","kind":"major_road","source":"openstreetmap.org","min_zoom":8.0,"bus_shield_text":"7","name:ru":"\u041b\u044e\u0441\u0442\u0434\u043e\u0440\u0444\u0441\u043a\u0430\u044f \u0434\u043e\u0440\u043e\u0433\u0430","landuse_kind":"urban_area"},"arcs":[[458],[459],[460],[461]]},{"type":"LineString","properties":{"kind":"major_road","name:en":"Peremohy Street","network":"ua:international","sort_rank":381,"kind_detail":"trunk","source":"openstreetmap.org","min_zoom":8.0,"landuse_kind":"urban_area","shield_text":"27","name:ru":"\u041f\u043e\u0431\u0435\u0434\u044b \u0443\u043b\u0438\u0446\u0430","ref":"\u041c-27","id":28126278},"arcs":[462]},{"type":"LineString","properties":{"kind":"major_road","name:ro":"Strada 40 de ani \u00een Octombrie","sort_rank":380,"kind_detail":"primary","name:de":"uliza 40 let Oktjabrja","source":"openstreetmap.org","min_zoom":8.0,"name:en":"40 let Oktyabrya Street","name:uk":"\u0432\u0443\u043b\u0438\u0446\u044f 40 \u0440\u043e\u043a\u0456\u0432 \u0416\u043e\u0432\u0442\u043d\u044f","landuse_kind":"residential","ref":"R27"},"arcs":[463]},{"type":"MultiLineString","properties":{"old_name:uk":"\u041c\u0430\u0440\u0448\u0430\u043b\u0430 \u0416\u0443\u043a\u043e\u0432\u0430 \u043f\u0440\u043e\u0441\u043f\u0435\u043a\u0442","bus_network":null,"name:en":"Nebesnoi Sotni Avenue","sort_rank":380,"kind_detail":"primary","old_name:ru":"\u041c\u0430\u0440\u0448\u0430\u043b\u0430 \u0416\u0443\u043a\u043e\u0432\u0430 \u043f\u0440\u043e\u0441\u043f\u0435\u043a\u0442","kind":"major_road","source":"openstreetmap.org","min_zoom":8.0,"old_name:en":"Marshala Zhukova Avenue","old_name":"\u041c\u0430\u0440\u0448\u0430\u043b\u0430 \u0416\u0443\u043a\u043e\u0432\u0430 \u043f\u0440\u043e\u0441\u043f\u0435\u043a\u0442","name:ru":"\u041d\u0435\u0431\u0435\u0441\u043d\u043e\u0439 \u0421\u043e\u0442\u043d\u0438 \u043f\u0440\u043e\u0441\u043f\u0435\u043a\u0442","landuse_kind":"urban_area","bus_shield_text":"12"},"arcs":[[464],[465]]},{"type":"LineString","properties":{"kind":"major_road","name:en":"Pryvokzal'na Square","sort_rank":380,"kind_detail":"primary","bus_network":null,"source":"openstreetmap.org","min_zoom":8.0,"bus_shield_text":"8","name:ru":"\u041f\u0440\u0438\u0432\u043e\u043a\u0437\u0430\u043b\u044c\u043d\u0430\u044f \u043f\u043b\u043e\u0449\u0430\u0434\u044c","landuse_kind":"urban_area","id":431429833},"arcs":[466]},{"type":"LineString","properties":{"source":"openstreetmap.org","kind":"ferry","name":"Chornomorsk - Varna","name:uk":"\u0427\u043e\u0440\u043d\u043e\u043c\u043e\u0440\u0441\u044c\u043a - \u0412\u0430\u0440\u043d\u0430","sort_rank":355,"name:ru":"\u0427\u0435\u0440\u043d\u043e\u043c\u043e\u0440\u0441\u043a - \u0412\u0430\u0440\u043d\u0430","min_zoom":8.0},"arcs":[467]},{"type":"LineString","properties":{"source":"openstreetmap.org","kind":"major_road","landuse_kind":"nature_reserve","sort_rank":380,"kind_detail":"primary","ref":"R28","min_zoom":8.0},"arcs":[468]},{"type":"LineString","properties":{"kind":"major_road","network":"ua:national","sort_rank":380,"kind_detail":"primary","old_name:ru":"\u0414\u0437\u0435\u0440\u0436\u0438\u043d\u0441\u043a\u043e\u0433\u043e \u0443\u043b\u0438\u0446\u0430","source":"openstreetmap.org","min_zoom":8.0,"old_name":"\u0414\u0437\u0435\u0440\u0436\u0438\u043d\u0441\u044c\u043a\u043e\u0433\u043e \u0432\u0443\u043b\u0438\u0446\u044f","shield_text":"33","name:ru":"\u0415\u0432\u0433\u0435\u043d\u0438\u044f \u041a\u043e\u043b\u0438\u0441\u043d\u0438\u0447\u0435\u043d\u043a\u043e \u0443\u043b\u0438\u0446\u0430","landuse_kind":"residential","ref":"\u041d-33"},"arcs":[469]},{"type":"MultiLineString","properties":{"bus_network":null,"network":"ua:international","sort_rank":381,"kind_detail":"trunk","kind":"major_road","source":"openstreetmap.org","min_zoom":8.0,"bus_shield_text":"6","shield_text":"05","name:ru":"\u0410\u043d\u0433\u0430\u0440\u0441\u043a\u0430\u044f \u0443\u043b\u0438\u0446\u0430","ref":"\u041c-05"},"arcs":[[470],[471]]},{"type":"MultiLineString","properties":{"kind":"major_road","network":"ua:international","sort_rank":381,"kind_detail":"trunk","source":"openstreetmap.org","min_zoom":8.0,"shield_text":"05","ref":"\u041c-05"},"arcs":[[472],[473],[474]]},{"type":"LineString","properties":{"kind":"major_road","network":"ua:international","sort_rank":381,"kind_detail":"trunk","source":"openstreetmap.org","min_zoom":8.0,"landuse_kind":"urban_area","shield_text":"28","name:ru":"\u042e\u0436\u043d\u0430\u044f \u0434\u043e\u0440\u043e\u0433\u0430","ref":"\u041c-28","id":71750713},"arcs":[475]},{"type":"LineString","properties":{"kind":"major_road","network":"ua:national","sort_rank":380,"kind_detail":"primary","old_name:ru":"\u0414\u0437\u0435\u0440\u0436\u0438\u043d\u0441\u043a\u043e\u0433\u043e \u0443\u043b\u0438\u0446\u0430","source":"openstreetmap.org","min_zoom":8.0,"old_name":"\u0414\u0437\u0435\u0440\u0436\u0438\u043d\u0441\u044c\u043a\u043e\u0433\u043e \u0432\u0443\u043b\u0438\u0446\u044f","shield_text":"33","name:ru":"\u0415\u0432\u0433\u0435\u043d\u0438\u044f \u041a\u043e\u043b\u0438\u0441\u043d\u0438\u0447\u0435\u043d\u043a\u043e \u0443\u043b\u0438\u0446\u0430","ref":"\u041d-33"},"arcs":[476]},{"type":"MultiLineString","properties":{"bus_network":null,"name:en":"Serednofontanska Street","sort_rank":380,"kind_detail":"primary","kind":"major_road","source":"openstreetmap.org","min_zoom":8.0,"bus_shield_text":"148","name:ru":"\u0421\u0440\u0435\u0434\u043d\u0435\u0444\u043e\u043d\u0442\u0430\u043d\u0441\u043a\u0430\u044f \u0443\u043b\u0438\u0446\u0430","landuse_kind":"urban_area"},"arcs":[[477],[478],[479]]},{"type":"MultiLineString","properties":{"kind":"major_road","network":"e-road","sort_rank":381,"landuse_kind":"urban_area","source":"openstreetmap.org","min_zoom":8.0,"kind_detail":"trunk","shield_text":"58","ref":"\u041c-14"},"arcs":[[480],[481],[482],[483],[484]]},{"type":"LineString","properties":{"kind":"major_road","name:en":"Levitana Street","sort_rank":380,"kind_detail":"primary","source":"openstreetmap.org","min_zoom":8.0,"landuse_kind":"urban_area","name:ru":"\u041b\u0435\u0432\u0438\u0442\u0430\u043d\u0430 \u0443\u043b\u0438\u0446\u0430","id":28803107},"arcs":[485]},{"type":"MultiLineString","properties":{"sort_rank":381,"source":"openstreetmap.org","min_zoom":8.0,"kind":"major_road","kind_detail":"trunk"},"arcs":[[486],[487]]},{"type":"MultiLineString","properties":{"bus_network":null,"name:en":"Ovidiopolska Way","sort_rank":380,"landuse_kind":"urban_area","kind":"major_road","source":"openstreetmap.org","min_zoom":8.0,"bus_shield_text":"78","name:ru":"\u041e\u0432\u0438\u0434\u0438\u043e\u043f\u043e\u043b\u044c\u0441\u043a\u0430\u044f \u0434\u043e\u0440\u043e\u0433\u0430","kind_detail":"primary"},"arcs":[[488],[489]]},{"type":"LineString","properties":{"bus_network":null,"name:en":"Mel'nyts'ka Street","sort_rank":380,"kind_detail":"primary","kind":"major_road","source":"openstreetmap.org","min_zoom":8.0,"bus_shield_text":"12","name:ru":"\u041c\u0435\u043b\u044c\u043d\u0438\u0446\u043a\u0430\u044f \u0443\u043b\u0438\u0446\u0430","landuse_kind":"urban_area"},"arcs":[490]},{"type":"MultiLineString","properties":{"sort_rank":355,"source":"openstreetmap.org","min_zoom":8.0,"kind":"ferry"},"arcs":[[491],[492]]},{"type":"LineString","properties":{"kind":"major_road","network":"e-road","sort_rank":381,"kind_detail":"trunk","source":"openstreetmap.org","min_zoom":8.0,"landuse_kind":"urban_area","shield_text":"58","name:ru":"\u041e\u0434\u0435\u0441\u0441\u043a\u0430\u044f \u0443\u043b\u0438\u0446\u0430","ref":"\u041c-16","id":76000951},"arcs":[493]},{"type":"MultiLineString","properties":{"kind":"major_road","network":"ua:international","sort_rank":381,"landuse_kind":"urban_area","source":"openstreetmap.org","min_zoom":8.0,"kind_detail":"trunk","shield_text":"27","ref":"\u041c-27"},"arcs":[[494],[495],[496],[497]]},{"type":"MultiLineString","properties":{"kind":"major_road","name:ro":"Strada Lenin","sort_rank":380,"kind_detail":"primary","name:de":"uliza Lenina","source":"openstreetmap.org","min_zoom":8.0,"name:en":"Lenina Street","name:uk":"\u0432\u0443\u043b\u0438\u0446\u044f \u041b\u0435\u043d\u0456\u043d\u0430","landuse_kind":"urban_area","ref":"R27"},"arcs":[[498],[499]]},{"type":"LineString","properties":{"kind":"major_road","network":"e-road","sort_rank":381,"kind_detail":"trunk","bus_network":null,"source":"openstreetmap.org","min_zoom":8.0,"bus_shield_text":"6","shield_text":"58","ref":"\u041c-05","id":485392539},"arcs":[500]},{"type":"LineString","properties":{"bus_network":"\u0422\u0438\u0440\u0430\u0441\u043f\u043e\u043b\u044c","name:ro":"Strada Odessa","sort_rank":380,"kind_detail":"primary","kind":"major_road","name:de":"Odesskaja uliza","source":"openstreetmap.org","min_zoom":8.0,"name:en":"Odesskaya Street","name:uk":"\u041e\u0434\u0435\u0441\u044c\u043a\u0430 \u0432\u0443\u043b\u0438\u0446\u044f","bus_shield_text":"2","landuse_kind":"residential"},"arcs":[501]},{"type":"LineString","properties":{"kind":"major_road","name:en":"Mykhaila Hrushevskoho Street","network":"e-road","sort_rank":380,"kind_detail":"primary","source":"openstreetmap.org","min_zoom":8.0,"landuse_kind":"urban_area","shield_text":"95","name:ru":"\u041c\u0438\u0445\u0430\u0438\u043b\u0430 \u0413\u0440\u0443\u0448\u0435\u0432\u0441\u043a\u043e\u0433\u043e \u0443\u043b\u0438\u0446\u0430","id":539006424},"arcs":[502]},{"type":"LineString","properties":{"kind":"major_road","sort_rank":380,"kind_detail":"primary","bus_network":null,"source":"openstreetmap.org","min_zoom":8.0,"bus_shield_text":"149","name:ru":"\u0421\u0442\u0430\u0440\u043e\u0441\u0435\u043d\u043d\u0430\u044f \u043f\u043b\u043e\u0449\u0430\u0434\u044c","landuse_kind":"urban_area","id":8256178},"arcs":[503]},{"type":"LineString","properties":{"bus_network":null,"name:en":"Serednofontanska Street","sort_rank":380,"kind_detail":"primary","kind":"major_road","source":"openstreetmap.org","min_zoom":8.0,"bus_shield_text":"7","name:ru":"\u0421\u0440\u0435\u0434\u043d\u0435\u0444\u043e\u043d\u0442\u0430\u043d\u0441\u043a\u0430\u044f \u0443\u043b\u0438\u0446\u0430","landuse_kind":"urban_area"},"arcs":[504]},{"type":"LineString","properties":{"old_name:uk":"\u0411\u043e\u0440\u0438\u0441\u0430 \u0414\u0435\u0440\u0435\u0432\u2019\u044f\u043d\u043a\u0430 \u043f\u043b\u043e\u0449\u0430","kind":"major_road","sort_rank":380,"kind_detail":"primary","old_name:ru":"\u0411\u043e\u0440\u0438\u0441\u0430 \u0414\u0435\u0440\u0435\u0432\u044f\u043d\u043a\u043e \u043f\u043b\u043e\u0449\u0430\u0434\u044c","bus_network":null,"source":"openstreetmap.org","min_zoom":8.0,"old_name:en":"Derevianko Square","old_name":"\u0411\u043e\u0440\u0438\u0441\u0430 \u0414\u0435\u0440\u0435\u0432\u2019\u044f\u043d\u043a\u0430 \u043f\u043b\u043e\u0449\u0430","name:ru":"\u041d\u0435\u0437\u0430\u0432\u0438\u0441\u0438\u043c\u043e\u0441\u0442\u0438 \u043f\u043b\u043e\u0449\u0430\u0434\u044c","landuse_kind":"urban_area","bus_shield_text":"12","id":520496758},"arcs":[505]},{"type":"LineString","properties":{"kind":"major_road","name:en":"Dobrovolskoho Avenue","sort_rank":380,"kind_detail":"primary","source":"openstreetmap.org","min_zoom":8.0,"landuse_kind":"urban_area","name:ru":"\u0414\u043e\u0431\u0440\u043e\u0432\u043e\u043b\u044c\u0441\u043a\u043e\u0433\u043e \u043f\u0440\u043e\u0441\u043f\u0435\u043a\u0442"},"arcs":[506]},{"type":"LineString","properties":{"kind":"major_road","name:en":"Tiraspolskaya Street","sort_rank":381,"kind_detail":"trunk","name:de":"Tiraspolskaja uliza","source":"openstreetmap.org","min_zoom":8.0,"name:ro":"Strada Tiraspolului","name:uk":"\u0422\u0438\u0440\u0430\u0441\u043f\u043e\u043b\u044c\u0441\u044c\u043a\u0430 \u0432\u0443\u043b\u0438\u0446\u044f","ref":"M4;A279","id":254360386},"arcs":[507]},{"type":"LineString","properties":{"bus_network":null,"name:en":"Razumovska Street","sort_rank":380,"kind_detail":"primary","kind":"major_road","source":"openstreetmap.org","min_zoom":8.0,"bus_shield_text":"8","name:ru":"\u0420\u0430\u0437\u0443\u043c\u043e\u0432\u0441\u043a\u0430\u044f \u0443\u043b\u0438\u0446\u0430","landuse_kind":"urban_area"},"arcs":[508]},{"type":"LineString","properties":{"kind":"ferry","name":"\u041e\u0434\u0435\u0441\u0430 - \u0421\u0442\u0430\u043c\u0431\u0443\u043b \/ Odessa - \u0130stanbul","source":"openstreetmap.org","name:tr":"Odessa - \u0130stanbul","sort_rank":355,"min_zoom":8.0,"name:uk":"\u041e\u0434\u0435\u0441\u0430 - \u0421\u0442\u0430\u043c\u0431\u0443\u043b","name:ru":"\u041e\u0434\u0435\u0441\u0441\u0430 - \u0421\u0442\u0430\u043c\u0431\u0443\u043b","osm_relation":true},"arcs":[509]},{"type":"MultiLineString","properties":{"bus_network":null,"name:ro":"Strada Karl Liebknecht","sort_rank":380,"kind_detail":"primary","kind":"major_road","name:de":"uliza Karla Libknechta","source":"openstreetmap.org","min_zoom":8.0,"name:en":"Karla Libknekhta Street","name:uk":"\u0432\u0443\u043b\u0438\u0446\u044f \u041a\u0430\u0440\u043b\u0430 \u041b\u0456\u0431\u043a\u043d\u0435\u0445\u0442\u0430","bus_shield_text":"Chi\u0219in\u0103u-Tiraspol","landuse_kind":"residential","ref":"R26"},"arcs":[[510],[511]]},{"type":"LineString","properties":{"kind":"major_road","name:en":"30-richchia Peremohy Street","sort_rank":380,"kind_detail":"primary","source":"openstreetmap.org","min_zoom":8.0,"landuse_kind":"urban_area","name:ru":"30-\u043b\u0435\u0442\u0438\u044f \u041f\u043e\u0431\u0435\u0434\u044b \u0443\u043b\u0438\u0446\u0430"},"arcs":[512]},{"type":"MultiLineString","properties":{"kind":"major_road","name:en":"Shevchenko Street","sort_rank":381,"landuse_kind":"residential","name:de":"uliza Schewtschenko","source":"openstreetmap.org","min_zoom":8.0,"name:ro":"Strada \u0218evcenco","name:uk":"\u0432\u0443\u043b\u0438\u0446\u044f \u0428\u0435\u0432\u0447\u0435\u043d\u043a\u0430","kind_detail":"trunk","ref":"M4"},"arcs":[[513],[514]]},{"type":"LineString","properties":{"kind":"ferry","name":"Chornomorsk - Batumi","name:ka":"\u10e9\u10d4\u10e0\u10dc\u10dd\u10db\u10dd\u10e0\u10e1\u10d9\u10d8 - \u10d1\u10d0\u10d7\u10e3\u10db\u10d8","sort_rank":355,"landuse_kind":"urban_area","source":"openstreetmap.org","min_zoom":8.0,"name:uk":"\u0427\u043e\u0440\u043d\u043e\u043c\u043e\u0440\u0441\u044c\u043a - \u0411\u0430\u0442\u0443\u043c\u0456","name:ru":"\u0427\u0435\u0440\u043d\u043e\u043c\u043e\u0440\u0441\u043a - \u0411\u0430\u0442\u0443\u043c\u0438","id":130697016},"arcs":[515]},{"type":"LineString","properties":{"kind":"major_road","name:en":"Akademika Zabolotnoho Street","network":"ua:international","sort_rank":381,"kind_detail":"trunk","source":"openstreetmap.org","min_zoom":8.0,"landuse_kind":"urban_area","shield_text":"05","name:ru":"\u0410\u043a\u0430\u0434\u0435\u043c\u0438\u043a\u0430 \u0417\u0430\u0431\u043e\u043b\u043e\u0442\u043d\u043e\u0433\u043e \u0443\u043b\u0438\u0446\u0430","ref":"\u041c-05"},"arcs":[516]},{"type":"MultiLineString","properties":{"source":"openstreetmap.org","kind":"major_road","landuse_kind":"residential","sort_rank":380,"kind_detail":"primary","min_zoom":8.0},"arcs":[[517],[518]]},{"type":"MultiLineString","properties":{"kind":"major_road","network":"e-road","sort_rank":381,"kind_detail":"trunk","source":"openstreetmap.org","min_zoom":8.0,"shield_text":"58","ref":"\u041c-16"},"arcs":[[519],[520],[521]]},{"type":"LineString","properties":{"kind":"major_road","name:en":"Tiraspolskaya Street","sort_rank":381,"kind_detail":"trunk","name:de":"Tiraspolskaja uliza","source":"openstreetmap.org","min_zoom":8.0,"name:ro":"Strada Tiraspolului","name:uk":"\u0422\u0438\u0440\u0430\u0441\u043f\u043e\u043b\u044c\u0441\u044c\u043a\u0430 \u0432\u0443\u043b\u0438\u0446\u044f","landuse_kind":"residential","ref":"M4;A279","id":254360386},"arcs":[522]},{"type":"LineString","properties":{"kind":"major_road","name:en":"Otamana Holovatoho Street","sort_rank":380,"kind_detail":"primary","bus_shield_text":"120","bus_network":null,"source":"openstreetmap.org","min_zoom":8.0,"old_name":"\u0411\u043e\u0433\u0430\u0442\u043e\u0432\u0430 \u0443\u043b\u0438\u0446\u0430","name:ru":"\u0410\u0442\u0430\u043c\u0430\u043d\u0430 \u0413\u043e\u043b\u043e\u0432\u0430\u0442\u043e\u0433\u043e \u0443\u043b\u0438\u0446\u0430","landuse_kind":"urban_area","id":4423487},"arcs":[523]},{"type":"LineString","properties":{"kind":"major_road","name:en":"Prokhorovska Street","sort_rank":380,"kind_detail":"primary","source":"openstreetmap.org","min_zoom":8.0,"landuse_kind":"urban_area","name:ru":"\u041f\u0440\u043e\u0445\u043e\u0440\u043e\u0432\u0441\u043a\u0430\u044f \u0443\u043b\u0438\u0446\u0430","id":28882313},"arcs":[524]},{"type":"LineString","properties":{"kind":"major_road","name:en":"Kirova Street","sort_rank":380,"kind_detail":"primary","name:de":"uliza Kirowa","source":"openstreetmap.org","min_zoom":8.0,"name:ro":"Strada Kirov","name:uk":"\u0432\u0443\u043b\u0438\u0446\u044f \u041a\u0456\u0440\u043e\u0432\u0430","landuse_kind":"residential","ref":"R27","id":236189105},"arcs":[525]},{"type":"LineString","properties":{"bus_network":null,"name:en":"Mala Arnautska Street","sort_rank":380,"kind_detail":"primary","kind":"major_road","source":"openstreetmap.org","min_zoom":8.0,"bus_shield_text":"8","name:ru":"\u041c\u0430\u043b\u0430\u044f \u0410\u0440\u043d\u0430\u0443\u0442\u0441\u043a\u0430\u044f \u0443\u043b\u0438\u0446\u0430","landuse_kind":"urban_area"},"arcs":[526]},{"type":"MultiLineString","properties":{"bus_network":null,"name:en":"Dalnytska Street","sort_rank":380,"kind_detail":"primary","kind":"major_road","source":"openstreetmap.org","min_zoom":8.0,"bus_shield_text":"12","name:ru":"\u0414\u0430\u043b\u044c\u043d\u0438\u0446\u043a\u0430\u044f \u0443\u043b\u0438\u0446\u0430","landuse_kind":"urban_area"},"arcs":[[527],[528]]},{"type":"LineString","properties":{"kind":"major_road","network":"ua:national","sort_rank":380,"kind_detail":"primary","source":"openstreetmap.org","min_zoom":8.0,"landuse_kind":"urban_area","shield_text":"33","name:ru":"\u041f\u0440\u0438\u043c\u043e\u0440\u0441\u043a\u0430\u044f \u0443\u043b\u0438\u0446\u0430","ref":"\u041d-33","id":240991295},"arcs":[529]},{"type":"MultiLineString","properties":{"bus_network":null,"name:en":"Ovidiopolska Way","sort_rank":380,"kind_detail":"primary","kind":"major_road","source":"openstreetmap.org","min_zoom":8.0,"bus_shield_text":"6","name:ru":"\u041e\u0432\u0438\u0434\u0438\u043e\u043f\u043e\u043b\u044c\u0441\u043a\u0430\u044f \u0434\u043e\u0440\u043e\u0433\u0430"},"arcs":[[530],[531]]},{"type":"LineString","properties":{"kind":"major_road","network":"ua:international","sort_rank":381,"kind_detail":"trunk","source":"openstreetmap.org","min_zoom":8.0,"shield_text":"28","name:ru":"\u0421\u0435\u043c\u0451\u043d\u043e\u0432\u0430 \u0443\u043b\u0438\u0446\u0430","ref":"\u041c-28","id":361277164},"arcs":[532]},{"type":"LineString","properties":{"kind":"major_road","name:en":"Shevchenko Street","sort_rank":381,"kind_detail":"trunk","name:de":"uliza Schewtschenko","source":"openstreetmap.org","min_zoom":8.0,"name:ro":"Strada \u0218evcenco","name:uk":"\u0432\u0443\u043b\u0438\u0446\u044f \u0428\u0435\u0432\u0447\u0435\u043d\u043a\u0430","landuse_kind":"urban_area","ref":"M4","id":225102952},"arcs":[533]},{"type":"LineString","properties":{"kind":"ferry","name":"Chornomorsk - Batumi","name:ka":"\u10e9\u10d4\u10e0\u10dc\u10dd\u10db\u10dd\u10e0\u10e1\u10d9\u10d8 - \u10d1\u10d0\u10d7\u10e3\u10db\u10d8","sort_rank":355,"source":"openstreetmap.org","min_zoom":8.0,"name:uk":"\u0427\u043e\u0440\u043d\u043e\u043c\u043e\u0440\u0441\u044c\u043a - \u0411\u0430\u0442\u0443\u043c\u0456","name:ru":"\u0427\u0435\u0440\u043d\u043e\u043c\u043e\u0440\u0441\u043a - \u0411\u0430\u0442\u0443\u043c\u0438"},"arcs":[534]},{"type":"LineString","properties":{"kind":"major_road","name:en":"Mykolaivska Road","sort_rank":380,"kind_detail":"primary","bus_network":null,"source":"openstreetmap.org","min_zoom":8.0,"bus_shield_text":"120","name:ru":"\u041d\u0438\u043a\u043e\u043b\u0430\u0435\u0432\u0441\u043a\u0430\u044f \u0434\u043e\u0440\u043e\u0433\u0430","landuse_kind":"urban_area","id":4423404},"arcs":[535]},{"type":"LineString","properties":{"kind":"major_road","name:en":"Pryvokzal'na Square","sort_rank":380,"kind_detail":"primary","source":"openstreetmap.org","min_zoom":8.0,"landuse_kind":"urban_area","name:ru":"\u041f\u0440\u0438\u0432\u043e\u043a\u0437\u0430\u043b\u044c\u043d\u0430\u044f \u043f\u043b\u043e\u0449\u0430\u0434\u044c","id":122192833},"arcs":[536]},{"type":"LineString","properties":{"kind":"major_road","name:en":"Balkivska Street","sort_rank":380,"kind_detail":"primary","bus_network":null,"source":"openstreetmap.org","min_zoom":8.0,"bus_shield_text":"120","name:ru":"\u0411\u0430\u043b\u043a\u043e\u0432\u0441\u043a\u0430\u044f \u0443\u043b\u0438\u0446\u0430","landuse_kind":"urban_area","id":486745236},"arcs":[537]},{"type":"LineString","properties":{"kind":"major_road","sort_rank":381,"landuse_kind":"urban_area","source":"openstreetmap.org","min_zoom":8.0,"kind_detail":"trunk","ref":"M4","id":411909386},"arcs":[538]},{"type":"LineString","properties":{"kind":"ferry","name":"Odessa - Yevpatoriya","sort_rank":355,"landuse_kind":"urban_area","source":"openstreetmap.org","min_zoom":8.0,"name:uk":"\u041e\u0434\u0435\u0441\u0430 - \u0404\u0432\u043f\u0430\u0442\u043e\u0440\u0456\u044f","name:ru":"\u041e\u0434\u0435\u0441\u0441\u0430 - \u0415\u0432\u043f\u0430\u0442\u043e\u0440\u0438\u044f","id":-3132805,"osm_relation":true},"arcs":[539]},{"type":"LineString","properties":{"kind":"major_road","name:en":"Gorkogo Street","sort_rank":380,"kind_detail":"primary","name:de":"uliza Gorkogo","source":"openstreetmap.org","min_zoom":8.0,"name:ro":"Strada Gorki","name:uk":"\u0432\u0443\u043b\u0438\u0446\u044f \u0413\u043e\u0440\u044c\u043a\u043e\u0433\u043e","landuse_kind":"residential","ref":"R27","id":238475857},"arcs":[540]},{"type":"LineString","properties":{"kind":"major_road","network":"ua:regional","sort_rank":380,"kind_detail":"primary","source":"openstreetmap.org","min_zoom":8.0,"shield_text":"55","ref":"\u0420-55"},"arcs":[541]},{"type":"MultiLineString","properties":{"kind":"major_road","network":"e-road","sort_rank":381,"landuse_kind":"urban_area","source":"openstreetmap.org","min_zoom":8.0,"kind_detail":"trunk","shield_text":"58","ref":"\u041c-16"},"arcs":[[542],[543],[544],[545],[546],[547],[548]]},{"type":"MultiLineString","properties":{"kind":"major_road","name:en":"Dobrovolskoho Avenue","network":"e-road","sort_rank":381,"landuse_kind":"urban_area","source":"openstreetmap.org","min_zoom":8.0,"kind_detail":"trunk","shield_text":"58","name:ru":"\u0414\u043e\u0431\u0440\u043e\u0432\u043e\u043b\u044c\u0441\u043a\u043e\u0433\u043e \u043f\u0440\u043e\u0441\u043f\u0435\u043a\u0442","ref":"\u041c-14"},"arcs":[[549],[550],[551]]},{"type":"LineString","properties":{"kind":"major_road","name:en":"Odessa Highway","sort_rank":381,"kind_detail":"trunk","name:de":"Odesskoje schosse","source":"openstreetmap.org","min_zoom":8.0,"name:ro":"\u015eoseaua Odessa","name:uk":"\u041e\u0434\u0435\u0441\u044c\u043a\u0435 \u0448\u043e\u0441\u0435","landuse_kind":"urban_area","id":357448419},"arcs":[552]},{"type":"MultiLineString","properties":{"kind":"major_road","name:en":"Leningrads'ke highway","network":"e-road","sort_rank":381,"kind_detail":"trunk","source":"openstreetmap.org","min_zoom":8.0,"landuse_kind":"urban_area","shield_text":"95","name:ru":"\u041b\u0435\u043d\u0438\u043d\u0433\u0440\u0430\u0434\u0441\u043a\u043e\u0435 \u0448\u043e\u0441\u0441\u0435","ref":"\u041c-05"},"arcs":[[553],[554],[555],[556]]},{"type":"LineString","properties":{"bus_network":null,"sort_rank":380,"kind_detail":"primary","kind":"major_road","source":"openstreetmap.org","min_zoom":8.0,"bus_shield_text":"127","landuse_kind":"urban_area"},"arcs":[557]},{"type":"LineString","properties":{"kind":"major_road","network":"e-road","sort_rank":381,"kind_detail":"trunk","source":"openstreetmap.org","min_zoom":8.0,"landuse_kind":"residential","shield_text":"87","name:ru":"\u0421\u043e\u0432\u0435\u0442\u0441\u043a\u043e\u0439 \u0410\u0440\u043c\u0438\u0438 \u0443\u043b\u0438\u0446\u0430","ref":"\u041c-15","id":224657595},"arcs":[558]},{"type":"LineString","properties":{"kind":"major_road","name:en":"Karla Libknekhta Street","sort_rank":380,"kind_detail":"primary","bus_network":null,"name:de":"uliza Karla Libknechta","source":"openstreetmap.org","min_zoom":8.0,"name:ro":"Strada Karl Liebknecht","name:uk":"\u0432\u0443\u043b\u0438\u0446\u044f \u041a\u0430\u0440\u043b\u0430 \u041b\u0456\u0431\u043a\u043d\u0435\u0445\u0442\u0430","bus_shield_text":"Chi\u0219in\u0103u-Tiraspol","ref":"R26","id":25480900},"arcs":[559]},{"type":"LineString","properties":{"bus_network":null,"name:en":"Liustdorfska Road","sort_rank":380,"kind_detail":"primary","is_bicycle_related":true,"kind":"major_road","source":"openstreetmap.org","min_zoom":8.0,"bus_shield_text":"149","name:ru":"\u041b\u044e\u0441\u0442\u0434\u043e\u0440\u0444\u0441\u043a\u0430\u044f \u0434\u043e\u0440\u043e\u0433\u0430","landuse_kind":"urban_area"},"arcs":[560]},{"type":"LineString","properties":{"old_name:uk":"\u041c\u043e\u0441\u043a\u043e\u0432\u0441\u044c\u043a\u0430","kind":"major_road","name:en":"Chornomorskoho Kozatstva Street","sort_rank":380,"kind_detail":"primary","old_name:ru":"\u041c\u043e\u0441\u043a\u043e\u0432\u0441\u043a\u0430\u044f","bus_network":null,"source":"openstreetmap.org","min_zoom":8.0,"bus_shield_text":"120","name:ru":"\u0427\u0435\u0440\u043d\u043e\u043c\u043e\u0440\u0441\u043a\u043e\u0433\u043e \u043a\u0430\u0437\u0430\u0447\u0435\u0441\u0442\u0432\u0430 \u0443\u043b\u0438\u0446\u0430","landuse_kind":"urban_area","id":4423486},"arcs":[561]},{"type":"LineString","properties":{"kind":"ferry","name":"Odessa - Yevpatoriya","sort_rank":355,"source":"openstreetmap.org","min_zoom":8.0,"name:uk":"\u041e\u0434\u0435\u0441\u0430 - \u0404\u0432\u043f\u0430\u0442\u043e\u0440\u0456\u044f","name:ru":"\u041e\u0434\u0435\u0441\u0441\u0430 - \u0415\u0432\u043f\u0430\u0442\u043e\u0440\u0438\u044f","osm_relation":true},"arcs":[562]},{"type":"LineString","properties":{"old_name:uk":"\u0411\u043e\u0440\u0438\u0441\u0430 \u0414\u0435\u0440\u0435\u0432\u2019\u044f\u043d\u043a\u0430 \u043f\u043b\u043e\u0449\u0430","kind":"major_road","sort_rank":380,"kind_detail":"primary","old_name:ru":"\u0411\u043e\u0440\u0438\u0441\u0430 \u0414\u0435\u0440\u0435\u0432\u044f\u043d\u043a\u043e \u043f\u043b\u043e\u0449\u0430\u0434\u044c","source":"openstreetmap.org","min_zoom":8.0,"old_name:en":"Derevianko Square","old_name":"\u0411\u043e\u0440\u0438\u0441\u0430 \u0414\u0435\u0440\u0435\u0432\u2019\u044f\u043d\u043a\u0430 \u043f\u043b\u043e\u0449\u0430","name:ru":"\u041d\u0435\u0437\u0430\u0432\u0438\u0441\u0438\u043c\u043e\u0441\u0442\u0438 \u043f\u043b\u043e\u0449\u0430\u0434\u044c","landuse_kind":"urban_area","id":520496757},"arcs":[563]},{"type":"LineString","properties":{"bus_network":null,"sort_rank":380,"kind_detail":"primary","kind":"major_road","source":"openstreetmap.org","min_zoom":8.0,"bus_shield_text":"Chisinau-\u0218tefan Vod\u0103","ref":"R30"},"arcs":[564]},{"type":"MultiLineString","properties":{"kind":"major_road","name:en":"Tiraspolskaya Street","sort_rank":380,"kind_detail":"primary","name:de":"Tiraspolskaja uliza","source":"openstreetmap.org","min_zoom":8.0,"name:ro":"Strada Tiraspolului","name:uk":"\u0422\u0438\u0440\u0430\u0441\u043f\u043e\u043b\u044c\u0441\u044c\u043a\u0430 \u0432\u0443\u043b\u0438\u0446\u044f","landuse_kind":"residential","ref":"R27","id":229588234},"arcs":[[565],[566]]},{"type":"LineString","properties":{"bus_network":null,"name:en":"Tolbukhina Square","sort_rank":380,"kind_detail":"primary","kind":"major_road","source":"openstreetmap.org","min_zoom":8.0,"bus_shield_text":"148","name:ru":"\u0422\u043e\u043b\u0431\u0443\u0445\u0438\u043d\u0430 \u043f\u043b\u043e\u0449\u0430\u0434\u044c","landuse_kind":"urban_area"},"arcs":[567]},{"type":"LineString","properties":{"source":"openstreetmap.org","kind":"major_road","landuse_kind":"urban_area","sort_rank":380,"kind_detail":"primary","min_zoom":8.0,"name:ru":"\u041f\u043e\u0431\u0435\u0434\u043d\u0430\u044f \u0443\u043b\u0438\u0446\u0430"},"arcs":[568]},{"type":"LineString","properties":{"kind":"major_road","name:en":"Tiraspolskaya Street","sort_rank":380,"kind_detail":"primary","name:de":"Tiraspolskaja uliza","source":"openstreetmap.org","min_zoom":8.0,"name:ro":"Strada Tiraspolului","name:uk":"\u0422\u0438\u0440\u0430\u0441\u043f\u043e\u043b\u044c\u0441\u044c\u043a\u0430 \u0432\u0443\u043b\u0438\u0446\u044f","ref":"R27","id":229588234},"arcs":[569]},{"type":"MultiLineString","properties":{"bus_network":null,"name:en":"Akademyka Hlushko Avenue","sort_rank":380,"kind_detail":"primary","kind":"major_road","source":"openstreetmap.org","min_zoom":8.0,"bus_shield_text":"150","name:ru":"\u0410\u043a\u0430\u0434\u0435\u043c\u0438\u043a\u0430 \u0413\u043b\u0443\u0448\u043a\u043e \u043f\u0440\u043e\u0441\u043f\u0435\u043a\u0442","landuse_kind":"urban_area"},"arcs":[[570],[571]]},{"type":"LineString","properties":{"kind":"major_road","name:en":"Kyshynivska Street","network":null,"sort_rank":380,"kind_detail":"primary","source":"openstreetmap.org","min_zoom":8.0,"landuse_kind":"urban_area","shield_text":"72","name:ru":"\u041a\u0438\u0448\u0438\u043d\u0451\u0432\u0441\u043a\u0430\u044f \u0443\u043b\u0438\u0446\u0430","ref":"\u0420-72","id":289246745},"arcs":[572]},{"type":"MultiLineString","properties":{"kind":"major_road","network":"e-road","sort_rank":381,"kind_detail":"trunk","source":"openstreetmap.org","min_zoom":8.0,"landuse_kind":"nature_reserve","shield_text":"87","ref":"\u041c-15"},"arcs":[[573],[574],[575],[576]]},{"type":"MultiLineString","properties":{"source":"openstreetmap.org","kind":"major_road","sort_rank":380,"kind_detail":"primary","ref":"R28","min_zoom":8.0},"arcs":[[577],[578]]},{"type":"LineString","properties":{"bus_network":null,"name:en":"Vasylia Stusa Street","sort_rank":380,"kind_detail":"primary","kind":"major_road","source":"openstreetmap.org","min_zoom":8.0,"bus_shield_text":"12","name:ru":"\u0412\u0430\u0441\u0438\u043b\u0438\u044f \u0421\u0442\u0443\u0441\u0430 \u0443\u043b\u0438\u0446\u0430","landuse_kind":"urban_area"},"arcs":[579]},{"type":"MultiLineString","properties":{"source":"openstreetmap.org","kind":"major_road","landuse_kind":"urban_area","sort_rank":380,"kind_detail":"primary","min_zoom":8.0},"arcs":[[580],[581]]},{"type":"LineString","properties":{"kind":"major_road","network":"ua:international","sort_rank":381,"landuse_kind":"urban_area","source":"openstreetmap.org","min_zoom":8.0,"kind_detail":"trunk","shield_text":"05","ref":"\u041c-05;\u041c-27"},"arcs":[582]},{"type":"MultiLineString","properties":{"kind":"major_road","name:en":"Dalinitske Road","sort_rank":380,"landuse_kind":"urban_area","source":"openstreetmap.org","min_zoom":8.0,"kind_detail":"primary","name:ru":"\u0414\u0430\u043b\u044c\u043d\u0438\u0446\u043a\u043e\u0435 \u0448\u043e\u0441\u0441\u0435"},"arcs":[[583],[584],[585]]},{"type":"LineString","properties":{"kind":"major_road","network":"e-road","sort_rank":381,"kind_detail":"trunk","bus_network":null,"source":"openstreetmap.org","min_zoom":8.0,"bus_shield_text":"6","shield_text":"87","landuse_kind":"urban_area","ref":"\u041c-05","id":231447865},"arcs":[586]},{"type":"LineString","properties":{"kind":"ferry","name":"Chornomorsk - Batumi","name:ka":"\u10e9\u10d4\u10e0\u10dc\u10dd\u10db\u10dd\u10e0\u10e1\u10d9\u10d8 - \u10d1\u10d0\u10d7\u10e3\u10db\u10d8","sort_rank":355,"landuse_kind":"urban_area","source":"openstreetmap.org","min_zoom":8.0,"name:uk":"\u0427\u043e\u0440\u043d\u043e\u043c\u043e\u0440\u0441\u044c\u043a - \u0411\u0430\u0442\u0443\u043c\u0456","name:ru":"\u0427\u0435\u0440\u043d\u043e\u043c\u043e\u0440\u0441\u043a - \u0411\u0430\u0442\u0443\u043c\u0438","ref":"\u0427\u043e\u0440\u043d\u043e\u043c\u043e\u0440\u0441\u044c\u043a - \u0411\u0430\u0442\u0443\u043c\u0456","id":-1197900,"osm_relation":true},"arcs":[587]},{"type":"LineString","properties":{"source":"openstreetmap.org","kind":"major_road","kind_detail":"primary","sort_rank":380,"name:ru":"\u0410\u0440\u0442\u0435\u043b\u044c\u043d\u0430\u044f \u0443\u043b\u0438\u0446\u0430","min_zoom":8.0,"id":59547345},"arcs":[588]},{"type":"LineString","properties":{"kind":"major_road","name:en":"Pushkinska Street","sort_rank":380,"kind_detail":"primary","bus_network":null,"source":"openstreetmap.org","min_zoom":8.0,"bus_shield_text":"7","name:ru":"\u041f\u0443\u0448\u043a\u0438\u043d\u0441\u043a\u0430\u044f \u0443\u043b\u0438\u0446\u0430","landuse_kind":"urban_area","id":4423494},"arcs":[589]},{"type":"MultiLineString","properties":{"kind":"major_road","network":"e-road","sort_rank":381,"kind_detail":"trunk","source":"openstreetmap.org","min_zoom":8.0,"shield_text":"58","ref":"\u041c-14"},"arcs":[[590],[591]]},{"type":"LineString","properties":{"kind":"major_road","name:en":"Ovidiopolska Road","sort_rank":380,"kind_detail":"primary","bus_network":null,"source":"openstreetmap.org","min_zoom":8.0,"bus_shield_text":"12","name:ru":"\u041e\u0432\u0438\u0434\u0438\u043e\u043f\u043e\u043b\u044c\u0441\u043a\u0430\u044f \u0434\u043e\u0440\u043e\u0433\u0430","landuse_kind":"urban_area","id":28851623},"arcs":[592]},{"type":"LineString","properties":{"kind":"major_road","name:en":"Bohdana Khmelnytskoho Street","sort_rank":380,"kind_detail":"primary","bus_network":null,"source":"openstreetmap.org","min_zoom":8.0,"bus_shield_text":"12","name:ru":"\u0411\u043e\u0433\u0434\u0430\u043d\u0430 \u0425\u043c\u0435\u043b\u044c\u043d\u0438\u0446\u043a\u043e\u0433\u043e \u0443\u043b\u0438\u0446\u0430","landuse_kind":"urban_area","id":231918098},"arcs":[593]},{"type":"LineString","properties":{"source":"openstreetmap.org","kind":"ferry","name:en":"Chornomorsk - Poti","name":"\u0427\u043e\u0440\u043d\u043e\u043c\u043e\u0440\u0441\u044c\u043a - \u041f\u043e\u0442\u0456","sort_rank":355,"name:ru":"\u0427\u0435\u0440\u043d\u043e\u043c\u043e\u0440\u0441\u043a - \u041f\u043e\u0442\u0438","min_zoom":8.0},"arcs":[594]},{"type":"MultiLineString","properties":{"kind":"major_road","network":"e-road","sort_rank":381,"landuse_kind":"urban_area","source":"openstreetmap.org","min_zoom":8.0,"kind_detail":"trunk","shield_text":"87","ref":"\u041c-15"},"arcs":[[595],[596],[597]]},{"type":"MultiLineString","properties":{"kind":"major_road","network":"e-road","sort_rank":381,"landuse_kind":"urban_area","source":"openstreetmap.org","min_zoom":8.0,"kind_detail":"trunk","shield_text":"87"},"arcs":[[598],[599]]},{"type":"MultiLineString","properties":{"kind":"major_road","network":"ua:national","sort_rank":380,"kind_detail":"primary","source":"openstreetmap.org","min_zoom":8.0,"shield_text":"33","ref":"\u041d-33"},"arcs":[[600],[601],[602],[603],[604],[605],[606],[607],[608],[609],[610]]},{"type":"LineString","properties":{"kind":"major_road","network":"e-road","sort_rank":381,"kind_detail":"trunk","source":"openstreetmap.org","min_zoom":8.0,"shield_text":"87","name:ru":"\u0421\u043e\u0432\u0435\u0442\u0441\u043a\u043e\u0439 \u0410\u0440\u043c\u0438\u0438 \u0443\u043b\u0438\u0446\u0430","ref":"\u041c-15"},"arcs":[611]},{"type":"LineString","properties":{"kind":"major_road","name:en":"Akademyka Hlushko Avenue","sort_rank":380,"kind_detail":"primary","source":"openstreetmap.org","min_zoom":8.0,"landuse_kind":"urban_area","name:ru":"\u0410\u043a\u0430\u0434\u0435\u043c\u0438\u043a\u0430 \u0413\u043b\u0443\u0448\u043a\u043e \u043f\u0440\u043e\u0441\u043f\u0435\u043a\u0442","id":103650804},"arcs":[612]},{"type":"MultiLineString","properties":{"kind":"major_road","name:en":"Stovpova Street","sort_rank":380,"kind_detail":"primary","source":"openstreetmap.org","min_zoom":8.0,"landuse_kind":"urban_area","name:ru":"\u0421\u0442\u043e\u043b\u0431\u043e\u0432\u0430\u044f \u0443\u043b\u0438\u0446\u0430"},"arcs":[[613],[614]]},{"type":"LineString","properties":{"kind":"major_road","sort_rank":380,"landuse_kind":"residential","source":"openstreetmap.org","min_zoom":8.0,"name:uk":"\u041b\u0456\u0441\u043e\u0432\u0438\u0439 \u043f\u0440\u043e\u0432\u0443\u043b\u043e\u043a","kind_detail":"primary","id":113774267},"arcs":[615]},{"type":"LineString","properties":{"kind":"major_road","name:en":"Akademika Zabolotnoho Street","sort_rank":380,"kind_detail":"primary","source":"openstreetmap.org","min_zoom":8.0,"landuse_kind":"urban_area","name:ru":"\u0410\u043a\u0430\u0434\u0435\u043c\u0438\u043a\u0430 \u0417\u0430\u0431\u043e\u043b\u043e\u0442\u043d\u043e\u0433\u043e \u0443\u043b\u0438\u0446\u0430"},"arcs":[616]},{"type":"LineString","properties":{"source":"openstreetmap.org","kind":"major_road","kind_detail":"primary","sort_rank":380,"name:ru":"\u0410\u043a\u0430\u0434\u0435\u043c\u0438\u043a\u0430 \u0417\u0430\u0431\u043e\u043b\u043e\u0442\u043d\u043e\u0433\u043e \u0443\u043b\u0438\u0446\u0430","min_zoom":8.0,"id":196870220},"arcs":[617]},{"type":"LineString","properties":{"kind":"major_road","name:en":"Yevhena Kolisnychenka Street","network":"ua:national","sort_rank":380,"kind_detail":"primary","old_name:ru":"\u0414\u0437\u0435\u0440\u0436\u0438\u043d\u0441\u043a\u043e\u0433\u043e \u0443\u043b\u0438\u0446\u0430","source":"openstreetmap.org","min_zoom":8.0,"old_name":"\u0414\u0437\u0435\u0440\u0436\u0438\u043d\u0441\u044c\u043a\u043e\u0433\u043e \u0432\u0443\u043b\u0438\u0446\u044f","shield_text":"33","name:ru":"\u0415\u0432\u0433\u0435\u043d\u0438\u044f \u041a\u043e\u043b\u0438\u0441\u043d\u0438\u0447\u0435\u043d\u043a\u043e \u0443\u043b\u0438\u0446\u0430","ref":"\u041d-33","id":27010942},"arcs":[618]},{"type":"MultiLineString","properties":{"kind":"major_road","network":"e-road","sort_rank":381,"landuse_kind":"urban_area","source":"openstreetmap.org","min_zoom":8.0,"kind_detail":"trunk","shield_text":"58"},"arcs":[[619],[620],[621],[622]]},{"type":"LineString","properties":{"kind":"ferry","name:en":"Chornomorsk - Varna","name":"\u0427\u043e\u0440\u043d\u043e\u043c\u043e\u0440\u0441\u044c\u043a - \u0412\u0430\u0440\u043d\u0430","sort_rank":355,"landuse_kind":"urban_area","source":"openstreetmap.org","min_zoom":8.0,"name:ru":"\u0427\u0435\u0440\u043d\u043e\u043c\u043e\u0440\u0441\u043a - \u0412\u0430\u0440\u043d\u0430","ref":"\u0427\u043e\u0440\u043d\u043e\u043c\u043e\u0440\u0441\u044c\u043a - \u0412\u0430\u0440\u043d\u0430","id":-2237466,"osm_relation":true},"arcs":[623]},{"type":"LineString","properties":{"kind":"major_road","name:en":"Akademika Zabolotnoho Street","network":"e-road","sort_rank":381,"kind_detail":"trunk","source":"openstreetmap.org","min_zoom":8.0,"landuse_kind":"urban_area","shield_text":"58","name:ru":"\u0410\u043a\u0430\u0434\u0435\u043c\u0438\u043a\u0430 \u0417\u0430\u0431\u043e\u043b\u043e\u0442\u043d\u043e\u0433\u043e \u0443\u043b\u0438\u0446\u0430","ref":"\u041c-05","id":136356735},"arcs":[624]},{"type":"LineString","properties":{"kind":"ferry","name":"\u041e\u0434\u0435\u0441\u0430 - \u0421\u0442\u0430\u043c\u0431\u0443\u043b \/ Odessa - \u0130stanbul","name:tr":"Odessa - \u0130stanbul","landuse_kind":"urban_area","source":"openstreetmap.org","min_zoom":8.0,"name:uk":"\u041e\u0434\u0435\u0441\u0430 - \u0421\u0442\u0430\u043c\u0431\u0443\u043b","name:ru":"\u041e\u0434\u0435\u0441\u0441\u0430 - \u0421\u0442\u0430\u043c\u0431\u0443\u043b","id":-1853336,"osm_relation":true,"sort_rank":355},"arcs":[625]},{"type":"LineString","properties":{"bus_network":null,"name:ro":"Chi\u0219in\u0103u-Tiraspol","sort_rank":380,"kind_detail":"primary","kind":"major_road","source":"openstreetmap.org","min_zoom":8.0,"name:uk":"\u041a\u0438\u0448\u0438\u043d\u0456\u0432-\u0422\u0438\u0440\u0430\u0441\u043f\u043e\u043b\u044c","bus_shield_text":"Chi\u0219in\u0103u-Tiraspol","ref":"R26"},"arcs":[626]},{"type":"MultiLineString","properties":{"bus_network":null,"name:en":"Kosmonavta Komarova Street","sort_rank":380,"kind_detail":"primary","kind":"major_road","source":"openstreetmap.org","min_zoom":8.0,"bus_shield_text":"7","name:ru":"\u041a\u043e\u0441\u043c\u043e\u043d\u0430\u0432\u0442\u0430 \u041a\u043e\u043c\u0430\u0440\u043e\u0432\u0430 \u0443\u043b\u0438\u0446\u0430","landuse_kind":"urban_area"},"arcs":[[627],[628],[629]]},{"type":"MultiLineString","properties":{"kind":"major_road","name:en":"Balkivska Street","sort_rank":380,"landuse_kind":"urban_area","source":"openstreetmap.org","min_zoom":8.0,"kind_detail":"primary","name:ru":"\u0411\u0430\u043b\u043a\u043e\u0432\u0441\u043a\u0430\u044f \u0443\u043b\u0438\u0446\u0430"},"arcs":[[630],[631],[632]]},{"type":"LineString","properties":{"kind":"major_road","network":"ua:national","sort_rank":380,"kind_detail":"primary","source":"openstreetmap.org","min_zoom":8.0,"landuse_kind":"urban_area","shield_text":"33","name:ru":"\u0428\u0430\u0431\u0441\u043a\u0430\u044f \u0443\u043b\u0438\u0446\u0430","ref":"\u041d-33","id":359835349},"arcs":[633]},{"type":"LineString","properties":{"kind":"major_road","network":"e-road","sort_rank":380,"kind_detail":"primary","bus_network":null,"source":"openstreetmap.org","min_zoom":8.0,"bus_shield_text":"8","shield_text":"95","landuse_kind":"urban_area","id":56002675},"arcs":[634]},{"type":"MultiLineString","properties":{"bus_network":"\u0422\u0438\u0440\u0430\u0441\u043f\u043e\u043b\u044c","name:ro":"Strada \u0218evcenco","sort_rank":381,"landuse_kind":"residential","kind":"major_road","name:de":"uliza Schewtschenko","source":"openstreetmap.org","min_zoom":8.0,"name:en":"Shevchenko Street","name:uk":"\u0432\u0443\u043b\u0438\u0446\u044f \u0428\u0435\u0432\u0447\u0435\u043d\u043a\u0430","bus_shield_text":"4","kind_detail":"trunk","ref":"M4"},"arcs":[[635],[636]]},{"type":"LineString","properties":{"kind":"major_road","network":"e-road","sort_rank":380,"kind_detail":"primary","source":"openstreetmap.org","min_zoom":8.0,"landuse_kind":"urban_area","shield_text":"95","id":172678636},"arcs":[637]},{"type":"MultiLineString","properties":{"kind":"major_road","network":"ua:regional","sort_rank":380,"kind_detail":"primary","source":"openstreetmap.org","min_zoom":8.0,"landuse_kind":"urban_area","shield_text":"33","ref":"\u0420-33"},"arcs":[[638],[639]]},{"type":"MultiLineString","properties":{"bus_network":null,"network":"ua:international","sort_rank":381,"kind_detail":"trunk","kind":"major_road","source":"openstreetmap.org","min_zoom":8.0,"bus_shield_text":"6","shield_text":"05","ref":"\u041c-05"},"arcs":[[640],[641],[642]]},{"type":"LineString","properties":{"kind":"major_road","name:en":"Kotovskogo Street","sort_rank":380,"kind_detail":"primary","name:de":"uliza Kotowskogo","source":"openstreetmap.org","min_zoom":8.0,"name:ro":"Strada Kotovski","name:uk":"\u0432\u0443\u043b\u0438\u0446\u044f \u041a\u043e\u0442\u043e\u0432\u0441\u044c\u043a\u043e\u0433\u043e","landuse_kind":"residential","ref":"R27","id":228887534},"arcs":[643]},{"type":"LineString","properties":{"kind":"major_road","name:en":"Odessa Highway","sort_rank":381,"kind_detail":"trunk","name:de":"Odesskoje schosse","source":"openstreetmap.org","min_zoom":8.0,"name:ro":"\u015eoseaua Odessa","name:uk":"\u041e\u0434\u0435\u0441\u044c\u043a\u0435 \u0448\u043e\u0441\u0435","id":357448419},"arcs":[644]},{"type":"LineString","properties":{"kind":"major_road","network":"ua:national","sort_rank":380,"kind_detail":"primary","source":"openstreetmap.org","min_zoom":8.0,"shield_text":"33","name:ru":"\u041f\u0440\u0438\u043c\u043e\u0440\u0441\u043a\u0430\u044f \u0443\u043b\u0438\u0446\u0430","ref":"\u041d-33"},"arcs":[645]},{"type":"LineString","properties":{"kind":"major_road","network":"ua:international","sort_rank":381,"kind_detail":"trunk","source":"openstreetmap.org","min_zoom":8.0,"landuse_kind":"urban_area","shield_text":"28","name:ru":"\u0421\u0435\u043c\u0451\u043d\u043e\u0432\u0430 \u0443\u043b\u0438\u0446\u0430","ref":"\u041c-28","id":361277164},"arcs":[646]}]},"earth":{"type":"GeometryCollection","geometries":[{"type":"MultiPolygon","properties":{"sort_rank":10,"source":"naturalearthdata.com","min_zoom":0.0,"kind":"earth","area":77085852597},"arcs":[[[647]]]}]},"landuse":{"type":"GeometryCollection","geometries":[{"type":"Polygon","properties":{"kind":"residential","name:en":"Maiaky","name":"\u041c\u0430\u044f\u043a\u0438","area":11930700,"sort_rank":20,"source":"openstreetmap.org","min_zoom":8.0,"tier":2,"id":79825796},"arcs":[[648]]},{"type":"Polygon","properties":{"kind":"residential","name":"\u0412\u0438\u043f\u0430\u0441\u043d\u0435","area":15897100,"sort_rank":20,"source":"openstreetmap.org","min_zoom":8.0,"old_name":"\u0422\u0443\u0440\u043b\u0430\u043a\u0438","tier":2,"id":216626276},"arcs":[[649]]},{"type":"Polygon","properties":{"kind":"residential","name:en":"Yasky","name":"\u042f\u0441\u044c\u043a\u0438","area":17966400,"sort_rank":20,"source":"openstreetmap.org","min_zoom":8.0,"tier":2,"id":-4660809,"osm_relation":true},"arcs":[[650]]},{"type":"Polygon","properties":{"kind":"residential","name":"\u0422\u0440\u043e\u0457\u0446\u044c\u043a\u0435","area":18291700,"sort_rank":20,"source":"openstreetmap.org","min_zoom":8.0,"tier":2,"name:ru":"\u0422\u0440\u043e\u0438\u0446\u043a\u043e\u0435","id":299645403},"arcs":[[651]]},{"type":"Polygon","properties":{"source":"openstreetmap.org","kind":"nature_reserve","area":1291800064,"tier":2,"id":534343953,"min_zoom":4.0,"sort_rank":23},"arcs":[[652]]},{"type":"MultiPolygon","properties":{"source":"openstreetmap.org","kind":"military","tier":3,"area":30030373,"sort_rank":45,"min_zoom":8.0},"arcs":[[[653]]]},{"type":"MultiPolygon","properties":{"source":"naturalearthdata.com","kind":"urban_area","name":"","area":2452415794,"sort_rank":11,"min_zoom":4.0},"arcs":[[[654]],[[655]],[[656]],[[657]],[[658]],[[659]],[[660]],[[661]],[[662]]]},{"type":"Polygon","properties":{"kind":"residential","name:en":"Svitanok","name":"\u0436\/\u043c \u0421\u0432\u0456\u0442\u0430\u043d\u043e\u043a","area":11812700,"sort_rank":20,"source":"openstreetmap.org","min_zoom":8.0,"tier":2,"name:ru":"\u0436\/\u043c \u0421\u0432\u0438\u0442\u0430\u043d\u043e\u043a","id":224214944},"arcs":[[663]]},{"type":"Polygon","properties":{"kind":"residential","name:en":"Biliaivka","name":"\u0411\u0456\u043b\u044f\u0457\u0432\u043a\u0430","name:lt":"Biliajivka","area":27575100,"sort_rank":20,"name:de":"Biljajiwka","source":"openstreetmap.org","min_zoom":8.0,"name:ro":"Biliaivka","tier":2,"name:ru":"\u0411\u0435\u043b\u044f\u0435\u0432\u043a\u0430","name:pl":"Bielajewka","id":186529142},"arcs":[[664]]},{"type":"Polygon","properties":{"kind":"nature_reserve","protect_class":"2","area":343838016,"sort_rank":23,"source":"openstreetmap.org","min_zoom":6.0,"tier":2,"id":-7397948,"osm_relation":true},"arcs":[[665],[666]]},{"type":"Polygon","properties":{"kind":"protected_area","protect_class":"4","area":210256000,"sort_rank":17,"source":"openstreetmap.org","min_zoom":6.0,"tier":2,"id":-7397945,"osm_relation":true},"arcs":[[667]]},{"type":"MultiPolygon","properties":{"source":"openstreetmap.org","kind":"aerodrome","tier":3,"area":26747114,"sort_rank":60,"min_zoom":8.0},"arcs":[[[668]],[[669]]]},{"type":"MultiPolygon","properties":{"source":"openstreetmap.org","kind":"residential","tier":2,"area":752493251,"sort_rank":20,"min_zoom":8.0},"arcs":[[[670]],[[671]],[[672]],[[673]],[[674]],[[675]],[[676]],[[677]],[[678]],[[679]],[[680]],[[681]],[[682]],[[683]],[[684]],[[685]],[[686]],[[687]],[[688]]]}]}},"type":"Topology","transform":{"translate":[29.53125,46.0732306254],"scale":[0.0003433228,0.0002360721]},"arcs":[[[1231,2315],[9,-116],[-63,-52],[11,-49],[28,0],[-25,-38],[24,8],[-10,-25],[-201,-37],[13,-21],[23,22],[41,-62],[-19,-22],[51,-24],[-20,-31],[62,-6],[-11,-40],[58,-7],[-20,-34],[43,17],[28,52],[-25,-83],[23,1],[30,47],[34,-11],[12,47],[2,-69],[40,8],[-33,-40],[13,-51],[84,-23],[-82,-34],[38,-31],[49,1],[-7,-49],[122,2],[-27,-32],[7,-35],[63,-12],[12,46],[35,-39],[-16,55],[17,6],[28,-53],[21,17],[35,-25],[34,-62],[32,19],[10,55],[25,-1],[13,-64],[-165,-92],[-30,-69],[-78,93],[-34,6],[-106,-66],[-72,29],[-27,-23],[-143,68],[-152,-123],[13,-82],[-250,142],[52,43],[-106,103],[-30,147],[-25,-7],[-74,86],[-46,-28],[45,-98],[-32,-15],[10,-21],[-142,-38],[-21,65],[-53,-24],[50,-316],[-217,-32],[-8,39],[-58,-9],[-41,236],[-102,24]],[[207,4096],[-19,-325],[-112,-23],[42,-75],[198,63],[24,-152],[180,23],[24,31],[9,-58],[29,4],[53,-247],[291,61],[-7,28],[109,17],[23,-137],[-25,-9],[65,-132],[66,33],[-9,28],[78,33],[80,-97],[-129,-59],[115,-227],[-25,-182],[15,-97],[-35,-37],[-39,-123],[23,-122]],[[3815,0],[155,129],[126,189]],[[1004,2006],[201,37],[10,25],[-24,-8],[25,38],[-28,0],[-11,49],[63,52],[-9,116]],[[1231,2315],[-23,122],[39,123],[35,37],[-15,97],[25,182],[-115,227],[129,59],[-80,97],[-78,-33],[9,-28],[-66,-33],[-65,132],[25,9],[-23,137],[-109,-17],[7,-28],[-291,-61],[-53,247],[-29,-4],[-9,58],[-24,-31],[-180,-23],[-24,152],[-198,-63],[-42,75],[112,23],[19,325]],[[628,2315],[26,-12],[-17,-30],[-81,-40],[128,-46],[37,-38],[52,4],[1,57],[37,-30],[-13,60],[-19,1],[15,14],[38,-22],[-6,-64],[27,75],[44,-29],[-27,-67],[57,37],[15,-36],[39,-7],[17,35],[11,-31],[-49,-28],[37,-18],[-40,-9],[72,-14],[33,-37],[-9,-18],[-52,38],[3,-54]],[[0,2998],[35,-8],[-8,73],[52,-86],[8,90],[77,13],[-17,103],[75,40],[22,-13],[-41,-35],[6,-32],[81,24],[7,-58],[42,-11],[-4,54],[55,-38],[3,-38],[-43,-37],[65,-59],[-21,-91],[22,-86],[21,24],[24,-26],[15,-102],[-86,-139],[63,-23],[38,25],[-3,-50],[56,-37],[26,19],[-3,42],[47,-29],[62,14],[-24,-85],[57,30],[-2,-25],[-46,-12],[60,-54],[-57,3],[-22,-22],[35,-37],[-62,20],[13,-24]],[[1004,2006],[13,-21],[23,22],[41,-62],[-19,-22],[51,-24],[-20,-31],[62,-6],[-11,-40],[58,-7],[-20,-34],[43,17],[28,52],[-25,-83],[23,1],[30,47],[34,-11],[12,47],[2,-69],[40,8],[-33,-40],[13,-51],[84,-23],[-85,-29],[41,-36],[49,1],[-7,-49],[122,2],[-22,-65],[63,-15],[12,47],[43,-35],[-22,51],[17,6],[28,-53],[21,17],[35,-25],[28,-62],[34,14],[29,63],[23,-68],[-165,-92],[-30,-69],[-78,93],[-34,6],[-106,-66],[-72,29],[-27,-23],[-143,68],[-152,-123],[13,-82],[-250,142],[52,43],[-106,103],[-30,147],[-25,-7],[-74,86],[-46,-28],[45,-98],[-32,-15],[10,-21],[-142,-38],[-21,65],[-53,-24],[50,-316],[-217,-32],[-8,39],[-58,-9],[-41,236],[-102,24]],[[3815,0],[155,129],[126,189]],[[3464,1882],[-2,-6],[-7,-28],[-15,-10],[-3,-4],[-1,-2],[-1,-3],[6,-40],[-33,-52],[-14,-34],[-33,-45],[8,-34],[34,-12]],[[3487,1620],[-18,0]],[[3469,1620],[-6,0]],[[3463,1620],[-4,0]],[[3459,1620],[-53,-8]],[[3521,1651],[0,-2]],[[3521,1649],[0,-2]],[[3521,1647],[-30,-27]],[[3491,1620],[-4,0]],[[3487,1620],[-10,-4]],[[3477,1616],[-67,-4]],[[3443,1799],[0,-4],[-1,-5],[-10,-22],[-3,-4],[-10,-10],[-7,-11]],[[3428,1616],[31,4]],[[3626,2168],[-17,-82],[-5,-8],[-20,-21]],[[3584,2057],[-4,-4]],[[3580,2053],[-19,-17]],[[3561,2036],[-72,-98]],[[3489,1938],[-3,-7],[-6,-24],[-3,-6],[-3,-5],[-8,-11],[-2,-5],[-7,-25],[-1,-5],[-1,-2],[-1,-2],[-1,-1],[-3,-2],[-10,-6],[-4,-5],[7,-31]],[[3474,1620],[-9,1],[-9,0]],[[3463,1620],[2,0]],[[3562,2037],[-1,-1]],[[3561,2036],[-1,-2]],[[3560,2034],[-2,-1]],[[3558,2033],[-2,-3]],[[3556,2030],[-2,-2]],[[3554,2028],[-3,-3]],[[3551,2025],[-10,-9]],[[3541,2016],[-1,-1]],[[3540,2015],[-1,-1]],[[3539,2014],[-4,-4]],[[3535,2010],[-1,-1]],[[3534,2009],[-1,-1]],[[3533,2008]],[[3533,2008],[-1,-1]],[[3532,2007],[0,-1]],[[3532,2006],[-1,-1]],[[3531,2005],[-1,-2]],[[3530,2003],[-2,-3]],[[3528,2000],[-1,-2]],[[3527,1998],[-1,-2]],[[3526,1996],[-1,-1]],[[3525,1995],[-1,-1]],[[3524,1994],[0,-1]],[[3524,1993],[-1,-1]],[[3523,1992],[-2,-3]],[[3521,1989],[-1,-1]],[[3520,1988],[-1,-1]],[[3519,1987],[0,-1]],[[3519,1986],[-2,-2]],[[3517,1984],[-2,-3]],[[3515,1981],[-2,-4]],[[3513,1977],[-3,-4]],[[3510,1973],[-1,-3]],[[3509,1970],[-2,-3]],[[3507,1967],[-3,-4]],[[3504,1963],[-2,-4]],[[3502,1959],[-2,-4]],[[3500,1955],[-2,-3]],[[3498,1952],[-1,-1]],[[3497,1951],[-1,-2]],[[3496,1949],[-1,-1]],[[3495,1948],[-1,-2]],[[3494,1946],[-2,-3]],[[3492,1943],[-1,-2]],[[3491,1941],[-1,-1]],[[3490,1940],[-1,-1]],[[3489,1939],[0,-1]],[[3489,1938],[-1,-2]],[[3488,1936],[-1,-1]],[[3487,1935],[-1,-2]],[[3486,1933],[0,-1]],[[3486,1932],[0,-1]],[[3486,1931],[-1,-4]],[[3485,1927],[-1,-3]],[[3484,1924],[-1,-2]],[[3483,1922],[0,-2]],[[3483,1920],[-1,-2]],[[3482,1918],[0,-2]],[[3482,1916],[-1,-3]],[[3481,1913],[-1,-1]],[[3480,1912],[0,-2]],[[3480,1910],[-1,-4]],[[3479,1906],[-1,-2]],[[3478,1904],[-1,-2]],[[3477,1902],[0,-2]],[[3477,1900],[-1,-1]],[[3476,1899],[-1,-2]],[[3475,1897]],[[3475,1897],[-2,-2]],[[3473,1895],[-1,-1]],[[3472,1894],[0,-1]],[[3472,1893],[-1,-1]],[[3471,1892],[-1,-1]],[[3470,1891],[-1,-2]],[[3469,1889],[-1,-1]],[[3468,1888],[-1,-1]],[[3467,1887]],[[3467,1887],[0,-1]],[[3467,1886],[-1,-1]],[[3466,1885],[0,-1]],[[3466,1884],[-1,0]],[[3465,1884],[-1,-2]],[[3469,1620],[-2,0]],[[3468,1890],[0,1]],[[3468,1891],[11,28]],[[3468,1891],[14,32]],[[3477,1616],[2,1]],[[3522,1649],[-1,-2]],[[3521,1647],[0,-2]],[[3521,1645],[-29,-25]],[[3492,1620],[-2,0]],[[3490,1620],[-2,-1]],[[3490,1940],[-1,-2]],[[3491,1619],[-1,1]],[[3492,1620],[-1,0]],[[3513,1626],[-1,-1]],[[3512,1625],[-3,-3],[-5,-2],[-4,-1],[-6,0]],[[3494,1619],[-1,0]],[[3512,1624],[-4,-2],[-5,-2],[-9,0]],[[3512,1625],[-3,-3],[-5,-2],[-4,-1],[-6,0]],[[3521,1649],[0,-1]],[[3521,1648],[0,-1]],[[3521,1647],[0,-2]],[[3523,1669],[-2,-19]],[[3521,1650],[0,-1]],[[3521,1649],[0,-1]],[[3521,1648],[0,-1]],[[3521,1651],[1,18]],[[3522,1669],[-1,-18]],[[3523,1669],[-2,-20]],[[3521,1649],[0,-2]],[[3521,1650],[0,-1]],[[3521,1649],[0,-2]],[[3523,1669],[-1,-19]],[[3522,1650],[-1,-1]],[[3522,1650],[1,19]],[[3524,1669],[-1,-15],[-1,-5]],[[3522,1649],[1,6],[1,14]],[[3535,2011],[-4,-5]],[[3534,2013],[5,4]],[[3536,2011],[-1,-1]],[[3548,2022],[-1,-1]],[[3571,2046],[-21,-20]],[[3553,2032],[1,1]],[[3554,2033],[16,14]],[[3570,2047]],[[3561,2036],[1,1]],[[3626,2168],[-1,-4],[-14,-69],[-3,-11],[-26,-28]],[[3582,2056],[-1,-2]],[[3581,2054],[-2,-1]],[[3579,2053],[-4,-4]],[[3575,2049],[-13,-12]],[[3563,2036],[11,12]],[[3573,2048],[-3,-4]],[[3571,2046],[2,2]],[[3573,2048],[2,1]],[[3579,2053],[6,6]],[[3581,2054],[-1,-1]],[[3582,2056],[2,1]],[[3645,2856],[33,-276],[-14,-351]],[[3664,2229],[-19,-34]],[[3645,2195],[-7,-9]],[[3638,2186],[-12,-18]],[[3641,2190],[-3,-4]],[[3655,2769],[-37,305],[-195,603],[11,166],[112,39],[17,64],[-19,63],[33,87]],[[1666,3205],[-62,64]],[[1604,3269],[-91,87],[-21,118]],[[3403,1612],[-174,141],[-242,377],[-71,44],[-344,88],[-119,74],[-136,297],[-176,109],[-355,313],[-182,214]],[[3522,1649],[-18,-28],[-64,-10],[-46,1],[-6,0],[-3,1],[-5,2],[-3,1],[-4,4],[-129,119],[-25,-14]],[[3524,1669],[-1,-15],[-1,-5]],[[3522,1649],[2,20]],[[2400,271],[-7,23],[-4,9],[-3,5]],[[2386,308],[-1,0]],[[2385,308],[-31,70],[36,84],[-17,19],[-224,-133],[-75,-6],[-448,-171]],[[1626,171],[-36,-14]],[[1590,157],[-45,-106],[-41,-27],[-4,-24]],[[1620,169],[-9,-3],[-19,-8]],[[1592,158],[-2,-1]],[[1626,171],[-6,-2]],[[1620,169],[-28,-11]],[[2385,308],[15,-40]],[[2386,308],[14,-37]],[[3190,1225],[-101,36],[-16,-78],[39,-85],[-27,-13],[-70,35]],[[3015,1120],[-1,-1]],[[3014,1119],[-28,-30]],[[2986,1089],[-2,-2]],[[2984,1087],[-57,-65],[-46,-132],[3,-245],[106,-237],[-19,-57],[-47,-39]],[[2924,312],[-31,-29]],[[2893,283],[-5,-4]],[[2888,279],[-63,-133],[-115,-146]],[[2629,0],[-23,29],[-58,15],[-98,75],[-50,149]],[[2400,268],[0,3]],[[2893,283],[28,26],[3,3]],[[2924,312],[-29,-28],[-7,-5]],[[2984,1087],[31,33]],[[3079,1252],[3,3],[3,3],[7,4],[5,3],[6,2],[4,1],[3,0],[3,0],[3,-1],[4,-2],[3,-1],[21,-19],[46,-20]],[[3181,1226],[-1,0]],[[3268,1590],[1,-57],[-22,-78]],[[3247,1455],[-33,-212],[-24,-18]],[[3265,1522],[-18,-67]],[[3268,1590],[0,1]],[[3522,1649],[-15,-27],[-68,-11],[-47,1],[-10,2],[-37,32]],[[3345,1646],[-73,0],[-4,-56]],[[3403,1612],[-58,34]],[[3524,1669],[-1,-15],[-1,-5]],[[3522,1649],[2,20]],[[3626,2168],[-16,-79],[-2,-6],[-2,-4],[-3,-3],[-70,-69],[-44,-70],[-53,-107],[6,-40],[-81,-150]],[[3361,1640],[-1,4],[0,6],[1,8],[1,4],[3,5],[9,14],[4,4],[10,10]],[[3403,1612],[-42,28]],[[3522,1649],[-34,-30]],[[3524,1669],[-1,-15],[-1,-5]],[[3522,1649],[2,20]],[[3626,3015],[-6,47],[-1,7],[-2,8],[-79,241]],[[3626,2168],[-18,-84],[-46,-47]],[[3645,2856],[33,-276],[-3,-293],[-49,-119]],[[3655,2769],[-37,305],[-190,576],[-5,27],[11,166],[112,39],[17,64],[-19,63],[33,87]],[[227,3298],[-219,-41],[-8,-5]],[[1507,3380],[6,-24],[19,-23],[2,-1],[1,-3],[0,-2],[0,-5],[-1,-4],[-2,-3],[-2,-2],[-2,-2],[-11,-6],[-11,-10],[-32,-57],[-8,-144],[-47,-75],[-18,-101],[-52,-50],[-108,32],[-515,371],[-12,1],[-209,0],[-112,-11],[-39,11],[-7,0],[-24,-3],[-8,1],[-86,29],[-221,-42],[-6,-2],[-2,-1]],[[578,3272],[-178,-11],[-7,0],[-5,1],[-34,9],[-25,-1]],[[1507,3380],[-15,96]],[[1492,3476],[-33,209],[66,262],[-20,149]],[[1459,3679],[33,-203]],[[1515,3304],[20,23],[-23,28],[-5,25]],[[2773,0],[32,31],[27,59],[58,166],[25,35],[46,25],[41,59],[63,121],[204,293],[84,170],[13,40],[-1,46],[-21,36],[-66,45],[-14,23],[26,27],[157,-12],[48,45],[120,160],[7,18],[26,128],[9,24],[10,21],[8,9],[15,12],[-14,25],[-22,21],[-11,0],[-20,86],[-49,106],[-10,56],[18,36],[86,121],[35,31],[29,-1],[122,-28],[37,10],[172,121],[33,13],[0,-2178],[-1323,0]],[[2765,351],[31,-29],[19,-12],[10,-14],[1,-31],[-10,-46],[-21,-35],[-21,-27],[-9,-24],[-15,-21],[-69,-68],[-25,-13],[-35,13],[-24,33],[-163,355],[-75,112],[-111,94],[-206,82],[-65,10],[-52,29],[-194,223],[-33,64],[-10,31],[-5,46],[7,27],[11,24],[6,31],[33,69],[228,95],[33,0],[28,-13],[22,-21],[16,-26],[-20,-83],[26,-88],[49,-75],[44,-46],[58,-13],[19,67],[7,103],[16,104],[33,-58],[19,-77],[8,-86],[1,-85],[27,-55],[172,-101],[27,-28],[14,-20],[8,-27],[9,-42],[2,-37],[-7,-30],[-8,-30],[-5,-33],[26,-55],[173,-163]],[[4096,2178],[-33,-13],[-172,-121],[-37,-10],[-122,28],[-29,1],[-35,-31],[-86,-121],[-18,-36],[10,-56],[49,-106],[20,-86],[11,0],[22,-21],[14,-25],[-15,-12],[-8,-9],[-10,-21],[-9,-24],[-26,-128],[-7,-18],[-120,-160],[-48,-45],[-157,12],[-26,-27],[14,-23],[66,-45],[21,-36],[1,-46],[-13,-40],[-84,-170],[-204,-293],[-63,-121],[-41,-59],[-46,-25],[-25,-35],[-58,-166],[-27,-59],[-32,-31]],[[2765,351],[31,-29],[19,-12],[10,-14],[1,-31],[-10,-46],[-21,-35],[-21,-27],[-9,-24],[-15,-21],[-69,-68],[-25,-13],[-35,13],[-24,33],[-163,355],[-75,112],[-111,94],[-206,82],[-65,10],[-52,29],[-194,223],[-33,64],[-10,31],[-5,46],[7,27],[11,24],[6,31],[33,69],[228,95],[33,0],[28,-13],[22,-21],[16,-26],[-20,-83],[26,-88],[49,-75],[44,-46],[58,-13],[19,67],[7,103],[16,104],[33,-58],[19,-77],[8,-86],[1,-85],[27,-55],[172,-101],[27,-28],[14,-20],[8,-27],[9,-42],[2,-37],[-7,-30],[-8,-30],[-5,-33],[26,-55],[173,-163]],[[306,3257],[-9,1]],[[292,3251],[9,-8]],[[370,3264],[54,-5],[-55,7]],[[3175,1743],[65,-40]],[[752,2411],[5,6]],[[1957,694],[121,-121],[105,-42]],[[592,2712],[12,-19]],[[804,2502],[37,-71]],[[3499,1385],[-18,75]],[[3219,1372],[16,-27]],[[3522,1674],[1,0]],[[0,3835],[4,-3]],[[51,3790],[130,-266]],[[2213,518],[46,-11]],[[3717,2201],[-15,-33],[-5,-10]],[[3697,2158],[-11,-23]],[[3687,2135],[10,23]],[[3697,2158],[20,44]],[[1035,2335],[3,-1]],[[3459,1699],[25,-33]],[[3703,2211],[14,-10]],[[3717,2202],[-14,10]],[[424,3259],[13,0]],[[1310,2809],[25,-4]],[[2725,3923],[31,-171]],[[1656,1427],[-52,-2]],[[3629,2170],[22,-13]],[[3518,1686],[6,-1]],[[3296,1599],[-31,0]],[[3265,1598],[31,1]],[[3326,1605],[-30,-6]],[[3069,1221],[-15,-110]],[[2211,498],[9,0]],[[3584,1811],[-50,-7]],[[3534,1804],[-3,-1]],[[3531,1803],[-8,-1],[35,-22],[-17,-21],[19,21],[-29,23]],[[3531,1803],[-2,1],[5,0]],[[3534,1804],[55,-6]],[[3427,1372],[44,7]],[[206,3245],[66,5]],[[3156,1749]],[[3171,1645],[-14,105]],[[0,3601],[261,26],[75,-44],[149,20],[87,-32],[77,-296],[85,-12],[438,-319],[61,-115],[33,-12]],[[2645,621],[36,129]],[[333,2023],[76,-53]],[[442,1956],[52,-9]],[[905,1899],[2,-1]],[[927,1867],[61,-94]],[[1604,1425],[-79,52],[-4,35],[-65,11],[-171,-147]],[[1724,1435],[-68,-8]],[[1241,2703],[-5,-2]],[[2751,43],[-1,0]],[[3180,1563],[2,-3]],[[3786,2073],[1,-3]],[[3787,2069],[-1,4]],[[1462,1112],[-1,-1],[1,0],[0,1]],[[3785,2074],[0,-1],[1,0],[0,1],[-1,0]],[[2673,450],[66,-58]],[[3242,1334],[45,1]],[[333,3234],[-27,23]],[[3784,2070],[37,2]],[[4002,2125],[94,53]],[[3444,1657],[0,-8]],[[423,3063],[1,-1]],[[427,3055],[25,-110]],[[465,2895],[35,-103]],[[858,2393],[21,-3]],[[3488,1512],[-1,0]],[[3662,2087],[-49,-37],[50,37]],[[3484,1666],[0,-18]],[[3179,1560],[-64,-86],[-46,-253]],[[3184,1565],[-2,0]],[[3183,1560],[6,-34]],[[3189,1526],[-4,35]],[[3189,1526],[22,-113]],[[3261,1152],[38,-100],[62,-25]],[[3472,1381],[-1,-2]],[[3474,1378],[-1,3]],[[3424,1642],[-51,-3]],[[3440,2126],[-1,-44]],[[1245,2724],[-4,-21]],[[1263,2816],[0,-1]],[[3427,1372],[1,3]],[[3429,1378],[2,9]],[[3686,2135],[-24,-48]],[[3663,2087],[24,48]],[[604,2693],[126,-71],[74,-120]],[[4096,295],[-734,735]],[[2867,315],[32,-17]],[[2213,518],[-4,-39]],[[3471,1380],[-42,-7]],[[3362,1033],[-59,23],[-42,96]],[[3332,1676],[-17,6]],[[3315,1682],[17,-6]],[[3332,1676],[21,-8]],[[3353,1668],[10,-2]],[[3363,1666],[-10,2]],[[879,2390],[15,-2]],[[1263,2815],[-18,-91]],[[3361,1027],[115,-295],[-355,-732]],[[369,3266],[-1,-2],[2,-1],[0,2],[-1,1]],[[3156,1749],[15,-104]],[[413,3098],[6,-23]],[[3746,2075],[38,-5]],[[3481,1544],[-1,0]],[[3373,1639],[-20,-12]],[[3513,1669],[-23,-37]],[[3516,1674],[-2,-3]],[[2370,332],[-41,65]],[[3368,1665],[4,0]],[[3372,1665],[-4,0]],[[3443,1657],[-71,8]],[[3764,2107],[-50,15]],[[2316,435],[-22,27]],[[3484,1687],[1,2]],[[757,2417],[56,66]],[[3211,1413],[8,-41]],[[3235,1345],[7,-11]],[[3018,1057],[-40,-59],[-222,-110],[-66,-106]],[[2249,450],[-12,-1]],[[3337,1760],[86,-50]],[[3398,2273],[42,-147]],[[3160,1749],[15,-6]],[[3525,1691],[-46,5]],[[3123,1954],[36,-57],[16,-24]],[[3197,1841],[-74,114]],[[3239,1795],[18,-7]],[[3257,1788],[-17,8]],[[3285,1777],[-28,11]],[[1052,4096],[166,-415],[-21,-171],[149,-397],[-12,-128]],[[1317,2851],[-5,-18]],[[2084,397],[-2,-1]],[[0,3232],[36,2]],[[3477,1815],[25,132]],[[412,3100],[1,-2]],[[3352,1626],[-26,-21]],[[3481,1460],[-7,33]],[[362,3251],[6,11]],[[1084,2328],[4,15]],[[181,3524],[18,-56]],[[3054,1111],[-36,-54]],[[3439,2082],[-14,-30]],[[3444,1649],[0,-7]],[[4096,308],[-734,725]],[[3487,1509],[1,0]],[[3667,2085],[-5,2]],[[3907,2103],[95,22]],[[3490,1513],[25,90]],[[49,3792],[-9,8],[-6,3],[6,-4],[9,-7]],[[49,3792],[2,-2]],[[3487,1512],[0,-3]],[[3488,1509],[0,3]],[[3155,1750],[1,-1]],[[3185,1902],[-34,-30],[1,-1]],[[3152,1871],[0,-18]],[[3152,1853],[4,-96],[0,-6]],[[3157,1750],[-1,4],[-4,99]],[[3152,1853],[-1,18],[1,0]],[[3152,1871],[2,2],[15,14],[16,15]],[[3291,1982],[-106,-80]],[[3306,1986],[-15,-4]],[[3341,2007],[-35,-21]],[[3478,2046],[-89,-9]],[[3478,2046],[54,16]],[[3532,2062],[44,23],[25,77],[28,8]],[[3254,1594],[-23,-9]],[[3232,1583],[20,9]],[[2294,462],[-45,-12]],[[2237,449],[-112,-40]],[[3516,1674],[6,0]],[[3525,1674],[0,1]],[[301,3243],[23,-20]],[[3474,1494],[0,-1]],[[3471,1379],[1,-1]],[[386,3175],[26,-75]],[[2321,410],[-5,24]],[[3054,1111],[72,-61],[59,1]],[[330,2026],[3,-3]],[[409,1970],[33,-14]],[[494,1947],[233,-3],[178,-45]],[[907,1898],[20,-31]],[[988,1773],[233,-276],[84,-162]],[[1305,1335],[0,-3],[4,-5],[-2,4],[-2,4]],[[1285,1376],[-1,-1]],[[386,3175],[-29,19]],[[1621,1312],[-127,-538],[9,-346],[-454,-181],[-361,-247]],[[1763,1440],[-18,-3]],[[1787,1443],[-19,-3]],[[1853,1444],[-12,1]],[[2132,1438],[-32,23]],[[2967,1695],[-452,-46],[-316,-185]],[[3124,1737],[-66,-17]],[[3514,1671],[-1,-2]],[[2706,4096],[19,-173]],[[2756,3752],[60,-251],[44,-85],[62,-65],[124,-65],[22,-304],[-53,-33],[-8,-58],[-50,-40],[141,-201],[40,8],[69,-76],[191,-309]],[[3525,1675],[-2,3]],[[3484,1648],[6,0]],[[3490,1648],[1,-1]],[[3491,1647],[-1,1]],[[3491,1647]],[[3491,1647],[7,-1]],[[3499,1382],[1,2]],[[3362,1033],[-59,23],[-42,96]],[[2277,4096],[74,-402],[155,-385],[110,-397],[3,-7]],[[2619,2905],[69,-139]],[[2688,2766],[8,-16],[127,-230],[98,-90],[202,-476]],[[3123,1955],[-202,475],[-99,93],[-125,226],[-1,1],[-8,16]],[[2688,2766],[-63,119],[-6,20]],[[2619,2905],[-48,171],[-65,235],[-154,381],[-74,404]],[[2730,6],[-7,-6]],[[324,3223],[33,-29]],[[1309,1327],[18,-37]],[[1330,1285],[-3,5]],[[1330,1285],[131,-172]],[[1461,1113],[0,-1]],[[1462,1112],[-1,1]],[[1462,1111],[1,-1]],[[1463,1110],[-1,2]],[[1463,1110],[230,-230],[264,-186]],[[894,2388],[141,-53]],[[2199,1464],[-3,-2]],[[3054,1719],[-42,-10]],[[3474,1493],[14,16]],[[3487,1509],[-13,-15]],[[3480,1544],[7,-32]],[[3488,1512],[-7,32]],[[3193,1166],[-8,-115]],[[841,2431],[17,-38]],[[3431,1387],[17,79],[-21,-94]],[[3428,1375],[1,3]],[[3523,1674],[2,1]],[[3361,1027],[115,-295],[-358,-732]],[[725,1945],[-19,178],[28,11],[-45,-7],[26,30],[-53,78],[87,171]],[[2681,750],[3,9]],[[3171,1645],[11,-76]],[[3182,1569],[-10,71]],[[3186,1563],[-2,2]],[[3189,1533],[-2,-1]],[[3188,1528],[1,0]],[[3667,2085],[79,-10]],[[2684,759],[7,17]],[[3525,1659],[-9,-51]],[[3516,1608],[-1,-4],[0,-1],[1,5]],[[3526,1672],[-1,2]],[[3723,2233],[-20,-22]],[[3703,2211],[20,22]],[[3723,2233],[69,101]],[[3792,2334],[17,28]],[[3809,2362],[-17,-28]],[[3434,1405],[1,0]],[[1549,1016],[4,17]],[[651,3269],[30,0]],[[3252,1592],[13,6]],[[3265,1599],[-11,-5]],[[3444,1642],[-20,0]],[[3589,1798],[133,-253],[-56,-709],[-31,-836]],[[4096,1399],[-332,346],[-180,66]],[[1295,2812],[15,-3]],[[3185,1051],[44,-9]],[[3197,1167],[-4,-1]],[[3199,1165],[-2,2]],[[3287,1335],[14,-156],[-102,-14]],[[419,3075],[4,-12]],[[452,2945],[13,-50]],[[3389,2037],[-48,-30]],[[324,3223],[38,28]],[[3337,1760]],[[3507,1660],[13,14]],[[3523,1674],[2,-15]],[[3473,1381],[-1,0]],[[3613,2050],[40,106]],[[4,3832],[6,-5]],[[3479,1696],[-54,13]],[[3589,1798],[133,-253],[-56,-709],[-31,-836]],[[67,3234],[139,11]],[[272,3250],[20,1]],[[2278,455],[-19,52]],[[229,3346],[-9,52]],[[240,3275],[-1,7]],[[3362,1030],[-61,24],[-40,98]],[[3653,2156],[34,-21]],[[368,3264],[1,-1]],[[1079,2351],[9,-8]],[[1335,2805],[461,-239],[143,-167],[198,-37],[219,-211],[70,-127],[223,-134],[218,-78]],[[3032,1777],[60,-13]],[[3100,1762],[24,-5]],[[10,3827],[24,-24]],[[3502,1947],[-35,-151]],[[3443,1657],[35,35]],[[1038,2334],[39,-25]],[[3485,1689],[33,-3]],[[3363,1666],[5,-1]],[[3368,1665],[-5,1]],[[2316,434],[5,-24]],[[3231,1585],[-47,-20]],[[3186,1563],[46,20]],[[3821,2072],[58,21]],[[220,3398],[0,1]],[[4096,295],[-734,735]],[[3502,1947],[111,103]],[[3523,1678],[-1,-4]],[[3467,1796],[5,0]],[[220,3399],[-21,69]],[[3584,1811],[-61,-9],[35,-22],[-17,-21]],[[1077,2309],[7,19]],[[3997,2646],[33,97],[45,39],[-32,101],[53,95]],[[1281,2815],[6,-2]],[[1287,2813],[3,-2],[5,1],[-8,1]],[[2867,1812],[165,-35]],[[3092,1764],[8,-2]],[[3124,1757],[30,-6]],[[3156,1751],[-2,0]],[[3154,1751],[1,-1]],[[3653,2156],[49,55]],[[3702,2211],[1,0]],[[3703,2211],[-1,0]],[[437,3259],[53,2]],[[3175,1873],[60,-72]],[[3235,1801],[4,-6]],[[3240,1796],[-5,5]],[[3235,1801],[-38,40]],[[3500,1384],[-1,-2]],[[2196,1462],[-54,-21]],[[50,3235],[17,-1]],[[3480,1547],[10,85]],[[3472,1796],[5,19]],[[4096,1399],[-332,346],[-180,66]],[[3472,1378],[2,0]],[[0,2195],[120,-86],[113,-3],[97,-80]],[[500,2792],[42,-17]],[[582,2724],[10,-12]],[[3489,1511],[-1,1]],[[2276,459],[-63,48]],[[542,2775],[40,-51]],[[3497,1384],[-23,-3]],[[3475,1379],[23,4]],[[2183,531],[30,-13]],[[1745,1437],[-58,-8],[-66,-117]],[[1768,1440],[-5,0]],[[1841,1445],[-54,-2]],[[2100,1461],[-87,95],[-88,-5],[-52,-42],[-20,-65]],[[725,1944],[0,1]],[[749,2406],[3,5]],[[3379,1641],[-10,26]],[[3157,1750],[1,1]],[[3299,1687],[4,0]],[[3427,1372],[-140,-37]],[[3240,1703],[33,-8]],[[3273,1695],[26,-8]],[[3300,1687],[-27,8]],[[3156,1751],[-1,-1]],[[3362,1030],[-61,24],[-40,98]],[[2209,479],[-4,-44]],[[3523,1678],[2,13]],[[4096,2670],[-109,-34],[-20,-48],[-42,-31],[-116,-195]],[[3809,2362],[117,195],[42,30],[20,49],[108,34]],[[3353,1627],[-1,-1]],[[3484,1685],[0,2]],[[4096,308],[-734,725]],[[3012,1709],[-45,-14]],[[3058,1720],[-4,-1]],[[3154,1749],[-30,-12]],[[3155,1750],[1,0]],[[3157,1751],[-1,0]],[[2082,396],[-215,39],[-154,-29],[-203,23]],[[2125,409],[-41,-12]],[[2628,0],[-21,27],[-59,13],[-98,76],[-43,126],[21,14],[-58,76]],[[2636,594],[37,-144]],[[2690,779],[0,3],[-2,-2]],[[2689,778],[2,-2],[-1,2]],[[2752,45],[-22,-39]],[[2730,6],[22,39]],[[2739,392],[128,-77]],[[2899,298],[-147,-253]],[[2690,778],[0,1],[-1,1],[-1,-2],[2,0]],[[2142,1441],[-10,-3]],[[3429,1373],[-2,-1]],[[3315,1682],[-10,5],[-5,0]],[[3303,1687],[12,-5]],[[297,3258],[-5,-7]],[[3687,2135],[27,-13]],[[3785,2074],[-21,33]],[[2636,594],[9,27]],[[1266,2817],[2,-1]],[[1273,2816],[-5,0]],[[1273,2816],[8,-1]],[[3156,1749],[1,1]],[[3261,1152],[38,-100],[62,-25]],[[3651,2157],[2,-1]],[[3541,1759],[19,21],[-31,24],[60,-6]],[[36,3234],[14,1]],[[3472,1492],[-24,-26]],[[3472,1492],[2,1]],[[3474,1494],[-2,-2]],[[3455,1792],[-27,-53],[-5,-30],[0,-67]],[[3424,1642],[31,150]],[[3467,1796],[-12,-4]],[[2329,397],[-8,13]],[[3423,1710],[2,-1]],[[239,3282],[-10,64]],[[243,3248],[-3,27]],[[3285,1777],[52,-17]],[[1312,2833],[-8,-23]],[[1334,2985],[-17,-134]],[[3172,1640],[-1,5]],[[3182,1569],[0,-9],[4,3]],[[3184,1565],[-2,4]],[[424,3062],[3,-7]],[[490,3261],[161,8]],[[2724,0],[6,6]],[[3879,2093],[28,10]],[[4096,2284],[0,-106],[-33,-13],[-172,-121],[-37,-10],[-122,28],[-29,1],[-35,-31],[-86,-121],[-18,-36],[10,-56],[49,-106],[20,-86],[11,0],[22,-21],[14,-25],[-15,-12],[-8,-9],[-10,-21],[-9,-24],[-26,-128],[-7,-18],[-120,-160],[-48,-45],[-157,12],[-26,-27],[14,-23],[66,-45],[21,-36],[1,-46],[-13,-40],[-84,-170],[-204,-293],[-63,-121],[-41,-59],[-46,-25],[-25,-35],[-58,-166],[-27,-59],[-32,-31],[-2773,0],[0,4096],[4096,0],[0,-1812]],[[2126,1496],[37,35],[53,-99],[-50,-71],[-40,135]],[[2024,470],[73,28],[-12,70],[127,-50],[-5,-34],[-76,23],[-16,-88],[-32,-23],[-31,12],[17,34],[-45,28]],[[1550,1913],[13,43],[61,25],[-15,-125],[68,-79],[-126,18],[21,72],[-22,46]],[[1337,2055],[110,-5],[46,-99],[-83,-67],[-9,103],[-64,68]],[[0,2630],[1,1],[58,69],[48,-25],[7,24],[-24,-2],[31,129],[56,13],[28,-19],[2,27],[163,14],[28,27],[22,-84],[22,26],[24,-33],[13,-94],[-86,-147],[67,-17],[26,29],[6,-54],[50,-32],[28,58],[44,-30],[52,20],[29,-28],[20,21],[51,-48],[-30,-38],[22,-54],[64,-33],[73,34],[83,-124],[29,12],[81,-31],[6,-29],[41,-3],[-27,-72],[24,-21],[2,-68],[29,-14],[-160,-28],[13,-21],[25,21],[40,-60],[-20,-21],[52,-25],[-24,-28],[67,-10],[-15,-34],[60,-12],[-13,-35],[71,66],[-24,-82],[45,50],[35,-12],[10,49],[19,-37],[-16,-32],[41,7],[-35,-44],[17,-51],[82,-22],[-82,-33],[90,-30],[-9,-47],[122,2],[-28,-31],[11,-38],[57,-11],[16,48],[34,-39],[-4,61],[32,-53],[23,16],[58,-53],[-8,-30],[41,7],[30,67],[26,-67],[-166,-94],[-29,-67],[-76,91],[-37,7],[-105,-66],[-72,29],[-47,-14],[-87,170],[-252,294],[-62,106],[-173,47],[-275,3],[-76,32],[-153,127],[-116,5],[-116,83],[0,435]],[[4041,2307],[55,7],[0,-131],[-26,-14],[-29,138]],[[2434,432],[30,-65],[-15,-10],[-36,-7],[-33,47],[-97,0],[-15,40],[-76,54],[-43,187],[99,-40],[111,-94],[75,-112]],[[3891,2044],[-19,-5],[25,195],[40,85],[32,8],[31,-43],[2,-162],[-111,-78]],[[3545,2516],[70,-29],[105,8],[93,-139],[23,-123],[-98,-172],[-70,-29],[-104,-157],[79,-248],[47,-46],[-42,-66],[-33,-146],[-168,-205],[-157,12],[-26,-27],[101,-104],[-25,-113],[-301,126],[-77,-2],[-5,70],[103,71],[97,236],[129,-47],[-65,235],[-97,47],[0,94],[-32,0],[41,257],[-19,144],[-54,23],[32,94],[21,-10],[11,-84],[97,0],[0,-47],[33,0],[0,-47],[97,-94],[39,37],[-72,151],[33,47],[52,44],[52,-7],[90,-84],[30,75],[-30,255]],[[3019,1636],[-154,173],[58,95],[72,-48],[65,-141],[-41,-79]],[[0,3208],[0,202],[18,0],[19,52],[14,-52],[161,141],[162,-47],[59,-54],[66,-132],[-44,-263],[16,-69],[32,0],[0,-94],[48,-44],[-15,-98],[-102,5],[-64,61],[-29,110],[0,154],[-61,7],[-133,-54],[-32,282],[-38,-3],[-32,-71],[-45,-33]],[[1560,3266],[-82,69],[-4,169],[194,-47],[-20,-153],[-88,-38]],[[1299,2656],[-52,0],[-4,109],[17,48],[52,32],[-13,-189]],[[1312,2845],[22,140],[43,1],[1,-57],[-66,-84]],[[1145,2281],[-92,46],[40,155],[70,22],[57,-67],[-5,-110],[-70,-46]],[[3678,2461],[0,64],[50,9],[30,-46],[26,9],[13,-51],[-76,-30],[-8,49],[-35,-4]],[[1911,1809],[68,4],[70,-32],[-28,-27],[70,-125],[-21,-21],[-135,91],[-24,110]],[[1580,1713],[23,18],[64,-31],[101,109],[75,-25],[35,-61],[-5,-52],[81,-41],[127,-128],[33,-69],[3,-94],[39,-65],[86,-12],[36,39],[24,-24],[32,-179],[-18,-108],[-161,-156],[-61,211],[-102,164],[44,96],[-79,31],[-162,-64],[-39,69],[107,78],[-40,99],[-28,-3],[-29,-79],[-63,72],[-34,-8],[-26,58],[-19,-12],[-43,54],[-1,113]],[[2111,1088],[36,-105],[13,-6],[51,111],[-15,26],[-85,-26]],[[1580,1713],[23,18],[64,-31],[101,109],[75,-25],[35,-61],[-5,-52],[81,-41],[127,-128],[33,-69],[-10,-126],[-44,-12],[-103,41],[-162,-64],[-39,69],[107,78],[-40,99],[-28,-3],[-29,-79],[-63,72],[-34,-8],[-26,58],[-19,-12],[-43,54],[-1,113]],[[3294,1503],[7,95],[21,3],[7,-43],[25,-2],[10,-110],[8,53],[19,3],[35,-55],[-78,-21],[-54,77]],[[3351,3453],[26,5],[17,77],[35,24],[25,-65],[-21,-6],[-11,-74],[-37,-3],[-9,-30],[-25,72]],[[2423,292],[37,25],[94,-121],[-34,23],[-33,-11],[13,-68],[-49,16],[15,67],[-43,69]],[[2574,823],[60,46],[44,-66],[12,-94],[-48,-95],[-19,3],[16,110],[-65,96]],[[934,973],[41,24],[26,-50],[19,-80],[-29,-45],[-31,19],[-26,132]],[[2978,1694],[76,32],[6,-216],[-30,137],[-40,-24],[-12,71]],[[1550,1913],[13,43],[61,25],[-15,-125],[68,-79],[-126,18],[21,72],[-22,46]],[[3567,2306],[12,64],[80,5],[12,-37],[-36,-49],[-42,-21],[-26,38]],[[171,2633],[12,33],[22,-16],[49,57],[-31,23],[-10,24],[25,13],[-26,41],[69,-46],[5,-73],[-115,-56]],[[407,2891],[125,8],[11,-128],[64,-76],[-139,-65],[-2,170],[-24,30],[-25,-21],[-10,82]],[[553,2596],[82,19],[37,37],[35,-75],[-59,-45],[-62,21],[-33,43]],[[19,3130],[17,62],[39,0],[0,-37],[56,-19],[-50,-70],[-62,64]],[[108,2913],[0,19],[56,92],[34,25],[39,12],[80,-57],[-3,-69],[-63,35],[2,-46],[-21,-11],[-36,23],[7,42],[-31,35],[-61,-82],[0,-52],[-3,34]],[[402,2920],[19,79],[3,77],[76,-79],[-27,-12],[3,-27],[-74,-38]],[[0,3817],[0,9],[12,1],[56,90],[44,-17],[-32,-103],[-30,-8],[-50,28]],[[60,3235],[7,55],[81,41],[3,80],[52,-34],[-7,-31],[5,-23],[-34,-13],[20,-12],[14,2],[14,101],[33,-23],[39,38],[55,-26],[-3,-35],[21,-26],[-13,41],[24,8],[11,-79],[89,-30],[-49,-15],[-3,-64],[26,-11],[-12,-52],[30,-24],[-42,11],[-18,-29],[-95,107],[-52,-2],[-21,35],[-155,-39],[7,42],[-27,7]],[[1277,2317],[106,-37],[17,-49],[39,-3],[-44,-46],[6,-44],[-60,-14],[-14,118],[-50,75]],[[1029,2305],[6,31],[56,28],[77,-37],[7,68],[-28,23],[44,-1],[22,-203],[-46,-77],[-51,4],[51,75],[-27,14],[1,34],[-112,41]],[[1231,2436],[68,185],[29,0],[-20,-142],[-43,-93],[-34,50]],[[247,2437],[29,0],[4,24],[112,-11],[26,-42],[-15,-44],[19,12],[47,-49],[1,-40],[-18,-7],[-13,44],[-60,7],[-6,93],[-79,9],[-28,-30],[-19,34]],[[741,2444],[44,74],[95,-80],[-1,-54],[-61,-34],[-23,44],[-34,-8],[-20,58]]]}