{"objects":{"water":{"type":"GeometryCollection","geometries":[{"type":"Polygon","properties":{"source":"naturalearthdata.com","kind":"ocean","area":1576712559132672,"sort_rank":200,"min_zoom":0.0,"id":1},"arcs":[[14]]},{"type":"LineString","properties":{"source":"naturalearthdata.com","kind":"ocean","sort_rank":205,"boundary":true,"min_zoom":0.0,"id":56},"arcs":[15]}]},"buildings":{"type":"GeometryCollection","geometries":[]},"places":{"type":"GeometryCollection","geometries":[{"type":"Point","properties":{"source":"openstreetmap.org","kind":"region","name":"Sinoe","kind_detail":"state","min_zoom":4.0,"id":2912811864},"coordinates":[2913,3240]},{"type":"Point","properties":{"source":"naturalearthdata.com","kind":"locality","name":"Greenville","population":10374,"region_capital":true,"min_zoom":6.0,"id":5804},"coordinates":[2345,2328]}]},"transit":{"type":"GeometryCollection","geometries":[]},"pois":{"type":"GeometryCollection","geometries":[]},"boundaries":{"type":"GeometryCollection","geometries":[{"type":"LineString","properties":{"name:pt":"Lib\u00e9ria","name:ps":"\u0644\u0627\u064a\u0628\u06d0\u0631\u064a\u0627","name:ka":"\u10da\u10d8\u10d1\u10d4\u10e0\u10d8\u10d0","name:ko":"\ub77c\uc774\ubca0\ub9ac\uc544","name:cv":"\u041b\u0438\u0431\u0435\u0440\u0438","name:cs":"Lib\u00e9rie","name:tt":"\u041b\u0438\u0431\u0435\u0440\u0438\u044f","name:kw":"Liberi","name:tk":"Liberi\u00fda","name:ku":"L\u00eeberya","name:os":"\u041b\u0438\u0431\u0435\u0440\u0438","name:or":"\u0b32\u0b3e\u0b07\u0b2c\u0b47\u0b30\u0b3f\u0b06","name:ce":"\u041b\u0438\u0431\u0435\u0440\u0438","name:ta":"\u0bb2\u0bc8\u0baa\u0bc0\u0bb0\u0bbf\u0baf\u0bbe","name:tg":"\u041b\u0438\u0431\u0435\u0440\u0438\u044f","name:ca":"Lib\u00e8ria","source":"openstreetmap.org","sort_rank":262,"name:hr":"Liberija","name:de":"Republik Liberia","name:tr":"Liberya","name:kn":"\u0cb2\u0cc8\u0cac\u0cc0\u0cb0\u0cbf\u0caf","name:dv":"\u078d\u07a6\u0787\u07a8\u0784\u07a9\u0783\u07a8\u0787\u07a7","name:lv":"Lib\u0113rija","name:lt":"Liberija","name:uz":"Liberiya","name:kk":"\u041b\u0438\u0431\u0435\u0440\u0438\u044f","name:he":"\u05dc\u05d9\u05d1\u05e8\u05d9\u05d4","name:eo":"Liberio","name:ur":"\u0644\u0627\u0626\u0628\u06cc\u0631\u06cc\u0627","name:uk":"\u041b\u0456\u0431\u0435\u0440\u0456\u044f","name:hy":"\u053c\u056b\u0562\u0565\u0580\u056b\u0561","name:ug":"\u0644\u0649\u0628\u06d0\u0631\u0649\u064a\u06d5","name:hu":"Lib\u00e9ria","name:qu":"Libirya","name:oc":"Lib\u00e8ria","name:el":"\u039b\u03b9\u03b2\u03b5\u03c1\u03af\u03b1","kind":"country","name:ts":"Layiberiya","name":"Liberia","min_zoom":8.0,"name:th":"\u0e1b\u0e23\u0e30\u0e40\u0e17\u0e28\u0e44\u0e25\u0e1a\u0e35\u0e40\u0e23\u0e35\u0e22","name:yi":"\u05dc\u05d9\u05d1\u05e2\u05e8\u05d9\u05e2","name:et":"Libeeria","name:yo":"L\u00e0\u00ecb\u00e9r\u00ed\u00e0","name:mt":"Liberja","name:az":"Liberiya","name:mr":"\u0932\u093e\u092f\u092c\u0947\u0930\u093f\u092f\u093e","name:ar":"\u0644\u064a\u0628\u064a\u0631\u064a\u0627","name:my":"\u101c\u102d\u102f\u1000\u103a\u1018\u1031\u1038\u101b\u102e\u1038\u101a\u102c\u1038\u1014\u102d\u102f\u1004\u103a\u1004\u1036","official_name":"Republic of Liberia","name:is":"L\u00edber\u00eda","name:am":"\u120b\u12ed\u1264\u122a\u12eb","name:ru":"\u041b\u0438\u0431\u0435\u0440\u0438\u044f","name:ml":"\u0d32\u0d48\u0d2c\u0d40\u0d30\u0d3f\u0d2f","name:rw":"Liberiya","id":-192780,"name:mk":"\u041b\u0438\u0431\u0435\u0440\u0438\u0458\u0430","name:af":"Liberi\u00eb","name:zu":"ILiberia","name:ss":"ILibheriya","name:ff":"Labiriyaa","kind_detail":"2","name:hi":"\u0932\u093e\u0907\u092c\u0947\u0930\u093f\u092f\u093e","name:ba":"\u041b\u0438\u0431\u0435\u0440\u0438\u044f","name:zh-yue":"\u5229\u6bd4\u5229\u4e9e","name:fy":"Libearia","name:vo":"Liber\u00e4n","name:zh":"\u5229\u6bd4\u91cc\u4e9a","name:sl":"Liberija","name:sk":"Lib\u00e9ria","name:ja":"\u30ea\u30d9\u30ea\u30a2","name:sh":"Liberija","name:sg":"Liber\u00efa","name:sc":"Lib\u00e8ria","name:sa":"\u0932\u093e\u092f\u092c\u0940\u0930\u093f\u092f\u093e","name:bs":"Liberija","name:bn":"\u09b2\u09be\u0987\u09ac\u09c7\u09b0\u09bf\u09af\u09bc\u09be","name:bo":"\u0f63\u0f72\u0f0b\u0f56\u0f7a\u0f0b\u0f62\u0f72\u0f0b\u0f61\u0f0d","name:be":"\u041b\u0456\u0431\u0435\u0440\u044b\u044f","name:bg":"\u041b\u0438\u0431\u0435\u0440\u0438\u044f","name:wo":"Libeeria","name:sr":"\u041b\u0438\u0431\u0435\u0440\u0438\u0458\u0430","osm_relation":true,"name:ga":"An Lib\u00e9ir","name:gd":"Lib\u00e8iria","name:ht":"Liberya","name:fa":"\u0644\u06cc\u0628\u0631\u06cc\u0627","maritime_boundary":true,"name:gv":"Yn Laibeer"},"arcs":[0]},{"type":"LineString","properties":{"kind":"region","name":"Grand Bassa County - River Cess County","sort_rank":256,"kind_detail":"4","id:right":-3315299,"source":"openstreetmap.org","min_zoom":8.0,"id:left":-3320951,"name:left":"Grand Bassa County","id":-3320951,"osm_relation":true,"name:right":"River Cess County"},"arcs":[1]},{"type":"LineString","properties":{"kind":"region","name":"Grand Bassa County","sort_rank":256,"kind_detail":"4","source":"openstreetmap.org","min_zoom":8.0,"id":-3320951,"osm_relation":true},"arcs":[2]},{"type":"LineString","properties":{"kind":"region","name":"Grand Bassa County","sort_rank":256,"kind_detail":"4","min_zoom":8.0,"source":"openstreetmap.org","maritime_boundary":true,"id":-3320951,"osm_relation":true},"arcs":[3]},{"type":"LineString","properties":{"kind":"region","name":"River Cess County - Sinoe County","sort_rank":256,"kind_detail":"4","id:right":-3315211,"source":"openstreetmap.org","min_zoom":8.0,"id:left":-3315299,"name:left":"River Cess County","id":-3315299,"osm_relation":true,"name:right":"Sinoe County"},"arcs":[4]},{"type":"MultiLineString","properties":{"kind":"region","name":"River Cess County","sort_rank":256,"kind_detail":"4","source":"openstreetmap.org","min_zoom":8.0,"id":-3315299,"osm_relation":true},"arcs":[[5],[6]]},{"type":"LineString","properties":{"kind":"region","name":"River Cess County","sort_rank":256,"kind_detail":"4","min_zoom":8.0,"source":"openstreetmap.org","maritime_boundary":true,"id":-3315299,"osm_relation":true},"arcs":[7]},{"type":"LineString","properties":{"kind":"region","name":"Sinoe County - Grand Kru County","sort_rank":256,"kind_detail":"4","id:right":-3315170,"source":"openstreetmap.org","min_zoom":8.0,"id:left":-3315211,"name:left":"Sinoe County","id":-3315211,"osm_relation":true,"name:right":"Grand Kru County"},"arcs":[8]},{"type":"MultiLineString","properties":{"kind":"region","name":"Sinoe County","sort_rank":256,"kind_detail":"4","source":"openstreetmap.org","min_zoom":8.0,"id":-3315211,"osm_relation":true},"arcs":[[9],[10]]},{"type":"LineString","properties":{"kind":"region","name":"Sinoe County","sort_rank":256,"kind_detail":"4","min_zoom":8.0,"source":"openstreetmap.org","maritime_boundary":true,"id":-3315211,"osm_relation":true},"arcs":[11]},{"type":"LineString","properties":{"kind":"region","name":"Grand Kru County","sort_rank":256,"kind_detail":"4","source":"openstreetmap.org","min_zoom":8.0,"id":-3315170,"osm_relation":true},"arcs":[12]},{"type":"LineString","properties":{"kind":"region","name":"Grand Kru County","sort_rank":256,"kind_detail":"4","min_zoom":8.0,"source":"openstreetmap.org","maritime_boundary":true,"id":-3315170,"osm_relation":true},"arcs":[13]}]},"roads":{"type":"GeometryCollection","geometries":[{"type":"MultiLineString","properties":{"sort_rank":380,"kind_detail":"primary","min_zoom":8.0,"kind":"major_road","source":"openstreetmap.org"},"arcs":[[16],[17]]}]},"earth":{"type":"GeometryCollection","geometries":[{"type":"Polygon","properties":{"sort_rank":10,"source":"naturalearthdata.com","kind":"earth","min_zoom":0.0,"id":4693},"arcs":[[18]]}]},"landuse":{"type":"GeometryCollection","geometries":[]}},"type":"Topology","transform":{"translate":[-9.84375,4.2149431414],"scale":[0.0003433228,0.0003420514]},"arcs":[[[0,3473],[95,-71],[245,-277],[179,-109],[166,-223],[406,-357],[144,-165],[461,-260],[369,-283],[406,-125],[269,-228],[272,-159],[401,-211],[190,-38],[247,-177],[246,-90]],[[331,3969],[-10,69],[67,27],[-5,31]],[[318,3975],[13,-6]],[[159,4096],[159,-121]],[[1202,3106],[43,-28],[18,22],[-48,52],[3,50],[126,52],[20,61],[144,67],[22,44],[-10,109],[66,12],[17,26],[-42,91],[40,79],[6,110],[131,71],[32,59],[97,12],[79,70],[126,7],[105,-25],[4,49]],[[331,3969],[13,-10]],[[1192,3112],[10,-6]],[[344,3959],[12,-29],[378,-249],[26,-70],[-34,-47],[146,-60],[121,-84],[37,-53],[4,-74],[158,-181]],[[3305,1731],[44,66],[259,221],[131,240],[357,12]],[[1202,3106],[51,-37]],[[3292,1733],[13,-2]],[[1253,3069],[109,-70],[2,-40],[84,-62],[159,-79],[25,-52],[-41,-32],[264,-115],[104,-89],[134,-55],[27,-58],[205,-89],[22,-89],[345,-91],[157,-71],[52,-46],[0,-36],[116,-60],[42,-71],[191,-64],[23,-33],[-14,-14],[33,-20]],[[3305,1731],[15,-3]],[[3320,1728],[264,-80],[204,-96],[189,-116],[26,-46],[93,-63]],[[216,4096],[212,-204],[291,-169],[47,-70],[-7,-28],[-34,-43],[3,-29],[18,1],[82,-16],[9,-5],[42,-10],[52,-27],[47,-33],[31,-29],[26,-52],[31,-106],[20,-44],[340,-320],[57,-29],[65,-25],[59,-32],[38,-53],[-38,0],[39,-52],[49,-25],[52,-19],[91,-68],[101,-48],[46,-29],[167,-145],[103,-60],[127,-35],[-5,-10],[-1,-4],[-2,-1],[-10,-7],[50,-38],[69,-32],[71,-21],[90,-14],[60,-27],[30,-6],[90,-41],[75,-49],[205,-173],[90,-48],[407,-149],[167,-94],[325,-230],[3,-1],[0,-1347],[-4096,0],[0,4096],[216,0]],[[216,4096],[212,-204],[291,-169],[47,-70],[-7,-28],[-34,-43],[3,-29],[18,1],[82,-16],[9,-5],[42,-10],[52,-27],[47,-33],[31,-29],[26,-52],[31,-106],[20,-44],[340,-320],[57,-29],[65,-25],[59,-32],[38,-53],[-38,0],[39,-52],[49,-25],[52,-19],[91,-68],[101,-48],[46,-29],[167,-145],[103,-60],[127,-35],[-5,-10],[-1,-4],[-2,-1],[-10,-7],[50,-38],[69,-32],[71,-21],[90,-14],[60,-27],[30,-6],[90,-41],[75,-49],[205,-173],[90,-48],[407,-149],[167,-94],[325,-230],[3,-1]],[[1525,4096],[-7,-54],[102,-118],[2,-40],[62,-18],[66,-102],[54,-5],[81,-92],[83,-2],[99,-120],[53,15],[93,-66],[-1,-232],[177,-188]],[[2984,2462],[-72,-27],[-51,-81],[-84,-67],[-58,13],[-143,-34],[-68,28],[-94,-37],[-116,107],[-48,169],[20,95],[-26,42],[54,78],[98,338],[42,56],[148,39],[24,43],[130,21],[34,78],[111,79],[143,33],[47,59],[165,73],[65,173],[91,10],[169,134],[128,4],[89,136],[158,72]],[[4096,1347],[-3,1],[-325,230],[-167,94],[-407,149],[-90,48],[-205,173],[-75,49],[-90,41],[-30,6],[-60,27],[-90,14],[-71,21],[-69,32],[-50,38],[10,7],[2,1],[1,4],[5,10],[-127,35],[-103,60],[-167,145],[-46,29],[-101,48],[-91,68],[-52,19],[-49,25],[-39,52],[38,0],[-38,53],[-59,32],[-65,25],[-57,29],[-340,320],[-20,44],[-31,106],[-26,52],[-31,29],[-47,33],[-52,27],[-42,10],[-9,5],[-82,16],[-18,-1],[-3,29],[34,43],[7,28],[-47,70],[-291,169],[-212,204],[3880,0],[0,-2749]]]}