{"objects":{"water":{"type":"GeometryCollection","geometries":[{"type":"MultiPolygon","properties":{"source":"naturalearthdata.com","kind":"ocean","area":1576712559132672,"sort_rank":200,"min_zoom":0.0,"id":1},"arcs":[[[40],[41]],[[42],[43],[44]]]},{"type":"MultiLineString","properties":{"source":"naturalearthdata.com","kind":"ocean","sort_rank":205,"boundary":true,"min_zoom":0.0,"id":19},"arcs":[[45],[46]]},{"type":"MultiLineString","properties":{"source":"naturalearthdata.com","kind":"ocean","sort_rank":205,"boundary":true,"min_zoom":0.0,"id":3754},"arcs":[[47],[48]]}]},"buildings":{"type":"GeometryCollection","geometries":[]},"places":{"type":"GeometryCollection","geometries":[{"type":"Point","properties":{"kind":"locality","name":"Leiria","name:lt":"Leirija","kind_detail":"city","name:ar":"\u0644\u064a\u0631\u064a\u0627","source":"openstreetmap.org","min_zoom":8.0,"country_capital":true,"id":25254934,"population":126897},"coordinates":[3020,3470]},{"type":"Point","properties":{"source":"openstreetmap.org","kind":"locality","name":"Mafra","kind_detail":"town","population":76685,"min_zoom":8.0,"id":25611738},"coordinates":[1502,431]},{"type":"Point","properties":{"admin_level":"7","kind":"locality","name":"Santar\u00e9m","name:lt":"Santarenas","kind_detail":"city","name:ar":"\u0634\u0646\u062a\u0631\u064a\u0646","name:sr":"\u0421\u0430\u043d\u0442\u0430\u0440\u0435\u043c","source":"openstreetmap.org","min_zoom":8.0,"name:ru":"\u0421\u0430\u043d\u0442\u0430\u0440\u0435\u043d","id":25254933,"population":62200},"coordinates":[3370,1559]},{"type":"Point","properties":{"source":"openstreetmap.org","kind":"locality","name":"Alcoba\u00e7a","kind_detail":"town","population":56693,"min_zoom":8.0,"id":2942663922},"coordinates":[2527,2748]},{"type":"Point","properties":{"source":"openstreetmap.org","kind":"locality","name":"Marinha Grande","kind_detail":"town","population":38681,"min_zoom":8.0,"id":25278381},"coordinates":[2662,3493]},{"type":"Point","properties":{"admin_level":"7","kind":"locality","name":"Cartaxo","kind_detail":"town","source":"openstreetmap.org","min_zoom":8.0,"id":25615637,"population":11370},"coordinates":[3080,1278]},{"type":"Point","properties":{"source":"openstreetmap.org","kind":"locality","name":"Nazar\u00e9","kind_detail":"town","population":10224,"min_zoom":8.0,"id":25278374},"coordinates":[2253,2940]},{"type":"Point","properties":{"source":"openstreetmap.org","kind":"locality","name":"S\u00e3o Martinho do Porto","kind_detail":"town","population":2868,"min_zoom":8.0,"id":1864124506},"coordinates":[2068,2603]}]},"transit":{"type":"GeometryCollection","geometries":[{"type":"MultiLineString","properties":{"source":"openstreetmap.org","kind":"train","name":"Elevador da Nazar\u00e9","sort_rank":275,"min_zoom":6.0,"osm_relation":true},"arcs":[[19],[20],[21]]},{"type":"LineString","properties":{"kind":"train","name":"Santar\u00e9m > Setil (Linha do Norte, Porto > Lisboa) - Linha 2","sort_rank":275,"source":"openstreetmap.org","min_zoom":6.0,"operator":"Rede Ferrovi\u00e1ria Nacional - REFER, E.P.E.","id":-2080721,"osm_relation":true},"arcs":[22]},{"type":"LineString","properties":{"kind":"train","name":"Entroncamento > Santar\u00e9m (Linha do Norte, Porto > Lisboa) - Linha 2","sort_rank":275,"source":"openstreetmap.org","min_zoom":6.0,"operator":"Rede Ferrovi\u00e1ria Nacional - REFER, E.P.E.","id":-2076385,"osm_relation":true},"arcs":[23]},{"type":"MultiLineString","properties":{"source":"openstreetmap.org","kind":"train","name":"Ramal de Lamarosa - Cimpor","service":"spur","sort_rank":275,"min_zoom":6.0,"osm_relation":true},"arcs":[[24],[25],[26],[27],[28]]},{"type":"MultiLineString","properties":{"osm_relation":true,"source":"openstreetmap.org","kind":"train","name":"Alverca > Setil (Linha do Norte, Lisboa > Porto) - Linha 1","sort_rank":275,"min_zoom":6.0,"operator":"Rede Ferrovi\u00e1ria Nacional - REFER, E.P.E."},"arcs":[[29],[30],[31]]},{"type":"LineString","properties":{"kind":"train","name":"Setil > Alverca (Linha do Norte, Porto > Lisboa) - Linha 2","sort_rank":275,"source":"openstreetmap.org","min_zoom":6.0,"operator":"Rede Ferrovi\u00e1ria Nacional - REFER, E.P.E.","id":-2082330,"osm_relation":true},"arcs":[32]},{"type":"MultiLineString","properties":{"osm_relation":true,"source":"openstreetmap.org","kind":"train","name":"Entroncamento > Coimbra (Linha do Norte, Lisboa > Porto) - Linha 1","sort_rank":275,"min_zoom":6.0,"operator":"Rede Ferrovi\u00e1ria Nacional - REFER, E.P.E."},"arcs":[[33],[34]]},{"type":"LineString","properties":{"source":"openstreetmap.org","kind":"train","name":"Linha da Beira Baixa","sort_rank":275,"min_zoom":6.0,"osm_relation":true,"id":-2355657},"arcs":[35]},{"type":"LineString","properties":{"kind":"train","name":"Concord\u00e2ncia do Norte de Setil (linha n\u00famero 69)","sort_rank":275,"source":"openstreetmap.org","min_zoom":6.0,"operator":"Rede Ferrovi\u00e1ria Nacional - REFER, E.P.E.","id":-2082329,"osm_relation":true},"arcs":[36]},{"type":"LineString","properties":{"kind":"train","name":"Setil > Santar\u00e9m (Linha do Norte, Lisboa > Porto) - Linha 1","sort_rank":275,"source":"openstreetmap.org","min_zoom":6.0,"operator":"Rede Ferrovi\u00e1ria Nacional - REFER, E.P.E.","id":-2080722,"osm_relation":true},"arcs":[37]},{"type":"LineString","properties":{"osm_relation":true,"source":"openstreetmap.org","kind":"train","name":"Coimbra > Entroncamento (Linha do Norte, Porto > Lisboa) - Linha 2","sort_rank":275,"min_zoom":6.0,"operator":"Rede Ferrovi\u00e1ria Nacional - REFER, E.P.E."},"arcs":[38]},{"type":"LineString","properties":{"kind":"train","name":"Santar\u00e9m > Entroncamento (Linha do Norte, Lisboa > Porto) - Linha 1","sort_rank":275,"source":"openstreetmap.org","min_zoom":6.0,"operator":"Rede Ferrovi\u00e1ria Nacional - REFER, E.P.E.","id":-2076343,"osm_relation":true},"arcs":[39]}]},"pois":{"type":"GeometryCollection","geometries":[{"type":"Point","properties":{"kind":"protected_area","name:en":"Site of Community Importance Serras d'Aire e Candeeiros","tier":2,"protect_class":"97","short_name":"SIC Serras de Aire e Candeeiros","area":744062000,"source":"openstreetmap.org","min_zoom":7.0,"operator":"ICNF","id":-6805552,"osm_relation":true,"name":"Serras d'Aire e Candeeiros"},"coordinates":[3055,2553]},{"type":"Point","properties":{"kind":"nature_reserve","name":"Reserva Natural do Estu\u00e1rio do Tejo","area":189107000,"name:de":"Naturreservat Tajo-M\u00fcndung","source":"openstreetmap.org","min_zoom":8.51,"tier":2,"id":-6301185,"osm_relation":true},"coordinates":[2530,75]},{"type":"Point","properties":{"kind":"nature_reserve","name:en":"Serras de Aire e Candeeiros Nature Park","tier":2,"protect_class":"2","short_name":"PNSAC","area":645694000,"source":"openstreetmap.org","min_zoom":7.62,"operator":"ICNF","id":-540545,"osm_relation":true,"name":"Parque Natural das Serras de Aire e Candeeiros"},"coordinates":[3042,2497]},{"type":"Point","properties":{"source":"openstreetmap.org","kind":"nature_reserve","name":"Reserva Natural das Berlengas - Oceano","area":160167000,"tier":2,"min_zoom":8.63,"id":423803267},"coordinates":[949,2370]}]},"boundaries":{"type":"GeometryCollection","geometries":[{"type":"LineString","properties":{"name:kg":"Mputulukesi","name:ty":"P\u014dt\u012bt\u012b","name:ps":"\u067e\u0631\u062a\u06ab\u0627\u0644","name:ka":"\u10de\u10dd\u10e0\u10e2\u10e3\u10d2\u10d0\u10da\u10d8\u10d0","name:ko":"\ud3ec\ub974\ud22c\uac08","name:cv":"\u041f\u043e\u0440\u0442\u0443\u0433\u0430\u043b\u0438","name:cu":"\u041f\u043e\u0440\u0442\u043e\u0433\u0430\u043b\u0457\ua657","name:cs":"Portugalsko","name:tt":"\u041f\u043e\u0440\u0442\u0443\u0433\u0430\u043b\u0438\u044f","name:co":"Portugallu","name:kv":"\u041f\u043e\u0440\u0442\u0443\u0433\u0430\u043b\u0438\u044f","name:ku":"Port\u00fbgal","name:az":"Portuqaliya","name:zh-min-nan":"Ph\u00fb-t\u00f4-g\u00e2","name:os":"\u041f\u043e\u0440\u0442\u0443\u0433\u0430\u043b\u0438","name:or":"\u0b2a\u0b30\u0b4d\u0b24\u0b4d\u0b24\u0b41\u0b17\u0b3e\u0b32","name:ce":"\u041f\u043e\u0440\u0442\u0443\u0433\u0430\u043b\u0438","name:ta":"\u0baa\u0bcb\u0bb0\u0bcd\u0ba4\u0bcd\u0ba4\u0bc1\u0b95\u0bb2\u0bcd","name:tg":"\u041f\u043e\u0440\u0442\u0443\u0433\u0430\u043b\u0438\u044f","name:ky":"\u041f\u043e\u0440\u0442\u0443\u0433\u0430\u043b\u0438\u044f","name:te":"\u0c2a\u0c4b\u0c30\u0c4d\u0c1a\u0c41\u0c17\u0c32\u0c4d","name:cy":"Portiwgal","sort_rank":262,"name:ln":"Pulutugal","name:ba":"\u041f\u043e\u0440\u0442\u0443\u0433\u0430\u043b\u0438\u044f","name:dz":"\u0f54\u0f7c\u0f62\u0f0b\u0f45\u0f74\u0f0b\u0f42\u0f63\u0f0b","source":"openstreetmap.org","name:sq":"Portugalia","name:kn":"\u0caa\u0ccb\u0cb0\u0ccd\u0c9a\u0cc1\u0c97\u0cb2\u0ccd","name:dv":"\u0795\u07af\u0797\u07aa\u078e\u07a6\u078d\u07b0","name:km":"\u1794\u17d2\u179a\u1791\u17c1\u179f \u1796\u17d0\u179a\u1791\u17bb\u1799\u17a0\u17d2\u1782\u17b6\u179b\u17cb","name:lv":"Portug\u0101le","name:lt":"Portugalija","name:hi":"\u092a\u0941\u0930\u094d\u0924\u0917\u093e\u0932","name:kk":"\u041f\u043e\u0440\u0442\u0443\u0433\u0430\u043b\u0438\u044f","name:he":"\u05e4\u05d5\u05e8\u05d8\u05d5\u05d2\u05dc","name:eo":"Portugalujo","name:ur":"\u067e\u0631\u062a\u06af\u0627\u0644","name:la":"Portugallia","name:uk":"\u041f\u043e\u0440\u0442\u0443\u0433\u0430\u043b\u0456\u044f","name:hy":"\u054a\u0578\u0580\u057f\u0578\u0582\u0563\u0561\u056c\u056b\u0561","name:ug":"Portugaliye","name:hu":"Portug\u00e1lia","name:qu":"Purtugal","name:el":"\u03a0\u03bf\u03c1\u03c4\u03bf\u03b3\u03b1\u03bb\u03af\u03b1","kind":"country","name":"Portugal","name:tk":"Portugali\u00fda","min_zoom":8.0,"name:th":"\u0e1b\u0e23\u0e30\u0e40\u0e17\u0e28\u0e42\u0e1b\u0e23\u0e15\u0e38\u0e40\u0e01\u0e2a","name:yi":"\u05e4\u05d0\u05e8\u05d8\u05d5\u05d2\u05d0\u05dc","name:yo":"P\u1ecd\u0301rt\u00fag\u00e0l","name:ay":"Purtuwal","name:mt":"Portugall","alt_name:eo":"Portugalio","name:ro":"Portugalia","name:mr":"\u092a\u094b\u0930\u094d\u0924\u0941\u0917\u093e\u0932","name:ar":"\u0627\u0644\u0628\u0631\u062a\u063a\u0627\u0644","name:my":"\u1015\u1031\u102b\u103a\u1010\u1030\u1002\u102e\u1014\u102d\u102f\u1004\u103a\u1004\u1036","official_name":"Rep\u00fablica Portuguesa","name:kw":"Portyngal","name:is":"Port\u00fagal","name:am":"\u1356\u122d\u1271\u130b\u120d","name:it":"Portogallo","name:ru":"\u041f\u043e\u0440\u0442\u0443\u0433\u0430\u043b\u0438\u044f","name:vi":"B\u1ed3 \u0110\u00e0o Nha","name:rw":"Porutigali","name:mi":"Potukara","name:pl":"Portugalia","name:mk":"\u041f\u043e\u0440\u0442\u0443\u0433\u0430\u043b\u0438\u0458\u0430","name:vo":"Portug\u00e4n","name:zu":"IPhothugali","name:mn":"\u041f\u043e\u0440\u0442\u0443\u0433\u0430\u043b","name:ss":"IPhuthukezi","kind_detail":"2","name:uz":"Portugaliya","name:mg":"P\u00f4rtogaly","id":-295480,"name:zh-yue":"\u8461\u8404\u7259","name:fy":"Portegal","name:zh":"\u8461\u8404\u7259","name:so":"Bortuqaal","name:sl":"Portugalska","name:sk":"Portugalsko","name:ja":"\u30dd\u30eb\u30c8\u30ac\u30eb","name:si":"\u0db4\u0dd8\u0dad\u0dd4\u0d9c\u0dcf\u0dbd\u0dba","name:fa":"\u067e\u0631\u062a\u063a\u0627\u0644","name:na":"Portsiugar","name:sc":"Portogallo","name:ne":"\u092a\u094b\u0930\u094d\u091a\u0941\u0917\u0932","name:sa":"\u092a\u0941\u0930\u094d\u0924\u0917\u093e\u0932","name:bn":"\u09aa\u09b0\u09cd\u09a4\u09c1\u0997\u09be\u09b2","name:bo":"\u0f54\u0f7c\u0f0b\u0f45\u0f74\u0f0b\u0f42\u0fb7\u0f63\u0f0d","name:ml":"\u0d2a\u0d4b\u0d7c\u0d1a\u0d4d\u0d1a\u0d41\u0d17\u0d7d","name:sw":"Ureno","name:be":"\u041f\u0430\u0440\u0442\u0443\u0433\u0430\u043b\u0456\u044f","name:bg":"\u041f\u043e\u0440\u0442\u0443\u0433\u0430\u043b\u0438\u044f","name:wo":"Portugaal","name:sr":"\u041f\u043e\u0440\u0442\u0443\u0433\u0430\u043b\u0438\u0458\u0430","osm_relation":true,"name:tr":"Portekiz","name:ga":"An Phortaing\u00e9il","name:gd":"A' Phortagail","name:ht":"P\u00f2tigal","name:gn":"Poytuga","maritime_boundary":true,"name:gv":"Yn Phortiugal","name:gu":"\u0aaa\u0acb\u0ab0\u0acd\u0a9f\u0ac1\u0a97\u0ab2","name:fi":"Portugali"},"arcs":[0]},{"type":"MultiLineString","properties":{"name:right:ru":"\u0410\u043b\u0435\u043d\u0442\u0435\u0436\u0443","min_zoom":8.0,"id:right":-5378337,"id":-5404272,"osm_relation":true,"name:right":"Alentejo","kind":"region","name":"\u00c1rea Metropolitana de Lisboa - Alentejo","sort_rank":256,"kind_detail":"4","name:left:de":"Lissabon","source":"openstreetmap.org","name:left:fr":"Lisbonne","id:left":-5404272,"official_name:right":"Regi\u00e3o do Alentejo","name:left":"\u00c1rea Metropolitana de Lisboa"},"arcs":[[1],[2],[3],[4]]},{"type":"LineString","properties":{"kind":"region","name":"\u00c1rea Metropolitana de Lisboa","sort_rank":256,"kind_detail":"4","min_zoom":8.0,"name:de":"Lissabon","source":"openstreetmap.org","name:fr":"Lisbonne","id":-5404272,"osm_relation":true},"arcs":[5]},{"type":"LineString","properties":{"kind":"region","name":"\u00c1rea Metropolitana de Lisboa","sort_rank":256,"kind_detail":"4","min_zoom":8.0,"name:de":"Lissabon","source":"openstreetmap.org","maritime_boundary":true,"name:fr":"Lisbonne","id":-5404272,"osm_relation":true},"arcs":[6]},{"type":"LineString","properties":{"name:right:fr":"Centre","id:right":-5400979,"min_zoom":8.0,"name:right:ru":"\u0426\u0435\u043d\u0442\u0440\u0430\u043b\u044c\u043d\u044b\u0439 \u0440\u0435\u0433\u0438\u043e\u043d","id":-5404272,"osm_relation":true,"name:right":"Centro","kind":"region","name":"\u00c1rea Metropolitana de Lisboa - Centro","sort_rank":256,"kind_detail":"4","name:left:de":"Lissabon","source":"openstreetmap.org","name:right:de":"Mitte","name:left:fr":"Lisbonne","id:left":-5404272,"official_name:right":"Regi\u00e3o do Centro","name:left":"\u00c1rea Metropolitana de Lisboa"},"arcs":[7]},{"type":"LineString","properties":{"name:right:ru":"\u0410\u043b\u0435\u043d\u0442\u0435\u0436\u0443","min_zoom":8.0,"id:right":-5378337,"id":-5404272,"osm_relation":true,"name:right":"Alentejo","kind":"region","name":"\u00c1rea Metropolitana de Lisboa - Alentejo","sort_rank":256,"kind_detail":"4","name:left:de":"Lissabon","source":"openstreetmap.org","name:left:fr":"Lisbonne","id:left":-5404272,"official_name:right":"Regi\u00e3o do Alentejo","name:left":"\u00c1rea Metropolitana de Lisboa"},"arcs":[8]},{"type":"MultiLineString","properties":{"kind":"region","name":"\u00c1rea Metropolitana de Lisboa","sort_rank":256,"kind_detail":"4","min_zoom":8.0,"name:de":"Lissabon","source":"openstreetmap.org","name:fr":"Lisbonne","id":-5404272,"osm_relation":true},"arcs":[[9],[10]]},{"type":"MultiLineString","properties":{"kind":"region","name":"\u00c1rea Metropolitana de Lisboa","sort_rank":256,"kind_detail":"4","min_zoom":8.0,"name:de":"Lissabon","source":"openstreetmap.org","maritime_boundary":true,"name:fr":"Lisbonne","id":-5404272,"osm_relation":true},"arcs":[[11],[12],[13]]},{"type":"MultiLineString","properties":{"name:right:ru":"\u0410\u043b\u0435\u043d\u0442\u0435\u0436\u0443","min_zoom":8.0,"name:left:ru":"\u0426\u0435\u043d\u0442\u0440\u0430\u043b\u044c\u043d\u044b\u0439 \u0440\u0435\u0433\u0438\u043e\u043d","id:right":-5378337,"id":-5400979,"osm_relation":true,"name:right":"Alentejo","kind":"region","name":"Centro - Alentejo","sort_rank":256,"kind_detail":"4","name:left:de":"Mitte","source":"openstreetmap.org","name:left:fr":"Centre","id:left":-5400979,"official_name:right":"Regi\u00e3o do Alentejo","official_name:left":"Regi\u00e3o do Centro","name:left":"Centro"},"arcs":[[14],[15]]},{"type":"LineString","properties":{"kind":"region","name":"Centro","sort_rank":256,"kind_detail":"4","min_zoom":8.0,"official_name":"Regi\u00e3o do Centro","name:de":"Mitte","source":"openstreetmap.org","name:fr":"Centre","name:ru":"\u0426\u0435\u043d\u0442\u0440\u0430\u043b\u044c\u043d\u044b\u0439 \u0440\u0435\u0433\u0438\u043e\u043d","id":-5400979,"osm_relation":true},"arcs":[16]},{"type":"LineString","properties":{"kind":"region","name":"Centro","sort_rank":256,"kind_detail":"4","min_zoom":8.0,"official_name":"Regi\u00e3o do Centro","name:de":"Mitte","source":"openstreetmap.org","maritime_boundary":true,"name:fr":"Centre","name:ru":"\u0426\u0435\u043d\u0442\u0440\u0430\u043b\u044c\u043d\u044b\u0439 \u0440\u0435\u0433\u0438\u043e\u043d","id":-5400979,"osm_relation":true},"arcs":[17]},{"type":"LineString","properties":{"kind":"region","name":"Alentejo","sort_rank":256,"kind_detail":"4","official_name":"Regi\u00e3o do Alentejo","source":"openstreetmap.org","min_zoom":8.0,"name:ru":"\u0410\u043b\u0435\u043d\u0442\u0435\u0436\u0443","id":-5378337,"osm_relation":true},"arcs":[18]}]},"roads":{"type":"GeometryCollection","geometries":[{"type":"LineString","properties":{"kind":"major_road","sort_rank":380,"landuse_kind":"protected_area","source":"openstreetmap.org","min_zoom":8.0,"kind_detail":"primary","ref":"EN 356-2","id":150147071},"arcs":[49]},{"type":"LineString","properties":{"source":"openstreetmap.org","kind":"major_road","sort_rank":380,"kind_detail":"primary","ref":"EN 155","min_zoom":8.0},"arcs":[50]},{"type":"MultiLineString","properties":{"kind":"major_road","network":"PT:national","sort_rank":380,"kind_detail":"primary","source":"openstreetmap.org","min_zoom":8.0,"landuse_kind":"urban_area","shield_text":"8"},"arcs":[[51],[52],[53]]},{"type":"MultiLineString","properties":{"kind":"major_road","network":"PT:national","sort_rank":380,"kind_detail":"primary","source":"openstreetmap.org","min_zoom":8.0,"shield_text":"8","ref":"EN 9"},"arcs":[[54],[55],[56]]},{"type":"MultiLineString","properties":{"source":"openstreetmap.org","kind":"major_road","sort_rank":381,"kind_detail":"trunk","ref":"IC 2;A 30","min_zoom":8.0},"arcs":[[57],[58]]},{"type":"MultiLineString","properties":{"kind":"major_road","network":"PT:national","sort_rank":380,"kind_detail":"primary","source":"openstreetmap.org","min_zoom":8.0,"landuse_kind":"nature_reserve","shield_text":"243","ref":"EN 243"},"arcs":[[59],[60],[61],[62]]},{"type":"LineString","properties":{"kind":"major_road","sort_rank":380,"kind_detail":"primary","source":"openstreetmap.org","min_zoom":8.0,"landuse_kind":"protected_area","ref":"EN 356","id":-1519247,"osm_relation":true},"arcs":[63]},{"type":"LineString","properties":{"kind":"major_road","sort_rank":381,"kind_detail":"trunk","source":"openstreetmap.org","min_zoom":8.0,"landuse_kind":"protected_area","ref":"IC 2","id":-6159020,"osm_relation":true},"arcs":[64]},{"type":"MultiLineString","properties":{"source":"openstreetmap.org","kind":"major_road","sort_rank":380,"kind_detail":"primary","ref":"EN 242","min_zoom":8.0},"arcs":[[65],[66],[67],[68],[69],[70],[71],[72],[73],[74],[75],[76]]},{"type":"LineString","properties":{"kind":"major_road","network":null,"sort_rank":380,"kind_detail":"primary","source":"openstreetmap.org","min_zoom":8.0,"landuse_kind":"nature_reserve","shield_text":"357","ref":"EN 357","id":54147426},"arcs":[77]},{"type":"LineString","properties":{"source":"openstreetmap.org","kind":"highway","sort_rank":383,"kind_detail":"motorway","ref":"A 8-1","min_zoom":8.0,"id":311032784},"arcs":[78]},{"type":"MultiLineString","properties":{"kind":"major_road","network":"PT:regional","sort_rank":380,"kind_detail":"primary","source":"openstreetmap.org","min_zoom":8.0,"shield_text":"349","ref":"ER 349"},"arcs":[[79],[80],[81],[82],[83],[84]]},{"type":"MultiLineString","properties":{"kind":"major_road","network":"PT:regional","sort_rank":380,"kind_detail":"primary","source":"openstreetmap.org","min_zoom":8.0,"shield_text":"349","ref":"EN 349"},"arcs":[[85],[86]]},{"type":"LineString","properties":{"kind":"major_road","network":"PT:regional","sort_rank":380,"kind_detail":"primary","source":"openstreetmap.org","min_zoom":8.0,"shield_text":"349","ref":"EN 113"},"arcs":[87]},{"type":"MultiLineString","properties":{"source":"openstreetmap.org","kind":"major_road","sort_rank":380,"kind_detail":"primary","ref":"EN 251","min_zoom":8.0},"arcs":[[88],[89],[90],[91],[92],[93]]},{"type":"LineString","properties":{"kind":"major_road","network":"PT:national","sort_rank":381,"kind_detail":"trunk","source":"openstreetmap.org","min_zoom":8.0,"shield_text":"1","id":145818544},"arcs":[94]},{"type":"MultiLineString","properties":{"source":"openstreetmap.org","kind":"major_road","network":null,"sort_rank":380,"kind_detail":"primary","min_zoom":8.0,"shield_text":"8-6"},"arcs":[[95],[96],[97]]},{"type":"MultiLineString","properties":{"kind":"highway","network":"PT:national","sort_rank":383,"landuse_kind":"urban_area","source":"openstreetmap.org","min_zoom":8.0,"all_networks":["PT:national","PT:national","e-road","e-road"],"kind_detail":"motorway","shield_text":"1","ref":"A 1","all_shield_texts":["1","1","01","80"]},"arcs":[[98],[99]]},{"type":"MultiLineString","properties":{"source":"openstreetmap.org","kind":"major_road","landuse_kind":"nature_reserve","sort_rank":380,"kind_detail":"primary","ref":"EN 360","min_zoom":8.0},"arcs":[[100],[101],[102]]},{"type":"MultiLineString","properties":{"source":"openstreetmap.org","kind":"highway","sort_rank":383,"kind_detail":"motorway","ref":"A 21","min_zoom":8.0},"arcs":[[103],[104]]},{"type":"MultiLineString","properties":{"source":"openstreetmap.org","kind":"major_road","sort_rank":380,"kind_detail":"primary","ref":"EN 113","min_zoom":8.0},"arcs":[[105],[106],[107],[108],[109],[110],[111],[112],[113],[114],[115],[116],[117],[118],[119],[120],[121],[122],[123],[124],[125]]},{"type":"LineString","properties":{"kind":"major_road","sort_rank":380,"kind_detail":"primary","is_bicycle_related":true,"bicycle_shield_text":"Ecovia 11","bicycle_network":"ncn","source":"openstreetmap.org","min_zoom":8.0,"ref":"EN 114-3"},"arcs":[126]},{"type":"MultiLineString","properties":{"source":"openstreetmap.org","kind":"major_road","sort_rank":380,"kind_detail":"primary","ref":"EN 350","min_zoom":8.0},"arcs":[[127],[128]]},{"type":"LineString","properties":{"source":"openstreetmap.org","kind":"major_road","landuse_kind":"protected_area","sort_rank":380,"kind_detail":"primary","ref":"EN 356","min_zoom":8.0},"arcs":[129]},{"type":"MultiLineString","properties":{"source":"openstreetmap.org","kind":"major_road","sort_rank":380,"kind_detail":"primary","ref":"EN 115-4","min_zoom":8.0},"arcs":[[130],[131]]},{"type":"LineString","properties":{"kind":"major_road","sort_rank":381,"kind_detail":"trunk","bus_network":"Mobilis","source":"openstreetmap.org","min_zoom":8.0,"bus_shield_text":"Mobilis 1","id":540868259},"arcs":[132]},{"type":"MultiLineString","properties":{"kind":"highway","network":"PT:national","sort_rank":383,"landuse_kind":"urban_area","source":"openstreetmap.org","min_zoom":8.0,"all_networks":["PT:national"],"kind_detail":"motorway","shield_text":"8","ref":"A 8","all_shield_texts":["8"]},"arcs":[[133],[134]]},{"type":"LineString","properties":{"kind":"major_road","network":"PT:national","sort_rank":380,"kind_detail":"primary","source":"openstreetmap.org","min_zoom":8.0,"landuse_kind":"protected_area","shield_text":"243","ref":"EN 243","id":55282692},"arcs":[135]},{"type":"MultiLineString","properties":{"kind":"major_road","network":"PT:regional","sort_rank":380,"kind_detail":"primary","is_bicycle_related":true,"source":"openstreetmap.org","min_zoom":8.0,"shield_text":"349"},"arcs":[[136],[137]]},{"type":"MultiLineString","properties":{"kind":"major_road","sort_rank":381,"landuse_kind":"urban_area","is_bicycle_related":true,"source":"openstreetmap.org","min_zoom":8.0,"kind_detail":"trunk","ref":"EN 9;IC 30"},"arcs":[[138],[139]]},{"type":"MultiLineString","properties":{"source":"openstreetmap.org","kind":"major_road","sort_rank":380,"kind_detail":"primary","ref":"EN 10","min_zoom":8.0},"arcs":[[140],[141],[142],[143],[144],[145],[146],[147],[148],[149],[150],[151],[152],[153],[154],[155],[156],[157],[158],[159],[160],[161],[162],[163],[164],[165],[166],[167],[168],[169],[170],[171],[172],[173],[174],[175],[176],[177],[178],[179],[180],[181],[182],[183],[184],[185],[186],[187],[188],[189],[190],[191],[192],[193],[194],[195],[196],[197]]},{"type":"MultiLineString","properties":{"kind":"major_road","network":"PT:national","sort_rank":380,"kind_detail":"primary","source":"openstreetmap.org","min_zoom":8.0,"shield_text":"3","ref":"EN 3"},"arcs":[[198],[199],[200],[201],[202],[203],[204],[205],[206],[207],[208],[209],[210],[211],[212],[213],[214],[215],[216],[217],[218],[219],[220],[221],[222],[223],[224],[225],[226],[227],[228],[229],[230],[231],[232],[233],[234],[235],[236],[237],[238],[239],[240],[241],[242],[243],[244],[245],[246],[247],[248],[249],[250],[251],[252],[253],[254],[255],[256],[257],[258],[259],[260],[261],[262],[263],[264],[265],[266],[267],[268],[269],[270],[271],[272],[273],[274],[275],[276],[277],[278],[279],[280],[281],[282],[283],[284],[285],[286],[287],[288],[289],[290],[291],[292],[293],[294],[295],[296],[297],[298],[299],[300],[301],[302]]},{"type":"MultiLineString","properties":{"source":"openstreetmap.org","kind":"major_road","landuse_kind":"protected_area","sort_rank":380,"kind_detail":"primary","min_zoom":8.0},"arcs":[[303],[304]]},{"type":"MultiLineString","properties":{"sort_rank":380,"kind_detail":"primary","min_zoom":8.0,"kind":"major_road","source":"openstreetmap.org"},"arcs":[[305],[306],[307],[308],[309],[310],[311],[312],[313],[314],[315],[316],[317],[318],[319],[320],[321],[322],[323],[324],[325],[326],[327],[328],[329],[330],[331],[332],[333],[334],[335],[336],[337],[338],[339],[340],[341],[342],[343],[344],[345],[346],[347],[348],[349],[350],[351],[352],[353],[354],[355],[356],[357],[358],[359],[360],[361],[362],[363],[364],[365],[366],[367],[368],[369],[370],[371],[372],[373],[374],[375],[376],[377],[378],[379],[380],[381],[382],[383],[384],[385],[386],[387],[388],[389],[390],[391],[392],[393],[394],[395],[396],[397],[398],[399],[400],[401],[402],[403],[404],[405],[406],[407],[408],[409],[410],[411],[412],[413],[414],[415],[416],[417],[418],[419],[420],[421],[422],[423],[424],[425],[426],[427],[428],[429],[430],[431],[432],[433],[434],[435],[436],[437],[438],[439],[440],[441],[442],[443],[444],[445],[446],[447],[448],[449],[450],[451],[452],[453],[454],[455],[456],[457],[458],[459],[460],[461],[462],[463],[464],[465],[466],[467],[468],[469],[470],[471],[472],[473],[474],[475],[476],[477],[478],[479],[480],[481],[482],[483],[484],[485],[486],[487],[488],[489],[490],[491],[492],[493],[494],[495],[496],[497],[498],[499],[500],[501],[502],[503],[504],[505],[506],[507],[508],[509],[510],[511],[512],[513],[514],[515],[516],[517],[518],[519],[520],[521],[522],[523],[524],[525],[526],[527],[528],[529],[530],[531],[532],[533],[534],[535],[536],[537],[538],[539],[540],[541],[542],[543],[544],[545],[546],[547],[548],[549],[550],[551],[552],[553],[554],[555],[556],[557],[558],[559],[560],[561],[562],[563],[564],[565],[566],[567],[568],[569],[570],[571],[572],[573],[574],[575],[576],[577],[578],[579],[580],[581],[582],[583],[584],[585],[586],[587],[588],[589],[590],[591],[592],[593],[594],[595],[596],[597],[598],[599],[600],[601],[602],[603],[604],[605],[606],[607],[608],[609],[610],[611],[612],[613],[614],[615],[616],[617],[618],[619],[620],[621],[622],[623],[624],[625],[626],[627],[628],[629],[630],[631],[632],[633],[634],[635],[636],[637],[638],[639],[640],[641],[642],[643],[644],[645],[646],[647],[648],[649],[650],[651],[652],[653],[654],[655],[656],[657],[658],[659],[660],[661],[662],[663],[664],[665],[666],[667],[668],[669],[670],[671],[672],[673],[674],[675],[676],[677],[678],[679],[680],[681],[682],[683],[684],[685],[686],[687],[688],[689],[690],[691]]},{"type":"MultiLineString","properties":{"source":"openstreetmap.org","kind":"major_road","network":"PT:national","sort_rank":380,"kind_detail":"primary","min_zoom":8.0,"shield_text":"3"},"arcs":[[692],[693]]},{"type":"MultiLineString","properties":{"source":"openstreetmap.org","kind":"major_road","sort_rank":380,"kind_detail":"primary","ref":"EN 356","min_zoom":8.0},"arcs":[[694],[695],[696],[697],[698],[699],[700],[701],[702],[703],[704],[705],[706],[707],[708],[709],[710],[711],[712],[713],[714],[715]]},{"type":"MultiLineString","properties":{"kind":"major_road","network":"PT:national","sort_rank":380,"kind_detail":"primary","source":"openstreetmap.org","min_zoom":8.0,"shield_text":"243","osm_relation":true},"arcs":[[716],[717],[718],[719],[720],[721],[722],[723],[724],[725],[726],[727],[728],[729],[730],[731],[732],[733],[734],[735],[736],[737],[738],[739],[740],[741],[742],[743],[744],[745],[746],[747],[748],[749],[750],[751],[752],[753],[754],[755],[756],[757],[758],[759],[760],[761],[762],[763],[764],[765],[766],[767],[768],[769],[770],[771],[772],[773],[774]]},{"type":"MultiLineString","properties":{"source":"openstreetmap.org","kind":"major_road","landuse_kind":"residential","sort_rank":381,"kind_detail":"trunk","ref":"CRIMA","min_zoom":8.0},"arcs":[[775],[776],[777],[778],[779],[780]]},{"type":"LineString","properties":{"kind":"major_road","network":"PT:national","sort_rank":380,"kind_detail":"primary","is_bicycle_related":true,"source":"openstreetmap.org","min_zoom":8.0,"shield_text":"8","id":25985649},"arcs":[781]},{"type":"MultiLineString","properties":{"kind":"major_road","network":"PT:national","sort_rank":381,"kind_detail":"trunk","source":"openstreetmap.org","min_zoom":8.0,"landuse_kind":"nature_reserve","shield_text":"1"},"arcs":[[782],[783]]},{"type":"LineString","properties":{"source":"openstreetmap.org","kind":"major_road","sort_rank":380,"kind_detail":"primary","ref":"IC 3","min_zoom":8.0},"arcs":[784]},{"type":"MultiLineString","properties":{"source":"openstreetmap.org","kind":"major_road","sort_rank":380,"kind_detail":"primary","ref":"EN 8-4","min_zoom":8.0},"arcs":[[785],[786],[787]]},{"type":"LineString","properties":{"source":"openstreetmap.org","kind":"major_road","sort_rank":380,"kind_detail":"primary","ref":"EN 10-6","min_zoom":8.0},"arcs":[788]},{"type":"MultiLineString","properties":{"source":"openstreetmap.org","kind":"major_road","sort_rank":380,"kind_detail":"primary","ref":"EN 114-1","min_zoom":8.0},"arcs":[[789],[790],[791],[792]]},{"type":"LineString","properties":{"source":"openstreetmap.org","kind":"major_road","landuse_kind":"urban_area","sort_rank":380,"kind_detail":"primary","ref":"EN 116","min_zoom":8.0},"arcs":[793]},{"type":"MultiLineString","properties":{"kind":"major_road","network":null,"sort_rank":380,"kind_detail":"primary","source":"openstreetmap.org","min_zoom":8.0,"shield_text":"113","ref":"EN 113"},"arcs":[[794],[795],[796],[797],[798],[799],[800],[801],[802],[803],[804],[805],[806],[807],[808],[809],[810],[811],[812],[813],[814],[815],[816],[817]]},{"type":"MultiLineString","properties":{"source":"openstreetmap.org","kind":"highway","sort_rank":383,"kind_detail":"motorway","ref":"A 13","min_zoom":8.0},"arcs":[[818],[819],[820],[821],[822],[823],[824],[825],[826],[827],[828],[829]]},{"type":"MultiLineString","properties":{"kind":"major_road","network":null,"sort_rank":380,"kind_detail":"primary","source":"openstreetmap.org","min_zoom":8.0,"shield_text":"242","ref":"EN 242"},"arcs":[[830],[831],[832]]},{"type":"MultiLineString","properties":{"kind":"major_road","network":null,"sort_rank":380,"kind_detail":"primary","source":"openstreetmap.org","min_zoom":8.0,"shield_text":"357","ref":"EN 357"},"arcs":[[833],[834],[835],[836],[837],[838]]},{"type":"MultiLineString","properties":{"bus_network":null,"sort_rank":380,"kind_detail":"primary","is_bicycle_related":true,"kind":"major_road","source":"openstreetmap.org","min_zoom":8.0,"bus_shield_text":"443","ref":"EN 247"},"arcs":[[839],[840],[841]]},{"type":"MultiLineString","properties":{"kind":"highway","network":null,"sort_rank":383,"kind_detail":"motorway","source":"openstreetmap.org","min_zoom":8.0,"all_networks":[null],"landuse_kind":"urban_area","shield_text":"9","ref":"A 9","all_shield_texts":["9"]},"arcs":[[842],[843],[844],[845],[846],[847],[848],[849],[850],[851]]},{"type":"MultiLineString","properties":{"kind":"major_road","sort_rank":380,"kind_detail":"primary","is_bicycle_related":true,"bicycle_shield_text":"Ecovia 11","bicycle_network":"ncn","source":"openstreetmap.org","min_zoom":8.0,"ref":"EN 114"},"arcs":[[852],[853]]},{"type":"MultiLineString","properties":{"source":"openstreetmap.org","kind":"major_road","landuse_kind":"urban_area","sort_rank":380,"kind_detail":"primary","ref":"EN 105","min_zoom":8.0},"arcs":[[854],[855],[856],[857],[858],[859],[860],[861],[862],[863],[864],[865],[866],[867],[868]]},{"type":"MultiLineString","properties":{"source":"openstreetmap.org","kind":"major_road","sort_rank":380,"kind_detail":"primary","ref":"EN 247","min_zoom":8.0},"arcs":[[869],[870],[871],[872],[873],[874],[875],[876],[877],[878],[879],[880],[881],[882],[883],[884],[885],[886],[887],[888],[889],[890],[891],[892]]},{"type":"MultiLineString","properties":{"source":"openstreetmap.org","kind":"major_road","sort_rank":381,"kind_detail":"trunk","ref":"IC 30","min_zoom":8.0},"arcs":[[893],[894],[895],[896]]},{"type":"LineString","properties":{"kind":"major_road","sort_rank":380,"kind_detail":"primary","is_bicycle_related":true,"bicycle_shield_text":"Ecovia 11","bicycle_network":"ncn","source":"openstreetmap.org","min_zoom":8.0,"ref":"EN 119","id":239091876},"arcs":[897]},{"type":"MultiLineString","properties":{"source":"openstreetmap.org","kind":"major_road","ref":"EN 109","sort_rank":380,"kind_detail":"primary","is_bicycle_related":true,"min_zoom":8.0},"arcs":[[898],[899],[900],[901],[902],[903],[904],[905],[906],[907],[908],[909],[910],[911],[912]]},{"type":"MultiLineString","properties":{"source":"openstreetmap.org","kind":"major_road","network":null,"sort_rank":380,"kind_detail":"primary","min_zoom":8.0,"shield_text":"356-1"},"arcs":[[913],[914],[915],[916]]},{"type":"MultiLineString","properties":{"source":"openstreetmap.org","kind":"major_road","sort_rank":380,"kind_detail":"primary","ref":"EN 8-6","min_zoom":8.0,"osm_relation":true},"arcs":[[917],[918],[919],[920]]},{"type":"MultiLineString","properties":{"source":"openstreetmap.org","kind":"major_road","sort_rank":380,"kind_detail":"primary","ref":"EN 365-2","min_zoom":8.0},"arcs":[[921],[922],[923],[924],[925],[926],[927],[928],[929],[930],[931],[932],[933],[934],[935],[936],[937],[938],[939],[940],[941],[942],[943],[944],[945],[946],[947],[948],[949],[950],[951]]},{"type":"MultiLineString","properties":{"source":"openstreetmap.org","kind":"major_road","landuse_kind":"residential","sort_rank":381,"kind_detail":"trunk","min_zoom":8.0},"arcs":[[952],[953],[954],[955],[956],[957],[958]]},{"type":"MultiLineString","properties":{"source":"openstreetmap.org","kind":"highway","sort_rank":383,"kind_detail":"motorway","is_bicycle_related":true,"min_zoom":8.0},"arcs":[[959],[960]]},{"type":"MultiLineString","properties":{"source":"openstreetmap.org","kind":"major_road","landuse_kind":"nature_reserve","sort_rank":380,"kind_detail":"primary","ref":"EN 9","min_zoom":8.0},"arcs":[[961],[962]]},{"type":"LineString","properties":{"kind":"major_road","sort_rank":377,"kind_detail":"tertiary","is_bicycle_related":true,"bicycle_shield_text":"EV1","bicycle_network":"icn","source":"openstreetmap.org","min_zoom":8.0,"landuse_kind":"nature_reserve","ref":"EN 375","id":495845238},"arcs":[963]},{"type":"MultiLineString","properties":{"source":"openstreetmap.org","kind":"major_road","sort_rank":380,"kind_detail":"primary","ref":"EN 358","min_zoom":8.0},"arcs":[[964],[965],[966],[967]]},{"type":"MultiLineString","properties":{"kind":"highway","network":null,"sort_rank":383,"kind_detail":"motorway","source":"openstreetmap.org","min_zoom":8.0,"all_networks":[null],"shield_text":"10","ref":"A 10","all_shield_texts":["10"]},"arcs":[[968],[969]]},{"type":"MultiLineString","properties":{"source":"openstreetmap.org","kind":"major_road","sort_rank":381,"kind_detail":"trunk","ref":"IC 9","min_zoom":8.0},"arcs":[[970],[971],[972],[973],[974],[975],[976],[977],[978],[979],[980],[981],[982]]},{"type":"LineString","properties":{"kind":"major_road","network":null,"sort_rank":380,"kind_detail":"primary","source":"openstreetmap.org","min_zoom":8.0,"landuse_kind":"protected_area","shield_text":"356","ref":"EN 356","id":101551718},"arcs":[983]},{"type":"MultiLineString","properties":{"kind":"highway","network":null,"sort_rank":383,"kind_detail":"motorway","source":"openstreetmap.org","min_zoom":8.0,"all_networks":[null],"shield_text":"6","ref":"A 15","all_shield_texts":["6"]},"arcs":[[984],[985],[986],[987]]},{"type":"LineString","properties":{"kind":"major_road","network":null,"sort_rank":380,"kind_detail":"primary","source":"openstreetmap.org","min_zoom":8.0,"shield_text":"356","ref":"EN 356"},"arcs":[988]},{"type":"MultiLineString","properties":{"kind":"highway","network":null,"sort_rank":383,"kind_detail":"motorway","source":"openstreetmap.org","min_zoom":8.0,"all_networks":[null],"shield_text":"19","ref":"A 19","all_shield_texts":["19"]},"arcs":[[989],[990]]},{"type":"MultiLineString","properties":{"source":"openstreetmap.org","kind":"major_road","landuse_kind":"residential","sort_rank":380,"kind_detail":"primary","ref":"EN 9","min_zoom":8.0},"arcs":[[991],[992],[993]]},{"type":"MultiLineString","properties":{"source":"openstreetmap.org","kind":"major_road","sort_rank":380,"kind_detail":"primary","ref":"EN 365-4","min_zoom":8.0},"arcs":[[994],[995],[996],[997],[998],[999],[1000],[1001],[1002],[1003],[1004],[1005],[1006]]},{"type":"MultiLineString","properties":{"osm_relation":true,"kind":"highway","network":"PT:national","sort_rank":383,"kind_detail":"motorway","source":"openstreetmap.org","min_zoom":8.0,"all_networks":["PT:national"],"shield_text":"8","all_shield_texts":["8"]},"arcs":[[1007],[1008],[1009],[1010],[1011],[1012],[1013],[1014],[1015],[1016],[1017],[1018],[1019],[1020],[1021],[1022],[1023],[1024],[1025],[1026],[1027],[1028],[1029],[1030],[1031],[1032],[1033],[1034],[1035],[1036],[1037],[1038],[1039],[1040],[1041],[1042],[1043],[1044],[1045],[1046],[1047],[1048],[1049],[1050],[1051],[1052],[1053],[1054],[1055],[1056],[1057],[1058],[1059],[1060],[1061],[1062],[1063],[1064],[1065],[1066],[1067],[1068],[1069],[1070],[1071],[1072],[1073],[1074],[1075],[1076],[1077],[1078],[1079],[1080],[1081],[1082],[1083],[1084],[1085],[1086],[1087],[1088],[1089],[1090],[1091],[1092],[1093],[1094],[1095],[1096],[1097],[1098],[1099],[1100],[1101],[1102],[1103],[1104],[1105],[1106],[1107],[1108],[1109],[1110],[1111],[1112],[1113],[1114],[1115],[1116],[1117],[1118],[1119],[1120],[1121],[1122],[1123],[1124],[1125],[1126],[1127],[1128],[1129],[1130],[1131],[1132],[1133],[1134],[1135],[1136],[1137],[1138],[1139],[1140],[1141],[1142],[1143],[1144],[1145],[1146],[1147],[1148],[1149],[1150],[1151],[1152],[1153],[1154],[1155],[1156],[1157],[1158],[1159],[1160],[1161],[1162],[1163],[1164],[1165],[1166],[1167],[1168],[1169],[1170],[1171],[1172],[1173],[1174],[1175],[1176],[1177],[1178],[1179],[1180],[1181],[1182],[1183],[1184],[1185],[1186],[1187],[1188],[1189],[1190],[1191],[1192],[1193],[1194],[1195],[1196],[1197],[1198],[1199],[1200],[1201],[1202],[1203],[1204],[1205],[1206],[1207],[1208],[1209],[1210],[1211],[1212],[1213],[1214],[1215],[1216],[1217],[1218],[1219],[1220],[1221],[1222],[1223],[1224],[1225],[1226],[1227],[1228],[1229],[1230],[1231],[1232],[1233],[1234],[1235],[1236],[1237],[1238],[1239],[1240],[1241],[1242],[1243],[1244],[1245],[1246],[1247],[1248],[1249],[1250],[1251],[1252],[1253],[1254],[1255],[1256],[1257],[1258],[1259],[1260],[1261],[1262],[1263],[1264],[1265],[1266],[1267],[1268],[1269],[1270],[1271],[1272],[1273],[1274],[1275],[1276],[1277],[1278],[1279],[1280],[1281],[1282],[1283],[1284],[1285],[1286],[1287],[1288],[1289],[1290],[1291],[1292],[1293],[1294],[1295],[1296],[1297],[1298],[1299],[1300],[1301],[1302],[1303],[1304],[1305],[1306],[1307],[1308],[1309],[1310],[1311],[1312],[1313],[1314],[1315],[1316],[1317],[1318],[1319],[1320],[1321],[1322],[1323],[1324],[1325],[1326],[1327],[1328],[1329],[1330],[1331],[1332],[1333],[1334],[1335],[1336],[1337],[1338],[1339],[1340],[1341],[1342],[1343],[1344],[1345],[1346],[1347],[1348],[1349],[1350],[1351],[1352],[1353],[1354],[1355],[1356],[1357],[1358],[1359],[1360],[1361],[1362],[1363],[1364],[1365],[1366],[1367],[1368],[1369],[1370],[1371],[1372],[1373],[1374],[1375],[1376],[1377],[1378],[1379],[1380],[1381],[1382],[1383],[1384],[1385],[1386],[1387],[1388],[1389],[1390],[1391],[1392],[1393],[1394],[1395],[1396],[1397],[1398],[1399],[1400],[1401],[1402],[1403],[1404],[1405],[1406],[1407],[1408],[1409],[1410],[1411],[1412],[1413],[1414],[1415],[1416],[1417],[1418],[1419],[1420],[1421],[1422],[1423],[1424],[1425],[1426],[1427],[1428],[1429],[1430],[1431],[1432],[1433],[1434],[1435],[1436],[1437],[1438],[1439],[1440],[1441],[1442],[1443],[1444]]},{"type":"MultiLineString","properties":{"source":"openstreetmap.org","kind":"major_road","landuse_kind":"protected_area","sort_rank":381,"kind_detail":"trunk","ref":"IC 2","min_zoom":8.0},"arcs":[[1445],[1446],[1447]]},{"type":"MultiLineString","properties":{"source":"openstreetmap.org","kind":"highway","sort_rank":383,"kind_detail":"motorway","ref":"A 15","min_zoom":8.0},"arcs":[[1448],[1449]]},{"type":"MultiLineString","properties":{"kind":"major_road","sort_rank":380,"landuse_kind":"nature_reserve","source":"openstreetmap.org","min_zoom":8.0,"kind_detail":"primary","ref":"EN 115-1","id":95385427},"arcs":[[1450],[1451]]},{"type":"MultiLineString","properties":{"source":"openstreetmap.org","kind":"major_road","kind_detail":"trunk","sort_rank":381,"landuse_kind":"urban_area","ref":"EN 115-5","min_zoom":8.0},"arcs":[[1452],[1453],[1454],[1455],[1456]]},{"type":"MultiLineString","properties":{"source":"openstreetmap.org","kind":"major_road","landuse_kind":"protected_area","sort_rank":381,"kind_detail":"trunk","min_zoom":8.0},"arcs":[[1457],[1458]]},{"type":"MultiLineString","properties":{"source":"openstreetmap.org","kind":"major_road","sort_rank":380,"kind_detail":"primary","ref":"EN 113","min_zoom":8.0,"osm_relation":true},"arcs":[[1459],[1460],[1461],[1462],[1463],[1464],[1465],[1466],[1467],[1468],[1469],[1470],[1471],[1472],[1473],[1474],[1475],[1476],[1477],[1478],[1479],[1480],[1481],[1482],[1483]]},{"type":"MultiLineString","properties":{"kind":"major_road","network":"PT:national","sort_rank":380,"kind_detail":"primary","is_bicycle_related":true,"source":"openstreetmap.org","min_zoom":8.0,"shield_text":"3","ref":"EN 3"},"arcs":[[1484],[1485],[1486],[1487],[1488],[1489]]},{"type":"MultiLineString","properties":{"kind":"major_road","network":"PT:national","sort_rank":380,"kind_detail":"primary","source":"openstreetmap.org","min_zoom":8.0,"shield_text":"1","ref":"IC 2;EN 1"},"arcs":[[1490],[1491],[1492],[1493],[1494],[1495],[1496],[1497],[1498]]},{"type":"LineString","properties":{"kind":"major_road","network":"PT:national","sort_rank":380,"kind_detail":"primary","source":"openstreetmap.org","min_zoom":8.0,"landuse_kind":"nature_reserve","shield_text":"1","ref":"EN 1","id":360560267},"arcs":[1499]},{"type":"MultiLineString","properties":{"source":"openstreetmap.org","kind":"major_road","ref":"EN 247","sort_rank":380,"kind_detail":"primary","is_bicycle_related":true,"min_zoom":8.0},"arcs":[[1500],[1501],[1502],[1503],[1504],[1505]]},{"type":"MultiLineString","properties":{"kind":"highway","network":"PT:national","sort_rank":383,"landuse_kind":"residential","source":"openstreetmap.org","min_zoom":8.0,"all_networks":["PT:national","PT:national","e-road","e-road"],"kind_detail":"motorway","shield_text":"1","ref":"A 1","all_shield_texts":["1","1","01","80"]},"arcs":[[1506],[1507]]},{"type":"LineString","properties":{"source":"openstreetmap.org","kind":"major_road","sort_rank":380,"kind_detail":"primary","ref":"EN 109","min_zoom":8.0},"arcs":[1508]},{"type":"MultiLineString","properties":{"source":"openstreetmap.org","kind":"major_road","sort_rank":381,"kind_detail":"trunk","ref":"EN 366","min_zoom":8.0},"arcs":[[1509],[1510],[1511]]},{"type":"MultiLineString","properties":{"source":"openstreetmap.org","kind":"major_road","ref":"EN 116","sort_rank":380,"kind_detail":"primary","is_bicycle_related":true,"min_zoom":8.0},"arcs":[[1512],[1513],[1514],[1515],[1516],[1517],[1518],[1519],[1520],[1521],[1522],[1523],[1524],[1525],[1526],[1527]]},{"type":"LineString","properties":{"kind":"major_road","sort_rank":380,"landuse_kind":"nature_reserve","source":"openstreetmap.org","min_zoom":8.0,"kind_detail":"primary","ref":"EN 365","id":154645675},"arcs":[1528]},{"type":"LineString","properties":{"kind":"major_road","sort_rank":381,"landuse_kind":"residential","is_bicycle_related":true,"source":"openstreetmap.org","min_zoom":8.0,"kind_detail":"trunk","id":10527057},"arcs":[1529]},{"type":"MultiLineString","properties":{"kind":"major_road","network":"PT:national","sort_rank":380,"kind_detail":"primary","bus_network":"Barraqueiro","source":"openstreetmap.org","min_zoom":8.0,"bus_shield_text":"Linha 2","shield_text":"1","ref":"EN 1"},"arcs":[[1530],[1531],[1532],[1533],[1534],[1535]]},{"type":"LineString","properties":{"source":"openstreetmap.org","kind":"major_road","sort_rank":380,"kind_detail":"primary","ref":"EN 368","min_zoom":8.0},"arcs":[1536]},{"type":"MultiLineString","properties":{"source":"openstreetmap.org","kind":"major_road","sort_rank":381,"kind_detail":"trunk","ref":"CRIMA","min_zoom":8.0},"arcs":[[1537],[1538],[1539],[1540],[1541],[1542],[1543]]},{"type":"MultiLineString","properties":{"source":"openstreetmap.org","kind":"major_road","sort_rank":380,"kind_detail":"primary","ref":"EN 374-2","min_zoom":8.0},"arcs":[[1544],[1545],[1546],[1547],[1548],[1549],[1550],[1551]]},{"type":"LineString","properties":{"kind":"major_road","sort_rank":380,"landuse_kind":"protected_area","source":"openstreetmap.org","min_zoom":8.0,"kind_detail":"primary","ref":"EN 361","id":163711767},"arcs":[1552]},{"type":"LineString","properties":{"kind":"major_road","network":null,"sort_rank":381,"kind_detail":"trunk","source":"openstreetmap.org","min_zoom":8.0,"landuse_kind":"protected_area","shield_text":"9","id":150150193},"arcs":[1553]},{"type":"LineString","properties":{"kind":"major_road","network":null,"sort_rank":380,"kind_detail":"primary","source":"openstreetmap.org","min_zoom":8.0,"landuse_kind":"protected_area","shield_text":"113","ref":"EN 113","id":36969979},"arcs":[1554]},{"type":"LineString","properties":{"source":"openstreetmap.org","kind":"major_road","landuse_kind":"protected_area","sort_rank":381,"kind_detail":"trunk","ref":"IC 9","min_zoom":8.0},"arcs":[1555]},{"type":"MultiLineString","properties":{"source":"openstreetmap.org","kind":"highway","sort_rank":383,"kind_detail":"motorway","ref":"IC 10","min_zoom":8.0},"arcs":[[1556],[1557],[1558]]},{"type":"MultiLineString","properties":{"source":"openstreetmap.org","kind":"major_road","network":"PT:national","sort_rank":380,"kind_detail":"primary","min_zoom":8.0,"shield_text":"1"},"arcs":[[1559],[1560],[1561],[1562],[1563],[1564],[1565],[1566]]},{"type":"LineString","properties":{"bus_network":null,"sort_rank":377,"landuse_kind":"nature_reserve","is_bicycle_related":true,"kind":"major_road","bicycle_shield_text":"EV1","bicycle_network":"icn","source":"openstreetmap.org","min_zoom":8.0,"bus_shield_text":"441","kind_detail":"tertiary","ref":"EN 375"},"arcs":[1567]},{"type":"LineString","properties":{"source":"openstreetmap.org","kind":"major_road","sort_rank":381,"kind_detail":"trunk","ref":"EN 365","min_zoom":8.0,"id":450972740},"arcs":[1568]},{"type":"LineString","properties":{"bus_network":null,"sort_rank":377,"kind_detail":"tertiary","is_bicycle_related":true,"kind":"major_road","bicycle_shield_text":"EV1","bicycle_network":"icn","source":"openstreetmap.org","min_zoom":8.0,"bus_shield_text":"440","landuse_kind":"nature_reserve","ref":"EN 375","id":495845239},"arcs":[1569]},{"type":"LineString","properties":{"source":"openstreetmap.org","kind":"major_road","sort_rank":380,"kind_detail":"primary","ref":"EN 362","min_zoom":8.0},"arcs":[1570]},{"type":"MultiLineString","properties":{"source":"openstreetmap.org","kind":"major_road","landuse_kind":"nature_reserve","sort_rank":380,"kind_detail":"primary","ref":"EN 362","min_zoom":8.0},"arcs":[[1571],[1572],[1573],[1574],[1575],[1576],[1577],[1578],[1579],[1580]]},{"type":"LineString","properties":{"source":"openstreetmap.org","kind":"major_road","ref":"EN 119","sort_rank":380,"kind_detail":"primary","is_bicycle_related":true,"min_zoom":8.0},"arcs":[1581]},{"type":"MultiLineString","properties":{"source":"openstreetmap.org","kind":"major_road","landuse_kind":"residential","sort_rank":381,"kind_detail":"trunk","ref":"IC 2;A 30","min_zoom":8.0},"arcs":[[1582],[1583]]},{"type":"MultiLineString","properties":{"kind":"highway","network":null,"sort_rank":383,"kind_detail":"motorway","source":"openstreetmap.org","min_zoom":8.0,"all_networks":[null],"shield_text":"21","ref":"A 21","all_shield_texts":["21"]},"arcs":[[1584],[1585]]},{"type":"MultiLineString","properties":{"source":"openstreetmap.org","kind":"major_road","ref":"EN 243","sort_rank":380,"kind_detail":"primary","is_bicycle_related":true,"min_zoom":8.0},"arcs":[[1586],[1587]]},{"type":"LineString","properties":{"source":"openstreetmap.org","kind":"major_road","ref":"EN 109-9","sort_rank":380,"kind_detail":"primary","is_bicycle_related":true,"min_zoom":8.0},"arcs":[1588]},{"type":"MultiLineString","properties":{"kind":"major_road","network":"PT:national","sort_rank":380,"kind_detail":"primary","source":"openstreetmap.org","min_zoom":8.0,"landuse_kind":"protected_area","shield_text":"243","id":-1519331,"osm_relation":true},"arcs":[[1589],[1590]]},{"type":"MultiLineString","properties":{"source":"openstreetmap.org","kind":"highway","sort_rank":383,"kind_detail":"motorway","ref":"A 19","min_zoom":8.0},"arcs":[[1591],[1592],[1593],[1594],[1595],[1596],[1597]]},{"type":"MultiLineString","properties":{"source":"openstreetmap.org","kind":"major_road","sort_rank":380,"kind_detail":"primary","ref":"EN 114","min_zoom":8.0},"arcs":[[1598],[1599],[1600],[1601],[1602],[1603],[1604],[1605],[1606],[1607],[1608],[1609],[1610],[1611],[1612],[1613],[1614],[1615],[1616],[1617],[1618],[1619],[1620],[1621],[1622],[1623],[1624],[1625],[1626],[1627],[1628],[1629],[1630],[1631],[1632],[1633],[1634],[1635],[1636],[1637],[1638],[1639],[1640],[1641],[1642],[1643],[1644],[1645],[1646],[1647],[1648],[1649],[1650],[1651],[1652],[1653],[1654],[1655],[1656],[1657],[1658],[1659],[1660],[1661],[1662],[1663],[1664],[1665],[1666],[1667],[1668],[1669],[1670]]},{"type":"MultiLineString","properties":{"kind":"major_road","sort_rank":380,"kind_detail":"primary","is_bicycle_related":true,"source":"openstreetmap.org","min_zoom":8.0,"landuse_kind":"residential","ref":"EN 116"},"arcs":[[1671],[1672],[1673],[1674],[1675],[1676],[1677],[1678]]},{"type":"MultiLineString","properties":{"kind":"highway","network":"PT:national","sort_rank":383,"kind_detail":"motorway","source":"openstreetmap.org","min_zoom":8.0,"all_networks":["PT:national","PT:national"],"shield_text":"1","ref":"A 8","all_shield_texts":["1","8"]},"arcs":[[1679],[1680],[1681],[1682],[1683],[1684],[1685],[1686],[1687],[1688],[1689],[1690],[1691],[1692],[1693],[1694],[1695],[1696],[1697],[1698],[1699],[1700],[1701]]},{"type":"MultiLineString","properties":{"kind":"highway","network":"PT:national","sort_rank":383,"kind_detail":"motorway","source":"openstreetmap.org","min_zoom":8.0,"all_networks":["PT:national","PT:national"],"shield_text":"1","ref":"A 17","all_shield_texts":["1","17"]},"arcs":[[1702],[1703],[1704],[1705]]},{"type":"MultiLineString","properties":{"source":"openstreetmap.org","kind":"major_road","sort_rank":380,"kind_detail":"primary","ref":"EN 116","min_zoom":8.0},"arcs":[[1706],[1707],[1708],[1709],[1710],[1711],[1712],[1713],[1714],[1715],[1716],[1717],[1718],[1719],[1720]]},{"type":"MultiLineString","properties":{"kind":"highway","network":"PT:national","sort_rank":383,"kind_detail":"motorway","source":"openstreetmap.org","min_zoom":8.0,"all_networks":["PT:national","PT:national","e-road","e-road",null],"shield_text":"1","ref":"A 1","all_shield_texts":["1","1","01","80","6"]},"arcs":[[1721],[1722]]},{"type":"MultiLineString","properties":{"source":"openstreetmap.org","kind":"major_road","network":null,"sort_rank":380,"kind_detail":"primary","min_zoom":8.0,"shield_text":"242"},"arcs":[[1723],[1724],[1725],[1726],[1727],[1728],[1729],[1730],[1731],[1732],[1733],[1734],[1735],[1736],[1737],[1738],[1739],[1740],[1741],[1742],[1743],[1744],[1745],[1746],[1747],[1748],[1749],[1750],[1751],[1752],[1753],[1754],[1755],[1756],[1757],[1758],[1759],[1760],[1761],[1762],[1763],[1764],[1765],[1766],[1767],[1768],[1769],[1770],[1771],[1772],[1773],[1774],[1775],[1776],[1777],[1778],[1779],[1780],[1781],[1782],[1783],[1784],[1785],[1786],[1787],[1788],[1789],[1790],[1791],[1792],[1793],[1794],[1795],[1796],[1797],[1798],[1799],[1800],[1801],[1802],[1803],[1804],[1805],[1806],[1807],[1808],[1809],[1810],[1811],[1812],[1813],[1814],[1815],[1816],[1817],[1818],[1819],[1820],[1821],[1822],[1823],[1824],[1825],[1826],[1827],[1828],[1829],[1830],[1831],[1832],[1833],[1834],[1835],[1836],[1837]]},{"type":"MultiLineString","properties":{"source":"openstreetmap.org","kind":"major_road","sort_rank":380,"kind_detail":"primary","ref":"IC 2","min_zoom":8.0},"arcs":[[1838],[1839],[1840],[1841],[1842]]},{"type":"LineString","properties":{"kind":"major_road","sort_rank":380,"kind_detail":"primary","bus_network":"Barraqueiro","source":"openstreetmap.org","min_zoom":8.0,"bus_shield_text":"Linha 2","id":23687021},"arcs":[1843]},{"type":"MultiLineString","properties":{"source":"openstreetmap.org","kind":"major_road","sort_rank":380,"kind_detail":"primary","ref":"EN 356-1","min_zoom":8.0,"osm_relation":true},"arcs":[[1844],[1845],[1846],[1847]]},{"type":"LineString","properties":{"source":"openstreetmap.org","kind":"major_road","sort_rank":380,"kind_detail":"primary","ref":"EN 349-3","min_zoom":8.0,"id":95750026},"arcs":[1848]},{"type":"MultiLineString","properties":{"source":"openstreetmap.org","kind":"major_road","sort_rank":381,"kind_detail":"trunk","ref":"IC 3","min_zoom":8.0},"arcs":[[1849],[1850],[1851],[1852],[1853]]},{"type":"MultiLineString","properties":{"kind":"major_road","sort_rank":381,"landuse_kind":"residential","is_bicycle_related":true,"source":"openstreetmap.org","min_zoom":8.0,"kind_detail":"trunk","ref":"CRIMA"},"arcs":[[1854],[1855],[1856],[1857]]},{"type":"MultiLineString","properties":{"source":"openstreetmap.org","kind":"major_road","ref":"EN 9","sort_rank":380,"kind_detail":"primary","is_bicycle_related":true,"min_zoom":8.0},"arcs":[[1858],[1859],[1860],[1861],[1862],[1863]]},{"type":"MultiLineString","properties":{"kind":"major_road","network":"PT:national","sort_rank":380,"kind_detail":"primary","is_bicycle_related":true,"source":"openstreetmap.org","min_zoom":8.0,"shield_text":"8","ref":"EN 8"},"arcs":[[1864],[1865],[1866]]},{"type":"MultiLineString","properties":{"source":"openstreetmap.org","kind":"major_road","sort_rank":380,"kind_detail":"primary","ref":"EN 8-5","min_zoom":8.0,"osm_relation":true},"arcs":[[1867],[1868],[1869],[1870],[1871],[1872],[1873],[1874],[1875],[1876],[1877],[1878],[1879],[1880],[1881],[1882],[1883],[1884],[1885],[1886],[1887],[1888],[1889],[1890],[1891],[1892],[1893],[1894],[1895],[1896],[1897],[1898],[1899],[1900],[1901],[1902],[1903],[1904],[1905],[1906],[1907],[1908],[1909],[1910],[1911],[1912],[1913],[1914],[1915],[1916],[1917],[1918],[1919],[1920],[1921],[1922],[1923],[1924],[1925],[1926],[1927],[1928],[1929],[1930],[1931],[1932],[1933],[1934],[1935]]},{"type":"MultiLineString","properties":{"source":"openstreetmap.org","kind":"major_road","sort_rank":380,"kind_detail":"primary","ref":"EN 115","min_zoom":8.0},"arcs":[[1936],[1937],[1938],[1939],[1940],[1941],[1942],[1943],[1944],[1945],[1946],[1947],[1948],[1949],[1950],[1951],[1952],[1953],[1954],[1955],[1956],[1957],[1958],[1959],[1960],[1961]]},{"type":"LineString","properties":{"source":"openstreetmap.org","kind":"major_road","sort_rank":380,"kind_detail":"primary","ref":"EN 3-2","min_zoom":8.0},"arcs":[1962]},{"type":"MultiLineString","properties":{"kind":"major_road","network":"1.\u00ba Circular de Caldas da Rainha","sort_rank":380,"kind_detail":"primary","source":"openstreetmap.org","min_zoom":8.0,"shield_text":"1","ref":"EN 360"},"arcs":[[1963],[1964],[1965]]},{"type":"MultiLineString","properties":{"kind":"highway","network":"e-road","sort_rank":383,"kind_detail":"motorway","source":"openstreetmap.org","min_zoom":8.0,"all_networks":["e-road"],"shield_text":"806","ref":"A 23","all_shield_texts":["806"]},"arcs":[[1966],[1967]]},{"type":"MultiLineString","properties":{"kind":"minor_road","sort_rank":360,"kind_detail":"residential","is_bicycle_related":true,"bicycle_shield_text":"Ecovia 11","bicycle_network":"ncn","source":"openstreetmap.org","min_zoom":8.0},"arcs":[[1968],[1969],[1970],[1971],[1972],[1973],[1974]]},{"type":"MultiLineString","properties":{"source":"openstreetmap.org","kind":"major_road","sort_rank":381,"kind_detail":"trunk","ref":"EN 109","min_zoom":8.0},"arcs":[[1975],[1976],[1977],[1978],[1979],[1980],[1981]]},{"type":"LineString","properties":{"source":"openstreetmap.org","kind":"major_road","sort_rank":380,"kind_detail":"primary","ref":"EN 8","min_zoom":8.0},"arcs":[1982]},{"type":"LineString","properties":{"kind":"major_road","network":"PT:national","sort_rank":380,"kind_detail":"primary","bus_network":"Barraqueiro","source":"openstreetmap.org","min_zoom":8.0,"bus_shield_text":"Linha 2","shield_text":"1","ref":"IC 2;EN 1","id":91995872},"arcs":[1983]},{"type":"MultiLineString","properties":{"kind":"highway","network":"PT:national","sort_rank":383,"kind_detail":"motorway","source":"openstreetmap.org","min_zoom":8.0,"all_networks":["PT:national"],"shield_text":"8","ref":"A 8","all_shield_texts":["8"]},"arcs":[[1984],[1985],[1986],[1987],[1988],[1989],[1990],[1991],[1992]]},{"type":"MultiLineString","properties":{"kind":"major_road","network":"PT:national","sort_rank":381,"kind_detail":"trunk","source":"openstreetmap.org","min_zoom":8.0,"shield_text":"1","ref":"IC 2;EN 1"},"arcs":[[1993],[1994],[1995],[1996],[1997],[1998],[1999],[2000],[2001],[2002],[2003],[2004],[2005],[2006],[2007]]},{"type":"MultiLineString","properties":{"source":"openstreetmap.org","kind":"major_road","sort_rank":380,"kind_detail":"primary","is_bicycle_related":true,"min_zoom":8.0},"arcs":[[2008],[2009],[2010],[2011],[2012],[2013],[2014],[2015],[2016],[2017],[2018],[2019],[2020],[2021],[2022],[2023],[2024],[2025],[2026],[2027],[2028],[2029],[2030],[2031],[2032],[2033],[2034],[2035],[2036],[2037],[2038],[2039],[2040],[2041],[2042],[2043],[2044],[2045]]},{"type":"LineString","properties":{"source":"openstreetmap.org","kind":"major_road","ref":"EN 350","sort_rank":380,"kind_detail":"primary","is_bicycle_related":true,"min_zoom":8.0},"arcs":[2046]},{"type":"MultiLineString","properties":{"source":"openstreetmap.org","kind":"major_road","sort_rank":380,"kind_detail":"primary","ref":"EN 367","min_zoom":8.0},"arcs":[[2047],[2048],[2049],[2050],[2051]]},{"type":"LineString","properties":{"source":"openstreetmap.org","kind":"major_road","landuse_kind":"urban_area","sort_rank":380,"kind_detail":"primary","ref":"EN 10-6","min_zoom":8.0},"arcs":[2052]},{"type":"MultiLineString","properties":{"source":"openstreetmap.org","kind":"major_road","sort_rank":381,"kind_detail":"trunk","is_bicycle_related":true,"min_zoom":8.0},"arcs":[[2053],[2054],[2055],[2056],[2057],[2058]]},{"type":"LineString","properties":{"kind":"major_road","sort_rank":380,"landuse_kind":"protected_area","source":"openstreetmap.org","min_zoom":8.0,"kind_detail":"primary","ref":"EN114","id":360569233},"arcs":[2059]},{"type":"MultiLineString","properties":{"source":"openstreetmap.org","kind":"major_road","sort_rank":381,"kind_detail":"trunk","ref":"EN 1;IC 2","min_zoom":8.0},"arcs":[[2060],[2061],[2062],[2063],[2064],[2065],[2066]]},{"type":"LineString","properties":{"kind":"major_road","network":null,"sort_rank":380,"kind_detail":"primary","source":"openstreetmap.org","min_zoom":8.0,"shield_text":"361","ref":"EN 365-4","id":106560503},"arcs":[2067]},{"type":"MultiLineString","properties":{"source":"openstreetmap.org","kind":"major_road","sort_rank":381,"kind_detail":"trunk","ref":"IC 9","min_zoom":8.0,"osm_relation":true},"arcs":[[2068],[2069],[2070],[2071],[2072],[2073],[2074],[2075],[2076],[2077],[2078],[2079],[2080],[2081],[2082],[2083],[2084],[2085],[2086],[2087],[2088]]},{"type":"MultiLineString","properties":{"kind":"major_road","network":"PT:national","sort_rank":380,"kind_detail":"primary","source":"openstreetmap.org","min_zoom":8.0,"shield_text":"3","ref":"EN 3;EN 114"},"arcs":[[2089],[2090],[2091],[2092]]},{"type":"MultiLineString","properties":{"source":"openstreetmap.org","kind":"major_road","sort_rank":381,"kind_detail":"trunk","ref":"EN 115-5","min_zoom":8.0},"arcs":[[2093],[2094]]},{"type":"MultiLineString","properties":{"source":"openstreetmap.org","kind":"major_road","sort_rank":380,"kind_detail":"primary","ref":"EN 356-1","min_zoom":8.0},"arcs":[[2095],[2096],[2097],[2098],[2099],[2100],[2101],[2102]]},{"type":"LineString","properties":{"kind":"major_road","sort_rank":380,"landuse_kind":"urban_area","source":"openstreetmap.org","min_zoom":8.0,"kind_detail":"primary","ref":"EN 250 \/ N8","id":26016162},"arcs":[2103]},{"type":"LineString","properties":{"kind":"major_road","sort_rank":380,"landuse_kind":"nature_reserve","source":"openstreetmap.org","min_zoom":8.0,"kind_detail":"primary","ref":"EN 361","id":149496351},"arcs":[2104]},{"type":"MultiLineString","properties":{"kind":"highway","network":null,"sort_rank":383,"kind_detail":"motorway","source":"openstreetmap.org","min_zoom":8.0,"all_networks":[null,null],"shield_text":"6","ref":"A 15","all_shield_texts":["6","15"]},"arcs":[[2105],[2106]]},{"type":"MultiLineString","properties":{"sort_rank":381,"source":"openstreetmap.org","min_zoom":8.0,"kind":"major_road","kind_detail":"trunk"},"arcs":[[2107],[2108],[2109],[2110],[2111],[2112],[2113],[2114],[2115],[2116],[2117],[2118],[2119],[2120],[2121],[2122],[2123],[2124],[2125],[2126],[2127],[2128],[2129],[2130],[2131],[2132],[2133],[2134],[2135],[2136],[2137],[2138],[2139],[2140],[2141],[2142],[2143],[2144],[2145],[2146],[2147],[2148],[2149],[2150],[2151],[2152],[2153],[2154],[2155],[2156],[2157],[2158],[2159],[2160],[2161],[2162],[2163],[2164],[2165],[2166],[2167],[2168],[2169],[2170],[2171],[2172],[2173],[2174],[2175],[2176]]},{"type":"MultiLineString","properties":{"osm_relation":true,"kind":"highway","network":"PT:national","sort_rank":383,"landuse_kind":"urban_area","source":"openstreetmap.org","min_zoom":8.0,"all_networks":["PT:national"],"kind_detail":"motorway","shield_text":"8","all_shield_texts":["8"]},"arcs":[[2177],[2178]]},{"type":"MultiLineString","properties":{"source":"openstreetmap.org","kind":"major_road","sort_rank":380,"kind_detail":"primary","ref":"EN 242","min_zoom":8.0,"osm_relation":true},"arcs":[[2179],[2180],[2181],[2182],[2183],[2184],[2185],[2186],[2187],[2188],[2189],[2190],[2191],[2192],[2193],[2194],[2195],[2196],[2197],[2198],[2199],[2200],[2201],[2202],[2203],[2204],[2205],[2206],[2207],[2208],[2209],[2210],[2211],[2212],[2213],[2214],[2215],[2216],[2217],[2218],[2219],[2220],[2221],[2222],[2223],[2224],[2225],[2226],[2227],[2228],[2229],[2230],[2231],[2232],[2233],[2234],[2235],[2236],[2237],[2238],[2239],[2240],[2241],[2242],[2243],[2244],[2245],[2246],[2247],[2248],[2249],[2250],[2251],[2252],[2253],[2254],[2255],[2256],[2257],[2258],[2259],[2260],[2261],[2262],[2263],[2264],[2265],[2266],[2267],[2268],[2269],[2270],[2271],[2272],[2273],[2274],[2275],[2276],[2277],[2278],[2279],[2280],[2281],[2282],[2283],[2284],[2285],[2286],[2287],[2288],[2289],[2290],[2291],[2292],[2293],[2294],[2295],[2296],[2297],[2298],[2299],[2300],[2301],[2302]]},{"type":"MultiLineString","properties":{"source":"openstreetmap.org","kind":"major_road","sort_rank":380,"kind_detail":"primary","ref":"EN 361","min_zoom":8.0,"osm_relation":true},"arcs":[[2303],[2304],[2305],[2306],[2307],[2308],[2309],[2310],[2311],[2312],[2313],[2314],[2315],[2316],[2317],[2318],[2319]]},{"type":"MultiLineString","properties":{"source":"openstreetmap.org","kind":"major_road","sort_rank":380,"kind_detail":"primary","ref":"EN 349","min_zoom":8.0,"osm_relation":true},"arcs":[[2320],[2321],[2322],[2323]]},{"type":"MultiLineString","properties":{"source":"openstreetmap.org","kind":"major_road","sort_rank":380,"kind_detail":"primary","ref":"EN 119","min_zoom":8.0},"arcs":[[2324],[2325],[2326],[2327],[2328],[2329],[2330],[2331],[2332],[2333],[2334],[2335],[2336],[2337],[2338],[2339],[2340],[2341],[2342]]},{"type":"MultiLineString","properties":{"source":"openstreetmap.org","kind":"major_road","sort_rank":380,"kind_detail":"primary","ref":"E.N. 8","min_zoom":8.0},"arcs":[[2343],[2344],[2345]]},{"type":"LineString","properties":{"kind":"major_road","cycleway_left":"lane","sort_rank":380,"kind_detail":"primary","is_bicycle_related":true,"source":"openstreetmap.org","min_zoom":8.0,"ref":"EN 247"},"arcs":[2346]},{"type":"MultiLineString","properties":{"source":"openstreetmap.org","kind":"major_road","sort_rank":380,"kind_detail":"primary","ref":"EN 247-1","min_zoom":8.0},"arcs":[[2347],[2348],[2349],[2350],[2351],[2352],[2353],[2354],[2355]]},{"type":"MultiLineString","properties":{"kind":"highway","network":"PT:national","sort_rank":383,"kind_detail":"motorway","source":"openstreetmap.org","min_zoom":8.0,"all_networks":["PT:national"],"shield_text":"17","ref":"A 17","all_shield_texts":["17"]},"arcs":[[2356],[2357],[2358]]},{"type":"LineString","properties":{"sort_rank":355,"source":"openstreetmap.org","kind":"ferry","min_zoom":8.0,"id":38434902},"arcs":[2359]},{"type":"LineString","properties":{"kind":"minor_road","sort_rank":360,"kind_detail":"residential","is_bicycle_related":true,"bicycle_shield_text":"EV1","bicycle_network":"icn","source":"openstreetmap.org","min_zoom":8.0,"landuse_kind":"nature_reserve"},"arcs":[2360]},{"type":"MultiLineString","properties":{"kind":"major_road","sort_rank":380,"kind_detail":"primary","is_bicycle_related":true,"bicycle_network":"lcn","source":"openstreetmap.org","min_zoom":8.0,"ref":"EN 247-1"},"arcs":[[2361],[2362],[2363],[2364]]},{"type":"MultiLineString","properties":{"source":"openstreetmap.org","kind":"major_road","sort_rank":380,"kind_detail":"primary","ref":"EN 115-1","min_zoom":8.0},"arcs":[[2365],[2366],[2367],[2368],[2369]]},{"type":"MultiLineString","properties":{"source":"openstreetmap.org","kind":"major_road","landuse_kind":"residential","sort_rank":380,"kind_detail":"primary","ref":"EN 116","min_zoom":8.0},"arcs":[[2370],[2371],[2372],[2373],[2374],[2375]]},{"type":"LineString","properties":{"source":"openstreetmap.org","kind":"highway","sort_rank":383,"kind_detail":"motorway","ref":"A 17","min_zoom":8.0,"id":427619620},"arcs":[2376]},{"type":"LineString","properties":{"kind":"major_road","network":null,"sort_rank":380,"kind_detail":"primary","bus_network":"Mobilis","source":"openstreetmap.org","min_zoom":8.0,"bus_shield_text":"Mobilis 1","shield_text":"242","id":23592007},"arcs":[2377]},{"type":"MultiLineString","properties":{"source":"openstreetmap.org","kind":"major_road","sort_rank":380,"kind_detail":"primary","ref":"EN 114-3","min_zoom":8.0},"arcs":[[2378],[2379],[2380],[2381],[2382],[2383],[2384],[2385],[2386],[2387],[2388],[2389]]},{"type":"LineString","properties":{"kind":"major_road","sort_rank":380,"kind_detail":"primary","is_bicycle_related":true,"source":"openstreetmap.org","min_zoom":8.0,"ref":"EN 9;EN 116","id":14792377},"arcs":[2390]},{"type":"MultiLineString","properties":{"kind":"major_road","network":"PT:national","sort_rank":380,"kind_detail":"primary","bus_network":"Barraqueiro","source":"openstreetmap.org","min_zoom":8.0,"bus_shield_text":"Linha 2","shield_text":"1","ref":"EN 1;IC 2"},"arcs":[[2391],[2392]]},{"type":"MultiLineString","properties":{"kind":"major_road","sort_rank":381,"kind_detail":"trunk","source":"openstreetmap.org","min_zoom":8.0,"landuse_kind":"nature_reserve","ref":"IC 9","osm_relation":true},"arcs":[[2393],[2394],[2395],[2396],[2397],[2398],[2399],[2400],[2401],[2402],[2403],[2404],[2405],[2406]]},{"type":"MultiLineString","properties":{"kind":"major_road","sort_rank":380,"kind_detail":"primary","is_bicycle_related":true,"cycleway_right":"yes","source":"openstreetmap.org","min_zoom":8.0,"ref":"EN 247"},"arcs":[[2407],[2408]]},{"type":"LineString","properties":{"source":"openstreetmap.org","kind":"major_road","sort_rank":380,"kind_detail":"primary","ref":"EN 109-9","min_zoom":8.0,"osm_relation":true},"arcs":[2409]},{"type":"MultiLineString","properties":{"source":"openstreetmap.org","kind":"major_road","sort_rank":380,"kind_detail":"primary","ref":"EN 115-2","min_zoom":8.0},"arcs":[[2410],[2411]]},{"type":"LineString","properties":{"kind":"major_road","sort_rank":377,"kind_detail":"tertiary","is_bicycle_related":true,"bicycle_shield_text":"Ecovia 11","bicycle_network":"ncn","source":"openstreetmap.org","min_zoom":8.0,"ref":"CM 1422","id":239118812},"arcs":[2412]},{"type":"MultiLineString","properties":{"source":"openstreetmap.org","kind":"major_road","sort_rank":380,"kind_detail":"primary","ref":"EN 9","min_zoom":8.0},"arcs":[[2413],[2414],[2415],[2416],[2417],[2418],[2419],[2420],[2421],[2422],[2423],[2424],[2425],[2426],[2427],[2428],[2429],[2430],[2431],[2432],[2433],[2434],[2435],[2436],[2437],[2438],[2439],[2440],[2441],[2442],[2443],[2444],[2445]]},{"type":"MultiLineString","properties":{"source":"openstreetmap.org","kind":"major_road","ref":"EN 9;IC 30","sort_rank":381,"kind_detail":"trunk","is_bicycle_related":true,"min_zoom":8.0},"arcs":[[2446],[2447],[2448],[2449],[2450]]},{"type":"MultiLineString","properties":{"kind":"major_road","network":"PT:regional","sort_rank":380,"kind_detail":"primary","is_bicycle_related":true,"source":"openstreetmap.org","min_zoom":8.0,"shield_text":"349","osm_relation":true},"arcs":[[2451],[2452],[2453],[2454],[2455],[2456],[2457],[2458],[2459],[2460],[2461]]},{"type":"MultiLineString","properties":{"source":"openstreetmap.org","kind":"major_road","network":"PT:national","sort_rank":380,"kind_detail":"primary","min_zoom":8.0,"shield_text":"8"},"arcs":[[2462],[2463],[2464],[2465],[2466],[2467],[2468],[2469],[2470],[2471],[2472],[2473],[2474],[2475],[2476],[2477],[2478],[2479],[2480],[2481],[2482],[2483],[2484],[2485],[2486],[2487],[2488],[2489],[2490],[2491],[2492],[2493],[2494],[2495],[2496],[2497],[2498],[2499],[2500],[2501],[2502],[2503],[2504],[2505],[2506],[2507],[2508],[2509],[2510],[2511],[2512],[2513],[2514]]},{"type":"MultiLineString","properties":{"source":"openstreetmap.org","kind":"major_road","landuse_kind":"urban_area","sort_rank":380,"kind_detail":"primary","ref":"EN 250","min_zoom":8.0},"arcs":[[2515],[2516],[2517],[2518],[2519],[2520],[2521],[2522]]},{"type":"MultiLineString","properties":{"source":"openstreetmap.org","kind":"major_road","sort_rank":380,"kind_detail":"primary","ref":"EN 3","min_zoom":8.0},"arcs":[[2523],[2524],[2525],[2526],[2527],[2528],[2529],[2530],[2531],[2532],[2533],[2534]]},{"type":"MultiLineString","properties":{"kind":"major_road","sort_rank":381,"kind_detail":"trunk","source":"openstreetmap.org","min_zoom":8.0,"landuse_kind":"nature_reserve","ref":"IC 2","osm_relation":true},"arcs":[[2535],[2536],[2537],[2538],[2539],[2540],[2541],[2542]]},{"type":"LineString","properties":{"source":"openstreetmap.org","kind":"ferry","sort_rank":355,"landuse_kind":"nature_reserve","min_zoom":8.0,"id":38434902},"arcs":[2543]},{"type":"MultiLineString","properties":{"source":"openstreetmap.org","kind":"major_road","kind_detail":"trunk","sort_rank":381,"landuse_kind":"urban_area","min_zoom":8.0},"arcs":[[2544],[2545],[2546],[2547],[2548],[2549],[2550],[2551],[2552],[2553],[2554],[2555],[2556],[2557],[2558],[2559],[2560],[2561],[2562],[2563],[2564],[2565],[2566],[2567],[2568]]},{"type":"MultiLineString","properties":{"source":"openstreetmap.org","kind":"major_road","sort_rank":380,"kind_detail":"primary","ref":"EN 110","min_zoom":8.0},"arcs":[[2569],[2570],[2571],[2572],[2573],[2574],[2575],[2576]]},{"type":"LineString","properties":{"kind":"major_road","network":"PT:national","sort_rank":380,"kind_detail":"primary","bus_network":"Barraqueiro","source":"openstreetmap.org","min_zoom":8.0,"bus_shield_text":"Linha 2","shield_text":"1","ref":"IC 2","id":139732384},"arcs":[2577]},{"type":"MultiLineString","properties":{"kind":"major_road","network":"PT:regional","sort_rank":380,"kind_detail":"primary","is_bicycle_related":true,"source":"openstreetmap.org","min_zoom":8.0,"shield_text":"349","ref":"ER 349"},"arcs":[[2578],[2579]]},{"type":"MultiLineString","properties":{"source":"openstreetmap.org","kind":"major_road","landuse_kind":"residential","sort_rank":380,"kind_detail":"primary","min_zoom":8.0},"arcs":[[2580],[2581],[2582],[2583],[2584],[2585],[2586],[2587],[2588]]},{"type":"MultiLineString","properties":{"sort_rank":383,"kind_detail":"motorway","min_zoom":8.0,"kind":"highway","source":"openstreetmap.org"},"arcs":[[2589],[2590],[2591],[2592],[2593],[2594],[2595],[2596],[2597]]},{"type":"MultiLineString","properties":{"source":"openstreetmap.org","kind":"major_road","sort_rank":380,"kind_detail":"primary","ref":"EN 360","min_zoom":8.0},"arcs":[[2598],[2599],[2600],[2601],[2602],[2603],[2604],[2605],[2606],[2607],[2608],[2609],[2610],[2611],[2612],[2613],[2614],[2615],[2616],[2617],[2618],[2619],[2620],[2621],[2622],[2623],[2624],[2625],[2626],[2627],[2628],[2629],[2630],[2631],[2632],[2633],[2634],[2635],[2636],[2637],[2638],[2639],[2640],[2641],[2642],[2643],[2644],[2645],[2646],[2647],[2648],[2649],[2650],[2651]]},{"type":"MultiLineString","properties":{"source":"openstreetmap.org","kind":"highway","sort_rank":383,"kind_detail":"motorway","ref":"A 10","min_zoom":8.0},"arcs":[[2652],[2653],[2654],[2655],[2656],[2657],[2658],[2659],[2660],[2661],[2662],[2663],[2664],[2665],[2666],[2667]]},{"type":"LineString","properties":{"source":"openstreetmap.org","kind":"major_road","sort_rank":380,"kind_detail":"primary","ref":"E.N. 1","min_zoom":8.0,"id":506720580},"arcs":[2668]},{"type":"MultiLineString","properties":{"source":"openstreetmap.org","kind":"major_road","sort_rank":380,"kind_detail":"primary","ref":"EN 366","min_zoom":8.0},"arcs":[[2669],[2670],[2671],[2672],[2673],[2674],[2675],[2676],[2677],[2678],[2679],[2680],[2681],[2682]]},{"type":"MultiLineString","properties":{"bus_network":"Mobilis","sort_rank":380,"kind_detail":"primary","is_bicycle_related":true,"kind":"major_road","source":"openstreetmap.org","min_zoom":8.0,"bus_shield_text":"Mobilis 1"},"arcs":[[2683],[2684]]},{"type":"MultiLineString","properties":{"source":"openstreetmap.org","kind":"major_road","landuse_kind":"urban_area","sort_rank":380,"kind_detail":"primary","ref":"EN 250;N 8","min_zoom":8.0},"arcs":[[2685],[2686]]},{"type":"MultiLineString","properties":{"source":"openstreetmap.org","kind":"major_road","landuse_kind":"protected_area","sort_rank":381,"kind_detail":"trunk","ref":"IC 8","min_zoom":8.0},"arcs":[[2687],[2688]]},{"type":"MultiLineString","properties":{"kind":"major_road","network":"PT:national","sort_rank":380,"kind_detail":"primary","source":"openstreetmap.org","min_zoom":8.0,"shield_text":"1","ref":"EN 1"},"arcs":[[2689],[2690],[2691],[2692],[2693],[2694],[2695],[2696],[2697],[2698],[2699],[2700],[2701],[2702],[2703],[2704],[2705],[2706],[2707],[2708],[2709],[2710],[2711],[2712],[2713],[2714],[2715],[2716],[2717],[2718],[2719],[2720],[2721],[2722],[2723],[2724],[2725],[2726],[2727],[2728],[2729],[2730],[2731],[2732],[2733],[2734]]},{"type":"MultiLineString","properties":{"source":"openstreetmap.org","kind":"major_road","network":null,"sort_rank":380,"kind_detail":"primary","min_zoom":8.0,"shield_text":"8-5"},"arcs":[[2735],[2736],[2737],[2738],[2739],[2740],[2741],[2742],[2743],[2744],[2745],[2746],[2747],[2748],[2749],[2750],[2751],[2752],[2753],[2754],[2755],[2756],[2757],[2758],[2759],[2760],[2761],[2762],[2763],[2764],[2765],[2766],[2767],[2768],[2769],[2770],[2771],[2772],[2773],[2774],[2775],[2776],[2777],[2778],[2779],[2780],[2781],[2782],[2783],[2784],[2785],[2786],[2787],[2788],[2789],[2790],[2791],[2792],[2793],[2794]]},{"type":"LineString","properties":{"kind":"major_road","network":"PT:national","sort_rank":380,"kind_detail":"primary","source":"openstreetmap.org","min_zoom":8.0,"shield_text":"243","ref":"EN 3;EN 243","id":126223253},"arcs":[2795]},{"type":"MultiLineString","properties":{"source":"openstreetmap.org","kind":"major_road","landuse_kind":"residential","sort_rank":381,"kind_detail":"trunk","ref":"EN 115-5","min_zoom":8.0},"arcs":[[2796],[2797],[2798],[2799],[2800]]},{"type":"MultiLineString","properties":{"source":"openstreetmap.org","kind":"major_road","network":null,"sort_rank":381,"kind_detail":"trunk","min_zoom":8.0,"shield_text":"6"},"arcs":[[2801],[2802]]},{"type":"MultiLineString","properties":{"kind":"major_road","sort_rank":380,"kind_detail":"primary","is_bicycle_related":true,"source":"openstreetmap.org","min_zoom":8.0,"landuse_kind":"nature_reserve","ref":"EN 9"},"arcs":[[2803],[2804]]},{"type":"MultiLineString","properties":{"kind":"highway","network":"PT:national","sort_rank":383,"kind_detail":"motorway","source":"openstreetmap.org","min_zoom":8.0,"all_networks":["PT:national","PT:national",null],"shield_text":"1","ref":"A 8","all_shield_texts":["1","8","6"]},"arcs":[[2805],[2806]]},{"type":"MultiLineString","properties":{"source":"openstreetmap.org","kind":"major_road","network":null,"sort_rank":381,"kind_detail":"trunk","min_zoom":8.0,"shield_text":"9"},"arcs":[[2807],[2808],[2809],[2810],[2811],[2812],[2813],[2814],[2815],[2816],[2817],[2818],[2819],[2820],[2821]]},{"type":"LineString","properties":{"bus_network":null,"sort_rank":377,"landuse_kind":"nature_reserve","is_bicycle_related":true,"kind":"major_road","bicycle_shield_text":"EV1","bicycle_network":"icn","source":"openstreetmap.org","min_zoom":8.0,"bus_shield_text":"440","kind_detail":"tertiary"},"arcs":[2822]},{"type":"LineString","properties":{"source":"openstreetmap.org","kind":"major_road","sort_rank":380,"kind_detail":"primary","ref":"EN 117","min_zoom":8.0,"id":36998648},"arcs":[2823]},{"type":"MultiLineString","properties":{"kind":"highway","network":"PT:national","sort_rank":383,"kind_detail":"motorway","source":"openstreetmap.org","min_zoom":8.0,"all_networks":["PT:national","PT:national","e-road","e-road"],"shield_text":"1","ref":"A 1","all_shield_texts":["1","1","01","80"]},"arcs":[[2824],[2825],[2826],[2827],[2828],[2829],[2830],[2831],[2832],[2833],[2834],[2835]]},{"type":"MultiLineString","properties":{"kind":"major_road","network":"PT:national","sort_rank":381,"kind_detail":"trunk","source":"openstreetmap.org","min_zoom":8.0,"shield_text":"1","ref":"EN 1;IC 2"},"arcs":[[2836],[2837],[2838],[2839],[2840],[2841],[2842],[2843],[2844],[2845],[2846],[2847],[2848]]},{"type":"LineString","properties":{"kind":"major_road","network":null,"sort_rank":380,"kind_detail":"primary","source":"openstreetmap.org","min_zoom":8.0,"shield_text":"242-1","id":158188706},"arcs":[2849]},{"type":"MultiLineString","properties":{"kind":"path","sort_rank":354,"kind_detail":"track","is_bicycle_related":true,"bicycle_shield_text":"Ecovia 11","bicycle_network":"ncn","source":"openstreetmap.org","min_zoom":8.0},"arcs":[[2850],[2851],[2852],[2853]]},{"type":"MultiLineString","properties":{"kind":"major_road","network":"PT:national","sort_rank":380,"kind_detail":"primary","source":"openstreetmap.org","min_zoom":8.0,"shield_text":"8","ref":"EN 8"},"arcs":[[2854],[2855],[2856],[2857],[2858],[2859],[2860],[2861],[2862],[2863],[2864],[2865],[2866],[2867],[2868],[2869],[2870],[2871],[2872],[2873],[2874],[2875],[2876],[2877],[2878],[2879],[2880],[2881],[2882],[2883],[2884],[2885],[2886],[2887],[2888],[2889],[2890],[2891],[2892],[2893],[2894],[2895],[2896],[2897],[2898],[2899],[2900],[2901],[2902],[2903],[2904],[2905],[2906],[2907],[2908],[2909],[2910],[2911],[2912],[2913],[2914],[2915],[2916],[2917],[2918],[2919],[2920],[2921],[2922],[2923],[2924],[2925],[2926],[2927],[2928],[2929],[2930],[2931],[2932],[2933],[2934],[2935],[2936],[2937],[2938],[2939],[2940],[2941]]},{"type":"MultiLineString","properties":{"source":"openstreetmap.org","kind":"major_road","sort_rank":380,"kind_detail":"primary","ref":"EN 248-3","min_zoom":8.0},"arcs":[[2942],[2943]]},{"type":"LineString","properties":{"kind":"major_road","sort_rank":380,"landuse_kind":"protected_area","source":"openstreetmap.org","min_zoom":8.0,"kind_detail":"primary","ref":"EN 360","id":37043228},"arcs":[2944]},{"type":"LineString","properties":{"source":"openstreetmap.org","kind":"major_road","ref":"EN 357","sort_rank":380,"kind_detail":"primary","is_bicycle_related":true,"min_zoom":8.0},"arcs":[2945]},{"type":"MultiLineString","properties":{"bus_network":"Barraqueiro","network":"PT:national","sort_rank":380,"kind_detail":"primary","is_bicycle_related":true,"kind":"major_road","source":"openstreetmap.org","min_zoom":8.0,"bus_shield_text":"Linha 2","shield_text":"1","ref":"EN 1;IC 2"},"arcs":[[2946],[2947],[2948]]},{"type":"LineString","properties":{"bus_network":"Mobilis","sort_rank":381,"kind_detail":"trunk","is_bicycle_related":true,"kind":"major_road","source":"openstreetmap.org","min_zoom":8.0,"bus_shield_text":"Mobilis 1"},"arcs":[2949]},{"type":"MultiLineString","properties":{"source":"openstreetmap.org","kind":"major_road","sort_rank":380,"kind_detail":"primary","ref":"EN 365","min_zoom":8.0},"arcs":[[2950],[2951],[2952],[2953],[2954],[2955],[2956],[2957],[2958],[2959],[2960],[2961],[2962],[2963],[2964],[2965],[2966],[2967],[2968],[2969],[2970],[2971],[2972],[2973]]},{"type":"MultiLineString","properties":{"source":"openstreetmap.org","kind":"major_road","sort_rank":380,"kind_detail":"primary","ref":"EN9","min_zoom":8.0},"arcs":[[2974],[2975],[2976]]},{"type":"MultiLineString","properties":{"kind":"highway","network":"PT:national","sort_rank":383,"landuse_kind":"urban_area","source":"openstreetmap.org","min_zoom":8.0,"all_networks":["PT:national","PT:national"],"kind_detail":"motorway","shield_text":"1","ref":"A 8","all_shield_texts":["1","8"]},"arcs":[[2977],[2978],[2979],[2980]]},{"type":"MultiLineString","properties":{"kind":"major_road","network":"PT:national","sort_rank":380,"kind_detail":"primary","source":"openstreetmap.org","min_zoom":8.0,"landuse_kind":"urban_area","shield_text":"8","ref":"EN 8"},"arcs":[[2981],[2982],[2983],[2984],[2985],[2986],[2987]]},{"type":"MultiLineString","properties":{"source":"openstreetmap.org","bus_network":"Mobilis","bus_shield_text":"Mobilis 1","sort_rank":380,"kind_detail":"primary","min_zoom":8.0,"kind":"major_road"},"arcs":[[2988],[2989],[2990],[2991],[2992]]},{"type":"MultiLineString","properties":{"source":"openstreetmap.org","kind":"major_road","ref":"EN 114","sort_rank":380,"kind_detail":"primary","is_bicycle_related":true,"min_zoom":8.0},"arcs":[[2993],[2994]]},{"type":"MultiLineString","properties":{"kind":"major_road","network":"PT:national","sort_rank":380,"kind_detail":"primary","bus_network":"Barraqueiro","source":"openstreetmap.org","min_zoom":8.0,"bus_shield_text":"Linha 2","shield_text":"1"},"arcs":[[2995],[2996],[2997]]},{"type":"MultiLineString","properties":{"source":"openstreetmap.org","kind":"major_road","sort_rank":380,"kind_detail":"primary","ref":"EN 248","min_zoom":8.0},"arcs":[[2998],[2999],[3000],[3001]]},{"type":"MultiLineString","properties":{"source":"openstreetmap.org","kind":"major_road","sort_rank":380,"kind_detail":"primary","ref":"EN 9;EN 247","min_zoom":8.0},"arcs":[[3002],[3003],[3004]]},{"type":"MultiLineString","properties":{"source":"openstreetmap.org","kind":"major_road","sort_rank":380,"kind_detail":"primary","ref":"EN114","min_zoom":8.0},"arcs":[[3005],[3006],[3007]]},{"type":"MultiLineString","properties":{"source":"openstreetmap.org","kind":"major_road","ref":"EN 118","sort_rank":380,"kind_detail":"primary","is_bicycle_related":true,"min_zoom":8.0},"arcs":[[3008],[3009]]},{"type":"MultiLineString","properties":{"kind":"major_road","sort_rank":381,"kind_detail":"trunk","source":"openstreetmap.org","min_zoom":8.0,"landuse_kind":"protected_area","ref":"IC 9","osm_relation":true},"arcs":[[3010],[3011],[3012],[3013]]},{"type":"MultiLineString","properties":{"source":"openstreetmap.org","kind":"major_road","ref":"CRIMA","sort_rank":381,"kind_detail":"trunk","is_bicycle_related":true,"min_zoom":8.0},"arcs":[[3014],[3015],[3016],[3017]]},{"type":"LineString","properties":{"kind":"major_road","network":"PT:national","sort_rank":380,"kind_detail":"primary","source":"openstreetmap.org","min_zoom":8.0,"shield_text":"1","ref":"EN 1;IC 2"},"arcs":[3018]},{"type":"LineString","properties":{"kind":"major_road","network":"PT:national","sort_rank":380,"kind_detail":"primary","source":"openstreetmap.org","min_zoom":8.0,"landuse_kind":"protected_area","shield_text":"1","ref":"EN 1"},"arcs":[3019]},{"type":"MultiLineString","properties":{"kind":"highway","network":"PT:national","sort_rank":383,"landuse_kind":"nature_reserve","source":"openstreetmap.org","min_zoom":8.0,"all_networks":["PT:national","PT:national","e-road","e-road"],"kind_detail":"motorway","shield_text":"1","ref":"A 1","all_shield_texts":["1","1","01","80"]},"arcs":[[3020],[3021],[3022],[3023],[3024],[3025],[3026],[3027]]},{"type":"MultiLineString","properties":{"kind":"path","sort_rank":354,"kind_detail":"pedestrian","is_bicycle_related":true,"bicycle_shield_text":"Ecovia 11","bicycle_network":"ncn","source":"openstreetmap.org","min_zoom":8.0},"arcs":[[3028],[3029]]},{"type":"MultiLineString","properties":{"source":"openstreetmap.org","kind":"major_road","landuse_kind":"urban_area","sort_rank":380,"kind_detail":"primary","min_zoom":8.0},"arcs":[[3030],[3031],[3032],[3033],[3034],[3035],[3036],[3037],[3038],[3039],[3040],[3041],[3042],[3043],[3044],[3045],[3046],[3047],[3048],[3049],[3050],[3051],[3052],[3053],[3054],[3055],[3056],[3057],[3058],[3059],[3060],[3061],[3062],[3063],[3064],[3065],[3066],[3067],[3068],[3069],[3070],[3071]]},{"type":"LineString","properties":{"kind":"major_road","sort_rank":380,"kind_detail":"primary","is_bicycle_related":true,"source":"openstreetmap.org","min_zoom":8.0,"ref":"EN 114-2","id":153150954},"arcs":[3072]},{"type":"MultiLineString","properties":{"source":"openstreetmap.org","kind":"major_road","sort_rank":380,"kind_detail":"primary","ref":"EN 361","min_zoom":8.0},"arcs":[[3073],[3074],[3075],[3076],[3077],[3078],[3079],[3080],[3081],[3082],[3083],[3084],[3085],[3086],[3087]]},{"type":"MultiLineString","properties":{"source":"openstreetmap.org","kind":"major_road","landuse_kind":"nature_reserve","sort_rank":380,"kind_detail":"primary","min_zoom":8.0},"arcs":[[3088],[3089],[3090],[3091],[3092],[3093],[3094],[3095],[3096]]},{"type":"MultiLineString","properties":{"kind":"major_road","network":null,"sort_rank":380,"kind_detail":"primary","source":"openstreetmap.org","min_zoom":8.0,"shield_text":"361","ref":"EN 361"},"arcs":[[3097],[3098],[3099],[3100],[3101],[3102],[3103],[3104],[3105],[3106],[3107],[3108],[3109],[3110],[3111]]},{"type":"LineString","properties":{"source":"openstreetmap.org","kind":"major_road","sort_rank":380,"kind_detail":"primary","ref":"EN 374","min_zoom":8.0},"arcs":[3112]},{"type":"MultiLineString","properties":{"source":"openstreetmap.org","kind":"major_road","landuse_kind":"residential","sort_rank":380,"kind_detail":"primary","ref":"EN 10","min_zoom":8.0},"arcs":[[3113],[3114],[3115],[3116],[3117],[3118],[3119],[3120],[3121],[3122],[3123],[3124],[3125],[3126],[3127],[3128],[3129],[3130],[3131],[3132]]},{"type":"MultiLineString","properties":{"kind":"major_road","network":"PT:national","sort_rank":380,"kind_detail":"primary","source":"openstreetmap.org","min_zoom":8.0,"shield_text":"3","ref":"EN 3;EN 243"},"arcs":[[3133],[3134],[3135],[3136],[3137],[3138],[3139],[3140],[3141],[3142],[3143],[3144],[3145],[3146],[3147],[3148],[3149],[3150],[3151],[3152],[3153],[3154],[3155],[3156],[3157],[3158],[3159],[3160],[3161],[3162],[3163]]},{"type":"MultiLineString","properties":{"kind":"major_road","network":"PT:national","sort_rank":380,"kind_detail":"primary","is_bicycle_related":true,"bus_network":"Barraqueiro","source":"openstreetmap.org","min_zoom":8.0,"bus_shield_text":"Linha 2","shield_text":"1"},"arcs":[[3164],[3165],[3166]]},{"type":"MultiLineString","properties":{"kind":"minor_road","sort_rank":360,"kind_detail":"unclassified","is_bicycle_related":true,"bicycle_shield_text":"Ecovia 11","bicycle_network":"ncn","source":"openstreetmap.org","min_zoom":8.0},"arcs":[[3167],[3168],[3169],[3170],[3171]]},{"type":"LineString","properties":{"source":"openstreetmap.org","kind":"major_road","sort_rank":380,"kind_detail":"primary","ref":"EN242","min_zoom":8.0,"id":55272282},"arcs":[3172]},{"type":"MultiLineString","properties":{"source":"openstreetmap.org","kind":"major_road","landuse_kind":"residential","sort_rank":380,"kind_detail":"primary","is_bicycle_related":true,"min_zoom":8.0},"arcs":[[3173],[3174],[3175],[3176],[3177],[3178],[3179],[3180],[3181],[3182],[3183],[3184],[3185],[3186],[3187],[3188],[3189],[3190],[3191],[3192],[3193],[3194]]},{"type":"MultiLineString","properties":{"kind":"highway","network":"e-road","sort_rank":383,"kind_detail":"motorway","source":"openstreetmap.org","min_zoom":8.0,"all_networks":["e-road",null],"shield_text":"806","ref":"A 23","all_shield_texts":["806","23"]},"arcs":[[3195],[3196]]},{"type":"LineString","properties":{"kind":"major_road","sort_rank":380,"kind_detail":"primary","bus_network":null,"source":"openstreetmap.org","min_zoom":8.0,"bus_shield_text":"443","ref":"EN 247","id":18461256},"arcs":[3197]},{"type":"MultiLineString","properties":{"bus_network":"Barraqueiro","network":"PT:national","sort_rank":380,"kind_detail":"primary","is_bicycle_related":true,"kind":"major_road","source":"openstreetmap.org","min_zoom":8.0,"bus_shield_text":"Linha 2","shield_text":"1","ref":"EN 1"},"arcs":[[3198],[3199],[3200]]},{"type":"LineString","properties":{"source":"openstreetmap.org","kind":"major_road","sort_rank":380,"kind_detail":"primary","ref":"EN 357","min_zoom":8.0},"arcs":[3201]},{"type":"MultiLineString","properties":{"source":"openstreetmap.org","kind":"major_road","sort_rank":380,"kind_detail":"primary","ref":"EN 114-2","min_zoom":8.0},"arcs":[[3202],[3203],[3204],[3205],[3206],[3207],[3208],[3209],[3210],[3211],[3212],[3213],[3214],[3215],[3216],[3217],[3218]]},{"type":"MultiLineString","properties":{"source":"openstreetmap.org","kind":"major_road","sort_rank":380,"kind_detail":"primary","ref":"EN 243","min_zoom":8.0},"arcs":[[3219],[3220],[3221],[3222],[3223],[3224],[3225],[3226],[3227],[3228],[3229],[3230],[3231],[3232]]},{"type":"LineString","properties":{"kind":"major_road","network":"PT:regional","sort_rank":380,"kind_detail":"primary","is_bicycle_related":true,"source":"openstreetmap.org","min_zoom":8.0,"shield_text":"349","ref":"EN 113","id":108704509},"arcs":[3233]},{"type":"LineString","properties":{"source":"openstreetmap.org","kind":"major_road","sort_rank":380,"kind_detail":"primary","ref":"EN 356-2","min_zoom":8.0},"arcs":[3234]},{"type":"MultiLineString","properties":{"kind":"major_road","network":"PT:national","sort_rank":380,"kind_detail":"primary","source":"openstreetmap.org","min_zoom":8.0,"shield_text":"8","ref":"EN 8;EN 114"},"arcs":[[3235],[3236],[3237],[3238],[3239],[3240],[3241],[3242],[3243],[3244],[3245],[3246],[3247],[3248],[3249],[3250],[3251],[3252],[3253],[3254],[3255],[3256],[3257]]},{"type":"MultiLineString","properties":{"kind":"highway","network":null,"sort_rank":383,"kind_detail":"motorway","source":"openstreetmap.org","min_zoom":8.0,"all_networks":[null],"shield_text":"9","ref":"A 9","all_shield_texts":["9"]},"arcs":[[3258],[3259],[3260],[3261]]},{"type":"LineString","properties":{"kind":"major_road","network":null,"sort_rank":381,"kind_detail":"trunk","source":"openstreetmap.org","min_zoom":8.0,"landuse_kind":"nature_reserve","shield_text":"2","id":177863302},"arcs":[3262]},{"type":"LineString","properties":{"kind":"major_road","sort_rank":380,"kind_detail":"primary","bus_network":"Barraqueiro","source":"openstreetmap.org","min_zoom":8.0,"bus_shield_text":"Linha 2","ref":"EN 10"},"arcs":[3263]},{"type":"MultiLineString","properties":{"kind":"major_road","network":"PT:national","sort_rank":380,"kind_detail":"primary","source":"openstreetmap.org","min_zoom":8.0,"shield_text":"243","ref":"EN 243"},"arcs":[[3264],[3265],[3266],[3267],[3268],[3269],[3270],[3271],[3272],[3273],[3274],[3275],[3276],[3277],[3278],[3279],[3280]]},{"type":"MultiLineString","properties":{"source":"openstreetmap.org","kind":"major_road","sort_rank":380,"kind_detail":"primary","ref":"EN 118","min_zoom":8.0},"arcs":[[3281],[3282],[3283],[3284],[3285],[3286],[3287],[3288],[3289],[3290],[3291],[3292],[3293],[3294],[3295],[3296],[3297],[3298],[3299],[3300],[3301],[3302],[3303],[3304],[3305],[3306],[3307],[3308],[3309],[3310],[3311],[3312],[3313],[3314],[3315],[3316],[3317],[3318],[3319],[3320],[3321],[3322],[3323],[3324],[3325],[3326],[3327]]},{"type":"MultiLineString","properties":{"source":"openstreetmap.org","kind":"major_road","landuse_kind":"urban_area","sort_rank":380,"kind_detail":"primary","ref":"EN 115","min_zoom":8.0},"arcs":[[3328],[3329],[3330]]},{"type":"MultiLineString","properties":{"source":"openstreetmap.org","kind":"major_road","sort_rank":380,"kind_detail":"primary","ref":"EN 356","min_zoom":8.0,"osm_relation":true},"arcs":[[3331],[3332]]},{"type":"MultiLineString","properties":{"kind":"major_road","network":"PT:national","sort_rank":381,"kind_detail":"trunk","source":"openstreetmap.org","min_zoom":8.0,"shield_text":"1","ref":"IC 2"},"arcs":[[3333],[3334],[3335],[3336],[3337]]},{"type":"LineString","properties":{"kind":"major_road","sort_rank":380,"kind_detail":"primary","source":"openstreetmap.org","min_zoom":8.0,"ref":"EN 114","id":-6172756,"osm_relation":true},"arcs":[3338]},{"type":"LineString","properties":{"source":"openstreetmap.org","kind":"major_road","sort_rank":380,"kind_detail":"primary","ref":"EN 3-3","min_zoom":8.0},"arcs":[3339]},{"type":"MultiLineString","properties":{"kind":"major_road","network":null,"sort_rank":380,"kind_detail":"primary","source":"openstreetmap.org","min_zoom":8.0,"landuse_kind":"protected_area","shield_text":"357","ref":"EN 357"},"arcs":[[3340],[3341]]},{"type":"MultiLineString","properties":{"kind":"major_road","network":"PT:national","sort_rank":380,"kind_detail":"primary","source":"openstreetmap.org","min_zoom":8.0,"landuse_kind":"nature_reserve","shield_text":"243","osm_relation":true},"arcs":[[3342],[3343],[3344],[3345],[3346],[3347]]},{"type":"LineString","properties":{"kind":"major_road","sort_rank":380,"kind_detail":"primary","is_bicycle_related":true,"source":"openstreetmap.org","min_zoom":8.0,"ref":"EN 242","id":443439178},"arcs":[3348]},{"type":"LineString","properties":{"kind":"major_road","network":null,"sort_rank":380,"kind_detail":"primary","source":"openstreetmap.org","min_zoom":8.0,"shield_text":"114","id":95512307},"arcs":[3349]},{"type":"MultiLineString","properties":{"source":"openstreetmap.org","kind":"major_road","sort_rank":381,"kind_detail":"trunk","ref":"IC 2","min_zoom":8.0,"osm_relation":true},"arcs":[[3350],[3351],[3352],[3353],[3354],[3355],[3356],[3357],[3358],[3359],[3360],[3361],[3362]]},{"type":"MultiLineString","properties":{"source":"openstreetmap.org","kind":"major_road","sort_rank":380,"kind_detail":"primary","ref":"EN 8-2","min_zoom":8.0},"arcs":[[3363],[3364],[3365],[3366]]},{"type":"LineString","properties":{"kind":"major_road","sort_rank":380,"kind_detail":"primary","bus_network":null,"source":"openstreetmap.org","min_zoom":8.0,"bus_shield_text":"443","landuse_kind":"urban_area","ref":"EN 247","id":18461256},"arcs":[3367]},{"type":"LineString","properties":{"source":"openstreetmap.org","kind":"major_road","sort_rank":380,"kind_detail":"primary","ref":"EN 1","min_zoom":8.0},"arcs":[3368]},{"type":"LineString","properties":{"kind":"major_road","network":null,"sort_rank":380,"kind_detail":"primary","is_bicycle_related":true,"source":"openstreetmap.org","min_zoom":8.0,"shield_text":"109-9"},"arcs":[3369]},{"type":"MultiLineString","properties":{"kind":"major_road","network":null,"sort_rank":381,"kind_detail":"trunk","source":"openstreetmap.org","min_zoom":8.0,"shield_text":"6","ref":"IP 6"},"arcs":[[3370],[3371],[3372],[3373],[3374],[3375],[3376],[3377],[3378],[3379]]},{"type":"MultiLineString","properties":{"kind":"major_road","network":"PT:national","sort_rank":381,"kind_detail":"trunk","source":"openstreetmap.org","min_zoom":8.0,"landuse_kind":"nature_reserve","shield_text":"1","ref":"IC 2;EN 1"},"arcs":[[3380],[3381],[3382],[3383],[3384],[3385],[3386],[3387],[3388],[3389],[3390]]},{"type":"MultiLineString","properties":{"source":"openstreetmap.org","kind":"major_road","landuse_kind":"nature_reserve","sort_rank":381,"kind_detail":"trunk","ref":"IC 2","min_zoom":8.0},"arcs":[[3391],[3392]]},{"type":"LineString","properties":{"source":"openstreetmap.org","kind":"major_road","sort_rank":380,"kind_detail":"primary","ref":"E.N.8","min_zoom":8.0,"id":506687588},"arcs":[3393]},{"type":"MultiLineString","properties":{"source":"openstreetmap.org","kind":"major_road","sort_rank":381,"kind_detail":"trunk","ref":"IC 2","min_zoom":8.0},"arcs":[[3394],[3395],[3396],[3397],[3398],[3399],[3400],[3401],[3402],[3403],[3404],[3405],[3406],[3407],[3408],[3409]]},{"type":"LineString","properties":{"kind":"major_road","network":"PT:national","sort_rank":381,"kind_detail":"trunk","source":"openstreetmap.org","min_zoom":8.0,"shield_text":"1","ref":"EN 1-IC 2","id":269579086},"arcs":[3410]},{"type":"LineString","properties":{"source":"openstreetmap.org","kind":"major_road","sort_rank":381,"kind_detail":"trunk","ref":"IC 8","min_zoom":8.0},"arcs":[3411]},{"type":"LineString","properties":{"kind":"major_road","sort_rank":380,"kind_detail":"primary","source":"openstreetmap.org","min_zoom":8.0,"landuse_kind":"protected_area","ref":"EN 113","id":-1519248,"osm_relation":true},"arcs":[3412]},{"type":"LineString","properties":{"source":"openstreetmap.org","kind":"major_road","sort_rank":380,"kind_detail":"primary","ref":"Rua da Salvaterra","min_zoom":8.0,"id":116397673},"arcs":[3413]},{"type":"LineString","properties":{"kind":"major_road","sort_rank":380,"kind_detail":"primary","is_bicycle_related":true,"source":"openstreetmap.org","min_zoom":8.0,"ref":"ER 349","id":167370519},"arcs":[3414]},{"type":"LineString","properties":{"source":"openstreetmap.org","kind":"major_road","kind_detail":"trunk","sort_rank":381,"landuse_kind":"urban_area","ref":"EN 9;IC 30","min_zoom":8.0},"arcs":[3415]}]},"earth":{"type":"GeometryCollection","geometries":[{"type":"MultiPolygon","properties":{"sort_rank":10,"source":"naturalearthdata.com","min_zoom":0.0,"kind":"earth","area":20268978438},"arcs":[[[3416]],[[3417]]]}]},"landuse":{"type":"GeometryCollection","geometries":[{"type":"Polygon","properties":{"kind":"nature_reserve","protect_class":"5","area":13034600,"sort_rank":23,"operator":"CM Coruche","source":"openstreetmap.org","min_zoom":8.0,"tier":2,"id":-7387224,"osm_relation":true},"arcs":[[3418],[3419]]},{"type":"Polygon","properties":{"kind":"nature_reserve","area":189107008,"sort_rank":23,"source":"openstreetmap.org","min_zoom":6.0,"tier":2,"id":-6301185,"osm_relation":true},"arcs":[[3420]]},{"type":"Polygon","properties":{"kind":"residential","area":16497800,"sort_rank":20,"source":"openstreetmap.org","min_zoom":8.0,"tier":2,"id":-5620897,"osm_relation":true},"arcs":[[3421],[3422]]},{"type":"MultiPolygon","properties":{"source":"openstreetmap.org","kind":"nature_reserve","tier":2,"area":30425063,"sort_rank":23,"min_zoom":8.0},"arcs":[[[3423]],[[3424]]]},{"type":"MultiPolygon","properties":{"source":"naturalearthdata.com","kind":"urban_area","name":"","area":1495548109,"sort_rank":11,"min_zoom":4.0},"arcs":[[[3425]],[[3426]]]},{"type":"MultiPolygon","properties":{"kind":"nature_reserve","protect_class":"2","area":729970862,"sort_rank":23,"operator":"ICNF","source":"openstreetmap.org","min_zoom":6.0,"tier":2,"osm_relation":true},"arcs":[[[3427]],[[3428]]]},{"type":"Polygon","properties":{"kind":"nature_reserve","protect_class":"2","area":13705700,"sort_rank":23,"operator":"ICNF","source":"openstreetmap.org","min_zoom":8.0,"tier":2,"id":423845997},"arcs":[[3429]]},{"type":"MultiPolygon","properties":{"source":"openstreetmap.org","kind":"residential","tier":2,"area":29773253,"sort_rank":20,"min_zoom":8.0},"arcs":[[[3430]],[[3431]]]},{"type":"MultiPolygon","properties":{"kind":"protected_area","protect_class":"97","area":1887080846,"sort_rank":17,"operator":"ICNF","source":"openstreetmap.org","min_zoom":6.0,"tier":2,"osm_relation":true},"arcs":[[[3432]],[[3433]],[[3434]],[[3435]],[[3436]]]},{"type":"Polygon","properties":{"source":"openstreetmap.org","kind":"nature_reserve","area":160167008,"tier":2,"id":423803267,"min_zoom":6.0,"sort_rank":23},"arcs":[[3437]]},{"type":"Polygon","properties":{"kind":"nature_reserve","protect_class":"5","area":81612000,"sort_rank":23,"operator":"ICNF","source":"openstreetmap.org","min_zoom":8.0,"tier":2,"id":-6267171,"osm_relation":true},"arcs":[[3438],[3439],[3440],[3441],[3442],[3443]]}]}},"type":"Topology","transform":{"translate":[-9.84375,38.8225909762],"scale":[0.0003433228,0.0002654163]},"arcs":[[[1062,4096],[-867,-1244],[-99,-228],[-22,-198],[61,-309],[94,-2117]],[[2567,0],[-13,13]],[[3403,0],[-31,15],[-32,52],[-32,19],[-11,-86]],[[3413,0],[-7,0]],[[3611,0],[23,70],[-97,-40],[-4,-30]],[[2554,13],[-4,-10]],[[2550,3],[-4,-3]],[[2661,736],[-30,-65],[-99,56],[-43,-50],[-38,-3],[-21,52],[-49,7],[-37,-34],[46,-78],[-7,-103],[-54,9],[-37,-33],[-80,57],[-29,-6],[-21,-36],[42,-38],[21,-73],[-65,-26],[-87,74],[-51,-2],[-29,-40],[-15,100],[-69,-19],[-2,26],[-34,1],[-116,-38],[34,20],[-6,36],[77,30],[0,105],[-34,76],[-81,-52],[-63,61],[-67,-1],[-30,32],[-27,-93],[-91,45],[18,41],[-55,20],[3,74],[-71,3],[-40,41],[-79,-38]],[[2549,19],[167,229],[0,56],[58,82],[0,73],[119,61],[-81,45],[44,28],[8,69],[53,77],[-54,37],[-84,11],[-13,-31],[43,-26],[-9,-25],[-91,-8],[-16,24],[22,53],[-54,-38]],[[1245,874],[-4,-13]],[[2544,5],[5,14]],[[1241,861],[-29,-184],[35,-216],[-168,-461]],[[2284,0],[100,142],[-9,-45],[42,-97]],[[2543,0],[1,5]],[[2661,736],[-16,66],[-32,-13],[-41,24],[26,67],[14,-20],[22,125],[-7,58],[-34,10],[-6,29],[107,-14],[-53,107],[2,78],[-32,-30],[-68,58],[-1,61],[-82,6],[-16,23],[86,379],[-56,36],[23,83],[-37,55],[-7,81],[29,80],[59,65],[75,-8],[123,282],[32,-3],[32,35],[102,-7],[128,39],[125,-27],[25,-59],[47,6],[58,-76],[-26,-37],[-54,11],[-45,-44],[-18,-67],[37,-24],[84,37],[11,29],[70,-63],[-1,25],[54,37],[50,-25],[35,51],[34,-17],[29,57],[97,-111],[30,30],[38,-41],[93,-15],[102,66],[50,93],[138,75]],[[4096,2381],[0,-10]],[[1247,887],[-2,-13]],[[2576,4096],[-267,-720],[0,-69],[-99,-306],[-2,-56],[33,-17],[-9,-49],[-149,-219],[-48,-27],[8,-37],[-85,-40],[-92,-103],[-70,-142],[-105,-101],[-175,-126],[-40,-7],[-12,21],[4,-42],[-34,-25],[-56,6],[-25,48],[3,-26],[-55,6],[-36,-41],[122,-36],[15,-101],[44,-44],[34,-137],[-31,-268],[-39,-126],[-181,-362],[18,-63]],[[2549,19],[5,-6]],[[2241,2949],[1,-4]],[[2242,2945],[0,-2]],[[2242,2943],[2,-3]],[[3404,1580],[-12,-80],[-122,-88],[-12,-53],[-80,-86],[-73,-176]],[[3991,2408],[-185,-218],[-49,-131],[-68,-79],[-134,-48],[-38,-199],[-97,-88],[-16,-65]],[[4006,2725],[6,5]],[[4010,2729],[2,1]],[[4012,2730],[1,0]],[[4013,2730],[5,4]],[[4013,2730],[2,2]],[[2360,256],[286,530],[168,120]],[[2814,906],[6,4]],[[2814,906],[100,74],[125,45],[65,72]],[[3105,1097],[-64,-71],[-130,-48],[-261,-187],[-290,-535]],[[3990,2408],[59,166],[-57,115],[27,114],[-91,179],[9,131],[-46,113],[24,47],[-186,125],[-1,125],[-59,99]],[[3669,3622],[-16,35],[55,97],[-25,47],[-183,39],[-49,77],[7,51],[81,103],[-1,25]],[[4096,2410],[-76,25],[-29,-28]],[[3125,1104],[7,29]],[[3104,1097],[74,177],[80,85],[12,53],[122,88],[11,80]],[[3538,4096],[1,-25],[-81,-103],[-6,-52],[50,-77],[147,-15],[34,-23],[24,-50],[-54,-102],[75,-126],[-1,-120],[188,-129],[-24,-48],[46,-113],[-8,-131],[90,-179],[-27,-114],[57,-115],[-58,-166]],[[3403,1580],[17,65],[97,88],[37,199],[135,48],[68,79],[49,131],[184,218]],[[0,0],[0,4096],[2564,0],[-86,-251],[-229,-613],[-18,-143],[-37,-101],[6,-72],[-6,-65],[-60,-107],[-30,-59],[-42,-72],[-83,-53],[-54,-36],[-24,-41],[-66,-78],[-47,-76],[48,-46],[22,-49],[-34,-35],[-30,8],[-36,44],[-60,-6],[-54,-48],[-214,-142],[-131,38],[-34,-11],[22,-38],[105,-110],[34,-74],[40,-186],[-18,-119],[-12,-143],[-60,-137],[-36,-102],[-113,-208],[-12,-102],[-29,-83],[33,-143],[7,-227],[-95,-305],[-71,-74],[-25,-31],[-1035,0]],[[977,2258],[-11,-40],[30,34],[-19,6]],[[2157,0],[9,29],[30,50],[90,105],[161,325],[141,205],[56,108],[39,32],[251,28],[130,97],[78,58],[-28,-54],[-46,-48],[-105,-81],[-55,-24],[-125,-10],[-59,-15],[-101,-79],[-75,-118],[-124,-266],[26,-89],[17,-91],[30,-61],[68,5],[-21,-58],[11,-48],[-294,0],[38,39],[38,61],[20,57],[-2,24],[-17,-11],[-8,-7],[-18,-16],[-33,-35],[-29,-55],[-21,-57],[-72,0]],[[2382,159],[27,-29],[41,16],[4,35],[-15,30],[-18,14],[-22,-14],[-17,-52]],[[2418,344],[-13,23],[-24,-57],[-4,-60],[21,21],[20,73]],[[2555,0],[-11,48],[21,58],[-68,-5],[-30,61],[-17,91],[-26,89],[124,266],[75,118],[101,79],[59,15],[125,10],[55,24],[105,81],[46,48],[28,54],[-78,-58],[-130,-97],[-251,-28],[-39,-32],[-56,-108],[-141,-205],[-161,-325],[-90,-105],[-30,-50],[-9,-29]],[[1035,0],[25,31],[71,74],[95,305],[-7,227],[-33,143],[29,83],[12,102],[113,208],[36,102],[60,137],[12,143],[18,119],[-40,186],[-34,74],[-105,110],[-22,38],[34,11],[131,-38],[214,142],[54,48],[60,6],[36,-44],[30,-8],[34,35],[-22,49],[-48,46],[47,76],[66,78],[24,41],[54,36],[83,53],[42,72],[30,59],[60,107],[6,65],[-6,72],[37,101],[18,143],[229,613],[86,251]],[[2338,170],[-8,-7],[-18,-16],[-33,-35],[-29,-55],[-21,-57]],[[2261,0],[38,39],[38,61],[20,57],[-2,24],[-17,-11]],[[3115,3102],[0,1]],[[2237,1895],[45,-133]],[[1959,37],[1,-1]],[[1960,39],[-1,-2],[1,-1]],[[1960,36],[1,2],[-1,1]],[[1692,1031],[-14,-1]],[[1694,1032],[5,2]],[[1700,1035],[-1,2]],[[2233,76],[-22,-76]],[[2211,0],[21,40],[10,24],[-9,13]],[[2982,2927],[1,0]],[[2983,2927]],[[3192,2755],[-136,57],[-73,115]],[[3289,2714],[157,-176]],[[4096,3623]],[[2778,2763],[0,-1]],[[2078,2570],[1,0]],[[2080,2576],[-1,-4]],[[2079,2572],[1,4]],[[2091,2605],[-11,-29]],[[2091,2554],[95,-6]],[[2092,2611],[1,0]],[[2093,2612],[-1,0]],[[2093,2612]],[[2093,2612],[124,79]],[[2890,3479],[-1,0]],[[2093,2612],[-1,0],[0,-1],[1,0]],[[2093,2611],[0,1]],[[3656,2823],[11,-28]],[[3131,3453],[0,13]],[[3571,3385],[0,-1]],[[3571,3385],[2,27]],[[3571,3384],[0,1]],[[3571,3383],[1,-1]],[[3572,3382],[-1,1]],[[3684,3228],[-61,73],[1,38],[-52,43]],[[3844,2425],[-27,71],[39,349],[-46,94],[-98,106],[-30,98]],[[3677,3221],[-1,0],[-1,0],[1,-1],[1,1]],[[3669,3145],[5,-3]],[[3719,0],[64,104],[84,323]],[[3862,431],[5,-4]],[[3867,427],[-2,7]],[[3917,472],[-2,-2]],[[3916,470],[1,2]],[[4096,598],[-132,-59],[-47,-67]],[[2872,3005],[0,-3],[2,0],[0,2],[-2,1]],[[2535,2718]],[[2535,2718],[0,1]],[[2552,2616],[12,55],[-29,47]],[[2355,323],[-22,-20],[-75,-116]],[[2258,187],[55,76],[20,39],[22,20]],[[3370,2628],[0,2]],[[3374,2657],[89,64]],[[3469,2726],[1,2]],[[1313,503],[120,-78],[51,-63],[97,63],[147,29],[54,-16],[33,-44]],[[1812,399],[-29,40],[-55,15],[-148,-29],[-96,-62],[-51,62],[-120,78]],[[3121,3448],[-55,21]],[[3121,3448],[2,-2]],[[3123,3446],[-2,2]],[[3123,3445],[8,-5]],[[3132,3441],[-6,3]],[[3504,3198],[-2,2]],[[3668,3144],[3,-1]],[[3675,3142]],[[3675,3142]],[[3960,3097],[133,-86]],[[4093,3011],[0,-1]],[[4093,3011]],[[3123,3446]],[[3123,3446]],[[3132,3440],[0,1],[-1,-1]],[[3131,3440],[1,0]],[[3675,3143],[0,-1]],[[3675,3142]],[[3675,3142],[0,1]],[[4094,3011],[-1,-1]],[[4093,3010],[1,0],[1,1],[-1,0]],[[3807,487],[-7,-2]],[[3478,3615],[-71,-24]],[[3652,3652],[-131,-8],[-42,-29]],[[3125,3103],[43,-41],[101,6]],[[2090,500],[-27,-37]],[[2220,595],[-54,-52],[-74,-15],[0,-25]],[[2989,3452],[0,1]],[[1960,93],[8,-15]],[[1968,78],[-7,15]],[[3289,2714],[-97,41]],[[3705,3175],[-5,-30]],[[3571,3384],[0,-1],[0,1]],[[1413,0],[1,6]],[[1414,6],[2,13]],[[2198,0],[6,10]],[[2204,12],[6,20]],[[2221,54],[9,-5]],[[2230,50],[-9,4]],[[2283,163],[-12,-16]],[[2296,184],[-11,-18]],[[2304,201],[-7,-17]],[[2317,237],[-12,-33]],[[2323,243],[-5,-5]],[[2319,237],[5,5]],[[2324,245],[0,-1]],[[2324,244],[0,1]],[[2325,246],[-1,-1]],[[2325,246],[10,18]],[[2342,274],[-7,-10]],[[2342,274],[4,8]],[[2352,297],[-6,-15]],[[2357,307],[-5,-8]],[[2357,308],[0,-1]],[[2358,309],[-1,0]],[[2357,310],[17,13]],[[2374,323],[1,0]],[[2375,324],[-1,-1]],[[2376,324],[-1,0]],[[2376,323],[0,1]],[[2467,456],[-91,-132]],[[2467,456],[4,5]],[[2470,461],[-3,-5]],[[2473,464],[-2,-2]],[[2471,461],[2,3]],[[2485,482],[-12,-18]],[[2485,482],[8,9]],[[2497,513],[-12,-31]],[[2501,520],[-4,2]],[[2497,514],[0,-1]],[[2498,513],[-1,0]],[[2500,519],[1,1]],[[2501,520],[281,-138]],[[2783,382],[19,-9]],[[2815,368],[-12,5]],[[2881,340],[-65,27]],[[3223,63],[-93,30],[-247,246]],[[3223,63],[4,-4]],[[3228,60],[-5,3]],[[3228,58],[5,-3]],[[3233,55],[-4,4]],[[3273,0],[-40,55]],[[2204,12],[0,-1],[0,-1]],[[2204,10],[1,1],[-1,1]],[[2230,50],[5,-3],[1,0],[-5,4],[-1,-1]],[[2283,165],[0,1]],[[2297,184],[-1,1],[0,-1],[1,0]],[[2317,237],[1,0],[1,0],[-1,1],[-1,-1]],[[2325,243],[-1,1],[-1,-1]],[[2323,243],[1,-1],[1,1]],[[2357,309],[0,-1]],[[2357,308],[1,-1],[0,2],[-1,0]],[[2815,367],[1,0],[0,1],[-1,0],[0,-1]],[[2530,760],[-5,-10]],[[2740,872],[-96,-70],[-113,-41]],[[2740,872],[2,1]],[[2741,874],[-1,-2]],[[2741,874],[2,1]],[[2745,876],[-2,-1]],[[2743,874],[2,2]],[[2765,885],[-20,-9]],[[2765,885],[1,0]],[[2766,886],[-1,-1]],[[2766,886],[1,0]],[[2768,887],[-1,-1]],[[2767,886],[1,1]],[[2814,914],[-46,-27]],[[2814,914],[6,3]],[[2820,917],[-6,-3]],[[2829,919],[-8,-1]],[[2821,918],[-1,0],[0,-1],[1,0],[0,1]],[[2821,917],[8,2]],[[2860,945],[-31,-26]],[[2891,1022],[-30,-74]],[[2891,1022],[4,8]],[[3064,1252],[-169,-222]],[[3064,1252],[0,1]],[[3064,1253],[0,-1]],[[3066,1254],[-1,0]],[[3065,1253],[1,1]],[[3067,1256],[-1,-2]],[[3072,1263],[-4,-6]],[[3106,1309]],[[3328,1501],[-65,-103],[-52,-7],[-54,-47]],[[3315,1713],[135,202],[-15,88],[39,17],[-28,114],[26,-10],[26,47],[32,122]],[[3318,1709],[-2,3]],[[3318,1709],[0,-1]],[[3319,1708],[-1,1]],[[3319,1706],[2,-1]],[[3321,1705],[-1,2]],[[3321,1705],[23,-48]],[[3328,1501]],[[3328,1502],[0,-1]],[[3341,1526],[-7,-11],[-5,-12]],[[3329,1503],[12,23]],[[3366,1542],[-25,-16]],[[3344,1657],[0,-1]],[[3344,1655],[16,-64]],[[3344,1656],[0,1]],[[3360,1591],[1,-2]],[[3362,1589],[-2,2]],[[3361,1587],[6,-9]],[[3367,1578],[-5,9]],[[3366,1562],[6,-12]],[[3366,1542],[4,1],[-1,0],[-3,-1]],[[3367,1578],[0,-14]],[[3373,1550],[-6,12]],[[3530,2293],[8,9]],[[3676,2460],[-98,-72],[-40,-86]],[[3678,2460],[-2,0]],[[3676,2460],[2,0]],[[3679,2460],[1,0],[-1,1]],[[3849,2415],[1,0]],[[3850,2415],[-1,0]],[[3994,2420],[-39,-21],[-105,16]],[[3995,2421],[-1,-1]],[[3994,2420],[1,0]],[[3996,2421],[-1,0]],[[3995,2421],[1,0]],[[3996,2422],[0,-1]],[[3996,2422]],[[3996,2422]],[[3997,2423],[-1,0]],[[3997,2422],[0,1]],[[4023,2414],[-26,9]],[[4024,2414],[-1,0]],[[4023,2414],[1,0]],[[4024,2414]],[[4024,2414],[0,-1],[0,1]],[[4026,2416],[-2,-2]],[[4024,2414],[2,2]],[[4026,2416],[2,3]],[[4030,2419],[0,1],[-2,0],[0,-1],[2,0]],[[4030,2419],[7,-7]],[[4037,2412],[11,-3]],[[4048,2409],[6,0]],[[4055,2409],[41,0]],[[2531,761],[-1,-1],[1,0],[0,1]],[[2861,946],[0,1],[-1,0],[0,-1],[1,0]],[[3064,1253],[1,0],[0,1],[-1,0],[0,-1]],[[3072,1263],[1,0],[0,1],[-1,-1]],[[3106,1309],[0,1],[-1,-1],[1,0]],[[3314,1713],[0,-1],[1,0],[1,1],[-2,0]],[[3319,1708],[-1,-1],[1,-1]],[[3319,1706],[1,2],[-1,0]],[[3329,1502],[-1,1],[0,-1],[1,-1],[0,1]],[[3343,1656],[1,-1],[0,1]],[[3344,1656],[-1,0]],[[3360,1589],[0,-2],[2,0]],[[3362,1587],[0,2],[-2,0]],[[3366,1564],[0,-2],[1,0]],[[3367,1562],[0,2]],[[3367,1564],[-1,0]],[[3678,2461],[0,-1],[1,0],[-1,1]],[[3995,2421],[0,-1]],[[3995,2420],[0,1]],[[3996,2422],[1,0],[-1,0]],[[4055,2410],[-1,0],[0,-1],[1,0],[0,1]],[[3370,2399],[1,1]],[[3371,2400],[0,1]],[[1367,961],[1,0]],[[1385,782],[0,-1]],[[1385,781],[1,0]],[[1392,2018],[13,-28],[3,-2]],[[1408,1988],[-16,31]],[[1454,1019],[0,-1]],[[1455,1018],[2,0],[-1,0]],[[1486,424],[6,-8]],[[1492,416],[0,-1]],[[1493,415],[-1,1]],[[1493,414],[1,0]],[[1494,414],[-1,1]],[[1494,414]],[[1497,192],[0,-3]],[[1499,414],[4,0]],[[1503,414],[1,0]],[[1503,414]],[[1519,1940],[1,0]],[[1521,1011],[4,0]],[[1553,1565],[1,5]],[[1561,1001]],[[1562,1002]],[[1613,1031],[0,-1]],[[1639,1036],[-1,-1]],[[1642,1036],[-1,0]],[[1672,1919],[-1,-1]],[[1675,1031],[-1,-1]],[[1702,1169],[-9,10]],[[1693,1178],[9,-9]],[[1700,1038],[0,1]],[[1700,1070],[2,-2]],[[1702,1169],[15,-9]],[[1717,1160],[23,-7],[10,0],[27,23]],[[1777,1177],[-60,-17]],[[1739,1046],[-2,-1],[2,0]],[[1739,1045],[1,-2],[0,2]],[[1740,1046],[2,0],[-2,1]],[[2130,1024],[-97,3],[-76,-76],[-112,11]],[[1924,818],[-5,4]],[[1995,1655],[0,-1],[1,0]],[[1997,1656],[-1,0]],[[1996,1655],[1,0]],[[1996,1655],[1,1]],[[1997,1655],[-1,0]],[[2001,1657],[-4,-1]],[[1997,1655],[9,-2]],[[2007,1678],[-2,3]],[[2006,737],[9,5]],[[2006,758],[1,1]],[[2006,759],[0,-1]],[[2032,736],[-13,3],[-13,19]],[[2007,759],[0,1],[0,-1]],[[2016,1658],[-4,-3]],[[2012,1655],[-1,1],[0,-1],[1,0]],[[2015,720],[0,1]],[[2143,993],[-66,-81],[14,-104],[-71,-68]],[[2041,1629]],[[2053,2079],[0,1]],[[2066,155],[2,-1]],[[2070,157],[-1,0]],[[2069,157],[-3,1],[0,-3],[3,-1],[0,3]],[[2075,2257]],[[2075,2258]],[[2076,2133],[0,3]],[[2076,2274]],[[2076,2275],[0,-1]],[[2077,2274],[-1,2]],[[2076,2274]],[[2090,805],[71,-21],[44,64],[60,-40],[116,-24],[63,-101],[57,22],[24,45]],[[2091,1330],[-1,1]],[[2092,2610],[-1,-5]],[[2113,2081],[-2,5]],[[2112,2083],[0,2]],[[2113,295]],[[2113,295],[0,-1]],[[2114,294],[0,1]],[[2144,2061],[1,-1]],[[2146,2059],[0,1]],[[2153,1577],[-1,-2]],[[2154,1577],[0,1]],[[2188,2548],[0,-1]],[[2196,1528],[-1,-1]],[[2195,1530],[1,-2]],[[2196,1528]],[[2218,599],[1,-2]],[[2219,600]],[[2219,597],[0,2]],[[2219,600]],[[2226,602],[-7,-2]],[[2219,597],[1,-1]],[[2220,596],[0,-1]],[[2220,595],[0,1]],[[2220,595],[1,0]],[[2221,594],[10,0]],[[2222,636],[7,-29]],[[2223,637],[3,3]],[[2226,602],[3,3]],[[2228,605],[-2,-3]],[[2229,606]],[[2229,606]],[[2229,606]],[[2232,595]],[[2232,595],[0,-1]],[[2232,594]],[[2232,594]],[[2251,2838],[-1,0]],[[2250,2839],[2,-1]],[[2263,2844],[-1,-2]],[[2262,2842],[1,2]],[[2263,2844],[24,75]],[[2283,165],[1,-1]],[[2284,165],[0,1]],[[2287,511],[-2,6]],[[2295,2950],[-8,-26]],[[2287,2992],[8,-41]],[[2288,2924],[8,25]],[[2296,2951],[-8,42]],[[2337,250],[-12,-6]],[[2325,243],[12,7]],[[2352,298]],[[2353,299],[0,1]],[[2376,323]],[[2457,1918],[-6,-12]],[[2459,914],[2,-1]],[[2470,799],[18,15]],[[2470,855]],[[2487,814],[-17,-14]],[[2473,856],[-3,0]],[[2472,876],[1,-4]],[[2494,821],[-6,-5]],[[2488,816],[7,4]],[[2501,526],[-2,-5]],[[2546,2727],[-11,-8]],[[2535,2719],[11,8]],[[2551,2736],[-4,-8]],[[2547,2728],[4,8]],[[2553,2617],[-1,-1]],[[2588,1529],[0,1]],[[2651,3448],[-2,8]],[[2660,1931],[1,0]],[[2694,3264],[0,-1]],[[2694,3262],[1,-1]],[[2873,2932],[-1,-1]],[[2915,3719],[1,0]],[[2938,3869],[0,1]],[[2971,3610],[-2,4],[1,-4]],[[2971,2927],[2,-3]],[[2990,3476],[1,-1]],[[2992,3546],[1,0]],[[2993,3546],[-1,0]],[[2993,3546],[2,-1]],[[2993,3515],[5,-9]],[[2999,3507],[-5,9]],[[2995,3480]],[[2995,3545],[1,0]],[[2996,3545],[-1,0]],[[2995,3481],[5,4]],[[2999,3505],[19,-5]],[[3018,3500],[-18,6]],[[3005,3469],[3,-5]],[[3013,3456],[-7,13],[-1,0]],[[3013,3456],[1,-2]],[[3014,3455],[-1,1]],[[3014,3454]],[[3015,3491],[3,0]],[[3017,3492],[-1,-1]],[[3018,3493],[-1,0]],[[3019,3501],[-1,-1]],[[3018,3500],[1,-1]],[[3019,3500],[0,-1]],[[3029,3498],[-10,2]],[[3019,3500],[10,-3]],[[3024,3455],[1,1]],[[3025,3456],[2,0]],[[3031,3497],[0,2]],[[3031,3458],[1,1]],[[3033,3459],[1,0]],[[3034,3459],[-1,1]],[[3042,3459],[-8,0]],[[3042,3439],[0,-2]],[[3042,3459],[1,1]],[[3042,3461],[0,-2]],[[3044,3461],[0,1],[-1,0]],[[3043,3460],[1,1]],[[3058,3461],[-14,0]],[[3049,1302]],[[3049,1302]],[[3049,1302]],[[3051,3475],[0,1]],[[3052,3476],[-1,1]],[[3052,3476],[-1,0]],[[3066,3469],[-4,6],[-10,1]],[[3057,1586],[0,1]],[[3059,3462],[-1,-1]],[[3058,3461],[1,0]],[[3060,3463],[-1,-1]],[[3060,3463],[4,7]],[[3060,3463]],[[3062,3527],[14,-9]],[[3064,3470],[1,0]],[[3064,3470],[1,0]],[[3073,1263],[8,2]],[[3124,3445],[-1,1]],[[3143,3585],[1,2]],[[3175,25],[3,1],[0,1]],[[3178,27],[1,0]],[[3178,26]],[[3178,26],[-1,1]],[[3181,29],[-3,-2]],[[3178,27],[0,-1]],[[3178,26]],[[3274,1647],[-2,1]],[[3308,1574],[-2,-1],[2,0]],[[3309,1573],[0,1]],[[3321,1571]],[[3322,1571],[15,-4]],[[3337,1568],[-15,3]],[[3337,1567],[7,-6]],[[3345,1561],[-7,6]],[[3356,1509],[3,-21]],[[3359,1488],[1,-4]],[[3357,1510],[3,9]],[[3360,1483],[0,1]],[[3360,1484]],[[3360,1484],[-1,4]],[[3359,1488],[-2,21]],[[3360,1484]],[[3360,1484],[-2,1],[-1,-2],[2,-1],[1,2]],[[3360,1484]],[[3362,1521],[-2,-1]],[[3361,1520],[1,1]],[[3370,1543],[-8,-22]],[[3374,1564],[-4,2]],[[3371,2400]],[[3381,3972]],[[3429,3025],[-1,0],[2,-1]],[[3431,3024],[1,-1]],[[3432,3023],[0,2]],[[3432,3023],[16,-49]],[[3448,2974],[0,-1]],[[3449,2973],[-1,1]],[[3449,2973],[0,-1],[0,1]],[[3458,2944]],[[3458,2943],[1,1]],[[3468,1535],[-1,0]],[[3481,1384],[2,2]],[[3488,2419],[1,3]],[[3544,1417]],[[3544,1416]],[[3556,1477],[-1,-1],[1,1]],[[3557,1477],[-1,1]],[[3646,3133]],[[3651,1604],[0,-2],[1,2]],[[3652,1604],[0,1],[-1,0]],[[3677,3221]],[[3679,2461],[-1,0]],[[3684,3227],[0,1],[0,-1]],[[3685,3227],[-1,0]],[[3739,1699],[-1,0],[1,-1]],[[3740,1698]],[[3867,436],[-2,-3]],[[3866,433],[2,3]],[[3958,3099],[0,-1]],[[3959,3098]],[[3959,3098]],[[3959,3098],[1,0]],[[3985,1890],[0,-1]],[[3992,1913],[1,-1]],[[3993,1912]],[[3993,1912]],[[3993,1912],[-1,0]],[[3992,1911],[2,1]],[[4042,2411],[-1,0]],[[4041,2411],[1,0]],[[4046,2101],[-2,-3]],[[4045,2100],[-1,-1]],[[1367,961],[1,2],[1,1],[-2,-3]],[[1385,976],[0,1],[-1,0],[0,-1],[1,0]],[[1385,781]],[[1392,2018],[0,1],[-1,0],[0,-1],[1,0]],[[1455,1019],[-1,-1],[1,-1],[1,1],[-1,1]],[[1485,1005],[-1,0],[0,-1],[1,1]],[[1492,415],[1,-1],[0,1],[-1,0]],[[1500,166],[0,1],[0,-1]],[[1546,1597],[1,0],[-1,0]],[[1554,1571],[0,-1]],[[1554,1570],[0,1]],[[1558,1580],[-1,1],[0,-1],[1,0]],[[1562,1002],[-1,0],[0,-1]],[[1561,1001],[1,0],[0,1]],[[1623,1568]],[[1718,1047],[1,1],[-1,0],[-1,-1],[1,0]],[[1739,1047],[0,-2],[1,0],[0,1],[-1,1]],[[1750,1051],[0,-1],[1,1],[-1,0]],[[1890,328],[0,-1],[1,0],[-1,1]],[[1995,1655],[1,0]],[[1996,1655],[-1,1],[0,-1]],[[2007,759],[-1,0],[1,0]],[[2017,1659],[-1,0],[0,-1],[1,0],[0,1]],[[2085,2221],[-1,1],[-1,0],[1,-1],[1,0]],[[2089,1329],[1,-1],[1,1],[-2,0]],[[2090,502],[2,-1]],[[2113,295]],[[2113,295],[0,-1],[1,1],[-1,0]],[[2172,2042],[1,1],[-1,1],[-1,-1],[1,-1]],[[2190,2548],[-2,0]],[[2188,2548],[0,-1],[1,-1],[1,2]],[[2218,600],[0,-1]],[[2218,599],[1,1]],[[2219,600],[-1,0]],[[2220,595],[1,0]],[[2221,595],[-1,0]],[[2222,636],[0,1],[0,-1]],[[2227,640],[1,0],[0,1],[-1,0],[0,-1]],[[2229,606]],[[2229,606],[-1,0],[1,-1]],[[2229,605],[0,1]],[[2229,606]],[[2231,595],[1,-1]],[[2232,594]],[[2232,594],[0,1]],[[2232,595],[-1,0]],[[2278,531],[0,-1],[1,0],[0,1],[-1,0]],[[2305,203],[-1,0],[0,-1],[1,0],[0,1]],[[2336,250],[1,0],[1,1],[-1,0],[-1,-1]],[[2352,298],[1,1]],[[2427,401],[-1,1],[0,-1],[1,0]],[[2461,1544],[1,-1],[0,1],[-1,0]],[[2466,1961],[3,-3],[5,0],[3,3],[-11,0]],[[2487,815],[0,-1],[1,0]],[[2488,814],[0,1],[-1,0]],[[2547,2727],[0,1],[-1,0],[0,-1],[1,0]],[[2552,2616],[0,-1],[0,1]],[[2694,3263],[1,-1],[0,1],[-1,0]],[[2716,3240],[-1,0],[1,0]],[[2764,3250]],[[2782,383],[0,-1],[0,-1],[1,1],[-1,1]],[[2802,372],[1,1],[0,1],[-1,0],[0,-2]],[[2883,340],[-1,0],[-1,-1],[1,0],[1,1]],[[2914,3719],[2,0]],[[2916,3719],[-1,2],[-1,-1],[0,-1]],[[2947,3361],[-1,0],[0,-1],[1,0],[0,1]],[[2971,3609],[1,1],[-2,1],[0,-1],[1,-1]],[[3005,3470],[-1,-1],[1,0],[0,1]],[[3014,3455],[0,-1]],[[3014,3454],[0,1]],[[3030,3498],[-1,0],[0,-2],[1,0],[0,2]],[[3043,3461],[-1,0],[0,-1],[1,0]],[[3043,3460],[0,1]],[[3049,1301],[1,0],[0,1],[-1,0]],[[3049,1302]],[[3049,1302],[0,-1]],[[3062,3526],[1,1],[-1,0],[0,-1]],[[3227,59],[1,-1],[1,1],[-1,1],[-1,-1]],[[3270,1649],[1,-2],[1,1]],[[3272,1648],[-1,1],[-1,0]],[[3274,3068],[0,-1],[0,1]],[[3309,1574],[-1,0],[0,-1],[1,0],[0,1]],[[3321,1571],[1,0]],[[3322,1571],[-1,0]],[[3321,1571]],[[3337,1567],[1,0]],[[3338,1567],[0,1],[-1,-1]],[[3344,1561],[1,-1],[0,1],[-1,0]],[[3356,1510],[0,-1],[1,0],[0,1],[-1,0]],[[3360,1520],[0,-1],[1,0],[-1,1]],[[3396,2394],[1,-1],[0,1],[-1,0]],[[3432,3025],[-2,1],[-1,-1],[2,-1],[1,1]],[[3443,2406],[-1,0],[1,0]],[[3449,2972],[0,1]],[[3449,2973],[-1,0],[1,-1]],[[3483,1388],[-1,0],[1,-1],[1,0],[-1,1]],[[3557,1477]],[[3557,1477],[-1,1],[0,-1],[1,0]],[[3593,3129],[1,0],[0,1],[-1,0],[0,-1]],[[3652,1604],[0,1],[-1,0],[0,-1],[1,0]],[[3684,3228],[-1,-1],[1,-1],[1,1]],[[3685,3227],[-1,1]],[[3740,1699],[-1,-1],[1,0]],[[3740,1698],[0,1]],[[3817,1966],[1,1]],[[3831,1999]],[[3916,470],[-1,0],[-1,-1],[1,-1],[1,2]],[[3955,2201],[1,1],[-1,0],[0,-1]],[[3959,3098]],[[3959,3098],[0,1],[-1,-1],[1,0]],[[3959,3098]],[[3367,1562],[4,3]],[[3067,1256],[1,0],[0,1],[-1,0],[0,-1]],[[2715,3240]],[[2963,3142],[5,0]],[[2968,3142],[-5,0]],[[2968,3142],[9,-5]],[[2994,3137],[-16,0]],[[2978,3137],[0,1],[-1,-1]],[[2977,3137],[1,0]],[[2994,3137],[1,0],[0,1],[-1,-1]],[[2995,3137],[65,-11]],[[3060,3126]],[[3060,3126]],[[3062,3126],[-1,0]],[[3061,3125],[1,1]],[[3062,3126],[63,-23]],[[3269,3068],[5,-1]],[[3274,3068],[102,-8]],[[3378,3060],[-2,0]],[[3376,3060],[1,-1]],[[3378,3058],[11,-24]],[[3389,3034],[-10,24]],[[3389,3034],[39,-9]],[[3594,3129],[-36,-88],[-55,14],[-36,-59],[-35,28]],[[3359,2641],[-41,49]],[[3524,2491],[-78,47]],[[3525,2491],[-1,0]],[[3526,2490],[0,1]],[[3526,2491],[-1,0],[-1,-1],[1,0],[1,1]],[[3552,2483],[-26,7]],[[3550,2483],[2,0]],[[3552,2482],[0,1]],[[3678,2462],[-126,21]],[[3738,2460],[-37,17],[-21,-17]],[[3738,2460],[1,-1]],[[3739,2459],[-1,1]],[[3740,2458],[19,-5]],[[3760,2453],[-19,6]],[[3760,2453],[1,0],[-1,0]],[[3761,2453],[14,-5]],[[3775,2449],[-14,4]],[[3776,2448],[19,-5]],[[3795,2443],[-18,6]],[[3796,2443],[2,-1]],[[3814,2435],[-17,8]],[[3815,2433],[12,-16]],[[3827,2417]],[[3827,2417]],[[3827,2418],[-12,16]],[[3828,2418],[15,5]],[[3843,2424],[-7,-1]],[[3848,2416],[-4,7]],[[3848,2416],[0,-1]],[[3849,2416],[-1,0]],[[3849,2415],[0,1],[-1,-1],[1,0]],[[3859,2371],[-10,44]],[[3887,2318],[-27,50]],[[3895,2285],[-7,32]],[[3895,2285],[2,0]],[[3899,2287],[-2,-2]],[[3899,2287],[2,0]],[[3900,2288],[-1,-1]],[[3901,2287],[1,-1]],[[3902,2286],[-1,2]],[[3945,2217],[-43,69]],[[3992,2196],[-29,13]],[[4038,2107],[-44,86]],[[3740,2460],[-1,-1],[1,-1],[1,1],[-1,1]],[[3775,2449],[1,-1],[1,1]],[[3777,2449],[-2,0]],[[3796,2442],[1,1]],[[3797,2443],[-1,1],[-1,-1]],[[3795,2443],[1,-1]],[[3815,2435],[-1,-1],[1,-1]],[[3815,2433],[1,1],[-1,1]],[[3828,2418],[-1,-1]],[[3827,2417]],[[3827,2417],[1,0],[0,1]],[[3828,2418]],[[3844,2423],[0,1],[-1,0]],[[3843,2424],[0,-1],[1,0]],[[3901,2288],[-1,0],[0,-1],[1,0],[0,1]],[[3958,2212],[-1,-1],[1,0],[1,1],[-1,0]],[[1443,442],[7,-7]],[[1450,435],[-6,8]],[[1450,515],[-6,-3]],[[1445,512],[6,3]],[[1484,426],[-10,-3]],[[1475,423],[9,3]],[[1718,413],[0,-1],[1,0],[-1,1]],[[2795,2786],[10,18]],[[2801,2797],[-6,-10]],[[2803,241],[2,-241]],[[1875,1777]],[[1875,1776],[0,1]],[[1941,1875],[-66,-98]],[[2310,375],[-20,110]],[[2113,2199],[-2,1]],[[2112,2199],[1,0]],[[2113,2199],[85,-19],[14,-24]],[[2112,2199],[-1,1],[-1,-1],[1,-1],[1,1]],[[2233,311],[61,-7],[13,-40]],[[3126,3444],[-2,1]],[[3132,3440],[2,0]],[[3134,3440],[-2,0]],[[3151,3433],[-17,7]],[[3151,3433],[2,-2]],[[3154,3432],[-3,1]],[[3155,3431],[10,1]],[[3165,3432],[-10,0]],[[3165,3432],[2,1]],[[3167,3433],[16,1]],[[3183,3434],[149,-69],[96,-130],[72,-34]],[[3505,3197],[61,-68],[27,0]],[[3594,3130],[51,3]],[[3647,3133],[20,11]],[[3700,3145],[9,-4]],[[3709,3141],[4,-1]],[[3713,3140],[79,12]],[[3798,3150],[26,-48]],[[3826,3101],[54,49],[48,3],[29,-54]],[[3153,3432],[1,-1],[1,0],[-1,1],[-1,0]],[[3646,3132],[1,1],[-1,0],[0,-1]],[[3668,3144],[1,0],[0,1],[-2,0],[1,-1]],[[3825,3102],[-1,0],[1,-1],[1,0]],[[3826,3101],[-1,1]],[[3539,1342],[17,-130],[-1,-83]],[[3555,1129],[0,-2],[-44,-39]],[[3511,1088],[-14,-12],[-39,-26],[-51,-58],[23,-94],[-34,-95],[-158,-245],[-16,-55],[-19,-81],[-93,-97],[-31,-42],[-8,-13],[-10,-21],[0,-1]],[[3061,248],[2,-7]],[[3063,241],[17,-72],[172,-113],[37,-56]],[[3290,0],[-35,55],[-2,2],[-14,10],[-158,101],[-18,73]],[[3063,241],[-2,6],[0,1]],[[3061,248],[10,21],[8,14],[31,42],[25,21],[68,75],[7,15],[12,67],[17,54],[157,246],[17,41],[17,54],[-23,94],[51,58],[40,26],[13,12]],[[3511,1088],[44,41]],[[3555,1129],[3,2],[-1,81],[-18,130]],[[4096,2551],[-27,-34],[-2,-6]],[[4067,2511],[29,39]],[[2975,3483],[-1,0]],[[2975,3483],[6,1]],[[2980,3484],[-5,-1]],[[3462,2942],[-3,2]],[[3459,2944],[3,-2]],[[3462,2942],[146,-114],[46,-1]],[[3655,2823],[1,0]],[[3667,2795],[11,-29]],[[3678,2766],[84,-37]],[[1348,110],[12,-27]],[[1360,83],[1,-3]],[[1361,80],[10,-16]],[[1964,121],[-5,-4],[-2,-2],[-1,-1]],[[1956,114],[-6,-5],[-8,-4],[-13,-3]],[[1929,102],[-2,-1],[-5,-4],[-7,-17],[-14,-61],[-11,-19]],[[1891,0],[9,16],[23,81],[5,5],[1,0]],[[1929,102],[3,1],[24,11]],[[1956,114],[2,1],[7,6]],[[2318,260],[-3,9],[-54,58],[-4,1],[-2,0]],[[2255,328],[-14,-5]],[[2241,324],[14,4]],[[2255,328],[46,-48],[13,-11],[4,-9]],[[3828,521],[2,-7]],[[3829,503],[15,7]],[[2158,152],[1,0]],[[2159,152],[-1,1]],[[2230,185],[-71,-33]],[[2230,185]],[[2230,185]],[[2231,186]],[[2231,185],[0,1]],[[2256,202],[-25,-16]],[[2267,210],[-10,-8]],[[2266,211],[1,-1]],[[2267,210],[0,1]],[[2230,185],[1,0],[0,1]],[[2231,186],[-1,-1]],[[2256,202]],[[2256,202],[0,-1],[1,1],[-1,0]],[[1236,563],[14,-28]],[[1247,630],[0,-2]],[[1367,962],[0,-1]],[[1421,1327],[4,10]],[[1552,1565],[-23,-103],[-47,-53],[15,-51],[-72,-19]],[[1492,1910],[0,-9]],[[1492,1901],[0,8]],[[1492,1901],[46,-118],[-30,-133],[35,-36]],[[1544,1613],[3,-9]],[[1547,1604],[-1,-7]],[[1546,1597],[2,-2]],[[1548,1595],[-1,2]],[[1548,1595],[9,-14]],[[1553,1565],[-1,0]],[[1552,1565],[1,0]],[[1554,1570],[-1,-5]],[[1556,1575],[-2,-4]],[[1554,1571],[2,4]],[[1557,1580],[-1,-5]],[[1236,564],[0,1],[-1,0],[1,-1]],[[1544,1613],[0,1],[-1,-1],[1,0]],[[1548,1604],[-1,0]],[[1547,1604],[1,0]],[[1553,1565]],[[1432,70],[23,51]],[[1455,121],[3,5],[37,52]],[[1487,174],[-30,-48],[-2,-5]],[[1455,121],[-18,-46]],[[3687,379],[-1,0]],[[2938,3867],[-24,-143]],[[2914,3724],[0,-4]],[[2915,3721],[-1,3]],[[2935,3886],[1,-1]],[[2937,3889],[-1,-1]],[[2936,3885],[0,1]],[[2936,3885],[1,-16]],[[2936,3887],[1,2]],[[2988,4096],[-58,-98],[7,-109]],[[2937,3868]],[[2937,3868],[1,0]],[[2938,3868]],[[2938,3868]],[[2938,3868],[-1,0]],[[2937,3868],[1,1],[0,-1]],[[2570,3262],[2,0]],[[2571,3262]],[[2572,3262],[-1,2]],[[2609,3251],[-37,11]],[[2535,2718]],[[2535,2718],[0,1]],[[2552,2616],[12,55],[-29,47]],[[2535,2718],[0,1],[-1,0],[1,-1]],[[2746,1219],[-3,-2]],[[2744,1216],[2,3]],[[2842,1248],[-96,-29]],[[2860,1254],[-18,-6]],[[2910,1265],[-50,-11]],[[2912,1266],[-2,-1]],[[2910,1265],[2,0]],[[2916,1266],[-3,0]],[[2913,1265],[3,1]],[[2942,1278],[-26,-12]],[[2957,1277],[-15,1]],[[2979,1265],[-22,12]],[[2979,1265],[17,-6]],[[3057,1267],[-61,-8]],[[3058,1267],[-1,0]],[[3057,1267],[1,0]],[[3058,1267],[1,-1]],[[3059,1266],[0,1]],[[3059,1262],[0,4]],[[3059,1262],[0,-1]],[[3060,1261],[-1,1]],[[3059,1260],[1,0]],[[3060,1260]],[[3064,1255],[-4,5]],[[3064,1255],[0,-1]],[[3064,1254],[0,1]],[[2912,1266],[1,-1],[0,1],[0,1],[-1,-1]],[[3058,1268],[-1,0],[1,-1]],[[3058,1267],[1,0],[-1,1]],[[3060,1261],[-1,0]],[[3059,1261],[0,-1],[1,0],[0,1]],[[2173,86],[1,0]],[[2174,86],[-1,0]],[[2175,86]],[[1484,426]],[[2175,87],[-1,-1]],[[2174,86],[0,-1],[1,1]],[[2175,86],[0,1]],[[1278,536],[0,2],[-2,-1],[0,-1],[2,0]],[[1436,456],[1,-1],[1,0],[-1,2],[-1,-1]],[[1511,481],[11,0]],[[1523,482],[3,13]],[[1116,66],[2,0]],[[3909,2558],[-81,-7]],[[3910,2558],[91,87]],[[4001,2646],[26,44],[69,9]],[[4001,2646],[0,-1],[0,1]],[[2241,363],[5,-29]],[[2246,335],[-4,28]],[[3142,3142],[-61,-19]],[[3326,3162],[-45,-27],[-101,6]],[[3326,3162],[43,28],[68,-8]],[[3437,3182],[-65,9],[-2,0],[-44,-29]],[[3437,3182],[53,8]],[[3490,3190],[24,23]],[[3811,3071],[-31,2],[-97,151],[-70,26],[-99,-37]],[[3845,3084],[-34,-13]],[[3941,3100],[-96,-16]],[[3941,3100],[45,-13]],[[4080,3043],[-94,44]],[[4080,3043],[16,-14]],[[4096,3030],[-16,13]],[[4096,3623]],[[2190,2049],[10,-5],[97,-34],[11,-2],[55,-30],[7,-15],[73,-43],[216,-107]],[[2659,1814],[-216,107],[-80,57],[-55,30],[-118,42]],[[3257,1688],[-2,5],[-27,25],[-60,1],[-53,-18],[-92,83],[-62,15],[-112,-4],[-10,-2],[-120,27],[-13,0],[-45,-6]],[[2661,1813],[127,-21],[51,1],[121,5],[63,-14],[91,-84],[54,18],[88,-30]],[[4096,3623],[-72,-26],[9,-65],[-207,-182],[-64,-97],[-77,-26]],[[2994,3511],[-3,-5]],[[2992,3506],[3,6]],[[1495,481]],[[1495,480],[0,1]],[[1495,481],[1,0]],[[3440,2439],[3,-2]],[[3443,2437],[-2,2]],[[3452,2421],[-9,16]],[[3452,2421],[2,-5]],[[3455,2417],[-3,4]],[[3455,2416],[32,2]],[[3517,2465],[-29,-46]],[[3517,2465],[5,12]],[[3526,2488],[-4,-11]],[[3525,2490],[1,-2]],[[3526,2488],[-1,2]],[[3455,2416],[0,1]],[[3455,2417],[-1,-1],[1,0]],[[1720,1134],[1,3]],[[1721,1137],[0,1]],[[1721,1138],[2,9]],[[1723,1147],[2,7]],[[1725,1154],[1,2]],[[1722,1148],[-1,-10]],[[1721,1138]],[[1721,1138],[0,-1]],[[1725,1146]],[[1725,1146],[-1,1]],[[1724,1147]],[[1724,1147],[-1,0]],[[1723,1147],[-1,1]],[[1724,1142],[1,4]],[[1725,1146],[28,84],[108,102],[-2,57],[14,16]],[[1873,1405],[3,3]],[[1876,1408],[32,38],[9,78],[8,13]],[[1925,1537],[51,89]],[[1976,1626],[2,4]],[[1725,1156],[0,-2]],[[1725,1154],[-1,-5]],[[1724,1149],[0,-2]],[[1724,1147],[0,-5]],[[1931,116],[-61,65],[17,82],[-1,2]],[[1886,265],[-32,63]],[[1854,328],[-28,57],[-6,42]],[[1820,427],[0,1],[14,20]],[[1834,448],[12,17],[-37,110],[31,137],[-16,59],[-57,52]],[[1767,823],[-1,1],[9,82]],[[1775,906],[10,92],[-28,80],[-6,5]],[[1751,1083],[-3,1]],[[1748,1084],[-1,2]],[[1747,1086],[-4,3]],[[1743,1089],[-27,22],[0,3]],[[1716,1114],[8,28]],[[1724,1158],[1,-2]],[[1726,1156],[-1,0]],[[1726,1156],[1,0]],[[1727,1156],[1,1]],[[1755,1080],[-6,5]],[[1749,1085],[-1,0]],[[1748,1085],[-1,1]],[[1747,1086],[-4,3]],[[1743,1089],[-12,8]],[[1737,1092],[5,-14]],[[1747,1087],[0,-1]],[[1747,1086]],[[1747,1086]],[[1747,1086],[-1,-4]],[[1746,1082],[-1,-3]],[[1745,1079],[-4,-21]],[[1741,1058],[-2,-12]],[[1740,1047],[1,11]],[[1741,1058],[2,22]],[[1743,1080],[2,-1]],[[1745,1079],[14,-8]],[[1759,1071]],[[1743,1080],[3,2]],[[1746,1082],[2,2]],[[1748,1084],[1,1]],[[1749,1085]],[[1749,1085],[1,0]],[[1769,919],[-16,-26]],[[1754,894],[3,19]],[[1757,913],[6,0]],[[1757,913],[3,-5]],[[1834,626],[0,-1]],[[1834,625],[-6,-6]],[[1828,619],[-5,-7]],[[1826,618],[2,1]],[[1828,619],[10,3]],[[1834,626],[-6,16]],[[1829,630],[0,-2]],[[1829,628],[-2,-3],[-2,1],[1,2],[3,0]],[[1829,628],[5,-3]],[[1834,625]],[[1838,622],[-4,4]],[[1838,622],[-2,-3]],[[1840,623],[-2,-1]],[[1866,1398],[6,8]],[[1872,1406],[3,3]],[[1875,1409],[5,6]],[[1877,1416],[-4,-6]],[[1873,1410],[-1,-2]],[[1872,1408],[-5,-9]],[[1871,1410],[1,-2]],[[1872,1408],[0,-2]],[[1872,1406],[1,-1]],[[1873,1405]],[[1873,1405],[0,-1]],[[1877,1408],[-1,0]],[[1876,1408],[-1,1]],[[1875,1409]],[[1875,1409],[-2,1]],[[1873,1410]],[[1873,1404],[1,0]],[[1873,1404],[1,-3],[-1,-1],[-2,2],[2,2]],[[1879,1415],[-1,-1]],[[1878,1415],[1,0]],[[2008,2202],[1,-8]],[[2009,2194],[9,-48]],[[2018,2146],[4,-17]],[[2022,2129],[0,-3],[41,-47]],[[2063,2079],[4,-5],[-6,-6]],[[2061,2068],[-50,-57]],[[2011,2011],[-1,-1]],[[2010,2010],[-60,-69],[-1,-22]],[[1949,1919],[0,-4]],[[1949,1915],[-3,-64],[1,-2]],[[1947,1849],[52,-78],[-5,-11]],[[1994,1760],[-1,-3]],[[1993,1757],[-1,-2]],[[1992,1755],[-22,-49],[0,-3]],[[1970,1703],[1,-6]],[[1971,1697],[3,-53]],[[1974,1644],[1,-3]],[[1975,1641],[1,-15]],[[1976,1626],[0,-6],[-51,-83]],[[1925,1537],[-8,-13],[-9,-78],[-33,-37]],[[1875,1409],[-2,-4]],[[1873,1405],[-14,-16],[1,-57],[-107,-102],[-26,-74]],[[1727,1156],[-3,-7]],[[1724,1149],[0,-2]],[[1724,1147],[-3,-9]],[[1721,1138],[0,-1]],[[1721,1137],[-8,-20],[3,-3]],[[1716,1114],[31,-28]],[[1747,1086],[1,-1]],[[1748,1085],[1,0]],[[1749,1085],[2,-2]],[[1751,1083],[5,-6],[3,-6]],[[1759,1071],[25,-73],[-9,-92]],[[1775,906],[-8,-83]],[[1767,823],[0,-2],[57,-50],[15,-59],[-30,-137],[37,-110],[-12,-17]],[[1834,448],[-14,-21]],[[1820,427],[-1,-2],[6,-40],[29,-57]],[[1854,328],[32,-62],[0,-1]],[[1886,265],[-16,-84],[61,-66]],[[1946,1917],[3,-2]],[[1949,1915]],[[1950,1919],[-1,0]],[[1949,1919]],[[1949,1919],[-2,-1]],[[1953,1931],[-3,2]],[[1950,1929],[3,2]],[[1977,1648],[-1,0]],[[1976,1648],[-2,-4]],[[1974,1644],[-2,-3]],[[1973,1642],[1,0]],[[1974,1640],[1,1]],[[1975,1641],[2,0]],[[1977,1641]],[[1980,1639],[-2,-2]],[[1978,1630],[4,9]],[[1978,1630],[-1,11]],[[1977,1641],[-1,7]],[[1976,1648],[-5,49]],[[1971,1697],[-1,5],[0,1]],[[1970,1703],[23,50]],[[1981,1638]],[[1991,1759],[-1,1]],[[1991,1758]],[[1991,1758],[0,1]],[[1997,1761],[-3,-1]],[[1994,1760],[-3,-1]],[[1991,1759]],[[1991,1759],[2,-2]],[[1993,1757],[1,-1]],[[1993,1753],[-1,2]],[[1992,1755],[-1,3]],[[1991,1758],[-44,91]],[[1947,1849],[-1,2],[3,68]],[[1949,1919],[1,22],[59,56]],[[2009,1997]],[[2009,1997],[6,5]],[[2015,2002],[4,4]],[[2019,2006],[39,37],[3,25]],[[2061,2068],[2,11]],[[2063,2079],[1,7]],[[1993,1753],[2,-2]],[[1995,1751]],[[1995,1751]],[[1995,1751],[-2,0]],[[1994,1749],[0,1]],[[1995,1751],[-1,-1]],[[1994,1750],[1,1]],[[1995,1751]],[[1995,1751],[1,8]],[[2006,2213],[-2,-10]],[[2004,2203],[4,-1]],[[2005,2186],[4,8]],[[2009,2194],[1,1]],[[2010,2195],[2,5]],[[2007,2235],[5,5]],[[2012,2240],[1,1]],[[2013,2241],[2,1]],[[2010,2247],[-3,-11]],[[3129,3450],[-22,-34]],[[3107,3416],[0,-1],[-5,-1]],[[3102,3414],[-58,-16]],[[3044,3398],[-3,0]],[[3041,3398]],[[3041,3398],[-4,-2]],[[3037,3396],[-7,-1]],[[3030,3395],[-22,-6],[-109,25]],[[2899,3414],[-2,1],[-1,1]],[[2896,3416],[-70,49]],[[2826,3465],[-3,2],[-1,-1]],[[2822,3466],[-6,-5]],[[2816,3461],[-98,-81],[-14,-25]],[[2704,3355],[-4,-7]],[[2700,3348]],[[2700,3348],[-148,-264]],[[2552,3084],[-4,-7]],[[2548,3077],[-6,-10]],[[2542,3067],[-78,-82],[-17,-84]],[[2447,2901],[0,-2],[-8,-6]],[[2439,2893],[-83,-62],[-137,-185],[-4,-11]],[[2215,2635],[-22,-66]],[[2193,2569]],[[2193,2569],[-2,-7]],[[2191,2562],[-1,-3]],[[2190,2559],[-1,-2]],[[2189,2557],[0,-1]],[[2189,2556],[-28,-84],[-60,-124]],[[2101,2348],[-2,-4]],[[2099,2344],[-1,-2]],[[2098,2342],[-5,-10]],[[2093,2332],[-1,-1],[-7,-8]],[[2085,2323],[-72,-75]],[[2013,2248],[-1,-8]],[[2012,2240],[-4,-38]],[[2008,2202],[5,39]],[[2013,2241],[1,7],[72,75]],[[2086,2323],[8,9]],[[2064,2086],[-42,43]],[[2022,2129],[-1,0],[-3,17]],[[2018,2146],[-8,49]],[[2010,2195],[-2,7]],[[2011,2200],[-3,2]],[[2012,2010],[-3,-13]],[[2009,1997],[0,-2]],[[2009,1995],[-1,-3]],[[2009,1992],[0,3]],[[2009,1995],[0,2]],[[2009,1997],[1,13]],[[2010,2010],[0,3]],[[2010,2013],[0,4]],[[2012,2010],[-1,1]],[[2011,2011],[0,1],[-1,1]],[[2010,2013],[0,1],[-1,3]],[[2010,2248],[0,-1]],[[2010,2247]],[[2013,2248],[-3,-1]],[[2010,2247],[1,0]],[[2016,1999],[-1,3]],[[2015,2002],[-3,8]],[[2022,2004],[-3,2]],[[2019,2006],[-6,3]],[[2015,2242],[1,0]],[[2015,2242],[0,1]],[[2015,2244],[1,0]],[[2016,2244],[3,10]],[[2016,2243],[0,1]],[[2016,1999],[1,1]],[[2016,1999],[1,-3],[-2,-1],[-1,2],[2,2]],[[2051,2098],[5,-8]],[[2056,2090]],[[2056,2090],[0,-1]],[[2057,2091],[-1,-1]],[[2056,2090],[1,3]],[[2061,2094],[-2,-2]],[[2060,2094],[1,0]],[[2061,2095],[0,-1]],[[2061,2095],[0,2]],[[2064,2086],[-3,9]],[[2094,2332],[-1,0]],[[2093,2332],[-13,-5]],[[2081,2326],[4,-3]],[[2085,2323],[1,0]],[[2086,2323],[1,0]],[[2101,2349],[0,-1]],[[2101,2348],[-1,-1]],[[2100,2347],[-12,-14]],[[2088,2332],[10,11]],[[2098,2343],[1,1]],[[2099,2344],[2,3]],[[2094,2332],[4,10]],[[2098,2342],[0,1]],[[2098,2343],[2,4]],[[2100,2347],[115,288]],[[2215,2635],[5,11],[137,185],[64,45]],[[2189,2562],[0,-2]],[[2189,2560]],[[2189,2560]],[[2189,2560],[0,-4]],[[2189,2556],[0,-8]],[[2189,2560]],[[2189,2560],[1,2]],[[2190,2562],[3,7]],[[2193,2569]],[[2193,2569],[2,4]],[[2190,2547],[-1,10]],[[2189,2557],[0,3]],[[2189,2560]],[[2189,2560]],[[2189,2560],[1,-1]],[[2190,2559],[2,-5]],[[2194,2563],[-3,-1]],[[2191,2562],[-1,0]],[[2190,2562],[-1,0]],[[2194,2571],[-1,-2]],[[2193,2569]],[[2193,2569],[-4,-7]],[[2194,2562],[0,1]],[[2194,2563],[1,2],[2,0],[1,-2],[-4,0]],[[2432,2879],[-1,0]],[[2431,2879],[-9,-3]],[[2422,2876],[-2,0]],[[2421,2876],[10,2]],[[2431,2878],[1,0]],[[2421,2876],[1,0]],[[2422,2876],[17,17]],[[2439,2893],[8,8]],[[2447,2901],[4,4],[14,80],[74,76],[4,7]],[[2543,3068],[5,9]],[[2548,3077],[4,7]],[[2552,3084],[148,261]],[[2432,2878],[-1,-2]],[[2431,2876],[-7,-14]],[[2424,2861],[7,15]],[[2431,2876],[0,2]],[[2431,2878]],[[2431,2878],[1,1]],[[2429,2882],[2,-3]],[[2431,2879],[0,-1]],[[2431,2878],[1,0]],[[2432,2879],[4,7]],[[2553,3079],[-2,-2]],[[2551,3077],[-8,-9]],[[2543,3068],[-1,-1]],[[2543,3067],[10,10]],[[2547,3078],[0,-1]],[[2547,3077],[-2,-2],[-2,1],[1,2],[3,-1]],[[2547,3077],[1,0]],[[2548,3077]],[[2548,3077],[3,0]],[[2551,3077],[2,0]],[[2553,3079],[-1,5]],[[2552,3084]],[[2552,3084],[-1,2]],[[2553,3077],[4,9]],[[2556,3086],[-3,-7]],[[2555,3089],[1,-3]],[[2557,3086],[-1,0]],[[2557,3086],[1,0]],[[2669,3361],[19,1]],[[2688,3362]],[[2686,3363],[-17,-1]],[[2680,3364],[-2,3]],[[2680,3364],[-2,0]],[[2679,3361],[3,0]],[[2679,3358],[3,3]],[[2686,3363],[-6,1]],[[2682,3361],[6,1]],[[2688,3362]],[[2700,3357],[-9,4]],[[2691,3361],[-3,1]],[[2688,3362]],[[2688,3362],[-2,1]],[[2688,3362],[3,-1]],[[2691,3361],[9,-4]],[[2700,3357]],[[2700,3357],[0,-4]],[[2700,3353],[0,-5]],[[2700,3348],[-1,-3]],[[2700,3345],[116,116]],[[2816,3461],[5,5],[1,0]],[[2822,3466],[4,-1]],[[2826,3465],[35,-6],[35,-43]],[[2896,3416],[1,-2],[2,0]],[[2899,3414],[48,1]],[[2947,3415],[1,0]],[[2948,3415],[3,0]],[[2700,3345],[0,3]],[[2700,3348],[0,5]],[[2700,3353],[0,4]],[[2700,3357]],[[2708,3365],[-8,-8]],[[2700,3357],[4,-2]],[[2704,3355],[1,0]],[[2705,3355],[0,1]],[[2705,3355],[2,-2],[-1,-2],[-2,1],[1,3]],[[2813,3478],[15,-7]],[[2828,3471],[-14,7]],[[2828,3471],[-7,-5]],[[2826,3467],[5,0]],[[2828,3471]],[[2828,3471],[10,-3]],[[2838,3468],[6,-2]],[[2831,3467],[-3,4]],[[2828,3471]],[[2839,3467],[-1,1]],[[2838,3468],[-10,3]],[[2831,3467],[4,0],[0,-3],[-2,0],[-2,3]],[[2952,3419],[-5,-4]],[[2947,3415],[-6,-5]],[[2941,3409],[7,6]],[[2948,3415],[4,3]],[[2952,3418],[1,0]],[[2952,3419],[0,-1]],[[2952,3418],[-1,-3]],[[2951,3415],[79,-20]],[[3030,3395],[4,-1]],[[3034,3394],[8,-2],[60,22]],[[3102,3414],[5,2]],[[3107,3416],[3,1],[21,36]],[[2958,3418],[-1,0]],[[2957,3418],[-5,1]],[[2959,3415],[-6,3]],[[2953,3418],[3,0]],[[2956,3418],[1,0]],[[2957,3418],[9,5]],[[2956,3418],[5,-3]],[[2964,3419],[-6,-1]],[[2963,3417],[-5,1]],[[3032,3391],[12,1]],[[3040,3400],[-3,-4]],[[3037,3396],[-3,-2]],[[3034,3394],[-2,-3]],[[3046,3410],[-6,-10]],[[3040,3400],[1,-2]],[[3041,3398],[0,-1]],[[3040,3400],[6,9]],[[3042,3397],[-1,1]],[[3041,3398],[-1,2]],[[3051,3395],[-7,3]],[[3044,3398],[-4,2]],[[2544,1964],[16,111]],[[2560,2075],[2,3]],[[2562,2078],[-2,-3]],[[2661,1814],[-2,0]],[[2659,1813],[2,0]],[[2300,1447],[-12,16]],[[2362,1527],[-36,-46]],[[2130,145],[27,7]],[[2157,153],[-27,-7]],[[2157,151],[9,-16]],[[2166,135],[1,-2]],[[2168,133],[-2,2]],[[3683,4036],[-22,23]],[[3662,4057],[22,-22]],[[3126,3444],[-2,1]],[[3132,3440],[2,0]],[[3134,3440],[-2,0]],[[3151,3433],[-17,7]],[[3151,3433],[2,-2]],[[3154,3432],[-3,1]],[[3155,3431],[10,1]],[[3165,3432],[-10,0]],[[3165,3432],[2,1]],[[3167,3433],[16,1]],[[3183,3434],[149,-69],[96,-130],[72,-34]],[[3505,3197],[61,-68],[27,0]],[[3594,3130],[51,3]],[[3647,3133],[20,11]],[[3669,3145],[5,-3]],[[3676,3142],[33,-1]],[[3709,3141],[4,-1]],[[3713,3140],[78,13]],[[3798,3150],[26,-48]],[[3826,3101],[84,59],[47,-61]],[[3153,3432],[1,-1],[1,0],[-1,1],[-1,0]],[[3646,3132],[1,1],[-1,0],[0,-1]],[[3668,3144],[1,0],[0,1],[-2,0],[1,-1]],[[3825,3102],[-1,0],[1,-1],[1,0]],[[3826,3101],[-1,1]],[[3091,1289],[-14,-17]],[[3102,1300],[-10,-10]],[[3105,1309],[-3,-9]],[[3102,1300],[4,9]],[[3157,1344],[-50,-34]],[[3092,1290],[-1,-1],[1,0],[0,1]],[[2458,918],[-1,-1]],[[2458,916],[0,2]],[[2460,1434],[-17,-69],[31,-59],[-10,-124],[31,-102],[-10,-120],[-27,-42]],[[2512,794],[1,0]],[[2528,1498],[-1,0]],[[2527,1497],[1,1]],[[2541,1500],[-13,-2]],[[2580,1509],[0,-1]],[[2458,916],[0,1],[-1,-1],[0,-1],[1,1]],[[2565,2052],[-1,21]],[[1251,534],[-2,-26]],[[1258,456],[52,-8],[58,-210]],[[1371,234],[-23,-124]],[[1361,82],[-1,0]],[[1360,81],[1,0]],[[1371,234],[-3,4]],[[2258,187],[-40,-47],[-29,-57],[-21,-83]],[[2168,0],[22,83],[68,104]],[[2969,3614],[-52,104]],[[2588,1521],[1,9]],[[2589,1529],[-1,-8]],[[2588,1521],[8,-120],[143,-183]],[[1265,538],[-11,-1]],[[1265,538],[11,-2]],[[1276,538],[-11,0]],[[1278,536],[2,0]],[[1280,536],[-2,1]],[[1284,533],[-4,3]],[[1305,530],[-20,3]],[[1352,551],[-12,-6]],[[1376,555],[-1,0]],[[1413,530],[-3,3]],[[1430,520],[-3,2]],[[1552,425],[16,2]],[[1568,428],[-16,-2]],[[1568,427],[1,1],[0,1],[-1,-1],[0,-1]],[[1569,427]],[[1718,412],[-90,-53],[-59,68]],[[3846,2043],[2,3]],[[1444,443],[-1,1],[0,-1],[1,0]],[[2449,860],[-13,6]],[[2474,856],[-7,-1]],[[2501,526],[3,9]],[[2504,536],[5,13]],[[2513,795],[-4,7]],[[2509,551],[-1,-1],[1,-1],[0,1],[0,1]],[[3663,1640],[-22,5],[-88,-90],[-85,-20]],[[1450,435],[12,-14]],[[1476,588],[2,-48],[-28,-25]],[[1462,421],[-12,14]],[[1451,515],[27,25],[-1,48]],[[1462,420],[13,3]],[[1474,423],[-12,-3]],[[1476,588],[1,0],[-1,1],[-1,-1],[1,0]],[[1859,248],[-1,0]],[[1858,248],[1,0]],[[1859,248],[2,49]],[[1861,297],[6,5]],[[1867,302],[12,2]],[[1879,304],[4,7]],[[1882,334],[1,1]],[[1883,311],[-1,23]],[[2527,1977],[-1,-1]],[[3027,3025],[38,65]],[[3792,3152],[6,-2]],[[3180,3141],[-38,1]],[[3314,1537],[-2,-2]],[[3314,1536],[-7,-3],[-19,-11],[6,-10],[19,-13],[23,-47],[203,-110]],[[3539,1342],[-203,110],[-23,47],[-19,13],[20,24]],[[2509,550],[0,2]],[[2524,601],[7,10]],[[2539,632],[-3,-5]],[[2581,1511],[-1,-2]],[[2587,1526],[1,4]],[[2496,822],[-1,-1],[1,-1],[1,1],[-1,1]],[[2513,794],[1,0],[-1,1],[-1,-1],[1,0]],[[2524,1498],[3,-1],[-2,1],[-1,0]],[[1102,0],[5,57]],[[4027,2384],[2,4]],[[1115,66],[1,0]],[[2909,2302],[57,-52],[43,-94],[117,-76],[132,-326],[56,-41]],[[2949,2780],[-85,-362],[45,-116]],[[2986,2911],[-37,-130]],[[2949,2781],[0,-1]],[[2949,2781]],[[2949,2780]],[[2949,2780],[1,0]],[[2987,2917],[0,-5]],[[2950,2780],[-1,1],[0,-1]],[[2949,2780],[1,0]],[[2950,2780]],[[3913,466],[-40,-27]],[[2202,98],[31,-22]],[[2233,77],[-30,22]],[[1277,536],[36,-33]],[[1313,503],[-35,33]],[[3953,2214],[-5,2]],[[4038,2107],[5,-6]],[[2945,4041],[-121,-2],[-62,30]],[[3291,2713],[-117,51]],[[3318,2690],[-16,14]],[[2885,3000],[-15,5],[-3,7]],[[2867,3012],[-1,1],[22,68]],[[2888,3081],[15,46],[3,167],[86,212]],[[2991,3506],[-86,-212],[-4,-46],[2,-121],[-15,-46]],[[2888,3081],[-21,-69]],[[2867,3012],[-1,-2],[4,-4],[5,-3],[11,-4]],[[2994,3512],[0,-1]],[[1465,1971],[54,-31]],[[1520,1940],[183,-17]],[[1706,1923],[-3,0]],[[1703,1923],[3,-1]],[[1708,1922],[4,1]],[[1712,1923],[-4,0]],[[1812,1955],[-100,-32]],[[1813,1955],[-1,0]],[[1812,1955],[1,-1]],[[1815,1955],[-1,0]],[[1814,1955],[-1,0],[0,-1]],[[1813,1954],[2,0],[-1,1]],[[1971,1964],[-64,11]],[[2115,2078],[-61,2]],[[2466,1961],[-164,99],[-86,97],[-102,-71]],[[2662,1907],[-1,24]],[[2662,1907],[1,-9]],[[2663,1898],[40,-70]],[[2703,1826],[1,-2]],[[2704,1824],[1,2]],[[2736,1763],[-32,61]],[[3268,1650],[-118,34],[-22,-28],[-49,34],[-13,-34],[-157,67]],[[3268,1650],[2,-2]],[[3271,1649],[-3,1]],[[3271,1647],[44,-3]],[[3315,1644],[1,-1]],[[3316,1644],[-1,0]],[[3317,1642],[1,1]],[[3318,1643],[-1,0]],[[3318,1643],[21,-17]],[[3374,1564],[5,6]],[[3535,1457],[-67,78],[-60,17]],[[3544,1418],[-14,34]],[[3544,1415],[1,-6]],[[3545,1409],[5,-24]],[[3550,1384],[0,-1]],[[3550,1382],[1,-1]],[[3550,1385],[0,-1]],[[3550,1384]],[[3551,1381],[0,2]],[[3551,1381],[9,-49]],[[3558,1324],[4,-5]],[[3560,1332],[-2,-6]],[[3562,1319],[-3,6]],[[3559,1326],[1,6]],[[3562,1319],[2,-66],[64,-136]],[[3688,1098],[52,-299],[-10,-86],[85,-177]],[[3815,536]],[[3816,536],[-1,0]],[[3816,535]],[[3816,535]],[[3816,535],[12,-14]],[[3830,514],[-1,-11]],[[3844,510],[1,0]],[[3845,510]],[[3845,510]],[[3845,510],[0,-1]],[[3845,509]],[[3913,471],[-68,38]],[[3915,468],[2,-1]],[[3917,467],[-1,2]],[[3917,467],[179,-163]],[[1708,1922],[-1,2],[-1,-1],[1,-1],[1,0]],[[3316,1643],[1,0],[0,1],[-1,-1]],[[3379,1570],[1,0],[0,1],[-1,0],[0,-1]],[[3544,1416],[0,1],[0,-1]],[[3551,1383],[-1,0]],[[3550,1383],[1,-1],[0,1]],[[3559,1325],[0,1],[-2,0],[0,-2],[2,1]],[[3815,535],[1,0]],[[3816,535],[0,1],[-1,-1]],[[3845,510],[1,0],[-1,0]],[[3845,510]],[[1285,533],[-1,0]],[[1340,545],[-35,-15]],[[1375,555],[-23,-4]],[[1410,533],[-34,22]],[[1427,522],[-14,8]],[[1441,513],[-11,7]],[[1441,513],[3,-2]],[[1444,512],[-3,1]],[[1909,1451],[-50,-62],[-2,-62],[-101,-94],[-7,-9],[-26,-82],[5,-44],[54,-115],[-20,-70],[-2,-20],[8,-76],[50,-40],[9,-33]],[[1827,744],[4,-16],[-2,-13]],[[1829,715],[-14,-120],[-1,-1],[31,-137],[-25,-29],[5,-38],[47,-96],[2,-4],[-2,-115],[58,-61]],[[1932,117],[-60,58],[3,115],[-49,100],[-6,38],[26,29],[-31,137],[18,80],[-4,41]],[[1829,715],[-2,29]],[[1827,744],[-1,8],[-8,25],[-49,40],[14,166],[-59,159],[25,82],[109,103],[1,62],[50,62]],[[1953,1947],[-9,-59],[2,-35],[47,-99],[-16,-24],[-7,-31],[7,-60],[-64,-138]],[[1914,1501],[64,129],[-8,69],[23,54],[-47,100],[20,104]],[[2776,3422],[-28,-25],[-2,-4]],[[2746,3393],[-89,-123]],[[2657,3270],[-4,-6],[-1,-3],[-24,-42]],[[2628,3219],[-88,-153]],[[2540,3066],[-5,-9],[-69,-69],[0,-2]],[[2466,2986],[-8,-42]],[[2458,2944],[-8,-38],[-78,-64],[-131,-167],[-37,-60],[-20,-90],[-69,-117],[-17,-67],[-75,-84],[-15,-55],[-1,-7],[39,-93],[17,-16],[-19,-56]],[[2054,2039],[10,47],[-56,114],[16,56],[65,69]],[[2093,2331],[11,22],[11,55],[70,117],[56,149],[27,24],[104,143],[49,35],[30,29],[7,39]],[[2458,2944],[7,41],[1,1]],[[2466,2986],[70,70],[4,10]],[[2540,3066],[16,31],[72,122]],[[2628,3219],[24,42],[2,3],[3,6]],[[2657,3270],[43,75],[46,48]],[[2746,3393],[3,3],[10,6],[12,11],[9,15]],[[2790,3454],[-1,-4]],[[2790,3450],[1,4]],[[2800,3473],[6,8],[72,187]],[[2877,3669],[-76,-192]],[[1445,511],[2,-1]],[[1447,510],[-1,1]],[[1462,501],[-15,9]],[[1791,358],[-1,1]],[[1790,357],[1,1]],[[1790,358]],[[1879,338],[-88,20]],[[1887,332],[-8,6]],[[1887,332],[3,-4]],[[1890,328],[0,-1]],[[1890,328]],[[1891,327],[1,0]],[[1892,327],[-1,0]],[[2104,302],[-212,25]],[[2114,295],[119,16]],[[3252,1671],[-21,-28]],[[3238,1653],[10,13]],[[2261,2840],[-44,-149]],[[2245,2856],[0,-2]],[[2245,2854],[0,2]],[[2245,2854],[16,-13]],[[2246,2857],[-1,0]],[[2246,2856],[0,1]],[[2251,2878],[-5,-21]],[[2250,2879],[1,-1]],[[2251,2881],[-1,-1]],[[2251,2878],[0,1]],[[2251,2880],[0,1]],[[2251,2881],[12,32]],[[2260,2934]],[[2260,2935],[0,-1]],[[2260,2934],[3,-17]],[[2260,2936],[0,-1]],[[2260,2936],[1,6]],[[2261,2935],[-1,1]],[[2261,2841]],[[2261,2841]],[[2261,2942]],[[2261,2943],[0,-1]],[[2262,2944],[-1,-1]],[[2261,2841],[0,-1]],[[2261,2840],[1,1]],[[2262,2943],[0,1]],[[2263,2917],[-1,-2]],[[2262,2914],[1,-1]],[[2262,2944],[2,9]],[[2263,2915],[0,2]],[[2263,2913],[0,1]],[[2264,2953],[2,4]],[[2265,2958],[-1,-5]],[[2270,2962],[-4,-3]],[[2267,2958],[3,4]],[[2270,2962],[5,8]],[[2275,2970],[1,1]],[[2275,2971],[0,-1]],[[2276,2973],[0,-1]],[[2276,2972],[0,1]],[[2276,2973],[10,17]],[[2286,2990],[1,2]],[[2286,2992],[0,-2]],[[2289,2996],[-2,-3]],[[2288,2993],[1,3]],[[2289,2996],[144,172]],[[2433,3168],[1,1]],[[2434,3170],[-1,-2]],[[2436,3171],[-2,-1]],[[2435,3170],[1,1]],[[2460,3187],[-24,-16]],[[2460,3187],[1,1]],[[2461,3188],[-1,-1]],[[2463,3189],[-1,0]],[[2462,3188],[1,1]],[[2639,3355],[-176,-166]],[[2646,3374],[-7,-19]],[[2646,3464],[0,9]],[[2646,3463],[0,1]],[[2646,3463],[1,-4]],[[2648,3460],[-2,3]],[[2646,3473],[3,7]],[[2654,3434],[-8,-60]],[[2648,3459]],[[2648,3459],[0,1],[0,-1]],[[2649,3480],[1,1]],[[2649,3481],[0,-1]],[[2651,3482],[1,0]],[[2652,3482],[-1,0]],[[2654,3438],[-3,10]],[[2652,3482],[159,-3]],[[2654,3438],[0,-1]],[[2654,3436],[0,-2]],[[2655,3437],[-1,1]],[[2654,3434],[1,1]],[[2811,3479],[2,-1]],[[2814,3479],[-3,0]],[[2814,3478],[2,0]],[[2816,3478],[-2,0]],[[2816,3478],[26,1]],[[2842,3479],[10,3]],[[2889,3479],[-37,3]],[[2890,3479],[36,-10]],[[2957,3479],[-31,-10]],[[2957,3479],[17,4]],[[2981,3484],[-1,0]],[[2982,3483],[1,-2],[3,-2],[1,-1]],[[2988,3479],[-6,5]],[[2989,3479],[-1,0]],[[2988,3478],[1,1]],[[2989,3479],[5,1]],[[2994,3480]],[[2994,3481],[0,-1]],[[2244,2856],[1,0]],[[2245,2856],[0,1]],[[2245,2857],[-1,-1]],[[2250,2880],[0,-1]],[[2250,2879],[1,0],[-1,1]],[[2262,2943],[-1,0]],[[2261,2943],[1,-1],[0,1]],[[2262,2915],[0,-1],[1,0],[0,1],[-1,0]],[[2267,2958],[-1,1],[-1,-1],[1,-1]],[[2266,2957],[1,1]],[[2276,2972],[-1,0],[0,-1]],[[2275,2971],[1,0],[0,1]],[[2288,2992],[0,1],[-2,0],[1,-1],[1,0]],[[2435,3170],[-1,0],[0,-1],[1,1]],[[2461,3189],[0,-1],[1,0],[0,1],[-1,0]],[[2654,3435],[1,1],[-1,1],[-1,-1],[1,-1]],[[2813,3477],[1,1]],[[2814,3478],[0,1],[-1,-1],[0,-1]],[[2982,3485],[-1,-1]],[[2981,3484],[0,-1],[1,1]],[[2982,3484],[0,1]],[[2988,3477],[0,1]],[[2458,915],[0,1]],[[2461,913],[11,-37]],[[2473,872],[2,-14]],[[2475,858],[-1,-1]],[[2475,857],[0,1]],[[2499,521],[2,5]],[[2570,3262],[2,0]],[[2571,3262]],[[2572,3262],[-1,2]],[[2609,3251],[-37,11]],[[3836,2671],[57,20]],[[4034,2396],[3,4]],[[4041,2421],[-4,-21]],[[4041,2421],[19,78]],[[4060,2499],[7,12]],[[4067,2511],[-7,-12]],[[1440,449],[3,-5]],[[1443,444],[-3,6]],[[1444,511]],[[1445,511],[-1,0]],[[1443,70],[65,49],[-6,43]],[[1504,414],[11,3]],[[1515,417],[-11,-3]],[[1525,419],[26,6]],[[1551,426],[-25,-6]],[[1503,415],[1,-1],[0,1],[-1,0]],[[1742,402],[-21,8]],[[2108,2405],[-28,-76]],[[2108,2406],[4,5]],[[2261,2934],[1,0]],[[2262,2934],[-1,1]],[[2281,2925],[-19,9]],[[2281,2925],[0,-1]],[[2281,2925]],[[2286,2924],[-4,1]],[[2282,2924],[4,-1]],[[2288,2923],[5,-3]],[[2293,2920],[-5,4]],[[2294,2919],[3,1]],[[2297,2920],[-3,0]],[[2405,2884],[-108,36]],[[2406,2884],[-1,0]],[[2405,2884],[1,0]],[[2407,2883],[1,1]],[[2408,2884],[-1,0]],[[2412,2883],[-4,1]],[[2412,2883],[1,-2]],[[2413,2882],[-1,1]],[[2413,2881],[2,0]],[[2415,2881],[-1,0]],[[2415,2881],[8,-17]],[[2423,2864],[0,-2]],[[2424,2863],[-1,1]],[[2424,2860],[1,0]],[[2425,2860],[-1,1]],[[2425,2860],[70,-44]],[[2495,2816],[0,-1]],[[2495,2815],[0,1]],[[2495,2815],[0,-1],[1,0],[-1,1]],[[2495,2814],[1,-1]],[[2496,2813],[0,1]],[[2496,2813],[14,-38]],[[2510,2775],[3,-2]],[[2516,2774],[-6,1]],[[2514,2773],[2,1]],[[2516,2774],[9,-3]],[[2525,2771]],[[2526,2771],[-1,0]],[[2525,2770],[1,-1]],[[2526,2769],[0,1]],[[2526,2769],[2,-7]],[[2528,2762],[1,-1]],[[2529,2761],[-1,1]],[[2529,2760],[1,-1]],[[2530,2759],[0,2]],[[2530,2759],[5,-16]],[[2535,2743],[1,-1]],[[2536,2742],[-1,1]],[[2536,2741],[2,0]],[[2538,2741],[-2,1]],[[2538,2741],[11,-4]],[[2549,2737],[1,-1]],[[2550,2737],[-1,0]],[[2260,2935],[0,-1],[1,0],[0,1],[-1,0]],[[2281,2925],[0,-1],[1,0],[0,1],[-1,0]],[[2286,2924],[1,-1],[1,0],[0,1],[-2,0]],[[2294,2919],[0,1],[-1,0],[0,-1],[1,0]],[[2407,2884],[-1,0],[0,-1],[1,1]],[[2413,2882],[0,-1],[1,0],[-1,1]],[[2425,2862],[-2,1],[-1,-2],[2,-1]],[[2424,2860],[1,2]],[[2514,2772],[-1,1],[0,-1],[1,0]],[[2526,2770],[0,1],[-1,0],[0,-1],[1,0]],[[2529,2760],[1,1],[-1,1],[0,-1],[0,-1]],[[2536,2741],[0,1]],[[2536,2742],[0,-1]],[[2551,2736],[0,1],[-1,0]],[[2550,2737],[0,-1],[1,0]],[[2014,722],[-8,15]],[[2113,295],[-69,81],[26,165],[-55,179]],[[2019,113],[-1,-1]],[[2019,113],[10,3]],[[2029,117],[-10,-4]],[[2032,117],[1,0]],[[2033,117],[-1,1]],[[2033,117],[34,37]],[[2070,158],[43,136]],[[2079,2140],[1,-1]],[[2080,2139],[-1,1]],[[2080,2139],[64,-78]],[[2090,1330],[33,38],[8,87],[67,73],[-23,22]],[[2171,2043],[-23,15]],[[2153,1576],[-1,-1],[-20,89],[150,82]],[[2175,1552],[-15,31],[-7,-6]],[[2219,1985],[18,-90]],[[2284,1746],[-2,16]],[[2284,1746],[-2,0]],[[2282,1746],[1,-1]],[[2283,1745],[0,1]],[[2283,1745],[1,1]],[[2146,2060],[-1,-1],[1,0],[0,1]],[[2153,1576],[1,0],[0,1],[-1,0]],[[2153,1577],[0,-1]],[[2174,1551],[1,-1],[0,1],[0,1],[-1,-1]],[[2989,1136],[62,-97],[20,12],[77,-80]],[[2067,2224],[-7,0]],[[2060,2223],[-1,1],[0,-1],[1,0]],[[2060,2223],[7,0]],[[4096,2517],[-60,-4],[-109,-69],[-106,-24],[-256,57]],[[3568,2476],[247,-58],[112,25],[109,70],[31,-4],[29,8]],[[3628,201],[10,-13]],[[3656,28],[23,28]],[[3679,56],[-31,38],[18,15]],[[3830,514],[12,3]],[[3845,513],[-1,-3]],[[3857,566],[-1,1]],[[4015,654],[50,16]],[[2971,3609],[3,-6]],[[2974,3603],[-2,6]],[[2977,3596],[-3,7]],[[2996,3569],[-19,27]],[[2992,3541],[4,28]],[[2992,3541],[1,-24]],[[2994,3517],[-2,24]],[[2068,2224],[-1,1]],[[2515,779],[-2,14]],[[1913,1501],[-4,-50]],[[1909,1451],[5,50]],[[2089,2325],[4,6]],[[3129,3450],[-109,-60],[-57,24],[-25,-5],[-3,-1],[-12,2],[-8,1]],[[2915,3411],[-3,1],[-2,0],[-24,14],[-1,2],[-11,20]],[[2874,3448],[-1,1],[-12,11],[-11,5],[-58,-11],[-16,-32]],[[2780,3428],[70,37],[11,-6],[12,-10],[1,-1]],[[2874,3448],[41,-37]],[[2915,3411],[105,-22],[97,36],[14,28]],[[2643,2482],[-3,-10]],[[2872,3002],[2,-4]],[[2873,2939],[-1,-7]],[[2873,2932],[0,7]],[[2873,2939],[1,59]],[[2882,3036],[-9,-31]],[[2874,2998],[-1,4]],[[2874,3005],[8,30]],[[2885,3041],[-3,-5]],[[2883,3036],[2,5]],[[2885,3041],[69,98]],[[2961,3151],[-12,27]],[[2954,3139],[7,12]],[[3106,3556],[-1,-1]],[[2882,3035],[1,1],[-1,0],[0,-1]],[[1503,417],[0,-1]],[[1503,416],[0,-1]],[[1504,415],[-1,1]],[[2444,683],[-138,22],[-70,-76]],[[2990,3476],[14,-6]],[[3011,3460],[-2,2]],[[3010,3461],[1,-2]],[[3010,3461],[1,-3]],[[3032,3459],[-18,-4]],[[3014,3454],[10,1]],[[3025,3456],[6,2]],[[3062,3527],[-32,-29]],[[3031,3499],[31,27]],[[3034,3505],[1,0]],[[3042,3437],[0,-5],[1,-1]],[[3042,3433],[1,6]],[[3044,3462],[12,24]],[[3056,3486],[0,1]],[[3056,3487],[1,2]],[[3057,3488],[-1,-1]],[[3056,3487]],[[3057,3520]],[[3057,3489],[1,2]],[[3058,3491],[8,12]],[[3065,3503],[-7,-12]],[[3062,3526],[1,0]],[[3067,3504],[23,38],[0,3]],[[3090,3545],[0,2]],[[3088,3546],[2,-1]],[[3090,3545]],[[3146,3590],[-2,-3]],[[2469,800],[-1,0],[0,-1],[1,0],[0,1]],[[2936,3886],[0,1],[-1,0],[0,-1],[1,0]],[[3033,3460],[-1,0],[0,-1],[1,0],[0,1]],[[3066,3504],[-1,-1],[1,0]],[[3066,3503],[0,1]],[[3377,3059],[2,-1],[1,1],[-2,1],[-1,-1]],[[3478,3615],[1,0],[0,1],[-1,-1]],[[3407,3591],[-43,-101],[-54,-29],[-30,51]],[[3245,878],[226,-42]],[[3375,1211],[161,-107],[92,13]],[[3471,836],[1,0]],[[3472,836],[0,1],[-1,-1]],[[3472,836],[11,-8]],[[2342,300],[10,44],[-42,31]],[[3042,3440],[-53,13]],[[3008,3440],[9,-7]],[[3060,3460],[-17,-20]],[[3043,3439],[9,2],[8,13]],[[3060,3456],[1,4]],[[3060,3460],[1,1],[-1,2],[-1,-2],[1,-1]],[[2576,1965],[-49,3]],[[2942,3253],[-4,-30]],[[2944,3187],[-6,36]],[[2942,3253],[16,66]],[[2944,3187],[0,-4]],[[2945,3183],[-1,4]],[[2945,3182],[4,-4],[-4,4]],[[2945,3183],[-1,0],[0,-1],[1,0],[0,1]],[[3487,2419],[-32,-3]],[[2296,2950],[4,1]],[[2300,2951],[-4,0]],[[2300,2951],[63,3],[49,-32]],[[2412,2922],[20,-34]],[[2432,2888],[18,-42],[47,-19]],[[2572,2781],[-75,46]],[[2497,2827],[95,-56],[96,27],[79,-24]],[[2780,2767],[-13,7]],[[2767,2774],[16,-3]],[[2781,2768],[-2,0]],[[2872,3002],[2,-4]],[[2873,2939],[-1,-7]],[[2873,2932],[0,7]],[[2873,2939],[1,59]],[[2874,2998],[24,-9]],[[2874,3004],[24,-15]],[[2898,2989],[100,1],[38,59]],[[3054,3079],[27,44]],[[2295,2951],[0,-1],[1,0]],[[2296,2950],[0,1],[-1,0]],[[2872,3005],[0,-3],[2,0],[0,2],[-2,1]],[[3371,1547],[-1,-4]],[[3371,1548],[0,-1]],[[3371,1547],[1,1]],[[3372,1550],[-2,-1],[1,-1],[2,1],[-1,1]],[[2130,146],[-6,-1]],[[2124,144],[6,1]],[[2609,3251],[86,12]],[[2695,3262],[19,-22]],[[2717,3241],[47,9]],[[2800,3277],[-36,-27]],[[2945,3360],[-78,-18],[-65,-62]],[[2949,3364],[-3,-3]],[[2947,3361],[3,3]],[[2801,3278],[1,0],[0,1],[-1,0],[0,-1]],[[1995,0],[-1,2]],[[3370,2400],[-130,6]],[[2190,2050],[-116,0]],[[2074,2050],[116,-1]],[[1241,605],[1,1],[-1,1],[-1,-2],[1,0]],[[1241,605],[15,-23]],[[1256,583],[-14,22]],[[1256,583],[0,-1],[1,0]],[[1257,582],[0,1],[-1,0]],[[1257,582],[20,-44]],[[1278,537],[-20,45]],[[2099,146],[-37,10],[-31,-37]],[[2032,118],[31,38],[19,-15],[17,4]],[[2100,145],[23,-2]],[[2123,144],[-23,2]],[[2323,259],[3,0]],[[2326,259],[-2,1]],[[2327,258],[9,-7]],[[2337,251],[-10,8]],[[2551,2737],[22,35]],[[2585,2773],[-13,8]],[[2580,1509],[4,0]],[[2743,1216],[-4,2],[3,-3]],[[2880,2975],[16,-4]],[[2897,2971],[13,0]],[[2914,2974],[1,-1]],[[2949,3389],[-11,-20]],[[2948,3373],[-3,6]],[[2957,3408],[6,9]],[[3017,3433],[25,6]],[[3060,3454],[0,2]],[[3109,3483],[-35,-10],[-13,-10]],[[3061,3462],[13,10],[5,0],[27,10],[4,1]],[[3110,3483]],[[3097,3550],[9,5]],[[3104,3552],[10,-64]],[[3117,3480]],[[3117,3480],[-1,2],[0,1],[-1,4],[-3,14],[-6,51]],[[3108,3536],[0,-6]],[[3114,3488],[-5,-5]],[[3122,3475],[-1,1]],[[3121,3476],[-11,7]],[[3110,3483],[-1,0]],[[3110,3483],[9,-6]],[[3110,3483],[7,-3]],[[3114,3488],[2,-6],[1,-2]],[[3117,3480],[1,0]],[[3118,3480],[3,-4]],[[3121,3476],[2,-2],[7,-7]],[[3122,3475],[-4,5]],[[3118,3480],[-1,0]],[[3131,3466],[-9,9]],[[3316,1538],[31,-35]],[[3347,1504],[-30,34]],[[3348,1502],[9,-18]],[[3358,1485],[-9,18]],[[3661,4059],[-36,37]],[[3624,4096],[38,-39]],[[1420,48],[0,-1],[1,0],[0,1],[-1,0]],[[1461,420],[1,0],[0,1],[-1,-1]],[[2032,118],[-2,1],[-1,-2],[1,-1],[2,2]],[[2099,146],[-1,-1],[1,-1],[1,1],[-1,1]],[[2124,145],[-1,-1],[0,-1],[1,0],[0,2]],[[2327,258],[0,1],[-1,0],[0,-1],[1,0]],[[2742,1215],[2,0],[0,1],[-1,1],[-1,-2]],[[2878,2975],[1,-1],[1,0],[-1,2],[-1,-1]],[[2897,2971],[0,1],[-1,0],[0,-1],[1,0]],[[2910,2972],[0,-1],[1,0],[0,1],[-1,0]],[[2915,2973],[1,1],[-1,1],[-1,-1]],[[2914,2974],[1,-1]],[[2949,3365],[1,-1],[1,0],[-1,1],[-1,0]],[[2994,3517],[-1,0],[0,-1],[1,0],[0,1]],[[3043,3440],[-1,0],[0,-1],[1,0],[0,1]],[[3347,1504],[0,-2],[2,0],[0,2],[-2,0]],[[1931,115],[58,-62],[7,-53]],[[1997,0],[-8,54],[-58,62]],[[2261,2840],[-44,-149]],[[2245,2856],[0,-2]],[[2245,2854],[0,2]],[[2245,2854],[16,-13]],[[2246,2857],[-1,0]],[[2246,2856],[0,1]],[[2251,2878],[-5,-21]],[[2250,2879],[1,-1]],[[2251,2881],[-1,-1]],[[2251,2878],[0,1]],[[2251,2880],[0,1]],[[2251,2881],[12,32]],[[2260,2934]],[[2260,2935],[0,-1]],[[2260,2934],[3,-17]],[[2260,2936],[0,-1]],[[2260,2936],[1,6]],[[2261,2935],[-1,1]],[[2261,2841]],[[2261,2841]],[[2261,2942]],[[2261,2943],[0,-1]],[[2262,2944],[-1,-1]],[[2261,2841],[0,-1]],[[2261,2840],[1,1]],[[2262,2943],[0,1]],[[2262,2841],[0,1],[-1,0],[0,-1],[1,0]],[[2263,2917],[-1,-2]],[[2262,2914],[1,-1]],[[2262,2944],[2,9]],[[2263,2915],[0,2]],[[2263,2913],[0,1]],[[2264,2953],[2,4]],[[2265,2958],[-1,-5]],[[2270,2962],[-4,-3]],[[2267,2958],[3,4]],[[2270,2962],[5,8]],[[2275,2970],[1,1]],[[2275,2971],[0,-1]],[[2276,2973],[0,-1]],[[2276,2972],[0,1]],[[2276,2973],[10,17]],[[2286,2990],[1,2]],[[2286,2992],[0,-2]],[[2289,2996],[-2,-3]],[[2288,2993],[1,3]],[[2289,2996],[67,111],[77,61]],[[2433,3168],[1,1]],[[2434,3170],[-1,-2]],[[2436,3171],[-2,-1]],[[2435,3170],[1,1]],[[2460,3187],[-24,-16]],[[2460,3187],[1,1]],[[2461,3188],[-1,-1]],[[2463,3189],[-1,0]],[[2462,3188],[1,1]],[[2639,3355],[-67,-91],[-109,-75]],[[2639,3355],[7,19]],[[2646,3464],[0,9]],[[2646,3463],[0,1]],[[2646,3463],[1,-4]],[[2648,3460],[-2,3]],[[2646,3473],[3,7]],[[2654,3434],[-8,-60]],[[2648,3459]],[[2648,3459],[0,1],[0,-1]],[[2649,3480],[1,1]],[[2649,3481],[0,-1]],[[2651,3482],[1,0]],[[2652,3482],[-1,0]],[[2654,3438],[-3,10]],[[2652,3482],[159,-3]],[[2654,3438],[0,-1]],[[2654,3436],[0,-2]],[[2655,3437],[-1,1]],[[2654,3434],[1,1]],[[2811,3479],[2,-1]],[[2814,3479],[-3,0]],[[2814,3478],[2,0]],[[2816,3478],[-2,0]],[[2816,3478],[26,1]],[[2842,3479],[10,3]],[[2889,3479],[-37,3]],[[2890,3479],[36,-10]],[[2926,3469],[31,10]],[[2957,3479],[18,4]],[[2975,3483],[6,1]],[[2981,3484],[-6,-1]],[[2982,3483],[5,-5]],[[2988,3479],[-6,5]],[[2989,3479],[-1,0]],[[2988,3478],[1,1]],[[2989,3479],[5,1]],[[2994,3480]],[[2994,3481],[0,-1]],[[2244,2856],[1,0]],[[2245,2856],[0,1]],[[2245,2857],[-1,-1]],[[2250,2880],[0,-1]],[[2250,2879],[1,0],[-1,1]],[[2260,2935],[0,-1],[1,0],[0,1]],[[2261,2935],[-1,0]],[[2262,2943],[-1,0]],[[2261,2943],[1,-1],[0,1]],[[2262,2915],[0,-1],[1,0],[0,1],[-1,0]],[[2267,2958],[-1,1],[-1,-1],[1,-1]],[[2266,2957],[1,1]],[[2276,2972],[-1,0],[0,-1]],[[2275,2971],[1,0],[0,1]],[[2288,2992],[0,1],[-2,0],[1,-1],[1,0]],[[2435,3170],[-1,0],[0,-1],[1,1]],[[2461,3189],[0,-1],[1,0],[0,1],[-1,0]],[[2649,3482],[1,-1]],[[2650,3481],[1,1]],[[2651,3482],[-1,1],[-1,-1]],[[2654,3435],[1,1],[-1,1],[-1,-1],[1,-1]],[[2813,3477],[1,1]],[[2814,3478],[0,1],[-1,-1],[0,-1]],[[2982,3485],[-1,-1]],[[2981,3484],[0,-1],[1,1]],[[2982,3484],[0,1]],[[2988,3477],[1,-1],[1,0],[-2,3],[0,-2]],[[2995,3480],[0,1],[-1,0]],[[2994,3481],[1,-1]],[[3396,2394],[-25,6]],[[3402,2395],[-5,-1]],[[3402,2395],[7,-2]],[[3410,2392],[-1,1]],[[3410,2392],[0,-1]],[[3410,2391],[0,1]],[[3411,2391]],[[3411,2391]],[[3428,2400],[-17,-9]],[[3443,2406],[-14,-6]],[[3454,2416],[-11,-10]],[[3487,2419],[-32,-3]],[[3488,2418],[70,-50]],[[3411,2391],[-1,0],[1,-1],[0,1]],[[3428,2401],[0,-1]],[[3428,2400],[0,1]],[[3487,2418],[1,0],[0,1],[-1,0],[0,-1]],[[2558,3957]],[[2558,3957],[0,1]],[[2633,3944],[-75,13]],[[2557,3957],[1,1],[-1,0],[0,-1]],[[3169,22],[-36,-22]],[[3186,32],[-17,-10]],[[3223,55],[-37,-23]],[[3223,55],[5,3]],[[3227,59],[-4,-4]],[[3232,62],[-4,-2]],[[3229,59],[3,3]],[[3252,79],[-20,-17]],[[3239,68],[13,11]],[[3277,100],[-25,-21]],[[3282,104],[-5,-4]],[[3495,280],[-213,-176]],[[3495,280],[6,5]],[[3686,379],[-73,8],[-112,-102]],[[3861,430],[-174,-51]],[[3870,437],[-9,-7]],[[3873,439],[-3,-2]],[[3877,440],[12,2]],[[3914,469],[1,-1]],[[2074,2254],[1,2]],[[2075,2258],[-1,0],[1,-1],[0,1]],[[2076,2274],[1,0],[-1,0]],[[1236,566],[4,38]],[[1538,1783],[72,-90],[33,12]],[[1646,1705],[8,-7]],[[1655,1697],[26,8]],[[1698,1712],[105,20]],[[1803,1732],[1,1]],[[1803,1732],[0,1]],[[1816,1740],[-12,-7]],[[1975,1700],[-54,5],[-46,71],[-58,-35]],[[1803,1733],[1,0],[-1,0]],[[3038,4096],[-70,-158],[-27,-85],[-17,-122],[-47,-62]],[[2878,3668],[40,51]],[[2918,3719],[8,15],[16,119],[26,85],[71,158]],[[1036,2181],[121,-109],[170,-86],[38,-11],[-3,18]],[[1113,60],[2,6]],[[1643,1705],[3,0]],[[1654,1698],[1,-1]],[[1681,1705],[17,7]],[[1817,1741],[-1,-1]],[[2288,1463],[-27,43],[-63,22]],[[2326,1481],[-26,-34]],[[2460,1544],[-98,-17]],[[2461,1544],[-1,0]],[[2460,1544],[1,-1]],[[1446,511],[-1,1]],[[1493,481],[-31,20]],[[1493,481],[1,-1]],[[1494,481],[-1,0]],[[1494,480],[1,0],[0,1],[-1,-1]],[[1494,480]],[[2918,3719]],[[2995,3480],[0,1],[-1,0],[1,-1]],[[3069,765],[1,-1]],[[3070,764],[0,1]],[[3070,765],[0,1]],[[3070,764],[55,-59],[147,-60]],[[3272,645],[5,-2]],[[3277,644],[-5,1]],[[3279,642],[0,2],[-2,0]],[[3277,644],[0,-2],[2,0]],[[3279,642],[3,-1]],[[3282,641],[-3,2]],[[3800,485],[-302,57],[-216,99]],[[3816,501],[-9,-14]],[[1551,426],[0,-1],[1,1],[-1,0]],[[2495,823],[-6,15]],[[2509,802],[-12,17]],[[2776,2750],[7,15]],[[2783,2765],[3,5]],[[2786,2770],[19,34]],[[2784,2764],[-1,1]],[[2783,2765],[-3,1]],[[2786,2769],[-4,-1]],[[2783,2771],[3,-1]],[[2786,2770],[1,0]],[[2783,2764],[1,0]],[[2784,2764],[2,2],[2,-1],[-2,-2],[-2,1]],[[2805,2804],[-18,-33]],[[2805,2804],[64,112]],[[2869,2916],[4,15]],[[2872,2931],[-3,-15]],[[1247,628],[-7,-20]],[[1249,508],[9,-52]],[[2762,4069],[-82,18],[-12,9]],[[1742,1046],[5,2]],[[1754,1054],[32,8]],[[3828,521],[28,46]],[[1473,596],[-88,186],[-17,178]],[[1369,966],[-1,-2]],[[1383,975],[-14,-9]],[[1369,964],[0,2]],[[1383,975],[1,1]],[[1384,976],[-1,-1]],[[1481,1008],[-24,10]],[[1473,596],[3,-7]],[[1479,587],[-6,9]],[[1477,588],[2,-1]],[[1526,495],[8,35],[-55,57]],[[1481,1008],[3,-4]],[[1484,1005],[-3,3]],[[1491,1007],[-6,-2]],[[1485,1004],[6,3]],[[1521,1011],[-30,-4]],[[1496,481],[15,0]],[[1551,425],[-46,-81],[-2,-95],[-21,-18],[15,-36]],[[1497,195],[2,-29]],[[1500,167],[-3,28]],[[1497,187],[0,2]],[[1500,166]],[[1560,1001],[-35,10]],[[1551,425]],[[1551,425]],[[1611,1030],[-48,-27]],[[1638,1035],[-24,-4]],[[1641,1035],[34,-5]],[[1674,1030],[-32,6]],[[1701,1040],[16,8]],[[1719,1047],[18,-2]],[[1740,1043],[105,-81]],[[2435,869],[5,22],[-59,-7],[-41,73],[-87,55]],[[1416,20],[4,26]],[[1416,20],[0,-1]],[[1428,65],[-7,-16]],[[1437,75],[-9,-10]],[[1428,65],[4,5]],[[3571,3385],[-92,230]],[[3571,3384],[0,-1],[0,1]],[[3571,3385],[0,-1]],[[3571,3384],[0,1]],[[3571,3383],[1,-1]],[[3572,3382],[-1,1]],[[3684,3228],[-61,73],[1,38],[-52,43]],[[3669,3145],[5,-3]],[[3676,3220],[31,-63],[-31,-15]],[[3843,2424],[-28,92],[7,140],[34,43],[0,147],[-80,149],[-63,45],[-31,103]],[[3677,3221],[-1,0],[-1,0],[1,-1],[1,1]],[[1675,1030],[1,-2],[5,-14]],[[1682,1015],[-6,15]],[[1676,1030],[2,0],[-2,1]],[[1682,1013],[6,-15]],[[1689,998],[-7,16]],[[1688,997],[3,-35]],[[1692,962],[-3,35]],[[1689,998],[-1,0],[1,-1]],[[1689,997],[1,0],[-1,1]],[[1692,961],[19,-9]],[[1711,953],[-18,9]],[[1694,1032]],[[1694,1032]],[[1699,1039],[0,2],[0,-2]],[[1699,1038],[0,-1],[1,1]],[[1701,1034],[-1,1],[-1,-1],[1,-1]],[[1703,1067],[0,-3]],[[1712,952],[13,0]],[[1724,952],[-12,1]],[[1719,413],[-1,0]],[[1719,412]],[[1725,952],[1,0]],[[1726,444],[0,-1]],[[1727,444],[-1,1],[0,-1]],[[1728,455],[0,-2],[1,2]],[[1730,456],[0,2],[-1,-2]],[[1754,892],[1,-2],[0,3]],[[1755,894],[0,1]],[[1778,1177],[-1,2],[0,-2]],[[1777,1176],[1,0]],[[1778,1177],[-1,0],[0,-1],[1,0]],[[1778,1176],[0,1]],[[2513,2704],[-20,-4]],[[2493,2699],[20,4]],[[2514,2703],[21,15]],[[2534,2719],[-20,-15]],[[1676,1031],[-1,0],[1,-1],[1,0],[-1,1]],[[1682,1014],[-1,1],[0,-1],[1,-1],[0,1]],[[1692,962],[-1,0],[1,-1],[0,1]],[[1694,1032]],[[1694,1032]],[[1699,1039],[0,-1],[1,1],[-1,0]],[[1701,1033],[-1,1],[0,-1]],[[1700,1033],[1,0]],[[1703,1068],[-1,0],[1,-1],[0,1]],[[1712,953],[-1,0],[1,-1]],[[1712,952],[0,1]],[[1726,952],[-1,1],[-1,-1],[1,0]],[[1725,952],[1,0]],[[1727,444],[-1,1],[0,-1],[0,-1]],[[1726,443],[1,1]],[[1729,456],[-1,0],[1,-1],[1,0],[-1,1]],[[1754,895],[-1,-2],[2,-1],[1,2],[-2,1]],[[1982,16],[-20,19]],[[1982,16]],[[1982,16]],[[1983,15],[0,-1]],[[1983,14],[0,1]],[[1983,14]],[[1983,16],[-1,0]],[[1982,16],[0,-1],[1,0],[0,1]],[[3322,1651],[-6,-7]],[[3317,1643],[5,7]],[[3323,1651]],[[3323,1651]],[[3323,1651],[20,5]],[[3366,1562],[1,-4]],[[3371,1566],[-1,1]],[[3552,2482],[9,-15]],[[3561,2467],[-9,15]],[[3614,2423],[-53,44]],[[3322,1650],[1,0],[0,1]],[[3323,1651],[-1,0],[0,-1]],[[2778,2762],[2,-4]],[[2785,2764],[2,6]],[[2787,2770]],[[2805,2804],[64,112]],[[2805,2804],[-19,-35],[-10,-19],[9,17],[2,3]],[[2787,2770],[18,34]],[[2869,2916],[4,15]],[[2872,2931],[-3,-15]],[[982,2229],[54,-48]],[[1979,69],[-5,-7]],[[1974,62],[-1,-1],[0,-1],[1,1]],[[1974,61],[0,1]],[[1974,61],[6,7]],[[1984,78],[-4,-8]],[[1981,69],[4,9]],[[2158,150],[0,2]],[[2167,132],[-3,-46]],[[2164,87],[4,45]],[[2173,86],[-8,1]],[[2165,86],[8,0]],[[2307,263],[5,-4],[6,0]],[[2318,260],[-10,3]],[[2319,260],[-1,0]],[[2318,260],[0,-1],[1,0],[0,1]],[[2324,260],[-5,0]],[[2319,260],[4,-1]],[[1981,69],[-1,1]],[[1980,70],[-1,-1]],[[1979,69],[1,-1],[1,1]],[[2158,153],[-1,0],[0,-2],[1,1],[0,1]],[[2165,87],[-1,0]],[[2164,87],[0,-1],[1,0],[0,1]],[[2167,132],[1,1]],[[2308,264],[-1,0],[-1,-1],[2,0],[0,1]],[[4085,2527],[-57,-107]],[[4085,2528],[0,-1]],[[4085,2527],[1,1]],[[4087,2532],[-1,-2]],[[4086,2529],[1,3]],[[4087,2532],[9,15]],[[4085,2530],[0,-2]],[[4085,2528],[1,0],[0,2],[-1,0]],[[2489,838],[-11,8]],[[3573,3412],[-94,203]],[[3676,3220],[29,-45]],[[1484,426],[1,0]],[[1485,426]],[[1485,426],[1,-2]],[[1494,414],[5,0]],[[1494,456],[1,0]],[[1494,480],[0,-24]],[[1494,456],[1,0]],[[1495,456],[-1,0]],[[1495,456],[0,24]],[[1817,393],[-5,6]],[[2274,537],[0,-3]],[[2274,528],[1,9]],[[2277,546]],[[2664,711],[68,-39],[94,-112],[83,-18]],[[2950,1784],[21,12]],[[2963,1798],[-4,-6]],[[2966,490],[-2,2]],[[3130,3467],[-1,-17]],[[1796,2299],[-1,2]],[[1797,2296],[-1,3]],[[1824,2296],[-27,0]],[[1824,2296],[1,0]],[[1825,2296],[-1,0]],[[1826,2297],[-1,0]],[[1825,2297],[1,0]],[[1913,2288],[-69,24],[-18,-15]],[[1913,2288],[1,0]],[[1914,2288],[-1,0]],[[1914,2287],[1,0]],[[1915,2287],[-1,1]],[[1915,2287],[50,-46]],[[1965,2241],[36,-38]],[[2001,2203],[1,-1]],[[2003,2203],[-2,0]],[[2004,2201],[7,-1]],[[2012,2201],[-7,1]],[[2012,2200],[4,-1]],[[2016,2199],[-4,1]],[[2016,2199],[11,-5]],[[2027,2194],[1,-1]],[[2028,2193],[-1,1]],[[2041,2209],[-13,-15]],[[2029,2193],[12,15]],[[2039,2218],[2,-9]],[[2052,2224],[-13,-6]],[[2041,2209],[-1,8]],[[2040,2218],[12,6]],[[2053,2224],[6,-1]],[[2059,2224],[-6,0]],[[2084,2222],[-16,2]],[[2068,2223],[15,-2]],[[2085,2223],[-1,-1]],[[2085,2222],[0,1]],[[2085,2223],[38,46],[15,-16],[167,66],[62,-21]],[[3371,2636],[3,21]],[[3458,2945],[-9,27]],[[3470,2728],[24,102],[-35,113]],[[3463,2721],[6,5]],[[1826,2296],[-1,1],[0,-1]],[[1825,2296],[1,0]],[[1914,2288]],[[1914,2288],[0,-1],[0,1]],[[1914,2288]],[[1965,2241],[1,0],[-1,0]],[[2004,2203],[-1,0],[-1,-1],[2,-1],[0,2]],[[2012,2201],[-1,-1]],[[2011,2200],[1,-1],[0,1],[0,1]],[[2029,2192],[0,1],[-1,1],[0,-1],[1,-1]],[[2040,2219],[-1,-1],[0,-1],[1,1],[0,1]],[[2042,2208],[0,1],[-1,0],[0,-1],[1,0]],[[2053,2224],[-1,1],[0,-1],[0,-1],[1,1]],[[3459,2944],[-1,0],[0,-1],[1,1]],[[2274,534],[-32,-123],[-1,-48]],[[2242,363],[1,48],[20,43],[14,90]],[[2277,544],[-3,-7]],[[2275,537],[2,7]],[[2277,544],[36,73],[100,56],[31,30],[39,16],[39,18],[142,-26]],[[2964,492],[-16,24],[-2,1]],[[2946,517],[-34,24]],[[2912,541],[-3,1],[-83,18],[-94,113],[-68,38],[-131,26],[-11,1],[-79,-34],[-130,-86],[-36,-72]],[[2909,542],[3,-1]],[[2912,541],[28,-14],[6,-10]],[[2946,517],[18,-25],[12,-18],[10,-57],[1,0]],[[2987,417],[7,-8]],[[2994,409],[77,-79]],[[3072,331],[-78,78]],[[2994,409],[-7,8]],[[2987,417],[-3,16],[-7,41],[-11,16]],[[2076,2276],[1,18]],[[2173,2042],[46,-57]],[[2283,1745]],[[2283,1745]],[[2283,1745],[179,-200]],[[2462,1545],[-1,-1]],[[2463,1544],[-1,1]],[[2462,1543],[1,1]],[[2524,1499],[-61,45]],[[2524,1499],[0,-1]],[[2525,1498],[-1,1]],[[2742,1215],[1,-1]],[[2743,1214],[1,1]],[[2890,1027],[-147,187]],[[2890,1027],[2,-1]],[[3008,3465],[2,-4]],[[3008,3464],[1,-2]],[[1986,9],[-3,5]],[[1992,3],[-5,3]],[[3683,4036],[48,-28]],[[3759,4025],[225,71]],[[2436,866],[20,48]],[[2449,860],[25,-5]],[[2456,914],[1,1]],[[2457,916],[-1,-2]],[[2470,1457],[-10,-23]],[[2470,1457],[9,8]],[[2524,1497],[-45,-32]],[[2504,535],[-3,-9]],[[2508,550],[-4,-14]],[[2507,804],[5,-9]],[[2524,1497],[1,0]],[[2524,1498],[0,-1]],[[2580,1508],[-39,-8]],[[2588,1530],[-7,-19]],[[2591,1531],[-3,-1]],[[2588,1530],[2,-1],[1,2]],[[2599,1967],[-11,23]],[[2657,1823],[-28,-89],[12,-83],[-40,-52],[-10,-68]],[[2599,1967],[0,-1]],[[2600,1966],[-1,1]],[[2599,1961],[1,4]],[[2600,1955],[-1,6]],[[2599,1965],[1,0]],[[2600,1965]],[[2615,1947],[-15,8]],[[2615,1947],[0,-1]],[[2615,1946],[0,1]],[[2615,1946],[1,-1]],[[2616,1945],[0,1]],[[2631,1924],[-15,21]],[[2631,1924],[5,-7]],[[2636,1918],[-5,6]],[[2636,1918],[0,-1],[1,1],[-1,0]],[[2636,1917],[3,-4]],[[2639,1913],[-2,4]],[[2642,1905],[-3,8]],[[2641,1879],[1,-1]],[[2642,1905],[1,-10]],[[2643,1895],[-1,-15]],[[2642,1878],[0,1]],[[2642,1878],[7,-31]],[[2642,1879],[1,1],[-1,0],[-1,-1],[1,0]],[[2649,1847],[8,-24]],[[2599,1966],[1,-1],[0,1],[-1,0]],[[2615,1946]],[[2615,1946],[1,0],[-1,0]],[[2261,2934],[1,0]],[[2262,2934],[-1,1]],[[2281,2925],[-19,9]],[[2281,2925],[0,-1]],[[2281,2925]],[[2286,2924],[-4,1]],[[2282,2924],[4,-1]],[[2288,2923],[5,-3]],[[2293,2920],[-5,4]],[[2294,2919],[3,1]],[[2297,2920],[-3,0]],[[2405,2884],[-108,36]],[[2406,2884],[-1,0]],[[2405,2884],[1,0]],[[2407,2883],[1,1]],[[2408,2884],[-1,0]],[[2412,2883],[-4,1]],[[2412,2883],[1,-2]],[[2413,2882],[-1,1]],[[2413,2881],[2,0]],[[2415,2881],[-1,0]],[[2415,2881],[8,-17]],[[2423,2864],[0,-2]],[[2424,2863],[-1,1]],[[2424,2860],[1,0]],[[2425,2860],[-1,1]],[[2425,2860],[70,-44]],[[2495,2816],[0,-1]],[[2495,2815],[0,1]],[[2495,2815],[0,-1],[1,0],[-1,1]],[[2495,2814],[1,-1]],[[2496,2813],[0,1]],[[2496,2813],[14,-38]],[[2510,2775],[3,-2]],[[2516,2774],[-6,1]],[[2514,2773],[2,1]],[[2516,2774],[9,-3]],[[2525,2771]],[[2526,2771],[-1,0]],[[2525,2770],[1,-1]],[[2526,2769],[0,1]],[[2526,2769],[2,-7]],[[2528,2762],[1,-1]],[[2529,2761],[-1,1]],[[2529,2760],[1,-1]],[[2530,2759],[0,2]],[[2530,2759],[5,-16]],[[2535,2743],[1,-1]],[[2536,2742],[-1,1]],[[2260,2935],[0,-1],[1,0],[0,1],[-1,0]],[[2281,2925],[0,-1],[1,0],[0,1],[-1,0]],[[2286,2924],[1,-1],[1,0],[0,1],[-2,0]],[[2294,2919],[0,1],[-1,0],[0,-1],[1,0]],[[2407,2884],[-1,0],[0,-1],[1,1]],[[2413,2882],[0,-1],[1,0],[-1,1]],[[2425,2862],[-2,1],[-1,-2],[2,-1]],[[2424,2860],[1,2]],[[2514,2772],[-1,1],[0,-1],[1,0]],[[2526,2770],[0,1],[-1,0],[0,-1],[1,0]],[[2529,2760],[1,1],[-1,1],[0,-1],[0,-1]],[[3740,2460],[-1,-1],[1,-1],[1,1],[-1,1]],[[2193,98],[-17,-12]],[[2194,99],[-1,-1]],[[2193,98],[1,0]],[[2202,100],[-6,3],[-2,-4]],[[2194,99],[7,-3],[1,4]],[[3277,1657],[66,-47],[-27,-72]],[[3317,1538],[28,57],[-2,16],[-66,47]],[[1526,420],[-11,-3]],[[1515,417],[10,2]],[[2044,2030],[-91,-83]],[[1966,1957],[88,82]],[[2296,2950],[4,1]],[[2300,2951],[-4,0]],[[2300,2951],[63,3],[49,-32]],[[2412,2922],[20,-34]],[[2432,2888],[15,-37],[50,-24]],[[2497,2827],[15,-11],[59,-34],[7,-7],[17,-5],[93,28],[79,-24]],[[2572,2781],[-1,1],[-56,33],[-12,8],[-6,4]],[[2767,2774],[13,-7]],[[2780,2767],[-13,7]],[[2873,3002],[25,-13]],[[2898,2989],[-13,11],[-11,4]],[[2898,2989],[73,-8],[56,44]],[[3065,3090],[16,33]],[[2295,2951],[0,-1],[1,0]],[[2296,2950],[0,1],[-1,0]],[[1113,60],[-6,-3]],[[1508,119],[97,-119]],[[2355,322],[69,69],[46,72],[53,112],[30,96],[19,116],[80,160],[-1,125],[67,53],[252,253],[47,36],[38,16],[12,7],[19,15],[1,2]],[[3087,1454],[55,90]],[[3142,1544],[5,8],[62,42],[29,59]],[[3231,1643],[-22,-49],[-60,-39],[-7,-11]],[[3142,1544],[-52,-88],[-3,-2]],[[3087,1454],[-1,-2],[-6,-5],[-20,-13],[-43,-20],[-47,-36],[-175,-162],[-77,-91],[-68,-53],[2,-125],[-81,-160],[-15,-53],[-4,-65],[-29,-94],[-16,-23],[-10,-29],[-16,-19],[-11,-41],[-12,-13],[-27,-42],[-8,-17],[-68,-68]],[[3248,1666],[106,70],[183,315],[-29,111],[35,142],[-5,146],[-4,11],[-23,34],[-14,14]],[[3497,2509],[-49,43]],[[3449,2554],[48,-45]],[[3497,2509],[14,-14],[26,-43],[5,-149],[-35,-144],[0,-4],[3,-13],[26,-91],[-44,-57],[-127,-220],[-3,-8],[-8,-30],[-82,-49],[-20,-16]],[[3375,4096],[-21,-91],[-20,-26],[-62,-177],[-6,-89],[-43,-79],[-19,-50],[-15,-71],[28,-56],[74,-80],[87,-146],[-35,-91],[-3,-109],[6,-10],[97,-147],[27,-62],[-19,-99]],[[3453,2714],[17,98],[-26,62],[-103,157],[3,109],[35,91],[-88,146],[-102,136],[78,200],[5,89],[82,203],[21,91]],[[3136,3576],[4,6]],[[3140,3582],[-4,-4]],[[3140,3582],[1,1]],[[3141,3583],[52,65]],[[3258,3777],[-65,-129]],[[3258,3777],[8,11]],[[3266,3788],[56,91]],[[3322,3879],[2,8]],[[3324,3887],[17,40]],[[3348,3942],[-7,-15]],[[3348,3942],[30,28]],[[3385,3974],[-7,-4]],[[3385,3974],[132,93],[10,29]],[[2649,3482],[1,-1],[1,1],[-1,1],[-1,-1]],[[3638,188],[28,-79]],[[3802,483],[-96,-31],[-19,-73]],[[3811,491],[-4,-4]],[[3888,589],[-31,-23]],[[1699,1041],[4,23]],[[1703,1068],[75,105]],[[1718,414],[8,28]],[[1721,410],[-1,1]],[[1726,951],[29,-29]],[[1726,445],[2,8]],[[1730,458],[-34,93],[13,34],[-43,16],[-23,155],[24,95],[88,39]],[[1743,402]],[[1744,401],[1,0]],[[1745,401],[-1,1]],[[1873,92],[-36,72],[21,86],[-113,151]],[[1752,908],[3,14]],[[1752,908],[3,-12]],[[1777,1179],[89,144],[59,34],[9,50]],[[1934,1407],[1,0]],[[1935,1408],[-1,-1]],[[1935,1407],[1,1],[0,1]],[[1936,1409],[-1,-1],[0,-1]],[[1937,1409],[-1,0]],[[1936,1408],[1,1]],[[1937,1409],[33,116]],[[1969,1534],[32,122]],[[1969,1534],[1,-9]],[[1971,1964],[-28,-115],[46,-85]],[[1996,1746],[-7,18]],[[1996,1746],[4,-15]],[[1997,1674],[7,13]],[[2003,1687],[-6,-13]],[[1997,1674],[10,-2]],[[1999,1728],[1,1]],[[2000,1729],[-1,-1]],[[1999,1728],[5,-41]],[[2000,1731],[0,-1]],[[2001,1730],[-1,1]],[[2007,1672],[-6,-15]],[[2003,1687],[1,0]],[[2004,1687],[-1,0]],[[2063,2101],[-11,-20]],[[2053,2081],[10,20]],[[2063,2101],[15,38]],[[2067,2225],[0,-1]],[[2067,2225],[7,29]],[[2075,2259],[1,13]],[[2076,2275]],[[2076,2274]],[[2077,2294],[1,18]],[[2078,2139],[1,1]],[[2079,2140],[-1,-1]],[[2078,2314],[1,11]],[[2079,2326],[0,-1]],[[2079,2325],[1,1]],[[2080,2328],[0,1],[-1,-1]],[[2108,2406],[0,-1]],[[2188,2538],[-76,-127]],[[2195,2552],[-7,-14]],[[2492,2699],[-70,-72],[-97,20],[-65,-67],[-51,8],[-14,-36]],[[2536,2741],[2,0]],[[2538,2741],[-2,1]],[[2538,2741],[11,-4]],[[2549,2737],[1,-1]],[[2550,2737],[-1,0]],[[2551,2736],[1,0]],[[2552,2736],[-1,0]],[[2552,2736],[92,25],[7,34]],[[2651,2795],[1,0]],[[2652,2795],[-1,0]],[[2654,2796],[-2,0]],[[2653,2795],[1,1]],[[2654,2796],[213,205]],[[2869,3001],[3,1]],[[1744,402],[-1,0]],[[1743,402],[1,-1]],[[1744,401],[0,1]],[[2000,1729],[1,0],[-1,1],[0,-1]],[[2001,1656],[0,1],[0,-1]],[[2001,1656]],[[2007,1672],[0,1],[0,-1]],[[2067,2223],[1,1]],[[2079,2140]],[[2081,2327],[-1,1],[-1,-1],[1,-1],[1,1]],[[2492,2699],[1,0],[0,1],[-1,-1]],[[2513,2704],[0,-1],[1,0],[0,1],[-1,0]],[[2535,2718],[0,1],[-1,0],[1,-1]],[[2536,2741],[0,1]],[[2536,2742],[0,-1]],[[2551,2736],[0,1],[-1,0]],[[2550,2737],[0,-1],[1,0]],[[2652,2796],[0,-1],[1,0],[-1,1]],[[2268,559],[9,-27]],[[2278,528],[18,-55],[33,1],[97,-72]],[[3370,2630],[1,6]],[[3339,3356],[-29,105]],[[2515,778],[24,-52]],[[2537,627],[6,63]],[[2539,724],[3,-30]],[[2989,3453],[19,-13]],[[3073,1528],[233,45]],[[3320,1571],[-11,2]],[[3363,1562],[-1,0]],[[3362,1562]],[[3362,1562],[-17,-1]],[[3345,1560],[17,2]],[[3363,1562],[2,0]],[[3366,1562],[-1,0]],[[3365,1562],[1,0]],[[3365,1562],[1,0]],[[3406,1555],[60,206],[-19,53],[103,41],[32,45],[34,-27],[34,51],[167,42]],[[3818,1967],[13,32]],[[3831,1999],[15,44]],[[3848,2046],[107,155]],[[3957,2210],[-2,-8]],[[3958,2214],[68,170]],[[4024,2413],[0,-1]],[[4024,2412],[0,2]],[[4026,2384],[-2,28]],[[4026,2384]],[[3362,1562]],[[3362,1562],[0,-1],[1,0],[0,1]],[[3363,1562],[-1,0]],[[3362,1562]],[[1614,1030],[26,5]],[[1614,1031],[-1,0],[0,-1],[1,0],[0,1]],[[1640,1035],[1,1],[-1,0],[0,-1]],[[1930,114],[30,-21]],[[1961,93],[-29,24]],[[1968,78],[28,-78]],[[1997,0],[-29,78]],[[1912,50],[-39,42]],[[1912,50],[0,-1]],[[1913,50],[-1,0]],[[1912,48],[1,0]],[[1913,48],[0,1]],[[1913,48],[46,-12]],[[1913,48],[0,1],[-1,0],[1,-1]],[[3016,3491],[-22,-10]],[[3005,3470],[-10,10]],[[3006,3468],[-1,1]],[[3018,3494],[1,7]],[[2999,3507],[-1,0],[0,-2],[2,1],[-1,1]],[[3380,1570],[28,-18]],[[3628,1117],[60,-19]],[[2475,851],[3,-5]],[[2475,855],[1,1],[-2,1],[0,-2],[1,0]],[[2515,779],[-1,0],[0,-1],[1,1]],[[1845,962],[45,-137],[29,-3]],[[1924,818],[84,-26],[-1,-32]],[[2227,641],[-195,95]],[[2488,494],[-56,20],[-9,-23],[-91,36],[-25,47],[-39,-15],[-36,35]],[[1386,977],[-1,0]],[[1385,976],[1,1]],[[1454,1018],[-68,-41]],[[2527,1968],[-50,-7]],[[2596,1958],[-20,7]],[[2736,1763],[173,-40]],[[3277,988],[19,89]],[[3990,1915],[-26,100],[132,147]],[[2780,2766],[0,1]],[[2782,2768],[-1,0]],[[2783,2771]],[[3036,3049],[18,30]],[[1444,511],[-7,-54]],[[1437,455],[3,-6]],[[1440,450],[5,61]],[[1444,511],[1,0]],[[2496,820],[9,-12]],[[2588,1990],[-23,62]],[[3448,2552],[-48,44],[1,4]],[[3401,2600],[21,59],[2,2]],[[3424,2661],[21,16]],[[3445,2677],[1,2],[7,35]],[[3451,2713],[-6,-36]],[[3445,2677],[-1,-3],[-20,-13]],[[3424,2661],[-17,-11],[-10,-46],[4,-4]],[[3401,2600],[48,-46]],[[3829,503],[-18,-12]],[[3842,517],[3,-4]],[[1958,35],[2,1]],[[1960,39],[4,14]],[[1960,39],[0,-1]],[[1960,39]],[[1960,36],[1,1]],[[1964,53],[1,0]],[[1965,54],[-1,-1]],[[1967,55],[-2,0]],[[1966,54],[1,1]],[[1973,60],[-6,-5]],[[1973,59],[0,1]],[[1986,7]],[[1986,7]],[[1986,7]],[[1986,6],[1,0]],[[1992,32],[1,-10]],[[1993,23],[0,9]],[[2002,38],[-9,-5]],[[1993,20],[0,-17]],[[1993,32],[10,5]],[[1993,3],[-1,0],[1,0]],[[1994,3],[0,17]],[[1994,2]],[[1994,2]],[[1994,2]],[[1965,54],[0,-1],[1,1]],[[1966,54],[-1,0]],[[1986,8],[0,-1]],[[1986,7],[-1,0],[1,-1],[0,1]],[[1986,7],[0,1]],[[1993,33],[-1,0],[0,-1]],[[1992,32],[1,0]],[[1993,32],[0,1]],[[1994,3],[-1,0],[1,-1]],[[1994,2]],[[1994,2],[0,1]],[[1994,22],[-1,0]],[[1993,22],[0,-2]],[[1993,20],[1,0]],[[1994,20],[0,2]],[[2266,212],[1,-1],[0,1],[-1,0]],[[2342,300],[-1,0],[1,0]],[[3100,1139],[10,-36]],[[1570,1578],[-12,3]],[[1623,1568],[-52,9]],[[1623,1568],[52,-30]],[[1679,1537],[-1,0]],[[1679,1537]],[[1679,1537],[51,0],[35,53],[65,22],[82,-10],[83,52]],[[2006,1653],[5,2]],[[2041,1629],[-24,29]],[[2134,1624],[-34,47],[-59,-42]],[[2526,1976],[-38,-96],[-42,26],[-34,-51],[-108,29],[-26,-84]],[[2458,1920],[14,36]],[[3488,2418],[1,0]],[[1571,1578],[-1,0]],[[1570,1578],[0,-1],[1,1]],[[1678,1537],[-3,1],[3,-2],[0,1]],[[1522,481],[1,1]],[[2872,2931],[1,1]],[[2973,2924],[1,-1]],[[2974,2923],[12,-12]],[[2986,2911],[-12,12]],[[2987,2919],[0,-2]],[[3371,2401],[-1,-2]],[[2986,2911]],[[2986,2911],[1,0],[0,1],[-1,-1]],[[3396,2394],[-25,6]],[[3402,2395],[-5,-1]],[[3409,2393],[-7,2]],[[3410,2392],[-1,1]],[[3410,2392],[0,-1]],[[3410,2391],[0,1]],[[3411,2391]],[[3411,2391]],[[3428,2400],[-17,-9]],[[3443,2406],[-14,-6]],[[3488,2418],[70,-50]],[[3411,2391],[-1,0],[1,-1],[0,1]],[[3428,2401],[0,-1]],[[3428,2400],[0,1]],[[3487,2418],[1,0],[0,1],[-1,0],[0,-1]],[[1892,626],[37,64],[15,116]],[[2210,32],[6,24]],[[2216,56],[1,1]],[[2217,57]],[[2217,58],[-1,-2]],[[2216,56],[2,-1]],[[2218,56]],[[2218,56],[-1,1]],[[2217,57],[-1,0]],[[2248,121],[-31,-62]],[[2217,59],[1,-3]],[[2218,56],[0,-1]],[[2218,56],[-1,3]],[[2218,55],[3,-1]],[[2221,54],[-3,2]],[[2248,121],[1,1]],[[2248,122],[0,-1]],[[2250,124],[-1,-1]],[[2249,123],[1,1]],[[2271,147],[-21,-23]],[[2249,123],[-1,0],[1,-1],[0,1]],[[3738,2460],[-37,17],[-21,-17]],[[3738,2460],[1,-1]],[[3739,2459],[-1,1]],[[3740,2458],[19,-5]],[[3760,2453],[-19,6]],[[3760,2453],[1,0],[-1,0]],[[3761,2453],[14,-5]],[[3775,2449],[-14,4]],[[3776,2448],[19,-5]],[[3795,2443],[-18,6]],[[3796,2443],[2,-1]],[[3814,2435],[-17,8]],[[3815,2433],[12,-16]],[[3827,2417]],[[3827,2417]],[[3827,2418],[-12,16]],[[3839,2423],[-11,-5]],[[3828,2418],[13,5]],[[3848,2416],[-4,7]],[[3775,2449],[1,-1],[1,1]],[[3777,2449],[-2,0]],[[3796,2442],[1,1]],[[3797,2443],[-1,1],[-1,-1]],[[3795,2443],[1,-1]],[[3815,2435],[-1,-1],[1,-1]],[[3815,2433],[1,1],[-1,1]],[[3828,2418],[-1,-1]],[[3827,2417]],[[3827,2417],[1,0],[0,1]],[[3828,2418]],[[3849,2415],[0,1],[-1,-1],[1,0]],[[2536,626],[1,0],[-1,1],[0,-1]],[[2536,626],[1,0]],[[2537,627]],[[3686,379],[3,-80],[-61,-98]],[[3656,28],[33,-28]],[[3802,483],[-2,2]],[[4015,654],[-71,-58],[-56,-7]],[[4096,678],[-31,-8]],[[2078,2572],[0,-1],[1,-1],[0,2],[-1,0]],[[1494,452],[-1,-2]],[[1494,451],[0,4]],[[1494,451],[0,-1]],[[1494,450],[0,1]],[[1494,449],[1,0]],[[1495,449],[-1,0]],[[1495,449],[9,-13]],[[1503,435]],[[1503,435]],[[1503,435],[0,-8]],[[1503,427]],[[1504,427],[-1,0]],[[1504,436],[-1,-1]],[[1504,426],[-1,-9]],[[1504,435],[0,1]],[[1504,426]],[[1504,426]],[[1494,449]],[[1494,449],[0,1],[0,-1]],[[1503,427],[0,-1],[1,0],[-1,1]],[[1504,435],[-1,0]],[[1503,435],[1,0]],[[3537,2468],[31,8]],[[3565,2477],[-22,-4],[-6,-4]],[[1371,64],[6,-30]],[[2514,572],[-6,-22]],[[2536,623],[-21,-48]],[[2539,726],[0,-2]],[[3762,2729],[74,-53]],[[3057,1587],[-46,97]],[[3048,1303],[-14,52],[20,61]],[[3054,1416],[1,0]],[[3054,1416]],[[3055,1418],[1,1]],[[3056,1418],[0,1]],[[3056,1419],[1,3]],[[3057,1427],[17,104],[-17,55]],[[3057,1422],[1,2]],[[3057,1424],[0,-2]],[[3057,1427],[0,-2]],[[3058,1426],[-1,1]],[[3067,1051],[43,52]],[[3077,1272],[37,-89],[-14,-44]],[[3055,1416],[1,1],[-1,1]],[[3055,1418],[-1,0],[1,-2]],[[3058,1426],[-1,-1],[1,-1],[1,1],[-1,1]],[[3546,2484],[6,-2]],[[3552,2483],[-2,0]],[[3552,2484],[0,-1]],[[3552,2483],[0,-1]],[[3553,2482],[-1,1]],[[3798,2442],[16,-8]],[[3957,2212],[0,-1]],[[3958,2211],[1,1]],[[4096,1881],[-104,32]],[[3993,2195],[-1,0]],[[3992,2195],[1,-1]],[[3993,2194],[1,1],[-1,0]],[[3993,2194],[1,1]],[[3887,2318],[0,-1],[1,0],[-1,1]],[[3676,3142],[24,3]],[[3083,3289],[15,-33],[-20,-69],[37,-84]],[[1993,1994],[-22,-30]],[[1993,1995],[0,-1]],[[1993,1997],[0,-1]],[[1993,1997],[4,15]],[[1993,1996],[0,1]],[[1993,1994],[0,1]],[[1993,1996],[0,-1]],[[1993,1995],[1,0],[-1,1]],[[1997,2012],[1,2]],[[1997,2014],[0,-2]],[[1998,2016],[-1,-1]],[[1998,2014],[0,2]],[[1998,2016],[10,2]],[[2008,2018],[1,-1]],[[2009,2018],[-1,0]],[[2010,2017],[2,0]],[[2012,2017],[-1,0]],[[2012,2017],[40,62]],[[2052,2079]],[[2052,2080],[0,-1]],[[1998,2014],[-1,1],[0,-1],[1,0]],[[2010,2017],[1,1],[-1,0],[-1,-1],[1,0]],[[2053,2080],[0,1],[-2,0],[1,-2],[1,1]],[[2241,323],[-3,-1]],[[2238,322],[-2,0],[-3,-1],[-10,1],[-125,-58],[-8,-10],[-20,-50],[-5,-16],[-20,-17],[-19,-5],[-8,-5],[-54,-40]],[[1965,121],[96,56],[36,86],[128,58],[10,0],[3,1]],[[2238,322],[3,2]],[[2795,2787],[-8,-16]],[[2493,491],[6,30]],[[3446,2538],[78,-47]],[[3525,2491],[-1,0]],[[3526,2490],[0,1]],[[3526,2491],[-1,0],[-1,-1],[1,0],[1,1]],[[3552,2483],[-26,7]],[[3550,2483],[2,0]],[[3678,2462],[-126,21]],[[3552,2482],[0,1]],[[3859,2371],[-10,43]],[[3887,2318],[-27,50]],[[3895,2285],[-7,32]],[[3897,2285],[-2,0]],[[3899,2287],[-2,-2]],[[3945,2217],[-43,69]],[[3992,2196],[-29,13]],[[4038,2107],[-44,86]],[[3958,2212],[-1,-1],[1,0],[1,1],[-1,0]],[[2802,372],[1,-131]],[[2802,374],[33,56],[36,-1]],[[2871,429],[5,0]],[[2876,429],[4,-1]],[[2883,429],[-3,-1]],[[2880,428],[3,0]],[[2888,428],[-4,1]],[[2884,428],[4,0]],[[2888,428],[89,88]],[[2977,517],[0,-1]],[[2977,516],[0,1]],[[2978,519],[-1,0]],[[2978,518],[0,1]],[[2978,519],[72,224]],[[3050,743],[1,1]],[[3050,745],[0,-2]],[[3052,746],[-1,-1]],[[3051,745],[1,1]],[[3052,746],[9,12]],[[3061,758],[2,1]],[[3062,760],[-1,-2]],[[3064,761],[-1,0]],[[3063,760],[1,1]],[[3064,761],[154,39],[59,188]],[[3296,1077],[52,118],[93,75],[35,104]],[[3476,1374],[5,10]],[[3482,1387],[-6,-13]],[[3486,1392],[-3,-4]],[[3484,1388],[2,4]],[[3486,1392],[33,45]],[[3519,1437],[1,0]],[[3519,1438],[0,-1]],[[3520,1439],[-1,-1]],[[3520,1438],[0,1]],[[3520,1439],[5,8]],[[3555,1476],[-25,-24]],[[3651,1602],[-94,-123]],[[3738,1699],[-86,-94]],[[3985,1889],[-142,-132],[-101,-59]],[[3992,1910],[-7,-20]],[[3992,1910],[0,3],[-2,2],[2,-5]],[[2883,428],[1,0],[0,1],[-1,0]],[[2883,429],[0,-1]],[[2978,517],[0,1],[-2,1],[0,-2],[2,0]],[[3051,745],[-1,0],[0,-1],[1,0],[0,1]],[[3063,760],[-1,0],[1,0]],[[3519,1437],[1,0],[0,1],[-1,0],[0,-1]],[[1985,82],[0,-3]],[[2018,112],[-33,-30]],[[1985,79],[0,3]],[[4096,3623],[-73,-27],[-5,-86],[-63,-35],[-34,-67],[-95,-58],[-48,-91],[-93,-32]],[[3677,3221],[-1,0],[-1,0],[1,-1],[1,1]],[[3105,3555],[-2,-1]],[[3103,3554],[14,8],[8,5]],[[3125,3567],[7,4],[4,5]],[[3129,3569],[-4,-2]],[[3125,3567],[-9,-5],[-10,-6]],[[1907,1975],[-92,-19]],[[3148,971],[70,100]],[[3654,2827],[1,-4]],[[3678,2766]],[[2982,2927],[1,0]],[[2983,2927]],[[3174,2764],[-122,50],[-69,113]],[[3302,2704],[-11,9]],[[3446,2538],[-87,103]],[[2983,2928],[-1,0],[0,-1],[1,1]],[[2080,2566],[11,-12]],[[1907,1975],[-92,-19]],[[2775,2769],[3,-6]],[[2872,3002],[2,-4]],[[2873,2939],[-1,-7]],[[2873,2932],[0,7]],[[2873,2939],[1,59]],[[2882,3036],[-9,-31]],[[2874,2998],[-1,4]],[[2874,3005],[8,30]],[[2885,3041],[-3,-5]],[[2883,3036],[2,5]],[[2885,3041],[69,98]],[[2872,3005],[0,-3],[2,0],[0,2],[-2,1]],[[2882,3035],[1,1],[-1,0],[0,-1]],[[1690,1185],[-42,113],[14,72],[-32,101],[-44,85],[-33,9]],[[1690,1185],[3,-7]],[[1693,1179],[-3,6]],[[1700,1070],[-8,104]],[[1377,34],[8,-34]],[[2505,808],[2,-4]],[[2762,4069],[-82,18],[-12,9]],[[1463,1971],[-53,18]],[[1410,1988],[0,1],[-2,0],[1,-2],[1,1]],[[1410,1988],[52,-18]],[[1463,1969],[20,-45],[5,-6],[5,-3],[22,-6]],[[1463,1971],[-1,-1]],[[1462,1970],[1,-1],[1,0],[-1,2]],[[1515,1909],[-51,61]],[[1515,1909],[44,-21],[130,19]],[[1689,1907],[87,31],[35,0],[85,-13],[18,-1],[11,6],[19,12],[2,0]],[[1946,1943],[-2,-1],[-30,-18],[-104,14],[-35,0],[-86,-31]],[[2563,2080],[3,6]],[[2566,2086],[-2,-5]],[[2570,2189],[-4,-103]],[[2640,2472],[-72,-263]],[[2568,2209],[2,-20]],[[2776,2750],[-133,-268]],[[2776,2750],[19,36]],[[2787,2771],[-11,-21]],[[2801,2797],[68,119]],[[2869,2916],[4,15]],[[2872,2931],[-3,-15]],[[2562,2078],[1,2]],[[2564,2081],[-2,-3]],[[2076,2272],[0,1]],[[2643,1858],[-99,106]],[[2587,1560],[41,137]],[[2587,1560],[2,-31]],[[2589,1530],[-2,30]],[[2622,1818],[21,40]],[[2628,1739],[-6,79]],[[2628,1739],[0,-42]],[[2966,3425],[-10,-17],[-12,-29]],[[2946,3376],[3,-11]],[[2950,3364],[8,-42]],[[2950,3365],[7,43]],[[2959,3322],[-8,43]],[[2958,3321],[0,-2],[1,2]],[[3103,3554],[-77,-20],[-24,-14],[-8,-8]],[[2995,3512],[108,42]],[[2958,3321],[1,0],[0,1],[-1,0],[0,-1]],[[3136,3578],[-7,-9]],[[3731,4008],[28,17]],[[3791,3153],[7,-3]],[[3525,1447],[5,5]],[[3677,3222],[6,4]],[[1413,0]],[[2299,39],[-38,-39],[-32,0],[21,57],[29,55],[33,35],[18,16],[8,7],[17,11],[2,-24],[-20,-57],[-38,-61]],[[4096,4096],[0,-4096],[-1541,0],[-11,48],[21,58],[-68,-5],[-30,61],[-17,91],[-26,89],[124,266],[75,118],[101,79],[59,15],[125,10],[55,24],[105,81],[46,48],[28,54],[-78,-58],[-130,-97],[-251,-28],[-39,-32],[-56,-108],[-141,-205],[-161,-325],[-90,-105],[-30,-50],[-9,-29],[-1122,0],[25,31],[71,74],[95,305],[-7,227],[-33,143],[29,83],[12,102],[113,208],[36,102],[60,137],[12,143],[18,119],[-40,186],[-34,74],[-105,110],[-22,38],[34,11],[131,-38],[214,142],[54,48],[60,6],[36,-44],[30,-8],[34,35],[-22,49],[-48,46],[47,76],[66,78],[24,41],[54,36],[83,53],[42,72],[30,59],[60,107],[6,65],[-6,72],[37,101],[18,143],[229,613],[86,251],[1532,0]],[[3943,326],[69,24],[51,-83],[-33,-64],[-87,123]],[[3970,325],[43,-50],[4,-27],[-7,53],[-18,14],[8,6],[-30,4]],[[2226,0],[65,129],[135,101],[9,111],[26,38],[56,16],[-19,-132],[24,-51],[80,-38],[35,79],[35,-7],[48,32],[-77,-152],[34,-46],[1,-80],[-132,0],[3,19],[-6,-19],[-126,0],[-42,97],[9,45],[-100,-142],[-58,0]],[[3601,1321],[16,85],[17,11],[108,-14],[-10,-39],[-34,-8],[47,-37],[-20,-37],[-46,39],[-14,-38],[-14,29],[-50,9]],[[3622,1399],[30,-23],[30,6],[-56,26],[-4,-9]],[[2284,0],[35,33],[65,109],[-9,-45],[42,-97],[-133,0]],[[1504,475],[105,95],[48,-38],[27,-64],[-57,-18],[-45,15],[-66,-53],[-12,63]],[[1197,0],[30,41],[160,-8],[65,-33],[-255,0]],[[2375,364],[-89,-180],[-129,-184],[-394,0],[38,18],[20,89],[85,-24],[32,42],[136,-22],[26,-62],[26,21],[7,147],[64,0],[39,108],[52,62],[87,-15]],[[1079,0],[68,148],[88,266],[19,-71],[85,-123],[2,-89],[-81,-99],[9,-32],[-190,0]],[[2562,2058],[3,188],[107,325],[200,361],[64,6],[25,-22],[116,87],[113,-93],[-16,-148],[122,-51],[75,-82],[3,32],[94,64],[53,106],[44,-23],[96,16],[14,-73],[-57,-121],[-168,-71],[-16,-83],[-60,-49],[-13,-91],[-118,7],[20,50],[-36,16],[-69,-47],[-37,44],[-76,-67],[-98,34],[-42,-12],[6,-91],[-36,29],[-124,-27],[-17,-23],[21,-27],[-68,-29],[-92,-203],[-33,68]],[[3773,2094],[29,78],[-20,45],[22,-29],[39,33],[26,-55],[-33,-52],[13,-71],[-44,2],[-32,49]],[[2125,52],[73,52],[-15,45],[121,61],[-111,-210],[-49,0],[0,50],[-19,2]],[[1284,533],[19,1],[-12,44],[33,-39],[19,41],[58,-16],[28,-46],[9,20],[17,-30],[28,6],[34,-88],[-25,-17],[6,15],[-31,-1],[13,11],[-45,1],[12,36],[31,-13],[15,20],[-45,33],[-47,-5],[13,26],[-53,4],[16,20],[-38,-8],[6,-23],[-61,8]],[[2523,2018],[45,79],[-3,148],[114,342],[193,343],[65,7],[24,-22],[33,21],[48,130],[38,40],[44,-4],[21,47],[112,-24],[62,-299],[-39,-90],[89,-107],[6,32],[93,64],[53,106],[44,-23],[92,19],[-14,-32],[35,-29],[-60,-136],[-168,-71],[-16,-83],[-60,-49],[-12,-90],[-33,-15],[-85,22],[19,49],[-35,16],[-70,-47],[-37,44],[-76,-67],[-98,34],[-51,-23],[12,-82],[-32,31],[-39,-1],[-126,-56],[-135,-277],[-49,-2],[-4,55]],[[4096,3207],[-31,58],[-264,-115],[-28,8],[85,62],[82,-5],[134,62],[-50,84],[-112,-58],[64,60],[-43,32],[103,-9],[21,135],[39,34],[0,-348]],[[4096,3622],[-13,23],[13,26],[0,-49]],[[4096,3673],[-29,31],[29,72],[0,-103]],[[4096,4096],[0,-267],[-20,30],[15,47],[-24,21],[15,73],[-28,20],[-59,-17],[-19,69],[-104,-10],[6,-35],[-88,-78],[-32,77],[-29,-19],[-46,19],[-48,70],[461,0]],[[804,2559],[290,0],[0,-378],[-290,0],[0,378]],[[2093,1298],[24,49],[54,35],[63,10],[5,52],[56,22],[6,-20],[60,81],[99,11],[13,-66],[-60,-62],[-21,-94],[-75,-72],[-2,29],[-35,-15],[-21,24],[-5,-22],[-40,6],[-10,-32],[-58,3],[-53,61]],[[2160,1338],[12,-15],[3,27],[32,5],[-18,6],[-29,-23]],[[2256,1402],[27,-16],[11,22],[-24,14],[-14,-20]],[[2203,1371],[12,-1],[-3,15],[-8,-10],[-1,-4]],[[2303,1341],[2,-4],[7,3],[-1,5],[-8,-4]],[[2294,1352],[1,-6],[6,-1],[0,5],[-7,2]]]}