{"objects":{"water":{"type":"GeometryCollection","geometries":[{"type":"Polygon","properties":{"source":"naturalearthdata.com","kind":"ocean","area":1576712559132672,"sort_rank":200,"min_zoom":0.0,"id":1},"arcs":[[8]]},{"type":"LineString","properties":{"source":"naturalearthdata.com","kind":"ocean","sort_rank":205,"boundary":true,"min_zoom":0.0,"id":19},"arcs":[9]}]},"buildings":{"type":"GeometryCollection","geometries":[]},"places":{"type":"GeometryCollection","geometries":[{"type":"Point","properties":{"source":"openstreetmap.org","kind":"locality","name":"Portim\u00e3o","kind_detail":"town","population":55914,"min_zoom":8.0,"id":3231647966},"coordinates":[3807,1972]},{"type":"Point","properties":{"source":"openstreetmap.org","kind":"locality","name":"Monchique","kind_detail":"town","population":5400,"min_zoom":8.0,"id":25277578},"coordinates":[3751,2632]},{"type":"Point","properties":{"source":"openstreetmap.org","kind":"locality","name":"Odemira","kind_detail":"town","population":2832,"min_zoom":8.0,"id":25264854},"coordinates":[3500,3654]}]},"transit":{"type":"GeometryCollection","geometries":[{"type":"LineString","properties":{"kind":"train","name":"R Vila Real de Santo Ant\u00f3nio \u2013 Lagos","service":"regional","sort_rank":275,"source":"openstreetmap.org","min_zoom":6.0,"operator":"CP","ref":"R","id":-6387263,"osm_relation":true},"arcs":[6]},{"type":"LineString","properties":{"kind":"train","name":"R Lagos \u2013 Vila Real de Santo Ant\u00f3nio","service":"regional","sort_rank":275,"source":"openstreetmap.org","min_zoom":6.0,"operator":"CP","ref":"R","id":-6387259,"osm_relation":true},"arcs":[7]}]},"pois":{"type":"GeometryCollection","geometries":[{"type":"Point","properties":{"kind":"protected_area","name:en":"Site of Community Importance Monchique","tier":2,"protect_class":"97","short_name":"SIC Monchique","area":1213440000,"source":"openstreetmap.org","min_zoom":7.0,"operator":"ICNF","id":-6267477,"osm_relation":true,"name":"Monchique"},"coordinates":[3675,2835]},{"type":"Point","properties":{"kind":"nature_reserve","name:en":"Sudoeste Alentejano e Costa Vicentina Natural Park","protect_class":"5","short_name":"PNSACV","area":1422710000,"min_zoom":7.05,"name:de":"Naturpark S\u00fcdwest-Alentejo und Costa Vicentina","source":"openstreetmap.org","name:fr":"Parc naturel du Sud-Ouest Alentejano et Costa Vicentina","name:es":"Parque Natural del Suroeste Alentejano y Costa Vicentina","tier":2,"id":-1380917,"osm_relation":true,"name":"Parque Natural do Sudoeste Alentejano e Costa Vicentina"},"coordinates":[3064,3123]}]},"boundaries":{"type":"GeometryCollection","geometries":[{"type":"LineString","properties":{"name:kg":"Mputulukesi","name:ty":"P\u014dt\u012bt\u012b","name:ps":"\u067e\u0631\u062a\u06ab\u0627\u0644","name:ka":"\u10de\u10dd\u10e0\u10e2\u10e3\u10d2\u10d0\u10da\u10d8\u10d0","name:ko":"\ud3ec\ub974\ud22c\uac08","name:cv":"\u041f\u043e\u0440\u0442\u0443\u0433\u0430\u043b\u0438","name:cu":"\u041f\u043e\u0440\u0442\u043e\u0433\u0430\u043b\u0457\ua657","name:cs":"Portugalsko","name:tt":"\u041f\u043e\u0440\u0442\u0443\u0433\u0430\u043b\u0438\u044f","name:co":"Portugallu","name:kv":"\u041f\u043e\u0440\u0442\u0443\u0433\u0430\u043b\u0438\u044f","name:ku":"Port\u00fbgal","name:az":"Portuqaliya","name:zh-min-nan":"Ph\u00fb-t\u00f4-g\u00e2","name:os":"\u041f\u043e\u0440\u0442\u0443\u0433\u0430\u043b\u0438","name:or":"\u0b2a\u0b30\u0b4d\u0b24\u0b4d\u0b24\u0b41\u0b17\u0b3e\u0b32","name:ce":"\u041f\u043e\u0440\u0442\u0443\u0433\u0430\u043b\u0438","name:ta":"\u0baa\u0bcb\u0bb0\u0bcd\u0ba4\u0bcd\u0ba4\u0bc1\u0b95\u0bb2\u0bcd","name:tg":"\u041f\u043e\u0440\u0442\u0443\u0433\u0430\u043b\u0438\u044f","name:ky":"\u041f\u043e\u0440\u0442\u0443\u0433\u0430\u043b\u0438\u044f","name:te":"\u0c2a\u0c4b\u0c30\u0c4d\u0c1a\u0c41\u0c17\u0c32\u0c4d","name:cy":"Portiwgal","sort_rank":262,"name:ln":"Pulutugal","name:ba":"\u041f\u043e\u0440\u0442\u0443\u0433\u0430\u043b\u0438\u044f","name:dz":"\u0f54\u0f7c\u0f62\u0f0b\u0f45\u0f74\u0f0b\u0f42\u0f63\u0f0b","source":"openstreetmap.org","name:sq":"Portugalia","name:kn":"\u0caa\u0ccb\u0cb0\u0ccd\u0c9a\u0cc1\u0c97\u0cb2\u0ccd","name:dv":"\u0795\u07af\u0797\u07aa\u078e\u07a6\u078d\u07b0","name:km":"\u1794\u17d2\u179a\u1791\u17c1\u179f \u1796\u17d0\u179a\u1791\u17bb\u1799\u17a0\u17d2\u1782\u17b6\u179b\u17cb","name:lv":"Portug\u0101le","name:lt":"Portugalija","name:hi":"\u092a\u0941\u0930\u094d\u0924\u0917\u093e\u0932","name:kk":"\u041f\u043e\u0440\u0442\u0443\u0433\u0430\u043b\u0438\u044f","name:he":"\u05e4\u05d5\u05e8\u05d8\u05d5\u05d2\u05dc","name:eo":"Portugalujo","name:ur":"\u067e\u0631\u062a\u06af\u0627\u0644","name:la":"Portugallia","name:uk":"\u041f\u043e\u0440\u0442\u0443\u0433\u0430\u043b\u0456\u044f","name:hy":"\u054a\u0578\u0580\u057f\u0578\u0582\u0563\u0561\u056c\u056b\u0561","name:ug":"Portugaliye","name:hu":"Portug\u00e1lia","name:qu":"Purtugal","name:el":"\u03a0\u03bf\u03c1\u03c4\u03bf\u03b3\u03b1\u03bb\u03af\u03b1","kind":"country","name":"Portugal","name:tk":"Portugali\u00fda","min_zoom":8.0,"name:th":"\u0e1b\u0e23\u0e30\u0e40\u0e17\u0e28\u0e42\u0e1b\u0e23\u0e15\u0e38\u0e40\u0e01\u0e2a","name:yi":"\u05e4\u05d0\u05e8\u05d8\u05d5\u05d2\u05d0\u05dc","name:yo":"P\u1ecd\u0301rt\u00fag\u00e0l","name:ay":"Purtuwal","name:mt":"Portugall","alt_name:eo":"Portugalio","name:ro":"Portugalia","name:mr":"\u092a\u094b\u0930\u094d\u0924\u0941\u0917\u093e\u0932","name:ar":"\u0627\u0644\u0628\u0631\u062a\u063a\u0627\u0644","name:my":"\u1015\u1031\u102b\u103a\u1010\u1030\u1002\u102e\u1014\u102d\u102f\u1004\u103a\u1004\u1036","official_name":"Rep\u00fablica Portuguesa","name:kw":"Portyngal","name:is":"Port\u00fagal","name:am":"\u1356\u122d\u1271\u130b\u120d","name:it":"Portogallo","name:ru":"\u041f\u043e\u0440\u0442\u0443\u0433\u0430\u043b\u0438\u044f","name:vi":"B\u1ed3 \u0110\u00e0o Nha","name:rw":"Porutigali","name:mi":"Potukara","name:pl":"Portugalia","name:mk":"\u041f\u043e\u0440\u0442\u0443\u0433\u0430\u043b\u0438\u0458\u0430","name:vo":"Portug\u00e4n","name:zu":"IPhothugali","name:mn":"\u041f\u043e\u0440\u0442\u0443\u0433\u0430\u043b","name:ss":"IPhuthukezi","kind_detail":"2","name:uz":"Portugaliya","name:mg":"P\u00f4rtogaly","id":-295480,"name:zh-yue":"\u8461\u8404\u7259","name:fy":"Portegal","name:zh":"\u8461\u8404\u7259","name:so":"Bortuqaal","name:sl":"Portugalska","name:sk":"Portugalsko","name:ja":"\u30dd\u30eb\u30c8\u30ac\u30eb","name:si":"\u0db4\u0dd8\u0dad\u0dd4\u0d9c\u0dcf\u0dbd\u0dba","name:fa":"\u067e\u0631\u062a\u063a\u0627\u0644","name:na":"Portsiugar","name:sc":"Portogallo","name:ne":"\u092a\u094b\u0930\u094d\u091a\u0941\u0917\u0932","name:sa":"\u092a\u0941\u0930\u094d\u0924\u0917\u093e\u0932","name:bn":"\u09aa\u09b0\u09cd\u09a4\u09c1\u0997\u09be\u09b2","name:bo":"\u0f54\u0f7c\u0f0b\u0f45\u0f74\u0f0b\u0f42\u0fb7\u0f63\u0f0d","name:ml":"\u0d2a\u0d4b\u0d7c\u0d1a\u0d4d\u0d1a\u0d41\u0d17\u0d7d","name:sw":"Ureno","name:be":"\u041f\u0430\u0440\u0442\u0443\u0433\u0430\u043b\u0456\u044f","name:bg":"\u041f\u043e\u0440\u0442\u0443\u0433\u0430\u043b\u0438\u044f","name:wo":"Portugaal","name:sr":"\u041f\u043e\u0440\u0442\u0443\u0433\u0430\u043b\u0438\u0458\u0430","osm_relation":true,"name:tr":"Portekiz","name:ga":"An Phortaing\u00e9il","name:gd":"A' Phortagail","name:ht":"P\u00f2tigal","name:gn":"Poytuga","maritime_boundary":true,"name:gv":"Yn Phortiugal","name:gu":"\u0aaa\u0acb\u0ab0\u0acd\u0a9f\u0ac1\u0a97\u0ab2","name:fi":"Portugali"},"arcs":[0]},{"type":"LineString","properties":{"name:right:ru":"\u0410\u043b\u0433\u0430\u0440\u0432\u0435","min_zoom":8.0,"name:left:ru":"\u0410\u043b\u0435\u043d\u0442\u0435\u0436\u0443","id:right":-1253665,"id":-5378337,"osm_relation":true,"name:right":"Algarve","kind":"region","name":"Alentejo - Algarve","sort_rank":256,"kind_detail":"4","source":"openstreetmap.org","name:right:ar":"\u0627\u0644\u063a\u0631\u0628","id:left":-5378337,"official_name:right":"Regi\u00e3o do Algarve","official_name:left":"Regi\u00e3o do Alentejo","name:left":"Alentejo"},"arcs":[1]},{"type":"LineString","properties":{"kind":"region","name":"Alentejo","sort_rank":256,"kind_detail":"4","official_name":"Regi\u00e3o do Alentejo","source":"openstreetmap.org","min_zoom":8.0,"name:ru":"\u0410\u043b\u0435\u043d\u0442\u0435\u0436\u0443","id":-5378337,"osm_relation":true},"arcs":[2]},{"type":"LineString","properties":{"kind":"region","name":"Alentejo","sort_rank":256,"kind_detail":"4","min_zoom":8.0,"official_name":"Regi\u00e3o do Alentejo","source":"openstreetmap.org","maritime_boundary":true,"name:ru":"\u0410\u043b\u0435\u043d\u0442\u0435\u0436\u0443","id":-5378337,"osm_relation":true},"arcs":[3]},{"type":"LineString","properties":{"kind":"region","name":"Algarve","sort_rank":256,"kind_detail":"4","name:ar":"\u0627\u0644\u063a\u0631\u0628","official_name":"Regi\u00e3o do Algarve","source":"openstreetmap.org","min_zoom":8.0,"name:ru":"\u0410\u043b\u0433\u0430\u0440\u0432\u0435","id":-1253665,"osm_relation":true},"arcs":[4]},{"type":"LineString","properties":{"kind":"region","name":"Algarve","sort_rank":256,"kind_detail":"4","name:ar":"\u0627\u0644\u063a\u0631\u0628","min_zoom":8.0,"official_name":"Regi\u00e3o do Algarve","source":"openstreetmap.org","maritime_boundary":true,"name:ru":"\u0410\u043b\u0433\u0430\u0440\u0432\u0435","id":-1253665,"osm_relation":true},"arcs":[5]}]},"roads":{"type":"GeometryCollection","geometries":[{"type":"MultiLineString","properties":{"kind":"major_road","network":"PT:national","sort_rank":380,"kind_detail":"primary","source":"openstreetmap.org","min_zoom":8.0,"landuse_kind":"nature_reserve","shield_text":"125","osm_relation":true},"arcs":[[10],[11],[12],[13],[14],[15],[16],[17],[18],[19],[20],[21],[22],[23],[24],[25],[26],[27],[28],[29],[30],[31]]},{"type":"MultiLineString","properties":{"kind":"major_road","network":null,"sort_rank":380,"kind_detail":"primary","source":"openstreetmap.org","min_zoom":8.0,"landuse_kind":"nature_reserve","shield_text":"4","ref":"EN 120"},"arcs":[[32],[33],[34],[35],[36],[37],[38],[39],[40],[41],[42],[43],[44],[45],[46],[47],[48],[49],[50],[51],[52],[53]]},{"type":"MultiLineString","properties":{"source":"openstreetmap.org","kind":"major_road","network":null,"sort_rank":380,"kind_detail":"primary","min_zoom":8.0,"shield_text":"4"},"arcs":[[54],[55]]},{"type":"LineString","properties":{"kind":"major_road","sort_rank":380,"landuse_kind":"nature_reserve","source":"openstreetmap.org","min_zoom":8.0,"kind_detail":"primary","ref":"CM 1160","id":157155819},"arcs":[56]},{"type":"MultiLineString","properties":{"kind":"major_road","network":"PT:regional:Algarve","sort_rank":380,"kind_detail":"primary","source":"openstreetmap.org","min_zoom":8.0,"landuse_kind":"nature_reserve","shield_text":"267","ref":"EN 267;ER 267"},"arcs":[[57],[58],[59],[60],[61]]},{"type":"MultiLineString","properties":{"source":"openstreetmap.org","kind":"major_road","landuse_kind":"nature_reserve","sort_rank":380,"kind_detail":"primary","ref":"EN 393-1","min_zoom":8.0},"arcs":[[62],[63],[64],[65]]},{"type":"MultiLineString","properties":{"bus_network":"Transportes urbanos de Lagos","network":null,"sort_rank":377,"kind_detail":"tertiary","is_bicycle_related":true,"kind":"major_road","bicycle_shield_text":"EV1","bicycle_network":"icn","source":"openstreetmap.org","min_zoom":8.0,"bus_shield_text":"1","shield_text":"534"},"arcs":[[66],[67],[68],[69],[70]]},{"type":"LineString","properties":{"kind":"major_road","network":null,"sort_rank":377,"landuse_kind":"nature_reserve","is_bicycle_related":true,"bicycle_shield_text":"EV1","bicycle_network":"icn","source":"openstreetmap.org","min_zoom":8.0,"kind_detail":"tertiary","shield_text":"1265"},"arcs":[71]},{"type":"MultiLineString","properties":{"kind":"major_road","network":"PT:regional:Algarve","sort_rank":380,"kind_detail":"primary","source":"openstreetmap.org","min_zoom":8.0,"landuse_kind":"protected_area","shield_text":"267","ref":"EN 267;ER 267;ER266"},"arcs":[[72],[73],[74],[75],[76],[77]]},{"type":"LineString","properties":{"kind":"major_road","sort_rank":379,"kind_detail":"secondary","is_bicycle_related":true,"bicycle_shield_text":"EV1","bicycle_network":"icn","source":"openstreetmap.org","min_zoom":8.0,"landuse_kind":"nature_reserve","ref":"CM 1123","id":250741853},"arcs":[78]},{"type":"MultiLineString","properties":{"sort_rank":380,"kind_detail":"primary","min_zoom":8.0,"kind":"major_road","source":"openstreetmap.org"},"arcs":[[79],[80],[81],[82],[83],[84],[85],[86],[87],[88],[89],[90],[91],[92],[93]]},{"type":"MultiLineString","properties":{"bus_network":"Transportes urbanos de Lagos","network":"PT:national","sort_rank":380,"kind_detail":"primary","kind":"major_road","source":"openstreetmap.org","min_zoom":8.0,"bus_shield_text":"1","shield_text":"125"},"arcs":[[94],[95],[96]]},{"type":"LineString","properties":{"kind":"major_road","sort_rank":380,"kind_detail":"primary","is_bicycle_related":true,"bicycle_shield_text":"EV1","bicycle_network":"icn","source":"openstreetmap.org","min_zoom":8.0,"landuse_kind":"nature_reserve","ref":"EN 393;ER 393"},"arcs":[97]},{"type":"MultiLineString","properties":{"source":"openstreetmap.org","kind":"major_road","sort_rank":381,"kind_detail":"trunk","ref":"EN 124-1","min_zoom":8.0},"arcs":[[98],[99],[100],[101],[102],[103],[104],[105],[106],[107],[108],[109],[110],[111]]},{"type":"MultiLineString","properties":{"kind":"major_road","sort_rank":380,"kind_detail":"primary","is_bicycle_related":true,"bicycle_shield_text":"EV1","bicycle_network":"icn","source":"openstreetmap.org","min_zoom":8.0},"arcs":[[112],[113],[114]]},{"type":"LineString","properties":{"kind":"path","sort_rank":354,"landuse_kind":"nature_reserve","is_bicycle_related":true,"bicycle_shield_text":"EV1","bicycle_network":"icn","source":"openstreetmap.org","min_zoom":8.0,"kind_detail":"footway"},"arcs":[115]},{"type":"LineString","properties":{"kind":"major_road","sort_rank":379,"kind_detail":"secondary","is_bicycle_related":true,"bicycle_shield_text":"EV1","bicycle_network":"icn","source":"openstreetmap.org","min_zoom":8.0,"landuse_kind":"urban_area","id":100420636},"arcs":[116]},{"type":"MultiLineString","properties":{"kind":"major_road","network":null,"sort_rank":377,"kind_detail":"tertiary","is_bicycle_related":true,"bicycle_shield_text":"EV1","bicycle_network":"icn","source":"openstreetmap.org","min_zoom":8.0,"shield_text":"510"},"arcs":[[117],[118],[119],[120]]},{"type":"LineString","properties":{"kind":"major_road","network":"PT:regional:Algarve","sort_rank":380,"kind_detail":"primary","source":"openstreetmap.org","min_zoom":8.0,"landuse_kind":"protected_area","shield_text":"267","ref":"EN 267;ER 267;ER 266","id":250585007},"arcs":[121]},{"type":"MultiLineString","properties":{"kind":"major_road","sort_rank":379,"landuse_kind":"urban_area","is_bicycle_related":true,"bicycle_shield_text":"EV1","bicycle_network":"icn","source":"openstreetmap.org","min_zoom":8.0,"kind_detail":"secondary","ref":"EN 125"},"arcs":[[122],[123],[124],[125],[126],[127]]},{"type":"MultiLineString","properties":{"source":"openstreetmap.org","kind":"major_road","landuse_kind":"nature_reserve","sort_rank":380,"kind_detail":"primary","ref":"EN 120","min_zoom":8.0},"arcs":[[128],[129],[130],[131],[132],[133]]},{"type":"MultiLineString","properties":{"kind":"major_road","network":"PT:regional:Algarve","sort_rank":380,"kind_detail":"primary","source":"openstreetmap.org","min_zoom":8.0,"landuse_kind":"protected_area","shield_text":"266","ref":"EN 266;ER 266"},"arcs":[[134],[135],[136]]},{"type":"MultiLineString","properties":{"kind":"minor_road","sort_rank":360,"kind_detail":"residential","is_bicycle_related":true,"bicycle_shield_text":"EV1","bicycle_network":"icn","source":"openstreetmap.org","min_zoom":8.0,"landuse_kind":"nature_reserve"},"arcs":[[137],[138],[139],[140],[141],[142],[143],[144],[145],[146],[147]]},{"type":"MultiLineString","properties":{"kind":"major_road","network":null,"sort_rank":377,"landuse_kind":"nature_reserve","is_bicycle_related":true,"bicycle_shield_text":"EV1","bicycle_network":"icn","source":"openstreetmap.org","min_zoom":8.0,"kind_detail":"tertiary","shield_text":"537"},"arcs":[[148],[149],[150]]},{"type":"MultiLineString","properties":{"kind":"major_road","sort_rank":379,"kind_detail":"secondary","is_bicycle_related":true,"bicycle_shield_text":"EV1","bicycle_network":"icn","source":"openstreetmap.org","min_zoom":8.0,"ref":"EM 531"},"arcs":[[151],[152],[153],[154],[155]]},{"type":"MultiLineString","properties":{"source":"openstreetmap.org","kind":"major_road","ref":"EN 124-1","sort_rank":381,"kind_detail":"trunk","is_bicycle_related":true,"min_zoom":8.0},"arcs":[[156],[157],[158],[159],[160],[161],[162],[163],[164],[165],[166],[167],[168],[169]]},{"type":"MultiLineString","properties":{"source":"openstreetmap.org","kind":"major_road","network":null,"sort_rank":380,"kind_detail":"primary","min_zoom":8.0,"shield_text":"120"},"arcs":[[170],[171],[172],[173],[174],[175],[176]]},{"type":"LineString","properties":{"source":"openstreetmap.org","kind":"major_road","sort_rank":380,"kind_detail":"primary","ref":"EN 123","min_zoom":8.0,"id":372720393},"arcs":[177]},{"type":"LineString","properties":{"kind":"minor_road","service":"parking_aisle","sort_rank":356,"kind_detail":"service","is_bicycle_related":true,"bicycle_shield_text":"EV1","bicycle_network":"icn","source":"openstreetmap.org","min_zoom":8.0,"landuse_kind":"nature_reserve","id":250741836},"arcs":[178]},{"type":"LineString","properties":{"kind":"major_road","sort_rank":379,"kind_detail":"secondary","is_bicycle_related":true,"bicycle_shield_text":"EV1","bicycle_network":"icn","source":"openstreetmap.org","min_zoom":8.0,"landuse_kind":"nature_reserve","ref":"CM 1158","id":250741761},"arcs":[179]},{"type":"MultiLineString","properties":{"kind":"highway","network":null,"sort_rank":383,"landuse_kind":"urban_area","official_name":"Via do Infante Dom Henrique","source":"openstreetmap.org","min_zoom":8.0,"all_networks":[null,null],"kind_detail":"motorway","shield_text":"4","ref":"A 22","all_shield_texts":["4","22"]},"arcs":[[180],[181]]},{"type":"LineString","properties":{"kind":"major_road","sort_rank":377,"kind_detail":"tertiary","is_bicycle_related":true,"bicycle_shield_text":"EV1","bicycle_network":"icn","source":"openstreetmap.org","min_zoom":8.0,"ref":"EM 531-1","id":105042927},"arcs":[182]},{"type":"LineString","properties":{"kind":"major_road","sort_rank":377,"kind_detail":"tertiary","is_bicycle_related":true,"bicycle_shield_text":"EV1","bicycle_network":"icn","source":"openstreetmap.org","min_zoom":8.0,"landuse_kind":"nature_reserve","ref":"CM 1185","id":130581463},"arcs":[183]},{"type":"MultiLineString","properties":{"source":"openstreetmap.org","kind":"major_road","sort_rank":380,"kind_detail":"primary","ref":"EN 120","min_zoom":8.0},"arcs":[[184],[185],[186]]},{"type":"LineString","properties":{"source":"openstreetmap.org","kind":"major_road","sort_rank":380,"kind_detail":"primary","ref":"EN 263","min_zoom":8.0},"arcs":[187]},{"type":"LineString","properties":{"kind":"major_road","sort_rank":377,"kind_detail":"tertiary","is_bicycle_related":true,"bicycle_shield_text":"EV1","bicycle_network":"icn","source":"openstreetmap.org","min_zoom":8.0,"ref":"EM 531","id":218013967},"arcs":[188]},{"type":"LineString","properties":{"kind":"major_road","network":"PT:national","sort_rank":380,"kind_detail":"primary","is_bicycle_related":true,"bicycle_shield_text":"EV1","bicycle_network":"icn","source":"openstreetmap.org","min_zoom":8.0,"landuse_kind":"nature_reserve","shield_text":"268-2","ref":"EN 268","id":25777200},"arcs":[189]},{"type":"MultiLineString","properties":{"source":"openstreetmap.org","kind":"major_road","sort_rank":380,"kind_detail":"primary","ref":"EN 124;ER 124","min_zoom":8.0},"arcs":[[190],[191],[192],[193],[194],[195],[196]]},{"type":"MultiLineString","properties":{"source":"openstreetmap.org","kind":"major_road","kind_detail":"trunk","sort_rank":381,"landuse_kind":"urban_area","ref":"EN 124","min_zoom":8.0},"arcs":[[197],[198],[199],[200],[201]]},{"type":"LineString","properties":{"kind":"major_road","network":null,"sort_rank":380,"kind_detail":"primary","is_bicycle_related":true,"bicycle_shield_text":"EV1","bicycle_network":"icn","source":"openstreetmap.org","min_zoom":8.0,"shield_text":"4","ref":"EN 120","id":83721116},"arcs":[202]},{"type":"MultiLineString","properties":{"source":"openstreetmap.org","kind":"major_road","network":"PT:national","sort_rank":380,"kind_detail":"primary","min_zoom":8.0,"shield_text":"125"},"arcs":[[203],[204],[205],[206],[207],[208],[209],[210],[211],[212],[213],[214],[215],[216],[217],[218],[219],[220],[221],[222],[223],[224],[225],[226],[227],[228],[229],[230],[231],[232],[233],[234],[235],[236],[237],[238],[239],[240],[241],[242],[243],[244],[245],[246],[247],[248],[249],[250],[251],[252],[253],[254]]},{"type":"LineString","properties":{"kind":"major_road","network":"PT:national","sort_rank":380,"kind_detail":"primary","is_bicycle_related":true,"source":"openstreetmap.org","min_zoom":8.0,"landuse_kind":"nature_reserve","shield_text":"125"},"arcs":[255]},{"type":"MultiLineString","properties":{"kind":"path","sort_rank":354,"kind_detail":"track","is_bicycle_related":true,"bicycle_shield_text":"EV1","bicycle_network":"icn","source":"openstreetmap.org","min_zoom":8.0},"arcs":[[256],[257],[258]]},{"type":"MultiLineString","properties":{"kind":"major_road","network":"PT:regional:Algarve","sort_rank":380,"kind_detail":"primary","source":"openstreetmap.org","min_zoom":8.0,"landuse_kind":"protected_area","shield_text":"267","ref":"EN 267;ER 267"},"arcs":[[259],[260],[261],[262],[263],[264],[265],[266],[267],[268]]},{"type":"MultiLineString","properties":{"kind":"path","sort_rank":354,"landuse_kind":"nature_reserve","is_bicycle_related":true,"bicycle_shield_text":"EV1","bicycle_network":"icn","source":"openstreetmap.org","min_zoom":8.0,"kind_detail":"path"},"arcs":[[269],[270],[271]]},{"type":"LineString","properties":{"kind":"major_road","network":"PT:regional:Algarve","sort_rank":380,"kind_detail":"primary","source":"openstreetmap.org","min_zoom":8.0,"shield_text":"266","ref":"EN 266;ER 266","id":503065773},"arcs":[272]},{"type":"MultiLineString","properties":{"source":"openstreetmap.org","kind":"major_road","landuse_kind":"nature_reserve","sort_rank":380,"kind_detail":"primary","ref":"EN 393; ER 393","min_zoom":8.0},"arcs":[[273],[274],[275]]},{"type":"MultiLineString","properties":{"kind":"major_road","sort_rank":379,"kind_detail":"secondary","is_bicycle_related":true,"bicycle_shield_text":"EV1","bicycle_network":"icn","source":"openstreetmap.org","min_zoom":8.0,"landuse_kind":"nature_reserve"},"arcs":[[276],[277]]},{"type":"LineString","properties":{"kind":"major_road","network":"PT:national","sort_rank":380,"kind_detail":"primary","source":"openstreetmap.org","min_zoom":8.0,"shield_text":"125","ref":"EN 125","id":449889130},"arcs":[278]},{"type":"MultiLineString","properties":{"kind":"minor_road","sort_rank":360,"kind_detail":"unclassified","is_bicycle_related":true,"bicycle_shield_text":"EV1","bicycle_network":"icn","source":"openstreetmap.org","min_zoom":8.0,"landuse_kind":"nature_reserve"},"arcs":[[279],[280],[281],[282],[283],[284],[285],[286],[287],[288],[289],[290],[291],[292],[293],[294],[295],[296],[297],[298],[299],[300],[301]]},{"type":"LineString","properties":{"kind":"major_road","network":null,"sort_rank":380,"kind_detail":"primary","source":"openstreetmap.org","min_zoom":8.0,"shield_text":"537-1","id":402248126},"arcs":[302]},{"type":"MultiLineString","properties":{"kind":"major_road","sort_rank":379,"kind_detail":"secondary","is_bicycle_related":true,"bicycle_shield_text":"EV1","bicycle_network":"icn","source":"openstreetmap.org","min_zoom":8.0},"arcs":[[303],[304]]},{"type":"MultiLineString","properties":{"kind":"major_road","sort_rank":379,"kind_detail":"secondary","is_bicycle_related":true,"bicycle_shield_text":"EV1","bicycle_network":"icn","source":"openstreetmap.org","min_zoom":8.0,"ref":"EM 531-1"},"arcs":[[305],[306],[307],[308]]},{"type":"MultiLineString","properties":{"source":"openstreetmap.org","kind":"major_road","kind_detail":"trunk","sort_rank":381,"landuse_kind":"urban_area","ref":"IC 4","min_zoom":8.0},"arcs":[[309],[310],[311],[312]]},{"type":"LineString","properties":{"kind":"major_road","network":null,"sort_rank":380,"kind_detail":"primary","source":"openstreetmap.org","min_zoom":8.0,"shield_text":"537","ref":"EN 125","id":215367112},"arcs":[313]},{"type":"MultiLineString","properties":{"kind":"major_road","network":"PT:regional:Algarve","sort_rank":380,"kind_detail":"primary","source":"openstreetmap.org","min_zoom":8.0,"shield_text":"267","ref":"EN 267;ER 267"},"arcs":[[314],[315],[316],[317],[318]]},{"type":"MultiLineString","properties":{"source":"openstreetmap.org","kind":"major_road","sort_rank":380,"kind_detail":"primary","ref":"EN 393-1","min_zoom":8.0},"arcs":[[319],[320],[321]]},{"type":"MultiLineString","properties":{"kind":"major_road","network":null,"sort_rank":380,"kind_detail":"primary","source":"openstreetmap.org","min_zoom":8.0,"shield_text":"4","ref":"EN 120"},"arcs":[[322],[323],[324],[325],[326],[327],[328],[329],[330],[331],[332],[333],[334],[335],[336],[337],[338]]},{"type":"LineString","properties":{"source":"openstreetmap.org","kind":"major_road","sort_rank":380,"kind_detail":"primary","ref":"EN 393-2","min_zoom":8.0,"id":116500255},"arcs":[339]},{"type":"MultiLineString","properties":{"source":"openstreetmap.org","kind":"major_road","landuse_kind":"nature_reserve","sort_rank":380,"kind_detail":"primary","min_zoom":8.0},"arcs":[[340],[341],[342],[343],[344],[345]]},{"type":"LineString","properties":{"kind":"major_road","network":null,"sort_rank":380,"kind_detail":"primary","is_bicycle_related":true,"bicycle_shield_text":"EV1","bicycle_network":"icn","source":"openstreetmap.org","min_zoom":8.0,"landuse_kind":"nature_reserve","shield_text":"4","ref":"EN 120","id":83721116},"arcs":[346]},{"type":"MultiLineString","properties":{"source":"openstreetmap.org","kind":"major_road","sort_rank":381,"kind_detail":"trunk","ref":"IC 4","min_zoom":8.0},"arcs":[[347],[348],[349],[350],[351],[352],[353],[354],[355],[356],[357],[358],[359]]},{"type":"MultiLineString","properties":{"bus_network":"Transportes urbanos de Lagos","network":null,"sort_rank":377,"kind_detail":"tertiary","is_bicycle_related":true,"kind":"major_road","bicycle_shield_text":"EV1","bicycle_network":"icn","source":"openstreetmap.org","min_zoom":8.0,"bus_shield_text":"1","shield_text":"1263"},"arcs":[[360],[361]]},{"type":"MultiLineString","properties":{"kind":"major_road","sort_rank":377,"landuse_kind":"nature_reserve","is_bicycle_related":true,"bicycle_shield_text":"EV1","bicycle_network":"icn","source":"openstreetmap.org","min_zoom":8.0,"kind_detail":"tertiary"},"arcs":[[362],[363],[364]]},{"type":"MultiLineString","properties":{"kind":"path","sort_rank":354,"landuse_kind":"urban_area","is_bicycle_related":true,"bicycle_shield_text":"EV1","bicycle_network":"icn","source":"openstreetmap.org","min_zoom":8.0,"kind_detail":"footway"},"arcs":[[365],[366]]},{"type":"MultiLineString","properties":{"source":"openstreetmap.org","kind":"major_road","landuse_kind":"protected_area","sort_rank":380,"kind_detail":"primary","ref":"EN 266;ER 266","min_zoom":8.0},"arcs":[[367],[368],[369],[370],[371],[372],[373],[374],[375],[376],[377],[378],[379]]},{"type":"MultiLineString","properties":{"source":"openstreetmap.org","kind":"major_road","sort_rank":380,"kind_detail":"primary","ref":"EN 125","min_zoom":8.0},"arcs":[[380],[381],[382],[383],[384],[385],[386],[387],[388],[389],[390],[391],[392],[393],[394]]},{"type":"MultiLineString","properties":{"source":"openstreetmap.org","kind":"major_road","sort_rank":380,"kind_detail":"primary","ref":"EN 393; ER 393","min_zoom":8.0},"arcs":[[395],[396],[397],[398],[399]]},{"type":"LineString","properties":{"kind":"path","sort_rank":354,"kind_detail":"pedestrian","is_bicycle_related":true,"bicycle_shield_text":"EV1","bicycle_network":"icn","source":"openstreetmap.org","min_zoom":8.0,"landuse_kind":"nature_reserve"},"arcs":[400]},{"type":"LineString","properties":{"kind":"major_road","network":"PT:national","sort_rank":381,"kind_detail":"trunk","source":"openstreetmap.org","min_zoom":8.0,"shield_text":"125","id":23517326},"arcs":[401]},{"type":"LineString","properties":{"kind":"major_road","sort_rank":379,"kind_detail":"secondary","is_bicycle_related":true,"bicycle_shield_text":"EV1","bicycle_network":"icn","source":"openstreetmap.org","min_zoom":8.0,"landuse_kind":"nature_reserve","ref":"EM 1158","id":160759875},"arcs":[402]},{"type":"MultiLineString","properties":{"sort_rank":381,"source":"openstreetmap.org","min_zoom":8.0,"kind":"major_road","kind_detail":"trunk"},"arcs":[[403],[404]]},{"type":"MultiLineString","properties":{"kind":"minor_road","sort_rank":360,"landuse_kind":"urban_area","is_bicycle_related":true,"bicycle_shield_text":"EV1","bicycle_network":"icn","source":"openstreetmap.org","min_zoom":8.0,"kind_detail":"residential"},"arcs":[[405],[406],[407],[408],[409],[410],[411],[412],[413],[414],[415],[416],[417],[418],[419]]},{"type":"MultiLineString","properties":{"source":"openstreetmap.org","kind":"major_road","sort_rank":381,"kind_detail":"trunk","ref":"EN 124","min_zoom":8.0},"arcs":[[420],[421],[422],[423],[424],[425],[426],[427],[428],[429],[430],[431]]},{"type":"LineString","properties":{"kind":"minor_road","sort_rank":360,"kind_detail":"unclassified","is_bicycle_related":true,"bicycle_shield_text":"EV1","bicycle_network":"icn","source":"openstreetmap.org","min_zoom":8.0,"landuse_kind":"urban_area","id":79607778},"arcs":[432]},{"type":"MultiLineString","properties":{"kind":"minor_road","sort_rank":360,"kind_detail":"residential","is_bicycle_related":true,"bicycle_shield_text":"EV1","bicycle_network":"icn","source":"openstreetmap.org","min_zoom":8.0},"arcs":[[433],[434],[435],[436],[437],[438],[439],[440],[441],[442],[443],[444],[445],[446],[447],[448],[449],[450],[451]]},{"type":"LineString","properties":{"kind":"major_road","sort_rank":380,"kind_detail":"primary","is_bicycle_related":true,"bicycle_shield_text":"EV1","bicycle_network":"icn","source":"openstreetmap.org","min_zoom":8.0,"ref":"EN 120"},"arcs":[452]},{"type":"MultiLineString","properties":{"source":"openstreetmap.org","kind":"major_road","sort_rank":380,"kind_detail":"primary","ref":"EN 266;ER 266","min_zoom":8.0},"arcs":[[453],[454],[455],[456],[457],[458],[459],[460],[461],[462],[463],[464],[465],[466],[467],[468],[469],[470],[471],[472],[473],[474],[475]]},{"type":"LineString","properties":{"kind":"major_road","network":null,"sort_rank":377,"kind_detail":"tertiary","is_bicycle_related":true,"bicycle_shield_text":"EV1","bicycle_network":"icn","source":"openstreetmap.org","min_zoom":8.0,"shield_text":"537-2"},"arcs":[476]},{"type":"MultiLineString","properties":{"kind":"major_road","network":null,"sort_rank":377,"kind_detail":"tertiary","is_bicycle_related":true,"bicycle_shield_text":"EV1","bicycle_network":"icn","source":"openstreetmap.org","min_zoom":8.0,"shield_text":"1262"},"arcs":[[477],[478],[479],[480],[481],[482],[483],[484]]},{"type":"LineString","properties":{"kind":"path","sort_rank":354,"kind_detail":"steps","is_bicycle_related":true,"bicycle_shield_text":"EV1","bicycle_network":"icn","source":"openstreetmap.org","min_zoom":8.0,"landuse_kind":"nature_reserve","id":157818270},"arcs":[485]},{"type":"MultiLineString","properties":{"kind":"path","sort_rank":354,"landuse_kind":"nature_reserve","is_bicycle_related":true,"bicycle_shield_text":"EV1","bicycle_network":"icn","source":"openstreetmap.org","min_zoom":8.0,"kind_detail":"track"},"arcs":[[486],[487],[488],[489],[490],[491],[492],[493],[494],[495],[496],[497],[498],[499],[500],[501]]},{"type":"LineString","properties":{"bus_network":"Transportes Urbanos de Lagos","sort_rank":377,"kind_detail":"tertiary","is_bicycle_related":true,"kind":"major_road","bicycle_shield_text":"EV1","bicycle_network":"icn","source":"openstreetmap.org","min_zoom":8.0,"bus_shield_text":"2"},"arcs":[502]},{"type":"LineString","properties":{"kind":"major_road","network":null,"sort_rank":380,"kind_detail":"primary","source":"openstreetmap.org","min_zoom":8.0,"shield_text":"120","ref":"EN 120","id":249474682},"arcs":[503]},{"type":"LineString","properties":{"kind":"major_road","sort_rank":377,"kind_detail":"tertiary","is_bicycle_related":true,"bicycle_shield_text":"EV1","bicycle_network":"icn","source":"openstreetmap.org","min_zoom":8.0,"landuse_kind":"nature_reserve","ref":"CM 1122","id":69976651},"arcs":[504]},{"type":"LineString","properties":{"source":"openstreetmap.org","kind":"major_road","sort_rank":380,"kind_detail":"primary","ref":"EN 393","min_zoom":8.0,"id":33634316},"arcs":[505]},{"type":"LineString","properties":{"kind":"major_road","network":null,"sort_rank":377,"landuse_kind":"nature_reserve","is_bicycle_related":true,"bicycle_shield_text":"EV1","bicycle_network":"icn","source":"openstreetmap.org","min_zoom":8.0,"kind_detail":"tertiary","shield_text":"1257"},"arcs":[506]},{"type":"MultiLineString","properties":{"kind":"major_road","sort_rank":380,"kind_detail":"primary","is_bicycle_related":true,"bicycle_shield_text":"EV1","bicycle_network":"icn","source":"openstreetmap.org","min_zoom":8.0,"landuse_kind":"nature_reserve","ref":"EN 120"},"arcs":[[507],[508]]},{"type":"MultiLineString","properties":{"kind":"major_road","network":"PT:Algarve","sort_rank":379,"kind_detail":"secondary","is_bicycle_related":true,"bicycle_shield_text":"EV1","bicycle_network":"icn","source":"openstreetmap.org","min_zoom":8.0,"shield_text":"268","ref":"ER 268"},"arcs":[[509],[510]]},{"type":"LineString","properties":{"bus_network":"Transportes Urbanos de Lagos","network":null,"sort_rank":377,"kind_detail":"tertiary","is_bicycle_related":true,"kind":"major_road","bicycle_shield_text":"EV1","bicycle_network":"icn","source":"openstreetmap.org","min_zoom":8.0,"bus_shield_text":"2","shield_text":"510"},"arcs":[511]},{"type":"LineString","properties":{"kind":"path","sort_rank":354,"kind_detail":"pedestrian","is_bicycle_related":true,"bicycle_shield_text":"EV1","bicycle_network":"icn","source":"openstreetmap.org","min_zoom":8.0,"landuse_kind":"urban_area","id":204829046},"arcs":[512]},{"type":"MultiLineString","properties":{"source":"openstreetmap.org","kind":"major_road","landuse_kind":"nature_reserve","sort_rank":380,"kind_detail":"primary","ref":"EN 123","min_zoom":8.0},"arcs":[[513],[514],[515],[516],[517]]},{"type":"MultiLineString","properties":{"kind":"major_road","sort_rank":355,"kind_detail":"tertiary_link","is_bicycle_related":true,"bicycle_shield_text":"EV1","bicycle_network":"icn","source":"openstreetmap.org","min_zoom":8.0,"is_link":true},"arcs":[[518],[519],[520],[521]]},{"type":"MultiLineString","properties":{"kind":"major_road","network":"PT:national","sort_rank":380,"kind_detail":"primary","source":"openstreetmap.org","min_zoom":8.0,"landuse_kind":"nature_reserve","shield_text":"268","ref":"EN 268"},"arcs":[[522],[523],[524],[525],[526],[527],[528],[529]]},{"type":"LineString","properties":{"kind":"major_road","sort_rank":377,"kind_detail":"tertiary","is_bicycle_related":true,"bicycle_shield_text":"EV1","bicycle_network":"icn","source":"openstreetmap.org","min_zoom":8.0,"landuse_kind":"urban_area","ref":"V3","id":98742590},"arcs":[530]},{"type":"MultiLineString","properties":{"kind":"major_road","sort_rank":377,"kind_detail":"tertiary","is_bicycle_related":true,"bicycle_shield_text":"EV1","bicycle_network":"icn","source":"openstreetmap.org","min_zoom":8.0},"arcs":[[531],[532],[533],[534],[535],[536],[537],[538],[539],[540],[541],[542],[543],[544],[545],[546],[547],[548],[549],[550],[551],[552],[553],[554]]},{"type":"MultiLineString","properties":{"kind":"major_road","network":"PT:regional:Algarve","sort_rank":380,"kind_detail":"primary","source":"openstreetmap.org","min_zoom":8.0,"shield_text":"124","ref":"EN 124;ER 124"},"arcs":[[555],[556],[557],[558],[559],[560],[561],[562],[563],[564],[565],[566],[567],[568],[569],[570],[571],[572],[573],[574],[575],[576]]},{"type":"MultiLineString","properties":{"kind":"major_road","network":"PT:national","sort_rank":380,"kind_detail":"primary","source":"openstreetmap.org","min_zoom":8.0,"landuse_kind":"nature_reserve","shield_text":"268","osm_relation":true},"arcs":[[577],[578],[579],[580],[581],[582],[583],[584],[585],[586],[587],[588],[589],[590],[591],[592],[593],[594],[595],[596]]},{"type":"MultiLineString","properties":{"kind":"major_road","sort_rank":380,"kind_detail":"primary","is_bicycle_related":true,"bicycle_shield_text":"EV1","bicycle_network":"icn","source":"openstreetmap.org","min_zoom":8.0,"ref":"EN 125"},"arcs":[[597],[598],[599],[600],[601],[602],[603],[604],[605],[606],[607],[608],[609],[610],[611],[612],[613],[614],[615],[616],[617],[618],[619],[620],[621],[622],[623],[624]]},{"type":"MultiLineString","properties":{"kind":"major_road","network":null,"sort_rank":380,"kind_detail":"primary","source":"openstreetmap.org","min_zoom":8.0,"landuse_kind":"nature_reserve","shield_text":"4"},"arcs":[[625],[626],[627],[628],[629]]},{"type":"LineString","properties":{"kind":"major_road","sort_rank":377,"kind_detail":"tertiary","is_bicycle_related":true,"bicycle_shield_text":"EV1","cycleway":"opposite","source":"openstreetmap.org","min_zoom":8.0,"landuse_kind":"urban_area","bicycle_network":"icn","id":36793401},"arcs":[630]},{"type":"MultiLineString","properties":{"kind":"major_road","network":"PT:national","sort_rank":380,"kind_detail":"primary","source":"openstreetmap.org","min_zoom":8.0,"shield_text":"125","osm_relation":true},"arcs":[[631],[632],[633],[634],[635],[636],[637],[638],[639],[640],[641],[642],[643],[644],[645],[646],[647],[648],[649],[650],[651],[652],[653],[654],[655],[656],[657],[658],[659],[660],[661],[662],[663],[664],[665],[666],[667],[668],[669],[670],[671],[672],[673],[674],[675],[676],[677],[678],[679],[680],[681],[682],[683],[684],[685],[686],[687],[688],[689],[690]]},{"type":"MultiLineString","properties":{"kind":"minor_road","sort_rank":360,"kind_detail":"unclassified","is_bicycle_related":true,"bicycle_shield_text":"EV1","bicycle_network":"icn","source":"openstreetmap.org","min_zoom":8.0},"arcs":[[691],[692],[693],[694],[695],[696]]},{"type":"MultiLineString","properties":{"source":"openstreetmap.org","kind":"major_road","kind_detail":"trunk","sort_rank":381,"landuse_kind":"urban_area","min_zoom":8.0},"arcs":[[697],[698],[699]]},{"type":"MultiLineString","properties":{"kind":"major_road","network":"PT:national","sort_rank":380,"kind_detail":"primary","source":"openstreetmap.org","min_zoom":8.0,"landuse_kind":"nature_reserve","shield_text":"125"},"arcs":[[700],[701],[702],[703],[704],[705],[706],[707],[708],[709],[710],[711],[712]]},{"type":"LineString","properties":{"kind":"minor_road","sort_rank":358,"kind_detail":"service","is_bicycle_related":true,"bicycle_shield_text":"EV1","bicycle_network":"icn","source":"openstreetmap.org","min_zoom":8.0},"arcs":[713]},{"type":"MultiLineString","properties":{"kind":"major_road","network":"PT:national","sort_rank":380,"kind_detail":"primary","is_bicycle_related":true,"source":"openstreetmap.org","min_zoom":8.0,"landuse_kind":"nature_reserve","shield_text":"268","ref":"EN 268"},"arcs":[[714],[715]]},{"type":"MultiLineString","properties":{"kind":"major_road","sort_rank":377,"kind_detail":"tertiary","is_bicycle_related":true,"bus_network":"Transportes urbanos de Lagos","bicycle_shield_text":"EV1","bicycle_network":"icn","source":"openstreetmap.org","min_zoom":8.0,"bus_shield_text":"1"},"arcs":[[716],[717],[718],[719],[720],[721],[722]]},{"type":"MultiLineString","properties":{"kind":"major_road","network":null,"sort_rank":377,"kind_detail":"tertiary","is_bicycle_related":true,"bicycle_shield_text":"EV1","bicycle_network":"icn","source":"openstreetmap.org","min_zoom":8.0,"shield_text":"537"},"arcs":[[723],[724]]},{"type":"LineString","properties":{"kind":"path","sort_rank":354,"kind_detail":"footway","is_bicycle_related":true,"bicycle_shield_text":"EV1","bicycle_network":"icn","source":"openstreetmap.org","min_zoom":8.0},"arcs":[725]},{"type":"MultiLineString","properties":{"bus_network":"Transportes Urbanos de Lagos","network":null,"sort_rank":377,"kind_detail":"tertiary","is_bicycle_related":true,"kind":"major_road","bicycle_shield_text":"EV1","bicycle_network":"icn","source":"openstreetmap.org","min_zoom":8.0,"bus_shield_text":"2","shield_text":"534"},"arcs":[[726],[727],[728],[729],[730],[731],[732]]},{"type":"MultiLineString","properties":{"source":"openstreetmap.org","kind":"major_road","landuse_kind":"nature_reserve","sort_rank":380,"kind_detail":"primary","ref":"EN 393;ER 393","min_zoom":8.0},"arcs":[[733],[734],[735],[736],[737],[738],[739],[740],[741]]},{"type":"MultiLineString","properties":{"kind":"major_road","network":"PT:Algarve","sort_rank":379,"landuse_kind":"nature_reserve","is_bicycle_related":true,"bicycle_shield_text":"EV1","bicycle_network":"icn","source":"openstreetmap.org","min_zoom":8.0,"kind_detail":"secondary","shield_text":"268","ref":"ER 268"},"arcs":[[742],[743],[744],[745],[746]]},{"type":"MultiLineString","properties":{"kind":"major_road","sort_rank":379,"kind_detail":"secondary","is_bicycle_related":true,"bicycle_shield_text":"EV1","bicycle_network":"icn","source":"openstreetmap.org","min_zoom":8.0,"ref":"EN 125"},"arcs":[[747],[748],[749],[750],[751],[752],[753],[754],[755]]},{"type":"MultiLineString","properties":{"kind":"major_road","network":"PT:national","sort_rank":380,"kind_detail":"primary","is_bicycle_related":true,"bicycle_shield_text":"EV1","bicycle_network":"icn","source":"openstreetmap.org","min_zoom":8.0,"landuse_kind":"nature_reserve","shield_text":"268","ref":"EN 268"},"arcs":[[756],[757],[758],[759],[760],[761]]},{"type":"MultiLineString","properties":{"kind":"major_road","sort_rank":379,"landuse_kind":"urban_area","is_bicycle_related":true,"bicycle_shield_text":"EV1","bicycle_network":"icn","source":"openstreetmap.org","min_zoom":8.0,"kind_detail":"secondary","ref":"EM 531"},"arcs":[[762],[763]]},{"type":"MultiLineString","properties":{"kind":"major_road","sort_rank":377,"landuse_kind":"urban_area","is_bicycle_related":true,"bicycle_shield_text":"EV1","bicycle_network":"icn","source":"openstreetmap.org","min_zoom":8.0,"kind_detail":"tertiary"},"arcs":[[764],[765],[766],[767],[768],[769],[770],[771],[772],[773],[774],[775],[776],[777],[778],[779],[780],[781],[782],[783],[784]]},{"type":"MultiLineString","properties":{"kind":"path","sort_rank":354,"landuse_kind":"urban_area","is_bicycle_related":true,"bicycle_shield_text":"EV1","bicycle_network":"icn","source":"openstreetmap.org","min_zoom":8.0,"kind_detail":"cycleway"},"arcs":[[785],[786]]},{"type":"MultiLineString","properties":{"kind":"major_road","network":"PT:regional:Alentejo","sort_rank":380,"kind_detail":"primary","source":"openstreetmap.org","min_zoom":8.0,"shield_text":"266","ref":"EN 266;ER 266"},"arcs":[[787],[788],[789],[790]]},{"type":"LineString","properties":{"kind":"major_road","sort_rank":377,"kind_detail":"tertiary","is_bicycle_related":true,"bicycle_shield_text":"EV1","bicycle_network":"icn","source":"openstreetmap.org","min_zoom":8.0,"landuse_kind":"nature_reserve","ref":"EM 1158","id":260284361},"arcs":[791]},{"type":"MultiLineString","properties":{"kind":"highway","network":null,"sort_rank":383,"kind_detail":"motorway","official_name":"Via do Infante Dom Henrique","source":"openstreetmap.org","min_zoom":8.0,"all_networks":[null,null],"shield_text":"4","ref":"A 22","all_shield_texts":["4","22"]},"arcs":[[792],[793],[794],[795]]},{"type":"LineString","properties":{"kind":"major_road","sort_rank":377,"kind_detail":"tertiary","is_bicycle_related":true,"bicycle_shield_text":"EV1","bicycle_network":"icn","source":"openstreetmap.org","min_zoom":8.0,"landuse_kind":"nature_reserve","ref":"CM 1124","id":155170660},"arcs":[796]}]},"earth":{"type":"GeometryCollection","geometries":[{"type":"MultiPolygon","properties":{"sort_rank":10,"source":"naturalearthdata.com","min_zoom":0.0,"kind":"earth","area":13065012637},"arcs":[[[797]]]}]},"landuse":{"type":"GeometryCollection","geometries":[{"type":"MultiPolygon","properties":{"kind":"protected_area","protect_class":"97","area":1213440000,"sort_rank":17,"operator":"ICNF","source":"openstreetmap.org","min_zoom":4.0,"tier":2,"id":-6267477,"osm_relation":true},"arcs":[[[798]]]},{"type":"MultiPolygon","properties":{"source":"naturalearthdata.com","kind":"urban_area","name":"","area":1012037416,"sort_rank":11,"min_zoom":4.0},"arcs":[[[799]]]},{"type":"Polygon","properties":{"kind":"nature_reserve","protect_class":"5","area":1422710016,"sort_rank":23,"source":"openstreetmap.org","min_zoom":4.0,"tier":2,"id":-1380917,"osm_relation":true},"arcs":[[800]]}]}},"type":"Topology","transform":{"translate":[-9.84375,36.5978891331],"scale":[0.0003433228,0.0002736087]},"arcs":[[[1961,4096],[-230,-2498],[28,-192],[192,-605],[77,-123],[138,-135],[167,-95],[186,-49],[1577,82]],[[3051,3089],[22,-33],[114,-8],[-8,-29],[24,0],[-15,-25],[30,-10],[16,-70],[15,24],[11,-18],[10,17],[97,-22],[31,27],[38,-8],[70,-92],[56,94],[91,4],[48,35],[169,-121],[61,26],[115,-44],[23,46],[27,-4]],[[3039,3093],[12,-4]],[[3071,4096],[10,-17],[-30,-36],[2,-109],[-70,-274],[81,-148],[18,-95],[-39,-151],[-4,-173]],[[3051,3089],[-13,-15]],[[3038,3074],[-128,-318],[-97,-113],[18,-36],[-14,-56],[32,-8],[16,-90],[-105,-230],[-64,-35],[43,-114],[-102,-209],[-59,-51],[-11,-89],[-48,-48],[-1,-47],[-51,-78],[31,-15],[6,31],[59,-6],[43,-62],[3,-54],[18,40],[32,-10],[18,67],[54,13],[34,68],[66,16],[23,-17],[69,68],[152,8],[178,87],[173,-28],[12,105],[142,55],[140,-31],[12,20],[83,-8],[42,-45],[239,-71]],[[3414,1866],[108,56],[60,103],[78,68],[53,-10],[34,-75],[98,-36],[148,37],[14,46],[89,57]],[[3414,1866],[108,56],[60,103],[78,68],[53,-10],[34,-75],[98,-36],[148,37],[14,46],[89,57]],[[3171,4096],[-7,-43],[-84,-15],[-38,-19],[-26,-93],[-13,-100],[-40,-161],[6,-48],[39,-46],[28,-58],[17,-87],[-7,-167],[-18,-98],[-34,-164],[-51,-122],[-15,-88],[-82,-92],[-47,-93],[23,-57],[23,-64],[-42,-162],[-68,-70],[-52,-50],[26,-108],[-39,-87],[-43,-100],[-113,-181],[-14,-22],[-16,-50],[-20,-103],[43,19],[32,-20],[32,-32],[44,-17],[30,12],[58,50],[31,11],[24,18],[52,53],[58,-23],[64,57],[68,19],[44,3],[38,17],[76,48],[35,10],[178,0],[92,100],[39,27],[43,12],[136,11],[124,-23],[155,-86],[6,6],[126,-48],[4,1],[0,-1773],[-4096,0],[0,4096],[3171,0]],[[4096,1773],[-4,-1],[-126,48],[-6,-6],[-155,86],[-124,23],[-136,-11],[-43,-12],[-39,-27],[-92,-100],[-178,0],[-35,-10],[-76,-48],[-38,-17],[-44,-3],[-68,-19],[-64,-57],[-58,23],[-52,-53],[-24,-18],[-31,-11],[-58,-50],[-30,-12],[-44,17],[-32,32],[-32,20],[-43,-19],[20,103],[16,50],[14,22],[113,181],[43,100],[39,87],[-26,108],[52,50],[68,70],[42,162],[-23,64],[-23,57],[47,93],[82,92],[15,88],[51,122],[34,164],[18,98],[7,167],[-17,87],[-28,58],[-39,46],[-6,48],[40,161],[13,100],[26,93],[38,19],[84,15],[7,43]],[[2724,1768],[102,9]],[[2869,1756],[-42,21]],[[2901,1741],[-4,2]],[[2902,1741],[34,17]],[[2937,1758],[23,27]],[[2961,1786],[31,16]],[[3090,1802]],[[3090,1802]],[[3090,1802],[0,-1]],[[3090,1801],[0,1]],[[3090,1802]],[[3090,1802]],[[3099,1804],[1,0]],[[2901,1740],[1,0],[0,1],[-1,0],[0,-1]],[[2936,1758],[0,-1],[1,0],[0,1]],[[2937,1758],[-1,0]],[[2960,1786],[0,-1],[1,0],[-1,1]],[[3090,1802]],[[3090,1802],[0,-1],[0,1]],[[3090,1802],[1,0],[-1,0]],[[3090,1802]],[[3090,1802]],[[3002,2416],[11,38]],[[3013,2455],[22,52]],[[3035,2508],[4,119]],[[3036,2721],[0,1]],[[3043,2628],[-7,93]],[[3036,2735],[7,106]],[[3043,2628],[-1,-1]],[[3043,2627],[0,1]],[[3043,2627],[-1,0]],[[3042,2627],[1,-1],[0,1]],[[3143,3060],[20,16]],[[3171,3157],[46,37]],[[3281,3334]],[[3282,3336],[6,5]],[[3305,3359],[1,0]],[[3444,4096],[-11,-25]],[[3479,3647],[4,2]],[[3483,3648],[12,0]],[[3502,3671],[-12,-13]],[[3497,3648],[-7,9]],[[3545,3778],[-2,-54]],[[3034,2592],[1,0],[0,-1],[-1,1]],[[3307,3360],[0,1]],[[3435,3628],[1,0],[-1,0]],[[3199,3469],[1,1]],[[3042,2626],[1,0]],[[3043,2626],[0,1]],[[3059,2617],[-16,9]],[[3061,2616],[-1,0],[-1,1],[1,-1],[1,0]],[[3065,2614],[-4,2]],[[3087,3387],[71,14],[41,68]],[[3200,3470],[30,22]],[[3205,3650],[-2,18]],[[3231,3691],[31,26]],[[3406,1883],[-4,1]],[[3403,1884],[3,-1]],[[3412,1878],[-6,5]],[[3412,1878],[1,-1]],[[3413,1876],[-1,2]],[[2709,1775],[4,0]],[[3724,2557],[2,6]],[[3726,2563],[-2,-6]],[[3726,2563],[26,47]],[[3752,2610]],[[3752,2610]],[[3753,2611]],[[3071,3862],[-9,-6]],[[3262,3716]],[[3262,3716],[1,0]],[[3264,3715],[-1,0]],[[3263,3715],[-1,1]],[[3262,3716]],[[3262,3716],[1,0]],[[3263,3716],[0,-1]],[[3263,3715],[3,-3]],[[3281,3334],[0,1]],[[3411,1927],[1,0]],[[3412,1928]],[[3582,2032]],[[3583,2033]],[[3828,2203],[0,-1],[1,-1],[0,1],[-1,1]],[[4050,1954],[1,0],[-1,1],[0,-1]],[[3387,1877],[1,10]],[[3388,1887],[13,0]],[[3387,1888],[1,-1]],[[3148,3959],[-19,137]],[[3991,1986],[13,-8]],[[4004,1978]],[[4004,1978]],[[4004,1978],[2,1],[4,3],[0,1],[4,2]],[[4013,1985],[-4,-2]],[[4013,1985],[-3,-3],[-4,-2],[-2,-2]],[[4004,1978]],[[4004,1978]],[[4004,1978],[7,-2]],[[4045,1999],[-32,-14]],[[4014,1985],[32,14]],[[4018,1973],[-4,12]],[[4078,2110],[0,-4]],[[4078,2110],[0,1]],[[3491,2035],[1,1]],[[3583,2033],[-1,-1]],[[3582,2032],[1,1]],[[3077,3365],[-1,5]],[[3729,1920],[-1,-1],[1,0],[0,1]],[[3485,1906],[6,48],[-30,62]],[[3484,1905],[0,-1]],[[3485,1906],[-1,-1]],[[3485,1905],[0,1]],[[3753,2611]],[[3821,1981],[25,-14]],[[3847,1967],[-1,0]],[[3846,1967],[1,-1]],[[3848,1967],[-1,0]],[[3847,1967],[0,-1]],[[3847,1966],[1,0],[0,1]],[[3013,2454],[0,1]],[[3035,2507],[0,1]],[[3042,2627],[0,-1]],[[3281,3335],[1,1]],[[3483,3649],[0,-1]],[[3495,3648],[2,0]],[[3762,2643]],[[3762,2642],[0,1]],[[3964,2871],[-81,-3],[-50,-81],[-41,5],[-7,-49],[-41,-20],[18,-80]],[[2704,1774],[5,1]],[[2717,1777],[-4,-2]],[[2715,1765]],[[2959,1711],[-9,7]],[[2959,1711],[5,0]],[[2968,1712],[-4,-1]],[[2967,1710]],[[3022,2821],[8,-7]],[[3032,2647],[-9,-34]],[[3036,2721],[0,-5]],[[3120,3895],[-13,-27]],[[2968,1712],[23,14]],[[3002,1733],[21,2]],[[3066,1732],[43,5]],[[3682,1927],[14,-13]],[[3697,1915],[-15,13]],[[3697,1914],[14,2]],[[3709,1917],[-11,-2]],[[3682,1929],[-1,0],[0,-1],[1,0],[0,1]],[[4054,2017],[-9,-18]],[[4046,1999],[9,18]],[[4055,2024],[-1,-5]],[[4055,2019],[1,5]],[[4078,2074],[-22,-48]],[[4056,2026],[-1,-2],[1,0]],[[4056,2024],[1,1]],[[4057,2025],[-1,1]],[[4057,2025],[21,49]],[[4094,2143],[-16,-33]],[[4078,2111],[16,32]],[[4078,2074],[0,36]],[[4094,2143],[2,2]],[[4055,2019],[-1,-1],[1,-1],[1,1],[-1,1]],[[3206,2045],[1,-1]],[[3207,2044],[0,1]],[[3207,2044],[30,-11]],[[3237,2033],[30,2],[32,-38]],[[3303,1993],[78,-109]],[[3386,1884],[-5,0]],[[3381,1884],[4,-4]],[[3527,3649],[25,-10],[40,39]],[[3070,3297],[-3,1]],[[3065,3478],[22,-88]],[[3895,2064],[17,-6],[21,-5]],[[3933,2053],[-38,12]],[[3674,2007],[32,42]],[[3133,3228],[-52,-13],[-9,-43]],[[3299,1997],[4,-4]],[[3543,3786],[0,-1]],[[3545,3783]],[[3592,3678],[15,45],[113,113],[58,25],[61,84],[257,127]],[[3681,1930],[-10,10]],[[2619,1498],[-1,0],[-1,0],[1,-1],[1,1]],[[3821,2153],[-5,-17]],[[3819,2112],[-3,24]],[[3819,2112],[-1,-2]],[[3820,2111],[-1,1]],[[3830,2196],[-9,-43]],[[3829,2201],[1,-5]],[[3830,2196],[-1,6]],[[3776,1986],[27,45]],[[3802,2031],[-27,-44],[2,-5]],[[3805,2038],[-3,-6]],[[3803,2032],[3,7]],[[3803,2032],[-1,-1],[1,0],[0,1]],[[3139,3055],[1,1]],[[2893,1740],[-4,1]],[[2992,1802],[11,6]],[[3005,1809],[46,-2]],[[3052,1807],[41,-3]],[[3100,1804]],[[3100,1804],[33,10]],[[3133,1815],[-33,-11]],[[3139,1817],[-5,-2]],[[3134,1815],[5,2]],[[3139,1817],[47,17]],[[3191,1835],[-5,-1]],[[3186,1834],[5,0]],[[3192,1834],[32,-1]],[[3224,1833],[-32,1]],[[3245,1840],[-20,-6]],[[3225,1833],[20,7]],[[3245,1840],[54,24]],[[3299,1864],[11,-2]],[[3311,1863],[-12,1]],[[3312,1862],[25,4]],[[3339,1867],[-2,-1]],[[3337,1866],[2,0]],[[3341,1865],[2,1]],[[3343,1866],[-2,1]],[[3343,1866],[16,9]],[[3360,1875],[-1,0]],[[3359,1875],[1,-1]],[[3361,1874],[25,2]],[[3386,1877],[-25,-2]],[[3386,1877]],[[3386,1877],[1,0]],[[3386,1877]],[[3387,1887],[-1,-10]],[[3403,1891],[-15,-3]],[[3402,1888],[-1,0]],[[3401,1888],[-2,-1]],[[3401,1887],[0,1]],[[3401,1888],[2,3]],[[3403,1891],[6,12]],[[3409,1903],[19,48]],[[3428,1952],[-17,-25],[-2,-24]],[[3429,1952],[1,2],[-1,-1]],[[3004,1809],[-1,-1],[2,0],[0,1],[-1,0]],[[3051,1808],[0,-1],[0,-1],[1,1]],[[3052,1807],[-1,1]],[[3133,1814],[1,0],[0,1]],[[3134,1815],[-1,0],[0,-1]],[[3191,1835],[0,-1]],[[3191,1834],[1,0],[-1,1]],[[3360,1875],[0,-1],[1,0],[0,1]],[[3361,1875],[-1,0]],[[3428,1951],[1,0],[0,2],[-1,-1],[0,-1]],[[2736,1771],[4,0]],[[2741,1792],[34,-14]],[[3290,1837],[24,-6]],[[3888,1932],[21,6]],[[3446,2572],[-36,45],[-148,-88],[-36,8],[-58,72],[-79,-4]],[[3549,2543],[-18,23]],[[3601,2513],[-62,11]],[[3547,2529],[7,5]],[[3722,2557],[-106,-38]],[[3724,2557],[-2,0]],[[3722,2557],[2,0]],[[3753,2610],[1,1]],[[3754,2611],[-1,0]],[[4096,2740],[-67,-4],[-17,-26],[-29,31],[-51,-32],[2,-30],[-28,22],[-152,-90]],[[3073,2937],[-7,-13]],[[3067,3298],[9,66]],[[3080,3376],[-4,-6]],[[3965,2871],[-1,0]],[[3263,3716],[-5,6]],[[3389,3631],[-117,79]],[[3398,3628],[-5,0]],[[3091,3734],[-29,122]],[[3107,3868],[-36,-6]],[[3313,1863],[-2,0]],[[2541,1570],[13,78],[150,118]],[[2677,1663]],[[2691,1725],[23,40]],[[2724,1782],[-4,-1]],[[2725,2189],[44,-36]],[[2766,2134],[-18,-45],[-18,20]],[[2779,1776],[-1,-6]],[[2821,1738],[-36,22]],[[2831,1718],[73,21],[46,-21]],[[2922,2354],[-14,-14]],[[2994,2538],[7,11]],[[3002,1733],[3,-14]],[[3015,2697],[21,19]],[[3022,2821],[-15,15],[22,22]],[[3023,2901],[43,23]],[[3025,2809],[5,5]],[[3028,2660],[4,-13]],[[3133,3228],[-63,69]],[[3077,2932],[-4,5]],[[3080,3376],[0,9]],[[3080,3005],[12,-66]],[[3119,3053],[-26,-2],[-24,9],[-25,10],[38,-44]],[[3087,3064],[56,-4]],[[3225,1833],[0,1],[-1,0],[0,-1],[1,0]],[[3697,1915],[-1,0],[0,-1],[1,0],[0,1]],[[4001,1970],[-1,0],[0,-1],[1,0],[0,1]],[[3710,2055],[-4,-6]],[[3710,2055],[1,1]],[[3710,2057],[0,-2]],[[3710,2057],[1,-1],[1,0],[0,1],[-2,0]],[[3809,2039],[8,-2]],[[3817,2037],[-8,3]],[[3817,2037],[98,-16]],[[3915,2021],[4,2]],[[3310,1863],[0,-2],[2,0],[0,2],[-2,0]],[[3089,2605],[-24,9]],[[3531,2566],[-85,6]],[[3539,2524],[8,5]],[[3554,2534],[-5,9]],[[3616,2519],[-15,-6]],[[3203,3668],[28,23]],[[3223,3557],[-18,93]],[[3230,3492],[-7,65]],[[3002,2416],[48,-98],[104,-111],[5,-71],[47,-90]],[[3036,2722],[0,13]],[[3043,2841],[90,128],[5,85]],[[3163,3076],[8,81]],[[3217,3194],[51,39],[13,101]],[[3288,3341],[17,18]],[[3309,3362],[99,151],[27,114]],[[3433,4071],[37,-184],[45,-108],[28,7]],[[3435,3628],[0,-1]],[[3436,3629],[-1,-1]],[[3435,3627],[1,1]],[[3436,3628],[0,1]],[[3436,3629],[43,18]],[[3543,3724],[-41,-53]],[[3543,3785],[2,-2]],[[3545,3783],[0,-5]],[[3206,2046],[-1,-1],[1,0],[1,0],[-1,1]],[[4096,3325],[0,14]],[[3258,3722],[4,-6]],[[3261,3718],[0,-2]],[[3262,3716],[-1,0]],[[3261,3716],[1,0]],[[3281,3335],[0,-1]],[[2826,1777],[1,0],[-1,1],[0,-1]],[[3140,3056],[3,4]],[[3704,2060],[1,0]],[[3705,2060],[51,-7]],[[3756,2053],[-8,7],[-35,-1],[-8,1]],[[3756,2053],[30,-4]],[[3786,2049],[18,-8],[5,-2]],[[3809,2040],[-23,9]],[[3940,2030],[-21,-7]],[[3940,2030],[42,-34]],[[3982,1996],[1,-1],[7,-8],[42,-24]],[[4032,1964],[-39,22]],[[3993,1986],[-3,2],[-8,8]],[[4009,1983],[-16,3]],[[3993,1986],[-1,0]],[[3405,1812],[0,6]],[[3405,1818],[0,1],[-1,0],[0,-1],[1,0]],[[2716,1788],[1,-11]],[[3023,2613],[-22,-64]],[[3135,3055],[-16,-2]],[[3816,1942],[1,0]],[[3862,1926],[1,1]],[[3722,2549],[7,-28]],[[3722,2552],[2,5]],[[3724,2557],[-2,-4]],[[3762,2515],[-11,3]],[[3752,2612],[0,-1]],[[3752,2612],[10,30]],[[3753,2611],[-1,1]],[[3762,2642]],[[3762,2642]],[[3779,2368],[0,-1]],[[3799,2399],[1,-2]],[[3762,2643],[0,-1]],[[3762,2642],[0,1]],[[3430,1954],[9,23]],[[3439,1980],[-1,-1]],[[3438,1979],[1,-2]],[[3438,1979],[2,0]],[[3439,1982],[0,-2]],[[3440,1980],[-1,0]],[[3439,1977],[1,2]],[[3461,2016],[-22,-34]],[[3440,1980],[-1,2]],[[3440,1979],[0,1]],[[4066,1951],[15,-5]],[[4081,1946],[-14,6]],[[4081,1946],[15,-5]],[[4093,1942],[3,-1]],[[4065,1952],[1,-1],[0,1],[-1,0]],[[3272,3710],[-9,6]],[[3393,3628],[-4,3]],[[3434,3628],[-36,0]],[[3435,3628],[-1,0]],[[3434,3628],[1,0]],[[3082,3386],[5,1]],[[3341,1865],[0,2],[-2,0],[0,-2],[2,0]],[[3126,3657],[-20,-17],[-5,-130],[-36,-32]],[[3339,1865],[7,-22]],[[3348,1842],[-7,23]],[[3729,1920],[-1,0]],[[3729,1919],[0,1]],[[3729,1920],[20,-4]],[[3747,1909]],[[3747,1909]],[[3747,1909],[21,-4]],[[3748,1910],[-1,0]],[[3747,1909],[0,1]],[[3747,1910],[1,0]],[[3749,1914],[-1,-4]],[[3749,1914],[0,1],[0,-1]],[[3817,1908],[-7,-4]],[[3811,1914],[2,-1]],[[3813,1913],[-1,1]],[[3813,1913],[4,-5]],[[3807,2040],[-1,1]],[[3806,2041],[-1,0],[-1,0],[-1,0]],[[3813,2059],[-7,-18]],[[3806,2041],[-1,-3]],[[3806,2039],[8,19]],[[3822,2079],[-8,-19]],[[3815,2060],[8,19]],[[3818,2109],[1,-10],[4,-19]],[[3824,2080],[-4,28]],[[3814,2058],[1,1],[-1,1],[-1,-1],[1,-1]],[[3820,2111],[-2,-1],[1,-2],[1,1],[0,2]],[[3823,2079],[1,0],[-1,1],[-1,0],[1,-1]],[[3749,1916],[0,-1]],[[2775,1778],[4,-1]],[[3117,1740],[-5,5]],[[3315,1831],[-1,0],[1,-1]],[[3315,1830],[2,0]],[[3317,1830],[-2,1]],[[3317,1830],[31,0]],[[3350,1831],[-2,-1]],[[3348,1830]],[[3385,1827],[-2,3]],[[3385,1827]],[[3385,1827]],[[3385,1826],[1,-1]],[[3386,1825],[0,1]],[[3388,1821],[-2,4]],[[3389,1820],[16,-8]],[[3315,1831],[0,-1],[0,1]],[[3385,1827],[0,-1],[1,0],[-1,1]],[[3389,1821],[-1,0]],[[3388,1821],[1,-1],[0,1]],[[3138,3054],[1,1]],[[3722,2551],[0,1]],[[3722,2553],[0,-2]],[[3722,2551],[0,-2]],[[3729,2521],[22,-3]],[[3756,2493],[6,22]],[[3756,2492]],[[3756,2492]],[[3756,2492]],[[3756,2492]],[[3756,2492]],[[3756,2492],[1,0]],[[3757,2491],[42,-92]],[[3800,2397],[-21,-29]],[[3779,2367],[24,-141]],[[3803,2226],[8,-10]],[[3811,2216],[13,-11]],[[3824,2205],[4,-3]],[[3828,2203],[-4,2]],[[3757,2492],[-1,0]],[[3756,2492]],[[3756,2492]],[[3756,2492]],[[3756,2492],[1,0]],[[3112,1745],[0,-7]],[[3364,1833],[-14,-2]],[[3364,1833],[1,-1]],[[3366,1832],[-2,1]],[[3366,1832],[1,0]],[[3367,1832],[-1,0]],[[3367,1832],[16,-2]],[[3365,1832],[1,0]],[[3366,1832],[-1,0]],[[3077,3365],[-1,-1]],[[2641,1569],[36,94]],[[2677,1663],[14,62]],[[2704,1766],[0,8]],[[2730,2109],[-30,76],[25,4]],[[2908,2340],[-10,-37],[-98,-93]],[[2831,1718],[-10,20]],[[2994,2538],[-72,-184]],[[2991,1726],[14,-7]],[[3028,2660],[-13,37]],[[3023,2901],[6,-43]],[[3023,1735],[43,-3]],[[3036,2721],[-41,51],[30,37]],[[3087,3064],[-13,18],[32,35],[-38,27],[4,28]],[[3077,2932],[15,7]],[[3080,3005],[2,21]],[[3148,3959],[-28,-64]],[[3422,1832],[-2,5]],[[3237,2033]],[[3091,3734],[-67,-76]],[[3979,3331],[117,-12]],[[2778,1770],[7,-10]],[[3036,2721]],[[3143,3060]],[[2713,1812]],[[2834,2037],[3,8]],[[3484,1904],[0,1]],[[3781,1901],[-13,4]],[[3491,3657],[-1,1]],[[3490,3657],[1,0]],[[3491,3657],[28,-5]],[[3520,3651],[7,-2]],[[3520,3651],[0,1],[-1,0],[1,-1]],[[3682,1929],[-1,0]],[[4066,1951]],[[4071,1944],[-1,-1]],[[4070,1943],[1,0]],[[2619,1498],[-1,0]],[[2641,1569],[51,155]],[[2692,1725],[26,37]],[[2718,1762],[3,4]],[[2723,1769],[1,-1],[0,-3],[-4,-4],[-2,1]],[[2718,1762],[-4,-1]],[[2721,1766],[-5,-1]],[[2721,1766],[3,2]],[[3811,1916],[-1,-1],[0,-1],[2,0],[-1,2]],[[3138,3054],[-3,1]],[[3645,1955],[0,-1]],[[3645,1955],[29,52]],[[3645,1955]],[[3645,1954],[1,0]],[[3646,1954],[-1,0]],[[3647,1944],[-1,10]],[[3647,1944],[1,-3]],[[3649,1942],[-2,2]],[[3649,1941],[3,0]],[[3652,1941],[-3,1]],[[3670,1941],[-18,0]],[[3887,1931],[-11,-3]],[[3971,1958],[-2,0]],[[3969,1957],[2,1]],[[3971,1958],[29,11]],[[4000,1969]],[[4000,1969]],[[4068,1946],[1,-1]],[[4071,1942],[25,-17]],[[3645,1954],[0,1],[0,-1]],[[3649,1942],[-1,-1],[1,0],[0,1]],[[3671,1940],[0,1],[-1,-1],[1,0]],[[4071,1944],[-1,-1],[1,0],[0,1]],[[3831,2204],[-2,-1]],[[3829,2202],[2,2]],[[3831,2204],[2,5]],[[3837,2218],[-4,-9]],[[4044,2154],[-57,18],[-35,-20],[-18,79],[-97,-13]],[[4050,2154],[-6,0]],[[4071,2153],[-21,1]],[[4072,2153],[-1,0]],[[4071,2153],[1,0]],[[4073,2152],[1,0]],[[4073,2153],[0,1],[-1,-1],[1,-1],[0,1]],[[4074,2152],[-1,1]],[[4081,2148],[-7,4]],[[4081,2148],[1,-1]],[[4082,2148],[-1,0]],[[4083,2147],[3,1]],[[4086,2148],[-2,0]],[[4094,2154],[-8,-6]],[[4094,2154],[2,1]],[[4096,2156],[-2,-2]],[[4084,2148],[-2,0],[1,-1]],[[4083,2147],[1,1]],[[2470,1554],[94,16],[52,-72]],[[2619,1499],[-3,-1]],[[2616,1498],[2,0]],[[2619,1499],[101,266]],[[2720,1765],[1,1]],[[2619,1498],[0,1]],[[2715,1765],[3,-3]],[[2716,1767],[0,-1]],[[2721,1766],[-5,-1]],[[2716,1766],[0,1]],[[2716,1767],[7,3]],[[2723,1770],[-2,-4]],[[2721,1766],[-1,-1]],[[2720,1765],[-2,-3]],[[2718,1762],[3,4]],[[2721,1766]],[[2721,1766],[3,2]],[[2736,1771],[-13,-1]],[[2619,1498],[-1,0],[-1,0],[1,-1],[1,1]],[[2716,1766],[-1,0],[0,-1],[1,0],[0,1]],[[3461,2016],[30,19]],[[3492,2036],[25,13]],[[3517,2049],[10,0]],[[3528,2050],[-7,0],[-4,-1]],[[3527,2049],[2,-1],[1,2],[-2,0],[-1,-1]],[[3529,2048],[4,-2]],[[3533,2046],[-3,3]],[[3533,2046],[43,-17]],[[3576,2029],[6,3]],[[3582,2032],[-6,-3]],[[3589,2035],[-6,-2]],[[3583,2033],[6,2]],[[3589,2035],[25,16]],[[3614,2051],[17,12]],[[3632,2063],[-1,0]],[[3632,2063],[16,-3]],[[3648,2060],[23,2]],[[3671,2062],[25,-1]],[[3696,2061],[8,-1]],[[4033,1962],[17,-8]],[[4050,1954],[-17,8]],[[4051,1954],[6,-1]],[[4057,1953],[-6,1]],[[4057,1953],[3,-1]],[[4060,1952],[5,-1]],[[4065,1952],[-5,0]],[[4032,1963],[0,-1],[1,0]],[[4033,1962],[0,2],[-1,-1]],[[3307,3361],[0,-1]],[[3490,3658],[0,-1]],[[3490,3657]],[[3490,3657],[0,1],[0,-1]],[[3490,3657]],[[3873,1927],[-10,0]],[[2897,1743],[-28,13]],[[2992,1802],[11,6]],[[3005,1809],[46,-2]],[[3052,1807],[47,-3]],[[3100,1804]],[[3100,1804],[33,10]],[[3133,1815],[-33,-11]],[[3139,1817],[-5,-2]],[[3134,1815],[5,2]],[[3139,1817],[47,17]],[[3191,1835],[-5,-1]],[[3186,1834],[5,0]],[[3192,1834],[32,-1]],[[3224,1833],[-32,1]],[[3245,1840],[-20,-6]],[[3225,1833],[20,7]],[[3245,1840],[54,24]],[[3299,1864],[11,-2]],[[3311,1863],[-12,1]],[[3313,1863],[-2,0]],[[3312,1862],[1,1]],[[3337,1866],[-24,-3]],[[3339,1867],[-2,-1]],[[3337,1866],[2,0]],[[3341,1865],[2,1]],[[3343,1866],[-2,1]],[[3343,1866],[16,9]],[[3360,1875],[-1,0]],[[3359,1875],[1,-1]],[[3361,1874],[25,2]],[[3386,1877],[-25,-2]],[[3386,1877]],[[3386,1877]],[[3386,1877]],[[3387,1887],[-1,-10]],[[3386,1877],[2,10]],[[3388,1887],[15,4]],[[3403,1891],[-15,-3]],[[3402,1888],[-3,-1]],[[3403,1891],[6,12]],[[3409,1903],[19,48]],[[3428,1952],[-19,-49]],[[3429,1952]],[[3429,1952]],[[3429,1952],[0,1]],[[3004,1809],[-1,-1],[2,0],[0,1],[-1,0]],[[3051,1808],[0,-1],[0,-1],[1,1]],[[3052,1807],[-1,1]],[[3133,1814],[1,0],[0,1]],[[3134,1815],[-1,0],[0,-1]],[[3191,1835],[0,-1]],[[3191,1834],[1,0],[-1,1]],[[3341,1865],[0,2]],[[3341,1867],[-2,0],[0,-2],[2,0]],[[3360,1875],[0,-1],[1,0],[0,1]],[[3361,1875],[-1,0]],[[3387,1888],[1,-1],[0,1],[-1,0]],[[3428,1951],[1,0],[0,1]],[[3429,1952],[0,1],[0,-1]],[[3429,1952],[-1,0],[0,-1]],[[2728,1784],[-4,-2]],[[2779,1777],[0,-1]],[[3287,1838],[3,-1]],[[3887,1931],[1,0]],[[3909,1938],[60,19]],[[3968,1958],[0,-1],[1,0],[0,1],[-1,0]],[[3777,1982],[1,-1]],[[3778,1982],[0,6]],[[3780,1990],[-1,-1]],[[2724,1768],[12,3]],[[2740,1771],[86,6]],[[2889,1741],[-62,36]],[[2901,1741],[-8,-1]],[[2902,1741],[34,17]],[[2937,1758],[23,27]],[[2961,1786],[31,16]],[[3093,1804],[7,0]],[[2901,1740],[1,0],[0,1],[-1,0],[0,-1]],[[2936,1758],[0,-1],[1,0],[0,1]],[[2937,1758],[-1,0]],[[2960,1786],[0,-1],[1,0],[-1,1]],[[3090,1802],[1,0]],[[2728,1784],[13,8]],[[2692,1724],[0,1]],[[2715,1765],[-1,-4]],[[3398,1876],[3,6]],[[3401,1882],[2,2]],[[3402,1884],[-1,-2]],[[3405,1819],[12,0]],[[3417,1819],[5,13]],[[3418,1839],[-1,-20]],[[3420,1837],[-2,2]],[[3109,1737],[114,50]],[[3223,1787],[64,51]],[[3398,1876],[20,-37]],[[3413,1877],[0,-1]],[[3415,1876],[16,-1]],[[3431,1876],[52,28]],[[3484,1905],[-1,-1]],[[3483,1904],[1,0]],[[3431,1875],[0,1]],[[3431,1876],[0,1],[-1,-1],[1,-1]],[[3158,3868],[-10,91]],[[3158,3868],[0,-2]],[[3158,3865],[0,-1]],[[3158,3866],[0,2]],[[3158,3864],[0,1]],[[3172,3797],[-14,67]],[[3172,3797],[10,-8]],[[3258,3722],[-76,67]],[[3158,3865],[0,1],[-1,0],[1,-1]],[[2716,1788],[-3,24]],[[2713,1812],[121,225]],[[2726,1771],[-6,10]],[[2837,2045],[-71,89]],[[2769,2153],[31,57]],[[3704,2060],[6,-3]],[[4001,1969],[13,-1]],[[4014,1968],[-13,2]],[[4014,1968],[2,0]],[[4021,1968],[-5,0]],[[4016,1968],[5,-1]],[[4021,1967],[12,-5]],[[4032,1963],[-10,5]],[[4021,1968],[0,-1],[1,1],[-1,0]],[[2470,1554],[95,16],[51,-72]],[[2619,1499],[22,70]],[[2716,1767],[0,-1]],[[2716,1766],[0,1]],[[2716,1767],[10,4]],[[2716,1766],[-1,0],[0,-1],[1,0],[0,1]],[[3728,1920],[-19,-3]],[[3711,1916],[17,3]],[[3811,1918],[-1,-2]],[[3816,1942],[-5,-24]],[[3812,1915],[-1,3]],[[3848,1966],[1,0]],[[3849,1966],[-1,0]],[[3850,1965],[-1,1]],[[3850,1965],[1,-2]],[[3852,1964],[-2,1]],[[3851,1962],[1,1]],[[3851,1963],[0,-1]],[[3851,1962],[2,-11]],[[3853,1951],[0,-3]],[[3854,1951],[-1,0]],[[3853,1948],[1,2]],[[3863,1927],[-10,21]],[[3862,1926],[3,0]],[[3864,1926],[1,0]],[[3865,1926],[11,2]],[[3852,1964],[-1,0],[0,-1],[1,0],[0,1]],[[3854,1951],[0,-1]],[[3854,1950],[1,1],[-1,0]],[[3781,1901],[29,3]],[[3823,1987],[-7,-44]],[[3938,3614],[19,-174],[32,-47],[-46,-183],[18,-265]],[[3960,2944],[-14,-34],[19,-39]],[[3961,2944],[0,1],[-1,0],[0,-1]],[[3960,2944],[1,0]],[[3087,3390],[0,-3]],[[3201,2039],[87,-50],[93,75],[156,40],[107,36],[62,-28],[7,0],[17,3],[88,7],[10,-2],[67,-56]],[[3895,2065],[-39,38],[-20,14],[-8,3],[-10,2],[-82,-5],[-25,-5],[-67,28],[-57,-18],[-52,-19],[-54,-8],[-100,-31],[-93,-75],[-87,50]],[[3933,2053],[163,-28]],[[4096,2026],[-163,27]],[[3024,3658],[102,-1]],[[4096,4096],[0,-2323],[-4,-1],[-126,48],[-6,-6],[-155,86],[-124,23],[-136,-11],[-43,-12],[-39,-27],[-92,-100],[-178,0],[-35,-10],[-76,-48],[-38,-17],[-44,-3],[-68,-19],[-64,-57],[-58,23],[-52,-53],[-24,-18],[-31,-11],[-58,-50],[-30,-12],[-44,17],[-32,32],[-32,20],[-43,-19],[20,103],[16,50],[14,22],[113,181],[43,100],[39,87],[-26,108],[52,50],[68,70],[42,162],[-23,64],[-23,57],[47,93],[82,92],[15,88],[51,122],[34,164],[18,98],[7,167],[-17,87],[-28,58],[-39,46],[-6,48],[40,161],[13,100],[26,93],[38,19],[84,15],[7,43],[925,0]],[[3007,2410],[37,77],[5,112],[41,7],[64,57],[66,0],[61,57],[2,48],[-80,107],[22,94],[-35,21],[11,31],[-22,-1],[134,226],[71,5],[118,58],[-4,77],[36,29],[76,-41],[80,17],[30,-23],[-16,-49],[26,-119],[-24,-197],[259,-132],[131,-21],[0,-342],[-22,7],[-23,-80],[-91,-97],[-68,60],[-114,-31],[22,30],[-38,119],[-40,6],[0,34],[-121,-43],[-63,10],[16,11],[-20,32],[-87,7],[-27,-44],[3,-143],[-39,-87],[-30,-23],[4,14],[-4,18],[-34,-53],[-51,79],[12,-49],[-84,28],[-82,-41],[-25,44],[-39,12],[-44,82]],[[3945,2079],[-93,-205],[-151,45],[52,104],[192,56]],[[2400,1552],[122,296],[64,59],[71,162],[-22,143],[74,53],[82,184],[-39,91],[0,125],[159,248],[57,187],[35,321],[-86,240],[80,420],[-7,15],[292,0],[35,-25],[53,25],[84,0],[4,-13],[-30,-15],[41,-180],[46,-109],[29,4],[4,-53],[-46,-60],[26,-23],[-31,-17],[-25,23],[-77,-26],[-133,89],[-59,-47],[30,-195],[74,-114],[-33,-33],[-7,-94],[-97,-76],[-18,-52],[16,-42],[-38,-9],[3,-84],[-90,-126],[-8,-121],[35,-89],[-29,-119],[-115,-294],[-71,-45],[30,-47],[-14,-57],[-21,20],[-29,-105],[-108,-175],[15,-40],[109,9],[54,-42],[88,63],[121,2],[20,-152],[-57,-20],[-79,10],[-97,-77],[-73,-3],[-106,-131],[-102,-52],[-55,27],[-19,75],[-84,6],[-48,65]]]}