{"objects":{"water":{"type":"GeometryCollection","geometries":[{"type":"Polygon","properties":{"source":"naturalearthdata.com","kind":"ocean","area":1576712559132672,"sort_rank":200,"min_zoom":0.0,"id":1},"arcs":[[259]]},{"type":"LineString","properties":{"source":"naturalearthdata.com","kind":"ocean","sort_rank":205,"boundary":true,"min_zoom":0.0,"id":47},"arcs":[260]}]},"buildings":{"type":"GeometryCollection","geometries":[]},"places":{"type":"GeometryCollection","geometries":[{"type":"Point","properties":{"name:kg":"Repubilika ya Kongo","name:ka":"\u10d9\u10dd\u10dc\u10d2\u10dd","name:ko":"\ucf69\uace0 \uacf5\ud654\uad6d","name:cv":"\u041a\u043e\u043d\u0433\u043e \u0420\u0435\u0441\u043f\u0443\u0431\u043b\u0438\u043a\u0438","name:km":"\u1780\u17bb\u1784\u17a0\u17d2\u1782\u17c4 [\u179f\u1792\u17b6\u179a\u178e\u17c8\u179a\u178a\u17d2\u178b]","name:kl":"Kongo-Brazzaville","name:cs":"Republika Kongo","name:ki":"Kongo","name:kw":"Repoblek Kongo","name:tk":"Kongo Respublikasy","name:ku":"Komara Kongoy\u00ea","name:ti":"\u12ae\u1295\u1310","name:ks":"\u06a9\u0648\u0646\u065b\u06af\u0648 \u0628\u0654\u0631\u065b\u0632\u0627\u0648\u0650\u0644\u06cc","name:to":"Lipapilika Kongo","name:tl":"Republika ng Konggo","name:ce":"\u0420\u0435\u0441\u043f\u0443\u0431\u043b\u0438\u043a\u0430 \u041a\u043e\u043d\u0433\u043e","name:ta":"\u0b95\u0bbe\u0b99\u0bcd\u0b95\u0bcb [\u0b95\u0bc1\u0b9f\u0bbf\u0baf\u0bb0\u0b9a\u0bc1]","name:tg":"\u04b6\u0443\u043c\u04b3\u04ef\u0440\u0438\u0438 \u041a\u043e\u043d\u0433\u043e","name:ca":"Rep\u00fablica del Congo","name:te":"\u0c15\u0c3e\u0c02\u0c17\u0c4b[\u0c17\u0c23\u0c30\u0c3e\u0c1c\u0c4d\u0c2f\u0c02]","name:cy":"Gweriniaeth y Congo","name:hr":"Republika Kongo","name:da":"Republikken Congo","name:de":"Republik Kongo","name:dz":"\u0f62\u0f72\u0f0b\u0f54\u0f56\u0f0b\u0f63\u0f72\u0f40\u0f0b \u0f68\u0f7c\u0f55\u0f0b \u0f40\u0f7c\u0f44\u0f0b\u0f42\u0fb7\u0f7c","source":"openstreetmap.org","name:kn":"\u0c95\u0ccb\u0c82\u0c97\u0ccb [\u0c97\u0ca3\u0cb0\u0cbe\u0c9c\u0ccd\u0caf]","name:dv":"\u0786\u07ae\u0782\u07b0\u078e\u07af (\u0796\u07aa\u0789\u07b0\u0780\u07ab\u0783\u07a8\u0787\u07b0\u0794\u07a7)","name:lv":"Kongo","name:lt":"Kongo Respublika","name:uz":"Kongo Respublikasi","name:kk":"\u041a\u043e\u043d\u0433\u043e \u0420\u0435\u0441\u043f\u0443\u0431\u043b\u0438\u043a\u0430\u0441\u044b","name:ur":"\u06a9\u0627\u0646\u06af\u0648 [\u062c\u0645\u06c1\u0648\u0631\u06cc\u06c1]","name:lb":"Republik Kongo","name:la":"Respublica Congensis","name:lg":"Kongo","name:uk":"\u0420\u0435\u0441\u043f\u0443\u0431\u043b\u0456\u043a\u0430 \u041a\u043e\u043d\u0433\u043e","name:ug":"\u0643\u0648\u0646\u06af\u0648 \u062c\u06c7\u0645\u06be\u06c7\u0631\u0649\u064a\u0649\u062a\u0649","name:li":"Rippebliek vaan de Kongo","name:ln":"Republiki ya Kong\u00f3","name:lo":"\u0e84\u0ead\u0e87\u0ec2\u0e81","name:el":"\u0394\u03b7\u03bc\u03bf\u03ba\u03c1\u03b1\u03c4\u03af\u03b1 \u03c4\u03bf\u03c5 \u039a\u03bf\u03bd\u03b3\u03ba\u03cc","name:eo":"Respubliko Kongo","name:en":"Republic of the Congo","name":"R\u00e9publique du Congo","name:ee":"Kongo rep\u0254blik nutome","name:th":"\u0e2a\u0e32\u0e18\u0e32\u0e23\u0e13\u0e23\u0e31\u0e10\u0e04\u0e2d\u0e07\u0e42\u0e01","name:eu":"Kongo [errepublika]","name:et":"Kongo Vabariik","name:es":"Rep\u00fablica del Congo","name:ia":"Congo","name:rm":"Congo","name:rn":"Kongo","name:az":"Konqo - Brazavil","name:ie":"Republic de Congo","name:id":"Republik Kongo","name:ar":"\u062c\u0645\u0647\u0648\u0631\u064a\u0629 \u0627\u0644\u0643\u0648\u0646\u063a\u0648 \u0627\u0644\u062f\u064a\u0645\u0642\u0631\u0627\u0637\u064a\u0629","name:io":"Republiko Kongo","name:ak":"Kongo","name:am":"\u12ae\u1295\u130e (\u122a\u1350\u1265\u120a\u12ad)","name:it":"Repubblica del Congo","name:an":"Republica d'o Congo","name:ru":"\u041a\u043e\u043d\u0433\u043e","name:rw":"Kongo","name:af":"Republiek van die Kongo","name:zu":"e-Congo [Republic]","name:zh-yue":"\u525b\u679c","name:zh":"\u521a\u679c\u5171\u548c\u56fd","name:so":"Kongo","name:sn":"Kongo","name:sl":"Kongo","name:sk":"Republika Kongo","name:ja":"\u30b3\u30f3\u30b4\u5171\u548c\u56fd","name:si":"\u0d9a\u0ddc\u0d82\u0d9c\u0ddd\u0dc0","name:sh":"Republika Kongo","name:sg":"Kong\u00f6","name:se":"Kongo-Brazzaville","name:sc":"Rep\u00f9brica de su Congo","name:br":"Republik Kongo","name:bs":"Republika Kongo","name:bm":"Kongo","name:bn":"\u0995\u0999\u09cd\u0997\u09cb [\u09aa\u09cd\u09b0\u099c\u09be\u09a4\u09a8\u09cd\u09a4\u09cd\u09b0]","name:bo":"\u0f40\u0f7c\u0f44\u0f0b\u0f42\u0f7c\u0f0b\u0f66\u0fa4\u0fb1\u0f72\u0f0b\u0f58\u0f50\u0f74\u0f53\u0f0b\u0f62\u0f92\u0fb1\u0f63\u0f0b\u0f41\u0f56\u0f0d","name:sw":"Kongo [Jamhuri ya]","name:be":"\u0420\u044d\u0441\u043f\u0443\u0431\u043b\u0456\u043a\u0430 \u041a\u043e\u043d\u0433\u0430","name:su":"R\u00e9publik Kongo","name:bg":"\u041a\u043e\u043d\u0433\u043e [\u0420\u0435\u043f\u0443\u0431\u043b\u0438\u043a\u0430]","name:ss":"Tibuse weKhongo","name:ba":"\u0420\u0435\u0441\u043f\u0443\u0431\u043b\u0438\u043a\u0430 \u041a\u043e\u043d\u0433\u043e","name:sq":"Kongo","name:jv":"Republik Kongo","name:pt":"Congo","name:ps":"\u062f \u06a9\u0627\u0646\u06ab\u0648 \u062c\u0645\u0647\u0648\u0631\u064a\u062a","name:oc":"Republica de C\u00f2ngo","min_zoom":2.0,"name:ro":"Republica Congo","name:zh-min-nan":"Congo Ki\u014dng-h\u00f4-kok","name:os":"\u041a\u043e\u043d\u0433\u043e\u0439\u044b \u0420\u0435\u0441\u043f\u0443\u0431\u043b\u0438\u043a\u00e6","name:or":"\u0b15\u0b19\u0b4d\u0b17\u0b4b-\u0b2c\u0b4d\u0b30\u0b3e\u0b1c\u0b3f\u0b2d\u0b3f\u0b32\u0b4d\u0b32\u0b47","name:pl":"Kongo","name:sr":"\u0420\u0435\u043f\u0443\u0431\u043b\u0438\u043a\u0430 \u041a\u043e\u043d\u0433\u043e","name:pa":"\u0a15\u0a3e\u0a02\u0a17\u0a4b \u0a17\u0a23\u0a30\u0a3e\u0a1c","name:tr":"Kongo Cumhuriyeti","name:hi":"\u0915\u093e\u0902\u0917\u094b \u0917\u0923\u0930\u093e\u091c\u094d\u092f","name:sv":"Kongo","name:he":"\u05e7\u05d5\u05e0\u05d2\u05d5","name:ha":"Kongo","name:hy":"\u053f\u0578\u0576\u0563\u0578","name:ht":"Kongo (Brazavil)","name:hu":"Kong\u00f3","name:qu":"Kungu Republika","population":3999000,"kind":"country","name:ts":"Riphabliki ya Congo","name:is":"Vestur-Kong\u00f3","name:yi":"\u05e8\u05e2\u05e4\u05d5\u05d1\u05dc\u05d9\u05e7 \u05e4\u05d5\u05df \u05e7\u05d0\u05e0\u05d2\u05d0","name:yo":"Or\u00edl\u1eb9\u0301\u00e8de K\u00f3ng\u00f2","name:mt":"Kongo","alt_name:eo":"Kongo Brazavila","name:ms":"Congo [Republik]","name:mr":"\u0915\u093e\u0901\u0917\u094b [\u092a\u094d\u0930\u091c\u093e\u0938\u0924\u094d\u0924\u093e\u0915]","name:my":"\u1000\u103d\u1014\u103a\u1002\u102d\u102f\u101e\u1019\u1039\u1019\u1010\u1014\u102d\u102f\u1004\u103a\u1004\u1036","int_name":"Republic of the Congo","name:mg":"K\u00f4ng\u00f4","name:ml":"\u0d15\u0d4b\u0d02\u0d17\u0d4b [\u0d31\u0d3f\u0d2a\u0d4d\u0d2a\u0d2c\u0d4d\u0d32\u0d3f\u0d15\u0d4d\u0d15\u0d4d]","name:vi":"C\u1ed9ng h\u00f2a Congo","name:mn":"\u0411\u04af\u0433\u0434 \u041d\u0430\u0439\u0440\u0430\u043c\u0434\u0430\u0445 \u041a\u043e\u043d\u0433\u043e","id":432425063,"name:mk":"\u041a\u043e\u043d\u0433\u043e [\u0420\u0435\u043f\u0443\u0431\u043b\u0438\u043a\u0430]","name:vo":"Kongo\u00e4n (Rep\u00fcblik\u00e4n)","name:fa":"\u062c\u0645\u0647\u0648\u0631\u06cc \u06a9\u0646\u06af\u0648","name:ff":"Konngo","name:fi":"Kongon tasavalta","name:fo":"Kongo-Brazzaville","name:fy":"Republyk de Kongo","name:nl":"Republiek Congo","name:nn":"Kongo-Brazzaville","name:no":"Republikken Kongo","name:na":"Ripubrikin Kongo","name:ne":"\u0915\u0919\u094d\u0917\u094b [\u0917\u0923\u0924\u0928\u094d\u0924\u094d\u0930]","name:wo":"Kong\u00f3o-Brasaawiil","name:nv":"K\u00e9yah K\u00e1ango N\u00e1hook\u01ebsj\u00ed Si\u02bc\u00e1n\u00edg\u00ed\u00ed","name:ga":"Poblacht an Chong\u00f3","name:gd":"A' Chongo","name:gl":"Congo [Rep\u00fablica]","name:gv":"Pobblaght ny Congo","name:gu":"\u0a95\u0acb\u0a82\u0a97\u0acb [\u0aaa\u0acd\u0ab0\u0a9c\u0abe\u0ab8\u0aa4\u0acd\u0aa4\u0abe\u0a95]","name:tt":"\u041a\u043e\u043d\u0433\u043e \u0496\u04e9\u043c\u04bb\u04af\u0440\u0438\u044f\u0442\u0435"},"coordinates":[3198,3566]},{"type":"Point","properties":{"name:kg":"Ngabu","name:pt":"Gab\u00e3o","name:ps":"\u06ab\u0627\u0628\u0646","name:ka":"\u10d2\u10d0\u10d1\u10dd\u10dc\u10d8","name:ko":"\uac00\ubd09","name:cv":"\u0413\u0430\u0431\u043e\u043d","name:km":"\u17a0\u17d2\u1782\u17b6\u1794\u17bb\u1784","name:kk":"\u0413\u0430\u0431\u043e\u043d","name:ki":"Gaboni","name:th":"\u0e1b\u0e23\u0e30\u0e40\u0e17\u0e28\u0e01\u0e32\u0e1a\u0e2d\u0e07","name:ti":"\u130b\u1266\u1295","name:ks":"\u06af\u06cc\u0628\u0627\u0646","name:to":"Kaponi","name:pa":"\u0a17\u0a2c\u0a3e\u0a28","name:os":"\u0413\u0430\u0431\u043e\u043d","name:or":"\u0b17\u0b3e\u0b2c\u0b4b\u0b28\u0b4d","name:ce":"\u0413\u0430\u0431\u043e\u043d","name:ta":"\u0b95\u0bc7\u0baa\u0bbe\u0ba9\u0bcd","name:tg":"\u0413\u0430\u0431\u043e\u043d","name:te":"\u0c17\u0c47\u0c2c\u0c28\u0c4d","name:qu":"Gabun","name:de":"Gabun","name:dz":"\u0f42\u0fb7\u0f0b\u0f56\u0fb7\u0f7c\u0f53","source":"openstreetmap.org","name:nv":"Gab\u01eb\u0301\u01eb\u0301","name:kn":"\u0c97\u0cc6\u0cac\u0cca\u0ca8\u0ccd","name:dv":"\u078e\u07ac\u0784\u07af\u0782\u07b0","name:lv":"Gabona","name:lt":"Gabonas","name:hi":"\u0917\u0948\u092c\u0949\u0928","name:he":"\u05d2\u05d1\u05d5\u05df","kind":"country","name:ur":"\u06af\u06cc\u0628\u0648\u0646","name:lb":"Gabun","name:la":"Gabonia","name:lg":"Gaboni","name:uk":"\u0413\u0430\u0431\u043e\u043d","name:hy":"\u0533\u0561\u0562\u0578\u0576","name:ug":"\u06af\u0627\u0628\u0648\u0646","name:ln":"Gab\u0254","name:lo":"\u0e81\u0eb2\u0e9a\u0ec9\u0ead\u0e99","population":1576665,"name:el":"\u0393\u03ba\u03b1\u03bc\u03c0\u03cc\u03bd","name:eo":"Gabono","name:ts":"Gaboni","name":"Gabon","name:ee":"Gab\u0254n nutome","min_zoom":2.0,"name:yi":"\u05d2\u05d0\u05d1\u05d0\u05df","name:es":"Gab\u00f3n","name:ml":"\u0d17\u0d3e\u0d2c\u0d4b\u0d7a","name:rm":"Gabun","name:rn":"Gabo","name:az":"Qabon","name:mr":"\u0917\u0945\u092c\u0949\u0928","name:ar":"\u063a\u0627\u0628\u0648\u0646","name:my":"\u1002\u102b\u1018\u103d\u1014\u103a\u1014\u102d\u102f\u1004\u103a\u1004\u1036","official_name":"R\u00e9publique Gabonaise","name:ak":"Gab\u0254n","name:am":"\u130b\u1266\u1295","name:an":"Gab\u00f3n","name:ru":"\u0413\u0430\u0431\u043e\u043d","name:mn":"\u0413\u0430\u0431\u043e\u043d","id":424311252,"name:mk":"\u0413\u0430\u0431\u043e\u043d","name:af":"Gaboen","name:zu":"i-Gabon","name:ff":"Gaboo","name:zh-yue":"\u52a0\u84ec","name:vo":"Gabun\u00e4n","name:zh":"\u52a0\u84ec","name:so":"Gaaboon","name:sr":"\u0413\u0430\u0431\u043e\u043d","name:ja":"\u30ac\u30dc\u30f3","name:si":"\u0d9c\u0dd0\u0db6\u0ddc\u0db1\u0dca","name:fa":"\u06af\u0627\u0628\u0646","name:sg":"Gab\u00f6on","name:na":"Gabun","name:sc":"Gab\u00f2n","name:ne":"\u0917\u093e\u0935\u094b\u0928","name:sa":"\u0917\u093e\u092c\u094b\u0928","name:bm":"Gab\u0254\u014b","name:bn":"\u0997\u09cd\u09af\u09be\u09ac\u09a8","name:bo":"\u0f42\u0f7a\u0f0b\u0f56\u0f7d\u0f53\u0f0d","name:sw":"Gaboni","name:be":"\u0413\u0430\u0431\u043e\u043d","name:bg":"\u0413\u0430\u0431\u043e\u043d","name:ss":"IGabhoni","name:ba":"\u0413\u0430\u0431\u043e\u043d","name:sq":"Gjabon","name:ga":"An Ghab\u00fain","name:wo":"Gabo\u014b","name:gl":"Gab\u00f3n","name:yo":"Or\u00edl\u1eb9\u0301\u00e8de Gabon","name:gu":"\u0a97\u0ac7\u0aac\u0aa8","name:tt":"\u0413\u0430\u0431\u043e\u043d"},"coordinates":[320,3440]},{"type":"Point","properties":{"source":"naturalearthdata.com","kind":"locality","name":"Kinshasa","country_capital":true,"population":7843000,"min_zoom":3.0,"id":7249},"coordinates":[2959,940]},{"type":"Point","properties":{"admin_level":"4","kind":"region","name":"Kouilou","source":"openstreetmap.org","kind_detail":"state","min_zoom":4.0,"id":4346448488},"coordinates":[2601,3474]},{"type":"Point","properties":{"admin_level":"4","kind":"region","name":"Cuvette","source":"openstreetmap.org","kind_detail":"state","min_zoom":4.0,"id":4353419567},"coordinates":[3575,3736]},{"type":"Point","properties":{"admin_level":"4","kind":"region","name":"Ogoou\u00e9-Lolo","source":"openstreetmap.org","kind_detail":"state","min_zoom":4.0,"id":4346466887},"coordinates":[907,3366]},{"type":"Point","properties":{"admin_level":"4","kind":"region","name":"Haut-Ogoou\u00e9","source":"openstreetmap.org","kind_detail":"state","min_zoom":4.0,"id":4868359907},"coordinates":[1704,2901]},{"type":"Point","properties":{"admin_level":"4","kind":"region","name":"Pointe-Noire","source":"openstreetmap.org","kind_detail":"state","min_zoom":4.0,"id":4353425738},"coordinates":[439,633]},{"type":"Point","properties":{"admin_level":"4","kind":"region","name":"Pool","source":"openstreetmap.org","kind_detail":"state","min_zoom":4.0,"id":4346447946},"coordinates":[2541,914]},{"type":"Point","properties":{"admin_level":"4","kind":"region","name":"Brazzaville","source":"openstreetmap.org","kind_detail":"state","min_zoom":4.0,"id":4346376546},"coordinates":[2961,982]},{"type":"Point","properties":{"kind":"region","name":"Cabinda","kind_detail":"state","name:eo":"Kabindo","source":"openstreetmap.org","min_zoom":4.0,"name:uk":"\u041a\u0430\u0431\u0456\u043d\u0434\u0430","name:ru":"\u041a\u0430\u0431\u0438\u043d\u0434\u0430","id":2702989692},"coordinates":[780,408]},{"type":"Point","properties":{"admin_level":"4","kind":"region","name":"Kinshasa","source":"openstreetmap.org","kind_detail":"state","min_zoom":4.0,"id":4346249291},"coordinates":[2980,945]},{"type":"Point","properties":{"admin_level":"4","kind":"region","name":"Niari","source":"openstreetmap.org","kind_detail":"state","min_zoom":4.0,"id":4353416372},"coordinates":[789,2096]},{"type":"Point","properties":{"admin_level":"4","kind":"region","name":"Plateaux","source":"openstreetmap.org","kind_detail":"state","min_zoom":4.0,"id":4353417307},"coordinates":[2779,2350]},{"type":"Point","properties":{"admin_level":"4","kind":"region","name":"L\u00e9koumou","source":"openstreetmap.org","kind_detail":"state","min_zoom":4.0,"id":4353417713},"coordinates":[1641,1703]},{"type":"Point","properties":{"admin_level":"4","kind":"region","name":"Bouenza","source":"openstreetmap.org","kind_detail":"state","min_zoom":4.0,"id":4353418068},"coordinates":[1564,969]},{"type":"Point","properties":{"source":"naturalearthdata.com","kind":"locality","name":"Brazzaville","country_capital":true,"population":1355000,"min_zoom":5.0,"id":7007},"coordinates":[2937,991]},{"type":"Point","properties":{"source":"naturalearthdata.com","kind":"locality","name":"Pointe-Noire","population":659084,"min_zoom":5.0,"id":6641},"coordinates":[459,617]},{"type":"Point","properties":{"source":"naturalearthdata.com","kind":"locality","name":"Kayes","population":62521,"min_zoom":5.0,"id":6579},"coordinates":[1478,1047]},{"type":"Point","properties":{"source":"naturalearthdata.com","kind":"locality","name":"Franceville","population":42967,"region_capital":true,"min_zoom":5.0,"id":6580},"coordinates":[1699,2905]}]},"transit":{"type":"GeometryCollection","geometries":[{"type":"LineString","properties":{"kind":"train","name:en":"Trans-Gabon Railway","name":"Transgabonais","sort_rank":275,"name:de":"Trans-Gabun-Eisenbahn","source":"openstreetmap.org","min_zoom":6.0,"operator":"SETRAG","osm_relation":true},"arcs":[206]},{"type":"MultiLineString","properties":{"kind":"train","network":"Chemin de fer urbain de Kinshasa","sort_rank":275,"source":"openstreetmap.org","min_zoom":6.0,"operator":"ONATRA","osm_relation":true,"name":"Ligne urbaine de l'A\u00e9roport"},"arcs":[[207],[208],[209],[210],[211]]},{"type":"LineString","properties":{"source":"openstreetmap.org","kind":"train","name":"Tunnel du Bamba","sort_rank":275,"min_zoom":6.0,"operator":"CFCO","id":323404302},"arcs":[212]},{"type":"MultiLineString","properties":{"kind":"train","name":"Congo-Oc\u00e9an","sort_rank":275,"source":"openstreetmap.org","min_zoom":6.0,"operator":"CFCO","osm_relation":true,"network":"Congo-Oc\u00e9an"},"arcs":[[213],[214],[215],[216],[217],[218],[219],[220],[221],[222],[223],[224],[225],[226],[227],[228],[229],[230],[231]]},{"type":"MultiLineString","properties":{"kind":"train","network":"Chemin de fer urbain de Kinshasa","sort_rank":275,"source":"openstreetmap.org","min_zoom":6.0,"operator":"ONATRA","osm_relation":true,"name":"Ligne urbaine de Kintambo"},"arcs":[[232],[233],[234],[235]]},{"type":"MultiLineString","properties":{"kind":"train","network":"Chemin de fer urbain de Kinshasa","sort_rank":275,"source":"openstreetmap.org","min_zoom":6.0,"operator":"ONATRA","osm_relation":true,"name":"Ligne urbaine de Kazangulu"},"arcs":[[236],[237],[238],[239]]},{"type":"MultiLineString","properties":{"kind":"train","network":"CFMK","sort_rank":275,"source":"openstreetmap.org","min_zoom":6.0,"operator":"ONATRA","osm_relation":true,"name":"Matadi-Kinshasa"},"arcs":[[240],[241],[242],[243]]},{"type":"LineString","properties":{"kind":"train","network":"Congo-Oc\u00e9an","sort_rank":275,"source":"openstreetmap.org","min_zoom":6.0,"operator":"CFCO","id":-1789172,"osm_relation":true,"name":"COMILOG"},"arcs":[244]},{"type":"MultiLineString","properties":{"source":"openstreetmap.org","kind":"train","name":"Congo - Oc\u00e9an","sort_rank":275,"min_zoom":6.0,"operator":"CFCO"},"arcs":[[245],[246],[247],[248],[249],[250],[251]]},{"type":"MultiLineString","properties":{"source":"openstreetmap.org","kind":"train","name":"Congo - Oc\u00e9an","sort_rank":275,"type":"route","min_zoom":6.0,"operator":"CFCO"},"arcs":[[252],[253]]},{"type":"MultiLineString","properties":{"kind":"train","name":"Comilog","sort_rank":275,"source":"openstreetmap.org","min_zoom":6.0,"operator":"CFCO","ref":"Congo-Oc\u00e9an","osm_relation":true},"arcs":[[254],[255]]},{"type":"LineString","properties":{"kind":"train","network":"CFMK","sort_rank":275,"source":"openstreetmap.org","min_zoom":6.0,"operator":"ONATRA","id":-1549126,"osm_relation":true,"name":"Mbanza-Ngungu - Marchal"},"arcs":[256]},{"type":"LineString","properties":{"layer":1.0,"name":"Congo - Oc\u00e9an","sort_rank":275,"kind":"train","source":"openstreetmap.org","min_zoom":6.0,"operator":"CFCO","type":"route","id":324589991},"arcs":[257]},{"type":"LineString","properties":{"kind":"train","network":"Chemins de fer vicinaux du Mayombe","sort_rank":275,"source":"openstreetmap.org","min_zoom":6.0,"operator":"SNCC","type":"route","name":"Boma - Tshela"},"arcs":[258]}]},"pois":{"type":"GeometryCollection","geometries":[]},"boundaries":{"type":"GeometryCollection","geometries":[{"type":"MultiLineString","properties":{"source":"naturalearthdata.com","kind":"country","sort_rank":262,"kind_detail":"2","min_zoom":0.0,"id":276},"arcs":[[0],[1],[2],[3],[4],[5],[6],[7],[8],[9],[10],[11],[12],[13],[14],[15],[16],[17],[18],[19],[20],[21],[22],[23],[24],[25],[26],[27],[28],[29],[30],[31],[32],[33],[34],[35],[36],[37],[38],[39],[40],[41],[42],[43],[44]]},{"type":"MultiLineString","properties":{"source":"naturalearthdata.com","kind":"country","sort_rank":262,"kind_detail":"2","min_zoom":0.0,"id":42},"arcs":[[45],[46],[47],[48],[49],[50],[51],[52],[53],[54],[55],[56],[57],[58],[59],[60],[61],[62],[63]]},{"type":"MultiLineString","properties":{"source":"naturalearthdata.com","kind":"country","sort_rank":262,"kind_detail":"2","min_zoom":0.0,"id":135},"arcs":[[64],[65],[66],[67],[68],[69],[70],[71]]},{"type":"MultiLineString","properties":{"source":"naturalearthdata.com","kind":"country","sort_rank":262,"kind_detail":"2","min_zoom":0.0,"id":385},"arcs":[[72],[73],[74]]},{"type":"LineString","properties":{"source":"naturalearthdata.com","kind":"region","sort_rank":256,"kind_detail":"4","min_zoom":5.5,"id":3970},"arcs":[75]},{"type":"LineString","properties":{"source":"naturalearthdata.com","kind":"region","sort_rank":256,"kind_detail":"4","min_zoom":5.5,"id":3984},"arcs":[76]},{"type":"MultiLineString","properties":{"source":"naturalearthdata.com","kind":"region","sort_rank":256,"kind_detail":"4","min_zoom":5.5,"id":7748},"arcs":[[77],[78],[79],[80],[81],[82],[83]]},{"type":"MultiLineString","properties":{"source":"naturalearthdata.com","kind":"region","sort_rank":256,"kind_detail":"4","min_zoom":5.5,"id":7755},"arcs":[[84],[85],[86],[87],[88],[89],[90],[91],[92]]},{"type":"MultiLineString","properties":{"source":"naturalearthdata.com","kind":"region","sort_rank":256,"kind_detail":"4","min_zoom":5.5,"id":3977},"arcs":[[93],[94],[95],[96],[97]]},{"type":"LineString","properties":{"source":"naturalearthdata.com","kind":"region","sort_rank":256,"kind_detail":"4","min_zoom":5.5,"id":3975},"arcs":[98]},{"type":"LineString","properties":{"source":"naturalearthdata.com","kind":"region","sort_rank":256,"kind_detail":"4","min_zoom":5.5,"id":3976},"arcs":[99]},{"type":"LineString","properties":{"source":"naturalearthdata.com","kind":"region","sort_rank":256,"kind_detail":"4","min_zoom":5.5,"id":3980},"arcs":[100]},{"type":"MultiLineString","properties":{"source":"naturalearthdata.com","kind":"region","sort_rank":256,"kind_detail":"4","min_zoom":5.5,"id":3981},"arcs":[[101],[102],[103],[104],[105]]},{"type":"MultiLineString","properties":{"source":"naturalearthdata.com","kind":"region","sort_rank":256,"kind_detail":"4","min_zoom":5.5,"id":4398},"arcs":[[106],[107],[108],[109],[110],[111],[112]]},{"type":"MultiLineString","properties":{"source":"naturalearthdata.com","kind":"region","sort_rank":256,"kind_detail":"4","min_zoom":5.5,"id":4401},"arcs":[[113],[114],[115]]},{"type":"LineString","properties":{"source":"naturalearthdata.com","kind":"region","sort_rank":256,"kind_detail":"4","min_zoom":5.5,"id":4402},"arcs":[116]},{"type":"MultiLineString","properties":{"source":"naturalearthdata.com","kind":"region","sort_rank":256,"kind_detail":"4","min_zoom":5.5,"id":4403},"arcs":[[117],[118],[119]]},{"type":"MultiLineString","properties":{"source":"naturalearthdata.com","kind":"region","sort_rank":256,"kind_detail":"4","min_zoom":5.5,"id":7749},"arcs":[[120],[121],[122]]},{"type":"MultiLineString","properties":{"source":"naturalearthdata.com","kind":"region","sort_rank":256,"kind_detail":"4","min_zoom":5.5,"id":7750},"arcs":[[123],[124],[125],[126],[127],[128],[129],[130],[131],[132],[133],[134],[135],[136],[137],[138],[139],[140],[141],[142],[143],[144]]},{"type":"MultiLineString","properties":{"source":"naturalearthdata.com","kind":"region","sort_rank":256,"kind_detail":"4","min_zoom":5.5,"id":7751},"arcs":[[145],[146],[147],[148],[149],[150],[151],[152],[153],[154],[155],[156],[157],[158],[159]]},{"type":"MultiLineString","properties":{"source":"naturalearthdata.com","kind":"region","sort_rank":256,"kind_detail":"4","min_zoom":5.5,"id":7753},"arcs":[[160],[161],[162],[163],[164],[165],[166]]},{"type":"LineString","properties":{"source":"naturalearthdata.com","kind":"region","sort_rank":256,"kind_detail":"4","min_zoom":5.5,"id":7754},"arcs":[167]},{"type":"MultiLineString","properties":{"source":"naturalearthdata.com","kind":"region","sort_rank":256,"kind_detail":"4","min_zoom":5.5,"id":7756},"arcs":[[168],[169],[170],[171],[172],[173],[174],[175],[176],[177],[178],[179],[180],[181],[182],[183],[184]]},{"type":"MultiLineString","properties":{"source":"naturalearthdata.com","kind":"region","sort_rank":256,"kind_detail":"4","min_zoom":5.5,"id":7760},"arcs":[[185],[186],[187],[188],[189],[190],[191],[192],[193],[194],[195],[196],[197],[198],[199],[200]]},{"type":"MultiLineString","properties":{"source":"naturalearthdata.com","kind":"region","sort_rank":256,"kind_detail":"4","min_zoom":5.5,"id":7763},"arcs":[[201],[202],[203]]},{"type":"MultiLineString","properties":{"source":"naturalearthdata.com","kind":"region","sort_rank":256,"kind_detail":"4","min_zoom":5.5,"id":9789},"arcs":[[204],[205]]}]},"roads":{"type":"GeometryCollection","geometries":[{"type":"LineString","properties":{"source":"naturalearthdata.com","kind":"major_road","sort_rank":379,"kind_detail":"secondary","min_zoom":4.0,"id":41569},"arcs":[261]},{"type":"LineString","properties":{"source":"naturalearthdata.com","kind":"major_road","sort_rank":379,"kind_detail":"secondary","min_zoom":4.0,"id":41647},"arcs":[262]},{"type":"LineString","properties":{"source":"naturalearthdata.com","kind":"major_road","kind_detail":"secondary","sort_rank":379,"landuse_kind":"park","min_zoom":4.0,"id":41735},"arcs":[263]},{"type":"MultiLineString","properties":{"source":"naturalearthdata.com","kind":"major_road","sort_rank":379,"kind_detail":"secondary","min_zoom":4.0,"id":41735},"arcs":[[264],[265]]},{"type":"LineString","properties":{"source":"naturalearthdata.com","kind":"major_road","sort_rank":379,"kind_detail":"secondary","min_zoom":4.0,"id":41745},"arcs":[266]},{"type":"LineString","properties":{"source":"naturalearthdata.com","kind":"major_road","sort_rank":379,"kind_detail":"secondary","min_zoom":4.0,"id":41927},"arcs":[267]},{"type":"LineString","properties":{"source":"naturalearthdata.com","kind":"major_road","kind_detail":"secondary","sort_rank":379,"landuse_kind":"urban_area","min_zoom":4.0,"id":41965},"arcs":[268]},{"type":"LineString","properties":{"source":"naturalearthdata.com","kind":"major_road","sort_rank":379,"kind_detail":"secondary","min_zoom":4.0,"id":41965},"arcs":[269]},{"type":"LineString","properties":{"source":"naturalearthdata.com","kind":"minor_road","sort_rank":355,"kind_detail":"tertiary","min_zoom":5.0,"id":42035},"arcs":[270]},{"type":"LineString","properties":{"source":"naturalearthdata.com","kind":"major_road","sort_rank":379,"kind_detail":"secondary","min_zoom":4.0,"id":42114},"arcs":[271]},{"type":"LineString","properties":{"source":"naturalearthdata.com","kind":"major_road","sort_rank":379,"kind_detail":"secondary","min_zoom":3.0,"id":42123},"arcs":[272]},{"type":"LineString","properties":{"source":"naturalearthdata.com","kind":"minor_road","sort_rank":355,"kind_detail":"tertiary","min_zoom":5.0,"id":42409},"arcs":[273]},{"type":"LineString","properties":{"source":"naturalearthdata.com","kind":"major_road","sort_rank":379,"kind_detail":"secondary","min_zoom":3.0,"id":42410},"arcs":[274]},{"type":"LineString","properties":{"source":"naturalearthdata.com","kind":"major_road","sort_rank":379,"kind_detail":"secondary","min_zoom":3.0,"id":42522},"arcs":[275]},{"type":"LineString","properties":{"source":"naturalearthdata.com","kind":"major_road","sort_rank":379,"kind_detail":"secondary","min_zoom":3.0,"id":42534},"arcs":[276]},{"type":"LineString","properties":{"source":"naturalearthdata.com","kind":"major_road","kind_detail":"secondary","sort_rank":379,"landuse_kind":"urban_area","min_zoom":3.0,"id":42556},"arcs":[277]},{"type":"MultiLineString","properties":{"source":"naturalearthdata.com","kind":"major_road","sort_rank":379,"kind_detail":"secondary","min_zoom":3.0,"id":42556},"arcs":[[278],[279]]},{"type":"LineString","properties":{"source":"naturalearthdata.com","kind":"major_road","sort_rank":379,"kind_detail":"secondary","min_zoom":3.0,"id":42571},"arcs":[280]},{"type":"MultiLineString","properties":{"source":"naturalearthdata.com","kind":"major_road","kind_detail":"secondary","sort_rank":379,"landuse_kind":"urban_area","min_zoom":4.0,"id":42579},"arcs":[[281],[282]]},{"type":"MultiLineString","properties":{"source":"naturalearthdata.com","kind":"major_road","sort_rank":379,"kind_detail":"secondary","min_zoom":4.0,"id":42579},"arcs":[[283],[284]]},{"type":"LineString","properties":{"source":"naturalearthdata.com","kind":"minor_road","sort_rank":355,"kind_detail":"tertiary","min_zoom":5.0,"id":42606},"arcs":[285]},{"type":"LineString","properties":{"source":"naturalearthdata.com","kind":"major_road","sort_rank":379,"kind_detail":"secondary","min_zoom":3.0,"id":42620},"arcs":[286]},{"type":"LineString","properties":{"source":"naturalearthdata.com","kind":"major_road","kind_detail":"secondary","sort_rank":379,"landuse_kind":"urban_area","min_zoom":3.0,"id":42638},"arcs":[287]},{"type":"MultiLineString","properties":{"source":"naturalearthdata.com","kind":"major_road","sort_rank":379,"kind_detail":"secondary","min_zoom":3.0,"id":42638},"arcs":[[288],[289]]},{"type":"LineString","properties":{"source":"naturalearthdata.com","kind":"major_road","sort_rank":379,"kind_detail":"secondary","min_zoom":3.0,"id":42670},"arcs":[290]},{"type":"LineString","properties":{"source":"naturalearthdata.com","kind":"major_road","kind_detail":"secondary","sort_rank":379,"landuse_kind":"urban_area","min_zoom":3.0,"id":42705},"arcs":[291]},{"type":"LineString","properties":{"source":"naturalearthdata.com","kind":"major_road","kind_detail":"secondary","sort_rank":379,"landuse_kind":"urban_area","min_zoom":3.0,"id":42705},"arcs":[292]},{"type":"LineString","properties":{"source":"naturalearthdata.com","kind":"major_road","kind_detail":"secondary","sort_rank":379,"landuse_kind":"urban_area","min_zoom":3.0,"id":42705},"arcs":[293]},{"type":"MultiLineString","properties":{"source":"naturalearthdata.com","kind":"major_road","sort_rank":379,"kind_detail":"secondary","min_zoom":3.0,"id":42705},"arcs":[[294],[295],[296],[297]]},{"type":"LineString","properties":{"source":"naturalearthdata.com","kind":"major_road","sort_rank":379,"kind_detail":"secondary","min_zoom":3.0,"id":42822},"arcs":[298]},{"type":"LineString","properties":{"source":"naturalearthdata.com","kind":"minor_road","sort_rank":355,"kind_detail":"tertiary","min_zoom":6.0,"id":42824},"arcs":[299]},{"type":"LineString","properties":{"source":"naturalearthdata.com","kind":"major_road","sort_rank":379,"kind_detail":"secondary","min_zoom":4.0,"id":43171},"arcs":[300]},{"type":"LineString","properties":{"source":"naturalearthdata.com","kind":"major_road","kind_detail":"secondary","sort_rank":379,"landuse_kind":"urban_area","min_zoom":3.0,"id":48438},"arcs":[301]},{"type":"LineString","properties":{"source":"naturalearthdata.com","kind":"major_road","sort_rank":379,"kind_detail":"secondary","min_zoom":3.0,"id":48438},"arcs":[302]}]},"earth":{"type":"GeometryCollection","geometries":[{"type":"MultiPolygon","properties":{"sort_rank":10,"source":"naturalearthdata.com","min_zoom":0.0,"kind":"earth","area":1428099356914},"arcs":[[[303]]]}]},"landuse":{"type":"GeometryCollection","geometries":[{"type":"MultiPolygon","properties":{"source":"naturalearthdata.com","kind":"urban_area","name":"","area":1175079136,"sort_rank":11,"min_zoom":4.0},"arcs":[[[304]],[[305]],[[306]],[[307]],[[308]],[[309]],[[310]],[[311]]]},{"type":"MultiPolygon","properties":{"source":"openstreetmap.org","kind":"park","tier":2,"area":19311744078,"sort_rank":24,"min_zoom":4.0,"osm_relation":true},"arcs":[[[312]],[[313]],[[314]],[[315]]]},{"type":"Polygon","properties":{"kind":"park","area":983737024,"sort_rank":24,"source":"openstreetmap.org","min_zoom":6.0,"tier":2,"id":-402021,"osm_relation":true},"arcs":[[316]]},{"type":"Polygon","properties":{"source":"openstreetmap.org","kind":"park","area":1489049984,"tier":2,"id":48504392,"min_zoom":4.0,"sort_rank":24},"arcs":[[317]]}]}},"type":"Topology","transform":{"translate":[11.25,-5.6159858192],"scale":[0.001373291,0.0013710903]},"arcs":[[[1918,3903],[-5,3],[-33,40],[0,21],[8,18],[33,44],[9,12],[7,7],[8,9],[-1,8],[-3,8],[-2,11],[3,7],[4,5]],[[1990,3905],[-6,7],[-6,5],[-7,2],[-26,4]],[[1945,3923],[-5,-2],[-3,-5],[-2,-6],[-3,-3],[-10,-3],[-4,-1]],[[2119,3764],[-2,27],[-5,30],[-9,30],[-12,25],[-19,18],[-27,13],[-29,5]],[[2016,3912],[-26,-7]],[[2173,2378],[-5,24],[-55,46],[-3,25],[10,8],[25,9],[10,11],[0,5],[-5,13],[1,7],[4,4],[13,4],[5,5],[3,11],[4,38],[5,14],[1,8],[-4,6],[-6,4],[-3,4],[-1,5],[4,6],[0,9],[1,6],[4,6],[5,5],[85,33],[1,1],[20,10],[5,10],[-6,32],[1,6],[4,19],[3,58],[4,16],[9,10],[17,10],[-5,5],[-16,3],[-12,3],[-9,30],[-14,8],[-5,5],[7,6],[15,5],[6,4],[7,5],[5,7],[3,9],[5,6],[24,4],[-1,11],[-8,14],[-9,9],[9,21],[1,18],[3,7],[8,8],[9,6],[6,8],[-4,15],[-26,17],[-11,11],[-4,14],[2,8],[5,6],[6,4],[5,6],[4,8],[3,7],[3,16],[1,23],[-2,7],[-5,9],[-13,12],[-3,3],[-5,9],[0,6],[4,13],[1,6],[-3,9],[-7,15],[-21,58],[0,10],[8,16],[3,31],[4,17],[11,18],[13,14],[8,16],[-3,22],[-5,18],[0,18],[4,18],[30,64],[5,24],[-7,22],[-17,35],[-9,9],[-29,20],[-16,22],[-24,16],[-28,12],[-20,6]],[[2216,3778],[-13,-2],[-11,-6],[-11,-3]],[[2181,3767],[-12,2],[-13,6]],[[2156,3775],[-13,0],[-12,-4],[-12,-7]],[[1007,2765],[31,-13],[48,-35],[3,-2],[31,-10],[12,-9],[8,-17],[16,-53],[7,-16],[4,-5],[12,-11],[3,-5],[3,-16],[-2,-1],[0,-3],[0,-4],[1,-4],[14,-4],[-1,-4],[-2,-5],[-2,-3],[-3,-6],[-1,-4],[2,-5],[9,-10],[3,-5],[1,-7],[3,-13]],[[900,2692],[10,5],[3,8],[1,8],[1,6],[4,9],[4,5],[4,4],[36,24],[8,3],[36,1]],[[857,2722],[8,-2],[9,-9],[14,-15],[12,-4]],[[591,2335],[290,62],[-9,16],[6,23],[9,25],[5,21],[-5,31],[2,10],[5,11],[13,21],[3,13],[-28,13],[-15,23],[-7,29],[-6,79],[3,10]],[[1815,2567],[3,-1],[7,-6],[10,-10],[9,-13],[7,-16],[6,-30],[17,-34],[9,-13],[13,-14],[5,-7],[2,-20],[6,-6],[8,-3],[7,-6],[10,-13],[-3,-5],[-9,-5],[-10,-22],[-15,-8],[-5,-6],[-1,-28],[-1,-4],[12,-10],[17,-6],[18,-1]],[[1608,2316],[8,4],[3,6],[2,7],[4,7],[8,7],[23,16],[7,6],[10,13],[7,7],[9,4],[17,6],[8,5],[3,6],[2,16],[5,7],[55,54],[6,8],[3,8],[1,14],[2,8],[8,15],[15,23],[1,4]],[[1235,2504],[6,-6],[14,-22],[7,-9],[3,-19],[2,-6],[5,-6]],[[1207,2495],[10,0],[18,9]],[[1277,2436],[3,0],[2,-9],[-6,-6],[-4,-6],[-2,-7],[0,-7],[-2,-6],[-3,-6],[-3,-5],[-9,-7],[-3,-7],[2,-4]],[[1272,2436],[5,0]],[[501,2397],[8,-4],[13,-10],[25,-31],[22,-15],[22,-2]],[[368,2335],[13,7],[24,22],[16,7],[27,5],[30,10],[23,11]],[[232,2397],[27,-1],[37,-11],[10,-5],[4,-6],[3,-6],[6,-6],[24,-19],[13,-7],[12,-1]],[[204,2005],[-3,17],[7,28],[1,6],[53,86],[7,19],[4,15],[0,15],[-4,19],[-7,16],[-19,29],[-5,16],[-1,13],[6,40],[-3,16],[-16,42],[6,15],[2,0]],[[1293,2391],[18,-4],[47,-21],[15,-4]],[[1252,2366],[10,0],[8,9],[13,13],[10,3]],[[2170,2380],[3,-2]],[[2061,2273],[7,1],[4,5],[4,10],[4,13],[6,6],[7,6],[6,6],[-1,19],[4,7],[5,7],[14,12],[7,4],[7,3],[35,8]],[[1403,2373],[7,-1],[127,-47],[13,-2]],[[1373,2362],[8,2],[14,8],[8,1]],[[1594,2327],[5,-1],[6,-9],[3,-1]],[[1584,2324],[10,3]],[[1564,2326],[16,-2],[4,0]],[[1550,2323],[14,3]],[[1978,2294],[7,-5],[2,-13],[5,-4],[6,-1]],[[1937,2280],[15,3],[12,8],[7,3],[7,0]],[[2036,2283],[7,-1],[11,-6],[7,-3]],[[1998,2271],[33,11],[5,1]],[[350,1875],[17,2],[18,11],[0,16],[-11,17],[-55,59],[-25,36],[-12,14],[-15,4]],[[267,2034],[-21,-6],[-29,-21],[-13,-2]],[[340,1876],[10,-1]],[[428,1389],[2,1],[13,5],[16,12],[13,15],[5,17],[-5,15],[-14,8],[-17,5],[-15,9],[-7,15],[2,17],[41,99],[10,17],[32,24],[9,15],[-7,24],[-29,13],[-34,10],[-27,12],[-29,24],[-15,9],[-42,18],[-5,4],[-6,6],[-2,3],[1,4],[1,51],[4,12],[9,19],[8,4]],[[169,1537],[37,-6],[27,-20],[58,-94],[12,-13],[16,-6]],[[0,1421],[17,11],[21,18],[24,14],[30,6],[27,9],[17,21],[13,23],[20,14]],[[358,1403],[15,-1],[42,-12],[13,-1]],[[319,1398],[39,5]],[[4096,3192],[-9,-7],[-17,-10],[-4,-5],[-4,-5],[-8,-20],[-16,-30],[-12,-27],[-12,-17],[-27,-54],[-24,-32],[-17,-34],[-9,-15],[-15,-22],[-5,-12],[-4,-12],[-1,-8],[1,-25],[-5,-22],[-9,-18],[-58,-77],[-2,-2],[-4,-9],[-2,-10],[-4,-2],[-13,-9],[-11,-5],[-4,-2],[-7,-6],[-11,-14],[-46,-45],[-30,-24],[-41,-39],[-21,-14],[-18,-16],[-18,-23],[-8,-15],[-6,-17],[1,-17],[1,-5],[0,-5],[-9,-33],[-2,-12],[3,-11],[6,-10],[2,-4],[1,-7],[1,-35],[24,-175],[-15,-108],[-17,-52],[-2,-10],[-1,-10],[5,-43],[3,-26],[-3,-36],[4,-41],[-3,-40],[3,-12],[7,-13],[0,-17],[-4,-32],[3,-15],[9,-9],[9,-6],[3,-7],[-1,-17],[-3,-14],[-10,-22],[-36,-62],[-15,-39],[-16,-32],[-45,-55],[-30,-60],[-5,-17],[-11,-10],[-12,-35],[-23,-39],[-5,-6],[-4,-7],[-13,-43],[-18,-17],[-3,-4],[-29,-14],[-32,-10],[-32,-5],[-32,-5],[-106,-33],[-13,-6],[-11,-9],[-9,-13],[-22,-72],[-4,-6],[-16,-17],[-3,-5],[-6,-3],[-19,-9],[-28,-11],[-81,-40],[-14,-10],[-20,-8],[-18,-11],[-7,-14],[-4,-10],[-28,-38],[-38,-55],[-16,-15],[-39,-19],[-6,-8],[-4,-10],[-57,-55],[-59,-100],[-6,-12],[-7,-11],[-12,-9],[-34,-15],[-48,-30],[-22,-8],[-27,-2]],[[2294,532],[-3,22],[12,57],[-3,8],[-4,6],[-2,7],[-1,9],[2,7],[5,12],[2,7],[-3,19],[-8,11],[-11,10],[-11,14],[-6,28],[-6,16],[1,6],[6,10],[11,11],[28,11],[9,9],[8,12],[12,13],[10,15],[3,13],[-5,5],[-25,17],[-15,16],[-12,18],[-4,11],[-1,4],[3,4],[3,10],[1,10],[0,7],[-1,6],[-5,4]],[[2284,977],[-13,-1],[-32,-18],[-33,-7],[-14,-11],[-28,-24],[-27,-13],[-28,-9],[-64,-7],[-27,-11],[-22,-29],[-1,-2],[-1,-2],[-12,-8],[-12,-15],[-8,-5],[-7,0]],[[1912,820],[-6,2],[-8,7],[-11,19],[-6,9],[-17,10],[-14,2]],[[1850,869],[-47,-16],[-8,-5],[-3,-8],[8,-71],[-3,-14],[-11,-29],[-3,-16],[10,-31],[-5,-7]],[[1955,815],[-21,6],[-1,0]],[[1933,821],[-21,-1]],[[1560,533],[-15,32],[-6,25],[-3,9],[-7,7],[-11,6],[-44,15],[-13,9],[-35,30],[-19,12],[-7,7],[-9,24],[-13,19],[-6,11],[-16,19]],[[1356,758],[-18,-2],[-12,-16],[2,-25]],[[1788,672],[-5,1],[-6,2]],[[1777,675],[-6,-4],[-3,-8],[2,-13],[-4,-5],[-6,-1]],[[1760,644],[-17,5],[-7,0]],[[1736,649],[-15,-10],[-16,-29],[-8,-2],[-7,-3]],[[1690,605],[-9,4],[-14,15],[-10,4]],[[1657,628],[-8,-1],[-24,-14],[8,-6],[3,-6],[-2,-6],[-9,-4],[-37,-27],[-20,-25],[-8,-6]],[[2390,554],[-3,3],[-6,8],[-13,0]],[[2368,565],[-15,-3],[-8,-5],[-15,-16],[-9,-4],[-14,-3],[-13,-2]],[[2465,520],[-9,3],[-22,13],[-9,3],[-4,2],[-6,10],[-3,3],[-6,1]],[[2406,555],[-16,-1]],[[1139,877],[-10,3],[-13,7],[-5,3],[-10,3]],[[1101,893],[-18,-10],[-8,-17],[-6,-17],[-10,-12],[-13,-7],[-12,-10],[-10,-11],[-16,-30],[-8,-8],[-11,-4],[-81,-15],[-49,-16],[-11,-1]],[[1328,715],[-34,17],[-48,57],[-29,23],[-14,16],[-13,35],[-10,15],[-12,7]],[[1168,885],[-9,-1],[-8,-4],[-12,-3]],[[848,735],[-20,2]],[[828,737],[-7,-10],[1,-31],[-3,-16],[-31,-60],[-7,-9],[-11,-4],[-25,-2],[-11,-3],[-10,-4],[-7,-6]],[[717,592],[-9,17],[-6,9],[-7,4]],[[695,622],[-9,0],[-3,-4],[-22,-74],[-20,-31],[-82,-70],[-6,-8]],[[1328,715],[-6,-21],[-26,-9],[-143,-33],[-22,-13],[-12,-14],[-9,-15],[-4,-16],[-2,-17],[-7,-9],[-32,-19],[-11,-9],[-7,-16],[-1,-11],[-6,-9],[-17,-6],[-28,-2],[-7,-5],[-2,-14],[-12,-28],[-27,-17],[-61,-21],[-6,-1]],[[880,410],[-6,1]],[[874,411],[-4,-2],[-4,-7],[0,-6],[1,-8],[3,-7],[4,-4],[45,-16],[9,-6],[5,-24],[-3,-56],[-2,-63],[-3,-87],[-4,-91],[-1,-34]],[[42,4096],[-6,-22],[-12,-23],[-2,-7],[0,-7],[3,-6],[2,-3],[4,-4],[6,-2],[7,-1],[7,-2],[4,-4],[3,-6],[6,-24],[3,-33],[-3,-21],[0,-17],[2,-8],[2,-7],[4,-7],[37,-57],[4,-7],[2,-10],[1,-11],[-1,-19],[2,-11],[11,-37],[5,-8],[6,-7],[27,-23],[6,-7],[9,-13],[11,-23],[11,-59],[3,-8],[22,-46]],[[208,2050],[-51,66],[-59,60],[-57,47],[-41,46]],[[1024,1523],[-18,-16],[-7,-9],[-2,-5],[-1,-5],[-1,-8],[1,-13],[8,-37],[8,-20],[-1,-6],[-6,-12],[0,-12],[2,-5],[9,-20],[-2,-5],[-5,-4],[-5,-2],[-4,-3],[-5,-6],[-4,-7],[-5,-10],[2,-6],[5,-4],[21,-14],[12,-8],[5,-5],[17,-22],[26,-46],[39,-44],[5,-5],[33,-25],[15,-16],[9,-12],[14,-27],[25,-37],[52,-101],[8,-11],[3,-1],[4,0],[7,-3],[7,-5],[12,-14],[7,-6],[7,-3]],[[1333,904],[11,-2]],[[1321,903],[12,1]],[[1361,904],[5,-2],[5,-3],[6,-2],[5,-1]],[[1344,902],[6,0],[6,1],[5,1]],[[1393,897],[5,0],[11,-5],[6,-2],[5,0],[6,-1],[11,-4],[12,-1],[11,-6],[15,-14],[31,-43],[7,-13],[3,-11],[8,-9],[7,-13],[8,-10],[7,-8],[5,-6],[1,-5],[1,-13],[3,-8],[4,-5],[5,-4],[12,-2],[6,-2],[53,-36],[28,-14],[12,-8],[8,-6],[4,-5],[3,-6],[2,-5],[3,-22],[0,-2],[1,0]],[[1382,896],[11,1]],[[2076,2289],[7,-11],[7,-20],[21,-20],[3,-5],[1,-4],[-2,-3],[-3,-2],[-3,-1],[-10,-3],[-4,-4],[2,-5],[3,-5],[11,-7],[6,-3],[4,0]],[[2132,2202],[7,-5],[1,-5],[-2,-6],[-5,-4],[-10,-6],[-10,-9],[-9,-8],[-3,-4],[1,-5],[3,-5],[5,-4],[5,-2],[12,0],[6,-1],[6,-2],[7,-4],[7,-2]],[[2119,2196],[3,3],[4,3],[6,0]],[[2177,2139],[7,-1],[6,-4],[6,-3],[7,0]],[[2153,2130],[6,1],[12,6],[6,2]],[[2210,2132],[9,-2],[3,-5],[0,-5],[-2,-6],[-10,-17],[-2,-7],[-1,-7],[3,-3]],[[2203,2131],[7,1]],[[2220,2089],[3,0],[2,-4],[1,-12],[24,-65],[2,-10],[-1,-7],[-4,-5],[-5,-3],[-11,-6],[-5,-3],[-3,-5],[-2,-4],[-2,-8],[-1,-4],[-2,-3],[-3,-3],[-9,-6],[-4,-4],[-3,-5],[-1,-3],[-4,-7]],[[2210,2080],[4,2],[6,7]],[[1478,4096],[-1,-8],[-18,-36],[-18,-25],[-4,-8],[2,-6],[5,-5],[4,-6],[6,-29],[2,-16],[1,-8],[4,-9],[6,-5],[7,-3],[7,-1],[7,-4],[7,-6],[182,-357],[4,-17],[-1,-12],[-90,-135],[-119,-144],[-4,-4],[-6,-1]],[[1461,3251],[-12,10],[-53,26]],[[1396,3287],[-7,-5],[1,-5],[7,-27],[2,-28],[0,-30],[-3,-14],[-6,-9],[-7,-3],[-8,-4],[-7,-7],[-12,-21],[-4,-6],[-13,-5],[-7,-4],[-6,-6],[-11,-13],[-6,-7],[-7,-7],[-7,-4],[-7,-2],[-6,0]],[[1282,3080],[-6,0],[-4,0]],[[1272,3080],[-6,0],[-21,-12],[-8,-6],[-4,-13],[-5,-8],[-6,-5],[-7,-5],[-7,-8],[-6,-10],[-2,-6],[-2,-22],[-3,-8],[-5,-8],[-6,-8],[-2,-7],[-4,-7],[-13,-16],[-54,-111],[-1,-8],[2,-14],[1,-7],[-11,-22],[-5,-20],[-10,-27],[-1,-5]],[[228,3546],[537,198],[114,59],[66,293]],[[1921,4029],[-54,19],[-36,26],[-16,9],[-14,6],[-32,7]],[[0,3631],[55,-43],[43,-20],[43,-15],[23,-4],[64,-3]],[[228,3546],[-14,-21],[-20,-23],[-5,-9],[-4,-9],[-5,-42],[1,-7],[3,-12],[1,-18],[2,-8],[3,-7],[4,-7],[14,-15],[2,-3],[2,-3],[5,-15],[2,-9],[1,-15],[-1,-12],[-3,-14],[2,-13],[5,-6],[7,-3],[15,-4],[7,0]],[[360,3321],[7,-1],[2,-2],[1,-4],[-2,-6],[0,-12],[2,-16],[6,-22],[4,-8],[26,-35],[12,-13],[35,-25],[27,-26],[6,-4],[28,-12],[6,-4],[15,-15],[26,-32],[4,-7],[1,-5],[0,-14],[1,-8],[11,-34],[2,-27],[-1,-18],[-2,-6],[-1,-2],[-4,-6],[-4,-5],[-5,-5],[-2,-3],[-2,-3],[-1,-4],[0,-7],[2,-9],[7,-16],[7,-6],[8,-5],[7,-2],[6,-5],[49,-66],[9,-11],[45,-38],[8,-4],[89,-31],[7,0]],[[252,3271],[7,2],[15,7],[21,5],[51,31],[7,3],[7,2]],[[854,2742],[7,-1],[7,-2],[5,-2],[4,-11],[-3,-15]],[[802,2737],[52,5]],[[2840,869],[91,-129],[35,-32],[9,-6],[8,-3],[9,-2]],[[3070,790],[21,-2],[78,-13]],[[2992,697],[8,1],[9,3],[7,5],[6,7],[4,8],[2,8],[0,9],[-2,17],[1,9],[5,8],[7,7],[7,6],[9,4],[15,1]],[[3201,777],[19,-2],[8,-6],[2,-8],[-4,-8],[-11,-17],[2,-11],[10,-13],[32,-21],[13,-13],[7,-11],[-1,-8],[-12,-33],[-4,-17],[-3,-36],[-2,-9],[-4,-8],[-6,-8],[-8,-5],[-8,-4],[-8,-2],[-27,-4],[-8,-3],[-4,-9],[1,-11],[9,-16],[9,-11],[19,-17],[20,-13],[23,-13],[18,-6],[36,-8],[18,0]],[[3169,775],[32,2]],[[3383,510],[7,-2],[9,-6],[20,-17],[31,-11],[34,-15],[178,-10]],[[3337,426],[10,2],[9,4],[7,6],[5,6],[3,4],[3,8],[2,17],[1,22],[1,10],[5,5]],[[3450,1188],[-24,6],[-47,26],[-2,2]],[[3662,449],[-4,84],[-8,39],[-2,18],[1,9],[3,9],[5,8],[35,42],[74,132],[6,9],[8,6],[8,3],[24,0],[4,2],[1,2],[2,5],[2,6],[6,9],[2,5],[2,13],[6,16],[8,15],[9,9],[0,4],[-3,8],[4,10],[3,12],[-10,19],[2,8],[2,8],[2,8],[-2,9],[-13,20],[-7,5],[-11,10],[-18,12],[-10,11],[-8,10],[-32,52],[-10,10],[-93,49],[-34,23],[-11,5],[-18,5],[-20,4],[-55,3]],[[3512,1195],[-62,-7]],[[3662,449],[-17,-49],[-4,-25],[6,-87],[-3,-27],[-20,-91],[-4,-39],[6,-58],[0,-73]],[[4096,2786],[-19,2]],[[4077,2788],[-21,0],[-5,-6],[-2,-7],[1,-8],[3,-8],[6,-6],[8,-4],[25,-11],[4,-3]],[[4096,2638],[-168,0],[-12,3],[-8,6],[-21,37],[-23,31],[-20,23],[-3,2]],[[430,1390],[15,-23],[5,-3],[7,-4],[15,-2],[22,-11],[97,-71],[26,-11],[6,-2],[24,-1],[22,-8],[13,-8],[12,-5],[3,-4],[2,-3],[-1,-9],[1,-4],[2,-4],[4,-2],[15,-3],[22,-7],[19,-3],[18,-6],[14,-2],[9,-2],[16,-5],[8,-4],[4,-4],[1,-1],[0,-3],[-1,-4],[0,-5],[2,-5],[4,-3],[25,-6],[8,-4],[6,-6],[61,-69],[7,-13],[5,-6],[2,-6],[0,-4],[-7,-35],[0,-6],[1,-5],[1,-6],[6,-12],[25,-34],[7,-6],[6,-3],[6,-1],[5,0]],[[1047,938],[6,-1],[8,-2],[10,-5],[8,-4],[14,-11],[20,-20],[3,-8]],[[1000,936],[47,2]],[[1057,1529],[16,-4],[-4,-18],[15,-7]],[[1027,1519],[9,2],[14,7],[7,1]],[[1024,1523],[3,-4]],[[1790,1371],[3,0],[4,2],[1,7],[-1,9],[1,5],[4,6],[5,5],[10,7],[6,3],[9,3],[2,3],[2,4],[4,9],[0,6],[0,5],[-1,3],[1,4],[1,3],[1,4],[3,3],[4,3],[6,3],[5,1],[13,9],[28,37]],[[1114,1501],[12,-3],[8,-14],[-10,-5],[11,-4],[3,-6],[-1,-9],[2,-11],[3,-2],[9,-1],[4,-1],[1,-4],[1,-9],[2,-3],[6,-7],[3,-5],[11,-33],[6,-7],[9,-3],[-5,-14],[-2,-3],[-4,-5],[3,-4],[8,-4],[0,-27],[7,-16],[23,-18],[9,-2],[2,-2],[6,-4],[17,-5],[5,-5],[3,-5],[2,-5],[4,-3],[3,-1],[4,-1],[3,-2],[3,-4],[3,-5],[3,-5],[5,-3],[7,0]],[[1084,1500],[30,1]],[[1759,1375],[5,0],[11,-4],[4,0]],[[1721,1349],[5,0],[5,2],[12,8],[3,3],[0,7],[1,3],[7,2],[5,1]],[[1786,1372],[4,-1]],[[1779,1371],[7,1]],[[1704,1353],[5,0],[5,-1],[4,-2],[3,-1]],[[1697,1327],[-4,0],[-3,2],[-1,3],[-1,13],[0,1],[0,2],[3,1],[3,2],[10,2]],[[1597,1141],[8,0],[12,3],[11,3],[9,4],[3,2],[4,5],[4,6],[6,27],[0,5],[-1,12],[1,5],[3,7],[6,7],[19,19],[5,10],[1,6],[0,6],[1,5],[2,6],[7,6],[6,7],[6,9],[1,5],[0,2],[-6,3],[-2,2],[-1,3],[3,9],[-1,1],[0,1],[-3,0]],[[1701,1327],[-4,0]],[[1444,1244],[9,-1],[16,-11],[5,-2],[7,0]],[[1392,1230],[9,1],[32,11],[11,2]],[[1363,1237],[5,0],[6,-1],[18,-6]],[[1303,1231],[9,0],[13,3],[38,3]],[[1499,1232],[14,-2],[5,-1]],[[1481,1230],[18,2]],[[1522,1232],[5,-1],[3,-4],[4,-5],[1,-5],[-1,-6],[-2,-5],[-1,-6],[1,-5],[12,-35],[3,-6],[5,-4],[5,-2],[5,-2],[11,-1],[24,-4]],[[1518,1229],[4,3]],[[1270,2375],[5,-6],[5,-4],[4,-1]],[[1300,2370],[5,0],[4,-3],[3,-5],[-1,-6],[-6,-34],[-3,-125],[8,-103],[3,-12],[16,-34],[0,-5],[-1,-5],[-7,-2],[-11,-2],[-6,-3],[-10,-8],[-5,-4],[-10,-3],[-4,-3],[-2,-3],[0,-6],[2,-4],[5,-9],[3,-12],[2,-5],[3,-4],[5,-3],[15,-4],[11,-1],[5,-2],[34,-27],[4,-5],[4,-6],[3,-6],[-1,-5],[0,-4],[-10,-25],[-7,-33],[2,-43],[-3,-8],[-6,-10],[-25,-25],[-20,-11],[-7,-5],[-7,-9],[-12,-6],[-5,0],[-5,-2],[-16,-6],[-6,-1]],[[1284,2364],[5,1],[5,3],[6,2]],[[1241,1723],[-5,0],[-11,3],[-4,0]],[[1221,1726],[-2,-1],[-1,-5],[0,-20],[-1,-4],[-2,-3],[-6,0]],[[1209,1693],[-3,1],[-5,6],[-4,0]],[[1197,1700],[-6,-2],[-10,-7],[-6,-3],[-5,-1]],[[1170,1687],[-4,1],[-9,6],[-4,2],[-4,0]],[[1149,1696],[-5,0],[-7,-1],[-2,-1],[-13,-6],[-4,-1],[-4,-1],[-5,0]],[[1109,1686],[-21,4]],[[1088,1690],[-10,0],[-5,-1],[-3,-1],[-4,-2],[-11,-8],[-10,-4],[-3,-1],[-2,-2],[-3,-4],[-2,-3],[-1,-3],[-7,-31],[-5,-13],[-1,-1],[-3,-3],[-2,-1],[-4,-1]],[[1012,1611],[-14,0]],[[998,1611],[-3,0],[-4,-2],[-2,-2],[-3,-2],[-1,-8],[9,-9],[-5,-9],[0,-5],[8,-1],[5,-3],[2,-5],[0,-8],[4,-7],[6,-1]],[[1021,1550],[3,-3],[0,-24]],[[1014,1549],[7,1]],[[2107,1576],[5,-2],[9,-9],[5,-3],[27,-11],[16,-3],[11,-5],[4,-6],[6,-5],[3,-5],[7,-12],[5,-7],[4,-6],[1,-6],[0,-10],[3,-17],[3,-6],[5,-7],[4,-5],[1,-4],[-3,-1],[-18,-10],[-5,-2],[-6,-2],[-10,-12],[-7,-5],[-11,-2]],[[1988,1486],[31,3],[7,2],[6,2],[41,50],[5,5],[15,9],[4,4],[5,11],[5,4]],[[1901,1515],[26,-14],[7,-2],[20,-2],[9,-2],[11,-6],[8,-2],[6,-1]],[[2166,1413],[-7,3]],[[2159,1416],[-3,-1],[1,-11],[20,-35],[16,-18],[24,-39],[0,-13],[2,-12],[6,-9],[14,-4],[14,-7],[8,-17],[7,-20],[9,-16],[-9,-3],[-6,-4],[-10,-13],[-11,-17],[-4,-3],[-30,0]],[[2207,1174],[-24,14],[-6,1]],[[2177,1189],[-4,-4],[-3,-15],[-3,-6],[-5,-5],[-37,-26],[-9,-9],[-9,-15],[13,-29],[0,-12],[-13,-8],[6,-6],[-12,-5],[-24,-6],[-10,-4],[-8,-6],[-21,-24],[-17,-12],[-26,-13],[-11,-2],[-4,-4],[-4,-4],[-1,-2],[-6,-22],[-5,-49],[-1,-7],[-9,-17],[-2,-6],[-3,-11],[-2,-5],[-8,-12],[-5,-21],[0,-1]],[[2192,1922],[-53,-32],[-13,-11],[-3,-5],[-3,-5],[-11,-44],[-11,-24],[-3,-8],[0,-10],[0,-5],[0,-2],[-2,-3],[-8,-4],[-2,-4],[-6,-15],[-4,-6],[-3,-3],[-5,-3],[-1,-2],[0,-3],[1,-3],[0,-4],[-3,-3],[-9,-4],[-7,-5],[-3,-2],[-3,-4],[-5,-12],[-1,-2],[-12,-8],[-3,-3],[-3,-5],[-5,-9],[-3,-5],[-27,-30],[-2,-1],[-5,-2],[-11,-8],[-16,-15],[-2,-3],[-1,-3],[0,-1],[0,-1],[1,-4],[-1,-4],[-6,-11],[-3,-8],[-9,-16],[-4,-6],[-8,-7],[-1,-2],[0,-2],[0,-8],[0,-6],[-2,-3],[-2,-3],[-8,-5]],[[2712,1979],[-15,1],[-7,2],[-4,3],[-1,4],[1,4],[1,7],[1,2],[-1,3],[-5,24],[0,19],[-1,5],[0,4],[-2,3],[-2,3],[-5,5],[-3,2],[-1,4],[1,12],[0,4],[-2,3],[-4,6],[-5,10],[-2,3],[-3,2]],[[2653,2114],[-6,0],[-8,-3],[-22,-13],[-7,-5],[-17,-10],[-5,-3],[-3,-4],[-1,-5],[1,-13],[-1,-3],[-2,-9],[-2,-4],[-1,-2],[-1,-1],[-1,-1],[-7,-5],[-6,-6],[-25,-14],[-9,-7],[-1,-2],[-5,-6],[-21,-20],[-20,-14],[-3,-3],[-1,-1],[-1,-2],[-3,-10],[-2,-2],[-2,-2],[-12,-8],[-5,-4],[-18,-18],[-12,-7],[-3,-2],[-2,-3],[-11,-19],[-4,-6],[-11,-11],[-9,-14],[-3,-3]],[[3483,1947],[-9,1],[-12,2],[-5,2],[-4,4],[-2,3],[-3,2],[-3,2],[-4,1],[-3,2],[-3,3],[-3,11],[-2,3],[-2,3],[-3,2],[-4,6],[-3,2],[-4,2],[-4,1],[-3,1],[-3,2],[-9,7],[-8,5],[-20,8],[-9,2],[-9,4],[-12,4],[-3,3],[-4,1]],[[3330,2036],[-4,-3],[-6,-7],[-2,-1]],[[3318,2025],[-8,4],[-4,2]],[[3306,2031],[-48,-11],[-6,-2],[-11,-6],[-8,-6],[-7,-4],[-3,-3],[-2,-3],[-3,-6],[-1,-4],[-3,-3],[-5,-2],[-10,-2],[-4,-1],[-3,-2],[-4,-4],[-1,-1],[-6,-2],[-17,-5],[-7,-3],[-10,-5],[-5,-4],[-7,-8],[-3,-2],[-3,-2],[-6,-5],[-10,-9],[-6,-4],[-4,-2],[-18,-12],[-9,-5],[-53,-17],[-5,-1]],[[2936,1889],[-29,5],[-14,5],[-3,2],[-2,1],[-9,3],[-3,1],[-1,1],[-1,2],[-1,1],[-1,3],[-3,2],[-4,1],[-11,2],[-5,2],[-3,2],[-2,2],[-2,3],[-5,11],[-3,22],[-1,4],[-2,3],[-8,7],[-4,6],[-2,3],[-3,2],[-6,2],[-47,4]],[[2761,1991],[-5,0],[-16,-7],[-15,-5],[-13,0]],[[3593,1951],[-1,0],[-28,4],[-17,3],[-18,2]],[[3529,1960],[-6,0],[-8,-1],[-14,-3],[-7,-3],[-4,-2],[-3,-2],[-2,-1],[-2,-1]],[[2225,1891],[-15,7],[-18,24]],[[3018,1885],[-7,1],[-26,8],[-6,0]],[[2979,1894],[-8,0],[-15,-2],[-13,-3],[-7,0]],[[2284,1880],[-5,0],[-6,2],[-15,9],[-10,2]],[[2248,1893],[-23,-2]],[[2381,1849],[-6,0],[-11,4],[-20,11],[-9,6],[-6,4],[-2,3],[-3,2],[-3,2],[-4,2]],[[2317,1883],[-25,-1],[-8,-2]],[[3167,3413],[39,-11],[29,-2],[12,-3],[10,-9],[4,-15],[0,-17],[3,-17],[11,-14],[14,-5],[33,-8],[16,-7],[5,-4],[2,-5],[4,-4],[34,-10],[5,-3],[11,-15],[5,-8],[6,0]],[[3108,3393],[12,4],[22,11],[11,4],[14,1]],[[3094,3398],[3,-1],[7,-4],[4,0]],[[2995,3319],[3,0],[13,11],[10,12],[21,31],[11,10],[26,8],[10,5],[5,2]],[[2987,3321],[8,-2]],[[2679,2935],[9,2],[20,8],[11,7],[28,26],[50,64],[37,119],[15,31],[48,63],[15,13],[36,16],[17,10],[5,7],[9,13],[5,6],[3,1]],[[3418,3261],[3,-7],[0,-17],[13,-7],[47,-4],[23,-9],[23,-11],[80,-51],[5,-4],[5,-4],[28,-3],[5,-3],[5,-5],[4,-5],[11,-25],[16,-20],[23,-65],[18,-16],[31,-2],[-5,-12],[10,-6],[13,-4],[3,-4],[1,-6],[16,-2]],[[3410,3256],[8,5]],[[3855,2982],[15,-3],[21,-9]],[[3796,2969],[19,0],[12,4],[13,8],[15,1]],[[3894,2971],[1,-1],[3,-8],[-1,-10],[-3,-11],[2,-7]],[[3891,2970],[3,1]],[[2651,2937],[28,-2]],[[2313,2618],[6,0],[6,1],[27,6],[6,2],[5,4],[3,3],[2,3],[5,12],[4,5],[6,3],[8,2],[12,6],[11,8],[16,15],[29,40],[3,5],[8,22],[4,5],[14,17],[9,13],[6,9],[20,19],[5,7],[10,16],[2,6],[2,17],[6,9],[10,11],[35,29],[10,6],[36,16],[6,1],[6,1]],[[3896,2934],[17,2],[23,0],[1,0]],[[2271,2694],[2,-5],[3,-39],[4,-14],[5,-10],[6,-3],[11,-3],[11,-2]],[[2534,3280],[136,6],[55,12],[40,34],[72,82],[13,32],[16,24],[-14,25],[-114,99],[31,41],[41,41],[14,24],[11,25],[5,26],[-34,130],[-10,25],[-25,8],[-54,6],[-22,11],[-9,24],[-7,28],[-20,42],[-4,16],[1,12],[0,12],[-7,28],[1,3]],[[2504,3287],[30,-7]],[[2322,3231],[95,17],[51,14],[18,17],[18,8]],[[431,638],[41,0],[0,-83]],[[472,555],[-9,0]],[[0,4029],[58,-24],[143,29],[35,-24],[81,33],[29,-24],[70,6],[37,34],[51,-39],[140,-10],[44,-57],[75,-11],[11,-51],[86,-40],[64,-106],[46,-7],[73,-71],[20,-148],[186,-44],[28,-53],[104,-49],[-3,-84],[71,-54],[6,-83],[65,-104],[-36,-36],[5,-32],[203,-80]],[[2963,958],[2,-1]],[[2965,957]],[[2965,957],[12,-20]],[[2971,952],[14,-34],[69,-25]],[[3054,893],[1,0],[-1,0]],[[926,1012],[11,1]],[[418,614],[13,-21]],[[425,599],[6,-6]],[[431,593],[63,5],[123,193],[69,-21],[43,57]],[[954,827],[-48,-4],[-24,27],[-79,-26],[-20,-30],[-54,33]],[[729,827],[57,82],[85,31],[43,76],[65,27],[16,-8],[33,2],[1,0],[2,-1],[6,-2],[1,0]],[[969,838],[-14,-10]],[[991,874],[-22,-36]],[[999,882],[-7,-8]],[[1018,893],[-12,-5]],[[1037,907],[-19,-13]],[[1041,916],[-3,-8]],[[1043,919],[-1,-2]],[[2822,1012],[-119,19],[-67,40],[-109,-90],[-72,20],[-75,-35],[-221,42],[-253,-50],[-106,76],[-302,0],[-62,26],[-86,-21],[-46,24],[-45,-16],[-85,48],[-136,-61]],[[1038,1034],[-25,-6],[45,-68],[-14,-41]],[[1907,958],[15,-36],[-55,-35]],[[1873,978]],[[2923,988],[-101,24]],[[2942,985],[6,0],[-1,10],[-1,0],[-4,-10]],[[2942,985],[-18,3]],[[2916,938],[10,1]],[[2963,958],[2,-1]],[[2965,957]],[[2965,957],[4,-6]],[[2857,748],[72,82],[53,18],[4,63],[-1,4],[-7,21],[-7,16]],[[2963,958],[2,-1]],[[2965,957]],[[2965,957],[12,-20]],[[2207,0],[148,71],[145,3],[54,56],[87,39],[1,22],[43,-6],[26,87],[93,111],[24,79],[31,123],[-36,68],[35,55],[-6,36],[77,86],[53,19],[4,62],[-1,4],[-7,21],[-7,16]],[[2963,958],[2,-1]],[[2965,957]],[[2965,957],[12,-20]],[[1179,1140],[-15,38]],[[425,599],[69,-1],[96,153]],[[590,751],[15,22]],[[605,773],[30,22],[51,-24],[43,56]],[[2620,1063],[-93,-82],[-72,20],[-75,-35],[-164,44],[-311,-52],[-105,76],[-302,0],[-62,26],[-86,-21],[-46,24],[-45,-16],[-85,48],[-136,-61]],[[1038,1034],[-25,-6],[45,-68],[-14,-41],[-99,-99],[-63,30],[-79,-26],[-20,-30],[-54,33]],[[729,827],[57,82],[85,30],[55,73]],[[937,1013],[42,30],[59,-9]],[[2822,1012],[-202,51]],[[2864,997],[-41,15]],[[1203,1076],[-216,442],[1,52],[36,27]],[[1025,1598],[12,232],[-22,71],[23,45],[9,287],[132,327]],[[2701,247],[-74,11]],[[2823,1012],[-1,0]],[[1304,0],[-18,105],[-52,64],[32,147],[-33,149]],[[0,1158],[15,-10],[64,-51],[3,-6],[0,-8],[0,-16],[2,-7],[9,-16],[3,-5],[14,-22],[36,-31],[35,-22],[66,-59],[76,-64],[82,-83],[13,-28],[-3,-16],[-14,-15],[-17,0],[0,-8],[3,-9],[31,-28],[19,-24],[2,-16],[-3,-9],[-4,-2],[-10,11],[-4,1],[-3,-5],[0,-4],[8,-9],[40,-42],[7,-20],[18,-17],[27,-34],[17,-27],[10,-12],[11,-10],[15,-2],[11,1],[8,-5],[8,1],[3,6],[6,-1],[5,-8],[3,-15],[5,-2],[5,4],[-1,15],[2,11],[5,8],[8,-1],[7,-2],[3,-7],[0,-14],[-6,-4],[-1,-10],[-8,-12],[-12,-7],[-14,3],[-5,17],[-4,5],[-10,2],[-14,3],[-9,3],[0,-8],[34,-54],[40,-48],[6,-34],[28,-51],[0,-20],[18,-49],[13,-25],[11,-26],[2,-10],[0,-22],[-3,-10],[-7,-7],[-10,-4],[-8,-1],[-8,-2],[-9,-8],[-16,-45],[-654,0],[0,1158]],[[0,1158],[15,-10],[64,-51],[3,-6],[0,-8],[0,-16],[2,-7],[9,-16],[3,-5],[14,-22],[36,-31],[35,-22],[66,-59],[76,-64],[82,-83],[13,-28],[-3,-16],[-14,-15],[-17,0],[0,-8],[3,-9],[31,-28],[19,-24],[2,-16],[-3,-9],[-4,-2],[-10,11],[-4,1],[-3,-5],[0,-4],[8,-9],[40,-42],[7,-20],[18,-17],[27,-34],[17,-27],[10,-12],[11,-10],[15,-2],[11,1],[8,-5],[8,1],[3,6],[6,-1],[5,-8],[3,-15],[5,-2],[5,4],[-1,15],[2,11],[5,8],[8,-1],[7,-2],[3,-7],[0,-14],[-6,-4],[-1,-10],[-8,-12],[-12,-7],[-14,3],[-5,17],[-4,5],[-10,2],[-14,3],[-9,3],[0,-8],[34,-54],[40,-48],[6,-34],[28,-51],[0,-20],[18,-49],[13,-25],[11,-26],[2,-10],[0,-22],[-3,-10],[-7,-7],[-10,-4],[-8,-1],[-8,-2],[-9,-8],[-16,-45]],[[66,4041],[-9,-3],[-27,0],[-21,3],[-9,5]],[[3195,4096],[7,-10],[6,-33],[12,-21],[15,-12],[18,-15],[12,-12],[6,-21],[3,-31],[12,-18],[0,-54],[12,-12],[3,-12],[6,-6],[48,-15],[21,-15],[6,-9],[6,-21],[6,-3],[3,-12],[-3,-21],[3,-9],[21,-3],[3,-9]],[[381,3878],[-5,0],[-6,3],[-12,15],[-6,66],[0,16],[9,33],[0,18],[-1,1]],[[360,4030],[-2,14],[-21,0],[-15,3],[-12,9],[-12,6],[-33,0],[-30,-18],[-39,-3],[-21,-3],[-21,-12],[-33,-9],[-16,-3],[-21,6],[-9,15],[-9,6]],[[1061,3502],[-9,-3],[-12,-12],[-12,-27],[-19,-15],[-27,-6],[-15,9],[-12,30],[-18,45],[-12,30],[-18,49],[-15,21],[-12,6],[-18,3],[-27,-6],[-21,-3],[-30,12],[-21,3],[-15,-3],[-18,12],[-18,6],[-27,6],[-6,3],[-12,15],[-15,12],[-12,9],[-27,12],[-36,24],[-30,15],[-42,51],[-30,24],[-27,9],[-24,30],[-21,12],[-22,3]],[[3265,3409],[18,15],[24,27],[39,54],[6,6],[15,3],[21,9],[0,6],[-15,27],[3,15],[12,9],[15,28],[-6,15],[0,15],[-9,30],[0,18],[18,27],[15,9]],[[1433,2967],[-9,12],[-12,30],[-6,27],[0,15],[-9,15],[-3,24],[-6,6],[-12,9],[-9,15],[-6,6],[-21,27],[-18,-3],[-9,3],[-3,12],[-15,21],[-33,55],[-15,30],[-12,3],[-30,33],[-24,42],[-18,18],[-27,12],[-9,12],[-3,15],[-18,27],[-12,21],[-24,42],[-9,6]],[[1712,2907],[-2,-1]],[[1710,2906],[-31,-5],[-15,0],[-12,12],[-15,-9],[-21,-6],[-12,-6],[-15,-3],[-21,18],[-12,-6],[-12,-21],[-12,-6],[-15,6],[-12,-6],[-15,0],[-21,12],[-3,9],[0,15],[-9,21],[-9,15],[-15,21]],[[1208,2594],[0,15],[12,42],[15,30],[6,21],[9,39],[-9,27],[3,24],[6,12],[33,48],[18,22],[12,9],[9,24],[12,6],[27,-6],[12,6],[15,12],[15,21],[15,21],[15,0]],[[3280,2293],[-3,12],[6,15],[21,30],[6,15],[0,15],[12,21],[24,60],[12,49],[24,78],[-18,45],[-6,18],[0,42],[-6,27],[3,9],[15,3],[6,24],[12,21],[6,15],[0,6],[-18,21],[-9,18],[-6,12],[0,22],[-3,15],[-3,15],[9,30],[0,21],[6,24],[12,12],[6,15],[9,12],[3,54],[-21,9],[-6,12],[6,27],[-6,27],[3,15],[6,21],[9,15],[33,33],[9,13],[0,15],[-6,24],[-12,6],[-24,27],[-15,15],[-45,24],[-60,48],[-6,9]],[[235,2269],[-18,18],[3,21],[-6,12],[-6,6],[-6,21],[-30,12],[-12,12],[-21,-9],[-12,-6],[-12,6],[-22,3],[-15,18],[-15,9],[-9,12],[-9,30],[-15,21],[-27,21],[-3,5]],[[880,1391],[12,9],[21,9],[12,15],[15,21],[9,12],[3,30],[18,45],[3,18],[12,30],[6,6],[18,0],[16,9],[3,6],[-16,33],[0,15],[13,18],[6,21],[9,15],[3,15],[-3,27],[0,13],[-3,21],[18,18],[6,21],[3,15],[-3,27],[0,21],[3,21],[9,27],[0,9],[-18,21],[-3,21],[-18,21],[-3,6],[6,27],[-12,21],[0,18],[-3,24],[15,34],[0,21],[3,15],[9,18],[12,15],[21,15],[6,15],[0,15],[-18,18],[15,21],[6,12],[0,39],[3,15],[15,21],[15,33],[15,15],[6,15],[9,21],[0,27],[12,16],[0,27],[9,12],[12,9],[6,21],[9,9],[6,18]],[[880,1391],[-9,21],[0,21],[-9,30],[-12,12],[-27,18],[-21,6],[-3,9],[0,15],[-6,12],[-9,15],[-84,69],[-18,21],[-18,21],[-3,36],[-15,30],[-12,15],[-39,28],[-12,15],[-12,21],[-3,12],[6,39],[12,48],[-3,21],[-6,6],[-21,9],[-12,12],[-18,39],[-18,15],[-12,15],[-6,15],[-9,6],[-27,15],[-33,9],[-24,21],[-15,3],[-21,-3],[-6,3],[-15,21],[-21,34],[-9,15],[-15,15],[-18,15],[-6,6],[-15,42],[-21,30]],[[1037,1042],[-6,12],[3,21],[-19,42],[-3,15],[0,21],[-9,36],[-12,15],[-30,30],[-6,21],[6,24],[-3,6],[-12,27],[-15,12],[-24,12],[-6,6],[-21,49]],[[898,1008],[6,0],[18,16],[18,18],[21,0],[12,-6],[15,3],[12,12],[15,3],[22,-12]],[[1043,1042],[8,0]],[[1037,1042],[6,0]],[[1051,1042],[7,0],[15,9],[24,-3],[18,0],[15,6],[30,0],[33,-12],[15,9],[36,-6],[21,-6],[15,3],[27,30],[36,27],[24,-15],[6,-9],[15,-3],[21,3],[21,0],[39,-12],[18,-6],[30,9],[21,3],[27,-6],[15,-6],[15,0],[21,6],[72,0],[24,-6],[12,-3],[30,3],[15,-3],[30,-3],[33,-6],[33,-12],[21,-37],[18,-33],[6,-6],[16,-3],[27,9],[15,0],[33,-18],[21,-3],[42,12],[21,0],[21,15],[30,15],[30,12],[27,25],[24,3],[18,-3],[21,-13],[21,-9],[12,3]],[[2289,1002],[30,0],[24,-12],[33,0],[12,-12],[21,0],[12,-6],[21,-3],[15,3],[27,0],[15,-21],[21,-15],[12,3],[15,-3],[15,-15]],[[2945,1015],[-4,12],[-6,10]],[[2941,978],[6,6],[2,15]],[[2935,1037],[-6,11],[3,15],[6,6],[27,18],[27,0],[12,12],[3,6],[-3,21],[3,15],[-3,27],[6,15],[12,12],[-6,21],[0,12],[18,21],[6,21],[27,45],[6,21],[9,39],[6,16],[6,30],[9,48],[12,36],[21,108],[6,21],[18,51],[6,24],[3,30],[3,22],[12,27],[3,27],[6,21],[24,42],[3,27],[-6,15],[-12,12],[-6,21],[-3,30],[-21,3],[-27,18],[-12,24],[-12,21],[-9,27],[3,12],[6,21],[9,16],[36,42],[21,24],[36,39],[51,54],[6,9]],[[2949,999],[1,0],[-5,16]],[[3694,792],[3,9],[3,36],[3,15],[21,42],[12,21],[22,21],[9,15],[3,15],[-3,42],[-6,34],[6,21],[24,30],[-3,30],[3,15],[18,18],[15,9],[21,27],[15,-3],[6,6],[6,21],[21,12],[21,6],[24,24],[3,15],[12,12],[3,30],[6,18],[9,15],[27,15],[24,6],[27,13],[45,12],[2,0]],[[580,747],[12,30],[15,30],[12,6],[-3,24],[18,18],[12,18],[27,6],[15,-3],[12,-12],[15,9],[12,15],[0,18],[15,3],[27,24],[15,3],[12,0],[21,12],[30,6],[9,15],[12,18],[30,21]],[[437,618],[14,8],[12,0],[12,10]],[[418,620],[18,-3],[1,1]],[[475,636],[3,2],[21,37],[9,21],[21,3],[6,12],[6,6],[24,9],[15,21]],[[4096,579],[-20,5],[-21,18],[-24,27],[-15,3],[-27,16],[-12,6],[-18,3],[-21,-6],[-36,-3],[-27,-13],[-9,0],[-12,7],[-12,15],[-27,9],[-9,12],[-12,21],[-21,24],[-49,33],[-30,36]],[[3062,887],[5,1],[18,6],[0,1]],[[2903,830],[2,7],[12,12],[12,36],[27,24],[18,30],[12,-24],[9,-15],[15,-6],[21,-6],[7,-1]],[[3143,951],[14,18],[3,12],[0,5]],[[2802,356],[12,6],[9,15],[6,24],[16,21],[12,21],[0,9],[-12,30],[0,15],[18,27],[3,12],[9,21],[0,42],[15,36],[0,13],[-3,18],[6,21],[0,12],[-6,21],[-15,30],[0,15],[9,36],[3,6],[15,9],[4,14]],[[3038,887],[14,-2],[10,2]],[[3085,895],[15,14],[12,18],[27,18],[4,6]],[[3160,986],[0,32],[3,6],[15,9],[15,6],[30,6],[15,-3],[15,-3],[27,-3],[21,-6],[21,-6],[60,-34],[18,-6],[39,0],[15,3],[6,0],[15,-12],[18,-21],[21,-30],[6,-6],[15,-24],[21,3],[48,-33],[27,-3],[15,-3],[12,-15],[30,-42],[6,-9]],[[2276,0],[7,10],[42,27],[21,3],[6,6],[18,33],[15,9],[15,6],[18,3],[21,-3],[9,6],[18,27],[15,9],[9,12],[21,21],[36,36],[42,33],[15,3],[18,9],[18,21],[27,7],[9,6],[21,24],[12,9],[60,33],[33,6]],[[1428,0],[8,4],[6,21],[21,9],[6,6],[3,12],[12,12],[15,21],[12,3],[27,-6],[18,-18],[21,-12],[18,-18],[9,-21],[0,-12],[0,-1]],[[2954,0],[5,10],[-3,24],[-12,18],[6,15],[12,18],[0,6],[-12,12],[-3,21],[-12,15],[-3,15],[-6,30],[-9,21],[-12,15],[-6,21],[3,27],[-3,16],[-12,27],[-9,3],[-15,-3],[-12,6],[-15,3],[-13,6],[-12,12],[-9,18]],[[2874,951],[1,0],[42,15],[24,12]],[[2562,921],[6,-6],[15,-3],[6,6],[30,0],[30,9],[12,3],[15,-6],[21,0],[12,6],[12,-12],[0,-15],[9,3],[9,15],[12,-9],[18,21],[64,9],[15,0],[26,9]],[[4096,4096],[0,-4096],[-3442,0],[16,45],[9,8],[8,2],[8,1],[10,4],[7,7],[3,10],[0,22],[-2,10],[-11,26],[-13,25],[-18,49],[0,20],[-28,51],[-6,34],[-40,48],[-34,54],[0,8],[9,-3],[14,-3],[10,-2],[4,-5],[5,-17],[14,-3],[12,7],[8,12],[1,10],[6,4],[0,14],[-3,7],[-7,2],[-8,1],[-5,-8],[-2,-11],[1,-15],[-5,-4],[-5,2],[-3,15],[-5,8],[-6,1],[-3,-6],[-8,-1],[-8,5],[-11,-1],[-15,2],[-11,10],[-10,12],[-17,27],[-27,34],[-18,17],[-7,20],[-40,42],[-8,9],[0,4],[3,5],[4,-1],[10,-11],[4,2],[3,9],[-2,16],[-19,24],[-31,28],[-3,9],[0,8],[17,0],[14,15],[3,16],[-13,28],[-82,83],[-76,64],[-66,59],[-35,22],[-36,31],[-14,22],[-3,5],[-9,16],[-2,7],[0,16],[0,8],[-3,6],[-64,51],[-15,10],[0,432],[0,2506],[4096,0]],[[721,157],[-24,-12],[-15,34],[27,3],[12,-25]],[[2290,521],[-40,25],[11,13],[33,-22],[-4,-16]],[[470,651],[17,-57],[-57,0],[16,57],[24,0]],[[3077,868],[-18,23],[19,12],[10,-12],[-11,-23]],[[3152,951],[-20,0],[16,41],[16,-8],[-12,-33]],[[1053,1008],[-16,16],[8,24],[16,-16],[-8,-24]],[[2930,1000],[23,-1],[-1,-37],[75,-35],[16,-57],[-77,0],[-4,-32],[-65,-9],[-6,104],[-28,30],[67,77],[24,-16],[-24,-24]],[[1716,2904],[-24,8],[5,12],[35,-4],[-16,-16]],[[3370,723],[30,175],[39,77],[79,-90],[105,-56],[-14,-57],[36,-83],[-19,-35],[25,-23],[-17,-61],[15,-115],[-166,2],[-10,183],[37,159],[-21,82],[-34,11],[-66,-191],[-19,22]],[[10,3809],[34,79],[-27,39],[24,35],[-6,55],[114,-8],[63,30],[25,-30],[26,41],[113,-23],[8,-244],[49,-42],[-29,-28],[4,-57],[-58,-48],[-3,-85],[-27,-20],[43,-96],[-55,-19],[-22,-68],[-59,-22],[-135,38],[-4,186],[22,26],[-94,161],[19,48],[-25,52]],[[1833,2572],[98,-37],[71,112],[122,-46],[49,65],[53,9],[-37,-21],[-22,-155],[-52,-36],[74,-80],[-72,-31],[-36,-77],[-176,20],[0,37],[48,48],[-37,25],[-83,167]],[[4096,2977],[0,-449],[-44,7],[-96,146],[21,116],[107,170],[12,10]],[[3344,530],[63,249],[48,113],[34,-11],[21,-82],[-37,-159],[12,-180],[-133,1],[-8,69]],[[3452,1359],[81,136],[24,-28],[66,3],[42,-46],[41,38],[96,-75],[18,-110],[-44,-81],[-87,2],[-61,78],[-47,-2],[-53,50],[-41,5],[-7,43],[-28,-13]]]}