{"objects":{"water":{"type":"GeometryCollection","geometries":[{"type":"MultiPolygon","properties":{"source":"naturalearthdata.com","kind":"ocean","area":1576712559132672,"sort_rank":200,"min_zoom":0.0,"id":1},"arcs":[[[124],[125],[126],[127],[128],[129],[130],[131],[132]],[[133]],[[134]]]},{"type":"MultiLineString","properties":{"source":"naturalearthdata.com","kind":"ocean","sort_rank":205,"boundary":true,"min_zoom":0.0,"id":56},"arcs":[[135],[136],[137],[138],[139]]},{"type":"LineString","properties":{"source":"naturalearthdata.com","kind":"ocean","sort_rank":205,"boundary":true,"min_zoom":0.0,"id":1396},"arcs":[140]},{"type":"LineString","properties":{"source":"naturalearthdata.com","kind":"ocean","sort_rank":205,"boundary":true,"min_zoom":0.0,"id":1397},"arcs":[141]},{"type":"LineString","properties":{"source":"naturalearthdata.com","kind":"ocean","sort_rank":205,"boundary":true,"min_zoom":0.0,"id":1403},"arcs":[142]},{"type":"LineString","properties":{"source":"naturalearthdata.com","kind":"ocean","sort_rank":205,"boundary":true,"min_zoom":0.0,"id":1404},"arcs":[143]},{"type":"MultiLineString","properties":{"source":"naturalearthdata.com","kind":"ocean","sort_rank":205,"boundary":true,"min_zoom":0.0,"id":1405},"arcs":[[144],[145],[146],[147]]},{"type":"LineString","properties":{"source":"naturalearthdata.com","kind":"ocean","sort_rank":205,"boundary":true,"min_zoom":0.0,"id":1408},"arcs":[148]},{"type":"LineString","properties":{"source":"naturalearthdata.com","kind":"ocean","sort_rank":205,"boundary":true,"min_zoom":0.0,"id":1412},"arcs":[149]},{"type":"LineString","properties":{"source":"naturalearthdata.com","kind":"ocean","sort_rank":205,"boundary":true,"min_zoom":0.0,"id":1413},"arcs":[150]},{"type":"MultiLineString","properties":{"source":"naturalearthdata.com","kind":"ocean","sort_rank":205,"boundary":true,"min_zoom":0.0,"id":1414},"arcs":[[151],[152]]},{"type":"LineString","properties":{"source":"naturalearthdata.com","kind":"ocean","sort_rank":205,"boundary":true,"min_zoom":0.0,"id":1417},"arcs":[153]},{"type":"LineString","properties":{"source":"naturalearthdata.com","kind":"ocean","sort_rank":205,"boundary":true,"min_zoom":0.0,"id":1418},"arcs":[154]},{"type":"MultiLineString","properties":{"source":"naturalearthdata.com","kind":"ocean","sort_rank":205,"boundary":true,"min_zoom":0.0,"id":1419},"arcs":[[155],[156]]}]},"buildings":{"type":"GeometryCollection","geometries":[]},"places":{"type":"GeometryCollection","geometries":[{"type":"Point","properties":{"name:kg":"Gambia","name:ka":"\u10d2\u10d0\u10db\u10d1\u10d8\u10d0","name:ko":"\uac10\ube44\uc544","name:cv":"\u0413\u0430\u043c\u0431\u0438","name:km":"\u17a0\u17d2\u1782\u17b6\u17c6\u1794\u17ca\u17b8","name:kl":"Gambia","name:cs":"Gambie","name:ki":"Gambia","name:kw":"Gambi","name:tk":"Gambi\u00fda","name:ku":"Gambiya","name:ti":"\u130b\u121d\u1262\u12eb","name:ks":"\u06af\u064e\u0645\u0628\u0650\u06cc\u0627","name:to":"Kamipia","name:tl":"Ang Gambiya","name:ce":"\u0413\u0430\u043c\u0431\u0438","name:ta":"\u0b95\u0bbe\u0bae\u0bcd\u0baa\u0bbf\u0baf\u0bbe","name:tg":"\u0413\u0430\u043c\u0431\u0438\u044f","name:ca":"G\u00e0mbia","name:te":"\u0c17\u0c3e\u0c02\u0c2c\u0c3f\u0c2f\u0c3e","name:cy":"Y Gambia","name:hr":"Gambija","name:da":"Gambia","name:de":"Gambia","name:dz":"\u0f42\u0fb7\u0f7a\u0f58\u0f0b\u0f56\u0f72\u0f0b\u0f61","source":"openstreetmap.org","name:kn":"\u0c97\u0ccd\u0caf\u0cbe\u0c82\u0cac\u0cbf\u0caf\u0cbe","name:dv":"\u078e\u07ac\u0789\u07b0\u0784\u07a8\u0787\u07a7","name:lv":"Gambija","name:lt":"Gambija","name:uz":"Gambia","name:kk":"\u0413\u0430\u043c\u0431\u0438\u044f","name:ur":"\u06af\u0627\u0645\u0628\u06cc\u0627","name:lb":"Gambia","name:la":"Gambia","name:lg":"Gambya","name:uk":"\u0413\u0430\u043c\u0431\u0456\u044f","name:ug":"\u06af\u0627\u0645\u0628\u0649\u064a\u06d5","name:li":"Gambia","name:ln":"Gambi","name:lo":"\u0ec1\u0e81\u0ea1\u0ec0\u0e9a\u0e8d","name:el":"\u0393\u03ba\u03ac\u03bc\u03c0\u03b9\u03b1","name:eo":"Gambio","name:en":"Gambia","name":"The Gambia","name:ee":"Gambia nutome","name:th":"\u0e1b\u0e23\u0e30\u0e40\u0e17\u0e28\u0e41\u0e01\u0e21\u0e40\u0e1a\u0e35\u0e22","name:eu":"Gambia","name:et":"Gambia","name:es":"Gambia","name:ia":"Gambia","name:rm":"Gambia","name:rn":"Gambiya","name:az":"Qambiya","name:id":"Gambia","name:ar":"\u063a\u0627\u0645\u0628\u064a\u0627","name:io":"Gambia","name:ak":"Gambia","name:am":"\u130b\u121d\u1262\u12eb","name:it":"Gambia","name:an":"Gambia","name:ru":"\u0413\u0430\u043c\u0431\u0438\u044f","name:rw":"Gambiya","name:af":"Gambi\u00eb","name:zu":"i-Gambia","name:ky":"\u0413\u0430\u043c\u0431\u0438\u044f","name:zh-yue":"\u7518\u6bd4\u4e9e","name:zh":"\u5188\u6bd4\u4e9a","name:so":"Gambiya","name:sn":"Gambia","name:sl":"Gambija","name:sk":"Gambia","name:ja":"\u30ac\u30f3\u30d3\u30a2","name:si":"\u0d9c\u0dd0\u0db8\u0dca\u0db6\u0dd2\u0dba\u0dcf\u0dc0","name:sh":"Gambija","name:sg":"Gamb\u00efi","name:se":"G\u00e1mbia","name:sc":"G\u00e0mbia","name:sa":"\u0917\u093e\u092e\u094d\u092c\u093f\u092f\u093e","name:bs":"Gambija","name:bm":"Ganbi","name:bn":"\u0997\u09be\u09ae\u09cd\u09ac\u09bf\u09af\u09bc\u09be","name:bo":"\u0f42\u0fb7\u0f58\u0f0b\u0f56\u0f72\u0f0b\u0f61\u0f0d","name:br":"Gambia","name:sw":"Gambia","name:be":"\u0413\u0430\u043c\u0431\u0456\u044f","name:su":"Gambia","name:bg":"\u0413\u0430\u043c\u0431\u0438\u044f","name:ss":"IGambiya","name:ba":"\u0413\u0430\u043c\u0431\u0438\u044f","name:sq":"Gambi","name:jv":"Gambia","name:pt":"G\u00e2mbia","name:ps":"\u06ab\u0627\u0645\u0628\u064a\u0627","name:oc":"G\u00e0mbia","min_zoom":2.0,"name:ro":"Gambia","name:zh-min-nan":"Gambia","name:os":"\u0413\u0430\u043c\u0431\u0438","name:or":"\u0b17\u0b3e\u0b2e\u0b4d\u0b2c\u0b3f\u0b06","name:pl":"Gambia","name:st":"Gambia","name:sr":"\u0413\u0430\u043c\u0431\u0438\u0458\u0430","name:pa":"\u0a17\u0a3e\u0a02\u0a2c\u0a40\u0a06","name:tr":"Gambiya","name:hi":"\u0917\u093e\u092e\u094d\u092c\u093f\u092f\u093e","name:sv":"Gambia","name:he":"\u05d2\u05de\u05d1\u05d9\u05d4","name:ha":"Gambiya","name:hy":"\u0533\u0561\u0574\u0562\u056b\u0561","name:ht":"Ganbi","name:hu":"Gambia","name:qu":"Gambya","population":1713267,"kind":"country","name:ts":"Gambiya","name:is":"Gamb\u00eda","name:yi":"\u05d3\u05d9 \u05d2\u05d0\u05de\u05d1\u05d9\u05e2","name:yo":"Or\u00edl\u1eb9\u0301\u00e8de Gambia","name:mt":"Gambja","name:ms":"Gambia","name:mr":"\u0917\u093e\u092e\u094d\u092c\u093f\u092f\u093e","name:my":"\u1002\u1014\u103a\u1018\u102e\u101b\u102c","official_name":"Republic of The Gambia","int_name":"Gambia","name:mg":"Gambia","name:ml":"\u0d17\u0d3e\u0d02\u0d2c\u0d3f\u0d2f","name:vi":"Gambia","name:mn":"\u0413\u0430\u043c\u0431\u0438","id":424297579,"name:mk":"\u0413\u0430\u043c\u0431\u0438\u0458\u0430","name:vo":"Gambiy\u00e4n","name:fa":"\u06af\u0627\u0645\u0628\u06cc\u0627","name:ff":"Gammbi","name:fi":"Gambia","name:fo":"Gambia","name:fr":"Gambie","name:fy":"Gambia","name:nl":"Gambia","name:nn":"Gambia","name:no":"Gambia","name:na":"Gambiya","name:nb":"Gambia","name:ne":"\u0917\u093e\u092e\u094d\u0935\u093f\u092f\u093e","name:wo":"G\u00e0mbi","name:nv":"G\u00e9\u00e9mbiya","name:ga":"An Ghaimbia","name:gd":"A' Ghaimbia","name:gl":"Gambia","name:gv":"Yn Ghambia","name:gu":"\u0a97\u0ac7\u0aae\u0acd\u0aac\u0abf\u0aaf\u0abe","name:tt":"\u0413\u0430\u043c\u0431\u0438\u044f"},"coordinates":[2017,3420]},{"type":"Point","properties":{"name:kg":"Ginea-Bisau","name:ka":"\u10d2\u10d5\u10d8\u10dc\u10d4\u10d0-\u10d1\u10d8\u10e1\u10d0\u10e3","name:ko":"\uae30\ub124\ube44\uc3d8","name:cv":"\u0413\u0432\u0438\u043d\u0435\u0439-\u0411\u0438\u0441\u0430\u0443","name:km":"\u17a0\u17d2\u1782\u17b8\u178e\u17c1\u1794\u17ca\u17b8\u179f\u17bc","name:kl":"Guinea-Bissau","name:cs":"Guinea-Bissau","name:ki":"Ginebisau","name:co":"Guinea-Bissau","name:tk":"Gwine\u00fda-Bisau","name:ku":"G\u00een\u00ea-Bissau","name:ti":"\u1262\u1233\u12ce","name:ks":"\u06af\u06cc\u0656\u0646\u06cc \u0628\u0650\u0633\u0627\u0648","name:to":"Kini-Pisau","name:tl":"Ginea-Bissau","name:ce":"\u0413\u0432\u0438\u043d\u0435-\u0411\u0438\u0441\u0430\u0443","name:ta":"\u0b95\u0bbf\u0ba9\u0bbf-\u0baa\u0bbf\u0bb8\u0bcd\u0bb8\u0bbe\u0bb5\u0bcd","name:tg":"\u0413\u0432\u0438\u043d\u0435\u044f \u0411\u0438\u0441\u0430\u0443","name:ca":"Guinea Bissau","name:te":"\u0c17\u0c3f\u0c28\u0c3f\u0c2f\u0c3e-\u0c2c\u0c3f\u0c38\u0c4d\u0c38\u0c3e\u0c35\u0c4d","name:hr":"Gvineja Bisau","name:da":"Guinea-Bissau","name:de":"Guinea-Bissau","name:dz":"\u0f42\u0fb7\u0f72\u0f0b\u0f53\u0f72\u0f0b \u0f56\u0fb7\u0f72\u0f0b\u0f66\u0f71\u0f60\u0f74","source":"openstreetmap.org","name:kn":"\u0c97\u0cbf\u0ca8\u0cbf-\u0cac\u0cbf\u0cb8\u0ccd\u0cb8\u0cbe\u0cb5\u0ccd","name:dv":"\u078e\u07a9\u0782\u07a9-\u0784\u07a8\u0790\u07a7\u0787\u07ab","name:lv":"Gvineja-Bisava","name:lt":"Bisau Gvin\u0117ja","name:uz":"Gvineya-Bissau","name:kk":"\u0413\u0432\u0438\u043d\u0435\u044f-\u0411\u0438\u0441\u0430\u0443","name:ur":"\u06af\u0646\u06cc \u0628\u0633\u0627\u0624","name:lb":"Guinea-Bissau","name:la":"Guinea Bissaviensis","name:lg":"Gini-Bisawu","name:uk":"\u0490\u0432\u0456\u043d\u0435\u044f-\u0411\u0456\u0441\u0430\u0443","name:ug":"\u06af\u06cb\u0649\u0646\u06d0\u064a\u06d5 \u0628\u0649\u0633\u0633\u0627\u0626\u06c7","name:li":"Guinee-Bissau","name:ln":"Gin\u025bbisau","name:lo":"\u0e81\u0eb4\u0ea7\u0e99\u0eb5-\u0e9a\u0eb4\u0eaa\u0ec2\u0e8a","name:el":"\u0393\u03bf\u03c5\u03b9\u03bd\u03ad\u03b1-\u039c\u03c0\u03b9\u03c3\u03ac\u03bf\u03c5","name:eo":"Gvineo Bisa\u016da","name:en":"Guinea-Bissau","name":"Guin\u00e9-Bissau","name:ee":"Gini-Bisao nutome","name:th":"\u0e1b\u0e23\u0e30\u0e40\u0e17\u0e28\u0e01\u0e34\u0e19\u0e35-\u0e1a\u0e34\u0e2a\u0e40\u0e0b\u0e32","name:eu":"Ginea-Bissau","name:et":"Guinea-Bissau","name:es":"Guinea-Bissau","name:ia":"Guinea-Bissau","name:rm":"Guinea-Bissau","name:rn":"Gineya Bisawu","name:az":"Qvineya-Bisau","name:ie":"Guinea-Bissau","name:id":"Guinea-Bissau","name:ar":"\u063a\u064a\u0646\u064a\u0627-\u0628\u064a\u0633\u0627\u0648","name:io":"Guinea Bisau","name:ak":"Gini Bisaw","name:am":"\u130a\u1292 \u1262\u1233\u12a6","name:it":"Guinea-Bissau","name:an":"Guinea-Bissau","name:ru":"\u0413\u0432\u0438\u043d\u0435\u044f-\u0411\u0438\u0441\u0430\u0443","name:rw":"Gineya-Biso","name:af":"Guinee-Bissau","name:zu":"i-Guinea-Bissau","name:ky":"\u0413\u0432\u0438\u043d\u0435\u044f-\u0411\u0438\u0441\u0430\u0443","name:zh-yue":"\u757f\u5167\u4e9e\u6bd4\u7d39","name:zh":"\u51e0\u5185\u4e9a\u6bd4\u7ecd","name:so":"Gini-Bisaaw","name:sn":"Guinea-Bissau","name:sl":"Gvineja Bissau","name:sk":"Guinea-Bissau","name:ja":"\u30ae\u30cb\u30a2\u30d3\u30b5\u30a6","name:si":"\u0d9c\u0dd2\u0db1\u0dd2 \u0db6\u0dd2\u0dc3\u0dc0\u0dca","name:sh":"Gvineja Bisau","name:sg":"Gnin\u00ebe-Bisau","name:se":"Guinea-Bissau","name:sc":"Guinea-Bissau","name:br":"Ginea-Bissau","name:bs":"Gvineja-Bisao","name:bm":"Gine Bisawo","name:bn":"\u0997\u09bf\u09a8\u09bf-\u09ac\u09bf\u09b8\u09be\u0989","name:bo":"\u0f42\u0fb7\u0f72\u0f0b\u0f53\u0f72\u0f0b\u0f61\u0f0b\u0f56\u0f72\u0f66\u0f84\u0f0b\u0f66\u0f7c\u0f0d","name:sw":"Ginebisau","name:be":"\u0413\u0432\u0456\u043d\u0435\u044f-\u0411\u0456\u0441\u0430\u045e","name:su":"Guin\u00e9a-Bissau","name:bg":"\u0413\u0432\u0438\u043d\u0435\u044f-\u0411\u0438\u0441\u0430\u0443","name:ss":"IGiniya-Bhasawu","name:ba":"\u0413\u0432\u0438\u043d\u0435\u044f-\u0411\u0438\u0441\u0430\u0443","name:sq":"Guine Bisau","name:jv":"Guinea-Bissau","name:pt":"Guin\u00e9 Bissau","name:mt":"Ginea-Bissaw","name:oc":"Guin\u00e8a Bissau","min_zoom":2.0,"name:ro":"Guineea-Bissau","name:pa":"\u0a17\u0a3f\u0a28\u0a40-\u0a2c\u0a3f\u0a38\u0a3e\u0a0a","name:os":"\u0413\u0432\u0438\u043d\u0435\u0439-\u0411\u0438\u0441\u0430\u0443","name:or":"\u0b17\u0b41\u0b07\u0b28\u0b3f\u0b06-\u0b2c\u0b3f\u0b38\u0b3e\u0b09","name:pl":"Gwinea Bissau","name:st":"Guinea-Bissau","name:sr":"\u0413\u0432\u0438\u043d\u0435\u0458\u0430-\u0411\u0438\u0441\u0430\u043e","name:tr":"Gine Bissau","name:hi":"\u0917\u0940\u0928\u0940-\u092c\u093f\u0938\u093e\u0909","name:sv":"Guinea-Bissau","name:he":"\u05d2\u05d9\u05e0\u05d9\u05d0\u05d4-\u05d1\u05d9\u05e1\u05d0\u05d5","name:ha":"Gini Bisau","name:hy":"\u0533\u057e\u056b\u0576\u0565\u0561-\u0532\u056b\u057d\u0561\u0578\u0582","name:ht":"Gine-Bisao","name:hu":"Bissau-Guinea","name:qu":"Khiniya-Wisaw","population":1449230,"kind":"country","name:ts":"Guinea-Bissau","name:is":"G\u00ednea-Biss\u00e1","name:yi":"\u05d2\u05d9\u05e0\u05e2-\u05d1\u05d9\u05e1\u05d0\u05d5","name:yo":"Or\u00edl\u1eb9\u0301\u00e8de Gene-Busau","alt_name:el":"\u0393\u03bf\u03c5\u03b9\u03bd\u03ad\u03b1-\u039c\u03c0\u03b9\u03c3\u03c3\u03ac\u03bf\u03c5","name:ms":"Guinea Bissau","name:mr":"\u0917\u093f\u0928\u0940-\u092c\u093f\u0938\u093e\u0909","name:my":"\u1002\u1004\u103a\u1038\u1014\u102e\u1017\u1005\u103a\u1006\u1031\u102c\u1014\u102d\u102f\u1004\u103a\u1004\u1036","official_name":"Rep\u00fablica da Guin\u00e9-Bissau","name:kw":"Gyni-Bissaw","name:mg":"Gin\u00e9-Bisao","name:ml":"\u0d17\u0d3f\u0d28\u0d3f-\u0d2c\u0d3f\u0d38\u0d4b","name:mn":"\u0413\u0432\u0438\u043d\u0435\u0439-\u0411\u0438\u0441\u0430\u0443","name:mi":"Kini Pih\u014d","id":424297609,"name:mk":"\u0413\u0432\u0438\u043d\u0435\u0430-\u0411\u0438\u0441\u0430","name:vo":"Giney\u00e4n-Bisau\u00e4n","name:fa":"\u06af\u06cc\u0646\u0647 \u0628\u06cc\u0633\u0627\u0626\u0648","name:ff":"Gine-Bisaawo","name:fi":"Guinea-Bissau","name:fo":"Guinea Bissau","alt_name:vi":"Guinea-Bissau","name:fr":"Guin\u00e9e-Bissau","name:fy":"Guinee-Bissau","int_name":"Guinea-Bissau","name:nl":"Guinee-Bissau","name:nn":"Guinea-Bissau","name:no":"Guinea-Bissau","name:na":"Gini-Bitau","name:ne":"\u0917\u093f\u0928\u0940-\u092c\u093f\u0938\u093e\u0909","name:wo":"Gine Bisaaw\u00f3o","name:nv":"G\u00edn\u00ed Bis\u00f3","name:ga":"Guine-Bhissau","name:gd":"Gini-Bissau","name:gl":"Guinea-Bissau","name:gv":"Yn Ghuinea-Bissau","name:gu":"\u0a97\u0abf\u0aa8\u0ac0-\u0aac\u0abf\u0ab8\u0abe\u0a89","name:tt":"\u0413\u0432\u0438\u043d\u0435\u044f-\u0411\u0438\u0441\u0430\u0443"},"coordinates":[2876,1375]},{"type":"Point","properties":{"source":"openstreetmap.org","kind":"region","name":"S\u00e9dhiou","kind_detail":"state","min_zoom":4.0,"id":2242821245},"coordinates":[1921,2559]},{"type":"Point","properties":{"source":"naturalearthdata.com","kind":"locality","name":"Bissau","country_capital":true,"population":403339,"min_zoom":5.0,"id":6922},"coordinates":[1859,1025]},{"type":"Point","properties":{"source":"naturalearthdata.com","kind":"locality","name":"Banjul","country_capital":true,"population":43094,"min_zoom":5.0,"id":6564},"coordinates":[413,3395]},{"type":"Point","properties":{"source":"naturalearthdata.com","kind":"locality","name":"Ziguinchor","population":191716,"region_capital":true,"min_zoom":6.0,"id":5654},"coordinates":[852,2106]},{"type":"Point","properties":{"source":"naturalearthdata.com","kind":"locality","name":"Brikama","population":195136,"region_capital":true,"min_zoom":7.0,"id":3830},"coordinates":[313,3136]},{"type":"Point","properties":{"source":"naturalearthdata.com","kind":"locality","name":"Kolda","population":69267,"region_capital":true,"min_zoom":7.0,"id":2628},"coordinates":[2803,2584]},{"type":"Point","properties":{"source":"naturalearthdata.com","kind":"locality","name":"Bafata","population":29704,"region_capital":true,"min_zoom":7.0,"id":3355},"coordinates":[3217,1475]},{"type":"Point","properties":{"source":"naturalearthdata.com","kind":"locality","name":"Bolama","population":10769,"region_capital":true,"min_zoom":7.0,"id":3354},"coordinates":[2028,604]},{"type":"Point","properties":{"source":"naturalearthdata.com","kind":"locality","name":"Bansang","population":7615,"min_zoom":7.0,"id":3829},"coordinates":[3240,3365]}]},"transit":{"type":"GeometryCollection","geometries":[]},"pois":{"type":"GeometryCollection","geometries":[]},"boundaries":{"type":"GeometryCollection","geometries":[{"type":"MultiLineString","properties":{"source":"naturalearthdata.com","kind":"country","sort_rank":262,"kind_detail":"2","min_zoom":0.0,"id":289},"arcs":[[0],[1],[2],[3],[4],[5],[6]]},{"type":"MultiLineString","properties":{"source":"naturalearthdata.com","kind":"country","sort_rank":262,"kind_detail":"2","min_zoom":0.0,"id":359},"arcs":[[7],[8],[9],[10],[11],[12],[13],[14],[15],[16]]},{"type":"MultiLineString","properties":{"source":"naturalearthdata.com","kind":"country","sort_rank":262,"kind_detail":"2","min_zoom":0.0,"id":377},"arcs":[[17],[18],[19],[20],[21],[22],[23],[24],[25],[26],[27],[28],[29],[30],[31],[32],[33],[34],[35],[36],[37],[38],[39]]},{"type":"LineString","properties":{"source":"naturalearthdata.com","kind":"region","name":"S\u00e9dhiou - Ziguinchor","sort_rank":256,"kind_detail":"4","min_zoom":6.0,"id":2055},"arcs":[40]},{"type":"LineString","properties":{"source":"naturalearthdata.com","kind":"region","sort_rank":256,"kind_detail":"4","min_zoom":6.8,"id":235},"arcs":[41]},{"type":"LineString","properties":{"source":"naturalearthdata.com","kind":"region","sort_rank":256,"kind_detail":"4","min_zoom":6.8,"id":236},"arcs":[42]},{"type":"LineString","properties":{"source":"naturalearthdata.com","kind":"region","name":"Fatick - Kaolack","sort_rank":256,"kind_detail":"4","min_zoom":6.0,"id":2042},"arcs":[43]},{"type":"LineString","properties":{"source":"naturalearthdata.com","kind":"region","name":"Tambacounda - Kaffrine","sort_rank":256,"kind_detail":"4","min_zoom":6.0,"id":2053},"arcs":[44]},{"type":"LineString","properties":{"source":"naturalearthdata.com","kind":"region","name":"S\u00e9dhiou - Ziguinchor","sort_rank":256,"kind_detail":"4","min_zoom":6.0,"id":2054},"arcs":[45]},{"type":"MultiLineString","properties":{"source":"naturalearthdata.com","kind":"region","name":"Tombali - Quinara","sort_rank":256,"kind_detail":"4","min_zoom":6.8,"id":3999},"arcs":[[46],[47],[48]]},{"type":"MultiLineString","properties":{"source":"naturalearthdata.com","kind":"region","name":"Lower River - West Coast","sort_rank":256,"kind_detail":"4","min_zoom":5.5,"id":4000},"arcs":[[49],[50],[51],[52],[53],[54]]},{"type":"MultiLineString","properties":{"source":"naturalearthdata.com","kind":"region","name":"North Bank - Central River","sort_rank":256,"kind_detail":"4","min_zoom":5.5,"id":4001},"arcs":[[55],[56],[57]]},{"type":"MultiLineString","properties":{"source":"naturalearthdata.com","kind":"region","name":"Central River - Lower River","sort_rank":256,"kind_detail":"4","min_zoom":5.5,"id":4002},"arcs":[[58],[59]]},{"type":"MultiLineString","properties":{"source":"naturalearthdata.com","kind":"region","name":"Upper River - Central River","sort_rank":256,"kind_detail":"4","min_zoom":5.5,"id":4003},"arcs":[[60],[61],[62]]},{"type":"MultiLineString","properties":{"source":"naturalearthdata.com","kind":"macroregion","name":"Tombali - Bafat\u00e1","sort_rank":257,"kind_detail":"3","min_zoom":6.8,"id":3995},"arcs":[[63],[64],[65],[66],[67]]},{"type":"LineString","properties":{"source":"naturalearthdata.com","kind":"macroregion","name":"Gab\u00fa - Tombali","sort_rank":257,"kind_detail":"3","min_zoom":6.8,"id":3996},"arcs":[68]},{"type":"LineString","properties":{"source":"naturalearthdata.com","kind":"macroregion","name":"Bissau - Biombo","sort_rank":257,"kind_detail":"3","min_zoom":6.8,"id":3988},"arcs":[69]},{"type":"LineString","properties":{"source":"naturalearthdata.com","kind":"region","name":"Biombo - Cacheu","sort_rank":256,"kind_detail":"4","min_zoom":6.8,"id":3989},"arcs":[70]},{"type":"LineString","properties":{"source":"naturalearthdata.com","kind":"macroregion","name":"Bissau - Oio","sort_rank":257,"kind_detail":"3","min_zoom":6.8,"id":3990},"arcs":[71]},{"type":"MultiLineString","properties":{"source":"naturalearthdata.com","kind":"macroregion","name":"Bafat\u00e1 - Quinara","sort_rank":257,"kind_detail":"3","min_zoom":6.8,"id":3997},"arcs":[[72],[73],[74],[75],[76]]},{"type":"MultiLineString","properties":{"source":"naturalearthdata.com","kind":"region","name":"Quinara - Bolama","sort_rank":256,"kind_detail":"4","min_zoom":6.8,"id":3998},"arcs":[[77],[78]]},{"type":"MultiLineString","properties":{"source":"naturalearthdata.com","kind":"macroregion","name":"Oio - Bafat\u00e1","sort_rank":257,"kind_detail":"3","min_zoom":6.8,"id":3991},"arcs":[[79],[80],[81],[82],[83],[84]]},{"type":"LineString","properties":{"source":"naturalearthdata.com","kind":"region","name":"Oio - Biombo","sort_rank":256,"kind_detail":"4","min_zoom":6.8,"id":3992},"arcs":[85]},{"type":"MultiLineString","properties":{"source":"naturalearthdata.com","kind":"region","name":"Cacheu - Oio","sort_rank":256,"kind_detail":"4","min_zoom":6.8,"id":3993},"arcs":[[86],[87],[88],[89],[90],[91],[92],[93],[94]]},{"type":"MultiLineString","properties":{"source":"naturalearthdata.com","kind":"region","name":"Bafat\u00e1 - Gab\u00fa","sort_rank":256,"kind_detail":"4","min_zoom":6.8,"id":3994},"arcs":[[95],[96],[97],[98],[99],[100],[101],[102],[103],[104],[105],[106],[107],[108],[109],[110],[111],[112],[113],[114],[115]]},{"type":"MultiLineString","properties":{"source":"naturalearthdata.com","kind":"region","name":"Banjul - West Coast","sort_rank":256,"kind_detail":"4","min_zoom":5.5,"id":9036},"arcs":[[116],[117]]},{"type":"LineString","properties":{"source":"naturalearthdata.com","kind":"region","name":"Kolda - S\u00e9dhiou","sort_rank":256,"kind_detail":"4","min_zoom":6.0,"id":9038},"arcs":[118]},{"type":"MultiLineString","properties":{"source":"naturalearthdata.com","kind":"region","name":"Kaffrine - Kaolack","sort_rank":256,"kind_detail":"4","min_zoom":6.0,"id":9039},"arcs":[[119],[120],[121],[122],[123]]}]},"roads":{"type":"GeometryCollection","geometries":[{"type":"LineString","properties":{"source":"naturalearthdata.com","kind":"major_road","sort_rank":379,"kind_detail":"secondary","min_zoom":3.0,"id":36447},"arcs":[157]},{"type":"LineString","properties":{"source":"naturalearthdata.com","kind":"major_road","sort_rank":379,"kind_detail":"secondary","min_zoom":3.0,"id":36563},"arcs":[158]},{"type":"LineString","properties":{"source":"naturalearthdata.com","kind":"major_road","sort_rank":379,"kind_detail":"secondary","min_zoom":4.0,"id":36602},"arcs":[159]},{"type":"LineString","properties":{"source":"naturalearthdata.com","kind":"major_road","kind_detail":"secondary","sort_rank":379,"landuse_kind":"urban_area","min_zoom":3.0,"id":36640},"arcs":[160]},{"type":"MultiLineString","properties":{"source":"naturalearthdata.com","kind":"major_road","sort_rank":379,"kind_detail":"secondary","min_zoom":3.0,"id":36640},"arcs":[[161],[162]]},{"type":"LineString","properties":{"source":"naturalearthdata.com","kind":"minor_road","sort_rank":355,"kind_detail":"tertiary","min_zoom":7.0,"id":36661},"arcs":[163]},{"type":"LineString","properties":{"source":"naturalearthdata.com","kind":"minor_road","sort_rank":355,"kind_detail":"tertiary","min_zoom":7.0,"id":36713},"arcs":[164]},{"type":"LineString","properties":{"source":"naturalearthdata.com","kind":"major_road","kind_detail":"secondary","sort_rank":379,"landuse_kind":"urban_area","min_zoom":4.0,"id":36721},"arcs":[165]},{"type":"MultiLineString","properties":{"source":"naturalearthdata.com","kind":"major_road","sort_rank":379,"kind_detail":"secondary","min_zoom":4.0,"id":36721},"arcs":[[166],[167]]},{"type":"LineString","properties":{"source":"naturalearthdata.com","kind":"minor_road","sort_rank":355,"kind_detail":"tertiary","min_zoom":7.0,"id":36754},"arcs":[168]},{"type":"LineString","properties":{"source":"naturalearthdata.com","kind":"minor_road","sort_rank":355,"kind_detail":"tertiary","min_zoom":7.0,"id":36770},"arcs":[169]},{"type":"LineString","properties":{"source":"naturalearthdata.com","kind":"minor_road","sort_rank":355,"kind_detail":"tertiary","min_zoom":7.0,"id":36771},"arcs":[170]},{"type":"LineString","properties":{"source":"naturalearthdata.com","kind":"major_road","sort_rank":379,"kind_detail":"secondary","min_zoom":3.0,"id":36805},"arcs":[171]},{"type":"LineString","properties":{"source":"naturalearthdata.com","kind":"major_road","sort_rank":379,"kind_detail":"secondary","min_zoom":4.0,"id":36836},"arcs":[172]},{"type":"LineString","properties":{"source":"naturalearthdata.com","kind":"minor_road","sort_rank":355,"kind_detail":"tertiary","min_zoom":7.0,"id":36856},"arcs":[173]},{"type":"LineString","properties":{"source":"naturalearthdata.com","kind":"minor_road","sort_rank":355,"kind_detail":"tertiary","min_zoom":7.0,"id":36903},"arcs":[174]},{"type":"LineString","properties":{"source":"naturalearthdata.com","kind":"minor_road","sort_rank":355,"kind_detail":"tertiary","min_zoom":7.0,"id":36913},"arcs":[175]},{"type":"LineString","properties":{"source":"naturalearthdata.com","kind":"minor_road","sort_rank":355,"kind_detail":"tertiary","min_zoom":7.0,"id":36914},"arcs":[176]},{"type":"LineString","properties":{"source":"naturalearthdata.com","kind":"minor_road","sort_rank":355,"kind_detail":"tertiary","min_zoom":7.0,"id":36915},"arcs":[177]},{"type":"LineString","properties":{"source":"naturalearthdata.com","kind":"major_road","sort_rank":379,"kind_detail":"secondary","min_zoom":3.0,"id":36918},"arcs":[178]},{"type":"LineString","properties":{"source":"naturalearthdata.com","kind":"major_road","sort_rank":379,"kind_detail":"secondary","min_zoom":4.0,"id":36919},"arcs":[179]},{"type":"LineString","properties":{"source":"naturalearthdata.com","kind":"minor_road","sort_rank":355,"kind_detail":"tertiary","min_zoom":7.0,"id":36959},"arcs":[180]},{"type":"LineString","properties":{"source":"naturalearthdata.com","kind":"major_road","kind_detail":"secondary","sort_rank":379,"landuse_kind":"urban_area","min_zoom":3.0,"id":36999},"arcs":[181]},{"type":"LineString","properties":{"source":"naturalearthdata.com","kind":"major_road","sort_rank":379,"kind_detail":"secondary","min_zoom":3.0,"id":36999},"arcs":[182]},{"type":"LineString","properties":{"source":"naturalearthdata.com","kind":"major_road","kind_detail":"secondary","sort_rank":379,"landuse_kind":"urban_area","min_zoom":3.0,"id":37009},"arcs":[183]},{"type":"LineString","properties":{"source":"naturalearthdata.com","kind":"major_road","kind_detail":"secondary","sort_rank":379,"landuse_kind":"urban_area","min_zoom":3.0,"id":37079},"arcs":[184]},{"type":"LineString","properties":{"source":"naturalearthdata.com","kind":"major_road","sort_rank":379,"kind_detail":"secondary","min_zoom":3.0,"id":37079},"arcs":[185]},{"type":"LineString","properties":{"source":"naturalearthdata.com","kind":"minor_road","sort_rank":355,"kind_detail":"tertiary","min_zoom":7.0,"id":37135},"arcs":[186]},{"type":"LineString","properties":{"source":"naturalearthdata.com","kind":"major_road","sort_rank":379,"kind_detail":"secondary","min_zoom":3.0,"id":37143},"arcs":[187]},{"type":"LineString","properties":{"source":"naturalearthdata.com","kind":"major_road","sort_rank":379,"kind_detail":"secondary","min_zoom":3.0,"id":37146},"arcs":[188]},{"type":"LineString","properties":{"source":"naturalearthdata.com","kind":"major_road","sort_rank":379,"kind_detail":"secondary","min_zoom":3.0,"id":37202},"arcs":[189]},{"type":"LineString","properties":{"source":"naturalearthdata.com","kind":"major_road","sort_rank":379,"kind_detail":"secondary","min_zoom":3.0,"id":37237},"arcs":[190]},{"type":"LineString","properties":{"source":"naturalearthdata.com","kind":"major_road","sort_rank":379,"kind_detail":"secondary","min_zoom":3.0,"id":37243},"arcs":[191]},{"type":"LineString","properties":{"source":"naturalearthdata.com","kind":"major_road","sort_rank":379,"kind_detail":"secondary","min_zoom":3.0,"id":37274},"arcs":[192]},{"type":"LineString","properties":{"source":"naturalearthdata.com","kind":"major_road","sort_rank":379,"kind_detail":"secondary","min_zoom":3.0,"id":37275},"arcs":[193]},{"type":"LineString","properties":{"source":"naturalearthdata.com","kind":"major_road","sort_rank":379,"kind_detail":"secondary","min_zoom":3.0,"id":37276},"arcs":[194]},{"type":"LineString","properties":{"source":"naturalearthdata.com","kind":"major_road","sort_rank":379,"kind_detail":"secondary","min_zoom":3.0,"id":37302},"arcs":[195]},{"type":"LineString","properties":{"source":"naturalearthdata.com","kind":"major_road","kind_detail":"secondary","sort_rank":379,"landuse_kind":"urban_area","min_zoom":3.0,"id":37313},"arcs":[196]},{"type":"LineString","properties":{"source":"naturalearthdata.com","kind":"major_road","sort_rank":379,"kind_detail":"secondary","min_zoom":3.0,"id":37313},"arcs":[197]},{"type":"LineString","properties":{"source":"naturalearthdata.com","kind":"minor_road","sort_rank":355,"kind_detail":"tertiary","min_zoom":5.0,"id":37756},"arcs":[198]}]},"earth":{"type":"GeometryCollection","geometries":[{"type":"MultiPolygon","properties":{"sort_rank":10,"source":"naturalearthdata.com","min_zoom":0.0,"kind":"earth","area":367007515573},"arcs":[[[199]],[[200]],[[201]],[[202]],[[203]],[[204]],[[205]],[[206]],[[207]],[[208]],[[209]],[[210]],[[211]],[[212]],[[213]]]}]},"landuse":{"type":"GeometryCollection","geometries":[{"type":"MultiPolygon","properties":{"source":"naturalearthdata.com","kind":"urban_area","name":"","area":269286681,"sort_rank":11,"min_zoom":4.0},"arcs":[[[214]],[[215]],[[216]],[[217]],[[218]],[[219]]]}]}},"type":"Topology","transform":{"translate":[-16.875,11.1784018737],"scale":[0.0006866455,0.0006701665]},"arcs":[[[3765,732],[8,-1],[8,-5],[122,-8]],[[3368,488],[60,11],[129,71],[136,75],[19,15],[9,15],[17,35],[12,13],[15,9]],[[3937,723],[14,-3],[13,-9],[13,-11],[14,-9],[23,-5]],[[3903,718],[34,5]],[[4014,686],[21,1],[43,7],[18,1]],[[3247,502],[121,-14]],[[2899,0],[31,60],[29,117],[22,56],[144,214],[26,29],[36,20],[60,6]],[[4096,2233],[-29,0],[-380,2],[-137,0],[-516,2],[-117,1],[-399,1],[-71,1]],[[2447,2240],[-42,-7],[-38,-17],[-85,-61],[-88,-41],[-78,-57],[-4,-3],[-367,-173],[-51,-10]],[[1313,1878],[-28,6],[-91,30],[-52,5]],[[1142,1919],[-110,-19],[-9,-5],[-7,-5],[-7,-2]],[[1009,1888],[-12,2],[-31,12],[-16,3]],[[950,1905],[-15,-3],[-100,-55],[-117,-63],[-44,-18],[-74,-1],[-76,-19],[-26,-1]],[[1694,1871],[-251,15],[-14,1]],[[1429,1887],[-116,-9]],[[498,1745],[-198,13]],[[300,1758],[-53,-13],[-34,-23]],[[2588,3942],[32,-2],[86,-33],[147,-6],[53,-18],[28,-22],[24,-20],[18,-25],[13,-28],[29,-97],[10,-11],[60,-36],[20,-8]],[[2341,3825],[31,7],[110,71],[106,39]],[[2224,3895],[63,-10],[14,-13],[28,-38],[12,-9]],[[1976,3588],[23,8],[3,59],[3,20],[2,11],[12,32],[15,32],[16,25],[45,49],[62,45],[67,26]],[[3274,3708],[60,-4],[63,-30],[28,-22],[20,-25],[14,-29],[19,-64],[9,-20],[15,-16],[12,-9],[106,-76],[35,-16],[26,-4]],[[3108,3636],[18,6],[89,50],[59,16]],[[3223,3227],[-53,6],[-48,21],[-41,36],[-29,41],[-16,10],[-30,6],[-27,8],[-48,30],[-22,7],[-56,4],[-49,13],[-95,49],[-1,0],[-72,53],[-66,61],[-40,26]],[[2530,3598],[-33,-13],[-30,-31],[-33,-35],[-21,-33],[-5,-92],[-9,-41],[-30,-40],[-42,-27],[-48,-18],[-47,-9],[-54,0]],[[457,3594],[91,0],[90,-1],[91,0],[90,0],[91,-1],[90,0],[91,-1],[59,0],[31,0],[90,0],[91,0],[90,-1],[91,0],[90,0],[91,-1],[90,0],[91,-1],[71,0]],[[4096,3158],[-54,-19]],[[3681,3393],[26,6],[85,31],[81,50],[27,12],[84,19],[68,35],[29,7],[15,1]],[[2178,3259],[-159,34],[-45,2]],[[1974,3295],[-34,-13],[-34,-18],[-44,-15],[-23,-2]],[[1839,3247],[-98,9]],[[1741,3256],[-19,0],[-65,-21],[-102,-10],[-17,-9],[-5,-21],[-3,-106],[0,-23],[-3,-107],[-10,-7]],[[3689,3067],[-39,3],[-38,11],[-53,27],[-16,11],[-14,12],[-11,15],[-16,17],[-19,6],[-46,2],[-21,6],[-20,11],[-13,12],[-42,39],[-16,6]],[[3325,3245],[-48,-12],[-54,-6]],[[4042,3139],[-25,0]],[[4017,3139],[-22,-10],[-70,-53],[-32,-15],[-42,-2]],[[3851,3059],[-79,15]],[[3772,3074],[-83,-7]],[[1517,2952],[-55,1],[-38,0],[-94,1],[-190,2],[-322,2],[-221,2],[-240,3],[-64,0]],[[293,2963],[-50,-11],[-22,-37],[-4,-14],[-24,-23],[-9,-12],[-5,-17],[-2,-34]],[[1327,2125],[-1,-9],[4,-40],[21,-44],[26,-38],[14,-32],[46,-67],[6,-9]],[[1745,935]],[[1936,1074]],[[1150,3591],[0,1],[-5,10],[-8,29],[-20,26],[-47,43],[-12,15],[-8,14],[-5,22],[-7,49],[-6,19],[-9,12],[-11,8],[-23,14],[-46,39],[-14,14],[-5,13],[-2,13],[1,22],[1,10],[4,10],[8,10],[21,18],[17,22],[7,11],[5,12],[1,11],[0,11],[-5,27]],[[3247,4096],[-61,-59],[-35,-27],[-6,-4],[-67,-17],[-15,-6],[-8,-2],[-19,0],[-17,-4],[-15,-5],[-21,-22],[-17,-24],[-26,-46],[-6,-19]],[[1424,2953],[-14,-23],[-25,-29],[-7,-17],[1,-13],[10,-5],[11,-4],[9,-4],[9,-11],[0,-11],[-59,-122],[-65,-105],[-2,-17],[2,-16],[7,-25],[-5,-16],[-2,-30],[-3,-10],[-4,-8],[-15,-15],[-8,-10],[-3,-9],[-12,-92],[-6,-14],[-3,-21],[2,-12]],[[2979,776],[-35,-64],[-66,-98],[-20,-43],[-2,-9],[-2,-18],[2,-28],[-1,-9],[-2,-8],[-2,-8],[-3,-5],[-5,-6],[-6,-7],[-9,-11],[-17,-35],[-16,-25],[-8,-6],[-13,-6],[-56,-13],[-8,-2],[-14,-7],[-8,-2],[-34,-6],[-53,-19]],[[2601,341],[-10,1],[-12,2],[-16,8],[-9,6],[-7,7],[-23,29],[-4,4],[-6,3],[-11,4],[-25,19],[-26,13],[-7,3]],[[2445,440],[-27,-9],[-71,-61],[-14,-9]],[[1074,3152],[28,-3],[6,-7],[3,-7],[1,-10],[6,-10],[14,-14],[11,-5]],[[1054,3142],[20,10]],[[1305,3136],[12,-1],[212,-46],[1,0]],[[1215,3118],[11,2],[10,3],[30,3],[39,10]],[[1182,3125],[11,-1],[13,-5],[9,-1]],[[1143,3096],[9,0],[5,6],[10,17],[15,6]],[[2117,3664],[-26,1],[-65,9],[-21,1]],[[2291,3458],[-86,63],[-17,42],[3,69],[4,21],[-17,9],[-50,3]],[[2128,3665],[-11,-1]],[[2454,3558],[9,-2],[3,-2],[1,0]],[[2294,3458],[3,13],[92,54],[37,17],[17,13],[11,3]],[[3514,3489],[-22,-14],[-6,-7],[-7,-9],[-3,-11],[-7,-20],[-6,-9],[-6,-7],[-26,-17],[36,-76],[8,-6],[-21,-12]],[[3454,3301],[-5,3],[-7,3]],[[3442,3307],[-10,-7],[-10,-9],[-33,-72],[-6,-19]],[[3118,626],[-40,16],[-36,32],[-24,34],[-7,24],[0,17],[-7,14],[-25,13]],[[3449,691],[-34,2]],[[3415,693],[-66,-7],[-33,-7],[-41,-18],[-13,-2]],[[3262,659],[-10,4],[-16,14],[-5,3],[-25,2]],[[3206,682],[-14,-6],[-39,-39],[-35,-11]],[[3449,691],[62,-15],[6,-21],[0,-11],[7,-26],[33,-47],[0,-1]],[[1822,1175],[-69,-126],[-9,-51],[-1,-25],[2,-38]],[[1761,1273],[-58,-32],[-2,-1],[0,-1]],[[1936,1074],[-27,16],[-8,7],[-19,24],[-12,5],[-18,6],[-8,6],[-5,6],[-17,31]],[[2871,911],[13,-6],[5,-11],[2,-11],[8,-14],[6,-13],[4,-5]],[[2839,882],[1,0],[6,20],[9,8],[16,1]],[[2924,858],[6,0],[37,-17],[5,-6],[-5,-12],[-37,-44],[2,-8]],[[2909,851],[8,5],[7,2]],[[2932,771],[47,5]],[[2182,767],[8,0],[27,-5],[16,-7],[0,-2]],[[2108,749],[5,4],[49,12],[20,2]],[[2834,1512],[6,4],[3,12],[1,69],[4,29],[-3,20],[-4,12],[-6,7],[-28,23],[-4,6],[-4,6],[-2,8],[-2,9],[-5,147],[2,8],[8,3],[70,14],[23,9],[6,4],[18,14],[7,3],[7,3],[7,3],[6,5],[4,6],[2,8],[-5,13],[-5,8],[-3,5],[-4,5],[-19,19],[-37,25],[-5,5],[-3,8],[1,13],[9,23],[6,12],[14,21],[7,15],[23,39],[4,8],[2,10],[1,17],[-3,18],[-16,30]],[[2726,1544],[5,-1],[5,-2],[38,-21],[8,-2],[8,-2],[28,-1],[16,-3]],[[2695,1538],[8,1],[8,3],[7,2],[8,0]],[[2673,1542],[7,-1],[7,-2],[8,-1]],[[2761,1161],[15,3],[8,3],[7,3],[6,4],[4,3],[2,2],[1,5],[0,5],[-4,10],[-10,21],[-1,7],[-1,4],[0,9],[3,10],[5,14],[3,8],[-5,7],[-59,34],[-7,6],[-13,5],[-16,4],[-6,4],[-5,6],[-3,7],[-5,37],[-6,15],[-46,79],[-1,9],[3,11],[11,17],[14,17],[5,5],[6,4],[7,3]],[[2740,1163],[4,-2],[17,0]],[[1761,1273],[47,-58],[5,-9],[9,-31]],[[2060,1793],[9,3],[48,34],[8,4],[7,6],[7,9],[9,33],[3,21],[1,20],[-5,34],[-27,92],[-4,8]],[[2020,1832],[8,-1],[6,-4],[8,-24],[4,-6],[6,-4],[8,0]],[[1993,1829],[7,0],[5,1],[7,2],[8,0]],[[1987,1831],[6,-2]],[[1776,1705],[8,2],[29,14],[7,7],[8,14],[8,9],[55,36],[28,10],[15,7],[27,20],[14,5],[12,2]],[[1748,1707],[28,-2]],[[1690,1660],[8,0],[9,1],[8,3],[6,5],[1,9],[-2,7],[0,8],[5,7],[13,5],[10,2]],[[1678,1685],[5,-7],[2,-14],[5,-4]],[[1761,1273],[-4,12],[-2,6],[0,10],[12,43],[0,13],[-1,10],[-2,8],[0,9],[17,61],[2,16],[-1,12],[-4,6],[-4,6],[-7,4],[-39,13],[-7,3],[-6,4],[-6,5],[-14,16],[-33,29],[-20,22],[-5,6],[-2,7],[-1,6],[3,7],[11,10],[2,9],[-3,5],[-3,7],[1,10],[17,22],[9,11],[7,4]],[[3628,2144],[8,1],[8,2],[7,8],[6,10],[7,21],[23,49]],[[3592,2176],[6,-3],[11,-10],[8,-12],[5,-5],[6,-2]],[[3613,1971],[4,1],[3,1],[3,2],[5,7],[6,10],[8,20],[1,11],[-3,6],[-5,1],[-6,2],[-9,10],[-15,5],[-5,5],[-4,6],[-5,20],[-7,85],[3,10],[5,3]],[[3425,2026],[6,-6],[1,-7],[-2,-10],[2,-6],[5,-3]],[[3436,1947],[-8,0],[-7,3],[-5,9],[-5,14],[-4,26],[1,14],[3,10],[7,3],[7,0]],[[3456,2000],[4,-1],[4,-3],[4,-5],[6,-3]],[[3437,1994],[7,1],[12,5]],[[3577,1994],[6,-3],[6,-4],[10,-10],[5,-3],[2,-1],[7,-2]],[[3529,1964],[6,2],[4,3],[17,18],[5,4],[7,3],[9,0]],[[3498,1990],[8,-2],[5,-4],[5,-13],[2,-3],[5,-3],[6,-1]],[[3474,1988],[8,0],[16,2]],[[3480,1876],[5,3],[5,6],[5,4],[7,4],[8,2],[9,8],[2,9],[0,9],[-3,8],[-3,6],[-20,23],[-5,4],[-6,3],[-7,1]],[[3477,1966],[-7,-3],[-20,-11],[-7,-3],[-7,-2]],[[3455,1897],[4,-1],[4,-4],[6,-12],[5,-4],[6,0]],[[3420,1820],[8,1],[9,1],[8,3],[7,5],[5,6],[1,5],[-1,6],[-4,7],[-7,26],[1,10],[3,6],[5,1]],[[3401,1827],[11,-6],[8,-1]],[[3522,1421],[9,4],[9,12],[12,32],[4,18],[-2,12],[-4,5],[-7,4],[-15,5],[-6,4],[-6,4],[-5,5],[-3,4],[-2,5],[-23,77],[0,12],[1,10],[9,14],[4,10],[5,17],[0,11],[-3,8],[-4,6],[-11,10],[-12,8],[-6,2],[-25,7],[-7,4],[-6,4],[-5,6],[-8,12],[-5,5],[-7,4],[-24,4],[-2,3],[-1,4],[2,2],[2,3],[4,5],[2,6],[-4,4],[-6,3],[-2,5],[1,5],[4,6],[5,6],[6,4],[5,4],[6,1]],[[3514,1422],[8,-1]],[[3472,1398],[7,2],[6,4],[16,13],[6,3],[7,2]],[[3447,1402],[18,-3],[7,-1]],[[3449,691],[7,83],[6,20],[5,4],[6,4],[23,11],[9,6],[10,12],[3,9],[-2,8],[-5,5],[-10,10],[-4,8],[-3,9],[0,28],[-8,55],[-3,68],[1,18],[3,12],[17,51],[1,12],[-3,9],[-4,5],[-30,22],[-6,6],[-4,7],[-4,14],[0,9],[3,7],[3,3],[5,11],[5,18],[7,41],[0,20],[-3,12],[-6,3],[-22,10],[-12,7],[-6,6],[-6,7],[-5,15],[0,13],[3,17],[4,9],[7,5],[8,2],[8,0]],[[163,3322],[40,-53],[45,-47],[60,-5]],[[308,3217],[64,47],[35,29]],[[2232,3259],[-4,-65],[-13,-57],[-17,-57],[9,-53],[51,-35],[68,-13],[22,-35],[30,-79],[4,-48],[4,-35],[47,-30],[52,-36],[-5,-39],[5,-52],[29,-36],[26,-43],[0,-53],[0,-70],[-21,-48],[-13,-44],[12,-92]],[[1658,4096],[50,-30],[5,-38],[-16,-37],[0,-38],[21,-44],[42,-43],[37,-16]],[[1882,3953],[100,-44],[58,-5]],[[1797,3850],[27,11],[26,43],[32,49]],[[2083,3904],[74,-35]],[[2040,3904],[43,0]],[[512,4096],[29,0],[-10,-45],[-8,-20],[22,-11],[6,-29],[3,-38],[11,-34],[-21,-4],[-17,17],[-10,28],[-3,29],[-50,-9],[7,-25],[4,-7],[-9,6],[-23,10],[-8,6],[-9,-21],[-52,-62],[-13,-19],[-4,-15],[-3,-37],[-12,-59],[7,-27],[25,-27],[28,-9],[29,8],[22,22],[11,31],[21,-2],[15,20],[7,29],[-4,24],[30,-3],[3,-18],[-14,-23],[-19,-18],[8,-4],[15,-11],[8,-4],[-37,-29],[-36,-19],[-25,-23],[-1,-42],[7,-16],[15,-22],[9,-15],[9,-19],[1,-24],[-12,-63],[0,-30],[3,-6],[14,-9],[10,-16],[26,-20],[6,-11],[4,-11],[14,-30],[3,-20],[-3,-16],[-18,-37],[-9,-13],[47,-3],[113,-28],[32,-2],[50,1],[50,8],[28,15],[-7,2],[-7,5],[-6,2],[0,10],[6,2],[14,7],[-8,17],[3,13],[24,22],[6,-17],[-2,-17],[-5,-16],[1,-11],[13,-9],[11,4],[10,9],[12,5],[13,11],[62,62],[40,30],[27,14],[27,6],[29,-4],[46,-17],[466,37],[52,16],[65,35],[26,6],[25,-3],[39,-19],[25,1],[15,10],[21,29],[15,11],[29,8],[19,-4],[16,-8],[20,-5],[7,-3],[8,-7],[12,-7],[13,-3],[12,3],[12,5],[13,2],[13,-6],[35,-32],[24,-17],[21,-7],[23,-3],[50,-14],[27,-4],[16,6],[15,14],[11,20],[3,22],[3,0],[7,0],[-14,-60],[-52,-22],[-64,4],[-50,16],[-16,16],[-13,20],[-18,19],[-28,7],[-13,-3],[-15,-6],[-16,-2],[-15,6],[-13,11],[-17,9],[-18,6],[-17,-1],[-14,-10],[-23,-36],[-13,-15],[-16,-12],[-14,-6],[-15,-2],[-21,-1],[-14,5],[-21,22],[-14,5],[-14,-4],[-27,-20],[-14,-8],[-85,-26],[-30,-3],[-94,11],[-31,-2],[-5,-3],[-6,-6],[-7,-7],[-11,-4],[-14,-3],[-7,0],[-8,2],[-16,1],[-28,-3],[-78,-19],[-204,12],[-24,9],[-14,3],[-7,-7],[-4,-16],[-11,-12],[-59,-49],[-12,-18],[-4,-28],[1,-12],[2,-12],[5,-9],[7,-3],[9,-6],[4,-15],[0,-17],[7,-41],[6,-8],[14,10],[12,12],[13,8],[15,5],[16,2],[0,-11],[-50,-27],[-35,-11],[-26,7],[-4,26],[6,35],[-6,29],[-40,13],[-29,-8],[-54,-36],[-27,-8],[-24,-12],[-20,-21],[-16,-6],[-15,30],[-18,-9],[-20,-3],[-42,1],[0,-11],[20,2],[16,-5],[10,-13],[3,-19],[6,-4],[27,-27],[8,-15],[-19,15],[-13,-1],[-29,-24],[9,20],[-1,27],[-8,23],[-14,10],[-30,3],[-15,7],[-11,11],[-19,12],[-21,6],[-74,3],[-11,9],[-54,63],[3,25],[-10,45],[-19,42],[-23,21],[17,17],[24,2],[16,5],[-8,27],[-16,16],[-22,9],[-26,-2],[-26,-13],[-15,7],[-12,8],[-8,11],[-3,15],[-38,-30],[-85,-106],[-16,-13],[-19,-10],[-18,-4],[-15,-10],[-16,-46],[-13,-16],[14,-34],[5,-7],[-11,-24],[6,-20],[25,-29],[8,-19],[3,-20],[-3,-70],[1,-17],[28,-74],[3,-23],[-10,-21],[-6,-12],[3,-11],[23,-8],[22,-19],[6,-12],[2,-25],[-3,-40],[-14,-62],[-4,-31],[2,-17],[7,-35],[1,-19],[-5,-19],[-52,-77],[-9,-20],[-3,-17],[4,-23],[9,-6],[10,8],[7,16],[11,0],[7,-26],[-7,-22],[-31,-45],[8,-12],[3,-13],[-3,-13],[-8,-12],[18,-4],[17,12],[30,37],[25,9],[31,-6],[20,-16],[-2,-22],[-51,17],[-37,-30],[-23,-52],[-8,-53],[2,-51],[11,-38],[27,-16],[49,17],[64,53],[44,19],[3,25],[-11,53],[2,31],[6,20],[13,15],[29,27],[6,4],[7,7],[8,13],[3,11],[7,41],[9,-53],[-19,-34],[-29,-29],[-21,-39],[-1,-20],[6,-16],[12,-10],[17,-4],[23,6],[14,14],[11,16],[17,14],[7,-29],[53,-47],[19,-26],[11,0],[10,123],[5,-21],[8,-18],[15,-11],[22,-1],[0,-11],[-15,-3],[-13,-10],[-9,-13],[-3,-15],[7,-10],[14,-7],[13,-4],[6,-4],[9,-19],[23,-20],[48,-27],[60,-20],[13,10],[10,17],[7,16],[5,7],[13,4],[21,14],[16,3],[47,-10],[17,0],[16,5],[27,12],[17,4],[55,0],[35,-10],[16,-1],[8,4],[30,20],[16,6],[59,10],[41,26],[6,51],[6,10],[16,31],[2,6],[0,11],[9,0],[8,-17],[5,-32],[6,-5],[6,-3],[6,-5],[20,-40],[9,-12],[6,-4],[10,-3],[20,-2],[5,-4],[-1,-10],[-1,-11],[1,-7],[37,-24],[22,-12],[16,-5],[18,4],[25,14],[18,3],[17,-5],[10,-11],[7,-10],[5,-5],[26,6],[70,45],[103,-17],[44,-20],[-8,-44],[13,-11],[15,-7],[17,1],[19,12],[74,67],[11,14],[35,31],[5,10],[1,12],[-1,24],[-3,16],[-16,56],[0,86],[8,22],[20,11],[22,3],[15,0],[26,5],[36,27],[22,10],[23,-4],[22,-9],[22,-1],[22,24],[-3,-42],[-19,-16],[-27,8],[-30,29],[-7,-17],[-9,-14],[-14,-11],[-20,-9],[-20,-2],[-22,2],[-21,0],[-16,-11],[-13,-37],[5,-46],[13,-46],[14,-34],[-12,-12],[9,-8],[16,-7],[8,-9],[-4,-20],[-10,-11],[-15,-7],[-17,-13],[-45,-58],[-26,-27],[-67,-28],[-16,-3],[-18,0],[-13,4],[-11,6],[-9,9],[-8,11],[-10,26],[-11,13],[-8,2],[-8,-3],[-8,-2],[-20,15],[-9,-1],[-10,-4],[-8,-7],[-30,13],[-21,-12],[-16,-19],[-16,-11],[-38,-9],[-13,-2],[-7,4],[-19,20],[-8,7],[-94,1],[-17,3],[-12,14],[-23,19],[-39,30],[-25,14],[-32,1],[-22,-11],[-19,-14],[-22,-6],[-35,-2],[-26,-7],[-114,-42],[-8,11],[-8,19],[-12,13],[-17,-7],[-33,-21],[-29,3],[-29,11],[-34,1],[-25,-14],[-35,-43],[-29,-14],[-25,2],[-48,23],[-44,12],[-49,28],[-29,6],[-26,-7],[-14,-18],[-1,-23],[-21,12],[-20,57],[-27,31],[-56,-41],[-9,-14],[-7,-12],[-8,-12],[-16,-13],[-48,-31],[-46,4],[-31,-1],[-73,-44],[-10,-15],[-4,-14],[-14,-13],[-3,-14],[0,-62],[6,-19],[15,-19],[33,-33],[22,-16],[10,-10],[6,-30],[7,-20],[9,-19],[11,-13],[17,5],[15,9],[17,7],[22,0],[16,-8],[54,-43],[8,-10],[14,-23],[8,-7],[11,-1],[22,8],[7,2],[14,-8],[30,-26],[10,-6],[1,-9],[35,-40],[9,-8],[3,-17],[8,-15],[14,-10],[28,-5],[8,-4],[6,-5],[3,-6],[4,-6],[9,6],[8,11],[4,5],[22,0],[18,2],[11,9],[3,20],[17,-14],[4,-7],[10,11],[28,-13],[22,7],[15,22],[8,54],[19,30],[8,22],[1,-29],[-11,-34],[-2,-28],[27,-11],[49,57],[15,12],[50,33],[30,10],[75,16],[30,20],[20,26],[20,20],[26,11],[38,-1],[-14,-6],[-32,-8],[-13,-6],[-13,-11],[-17,-26],[-11,-14],[-24,-19],[-107,-64],[-27,-11],[-25,-16],[-16,-23],[0,-16],[12,-23],[-1,-12],[-13,-13],[-11,3],[-7,13],[-1,17],[-18,-8],[-18,-11],[-17,-14],[-15,-19],[-40,-86],[3,-21],[14,-38],[6,-45],[5,-22],[9,-18],[13,-14],[16,-7],[39,-6],[14,-8],[30,-66],[17,-17],[41,-18],[47,-8],[35,8],[23,-26],[13,-11],[14,-5],[16,4],[13,11],[9,11],[8,5],[11,3],[29,13],[14,5],[108,2],[20,8],[21,20],[13,19],[3,18],[-5,21],[-1,7],[9,-7],[11,-7],[0,7],[2,2],[3,-1],[5,2],[-4,6],[-2,4],[-4,11],[30,3],[33,8],[27,15],[11,25],[9,0],[11,-18],[19,-5],[55,4],[6,2],[6,0],[13,-3],[11,-8],[10,-17],[9,-6],[27,-1],[20,12],[14,14],[8,6],[11,-12],[-5,-18],[-11,-22],[-5,-21],[-12,6],[-13,4],[-29,1],[-14,6],[-8,13],[-5,14],[-8,9],[-26,1],[-32,-8],[-31,-13],[-21,-12],[-12,-13],[-37,-58],[-10,-36],[-6,-5],[-9,-3],[-11,-4],[-9,-7],[-6,-6],[-9,-20],[-21,-83],[-25,-53],[-8,-30],[3,-30],[6,-13],[6,-7],[9,2],[14,13],[14,9],[32,12],[9,5],[10,27],[0,29],[6,25],[25,11],[-10,-55],[6,-19],[29,-7],[15,9],[47,93],[3,28],[6,25],[23,18],[28,0],[34,-29],[27,-2],[0,-10],[-15,-1],[-13,2],[-11,4],[-9,5],[-35,-2],[-27,-50],[-30,-122],[28,8],[70,36],[14,13],[14,8],[94,18],[4,2],[28,11],[65,40],[29,8],[12,10],[43,62],[9,6],[21,8],[9,6],[45,46],[12,5],[17,1],[31,-1],[9,4],[24,20],[11,7],[32,9],[34,2],[33,-8],[27,-18],[21,-19],[18,-8],[56,-10],[59,-20],[27,-5],[34,6],[21,15],[41,46],[13,10],[23,6],[45,28],[21,6],[16,-4],[32,-13],[11,2],[15,6],[16,-1],[15,-4],[0,-6],[10,-6],[9,-10],[1,-10],[-15,-4],[-22,-1],[-6,-4],[-1,-9],[-27,-73],[-9,-18],[-18,-17],[-14,-18],[7,-19],[12,-14],[7,-12],[9,-10],[16,-11],[13,-4],[43,-5],[20,-17],[20,-34],[26,-23],[38,13],[-15,-25],[-34,-6],[-34,8],[-15,17],[-14,27],[-32,11],[-37,6],[-28,13],[-15,26],[-10,36],[-1,37],[11,29],[14,23],[10,30],[-6,23],[-33,0],[-23,-17],[-20,-23],[-24,-22],[-38,-9],[-8,-5],[-24,-22],[-8,-5],[-180,0],[-32,4],[-58,16],[-34,1],[-9,-3],[-9,1],[-7,-5],[-5,-14],[-6,5],[-6,2],[-4,4],[-4,10],[-9,0],[-19,-18],[-8,-13],[-4,-15],[-1,-17],[-4,-5],[-9,-3],[-16,-11],[-55,-56],[-10,-16],[-11,-33],[-27,-40],[0,-25],[8,-24],[5,-25],[6,-11],[13,8],[11,13],[0,5],[10,7],[8,9],[12,6],[19,-1],[-2,-17],[0,-32],[-7,-13],[26,-18],[25,13],[48,46],[-3,-35],[-14,-27],[-15,-23],[-7,-22],[-17,-13],[-6,-11],[8,-17],[11,-17],[4,-16],[6,-13],[15,-10],[0,30],[5,-4],[13,-6],[-1,16],[1,17],[5,15],[6,14],[10,0],[0,-26],[11,-15],[12,0],[6,20],[23,-7],[7,-3],[-9,26],[-15,25],[-10,25],[4,26],[30,-45],[19,-21],[22,-16],[10,21],[-17,15],[-7,17],[-6,39],[20,0],[-10,21],[12,4],[8,2],[9,-20],[11,-58],[3,14],[4,13],[6,12],[7,12],[8,-13],[14,-7],[13,5],[5,20],[-7,14],[-17,10],[-16,12],[0,11],[-20,10],[13,4],[31,0],[5,1],[2,18],[5,16],[9,13],[14,8],[-10,-44],[3,-18],[17,-8],[-15,-23],[-4,-14],[9,-5],[13,6],[13,19],[15,6],[-2,27],[8,21],[10,19],[4,25],[10,0],[29,-16],[13,-14],[7,-20],[-18,3],[-6,2],[-6,4],[-9,0],[-8,-16],[-1,-14],[5,-12],[13,-9],[-36,-19],[-7,-25],[12,-8],[22,32],[8,-20],[15,-8],[11,6],[-4,22],[15,1],[9,5],[4,10],[1,15],[9,0],[12,-9],[13,-1],[14,7],[12,13],[-6,-27],[-18,-12],[-20,-10],[-16,-23],[21,-2],[22,-12],[17,4],[20,51],[10,0],[11,-21],[0,-10],[-21,-25],[-11,-5],[0,-11],[18,0],[13,-7],[20,-23],[2,21],[9,16],[13,7],[16,-3],[-6,-20],[1,-8],[5,-13],[-10,-1],[-10,-3],[-7,-5],[-3,-6],[4,-16],[11,-4],[49,6],[15,5],[13,8],[18,6],[-5,-20],[-7,-14],[-12,-10],[-17,-8],[-13,-3],[-46,-2],[-8,-3],[-17,3],[-17,-1],[-14,-40],[-13,-1],[-8,13],[6,24],[-12,2],[-6,4],[-3,6],[-7,8],[21,0],[58,11],[-11,18],[-12,13],[-15,9],[-22,1],[3,-5],[3,-11],[3,-5],[-28,-10],[1,17],[-2,16],[-5,13],[-10,5],[-16,3],[-15,7],[-11,7],[-3,4],[-13,-5],[-12,-10],[-10,-11],[-4,-10],[4,-8],[18,-25],[8,-13],[-14,-24],[-11,-2],[-36,26],[4,10],[4,21],[3,10],[-20,-10],[-11,7],[-32,7],[-17,5],[6,-20],[10,-4],[13,0],[11,-6],[4,-14],[-3,-15],[1,-10],[18,-2],[-27,-10],[-23,11],[-19,22],[-11,18],[-13,-12],[-15,-8],[-32,-11],[0,-10],[17,4],[6,2],[6,4],[21,-18],[17,-23],[1,-20],[-28,-10],[-1,26],[-17,1],[-20,-3],[-12,16],[-10,0],[-5,-19],[-5,-11],[12,-22],[-8,-5],[-25,7],[-20,1],[-16,3],[-14,6],[-2,-5],[1,-3],[-2,-1],[-6,-1],[9,-12],[6,-12],[4,-14],[1,-14],[-11,0],[-10,19],[-12,-3],[-11,-17],[-6,-20],[-8,22],[-1,10],[-13,-13],[-14,-6],[-12,0],[-12,8],[-4,-23],[-1,-17],[9,-10],[26,-1],[-41,-61],[-4,-11],[-7,-11],[-22,-54],[-5,-16],[7,-32],[12,-4],[16,8],[19,7],[30,5],[13,13],[7,20],[14,24],[16,9],[24,9],[21,11],[9,17],[5,26],[12,25],[19,19],[25,7],[8,-8],[-12,-16],[-17,-19],[-9,-14],[-7,-46],[5,-17],[22,-14],[29,16],[80,66],[-7,-20],[-15,-23],[-18,-20],[-14,-8],[-15,-5],[-20,-20],[-15,-5],[-17,3],[-29,14],[-10,2],[-15,-12],[-37,-50],[-7,-14],[-2,-16],[-8,-19],[-1,-16],[0,-10],[2,-4],[4,-2],[10,0],[7,-5],[1,-10],[-3,-16],[-2,-71],[5,-36],[22,-16],[9,-1],[-487,0],[0,2],[4,24],[-2,21],[-8,16],[18,6],[4,-3],[8,-12],[11,9],[8,11],[11,20],[0,10],[-11,0],[0,11],[21,-2],[14,-19],[8,-17],[8,6],[3,26],[-8,49],[5,27],[-23,4],[-37,1],[-35,-10],[-16,-30],[-3,-5],[-9,0],[-10,2],[-6,-1],[-2,-7],[3,-17],[-1,-7],[-31,-32],[0,-10],[23,-8],[-6,-11],[-17,-12],[-10,-9],[3,-21],[6,-12],[-212,0],[-8,11],[-29,22],[-15,-20],[-2,-13],[-24,0],[0,10],[-3,20],[-6,13],[-78,-25],[-21,-17],[0,-1],[-17,0],[2,2],[4,8],[-10,12],[-24,20],[-29,2],[-22,-16],[-3,-28],[-16,0],[-8,4],[-7,8],[-7,-12],[-1066,0],[0,4096],[142,0],[4,-126],[9,0],[-6,126],[38,0],[3,-32],[6,-23],[9,-20],[-10,-19],[-2,-31],[8,-30],[18,-13],[14,-7],[2,-16],[0,-18],[5,-14],[15,-7],[11,10],[14,27],[10,8],[17,10],[8,7],[7,14],[2,12],[6,13],[15,13],[28,9],[31,4],[25,8],[15,20],[11,0],[19,-6],[19,25],[15,37],[4,19]],[[1180,1045],[-22,-8],[-19,-3],[-52,8],[-28,1],[-26,-9],[7,-15],[3,-20],[0,-41],[6,-19],[14,-3],[18,0],[17,-9],[36,-55],[19,-11],[13,1],[16,7],[17,2],[15,-10],[17,21],[9,23],[13,58],[11,21],[15,17],[11,18],[5,39],[-3,4],[-10,13],[-21,2],[-20,-1],[-21,0],[-2,-3],[-1,-1],[6,-6],[-43,-21]],[[2007,666],[-22,-6],[-24,6],[-14,-17],[-18,-15],[-14,-17],[-3,-22],[-34,1],[-19,-19],[-13,-22],[-19,-11],[-18,-7],[4,-14],[12,-10],[7,5],[7,-3],[17,-4],[20,-2],[16,4],[14,-17],[20,13],[6,23],[-31,12],[0,10],[33,-2],[7,2],[28,27],[2,4],[14,2],[13,-10],[18,-3],[28,5],[-2,10],[-13,16],[-9,16],[4,19],[16,17],[1,20],[-15,-2],[-19,-9]],[[1400,477],[5,37],[18,30],[-17,13],[5,40],[-18,19],[-6,-20],[-12,1],[-11,16],[-2,23],[-18,3],[-33,-35],[-24,-9],[-15,-12],[-14,-28],[-12,-32],[-4,-25],[-6,0],[-33,-36],[-50,-30],[6,-16],[50,-36],[14,-20],[14,5],[14,8],[13,12],[9,16],[4,-5],[11,-11],[5,-5],[2,7],[5,7],[2,7],[10,0],[12,-30],[32,8],[38,21],[29,11],[-16,30],[-7,36]],[[1660,405],[21,-11],[23,0],[17,17],[11,0],[2,-6],[7,-14],[32,26],[7,12],[-8,12],[7,10],[2,4],[1,7],[-10,0],[-5,2],[-2,4],[-3,4],[7,11],[0,4],[-7,6],[-22,-15],[-8,-6],[-11,11],[-4,-15],[-7,-13],[-8,-12],[-11,-11],[-7,0],[-13,4],[-11,-2],[-8,-13],[8,-16]],[[1040,488],[-7,15],[-25,4],[-41,-4],[-37,-11],[-17,-15],[-11,-23],[-24,-18],[-26,-13],[-18,-12],[21,-8],[18,-2],[30,0],[47,-11],[13,1],[8,6],[4,9],[4,8],[4,7],[9,7],[43,46],[5,14]],[[883,503],[24,33],[11,22],[5,27],[-2,11],[-3,5],[-5,4],[-8,-5],[-10,-4],[-11,-1],[-11,0],[-3,5],[1,2],[-2,1],[-7,2],[-39,-45],[-55,-8],[-60,-1],[-54,-27],[6,-2],[14,-9],[-7,-7],[-2,-5],[9,-18],[-6,-10],[-5,-11],[16,2],[12,7],[13,12],[76,-1],[4,1],[6,-4],[19,-22],[8,-6],[6,3],[5,6],[6,2],[15,8],[15,0],[9,3],[3,8],[1,9],[6,13]],[[974,197],[-11,-12],[-23,3],[-28,-15],[-20,-23],[2,-26],[-15,-3],[-9,-11],[-6,-14],[-2,-18],[7,0],[39,-19],[19,-4],[95,8],[-6,22],[7,14],[14,9],[17,7],[1,11],[-1,20],[-5,19],[-6,11],[-21,4],[-19,-3],[-16,2],[-13,18]],[[1426,59],[36,-26],[36,1],[13,19],[1,62],[16,56],[-8,15],[-38,-1],[-34,-33],[-23,-47],[1,-46]],[[2401,0],[0,1],[-8,26],[-5,28],[9,23],[33,5],[-16,-37],[6,-46],[-19,0]],[[2664,0],[10,6],[22,28],[13,39],[20,-16],[2,-26],[-12,-28],[-2,-3],[-53,0]],[[142,4096],[4,-126],[9,0],[-6,126]],[[187,4096],[3,-32],[6,-23],[9,-20],[-10,-19],[-2,-31],[8,-30],[18,-13],[14,-7],[2,-16],[0,-18],[5,-14],[15,-7],[11,10],[14,27],[10,8],[17,10],[8,7],[7,14],[2,12],[6,13],[15,13],[28,9],[31,4],[25,8],[15,20],[11,0],[19,-6],[19,25],[15,37],[4,19]],[[541,4096],[-10,-45],[-8,-20],[22,-11],[6,-29],[3,-38],[11,-34],[-21,-4],[-17,17],[-10,28],[-3,29],[-50,-9],[7,-25],[4,-7],[-9,6],[-23,10],[-8,6],[-9,-21],[-52,-62],[-13,-19],[-4,-15],[-3,-37],[-12,-59],[7,-27],[25,-27],[28,-9],[29,8],[22,22],[11,31],[21,-2],[15,20],[7,29],[-4,24],[30,-3],[3,-18],[-14,-23],[-19,-18],[8,-4],[15,-11],[8,-4],[-37,-29],[-36,-19],[-25,-23],[-1,-42],[7,-16],[15,-22],[9,-15],[9,-19],[1,-24],[-12,-63],[0,-30],[3,-6],[14,-9],[10,-16],[26,-20],[6,-11],[4,-11],[14,-30],[3,-20],[-3,-16],[-18,-37],[-9,-13],[47,-3],[113,-28],[32,-2],[50,1],[50,8],[28,15],[-7,2],[-7,5],[-6,2],[0,10],[6,2],[14,7],[-8,17],[3,13],[24,22],[6,-17],[-2,-17],[-5,-16],[1,-11],[13,-9],[11,4],[10,9],[12,5],[13,11],[62,62],[40,30],[27,14],[27,6],[29,-4],[46,-17],[466,37],[52,16],[65,35],[26,6],[25,-3],[39,-19],[25,1],[15,10],[21,29],[15,11],[29,8],[19,-4],[16,-8],[20,-5],[7,-3],[8,-7],[12,-7],[13,-3],[12,3],[12,5],[13,2],[13,-6],[35,-32],[24,-17],[21,-7],[23,-3],[50,-14],[27,-4],[16,6],[15,14],[11,20],[3,22],[3,0],[7,0],[-14,-60],[-52,-22],[-64,4],[-50,16],[-16,16],[-13,20],[-18,19],[-28,7],[-13,-3],[-15,-6],[-16,-2],[-15,6],[-13,11],[-17,9],[-18,6],[-17,-1],[-14,-10],[-23,-36],[-13,-15],[-16,-12],[-14,-6],[-15,-2],[-21,-1],[-14,5],[-21,22],[-14,5],[-14,-4],[-27,-20],[-14,-8],[-85,-26],[-30,-3],[-94,11],[-31,-2],[-5,-3],[-6,-6],[-7,-7],[-11,-4],[-14,-3],[-7,0],[-8,2],[-16,1],[-28,-3],[-78,-19],[-204,12],[-24,9],[-14,3],[-7,-7],[-4,-16],[-11,-12],[-59,-49],[-12,-18],[-4,-28],[1,-12],[2,-12],[5,-9],[7,-3],[9,-6],[4,-15],[0,-17],[7,-41],[6,-8],[14,10],[12,12],[13,8],[15,5],[16,2],[0,-11],[-50,-27],[-35,-11],[-26,7],[-4,26],[6,35],[-6,29],[-40,13],[-29,-8],[-54,-36],[-27,-8],[-24,-12],[-20,-21],[-16,-6],[-15,30],[-18,-9],[-20,-3],[-42,1],[0,-11],[20,2],[16,-5],[10,-13],[3,-19],[6,-4],[27,-27],[8,-15],[-19,15],[-13,-1],[-29,-24],[9,20],[-1,27],[-8,23],[-14,10],[-30,3],[-15,7],[-11,11],[-19,12],[-21,6],[-74,3],[-11,9],[-54,63],[3,25],[-10,45],[-19,42],[-23,21],[17,17],[24,2],[16,5],[-8,27],[-16,16],[-22,9],[-26,-2],[-26,-13],[-15,7],[-12,8],[-8,11],[-3,15],[-38,-30],[-85,-106],[-16,-13],[-19,-10],[-18,-4],[-15,-10],[-16,-46],[-13,-16],[14,-34],[5,-7],[-11,-24],[6,-20],[25,-29],[8,-19],[3,-20],[-3,-70],[1,-17],[28,-74],[3,-23],[-10,-21],[-6,-12],[3,-11],[23,-8],[22,-19],[6,-12],[2,-25],[-3,-40],[-14,-62],[-4,-31],[2,-17],[7,-35],[1,-19],[-5,-19],[-52,-77],[-9,-20],[-3,-17],[4,-23],[9,-6],[10,8],[7,16],[11,0],[7,-26],[-7,-22],[-31,-45],[8,-12],[3,-13],[-3,-13],[-8,-12],[18,-4],[17,12],[30,37],[25,9],[31,-6],[20,-16],[-2,-22],[-51,17],[-37,-30],[-23,-52],[-8,-53],[2,-51],[11,-38],[27,-16],[49,17],[64,53],[44,19],[3,25],[-11,53],[2,31],[6,20],[13,15],[29,27],[6,4],[7,7],[8,13],[3,11],[7,41],[9,-53],[-19,-34],[-29,-29],[-21,-39],[-1,-20],[6,-16],[12,-10],[17,-4],[23,6],[14,14],[11,16],[17,14],[7,-29],[53,-47],[19,-26],[11,0],[10,123],[5,-21],[8,-18],[15,-11],[22,-1],[0,-11],[-15,-3],[-13,-10],[-9,-13],[-3,-15],[7,-10],[14,-7],[13,-4],[6,-4],[9,-19],[23,-20],[48,-27],[60,-20],[13,10],[10,17],[7,16],[5,7],[13,4],[21,14],[16,3],[47,-10],[17,0],[16,5],[27,12],[17,4],[55,0],[35,-10],[16,-1],[8,4],[30,20],[16,6],[59,10],[41,26],[6,51],[6,10],[16,31],[2,6],[0,11],[9,0],[8,-17],[5,-32],[6,-5],[6,-3],[6,-5],[20,-40],[9,-12],[6,-4],[10,-3],[20,-2],[5,-4],[-1,-10],[-1,-11],[1,-7],[37,-24],[22,-12],[16,-5],[18,4],[25,14],[18,3],[17,-5],[10,-11],[7,-10],[5,-5],[26,6],[70,45],[103,-17],[44,-20],[-8,-44],[13,-11],[15,-7],[17,1],[19,12],[74,67],[11,14],[35,31],[5,10],[1,12],[-1,24],[-3,16],[-16,56],[0,86],[8,22],[20,11],[22,3],[15,0],[26,5],[36,27],[22,10],[23,-4],[22,-9],[22,-1],[22,24],[-3,-42],[-19,-16],[-27,8],[-30,29],[-7,-17],[-9,-14],[-14,-11],[-20,-9],[-20,-2],[-22,2],[-21,0],[-16,-11],[-13,-37],[5,-46],[13,-46],[14,-34],[-12,-12],[9,-8],[16,-7],[8,-9],[-4,-20],[-10,-11],[-15,-7],[-17,-13],[-45,-58],[-26,-27],[-67,-28],[-16,-3],[-18,0],[-13,4],[-11,6],[-9,9],[-8,11],[-10,26],[-11,13],[-8,2],[-8,-3],[-8,-2],[-20,15],[-9,-1],[-10,-4],[-8,-7],[-30,13],[-21,-12],[-16,-19],[-16,-11],[-38,-9],[-13,-2],[-7,4],[-19,20],[-8,7],[-94,1],[-17,3],[-12,14],[-23,19],[-39,30],[-25,14],[-32,1],[-22,-11],[-19,-14],[-22,-6],[-35,-2],[-26,-7],[-114,-42],[-8,11],[-8,19],[-12,13],[-17,-7],[-33,-21],[-29,3],[-29,11],[-34,1],[-25,-14],[-35,-43],[-29,-14],[-25,2],[-48,23],[-44,12],[-49,28],[-29,6],[-26,-7],[-14,-18],[-1,-23],[-21,12],[-20,57],[-27,31],[-56,-41],[-9,-14],[-7,-12],[-8,-12],[-16,-13],[-48,-31],[-46,4],[-31,-1],[-73,-44],[-10,-15],[-4,-14],[-14,-13],[-3,-14],[0,-62],[6,-19],[15,-19],[33,-33],[22,-16],[10,-10],[6,-30],[7,-20],[9,-19],[11,-13],[17,5],[15,9],[17,7],[22,0],[16,-8],[54,-43],[8,-10],[14,-23],[8,-7],[11,-1],[22,8],[7,2],[14,-8],[30,-26],[10,-6],[1,-9],[35,-40],[9,-8],[3,-17],[8,-15],[14,-10],[28,-5],[8,-4],[6,-5],[3,-6],[4,-6],[9,6],[8,11],[4,5],[22,0],[18,2],[11,9],[3,20],[17,-14],[4,-7],[10,11],[28,-13],[22,7],[15,22],[8,54],[19,30],[8,22],[1,-29],[-11,-34],[-2,-28],[27,-11],[49,57],[15,12],[50,33],[30,10],[75,16],[30,20],[20,26],[20,20],[26,11],[38,-1],[-14,-6],[-32,-8],[-13,-6],[-13,-11],[-17,-26],[-11,-14],[-24,-19],[-107,-64],[-27,-11],[-25,-16],[-16,-23],[0,-16],[12,-23],[-1,-12],[-13,-13],[-11,3],[-7,13],[-1,17],[-18,-8],[-18,-11],[-17,-14],[-15,-19],[-40,-86],[3,-21],[14,-38],[6,-45],[5,-22],[9,-18],[13,-14],[16,-7],[39,-6],[14,-8],[30,-66],[17,-17],[41,-18],[47,-8],[35,8],[23,-26],[13,-11],[14,-5],[16,4],[13,11],[9,11],[8,5],[11,3],[29,13],[14,5],[108,2],[20,8],[21,20],[13,19],[3,18],[-5,21],[-1,7],[9,-7],[11,-7],[0,7],[2,2],[3,-1],[5,2],[-4,6],[-2,4],[-4,11],[30,3],[33,8],[27,15],[11,25],[9,0],[11,-18],[19,-5],[55,4],[6,2],[6,0],[13,-3],[11,-8],[10,-17],[9,-6],[27,-1],[20,12],[14,14],[8,6],[11,-12],[-5,-18],[-11,-22],[-5,-21],[-12,6],[-13,4],[-29,1],[-14,6],[-8,13],[-5,14],[-8,9],[-26,1],[-32,-8],[-31,-13],[-21,-12],[-12,-13],[-37,-58],[-10,-36],[-6,-5],[-9,-3],[-11,-4],[-9,-7],[-6,-6],[-9,-20],[-21,-83],[-25,-53],[-8,-30],[3,-30],[6,-13],[6,-7],[9,2],[14,13],[14,9],[32,12],[9,5],[10,27],[0,29],[6,25],[25,11],[-10,-55],[6,-19],[29,-7],[15,9],[47,93],[3,28],[6,25],[23,18],[28,0],[34,-29],[27,-2],[0,-10],[-15,-1],[-13,2],[-11,4],[-9,5],[-35,-2],[-27,-50],[-30,-122],[28,8],[70,36],[14,13],[14,8],[94,18],[4,2],[28,11],[65,40],[29,8],[12,10],[43,62],[9,6],[21,8],[9,6],[45,46],[12,5],[17,1],[31,-1],[9,4],[24,20],[11,7],[32,9],[34,2],[33,-8],[27,-18],[21,-19],[18,-8],[56,-10],[59,-20],[27,-5],[34,6],[21,15],[41,46],[13,10],[23,6],[45,28],[21,6],[16,-4],[32,-13],[11,2],[15,6],[16,-1],[15,-4],[0,-6],[10,-6],[9,-10],[1,-10],[-15,-4],[-22,-1],[-6,-4],[-1,-9],[-27,-73],[-9,-18],[-18,-17],[-14,-18],[7,-19],[12,-14],[7,-12],[9,-10],[16,-11],[13,-4],[43,-5],[20,-17],[20,-34],[26,-23],[38,13],[-15,-25],[-34,-6],[-34,8],[-15,17],[-14,27],[-32,11],[-37,6],[-28,13],[-15,26],[-10,36],[-1,37],[11,29],[14,23],[10,30],[-6,23],[-33,0],[-23,-17],[-20,-23],[-24,-22],[-38,-9],[-8,-5],[-24,-22],[-8,-5],[-180,0],[-32,4],[-58,16],[-34,1],[-9,-3],[-9,1],[-7,-5],[-5,-14],[-6,5],[-6,2],[-4,4],[-4,10],[-9,0],[-19,-18],[-8,-13],[-4,-15],[-1,-17],[-4,-5],[-9,-3],[-16,-11],[-55,-56],[-10,-16],[-11,-33],[-27,-40],[0,-25],[8,-24],[5,-25],[6,-11],[13,8],[11,13],[0,5],[10,7],[8,9],[12,6],[19,-1],[-2,-17],[0,-32],[-7,-13],[26,-18],[25,13],[48,46],[-3,-35],[-14,-27],[-15,-23],[-7,-22],[-17,-13],[-6,-11],[8,-17],[11,-17],[4,-16],[6,-13],[15,-10],[0,30],[5,-4],[13,-6],[-1,16],[1,17],[5,15],[6,14],[10,0],[0,-26],[11,-15],[12,0],[6,20],[23,-7],[7,-3],[-9,26],[-15,25],[-10,25],[4,26],[30,-45],[19,-21],[22,-16],[10,21],[-17,15],[-7,17],[-6,39],[20,0],[-10,21],[12,4],[8,2],[9,-20],[11,-58],[3,14],[4,13],[6,12],[7,12],[8,-13],[14,-7],[13,5],[5,20],[-7,14],[-17,10],[-16,12],[0,11],[-20,10],[13,4],[31,0],[5,1],[2,18],[5,16],[9,13],[14,8],[-10,-44],[3,-18],[17,-8],[-15,-23],[-4,-14],[9,-5],[13,6],[13,19],[15,6],[-2,27],[8,21],[10,19],[4,25],[10,0],[29,-16],[13,-14],[7,-20],[-18,3],[-6,2],[-6,4],[-9,0],[-8,-16],[-1,-14],[5,-12],[13,-9],[-36,-19],[-7,-25],[12,-8],[22,32],[8,-20],[15,-8],[11,6],[-4,22],[15,1],[9,5],[4,10],[1,15],[9,0],[12,-9],[13,-1],[14,7],[12,13],[-6,-27],[-18,-12],[-20,-10],[-16,-23],[21,-2],[22,-12],[17,4],[20,51],[10,0],[11,-21],[0,-10],[-21,-25],[-11,-5],[0,-11],[18,0],[13,-7],[20,-23],[2,21],[9,16],[13,7],[16,-3],[-6,-20],[1,-8],[5,-13],[-10,-1],[-10,-3],[-7,-5],[-3,-6],[4,-16],[11,-4],[49,6],[15,5],[13,8],[18,6],[-5,-20],[-7,-14],[-12,-10],[-17,-8],[-13,-3],[-46,-2],[-8,-3],[-17,3],[-17,-1],[-14,-40],[-13,-1],[-8,13],[6,24],[-12,2],[-6,4],[-3,6],[-7,8],[21,0],[58,11],[-11,18],[-12,13],[-15,9],[-22,1],[3,-5],[3,-11],[3,-5],[-28,-10],[1,17],[-2,16],[-5,13],[-10,5],[-16,3],[-15,7],[-11,7],[-3,4],[-13,-5],[-12,-10],[-10,-11],[-4,-10],[4,-8],[18,-25],[8,-13],[-14,-24],[-11,-2],[-36,26],[4,10],[4,21],[3,10],[-20,-10],[-11,7],[-32,7],[-17,5],[6,-20],[10,-4],[13,0],[11,-6],[4,-14],[-3,-15],[1,-10],[18,-2],[-27,-10],[-23,11],[-19,22],[-11,18],[-13,-12],[-15,-8],[-32,-11],[0,-10],[17,4],[6,2],[6,4],[21,-18],[17,-23],[1,-20],[-28,-10],[-1,26],[-17,1],[-20,-3],[-12,16],[-10,0],[-5,-19],[-5,-11],[12,-22],[-8,-5],[-25,7],[-20,1],[-16,3],[-14,6],[-2,-5],[1,-3],[-2,-1],[-6,-1],[9,-12],[6,-12],[4,-14],[1,-14],[-11,0],[-10,19],[-12,-3],[-11,-17],[-6,-20],[-8,22],[-1,10],[-13,-13],[-14,-6],[-12,0],[-12,8],[-4,-23],[-1,-17],[9,-10],[26,-1],[-41,-61],[-4,-11],[-7,-11],[-22,-54],[-5,-16],[7,-32],[12,-4],[16,8],[19,7],[30,5],[13,13],[7,20],[14,24],[16,9],[24,9],[21,11],[9,17],[5,26],[12,25],[19,19],[25,7],[8,-8],[-12,-16],[-17,-19],[-9,-14],[-7,-46],[5,-17],[22,-14],[29,16],[80,66],[-7,-20],[-15,-23],[-18,-20],[-14,-8],[-15,-5],[-20,-20],[-15,-5],[-17,3],[-29,14],[-10,2],[-15,-12],[-37,-50],[-7,-14],[-2,-16],[-8,-19],[-1,-16],[0,-10],[2,-4],[4,-2],[10,0],[7,-5],[1,-10],[-3,-16],[-2,-71],[5,-36],[22,-16],[9,-1]],[[2401,0],[0,1],[-8,26],[-5,28],[9,23],[33,5],[-16,-37],[6,-46]],[[2664,0],[10,6],[22,28],[13,39],[20,-16],[2,-26],[-12,-28],[-2,-3]],[[1033,1034],[7,-15],[3,-20],[0,-41],[6,-19],[14,-3],[18,0],[17,-9],[36,-55],[19,-11],[13,1],[16,7],[17,2],[15,-10],[17,21],[9,23],[13,58],[11,21],[15,17],[11,18],[5,39],[-3,4],[-10,13],[-21,2],[-20,-1],[-21,0],[-2,-3],[-1,-1],[6,-6],[-43,-21],[-22,-8],[-19,-3],[-52,8],[-28,1],[-26,-9]],[[1242,498],[-6,0],[-33,-36],[-50,-30],[6,-16],[50,-36],[14,-20],[14,5],[14,8],[13,12],[9,16],[4,-5],[11,-11],[5,-5],[2,7],[5,7],[2,7],[10,0],[12,-30],[32,8],[38,21],[29,11],[-16,30],[-7,36],[5,37],[18,30],[-17,13],[5,40],[-18,19],[-6,-20],[-12,1],[-11,16],[-2,23],[-18,3],[-33,-35],[-24,-9],[-15,-12],[-14,-28],[-12,-32],[-4,-25]],[[2041,677],[-15,-2],[-19,-9],[-22,-6],[-24,6],[-14,-17],[-18,-15],[-14,-17],[-3,-22],[-34,1],[-19,-19],[-13,-22],[-19,-11],[-18,-7],[4,-14],[12,-10],[7,5],[7,-3],[17,-4],[20,-2],[16,4],[14,-17],[20,13],[6,23],[-31,12],[0,10],[33,-2],[7,2],[28,27],[2,4],[14,2],[13,-10],[18,-3],[28,5],[-2,10],[-13,16],[-9,16],[4,19],[16,17],[1,20]],[[1762,472],[7,11],[0,4],[-7,6],[-22,-15],[-8,-6],[-11,11],[-4,-15],[-7,-13],[-8,-12],[-11,-11],[-7,0],[-13,4],[-11,-2],[-8,-13],[8,-16],[21,-11],[23,0],[17,17],[11,0],[2,-6],[7,-14],[32,26],[7,12],[-8,12],[7,10],[2,4],[1,7],[-10,0],[-5,2],[-2,4],[-3,4]],[[1772,185],[-23,4],[-37,1],[-35,-10],[-16,-30],[-3,-5],[-9,0],[-10,2],[-6,-1],[-2,-7],[3,-17],[-1,-7],[-31,-32],[0,-10],[23,-8],[-6,-11],[-17,-12],[-10,-9],[3,-21],[6,-12]],[[1632,0],[1,1],[8,0],[4,-1]],[[1652,0],[1,0],[8,1],[1,-1]],[[1678,0],[0,2],[4,24],[-2,21],[-8,16],[18,6],[4,-3],[8,-12],[11,9],[8,11],[11,20],[0,10],[-11,0],[0,11],[21,-2],[14,-19],[8,-17],[8,6],[3,26],[-8,49],[5,27]],[[1482,185],[-34,-33],[-23,-47],[1,-46],[36,-26],[36,1],[13,19],[1,62],[16,56],[-8,15],[-38,-1]],[[873,473],[3,8],[1,9],[6,13],[24,33],[11,22],[5,27],[-2,11],[-3,5],[-5,4],[-8,-5],[-10,-4],[-11,-1],[-11,0],[-3,5],[1,2],[-2,1],[-7,2],[-39,-45],[-55,-8],[-60,-1],[-54,-27],[6,-2],[14,-9],[-7,-7],[-2,-5],[9,-18],[-6,-10],[-5,-11],[16,2],[12,7],[13,12],[76,-1],[4,1],[6,-4],[19,-22],[8,-6],[6,3],[5,6],[6,2],[15,8],[15,0],[9,3]],[[903,401],[47,-11],[13,1],[8,6],[4,9],[4,8],[4,7],[9,7],[43,46],[5,14],[-7,15],[-25,4],[-41,-4],[-37,-11],[-17,-15],[-11,-23],[-24,-18],[-26,-13],[-18,-12],[21,-8],[18,-2],[30,0]],[[1352,33],[-15,-20],[-2,-13]],[[1389,0],[-8,11],[-29,22]],[[1022,63],[-6,22],[7,14],[14,9],[17,7],[1,11],[-1,20],[-5,19],[-6,11],[-21,4],[-19,-3],[-16,2],[-13,18],[-11,-12],[-23,3],[-28,-15],[-20,-23],[2,-26],[-15,-3],[-9,-11],[-6,-14],[-2,-18],[7,0],[39,-19],[19,-4],[95,8]],[[1311,0],[0,10],[-3,20],[-6,13],[-78,-25],[-21,-17],[0,-1]],[[1186,0],[2,2],[4,8],[-10,12],[-24,20],[-29,2],[-22,-16],[-3,-28]],[[1088,0],[-8,4],[-7,8],[-7,-12]],[[3837,4096],[87,-44],[30,-7],[84,0],[30,-12],[28,-5]],[[1375,4096],[20,-20],[78,-86],[90,-92],[24,-50],[12,-30],[36,-7],[30,-12],[30,-24],[55,-19],[30,-43],[36,-25],[18,-30],[6,-37],[24,-43]],[[776,4096],[-42,-32],[-6,-12],[0,-50],[-12,-12],[-30,-12],[-54,-19],[-30,-37],[-6,-43],[54,-49],[0,-19],[-6,-49],[-6,-117],[12,-55],[-18,-25],[-36,-12],[-18,-18],[-30,-44]],[[1873,3563],[4,-6]],[[1864,3578],[9,-15]],[[1877,3557],[23,-35],[18,-74],[24,-49],[0,-18]],[[3065,3461],[-66,-6],[-60,6],[-42,12],[-54,43],[-42,19],[-24,6],[-72,-13],[-18,31],[-12,86],[-12,43],[-19,13],[-36,-6],[-30,-19],[-42,-37],[-18,-12],[-48,18],[-36,-30],[-54,-62],[-12,-31],[12,-24],[0,-25],[6,-43],[-6,-80],[-24,-19],[-48,-36],[-18,-7],[-30,7],[-90,12],[-24,12],[-30,31],[-48,31],[-54,6],[-66,0],[-6,-6]],[[3870,3171],[-72,25],[-24,6],[-60,-49],[-66,-18],[-18,12],[-30,31],[-49,18],[-102,0],[-54,37],[-24,25],[-48,12],[-48,55],[-30,13],[-18,30],[-54,43],[-36,44],[-18,6],[-54,0]],[[328,3401],[-14,-2],[-30,-6],[-12,-18],[0,-25],[31,-32]],[[303,3318],[11,-11],[0,-31],[-18,-61],[-6,-56],[12,-31],[18,-12]],[[416,3399],[-42,6],[-46,-4]],[[1942,3381],[-42,-13],[-36,-18],[-24,-25],[-48,13],[-61,12],[-48,0],[-90,-31],[-48,-37],[-24,-43],[-18,-49],[12,-68],[-12,-24],[-18,-19],[-54,12],[-48,-18],[-36,6],[-42,-24],[-42,18],[-60,-12],[-48,0],[-48,-25],[-84,0],[-66,-6],[-30,6],[6,12],[-12,13],[-54,-13],[-97,-12],[-18,-25],[-30,7],[-42,-25],[-36,0],[-30,25],[-54,6],[-18,12],[-6,37],[-30,43],[-18,-6],[-24,18],[-66,13]],[[4032,2919],[60,31],[4,0]],[[3870,3171],[12,-30],[18,-43],[30,-50],[54,-61],[30,-56],[18,-12]],[[1942,3381],[12,-74],[12,-43],[6,-99],[-6,-67],[-18,-43],[-18,-25],[-18,-37],[-24,-62],[-36,-67],[-30,-43],[-24,-19]],[[398,3141],[6,-13],[-6,-86],[24,-80],[0,-37],[-12,-74],[-18,-61],[0,-19],[36,-24],[66,-62],[12,-6]],[[4068,2618],[18,73],[-6,37],[-12,56],[-48,117],[12,18]],[[2831,2550],[48,-37],[102,-6],[42,-13],[60,-43],[30,0],[48,13],[78,12],[66,6],[42,-6],[96,25],[36,6],[30,18],[67,13],[54,0],[54,6],[36,12],[102,55],[42,13],[42,-13],[54,-24],[66,6],[42,25]],[[2398,2476],[36,-12],[90,-31],[36,0],[48,18],[67,43],[66,19],[78,43],[12,-6]],[[2398,2476],[-78,49],[-24,6],[-48,0],[-42,-12],[-78,-37],[-66,-12],[-78,-6],[-24,-13],[-36,-30]],[[1924,2421],[-60,30],[-12,25],[0,43],[30,74],[-6,25],[-36,61],[-24,55],[-18,68]],[[1798,2802],[-121,-37],[-126,-43],[-138,-31],[-114,-24],[-24,-13],[-18,-24],[6,-31],[-12,-18],[-72,-31],[-30,-31],[-12,-12],[-42,0],[-42,-19],[-114,-61],[-6,-25]],[[506,2679],[66,-25],[18,-12],[36,-49],[24,-19],[54,-12],[48,-6],[30,-12],[48,-56],[91,-55],[12,-31]],[[4068,2618],[6,-44],[18,-61],[0,-55],[-12,-31],[-48,-49],[-66,-31],[-12,-19],[-6,-30],[6,-62]],[[867,2114],[0,-7]],[[933,2402],[-12,-37],[12,-31],[12,-73],[0,-37],[-48,-13],[-30,-55],[0,-42]],[[867,2107],[-6,-37]],[[861,2070],[-2,-13]],[[859,2057],[-4,-43],[6,-30],[12,-25],[24,-18],[60,-68],[24,-37],[30,12],[36,-6],[138,-12],[54,0],[60,-13],[60,7],[78,-13],[72,-6],[54,19]],[[3954,2236],[42,-37],[30,-31],[0,-24],[-36,-37],[-18,-56],[-6,-80],[-6,-49],[-18,-43],[-48,-98],[-24,-99],[-24,-43]],[[3846,1639],[42,-31],[18,0],[60,25],[48,0],[48,24],[34,11]],[[1563,1824],[18,-7],[12,-24],[24,-49],[6,-37],[-6,-31],[-18,-19],[-18,-18],[0,-25],[30,-12],[6,-12]],[[1617,1590],[18,-37],[12,-37],[36,-86],[0,-37],[-18,-25]],[[2897,1270],[72,55],[84,49],[60,13],[36,18],[24,19],[24,37],[12,36],[30,25],[54,6],[126,-18],[42,6],[72,25],[43,18],[90,55],[180,25]],[[2897,1270],[-36,18],[-24,6],[-30,-6],[-90,-31],[-24,-6],[-103,-6],[-84,0],[-144,-6],[-42,18],[-36,25],[-30,25]],[[1960,1177],[48,7],[24,6],[60,37],[36,12],[48,18],[60,31],[18,19]],[[1786,1171],[48,6],[54,13],[72,-13]],[[1665,1368],[12,-24],[12,-62],[67,-68],[30,-43]],[[1786,1171],[12,-43],[0,-61]],[[1825,1025],[9,-8],[36,-6]],[[1798,1067],[6,-25],[21,-17]],[[4004,0],[16,14],[24,13],[24,30],[12,56],[12,12],[4,2]],[[1295,1058],[-5,-39],[-11,-18],[-15,-17],[-11,-21],[-13,-58],[-9,-23],[-17,-21],[-15,10],[-17,-2],[-16,-7],[-13,-1],[-19,11],[-36,55],[-17,9],[-18,0],[-14,3],[-6,19],[0,41],[-3,20],[-7,15],[26,9],[28,-1],[52,-8],[19,3],[22,8],[43,21],[-6,6],[1,1],[2,3],[21,0],[20,1],[21,-2],[10,-13],[3,-4]],[[2041,677],[-1,-20],[-16,-17],[-4,-19],[9,-16],[13,-16],[2,-10],[-28,-5],[-18,3],[-13,10],[-14,-2],[-2,-4],[-28,-27],[-7,-2],[-33,2],[0,-10],[31,-12],[-6,-23],[-20,-13],[-14,17],[-16,-4],[-20,2],[-17,4],[-7,3],[-7,-5],[-12,10],[-4,14],[18,7],[19,11],[13,22],[19,19],[34,-1],[3,22],[14,17],[18,15],[14,17],[24,-6],[22,6],[19,9],[15,2]],[[1762,472],[3,-4],[2,-4],[5,-2],[10,0],[-1,-7],[-2,-4],[-7,-10],[8,-12],[-7,-12],[-32,-26],[-7,14],[-2,6],[-11,0],[-17,-17],[-23,0],[-21,11],[-8,16],[8,13],[11,2],[13,-4],[7,0],[11,11],[8,12],[7,13],[4,15],[11,-11],[8,6],[22,15],[7,-6],[0,-4],[-7,-11]],[[975,406],[-4,-9],[-8,-6],[-13,-1],[-47,11],[-30,0],[-18,2],[-21,8],[18,12],[26,13],[24,18],[11,23],[17,15],[37,11],[41,4],[25,-4],[7,-15],[-5,-14],[-43,-46],[-9,-7],[-4,-7],[-4,-8]],[[1375,597],[12,-1],[6,20],[18,-19],[-5,-40],[17,-13],[-18,-30],[-5,-37],[7,-36],[16,-30],[-29,-11],[-38,-21],[-32,-8],[-12,30],[-10,0],[-2,-7],[-5,-7],[-2,-7],[-5,5],[-11,11],[-4,5],[-9,-16],[-13,-12],[-14,-8],[-14,-5],[-14,20],[-50,36],[-6,16],[50,30],[33,36],[6,0],[4,25],[12,32],[14,28],[15,12],[24,9],[33,35],[18,-3],[2,-23],[11,-16]],[[921,596],[2,-11],[-5,-27],[-11,-22],[-24,-33],[-6,-13],[-1,-9],[-3,-8],[-9,-3],[-15,0],[-15,-8],[-6,-2],[-5,-6],[-6,-3],[-8,6],[-19,22],[-6,4],[-4,-1],[-76,1],[-13,-12],[-12,-7],[-16,-2],[5,11],[6,10],[-9,18],[2,5],[7,7],[-14,9],[-6,2],[54,27],[60,1],[55,8],[39,45],[7,-2],[2,-1],[-1,-2],[3,-5],[11,0],[11,1],[10,4],[8,5],[5,-4],[3,-5]],[[1767,158],[8,-49],[-3,-26],[-8,-6],[-8,17],[-14,19],[-21,2],[0,-11],[11,0],[0,-10],[-11,-20],[-8,-11],[-11,-9],[-8,12],[-4,3],[-18,-6],[8,-16],[2,-21],[-4,-24],[0,-2],[-16,0],[-1,1],[-8,-1],[-1,0],[-7,0],[-4,1],[-8,0],[-1,-1],[-31,0],[-6,12],[-3,21],[10,9],[17,12],[6,11],[-23,8],[0,10],[31,32],[1,7],[-3,17],[2,7],[6,1],[10,-2],[9,0],[3,5],[16,30],[35,10],[37,-1],[23,-4],[-5,-27]],[[1498,34],[-36,-1],[-36,26],[-1,46],[23,47],[34,33],[38,1],[8,-15],[-16,-56],[-1,-62],[-13,-19]],[[974,197],[13,-18],[16,-2],[19,3],[21,-4],[6,-11],[5,-19],[1,-20],[-1,-11],[-17,-7],[-14,-9],[-7,-14],[6,-22],[-95,-8],[-19,4],[-39,19],[-7,0],[2,18],[6,14],[9,11],[15,3],[-2,26],[20,23],[28,15],[23,-3],[11,12]],[[1335,0],[2,13],[15,20],[29,-22],[8,-11],[-54,0]],[[1203,0],[0,1],[21,17],[78,25],[6,-13],[3,-20],[0,-10],[-108,0]],[[1104,0],[3,28],[22,16],[29,-2],[24,-20],[10,-12],[-4,-8],[-2,-2],[-82,0]],[[541,4096],[3555,0],[0,-4096],[-1379,0],[2,3],[12,28],[-2,26],[-20,16],[-13,-39],[-22,-28],[-10,-6],[-244,0],[-6,46],[16,37],[-33,-5],[-9,-23],[5,-28],[8,-26],[0,-1],[-236,0],[-9,1],[-22,16],[-5,36],[2,71],[3,16],[-1,10],[-7,5],[-10,0],[-4,2],[-2,4],[0,10],[1,16],[8,19],[2,16],[7,14],[37,50],[15,12],[10,-2],[29,-14],[17,-3],[15,5],[20,20],[15,5],[14,8],[18,20],[15,23],[7,20],[-80,-66],[-29,-16],[-22,14],[-5,17],[7,46],[9,14],[17,19],[12,16],[-8,8],[-25,-7],[-19,-19],[-12,-25],[-5,-26],[-9,-17],[-21,-11],[-24,-9],[-16,-9],[-14,-24],[-7,-20],[-13,-13],[-30,-5],[-19,-7],[-16,-8],[-12,4],[-7,32],[5,16],[22,54],[7,11],[4,11],[41,61],[-26,1],[-9,10],[1,17],[4,23],[12,-8],[12,0],[14,6],[13,13],[1,-10],[8,-22],[6,20],[11,17],[12,3],[10,-19],[11,0],[-1,14],[-4,14],[-6,12],[-9,12],[6,1],[2,1],[-1,3],[2,5],[14,-6],[16,-3],[20,-1],[25,-7],[8,5],[-12,22],[5,11],[5,19],[10,0],[12,-16],[20,3],[17,-1],[1,-26],[28,10],[-1,20],[-17,23],[-21,18],[-6,-4],[-6,-2],[-17,-4],[0,10],[32,11],[15,8],[13,12],[11,-18],[19,-22],[23,-11],[27,10],[-18,2],[-1,10],[3,15],[-4,14],[-11,6],[-13,0],[-10,4],[-6,20],[17,-5],[32,-7],[11,-7],[20,10],[-3,-10],[-4,-21],[-4,-10],[36,-26],[11,2],[14,24],[-8,13],[-18,25],[-4,8],[4,10],[10,11],[12,10],[13,5],[3,-4],[11,-7],[15,-7],[16,-3],[10,-5],[5,-13],[2,-16],[-1,-17],[28,10],[-3,5],[-3,11],[-3,5],[22,-1],[15,-9],[12,-13],[11,-18],[-58,-11],[-21,0],[7,-8],[3,-6],[6,-4],[12,-2],[-6,-24],[8,-13],[13,1],[14,40],[17,1],[17,-3],[8,3],[46,2],[13,3],[17,8],[12,10],[7,14],[5,20],[-18,-6],[-13,-8],[-15,-5],[-49,-6],[-11,4],[-4,16],[3,6],[7,5],[10,3],[10,1],[-5,13],[-1,8],[6,20],[-16,3],[-13,-7],[-9,-16],[-2,-21],[-20,23],[-13,7],[-18,0],[0,11],[11,5],[21,25],[0,10],[-11,21],[-10,0],[-20,-51],[-17,-4],[-22,12],[-21,2],[16,23],[20,10],[18,12],[6,27],[-12,-13],[-14,-7],[-13,1],[-12,9],[-9,0],[-1,-15],[-4,-10],[-9,-5],[-15,-1],[4,-22],[-11,-6],[-15,8],[-8,20],[-22,-32],[-12,8],[7,25],[36,19],[-13,9],[-5,12],[1,14],[8,16],[9,0],[6,-4],[6,-2],[18,-3],[-7,20],[-13,14],[-29,16],[-10,0],[-4,-25],[-10,-19],[-8,-21],[2,-27],[-15,-6],[-13,-19],[-13,-6],[-9,5],[4,14],[15,23],[-17,8],[-3,18],[10,44],[-14,-8],[-9,-13],[-5,-16],[-2,-18],[-5,-1],[-31,0],[-13,-4],[20,-10],[0,-11],[16,-12],[17,-10],[7,-14],[-5,-20],[-13,-5],[-14,7],[-8,13],[-7,-12],[-6,-12],[-4,-13],[-3,-14],[-11,58],[-9,20],[-8,-2],[-12,-4],[10,-21],[-20,0],[6,-39],[7,-17],[17,-15],[-10,-21],[-22,16],[-19,21],[-30,45],[-4,-26],[10,-25],[15,-25],[9,-26],[-7,3],[-23,7],[-6,-20],[-12,0],[-11,15],[0,26],[-10,0],[-6,-14],[-5,-15],[-1,-17],[1,-16],[-13,6],[-5,4],[0,-30],[-15,10],[-6,13],[-4,16],[-11,17],[-8,17],[6,11],[17,13],[7,22],[15,23],[14,27],[3,35],[-48,-46],[-25,-13],[-26,18],[7,13],[0,32],[2,17],[-19,1],[-12,-6],[-8,-9],[-10,-7],[0,-5],[-11,-13],[-13,-8],[-6,11],[-5,25],[-8,24],[0,25],[27,40],[11,33],[10,16],[55,56],[16,11],[9,3],[4,5],[1,17],[4,15],[8,13],[19,18],[9,0],[4,-10],[4,-4],[6,-2],[6,-5],[5,14],[7,5],[9,-1],[9,3],[34,-1],[58,-16],[32,-4],[180,0],[8,5],[24,22],[8,5],[38,9],[24,22],[20,23],[23,17],[33,0],[6,-23],[-10,-30],[-14,-23],[-11,-29],[1,-37],[10,-36],[15,-26],[28,-13],[37,-6],[32,-11],[14,-27],[15,-17],[34,-8],[34,6],[15,25],[-38,-13],[-26,23],[-20,34],[-20,17],[-43,5],[-13,4],[-16,11],[-9,10],[-7,12],[-12,14],[-7,19],[14,18],[18,17],[9,18],[27,73],[1,9],[6,4],[22,1],[15,4],[-1,10],[-9,10],[-10,6],[0,6],[-15,4],[-16,1],[-15,-6],[-11,-2],[-32,13],[-16,4],[-21,-6],[-45,-28],[-23,-6],[-13,-10],[-41,-46],[-21,-15],[-34,-6],[-27,5],[-59,20],[-56,10],[-18,8],[-21,19],[-27,18],[-33,8],[-34,-2],[-32,-9],[-11,-7],[-24,-20],[-9,-4],[-31,1],[-17,-1],[-12,-5],[-45,-46],[-9,-6],[-21,-8],[-9,-6],[-43,-62],[-12,-10],[-29,-8],[-65,-40],[-28,-11],[-4,-2],[-94,-18],[-14,-8],[-14,-13],[-70,-36],[-28,-8],[30,122],[27,50],[35,2],[9,-5],[11,-4],[13,-2],[15,1],[0,10],[-27,2],[-34,29],[-28,0],[-23,-18],[-6,-25],[-3,-28],[-47,-93],[-15,-9],[-29,7],[-6,19],[10,55],[-25,-11],[-6,-25],[0,-29],[-10,-27],[-9,-5],[-32,-12],[-14,-9],[-14,-13],[-9,-2],[-6,7],[-6,13],[-3,30],[8,30],[25,53],[21,83],[9,20],[6,6],[9,7],[11,4],[9,3],[6,5],[10,36],[37,58],[12,13],[21,12],[31,13],[32,8],[26,-1],[8,-9],[5,-14],[8,-13],[14,-6],[29,-1],[13,-4],[12,-6],[5,21],[11,22],[5,18],[-11,12],[-8,-6],[-14,-14],[-20,-12],[-27,1],[-9,6],[-10,17],[-11,8],[-13,3],[-6,0],[-6,-2],[-55,-4],[-19,5],[-11,18],[-9,0],[-11,-25],[-27,-15],[-33,-8],[-30,-3],[4,-11],[2,-4],[4,-6],[-5,-2],[-3,1],[-2,-2],[0,-7],[-11,7],[-9,7],[1,-7],[5,-21],[-3,-18],[-13,-19],[-21,-20],[-20,-8],[-108,-2],[-14,-5],[-29,-13],[-11,-3],[-8,-5],[-9,-11],[-13,-11],[-16,-4],[-14,5],[-13,11],[-23,26],[-35,-8],[-47,8],[-41,18],[-17,17],[-30,66],[-14,8],[-39,6],[-16,7],[-13,14],[-9,18],[-5,22],[-6,45],[-14,38],[-3,21],[40,86],[15,19],[17,14],[18,11],[18,8],[1,-17],[7,-13],[11,-3],[13,13],[1,12],[-12,23],[0,16],[16,23],[25,16],[27,11],[107,64],[24,19],[11,14],[17,26],[13,11],[13,6],[32,8],[14,6],[-38,1],[-26,-11],[-20,-20],[-20,-26],[-30,-20],[-75,-16],[-30,-10],[-50,-33],[-15,-12],[-49,-57],[-27,11],[2,28],[11,34],[-1,29],[-8,-22],[-19,-30],[-8,-54],[-15,-22],[-22,-7],[-28,13],[-10,-11],[-4,7],[-17,14],[-3,-20],[-11,-9],[-18,-2],[-22,0],[-4,-5],[-8,-11],[-9,-6],[-4,6],[-3,6],[-6,5],[-8,4],[-28,5],[-14,10],[-8,15],[-3,17],[-9,8],[-35,40],[-1,9],[-10,6],[-30,26],[-14,8],[-7,-2],[-22,-8],[-11,1],[-8,7],[-14,23],[-8,10],[-54,43],[-16,8],[-22,0],[-17,-7],[-15,-9],[-17,-5],[-11,13],[-9,19],[-7,20],[-6,30],[-10,10],[-22,16],[-33,33],[-15,19],[-6,19],[0,62],[3,14],[14,13],[4,14],[10,15],[73,44],[31,1],[46,-4],[48,31],[16,13],[8,12],[7,12],[9,14],[56,41],[27,-31],[20,-57],[21,-12],[1,23],[14,18],[26,7],[29,-6],[49,-28],[44,-12],[48,-23],[25,-2],[29,14],[35,43],[25,14],[34,-1],[29,-11],[29,-3],[33,21],[17,7],[12,-13],[8,-19],[8,-11],[114,42],[26,7],[35,2],[22,6],[19,14],[22,11],[32,-1],[25,-14],[39,-30],[23,-19],[12,-14],[17,-3],[94,-1],[8,-7],[19,-20],[7,-4],[13,2],[38,9],[16,11],[16,19],[21,12],[30,-13],[8,7],[10,4],[9,1],[20,-15],[8,2],[8,3],[8,-2],[11,-13],[10,-26],[8,-11],[9,-9],[11,-6],[13,-4],[18,0],[16,3],[67,28],[26,27],[45,58],[17,13],[15,7],[10,11],[4,20],[-8,9],[-16,7],[-9,8],[12,12],[-14,34],[-13,46],[-5,46],[13,37],[16,11],[21,0],[22,-2],[20,2],[20,9],[14,11],[9,14],[7,17],[30,-29],[27,-8],[19,16],[3,42],[-22,-24],[-22,1],[-22,9],[-23,4],[-22,-10],[-36,-27],[-26,-5],[-15,0],[-22,-3],[-20,-11],[-8,-22],[0,-86],[16,-56],[3,-16],[1,-24],[-1,-12],[-5,-10],[-35,-31],[-11,-14],[-74,-67],[-19,-12],[-17,-1],[-15,7],[-13,11],[8,44],[-44,20],[-103,17],[-70,-45],[-26,-6],[-5,5],[-7,10],[-10,11],[-17,5],[-18,-3],[-25,-14],[-18,-4],[-16,5],[-22,12],[-37,24],[-1,7],[1,11],[1,10],[-5,4],[-20,2],[-10,3],[-6,4],[-9,12],[-20,40],[-6,5],[-6,3],[-6,5],[-5,32],[-8,17],[-9,0],[0,-11],[-2,-6],[-16,-31],[-6,-10],[-6,-51],[-41,-26],[-59,-10],[-16,-6],[-30,-20],[-8,-4],[-16,1],[-35,10],[-55,0],[-17,-4],[-27,-12],[-16,-5],[-17,0],[-47,10],[-16,-3],[-21,-14],[-13,-4],[-5,-7],[-7,-16],[-10,-17],[-13,-10],[-60,20],[-48,27],[-23,20],[-9,19],[-6,4],[-13,4],[-14,7],[-7,10],[3,15],[9,13],[13,10],[15,3],[0,11],[-22,1],[-15,11],[-8,18],[-5,21],[-10,-123],[-11,0],[-19,26],[-53,47],[-7,29],[-17,-14],[-11,-16],[-14,-14],[-23,-6],[-17,4],[-12,10],[-6,16],[1,20],[21,39],[29,29],[19,34],[-9,53],[-7,-41],[-3,-11],[-8,-13],[-7,-7],[-6,-4],[-29,-27],[-13,-15],[-6,-20],[-2,-31],[11,-53],[-3,-25],[-44,-19],[-64,-53],[-49,-17],[-27,16],[-11,38],[-2,51],[8,53],[23,52],[37,30],[51,-17],[2,22],[-20,16],[-31,6],[-25,-9],[-30,-37],[-17,-12],[-18,4],[8,12],[3,13],[-3,13],[-8,12],[31,45],[7,22],[-7,26],[-11,0],[-7,-16],[-10,-8],[-9,6],[-4,23],[3,17],[9,20],[52,77],[5,19],[-1,19],[-7,35],[-2,17],[4,31],[14,62],[3,40],[-2,25],[-6,12],[-22,19],[-23,8],[-3,11],[6,12],[10,21],[-3,23],[-28,74],[-1,17],[3,70],[-3,20],[-8,19],[-25,29],[-6,20],[11,24],[-5,7],[-14,34],[13,16],[16,46],[15,10],[18,4],[19,10],[16,13],[85,106],[38,30],[3,-15],[8,-11],[12,-8],[15,-7],[26,13],[26,2],[22,-9],[16,-16],[8,-27],[-16,-5],[-24,-2],[-17,-17],[23,-21],[19,-42],[10,-45],[-3,-25],[54,-63],[11,-9],[74,-3],[21,-6],[19,-12],[11,-11],[15,-7],[30,-3],[14,-10],[8,-23],[1,-27],[-9,-20],[29,24],[13,1],[19,-15],[-8,15],[-27,27],[-6,4],[-3,19],[-10,13],[-16,5],[-20,-2],[0,11],[42,-1],[20,3],[18,9],[15,-30],[16,6],[20,21],[24,12],[27,8],[54,36],[29,8],[40,-13],[6,-29],[-6,-35],[4,-26],[26,-7],[35,11],[50,27],[0,11],[-16,-2],[-15,-5],[-13,-8],[-12,-12],[-14,-10],[-6,8],[-7,41],[0,17],[-4,15],[-9,6],[-7,3],[-5,9],[-2,12],[-1,12],[4,28],[12,18],[59,49],[11,12],[4,16],[7,7],[14,-3],[24,-9],[204,-12],[78,19],[28,3],[16,-1],[8,-2],[7,0],[14,3],[11,4],[7,7],[6,6],[5,3],[31,2],[94,-11],[30,3],[85,26],[14,8],[27,20],[14,4],[14,-5],[21,-22],[14,-5],[21,1],[15,2],[14,6],[16,12],[13,15],[23,36],[14,10],[17,1],[18,-6],[17,-9],[13,-11],[15,-6],[16,2],[15,6],[13,3],[28,-7],[18,-19],[13,-20],[16,-16],[50,-16],[64,-4],[52,22],[14,60],[-7,0],[-3,0],[-3,-22],[-11,-20],[-15,-14],[-16,-6],[-27,4],[-50,14],[-23,3],[-21,7],[-24,17],[-35,32],[-13,6],[-13,-2],[-12,-5],[-12,-3],[-13,3],[-12,7],[-8,7],[-7,3],[-20,5],[-16,8],[-19,4],[-29,-8],[-15,-11],[-21,-29],[-15,-10],[-25,-1],[-39,19],[-25,3],[-26,-6],[-65,-35],[-52,-16],[-466,-37],[-46,17],[-29,4],[-27,-6],[-27,-14],[-40,-30],[-62,-62],[-13,-11],[-12,-5],[-10,-9],[-11,-4],[-13,9],[-1,11],[5,16],[2,17],[-6,17],[-24,-22],[-3,-13],[8,-17],[-14,-7],[-6,-2],[0,-10],[6,-2],[7,-5],[7,-2],[-28,-15],[-50,-8],[-50,-1],[-32,2],[-113,28],[-47,3],[9,13],[18,37],[3,16],[-3,20],[-14,30],[-4,11],[-6,11],[-26,20],[-10,16],[-14,9],[-3,6],[0,30],[12,63],[-1,24],[-9,19],[-9,15],[-15,22],[-7,16],[1,42],[25,23],[36,19],[37,29],[-8,4],[-15,11],[-8,4],[19,18],[14,23],[-3,18],[-30,3],[4,-24],[-7,-29],[-15,-20],[-21,2],[-11,-31],[-22,-22],[-29,-8],[-28,9],[-25,27],[-7,27],[12,59],[3,37],[4,15],[13,19],[52,62],[9,21],[8,-6],[23,-10],[9,-6],[-4,7],[-7,25],[50,9],[3,-29],[10,-28],[17,-17],[21,4],[-11,34],[-3,38],[-6,29],[-22,11],[8,20],[10,45]],[[187,4096],[325,0],[-4,-19],[-15,-37],[-19,-25],[-19,6],[-11,0],[-15,-20],[-25,-8],[-31,-4],[-28,-9],[-15,-13],[-6,-13],[-2,-12],[-7,-14],[-8,-7],[-17,-10],[-10,-8],[-14,-27],[-11,-10],[-15,7],[-5,14],[0,18],[-2,16],[-14,7],[-18,13],[-8,30],[2,31],[10,19],[-9,20],[-6,23],[-3,32]],[[142,4096],[7,0],[6,-126],[-9,0],[-4,126]],[[1875,1067],[46,-2],[-42,-61],[-79,-41],[25,64],[-16,49],[81,66],[-34,-55],[19,-20]],[[886,2106],[50,-2],[-49,-67],[-49,34],[28,43],[20,-8]],[[369,3065],[-60,76],[12,24],[37,-36],[11,-64]],[[309,3424],[26,-2],[-14,-42],[32,-82],[-81,33],[-57,-28],[-27,16],[-13,18],[73,91],[38,30],[23,-34]],[[2078,3536],[-25,39],[35,37],[29,-16],[-39,-60]],[[1963,3576],[8,-30],[-98,11],[1,39],[89,-20]]]}