{"objects":{"water":{"type":"GeometryCollection","geometries":[{"type":"Polygon","properties":{"source":"naturalearthdata.com","kind":"ocean","area":1576712559132672,"sort_rank":200,"min_zoom":0.0,"id":1},"arcs":[[0],[1]]},{"type":"LineString","properties":{"source":"naturalearthdata.com","kind":"ocean","sort_rank":205,"boundary":true,"min_zoom":0.0,"id":1362},"arcs":[2]}]},"buildings":{"type":"GeometryCollection","geometries":[]},"places":{"type":"GeometryCollection","geometries":[{"type":"Point","properties":{"name:pt":"Ilha de Ascens\u00e3o","name:ar":"\u062c\u0632\u064a\u0631\u0629 \u0623\u0633\u064a\u0646\u0634\u064a\u0646","min_zoom":4.0,"name:be":"\u0412\u043e\u0441\u0442\u0440\u0430\u045e \u0423\u0448\u044d\u0441\u0446\u044f","name:ru":"\u041e\u0441\u0442\u0440\u043e\u0432 \u0412\u043e\u0437\u043d\u0435\u0441\u0435\u043d\u0438\u044f","name:hu":"Ascension-sziget","id":1602899342,"population":880,"name:el":"\u039d\u03ae\u03c3\u03bf\u03c2 \u0391\u03bd\u03b1\u03bb\u03ae\u03c8\u03b5\u03c9\u03c2","kind":"region","name":"Ascension Island","kind_detail":"state","name:de":"Himmelfahrtsinsel","source":"openstreetmap.org","name:fr":"\u00cele de l'Ascension","name:es":"Isla Ascensi\u00f3n"},"coordinates":[3660,677]}]},"transit":{"type":"GeometryCollection","geometries":[]},"pois":{"type":"GeometryCollection","geometries":[]},"boundaries":{"type":"GeometryCollection","geometries":[]},"roads":{"type":"GeometryCollection","geometries":[]},"earth":{"type":"GeometryCollection","geometries":[{"type":"Polygon","properties":{"sort_rank":10,"source":"naturalearthdata.com","kind":"earth","min_zoom":0.0,"id":1512},"arcs":[[3]]},{"type":"Point","properties":{"label_placement":true,"name:pt":"Ilha de Ascens\u00e3o","name:hi":"\u0905\u0938\u0947\u0928\u094d\u0936\u093f\u092f\u0928 \u0926\u094d\u0935\u0940\u092a","name:ar":"\u062c\u0632\u064a\u0631\u0629 \u0623\u0633\u064a\u0646\u0634\u064a\u0646","min_zoom":7.0,"name:ru":"\u041e\u0441\u0442\u0440\u043e\u0432 \u0412\u043e\u0437\u043d\u0435\u0441\u0435\u043d\u0438\u044f","name:be":"\u0412\u043e\u0441\u0442\u0440\u0430\u045e \u0423\u0448\u044d\u0441\u0446\u044f","name:pl":"Wyspa Wniebowst\u0105pienia","id":-156166,"osm_relation":true,"name:el":"\u039d\u03ae\u03c3\u03bf\u03c2 \u0391\u03bd\u03b1\u03bb\u03ae\u03c8\u03b5\u03c9\u03c2","kind":"island","name":"Ascension","area":2581489920,"name:de":"Himmelfahrtsinsel","source":"openstreetmap.org","name:fr":"\u00cele de l'Ascension","name:es":"Isla Ascensi\u00f3n"},"coordinates":[3666,683]}]},"landuse":{"type":"GeometryCollection","geometries":[]}},"type":"Topology","transform":{"translate":[-16.875,-8.4071681636],"scale":[0.0006866455,0.000681441]},"arcs":[[[0,0],[0,4096],[4096,0],[0,-4096],[-4096,0]],[[3595,636],[23,-9],[18,6],[41,2],[16,7],[16,11],[33,15],[16,10],[-23,26],[-54,41],[-13,22],[-12,-7],[-8,0],[-5,6],[-5,11],[-20,-17],[-23,-51],[-16,-22],[8,-17],[1,-18],[7,-16]],[[3668,767],[-12,-7],[-8,0],[-5,6],[-5,11],[-20,-17],[-23,-51],[-16,-22],[8,-17],[1,-18],[7,-16],[23,-9],[18,6],[41,2],[16,7],[16,11],[33,15],[16,10],[-23,26],[-54,41],[-13,22]],[[3643,766],[5,-6],[8,0],[12,7],[13,-22],[54,-41],[23,-26],[-16,-10],[-33,-15],[-16,-11],[-16,-7],[-41,-2],[-18,-6],[-23,9],[-7,16],[-1,18],[-8,17],[16,22],[23,51],[20,17],[5,-11]]]}