{"objects":{"water":{"type":"GeometryCollection","geometries":[{"type":"MultiPolygon","properties":{"source":"naturalearthdata.com","kind":"ocean","area":1576712559132672,"sort_rank":200,"min_zoom":0.0,"id":1},"arcs":[[[0]],[[1]]]},{"type":"MultiLineString","properties":{"source":"naturalearthdata.com","kind":"ocean","sort_rank":205,"boundary":true,"min_zoom":0.0,"id":29},"arcs":[[2],[3]]}]},"buildings":{"type":"GeometryCollection","geometries":[]},"places":{"type":"GeometryCollection","geometries":[]},"transit":{"type":"GeometryCollection","geometries":[]},"pois":{"type":"GeometryCollection","geometries":[]},"boundaries":{"type":"GeometryCollection","geometries":[]},"roads":{"type":"GeometryCollection","geometries":[]},"earth":{"type":"GeometryCollection","geometries":[{"type":"MultiPolygon","properties":{"sort_rank":10,"source":"naturalearthdata.com","min_zoom":0.0,"kind":"earth","area":217205400103},"arcs":[[[4]]]},{"type":"Point","properties":{"label_placement":true,"name:pt":"Ilha Yuzhny","name:az":"C\u0259nub adas\u0131","name:id":"Pulau Yuzhny","name:cy":"Ynys Yuzhny","name:ko":"\uc720\uc988\ub2c8 \uc12c","name:cs":"Ji\u017en\u00ed ostrov","min_zoom":7.0,"name:it":"Isola Ju\u017enyj","name:vi":"\u0110\u1ea3o Yuzhny","name:pl":"Wyspa Po\u0142udniowa","id":-1869739,"name:ka":"\u10e1\u10d0\u10db\u10ee\u10e0\u10d4\u10d7\u10d8 \u10d9\u10e3\u10dc\u10eb\u10e3\u10da\u10d8","area":340195999744,"name:de":"S\u00fcdinsel","name:tr":"Yujni Adas\u0131","name:fr":"\u00cele Ioujny","name:zh":"\u5c24\u65e5\u5167\u5cf6","name:nl":"Joezjny-eiland","name:ja":"\u30e6\u30fc\u30b8\u30cc\u30a3\u5cf6","name:nn":"Juzjnyj","name:uk":"\u041f\u0456\u0432\u0434\u0435\u043d\u043d\u0438\u0439 \u043e\u0441\u0442\u0440\u0456\u0432","name:be":"\u041f\u0430\u045e\u0434\u043d\u0451\u0432\u044b \u0432\u043e\u0441\u0442\u0440\u0430\u045e","name:bg":"\u042e\u0436\u0435\u043d \u043e\u0441\u0442\u0440\u043e\u0432","name:lt":"Piet\u0173 sala","osm_relation":true,"name:el":"\u039d\u03ae\u03c3\u03bf\u03c2 \u0393\u03b9\u03bf\u03cd\u03b6\u03bd\u03b9","kind":"island","name:en":"Yuzhny Island","name":"\u042e\u0436\u043d\u044b\u0439 \u043e\u0441\u0442\u0440\u043e\u0432","name:gl":"Illa Yuzhny","source":"openstreetmap.org","name:et":"L\u00f5unasaar","name:es":"Isla Yuzhny"},"coordinates":[752,2417]}]},"landuse":{"type":"GeometryCollection","geometries":[]}},"type":"Topology","transform":{"translate":[53.4375,71.5249090373],"scale":[0.0006866455,0.0002125968]},"arcs":[[[0,86],[0,20],[10,-9],[-10,-11]],[[4096,4096],[0,-4096],[-631,0],[-12,30],[-80,122],[-119,253],[-72,334],[-103,309],[-34,176],[-12,224],[5,59],[7,42],[0,45],[-22,92],[-1,24],[-2,23],[-7,22],[-16,19],[-80,38],[-41,46],[-21,11],[-251,32],[9,21],[11,16],[31,27],[-20,61],[158,-59],[51,-2],[-8,57],[-14,48],[-17,36],[-20,17],[21,47],[10,50],[7,50],[11,48],[24,55],[52,86],[25,52],[-39,28],[-121,4],[29,54],[39,144],[21,30],[32,24],[98,186],[70,61],[34,47],[15,85],[-11,41],[-69,134],[-11,106],[-158,124],[-39,79],[16,50],[103,175],[12,36],[12,59],[11,64],[6,51],[-3,3],[1114,0]],[[2982,4096],[3,-3],[-6,-51],[-11,-64],[-12,-59],[-12,-36],[-103,-175],[-16,-50],[39,-79],[158,-124],[11,-106],[69,-134],[11,-41],[-15,-85],[-34,-47],[-70,-61],[-98,-186],[-32,-24],[-21,-30],[-39,-144],[-29,-54],[121,-4],[39,-28],[-25,-52],[-52,-86],[-24,-55],[-11,-48],[-7,-50],[-10,-50],[-21,-47],[20,-17],[17,-36],[14,-48],[8,-57],[-51,2],[-158,59],[20,-61],[-31,-27],[-11,-16],[-9,-21],[251,-32],[21,-11],[41,-46],[80,-38],[16,-19],[7,-22],[2,-23],[1,-24],[22,-92],[0,-45],[-7,-42],[-5,-59],[12,-224],[34,-176],[103,-309],[72,-334],[119,-253],[80,-122],[12,-30]],[[0,86],[10,11],[-10,9]],[[0,4096],[2982,0],[3,-3],[-6,-51],[-11,-64],[-12,-59],[-12,-36],[-103,-175],[-16,-50],[39,-79],[158,-124],[11,-106],[69,-134],[11,-41],[-15,-85],[-34,-47],[-70,-61],[-98,-186],[-32,-24],[-21,-30],[-39,-144],[-29,-54],[121,-4],[39,-28],[-25,-52],[-52,-86],[-24,-55],[-11,-48],[-7,-50],[-10,-50],[-21,-47],[20,-17],[17,-36],[14,-48],[8,-57],[-51,2],[-158,59],[20,-61],[-31,-27],[-11,-16],[-9,-21],[251,-32],[21,-11],[41,-46],[80,-38],[16,-19],[7,-22],[2,-23],[1,-24],[22,-92],[0,-45],[-7,-42],[-5,-59],[12,-224],[34,-176],[103,-309],[72,-334],[119,-253],[80,-122],[12,-30],[-3465,0],[0,86],[10,11],[-10,9],[0,3990]]]}