{"objects":{"water":{"type":"GeometryCollection","geometries":[{"type":"Polygon","properties":{"source":"naturalearthdata.com","kind":"ocean","area":1576712559132672,"sort_rank":200,"min_zoom":0.0,"id":1},"arcs":[[0]]},{"type":"MultiLineString","properties":{"source":"naturalearthdata.com","kind":"ocean","sort_rank":205,"boundary":true,"min_zoom":0.0,"id":2791},"arcs":[[1],[2]]}]},"buildings":{"type":"GeometryCollection","geometries":[]},"places":{"type":"GeometryCollection","geometries":[{"type":"Point","properties":{"source":"naturalearthdata.com","kind":"locality","name":"Hadiboh","population":11396,"min_zoom":7.0,"id":2221},"coordinates":[854,2199]}]},"transit":{"type":"GeometryCollection","geometries":[]},"pois":{"type":"GeometryCollection","geometries":[]},"boundaries":{"type":"GeometryCollection","geometries":[]},"roads":{"type":"GeometryCollection","geometries":[]},"earth":{"type":"GeometryCollection","geometries":[{"type":"MultiPolygon","properties":{"sort_rank":10,"source":"naturalearthdata.com","min_zoom":0.0,"kind":"earth","area":38433300422},"arcs":[[[3]]]},{"type":"Point","properties":{"label_placement":true,"name:pt":"Socotor\u00e1","name:id":"Sokotra","name:ka":"\u10e1\u10dd\u10d9\u10dd\u10e2\u10e0\u10d0","name:mr":"\u0938\u0941\u0915\u093c\u0941\u0924\u094d\u0930\u093e","name:ko":"\uc18c\ucf54\ud2b8\ub77c \uc12c","name:kn":"\u0cb8\u0cc1\u0c95\u0cc1\u0ca4\u0ccd\u0cb0\u0cbe","name:cs":"Sokotra","min_zoom":7.0,"name:sv":"Sokotra","name:ru":"\u0421\u043e\u043a\u043e\u0442\u0440\u0430","name:pl":"Sokotra","name:mn":"\u0421\u043e\u043a\u043e\u0442\u0440\u0430 \u043e\u043b\u044c\u0442\u0440\u0438\u0433","id":-1577075,"name:mk":"\u0421\u043e\u043a\u043e\u0442\u0440\u0430","name:af":"Sokotra","name:fa":"\u0633\u0642\u0637\u0631\u0627","name:ta":"\u0b9a\u0bc1\u0b95\u0bc1\u0ba4\u0bcd\u0ba4\u0bbf\u0bb0\u0bbe","name:nn":"Sokotra","area":3794769920,"name:fi":"Sokotra","name:de":"Sokotra","name:tr":"Sokotra","name:zh":"\u7d22\u79d1\u7279\u62c9\u5c9b","name:so":"Soqotra","name:lv":"Sokotra","name:ja":"\u30bd\u30b3\u30c8\u30e9\u5cf6","name:lt":"Sokotra","name:hi":"\u0938\u0941\u0915\u093c\u0941\u0924\u094d\u0930\u093e","name:kk":"\u0421\u043e\u043a\u043e\u0442\u0440\u0430 \u049b\u0430\u043b\u0430\u0441\u044b","name:he":"\u05e1\u05d5\u05e7\u05d5\u05d8\u05e8\u05d4","name:eo":"Sokotra","name:br":"Sokotra","name:ur":"\u0633\u0642\u0648\u0637\u0631\u06c1","name:sk":"Sokotra","name:uk":"\u0421\u043e\u043a\u043e\u0442\u0440\u0430","name:sw":"Sokotra","name:be":"\u0410\u0440\u0445\u0456\u043f\u0435\u043b\u0430\u0433 \u0421\u0430\u043a\u043e\u0442\u0440\u0430","name:su":"Sokotra","name:bg":"\u0421\u043e\u043a\u043e\u0442\u0440\u0430","name:hr":"Sokotra","name:sr":"\u0421\u043e\u043a\u043e\u0442\u0440\u0430","osm_relation":true,"name:el":"\u03a3\u03bf\u03ba\u03cc\u03c4\u03c1\u03b1","kind":"island","name:en":"Socotra","name":"\u0633\u0642\u0637\u0631\u0649","source":"openstreetmap.org","name:eu":"Sokotra","name:et":"Sokotra","name:nl":"Socotra (archipel)"},"coordinates":[663,1983]}]},"landuse":{"type":"GeometryCollection","geometries":[]}},"type":"Topology","transform":{"translate":[53.4375,11.1784018737],"scale":[0.0006866455,0.0006701665]},"arcs":[[[4096,4096],[0,-4096],[-4096,0],[0,1901],[1,-1],[60,-40],[38,-13],[20,-34],[24,-29],[24,-29],[29,-30],[67,-18],[80,-24],[85,-9],[65,7],[175,34],[63,10],[44,11],[23,-7],[1,0],[32,-11],[33,28],[24,7],[25,-4],[67,5],[44,-4],[21,13],[42,34],[38,17],[13,8],[27,38],[12,13],[55,20],[65,-5],[59,24],[49,11],[62,26],[3,40],[15,12],[28,5],[32,10],[43,12],[18,19],[-20,10],[-15,2],[-28,-17],[-38,-5],[-71,46],[-31,9],[-59,33],[-60,13],[-50,22],[-23,9],[-13,23],[-33,7],[-27,1],[-12,13],[-15,17],[-7,4],[-18,-11],[-22,-5],[-31,19],[-21,16],[-19,19],[-38,-3],[-16,-19],[-35,-23],[-19,-6],[-54,-31],[-50,1],[-49,-6],[-26,12],[-27,3],[-40,-8],[-14,-37],[-30,-36],[-55,14],[-66,18],[-100,74],[-58,53],[-36,-4],[-34,-4],[-48,6],[-79,16],[-28,-4],[-14,-15],[-16,-23],[-14,-22],[-47,-7],[0,1875],[4096,0]],[[1505,2037],[-71,46],[-31,9],[-59,33],[-60,13],[-50,22],[-23,9],[-13,23],[-33,7],[-27,1],[-12,13],[-15,17],[-7,4],[-18,-11],[-22,-5],[-31,19],[-21,16],[-19,19],[-38,-3],[-16,-19],[-35,-23],[-19,-6],[-54,-31],[-50,1],[-49,-6],[-26,12],[-27,3],[-40,-8],[-14,-37],[-30,-36],[-55,14],[-66,18],[-100,74],[-58,53],[-36,-4],[-34,-4],[-48,6],[-79,16],[-28,-4],[-14,-15],[-16,-23],[-14,-22],[-47,-7]],[[0,1901],[1,-1],[60,-40],[38,-13],[20,-34],[24,-29],[24,-29],[29,-30],[67,-18],[80,-24],[85,-9],[65,7],[175,34],[63,10],[44,11],[23,-7],[1,0],[32,-11],[33,28],[24,7],[25,-4],[67,5],[44,-4],[21,13],[42,34],[38,17],[13,8],[27,38],[12,13],[55,20],[65,-5],[59,24],[49,11],[62,26],[3,40],[15,12],[28,5],[32,10],[43,12],[18,19],[-20,10],[-15,2],[-28,-17],[-38,-5]],[[0,1901],[0,320],[47,7],[14,22],[16,23],[14,15],[28,4],[79,-16],[48,-6],[34,4],[36,4],[58,-53],[100,-74],[66,-18],[55,-14],[30,36],[14,37],[40,8],[27,-3],[26,-12],[49,6],[50,-1],[54,31],[19,6],[35,23],[16,19],[38,3],[19,-19],[21,-16],[31,-19],[22,5],[18,11],[7,-4],[15,-17],[12,-13],[27,-1],[33,-7],[13,-23],[23,-9],[50,-22],[60,-13],[59,-33],[31,-9],[71,-46],[38,5],[28,17],[15,-2],[20,-10],[-18,-19],[-43,-12],[-32,-10],[-28,-5],[-15,-12],[-3,-40],[-62,-26],[-49,-11],[-59,-24],[-65,5],[-55,-20],[-12,-13],[-27,-38],[-13,-8],[-38,-17],[-42,-34],[-21,-13],[-44,4],[-67,-5],[-25,4],[-24,-7],[-33,-28],[-32,11],[-1,0],[-23,7],[-44,-11],[-63,-10],[-175,-34],[-65,-7],[-85,9],[-80,24],[-67,18],[-29,30],[-24,29],[-24,29],[-20,34],[-38,13],[-60,40],[-1,1]]]}