{"objects":{"water":{"type":"GeometryCollection","geometries":[{"type":"Polygon","properties":{"source":"naturalearthdata.com","kind":"ocean","area":1576712559132672,"sort_rank":200,"min_zoom":0.0,"id":1},"arcs":[[3]]},{"type":"LineString","properties":{"source":"naturalearthdata.com","kind":"ocean","sort_rank":205,"boundary":true,"min_zoom":0.0,"id":55},"arcs":[4]}]},"buildings":{"type":"GeometryCollection","geometries":[]},"places":{"type":"GeometryCollection","geometries":[]},"transit":{"type":"GeometryCollection","geometries":[]},"pois":{"type":"GeometryCollection","geometries":[]},"boundaries":{"type":"GeometryCollection","geometries":[{"type":"LineString","properties":{"name:pt":"Om\u00e3","name:ka":"\u10dd\u10db\u10d0\u10dc\u10d8","name:ko":"\uc624\ub9cc","name:cv":"\u041e\u043c\u0430\u043d","name:tr":"Umman","name:kl":"Oman","name:cs":"Om\u00e1n","name:tt":"\u041e\u043c\u0430\u043d","name:kw":"Oman","name:kv":"\u041e\u043c\u0430\u043d","name:ku":"Oman","name:az":"Oman","name:tl":"Oman","name:zh-min-nan":"Oman","name:os":"\u041e\u043c\u0430\u043d","name:or":"\u0b13\u0b2e\u0b3e\u0b28","name:ce":"\u041e\u043c\u0430\u043d","name:ta":"\u0b93\u0bae\u0bbe\u0ba9\u0bcd","name:tg":"\u041e\u043c\u0430\u043d","name:ca":"Oman","name:te":"\u0c12\u0c2e\u0c28\u0c4d","name:li":"Omaan","name:cy":"Oman","sort_rank":262,"name:hr":"Oman","name:da":"Oman","name:sw":"Omani","name:de":"Oman","source":"openstreetmap.org","name:nv":"Om\u0105\u0301\u0105\u0301","name:kn":"\u0c92\u0cae\u0cbe\u0ca8\u0ccd","name:be":"\u0410\u043c\u0430\u043d","name:dv":"\u07a2\u07aa\u0789\u07a7\u0782\u07b0","name:lv":"Om\u0101na","name:lt":"Omanas","name:uz":"Oman","name:kk":"\u041e\u043c\u0430\u043d","name:he":"\u05e2\u05d5\u05de\u05d0\u05df","name:eo":"Omano","name:ur":"\u0633\u0644\u0637\u0646\u062a \u0639\u0645\u0627\u0646","name:lb":"Oman","name:la":"Omania","name:uk":"\u041e\u043c\u0430\u043d","name:hy":"\u0555\u0574\u0561\u0576","name:ug":"\u0626\u0648\u0645\u0627\u0646","name:hu":"Om\u00e1n","name:ln":"Oman","name:oc":"Oman","name:el":"\u039f\u03bc\u03ac\u03bd","kind":"country","name:en":"Oman","name":"\u0639\u0645\u0627\u0646","name:tk":"Oman","min_zoom":8.0,"name:th":"\u0e1b\u0e23\u0e30\u0e40\u0e17\u0e28\u0e42\u0e2d\u0e21\u0e32\u0e19","name:eu":"Oman","name:et":"Omaan","name:jv":"Oman","name:es":"Om\u00e1n","name:ht":"Om\u00e0n","name:ia":"Oman","name:ro":"Oman","name:ie":"Oman","name:id":"Oman","name:ms":"Oman","name:mr":"\u0913\u092e\u093e\u0928","name:pa":"\u0a13\u0a2e\u0a3e\u0a28","name:my":"\u1021\u102d\u102f\u1019\u1014\u103a\u1014\u102d\u102f\u1004\u103a\u1004\u1036","name:io":"Oman","name:is":"\u00d3man","name:am":"\u12a6\u121b\u1295","name:it":"Oman","name:vi":"Oman","name:ml":"\u0d12\u0d2e\u0d3e\u0d7b","name:rw":"Omani","name:pl":"Oman","name:mk":"\u041e\u043c\u0430\u043d","name:af":"Oman","name:mn":"\u041e\u043c\u0430\u043d","name:ss":"IMani","name:si":"\u0d95\u0db8\u0dcf\u0db1\u0dba","kind_detail":"2","name:hi":"\u0913\u092e\u093e\u0928","id":-305138,"name:fr":"Oman","name:zh-yue":"\u963f\u66fc","name:fy":"Oman","name:vo":"Lom\u00e4n","name:zh":"\u963f\u66fc","name:so":"Cumaan","name:sr":"\u041e\u043c\u0430\u043d","name:sl":"Oman","name:nl":"Oman","name:ja":"\u30aa\u30de\u30fc\u30f3","name:nn":"Oman","name:sh":"Oman","name:qu":"Uman","name:na":"Oman","name:se":"Oman","name:br":"Oman","name:bs":"Oman","name:yi":"\u05d0\u05de\u05d0\u05df","name:bn":"\u0993\u09ae\u09be\u09a8","name:bo":"\u0f68\u0f7c\u0f0b\u0f58\u0f53\u0f0d","name:sk":"Om\u00e1n","name:sa":"\u0913\u092e\u093e\u0928","name:no":"Oman","name:ru":"\u041e\u043c\u0430\u043d","name:sv":"Oman","name:su":"Oman","name:bg":"\u041e\u043c\u0430\u043d","name:an":"Om\u00e1n","name:ba":"\u041e\u043c\u0430\u043d","osm_relation":true,"name:sq":"Omani","name:ga":"\u00d3man","name:gd":"Om\u00e0n","name:yo":"Oman","name:wo":"Omaan","name:gn":"Om\u00e3","name:gl":"Om\u00e1n","maritime_boundary":true,"name:gv":"Yn Omaan","name:gu":"\u0a93\u0aae\u0abe\u0aa8","name:fi":"Oman"},"arcs":[0]},{"type":"LineString","properties":{"id:right":-3781238,"min_zoom":8.0,"name:left:ru":"\u0414\u043e\u0444\u0430\u0440","id":-3781314,"osm_relation":true,"name:left:en":"Dhofar","kind":"region","name":"\u0645\u062d\u0627\u0641\u0638\u0629 \u0638\u0641\u0627\u0631 - \u0645\u062d\u0627\u0641\u0638\u0629 \u0627\u0644\u0648\u0633\u0637\u0649","sort_rank":256,"kind_detail":"4","name:left:de":"Dhofar","name:right:en":"Al Wusta","source":"openstreetmap.org","name:right:de":"al-Wusta","id:left":-3781314,"name:right:cs":"al-Wusta","name:right":"\u0645\u062d\u0627\u0641\u0638\u0629 \u0627\u0644\u0648\u0633\u0637\u0649","name:left:cs":"Daf\u00e1r","name:left":"\u0645\u062d\u0627\u0641\u0638\u0629 \u0638\u0641\u0627\u0631"},"arcs":[1]},{"type":"LineString","properties":{"kind":"region","name:en":"Al Wusta","name":"\u0645\u062d\u0627\u0641\u0638\u0629 \u0627\u0644\u0648\u0633\u0637\u0649","sort_rank":256,"kind_detail":"4","name:cs":"al-Wusta","min_zoom":8.0,"name:de":"al-Wusta","source":"openstreetmap.org","maritime_boundary":true,"id":-3781238,"osm_relation":true},"arcs":[2]}]},"roads":{"type":"GeometryCollection","geometries":[{"type":"MultiLineString","properties":{"sort_rank":380,"kind_detail":"primary","min_zoom":8.0,"kind":"major_road","source":"openstreetmap.org"},"arcs":[[5],[6],[7],[8],[9],[10],[11]]},{"type":"LineString","properties":{"kind":"major_road","name:en":"Mahot - Duqm Road","network":"Roads in Oman","sort_rank":380,"kind_detail":"primary","source":"openstreetmap.org","min_zoom":8.0,"shield_text":"32","ref":"32","id":458147991},"arcs":[12]},{"type":"MultiLineString","properties":{"source":"openstreetmap.org","kind":"major_road","sort_rank":380,"kind_detail":"primary","ref":"39","min_zoom":8.0},"arcs":[[13],[14]]},{"type":"MultiLineString","properties":{"kind":"major_road","network":"Roads in Oman","sort_rank":380,"kind_detail":"primary","source":"openstreetmap.org","min_zoom":8.0,"shield_text":"39","ref":"39"},"arcs":[[15],[16]]},{"type":"LineString","properties":{"kind":"major_road","network":"Roads in Oman","sort_rank":380,"kind_detail":"primary","source":"openstreetmap.org","min_zoom":8.0,"shield_text":"41","id":239922774},"arcs":[17]},{"type":"MultiLineString","properties":{"kind":"major_road","network":"Roads in Oman","sort_rank":380,"kind_detail":"primary","source":"openstreetmap.org","min_zoom":8.0,"shield_text":"41","ref":"41"},"arcs":[[18],[19],[20]]},{"type":"LineString","properties":{"source":"openstreetmap.org","kind":"major_road","sort_rank":380,"kind_detail":"primary","ref":"41","min_zoom":8.0},"arcs":[21]}]},"earth":{"type":"GeometryCollection","geometries":[{"type":"Polygon","properties":{"sort_rank":10,"source":"naturalearthdata.com","min_zoom":0.0,"kind":"earth","area":12995919141},"arcs":[[22]]}]},"landuse":{"type":"GeometryCollection","geometries":[]}},"type":"Topology","transform":{"translate":[56.25,17.9787330956],"scale":[0.0003433228,0.0003252955]},"arcs":[[[1291,0],[148,210],[45,174],[2,164],[113,242],[58,346],[57,157],[10,275],[247,300],[136,88],[394,161],[625,165],[307,41],[663,7]],[[261,0],[-261,418]],[[1291,0],[148,210],[45,174],[2,164],[113,242],[58,346],[57,157],[10,275],[247,300],[75,57],[455,192],[688,177],[408,38],[499,-1]],[[338,0],[111,124],[21,13],[42,13],[18,14],[89,161],[63,37],[127,56],[57,46],[41,60],[7,65],[-44,60],[151,355],[26,130],[0,127],[8,33],[26,61],[16,50],[42,59],[9,39],[-2,35],[-19,101],[12,146],[54,111],[311,312],[24,31],[29,66],[68,52],[124,63],[188,136],[491,203],[361,104],[693,108],[163,26],[451,-22],[0,-2975],[-3758,0]],[[338,0],[111,124],[21,13],[42,13],[18,14],[89,161],[63,37],[127,56],[57,46],[41,60],[7,65],[-44,60],[151,355],[26,130],[0,127],[8,33],[26,61],[16,50],[42,59],[9,39],[-2,35],[-19,101],[12,146],[54,111],[311,312],[24,31],[29,66],[68,52],[124,63],[188,136],[491,203],[361,104],[693,108],[163,26],[451,-22]],[[971,1869],[-1,1]],[[970,1868],[1,0]],[[1227,2232],[1,0]],[[1229,2233],[1,1]],[[76,2820],[-1,1],[-1,-1],[1,0],[1,0]],[[1229,2233],[0,1],[-1,-1],[0,-1]],[[1228,2232],[1,1]],[[3919,4096],[177,-439]],[[74,2820],[-1,0]],[[76,2820],[0,1]],[[0,2790],[75,30]],[[75,2821],[207,75],[130,85],[105,89],[47,114],[-3,61],[-71,127],[-32,350],[-126,374]],[[971,1868],[-1,1],[0,-1],[1,0]],[[971,1867],[21,-398],[-64,-169],[47,-169],[-5,-171],[-114,-218],[-2,-125],[-27,-4]],[[1228,2233],[-157,-110],[-101,-254]],[[4096,3619],[-190,-278],[-106,-98],[-365,-75],[-238,-181],[-409,-24],[-104,-54],[-133,16],[-227,-113],[-227,-33],[-216,-172],[-293,-111],[-359,-262]],[[827,613],[-286,-57],[-101,-132],[-173,-59],[-95,-116],[-172,-18]],[[1546,2279],[-18,-40],[-24,-31],[-311,-312],[-54,-111],[-12,-146],[19,-101],[2,-35],[-9,-39],[-42,-59],[-16,-50],[-26,-61],[-8,-33],[0,-127],[-26,-130],[-151,-355],[44,-60],[-7,-65],[-41,-60],[-57,-46],[-127,-56],[-63,-37],[-89,-161],[-18,-14],[-42,-13],[-21,-13],[-111,-124],[-338,0],[0,2279],[0,1817],[4096,0],[0,-1121],[-451,22],[-163,-26],[-693,-108],[-361,-104],[-491,-203],[-188,-136],[-124,-63],[-68,-52],[-11,-26]]]}