{"objects":{"water":{"type":"GeometryCollection","geometries":[{"type":"Polygon","properties":{"source":"naturalearthdata.com","kind":"ocean","area":1576712559132672,"sort_rank":200,"min_zoom":0.0,"id":1},"arcs":[[0]]},{"type":"LineString","properties":{"source":"naturalearthdata.com","kind":"ocean","sort_rank":205,"boundary":true,"min_zoom":0.0,"id":1376},"arcs":[1]}]},"buildings":{"type":"GeometryCollection","geometries":[]},"places":{"type":"GeometryCollection","geometries":[{"type":"Point","properties":{"name:pt":"Maur\u00edcio","name:ml":"\u0d2e\u0d57\u0d31\u0d40\u0d37\u0d4d\u0d2f\u0d38\u0d4d","name:ps":"\u0645\u0627\u0648\u0631\u06cc\u062a\u0648\u0633","name:ka":"\u10db\u10d0\u10d5\u10e0\u10d8\u10d9\u10d8\u10d0","name:ko":"\ubaa8\ub9ac\uc154\uc2a4","name:cv":"\u041c\u0430\u0432\u0440\u0438\u043a\u0438","name:km":"\u1798\u17c9\u17bc\u179a\u17b8\u1791\u17bb\u179f","name:cs":"Mauricius","name:ki":"Morisi","name:kw":"Ynys Morrys","name:tk":"Mawriki\u00fd","name:ku":"Maur\u00eetius","name:ti":"\u121b\u1229\u1238\u1235","name:ks":"\u0645\u0648\u0631\u0650\u0634\u064e\u0633","name:to":"Maulitiusi","name:tl":"Maurisyo","name:pa":"\u0a2e\u0a3e\u0a30\u0a40\u0a38\u0a3c\u0a38","name:os":"\u041c\u0430\u0432\u0440\u0438\u043a\u0438\u0439","name:or":"\u0b2e\u0b4c\u0b30\u0b3f\u0b38\u0b38\u0b4d","name:ta":"\u0bae\u0bca\u0bb0\u0bbf\u0b9a\u0bbf\u0baf\u0bb8\u0bcd","name:tg":"\u041c\u0430\u0432\u0440\u0438\u043a\u0438\u044f","name:ca":"Maurici","name:te":"\u0c2e\u0c3e\u0c30\u0c3f\u0c37\u0c38\u0c4d","name:cy":"Mawrisiws","name:hr":"Mauricius","name:ln":"Moris\u025b","name:dz":"\u0f58\u0f7c\u0f0b\u0f62\u0f72\u0f0b\u0f64\u0f71\u0f66","source":"openstreetmap.org","name:kn":"\u0cae\u0cbe\u0cb0\u0cbf\u0cb6\u0cbf\u0caf\u0cb8\u0ccd","name:dv":"\u0789\u07ae\u0783\u07a8\u079d\u07a6\u0790\u07b0","name:lv":"Maur\u012bcija","name:lt":"Mauricijus","name:uz":"Mavritsiya","name:kk":"\u041c\u0430\u0432\u0440\u0438\u043a\u0438\u0439","name:he":"\u05de\u05d0\u05d5\u05e8\u05d9\u05e6\u05d9\u05d5\u05e1","min_zoom":2.0,"kind":"country","name:ur":"\u0645\u0627\u0631\u06cc\u0634\u0633","name:la":"Mauritia","name:lg":"Mawulisyasi","name:uk":"\u041c\u0430\u0432\u0440\u0438\u043a\u0456\u0439","name:hy":"\u0544\u0561\u057e\u0580\u056b\u057f\u0578\u057d","name:ug":"\u0645\u0627\u06cb\u0631\u0649\u062a\u0649\u0626\u06c7\u0633","name:qu":"Mawrisyu","name:lo":"\u0ea1\u0ebb\u0ea7\u0ea5\u0eb5\u0e95\u0ebd\u0e94","name:oc":"Maurici","population":1274189,"name:el":"\u039c\u03b1\u03c5\u03c1\u03af\u03ba\u03b9\u03bf\u03c2","name:eo":"Ma\u016dricio","name":"Mauritius","official_name":"Republic of Mauritius","name:ee":"mauritiusduk\u0254","nat_name":"Republic of Mauritius","name:th":"\u0e1b\u0e23\u0e30\u0e40\u0e17\u0e28\u0e21\u0e2d\u0e23\u0e34\u0e40\u0e0a\u0e35\u0e22\u0e2a","name:gu":"\u0aae\u0acb\u0ab0\u0abf\u0ab6\u0abf\u0aaf\u0ab8","name:eu":"Maurizio","name:es":"Mauricio","name:ia":"Mauritio","name:mt":"Mawrizju","name:rn":"Izinga rya Morise","name:az":"Mavritis","name:mr":"\u092e\u0949\u0930\u093f\u0936\u0938","name:ar":"\u0645\u0648\u0631\u064a\u0634\u064a\u0648\u0633","name:my":"\u1019\u1031\u102c\u101b\u1005\u103a\u101b\u103e\u1014\u102d\u102f\u1004\u103a\u1004\u1036","name:io":"Maurico","name:is":"M\u00e1rit\u00edus","name:am":"\u121b\u1229\u1238\u1235","name:an":"Mauricio","name:ru":"\u041c\u0430\u0432\u0440\u0438\u043a\u0438\u0439","name:rw":"Morise","id":1708980402,"name:mk":"\u041c\u0430\u0443\u0440\u0438\u0446\u0438\u0443\u0441","name:vo":"Morise\u00e4n","name:zu":"i-Mauritius","name:ha":"Moritus","name:mn":"\u041c\u0430\u0432\u0440\u0438\u043a\u0438\u0439","name:ff":"Moriis","name:hi":"\u092e\u0949\u0930\u093f\u0936\u0938","name:mg":"Maorisy","name:fo":"M\u00f3ritius","name:fr":"Maurice","name:wo":"M\u00f3oris","name:fy":"Mauritsius","name:zh":"\u6bdb\u91cc\u6c42\u65af","name:gv":"Ellan Wirrish","name:so":"Murishiyoos","name:sk":"Maur\u00edcius","name:ja":"\u30e2\u30fc\u30ea\u30b7\u30e3\u30b9","name:si":"\u0db8\u0dd4\u0dbb\u0dd4\u0dc3\u0dd2\u0dba","name:fa":"\u0645\u0648\u0631\u06cc\u0633","name:sg":"M\u00f6r\u00eesi","name:sc":"Mauritzius","name:ne":"\u092e\u093e\u0909\u0930\u093f\u091f\u0938","name:br":"Moris","name:bs":"Mauricius","name:bm":"Morisi","name:bn":"\u09ae\u09b0\u09bf\u09b6\u09be\u09b8","name:bo":"\u0f58\u0f7d\u0f0b\u0f62\u0f72\u0f64\u0f66\u0f84\u0f0d","name:sa":"\u092e\u093e\u0930\u093f\u0937\u0938\u094d","name:sw":"Morisi","name:be":"\u041c\u0430\u045e\u0440\u044b\u043a\u0456\u0439","name:bg":"\u041c\u0430\u0432\u0440\u0438\u0446\u0438\u0439","name:ss":"IMorishiyasi","name:sr":"\u041c\u0430\u0443\u0440\u0438\u0446\u0438\u0458\u0443\u0441","name:sq":"Mauritiusi","name:ga":"Oile\u00e1n Mhuir\u00eds","name:gd":"Na h-Eileanan Mhoiriseas","name:ht":"Moris","name:gl":"Mauricio","name:yo":"Or\u00edl\u1eb9\u0301\u00e8de Maritiusi","name:ak":"M\u0254rehye\u0254s","name:tt":"\u041c\u0430\u0432\u0440\u0438\u043a\u0438\u0439"},"coordinates":[3846,1106]},{"type":"Point","properties":{"name:az":"Port Luiz","name:ka":"\u10de\u10dd\u10e0\u10e2-\u10da\u10e3\u10d8","name:mr":"\u092a\u094b\u0930\u094d\u091f \u0932\u0941\u0908\u0938","name:ko":"\ud3ec\ud2b8\ub8e8\uc774\uc2a4","name:cv":"\u041f\u043e\u0440\u0442 \u041b\u0443\u0438","name:ar":"\u0628\u0648\u0631 \u0644\u0648\u064a\u0633","name:is":"Port Louis","name:am":"\u1356\u122d\u1275 \u1209\u12ca\u1235","name:be":"\u041f\u043e\u0440\u0442-\u041b\u0443\u0456","name:os":"\u041f\u043e\u0440\u0442-\u041b\u0443\u0438","name:ru":"\u041f\u043e\u0440\u0442-\u041b\u0443\u0438","name:pl":"Port Louis","name:ta":"\u0baa\u0bcb\u0bb0\u0bcd\u0b9f\u0bcd \u0bb2\u0bc2\u0baf\u0bbf\u0bb8\u0bcd","name:tg":"\u041f\u043e\u0440\u0442-\u041b\u0443\u0438","name:mk":"\u041f\u043e\u0440\u0442 \u041b\u0443\u0438\u0441","name:fa":"\u067e\u0648\u0631\u062a\u200c\u0644\u0648\u0626\u06cc\u0633","kind_detail":"city","id":243819778,"source":"openstreetmap.org","name:ky":"\u041f\u043e\u0440\u0442-\u041b\u0443\u0438","name:zh-yue":"\u8def\u6613\u58eb\u6e2f","name:de":"Port Louis","name:zh":"\u8def\u6613\u6e2f","name:so":"Bort Lois","admin_level":"2","name:lv":"Portlu\u012b","name:ja":"\u30dd\u30fc\u30c8\u30eb\u30a4\u30b9","name:lt":"Port Luisas","name:hi":"\u092a\u094b\u0930\u094d\u091f \u0932\u0941\u0908","name:he":"\u05e4\u05d5\u05e8 \u05dc\u05d5\u05d0\u05d9","kind":"locality","name:ur":"\u067e\u0648\u0631\u0679 \u0644\u0648\u0626\u0633","name:bo":"\u0f63\u0f7c\u0f0b\u0f61\u0f72\u0f0b\u0f66\u0f72\u0f0b\u0f42\u0fb2\u0f74\u0f0b\u0f41\u0f0d","name:uk":"\u041f\u043e\u0440\u0442-\u041b\u0443\u0457","name:hy":"\u054a\u0578\u0580\u057f \u053c\u0578\u0582\u056b","country_capital":true,"name:sv":"Port Louis","name:ht":"P\u00f2-Loui","name:bg":"\u041f\u043e\u0440\u0442 \u041b\u0443\u0438","name:sr":"\u041f\u043e\u0440\u0442 \u041b\u0443\u0438\u0441","population":147688,"name:el":"\u03a0\u03bf\u03c1 \u039b\u03bf\u03c5\u03af","name:eo":"Port-Luiso","name":"Port-Louis","min_zoom":8.0,"name:gl":"Port Louis","name:th":"\u0e1e\u0e2d\u0e23\u0e4c\u0e15\u0e2b\u0e25\u0e38\u0e22\u0e2a\u0e4c","name:la":"Portus Ludovici"},"coordinates":[3654,1454]},{"type":"Point","properties":{"kind":"locality","name":"Vacoas-Phoenix","name:lt":"Vakoasas","kind_detail":"city","source":"openstreetmap.org","min_zoom":8.0,"id":365764030,"population":107678},"coordinates":[3620,1035]},{"type":"Point","properties":{"source":"openstreetmap.org","kind":"locality","name":"Beau Bassin - Rose Hill","kind_detail":"town","population":96000,"min_zoom":8.0,"id":2166853543},"coordinates":[3552,1235]},{"type":"Point","properties":{"source":"openstreetmap.org","kind":"locality","name":"Quatre Bornes","kind_detail":"town","population":81773,"min_zoom":8.0,"id":245557798},"coordinates":[3583,1142]},{"type":"Point","properties":{"source":"openstreetmap.org","kind":"locality","name":"Curepipe","kind_detail":"town","population":81600,"min_zoom":8.0,"id":2642246014},"coordinates":[3702,985]}]},"transit":{"type":"GeometryCollection","geometries":[]},"pois":{"type":"GeometryCollection","geometries":[]},"boundaries":{"type":"GeometryCollection","geometries":[]},"roads":{"type":"GeometryCollection","geometries":[{"type":"MultiLineString","properties":{"sort_rank":380,"kind_detail":"primary","min_zoom":8.0,"kind":"major_road","source":"openstreetmap.org"},"arcs":[[2],[3],[4],[5],[6],[7],[8],[9],[10],[11],[12],[13],[14],[15],[16],[17],[18],[19],[20],[21],[22],[23],[24],[25],[26],[27],[28],[29],[30],[31],[32],[33],[34],[35],[36],[37],[38],[39],[40],[41],[42],[43],[44],[45],[46],[47],[48],[49],[50],[51],[52],[53],[54]]},{"type":"MultiLineString","properties":{"sort_rank":381,"source":"openstreetmap.org","min_zoom":8.0,"kind":"major_road","kind_detail":"trunk"},"arcs":[[55],[56],[57],[58],[59],[60],[61],[62],[63],[64],[65]]},{"type":"LineString","properties":{"kind":"major_road","sort_rank":381,"landuse_kind":"urban_area","source":"openstreetmap.org","min_zoom":8.0,"kind_detail":"trunk","ref":"M1;A10;B81","id":22730921},"arcs":[66]},{"type":"LineString","properties":{"kind":"major_road","name:en":"Royal Road","sort_rank":380,"kind_detail":"primary","source":"openstreetmap.org","min_zoom":8.0,"landuse_kind":"urban_area","ref":"A10","id":98372026},"arcs":[67]},{"type":"LineString","properties":{"kind":"major_road","name:en":"Royal Road","sort_rank":380,"kind_detail":"primary","name:fr":"Route Royale","source":"openstreetmap.org","min_zoom":8.0,"landuse_kind":"urban_area","ref":"A1"},"arcs":[68]},{"type":"MultiLineString","properties":{"source":"openstreetmap.org","kind":"major_road","name:en":"Royal Road","sort_rank":380,"kind_detail":"primary","ref":"A10","min_zoom":8.0},"arcs":[[69],[70],[71]]},{"type":"LineString","properties":{"source":"openstreetmap.org","kind":"major_road","sort_rank":381,"kind_detail":"trunk","ref":"M1;A10;B95","min_zoom":8.0,"id":22730926},"arcs":[72]},{"type":"LineString","properties":{"kind":"major_road","sort_rank":381,"kind_detail":"trunk","is_bicycle_related":true,"source":"openstreetmap.org","min_zoom":8.0,"ref":"M2","id":479324946},"arcs":[73]},{"type":"LineString","properties":{"source":"openstreetmap.org","kind":"major_road","sort_rank":381,"kind_detail":"trunk","ref":"M1;A10;B81","min_zoom":8.0,"id":22730921},"arcs":[74]},{"type":"MultiLineString","properties":{"source":"openstreetmap.org","kind":"major_road","sort_rank":381,"kind_detail":"trunk","ref":"M2","min_zoom":8.0},"arcs":[[75],[76],[77],[78],[79],[80],[81],[82],[83],[84],[85],[86],[87],[88],[89],[90],[91],[92],[93],[94],[95],[96],[97],[98],[99],[100],[101],[102]]},{"type":"LineString","properties":{"source":"openstreetmap.org","kind":"major_road","ref":"M1","sort_rank":381,"kind_detail":"trunk","is_bicycle_related":true,"min_zoom":8.0},"arcs":[103]},{"type":"LineString","properties":{"source":"openstreetmap.org","kind":"major_road","kind_detail":"trunk","sort_rank":381,"landuse_kind":"urban_area","ref":"M1;A10","min_zoom":8.0},"arcs":[104]},{"type":"MultiLineString","properties":{"source":"openstreetmap.org","kind":"major_road","sort_rank":380,"kind_detail":"primary","ref":"A3","min_zoom":8.0},"arcs":[[105],[106],[107],[108],[109],[110],[111],[112],[113],[114],[115],[116],[117],[118],[119],[120],[121]]},{"type":"LineString","properties":{"source":"openstreetmap.org","kind":"major_road","sort_rank":380,"kind_detail":"primary","ref":"B1;A7","min_zoom":8.0},"arcs":[122]},{"type":"MultiLineString","properties":{"source":"openstreetmap.org","kind":"major_road","landuse_kind":"residential","sort_rank":380,"kind_detail":"primary","ref":"A2","min_zoom":8.0},"arcs":[[123],[124],[125],[126]]},{"type":"MultiLineString","properties":{"kind":"major_road","sort_rank":381,"kind_detail":"trunk","is_bicycle_related":true,"source":"openstreetmap.org","min_zoom":8.0,"landuse_kind":"residential","ref":"M1"},"arcs":[[127],[128],[129],[130],[131],[132]]},{"type":"MultiLineString","properties":{"source":"openstreetmap.org","kind":"major_road","sort_rank":380,"kind_detail":"primary","ref":"B2","min_zoom":8.0},"arcs":[[133],[134],[135]]},{"type":"LineString","properties":{"kind":"major_road","sort_rank":381,"landuse_kind":"residential","source":"openstreetmap.org","min_zoom":8.0,"kind_detail":"trunk","ref":"M2","id":22762253},"arcs":[136]},{"type":"LineString","properties":{"source":"openstreetmap.org","kind":"highway","sort_rank":383,"kind_detail":"motorway","ref":"M3","min_zoom":8.0,"id":251501298},"arcs":[137]},{"type":"LineString","properties":{"kind":"major_road","sort_rank":381,"landuse_kind":"urban_area","source":"openstreetmap.org","min_zoom":8.0,"kind_detail":"trunk","ref":"M1 - Northbound","id":126243881},"arcs":[138]},{"type":"LineString","properties":{"source":"openstreetmap.org","kind":"major_road","sort_rank":381,"kind_detail":"trunk","ref":"M2;A4","min_zoom":8.0,"id":205188692},"arcs":[139]},{"type":"MultiLineString","properties":{"source":"openstreetmap.org","kind":"major_road","sort_rank":380,"kind_detail":"primary","ref":"A7","min_zoom":8.0},"arcs":[[140],[141],[142],[143],[144],[145],[146],[147],[148],[149],[150],[151],[152],[153],[154],[155]]},{"type":"MultiLineString","properties":{"source":"openstreetmap.org","kind":"major_road","sort_rank":380,"kind_detail":"primary","ref":"A2","min_zoom":8.0},"arcs":[[156],[157],[158],[159],[160],[161]]},{"type":"MultiLineString","properties":{"source":"openstreetmap.org","kind":"major_road","landuse_kind":"urban_area","sort_rank":380,"kind_detail":"primary","ref":"A1","min_zoom":8.0},"arcs":[[162],[163],[164],[165],[166]]},{"type":"LineString","properties":{"kind":"major_road","sort_rank":380,"kind_detail":"primary","source":"openstreetmap.org","min_zoom":8.0,"old_name":"Vandermeerch Street","landuse_kind":"residential","id":22946638},"arcs":[167]},{"type":"MultiLineString","properties":{"source":"openstreetmap.org","kind":"major_road","landuse_kind":"urban_area","sort_rank":380,"kind_detail":"primary","min_zoom":8.0},"arcs":[[168],[169],[170],[171],[172],[173],[174],[175],[176],[177],[178]]},{"type":"MultiLineString","properties":{"source":"openstreetmap.org","kind":"major_road","kind_detail":"trunk","sort_rank":381,"landuse_kind":"urban_area","min_zoom":8.0},"arcs":[[179],[180],[181],[182],[183],[184],[185],[186]]},{"type":"LineString","properties":{"kind":"major_road","name:en":"royal road souillac","sort_rank":380,"kind_detail":"primary","source":"openstreetmap.org","min_zoom":8.0,"ref":"A9","id":22953214},"arcs":[187]},{"type":"LineString","properties":{"source":"openstreetmap.org","kind":"major_road","sort_rank":380,"kind_detail":"primary","ref":"A 4","min_zoom":8.0,"id":97536025},"arcs":[188]},{"type":"MultiLineString","properties":{"source":"openstreetmap.org","kind":"major_road","sort_rank":380,"kind_detail":"primary","ref":"A5","min_zoom":8.0},"arcs":[[189],[190],[191],[192],[193],[194],[195],[196],[197],[198],[199],[200]]},{"type":"MultiLineString","properties":{"source":"openstreetmap.org","kind":"major_road","landuse_kind":"residential","sort_rank":380,"kind_detail":"primary","ref":"A1","min_zoom":8.0},"arcs":[[201],[202],[203],[204],[205],[206],[207],[208],[209],[210],[211],[212],[213],[214]]},{"type":"LineString","properties":{"kind":"major_road","sort_rank":381,"landuse_kind":"residential","source":"openstreetmap.org","min_zoom":8.0,"kind_detail":"trunk","ref":"M2;B33","id":205108023},"arcs":[215]},{"type":"MultiLineString","properties":{"source":"openstreetmap.org","kind":"major_road","landuse_kind":"residential","sort_rank":381,"kind_detail":"trunk","ref":"M1","min_zoom":8.0},"arcs":[[216],[217]]},{"type":"MultiLineString","properties":{"source":"openstreetmap.org","kind":"major_road","landuse_kind":"urban_area","sort_rank":380,"kind_detail":"primary","ref":"A10","min_zoom":8.0},"arcs":[[218],[219],[220]]},{"type":"LineString","properties":{"source":"openstreetmap.org","kind":"major_road","landuse_kind":"urban_area","sort_rank":380,"kind_detail":"primary","ref":"A3","min_zoom":8.0},"arcs":[221]},{"type":"MultiLineString","properties":{"kind":"major_road","sort_rank":381,"kind_detail":"trunk","is_bicycle_related":true,"source":"openstreetmap.org","min_zoom":8.0,"landuse_kind":"residential","ref":"M2"},"arcs":[[222],[223]]},{"type":"MultiLineString","properties":{"source":"openstreetmap.org","kind":"major_road","sort_rank":380,"kind_detail":"primary","ref":"A10","min_zoom":8.0},"arcs":[[224],[225],[226],[227],[228],[229],[230]]},{"type":"LineString","properties":{"kind":"major_road","sort_rank":381,"landuse_kind":"urban_area","source":"openstreetmap.org","min_zoom":8.0,"kind_detail":"trunk","ref":"M1;B29","id":22730963},"arcs":[231]},{"type":"MultiLineString","properties":{"source":"openstreetmap.org","kind":"major_road","kind_detail":"trunk","sort_rank":381,"landuse_kind":"urban_area","ref":"M2","min_zoom":8.0},"arcs":[[232],[233],[234],[235],[236],[237],[238],[239],[240],[241],[242],[243],[244],[245]]},{"type":"LineString","properties":{"source":"openstreetmap.org","kind":"major_road","ref":"A7","sort_rank":380,"kind_detail":"primary","is_bicycle_related":true,"min_zoom":8.0},"arcs":[246]},{"type":"MultiLineString","properties":{"kind":"major_road","sort_rank":381,"landuse_kind":"urban_area","is_bicycle_related":true,"source":"openstreetmap.org","min_zoom":8.0,"kind_detail":"trunk","ref":"M1"},"arcs":[[247],[248],[249]]},{"type":"MultiLineString","properties":{"source":"openstreetmap.org","kind":"major_road","sort_rank":381,"kind_detail":"trunk","ref":"M1","min_zoom":8.0},"arcs":[[250],[251],[252],[253],[254],[255],[256],[257],[258],[259],[260],[261],[262],[263],[264],[265],[266]]},{"type":"MultiLineString","properties":{"kind":"major_road","sort_rank":381,"landuse_kind":"urban_area","is_bicycle_related":true,"source":"openstreetmap.org","min_zoom":8.0,"kind_detail":"trunk","ref":"M2"},"arcs":[[267],[268]]},{"type":"MultiLineString","properties":{"source":"openstreetmap.org","kind":"major_road","sort_rank":380,"kind_detail":"primary","ref":"A9","min_zoom":8.0},"arcs":[[269],[270],[271]]},{"type":"MultiLineString","properties":{"source":"openstreetmap.org","kind":"major_road","sort_rank":381,"kind_detail":"trunk","ref":"M3","min_zoom":8.0},"arcs":[[272],[273],[274],[275],[276],[277],[278],[279],[280],[281],[282],[283],[284],[285],[286],[287],[288],[289],[290],[291],[292],[293],[294],[295],[296],[297]]},{"type":"MultiLineString","properties":{"source":"openstreetmap.org","kind":"major_road","landuse_kind":"residential","sort_rank":380,"kind_detail":"primary","min_zoom":8.0},"arcs":[[298],[299],[300],[301],[302],[303],[304],[305],[306],[307],[308],[309],[310],[311],[312],[313]]},{"type":"LineString","properties":{"source":"openstreetmap.org","kind":"major_road","sort_rank":380,"kind_detail":"primary","ref":"A6","min_zoom":8.0},"arcs":[314]},{"type":"LineString","properties":{"kind":"major_road","sort_rank":381,"landuse_kind":"urban_area","source":"openstreetmap.org","min_zoom":8.0,"kind_detail":"trunk","ref":"M2;B33","id":205108023},"arcs":[315]},{"type":"MultiLineString","properties":{"source":"openstreetmap.org","kind":"major_road","sort_rank":380,"kind_detail":"primary","ref":"A4","min_zoom":8.0},"arcs":[[316],[317],[318],[319],[320],[321],[322],[323],[324]]},{"type":"LineString","properties":{"kind":"major_road","sort_rank":381,"landuse_kind":"urban_area","source":"openstreetmap.org","min_zoom":8.0,"kind_detail":"trunk","ref":"M1 - Sounthbound","id":69020983},"arcs":[325]},{"type":"LineString","properties":{"source":"openstreetmap.org","kind":"major_road","sort_rank":381,"kind_detail":"trunk","ref":"M1;B79","min_zoom":8.0,"id":69020992},"arcs":[326]},{"type":"MultiLineString","properties":{"source":"openstreetmap.org","kind":"major_road","kind_detail":"trunk","sort_rank":381,"landuse_kind":"urban_area","ref":"M3","min_zoom":8.0},"arcs":[[327],[328],[329],[330],[331]]},{"type":"LineString","properties":{"kind":"major_road","sort_rank":381,"landuse_kind":"urban_area","source":"openstreetmap.org","min_zoom":8.0,"kind_detail":"trunk","ref":"M1;B71","id":22730935},"arcs":[332]},{"type":"MultiLineString","properties":{"source":"openstreetmap.org","kind":"major_road","kind_detail":"trunk","sort_rank":381,"landuse_kind":"urban_area","ref":"M1","min_zoom":8.0},"arcs":[[333],[334],[335],[336],[337],[338],[339],[340],[341],[342],[343],[344],[345],[346],[347],[348],[349],[350],[351],[352],[353],[354],[355],[356],[357]]},{"type":"LineString","properties":{"source":"openstreetmap.org","kind":"major_road","sort_rank":381,"kind_detail":"trunk","ref":"M1;B6","min_zoom":8.0,"id":385825415},"arcs":[358]}]},"earth":{"type":"GeometryCollection","geometries":[{"type":"Polygon","properties":{"sort_rank":10,"source":"naturalearthdata.com","kind":"earth","min_zoom":0.0,"id":1146},"arcs":[[359]]}]},"landuse":{"type":"GeometryCollection","geometries":[{"type":"MultiPolygon","properties":{"source":"openstreetmap.org","kind":"residential","tier":2,"area":27882920,"sort_rank":20,"min_zoom":8.0},"arcs":[[[360]],[[361]]]},{"type":"MultiPolygon","properties":{"source":"naturalearthdata.com","kind":"urban_area","name":"","area":212105983,"sort_rank":11,"min_zoom":4.0},"arcs":[[[362]],[[363]]]},{"type":"Polygon","properties":{"kind":"park","natural":"wood","area":146194000,"sort_rank":24,"source":"openstreetmap.org","min_zoom":7.0,"tier":2,"id":-7419511,"osm_relation":true},"arcs":[[364],[365]]}]}},"type":"Topology","transform":{"translate":[56.25,-20.6327842504],"scale":[0.0003433228,0.0003226662]},"arcs":[[[0,0],[0,4096],[4096,0],[0,-2107],[-97,29],[-46,7],[-31,-10],[-17,-22],[-13,-22],[-17,-10],[-39,-3],[-20,-9],[-81,-65],[-12,-19],[-18,-33],[-36,-111],[-44,-81],[-2,-58],[-9,-57],[-50,-52],[-28,-13],[-63,-18],[-28,-13],[-65,-54],[-6,-10],[-24,-26],[-66,-131],[-20,-54],[-13,-94],[-3,-171],[-24,-76],[32,-18],[3,-31],[-15,-87],[-17,-41],[-40,-7],[-72,15],[-47,-18],[13,-42],[37,-43],[168,-151],[61,28],[81,-9],[136,-44],[87,-7],[247,39],[198,63],[0,-460],[-4096,0]],[[4096,1989],[-97,29],[-46,7],[-31,-10],[-17,-22],[-13,-22],[-17,-10],[-39,-3],[-20,-9],[-81,-65],[-12,-19],[-18,-33],[-36,-111],[-44,-81],[-2,-58],[-9,-57],[-50,-52],[-28,-13],[-63,-18],[-28,-13],[-65,-54],[-6,-10],[-24,-26],[-66,-131],[-20,-54],[-13,-94],[-3,-171],[-24,-76],[32,-18],[3,-31],[-15,-87],[-17,-41],[-40,-7],[-72,15],[-47,-18],[13,-42],[37,-43],[168,-151],[61,28],[81,-9],[136,-44],[87,-7],[247,39],[198,63]],[[3361,1088],[3,18]],[[3477,1058],[0,1]],[[3480,1058],[-2,0]],[[3478,1058],[2,0]],[[3480,1058],[42,5]],[[3523,1062],[-1,1]],[[3522,1063],[2,-1]],[[3526,1061],[-2,0]],[[3525,1062],[1,-1]],[[3526,1061],[22,5]],[[3592,1420],[-6,-13]],[[3623,1188],[1,0]],[[3627,1186],[-3,2]],[[3624,1188],[3,-1]],[[3737,1567],[-3,2]],[[3735,1570],[2,-3]],[[3786,1710],[-16,-25]],[[3787,1710],[-1,0]],[[3786,1710]],[[3787,1711],[1,1]],[[3788,1712],[0,-1]],[[3788,1712],[25,59]],[[3809,1830],[1,-1]],[[3811,1828],[-1,1]],[[3810,1829],[1,-1]],[[3811,1828],[15,-7]],[[3814,1773],[-1,-2]],[[3813,1771],[0,2]],[[3814,1774],[1,1]],[[3815,1775],[0,-1]],[[3815,1775],[13,43]],[[3827,1820],[-1,1]],[[3826,1821],[2,-1]],[[3828,1818],[0,1]],[[3828,1819],[0,-1]],[[3903,1200],[-2,2]],[[3904,1201],[1,1]],[[3904,1200],[41,0]],[[3946,1198],[-1,2]],[[3945,1200],[2,-1]],[[3949,1195],[-3,2]],[[3958,1188],[138,28]],[[3970,1798],[1,0]],[[3478,1059],[0,-1]],[[3478,1058],[-1,0]],[[3477,1058],[0,1],[1,0]],[[3524,1062],[1,0],[-1,-1],[0,1]],[[3786,1710],[1,1],[1,0]],[[3788,1711],[0,-1],[-2,0]],[[3814,1773],[-1,1],[1,0],[1,-1],[-1,0]],[[3827,1820],[1,0],[0,-1],[-1,0],[0,1]],[[3904,1201],[0,-1],[-1,-1],[0,1],[1,1]],[[4054,1863],[1,-1],[-1,0],[0,1]],[[3778,1598],[1,1]],[[3779,1599],[0,-2]],[[3782,1607],[-2,-5]],[[3781,1606],[0,1]],[[4094,599],[-8,5]],[[4087,605],[8,-5]],[[4096,598],[-1,0]],[[4095,600],[1,0]],[[3780,1576],[1,-1],[-1,-1],[-1,1],[1,1]],[[4094,599],[1,1]],[[4095,600],[1,-2],[-2,0],[0,1]],[[3893,723],[0,-1]],[[3644,1102],[-1,-1]],[[3554,1395],[4,22]],[[3745,929],[80,-111]],[[3825,818],[2,-1]],[[3827,817],[26,-33]],[[3854,785],[0,-2],[-1,0],[0,1],[1,1]],[[3860,1644],[1,0],[0,-1],[-1,0],[0,1]],[[3893,722],[0,1]],[[3724,1560],[9,9]],[[3734,1569],[-9,-9]],[[3734,1571],[33,32],[46,11]],[[3814,1614],[-79,-44]],[[3814,1615],[46,28]],[[3860,1643],[-46,-28]],[[3861,1644],[14,-1]],[[3875,1642],[-14,1]],[[3906,1856],[-36,29]],[[3871,1886],[35,-29]],[[3946,1718],[-69,-76]],[[3877,1643],[68,75]],[[3969,1798],[-62,57]],[[3907,1856],[63,-58]],[[3946,1719],[17,24]],[[3964,1743],[-17,-24]],[[3964,1744],[5,53]],[[3970,1797],[-6,-53]],[[3970,1798],[1,-1],[-2,0]],[[3969,1797],[0,1],[1,0]],[[3813,1614],[1,1]],[[3814,1615],[0,-1],[-1,0]],[[3876,1643],[1,-1],[-2,0],[0,1],[1,0]],[[3906,1856],[0,1],[1,0],[0,-2],[-1,1]],[[3946,1719],[1,-1],[-1,0],[-1,1],[1,0]],[[3964,1743],[-1,0]],[[3963,1743],[0,1],[1,0]],[[3964,1744],[0,-1]],[[3597,1423],[3,-139]],[[3645,1103],[0,-1],[-2,0],[0,1],[2,0]],[[3301,943],[-47,-17],[-7,-57],[44,-37]],[[3302,943],[-1,0]],[[3301,943],[1,1]],[[3303,944],[1,0]],[[3304,944],[-1,-1]],[[3361,984],[-57,-40]],[[3362,985],[-1,-1]],[[3361,984],[1,1]],[[3365,1108],[-3,-122]],[[3362,985],[0,1]],[[3362,986],[0,-1]],[[3366,1117],[-1,-9]],[[3431,1262],[-65,-145]],[[3436,1269],[-5,-7]],[[3436,1269],[72,98]],[[3302,944],[1,0],[0,-1],[-1,0],[0,1]],[[3362,985]],[[3642,1244],[3,1],[-1,-3],[-1,0],[-1,2]],[[3709,1507],[0,1]],[[3709,1508],[0,-1]],[[3709,1508],[20,50]],[[3709,1507],[0,-1],[-1,1],[1,0]],[[3635,1458],[-5,-2]],[[3630,1456],[-5,-3],[-18,-1],[-4,-12]],[[3608,1453],[17,1],[5,2]],[[3630,1456],[5,2]],[[3640,1460],[2,0]],[[3644,1462],[-3,-2]],[[3368,1099],[-5,1]],[[3363,1100],[5,-1]],[[3475,1059],[-107,40]],[[3706,1551],[-2,-2]],[[3811,1266],[-1,0],[-1,1],[2,0],[0,-1]],[[3609,1157],[0,1]],[[3735,1570],[0,-1],[-2,0],[1,1],[1,0]],[[3645,1245],[2,0]],[[3647,1245],[-1,-2]],[[3647,1245],[14,15]],[[3661,1260]],[[3661,1260]],[[3662,1261],[0,-1]],[[3662,1261]],[[3662,1261],[66,7]],[[3730,1268],[-2,0]],[[3728,1268],[1,0]],[[3730,1269],[1,0],[-1,-1]],[[3901,1202],[2,-1]],[[3947,1197],[11,-9]],[[3661,1261],[1,-1],[-1,0],[0,1]],[[3730,1268],[-1,0],[1,1],[0,-1]],[[3947,1197],[-1,0],[0,2],[1,-1],[0,-1]],[[3729,1558],[49,16]],[[3779,1575],[-1,-1]],[[3778,1574],[1,1]],[[3781,1576]],[[3781,1576],[0,-1]],[[3781,1576],[82,42],[84,-18],[14,-56],[109,-63],[26,-49]],[[3550,1314],[4,81]],[[3558,1417],[30,18]],[[3592,1185],[13,-19]],[[3607,1165],[-2,1]],[[3605,1166],[2,-1]],[[3571,1217],[-23,40]],[[3548,1066],[24,6]],[[3553,1394],[1,1]],[[3572,1072],[1,0]],[[3573,1071],[-1,1]],[[3601,1440],[-9,-20]],[[3595,1217],[15,-21]],[[3610,1195],[-10,16]],[[3619,1191],[-8,4]],[[3611,1196],[8,-5]],[[3623,1188],[-4,3]],[[3611,1196],[0,-1],[-1,0],[0,1],[1,0]],[[3656,1101],[-4,-4]],[[3709,1156],[-53,-55]],[[3656,1101],[52,55]],[[4086,604],[-38,15]],[[4051,621],[5,2]],[[4057,623],[-8,-3],[38,-15]],[[4066,618],[-8,2]],[[4057,623],[1,-1],[-1,-2],[-2,2],[2,1]],[[3701,359],[24,-2]],[[3827,1848],[-17,-17]],[[4005,1858],[-34,-59]],[[4006,1859],[-1,-1]],[[4005,1858],[0,1]],[[4006,1860]],[[4006,1860]],[[4053,1864],[-28,21],[-19,-25]],[[4053,1863],[0,1]],[[4053,1864],[1,-1]],[[4055,1862],[-1,0]],[[4055,1863],[0,-1]],[[4096,1831],[-41,31]],[[4005,1859],[0,1],[1,0],[0,-1],[-1,0]],[[3547,1257],[0,1]],[[3547,1256],[0,1]],[[3547,1257],[0,-1]],[[3547,1256],[23,-49]],[[3547,1258],[3,56]],[[3547,1258],[0,-1]],[[3570,1207]],[[3570,1207]],[[3571,1206],[0,1]],[[3571,1207],[0,-1]],[[3571,1206],[21,-21]],[[3588,1435],[57,26]],[[3547,1257],[1,0],[-1,1],[0,-1]],[[3571,1208],[0,-1],[-1,0],[1,1]],[[3706,1551]],[[3597,1438],[11,15]],[[3642,1460],[2,2]],[[3643,1103],[51,-52],[47,-117]],[[4023,649],[-137,109]],[[4096,634],[-11,2]],[[3508,1367],[46,28]],[[3644,1462],[13,21]],[[3657,1484],[0,-6],[-1,-3],[-12,-13]],[[3741,934],[4,-5]],[[3855,783],[-1,0]],[[3855,784],[0,-1]],[[3886,758],[-31,25]],[[4083,639],[-60,10]],[[4085,636],[-2,2]],[[4082,638],[1,0],[-1,0]],[[3675,1519],[0,-1],[-1,0],[0,1],[1,0]],[[3657,1489],[5,12]],[[3663,1501],[-6,-12]],[[3663,1502],[10,17]],[[3675,1518],[-11,-17]],[[3674,1519],[2,7],[29,26]],[[3704,1549],[-29,-30]],[[3706,1551]],[[3706,1552],[15,6]],[[3722,1557],[-15,-6]],[[3722,1558],[2,2]],[[3725,1560],[-2,-2]],[[3657,1489],[1,0],[-1,-1],[-1,0],[1,1]],[[3663,1502],[1,-1],[-2,0],[0,1],[1,0]],[[3721,1558],[1,1],[1,-1],[-1,-1],[-1,1]],[[3731,1269],[170,-67]],[[3603,1440],[-6,-17]],[[3641,1460],[-6,-2]],[[3635,1458],[5,2]],[[3622,1191],[17,63],[-37,27],[-24,34],[10,104]],[[3600,1284],[39,-30],[-3,-37],[-14,-28]],[[3745,1034],[-3,4]],[[3742,1039],[4,-4]],[[3763,966],[-17,67]],[[3747,1033],[17,-66]],[[3853,785],[3,79],[-92,101]],[[3765,965],[91,-101],[-2,-79]],[[3892,722],[-39,61]],[[3854,783],[39,-60]],[[3980,634],[-75,76]],[[3909,707],[71,-72]],[[3995,631],[-13,3]],[[3982,635],[13,-3]],[[4077,634],[18,9]],[[4094,642],[-14,-7]],[[3765,966],[-1,-1],[-1,0],[1,2],[1,-1]],[[3657,1483],[0,5]],[[3658,1488],[-1,-4]],[[3725,357],[78,80],[33,131],[-11,249]],[[3825,817],[0,1]],[[3825,818],[0,-1]],[[3696,1161],[-67,24]],[[3629,1186],[68,-25]],[[3722,1161],[31,17]],[[3754,1178],[-32,-17]],[[3755,1180],[17,71],[37,15]],[[3810,1265],[-38,-14],[-5,-32],[-12,-40]],[[3780,1576],[-3,20]],[[3779,1596],[1,-7],[0,-13]],[[3779,1599],[2,7]],[[3780,1602],[-1,-3]],[[3788,1538],[-9,37]],[[3781,1575],[8,-37]],[[3788,1538],[1,0],[0,-1]],[[3789,1537],[-1,0],[0,1]],[[3840,1457],[-52,80]],[[3789,1537],[52,-80]],[[3810,1267],[40,70]],[[3851,1337],[-40,-70]],[[3850,1339],[-8,117]],[[3842,1457],[18,-48],[-9,-70]],[[3628,1187],[1,-1],[-1,-1],[-1,2],[1,0]],[[3755,1179],[0,-1],[-2,0]],[[3753,1178],[1,2],[1,-1]],[[3777,1596],[0,2],[2,-1],[-1,-1],[-1,0]],[[3842,1456],[-1,0],[-1,1],[1,1],[1,-2]],[[3850,1338],[1,1],[0,-1],[0,-1],[-1,1]],[[3548,1257],[-1,0]],[[3571,1208]],[[3571,1208],[0,-1]],[[3571,1208],[1,5]],[[3571,1216],[0,1],[1,-1]],[[3572,1213],[-1,2]],[[3572,1215],[0,-2]],[[3601,1440]],[[3602,1442],[-1,-2]],[[3601,1440],[1,2]],[[3648,1457],[-4,5]],[[3644,1462],[5,-4]],[[3662,1486],[-1,1]],[[3662,1487],[0,-1]],[[3662,1486],[17,3]],[[3571,1216],[1,0],[0,-1],[-1,1]],[[3951,1598],[78,64],[67,-30]],[[3706,1551]],[[3733,1570],[1,1]],[[3734,1571],[36,113]],[[3734,1571]],[[3827,1848],[41,36]],[[3870,1885],[-2,-1]],[[3868,1884],[1,1]],[[3770,1684],[-1,1],[1,0],[1,-1],[-1,0]],[[3809,1829],[0,1],[1,0],[0,-1],[-1,0]],[[3870,1887],[1,-1],[-1,-1],[-1,1],[1,1]],[[3611,1169],[-1,-2]],[[3982,633],[-2,0],[1,2],[1,0],[0,-2]],[[3708,1157],[-12,4]],[[3697,1161],[10,-3]],[[3709,1158],[13,3]],[[3722,1161],[-13,-4]],[[3709,1156],[-2,1],[1,1],[1,0],[0,-2]],[[3713,1073],[1,-1],[-1,-1],[-1,1],[1,1]],[[3588,1419],[9,19]],[[3609,1158],[0,9],[13,24]],[[3632,1112],[-23,45]],[[3610,1167],[23,-54]],[[3622,1189],[-11,-20]],[[3643,1103],[-9,8]],[[3634,1112],[10,-8]],[[3679,1083],[-35,19]],[[3645,1103],[34,-18]],[[3712,1072],[-31,11]],[[3681,1084],[32,-11]],[[3742,1038],[-29,33]],[[3714,1072],[28,-33]],[[3905,710],[-11,12]],[[3894,723],[15,-16]],[[3995,632],[54,-12]],[[4049,619],[-54,12]],[[4059,626],[18,8]],[[4080,635],[-21,-10]],[[4096,643],[-2,-1]],[[4095,643],[1,1]],[[3632,1112],[1,1],[1,-1],[0,-1]],[[3634,1111],[-2,1]],[[3680,1084],[1,-1]],[[3681,1083],[-2,0],[0,1],[1,0]],[[3747,1034],[-1,-1],[-1,1],[2,1],[0,-1]],[[4096,460],[-198,-63],[-247,-39],[-87,7],[-136,44],[-81,9],[-61,-28],[-168,151],[-37,43],[-13,42],[47,18],[72,-15],[40,7],[17,41],[15,87],[-3,31],[-32,18],[24,76],[3,171],[13,94],[20,54],[66,131],[24,26],[6,10],[65,54],[28,13],[63,18],[28,13],[50,52],[9,57],[2,58],[44,81],[36,111],[18,33],[12,19],[81,65],[20,9],[39,3],[17,10],[13,22],[17,22],[31,10],[46,-7],[97,-29],[0,-1529]],[[3491,1220],[39,90],[27,5],[21,-93],[41,-35],[-103,-8],[-25,41]],[[3575,1451],[64,7],[66,93],[68,21],[11,-30],[-45,7],[9,-60],[-46,-5],[6,-63],[-29,12],[8,-30],[-73,41],[-38,-13],[-1,20]],[[4096,644],[0,-30],[-5,-1],[-42,-76],[-2,-93],[-103,-33],[8,139],[53,65],[-33,53],[-78,49],[-10,50],[19,29],[65,-10],[65,-162],[57,13],[6,7]],[[3627,1178],[50,-38],[32,35],[33,-35],[0,-207],[-162,34],[-42,131],[-55,77],[-6,143],[6,29],[32,0],[-36,97],[85,29],[50,52],[9,69],[119,-40],[-39,-88],[-123,-51],[-13,-84],[60,-153]],[[3192,526],[107,145],[9,24],[-28,6],[55,18],[-41,26],[55,10],[-30,14],[-11,45],[39,13],[30,-23],[-6,54],[39,7],[-32,56],[167,-7],[4,-139],[-15,-68],[18,-20],[-35,-67],[52,-22],[-9,-32],[-87,-3],[-27,-68],[-73,-31],[-22,46],[-71,9],[-33,-52],[-55,59]],[[3499,778],[17,7],[0,-23],[26,23],[-21,15],[-22,-22]]]}