{"objects":{"water":{"type":"GeometryCollection","geometries":[]},"buildings":{"type":"GeometryCollection","geometries":[]},"places":{"type":"GeometryCollection","geometries":[{"type":"Point","properties":{"name:ka":"\u10d0\u10da\u10d4\u10de\u10dd","name:mr":"\u0939\u0932\u092c","name:ko":"\uc54c\ub808\ud3ec","name:kn":"\u0cb9\u0cb2\u0cac","name:cs":"Aleppo","name:tt":"\u0425\u04d9\u043b\u0435\u0431","name:tr":"Halep","name:ku":"Heleb","name:ml":"\u0d06\u0d32\u0d46\u0d2a\u0d4d\u0d2a\u0d4b","name:ru":"\u0410\u043b\u0435\u043f\u043f\u043e","id":32520143,"name:ca":"Alep","name:fi":"Aleppo","name:da":"Aleppo","name:de":"Aleppo","source":"openstreetmap.org","name:fr":"Alep","name:zh":"\u963f\u52d2\u9887","name:ja":"\u30a2\u30ec\u30c3\u30dd","name:lt":"Alepas","name:hi":"\u0939\u0932\u092c","name:he":"\u05d7\u05d0\u05dc\u05d1","name:uk":"\u0425\u0430\u043b\u0435\u0431","name:hy":"\u0540\u0561\u056c\u0565\u057a","name:sv":"Aleppo","name:hr":"Alep","population":2301000,"name:el":"\u03a7\u03b1\u03bb\u03ad\u03c0\u03b9","kind":"locality","name:en":"Aleppo","name":"\u062d\u0644\u0628","min_zoom":8.0,"kind_detail":"city","name:es":"Alepo"},"coordinates":[1751,2660]},{"type":"Point","properties":{"name:lt":"Idlibas","name:tr":"\u0130dlib","name:he":"\u05d0\u05d3\u05dc\u05d1","min_zoom":8.0,"alt_name:he":"\u05d0\u05d9\u05d3\u05dc\u05d9\u05d1","name:ru":"\u0418\u0434\u043b\u0438\u0431","name:hr":"Idlib","id":270488512,"population":157000,"kind":"locality","name:en":"Idlib","name":"\u0625\u062f\u0644\u0628","kind_detail":"city","name:ku":"\u00cedl\u00eeb","name:de":"Idlib","source":"openstreetmap.org","name:fr":"Idlib","name:zh":"\u4f0a\u5fb7\u5229\u535c"},"coordinates":[212,1683]},{"type":"Point","properties":{"kind":"locality","name":"Reyhanl\u0131","kind_detail":"town","name:ar":"\u0627\u0644\u0631\u064a\u062d\u0627\u0646\u064a\u0629","min_zoom":8.0,"source":"openstreetmap.org","name:ku":"Reyhan\u00ee","name:ru":"\u0420\u0435\u0439\u0445\u0430\u043d\u043b\u044b","id":186458189,"population":91974},"coordinates":[14,2908]},{"type":"Point","properties":{"int_name":"Manbij","name:tr":"Menbi\u00e7","name:cs":"Manbid\u017e","min_zoom":8.0,"old_name":"Mabbog;Hi\u00e9rapolis Bambyce","name:ru":"\u041c\u0430\u043d\u0431\u0438\u0434\u0436","id":248154948,"population":74575,"name:el":"\u039c\u03b5\u03bc\u03b2\u03af\u03c4\u03b6","kind":"locality","name:en":"Manbij","name":"\u0645\u0646\u0628\u062c","kind_detail":"city","name:ku":"Minbic","name:de":"Manbij","source":"openstreetmap.org","name:fr":"Manbij","name:zh":"\u66fc\u6bd4\u5b63"},"coordinates":[4059,3840]},{"type":"Point","properties":{"int_name":"Aazaz, Aaz\u00e2z, I`zaz, I`z\u0101z, A`z\u0101z","name:lt":"Azazas","name:tr":"Azez","min_zoom":8.0,"name:ru":"\u0410\u0430\u0437\u0430\u0437","id":571214021,"population":66138,"kind":"locality","name:en":"A`zaz","name":"\u0623\u0639\u0632\u0627\u0632","kind_detail":"town","name:ku":"Ezaz","name:de":"A`zaz","source":"openstreetmap.org","name:fr":"A`zaz","name:zh":"\u963f\u624e\u5179","name:es":"Azaz"},"coordinates":[1410,4055]},{"type":"Point","properties":{"kind":"locality","name:en":"Tall Rif`at","name":"\u062a\u0644 \u0631\u0641\u0639\u062a","kind_detail":"town","min_zoom":8.0,"name:de":"Tall Rif`at","source":"openstreetmap.org","name:ku":"Til Rifet","int_name":"Tell Arfad, Tell Refaat, Tell Rifaate, Tell Rifat, Tell Rifa\u00e2te, Tall Rif`at","name:fr":"Tall Rif`at","name:ru":"\u0422\u0435\u043b\u043b\u044c-\u0420\u0438\u0444\u044a\u0430\u0442","alt_name:ku":"Til Refet","id":571213541,"population":27086},"coordinates":[1552,3636]},{"type":"Point","properties":{"kind":"locality","name:en":"Zahraa","name":"\u0627\u0644\u0632\u0647\u0631\u0627\u0621","kind_detail":"town","min_zoom":8.0,"name:de":"Zahraa","source":"openstreetmap.org","name:fr":"Zahraa","name:ru":"\u0417\u0430\u0445\u0440\u0430","id":571209309,"population":25000},"coordinates":[1306,3241]},{"type":"Point","properties":{"kind":"locality","name:en":"Binnish","name":"\u0628\u0646\u0634","kind_detail":"town","min_zoom":8.0,"name:de":"Binnish","source":"openstreetmap.org","name:fr":"Binnish","int_name":"Binnesh, Binnich, Binnish","name:ru":"\u0411\u0438\u043d\u043d\u0438\u0448","id":567062886,"population":21848},"coordinates":[443,1786]},{"type":"Point","properties":{"kind":"locality","name:en":"Tell Aran","name":"\u062a\u0644 \u0639\u0631\u0646","kind_detail":"town","source":"openstreetmap.org","min_zoom":8.0,"int_name":"Tall Aran","name:ru":"\u0422\u0435\u043b\u043b\u044c-\u0410\u0440\u0430\u043d","id":3859475459,"population":17767},"coordinates":[2254,2378]},{"type":"Point","properties":{"kind":"locality","name:en":"Sarmin","name":"\u0633\u0631\u0645\u064a\u0646","kind_detail":"town","min_zoom":8.0,"name:de":"Sarmin","source":"openstreetmap.org","name:fr":"Sarmin","int_name":"Sarmine, Sarm\u00eene, Sermin, Serm\u012bn, Sarm\u012bn","name:ru":"\u0421\u0430\u0440\u043c\u0438\u043d","id":571193060,"population":14530},"coordinates":[475,1595]},{"type":"Point","properties":{"kind":"locality","name:en":"Ad Dana","name":"\u0627\u0644\u062f\u0627\u0646\u0627","kind_detail":"town","min_zoom":8.0,"name:de":"Ad Dana","source":"openstreetmap.org","name:fr":"Ad Dana","int_name":"Ad Danah, Ad D\u0101nah, Dana, D\u0101n\u0101, Ed Dana, Ed D\u00e2na, Ad D\u0101n\u0101","name:ru":"\u042d\u0434-\u0414\u0430\u043d\u0430","id":571210198,"population":14208},"coordinates":[606,2712]},{"type":"Point","properties":{"kind":"locality","name:en":"Dar Ta`izzah","name":"\u062f\u0627\u0631\u0629 \u0639\u0632\u0629","kind_detail":"town","name:ar":"\u062f\u0627\u0631 \u062a\u0639\u0632\u0629","min_zoom":8.0,"name:de":"Dar Ta`izzah","source":"openstreetmap.org","name:fr":"Dar Ta`izzah","int_name":"Dar Ja'zeh, Dar Ta`izah, Dar Taazze, Dar Ta\u00e2zze, Dar al `Izzah, Dar el `Izze, Darat `Izzah, Dart Azze, Dart Azz\u00e9, D\u0101r Ta`izah, D\u0101r al `Izzah, D\u0101r el `Izze, D\u0101rat `Izzah, D\u0101r Ta`izzah","name:ru":"\u0414\u0430\u0440-\u0422\u0430\u0430\u0437\u0437\u0430","id":571209713,"population":13525},"coordinates":[837,2963]},{"type":"Point","properties":{"kind":"locality","name:en":"Haritan;Harithan","name":"\u062d\u0631\u064a\u062a\u0627\u0646","kind_detail":"town","min_zoom":8.0,"name:de":"Harithan","source":"openstreetmap.org","name:fr":"Harithan","int_name":"Haratan, Hareitane, Hare\u00eftane, Haritan, Hraitane, Hra\u00eft\u00e2ne, \u1e28\u0101rat\u0101n, \u1e28\u0101rit\u0101n, \u1e28\u0101rith\u0101n,Hreitan","name:ru":"\u0425\u0440\u0430\u0439\u0442\u0430\u043d","id":3713918960,"population":12937},"coordinates":[1519,2979]},{"type":"Point","properties":{"kind":"locality","name:en":"Bza`a","name":"\u0628\u0632\u0627\u0639\u0627","kind_detail":"town","min_zoom":8.0,"name:de":"Bza`a","source":"openstreetmap.org","name:fr":"Bza`a","int_name":"Bizaa, Bza`ah, Bz\u0101`ah, Bz\u0101`\u0101","name:ru":"\u0411\u0438\u0437\u0430\u0430","id":573540147,"population":12718},"coordinates":[2932,3323]},{"type":"Point","properties":{"kind":"locality","name:en":"Kafr Rumah","name":"\u0643\u0641\u0631 \u0631\u0648\u0645\u0629","kind_detail":"town","min_zoom":8.0,"name:de":"Kafr Rumah","source":"openstreetmap.org","name:fr":"Kafr Rumah","int_name":"Kafer Rouma, Kafer Ro\u00fbma, Kafr Ruma, Kafr R\u016bm\u0101, Kafr R\u016bmah","name:ru":"\u041a\u0430\u0444\u0435\u0440-\u0420\u0443\u043c\u0430","id":572535550,"population":12276},"coordinates":[215,635]},{"type":"Point","properties":{"kind":"locality","name:en":"Qabasin","name":"\u0642\u0628\u0627\u0633\u064a\u0646","kind_detail":"town","min_zoom":8.0,"source":"openstreetmap.org","name:ku":"Qebas\u00een","int_name":"Qabasin","name:ru":"\u041a\u0443\u0431\u0431\u0430\u0441\u0438\u043d","alt_name:ku":"Qebas\u00een","id":3871242687,"population":11382},"coordinates":[2923,3503]},{"type":"Point","properties":{"kind":"locality","name:en":"Tall Manis","name":"\u062a\u0644 \u0645\u0646\u064a\u0633","kind_detail":"town","min_zoom":8.0,"name:de":"Tall Manis","source":"openstreetmap.org","name:fr":"Tall Manis","int_name":"Tall Minniss, Tall Minn\u012bss, Tell Menniss, Tell M\u00e9nniss, Tall Man\u012bs","name:ru":"\u0422\u0435\u043b\u043b\u044c-\u041c\u0435\u043d\u0438\u0441","id":572535668,"population":11359},"coordinates":[516,640]},{"type":"Point","properties":{"kind":"locality","name:en":"Sarmada","name":"\u0633\u0631\u0645\u062f\u0627","kind_detail":"town","min_zoom":8.0,"name:de":"Sarmada","source":"openstreetmap.org","name:fr":"Sarmada","int_name":"Sarmadah, Sermaba, Sarmad\u0101","name:ru":"\u0421\u0430\u0440\u043c\u0430\u0434\u0430","id":567062428,"population":11181},"coordinates":[459,2594]},{"type":"Point","properties":{"kind":"locality","name:en":"Jarjanaz","name":"\u062c\u0631\u062c\u0646\u0627\u0632","kind_detail":"town","min_zoom":8.0,"name:de":"Jarjanaz","source":"openstreetmap.org","name:fr":"Jarjanaz","name:ru":"\u0414\u0436\u0430\u0440\u0434\u0436\u0430\u043d\u0430\u0437","id":572540456,"population":10756},"coordinates":[650,566]},{"type":"Point","properties":{"kind":"locality","name:en":"Kafr Hamrah","name":"\u0643\u0641\u0631 \u062d\u0645\u0631\u0629","kind_detail":"town","source":"openstreetmap.org","min_zoom":8.0,"int_name":"Kafr Hamrah","name:ru":"\u041a\u0430\u0444\u0440-\u0425\u0430\u043c\u0440\u0430","id":3754806691,"population":10696},"coordinates":[1533,2863]},{"type":"Point","properties":{"kind":"locality","name:en":"Abu ad Duhur","name":"\u0623\u0628\u0648 \u0627\u0644\u0636\u0647\u0648\u0631","kind_detail":"town","min_zoom":8.0,"name:de":"Abu ad Duhur","source":"openstreetmap.org","name:fr":"Abu ad Duhur","int_name":"Abou ed Douhour, Abou ed Douho\u00fbr, Aboudouhour, Abu az Zuhur, Abu ed Duhur, Abu ed Duh\u016br, Abu edh Dhahur, Ab\u016b az\u0327 Z\u0327uh\u016br, Ab\u016b a\u1e11 \u1e10uh\u016br","name:ru":"\u0410\u0431\u0443-\u044d\u0434-\u0414\u0443\u0445\u0443\u0440","id":572541334,"population":10694},"coordinates":[1406,1003]},{"type":"Point","properties":{"kind":"locality","name:en":"Turmanin","name":"\u062a\u0631\u0645\u0627\u0646\u064a\u0646","kind_detail":"town","min_zoom":8.0,"name:de":"Turmanin","source":"openstreetmap.org","name:fr":"Turmanin","int_name":"Termanine, Terman\u00eene, Turm\u0101n\u012bn","name:ru":"\u0422\u0430\u0440\u043c\u0430\u043d\u0438\u043d","id":571210387,"population":10394},"coordinates":[732,2768]},{"type":"Point","properties":{"kind":"locality","name:en":"Foua","name":"\u0627\u0644\u0641\u0648\u0639\u0629","kind_detail":"town","min_zoom":8.0,"name:de":"Foua","source":"openstreetmap.org","name:fr":"Foua","int_name":"Fou'a, Fouaa, Foua\u00e2, Fu`ah, F\u016b`ah, F\u016b`\u0101, Foa, Al Foua, Al Fuah","name:ru":"\u0424\u0443\u0430\u0430","id":567062888,"population":10264},"coordinates":[412,1879]},{"type":"Point","properties":{"kind":"locality","name:en":"Shaykh al Hadid","name":"\u0634\u064a\u062e \u0627\u0644\u062d\u062f\u064a\u062f","kind_detail":"town","name:fr":"Shaykh al Hadid","name:de":"Shaykh al Hadid","source":"openstreetmap.org","name:ku":"\u015eiy\u00ea","int_name":"Cheikh el Hadid, Che\u00efkh el Had\u00eed, Sheikh el Hadid, Sheikh el Had\u012bd, Shaykh al \u1e28ad\u012bd","name:ru":"\u0428\u0435\u0439\u0445-\u044d\u043b\u044c-\u0425\u0430\u0434\u0438\u0434","min_zoom":8.0,"id":567062235,"population":5063},"coordinates":[110,3748]},{"type":"Point","properties":{"kind":"locality","name:en":"Dayr Hafir","name":"\u062f\u064a\u0631 \u062d\u0627\u0641\u0631","kind_detail":"town","source":"openstreetmap.org","min_zoom":8.0,"name:zh":"\u4ee3\u5c14\u54c8\u83f2\u5c14","id":3859475457,"population":35},"coordinates":[3324,2506]}]},"transit":{"type":"GeometryCollection","geometries":[]},"pois":{"type":"GeometryCollection","geometries":[{"type":"Point","properties":{"kind":"military","name":"Jirah Air Base","area":11984400,"source":"openstreetmap.org","min_zoom":8.0,"tier":3,"name:ru":"\u0430\u0432\u0438\u0430\u0431\u0430\u0437\u0430 \u0414\u0436\u0438\u0440\u0430","id":144001600},"coordinates":[4015,2290]},{"type":"Point","properties":{"source":"openstreetmap.org","kind":"military","name":"\u0645\u0637\u0627\u0631 \u0643\u0648\u064a\u0631\u0633","area":11549300,"tier":3,"min_zoom":8.0,"id":341346743},"coordinates":[2971,2623]},{"type":"Point","properties":{"source":"openstreetmap.org","kind":"military","name":"ICARDA","area":14347600,"tier":3,"min_zoom":8.0,"id":377863698},"coordinates":[1109,1986]}]},"boundaries":{"type":"GeometryCollection","geometries":[{"type":"MultiLineString","properties":{"name:right:yo":"T\u00fark\u00ec","name:right:yi":"\u05d8\u05e2\u05e8\u05e7\u05d9\u05d9","name:left:la":"Syria","name:right:qu":"Turkiya","name:left:li":"Syri\u00eb","name:left:vi":"Syria","name:left:sw":"Syria","name:left:ka":"\u10e1\u10d8\u10e0\u10d8\u10d0","name:left:kl":"Syria","name:left:ko":"\uc2dc\ub9ac\uc544","name:left:kn":"\u0cb8\u0cbf\u0cb0\u0cbf\u0caf\u0cbe","name:left:ki":"Syria","name:right:rw":"Turukiya","name:left:kk":"\u0421\u0438\u0440\u0438\u044f","name:right:ru":"\u0422\u0443\u0440\u0446\u0438\u044f","name:left:ku":"S\u00fbr\u00ee","name:left:kw":"Syri","name:left:kv":"\u0421\u0438\u0440\u0438\u044f","name:right:rn":"Turukiya","name:left:rw":"Siriya","name:left:ru":"\u0421\u0438\u0440\u0438\u044f","name:right:ie":"Turcia","name:right:id":"Turki","name:left:ky":"\u0421\u0438\u0440\u0438\u044f","name:right:ia":"Turchia","name:right:bi":"Turkey","name:right:bn":"\u09a4\u09c1\u09b0\u09b8","name:right:bo":"\u0f4f\u0f74\u0f62\u0f0b\u0f40\u0f72\u0f0d","name:left:sl":"Sirija","name:right:ba":"\u0422\u04e9\u0440\u043a\u0438\u04d9","name:right:bg":"\u0422\u0443\u0440\u0446\u0438\u044f","name:right:be":"\u0422\u0443\u0440\u0446\u044b\u044f","name:right:br":"Turkia","name:right:bs":"Turska","name:right:nn":"Tyrkia","name:right:no":"Tyrkia","name:right:nl":"Turkije","name:right:wa":"Tourkeye","name:left:lv":"S\u012brija","name:right:wo":"Tirki","name:right:ne":"\u091f\u0930\u094d\u0915\u0940","name:right:na":"Terki","name:right:ps":"\u062a\u0648\u0631\u06a9\u064a\u0647","name:right:nv":"T\u02bc\u00f3ok Bik\u00e9yah","name:left:mg":"Siria","kind_detail":"2","name:left:tr":"Suriye","name:right:gu":"\u0aa4\u0ac1\u0ab0\u0acd\u0a95\u0ab8\u0acd\u0aa4\u0abe\u0aa8","name:right:gv":"Yn Turkee","name:right:pt":"Turquia","name:left:mk":"\u0421\u0438\u0440\u0438\u0458\u0430","name:left:mi":"Hiria","name:left:tt":"\u0421\u04af\u0440\u0438\u044f","name:left:mn":"\u0421\u0438\u0440\u0438","name:left:ml":"\u0d38\u0d3f\u0d31\u0d3f\u0d2f","name:left:th":"\u0e1b\u0e23\u0e30\u0e40\u0e17\u0e28\u0e0b\u0e35\u0e40\u0e23\u0e35\u0e22","name:right:pa":"\u0a24\u0a41\u0a30\u0a15\u0a40","name:left:tk":"Siri\u00fda","name:left:tl":"Sirya","name:right:gl":"Turqu\u00eda","name:left:my":"\u1006\u102e\u1038\u101b\u102e\u1038\u101a\u102c\u1038\u1014\u102d\u102f\u1004\u103a\u1004\u1036","name:right:gn":"Tuykia","name:right:pl":"Turcja","name:left:te":"\u0c38\u0c3f\u0c30\u0c3f\u0c2f\u0c3e","name:left:tg":"\u0421\u0443\u0440\u0438\u044f","name:left:ms":"Syria","name:left:mr":"\u0938\u0940\u0930\u093f\u092f\u093e","name:left:da":"Syrien","name:left:de":"Syrien","name:right:ga":"An Tuirc","name:left:dv":"\u0790\u07ab\u0783\u07a8\u0794\u07a7","name:right:lg":"Buturuki","name:right:ug":"\u062a\u06c8\u0631\u0643\u0649\u064a\u06d5 \u062c\u06c7\u0645\u06be\u06c7\u0631\u0649\u064a\u0649\u062a\u0649","name:left:hi":"\u0938\u0940\u0930\u093f\u092f\u093e","name:right:lb":"Tierkei","name:right:uk":"\u0422\u0443\u0440\u0435\u0447\u0447\u0438\u043d\u0430","name:left:ca":"Rep\u00fablica \u00c0rab Siriana","name:right:ln":"Turk\u00ed","name:right:li":"Turkije","name:right:lt":"Turkija","name:right:ur":"\u062a\u0631\u06a9\u06cc","name:right:lv":"Turcija","name:left:hy":"\u054d\u056b\u0580\u056b\u0561","name:left:ta":"\u0b9a\u0bbf\u0bb0\u0bbf\u0baf\u0bbe","name:left:ht":"Siri","name:left:hu":"Sz\u00edria","name:left:hr":"Sirija","source":"openstreetmap.org","sort_rank":262,"name:right:gd":"An Tuirc","name:right:os":"\u0422\u0443\u0440\u043a","name:right:es":"Turqu\u00eda","name:right:sr":"\u0422\u0443\u0440\u0441\u043a\u0430","name:right:eu":"Turkia","name:right:et":"T\u00fcrgi","name:left:os":"\u0421\u0438\u0440\u0438","name:left:or":"\u0b38\u0b3f\u0b30\u0b3f\u0b06","name:right:ee":"Turkey","name:left:vo":"S\u00fcriy\u00e4n","name:left:oc":"Siria","name:right:eo":"Turkujo","name:right:en":"Turkey","name:right:el":"\u03a4\u03bf\u03c5\u03c1\u03ba\u03af\u03b1","name:right:tt":"\u0422\u04e9\u0440\u043a\u0438\u044f","name:left:fa":"\u0633\u0648\u0631\u06cc\u0647","name:left:fo":"S\u00fdria","name:right:sk":"Turecko","name:left:fi":"Syyria","name:left:fr":"Syrie","name:left:cs":"S\u00fdrie","name:left:fy":"Syrje","name:right:ja":"\u30c8\u30eb\u30b3","name:right:sq":"Turqia","name:right:ss":"IThekhi","name:left:ja":"\u30b7\u30ea\u30a2","name:right:su":"Turki","name:right:sw":"Uturuki","name:right:sv":"Turkiet","name:right:si":"\u0dad\u0dd4\u0dbb\u0dca\u0d9a\u0dd2\u0dba","name:right:sh":"Turska","name:left:qu":"Sirya","name:right:jv":"Turki","name:right:sl":"Tur\u010dija","name:right:so":"Turki","name:right:sa":"\u0924\u0941\u0930\u094d\u0915\u0940","name:right:sc":"Turkia","name:left:jv":"Suriah","id":-184840,"name:right:ca":"Turquia","name:right:se":"Durka","name:right:ce":"\u0422\u0443\u0440\u0446\u0438","name:right:cy":"Twrci","name:right:zh-yue":"\u571f\u8033\u5176","name:right:cs":"Turecko","name:right:cr":"\u1450\u1552\u146d","name:right:cu":"\u0422\u0477\u0440\u0446\u0438","alt_name:right:ar":"\u062a\u0631\u0643\u064a\u0627","name:right:cv":"\u0422\u0443\u0440\u0446\u0438","name:left:av":"\u0421\u0438\u0440\u0438\u044f","name:right:it":"Turchia","name:right:is":"Tyrkland","name:left:az":"Suriya","name:left:ro":"Siria","name:left:af":"Siri\u00eb","name:left:an":"Siria","name:left:am":"\u1236\u122d\u12eb","name:right:io":"Turkia","name:left:zh-yue":"\u6558\u5229\u4e9e","name:right:ik":"Turkey","name:right:ro":"Turcia","name:right:hy":"\u0539\u0578\u0582\u0580\u0584\u056b\u0561","name:left:lb":"Syrien","name:left:su":"Suriah","int_name:left":"Syria","name:right:hr":"Turska","name:left:sv":"Syrien","name:left:sq":"Siria","name:right:hu":"T\u00f6r\u00f6korsz\u00e1g","name:left:ln":"Sir\u00ed","name:left:sr":"\u0421\u0438\u0440\u0438\u0458\u0430","name:right:hi":"\u0924\u0941\u0930\u094d\u0915\u0940","name:left:so":"Suuriya","name:left:lt":"Sirija","name:left:sh":"Sirija","name:left:sk":"S\u00fdria","name:left:se":"Syria","name:right:ha":"Turkiyya","name:left:sa":"\u0938\u093f\u0930\u093f\u092f\u093e","name:right:he":"\u05d8\u05d5\u05e8\u05e7\u05d9\u05d4","name:left:sc":"Siria","name:right:la":"Turcia","name:right:af":"Turkye","name:right:ab":"\u04ac\u044b\u0440\u049b\u04d9\u0442\u04d9\u044b\u043b\u0430","name:left:ce":"\u0421\u0438\u0440\u0438","name:right:an":"Turqu\u00eda","name:right:am":"\u1271\u122d\u12ad","name:right:ak":"Turki","name:right:av":"\u0422\u0443\u0440\u043a\u0438\u044f","name:left:cy":"Syria","name:right:ar":"\u062a\u0631\u0643\u064a\u0627","name:left:he":"\u05e1\u05d5\u05e8\u05d9\u05d4","name:left:cu":"\u0421\u0477\u0440\u0457\ua657","name:left:cv":"\u0421\u0438\u0440\u0438","name:right:az":"T\u00fcrkiy\u0259","name:right:ay":"Turkiya","name:right:rm":"Tirchia","name":"\u0633\u0648\u0631\u064a\u0627 - T\u00fcrkiye","name:right:zu":"ITheki","name:left:zh":"\u53d9\u5229\u4e9a","name:right:za":"Dujwjgiz","name:right:zh":"\u571f\u8033\u5176","name:left:uz":"Suriya","name:right:fr":"Turquie","name:left:nv":"S\u00ed\u00edwiya","name:left:ur":"\u0634\u0627\u0645","id:right":-174737,"name:left:uk":"\u0421\u0438\u0440\u0456\u044f","name:left:no":"Syria","name:left:nl":"Syri\u00eb","alt_name:right:eo":"Turkio","name:right:fa":"\u062a\u0631\u06a9\u06cc\u0647","name:right:fo":"Turkaland","name:left:ne":"\u0938\u0940\u0930\u093f\u092f\u093e","name:left:ug":"\u0633\u06c7\u0631\u0649\u064a\u06d5","name:left:na":"Syria","name:left:eo":"Sirio","name:left:en":"Syria","name:left:el":"\u03a3\u03c5\u03c1\u03af\u03b1","name:left:pl":"Syria","name:left:es":"Siria","name:left:ss":"ISiriya","name:left:ie":"Siria","name:left:eu":"Siria","name:left:et":"S\u00fc\u00fcria","name:right:tw":"Turkey","name:right:oc":"Turquia","name:left:ia":"Syria","name:right:uz":"Turkiya","osm_relation":true,"name:right:or":"\u0b24\u0b41\u0b30\u0b4d\u0b15\u0b40","name:left:pt":"S\u00edria","name:right:th":"\u0e1b\u0e23\u0e30\u0e40\u0e17\u0e28\u0e15\u0e38\u0e23\u0e01\u0e35","name:right:tk":"T\u00fcrki\u00fde","name:left:gl":"Siria - \u0633\u0648\u0631\u064a\u0629","name:left:wa":"Sireye","min_zoom":8.0,"name:left:zh-min-nan":"Su-l\u012b-a","name:left:wo":"Siri","name:left:ga":"An tSiria","name:left:it":"Siria","name:left:gd":"Siria","int_name:right":"Turkey","name:left:gu":"\u0ab8\u0abf\u0ab0\u0abf\u0aaf\u0abe","name:left:gv":"Yn Teer","official_name:right":"T\u00fcrkiye Cumhuriyeti","name:left":"\u0633\u0648\u0631\u064a\u0627","name:right:mk":"\u0422\u0443\u0440\u0446\u0438\u0458\u0430","name:right:mi":"T\u0101kei","name:left:bm":"Suriya","name:right:mn":"\u0422\u0443\u0440\u043a","name:right:ml":"\u0d24\u0d41\u0d7c\u0d15\u0d4d\u0d15\u0d3f","name:right:vo":"T\u00fcrk\u00e4n","name:right:mg":"Torkia","name:right:vi":"Th\u1ed5 Nh\u0129 K\u1ef3","name:right:my":"\u1010\u1030\u101b\u1000\u102e\u1014\u102d\u102f\u1004\u103a\u1004\u1036","name:right:ms":"Turki","name:right:mr":"\u0924\u0941\u0930\u094d\u0915\u0938\u094d\u0924\u093e\u0928","name:right:fy":"Turkije","name:right:mt":"Turkija","name:left:nn":"Syria","kind":"country","name:left:br":"Siria","name:left:bs":"Sirija","name:left:ba":"\u0421\u0438\u0440\u0438\u044f","name:left:bg":"\u0421\u0438\u0440\u0438\u044f","name:right:kv":"\u0422\u0443\u0440\u0446\u0438\u044f","name:left:be":"\u0421\u0456\u0440\u044b\u044f","name:left:bn":"\u09b8\u09bf\u09b0\u09bf\u09af\u09bc\u09be","name:left:bo":"\u0f66\u0f72\u0f0b\u0f62\u0f72\u0f0b\u0f61\u0f0d","name:right":"T\u00fcrkiye","name:left:yo":"S\u00edr\u00ed\u00e0","name:left:yi":"\u05e1\u05d9\u05e8\u05d9\u05e2","id:left":-184840,"name:right:fi":"Turkki","name:right:ka":"\u10d7\u10e3\u10e0\u10e5\u10d4\u10d7\u10d8","name:left:io":"Siria","name:left:pa":"\u0a38\u0a40\u0a30\u0a40\u0a06","name:right:kg":"Turki","name:right:ki":"Turkey","name:right:kk":"\u0422\u04af\u0440\u043a\u0438\u044f","name:left:id":"Suriah","name:right:kl":"Tyrkia","name:right:ko":"\ud130\ud0a4","name:right:kn":"\u0c9f\u0cb0\u0ccd\u0c95\u0cbf","name:right:tl":"Turkiya","name:right:ku":"Tirkiye","name:right:kw":"Turki","name:left:ps":"\u0633\u0648\u0631\u064a\u0647","name:right:ky":"\u0422\u04af\u0440\u043a\u0438\u044f \u0420\u0435\u0441\u043f\u0443\u0431\u043b\u0438\u043a\u0430\u0441\u044b","name:right:te":"\u0c1f\u0c30\u0c4d\u0c15\u0c40","name:right:tg":"\u0422\u0443\u0440\u043a\u0438\u044f","name:left:is":"S\u00fdrland","name:right:ta":"\u0ba4\u0bc1\u0bb0\u0bc1\u0b95\u0bcd\u0b95\u0bbf","name:right:de":"T\u00fcrkei","name:right:da":"Tyrkiet","name:right:dv":"\u078c\u07aa\u0783\u07aa\u0786\u07a9\u0788\u07a8\u078d\u07a7\u078c\u07b0","name:right:ht":"Tiki"},"arcs":[[0],[1]]},{"type":"LineString","properties":{"name:left:ar":"\u0647\u0627\u062a\u0627\u064a","id:left":-223122,"name:right:tr":"\u0130dlib","id:right":-184881,"name:left:uk":"\u0425\u0430\u0442\u0430\u0439","min_zoom":8.0,"name:right:ku":"\u00cedl\u00eeb","name:left:ru":"\u0425\u0430\u0442\u0430\u0439","name:right:ru":"\u0418\u0434\u043b\u0438\u0431","name:right:pl":"Idlib","id":-223122,"osm_relation":true,"name:right":"\u0625\u062f\u0644\u0628","kind":"region","name":"Hatay - \u0625\u062f\u0644\u0628","sort_rank":256,"kind_detail":"4","name:right:en":"Idlib","source":"openstreetmap.org","name:right:de":"Idlib","name:right:zh":"\u4f0a\u5fb7\u5229\u535c\u7701","name:left":"Hatay"},"arcs":[2]},{"type":"MultiLineString","properties":{"name:left:ar":"\u0647\u0627\u062a\u0627\u064a","name:right:uk":"\u0425\u0430\u043b\u0435\u0431 \u043c\u0443\u0445\u0430\u0444\u0430\u0437\u0430","id:left":-223122,"id:right":-184879,"name:left:uk":"\u0425\u0430\u0442\u0430\u0439","min_zoom":8.0,"name:left:ru":"\u0425\u0430\u0442\u0430\u0439","name:right:ru":"\u0410\u043b\u0435\u043f\u043f\u043e","name:right:pl":"Aleppo","id":-223122,"osm_relation":true,"name:right":"\u062d\u0644\u0628","kind":"region","name":"Hatay - \u062d\u0644\u0628","sort_rank":256,"kind_detail":"4","name:right:en":"Aleppo","source":"openstreetmap.org","name:right:de":"Aleppo","name:right:zh":"\u963f\u52d2\u9887\u7701","name:left":"Hatay","name:right:cs":"Aleppo"},"arcs":[[3],[4]]},{"type":"LineString","properties":{"name:left:pl":"Idlib","name:left:tr":"\u0130dlib","id:left":-184881,"id:right":-184880,"name:left:ku":"\u00cedl\u00eeb","min_zoom":8.0,"name:left:ru":"\u0418\u0434\u043b\u0438\u0431","name:right:ru":"\u0425\u0430\u043c\u0430","name:right:pl":"Hama","id":-184881,"osm_relation":true,"name:right":"\u062d\u0645\u0627\u0647","kind":"region","name":"\u0625\u062f\u0644\u0628 - \u062d\u0645\u0627\u0647","source":"openstreetmap.org","sort_rank":256,"kind_detail":"4","name:left:de":"Idlib","name:right:en":"Hama","name:left:en":"Idlib","name:left:zh":"\u4f0a\u5fb7\u5229\u535c\u7701","name:right:de":"Hama","name:right:zh":"\u54c8\u9a6c\u7701","name:left":"\u0625\u062f\u0644\u0628","name:right:cs":"Ham\u00e1"},"arcs":[5]},{"type":"LineString","properties":{"name:right:uk":"\u0425\u0430\u043b\u0435\u0431 \u043c\u0443\u0445\u0430\u0444\u0430\u0437\u0430","name:left:tr":"\u0130dlib","id:left":-184881,"id:right":-184879,"name:left:ku":"\u00cedl\u00eeb","min_zoom":8.0,"name:left:en":"Idlib","name:left:ru":"\u0418\u0434\u043b\u0438\u0431","name:right:ru":"\u0410\u043b\u0435\u043f\u043f\u043e","name:right:pl":"Aleppo","id":-184881,"osm_relation":true,"name:right":"\u062d\u0644\u0628","kind":"region","name":"\u0625\u062f\u0644\u0628 - \u062d\u0644\u0628","source":"openstreetmap.org","sort_rank":256,"kind_detail":"4","name:left:de":"Idlib","name:right:en":"Aleppo","name:left:pl":"Idlib","name:left:zh":"\u4f0a\u5fb7\u5229\u535c\u7701","name:right:de":"Aleppo","name:right:zh":"\u963f\u52d2\u9887\u7701","name:left":"\u0625\u062f\u0644\u0628","name:right:cs":"Aleppo"},"arcs":[6]},{"type":"LineString","properties":{"name:right:uk":"\u0425\u0430\u043b\u0435\u0431 \u043c\u0443\u0445\u0430\u0444\u0430\u0437\u0430","id:left":-184880,"id:right":-184879,"min_zoom":8.0,"name:left:en":"Hama","name:left:ru":"\u0425\u0430\u043c\u0430","name:right:ru":"\u0410\u043b\u0435\u043f\u043f\u043e","name:right:pl":"Aleppo","id":-184880,"osm_relation":true,"name:right":"\u062d\u0644\u0628","kind":"region","name":"\u062d\u0645\u0627\u0647 - \u062d\u0644\u0628","source":"openstreetmap.org","sort_rank":256,"kind_detail":"4","name:left:de":"Hama","name:right:en":"Aleppo","name:left:pl":"Hama","name:left:zh":"\u54c8\u9a6c\u7701","name:right:de":"Aleppo","name:right:zh":"\u963f\u52d2\u9887\u7701","name:left":"\u062d\u0645\u0627\u0647","name:left:cs":"Ham\u00e1","name:right:cs":"Aleppo"},"arcs":[7]}]},"roads":{"type":"GeometryCollection","geometries":[{"type":"LineString","properties":{"kind":"major_road","name:en":"Khaled Ibn al-Waleed Road","sort_rank":381,"kind_detail":"trunk","bus_network":"\u0627\u0644\u0634\u0631\u0643\u0629 \u0627\u0644\u0639\u0627\u0645\u0629 \u0644\u0644\u0646\u0642\u0644 \u0627\u0644\u062f\u0627\u062e\u0644\u064a \u0628\u062d\u0644\u0628","source":"openstreetmap.org","min_zoom":8.0,"bus_shield_text":"\u0627\u0644\u0628\u0644\u0644\u064a\u0631\u0645\u0648\u0646 \u0627\u0644\u0635\u0627\u062e\u0648\u0631","ref":"214","id":173134473},"arcs":[8]},{"type":"MultiLineString","properties":{"bus_network":"\u0627\u0644\u0634\u0631\u0643\u0629 \u0627\u0644\u0639\u0627\u0645\u0629 \u0644\u0644\u0646\u0642\u0644 \u0627\u0644\u062f\u0627\u062e\u0644\u064a \u0628\u062d\u0644\u0628","sort_rank":380,"kind_detail":"primary","kind":"major_road","source":"openstreetmap.org","min_zoom":8.0,"bus_shield_text":"2 \u0627\u0644\u062f\u0627\u0626\u0631\u064a \u0627\u0644\u0634\u0645\u0627\u0644\u064a","landuse_kind":"urban_area"},"arcs":[[9],[10],[11],[12],[13],[14],[15]]},{"type":"MultiLineString","properties":{"source":"openstreetmap.org","kind":"major_road","name:en":"Izz ad-Din al-Qassam","kind_detail":"trunk","sort_rank":381,"landuse_kind":"urban_area","min_zoom":8.0},"arcs":[[16],[17]]},{"type":"LineString","properties":{"kind":"major_road","sort_rank":381,"kind_detail":"trunk","bus_network":"\u0627\u0644\u0634\u0631\u0643\u0629 \u0627\u0644\u0639\u0627\u0645\u0629 \u0644\u0644\u0646\u0641\u0644 \u0627\u0644\u062f\u0627\u062e\u0644\u064a \u0628\u062d\u0644\u0628","source":"openstreetmap.org","min_zoom":8.0,"bus_shield_text":"\u062d\u0644\u0628 \u0627\u0644\u062c\u062f\u064a\u062f\u0629 \u0634\u0645\u0627\u0644\u064a","landuse_kind":"urban_area","id":314666678},"arcs":[18]},{"type":"MultiLineString","properties":{"bus_network":"\u0627\u0644\u0634\u0631\u0643\u0629 \u0627\u0644\u0639\u0627\u0645\u0629 \u0644\u0644\u0646\u0642\u0644 \u0627\u0644\u062f\u0627\u062e\u0644\u064a \u0628\u062d\u0644\u0628","name:en":"Jafar Sadeq Street","sort_rank":380,"kind_detail":"primary","kind":"major_road","source":"openstreetmap.org","min_zoom":8.0,"bus_shield_text":"1 \u0627\u0644\u062f\u0627\u0626\u0631\u064a \u0627\u0644\u062c\u0646\u0648\u0628\u064a","landuse_kind":"urban_area"},"arcs":[[19],[20],[21],[22]]},{"type":"LineString","properties":{"kind":"major_road","network":"e-road","sort_rank":381,"kind_detail":"trunk","source":"openstreetmap.org","min_zoom":8.0,"shield_text":"98","id":156544010},"arcs":[23]},{"type":"LineString","properties":{"kind":"major_road","name:en":"Al Mutanabbi Street","sort_rank":380,"landuse_kind":"urban_area","source":"openstreetmap.org","min_zoom":8.0,"kind_detail":"primary","id":203436300},"arcs":[24]},{"type":"LineString","properties":{"kind":"major_road","network":"e-road","sort_rank":381,"kind_detail":"trunk","source":"openstreetmap.org","min_zoom":8.0,"landuse_kind":"urban_area","shield_text":"98","id":156544010},"arcs":[25]},{"type":"LineString","properties":{"source":"openstreetmap.org","kind":"major_road","name:en":"International Route - Al-Bab","sort_rank":380,"kind_detail":"primary","min_zoom":8.0,"name:de":"International Route - Al-Bab"},"arcs":[26]},{"type":"MultiLineString","properties":{"bus_network":"\u0627\u0644\u0634\u0631\u0643\u0629 \u0627\u0644\u0639\u0627\u0645\u0629 \u0644\u0644\u0646\u0642\u0644 \u0627\u0644\u062f\u0627\u062e\u0644\u064a \u0628\u062d\u0644\u0628","sort_rank":380,"kind_detail":"primary","kind":"major_road","source":"openstreetmap.org","min_zoom":8.0,"bus_shield_text":"1 \u0627\u0644\u062f\u0627\u0626\u0631\u064a \u0627\u0644\u062c\u0646\u0648\u0628\u064a","landuse_kind":"urban_area"},"arcs":[[27],[28],[29],[30],[31],[32],[33],[34],[35],[36],[37],[38],[39]]},{"type":"MultiLineString","properties":{"bus_network":"\u0627\u0644\u0634\u0631\u0643\u0629 \u0627\u0644\u0639\u0627\u0645\u0629 \u0644\u0644\u0646\u0642\u0644 \u0627\u0644\u062f\u0627\u062e\u0644\u064a \u0628\u062d\u0644\u0628","name:en":"Alhawoz Roundabout","sort_rank":380,"kind_detail":"primary","kind":"major_road","source":"openstreetmap.org","min_zoom":8.0,"bus_shield_text":"1 \u0627\u0644\u062f\u0627\u0626\u0631\u064a \u0627\u0644\u062c\u0646\u0648\u0628\u064a","landuse_kind":"urban_area"},"arcs":[[40],[41]]},{"type":"MultiLineString","properties":{"source":"openstreetmap.org","kind":"highway","sort_rank":383,"kind_detail":"motorway","ref":"M5","min_zoom":8.0},"arcs":[[42],[43],[44],[45],[46],[47],[48],[49],[50],[51],[52],[53],[54],[55],[56],[57],[58],[59],[60],[61]]},{"type":"MultiLineString","properties":{"source":"openstreetmap.org","kind":"highway","landuse_kind":"urban_area","sort_rank":383,"kind_detail":"motorway","ref":"M5","min_zoom":8.0},"arcs":[[62],[63]]},{"type":"MultiLineString","properties":{"bus_network":"\u0627\u0644\u0634\u0631\u0643\u0629 \u0627\u0644\u0639\u0627\u0645\u0629 \u0644\u0644\u0646\u0642\u0644 \u0627\u0644\u062f\u0627\u062e\u0644\u064a \u0628\u062d\u0644\u0628","sort_rank":380,"kind_detail":"primary","kind":"major_road","source":"openstreetmap.org","min_zoom":8.0,"bus_shield_text":"\u062c\u0645\u0639\u064a\u0629 \u0627\u0644\u0645\u0647\u0646\u062f\u0633\u064a\u0646","landuse_kind":"urban_area"},"arcs":[[64],[65],[66]]},{"type":"LineString","properties":{"kind":"major_road","name:en":"Baballa Street","sort_rank":380,"kind_detail":"primary","bus_network":"\u0627\u0644\u0634\u0631\u0643\u0629 \u0627\u0644\u0639\u0627\u0645\u0629 \u0644\u0644\u0646\u0642\u0644 \u0627\u0644\u062f\u0627\u062e\u0644\u064a \u0628\u062d\u0644\u0628","source":"openstreetmap.org","min_zoom":8.0,"bus_shield_text":"2 \u0627\u0644\u062f\u0627\u0626\u0631\u064a \u0627\u0644\u0634\u0645\u0627\u0644\u064a","landuse_kind":"urban_area","id":24887311},"arcs":[67]},{"type":"LineString","properties":{"kind":"major_road","network":"TR-roads","sort_rank":381,"kind_detail":"trunk","source":"openstreetmap.org","min_zoom":8.0,"shield_text":null,"ref":"D420"},"arcs":[68]},{"type":"MultiLineString","properties":{"source":"openstreetmap.org","kind":"major_road","landuse_kind":"urban_area","sort_rank":380,"kind_detail":"primary","ref":"M20","min_zoom":8.0},"arcs":[[69],[70]]},{"type":"LineString","properties":{"kind":"major_road","sort_rank":381,"kind_detail":"trunk","bus_network":"\u0627\u0644\u0634\u0631\u0643\u0629 \u0627\u0644\u0639\u0627\u0645\u0629 \u0644\u0644\u0646\u0642\u0644 \u0627\u0644\u062f\u0627\u062e\u0644\u064a \u0628\u062d\u0644\u0628","source":"openstreetmap.org","min_zoom":8.0,"bus_shield_text":"\u062c\u0645\u0639\u064a\u0629 \u0627\u0644\u0645\u0647\u0646\u062f\u0633\u064a\u0646","landuse_kind":"urban_area","ref":"214","id":314016533},"arcs":[71]},{"type":"MultiLineString","properties":{"source":"openstreetmap.org","kind":"major_road","sort_rank":381,"kind_detail":"trunk","ref":"5","min_zoom":8.0},"arcs":[[72],[73],[74],[75],[76]]},{"type":"LineString","properties":{"bus_network":"\u0627\u0644\u0634\u0631\u0643\u0629 \u0627\u0644\u0639\u0627\u0645\u0629 \u0644\u0644\u0646\u0642\u0644 \u0627\u0644\u062f\u0627\u062e\u0644\u064a \u0628\u062d\u0644\u0628","name:en":"Khaled Ibn al-Waleed Road","sort_rank":381,"landuse_kind":"urban_area","kind":"major_road","source":"openstreetmap.org","min_zoom":8.0,"bus_shield_text":"\u0627\u0644\u0628\u0644\u0644\u064a\u0631\u0645\u0648\u0646 \u0627\u0644\u0635\u0627\u062e\u0648\u0631","kind_detail":"trunk","ref":"214"},"arcs":[77]},{"type":"MultiLineString","properties":{"source":"openstreetmap.org","kind":"major_road","sort_rank":380,"kind_detail":"primary","ref":"M20","min_zoom":8.0},"arcs":[[78],[79],[80],[81],[82]]},{"type":"MultiLineString","properties":{"source":"openstreetmap.org","kind":"major_road","sort_rank":381,"kind_detail":"trunk","ref":"4","min_zoom":8.0},"arcs":[[83],[84],[85],[86],[87],[88],[89],[90],[91],[92],[93],[94],[95],[96],[97],[98],[99],[100]]},{"type":"LineString","properties":{"kind":"major_road","sort_rank":381,"kind_detail":"trunk","bus_network":"\u0627\u0644\u0634\u0631\u0643\u0629 \u0627\u0644\u0639\u0627\u0645\u0629 \u0644\u0644\u0646\u0642\u0644 \u0627\u0644\u062f\u0627\u062e\u0644\u064a","source":"openstreetmap.org","min_zoom":8.0,"bus_shield_text":"\u062d\u0644\u0628 \u0627\u0644\u062c\u062f\u064a\u062f\u0629 \u0634\u0645\u0627\u0644\u064a","landuse_kind":"urban_area","id":314666614},"arcs":[101]},{"type":"LineString","properties":{"kind":"major_road","name:en":"Hajj Bridge roundabout","sort_rank":380,"landuse_kind":"urban_area","source":"openstreetmap.org","min_zoom":8.0,"kind_detail":"primary","id":24866931},"arcs":[102]},{"type":"MultiLineString","properties":{"bus_network":"\u0627\u0644\u0634\u0631\u0643\u0629 \u0627\u0644\u0639\u0627\u0645\u0629 \u0644\u0644\u0646\u0642\u0644 \u0627\u0644\u062f\u0627\u062e\u0644\u064a \u0628\u062d\u0644\u0628","sort_rank":380,"kind_detail":"primary","kind":"major_road","source":"openstreetmap.org","min_zoom":8.0,"bus_shield_text":"\u0637\u0631\u064a\u0642 \u0627\u0644\u0628\u0627\u0628","landuse_kind":"urban_area","ref":"212"},"arcs":[[103],[104],[105],[106]]},{"type":"MultiLineString","properties":{"sort_rank":381,"source":"openstreetmap.org","min_zoom":8.0,"kind":"major_road","kind_detail":"trunk"},"arcs":[[107],[108],[109],[110],[111],[112],[113],[114],[115],[116],[117],[118],[119],[120],[121],[122],[123],[124],[125],[126],[127],[128],[129],[130],[131],[132],[133],[134],[135],[136],[137],[138],[139],[140],[141],[142],[143],[144],[145],[146],[147],[148],[149],[150],[151],[152],[153],[154],[155],[156],[157],[158]]},{"type":"LineString","properties":{"kind":"major_road","sort_rank":381,"kind_detail":"trunk","bus_network":"\u0627\u0644\u0634\u0631\u0643\u0629 \u0627\u0644\u0639\u0627\u0645\u0629 \u0644\u0644\u0646\u0642\u0644 \u0627\u0644\u062f\u0627\u062e\u0644\u064a \u0628\u062d\u0644\u0628","source":"openstreetmap.org","min_zoom":8.0,"bus_shield_text":"\u0627\u0644\u0628\u0644\u0644\u064a\u0631\u0645\u0648\u0646 \u0627\u0644\u0635\u0627\u062e\u0648\u0631","ref":"214"},"arcs":[159]},{"type":"MultiLineString","properties":{"source":"openstreetmap.org","kind":"major_road","alt_name:en":"Al-Bab Main Street","name:en":"Almohalik Alshmali Street","sort_rank":381,"kind_detail":"trunk","min_zoom":8.0},"arcs":[[160],[161]]},{"type":"LineString","properties":{"kind":"major_road","name:en":"Khaled Ibn al-Waleed Road","sort_rank":381,"kind_detail":"trunk","bus_network":"\u0627\u0644\u0634\u0631\u0643\u0629 \u0627\u0644\u0639\u0627\u0645\u0629 \u0644\u0644\u0646\u0642\u0644 \u0627\u0644\u062f\u0627\u062e\u0644\u064a \u0628\u062d\u0644\u0628","source":"openstreetmap.org","min_zoom":8.0,"bus_shield_text":"\u0627\u0644\u0628\u0644\u0644\u064a\u0631\u0645\u0648\u0646 \u0627\u0644\u0635\u0627\u062e\u0648\u0631","id":314203063},"arcs":[162]},{"type":"MultiLineString","properties":{"source":"openstreetmap.org","kind":"highway","sort_rank":383,"kind_detail":"motorway","ref":"M4","min_zoom":8.0},"arcs":[[163],[164],[165]]},{"type":"LineString","properties":{"kind":"major_road","name:en":"Saadallah Al Jaberi Square","sort_rank":380,"kind_detail":"primary","bus_network":"\u0627\u0644\u0634\u0631\u0643\u0629 \u0627\u0644\u0639\u0627\u0645\u0629 \u0644\u0644\u0646\u0642\u0644 \u0627\u0644\u062f\u0627\u062e\u0644\u064a \u0628\u062d\u0644\u0628","source":"openstreetmap.org","min_zoom":8.0,"bus_shield_text":"\u0633\u064a\u0641 \u0627\u0644\u062f\u0648\u0644\u0629","landuse_kind":"urban_area","id":24887514},"arcs":[166]},{"type":"MultiLineString","properties":{"kind":"major_road","network":"TR-roads","sort_rank":381,"landuse_kind":"urban_area","source":"openstreetmap.org","min_zoom":8.0,"kind_detail":"trunk","shield_text":null,"ref":"D420"},"arcs":[[167],[168]]},{"type":"MultiLineString","properties":{"source":"openstreetmap.org","kind":"major_road","name:en":"Alhawoz Roundabout","landuse_kind":"urban_area","sort_rank":380,"kind_detail":"primary","min_zoom":8.0},"arcs":[[169],[170]]},{"type":"MultiLineString","properties":{"source":"openstreetmap.org","kind":"major_road","sort_rank":381,"kind_detail":"trunk","ref":"M4","min_zoom":8.0},"arcs":[[171],[172],[173],[174],[175],[176],[177],[178],[179]]},{"type":"MultiLineString","properties":{"source":"openstreetmap.org","kind":"major_road","landuse_kind":"urban_area","sort_rank":380,"kind_detail":"primary","min_zoom":8.0},"arcs":[[180],[181],[182],[183],[184],[185],[186],[187],[188],[189],[190],[191],[192],[193],[194],[195],[196],[197],[198],[199],[200],[201],[202],[203],[204],[205],[206],[207],[208],[209],[210],[211],[212],[213],[214],[215],[216],[217],[218],[219],[220],[221],[222],[223],[224],[225],[226],[227],[228],[229],[230],[231],[232],[233],[234],[235],[236],[237],[238],[239],[240],[241],[242],[243],[244],[245],[246],[247],[248],[249],[250],[251],[252],[253],[254],[255],[256],[257],[258],[259],[260],[261],[262],[263],[264],[265],[266],[267],[268],[269],[270],[271],[272],[273],[274],[275],[276],[277],[278],[279],[280],[281],[282],[283],[284],[285],[286],[287],[288]]},{"type":"MultiLineString","properties":{"bus_network":"\u0627\u0644\u0634\u0631\u0643\u0629 \u0627\u0644\u0639\u0627\u0645\u0629 \u0644\u0644\u0646\u0642\u0644 \u0627\u0644\u062f\u0627\u062e\u0644\u064a \u0628\u062d\u0644\u0628","name:en":"Airport Road","sort_rank":380,"kind_detail":"primary","kind":"major_road","source":"openstreetmap.org","min_zoom":8.0,"bus_shield_text":"\u0645\u062f\u064a\u0646\u0629 \u0647\u0646\u0627\u0646\u0648","landuse_kind":"urban_area"},"arcs":[[289],[290]]},{"type":"MultiLineString","properties":{"source":"openstreetmap.org","kind":"major_road","name:en":"Mohammad Faris Street","landuse_kind":"urban_area","sort_rank":380,"kind_detail":"primary","min_zoom":8.0},"arcs":[[291],[292]]},{"type":"LineString","properties":{"source":"openstreetmap.org","kind":"major_road","sort_rank":381,"kind_detail":"trunk","ref":"214","min_zoom":8.0,"id":24867935},"arcs":[293]},{"type":"MultiLineString","properties":{"kind":"highway","network":"Arab_Mashreq_International_Road_Network","sort_rank":383,"kind_detail":"motorway","source":"openstreetmap.org","min_zoom":8.0,"all_networks":["Arab_Mashreq_International_Road_Network"],"shield_text":"10","ref":"M4","all_shield_texts":["10"]},"arcs":[[294],[295],[296]]},{"type":"MultiLineString","properties":{"bus_network":"\u0627\u0644\u0634\u0631\u0643\u0629 \u0627\u0644\u0639\u0627\u0645\u0629 \u0644\u0644\u0646\u0642\u0644 \u0627\u0644\u062f\u0627\u062e\u0644\u064a \u0628\u062d\u0644\u0628","name:en":"Izz ad-Din al-Qassam","sort_rank":381,"landuse_kind":"urban_area","kind":"major_road","source":"openstreetmap.org","min_zoom":8.0,"bus_shield_text":"\u0627\u0644\u0628\u0644\u0644\u064a\u0631\u0645\u0648\u0646 \u0627\u0644\u0635\u0627\u062e\u0648\u0631","kind_detail":"trunk"},"arcs":[[297],[298],[299]]},{"type":"MultiLineString","properties":{"bus_network":"\u0627\u0644\u0634\u0631\u0643\u0629 \u0627\u0644\u0639\u0627\u0645\u0629 \u0644\u0644\u0646\u0642\u0644 \u0627\u0644\u062f\u0627\u062e\u0644\u064a \u0628\u062d\u0644\u0628","sort_rank":380,"kind_detail":"primary","kind":"major_road","source":"openstreetmap.org","min_zoom":8.0,"bus_shield_text":"\u0645\u062f\u064a\u0646\u0629 \u0647\u0646\u0627\u0646\u0648","landuse_kind":"urban_area"},"arcs":[[300],[301],[302],[303]]},{"type":"MultiLineString","properties":{"bus_network":"\u0627\u0644\u0634\u0631\u0643\u0629 \u0627\u0644\u0639\u0627\u0645\u0629 \u0644\u0644\u0646\u0642\u0644 \u0627\u0644\u062f\u0627\u062e\u0644\u064a \u0628\u062d\u0644\u0628","sort_rank":380,"kind_detail":"primary","kind":"major_road","source":"openstreetmap.org","min_zoom":8.0,"bus_shield_text":"\u0634\u0627\u0631\u0639 \u0627\u0644\u0646\u064a\u0644","landuse_kind":"urban_area"},"arcs":[[304],[305]]},{"type":"LineString","properties":{"kind":"major_road","name:en":"Nazlat Righteous","sort_rank":380,"landuse_kind":"urban_area","source":"openstreetmap.org","min_zoom":8.0,"kind_detail":"primary","id":29505932},"arcs":[306]},{"type":"LineString","properties":{"bus_network":"\u0627\u0644\u0634\u0631\u0643\u0629 \u0627\u0644\u0639\u0627\u0645\u0629 \u0644\u0644\u0646\u0642\u0644 \u0627\u0644\u062f\u0627\u062e\u0644\u064a \u0628\u062d\u0644\u0628","sort_rank":381,"landuse_kind":"urban_area","kind":"major_road","source":"openstreetmap.org","min_zoom":8.0,"bus_shield_text":"\u0627\u0644\u062d\u0645\u062f\u0627\u0646\u064a\u0629 \u063a\u0631\u0628\u064a","kind_detail":"trunk"},"arcs":[307]},{"type":"LineString","properties":{"bus_network":"\u0627\u0644\u0634\u0631\u0643\u0629 \u0627\u0644\u0639\u0627\u0645\u0629 \u0644\u0644\u0646\u0642\u0644 \u0627\u0644\u062f\u0627\u062e\u0644\u064a \u0628\u062d\u0644\u0628","sort_rank":380,"kind_detail":"primary","kind":"major_road","source":"openstreetmap.org","min_zoom":8.0,"bus_shield_text":"\u0637\u0631\u064a\u0642 \u0627\u0644\u0628\u0627\u0628","landuse_kind":"urban_area"},"arcs":[308]},{"type":"MultiLineString","properties":{"bus_network":"\u0627\u0644\u0634\u0631\u0643\u0629 \u0627\u0644\u0639\u0627\u0645\u0629 \u0644\u0644\u0646\u0642\u0644 \u0627\u0644\u062f\u0627\u062e\u0644\u064a \u0628\u062d\u0644\u0628","sort_rank":380,"kind_detail":"primary","kind":"major_road","source":"openstreetmap.org","min_zoom":8.0,"bus_shield_text":"\u0633\u064a\u0641 \u0627\u0644\u062f\u0648\u0644\u0629","landuse_kind":"urban_area"},"arcs":[[309],[310],[311],[312]]},{"type":"LineString","properties":{"kind":"major_road","name:en":"Saadallah Al Jaberi Square","sort_rank":380,"landuse_kind":"urban_area","source":"openstreetmap.org","min_zoom":8.0,"kind_detail":"primary","id":314203066},"arcs":[313]},{"type":"MultiLineString","properties":{"sort_rank":380,"kind_detail":"primary","min_zoom":8.0,"kind":"major_road","source":"openstreetmap.org"},"arcs":[[314],[315],[316],[317],[318],[319],[320],[321],[322],[323],[324],[325],[326],[327],[328],[329],[330],[331],[332],[333],[334],[335],[336],[337],[338],[339],[340],[341],[342],[343],[344],[345],[346],[347],[348],[349],[350],[351],[352],[353],[354],[355],[356],[357],[358],[359],[360],[361],[362],[363],[364],[365],[366],[367],[368],[369],[370],[371],[372],[373],[374],[375],[376],[377],[378],[379],[380],[381],[382],[383],[384],[385],[386],[387],[388],[389],[390],[391],[392],[393],[394],[395],[396],[397],[398],[399],[400],[401],[402],[403],[404],[405],[406],[407],[408],[409],[410],[411],[412],[413],[414],[415]]},{"type":"LineString","properties":{"kind":"major_road","name:en":"Baballa Street","sort_rank":380,"kind_detail":"primary","bus_network":null,"source":"openstreetmap.org","min_zoom":8.0,"bus_shield_text":"2 \u0627\u0644\u062f\u0627\u0626\u0631\u064a \u0627\u0644\u0634\u0645\u0627\u0644\u064a","landuse_kind":"urban_area","id":313967384},"arcs":[416]},{"type":"MultiLineString","properties":{"bus_network":"\u0627\u0644\u0634\u0631\u0643\u0629 \u0627\u0644\u0639\u0627\u0645\u0629 \u0644\u0644\u0646\u0642\u0644 \u0627\u0644\u062f\u0627\u062e\u0644\u064a \u0628\u062d\u0644\u0628","sort_rank":380,"kind_detail":"primary","kind":"major_road","source":"openstreetmap.org","min_zoom":8.0,"bus_shield_text":"\u0643\u0631\u0627\u062c \u0627\u0644\u0628\u0648\u0644\u0645\u0627\u0646","landuse_kind":"urban_area"},"arcs":[[417],[418],[419],[420],[421],[422]]},{"type":"LineString","properties":{"source":"openstreetmap.org","kind":"major_road","sort_rank":380,"kind_detail":"primary","ref":"212","min_zoom":8.0,"id":314204879},"arcs":[423]},{"type":"MultiLineString","properties":{"source":"openstreetmap.org","kind":"major_road","name:en":"Airport Road","sort_rank":381,"kind_detail":"trunk","min_zoom":8.0},"arcs":[[424],[425]]},{"type":"MultiLineString","properties":{"bus_network":"\u0627\u0644\u0634\u0631\u0643\u0629 \u0627\u0644\u0639\u0627\u0645\u0629 \u0644\u0644\u0646\u0641\u0644 \u0627\u0644\u062f\u0627\u062e\u0644\u064a \u0628\u062d\u0644\u0628","sort_rank":380,"kind_detail":"primary","kind":"major_road","source":"openstreetmap.org","min_zoom":8.0,"bus_shield_text":"\u062d\u0644\u0628 \u0627\u0644\u062c\u062f\u064a\u062f\u0629 \u0634\u0645\u0627\u0644\u064a","landuse_kind":"urban_area"},"arcs":[[426],[427]]},{"type":"MultiLineString","properties":{"kind":"major_road","sort_rank":380,"kind_detail":"primary","bus_network":"\u0627\u0644\u0634\u0631\u0643\u0629 \u0627\u0644\u0639\u0627\u0645\u0629 \u0644\u0644\u0646\u0642\u0644 \u0627\u0644\u062f\u0627\u062e\u0644\u064a","source":"openstreetmap.org","min_zoom":8.0,"bus_shield_text":"\u062d\u0644\u0628 \u0627\u0644\u062c\u062f\u064a\u062f\u0629 \u0634\u0645\u0627\u0644\u064a","landuse_kind":"urban_area"},"arcs":[[428],[429]]},{"type":"LineString","properties":{"bus_network":"\u0627\u0644\u0634\u0631\u0643\u0629 \u0627\u0644\u0639\u0627\u0645\u0629 \u0644\u0644\u0646\u0642\u0644 \u0627\u0644\u062f\u0627\u062e\u0644\u064a \u0628\u062d\u0644\u0628","name:en":"Saadallah Al Jaberi Square","sort_rank":380,"kind_detail":"primary","kind":"major_road","source":"openstreetmap.org","min_zoom":8.0,"bus_shield_text":"\u0627\u0644\u0628\u0644\u0644\u064a\u0631\u0645\u0648\u0646","landuse_kind":"urban_area"},"arcs":[430]},{"type":"MultiLineString","properties":{"source":"openstreetmap.org","kind":"major_road","kind_detail":"trunk","sort_rank":381,"landuse_kind":"urban_area","min_zoom":8.0},"arcs":[[431],[432],[433],[434],[435],[436],[437],[438],[439],[440],[441],[442],[443],[444],[445],[446],[447],[448],[449],[450],[451],[452],[453],[454],[455],[456],[457],[458],[459],[460],[461],[462],[463],[464]]},{"type":"LineString","properties":{"kind":"major_road","sort_rank":381,"landuse_kind":"urban_area","source":"openstreetmap.org","min_zoom":8.0,"kind_detail":"trunk","ref":"5","id":24870653},"arcs":[465]},{"type":"MultiLineString","properties":{"bus_network":"\u0627\u0644\u0634\u0631\u0643\u0629 \u0627\u0644\u0639\u0627\u0645\u0629 \u0644\u0644\u0646\u0642\u0644 \u0627\u0644\u062f\u0627\u062e\u0644\u064a \u0628\u062d\u0644\u0628","name:en":"Khaled Ibn al-Waleed Road","sort_rank":381,"landuse_kind":"urban_area","kind":"major_road","source":"openstreetmap.org","min_zoom":8.0,"bus_shield_text":"\u0627\u0644\u0628\u0644\u0644\u064a\u0631\u0645\u0648\u0646 \u0627\u0644\u0635\u0627\u062e\u0648\u0631","kind_detail":"trunk"},"arcs":[[466],[467]]},{"type":"MultiLineString","properties":{"source":"openstreetmap.org","kind":"major_road","landuse_kind":"residential","sort_rank":381,"kind_detail":"trunk","ref":"M4","min_zoom":8.0},"arcs":[[468],[469]]},{"type":"MultiLineString","properties":{"kind":"major_road","network":"TR-roads","sort_rank":381,"kind_detail":"trunk","source":"openstreetmap.org","min_zoom":8.0,"landuse_kind":"residential","shield_text":null,"ref":"D420"},"arcs":[[470],[471]]},{"type":"MultiLineString","properties":{"bus_network":"\u0627\u0644\u0634\u0631\u0643\u0629 \u0627\u0644\u0639\u0627\u0645\u0629 \u0644\u0644\u0646\u0642\u0644 \u0627\u0644\u062f\u0627\u062e\u0644\u064a \u0628\u062d\u0644\u0628","sort_rank":380,"kind_detail":"primary","kind":"major_road","source":"openstreetmap.org","min_zoom":8.0,"bus_shield_text":"\u0637\u0631\u064a\u0642 \u0627\u0644\u0628\u0627\u0628","ref":"212"},"arcs":[[472],[473],[474],[475]]},{"type":"MultiLineString","properties":{"bus_network":null,"sort_rank":380,"kind_detail":"primary","kind":"major_road","source":"openstreetmap.org","min_zoom":8.0,"bus_shield_text":"2 \u0627\u0644\u062f\u0627\u0626\u0631\u064a \u0627\u0644\u0634\u0645\u0627\u0644\u064a","landuse_kind":"urban_area"},"arcs":[[476],[477],[478],[479],[480],[481],[482]]},{"type":"MultiLineString","properties":{"source":"openstreetmap.org","kind":"major_road","name:en":"Rosin Street","landuse_kind":"urban_area","sort_rank":380,"kind_detail":"primary","min_zoom":8.0},"arcs":[[483],[484]]},{"type":"LineString","properties":{"kind":"major_road","network":"Arab_Mashreq_International_Road_Network","sort_rank":381,"kind_detail":"trunk","source":"openstreetmap.org","min_zoom":8.0,"shield_text":"10","ref":"M4","id":171562490},"arcs":[485]},{"type":"MultiLineString","properties":{"bus_network":"\u0627\u0644\u0634\u0631\u0643\u0629 \u0627\u0644\u0639\u0627\u0645\u0629 \u0644\u0644\u0646\u0642\u0644 \u0627\u0644\u062f\u0627\u062e\u0644\u064a \u0628\u062d\u0644\u0628","sort_rank":381,"landuse_kind":"urban_area","kind":"major_road","source":"openstreetmap.org","min_zoom":8.0,"bus_shield_text":"\u0627\u0644\u0628\u0644\u0644\u064a\u0631\u0645\u0648\u0646 \u0627\u0644\u0635\u0627\u062e\u0648\u0631","kind_detail":"trunk"},"arcs":[[486],[487],[488],[489],[490],[491]]},{"type":"MultiLineString","properties":{"source":"openstreetmap.org","kind":"major_road","name:en":"Airport Road","landuse_kind":"urban_area","sort_rank":380,"kind_detail":"primary","min_zoom":8.0},"arcs":[[492],[493]]},{"type":"MultiLineString","properties":{"source":"openstreetmap.org","kind":"major_road","name:en":"Baballa Street","landuse_kind":"urban_area","sort_rank":380,"kind_detail":"primary","min_zoom":8.0},"arcs":[[494],[495]]},{"type":"MultiLineString","properties":{"source":"openstreetmap.org","kind":"major_road","landuse_kind":"residential","sort_rank":380,"kind_detail":"primary","min_zoom":8.0},"arcs":[[496],[497],[498],[499],[500],[501],[502],[503],[504],[505],[506],[507],[508],[509],[510],[511],[512],[513],[514],[515]]},{"type":"MultiLineString","properties":{"bus_network":"\u0627\u0644\u0634\u0631\u0643\u0629 \u0627\u0644\u0639\u0627\u0645\u0629 \u0644\u0644\u0646\u0642\u0644 \u0627\u0644\u062f\u0627\u062e\u0644\u064a \u0628\u062d\u0644\u0628","sort_rank":381,"landuse_kind":"urban_area","kind":"major_road","source":"openstreetmap.org","min_zoom":8.0,"bus_shield_text":"\u0627\u0644\u062d\u0645\u062f\u0627\u0646\u064a\u0629 \u063a\u0631\u0628\u064a","kind_detail":"trunk","ref":"214"},"arcs":[[516],[517]]},{"type":"LineString","properties":{"source":"openstreetmap.org","kind":"major_road","bus_shield_text":"\u0627\u0644\u0628\u0644\u0644\u064a\u0631\u0645\u0648\u0646 \u0627\u0644\u0635\u0627\u062e\u0648\u0631","sort_rank":381,"kind_detail":"trunk","min_zoom":8.0,"bus_network":"\u0627\u0644\u0634\u0631\u0643\u0629 \u0627\u0644\u0639\u0627\u0645\u0629 \u0644\u0644\u0646\u0642\u0644 \u0627\u0644\u062f\u0627\u062e\u0644\u064a \u0628\u062d\u0644\u0628"},"arcs":[518]},{"type":"MultiLineString","properties":{"bus_network":"\u0627\u0644\u0634\u0631\u0643\u0629 \u0627\u0644\u0639\u0627\u0645\u0629 \u0644\u0644\u0646\u0642\u0644 \u0627\u0644\u062f\u0627\u062e\u0644\u064a \u0628\u062d\u0644\u0628","sort_rank":380,"kind_detail":"primary","kind":"major_road","source":"openstreetmap.org","min_zoom":8.0,"bus_shield_text":"\u0627\u0644\u0628\u0644\u0644\u064a\u0631\u0645\u0648\u0646 \u0627\u0644\u0635\u0627\u062e\u0648\u0631","landuse_kind":"urban_area"},"arcs":[[519],[520]]},{"type":"MultiLineString","properties":{"bus_network":"\u0627\u0644\u0634\u0631\u0643\u0629 \u0627\u0644\u0639\u0627\u0645\u0629 \u0644\u0644\u0646\u0642\u0644 \u0627\u0644\u062f\u0627\u062e\u0644\u064a \u0628\u062d\u0644\u0628","sort_rank":380,"kind_detail":"primary","kind":"major_road","source":"openstreetmap.org","min_zoom":8.0,"bus_shield_text":"\u0627\u0644\u062d\u0645\u062f\u0627\u0646\u064a\u0629 \u063a\u0631\u0628\u064a","landuse_kind":"urban_area"},"arcs":[[521],[522],[523],[524],[525],[526]]},{"type":"MultiLineString","properties":{"source":"openstreetmap.org","kind":"major_road","name:en":"Maysalun Bridge","landuse_kind":"urban_area","sort_rank":380,"kind_detail":"primary","min_zoom":8.0},"arcs":[[527],[528]]},{"type":"MultiLineString","properties":{"bus_network":"\u0627\u0644\u0634\u0631\u0643\u0629 \u0627\u0644\u0639\u0627\u0645\u0629 \u0644\u0644\u0646\u0642\u0644 \u0627\u0644\u062f\u0627\u062e\u0644\u064a \u0628\u062d\u0644\u0628","name:en":"Izz ad-Din al-Qassam","sort_rank":381,"landuse_kind":"urban_area","kind":"major_road","source":"openstreetmap.org","min_zoom":8.0,"bus_shield_text":"\u0645\u062f\u064a\u0646\u0629 \u0647\u0646\u0627\u0646\u0648","kind_detail":"trunk"},"arcs":[[529],[530],[531]]},{"type":"LineString","properties":{"kind":"major_road","network":"e-road","sort_rank":381,"kind_detail":"trunk","source":"openstreetmap.org","min_zoom":8.0,"landuse_kind":"urban_area","shield_text":"98","ref":"D827","id":185523731},"arcs":[532]},{"type":"LineString","properties":{"kind":"major_road","name:en":"Rosin Street","sort_rank":380,"kind_detail":"primary","bus_network":null,"source":"openstreetmap.org","min_zoom":8.0,"bus_shield_text":"2 \u0627\u0644\u062f\u0627\u0626\u0631\u064a \u0627\u0644\u0634\u0645\u0627\u0644\u064a","landuse_kind":"urban_area","id":312513015},"arcs":[533]},{"type":"LineString","properties":{"kind":"major_road","sort_rank":381,"kind_detail":"trunk","bus_network":"\u0627\u0644\u0634\u0631\u0643\u0629 \u0627\u0644\u0639\u0627\u0645\u0629 \u0644\u0644\u0646\u0642\u0644 \u0627\u0644\u062f\u0627\u062e\u0644\u064a \u0628\u062d\u0644\u0628","source":"openstreetmap.org","min_zoom":8.0,"bus_shield_text":"\u0627\u0644\u0628\u0644\u0644\u064a\u0631\u0645\u0648\u0646 \u0627\u0644\u0635\u0627\u062e\u0648\u0631","landuse_kind":"urban_area","ref":"214","id":24874419},"arcs":[534]},{"type":"LineString","properties":{"source":"openstreetmap.org","kind":"major_road","sort_rank":380,"kind_detail":"primary","ref":"ESCWA,ITSAM","min_zoom":8.0},"arcs":[535]},{"type":"MultiLineString","properties":{"source":"openstreetmap.org","kind":"major_road","landuse_kind":"residential","sort_rank":380,"kind_detail":"primary","ref":"216","min_zoom":8.0},"arcs":[[536],[537],[538],[539],[540],[541],[542],[543],[544],[545],[546],[547]]},{"type":"MultiLineString","properties":{"bus_network":"\u0627\u0644\u0634\u0631\u0643\u0629 \u0627\u0644\u0639\u0627\u0645\u0629 \u0644\u0644\u0646\u0642\u0644 \u0627\u0644\u062f\u0627\u062e\u0644\u064a \u0628\u062d\u0644\u0628","sort_rank":380,"kind_detail":"primary","kind":"major_road","source":"openstreetmap.org","min_zoom":8.0,"bus_shield_text":"\u0627\u0644\u0623\u0634\u0631\u0641\u064a\u0629","landuse_kind":"urban_area"},"arcs":[[548],[549]]},{"type":"LineString","properties":{"kind":"major_road","name:en":"Roundabout Alsakhur","sort_rank":380,"kind_detail":"primary","bus_network":"\u0627\u0644\u0634\u0631\u0643\u0629 \u0627\u0644\u0639\u0627\u0645\u0629 \u0644\u0644\u0646\u0642\u0644 \u0627\u0644\u062f\u0627\u062e\u0644\u064a \u0628\u062d\u0644\u0628","source":"openstreetmap.org","min_zoom":8.0,"bus_shield_text":"\u0645\u062f\u064a\u0646\u0629 \u0647\u0646\u0627\u0646\u0648","landuse_kind":"urban_area","id":314666443},"arcs":[550]},{"type":"MultiLineString","properties":{"source":"openstreetmap.org","kind":"major_road","name:en":"Abdelkader Algerian","kind_detail":"trunk","sort_rank":381,"landuse_kind":"urban_area","min_zoom":8.0},"arcs":[[551],[552]]},{"type":"MultiLineString","properties":{"source":"openstreetmap.org","kind":"major_road","kind_detail":"trunk","sort_rank":381,"landuse_kind":"urban_area","ref":"214","min_zoom":8.0},"arcs":[[553],[554],[555],[556]]},{"type":"MultiLineString","properties":{"bus_network":"\u0627\u0644\u0634\u0631\u0643\u0629 \u0627\u0644\u0639\u0627\u0645\u0629 \u0644\u0644\u0646\u0642\u0644 \u0627\u0644\u062f\u0627\u062e\u0644\u064a \u0628\u062d\u0644\u0628","sort_rank":381,"landuse_kind":"urban_area","kind":"major_road","source":"openstreetmap.org","min_zoom":8.0,"bus_shield_text":"\u0643\u0631\u0627\u062c \u0627\u0644\u0628\u0648\u0644\u0645\u0627\u0646","kind_detail":"trunk","ref":"214"},"arcs":[[557],[558]]},{"type":"LineString","properties":{"kind":"major_road","name:en":"Khaled Ibn al-Waleed Road","sort_rank":381,"landuse_kind":"urban_area","source":"openstreetmap.org","min_zoom":8.0,"kind_detail":"trunk","id":314008837},"arcs":[559]},{"type":"LineString","properties":{"source":"openstreetmap.org","kind":"major_road","name:en":"Nazlat Righteous","sort_rank":380,"kind_detail":"primary","min_zoom":8.0,"id":29505932},"arcs":[560]},{"type":"MultiLineString","properties":{"kind":"major_road","name:en":"Roundabout Alsakhur","sort_rank":380,"kind_detail":"primary","bus_network":"\u0627\u0644\u0634\u0631\u0643\u0629 \u0627\u0644\u0639\u0627\u0645\u0629 \u0644\u0644\u0646\u0642\u0644 \u0627\u0644\u062f\u0627\u062e\u0644\u064a \u0628\u062d\u0644\u0628","source":"openstreetmap.org","min_zoom":8.0,"bus_shield_text":"1 \u0627\u0644\u062f\u0627\u0626\u0631\u064a \u0627\u0644\u062c\u0646\u0648\u0628\u064a","landuse_kind":"urban_area"},"arcs":[[561],[562]]},{"type":"MultiLineString","properties":{"bus_network":"\u0627\u0644\u0634\u0631\u0643\u0629 \u0627\u0644\u0639\u0627\u0645\u0629 \u0644\u0644\u0646\u0642\u0644 \u0627\u0644\u062f\u0627\u062e\u0644\u064a \u0628\u062d\u0644\u0628","sort_rank":380,"kind_detail":"primary","kind":"major_road","source":"openstreetmap.org","min_zoom":8.0,"bus_shield_text":"\u0627\u0644\u0628\u0644\u0644\u064a\u0631\u0645\u0648\u0646","landuse_kind":"urban_area"},"arcs":[[563],[564],[565]]},{"type":"LineString","properties":{"source":"openstreetmap.org","kind":"major_road","sort_rank":381,"kind_detail":"trunk","ref":"212","min_zoom":8.0,"id":206863371},"arcs":[566]},{"type":"MultiLineString","properties":{"bus_network":"\u0627\u0644\u0634\u0631\u0643\u0629 \u0627\u0644\u0639\u0627\u0645\u0629 \u0644\u0644\u0646\u0642\u0644 \u0627\u0644\u062f\u0627\u062e\u0644\u064a \u0628\u062d\u0644\u0628","name:en":"Airport Road","sort_rank":381,"landuse_kind":"urban_area","kind":"major_road","source":"openstreetmap.org","min_zoom":8.0,"bus_shield_text":"\u0637\u0631\u064a\u0642 \u0627\u0644\u0628\u0627\u0628","kind_detail":"trunk"},"arcs":[[567],[568]]},{"type":"MultiLineString","properties":{"source":"openstreetmap.org","kind":"major_road","name:en":"Jafar Sadeq Street","kind_detail":"primary","sort_rank":380,"landuse_kind":"urban_area","min_zoom":8.0},"arcs":[[569],[570]]},{"type":"MultiLineString","properties":{"source":"openstreetmap.org","kind":"major_road","name:en":"Muhammad Bek Street","landuse_kind":"urban_area","sort_rank":380,"kind_detail":"primary","min_zoom":8.0},"arcs":[[571],[572]]},{"type":"LineString","properties":{"source":"openstreetmap.org","kind":"major_road","sort_rank":381,"kind_detail":"trunk","ref":"4NN","min_zoom":8.0,"id":496991171},"arcs":[573]},{"type":"MultiLineString","properties":{"source":"openstreetmap.org","kind":"major_road","name:en":"Airport Road","kind_detail":"trunk","sort_rank":381,"landuse_kind":"urban_area","min_zoom":8.0},"arcs":[[574],[575],[576],[577]]},{"type":"MultiLineString","properties":{"bus_network":"\u0645\u062d\u0627\u0641\u0638\u0629 \u062d\u0644\u0628","sort_rank":380,"kind_detail":"primary","kind":"major_road","source":"openstreetmap.org","min_zoom":8.0,"bus_shield_text":"\u062d\u0644\u0628 - \u0645\u0631\u0627\u0646","ref":"212"},"arcs":[[578],[579],[580]]},{"type":"MultiLineString","properties":{"source":"openstreetmap.org","kind":"major_road","sort_rank":380,"kind_detail":"primary","ref":"216","min_zoom":8.0},"arcs":[[581],[582],[583]]},{"type":"MultiLineString","properties":{"kind":"major_road","network":"e-road","sort_rank":381,"kind_detail":"trunk","source":"openstreetmap.org","min_zoom":8.0,"shield_text":"98","ref":"D827"},"arcs":[[584],[585]]},{"type":"LineString","properties":{"kind":"major_road","name:en":"Rosin Street","sort_rank":380,"kind_detail":"primary","bus_network":"\u0627\u0644\u0634\u0631\u0643\u0629 \u0627\u0644\u0639\u0627\u0645\u0629 \u0644\u0644\u0646\u0642\u0644 \u0627\u0644\u062f\u0627\u062e\u0644\u064a \u0628\u062d\u0644\u0628","source":"openstreetmap.org","min_zoom":8.0,"bus_shield_text":"2 \u0627\u0644\u062f\u0627\u0626\u0631\u064a \u0627\u0644\u0634\u0645\u0627\u0644\u064a","landuse_kind":"urban_area","id":313966023},"arcs":[586]},{"type":"MultiLineString","properties":{"source":"openstreetmap.org","kind":"highway","landuse_kind":"military","sort_rank":383,"kind_detail":"motorway","ref":"M5","min_zoom":8.0},"arcs":[[587],[588]]}]},"earth":{"type":"GeometryCollection","geometries":[{"type":"Polygon","properties":{"sort_rank":10,"source":"naturalearthdata.com","min_zoom":0.0,"kind":"earth","area":98022885885},"arcs":[[589]]}]},"landuse":{"type":"GeometryCollection","geometries":[{"type":"MultiPolygon","properties":{"source":"openstreetmap.org","kind":"military","tier":3,"area":212986851,"sort_rank":45,"min_zoom":8.0},"arcs":[[[590]],[[591]],[[592]],[[593]]]},{"type":"MultiPolygon","properties":{"source":"naturalearthdata.com","kind":"urban_area","name":"","area":986910929,"sort_rank":11,"min_zoom":4.0},"arcs":[[[594]],[[595]],[[596]],[[597]],[[598]],[[599]],[[600]]]},{"type":"Polygon","properties":{"source":"openstreetmap.org","kind":"aerodrome","area":11319800,"tier":3,"id":130717242,"min_zoom":8.0,"sort_rank":60},"arcs":[[601]]},{"type":"MultiPolygon","properties":{"source":"openstreetmap.org","kind":"residential","tier":2,"area":76014303,"sort_rank":20,"min_zoom":8.0},"arcs":[[[602]],[[603]],[[604]]]},{"type":"Polygon","properties":{"kind":"residential","name":"\u0627\u0644\u0633\u0641\u064a\u0631\u0629","area":17422900,"sort_rank":20,"source":"openstreetmap.org","min_zoom":8.0,"tier":2,"id":370728824},"arcs":[[605]]}]}},"type":"Topology","transform":{"translate":[36.5625,35.4606699515],"scale":[0.0003433228,0.0002776414]},"arcs":[[[0,3524],[11,-72],[27,-11],[31,-88],[58,2],[0,-52],[-27,-19],[64,-54],[-57,-28],[17,-81],[25,38],[40,-2],[7,27],[35,-32],[45,6],[24,-43],[-32,-48],[5,-51],[111,-8],[4,-19],[-45,-53],[43,-110],[-41,-22],[3,-25],[-52,10],[8,-21],[-31,-1],[-97,34],[18,-22],[-13,-65],[-181,83]],[[68,4096],[16,-44],[-84,-245]],[[0,2797],[181,-83],[13,65],[-18,22],[97,-34],[31,1],[-8,21],[52,-10],[-3,25],[41,22],[-43,110],[43,69],[-113,11],[-5,51],[32,48]],[[300,3115],[-24,43],[-45,-6],[-33,33],[-74,-64],[-17,81],[57,28],[-64,54],[27,19],[0,52],[-58,-2],[-31,88],[-27,11],[-11,72]],[[0,3807],[84,245],[-16,44]],[[1578,0],[1,52],[36,13],[76,-47],[86,151],[-12,49],[46,8],[30,70],[63,30]],[[1904,326],[-134,57],[-55,62],[-73,31],[-60,101],[-44,10],[-4,100],[-49,65],[-49,166],[117,95],[13,91],[-110,77],[-57,74],[-114,29],[-96,119],[-13,78],[-229,351],[-31,242],[-355,182],[-21,73],[-53,47],[-14,34],[24,45],[113,83],[188,196],[22,47],[-12,50],[-100,130],[-79,58],[-15,92],[-30,35],[-122,-39],[-162,8]],[[3610,0],[-49,95],[-153,0],[1,-58],[-387,-9],[-294,30],[-8,106],[-33,74],[-121,101],[-73,28],[-100,-70],[7,-99],[-50,23],[-64,-28],[-32,31],[-22,-14],[-40,43],[26,12],[4,52],[-60,-8],[-9,31],[-51,-55],[-67,-8],[-29,10],[-48,99],[-37,-7],[-17,-53]],[[1747,2859],[-70,10],[-30,-33]],[[1610,2691],[-15,0]],[[1611,2691],[-1,-1],[1,0],[0,1]],[[1641,2696],[-30,-5]],[[1653,2699],[-10,-1]],[[1730,2757],[-61,-45]],[[1746,2744]],[[1794,2684],[2,37]],[[1834,2763],[-1,1]],[[1855,2707],[-11,5]],[[1595,2662],[2,0]],[[1740,2610],[-28,-4]],[[1712,2606],[28,4]],[[1741,2610],[48,28]],[[1788,2638],[-46,-28]],[[175,2816],[-92,56]],[[1716,2672],[-7,0]],[[83,2872],[-83,106]],[[2762,3310],[-17,36],[16,-36]],[[1638,2687],[-1,-17],[6,-6],[-1,-14],[8,-32],[2,-5]],[[1652,2613],[2,-3]],[[1654,2610],[0,-1],[39,-13],[19,10]],[[1712,2606],[-13,-5],[-6,-4],[-33,11],[-5,1],[-1,1]],[[1654,2610],[-1,0],[-1,3]],[[1652,2613],[-10,37],[2,6],[-1,8],[-5,23]],[[1642,2696],[2,1]],[[1790,2660],[-1,-21]],[[1790,2639],[1,21]],[[1791,2662]],[[1801,2709],[-2,-7]],[[1800,2710]],[[1800,2702],[1,7]],[[1789,2639],[-1,-1]],[[1789,2638],[1,1]],[[1064,2003],[-301,-475],[-45,-98],[-31,-36],[-2,-4]],[[685,1390],[-11,-15]],[[674,1375],[-29,-44],[-157,-493]],[[488,838],[0,-2],[-83,-87]],[[405,749],[-27,-29],[-85,-181]],[[293,539],[-20,-42]],[[273,497],[-2,-4],[14,-264],[-24,-229]],[[262,0],[24,229],[-13,268]],[[273,497],[0,5],[20,37]],[[293,539],[112,210]],[[405,749],[17,30],[66,59]],[[488,838],[2,1],[184,536]],[[674,1375],[2,5],[9,10]],[[685,1390],[34,40],[337,559]],[[1547,2610],[-41,-22]],[[1506,2588],[-94,-51]],[[1412,2537],[-12,-7],[-299,-468]],[[1102,2062],[95,151],[141,210],[0,1],[74,113]],[[1412,2537],[5,7],[89,44]],[[1506,2588],[41,20]],[[1571,2623],[-24,-13]],[[1547,2608],[25,13]],[[1610,2711],[-24,1]],[[1586,2712],[4,0]],[[1646,2710],[-35,1]],[[1792,2661],[2,23]],[[63,2812],[112,4],[-111,-4]],[[1879,2875],[-16,-65]],[[1863,2810],[16,64]],[[1585,2712],[4,-19]],[[1547,2559],[-64,8]],[[1698,2515],[126,-10]],[[1866,2546],[-6,-31],[-35,-9]],[[1876,2623],[-10,-76]],[[1866,2547],[10,76],[60,18]],[[1647,2836],[-35,-43]],[[1882,2889],[-3,-14]],[[1879,2874],[4,15]],[[1910,2959],[-15,-54]],[[1896,2904],[14,55]],[[2241,3429],[-80,-160],[-251,-310]],[[4096,2041],[-35,22]],[[4061,2063],[-2,1],[-47,119]],[[4012,2183],[-22,56],[-45,39]],[[3945,2278],[-12,10]],[[3933,2288],[-8,7],[-381,97],[-218,125],[-34,13],[-7,2]],[[3285,2532],[-30,9]],[[3255,2541],[-52,17],[-265,-41]],[[2938,2517],[-2,0],[-50,20]],[[2886,2537],[-48,20],[-1,0],[-420,51],[-273,26],[-202,7],[-66,-18]],[[2012,2638],[825,-82],[1,0],[48,-19]],[[2886,2537],[52,-20]],[[2938,2517],[3,-1],[261,41],[53,-16]],[[3255,2541],[23,-7],[7,-2]],[[3285,2532],[7,-3],[2,-1],[32,-12],[218,-124],[290,-90],[99,-14]],[[3933,2288],[5,0],[7,-10]],[[3945,2278],[67,-95]],[[4012,2183],[13,-17],[36,-103]],[[4061,2063],[2,-4],[33,-23]],[[1597,2664],[-2,0]],[[1704,2604],[2,1],[-2,2],[-1,-2],[1,-1]],[[1871,2700],[-4,-1]],[[1868,2697],[3,1]],[[1939,2719],[-64,-18]],[[1881,2701],[58,18]],[[318,1671],[286,-98],[79,-154]],[[683,1419],[-26,75],[-52,80],[-286,97]],[[689,1407],[-6,12]],[[1581,2822],[-234,416],[-10,151]],[[1337,3389],[-2,37],[54,228]],[[1389,3654],[0,3],[-2,11]],[[1387,3668],[-14,90]],[[1373,3758],[-10,58],[-74,165]],[[1289,3981],[0,1]],[[1311,3997],[24,16]],[[1335,4013],[-24,-16]],[[1311,3997],[-22,-14],[0,-2]],[[1289,3981],[84,-223]],[[1373,3758],[8,-24],[6,-66]],[[1387,3668],[2,-14]],[[1389,3654],[0,-1],[-44,-185],[-8,-79]],[[1337,3389],[-7,-70],[17,-83],[203,-366]],[[1472,2566],[10,0]],[[1483,2567],[-2,0]],[[1498,2561],[49,-4]],[[1660,2857],[1,-1]],[[1662,2858],[0,1]],[[1697,2516],[1,-1]],[[1825,2506],[-1,-1],[-57,5]],[[1767,2510],[-13,1]],[[1754,2511]],[[1754,2511],[-55,5],[-2,0]],[[1753,2495],[1,16]],[[1754,2511],[1,1],[0,13]],[[1755,2525],[0,2],[-1,-15],[0,-1]],[[1754,2511],[-1,-16]],[[1753,2496],[19,12]],[[1768,2510],[-1,0]],[[1767,2510],[-12,15]],[[1755,2525]],[[1824,2505],[37,10],[5,32]],[[1866,2547],[0,-1]],[[2097,2642],[-4,-4]],[[2093,2637],[5,5]],[[2153,2736],[0,-1]],[[2248,2734]],[[2717,3214],[2,-1]],[[2761,3310],[-41,-7],[-2,-87]],[[2718,3215],[7,-23]],[[2800,3221],[-75,-28],[-6,22]],[[2719,3216],[1,87],[41,7]],[[4071,3790],[1,-3]],[[4076,3789],[-1,2]],[[4076,3789],[-2,3],[-3,-2],[2,-3],[3,2]],[[2718,3215],[1,0],[0,1],[-1,-1]],[[2762,3310],[-1,0],[1,0]],[[2803,3222],[5,-1],[4,4],[-5,2],[-4,-5]],[[1751,2857],[-4,2]],[[2834,3309],[-72,1]],[[2762,3310],[72,-2]],[[1649,2836],[30,33],[68,-11]],[[0,1199],[115,78]],[[115,1277],[-91,-59]],[[116,1278],[35,23]],[[1705,2686],[1,3]],[[31,2811],[32,1]],[[64,2812],[-32,-1]],[[1788,2638],[1,0]],[[1790,2639],[-1,0]],[[151,1301],[72,56]],[[223,1357],[82,65],[454,97],[10,16]],[[763,1528],[-461,-106],[-79,-65]],[[223,1357],[-65,-53]],[[2800,3221],[-174,-91],[-67,-98],[-91,-37],[-227,-267],[-122,-5],[-22,-81]],[[3936,3774],[-203,-20],[-348,-114],[-467,-370],[-102,-43]],[[4034,3784],[-98,-10]],[[4069,3787],[-9,-1]],[[4078,3791],[18,13]],[[230,1742],[28,-11]],[[259,1733],[-28,10]],[[248,1687],[-5,-10]],[[243,1677],[5,10]],[[249,1693],[-1,-5]],[[249,1687],[12,4]],[[253,1693],[6,40]],[[275,1779],[-16,-46]],[[259,1733],[0,-41]],[[379,2080],[-97,-280]],[[936,3821],[-36,-41]],[[900,3780],[36,41]],[[1011,3928],[-75,-107]],[[1377,4039],[13,8]],[[1389,4048],[-11,-8]],[[1395,4051],[-5,-3]],[[1391,4047],[4,3]],[[1396,4051],[21,20]],[[1417,4071],[0,1]],[[1427,4091],[-10,-20]],[[1418,4071],[9,20]],[[1420,4072],[1,0]],[[1427,4091],[1,1]],[[1587,2712],[-1,1]],[[1586,2762],[8,-3]],[[1587,2709],[1,3]],[[1588,2712]],[[1595,2691],[-4,0]],[[1591,2691],[-1,0]],[[1590,2690],[2,0]],[[1592,2690],[18,1]],[[1592,2691],[-1,0]],[[1591,2691],[-1,1]],[[1591,2689],[1,1]],[[1592,2690],[0,1]],[[1595,2759],[31,-10]],[[1627,2749],[-32,10]],[[1615,2602],[-3,3]],[[1613,2600],[2,2]],[[1652,2613],[-37,-11]],[[1627,2750],[1,-1]],[[1628,2749],[12,-4]],[[1636,2709],[0,-1]],[[1636,2708],[0,1]],[[1638,2687]],[[1640,2745],[1,0]],[[1640,2745]],[[1643,2698],[-2,-2]],[[1641,2744],[22,-6]],[[1643,2661]],[[1646,2662],[1,0],[0,1]],[[1647,2663],[1,1]],[[1648,2664],[3,3],[1,1],[13,2],[-13,-2],[-8,-6],[-1,-9]],[[1643,2653],[1,8]],[[1643,2663],[0,-1]],[[1643,2698],[1,-2]],[[1646,2766],[-1,0]],[[1645,2661],[14,0]],[[1659,2661],[-12,2]],[[1647,2663],[-2,0]],[[1645,2764],[1,1]],[[1648,2663],[0,1]],[[1648,2664]],[[1653,2699],[-5,11]],[[1676,2665],[0,-1]],[[1692,2597],[0,-1]],[[1693,2597],[0,-1]],[[1703,2605],[-5,-5]],[[1698,2600],[6,4]],[[1699,2732]],[[1703,2690],[0,-1]],[[1704,2659],[1,18]],[[1705,2606],[-1,1]],[[1712,2739],[1,-1]],[[1742,2711],[1,0]],[[1743,2711],[4,-2]],[[1746,2744],[-1,-1]],[[1745,2743],[1,1]],[[1747,2744],[0,-1]],[[1774,2703],[-1,-1]],[[1776,2702],[-1,1]],[[1789,2881],[-11,-41]],[[1779,2839],[11,43]],[[1780,2670]],[[1780,2670]],[[1790,2662],[-10,8]],[[1815,2710],[-27,-3]],[[1788,2707],[27,2]],[[1789,2638],[37,-6]],[[1826,2632],[-36,7]],[[1790,2662],[0,-1]],[[1791,2662],[-1,0]],[[1799,2694],[-2,0]],[[1799,2700],[-1,-6]],[[1833,2764],[2,3]],[[1861,2809],[1,0]],[[1862,2809],[1,0]],[[1861,2810],[2,0],[-1,-1]],[[1862,2809],[0,-2]],[[1863,2809],[0,1]],[[2263,2300],[18,-35]],[[249,1687],[0,1],[-1,0],[0,-1],[1,0]],[[899,3780],[1,0],[-1,0]],[[1390,4048],[-1,-1],[2,0],[0,1],[-1,0]],[[1396,4051],[-1,0],[1,0]],[[1594,2759],[1,0],[-1,0]],[[1740,2610],[1,0],[1,0],[-2,0]],[[1765,2642],[-2,0],[1,-2],[1,0],[0,2]],[[1780,2670],[-1,1],[0,-1],[1,0]],[[1802,2709],[34,-1]],[[1833,2709],[-31,2]],[[1779,2671],[-17,6]],[[1763,2676],[16,-6]],[[1550,2870],[31,-48]],[[24,1218],[-24,-18]],[[154,1303],[-39,-26]],[[115,1277],[1,1]],[[1832,2764],[4,-21]],[[1838,2741],[-4,22]],[[1839,2734],[0,3]],[[1751,2709],[-9,2]],[[1747,2709],[4,0]],[[1761,2708],[39,2]],[[1800,2711],[-39,-3]],[[1594,2759],[-8,3]],[[1663,2739],[-36,11]],[[1741,2610],[-15,-76]],[[1603,2637],[-1,-1]],[[1797,2694],[2,6]],[[1644,2697],[9,1]],[[1654,2699],[-1,0]],[[1704,2678],[12,-7]],[[1705,2677],[0,9]],[[1702,2686],[3,0]],[[149,1714],[4,-73],[56,-28]],[[212,1750],[-62,-34]],[[150,1716],[-1,0]],[[149,1716]],[[150,1716],[62,33]],[[208,1614],[-55,27],[-3,73]],[[210,1613],[33,64]],[[243,1677],[-33,-63]],[[231,1743],[-17,7]],[[214,1749],[16,-7]],[[282,1800],[-7,-21]],[[349,2781],[19,-4]],[[368,2778],[-19,3]],[[369,2777],[113,-108]],[[499,2624],[20,-95],[-45,-91],[3,-124],[-98,-234]],[[482,2669],[8,-21]],[[495,2649],[-13,20]],[[491,2645],[8,-21]],[[499,2624],[-4,22]],[[1286,3984],[-83,50],[-130,-20],[-62,-86]],[[1286,3984],[3,-3]],[[1289,3982],[-3,2]],[[2124,0],[34,91],[42,197],[-269,233],[-36,89],[-237,262],[115,175],[246,202],[-134,216],[-97,250],[-61,328],[-17,300],[17,56]],[[1701,2462],[-3,-1]],[[1698,2461],[-22,-7],[-42,50]],[[1659,875],[3,6]],[[1693,2464],[5,-3]],[[1698,2461],[22,-16],[4,0]],[[1724,2445],[12,2],[57,-28],[199,0],[32,-75]],[[1720,2504],[4,-59]],[[1724,2445],[3,-44]],[[1801,2925],[-12,-44]],[[1790,2882],[18,49]],[[1801,2926]],[[1808,2931],[-7,-5]],[[1802,2926],[-1,0]],[[1802,2926],[-1,0]],[[1801,2926],[0,-1],[1,0],[0,1]],[[1808,2931],[45,40],[36,152]],[[1826,2632],[41,-7]],[[1867,2625],[-41,7]],[[1877,2623],[-10,2]],[[1871,2696],[0,3]],[[1877,2623],[16,-5]],[[1894,2903],[-11,-13]],[[1883,2889],[12,14]],[[1895,2617],[-2,1]],[[1895,2617],[11,-1]],[[1906,2617],[-11,0]],[[1906,2616],[29,-4]],[[1935,2614],[-29,3]],[[1910,2954],[106,-45]],[[2017,2912],[-107,43]],[[1936,2612],[14,0]],[[1950,2612],[-13,1]],[[2147,2605],[-197,7]],[[1954,3111],[47,-41]],[[2016,2909],[54,-25]],[[2071,2887],[-53,25]],[[2072,2883],[32,-50]],[[2106,2834],[-33,52]],[[2105,2830],[12,-51]],[[2118,2780],[-11,52]],[[2235,2366],[28,-66]],[[2281,2265],[61,-76]],[[2359,2167],[2,-65],[545,-270],[89,-125],[-9,-136],[-42,-120],[-191,-273]],[[2745,3346],[-20,48],[-74,58],[-51,108],[-81,386],[30,150]],[[2735,1164],[0,-26]],[[2735,1138],[0,25]],[[2735,1138],[133,-275],[131,-147],[230,-387],[102,-275],[29,-54]],[[2753,1178],[-18,-14]],[[2736,1163],[17,15]],[[2920,4096],[32,-70],[85,-59],[39,-171],[-114,-156],[12,-56],[-49,-105]],[[3908,3800],[-520,-144]],[[3908,3800],[6,1]],[[3913,3802],[-5,-2]],[[3914,3801],[1,0],[0,1]],[[3915,3802],[-1,0],[0,-1]],[[3916,3803],[-1,-1]],[[3915,3801]],[[4073,3787],[2,-3]],[[4075,3784],[0,4]],[[4075,3784],[21,-68]],[[149,1716]],[[149,1716],[0,-1],[1,-1]],[[150,1714],[1,1],[-1,1]],[[150,1716],[-1,0]],[[210,1613],[-1,1],[-1,0],[1,-1],[1,0]],[[213,1750],[-1,-1],[1,0],[1,1],[-1,0]],[[368,2778],[0,-1],[1,1],[-1,1],[0,-1]],[[490,2647],[3,-3],[2,3],[-3,3],[-2,-3]],[[1883,2890],[-1,-1],[1,0],[0,1]],[[1895,2905],[-1,-1],[1,-1],[1,1],[-1,1]],[[1906,2617]],[[1906,2617],[0,-1],[0,1]],[[2015,2910],[1,-1]],[[2016,2909],[2,1],[-1,2]],[[2017,2912],[-2,-2]],[[2074,2885],[-2,2],[-2,-1],[1,-3],[3,2]],[[2106,2830],[1,3],[-2,1],[-2,-2],[3,-2]],[[2736,1164],[-1,0]],[[2735,1164],[0,-1],[1,1]],[[1794,2684],[-3,-22]],[[1627,2652],[-11,-6]],[[1616,2646],[12,5]],[[1674,2664],[-40,-9]],[[1635,2655],[31,7]],[[1678,2665],[0,1]],[[1700,2672],[3,-13]],[[2191,2842],[178,48],[346,322]],[[1936,2614],[-12,27],[-53,55]],[[1871,2695],[64,-81]],[[1611,2691],[31,5]],[[1644,2696],[30,-15]],[[1674,2681],[-31,17]],[[1702,2684],[2,-6]],[[1706,2689],[-4,-3]],[[229,1700],[89,-29]],[[319,1671],[-69,24],[-21,6]],[[1375,4040],[-40,-27]],[[1335,4013],[42,26]],[[1428,4093],[-35,-4],[-13,-9],[-7,-8],[1,-13],[1,-18]],[[1377,4041],[3,38],[13,9],[35,4],[2,4]],[[1547,2557],[150,-41]],[[1634,2655],[-19,-9],[-8,-5],[-2,-1],[-3,-2]],[[1602,2638]],[[1602,2638],[-3,-2],[-26,-12]],[[1574,2621],[25,15],[3,1]],[[1602,2637],[0,1]],[[1602,2638],[3,1],[2,2],[8,5],[20,9]],[[1611,2793],[-30,29]],[[1584,2742],[1,0]],[[1595,2664],[6,-25]],[[1602,2639],[-5,25]],[[1598,2653],[3,-14],[1,-1]],[[1602,2638],[0,-1]],[[1602,2637],[0,-1]],[[1602,2636],[2,-8]],[[1599,2653],[3,-14],[0,-1]],[[1602,2638]],[[1602,2638],[0,-2]],[[1602,2636],[3,-8]],[[1602,2636]],[[1602,2636]],[[1602,2636],[1,1]],[[1614,2791],[-2,2]],[[1697,2516],[-60,33]],[[1777,2840],[-1,-2]],[[1778,2837],[1,2]],[[1843,2714],[-3,-6]],[[1375,4041],[1,-2],[1,1],[0,1],[-2,0]],[[1637,2549],[-90,10]],[[1614,2791],[3,6]],[[1621,2803],[28,33]],[[3936,3774]],[[4060,3786],[-26,-2]],[[0,2813],[31,-2]],[[32,2811],[-32,3]],[[1875,2701],[-4,-1]],[[1871,2698],[10,3]],[[1939,2719],[1,0]],[[1942,2720],[-3,-1]],[[1590,2712],[20,-2]],[[1611,2710],[35,-1]],[[1647,2709],[6,-10]],[[1652,2699],[2,0]],[[1669,2712],[62,45]],[[1745,2743]],[[1796,2721],[-2,-37]],[[1796,2721],[5,-9]],[[1802,2712],[-6,9]],[[158,1304],[-4,-1]],[[1612,2793],[2,-2]],[[1750,2857],[54,-51]],[[1805,2808],[-28,32]],[[1806,2805],[1,1],[-2,2]],[[1805,2808],[-1,-2],[2,-1]],[[1832,2764],[1,0],[0,1],[-1,0],[0,-1]],[[1855,2707],[-22,2]],[[1836,2708],[4,0]],[[1798,2693],[-4,-9]],[[1794,2684],[4,9]],[[2342,2189],[17,-22]],[[3915,3801],[73,22]],[[3988,3823],[-72,-20]],[[4010,3831],[-20,-7]],[[3991,3823],[19,7]],[[4022,3835],[-12,-4]],[[4010,3830],[13,5]],[[4027,3837],[-4,-2]],[[4023,3835],[4,2]],[[4058,3849],[-30,-12]],[[4028,3837],[9,2]],[[4040,3879],[-1,1],[-1,-1],[1,0],[1,0]],[[4040,3879]],[[4047,3843],[25,-4]],[[4070,3841],[-12,8]],[[4070,3841]],[[4095,3849],[-25,-8]],[[4072,3840],[-2,1]],[[3990,3823],[0,1],[-2,0],[1,-2],[1,1]],[[4096,3850],[0,-2]],[[1602,2636],[4,-13]],[[1607,2622],[-4,15]],[[1747,2858],[3,-1]],[[1834,2763],[29,46],[-57,-1]],[[1807,2806],[54,3],[-28,-44]],[[1643,2661],[-16,-9]],[[1628,2651],[16,10],[0,1],[-3,4]],[[1640,2666],[3,-3]],[[1666,2662],[37,9]],[[1670,2682],[2,-1]],[[1709,2672],[-5,0],[-26,-6],[-4,-2]],[[1761,2708],[-10,1]],[[1751,2709],[10,-1]],[[1836,2743],[7,-29]],[[1839,2737],[-1,4]],[[1844,2712],[-5,22]],[[0,2978],[83,-107]],[[1745,2743],[51,-22]],[[1777,2840],[-26,17]],[[399,2760],[-30,18]],[[4035,3853],[-8,-16]],[[4028,3837],[7,16]],[[4032,3838],[5,-13]],[[4037,3825],[-5,13]],[[4034,3906],[0,5]],[[4034,3906],[5,-26]],[[4040,3880],[-6,26]],[[4035,3853],[4,26]],[[4037,3825],[25,-3]],[[4045,3863],[-5,16]],[[4062,3822],[6,-18]],[[4068,3804],[-6,18]],[[1698,2732],[1,0]],[[1703,2671],[0,-1]],[[1801,2709]],[[1806,2805],[26,-40]],[[1832,2765],[-25,40]],[[1581,2822],[29,-31]],[[1610,2790],[-21,-31],[-4,-47]],[[1589,2693],[6,-29]],[[1597,2664],[-7,95],[22,30]],[[1606,2623],[31,-74]],[[1640,2551],[-33,71]],[[1617,2797],[4,6]],[[1726,2534],[-5,-29]],[[1801,2709],[-1,1]],[[1800,2710],[1,-1]],[[1613,2789],[32,-25]],[[1646,2765],[-32,26]],[[1702,2686],[0,-2]],[[2098,2642],[21,80],[124,6],[226,267],[90,36],[67,99],[99,63]],[[1867,2699],[-2,2]],[[1866,2700],[2,-3]],[[1712,2606],[-7,0]],[[1705,2605],[7,1]],[[1765,2640],[23,-2]],[[1789,2639],[-24,3]],[[1936,2641],[76,-3]],[[1840,2708],[26,-8]],[[1865,2701],[-10,6]],[[1871,2696],[-4,3]],[[1868,2697],[3,-2]],[[1940,2719],[7,2]],[[1947,2721],[-5,-1]],[[1947,2721],[142,40],[102,81]],[[4034,3911],[-21,185]],[[4068,3804],[3,-14]],[[4074,3792],[-6,12]],[[83,2871],[91,-56],[175,-34]],[[349,2781],[-86,22],[-88,13]],[[1796,2721],[-50,23]],[[1056,1989],[46,73]],[[1101,2062],[-37,-59]],[[0,0],[0,4096],[4096,0],[0,-4096],[-4096,0]],[[3917,2299],[22,33],[153,-40],[-24,-41],[-151,48]],[[2383,1879],[33,63],[72,17],[31,-83],[-63,-62],[-51,3],[-22,62]],[[1038,1957],[60,107],[66,-29],[-6,-83],[-120,5]],[[2893,2576],[20,69],[123,-5],[-26,-56],[-117,-8]],[[2449,2404],[4,-62],[-67,2],[-71,-72],[-56,-11],[11,105],[53,16],[33,80],[71,-20],[22,-38]],[[53,2783],[-53,16],[0,215],[85,-31],[-2,-117],[-30,-83]],[[959,3703],[-112,42],[-37,44],[-13,75],[128,2],[47,22],[20,56],[55,-47],[-69,-109],[-19,-85]],[[1518,4079],[-74,-15],[-83,-65],[-46,25],[0,72],[209,0],[-6,-17]],[[668,2623],[-43,22],[-17,43],[28,96],[97,-41],[-65,-120]],[[1949,2761],[-14,-60],[-64,0],[0,-39],[-33,0],[-32,-80],[-111,-67],[-148,27],[0,200],[20,2],[12,78],[194,40],[60,73],[38,7],[7,-66],[71,-115]],[[377,1903],[11,-24],[53,24],[65,-40],[-51,-93],[-76,-78],[-94,-33],[-102,44],[96,80],[65,360],[61,-108],[-28,-132]],[[1492,965],[2,46],[154,-1],[-4,-52],[-152,7]],[[0,2953],[69,-75],[-44,-79],[-25,1],[0,153]],[[1205,3328],[16,26],[54,-36],[17,16],[60,-114],[-71,3],[2,57],[-24,0],[2,-26],[-48,7],[22,30],[-30,37]],[[4096,3878],[0,-63],[-34,-14],[-4,-34],[-47,32],[21,30],[-96,-55],[-21,28],[102,47],[-33,22],[46,17],[1,26],[30,-22],[-10,-22],[32,14],[13,-6]],[[2279,2271],[14,26],[-1,-28],[30,-23],[-24,81],[40,-32],[14,32],[7,-40],[-35,7],[0,-5],[56,-5],[55,-93],[-57,-13],[-7,-26],[-92,119]]]}