{"objects":{"water":{"type":"GeometryCollection","geometries":[]},"buildings":{"type":"GeometryCollection","geometries":[]},"places":{"type":"GeometryCollection","geometries":[{"type":"Point","properties":{"name:ka":"\u10d8\u10dd\u10e0\u10d3\u10d0\u10dc\u10d8\u10d0","name:ko":"\uc694\ub974\ub2e8","name:cv":"\u0418\u043e\u0440\u0434\u0430\u043d\u0438","name:km":"\u17a0\u17ca\u17d2\u179f\u1780\u178a\u17b6\u1793\u17b8","name:kl":"Jordani","name:cs":"Jord\u00e1nsko","name:ki":"Njorondani","name:kw":"Jordan","name:kv":"\u0418\u043e\u0440\u0434\u0430\u043d\u0438\u044f","name:ku":"Urdun","name:ti":"\u1306\u122d\u12f3\u1295","name:ks":"\u091c\u093e\u0930\u094d\u0921\u0928","name:to":"Soatane","name:tl":"Jordan","name:ta":"\u0b9c\u0bcb\u0bb0\u0bcd\u0ba4\u0bbe\u0ba9\u0bcd","name:ca":"Jord\u00e0nia","name:te":"\u0c1c\u0c4b\u0c30\u0c4d\u0c21\u0c3e\u0c28\u0c4d","name:cy":"Gwlad Iorddonen","name:hr":"Jordan","name:da":"Jordan","name:de":"Jordanien","name:dz":"\u0f47\u0f7c\u0f62\u0f0b\u0f4c\u0f53","source":"openstreetmap.org","name:kn":"\u0c9c\u0ccb\u0cb0\u0ccd\u0ca1\u0cbe\u0ca8\u0ccd","name:dv":"\u0787\u07aa\u0783\u07aa\u078b\u07aa\u0782\u07b0","name:lv":"Jord\u0101nija","name:lt":"Jordanija","name:uz":"Iordanii","name:kk":"\u0418\u043e\u0440\u0434\u0430\u043d","name:ur":"\u0627\u0631\u062f\u0646","name:lb":"Jordanien","name:la":"Iordania","name:lg":"Yorodani","name:uk":"\u0419\u043e\u0440\u0434\u0430\u043d\u0456\u044f","name:ug":"\u0626\u0649\u0626\u0648\u0631\u062f\u0627\u0646\u0649\u064a\u06d5","name:li":"Jordani\u00eb","name:ln":"Z\u0254dani","name:lo":"\u0e88\u0ecd\u0ec1\u0e94\u0e99","name:el":"\u0399\u03bf\u03c1\u03b4\u03b1\u03bd\u03af\u03b1","name:eo":"Jordanio","name:en":"Jordan","name":"\u0627\u0644\u0632\u0631\u0642\u0627\u0621","name:tk":"Iordani\u00fda","name:ee":"Yordan nutome","name:th":"\u0e1b\u0e23\u0e30\u0e40\u0e17\u0e28\u0e08\u0e2d\u0e23\u0e4c\u0e41\u0e14\u0e19","name:eu":"Jordania","name:et":"Jordaania","name:es":"Jordania","name:ia":"Jordania","name:rm":"Jordania","name:rn":"Yorudaniya","name:az":"\u0130ordaniya","name:ie":"Jordania","name:id":"Yordania","name:ar":"\u0627\u0644\u0623\u0631\u062f\u0646","name:io":"Jordania","name:ak":"Gy\u0254dan","name:am":"\u1306\u122d\u12f3\u1295","name:it":"Giordania","name:an":"Chordania","name:ru":"\u0418\u043e\u0440\u0434\u0430\u043d\u0438\u044f","name:rw":"Yorudani","name:af":"Jordani\u00eb","name:zu":"i-Jordan","name:zh-yue":"\u7d04\u65e6","name:zh":"\u7ea6\u65e6","name:so":"Urdun","name:sn":"Jordan","name:sl":"Jordanija","name:sk":"Jord\u00e1nsko","name:ja":"\u30e8\u30eb\u30c0\u30f3","name:si":"\u0da2\u0ddd\u0dbb\u0dca\u0daf\u0dcf\u0db1\u0dba","name:sh":"Jordan","name:sg":"Zordan\u00efi","name:se":"Jord\u00e1nia","name:sa":"\u091c\u093e\u0930\u094d\u0921\u0928","name:bs":"Jordan","name:bm":"Z\u0254rdani","name:bn":"\u099c\u09b0\u09cd\u09a6\u09be\u09a8","name:bo":"\u0f47\u0f7c\u0f62\u0f0b\u0f4f\u0f60\u0f53","name:br":"Jordania","name:sw":"Yordani","name:be":"\u0406\u0430\u0440\u0434\u0430\u043d\u0456\u044f","name:su":"Yordania","name:bg":"\u0419\u043e\u0440\u0434\u0430\u043d\u0438\u044f","name:ss":"IJoridane","name:ba":"\u0418\u043e\u0440\u0434\u0430\u043d\u0438\u044f","name:sq":"Jordania","name:jv":"Yordania","name:pt":"Jord\u00e2nia","name:ps":"\u0627\u0631\u062f\u0646","name:oc":"Jordania","min_zoom":2.0,"name:ro":"Iordania","name:zh-min-nan":"Iok-t\u00e0n","name:os":"\u0418\u043e\u0440\u0434\u0430\u043d\u0438","name:or":"\u0b1c\u0b4b\u0b30\u0b4d\u0b21\u0b3e\u0b28\u0b4d","name:pl":"Jordania","name:sr":"\u0408\u043e\u0440\u0434\u0430\u043d","name:pa":"\u0a1c\u0a3e\u0a30\u0a21\u0a28","name:tr":"\u00dcrd\u00fcn","name:hi":"\u091c\u093e\u0930\u094d\u0921\u0928","name:sv":"Jordanien","name:he":"\u05d9\u05e8\u05d3\u05df","name:ha":"Jordan","name:hy":"\u0540\u0578\u0580\u0564\u0561\u0576\u0561\u0576","name:ht":"J\u00f2dani","name:hu":"Jord\u00e1nia","name:qu":"Hurdanya","population":6343000,"kind":"country","name:is":"J\u00f3rdan\u00eda","name:yi":"\u05d9\u05d0\u05e8\u05d3\u05d0\u05e0\u05d9\u05e2","name:yo":"Or\u00edl\u1eb9\u0301\u00e8de J\u1ecddani","name:mt":"\u0120ordan","name:ms":"Jordan","name:mr":"\u091c\u0949\u0930\u094d\u0921\u0928","name:my":"\u1002\u103b\u1031\u102c\u103a\u1012\u1014\u103a","official_name":"\u0627\u0644\u0645\u0645\u0644\u0643\u0629 \u0627\u0644\u0623\u0631\u062f\u0646\u064a\u0629 \u0627\u0644\u0647\u0627\u0634\u0645\u064a\u0629","int_name":"Jordan - \u0627\u0644\u0623\u0631\u062f\u0646","name:mg":"Jordania","name:ml":"\u0d1c\u0d4b\u0d30\u0d4d\u200d\u0d26\u0d3e\u0d28\u0d4d\u200d","name:vi":"Jordan","name:mn":"\u0419\u043e\u0440\u0434\u0430\u043d","id":424316216,"name:mk":"\u0408\u043e\u0440\u0434\u0430\u043d","name:vo":"Yord\u00e4n","name:fa":"\u0627\u0631\u062f\u0646","name:ff":"Jordani","name:fi":"Jordania","name:fo":"Jordania","alt_name:vi":"Gio\u00f3c\u0111ani; Gioocdan; Gioocdani","name:fr":"Jordanie","name:fy":"Jordaanje","name:nl":"Jordani\u00eb","name:nn":"Jordan","name:no":"Jordan","name:na":"Jordan","name:ne":"\u091c\u094b\u0930\u094d\u0921\u0928","name:wo":"Jordaani","name:nv":"J\u00f3o\u02bcdan","name:ga":"An Iord\u00e1in","name:gd":"I\u00f2rdan","name:gl":"Xordania","name:gv":"Yn Jordaan","name:gu":"\u0a9c\u0acb\u0ab0\u0acd\u0aa1\u0aa8","name:tt":"\u04ae\u0440\u0434\u04af\u043d"},"coordinates":[1104,1417]}]},"transit":{"type":"GeometryCollection","geometries":[]},"pois":{"type":"GeometryCollection","geometries":[{"type":"Point","properties":{"kind":"aerodrome","name:en":"Muwaffaq Salti Air Base","name":"\u0645\u0637\u0627\u0631 \u0627\u0644\u0623\u0632\u0631\u0642 \u0627\u0644\u0639\u0633\u0643\u0631\u064a","area":39897100,"source":"openstreetmap.org","min_zoom":8.75,"tier":3,"id":156584901},"coordinates":[632,3647]}]},"boundaries":{"type":"GeometryCollection","geometries":[{"type":"LineString","properties":{"name:right:yo":"J\u1ecd\u0301rd\u00e1n\u00ec","name:right:yi":"\u05d9\u05d0\u05e8\u05d3\u05d0\u05e0\u05d9\u05e2","name:left:la":"Arabia Saudiana","name:right:qu":"Hurdanya","name:left:vi":"\u1ea2 R\u1eadp Saudi","name:left:sw":"Saudia","name:left:ka":"\u10e1\u10d0\u10e3\u10d3\u10d8\u10e1 \u10d0\u10e0\u10d0\u10d1\u10d4\u10d7\u10d8","name:left:km":"\u17a2\u17b6\u179a\u17c9\u17b6\u1794\u17ca\u17b8\u179f\u17b6\u17a2\u17bc\u178c\u17b8\u178f","name:left:kl":"Saudi Arabia","name:left:ko":"\uc0ac\uc6b0\ub514\uc544\ub77c\ube44\uc544","name:left:kn":"\u0cb8\u0ccc\u0ca6\u0cbf \u0c85\u0cb0\u0cc6\u0cac\u0cbf\u0caf","name:right:is":"J\u00f3rdan\u00eda","name:right:rw":"Yorudani","name:left:kk":"\u0421\u0430\u0443\u0434 \u0410\u0440\u0430\u0431\u0438\u044f\u0441\u044b","name:left:rm":"Arabia Saudita","name:left:ku":"Erebistana Siy\u00fbd\u00ee","name:left:kw":"Arabi Saoudek","name:left:kv":"\u0421\u0430\u0443\u0434\u0441\u0430 \u0410\u0440\u0430\u0432\u0438\u044f","name:left:rw":"Arabiya Sawudite","name:left:ru":"\u0421\u0430\u0443\u0434\u043e\u0432\u0441\u043a\u0430\u044f \u0410\u0440\u0430\u0432\u0438\u044f","name:right:ie":"Jordania","name:right:id":"Yordania","name:left:ky":"\u0421\u0430\u0443\u0434 \u0410\u0440\u0430\u0431\u0438\u044f \u041f\u0430\u0434\u044b\u0448\u0430\u043b\u044b\u0433\u044b","name:right:ia":"Jordania","name:right:bn":"\u099c\u09b0\u09cd\u09a6\u09be\u09a8","name:right:bo":"\u0f62\u0f97\u0f7c\u0f62\u0f0b\u0f4c\u0f53\u0f0d","name:right:bm":"Ordon","name:right:ba":"\u0418\u043e\u0440\u0434\u0430\u043d\u0438\u044f","name:right:bg":"\u0419\u043e\u0440\u0434\u0430\u043d\u0438\u044f","name:right:be":"\u0406\u0430\u0440\u0434\u0430\u043d\u0456\u044f","name:right:br":"Jordania","name:left:lt":"Saudo Arabija","name:right:nn":"Jordan","name:right:no":"Jordan","name:right:nl":"Jordani\u00eb","name:left:lv":"Sa\u016bda Ar\u0101bija","name:right:wo":"Jordaani","name:right:na":"Djordan","name:right:gv":"Yn Jordaan","alt_name:left:vi":"\u1ea2 R\u1eadp X\u00ea \u00dat;A-r\u1eadp X\u00ea-\u00fat","name:right:nv":"J\u00f3o\u02bcdan","kind_detail":"2","alt_name:right:vi":"Gio\u00f3c-\u0111a-ni;Gio\u00f3c\u0111ani;Giooc\u0111ani;\u01af\u1edbc \u0110\u00e1n","name:right:gu":"\u0a9c\u0ac9\u0ab0\u0acd\u0aa1\u0aa8","name:right:ps":"\u0627\u0631\u062f\u0646","name:right:pt":"Jord\u00e2nia","name:left:mk":"\u0421\u0430\u0443\u0434\u0438\u0441\u043a\u0430 \u0410\u0440\u0430\u0431\u0438\u0458\u0430","name:left:tr":"Suudi Arabistan","name:left:tt":"\u0421\u043e\u0433\u0443\u0434 \u0413\u0430\u0440\u04d9\u0431\u0441\u0442\u0430\u043d\u044b","name:left:mn":"\u0421\u0430\u0443\u0434\u044b\u043d \u0410\u0440\u0430\u0431","name:left:ml":"\u0d38\u0d57\u0d26\u0d3f \u0d05\u0d31\u0d47\u0d2c\u0d4d\u0d2f","name:left:th":"\u0e1b\u0e23\u0e30\u0e40\u0e17\u0e28\u0e0b\u0e32\u0e2d\u0e38\u0e14\u0e35\u0e2d\u0e32\u0e23\u0e30\u0e40\u0e1a\u0e35\u0e22","name:right:pa":"\u0a1c\u0a3e\u0a30\u0a21\u0a28","name:left:tk":"Saud Arabystany","name:left:tl":"Arabyang Saudi","name:left:mt":"Arabja Sawdija","name:right:gl":"Xordania","name:left:my":"\u1006\u1031\u102c\u103a\u1012\u102e\u1021\u102c\u101b\u1031\u1017\u103b\u1014\u102d\u102f\u1004\u103a\u1004\u1036","name:right:pl":"Jordania","name:left:te":"\u0c38\u0c4c\u0c26\u0c40 \u0c05\u0c30\u0c47\u0c2c\u0c3f\u0c2f\u0c3e","name:left:tg":"\u0410\u0440\u0430\u0431\u0438\u0441\u0442\u043e\u043d\u0438 \u0421\u0430\u0443\u0434\u04e3","name:left:ms":"Arab Saudi","name:left:mr":"\u0938\u094c\u0926\u0940 \u0905\u0930\u0947\u092c\u093f\u092f\u093e","name:left:da":"Saudi-Arabien","name:left:de":"Saudi-Arabien","name:left:dz":"\u0f66\u0f60\u0f74\u0f0b\u0f51\u0f72\u0f0b\u0f68\u0f7a\u0f0b\u0f62\u0f0b\u0f66\u0fa6\u0f72\u0f0b\u0f61\u0f0b","name:right:ga":"An Iord\u00e1in","name:left:dv":"\u0790\u07a6\u0787\u07ab\u078b\u07a9 \u0787\u07a6\u0783\u07a6\u0784\u07a8\u0787\u07b0\u0794\u07a7","name:right:ug":"\u0626\u0649\u0626\u0648\u0631\u062f\u0627\u0646\u0649\u064a\u06d5","name:left:hi":"\u0938\u0909\u0926\u0940 \u0905\u0930\u092c","name:right:lb":"Jordanien","name:right:uk":"\u0419\u043e\u0440\u0434\u0430\u043d\u0456\u044f","name:left:he":"\u05e2\u05e8\u05d1 \u05d4\u05e1\u05e2\u05d5\u05d3\u05d9\u05ea","name:right:ln":"Zordan\u00ed","name:right:li":"Jordani\u00eb","name:right:lt":"Jordanija","name:right:ur":"\u0627\u0631\u062f\u0646","name:right:lv":"Jord\u0101nija","name:left:hy":"\u054d\u0561\u0578\u0582\u0564\u0575\u0561\u0576 \u0531\u0580\u0561\u0562\u056b\u0561","name:left:ta":"\u0b9a\u0bb5\u0bc2\u0ba4\u0bbf \u0b85\u0bb0\u0bc7\u0baa\u0bbf\u0baf\u0bbe","name:left:ht":"Arabi Sawoudit","name:left:hu":"Sza\u00fad-Ar\u00e1bia","name:left:hr":"Saudijska Arabija","sort_rank":262,"name:right:gd":"I\u00f2rdan","name:right:os":"\u0418\u043e\u0440\u0434\u0430\u043d\u0438","name:right:es":"Jordania","name:right:sr":"\u0408\u043e\u0440\u0434\u0430\u043d","name:right:eu":"Jordania","name:right:et":"Jordaania","name:left:os":"\u0421\u0430\u0443\u0434\u044b \u0410\u0440\u0430\u0432\u0438","name:left:or":"\u0b38\u0b3e\u0b09\u0b26\u0b3f \u0b06\u0b30\u0b2c","name:left:vo":"Sauda-Larab\u00e4n","name:left:oc":"Arabia Saudita","name:right:eo":"Jordanio","name:right:en":"Jordan","name:right:el":"\u0399\u03bf\u03c1\u03b4\u03b1\u03bd\u03af\u03b1","name:left:fa":"\u0639\u0631\u0628\u0633\u062a\u0627\u0646 \u0633\u0639\u0648\u062f\u06cc","name:left:ia":"Arabia Saudita","name:left:fo":"Saudi-Arabia","name:right:sk":"Jord\u00e1nsko","name:left:fi":"Saudi-Arabia","name:left:fr":"Arabie saoudite","name:left:fy":"Sa\u00fbdy-Araabje","name:right:ja":"\u30e8\u30eb\u30c0\u30f3","name:right:sq":"Jordania","name:right:ss":"IJoridane","name:left:ja":"\u30b5\u30a6\u30b8\u30a2\u30e9\u30d3\u30a2","name:right:su":"Yordania","name:right:sw":"Yordani","name:right:sv":"Jordanien","name:right:sh":"Jordan","name:left:qu":"Sawud Arabya","name:right:jv":"Yordania","name:right:sl":"Jordanija","name:right:so":"Urdun","name:right:sa":"\u091c\u093e\u0930\u094d\u0921\u0928","name:left:jv":"Arab Saudi","id":-307584,"name:right:ca":"Jord\u00e0nia","name:right:se":"Jord\u00e1nia","name:right:cy":"Gwlad Iorddonen","name:right:zh-yue":"\u7d04\u65e6","name:right:cs":"Jord\u00e1nsko","name:right":"\u0627\u0644\u0623\u0631\u062f\u0646","name:right:cv":"\u0418\u043e\u0440\u0434\u0430\u043d\u0438","name:left:av":"\u0421\u0430\u0433I\u0443\u0434\u0438\u044f\u0437\u0443\u043b \u0413I\u0430\u0440\u0430\u0431\u0438\u044f","name:right:it":"Giordania","name:left:az":"S\u0259udiyy\u0259 \u018fr\u0259bistan\u0131","name:left:ro":"Arabia Saudit\u0103","name:left:af":"Saoedi-Arabi\u00eb","name:left:an":"Arabia Saud\u00ed","name:left:am":"\u1233\u12d1\u12f2 \u12a0\u1228\u1262\u12eb","name:right:ru":"\u0418\u043e\u0440\u0434\u0430\u043d\u0438\u044f","name:right:io":"Jordania","name:left:zh-yue":"\u6c99\u5730\u963f\u62c9\u4f2f","name:right:ro":"Iordania","name:right:hy":"\u0540\u0578\u0580\u0564\u0561\u0576\u0561\u0576","name:left:lb":"Saudi-Arabien","alt_name:left:eo":"Sauda Arabio;Saud-Arabujo;Saud-Arabio","name:left:su":"Saudi Arabia","name:left:li":"Saoedi-Arabi\u00eb","name:right:hr":"Jordan","name:left:sv":"Saudiarabien","name:left:sq":"Arabia Saudite","name:right:hu":"Jord\u00e1nia","name:left:ln":"Saudi Arabia","name:left:sr":"\u0421\u0430\u0443\u0434\u0438\u0458\u0441\u043a\u0430 \u0410\u0440\u0430\u0431\u0438\u0458\u0430","name:right:hi":"\u091c\u0949\u0930\u094d\u0921\u0928","name:left:so":"Sacuudi Carabiya","name:left:si":"\u0dc3\u0dc0\u0dd4\u0daf\u0dd2 \u0d85\u0dbb\u0dcf\u0db6\u0dd2\u0dba\u0dcf\u0dc0","name:left:sh":"Saudijska Arabija","name:left:sk":"Saudsk\u00e1 Ar\u00e1bia","name:left:se":"Saudi-Ar\u00e1bia","name:left:sa":"\u0938\u090a\u0926\u0940 \u0905\u0930\u092c","name:right:he":"\u05d9\u05e8\u05d3\u05df","name:right:la":"Iordania","name:right:af":"Jordani\u00eb","name:left:ce":"\u0421\u0430\u0443\u0434\u0438\u0439\u043d \u0410\u0440\u0430\u0432\u0438","name:right:an":"Chordania","name:right:am":"\u1306\u122d\u12f3\u1295","name:left:ca":"Ar\u00e0bia Saudita","source":"openstreetmap.org","name:left:cy":"Saudi Arabia","name:left:cv":"\u0421\u0430\u0443\u0434 \u0410\u0440\u0430\u0432\u0438\u0439\u0115","name:right:az":"\u0130ordaniya","name:left:cs":"Sa\u00fadsk\u00e1 Ar\u00e1bie","name":"\u0627\u0644\u0633\u0639\u0648\u062f\u064a\u0629 - \u0627\u0644\u0623\u0631\u062f\u0646","name:left:zh":"\u6c99\u7279\u963f\u62c9\u4f2f","name:right:zh":"\u7ea6\u65e6","official_name:left":"\u200f\u0627\u0644\u0645\u0645\u0644\u0643\u0629 \u0627\u0644\u0639\u0631\u0628\u064a\u0629 \u0627\u0644\u0633\u0639\u0648\u062f\u064a\u0629\u200e","name:left:uz":"Saudiya Arabistoni","name:right:fr":"Jordanie","name:left:nv":"\u00c1s\u00e1\u00ed Bik\u00e9yah Sa\u02bcood\u00ed","name:left:ur":"\u0633\u0639\u0648\u062f\u06cc \u0639\u0631\u0628","id:right":-184818,"name:left:uk":"\u0421\u0430\u0443\u0434\u0456\u0432\u0441\u044c\u043a\u0430 \u0410\u0440\u0430\u0432\u0456\u044f","name:left:no":"Saudi-Arabia","name:left:nl":"Saoedi-Arabi\u00eb","name:right:fa":"\u0627\u0631\u062f\u0646","name:right:fo":"Jordan","name:left:ne":"\u0938\u093e\u0909\u0926\u0940 \u0905\u0930\u092c","name:left:ug":"\u0633\u06d5\u0626\u06c7\u062f\u0649 \u0626\u06d5\u0631\u06d5\u0628\u0649\u0633\u062a\u0627\u0646","name:left:na":"Taudiarabiya","name:left:eo":"Sauda Arabujo","name:left:en":"Saudi Arabia","name:left:el":"\u03a3\u03b1\u03bf\u03c5\u03b4\u03b9\u03ba\u03ae \u0391\u03c1\u03b1\u03b2\u03af\u03b1","name:left:pl":"Arabia Saudyjska","name:left:es":"Arabia Saudita","name:left:ss":"I-Arabhiya","name:left:ie":"Saudi Arabia","name:left:eu":"Saudi Arabia","name:left:et":"Saudi Araabia","name:right:zh-min-nan":"Iok-t\u00e0n","name:right:oc":"Jordania","name:right:ko":"\uc694\ub974\ub2e8","name:right:bs":"Jordan","name:right:uz":"Iordaniya","osm_relation":true,"name:right:or":"\u0b1c\u0b4b\u0b30\u0b4d\u0b21\u0b3e\u0b28","name:left:pt":"Ar\u00e1bia Saudita","name:right:ku":"Urdun","name:right:tk":"Iordani\u00fda","min_zoom":8.0,"name:left:sl":"Saudova Arabija","name:left:zh-min-nan":"Saud \u00ea A-la-pek","name:left:wo":"Araabi Sawdit","name:left:ga":"An Araib Sh\u00e1dach","name:left:gd":"Ar\u00e0ibia nan Sabhd","name:left:gl":"Arabia Saud\u00ed","name:left:gn":"Aravia Saud\u00edta","name:left:gu":"\u0ab8\u0abe\u0a89\u0aa6\u0ac0 \u0a85\u0ab0\u0ac7\u0aac\u0abf\u0aaf\u0abe","name:left:gv":"Yn Araab Saudi","official_name:right":"\u0627\u0644\u0645\u0645\u0644\u0643\u0629 \u0627\u0644\u0623\u0631\u062f\u0646\u064a\u0629 \u0627\u0644\u0647\u0627\u0634\u0645\u064a\u0629","name:left":"\u0627\u0644\u0633\u0639\u0648\u062f\u064a\u0629","name:right:mk":"\u0408\u043e\u0440\u0434\u0430\u043d","name:right:mn":"\u0419\u043e\u0440\u0434\u0430\u043d","name:right:ml":"\u0d1c\u0d4b\u0d7c\u0d26\u0d3e\u0d7b","name:right:vo":"Yord\u00e4n","name:right:vi":"Jordan","name:right:my":"\u1002\u103b\u1031\u102c\u103a\u1012\u1014\u103a\u1014\u102d\u102f\u1004\u103a\u1004\u1036","name:right:ms":"Jordan","name:right:mr":"\u091c\u0949\u0930\u094d\u0921\u0928","name:right:fy":"Jordaanje","name:right:mt":"\u0120ordan","name:left:nn":"Saudi-Arabia","kind":"country","name:left:br":"Arabia Saoudat","name:left:bs":"Saudijska Arabija","name:left:ba":"\u0421\u04d9\u0493\u04af\u0434 \u0492\u04d9\u0440\u04d9\u0431\u0441\u0442\u0430\u043d\u044b","name:left:bg":"\u0421\u0430\u0443\u0434\u0438\u0442\u0441\u043a\u0430 \u0410\u0440\u0430\u0431\u0438\u044f","name:right:kv":"\u0418\u043e\u0440\u0434\u0430\u043d\u0438\u044f","name:left:be":"\u0421\u0430\u0443\u0434\u0430\u045e\u0441\u043a\u0430\u044f \u0410\u0440\u0430\u0432\u0456\u044f","name:left:bn":"\u09b8\u09cc\u09a6\u09bf \u0986\u09b0\u09ac","name:left:bo":"\u0f66\u0f60\u0f74\u0f0b\u0f51\u0f72\u0f0b\u0f68\u0f0b\u0f62\u0f0b\u0f54\u0f72\u0f0b\u0f61\u0f0d","name:left:bm":"Saudia Arabu ka Faamamara","name:left:yo":"S\u00e1\u00fad\u00ed Ar\u00e1b\u00ed\u00e0","name:left:yi":"\u05e1\u05d0\u05d5\u05d3\u05d9 \u05d0\u05e8\u05d0\u05d1\u05d9\u05e2","id:left":-307584,"name:right:fi":"Jordania","name:right:ka":"\u10d8\u10dd\u10e0\u10d3\u10d0\u10dc\u10d8\u10d0","name:left:io":"Saudia Arabia","name:left:pa":"\u0a38\u0a09\u0a26\u0a40 \u0a05\u0a30\u0a2c","name:right:tt":"\u04ae\u0440\u0434\u04af\u043d","name:right:kk":"\u0418\u043e\u0440\u0434\u0430\u043d\u0438\u044f","name:left:id":"Arab Saudi","name:right:km":"\u17a0\u17d2\u179f\u1780\u178a\u1784\u17cb","name:right:kl":"Jordan","name:right:tr":"\u00dcrd\u00fcn","name:right:tl":"Hordan","name:right:th":"\u0e1b\u0e23\u0e30\u0e40\u0e17\u0e28\u0e08\u0e2d\u0e23\u0e4c\u0e41\u0e14\u0e19","name:right:kw":"Jordan","name:left:ps":"\u0633\u0639\u0648\u062f\u064a \u0639\u0631\u0628\u0633\u062a\u0627\u0646","name:right:te":"\u0c1c\u0c4b\u0c30\u0c4d\u0c21\u0c3e\u0c28\u0c4d","name:left:it":"Arabia Saudita","name:left:is":"S\u00e1d\u00ed-Arab\u00eda","name:right:ta":"\u0b9c\u0bcb\u0bb0\u0bcd\u0ba4\u0bbe\u0ba9\u0bcd","name:right:de":"Jordanien","name:right:da":"Jordan","name:right:dv":"\u0787\u07aa\u0783\u07aa\u078b\u07aa\u0782\u07b0","name:right:ht":"J\u00f2dani"},"arcs":[0]},{"type":"LineString","properties":{"name:right:ru":"\u042d\u043b\u044c-\u0425\u0443\u0434\u0443\u0434 \u044d\u0448-\u0428\u0430\u043c\u0430\u043b\u0438\u0439\u044f","min_zoom":8.0,"name:left:ru":"\u042d\u043b\u044c-\u0414\u0436\u0430\u0443\u0444","id:right":-3673927,"id":-3842543,"osm_relation":true,"name:right":"\u0645\u0646\u0637\u0642\u0629 \u0627\u0644\u062d\u062f\u0648\u062f \u0627\u0644\u0634\u0645\u0627\u0644\u064a\u0629","kind":"region","name:left:en":"Al Jawf Region","sort_rank":256,"kind_detail":"4","name:left:de":"Provinz Dschauf","name":"\u0645\u0646\u0637\u0642\u0629 \u0627\u0644\u062c\u0648\u0641 - \u0645\u0646\u0637\u0642\u0629 \u0627\u0644\u062d\u062f\u0648\u062f \u0627\u0644\u0634\u0645\u0627\u0644\u064a\u0629","source":"openstreetmap.org","name:right:de":"N\u00f6rdliche Grenzregion","name:right:en":"Northern Borders Region","id:left":-3842543,"name:left":"\u0645\u0646\u0637\u0642\u0629 \u0627\u0644\u062c\u0648\u0641"},"arcs":[1]},{"type":"LineString","properties":{"name":"\u0645\u0646\u0637\u0642\u0629 \u0627\u0644\u062c\u0648\u0641 - \u0645\u0639\u0627\u0646","name:right:ru":"\u041c\u0430\u0430\u043d","min_zoom":8.0,"name:left:ru":"\u042d\u043b\u044c-\u0414\u0436\u0430\u0443\u0444","id:right":-2926347,"id":-3842543,"osm_relation":true,"name:right":"\u0645\u0639\u0627\u0646","kind":"region","name:left:en":"Al Jawf Region","sort_rank":256,"kind_detail":"4","name:left:de":"Provinz Dschauf","name:right:en":"Ma\u2019an","source":"openstreetmap.org","id:left":-3842543,"name:right:he":"\u05de\u05e2\u05d0\u05df","name:left":"\u0645\u0646\u0637\u0642\u0629 \u0627\u0644\u062c\u0648\u0641"},"arcs":[2]},{"type":"LineString","properties":{"name:right:ja":"\u30a2\u30f3\u30de\u30f3","name:right:ko":"\uc554\ub9cc","id:right":-2926344,"min_zoom":8.0,"name:left:ru":"\u042d\u043b\u044c-\u0414\u0436\u0430\u0443\u0444","name:right:ru":"\u0410\u043c\u043c\u0430\u043d","id":-3842543,"osm_relation":true,"name:right":"\u0639\u0645\u0627\u0646","kind":"region","name":"\u0645\u0646\u0637\u0642\u0629 \u0627\u0644\u062c\u0648\u0641 - \u0639\u0645\u0627\u0646","source":"openstreetmap.org","sort_rank":256,"kind_detail":"4","name:right:am":"\u12a0\u121b\u1295","name:left:de":"Provinz Dschauf","name:right:he":"\u05e2\u05de\u05d0\u05df","name:left:en":"Al Jawf Region","name:right:ar":"\u200f\u0645\u062d\u0627\u0641\u0638\u0629 \u0627\u0644\u0639\u0627\u0635\u0645\u0629\u200e","name:right:en":"Amman","id:left":-3842543,"name:left":"\u0645\u0646\u0637\u0642\u0629 \u0627\u0644\u062c\u0648\u0641"},"arcs":[3]},{"type":"LineString","properties":{"name:right:ru":"\u042d\u043b\u044c-\u041c\u0430\u0444\u0440\u0430\u043a","min_zoom":8.0,"name:left:ru":"\u042d\u043b\u044c-\u0414\u0436\u0430\u0443\u0444","id:right":-2925608,"id":-3842543,"osm_relation":true,"name:left:en":"Al Jawf Region","kind":"region","name":"\u0645\u0646\u0637\u0642\u0629 \u0627\u0644\u062c\u0648\u0641 - \u0627\u0644\u0645\u0641\u0631\u0642\u200e","sort_rank":256,"kind_detail":"4","name:left:de":"Provinz Dschauf","name:right:en":"Mafraq","source":"openstreetmap.org","id:left":-3842543,"name:right":"\u0627\u0644\u0645\u0641\u0631\u0642\u200e","name:left":"\u0645\u0646\u0637\u0642\u0629 \u0627\u0644\u062c\u0648\u0641"},"arcs":[4]},{"type":"LineString","properties":{"name:right:ru":"\u042d\u0437-\u0417\u0430\u0440\u043a\u0430","min_zoom":8.0,"name:left:ru":"\u042d\u043b\u044c-\u0414\u0436\u0430\u0443\u0444","id:right":-2925597,"id":-3842543,"osm_relation":true,"name:left:en":"Al Jawf Region","kind":"region","name":"\u0645\u0646\u0637\u0642\u0629 \u0627\u0644\u062c\u0648\u0641 - \u0627\u0644\u0632\u0631\u0642\u0627\u0621","sort_rank":256,"kind_detail":"4","name:left:de":"Provinz Dschauf","name:right:en":"Zarqa","source":"openstreetmap.org","id:left":-3842543,"name:right":"\u0627\u0644\u0632\u0631\u0642\u0627\u0621","name:left":"\u0645\u0646\u0637\u0642\u0629 \u0627\u0644\u062c\u0648\u0641"},"arcs":[5]},{"type":"LineString","properties":{"name:right:ru":"\u042d\u043b\u044c-\u041c\u0430\u0444\u0440\u0430\u043a","min_zoom":8.0,"name:left:ru":"\u042d\u043b\u044c-\u0425\u0443\u0434\u0443\u0434 \u044d\u0448-\u0428\u0430\u043c\u0430\u043b\u0438\u0439\u044f","id:right":-2925608,"id":-3673927,"osm_relation":true,"name:left:en":"Northern Borders Region","kind":"region","name":"\u0645\u0646\u0637\u0642\u0629 \u0627\u0644\u062d\u062f\u0648\u062f \u0627\u0644\u0634\u0645\u0627\u0644\u064a\u0629 - \u0627\u0644\u0645\u0641\u0631\u0642\u200e","sort_rank":256,"kind_detail":"4","name:left:de":"N\u00f6rdliche Grenzregion","name:right:en":"Mafraq","source":"openstreetmap.org","id:left":-3673927,"name:right":"\u0627\u0644\u0645\u0641\u0631\u0642\u200e","name:left":"\u0645\u0646\u0637\u0642\u0629 \u0627\u0644\u062d\u062f\u0648\u062f \u0627\u0644\u0634\u0645\u0627\u0644\u064a\u0629"},"arcs":[6]},{"type":"LineString","properties":{"name:right:ja":"\u30a2\u30f3\u30de\u30f3","name:left:he":"\u05de\u05e2\u05d0\u05df","name:right:ko":"\uc554\ub9cc","id:right":-2926344,"min_zoom":8.0,"name:left:ru":"\u041c\u0430\u0430\u043d","name:right:ru":"\u0410\u043c\u043c\u0430\u043d","id":-2926347,"osm_relation":true,"name:right":"\u0639\u0645\u0627\u0646","kind":"region","name":"\u0645\u0639\u0627\u0646 - \u0639\u0645\u0627\u0646","source":"openstreetmap.org","sort_rank":256,"kind_detail":"4","name:right:am":"\u12a0\u121b\u1295","name:right:he":"\u05e2\u05de\u05d0\u05df","name:left:en":"Ma\u2019an","name:right:ar":"\u200f\u0645\u062d\u0627\u0641\u0638\u0629 \u0627\u0644\u0639\u0627\u0635\u0645\u0629\u200e","name:right:en":"Amman","id:left":-2926347,"name:left":"\u0645\u0639\u0627\u0646"},"arcs":[7]},{"type":"LineString","properties":{"name:left:ar":"\u200f\u0645\u062d\u0627\u0641\u0638\u0629 \u0627\u0644\u0639\u0627\u0635\u0645\u0629\u200e","name:left:he":"\u05e2\u05de\u05d0\u05df","name:left:ko":"\uc554\ub9cc","name:left:ja":"\u30a2\u30f3\u30de\u30f3","name:right:ru":"\u042d\u0437-\u0417\u0430\u0440\u043a\u0430","min_zoom":8.0,"name:left:ru":"\u0410\u043c\u043c\u0430\u043d","name:left:am":"\u12a0\u121b\u1295","id:right":-2925597,"id":-2926344,"osm_relation":true,"name:right":"\u0627\u0644\u0632\u0631\u0642\u0627\u0621","kind":"region","name:left:en":"Amman","sort_rank":256,"kind_detail":"4","name":"\u0639\u0645\u0627\u0646 - \u0627\u0644\u0632\u0631\u0642\u0627\u0621","source":"openstreetmap.org","name:right:en":"Zarqa","id:left":-2926344,"name:left":"\u0639\u0645\u0627\u0646"},"arcs":[8]},{"type":"LineString","properties":{"name:right:ru":"\u042d\u0437-\u0417\u0430\u0440\u043a\u0430","min_zoom":8.0,"name:left:ru":"\u042d\u043b\u044c-\u041c\u0430\u0444\u0440\u0430\u043a","id:right":-2925597,"id":-2925608,"osm_relation":true,"name:left:en":"Mafraq","kind":"region","name":"\u0627\u0644\u0645\u0641\u0631\u0642\u200e - \u0627\u0644\u0632\u0631\u0642\u0627\u0621","sort_rank":256,"kind_detail":"4","name:right:en":"Zarqa","source":"openstreetmap.org","id:left":-2925608,"name:right":"\u0627\u0644\u0632\u0631\u0642\u0627\u0621","name:left":"\u0627\u0644\u0645\u0641\u0631\u0642\u200e"},"arcs":[9]}]},"roads":{"type":"GeometryCollection","geometries":[{"type":"LineString","properties":{"source":"openstreetmap.org","kind":"major_road","sort_rank":380,"kind_detail":"primary","min_zoom":8.0,"id":491708780},"arcs":[10]},{"type":"MultiLineString","properties":{"sort_rank":381,"source":"openstreetmap.org","min_zoom":8.0,"kind":"major_road","kind_detail":"trunk"},"arcs":[[11],[12],[13],[14],[15],[16],[17],[18],[19],[20],[21],[22],[23],[24],[25],[26]]},{"type":"MultiLineString","properties":{"source":"openstreetmap.org","kind":"major_road","sort_rank":381,"kind_detail":"trunk","ref":"30","min_zoom":8.0},"arcs":[[27],[28],[29],[30]]},{"type":"LineString","properties":{"sort_rank":383,"kind_detail":"motorway","min_zoom":8.0,"kind":"highway","source":"openstreetmap.org"},"arcs":[31]},{"type":"MultiLineString","properties":{"source":"openstreetmap.org","kind":"highway","landuse_kind":"residential","sort_rank":383,"kind_detail":"motorway","ref":"65","min_zoom":8.0},"arcs":[[32],[33]]},{"type":"MultiLineString","properties":{"source":"openstreetmap.org","kind":"major_road","sort_rank":381,"kind_detail":"trunk","ref":"5","min_zoom":8.0},"arcs":[[34],[35],[36],[37],[38],[39]]},{"type":"MultiLineString","properties":{"source":"openstreetmap.org","kind":"major_road","sort_rank":381,"kind_detail":"trunk","ref":"65","min_zoom":8.0},"arcs":[[40],[41],[42],[43],[44],[45]]},{"type":"MultiLineString","properties":{"source":"openstreetmap.org","kind":"highway","sort_rank":383,"kind_detail":"motorway","ref":"65","min_zoom":8.0},"arcs":[[46],[47],[48],[49]]},{"type":"MultiLineString","properties":{"source":"openstreetmap.org","kind":"major_road","sort_rank":381,"kind_detail":"trunk","ref":"85","min_zoom":8.0},"arcs":[[50],[51],[52],[53],[54],[55],[56],[57],[58],[59],[60],[61],[62],[63],[64],[65],[66],[67],[68],[69],[70],[71],[72],[73]]},{"type":"LineString","properties":{"source":"openstreetmap.org","kind":"major_road","sort_rank":381,"kind_detail":"trunk","ref":"40","min_zoom":8.0,"id":105245652},"arcs":[74]}]},"earth":{"type":"GeometryCollection","geometries":[{"type":"Polygon","properties":{"sort_rank":10,"source":"naturalearthdata.com","min_zoom":0.0,"kind":"earth","area":98022885885},"arcs":[[75]]}]},"landuse":{"type":"GeometryCollection","geometries":[{"type":"MultiPolygon","properties":{"source":"openstreetmap.org","kind":"residential","tier":2,"area":42615852,"sort_rank":20,"min_zoom":8.0},"arcs":[[[76]]]},{"type":"Polygon","properties":{"source":"openstreetmap.org","kind":"aerodrome","area":39897100,"tier":3,"id":156584901,"min_zoom":8.0,"sort_rank":60},"arcs":[[77]]}]}},"type":"Topology","transform":{"translate":[36.5625,30.7512777763],"scale":[0.0003433228,0.0002931847]},"arcs":[[[4096,3385],[-2819,-831],[2167,-2499],[45,-55]],[[4096,1532],[-2,0],[-64,23],[-91,-35],[-72,60],[133,234],[-8,183],[84,131],[-58,263],[63,59],[-66,177],[17,149],[30,55],[-58,145],[11,123],[63,78],[-41,123],[50,93]],[[2001,1719],[1443,-1664],[45,-55]],[[1277,2554],[724,-835]],[[4087,3393],[-490,-147]],[[3597,3246],[-2320,-692]],[[4096,3395],[-9,-2]],[[2001,1719],[-2001,-2]],[[1277,2554],[-841,898],[-247,-147],[-80,27],[-109,83]],[[1088,4096],[2509,-850]],[[2480,1765],[62,70]],[[737,3704],[1,0]],[[737,3704],[-2,0],[-4,1],[4,-1],[2,0]],[[737,3703],[0,1]],[[884,3062],[-19,13]],[[868,3119],[18,-61],[-19,53]],[[926,4047],[1,1]],[[1436,2691],[56,-22]],[[1495,2675],[-5,-5]],[[1490,2670],[5,5]],[[1496,2677],[-1,-2]],[[1515,2646],[-19,31]],[[1496,2677],[24,-35]],[[1947,2245],[219,-235],[-8,-54],[48,-145],[88,-98]],[[1985,2226],[182,-216],[-8,-54],[48,-145],[88,-97]],[[2146,2201],[11,6]],[[2454,1887],[3,-2]],[[0,3994],[276,-57]],[[276,3937],[-276,57]],[[276,3937],[159,-13],[80,-89],[69,-17],[147,-113]],[[1517,2645],[-81,46],[-88,6],[-364,221],[-98,140]],[[1543,2632],[-26,13],[25,-14]],[[1691,2416],[68,-75]],[[1759,2342],[-68,75]],[[0,585],[167,117],[42,99],[11,215],[-21,115],[41,100],[-18,88],[155,370],[-32,102],[43,173],[59,96],[-19,137],[61,104],[217,147],[59,378],[86,148],[15,275],[-203,283],[71,139]],[[734,3671],[5,41]],[[739,3712],[28,120]],[[793,3868],[-26,-36]],[[793,3868],[3,93],[130,86]],[[927,4048],[54,48]],[[1926,2253],[4,-3],[202,-37]],[[2132,2213],[1,-1],[38,-71]],[[2171,2141],[34,-62],[13,-10],[144,-52],[50,-57],[39,-171],[361,-338],[227,-258],[93,-63],[96,-234],[139,-242],[130,-152],[76,-144],[118,-105],[97,-53],[129,-166],[59,-34]],[[3977,0],[-60,34],[-131,169],[-213,155],[-76,145],[-129,151],[-139,242],[-97,235],[-92,62],[-228,258],[-361,338],[-38,172],[-50,57],[-158,61],[-34,62]],[[2171,2141],[-39,72]],[[2132,2213],[-1,2],[-204,38]],[[1542,2631],[113,-54],[36,-161]],[[1691,2417],[-35,160],[-113,55]],[[1759,2341],[167,-88]],[[1927,2253],[-168,89]],[[4096,2310],[-283,58],[-2,0]],[[3811,2368],[-277,-16]],[[3534,2352],[-8,-1],[-15,-7]],[[3511,2344],[-144,-72]],[[3367,2272],[-9,-5],[-3,-5]],[[3355,2262],[-22,-48]],[[3333,2214],[-14,-30],[-95,-20],[-103,24],[-3,-5]],[[3118,2183],[-29,-39],[-10,-4]],[[3079,2140],[-53,-21],[-138,22],[-23,15]],[[2865,2156],[-53,35]],[[2812,2191],[-5,3],[-182,42],[-181,19],[-126,-53],[-120,26],[-3,0],[-38,-20]],[[2157,2208],[-12,-6]],[[2157,2207],[0,1]],[[2157,2208],[39,19],[3,1],[119,-27],[126,54],[181,-19],[187,-45]],[[2812,2191],[4,-1],[49,-34]],[[2865,2156],[23,-16],[138,-22],[43,10],[10,12]],[[3079,2140],[39,43]],[[3118,2183],[4,4],[102,-24],[96,20],[13,31]],[[3333,2214],[20,46],[2,2]],[[3355,2262],[12,10]],[[3367,2272],[44,37],[100,35]],[[3511,2344],[23,8]],[[3534,2352],[5,2],[260,17],[12,-3]],[[3811,2368],[285,-59]],[[0,3475],[128,175],[120,74],[287,105]],[[0,0],[0,4096],[4096,0],[0,-4096],[-4096,0]],[[1683,2400],[15,32],[47,11],[57,-51],[0,-31],[-60,-28],[-59,67]],[[540,3684],[70,105],[123,-115],[-115,-135],[-62,54],[-16,91]]]}