{"objects":{"water":{"type":"GeometryCollection","geometries":[{"type":"Polygon","properties":{"source":"naturalearthdata.com","kind":"ocean","area":1576712559132672,"sort_rank":200,"min_zoom":0.0,"id":1},"arcs":[[4]]},{"type":"LineString","properties":{"source":"naturalearthdata.com","kind":"ocean","sort_rank":205,"boundary":true,"min_zoom":0.0,"id":45},"arcs":[5]}]},"buildings":{"type":"GeometryCollection","geometries":[]},"places":{"type":"GeometryCollection","geometries":[{"type":"Point","properties":{"kind":"locality","name:en":"Port Sudan","name":"\u0628\u0648\u0631\u062a\u0633\u0648\u062f\u0627\u0646","kind_detail":"city","name:pt":"Porto Sud\u00e3o","name:de":"Bur Sudan","source":"openstreetmap.org","min_zoom":8.0,"name:ro":"Port Sudan","name:fr":"Port-Soudan","name:it":"Porto Sud\u00e0n","name:ru":"\u041f\u043e\u0440\u0442-\u0421\u0443\u0434\u0430\u043d","id":288510602,"population":489000},"coordinates":[1891,955]}]},"transit":{"type":"GeometryCollection","geometries":[]},"pois":{"type":"GeometryCollection","geometries":[]},"boundaries":{"type":"GeometryCollection","geometries":[{"type":"MultiLineString","properties":{"name:kg":"Sudan","name:ka":"\u10e1\u10e3\u10d3\u10d0\u10dc\u10d8","name:ko":"\uc218\ub2e8","name:cv":"\u0421\u0443\u0434\u0430\u043d","name:cs":"S\u00fad\u00e1n","name:ki":"S\u0169dana","name:kw":"Soudan","name:tk":"Sudan","name:ku":"S\u00fbdan","name:ti":"\u1231\u12f3\u1295","name:tl":"Sudan","name:ce":"\u0421\u0443\u0434\u0430\u043d","name:ta":"\u0b9a\u0bc2\u0b9f\u0bbe\u0ba9\u0bcd","name:tg":"\u0421\u0443\u0434\u043e\u043d","name:ca":"Sudan","name:te":"\u0c38\u0c42\u0c21\u0c3e\u0c28\u0c4d","name:cy":"Sudan","name:qu":"Sudan","name:da":"Sudan","name:de":"Sudan","source":"openstreetmap.org","name:kn":"\u0cb8\u0cc1\u0ca1\u0cbe\u0ca8\u0ccd","name:dv":"\u0790\u07ab\u078b\u07a7\u0782\u07b0","name:lv":"Sud\u0101na","name:lt":"Sudanas","name:uz":"Sudan","name:kk":"\u0421\u0443\u0434\u0430\u043d","name:ur":"\u0633\u0648\u0688\u0627\u0646","name:lb":"Sudan","name:la":"Sudania","name:tt":"\u0421\u0443\u0434\u0430\u043d","name:uk":"\u0421\u0443\u0434\u0430\u043d","name:ug":"\u0633\u06c7\u062f\u0627\u0646","name:li":"Soedan","name:ln":"Sudani","name:el":"\u03a3\u03bf\u03c5\u03b4\u03ac\u03bd","name:eo":"Sudano","name:en":"Sudan","name":"\u0627\u0644\u0633\u0648\u062f\u0627\u0646","name:ee":"Sudan","name:th":"\u0e1b\u0e23\u0e30\u0e40\u0e17\u0e28\u0e0b\u0e39\u0e14\u0e32\u0e19","name:eu":"Sudan","name:et":"Sudaan","name:es":"Sud\u00e1n","name:ia":"Sudan","name:rm":"Sudan","name:az":"Sudan","name:ie":"Sudan","name:id":"Sudan","name:ig":"Sudan","name:zh-min-nan":"Sudan","name:io":"Sudan","name:ak":"Sudan","name:am":"\u1231\u12f3\u1295","name:it":"Sudan","name:an":"Sud\u00e1n","name:ru":"\u0421\u0443\u0434\u0430\u043d","name:rw":"Sudani","name:af":"Soedan","kind_detail":"2","name:ky":"\u0421\u0443\u0434\u0430\u043d","name:zh-yue":"\u8607\u4e39","name:zh":"\u82cf\u4e39\u5171\u548c\u56fd","name:so":"Suudaan","name:sn":"Sudan","name:sm":"Sudan","name:sl":"Sudan","name:sk":"Sud\u00e1n","name:ja":"\u30b9\u30fc\u30c0\u30f3","name:sh":"Sudan","name:sg":"Sud\u00e4an","name:se":"Sudan","name:sc":"Sudan","name:br":"Soudan","name:bs":"Sudan","name:bm":"Sudan","name:bn":"\u09b8\u09c1\u09a6\u09be\u09a8","name:bo":"\u0f66\u0f74\u0f60\u0f74\u0f0b\u0f4f\u0f53\u0f0d","name:sa":"\u0938\u0942\u0921\u093e\u0928","name:sw":"Sudan","name:be":"\u0421\u0443\u0434\u0430\u043d","name:su":"Sudan","name:bg":"\u0421\u0443\u0434\u0430\u043d","name:ss":"ISudani","name:ba":"\u0421\u0443\u0434\u0430\u043d","name:sq":"Sudani","name:jv":"Sudan","name:pt":"Sud\u00e3o","name:ps":"\u0633\u0648\u0689\u0627\u0646","name:om":"Sudaan","name:oc":"Sodan","min_zoom":8.0,"name:ro":"Sudan","name:pa":"\u0a38\u0a41\u0a21\u0a3e\u0a28","name:os":"\u0421\u0443\u0434\u0430\u043d","name:or":"\u0b38\u0b41\u0b26\u0b3e\u0b28","name:pl":"Sudan","sort_rank":262,"name:sr":"\u0421\u0443\u0434\u0430\u043d","osm_relation":true,"name:tr":"Sudan","name:hi":"\u0938\u0942\u0921\u093e\u0928","name:sv":"Sudan","name:he":"\u05e1\u05d5\u05d3\u05d0\u05df","name:ha":"Sudan","name:hy":"\u054d\u0578\u0582\u0564\u0561\u0576","name:ht":"Soudan","name:hu":"Szud\u00e1n","name:hr":"Sudan","kind":"country","name:ts":"Sudan","name:is":"S\u00fadan","name:yi":"\u05e1\u05d5\u05d3\u05d0\u05df","name:yo":"Sudan","name:mt":"Sudan","name:ms":"Sudan","name:mr":"\u0938\u0941\u0926\u093e\u0928","name:my":"\u1006\u1030\u1012\u1014\u103a\u1014\u102d\u102f\u1004\u103a\u1004\u1036","int_name":"Sudan","name:vi":"Sudan","name:ml":"\u0d38\u0d41\u0d21\u0d3e\u0d7b","name:mn":"\u0421\u0443\u0434\u0430\u043d","id":-192789,"name:mk":"\u0421\u0443\u0434\u0430\u043d","name:vo":"Sud\u00e4n","name:fa":"\u0633\u0648\u062f\u0627\u0646","name:fi":"Sudan","name:fo":"Sudan","alt_name:vi":"Xu-\u0111\u0103ng","name:fr":"Soudan","name:fy":"S\u00fbdan","name:nl":"Soedan","name:nn":"Sudan","name:no":"Sudan","name:na":"Tudan","name:ny":"Sudan","name:wo":"Sudaan","name:nv":"Sood\u0105\u0301\u0105","name:ga":"An tS\u00fad\u00e1in","name:gd":"Sudan","name:gn":"Sudano","name:gl":"Sud\u00e1n","maritime_boundary":true,"name:gv":"Yn Toodaan","name:gu":"\u0ab8\u0ac1\u0aa6\u0abe\u0aa8"},"arcs":[[0],[1]]},{"type":"MultiLineString","properties":{"kind":"region","name:en":"Red Sea State","name":"\u0648\u0644\u0627\u064a\u0629 \u0627\u0644\u0628\u062d\u0631 \u0627\u0644\u0623\u062d\u0645\u0631","sort_rank":256,"kind_detail":"4","min_zoom":8.0,"name:de":"Rotes Meer","source":"openstreetmap.org","maritime_boundary":true,"int_name":"Al Ba\u1e29r al A\u1e29mar","name:ru":"\u041a\u0440\u0430\u0441\u043d\u043e\u0435 \u041c\u043e\u0440\u0435","id":-3774672,"osm_relation":true},"arcs":[[2],[3]]}]},"roads":{"type":"GeometryCollection","geometries":[{"type":"LineString","properties":{"sort_rank":380,"kind_detail":"primary","min_zoom":8.0,"kind":"major_road","source":"openstreetmap.org"},"arcs":[6]},{"type":"MultiLineString","properties":{"sort_rank":381,"source":"openstreetmap.org","min_zoom":8.0,"kind":"major_road","kind_detail":"trunk"},"arcs":[[7],[8]]},{"type":"MultiLineString","properties":{"source":"openstreetmap.org","kind":"major_road","landuse_kind":"urban_area","sort_rank":380,"kind_detail":"primary","min_zoom":8.0},"arcs":[[9],[10],[11],[12],[13],[14],[15],[16],[17]]},{"type":"MultiLineString","properties":{"source":"openstreetmap.org","kind":"major_road","kind_detail":"trunk","sort_rank":381,"landuse_kind":"urban_area","min_zoom":8.0},"arcs":[[18],[19],[20],[21],[22]]},{"type":"LineString","properties":{"source":"openstreetmap.org","kind":"ferry","name:en":"Jeddah - Suakin","name":"\u062c\u062f\u0629 - \u0633\u0648\u0627\u0643\u064a\u0646","sort_rank":355,"min_zoom":8.0},"arcs":[23]},{"type":"MultiLineString","properties":{"source":"openstreetmap.org","kind":"major_road","landuse_kind":"residential","sort_rank":381,"kind_detail":"trunk","min_zoom":8.0},"arcs":[[24],[25],[26]]},{"type":"MultiLineString","properties":{"source":"openstreetmap.org","kind":"major_road","landuse_kind":"residential","sort_rank":380,"kind_detail":"primary","min_zoom":8.0},"arcs":[[27],[28],[29],[30]]}]},"earth":{"type":"GeometryCollection","geometries":[{"type":"MultiPolygon","properties":{"sort_rank":10,"source":"naturalearthdata.com","min_zoom":0.0,"kind":"earth","area":23664372749},"arcs":[[[31]]]}]},"landuse":{"type":"GeometryCollection","geometries":[{"type":"Polygon","properties":{"source":"openstreetmap.org","kind":"residential","area":39413800,"tier":2,"id":380999898,"min_zoom":8.0,"sort_rank":20},"arcs":[[32]]},{"type":"MultiPolygon","properties":{"source":"naturalearthdata.com","kind":"urban_area","name":"","area":1043876123,"sort_rank":11,"min_zoom":4.0},"arcs":[[[33]]]}]}},"type":"Topology","transform":{"translate":[36.5625,19.3111433551],"scale":[0.0003433228,0.0003226662]},"arcs":[[[2846,0],[-113,663],[-118,276],[46,199],[16,526],[-44,216],[-142,278],[36,328],[-58,695],[93,210],[24,129],[16,526],[50,50]],[[4096,816],[-166,32],[-236,-49],[-200,-136],[-145,-233],[-34,-187],[-98,-79],[-114,-164]],[[2846,0],[-113,663],[-118,276],[46,199],[16,526],[-44,216],[-142,278],[36,328],[-58,695],[93,210],[24,129],[16,526],[50,50]],[[4096,816],[-166,32],[-236,-49],[-200,-136],[-145,-233],[-34,-187],[-98,-79],[-114,-164]],[[2196,0],[-89,509],[-60,177],[-47,80],[-11,29],[-4,26],[4,59],[-21,186],[9,48],[49,69],[15,34],[6,55],[0,202],[-17,105],[-184,491],[-22,106],[2,83],[14,29],[35,45],[11,34],[-1,21],[44,117],[-15,149],[-16,101],[-23,109],[-69,182],[-1,46],[-21,125],[22,220],[-11,92],[10,40],[89,-13],[28,30],[16,49],[8,49],[-7,202],[-74,210],[2231,0],[0,-4096],[-1900,0]],[[2196,0],[-89,509],[-60,177],[-47,80],[-11,29],[-4,26],[4,59],[-21,186],[9,48],[49,69],[15,34],[6,55],[0,202],[-17,105],[-184,491],[-22,106],[2,83],[14,29],[35,45],[11,34],[-1,21],[44,117],[-15,149],[-16,101],[-23,109],[-69,182],[-1,46],[-21,125],[22,220],[-11,92],[10,40],[89,-13],[28,30],[16,49],[8,49],[-7,202],[-74,210]],[[1803,956],[-52,-63],[33,-102],[119,-91],[59,18]],[[1401,4096],[-3,-10],[8,-67],[-50,-228],[90,-526],[109,-341],[32,-345],[118,-332],[120,-197],[7,-126],[98,-196],[-5,-246],[-69,-182],[4,-184]],[[2051,0],[25,394],[-147,414]],[[1840,976],[-37,-20]],[[1840,976],[16,3]],[[1857,979],[-17,-3]],[[1879,895],[28,27],[1,52]],[[1898,970],[16,34]],[[1914,1004],[-13,10]],[[1914,1004],[1,1]],[[1920,925],[14,16],[-19,14]],[[1916,1006],[3,7]],[[1856,979],[3,-16]],[[1856,979],[3,-16]],[[1859,963],[39,7],[11,-108]],[[1909,861],[20,-53]],[[1909,861],[0,1],[0,-1]],[[4096,1708],[-642,-943],[-646,-765]],[[1860,1116],[-14,-80]],[[1846,1036],[10,-57]],[[1846,1036],[10,-57]],[[1848,1072],[71,-59]],[[1902,1025],[-45,-46]],[[1901,1014],[-4,2]],[[1915,1005],[1,1]],[[0,4096],[1865,0],[74,-210],[7,-202],[-8,-49],[-16,-49],[-28,-30],[-89,13],[-10,-40],[11,-92],[-22,-220],[21,-125],[1,-46],[69,-182],[23,-109],[16,-101],[15,-149],[-44,-117],[1,-21],[-11,-34],[-35,-45],[-14,-29],[-2,-83],[22,-106],[184,-491],[17,-105],[0,-202],[-6,-55],[-15,-34],[-49,-69],[-9,-48],[21,-186],[-4,-59],[4,-26],[11,-29],[47,-80],[60,-177],[89,-509],[-2196,0],[0,4096]],[[1694,1037],[23,68],[13,-27],[58,-11],[7,37],[-24,24],[44,34],[28,-2],[22,-56],[72,-44],[-22,-55],[-18,11],[-32,-35],[-54,-10],[-40,17],[-6,-33],[-23,1],[13,30],[-16,1],[26,11],[-71,39]],[[1977,1116],[15,-327],[-37,-1],[-154,117],[-10,33],[63,95],[123,83]]]}