{"objects":{"water":{"type":"GeometryCollection","geometries":[]},"buildings":{"type":"GeometryCollection","geometries":[]},"places":{"type":"GeometryCollection","geometries":[{"type":"Point","properties":{"admin_level":"4","name:ro":"Tula","name:lt":"Tula","min_zoom":8.0,"int_name":"Tula","name:pl":"Tu\u0142a","name:hu":"Tula","id":34389350,"population":487841,"kind":"locality","name:en":"Tula","name":"\u0422\u0443\u043b\u0430","kind_detail":"city","name:de":"Tula","source":"openstreetmap.org","name:fr":"Toula","name:et":"Tula"},"coordinates":[3073,154]},{"type":"Point","properties":{"name:pt":"Serpukhov","name:az":"Serpuxov","name:ko":"\uc138\ub974\ud478\ud638\ud504","name:ar":"\u0633\u0631\u0628\u0648\u062e\u0648\u0641","name:cs":"Serpuchov","min_zoom":8.0,"int_name":"Serpukhov","name:it":"Serpuchov","name:tl":"Serpukhov","name:be":"\u0421\u0435\u0440\u043f\u0443\u0445\u0430\u045e","name:vi":"Serpukhov","name:pl":"Sierpuchow","id":191880180,"name:ca":"S\u00e9rpukhov","name:lv":"Serpuhova","name:fa":"\u0633\u0631\u067e\u0648\u062e\u0648\u0641","name:lt":"Serpuchovas","kind_detail":"city","name:uz":"Serpuxov","name:de":"Serpuchow","source":"openstreetmap.org","name:fr":"Serpoukhov","name:zh":"\u8b1d\u723e\u666e\u970d\u592b","name:ro":"Serpuhov","name:ja":"\u30bb\u30eb\u30d7\u30db\u30d5","name:nn":"Serpukhov","name:no":"Serpukhov","kind":"locality","name:la":"Serpuchovia","name:sv":"Serpuchov","population":126728,"name:eo":"Serpu\u0125ov","name:en":"Serpukhov","name":"\u0421\u0435\u0440\u043f\u0443\u0445\u043e\u0432","name:fi":"Serpuhov","name:et":"Serpuhhov","name:nl":"Serpoechov","name:es":"S\u00e9rpujov"},"coordinates":[2496,3784]},{"type":"Point","properties":{"kind":"locality","name:en":"Aleksin","name":"\u0410\u043b\u0435\u043a\u0441\u0438\u043d","name:lt":"Aleksinas","kind_detail":"town","min_zoom":8.0,"name:de":"Alexin","source":"openstreetmap.org","name:fr":"Aleksine","id":336306293,"population":58716},"coordinates":[1469,1710]},{"type":"Point","properties":{"name:pt":"Protvino","int_name":"Protvino","name:ja":"\u30d7\u30ed\u30c8\u30f4\u30a3\u30ce","name:nn":"Protvino","name:no":"Protvino","name:ar":"\u0628\u0631\u0648\u062a\u0641\u064a\u0646\u0648","kind":"locality","min_zoom":8.0,"name:it":"Protvino","name:tl":"Protvino","name:vi":"Protvino","name:pl":"Protwino","id":1798809766,"population":37261,"name:fa":"\u067e\u0631\u0648\u062a\u0648\u06cc\u0646\u0648","name:eo":"Protvino","name:en":"Protvino","name":"\u041f\u0440\u043e\u0442\u0432\u0438\u043d\u043e","kind_detail":"town","name:de":"Protwino","source":"openstreetmap.org","name:fr":"Protvino","name:fi":"Protvino","name:et":"Protvino","name:zh":"\u666e\u7f85\u7279\u7dad\u8afe"},"coordinates":[1912,3559]},{"type":"Point","properties":{"kind":"locality","name:en":"Pushchino","name":"\u041f\u0443\u0449\u0438\u043d\u043e","kind_detail":"town","name:de":"Puschtschino","source":"openstreetmap.org","min_zoom":8.0,"name:sr":"\u041f\u0443\u0448\u0447\u0438\u043d\u043e","population":21226,"id":256361871,"name:ja":"\u30d7\u30b7\u30ce"},"coordinates":[3063,3378]},{"type":"Point","properties":{"name:sr":"\u0408\u0430\u0441\u043d\u043e\u0433\u043e\u0440\u0441\u043a","name:az":"Yasnoqorsk","name:ja":"\u30e4\u30b9\u30ce\u30b4\u30eb\u30b9\u30af","name:nn":"Jasnogorsk","name:no":"Jasnogorsk","name:ko":"\uc57c\uc2a4\ub178\uace0\ub974\uc2a4\ud06c","name:ar":"\u064a\u0627\u0633\u0646\u0648\u063a\u0648\u0631\u0633\u0643","kind":"locality","min_zoom":8.0,"name:it":"Jasnogorsk","name:tl":"Yasnogorsk","name:be":"\u042f\u0441\u043d\u0430\u0433\u043e\u0440\u0441\u043a","name:pl":"Jasnogorsk","name:uk":"\u042f\u0441\u043d\u043e\u0433\u043e\u0440\u0441\u044c\u043a","id":256361872,"population":15872,"name:fa":"\u06cc\u0627\u0633\u0646\u0648\u06af\u0648\u0631\u0633\u06a9\u060c \u0627\u0648\u0628\u0644\u0627\u0633\u062a \u062a\u0648\u0644\u0627","name:eo":"Jasnogorsk","name:en":"Yasnogorsk","name:lt":"Jasnogorskas","kind_detail":"town","name:he":"\u05d9\u05d0\u05e1\u05e0\u05d5\u05d2\u05d5\u05e8\u05e1\u05e7","name:de":"Jasnogorsk","source":"openstreetmap.org","name:fr":"Iasnogorsk","name:fi":"Jasnogorsk","name:zh":"\u4e9e\u65af\u8afe\u6208\u723e\u65af\u514b","name":"\u042f\u0441\u043d\u043e\u0433\u043e\u0440\u0441\u043a","name:es":"Yasnogorsk"},"coordinates":[3294,1592]},{"type":"Point","properties":{"kind":"locality","name:en":"Kremyonki","name":"\u041a\u0440\u0435\u043c\u0451\u043d\u043a\u0438","kind_detail":"town","source":"openstreetmap.org","min_zoom":8.0,"id":1798809744,"population":10854},"coordinates":[1616,3638]},{"type":"Point","properties":{"int_name":"Tarusa","name:ja":"\u30bf\u30eb\u30fc\u30b5","name:nn":"Tarusa","name:no":"Tarusa","name:ko":"\ud0c0\ub8e8\uc0ac","name:ar":"\u062a\u0627\u0631\u064a\u0648\u0633\u0627","kind":"locality","min_zoom":8.0,"name:it":"Tarusa","name:tl":"Tarusa","name:pl":"Tarusa","id":271283522,"population":9353,"name:fa":"\u062a\u0627\u0631\u0648\u0633\u0627","name:eo":"Tarusa","name:en":"Tarusa","name":"\u0422\u0430\u0440\u0443\u0441\u0430","kind_detail":"town","name:de":"Tarussa","source":"openstreetmap.org","name:fr":"Taroussa","name:fi":"Tarusa","name:zh":"\u5854\u9b6f\u85a9","name:es":"Tarusa"},"coordinates":[1803,2849]},{"type":"Point","properties":{"kind":"locality","name:en":"Zaokskiy","name":"\u0417\u0430\u043e\u043a\u0441\u043a\u0438\u0439","kind_detail":"town","name:ar":"\u0632\u0627\u0648\u0643\u0633\u0643\u064a\u064a","name:de":"Saokski","source":"openstreetmap.org","min_zoom":8.0,"name:it":"Zaokskij","name:uk":"\u0417\u0430\u043e\u043a\u0441\u044c\u043a\u0438\u0439","id":4250183710,"population":6934},"coordinates":[2436,2868]},{"type":"Point","properties":{"source":"openstreetmap.org","kind":"locality","name":"\u041e\u0431\u043e\u043b\u0435\u043d\u0441\u043a","kind_detail":"town","population":4835,"min_zoom":8.0,"id":478527715},"coordinates":[1913,4076]},{"type":"Point","properties":{"source":"openstreetmap.org","kind":"locality","name":"\u0424\u0435\u0440\u0437\u0438\u043a\u043e\u0432\u043e","kind_detail":"town","population":4392,"min_zoom":8.0,"id":290875518},"coordinates":[582,1775]}]},"transit":{"type":"GeometryCollection","geometries":[{"type":"MultiLineString","properties":{"source":"openstreetmap.org","kind":"train","network":"\u0420\u0416\u0414","sort_rank":275,"ref":"105\/106 \u041c\u043e\u0441\u043a\u0432\u0430 - \u041a\u0443\u0440\u0441\u043a","min_zoom":6.0,"osm_relation":true},"arcs":[[4],[5],[6],[7]]},{"type":"MultiLineString","properties":{"source":"openstreetmap.org","kind":"train","network":"\u0420\u0416\u0414","sort_rank":275,"min_zoom":6.0,"osm_relation":true,"name":"\u041a\u0430\u043b\u0443\u0433\u0430 \u2014 \u0422\u0443\u043b\u0430"},"arcs":[[8],[9],[10],[11],[12],[13],[14]]},{"type":"MultiLineString","properties":{"kind":"train","name:en":"Baku \u2014 Moscow","name":"\u0411\u0430\u043a\u0443 \u2014 \u041c\u043e\u0441\u043a\u0432\u0430","sort_rank":275,"name:de":"Baku \u2014 Moskau","source":"openstreetmap.org","min_zoom":6.0,"ref":"055","osm_relation":true},"arcs":[[15],[16],[17],[18],[19],[20],[21]]},{"type":"MultiLineString","properties":{"source":"openstreetmap.org","kind":"train","name":"\u0420\u044f\u0436\u0441\u043a-1 \u2014 \u0427\u0435\u0440\u0435\u043f\u0435\u0442\u044c","sort_rank":275,"ref":"\u0420\u044f\u0436\u0441\u043a - \u0427\u0435\u0440\u0435\u043f\u0435\u0442\u044c","min_zoom":6.0,"osm_relation":true},"arcs":[[22],[23],[24],[25],[26],[27],[28],[29],[30],[31],[32],[33],[34],[35],[36],[37],[38],[39],[40],[41],[42],[43]]},{"type":"LineString","properties":{"kind":"train","name":"\u0414\u0435\u0442\u043a\u043e\u0432\u043e - \u041f\u043e\u0432\u0430\u0440\u043e\u0432\u043e II","sort_rank":275,"source":"openstreetmap.org","min_zoom":6.0,"operator":"\u041e\u0410\u041e \u0426\u041f\u041f\u041a \/ \u0422\u0427-20 \u0410\u043f\u0440\u0435\u043b\u0435\u0432\u043a\u0430","ref":"\u0414\u0435\u0442\u043a\u043e\u0432\u043e - \u041f\u043e\u0432\u0430\u0440\u043e\u0432\u043e II","osm_relation":true},"arcs":[44]},{"type":"MultiLineString","properties":{"kind":"train","network":"\u0420\u0416\u0414","sort_rank":275,"source":"openstreetmap.org","min_zoom":6.0,"ref":"151\/1 \u041c\u043e\u0441\u043a\u0432\u0430 \u2014 \u0410\u043d\u0430\u043f\u0430","osm_relation":true,"name":"\u041c\u043e\u0441\u043a\u0432\u0430 \u2014 \u0410\u043d\u0430\u043f\u0430"},"arcs":[[45],[46],[47],[48]]}]},"pois":{"type":"GeometryCollection","geometries":[{"type":"Point","properties":{"kind":"nature_reserve","tier":2,"protect_class":"1","area":146221000,"source":"openstreetmap.org","min_zoom":8.69,"operator":"\u0424\u0413\u0411\u0423 \u00ab\u041f\u0440\u0438\u043e\u043a\u0441\u043a\u043e-\u0422\u0435\u0440\u0440\u0430\u0441\u043d\u044b\u0439 \u0433\u043e\u0441\u0443\u0434\u0430\u0440\u0441\u0442\u0432\u0435\u043d\u043d\u044b\u0439 \u0437\u0430\u043f\u043e\u0432\u0435\u0434\u043d\u0438\u043a\u00bb","id":104412092,"name":"\u041f\u0440\u0438\u043e\u043a\u0441\u043a\u043e-\u0422\u0435\u0440\u0440\u0430\u0441\u043d\u044b\u0439 \u0433\u043e\u0441\u0443\u0434\u0430\u0440\u0441\u0442\u0432\u0435\u043d\u043d\u044b\u0439 \u043f\u0440\u0438\u0440\u043e\u0434\u043d\u044b\u0439 \u0431\u0438\u043e\u0441\u0444\u0435\u0440\u043d\u044b\u0439 \u0437\u0430\u043f\u043e\u0432\u0435\u0434\u043d\u0438\u043a"},"coordinates":[3064,3629]}]},"boundaries":{"type":"GeometryCollection","geometries":[{"type":"LineString","properties":{"name:left:uz":"Kaluga viloyati","name:right:nl":"Oblast Toela","name:right:fr":"Oblast de Toula","name:right:uk":"\u0422\u0443\u043b\u044c\u0441\u044c\u043a\u0430 \u043e\u0431\u043b\u0430\u0441\u0442\u044c","name:left:ja":"\u30ab\u30eb\u30fc\u30ac\u5dde","name:right:hu":"Tulai ter\u00fclet","name:right:sv":"Tula oblast","name:right:lt":"Tulos sritis","min_zoom":8.0,"name:left:lt":"Kalugos sritis","name:left:sh":"Kalu\u0161ka oblast","name:left:lv":"Kalugas apgabals","name:left:be":"\u041a\u0430\u043b\u0443\u0436\u0441\u043a\u0430\u044f \u0432\u043e\u0431\u043b\u0430\u0441\u0446\u044c","name:left:hu":"Kalugai ter\u00fclet","id":-81995,"name:right":"\u0422\u0443\u043b\u044c\u0441\u043a\u0430\u044f \u043e\u0431\u043b\u0430\u0441\u0442\u044c","name:left:en":"Kaluga Oblast","name:left:el":"\u03a0\u03b5\u03c1\u03b9\u03c6\u03ad\u03c1\u03b5\u03b9\u03b1 \u039a\u03b1\u03bb\u03bf\u03cd\u03b3\u03ba\u03b1","name:right:ca":"Prov\u00edncia de Tula","kind_detail":"4","name:left:ca":"Prov\u00edncia de Kaluga","source":"openstreetmap.org","osm_relation":true,"id:left":-81995,"name:left:es":"\u00d3blast de Kaluga","name:right:cs":"Tulsk\u00e1 oblast","name:left:cv":"\u041a\u0430\u043b\u0443\u0433\u0430 \u043e\u0431\u043b\u0430\u00e7\u0115","name:left:os":"\u041a\u0430\u043b\u0443\u0433\u00e6\u0439\u044b \u043e\u0431\u043b\u00e6\u0441\u0442","name:left:cs":"Kalu\u017esk\u00e1 oblast","name:left":"\u041a\u0430\u043b\u0443\u0436\u0441\u043a\u0430\u044f \u043e\u0431\u043b\u0430\u0441\u0442\u044c","name:right:ka":"\u10e2\u10e3\u10da\u10d8\u10e1 \u10dd\u10da\u10e5\u10d8","name:left:ka":"\u10d9\u10d0\u10da\u10e3\u10d2\u10d8\u10e1 \u10dd\u10da\u10e5\u10d8","name:left:pl":"Obw\u00f3d ka\u0142uski","name:left:tr":"Kaluga Oblast\u0131","name:right:it":"Oblast' di Tula","name:left:tt":"\u041a\u0430\u043b\u0443\u0433\u0430 \u04e9\u043b\u043a\u04d9\u0441\u0435","name:left:az":"Kaluqa vilay\u0259ti","name:left:ro":"Regiunea Kaluga","name:left:pt":"Oblast de Kaluga","name:left:kv":"\u041a\u0430\u043b\u0443\u0433\u0430 \u043e\u0431\u043b\u0430\u0441\u044c\u0442","name:right:ro":"Regiunea Tula","name:right:es":"\u00d3blast de Tula","name:left:sr":"\u041a\u0430\u043b\u0443\u0448\u043a\u0430 \u043e\u0431\u043b\u0430\u0441\u0442","id:right":-81993,"name:right:pl":"Obw\u00f3d tulski","name:right:en":"Tula Oblast","name:right:os":"\u0422\u0443\u043b\u00e6\u0439\u044b \u043e\u0431\u043b\u00e6\u0441\u0442","name:left:tg":"\u0412\u0438\u043b\u043e\u044f\u0442\u0438 \u041a\u0430\u043b\u0443\u0433\u0430","name:left:uk":"\u041a\u0430\u043b\u0443\u0437\u044c\u043a\u0430 \u043e\u0431\u043b\u0430\u0441\u0442\u044c","kind":"region","name:right:tt":"\u0422\u0443\u043b\u0430 \u04e9\u043b\u043a\u04d9\u0441\u0435","name":"\u041a\u0430\u043b\u0443\u0436\u0441\u043a\u0430\u044f \u043e\u0431\u043b\u0430\u0441\u0442\u044c - \u0422\u0443\u043b\u044c\u0441\u043a\u0430\u044f \u043e\u0431\u043b\u0430\u0441\u0442\u044c","name:right:de":"Oblast Tula","name:left:nl":"Oblast Kaloega","name:right:be":"\u0422\u0443\u043b\u044c\u0441\u043a\u0430\u044f \u0432\u043e\u0431\u043b\u0430\u0441\u0446\u044c","name:left:de":"Oblast Kaluga","sort_rank":256,"name:left:zh":"\u5361\u5362\u52a0\u5dde","name:left:fr":"Oblast de Kalouga","name:left:eu":"Kalugako oblasta","name:left:et":"Kaluga oblast","name:left:hy":"\u053f\u0561\u056c\u0578\u0582\u0563\u0561\u0575\u056b \u0574\u0561\u0580\u0566"},"arcs":[0]},{"type":"LineString","properties":{"name:pt":"Oblast de Kaluga","name:az":"Kaluqa vilay\u0259ti","name:ka":"\u10d9\u10d0\u10da\u10e3\u10d2\u10d8\u10e1 \u10dd\u10da\u10e5\u10d8","name:tr":"Kaluga Oblast\u0131","name:cv":"\u041a\u0430\u043b\u0443\u0433\u0430 \u043e\u0431\u043b\u0430\u00e7\u0115","name:cs":"Kalu\u017esk\u00e1 oblast","name:tt":"\u041a\u0430\u043b\u0443\u0433\u0430 \u04e9\u043b\u043a\u04d9\u0441\u0435","name:kv":"\u041a\u0430\u043b\u0443\u0433\u0430 \u043e\u0431\u043b\u0430\u0441\u044c\u0442","min_zoom":8.0,"name:ro":"Regiunea Kaluga","name:os":"\u041a\u0430\u043b\u0443\u0433\u00e6\u0439\u044b \u043e\u0431\u043b\u00e6\u0441\u0442","name:lv":"Kalugas apgabals","name:pl":"Obw\u00f3d ka\u0142uski","name:de":"Oblast Kaluga","name:tg":"\u0412\u0438\u043b\u043e\u044f\u0442\u0438 \u041a\u0430\u043b\u0443\u0433\u0430","name:ca":"Prov\u00edncia de Kaluga","sort_rank":256,"kind_detail":"4","name:uz":"Kaluga viloyati","id":-81995,"source":"openstreetmap.org","name:fr":"Oblast de Kalouga","name:zh":"\u5361\u5362\u52a0\u5dde","name:nl":"Oblast Kaloega","name:ja":"\u30ab\u30eb\u30fc\u30ac\u5dde","name:lt":"Kalugos sritis","name:sh":"Kalu\u0161ka oblast","name:uk":"\u041a\u0430\u043b\u0443\u0437\u044c\u043a\u0430 \u043e\u0431\u043b\u0430\u0441\u0442\u044c","name:hy":"\u053f\u0561\u056c\u0578\u0582\u0563\u0561\u0575\u056b \u0574\u0561\u0580\u0566","name:be":"\u041a\u0430\u043b\u0443\u0436\u0441\u043a\u0430\u044f \u0432\u043e\u0431\u043b\u0430\u0441\u0446\u044c","name:hu":"Kalugai ter\u00fclet","name:sr":"\u041a\u0430\u043b\u0443\u0448\u043a\u0430 \u043e\u0431\u043b\u0430\u0441\u0442","osm_relation":true,"name:el":"\u03a0\u03b5\u03c1\u03b9\u03c6\u03ad\u03c1\u03b5\u03b9\u03b1 \u039a\u03b1\u03bb\u03bf\u03cd\u03b3\u03ba\u03b1","kind":"region","name:en":"Kaluga Oblast","name":"\u041a\u0430\u043b\u0443\u0436\u0441\u043a\u0430\u044f \u043e\u0431\u043b\u0430\u0441\u0442\u044c","name:eu":"Kalugako oblasta","name:et":"Kaluga oblast","name:es":"\u00d3blast de Kaluga"},"arcs":[1]},{"type":"MultiLineString","properties":{"name:ro":"Regiunea Tula","name:nl":"Oblast Toela","name:ka":"\u10e2\u10e3\u10da\u10d8\u10e1 \u10dd\u10da\u10e5\u10d8","name:cs":"Tulsk\u00e1 oblast","name:tt":"\u0422\u0443\u043b\u0430 \u04e9\u043b\u043a\u04d9\u0441\u0435","min_zoom":8.0,"name:it":"Oblast' di Tula","name:uk":"\u0422\u0443\u043b\u044c\u0441\u044c\u043a\u0430 \u043e\u0431\u043b\u0430\u0441\u0442\u044c","name:be":"\u0422\u0443\u043b\u044c\u0441\u043a\u0430\u044f \u0432\u043e\u0431\u043b\u0430\u0441\u0446\u044c","name:os":"\u0422\u0443\u043b\u00e6\u0439\u044b \u043e\u0431\u043b\u00e6\u0441\u0442","name:sv":"Tula oblast","name:pl":"Obw\u00f3d tulski","name:hu":"Tulai ter\u00fclet","id":-81993,"name:ca":"Prov\u00edncia de Tula","name":"\u0422\u0443\u043b\u044c\u0441\u043a\u0430\u044f \u043e\u0431\u043b\u0430\u0441\u0442\u044c","kind":"region","name:en":"Tula Oblast","name:lt":"Tulos sritis","sort_rank":256,"kind_detail":"4","name:de":"Oblast Tula","source":"openstreetmap.org","name:fr":"Oblast de Toula","osm_relation":true,"name:es":"\u00d3blast de Tula"},"arcs":[[2],[3]]}]},"roads":{"type":"GeometryCollection","geometries":[{"type":"MultiLineString","properties":{"source":"openstreetmap.org","bus_network":null,"bus_shield_text":"\u041a\u0438\u0435\u0432-\u041c\u043e\u0441\u043a\u0432\u0430","sort_rank":380,"kind_detail":"primary","min_zoom":8.0,"kind":"major_road"},"arcs":[[49],[50]]},{"type":"MultiLineString","properties":{"kind":"major_road","network":"ru:regional","sort_rank":380,"kind_detail":"primary","source":"openstreetmap.org","min_zoom":8.0,"shield_text":"139","ref":"\u0420139"},"arcs":[[51],[52]]},{"type":"LineString","properties":{"kind":"major_road","sort_rank":380,"kind_detail":"primary","old_name":"\u0421\u0442\u0430\u0440\u043e-\u0411\u0430\u0437\u0430\u0440\u043d\u044b\u0439 \u043c\u043e\u0441\u0442","bus_network":null,"source":"openstreetmap.org","min_zoom":8.0,"bus_shield_text":"5","landuse_kind":"urban_area","id":168655542},"arcs":[53]},{"type":"MultiLineString","properties":{"bus_network":null,"sort_rank":380,"kind_detail":"primary","kind":"major_road","source":"openstreetmap.org","min_zoom":8.0,"bus_shield_text":"\u041a\u0438\u0435\u0432-\u041c\u043e\u0441\u043a\u0432\u0430","landuse_kind":"urban_area"},"arcs":[[54],[55],[56]]},{"type":"LineString","properties":{"kind":"ferry","name:en":"Oka","name":"\u041e\u043a\u0430","sort_rank":355,"name:de":"Oka","source":"openstreetmap.org","min_zoom":8.0,"int_name":"Oka","name:pl":"Oka","id":202270051},"arcs":[57]},{"type":"MultiLineString","properties":{"bus_network":null,"sort_rank":380,"kind_detail":"primary","kind":"major_road","source":"openstreetmap.org","min_zoom":8.0,"bus_shield_text":"5","landuse_kind":"urban_area"},"arcs":[[58],[59],[60]]},{"type":"MultiLineString","properties":{"bus_network":null,"network":"ru:regional","sort_rank":380,"kind_detail":"primary","kind":"major_road","source":"openstreetmap.org","min_zoom":8.0,"bus_shield_text":"131","shield_text":null},"arcs":[[61],[62]]},{"type":"MultiLineString","properties":{"sort_rank":380,"kind_detail":"primary","min_zoom":8.0,"kind":"major_road","source":"openstreetmap.org"},"arcs":[[63],[64],[65],[66]]},{"type":"LineString","properties":{"bus_network":null,"sort_rank":380,"kind_detail":"primary","kind":"major_road","source":"openstreetmap.org","min_zoom":8.0,"bus_shield_text":"458","loc_name":"\u0421\u0442\u0430\u0440\u043e\u0435 \u0421\u0438\u043c\u0444\u0435\u0440\u043e\u043f\u043e\u043b\u044c\u0441\u043a\u043e\u0435 \u0448\u043e\u0441\u0441\u0435"},"arcs":[67]},{"type":"LineString","properties":{"bus_network":null,"sort_rank":380,"kind_detail":"primary","kind":"major_road","source":"openstreetmap.org","min_zoom":8.0,"bus_shield_text":"2\u041c","loc_name":"\u0421\u0442\u0430\u0440\u043e\u0435 \u0421\u0438\u043c\u0444\u0435\u0440\u043e\u043f\u043e\u043b\u044c\u0441\u043a\u043e\u0435 \u0448\u043e\u0441\u0441\u0435","landuse_kind":"urban_area"},"arcs":[68]},{"type":"MultiLineString","properties":{"bus_network":null,"sort_rank":380,"kind_detail":"primary","kind":"major_road","source":"openstreetmap.org","min_zoom":8.0,"bus_shield_text":"112","landuse_kind":"urban_area"},"arcs":[[69],[70]]},{"type":"LineString","properties":{"bus_network":null,"network":"ru:regional","sort_rank":380,"kind_detail":"primary","kind":"major_road","source":"openstreetmap.org","min_zoom":8.0,"bus_shield_text":"27","shield_text":null},"arcs":[71]},{"type":"LineString","properties":{"source":"openstreetmap.org","kind":"major_road","sort_rank":380,"kind_detail":"primary","ref":"\u0420115","min_zoom":8.0},"arcs":[72]},{"type":"MultiLineString","properties":{"kind":"major_road","network":"ru:national","sort_rank":381,"kind_detail":"trunk","source":"openstreetmap.org","min_zoom":8.0,"shield_text":"132","ref":"\u0420-132"},"arcs":[[73],[74]]},{"type":"MultiLineString","properties":{"kind":"ferry","name:en":"Oka","name":"\u041e\u043a\u0430","sort_rank":355,"landuse_kind":"urban_area","name:de":"Oka","source":"openstreetmap.org","min_zoom":8.0,"int_name":"Oka","name:pl":"Oka","id":202270051},"arcs":[[75],[76]]},{"type":"MultiLineString","properties":{"source":"openstreetmap.org","kind":"major_road","sort_rank":381,"kind_detail":"trunk","ref":"\u0420-132","min_zoom":8.0},"arcs":[[77],[78]]},{"type":"LineString","properties":{"source":"openstreetmap.org","bus_network":null,"bus_shield_text":"26","sort_rank":380,"kind_detail":"primary","min_zoom":8.0,"kind":"major_road"},"arcs":[79]},{"type":"LineString","properties":{"source":"openstreetmap.org","kind":"major_road","network":"ru:regional","sort_rank":380,"kind_detail":"primary","min_zoom":8.0,"shield_text":"139"},"arcs":[80]},{"type":"LineString","properties":{"source":"openstreetmap.org","kind":"ferry","name":"\u0421\u0435\u0440\u043f\u0443\u0445\u043e\u0432 - \u0421\u0430\u0434\u044b","sort_rank":355,"min_zoom":8.0,"id":123066588},"arcs":[81]},{"type":"LineString","properties":{"kind":"major_road","network":"e-road","sort_rank":381,"kind_detail":"trunk","source":"openstreetmap.org","min_zoom":8.0,"shield_text":"105","ref":"\u0420-132","id":243554682},"arcs":[82]},{"type":"MultiLineString","properties":{"bus_network":null,"network":"ru:regional","sort_rank":380,"kind_detail":"primary","kind":"major_road","source":"openstreetmap.org","min_zoom":8.0,"bus_shield_text":"131","shield_text":"29\u041a","ref":"29\u041a-027"},"arcs":[[83],[84],[85]]},{"type":"LineString","properties":{"kind":"major_road","network":"ru:national","sort_rank":381,"kind_detail":"trunk","source":"openstreetmap.org","min_zoom":8.0,"shield_text":"108","ref":"\u0410-108"},"arcs":[86]},{"type":"LineString","properties":{"bus_network":null,"network":"ru:regional","sort_rank":380,"kind_detail":"primary","kind":"major_road","source":"openstreetmap.org","min_zoom":8.0,"bus_shield_text":"112","shield_text":"140","landuse_kind":"urban_area"},"arcs":[87]},{"type":"MultiLineString","properties":{"sort_rank":381,"source":"openstreetmap.org","min_zoom":8.0,"kind":"major_road","kind_detail":"trunk"},"arcs":[[88],[89]]},{"type":"LineString","properties":{"kind":"major_road","network":"ru:national","sort_rank":381,"landuse_kind":"urban_area","source":"openstreetmap.org","min_zoom":8.0,"kind_detail":"trunk","shield_text":"108","ref":"\u0410-108"},"arcs":[90]},{"type":"MultiLineString","properties":{"sort_rank":355,"source":"openstreetmap.org","kind":"ferry","min_zoom":8.0,"id":202270062},"arcs":[[91],[92],[93],[94],[95]]},{"type":"LineString","properties":{"kind":"major_road","network":"ru:regional","sort_rank":380,"kind_detail":"primary","source":"openstreetmap.org","min_zoom":8.0,"landuse_kind":"urban_area","shield_text":"139"},"arcs":[96]},{"type":"MultiLineString","properties":{"kind":"major_road","network":"ru:regional","sort_rank":380,"kind_detail":"primary","source":"openstreetmap.org","min_zoom":8.0,"shield_text":"70\u041a","ref":"70\u041a-024"},"arcs":[[97],[98],[99]]},{"type":"LineString","properties":{"source":"openstreetmap.org","kind":"ferry","name":"\u041a\u0430\u043b\u0443\u0433\u0430 - \u0414\u0443\u0433\u043d\u0430","sort_rank":355,"min_zoom":8.0,"id":179632517},"arcs":[100]},{"type":"MultiLineString","properties":{"kind":"ferry","name":"\u041c\u0430\u0440\u0448\u0440\u0443\u0442 \u041a\u0430\u043b\u0443\u0433\u0430 - \u0410\u043b\u0435\u043a\u0441\u0438\u043d","sort_rank":355,"landuse_kind":"urban_area","source":"openstreetmap.org","min_zoom":8.0,"id":-2448819,"osm_relation":true},"arcs":[[101],[102],[103]]},{"type":"LineString","properties":{"bus_network":null,"sort_rank":380,"kind_detail":"primary","kind":"major_road","source":"openstreetmap.org","min_zoom":8.0,"bus_shield_text":"26","landuse_kind":"urban_area"},"arcs":[104]},{"type":"LineString","properties":{"bus_network":null,"network":"ru:national","sort_rank":381,"kind_detail":"trunk","kind":"major_road","source":"openstreetmap.org","min_zoom":8.0,"bus_shield_text":"\u041a\u0438\u0435\u0432-\u041c\u043e\u0441\u043a\u0432\u0430","shield_text":"2","ref":"\u041c-2"},"arcs":[105]},{"type":"MultiLineString","properties":{"bus_network":null,"sort_rank":380,"kind_detail":"primary","kind":"major_road","source":"openstreetmap.org","min_zoom":8.0,"bus_shield_text":"3","landuse_kind":"urban_area"},"arcs":[[106],[107]]},{"type":"LineString","properties":{"bus_network":null,"name:en":"Voroshilova Street","sort_rank":380,"kind_detail":"primary","kind":"major_road","source":"openstreetmap.org","min_zoom":8.0,"bus_shield_text":"2\u041c","landuse_kind":"urban_area"},"arcs":[108]},{"type":"MultiLineString","properties":{"kind":"highway","network":"ru:national","sort_rank":383,"kind_detail":"motorway","source":"openstreetmap.org","min_zoom":8.0,"all_networks":["ru:national","e-road"],"shield_text":"2","ref":"\u041c-2","all_shield_texts":["2","105"]},"arcs":[[109],[110],[111],[112],[113]]},{"type":"LineString","properties":{"bus_network":null,"sort_rank":380,"kind_detail":"primary","kind":"major_road","source":"openstreetmap.org","min_zoom":8.0,"bus_shield_text":"13","loc_name":"\u0421\u0442\u0430\u0440\u043e\u0435 \u0421\u0438\u043c\u0444\u0435\u0440\u043e\u043f\u043e\u043b\u044c\u0441\u043a\u043e\u0435 \u0448\u043e\u0441\u0441\u0435"},"arcs":[114]},{"type":"MultiLineString","properties":{"source":"openstreetmap.org","kind":"major_road","landuse_kind":"urban_area","sort_rank":380,"kind_detail":"primary","min_zoom":8.0},"arcs":[[115],[116],[117],[118],[119],[120],[121],[122],[123],[124]]},{"type":"MultiLineString","properties":{"kind":"major_road","network":"ru:national","sort_rank":381,"kind_detail":"trunk","source":"openstreetmap.org","min_zoom":8.0,"shield_text":"2","ref":"\u0420-132"},"arcs":[[125],[126]]},{"type":"LineString","properties":{"kind":"major_road","network":"ru:regional","sort_rank":380,"kind_detail":"primary","source":"openstreetmap.org","min_zoom":8.0,"shield_text":"29\u041a","ref":"29\u041a-027"},"arcs":[127]},{"type":"LineString","properties":{"source":"openstreetmap.org","kind":"major_road","network":"ru:national","sort_rank":381,"kind_detail":"trunk","min_zoom":8.0,"shield_text":"2"},"arcs":[128]},{"type":"LineString","properties":{"kind":"major_road","sort_rank":380,"kind_detail":"primary","bus_network":null,"source":"openstreetmap.org","min_zoom":8.0,"bus_shield_text":"13","loc_name":"\u0421\u0442\u0430\u0440\u043e\u0435 \u0421\u0438\u043c\u0444\u0435\u0440\u043e\u043f\u043e\u043b\u044c\u0441\u043a\u043e\u0435 \u0448\u043e\u0441\u0441\u0435","landuse_kind":"urban_area","id":314730719},"arcs":[129]},{"type":"MultiLineString","properties":{"bus_network":null,"sort_rank":380,"kind_detail":"primary","kind":"major_road","source":"openstreetmap.org","min_zoom":8.0,"bus_shield_text":"4","landuse_kind":"urban_area"},"arcs":[[130],[131],[132]]},{"type":"MultiLineString","properties":{"kind":"major_road","network":"ru:national","sort_rank":381,"kind_detail":"trunk","source":"openstreetmap.org","min_zoom":8.0,"shield_text":"2","ref":"\u041c-2"},"arcs":[[133],[134],[135]]},{"type":"LineString","properties":{"bus_network":null,"sort_rank":380,"kind_detail":"primary","kind":"major_road","source":"openstreetmap.org","min_zoom":8.0,"bus_shield_text":"2\u041c","landuse_kind":"urban_area"},"arcs":[136]},{"type":"MultiLineString","properties":{"source":"openstreetmap.org","kind":"ferry","name":"\u041c\u0430\u0440\u0448\u0440\u0443\u0442 \u041a\u0430\u043b\u0443\u0433\u0430 - \u0410\u043b\u0435\u043a\u0441\u0438\u043d","sort_rank":355,"min_zoom":8.0,"osm_relation":true,"id":-2448819},"arcs":[[137],[138],[139],[140],[141],[142],[143]]},{"type":"LineString","properties":{"bus_network":null,"network":"ru:national","sort_rank":381,"kind_detail":"trunk","kind":"major_road","source":"openstreetmap.org","min_zoom":8.0,"bus_shield_text":"458","shield_text":"108","ref":"\u0410-108"},"arcs":[144]},{"type":"LineString","properties":{"kind":"major_road","sort_rank":380,"kind_detail":"primary","bus_network":null,"source":"openstreetmap.org","min_zoom":8.0,"bus_shield_text":"5","id":282732416},"arcs":[145]},{"type":"LineString","properties":{"source":"openstreetmap.org","kind":"major_road","network":"ru:regional","sort_rank":380,"kind_detail":"primary","min_zoom":8.0,"shield_text":null},"arcs":[146]},{"type":"MultiLineString","properties":{"bus_network":null,"sort_rank":380,"kind_detail":"primary","kind":"major_road","source":"openstreetmap.org","min_zoom":8.0,"bus_shield_text":"1","landuse_kind":"urban_area"},"arcs":[[147],[148]]},{"type":"LineString","properties":{"kind":"major_road","network":"ru:national","sort_rank":381,"landuse_kind":"urban_area","source":"openstreetmap.org","min_zoom":8.0,"kind_detail":"trunk","shield_text":"2","ref":"\u041c-2"},"arcs":[149]},{"type":"LineString","properties":{"source":"openstreetmap.org","bus_network":null,"bus_shield_text":"24**","sort_rank":380,"kind_detail":"primary","min_zoom":8.0,"kind":"major_road"},"arcs":[150]},{"type":"MultiLineString","properties":{"bus_network":null,"sort_rank":380,"kind_detail":"primary","kind":"major_road","source":"openstreetmap.org","min_zoom":8.0,"bus_shield_text":"8","landuse_kind":"urban_area"},"arcs":[[151],[152],[153]]}]},"earth":{"type":"GeometryCollection","geometries":[{"type":"Polygon","properties":{"sort_rank":10,"source":"naturalearthdata.com","min_zoom":0.0,"kind":"earth","area":98022885885},"arcs":[[154]]}]},"landuse":{"type":"GeometryCollection","geometries":[{"type":"MultiPolygon","properties":{"source":"naturalearthdata.com","kind":"urban_area","name":"","area":6932720887,"sort_rank":11,"min_zoom":4.0},"arcs":[[[155]],[[156]],[[157]],[[158]],[[159]]]},{"type":"Polygon","properties":{"kind":"nature_reserve","protect_class":"1","area":146220992,"sort_rank":23,"operator":"\u0424\u0413\u0411\u0423 \u00ab\u041f\u0440\u0438\u043e\u043a\u0441\u043a\u043e-\u0422\u0435\u0440\u0440\u0430\u0441\u043d\u044b\u0439 \u0433\u043e\u0441\u0443\u0434\u0430\u0440\u0441\u0442\u0432\u0435\u043d\u043d\u044b\u0439 \u0437\u0430\u043f\u043e\u0432\u0435\u0434\u043d\u0438\u043a\u00bb","source":"openstreetmap.org","min_zoom":7.0,"tier":2,"id":104412092},"arcs":[[160]]},{"type":"Polygon","properties":{"kind":"park","area":1428359936,"sort_rank":24,"source":"openstreetmap.org","min_zoom":4.0,"tier":2,"id":-2169138,"osm_relation":true},"arcs":[[161],[162]]}]}},"type":"Topology","transform":{"translate":[36.5625,54.1624339681],"scale":[0.0003433228,0.0001990185]},"arcs":[[[0,616],[77,-40],[74,46],[79,4],[20,-37],[92,54],[-24,58],[11,33],[30,4],[42,-50],[-7,-27],[52,-30],[-2,-53],[45,42],[77,-14],[41,-41],[53,12],[28,-51],[8,33],[32,-9],[96,81],[113,-44],[52,52],[189,10],[23,40],[-32,39],[17,123],[-59,10],[-26,30],[16,12],[-43,4],[154,229],[-74,153],[39,52],[-85,29],[-4,59],[-82,-28],[-63,-68],[-45,98],[41,67],[-97,95],[72,29],[-32,41],[12,58],[84,32],[87,-24],[24,16],[-1,86],[26,-3],[-3,-25],[36,4],[-4,30],[-95,28],[19,18],[-60,42],[45,20],[-100,70],[75,131],[180,80],[33,-39],[19,8],[12,-38],[66,10],[13,-40],[57,21],[19,-38],[-18,-55],[30,-20],[-12,-35],[55,-75],[148,42],[42,67],[28,229],[120,112],[53,207],[104,164],[-39,45],[-76,21],[-34,54],[44,42],[-12,19],[103,61],[-37,233],[116,193]],[[2057,3414],[20,27],[-41,18],[-84,-27],[2,26],[-27,13],[-69,-18],[-14,40],[-88,45],[30,60],[-20,7],[16,48],[-21,28],[75,142],[-94,136],[24,29],[-32,9],[10,36],[25,-39],[6,54],[-53,48]],[[4096,3092],[-43,15],[43,47]],[[4096,3411],[-94,44],[-124,-1],[-293,-88],[-132,0],[67,-36],[24,-48],[-43,-60],[17,-87],[22,-7],[-6,-68],[-35,1],[-2,-139],[-104,-96],[-70,-21],[-25,16],[-23,-50],[-176,148],[-185,-5],[2,-52],[-46,28],[27,100],[-36,115],[-54,-5],[-85,69],[20,72],[-56,65],[-51,-7],[-31,100],[-18,-15],[-12,29],[-162,12],[-40,-29],[-19,68],[-33,-15],[-9,-76],[-63,62],[-22,-35],[-45,6],[-22,53],[-25,-23],[-2,-99],[-69,21],[15,25],[-21,31]],[[2982,225],[-51,-81],[-5,-10],[-26,-134]],[[2986,302],[-33,87],[7,26],[32,43],[4,6],[4,8],[3,10],[5,56],[23,66],[11,45],[86,99],[11,8],[33,17],[9,6],[5,5],[4,6],[4,8],[14,78],[1,24],[-6,77],[11,94],[5,16],[8,10],[21,22],[4,5],[5,7],[5,14],[1,9],[1,9],[-2,94],[62,167],[1,8],[1,5],[-1,5],[-2,9],[-15,51],[1,28],[-1,6],[-2,8],[-56,118],[-5,7],[-5,5],[-170,167],[-20,24],[3,95],[-1,6],[-1,10],[-2,8],[-5,13],[-37,75],[-201,394],[-21,40],[-6,7],[-6,7],[-5,5],[-12,10],[-147,89],[-11,16],[-49,126],[-4,8],[-3,5],[-4,4],[-6,5],[-78,67],[-35,67],[-36,193],[-3,10],[-33,78],[-26,50],[-6,49],[11,25],[37,26],[7,8],[2,4],[3,5],[3,9],[2,9],[-1,60],[7,20],[102,101],[9,10],[3,5],[9,17]],[[2601,4096],[-12,-63],[2,-268],[-95,-186],[-110,-111],[-8,-20],[-3,-78],[-50,-43],[-8,-15],[-1,-5],[-2,-9],[7,-45],[61,-138],[35,-186],[2,-7],[7,-13],[24,-48],[4,-6],[7,-8],[83,-71],[56,-141],[9,-12],[176,-117],[259,-509],[8,-31],[-7,-82],[1,-10],[4,-9],[2,-4],[18,-20],[175,-172],[63,-133],[-1,-34],[18,-74],[-63,-171],[-1,-112],[-42,-58],[-5,-16],[-12,-95],[6,-99],[-14,-79],[-66,-50],[-86,-99],[-35,-111],[-7,-66],[-40,-56],[-7,-27],[43,-133],[-63,-107]],[[2960,189],[13,22]],[[0,2105],[58,-45],[60,-137],[106,-107],[111,-36],[172,5],[96,-22],[69,-95],[70,-36],[63,11],[64,71],[155,-34],[98,14],[67,54],[82,-48],[32,-56],[108,0],[33,29],[10,58],[28,12],[35,-95],[67,-66],[93,-32],[66,-89],[179,16],[95,-44],[55,29],[59,-42],[130,-11],[104,-54],[103,-16],[105,-67],[38,-124],[110,-80],[18,-138],[-86,-85],[-40,-112],[20,-137],[60,-118],[-6,-55],[119,-96],[25,1],[24,14],[22,17],[7,4],[27,9],[12,-1]],[[2923,371],[2,-1]],[[2930,368],[-5,2]],[[2925,370],[-40,-7],[-6,-3],[-11,-10],[-13,-8],[-20,-12],[-4,-2],[-10,-3],[-4,0],[-5,0]],[[2930,368],[-3,2],[-4,1]],[[2983,227],[4,43],[-55,97]],[[2944,165],[37,61]],[[2601,4096],[-12,-63],[-1,-12],[0,-7],[3,-249],[-95,-186],[-76,-70],[-31,-37],[-3,-4],[-3,-5],[-3,-9],[-2,-6],[-1,-74],[-12,-18],[-31,-21],[-6,-5],[-3,-3],[-3,-6],[-5,-9],[-2,-10],[-1,-10],[4,-29],[1,-5],[2,-5],[58,-128],[5,-21],[2,-69],[2,-9],[3,-13],[26,-84],[2,-7],[31,-61],[4,-6],[7,-8],[83,-71],[56,-141],[4,-7],[5,-5],[4,-4],[9,-5],[134,-80],[29,-28],[259,-509],[8,-31],[0,-14],[-7,-63],[0,-5],[0,-5],[1,-5],[4,-9],[2,-4],[3,-5],[15,-15],[175,-172],[8,-14],[10,-49],[2,-7],[2,-5],[4,-6],[31,-35],[5,-14],[0,-37],[18,-74],[-38,-101],[-24,-63],[-1,-7],[-2,-16],[0,-17],[3,-61],[-2,-18],[-42,-58],[-4,-8],[-1,-8],[-3,-16],[-9,-79],[6,-99],[-14,-79],[-66,-50],[-53,-54],[-22,-25],[-7,-11],[-4,-9],[-3,-9],[-9,-36],[-21,-59],[-2,-7],[0,-5],[-4,-51],[-3,-10],[-8,-14],[-28,-36],[-4,-6],[-2,-6],[-3,-8],[-2,-13],[-1,-3],[2,-10],[1,-3],[9,-23],[21,-48]],[[2961,189],[11,20]],[[3121,267],[-18,29],[-78,15],[-19,-21],[-9,-39],[-5,-11],[-21,-35]],[[2976,216],[21,57],[-44,116],[47,83],[42,177],[152,149],[14,78],[6,195],[48,74],[2,18],[-2,94],[63,171],[-17,111],[-6,14],[-34,42],[-15,60],[-8,14],[-193,192],[0,105],[-8,31],[-259,509],[-29,29],[-147,89],[-65,152],[-94,85],[-33,68],[-34,186],[-3,10],[-33,78],[-26,50],[-6,45],[11,29],[37,26],[7,8],[5,9],[3,9],[2,9],[-1,60],[7,20],[111,111],[94,186],[-2,268],[13,63]],[[3092,204],[0,5]],[[3120,167],[-16,12],[-7,7],[-4,9],[-2,13],[2,9],[3,6],[22,30],[3,14]],[[3423,0],[-34,71],[-61,3],[-83,69],[-142,37],[-11,32],[26,41],[3,6],[0,8]],[[2930,368],[-2,1]],[[2928,369],[-3,1]],[[2925,370],[-40,-7],[-50,-33],[-14,-5],[-6,0],[-140,106],[-128,-36],[-186,63],[-78,-12],[-142,95],[-95,108],[-148,-41],[-59,-143],[-168,-85],[-78,-90],[-61,6],[-86,-53]],[[1446,243],[-4,-3]],[[1442,240],[-39,-25]],[[1403,215],[-16,-6]],[[1387,209],[-306,45],[-139,-143],[-29,60],[-43,14],[-26,90],[-55,9],[-122,-73],[-95,-1],[-139,-105],[-120,-2],[-61,34],[-56,-137]],[[1387,209],[15,5]],[[1402,214],[7,4]],[[1409,218],[33,22]],[[1403,215],[-1,-1]],[[1446,243],[-37,-25]],[[2925,370],[-2,1]],[[2923,371],[-3,1],[-4,1],[-5,-1],[-26,-8],[-68,-39]],[[2930,368],[-3,2],[-4,1]],[[3288,111],[-47,34],[-124,25],[-26,36],[4,15],[20,27],[4,7],[2,4],[1,8],[0,2],[-1,6],[-2,6],[-3,4],[-2,3],[-4,4],[-3,2],[-4,2],[-3,1],[-18,4],[-17,11],[-6,3],[-3,1],[-7,1],[-9,-1],[-37,-8],[-19,4],[-13,10],[-6,19],[-1,2],[-3,4],[-2,3],[-4,2],[-25,16]],[[2930,368],[-2,1]],[[2932,367],[29,-20],[10,-25],[13,-11],[19,-3],[53,8],[26,-15],[21,-5],[11,-8],[6,-28],[-4,-9],[-20,-28],[-2,-4],[-3,-14],[8,-21],[5,-5],[16,-12]],[[3307,88],[-19,23]],[[3288,111],[15,-19]],[[3423,0],[-29,68],[-87,20]],[[3307,88],[-4,4]],[[2591,3880],[-2,153],[13,63]],[[2982,225],[-51,-81],[-5,-10],[-26,-134]],[[2986,302],[-33,87],[7,26],[32,43],[4,6],[4,8],[3,10],[5,56],[23,66],[11,45],[86,99],[11,8],[33,17],[9,6],[5,5],[4,6],[4,8],[14,78],[1,24],[-6,77],[11,94],[5,16],[8,10],[21,22],[4,5],[5,7],[5,14],[1,9],[1,9],[-2,94],[62,167],[1,8],[1,5],[-1,5],[-2,9],[-15,51],[1,28],[-1,6],[-2,8],[-56,118],[-5,7],[-5,5],[-170,167],[-20,24],[3,95],[-1,6],[-1,10],[-2,8],[-5,13],[-37,75],[-201,394],[-21,40],[-6,7],[-6,7],[-5,5],[-12,10],[-147,89],[-11,16],[-49,126],[-4,8],[-3,5],[-4,4],[-6,5],[-78,67],[-35,67],[-36,193],[-3,10],[-33,78],[-26,50],[-6,49],[11,25],[37,26],[7,8],[2,4],[3,5],[3,9],[2,9],[-1,60],[7,20],[102,101],[9,10],[3,5],[9,17]],[[2601,4096],[-12,-63],[2,-268],[-95,-186],[-110,-111],[-8,-20],[-3,-78],[-50,-43],[-8,-15],[-1,-5],[-2,-9],[7,-45],[61,-138],[35,-186],[2,-7],[7,-13],[24,-48],[4,-6],[7,-8],[83,-71],[56,-141],[9,-12],[176,-117],[259,-509],[8,-31],[-7,-82],[1,-10],[4,-9],[2,-4],[18,-20],[175,-172],[63,-133],[-1,-34],[18,-74],[-63,-171],[-1,-112],[-42,-58],[-5,-16],[-12,-95],[6,-99],[-14,-79],[-66,-50],[-86,-99],[-35,-111],[-7,-66],[-40,-56],[-7,-27],[43,-133],[-63,-107]],[[2960,189],[13,22]],[[2880,857],[64,-153]],[[2979,621],[46,-107]],[[2629,7],[-10,-7]],[[2634,13],[79,43]],[[2440,3785],[-4,-3]],[[2944,704],[35,-83]],[[2984,9],[-1,-9]],[[3025,514],[75,-212],[-45,-120],[15,-33],[-84,-131]],[[1509,1661],[39,48]],[[2436,3782],[-77,-49]],[[2440,3785],[23,22]],[[2979,181],[-6,-46]],[[530,1916],[2,1]],[[2045,3445],[88,214]],[[2773,211],[-250,179],[-187,60],[-121,-23]],[[2594,4096],[7,-10],[157,-277]],[[2728,2172],[-2,8]],[[4096,2965],[-31,-38],[-123,-8],[-159,-90],[-69,-1],[-158,-80],[-82,-1],[-88,-127],[-89,-3],[-227,-86]],[[2483,4087],[-27,-201]],[[2448,3831],[3,-7]],[[3084,208],[41,-24]],[[3095,140],[33,-91]],[[2133,3659],[217,70]],[[3070,2531],[-200,-97],[13,-112],[-109,-69],[-7,-53],[-39,-28],[-12,-49],[-64,-10],[-40,23]],[[0,1224],[283,-158],[415,-103],[542,-175],[152,-85],[131,-13],[266,-94],[196,-15],[214,-141]],[[2639,5],[7,-5]],[[1548,1709],[-45,64]],[[1508,1659],[1,2]],[[2631,12],[-1,-2]],[[2632,9],[1,1]],[[2707,3763],[62,-27]],[[2713,56],[93,65]],[[2430,3677],[53,-56],[-92,-37]],[[2630,10],[2,-1]],[[528,1916],[-219,-54],[-61,25],[-68,-32],[-180,52]],[[1668,2810],[-133,-105],[-24,-91],[-30,-26],[-220,-78],[-132,-187],[-10,-52],[-79,-53],[-44,-87],[-231,-84],[-75,-71],[-158,-57]],[[1790,2993],[120,68],[15,94],[-49,148],[30,64],[43,51],[96,27]],[[2483,4087],[-82,4]],[[3128,49],[4,-49]],[[690,966],[15,-5]],[[2201,438],[-6,6]],[[2401,4091],[-86,5]],[[1242,1580],[-90,-131],[-106,-40]],[[1046,1409],[-1,-1],[1,-1],[0,2]],[[1046,1409],[-17,-5]],[[1029,1404],[1,4],[1,-1],[-1,-1],[-1,-2]],[[1029,1404],[-96,-93],[-66,22]],[[2806,121],[111,43]],[[2708,1265],[-46,141],[-133,1843],[90,146]],[[2708,1265],[13,-36]],[[2708,1265],[17,-18]],[[867,1333],[-211,95],[-131,-43],[-108,16],[-59,-86],[-53,-28],[-82,43],[-80,-39],[-74,117],[-69,-13]],[[1326,1605],[-22,-4]],[[1509,1663],[-32,-20]],[[1490,1776],[55,-67]],[[2566,3778],[141,-15]],[[2880,857],[-143,364]],[[2511,3793],[55,-15]],[[3057,169],[-78,12]],[[2484,3780],[23,16]],[[2825,4096],[-2,-6],[-5,-134],[-54,-206],[0,-119],[-26,-88],[-79,-63],[-1,-2]],[[2658,3478],[-17,-29]],[[2641,3449],[-11,-18],[-9,-63],[56,-109],[18,-271],[18,-60],[47,-78],[14,-66],[-32,-226],[-20,-251],[61,-422],[-21,-206],[-15,-342],[-76,-243],[-104,-117],[-71,-152],[-98,-84],[-114,-151],[-73,-139],[73,138],[212,236],[72,151],[104,117],[76,244],[35,548],[-60,422],[52,477],[-14,66],[-65,138],[-18,271],[-56,110],[8,60],[1,1],[10,19]],[[2641,3449],[14,27],[3,2]],[[2658,3478],[1,1],[16,10],[2,2],[62,51],[26,89],[0,109],[54,216],[5,134],[2,6]],[[2456,3886],[-3,-17]],[[2940,118],[-58,106],[-109,-13]],[[2942,115],[0,2]],[[3118,29],[-47,-29]],[[3076,213],[8,-5]],[[3118,29],[46,66]],[[3164,95],[-38,-52],[-8,-14]],[[3135,205],[2,-1]],[[3198,167],[-34,-72]],[[3197,172],[6,-4]],[[3204,169],[-7,4]],[[2199,440],[216,-159],[213,-268]],[[2633,10],[-2,2]],[[1668,2810],[59,59],[15,100],[48,24]],[[2725,1247],[12,-26]],[[2453,3869],[-5,-38]],[[2941,114],[4,2]],[[2941,114],[1,-80],[42,-27]],[[2945,116],[28,19],[62,-40]],[[2211,451],[-12,-11]],[[2719,0],[-29,319],[58,58]],[[2830,637],[50,220]],[[2484,3780],[-33,44]],[[1029,1404],[-112,-96],[-253,120],[-144,-44],[-96,19],[-66,-88],[-56,-29],[-79,44],[-88,-37],[-66,115],[-69,-13]],[[1046,1409],[-17,-5]],[[1029,1404],[1,4],[1,-1],[-1,-1],[-1,-2]],[[1304,1601],[-48,-8],[-102,-142],[-108,-42]],[[1046,1409],[-1,-1],[1,-1],[0,2]],[[1477,1643],[-151,-38]],[[1545,1709],[-36,-46]],[[2484,4096],[-1,-9]],[[2359,3733],[-9,-4]],[[532,1917],[-2,-1]],[[2986,18],[-2,-9]],[[3064,191],[-9,-9]],[[2748,377],[67,94],[15,166]],[[4096,4079],[-15,17]],[[2507,3796],[4,-3]],[[3070,149],[29,-8],[26,43]],[[3125,184],[12,20],[60,-31],[-61,33],[-11,-22]],[[4096,0],[-4096,0],[0,4096],[4096,0],[0,-4096]],[[2841,519],[37,-66],[157,66],[33,-56],[105,-57],[100,22],[118,91],[20,-47],[-20,-177],[33,-56],[0,-111],[63,-128],[-216,0],[-42,72],[-42,-16],[-11,-56],[-314,0],[-85,184],[-33,223],[-32,56],[63,146],[159,81],[37,52],[29,-75],[-33,-73],[-126,-75]],[[1620,1798],[18,-99],[-103,11],[-26,-11],[0,-56],[-160,-1],[-34,-55],[-23,31],[-1,112],[121,136],[152,-10],[56,-58]],[[1939,3551],[-55,-4],[-46,42],[16,71],[37,34],[109,7],[-16,-100],[-45,-50]],[[2550,3645],[-66,6],[-161,106],[6,66],[124,46],[97,111],[0,-56],[125,-16],[37,-40],[-1,-100],[-26,-34],[-103,-33],[-32,-56]],[[2296,4096],[103,0],[13,-30],[8,-86],[-70,58],[-39,2],[-20,-60],[-38,34],[43,82]],[[2893,3742],[48,11],[30,51],[209,-9],[1,-103],[46,-26],[-1,-73],[43,-10],[2,-84],[-34,-25],[-154,12],[-58,-33],[-6,21],[-45,-12],[1,57],[-65,-3],[-17,226]],[[611,3943],[54,66],[2,87],[1055,0],[53,-48],[-6,-54],[-25,39],[-10,-36],[32,-9],[-24,-29],[94,-136],[-75,-142],[21,-28],[-16,-48],[20,-7],[-40,-98],[-70,18],[-15,33],[-29,-14],[22,36],[-16,33],[-50,-28],[10,25],[-81,40],[-34,-33],[-108,28],[21,46],[-20,14],[-90,-40],[-111,67],[-69,-30],[-74,2],[0,44],[-150,33],[0,36],[-183,58],[23,52],[-75,33],[-36,-10]],[[1586,3639],[13,-23],[67,-15],[-24,51],[-48,10],[-8,-23]]]}