{"objects":{"water":{"type":"GeometryCollection","geometries":[]},"buildings":{"type":"GeometryCollection","geometries":[]},"places":{"type":"GeometryCollection","geometries":[{"type":"Point","properties":{"name:lt":"Belgorodo sritis","name:eo":"Belgoroda Provinco","name:tt":"\u0411\u0435\u043b\u0433\u043e\u0440\u043e\u0434 \u04e9\u043b\u043a\u04d9\u0441\u0435","min_zoom":4.0,"name:uk":"\u0411\u0454\u043b\u0433\u043e\u0440\u043e\u0434\u0441\u044c\u043a\u0430 \u043e\u0431\u043b\u0430\u0441\u0442\u044c","name:be":"\u0411\u0435\u043b\u0433\u0430\u0440\u043e\u0434\u0441\u043a\u0430\u044f \u0432\u043e\u0431\u043b\u0430\u0441\u0446\u044c","name:pl":"Obw\u00f3d bie\u0142gorodzki","id":792588864,"kind":"region","name:en":"Belgorod Oblast","name":"\u0411\u0435\u043b\u0433\u043e\u0440\u043e\u0434\u0441\u043a\u0430\u044f \u043e\u0431\u043b\u0430\u0441\u0442\u044c","kind_detail":"state","name:de":"Oblast Belgorod","source":"openstreetmap.org","name:fr":"Oblast de Belgorod","name:es":"\u00d3blast de B\u00e9lgorod"},"coordinates":[2975,3966]},{"type":"Point","properties":{"admin_level":"4","name:az":"Belqorod","name:lt":"Belgorodas","name:cs":"B\u011blgorod","min_zoom":8.0,"int_name":"Belgorod","name:uk":"\u0411\u0454\u043b\u0433\u043e\u0440\u043e\u0434","name:hy":"\u0532\u0565\u056c\u0563\u0578\u0580\u0578\u0564","name:pl":"Bie\u0142gorod","name:hu":"Belgorod","id":27119039,"population":384425,"kind":"locality","name:en":"Belgorod","name":"\u0411\u0435\u043b\u0433\u043e\u0440\u043e\u0434","kind_detail":"city","name:de":"Belgorod","source":"openstreetmap.org","name:fr":"Belgorod","name:zh":"\u522b\u5c14\u54e5\u7f57\u5fb7","name:es":"B\u00e9lgorod"},"coordinates":[71,3452]},{"type":"Point","properties":{"kind":"locality","name:en":"Shebekino","name":"\u0428\u0435\u0431\u0435\u043a\u0438\u043d\u043e","kind_detail":"town","name:eo":"\u015cebekino","name:de":"Schebekino","source":"openstreetmap.org","min_zoom":8.0,"name:az":"\u015eebekino","name:uk":"\u0428\u0435\u0431\u0435\u043a\u0456\u043d\u043e","id":1589227483,"population":43331},"coordinates":[966,2604]},{"type":"Point","properties":{"kind":"locality","name:en":"Vovchansk","name":"\u0412\u043e\u0432\u0447\u0430\u043d\u0441\u044c\u043a","kind_detail":"town","name:de":"Wowtschansk","source":"openstreetmap.org","min_zoom":8.0,"name:ru":"\u0412\u043e\u043b\u0447\u0430\u043d\u0441\u043a","name:pl":"Wo\u0142cza\u0144sk","id":337525302,"population":20484},"coordinates":[1115,2017]},{"type":"Point","properties":{"kind":"locality","name:en":"Razumnoye","name":"\u0420\u0430\u0437\u0443\u043c\u043d\u043e\u0435","kind_detail":"town","name:de":"Rasumnoje","source":"openstreetmap.org","min_zoom":8.0,"name:it":"Razumnoe","name:uk":"\u0420\u0430\u0437\u0443\u043c\u043d\u0435","id":446709692,"population":18168},"coordinates":[359,3176]},{"type":"Point","properties":{"kind":"locality","name:en":"Volokonovka","name":"\u0412\u043e\u043b\u043e\u043a\u043e\u043d\u043e\u0432\u043a\u0430","kind_detail":"town","name:de":"Wolokonowka","source":"openstreetmap.org","min_zoom":8.0,"id":336141078,"population":11029},"coordinates":[3795,2944]},{"type":"Point","properties":{"kind":"locality","name:en":"Dubovoye","name":"\u0414\u0443\u0431\u043e\u0432\u043e\u0435","kind_detail":"town","name:de":"Dubowoje","source":"openstreetmap.org","min_zoom":8.0,"name:uk":"\u0414\u0443\u0431\u043e\u0432\u0435","name:hy":"\u0534\u0578\u0582\u0562\u0578\u057e\u0578\u0565","id":1559431761,"population":8627},"coordinates":[64,3189]},{"type":"Point","properties":{"kind":"locality","name:en":"Pechenihy","name":"\u041f\u0435\u0447\u0435\u043d\u0456\u0433\u0438","kind_detail":"town","name:de":"Petschenihy","source":"openstreetmap.org","min_zoom":8.0,"old_name":"\u041d\u043e\u0432\u043e\u0431\u0435\u043b\u0433\u043e\u0440\u043e\u0434","name:ru":"\u041f\u0435\u0447\u0435\u043d\u0435\u0433\u0438","name:pl":"Peczenihy","id":337542401,"population":6033},"coordinates":[1097,129]},{"type":"Point","properties":{"kind":"locality","name:en":"Maslova Pristan'","name":"\u041c\u0430\u0441\u043b\u043e\u0432\u0430 \u041f\u0440\u0438\u0441\u0442\u0430\u043d\u044c","kind_detail":"town","name:de":"Maslowa Pristan","source":"openstreetmap.org","min_zoom":8.0,"name:it":"Maslova Pristan'","old_name":"\u041f\u0440\u0438\u0441\u0442\u0430\u043d\u044c-\u043d\u0430-\u0414\u043e\u043d\u0446\u0435","id":446709691,"population":5890},"coordinates":[519,2848]},{"type":"Point","properties":{"kind":"locality","name:en":"Dvorichna","name":"\u0414\u0432\u043e\u0440\u0456\u0447\u043d\u0430","kind_detail":"town","name:de":"Dworitschna","source":"openstreetmap.org","min_zoom":8.0,"name:ru":"\u0414\u0432\u0443\u0440\u0435\u0447\u043d\u0430\u044f","name:pl":"Dworiczna","id":337542843,"population":4410},"coordinates":[3263,59]},{"type":"Point","properties":{"kind":"locality","name:en":"Staryi Saltiv","name":"\u0421\u0442\u0430\u0440\u0438\u0439 \u0421\u0430\u043b\u0442\u0456\u0432","kind_detail":"town","source":"openstreetmap.org","min_zoom":8.0,"name:ru":"\u0421\u0442\u0430\u0440\u044b\u0439 \u0421\u0430\u043b\u0442\u043e\u0432","id":1611105077,"population":4073},"coordinates":[673,1085]},{"type":"Point","properties":{"kind":"locality","name:en":"Velykyi Burluk","name":"\u0412\u0435\u043b\u0438\u043a\u0438\u0439 \u0411\u0443\u0440\u043b\u0443\u043a","kind_detail":"town","name:de":"Welykyj Burluk","source":"openstreetmap.org","min_zoom":8.0,"name:pl":"We\u0142ykyj Bur\u0142uk","id":337535865,"population":4072},"coordinates":[2408,986]},{"type":"Point","properties":{"kind":"locality","name:en":"Bilyi Kolodiaz","name":"\u0411\u0456\u043b\u0438\u0439 \u041a\u043e\u043b\u043e\u0434\u044f\u0437\u044c","kind_detail":"town","source":"openstreetmap.org","min_zoom":8.0,"name:ru":"\u0411\u0435\u043b\u044b\u0439 \u041a\u043e\u043b\u043e\u0434\u0435\u0437\u044c","id":337527003,"population":3953},"coordinates":[1607,1673]},{"type":"Point","properties":{"kind":"locality","name:en":"Kochetok","name":"\u041a\u043e\u0447\u0435\u0442\u043e\u043a","kind_detail":"town","source":"openstreetmap.org","min_zoom":8.0,"id":317747079,"population":3633},"coordinates":[485,158]},{"type":"Point","properties":{"kind":"locality","name:en":"Prykolotne","name":"\u041f\u0440\u0438\u043a\u043e\u043b\u043e\u0442\u043d\u0435","kind_detail":"town","source":"openstreetmap.org","min_zoom":8.0,"old_name":"\u041f\u0440\u0438\u043a\u043e\u043b\u043e\u0442\u043d\u044b\u0439","name:ru":"\u041f\u0440\u0438\u043a\u043e\u043b\u043e\u0442\u043d\u043e\u0435","id":337527781,"population":2654},"coordinates":[2298,1473]},{"type":"Point","properties":{"kind":"locality","name:en":"Vilcha","name":"\u0412\u0456\u043b\u044c\u0447\u0430","kind_detail":"town","source":"openstreetmap.org","min_zoom":8.0,"name:ru":"\u0412\u0438\u043b\u044c\u0447\u0430","id":337526051,"population":1658},"coordinates":[1093,1865]}]},"transit":{"type":"GeometryCollection","geometries":[{"type":"LineString","properties":{"kind":"train","name":"\u0411\u0435\u043b\u0433\u043e\u0440\u043e\u0434 - \u0413\u043e\u0442\u043d\u044f","sort_rank":275,"source":"openstreetmap.org","min_zoom":6.0,"ref":"\u0411\u0435\u043b\u0433\u043e\u0440\u043e\u0434 - \u0413\u043e\u0442\u043d\u044f","id":-7173437,"osm_relation":true},"arcs":[4]},{"type":"MultiLineString","properties":{"source":"openstreetmap.org","kind":"train","name":"\u0411\u0435\u043b\u0433\u043e\u0440\u043e\u0434 - \u041d\u043e\u0432\u0430\u044f \u0422\u0430\u0432\u043e\u043b\u0436\u0430\u043d\u043a\u0430","sort_rank":275,"ref":"\u0411\u0435\u043b\u0433\u043e\u0440\u043e\u0434 - \u041d\u043e\u0432\u0430\u044f \u0422\u0430\u0432\u043e\u043b\u0436\u0430\u043d\u043a\u0430","min_zoom":6.0,"osm_relation":true},"arcs":[[5],[6],[7],[8],[9],[10],[11],[12],[13],[14],[15],[16],[17],[18],[19],[20],[21],[22],[23],[24],[25],[26],[27],[28],[29],[30],[31],[32],[33],[34],[35],[36],[37],[38],[39],[40],[41],[42]]},{"type":"LineString","properties":{"kind":"train","name":"\u041a\u0443\u0440\u0441\u043a - \u0411\u0435\u043b\u0433\u043e\u0440\u043e\u0434","sort_rank":275,"source":"openstreetmap.org","min_zoom":6.0,"ref":"\u041a\u0443\u0440\u0441\u043a - \u0411\u0435\u043b\u0433\u043e\u0440\u043e\u0434","id":-6971201,"osm_relation":true},"arcs":[43]},{"type":"MultiLineString","properties":{"source":"openstreetmap.org","kind":"train","name":"Harkiv - Belgorod railway","sort_rank":275,"min_zoom":6.0,"osm_relation":true},"arcs":[[44],[45]]},{"type":"MultiLineString","properties":{"source":"openstreetmap.org","kind":"train","name":"\u0421\u0442\u0430\u0440\u044b\u0439 \u041e\u0441\u043a\u043e\u043b - \u0412\u0430\u043b\u0443\u0439\u043a\u0438","sort_rank":275,"ref":"\u0421\u0442\u0430\u0440\u044b\u0439 \u041e\u0441\u043a\u043e\u043b - \u0412\u0430\u043b\u0443\u0439\u043a\u0438","min_zoom":6.0,"osm_relation":true},"arcs":[[46],[47],[48],[49],[50],[51],[52]]}]},"pois":{"type":"GeometryCollection","geometries":[{"type":"Point","properties":{"kind":"national_park","name:en":"National nature park \u00abDvorichanskyi\u00bb","protect_class":"2","area":78107900,"source":"openstreetmap.org","min_zoom":8.0,"tier":1,"name:ru":"\u041d\u0430\u0446\u0438\u043e\u043d\u0430\u043b\u044c\u043d\u044b\u0439 \u043f\u0440\u0438\u0440\u043e\u0434\u043d\u044b\u0439 \u043f\u0430\u0440\u043a \u00ab\u0414\u0432\u0443\u0440\u0435\u0447\u0430\u043d\u0441\u043a\u0438\u0439\u00bb","id":-6228844,"osm_relation":true,"name":"\u041d\u0430\u0446\u0456\u043e\u043d\u0430\u043b\u044c\u043d\u0438\u0439 \u043f\u0440\u0438\u0440\u043e\u0434\u043d\u0438\u0439 \u043f\u0430\u0440\u043a \u00ab\u0414\u0432\u043e\u0440\u0456\u0447\u0430\u043d\u0441\u044c\u043a\u0438\u0439\u00bb"},"coordinates":[3626,540]},{"type":"Point","properties":{"kind":"protected_area","protect_class":"5","area":54157300,"source":"openstreetmap.org","min_zoom":8.0,"tier":2,"name:ru":"\u0420\u0435\u0433\u0438\u043e\u043d\u0430\u043b\u044c\u043d\u044b\u0439 \u043b\u0430\u043d\u0434\u0448\u0430\u0444\u0442\u043d\u044b\u0439 \u043f\u0430\u0440\u043a \u00ab\u0412\u0435\u043b\u0438\u043a\u043e\u0431\u0443\u0440\u043b\u0443\u0446\u043a\u0430\u044f \u0441\u0442\u0435\u043f\u044c\u00bb","id":-5368853,"osm_relation":true,"name":"\u0420\u0435\u0433\u0456\u043e\u043d\u0430\u043b\u044c\u043d\u0438\u0439 \u043b\u0430\u043d\u0434\u0448\u0430\u0444\u0442\u043d\u0438\u0439 \u043f\u0430\u0440\u043a \u00ab\u0412\u0435\u043b\u0438\u043a\u043e\u0431\u0443\u0440\u043b\u0443\u0446\u044c\u043a\u0438\u0439 \u0441\u0442\u0435\u043f\u00bb"},"coordinates":[2483,789]}]},"boundaries":{"type":"GeometryCollection","geometries":[{"type":"MultiLineString","properties":{"name:kg":"Ukrayina","name:ka":"\u10e3\u10d9\u10e0\u10d0\u10d8\u10dc\u10d0","name:ko":"\uc6b0\ud06c\ub77c\uc774\ub098","name:cv":"\u0423\u043a\u0440\u0430\u0438\u043d\u0430","name:cu":"\u041e\u0443\u043a\u0440\u0430\u0438\u043d\u0430","name:kl":"Ukraine","name:cs":"Ukrajina","name:tw":"Ukraine","name:tt":"\u0423\u043a\u0440\u0430\u0438\u043d\u0430","name:kw":"Ukrayn","name:kv":"\u0423\u043a\u0440\u0430\u0438\u043d\u0430","name:th":"\u0e1b\u0e23\u0e30\u0e40\u0e17\u0e28\u0e22\u0e39\u0e40\u0e04\u0e23\u0e19","name:tl":"Ukranya","name:ce":"\u0423\u043a\u0440\u0430\u0438\u043d\u0430","name:ta":"\u0b89\u0b95\u0bcd\u0bb0\u0bc8\u0ba9\u0bcd","name:tg":"\u0423\u043a\u0440\u0430\u0439\u0438\u043d\u0430","name:ca":"Ucra\u00efna","name:te":"\u0c09\u0c15\u0c4d\u0c30\u0c46\u0c2f\u0c3f\u0c28\u0c4d","name:cy":"Wcr\u00e1in","name:hr":"Ukrajina","name:da":"Ukraine","name:de":"Ukraine","source":"openstreetmap.org","name:kn":"\u0caf\u0cc1\u0c95\u0ccd\u0cb0\u0cc7\u0ca8\u0ccd","name:dv":"\u0794\u07aa\u0786\u07b0\u0783\u07ac\u0787\u07a8\u0782\u07b0","name:km":"\u17a2\u17ca\u17bb\u1799\u1780\u17d2\u179a\u17c2\u1793","name:lv":"Ukraina","name:lt":"Ukraina","name:uz":"Ukraina","name:kk":"\u0423\u043a\u0440\u0430\u0438\u043d\u0430","name:ur":"\u06cc\u0648\u06a9\u0631\u06cc\u0646","name:lb":"Ukrain","name:la":"Ucraina","name:ug":"\u0626\u06c7\u0643\u0631\u0627\u0626\u0649\u0646\u0627","name:li":"Oekra\u00efne","name:ln":"Ukraine","name:el":"\u039f\u03c5\u03ba\u03c1\u03b1\u03bd\u03af\u03b1","name:eo":"Ukrainujo","name:en":"Ukraine","name":"\u0423\u043a\u0440\u0430\u0457\u043d\u0430","name:tk":"Ukraina","name:ee":"Ukraine","name:ku":"\u00dbkrayna","name:eu":"Ukraina","name:et":"Ukraina","name:es":"Ucrania","name:ia":"Ukraina","name:rm":"Ucraina","name:az":"Ukrayna","name:ie":"Ucraina","name:id":"Ukraina","name:ig":"Yukrain","name:ar":"\u0623\u0648\u0643\u0631\u0627\u0646\u064a\u0627","name:io":"Ukrainia","name:is":"\u00dakra\u00edna","name:am":"\u12e9\u12ad\u122c\u1295","name:it":"Ucraina","name:an":"Ucra\u00edna","name:ru":"\u0423\u043a\u0440\u0430\u0438\u043d\u0430","name:ab":"\u0423\u043a\u0440\u0430\u0438\u043d\u0430","name:af":"Oekra\u00efne","kind_detail":"2","name:ky":"\u0423\u043a\u0440\u0430\u0438\u043d\u0430","name:zh-yue":"\u70cf\u514b\u862d","name:zh":"\u4e4c\u514b\u5170","name:so":"Ukrain","name:sn":"Ukraine","name:sm":"Ukraine","name:sl":"Ukrajina","name:sk":"Ukrajina","name:ja":"\u30a6\u30af\u30e9\u30a4\u30ca","name:sh":"Ukrajina","name:se":"Ukraina","name:sc":"Ucraina","name:br":"Ukraina","name:bs":"Ukrajina","name:bn":"\u0987\u0989\u0995\u09cd\u09b0\u09c7\u09a8","name:bo":"\u0f68\u0f74\u0f40\u0f0b\u0f62\u0f61\u0f72\u0f0b\u0f53\u0f72\u0f0d","name:bi":"Ukraine","name:sw":"Ukraine","name:be":"\u0423\u043a\u0440\u0430\u0456\u043d\u0430","name:su":"Ukraina","name:bg":"\u0423\u043a\u0440\u0430\u0439\u043d\u0430","name:ss":"IYukhureni","name:ba":"\u0423\u043a\u0440\u0430\u0438\u043d\u0430","name:sq":"Ukraina","name:jv":"Ukraina","name:pt":"Ucr\u00e2nia","name:ps":"\u0627\u0648\u06a9\u0631\u0627\u06cc\u0646","name:oc":"Ucra\u00efna","min_zoom":8.0,"name:ro":"Ucraina","name:zh-min-nan":"Ukrayina","name:os":"\u0423\u043a\u0440\u0430\u0438\u043d\u00e6","name:or":"\u0b5f\u0b41\u0b15\u0b4d\u0b30\u0b47\u0b28","name:pl":"Ukraina","sort_rank":262,"name:sr":"\u0423\u043a\u0440\u0430\u0458\u0438\u043d\u0430","osm_relation":true,"name:pa":"\u0a2f\u0a42\u0a15\u0a4d\u0a30\u0a47\u0a28","name:tr":"Ukrayna","name:hi":"\u092f\u0941\u0915\u094d\u0930\u0947\u0928","name:sv":"Ukraina","name:he":"\u05d0\u05d5\u05e7\u05e8\u05d0\u05d9\u05e0\u05d4","name:hy":"\u0548\u0582\u056f\u0580\u0561\u056b\u0576\u0561","name:ht":"Ikr\u00e8n","name:hu":"Ukrajna","name:qu":"Ukranya","kind":"country","name:ts":"Ukraine","name:yi":"\u05d0\u05d5\u05e7\u05e8\u05d0\u05d9\u05e0\u05e2","name:yo":"Ukr\u00e9\u00ecn","name:mt":"Ukrajna","alt_name:eo":"Ukrainio","name:ms":"Ukraine","name:mr":"\u092f\u0941\u0915\u094d\u0930\u0947\u0928","name:my":"\u101a\u1030\u1000\u101b\u102d\u1014\u103a\u1038\u1014\u102d\u102f\u1004\u103a\u1004\u1036","int_name":"Ukraine","name:mg":"Okraina","name:ml":"\u0d09\u0d15\u0d4d\u0d30\u0d48\u0d7b","name:vi":"Ukraina","name:mn":"\u0423\u043a\u0440\u0430\u0439\u043d","name:mi":"\u016akareinga","id":-60199,"name:mk":"\u0423\u043a\u0440\u0430\u0438\u043d\u0430","name:vo":"Lukray\u00e4n","name:fa":"\u0627\u0648\u06a9\u0631\u0627\u06cc\u0646","name:rw":"Ikerene","name:fi":"Ukraina","old_name:vi":"\u00d4 Kh\u1eafc Lan","name:fo":"Ukraina","alt_name:vi":"Uy Ki\u00ean","name:fr":"Ukraine","name:fy":"Oekra\u00efne","name:nl":"Oekra\u00efne","name:nn":"Ukraina","name:no":"Ukraina","name:na":"Ukraine","name:ne":"\u092f\u0941\u0915\u094d\u0930\u0947\u0928","name:wa":"Oucrinne","name:wo":"Ukreen","name:nv":"Y\u00f3\u00f3kwein","name:ga":"An \u00dacr\u00e1in","name:gd":"An Ucr\u00e0in","name:gn":"Ukya\u00f1a","name:gl":"Ucra\u00edna","name:gv":"Yn Ookraan","name:gu":"\u0aaf\u0ac1\u0a95\u0acd\u0ab0\u0ac7\u0aa8"},"arcs":[[0],[1]]},{"type":"MultiLineString","properties":{"name:right:hy":"\u053d\u0561\u0580\u056f\u0578\u057e\u056b \u0574\u0561\u0580\u0566","name:left:uz":"Belgorod viloyati","name:right:hr":"Harkivska oblast","name:left:sv":"Belgorod oblast","name:right:hu":"Harkivi ter\u00fclet","name:left:sr":"\u0411\u0435\u043b\u0433\u043e\u0440\u043e\u0434\u0441\u043a\u0430 \u043e\u0431\u043b\u0430\u0441\u0442","name:right:lt":"Charkovo sritis","min_zoom":8.0,"name:left:lt":"Belgorodo sritis","name:left:hy":"\u0532\u0565\u056c\u0563\u0578\u0580\u0578\u0564\u056b \u0574\u0561\u0580\u0566","name:left:lv":"Belgorodas apgabals","name:right:os":"\u0425\u0430\u0440\u044c\u043a\u043e\u0432\u044b \u043e\u0431\u043b\u00e6\u0441\u0442","name:left:ce":"\u0411\u0435\u043b\u0433\u043e\u0440\u043e\u0434\u0430\u043d \u043e\u0431\u043b\u0430\u0441\u0442\u044c","name:left:ca":"Prov\u00edncia de B\u00e9lgorod","name:right:sk":"Charkovsk\u00e1 oblas\u0165","source":"openstreetmap.org","name:right:ar":"\u062e\u0627\u0631\u0643\u064a\u0641 \u0623\u0648\u0628\u0644\u0627\u0633\u062a","name:left:cs":"B\u011blgorodsk\u00e1 oblast","name:left":"\u0411\u0435\u043b\u0433\u043e\u0440\u043e\u0434\u0441\u043a\u0430\u044f \u043e\u0431\u043b\u0430\u0441\u0442\u044c","name:right:mk":"\u0425\u0430\u0440\u043a\u043e\u0432\u0441\u043a\u0430 \u043e\u0431\u043b\u0430\u0441\u0442","name:left:ka":"\u10d1\u10d4\u10da\u10d2\u10dd\u10e0\u10dd\u10d3\u10d8\u10e1 \u10dd\u10da\u10e5\u10d8","name:right:eu":"Kharkiveko oblasta","name:right:et":"Harkivi oblast","name:right:it":"Oblast' di Charkiv","name:left:ro":"Regiunea Belgorod","name:right:vi":"Kharkiv (t\u1ec9nh)","name:right:es":"\u00d3blast de J\u00e1rkov","name:left:kv":"\u0411\u0435\u043b\u0433\u043e\u0440\u043e\u0434 \u043e\u0431\u043b\u0430\u0441\u044c\u0442","name:right:ro":"Regiunea Harkov","name:right:mr":"\u0916\u093e\u0930\u094d\u0915\u0940\u0935\u094d\u0939 \u0913\u092c\u094d\u0932\u093e\u0938\u094d\u0924","name:right:id":"Oblast Kharkiv","name:right:eo":"\u0124arkiva provinco","name:right:en":"Kharkiv Oblast","kind":"region","name":"\u0411\u0435\u043b\u0433\u043e\u0440\u043e\u0434\u0441\u043a\u0430\u044f \u043e\u0431\u043b\u0430\u0441\u0442\u044c - \u0425\u0430\u0440\u043a\u0456\u0432\u0441\u044c\u043a\u0430 \u043e\u0431\u043b\u0430\u0441\u0442\u044c","name:right:fa":"\u0627\u0633\u062a\u0627\u0646 \u062e\u0627\u0631\u06a9\u0641","name:right:lv":"Harkovas apgabals","name:right:be":"\u0425\u0430\u0440\u043a\u0430\u045e\u0441\u043a\u0430\u044f \u0432\u043e\u0431\u043b\u0430\u0441\u0446\u044c","name:left:fr":"Oblast de Belgorod","name:right:zh":"\u54c8\u723e\u79d1\u592b\u5dde","name:left:sh":"Belgorodska oblast","name:right:nn":"Kharkiv oblast","name:right:no":"Kharkiv oblast","name:right:nl":"Oblast Charkov","name:right:ja":"\u30cf\u30eb\u30ad\u30a6\u5dde","name:right:fr":"Oblast de Kharkiv","name:right:sr":"\u0425\u0430\u0440\u043a\u043e\u0432\u0441\u043a\u0430 \u043e\u0431\u043b\u0430\u0441\u0442","name:right:sv":"Charkiv oblast","name:left:uk":"\u0411\u0454\u043b\u0433\u043e\u0440\u043e\u0434\u0441\u044c\u043a\u0430 \u043e\u0431\u043b\u0430\u0441\u0442\u044c","name:right:sh":"Harkivska oblast","name:left:nl":"Oblast Belgorod","name:left:ba":"\u0411\u0435\u043b\u0433\u043e\u0440\u043e\u0434 \u04e9\u043b\u043a\u04d9\u04bb\u0435","name:left:bg":"\u0411\u0435\u043b\u0433\u043e\u0440\u043e\u0434\u0441\u043a\u0430 \u043e\u0431\u043b\u0430\u0441\u0442","name:left:be":"\u0411\u0435\u043b\u0433\u0430\u0440\u043e\u0434\u0441\u043a\u0430\u044f \u0432\u043e\u0431\u043b\u0430\u0441\u0446\u044c","id":-83184,"name:right":"\u0425\u0430\u0440\u043a\u0456\u0432\u0441\u044c\u043a\u0430 \u043e\u0431\u043b\u0430\u0441\u0442\u044c","name:left:eo":"Belgoroda provinco","name:left:en":"Belgorod Oblast","name:left:el":"\u03a0\u03b5\u03c1\u03b9\u03c6\u03ad\u03c1\u03b5\u03b9\u03b1 \u039c\u03c0\u03ad\u03bb\u03b3\u03ba\u03bf\u03c1\u03bf\u03bd\u03c4","name:right:ca":"Prov\u00edncia de Kh\u00e0rkiv","kind_detail":"4","id:left":-83184,"name:left:es":"\u00d3blast de B\u00e9lgorod","name:right:cs":"Charkovsk\u00e1 oblast","name:right:fi":"Harkovan alue","id:right":-71254,"name:left:et":"Belgorodi oblast","name:right:ka":"\u10ee\u10d0\u10e0\u10d9\u10dd\u10d5\u10d8\u10e1 \u10dd\u10da\u10e5\u10d8","name:right:zh-min-nan":"Xarkiv s\u00e9ng","name:right:pt":"Oblast de Kharkiv","name:left:pl":"Obw\u00f3d bie\u0142gorodzki","name:left:tt":"\u0411\u0435\u043b\u0433\u043e\u0440\u043e\u0434 \u04e9\u043b\u043a\u04d9\u0441\u0435","name:left:az":"Belqorod vilay\u0259ti","name:right:ko":"\ud558\ub974\ud0a4\uc6b0 \uc8fc","name:right:bg":"\u0425\u0430\u0440\u043a\u043e\u0432\u0441\u043a\u0430 \u043e\u0431\u043b\u0430\u0441\u0442","name:left:pt":"Oblast de Belgorod","name:left:af":"Belgorod-oblast","name:right:tr":"Harkiv Oblast\u0131","name:right:ru":"\u0425\u0430\u0440\u044c\u043a\u043e\u0432\u0441\u043a\u0430\u044f \u043e\u0431\u043b\u0430\u0441\u0442\u044c","name:right:pl":"Obw\u00f3d charkowski","osm_relation":true,"name:right:de":"Oblast Charkiw","name:left:de":"Oblast Belgorod","sort_rank":256},"arcs":[[2],[3]]}]},"roads":{"type":"GeometryCollection","geometries":[{"type":"LineString","properties":{"source":"openstreetmap.org","bus_network":null,"bus_shield_text":"117","sort_rank":380,"kind_detail":"primary","min_zoom":8.0,"kind":"major_road"},"arcs":[53]},{"type":"LineString","properties":{"source":"openstreetmap.org","kind":"major_road","sort_rank":380,"kind_detail":"primary","ref":"14\u041a-33","min_zoom":8.0},"arcs":[54]},{"type":"LineString","properties":{"kind":"major_road","network":"ru:regional","sort_rank":380,"kind_detail":"primary","source":"openstreetmap.org","min_zoom":8.0,"landuse_kind":"urban_area","shield_text":"14K","ref":"14K-8","id":343417010},"arcs":[55]},{"type":"MultiLineString","properties":{"kind":"major_road","name:en":"Lenina Street","sort_rank":380,"kind_detail":"primary","name:de":"uliza Lenina","source":"openstreetmap.org","min_zoom":8.0,"name:uk":"\u0432\u0443\u043b\u0438\u0446\u044f \u041b\u0435\u043d\u0456\u043d\u0430","landuse_kind":"urban_area"},"arcs":[[56],[57]]},{"type":"MultiLineString","properties":{"bus_network":"regional","network":"ru:regional","sort_rank":380,"kind_detail":"primary","kind":"major_road","source":"openstreetmap.org","min_zoom":8.0,"bus_shield_text":"534","shield_text":"14\u041a","ref":"14\u041a-1"},"arcs":[[58],[59],[60],[61]]},{"type":"LineString","properties":{"bus_network":null,"sort_rank":380,"kind_detail":"primary","kind":"major_road","source":"openstreetmap.org","min_zoom":8.0,"bus_shield_text":"109\u0423","landuse_kind":"urban_area"},"arcs":[62]},{"type":"LineString","properties":{"kind":"major_road","name:lt":"Slav\u0173 prospektas","sort_rank":380,"kind_detail":"primary","bus_shield_text":"1","bus_network":null,"source":"openstreetmap.org","min_zoom":8.0,"old_name":"\u0443\u043b\u0438\u0446\u0430 \u0424\u0440\u0443\u043d\u0437\u0435","landuse_kind":"urban_area","id":148460003},"arcs":[63]},{"type":"MultiLineString","properties":{"kind":"major_road","network":"ru:regional","sort_rank":380,"kind_detail":"primary","source":"openstreetmap.org","min_zoom":8.0,"shield_text":"14K","ref":"14K-8"},"arcs":[[64],[65]]},{"type":"LineString","properties":{"kind":"major_road","sort_rank":380,"kind_detail":"primary","bus_shield_text":"1","bus_network":null,"source":"openstreetmap.org","min_zoom":8.0,"old_name":"\u041a\u043e\u043c\u043c\u0443\u043d\u0438\u0441\u0442\u0438\u0447\u0435\u0441\u043a\u0430\u044f \u0443\u043b\u0438\u0446\u0430","landuse_kind":"urban_area","id":28790090},"arcs":[66]},{"type":"LineString","properties":{"kind":"major_road","network":"ru:regional","sort_rank":380,"kind_detail":"primary","source":"openstreetmap.org","min_zoom":8.0,"shield_text":"14\u041a","ref":"14\u041a-1"},"arcs":[67]},{"type":"MultiLineString","properties":{"source":"openstreetmap.org","kind":"major_road","landuse_kind":"urban_area","sort_rank":380,"kind_detail":"primary","min_zoom":8.0},"arcs":[[68],[69],[70],[71],[72],[73],[74],[75],[76],[77],[78],[79],[80],[81],[82],[83],[84],[85],[86],[87],[88],[89],[90],[91],[92],[93],[94],[95],[96],[97],[98],[99]]},{"type":"MultiLineString","properties":{"kind":"major_road","network":"e-road","sort_rank":381,"kind_detail":"trunk","source":"openstreetmap.org","min_zoom":8.0,"shield_text":"40","ref":"\u041c-03"},"arcs":[[100],[101],[102],[103],[104]]},{"type":"MultiLineString","properties":{"kind":"major_road","network":"ru:regional","sort_rank":380,"kind_detail":"primary","source":"openstreetmap.org","min_zoom":8.0,"landuse_kind":"urban_area","shield_text":"14\u041a","ref":"14\u041a-1"},"arcs":[[105],[106]]},{"type":"LineString","properties":{"kind":"major_road","network":"ru:regional","sort_rank":380,"kind_detail":"primary","source":"openstreetmap.org","min_zoom":8.0,"landuse_kind":"urban_area","shield_text":"14\u041a","id":464696291},"arcs":[107]},{"type":"MultiLineString","properties":{"bus_network":null,"sort_rank":380,"kind_detail":"primary","kind":"major_road","source":"openstreetmap.org","min_zoom":8.0,"bus_shield_text":"30","landuse_kind":"urban_area"},"arcs":[[108],[109],[110],[111]]},{"type":"LineString","properties":{"kind":"major_road","network":"ru:regional","sort_rank":380,"kind_detail":"primary","source":"openstreetmap.org","min_zoom":8.0,"landuse_kind":"residential","shield_text":"14K","ref":"14K-8","id":343417010},"arcs":[112]},{"type":"MultiLineString","properties":{"sort_rank":380,"kind_detail":"primary","min_zoom":8.0,"kind":"major_road","source":"openstreetmap.org"},"arcs":[[113],[114],[115],[116],[117],[118],[119],[120],[121],[122],[123],[124],[125],[126],[127],[128],[129],[130],[131],[132],[133],[134],[135],[136],[137],[138],[139],[140],[141]]},{"type":"LineString","properties":{"bus_network":null,"sort_rank":380,"kind_detail":"primary","kind":"major_road","source":"openstreetmap.org","min_zoom":8.0,"bus_shield_text":"9c","landuse_kind":"urban_area"},"arcs":[142]},{"type":"MultiLineString","properties":{"kind":"major_road","network":"ru:regional","sort_rank":380,"kind_detail":"primary","source":"openstreetmap.org","min_zoom":8.0,"shield_text":"14\u041a","ref":"14\u041a-3"},"arcs":[[143],[144],[145],[146],[147],[148],[149],[150],[151],[152]]},{"type":"MultiLineString","properties":{"source":"openstreetmap.org","kind":"major_road","network":"ru:regional","sort_rank":380,"kind_detail":"primary","min_zoom":8.0,"shield_text":"14\u041a"},"arcs":[[153],[154]]},{"type":"LineString","properties":{"kind":"major_road","name:lt":"Slav\u0173 prospektas","sort_rank":380,"kind_detail":"primary","bus_network":null,"source":"openstreetmap.org","min_zoom":8.0,"bus_shield_text":"6","landuse_kind":"urban_area","id":25718011},"arcs":[155]},{"type":"MultiLineString","properties":{"kind":"major_road","network":"e-road","sort_rank":381,"landuse_kind":"urban_area","source":"openstreetmap.org","min_zoom":8.0,"kind_detail":"trunk","shield_text":"40","ref":"\u041c-03"},"arcs":[[156],[157],[158],[159]]},{"type":"LineString","properties":{"kind":"major_road","network":"ua:regional","sort_rank":380,"kind_detail":"primary","source":"openstreetmap.org","min_zoom":8.0,"shield_text":"79","ref":"\u0420-79"},"arcs":[160]},{"type":"MultiLineString","properties":{"bus_network":"regional","sort_rank":380,"kind_detail":"primary","kind":"major_road","source":"openstreetmap.org","min_zoom":8.0,"bus_shield_text":"534","landuse_kind":"urban_area"},"arcs":[[161],[162]]},{"type":"MultiLineString","properties":{"kind":"major_road","name:en":"Lenina Street","sort_rank":380,"kind_detail":"primary","name:de":"uliza Lenina","source":"openstreetmap.org","min_zoom":8.0,"name:uk":"\u0432\u0443\u043b\u0438\u0446\u044f \u041b\u0435\u043d\u0456\u043d\u0430","landuse_kind":"residential"},"arcs":[[163],[164]]},{"type":"MultiLineString","properties":{"kind":"major_road","network":"ru:regional","sort_rank":380,"kind_detail":"primary","source":"openstreetmap.org","min_zoom":8.0,"landuse_kind":"urban_area","shield_text":"14\u041a","ref":"14\u041a-3"},"arcs":[[165],[166],[167],[168]]},{"type":"LineString","properties":{"bus_network":null,"name:lt":"Slav\u0173 prospektas","sort_rank":380,"kind_detail":"primary","kind":"major_road","source":"openstreetmap.org","min_zoom":8.0,"bus_shield_text":"1","landuse_kind":"urban_area"},"arcs":[169]},{"type":"LineString","properties":{"kind":"major_road","network":"ru:regional","sort_rank":380,"kind_detail":"primary","bus_network":"regional","source":"openstreetmap.org","min_zoom":8.0,"bus_shield_text":"534","shield_text":"14\u041a","landuse_kind":"urban_area","ref":"14\u041a-1","id":419904285},"arcs":[170]},{"type":"MultiLineString","properties":{"bus_network":null,"sort_rank":380,"kind_detail":"primary","kind":"major_road","source":"openstreetmap.org","min_zoom":8.0,"bus_shield_text":"1","landuse_kind":"urban_area"},"arcs":[[171],[172],[173],[174]]},{"type":"MultiLineString","properties":{"source":"openstreetmap.org","kind":"major_road","landuse_kind":"residential","sort_rank":380,"kind_detail":"primary","min_zoom":8.0},"arcs":[[175],[176],[177],[178],[179],[180]]},{"type":"MultiLineString","properties":{"kind":"major_road","network":"ru:regional","sort_rank":380,"kind_detail":"primary","source":"openstreetmap.org","min_zoom":8.0,"landuse_kind":"residential","shield_text":"14\u041a","ref":"14\u041a-3"},"arcs":[[181],[182]]},{"type":"MultiLineString","properties":{"bus_network":null,"sort_rank":380,"kind_detail":"primary","kind":"major_road","source":"openstreetmap.org","min_zoom":8.0,"bus_shield_text":"9\u0441","landuse_kind":"urban_area"},"arcs":[[183],[184]]},{"type":"LineString","properties":{"kind":"major_road","name:en":"Kharkivska Street","network":"e-road","sort_rank":381,"kind_detail":"trunk","source":"openstreetmap.org","min_zoom":8.0,"shield_text":"40","name:ru":"\u0425\u0430\u0440\u044c\u043a\u043e\u0432\u0441\u043a\u0430\u044f \u0443\u043b\u0438\u0446\u0430","ref":"\u041c-03"},"arcs":[185]},{"type":"LineString","properties":{"kind":"major_road","name:en":"Kharkivska Street","network":"e-road","sort_rank":381,"landuse_kind":"urban_area","source":"openstreetmap.org","min_zoom":8.0,"kind_detail":"trunk","shield_text":"40","name:ru":"\u0425\u0430\u0440\u044c\u043a\u043e\u0432\u0441\u043a\u0430\u044f \u0443\u043b\u0438\u0446\u0430","ref":"\u041c-03"},"arcs":[186]},{"type":"LineString","properties":{"kind":"major_road","sort_rank":380,"kind_detail":"primary","bus_network":null,"source":"openstreetmap.org","min_zoom":8.0,"bus_shield_text":"6","landuse_kind":"urban_area","id":47068983},"arcs":[187]}]},"earth":{"type":"GeometryCollection","geometries":[{"type":"Polygon","properties":{"sort_rank":10,"source":"naturalearthdata.com","min_zoom":0.0,"kind":"earth","area":98022885885},"arcs":[[188]]}]},"landuse":{"type":"GeometryCollection","geometries":[{"type":"Polygon","properties":{"kind":"residential","area":29850000,"sort_rank":20,"source":"openstreetmap.org","min_zoom":8.0,"tier":2,"id":-6837456,"osm_relation":true},"arcs":[[189]]},{"type":"Polygon","properties":{"kind":"residential","name":"\u0412\u043e\u043b\u0447\u044c\u044f \u0410\u043b\u0435\u043a\u0441\u0430\u043d\u0434\u0440\u043e\u0432\u043a\u0430","area":10660800,"sort_rank":20,"source":"openstreetmap.org","min_zoom":8.0,"tier":2,"id":222871378},"arcs":[[190]]},{"type":"MultiPolygon","properties":{"source":"openstreetmap.org","kind":"nature_reserve","tier":2,"area":79651656,"sort_rank":23,"min_zoom":8.0},"arcs":[[[191]]]},{"type":"Polygon","properties":{"kind":"residential","name":"\u0428\u0435\u0438\u043d\u043e","area":10929800,"sort_rank":20,"source":"openstreetmap.org","min_zoom":8.0,"tier":2,"id":-5390823,"osm_relation":true},"arcs":[[192]]},{"type":"Polygon","properties":{"kind":"national_park","protect_class":"2","area":78107904,"sort_rank":18,"source":"openstreetmap.org","min_zoom":8.0,"tier":1,"id":-6228844,"osm_relation":true},"arcs":[[193],[194],[195]]},{"type":"Polygon","properties":{"kind":"residential","name:en":"Vilcha","name":"\u0412\u0456\u043b\u044c\u0447\u0430","area":10349200,"sort_rank":20,"source":"openstreetmap.org","min_zoom":8.0,"tier":2,"name:ru":"\u0412\u0438\u043b\u044c\u0447\u0430","id":168175776},"arcs":[[196]]},{"type":"Polygon","properties":{"kind":"residential","name":"\u0411\u0435\u043b\u043e\u043c\u0435\u0441\u0442\u043d\u043e\u0435","area":11234200,"sort_rank":20,"source":"openstreetmap.org","min_zoom":8.0,"tier":2,"id":90514040},"arcs":[[197]]},{"type":"Polygon","properties":{"kind":"residential","name:en":"Volokonovka","name":"\u0412\u043e\u043b\u043e\u043a\u043e\u043d\u043e\u0432\u043a\u0430","area":44563600,"sort_rank":20,"name:de":"Wolokonowka","source":"openstreetmap.org","min_zoom":8.0,"tier":2,"id":285226193},"arcs":[[198]]},{"type":"MultiPolygon","properties":{"source":"openstreetmap.org","kind":"military","tier":3,"area":111741972,"sort_rank":45,"min_zoom":8.0},"arcs":[[[199]]]},{"type":"MultiPolygon","properties":{"source":"naturalearthdata.com","kind":"urban_area","name":"","area":2666220595,"sort_rank":11,"min_zoom":4.0},"arcs":[[[200]],[[201]],[[202]],[[203]],[[204]],[[205]],[[206]],[[207]]]},{"type":"Polygon","properties":{"kind":"residential","name":"\u042f\u043a\u043e\u0432\u043b\u0435\u0432\u043a\u0430","area":10411800,"sort_rank":20,"source":"openstreetmap.org","min_zoom":8.0,"tier":2,"id":89350246},"arcs":[[208]]},{"type":"Polygon","properties":{"kind":"residential","name:en":"Staryi Saltiv","name":"\u0421\u0442\u0430\u0440\u0438\u0439 \u0421\u0430\u043b\u0442\u0456\u0432","area":13298600,"sort_rank":20,"source":"openstreetmap.org","min_zoom":8.0,"tier":2,"name:ru":"\u0421\u0442\u0430\u0440\u044b\u0439 \u0421\u0430\u043b\u0442\u043e\u0432","id":110489209},"arcs":[[209]]},{"type":"Polygon","properties":{"kind":"residential","name":"\u0422\u0438\u0448\u0430\u043d\u043a\u0430","area":11203200,"sort_rank":20,"source":"openstreetmap.org","min_zoom":8.0,"tier":2,"id":222870964},"arcs":[[210]]},{"type":"Polygon","properties":{"kind":"residential","name":"\u041f\u044f\u0442\u043d\u0438\u0446\u043a\u043e\u0435","area":15040500,"sort_rank":20,"source":"openstreetmap.org","min_zoom":8.0,"name:it":"Pjatnickoe","tier":2,"id":77454156},"arcs":[[211]]},{"type":"MultiPolygon","properties":{"source":"openstreetmap.org","kind":"residential","tier":2,"area":268615314,"sort_rank":20,"min_zoom":8.0},"arcs":[[[212]],[[213]],[[214]],[[215]],[[216]]]},{"type":"MultiPolygon","properties":{"kind":"protected_area","protect_class":"5","area":158959392,"sort_rank":17,"source":"openstreetmap.org","min_zoom":8.0,"tier":2,"osm_relation":true},"arcs":[[[217]],[[218]]]}]}},"type":"Topology","transform":{"translate":[36.5625,49.8379824531],"scale":[0.0003433228,0.0002193537]},"arcs":[[[4096,640],[-12,3],[-111,250],[-99,78],[-121,34],[-157,117],[-123,-26],[-138,226],[8,26],[-122,87],[-81,106],[8,68],[-84,133],[37,94],[-2,240],[34,43],[-8,39],[-119,22],[-51,-44],[-62,106],[-100,31],[-45,71],[-61,21],[-55,108],[-11,173],[8,57],[59,25],[17,96],[-42,9],[-187,-119],[-248,10],[-53,-44],[-49,-112],[-406,-204],[-43,21],[-104,-17],[-1,-28],[-168,-29],[-311,25],[-197,-58],[-108,-112],[-190,-52],[-11,-46],[22,-10],[-67,-7],[1,-35],[-26,13],[-60,-26],[-45,-59],[-32,22],[-38,-142],[-46,-74],[-45,-19],[-151,53],[-100,91]],[[0,1888],[52,46],[-18,56],[57,4],[-25,48],[-66,-4]],[[0,1875],[100,-91],[151,-53],[45,19],[46,74],[38,142],[32,-22],[45,59],[60,26],[26,-13],[-1,35],[67,7],[-22,10],[11,46],[190,52],[108,112],[197,58],[311,-25],[168,29],[1,28],[104,17],[43,-21],[406,204],[49,112],[53,44],[248,-10],[187,119],[42,-9],[-19,-104],[-57,-17],[-6,-37],[26,-244],[38,-57],[61,-21],[45,-71],[100,-31],[62,-106],[51,44],[119,-22],[8,-39],[-34,-43],[2,-240],[-37,-94],[84,-133],[-8,-68],[81,-106],[122,-87],[-8,-26],[138,-226],[123,26],[157,-117],[121,-34],[99,-78],[111,-250],[12,-3]],[[0,2038],[66,4],[25,-48],[-57,-4],[18,-56],[-52,-46]],[[0,3440],[89,-30],[34,29]],[[126,3442],[15,19]],[[127,3442],[14,19]],[[141,3461],[1,2]],[[127,3442],[15,21]],[[142,3463],[1,1]],[[127,3442],[16,22]],[[143,3464],[51,10],[64,-67]],[[258,3407],[0,-3]],[[258,3404],[0,-3]],[[258,3401],[5,-42]],[[263,3359],[0,-1]],[[263,3358],[1,-8]],[[264,3350],[1,-4]],[[259,3401],[-1,6]],[[264,3350],[0,3]],[[264,3353],[-2,10],[-3,25]],[[259,3388],[0,2]],[[259,3390],[-1,10]],[[258,3400],[0,4]],[[258,3400],[0,-2]],[[258,3398],[4,-35],[1,-4]],[[263,3359],[0,-1]],[[258,3398],[4,-35],[1,-4]],[[259,3390],[0,-4],[2,-24],[2,-7]],[[265,3346],[-1,12]],[[264,3358],[-5,43]],[[264,3353],[-1,2]],[[263,3355],[-1,8],[-3,25]],[[843,2433],[-6,36],[-43,16],[-35,62],[-67,29],[-330,499]],[[362,3075],[-1,2]],[[361,3077],[-21,30],[-8,10]],[[332,3117],[-1,1]],[[331,3118],[-46,62],[-20,166]],[[331,3118],[31,-43]],[[361,3077],[-1,2]],[[360,3079],[-19,29],[-7,6]],[[334,3114],[-2,3]],[[360,3079],[-20,29],[-6,6]],[[168,4096],[-10,-74],[42,-118],[7,-181],[-48,-236],[-33,-45]],[[142,3463],[-46,-52],[-17,-2],[-64,8],[-7,0],[-3,0],[-5,-1]],[[2,3417],[77,-9],[15,2],[6,2],[6,4],[21,26]],[[4096,2106],[-205,240],[-124,175],[-35,179],[49,253]],[[3781,2953],[-4,7],[-24,29],[-13,13]],[[3740,3002],[-65,70]],[[3740,3002],[1,-1]],[[3741,3001],[40,-48]],[[3776,4096],[-46,-140],[-70,-16],[-64,-73],[-10,-51],[6,-73],[70,-114],[-33,-69],[-19,-220],[65,-158],[0,-110]],[[3675,3072],[1,-12],[1,-5],[5,-7],[59,-47]],[[30,3251],[1,-4],[0,8],[-1,-4]],[[4096,769],[-49,-30]],[[3810,3044],[13,-68]],[[309,3196],[1,0]],[[310,3196],[-1,1]],[[884,4096],[-103,-67],[-165,-47],[-91,-132],[-140,-117]],[[3225,4096],[405,-25],[41,25]],[[3695,4096],[78,-29],[59,29]],[[4004,4096],[92,-36]],[[0,3419],[47,24],[7,47]],[[77,3462],[36,-8]],[[3874,4096],[39,-114],[89,-129],[58,-249],[-129,-382],[-133,-122],[12,-56]],[[3833,2927],[7,-35],[-68,-97],[-21,-171],[-40,-56],[110,-230],[154,-157],[78,-31],[43,-53]],[[115,3460],[-37,8]],[[387,3733],[142,120],[92,131],[158,44],[107,68]],[[1,3424],[-1,-3]],[[0,3749],[0,3]],[[1,3756],[-1,4]],[[4,3742],[-1,3]],[[5,3732],[3,5]],[[55,3265],[10,57]],[[61,3389],[20,40]],[[87,3437],[-26,-48]],[[61,3389],[3,-60]],[[64,3329],[1,-7]],[[92,3436],[18,2]],[[115,3460],[-3,-20]],[[112,3437],[10,-9]],[[122,3428],[16,-9]],[[137,3420],[-15,8]],[[145,3415],[29,-40]],[[194,3478],[1,-34],[-47,-23]],[[148,3421],[19,0],[28,23],[0,34]],[[174,3375],[5,-6]],[[177,3372],[-3,3]],[[201,3496],[-6,-14]],[[195,3482],[6,13]],[[259,3591],[-54,-94]],[[205,3497],[13,10],[42,84]],[[246,3268],[-1,0]],[[246,3266],[1,0]],[[309,3197],[-41,16],[41,-17]],[[796,2680],[-3,-4]],[[794,2675],[4,1]],[[195,3481],[0,-1],[0,-1],[1,1],[-1,1]],[[204,3496],[-1,1],[-1,0],[1,-1],[1,0]],[[261,3591],[0,1],[-1,0],[0,-1],[1,0]],[[0,216],[97,-44],[2,-1],[63,-10]],[[162,161],[20,-3],[23,-22]],[[60,198],[-60,19]],[[202,129],[-40,32]],[[162,161],[-23,19],[-17,8]],[[334,3675],[-74,-83]],[[261,3591],[126,142]],[[793,2676],[1,-1]],[[6,3434],[-6,4]],[[1,3424],[5,10]],[[9,3431],[-3,3]],[[18,3427],[-9,1]],[[3823,2976],[10,-49]],[[0,3250],[6,1]],[[6,3251],[-6,1]],[[26,3252],[-20,-1]],[[30,3253],[-4,-1]],[[26,3252],[4,-1]],[[32,3253],[-2,0]],[[30,3251],[2,0]],[[34,3253],[-2,0]],[[32,3251],[2,2]],[[34,3253],[21,12]],[[416,3113],[6,-6]],[[574,3925],[-1,0]],[[669,3995],[1,-1]],[[726,4025],[0,1]],[[756,4027],[0,1]],[[757,4028],[0,-1]],[[855,4077],[-1,0]],[[1333,2646],[2,0]],[[1336,2646],[0,1]],[[3666,2596],[-261,5],[-181,179],[-14,67]],[[3713,2593],[-46,3]],[[3714,2594],[-1,-4]],[[3717,2615],[-3,-21]],[[3716,2593],[-2,1]],[[3731,2720],[-2,-17]],[[3747,2835],[-11,-79]],[[4038,734]],[[4038,734],[5,2]],[[4047,739],[-4,-3]],[[268,3213],[-91,159]],[[430,3100],[-8,7]],[[442,3090],[-12,10]],[[456,3074],[-14,16]],[[456,3074],[43,-47],[28,-184],[83,-98],[138,-51]],[[751,2696],[-141,49],[-81,98],[-29,185],[-44,46]],[[855,2472],[32,-53],[34,-6],[120,51],[31,38],[56,-8],[118,136],[87,14]],[[1335,2646],[1,0]],[[1338,2647],[98,16]],[[1439,2664],[366,165],[148,146],[106,28],[91,112],[236,30],[195,104],[48,-52],[138,-60],[176,-135]],[[2976,2977],[73,-71],[357,-116],[216,-3],[96,94]],[[1336,2647],[-3,-1]],[[1436,2663],[3,1]],[[0,3483],[51,-15]],[[264,80],[-62,49]],[[205,136],[59,-56]],[[264,80],[25,-18]],[[349,24],[115,-24]],[[4038,734],[-115,-80],[88,-151],[-181,-120],[-39,-70],[-105,-71],[-37,-125],[-61,-88],[-42,2],[-11,-26],[-103,49],[-20,37],[-22,-34],[-79,-17],[-42,20],[-72,-60]],[[8,3737],[-3,-5]],[[16,3685],[-9,41]],[[310,3196],[42,-24]],[[353,3173],[-43,23]],[[748,2694],[45,-18]],[[797,2662],[-1,18],[-45,16]],[[794,2675],[3,-13]],[[797,2662],[-6,-104],[64,-86]],[[51,3468],[26,-6]],[[385,3733],[-51,-58]],[[28,3628],[-12,57]],[[28,3628],[2,-9]],[[54,3490],[-24,129]],[[78,3468],[-26,5]],[[356,3169],[60,-56]],[[3667,2596],[-1,0]],[[3729,2703],[-12,-88]],[[3736,2756],[-5,-36]],[[3743,2885],[4,-50]],[[352,3172],[2,-2],[1,1],[-2,2],[-1,-1]],[[2943,3002],[33,-25]],[[3718,2881],[25,4]],[[179,3369],[3,-2]],[[245,3268],[2,-4]],[[122,188],[-62,10]],[[289,62],[60,-38]],[[52,3473],[-52,12]],[[0,0],[0,4096],[4096,0],[0,-4096],[-4096,0]],[[294,3170],[22,36],[87,-5],[65,80],[13,-13],[33,33],[3,-80],[-145,-156],[-78,105]],[[2897,2816],[15,138],[33,50],[58,26],[-106,-214]],[[542,3264],[74,66],[43,-10],[-13,-20],[73,14],[44,-34],[-39,-107],[-61,6],[-84,78],[-37,7]],[[860,3811],[33,77],[112,-49],[-85,-41],[-60,13]],[[3439,363],[31,13],[-14,45],[19,-19],[40,44],[-46,74],[54,64],[-24,14],[25,52],[25,2],[42,-66],[42,-7],[60,41],[71,-13],[21,113],[39,2],[-40,26],[48,-20],[8,17],[-35,20],[35,2],[9,-52],[36,63],[-42,7],[31,19],[41,-3],[-19,-42],[129,-7],[-105,-26],[-52,-100],[-13,29],[-33,2],[-40,-25],[35,-13],[-50,-41],[-42,16],[-42,-23],[-86,-100],[2,-30],[-29,-15],[17,24],[-20,9],[-39,-41],[-23,-134],[-62,3],[28,37],[-32,39]],[[3537,550],[24,-45],[13,-5],[18,41],[-55,9]],[[3499,544],[8,-44],[36,-18],[-11,33],[-33,29]],[[1056,1862],[18,34],[62,-14],[-4,-28],[35,-8],[-6,-45],[-91,13],[-14,48]],[[3317,3930],[84,23],[2,-46],[28,-15],[-11,-44],[-90,33],[-13,49]],[[3580,3033],[92,39],[97,-26],[60,-77],[8,-79],[-105,-64],[-37,142],[-115,65]],[[872,0],[-194,0],[53,60],[151,-7],[18,-26],[-28,-27]],[[0,0],[0,31],[13,-31],[-13,0]],[[89,0],[-45,0],[9,32],[32,-9],[4,-23]],[[531,0],[-270,0],[-79,82],[65,152],[51,39],[273,-89],[0,-153],[-40,-31]],[[2392,1171],[28,-132],[-17,5],[-15,-56],[-32,51],[-97,50],[22,79],[54,36],[57,-33]],[[1089,1938],[-151,137],[-11,135],[68,23],[81,-35],[63,-92],[14,-150],[-64,-18]],[[1125,2893],[-36,-278],[-34,-36],[-161,-66],[-87,-91],[-75,-10],[-30,105],[-2,149],[259,152],[33,50],[87,12],[10,39],[36,-26]],[[0,3931],[53,1],[65,-152],[291,-51],[0,-253],[66,-241],[-1,-114],[-195,0],[-32,51],[-105,24],[-39,69],[-103,0],[0,666]],[[3796,2925],[-80,1],[-73,70],[-25,119],[45,49],[29,-15],[23,-84],[103,-23],[26,-28],[-48,-89]],[[4056,3955],[39,44],[1,2],[0,-57],[-24,-6],[-16,17]],[[523,1031],[15,42],[112,-5],[-10,84],[36,11],[-6,37],[18,0],[7,-155],[-46,19],[-93,-50],[-33,17]],[[2696,2542],[38,44],[46,-19],[-19,-27],[76,-41],[-10,-26],[-130,28],[-1,41]],[[3646,2655],[4,47],[39,2],[55,61],[-16,-57],[18,-82],[-80,-30],[-20,59]],[[995,191],[120,3],[57,21],[-35,-74],[-70,-64],[-10,-51],[-17,108],[-45,57]],[[273,1617],[28,36],[65,7],[-39,-34],[43,-31],[2,-35],[-51,-17],[-48,74]],[[1046,2027],[9,18],[11,-24],[41,7],[50,46],[27,6],[-13,-26],[89,29],[11,-47],[-50,-3],[9,-25],[-21,-7],[-99,-1],[-34,-29],[-30,56]],[[346,2213],[67,5],[97,-86],[15,-55],[-79,3],[-7,-23],[-66,39],[-27,117]],[[713,2393],[118,24],[12,-124],[-96,2],[-34,98]],[[2738,604],[50,38],[11,80],[78,26],[13,-55],[-46,25],[-32,-61],[20,-19],[47,42],[-4,-55],[-65,-5],[-43,-39],[-29,23]],[[2444,772],[116,91],[43,2],[-19,106],[-17,17],[-21,-16],[5,27],[-42,6],[4,20],[40,-7],[13,23],[80,-23],[13,-22],[-48,-34],[30,-17],[8,-55],[-156,-116],[13,-76],[118,14],[34,-63],[-82,-26],[2,-56],[-41,-30],[-51,64],[7,33],[-23,7],[12,20],[-30,41],[28,33],[-26,-4],[-10,41]]]}