{"objects":{"water":{"type":"GeometryCollection","geometries":[]},"buildings":{"type":"GeometryCollection","geometries":[]},"places":{"type":"GeometryCollection","geometries":[{"type":"Point","properties":{"name:pt":"Donetsk","name:ka":"\u10d3\u10dd\u10dc\u10d4\u10ea\u10d9\u10d8","name:ko":"\ub3c4\ub124\uce20\ud06c","name:cv":"\u0414\u043e\u043d\u0435\u0446\u043a","name:kl":"Donetsk","name:cs":"Don\u011bck","name:tw":"Donetsk","name:tt":"\u0414\u043e\u043d\u0435\u0446\u043a","name:kv":"\u0414\u043e\u043d\u0435\u0446\u043a","min_zoom":8.0,"name:ro":"Done\u021bk","name:be":"\u0414\u0430\u043d\u0435\u0446\u043a","name:os":"\u0414\u043e\u043d\u0435\u0446\u043a","name:pl":"Donieck","name:ta":"\u0ba4\u0bcb\u0ba9\u0bc6\u0ba4\u0bcd\u0bb8\u0bcd\u0b95\u0bcd","name:ca":"Donetsk","name:da":"Donetsk","old_name":"\u042e\u0437\u0456\u0432\u043a\u0430, \u0421\u0442\u0430\u043b\u0456\u043d\u043e","name:de":"Donezk","source":"openstreetmap.org","name:lv":"Do\u0146ecka","name:lt":"Doneckas","name:kk":"\u0414\u043e\u043d\u0435\u0446\u043a","name:he":"\u05d3\u05d5\u05e0\u05e6\u05e7","kind":"locality","name:hy":"\u0534\u0578\u0576\u0565\u0581\u056f","name:hu":"Doneck","name:hr":"Donjeck","population":929063,"name:el":"\u039d\u03c4\u03bf\u03bd\u03ad\u03c4\u03c3\u03ba","name:eo":"Donecko","name:en":"Donetsk","name":"\u0414\u043e\u043d\u0435\u0446\u044c\u043a","name:th":"\u0e42\u0e14\u0e40\u0e19\u0e15\u0e2a\u0e04\u0e4c","name:eu":"Donetsk","name:et":"Donetsk","name:nl":"Donetsk","name:es":"Donetsk","name:az":"Donetsk","name:ie":"Donetsk","name:id":"Donetsk","name:mr":"\u0926\u094b\u0928\u0947\u0924\u094d\u0938\u094d\u0915","name:ar":"\u062f\u0648\u0646\u064a\u062a\u0633\u0643","name:it":"Donec'k","name:vi":"Donetsk","name:ru":"\u0414\u043e\u043d\u0435\u0446\u043a","id":39682896,"name:af":"Donetsk","name:fa":"\u062f\u0648\u0646\u062a\u0633\u06a9","kind_detail":"city","name:no":"Donetsk","name:fo":"Donetsk","name:fr":"Donetsk","name:vo":"Donetsk","name:zh":"\u9813\u6d85\u8328\u514b","name:sk":"Doneck","name:ja":"\u30c9\u30cd\u30c4\u30a3\u30af","name:nn":"Donetsk","name:sh":"Donjeck","name:jv":"Donetsk","name:sv":"Donetsk","name:bg":"\u0414\u043e\u043d\u0435\u0446\u043a","name:sr":"\u0414\u043e\u045a\u0435\u0446\u043a","name:gl":"Donetsk","name:tr":"Donetsk","name:fi":"Donetsk"},"coordinates":[3608,114]},{"type":"Point","properties":{"name:pt":"Makeevka","name:az":"Makeevka","name:ka":"\u10db\u10d0\u10d9\u10d4\u10d4\u10d5\u10d9\u10d0","name:ko":"\ub9c8\ud0a4\uc774\uc6b0\uce74","name:kl":"Makiivka","name:cs":"Makijivka","min_zoom":8.0,"name:ro":"Makiivka","name:it":"Maki\u00efvka","name:vi":"Makiivka","name:ru":"\u041c\u0430\u043a\u0435\u0435\u0432\u043a\u0430","name:pl":"Makiejewka","id":256613930,"name:fa":"\u0645\u0627\u06a9\u06cc\u0626\u06cc\u0641\u06a9\u0627","name:hu":"Makiivka","name:lt":"Makijivka","source":"openstreetmap.org","kind_detail":"city","name:de":"Makijiwka","name:tr":"Makiivka","name:fr":"Makiivka","name:be":"\u041c\u0430\u043a\u0435\u0435\u045e\u043a\u0430","name:zh":"\u9a6c\u514b\u8036\u592b\u5361","name:lv":"Makijivka","name:nn":"Makijivka","name:no":"Makijivka","kind":"locality","name:sv":"Makijivka","name:bg":"\u041c\u0430\u043a\u0435\u0435\u0432\u043a\u0430","name:sr":"\u041c\u0430\u043a\u0435\u0458\u0435\u0432\u043a\u0430","population":358156,"name:eo":"Makijivka","name:en":"Makiivka","name":"\u041c\u0430\u043a\u0456\u0457\u0432\u043a\u0430","name:fi":"Makijivka","name:eu":"Makiivka","name:et":"Makijivka","name:nl":"Makijivka","name:es":"Makiivka"},"coordinates":[4081,241]},{"type":"Point","properties":{"kind":"locality","name:en":"Kramatorsk","name":"\u041a\u0440\u0430\u043c\u0430\u0442\u043e\u0440\u0441\u044c\u043a","kind_detail":"city","name:eo":"Kramatorsko","name:de":"Kramatorsk","source":"openstreetmap.org","min_zoom":8.0,"name:fr":"Kramatorsk","name:sr":"\u041a\u0440\u0430\u043c\u0430\u0442\u043e\u0440\u0441\u043a","name:ru":"\u041a\u0440\u0430\u043c\u0430\u0442\u043e\u0440\u0441\u043a","name:pl":"Kramatorsk","name:hu":"Kramatorszk","id":274929523,"population":159445},"coordinates":[2972,3289]},{"type":"Point","properties":{"name:sr":"\u0421\u043b\u0430\u0432\u0458\u0430\u043d\u0441\u043a","name:az":"Slovyansk","name:nl":"Slovjansk","name:lt":"Slovjanskas","name:ko":"\uc2ac\ub85c\ubc50\uc2dc\ud06c","name:cs":"Slovjansk","kind":"locality","min_zoom":8.0,"name:ro":"Sloviansk","name:ru":"\u0421\u043b\u0430\u0432\u044f\u043d\u0441\u043a","name:vi":"Sloviansk","name:pl":"S\u0142owia\u0144sk","name:hu":"Szlovjanszk","name":"\u0421\u043b\u043e\u0432\u2019\u044f\u043d\u0441\u044c\u043a","id":256613986,"population":114437,"name:fa":"\u0627\u0633\u0644\u0648\u0641\u06cc\u0627\u0646\u0633\u06a9","name:eo":"Slovjansko","name:bg":"\u0421\u043b\u0430\u0432\u044f\u043d\u0441\u043a","name:nn":"Slovjansk","kind_detail":"city","name:de":"Slowjansk","source":"openstreetmap.org","name:fr":"Sloviansk","name:fi":"Slovjansk","name:et":"Slovjansk","name:be":"\u0421\u043b\u0430\u0432\u044f\u043d\u0441\u043a","name:zh":"\u65af\u62c9\u7dad\u63da\u65af\u514b","name:en":"Sloviansk"},"coordinates":[3039,3788]},{"type":"Point","properties":{"name:sr":"\u041a\u043e\u0441\u0442\u0458\u0430\u043d\u0442\u0438\u045a\u0438\u0432\u043a\u0430","name:ro":"Kostiant\u00eenivka","name:nl":"Kostjantynivka","name:nn":"Kostjantynivka","name:cs":"Kos\u0165antynivka","kind":"locality","name:tt":"\u041a\u043e\u043d\u0441\u0442\u0430\u043d\u0442\u0438\u043d\u043e\u0432\u043a\u0430","min_zoom":8.0,"name:en":"Kostiantynivka","name:ru":"\u041a\u043e\u043d\u0441\u0442\u0430\u043d\u0442\u0438\u043d\u043e\u0432\u043a\u0430","name:vi":"Kostiantynivka","name:pl":"Konstantyn\u00f3wka","name:bg":"\u041a\u043e\u043d\u0441\u0442\u0430\u043d\u0442\u0438\u043d\u043e\u0432\u043a\u0430","name":"\u041a\u043e\u0441\u0442\u044f\u043d\u0442\u0438\u043d\u0456\u0432\u043a\u0430","id":256613898,"population":78179,"name:fa":"\u06a9\u0648\u0633\u062a\u06cc\u0627\u0646\u062a\u06cc\u0646\u06cc\u0641\u06a9\u0627","name:eo":"Kostjantinivka","name:hu":"Kostiantynivka","name:lt":"Kostiantynivka","kind_detail":"town","name:de":"Kostjantyniwka","source":"openstreetmap.org","name:fr":"Kostiantynivka","name:be":"\u041a\u0430\u043d\u0441\u0442\u0430\u043d\u0446\u0456\u043d\u0430\u045e\u043a\u0430","name:zh":"\u5eb7\u65af\u5766\u4e01\u8afe\u592b\u5361"},"coordinates":[3348,2353]},{"type":"Point","properties":{"name:eo":"Pokrovsk","min_zoom":8.0,"old_name:eo":"Krasnoarmisk","old_name:en":"Krasnoarmiisk","old_name":"\u041a\u0440\u0430\u0441\u043d\u043e\u0430\u0440\u043c\u0456\u0439\u0441\u044c\u043a","name:ru":"\u041f\u043e\u043a\u0440\u043e\u0432\u0441\u043a","name:pl":"Pokrowsk","id":256613916,"population":63635,"old_name:uk":"\u041a\u0440\u0430\u0441\u043d\u043e\u0430\u0440\u043c\u0456\u0439\u0441\u044c\u043a","kind":"locality","name:en":"Pokrovsk","name":"\u041f\u043e\u043a\u0440\u043e\u0432\u0441\u044c\u043a","old_name:pl":"Krasnoarmij\u015bk","kind_detail":"town","old_name:ru":"\u041a\u0440\u0430\u0441\u043d\u043e\u0430\u0440\u043c\u0435\u0439\u0441\u043a","source":"openstreetmap.org"},"coordinates":[1791,1261]},{"type":"Point","properties":{"name:sr":"\u0414\u0440\u0443\u0448\u043a\u0438\u0432\u043a\u0430","name:ro":"Drujkivka","name:nn":"Druzjkivka","name:cs":"Dru\u017ekivka","kind":"locality","min_zoom":8.0,"name:ru":"\u0414\u0440\u0443\u0436\u043a\u043e\u0432\u043a\u0430","name:vi":"Druzhkivka","name:pl":"Dru\u017ckiwka","name:hu":"Druzhkivka","id":256613834,"population":60581,"name:fa":"\u062f\u0631\u0648\u0698\u06a9\u06cc\u0641\u06a9\u0627","name:eo":"Dru\u0135kivka","name:en":"Druzhkivka","name":"\u0414\u0440\u0443\u0436\u043a\u0456\u0432\u043a\u0430","kind_detail":"town","name:de":"Druschkiwka","source":"openstreetmap.org","name:fr":"Droujkivka","name:zh":"\u5fb7\u9b6f\u65e5\u57fa\u592b\u5361","name:es":"Druzhkivka"},"coordinates":[2803,2767]},{"type":"Point","properties":{"kind":"locality","name:en":"Myrnograd","name":"\u041c\u0438\u0440\u043d\u043e\u0433\u0440\u0430\u0434","kind_detail":"town","source":"openstreetmap.org","min_zoom":8.0,"old_name":"\u0414\u0438\u043c\u0438\u0442\u0440\u043e\u0432","id":256613817,"population":49644},"coordinates":[2029,1397]},{"type":"Point","properties":{"old_name:fr":"Dzerjynsk","old_name:vi":"Dzerzhynsk","old_name:sr":"\u0414\u0437\u0435\u0440\u0436\u0438\u043d\u0441\u043a","old_name:zh":"\u6377\u723e\u4efb\u65af\u514b","min_zoom":8.0,"old_name:fa":"\u062f\u0632\u0631\u0698\u06cc\u0646\u0633\u06a9","old_name:en":"Dzerzhynsk","old_name":"\u0414\u0437\u0435\u0440\u0436\u0438\u043d\u0441\u044c\u043a","name:ru":"\u0422\u043e\u0440\u0435\u0446\u043a","name:pl":"Tore\u0107k","name:de":"Torezk","id":256613774,"population":36324,"old_name:uk":"\u0414\u0437\u0435\u0440\u0436\u0438\u043d\u0441\u044c\u043a","kind":"locality","name:en":"Toretsk","name":"\u0422\u043e\u0440\u0435\u0446\u044c\u043a","old_name:ro":"Dzerj\u00eensk","old_name:pl":"Dzer\u017cyn\u015bk","kind_detail":"town","old_name:ru":"\u0414\u0437\u0435\u0440\u0436\u0438\u043d\u0441\u043a","old_name:de":"Dserschynsk","source":"openstreetmap.org","old_name:nn":"Dzerzjynsk","old_name:hu":"Dzerzsinszk","old_name:lt":"Dzer\u017einskas","old_name:cs":"Dzer\u017eynsk","old_name:be":"\u0414\u0437\u044f\u0440\u0436\u044b\u043d\u0441\u043a"},"coordinates":[3751,1788]},{"type":"Point","properties":{"name:sr":"\u0408\u0430\u0441\u0438\u043d\u0443\u0432\u0430\u0442\u0430","name:ro":"Ias\u00eenuvata","name:nn":"Jasnuvata","name:cs":"Jasynuvata","kind":"locality","min_zoom":8.0,"name:ru":"\u042f\u0441\u0438\u043d\u043e\u0432\u0430\u0442\u0430\u044f","name:vi":"Yasynuvata","name:pl":"Jasynuwata","name:hu":"Yasynuvata","id":256614136,"population":35856,"name:fa":"\u06cc\u0627\u0633\u06cc\u0646\u0648\u0641\u0627\u062a\u0627","name:eo":"Jasinuvata","name:en":"Yasynuvata","name":"\u042f\u0441\u0438\u043d\u0443\u0432\u0430\u0442\u0430","kind_detail":"town","name:de":"Jassynuwata","source":"openstreetmap.org","name:fr":"Yassynouvata","name:zh":"\u4e9e\u897f\u52aa\u74e6\u5854"},"coordinates":[3754,592]},{"type":"Point","properties":{"name:sr":"\u0410\u0432\u0434\u0438\u0458\u0438\u0432\u043a\u0430","name:ro":"Avdiivka","name:ja":"\u30a2\u30a6\u30c7\u30a3\u30fc\u30a4\u30a6\u30ab","name:lt":"Avdijivka","name:ar":"\u0623\u0641\u062f\u064a\u064a\u0641\u0643\u0627","name:cs":"Avdijivka","min_zoom":8.0,"name:vi":"Avdiivka","name:ru":"\u0410\u0432\u0434\u0435\u0435\u0432\u043a\u0430","name:pl":"Awdijiwka","name:hu":"Avdiivka","name":"\u0410\u0432\u0434\u0456\u0457\u0432\u043a\u0430","id":1602171866,"population":35364,"name:fa":"\u0622\u0648\u062f\u06cc\u0626\u06cc\u0641\u06a9\u0627","kind":"locality","name:en":"Avdiivka","name:nn":"Avdijivka","kind_detail":"town","name:de":"Awdijiwka","source":"openstreetmap.org","name:fr":"Avdiivka","name:be":"\u0410\u045e\u0434\u0437\u0435\u0435\u045e\u043a\u0430","name:zh":"\u963f\u592b\u8fea\u592b\u5361"},"coordinates":[3449,632]},{"type":"Point","properties":{"name:sr":"\u0414\u043e\u0431\u0440\u043e\u043f\u0438\u0459\u0430","name:ro":"Dobropillia","name:nn":"Dobropillja","name:ar":"\u062f\u0648\u0628\u0631\u0648\u0628\u064a\u0644\u064a\u0627","name:cs":"Dobropillja","min_zoom":8.0,"name:ru":"\u0414\u043e\u0431\u0440\u043e\u043f\u043e\u043b\u044c\u0435","name:vi":"Dobropillia","name:pl":"Dobropole","name:hu":"Dobropillia","id":1847424848,"population":31701,"name:fa":"\u062f\u0648\u0628\u0631\u0648\u067e\u06cc\u0644\u06cc\u0627","kind":"locality","name:en":"Dobropillia","name":"\u0414\u043e\u0431\u0440\u043e\u043f\u0456\u043b\u043b\u044f","kind_detail":"town","name:de":"Dobropillja","source":"openstreetmap.org","name:fr":"Dobropillia"},"coordinates":[1537,2101]},{"type":"Point","properties":{"name:ro":"Sel\u00eedove","name:nn":"Selydove","min_zoom":8.0,"name:vi":"Selydove","name:ru":"\u0421\u0435\u043b\u0438\u0434\u043e\u0432\u043e","name:ka":"\u10e1\u10d4\u10da\u10d8\u10d3\u10dd\u10d5\u10dd","id":256613994,"population":24366,"name:fa":"\u0633\u0644\u06cc\u062f\u0648\u0641\u0647","kind":"locality","name:en":"Selydove","name":"\u0421\u0435\u043b\u0438\u0434\u043e\u0432\u0435","kind_detail":"town","name:de":"Selydowe","source":"openstreetmap.org","name:fr":"Selydove","name:pl":"Se\u0142ydowo"},"coordinates":[2154,704]},{"type":"Point","properties":{"kind":"locality","name:en":"Novohrodivka","name":"\u041d\u043e\u0432\u043e\u0433\u0440\u043e\u0434\u0456\u0432\u043a\u0430","kind_detail":"town","name:de":"Nowohrodiwka","source":"openstreetmap.org","min_zoom":8.0,"name:ru":"\u041d\u043e\u0432\u043e\u0433\u0440\u043e\u0434\u043e\u0432\u043a\u0430","id":256613987,"population":17473},"coordinates":[2265,921]},{"type":"Point","properties":{"kind":"locality","name:en":"Bilozerske","name":"\u0411\u0456\u043b\u043e\u0437\u0435\u0440\u0441\u044c\u043a\u0435","kind_detail":"town","source":"openstreetmap.org","min_zoom":8.0,"name:ru":"\u0411\u0435\u043b\u043e\u0437\u0451\u0440\u0441\u043a\u043e\u0435","name:pl":"Bi\u0142ozerske","id":256613830,"population":16251},"coordinates":[1443,2386]},{"type":"Point","properties":{"kind":"locality","name:en":"Krasnohorivka","name":"\u041a\u0440\u0430\u0441\u043d\u043e\u0433\u043e\u0440\u0456\u0432\u043a\u0430","kind_detail":"town","name:de":"Krasnohoriwka","source":"openstreetmap.org","min_zoom":8.0,"name:ru":"\u041a\u0440\u0430\u0441\u043d\u043e\u0433\u043e\u0440\u043e\u0432\u043a\u0430","id":256617191,"population":16003},"coordinates":[2744,91]},{"type":"Point","properties":{"name:ro":"M\u00eekolaivka","name:nn":"Mykolajvka","min_zoom":8.0,"name:ru":"\u041d\u0438\u043a\u043e\u043b\u0430\u0435\u0432\u043a\u0430","name:pl":"Miko\u0142aj\u00f3wka","id":256613985,"population":15847,"name:fa":"\u0645\u06cc\u0644\u0627\u0626\u06cc\u0641\u06a9\u0627","kind":"locality","name:en":"Mykolaivka","name":"\u041c\u0438\u043a\u043e\u043b\u0430\u0457\u0432\u043a\u0430","kind_detail":"town","source":"openstreetmap.org","name:fr":"Mykola\u00efvka","name:zh":"\u5c3c\u53e4\u62c9\u8036\u592b\u5361","name:es":"Mykolaivka"},"coordinates":[3494,3826]},{"type":"Point","properties":{"name:ro":"Ceasiv Iar","name:nn":"Tsjasiv Jar","min_zoom":8.0,"name:ru":"\u0427\u0430\u0441\u043e\u0432 \u042f\u0440","name:vi":"Chasiv Yar","name:pl":"Czasiw Jar","id":256613727,"population":14360,"name:fa":"\u0686\u0627\u0633\u06cc\u0648 \u06cc\u0627\u0631","kind":"locality","name:en":"Chasiv Yar","name":"\u0427\u0430\u0441\u0456\u0432 \u042f\u0440","kind_detail":"town","source":"openstreetmap.org","name:fr":"Tchassiv Yar","name:zh":"\u6070\u7d22\u592b\u4e9e\u723e"},"coordinates":[3713,2624]},{"type":"Point","properties":{"kind":"locality","name:en":"Ukrainsk","name":"\u0423\u043a\u0440\u0430\u0457\u043d\u0441\u044c\u043a","kind_detail":"town","source":"openstreetmap.org","min_zoom":8.0,"name:ru":"\u0423\u043a\u0440\u0430\u0438\u043d\u0441\u043a","id":256613977,"population":12161},"coordinates":[2319,460]},{"type":"Point","properties":{"name:ro":"Rod\u00eenske","name:nn":"Rodynske","min_zoom":8.0,"name:it":"Rodinskoe","name:ru":"\u0420\u043e\u0434\u0438\u043d\u0441\u043a\u043e\u0435","name:vi":"Rodynske","name:pl":"Rody\u0144skie","id":256613914,"population":11996,"name:fa":"\u0631\u0648\u062f\u06cc\u0646\u0633\u06a9\u0647","kind":"locality","name:en":"Rodynske","name":"\u0420\u043e\u0434\u0438\u043d\u0441\u044c\u043a\u0435","kind_detail":"town","source":"openstreetmap.org","name:fr":"Rodynske"},"coordinates":[1867,1600]},{"type":"Point","properties":{"kind":"locality","name:en":"Hirnyk","name":"\u0413\u0456\u0440\u043d\u0438\u043a","kind_detail":"town","source":"openstreetmap.org","min_zoom":8.0,"name:ru":"\u0413\u043e\u0440\u043d\u044f\u043a","id":256613978,"population":11822},"coordinates":[2359,294]},{"type":"Point","properties":{"kind":"locality","name:en":"Novhorodske","name":"\u041d\u043e\u0432\u0433\u043e\u0440\u043e\u0434\u0441\u044c\u043a\u0435","kind_detail":"town","source":"openstreetmap.org","min_zoom":8.0,"name:ru":"\u041d\u043e\u0432\u0433\u043e\u0440\u043e\u0434\u0441\u043a\u043e\u0435","id":256613811,"population":10948},"coordinates":[3711,1503]},{"type":"Point","properties":{"kind":"locality","name:en":"Barvinkove","name":"\u0411\u0430\u0440\u0432\u0456\u043d\u043a\u043e\u0432\u0435","name:lt":"Barvinkov\u0117","kind_detail":"town","name:de":"Barwinkowe","source":"openstreetmap.org","min_zoom":8.0,"name:ru":"\u0411\u0430\u0440\u0432\u0435\u043d\u043a\u043e\u0432\u043e","name:pl":"Barwinkowe","id":337581198,"population":10700},"coordinates":[1358,4028]},{"type":"Point","properties":{"old_name:uk":"\u041a\u0456\u0440\u043e\u0432\u0435","kind":"locality","name":"\u041f\u0456\u0432\u043d\u0456\u0447\u043d\u0435","kind_detail":"town","old_name:ru":"\u041a\u0438\u0440\u043e\u0432\u043e","source":"openstreetmap.org","min_zoom":8.0,"old_name:en":"Kirove","old_name":"\u041a\u0456\u0440\u043e\u0432\u0435","name:ru":"\u041f\u0438\u0432\u043d\u0438\u0447\u043d\u043e\u0435","id":256613801,"population":10330},"coordinates":[3943,1786]},{"type":"Point","properties":{"kind":"locality","name:en":"Bilenke","name":"\u0411\u0456\u043b\u0435\u043d\u044c\u043a\u0435","kind_detail":"town","source":"openstreetmap.org","min_zoom":8.0,"name:ru":"\u0411\u0435\u043b\u0435\u043d\u044c\u043a\u043e\u0435","id":256613893,"population":9551},"coordinates":[3124,3402]},{"type":"Point","properties":{"kind":"locality","name:en":"Bilytske","name":"\u0411\u0456\u043b\u0438\u0446\u044c\u043a\u0435","name:lt":"Bilick\u0117","kind_detail":"town","source":"openstreetmap.org","min_zoom":8.0,"name:ru":"\u0411\u0435\u043b\u0438\u0446\u043a\u043e\u0435","id":256613820,"population":8768},"coordinates":[1798,1837]},{"type":"Point","properties":{"kind":"locality","name:en":"Yasnohirka","name":"\u042f\u0441\u043d\u043e\u0433\u0456\u0440\u043a\u0430","kind_detail":"town","source":"openstreetmap.org","min_zoom":8.0,"name:ru":"\u042f\u0441\u043d\u043e\u0433\u043e\u0440\u043a\u0430","id":256613903,"population":8312},"coordinates":[2887,3464]},{"type":"Point","properties":{"kind":"locality","name:en":"Mezhova","name":"\u041c\u0435\u0436\u043e\u0432\u0430","kind_detail":"town","name:de":"Meschowa","source":"openstreetmap.org","min_zoom":8.0,"int_name":"Mezhevaya","old_name":"\u0413\u0440\u0438\u0433\u043e\u0440\u044c\u0435\u0432\u043a\u0430+\u041a\u0430\u043c\u044f\u043d\u043a\u0430","name:ru":"\u041c\u0435\u0436\u0435\u0432\u0430\u044f","id":337605536,"population":8049},"coordinates":[495,1166]},{"type":"Point","properties":{"kind":"locality","name:en":"Oleksiievo-Druzhkivka","name":"\u041e\u043b\u0435\u043a\u0441\u0456\u0454\u0432\u043e-\u0414\u0440\u0443\u0436\u043a\u0456\u0432\u043a\u0430","kind_detail":"town","source":"openstreetmap.org","min_zoom":8.0,"name:ru":"\u0410\u043b\u0435\u043a\u0441\u0435\u0435\u0432\u043e-\u0414\u0440\u0443\u0436\u043a\u043e\u0432\u043a\u0430","id":256613833,"population":7746},"coordinates":[3035,2585]},{"type":"Point","properties":{"kind":"locality","name:en":"Bylbasivka","name":"\u0411\u0438\u043b\u0431\u0430\u0441\u0456\u0432\u043a\u0430","kind_detail":"town","source":"openstreetmap.org","min_zoom":8.0,"name:ru":"\u0411\u044b\u043b\u0431\u0430\u0441\u043e\u0432\u043a\u0430","id":256617993,"population":6310},"coordinates":[2751,3735]},{"type":"Point","properties":{"kind":"locality","name:en":"Novodonetske","name":"\u041d\u043e\u0432\u043e\u0434\u043e\u043d\u0435\u0446\u044c\u043a\u0435","kind_detail":"town","source":"openstreetmap.org","min_zoom":8.0,"name:ru":"\u041d\u043e\u0432\u043e\u0434\u043e\u043d\u0435\u0446\u043a\u043e\u0435","id":256613821,"population":5880},"coordinates":[1222,2830]},{"type":"Point","properties":{"old_name:fr":"Artemove","alt_name:pl":"Zalizne","old_name:ru":"\u0410\u0440\u0442\u0451\u043c\u043e\u0432\u043e","old_name:ar":"\u0623\u0631\u062a\u064a\u0645\u0648\u0641\u064a","old_name:zh":"\u963f\u723e\u55ac\u83ab\u6c83","min_zoom":8.0,"old_name:fa":"\u0622\u0631\u062a\u0645\u0648\u0641\u0647","old_name:en":"Artemove","old_name":"\u0410\u0440\u0442\u0435\u043c\u043e\u0432\u0435","name:ru":"\u0417\u0430\u043b\u0438\u0437\u043d\u043e\u0435","name:pl":"Zalizne (Artemowo)","id":256613819,"population":5720,"old_name:uk":"\u0410\u0440\u0442\u0435\u043c\u043e\u0432\u0435","kind":"locality","name:en":"Zalizne","name":"\u0417\u0430\u043b\u0456\u0437\u043d\u0435","old_name:ro":"Artemove","old_name:pl":"Artemowo","kind_detail":"town","old_name:vi":"Artemove","source":"openstreetmap.org","old_name:lt":"Artemov\u0117","old_name:ja":"\u30a2\u30eb\u30c6\u30fc\u30e2\u30f4\u30a7","old_name:nn":"Artemove","old_name:be":"\u0410\u0440\u0446\u0451\u043c\u0430\u0432\u0430"},"coordinates":[3844,1685]},{"type":"Point","properties":{"kind":"locality","name:en":"Staromykhailivka","name":"\u0421\u0442\u0430\u0440\u043e\u043c\u0438\u0445\u0430\u0439\u043b\u0456\u0432\u043a\u0430","kind_detail":"town","source":"openstreetmap.org","min_zoom":8.0,"name:ru":"\u0421\u0442\u0430\u0440\u043e\u043c\u0438\u0445\u0430\u0439\u043b\u043e\u0432\u043a\u0430","id":2377284346,"population":5337},"coordinates":[2973,45]},{"type":"Point","properties":{"kind":"locality","name:en":"Shabelkivka","name":"\u0428\u0430\u0431\u0435\u043b\u044c\u043a\u0456\u0432\u043a\u0430","kind_detail":"town","source":"openstreetmap.org","min_zoom":8.0,"name:ru":"\u0428\u0430\u0431\u0435\u043b\u044c\u043a\u043e\u0432\u043a\u0430","id":256613905,"population":4408},"coordinates":[2704,3341]},{"type":"Point","properties":{"kind":"locality","name:en":"Oleksandrivka","name":"\u041e\u043b\u0435\u043a\u0441\u0430\u043d\u0434\u0440\u0456\u0432\u043a\u0430","kind_detail":"town","name:de":"Olexandriwka","source":"openstreetmap.org","min_zoom":8.0,"name:ru":"\u0410\u043b\u0435\u043a\u0441\u0430\u043d\u0434\u0440\u043e\u0432\u043a\u0430","name:be":"\u0410\u043b\u044f\u043a\u0441\u0430\u043d\u0434\u0440\u0430\u045e\u043a\u0430","name:pl":"Aleksandr\u00f3wka","id":256614133,"population":3796},"coordinates":[1044,3151]},{"type":"Point","properties":{"kind":"locality","name:en":"Malotaranivka","name":"\u041c\u0430\u043b\u043e\u0442\u0430\u0440\u0430\u043d\u0456\u0432\u043a\u0430","kind_detail":"town","source":"openstreetmap.org","min_zoom":8.0,"name:ru":"\u041c\u0430\u043b\u043e\u0442\u0430\u0440\u0430\u043d\u043e\u0432\u043a\u0430","id":256613907,"population":3713},"coordinates":[2768,2946]},{"type":"Point","properties":{"kind":"locality","name:en":"Ocheretyne","name":"\u041e\u0447\u0435\u0440\u0435\u0442\u0438\u043d\u0435","kind_detail":"town","source":"openstreetmap.org","min_zoom":8.0,"name:ru":"\u041e\u0447\u0435\u0440\u0435\u0442\u0438\u043d\u043e","id":256618548,"population":3686},"coordinates":[3031,1125]},{"type":"Point","properties":{"kind":"locality","name:en":"Scherbynivka","name":"\u0429\u0435\u0440\u0431\u0438\u043d\u0456\u0432\u043a\u0430","kind_detail":"town","source":"openstreetmap.org","min_zoom":8.0,"name:ru":"\u0429\u0435\u0440\u0431\u0438\u043d\u043e\u0432\u043a\u0430","id":256613813,"population":3662},"coordinates":[3576,1776]},{"type":"Point","properties":{"kind":"locality","name:en":"Raihorodok","name":"\u0420\u0430\u0439\u0433\u043e\u0440\u043e\u0434\u043e\u043a","kind_detail":"town","source":"openstreetmap.org","min_zoom":8.0,"id":256618018,"population":3628},"coordinates":[3393,3988]},{"type":"Point","properties":{"kind":"locality","name:en":"Kurakhivka","name":"\u041a\u0443\u0440\u0430\u0445\u0456\u0432\u043a\u0430","kind_detail":"town","source":"openstreetmap.org","min_zoom":8.0,"name:ru":"\u041a\u0443\u0440\u0430\u0445\u043e\u0432\u043a\u0430","id":256613991,"population":3166},"coordinates":[2357,175]},{"type":"Point","properties":{"kind":"locality","name:en":"Novoekonomichne","name":"\u041d\u043e\u0432\u043e\u0435\u043a\u043e\u043d\u043e\u043c\u0456\u0447\u043d\u0435","kind_detail":"town","source":"openstreetmap.org","min_zoom":8.0,"name:ru":"\u041d\u043e\u0432\u043e\u044d\u043a\u043e\u043d\u043e\u043c\u0438\u0447\u0435\u0441\u043a\u043e\u0435","id":256615905,"population":3098},"coordinates":[2242,1475]},{"type":"Point","properties":{"kind":"locality","name:en":"Verkhnotoretske","name":"\u0412\u0435\u0440\u0445\u043d\u044c\u043e\u0442\u043e\u0440\u0435\u0446\u044c\u043a\u0435","kind_detail":"town","source":"openstreetmap.org","min_zoom":8.0,"name:ru":"\u0412\u0435\u0440\u0445\u043d\u0435\u0442\u043e\u0440\u0435\u0446\u043a\u043e\u0435","id":256618518,"population":3008},"coordinates":[3823,1029]},{"type":"Point","properties":{"kind":"locality","name:en":"Krasnotorka","name":"\u041a\u0440\u0430\u0441\u043d\u043e\u0442\u043e\u0440\u043a\u0430","kind_detail":"town","source":"openstreetmap.org","min_zoom":8.0,"id":256613909,"population":2991},"coordinates":[2792,3031]},{"type":"Point","properties":{"kind":"locality","name:en":"Hrodivka","name":"\u0413\u0440\u043e\u0434\u0456\u0432\u043a\u0430","kind_detail":"town","source":"openstreetmap.org","min_zoom":8.0,"name:ru":"\u0413\u0440\u043e\u0434\u043e\u0432\u043a\u0430","id":256615529,"population":2628},"coordinates":[2378,1199]},{"type":"Point","properties":{"kind":"locality","name:en":"Yasna Poliana","name":"\u042f\u0441\u043d\u0430 \u041f\u043e\u043b\u044f\u043d\u0430","kind_detail":"town","source":"openstreetmap.org","min_zoom":8.0,"name:ru":"\u042f\u0441\u043d\u0430\u044f \u041f\u043e\u043b\u044f\u043d\u0430","name:be":"\u042f\u0441\u043d\u0430\u044f \u041f\u0430\u043b\u044f\u043d\u0430","name:pl":"Jasna Polana","id":256613904,"population":2140},"coordinates":[2811,3312]},{"type":"Point","properties":{"kind":"locality","name:en":"Shevchenko","name":"\u0428\u0435\u0432\u0447\u0435\u043d\u043a\u043e","kind_detail":"town","source":"openstreetmap.org","min_zoom":8.0,"id":256613915,"population":2101},"coordinates":[1688,1019]},{"type":"Point","properties":{"kind":"locality","name:en":"Tsukuryne","name":"\u0426\u0443\u043a\u0443\u0440\u0438\u043d\u0435","kind_detail":"town","source":"openstreetmap.org","min_zoom":8.0,"name:ru":"\u0426\u0443\u043a\u0443\u0440\u0438\u043d\u043e","id":256613980,"population":2003},"coordinates":[2197,414]},{"type":"Point","properties":{"kind":"locality","name:en":"Udachne","name":"\u0423\u0434\u0430\u0447\u043d\u0435","kind_detail":"town","source":"openstreetmap.org","min_zoom":8.0,"name:ru":"\u0423\u0434\u0430\u0447\u043d\u043e\u0435","id":256615886,"population":1733},"coordinates":[1224,1096]},{"type":"Point","properties":{"kind":"locality","name:en":"Pivdenne","name":"\u041f\u0456\u0432\u0434\u0435\u043d\u043d\u0435","kind_detail":"town","source":"openstreetmap.org","min_zoom":8.0,"name:ru":"\u041f\u0438\u0432\u0434\u0435\u043d\u043d\u043e\u0435","id":256613804,"population":1637},"coordinates":[3914,1646]},{"type":"Point","properties":{"kind":"locality","name:en":"Vodianske","name":"\u0412\u043e\u0434\u044f\u043d\u0441\u044c\u043a\u0435","kind_detail":"town","source":"openstreetmap.org","min_zoom":8.0,"name:ru":"\u0412\u043e\u0434\u044f\u043d\u0441\u043a\u043e\u0435","id":256613822,"population":1576},"coordinates":[1580,1848]},{"type":"Point","properties":{"kind":"locality","name:en":"Zhelanne","name":"\u0416\u0435\u043b\u0430\u043d\u043d\u0435","kind_detail":"town","source":"openstreetmap.org","min_zoom":8.0,"name:ru":"\u0416\u0435\u043b\u0430\u043d\u043d\u043e\u0435","id":256618556,"population":1421},"coordinates":[2550,957]},{"type":"Point","properties":{"kind":"locality","name:en":"Nelipivka","name":"\u041d\u0435\u043b\u0456\u043f\u0456\u0432\u043a\u0430","kind_detail":"town","source":"openstreetmap.org","min_zoom":8.0,"name:ru":"\u041d\u0435\u043b\u0435\u043f\u043e\u0432\u043a\u0430","id":256613810,"population":1128},"coordinates":[3712,1588]},{"type":"Point","properties":{"kind":"locality","name:en":"Petrivka","name":"\u041f\u0435\u0442\u0440\u0456\u0432\u043a\u0430","kind_detail":"town","source":"openstreetmap.org","min_zoom":8.0,"name:ru":"\u041f\u0435\u0442\u0440\u043e\u0432\u043a\u0430","id":256613812,"population":1121},"coordinates":[3554,1746]},{"type":"Point","properties":{"kind":"locality","name:en":"Raiske","name":"\u0420\u0430\u0439\u0441\u044c\u043a\u0435","kind_detail":"town","source":"openstreetmap.org","min_zoom":8.0,"name:ru":"\u0420\u0430\u0439\u0441\u043a\u043e\u0435","id":256613840,"population":1043},"coordinates":[2633,2547]},{"type":"Point","properties":{"kind":"locality","name:en":"Kurdiumivka","name":"\u041a\u0443\u0440\u0434\u044e\u043c\u0456\u0432\u043a\u0430","kind_detail":"town","source":"openstreetmap.org","min_zoom":8.0,"name:ru":"\u041a\u0443\u0440\u0434\u044e\u043c\u043e\u0432\u043a\u0430","id":256613803,"population":938},"coordinates":[4061,2101]},{"type":"Point","properties":{"kind":"locality","name:en":"Sofiivka","name":"\u0421\u043e\u0444\u0456\u0457\u0432\u043a\u0430","kind_detail":"town","source":"openstreetmap.org","min_zoom":8.0,"name:be":"\u0421\u0430\u0444\u0456\u0435\u045e\u043a\u0430","name:ru":"\u0421\u043e\u0444\u0438\u0435\u0432\u043a\u0430","id":256613906,"population":863},"coordinates":[2770,3299]},{"type":"Point","properties":{"kind":"locality","name:en":"Hostre","name":"\u0413\u043e\u0441\u0442\u0440\u0435","kind_detail":"town","source":"openstreetmap.org","min_zoom":8.0,"name:ru":"\u041e\u0441\u0442\u0440\u043e\u0435","id":256613982,"population":704},"coordinates":[2442,16]},{"type":"Point","properties":{"kind":"locality","name:en":"Komyshuvakha","name":"\u041a\u043e\u043c\u0438\u0448\u0443\u0432\u0430\u0445\u0430","kind_detail":"town","source":"openstreetmap.org","min_zoom":8.0,"name:ru":"\u041a\u0430\u043c\u044b\u0448\u0435\u0432\u0430\u0445\u0430","id":256613910,"population":497},"coordinates":[2602,2856]},{"type":"Point","properties":{"kind":"locality","name:en":"Komyshivka","name":"\u041a\u043e\u043c\u0438\u0448\u0456\u0432\u043a\u0430","kind_detail":"town","name:de":"Komyschiwka","source":"openstreetmap.org","min_zoom":8.0,"name:ru":"\u041a\u0430\u043c\u044b\u0448\u0435\u0432\u043a\u0430","id":256613992,"population":463},"coordinates":[2640,838]},{"type":"Point","properties":{"kind":"locality","name:en":"Oleksandrivka","name":"\u041e\u043b\u0435\u043a\u0441\u0430\u043d\u0434\u0440\u0456\u0432\u043a\u0430","kind_detail":"town","source":"openstreetmap.org","min_zoom":8.0,"name:ru":"\u0410\u043b\u0435\u043a\u0441\u0430\u043d\u0434\u0440\u043e\u0432\u043a\u0430","name:be":"\u0410\u043b\u044f\u043a\u0441\u0430\u043d\u0434\u0440\u0430\u045e\u043a\u0430","name:pl":"Aleksandr\u00f3wka","id":256613896,"population":412},"coordinates":[2688,3313]},{"type":"Point","properties":{"kind":"locality","name:en":"Novohryhorivka","name":"\u041d\u043e\u0432\u043e\u0433\u0440\u0438\u0433\u043e\u0440\u0456\u0432\u043a\u0430","kind_detail":"town","source":"openstreetmap.org","min_zoom":8.0,"name:ru":"\u041d\u043e\u0432\u043e\u0433\u0440\u0438\u0433\u043e\u0440\u043e\u0432\u043a\u0430","id":256613832,"population":391},"coordinates":[2496,2574]},{"type":"Point","properties":{"kind":"locality","name:en":"Keramik","name":"\u041a\u0435\u0440\u0430\u043c\u0456\u043a","kind_detail":"town","source":"openstreetmap.org","min_zoom":8.0,"name:ru":"\u041a\u0435\u0440\u0430\u043c\u0438\u043a","name:pl":"Keramik","id":256618552,"population":385},"coordinates":[3263,1156]},{"type":"Point","properties":{"kind":"locality","name:en":"Vyshneve","name":"\u0412\u0438\u0448\u043d\u0435\u0432\u0435","kind_detail":"town","source":"openstreetmap.org","min_zoom":8.0,"name:ru":"\u0412\u0438\u0448\u043d\u0451\u0432\u043e\u0435","id":256613993,"population":264},"coordinates":[1992,704]},{"type":"Point","properties":{"kind":"locality","name:en":"Novomykolaivka","name":"\u041d\u043e\u0432\u043e\u043c\u0438\u043a\u043e\u043b\u0430\u0457\u0432\u043a\u0430","kind_detail":"town","source":"openstreetmap.org","min_zoom":8.0,"name:ru":"\u041d\u043e\u0432\u043e\u043d\u0438\u043a\u043e\u043b\u0430\u0435\u0432\u043a\u0430","id":256613831,"population":100},"coordinates":[2364,2519]}]},"transit":{"type":"GeometryCollection","geometries":[{"type":"MultiLineString","properties":{"source":"openstreetmap.org","kind":"train","name":"6292\/6290 \u041a\u0440\u0430\u043c\u0430\u0442\u043e\u0440\u0441\u043a \u2014 \u0425\u0430\u0440\u044c\u043a\u043e\u0432","sort_rank":275,"ref":"6292\/6290","min_zoom":6.0,"osm_relation":true},"arcs":[[5],[6],[7]]},{"type":"MultiLineString","properties":{"source":"openstreetmap.org","kind":"train","name":"\u0424\u0435\u043d\u043e\u043b\u044c\u043d\u0430 \u2192 \u041a\u0440\u0430\u0441\u043d\u0438\u0439 \u041b\u0438\u043c\u0430\u043d","sort_rank":275,"name:ru":"\u0424\u0435\u043d\u043e\u043b\u044c\u043d\u0430\u044f \u2192 \u041a\u0440\u0430\u0441\u043d\u044b\u0439 \u041b\u0438\u043c\u0430\u043d","min_zoom":6.0,"osm_relation":true},"arcs":[[8],[9],[10],[11],[12],[13],[14],[15],[16],[17],[18],[19],[20]]},{"type":"MultiLineString","properties":{"kind":"train","name":"\u041a\u0443\u0440\u0434\u044e\u043c\u0456\u0432\u043a\u0430 \u2192 \u041a\u0440\u0430\u0441\u043d\u0438\u0439 \u041b\u0438\u043c\u0430\u043d \u2192 \u0406\u0437\u044e\u043c","sort_rank":275,"source":"openstreetmap.org","min_zoom":6.0,"name:ru":"\u041a\u0443\u0440\u0434\u044e\u043c\u043e\u0432\u043a\u0430 \u2192 \u041a\u0440\u0430\u0441\u043d\u044b\u0439 \u041b\u0438\u043c\u0430\u043d \u2192 \u0418\u0437\u044e\u043c","ref":"\u041a\u0443\u0440\u0434\u044e\u043c\u0456\u0432\u043a\u0430 - \u0406\u0437\u044e\u043c","osm_relation":true},"arcs":[[21],[22],[23]]},{"type":"LineString","properties":{"kind":"train","network":"\u0423\u043a\u0440\u0417\u0430\u043bi\u0437\u043d\u0438\u0446\u044f","sort_rank":275,"source":"openstreetmap.org","min_zoom":6.0,"operator":"\u0423\u043a\u0440\u0417\u0430\u043bi\u0437\u043d\u0438\u0446\u044f","ref":"\u0406\u043b\u043e\u0432\u0430\u0439\u0441\u044c\u043a - \u0413\u043e\u0440\u043b\u0456\u0432\u043a\u0430 - \u0411\u0430\u0439\u0440\u0430\u043a","osm_relation":true},"arcs":[24]},{"type":"LineString","properties":{"source":"openstreetmap.org","kind":"train","name":"\u0427\u0430\u043f\u043b\u0438\u043d\u0435 <-> \u0410\u0432\u0434\u0456\u0457\u0432\u043a\u0430","sort_rank":275,"ref":"\u0427\u0430\u043f\u043b\u0438\u043d\u0435 <-> \u0410\u0432\u0434\u0456\u0457\u0432\u043a\u0430","min_zoom":6.0,"osm_relation":true},"arcs":[25]}]},"pois":{"type":"GeometryCollection","geometries":[{"type":"Point","properties":{"kind":"protected_area","protect_class":"5","area":31435000,"source":"openstreetmap.org","min_zoom":8.0,"tier":2,"id":-4649616,"osm_relation":true,"name":"\u0420\u0435\u0433\u0438\u043e\u043d\u0430\u043b\u044c\u043d\u044b\u0439 \u043b\u0430\u043d\u0434\u0448\u0430\u0444\u0442\u043d\u044b\u0439 \u043f\u0430\u0440\u043a \u00ab\u041a\u043b\u0435\u0431\u0430\u043d-\u0411\u044b\u043a\u00bb"},"coordinates":[3290,1968]}]},"boundaries":{"type":"GeometryCollection","geometries":[{"type":"LineString","properties":{"name:right:hy":"\u0534\u0578\u0576\u0565\u0581\u056f\u056b \u0574\u0561\u0580\u0566","name:right:no":"Donetsk oblast","name:right:hr":"Done\u010dka oblast","name:left:sv":"Dnipropetrovsk oblast","name:right:hu":"Donecki ter\u00fclet","name:left:sr":"\u0414\u045a\u0435\u043f\u0440\u043e\u043f\u0435\u0442\u0440\u043e\u0432\u0441\u043a\u0430 \u043e\u0431\u043b\u0430\u0441\u0442","name:right:lt":"Donecko sritis","name:right:lv":"Do\u0146eckas apgabals","name:left:lt":"Dniepropetrovsko sritis","name:left:sh":"Dnjipropetrovska oblast","name:left:sk":"Dnepropetrovsk\u00e1 oblas\u0165","name:left:hu":"Dnyipropetrovszki ter\u00fclet","name:left:hr":"Dnjipropetrovska oblast","name:right:os":"\u0414\u043e\u043d\u0435\u0446\u0447\u044b \u043e\u0431\u043b\u00e6\u0441\u0442","name:right:vi":"Donetsk (t\u1ec9nh)","sort_rank":256,"name:left:ca":"Prov\u00edncia de Dnipropetrovsk","source":"openstreetmap.org","name:right:ar":"\u062f\u0648\u0646\u064a\u062a\u0633\u0643 \u0623\u0648\u0628\u0644\u0627\u0633\u062a","name:left:cv":"\u0414\u043d\u0435\u043f\u0440\u043e\u043f\u0435\u0442\u0440\u043e\u0432\u0441\u043a \u043e\u0431\u043b\u0430\u00e7\u0115","name:right:az":"Donetsk Oblast\u0131","name:left:cs":"Dn\u011bpropetrovsk\u00e1 oblast","name:left":"\u0414\u043d\u0456\u043f\u0440\u043e\u043f\u0435\u0442\u0440\u043e\u0432\u0441\u044c\u043a\u0430 \u043e\u0431\u043b\u0430\u0441\u0442\u044c","name:right:es":"\u00d3blast de Donetsk","name:right:sh":"Done\u010dka oblast","name:right:sr":"\u0414\u043e\u045a\u0435\u0447\u043a\u0430 \u043e\u0431\u043b\u0430\u0441\u0442","name:left:ka":"\u10d3\u10dc\u10d4\u10de\u10e0\u10dd\u10de\u10d4\u10e2\u10e0\u10dd\u10d5\u10e1\u10d9\u10d8\u10e1 \u10dd\u10da\u10e5\u10d8","name:right:eu":"Donetskeko oblasta","name:right:et":"Donetski oblast","name:left:ko":"\ub4dc\ub2c8\ud504\ub85c\ud398\ud2b8\ub85c\uc6b0\uc2dc\ud06c \uc8fc","name:right:it":"Oblast' di Donec'k","name:left:ro":"Regiunea Dniepropetrovsk","name:right:ru":"\u0414\u043e\u043d\u0435\u0446\u043a\u0430\u044f \u043e\u0431\u043b\u0430\u0441\u0442\u044c","name:left:pl":"Obw\u00f3d dniepropetrowski","name:right:ro":"Regiunea Done\u021bk","name:left:ru":"\u0414\u043d\u0435\u043f\u0440\u043e\u043f\u0435\u0442\u0440\u043e\u0432\u0441\u043a\u0430\u044f \u043e\u0431\u043b\u0430\u0441\u0442\u044c","name:right:mr":"\u0926\u094b\u0928\u0947\u0924\u094d\u0938\u094d\u0915 \u0913\u092c\u094d\u0932\u093e\u0938\u094d\u0924","name:right:id":"Oblast Donetsk","name:right:eo":"Donecka provinco","name:right:en":"Donetsk Oblast","name:left:vi":"Dnipropetrovsk (t\u1ec9nh)","kind":"region","name":"\u0414\u043d\u0456\u043f\u0440\u043e\u043f\u0435\u0442\u0440\u043e\u0432\u0441\u044c\u043a\u0430 \u043e\u0431\u043b\u0430\u0441\u0442\u044c - \u0414\u043e\u043d\u0435\u0446\u044c\u043a\u0430 \u043e\u0431\u043b\u0430\u0441\u0442\u044c","name:left:fa":"\u0627\u0633\u062a\u0627\u0646 \u062f\u0646\u06cc\u067e\u0631\u0648\u067e\u062a\u0631\u0648\u0641\u0633\u06a9","name:right:fa":"\u0627\u0633\u062a\u0627\u0646 \u062f\u0648\u0646\u062a\u0633\u06a9","min_zoom":8.0,"name:right:be":"\u0414\u0430\u043d\u0435\u0446\u043a\u0430\u044f \u0432\u043e\u0431\u043b\u0430\u0441\u0446\u044c","name:left:zh":"\u7b2c\u8042\u4f2f\u7f57\u5f7c\u5f97\u7f57\u592b\u65af\u514b\u5dde","name:left:fr":"Oblast de Dnipropetrovsk","name:right:zh":"\u987f\u6d85\u8328\u514b\u5dde","name:left:hy":"\u0534\u0576\u0565\u057a\u0580\u0578\u057a\u0565\u057f\u0580\u0578\u057e\u057d\u056f\u056b \u0574\u0561\u0580\u0566","name:right:nn":"Donetsk oblast","name:right:mk":"\u0414\u043e\u043d\u0435\u0447\u043a\u0430 \u043e\u0431\u043b\u0430\u0441\u0442","name:right:nl":"Oblast Donetsk","name:right:ja":"\u30c9\u30cd\u30c4\u30a3\u30af\u5dde","name:right:fr":"Oblast de Donetsk","name:left:lv":"D\u0146epropetrovskas apgabals","name:left:ja":"\u30c9\u30cb\u30d7\u30ed\u30da\u30c8\u30ed\u30a6\u30b7\u30af\u5dde","id:right":-71973,"name:left:nn":"Dnipropetrovsk oblast","name:left:no":"Dnipropetrovsk oblast","name:right:sk":"Doneck\u00e1 oblas\u0165","name:left:bg":"\u0414\u043d\u0435\u043f\u0440\u043e\u043f\u0435\u0442\u0440\u043e\u0432\u0441\u043a\u0430 \u043e\u0431\u043b\u0430\u0441\u0442","name:left:be":"\u0414\u043d\u0435\u043f\u0440\u0430\u043f\u044f\u0442\u0440\u043e\u045e\u0441\u043a\u0430\u044f \u0432\u043e\u0431\u043b\u0430\u0441\u0446\u044c","name:left:fi":"Dnepropetrovskin alue","id":-101746,"name:right:fi":"Donetskin alue","name:left:eo":"Dnipropetrovska provinco","name:left:en":"Dnipropetrovsk Oblast","name:right:ca":"Prov\u00edncia de Donetsk","kind_detail":"4","name:left:mk":"\u0414\u043d\u0435\u043f\u0440\u043e\u043f\u0435\u0442\u0440\u043e\u0432\u0441\u043a\u0430 \u043e\u0431\u043b\u0430\u0441\u0442","name:left:nl":"Oblast Dnjepropetrovsk","id:left":-101746,"name:left:es":"\u00d3blast de Dnipropetrovsk","name:right:cs":"Don\u011bck\u00e1 oblast","name:right":"\u0414\u043e\u043d\u0435\u0446\u044c\u043a\u0430 \u043e\u0431\u043b\u0430\u0441\u0442\u044c","name:left:eu":"Dnipropetrovskeko oblasta","name:left:et":"Dnipropetrovski oblast","name:right:ka":"\u10d3\u10dd\u10dc\u10d4\u10ea\u10d9\u10d8\u10e1 \u10dd\u10da\u10e5\u10d8","name:right:zh-min-nan":"Doneczk s\u00e9ng","name:right:pt":"Oblast de Donetsk","name:left:ar":"\u062f\u0646\u064a\u0628\u0631\u0648\u0628\u062a\u0631\u0648\u0641\u0633\u0643 \u0623\u0648\u0628\u0644\u0627\u0633\u062a","name:right:tt":"\u0414\u043e\u043d\u0435\u0446\u043a \u04e9\u043b\u043a\u04d9\u0441\u0435","name:left:tr":"Dnipropetrovsk Oblast\u0131","name:left:id":"Oblast Dnipropetrovsk","name:left:az":"Dnepropetrovsk vilay\u0259ti","name:right:tr":"Donetsk Oblast\u0131","name:right:bg":"\u0414\u043e\u043d\u0435\u0446\u043a\u0430 \u043e\u0431\u043b\u0430\u0441\u0442","name:left:pt":"Oblast de Dnipropetrovsk","name:left:mr":"\u0926\u094d\u0928\u0947\u092a\u094d\u0930\u094b\u092a\u0947\u0924\u094d\u0930\u094b\u0935\u094d\u0938\u094d\u0915 \u0913\u092c\u094d\u0932\u093e\u0938\u094d\u0924","name:right:sv":"Donetsk oblast","name:right:ko":"\ub3c4\ub124\uce20\ud06c \uc8fc","name:left:zh-min-nan":"Dnipropetrovsk s\u00e9ng","name:left:it":"Oblast' di Dnipropetrovs'k","name:right:pl":"Obw\u00f3d doniecki","osm_relation":true,"name:right:de":"Oblast Donezk","name:left:de":"Oblast Dnipropetrowsk"},"arcs":[0]},{"type":"LineString","properties":{"name:right:hy":"\u053d\u0561\u0580\u056f\u0578\u057e\u056b \u0574\u0561\u0580\u0566","name:right:no":"Kharkiv oblast","name:right:hr":"Harkivska oblast","name:left:sv":"Dnipropetrovsk oblast","name:right:hu":"Harkivi ter\u00fclet","name:left:sr":"\u0414\u045a\u0435\u043f\u0440\u043e\u043f\u0435\u0442\u0440\u043e\u0432\u0441\u043a\u0430 \u043e\u0431\u043b\u0430\u0441\u0442","name:right:lt":"Charkovo sritis","name:right:lv":"Harkovas apgabals","name:left:lt":"Dniepropetrovsko sritis","name:left:sh":"Dnjipropetrovska oblast","name:left:sk":"Dnepropetrovsk\u00e1 oblas\u0165","name:left:hu":"Dnyipropetrovszki ter\u00fclet","name:left:hr":"Dnjipropetrovska oblast","name:right:os":"\u0425\u0430\u0440\u044c\u043a\u043e\u0432\u044b \u043e\u0431\u043b\u00e6\u0441\u0442","name:right:vi":"Kharkiv (t\u1ec9nh)","sort_rank":256,"name:left:ca":"Prov\u00edncia de Dnipropetrovsk","source":"openstreetmap.org","name:right:ar":"\u062e\u0627\u0631\u0643\u064a\u0641 \u0623\u0648\u0628\u0644\u0627\u0633\u062a","name:left:cv":"\u0414\u043d\u0435\u043f\u0440\u043e\u043f\u0435\u0442\u0440\u043e\u0432\u0441\u043a \u043e\u0431\u043b\u0430\u00e7\u0115","name:left:cs":"Dn\u011bpropetrovsk\u00e1 oblast","name:left":"\u0414\u043d\u0456\u043f\u0440\u043e\u043f\u0435\u0442\u0440\u043e\u0432\u0441\u044c\u043a\u0430 \u043e\u0431\u043b\u0430\u0441\u0442\u044c","name:right:es":"\u00d3blast de J\u00e1rkov","name:right:sh":"Harkivska oblast","name:right:sr":"\u0425\u0430\u0440\u043a\u043e\u0432\u0441\u043a\u0430 \u043e\u0431\u043b\u0430\u0441\u0442","name:left:ka":"\u10d3\u10dc\u10d4\u10de\u10e0\u10dd\u10de\u10d4\u10e2\u10e0\u10dd\u10d5\u10e1\u10d9\u10d8\u10e1 \u10dd\u10da\u10e5\u10d8","name:right:eu":"Kharkiveko oblasta","name:right:et":"Harkivi oblast","name:left:ko":"\ub4dc\ub2c8\ud504\ub85c\ud398\ud2b8\ub85c\uc6b0\uc2dc\ud06c \uc8fc","name:right:it":"Oblast' di Charkiv","name:left:ro":"Regiunea Dniepropetrovsk","name:right:ru":"\u0425\u0430\u0440\u044c\u043a\u043e\u0432\u0441\u043a\u0430\u044f \u043e\u0431\u043b\u0430\u0441\u0442\u044c","name:right:ro":"Regiunea Harkov","name:left:ru":"\u0414\u043d\u0435\u043f\u0440\u043e\u043f\u0435\u0442\u0440\u043e\u0432\u0441\u043a\u0430\u044f \u043e\u0431\u043b\u0430\u0441\u0442\u044c","name:right:mr":"\u0916\u093e\u0930\u094d\u0915\u0940\u0935\u094d\u0939 \u0913\u092c\u094d\u0932\u093e\u0938\u094d\u0924","name:right:id":"Oblast Kharkiv","name:right:eo":"\u0124arkiva provinco","name:right:en":"Kharkiv Oblast","name:left:vi":"Dnipropetrovsk (t\u1ec9nh)","kind":"region","name":"\u0414\u043d\u0456\u043f\u0440\u043e\u043f\u0435\u0442\u0440\u043e\u0432\u0441\u044c\u043a\u0430 \u043e\u0431\u043b\u0430\u0441\u0442\u044c - \u0425\u0430\u0440\u043a\u0456\u0432\u0441\u044c\u043a\u0430 \u043e\u0431\u043b\u0430\u0441\u0442\u044c","name:left:fa":"\u0627\u0633\u062a\u0627\u0646 \u062f\u0646\u06cc\u067e\u0631\u0648\u067e\u062a\u0631\u0648\u0641\u0633\u06a9","name:right:fa":"\u0627\u0633\u062a\u0627\u0646 \u062e\u0627\u0631\u06a9\u0641","min_zoom":8.0,"name:right:be":"\u0425\u0430\u0440\u043a\u0430\u045e\u0441\u043a\u0430\u044f \u0432\u043e\u0431\u043b\u0430\u0441\u0446\u044c","name:left:zh":"\u7b2c\u8042\u4f2f\u7f57\u5f7c\u5f97\u7f57\u592b\u65af\u514b\u5dde","name:left:fr":"Oblast de Dnipropetrovsk","name:right:zh":"\u54c8\u723e\u79d1\u592b\u5dde","name:left:hy":"\u0534\u0576\u0565\u057a\u0580\u0578\u057a\u0565\u057f\u0580\u0578\u057e\u057d\u056f\u056b \u0574\u0561\u0580\u0566","name:right:nn":"Kharkiv oblast","name:right:mk":"\u0425\u0430\u0440\u043a\u043e\u0432\u0441\u043a\u0430 \u043e\u0431\u043b\u0430\u0441\u0442","name:right:nl":"Oblast Charkov","name:right:ja":"\u30cf\u30eb\u30ad\u30a6\u5dde","name:right:fr":"Oblast de Kharkiv","name:left:lv":"D\u0146epropetrovskas apgabals","name:left:ja":"\u30c9\u30cb\u30d7\u30ed\u30da\u30c8\u30ed\u30a6\u30b7\u30af\u5dde","id:right":-71254,"name:left:nn":"Dnipropetrovsk oblast","name:left:no":"Dnipropetrovsk oblast","name:right:sk":"Charkovsk\u00e1 oblas\u0165","name:left:bg":"\u0414\u043d\u0435\u043f\u0440\u043e\u043f\u0435\u0442\u0440\u043e\u0432\u0441\u043a\u0430 \u043e\u0431\u043b\u0430\u0441\u0442","name:left:be":"\u0414\u043d\u0435\u043f\u0440\u0430\u043f\u044f\u0442\u0440\u043e\u045e\u0441\u043a\u0430\u044f \u0432\u043e\u0431\u043b\u0430\u0441\u0446\u044c","name:left:fi":"Dnepropetrovskin alue","id":-101746,"name:right:fi":"Harkovan alue","name:left:eo":"Dnipropetrovska provinco","name:left:en":"Dnipropetrovsk Oblast","name:right:ca":"Prov\u00edncia de Kh\u00e0rkiv","kind_detail":"4","name:left:mk":"\u0414\u043d\u0435\u043f\u0440\u043e\u043f\u0435\u0442\u0440\u043e\u0432\u0441\u043a\u0430 \u043e\u0431\u043b\u0430\u0441\u0442","name:left:nl":"Oblast Dnjepropetrovsk","id:left":-101746,"name:left:es":"\u00d3blast de Dnipropetrovsk","name:right:cs":"Charkovsk\u00e1 oblast","name:right":"\u0425\u0430\u0440\u043a\u0456\u0432\u0441\u044c\u043a\u0430 \u043e\u0431\u043b\u0430\u0441\u0442\u044c","name:left:eu":"Dnipropetrovskeko oblasta","name:left:et":"Dnipropetrovski oblast","name:right:ka":"\u10ee\u10d0\u10e0\u10d9\u10dd\u10d5\u10d8\u10e1 \u10dd\u10da\u10e5\u10d8","name:right:zh-min-nan":"Xarkiv s\u00e9ng","name:right:pt":"Oblast de Kharkiv","name:left:ar":"\u062f\u0646\u064a\u0628\u0631\u0648\u0628\u062a\u0631\u0648\u0641\u0633\u0643 \u0623\u0648\u0628\u0644\u0627\u0633\u062a","name:left:pl":"Obw\u00f3d dniepropetrowski","name:left:tr":"Dnipropetrovsk Oblast\u0131","name:left:id":"Oblast Dnipropetrovsk","name:left:az":"Dnepropetrovsk vilay\u0259ti","name:right:tr":"Harkiv Oblast\u0131","name:right:bg":"\u0425\u0430\u0440\u043a\u043e\u0432\u0441\u043a\u0430 \u043e\u0431\u043b\u0430\u0441\u0442","name:left:pt":"Oblast de Dnipropetrovsk","name:left:mr":"\u0926\u094d\u0928\u0947\u092a\u094d\u0930\u094b\u092a\u0947\u0924\u094d\u0930\u094b\u0935\u094d\u0938\u094d\u0915 \u0913\u092c\u094d\u0932\u093e\u0938\u094d\u0924","name:right:sv":"Charkiv oblast","name:right:ko":"\ud558\ub974\ud0a4\uc6b0 \uc8fc","name:left:zh-min-nan":"Dnipropetrovsk s\u00e9ng","name:left:it":"Oblast' di Dnipropetrovs'k","name:right:pl":"Obw\u00f3d charkowski","osm_relation":true,"name:right:de":"Oblast Charkiw","name:left:de":"Oblast Dnipropetrowsk"},"arcs":[1]},{"type":"MultiLineString","properties":{"name:right:hy":"\u053d\u0561\u0580\u056f\u0578\u057e\u056b \u0574\u0561\u0580\u0566","name:right:no":"Kharkiv oblast","name:right:hr":"Harkivska oblast","name:left:sv":"Donetsk oblast","name:right:hu":"Harkivi ter\u00fclet","name:left:sr":"\u0414\u043e\u045a\u0435\u0447\u043a\u0430 \u043e\u0431\u043b\u0430\u0441\u0442","name:right:lt":"Charkovo sritis","name:right:lv":"Harkovas apgabals","name:left:lt":"Donecko sritis","name:left:sh":"Done\u010dka oblast","name:left:sk":"Doneck\u00e1 oblas\u0165","name:left:hu":"Donecki ter\u00fclet","name:left:hr":"Done\u010dka oblast","name:right:os":"\u0425\u0430\u0440\u044c\u043a\u043e\u0432\u044b \u043e\u0431\u043b\u00e6\u0441\u0442","name:right:vi":"Kharkiv (t\u1ec9nh)","sort_rank":256,"name:left:ca":"Prov\u00edncia de Donetsk","source":"openstreetmap.org","name:right:ar":"\u062e\u0627\u0631\u0643\u064a\u0641 \u0623\u0648\u0628\u0644\u0627\u0633\u062a","name:left:cs":"Don\u011bck\u00e1 oblast","name:left":"\u0414\u043e\u043d\u0435\u0446\u044c\u043a\u0430 \u043e\u0431\u043b\u0430\u0441\u0442\u044c","name:right:es":"\u00d3blast de J\u00e1rkov","name:right:sh":"Harkivska oblast","name:right:sr":"\u0425\u0430\u0440\u043a\u043e\u0432\u0441\u043a\u0430 \u043e\u0431\u043b\u0430\u0441\u0442","name:left:ka":"\u10d3\u10dd\u10dc\u10d4\u10ea\u10d9\u10d8\u10e1 \u10dd\u10da\u10e5\u10d8","name:right:eu":"Kharkiveko oblasta","name:right:et":"Harkivi oblast","name:left:ko":"\ub3c4\ub124\uce20\ud06c \uc8fc","name:right:it":"Oblast' di Charkiv","name:left:ro":"Regiunea Done\u021bk","name:right:ru":"\u0425\u0430\u0440\u044c\u043a\u043e\u0432\u0441\u043a\u0430\u044f \u043e\u0431\u043b\u0430\u0441\u0442\u044c","name:right:ro":"Regiunea Harkov","name:left:ru":"\u0414\u043e\u043d\u0435\u0446\u043a\u0430\u044f \u043e\u0431\u043b\u0430\u0441\u0442\u044c","name:right:mr":"\u0916\u093e\u0930\u094d\u0915\u0940\u0935\u094d\u0939 \u0913\u092c\u094d\u0932\u093e\u0938\u094d\u0924","name:right:id":"Oblast Kharkiv","name:right:eo":"\u0124arkiva provinco","name:right:en":"Kharkiv Oblast","name:left:vi":"Donetsk (t\u1ec9nh)","kind":"region","name":"\u0414\u043e\u043d\u0435\u0446\u044c\u043a\u0430 \u043e\u0431\u043b\u0430\u0441\u0442\u044c - \u0425\u0430\u0440\u043a\u0456\u0432\u0441\u044c\u043a\u0430 \u043e\u0431\u043b\u0430\u0441\u0442\u044c","name:left:fa":"\u0627\u0633\u062a\u0627\u0646 \u062f\u0648\u0646\u062a\u0633\u06a9","name:right:fa":"\u0627\u0633\u062a\u0627\u0646 \u062e\u0627\u0631\u06a9\u0641","min_zoom":8.0,"name:right:be":"\u0425\u0430\u0440\u043a\u0430\u045e\u0441\u043a\u0430\u044f \u0432\u043e\u0431\u043b\u0430\u0441\u0446\u044c","name:left:zh":"\u987f\u6d85\u8328\u514b\u5dde","name:left:fr":"Oblast de Donetsk","name:right:zh":"\u54c8\u723e\u79d1\u592b\u5dde","name:left:hy":"\u0534\u0578\u0576\u0565\u0581\u056f\u056b \u0574\u0561\u0580\u0566","name:right:nn":"Kharkiv oblast","name:right:mk":"\u0425\u0430\u0440\u043a\u043e\u0432\u0441\u043a\u0430 \u043e\u0431\u043b\u0430\u0441\u0442","name:right:nl":"Oblast Charkov","name:right:ja":"\u30cf\u30eb\u30ad\u30a6\u5dde","name:right:fr":"Oblast de Kharkiv","name:left:lv":"Do\u0146eckas apgabals","name:left:ja":"\u30c9\u30cd\u30c4\u30a3\u30af\u5dde","id:right":-71254,"name:left:nn":"Donetsk oblast","name:left:no":"Donetsk oblast","name:right:sk":"Charkovsk\u00e1 oblas\u0165","name:left:bg":"\u0414\u043e\u043d\u0435\u0446\u043a\u0430 \u043e\u0431\u043b\u0430\u0441\u0442","name:left:be":"\u0414\u0430\u043d\u0435\u0446\u043a\u0430\u044f \u0432\u043e\u0431\u043b\u0430\u0441\u0446\u044c","name:left:fi":"Donetskin alue","id":-71973,"name:right:fi":"Harkovan alue","name:left:eo":"Donecka provinco","name:left:en":"Donetsk Oblast","name:right:ca":"Prov\u00edncia de Kh\u00e0rkiv","kind_detail":"4","name:left:mk":"\u0414\u043e\u043d\u0435\u0447\u043a\u0430 \u043e\u0431\u043b\u0430\u0441\u0442","name:left:nl":"Oblast Donetsk","id:left":-71973,"name:left:es":"\u00d3blast de Donetsk","name:right:cs":"Charkovsk\u00e1 oblast","name:right":"\u0425\u0430\u0440\u043a\u0456\u0432\u0441\u044c\u043a\u0430 \u043e\u0431\u043b\u0430\u0441\u0442\u044c","name:left:os":"\u0414\u043e\u043d\u0435\u0446\u0447\u044b \u043e\u0431\u043b\u00e6\u0441\u0442","name:left:eu":"Donetskeko oblasta","name:left:et":"Donetski oblast","name:right:ka":"\u10ee\u10d0\u10e0\u10d9\u10dd\u10d5\u10d8\u10e1 \u10dd\u10da\u10e5\u10d8","name:right:zh-min-nan":"Xarkiv s\u00e9ng","name:right:pt":"Oblast de Kharkiv","name:left:ar":"\u062f\u0648\u0646\u064a\u062a\u0633\u0643 \u0623\u0648\u0628\u0644\u0627\u0633\u062a","name:left:pl":"Obw\u00f3d doniecki","name:left:tr":"Donetsk Oblast\u0131","name:left:id":"Oblast Donetsk","name:left:tt":"\u0414\u043e\u043d\u0435\u0446\u043a \u04e9\u043b\u043a\u04d9\u0441\u0435","name:left:az":"Donetsk Oblast\u0131","name:right:tr":"Harkiv Oblast\u0131","name:right:bg":"\u0425\u0430\u0440\u043a\u043e\u0432\u0441\u043a\u0430 \u043e\u0431\u043b\u0430\u0441\u0442","name:left:pt":"Oblast de Donetsk","name:left:mr":"\u0926\u094b\u0928\u0947\u0924\u094d\u0938\u094d\u0915 \u0913\u092c\u094d\u0932\u093e\u0938\u094d\u0924","name:right:sv":"Charkiv oblast","name:right:ko":"\ud558\ub974\ud0a4\uc6b0 \uc8fc","name:left:zh-min-nan":"Doneczk s\u00e9ng","name:left:it":"Oblast' di Donec'k","name:right:pl":"Obw\u00f3d charkowski","osm_relation":true,"name:right:de":"Oblast Charkiw","name:left:de":"Oblast Donezk"},"arcs":[[2],[3],[4]]}]},"roads":{"type":"GeometryCollection","geometries":[{"type":"LineString","properties":{"bus_network":"\u0414\u043e\u043d\u0435\u0446\u043a\u0438\u0439 \u0442\u0440\u043e\u043b\u043b\u0435\u0439\u0431\u0443\u0441","sort_rank":380,"kind_detail":"primary","kind":"major_road","source":"openstreetmap.org","min_zoom":8.0,"bus_shield_text":"\u0422\u0431-11","landuse_kind":"urban_area"},"arcs":[26]},{"type":"MultiLineString","properties":{"bus_network":"\u041c\u0430\u043a\u0456\u0457\u0432\u0441\u044c\u043a\u0438\u0439 \u0442\u0440\u043e\u043b\u0435\u0439\u0431\u0443\u0441","network":"ua:national","sort_rank":380,"kind_detail":"primary","kind":"major_road","source":"openstreetmap.org","min_zoom":8.0,"bus_shield_text":"\u0422\u0431-5","shield_text":"21","name:ru":"\u0414\u043e\u043d\u0435\u0446\u043a\u043e\u0435 \u0448\u043e\u0441\u0441\u0435","landuse_kind":"urban_area","ref":"\u041d-21"},"arcs":[[27],[28]]},{"type":"LineString","properties":{"old_name:uk":"\u041e\u0440\u0434\u0436\u043e\u043d\u0456\u043a\u0456\u0434\u0437\u0435 \u0432\u0443\u043b\u0438\u0446\u044f","kind":"major_road","name:en":"Oleksy Tykhoho Street","network":"ua:national","sort_rank":380,"kind_detail":"primary","old_name:ru":"\u041e\u0440\u0434\u0436\u043e\u043d\u0438\u043a\u0438\u0434\u0437\u0435 \u0443\u043b\u0438\u0446\u0430","source":"openstreetmap.org","min_zoom":8.0,"old_name":"\u041e\u0440\u0434\u0436\u043e\u043d\u0456\u043a\u0456\u0434\u0437\u0435 \u0432\u0443\u043b\u0438\u0446\u044f","shield_text":"20","name:ru":"\u041e\u043b\u0435\u043a\u0441\u044b \u0422\u0438\u0445\u043e\u0433\u043e \u0443\u043b\u0438\u0446\u0430","landuse_kind":"urban_area","ref":"\u041d-20"},"arcs":[29]},{"type":"MultiLineString","properties":{"kind":"major_road","name:en":"Zakhisnykiv Ukraini Street","network":"e-road","sort_rank":381,"kind_detail":"trunk","source":"openstreetmap.org","min_zoom":8.0,"landuse_kind":"urban_area","shield_text":"50","name:ru":"\u0417\u0430\u0449\u0438\u0442\u043d\u0438\u043a\u043e\u0432 \u0423\u043a\u0440\u0430\u0438\u043d\u044b \u0443\u043b\u0438\u0446\u0430","ref":"\u041c-04"},"arcs":[[30],[31],[32],[33],[34],[35]]},{"type":"MultiLineString","properties":{"source":"openstreetmap.org","kind":"major_road","landuse_kind":"urban_area","sort_rank":380,"kind_detail":"primary","min_zoom":8.0,"name:ru":"\u0414\u043e\u043d\u0435\u0446\u043a\u043e\u0435 \u0448\u043e\u0441\u0441\u0435"},"arcs":[[36],[37]]},{"type":"LineString","properties":{"bus_network":null,"old_name":"\u041e\u0440\u0434\u0436\u043e\u043d\u0456\u043a\u0456\u0434\u0437\u0435 \u0432\u0443\u043b\u0438\u0446\u044f","min_zoom":8.0,"bus_shield_text":"2","name:ru":"\u041e\u043b\u0435\u043a\u0441\u044b \u0422\u0438\u0445\u043e\u0433\u043e \u0443\u043b\u0438\u0446\u0430","id":121174938,"old_name:uk":"\u041e\u0440\u0434\u0436\u043e\u043d\u0456\u043a\u0456\u0434\u0437\u0435 \u0432\u0443\u043b\u0438\u0446\u044f","kind":"major_road","name:en":"Oleksy Tykhoho Street","network":"ua:national","sort_rank":380,"kind_detail":"primary","old_name:ru":"\u041e\u0440\u0434\u0436\u043e\u043d\u0438\u043a\u0438\u0434\u0437\u0435 \u0443\u043b\u0438\u0446\u0430","source":"openstreetmap.org","landuse_kind":"residential","shield_text":"20","ref":"\u041d-20"},"arcs":[38]},{"type":"LineString","properties":{"kind":"major_road","sort_rank":380,"kind_detail":"primary","bus_network":null,"source":"openstreetmap.org","min_zoom":8.0,"bus_shield_text":"28","landuse_kind":"urban_area","id":176641286},"arcs":[39]},{"type":"LineString","properties":{"kind":"major_road","network":"e-road","sort_rank":381,"landuse_kind":"urban_area","source":"openstreetmap.org","min_zoom":8.0,"kind_detail":"trunk","shield_text":"40","ref":"\u041c-03"},"arcs":[40]},{"type":"LineString","properties":{"kind":"major_road","name:en":"Lomonosova Avenue","network":"ua:national","sort_rank":380,"kind_detail":"primary","source":"openstreetmap.org","min_zoom":8.0,"landuse_kind":"urban_area","shield_text":"20","ref":"\u041d-20","id":132628298},"arcs":[41]},{"type":"LineString","properties":{"kind":"major_road","name:en":"Fedora Zaitseva Street","sort_rank":380,"kind_detail":"primary","source":"openstreetmap.org","min_zoom":8.0,"landuse_kind":"urban_area","name:ru":"\u0424\u0435\u0434\u043e\u0440\u0430 \u0417\u0430\u0439\u0446\u0435\u0432\u0430 \u0443\u043b\u0438\u0446\u0430"},"arcs":[42]},{"type":"MultiLineString","properties":{"bus_network":null,"name:en":"Pervomaiska Street","sort_rank":380,"kind_detail":"primary","kind":"major_road","source":"openstreetmap.org","min_zoom":8.0,"bus_shield_text":"41","name:ru":"\u041f\u0435\u0440\u0432\u043e\u043c\u0430\u0439\u0441\u043a\u0430\u044f \u0443\u043b\u0438\u0446\u0430","landuse_kind":"urban_area"},"arcs":[[43],[44]]},{"type":"LineString","properties":{"kind":"major_road","name:en":"Kryvorizka Street","network":"ua:national","sort_rank":380,"kind_detail":"primary","source":"openstreetmap.org","min_zoom":8.0,"landuse_kind":"urban_area","shield_text":"20","name:ru":"\u041a\u0440\u0438\u0432\u043e\u0440\u043e\u0436\u0441\u043a\u0430\u044f \u0443\u043b\u0438\u0446\u0430","ref":"\u041d-20","id":105589421},"arcs":[45]},{"type":"LineString","properties":{"bus_network":null,"old_name":"\u041e\u0440\u0434\u0436\u043e\u043d\u0456\u043a\u0456\u0434\u0437\u0435 \u0432\u0443\u043b\u0438\u0446\u044f","min_zoom":8.0,"bus_shield_text":"6","name:ru":"\u041e\u043b\u0435\u043a\u0441\u044b \u0422\u0438\u0445\u043e\u0433\u043e \u0443\u043b\u0438\u0446\u0430","id":257355017,"old_name:uk":"\u041e\u0440\u0434\u0436\u043e\u043d\u0456\u043a\u0456\u0434\u0437\u0435 \u0432\u0443\u043b\u0438\u0446\u044f","kind":"major_road","name:en":"Oleksy Tykhoho Street","network":"ua:national","sort_rank":380,"kind_detail":"primary","old_name:ru":"\u041e\u0440\u0434\u0436\u043e\u043d\u0438\u043a\u0438\u0434\u0437\u0435 \u0443\u043b\u0438\u0446\u0430","source":"openstreetmap.org","landuse_kind":"residential","shield_text":"20","ref":"\u041d-20"},"arcs":[46]},{"type":"LineString","properties":{"kind":"major_road","network":"ua:national","sort_rank":380,"kind_detail":"primary","source":"openstreetmap.org","min_zoom":8.0,"landuse_kind":"urban_area","shield_text":"20","name:ru":"\u041c\u043e\u0441\u043a\u043e\u0432\u0441\u043a\u0430\u044f \u0443\u043b\u0438\u0446\u0430","ref":"\u041d-20","id":132628306},"arcs":[47]},{"type":"MultiLineString","properties":{"bus_network":null,"name:en":"Zakhisnykiv Ukraini Street","network":"e-road","sort_rank":381,"kind_detail":"trunk","kind":"major_road","source":"openstreetmap.org","min_zoom":8.0,"bus_shield_text":"107","shield_text":"50","name:ru":"\u0417\u0430\u0449\u0438\u0442\u043d\u0438\u043a\u043e\u0432 \u0423\u043a\u0440\u0430\u0438\u043d\u044b \u0443\u043b\u0438\u0446\u0430","landuse_kind":"urban_area","ref":"\u041c-04"},"arcs":[[48],[49],[50]]},{"type":"LineString","properties":{"kind":"major_road","name:en":"Pavshykh Komunariv Avenue","sort_rank":380,"kind_detail":"primary","bus_network":null,"source":"openstreetmap.org","min_zoom":8.0,"bus_shield_text":"111","name:ru":"\u041f\u0430\u0432\u0448\u0438\u0445 \u041a\u043e\u043c\u043c\u0443\u043d\u0430\u0440\u043e\u0432 \u043f\u0440\u043e\u0441\u043f\u0435\u043a\u0442","landuse_kind":"urban_area","id":194619587},"arcs":[51]},{"type":"LineString","properties":{"bus_network":"\u0414\u043e\u043d\u0435\u0446\u044c\u043a\u0438\u0439 \u0442\u0440\u043e\u043b\u0435\u0439\u0431\u0443\u0441","sort_rank":380,"kind_detail":"primary","kind":"major_road","source":"openstreetmap.org","min_zoom":8.0,"bus_shield_text":"\u0422\u0431-11","landuse_kind":"urban_area"},"arcs":[52]},{"type":"MultiLineString","properties":{"kind":"major_road","name:en":"Pavshykh Komunariv Avenue","sort_rank":380,"kind_detail":"primary","source":"openstreetmap.org","min_zoom":8.0,"landuse_kind":"urban_area","name:ru":"\u041f\u0430\u0432\u0448\u0438\u0445 \u041a\u043e\u043c\u043c\u0443\u043d\u0430\u0440\u043e\u0432 \u043f\u0440\u043e\u0441\u043f\u0435\u043a\u0442"},"arcs":[[53],[54]]},{"type":"MultiLineString","properties":{"kind":"major_road","network":"ua:national","sort_rank":380,"kind_detail":"primary","source":"openstreetmap.org","min_zoom":8.0,"landuse_kind":"protected_area","shield_text":"20","ref":"\u041d-20"},"arcs":[[55],[56]]},{"type":"LineString","properties":{"bus_network":null,"sort_rank":380,"kind_detail":"primary","kind":"major_road","source":"openstreetmap.org","min_zoom":8.0,"bus_shield_text":"41","landuse_kind":"urban_area"},"arcs":[57]},{"type":"LineString","properties":{"bus_network":"\u0414\u043e\u043d\u0435\u0446\u044c\u043a\u0438\u0439 \u0442\u0440\u043e\u043b\u0435\u0439\u0431\u0443\u0441","name:en":"Makiyivske Road","sort_rank":380,"kind_detail":"primary","kind":"major_road","source":"openstreetmap.org","min_zoom":8.0,"bus_shield_text":"\u0422\u0431-11","name:ru":"\u041c\u0430\u043a\u0435\u0435\u0432\u0441\u043a\u043e\u0435 \u0448\u043e\u0441\u0441\u0435","landuse_kind":"urban_area"},"arcs":[58]},{"type":"LineString","properties":{"kind":"major_road","network":"ua:national","sort_rank":380,"kind_detail":"primary","source":"openstreetmap.org","min_zoom":8.0,"landuse_kind":"urban_area","shield_text":"20","name:ru":"\u0410\u0440\u0442\u0451\u043c\u043e\u0432\u0441\u043a\u0438\u0439 \u043f\u0435\u0440\u0435\u0435\u0437\u0434","ref":"\u041d-20"},"arcs":[59]},{"type":"MultiLineString","properties":{"source":"openstreetmap.org","kind":"major_road","landuse_kind":"urban_area","sort_rank":380,"kind_detail":"primary","min_zoom":8.0},"arcs":[[60],[61],[62],[63]]},{"type":"LineString","properties":{"kind":"major_road","name:en":"Pravoberezhna Street","network":"ua:national","sort_rank":380,"kind_detail":"primary","source":"openstreetmap.org","min_zoom":8.0,"landuse_kind":"urban_area","shield_text":"20","name:ru":"\u041f\u0440\u0430\u0432\u043e\u0431\u0435\u0440\u0435\u0436\u043d\u0430\u044f \u0443\u043b\u0438\u0446\u0430","ref":"\u041d-20"},"arcs":[64]},{"type":"LineString","properties":{"bus_network":null,"name:en":"Zakhisnykiv Ukraini Street","network":"e-road","sort_rank":381,"kind_detail":"trunk","kind":"major_road","source":"openstreetmap.org","min_zoom":8.0,"bus_shield_text":"25","shield_text":"50","name:ru":"\u0417\u0430\u0449\u0438\u0442\u043d\u0438\u043a\u043e\u0432 \u0423\u043a\u0440\u0430\u0438\u043d\u044b \u0443\u043b\u0438\u0446\u0430","landuse_kind":"urban_area","ref":"\u041c-04","id":328451421},"arcs":[65]},{"type":"LineString","properties":{"bus_network":null,"name:en":"Zakhisnykiv Ukraini Street","network":"e-road","sort_rank":381,"kind_detail":"trunk","kind":"major_road","source":"openstreetmap.org","min_zoom":8.0,"bus_shield_text":"108","shield_text":"50","name:ru":"\u0417\u0430\u0449\u0438\u0442\u043d\u0438\u043a\u043e\u0432 \u0423\u043a\u0440\u0430\u0438\u043d\u044b \u0443\u043b\u0438\u0446\u0430","landuse_kind":"urban_area","ref":"\u041c-04","id":166638300},"arcs":[66]},{"type":"MultiLineString","properties":{"kind":"major_road","network":"ua:national","sort_rank":381,"landuse_kind":"urban_area","source":"openstreetmap.org","min_zoom":8.0,"kind_detail":"trunk","shield_text":"20","ref":"\u041c-04;\u041d-20"},"arcs":[[67],[68]]},{"type":"MultiLineString","properties":{"bus_network":null,"name:en":"Leninskyi Avenue","sort_rank":380,"kind_detail":"primary","kind":"major_road","source":"openstreetmap.org","min_zoom":8.0,"bus_shield_text":"5","name:ru":"\u041b\u0435\u043d\u0438\u043d\u0441\u043a\u0438\u0439 \u043f\u0440\u043e\u0441\u043f\u0435\u043a\u0442","landuse_kind":"urban_area"},"arcs":[[69],[70]]},{"type":"LineString","properties":{"kind":"major_road","name:en":"Suchasna Street","network":"ua:national","sort_rank":380,"kind_detail":"primary","source":"openstreetmap.org","min_zoom":8.0,"landuse_kind":"urban_area","shield_text":"20","name:ru":"\u0421\u043e\u0432\u0440\u0435\u043c\u0435\u043d\u043d\u0430\u044f \u0443\u043b\u0438\u0446\u0430","ref":"\u041d-20"},"arcs":[71]},{"type":"MultiLineString","properties":{"kind":"major_road","network":"ua:national","sort_rank":380,"kind_detail":"primary","source":"openstreetmap.org","min_zoom":8.0,"landuse_kind":"urban_area","shield_text":"20","ref":"\u041d-20"},"arcs":[[72],[73],[74],[75],[76],[77],[78],[79],[80],[81],[82],[83],[84],[85],[86],[87],[88],[89],[90],[91],[92],[93],[94],[95],[96],[97]]},{"type":"LineString","properties":{"bus_network":null,"old_name":"\u041e\u0440\u0434\u0436\u043e\u043d\u0456\u043a\u0456\u0434\u0437\u0435 \u0432\u0443\u043b\u0438\u0446\u044f","min_zoom":8.0,"bus_shield_text":"2","name:ru":"\u041e\u043b\u0435\u043a\u0441\u044b \u0422\u0438\u0445\u043e\u0433\u043e \u0443\u043b\u0438\u0446\u0430","id":121174938,"old_name:uk":"\u041e\u0440\u0434\u0436\u043e\u043d\u0456\u043a\u0456\u0434\u0437\u0435 \u0432\u0443\u043b\u0438\u0446\u044f","kind":"major_road","name:en":"Oleksy Tykhoho Street","network":"ua:national","sort_rank":380,"kind_detail":"primary","old_name:ru":"\u041e\u0440\u0434\u0436\u043e\u043d\u0438\u043a\u0438\u0434\u0437\u0435 \u0443\u043b\u0438\u0446\u0430","source":"openstreetmap.org","landuse_kind":"urban_area","shield_text":"20","ref":"\u041d-20"},"arcs":[98]},{"type":"MultiLineString","properties":{"kind":"major_road","network":"e-road","sort_rank":381,"landuse_kind":"urban_area","source":"openstreetmap.org","min_zoom":8.0,"kind_detail":"trunk","shield_text":"50","ref":"\u041c-04"},"arcs":[[99],[100],[101],[102],[103],[104],[105],[106],[107],[108],[109],[110],[111],[112],[113],[114],[115],[116],[117],[118],[119],[120]]},{"type":"LineString","properties":{"kind":"major_road","network":"ua:national","sort_rank":380,"kind_detail":"primary","source":"openstreetmap.org","min_zoom":8.0,"name:uk":"\u0416\u043e\u0432\u0442\u043d\u0435\u0432\u0430 \u0432\u0443\u043b\u0438\u0446\u044f","shield_text":"20","ref":"\u041d-20","id":336153130},"arcs":[121]},{"type":"LineString","properties":{"kind":"major_road","name:en":"Filtrova Street","network":"e-road","sort_rank":381,"kind_detail":"trunk","source":"openstreetmap.org","min_zoom":8.0,"shield_text":"50","name:ru":"\u0424\u0438\u043b\u044c\u0442\u0440\u043e\u0432\u0430\u044f \u0443\u043b\u0438\u0446\u0430","ref":"\u041c-04","id":335987138},"arcs":[122]},{"type":"MultiLineString","properties":{"bus_network":null,"name:en":"Elevatorna Street","sort_rank":380,"kind_detail":"primary","kind":"major_road","source":"openstreetmap.org","min_zoom":8.0,"bus_shield_text":"28","name:ru":"\u042d\u043b\u0435\u0432\u0430\u0442\u043e\u0440\u043d\u0430\u044f \u0443\u043b\u0438\u0446\u0430","landuse_kind":"urban_area"},"arcs":[[123],[124],[125]]},{"type":"LineString","properties":{"sort_rank":380,"kind_detail":"primary","min_zoom":8.0,"kind":"major_road","source":"openstreetmap.org"},"arcs":[126]},{"type":"LineString","properties":{"bus_network":null,"old_name":"\u041e\u0440\u0434\u0436\u043e\u043d\u0456\u043a\u0456\u0434\u0437\u0435 \u0432\u0443\u043b\u0438\u0446\u044f","min_zoom":8.0,"bus_shield_text":"3","name:ru":"\u041e\u043b\u0435\u043a\u0441\u044b \u0422\u0438\u0445\u043e\u0433\u043e \u0443\u043b\u0438\u0446\u0430","id":335603179,"old_name:uk":"\u041e\u0440\u0434\u0436\u043e\u043d\u0456\u043a\u0456\u0434\u0437\u0435 \u0432\u0443\u043b\u0438\u0446\u044f","kind":"major_road","name:en":"Oleksy Tykhoho Street","network":"ua:national","sort_rank":380,"kind_detail":"primary","old_name:ru":"\u041e\u0440\u0434\u0436\u043e\u043d\u0438\u043a\u0438\u0434\u0437\u0435 \u0443\u043b\u0438\u0446\u0430","source":"openstreetmap.org","landuse_kind":"residential","shield_text":"20","ref":"\u041d-20"},"arcs":[127]},{"type":"LineString","properties":{"bus_network":"\u0414\u043e\u043d\u0435\u0446\u043a\u0438\u0439 \u0442\u0440\u043e\u043b\u043b\u0435\u0439\u0431\u0443\u0441","name:en":"Makiyivske Road","sort_rank":380,"kind_detail":"primary","kind":"major_road","source":"openstreetmap.org","min_zoom":8.0,"bus_shield_text":"\u0422\u0431-11","name:ru":"\u041c\u0430\u043a\u0435\u0435\u0432\u0441\u043a\u043e\u0435 \u0448\u043e\u0441\u0441\u0435","landuse_kind":"urban_area"},"arcs":[128]},{"type":"LineString","properties":{"kind":"major_road","name:en":"Marshala Voroshylova Street","network":"e-road","sort_rank":381,"kind_detail":"trunk","source":"openstreetmap.org","min_zoom":8.0,"shield_text":"50","name:ru":"\u041c\u0430\u0440\u0448\u0430\u043b\u0430 \u0412\u043e\u0440\u043e\u0448\u0438\u043b\u043e\u0432\u0430 \u0443\u043b\u0438\u0446\u0430","ref":"\u041c-04","id":333687990},"arcs":[129]},{"type":"MultiLineString","properties":{"kind":"major_road","network":"e-road","sort_rank":381,"kind_detail":"trunk","source":"openstreetmap.org","min_zoom":8.0,"shield_text":"40","ref":"\u041c-03"},"arcs":[[130],[131]]},{"type":"LineString","properties":{"kind":"major_road","name:en":"Zaporizke avenue","network":"ua:national","sort_rank":380,"kind_detail":"primary","source":"openstreetmap.org","min_zoom":8.0,"landuse_kind":"urban_area","shield_text":"15","name:ru":"\u0417\u0430\u043f\u043e\u0440\u043e\u0436\u0441\u043a\u0438\u0439 \u043f\u0440\u043e\u0441\u043f\u0435\u043a\u0442","ref":"\u041d-15","id":247252227},"arcs":[132]},{"type":"MultiLineString","properties":{"source":"openstreetmap.org","kind":"major_road","kind_detail":"trunk","sort_rank":381,"landuse_kind":"urban_area","min_zoom":8.0},"arcs":[[133],[134],[135]]},{"type":"MultiLineString","properties":{"bus_network":null,"name:en":"Makiyivske Road","sort_rank":380,"kind_detail":"primary","kind":"major_road","source":"openstreetmap.org","min_zoom":8.0,"bus_shield_text":"111","name:ru":"\u041c\u0430\u043a\u0435\u0435\u0432\u0441\u043a\u043e\u0435 \u0448\u043e\u0441\u0441\u0435","landuse_kind":"urban_area"},"arcs":[[136],[137]]},{"type":"MultiLineString","properties":{"kind":"major_road","network":"e-road","sort_rank":381,"kind_detail":"trunk","source":"openstreetmap.org","min_zoom":8.0,"shield_text":"50","ref":"\u041c-04"},"arcs":[[138],[139],[140],[141],[142],[143],[144],[145],[146],[147],[148],[149],[150],[151],[152],[153]]},{"type":"MultiLineString","properties":{"bus_network":null,"name:en":"Zakhisnykiv Ukraini Street","network":"e-road","sort_rank":381,"kind_detail":"trunk","kind":"major_road","source":"openstreetmap.org","min_zoom":8.0,"bus_shield_text":"108","shield_text":"50","name:ru":"\u0417\u0430\u0449\u0438\u0442\u043d\u0438\u043a\u043e\u0432 \u0423\u043a\u0440\u0430\u0438\u043d\u044b \u0443\u043b\u0438\u0446\u0430","ref":"\u041c-04"},"arcs":[[154],[155],[156]]},{"type":"MultiLineString","properties":{"bus_network":null,"sort_rank":380,"kind_detail":"primary","kind":"major_road","source":"openstreetmap.org","min_zoom":8.0,"bus_shield_text":"111","landuse_kind":"urban_area"},"arcs":[[157],[158]]},{"type":"MultiLineString","properties":{"kind":"major_road","network":"ua:national","sort_rank":380,"kind_detail":"primary","source":"openstreetmap.org","min_zoom":8.0,"shield_text":"20","ref":"\u041d-20"},"arcs":[[159],[160],[161],[162],[163],[164],[165],[166],[167],[168],[169],[170],[171],[172],[173]]},{"type":"LineString","properties":{"kind":"major_road","network":"e-road","sort_rank":381,"kind_detail":"trunk","bus_network":null,"source":"openstreetmap.org","min_zoom":8.0,"bus_shield_text":"28-\u0410","shield_text":"50","landuse_kind":"urban_area","ref":"\u041c-04","id":168673616},"arcs":[174]},{"type":"MultiLineString","properties":{"bus_network":"\u041c\u0430\u043a\u0456\u0457\u0432\u0441\u044c\u043a\u0438\u0439 \u0442\u0440\u043e\u043b\u0435\u0439\u0431\u0443\u0441","sort_rank":380,"landuse_kind":"urban_area","kind":"major_road","source":"openstreetmap.org","min_zoom":8.0,"bus_shield_text":"\u0422\u0431-5","name:ru":"\u0414\u043e\u043d\u0435\u0446\u043a\u043e\u0435 \u0448\u043e\u0441\u0441\u0435","kind_detail":"primary"},"arcs":[[175],[176]]},{"type":"LineString","properties":{"kind":"major_road","name:en":"Fedora Zaitseva Street","sort_rank":380,"kind_detail":"primary","bus_network":null,"source":"openstreetmap.org","min_zoom":8.0,"bus_shield_text":"111","name:ru":"\u0424\u0435\u0434\u043e\u0440\u0430 \u0417\u0430\u0439\u0446\u0435\u0432\u0430 \u0443\u043b\u0438\u0446\u0430","landuse_kind":"urban_area","id":24506215},"arcs":[177]},{"type":"MultiLineString","properties":{"kind":"major_road","name:en":"Zakhisnykiv Ukraini Street","network":"e-road","sort_rank":381,"kind_detail":"trunk","source":"openstreetmap.org","min_zoom":8.0,"shield_text":"50","name:ru":"\u0417\u0430\u0449\u0438\u0442\u043d\u0438\u043a\u043e\u0432 \u0423\u043a\u0440\u0430\u0438\u043d\u044b \u0443\u043b\u0438\u0446\u0430","ref":"\u041c-04"},"arcs":[[178],[179]]},{"type":"LineString","properties":{"bus_network":null,"bus_shield_text":"6","min_zoom":8.0,"old_name":"\u041e\u0440\u0434\u0436\u043e\u043d\u0456\u043a\u0456\u0434\u0437\u0435 \u0432\u0443\u043b\u0438\u0446\u044f","name:ru":"\u041e\u043b\u0435\u043a\u0441\u044b \u0422\u0438\u0445\u043e\u0433\u043e \u0443\u043b\u0438\u0446\u0430","old_name:uk":"\u041e\u0440\u0434\u0436\u043e\u043d\u0456\u043a\u0456\u0434\u0437\u0435 \u0432\u0443\u043b\u0438\u0446\u044f","kind":"major_road","name:en":"Oleksy Tykhoho Street","network":"ua:national","sort_rank":380,"kind_detail":"primary","old_name:ru":"\u041e\u0440\u0434\u0436\u043e\u043d\u0438\u043a\u0438\u0434\u0437\u0435 \u0443\u043b\u0438\u0446\u0430","source":"openstreetmap.org","landuse_kind":"urban_area","shield_text":"20","ref":"\u041d-20"},"arcs":[180]},{"type":"LineString","properties":{"kind":"major_road","network":"ua:national","sort_rank":380,"kind_detail":"primary","source":"openstreetmap.org","min_zoom":8.0,"name:uk":"\u0416\u043e\u0432\u0442\u043d\u0435\u0432\u0430 \u0432\u0443\u043b\u0438\u0446\u044f","landuse_kind":"urban_area","shield_text":"20","ref":"\u041d-20","id":336153130},"arcs":[181]},{"type":"MultiLineString","properties":{"bus_network":null,"network":"e-road","sort_rank":381,"kind_detail":"trunk","kind":"major_road","source":"openstreetmap.org","min_zoom":8.0,"bus_shield_text":"77","shield_text":"50","ref":"\u041c-04"},"arcs":[[182],[183],[184]]},{"type":"LineString","properties":{"bus_network":null,"name:en":"250-richchia Donbasu Avenue","network":"ua:national","sort_rank":380,"kind_detail":"primary","kind":"major_road","source":"openstreetmap.org","min_zoom":8.0,"bus_shield_text":"6","shield_text":"21","name:ru":"250-\u043b\u0435\u0442\u0438\u044f \u0414\u043e\u043d\u0431\u0430\u0441\u0441\u0430 \u043f\u0440\u043e\u0441\u043f\u0435\u043a\u0442","landuse_kind":"urban_area","ref":"\u041d-21"},"arcs":[185]},{"type":"LineString","properties":{"kind":"major_road","network":"ua:national","sort_rank":380,"kind_detail":"primary","source":"openstreetmap.org","min_zoom":8.0,"landuse_kind":"urban_area","shield_text":"15","ref":"\u041d-15"},"arcs":[186]},{"type":"LineString","properties":{"kind":"major_road","network":"ua:regional","sort_rank":381,"kind_detail":"trunk","source":"openstreetmap.org","min_zoom":8.0,"shield_text":"051803","ref":"\u041c-04","id":374104447},"arcs":[187]},{"type":"LineString","properties":{"kind":"major_road","name:en":"Oleksy Tykhoho Street","network":"ua:national","sort_rank":380,"kind_detail":"primary","source":"openstreetmap.org","min_zoom":8.0,"old_name":"\u041b\u0435\u043d\u0456\u043d\u0433\u0440\u0430\u0434\u0441\u044c\u043a\u0430 \u0432\u0443\u043b\u0438\u0446\u044f","shield_text":"20","name:ru":"\u0410\u043b\u0435\u043a\u0441\u0435\u044f \u0422\u0438\u0445\u043e\u0433\u043e \u0443\u043b\u0438\u0446\u0430","landuse_kind":"urban_area","ref":"\u041d-20","id":458294850},"arcs":[188]},{"type":"LineString","properties":{"kind":"major_road","network":"ua:national","sort_rank":380,"kind_detail":"primary","bus_network":null,"source":"openstreetmap.org","min_zoom":8.0,"bus_shield_text":"2","shield_text":"20","landuse_kind":"urban_area","ref":"\u041d-20","id":121174940},"arcs":[189]},{"type":"MultiLineString","properties":{"kind":"major_road","network":"ua:national","sort_rank":380,"kind_detail":"primary","source":"openstreetmap.org","min_zoom":8.0,"shield_text":"15","ref":"\u041d-15"},"arcs":[[190],[191]]},{"type":"LineString","properties":{"kind":"major_road","name:en":"Tankistiv Street","network":"ua:national","sort_rank":380,"kind_detail":"primary","source":"openstreetmap.org","min_zoom":8.0,"landuse_kind":"urban_area","shield_text":"20","name:ru":"\u0422\u0430\u043d\u043a\u0438\u0441\u0442\u043e\u0432 \u0443\u043b\u0438\u0446\u0430","ref":"\u041d-20"},"arcs":[192]},{"type":"MultiLineString","properties":{"bus_network":"\u041c\u0430\u043a\u0456\u0457\u0432\u0441\u044c\u043a\u0438\u0439 \u0442\u0440\u043e\u043b\u0435\u0439\u0431\u0443\u0441","name:en":"250-richchia Donbasu Avenue","network":"ua:national","sort_rank":380,"kind_detail":"primary","kind":"major_road","source":"openstreetmap.org","min_zoom":8.0,"bus_shield_text":"\u0422\u0431-5","shield_text":"21","name:ru":"250-\u043b\u0435\u0442\u0438\u044f \u0414\u043e\u043d\u0431\u0430\u0441\u0441\u0430 \u043f\u0440\u043e\u0441\u043f\u0435\u043a\u0442","landuse_kind":"urban_area","ref":"\u041d-21"},"arcs":[[193],[194],[195]]}]},"earth":{"type":"GeometryCollection","geometries":[{"type":"MultiPolygon","properties":{"sort_rank":10,"source":"naturalearthdata.com","min_zoom":0.0,"kind":"earth","area":94584646951},"arcs":[[[196]]]}]},"landuse":{"type":"GeometryCollection","geometries":[{"type":"MultiPolygon","properties":{"kind":"park","area":140322000,"sort_rank":24,"source":"openstreetmap.org","min_zoom":7.0,"tier":2,"id":-7172848,"osm_relation":true},"arcs":[[[197]]]},{"type":"MultiPolygon","properties":{"source":"openstreetmap.org","kind":"nature_reserve","tier":2,"protect_class":"4","area":212344704,"sort_rank":23,"min_zoom":8.0},"arcs":[[[198]]]},{"type":"Polygon","properties":{"kind":"park","area":304249984,"sort_rank":24,"source":"openstreetmap.org","min_zoom":6.0,"tier":2,"id":-7172848,"osm_relation":true},"arcs":[[199]]},{"type":"Polygon","properties":{"kind":"nature_reserve","protect_class":"5","area":12217500,"sort_rank":23,"source":"openstreetmap.org","min_zoom":8.0,"tier":2,"id":-4649617,"osm_relation":true},"arcs":[[200]]},{"type":"MultiPolygon","properties":{"source":"openstreetmap.org","kind":"park","tier":2,"area":43129515,"sort_rank":24,"min_zoom":8.0,"osm_relation":true},"arcs":[[[201]],[[202]]]},{"type":"Polygon","properties":{"kind":"residential","name":"\u0413\u0440\u0438\u0433\u043e\u0440'\u0457\u0432\u043a\u0430","area":13885600,"sort_rank":20,"source":"openstreetmap.org","min_zoom":8.0,"tier":2,"id":119482838},"arcs":[[203]]},{"type":"Polygon","properties":{"kind":"aerodrome","area":11464600,"sort_rank":60,"source":"openstreetmap.org","min_zoom":8.0,"tier":3,"id":-3342142,"osm_relation":true},"arcs":[[204]]},{"type":"Polygon","properties":{"kind":"residential","name":"\u0421\u043e\u0446\u0433\u043e\u0440\u043e\u0434","area":13836500,"sort_rank":20,"source":"openstreetmap.org","min_zoom":8.0,"tier":2,"id":409289791},"arcs":[[205]]},{"type":"MultiPolygon","properties":{"source":"naturalearthdata.com","kind":"urban_area","name":"","area":10435685732,"sort_rank":11,"min_zoom":4.0},"arcs":[[[206]],[[207]],[[208]],[[209]],[[210]],[[211]],[[212]],[[213]],[[214]],[[215]],[[216]],[[217]],[[218]],[[219]]]},{"type":"MultiPolygon","properties":{"source":"openstreetmap.org","kind":"residential","tier":2,"area":316843152,"sort_rank":20,"min_zoom":8.0},"arcs":[[[220]],[[221]],[[222]]]},{"type":"MultiPolygon","properties":{"kind":"protected_area","protect_class":"5","area":99493568,"sort_rank":17,"source":"openstreetmap.org","min_zoom":8.0,"tier":2,"osm_relation":true},"arcs":[[[223]]]}]}},"type":"Topology","transform":{"translate":[36.5625,47.9899216674],"scale":[0.0003433228,0.0002276801]},"arcs":[[[46,0],[-5,35],[28,14],[-52,47],[65,37],[-49,87],[39,54],[-27,42],[27,13],[-20,66],[69,25],[-5,24],[59,-40],[29,13],[-10,19],[63,-5],[-5,22],[-38,5],[51,26],[29,-55],[37,13],[101,-47],[23,21],[23,-59],[59,-30],[-9,-61],[58,22],[56,-37],[60,26],[27,-55],[122,-26],[10,77],[26,-3],[6,50],[37,-5],[43,70],[-69,467],[43,-30],[17,63],[11,-18],[24,3],[-4,23],[95,4],[-72,504],[-112,-14],[-7,49],[-158,-19],[-24,156],[23,2],[-13,88],[46,4],[-21,155],[45,10],[-34,32],[37,26],[41,-13],[-17,116],[-25,-2],[-20,182],[79,11],[-20,135],[164,13],[-14,99],[-49,-7],[-5,41],[-32,-4],[-37,82],[-207,-9],[-28,148],[-98,-18],[-18,130]],[[514,2794],[-194,-5],[5,-29],[-58,-9],[2,-30],[-187,-29],[-35,57],[-47,10]],[[2059,4096],[-8,-71],[-128,10],[-33,-91],[-52,-28],[-13,-43],[16,-97],[-7,-154],[0,-1],[-153,80],[18,41],[-137,40],[-59,-147],[-35,-16],[-124,18],[-15,-71],[-33,7],[-37,-71],[83,-55],[-1,-32],[59,-5],[-21,-90],[-202,209],[-327,30],[-39,-121],[-58,-6],[-14,27],[-83,12],[13,24],[-26,16],[22,52],[-80,-18],[-127,38],[-89,-130],[6,-25],[52,-13],[25,-100],[-16,-4],[68,-175],[-21,-49],[-48,-2],[79,-291]],[[2181,4096],[-35,0]],[[2230,4096],[-22,0]],[[0,3770],[184,-101],[133,-5],[94,-64],[93,-16],[122,159],[207,102],[78,66],[65,185]],[[1109,4096],[140,-114],[256,-2],[229,-73],[47,4],[50,-11],[60,-3],[129,-62],[365,-139],[24,-3],[241,-10],[83,26],[6,4],[35,29],[24,10],[103,-55]],[[2901,3698],[-91,51],[-2,1],[-4,2],[-2,0],[-4,0],[-6,0],[-4,-1],[-3,-2],[-11,-7],[-4,-3],[-4,-3],[-27,-23],[-6,-4],[-83,-26],[-264,13],[-341,132],[-4,2],[-4,1],[-14,2],[-3,2],[-4,2],[-33,23],[-7,4],[-5,2],[-75,30],[-6,2],[-7,1],[-49,1]],[[2901,3697],[59,-38],[-1,-72],[-20,-34],[-34,-69],[-2,-6],[-1,-124],[-12,-29],[-11,-41],[-32,-81],[-35,-146]],[[2812,3057],[-30,-52],[-2,-5],[-2,-6],[-1,-5],[0,-4],[0,-3],[2,-8],[16,-59],[3,-6],[2,-3],[21,-20],[54,-103],[2,-5],[4,-5],[3,-4],[6,-6],[116,-113],[13,-17],[3,-3],[3,-2],[16,-9],[7,-5],[18,-21],[8,-7],[19,-18],[25,-21],[43,-70],[4,-6],[15,-14],[5,-3],[4,-3],[34,-19],[111,-76],[117,-118],[36,-14],[2,-28],[-32,-19],[-3,-4],[-2,-3],[-1,-3],[-1,-3],[0,-4],[1,-4],[1,-3],[2,-4],[2,-3],[8,-7]],[[3464,2139],[-13,26],[6,11],[27,16],[3,2],[3,3],[-3,33],[-35,8],[-115,116],[-9,6],[-105,73],[-43,24],[-62,91],[-70,67],[-7,4],[-19,11],[-16,20],[-124,123],[-103,201],[33,83]],[[2812,3057],[3,7],[2,8],[30,131],[33,83],[2,6],[9,35],[12,25],[0,121],[28,64],[26,41],[1,3],[1,4],[1,6],[4,55],[0,4],[-1,4],[-3,6],[-2,4],[-3,2],[-3,2],[-20,13]],[[2932,3681],[-31,17]],[[3011,3675],[-79,6]],[[3011,3675],[108,92]],[[3119,3767],[27,40],[23,54],[222,172],[35,32]],[[3426,4065],[-35,-32],[-214,-164],[-8,-7],[-4,-4],[-5,-7],[-3,-6],[-11,-38],[-27,-40]],[[3458,4096],[-32,-31]],[[3464,2139],[97,-96],[-17,-122],[20,-66]],[[3564,1855],[-18,-17],[-4,-7],[-1,-4],[0,-5],[2,-10],[1,-4],[3,-5],[3,-3],[32,-19],[11,-47],[3,-8],[7,-13],[3,-4],[4,-4],[42,-33],[28,-42],[39,-126]],[[3719,1504],[-38,124],[-4,6],[-22,34],[-5,5],[-47,41],[-20,67],[-39,27],[20,47]],[[4096,2475],[-13,-35],[13,-12]],[[4096,2197],[-29,-53],[-2,-17],[1,-16],[3,-29]],[[4066,2111],[3,-29]],[[4096,1032],[-7,-36],[7,-5]],[[3409,699],[-126,223],[-73,78],[-252,152],[-111,15],[-144,-31],[-73,-42],[-162,-178],[-47,-14],[-126,37],[-327,314],[-229,57],[-105,4],[-243,-194],[-172,-34],[-241,-2],[-296,86],[-219,-36],[-252,-90],[-211,27]],[[3812,60],[-2,-1]],[[3950,147],[0,-1]],[[3950,145],[1,1]],[[2908,3208],[-5,-22]],[[1689,1313],[41,-57]],[[1750,1246],[37,-18]],[[1787,1228],[3,-3]],[[1793,1225],[-6,3]],[[1817,1208],[36,-26]],[[1835,1195],[-18,13]],[[3950,146],[0,-1]],[[3951,146],[-1,1]],[[2959,3332],[-10,-27]],[[3813,59],[-1,1]],[[2955,4082],[261,-205],[57,-189]],[[3354,2222],[-115,137]],[[3629,5],[0,-5]],[[3600,5],[0,-5]],[[3602,0],[0,5]],[[3100,3655],[-16,-29]],[[2938,3279],[-10,-24]],[[2834,2909],[12,-67]],[[1790,1225],[2,-1]],[[1793,1224],[24,-16]],[[1817,1208],[-24,17]],[[3632,6],[-2,0]],[[3811,57],[2,2]],[[3630,6],[-1,-1]],[[3812,13],[-180,-7]],[[3227,1966],[35,-81]],[[3263,1885],[-35,82]],[[3602,5],[-1,1]],[[3813,59],[55,40]],[[2903,3186],[-3,-8]],[[3607,520],[-6,6]],[[3810,59],[1,-2]],[[3813,13],[-1,0]],[[3887,110],[-8,3]],[[3275,2398],[-79,54]],[[1730,1256],[20,-10]],[[1853,1182],[-18,13]],[[3605,534],[11,18]],[[3623,565],[-14,-22]],[[3589,0],[7,4]],[[3596,5],[-10,-4],[-1,-1]],[[3244,3764],[-112,-19],[-22,-24]],[[2846,2842],[79,-107]],[[2904,3010],[-72,-44],[2,-57],[-1,57],[71,41]],[[2917,3071],[-2,20],[2,-21]],[[2925,2735],[22,-21]],[[2947,2714],[-22,21]],[[3004,3471],[-10,-38]],[[3004,3471],[11,22]],[[3084,3626],[-6,-13]],[[3186,2460],[-66,97]],[[3186,2460],[10,-8]],[[3239,2359],[29,16]],[[3268,2375],[7,23]],[[3271,2401],[6,2],[-8,-9],[-2,-5],[1,-14]],[[3314,2178],[41,44],[-42,-43]],[[3556,871],[70,-292]],[[3626,579],[-70,292]],[[3601,526],[40,-39],[177,-81],[18,-150],[7,-14],[16,-10],[4,-4]],[[3863,228],[1,-2],[2,-4],[2,-4],[-6,-45]],[[3862,173],[0,-7],[2,-14],[9,-30],[26,-46],[7,-25],[17,-12],[10,1],[45,4]],[[3978,44],[1,1],[10,-17]],[[3989,28],[15,-28]],[[4006,0],[-2,5],[-15,23]],[[3989,28],[-11,16]],[[3978,44],[-2,3],[-69,4],[-7,25],[-25,44],[-11,38],[-2,10],[0,5]],[[3862,173],[1,55]],[[3863,228],[0,1],[-26,27],[1,69],[-20,81],[-211,114]],[[2993,3432],[-34,-100]],[[1651,1327],[38,-14]],[[2155,824],[67,-24]],[[2222,800],[-67,24]],[[2222,800],[51,4]],[[3252,420],[134,19],[3,1]],[[3389,440],[14,8]],[[3403,448],[42,25],[32,16]],[[3477,489],[42,21],[49,-8]],[[3568,502],[12,-2]],[[3574,503],[-6,-1]],[[3568,502],[-91,-13]],[[3477,489],[-17,-2],[-57,-39]],[[3403,448],[-12,-8],[-2,0]],[[3389,440],[-137,-20]],[[3609,543],[-23,-37]],[[3592,514],[13,20]],[[3616,552],[13,20],[23,23],[137,148]],[[3789,743],[9,10]],[[3798,753],[80,34],[5,6],[19,74]],[[3902,868],[-19,-75],[-82,-36],[-3,-4]],[[3798,753],[-9,-10]],[[3789,743],[-145,-154],[-4,-4],[-17,-20]],[[3008,2656],[16,-14]],[[2702,546],[12,-6]],[[3811,57],[1,-3]],[[3812,54],[0,3]],[[3812,54],[2,-38]],[[3227,2084],[-1,2]],[[2949,3305],[-11,-26]],[[3868,100],[-56,-40]],[[3099,388],[62,-46]],[[2940,4096],[15,-14]],[[3273,3688],[101,-121],[118,-66],[319,-320],[285,-232]],[[1996,0],[-38,1]],[[1807,1215],[0,1]],[[3580,500],[-6,3]],[[3716,675],[-1,1]],[[3868,99],[4,2]],[[3871,101],[-3,-1]],[[0,1899],[131,-62],[167,-25],[354,-172],[71,5]],[[723,1645],[102,-58],[348,-80],[68,-52],[265,-72]],[[1506,1383],[-265,73],[-68,52],[-348,80],[-75,52],[-27,5]],[[1506,1383],[145,-56]],[[1869,1169],[47,-273]],[[1916,896],[88,-72],[13,-6],[138,6]],[[2155,824],[-14,6],[-129,-10],[-96,76]],[[2273,804],[67,-2],[33,-184],[134,8],[195,-80]],[[2714,540],[133,-13],[116,-55]],[[2997,455],[102,-67]],[[3161,342],[1,0]],[[3252,420],[-41,-6],[-49,-72]],[[3162,342],[49,72],[41,6]],[[4068,984],[-159,-86],[-7,-30]],[[3902,867],[7,30],[159,87]],[[4075,986],[4,1]],[[1860,1177],[-7,5]],[[1854,1181],[6,-4]],[[1860,1177],[2,-1]],[[3875,104],[-4,-3]],[[3872,101],[3,2]],[[2904,3007],[14,8],[0,52],[-1,4]],[[2917,3070],[-13,-60]],[[2947,2714],[60,-57]],[[3007,2657],[-60,57]],[[3007,2657],[1,-1]],[[3078,3613],[-14,-26]],[[3064,3587],[-49,-94]],[[3313,2179],[-87,-93],[1,-120]],[[3228,1967],[0,118],[86,93]],[[3262,1885],[63,-80],[56,-392],[25,-154],[49,-250],[26,-25]],[[3481,984],[2,-1]],[[3483,983],[2,-2],[54,-44],[17,-66]],[[3556,871],[-17,68],[-5,8],[-35,25],[-13,9],[-3,2]],[[3483,983],[-1,1],[-1,0]],[[3481,984],[-45,125],[-110,696],[-63,80]],[[1792,1224],[1,0]],[[3950,146],[-75,-42]],[[3875,103],[75,42]],[[3630,0],[0,6]],[[1853,1182],[1,-1]],[[1862,1176],[7,-7]],[[2928,3255],[-20,-47]],[[3024,2642],[96,-85]],[[4096,1004],[-28,-20]],[[4068,984],[7,2]],[[4079,987],[17,10]],[[4093,222],[3,2]],[[1958,1],[-62,6]],[[2963,472],[34,-17]],[[3110,3721],[-10,-66]],[[2994,3433],[-1,-1]],[[1896,7],[-521,43],[-67,-41],[-35,-9]],[[581,0],[-22,2],[-55,73],[-117,69],[-270,70],[-117,89]],[[2900,3178],[15,-87]],[[3952,148],[-2,-1]],[[3951,146],[1,2]],[[3952,148],[141,74]],[[4096,4096],[0,-4096],[-4096,0],[0,4096],[4096,0]],[[3954,4096],[-72,-29],[88,-42],[-134,9],[-10,61],[128,1]],[[647,3115],[32,45],[30,13],[22,-20],[10,41],[91,-27],[-14,-22],[-36,13],[-21,-24],[-114,-19]],[[3729,4096],[0,-44],[-30,-10],[30,-10],[5,-42],[75,-26],[32,-61],[-184,74],[-86,-10],[-66,-48],[-6,54],[-102,123],[332,0]],[[3044,3439],[38,34],[154,-86],[52,-3],[-17,-28],[-43,0],[-184,83]],[[3212,3944],[115,104],[44,-14],[-136,-116],[-23,26]],[[4096,4061],[0,-20],[-16,18],[16,2]],[[3649,259],[17,90],[44,-27],[43,9],[37,-39],[-43,-49],[-98,16]],[[3269,375],[209,19],[47,-27],[-34,-8],[-13,-37],[-209,53]],[[2928,3255],[53,131],[30,-14],[34,-73],[-36,-60],[-58,32],[-23,-16]],[[2083,0],[-185,0],[-28,90],[130,0],[0,98],[52,-23],[17,-54],[14,-111]],[[2388,236],[-97,195],[50,46],[47,-46],[17,-60],[-17,-135]],[[4096,691],[0,-691],[-1435,0],[19,41],[-66,89],[1,58],[69,-7],[157,55],[23,-53],[-23,-142],[52,10],[96,103],[79,-15],[32,-49],[105,66],[24,31],[20,228],[59,108],[51,6],[-65,97],[-32,147],[-32,0],[-49,92],[-6,52],[22,51],[135,62],[59,-13],[97,-146],[97,0],[33,-49],[147,90],[100,-11],[104,-94],[37,-132],[65,0],[25,16]],[[2293,602],[-60,1],[-136,72],[12,92],[38,53],[112,51],[-10,86],[-49,92],[26,66],[55,-97],[-9,-251],[52,-92],[-31,-73]],[[1542,2193],[32,0],[0,-48],[32,0],[-8,-59],[-35,-26],[-46,4],[-73,80],[-1,28],[76,73],[23,-3],[0,-49]],[[1412,4039],[-32,-89],[-98,49],[29,97],[90,0],[11,-57]],[[3585,3945],[3,-65],[-52,-135],[-15,53],[-65,0],[-32,147],[-80,-29],[-24,14],[6,113],[33,53],[82,0],[64,-137],[80,-14]],[[3208,2661],[22,-82],[32,-1],[0,-48],[129,0],[33,-98],[72,-36],[28,-54],[-3,-105],[-48,10],[-126,-84],[-53,25],[0,49],[-64,0],[-41,83],[-67,29],[-4,138],[-115,91],[32,98],[33,-49],[95,50],[45,-16]],[[3820,2529],[-105,0],[-130,98],[0,73],[65,123],[231,-129],[28,-116],[-89,-49]],[[4096,2920],[0,-379],[-23,5],[-34,32],[-65,147],[65,195],[57,0]],[[3162,4009],[63,-85],[70,-223],[-141,-81],[-183,-17],[22,-99],[204,-96],[-188,-302],[-103,-40],[-5,-117],[70,-224],[-34,-16],[-43,-81],[-53,-1],[-129,98],[-1,59],[66,87],[33,222],[-153,180],[-10,184],[131,23],[95,74],[5,72],[-101,75],[-94,151],[-36,-54],[-26,10],[-7,39],[27,88],[65,46],[84,3],[83,-39],[16,113],[29,32],[201,-45],[43,-36]],[[4096,1851],[0,-485],[-4,29],[-47,23],[-11,67],[-45,56],[60,266],[22,40],[25,4]],[[2000,1651],[0,-97],[91,56],[38,-8],[27,-67],[6,-30],[-36,-30],[36,-19],[0,-293],[-58,11],[-104,136],[-55,-10],[-107,-137],[-55,9],[-139,138],[50,123],[15,23],[70,-55],[27,6],[57,85],[40,159],[97,0]],[[3861,1904],[113,-57],[-19,-118],[-35,-48],[-140,-79],[-41,-144],[-24,47],[-54,3],[-11,192],[-100,130],[3,65],[63,36],[155,28],[73,-15],[17,-40]],[[3301,0],[-61,0],[6,3],[-4,32],[59,-35]],[[3462,652],[72,21],[23,-14],[-23,-48],[18,-52],[-82,1],[-4,42],[39,3],[-27,-1],[-16,48]],[[2848,3449],[11,51],[24,-7],[69,82],[-50,-95],[-9,-145],[-45,114]],[[3213,1936],[28,58],[29,-23],[59,68],[44,-2],[-13,18],[106,-17],[-3,-25],[67,-40],[-42,-31],[-47,29],[-81,2],[-91,-55],[1,-32],[-34,-2],[-23,52]]]}