{"objects":{"water":{"type":"GeometryCollection","geometries":[{"type":"MultiPolygon","properties":{"source":"naturalearthdata.com","kind":"ocean","area":1576712559132672,"sort_rank":200,"min_zoom":0.0,"id":1},"arcs":[[[20]]]},{"type":"LineString","properties":{"source":"naturalearthdata.com","kind":"ocean","sort_rank":205,"boundary":true,"min_zoom":0.0,"id":52},"arcs":[21]}]},"buildings":{"type":"GeometryCollection","geometries":[]},"places":{"type":"GeometryCollection","geometries":[{"type":"Point","properties":{"name:pt":"Oblast de Donetsk","name:eo":"Donecka Provinco","min_zoom":4.0,"name:be":"\u0414\u0430\u043d\u0435\u0446\u043a\u0430\u044f \u0432\u043e\u0431\u043b\u0430\u0441\u0446\u044c","name:ru":"\u0414\u043e\u043d\u0435\u0446\u043a\u0430\u044f \u043e\u0431\u043b\u0430\u0441\u0442\u044c","name:pl":"obw\u00f3d doniecki","id":683681597,"kind":"region","name:en":"Donetsk Oblast","name":"\u0414\u043e\u043d\u0435\u0446\u044c\u043a\u0430 \u043e\u0431\u043b\u0430\u0441\u0442\u044c","kind_detail":"state","name:de":"Oblast Donezk","source":"openstreetmap.org","name:fr":"Oblast de Donetsk","name:zh":"\u987f\u6d85\u8328\u514b\u5dde","name:es":"\u00d3blast de Donetsk"},"coordinates":[3549,3800]},{"type":"Point","properties":{"name:pt":"Mariupol","name:ka":"\u10db\u10d0\u10e0\u10d8\u10e3\u10de\u10dd\u10da\u10d8","name:ko":"\ub9c8\ub9ac\uc6b0\ud3f4","name:cv":"\u041c\u0430\u0440\u0438\u0443\u043f\u043e\u043b\u044c","name:km":"\u17a0\u17d2\u1798\u179a\u17b7\u17a9\u1796\u17a1","name:kl":"Mariupol","name:cs":"Mariupol","name:kv":"\u041c\u0430\u0440\u0438\u0443\u043f\u043e\u043b\u044c","name:th":"\u0e21\u0e32\u0e23\u0e35\u0e2d\u0e39\u0e1b\u0e31\u0e25","name:ti":"\u121b\u122a\u12a1\u1356\u120d","name:tl":"Mariupol","name:be":"\u041c\u0430\u0440\u044b\u0443\u043f\u0430\u043b\u044c","name:os":"\u041c\u0430\u0440\u0438\u0443\u043f\u043e\u043b\u044c","name:ce":"\u041c\u0430\u0440\u0438\u0443\u043f\u043e\u043b\u044c","name:tg":"\u041c\u0430\u0440\u0438\u0443\u043f\u043e\u043b\u044c","name:ca":"Mariupol","name:te":"\u0c2e\u0c30\u0c3f\u0c09\u0c2a\u0c4a\u0c32\u0c4d","name:ro":"Mariupol","name:cy":"Mariupol","name:da":"Mariupol","name:de":"Mariupol","source":"openstreetmap.org","name:kn":"\u0cae\u0cb0\u0cbf\u0c89\u0caa\u0cca\u0cb2\u0ccd","name:cu":"\u041c\u0430\u0440\u0457\u043e\u0443\u043f\u043e\u043b\u044c","name:lv":"Mariupole","name:lt":"Mariupolis","name:uz":"Mariupol","name:kk":"\u041c\u0430\u0440\u0438\u0443\u043f\u043e\u043b\u044c","name:he":"\u05de\u05e8\u05d9\u05d0\u05d5\u05e4\u05d5\u05dc","kind":"locality","name:ur":"\u0645\u0631\u0648\u067e\u0644","name:la":"Mariupolis","name:hy":"\u0544\u0561\u0580\u056b\u0578\u0582\u057a\u0578\u056c","name:hu":"Mariupol","name:hr":"Mariupolj","name:lo":"\u0ea1\u0eb0\u0ea3\u0eb4\u0ea7\u0eb8\u0ea5","name:oc":"Mariupol","population":453623,"name:el":"\u039c\u03b1\u03c1\u03b9\u03bf\u03cd\u03c0\u03bf\u03bb\u03b7","name:eo":"Mariupolo","name:en":"Mariupol","name":"\u041c\u0430\u0440\u0456\u0443\u043f\u043e\u043b\u044c","name:tk":"Mariupol","min_zoom":8.0,"name:eu":"Mariupol","name:et":"Mariupol","name:nl":"Marioepol","name:es":"Mariupol","name:mt":"Mariupol","name:az":"Mariupol","name:id":"Mariupol","name:ms":"Mariupol","name:mr":"\u092e\u0930\u093f\u0909\u092a\u094b\u0932","name:ar":"\u0645\u0627\u0631\u064a\u0648\u0628\u0648\u0644","name:io":"Mariupol","name:am":"\u121b\u122a\u12a1\u1356\u120d","name:it":"Mariupol'","name:vi":"Mariupol","name:ru":"\u041c\u0430\u0440\u0438\u0443\u043f\u043e\u043b\u044c","name:mn":"\u041c\u0430\u0440\u0438\u0443\u043f\u043e\u043b\u044c","name:pl":"Mariupol","name:mk":"\u041c\u0430\u0440\u0438\u0443\u043f\u043e\u043b","name:vo":"Mariupol","name:fa":"\u0645\u0627\u0631\u06cc\u0648\u067e\u0648\u0644","kind_detail":"city","name:hi":"\u092e\u0930\u093f\u0909\u092a\u0932","id":29980666,"name:fr":"Marioupol","name:ky":"\u041c\u0430\u0440\u0438\u0443\u043f\u043e\u043b\u044c","name:zh":"\u9a6c\u91cc\u4e4c\u6ce2\u5c14","name:sk":"Mariupo\u013e","name:ja":"\u30de\u30ea\u30a6\u30dd\u30ea","name:nn":"Mariupol","name:no":"Mariupol","name:yi":"\u05de\u05d0\u05e8\u05d9\u05d5\u05e4\u05d0\u05dc","name:bn":"\u09ae\u09b0\u09bf\u0989\u09aa\u09b2\u09cd","name:sw":"Mariupol","name:sv":"Mariupol","name:bg":"\u041c\u0430\u0440\u0438\u0443\u043f\u043e\u043b","name:sr":"\u041c\u0430\u0440\u0438\u0458\u0443\u043f\u043e\u0459","name:sq":"Mariupol","name:ga":"Mariupol","name:jv":"Mariupol","name:gl":"Mariupol","name:tr":"Mariupol","name:gu":"\u0aae\u0ab0\u0abf\u0a89\u0aaa\u0acb\u0ab2","name:fi":"Mariupol"},"coordinates":[2876,240]},{"type":"Point","properties":{"name:sr":"\u0414\u043e\u043a\u0443\u0447\u0430\u0458\u0435\u0432\u0441\u043a","name:ro":"Dokuceaievsk","name:nn":"Dokutsjajevsk","min_zoom":8.0,"name:ru":"\u0414\u043e\u043a\u0443\u0447\u0430\u0435\u0432\u0441\u043a","name:vi":"Dokuchaievsk","name:pl":"Dokuczajewsk","id":256613827,"population":23726,"name:fa":"\u062f\u0648\u06a9\u0648\u0686\u0627\u06cc\u0641\u0633\u06a9","kind":"locality","name:en":"Dokuchaevsk","name":"\u0414\u043e\u043a\u0443\u0447\u0430\u0454\u0432\u0441\u044c\u043a","kind_detail":"town","name:de":"Dokutschajewsk","source":"openstreetmap.org","name:fr":"Dokoutcha\u00efevsk","name:zh":"\u591a\u5eab\u6070\u8036\u592b"},"coordinates":[3230,3061]},{"type":"Point","properties":{"name:ro":"Volnovaha","name:ja":"\u30f4\u30a9\u30eb\u30ce\u30f4\u30a1\u30fc\u30cf","name:nn":"Volnovakha","name:ar":"\u0641\u0648\u0644\u0646\u0648\u0641\u0627\u062e\u0627","min_zoom":8.0,"name:vi":"Volnovakha","name:pl":"Wo\u0142nowacha","id":256615117,"population":23442,"name:fa":"\u0648\u0648\u0644\u0646\u0648\u0648\u0627\u062e\u0627","kind":"locality","name:en":"Volnovakha","name":"\u0412\u043e\u043b\u043d\u043e\u0432\u0430\u0445\u0430","kind_detail":"town","name:de":"Wolnowacha","source":"openstreetmap.org","name:fr":"Volnovakha","name:zh":"\u6c83\u723e\u8afe\u74e6\u54c8","name:es":"Volnovaja"},"coordinates":[2730,2408]},{"type":"Point","properties":{"name:ro":"Kurahove","name:nn":"Kurakhove","min_zoom":8.0,"name:ru":"\u041a\u0443\u0440\u0430\u0445\u043e\u0432\u043e","name:vi":"Kurakhove","name:ka":"\u10d9\u10e3\u10e0\u10d0\u10ee\u10dd\u10d5\u10d8","id":70950474,"population":20224,"name:fa":"\u06a9\u0648\u0631\u0627\u062e\u0648\u0641\u0647","kind":"locality","name:en":"Kurakhove","name":"\u041a\u0443\u0440\u0430\u0445\u043e\u0432\u0435","kind_detail":"town","name:de":"Kurachowe","source":"openstreetmap.org","name:fr":"Kourakhove","name:pl":"Kurachowo","name:zh":"\u5eab\u62c9\u970d\u97cb"},"coordinates":[2098,4068]},{"type":"Point","properties":{"name:ro":"Vuhledar","name:nn":"Vuhledar","name:ar":"\u0641\u0648\u0647\u0644\u064a\u062f\u0627\u0631","min_zoom":8.0,"name:ru":"\u0423\u0433\u043b\u0435\u0434\u0430\u0440","name:vi":"Vuhledar","name:pl":"Wuh\u0142edar","id":256614070,"population":15486,"name:fa":"\u0648\u0648\u0647\u0644\u062f\u0627\u0631","kind":"locality","name:en":"Vuhledar","name":"\u0412\u0443\u0433\u043b\u0435\u0434\u0430\u0440","kind_detail":"town","name:de":"Wuhledar","source":"openstreetmap.org","name:fr":"Vouhledar"},"coordinates":[1998,3193]},{"type":"Point","properties":{"kind":"locality","name:en":"Sartana","name":"\u0421\u0430\u0440\u0442\u0430\u043d\u0430","kind_detail":"town","name:de":"Sartana","source":"openstreetmap.org","min_zoom":8.0,"name:pl":"Sartana","id":256613885,"population":10772},"coordinates":[3299,560]},{"type":"Point","properties":{"name:ro":"Marinka","name:nn":"Marjinka","min_zoom":8.0,"name:ru":"\u041c\u0430\u0440\u044c\u0438\u043d\u043a\u0430","name:pl":"Marinka","id":256617205,"population":9978,"name:fa":"\u0645\u0627\u0631\u0626\u06cc\u0646\u06a9\u0627","kind":"locality","name:en":"Marinka","name":"\u041c\u0430\u0440\u2019\u0457\u043d\u043a\u0430","kind_detail":"town","name:de":"Marjinka","source":"openstreetmap.org","name:fr":"Mar\u00efnka","name:zh":"\u99ac\u6797\u5361"},"coordinates":[2737,3881]},{"type":"Point","properties":{"min_zoom":8.0,"old_name:en":"Volodarske","old_name":"\u0412\u043e\u043b\u043e\u0434\u0430\u0440\u0441\u044c\u043a\u0435","name:ru":"\u041d\u0438\u043a\u043e\u043b\u044c\u0441\u043a\u043e\u0435","name:pl":"Nikol\u015bke","id":256615282,"population":8539,"old_name:uk":"\u0412\u043e\u043b\u043e\u0434\u0430\u0440\u0441\u044c\u043a\u0435","kind":"locality","name:en":"Nikolske","old_name:de":"Wolodarske","name":"\u041d\u0456\u043a\u043e\u043b\u044c\u0441\u044c\u043a\u0435","kind_detail":"town","old_name:ru":"\u0412\u043e\u043b\u043e\u0434\u0430\u0440\u0441\u043a\u043e\u0435","name:de":"Nikolske","source":"openstreetmap.org"},"coordinates":[2195,691]},{"type":"Point","properties":{"kind":"locality","name:en":"Manhush","name":"\u041c\u0430\u043d\u0433\u0443\u0448","kind_detail":"town","name:de":"Manhusch","source":"openstreetmap.org","min_zoom":8.0,"old_name":"\u041f\u0435\u0440\u0448\u043e\u0442\u0440\u0430\u0432\u043d\u0435\u0432\u0435","name:pl":"Manhusz","id":256617401,"population":8331},"coordinates":[2187,69]},{"type":"Point","properties":{"min_zoom":8.0,"old_name:en":"Kuibysheve","old_name":"\u041a\u0443\u0439\u0431\u0438\u0448\u0435\u0432\u0435","name:ru":"\u0411\u0438\u043b\u044c\u043c\u0430\u043a","name:pl":"Bilmak","id":337677920,"population":7408,"old_name:uk":"\u041a\u0443\u0439\u0431\u0438\u0448\u0435\u0432\u0435","kind":"locality","name:en":"Bilmak","old_name:de":"Kujbyschewe","name":"\u0411\u0456\u043b\u044c\u043c\u0430\u043a","old_name:pl":"Kujbyszewo","kind_detail":"town","old_name:ru":"\u041a\u0443\u0439\u0431\u044b\u0448\u0435\u0432\u043e","name:de":"Bilmak","source":"openstreetmap.org"},"coordinates":[258,1390]},{"type":"Point","properties":{"kind":"locality","name:en":"Novotroitske","name":"\u041d\u043e\u0432\u043e\u0442\u0440\u043e\u0457\u0446\u044c\u043a\u0435","kind_detail":"town","source":"openstreetmap.org","min_zoom":8.0,"name:ru":"\u041d\u043e\u0432\u043e\u0442\u0440\u043e\u0438\u0446\u043a\u043e\u0435","id":256615157,"population":7093},"coordinates":[2969,2918]},{"type":"Point","properties":{"kind":"locality","name:en":"Volodymyrivka","name":"\u0412\u043e\u043b\u043e\u0434\u0438\u043c\u0438\u0440\u0456\u0432\u043a\u0430","kind_detail":"town","source":"openstreetmap.org","min_zoom":8.0,"name:ru":"\u0412\u043b\u0430\u0434\u0438\u043c\u0438\u0440\u043e\u0432\u043a\u0430","name:be":"\u0423\u043b\u0430\u0434\u0437\u0456\u043c\u0456\u0440\u0430\u045e\u043a\u0430","name:pl":"W\u0142odzimierz\u00f3wka","id":256615111,"population":6698},"coordinates":[2456,2961]},{"type":"Point","properties":{"kind":"locality","name:en":"Velyka Novosilka","name":"\u0412\u0435\u043b\u0438\u043a\u0430 \u041d\u043e\u0432\u043e\u0441\u0456\u043b\u043a\u0430","kind_detail":"town","name:de":"Welyka Nowosilka","source":"openstreetmap.org","min_zoom":8.0,"name:ru":"\u0412\u0435\u043b\u0438\u043a\u0430\u044f \u041d\u043e\u0432\u043e\u0441\u0451\u043b\u043a\u0430","id":256614797,"population":6265},"coordinates":[779,3453]},{"type":"Point","properties":{"kind":"locality","name:en":"Staryi Krym","name":"\u0421\u0442\u0430\u0440\u0438\u0439 \u041a\u0440\u0438\u043c","kind_detail":"town","source":"openstreetmap.org","min_zoom":8.0,"name:ru":"\u0421\u0442\u0430\u0440\u044b\u0439 \u041a\u0440\u044b\u043c","id":256613876,"population":6069},"coordinates":[2693,523]},{"type":"Point","properties":{"kind":"locality","name:en":"Donske","name":"\u0414\u043e\u043d\u0441\u044c\u043a\u0435","kind_detail":"town","source":"openstreetmap.org","min_zoom":8.0,"name:ru":"\u0414\u043e\u043d\u0441\u043a\u043e\u0435","id":256615153,"population":5132},"coordinates":[2840,2052]},{"type":"Point","properties":{"kind":"locality","name:en":"Talakivka","name":"\u0422\u0430\u043b\u0430\u043a\u0456\u0432\u043a\u0430","kind_detail":"town","source":"openstreetmap.org","min_zoom":8.0,"name:ru":"\u0422\u0430\u043b\u0430\u043a\u043e\u0432\u043a\u0430","id":256613877,"population":4129},"coordinates":[3387,648]},{"type":"Point","properties":{"kind":"locality","name:en":"Oleksandrivka","name":"\u041e\u043b\u0435\u043a\u0441\u0430\u043d\u0434\u0440\u0456\u0432\u043a\u0430","kind_detail":"town","source":"openstreetmap.org","min_zoom":8.0,"name:ru":"\u0410\u043b\u0435\u043a\u0441\u0430\u043d\u0434\u0440\u043e\u0432\u043a\u0430","name:be":"\u0410\u043b\u044f\u043a\u0441\u0430\u043d\u0434\u0440\u0430\u045e\u043a\u0430","name:pl":"Aleksandr\u00f3wka","id":256617162,"population":4068},"coordinates":[2942,3802]},{"type":"Point","properties":{"kind":"locality","name:en":"Rozivka","name":"\u0420\u043e\u0437\u0456\u0432\u043a\u0430","kind_detail":"town","name:de":"Rosiwka","source":"openstreetmap.org","min_zoom":8.0,"name:ru":"\u0420\u043e\u0437\u043e\u0432\u043a\u0430","name:pl":"Roz\u00f3wka","id":337677344,"population":3537},"coordinates":[1471,1492]},{"type":"Point","properties":{"kind":"locality","name:en":"Olhynka","name":"\u041e\u043b\u044c\u0433\u0438\u043d\u043a\u0430","kind_detail":"town","source":"openstreetmap.org","min_zoom":8.0,"id":256615169,"population":3269},"coordinates":[2732,2836]},{"type":"Point","properties":{"kind":"locality","name:en":"Andriivka","name":"\u0410\u043d\u0434\u0440\u0456\u0457\u0432\u043a\u0430","kind_detail":"town","source":"openstreetmap.org","min_zoom":8.0,"name:ru":"\u0410\u043d\u0434\u0440\u0435\u0435\u0432\u043a\u0430","name:pl":"Andrzej\u00f3wka","id":337682931,"population":3002},"coordinates":[81,232]},{"type":"Point","properties":{"kind":"locality","name:en":"Andriivka","name":"\u0410\u043d\u0434\u0440\u0456\u0457\u0432\u043a\u0430","kind_detail":"town","source":"openstreetmap.org","min_zoom":8.0,"name:ru":"\u0410\u043d\u0434\u0440\u0435\u0435\u0432\u043a\u0430","name:pl":"Andrzej\u00f3wka","id":256617917,"population":2915},"coordinates":[3176,1822]},{"type":"Point","properties":{"kind":"locality","name:en":"Laryne","name":"\u041b\u0430\u0440\u0438\u043d\u0435","kind_detail":"town","source":"openstreetmap.org","min_zoom":8.0,"name:ru":"\u041b\u0430\u0440\u0438\u043d\u043e","id":256613676,"population":2789},"coordinates":[3980,3664]},{"type":"Point","properties":{"kind":"locality","name:en":"Komysh-Zoria","name":"\u041a\u043e\u043c\u0438\u0448-\u0417\u043e\u0440\u044f","kind_detail":"town","name:de":"Komysch-Sorja","source":"openstreetmap.org","min_zoom":8.0,"name:ru":"\u041a\u0430\u043c\u044b\u0448-\u0417\u0430\u0440\u044f","name:pl":"Komysz-Zoria","id":337678535,"population":2332},"coordinates":[409,1248]},{"type":"Point","properties":{"kind":"locality","name:en":"Myrne","name":"\u041c\u0438\u0440\u043d\u0435","kind_detail":"town","source":"openstreetmap.org","min_zoom":8.0,"name:ru":"\u041c\u0438\u0440\u043d\u043e\u0435","name:pl":"Myrne","id":256617893,"population":1863},"coordinates":[3414,1656]},{"type":"Point","properties":{"kind":"locality","name:en":"Blahodatne","name":"\u0411\u043b\u0430\u0433\u043e\u0434\u0430\u0442\u043d\u0435","kind_detail":"town","source":"openstreetmap.org","min_zoom":8.0,"name:ru":"\u0411\u043b\u0430\u0433\u043e\u0434\u0430\u0442\u043d\u043e\u0435","name:pl":"B\u0142ahodatne","id":256615109,"population":1204},"coordinates":[2496,2843]},{"type":"Point","properties":{"old_name:uk":"\u041a\u043e\u043c\u0441\u043e\u043c\u043e\u043b\u044c\u0441\u044c\u043a\u0438\u0439","kind":"locality","name":"\u0413\u0440\u0430\u0444\u0441\u044c\u043a\u0435","kind_detail":"town","old_name:ru":"\u041a\u043e\u043c\u0441\u043e\u043c\u043e\u043b\u044c\u0441\u043a\u0438\u0439","source":"openstreetmap.org","min_zoom":8.0,"old_name:en":"Komsomolskyi","old_name":"\u041a\u043e\u043c\u0441\u043e\u043c\u043e\u043b\u044c\u0441\u044c\u043a\u0438\u0439","name:ru":"\u0413\u0440\u0430\u0444\u0441\u043a\u043e\u0435","id":256615151,"population":416},"coordinates":[2468,2743]}]},"transit":{"type":"GeometryCollection","geometries":[{"type":"MultiLineString","properties":{"source":"openstreetmap.org","kind":"train","name":"084 \u041c\u0430\u0440\u0438\u0443\u043f\u043e\u043b\u044c \u2014 \u041a\u0438\u0435\u0432","sort_rank":275,"ref":"084 \u041c\u043f\u043b-\u041a\u0438\u0435\u0432","min_zoom":6.0,"osm_relation":true},"arcs":[[4],[5],[6],[7],[8],[9],[10],[11],[12],[13],[14],[15],[16],[17],[18]]},{"type":"LineString","properties":{"kind":"train","sort_rank":275,"source":"openstreetmap.org","min_zoom":6.0,"operator":"\u0417\u0430\u043f\u043e\u0440\u0456\u0437\u044c\u043aa \u0434\u0438\u0440\u0435\u043a\u0446\u0456\u044f \u041f\u0440\u0438\u0434\u043d\u0456\u043f\u0440\u043e\u0432\u0441\u044c\u043a\u043e\u0457 \u0437\u0430\u043b\u0456\u0437\u043d\u0438\u0446\u0456","ref":"\u041a\u043e\u043c\u0438\u0448-\u0417\u043e\u0440\u044f\u2014\u0412\u0435\u0440\u0445\u043d\u0456\u0439 \u0422\u043e\u043a\u043c\u0430\u043a \u0406\u0406","id":-3488677,"osm_relation":true},"arcs":[19]}]},"pois":{"type":"GeometryCollection","geometries":[{"type":"Point","properties":{"kind":"protected_area","protect_class":"5","area":12564100,"source":"openstreetmap.org","min_zoom":8.0,"tier":2,"name:ru":"\u0420\u0435\u0433\u0438\u043e\u043d\u0430\u043b\u044c\u043d\u044b\u0439 \u043b\u0430\u043d\u0434\u0448\u0430\u0444\u0442\u043d\u044b\u0439 \u043f\u0430\u0440\u043a \u00ab\u041f\u043e\u043b\u043e\u0432\u0435\u0446\u043a\u0430\u044f \u0441\u0442\u0435\u043f\u044c\u00bb","id":-4649676,"osm_relation":true,"name":"\u0420\u0435\u0433\u0456\u043e\u043d\u0430\u043b\u044c\u043d\u0438\u0439 \u043b\u0430\u043d\u0434\u0448\u0430\u0444\u0442\u043d\u0438\u0439 \u043f\u0430\u0440\u043a \u00ab\u041f\u043e\u043b\u043e\u0432\u0435\u0446\u044c\u043a\u0438\u0439 \u0441\u0442\u0435\u043f\u00bb"},"coordinates":[1049,551]}]},"boundaries":{"type":"GeometryCollection","geometries":[{"type":"LineString","properties":{"name:right:hy":"\u0536\u0561\u057a\u0578\u0580\u0578\u056a\u056b\u0565\u056b \u0574\u0561\u0580\u0566","name:right:no":"Zaporizjzjia oblast","name:right:hr":"Zapori\u0161ka oblast","name:left:sv":"Dnipropetrovsk oblast","name:right:hu":"Zaporizzsjai ter\u00fclet","name:left:sr":"\u0414\u045a\u0435\u043f\u0440\u043e\u043f\u0435\u0442\u0440\u043e\u0432\u0441\u043a\u0430 \u043e\u0431\u043b\u0430\u0441\u0442","name:right:lt":"Zaporo\u017e\u0117s sritis","name:right:lv":"Zaporo\u017ejes apgabals","name:left:lt":"Dniepropetrovsko sritis","name:left:sh":"Dnjipropetrovska oblast","name:left:sk":"Dnepropetrovsk\u00e1 oblas\u0165","name:left:hu":"Dnyipropetrovszki ter\u00fclet","name:left:hr":"Dnjipropetrovska oblast","name:right:os":"\u0417\u0430\u043f\u043e\u0440\u043e\u0436\u044c\u0435\u0439\u044b \u043e\u0431\u043b\u00e6\u0441\u0442","name:right:vi":"Zaporizhia (t\u1ec9nh)","sort_rank":256,"name:left:ca":"Prov\u00edncia de Dnipropetrovsk","source":"openstreetmap.org","name:right:ar":"\u0632\u0627\u0628\u0648\u0631\u0648\u062c\u064a\u064a\u0647 \u0623\u0648\u0628\u0644\u0627\u0633\u062a","name:left:cv":"\u0414\u043d\u0435\u043f\u0440\u043e\u043f\u0435\u0442\u0440\u043e\u0432\u0441\u043a \u043e\u0431\u043b\u0430\u00e7\u0115","name:left:cs":"Dn\u011bpropetrovsk\u00e1 oblast","name:left":"\u0414\u043d\u0456\u043f\u0440\u043e\u043f\u0435\u0442\u0440\u043e\u0432\u0441\u044c\u043a\u0430 \u043e\u0431\u043b\u0430\u0441\u0442\u044c","name:right:es":"\u00d3blast de Zaporiyia","name:right:sh":"Zapori\u0161ka oblast","name:right:sr":"\u0417\u0430\u043f\u043e\u0440\u043e\u0448\u043a\u0430 \u043e\u0431\u043b\u0430\u0441\u0442","name:left:ka":"\u10d3\u10dc\u10d4\u10de\u10e0\u10dd\u10de\u10d4\u10e2\u10e0\u10dd\u10d5\u10e1\u10d9\u10d8\u10e1 \u10dd\u10da\u10e5\u10d8","name:right:eu":"Zaporizhiako oblasta","name:right:et":"Zapori\u017e\u017eja oblast","name:left:ko":"\ub4dc\ub2c8\ud504\ub85c\ud398\ud2b8\ub85c\uc6b0\uc2dc\ud06c \uc8fc","name:right:it":"Oblast' di Zapori\u017e\u017eja","name:left:ro":"Regiunea Dniepropetrovsk","name:right:ru":"\u0417\u0430\u043f\u043e\u0440\u043e\u0436\u0441\u043a\u0430\u044f \u043e\u0431\u043b\u0430\u0441\u0442\u044c","name:right:ro":"Regiunea Zaporoje","name:left:ru":"\u0414\u043d\u0435\u043f\u0440\u043e\u043f\u0435\u0442\u0440\u043e\u0432\u0441\u043a\u0430\u044f \u043e\u0431\u043b\u0430\u0441\u0442\u044c","name:right:mr":"\u091d\u093e\u092a\u094b\u0930\u093f\u091d\u093f\u092f\u093e \u0913\u092c\u094d\u0932\u093e\u0938\u094d\u0924","name:right:id":"Oblast Zaporizhia","name:right:eo":"Zapori\u0135a provinco","name:right:en":"Zaporizhia Oblast","name:left:vi":"Dnipropetrovsk (t\u1ec9nh)","kind":"region","name":"\u0414\u043d\u0456\u043f\u0440\u043e\u043f\u0435\u0442\u0440\u043e\u0432\u0441\u044c\u043a\u0430 \u043e\u0431\u043b\u0430\u0441\u0442\u044c - \u0417\u0430\u043f\u043e\u0440\u0456\u0437\u044c\u043a\u0430 \u043e\u0431\u043b\u0430\u0441\u0442\u044c","name:left:fa":"\u0627\u0633\u062a\u0627\u0646 \u062f\u0646\u06cc\u067e\u0631\u0648\u067e\u062a\u0631\u0648\u0641\u0633\u06a9","min_zoom":8.0,"name:right:be":"\u0417\u0430\u043f\u0430\u0440\u043e\u0436\u0441\u043a\u0430\u044f \u0432\u043e\u0431\u043b\u0430\u0441\u0446\u044c","name:left:zh":"\u7b2c\u8042\u4f2f\u7f57\u5f7c\u5f97\u7f57\u592b\u65af\u514b\u5dde","name:left:fr":"Oblast de Dnipropetrovsk","name:right:bs":"Zapori\u0161ka oblast","name:right:zh":"\u624e\u6ce2\u7f85\u71b1\u5dde","name:left:hy":"\u0534\u0576\u0565\u057a\u0580\u0578\u057a\u0565\u057f\u0580\u0578\u057e\u057d\u056f\u056b \u0574\u0561\u0580\u0566","name:right:nn":"Zaporizjzjia oblast","name:right:mk":"\u0417\u0430\u043f\u043e\u0440\u043e\u0448\u043a\u0430 \u043e\u0431\u043b\u0430\u0441\u0442","name:right:nl":"Oblast Zaporizja","name:right:ja":"\u30b6\u30dd\u30ea\u30fc\u30b8\u30e3\u5dde","name:right:fr":"Oblast de Zaporijia","name:left:lv":"D\u0146epropetrovskas apgabals","name:left:ja":"\u30c9\u30cb\u30d7\u30ed\u30da\u30c8\u30ed\u30a6\u30b7\u30af\u5dde","name:right:sv":"Zaporizjzja oblast","name:left:nn":"Dnipropetrovsk oblast","name:left:no":"Dnipropetrovsk oblast","name:right:sk":"Z\u00e1poro\u017esk\u00e1 oblas\u0165","name:left:bg":"\u0414\u043d\u0435\u043f\u0440\u043e\u043f\u0435\u0442\u0440\u043e\u0432\u0441\u043a\u0430 \u043e\u0431\u043b\u0430\u0441\u0442","name:left:be":"\u0414\u043d\u0435\u043f\u0440\u0430\u043f\u044f\u0442\u0440\u043e\u045e\u0441\u043a\u0430\u044f \u0432\u043e\u0431\u043b\u0430\u0441\u0446\u044c","name:left:fi":"Dnepropetrovskin alue","id":-101746,"name:right:fi":"Zapori\u017e\u017ejan alue","name:left:eo":"Dnipropetrovska provinco","name:left:en":"Dnipropetrovsk Oblast","name:right:ca":"Prov\u00edncia de Zapor\u00edjjia","kind_detail":"4","name:left:mk":"\u0414\u043d\u0435\u043f\u0440\u043e\u043f\u0435\u0442\u0440\u043e\u0432\u0441\u043a\u0430 \u043e\u0431\u043b\u0430\u0441\u0442","name:left:nl":"Oblast Dnjepropetrovsk","id:left":-101746,"name:left:es":"\u00d3blast de Dnipropetrovsk","name:right:cs":"Z\u00e1poro\u017esk\u00e1 oblast","name:right":"\u0417\u0430\u043f\u043e\u0440\u0456\u0437\u044c\u043a\u0430 \u043e\u0431\u043b\u0430\u0441\u0442\u044c","id:right":-71980,"name:left:eu":"Dnipropetrovskeko oblasta","name:left:et":"Dnipropetrovski oblast","name:right:ka":"\u10d6\u10d0\u10de\u10dd\u10e0\u10dd\u10df\u10d8\u10d4\u10e1 \u10dd\u10da\u10e5\u10d8","name:right:zh-min-nan":"Zaporizhzhya s\u00e9ng","name:right:pt":"Oblast de Zapor\u00edjia","name:left:ar":"\u062f\u0646\u064a\u0628\u0631\u0648\u0628\u062a\u0631\u0648\u0641\u0633\u0643 \u0623\u0648\u0628\u0644\u0627\u0633\u062a","name:left:pl":"Obw\u00f3d dniepropetrowski","name:left:tr":"Dnipropetrovsk Oblast\u0131","name:left:id":"Oblast Dnipropetrovsk","name:left:az":"Dnepropetrovsk vilay\u0259ti","name:right:tr":"Zaporijya Oblast\u0131","name:right:bg":"\u0417\u0430\u043f\u043e\u0440\u043e\u0436\u043a\u0430 \u043e\u0431\u043b\u0430\u0441\u0442","name:left:pt":"Oblast de Dnipropetrovsk","name:left:mr":"\u0926\u094d\u0928\u0947\u092a\u094d\u0930\u094b\u092a\u0947\u0924\u094d\u0930\u094b\u0935\u094d\u0938\u094d\u0915 \u0913\u092c\u094d\u0932\u093e\u0938\u094d\u0924","name:right:ga":"C\u00faige Zaporizhia","name:right:ko":"\uc790\ud3ec\ub9ac\uc790 \uc8fc","name:left:zh-min-nan":"Dnipropetrovsk s\u00e9ng","name:left:it":"Oblast' di Dnipropetrovs'k","name:right:pl":"Obw\u00f3d zaporoski","osm_relation":true,"name:right:de":"Oblast Saporischschja","name:left:de":"Oblast Dnipropetrowsk"},"arcs":[0]},{"type":"MultiLineString","properties":{"name:right:hy":"\u0534\u0578\u0576\u0565\u0581\u056f\u056b \u0574\u0561\u0580\u0566","name:right:no":"Donetsk oblast","name:right:hr":"Done\u010dka oblast","name:left:sv":"Dnipropetrovsk oblast","name:right:hu":"Donecki ter\u00fclet","name:left:sr":"\u0414\u045a\u0435\u043f\u0440\u043e\u043f\u0435\u0442\u0440\u043e\u0432\u0441\u043a\u0430 \u043e\u0431\u043b\u0430\u0441\u0442","name:right:lt":"Donecko sritis","name:right:lv":"Do\u0146eckas apgabals","name:left:lt":"Dniepropetrovsko sritis","name:left:sh":"Dnjipropetrovska oblast","name:left:sk":"Dnepropetrovsk\u00e1 oblas\u0165","name:left:hu":"Dnyipropetrovszki ter\u00fclet","name:left:hr":"Dnjipropetrovska oblast","name:right:os":"\u0414\u043e\u043d\u0435\u0446\u0447\u044b \u043e\u0431\u043b\u00e6\u0441\u0442","name:right:vi":"Donetsk (t\u1ec9nh)","sort_rank":256,"name:left:ca":"Prov\u00edncia de Dnipropetrovsk","source":"openstreetmap.org","name:right:ar":"\u062f\u0648\u0646\u064a\u062a\u0633\u0643 \u0623\u0648\u0628\u0644\u0627\u0633\u062a","name:left:cv":"\u0414\u043d\u0435\u043f\u0440\u043e\u043f\u0435\u0442\u0440\u043e\u0432\u0441\u043a \u043e\u0431\u043b\u0430\u00e7\u0115","name:right:az":"Donetsk Oblast\u0131","name:left:cs":"Dn\u011bpropetrovsk\u00e1 oblast","name:left":"\u0414\u043d\u0456\u043f\u0440\u043e\u043f\u0435\u0442\u0440\u043e\u0432\u0441\u044c\u043a\u0430 \u043e\u0431\u043b\u0430\u0441\u0442\u044c","name:right:es":"\u00d3blast de Donetsk","name:right:sh":"Done\u010dka oblast","name:right:sr":"\u0414\u043e\u045a\u0435\u0447\u043a\u0430 \u043e\u0431\u043b\u0430\u0441\u0442","name:left:ka":"\u10d3\u10dc\u10d4\u10de\u10e0\u10dd\u10de\u10d4\u10e2\u10e0\u10dd\u10d5\u10e1\u10d9\u10d8\u10e1 \u10dd\u10da\u10e5\u10d8","name:right:eu":"Donetskeko oblasta","name:right:et":"Donetski oblast","name:left:ko":"\ub4dc\ub2c8\ud504\ub85c\ud398\ud2b8\ub85c\uc6b0\uc2dc\ud06c \uc8fc","name:right:it":"Oblast' di Donec'k","name:left:ro":"Regiunea Dniepropetrovsk","name:right:ru":"\u0414\u043e\u043d\u0435\u0446\u043a\u0430\u044f \u043e\u0431\u043b\u0430\u0441\u0442\u044c","name:left:pl":"Obw\u00f3d dniepropetrowski","name:right:ro":"Regiunea Done\u021bk","name:left:ru":"\u0414\u043d\u0435\u043f\u0440\u043e\u043f\u0435\u0442\u0440\u043e\u0432\u0441\u043a\u0430\u044f \u043e\u0431\u043b\u0430\u0441\u0442\u044c","name:right:mr":"\u0926\u094b\u0928\u0947\u0924\u094d\u0938\u094d\u0915 \u0913\u092c\u094d\u0932\u093e\u0938\u094d\u0924","name:right:id":"Oblast Donetsk","name:right:eo":"Donecka provinco","name:right:en":"Donetsk Oblast","name:left:vi":"Dnipropetrovsk (t\u1ec9nh)","kind":"region","name":"\u0414\u043d\u0456\u043f\u0440\u043e\u043f\u0435\u0442\u0440\u043e\u0432\u0441\u044c\u043a\u0430 \u043e\u0431\u043b\u0430\u0441\u0442\u044c - \u0414\u043e\u043d\u0435\u0446\u044c\u043a\u0430 \u043e\u0431\u043b\u0430\u0441\u0442\u044c","name:left:fa":"\u0627\u0633\u062a\u0627\u0646 \u062f\u0646\u06cc\u067e\u0631\u0648\u067e\u062a\u0631\u0648\u0641\u0633\u06a9","name:right:fa":"\u0627\u0633\u062a\u0627\u0646 \u062f\u0648\u0646\u062a\u0633\u06a9","min_zoom":8.0,"name:right:be":"\u0414\u0430\u043d\u0435\u0446\u043a\u0430\u044f \u0432\u043e\u0431\u043b\u0430\u0441\u0446\u044c","name:left:zh":"\u7b2c\u8042\u4f2f\u7f57\u5f7c\u5f97\u7f57\u592b\u65af\u514b\u5dde","name:left:fr":"Oblast de Dnipropetrovsk","name:right:zh":"\u987f\u6d85\u8328\u514b\u5dde","name:left:hy":"\u0534\u0576\u0565\u057a\u0580\u0578\u057a\u0565\u057f\u0580\u0578\u057e\u057d\u056f\u056b \u0574\u0561\u0580\u0566","name:right:nn":"Donetsk oblast","name:right:mk":"\u0414\u043e\u043d\u0435\u0447\u043a\u0430 \u043e\u0431\u043b\u0430\u0441\u0442","name:right:nl":"Oblast Donetsk","name:right:ja":"\u30c9\u30cd\u30c4\u30a3\u30af\u5dde","name:right:fr":"Oblast de Donetsk","name:left:lv":"D\u0146epropetrovskas apgabals","name:left:ja":"\u30c9\u30cb\u30d7\u30ed\u30da\u30c8\u30ed\u30a6\u30b7\u30af\u5dde","id:right":-71973,"name:left:nn":"Dnipropetrovsk oblast","name:left:no":"Dnipropetrovsk oblast","name:right:sk":"Doneck\u00e1 oblas\u0165","name:left:bg":"\u0414\u043d\u0435\u043f\u0440\u043e\u043f\u0435\u0442\u0440\u043e\u0432\u0441\u043a\u0430 \u043e\u0431\u043b\u0430\u0441\u0442","name:left:be":"\u0414\u043d\u0435\u043f\u0440\u0430\u043f\u044f\u0442\u0440\u043e\u045e\u0441\u043a\u0430\u044f \u0432\u043e\u0431\u043b\u0430\u0441\u0446\u044c","name:left:fi":"Dnepropetrovskin alue","id":-101746,"name:right:fi":"Donetskin alue","name:left:eo":"Dnipropetrovska provinco","name:left:en":"Dnipropetrovsk Oblast","name:right:ca":"Prov\u00edncia de Donetsk","kind_detail":"4","name:left:mk":"\u0414\u043d\u0435\u043f\u0440\u043e\u043f\u0435\u0442\u0440\u043e\u0432\u0441\u043a\u0430 \u043e\u0431\u043b\u0430\u0441\u0442","name:left:nl":"Oblast Dnjepropetrovsk","id:left":-101746,"name:left:es":"\u00d3blast de Dnipropetrovsk","name:right:cs":"Don\u011bck\u00e1 oblast","name:right":"\u0414\u043e\u043d\u0435\u0446\u044c\u043a\u0430 \u043e\u0431\u043b\u0430\u0441\u0442\u044c","name:left:eu":"Dnipropetrovskeko oblasta","name:left:et":"Dnipropetrovski oblast","name:right:ka":"\u10d3\u10dd\u10dc\u10d4\u10ea\u10d9\u10d8\u10e1 \u10dd\u10da\u10e5\u10d8","name:right:zh-min-nan":"Doneczk s\u00e9ng","name:right:pt":"Oblast de Donetsk","name:left:ar":"\u062f\u0646\u064a\u0628\u0631\u0648\u0628\u062a\u0631\u0648\u0641\u0633\u0643 \u0623\u0648\u0628\u0644\u0627\u0633\u062a","name:right:tt":"\u0414\u043e\u043d\u0435\u0446\u043a \u04e9\u043b\u043a\u04d9\u0441\u0435","name:left:tr":"Dnipropetrovsk Oblast\u0131","name:left:id":"Oblast Dnipropetrovsk","name:left:az":"Dnepropetrovsk vilay\u0259ti","name:right:tr":"Donetsk Oblast\u0131","name:right:bg":"\u0414\u043e\u043d\u0435\u0446\u043a\u0430 \u043e\u0431\u043b\u0430\u0441\u0442","name:left:pt":"Oblast de Dnipropetrovsk","name:left:mr":"\u0926\u094d\u0928\u0947\u092a\u094d\u0930\u094b\u092a\u0947\u0924\u094d\u0930\u094b\u0935\u094d\u0938\u094d\u0915 \u0913\u092c\u094d\u0932\u093e\u0938\u094d\u0924","name:right:sv":"Donetsk oblast","name:right:ko":"\ub3c4\ub124\uce20\ud06c \uc8fc","name:left:zh-min-nan":"Dnipropetrovsk s\u00e9ng","name:left:it":"Oblast' di Dnipropetrovs'k","name:right:pl":"Obw\u00f3d doniecki","osm_relation":true,"name:right:de":"Oblast Donezk","name:left:de":"Oblast Dnipropetrowsk"},"arcs":[[1],[2]]},{"type":"LineString","properties":{"name:right:hy":"\u0534\u0578\u0576\u0565\u0581\u056f\u056b \u0574\u0561\u0580\u0566","name:right:no":"Donetsk oblast","name:right:hr":"Done\u010dka oblast","name:left:sv":"Zaporizjzja oblast","name:right:hu":"Donecki ter\u00fclet","name:left:sr":"\u0417\u0430\u043f\u043e\u0440\u043e\u0448\u043a\u0430 \u043e\u0431\u043b\u0430\u0441\u0442","name:right:lt":"Donecko sritis","name:right:lv":"Do\u0146eckas apgabals","name:left:lt":"Zaporo\u017e\u0117s sritis","name:left:sh":"Zapori\u0161ka oblast","name:left:sk":"Z\u00e1poro\u017esk\u00e1 oblas\u0165","name:left:hu":"Zaporizzsjai ter\u00fclet","name:left:hr":"Zapori\u0161ka oblast","name:left:ga":"C\u00faige Zaporizhia","name:right:vi":"Donetsk (t\u1ec9nh)","sort_rank":256,"name:left:ca":"Prov\u00edncia de Zapor\u00edjjia","source":"openstreetmap.org","name:right:ar":"\u062f\u0648\u0646\u064a\u062a\u0633\u0643 \u0623\u0648\u0628\u0644\u0627\u0633\u062a","name:right:az":"Donetsk Oblast\u0131","name:left:cs":"Z\u00e1poro\u017esk\u00e1 oblast","name:left":"\u0417\u0430\u043f\u043e\u0440\u0456\u0437\u044c\u043a\u0430 \u043e\u0431\u043b\u0430\u0441\u0442\u044c","name:right:es":"\u00d3blast de Donetsk","name:right:sr":"\u0414\u043e\u045a\u0435\u0447\u043a\u0430 \u043e\u0431\u043b\u0430\u0441\u0442","name:left:ka":"\u10d6\u10d0\u10de\u10dd\u10e0\u10dd\u10df\u10d8\u10d4\u10e1 \u10dd\u10da\u10e5\u10d8","name:right:eu":"Donetskeko oblasta","name:right:et":"Donetski oblast","name:left:ko":"\uc790\ud3ec\ub9ac\uc790 \uc8fc","name:right:it":"Oblast' di Donec'k","name:left:ro":"Regiunea Zaporoje","name:right:ru":"\u0414\u043e\u043d\u0435\u0446\u043a\u0430\u044f \u043e\u0431\u043b\u0430\u0441\u0442\u044c","name:left:pl":"Obw\u00f3d zaporoski","name:right:ro":"Regiunea Done\u021bk","name:left:ru":"\u0417\u0430\u043f\u043e\u0440\u043e\u0436\u0441\u043a\u0430\u044f \u043e\u0431\u043b\u0430\u0441\u0442\u044c","name:right:mr":"\u0926\u094b\u0928\u0947\u0924\u094d\u0938\u094d\u0915 \u0913\u092c\u094d\u0932\u093e\u0938\u094d\u0924","name:right:id":"Oblast Donetsk","name:right:eo":"Donecka provinco","name:right:en":"Donetsk Oblast","name:left:vi":"Zaporizhia (t\u1ec9nh)","kind":"region","name":"\u0417\u0430\u043f\u043e\u0440\u0456\u0437\u044c\u043a\u0430 \u043e\u0431\u043b\u0430\u0441\u0442\u044c - \u0414\u043e\u043d\u0435\u0446\u044c\u043a\u0430 \u043e\u0431\u043b\u0430\u0441\u0442\u044c","name:left:no":"Zaporizjzjia oblast","name:right:fa":"\u0627\u0633\u062a\u0627\u0646 \u062f\u0648\u0646\u062a\u0633\u06a9","min_zoom":8.0,"name:right:be":"\u0414\u0430\u043d\u0435\u0446\u043a\u0430\u044f \u0432\u043e\u0431\u043b\u0430\u0441\u0446\u044c","name:left:zh":"\u624e\u6ce2\u7f85\u71b1\u5dde","name:left:fr":"Oblast de Zaporijia","name:right:zh":"\u987f\u6d85\u8328\u514b\u5dde","name:left:hy":"\u0536\u0561\u057a\u0578\u0580\u0578\u056a\u056b\u0565\u056b \u0574\u0561\u0580\u0566","name:right:nn":"Donetsk oblast","name:left:bs":"Zapori\u0161ka oblast","name:right:nl":"Oblast Donetsk","name:right:ja":"\u30c9\u30cd\u30c4\u30a3\u30af\u5dde","name:right:fr":"Oblast de Donetsk","name:left:lv":"Zaporo\u017ejes apgabals","name:left:ja":"\u30b6\u30dd\u30ea\u30fc\u30b8\u30e3\u5dde","id:right":-71973,"name:left:nn":"Zaporizjzjia oblast","name:right:sh":"Done\u010dka oblast","name:right:sk":"Doneck\u00e1 oblas\u0165","name:left:bg":"\u0417\u0430\u043f\u043e\u0440\u043e\u0436\u043a\u0430 \u043e\u0431\u043b\u0430\u0441\u0442","name:left:be":"\u0417\u0430\u043f\u0430\u0440\u043e\u0436\u0441\u043a\u0430\u044f \u0432\u043e\u0431\u043b\u0430\u0441\u0446\u044c","name:left:fi":"Zapori\u017e\u017ejan alue","id":-71980,"name:right:fi":"Donetskin alue","name:left:eo":"Zapori\u0135a provinco","name:left:en":"Zaporizhia Oblast","name:right:ca":"Prov\u00edncia de Donetsk","kind_detail":"4","name:left:mk":"\u0417\u0430\u043f\u043e\u0440\u043e\u0448\u043a\u0430 \u043e\u0431\u043b\u0430\u0441\u0442","name:left:nl":"Oblast Zaporizja","id:left":-71980,"name:left:es":"\u00d3blast de Zaporiyia","name:right:cs":"Don\u011bck\u00e1 oblast","name:right":"\u0414\u043e\u043d\u0435\u0446\u044c\u043a\u0430 \u043e\u0431\u043b\u0430\u0441\u0442\u044c","name:left:os":"\u0417\u0430\u043f\u043e\u0440\u043e\u0436\u044c\u0435\u0439\u044b \u043e\u0431\u043b\u00e6\u0441\u0442","name:left:eu":"Zaporizhiako oblasta","name:left:et":"Zapori\u017e\u017eja oblast","name:right:mk":"\u0414\u043e\u043d\u0435\u0447\u043a\u0430 \u043e\u0431\u043b\u0430\u0441\u0442","name:right:zh-min-nan":"Doneczk s\u00e9ng","name:right:pt":"Oblast de Donetsk","name:left:ar":"\u0632\u0627\u0628\u0648\u0631\u0648\u062c\u064a\u064a\u0647 \u0623\u0648\u0628\u0644\u0627\u0633\u062a","name:right:tt":"\u0414\u043e\u043d\u0435\u0446\u043a \u04e9\u043b\u043a\u04d9\u0441\u0435","name:left:tr":"Zaporijya Oblast\u0131","name:left:id":"Oblast Zaporizhia","name:right:tr":"Donetsk Oblast\u0131","name:right:bg":"\u0414\u043e\u043d\u0435\u0446\u043a\u0430 \u043e\u0431\u043b\u0430\u0441\u0442","name:left:pt":"Oblast de Zapor\u00edjia","name:left:mr":"\u091d\u093e\u092a\u094b\u0930\u093f\u091d\u093f\u092f\u093e \u0913\u092c\u094d\u0932\u093e\u0938\u094d\u0924","name:right:sv":"Donetsk oblast","name:right:ko":"\ub3c4\ub124\uce20\ud06c \uc8fc","name:left:zh-min-nan":"Zaporizhzhya s\u00e9ng","name:left:it":"Oblast' di Zapori\u017e\u017eja","name:right:pl":"Obw\u00f3d doniecki","osm_relation":true,"name:right:ka":"\u10d3\u10dd\u10dc\u10d4\u10ea\u10d9\u10d8\u10e1 \u10dd\u10da\u10e5\u10d8","name:right:de":"Oblast Donezk","name:left:de":"Oblast Saporischschja","name:right:os":"\u0414\u043e\u043d\u0435\u0446\u0447\u044b \u043e\u0431\u043b\u00e6\u0441\u0442"},"arcs":[3]}]},"roads":{"type":"GeometryCollection","geometries":[{"type":"MultiLineString","properties":{"bus_network":null,"old_name":"\u041b\u0435\u043d\u0456\u043d\u0430 \u043f\u0440\u043e\u0441\u043f\u0435\u043a\u0442","min_zoom":8.0,"old_name:en":"Lenina Avenue","bus_shield_text":"24\u0442","name:ru":"\u041c\u0438\u0440\u0430 \u043f\u0440\u043e\u0441\u043f\u0435\u043a\u0442","old_name:uk":"\u041b\u0435\u043d\u0456\u043d\u0430 \u043f\u0440\u043e\u0441\u043f\u0435\u043a\u0442","kind":"major_road","name:en":"Myru Avenue","network":"e-road","sort_rank":381,"kind_detail":"trunk","old_name:ru":"\u041b\u0435\u043d\u0438\u043d\u0430 \u043f\u0440\u043e\u0441\u043f\u0435\u043a\u0442","source":"openstreetmap.org","landuse_kind":"urban_area","shield_text":"58","ref":"\u041c-14"},"arcs":[[22],[23],[24]]},{"type":"MultiLineString","properties":{"kind":"major_road","name:en":"Tahanrozka Street","network":"e-road","sort_rank":381,"landuse_kind":"urban_area","source":"openstreetmap.org","min_zoom":8.0,"kind_detail":"trunk","shield_text":"58","name:ru":"\u0422\u0430\u0433\u0430\u043d\u0440\u043e\u0433\u0441\u043a\u0430\u044f \u0443\u043b\u0438\u0446\u0430","ref":"\u041c-14"},"arcs":[[25],[26]]},{"type":"MultiLineString","properties":{"bus_network":null,"sort_rank":380,"kind_detail":"primary","kind":"major_road","source":"openstreetmap.org","min_zoom":8.0,"bus_shield_text":"25\u0442","landuse_kind":"urban_area"},"arcs":[[27],[28]]},{"type":"LineString","properties":{"bus_network":null,"name:en":"Lahutenka Avenue","sort_rank":380,"kind_detail":"primary","kind":"major_road","source":"openstreetmap.org","min_zoom":8.0,"bus_shield_text":"111","name:ru":"\u041b\u0430\u0433\u0443\u0442\u0435\u043d\u043a\u043e \u043f\u0440\u043e\u0441\u043f\u0435\u043a\u0442","landuse_kind":"urban_area"},"arcs":[29]},{"type":"LineString","properties":{"kind":"major_road","network":"ua:national","sort_rank":380,"kind_detail":"primary","source":"openstreetmap.org","min_zoom":8.0,"landuse_kind":"residential","shield_text":"08","name:ru":"\u0426\u0435\u043d\u0442\u0440\u0430\u043b\u044c\u043d\u0430\u044f \u0443\u043b\u0438\u0446\u0430 (\u041b\u0435\u043d\u0438\u043d\u0430)","ref":"\u041d-08","id":399845714},"arcs":[30]},{"type":"LineString","properties":{"kind":"major_road","name:en":"Fedora Zaitseva Street","sort_rank":380,"kind_detail":"primary","source":"openstreetmap.org","min_zoom":8.0,"landuse_kind":"urban_area","name:ru":"\u0424\u0435\u0434\u043e\u0440\u0430 \u0417\u0430\u0439\u0446\u0435\u0432\u0430 \u0443\u043b\u0438\u0446\u0430"},"arcs":[31]},{"type":"MultiLineString","properties":{"bus_network":null,"name:en":"Pervomaiska Street","sort_rank":380,"kind_detail":"primary","kind":"major_road","source":"openstreetmap.org","min_zoom":8.0,"bus_shield_text":"41","name:ru":"\u041f\u0435\u0440\u0432\u043e\u043c\u0430\u0439\u0441\u043a\u0430\u044f \u0443\u043b\u0438\u0446\u0430","landuse_kind":"urban_area"},"arcs":[[32],[33]]},{"type":"LineString","properties":{"kind":"major_road","network":"ua:national","sort_rank":380,"kind_detail":"primary","source":"openstreetmap.org","min_zoom":8.0,"shield_text":"08","name:ru":"\u0426\u0435\u043d\u0442\u0440\u0430\u043b\u044c\u043d\u0430\u044f \u0443\u043b\u0438\u0446\u0430 (\u041b\u0435\u043d\u0438\u043d\u0430)","ref":"\u041d-08","id":399845714},"arcs":[34]},{"type":"LineString","properties":{"kind":"major_road","name:en":"Kirova Street","sort_rank":380,"kind_detail":"primary","bus_network":null,"source":"openstreetmap.org","min_zoom":8.0,"bus_shield_text":"35\u0430","name:ru":"\u041a\u0438\u0440\u043e\u0432\u0430 \u0443\u043b\u0438\u0446\u0430","landuse_kind":"urban_area","id":195432431},"arcs":[35]},{"type":"MultiLineString","properties":{"bus_network":null,"bus_shield_text":"12","min_zoom":8.0,"old_name:en":"Lenina Avenue","old_name":"\u041b\u0435\u043d\u0456\u043d\u0430 \u043f\u0440\u043e\u0441\u043f\u0435\u043a\u0442","name:ru":"\u041c\u0438\u0440\u0430 \u043f\u0440\u043e\u0441\u043f\u0435\u043a\u0442","old_name:uk":"\u041b\u0435\u043d\u0456\u043d\u0430 \u043f\u0440\u043e\u0441\u043f\u0435\u043a\u0442","kind":"major_road","name:en":"Myru Avenue","network":"e-road","sort_rank":381,"kind_detail":"trunk","old_name:ru":"\u041b\u0435\u043d\u0438\u043d\u0430 \u043f\u0440\u043e\u0441\u043f\u0435\u043a\u0442","source":"openstreetmap.org","landuse_kind":"urban_area","shield_text":"58","ref":"\u041c-14"},"arcs":[[36],[37]]},{"type":"MultiLineString","properties":{"kind":"major_road","network":"e-road","sort_rank":381,"landuse_kind":"urban_area","source":"openstreetmap.org","min_zoom":8.0,"kind_detail":"trunk","shield_text":"58","ref":"\u041c-14"},"arcs":[[38],[39],[40],[41]]},{"type":"LineString","properties":{"kind":"major_road","network":"ua:national","sort_rank":380,"kind_detail":"primary","source":"openstreetmap.org","min_zoom":8.0,"old_name":"\u041b\u0435\u043d\u0456\u043d\u0430 \u0432\u0443\u043b\u0438\u0446\u044f","shield_text":"08","name:ru":"\u0426\u0435\u043d\u0442\u0440\u0430\u043b\u044c\u043d\u0430\u044f \u0443\u043b\u0438\u0446\u0430","landuse_kind":"residential","ref":"\u041d-08","id":399845720},"arcs":[42]},{"type":"LineString","properties":{"bus_network":null,"name:en":"Metalurhiv Avenue","network":"e-road","sort_rank":381,"landuse_kind":"urban_area","kind":"major_road","name:ru":"\u041c\u0435\u0442\u0430\u043b\u043b\u0443\u0440\u0433\u043e\u0432 \u043f\u0440\u043e\u0441\u043f\u0435\u043a\u0442","source":"openstreetmap.org","min_zoom":8.0,"bus_shield_text":"24\u0442","shield_text":"58","kind_detail":"trunk","ref":"\u041c-14"},"arcs":[43]},{"type":"LineString","properties":{"bus_network":null,"sort_rank":380,"kind_detail":"primary","kind":"major_road","source":"openstreetmap.org","min_zoom":8.0,"bus_shield_text":"41","landuse_kind":"urban_area"},"arcs":[44]},{"type":"MultiLineString","properties":{"old_name:uk":"\u0406\u043b\u043b\u0456\u0447\u0430 \u043f\u0440\u043e\u0441\u043f\u0435\u043a\u0442","bus_network":null,"name:en":"Nikopolskyi Avenue","sort_rank":380,"kind_detail":"primary","old_name:ru":"\u0418\u043b\u044c\u0438\u0447\u0430 \u043f\u0440\u043e\u0441\u043f\u0435\u043a\u0442","kind":"major_road","source":"openstreetmap.org","min_zoom":8.0,"old_name:en":"Illicha Avenue","old_name":"\u0406\u043b\u043b\u0456\u0447\u0430 \u043f\u0440\u043e\u0441\u043f\u0435\u043a\u0442","name:ru":"\u041d\u0438\u043a\u043e\u043f\u043e\u043b\u044c\u0441\u043a\u0438\u0439 \u043f\u0440\u043e\u0441\u043f\u0435\u043a\u0442","landuse_kind":"urban_area","bus_shield_text":"12\u0430"},"arcs":[[45],[46],[47]]},{"type":"LineString","properties":{"kind":"major_road","name:en":"Karpova Avenue","network":"ua:national","sort_rank":380,"kind_detail":"primary","source":"openstreetmap.org","min_zoom":8.0,"landuse_kind":"urban_area","shield_text":"20","ref":"\u041d-20"},"arcs":[48]},{"type":"LineString","properties":{"kind":"major_road","sort_rank":380,"kind_detail":"primary","bus_network":null,"source":"openstreetmap.org","min_zoom":8.0,"bus_shield_text":"126","landuse_kind":"urban_area","id":95941329},"arcs":[49]},{"type":"LineString","properties":{"bus_network":null,"name:en":"Lahutenka Avenue","sort_rank":380,"landuse_kind":"urban_area","kind":"major_road","source":"openstreetmap.org","min_zoom":8.0,"bus_shield_text":"41","name:ru":"\u041b\u0430\u0433\u0443\u0442\u0435\u043d\u043a\u043e \u043f\u0440\u043e\u0441\u043f\u0435\u043a\u0442","kind_detail":"primary"},"arcs":[50]},{"type":"MultiLineString","properties":{"kind":"major_road","network":"ua:national","sort_rank":380,"kind_detail":"primary","source":"openstreetmap.org","min_zoom":8.0,"landuse_kind":"residential","shield_text":"08","ref":"\u041d-08"},"arcs":[[51],[52]]},{"type":"LineString","properties":{"kind":"major_road","name:en":"Zaporizke avenue","network":"ua:national","sort_rank":380,"kind_detail":"primary","source":"openstreetmap.org","min_zoom":8.0,"shield_text":"15","name:ru":"\u0417\u0430\u043f\u043e\u0440\u043e\u0436\u0441\u043a\u0438\u0439 \u043f\u0440\u043e\u0441\u043f\u0435\u043a\u0442","ref":"\u041d-15","id":247252227},"arcs":[53]},{"type":"MultiLineString","properties":{"source":"openstreetmap.org","kind":"major_road","landuse_kind":"urban_area","sort_rank":380,"kind_detail":"primary","min_zoom":8.0},"arcs":[[54],[55]]},{"type":"MultiLineString","properties":{"bus_network":null,"name:en":"Post Bridge","network":"e-road","sort_rank":381,"kind_detail":"trunk","kind":"major_road","source":"openstreetmap.org","min_zoom":8.0,"bus_shield_text":"24\u0442","shield_text":"58","name:ru":"\u041f\u043e\u0441\u0442-\u043c\u043e\u0441\u0442","landuse_kind":"urban_area","ref":"\u041c-14"},"arcs":[[56],[57]]},{"type":"MultiLineString","properties":{"kind":"major_road","name:en":"Naberezhna Street","network":"e-road","sort_rank":381,"landuse_kind":"urban_area","source":"openstreetmap.org","min_zoom":8.0,"kind_detail":"trunk","shield_text":"58","name:ru":"\u041d\u0430\u0431\u0435\u0440\u0435\u0436\u043d\u0430\u044f \u0443\u043b\u0438\u0446\u0430","ref":"\u041c-14"},"arcs":[[58],[59]]},{"type":"MultiLineString","properties":{"bus_network":null,"name:en":"Leninskyi Avenue","sort_rank":380,"kind_detail":"primary","kind":"major_road","source":"openstreetmap.org","min_zoom":8.0,"bus_shield_text":"5","name:ru":"\u041b\u0435\u043d\u0438\u043d\u0441\u043a\u0438\u0439 \u043f\u0440\u043e\u0441\u043f\u0435\u043a\u0442","landuse_kind":"urban_area"},"arcs":[[60],[61]]},{"type":"LineString","properties":{"kind":"major_road","network":"ua:national","sort_rank":380,"kind_detail":"primary","source":"openstreetmap.org","min_zoom":8.0,"landuse_kind":"residential","shield_text":"08","name:ru":"\u041e\u0441\u0432\u043e\u0431\u043e\u0434\u0438\u0442\u0435\u043b\u0435\u0439 \u0443\u043b\u0438\u0446\u0430","ref":"\u041d-08","id":399080145},"arcs":[62]},{"type":"MultiLineString","properties":{"kind":"major_road","network":"ua:national","sort_rank":380,"kind_detail":"primary","source":"openstreetmap.org","min_zoom":8.0,"landuse_kind":"urban_area","shield_text":"20","ref":"\u041d-20"},"arcs":[[63],[64],[65],[66],[67],[68],[69],[70],[71],[72],[73],[74],[75],[76],[77],[78]]},{"type":"MultiLineString","properties":{"kind":"major_road","name:en":"Leninskyi Avenue","network":"ua:national","sort_rank":380,"kind_detail":"primary","source":"openstreetmap.org","min_zoom":8.0,"landuse_kind":"urban_area","shield_text":"15","name:ru":"\u041b\u0435\u043d\u0438\u043d\u0441\u043a\u0438\u0439 \u043f\u0440\u043e\u0441\u043f\u0435\u043a\u0442","ref":"\u041d-15"},"arcs":[[79],[80]]},{"type":"MultiLineString","properties":{"kind":"major_road","network":"e-road","sort_rank":381,"kind_detail":"trunk","source":"openstreetmap.org","min_zoom":8.0,"shield_text":"58","ref":"\u041c-14"},"arcs":[[81],[82]]},{"type":"MultiLineString","properties":{"sort_rank":380,"kind_detail":"primary","min_zoom":8.0,"kind":"major_road","source":"openstreetmap.org"},"arcs":[[83],[84],[85],[86]]},{"type":"MultiLineString","properties":{"old_name:uk":"1 \u0422\u0440\u0430\u0432\u043d\u044f \u043f\u0440\u043e\u0441\u043f\u0435\u043a\u0442","bus_network":null,"name:en":"Yednosti Avenue","sort_rank":380,"kind_detail":"primary","old_name:ru":"1 \u041c\u0430\u044f \u043f\u0440\u043e\u0441\u043f\u0435\u043a\u0442","kind":"major_road","source":"openstreetmap.org","min_zoom":8.0,"old_name:en":"1 Travnya Avenue","old_name":"1 \u0422\u0440\u0430\u0432\u043d\u044f \u043f\u0440\u043e\u0441\u043f\u0435\u043a\u0442","name:ru":"\u0415\u0434\u0438\u043d\u0441\u0442\u0432\u0430 \u043f\u0440\u043e\u0441\u043f\u0435\u043a\u0442","landuse_kind":"urban_area","bus_shield_text":"25\u0442"},"arcs":[[87],[88],[89]]},{"type":"LineString","properties":{"kind":"major_road","name:en":"Leninskyi Avenue","sort_rank":380,"kind_detail":"primary","bus_network":null,"source":"openstreetmap.org","min_zoom":8.0,"bus_shield_text":"35\u0430","name:ru":"\u041b\u0435\u043d\u0438\u043d\u0441\u043a\u0438\u0439 \u043f\u0440\u043e\u0441\u043f\u0435\u043a\u0442","landuse_kind":"urban_area","id":117791635},"arcs":[90]},{"type":"LineString","properties":{"bus_network":null,"name:en":"Karpova Avenue","sort_rank":380,"kind_detail":"primary","kind":"major_road","source":"openstreetmap.org","min_zoom":8.0,"bus_shield_text":"50","landuse_kind":"urban_area"},"arcs":[91]},{"type":"LineString","properties":{"kind":"major_road","network":"ua:national","sort_rank":380,"kind_detail":"primary","source":"openstreetmap.org","min_zoom":8.0,"landuse_kind":"nature_reserve","shield_text":"08","ref":"\u041d-08;\u0422-05-23","id":126623689},"arcs":[92]},{"type":"LineString","properties":{"bus_network":null,"bus_shield_text":"12\u0430","min_zoom":8.0,"old_name:en":"Lenina Avenue","old_name":"\u041b\u0435\u043d\u0456\u043d\u0430 \u043f\u0440\u043e\u0441\u043f\u0435\u043a\u0442","name:ru":"\u041c\u0438\u0440\u0430 \u043f\u0440\u043e\u0441\u043f\u0435\u043a\u0442","old_name:uk":"\u041b\u0435\u043d\u0456\u043d\u0430 \u043f\u0440\u043e\u0441\u043f\u0435\u043a\u0442","kind":"major_road","name:en":"Myru Avenue","network":"e-road","sort_rank":381,"kind_detail":"trunk","old_name:ru":"\u041b\u0435\u043d\u0438\u043d\u0430 \u043f\u0440\u043e\u0441\u043f\u0435\u043a\u0442","source":"openstreetmap.org","landuse_kind":"urban_area","shield_text":"58","ref":"\u041c-14"},"arcs":[93]},{"type":"LineString","properties":{"kind":"major_road","name:en":"Zaporizke avenue","network":"ua:national","sort_rank":380,"kind_detail":"primary","source":"openstreetmap.org","min_zoom":8.0,"landuse_kind":"urban_area","shield_text":"15","name:ru":"\u0417\u0430\u043f\u043e\u0440\u043e\u0436\u0441\u043a\u0438\u0439 \u043f\u0440\u043e\u0441\u043f\u0435\u043a\u0442","ref":"\u041d-15","id":247252227},"arcs":[94]},{"type":"MultiLineString","properties":{"source":"openstreetmap.org","kind":"major_road","kind_detail":"trunk","sort_rank":381,"landuse_kind":"urban_area","min_zoom":8.0},"arcs":[[95],[96],[97]]},{"type":"LineString","properties":{"kind":"major_road","network":"ua:national","sort_rank":380,"kind_detail":"primary","source":"openstreetmap.org","min_zoom":8.0,"landuse_kind":"nature_reserve","shield_text":"08","ref":"\u041d-08","id":27323393},"arcs":[98]},{"type":"LineString","properties":{"bus_network":null,"name:en":"Karpova Avenue","sort_rank":380,"kind_detail":"primary","kind":"major_road","source":"openstreetmap.org","min_zoom":8.0,"bus_shield_text":"25\u0442","landuse_kind":"urban_area"},"arcs":[99]},{"type":"LineString","properties":{"kind":"major_road","network":"ua:national","sort_rank":380,"kind_detail":"primary","source":"openstreetmap.org","min_zoom":8.0,"landuse_kind":"urban_area","shield_text":"08","ref":"\u041d-08","id":126623698},"arcs":[100]},{"type":"MultiLineString","properties":{"kind":"major_road","network":"ua:national","sort_rank":380,"kind_detail":"primary","source":"openstreetmap.org","min_zoom":8.0,"shield_text":"20","ref":"\u041d-20"},"arcs":[[101],[102],[103],[104],[105],[106],[107],[108],[109],[110],[111],[112],[113],[114],[115],[116],[117],[118],[119],[120],[121],[122],[123],[124],[125],[126]]},{"type":"MultiLineString","properties":{"old_name:uk":"\u0406\u043b\u043b\u0456\u0447\u0430 \u043f\u0440\u043e\u0441\u043f\u0435\u043a\u0442","bus_network":null,"name:en":"Nikopolskyi Avenue","sort_rank":380,"kind_detail":"primary","old_name:ru":"\u0418\u043b\u044c\u0438\u0447\u0430 \u043f\u0440\u043e\u0441\u043f\u0435\u043a\u0442","kind":"major_road","source":"openstreetmap.org","min_zoom":8.0,"old_name:en":"Illicha Avenue","old_name":"\u0406\u043b\u043b\u0456\u0447\u0430 \u043f\u0440\u043e\u0441\u043f\u0435\u043a\u0442","name:ru":"\u041d\u0438\u043a\u043e\u043f\u043e\u043b\u044c\u0441\u043a\u0438\u0439 \u043f\u0440\u043e\u0441\u043f\u0435\u043a\u0442","landuse_kind":"urban_area","bus_shield_text":"25\u0442"},"arcs":[[127],[128],[129],[130]]},{"type":"LineString","properties":{"kind":"major_road","name:en":"Urozhayna Street","network":"ua:national","sort_rank":380,"kind_detail":"primary","source":"openstreetmap.org","min_zoom":8.0,"shield_text":"15","name:ru":"\u0423\u0440\u043e\u0436\u0430\u0439\u043d\u0430\u044f \u0443\u043b\u0438\u0446\u0430","ref":"\u041d-15"},"arcs":[131]},{"type":"LineString","properties":{"old_name:uk":"\u0410\u0440\u0442\u0435\u043c\u0430 \u0432\u0443\u043b\u0438\u0446\u044f","kind":"major_road","name:en":"Kuindzhy Street","network":"e-road","sort_rank":381,"kind_detail":"trunk","old_name:ru":"\u0410\u0440\u0442\u0451\u043c\u0430 \u0443\u043b\u0438\u0446\u0430","source":"openstreetmap.org","min_zoom":8.0,"old_name:en":"Artema Street","old_name":"\u0410\u0440\u0442\u0435\u043c\u0430 \u0432\u0443\u043b\u0438\u0446\u044f","shield_text":"58","name:ru":"\u041a\u0443\u0438\u043d\u0434\u0436\u0438 \u0443\u043b\u0438\u0446\u0430","landuse_kind":"urban_area","ref":"\u041c-14"},"arcs":[132]},{"type":"LineString","properties":{"kind":"major_road","name:en":"Fedora Zaitseva Street","sort_rank":380,"kind_detail":"primary","bus_network":null,"source":"openstreetmap.org","min_zoom":8.0,"bus_shield_text":"111","name:ru":"\u0424\u0435\u0434\u043e\u0440\u0430 \u0417\u0430\u0439\u0446\u0435\u0432\u0430 \u0443\u043b\u0438\u0446\u0430","landuse_kind":"urban_area","id":24506215},"arcs":[133]},{"type":"LineString","properties":{"kind":"major_road","network":"ua:national","sort_rank":380,"kind_detail":"primary","source":"openstreetmap.org","min_zoom":8.0,"shield_text":"08","ref":"\u041d-08;\u0422-05-23","id":126623689},"arcs":[134]},{"type":"LineString","properties":{"bus_network":null,"name:en":"Zaozerna Street","sort_rank":380,"kind_detail":"primary","kind":"major_road","source":"openstreetmap.org","min_zoom":8.0,"bus_shield_text":"25\u0442","name:ru":"\u0417\u0430\u043e\u0437\u0451\u0440\u043d\u0430\u044f \u0443\u043b\u0438\u0446\u0430","landuse_kind":"urban_area"},"arcs":[135]},{"type":"LineString","properties":{"bus_network":null,"name:en":"Naberezhna Street","network":"e-road","sort_rank":381,"kind_detail":"trunk","kind":"major_road","source":"openstreetmap.org","min_zoom":8.0,"bus_shield_text":"24\u0442","shield_text":"58","name:ru":"\u041d\u0430\u0431\u0435\u0440\u0435\u0436\u043d\u0430\u044f \u0443\u043b\u0438\u0446\u0430","landuse_kind":"urban_area","ref":"\u041c-14"},"arcs":[136]},{"type":"MultiLineString","properties":{"bus_network":null,"name:en":"Leninskyi Avenue","network":"ua:national","sort_rank":380,"kind_detail":"primary","kind":"major_road","source":"openstreetmap.org","min_zoom":8.0,"bus_shield_text":"35\u0430","shield_text":"15","name:ru":"\u041b\u0435\u043d\u0438\u043d\u0441\u043a\u0438\u0439 \u043f\u0440\u043e\u0441\u043f\u0435\u043a\u0442","landuse_kind":"urban_area","ref":"\u041d-15"},"arcs":[[137],[138]]},{"type":"LineString","properties":{"kind":"major_road","network":"ua:national","sort_rank":380,"kind_detail":"primary","source":"openstreetmap.org","min_zoom":8.0,"landuse_kind":"residential","shield_text":"08","name:ru":"\u0426\u0435\u043d\u0442\u0440\u0430\u043b\u044c\u043d\u0430\u044f \u0443\u043b\u0438\u0446\u0430","ref":"\u041d-08","id":399845717},"arcs":[139]},{"type":"MultiLineString","properties":{"kind":"major_road","network":"ua:national","sort_rank":380,"kind_detail":"primary","source":"openstreetmap.org","min_zoom":8.0,"landuse_kind":"urban_area","shield_text":"15","ref":"\u041d-15"},"arcs":[[140],[141],[142],[143],[144],[145]]},{"type":"LineString","properties":{"kind":"major_road","name:en":"Holubenka Street","network":"e-road","sort_rank":381,"kind_detail":"trunk","source":"openstreetmap.org","min_zoom":8.0,"landuse_kind":"urban_area","shield_text":"58","name:ru":"\u0413\u043e\u043b\u0443\u0431\u0435\u043d\u043a\u043e \u0443\u043b\u0438\u0446\u0430","ref":"\u041c-14","id":422828090},"arcs":[146]},{"type":"LineString","properties":{"bus_network":null,"old_name":"\u041b\u0435\u043d\u0456\u043d\u0430 \u043f\u0440\u043e\u0441\u043f\u0435\u043a\u0442","min_zoom":8.0,"old_name:en":"Lenina Avenue","bus_shield_text":"15\u0430","name:ru":"\u041c\u0438\u0440\u0430 \u043f\u0440\u043e\u0441\u043f\u0435\u043a\u0442","old_name:uk":"\u041b\u0435\u043d\u0456\u043d\u0430 \u043f\u0440\u043e\u0441\u043f\u0435\u043a\u0442","kind":"major_road","name:en":"Myru Avenue","network":"e-road","sort_rank":381,"kind_detail":"trunk","old_name:ru":"\u041b\u0435\u043d\u0438\u043d\u0430 \u043f\u0440\u043e\u0441\u043f\u0435\u043a\u0442","source":"openstreetmap.org","landuse_kind":"urban_area","shield_text":"58","ref":"\u041c-14"},"arcs":[147]},{"type":"LineString","properties":{"bus_network":null,"name:en":"Mamina-Sibiriaka Street","sort_rank":380,"kind_detail":"primary","kind":"major_road","source":"openstreetmap.org","min_zoom":8.0,"bus_shield_text":"25\u0442","name:ru":"\u041c\u0430\u043c\u0438\u043d\u0430-\u0421\u0438\u0431\u0438\u0440\u044f\u043a\u0430 \u0443\u043b\u0438\u0446\u0430","landuse_kind":"urban_area"},"arcs":[148]},{"type":"MultiLineString","properties":{"kind":"major_road","network":"ua:national","sort_rank":380,"kind_detail":"primary","source":"openstreetmap.org","min_zoom":8.0,"shield_text":"08","ref":"\u041d-08"},"arcs":[[149],[150],[151]]},{"type":"MultiLineString","properties":{"kind":"major_road","network":"ua:national","sort_rank":380,"kind_detail":"primary","source":"openstreetmap.org","min_zoom":8.0,"shield_text":"15","ref":"\u041d-15"},"arcs":[[152],[153],[154],[155],[156],[157],[158],[159],[160]]},{"type":"MultiLineString","properties":{"bus_network":null,"network":"e-road","sort_rank":381,"landuse_kind":"urban_area","kind":"major_road","source":"openstreetmap.org","min_zoom":8.0,"bus_shield_text":"24\u0442","shield_text":"58","kind_detail":"trunk","ref":"\u041c-14"},"arcs":[[161],[162],[163],[164]]},{"type":"MultiLineString","properties":{"bus_network":null,"name:en":"Leninskyi Avenue","sort_rank":380,"kind_detail":"primary","kind":"major_road","source":"openstreetmap.org","min_zoom":8.0,"bus_shield_text":"41","name:ru":"\u041b\u0435\u043d\u0438\u043d\u0441\u043a\u0438\u0439 \u043f\u0440\u043e\u0441\u043f\u0435\u043a\u0442","landuse_kind":"urban_area"},"arcs":[[165],[166],[167],[168],[169],[170]]},{"type":"MultiLineString","properties":{"kind":"major_road","name:en":"Shevchenka Boulevard","network":"e-road","sort_rank":381,"kind_detail":"trunk","source":"openstreetmap.org","min_zoom":8.0,"landuse_kind":"urban_area","shield_text":"58","name:ru":"\u0428\u0435\u0432\u0447\u0435\u043d\u043a\u043e \u0431\u0443\u043b\u044c\u0432\u0430\u0440","ref":"\u041c-14"},"arcs":[[171],[172],[173],[174],[175]]},{"type":"LineString","properties":{"bus_network":null,"name:en":"Tahanrozka Street","network":"e-road","sort_rank":381,"kind_detail":"trunk","kind":"major_road","source":"openstreetmap.org","min_zoom":8.0,"bus_shield_text":"25","shield_text":"58","name:ru":"\u0422\u0430\u0433\u0430\u043d\u0440\u043e\u0433\u0441\u043a\u0430\u044f \u0443\u043b\u0438\u0446\u0430","landuse_kind":"urban_area","ref":"\u041c-14"},"arcs":[176]}]},"earth":{"type":"GeometryCollection","geometries":[{"type":"MultiPolygon","properties":{"sort_rank":10,"source":"naturalearthdata.com","min_zoom":0.0,"kind":"earth","area":94584646951},"arcs":[[[177]]]}]},"landuse":{"type":"GeometryCollection","geometries":[{"type":"Polygon","properties":{"kind":"nature_reserve","protect_class":"3","area":12275700,"sort_rank":23,"source":"openstreetmap.org","min_zoom":8.0,"tier":2,"id":331542305},"arcs":[[178]]},{"type":"MultiPolygon","properties":{"source":"openstreetmap.org","kind":"nature_reserve","tier":2,"protect_class":"4","area":212344704,"sort_rank":23,"min_zoom":8.0},"arcs":[[[179]],[[180]]]},{"type":"Polygon","properties":{"kind":"residential","name:en":"Andriivka","name":"\u0410\u043d\u0434\u0440\u0456\u0457\u0432\u043a\u0430","area":21465200,"sort_rank":20,"source":"openstreetmap.org","min_zoom":8.0,"tier":2,"name:ru":"\u0410\u043d\u0434\u0440\u0435\u0435\u0432\u043a\u0430","name:pl":"Andrzej\u00f3wka","id":-3588797,"osm_relation":true},"arcs":[[181]]},{"type":"MultiPolygon","properties":{"source":"naturalearthdata.com","kind":"urban_area","name":"","area":10435685732,"sort_rank":11,"min_zoom":4.0},"arcs":[[[182]],[[183]],[[184]],[[185]],[[186]],[[187]],[[188]]]},{"type":"Polygon","properties":{"kind":"residential","name:en":"Uspenivka","name":"\u0423\u0441\u043f\u0435\u043d\u0456\u0432\u043a\u0430","area":14809400,"sort_rank":20,"source":"openstreetmap.org","min_zoom":8.0,"tier":2,"name:ru":"\u0423\u0441\u043f\u0435\u043d\u043e\u0432\u043a\u0430","id":-3588816,"osm_relation":true},"arcs":[[189]]},{"type":"MultiPolygon","properties":{"source":"openstreetmap.org","kind":"residential","tier":2,"area":316843152,"sort_rank":20,"min_zoom":8.0},"arcs":[[[190]],[[191]],[[192]]]},{"type":"Polygon","properties":{"kind":"nature_reserve","protect_class":"4","area":42632600,"sort_rank":23,"source":"openstreetmap.org","min_zoom":8.0,"tier":2,"id":-5625533,"osm_relation":true},"arcs":[[193]]},{"type":"MultiPolygon","properties":{"kind":"protected_area","protect_class":"5","area":99493568,"sort_rank":17,"source":"openstreetmap.org","min_zoom":8.0,"tier":2,"osm_relation":true},"arcs":[[[194]]]}]}},"type":"Topology","transform":{"translate":[36.5625,47.0401821448],"scale":[0.0003433228,0.00023187]},"arcs":[[[0,3465],[65,16]],[[65,3481],[-24,142],[-41,-7]],[[0,3742],[87,13],[-7,44],[146,-3],[-33,179],[-127,-23],[-20,144]],[[1634,0],[-72,82],[-51,-51],[-279,140],[79,41],[-5,39],[-26,11],[26,42],[-32,16],[7,55],[-55,-12],[-99,148],[-26,-6],[-11,36],[-41,-22],[4,43],[-41,-23],[-30,38],[-32,-14],[-99,123],[222,33],[1,-27],[91,4],[-106,508],[53,6],[7,-42],[232,16],[29,-64],[138,64],[25,66],[87,45],[-45,153],[115,22],[46,-171],[121,62],[-26,76],[157,360],[-26,12],[16,41],[-160,-1],[17,43],[-47,21],[-64,-125],[-214,178],[-30,-10],[-154,255],[-57,-60],[-63,94],[-39,-32],[-65,98],[-148,-134],[-184,342],[-191,-101],[1,30],[-49,-5],[-9,65],[61,7],[-1,46],[-118,-13],[-20,120],[106,14],[-4,21],[62,-8],[49,86],[-228,-26],[-39,231],[-41,-7],[-42,270],[-244,-35],[3,134],[31,6],[27,99],[-11,43],[-58,-15]],[[367,1255],[-38,-5],[-39,-96],[-113,15],[-40,-21],[-74,29],[-63,-28]],[[2463,1892],[-12,-36],[-93,-65],[-75,-12],[-280,72],[-346,2],[-16,-221],[-80,-167],[-323,-123],[-324,33],[-324,-147],[-194,13]],[[2717,2397],[3,-5]],[[2720,2392],[26,-40],[14,-24],[1,-2],[1,-3],[0,-3],[-1,-6],[-3,-16],[-5,-18],[-3,-7],[-19,-38],[-2,-4],[-2,-2],[-3,-3],[-3,-3],[-75,-49],[-3,-2],[-25,-10],[-5,-2],[-5,-1],[-7,0],[-46,2],[-8,-1],[-21,-13],[-6,-17],[3,-22],[0,-5],[-1,-6],[-59,-205]],[[2720,2392],[42,-69],[-31,-88],[-88,-62],[-96,-12],[-21,-14],[-6,-17],[2,-33],[-59,-205]],[[2696,2429],[21,-32]],[[2717,2397],[47,-34],[160,-75],[94,-172],[34,-35],[102,-58],[20,-83],[-28,-64],[2,-25],[20,-53],[5,-9],[62,-69],[-11,-103],[71,-109],[-29,-74],[-128,-101],[-6,-5],[-3,-5],[-3,-6],[-1,-8],[-1,-78],[-14,-33],[-111,-72],[-21,-24],[-9,-38],[-19,-13],[-5,-6],[-2,-4],[-2,-5],[1,-9],[11,-27],[-5,-20],[0,-8],[13,-53]],[[2961,919],[9,-45]],[[2970,874],[1,-4]],[[2971,870],[-15,72],[-8,28],[0,10],[5,13],[0,4],[0,3],[0,4],[-2,4],[-9,19],[2,16],[6,8],[14,8],[5,5],[2,4],[2,5],[5,29],[21,23],[92,55],[6,4],[4,3],[4,4],[5,6],[4,6],[5,9],[2,5],[2,7],[1,7],[1,9],[0,69],[3,12],[8,10],[118,92],[6,5],[7,6],[2,3],[3,4],[21,47],[1,4],[1,5],[1,5],[-1,3],[0,5],[-1,3],[-1,3],[-3,4],[-65,97],[13,83],[1,5],[0,4],[-1,3],[-1,4],[-2,5],[-1,3],[-2,3],[-4,5],[-56,58],[-24,61],[-1,25],[24,50],[2,7],[1,7],[0,7],[-1,6],[-15,60],[-2,6],[-2,4],[-2,3],[-3,3],[-4,3],[-3,2],[-89,47],[-35,36],[-84,160],[-4,6],[-6,5],[-4,4],[-4,2],[-94,50],[-7,3],[-33,10]],[[2969,876],[-13,-113],[12,-62],[-25,-44],[-23,-65],[3,-62],[28,-50],[88,-62],[-7,-13],[-30,-23],[-6,-8],[-2,-54],[-72,-49],[-4,-17],[8,-39],[-21,-19]],[[2905,196],[-14,-3]],[[2905,196],[3,0],[4,1],[3,2],[3,2],[2,3],[3,3],[2,5],[1,3],[1,3],[0,5],[-1,5],[-8,26],[4,17],[60,36],[3,2],[9,11],[2,3],[2,3],[1,4],[0,4],[-3,40],[6,8],[26,18],[4,5],[3,2],[1,3],[2,4],[1,4],[0,5],[0,2],[-2,6],[-1,3],[-3,4],[-2,2],[-3,2],[-23,12],[-21,11],[-25,10],[-7,5],[-29,50],[0,7],[4,16],[1,4],[0,3],[-1,6],[-6,14],[0,12],[23,65],[20,34],[2,4],[2,6],[0,6],[0,7],[-11,51],[20,61],[-6,44]],[[2961,919],[8,-43]],[[2969,876],[1,-2]],[[396,1241],[-63,13],[-43,-100],[-113,15],[-40,-21],[-74,29],[-63,-28]],[[4096,236],[0,-236],[-1398,0],[168,179],[100,38],[377,-70],[125,4],[314,113],[261,-44],[34,20],[19,-4]],[[2698,0],[168,179],[100,38],[377,-70],[125,4],[314,113],[261,-44],[34,20],[19,-4]],[[2753,256],[65,-7]],[[2818,249],[-37,5]],[[2857,245],[-39,4]],[[3133,337],[-16,-6]],[[3274,392],[-16,-3]],[[2917,435],[-1,-3]],[[3106,423],[5,-4]],[[3602,4087],[28,2]],[[1475,1530],[-14,13]],[[3629,4096],[1,-7]],[[3600,4096],[0,-8]],[[3602,4087],[0,9]],[[1461,1543],[-3,2]],[[3520,4011],[-1,-2]],[[2734,258],[19,-2]],[[2753,257],[-19,2]],[[2612,226],[-61,-20]],[[2612,226],[122,32]],[[2734,259],[-122,-33]],[[3325,372],[-51,20]],[[1479,1509],[-4,21]],[[2857,245],[31,50]],[[3520,4007],[1,1]],[[2919,432],[11,-3]],[[3024,411],[-105,22]],[[2931,429],[88,-19]],[[2844,596],[-2,-26],[2,26]],[[2915,438],[-2,-1]],[[3600,4088],[2,-1]],[[1480,1506],[-1,3]],[[1511,1474],[-8,8]],[[2127,4093],[-44,1]],[[2916,432],[1,3]],[[3508,3828],[-36,-15]],[[2937,264],[4,-1]],[[2942,263],[-5,2]],[[2943,262],[0,1]],[[3092,315],[-19,6]],[[3572,4085],[17,11]],[[3585,4096],[-13,-11]],[[1503,1482],[-23,24]],[[2801,2424],[-25,-94]],[[2776,2330],[25,92]],[[2844,596],[3,56],[-5,145],[0,1]],[[2842,798],[0,6],[-2,50],[0,6],[-2,39]],[[2839,900],[3,-102]],[[2842,798],[1,-44],[1,-13],[0,-145]],[[3000,2864],[-8,-15]],[[2993,2848],[7,16]],[[3099,3296],[-28,-32]],[[3071,3263],[28,32]],[[4004,4096],[7,-13],[3,-7],[-12,-80],[4,-70],[-1,-3],[0,-3]],[[4005,3920],[-1,-2],[-1,-2]],[[4003,3916],[-4,-6],[-2,-1],[-30,-25],[-275,-18],[-34,-68]],[[3658,3798],[34,67],[259,11],[16,8],[31,24],[2,3],[3,5]],[[4003,3916],[2,4]],[[4005,3920],[1,3],[-4,72],[13,41],[-1,43],[-8,17]],[[3531,3899],[-2,-26]],[[3529,3873],[2,26]],[[1559,0],[221,170],[84,24],[242,-115],[12,62],[103,-1],[40,-28],[118,57],[172,37]],[[4096,288],[-210,38],[-307,-63],[-254,109]],[[2098,4032],[-2,0]],[[2097,4030],[1,1]],[[2109,78],[-4,1]],[[3472,3813],[-19,-7]],[[3111,419],[27,-21],[-4,-60]],[[3134,338],[-1,-1]],[[3134,337],[0,1]],[[3521,4009],[-1,2]],[[2842,570],[18,-47]],[[2199,624],[-7,0]],[[2781,254],[-21,2]],[[2083,4094],[-87,2]],[[2747,257]],[[2892,293],[-1,-1]],[[2899,287],[1,1]],[[2192,624],[-16,2]],[[2860,523],[53,-81]],[[2636,419],[28,-18]],[[2776,2330],[-28,-110],[-28,-119],[38,-146],[39,-134],[8,-22],[7,-16]],[[2812,1783],[21,-51],[7,-17],[0,-5]],[[2840,1710],[6,-253],[1,-83],[-21,-89],[-1,-4],[20,-80],[-8,-233],[1,-28]],[[2838,940],[1,-40]],[[2838,899],[-1,17],[1,24]],[[2838,940],[4,170],[4,92],[-20,79],[21,93],[-2,322],[-5,14]],[[2840,1710],[-28,73]],[[2812,1783],[-8,20],[-6,15],[-77,283],[55,229]],[[2992,2849],[-191,-425]],[[2801,2422],[67,118],[125,308]],[[3071,3264],[-70,-82],[1,-106],[14,-138],[3,-19],[-19,-55]],[[3000,2864],[19,55],[-18,263],[70,81]],[[3658,3798],[-85,-35],[-90,32],[-4,-12],[4,-8],[1,-2],[1,-3]],[[3485,3770],[1,-3],[-1,-11],[-51,-121],[-4,-4]],[[3430,3631],[-48,-42],[-189,-149],[-1,-2]],[[3192,3438],[-32,-64]],[[3160,3374],[-1,-1],[-1,-9]],[[3158,3364],[0,-1],[-15,-22]],[[3143,3341],[-10,-14],[-34,-31]],[[3099,3295],[34,31],[10,15]],[[3143,3341],[15,23]],[[3158,3364],[0,1],[1,8],[1,1]],[[3160,3374],[9,45],[23,19]],[[3192,3438],[178,141],[48,38],[9,9],[3,5]],[[3430,3631],[55,139]],[[3485,3770],[2,4],[0,7],[86,-19],[81,22],[4,14]],[[2916,432],[3,0]],[[2919,433],[-2,2]],[[2930,429],[1,0]],[[3019,410],[5,1]],[[2099,4034],[28,59]],[[2903,285],[1,1]],[[3630,4089],[0,7]],[[2302,622],[-103,2]],[[3071,445],[-32,-33]],[[3073,321],[-130,-58]],[[3519,4009],[12,-110]],[[3531,3899],[2,21],[1,42],[-13,47]],[[1475,1530]],[[3248,3755],[-83,-3]],[[3248,3755],[56,12]],[[3305,3768],[-57,-13]],[[3529,3873],[-44,-63]],[[3504,3805],[25,68]],[[3521,4009],[-2,0]],[[3117,331],[-25,-16]],[[2760,256],[-7,1]],[[3071,445],[35,-22]],[[1458,1545],[-138,84],[-140,23],[-210,-29],[-69,-46],[-642,-185],[-259,-14]],[[2176,626],[-52,7],[-13,92],[-94,47],[-214,213],[-46,177],[-46,49],[-36,118],[-164,145]],[[2302,622],[334,-203]],[[1273,4096],[-197,-47],[-495,47]],[[2100,4030],[-1,4],[-3,-2],[1,-2],[3,0]],[[2698,3841],[-230,93],[-368,96]],[[3165,3752],[-231,-6],[-234,95]],[[3304,3767],[200,38]],[[3453,3806],[-148,-38]],[[3485,3810],[-14,-2]],[[2698,3841],[1,-1],[1,1]],[[2700,3841],[-1,1],[-1,-1]],[[2919,277],[6,-5],[12,-8]],[[2937,265],[-18,12]],[[2941,263],[2,-1]],[[2943,263],[-1,0]],[[3572,4085],[-39,-30],[0,-1]],[[3533,4054],[-13,-40]],[[3520,4014],[-1,-5]],[[3520,4011],[0,3]],[[3520,4014],[3,32],[10,8]],[[3533,4054],[0,1],[39,30]],[[2888,295],[15,-10]],[[2904,286],[-16,9]],[[2907,285],[-3,1]],[[2907,285],[12,-8]],[[2919,277],[-12,8]],[[3258,389],[-125,-52]],[[0,4096],[4096,0],[0,-3860],[-19,4],[-34,-20],[-261,44],[-314,-113],[-125,-4],[-377,70],[-100,-38],[-168,-179],[-2698,0],[0,4096]],[[1438,2934],[91,-19],[25,51],[47,-14],[2,-85],[-30,-16],[-26,42],[-43,9],[-37,-19],[-29,51]],[[2006,578],[7,63],[192,-17],[21,-102],[-205,-21],[-15,77]],[[2662,2707],[6,27],[81,-24],[11,-94],[-41,-7],[-57,98]],[[0,249],[39,-4],[-39,50],[0,47],[70,-67],[50,70],[43,3],[-65,-92],[32,-57],[-24,-47],[-27,57],[-79,2],[0,38]],[[2776,884],[114,28],[145,-130],[0,-48],[98,0],[32,-96],[97,48],[97,-96],[-31,-99],[-4,-173],[-106,-148],[-252,47],[-100,-38],[-184,-179],[-35,111],[-97,96],[97,240],[8,234],[-8,53],[-33,0],[13,40],[76,143],[41,9],[32,-42]],[[2777,2603],[15,-54],[17,-234],[-161,73],[-53,77],[-13,138],[26,-8],[39,56],[130,-48]],[[2933,3099],[41,-56],[29,-201],[-98,60],[-78,-67],[-18,55],[-101,-57],[-61,9],[0,144],[65,0],[32,96],[104,-10],[25,10],[1,48],[59,-31]],[[2485,2986],[-124,32],[-35,57],[-3,103],[69,-6],[49,-35],[44,-151]],[[3089,3315],[44,-89],[161,48],[1,-48],[72,-32],[26,-53],[-2,-107],[-23,-29],[-106,-19],[-110,-103],[-52,7],[26,97],[-50,207],[-8,128],[21,-7]],[[1898,4096],[185,0],[14,-104],[-198,102],[-1,2]],[[2661,4096],[1435,0],[0,-319],[-57,-120],[-60,20],[-103,171],[-38,9],[-103,-127],[-53,23],[0,47],[-52,-4],[-38,38],[-71,-34],[-136,36],[-58,-35],[-65,-96],[-97,48],[-130,0],[0,48],[-323,47],[-98,144],[47,104]],[[26,77],[86,3],[-16,63],[25,38],[31,-79],[40,-8],[-33,-14],[-2,-64],[-23,-16],[-26,0],[10,43],[-92,34]],[[3206,564],[61,33],[-6,32],[68,-11],[-2,-60],[-23,-16],[-41,-7],[-3,24],[-25,-17],[-29,22]],[[1418,1456],[31,14],[26,157],[31,12],[13,-40],[-31,-28],[34,-53],[-11,-44],[-91,-50],[-2,32]],[[3240,4096],[61,0],[9,-6],[-53,-137],[-3,98],[-91,12],[77,33]],[[2466,2797],[196,-61],[-2,-41],[51,-92],[-13,-66],[-89,24],[25,82],[-21,6],[-8,-25],[-132,54],[-3,43],[52,33],[-55,1],[-1,42]],[[982,586],[68,23],[55,-114],[-51,-7],[-20,23],[-14,-17],[-21,23],[-13,-17],[22,41],[-26,45]]]}