{"objects":{"water":{"type":"GeometryCollection","geometries":[{"type":"Polygon","properties":{"source":"naturalearthdata.com","kind":"ocean","area":1576712559132672,"sort_rank":200,"min_zoom":0.0,"id":1},"arcs":[[9]]},{"type":"LineString","properties":{"source":"naturalearthdata.com","kind":"ocean","sort_rank":205,"boundary":true,"min_zoom":0.0,"id":50},"arcs":[10]},{"type":"LineString","properties":{"source":"naturalearthdata.com","kind":"ocean","sort_rank":205,"boundary":true,"min_zoom":0.0,"id":52},"arcs":[11]}]},"buildings":{"type":"GeometryCollection","geometries":[]},"places":{"type":"GeometryCollection","geometries":[{"type":"Point","properties":{"kind":"locality","name:en":"Temryuk","name":"\u0422\u0435\u043c\u0440\u044e\u043a","kind_detail":"town","min_zoom":8.0,"name:de":"Temrjuk","source":"openstreetmap.org","name:fr":"Temriouk","name:az":"Temr\u00fck","id":29751525,"population":39164},"coordinates":[2412,775]},{"type":"Point","properties":{"kind":"locality","name:en":"Varenikovskaya","name":"\u0412\u0430\u0440\u0435\u043d\u0438\u043a\u043e\u0432\u0441\u043a\u0430\u044f","kind_detail":"town","name:de":"Warenikowskaja","source":"openstreetmap.org","min_zoom":8.0,"name:uk":"\u0412\u0430\u0440\u0435\u043d\u0438\u043a\u0456\u0432\u0441\u044c\u043a\u0430","name:hy":"\u054e\u0561\u0580\u0565\u0576\u056b\u056f\u0578\u057e\u057d\u056f\u0561\u0575\u0561","id":296937624,"population":14881},"coordinates":[3135,134]},{"type":"Point","properties":{"kind":"locality","name:en":"Petrovskaya","name":"\u041f\u0435\u0442\u0440\u043e\u0432\u0441\u043a\u0430\u044f","kind_detail":"town","name:de":"Petrowskaja","source":"openstreetmap.org","min_zoom":8.0,"id":356773423,"name:es":"Petr\u00f3vskaya","population":13554},"coordinates":[4061,1420]},{"type":"Point","properties":{"kind":"locality","name:en":"Starotitarovskaya","name":"\u0421\u0442\u0430\u0440\u043e\u0442\u0438\u0442\u0430\u0440\u043e\u0432\u0441\u043a\u0430\u044f","kind_detail":"town","name:de":"Starotitarowskaja","source":"openstreetmap.org","min_zoom":8.0,"name:uk":"\u0421\u0442\u0430\u0440\u043e\u0442\u0456\u0442\u0430\u0440\u043e\u0432\u0441\u044c\u043a\u0430","id":296992985,"name:es":"Starot\u00edtarovskaya","population":12164},"coordinates":[1705,540]},{"type":"Point","properties":{"kind":"locality","name:en":"Taman","name:nl":"Taman","name":"\u0422\u0430\u043c\u0430\u043d\u044c","name:lt":"Taman\u0117","kind_detail":"town","min_zoom":8.0,"name:de":"Taman","source":"openstreetmap.org","name:fr":"Taman","name:la":"Tamanum","id":477458866,"name:es":"Tam\u00e1n","population":10027},"coordinates":[456,528]}]},"transit":{"type":"GeometryCollection","geometries":[{"type":"MultiLineString","properties":{"kind":"train","network":"\u0420\u0416\u0414","sort_rank":275,"source":"openstreetmap.org","min_zoom":6.0,"ref":"151\/1 \u041c\u043e\u0441\u043a\u0432\u0430 \u2014 \u0410\u043d\u0430\u043f\u0430","osm_relation":true,"name":"\u041c\u043e\u0441\u043a\u0432\u0430 \u2014 \u0410\u043d\u0430\u043f\u0430"},"arcs":[[6],[7],[8]]}]},"pois":{"type":"GeometryCollection","geometries":[{"type":"Point","properties":{"kind":"nature_reserve","protect_class":"4","area":822105000,"source":"openstreetmap.org","min_zoom":7.45,"tier":2,"id":505345583,"name":"\u041f\u0440\u0438\u0430\u0437\u043e\u0432\u0441\u043a\u0438\u0439 \u0437\u0430\u043a\u0430\u0437\u043d\u0438\u043a"},"coordinates":[3422,2098]}]},"boundaries":{"type":"GeometryCollection","geometries":[{"type":"LineString","properties":{"name:kg":"Ukrayina","name:ka":"\u10e3\u10d9\u10e0\u10d0\u10d8\u10dc\u10d0","name:ko":"\uc6b0\ud06c\ub77c\uc774\ub098","name:cv":"\u0423\u043a\u0440\u0430\u0438\u043d\u0430","name:cu":"\u041e\u0443\u043a\u0440\u0430\u0438\u043d\u0430","name:kl":"Ukraine","name:cs":"Ukrajina","name:tw":"Ukraine","name:tt":"\u0423\u043a\u0440\u0430\u0438\u043d\u0430","name:kw":"Ukrayn","name:kv":"\u0423\u043a\u0440\u0430\u0438\u043d\u0430","name:th":"\u0e1b\u0e23\u0e30\u0e40\u0e17\u0e28\u0e22\u0e39\u0e40\u0e04\u0e23\u0e19","name:tl":"Ukranya","name:ce":"\u0423\u043a\u0440\u0430\u0438\u043d\u0430","name:ta":"\u0b89\u0b95\u0bcd\u0bb0\u0bc8\u0ba9\u0bcd","name:tg":"\u0423\u043a\u0440\u0430\u0439\u0438\u043d\u0430","name:ca":"Ucra\u00efna","name:te":"\u0c09\u0c15\u0c4d\u0c30\u0c46\u0c2f\u0c3f\u0c28\u0c4d","name:cy":"Wcr\u00e1in","name:hr":"Ukrajina","name:da":"Ukraine","name:de":"Ukraine","source":"openstreetmap.org","name:kn":"\u0caf\u0cc1\u0c95\u0ccd\u0cb0\u0cc7\u0ca8\u0ccd","name:dv":"\u0794\u07aa\u0786\u07b0\u0783\u07ac\u0787\u07a8\u0782\u07b0","name:km":"\u17a2\u17ca\u17bb\u1799\u1780\u17d2\u179a\u17c2\u1793","name:lv":"Ukraina","name:lt":"Ukraina","name:uz":"Ukraina","name:kk":"\u0423\u043a\u0440\u0430\u0438\u043d\u0430","name:ur":"\u06cc\u0648\u06a9\u0631\u06cc\u0646","name:lb":"Ukrain","name:la":"Ucraina","name:ug":"\u0626\u06c7\u0643\u0631\u0627\u0626\u0649\u0646\u0627","name:li":"Oekra\u00efne","name:ln":"Ukraine","name:el":"\u039f\u03c5\u03ba\u03c1\u03b1\u03bd\u03af\u03b1","name:eo":"Ukrainujo","name:en":"Ukraine","name":"\u0423\u043a\u0440\u0430\u0457\u043d\u0430","name:tk":"Ukraina","name:ee":"Ukraine","name:ku":"\u00dbkrayna","name:eu":"Ukraina","name:et":"Ukraina","name:es":"Ucrania","name:ia":"Ukraina","name:rm":"Ucraina","name:az":"Ukrayna","name:ie":"Ucraina","name:id":"Ukraina","name:ig":"Yukrain","name:ar":"\u0623\u0648\u0643\u0631\u0627\u0646\u064a\u0627","name:io":"Ukrainia","name:is":"\u00dakra\u00edna","name:am":"\u12e9\u12ad\u122c\u1295","name:it":"Ucraina","name:an":"Ucra\u00edna","name:ru":"\u0423\u043a\u0440\u0430\u0438\u043d\u0430","name:ab":"\u0423\u043a\u0440\u0430\u0438\u043d\u0430","name:af":"Oekra\u00efne","kind_detail":"2","name:ky":"\u0423\u043a\u0440\u0430\u0438\u043d\u0430","name:zh-yue":"\u70cf\u514b\u862d","name:zh":"\u4e4c\u514b\u5170","name:so":"Ukrain","name:sn":"Ukraine","name:sm":"Ukraine","name:sl":"Ukrajina","name:sk":"Ukrajina","name:ja":"\u30a6\u30af\u30e9\u30a4\u30ca","name:sh":"Ukrajina","name:se":"Ukraina","name:sc":"Ucraina","name:br":"Ukraina","name:bs":"Ukrajina","name:bn":"\u0987\u0989\u0995\u09cd\u09b0\u09c7\u09a8","name:bo":"\u0f68\u0f74\u0f40\u0f0b\u0f62\u0f61\u0f72\u0f0b\u0f53\u0f72\u0f0d","name:bi":"Ukraine","name:sw":"Ukraine","name:be":"\u0423\u043a\u0440\u0430\u0456\u043d\u0430","name:su":"Ukraina","name:bg":"\u0423\u043a\u0440\u0430\u0439\u043d\u0430","name:ss":"IYukhureni","name:ba":"\u0423\u043a\u0440\u0430\u0438\u043d\u0430","name:sq":"Ukraina","name:jv":"Ukraina","name:pt":"Ucr\u00e2nia","name:ps":"\u0627\u0648\u06a9\u0631\u0627\u06cc\u0646","name:oc":"Ucra\u00efna","min_zoom":8.0,"name:ro":"Ucraina","name:zh-min-nan":"Ukrayina","name:os":"\u0423\u043a\u0440\u0430\u0438\u043d\u00e6","name:or":"\u0b5f\u0b41\u0b15\u0b4d\u0b30\u0b47\u0b28","name:pl":"Ukraina","sort_rank":262,"name:sr":"\u0423\u043a\u0440\u0430\u0458\u0438\u043d\u0430","osm_relation":true,"name:pa":"\u0a2f\u0a42\u0a15\u0a4d\u0a30\u0a47\u0a28","name:tr":"Ukrayna","name:hi":"\u092f\u0941\u0915\u094d\u0930\u0947\u0928","name:sv":"Ukraina","name:he":"\u05d0\u05d5\u05e7\u05e8\u05d0\u05d9\u05e0\u05d4","name:hy":"\u0548\u0582\u056f\u0580\u0561\u056b\u0576\u0561","name:ht":"Ikr\u00e8n","name:hu":"Ukrajna","name:qu":"Ukranya","kind":"country","name:ts":"Ukraine","name:yi":"\u05d0\u05d5\u05e7\u05e8\u05d0\u05d9\u05e0\u05e2","name:yo":"Ukr\u00e9\u00ecn","name:mt":"Ukrajna","alt_name:eo":"Ukrainio","name:ms":"Ukraine","name:mr":"\u092f\u0941\u0915\u094d\u0930\u0947\u0928","name:my":"\u101a\u1030\u1000\u101b\u102d\u1014\u103a\u1038\u1014\u102d\u102f\u1004\u103a\u1004\u1036","int_name":"Ukraine","name:mg":"Okraina","name:ml":"\u0d09\u0d15\u0d4d\u0d30\u0d48\u0d7b","name:vi":"Ukraina","name:mn":"\u0423\u043a\u0440\u0430\u0439\u043d","name:mi":"\u016akareinga","id":-60199,"name:mk":"\u0423\u043a\u0440\u0430\u0438\u043d\u0430","name:vo":"Lukray\u00e4n","name:fa":"\u0627\u0648\u06a9\u0631\u0627\u06cc\u0646","name:rw":"Ikerene","name:fi":"Ukraina","old_name:vi":"\u00d4 Kh\u1eafc Lan","name:fo":"Ukraina","alt_name:vi":"Uy Ki\u00ean","name:fr":"Ukraine","name:fy":"Oekra\u00efne","name:nl":"Oekra\u00efne","name:nn":"Ukraina","name:no":"Ukraina","name:na":"Ukraine","name:ne":"\u092f\u0941\u0915\u094d\u0930\u0947\u0928","name:wa":"Oucrinne","name:wo":"Ukreen","name:nv":"Y\u00f3\u00f3kwein","name:ga":"An \u00dacr\u00e1in","name:gd":"An Ucr\u00e0in","name:gn":"Ukya\u00f1a","name:gl":"Ucra\u00edna","name:gv":"Yn Ookraan","name:gu":"\u0aaf\u0ac1\u0a95\u0acd\u0ab0\u0ac7\u0aa8"},"arcs":[0]},{"type":"LineString","properties":{"name:kg":"Ukrayina","name:ka":"\u10e3\u10d9\u10e0\u10d0\u10d8\u10dc\u10d0","name:ko":"\uc6b0\ud06c\ub77c\uc774\ub098","name:cv":"\u0423\u043a\u0440\u0430\u0438\u043d\u0430","name:cu":"\u041e\u0443\u043a\u0440\u0430\u0438\u043d\u0430","name:kl":"Ukraine","name:cs":"Ukrajina","name:tw":"Ukraine","name:tt":"\u0423\u043a\u0440\u0430\u0438\u043d\u0430","name:kw":"Ukrayn","name:kv":"\u0423\u043a\u0440\u0430\u0438\u043d\u0430","name:th":"\u0e1b\u0e23\u0e30\u0e40\u0e17\u0e28\u0e22\u0e39\u0e40\u0e04\u0e23\u0e19","name:tl":"Ukranya","name:ce":"\u0423\u043a\u0440\u0430\u0438\u043d\u0430","name:ta":"\u0b89\u0b95\u0bcd\u0bb0\u0bc8\u0ba9\u0bcd","name:tg":"\u0423\u043a\u0440\u0430\u0439\u0438\u043d\u0430","name:ca":"Ucra\u00efna","name:te":"\u0c09\u0c15\u0c4d\u0c30\u0c46\u0c2f\u0c3f\u0c28\u0c4d","name:cy":"Wcr\u00e1in","name:qu":"Ukranya","name:da":"Ukraine","name:de":"Ukraine","source":"openstreetmap.org","name:kn":"\u0caf\u0cc1\u0c95\u0ccd\u0cb0\u0cc7\u0ca8\u0ccd","name:dv":"\u0794\u07aa\u0786\u07b0\u0783\u07ac\u0787\u07a8\u0782\u07b0","name:km":"\u17a2\u17ca\u17bb\u1799\u1780\u17d2\u179a\u17c2\u1793","name:lv":"Ukraina","name:lt":"Ukraina","name:uz":"Ukraina","name:kk":"\u0423\u043a\u0440\u0430\u0438\u043d\u0430","name:ur":"\u06cc\u0648\u06a9\u0631\u06cc\u0646","name:lb":"Ukrain","name:la":"Ucraina","name:ug":"\u0626\u06c7\u0643\u0631\u0627\u0626\u0649\u0646\u0627","name:li":"Oekra\u00efne","name:ln":"Ukraine","name:el":"\u039f\u03c5\u03ba\u03c1\u03b1\u03bd\u03af\u03b1","name:eo":"Ukrainujo","name:en":"Ukraine","name":"\u0423\u043a\u0440\u0430\u0457\u043d\u0430","name:tk":"Ukraina","name:ee":"Ukraine","name:ku":"\u00dbkrayna","name:eu":"Ukraina","name:et":"Ukraina","name:es":"Ucrania","name:ia":"Ukraina","name:rm":"Ucraina","name:az":"Ukrayna","name:ie":"Ucraina","name:id":"Ukraina","name:ig":"Yukrain","name:ar":"\u0623\u0648\u0643\u0631\u0627\u0646\u064a\u0627","name:io":"Ukrainia","name:is":"\u00dakra\u00edna","name:am":"\u12e9\u12ad\u122c\u1295","name:it":"Ucraina","name:an":"Ucra\u00edna","name:ru":"\u0423\u043a\u0440\u0430\u0438\u043d\u0430","name:ab":"\u0423\u043a\u0440\u0430\u0438\u043d\u0430","name:af":"Oekra\u00efne","kind_detail":"2","name:ky":"\u0423\u043a\u0440\u0430\u0438\u043d\u0430","name:zh-yue":"\u70cf\u514b\u862d","name:zh":"\u4e4c\u514b\u5170","name:so":"Ukrain","name:sn":"Ukraine","name:sm":"Ukraine","name:sl":"Ukrajina","name:sk":"Ukrajina","name:ja":"\u30a6\u30af\u30e9\u30a4\u30ca","name:sh":"Ukrajina","name:se":"Ukraina","name:sc":"Ucraina","name:br":"Ukraina","name:bs":"Ukrajina","name:bn":"\u0987\u0989\u0995\u09cd\u09b0\u09c7\u09a8","name:bo":"\u0f68\u0f74\u0f40\u0f0b\u0f62\u0f61\u0f72\u0f0b\u0f53\u0f72\u0f0d","name:bi":"Ukraine","name:sw":"Ukraine","name:be":"\u0423\u043a\u0440\u0430\u0456\u043d\u0430","name:su":"Ukraina","name:bg":"\u0423\u043a\u0440\u0430\u0439\u043d\u0430","name:ss":"IYukhureni","name:ba":"\u0423\u043a\u0440\u0430\u0438\u043d\u0430","name:sq":"Ukraina","name:jv":"Ukraina","name:pt":"Ucr\u00e2nia","name:ps":"\u0627\u0648\u06a9\u0631\u0627\u06cc\u0646","name:oc":"Ucra\u00efna","min_zoom":8.0,"name:ro":"Ucraina","name:zh-min-nan":"Ukrayina","name:os":"\u0423\u043a\u0440\u0430\u0438\u043d\u00e6","name:or":"\u0b5f\u0b41\u0b15\u0b4d\u0b30\u0b47\u0b28","name:pl":"Ukraina","sort_rank":262,"name:sr":"\u0423\u043a\u0440\u0430\u0458\u0438\u043d\u0430","osm_relation":true,"name:pa":"\u0a2f\u0a42\u0a15\u0a4d\u0a30\u0a47\u0a28","name:tr":"Ukrayna","name:hi":"\u092f\u0941\u0915\u094d\u0930\u0947\u0928","name:sv":"Ukraina","name:he":"\u05d0\u05d5\u05e7\u05e8\u05d0\u05d9\u05e0\u05d4","name:hy":"\u0548\u0582\u056f\u0580\u0561\u056b\u0576\u0561","name:ht":"Ikr\u00e8n","name:hu":"Ukrajna","name:hr":"Ukrajina","kind":"country","name:ts":"Ukraine","name:yi":"\u05d0\u05d5\u05e7\u05e8\u05d0\u05d9\u05e0\u05e2","name:yo":"Ukr\u00e9\u00ecn","name:mt":"Ukrajna","alt_name:eo":"Ukrainio","name:ms":"Ukraine","name:mr":"\u092f\u0941\u0915\u094d\u0930\u0947\u0928","name:my":"\u101a\u1030\u1000\u101b\u102d\u1014\u103a\u1038\u1014\u102d\u102f\u1004\u103a\u1004\u1036","int_name":"Ukraine","name:mg":"Okraina","name:vi":"Ukraina","name:ml":"\u0d09\u0d15\u0d4d\u0d30\u0d48\u0d7b","name:mn":"\u0423\u043a\u0440\u0430\u0439\u043d","name:mi":"\u016akareinga","id":-60199,"name:mk":"\u0423\u043a\u0440\u0430\u0438\u043d\u0430","name:vo":"Lukray\u00e4n","name:fa":"\u0627\u0648\u06a9\u0631\u0627\u06cc\u0646","name:rw":"Ikerene","name:fi":"Ukraina","old_name:vi":"\u00d4 Kh\u1eafc Lan","name:fo":"Ukraina","alt_name:vi":"Uy Ki\u00ean","name:fr":"Ukraine","name:fy":"Oekra\u00efne","name:nl":"Oekra\u00efne","name:nn":"Ukraina","name:no":"Ukraina","name:na":"Ukraine","name:ne":"\u092f\u0941\u0915\u094d\u0930\u0947\u0928","name:wa":"Oucrinne","name:wo":"Ukreen","name:nv":"Y\u00f3\u00f3kwein","name:ga":"An \u00dacr\u00e1in","name:gd":"An Ucr\u00e0in","name:gn":"Ukya\u00f1a","name:gl":"Ucra\u00edna","maritime_boundary":true,"name:gv":"Yn Ookraan","name:gu":"\u0aaf\u0ac1\u0a95\u0acd\u0ab0\u0ac7\u0aa8"},"arcs":[1]},{"type":"LineString","properties":{"name:right:hy":"\u053f\u0580\u0561\u057d\u0576\u0578\u0564\u0561\u0580\u056b \u0565\u0580\u056f\u0580\u0561\u0574\u0561\u057d","name:right:uk":"\u041a\u0440\u0430\u0441\u043d\u043e\u0434\u0430\u0440\u0441\u044c\u043a\u0438\u0439 \u043a\u0440\u0430\u0439","name:right:hu":"Krasznodari hat\u00e1rter\u00fclet","name:left:sr":"\u0420\u0435\u043f\u0443\u0431\u043b\u0438\u043a\u0430 \u041a\u0440\u0438\u043c","name:right:lt":"Krasnodaro kra\u0161tas","min_zoom":8.0,"name:right:he":"\u05de\u05d7\u05d5\u05d6 \u05e7\u05e8\u05e1\u05e0\u05d5\u05d3\u05d0\u05e8","sort_rank":256,"name:left:ca":"Rep\u00fablica de Crimea","int_name:right":"Krasnodar Krai","source":"openstreetmap.org","name:left:vi":"C\u1ed9ng h\u00f2a Krym","name:right:az":"Krasnodar diyar\u0131","name:left:cs":"Republika Krym","name:left":"\u0420\u0435\u0441\u043f\u0443\u0431\u043b\u0438\u043a\u0430 \u041a\u0440\u044b\u043c","name:right:mn":"\u041a\u0440\u0430\u0441\u043d\u043e\u0434\u0430\u0440\u044b\u043d \u0445\u044f\u0437\u0433\u0430\u0430\u0440","name:right:eu":"Krasnodar kraia","name:right:et":"Krasnodari krai","name:right:it":"Territorio di Krasnodar","name:right:vi":"Krasnodar (v\u00f9ng)","name:right:ro":"\u021ainutul Krasnodar","name:right:sv":"Krasnodar kraj","name:right:eo":"Krasnodara regiono","name:right:en":"Krasnodar Krai","name:right:el":"\u039a\u03c1\u03ac\u03b9 \u039a\u03c1\u03b1\u03c3\u03bd\u03bf\u03bd\u03c4\u03ac\u03c1","kind":"region","name":"\u0420\u0435\u0441\u043f\u0443\u0431\u043b\u0438\u043a\u0430 \u041a\u0440\u044b\u043c - \u041a\u0440\u0430\u0441\u043d\u043e\u0434\u0430\u0440\u0441\u043a\u0438\u0439 \u043a\u0440\u0430\u0439","name:right:ba":"\u041a\u0440\u0430\u0441\u043d\u043e\u0434\u0430\u0440 \u043a\u0440\u0430\u0439\u044b","name:right:lv":"Krasnodaras novads","name:right:be":"\u041a\u0440\u0430\u0441\u043d\u0430\u0434\u0430\u0440\u0441\u043a\u0456 \u043a\u0440\u0430\u0439","name:left:zh":"\u514b\u91cc\u7c73\u4e9a\u5171\u548c\u56fd","name:left:fr":"R\u00e9publique de Crim\u00e9e","name:right:zh":"\u514b\u62c9\u65af\u8bfa\u8fbe\u5c14\u8fb9\u7586\u533a","name:right:nl":"Kraj Krasnodar","name:right:ja":"\u30af\u30e9\u30b9\u30ce\u30c0\u30fc\u30eb\u5730\u65b9","name:right:fr":"Kra\u00ef de Krasnodar","name:right:sr":"\u041a\u0440\u0430\u0441\u043d\u043e\u0434\u0430\u0440\u0441\u043a\u0430 \u041f\u043e\u043a\u0440\u0430\u0458\u0438\u043d\u0430","id:right":-108082,"name:left:uk":"\u0420\u0435\u0441\u043f\u0443\u0431\u043b\u0456\u043a\u0430 \u041a\u0440\u0438\u043c","name:right:sh":"Krasnodarski kraj","name:left:nl":"Republiek de Krim","name:right:sl":"Krasnodarski kraj","name:left:be":"\u0420\u044d\u0441\u043f\u0443\u0431\u043b\u0456\u043a\u0430 \u041a\u0440\u044b\u043c","id":-3795586,"name:right":"\u041a\u0440\u0430\u0441\u043d\u043e\u0434\u0430\u0440\u0441\u043a\u0438\u0439 \u043a\u0440\u0430\u0439","name:left:eo":"Respubliko Krimeo","name:left:en":"Republic of Crimea","name:left:el":"\u0394\u03b7\u03bc\u03bf\u03ba\u03c1\u03b1\u03c4\u03af\u03b1 \u03c4\u03b7\u03c2 \u039a\u03c1\u03b9\u03bc\u03b1\u03af\u03b1\u03c2","name:right:ca":"Territori de Krasnodar","kind_detail":"4","name:right:ce":"\u041a\u0440\u0430\u0441\u043d\u043e\u0434\u0430\u0440\u0430\u043d \u043c\u0435\u0445\u043a\u0430\u0439\u0438\u0441\u0442","name:right:tt":"\u041a\u0440\u0430\u0441\u043d\u043e\u0434\u0430\u0440 \u043a\u0440\u0430\u0435","id:left":-3795586,"name:left:es":"Rep\u00fablica de Crimea","name:right:cs":"Krasnodarsk\u00fd kraj","name:left:eu":"Krimeako Errepublika","name:right:cv":"\u041a\u0440\u0430\u0441\u043d\u043e\u0434\u0430\u0440 \u0415\u043d","name:right:ka":"\u10d9\u10e0\u10d0\u10e1\u10dc\u10dd\u10d3\u10d0\u10e0\u10d8\u10e1 \u10db\u10ee\u10d0\u10e0\u10d4","name:right:pt":"Krai de Krasnodar","name:left:ar":"\u062c\u0645\u0647\u0648\u0631\u064a\u0629 \u0627\u0644\u0642\u0631\u0645","name:left:pl":"Republika Krymu","name:left:tr":"K\u0131r\u0131m Cumhuriyeti","name:left:tt":"\u041a\u044b\u0440\u044b\u043c \u0496\u04e9\u043c\u04bb\u04af\u0440\u0438\u044f\u0442\u0435","name:right:tr":"Krasnodar Kray\u0131","name:right:bg":"\u041a\u0440\u0430\u0441\u043d\u043e\u0434\u0430\u0440\u0441\u043a\u0438 \u043a\u0440\u0430\u0439","name:left:pt":"Rep\u00fablica da Crimeia","name:right:pl":"Kraj Krasnodarski","osm_relation":true,"name:right:de":"Region Krasnodar","name:left:de":"Republik Krim"},"arcs":[2]},{"type":"LineString","properties":{"name:right:hy":"\u0542\u0580\u056b\u0574\u056b \u053b\u0576\u0584\u0576\u0561\u057e\u0561\u0580 \u0540\u0561\u0576\u0580\u0561\u057a\u0565\u057f\u0578\u0582\u0569\u0575\u0578\u0582\u0576","name:right:hu":"Kr\u00edmi Auton\u00f3m K\u00f6zt\u00e1rsas\u00e1g","name:left:sr":"\u0420\u0435\u043f\u0443\u0431\u043b\u0438\u043a\u0430 \u041a\u0440\u0438\u043c","name:right:lt":"Krymo autonomin\u0117 respublika","min_zoom":8.0,"sort_rank":256,"name:left:ca":"Rep\u00fablica de Crimea","source":"openstreetmap.org","name:right:os":"\u0425\u044a\u044b\u0440\u044b\u043c\u044b \u0410\u0432\u0442\u043e\u043d\u043e\u043c\u043e\u043d \u0420\u0435\u0441\u043f\u0443\u0431\u043b\u0438\u043a\u00e6","name:right:el":"\u0391\u03c5\u03c4\u03cc\u03bd\u03bf\u03bc\u03b7 \u0394\u03b7\u03bc\u03bf\u03ba\u03c1\u03b1\u03c4\u03af\u03b1 \u03c4\u03b7\u03c2 \u039a\u03c1\u03b9\u03bc\u03b1\u03af\u03b1\u03c2","name:right:az":"Kr\u0131m Muxtar Respublikas\u0131","name:left:cs":"Republika Krym","name:left":"\u0420\u0435\u0441\u043f\u0443\u0431\u043b\u0438\u043a\u0430 \u041a\u0440\u044b\u043c","name:right:mk":"\u0410\u0432\u0442\u043e\u043d\u043e\u043c\u043d\u0430 \u0420\u0435\u043f\u0443\u0431\u043b\u0438\u043a\u0430 \u041a\u0440\u0438\u043c","name:right:it":"Repubblica autonoma di Crimea","name:right:ru":"\u0410\u0432\u0442\u043e\u043d\u043e\u043c\u043d\u0430\u044f \u0420\u0435\u0441\u043f\u0443\u0431\u043b\u0438\u043a\u0430 \u041a\u0440\u044b\u043c","id:right":-72639,"name:right:eo":"A\u016dtonoma Respubliko Krimeo","name:right:en":"Autonomous Republic of Crimea","name:left:vi":"C\u1ed9ng h\u00f2a Krym","kind":"region","name":"\u0420\u0435\u0441\u043f\u0443\u0431\u043b\u0438\u043a\u0430 \u041a\u0440\u044b\u043c - \u0410\u0432\u0442\u043e\u043d\u043e\u043c\u043d\u0430 \u0420\u0435\u0441\u043f\u0443\u0431\u043b\u0456\u043a\u0430 \u041a\u0440\u0438\u043c","name:right:ba":"\u04a0\u044b\u0440\u044b\u043c \u0410\u0432\u0442\u043e\u043d\u043e\u043c\u0438\u044f\u043b\u044b \u0420\u0435\u0441\u043f\u0443\u0431\u043b\u0438\u043a\u0430\u04bb\u044b","name:right:be":"\u0410\u045e\u0442\u0430\u043d\u043e\u043c\u043d\u0430\u044f \u0420\u044d\u0441\u043f\u0443\u0431\u043b\u0456\u043a\u0430 \u041a\u0440\u044b\u043c","name:left:zh":"\u514b\u91cc\u7c73\u4e9a\u5171\u548c\u56fd","name:left:fr":"R\u00e9publique de Crim\u00e9e","name:right:zh":"\u514b\u91cc\u7c73\u4e9a\u81ea\u6cbb\u5171\u548c\u56fd","name:right:es":"Rep\u00fablica Aut\u00f3noma de Crimea","name:right:nl":"Autonome Republiek van de Krim","name:right:ja":"\u30af\u30ea\u30df\u30a2\u81ea\u6cbb\u5171\u548c\u56fd","name:right:fr":"R\u00e9publique Autonome de Crim\u00e9e","name:right:sv":"Autonoma republiken Krim","name:left:uk":"\u0420\u0435\u0441\u043f\u0443\u0431\u043b\u0456\u043a\u0430 \u041a\u0440\u0438\u043c","name:left:nl":"Republiek de Krim","name:left:be":"\u0420\u044d\u0441\u043f\u0443\u0431\u043b\u0456\u043a\u0430 \u041a\u0440\u044b\u043c","id":-3795586,"name:right":"\u0410\u0432\u0442\u043e\u043d\u043e\u043c\u043d\u0430 \u0420\u0435\u0441\u043f\u0443\u0431\u043b\u0456\u043a\u0430 \u041a\u0440\u0438\u043c","name:left:eo":"Respubliko Krimeo","name:left:en":"Republic of Crimea","name:left:el":"\u0394\u03b7\u03bc\u03bf\u03ba\u03c1\u03b1\u03c4\u03af\u03b1 \u03c4\u03b7\u03c2 \u039a\u03c1\u03b9\u03bc\u03b1\u03af\u03b1\u03c2","name:right:ca":"Rep\u00fablica Aut\u00f2noma de Crimea","kind_detail":"4","alt_name:right:vi":"C\u1ed9ng ho\u00e0 T\u1ef1 tr\u1ecb Cr\u01b0m,C\u1ed9ng h\u00f2a T\u1ef1 tr\u1ecb Krym,C\u1ed9ng ho\u00e0 T\u1ef1 tr\u1ecb Krym","name:left:pl":"Republika Krymu","id:left":-3795586,"name:left:es":"Rep\u00fablica de Crimea","name:right:cs":"Autonomn\u00ed republika Krym","name:right:fi":"Krimin autonominen tasavalta","name:right:cu":"\u041a\ua651\u0440\ua651\u043c\u044c\u0441\u043a\u0430 \u0410\u0475\u0442\u043e\u043d\u043e\u043c\u044c\u043d\u0430 \u0414\u0438\u043c\u043e\u043a\u0440\u0430\u0442\u0457\ua657","name:left:eu":"Krimeako Errepublika","name:right:pt":"Rep\u00fablica Aut\u00f4noma da Crimeia","name:left:ar":"\u062c\u0645\u0647\u0648\u0631\u064a\u0629 \u0627\u0644\u0642\u0631\u0645","name:right:tt":"\u041a\u044b\u0440\u044b\u043c \u0410\u0432\u0442\u043e\u043d\u043e\u043c\u0438\u044f\u043b\u0435 \u0496\u04e9\u043c\u04bb\u04af\u0440\u0438\u044f\u0442\u0435","name:left:tr":"K\u0131r\u0131m Cumhuriyeti","name:left:tt":"\u041a\u044b\u0440\u044b\u043c \u0496\u04e9\u043c\u04bb\u04af\u0440\u0438\u044f\u0442\u0435","name:right:tr":"K\u0131r\u0131m \u00d6zerk Cumhuriyeti","name:left:pt":"Rep\u00fablica da Crimeia","name:right:ko":"\ud06c\ub9bc \ubc18\ub3c4","name:right:vi":"C\u1ed9ng h\u00f2a T\u1ef1 tr\u1ecb Cr\u01b0m","name:right:pl":"Republika Autonomiczna Krymu","osm_relation":true,"name:right:de":"Autonome Republik Krim","name:left:de":"Republik Krim","maritime_boundary":true},"arcs":[3]},{"type":"LineString","properties":{"name:pt":"Krai de Krasnodar","name:az":"Krasnodar diyar\u0131","name:ka":"\u10d9\u10e0\u10d0\u10e1\u10dc\u10dd\u10d3\u10d0\u10e0\u10d8\u10e1 \u10db\u10ee\u10d0\u10e0\u10d4","name:tr":"Krasnodar Kray\u0131","name:cv":"\u041a\u0440\u0430\u0441\u043d\u043e\u0434\u0430\u0440 \u0415\u043d","name:cs":"Krasnodarsk\u00fd kraj","name:tt":"\u041a\u0440\u0430\u0441\u043d\u043e\u0434\u0430\u0440 \u043a\u0440\u0430\u0435","min_zoom":8.0,"int_name":"Krasnodar Krai","name:it":"Territorio di Krasnodar","name:be":"\u041a\u0440\u0430\u0441\u043d\u0430\u0434\u0430\u0440\u0441\u043a\u0456 \u043a\u0440\u0430\u0439","name:vi":"Krasnodar (v\u00f9ng)","name:ce":"\u041a\u0440\u0430\u0441\u043d\u043e\u0434\u0430\u0440\u0430\u043d \u043c\u0435\u0445\u043a\u0430\u0439\u0438\u0441\u0442","name:mn":"\u041a\u0440\u0430\u0441\u043d\u043e\u0434\u0430\u0440\u044b\u043d \u0445\u044f\u0437\u0433\u0430\u0430\u0440","id":-108082,"name:ca":"Territori de Krasnodar","name:lv":"Krasnodaras novads","name:hu":"Krasznodari hat\u00e1rter\u00fclet","sort_rank":256,"kind_detail":"4","name:de":"Region Krasnodar","source":"openstreetmap.org","name:fr":"Kra\u00ef de Krasnodar","name:zh":"\u514b\u62c9\u65af\u8bfa\u8fbe\u5c14\u8fb9\u7586\u533a","name:ba":"\u041a\u0440\u0430\u0441\u043d\u043e\u0434\u0430\u0440 \u043a\u0440\u0430\u0439\u044b","name:sl":"Krasnodarski kraj","name:ro":"\u021ainutul Krasnodar","name:ja":"\u30af\u30e9\u30b9\u30ce\u30c0\u30fc\u30eb\u5730\u65b9","name:lt":"Krasnodaro kra\u0161tas","name:sh":"Krasnodarski kraj","name:he":"\u05de\u05d7\u05d5\u05d6 \u05e7\u05e8\u05e1\u05e0\u05d5\u05d3\u05d0\u05e8","kind":"region","name:uk":"\u041a\u0440\u0430\u0441\u043d\u043e\u0434\u0430\u0440\u0441\u044c\u043a\u0438\u0439 \u043a\u0440\u0430\u0439","name:hy":"\u053f\u0580\u0561\u057d\u0576\u0578\u0564\u0561\u0580\u056b \u0565\u0580\u056f\u0580\u0561\u0574\u0561\u057d","name:sv":"Krasnodar kraj","name:bg":"\u041a\u0440\u0430\u0441\u043d\u043e\u0434\u0430\u0440\u0441\u043a\u0438 \u043a\u0440\u0430\u0439","name:sr":"\u041a\u0440\u0430\u0441\u043d\u043e\u0434\u0430\u0440\u0441\u043a\u0430 \u041f\u043e\u043a\u0440\u0430\u0458\u0438\u043d\u0430","osm_relation":true,"name:el":"\u039a\u03c1\u03ac\u03b9 \u039a\u03c1\u03b1\u03c3\u03bd\u03bf\u03bd\u03c4\u03ac\u03c1","name:eo":"Krasnodara regiono","name:en":"Krasnodar Krai","name":"\u041a\u0440\u0430\u0441\u043d\u043e\u0434\u0430\u0440\u0441\u043a\u0438\u0439 \u043a\u0440\u0430\u0439","name:pl":"Kraj Krasnodarski","name:eu":"Krasnodar kraia","name:et":"Krasnodari krai","name:nl":"Kraj Krasnodar"},"arcs":[4]},{"type":"LineString","properties":{"name:pt":"Krai de Krasnodar","name:az":"Krasnodar diyar\u0131","name:ka":"\u10d9\u10e0\u10d0\u10e1\u10dc\u10dd\u10d3\u10d0\u10e0\u10d8\u10e1 \u10db\u10ee\u10d0\u10e0\u10d4","name:tr":"Krasnodar Kray\u0131","name:cv":"\u041a\u0440\u0430\u0441\u043d\u043e\u0434\u0430\u0440 \u0415\u043d","name:cs":"Krasnodarsk\u00fd kraj","name:tt":"\u041a\u0440\u0430\u0441\u043d\u043e\u0434\u0430\u0440 \u043a\u0440\u0430\u0435","min_zoom":8.0,"int_name":"Krasnodar Krai","name:it":"Territorio di Krasnodar","name:sv":"Krasnodar kraj","name:vi":"Krasnodar (v\u00f9ng)","name:ce":"\u041a\u0440\u0430\u0441\u043d\u043e\u0434\u0430\u0440\u0430\u043d \u043c\u0435\u0445\u043a\u0430\u0439\u0438\u0441\u0442","name:mn":"\u041a\u0440\u0430\u0441\u043d\u043e\u0434\u0430\u0440\u044b\u043d \u0445\u044f\u0437\u0433\u0430\u0430\u0440","id":-108082,"name:ca":"Territori de Krasnodar","name:bg":"\u041a\u0440\u0430\u0441\u043d\u043e\u0434\u0430\u0440\u0441\u043a\u0438 \u043a\u0440\u0430\u0439","name:ro":"\u021ainutul Krasnodar","sort_rank":256,"kind_detail":"4","name:de":"Region Krasnodar","source":"openstreetmap.org","name:fr":"Kra\u00ef de Krasnodar","name:zh":"\u514b\u62c9\u65af\u8bfa\u8fbe\u5c14\u8fb9\u7586\u533a","name:sr":"\u041a\u0440\u0430\u0441\u043d\u043e\u0434\u0430\u0440\u0441\u043a\u0430 \u041f\u043e\u043a\u0440\u0430\u0458\u0438\u043d\u0430","name:sl":"Krasnodarski kraj","name:lv":"Krasnodaras novads","name:ja":"\u30af\u30e9\u30b9\u30ce\u30c0\u30fc\u30eb\u5730\u65b9","name:lt":"Krasnodaro kra\u0161tas","name:sh":"Krasnodarski kraj","name:he":"\u05de\u05d7\u05d5\u05d6 \u05e7\u05e8\u05e1\u05e0\u05d5\u05d3\u05d0\u05e8","name:eo":"Krasnodara regiono","name:uk":"\u041a\u0440\u0430\u0441\u043d\u043e\u0434\u0430\u0440\u0441\u044c\u043a\u0438\u0439 \u043a\u0440\u0430\u0439","name:hy":"\u053f\u0580\u0561\u057d\u0576\u0578\u0564\u0561\u0580\u056b \u0565\u0580\u056f\u0580\u0561\u0574\u0561\u057d","name:be":"\u041a\u0440\u0430\u0441\u043d\u0430\u0434\u0430\u0440\u0441\u043a\u0456 \u043a\u0440\u0430\u0439","name:hu":"Krasznodari hat\u00e1rter\u00fclet","name:ba":"\u041a\u0440\u0430\u0441\u043d\u043e\u0434\u0430\u0440 \u043a\u0440\u0430\u0439\u044b","osm_relation":true,"name:el":"\u039a\u03c1\u03ac\u03b9 \u039a\u03c1\u03b1\u03c3\u03bd\u03bf\u03bd\u03c4\u03ac\u03c1","kind":"region","name:en":"Krasnodar Krai","name":"\u041a\u0440\u0430\u0441\u043d\u043e\u0434\u0430\u0440\u0441\u043a\u0438\u0439 \u043a\u0440\u0430\u0439","maritime_boundary":true,"name:pl":"Kraj Krasnodarski","name:eu":"Krasnodar kraia","name:et":"Krasnodari krai","name:nl":"Kraj Krasnodar"},"arcs":[5]}]},"roads":{"type":"GeometryCollection","geometries":[{"type":"LineString","properties":{"kind":"major_road","name:en":"Oktyabrskaya Street","network":"ru:regional","sort_rank":380,"kind_detail":"primary","source":"openstreetmap.org","min_zoom":8.0,"int_name":"Oktyabrskaya Street","landuse_kind":"residential","shield_text":"03\u041a","ref":"03\u041a-010","id":44012567},"arcs":[12]},{"type":"LineString","properties":{"kind":"major_road","name:en":"Krasnodarskaya Street","network":"ru:regional","sort_rank":380,"kind_detail":"primary","source":"openstreetmap.org","min_zoom":8.0,"shield_text":"03\u041a","ref":"03\u041a-579","id":192932232},"arcs":[13]},{"type":"MultiLineString","properties":{"kind":"major_road","network":"ru:regional","sort_rank":380,"kind_detail":"primary","source":"openstreetmap.org","min_zoom":8.0,"shield_text":"03\u0410","ref":"03\u0410-009"},"arcs":[[14],[15],[16]]},{"type":"LineString","properties":{"source":"openstreetmap.org","kind":"ferry","name":"\u043c\u0430\u0440\u0448\u0440\u0443\u0442 \u043d\u0430 \u0417\u0430\u0442\u0435\u0440\u044f\u043d\u043d\u044b\u0439 \u043e\u0441\u0442\u0440\u043e\u0432","sort_rank":355,"landuse_kind":"urban_area","min_zoom":8.0,"id":468454266},"arcs":[17]},{"type":"MultiLineString","properties":{"bus_network":null,"network":"ru:national","sort_rank":381,"kind_detail":"trunk","kind":"major_road","source":"openstreetmap.org","min_zoom":8.0,"bus_shield_text":"\u0422\u0443\u0430\u043f\u0441\u0435 \u2014 \u041f\u043e\u0440\u0442 \u041a\u0430\u0432\u043a\u0430\u0437","shield_text":"290","ref":"\u0410-290"},"arcs":[[18],[19],[20],[21]]},{"type":"LineString","properties":{"bus_network":null,"name:en":"Shosseynaya Street","network":"ru:national","sort_rank":381,"kind_detail":"trunk","kind":"major_road","source":"openstreetmap.org","min_zoom":8.0,"bus_shield_text":"\u0422\u0443\u0430\u043f\u0441\u0435 \u2014 \u041f\u043e\u0440\u0442 \u041a\u0430\u0432\u043a\u0430\u0437","shield_text":"290","ref":"\u0410-290"},"arcs":[22]},{"type":"LineString","properties":{"kind":"major_road","name:en":"Chapayeva Street","network":"ru:regional","sort_rank":380,"kind_detail":"primary","source":"openstreetmap.org","min_zoom":8.0,"shield_text":"03\u041a","ref":"03\u041a-579","id":246782879},"arcs":[23]},{"type":"MultiLineString","properties":{"sort_rank":381,"source":"openstreetmap.org","min_zoom":8.0,"kind":"major_road","kind_detail":"trunk"},"arcs":[[24],[25]]},{"type":"LineString","properties":{"kind":"major_road","network":"ru:national","sort_rank":380,"kind_detail":"primary","source":"openstreetmap.org","min_zoom":8.0,"shield_text":"290","ref":"\u0410-290","id":401332071},"arcs":[26]},{"type":"LineString","properties":{"kind":"major_road","name:en":"Kuybysheva Street","network":"ru:regional","sort_rank":380,"landuse_kind":"residential","source":"openstreetmap.org","min_zoom":8.0,"kind_detail":"primary","shield_text":"03\u041a","ref":"03\u041a-010"},"arcs":[27]},{"type":"MultiLineString","properties":{"kind":"major_road","network":"ru:national","sort_rank":381,"kind_detail":"trunk","source":"openstreetmap.org","min_zoom":8.0,"shield_text":"290","ref":"\u0410-290"},"arcs":[[28],[29],[30],[31],[32],[33]]},{"type":"MultiLineString","properties":{"kind":"major_road","network":"ru:regional","sort_rank":380,"kind_detail":"primary","source":"openstreetmap.org","min_zoom":8.0,"landuse_kind":"residential","shield_text":"03\u0410","ref":"03\u0410-009"},"arcs":[[34],[35],[36],[37],[38],[39],[40],[41],[42]]},{"type":"LineString","properties":{"kind":"ferry","name:en":"Port Kavkaz \u2014 Kerch","name":"\u041f\u043e\u0440\u0442 \u041a\u0430\u0432\u043a\u0430\u0437 \u2014 \u041a\u0435\u0440\u0447\u044c","sort_rank":355,"name:de":"Port Kawkas \u2014 Kertsch","source":"openstreetmap.org","min_zoom":8.0,"id":-301607,"osm_relation":true},"arcs":[43]},{"type":"LineString","properties":{"source":"openstreetmap.org","kind":"major_road","name:en":"Bondarevoy Street","sort_rank":380,"kind_detail":"primary","min_zoom":8.0,"name:de":"uliza Bondarewoi"},"arcs":[44]},{"type":"MultiLineString","properties":{"kind":"major_road","network":"ru:regional","sort_rank":380,"kind_detail":"primary","source":"openstreetmap.org","min_zoom":8.0,"shield_text":"03\u041a","ref":"03\u041a-010"},"arcs":[[45],[46]]},{"type":"LineString","properties":{"kind":"major_road","name:en":"Chernomorskaya Street","network":"ru:regional","sort_rank":380,"kind_detail":"primary","source":"openstreetmap.org","min_zoom":8.0,"shield_text":"03\u0410","ref":"03\u0410-009","id":247151930},"arcs":[47]},{"type":"MultiLineString","properties":{"sort_rank":380,"kind_detail":"primary","min_zoom":8.0,"kind":"major_road","source":"openstreetmap.org"},"arcs":[[48],[49],[50],[51],[52],[53],[54],[55],[56],[57]]},{"type":"LineString","properties":{"kind":"major_road","name:en":"Chapayeva Street","network":"ru:regional","sort_rank":380,"kind_detail":"primary","source":"openstreetmap.org","min_zoom":8.0,"landuse_kind":"residential","shield_text":"03\u041a","ref":"03\u041a-579","id":246782879},"arcs":[58]},{"type":"MultiLineString","properties":{"kind":"major_road","network":"ru:regional","sort_rank":380,"kind_detail":"primary","source":"openstreetmap.org","min_zoom":8.0,"shield_text":"03\u041a","ref":"03\u041a-579"},"arcs":[[59],[60],[61],[62],[63],[64],[65],[66],[67],[68],[69],[70],[71],[72],[73],[74],[75],[76],[77],[78],[79],[80],[81],[82],[83],[84],[85],[86],[87],[88],[89],[90],[91],[92],[93],[94],[95],[96],[97],[98],[99],[100],[101],[102],[103],[104]]},{"type":"LineString","properties":{"source":"openstreetmap.org","kind":"ferry","name:en":"Kavkaz - Krym (railroad)","name":"\u041a\u0430\u0432\u043a\u0430\u0437 - \u041a\u0440\u044b\u043c (\u0436\/\u0434)","sort_rank":355,"min_zoom":8.0,"id":398559390},"arcs":[105]},{"type":"LineString","properties":{"source":"openstreetmap.org","kind":"major_road","name:en":"Yuzhnaya Street","sort_rank":380,"kind_detail":"primary","min_zoom":8.0,"id":76677017},"arcs":[106]},{"type":"MultiLineString","properties":{"source":"openstreetmap.org","kind":"major_road","network":"e-road","sort_rank":381,"kind_detail":"trunk","min_zoom":8.0,"shield_text":"97"},"arcs":[[107],[108],[109]]},{"type":"MultiLineString","properties":{"source":"openstreetmap.org","kind":"major_road","landuse_kind":"residential","sort_rank":380,"kind_detail":"primary","min_zoom":8.0},"arcs":[[110],[111],[112],[113],[114],[115],[116]]},{"type":"MultiLineString","properties":{"kind":"major_road","network":"ru:regional","sort_rank":380,"kind_detail":"primary","source":"openstreetmap.org","min_zoom":8.0,"landuse_kind":"residential","shield_text":"03\u041a","ref":"03\u041a-010"},"arcs":[[117],[118]]},{"type":"MultiLineString","properties":{"kind":"major_road","name:en":"Kalinina Street","network":"ru:regional","sort_rank":380,"landuse_kind":"residential","source":"openstreetmap.org","min_zoom":8.0,"kind_detail":"primary","shield_text":"03\u041a","ref":"03\u041a-579"},"arcs":[[119],[120],[121]]},{"type":"LineString","properties":{"source":"openstreetmap.org","kind":"ferry","name:en":"Samsun - Kavkaz Railway Ferry","name":"\u0421\u0430\u043c\u0441\u0443\u043d - \u043f\u043e\u0440\u0442 \u041a\u0430\u0432\u043a\u0430\u0437","sort_rank":355,"min_zoom":8.0,"id":398490179},"arcs":[122]},{"type":"LineString","properties":{"kind":"major_road","name:en":"Chernomorskaya Street","network":"ru:regional","sort_rank":380,"kind_detail":"primary","source":"openstreetmap.org","min_zoom":8.0,"landuse_kind":"residential","shield_text":"03\u0410","ref":"03\u0410-009"},"arcs":[123]},{"type":"LineString","properties":{"source":"openstreetmap.org","kind":"ferry","name":"\u043c\u0430\u0440\u0448\u0440\u0443\u0442 \u043d\u0430 \u0417\u0430\u0442\u0435\u0440\u044f\u043d\u043d\u044b\u0439 \u043e\u0441\u0442\u0440\u043e\u0432","sort_rank":355,"min_zoom":8.0,"id":468454266},"arcs":[124]},{"type":"LineString","properties":{"source":"openstreetmap.org","kind":"ferry","name":"\u043c\u0430\u0440\u0448\u0440\u0443\u0442 \u043d\u0430 \u0417\u0430\u0442\u0435\u0440\u044f\u043d\u043d\u044b\u0439 \u043e\u0441\u0442\u0440\u043e\u0432","sort_rank":355,"landuse_kind":"residential","min_zoom":8.0,"id":468454266},"arcs":[125]},{"type":"LineString","properties":{"kind":"ferry","name":"\u041a\u0430\u0432\u043a\u0430\u0437 - \u041a\u0440\u044b\u043c","sort_rank":355,"name:de":"Autof\u00e4hre Port Kawkas \u2014 Kertsch","source":"openstreetmap.org","min_zoom":8.0,"all_networks":["e-road"],"shield_text":"97","id":32806423,"all_shield_texts":["97"],"network":"e-road"},"arcs":[126]},{"type":"MultiLineString","properties":{"kind":"major_road","network":"ru:regional","sort_rank":380,"kind_detail":"primary","source":"openstreetmap.org","min_zoom":8.0,"landuse_kind":"residential","shield_text":"03\u041a","ref":"03\u041a-579"},"arcs":[[127],[128],[129],[130],[131],[132],[133],[134]]},{"type":"LineString","properties":{"kind":"major_road","name:en":"Kalabadka Street","sort_rank":380,"kind_detail":"primary","name:de":"uliza Kalabadka","source":"openstreetmap.org","min_zoom":8.0,"id":49286524},"arcs":[135]},{"type":"LineString","properties":{"source":"openstreetmap.org","kind":"major_road","sort_rank":380,"kind_detail":"primary","ref":"03\u041a-579","min_zoom":8.0,"id":49430789},"arcs":[136]},{"type":"LineString","properties":{"kind":"major_road","network":"e-road","sort_rank":381,"kind_detail":"trunk","source":"openstreetmap.org","min_zoom":8.0,"name:uk":"\u041a\u0456\u043c\u043c\u0435\u0440\u0456\u0439\u0441\u044c\u043a\u0435 \u0448\u043e\u0441\u0435","shield_text":"97","id":115104849},"arcs":[137]},{"type":"LineString","properties":{"kind":"major_road","int_name":"Oktyabrskaya Street","network":"ru:regional","sort_rank":380,"kind_detail":"primary","source":"openstreetmap.org","min_zoom":8.0,"name:en":"Oktyabrskaya Street","shield_text":"03\u041a","ref":"03\u041a-579"},"arcs":[138]}]},"earth":{"type":"GeometryCollection","geometries":[{"type":"MultiPolygon","properties":{"sort_rank":10,"source":"naturalearthdata.com","min_zoom":0.0,"kind":"earth","area":53581836091},"arcs":[[[139]],[[140]]]}]},"landuse":{"type":"GeometryCollection","geometries":[{"type":"Polygon","properties":{"kind":"residential","area":49348600,"sort_rank":20,"source":"openstreetmap.org","min_zoom":8.0,"tier":2,"id":-7086510,"osm_relation":true},"arcs":[[141]]},{"type":"Polygon","properties":{"kind":"residential","name":"\u0410\u0445\u0442\u0430\u043d\u0438\u0437\u043e\u0432\u0441\u043a\u0430\u044f","area":10273900,"sort_rank":20,"source":"openstreetmap.org","min_zoom":8.0,"tier":2,"id":46421624},"arcs":[[142]]},{"type":"Polygon","properties":{"kind":"residential","name":"\u0427\u0435\u0440\u043d\u043e\u0435\u0440\u043a\u043e\u0432\u0441\u043a\u0430\u044f","area":23649600,"sort_rank":20,"source":"openstreetmap.org","min_zoom":8.0,"tier":2,"id":118446735},"arcs":[[143]]},{"type":"Polygon","properties":{"kind":"residential","name:en":"Yurovka","name":"\u042e\u0440\u043e\u0432\u043a\u0430","area":11490900,"sort_rank":20,"source":"openstreetmap.org","min_zoom":8.0,"tier":2,"id":-5256996,"osm_relation":true},"arcs":[[144]]},{"type":"Polygon","properties":{"kind":"residential","name":"\u0410\u0434\u0430\u0433\u0443\u043c","area":14569800,"sort_rank":20,"source":"openstreetmap.org","min_zoom":8.0,"tier":2,"id":58095207},"arcs":[[145]]},{"type":"Polygon","properties":{"kind":"residential","name:en":"Volna","name":"\u0412\u043e\u043b\u043d\u0430","area":10367700,"sort_rank":20,"source":"openstreetmap.org","min_zoom":8.0,"tier":2,"id":46422879},"arcs":[[146]]},{"type":"MultiPolygon","properties":{"source":"naturalearthdata.com","kind":"urban_area","name":"","area":1570624280,"sort_rank":11,"min_zoom":4.0},"arcs":[[[147]],[[148]],[[149]]]},{"type":"Polygon","properties":{"kind":"residential","name:en":"Varenikovskaya","name":"\u0412\u0430\u0440\u0435\u043d\u0438\u043a\u043e\u0432\u0441\u043a\u0430\u044f","area":24547000,"sort_rank":20,"name:de":"Warenikowskaja","source":"openstreetmap.org","min_zoom":8.0,"name:uk":"\u0412\u0430\u0440\u0435\u043d\u0438\u043a\u0456\u0432\u0441\u044c\u043a\u0430","name:hy":"\u054e\u0561\u0580\u0565\u0576\u056b\u056f\u0578\u057e\u057d\u056f\u0561\u0575\u0561","tier":2,"id":48893237},"arcs":[[150]]},{"type":"Polygon","properties":{"kind":"residential","name:en":"Taman","name:nl":"Taman","name":"\u0422\u0430\u043c\u0430\u043d\u044c","name:lt":"Taman\u0117","area":20452700,"sort_rank":20,"name:fr":"Taman","name:de":"Taman","source":"openstreetmap.org","min_zoom":8.0,"name:la":"Tamanum","tier":2,"id":46102674,"name:es":"Tam\u00e1n"},"arcs":[[151]]},{"type":"Polygon","properties":{"kind":"residential","name:en":"Temryuk","name":"\u0422\u0435\u043c\u0440\u044e\u043a","area":52715900,"sort_rank":20,"name:fr":"Temriouk","name:de":"Temrjuk","source":"openstreetmap.org","min_zoom":8.0,"name:az":"Temr\u00fck","tier":2,"id":39371845},"arcs":[[152]]},{"type":"Polygon","properties":{"kind":"nature_reserve","protect_class":"4","area":822105024,"sort_rank":23,"source":"openstreetmap.org","min_zoom":6.0,"tier":2,"id":505345583},"arcs":[[153]]},{"type":"MultiPolygon","properties":{"source":"openstreetmap.org","kind":"residential","tier":2,"area":239535001,"sort_rank":20,"min_zoom":8.0},"arcs":[[[154]],[[155]],[[156]]]}]}},"type":"Topology","transform":{"translate":[36.5625,45.0890355648],"scale":[0.0003433228,0.000240282]},"arcs":[[[0,576],[92,104],[26,237],[176,210],[53,403],[-38,707]],[[309,2237],[-309,49]],[[0,576],[92,104],[26,237],[176,210],[53,403],[-38,707]],[[309,2237],[-309,49]],[[314,2249],[-5,-12]],[[1222,4096],[-908,-1847]],[[3488,0],[-146,52],[-52,-11],[-89,51],[-56,-21],[-19,19],[-27,8],[-96,21],[-125,48],[-89,1],[-29,-13],[-2,-3],[-7,-9],[-2,-3],[-3,-12],[-17,-8],[-15,-21],[-128,-37],[-18,20],[-8,2],[-9,-2],[-9,4],[0,15],[17,8],[2,1],[1,2],[2,5],[-24,15]],[[2540,132],[-121,9],[-80,-141]],[[3149,70],[-4,1],[-2,0],[-3,2],[-16,17],[-25,8],[-48,8],[-49,13],[-125,48],[-90,0],[-28,-13],[-13,-26],[-3,-3],[-13,-5],[-7,-13],[-2,-4],[-7,-5],[-124,-37],[-4,0],[-6,3],[-16,19],[-13,-1],[-7,2],[-2,2],[-3,4],[0,5],[1,4],[3,3],[2,2],[16,6],[2,7],[-23,15]],[[0,1048],[36,-20],[33,-9],[35,2],[95,26],[22,44],[-21,98],[-51,142],[-43,51],[-46,26],[-48,-9],[-12,-12],[0,2709],[4096,0],[0,-146],[-83,-74],[-63,-121],[-48,-169],[-80,-456],[-40,-146],[-52,-139],[-40,-81],[-38,-36],[-46,-13],[-107,-69],[-262,-220],[-20,-12],[0,-22],[26,-61],[26,-30],[26,-12],[20,-18],[7,-54],[-14,8],[-46,18],[-10,-72],[-24,-4],[-53,59],[-31,48],[-80,28],[49,28],[10,49],[-24,32],[-54,-23],[-19,-41],[-18,-73],[-23,-145],[-3,-136],[22,-246],[1,-132],[-23,-140],[0,-46],[23,-41],[41,-28],[32,11],[25,40],[38,116],[3,202],[7,2],[13,-3],[13,1],[5,15],[-3,19],[-7,15],[-7,8],[-3,0],[-4,37],[-10,32],[-12,25],[-12,19],[0,31],[23,4],[57,22],[0,31],[-76,19],[-38,62],[-1,64],[35,28],[22,-19],[20,-77],[27,-17],[29,-9],[36,-20],[34,-24],[20,-22],[9,-82],[-46,-205],[-2,-41],[39,-20],[84,-91],[47,-29],[0,-31],[-31,13],[-55,35],[-35,11],[14,-84],[28,-43],[18,-50],[-19,-107],[37,8],[51,34],[31,13],[0,-29],[-30,-5],[-11,-18],[-5,-29],[-13,-33],[-50,-74],[-10,3],[-5,-12],[-26,-15],[-10,-16],[-9,-34],[6,-7],[12,-1],[12,-14],[12,-22],[43,-55],[27,-20],[-7,-18],[-20,-19],[-25,-9],[-30,3],[-114,38],[-14,8],[-13,4],[-30,2],[-12,11],[-15,25],[-13,30],[-8,22],[-33,-82],[-41,-72],[-54,-31],[-71,42],[65,15],[34,16],[21,24],[-1,40],[-20,38],[-26,27],[-23,11],[-30,5],[-57,19],[-33,4],[-18,-8],[-60,-38],[-33,-10],[41,110],[2,37],[-43,-34],[-129,-85],[-39,-44],[-45,-32],[-110,-21],[-36,-45],[-32,65],[-66,23],[-550,-6],[-17,-24],[27,-58],[33,-27],[41,-5],[85,3],[167,-22],[83,-33],[48,-61],[-189,22],[-26,-36],[-26,-54],[-63,-16],[-133,-1],[-165,-50],[-66,-7],[-33,6],[-22,18],[-11,31],[-4,45],[16,18],[77,11],[27,13],[0,20],[12,111],[8,40],[15,9],[36,41],[23,45],[-23,21],[-66,8],[-123,47],[-499,317],[-50,8],[-45,0],[-43,9],[-42,37],[-374,-216],[-67,-104],[-45,-107],[5,-58],[58,21],[115,168],[58,40],[34,10],[31,17],[34,-1],[71,-71],[33,-13],[88,-1],[0,-26],[-55,-18],[-28,-17],[-20,-22],[-7,-43],[7,-47],[0,-39],[-28,-15],[-22,50],[-23,99],[-33,68],[-51,-44],[1,-56],[23,-88],[34,-79],[31,-36],[450,101],[12,16],[27,-9],[28,-27],[12,-35],[-7,-51],[-18,-33],[-26,-24],[-51,-38],[-175,-93],[-60,-14],[-40,-39],[-32,-9],[-98,4],[-32,-4],[-60,-29],[-102,-73],[-67,-14],[-326,8],[-25,-8],[-26,-36],[3,-30],[14,-28],[9,-33],[20,-32],[141,-151],[175,-102],[54,-12],[63,9],[107,39],[60,9],[120,-22],[148,-85],[-957,0],[0,1048]],[[0,1387],[12,12],[48,9],[46,-26],[43,-51],[51,-142],[21,-98],[-22,-44],[-95,-26],[-35,-2],[-33,9],[-36,20]],[[4096,3950],[-83,-74],[-63,-121],[-48,-169],[-80,-456],[-40,-146],[-52,-139],[-40,-81],[-38,-36],[-46,-13],[-107,-69],[-262,-220],[-20,-12],[0,-22],[26,-61],[26,-30],[26,-12],[20,-18],[7,-54],[-14,8],[-46,18],[-10,-72],[-24,-4],[-53,59],[-31,48],[-80,28],[49,28],[10,49],[-24,32],[-54,-23],[-19,-41],[-18,-73],[-23,-145],[-3,-136],[22,-246],[1,-132],[-23,-140],[0,-46],[23,-41],[41,-28],[32,11],[25,40],[38,116],[3,202],[7,2],[13,-3],[13,1],[5,15],[-3,19],[-7,15],[-7,8],[-3,0],[-4,37],[-10,32],[-12,25],[-12,19],[0,31],[23,4],[57,22],[0,31],[-76,19],[-38,62],[-1,64],[35,28],[22,-19],[20,-77],[27,-17],[29,-9],[36,-20],[34,-24],[20,-22],[9,-82],[-46,-205],[-2,-41],[39,-20],[84,-91],[47,-29],[0,-31],[-31,13],[-55,35],[-35,11],[14,-84],[28,-43],[18,-50],[-19,-107],[37,8],[51,34],[31,13],[0,-29],[-30,-5],[-11,-18],[-5,-29],[-13,-33],[-50,-74],[-10,3],[-5,-12],[-26,-15],[-10,-16],[-9,-34],[6,-7],[12,-1],[12,-14],[12,-22],[43,-55],[27,-20],[-7,-18],[-20,-19],[-25,-9],[-30,3],[-114,38],[-14,8],[-13,4],[-30,2],[-12,11],[-15,25],[-13,30],[-8,22],[-33,-82],[-41,-72],[-54,-31],[-71,42],[65,15],[34,16],[21,24],[-1,40],[-20,38],[-26,27],[-23,11],[-30,5],[-57,19],[-33,4],[-18,-8],[-60,-38],[-33,-10],[41,110],[2,37],[-43,-34],[-129,-85],[-39,-44],[-45,-32],[-110,-21],[-36,-45],[-32,65],[-66,23],[-550,-6],[-17,-24],[27,-58],[33,-27],[41,-5],[85,3],[167,-22],[83,-33],[48,-61],[-189,22],[-26,-36],[-26,-54],[-63,-16],[-133,-1],[-165,-50],[-66,-7],[-33,6],[-22,18],[-11,31],[-4,45],[16,18],[77,11],[27,13],[0,20],[12,111],[8,40],[15,9],[36,41],[23,45],[-23,21],[-66,8],[-123,47],[-499,317],[-50,8],[-45,0],[-43,9],[-42,37],[-374,-216],[-67,-104],[-45,-107],[5,-58],[58,21],[115,168],[58,40],[34,10],[31,17],[34,-1],[71,-71],[33,-13],[88,-1],[0,-26],[-55,-18],[-28,-17],[-20,-22],[-7,-43],[7,-47],[0,-39],[-28,-15],[-22,50],[-23,99],[-33,68],[-51,-44],[1,-56],[23,-88],[34,-79],[31,-36],[450,101],[12,16],[27,-9],[28,-27],[12,-35],[-7,-51],[-18,-33],[-26,-24],[-51,-38],[-175,-93],[-60,-14],[-40,-39],[-32,-9],[-98,4],[-32,-4],[-60,-29],[-102,-73],[-67,-14],[-326,8],[-25,-8],[-26,-36],[3,-30],[14,-28],[9,-33],[20,-32],[141,-151],[175,-102],[54,-12],[63,9],[107,39],[60,9],[120,-22],[148,-85]],[[3138,96],[0,-10]],[[3321,442],[108,22]],[[3065,112],[-5,5]],[[3294,35],[-44,22]],[[3349,8],[-40,19]],[[2372,913],[-26,-42]],[[1454,669],[-157,215],[-54,240],[-189,35],[-226,118],[-239,81],[-193,-266]],[[2036,354],[-395,105],[-43,141],[-106,34]],[[2093,349],[128,-188]],[[2220,158],[-24,-8],[3,-150]],[[2093,349],[-57,5]],[[2118,525],[0,2]],[[186,1147],[-12,0]],[[325,1050]],[[2094,343],[0,4]],[[3078,108],[2,55]],[[332,1050],[64,42]],[[598,1353],[-16,4]],[[1454,669],[38,-35]],[[2222,158],[-2,0],[3,0]],[[2224,159],[-3,2],[1,-2]],[[2222,159],[1,-1],[1,0],[0,1],[-2,0]],[[3074,104],[-9,8]],[[3077,105],[-3,-1]],[[3077,103],[-3,1]],[[3078,103],[-1,2]],[[3077,105],[0,-2]],[[3078,103],[-1,0]],[[3078,103],[1,2]],[[3309,27],[-15,8]],[[3370,0],[-21,8]],[[186,1147],[138,-97]],[[1655,1078],[-32,-2]],[[3118,82],[-159,-82]],[[3101,182],[91,117],[-16,71],[27,85]],[[3250,57],[-1,0]],[[1249,1124],[-13,2]],[[1243,1124],[6,0]],[[1566,1071],[-317,53]],[[1623,1076],[-31,-3]],[[1693,1062],[-38,16]],[[1877,1019],[272,-77],[115,-69]],[[2275,860],[1,-1]],[[2276,859]],[[2281,802],[-5,57]],[[2288,716],[-5,62]],[[2120,487],[-2,38]],[[2103,358],[-18,-4]],[[2094,347],[9,11]],[[2103,358],[37,41],[-15,79]],[[2118,527],[5,64],[163,115]],[[2286,706],[4,2]],[[2289,711],[-3,-5]],[[2291,713],[-2,-2]],[[2289,711],[4,-1]],[[2291,713],[-2,-2]],[[2290,708],[4,-2]],[[2293,710],[-2,3]],[[2294,706],[-1,4]],[[2398,714],[-83,-35],[-21,27]],[[2799,613],[15,-6]],[[2814,607],[4,-5]],[[2819,605],[-5,2]],[[2819,605],[-1,-3]],[[2818,602],[4,-1]],[[2822,601],[-3,4]],[[2820,600],[3,-2]],[[2823,598],[-1,3]],[[2823,598],[101,-69],[96,2]],[[3025,532],[-5,-1]],[[3020,531],[5,-1]],[[3029,532],[-4,0]],[[3028,529],[8,1]],[[3036,530],[-7,2]],[[3151,480],[-115,50]],[[3247,438],[74,4]],[[3429,464],[188,1],[121,36]],[[3738,501],[20,10]],[[3758,515],[-20,-14]],[[3763,522],[-5,-7]],[[3758,515],[0,-4]],[[3758,511],[6,7]],[[3769,533],[-6,-11]],[[3764,518],[-1,4]],[[3764,518],[5,15]],[[3769,533],[33,36]],[[3803,570],[116,11]],[[3923,581],[99,4]],[[4022,585],[8,-5]],[[4031,582],[-9,3]],[[4031,582],[-1,-2]],[[4030,580],[66,13]],[[4096,593],[-65,-11]],[[324,1048],[-136,101]],[[1592,1073],[-26,-2]],[[0,1089],[69,-4],[61,42]],[[158,1152],[28,-5]],[[324,1050],[8,0],[-7,0],[-1,0]],[[2264,873],[3,-2]],[[2267,871],[5,-6]],[[2274,867],[-7,4]],[[2274,867],[5,-5]],[[2274,864],[1,-4]],[[2276,859],[3,3]],[[2283,778],[-2,24]],[[3080,163],[21,19]],[[3138,86],[-20,-4]],[[2489,736],[5,1]],[[2494,737],[-5,2]],[[2494,737],[55,-9]],[[324,1048],[-79,0],[-245,-76]],[[3249,57],[-168,46]],[[2434,1093],[26,-114],[-57,-15],[-31,-51]],[[2346,871],[-8,-14]],[[186,1147],[138,-97]],[[2125,478],[-5,9]],[[2484,734],[-86,-20]],[[2484,734],[5,2]],[[2487,738],[-3,-4]],[[2487,738],[0,-2],[2,3],[-2,-1]],[[2549,728],[250,-115]],[[3802,569],[1,1]],[[3919,581],[4,0]],[[1693,1062],[184,-43]],[[4044,578],[-1,2]],[[130,1127],[28,25]],[[3151,480],[96,-42]],[[0,1387],[12,12],[48,9],[46,-26],[43,-51],[51,-142],[21,-98],[-22,-44],[-95,-26],[-35,-2],[-33,9],[-36,20],[0,339]],[[4096,3950],[0,-3950],[-3139,0],[-148,85],[-120,22],[-60,-9],[-107,-39],[-63,-9],[-54,12],[-175,102],[-141,151],[-20,32],[-9,33],[-14,28],[-3,30],[26,36],[25,8],[326,-8],[67,14],[102,73],[60,29],[32,4],[98,-4],[32,9],[40,39],[60,14],[175,93],[51,38],[26,24],[18,33],[7,51],[-12,35],[-28,27],[-27,9],[-12,-16],[-450,-101],[-31,36],[-34,79],[-23,88],[-1,56],[51,44],[33,-68],[23,-99],[22,-50],[28,15],[0,39],[-7,47],[7,43],[20,22],[28,17],[55,18],[0,26],[-88,1],[-33,13],[-71,71],[-34,1],[-31,-17],[-34,-10],[-58,-40],[-115,-168],[-58,-21],[-5,58],[45,107],[67,104],[374,216],[42,-37],[43,-9],[45,0],[50,-8],[499,-317],[123,-47],[66,-8],[23,-21],[-23,-45],[-36,-41],[-15,-9],[-8,-40],[-12,-111],[0,-20],[-27,-13],[-77,-11],[-16,-18],[4,-45],[11,-31],[22,-18],[33,-6],[66,7],[165,50],[133,1],[63,16],[26,54],[26,36],[189,-22],[-48,61],[-83,33],[-167,22],[-85,-3],[-41,5],[-33,27],[-27,58],[17,24],[550,6],[66,-23],[32,-65],[36,45],[110,21],[45,32],[39,44],[129,85],[43,34],[-2,-37],[-41,-110],[33,10],[60,38],[18,8],[33,-4],[57,-19],[30,-5],[23,-11],[26,-27],[20,-38],[1,-40],[-21,-24],[-34,-16],[-65,-15],[71,-42],[54,31],[41,72],[33,82],[8,-22],[13,-30],[15,-25],[12,-11],[30,-2],[13,-4],[14,-8],[114,-38],[30,-3],[25,9],[20,19],[7,18],[-27,20],[-43,55],[-12,22],[-12,14],[-12,1],[-6,7],[9,34],[10,16],[26,15],[5,12],[10,-3],[50,74],[13,33],[5,29],[11,18],[30,5],[0,29],[-31,-13],[-51,-34],[-37,-8],[19,107],[-18,50],[-28,43],[-14,84],[35,-11],[55,-35],[31,-13],[0,31],[-47,29],[-84,91],[-39,20],[2,41],[46,205],[-9,82],[-20,22],[-34,24],[-36,20],[-29,9],[-27,17],[-20,77],[-22,19],[-35,-28],[1,-64],[38,-62],[76,-19],[0,-31],[-57,-22],[-23,-4],[0,-31],[12,-19],[12,-25],[10,-32],[4,-37],[3,0],[7,-8],[7,-15],[3,-19],[-5,-15],[-13,-1],[-13,3],[-7,-2],[-3,-202],[-38,-116],[-25,-40],[-32,-11],[-41,28],[-23,41],[0,46],[23,140],[-1,132],[-22,246],[3,136],[23,145],[18,73],[19,41],[54,23],[24,-32],[-10,-49],[-49,-28],[80,-28],[31,-48],[53,-59],[24,4],[10,72],[46,-18],[14,-8],[-7,54],[-20,18],[-26,12],[-26,30],[-26,61],[0,22],[20,12],[262,220],[107,69],[46,13],[38,36],[40,81],[52,139],[40,146],[80,456],[48,169],[63,121],[83,74]],[[3860,1405],[80,49],[-54,113],[72,-93],[-6,-46],[38,-55],[45,47],[-25,-9],[-22,49],[22,24],[-12,32],[51,-44],[20,37],[27,-19],[0,-176],[-52,15],[-111,-37],[53,43],[-50,23],[4,46],[-80,1]],[[1506,894],[20,88],[80,43],[47,-12],[-41,-3],[8,-28],[-88,-106],[-26,18]],[[3386,1594],[51,-2],[138,-111],[-20,-78],[-79,-23],[-34,27],[32,28],[-24,11],[16,110],[-80,38]],[[2408,91],[6,37],[143,9],[0,-58],[-109,-23],[-2,38],[-38,-3]],[[3288,39],[81,62],[111,-64],[-60,-37],[-70,0],[-7,53],[-37,-28],[-18,14]],[[300,188],[95,38],[30,-47],[28,6],[3,-54],[-156,57]],[[2353,970],[53,-162],[47,-25],[-26,-50],[-51,-1],[-85,51],[33,198],[29,-11]],[[3909,1893],[130,0],[-7,-67],[-51,-94],[-39,-25],[-240,-21],[-52,21],[5,183],[-37,49],[17,32],[274,14],[0,-92]],[[3085,1744],[-17,-37],[-45,28],[-19,-15],[-21,322],[117,-57],[-32,-93],[17,-148]],[[3043,161],[108,39],[-1,-31],[68,-21],[-5,-52],[43,-4],[6,-22],[-31,-33],[-37,36],[-69,-14],[-10,33],[-45,10],[-27,59]],[[357,493],[17,64],[176,-21],[-70,-87],[-77,-7],[-46,51]],[[2262,873],[83,6],[13,-58],[60,-7],[78,-69],[83,-3],[197,-111],[26,-20],[-10,-21],[-60,25],[9,20],[-102,48],[-25,-20],[-83,51],[-48,-32],[45,-14],[38,-36],[-11,-25],[65,-45],[-42,4],[-138,146],[-55,2],[-49,51],[11,-39],[-46,-2],[-25,72],[27,38],[-41,39]],[[3026,2275],[28,110],[74,89],[118,63],[200,54],[111,132],[-43,-110],[47,-24],[4,-99],[32,-44],[103,13],[143,-326],[-222,-145],[29,-35],[96,-23],[20,-37],[-169,-67],[-2,-111],[-60,-82],[39,-67],[-17,-101],[-92,-14],[2,47],[-107,141],[-33,11],[-14,62],[-62,10],[-26,65],[-174,55],[25,414],[-50,19]],[[1210,422],[2,38],[43,24],[69,-4],[23,-39],[-44,-36],[-93,17]],[[2021,502],[91,27],[92,-46],[-93,-5],[7,-65],[-57,30],[15,45],[-55,14]],[[3765,481],[38,89],[120,11],[11,-21],[29,18],[-22,-85],[-64,-34],[-53,32],[-59,-10]]]}