{"objects":{"water":{"type":"GeometryCollection","geometries":[{"type":"Polygon","properties":{"source":"naturalearthdata.com","kind":"ocean","area":1576712559132672,"sort_rank":200,"min_zoom":0.0,"id":1},"arcs":[[9]]},{"type":"LineString","properties":{"source":"naturalearthdata.com","kind":"ocean","sort_rank":205,"boundary":true,"min_zoom":0.0,"id":52},"arcs":[10]}]},"buildings":{"type":"GeometryCollection","geometries":[]},"places":{"type":"GeometryCollection","geometries":[{"type":"Point","properties":{"name:sr":"\u041d\u043e\u0432\u043e\u0440\u043e\u0441\u0438\u0458\u0441\u043a","int_name":"Novorossiysk","name:ja":"\u30ce\u30f4\u30a9\u30ed\u30b7\u30fc\u30b9\u30af","name:lt":"Novorosijskas","min_zoom":8.0,"name:uk":"\u041d\u043e\u0432\u043e\u0440\u043e\u0441\u0456\u0439\u0441\u044c\u043a","name:pl":"Noworosyjsk","name:hr":"Novorossijsk","id":87705691,"population":262250,"kind":"locality","name:en":"Novorossiysk","name":"\u041d\u043e\u0432\u043e\u0440\u043e\u0441\u0441\u0438\u0439\u0441\u043a","kind_detail":"city","name:de":"Noworossijsk","source":"openstreetmap.org","name:zh":"\u65b0\u7f57\u897f\u65af\u514b"},"coordinates":[3514,2603]},{"type":"Point","properties":{"kind":"locality","name:en":"Anapa","name":"\u0410\u043d\u0430\u043f\u0430","name:lt":"Anapa","kind_detail":"town","name:de":"Anapa","source":"openstreetmap.org","min_zoom":8.0,"int_name":"Anapa","name:pl":"Anapa","name:zh":"\u963f\u7eb3\u5e15","id":29804102,"population":73410},"coordinates":[2197,3299]},{"type":"Point","properties":{"kind":"locality","name:en":"Anapskaya","name":"\u0410\u043d\u0430\u043f\u0441\u043a\u0430\u044f","kind_detail":"town","name:de":"Anapskaja","source":"openstreetmap.org","min_zoom":8.0,"old_name":"\u041d\u0438\u043a\u043e\u043b\u0430\u0435\u0432\u0441\u043a\u0430\u044f","id":301586752,"population":16107},"coordinates":[2391,3324]},{"type":"Point","properties":{"kind":"locality","name:en":"Rayevskaya","name":"\u0420\u0430\u0435\u0432\u0441\u043a\u0430\u044f","kind_detail":"town","name:hy":"\u054c\u0561\u0587\u057d\u056f\u0561\u0575\u0561","name:de":"Rajewskaja","source":"openstreetmap.org","min_zoom":8.0,"name:uk":"\u0420\u0430\u0454\u0432\u0441\u044c\u043a\u0430","old_name":"\u0441\u0442\u0430\u043d\u0438\u0446\u0430 \u041a\u0440\u0430\u0441\u043d\u043e-\u041c\u0435\u0434\u0432\u0435\u0434\u043e\u0432\u0441\u043a\u0430\u044f","id":1651190084,"name:es":"Ray\u00e9vskaya","population":10020},"coordinates":[2874,3058]},{"type":"Point","properties":{"kind":"locality","name:en":"Gostagayevskaya","name":"\u0413\u043e\u0441\u0442\u0430\u0433\u0430\u0435\u0432\u0441\u043a\u0430\u044f","kind_detail":"town","name:ar":"\u063a\u0648\u0633\u062a\u0627\u063a\u0627\u064a\u0641\u0633\u0643\u0627\u064a\u0627","name:de":"Gostagajewskaja","source":"openstreetmap.org","min_zoom":8.0,"name:uk":"\u0413\u043e\u0441\u0442\u0430\u0433\u0430\u0454\u0432\u0441\u044c\u043a\u0430","id":2146337212,"name:es":"Gostag\u00e1yevskaya","population":9772},"coordinates":[2737,3830]},{"type":"Point","properties":{"kind":"locality","name:en":"Nizhnebakanskaya","name":"\u041d\u0438\u0436\u043d\u0435\u0431\u0430\u043a\u0430\u043d\u0441\u043a\u0430\u044f","kind_detail":"town","name:de":"Nischnebakanskaja","source":"openstreetmap.org","min_zoom":8.0,"name:uk":"\u041d\u0438\u0436\u043d\u044c\u043e\u0431\u0430\u043a\u0430\u043d\u0441\u044c\u043a\u0430","old_name":"\u041d\u0438\u0436\u043d\u0435\u0431\u0430\u043a\u0430\u043d\u0441\u043a\u0438\u0439","id":301586748,"population":8277},"coordinates":[3782,3176]},{"type":"Point","properties":{"kind":"locality","name:en":"Myskhako","name":"\u041c\u044b\u0441\u0445\u0430\u043a\u043e","kind_detail":"town","name:de":"Myschako","source":"openstreetmap.org","min_zoom":8.0,"name:uk":"\u041c\u0438\u0441\u0445\u0430\u043a\u043e","name:pl":"Myschako","id":904288446,"population":7954},"coordinates":[3483,2336]},{"type":"Point","properties":{"kind":"locality","name:en":"Vityazevo","name":"\u0412\u0438\u0442\u044f\u0437\u0435\u0432\u043e","kind_detail":"town","name:de":"Witjasewo","source":"openstreetmap.org","min_zoom":8.0,"old_name":"\u0441\u0442\u0430\u043d\u0438\u0446\u0430 \u0412\u0438\u0442\u044f\u0437\u0435\u0432\u0441\u043a\u0430\u044f","id":277678134,"name:es":"V\u00edtiazevo","population":7936},"coordinates":[2034,3690]},{"type":"Point","properties":{"kind":"locality","name:en":"Kabardinka","name":"\u041a\u0430\u0431\u0430\u0440\u0434\u0438\u043d\u043a\u0430","kind_detail":"town","name:de":"Kabardinka","source":"openstreetmap.org","min_zoom":8.0,"name:hy":"\u053f\u0561\u0562\u0561\u0580\u0564\u056b\u0576\u056f\u0561","name:pl":"Kabardynka","id":34181855,"population":7550},"coordinates":[4011,2307]},{"type":"Point","properties":{"kind":"locality","name:en":"Gayduk","name":"\u0413\u0430\u0439\u0434\u0443\u043a","kind_detail":"town","name:de":"Gaiduk","source":"openstreetmap.org","min_zoom":8.0,"name:hy":"\u0533\u0561\u0575\u0564\u0578\u0582\u056f","id":904288415,"population":7484},"coordinates":[3304,2861]}]},"transit":{"type":"GeometryCollection","geometries":[{"type":"LineString","properties":{"source":"openstreetmap.org","kind":"train","osm_relation":true,"sort_rank":275,"ref":"677\/678 \u0412\u043b\u0430\u0434\u0438\u043a\u0430\u0432\u043a\u0430\u0437 \u2014 \u041d\u043e\u0432\u043e\u0440\u043e\u0441\u0441\u0438\u0439\u0441\u043a","min_zoom":6.0,"operator":"\u0420\u0416\u0414"},"arcs":[5]},{"type":"LineString","properties":{"source":"openstreetmap.org","kind":"train","osm_relation":true,"sort_rank":275,"ref":"\u044d\u043b\u0435\u043a\u0442\u0440\u0438\u0447\u043a\u0430 \u041d\u043e\u0432\u043e\u0440\u043e\u0441\u0441\u0438\u0439\u0441\u043a \u2014 \u041a\u0440\u0430\u0441\u043d\u043e\u0434\u0430\u0440","min_zoom":6.0,"operator":"\u0420\u0416\u0414"},"arcs":[6]},{"type":"MultiLineString","properties":{"kind":"train","network":"\u0420\u0416\u0414","sort_rank":275,"source":"openstreetmap.org","min_zoom":6.0,"ref":"151\/1 \u041c\u043e\u0441\u043a\u0432\u0430 \u2014 \u0410\u043d\u0430\u043f\u0430","osm_relation":true,"name":"\u041c\u043e\u0441\u043a\u0432\u0430 \u2014 \u0410\u043d\u0430\u043f\u0430"},"arcs":[[7],[8]]}]},"pois":{"type":"GeometryCollection","geometries":[{"type":"Point","properties":{"kind":"military","name":"\u0420\u0430\u0435\u0432\u0441\u043a\u0438\u0439 \u043f\u043e\u043b\u0438\u0433\u043e\u043d","area":85087500,"source":"openstreetmap.org","min_zoom":8.0,"tier":3,"id":-5662774,"osm_relation":true},"coordinates":[2940,2840]}]},"boundaries":{"type":"GeometryCollection","geometries":[{"type":"LineString","properties":{"name:kg":"Ukrayina","name:ka":"\u10e3\u10d9\u10e0\u10d0\u10d8\u10dc\u10d0","name:ko":"\uc6b0\ud06c\ub77c\uc774\ub098","name:cv":"\u0423\u043a\u0440\u0430\u0438\u043d\u0430","name:cu":"\u041e\u0443\u043a\u0440\u0430\u0438\u043d\u0430","name:kl":"Ukraine","name:cs":"Ukrajina","name:tw":"Ukraine","name:tt":"\u0423\u043a\u0440\u0430\u0438\u043d\u0430","name:kw":"Ukrayn","name:kv":"\u0423\u043a\u0440\u0430\u0438\u043d\u0430","name:th":"\u0e1b\u0e23\u0e30\u0e40\u0e17\u0e28\u0e22\u0e39\u0e40\u0e04\u0e23\u0e19","name:tl":"Ukranya","name:ce":"\u0423\u043a\u0440\u0430\u0438\u043d\u0430","name:ta":"\u0b89\u0b95\u0bcd\u0bb0\u0bc8\u0ba9\u0bcd","name:tg":"\u0423\u043a\u0440\u0430\u0439\u0438\u043d\u0430","name:ca":"Ucra\u00efna","name:te":"\u0c09\u0c15\u0c4d\u0c30\u0c46\u0c2f\u0c3f\u0c28\u0c4d","name:cy":"Wcr\u00e1in","name:hr":"Ukrajina","name:da":"Ukraine","name:de":"Ukraine","source":"openstreetmap.org","name:kn":"\u0caf\u0cc1\u0c95\u0ccd\u0cb0\u0cc7\u0ca8\u0ccd","name:dv":"\u0794\u07aa\u0786\u07b0\u0783\u07ac\u0787\u07a8\u0782\u07b0","name:km":"\u17a2\u17ca\u17bb\u1799\u1780\u17d2\u179a\u17c2\u1793","name:lv":"Ukraina","name:lt":"Ukraina","name:uz":"Ukraina","name:kk":"\u0423\u043a\u0440\u0430\u0438\u043d\u0430","name:ur":"\u06cc\u0648\u06a9\u0631\u06cc\u0646","name:lb":"Ukrain","name:la":"Ucraina","name:ug":"\u0626\u06c7\u0643\u0631\u0627\u0626\u0649\u0646\u0627","name:li":"Oekra\u00efne","name:ln":"Ukraine","name:el":"\u039f\u03c5\u03ba\u03c1\u03b1\u03bd\u03af\u03b1","name:eo":"Ukrainujo","name:en":"Ukraine","name":"\u0423\u043a\u0440\u0430\u0457\u043d\u0430","name:tk":"Ukraina","name:ee":"Ukraine","name:ku":"\u00dbkrayna","name:eu":"Ukraina","name:et":"Ukraina","name:es":"Ucrania","name:ia":"Ukraina","name:rm":"Ucraina","name:az":"Ukrayna","name:ie":"Ucraina","name:id":"Ukraina","name:ig":"Yukrain","name:ar":"\u0623\u0648\u0643\u0631\u0627\u0646\u064a\u0627","name:io":"Ukrainia","name:is":"\u00dakra\u00edna","name:am":"\u12e9\u12ad\u122c\u1295","name:it":"Ucraina","name:an":"Ucra\u00edna","name:ru":"\u0423\u043a\u0440\u0430\u0438\u043d\u0430","name:ab":"\u0423\u043a\u0440\u0430\u0438\u043d\u0430","name:af":"Oekra\u00efne","kind_detail":"2","name:ky":"\u0423\u043a\u0440\u0430\u0438\u043d\u0430","name:zh-yue":"\u70cf\u514b\u862d","name:zh":"\u4e4c\u514b\u5170","name:so":"Ukrain","name:sn":"Ukraine","name:sm":"Ukraine","name:sl":"Ukrajina","name:sk":"Ukrajina","name:ja":"\u30a6\u30af\u30e9\u30a4\u30ca","name:sh":"Ukrajina","name:se":"Ukraina","name:sc":"Ucraina","name:br":"Ukraina","name:bs":"Ukrajina","name:bn":"\u0987\u0989\u0995\u09cd\u09b0\u09c7\u09a8","name:bo":"\u0f68\u0f74\u0f40\u0f0b\u0f62\u0f61\u0f72\u0f0b\u0f53\u0f72\u0f0d","name:bi":"Ukraine","name:sw":"Ukraine","name:be":"\u0423\u043a\u0440\u0430\u0456\u043d\u0430","name:su":"Ukraina","name:bg":"\u0423\u043a\u0440\u0430\u0439\u043d\u0430","name:ss":"IYukhureni","name:ba":"\u0423\u043a\u0440\u0430\u0438\u043d\u0430","name:sq":"Ukraina","name:jv":"Ukraina","name:pt":"Ucr\u00e2nia","name:ps":"\u0627\u0648\u06a9\u0631\u0627\u06cc\u0646","name:oc":"Ucra\u00efna","min_zoom":8.0,"name:ro":"Ucraina","name:zh-min-nan":"Ukrayina","name:os":"\u0423\u043a\u0440\u0430\u0438\u043d\u00e6","name:or":"\u0b5f\u0b41\u0b15\u0b4d\u0b30\u0b47\u0b28","name:pl":"Ukraina","sort_rank":262,"name:sr":"\u0423\u043a\u0440\u0430\u0458\u0438\u043d\u0430","osm_relation":true,"name:pa":"\u0a2f\u0a42\u0a15\u0a4d\u0a30\u0a47\u0a28","name:tr":"Ukrayna","name:hi":"\u092f\u0941\u0915\u094d\u0930\u0947\u0928","name:sv":"Ukraina","name:he":"\u05d0\u05d5\u05e7\u05e8\u05d0\u05d9\u05e0\u05d4","name:hy":"\u0548\u0582\u056f\u0580\u0561\u056b\u0576\u0561","name:ht":"Ikr\u00e8n","name:hu":"Ukrajna","name:qu":"Ukranya","kind":"country","name:ts":"Ukraine","name:yi":"\u05d0\u05d5\u05e7\u05e8\u05d0\u05d9\u05e0\u05e2","name:yo":"Ukr\u00e9\u00ecn","name:mt":"Ukrajna","alt_name:eo":"Ukrainio","name:ms":"Ukraine","name:mr":"\u092f\u0941\u0915\u094d\u0930\u0947\u0928","name:my":"\u101a\u1030\u1000\u101b\u102d\u1014\u103a\u1038\u1014\u102d\u102f\u1004\u103a\u1004\u1036","int_name":"Ukraine","name:mg":"Okraina","name:ml":"\u0d09\u0d15\u0d4d\u0d30\u0d48\u0d7b","name:vi":"Ukraina","name:mn":"\u0423\u043a\u0440\u0430\u0439\u043d","name:mi":"\u016akareinga","id":-60199,"name:mk":"\u0423\u043a\u0440\u0430\u0438\u043d\u0430","name:vo":"Lukray\u00e4n","name:fa":"\u0627\u0648\u06a9\u0631\u0627\u06cc\u0646","name:rw":"Ikerene","name:fi":"Ukraina","old_name:vi":"\u00d4 Kh\u1eafc Lan","name:fo":"Ukraina","alt_name:vi":"Uy Ki\u00ean","name:fr":"Ukraine","name:fy":"Oekra\u00efne","name:nl":"Oekra\u00efne","name:nn":"Ukraina","name:no":"Ukraina","name:na":"Ukraine","name:ne":"\u092f\u0941\u0915\u094d\u0930\u0947\u0928","name:wa":"Oucrinne","name:wo":"Ukreen","name:nv":"Y\u00f3\u00f3kwein","name:ga":"An \u00dacr\u00e1in","name:gd":"An Ucr\u00e0in","name:gn":"Ukya\u00f1a","name:gl":"Ucra\u00edna","name:gv":"Yn Ookraan","name:gu":"\u0aaf\u0ac1\u0a95\u0acd\u0ab0\u0ac7\u0aa8"},"arcs":[0]},{"type":"LineString","properties":{"name:kg":"Ukrayina","name:ka":"\u10e3\u10d9\u10e0\u10d0\u10d8\u10dc\u10d0","name:ko":"\uc6b0\ud06c\ub77c\uc774\ub098","name:cv":"\u0423\u043a\u0440\u0430\u0438\u043d\u0430","name:cu":"\u041e\u0443\u043a\u0440\u0430\u0438\u043d\u0430","name:kl":"Ukraine","name:cs":"Ukrajina","name:tw":"Ukraine","name:tt":"\u0423\u043a\u0440\u0430\u0438\u043d\u0430","name:kw":"Ukrayn","name:kv":"\u0423\u043a\u0440\u0430\u0438\u043d\u0430","name:th":"\u0e1b\u0e23\u0e30\u0e40\u0e17\u0e28\u0e22\u0e39\u0e40\u0e04\u0e23\u0e19","name:tl":"Ukranya","name:ce":"\u0423\u043a\u0440\u0430\u0438\u043d\u0430","name:ta":"\u0b89\u0b95\u0bcd\u0bb0\u0bc8\u0ba9\u0bcd","name:tg":"\u0423\u043a\u0440\u0430\u0439\u0438\u043d\u0430","name:ca":"Ucra\u00efna","name:te":"\u0c09\u0c15\u0c4d\u0c30\u0c46\u0c2f\u0c3f\u0c28\u0c4d","name:cy":"Wcr\u00e1in","name:qu":"Ukranya","name:da":"Ukraine","name:de":"Ukraine","source":"openstreetmap.org","name:kn":"\u0caf\u0cc1\u0c95\u0ccd\u0cb0\u0cc7\u0ca8\u0ccd","name:dv":"\u0794\u07aa\u0786\u07b0\u0783\u07ac\u0787\u07a8\u0782\u07b0","name:km":"\u17a2\u17ca\u17bb\u1799\u1780\u17d2\u179a\u17c2\u1793","name:lv":"Ukraina","name:lt":"Ukraina","name:uz":"Ukraina","name:kk":"\u0423\u043a\u0440\u0430\u0438\u043d\u0430","name:ur":"\u06cc\u0648\u06a9\u0631\u06cc\u0646","name:lb":"Ukrain","name:la":"Ucraina","name:ug":"\u0626\u06c7\u0643\u0631\u0627\u0626\u0649\u0646\u0627","name:li":"Oekra\u00efne","name:ln":"Ukraine","name:el":"\u039f\u03c5\u03ba\u03c1\u03b1\u03bd\u03af\u03b1","name:eo":"Ukrainujo","name:en":"Ukraine","name":"\u0423\u043a\u0440\u0430\u0457\u043d\u0430","name:tk":"Ukraina","name:ee":"Ukraine","name:ku":"\u00dbkrayna","name:eu":"Ukraina","name:et":"Ukraina","name:es":"Ucrania","name:ia":"Ukraina","name:rm":"Ucraina","name:az":"Ukrayna","name:ie":"Ucraina","name:id":"Ukraina","name:ig":"Yukrain","name:ar":"\u0623\u0648\u0643\u0631\u0627\u0646\u064a\u0627","name:io":"Ukrainia","name:is":"\u00dakra\u00edna","name:am":"\u12e9\u12ad\u122c\u1295","name:it":"Ucraina","name:an":"Ucra\u00edna","name:ru":"\u0423\u043a\u0440\u0430\u0438\u043d\u0430","name:ab":"\u0423\u043a\u0440\u0430\u0438\u043d\u0430","name:af":"Oekra\u00efne","kind_detail":"2","name:ky":"\u0423\u043a\u0440\u0430\u0438\u043d\u0430","name:zh-yue":"\u70cf\u514b\u862d","name:zh":"\u4e4c\u514b\u5170","name:so":"Ukrain","name:sn":"Ukraine","name:sm":"Ukraine","name:sl":"Ukrajina","name:sk":"Ukrajina","name:ja":"\u30a6\u30af\u30e9\u30a4\u30ca","name:sh":"Ukrajina","name:se":"Ukraina","name:sc":"Ucraina","name:br":"Ukraina","name:bs":"Ukrajina","name:bn":"\u0987\u0989\u0995\u09cd\u09b0\u09c7\u09a8","name:bo":"\u0f68\u0f74\u0f40\u0f0b\u0f62\u0f61\u0f72\u0f0b\u0f53\u0f72\u0f0d","name:bi":"Ukraine","name:sw":"Ukraine","name:be":"\u0423\u043a\u0440\u0430\u0456\u043d\u0430","name:su":"Ukraina","name:bg":"\u0423\u043a\u0440\u0430\u0439\u043d\u0430","name:ss":"IYukhureni","name:ba":"\u0423\u043a\u0440\u0430\u0438\u043d\u0430","name:sq":"Ukraina","name:jv":"Ukraina","name:pt":"Ucr\u00e2nia","name:ps":"\u0627\u0648\u06a9\u0631\u0627\u06cc\u0646","name:oc":"Ucra\u00efna","min_zoom":8.0,"name:ro":"Ucraina","name:zh-min-nan":"Ukrayina","name:os":"\u0423\u043a\u0440\u0430\u0438\u043d\u00e6","name:or":"\u0b5f\u0b41\u0b15\u0b4d\u0b30\u0b47\u0b28","name:pl":"Ukraina","sort_rank":262,"name:sr":"\u0423\u043a\u0440\u0430\u0458\u0438\u043d\u0430","osm_relation":true,"name:pa":"\u0a2f\u0a42\u0a15\u0a4d\u0a30\u0a47\u0a28","name:tr":"Ukrayna","name:hi":"\u092f\u0941\u0915\u094d\u0930\u0947\u0928","name:sv":"Ukraina","name:he":"\u05d0\u05d5\u05e7\u05e8\u05d0\u05d9\u05e0\u05d4","name:hy":"\u0548\u0582\u056f\u0580\u0561\u056b\u0576\u0561","name:ht":"Ikr\u00e8n","name:hu":"Ukrajna","name:hr":"Ukrajina","kind":"country","name:ts":"Ukraine","name:yi":"\u05d0\u05d5\u05e7\u05e8\u05d0\u05d9\u05e0\u05e2","name:yo":"Ukr\u00e9\u00ecn","name:mt":"Ukrajna","alt_name:eo":"Ukrainio","name:ms":"Ukraine","name:mr":"\u092f\u0941\u0915\u094d\u0930\u0947\u0928","name:my":"\u101a\u1030\u1000\u101b\u102d\u1014\u103a\u1038\u1014\u102d\u102f\u1004\u103a\u1004\u1036","int_name":"Ukraine","name:mg":"Okraina","name:vi":"Ukraina","name:ml":"\u0d09\u0d15\u0d4d\u0d30\u0d48\u0d7b","name:mn":"\u0423\u043a\u0440\u0430\u0439\u043d","name:mi":"\u016akareinga","id":-60199,"name:mk":"\u0423\u043a\u0440\u0430\u0438\u043d\u0430","name:vo":"Lukray\u00e4n","name:fa":"\u0627\u0648\u06a9\u0631\u0627\u06cc\u0646","name:rw":"Ikerene","name:fi":"Ukraina","old_name:vi":"\u00d4 Kh\u1eafc Lan","name:fo":"Ukraina","alt_name:vi":"Uy Ki\u00ean","name:fr":"Ukraine","name:fy":"Oekra\u00efne","name:nl":"Oekra\u00efne","name:nn":"Ukraina","name:no":"Ukraina","name:na":"Ukraine","name:ne":"\u092f\u0941\u0915\u094d\u0930\u0947\u0928","name:wa":"Oucrinne","name:wo":"Ukreen","name:nv":"Y\u00f3\u00f3kwein","name:ga":"An \u00dacr\u00e1in","name:gd":"An Ucr\u00e0in","name:gn":"Ukya\u00f1a","name:gl":"Ucra\u00edna","maritime_boundary":true,"name:gv":"Yn Ookraan","name:gu":"\u0aaf\u0ac1\u0a95\u0acd\u0ab0\u0ac7\u0aa8"},"arcs":[1]},{"type":"LineString","properties":{"name:right:hy":"\u053f\u0580\u0561\u057d\u0576\u0578\u0564\u0561\u0580\u056b \u0565\u0580\u056f\u0580\u0561\u0574\u0561\u057d","name:right:uk":"\u041a\u0440\u0430\u0441\u043d\u043e\u0434\u0430\u0440\u0441\u044c\u043a\u0438\u0439 \u043a\u0440\u0430\u0439","name:right:hu":"Krasznodari hat\u00e1rter\u00fclet","name:left:sr":"\u0420\u0435\u043f\u0443\u0431\u043b\u0438\u043a\u0430 \u041a\u0440\u0438\u043c","name:right:lt":"Krasnodaro kra\u0161tas","min_zoom":8.0,"name:right:he":"\u05de\u05d7\u05d5\u05d6 \u05e7\u05e8\u05e1\u05e0\u05d5\u05d3\u05d0\u05e8","sort_rank":256,"name:left:ca":"Rep\u00fablica de Crimea","int_name:right":"Krasnodar Krai","source":"openstreetmap.org","name:left:vi":"C\u1ed9ng h\u00f2a Krym","name:right:az":"Krasnodar diyar\u0131","name:left:cs":"Republika Krym","name:left":"\u0420\u0435\u0441\u043f\u0443\u0431\u043b\u0438\u043a\u0430 \u041a\u0440\u044b\u043c","name:right:mn":"\u041a\u0440\u0430\u0441\u043d\u043e\u0434\u0430\u0440\u044b\u043d \u0445\u044f\u0437\u0433\u0430\u0430\u0440","name:right:eu":"Krasnodar kraia","name:right:et":"Krasnodari krai","name:right:it":"Territorio di Krasnodar","name:right:vi":"Krasnodar (v\u00f9ng)","name:right:ro":"\u021ainutul Krasnodar","name:right:sv":"Krasnodar kraj","name:right:eo":"Krasnodara regiono","name:right:en":"Krasnodar Krai","name:right:el":"\u039a\u03c1\u03ac\u03b9 \u039a\u03c1\u03b1\u03c3\u03bd\u03bf\u03bd\u03c4\u03ac\u03c1","kind":"region","name":"\u0420\u0435\u0441\u043f\u0443\u0431\u043b\u0438\u043a\u0430 \u041a\u0440\u044b\u043c - \u041a\u0440\u0430\u0441\u043d\u043e\u0434\u0430\u0440\u0441\u043a\u0438\u0439 \u043a\u0440\u0430\u0439","name:right:ba":"\u041a\u0440\u0430\u0441\u043d\u043e\u0434\u0430\u0440 \u043a\u0440\u0430\u0439\u044b","name:right:lv":"Krasnodaras novads","name:right:be":"\u041a\u0440\u0430\u0441\u043d\u0430\u0434\u0430\u0440\u0441\u043a\u0456 \u043a\u0440\u0430\u0439","name:left:zh":"\u514b\u91cc\u7c73\u4e9a\u5171\u548c\u56fd","name:left:fr":"R\u00e9publique de Crim\u00e9e","name:right:zh":"\u514b\u62c9\u65af\u8bfa\u8fbe\u5c14\u8fb9\u7586\u533a","name:right:nl":"Kraj Krasnodar","name:right:ja":"\u30af\u30e9\u30b9\u30ce\u30c0\u30fc\u30eb\u5730\u65b9","name:right:fr":"Kra\u00ef de Krasnodar","name:right:sr":"\u041a\u0440\u0430\u0441\u043d\u043e\u0434\u0430\u0440\u0441\u043a\u0430 \u041f\u043e\u043a\u0440\u0430\u0458\u0438\u043d\u0430","id:right":-108082,"name:left:uk":"\u0420\u0435\u0441\u043f\u0443\u0431\u043b\u0456\u043a\u0430 \u041a\u0440\u0438\u043c","name:right:sh":"Krasnodarski kraj","name:left:nl":"Republiek de Krim","name:right:sl":"Krasnodarski kraj","name:left:be":"\u0420\u044d\u0441\u043f\u0443\u0431\u043b\u0456\u043a\u0430 \u041a\u0440\u044b\u043c","id":-3795586,"name:right":"\u041a\u0440\u0430\u0441\u043d\u043e\u0434\u0430\u0440\u0441\u043a\u0438\u0439 \u043a\u0440\u0430\u0439","name:left:eo":"Respubliko Krimeo","name:left:en":"Republic of Crimea","name:left:el":"\u0394\u03b7\u03bc\u03bf\u03ba\u03c1\u03b1\u03c4\u03af\u03b1 \u03c4\u03b7\u03c2 \u039a\u03c1\u03b9\u03bc\u03b1\u03af\u03b1\u03c2","name:right:ca":"Territori de Krasnodar","kind_detail":"4","name:right:ce":"\u041a\u0440\u0430\u0441\u043d\u043e\u0434\u0430\u0440\u0430\u043d \u043c\u0435\u0445\u043a\u0430\u0439\u0438\u0441\u0442","name:right:tt":"\u041a\u0440\u0430\u0441\u043d\u043e\u0434\u0430\u0440 \u043a\u0440\u0430\u0435","id:left":-3795586,"name:left:es":"Rep\u00fablica de Crimea","name:right:cs":"Krasnodarsk\u00fd kraj","name:left:eu":"Krimeako Errepublika","name:right:cv":"\u041a\u0440\u0430\u0441\u043d\u043e\u0434\u0430\u0440 \u0415\u043d","name:right:ka":"\u10d9\u10e0\u10d0\u10e1\u10dc\u10dd\u10d3\u10d0\u10e0\u10d8\u10e1 \u10db\u10ee\u10d0\u10e0\u10d4","name:right:pt":"Krai de Krasnodar","name:left:ar":"\u062c\u0645\u0647\u0648\u0631\u064a\u0629 \u0627\u0644\u0642\u0631\u0645","name:left:pl":"Republika Krymu","name:left:tr":"K\u0131r\u0131m Cumhuriyeti","name:left:tt":"\u041a\u044b\u0440\u044b\u043c \u0496\u04e9\u043c\u04bb\u04af\u0440\u0438\u044f\u0442\u0435","name:right:tr":"Krasnodar Kray\u0131","name:right:bg":"\u041a\u0440\u0430\u0441\u043d\u043e\u0434\u0430\u0440\u0441\u043a\u0438 \u043a\u0440\u0430\u0439","name:left:pt":"Rep\u00fablica da Crimeia","name:right:pl":"Kraj Krasnodarski","osm_relation":true,"name:right:de":"Region Krasnodar","name:left:de":"Republik Krim"},"arcs":[2]},{"type":"LineString","properties":{"name:right:hy":"\u0542\u0580\u056b\u0574\u056b \u053b\u0576\u0584\u0576\u0561\u057e\u0561\u0580 \u0540\u0561\u0576\u0580\u0561\u057a\u0565\u057f\u0578\u0582\u0569\u0575\u0578\u0582\u0576","name:right:hu":"Kr\u00edmi Auton\u00f3m K\u00f6zt\u00e1rsas\u00e1g","name:left:sr":"\u0420\u0435\u043f\u0443\u0431\u043b\u0438\u043a\u0430 \u041a\u0440\u0438\u043c","name:right:lt":"Krymo autonomin\u0117 respublika","min_zoom":8.0,"sort_rank":256,"name:left:ca":"Rep\u00fablica de Crimea","source":"openstreetmap.org","name:right:os":"\u0425\u044a\u044b\u0440\u044b\u043c\u044b \u0410\u0432\u0442\u043e\u043d\u043e\u043c\u043e\u043d \u0420\u0435\u0441\u043f\u0443\u0431\u043b\u0438\u043a\u00e6","name:right:el":"\u0391\u03c5\u03c4\u03cc\u03bd\u03bf\u03bc\u03b7 \u0394\u03b7\u03bc\u03bf\u03ba\u03c1\u03b1\u03c4\u03af\u03b1 \u03c4\u03b7\u03c2 \u039a\u03c1\u03b9\u03bc\u03b1\u03af\u03b1\u03c2","name:right:az":"Kr\u0131m Muxtar Respublikas\u0131","name:left:cs":"Republika Krym","name:left":"\u0420\u0435\u0441\u043f\u0443\u0431\u043b\u0438\u043a\u0430 \u041a\u0440\u044b\u043c","name:right:mk":"\u0410\u0432\u0442\u043e\u043d\u043e\u043c\u043d\u0430 \u0420\u0435\u043f\u0443\u0431\u043b\u0438\u043a\u0430 \u041a\u0440\u0438\u043c","name:right:it":"Repubblica autonoma di Crimea","name:right:ru":"\u0410\u0432\u0442\u043e\u043d\u043e\u043c\u043d\u0430\u044f \u0420\u0435\u0441\u043f\u0443\u0431\u043b\u0438\u043a\u0430 \u041a\u0440\u044b\u043c","id:right":-72639,"name:right:eo":"A\u016dtonoma Respubliko Krimeo","name:right:en":"Autonomous Republic of Crimea","name:left:vi":"C\u1ed9ng h\u00f2a Krym","kind":"region","name":"\u0420\u0435\u0441\u043f\u0443\u0431\u043b\u0438\u043a\u0430 \u041a\u0440\u044b\u043c - \u0410\u0432\u0442\u043e\u043d\u043e\u043c\u043d\u0430 \u0420\u0435\u0441\u043f\u0443\u0431\u043b\u0456\u043a\u0430 \u041a\u0440\u0438\u043c","name:right:ba":"\u04a0\u044b\u0440\u044b\u043c \u0410\u0432\u0442\u043e\u043d\u043e\u043c\u0438\u044f\u043b\u044b \u0420\u0435\u0441\u043f\u0443\u0431\u043b\u0438\u043a\u0430\u04bb\u044b","name:right:be":"\u0410\u045e\u0442\u0430\u043d\u043e\u043c\u043d\u0430\u044f \u0420\u044d\u0441\u043f\u0443\u0431\u043b\u0456\u043a\u0430 \u041a\u0440\u044b\u043c","name:left:zh":"\u514b\u91cc\u7c73\u4e9a\u5171\u548c\u56fd","name:left:fr":"R\u00e9publique de Crim\u00e9e","name:right:zh":"\u514b\u91cc\u7c73\u4e9a\u81ea\u6cbb\u5171\u548c\u56fd","name:right:es":"Rep\u00fablica Aut\u00f3noma de Crimea","name:right:nl":"Autonome Republiek van de Krim","name:right:ja":"\u30af\u30ea\u30df\u30a2\u81ea\u6cbb\u5171\u548c\u56fd","name:right:fr":"R\u00e9publique Autonome de Crim\u00e9e","name:right:sv":"Autonoma republiken Krim","name:left:uk":"\u0420\u0435\u0441\u043f\u0443\u0431\u043b\u0456\u043a\u0430 \u041a\u0440\u0438\u043c","name:left:nl":"Republiek de Krim","name:left:be":"\u0420\u044d\u0441\u043f\u0443\u0431\u043b\u0456\u043a\u0430 \u041a\u0440\u044b\u043c","id":-3795586,"name:right":"\u0410\u0432\u0442\u043e\u043d\u043e\u043c\u043d\u0430 \u0420\u0435\u0441\u043f\u0443\u0431\u043b\u0456\u043a\u0430 \u041a\u0440\u0438\u043c","name:left:eo":"Respubliko Krimeo","name:left:en":"Republic of Crimea","name:left:el":"\u0394\u03b7\u03bc\u03bf\u03ba\u03c1\u03b1\u03c4\u03af\u03b1 \u03c4\u03b7\u03c2 \u039a\u03c1\u03b9\u03bc\u03b1\u03af\u03b1\u03c2","name:right:ca":"Rep\u00fablica Aut\u00f2noma de Crimea","kind_detail":"4","alt_name:right:vi":"C\u1ed9ng ho\u00e0 T\u1ef1 tr\u1ecb Cr\u01b0m,C\u1ed9ng h\u00f2a T\u1ef1 tr\u1ecb Krym,C\u1ed9ng ho\u00e0 T\u1ef1 tr\u1ecb Krym","name:left:pl":"Republika Krymu","id:left":-3795586,"name:left:es":"Rep\u00fablica de Crimea","name:right:cs":"Autonomn\u00ed republika Krym","name:right:fi":"Krimin autonominen tasavalta","name:right:cu":"\u041a\ua651\u0440\ua651\u043c\u044c\u0441\u043a\u0430 \u0410\u0475\u0442\u043e\u043d\u043e\u043c\u044c\u043d\u0430 \u0414\u0438\u043c\u043e\u043a\u0440\u0430\u0442\u0457\ua657","name:left:eu":"Krimeako Errepublika","name:right:pt":"Rep\u00fablica Aut\u00f4noma da Crimeia","name:left:ar":"\u062c\u0645\u0647\u0648\u0631\u064a\u0629 \u0627\u0644\u0642\u0631\u0645","name:right:tt":"\u041a\u044b\u0440\u044b\u043c \u0410\u0432\u0442\u043e\u043d\u043e\u043c\u0438\u044f\u043b\u0435 \u0496\u04e9\u043c\u04bb\u04af\u0440\u0438\u044f\u0442\u0435","name:left:tr":"K\u0131r\u0131m Cumhuriyeti","name:left:tt":"\u041a\u044b\u0440\u044b\u043c \u0496\u04e9\u043c\u04bb\u04af\u0440\u0438\u044f\u0442\u0435","name:right:tr":"K\u0131r\u0131m \u00d6zerk Cumhuriyeti","name:left:pt":"Rep\u00fablica da Crimeia","name:right:ko":"\ud06c\ub9bc \ubc18\ub3c4","name:right:vi":"C\u1ed9ng h\u00f2a T\u1ef1 tr\u1ecb Cr\u01b0m","name:right:pl":"Republika Autonomiczna Krymu","osm_relation":true,"name:right:de":"Autonome Republik Krim","name:left:de":"Republik Krim","maritime_boundary":true},"arcs":[3]},{"type":"LineString","properties":{"name:pt":"Krai de Krasnodar","name:az":"Krasnodar diyar\u0131","name:ka":"\u10d9\u10e0\u10d0\u10e1\u10dc\u10dd\u10d3\u10d0\u10e0\u10d8\u10e1 \u10db\u10ee\u10d0\u10e0\u10d4","name:tr":"Krasnodar Kray\u0131","name:cv":"\u041a\u0440\u0430\u0441\u043d\u043e\u0434\u0430\u0440 \u0415\u043d","name:cs":"Krasnodarsk\u00fd kraj","name:tt":"\u041a\u0440\u0430\u0441\u043d\u043e\u0434\u0430\u0440 \u043a\u0440\u0430\u0435","min_zoom":8.0,"int_name":"Krasnodar Krai","name:it":"Territorio di Krasnodar","name:sv":"Krasnodar kraj","name:vi":"Krasnodar (v\u00f9ng)","name:ce":"\u041a\u0440\u0430\u0441\u043d\u043e\u0434\u0430\u0440\u0430\u043d \u043c\u0435\u0445\u043a\u0430\u0439\u0438\u0441\u0442","name:mn":"\u041a\u0440\u0430\u0441\u043d\u043e\u0434\u0430\u0440\u044b\u043d \u0445\u044f\u0437\u0433\u0430\u0430\u0440","id":-108082,"name:ca":"Territori de Krasnodar","name:bg":"\u041a\u0440\u0430\u0441\u043d\u043e\u0434\u0430\u0440\u0441\u043a\u0438 \u043a\u0440\u0430\u0439","name:ro":"\u021ainutul Krasnodar","sort_rank":256,"kind_detail":"4","name:de":"Region Krasnodar","source":"openstreetmap.org","name:fr":"Kra\u00ef de Krasnodar","name:zh":"\u514b\u62c9\u65af\u8bfa\u8fbe\u5c14\u8fb9\u7586\u533a","name:sr":"\u041a\u0440\u0430\u0441\u043d\u043e\u0434\u0430\u0440\u0441\u043a\u0430 \u041f\u043e\u043a\u0440\u0430\u0458\u0438\u043d\u0430","name:sl":"Krasnodarski kraj","name:lv":"Krasnodaras novads","name:ja":"\u30af\u30e9\u30b9\u30ce\u30c0\u30fc\u30eb\u5730\u65b9","name:lt":"Krasnodaro kra\u0161tas","name:sh":"Krasnodarski kraj","name:he":"\u05de\u05d7\u05d5\u05d6 \u05e7\u05e8\u05e1\u05e0\u05d5\u05d3\u05d0\u05e8","name:eo":"Krasnodara regiono","name:uk":"\u041a\u0440\u0430\u0441\u043d\u043e\u0434\u0430\u0440\u0441\u044c\u043a\u0438\u0439 \u043a\u0440\u0430\u0439","name:hy":"\u053f\u0580\u0561\u057d\u0576\u0578\u0564\u0561\u0580\u056b \u0565\u0580\u056f\u0580\u0561\u0574\u0561\u057d","name:be":"\u041a\u0440\u0430\u0441\u043d\u0430\u0434\u0430\u0440\u0441\u043a\u0456 \u043a\u0440\u0430\u0439","name:hu":"Krasznodari hat\u00e1rter\u00fclet","name:ba":"\u041a\u0440\u0430\u0441\u043d\u043e\u0434\u0430\u0440 \u043a\u0440\u0430\u0439\u044b","osm_relation":true,"name:el":"\u039a\u03c1\u03ac\u03b9 \u039a\u03c1\u03b1\u03c3\u03bd\u03bf\u03bd\u03c4\u03ac\u03c1","kind":"region","name:en":"Krasnodar Krai","name":"\u041a\u0440\u0430\u0441\u043d\u043e\u0434\u0430\u0440\u0441\u043a\u0438\u0439 \u043a\u0440\u0430\u0439","maritime_boundary":true,"name:pl":"Kraj Krasnodarski","name:eu":"Krasnodar kraia","name:et":"Krasnodari krai","name:nl":"Kraj Krasnodar"},"arcs":[4]}]},"roads":{"type":"GeometryCollection","geometries":[{"type":"MultiLineString","properties":{"kind":"major_road","name:en":"Anapskoye Shosse","network":"ru:regional","sort_rank":380,"kind_detail":"primary","source":"openstreetmap.org","min_zoom":8.0,"landuse_kind":"urban_area","shield_text":"03\u0410","ref":"03\u0410-103"},"arcs":[[11],[12]]},{"type":"LineString","properties":{"kind":"major_road","name:en":"Pervomayskaya Street","network":"ru:regional","sort_rank":380,"kind_detail":"primary","source":"openstreetmap.org","min_zoom":8.0,"landuse_kind":"residential","shield_text":"03\u041a","ref":"03\u041a-010","id":44012601},"arcs":[13]},{"type":"LineString","properties":{"kind":"major_road","name:en":"Shosseynaya Street","network":"ru:regional","sort_rank":380,"kind_detail":"primary","source":"openstreetmap.org","min_zoom":8.0,"shield_text":"03\u0410","ref":"03\u0410-009"},"arcs":[14]},{"type":"MultiLineString","properties":{"bus_network":null,"network":"ru:regional","sort_rank":381,"kind_detail":"trunk","kind":"major_road","source":"openstreetmap.org","min_zoom":8.0,"bus_shield_text":"\u041d\u043e\u0432\u043e\u0440\u043e\u0441\u0441\u0438\u0439\u0441\u043a \u2014 \u041f\u043e\u0440\u0442 \u041a\u0430\u0432\u043a\u0430\u0437","shield_text":"03\u041a","landuse_kind":"urban_area","ref":"03\u041a-010"},"arcs":[[15],[16]]},{"type":"LineString","properties":{"kind":"ferry","name:en":"Kerch - Batumi","name":"\u041a\u0435\u0440\u0447\u044c - \u0411\u0430\u0442\u0443\u043c\u0438","name:ka":"\u10e5\u10d4\u10e0\u10e9\u10d8 - \u10d1\u10d0\u10d7\u10e3\u10db\u10d8","sort_rank":355,"source":"openstreetmap.org","min_zoom":8.0,"name:uk":"\u041a\u0435\u0440\u0447 - \u0411\u0430\u0442\u0443\u043c\u0456"},"arcs":[17]},{"type":"LineString","properties":{"kind":"major_road","name:en":"Oktyabrskaya Street","network":"ru:regional","sort_rank":380,"kind_detail":"primary","source":"openstreetmap.org","min_zoom":8.0,"int_name":"Oktyabrskaya Street","landuse_kind":"residential","shield_text":"03\u041a","ref":"03\u041a-010","id":44012723},"arcs":[18]},{"type":"MultiLineString","properties":{"source":"openstreetmap.org","kind":"ferry","name":"\u041d\u043e\u0432\u043e\u0440\u043e\u0441\u0441\u0438\u0439\u0441\u043a - \u0421\u043e\u0447\u0438","sort_rank":355,"landuse_kind":"urban_area","min_zoom":8.0,"id":368443121},"arcs":[[19],[20]]},{"type":"MultiLineString","properties":{"kind":"major_road","name:en":"Mira Street","network":"ru:regional","sort_rank":380,"kind_detail":"primary","source":"openstreetmap.org","min_zoom":8.0,"landuse_kind":"residential","shield_text":"03\u0410","ref":"03\u0410-103"},"arcs":[[21],[22]]},{"type":"MultiLineString","properties":{"bus_network":"city","name:en":"Mefodiyevskaya Street","sort_rank":380,"landuse_kind":"urban_area","kind":"major_road","source":"openstreetmap.org","min_zoom":8.0,"bus_shield_text":"15\u0430","kind_detail":"primary"},"arcs":[[23],[24]]},{"type":"MultiLineString","properties":{"source":"openstreetmap.org","kind":"ferry","sort_rank":355,"landuse_kind":"urban_area","min_zoom":8.0,"id":251558270},"arcs":[[25],[26]]},{"type":"LineString","properties":{"kind":"major_road","network":"ru:national","sort_rank":381,"kind_detail":"trunk","bus_network":"city","source":"openstreetmap.org","min_zoom":8.0,"bus_shield_text":"7","shield_text":"290","landuse_kind":"urban_area","ref":"\u0410-290","id":30888790},"arcs":[27]},{"type":"LineString","properties":{"kind":"major_road","name:en":"Elevatornaya Street","sort_rank":380,"landuse_kind":"urban_area","source":"openstreetmap.org","min_zoom":8.0,"kind_detail":"primary","id":22177037},"arcs":[28]},{"type":"MultiLineString","properties":{"bus_network":null,"network":"ru:national","sort_rank":381,"kind_detail":"trunk","kind":"major_road","source":"openstreetmap.org","min_zoom":8.0,"bus_shield_text":"\u0422\u0443\u0430\u043f\u0441\u0435 \u2014 \u041f\u043e\u0440\u0442 \u041a\u0430\u0432\u043a\u0430\u0437","shield_text":"290","ref":"\u0410-290"},"arcs":[[29],[30],[31],[32],[33],[34],[35]]},{"type":"LineString","properties":{"bus_network":"city","name:en":"Lenina Street","network":"ru:national","sort_rank":381,"kind_detail":"trunk","kind":"major_road","source":"openstreetmap.org","min_zoom":8.0,"bus_shield_text":"8\u0430","shield_text":"290","landuse_kind":"urban_area","ref":"\u0410-290"},"arcs":[36]},{"type":"LineString","properties":{"kind":"major_road","name:en":"Anapskaya Street","network":"ru:regional","sort_rank":380,"kind_detail":"primary","name:de":"Anapskaja uliza","source":"openstreetmap.org","min_zoom":8.0,"shield_text":"03\u041a","ref":"03\u041a-010","id":192930037},"arcs":[37]},{"type":"LineString","properties":{"kind":"major_road","name:en":"Proletarskaya Street","sort_rank":381,"kind_detail":"trunk","bus_network":"city","source":"openstreetmap.org","min_zoom":8.0,"bus_shield_text":"10","landuse_kind":"urban_area","id":22177100},"arcs":[38]},{"type":"LineString","properties":{"kind":"major_road","name:en":"Gorkogo Street","network":"ru:national","sort_rank":381,"kind_detail":"trunk","bus_network":"city","source":"openstreetmap.org","min_zoom":8.0,"bus_shield_text":"15\u0430","shield_text":"290","landuse_kind":"urban_area","ref":"\u0410-290","id":32829744},"arcs":[39]},{"type":"LineString","properties":{"bus_network":"city","name:en":"Lenina Street","network":"ru:national","sort_rank":381,"kind_detail":"trunk","kind":"major_road","source":"openstreetmap.org","min_zoom":8.0,"bus_shield_text":"15\u0430","shield_text":"290","landuse_kind":"urban_area","ref":"\u0410-290"},"arcs":[40]},{"type":"MultiLineString","properties":{"kind":"major_road","network":"ru:regional","sort_rank":380,"kind_detail":"primary","source":"openstreetmap.org","min_zoom":8.0,"landuse_kind":"urban_area","shield_text":"03\u041a","ref":"03\u041a-010"},"arcs":[[41],[42],[43],[44],[45],[46],[47],[48],[49]]},{"type":"LineString","properties":{"kind":"major_road","network":"ru:regional","sort_rank":381,"landuse_kind":"urban_area","source":"openstreetmap.org","min_zoom":8.0,"kind_detail":"trunk","shield_text":"03\u0410","ref":"03\u0410-103"},"arcs":[50]},{"type":"LineString","properties":{"kind":"major_road","name:en":"Sakko i Vantsetti Street","network":"ru:regional","sort_rank":381,"kind_detail":"trunk","bus_network":"city","source":"openstreetmap.org","min_zoom":8.0,"bus_shield_text":"15\u0430","shield_text":"03\u041a","landuse_kind":"urban_area","ref":"03\u041a-367","id":145228428},"arcs":[51]},{"type":"LineString","properties":{"sort_rank":381,"source":"openstreetmap.org","min_zoom":8.0,"kind":"major_road","kind_detail":"trunk"},"arcs":[52]},{"type":"LineString","properties":{"bus_network":null,"name:en":"Sverdlova Street","network":"ru:national","sort_rank":381,"kind_detail":"trunk","kind":"major_road","source":"openstreetmap.org","min_zoom":8.0,"bus_shield_text":"\u0422\u0443\u0430\u043f\u0441\u0435 \u2014 \u041f\u043e\u0440\u0442 \u041a\u0430\u0432\u043a\u0430\u0437","shield_text":"290","ref":"\u0410-290"},"arcs":[53]},{"type":"MultiLineString","properties":{"bus_network":"city","name:en":"Magistralnaya Street","network":"ru:regional","sort_rank":381,"kind_detail":"trunk","kind":"major_road","source":"openstreetmap.org","min_zoom":8.0,"bus_shield_text":"15\u0430","shield_text":"03\u041a","name:pl":"ulica Magistralnaja","landuse_kind":"urban_area","ref":"03\u041a-367"},"arcs":[[54],[55]]},{"type":"MultiLineString","properties":{"bus_network":null,"network":"ru:national","sort_rank":381,"kind_detail":"trunk","kind":"major_road","source":"openstreetmap.org","min_zoom":8.0,"bus_shield_text":"\u0422\u0443\u0430\u043f\u0441\u0435 \u2014 \u041f\u043e\u0440\u0442 \u041a\u0430\u0432\u043a\u0430\u0437","shield_text":"4","ref":"\u041c-4"},"arcs":[[56],[57]]},{"type":"LineString","properties":{"kind":"major_road","name:en":"Sovetskaya Street","network":"ru:regional","sort_rank":380,"kind_detail":"primary","source":"openstreetmap.org","min_zoom":8.0,"int_name":"Sovetskaya Street","name:uk":"\u0420\u0430\u0434\u044f\u043d\u0441\u044c\u043a\u0430 \u0432\u0443\u043b\u0438\u0446\u044f","shield_text":"03\u041a","ref":"03\u041a-010","id":89794639},"arcs":[58]},{"type":"MultiLineString","properties":{"kind":"major_road","network":"ru:regional","sort_rank":380,"kind_detail":"primary","source":"openstreetmap.org","min_zoom":8.0,"landuse_kind":"residential","shield_text":"03\u0410","ref":"03\u0410-009"},"arcs":[[59],[60],[61]]},{"type":"LineString","properties":{"kind":"major_road","name:en":"Novorossiyskaya Street","network":"ru:regional","sort_rank":380,"kind_detail":"primary","source":"openstreetmap.org","min_zoom":8.0,"shield_text":"03\u0410","ref":"03\u0410-009"},"arcs":[62]},{"type":"MultiLineString","properties":{"source":"openstreetmap.org","kind":"major_road","landuse_kind":"urban_area","sort_rank":380,"kind_detail":"primary","min_zoom":8.0},"arcs":[[63],[64]]},{"type":"MultiLineString","properties":{"sort_rank":355,"source":"openstreetmap.org","min_zoom":8.0,"kind":"ferry"},"arcs":[[65],[66]]},{"type":"LineString","properties":{"kind":"major_road","name:en":"Sukhumskoye Shosse","network":"ru:national","sort_rank":381,"kind_detail":"trunk","bus_network":"city","source":"openstreetmap.org","min_zoom":8.0,"bus_shield_text":"3","shield_text":"4","landuse_kind":"urban_area","ref":"\u041c-4","id":149117792},"arcs":[67]},{"type":"MultiLineString","properties":{"sort_rank":355,"source":"openstreetmap.org","min_zoom":8.0,"name":"\u041d\u043e\u0432\u043e\u0440\u043e\u0441\u0441\u0438\u0439\u0441\u043a - \u0421\u043e\u0447\u0438","kind":"ferry"},"arcs":[[68],[69]]},{"type":"LineString","properties":{"kind":"major_road","name:en":"Gorkogo Street","network":"ru:national","sort_rank":381,"kind_detail":"trunk","bus_network":"city","source":"openstreetmap.org","min_zoom":8.0,"bus_shield_text":"8\u0430","shield_text":"290","landuse_kind":"urban_area","ref":"\u0410-290","id":53747723},"arcs":[70]},{"type":"MultiLineString","properties":{"kind":"ferry","sort_rank":355,"landuse_kind":"urban_area","source":"openstreetmap.org","min_zoom":8.0,"ref":"\u0421\u043e\u0447\u0438 - \u041d\u043e\u0432\u043e\u0440\u043e\u0441\u0441\u0438\u0439\u0441\u043a","id":-300721,"osm_relation":true},"arcs":[[71],[72]]},{"type":"LineString","properties":{"source":"openstreetmap.org","kind":"major_road","name:en":"Sakko i Vantsetti Street","landuse_kind":"urban_area","sort_rank":380,"kind_detail":"primary","min_zoom":8.0},"arcs":[73]},{"type":"MultiLineString","properties":{"bus_network":null,"network":"ru:national","sort_rank":381,"landuse_kind":"urban_area","kind":"major_road","source":"openstreetmap.org","min_zoom":8.0,"bus_shield_text":"\u0422\u0443\u0430\u043f\u0441\u0435 \u2014 \u041f\u043e\u0440\u0442 \u041a\u0430\u0432\u043a\u0430\u0437","shield_text":"290","kind_detail":"trunk","ref":"\u0410-290"},"arcs":[[74],[75],[76],[77]]},{"type":"MultiLineString","properties":{"kind":"major_road","network":"ru:regional","sort_rank":380,"kind_detail":"primary","source":"openstreetmap.org","min_zoom":8.0,"shield_text":"03\u0410","ref":"03\u0410-009"},"arcs":[[78],[79],[80],[81],[82],[83],[84]]},{"type":"LineString","properties":{"bus_network":null,"name:en":"Sukhumskoye Shosse","network":"ru:national","sort_rank":381,"kind_detail":"trunk","kind":"major_road","source":"openstreetmap.org","min_zoom":8.0,"bus_shield_text":"\u0422\u0443\u0430\u043f\u0441\u0435 \u2014 \u041f\u043e\u0440\u0442 \u041a\u0430\u0432\u043a\u0430\u0437","shield_text":"4","ref":"\u041c-4"},"arcs":[85]},{"type":"LineString","properties":{"bus_network":"city","name:en":"Lenina Street","network":"ru:national","sort_rank":381,"kind_detail":"trunk","kind":"major_road","source":"openstreetmap.org","min_zoom":8.0,"bus_shield_text":"104","shield_text":"146","ref":"\u0410-146"},"arcs":[86]},{"type":"LineString","properties":{"kind":"major_road","int_name":"Sovetskaya Street","network":"ru:regional","sort_rank":380,"kind_detail":"primary","source":"openstreetmap.org","min_zoom":8.0,"name:en":"Sovetskaya Street","name:uk":"\u0420\u0430\u0434\u044f\u043d\u0441\u044c\u043a\u0430 \u0432\u0443\u043b\u0438\u0446\u044f","landuse_kind":"residential","shield_text":"03\u041a","ref":"03\u041a-010"},"arcs":[87]},{"type":"MultiLineString","properties":{"bus_network":"city","name:en":"Magistralnaya Street","network":"ru:regional","sort_rank":381,"kind_detail":"trunk","kind":"major_road","source":"openstreetmap.org","min_zoom":8.0,"bus_shield_text":"15\u0430","shield_text":"03\u041a","landuse_kind":"urban_area","ref":"03\u041a-367"},"arcs":[[88],[89]]},{"type":"MultiLineString","properties":{"kind":"major_road","network":"ru:regional","sort_rank":380,"kind_detail":"primary","source":"openstreetmap.org","min_zoom":8.0,"shield_text":"03\u041a","ref":"03\u041a-010"},"arcs":[[90],[91],[92]]},{"type":"LineString","properties":{"kind":"major_road","name:en":"Elevatornaya Street","sort_rank":380,"kind_detail":"primary","bus_network":"city","source":"openstreetmap.org","min_zoom":8.0,"bus_shield_text":"15\u0430","landuse_kind":"urban_area","id":38375996},"arcs":[93]},{"type":"LineString","properties":{"kind":"major_road","name:en":"Gastello Street","network":"ru:regional","sort_rank":380,"kind_detail":"primary","source":"openstreetmap.org","min_zoom":8.0,"shield_text":"03\u0410","ref":"03\u0410-009","id":330010271},"arcs":[94]},{"type":"LineString","properties":{"bus_network":"city","name:en":"Mira Street","network":"ru:national","sort_rank":381,"kind_detail":"trunk","kind":"major_road","source":"openstreetmap.org","min_zoom":8.0,"bus_shield_text":"104","shield_text":"146","ref":"\u0410-146"},"arcs":[95]},{"type":"MultiLineString","properties":{"source":"openstreetmap.org","kind":"ferry","name":"\u042f\u043b\u0442\u0430 - \u041d\u043e\u0432\u043e\u0440\u043e\u0441\u0441\u0438\u0439\u0441\u043a","sort_rank":355,"landuse_kind":"urban_area","min_zoom":8.0,"id":44954585},"arcs":[[96],[97]]},{"type":"MultiLineString","properties":{"kind":"major_road","name:en":"Krestianskaya Street","network":"ru:regional","sort_rank":380,"kind_detail":"primary","source":"openstreetmap.org","min_zoom":8.0,"landuse_kind":"urban_area","shield_text":"03\u0410","ref":"03\u0410-103"},"arcs":[[98],[99]]},{"type":"LineString","properties":{"kind":"major_road","network":"ru:national","sort_rank":381,"kind_detail":"trunk","bus_network":null,"source":"openstreetmap.org","min_zoom":8.0,"bus_shield_text":"\u041d\u043e\u0432\u043e\u0440\u043e\u0441\u0441\u0438\u0439\u0441\u043a \u2014 \u041f\u043e\u0440\u0442 \u041a\u0430\u0432\u043a\u0430\u0437","shield_text":"290","id":32897869},"arcs":[100]},{"type":"LineString","properties":{"bus_network":null,"name:en":"Anapskoye Shosse","network":"ru:regional","sort_rank":380,"kind_detail":"primary","kind":"major_road","source":"openstreetmap.org","min_zoom":8.0,"bus_shield_text":"2","shield_text":"03\u0410","landuse_kind":"urban_area","ref":"03\u0410-103"},"arcs":[101]},{"type":"MultiLineString","properties":{"kind":"major_road","network":"ru:national","sort_rank":380,"kind_detail":"primary","source":"openstreetmap.org","min_zoom":8.0,"shield_text":"290","ref":"\u0410-290"},"arcs":[[102],[103]]},{"type":"LineString","properties":{"bus_network":null,"name:en":"Krestianskaya Street","network":"ru:regional","sort_rank":380,"kind_detail":"primary","kind":"major_road","source":"openstreetmap.org","min_zoom":8.0,"bus_shield_text":"2","shield_text":"03\u0410","landuse_kind":"urban_area","ref":"03\u0410-103"},"arcs":[104]},{"type":"LineString","properties":{"kind":"major_road","name:en":"Krasnaya Street","network":"ru:regional","sort_rank":380,"kind_detail":"primary","source":"openstreetmap.org","min_zoom":8.0,"shield_text":"03\u0410","ref":"03\u0410-009","id":242569776},"arcs":[105]},{"type":"LineString","properties":{"kind":"major_road","name:en":"Novorossiyskaya Street","network":"ru:regional","sort_rank":380,"kind_detail":"primary","source":"openstreetmap.org","min_zoom":8.0,"landuse_kind":"urban_area","shield_text":"03\u0410","ref":"03\u0410-009"},"arcs":[106]},{"type":"MultiLineString","properties":{"source":"openstreetmap.org","kind":"ferry","sort_rank":355,"ref":"\u0421\u043e\u0447\u0438 - \u041d\u043e\u0432\u043e\u0440\u043e\u0441\u0441\u0438\u0439\u0441\u043a","min_zoom":8.0,"osm_relation":true},"arcs":[[107],[108]]},{"type":"MultiLineString","properties":{"kind":"ferry","sort_rank":355,"landuse_kind":"urban_area","source":"openstreetmap.org","min_zoom":8.0,"ref":"\u042f\u043b\u0442\u0430 - \u041d\u043e\u0432\u043e\u0440\u043e\u0441\u0441\u0438\u0439\u0441\u043a","id":-301997,"osm_relation":true},"arcs":[[109],[110]]},{"type":"MultiLineString","properties":{"kind":"major_road","network":"ru:regional","sort_rank":380,"kind_detail":"primary","source":"openstreetmap.org","min_zoom":8.0,"shield_text":"03\u0410","ref":"03\u0410-103"},"arcs":[[111],[112]]},{"type":"LineString","properties":{"kind":"major_road","name:en":"Sakko i Vantsetti Street","network":"ru:regional","sort_rank":381,"kind_detail":"trunk","source":"openstreetmap.org","min_zoom":8.0,"landuse_kind":"urban_area","shield_text":"03\u041a","ref":"03\u041a-367","id":303418496},"arcs":[113]},{"type":"LineString","properties":{"kind":"major_road","name:en":"Anapskoye Shosse","network":"e-road","sort_rank":381,"kind_detail":"trunk","bus_network":"city","source":"openstreetmap.org","min_zoom":8.0,"bus_shield_text":"8\u0430","shield_text":"97","landuse_kind":"urban_area","id":220214612},"arcs":[114]},{"type":"LineString","properties":{"kind":"major_road","name:en":"Magistralnaya Street","network":"e-road","sort_rank":381,"kind_detail":"trunk","bus_network":"city","source":"openstreetmap.org","min_zoom":8.0,"bus_shield_text":"15\u0430","shield_text":"97","name:pl":"ulica Magistralnaja","landuse_kind":"urban_area","ref":"03\u041a-367","id":451682290},"arcs":[115]},{"type":"LineString","properties":{"source":"openstreetmap.org","kind":"ferry","sort_rank":355,"ref":"\u041a\u0435\u0440\u0447\u044c - \u0411\u0430\u0442\u0443\u043c\u0438 (Kerch - Batumi)","min_zoom":8.0,"osm_relation":true},"arcs":[116]},{"type":"MultiLineString","properties":{"bus_network":null,"network":"ru:national","sort_rank":381,"kind_detail":"trunk","kind":"major_road","source":"openstreetmap.org","min_zoom":8.0,"bus_shield_text":"\u041d\u043e\u0432\u043e\u0440\u043e\u0441\u0441\u0438\u0439\u0441\u043a \u2014 \u041f\u043e\u0440\u0442 \u041a\u0430\u0432\u043a\u0430\u0437","shield_text":"290","ref":"\u0410-290"},"arcs":[[117],[118]]},{"type":"LineString","properties":{"kind":"major_road","network":"ru:national","sort_rank":381,"kind_detail":"trunk","source":"openstreetmap.org","min_zoom":8.0,"shield_text":"290","ref":"\u0410-290"},"arcs":[119]},{"type":"MultiLineString","properties":{"bus_network":"city","name:en":"Anapskoye Shosse","network":"ru:national","sort_rank":381,"kind_detail":"trunk","kind":"major_road","source":"openstreetmap.org","min_zoom":8.0,"bus_shield_text":"15\u0430","shield_text":"290","landuse_kind":"urban_area","ref":"\u0410-290"},"arcs":[[120],[121]]},{"type":"MultiLineString","properties":{"bus_network":null,"network":"ru:national","sort_rank":381,"landuse_kind":"urban_area","kind":"major_road","source":"openstreetmap.org","min_zoom":8.0,"bus_shield_text":"\u0422\u0443\u0430\u043f\u0441\u0435 \u2014 \u041f\u043e\u0440\u0442 \u041a\u0430\u0432\u043a\u0430\u0437","shield_text":"4","kind_detail":"trunk","ref":"\u041c-4"},"arcs":[[122],[123]]},{"type":"LineString","properties":{"kind":"major_road","network":"e-road","sort_rank":381,"kind_detail":"trunk","bus_network":"city","source":"openstreetmap.org","min_zoom":8.0,"bus_shield_text":"8\u0430","shield_text":"97","landuse_kind":"urban_area","id":27466718},"arcs":[124]},{"type":"LineString","properties":{"kind":"major_road","network":"ru:regional","sort_rank":380,"kind_detail":"primary","source":"openstreetmap.org","min_zoom":8.0,"landuse_kind":"urban_area","shield_text":"03\u0410","ref":"03\u0410-103"},"arcs":[125]},{"type":"LineString","properties":{"kind":"major_road","network":"ru:regional","sort_rank":380,"kind_detail":"primary","source":"openstreetmap.org","min_zoom":8.0,"landuse_kind":"residential","shield_text":"03\u041a","ref":"03\u041a-010"},"arcs":[126]},{"type":"MultiLineString","properties":{"bus_network":"city","sort_rank":381,"landuse_kind":"urban_area","kind":"major_road","source":"openstreetmap.org","min_zoom":8.0,"bus_shield_text":"15\u0430","kind_detail":"trunk"},"arcs":[[127],[128],[129]]},{"type":"LineString","properties":{"kind":"major_road","name:en":"Anapskaya Street","network":"ru:regional","sort_rank":380,"kind_detail":"primary","name:de":"Anapskaja uliza","source":"openstreetmap.org","min_zoom":8.0,"landuse_kind":"park","shield_text":"03\u041a","ref":"03\u041a-010","id":192930037},"arcs":[130]},{"type":"MultiLineString","properties":{"bus_network":"city","network":"e-road","sort_rank":381,"landuse_kind":"urban_area","kind":"major_road","source":"openstreetmap.org","min_zoom":8.0,"bus_shield_text":"15\u0430","shield_text":"97","kind_detail":"trunk"},"arcs":[[131],[132],[133]]},{"type":"LineString","properties":{"kind":"major_road","network":"ru:regional","sort_rank":380,"kind_detail":"primary","source":"openstreetmap.org","min_zoom":8.0,"landuse_kind":"park","shield_text":"03\u041a","ref":"03\u041a-010"},"arcs":[134]},{"type":"LineString","properties":{"kind":"major_road","network":"ru:national","sort_rank":381,"kind_detail":"trunk","source":"openstreetmap.org","min_zoom":8.0,"shield_text":"146","ref":"\u0410-146"},"arcs":[135]},{"type":"LineString","properties":{"kind":"major_road","sort_rank":381,"kind_detail":"trunk","bus_network":"city","source":"openstreetmap.org","min_zoom":8.0,"bus_shield_text":"10","landuse_kind":"urban_area","id":145228426},"arcs":[136]},{"type":"LineString","properties":{"kind":"major_road","network":"ru:national","sort_rank":381,"kind_detail":"trunk","bus_network":"city","source":"openstreetmap.org","min_zoom":8.0,"bus_shield_text":"3","shield_text":"4","landuse_kind":"urban_area","ref":"\u041c-4","id":173397678},"arcs":[137]},{"type":"LineString","properties":{"kind":"major_road","name:en":"Anapskoye Shosse","network":"e-road","sort_rank":381,"kind_detail":"trunk","bus_network":"city","source":"openstreetmap.org","min_zoom":8.0,"bus_shield_text":"15\u0430","shield_text":"97","landuse_kind":"urban_area","id":32829745},"arcs":[138]},{"type":"LineString","properties":{"kind":"major_road","network":"ru:regional","sort_rank":381,"landuse_kind":"urban_area","source":"openstreetmap.org","min_zoom":8.0,"kind_detail":"trunk","shield_text":"03\u041a","ref":"03\u041a-010"},"arcs":[139]},{"type":"MultiLineString","properties":{"sort_rank":355,"source":"openstreetmap.org","min_zoom":8.0,"name":"\u042f\u043b\u0442\u0430 - \u041d\u043e\u0432\u043e\u0440\u043e\u0441\u0441\u0438\u0439\u0441\u043a","kind":"ferry"},"arcs":[[140],[141]]},{"type":"MultiLineString","properties":{"kind":"major_road","name:en":"Mira Street","network":"ru:regional","sort_rank":380,"kind_detail":"primary","source":"openstreetmap.org","min_zoom":8.0,"landuse_kind":"urban_area","shield_text":"03\u0410","ref":"03\u0410-103"},"arcs":[[142],[143]]},{"type":"MultiLineString","properties":{"bus_network":null,"name:en":"Sukhumskoye Shosse","network":"ru:national","sort_rank":381,"landuse_kind":"urban_area","kind":"major_road","source":"openstreetmap.org","min_zoom":8.0,"bus_shield_text":"\u0422\u0443\u0430\u043f\u0441\u0435 \u2014 \u041f\u043e\u0440\u0442 \u041a\u0430\u0432\u043a\u0430\u0437","shield_text":"4","kind_detail":"trunk","ref":"\u041c-4"},"arcs":[[144],[145]]},{"type":"MultiLineString","properties":{"bus_network":"city","network":"ru:regional","sort_rank":381,"landuse_kind":"urban_area","kind":"major_road","source":"openstreetmap.org","min_zoom":8.0,"bus_shield_text":"15\u0430","shield_text":"03\u041a","kind_detail":"trunk","ref":"03\u041a-367"},"arcs":[[146],[147],[148]]},{"type":"MultiLineString","properties":{"kind":"major_road","network":"ru:regional","sort_rank":380,"kind_detail":"primary","source":"openstreetmap.org","min_zoom":8.0,"landuse_kind":"residential","shield_text":"03\u0410","ref":"03\u0410-103"},"arcs":[[149],[150]]},{"type":"MultiLineString","properties":{"bus_network":"city","network":"ru:national","sort_rank":381,"landuse_kind":"urban_area","kind":"major_road","source":"openstreetmap.org","min_zoom":8.0,"bus_shield_text":"8\u0430","shield_text":"290","kind_detail":"trunk","ref":"\u0410-290"},"arcs":[[151],[152],[153],[154]]},{"type":"LineString","properties":{"bus_network":null,"name:en":"Sudostalskaya Street","network":"ru:regional","sort_rank":381,"kind_detail":"trunk","kind":"major_road","source":"openstreetmap.org","min_zoom":8.0,"bus_shield_text":"\u0422\u0443\u0430\u043f\u0441\u0435 \u2014 \u041f\u043e\u0440\u0442 \u041a\u0430\u0432\u043a\u0430\u0437","shield_text":"03\u041a","landuse_kind":"urban_area","ref":"03\u041a-367"},"arcs":[155]},{"type":"LineString","properties":{"bus_network":"city","network":"ru:national","sort_rank":381,"kind_detail":"trunk","kind":"major_road","source":"openstreetmap.org","min_zoom":8.0,"bus_shield_text":"15\u0430","shield_text":"290","landuse_kind":"urban_area","ref":"\u0410-290"},"arcs":[156]},{"type":"MultiLineString","properties":{"source":"openstreetmap.org","kind":"ferry","sort_rank":355,"ref":"\u042f\u043b\u0442\u0430 - \u041d\u043e\u0432\u043e\u0440\u043e\u0441\u0441\u0438\u0439\u0441\u043a","min_zoom":8.0,"osm_relation":true},"arcs":[[157],[158]]},{"type":"MultiLineString","properties":{"bus_network":"city","sort_rank":380,"kind_detail":"primary","kind":"major_road","source":"openstreetmap.org","min_zoom":8.0,"bus_shield_text":"15\u0430","landuse_kind":"urban_area"},"arcs":[[159],[160],[161],[162]]},{"type":"LineString","properties":{"kind":"major_road","network":"e-road","sort_rank":381,"kind_detail":"trunk","bus_network":null,"source":"openstreetmap.org","min_zoom":8.0,"bus_shield_text":"\u041d\u043e\u0432\u043e\u0440\u043e\u0441\u0441\u0438\u0439\u0441\u043a \u2014 \u041f\u043e\u0440\u0442 \u041a\u0430\u0432\u043a\u0430\u0437","shield_text":"97","landuse_kind":"urban_area","id":219153239},"arcs":[163]},{"type":"LineString","properties":{"kind":"major_road","network":"ru:regional","sort_rank":381,"kind_detail":"trunk","bus_network":null,"source":"openstreetmap.org","min_zoom":8.0,"bus_shield_text":"\u041d\u043e\u0432\u043e\u0440\u043e\u0441\u0441\u0438\u0439\u0441\u043a \u2014 \u041f\u043e\u0440\u0442 \u041a\u0430\u0432\u043a\u0430\u0437","shield_text":"03\u041a","landuse_kind":"urban_area","ref":"03\u041a-367","id":219153235},"arcs":[164]},{"type":"LineString","properties":{"bus_network":null,"name:en":"Sakko i Vantsetti Street","network":"ru:regional","sort_rank":381,"kind_detail":"trunk","kind":"major_road","source":"openstreetmap.org","min_zoom":8.0,"bus_shield_text":"\u0422\u0443\u0430\u043f\u0441\u0435 \u2014 \u041f\u043e\u0440\u0442 \u041a\u0430\u0432\u043a\u0430\u0437","shield_text":"03\u041a","landuse_kind":"urban_area","ref":"03\u041a-367"},"arcs":[165]},{"type":"LineString","properties":{"bus_network":"city","name:en":"Anapskoye Shosse","network":"ru:national","sort_rank":381,"landuse_kind":"urban_area","kind":"major_road","source":"openstreetmap.org","min_zoom":8.0,"bus_shield_text":"8\u0430","shield_text":"290","kind_detail":"trunk","ref":"\u0410-290"},"arcs":[166]},{"type":"MultiLineString","properties":{"kind":"major_road","network":"ru:national","sort_rank":381,"landuse_kind":"urban_area","source":"openstreetmap.org","min_zoom":8.0,"kind_detail":"trunk","shield_text":"290","ref":"\u0410-290"},"arcs":[[167],[168]]},{"type":"MultiLineString","properties":{"bus_network":"city","network":"ru:national","sort_rank":381,"kind_detail":"trunk","kind":"major_road","source":"openstreetmap.org","min_zoom":8.0,"bus_shield_text":"104","shield_text":"146","ref":"\u0410-146"},"arcs":[[169],[170],[171],[172],[173]]},{"type":"MultiLineString","properties":{"bus_network":null,"network":"ru:regional","sort_rank":381,"kind_detail":"trunk","kind":"major_road","source":"openstreetmap.org","min_zoom":8.0,"bus_shield_text":"\u0422\u0443\u0430\u043f\u0441\u0435 \u2014 \u041f\u043e\u0440\u0442 \u041a\u0430\u0432\u043a\u0430\u0437","shield_text":"03\u041a","landuse_kind":"urban_area","ref":"03\u041a-010"},"arcs":[[174],[175]]}]},"earth":{"type":"GeometryCollection","geometries":[{"type":"Polygon","properties":{"sort_rank":10,"source":"naturalearthdata.com","min_zoom":0.0,"kind":"earth","area":25887638664},"arcs":[[176]]}]},"landuse":{"type":"GeometryCollection","geometries":[{"type":"Polygon","properties":{"kind":"residential","name":"\u0410\u0434\u0430\u0433\u0443\u043c","area":14569800,"sort_rank":20,"source":"openstreetmap.org","min_zoom":8.0,"tier":2,"id":58095207},"arcs":[[177]]},{"type":"Polygon","properties":{"kind":"residential","name:en":"Gostagayevskaya","name":"\u0413\u043e\u0441\u0442\u0430\u0433\u0430\u0435\u0432\u0441\u043a\u0430\u044f","area":33832900,"sort_rank":20,"name:ar":"\u063a\u0648\u0633\u062a\u0627\u063a\u0627\u064a\u0641\u0633\u0643\u0627\u064a\u0627","name:de":"Gostagajewskaja","source":"openstreetmap.org","min_zoom":8.0,"name:uk":"\u0413\u043e\u0441\u0442\u0430\u0433\u0430\u0454\u0432\u0441\u044c\u043a\u0430","tier":2,"id":46426278,"name:es":"Gostag\u00e1yevskaya"},"arcs":[[178]]},{"type":"MultiPolygon","properties":{"source":"naturalearthdata.com","kind":"urban_area","name":"","area":1175300565,"sort_rank":11,"min_zoom":4.0},"arcs":[[[179]],[[180]],[[181]]]},{"type":"MultiPolygon","properties":{"source":"openstreetmap.org","kind":"residential","tier":2,"area":40818311,"sort_rank":20,"min_zoom":8.0},"arcs":[[[182]],[[183]]]},{"type":"MultiPolygon","properties":{"source":"openstreetmap.org","kind":"park","tier":2,"area":474405709,"sort_rank":24,"min_zoom":6.0},"arcs":[[[184]],[[185]]]},{"type":"Polygon","properties":{"kind":"military","area":85087504,"sort_rank":45,"source":"openstreetmap.org","min_zoom":8.0,"tier":3,"id":-5662774,"osm_relation":true},"arcs":[[186]]}]}},"type":"Topology","transform":{"translate":[36.5625,44.0875850282],"scale":[0.0003433228,0.0002444948]},"arcs":[[[138,3489],[-138,525]],[[0,3332],[138,157]],[[138,3489],[-138,525]],[[0,3332],[138,157]],[[138,3489],[277,-77],[250,5],[154,-39],[140,-78],[183,-52],[235,-150],[80,-207],[152,-191],[37,-205],[117,-224],[142,-146],[341,-250],[280,-100],[136,-88],[142,-56],[665,-63],[212,-217],[243,-111],[172,-181]],[[3554,2647],[-47,12],[-130,162],[-219,123],[-24,50],[42,68],[74,41],[103,-10],[135,127],[408,-14],[200,107]],[[3554,2647],[-47,12],[-130,162],[-179,88],[-64,80],[49,79],[67,35],[103,-10],[135,127],[403,-16],[205,108]],[[4096,3675],[-205,186],[-61,14],[-342,221]],[[2339,4096],[-102,-62],[28,-130],[-95,-77],[-52,-169],[7,-43],[76,-85]],[[957,4096],[172,-96],[246,-73],[98,-71],[109,-42],[42,-43],[44,-23],[50,-17],[39,-7],[76,-29],[278,-257],[55,-76],[15,-77],[-55,-64],[0,-31],[74,-87],[97,-277],[58,-125],[44,-46],[147,-82],[43,-52],[36,-57],[42,-52],[60,-36],[30,28],[37,-13],[41,-26],[98,-38],[22,-5],[19,8],[51,46],[90,2],[81,-29],[147,-82],[77,-25],[95,-14],[90,12],[58,52],[7,83],[-40,74],[-53,80],[-35,98],[62,-30],[129,-89],[59,-18],[30,-29],[170,-207],[9,-18],[-2,-27],[-15,-24],[-16,-19],[-6,-14],[16,-32],[47,-36],[71,-81],[0,-2003],[-4096,0],[0,4096],[957,0]],[[957,4096],[172,-96],[246,-73],[98,-71],[109,-42],[42,-43],[44,-23],[50,-17],[39,-7],[76,-29],[278,-257],[55,-76],[15,-77],[-55,-64],[0,-31],[74,-87],[97,-277],[58,-125],[44,-46],[147,-82],[43,-52],[36,-57],[42,-52],[60,-36],[30,28],[37,-13],[41,-26],[98,-38],[22,-5],[19,8],[51,46],[90,2],[81,-29],[147,-82],[77,-25],[95,-14],[90,12],[58,52],[7,83],[-40,74],[-53,80],[-35,98],[62,-30],[129,-89],[59,-18],[30,-29],[170,-207],[9,-18],[-2,-27],[-15,-24],[-16,-19],[-6,-14],[16,-32],[47,-36],[71,-81]],[[2258,3327],[17,-7],[75,1]],[[2350,3321],[-48,-1]],[[2712,3838],[0,-7]],[[4031,3700],[-24,30]],[[2263,3442],[1,-2]],[[2264,3440],[1,2]],[[4096,150],[-4096,3742]],[[2712,3838],[28,-2]],[[3560,2590],[-4,-2]],[[3607,2590],[-22,12]],[[2415,3322],[-62,-1]],[[2353,3321],[63,1]],[[3495,2691],[-32,22]],[[3512,2678],[-11,8]],[[3560,2590],[-4,-2]],[[3602,2593],[-15,8]],[[3391,2684],[-1,0]],[[3558,2649],[-6,3]],[[2199,4096],[30,-162],[-32,-342],[-27,-24]],[[2291,3436],[87,-12],[70,-47]],[[2473,3368],[274,-91],[258,54],[117,-176]],[[3122,3155],[54,-58]],[[3197,2906],[-49,99],[20,47]],[[3176,3097],[2,-3]],[[2457,3374],[7,-2],[1,0],[-7,4],[-1,-2]],[[3369,2760],[-33,21]],[[2913,4028],[-37,-53]],[[3562,2658],[-5,2]],[[3396,2679],[4,-3]],[[3369,2760],[19,-72]],[[2222,3427],[-2,-2]],[[2222,3421],[1,4]],[[2223,3426],[0,1]],[[2268,3443],[-3,0]],[[2265,3441],[1,1],[1,0]],[[2267,3442],[1,1]],[[2267,3440],[0,2]],[[2267,3442]],[[2287,3460],[-19,-17]],[[2219,3428],[1,-4]],[[3561,2653],[-2,-3]],[[3175,3099],[0,1]],[[3178,3094],[-10,-42]],[[3504,2618],[-2,-6]],[[3507,2623],[-3,-5]],[[3939,2366],[-166,148]],[[4096,2274],[-7,5]],[[2660,3835],[-20,2]],[[3388,4090],[-18,6]],[[3887,3856],[-55,18]],[[3913,3830],[-3,4]],[[4095,3354],[1,0]],[[2233,3366]],[[3417,2768],[-25,14]],[[3001,0],[722,2231],[-32,173],[-89,189]],[[3587,2601],[-27,-11]],[[3674,2611],[-22,10]],[[3585,2602],[-25,-12]],[[4096,1618],[-211,156],[-160,620],[-118,196]],[[3391,2682],[5,-3]],[[3560,2590],[-4,-2]],[[3607,2590],[-22,12]],[[3558,2649],[4,7]],[[2170,3568],[49,-140]],[[2267,3440],[24,-4]],[[3238,2863],[-41,43]],[[3301,2799],[-35,40]],[[3507,4042],[-119,48]],[[3642,3981],[-102,47]],[[3832,3874],[-140,86]],[[3910,3834],[-23,22]],[[4007,3730],[-94,100]],[[4096,3580],[-30,98],[-35,22]],[[4095,3354],[1,19]],[[4089,2279],[-150,87]],[[3769,3197],[105,5]],[[2712,3831],[-52,4]],[[3511,2630],[-4,-7]],[[3555,2646],[-40,-8]],[[2640,3837],[-102,-153],[-164,-119],[-87,-105]],[[2761,3886],[-1,-2]],[[2959,4096],[-57,-50],[11,-18]],[[3552,2652],[-22,9]],[[3692,3960],[-50,21]],[[3731,3202],[29,-11]],[[3560,2590],[-4,-2]],[[3598,2595],[-9,5]],[[2244,3344],[10,-16],[4,-1]],[[2256,3328],[-12,17]],[[2473,3368],[-8,6]],[[2302,3320],[-43,7]],[[2457,3374],[1,-4]],[[2458,3370],[5,2]],[[2259,3327],[-5,1]],[[3540,4028],[-33,14]],[[4096,3423],[-19,61],[19,32]],[[3585,2602],[-25,-12]],[[4096,1605],[-185,135],[-60,112],[-126,542],[-118,196]],[[3560,2590],[-4,-2]],[[3598,2595],[-9,5]],[[2458,3370],[-26,-26]],[[2433,3344],[25,26]],[[3561,2653],[1,5]],[[3488,2618],[10,-7]],[[3504,2618]],[[4096,150],[-4096,3742]],[[2458,3376],[-1,-2]],[[2464,3372],[9,-4]],[[3166,3033],[1,-2]],[[3400,2676],[11,-7]],[[3415,2667],[66,-45]],[[3649,2624],[3,-3]],[[3773,2514],[-33,37]],[[3498,2611],[1,-1]],[[2244,3345],[-24,79],[24,-80]],[[2760,3884],[-20,-48]],[[3500,2611],[-1,-1]],[[3501,2610],[-1,1]],[[3554,2656],[7,-3]],[[2876,3975],[-4,-5]],[[3500,2611],[-2,0]],[[3499,2610],[1,-2]],[[3501,2610]],[[2872,3970],[-83,-35],[-28,-49]],[[3911,3210],[56,11],[129,83]],[[3557,2660],[-3,-4]],[[3652,2621],[-3,3]],[[3498,2611],[-10,7]],[[2220,3424],[5,3]],[[0,1954],[3270,156],[348,87],[57,210],[-77,188]],[[3589,2600],[-29,-10]],[[2353,3321],[-3,0]],[[2350,3321],[3,0]],[[3649,2624],[-56,32]],[[3740,2551],[-66,60]],[[3502,2612],[-2,-1]],[[3515,2638],[-4,-8]],[[3559,2650],[-4,-4]],[[2432,3344],[-1,-1],[-16,-21]],[[2416,3322],[17,22]],[[3266,2839],[-28,24]],[[3307,2792],[-6,7]],[[3336,2781],[-26,8]],[[3388,2688],[3,-6]],[[3593,2656],[-33,16]],[[3396,2679],[-8,9]],[[0,1954],[3270,156],[348,87],[57,210],[-77,188]],[[3589,2600],[-29,-10]],[[3392,2782],[-23,-22]],[[3463,2713],[-46,55]],[[3495,2691],[6,-5]],[[3530,2661],[-18,17]],[[3500,2608],[1,2]],[[3501,2610],[1,2]],[[3560,2672],[2,-14]],[[3481,2622],[7,-4]],[[3391,2682],[1,1]],[[3411,2669],[4,-2]],[[3167,3031],[3,1]],[[3188,3053],[-18,-21]],[[3188,3053],[73,48],[87,-15],[103,108],[94,34],[186,-26]],[[3760,3191],[9,6]],[[3874,3202],[37,8]],[[2219,3428],[42,12]],[[2264,3440],[1,2],[-1,1],[-1,-2],[1,-1]],[[4096,2003],[-71,81],[-47,36],[-16,32],[6,14],[16,19],[15,24],[2,27],[-9,18],[-170,207],[-30,29],[-59,18],[-129,89],[-62,30],[35,-98],[53,-80],[40,-74],[-7,-83],[-58,-52],[-90,-12],[-95,14],[-77,25],[-147,82],[-81,29],[-90,-2],[-51,-46],[-19,-8],[-22,5],[-98,38],[-41,26],[-37,13],[-30,-28],[-60,36],[-42,52],[-36,57],[-43,52],[-147,82],[-44,46],[-58,125],[-97,277],[-74,87],[0,31],[55,64],[-15,77],[-55,76],[-278,257],[-76,29],[-39,7],[-50,17],[-44,23],[-42,43],[-109,42],[-98,71],[-246,73],[-172,96],[3139,0],[0,-2093]],[[3420,4096],[-32,-5],[-20,-47],[-17,6],[-1,46],[70,0]],[[2614,3863],[82,27],[116,-11],[51,-61],[0,-34],[-48,12],[-7,-29],[-50,-6],[-42,-38],[-28,95],[-74,45]],[[3770,2629],[3,-133],[-231,131],[98,-195],[-67,-29],[-52,8],[-33,91],[-194,45],[0,91],[-105,157],[8,116],[54,38],[145,-2],[180,-167],[123,-28],[71,-123]],[[2356,3274],[-175,11],[-15,77],[-122,137],[3,57],[-59,128],[140,-2],[15,-88],[148,-137],[0,-91],[66,-42],[-1,-50]],[[4096,3562],[0,-155],[-13,20],[-142,75],[24,72],[50,18],[81,-30]],[[2329,3355],[57,11],[111,-53],[-69,-12],[-19,-59],[-80,113]],[[3804,3821],[28,21],[1,118],[72,9],[-18,-117],[27,-21],[-59,-43],[-44,9],[-7,24]],[[2412,2849],[116,40],[220,-69],[51,46],[40,-1],[9,-50],[-97,-68],[68,-64],[91,-27],[-13,-82],[-28,3],[43,-55],[-22,-97],[-285,113],[-137,130],[-49,98],[19,60],[-26,23]],[[2568,4066],[104,-1],[56,-43],[94,-7],[260,-196],[47,5],[69,-57],[25,-23],[-133,-122],[123,-179],[97,-33],[50,-63],[-76,-41],[-59,18],[-153,108],[-17,62],[-201,65],[-32,61],[-63,17],[-31,99],[77,0],[26,49],[36,-7],[-2,40],[-59,65],[-158,11],[0,57],[-80,115]],[[2751,2746],[99,68],[11,49],[67,16],[20,117],[33,19],[105,-8],[60,-66],[6,-48],[-44,-53],[-53,23],[-109,-79],[-21,-110],[-85,-2],[-89,74]]]}