{"objects":{"water":{"type":"GeometryCollection","geometries":[{"type":"Polygon","properties":{"source":"naturalearthdata.com","kind":"ocean","area":1576712559132672,"sort_rank":200,"min_zoom":0.0,"id":1},"arcs":[[18],[19]]},{"type":"LineString","properties":{"source":"naturalearthdata.com","kind":"ocean","sort_rank":205,"boundary":true,"min_zoom":0.0,"id":31},"arcs":[20]},{"type":"LineString","properties":{"source":"naturalearthdata.com","kind":"ocean","sort_rank":205,"boundary":true,"min_zoom":0.0,"id":1999},"arcs":[21]}]},"buildings":{"type":"GeometryCollection","geometries":[]},"places":{"type":"GeometryCollection","geometries":[{"type":"Point","properties":{"name:pt":"Brunei","name:ka":"\u10d1\u10e0\u10e3\u10dc\u10d4\u10d8","name:mt":"Brunej","name:ko":"\ube0c\ub8e8\ub098\uc774","name:kn":"\u0cac\u0ccd\u0cb0\u0cc2\u0ca8\u0cbf","name:km":"\u1794\u17ca\u17d2\u179a\u17bb\u1799\u178e\u17c1","name:kl":"Brunei","name:cs":"Brunej","name:ki":"Brunei","name:tr":"Bruney","name:ku":"Br\u00fbney","name:ti":"\u1265\u1229\u1292","name:ks":"\u0628\u064f\u0631\u0646\u0654\u06d2","name:to":"Pulunei","name:tl":"Brunay","name:sv":"Brunei","name:or":"\u0b2c\u0b4d\u0b30\u0b41\u0b28\u0b47\u0b07","name:pl":"Brunei","name:ta":"\u0baa\u0bc1\u0bb0\u0bc2\u0ba9\u0bc7\u0baf\u0bcd","name:tg":"\u0411\u0440\u0443\u043d\u0435\u0439 \u0414\u043e\u0440\u0443\u0441\u0441\u0430\u043b\u0430\u043c","name:ca":"Brunei","name:te":"\u0c2c\u0c4d\u0c30\u0c41\u0c28\u0c48","name:hu":"Brunei","name:ro":"Brunei","name:cy":"Brunei","name:hr":"Brunej","name:da":"Brunei","name:de":"Brunei","name:dz":"\u0f56\u0fb7\u0fb2\u0f74\u0f0b\u0f53\u0f60\u0f72","source":"openstreetmap.org","name:lv":"Bruneja","name:lt":"Brun\u0117jaus Darusalamas","name:uz":"Bruney","name:he":"\u05d1\u05e8\u05d5\u05e0\u05d9\u05d9","kind":"country","name:ur":"\u0628\u0631\u0648\u0646\u0626\u06cc","name:lb":"Brunei","name:la":"Bruneium","name:lg":"Burunayi","name:uk":"\u0411\u0440\u0443\u043d\u0435\u0439","name:hy":"\u0532\u0580\u0578\u0582\u0576\u0565\u0575","min_zoom":2.0,"name:li":"Broenai","name:ln":"Brineyi","name:lo":"\u0e9a\u0eb9\u0eae\u0ec4\u0e99","population":408786,"name:el":"\u039c\u03c0\u03c1\u03bf\u03c5\u03bd\u03ad\u03b9","name:eo":"Brunejo","name:en":"Brunei","name":"Brunei Darussalam","official_name":"Negara Brunei Darussalam","name:ee":"Brunei nutome","name:th":"\u0e1b\u0e23\u0e30\u0e40\u0e17\u0e28\u0e1a\u0e23\u0e39\u0e44\u0e19\u0e14\u0e32\u0e23\u0e38\u0e2a\u0e0b\u0e32\u0e25\u0e32\u0e21","name:gu":"\u0aac\u0acd\u0ab0\u0ac1\u0aa8\u0ac7\u0a87","name:eu":"Brunei","name:et":"Brunei","name:nl":"Brunei","name:es":"Brun\u00e9i","name:ia":"Brunei","name:rm":"Brunei","name:rn":"Buruneyi","name:az":"Bruney","name:id":"Brunei","name:mr":"\u092c\u094d\u0930\u0941\u0928\u0947\u0908","name:ar":"\u0628\u0631\u0648\u0646\u0627\u064a","name:my":"\u1018\u101b\u1030\u1014\u102d\u102f\u1004\u103a\u1038","name:io":"Brunei","int_name":"Brunei","name:is":"Br\u00fanei","name:am":"\u1265\u1229\u1292","name:it":"Brunei","name:vi":"Brunei","name:ru":"\u0411\u0440\u0443\u043d\u0435\u0439","name:mn":"\u0411\u0440\u0443\u043d\u0435\u0439","id":1694010854,"name:mk":"\u0411\u0440\u0443\u043d\u0435\u0438","name:af":"Broenei","name:zu":"i-Brunei","name:ha":"Burune","name:ff":"Burnaay","name:fi":"Brunei","name:hi":"\u092c\u094d\u0930\u0941\u0928\u0947\u0908","name:mg":"Brunei","name:fo":"Brunei","name:fr":"Brunei","name:fy":"Br\u00fbnei","name:vo":"Brun\u00e4n","name:zh":"\u6587\u83b1","name:gv":"Brunei","name:so":"Buruneeya","name:sn":"Burunei","name:sl":"Brunej","name:sk":"Brunej","name:ja":"\u30d6\u30eb\u30cd\u30a4","name:si":"\u0db6\u0df2\u0db1\u0dcf\u0dba\u0dd2","name:fa":"\u0628\u0631\u0648\u0646\u0626\u06cc","name:sg":"Brun\u00eai","name:se":"Brunei","name:ne":"\u092c\u094d\u0930\u0941\u0928\u093e\u0907","name:br":"Brunei","name:bs":"Brunej","name:bm":"Burin\u025byi","name:bn":"\u09ac\u09cd\u09b0\u09c1\u09a8\u09c7\u0987","name:bo":"\u0f56\u0f74\u0f0b\u0f62\u0f74\u0f0b\u0f53\u0f7a\u0f0d","name:ml":"\u0d2c\u0d4d\u0d30\u0d42\u0d23\u0d48","name:no":"Brunei","name:sw":"Brunei","name:be":"\u0411\u0440\u0443\u043d\u0435\u0439","name:bg":"\u0411\u0440\u0443\u043d\u0435\u0439 \u0414\u0430\u0440\u0443\u0441\u0430\u043b\u0430\u043c","name:sr":"\u0411\u0440\u0443\u043d\u0435\u0458","name:sq":"Brunej","name:ga":"Br\u00fain\u00e9","name:gd":"Br\u00f9naidh","name:gl":"Brunei","name:yo":"Or\u00edl\u1eb9\u0301\u00e8de B\u00far\u00fan\u1eb9\u0301l\u00ec","name:ak":"Brunae","name:tt":"\u0411\u0440\u0443\u043d\u0435\u0439"},"coordinates":[1920,581]},{"type":"Point","properties":{"kind":"region","name":"Federal Territory of Labuan","name:ms":"Wilayah Persekutuan Labuan","kind_detail":"state","source":"openstreetmap.org","min_zoom":4.0,"name:zh":"\u7eb3\u95fd\u8054\u90a6\u76f4\u8f96\u533a","id":4416752667},"coordinates":[3826,3221]},{"type":"Point","properties":{"kind":"locality","name":"Miri","kind_detail":"city","source":"openstreetmap.org","min_zoom":8.0,"name:zh":"\u7f8e\u91cc","id":3696517558,"population":358020},"coordinates":[235,516]},{"type":"Point","properties":{"kind":"locality","name:en":"Victoria","name":"Labuan","kind_detail":"city","source":"openstreetmap.org","min_zoom":8.0,"name:zh":"\u7eb3\u95fd","id":317714066,"population":85000},"coordinates":[3891,3109]},{"type":"Point","properties":{"name:az":"Bandar Seri Begavan","name:ka":"\u10d1\u10d0\u10dc\u10d3\u10d0\u10e0-\u10e1\u10d4\u10e0\u10d8-\u10d1\u10d4\u10d2\u10d0\u10d5\u10d0\u10dc\u10d8","name:mr":"\u092c\u0902\u0926\u0930 \u0938\u094d\u0930\u0940 \u092c\u0917\u0935\u093e\u0928","name:ko":"\ubc18\ub2e4\ub974\uc2a4\ub9ac\ube0c\uac00\uc644","name:ar":"\u0628\u0646\u062f\u0631 \u0633\u0631\u064a \u0628\u0643\u0627\u0648\u0627\u0646","name:my":"\u1018\u1014\u103a\u1012\u102b\u1006\u101b\u102e\u1018\u1002\u102b\u101d\u1019\u103a\u1019\u103c\u102d\u102f\u1037","name:tt":"\u0411\u0430\u043d\u0434\u0430\u0440-\u0421\u0435\u0440\u0438-\u0411\u0435\u0433\u0430\u0432\u0430\u043d","name:tr":"Bandar Seri Begavan","name:th":"\u0e1a\u0e31\u0e19\u0e14\u0e32\u0e23\u0e4c\u0e40\u0e2a\u0e23\u0e35\u0e40\u0e1a\u0e01\u0e32\u0e27\u0e31\u0e19","name:am":"\u1263\u1295\u12f3\u122d \u1230\u122a \u1264\u130b\u12cb\u1295","name:os":"\u0411\u0430\u043d\u0434\u0430\u0440-\u0421\u0435\u0440\u0438-\u0411\u0435\u0433\u0430\u0432\u0430\u043d","name:ru":"\u0411\u0430\u043d\u0434\u0430\u0440-\u0421\u0435\u0440\u0438-\u0411\u0435\u0433\u0430\u0432\u0430\u043d","name:ta":"\u0baa\u0ba3\u0bcd\u0b9f\u0bb0\u0bcd \u0b9a\u0bc6\u0bb0\u0bbf \u0baa\u0bc6\u0b95\u0bbe\u0bb5\u0bbe\u0ba9\u0bcd","name:tg":"\u0411\u0430\u043d\u0434\u0430\u0440-\u0421\u0435\u0440\u0438-\u0411\u0435\u0433\u0430\u0432\u0430\u043d","name:mk":"\u0411\u0430\u043d\u0434\u0430\u0440 \u0421\u0435\u0440\u0438 \u0411\u0435\u0433\u0430\u0432\u0430\u043d","name:fa":"\u0628\u0646\u062f\u0631 \u0633\u0631\u06cc \u0628\u06af\u0627\u0648\u0627\u0646","name:mn":"\u0411\u0430\u043d\u0434\u0430\u0440 \u0421\u0435\u0440\u0438 \u0411\u0435\u0433\u0430\u0432\u0430\u043d","kind_detail":"city","id":1699083598,"source":"openstreetmap.org","name:ky":"\u0411\u0430\u043d\u0434\u0430\u0440-\u0421\u0435\u0440\u0438-\u0411\u0435\u0433\u0430\u0432\u0430\u043d","name:fy":"Bandar Sery Begawan","name:zh":"\u65af\u91cc\u5df4\u52a0\u6e7e\u5e02","admin_level":"2","name:lv":"Bandarseribegavana","name:ja":"\u30d0\u30f3\u30c0\u30eb\u30b9\u30ea\u30d6\u30ac\u30ef\u30f3","name:lt":"Bandar Seri Begavanas","name:he":"\u05d1\u05e0\u05d3\u05e8 \u05e1\u05e8\u05d9 \u05d1\u05d2\u05d5\u05d5\u05d0\u05df","kind":"locality","name:ur":"\u0628\u0646\u062f\u0631 \u0633\u0631\u06cc \u0628\u06af\u0627\u0648\u0627\u0646","name:bn":"\u09ac\u09a8\u09cd\u09a6\u09b0 \u09b8\u09c7\u09b0\u09bf \u09ac\u09c7\u0997\u09be\u0993\u09af\u09bc\u09be\u09a8","name:bo":"\u0f66\u0f72\u0f0b\u0f62\u0f72\u0f0b\u0f54\u0f7a\u0f0b\u0f40\u0f0b\u0f58\u0f5a\u0f7c\u0f0b\u0f41\u0f74\u0f42\u0f66\u0f0b\u0f42\u0fb2\u0f7c\u0f44\u0f0b\u0f41\u0fb1\u0f7a\u0f62\u200b\u0f0d","name:uk":"\u0411\u0430\u043d\u0434\u0430\u0440-\u0421\u0435\u0440\u0456-\u0411\u0435\u0433\u0430\u0432\u0430\u043d","name:hy":"\u0532\u0561\u0576\u0564\u0561\u0580 \u054d\u0565\u0580\u056b \u0532\u0565\u0563\u0561\u057e\u0561\u0576","country_capital":true,"name:be":"\u0411\u0430\u043d\u0434\u0430\u0440-\u0421\u0435\u0440\u044b-\u0411\u0435\u0433\u0430\u0432\u0430\u043d","name:ug":"\u0628\u0627\u0646\u062f\u0627\u0631 \u0633\u06d5\u0631\u0649 \u0628\u06d5\u06af\u0627\u06cb\u0627\u0646","name:bg":"\u0411\u0430\u043d\u0434\u0430\u0440 \u0421\u0435\u0440\u0438 \u0411\u0435\u0433\u0430\u0432\u0430\u043d","name:sr":"\u0411\u0430\u043d\u0434\u0430\u0440 \u0421\u0435\u0440\u0438 \u0411\u0435\u0433\u0430\u0432\u0430\u043d","population":50000,"name:el":"\u039c\u03c0\u03b1\u03bd\u03c4\u03ac\u03c1 \u03a3\u03b5\u03c1\u03af \u039c\u03c0\u03b5\u03b3\u03ba\u03b1\u03b2\u03ac\u03bd","name:eo":"Bandar-Seri-Begavano","name":"Bandar Seri Begawan","name:ht":"Banda Seri","min_zoom":8.0},"coordinates":[3016,1972]},{"type":"Point","properties":{"kind":"locality","name":"Limbang","kind_detail":"city","source":"openstreetmap.org","min_zoom":8.0,"population":42200,"name:zh":"\u6797\u68a6","id":369495900,"name:ja":"\u30ea\u30f3\u30d0\u30f3"},"coordinates":[3213,1574]},{"type":"Point","properties":{"kind":"locality","name":"Kuala Belait","name:ms":"Pekan Kuala Belait","kind_detail":"town","source":"openstreetmap.org","min_zoom":8.0,"population":30267,"name:zh":"\u9a6c\u62c9\u5955","id":1013092342,"name:ja":"\u30af\u30a2\u30e9\u30fb\u30d6\u30e9\u30a4\u30c8"},"coordinates":[836,1080]},{"type":"Point","properties":{"kind":"locality","name":"Seria","kind_detail":"town","source":"openstreetmap.org","min_zoom":8.0,"population":21082,"id":1841496285,"name:ja":"\u30bb\u30ea\u30a2"},"coordinates":[1241,1166]}]},"transit":{"type":"GeometryCollection","geometries":[]},"pois":{"type":"GeometryCollection","geometries":[]},"boundaries":{"type":"GeometryCollection","geometries":[{"type":"MultiLineString","properties":{"name:left:la":"Malaesia","name:left:li":"Maleisi\u00eb","name:right:hr":"Brunej","name:left:sq":"Malajzia","name:left:ss":"IMaleshiya","name:left:sr":"\u041c\u0430\u043b\u0435\u0437\u0438\u0458\u0430","name:left:sl":"Malezija","name:left:so":"Malaysiya","name:left:lt":"Malaizija","name:left:sh":"Malezija","name:left:lv":"Malaizija","name:left:se":"Malesia","name:left:sg":"Malez\u00efi","name:left:sa":"\u092e\u0932\u092f\u0947\u0936\u093f\u092f\u093e","name:left:ce":"\u041c\u0430\u043b\u0430\u0439\u0437\u0438","name:left:ca":"Mal\u00e0isia","source":"openstreetmap.org","name:right:ar":"\u0628\u0631\u0648\u0646\u0627\u064a","name:left:cv":"\u041c\u0430\u043b\u0430\u0439\u0437\u0438","name:left:cs":"Malajsie","name:left:ka":"\u10db\u10d0\u10da\u10d0\u10d8\u10d6\u10d8\u10d0","name:left:km":"\u1798\u17c9\u17b6\u17a1\u17c1\u179f\u17ca\u17b8","name:left:ko":"\ub9d0\ub808\uc774\uc2dc\uc544","name:left:kn":"\u0cae\u0cb2\u0cc7\u0cb6\u0cbf\u0caf","name:left:ro":"Malaezia","name:left:kk":"\u041c\u0430\u043b\u0430\u0439\u0437\u0438\u044f","name:right:ru":"\u0411\u0440\u0443\u043d\u0435\u0439","name:left:ku":"Malezya","name:left:kw":"Malaysi","name:left:kv":"\u041c\u0430\u043b\u0430\u0439\u0437\u0438\u044f","name:left:rw":"Malesiya","name:left:ru":"\u041c\u0430\u043b\u0430\u0439\u0437\u0438\u044f","name:left:lo":"\u0e9b\u0eb0\u0ec0\u0e97\u0e94\u0ea1\u0eb2\u0ec0\u0ea5\u0ec0\u0e8a\u0e8d","name:left:ky":"\u041c\u0430\u043b\u0430\u0439\u0437\u0438\u044f","name:right:ia":"Brunei","name":"Malaysia - Brunei Darussalam","name:left:zh":"\u9a6c\u6765\u897f\u4e9a","name:right:zh":"\u6c76\u83b1","name:left:za":"Majlaizsihya","name:left:uz":"Malayziya","name:right:fr":"Brunei","name:left:sk":"Malajzia","name:left:nv":"Mal\u00e9\u00edzha","name:left:ur":"\u0645\u0644\u0627\u0626\u06cc\u0634\u06cc\u0627","id:right":-2103120,"name:left:uk":"\u041c\u0430\u043b\u0430\u0439\u0437\u0456\u044f","name:left:nl":"Maleisi\u00eb","name:right:uz":"Bruney","name:left:ne":"\u092e\u0932\u0947\u0936\u093f\u092f\u093e","name:left:ug":"\u0645\u0627\u0644\u0627\u064a\u0633\u0649\u064a\u0627","name:left:na":"Maraidja","name:left:eo":"Malajzio","name:left:el":"\u039c\u03b1\u03bb\u03b1\u03b9\u03c3\u03af\u03b1","kind_detail":"2","name:left:wo":"Maleesi","name:left:es":"Malasia","name:left:tr":"Malezya","name:left:et":"Malaisia","name:left:mk":"\u041c\u0430\u043b\u0435\u0437\u0438\u0458\u0430","name:left:mi":"Mar\u0113hia","name:left:tt":"\u041c\u0430\u043b\u0430\u0439\u0437\u0438\u044f","name:left:mn":"\u041c\u0430\u043b\u0430\u0439\u0437","name:left:ml":"\u0d2e\u0d32\u0d47\u0d37\u0d4d\u0d2f","name:left:th":"\u0e1b\u0e23\u0e30\u0e40\u0e17\u0e28\u0e21\u0e32\u0e40\u0e25\u0e40\u0e0b\u0e35\u0e22","name:left:mr":"\u092e\u0932\u0947\u0936\u093f\u092f\u093e","name:left:tk":"Mala\u00fdzi\u00fda","name:left:tl":"Malasya","name:left:mt":"Mala\u017cja","name:left:ta":"\u0bae\u0bb2\u0bc7\u0b9a\u0bbf\u0baf\u0bbe","name:left:my":"\u1019\u101c\u1031\u1038\u101b\u103e\u102c\u1038\u1014\u102d\u102f\u1004\u103a\u1004\u1036","name:left:te":"\u0c2e\u0c32\u0c47\u0c37\u0c3f\u0c2f\u0c3e","osm_relation":true,"name:left:tg":"\u041c\u0430\u043b\u0430\u0439\u0437\u0438\u044f","name:left:dz":"\u0f58\u0f0b\u0f63\u0f7a\u0f0b\u0f64\u0f72\u0f0b\u0f61\u0f0b","name:left:dv":"\u0789\u07ac\u078d\u07ad\u079d\u07a8\u0794\u07a7","name:left:hi":"\u092e\u0932\u0947\u0936\u093f\u092f\u093e","name:left:he":"\u05de\u05dc\u05d6\u05d9\u05d4","name:left:gl":"Malaisia","min_zoom":8.0,"name:left:hy":"\u0544\u0561\u056c\u0561\u0566\u056b\u0561","name:left:an":"Malaisia","name:left:ht":"Malezi","name:left:hu":"Malajzia","name:left:hr":"Malezija","name:left:ga":"An Mhalaeisia","name:left:gd":"Malaidhsia","sort_rank":262,"int_name:right":"Brunei","name:left:gu":"\u0aae\u0ab2\u0ac7\u0ab6\u0abf\u0aaf\u0abe","name:left:gv":"Yn Valaysia","official_name:right":"Negara Brunei Darussalam","alt_name:right:cs":"Brunej Darussalam","name:left":"Malaysia","name:right:es":"Brun\u00e9i","name:right:vo":"Brun\u00e4n","name:left:os":"\u041c\u0430\u043b\u0430\u0439\u0437\u0438","name:left:or":"\u0b2e\u0b3e\u0b32\u0b47\u0b38\u0b3f\u0b06","name:left:vo":"Malaysiy\u00e4n","name:left:oc":"Mal\u00e0isia","name:right:eo":"Brunejo","name:right:en":"Brunei","kind":"country","name:left:fa":"\u0645\u0627\u0644\u0632\u06cc","name:left:fo":"Maleisia","name:right:sk":"Brunej","name:left:fi":"Malesia","name:left:fr":"Malaisie","name:left:fy":"Maleizje","name:left:bs":"Malezija","name:right:ja":"\u30d6\u30eb\u30cd\u30a4","name:left:ja":"\u30de\u30ec\u30fc\u30b7\u30a2","name:right:sv":"Brunei","name:left:qu":"Malasya","name:left:ba":"\u041c\u0430\u043b\u0430\u0439\u0437\u0438\u044f","name:left:bg":"\u041c\u0430\u043b\u0430\u0439\u0437\u0438\u044f","name:left:be":"\u041c\u0430\u043b\u0430\u0439\u0437\u0456\u044f","name:left:bn":"\u09ae\u09be\u09b2\u09af\u09bc\u09c7\u09b6\u09bf\u09af\u09bc\u09be","name:left:bo":"\u0f58\u0f0b\u0f63\u0f0b\u0f64\u0f72\u0f0b\u0f61\u0f0d","name:right":"Brunei Darussalam","id":-2108121,"name:left:yi":"\u05de\u05d0\u05dc\u05d9\u05d9\u05d6\u05d9\u05e2","id:left":-2108121,"name:right:cs":"Brunej","name:left:io":"Malaizia","name:left:ar":"\u0645\u0627\u0644\u064a\u0632\u064a\u0627","name:left:pl":"Malezja","name:left:az":"Malayziya","name:left:pt":"Mal\u00e1sia","name:left:af":"Maleisi\u00eb","name:left:zh-min-nan":"M\u00e1-l\u00e2i-se-a","name:left:am":"\u121b\u120c\u12e2\u12eb","name:left:it":"Malesia","name:left:is":"Malas\u00eda","name:right:ta":"\u0baa\u0bc1\u0bb0\u0bc2\u0ba3\u0bc8","name:right:io":"Brunei","name:right:de":"Brunei","name:left:zh-yue":"\u99ac\u4f86\u897f\u4e9e","name:left:pa":"\u0a2e\u0a32\u0a47\u0a38\u0a3c\u0a40\u0a06"},"arcs":[[0],[1]]},{"type":"MultiLineString","properties":{"name:pt":"Mal\u00e1sia","name:ka":"\u10db\u10d0\u10da\u10d0\u10d8\u10d6\u10d8\u10d0","name:ko":"\ub9d0\ub808\uc774\uc2dc\uc544","name:cv":"\u041c\u0430\u043b\u0430\u0439\u0437\u0438","name:km":"\u1798\u17c9\u17b6\u17a1\u17c1\u179f\u17ca\u17b8","name:cs":"Malajsie","name:tt":"\u041c\u0430\u043b\u0430\u0439\u0437\u0438\u044f","name:kw":"Malaysi","name:kv":"\u041c\u0430\u043b\u0430\u0439\u0437\u0438\u044f","name:ku":"Malezya","name:ro":"Malaezia","name:tl":"Malasya","name:zh-min-nan":"M\u00e1-l\u00e2i-se-a","name:os":"\u041c\u0430\u043b\u0430\u0439\u0437\u0438","name:or":"\u0b2e\u0b3e\u0b32\u0b47\u0b38\u0b3f\u0b06","name:ce":"\u041c\u0430\u043b\u0430\u0439\u0437\u0438","name:ta":"\u0bae\u0bb2\u0bc7\u0b9a\u0bbf\u0baf\u0bbe","name:tg":"\u041c\u0430\u043b\u0430\u0439\u0437\u0438\u044f","name:ca":"Mal\u00e0isia","name:te":"\u0c2e\u0c32\u0c47\u0c37\u0c3f\u0c2f\u0c3e","name:hu":"Malajzia","sort_rank":262,"name:qu":"Malasya","name:sr":"\u041c\u0430\u043b\u0435\u0437\u0438\u0458\u0430","name:dz":"\u0f58\u0f0b\u0f63\u0f7a\u0f0b\u0f64\u0f72\u0f0b\u0f61\u0f0b","source":"openstreetmap.org","osm_relation":true,"name:kn":"\u0cae\u0cb2\u0cc7\u0cb6\u0cbf\u0caf","name:dv":"\u0789\u07ac\u078d\u07ad\u079d\u07a8\u0794\u07a7","name:lv":"Malaizija","name:lt":"Malaizija","name:uz":"Malayziya","name:kk":"\u041c\u0430\u043b\u0430\u0439\u0437\u0438\u044f","name:he":"\u05de\u05dc\u05d6\u05d9\u05d4","kind":"country","name:ur":"\u0645\u0644\u0627\u0626\u06cc\u0634\u06cc\u0627","name:la":"Malaesia","name:uk":"\u041c\u0430\u043b\u0430\u0439\u0437\u0456\u044f","name:hy":"\u0544\u0561\u056c\u0561\u0566\u056b\u0561","name:ug":"\u0645\u0627\u0644\u0627\u064a\u0633\u0649\u064a\u0627","name:li":"Maleisi\u00eb","name:hr":"Malezija","name:lo":"\u0e9b\u0eb0\u0ec0\u0e97\u0e94\u0ea1\u0eb2\u0ec0\u0ea5\u0ec0\u0e8a\u0e8d","name:oc":"Mal\u00e0isia","name:el":"\u039c\u03b1\u03bb\u03b1\u03b9\u03c3\u03af\u03b1","name:eo":"Malajzio","name":"Malaysia","name:tk":"Mala\u00fdzi\u00fda","min_zoom":8.0,"name:th":"\u0e1b\u0e23\u0e30\u0e40\u0e17\u0e28\u0e21\u0e32\u0e40\u0e25\u0e40\u0e0b\u0e35\u0e22","name:yi":"\u05de\u05d0\u05dc\u05d9\u05d9\u05d6\u05d9\u05e2","name:et":"Malaisia","name:es":"Malasia","name:ht":"Malezi","name:mt":"Mala\u017cja","name:az":"Malayziya","name:mr":"\u092e\u0932\u0947\u0936\u093f\u092f\u093e","name:ar":"\u0645\u0627\u0644\u064a\u0632\u064a\u0627","name:my":"\u1019\u101c\u1031\u1038\u101b\u103e\u102c\u1038\u1014\u102d\u102f\u1004\u103a\u1004\u1036","name:io":"Malaizia","name:is":"Malas\u00eda","name:am":"\u121b\u120c\u12e2\u12eb","name:it":"Malesia","name:an":"Malaisia","name:ml":"\u0d2e\u0d32\u0d47\u0d37\u0d4d\u0d2f","name:rw":"Malesiya","name:mi":"Mar\u0113hia","name:pl":"Malezja","name:mk":"\u041c\u0430\u043b\u0435\u0437\u0438\u0458\u0430","name:af":"Maleisi\u00eb","name:fa":"\u0645\u0627\u0644\u0632\u06cc","name:mn":"\u041c\u0430\u043b\u0430\u0439\u0437","kind_detail":"2","name:ky":"\u041c\u0430\u043b\u0430\u0439\u0437\u0438\u044f","name:hi":"\u092e\u0932\u0947\u0936\u093f\u092f\u093e","id":-2108121,"name:fr":"Malaisie","name:za":"Majlaizsihya","name:zh-yue":"\u99ac\u4f86\u897f\u4e9e","name:fy":"Maleizje","name:vo":"Malaysiy\u00e4n","name:zh":"\u9a6c\u6765\u897f\u4e9a","name:gv":"Yn Valaysia","name:pa":"\u0a2e\u0a32\u0a47\u0a38\u0a3c\u0a40\u0a06","name:sl":"Malezija","name:nl":"Maleisi\u00eb","name:ja":"\u30de\u30ec\u30fc\u30b7\u30a2","name:sh":"Malezija","name:sg":"Malez\u00efi","name:na":"Maraidja","name:se":"Malesia","name:so":"Malaysiya","name:ne":"\u092e\u0932\u0947\u0936\u093f\u092f\u093e","name:sa":"\u092e\u0932\u092f\u0947\u0936\u093f\u092f\u093e","name:bs":"Malezija","name:bn":"\u09ae\u09be\u09b2\u09af\u09bc\u09c7\u09b6\u09bf\u09af\u09bc\u09be","name:bo":"\u0f58\u0f0b\u0f63\u0f0b\u0f64\u0f72\u0f0b\u0f61\u0f0d","name:sk":"Malajzia","name:ru":"\u041c\u0430\u043b\u0430\u0439\u0437\u0438\u044f","name:be":"\u041c\u0430\u043b\u0430\u0439\u0437\u0456\u044f","name:bg":"\u041c\u0430\u043b\u0430\u0439\u0437\u0438\u044f","name:ss":"IMaleshiya","name:ba":"\u041c\u0430\u043b\u0430\u0439\u0437\u0438\u044f","name:nv":"Mal\u00e9\u00edzha","name:sq":"Malajzia","name:ga":"An Mhalaeisia","name:gd":"Malaidhsia","name:wo":"Maleesi","name:gl":"Malaisia","name:fo":"Maleisia","name:tr":"Malezya","name:gu":"\u0aae\u0ab2\u0ac7\u0ab6\u0abf\u0aaf\u0abe","name:fi":"Malesia"},"arcs":[[2],[3],[4]]},{"type":"MultiLineString","properties":{"name:pt":"Mal\u00e1sia","name:ka":"\u10db\u10d0\u10da\u10d0\u10d8\u10d6\u10d8\u10d0","name:ko":"\ub9d0\ub808\uc774\uc2dc\uc544","name:cv":"\u041c\u0430\u043b\u0430\u0439\u0437\u0438","name:km":"\u1798\u17c9\u17b6\u17a1\u17c1\u179f\u17ca\u17b8","name:cs":"Malajsie","name:tt":"\u041c\u0430\u043b\u0430\u0439\u0437\u0438\u044f","name:kw":"Malaysi","name:kv":"\u041c\u0430\u043b\u0430\u0439\u0437\u0438\u044f","name:ku":"Malezya","name:az":"Malayziya","name:tl":"Malasya","name:zh-min-nan":"M\u00e1-l\u00e2i-se-a","name:os":"\u041c\u0430\u043b\u0430\u0439\u0437\u0438","name:or":"\u0b2e\u0b3e\u0b32\u0b47\u0b38\u0b3f\u0b06","name:ce":"\u041c\u0430\u043b\u0430\u0439\u0437\u0438","name:ta":"\u0bae\u0bb2\u0bc7\u0b9a\u0bbf\u0baf\u0bbe","name:tg":"\u041c\u0430\u043b\u0430\u0439\u0437\u0438\u044f","name:ca":"Mal\u00e0isia","name:te":"\u0c2e\u0c32\u0c47\u0c37\u0c3f\u0c2f\u0c3e","name:li":"Maleisi\u00eb","name:fo":"Maleisia","sort_rank":262,"name:hr":"Malezija","name:ba":"\u041c\u0430\u043b\u0430\u0439\u0437\u0438\u044f","name:dz":"\u0f58\u0f0b\u0f63\u0f7a\u0f0b\u0f64\u0f72\u0f0b\u0f61\u0f0b","source":"openstreetmap.org","name:nv":"Mal\u00e9\u00edzha","name:kn":"\u0cae\u0cb2\u0cc7\u0cb6\u0cbf\u0caf","name:dv":"\u0789\u07ac\u078d\u07ad\u079d\u07a8\u0794\u07a7","name:za":"Majlaizsihya","name:ar":"\u0645\u0627\u0644\u064a\u0632\u064a\u0627","name:lv":"Malaizija","name:lt":"Malaizija","name:uz":"Malayziya","name:kk":"\u041c\u0430\u043b\u0430\u0439\u0437\u0438\u044f","name:he":"\u05de\u05dc\u05d6\u05d9\u05d4","name:eo":"Malajzio","name:ur":"\u0645\u0644\u0627\u0626\u06cc\u0634\u06cc\u0627","name:la":"Malaesia","name:uk":"\u041c\u0430\u043b\u0430\u0439\u0437\u0456\u044f","name:hy":"\u0544\u0561\u056c\u0561\u0566\u056b\u0561","name:ug":"\u0645\u0627\u0644\u0627\u064a\u0633\u0649\u064a\u0627","name:hu":"Malajzia","name:qu":"Malasya","name:lo":"\u0e9b\u0eb0\u0ec0\u0e97\u0e94\u0ea1\u0eb2\u0ec0\u0ea5\u0ec0\u0e8a\u0e8d","name:oc":"Mal\u00e0isia","name:el":"\u039c\u03b1\u03bb\u03b1\u03b9\u03c3\u03af\u03b1","kind":"country","name":"Malaysia","name:tk":"Mala\u00fdzi\u00fda","min_zoom":8.0,"name:th":"\u0e1b\u0e23\u0e30\u0e40\u0e17\u0e28\u0e21\u0e32\u0e40\u0e25\u0e40\u0e0b\u0e35\u0e22","name:yi":"\u05de\u05d0\u05dc\u05d9\u05d9\u05d6\u05d9\u05e2","name:et":"Malaisia","name:es":"Malasia","name:mt":"Mala\u017cja","name:ro":"Malaezia","name:mr":"\u092e\u0932\u0947\u0936\u093f\u092f\u093e","name:pa":"\u0a2e\u0a32\u0a47\u0a38\u0a3c\u0a40\u0a06","name:my":"\u1019\u101c\u1031\u1038\u101b\u103e\u102c\u1038\u1014\u102d\u102f\u1004\u103a\u1004\u1036","name:io":"Malaizia","name:is":"Malas\u00eda","name:am":"\u121b\u120c\u12e2\u12eb","name:it":"Malesia","name:an":"Malaisia","name:ml":"\u0d2e\u0d32\u0d47\u0d37\u0d4d\u0d2f","name:rw":"Malesiya","name:mi":"Mar\u0113hia","name:pl":"Malezja","name:mk":"\u041c\u0430\u043b\u0435\u0437\u0438\u0458\u0430","name:af":"Maleisi\u00eb","name:fa":"\u0645\u0627\u0644\u0632\u06cc","name:mn":"\u041c\u0430\u043b\u0430\u0439\u0437","name:ss":"IMaleshiya","kind_detail":"2","name:hi":"\u092e\u0932\u0947\u0936\u093f\u092f\u093e","id":-2108121,"name:fr":"Malaisie","name:tr":"Malezya","name:ky":"\u041c\u0430\u043b\u0430\u0439\u0437\u0438\u044f","name:zh-yue":"\u99ac\u4f86\u897f\u4e9e","name:fy":"Maleizje","name:vo":"Malaysiy\u00e4n","name:zh":"\u9a6c\u6765\u897f\u4e9a","name:so":"Malaysiya","name:sl":"Malezija","name:nl":"Maleisi\u00eb","name:ja":"\u30de\u30ec\u30fc\u30b7\u30a2","name:sh":"Malezija","name:sg":"Malez\u00efi","name:na":"Maraidja","name:se":"Malesia","name:ne":"\u092e\u0932\u0947\u0936\u093f\u092f\u093e","name:sa":"\u092e\u0932\u092f\u0947\u0936\u093f\u092f\u093e","name:bs":"Malezija","name:bn":"\u09ae\u09be\u09b2\u09af\u09bc\u09c7\u09b6\u09bf\u09af\u09bc\u09be","name:bo":"\u0f58\u0f0b\u0f63\u0f0b\u0f64\u0f72\u0f0b\u0f61\u0f0d","name:sk":"Malajzia","name:ru":"\u041c\u0430\u043b\u0430\u0439\u0437\u0438\u044f","name:be":"\u041c\u0430\u043b\u0430\u0439\u0437\u0456\u044f","name:bg":"\u041c\u0430\u043b\u0430\u0439\u0437\u0438\u044f","name:wo":"Maleesi","name:sr":"\u041c\u0430\u043b\u0435\u0437\u0438\u0458\u0430","osm_relation":true,"name:sq":"Malajzia","name:ga":"An Mhalaeisia","name:gd":"Malaidhsia","name:ht":"Malezi","name:gl":"Malaisia","maritime_boundary":true,"name:gv":"Yn Valaysia","name:gu":"\u0aae\u0ab2\u0ac7\u0ab6\u0abf\u0aaf\u0abe","name:fi":"Malesia"},"arcs":[[5],[6]]},{"type":"LineString","properties":{"name:ia":"Brunei","int_name":"Brunei","name:sk":"Brunej","name:ja":"\u30d6\u30eb\u30cd\u30a4","name:uz":"Bruney","name:ar":"\u0628\u0631\u0648\u0646\u0627\u064a","name:cs":"Brunej","kind":"country","name:io":"Brunei","min_zoom":8.0,"alt_name:cs":"Brunej Darussalam","official_name":"Negara Brunei Darussalam","name:sv":"Brunei","name:ru":"\u0411\u0440\u0443\u043d\u0435\u0439","name:ta":"\u0baa\u0bc1\u0bb0\u0bc2\u0ba3\u0bc8","name:hr":"Brunej","id":-2103120,"osm_relation":true,"name:vo":"Brun\u00e4n","name:eo":"Brunejo","name:en":"Brunei","name":"Brunei Darussalam","sort_rank":262,"kind_detail":"2","name:de":"Brunei","source":"openstreetmap.org","name:fr":"Brunei","name:zh":"\u6c76\u83b1","name:es":"Brun\u00e9i"},"arcs":[7]},{"type":"MultiLineString","properties":{"name:right:ja":"\u30b5\u30e9\u30ef\u30af","name:left:ja":"\u30e9\u30d6\u30a2\u30f3","name:right:ru":"\u0421\u0430\u0440\u0430\u0432\u0430\u043a","min_zoom":8.0,"id:right":-3879784,"id":-4521286,"osm_relation":true,"name:right":"Sarawak","kind":"region","name":"Labuan - Sarawak","sort_rank":256,"kind_detail":"4","source":"openstreetmap.org","name:left:zh":"\u7eb3\u95fd","id:left":-4521286,"name:right:zh":"\u7802\u62c9\u8d8a\u5dde","name:left":"Labuan"},"arcs":[[8],[9]]},{"type":"LineString","properties":{"name:right:ja":"\u30b5\u30e9\u30ef\u30af","name:left:ja":"\u30e9\u30d6\u30a2\u30f3","name:right:ru":"\u0421\u0430\u0440\u0430\u0432\u0430\u043a","min_zoom":8.0,"id:right":-3879784,"id":-4521286,"osm_relation":true,"name:right":"Sarawak","kind":"region","name":"Labuan - Sarawak","sort_rank":256,"kind_detail":"4","name:left:zh":"\u7eb3\u95fd","source":"openstreetmap.org","maritime_boundary":true,"id:left":-4521286,"name:right:zh":"\u7802\u62c9\u8d8a\u5dde","name:left":"Labuan"},"arcs":[10]},{"type":"LineString","properties":{"kind":"region","name":"Labuan","sort_rank":256,"kind_detail":"4","source":"openstreetmap.org","min_zoom":8.0,"name:zh":"\u7eb3\u95fd","id":-4521286,"osm_relation":true,"name:ja":"\u30e9\u30d6\u30a2\u30f3"},"arcs":[11]},{"type":"LineString","properties":{"kind":"region","name":"Labuan","sort_rank":256,"kind_detail":"4","min_zoom":8.0,"source":"openstreetmap.org","maritime_boundary":true,"name:zh":"\u7eb3\u95fd","id":-4521286,"osm_relation":true,"name:ja":"\u30e9\u30d6\u30a2\u30f3"},"arcs":[12]},{"type":"MultiLineString","properties":{"kind":"region","name":"Sarawak","sort_rank":256,"kind_detail":"4","source":"openstreetmap.org","min_zoom":8.0,"name:ru":"\u0421\u0430\u0440\u0430\u0432\u0430\u043a","name:zh":"\u7802\u62c9\u8d8a\u5dde","id":-3879784,"osm_relation":true,"name:ja":"\u30b5\u30e9\u30ef\u30af"},"arcs":[[13],[14],[15]]},{"type":"LineString","properties":{"kind":"region","name":"Sarawak","sort_rank":256,"kind_detail":"4","min_zoom":8.0,"source":"openstreetmap.org","maritime_boundary":true,"name:ru":"\u0421\u0430\u0440\u0430\u0432\u0430\u043a","name:zh":"\u7802\u62c9\u8d8a\u5dde","id":-3879784,"osm_relation":true,"name:ja":"\u30b5\u30e9\u30ef\u30af"},"arcs":[16]},{"type":"LineString","properties":{"kind":"region","name:en":"Daat Island","name":"Pulau Daat","sort_rank":256,"kind_detail":"4","min_zoom":8.0,"source":"openstreetmap.org","maritime_boundary":true,"id":319853221},"arcs":[17]}]},"roads":{"type":"GeometryCollection","geometries":[{"type":"MultiLineString","properties":{"kind":"major_road","name:en":"Telisai-Lumut Highway","network":"AsianHighway","sort_rank":381,"kind_detail":"trunk","source":"openstreetmap.org","min_zoom":8.0,"shield_text":"150"},"arcs":[[22],[23]]},{"type":"MultiLineString","properties":{"source":"openstreetmap.org","bus_network":"Brunei-Muara bus","bus_shield_text":"22","sort_rank":380,"kind_detail":"primary","min_zoom":8.0,"kind":"major_road"},"arcs":[[24],[25],[26],[27]]},{"type":"MultiLineString","properties":{"bus_network":"Brunei-Muara bus","sort_rank":380,"kind_detail":"primary","kind":"major_road","source":"openstreetmap.org","min_zoom":8.0,"bus_shield_text":"57","landuse_kind":"urban_area"},"arcs":[[28],[29],[30],[31]]},{"type":"MultiLineString","properties":{"source":"openstreetmap.org","bus_network":"Brunei-Muara bus","bus_shield_text":"56","sort_rank":380,"kind_detail":"primary","min_zoom":8.0,"kind":"major_road"},"arcs":[[32],[33],[34]]},{"type":"MultiLineString","properties":{"source":"openstreetmap.org","kind":"major_road","bus_shield_text":"23","sort_rank":380,"kind_detail":"primary","min_zoom":8.0,"bus_network":"Brunei-Muara bus"},"arcs":[[35],[36],[37],[38],[39],[40],[41],[42],[43]]},{"type":"MultiLineString","properties":{"bus_network":"Brunei-Muara bus","sort_rank":381,"landuse_kind":"urban_area","kind":"major_road","source":"openstreetmap.org","min_zoom":8.0,"bus_shield_text":"23","kind_detail":"trunk"},"arcs":[[44],[45]]},{"type":"MultiLineString","properties":{"source":"openstreetmap.org","bus_network":"Brunei-Muara bus","bus_shield_text":"36","sort_rank":380,"kind_detail":"primary","min_zoom":8.0,"kind":"major_road"},"arcs":[[46],[47],[48]]},{"type":"LineString","properties":{"bus_network":"Brunei-Muara bus","network":"AsianHighway","sort_rank":381,"kind_detail":"trunk","is_bicycle_related":true,"kind":"major_road","source":"openstreetmap.org","min_zoom":8.0,"bus_shield_text":"42","shield_text":"150","ref":"AH150","id":178463906},"arcs":[49]},{"type":"LineString","properties":{"kind":"major_road","sort_rank":381,"landuse_kind":"urban_area","source":"openstreetmap.org","min_zoom":8.0,"kind_detail":"trunk","ref":"1-79B","id":284850594},"arcs":[50]},{"type":"LineString","properties":{"source":"openstreetmap.org","kind":"ferry","name":"Kota Kinabalu to Labuan","sort_rank":355,"name:zh":"\u4e9a\u5e87-\u7eb3\u95fd","min_zoom":8.0,"id":197483381},"arcs":[51]},{"type":"MultiLineString","properties":{"bus_network":"Brunei-Muara bus","sort_rank":380,"kind_detail":"primary","kind":"major_road","source":"openstreetmap.org","min_zoom":8.0,"bus_shield_text":"55","landuse_kind":"urban_area"},"arcs":[[52],[53],[54],[55],[56],[57],[58],[59]]},{"type":"MultiLineString","properties":{"kind":"major_road","network":"AsianHighway","sort_rank":381,"kind_detail":"trunk","source":"openstreetmap.org","min_zoom":8.0,"shield_text":"150","ref":"1-81"},"arcs":[[60],[61],[62],[63],[64],[65],[66],[67]]},{"type":"LineString","properties":{"kind":"major_road","name:en":"Rimba Highway","sort_rank":381,"landuse_kind":"urban_area","bus_shield_text":"21","bus_network":"Brunei-Muara bus","source":"openstreetmap.org","min_zoom":8.0,"old_name:en":"Rimba Link Road","old_name":"Jalan Penghubung Rimba","kind_detail":"trunk"},"arcs":[68]},{"type":"MultiLineString","properties":{"source":"openstreetmap.org","kind":"highway","name:en":"Tungku Highway","landuse_kind":"urban_area","sort_rank":383,"kind_detail":"motorway","min_zoom":8.0},"arcs":[[69],[70],[71],[72],[73],[74]]},{"type":"MultiLineString","properties":{"bus_network":"Brunei-Muara bus","sort_rank":380,"kind_detail":"primary","kind":"major_road","source":"openstreetmap.org","min_zoom":8.0,"bus_shield_text":"21","landuse_kind":"urban_area"},"arcs":[[75],[76],[77],[78],[79],[80]]},{"type":"MultiLineString","properties":{"kind":"major_road","network":"AsianHighway","sort_rank":381,"kind_detail":"trunk","is_bicycle_related":true,"source":"openstreetmap.org","min_zoom":8.0,"shield_text":"150","ref":"1-86"},"arcs":[[81],[82],[83]]},{"type":"MultiLineString","properties":{"source":"openstreetmap.org","kind":"major_road","network":"AsianHighway","sort_rank":381,"kind_detail":"trunk","min_zoom":8.0,"shield_text":"150"},"arcs":[[84],[85],[86],[87],[88],[89],[90],[91],[92],[93],[94],[95],[96],[97],[98],[99],[100],[101],[102],[103],[104],[105],[106],[107],[108],[109],[110],[111]]},{"type":"MultiLineString","properties":{"source":"openstreetmap.org","bus_network":"Brunei-Muara bus","bus_shield_text":"24","sort_rank":381,"kind_detail":"trunk","min_zoom":8.0,"kind":"major_road"},"arcs":[[112],[113]]},{"type":"LineString","properties":{"source":"openstreetmap.org","kind":"ferry","name":"Labuan-Limbang Route","sort_rank":355,"name:zh":"\u7eb3\u95fd-\u6797\u68a6\u822a\u7ebf","min_zoom":8.0,"id":258629580},"arcs":[114]},{"type":"MultiLineString","properties":{"source":"openstreetmap.org","bus_network":"Brunei-Muara bus","bus_shield_text":"35","sort_rank":380,"kind_detail":"primary","min_zoom":8.0,"kind":"major_road"},"arcs":[[115],[116],[117]]},{"type":"LineString","properties":{"source":"openstreetmap.org","bus_network":"Brunei-Muara bus","bus_shield_text":"34","sort_rank":381,"kind_detail":"trunk","min_zoom":8.0,"kind":"major_road"},"arcs":[118]},{"type":"LineString","properties":{"kind":"major_road","network":"AsianHighway","sort_rank":381,"kind_detail":"trunk","source":"openstreetmap.org","min_zoom":8.0,"shield_text":"150","ref":"1-79B","id":189796949},"arcs":[119]},{"type":"MultiLineString","properties":{"source":"openstreetmap.org","kind":"major_road","name:en":"Tungku-Jerudong Highway","kind_detail":"trunk","sort_rank":381,"landuse_kind":"urban_area","min_zoom":8.0},"arcs":[[120],[121]]},{"type":"LineString","properties":{"kind":"major_road","network":"AsianHighway","sort_rank":381,"kind_detail":"trunk","source":"openstreetmap.org","min_zoom":8.0,"landuse_kind":"park","shield_text":"150","ref":"1-77","id":285752666},"arcs":[122]},{"type":"MultiLineString","properties":{"kind":"major_road","network":"AsianHighway","sort_rank":381,"kind_detail":"trunk","is_bicycle_related":true,"source":"openstreetmap.org","min_zoom":8.0,"shield_text":"150","ref":"1-82"},"arcs":[[123],[124],[125],[126],[127],[128],[129],[130],[131]]},{"type":"MultiLineString","properties":{"kind":"major_road","network":"AsianHighway","sort_rank":381,"kind_detail":"trunk","source":"openstreetmap.org","min_zoom":8.0,"shield_text":"150","ref":"1-77","id":285752666},"arcs":[[132],[133]]},{"type":"MultiLineString","properties":{"kind":"major_road","network":"AsianHighway","sort_rank":381,"landuse_kind":"urban_area","source":"openstreetmap.org","min_zoom":8.0,"kind_detail":"trunk","shield_text":"150"},"arcs":[[134],[135],[136],[137],[138]]},{"type":"MultiLineString","properties":{"kind":"major_road","network":"AsianHighway","sort_rank":381,"landuse_kind":"urban_area","source":"openstreetmap.org","min_zoom":8.0,"kind_detail":"trunk","shield_text":"150","ref":"1"},"arcs":[[139],[140]]},{"type":"LineString","properties":{"kind":"major_road","network":"AsianHighway","sort_rank":381,"kind_detail":"trunk","source":"openstreetmap.org","min_zoom":8.0,"landuse_kind":"urban_area","shield_text":"150","ref":"1-80","id":262148307},"arcs":[141]},{"type":"MultiLineString","properties":{"bus_network":"Brunei-Muara bus","sort_rank":380,"kind_detail":"primary","is_bicycle_related":true,"kind":"major_road","source":"openstreetmap.org","min_zoom":8.0,"bus_shield_text":"39"},"arcs":[[142],[143],[144],[145]]},{"type":"MultiLineString","properties":{"kind":"major_road","network":"AsianHighway","sort_rank":381,"kind_detail":"trunk","source":"openstreetmap.org","min_zoom":8.0,"shield_text":"150","ref":"AH150"},"arcs":[[146],[147]]},{"type":"MultiLineString","properties":{"sort_rank":381,"source":"openstreetmap.org","min_zoom":8.0,"kind":"major_road","kind_detail":"trunk"},"arcs":[[148],[149],[150],[151],[152],[153],[154],[155],[156],[157],[158],[159],[160],[161],[162],[163],[164],[165],[166],[167],[168],[169],[170],[171],[172],[173],[174],[175],[176],[177],[178],[179],[180],[181],[182],[183],[184],[185],[186],[187],[188],[189],[190]]},{"type":"MultiLineString","properties":{"bus_network":"Brunei-Muara bus","sort_rank":380,"kind_detail":"primary","is_bicycle_related":true,"kind":"major_road","source":"openstreetmap.org","min_zoom":8.0,"bus_shield_text":"37"},"arcs":[[191],[192],[193],[194],[195],[196],[197],[198]]},{"type":"LineString","properties":{"kind":"major_road","network":"AsianHighway","sort_rank":381,"kind_detail":"trunk","source":"openstreetmap.org","min_zoom":8.0,"shield_text":"150","ref":"1"},"arcs":[199]},{"type":"MultiLineString","properties":{"kind":"major_road","network":"AsianHighway","sort_rank":381,"kind_detail":"trunk","source":"openstreetmap.org","min_zoom":8.0,"shield_text":"150","ref":"1-88"},"arcs":[[200],[201],[202]]},{"type":"MultiLineString","properties":{"source":"openstreetmap.org","kind":"highway","name:en":"Tungku Highway","sort_rank":383,"kind_detail":"motorway","min_zoom":8.0},"arcs":[[203],[204],[205],[206]]},{"type":"MultiLineString","properties":{"kind":"major_road","network":"AsianHighway","sort_rank":381,"landuse_kind":"urban_area","source":"openstreetmap.org","min_zoom":8.0,"kind_detail":"trunk","shield_text":"150","ref":"1-79A"},"arcs":[[207],[208]]},{"type":"MultiLineString","properties":{"source":"openstreetmap.org","bus_network":"Brunei-Muara bus","bus_shield_text":"37","sort_rank":380,"kind_detail":"primary","min_zoom":8.0,"kind":"major_road"},"arcs":[[209],[210],[211],[212],[213],[214],[215],[216],[217],[218],[219]]},{"type":"MultiLineString","properties":{"source":"openstreetmap.org","kind":"major_road","landuse_kind":"urban_area","sort_rank":380,"kind_detail":"primary","min_zoom":8.0},"arcs":[[220],[221],[222],[223],[224],[225],[226],[227],[228],[229],[230],[231],[232],[233],[234],[235],[236],[237],[238],[239],[240],[241],[242],[243],[244],[245],[246],[247],[248],[249],[250],[251]]},{"type":"MultiLineString","properties":{"source":"openstreetmap.org","kind":"highway","landuse_kind":"urban_area","sort_rank":383,"kind_detail":"motorway","min_zoom":8.0},"arcs":[[252],[253],[254],[255],[256],[257],[258],[259],[260]]},{"type":"MultiLineString","properties":{"bus_network":"Brunei-Muara bus","sort_rank":380,"kind_detail":"primary","kind":"major_road","source":"openstreetmap.org","min_zoom":8.0,"bus_shield_text":"22","landuse_kind":"urban_area"},"arcs":[[261],[262],[263],[264],[265],[266]]},{"type":"MultiLineString","properties":{"source":"openstreetmap.org","kind":"major_road","name:en":"Tungku-Jerudong Highway","sort_rank":381,"kind_detail":"trunk","min_zoom":8.0},"arcs":[[267],[268],[269],[270]]},{"type":"LineString","properties":{"bus_network":"Brunei-Muara bus","name:en":"Rimba Highway","sort_rank":381,"landuse_kind":"urban_area","bus_shield_text":"22","kind":"major_road","source":"openstreetmap.org","min_zoom":8.0,"old_name:en":"Rimba Link Road","old_name":"Jalan Penghubung Rimba","kind_detail":"trunk"},"arcs":[271]},{"type":"LineString","properties":{"kind":"major_road","network":"AsianHighway","sort_rank":381,"kind_detail":"trunk","source":"openstreetmap.org","min_zoom":8.0,"shield_text":"150","ref":"1-89"},"arcs":[272]},{"type":"MultiLineString","properties":{"source":"openstreetmap.org","bus_network":"Brunei-Muara bus","bus_shield_text":"57","sort_rank":381,"kind_detail":"trunk","min_zoom":8.0,"kind":"major_road"},"arcs":[[273],[274],[275],[276]]},{"type":"MultiLineString","properties":{"kind":"major_road","network":"AsianHighway","sort_rank":381,"landuse_kind":"urban_area","source":"openstreetmap.org","min_zoom":8.0,"kind_detail":"trunk","shield_text":"150","ref":"1-80A"},"arcs":[[277],[278],[279]]},{"type":"LineString","properties":{"bus_network":"Brunei-Muara bus","sort_rank":381,"landuse_kind":"urban_area","kind":"major_road","source":"openstreetmap.org","min_zoom":8.0,"bus_shield_text":"22","kind_detail":"trunk"},"arcs":[280]},{"type":"MultiLineString","properties":{"bus_network":"Brunei-Muara bus","sort_rank":380,"kind_detail":"primary","kind":"major_road","source":"openstreetmap.org","min_zoom":8.0,"bus_shield_text":"20","landuse_kind":"urban_area"},"arcs":[[281],[282],[283]]},{"type":"MultiLineString","properties":{"bus_network":"Brunei-Muara bus","sort_rank":380,"kind_detail":"primary","is_bicycle_related":true,"kind":"major_road","source":"openstreetmap.org","min_zoom":8.0,"bus_shield_text":"39","landuse_kind":"urban_area"},"arcs":[[284],[285]]},{"type":"MultiLineString","properties":{"kind":"major_road","network":"AsianHighway","sort_rank":381,"kind_detail":"trunk","source":"openstreetmap.org","min_zoom":8.0,"shield_text":"150","ref":"1-78"},"arcs":[[286],[287],[288]]},{"type":"LineString","properties":{"bus_network":"Brunei-Muara bus","sort_rank":381,"landuse_kind":"urban_area","kind":"major_road","source":"openstreetmap.org","min_zoom":8.0,"bus_shield_text":"42","kind_detail":"trunk"},"arcs":[289]},{"type":"LineString","properties":{"source":"openstreetmap.org","bus_network":"Brunei-Muara bus","bus_shield_text":"42","sort_rank":380,"kind_detail":"primary","min_zoom":8.0,"kind":"major_road"},"arcs":[290]},{"type":"LineString","properties":{"source":"openstreetmap.org","bus_network":"Brunei-Muara bus","bus_shield_text":"55","sort_rank":381,"kind_detail":"trunk","min_zoom":8.0,"kind":"major_road"},"arcs":[291]},{"type":"MultiLineString","properties":{"source":"openstreetmap.org","bus_network":"Brunei-Muara bus","bus_shield_text":"21","sort_rank":380,"kind_detail":"primary","min_zoom":8.0,"kind":"major_road"},"arcs":[[292],[293]]},{"type":"LineString","properties":{"source":"openstreetmap.org","kind":"major_road","sort_rank":380,"kind_detail":"primary","ref":"Q653","min_zoom":8.0},"arcs":[294]},{"type":"MultiLineString","properties":{"sort_rank":380,"kind_detail":"primary","min_zoom":8.0,"kind":"major_road","source":"openstreetmap.org"},"arcs":[[295],[296],[297],[298],[299],[300],[301],[302],[303],[304],[305],[306],[307],[308],[309],[310],[311],[312],[313],[314],[315],[316],[317],[318],[319],[320],[321],[322],[323],[324],[325],[326],[327],[328],[329],[330],[331],[332],[333],[334],[335],[336],[337],[338],[339],[340],[341],[342],[343],[344],[345],[346],[347],[348],[349],[350],[351],[352],[353],[354],[355],[356],[357],[358],[359],[360],[361],[362],[363],[364],[365],[366],[367],[368],[369],[370],[371],[372],[373],[374],[375],[376],[377],[378],[379],[380],[381],[382],[383],[384],[385],[386],[387],[388],[389],[390],[391],[392],[393],[394],[395],[396],[397],[398],[399],[400],[401],[402],[403],[404],[405],[406],[407],[408],[409],[410],[411],[412],[413],[414],[415],[416],[417],[418],[419],[420],[421],[422],[423],[424],[425],[426],[427],[428],[429],[430],[431],[432],[433],[434],[435],[436],[437],[438],[439],[440],[441],[442],[443],[444],[445],[446],[447],[448],[449],[450],[451],[452],[453],[454]]},{"type":"LineString","properties":{"kind":"major_road","name:en":"Friendship Bridge (Malaysia-Brunei)","network":"AsianHighway","name:ms":"Jambatan Sahabat (Malaysia-Brunei)","sort_rank":381,"kind_detail":"trunk","source":"openstreetmap.org","min_zoom":8.0,"shield_text":"150","name:zh":"\u9a6c\u6c76\u53cb\u8c0a\u6865","id":251474443},"arcs":[455]},{"type":"MultiLineString","properties":{"bus_network":"Brunei-Muara bus","sort_rank":380,"kind_detail":"primary","kind":"major_road","source":"openstreetmap.org","min_zoom":8.0,"bus_shield_text":"42","landuse_kind":"urban_area"},"arcs":[[456],[457],[458],[459],[460],[461],[462],[463],[464],[465],[466],[467],[468],[469]]},{"type":"MultiLineString","properties":{"kind":"major_road","name:en":"Tutong River Bridge","network":"AsianHighway","sort_rank":381,"kind_detail":"trunk","source":"openstreetmap.org","min_zoom":8.0,"shield_text":"150"},"arcs":[[470],[471]]},{"type":"LineString","properties":{"kind":"major_road","name:en":"Kiarong Roundabout","sort_rank":380,"kind_detail":"primary","bus_network":"Brunei-Muara bus","source":"openstreetmap.org","min_zoom":8.0,"bus_shield_text":"1A","loc_name":"Roundabout Kiarong","id":157246940},"arcs":[472]},{"type":"LineString","properties":{"kind":"major_road","sort_rank":380,"kind_detail":"primary","bus_network":"Brunei-Muara bus","source":"openstreetmap.org","min_zoom":8.0,"bus_shield_text":"57","id":179245098},"arcs":[473]},{"type":"LineString","properties":{"source":"openstreetmap.org","kind":"major_road","sort_rank":380,"kind_detail":"primary","ref":"Jalan Bunga Kesuma","min_zoom":8.0,"id":28901755},"arcs":[474]},{"type":"MultiLineString","properties":{"source":"openstreetmap.org","bus_network":"Brunei-Muara bus","bus_shield_text":"23","sort_rank":381,"kind_detail":"trunk","min_zoom":8.0,"kind":"major_road"},"arcs":[[475],[476],[477],[478],[479],[480],[481]]},{"type":"MultiLineString","properties":{"source":"openstreetmap.org","kind":"major_road","kind_detail":"trunk","sort_rank":381,"landuse_kind":"urban_area","min_zoom":8.0},"arcs":[[482],[483],[484],[485],[486],[487],[488],[489],[490],[491],[492],[493],[494],[495],[496],[497],[498],[499],[500]]},{"type":"MultiLineString","properties":{"kind":"major_road","name:en":"Rimba Highway","sort_rank":381,"landuse_kind":"urban_area","source":"openstreetmap.org","min_zoom":8.0,"old_name:en":"Rimba Link Road","old_name":"Jalan Penghubung Rimba","kind_detail":"trunk"},"arcs":[[501],[502],[503],[504],[505]]},{"type":"MultiLineString","properties":{"source":"openstreetmap.org","kind":"major_road","sort_rank":380,"kind_detail":"primary","ref":"Q642","min_zoom":8.0},"arcs":[[506],[507],[508]]},{"type":"MultiLineString","properties":{"source":"openstreetmap.org","bus_network":"Brunei-Muara bus","bus_shield_text":"1C","sort_rank":380,"kind_detail":"primary","min_zoom":8.0,"kind":"major_road"},"arcs":[[509],[510],[511],[512],[513],[514],[515]]},{"type":"MultiLineString","properties":{"kind":"major_road","network":"AsianHighway","sort_rank":381,"kind_detail":"trunk","is_bicycle_related":true,"source":"openstreetmap.org","min_zoom":8.0,"shield_text":"150","ref":"1-87"},"arcs":[[516],[517],[518],[519],[520],[521],[522],[523],[524],[525],[526],[527],[528]]},{"type":"MultiLineString","properties":{"kind":"major_road","name:en":"Tutong-Telisai Highway","network":"AsianHighway","sort_rank":381,"kind_detail":"trunk","source":"openstreetmap.org","min_zoom":8.0,"shield_text":"150"},"arcs":[[529],[530],[531],[532],[533],[534],[535],[536]]},{"type":"MultiLineString","properties":{"bus_network":"Brunei-Muara bus","sort_rank":380,"kind_detail":"primary","is_bicycle_related":true,"kind":"major_road","source":"openstreetmap.org","min_zoom":8.0,"bus_shield_text":"37","landuse_kind":"urban_area"},"arcs":[[537],[538],[539]]},{"type":"MultiLineString","properties":{"kind":"major_road","network":"AsianHighway","sort_rank":381,"kind_detail":"trunk","is_bicycle_related":true,"source":"openstreetmap.org","min_zoom":8.0,"shield_text":"150"},"arcs":[[540],[541],[542],[543],[544],[545],[546],[547],[548],[549],[550]]},{"type":"MultiLineString","properties":{"source":"openstreetmap.org","kind":"major_road","bus_shield_text":"34","sort_rank":380,"kind_detail":"primary","min_zoom":8.0,"bus_network":"Brunei-Muara bus"},"arcs":[[551],[552],[553],[554]]},{"type":"MultiLineString","properties":{"source":"openstreetmap.org","bus_network":"Brunei-Muara bus","bus_shield_text":"1A","sort_rank":380,"kind_detail":"primary","min_zoom":8.0,"kind":"major_road"},"arcs":[[555],[556],[557],[558],[559],[560]]},{"type":"MultiLineString","properties":{"kind":"major_road","network":"AsianHighway","sort_rank":381,"landuse_kind":"urban_area","source":"openstreetmap.org","min_zoom":8.0,"kind_detail":"trunk","shield_text":"150","ref":"1-80B"},"arcs":[[561],[562],[563]]},{"type":"LineString","properties":{"kind":"ferry","name":"Limbang-Labuan-Limbang","sort_rank":355,"name:zh":"\u6797\u68a6-\u7eb3\u95fd-\u6797\u68a6","source":"openstreetmap.org","min_zoom":8.0,"ref":"http:\/\/www.marinetraffic.com\/ais\/details\/ships\/-9149122\/vessel:ROYAL_LIMBANG_2","id":-3471440,"osm_relation":true},"arcs":[564]},{"type":"MultiLineString","properties":{"sort_rank":383,"kind_detail":"motorway","min_zoom":8.0,"kind":"highway","source":"openstreetmap.org"},"arcs":[[565],[566],[567],[568],[569]]},{"type":"LineString","properties":{"kind":"ferry","name":"Bandar Seri Begawan to Bangar","sort_rank":355,"landuse_kind":"urban_area","source":"openstreetmap.org","min_zoom":8.0,"id":-2801266,"osm_relation":true},"arcs":[570]},{"type":"LineString","properties":{"source":"openstreetmap.org","kind":"major_road","sort_rank":380,"kind_detail":"primary","ref":"Q698","min_zoom":8.0,"id":263157277},"arcs":[571]},{"type":"MultiLineString","properties":{"source":"openstreetmap.org","bus_network":"Brunei-Muara bus","bus_shield_text":"55","sort_rank":380,"kind_detail":"primary","min_zoom":8.0,"kind":"major_road"},"arcs":[[572],[573],[574],[575],[576],[577],[578]]},{"type":"MultiLineString","properties":{"bus_network":"Brunei-Muara bus","network":"AsianHighway","sort_rank":381,"kind_detail":"trunk","kind":"major_road","source":"openstreetmap.org","min_zoom":8.0,"bus_shield_text":"42","shield_text":"150","ref":"AH150"},"arcs":[[579],[580],[581],[582],[583],[584],[585],[586],[587],[588],[589],[590],[591],[592]]},{"type":"LineString","properties":{"kind":"major_road","name:en":"Kiarong Roundabout","sort_rank":380,"kind_detail":"primary","bus_network":"Brunei-Muara bus","source":"openstreetmap.org","min_zoom":8.0,"bus_shield_text":"1A","loc_name":"Roundabout Kiarong","landuse_kind":"urban_area","id":157246940},"arcs":[593]},{"type":"LineString","properties":{"kind":"major_road","sort_rank":380,"kind_detail":"primary","bus_network":"Brunei-Muara bus","source":"openstreetmap.org","min_zoom":8.0,"bus_shield_text":"39","id":46102069},"arcs":[594]},{"type":"LineString","properties":{"source":"openstreetmap.org","bus_network":"Brunei-Muara bus","bus_shield_text":"56","sort_rank":381,"kind_detail":"trunk","min_zoom":8.0,"kind":"major_road"},"arcs":[595]},{"type":"LineString","properties":{"kind":"major_road","sort_rank":380,"kind_detail":"primary","bus_network":"Brunei-Muara bus","source":"openstreetmap.org","min_zoom":8.0,"bus_shield_text":"38","id":376623320},"arcs":[596]},{"type":"MultiLineString","properties":{"bus_network":"Brunei-Muara bus","sort_rank":380,"kind_detail":"primary","kind":"major_road","source":"openstreetmap.org","min_zoom":8.0,"bus_shield_text":"1A","landuse_kind":"urban_area"},"arcs":[[597],[598],[599],[600],[601]]},{"type":"MultiLineString","properties":{"kind":"major_road","network":"AsianHighway","sort_rank":381,"landuse_kind":"urban_area","bus_network":"Brunei-Muara bus","source":"openstreetmap.org","min_zoom":8.0,"bus_shield_text":"42","shield_text":"150","kind_detail":"trunk"},"arcs":[[602],[603]]},{"type":"MultiLineString","properties":{"source":"openstreetmap.org","bus_network":"Brunei-Muara bus","bus_shield_text":"20","sort_rank":380,"kind_detail":"primary","min_zoom":8.0,"kind":"major_road"},"arcs":[[604],[605],[606],[607],[608],[609],[610]]},{"type":"MultiLineString","properties":{"kind":"major_road","network":"AsianHighway","sort_rank":381,"landuse_kind":"urban_area","bus_network":"Brunei-Muara bus","source":"openstreetmap.org","min_zoom":8.0,"bus_shield_text":"55","shield_text":"150","kind_detail":"trunk"},"arcs":[[611],[612]]},{"type":"LineString","properties":{"source":"openstreetmap.org","kind":"ferry","name":"Limbang-Labuan Express Route","sort_rank":355,"min_zoom":8.0,"id":315411894},"arcs":[613]},{"type":"LineString","properties":{"kind":"major_road","network":"AsianHighway","sort_rank":381,"kind_detail":"trunk","is_bicycle_related":true,"source":"openstreetmap.org","min_zoom":8.0,"shield_text":"150","ref":"1-85"},"arcs":[614]},{"type":"LineString","properties":{"source":"openstreetmap.org","kind":"ferry","name":"Bandar Seri Begawan to Bangar","sort_rank":355,"min_zoom":8.0,"osm_relation":true,"id":-2801266},"arcs":[615]},{"type":"MultiLineString","properties":{"bus_network":"Brunei-Muara bus","sort_rank":380,"kind_detail":"primary","kind":"major_road","source":"openstreetmap.org","min_zoom":8.0,"bus_shield_text":"39","landuse_kind":"urban_area"},"arcs":[[616],[617],[618],[619]]},{"type":"LineString","properties":{"source":"openstreetmap.org","kind":"ferry","name":"Sarasa to Labuan","sort_rank":355,"name:zh":"Sarasa-\u7eb3\u95fd","min_zoom":8.0,"id":197482879},"arcs":[620]},{"type":"LineString","properties":{"kind":"major_road","network":"AsianHighway","sort_rank":381,"kind_detail":"trunk","is_bicycle_related":true,"source":"openstreetmap.org","min_zoom":8.0,"shield_text":"150","ref":"1","id":286203552},"arcs":[621]},{"type":"MultiLineString","properties":{"kind":"major_road","network":"AsianHighway","sort_rank":381,"landuse_kind":"urban_area","source":"openstreetmap.org","min_zoom":8.0,"kind_detail":"trunk","shield_text":"150","ref":"1-79B"},"arcs":[[622],[623]]},{"type":"LineString","properties":{"kind":"major_road","network":"AsianHighway","sort_rank":381,"kind_detail":"trunk","source":"openstreetmap.org","min_zoom":8.0,"shield_text":"150","ref":"1-79A","id":142521477},"arcs":[624]},{"type":"LineString","properties":{"kind":"major_road","network":"AsianHighway","sort_rank":381,"kind_detail":"trunk","is_bicycle_related":true,"source":"openstreetmap.org","min_zoom":8.0,"shield_text":"150","ref":"1-84"},"arcs":[625]},{"type":"LineString","properties":{"kind":"major_road","network":"AsianHighway","sort_rank":381,"kind_detail":"trunk","source":"openstreetmap.org","min_zoom":8.0,"shield_text":"150","ref":"Passport and Vehicles Permit upon entering","id":261500971},"arcs":[626]},{"type":"MultiLineString","properties":{"kind":"major_road","name:en":"Rimba Highway","sort_rank":381,"kind_detail":"trunk","source":"openstreetmap.org","min_zoom":8.0,"old_name:en":"Rimba Link Road","old_name":"Jalan Penghubung Rimba"},"arcs":[[627],[628],[629],[630]]},{"type":"LineString","properties":{"source":"openstreetmap.org","bus_network":"Brunei-Muara bus","bus_shield_text":"42","sort_rank":381,"kind_detail":"trunk","min_zoom":8.0,"kind":"major_road"},"arcs":[631]},{"type":"LineString","properties":{"source":"openstreetmap.org","kind":"highway","name:ms":"Lebuhraya Sultan Hassanal Bolkiah","sort_rank":383,"kind_detail":"motorway","min_zoom":8.0},"arcs":[632]},{"type":"MultiLineString","properties":{"kind":"major_road","network":"AsianHighway","service":"drive-through","sort_rank":381,"kind_detail":"trunk","is_bicycle_related":true,"source":"openstreetmap.org","min_zoom":8.0,"shield_text":"150"},"arcs":[[633],[634]]},{"type":"MultiLineString","properties":{"bus_network":"Brunei-Muara bus","sort_rank":380,"kind_detail":"primary","kind":"major_road","source":"openstreetmap.org","min_zoom":8.0,"bus_shield_text":"1C","landuse_kind":"urban_area"},"arcs":[[635],[636],[637],[638],[639]]},{"type":"MultiLineString","properties":{"source":"openstreetmap.org","kind":"major_road","sort_rank":380,"kind_detail":"primary","is_bicycle_related":true,"min_zoom":8.0},"arcs":[[640],[641],[642],[643],[644],[645],[646]]},{"type":"MultiLineString","properties":{"kind":"major_road","network":"AsianHighway","sort_rank":381,"landuse_kind":"urban_area","source":"openstreetmap.org","min_zoom":8.0,"kind_detail":"trunk","shield_text":"150","ref":"1-81"},"arcs":[[647],[648]]},{"type":"MultiLineString","properties":{"kind":"major_road","network":"AsianHighway","sort_rank":381,"kind_detail":"trunk","bus_network":"Brunei-Muara bus","source":"openstreetmap.org","min_zoom":8.0,"bus_shield_text":"42","shield_text":"150"},"arcs":[[649],[650],[651]]},{"type":"MultiLineString","properties":{"kind":"major_road","network":"AsianHighway","sort_rank":381,"kind_detail":"trunk","is_bicycle_related":true,"source":"openstreetmap.org","min_zoom":8.0,"shield_text":"150","ref":"1-83"},"arcs":[[652],[653],[654],[655],[656],[657]]},{"type":"MultiLineString","properties":{"bus_network":"Brunei-Muara bus","network":"AsianHighway","sort_rank":381,"kind_detail":"trunk","kind":"major_road","source":"openstreetmap.org","min_zoom":8.0,"bus_shield_text":"55","shield_text":"150"},"arcs":[[658],[659],[660],[661],[662]]}]},"earth":{"type":"GeometryCollection","geometries":[{"type":"MultiPolygon","properties":{"sort_rank":10,"source":"naturalearthdata.com","min_zoom":0.0,"kind":"earth","area":45802300423},"arcs":[[[663]],[[664]]]}]},"landuse":{"type":"GeometryCollection","geometries":[{"type":"Polygon","properties":{"kind":"park","area":534620000,"sort_rank":24,"source":"openstreetmap.org","min_zoom":6.0,"tier":2,"id":-7051612,"osm_relation":true},"arcs":[[665]]},{"type":"MultiPolygon","properties":{"source":"naturalearthdata.com","kind":"urban_area","name":"","area":215439027,"sort_rank":11,"min_zoom":4.0},"arcs":[[[666]],[[667]]]},{"type":"Polygon","properties":{"source":"openstreetmap.org","kind":"park","tier":2,"area":70706516,"sort_rank":24,"min_zoom":8.0,"osm_relation":true},"arcs":[[668]]}]}},"type":"Topology","transform":{"translate":[113.90625,4.2149431414],"scale":[0.0003433228,0.0003420514]},"arcs":[[[4096,265],[-53,54],[5,41],[-146,9],[-19,73],[-62,-22],[-175,46],[-7,25],[-106,-35],[-83,42],[40,86],[-36,59],[8,166],[-47,45],[20,72],[-48,69],[6,61],[-87,127],[-7,38],[36,53],[-29,8],[-7,38],[24,3],[-40,78],[18,-1],[-31,16],[29,17],[-18,21],[28,15],[-27,16],[30,24],[-53,11],[19,33],[-28,6],[30,15],[2,55],[65,54],[-83,48],[66,153]],[[3600,2048],[37,-13],[12,-49],[-28,-65],[102,-18],[17,-74],[138,-131],[-17,-94],[69,-99],[-18,-101],[48,-41],[-20,-77],[64,-41],[21,-69],[-59,-263],[36,-157],[-23,-75],[117,-156]],[[3330,1884],[8,58],[-48,-6],[-31,57],[-107,-70],[-1,-98],[-49,-90],[-218,22],[-133,-72],[-78,-135],[-157,-60],[38,-23],[-21,-65],[77,-56],[-8,-105],[54,-162],[0,-307],[30,-140],[52,-29],[107,12],[-8,-160],[-36,-111],[-157,-221],[17,-17],[108,79],[-73,-170],[-10,-15]],[[1620,0],[-6,14],[-28,170],[-57,-17],[-26,-56],[-58,30],[-88,2],[-22,-24],[-140,23],[48,249],[-77,51],[24,79],[-20,65],[-138,266],[-138,87],[-41,-14],[-106,123],[-251,31],[10,88]],[[3610,2113],[-10,-65]],[[506,1167],[12,90],[-518,29]],[[4096,3792],[-281,-152],[-294,-214],[-159,-359],[285,-698],[15,-109],[-52,-147]],[[3600,2048],[-58,35],[-57,-13],[-86,-93],[6,-57],[-75,-36]],[[3637,2035],[113,51],[9,39]],[[3871,2140],[33,-94],[150,-18],[42,-38]],[[3759,2125],[-21,50],[22,22],[75,-2],[36,-55]],[[3610,2113],[-10,-65],[37,-13]],[[4096,3792],[-281,-152],[-294,-214],[-159,-359],[285,-698],[15,-109],[-52,-147]],[[4096,265],[-53,54],[5,41],[-146,9],[-19,73],[-62,-22],[-175,46],[-7,25],[-106,-35],[-83,42],[40,86],[-36,59],[8,166],[-47,45],[20,72],[-48,69],[6,61],[-87,127],[-7,38],[36,53],[-29,8],[-7,38],[24,3],[-40,78],[18,-1],[-31,16],[29,17],[-18,21],[28,15],[-27,16],[30,24],[-53,11],[19,33],[-28,6],[30,15],[2,55],[65,54],[-83,48],[74,211],[-48,-6],[-31,57],[-107,-70],[-1,-98],[-49,-90],[-218,22],[-133,-72],[-78,-135],[-157,-60],[38,-23],[-21,-65],[77,-56],[-8,-105],[54,-162],[0,-307],[30,-140],[52,-29],[107,12],[-8,-160],[-36,-111],[-157,-221],[17,-17],[108,79],[-73,-170],[-10,-15]],[[1620,0],[-6,14],[-28,170],[-57,-17],[-26,-56],[-58,30],[-88,2],[-22,-24],[-140,23],[48,249],[-77,51],[24,79],[-20,65],[-138,266],[-138,87],[-41,-14],[-106,123],[-251,31],[10,88]],[[3637,2035],[14,-70],[-21,-3],[-9,-41],[102,-18],[17,-74],[138,-131],[-17,-94],[69,-99],[-18,-101],[48,-41],[-20,-77],[64,-41],[21,-69],[-59,-263],[36,-157],[-23,-75],[117,-156]],[[506,1167],[12,90],[-518,29]],[[4096,3114],[-18,-31],[18,-7]],[[4096,2012],[-25,9],[-31,57],[-23,16],[-30,12],[-28,5],[-63,-5],[-15,6],[-9,20],[-33,41],[-40,4],[-34,-26],[-27,-97],[-33,-22],[-45,-6],[-48,2],[-1,0],[-33,1],[-28,-4],[-19,-11],[-6,-23],[17,-48],[25,-46],[-2,-34],[-63,-14],[-65,-34],[-58,-65],[-53,-34],[-53,55],[-1,0],[-17,106],[-3,114],[-20,60],[-17,-27],[-24,-21],[-27,-17],[-32,-15],[30,46],[90,84],[20,41],[8,34],[49,117],[24,39],[91,41],[42,30],[-4,38],[-55,21],[-73,-9],[-377,-156],[-490,-298],[-109,-66],[-352,-281],[-105,-107],[-45,-85],[-61,-60],[-102,-37],[-287,-104],[-201,-113],[-219,-42],[-736,25],[-67,-19],[-19,-47],[65,-275],[1,-139],[-30,-123],[-62,-97],[21,-116],[-61,-141],[-118,-154],[0,4078],[4096,0],[0,-2084]],[[3722,3076],[58,48],[24,4],[57,-34],[29,-2],[51,54],[1,71],[-32,147],[-20,64],[-46,-19],[-84,-77],[-23,-29],[-83,-227],[-5,-44],[73,44]],[[4096,2012],[-25,9],[-31,57],[-23,16],[-30,12],[-28,5],[-63,-5],[-15,6],[-9,20],[-33,41],[-40,4],[-34,-26],[-27,-97],[-33,-22],[-45,-6],[-48,2],[-1,0],[-33,1],[-28,-4],[-19,-11],[-6,-23],[17,-48],[25,-46],[-2,-34],[-63,-14],[-65,-34],[-58,-65],[-53,-34],[-53,55],[-1,0],[-17,106],[-3,114],[-20,60],[-17,-27],[-24,-21],[-27,-17],[-32,-15],[30,46],[90,84],[20,41],[8,34],[49,117],[24,39],[91,41],[42,30],[-4,38],[-55,21],[-73,-9],[-377,-156],[-490,-298],[-109,-66],[-352,-281],[-105,-107],[-45,-85],[-61,-60],[-102,-37],[-287,-104],[-201,-113],[-219,-42],[-736,25],[-67,-19],[-19,-47],[65,-275],[1,-139],[-30,-123],[-62,-97],[21,-116],[-61,-141],[-118,-154]],[[3910,3364],[-20,64],[-46,-19],[-84,-77],[-23,-29],[-83,-227],[-5,-44],[73,44],[58,48],[24,4],[57,-34],[29,-2],[51,54],[1,71],[-32,147]],[[1634,1276],[138,7],[191,164],[-2,70]],[[1962,1517],[1,-70],[-192,-165],[-137,-7]],[[2917,2056],[1,0]],[[2919,2057],[-1,-2]],[[2978,2000],[1,0]],[[3001,1996],[1,0]],[[2921,2028],[-23,-36]],[[2900,1989],[26,2]],[[2928,1991],[22,14]],[[2950,2004],[-22,-13]],[[2711,1957],[-76,-47]],[[2716,1960],[-5,-3]],[[2711,1957],[5,4]],[[2987,2051],[-2,-8],[2,-19],[-2,-4]],[[3011,1995],[-24,56]],[[3002,2071],[-1,0]],[[3002,2074],[10,51]],[[3011,2126],[-9,3]],[[3002,2130],[9,-3]],[[3013,2125],[-10,-52]],[[3002,2129],[-1,0],[-1,1],[2,0],[0,-1]],[[3011,2125],[0,2],[2,0],[0,-2],[-2,0]],[[3059,2236],[9,30]],[[3068,2266],[-8,-30]],[[3004,2071],[-1,1]],[[3012,1995]],[[3031,2133],[-1,0]],[[2672,1616],[-29,-78]],[[241,513],[-1,-3]],[[4096,3327],[-111,-229],[-73,-14],[-26,21]],[[2878,1952],[-5,-2],[-94,-12],[-1,0]],[[2780,1939],[94,12],[10,9],[7,23],[1,3],[4,4]],[[2896,1988],[-4,-2],[-6,-24],[-2,-3],[-6,-6]],[[2925,2022],[0,-4]],[[2925,2018],[-1,-6]],[[2927,1992],[-2,26]],[[2925,2018],[0,2],[0,2]],[[2928,1990],[-2,-12]],[[233,1056],[1,0]],[[234,1056]],[[234,1056],[2,4],[-2,-4]],[[295,788],[-22,10],[-75,238],[35,19]],[[234,1055],[-36,-19],[50,-140],[25,-97],[22,-10]],[[234,1055],[0,1]],[[234,1056],[-1,0],[1,0]],[[234,1056],[0,-1]],[[2951,2158],[-24,-29]],[[2929,2060],[-2,3],[-1,7],[0,1]],[[2926,2071],[2,24],[-5,22]],[[2923,2117],[-2,9],[-22,36],[-38,30],[-8,8],[-11,15]],[[2842,2215],[57,-53],[22,-36],[2,-2],[0,-7]],[[2923,2117],[3,-46]],[[2926,2071],[0,-1],[4,-10]],[[2896,1991],[22,36]],[[2926,1990],[-28,-2]],[[2919,2031],[-4,23]],[[2925,1978],[1,12]],[[2896,1988],[0,2],[2,0],[0,-2],[-2,0]],[[2927,1992],[1,-1],[-1,-1],[-1,1],[1,1]],[[3141,1333],[6,121],[63,114]],[[3211,1569],[-1,-1]],[[3210,1568],[0,2]],[[493,1084],[13,-4]],[[513,1079],[225,-1]],[[743,1077],[-5,1]],[[743,1077],[38,-20]],[[786,1052],[-5,5]],[[786,1052],[33,-62],[80,28]],[[899,1018],[6,2]],[[905,1020],[21,17]],[[928,1038],[-2,-1]],[[926,1037],[2,1]],[[928,1039],[25,22],[141,3],[233,76],[307,136]],[[1634,1275],[-307,-136],[-233,-76],[-141,-3],[-24,-22]],[[2163,1719],[35,59],[42,-9],[44,30],[232,20],[109,245],[44,36]],[[2669,2099],[-44,-35],[-109,-246],[-232,-19],[-40,-29],[-4,-2],[-42,10],[-34,-59]],[[2709,2131],[5,11],[13,11]],[[2715,2143],[-6,-11]],[[3271,1394],[-1,-1]],[[3301,1388],[-8,-1]],[[3296,1386],[3,0],[6,3]],[[3310,1393],[-5,-4]],[[3398,1439],[-73,-17],[-15,-29]],[[3390,1437],[6,1],[2,1]],[[3398,1439],[3,1]],[[3401,1440],[4,1],[1,1],[-1,-1],[-4,-1]],[[3875,1688],[-7,3]],[[3875,1688],[6,-8]],[[929,1038],[-1,0],[0,1]],[[928,1039],[1,-1]],[[3027,2157],[5,5]],[[3032,2162],[-4,-4]],[[3887,3104],[28,-65],[-17,-61]],[[3047,2052],[-10,3]],[[3046,2053],[8,19]],[[3056,2074],[-9,-21]],[[3013,2129],[11,24]],[[239,388],[11,-20]],[[2758,2056],[-9,-1],[-37,10]],[[2712,2065],[45,-8]],[[440,6],[12,64]],[[246,1075],[236,-3]],[[482,1072],[3,1]],[[484,1071],[-2,1]],[[485,1073],[5,3]],[[492,1076],[-6,-4]],[[490,1080],[0,4]],[[490,1084],[3,0]],[[493,1084]],[[484,1072],[2,0],[0,-1],[-1,0],[-1,1]],[[452,70],[-67,48],[-23,86]],[[444,0],[-4,6]],[[240,510],[4,8]],[[2669,2100],[40,31]],[[2709,2132],[-40,-33]],[[219,422],[0,1],[2,-1],[-1,-1],[-1,1]],[[316,645],[1,1],[1,-1],[-1,-1],[-1,1]],[[307,735],[-1,12]],[[306,747],[1,-12]],[[276,552],[1,2],[1,-1],[-1,-2],[-1,1]],[[3246,2208],[-27,-137],[-150,-123]],[[3246,2208]],[[3246,2210],[2,16]],[[3247,2208],[-1,0]],[[3389,1436],[1,1]],[[3754,1607],[-69,-21],[-46,-65],[-96,-21],[-34,-41],[-103,-17]],[[198,1036]],[[259,841]],[[2094,1567],[0,1]],[[2721,2148],[-6,-5]],[[2716,1962],[0,-2]],[[2727,2153],[5,5]],[[2761,2184],[-4,-2]],[[2759,2184],[8,4]],[[2819,2005],[-27,58]],[[2794,2064],[27,-59]],[[2823,1998],[-2,4]],[[2822,2214],[17,7],[12,4]],[[2851,2225],[20,7]],[[2823,2002],[2,-1]],[[2874,2234],[-17,-6],[-6,-3]],[[2851,2225],[-24,-9]],[[2856,2098],[-6,0]],[[2850,2100],[6,-2]],[[2874,2099],[-18,-1]],[[3034,2256],[-116,-6]],[[2918,2249],[109,2]],[[3012,2127],[1,2]],[[3032,2162],[21,56]],[[3055,2218],[-23,-56]],[[3097,2267],[145,119],[103,5]],[[3344,2390],[-103,-5],[-79,-78],[-63,-40]],[[3894,3105],[6,15]],[[3900,3120],[1,0]],[[3901,3120],[7,17]],[[3908,3137],[0,1],[-44,68]],[[3895,3105],[6,14]],[[3901,3119]],[[3901,3119],[8,17],[-1,1]],[[3908,3137],[-48,73],[8,102]],[[3869,3082],[2,52],[3,0],[27,-14]],[[3901,3120],[0,-1]],[[3901,3119],[1,0]],[[3902,3119],[-1,0]],[[3901,3119],[-1,1]],[[3900,3120],[-27,14],[-2,-1],[-2,-50]],[[2790,2065],[1,2],[3,-1],[-1,-3],[-3,2]],[[2820,2003],[0,2],[1,1],[2,-4],[-3,1]],[[2849,2098],[-1,1],[1,1],[1,-1],[-1,-1]],[[3108,2169],[27,49]],[[3340,2387],[-77,-86]],[[3344,2389],[-4,-2]],[[3340,2387],[4,2]],[[3375,2379],[-30,9]],[[3346,2389],[29,-9]],[[3387,2374],[-12,5]],[[3375,2379],[12,-5]],[[3977,1649],[4,11]],[[3884,1672],[-2,3]],[[3882,1675],[2,-3]],[[3884,1672],[26,-32],[67,9]],[[2842,2215],[-6,5]],[[2840,2219],[2,-4]],[[2955,2048],[-26,12]],[[2930,2060],[25,-12]],[[219,422],[21,88]],[[239,387],[-19,34]],[[3054,2072],[1,2],[8,6],[49,18]],[[3113,2097],[-3,-2],[-27,-14],[-27,-7]],[[3082,2149],[10,3]],[[3092,2152],[-8,-4]],[[3109,2100],[-24,42]],[[3085,2142],[27,-43]],[[3092,2152],[16,17]],[[3113,2100],[2,-1],[-1,-2],[-2,1]],[[3112,2098],[1,2]],[[3346,2390],[-1,-2],[-1,1],[1,2],[1,-1]],[[3375,2380],[0,-1],[0,1]],[[232,520],[-27,-40]],[[205,480],[27,41]],[[303,682],[85,2]],[[388,684],[-85,-2]],[[395,696],[0,32]],[[396,727],[-1,-31]],[[2778,1939],[2,0]],[[2864,1948],[18,9]],[[2882,1956],[-3,-2],[-15,-7]],[[2878,1953],[0,-1]],[[2898,1992],[0,-2]],[[2898,1990],[2,-1]],[[2915,2054],[1,1]],[[2918,2027],[4,2],[10,1]],[[2931,2029],[-10,-1]],[[2924,2012],[4,-20]],[[2925,2023],[0,-1]],[[2926,1978],[-1,-7]],[[2925,1971],[0,7]],[[2935,1953],[-10,18]],[[2959,1946],[-24,7]],[[2935,1953],[20,-4],[4,-2]],[[3001,1985],[0,1]],[[3018,1975],[2,-7]],[[3026,1965],[-6,0]],[[3020,1965],[1,0]],[[3024,1967],[-1,1]],[[3024,1967],[0,-2]],[[3024,1965]],[[3166,2243],[-30,-25]],[[3149,2272],[13,-29],[-14,29]],[[3255,2290]],[[2952,2004],[0,-2],[1,-2]],[[2953,2000],[2,-3],[1,-1]],[[2956,1996],[3,-2],[17,-8],[12,-14],[1,-1]],[[2989,1971],[2,-2],[2,2],[-1,1]],[[2992,1972],[0,1],[-2,1],[-1,1],[3,-2],[0,-1]],[[2992,1972],[-3,-1]],[[2989,1971],[-32,24],[-1,1]],[[2956,1996],[-3,4]],[[2953,2000],[-1,2],[0,3]],[[2916,2055],[1,1]],[[2918,2055],[7,-32]],[[2918,2056],[19,11]],[[2925,2022],[-6,9]],[[2937,2067],[-18,-10]],[[2937,2067],[1,0],[-1,-1],[0,1]],[[2757,2057],[33,9]],[[2791,2063],[-33,-7]],[[2793,2067],[55,33]],[[2848,2098],[-54,-33]],[[2925,2129],[-9,-4]],[[3981,1660],[66,106],[49,8]],[[2757,2182],[-36,-34]],[[2732,2158],[27,26]],[[2827,2216],[-66,-32]],[[2767,2188],[55,26]],[[244,518],[32,34]],[[278,554],[46,47],[-8,43]],[[316,646],[-9,89]],[[2916,2125],[-12,-8]],[[2933,2029],[-2,0]],[[2932,2030],[1,0]],[[3001,1987],[0,-2]],[[3025,1965],[22,-35],[22,18]],[[3255,2290],[-7,-64]],[[252,365],[-2,2]],[[250,368],[2,-3]],[[362,204],[0,100],[-51,55],[-59,6]],[[2734,1973],[0,-4]],[[2859,1868],[-9,-4]],[[2724,2144],[0,12]],[[2972,2029],[29,-32]],[[3002,1996],[10,0]],[[250,368],[-31,-51],[31,51]],[[165,297],[-111,-205],[-54,-72]],[[177,328],[1,0]],[[178,328]],[[194,403],[-5,61]],[[189,463],[5,-59]],[[189,464],[16,16]],[[205,480],[-15,-16]],[[395,684],[-7,0]],[[388,684],[7,0]],[[394,684],[1,1]],[[395,696],[0,-12]],[[395,684],[0,12]],[[395,728],[1,120],[50,123]],[[446,971],[-50,-123],[0,-121]],[[446,971],[36,-1],[5,35]],[[487,1065],[-2,5]],[[486,1071],[1,-6]],[[489,1053],[-2,12]],[[489,1053],[-2,-48]],[[494,1084],[1,0]],[[497,1085],[-2,-1]],[[497,1085],[0,-1]],[[928,1038],[-15,28]],[[914,1066],[14,-27]],[[914,1068],[35,5]],[[949,1073],[-35,-6]],[[950,1073],[26,5]],[[976,1077],[-26,-4]],[[1000,1092],[-24,-15]],[[976,1078],[24,14]],[[1000,1092],[20,8]],[[1020,1099],[-20,-7]],[[1022,1097],[-1,1]],[[1022,1099],[0,-2]],[[1029,1067],[-7,30]],[[1404,1223],[-202,-62]],[[1330,1138],[1,2]],[[1394,1209],[-63,-69]],[[1331,1140],[0,-2]],[[1406,1221],[-12,-12]],[[1394,1209],[12,12]],[[1406,1221],[-2,2]],[[1404,1223],[2,-2]],[[1406,1221],[3,2]],[[1409,1223],[-3,-2]],[[1533,1287],[-124,-64]],[[1540,1290],[-7,-3]],[[1644,1292],[-104,-2]],[[1634,1276],[39,43],[14,10],[35,27]],[[1644,1292],[2,0]],[[1645,1290],[-1,2]],[[1722,1356],[-74,-75]],[[1722,1356],[194,164],[44,-2]],[[2635,1910],[-112,-175],[-23,-7],[-35,34],[-165,-10],[-42,22],[-32,-53],[-63,-2]],[[2721,2166],[-1,1]],[[3255,562],[-19,72],[-66,41],[-135,-21],[-59,82],[5,38],[-69,36],[-61,126],[2,253],[39,35]],[[2966,2087],[5,-1]],[[3001,2073],[-30,13]],[[2971,2086],[30,-13]],[[2985,2020]],[[2998,2122],[2,5]],[[2998,2122],[-1,-3]],[[3001,2129],[-1,-2]],[[3000,2127],[0,2]],[[3001,1994],[0,1]],[[3001,1997],[0,-1]],[[3012,1995],[-1,0]],[[3014,1985],[2,4]],[[3037,2055],[9,-2]],[[3045,2044],[1,3]],[[3112,2098],[-3,2]],[[3114,2100],[54,85]],[[3246,2208],[-11,-2]],[[3235,2206],[-60,-13],[-5,-7]],[[3170,2186],[-55,-87]],[[3136,2218],[-8,-7]],[[3128,2211]],[[3128,2211],[-4,-3]],[[3168,2185],[-40,26]],[[3128,2211],[-1,0]],[[3127,2211],[1,0]],[[3128,2211],[2,-2],[38,-24]],[[3141,2284],[-10,10]],[[3138,2298],[4,-13]],[[3148,2272],[-5,11]],[[3144,2284],[-2,-2],[-1,2]],[[3141,2284],[2,1],[1,-1]],[[3144,2284],[5,-12]],[[3168,2185]],[[3168,2185]],[[3168,2185],[2,1]],[[3170,2186],[65,20]],[[3235,2206],[11,4]],[[3168,2185]],[[3256,1604],[15,38],[-38,35],[-53,2]],[[3180,1679],[-1,-6],[10,-31]],[[3189,1642],[15,-52]],[[3180,1679],[33,-32]],[[3213,1647],[-24,-5]],[[3189,1642],[-4,-1]],[[3204,1590]],[[3204,1589],[0,1]],[[3204,1589],[1,1]],[[3205,1590],[0,-1],[-1,0]],[[3205,1588],[0,1]],[[3207,1590],[-2,-2]],[[3205,1588],[5,-7]],[[3205,1590],[2,0]],[[3207,1590],[25,3]],[[3212,1577],[-2,4]],[[3210,1581],[3,-2]],[[3213,1647],[4,-3]],[[3223,1641],[25,-30]],[[3755,3265],[14,33]],[[3827,3230],[-2,-3]],[[3825,3227],[-109,-146],[-39,11],[78,173]],[[3869,3203],[-44,24]],[[3825,3227],[-70,38]],[[3769,3298],[89,50]],[[3769,3298],[61,81],[22,-18]],[[3844,3378],[65,32],[-57,-49]],[[3852,3362],[1,0]],[[3858,3348],[-6,13]],[[3868,3312],[-10,36]],[[3866,3266],[17,0],[17,115]],[[3869,3083],[13,-68],[-13,67]],[[3892,3125],[-5,-11]],[[3888,3108],[6,-3]],[[3894,3105],[-6,2],[-3,3],[7,15]],[[3895,3105],[-1,0]],[[3894,3105],[1,0]],[[3902,3103],[-7,2]],[[3895,3105],[7,-2]],[[3896,3109],[8,-2]],[[3902,3103],[1,1]],[[3904,3102],[-2,1]],[[3903,3104],[1,3]],[[3904,3107]],[[3903,3104],[1,-2]],[[3903,3147],[6,4]],[[3909,3151],[-5,-4]],[[3916,3104],[-12,-2]],[[3904,3107]],[[3904,3107],[31,-1],[3,1],[-3,65]],[[3904,3107],[29,36]],[[189,463],[0,1],[1,0],[-1,-1]],[[914,1068],[1,-1],[-2,-1]],[[913,1066],[-1,1],[2,1]],[[949,1073],[1,0]],[[950,1073],[-1,0]],[[976,1078],[0,-1]],[[976,1077],[0,1]],[[1000,1092]],[[1022,1099],[-2,-1],[0,2],[2,1],[0,-2]],[[1406,1221],[1,0],[-1,0]],[[1406,1221]],[[3221,1644],[1,-2],[-3,-1],[-1,2],[3,1]],[[3902,3103]],[[3902,3103]],[[3909,3151],[0,1],[1,-1],[-1,0]],[[3274,1393],[19,-6]],[[2734,1973],[0,1]],[[2734,1974],[2,0]],[[2736,1974],[23,13],[2,-1],[4,-7]],[[2765,1979],[9,-18]],[[2774,1961],[19,-65],[31,-32],[140,88]],[[2850,1864],[-25,0],[-23,15],[-10,17],[-11,29],[-3,13],[0,1],[-4,22]],[[2774,1961],[-1,4],[-5,15],[-3,-1]],[[2765,1979],[-29,-5]],[[2736,1974],[-1,0],[-1,0]],[[2734,1974],[0,-1]],[[2964,1952],[-6,-6],[1,-6],[-2,-3],[-3,-3],[-52,-37],[-3,-1],[-6,-4],[-3,-2],[-19,-15],[-12,-7]],[[2979,1965],[-15,-13]],[[2982,1967],[-3,-2]],[[2979,1965],[2,2]],[[2154,1701],[4,4]],[[2159,1705],[-4,-4]],[[2950,2005],[2,-1]],[[3001,1995],[-1,0]],[[3904,3107],[-8,2]],[[3028,2158],[-15,-31]],[[3024,2153],[3,4]],[[3046,2267],[1,0]],[[3047,2267],[-1,-1]],[[3066,2269],[-19,-2]],[[3066,2269],[2,-3]],[[3068,2266],[-2,3]],[[2712,2065]],[[2734,1969],[0,4]],[[2873,1951],[-50,47]],[[2825,2001],[47,-44],[2,-6]],[[2871,2232],[47,17]],[[2904,2117],[-30,-18]],[[2918,2250],[-44,-16]],[[2912,2123],[4,2]],[[3027,2251],[21,4],[1,1]],[[3049,2256],[1,0],[27,0]],[[3077,2256],[3,0],[5,1],[1,1]],[[3086,2258],[11,9]],[[3099,2267],[-8,-8],[-5,-1]],[[3086,2258],[-9,-2]],[[3077,2256],[-2,-1],[-21,0],[-5,1]],[[3049,2256],[-15,0]],[[3053,2218],[6,18]],[[3060,2236],[-5,-18]],[[240,514],[1,0],[-1,-2],[-1,1],[1,1]],[[2916,2125],[29,22],[35,70],[2,2],[3,4]],[[2985,2223],[0,1]],[[2927,2129],[-2,0]],[[2985,2224],[0,-1]],[[2985,2223],[-2,-4],[-1,0],[-23,-46],[-8,-15]],[[178,328],[-13,-31],[12,31]],[[178,328],[16,75]],[[194,404],[-16,-76]],[[2937,2030],[35,-1]],[[2965,2005],[-12,-1]],[[2987,2051],[14,21]],[[3003,2073],[34,-18]],[[3015,1982],[-10,4]],[[3046,2047],[-37,-36],[12,-31]],[[3002,2071],[-1,1],[1,2],[1,-2],[-1,-1]],[[3216,1578],[1,0]],[[3217,1578],[-1,-1]],[[3217,1578],[29,31]],[[3247,1610],[-1,-1]],[[3246,1609],[1,1]],[[3249,1609],[-1,0]],[[3248,1610],[1,-1]],[[3249,1609],[1,-1]],[[3251,1607],[-1,1]],[[3250,1608],[1,-1]],[[3252,1606],[-1,-2]],[[3251,1604],[0,2]],[[3251,1604],[-41,-183],[28,-45],[33,18]],[[1961,1517],[12,8],[49,22],[149,67]],[[2171,1614],[2,1],[-18,86]],[[2155,1701],[-1,0]],[[2155,1701]],[[2155,1701],[-5,-8],[21,-79]],[[2171,1614],[0,-1],[-209,-96]],[[2158,1705],[5,14]],[[2164,1719],[-5,-14]],[[3135,2218],[62,73],[55,-3]],[[3258,2292],[-6,-4]],[[3263,2301],[-5,-9]],[[490,1076],[0,2]],[[492,1078],[0,-2]],[[2643,1535]],[[3210,1570],[6,8]],[[3216,1577],[-5,-8]],[[3769,1625],[-15,-18]],[[3769,1625],[6,6]],[[3868,1691],[-93,-60]],[[3881,1677],[1,0]],[[3247,1610],[1,0],[0,-1],[-1,1]],[[3252,1607],[-1,-1],[0,1],[1,0]],[[3013,2127],[12,5],[37,8],[16,8]],[[3030,2133],[-17,-8]],[[3079,2147],[-10,-6],[-18,-4],[-20,-4]],[[3078,2149],[1,1],[3,-2],[-1,-1],[-3,2]],[[2959,2031],[-22,-1]],[[2953,2006],[13,-1]],[[3001,2071],[-14,-20]],[[3037,2055],[-33,16]],[[3004,1986],[12,-5]],[[3021,1980],[-12,31],[36,33]],[[277,551],[-36,-37]],[[318,644],[6,-43],[-46,-48]],[[307,735],[11,-89]],[[3887,3104],[28,-65],[-17,-61]],[[1643,1279],[-1,4]],[[2822,2214],[18,5]],[[2952,2005],[7,69],[6,13],[8,12],[38,45],[10,7],[4,1],[39,6],[17,-11],[4,-5]],[[3024,2151],[-2,0],[-19,-23],[-30,-29],[-8,-12],[-13,-83]],[[3085,2142],[-4,5]],[[3029,1962],[26,-63]],[[3141,1333],[158,-121],[97,-248]],[[2721,2166]],[[2721,2167],[0,-1]],[[2721,2166],[2,-6]],[[2724,2156],[-1,4]],[[2723,2160],[1,-4]],[[2985,2020],[-26,11]],[[2720,2167],[1,1],[0,-1],[-1,0]],[[2654,1620],[-2,1]],[[2652,1622],[1,2]],[[2698,1726],[-45,-102]],[[2653,1624],[0,-2]],[[2653,1621],[1,-1]],[[2654,1620],[16,-2]],[[2670,1618],[1,0]],[[2671,1618],[-1,0]],[[2671,1618],[1,0],[0,-1]],[[2672,1617],[-1,1]],[[2672,1617]],[[2652,1621],[0,1]],[[2652,1622],[1,0]],[[2653,1622],[-1,-1]],[[2952,2004],[-2,1]],[[3246,2209],[0,1],[1,-1],[-1,-1],[0,1]],[[2716,1961],[1,0]],[[3084,2148],[-2,0]],[[2981,1967],[23,19]],[[2989,1973],[-7,-6]],[[3016,1981],[2,-6]],[[3023,1968],[-2,12]],[[3023,1975],[1,-8]],[[2731,1971],[0,-1]],[[2734,1966],[8,-58]],[[2933,2030],[4,0]],[[2937,2030],[-4,-1]],[[3000,1995],[-9,1],[-10,3],[-16,6]],[[2966,2005],[12,-5]],[[2979,2000],[22,-4],[0,-2]],[[3001,1994]],[[3001,1987],[0,7]],[[2708,2044],[16,96]],[[2724,2140],[3,-28],[-12,-29],[0,-3],[-3,-14],[0,-1],[-1,-25]],[[3211,1575],[-48,87],[4,69],[40,101],[135,147]],[[2892,1224],[65,11],[26,68],[103,-19],[55,49]],[[3055,1899],[19,-49],[89,-47],[6,-52],[107,18],[11,-61],[80,-24],[16,-62],[77,-1],[-24,-33],[27,-38],[-57,-35],[-7,-77]],[[3021,1965],[3,0]],[[3024,1965],[0,2]],[[3024,1965],[1,0]],[[3047,1930],[-21,35]],[[3380,2339],[62,43],[447,601],[24,48],[-27,74]],[[2679,1297],[12,-7]],[[240,510],[-20,-87]],[[221,422],[18,-34]],[[250,367],[-11,20]],[[2691,1290],[201,-66]],[[3293,1387],[3,-1]],[[2995,2243],[-4,-7]],[[2991,2236],[-6,-12]],[[2985,2224],[5,8],[1,1],[0,3]],[[2991,2236],[1,5],[0,2]],[[2731,1789],[2,4]],[[3081,2147],[-57,4]],[[3882,1675],[-1,2]],[[3882,1677],[0,-2]],[[3005,1986],[-16,-13]],[[3020,1965],[-5,17]],[[3020,1968],[0,-3]],[[3021,1980],[2,-5]],[[3020,1965],[-1,0],[1,1],[0,-1]],[[1024,1100],[-2,0]],[[1022,1099],[2,1]],[[1202,1161],[-178,-61]],[[2374,1766],[20,33]],[[2394,1799],[-1,1]],[[2394,1800],[0,-1]],[[3247,2210]],[[306,747],[-11,41]],[[295,789],[11,-42]],[[2742,1908],[-9,-115],[-35,-67]],[[2726,1967],[5,4]],[[2731,1970],[-5,-3]],[[2637,1527],[-7,-8]],[[2630,1519],[6,8]],[[2630,1519],[-39,-72],[53,-129],[35,-21]],[[2638,1529],[4,4]],[[2642,1533],[-2,-3]],[[2643,1535],[-1,-2]],[[2726,1967],[-10,-7],[-11,67],[3,17]],[[2711,2040],[5,-78]],[[2717,1961],[9,6]],[[2724,2140],[0,4]],[[2724,2156],[1,-6],[-1,-10]],[[4096,2012],[0,-2012],[-4096,0],[0,18],[118,154],[61,141],[-21,116],[62,97],[30,123],[-1,139],[-65,275],[19,47],[67,19],[736,-25],[219,42],[201,113],[287,104],[102,37],[61,60],[45,85],[105,107],[352,281],[109,66],[490,298],[377,156],[73,9],[55,-21],[4,-38],[-42,-30],[-91,-41],[-24,-39],[-49,-117],[-8,-34],[-20,-41],[-90,-84],[-30,-46],[32,15],[27,17],[24,21],[17,27],[20,-60],[3,-114],[17,-106],[1,0],[53,-55],[53,34],[58,65],[65,34],[63,14],[2,34],[-25,46],[-17,48],[6,23],[19,11],[28,4],[33,-1],[1,0],[48,-2],[45,6],[33,22],[27,97],[34,26],[40,-4],[33,-41],[9,-20],[15,-6],[63,5],[28,-5],[30,-12],[23,-16],[31,-57],[25,-9]],[[3941,3146],[-51,-54],[-29,2],[-57,34],[-24,-4],[-58,-48],[-73,-44],[5,44],[83,227],[23,29],[84,77],[46,19],[20,-64],[32,-147],[-1,-71]],[[2677,0],[81,139],[105,-114],[41,57],[36,-5],[36,-77],[-299,0]],[[199,367],[7,136],[58,92],[6,146],[26,48],[97,-32],[5,-57],[-69,-106],[0,-64],[-28,-15],[-27,-110],[-75,-38]],[[3271,2269],[2,-51],[-97,33],[0,-33],[-130,0],[-96,-65],[-8,-88],[-25,-9],[31,-50],[119,-43],[11,-69],[-96,20],[-227,-86],[-32,195],[-59,84],[63,35],[43,-120],[50,-31],[64,130],[-64,80],[93,57],[21,-34],[43,-5],[71,46],[92,3],[35,16],[1,32],[86,-11],[9,-36]],[[167,0],[2,8],[26,22],[139,-5],[119,45],[-7,-38],[11,38],[36,12],[66,17],[23,-42],[5,-39],[-25,-15],[-48,4],[-6,-7],[-51,0],[-16,9],[-2,-9],[-272,0]]]}