{"objects":{"water":{"type":"GeometryCollection","geometries":[{"type":"Polygon","properties":{"source":"naturalearthdata.com","kind":"ocean","area":1576712559132672,"sort_rank":200,"min_zoom":0.0,"id":1},"arcs":[[0],[1],[2],[3],[4],[5],[6]]},{"type":"LineString","properties":{"source":"naturalearthdata.com","kind":"ocean","sort_rank":205,"boundary":true,"min_zoom":0.0,"id":537},"arcs":[7]},{"type":"LineString","properties":{"source":"naturalearthdata.com","kind":"ocean","sort_rank":205,"boundary":true,"min_zoom":0.0,"id":540},"arcs":[8]},{"type":"LineString","properties":{"source":"naturalearthdata.com","kind":"ocean","sort_rank":205,"boundary":true,"min_zoom":0.0,"id":4066},"arcs":[9]},{"type":"LineString","properties":{"source":"naturalearthdata.com","kind":"ocean","sort_rank":205,"boundary":true,"min_zoom":0.0,"id":4096},"arcs":[10]},{"type":"LineString","properties":{"source":"naturalearthdata.com","kind":"ocean","sort_rank":205,"boundary":true,"min_zoom":0.0,"id":4097},"arcs":[11]},{"type":"LineString","properties":{"source":"naturalearthdata.com","kind":"ocean","sort_rank":205,"boundary":true,"min_zoom":0.0,"id":4098},"arcs":[12]}]},"buildings":{"type":"GeometryCollection","geometries":[]},"places":{"type":"GeometryCollection","geometries":[{"type":"Point","properties":{"name:sk":"Sv\u00e4t\u00fd Martin","name:el":"\u0386\u03b3\u03b9\u03bf\u03c2 \u039c\u03b1\u03c1\u03c4\u03af\u03bd\u03bf\u03c2","name:he":"\u05e1\u05e0\u05d8 \u05de\u05d0\u05e8\u05d8\u05df","name:eo":"Sankta Marteno","official_name":"Land Sint Maarten","min_zoom":2.0,"name:uk":"\u0421\u0456\u043d\u0442-\u041c\u0430\u0440\u0442\u0435\u043d","name:ru":"\u0421\u0438\u043d\u0442-\u041c\u0430\u0440\u0442\u0435\u043d","id":271048940,"population":37429,"name:fa":"\u0633\u0646\u062a\u200c\u0645\u0627\u0631\u062a\u0646","kind":"country","name":"Sint Maarten","source":"openstreetmap.org","name:fr":"Saint-Martin","name:fy":"Sint-Marten","name:zh":"\u5723\u9a6c\u4e01\u5c9b"},"coordinates":[659,196]},{"type":"Point","properties":{"name:ka":"\u10d0\u10dc\u10d2\u10d5\u10d8\u10da\u10d0","name:ko":"\uc548\uae38\ub77c","name:kn":"\u0c86\u0c82\u0c97\u0cc1\u0caf\u0cbf\u0cb2\u0ccd\u0cb2\u0cbe","name:km":"\u17a2\u1784\u17cb\u1780\u17bc\u17a1\u17b6","name:kw":"Angwilla","name:th":"\u0e41\u0e2d\u0e07\u0e01\u0e27\u0e34\u0e25\u0e25\u0e32","name:ti":"\u12a0\u1295\u1309\u12a2\u120b","name:ks":"\u0627\u06cc\u0646\u065b\u06af\u0648\u0650\u0644\u0627","name:to":"Anikuila","name:tl":"Anggilya","name:pa":"\u0a10\u0a02\u0a17\u0a41\u0a08\u0a32\u0a3e","name:or":"\u0b06\u0b19\u0b4d\u0b17\u0b41\u0b07\u0b32\u0b4d\u0b32\u0b3e","name:ta":"\u0b85\u0b99\u0bcd\u0b95\u0bc1\u0baf\u0bcd\u0bb2\u0bbe","name:te":"\u0c06\u0c02\u0c17\u0c35\u0c3f\u0c32\u0c4d\u0c32\u0c3e","name:ln":"Angiy\u025b","name:ba":"\u0410\u043d\u0433\u0438\u043b\u044c\u044f","name:dz":"\u0f68\u0f44\u0f0b\u0f42\u0f72\u0f0b\u0f63","source":"openstreetmap.org","name:dv":"\u0787\u07a6\u0782\u07b0\u078e\u07a9\u078d\u07a7","name:lv":"Angilja","name:lt":"Angilija","name:hi":"\u090f\u0902\u0917\u0941\u0907\u0932\u093e","name:he":"\u05d0\u05e0\u05d2\u05d9\u05dc\u05d4","min_zoom":2.0,"name:eo":"Angvilo","name:ha":"Angila","name:lg":"Angwila","name:uk":"\u0410\u043d\u0433\u0456\u043b\u044c\u044f","name:hy":"\u0531\u0576\u0563\u056b\u056c\u056b\u0561","name:ug":"\u0626\u0627\u0646\u06af\u06cb\u0649\u0644\u0644\u0627","name:hr":"Angvila","name:lo":"\u0ec1\u0ead\u0e99\u0e81\u0eb4\u0ea5\u0eb2","population":15423,"name:el":"\u0391\u03b3\u03ba\u03af\u03bb\u03b1","kind":"country","name":"Anguilla","name:ee":"Anguilla nutome","name:is":"Angvilla","name:eu":"Angila","name:es":"Anguila","name:mt":"Angwilla","name:rn":"Angwila","name:az":"Angilya","name:mr":"\u0905\u0901\u0917\u094d\u0935\u093f\u0932\u093e","name:ur":"\u0627\u0646\u06af\u0648\u0626\u06cc\u0644\u0627","name:ar":"\u0623\u0646\u062c\u0648\u064a\u0644\u0627","name:my":"\u1021\u1014\u103a\u1000\u103d\u102e\u101c\u102c","name:io":"Anguila","name:ak":"Anguila","name:am":"\u12a0\u1295\u1309\u12a2\u120b","name:an":"Anguila","name:ml":"\u0d06\u0d7b\u0d17\u0d4d\u0d35\u0d3f\u0d32\u0d4d\u0d32","name:rw":"Angwiya","id":433483517,"name:mk":"\u0410\u043d\u0433\u0432\u0438\u043b\u0430","name:zu":"i-Anguilla","name:mn":"\u0410\u043d\u0433\u0438\u043b\u044c\u044f","name:ff":"Anngiyaa","name:zh-yue":"\u5b89\u572d\u62c9","name:zh":"\u5b89\u572d\u62c9","name:sn":"Anguila","name:sl":"Angvila","name:ja":"\u30a2\u30f3\u30ae\u30e9","name:si":"\u0d87\u0db1\u0dca\u0d9c\u0dd4\u0dba\u0dd2\u0dbd\u0dcf\u0dc0","name:sh":"Angvila","name:sg":"Ang\u00fb\u00eela","name:ne":"\u0906\u0919\u094d\u0917\u0941\u0907\u0932\u093e","name:bs":"Angvila","name:bm":"Angiya","name:bn":"\u098f\u09cd\u09af\u09be\u0999\u09cd\u0997\u09c1\u0987\u09b2\u09be","name:bo":"\u0f68\u0f44\u0f0b\u0f42\u0f74\u0f60\u0f72\u0f0b\u0f63\u0f0d","name:ru":"\u0410\u043d\u0433\u0438\u043b\u044c\u044f","name:be":"\u0410\u043d\u0433\u0456\u043b\u044c\u044f","name:bg":"\u0410\u043d\u0433\u0443\u0438\u043b\u0430","name:wo":"Angila","name:sr":"\u0410\u043d\u0433\u0432\u0438\u043b\u0430","name:ga":"Anga\u00edle","name:gl":"Anguila","name:fa":"\u0622\u0646\u06af\u0648\u06cc\u0644\u0627","name:yo":"Or\u00edl\u1eb9\u0301\u00e8de \u00c0\u00e0ng\u00fal\u00edl\u00e0","name:gu":"\u0a8d\u0a82\u0a97\u0acd\u0ab5\u0abf\u0ab2\u0abe"},"coordinates":[601,666]},{"type":"Point","properties":{"name:el":"\u0386\u03b3\u03b9\u03bf\u03c2 \u039c\u03b1\u03c1\u03c4\u03af\u03bd\u03bf\u03c2 (\u0393\u03b1\u03bb\u03bb\u03af\u03b1)","kind":"region","int_name":"Saint Martin (French part)","name:sk":"Sv\u00e4t\u00fd Martin","name":"Saint-Martin","kind_detail":"state","source":"openstreetmap.org","min_zoom":4.0,"name:nl":"Sint Maarten (Frankrijk)","id":271047515,"population":36286},"coordinates":[683,316]},{"type":"Point","properties":{"name:ja":"\u30de\u30ea\u30b4","name:ka":"\u10db\u10d0\u10e0\u10d8\u10d2\u10dd","name:mr":"\u092e\u093e\u0930\u093f\u0917\u094b","name:ko":"\ub9c8\ub9ac\uace0","name:ur":"\u0645\u0627\u0631\u06cc\u06af\u0627\u0679","name:th":"\u0e21\u0e32\u0e23\u0e35\u0e42\u0e01","country_capital":true,"id":271047808,"population":36286,"name:el":"\u039c\u03b1\u03c1\u03b9\u03b3\u03ba\u03cc\u03c4","kind":"locality","name":"Marigot","kind_detail":"town","min_zoom":8.0,"source":"openstreetmap.org","name:zh":"\u99ac\u91cc\u6208\u7279"},"coordinates":[572,271]},{"type":"Point","properties":{"admin_level":"3","name:ja":"\u30d5\u30a3\u30ea\u30c3\u30d7\u30b9\u30d6\u30eb\u30d5","name:lt":"Filipsburgas","min_zoom":8.0,"name:uk":"\u0424\u0456\u043b\u0456\u043f\u0441\u0431\u0443\u0440\u0433","name:ru":"\u0424\u0438\u043b\u0438\u043f\u0441\u0431\u0443\u0440\u0433","country_capital":true,"name:be":"\u0424\u0456\u043b\u0456\u043f\u0441\u0431\u0443\u0440\u0433","name:ka":"\u10e4\u10d8\u10da\u10d8\u10de\u10e1\u10d1\u10e3\u10e0\u10d2\u10d8","name:bg":"\u0424\u0438\u043b\u0438\u043f\u0441\u0431\u0443\u0440\u0433","id":265616624,"population":1300,"name:el":"\u03a6\u03af\u03bb\u03b9\u03c0\u03c3\u03bc\u03c0\u03bf\u03c5\u03c1\u03b3\u03ba","kind":"locality","name":"Philipsburg","kind_detail":"town","name:sr":"\u0424\u0438\u043b\u0438\u043f\u0441\u0431\u0443\u0440\u0433","source":"openstreetmap.org","name:zh":"\u83f2\u5229\u666e\u65af\u5821"},"coordinates":[678,142]}]},"transit":{"type":"GeometryCollection","geometries":[]},"pois":{"type":"GeometryCollection","geometries":[]},"boundaries":{"type":"GeometryCollection","geometries":[]},"roads":{"type":"GeometryCollection","geometries":[{"type":"MultiLineString","properties":{"sort_rank":380,"kind_detail":"primary","min_zoom":8.0,"kind":"major_road","source":"openstreetmap.org"},"arcs":[[13],[14],[15],[16],[17],[18],[19],[20],[21],[22],[23],[24],[25],[26],[27],[28],[29],[30],[31],[32],[33],[34],[35],[36],[37],[38],[39],[40],[41],[42],[43],[44],[45],[46],[47],[48],[49],[50],[51],[52],[53],[54],[55],[56],[57],[58],[59],[60],[61],[62],[63],[64],[65],[66],[67],[68],[69],[70],[71],[72],[73],[74],[75],[76],[77],[78]]},{"type":"LineString","properties":{"source":"openstreetmap.org","kind":"ferry","name":"Anguilla to St Martin","sort_rank":355,"landuse_kind":"urban_area","min_zoom":8.0,"id":226917897},"arcs":[79]},{"type":"MultiLineString","properties":{"source":"openstreetmap.org","kind":"major_road","landuse_kind":"urban_area","sort_rank":380,"kind_detail":"primary","ref":"N 7","min_zoom":8.0},"arcs":[[80],[81],[82],[83]]},{"type":"MultiLineString","properties":{"source":"openstreetmap.org","kind":"major_road","landuse_kind":"urban_area","sort_rank":380,"kind_detail":"primary","min_zoom":8.0},"arcs":[[84],[85],[86],[87],[88],[89],[90],[91],[92],[93],[94],[95],[96],[97],[98],[99],[100],[101],[102],[103],[104],[105],[106],[107],[108],[109],[110],[111],[112],[113],[114],[115],[116],[117],[118],[119],[120],[121],[122],[123],[124],[125],[126],[127],[128],[129]]},{"type":"LineString","properties":{"sort_rank":355,"source":"openstreetmap.org","kind":"ferry","min_zoom":8.0,"id":200701026},"arcs":[130]},{"type":"LineString","properties":{"source":"openstreetmap.org","kind":"ferry","sort_rank":355,"landuse_kind":"urban_area","min_zoom":8.0,"id":200701026},"arcs":[131]},{"type":"MultiLineString","properties":{"source":"openstreetmap.org","kind":"ferry","name":"Marigot - Gustavia","sort_rank":355,"min_zoom":8.0,"id":361820218},"arcs":[[132],[133]]},{"type":"LineString","properties":{"source":"openstreetmap.org","kind":"ferry","name":"Oyster Pond - Gustavia","sort_rank":355,"landuse_kind":"urban_area","min_zoom":8.0,"id":361461769},"arcs":[134]},{"type":"LineString","properties":{"source":"openstreetmap.org","kind":"ferry","name":"Phillipsburg - Gustavia","sort_rank":355,"landuse_kind":"park","min_zoom":8.0,"id":361797608},"arcs":[135]},{"type":"LineString","properties":{"source":"openstreetmap.org","kind":"major_road","sort_rank":380,"kind_detail":"primary","ref":"N7","min_zoom":8.0},"arcs":[136]},{"type":"LineString","properties":{"source":"openstreetmap.org","kind":"ferry","name":"Anguilla to St Martin","sort_rank":355,"min_zoom":8.0,"id":226917897},"arcs":[137]},{"type":"MultiLineString","properties":{"source":"openstreetmap.org","kind":"ferry","name":"Phillipsburg - Gustavia","sort_rank":355,"min_zoom":8.0,"id":361797608},"arcs":[[138],[139]]},{"type":"MultiLineString","properties":{"source":"openstreetmap.org","kind":"ferry","name":"Marigot - Gustavia","sort_rank":355,"landuse_kind":"urban_area","min_zoom":8.0,"id":361820218},"arcs":[[140],[141]]},{"type":"LineString","properties":{"source":"openstreetmap.org","kind":"major_road","sort_rank":380,"kind_detail":"primary","ref":"N 7","min_zoom":8.0,"id":394660108},"arcs":[142]},{"type":"LineString","properties":{"source":"openstreetmap.org","kind":"ferry","name":"Oyster Pond - Gustavia","sort_rank":355,"min_zoom":8.0,"id":361461769},"arcs":[143]},{"type":"MultiLineString","properties":{"source":"openstreetmap.org","kind":"major_road","landuse_kind":"urban_area","sort_rank":380,"kind_detail":"primary","ref":"N7","min_zoom":8.0},"arcs":[[144],[145],[146],[147],[148],[149],[150],[151],[152],[153],[154],[155],[156],[157],[158],[159]]}]},"earth":{"type":"GeometryCollection","geometries":[{"type":"MultiPolygon","properties":{"sort_rank":10,"source":"naturalearthdata.com","min_zoom":0.0,"kind":"earth","area":868075538},"arcs":[[[160]],[[161]],[[162]]]}]},"landuse":{"type":"GeometryCollection","geometries":[{"type":"MultiPolygon","properties":{"source":"naturalearthdata.com","kind":"urban_area","name":"","area":107675965,"sort_rank":11,"min_zoom":4.0},"arcs":[[[163]]]},{"type":"MultiPolygon","properties":{"source":"openstreetmap.org","kind":"park","tier":2,"area":66896325,"sort_rank":24,"min_zoom":8.0,"osm_relation":true},"arcs":[[[164]]]}]}},"type":"Topology","transform":{"translate":[-63.28125,17.9787330956],"scale":[0.0003433228,0.0003252955]},"arcs":[[[0,4096],[4096,0],[0,-4096],[-4096,0],[0,4096]],[[941,955],[6,-21],[-11,-15],[9,-10],[28,18],[7,11],[37,11],[19,7],[-24,15],[-40,8],[-9,-16],[-22,-8]],[[899,913],[-33,2],[-68,-10],[-90,-17],[-49,-41],[-37,-55],[-53,-57],[-33,-16],[-74,-14],[-34,-12],[-23,-18],[-75,-89],[51,-1],[40,13],[67,51],[13,-15],[20,-14],[8,-13],[180,113],[77,23],[32,21],[22,30],[58,99],[1,20]],[[667,425],[-54,-21],[-24,-18],[-14,-50],[-36,-28],[-51,-13],[-87,-2],[-10,-12],[9,-17],[28,-16],[11,3],[44,15],[25,5],[0,-15],[0,-8],[-35,-24],[19,-26],[43,-22],[195,-52],[38,44],[20,23],[-1,92],[-20,91],[1,67],[-40,-1],[-61,-15]],[[327,881],[-6,1],[-4,-3],[-5,0],[0,-8],[8,-2],[9,1],[-2,11]],[[285,881],[11,4],[-14,4],[-6,2],[-10,2],[-7,-1],[8,-4],[7,-7],[11,0]],[[85,905],[47,30],[-28,1],[-23,11],[-27,-15],[4,-17],[27,-10]],[[798,905],[-90,-17],[-49,-41],[-37,-55],[-53,-57],[-33,-16],[-74,-14],[-34,-12],[-23,-18],[-75,-89],[51,-1],[40,13],[67,51],[13,-15],[20,-14],[8,-13],[180,113],[77,23],[32,21],[22,30],[58,99],[1,20],[-33,2],[-68,-10]],[[768,441],[-40,-1],[-61,-15],[-54,-21],[-24,-18],[-14,-50],[-36,-28],[-51,-13],[-87,-2],[-10,-12],[9,-17],[28,-16],[11,3],[44,15],[25,5],[0,-15],[0,-8],[-35,-24],[19,-26],[43,-22],[195,-52],[38,44],[20,23],[-1,92],[-20,91],[1,67]],[[85,905],[-27,10],[-4,17],[27,15],[23,-11],[28,-1],[-47,-30]],[[941,955],[6,-21],[-11,-15],[9,-10],[28,18],[7,11],[37,11],[19,7],[-24,15],[-40,8],[-9,-16],[-22,-8]],[[282,889],[14,-4],[-11,-4],[-11,0],[-7,7],[-8,4],[7,1],[10,-2],[6,-2]],[[312,879],[0,-8],[8,-2],[9,1],[-2,11],[-6,1],[-4,-3],[-5,0]],[[557,659],[-161,-61]],[[484,200],[-15,-10]],[[484,200],[5,3]],[[540,183],[34,-29]],[[637,697],[-55,-86],[-32,-1]],[[550,610],[-4,0]],[[557,659],[-7,-49]],[[550,610],[-2,-15]],[[598,682],[-41,-23]],[[574,154],[4,2]],[[578,156],[10,7]],[[588,164],[0,-1]],[[588,163]],[[589,164],[-1,0]],[[588,163],[1,-1]],[[592,167],[-3,-3]],[[589,164]],[[589,162],[0,1]],[[589,162],[20,-15]],[[598,682],[0,1]],[[598,683],[0,-1]],[[598,683],[1,0]],[[599,683],[-1,0]],[[599,683],[60,22]],[[609,147],[1,1]],[[610,148],[-1,-1]],[[610,149],[2,12]],[[610,149]],[[610,149]],[[660,706],[-1,-1]],[[659,705],[1,1]],[[660,706],[0,1]],[[660,707],[0,-1]],[[660,707],[7,20]],[[668,728],[-1,-1]],[[667,727],[0,1]],[[667,728],[0,1]],[[667,728]],[[667,729],[53,59]],[[667,729],[1,-1]],[[668,728],[40,-10],[76,31]],[[722,790],[-2,-2]],[[720,788],[1,2]],[[722,790],[1,0]],[[723,790],[-1,0]],[[723,790],[47,-7]],[[772,792],[-2,-9]],[[770,783],[14,-32]],[[785,751],[46,43],[-3,63],[-44,-13],[-12,-52]],[[780,833],[-8,-41]],[[784,750],[0,1]],[[784,751],[0,-1]],[[784,749],[0,1]],[[784,750],[1,1]],[[784,750],[0,-1]],[[785,751],[-1,-1]],[[469,190]],[[469,190]],[[588,163],[1,0],[0,1],[-1,0]],[[588,164],[0,-1]],[[598,683]],[[598,683]],[[611,148],[0,1],[-1,-1],[1,0]],[[660,706]],[[722,790],[-1,0],[1,0]],[[784,750]],[[511,197],[1,31],[38,17],[0,78]],[[589,297]],[[590,298]],[[590,298]],[[590,298],[21,15]],[[495,205],[-5,-1]],[[490,204],[-1,-1]],[[495,205],[0,-1]],[[495,204],[-1,0],[1,-1]],[[495,203],[0,1]],[[495,203],[0,-1]],[[495,204],[0,1]],[[495,202],[0,1]],[[537,201],[-42,1]],[[537,200],[3,-17]],[[538,201],[30,6]],[[575,271],[-8,-20]],[[567,251],[2,-1]],[[569,251],[-2,0]],[[592,167],[-23,39]],[[612,161],[19,12]],[[631,174],[0,-1]],[[634,173],[-3,1]],[[631,174],[3,-1]],[[656,157],[-22,16]],[[638,170],[15,4]],[[654,174],[-1,0]],[[653,174]],[[654,174]],[[654,174]],[[654,174],[18,20]],[[672,194],[28,34]],[[672,194],[0,-3],[0,2],[0,1]],[[700,229],[0,-1]],[[701,231],[-1,-1]],[[700,228],[1,1]],[[701,231],[0,6]],[[701,230],[0,1]],[[702,230],[-1,0]],[[701,229],[1,1]],[[702,230],[61,5]],[[538,201],[-1,0],[0,-1],[1,1]],[[569,206],[0,1],[-1,0],[0,-1],[1,0]],[[569,251]],[[569,251],[0,-1],[0,1]],[[589,297],[1,0],[-1,1],[0,-1]],[[654,174],[-1,0]],[[653,174],[1,-1],[0,1]],[[654,174]],[[701,229],[0,1],[-1,0],[0,-1],[1,0]],[[710,363],[1,0],[-1,0]],[[548,594],[1,-273]],[[549,321],[20,-44]],[[554,328],[26,37]],[[602,388],[45,48],[92,34],[48,-12],[239,-458]],[[775,235],[9,-11]],[[768,32],[-73,33]],[[611,313],[16,49],[51,4]],[[550,323],[-2,271]],[[695,65],[-29,32],[26,31]],[[841,0],[-73,32]],[[569,277],[-15,51]],[[580,365],[22,23]],[[611,313]],[[784,224],[202,-224]],[[568,207],[1,42]],[[569,251]],[[569,250],[0,-1]],[[569,251],[20,45]],[[569,251]],[[569,249],[0,1]],[[678,366],[31,-3]],[[701,237],[42,89]],[[710,363],[-1,0]],[[709,363],[1,0]],[[711,363],[0,-1]],[[711,362],[0,1]],[[711,362],[24,-23]],[[735,339],[2,-4]],[[737,335],[4,-6]],[[743,326],[-2,3]],[[787,283],[1,-92],[-20,-23],[-38,-44],[-195,52],[-43,22],[-19,26],[35,24],[0,8],[0,15],[-25,-5],[-44,-15],[-11,-3],[-28,16],[-9,17],[10,12],[87,2],[51,13],[36,28],[14,50],[24,18],[54,21],[61,15],[40,1],[-1,-67],[20,-91]],[[709,720],[-180,-113],[-8,13],[-20,14],[-13,15],[-67,-51],[-40,-13],[-51,1],[75,89],[23,18],[34,12],[74,14],[33,16],[53,57],[37,55],[49,41],[90,17],[68,10],[33,-2],[-1,-20],[-58,-99],[-22,-30],[-32,-21],[-77,-23]],[[132,935],[-47,-30],[-27,10],[-4,17],[27,15],[23,-11],[28,-1]],[[613,289],[19,-17],[60,122],[75,-25],[21,-178],[-58,-67],[-238,74],[-19,26],[35,47],[-80,-23],[-37,33],[148,27],[62,87],[12,-106]],[[768,0],[-147,0],[0,65],[147,0],[0,-65]]]}