{"objects":{"water":{"type":"GeometryCollection","geometries":[{"type":"MultiPolygon","properties":{"source":"naturalearthdata.com","kind":"ocean","area":1576712559132672,"sort_rank":200,"min_zoom":0.0,"id":1},"arcs":[[[2]],[[3]]]},{"type":"MultiLineString","properties":{"source":"naturalearthdata.com","kind":"ocean","sort_rank":205,"boundary":true,"min_zoom":0.0,"id":2596},"arcs":[[4],[5],[6]]}]},"buildings":{"type":"GeometryCollection","geometries":[]},"places":{"type":"GeometryCollection","geometries":[{"type":"Point","properties":{"name:pt":"Ilha do Pr\u00edncipe Eduardo","name:ro":"Insula Prin\u021bului Edward","name:sk":"Ostrov princa Eduarda","name:ar":"\u062c\u0632\u064a\u0631\u0629 \u0627\u0644\u0623\u0645\u064a\u0631 \u0625\u062f\u0648\u0627\u0631\u062f","name:cs":"Ostrov prince Edvarda","kind":"region","min_zoom":4.0,"alt_name:cs":"Provincie Ostrov prince Edvarda","name:it":"Isola del Principe Edoardo","name:uk":"\u041e\u0441\u0442\u0440\u0456\u0432 \u041f\u0440\u0438\u043d\u0446\u0430 \u0415\u0434\u0432\u0430\u0440\u0434\u0430","name:vi":"\u0110\u1ea3o Ho\u00e0ng t\u1eed Edward","name:ru":"\u041e\u0441\u0442\u0440\u043e\u0432 \u041f\u0440\u0438\u043d\u0446\u0430 \u042d\u0434\u0443\u0430\u0440\u0434\u0430","name:hu":"Prince Edward-sziget","id":1756225709,"population":140204,"name:eo":"Insulo de Princo Eduardo","name":"Prince Edward Island","kind_detail":"state","name:de":"Prinz-Edward-Insel","source":"openstreetmap.org","name:fr":"\u00cele-du-Prince-\u00c9douard","name:eu":"Eduardo Printzearen uhartea","name:be":"\u0412\u043e\u0441\u0442\u0440\u0430\u045e \u041f\u0440\u044b\u043d\u0446\u0430 \u042d\u0434\u0443\u0430\u0440\u0434\u0430","name:zh":"\u7231\u5fb7\u534e\u738b\u5b50\u5c9b\u7701","name:es":"Isla del Pr\u00edncipe Eduardo"},"coordinates":[392,1111]},{"type":"Point","properties":{"source":"naturalearthdata.com","kind":"locality","name":"Charlottetown","population":42402,"region_capital":true,"min_zoom":5.0,"id":7043},"coordinates":[437,746]},{"type":"Point","properties":{"kind":"locality","region_capital":true,"name":"Charlottetown","name:lt":"\u0160arlotetaunas","kind_detail":"city","name:ar":"\u0634\u0627\u0631\u0644\u0648\u062a \u062a\u0627\u0648\u0646","source":"openstreetmap.org","min_zoom":8.0,"name:uk":"\u0428\u0430\u0440\u043b\u043e\u0442\u0442\u0430\u0443\u043d","name:ru":"\u0428\u0430\u0440\u043b\u043e\u0442\u0442\u0430\u0443\u043d","id":315422127,"population":34562},"coordinates":[432,685]},{"type":"Point","properties":{"source":"openstreetmap.org","kind":"locality","name":"Stratford","kind_detail":"town","population":7383,"min_zoom":8.0,"id":470026844},"coordinates":[559,609]},{"type":"Point","properties":{"source":"openstreetmap.org","kind":"locality","name":"Souris","kind_detail":"town","population":1232,"min_zoom":8.0,"id":470026840},"coordinates":[3002,1200]},{"type":"Point","properties":{"source":"openstreetmap.org","kind":"locality","name":"Georgetown","kind_detail":"town","population":721,"min_zoom":8.0,"id":313250494},"coordinates":[2184,471]}]},"transit":{"type":"GeometryCollection","geometries":[]},"pois":{"type":"GeometryCollection","geometries":[]},"boundaries":{"type":"GeometryCollection","geometries":[{"type":"LineString","properties":{"name:pt":"Ilha do Pr\u00edncipe Eduardo","name:ro":"Insula Prin\u021bului Edward","name:nl":"Prins Edwardeiland","name:lt":"Princo Edvardo sala","name:cs":"Ostrov prince Edvarda","min_zoom":8.0,"alt_name:cs":"Provincie Ostrov prince Eduarda","name:it":"Isola del Principe Edoardo","name:vi":"\u0110\u1ea3o Ho\u00e0ng t\u1eed Edward","id":-391115,"osm_relation":true,"kind":"region","name":"Prince Edward Island","sort_rank":256,"kind_detail":"4","name:fr":"\u00cele-du-Prince-\u00c9douard","name:de":"Prinz-Edward-Insel","source":"openstreetmap.org","maritime_boundary":true,"name:ca":"Illa del Pr\u00edncep Eduard","name:es":"Isla del Pr\u00edncipe Eduardo"},"arcs":[0]},{"type":"LineString","properties":{"name:pt":"Quebec","name:ka":"\u10d9\u10d5\u10d4\u10d1\u10d4\u10d9\u10d8","name:ko":"\ud018\ubca1","name:kn":"\u0c95\u0ccd\u0cb5\u0cbf\u0cac\u0cc6\u0c95\u0ccd","name:cs":"Quebec","name:cr":"\u146f\u142f\u1483","name:tt":"\u041a\u0432\u0435\u0431\u0435\u043a","name:kw":"Kebek","name:th":"\u0e23\u0e31\u0e10\u0e04\u0e27\u0e34\u0e40\u0e1a\u0e01","name:pa":"\u0a15\u0a47\u0a2c\u0a48\u0a71\u0a15","name:os":"\u041a\u0432\u0435\u0431\u0435\u043a","name:pl":"Quebec","name:ta":"\u0b95\u0bbf\u0baf\u0bc2\u0baa\u0bc6\u0b95\u0bcd","name:ug":"Kw\u00e9b\u00e9k","name:ca":"Quebec","sort_rank":256,"name:qu":"Quebec pruwinsya","name:mr":"\u0915\u094d\u0935\u0947\u092c\u0947\u0915","source":"openstreetmap.org","osm_relation":true,"name:lv":"Kvebeka","name:lt":"Kvebekas","name:hi":"\u0915\u094d\u092f\u0942\u092c\u0947\u0915","name:kk":"\u041a\u0432\u0435\u0431\u0435\u043a","name:he":"\u05e7\u05d5\u05d5\u05d9\u05d1\u05e7","name:eo":"Kebekio","name:ur":"\u06a9\u06cc\u0648\u0628\u06cc\u06a9","name:la":"Quebecum","name:uk":"\u041a\u0432\u0435\u0431\u0435\u043a","name:hy":"\u0554\u057e\u0565\u0562\u0565\u056f","name:ht":"Keb\u00e8k","name:ln":"K\u00e9beki","name:lo":"\u0ec1\u0e82\u0ea7\u0e87\u0ec0\u0e81\u0ec1\u0e9a\u0eb1\u0e81","name:oc":"Queb\u00e8c","name:co":"Quebec","kind":"region","name:en":"Quebec","name":"Qu\u00e9bec","name:bn":"\u0995\u09bf\u0989\u09ac\u09c7\u0995","min_zoom":8.0,"name:eu":"Quebec","name:am":"\u12ac\u1260\u12ad","name:es":"Quebec","name:az":"\u0729\u071d\u0712\u0729","name:id":"Quebec","name:ms":"Quebec","name:el":"\u039a\u03b5\u03bc\u03c0\u03ad\u03ba","name:ar":"\u0643\u064a\u0628\u0643","name:io":"Kebekia","name:iu":"\u146f\u1438\u1403\u1483","name:ml":"\u0d15\u0d4d\u0d2f\u0d42\u0d2c\u0d46\u0d15\u0d4d","name:ru":"\u041a\u0432\u0435\u0431\u0435\u043a","name:mn":"\u041a\u044d\u0431\u044d\u043a","name:mi":"Quebec","id":-61549,"name:mk":"\u041a\u0432\u0435\u0431\u0435\u043a","name:af":"Quebec","name:fa":"\u06a9\u0628\u06a9","kind_detail":"4","name:uz":"Kvebek","name:fy":"Kebek","name:zh":"\u9b41\u5317\u514b","name:nl":"Quebec","name:ja":"\u30b1\u30d9\u30c3\u30af\u5dde","name:nn":"Quebec","name:br":"Kebek","name:yi":"\u05e7\u05d5\u05d5\u05d9\u05d1\u05e2\u05e7","name:jv":"Quebec","name:sk":"Quebec","name:sw":"Quebec","name:be":"\u041f\u0440\u0430\u0432\u0456\u043d\u0446\u044b\u044f \u041a\u0432\u0435\u0431\u0435\u043a","name:su":"Quebec","name:bg":"\u041a\u0432\u0435\u0431\u0435\u043a","name:sr":"\u041a\u0432\u0435\u0431\u0435\u043a","name:sq":"Kebeku","name:gd":"Quebec","name:wa":"Kebek","name:gl":"Quebec","maritime_boundary":true,"name:gu":"\u0a95\u0acd\u0ab5\u0abf\u0aac\u0ac7\u0a95","name:fi":"Quebec"},"arcs":[1]}]},"roads":{"type":"GeometryCollection","geometries":[{"type":"MultiLineString","properties":{"kind":"major_road","network":"CA:PEI","sort_rank":381,"kind_detail":"trunk","source":"openstreetmap.org","min_zoom":8.0,"shield_text":"1","ref":"1"},"arcs":[[7],[8],[9],[10],[11],[12],[13],[14],[15],[16],[17]]},{"type":"MultiLineString","properties":{"kind":"major_road","network":"CA:PEI","sort_rank":380,"kind_detail":"primary","source":"openstreetmap.org","min_zoom":8.0,"shield_text":"2","ref":"2;313"},"arcs":[[18],[19]]},{"type":"LineString","properties":{"kind":"major_road","network":"CA:PEI","sort_rank":381,"kind_detail":"trunk","source":"openstreetmap.org","min_zoom":8.0,"shield_text":"2","ref":"2"},"arcs":[20]},{"type":"MultiLineString","properties":{"kind":"major_road","network":"CA:PEI","sort_rank":381,"kind_detail":"trunk","source":"openstreetmap.org","min_zoom":8.0,"shield_text":"1","osm_relation":true},"arcs":[[21],[22],[23],[24],[25],[26],[27],[28],[29],[30],[31],[32],[33],[34],[35],[36],[37],[38],[39],[40],[41],[42],[43],[44]]},{"type":"MultiLineString","properties":{"kind":"minor_road","sort_rank":360,"kind_detail":"residential","is_bicycle_related":true,"bicycle_shield_text":"TCT","bicycle_network":"ncn","source":"openstreetmap.org","min_zoom":8.0},"arcs":[[45],[46]]},{"type":"LineString","properties":{"kind":"major_road","sort_rank":381,"kind_detail":"trunk","bus_network":null,"source":"openstreetmap.org","min_zoom":8.0,"bus_shield_text":"3","id":294385338},"arcs":[47]},{"type":"MultiLineString","properties":{"source":"openstreetmap.org","kind":"major_road","sort_rank":380,"kind_detail":"primary","ref":"5","min_zoom":8.0},"arcs":[[48],[49]]},{"type":"LineString","properties":{"kind":"major_road","sort_rank":381,"kind_detail":"trunk","bus_network":null,"source":"openstreetmap.org","min_zoom":8.0,"bus_shield_text":"QEH Collector","ref":"1","id":390628118},"arcs":[50]},{"type":"LineString","properties":{"kind":"major_road","name:en":"Route 2;Souris Bridge","network":"CA:PEI","sort_rank":380,"kind_detail":"primary","source":"openstreetmap.org","min_zoom":8.0,"shield_text":"2","ref":"2","id":200527018},"arcs":[51]},{"type":"MultiLineString","properties":{"kind":"major_road","network":"CA:PEI","sort_rank":380,"kind_detail":"primary","source":"openstreetmap.org","min_zoom":8.0,"shield_text":"2","ref":"2"},"arcs":[[52],[53],[54],[55],[56]]},{"type":"LineString","properties":{"source":"openstreetmap.org","bus_network":null,"bus_shield_text":"Stratford\/Bunbury","sort_rank":380,"kind_detail":"primary","min_zoom":8.0,"kind":"major_road"},"arcs":[57]},{"type":"LineString","properties":{"kind":"major_road","network":"CA:PEI","sort_rank":381,"kind_detail":"trunk","bus_network":null,"source":"openstreetmap.org","min_zoom":8.0,"bus_shield_text":"2","shield_text":"1","id":390143845},"arcs":[58]},{"type":"LineString","properties":{"kind":"major_road","network":"CA:PEI","sort_rank":380,"kind_detail":"primary","source":"openstreetmap.org","min_zoom":8.0,"shield_text":"7","ref":"7"},"arcs":[59]},{"type":"MultiLineString","properties":{"kind":"major_road","network":"CA:PEI","sort_rank":380,"kind_detail":"primary","source":"openstreetmap.org","min_zoom":8.0,"shield_text":"4","ref":"Rte 4"},"arcs":[[60],[61]]},{"type":"LineString","properties":{"kind":"major_road","network":"CA:PEI","sort_rank":380,"kind_detail":"primary","source":"openstreetmap.org","min_zoom":8.0,"shield_text":"4","ref":"4;316","id":208121425},"arcs":[62]},{"type":"MultiLineString","properties":{"source":"openstreetmap.org","kind":"major_road","network":"CA:PEI","sort_rank":381,"kind_detail":"trunk","min_zoom":8.0,"shield_text":"1"},"arcs":[[63],[64]]},{"type":"MultiLineString","properties":{"bus_network":null,"network":"CA:PEI","sort_rank":381,"kind_detail":"trunk","kind":"major_road","source":"openstreetmap.org","min_zoom":8.0,"bus_shield_text":"2","shield_text":"1","ref":"1"},"arcs":[[65],[66]]},{"type":"MultiLineString","properties":{"kind":"path","sort_rank":354,"kind_detail":"cycleway","is_bicycle_related":true,"bicycle_shield_text":"TCT","bicycle_network":"ncn","source":"openstreetmap.org","min_zoom":8.0},"arcs":[[67],[68],[69],[70],[71],[72],[73],[74],[75],[76],[77],[78],[79],[80],[81],[82],[83],[84],[85],[86],[87],[88],[89],[90],[91]]},{"type":"LineString","properties":{"kind":"major_road","network":"CA:PEI","sort_rank":380,"kind_detail":"primary","source":"openstreetmap.org","min_zoom":8.0,"shield_text":"3","id":178091692},"arcs":[92]},{"type":"MultiLineString","properties":{"sort_rank":381,"source":"openstreetmap.org","min_zoom":8.0,"kind":"major_road","kind_detail":"trunk"},"arcs":[[93],[94],[95],[96],[97],[98],[99],[100],[101]]},{"type":"LineString","properties":{"kind":"major_road","name:en":"St Peters Road;St. Peters Bridge","network":"CA:PEI","sort_rank":380,"kind_detail":"primary","source":"openstreetmap.org","min_zoom":8.0,"shield_text":"2","ref":"2;313","id":200520385},"arcs":[102]},{"type":"LineString","properties":{"kind":"major_road","network":"CA:PEI","sort_rank":380,"kind_detail":"primary","bus_network":null,"source":"openstreetmap.org","min_zoom":8.0,"bus_shield_text":"QEH Collector","shield_text":"2","id":394244174},"arcs":[103]},{"type":"LineString","properties":{"source":"openstreetmap.org","kind":"major_road","sort_rank":380,"kind_detail":"primary","ref":"2","min_zoom":8.0},"arcs":[104]},{"type":"MultiLineString","properties":{"kind":"major_road","network":"CA:PEI","sort_rank":380,"kind_detail":"primary","source":"openstreetmap.org","min_zoom":8.0,"shield_text":"4","ref":"4"},"arcs":[[105],[106],[107],[108],[109],[110],[111],[112],[113]]},{"type":"MultiLineString","properties":{"kind":"path","footway":"crossing","sort_rank":354,"kind_detail":"footway","is_bicycle_related":true,"bicycle_shield_text":"TCT","bicycle_network":"ncn","source":"openstreetmap.org","min_zoom":8.0},"arcs":[[114],[115]]},{"type":"MultiLineString","properties":{"kind":"major_road","network":"CA:PEI","sort_rank":380,"kind_detail":"primary","source":"openstreetmap.org","min_zoom":8.0,"shield_text":"3","ref":"3"},"arcs":[[116],[117],[118],[119],[120],[121]]},{"type":"LineString","properties":{"kind":"major_road","name:en":"Main Street;Montague Bridge","network":"CA:PEI","sort_rank":380,"kind_detail":"primary","source":"openstreetmap.org","min_zoom":8.0,"shield_text":"4","ref":"4","id":208121609},"arcs":[122]},{"type":"LineString","properties":{"kind":"major_road","sort_rank":380,"kind_detail":"primary","bus_network":null,"source":"openstreetmap.org","min_zoom":8.0,"bus_shield_text":"1","id":401428555},"arcs":[123]},{"type":"LineString","properties":{"kind":"major_road","name:en":"Morell Bridge;St Peters Road","network":"CA:PEI","sort_rank":380,"kind_detail":"primary","source":"openstreetmap.org","min_zoom":8.0,"shield_text":"2","ref":"2","id":200514316},"arcs":[124]},{"type":"LineString","properties":{"kind":"minor_road","sort_rank":358,"kind_detail":"service","is_bicycle_related":true,"bicycle_shield_text":"TCT","bicycle_network":"ncn","source":"openstreetmap.org","min_zoom":8.0},"arcs":[125]},{"type":"MultiLineString","properties":{"kind":"path","sort_rank":354,"kind_detail":"footway","is_bicycle_related":true,"bicycle_shield_text":"TCT","bicycle_network":"ncn","source":"openstreetmap.org","min_zoom":8.0},"arcs":[[126],[127]]},{"type":"MultiLineString","properties":{"sort_rank":380,"kind_detail":"primary","min_zoom":8.0,"kind":"major_road","source":"openstreetmap.org"},"arcs":[[128],[129],[130],[131],[132],[133],[134],[135],[136],[137]]},{"type":"LineString","properties":{"kind":"major_road","network":"CA:PEI","sort_rank":380,"kind_detail":"primary","source":"openstreetmap.org","min_zoom":8.0,"shield_text":"5","ref":"5;356","id":200369717},"arcs":[138]},{"type":"LineString","properties":{"source":"openstreetmap.org","kind":"major_road","sort_rank":380,"kind_detail":"primary","ref":"3","min_zoom":8.0,"id":28517519},"arcs":[139]},{"type":"MultiLineString","properties":{"kind":"major_road","network":"CA:PEI","sort_rank":381,"nat_name":"Trans-Canada Highway","source":"openstreetmap.org","min_zoom":8.0,"kind_detail":"trunk","shield_text":"1","ref":"1"},"arcs":[[140],[141],[142]]},{"type":"MultiLineString","properties":{"kind":"major_road","network":"CA:PEI","sort_rank":380,"kind_detail":"primary","source":"openstreetmap.org","min_zoom":8.0,"shield_text":"6","ref":"6"},"arcs":[[143],[144]]},{"type":"LineString","properties":{"kind":"major_road","network":"CA:PEI","sort_rank":380,"kind_detail":"primary","source":"openstreetmap.org","min_zoom":8.0,"shield_text":"4","ref":"4;326","id":208121854},"arcs":[145]},{"type":"LineString","properties":{"kind":"major_road","network":"CA:PEI","sort_rank":381,"kind_detail":"trunk","source":"openstreetmap.org","min_zoom":8.0,"shield_text":"1","ref":"1;2"},"arcs":[146]},{"type":"LineString","properties":{"bus_network":null,"network":"CA:PEI","sort_rank":381,"kind_detail":"trunk","kind":"major_road","source":"openstreetmap.org","min_zoom":8.0,"bus_shield_text":"3","shield_text":"1"},"arcs":[147]},{"type":"LineString","properties":{"kind":"major_road","sort_rank":380,"kind_detail":"primary","is_bicycle_related":true,"bus_network":null,"cycleway":"lane","source":"openstreetmap.org","min_zoom":8.0,"bus_shield_text":"QEH Collector","id":393898873},"arcs":[148]},{"type":"MultiLineString","properties":{"bus_network":null,"network":"CA:PEI","sort_rank":381,"kind_detail":"trunk","kind":"major_road","source":"openstreetmap.org","min_zoom":8.0,"bus_shield_text":"Stratford\/Bunbury","shield_text":"1","ref":"1"},"arcs":[[149],[150]]},{"type":"MultiLineString","properties":{"source":"openstreetmap.org","bus_network":null,"bus_shield_text":"2","sort_rank":381,"kind_detail":"trunk","min_zoom":8.0,"kind":"major_road"},"arcs":[[151],[152]]},{"type":"LineString","properties":{"kind":"major_road","name:en":"Main Street;Souris Bridge","network":"CA:PEI","sort_rank":380,"kind_detail":"primary","source":"openstreetmap.org","min_zoom":8.0,"shield_text":"2","ref":"2","id":200526982},"arcs":[153]},{"type":"LineString","properties":{"kind":"major_road","network":"CA:PEI","sort_rank":381,"kind_detail":"trunk","source":"openstreetmap.org","min_zoom":8.0,"shield_text":"2","ref":"1","id":370810315},"arcs":[154]},{"type":"MultiLineString","properties":{"bus_network":null,"network":"CA:PEI","sort_rank":381,"nat_name":"Trans-Canada Highway","kind":"major_road","source":"openstreetmap.org","min_zoom":8.0,"bus_shield_text":"QEH Collector","shield_text":"1","kind_detail":"trunk","ref":"1"},"arcs":[[155],[156],[157]]},{"type":"MultiLineString","properties":{"bus_network":null,"sort_rank":380,"kind_detail":"primary","is_bicycle_related":true,"kind":"major_road","cycleway":"lane","source":"openstreetmap.org","min_zoom":8.0,"bus_shield_text":"1"},"arcs":[[158],[159],[160],[161]]},{"type":"LineString","properties":{"kind":"major_road","name:en":"Oyster Bed Bridge;Route 6","network":"CA:PEI","sort_rank":380,"kind_detail":"primary","source":"openstreetmap.org","min_zoom":8.0,"shield_text":"6","ref":"6","id":164410816},"arcs":[162]},{"type":"LineString","properties":{"bus_network":null,"sort_rank":380,"kind_detail":"primary","is_bicycle_related":true,"kind":"major_road","cycleway":"lane","source":"openstreetmap.org","min_zoom":8.0,"bus_shield_text":"North Collector"},"arcs":[163]},{"type":"MultiLineString","properties":{"bus_network":null,"network":"CA:PEI","sort_rank":381,"kind_detail":"trunk","kind":"major_road","source":"openstreetmap.org","min_zoom":8.0,"bus_shield_text":"QEH Collector","shield_text":"1","ref":"1"},"arcs":[[164],[165]]},{"type":"MultiLineString","properties":{"kind":"major_road","network":"CA:PEI","sort_rank":380,"kind_detail":"primary","source":"openstreetmap.org","min_zoom":8.0,"shield_text":"5","ref":"5"},"arcs":[[166],[167],[168]]},{"type":"LineString","properties":{"kind":"major_road","name:en":"Midgell Bridge;St Peters Road","network":"CA:PEI","sort_rank":380,"kind_detail":"primary","source":"openstreetmap.org","min_zoom":8.0,"shield_text":"2","ref":"2","id":200514311},"arcs":[169]},{"type":"MultiLineString","properties":{"source":"openstreetmap.org","bus_network":null,"bus_shield_text":"North Collector","sort_rank":380,"kind_detail":"primary","min_zoom":8.0,"kind":"major_road"},"arcs":[[170],[171],[172]]},{"type":"MultiLineString","properties":{"kind":"path","sort_rank":354,"kind_detail":"path","is_bicycle_related":true,"bicycle_shield_text":"TCT","bicycle_network":"ncn","source":"openstreetmap.org","min_zoom":8.0},"arcs":[[173],[174],[175],[176]]},{"type":"MultiLineString","properties":{"source":"openstreetmap.org","kind":"major_road","sort_rank":381,"kind_detail":"trunk","ref":"1","min_zoom":8.0},"arcs":[[177],[178],[179],[180],[181],[182],[183]]},{"type":"LineString","properties":{"kind":"major_road","sort_rank":380,"kind_detail":"primary","bus_network":null,"source":"openstreetmap.org","min_zoom":8.0,"bus_shield_text":"2","id":334308263},"arcs":[184]},{"type":"LineString","properties":{"sort_rank":355,"source":"openstreetmap.org","min_zoom":8.0,"kind":"ferry","name":"\u00cele-du-Prince-\u00c9douard - \u00celes de la Madeleine"},"arcs":[185]},{"type":"LineString","properties":{"bus_network":null,"network":"CA:PEI","sort_rank":380,"kind_detail":"primary","kind":"major_road","source":"openstreetmap.org","min_zoom":8.0,"bus_shield_text":"QEH Collector","shield_text":"2","ref":"2"},"arcs":[186]},{"type":"LineString","properties":{"source":"openstreetmap.org","bus_network":null,"bus_shield_text":"QEH Collector","sort_rank":380,"kind_detail":"primary","min_zoom":8.0,"kind":"major_road"},"arcs":[187]},{"type":"LineString","properties":{"bus_network":null,"network":"CA:PEI","sort_rank":381,"kind_detail":"trunk","kind":"major_road","source":"openstreetmap.org","min_zoom":8.0,"bus_shield_text":"North Collector","shield_text":"2","ref":"2"},"arcs":[188]}]},"earth":{"type":"GeometryCollection","geometries":[{"type":"MultiPolygon","properties":{"sort_rank":10,"source":"naturalearthdata.com","min_zoom":0.0,"kind":"earth","area":48618324729},"arcs":[[[189]]]}]},"landuse":{"type":"GeometryCollection","geometries":[]}},"type":"Topology","transform":{"translate":[-63.28125,46.0732306254],"scale":[0.0003433228,0.0002360721]},"arcs":[[[2571,0],[7,230],[81,227],[74,519],[-11,141],[182,-21],[300,61],[55,71],[89,14],[422,291],[64,66],[-24,52],[-559,98],[-637,-97],[-310,43],[-422,-40],[-287,-86],[-383,-27],[-209,16],[-406,-73],[-164,49],[-291,14],[-104,54],[-38,49]],[[1524,4096],[1334,-848],[1238,0]],[[4096,4096],[0,-4096],[-1715,0],[18,28],[5,3],[8,115],[-32,116],[-65,74],[-90,-14],[78,-33],[29,-27],[14,-58],[-47,18],[-145,11],[-5,22],[4,52],[11,59],[21,43],[-46,23],[-117,9],[-57,26],[47,26],[25,5],[29,-2],[0,29],[-31,-2],[-21,7],[-15,19],[-12,34],[76,-15],[141,-87],[81,-14],[-47,77],[-89,56],[-123,54],[27,48],[62,-20],[120,-70],[139,-12],[84,6],[47,32],[-7,90],[-68,59],[-145,56],[74,35],[236,-61],[72,23],[-6,55],[-96,122],[47,-32],[50,2],[104,30],[-42,46],[-6,91],[-34,36],[0,29],[59,-7],[95,-62],[45,-15],[52,16],[8,39],[-38,119],[97,-94],[31,-38],[36,-22],[44,7],[136,46],[392,239],[110,108],[47,33],[1,28],[-79,40],[-277,83],[-250,14],[-232,-56],[-270,23],[-465,-15],[-73,-17],[-69,-4],[-58,32],[-76,-45],[-182,-14],[-82,-30],[73,-41],[267,-43],[0,-32],[-521,81],[-160,-49],[21,-32],[-34,-63],[-28,19],[-24,48],[-23,28],[-301,-57],[-373,-13],[-331,43],[-23,-5],[-20,-16],[-9,-18],[-5,-17],[-6,-10],[-36,-24],[-27,-10],[-20,21],[-16,74],[-20,-29],[-18,12],[-49,57],[-3,2],[0,2543],[4096,0]],[[844,0],[-844,0],[0,310],[70,-19],[69,15],[74,84],[89,28],[88,49],[16,63],[-17,34],[-80,48],[-41,-95],[-75,-18],[-163,26],[0,31],[110,0],[27,13],[47,56],[25,13],[71,16],[3,45],[-64,144],[99,-55],[62,-77],[18,-13],[40,27],[69,120],[42,27],[37,18],[76,77],[93,30],[89,46],[53,2],[-51,-61],[-168,-80],[-15,-20],[-1,-24],[1,-24],[-5,-19],[-12,-4],[-35,7],[-12,-3],[-6,-18],[1,-23],[-3,-24],[-14,-22],[-14,-8],[-29,-11],[-17,-13],[-54,-59],[-14,-35],[31,-24],[151,-56],[85,-46],[81,-29],[62,18],[-15,11],[-6,11],[-5,14],[-14,22],[40,31],[84,-47],[34,-26],[21,-45],[-69,-43],[-13,-92],[25,-71],[47,17],[50,66],[56,42],[50,-8],[35,-84],[-61,-26],[-89,-120],[-95,-42],[-68,-61],[-38,-14],[-14,-2]],[[3720,1656],[-277,83],[-250,14],[-232,-56],[-270,23],[-465,-15],[-73,-17],[-69,-4],[-58,32],[-76,-45],[-182,-14],[-82,-30],[73,-41],[267,-43],[0,-32],[-521,81],[-160,-49],[21,-32],[-34,-63],[-28,19],[-24,48],[-23,28],[-301,-57],[-373,-13],[-331,43],[-23,-5],[-20,-16],[-9,-18],[-5,-17],[-6,-10],[-36,-24],[-27,-10],[-20,21],[-16,74],[-20,-29],[-18,12],[-49,57],[-3,2]],[[0,310],[70,-19],[69,15],[74,84],[89,28],[88,49],[16,63],[-17,34],[-80,48],[-41,-95],[-75,-18],[-163,26],[0,31],[110,0],[27,13],[47,56],[25,13],[71,16],[3,45],[-64,144],[99,-55],[62,-77],[18,-13],[40,27],[69,120],[42,27],[37,18],[76,77],[93,30],[89,46],[53,2],[-51,-61],[-168,-80],[-15,-20],[-1,-24],[1,-24],[-5,-19],[-12,-4],[-35,7],[-12,-3],[-6,-18],[1,-23],[-3,-24],[-14,-22],[-14,-8],[-29,-11],[-17,-13],[-54,-59],[-14,-35],[31,-24],[151,-56],[85,-46],[81,-29],[62,18],[-15,11],[-6,11],[-5,14],[-14,22],[40,31],[84,-47],[34,-26],[21,-45],[-69,-43],[-13,-92],[25,-71],[47,17],[50,66],[56,42],[50,-8],[35,-84],[-61,-26],[-89,-120],[-95,-42],[-68,-61],[-38,-14],[-14,-2]],[[2381,0],[18,28],[5,3],[8,115],[-32,116],[-65,74],[-90,-14],[78,-33],[29,-27],[14,-58],[-47,18],[-145,11],[-5,22],[4,52],[11,59],[21,43],[-46,23],[-117,9],[-57,26],[47,26],[25,5],[29,-2],[0,29],[-31,-2],[-21,7],[-15,19],[-12,34],[76,-15],[141,-87],[81,-14],[-47,77],[-89,56],[-123,54],[27,48],[62,-20],[120,-70],[139,-12],[84,6],[47,32],[-7,90],[-68,59],[-145,56],[74,35],[236,-61],[72,23],[-6,55],[-96,122],[47,-32],[50,2],[104,30],[-42,46],[-6,91],[-34,36],[0,29],[59,-7],[95,-62],[45,-15],[52,16],[8,39],[-38,119],[97,-94],[31,-38],[36,-22],[44,7],[136,46],[392,239],[110,108],[47,33],[1,28],[-79,40]],[[0,616],[174,36]],[[186,656],[-12,-4]],[[186,656],[67,108]],[[253,764],[2,5]],[[254,770],[-1,-6]],[[321,795],[-20,-8],[-40,-13],[-5,-3]],[[256,770],[5,4]],[[310,837],[64,10]],[[321,811],[-8,16]],[[526,673],[42,-43]],[[593,612],[211,-8],[104,26],[131,-199],[124,3],[115,-53],[14,-44],[-84,-180],[-136,-105],[3,-52]],[[2037,1460],[3,-10]],[[2040,1449],[0,-1]],[[299,938],[-299,128]],[[174,652],[-174,-37]],[[186,656],[-12,-4]],[[186,656],[67,108]],[[253,764],[6,3]],[[254,770],[-1,-6]],[[311,831],[13,-33],[-69,-26]],[[256,770],[5,4]],[[311,831],[4,8]],[[516,768],[13,24],[-50,49],[-164,-2]],[[490,725],[4,14]],[[492,739],[-2,-14]],[[490,725],[42,-68],[70,-51],[202,-2],[110,25],[127,-199],[112,17],[128,-69],[12,-50],[-28,-19],[-40,-126],[-81,-95],[-72,-36],[10,-52]],[[493,740],[-1,-1]],[[492,739],[2,0]],[[500,752],[-7,-12]],[[494,740],[-1,0]],[[494,739],[0,1]],[[494,740],[6,11]],[[500,753],[0,-1]],[[500,752],[0,-1]],[[516,768],[-16,-15]],[[501,752],[-1,1]],[[500,751],[1,1]],[[501,752],[15,16]],[[581,635]],[[581,635],[1,0]],[[308,840],[1,-4]],[[1598,774],[-2,0]],[[1599,773],[1,1]],[[488,826],[1,-2]],[[2925,1200],[-4,1]],[[521,867],[204,193],[161,57],[47,59],[102,-7],[109,35],[70,100],[56,11],[167,112],[259,25]],[[1907,1447],[-104,-43],[-106,47]],[[2040,1448],[-131,-1]],[[2921,1201],[-276,6],[-47,-31],[-171,36],[-151,147],[-124,78],[-115,23]],[[2926,1200],[112,-16]],[[451,687],[36,25]],[[310,837],[-1,0]],[[129,1335],[62,-207],[10,-158]],[[1831,581],[2,-1]],[[1833,583],[-1,0]],[[1888,229],[1,-1]],[[309,837],[0,-1]],[[313,837],[2,2]],[[313,827],[-2,6]],[[321,811],[0,-16]],[[0,964],[36,-22],[123,41],[90,-72],[50,23],[4,0],[4,1],[60,14]],[[367,949],[9,3],[54,14],[57,75],[187,-7],[55,65],[67,30],[158,43],[89,-10],[73,38],[50,-17],[28,54]],[[459,729],[-55,123],[6,33],[-43,62],[0,2]],[[367,949],[-3,10]],[[473,720],[-14,9]],[[472,708],[1,12]],[[708,659],[125,-50],[142,50],[176,-6]],[[1152,653],[14,2]],[[1166,655],[129,-22],[11,-64],[37,-16],[3,-41],[47,-58],[-30,-73],[42,-54],[7,-107],[-52,-122],[-10,-85],[3,-13]],[[1984,615],[-10,5]],[[1974,620],[-146,88],[-115,-30],[-63,95],[-36,9],[-29,101],[-336,221],[-27,38],[-4,101],[-24,-6]],[[1194,1237],[3,8]],[[1197,1245],[19,53],[84,2],[256,127],[221,71],[59,-48],[26,26],[322,-54],[156,66],[132,-1],[194,-88],[123,41],[209,-32]],[[1196,1246],[1,-1]],[[1197,1245],[6,-2]],[[1852,393],[66,38],[-65,109],[121,74]],[[1974,614],[10,1]],[[1975,627],[-1,-7]],[[1974,620],[0,-6]],[[1984,615],[36,-34],[79,-18],[63,-103]],[[2995,1404],[-1,1]],[[2994,1405],[-3,2]],[[2998,1408],[169,15],[107,64],[59,2],[23,39],[187,27]],[[3014,1165],[-31,44],[18,91],[-46,28],[-9,37],[48,40]],[[2994,1405],[4,3]],[[1832,583],[-1,-2],[2,-1],[1,2],[-2,1]],[[309,836],[-3,-1]],[[307,835],[2,0]],[[309,835],[1,0]],[[310,836],[3,1]],[[487,713]],[[487,712],[0,1]],[[487,713],[2,9]],[[491,710],[-4,3]],[[255,769],[1,0],[0,2],[-2,0],[1,-2]],[[2040,1450],[0,-1]],[[487,828],[1,0]],[[2717,1206],[3,0]],[[1831,579],[13,-194]],[[1833,584],[35,157],[408,318],[151,153]],[[1845,384],[14,-30]],[[1859,354],[1,-2]],[[1860,352],[-1,2]],[[1860,351],[1,-3]],[[1861,348],[-1,3]],[[1861,348],[27,-119]],[[1889,228],[59,-228]],[[459,729]],[[473,720]],[[1829,582],[-441,15],[-373,-110]],[[1832,583],[-3,-1]],[[1829,582],[2,-1]],[[1833,580],[3,1]],[[1836,581],[-2,1]],[[2183,451],[-14,49],[-181,103],[-152,-22]],[[1844,385],[1,-1]],[[398,794],[-6,14]],[[1697,1451],[-1,1]],[[526,657],[-3,3]],[[1151,653],[1,0]],[[1166,655]],[[325,798],[-4,-3]],[[336,802],[-11,-4]],[[325,798],[1,-1]],[[327,797],[9,5]],[[359,810],[-23,-8]],[[366,811],[20,9]],[[386,821],[-13,-7]],[[392,808],[-1,3]],[[487,713],[-6,0]],[[1598,773],[1,0],[0,1],[-1,0],[0,-1]],[[1714,779],[2,-2]],[[1018,486],[-1,-1]],[[492,739],[2,0]],[[494,740],[-1,0]],[[501,752],[-1,1]],[[83,1393],[-83,54]],[[129,1335],[-16,50],[-29,7]],[[1859,352],[1,-1],[1,1],[-1,0],[-1,0]],[[488,828],[-49,27],[-65,-8]],[[309,836],[2,-5]],[[441,697],[4,-3]],[[487,712],[39,-39]],[[568,630],[25,-18]],[[309,837],[-1,3]],[[311,833],[-1,4]],[[2925,1200],[1,0]],[[466,845],[21,-17]],[[500,751],[16,17],[-16,-16]],[[500,752],[-7,-12],[-3,-15],[10,26]],[[500,752],[0,-1]],[[391,810],[8,-18]],[[399,792],[7,-15]],[[406,777],[35,-80]],[[445,694],[6,-7]],[[84,1392],[-1,1]],[[386,821],[5,-11]],[[490,725],[-3,-13]],[[516,768],[14,20],[-42,40]],[[908,630],[252,95],[107,21],[43,-25],[288,52]],[[1599,774],[115,5]],[[1716,777],[150,-83]],[[1909,1447],[-2,0]],[[374,847],[7,-15]],[[381,832],[5,-11]],[[391,811],[-10,21]],[[526,674],[-3,-14]],[[526,658],[55,-23]],[[582,635],[4,1]],[[593,615],[52,2]],[[261,774],[34,10]],[[295,785],[0,-1]],[[295,784],[1,0]],[[296,784],[0,1]],[[296,784],[28,17]],[[325,800],[1,-2]],[[487,828],[1,-2]],[[373,814],[-14,-4]],[[4096,2592],[-205,-1260],[-869,-231],[-18,45]],[[488,828],[33,39]],[[441,697],[46,131]],[[374,847],[-75,91]],[[0,310],[0,1243],[3,-2],[49,-57],[18,-12],[20,29],[16,-74],[20,-21],[27,10],[36,24],[6,10],[5,17],[9,18],[20,16],[23,5],[331,-43],[373,13],[301,57],[23,-28],[24,-48],[28,-19],[34,63],[-21,32],[160,49],[521,-81],[0,32],[-267,43],[-73,41],[82,30],[182,14],[76,45],[58,-32],[69,4],[73,17],[465,15],[270,-23],[232,56],[250,-14],[277,-83],[79,-40],[-1,-28],[-47,-33],[-110,-108],[-392,-239],[-136,-46],[-44,-7],[-36,22],[-31,38],[-97,94],[38,-119],[-8,-39],[-52,-16],[-45,15],[-95,62],[-59,7],[0,-29],[34,-36],[6,-91],[42,-46],[-104,-30],[-50,-2],[-47,32],[96,-122],[6,-55],[-72,-23],[-236,61],[-74,-35],[145,-56],[68,-59],[7,-90],[-47,-32],[-84,-6],[-139,12],[-120,70],[-62,20],[-27,-48],[123,-54],[89,-56],[47,-77],[-81,14],[-141,87],[-76,15],[12,-34],[15,-19],[21,-7],[31,2],[0,-29],[-29,2],[-25,-5],[-47,-26],[57,-26],[117,-9],[46,-23],[-21,-43],[-11,-59],[-4,-52],[5,-22],[145,-11],[47,-18],[-14,58],[-29,27],[-78,33],[90,14],[65,-74],[32,-116],[-8,-115],[-5,-3],[-18,-28],[-1537,0],[14,2],[38,14],[68,61],[95,42],[89,120],[61,26],[-35,84],[-50,8],[-56,-42],[-50,-66],[-47,-17],[-25,71],[13,92],[69,43],[-21,45],[-34,26],[-84,47],[-40,-31],[14,-22],[5,-14],[6,-11],[15,-11],[-62,-18],[-81,29],[-85,46],[-151,56],[-31,24],[14,35],[54,59],[17,13],[29,11],[14,8],[14,22],[3,24],[-1,23],[6,18],[12,3],[35,-7],[12,4],[5,19],[-1,24],[1,24],[15,20],[168,80],[51,61],[-53,-2],[-89,-46],[-93,-30],[-76,-77],[-37,-18],[-42,-27],[-69,-120],[-40,-27],[-18,13],[-62,77],[-99,55],[64,-144],[-3,-45],[-71,-16],[-25,-13],[-47,-56],[-27,-13],[-110,0],[0,-31],[163,-26],[75,18],[41,95],[80,-48],[17,-34],[-16,-63],[-88,-49],[-89,-28],[-74,-84],[-69,-15],[-70,19]]]}