{"objects":{"water":{"type":"GeometryCollection","geometries":[{"type":"MultiPolygon","properties":{"source":"naturalearthdata.com","kind":"ocean","area":1576712559132672,"sort_rank":200,"min_zoom":0.0,"id":1},"arcs":[[[6],[7]]]},{"type":"MultiLineString","properties":{"source":"naturalearthdata.com","kind":"ocean","sort_rank":205,"boundary":true,"min_zoom":0.0,"id":67},"arcs":[[8],[9]]},{"type":"LineString","properties":{"source":"naturalearthdata.com","kind":"ocean","sort_rank":205,"boundary":true,"min_zoom":0.0,"id":2596},"arcs":[10]},{"type":"LineString","properties":{"source":"naturalearthdata.com","kind":"ocean","sort_rank":205,"boundary":true,"min_zoom":0.0,"id":3965},"arcs":[11]}]},"buildings":{"type":"GeometryCollection","geometries":[]},"places":{"type":"GeometryCollection","geometries":[{"type":"Point","properties":{"name:pt":"Nova Esc\u00f3cia","name:ro":"Noua Sco\u021bie","name:sk":"Nov\u00e9 \u0160k\u00f3tsko","name:ar":"\u0646\u0648\u0641\u0627 \u0633\u0643\u0648\u062a\u064a\u0627","kind":"region","min_zoom":4.0,"name:it":"Nuova Scozia","name:uk":"\u041d\u043e\u0432\u0430 \u0428\u043e\u0442\u043b\u0430\u043d\u0434\u0456\u044f","name:be":"\u041d\u043e\u0432\u0430\u044f \u0428\u0430\u0442\u043b\u0430\u043d\u0434\u044b\u044f","name:ru":"\u041d\u043e\u0432\u0430\u044f \u0428\u043e\u0442\u043b\u0430\u043d\u0434\u0438\u044f","name:hu":"\u00daj-Sk\u00f3cia","id":305700704,"population":921727,"name:eo":"Nov-Skotio","name":"Nova Scotia","kind_detail":"state","name:de":"Neuschottland","source":"openstreetmap.org","name:fr":"Nouvelle-\u00c9cosse","name:zh":"\u65b0\u65af\u79d1\u820d\u7701","name:es":"Nueva Escocia"},"coordinates":[336,443]},{"type":"Point","properties":{"source":"naturalearthdata.com","kind":"locality","name":"Antigonish","population":6739,"min_zoom":7.0,"id":4338},"coordinates":[3737,2239]}]},"transit":{"type":"GeometryCollection","geometries":[{"type":"LineString","properties":{"kind":"train","name":"The Ocean","sort_rank":275,"colour":"#3098FC","description":"Halifax - Montreal","name:fr":"L'Oc\u00e9an","source":"openstreetmap.org","min_zoom":6.0,"operator":"VIA Rail Canada","ref":"The Ocean","osm_relation":true,"colour_name":"dodgerblue"},"arcs":[5]}]},"pois":{"type":"GeometryCollection","geometries":[]},"boundaries":{"type":"GeometryCollection","geometries":[{"type":"LineString","properties":{"name:right:hy":"\u0546\u0578\u0580 \u0547\u0578\u057f\u056c\u0561\u0576\u0564\u056b\u0561","name:right:qu":"Nova Scotia pruwinsya","name:right:ug":"Nowa Skotiye \u00d6lkisi","name:right:yi":"\u05e0\u05d0\u05d5\u05d5\u05e2 \u05e1\u05e7\u05d0\u05e9\u05e2","name:right:uk":"\u041d\u043e\u0432\u0430 \u0428\u043e\u0442\u043b\u0430\u043d\u0434\u0456\u044f","name:right:hr":"Nova \u0160kotska","name:right:hu":"\u00daj-Sk\u00f3cia","name:right:lt":"Naujoji \u0160kotija","name:right:ur":"\u0646\u0648\u0648\u0627 \u0633\u06a9\u0648\u0634\u06cc\u0627","min_zoom":8.0,"name:left:lt":"Princo Edvardo sala","name:right:uz":"Yangi Shotlandiya","name:right:he":"\u05e0\u05d5\u05d1\u05d4 \u05e1\u05e7\u05d5\u05d8\u05d9\u05d4","sort_rank":256,"name:left:ca":"Illa del Pr\u00edncep Eduard","name:right:sk":"Nov\u00e9 \u0160k\u00f3tsko","source":"openstreetmap.org","name:right:ar":"\u0646\u0648\u0641\u0627 \u0633\u0643\u0648\u0634\u0627","name:left:vi":"\u0110\u1ea3o Ho\u00e0ng t\u1eed Edward","name:right:az":"Yeni \u015eotlandiya","name:left:cs":"Ostrov prince Edvarda","name:left":"Prince Edward Island","name:right:mk":"\u041d\u043e\u0432\u0430 \u0428\u043a\u043e\u0442\u0441\u043a\u0430","name:right:mn":"\u041d\u043e\u0432\u0430 \u0421\u043a\u043e\u0448\u0430","name:right:eu":"Eskozia Berria","name:right:it":"Nuova Scozia","name:left:ro":"Insula Prin\u021bului Edward","name:right:ru":"\u041d\u043e\u0432\u0430\u044f \u0428\u043e\u0442\u043b\u0430\u043d\u0434\u0438\u044f","name:right:io":"Nova Skotia","name:right:ro":"Noua Sco\u021bie","name:right:mr":"\u0928\u094b\u0935\u094d\u0939\u093e \u0938\u094d\u0915\u0949\u0936\u093f\u092f\u093e","id:right":-390558,"name:right:eo":"Nov-Skotio","name:right:el":"\u039d\u03ad\u03b1 \u03a3\u03ba\u03c9\u03c4\u03af\u03b1","kind":"region","name":"Prince Edward Island - Nova Scotia","name:right:lv":"Jaunskotija","alt_name:left:cs":"Provincie Ostrov prince Eduarda","name:right:be":"\u041f\u0440\u0430\u0432\u0456\u043d\u0446\u044b\u044f \u041d\u043e\u0432\u0430\u044f \u0428\u0430\u0442\u043b\u0430\u043d\u0434\u044b\u044f","name:left:fr":"\u00cele-du-Prince-\u00c9douard","name:right:br":"Skos Nevez","name:right:bs":"Nova \u0160kotska","name:right:zh":"\u65b0\u65af\u79d1\u820d\u7701","osm_relation":true,"name:right:es":"Nueva Escocia","name:right:ja":"\u30ce\u30d0\u30b9\u30b3\u30b7\u30a2\u5dde","name:right:fr":"Nouvelle-\u00c9cosse","name:right:sq":"Skocia e Re","name:right:sr":"\u041d\u043e\u0432\u0430 \u0428\u043a\u043e\u0442\u0441\u043a\u0430","name:right:fy":"Nij-Skotl\u00e2n","name:left:nl":"Prins Edwardeiland","name:right:sl":"Nova \u0160kotska","name:right:fa":"\u0646\u0648\u0627 \u0627\u0633\u06a9\u0648\u0634\u06cc\u0627","id":-391115,"name:right":"Nova Scotia","name:right:ca":"Nova Esc\u00f2cia","kind_detail":"4","id:left":-391115,"name:left:es":"Isla del Pr\u00edncipe Eduardo","name:right:cs":"Nov\u00e9 Skotsko","name:right:ka":"\u10d0\u10ee\u10d0\u10da\u10d8 \u10e8\u10dd\u10e2\u10da\u10d0\u10dc\u10d3\u10d8\u10d0","name:right:gv":"Nalbin Noa","name:right:pt":"Nova Esc\u00f3cia","name:right:oc":"N\u00f2va Esc\u00f2cia","name:right:bg":"\u041d\u043e\u0432\u0430 \u0421\u043a\u043e\u0442\u0438\u044f","name:left:pt":"Ilha do Pr\u00edncipe Eduardo","name:right:pa":"\u0a28\u0a4b\u0a35\u0a3e \u0a38\u0a15\u0a4b\u0a38\u0a3c\u0a3e","name:right:ga":"Albain Nua","name:right:ko":"\ub178\ubc14\uc2a4\ucf54\uc0e4 \uc8fc","name:right:kw":"Alban Nowydh","name:right:gl":"Nova Escocia","name:left:it":"Isola del Principe Edoardo","name:right:pl":"Nowa Szkocja","name:right:ta":"\u0ba8\u0bcb\u0bb5\u0bbe \u0bb8\u0bcd\u0b95\u0bcb\u0b9a\u0bbf\u0baf\u0bbe","name:right:os":"\u041d\u043e\u0433 \u0428\u043e\u0442\u043b\u0430\u043d\u0434\u0438","name:right:gd":"Alba Nuadh","name:right:tr":"Yeni \u0130sko\u00e7ya","name:right:de":"Neuschottland","name:left:de":"Prinz-Edward-Insel","name:right:th":"\u0e23\u0e31\u0e10\u0e42\u0e19\u0e27\u0e32\u0e2a\u0e42\u0e01\u0e40\u0e0a\u0e35\u0e22"},"arcs":[0]},{"type":"LineString","properties":{"name:pt":"Ilha do Pr\u00edncipe Eduardo","name:ro":"Insula Prin\u021bului Edward","name:nl":"Prins Edwardeiland","name:lt":"Princo Edvardo sala","name:cs":"Ostrov prince Edvarda","min_zoom":8.0,"alt_name:cs":"Provincie Ostrov prince Eduarda","name:it":"Isola del Principe Edoardo","name:vi":"\u0110\u1ea3o Ho\u00e0ng t\u1eed Edward","id":-391115,"osm_relation":true,"kind":"region","name":"Prince Edward Island","sort_rank":256,"kind_detail":"4","name:de":"Prinz-Edward-Insel","source":"openstreetmap.org","name:fr":"\u00cele-du-Prince-\u00c9douard","name:ca":"Illa del Pr\u00edncep Eduard","name:es":"Isla del Pr\u00edncipe Eduardo"},"arcs":[1]},{"type":"LineString","properties":{"name:pt":"Ilha do Pr\u00edncipe Eduardo","name:ro":"Insula Prin\u021bului Edward","name:nl":"Prins Edwardeiland","name:lt":"Princo Edvardo sala","name:cs":"Ostrov prince Edvarda","min_zoom":8.0,"alt_name:cs":"Provincie Ostrov prince Eduarda","name:it":"Isola del Principe Edoardo","name:vi":"\u0110\u1ea3o Ho\u00e0ng t\u1eed Edward","id":-391115,"osm_relation":true,"kind":"region","name":"Prince Edward Island","sort_rank":256,"kind_detail":"4","name:fr":"\u00cele-du-Prince-\u00c9douard","name:de":"Prinz-Edward-Insel","source":"openstreetmap.org","maritime_boundary":true,"name:ca":"Illa del Pr\u00edncep Eduard","name:es":"Isla del Pr\u00edncipe Eduardo"},"arcs":[2]},{"type":"LineString","properties":{"name:pt":"Nova Esc\u00f3cia","name:ka":"\u10d0\u10ee\u10d0\u10da\u10d8 \u10e8\u10dd\u10e2\u10da\u10d0\u10dc\u10d3\u10d8\u10d0","name:ko":"\ub178\ubc14\uc2a4\ucf54\uc0e4 \uc8fc","name:cs":"Nov\u00e9 Skotsko","name:kw":"Alban Nowydh","min_zoom":8.0,"name:ro":"Noua Sco\u021bie","name:pa":"\u0a28\u0a4b\u0a35\u0a3e \u0a38\u0a15\u0a4b\u0a38\u0a3c\u0a3e","name:os":"\u041d\u043e\u0433 \u0428\u043e\u0442\u043b\u0430\u043d\u0434\u0438","name:pl":"Nowa Szkocja","name:ta":"\u0ba8\u0bcb\u0bb5\u0bbe \u0bb8\u0bcd\u0b95\u0bcb\u0b9a\u0bbf\u0baf\u0bbe","name:ca":"Nova Esc\u00f2cia","sort_rank":256,"name:hr":"Nova \u0160kotska","name:de":"Neuschottland","source":"openstreetmap.org","name:sq":"Skocia e Re","name:lv":"Jaunskotija","name:tr":"Yeni \u0130sko\u00e7ya","name:uz":"Yangi Shotlandiya","name:he":"\u05e0\u05d5\u05d1\u05d4 \u05e1\u05e7\u05d5\u05d8\u05d9\u05d4","kind":"region","name:ur":"\u0646\u0648\u0648\u0627 \u0633\u06a9\u0648\u0634\u06cc\u0627","name:uk":"\u041d\u043e\u0432\u0430 \u0428\u043e\u0442\u043b\u0430\u043d\u0434\u0456\u044f","name:hy":"\u0546\u0578\u0580 \u0547\u0578\u057f\u056c\u0561\u0576\u0564\u056b\u0561","name:ug":"Nowa Skotiye \u00d6lkisi","name:hu":"\u00daj-Sk\u00f3cia","name:qu":"Nova Scotia pruwinsya","name:oc":"N\u00f2va Esc\u00f2cia","name:el":"\u039d\u03ad\u03b1 \u03a3\u03ba\u03c9\u03c4\u03af\u03b1","name:eo":"Nov-Skotio","name":"Nova Scotia","name:th":"\u0e23\u0e31\u0e10\u0e42\u0e19\u0e27\u0e32\u0e2a\u0e42\u0e01\u0e40\u0e0a\u0e35\u0e22","name:yi":"\u05e0\u05d0\u05d5\u05d5\u05e2 \u05e1\u05e7\u05d0\u05e9\u05e2","name:es":"Nueva Escocia","name:az":"Yeni \u015eotlandiya","name:mr":"\u0928\u094b\u0935\u094d\u0939\u093e \u0938\u094d\u0915\u0949\u0936\u093f\u092f\u093e","name:ar":"\u0646\u0648\u0641\u0627 \u0633\u0643\u0648\u0634\u0627","name:io":"Nova Skotia","name:it":"Nuova Scozia","name:ru":"\u041d\u043e\u0432\u0430\u044f \u0428\u043e\u0442\u043b\u0430\u043d\u0434\u0438\u044f","name:mn":"\u041d\u043e\u0432\u0430 \u0421\u043a\u043e\u0448\u0430","id":-390558,"name:mk":"\u041d\u043e\u0432\u0430 \u0428\u043a\u043e\u0442\u0441\u043a\u0430","name:fa":"\u0646\u0648\u0627 \u0627\u0633\u06a9\u0648\u0634\u06cc\u0627","name:lt":"Naujoji \u0160kotija","kind_detail":"4","name:fr":"Nouvelle-\u00c9cosse","name:fy":"Nij-Skotl\u00e2n","name:zh":"\u65b0\u65af\u79d1\u820d\u7701","name:sl":"Nova \u0160kotska","name:sk":"Nov\u00e9 \u0160k\u00f3tsko","name:ja":"\u30ce\u30d0\u30b9\u30b3\u30b7\u30a2\u5dde","name:br":"Skos Nevez","name:bs":"Nova \u0160kotska","name:eu":"Eskozia Berria","name:be":"\u041f\u0440\u0430\u0432\u0456\u043d\u0446\u044b\u044f \u041d\u043e\u0432\u0430\u044f \u0428\u0430\u0442\u043b\u0430\u043d\u0434\u044b\u044f","name:bg":"\u041d\u043e\u0432\u0430 \u0421\u043a\u043e\u0442\u0438\u044f","name:sr":"\u041d\u043e\u0432\u0430 \u0428\u043a\u043e\u0442\u0441\u043a\u0430","osm_relation":true,"name:ga":"Albain Nua","name:gd":"Alba Nuadh","name:gl":"Nova Escocia","name:gv":"Nalbin Noa"},"arcs":[3]},{"type":"LineString","properties":{"name:pt":"Nova Esc\u00f3cia","name:ka":"\u10d0\u10ee\u10d0\u10da\u10d8 \u10e8\u10dd\u10e2\u10da\u10d0\u10dc\u10d3\u10d8\u10d0","name:ko":"\ub178\ubc14\uc2a4\ucf54\uc0e4 \uc8fc","name:cs":"Nov\u00e9 Skotsko","name:kw":"Alban Nowydh","min_zoom":8.0,"name:az":"Yeni \u015eotlandiya","name:pa":"\u0a28\u0a4b\u0a35\u0a3e \u0a38\u0a15\u0a4b\u0a38\u0a3c\u0a3e","name:os":"\u041d\u043e\u0433 \u0428\u043e\u0442\u043b\u0430\u043d\u0434\u0438","name:pl":"Nowa Szkocja","name:ta":"\u0ba8\u0bcb\u0bb5\u0bbe \u0bb8\u0bcd\u0b95\u0bcb\u0b9a\u0bbf\u0baf\u0bbe","name:ca":"Nova Esc\u00f2cia","source":"openstreetmap.org","sort_rank":256,"name:qu":"Nova Scotia pruwinsya","name:de":"Neuschottland","name:tr":"Yeni \u0130sko\u00e7ya","osm_relation":true,"name:lv":"Jaunskotija","name:lt":"Naujoji \u0160kotija","name:uz":"Yangi Shotlandiya","name:he":"\u05e0\u05d5\u05d1\u05d4 \u05e1\u05e7\u05d5\u05d8\u05d9\u05d4","name:eo":"Nov-Skotio","name:ur":"\u0646\u0648\u0648\u0627 \u0633\u06a9\u0648\u0634\u06cc\u0627","name:uk":"\u041d\u043e\u0432\u0430 \u0428\u043e\u0442\u043b\u0430\u043d\u0434\u0456\u044f","name:hy":"\u0546\u0578\u0580 \u0547\u0578\u057f\u056c\u0561\u0576\u0564\u056b\u0561","name:ug":"Nowa Skotiye \u00d6lkisi","name:hu":"\u00daj-Sk\u00f3cia","name:hr":"Nova \u0160kotska","name:oc":"N\u00f2va Esc\u00f2cia","name:el":"\u039d\u03ad\u03b1 \u03a3\u03ba\u03c9\u03c4\u03af\u03b1","kind":"region","name":"Nova Scotia","name:th":"\u0e23\u0e31\u0e10\u0e42\u0e19\u0e27\u0e32\u0e2a\u0e42\u0e01\u0e40\u0e0a\u0e35\u0e22","name:yi":"\u05e0\u05d0\u05d5\u05d5\u05e2 \u05e1\u05e7\u05d0\u05e9\u05e2","name:es":"Nueva Escocia","name:ro":"Noua Sco\u021bie","name:mr":"\u0928\u094b\u0935\u094d\u0939\u093e \u0938\u094d\u0915\u0949\u0936\u093f\u092f\u093e","name:ar":"\u0646\u0648\u0641\u0627 \u0633\u0643\u0648\u0634\u0627","name:io":"Nova Skotia","name:it":"Nuova Scozia","name:ru":"\u041d\u043e\u0432\u0430\u044f \u0428\u043e\u0442\u043b\u0430\u043d\u0434\u0438\u044f","name:mn":"\u041d\u043e\u0432\u0430 \u0421\u043a\u043e\u0448\u0430","id":-390558,"name:mk":"\u041d\u043e\u0432\u0430 \u0428\u043a\u043e\u0442\u0441\u043a\u0430","name:fa":"\u0646\u0648\u0627 \u0627\u0633\u06a9\u0648\u0634\u06cc\u0627","kind_detail":"4","name:fr":"Nouvelle-\u00c9cosse","name:fy":"Nij-Skotl\u00e2n","name:zh":"\u65b0\u65af\u79d1\u820d\u7701","name:sl":"Nova \u0160kotska","name:sk":"Nov\u00e9 \u0160k\u00f3tsko","name:ja":"\u30ce\u30d0\u30b9\u30b3\u30b7\u30a2\u5dde","name:br":"Skos Nevez","name:bs":"Nova \u0160kotska","name:eu":"Eskozia Berria","name:be":"\u041f\u0440\u0430\u0432\u0456\u043d\u0446\u044b\u044f \u041d\u043e\u0432\u0430\u044f \u0428\u0430\u0442\u043b\u0430\u043d\u0434\u044b\u044f","name:bg":"\u041d\u043e\u0432\u0430 \u0421\u043a\u043e\u0442\u0438\u044f","name:sr":"\u041d\u043e\u0432\u0430 \u0428\u043a\u043e\u0442\u0441\u043a\u0430","name:sq":"Skocia e Re","name:ga":"Albain Nua","name:gd":"Alba Nuadh","name:gl":"Nova Escocia","maritime_boundary":true,"name:gv":"Nalbin Noa"},"arcs":[4]}]},"roads":{"type":"GeometryCollection","geometries":[{"type":"MultiLineString","properties":{"kind":"major_road","network":"CA:PEI","sort_rank":381,"kind_detail":"trunk","source":"openstreetmap.org","min_zoom":8.0,"shield_text":"1","ref":"1"},"arcs":[[12],[13]]},{"type":"MultiLineString","properties":{"kind":"major_road","network":"CA:NS","sort_rank":380,"kind_detail":"primary","source":"openstreetmap.org","min_zoom":8.0,"shield_text":"104","ref":"4"},"arcs":[[14],[15],[16]]},{"type":"LineString","properties":{"kind":"major_road","network":"CA:NS","sort_rank":380,"kind_detail":"primary","source":"openstreetmap.org","min_zoom":8.0,"shield_text":"2","ref":"2"},"arcs":[17]},{"type":"MultiLineString","properties":{"kind":"major_road","network":"CA:NS:T","sort_rank":380,"kind_detail":"primary","source":"openstreetmap.org","min_zoom":8.0,"shield_text":"6","ref":"6"},"arcs":[[18],[19],[20]]},{"type":"MultiLineString","properties":{"source":"openstreetmap.org","kind":"major_road","sort_rank":380,"kind_detail":"primary","ref":"4;316","min_zoom":8.0},"arcs":[[21],[22],[23],[24],[25],[26],[27],[28],[29],[30]]},{"type":"MultiLineString","properties":{"kind":"major_road","network":"CA:PEI","sort_rank":381,"kind_detail":"trunk","source":"openstreetmap.org","min_zoom":8.0,"shield_text":"1","osm_relation":true},"arcs":[[31],[32],[33]]},{"type":"LineString","properties":{"kind":"minor_road","sort_rank":360,"kind_detail":"residential","is_bicycle_related":true,"bicycle_shield_text":"TCT","bicycle_network":"ncn","source":"openstreetmap.org","min_zoom":8.0},"arcs":[34]},{"type":"LineString","properties":{"kind":"major_road","network":"CA:NS","sort_rank":381,"kind_detail":"trunk","source":"openstreetmap.org","min_zoom":8.0,"shield_text":"104","ref":"104"},"arcs":[35]},{"type":"LineString","properties":{"kind":"major_road","network":"CA:NS:R","sort_rank":380,"kind_detail":"primary","source":"openstreetmap.org","min_zoom":8.0,"shield_text":"311","ref":"311"},"arcs":[36]},{"type":"LineString","properties":{"kind":"major_road","network":"CA:NS","sort_rank":380,"kind_detail":"primary","source":"openstreetmap.org","min_zoom":8.0,"shield_text":"4","id":128511801},"arcs":[37]},{"type":"MultiLineString","properties":{"kind":"path","sort_rank":354,"kind_detail":"cycleway","is_bicycle_related":true,"bicycle_shield_text":"TCT","bicycle_network":"ncn","source":"openstreetmap.org","min_zoom":8.0},"arcs":[[38],[39],[40],[41]]},{"type":"MultiLineString","properties":{"kind":"highway","network":"CA:NS","sort_rank":383,"nat_name":"Trans-Canada Highway","source":"openstreetmap.org","min_zoom":8.0,"all_networks":["CA:NS"],"kind_detail":"motorway","shield_text":"106","ref":"106","all_shield_texts":["106"]},"arcs":[[42],[43],[44],[45],[46],[47],[48],[49]]},{"type":"MultiLineString","properties":{"kind":"major_road","network":"CA:PEI","sort_rank":380,"kind_detail":"primary","source":"openstreetmap.org","min_zoom":8.0,"shield_text":"4","ref":"4"},"arcs":[[50],[51],[52]]},{"type":"LineString","properties":{"kind":"major_road","network":"CA:NS","sort_rank":380,"kind_detail":"primary","source":"openstreetmap.org","min_zoom":8.0,"shield_text":"4","ref":"4;348"},"arcs":[53]},{"type":"MultiLineString","properties":{"kind":"highway","network":"CA:NS","sort_rank":383,"kind_detail":"motorway","source":"openstreetmap.org","min_zoom":8.0,"all_networks":["CA:NS"],"shield_text":"106","ref":"106","all_shield_texts":["106"]},"arcs":[[54],[55],[56]]},{"type":"LineString","properties":{"kind":"highway","network":"CA:NS","sort_rank":383,"kind_detail":"motorway","is_bicycle_related":true,"source":"openstreetmap.org","min_zoom":8.0,"all_networks":["CA:NS"],"shield_text":"104","ref":"104","id":163525843,"all_shield_texts":["104"]},"arcs":[57]},{"type":"LineString","properties":{"source":"openstreetmap.org","kind":"ferry","name":"Caribou-Wood Islands Ferry","sort_rank":355,"is_bicycle_related":true,"min_zoom":8.0,"id":28418329},"arcs":[58]},{"type":"MultiLineString","properties":{"kind":"major_road","network":"CA:NS","sort_rank":380,"kind_detail":"primary","source":"openstreetmap.org","min_zoom":8.0,"shield_text":"4","ref":"4"},"arcs":[[59],[60],[61],[62],[63],[64],[65],[66],[67],[68],[69],[70],[71],[72],[73],[74],[75],[76],[77],[78]]},{"type":"MultiLineString","properties":{"kind":"major_road","network":"CA:NS:T","sort_rank":380,"kind_detail":"primary","source":"openstreetmap.org","min_zoom":8.0,"shield_text":"7","ref":"7"},"arcs":[[79],[80],[81],[82],[83],[84]]},{"type":"MultiLineString","properties":{"source":"openstreetmap.org","kind":"highway","sort_rank":383,"kind_detail":"motorway","ref":"104","min_zoom":8.0},"arcs":[[85],[86]]},{"type":"LineString","properties":{"kind":"minor_road","sort_rank":358,"kind_detail":"service","is_bicycle_related":true,"bicycle_shield_text":"TCT","bicycle_network":"ncn","source":"openstreetmap.org","min_zoom":8.0},"arcs":[87]},{"type":"LineString","properties":{"kind":"path","sort_rank":354,"kind_detail":"footway","is_bicycle_related":true,"bicycle_shield_text":"TCT","bicycle_network":"ncn","source":"openstreetmap.org","min_zoom":8.0},"arcs":[88]},{"type":"LineString","properties":{"kind":"major_road","name:en":"South Pinette Bridge;Trans Canada Highway;Trans-Canada Highway","network":"CA:PEI","sort_rank":381,"kind_detail":"trunk","name:fr":"Route Transcanadienne;Trans Canada Highway","source":"openstreetmap.org","min_zoom":8.0,"shield_text":"1","ref":"1","id":208147179},"arcs":[89]},{"type":"LineString","properties":{"kind":"major_road","network":"CA:PEI","sort_rank":381,"kind_detail":"trunk","name:fr":"Route Transcanadienne","source":"openstreetmap.org","min_zoom":8.0,"shield_text":"1","ref":"1"},"arcs":[90]},{"type":"MultiLineString","properties":{"sort_rank":380,"kind_detail":"primary","min_zoom":8.0,"kind":"major_road","source":"openstreetmap.org"},"arcs":[[91],[92],[93],[94],[95]]},{"type":"LineString","properties":{"kind":"major_road","network":"CA:NS","sort_rank":380,"kind_detail":"primary","source":"openstreetmap.org","min_zoom":8.0,"shield_text":"104","ref":"104","id":128619312},"arcs":[96]},{"type":"LineString","properties":{"kind":"major_road","network":"CA:NS","sort_rank":380,"kind_detail":"primary","is_bicycle_related":true,"bicycle_shield_text":"1","bicycle_network":"rcn","source":"openstreetmap.org","min_zoom":8.0,"old_name":"Old Trans-Canada Highway","shield_text":"4","ref":"4"},"arcs":[97]},{"type":"LineString","properties":{"kind":"major_road","network":"CA:PEI","sort_rank":380,"kind_detail":"primary","source":"openstreetmap.org","min_zoom":8.0,"shield_text":"4","ref":"4;348","id":208312928},"arcs":[98]},{"type":"LineString","properties":{"kind":"major_road","name:en":"Main Street North;Murray River Bridge","network":"CA:PEI","sort_rank":380,"kind_detail":"primary","source":"openstreetmap.org","min_zoom":8.0,"shield_text":"4","ref":"4","id":208312924},"arcs":[99]},{"type":"MultiLineString","properties":{"kind":"path","sort_rank":354,"kind_detail":"track","is_bicycle_related":true,"bicycle_shield_text":"TCT","bicycle_network":"ncn","source":"openstreetmap.org","min_zoom":8.0},"arcs":[[100],[101],[102],[103]]},{"type":"LineString","properties":{"kind":"major_road","network":"CA:NS","sort_rank":380,"kind_detail":"primary","source":"openstreetmap.org","min_zoom":8.0,"shield_text":"4","ref":"4;289"},"arcs":[104]},{"type":"LineString","properties":{"kind":"major_road","network":"CA:NS","sort_rank":381,"kind_detail":"trunk","source":"openstreetmap.org","min_zoom":8.0,"nat_name":"Trans-Canada Highway","shield_text":"106","ref":"106","id":371287261},"arcs":[105]},{"type":"MultiLineString","properties":{"kind":"major_road","network":"CA:PEI","sort_rank":381,"kind_detail":"trunk","name:fr":"Route Transcanadienne;Trans Canada Highway","source":"openstreetmap.org","min_zoom":8.0,"shield_text":"1","ref":"1"},"arcs":[[106],[107]]},{"type":"MultiLineString","properties":{"kind":"highway","network":"CA:NS","sort_rank":383,"kind_detail":"motorway","source":"openstreetmap.org","min_zoom":8.0,"all_networks":["CA:NS"],"shield_text":"104","ref":"104","all_shield_texts":["104"]},"arcs":[[108],[109],[110],[111],[112],[113],[114],[115],[116],[117],[118],[119],[120],[121],[122],[123],[124],[125],[126],[127],[128],[129],[130],[131],[132]]},{"type":"MultiLineString","properties":{"kind":"highway","network":"CA:NS","sort_rank":383,"kind_detail":"motorway","source":"openstreetmap.org","min_zoom":8.0,"all_networks":["CA:NS"],"nat_name":"Trans-Canada Highway","shield_text":"104","ref":"104","all_shield_texts":["104"]},"arcs":[[133],[134]]},{"type":"MultiLineString","properties":{"kind":"path","sort_rank":354,"kind_detail":"path","is_bicycle_related":true,"bicycle_shield_text":"TCT","bicycle_network":"ncn","source":"openstreetmap.org","min_zoom":8.0},"arcs":[[135],[136],[137],[138],[139]]},{"type":"LineString","properties":{"source":"openstreetmap.org","kind":"ferry","name":"Pictou Island Ferry","sort_rank":355,"min_zoom":8.0,"id":239821789},"arcs":[140]},{"type":"MultiLineString","properties":{"kind":"highway","network":"CA:NS","sort_rank":383,"kind_detail":"motorway","source":"openstreetmap.org","min_zoom":8.0,"all_networks":["CA:NS"],"shield_text":"104","all_shield_texts":["104"]},"arcs":[[141],[142],[143],[144],[145],[146],[147]]},{"type":"LineString","properties":{"kind":"minor_road","sort_rank":360,"kind_detail":"unclassified","is_bicycle_related":true,"bicycle_shield_text":"TCT","bicycle_network":"ncn","source":"openstreetmap.org","min_zoom":8.0},"arcs":[148]},{"type":"MultiLineString","properties":{"source":"openstreetmap.org","kind":"major_road","sort_rank":380,"kind_detail":"primary","ref":"4","min_zoom":8.0},"arcs":[[149],[150],[151],[152],[153],[154],[155],[156]]},{"type":"MultiLineString","properties":{"kind":"major_road","network":"CA:NS","sort_rank":380,"kind_detail":"primary","source":"openstreetmap.org","min_zoom":8.0,"old_name":"Old Trans-Canada Highway","shield_text":"4","ref":"4"},"arcs":[[157],[158]]}]},"earth":{"type":"GeometryCollection","geometries":[{"type":"MultiPolygon","properties":{"sort_rank":10,"source":"naturalearthdata.com","min_zoom":0.0,"kind":"earth","area":48618324729},"arcs":[[[159]],[[160]],[[161]],[[162]]]}]},"landuse":{"type":"GeometryCollection","geometries":[{"type":"MultiPolygon","properties":{"source":"openstreetmap.org","kind":"nature_reserve","tier":2,"protect_class":"1","area":268297567,"sort_rank":23,"min_zoom":8.0},"arcs":[[[163]],[[164]],[[165]],[[166]]]},{"type":"MultiPolygon","properties":{"kind":"nature_reserve","protect_class":"1","area":75613294,"sort_rank":23,"operator":"Nova Scotia Environment","source":"openstreetmap.org","min_zoom":8.0,"tier":2,"osm_relation":true},"arcs":[[[167]],[[168]],[[169]],[[170]],[[171]]]},{"type":"MultiPolygon","properties":{"kind":"nature_reserve","protect_class":"1","area":345907004,"sort_rank":23,"source":"openstreetmap.org","min_zoom":8.0,"tier":2,"osm_relation":true},"arcs":[[[172]],[[173]],[[174]]]}]}},"type":"Topology","transform":{"translate":[-63.28125,45.0890355648],"scale":[0.0003433228,0.000240282]},"arcs":[[[0,4016],[514,-212],[392,-397],[296,-139],[333,-66],[741,12]],[[2276,3214],[0,13]],[[2276,3227],[0,433],[171,123],[123,279],[1,34]],[[2276,3201],[0,13]],[[4096,3530],[-361,-161],[-213,-131],[-85,-67],[-188,-222],[-239,-201],[-253,-166],[-344,-156],[-439,213],[302,407],[0,155]],[[0,1118],[34,39],[-34,61]],[[4096,4096],[0,-1585],[-4,1],[-52,46],[23,72],[-4,70],[-62,204],[-32,179],[-4,87],[15,38],[32,24],[23,25],[-9,42],[-32,30],[-38,1],[-71,-31],[-117,-78],[-207,-229],[-612,-434],[-425,-102],[-74,-100],[107,83],[62,21],[36,10],[27,-38],[-44,-47],[-67,-38],[-53,-16],[-50,-27],[-102,-117],[-67,-27],[-46,29],[19,67],[78,131],[-55,-3],[-46,-11],[-46,-4],[-54,18],[-16,18],[-21,46],[-24,22],[-34,11],[-67,1],[-36,19],[-35,-35],[-45,-5],[-44,4],[-27,-9],[-23,-50],[1,-48],[24,-39],[49,-20],[-28,-60],[-36,12],[-66,90],[-43,14],[-39,-42],[-58,-114],[-29,-22],[7,59],[32,117],[-36,37],[-47,-10],[-46,-36],[-32,-45],[21,82],[40,52],[58,29],[139,23],[203,127],[-41,39],[-50,37],[-52,27],[-48,10],[-87,-1],[-30,17],[-52,44],[54,15],[61,-9],[63,2],[61,46],[-72,2],[-149,-29],[-77,-1],[-429,73],[-161,55],[-352,64],[-58,-22],[106,-66],[40,-49],[15,-81],[-53,19],[-49,5],[-49,-7],[-50,-17],[-162,-94],[-37,3],[-8,37],[17,29],[42,38],[9,17],[1,21],[-7,19],[-14,13],[-10,-7],[-6,-19],[-4,-21],[0,-10],[-46,-21],[-133,-96],[1,23],[-2,45],[1,23],[-48,-46],[-22,-27],[0,173],[68,35],[82,61],[-85,41],[-65,-11],[0,1082],[844,0],[-52,-6],[-62,-21],[99,-20],[255,42],[64,-78],[-99,8],[-39,-9],[8,-43],[36,-43],[43,-29],[45,-20],[45,-9],[0,-29],[-18,-2],[-41,-23],[139,-114],[49,-22],[152,-35],[16,-11],[44,-39],[17,-7],[17,14],[24,54],[23,15],[41,-1],[90,-20],[404,26],[174,75],[86,147],[-43,0],[-75,-26],[-41,-2],[-128,51],[-51,8],[0,26],[51,21],[78,56],[61,11],[53,-4],[27,4],[19,14],[26,41],[1715,0]],[[2059,3059],[-57,-36],[-27,-20],[0,-27],[25,-1],[48,7],[33,-14],[32,-12],[18,18],[68,25],[41,20],[3,37],[12,20],[-32,-2],[-43,7],[-35,-11],[-27,-11],[-31,0],[-28,0]],[[0,3014],[65,11],[85,-41],[-82,-61],[-68,-35]],[[0,2715],[22,27],[48,46],[-1,-23],[2,-45],[-1,-23],[133,96],[46,21],[0,10],[4,21],[6,19],[10,7],[14,-13],[7,-19],[-1,-21],[-9,-17],[-42,-38],[-17,-29],[8,-37],[37,-3],[162,94],[50,17],[49,7],[49,-5],[53,-19],[-15,81],[-40,49],[-106,66],[58,22],[352,-64],[161,-55],[429,-73],[77,1],[149,29],[72,-2],[-61,-46],[-63,-2],[-61,9],[-54,-15],[52,-44],[30,-17],[87,1],[48,-10],[52,-27],[50,-37],[41,-39],[-203,-127],[-139,-23],[-58,-29],[-40,-52],[-21,-82],[32,45],[46,36],[47,10],[36,-37],[-32,-117],[-7,-59],[29,22],[58,114],[39,42],[43,-14],[66,-90],[36,-12],[28,60],[-49,20],[-24,39],[-1,48],[23,50],[27,9],[44,-4],[45,5],[35,35],[36,-19],[67,-1],[34,-11],[24,-22],[21,-46],[16,-18],[54,-18],[46,4],[46,11],[55,3],[-78,-131],[-19,-67],[46,-29],[67,27],[102,117],[50,27],[53,16],[67,38],[44,47],[-27,38],[-36,-10],[-62,-21],[-107,-83],[74,100],[425,102],[612,434],[207,229],[117,78],[71,31],[38,-1],[32,-30],[9,-42],[-23,-25],[-32,-24],[-15,-38],[4,-87],[32,-179],[62,-204],[4,-70],[-23,-72],[52,-46],[4,-1]],[[844,4096],[-52,-6],[-62,-21],[99,-20],[255,42],[64,-78],[-99,8],[-39,-9],[8,-43],[36,-43],[43,-29],[45,-20],[45,-9],[0,-29],[-18,-2],[-41,-23],[139,-114],[49,-22],[152,-35],[16,-11],[44,-39],[17,-7],[17,14],[24,54],[23,15],[41,-1],[90,-20],[404,26],[174,75],[86,147],[-43,0],[-75,-26],[-41,-2],[-128,51],[-51,8],[0,26],[51,21],[78,56],[61,11],[53,-4],[27,4],[19,14],[26,41]],[[2145,3070],[35,11],[43,-7],[32,2],[-12,-20],[-3,-37],[-41,-20],[-68,-25],[-18,-18],[-32,12],[-33,14],[-48,-7],[-25,1],[0,27],[27,20],[57,36],[28,0],[31,0],[27,11]],[[1075,4096],[6,-78]],[[1080,4015],[16,-79],[151,-127],[110,-141],[187,-18],[6,-50]],[[3970,2139],[-92,11]],[[3980,2129],[-7,3]],[[4003,2115],[-20,13]],[[0,700],[7,-33],[-7,-19]],[[0,2562],[5,-3],[313,161],[212,69],[48,-30],[74,-1],[89,155],[393,-77],[221,-98],[247,-263]],[[1602,2475],[1,-4]],[[1605,2473],[-3,2]],[[4009,2126],[-6,-11]],[[4009,2127],[0,-1]],[[4009,2132],[1,-1]],[[4009,2126],[1,1]],[[4010,2131],[0,1]],[[4010,2131],[0,-3]],[[4009,2128],[0,-1]],[[4009,2127],[1,0],[0,1],[-1,0]],[[4011,2132],[-1,1],[-1,0],[0,-1]],[[4009,2132],[2,0]],[[1082,4096],[10,-54],[-18,-73],[90,-108],[83,-52],[110,-141],[189,-18],[12,-31]],[[1550,3600]],[[1550,3600],[8,19]],[[1658,2441],[24,18]],[[3287,2011],[-129,64],[-88,-9],[-91,40],[-47,-24]],[[24,1162],[7,16]],[[3715,2186],[-6,-2]],[[1353,4096],[21,-87],[-33,-27],[-20,-107],[69,-114],[149,27]],[[1539,3788],[12,-80]],[[1539,3788],[101,-19],[353,71],[67,-33],[89,4]],[[1547,3707],[5,-58]],[[1603,2465],[1,-3]],[[1604,2462],[2,3]],[[1626,2359],[-22,103]],[[1609,2476],[-4,-3]],[[1608,2472],[1,4]],[[1609,2476],[5,48],[104,150]],[[1611,2299],[61,-237]],[[1675,2067],[-56,209],[-6,15]],[[1959,3841],[54,-183],[-462,-13]],[[1948,4096],[29,-110],[-38,-124],[16,-14]],[[1955,3847],[3,-5]],[[1851,2067],[2,-1],[4,20],[-2,-4],[-4,-15]],[[1607,2308],[19,51]],[[1613,2291],[-2,8]],[[1608,2472],[-5,0],[0,-7],[5,1],[0,6]],[[3733,2176],[-85,-55]],[[1727,2705],[74,60],[2,42],[-256,738],[3,55]],[[31,1178],[200,115]],[[1831,2068],[-114,-55],[-114,21]],[[1853,2066],[189,29],[25,32],[160,-27]],[[2227,2100],[1,-1]],[[2229,2100],[-2,0]],[[2229,2098],[0,-5]],[[2229,2091],[2,0]],[[2230,2093],[0,5]],[[2231,2091],[-1,1]],[[2230,2093],[-1,0],[0,-1],[1,0],[0,1]],[[2231,2091],[42,-11],[72,-79],[93,35],[43,-21],[27,27],[246,-15],[52,30],[78,-31],[72,76]],[[3656,2134],[-42,-18],[-39,15],[-235,-130],[-187,74]],[[3660,2135],[-4,-1]],[[3656,2134],[4,0]],[[3663,2137],[-3,-2]],[[3661,2134],[2,3]],[[3883,2147],[-105,81],[-115,-91]],[[2230,2099]],[[3661,2134],[-1,1]],[[3660,2135],[0,-1],[1,-1],[0,1]],[[3733,2177],[0,-4]],[[3735,0],[-39,126],[27,89],[82,32],[-26,92],[23,23],[-76,88],[-64,244],[-88,63],[-13,337],[57,136],[100,418],[-68,87],[3,51],[-48,37],[-20,99],[92,136],[41,19],[16,92]],[[3735,2196],[0,-15]],[[3735,2172],[0,5]],[[3734,2173],[-1,-1],[1,-1],[1,1],[-1,1]],[[3735,2179],[-1,-1],[0,-1],[1,0],[0,2]],[[4096,2107],[-124,30],[-75,-11],[-37,26]],[[3861,2149],[37,-25],[74,12],[124,-30]],[[2974,1261],[1,1]],[[3732,760],[156,-34],[43,24]],[[1080,4015],[1,3]],[[1557,3615],[1,2]],[[24,1162],[1,-7]],[[25,1155],[-1,-10],[-24,4]],[[0,1156],[25,-1]],[[3797,2184],[-2,0]],[[3816,2183],[6,-1]],[[3983,2128],[-3,1]],[[1274,2030],[-48,-98],[-208,-120],[-90,18],[-113,-32],[-67,-94],[-4,-57],[-191,-139],[-231,-97],[-76,-107]],[[1958,3842],[1,-1]],[[1955,3848],[0,-1]],[[0,2571],[7,-9],[257,-18],[160,81],[65,6],[66,50],[160,29],[39,-68],[307,-103]],[[1064,2537],[96,-12],[94,-190],[65,-11],[73,92],[174,33]],[[2860,1258],[114,3]],[[3581,880],[20,8]],[[1831,2068],[24,14]],[[1718,2674],[9,31]],[[1550,3600],[7,15]],[[1558,3617],[0,2]],[[2330,2060],[-57,22],[-131,7],[-13,-6]],[[2129,2083],[-119,-57]],[[2010,2026],[-20,-9],[-21,-10],[-65,-30]],[[1904,1977],[-11,-5],[-33,4],[-7,4]],[[1853,1980],[-1,1],[-2,1],[-15,10],[-5,3],[-19,11],[-31,26],[-14,8],[-99,15],[-204,-79],[-129,-78],[-160,-15],[-233,-109],[-235,-152],[-104,-81],[-20,-11],[-162,-103],[-3,-3]],[[417,1424],[-3,-3]],[[414,1421],[-70,-72],[0,-1],[-139,-58]],[[206,1289],[139,59],[69,73]],[[414,1421],[3,3]],[[417,1424],[164,104],[1,1],[20,11],[338,232],[235,110],[160,16],[332,156],[104,-17],[40,-32],[40,-25],[2,0]],[[1853,1980],[51,-3]],[[1904,1977],[2,0],[75,34],[29,15]],[[2010,2026],[108,55],[6,2],[5,0]],[[2129,2083],[144,-1],[9,-8]],[[2283,2073],[47,-13]],[[2932,2082],[-262,-56],[-340,34]],[[3287,2011],[57,-28],[237,130]],[[3581,2113],[65,5],[87,56]],[[3648,2121],[-67,-8]],[[3786,2164],[-51,12]],[[3735,2174],[52,-11]],[[3823,2169],[-31,-4]],[[3793,2164],[31,4]],[[3860,2152],[-35,17]],[[3826,2167],[35,-18]],[[205,1290],[-106,-24],[-87,27],[-12,-2]],[[0,1289],[12,3],[87,-27],[107,24]],[[1566,2449],[21,-28],[71,20]],[[2149,3811],[42,1]],[[2264,1303],[175,1],[231,-96],[44,42],[146,8]],[[3601,888],[30,-14],[29,-71],[72,-43]],[[3931,750],[85,-19],[80,103]],[[1727,2705],[34,45],[159,89],[108,134]],[[2282,2074],[1,-1]],[[3735,2176],[-2,0]],[[3733,2174],[2,0]],[[3792,2165],[-6,-1]],[[3787,2163],[6,1]],[[3825,2169],[-2,0]],[[3824,2168],[2,-1]],[[1547,3707],[4,1]],[[231,1293],[2,1]],[[1940,3861],[0,2]],[[3788,2185],[-15,1],[-58,0]],[[3717,2185],[71,0]],[[3795,2184],[-7,1]],[[3816,2183],[-19,1]],[[3822,2182],[56,-32]],[[3973,2132],[-3,7]],[[246,1304],[-13,-10]],[[1603,2034],[-63,7],[-135,-67],[-65,48],[-66,8]],[[2180,3081],[43,-7],[32,2],[-12,-20],[-3,-37],[-41,-20],[-68,-25],[-18,-18],[-32,12],[-33,14],[-48,-7],[-25,1],[0,27],[27,20],[57,36],[28,0],[31,0],[27,11],[35,11]],[[4096,2511],[0,-2511],[-4096,0],[0,2715],[22,27],[48,46],[-1,-23],[2,-45],[-1,-23],[133,96],[46,21],[0,10],[4,21],[6,19],[10,7],[14,-13],[7,-19],[-1,-21],[-9,-17],[-42,-38],[-17,-29],[8,-37],[37,-3],[162,94],[50,17],[49,7],[49,-5],[53,-19],[-15,81],[-40,49],[-106,66],[58,22],[352,-64],[161,-55],[429,-73],[77,1],[149,29],[72,-2],[-61,-46],[-63,-2],[-61,9],[-54,-15],[52,-44],[30,-17],[87,1],[48,-10],[52,-27],[50,-37],[41,-39],[-203,-127],[-139,-23],[-58,-29],[-40,-52],[-21,-82],[32,45],[46,36],[47,10],[36,-37],[-32,-117],[-7,-59],[29,22],[58,114],[39,42],[43,-14],[66,-90],[36,-12],[28,60],[-49,20],[-24,39],[-1,48],[23,50],[27,9],[44,-4],[45,5],[35,35],[36,-19],[67,-1],[34,-11],[24,-22],[21,-46],[16,-18],[54,-18],[46,4],[46,11],[55,3],[-78,-131],[-19,-67],[46,-29],[67,27],[102,117],[50,27],[53,16],[67,38],[44,47],[-27,38],[-36,-10],[-62,-21],[-107,-83],[74,100],[425,102],[612,434],[207,229],[117,78],[71,31],[38,-1],[32,-30],[9,-42],[-23,-25],[-32,-24],[-15,-38],[4,-87],[32,-179],[62,-204],[4,-70],[-23,-72],[52,-46],[4,-1]],[[0,2888],[0,126],[65,11],[85,-41],[-82,-61],[-68,-35]],[[844,4096],[1537,0],[-26,-41],[-19,-14],[-27,-4],[-53,4],[-61,-11],[-78,-56],[-51,-21],[0,-26],[51,-8],[128,-51],[41,2],[75,26],[43,0],[-86,-147],[-174,-75],[-404,-26],[-90,20],[-41,1],[-23,-15],[-24,-54],[-17,-14],[-17,7],[-44,39],[-16,11],[-152,35],[-49,22],[-139,114],[41,23],[18,2],[0,29],[-45,9],[-45,20],[-43,29],[-36,43],[-8,43],[39,9],[99,-8],[-64,78],[-255,-42],[-99,20],[62,21],[52,6]],[[3340,0],[-15,103],[212,-49],[-64,-23],[32,-31],[-165,0]],[[2707,228],[13,28],[56,-58],[42,-6],[82,25],[-30,0],[29,15],[11,75],[52,-13],[-15,-68],[-88,-50],[-100,-1],[-52,53]],[[3323,366],[73,112],[17,-9],[9,55],[56,-19],[13,-50],[43,33],[57,-92],[-16,-30],[-82,-6],[-13,-80],[-101,-10],[-56,96]],[[488,1873],[37,119],[68,21],[-18,62],[34,11],[32,-128],[33,10],[16,-41],[100,1],[15,-22],[-40,-37],[-28,15],[10,-34],[-32,-11],[39,-107],[-4,-12],[-36,78],[6,-58],[-50,-9],[10,-33],[-62,-14],[-11,45],[-35,-11],[44,45],[-58,108],[-63,-20],[-7,22]],[[2479,0],[58,32],[26,-32],[-84,0]],[[1973,17],[32,14],[-18,22],[64,21],[88,-73],[-166,16]],[[2301,140],[33,21],[96,-13],[48,-44],[-47,-61],[-98,24],[-29,25],[-3,48]],[[3180,43],[29,27],[97,-12],[-37,94],[18,24],[36,-4],[14,51],[13,-38],[-58,-43],[38,-40],[10,-102],[-160,43]],[[2930,216],[26,52],[199,9],[53,-44],[3,-96],[37,-8],[-41,-20],[-6,-41],[-30,28],[-44,-5],[-2,54],[36,-3],[22,79],[-43,36],[-92,-51],[-118,10]],[[2659,16],[66,50],[186,47],[103,-88],[-37,-25],[-318,16]],[[3208,2181],[44,59],[-26,59],[141,-27],[35,-85],[-44,-42],[-26,14],[15,-31],[-45,21],[15,-30],[-52,-16],[-57,78]],[[3127,2370],[160,67],[-22,69],[-25,-12],[-8,29],[12,-15],[3,38],[29,-25],[25,34],[17,1],[-9,0],[-11,25],[48,9],[-8,17],[31,16],[-15,32],[52,116],[21,-121],[-93,-71],[10,-24],[-4,0],[36,-141],[39,11],[37,-67],[-44,-15],[18,-35],[-29,31],[-9,-29],[-77,-20],[-79,10],[-14,40],[34,53],[-125,-23]]]}