{"objects":{"water":{"type":"GeometryCollection","geometries":[{"type":"MultiPolygon","properties":{"source":"naturalearthdata.com","kind":"ocean","area":1576712559132672,"sort_rank":200,"min_zoom":0.0,"id":1},"arcs":[[[11]],[[12]]]},{"type":"MultiLineString","properties":{"source":"naturalearthdata.com","kind":"ocean","sort_rank":205,"boundary":true,"min_zoom":0.0,"id":79},"arcs":[[13],[14]]}]},"buildings":{"type":"GeometryCollection","geometries":[]},"places":{"type":"GeometryCollection","geometries":[]},"transit":{"type":"GeometryCollection","geometries":[]},"pois":{"type":"GeometryCollection","geometries":[]},"boundaries":{"type":"GeometryCollection","geometries":[{"type":"MultiLineString","properties":{"name:kg":"Vietnam","name:ka":"\u10d5\u10d8\u10d4\u10e2\u10dc\u10d0\u10db\u10d8","name:ko":"\ubca0\ud2b8\ub0a8","name:cv":"\u0412\u044c\u0435\u0442\u043d\u0430\u043c","name:km":"\u179c\u17c0\u178f\u178e\u17b6\u1798","name:kl":"Vietnam","name:cs":"Vietnam","name:tw":"Vietnam","name:ki":"Vietnam","name:kw":"Vietnam","name:kv":"\u0412\u044c\u0435\u0442\u043d\u0430\u043c","name:th":"\u0e1b\u0e23\u0e30\u0e40\u0e17\u0e28\u0e40\u0e27\u0e35\u0e22\u0e14\u0e19\u0e32\u0e21","name:tl":"Vietnam","name:ch":"Vietnam","name:ce":"\u0412\u044c\u0435\u0442\u043d\u0430\u043c","name:ta":"\u0bb5\u0bbf\u0baf\u0b9f\u0bcd\u0ba8\u0bbe\u0bae\u0bcd","name:tg":"\u0412\u0435\u0442\u043d\u0430\u043c","name:ca":"Vietnam","name:te":"\u0c35\u0c3f\u0c2f\u0c24\u0c4d\u0c28\u0c3e\u0c02","name:cy":"Fietnam","name:qu":"Witnam","name:da":"Vietnam","name:de":"Vietnam","source":"openstreetmap.org","name:kn":"\u0cb5\u0cbf\u0caf\u0cc6\u0c9f\u0ccd\u0ca8\u0cbe\u0cae\u0ccd","name:dv":"\u0788\u07a8\u0787\u07ac\u0793\u07aa\u0782\u07a7\u0789\u07aa","name:lv":"Vjetnama","name:lt":"Vietnamas","name:uz":"Vyetnam","name:kk":"\u0412\u044c\u0435\u0442\u043d\u0430\u043c","name:ur":"\u0648\u06cc\u062a\u0646\u0627\u0645","name:lb":"Vietnam","name:la":"Vietnamia","name:tt":"\u0412\u044c\u0435\u0442\u043d\u0430\u043c","name:uk":"\u0412'\u0454\u0442\u043d\u0430\u043c","name:ug":"\u06cb\u064a\u06d0\u062a\u0646\u0627\u0645","name:li":"Vietnam","name:ln":"Vietnami","name:lo":"\u0e9b\u0eb0\u0ec0\u0e97\u0e94\u0eab\u0ea7\u0ebd\u0e94\u0e99\u0eb2\u0ea1","name:el":"\u0392\u03b9\u03b5\u03c4\u03bd\u03ac\u03bc","name:eo":"Vjetnamujo","name:en":"Vietnam","name":"Vi\u1ec7t Nam","name:tk":"W\u00fdetnam","name:ee":"Vietnam","name:ku":"Viyetnam","name:eu":"Vietnam","name:et":"Vietnam","name:es":"Vietnam","name:ay":"Vietnam","name:rm":"Vietnam","name:rn":"Vietnam","name:az":"Vyetnam","name:ie":"Viet-Nam","name:id":"Vietnam","name:ik":"Vietnam","name:ar":"\u0641\u064a\u062a\u0646\u0627\u0645","name:io":"Vietnam","name:av":"\u0412\u044c\u0435\u0442\u043d\u0430\u043c","name:ak":"Vietnam","name:am":"\u126c\u1275 \u1293\u121d","name:it":"Vietnam","name:an":"Vietnam","name:ru":"\u0412\u044c\u0435\u0442\u043d\u0430\u043c","name:rw":"Viyetinamu","name:af":"Vi\u00ebtnam","name:zu":"IViyetnami","kind_detail":"2","name:za":"Yiednamz","name:zh-yue":"\u8d8a\u5357","name:zh":"\u8d8a\u5357","name:so":"Fiyetnam","name:sn":"Vietnam","name:sm":"Vietnam","name:sl":"Vietnam","name:sk":"Vietnam","name:ja":"\u30d9\u30c8\u30ca\u30e0","name:si":"\u0dc0\u0dd2\u0dba\u0da7\u0dca\u0db1\u0dcf\u0db8\u0dba","name:sh":"Vijetnam","name:se":"Vietnam","name:sc":"Vietnam","name:br":"Vi\u00eat Nam","name:bs":"Vijetnam","name:bm":"Vietnam","name:bn":"\u09ad\u09bf\u09af\u09bc\u09c7\u09a4\u09a8\u09be\u09ae","name:bo":"\u0f5d\u0f72\u0f0b\u0f4f\u0f72\u0f0b\u0f53\u0f58\u0f0d","name:bi":"Vietnam","name:sw":"Vietnam","name:be":"\u0412'\u0435\u0442\u043d\u0430\u043c","name:su":"Vi\u00e9tnam","name:bg":"\u0412\u0438\u0435\u0442\u043d\u0430\u043c","name:ss":"IViyethina","name:ba":"\u0412\u044c\u0435\u0442\u043d\u0430\u043c","name:sq":"Vietnami","name:jv":"Vi\u00e8tnam","name:sa":"\u091a\u092e\u094d\u092a\u093e\u0926\u0947\u0936","name:ia":"Vietnam","name:pt":"Vietname","name:om":"Veetinaam","name:oc":"Vietnam","min_zoom":8.0,"name:ro":"Vietnam","name:zh-min-nan":"Oa\u030dt-l\u00e2m","name:os":"\u0412\u044c\u0435\u0442\u043d\u0430\u043c","name:or":"\u0b2d\u0b3f\u0b0f\u0b24\u0b28\u0b3e\u0b2e","name:pl":"Wietnam","name:st":"Vietnam","sort_rank":262,"name:sr":"\u0412\u0438\u0458\u0435\u0442\u043d\u0430\u043c","osm_relation":true,"name:pa":"\u0a35\u0a40\u0a05\u0a24\u0a28\u0a3e\u0a2e","name:tr":"Vietnam","name:hi":"\u0935\u093f\u092f\u0924\u0928\u093e\u092e","name:sv":"Vietnam","name:he":"\u05d5\u05d9\u05d9\u05d8\u05e0\u05d0\u05dd","name:hy":"\u054e\u056b\u0565\u057f\u0576\u0561\u0574","name:ht":"Vyetnam","name:hu":"Vietn\u00e1m","name:hr":"Vijetnam","kind":"country","name:is":"V\u00edetnam","name:yi":"\u05d5\u05d5\u05d9\u05e2\u05d8\u05e0\u05d0\u05dd","name:yo":"Fi\u1eb9tn\u00e1m","name:mt":"Vjetnam","alt_name:eo":"Vjetnamo;Vjetnamio","name:ms":"Vietnam","name:mr":"\u0935\u094d\u0939\u093f\u092f\u0947\u0924\u0928\u093e\u092e","name:my":"\u1017\u102e\u101a\u1000\u103a\u1014\u1019\u103a\u1014\u102d\u102f\u1004\u103a\u1004\u1036","name:mg":"Vietnam","name:ve":"Vi\u00ebtnam","name:ml":"\u0d35\u0d3f\u0d2f\u0d31\u0d4d\u0d31\u0d4d\u0d28\u0d3e\u0d02","name:mn":"\u0412\u044c\u0435\u0442\u043d\u0430\u043c","name:mi":"Whitin\u0101mu","id":-49915,"name:mk":"\u0412\u0438\u0435\u0442\u043d\u0430\u043c","name:vo":"Vietnam\u00e4n","name:fa":"\u0648\u06cc\u062a\u0646\u0627\u0645","name:ff":"Vietnam","name:fi":"Vietnam","name:ky":"\u0412\u044c\u0435\u0442\u043d\u0430\u043c","name:fo":"Vjetnam","name:fr":"Vi\u00eat Nam","name:fy":"Fjetnam","name:nl":"Vietnam","name:nn":"Vietnam","name:no":"Vietnam","name:na":"Bitinam","name:wa":"Vietnam","name:wo":"Wiyetnaam","name:nv":"Bi\u02bcednam","name:ga":"V\u00edtneam","name:gd":"Bhiet-Nam","name:gn":"Vietnam","name:gl":"Vietnam","maritime_boundary":true,"name:gv":"Yn Vietnam","name:gu":"\u0ab5\u0abf\u0aaf\u0ac7\u0aa4\u0aa8\u0abe\u0aae"},"arcs":[[0],[1]]},{"type":"LineString","properties":{"name:left:la":"Qu\u1ea3ng B\u00ecnh","name:left:lb":"Prov\u00ebnz Quang Binh","name:left:su":"Quang Binh","name:left:sw":"Quang Binh","name:left:sv":"Quang Binh","name:left:sq":"Provinca Quang Binh","name:left:lo":"\u0ec1\u0e82\u0ea7\u0e87\u0e81\u0ea7\u0eb2\u0e87\u0e9a\u0eb4\u0e99","name:left:wa":"Qu\u1ea3ng B\u00ecnh","name:left:sl":"Qu\u1ea3ng B\u00ecnh","name:left:so":"Quang Binh","name:left:lt":"Kvangbinio provincija","name:left:sk":"Qu\u1ea3ng B\u00ecnh","name:left:ht":"Quang Binh","name:left:hu":"Qu\u1ea3ng B\u00ecnh","name:left:sc":"Prov\u00ecntzia de Qu\u1ea3ng B\u00ecnh","name:left:ga":"Quang Binh","name:left:co":"Pruvincia di Quang Binh","name:left:it":"Provincia di Quang Binh","name:left:ch":"Probensia Quang Binh","sort_rank":256,"name:left:ca":"Prov\u00edncia de Qu\u1ea3ng B\u00ecnh","name:left:gl":"Provincia de Qu\u1ea3ng B\u00ecnh","source":"openstreetmap.org","name:right:ar":"\u0645\u062d\u0627\u0641\u0638\u0629 \u0643\u0648\u0627\u0646\u063a \u062a\u0634\u064a","name:left:cv":"\u041a\u0443\u0430\u043d\u0433\u0431\u0438\u043d\u044c","name:left:cs":"Qu\u1ea3ng B\u00ecnh","name:left":"T\u1ec9nh Qu\u1ea3ng B\u00ecnh","name:right:es":"Qu\u1ea3ng Tr\u1ecb","name:right:sr":"\u041a\u0432\u0430\u043d\u0433 \u0427\u0438","name:left:ko":"\uaf5d\ube48 \uc131","name:right:it":"Provincia di Quang Tri","name:left:ro":"Qu\u1ea3ng B\u00ecnh","name:right:vi":"Qu\u1ea3ng Tr\u1ecb","name:left:ve":"Quang Binh","name:right:ro":"Qu\u1ea3ng Tr\u1ecb","name:left:ru":"\u041a\u0443\u0430\u043d\u0433\u0431\u0438\u043d\u044c","name:left:vo":"Quang Binh","name:left:oc":"Prov\u00edncia de Quang Binh","name:right:id":"Provinsi Quang Tri","name:right:en":"Quang Tri province","name:left:uk":"\u041a\u0443\u0430\u043d\u0433\u0431\u0456\u043d\u044c","kind":"region","name":"T\u1ec9nh Qu\u1ea3ng B\u00ecnh - T\u1ec9nh Qu\u1ea3ng Tr\u1ecb","name:right:ur":"\u0642\u0648\u0627\u0646\u06af \u062a\u0631\u06cc \u0635\u0648\u0628\u06c1","name:right:ru":"\u041a\u0443\u0430\u043d\u0433\u0447\u0438","name:left:fa":"\u0627\u0633\u062a\u0627\u0646 \u06a9\u0648\u0627\u0646\u06af\u200c\u0628\u0646","name:right:fa":"\u0627\u0633\u062a\u0627\u0646 \u06a9\u0648\u0627\u0646\u06af \u062a\u0631\u06cc","min_zoom":8.0,"name:left:fi":"Qu\u1ea3ng B\u00ecnh","name:left:zh":"\u5ee3\u5e73\u7701","name:left:fr":"Province de Qu\u1ea3ng B\u00ecnh","name:left:da":"Quang Binh","name:right:zh":"\u5ee3\u6cbb\u7701","name:left:fy":"Kuang Binh","name:left:br":"Provi\u00f1s Quang Binh","name:right:no":"Quang Tri","name:right:nl":"Qu\u1ea3ng Tr\u1ecb","name:right:ja":"\u30af\u30a2\u30f3\u30c1","name:right:fr":"Province de Qu\u1ea3ng Tr\u1ecb","name:left:lv":"Kuanbi\u0146a","name:left:ur":"\u0642\u0648\u0627\u0646\u06af \u0628\u0646\u06c1 \u0635\u0648\u0628\u06c1","name:left:ja":"\u30af\u30a2\u30f3\u30d3\u30f3","name:right:sw":"Mkoa wa Qu\u1ea3ng Tr\u1ecb","name:right:sv":"Quang Tri","name:left:nn":"Quang Binh","name:left:no":"Quang Binh","name:left:nl":"Qu\u1ea3ng B\u00ecnh","name:left:bg":"\u041a\u0443\u0430\u043d\u0433 \u0411\u0438\u043d","name:left:be":"\u041a\u0443\u0430\u043d\u0433\u0431\u0456\u043d\u044c","name:right:pt":"Quang Tri","name:left:bn":"\u0995\u09c1\u09af\u09bc\u09be\u0982 \u09ac\u09bf\u09a8 \u09aa\u09cd\u09b0\u09a6\u09c7\u09b6","id":-1896050,"name:right":"T\u1ec9nh Qu\u1ea3ng Tr\u1ecb","name:left:eo":"Provinco Quang Binh","name:left:en":"Quang Binh province","name:left:jv":"Provinsi Quang Binh","name:left:hr":"Qu\u1ea3ng B\u00ecnh","id:left":-1896050,"name:left:es":"Qu\u1ea3ng B\u00ecnh","name:right:cs":"Quang Tri","name:right:fi":"Qu\u1ea3ng Tr\u1ecb","id:right":-1895630,"name:left:os":"\u041a\u0443\u0430\u043d\u0433\u0431\u0438\u043d\u044c","name:left:eu":"Quang Binh probintzia","name:left:et":"Qu\u1ea3ng B\u00ecnhi provints","osm_relation":true,"name:left:ik":"Quang Binh","name:left:pa":"\u0a15\u0a42\u0a0f\u0a02\u0a17 \u0a2c\u0a3f\u0a28\u0a3e\u0a39 \u0a38\u0a42\u0a2c\u0a3e","name:left:pl":"Prowincja Qu\u1ea3ng B\u00ecnh","name:left:tr":"Quang Binh","name:left:id":"Provinsi Quang Binh","name:left:ia":"Provincia Quang Binh","name:right:bg":"\u041a\u0443\u0430\u043d\u0433 \u0427\u0438","name:left:pt":"Quang Binh","name:left:af":"Quang Binh","name:left:tl":"Quang Binh","name:right:ko":"\uaf5d\ucc0c \uc131","name:left:mt":"Provin\u010bja ta' Qu\u1ea3ng B\u00ecnh","name:left:sr":"\u041a\u0432\u0430\u043d\u0433 \u0411\u0438\u045a","name:left:an":"Qu\u1ea3ng B\u00ecnh","name:right:tg":"\u0412\u0438\u043b\u043e\u044f\u0442\u0438 \u041a\u0443\u0430\u043d\u0433 \u0422\u0440\u0438\u0439","name:right:pl":"Prowincja Qu\u1ea3ng Tr\u1ecb","name:right:uk":"\u041a\u0443\u0430\u043d\u0433\u0447\u0456","name:left:tg":"\u0412\u0438\u043b\u043e\u044f\u0442\u0438 \u041a\u0443\u0430\u043d\u0433 \u0411\u0438\u043d","name:left:th":"\u0e08\u0e31\u0e07\u0e2b\u0e27\u0e31\u0e14\u0e01\u0e27\u0e4b\u0e32\u0e07\u0e1a\u0e34\u0e48\u0e0d","name:right:de":"Qu\u1ea3ng Tr\u1ecb","name:left:ar":"\u0645\u062d\u0627\u0641\u0638\u0629 \u0643\u0648\u0627\u0646\u063a \u0628\u0646\u0647","name:left:ms":"Quang Binh","name:left:de":"Qu\u1ea3ng B\u00ecnh","name:left:ie":"Quang Binh","kind_detail":"4","name:right:th":"\u0e08\u0e31\u0e07\u0e2b\u0e27\u0e31\u0e14\u0e01\u0e27\u0e4b\u0e32\u0e07\u0e08\u0e34"},"arcs":[2]},{"type":"LineString","properties":{"name:left:la":"Qu\u1ea3ng B\u00ecnh","name:left:lb":"Prov\u00ebnz Quang Binh","name:left:su":"Quang Binh","name:left:sw":"Quang Binh","name:left:sv":"Quang Binh","name:left:sq":"Provinca Quang Binh","name:left:lo":"\u0ec1\u0e82\u0ea7\u0e87\u0e81\u0ea7\u0eb2\u0e87\u0e9a\u0eb4\u0e99","name:left:wa":"Qu\u1ea3ng B\u00ecnh","name:left:sl":"Qu\u1ea3ng B\u00ecnh","name:left:so":"Quang Binh","name:left:lt":"Kvangbinio provincija","name:right:sv":"Quang Tri","name:left:sk":"Qu\u1ea3ng B\u00ecnh","name:left:ht":"Quang Binh","name:left:hu":"Qu\u1ea3ng B\u00ecnh","name:left:oc":"Prov\u00edncia de Quang Binh","name:left:sc":"Prov\u00ecntzia de Qu\u1ea3ng B\u00ecnh","name:left:ga":"Quang Binh","name:left:co":"Pruvincia di Quang Binh","name:right:tg":"\u0412\u0438\u043b\u043e\u044f\u0442\u0438 \u041a\u0443\u0430\u043d\u0433 \u0422\u0440\u0438\u0439","name:left:ch":"Probensia Quang Binh","sort_rank":256,"name:right:vi":"Qu\u1ea3ng Tr\u1ecb","name:left:bn":"\u0995\u09c1\u09af\u09bc\u09be\u0982 \u09ac\u09bf\u09a8 \u09aa\u09cd\u09b0\u09a6\u09c7\u09b6","name:left:ca":"Prov\u00edncia de Qu\u1ea3ng B\u00ecnh","name:left:gl":"Provincia de Qu\u1ea3ng B\u00ecnh","source":"openstreetmap.org","name:right:ar":"\u0645\u062d\u0627\u0641\u0638\u0629 \u0643\u0648\u0627\u0646\u063a \u062a\u0634\u064a","name:left:cv":"\u041a\u0443\u0430\u043d\u0433\u0431\u0438\u043d\u044c","name:left:cs":"Qu\u1ea3ng B\u00ecnh","name:left":"T\u1ec9nh Qu\u1ea3ng B\u00ecnh","name:right:es":"Qu\u1ea3ng Tr\u1ecb","name:left:ja":"\u30af\u30a2\u30f3\u30d3\u30f3","name:left:pt":"Quang Binh","name:left:ko":"\uaf5d\ube48 \uc131","name:right:it":"Provincia di Quang Tri","name:left:ro":"Qu\u1ea3ng B\u00ecnh","name:right:ru":"\u041a\u0443\u0430\u043d\u0433\u0447\u0438","name:left:ve":"Quang Binh","name:right:ro":"Qu\u1ea3ng Tr\u1ecb","name:left:ru":"\u041a\u0443\u0430\u043d\u0433\u0431\u0438\u043d\u044c","name:left:vo":"Quang Binh","min_zoom":8.0,"name:right:id":"Provinsi Quang Tri","name:right:en":"Quang Tri province","name:left:nn":"Quang Binh","kind":"region","name":"T\u1ec9nh Qu\u1ea3ng B\u00ecnh - T\u1ec9nh Qu\u1ea3ng Tr\u1ecb","name:right:ur":"\u0642\u0648\u0627\u0646\u06af \u062a\u0631\u06cc \u0635\u0648\u0628\u06c1","name:left:fa":"\u0627\u0633\u062a\u0627\u0646 \u06a9\u0648\u0627\u0646\u06af\u200c\u0628\u0646","name:right:bg":"\u041a\u0443\u0430\u043d\u0433 \u0427\u0438","name:left:fi":"Qu\u1ea3ng B\u00ecnh","name:left:zh":"\u5ee3\u5e73\u7701","name:left:fr":"Province de Qu\u1ea3ng B\u00ecnh","name:right:de":"Qu\u1ea3ng Tr\u1ecb","name:right:zh":"\u5ee3\u6cbb\u7701","name:left:fy":"Kuang Binh","name:left:br":"Provi\u00f1s Quang Binh","name:right:no":"Quang Tri","name:right:nl":"Qu\u1ea3ng Tr\u1ecb","name:right:ja":"\u30af\u30a2\u30f3\u30c1","name:right:fr":"Province de Qu\u1ea3ng Tr\u1ecb","name:left:lv":"Kuanbi\u0146a","name:left:ur":"\u0642\u0648\u0627\u0646\u06af \u0628\u0646\u06c1 \u0635\u0648\u0628\u06c1","name:right:sr":"\u041a\u0432\u0430\u043d\u0433 \u0427\u0438","name:right:sw":"Mkoa wa Qu\u1ea3ng Tr\u1ecb","id:right":-1895630,"name:left:uk":"\u041a\u0443\u0430\u043d\u0433\u0431\u0456\u043d\u044c","name:left:no":"Quang Binh","name:left:nl":"Qu\u1ea3ng B\u00ecnh","name:left:be":"\u041a\u0443\u0430\u043d\u0433\u0431\u0456\u043d\u044c","name:left:bg":"\u041a\u0443\u0430\u043d\u0433 \u0411\u0438\u043d","name:right:fa":"\u0627\u0633\u062a\u0627\u0646 \u06a9\u0648\u0627\u0646\u06af \u062a\u0631\u06cc","name:left:ik":"Quang Binh","name:left:jv":"Provinsi Quang Binh","id":-1896050,"name:right":"T\u1ec9nh Qu\u1ea3ng Tr\u1ecb","name:left:eo":"Provinco Quang Binh","name:left:en":"Quang Binh province","name:right:uk":"\u041a\u0443\u0430\u043d\u0433\u0447\u0456","kind_detail":"4","name:left:hr":"Qu\u1ea3ng B\u00ecnh","id:left":-1896050,"name:left:es":"Qu\u1ea3ng B\u00ecnh","name:right:cs":"Quang Tri","name:right:fi":"Qu\u1ea3ng Tr\u1ecb","name:left:os":"\u041a\u0443\u0430\u043d\u0433\u0431\u0438\u043d\u044c","name:left:eu":"Quang Binh probintzia","name:left:et":"Qu\u1ea3ng B\u00ecnhi provints","name:right:pt":"Quang Tri","name:left:pa":"\u0a15\u0a42\u0a0f\u0a02\u0a17 \u0a2c\u0a3f\u0a28\u0a3e\u0a39 \u0a38\u0a42\u0a2c\u0a3e","name:left:pl":"Prowincja Qu\u1ea3ng B\u00ecnh","name:left:tr":"Quang Binh","name:left:id":"Provinsi Quang Binh","name:left:ia":"Provincia Quang Binh","name:left:th":"\u0e08\u0e31\u0e07\u0e2b\u0e27\u0e31\u0e14\u0e01\u0e27\u0e4b\u0e32\u0e07\u0e1a\u0e34\u0e48\u0e0d","name:left:af":"Quang Binh","name:left:tl":"Quang Binh","name:right:ko":"\uaf5d\ucc0c \uc131","name:left:mt":"Provin\u010bja ta' Qu\u1ea3ng B\u00ecnh","name:left:sr":"\u041a\u0432\u0430\u043d\u0433 \u0411\u0438\u045a","name:left:an":"Qu\u1ea3ng B\u00ecnh","name:left:it":"Provincia di Quang Binh","name:right:pl":"Prowincja Qu\u1ea3ng Tr\u1ecb","osm_relation":true,"name:left:tg":"\u0412\u0438\u043b\u043e\u044f\u0442\u0438 \u041a\u0443\u0430\u043d\u0433 \u0411\u0438\u043d","name:left:ms":"Quang Binh","name:left:da":"Quang Binh","name:left:ar":"\u0645\u062d\u0627\u0641\u0638\u0629 \u0643\u0648\u0627\u0646\u063a \u0628\u0646\u0647","name:left:de":"Qu\u1ea3ng B\u00ecnh","name:left:ie":"Quang Binh","maritime_boundary":true,"name:right:th":"\u0e08\u0e31\u0e07\u0e2b\u0e27\u0e31\u0e14\u0e01\u0e27\u0e4b\u0e32\u0e07\u0e08\u0e34"},"arcs":[3]},{"type":"MultiLineString","properties":{"name:wa":"Qu\u1ea3ng B\u00ecnh","name:pt":"Quang Binh","name:ko":"\uaf5d\ube48 \uc131","name:cv":"\u041a\u0443\u0430\u043d\u0433\u0431\u0438\u043d\u044c","name:cs":"Qu\u1ea3ng B\u00ecnh","name:co":"Pruvincia di Quang Binh","min_zoom":8.0,"name:tl":"Quang Binh","name:ch":"Probensia Quang Binh","name:os":"\u041a\u0443\u0430\u043d\u0433\u0431\u0438\u043d\u044c","name:pl":"Prowincja Qu\u1ea3ng B\u00ecnh","name:tg":"\u0412\u0438\u043b\u043e\u044f\u0442\u0438 \u041a\u0443\u0430\u043d\u0433 \u0411\u0438\u043d","name:ca":"Prov\u00edncia de Qu\u1ea3ng B\u00ecnh","sort_rank":256,"name:da":"Quang Binh","name:de":"Qu\u1ea3ng B\u00ecnh","source":"openstreetmap.org","osm_relation":true,"name:pa":"\u0a15\u0a42\u0a0f\u0a02\u0a17 \u0a2c\u0a3f\u0a28\u0a3e\u0a39 \u0a38\u0a42\u0a2c\u0a3e","name:lv":"Kuanbi\u0146a","name:tr":"Quang Binh","name:sv":"Quang Binh","name:eo":"Provinco Quang Binh","name:ur":"\u0642\u0648\u0627\u0646\u06af \u0628\u0646\u06c1 \u0635\u0648\u0628\u06c1","name:lb":"Prov\u00ebnz Quang Binh","name:la":"Qu\u1ea3ng B\u00ecnh","name:uk":"\u041a\u0443\u0430\u043d\u0433\u0431\u0456\u043d\u044c","name:ht":"Quang Binh","name:hu":"Qu\u1ea3ng B\u00ecnh","name:hr":"Qu\u1ea3ng B\u00ecnh","name:lo":"\u0ec1\u0e82\u0ea7\u0e87\u0e81\u0ea7\u0eb2\u0e87\u0e9a\u0eb4\u0e99","name:oc":"Prov\u00edncia de Quang Binh","kind":"region","name:en":"Quang Binh province","name":"T\u1ec9nh Qu\u1ea3ng B\u00ecnh","name:th":"\u0e08\u0e31\u0e07\u0e2b\u0e27\u0e31\u0e14\u0e01\u0e27\u0e4b\u0e32\u0e07\u0e1a\u0e34\u0e48\u0e0d","name:eu":"Quang Binh probintzia","name:et":"Qu\u1ea3ng B\u00ecnhi provints","name:nl":"Qu\u1ea3ng B\u00ecnh","name:es":"Qu\u1ea3ng B\u00ecnh","name:it":"Provincia di Quang Binh","name:ia":"Provincia Quang Binh","name:mt":"Provin\u010bja ta' Qu\u1ea3ng B\u00ecnh","name:ro":"Qu\u1ea3ng B\u00ecnh","name:ie":"Quang Binh","name:id":"Provinsi Quang Binh","name:ms":"Quang Binh","name:ik":"Quang Binh","name:ar":"\u0645\u062d\u0627\u0641\u0638\u0629 \u0643\u0648\u0627\u0646\u063a \u0628\u0646\u0647","name:ve":"Quang Binh","name:an":"Qu\u1ea3ng B\u00ecnh","name:ru":"\u041a\u0443\u0430\u043d\u0433\u0431\u0438\u043d\u044c","id":-1896050,"name:af":"Quang Binh","name:fa":"\u0627\u0633\u062a\u0627\u0646 \u06a9\u0648\u0627\u0646\u06af\u200c\u0628\u0646","name:lt":"Kvangbinio provincija","kind_detail":"4","name:fr":"Province de Qu\u1ea3ng B\u00ecnh","name:fy":"Kuang Binh","name:vo":"Quang Binh","name:zh":"\u5ee3\u5e73\u7701","name:so":"Quang Binh","name:sl":"Qu\u1ea3ng B\u00ecnh","name:sk":"Qu\u1ea3ng B\u00ecnh","name:ja":"\u30af\u30a2\u30f3\u30d3\u30f3","name:nn":"Quang Binh","name:no":"Quang Binh","name:sc":"Prov\u00ecntzia de Qu\u1ea3ng B\u00ecnh","name:br":"Provi\u00f1s Quang Binh","name:jv":"Provinsi Quang Binh","name:sw":"Quang Binh","name:be":"\u041a\u0443\u0430\u043d\u0433\u0431\u0456\u043d\u044c","name:su":"Quang Binh","name:bg":"\u041a\u0443\u0430\u043d\u0433 \u0411\u0438\u043d","name:sr":"\u041a\u0432\u0430\u043d\u0433 \u0411\u0438\u045a","name:sq":"Provinca Quang Binh","name:ga":"Quang Binh","name:bn":"\u0995\u09c1\u09af\u09bc\u09be\u0982 \u09ac\u09bf\u09a8 \u09aa\u09cd\u09b0\u09a6\u09c7\u09b6","name:gl":"Provincia de Qu\u1ea3ng B\u00ecnh","maritime_boundary":true,"name:fi":"Qu\u1ea3ng B\u00ecnh"},"arcs":[[4],[5]]},{"type":"MultiLineString","properties":{"name:right:uk":"\u0422\u0445\u0438\u0430\u0442\u0445\u044c\u0454\u043d-\u0425\u044e\u0435","name:left:sw":"Mkoa wa Qu\u1ea3ng Tr\u1ecb","name:left:sv":"Quang Tri","name:left:sr":"\u041a\u0432\u0430\u043d\u0433 \u0427\u0438","name:right:ur":"\u062a\u06be\u0648\u0627 \u062a\u06be\u06cc\u0626\u0646-\u06c1\u0648\u0627\u0626\u06d2 \u0635\u0648\u0628\u06c1","min_zoom":8.0,"name:right:tg":"\u0412\u0438\u043b\u043e\u044f\u0442\u0438 \u0422\u0443\u0430 \u0422\u0438\u0435\u043d-\u0425\u0443","sort_rank":256,"source":"openstreetmap.org","name:right:ar":"\u0645\u062d\u0627\u0641\u0638\u0629 \u062a\u0647\u0648\u0627 \u062a\u0647\u064a\u0646 \u0647\u0648\u064a\u0647","name:left:cs":"Quang Tri","name:left":"T\u1ec9nh Qu\u1ea3ng Tr\u1ecb","name:right:es":"Th\u1eeba Thi\u00ean-Hu\u1ebf","name:left:ja":"\u30af\u30a2\u30f3\u30c1","name:left:ko":"\uaf5d\ucc0c \uc131","name:right:it":"Provincia di Thua Thien-Hue","name:left:ro":"Qu\u1ea3ng Tr\u1ecb","name:right:vi":"Th\u1eeba Thi\u00ean - Hu\u1ebf","name:right:ro":"Th\u1eeba Thi\u00ean - Hu\u1ebf","name:left:ru":"\u041a\u0443\u0430\u043d\u0433\u0447\u0438","name:right:id":"Provinsi Thua Thien-Hue","name:right:en":"Th\u1eeba Thi\u00ean-Hu\u1ebf Province","name:left:vi":"Qu\u1ea3ng Tr\u1ecb","kind":"region","name":"T\u1ec9nh Qu\u1ea3ng Tr\u1ecb - T\u1ec9nh Th\u1eeba Thi\u00ean - Hu\u1ebf","name:left:fa":"\u0627\u0633\u062a\u0627\u0646 \u06a9\u0648\u0627\u0646\u06af \u062a\u0631\u06cc","name:right:bg":"\u0422\u0445\u0443\u0430 \u0422\u0445\u0438\u0435\u043d-\u0425\u044e\u0435","name:left:fi":"Qu\u1ea3ng Tr\u1ecb","name:left:zh":"\u5ee3\u6cbb\u7701","name:left:fr":"Province de Qu\u1ea3ng Tr\u1ecb","name:right:zh":"\u627f\u5929\u9806\u5316\u7701","name:right:no":"Thua Thien-Hue","name:right:nl":"Th\u1eeba Thi\u00ean-Hu\u1ebf","name:right:ja":"\u30c8\u30a5\u30a2\u30c6\u30a3\u30a8\u30f3\uff1d\u30d5\u30a8","name:right:fr":"Province de Th\u1eeba Thi\u00ean-Hu\u1ebf","name:left:ur":"\u0642\u0648\u0627\u0646\u06af \u062a\u0631\u06cc \u0635\u0648\u0628\u06c1","name:right:sr":"\u0422\u0438\u0458\u0430 \u0422\u0438\u0458\u0435\u043d \u2014 \u0425\u0443\u0435","name:right:sw":"Mkoa wa Th\u1eeba Thi\u00ean - Hu\u1ebf","name:right:sv":"Thua Thien-Hu\u00e9","name:left:uk":"\u041a\u0443\u0430\u043d\u0433\u0447\u0456","name:left:no":"Quang Tri","name:left:nl":"Qu\u1ea3ng Tr\u1ecb","name:left:bg":"\u041a\u0443\u0430\u043d\u0433 \u0427\u0438","name:right:fa":"\u0627\u0633\u062a\u0627\u0646 \u062a\u0648\u0627 \u062a\u06cc\u0646\u2013\u0647\u0648\u0626\u0647","id":-1895630,"name:right":"T\u1ec9nh Th\u1eeba Thi\u00ean - Hu\u1ebf","name:left:en":"Quang Tri province","kind_detail":"4","id:left":-1895630,"name:left:es":"Qu\u1ea3ng Tr\u1ecb","name:right:fi":"Th\u1eeba Thi\u00ean-Hu\u1ebf","id:right":-1891483,"name:right:pt":"Thua Thien-Hue","name:left:ar":"\u0645\u062d\u0627\u0641\u0638\u0629 \u0643\u0648\u0627\u0646\u063a \u062a\u0634\u064a","name:left:pl":"Prowincja Qu\u1ea3ng Tr\u1ecb","name:left:id":"Provinsi Quang Tri","name:right:ko":"\ud22c\uc544\ud2f0\uc5d4\ud6c4\uc5d0 \uc131","name:left:th":"\u0e08\u0e31\u0e07\u0e2b\u0e27\u0e31\u0e14\u0e01\u0e27\u0e4b\u0e32\u0e07\u0e08\u0e34","name:right:th":"\u0e08\u0e31\u0e07\u0e2b\u0e27\u0e31\u0e14\u0e40\u0e16\u0e37\u0e48\u0e2d\u0e40\u0e17\u0e35\u0e22\u0e19-\u0e40\u0e27\u0e49","name:right:ru":"\u0422\u0445\u044b\u0430\u0442\u0445\u044c\u0435\u043d-\u0425\u044e\u044d","name:right:pl":"Prowincja Th\u1eeba Thi\u00ean-Hu\u1ebf","osm_relation":true,"name:left:tg":"\u0412\u0438\u043b\u043e\u044f\u0442\u0438 \u041a\u0443\u0430\u043d\u0433 \u0422\u0440\u0438\u0439","name:left:pt":"Quang Tri","name:right:de":"Th\u1eeba Thi\u00ean-Hu\u1ebf","name:left:de":"Qu\u1ea3ng Tr\u1ecb","name:left:it":"Provincia di Quang Tri"},"arcs":[[6],[7]]},{"type":"LineString","properties":{"name:right:uk":"\u0422\u0445\u0438\u0430\u0442\u0445\u044c\u0454\u043d-\u0425\u044e\u0435","name:left:sw":"Mkoa wa Qu\u1ea3ng Tr\u1ecb","name:left:sv":"Quang Tri","name:left:sr":"\u041a\u0432\u0430\u043d\u0433 \u0427\u0438","name:right:ur":"\u062a\u06be\u0648\u0627 \u062a\u06be\u06cc\u0626\u0646-\u06c1\u0648\u0627\u0626\u06d2 \u0635\u0648\u0628\u06c1","min_zoom":8.0,"name:right:id":"Provinsi Thua Thien-Hue","sort_rank":256,"source":"openstreetmap.org","name:right:ar":"\u0645\u062d\u0627\u0641\u0638\u0629 \u062a\u0647\u0648\u0627 \u062a\u0647\u064a\u0646 \u0647\u0648\u064a\u0647","name:left:cs":"Quang Tri","name:left":"T\u1ec9nh Qu\u1ea3ng Tr\u1ecb","name:right:es":"Th\u1eeba Thi\u00ean-Hu\u1ebf","name:right:sr":"\u0422\u0438\u0458\u0430 \u0422\u0438\u0458\u0435\u043d \u2014 \u0425\u0443\u0435","name:left:ko":"\uaf5d\ucc0c \uc131","name:right:it":"Provincia di Thua Thien-Hue","name:left:ro":"Qu\u1ea3ng Tr\u1ecb","name:right:vi":"Th\u1eeba Thi\u00ean - Hu\u1ebf","name:right:ro":"Th\u1eeba Thi\u00ean - Hu\u1ebf","name:left:ru":"\u041a\u0443\u0430\u043d\u0433\u0447\u0438","name:right:sv":"Thua Thien-Hu\u00e9","name:right:en":"Th\u1eeba Thi\u00ean-Hu\u1ebf Province","name:left:vi":"Qu\u1ea3ng Tr\u1ecb","kind":"region","name":"T\u1ec9nh Qu\u1ea3ng Tr\u1ecb - T\u1ec9nh Th\u1eeba Thi\u00ean - Hu\u1ebf","name:left:fa":"\u0627\u0633\u062a\u0627\u0646 \u06a9\u0648\u0627\u0646\u06af \u062a\u0631\u06cc","name:right:ru":"\u0422\u0445\u044b\u0430\u0442\u0445\u044c\u0435\u043d-\u0425\u044e\u044d","name:right:bg":"\u0422\u0445\u0443\u0430 \u0422\u0445\u0438\u0435\u043d-\u0425\u044e\u0435","name:left:fi":"Qu\u1ea3ng Tr\u1ecb","name:left:zh":"\u5ee3\u6cbb\u7701","name:left:fr":"Province de Qu\u1ea3ng Tr\u1ecb","name:right:zh":"\u627f\u5929\u9806\u5316\u7701","name:right:no":"Thua Thien-Hue","name:right:nl":"Th\u1eeba Thi\u00ean-Hu\u1ebf","name:right:ja":"\u30c8\u30a5\u30a2\u30c6\u30a3\u30a8\u30f3\uff1d\u30d5\u30a8","name:right:fr":"Province de Th\u1eeba Thi\u00ean-Hu\u1ebf","name:left:ur":"\u0642\u0648\u0627\u0646\u06af \u062a\u0631\u06cc \u0635\u0648\u0628\u06c1","name:left:ja":"\u30af\u30a2\u30f3\u30c1","name:right:sw":"Mkoa wa Th\u1eeba Thi\u00ean - Hu\u1ebf","id:right":-1891483,"name:left:uk":"\u041a\u0443\u0430\u043d\u0433\u0447\u0456","name:left:no":"Quang Tri","name:left:nl":"Qu\u1ea3ng Tr\u1ecb","name:left:bg":"\u041a\u0443\u0430\u043d\u0433 \u0427\u0438","name:right:fa":"\u0627\u0633\u062a\u0627\u0646 \u062a\u0648\u0627 \u062a\u06cc\u0646\u2013\u0647\u0648\u0626\u0647","id":-1895630,"name:right":"T\u1ec9nh Th\u1eeba Thi\u00ean - Hu\u1ebf","name:left:en":"Quang Tri province","kind_detail":"4","id:left":-1895630,"name:left:es":"Qu\u1ea3ng Tr\u1ecb","name:right:fi":"Th\u1eeba Thi\u00ean-Hu\u1ebf","name:right:pt":"Thua Thien-Hue","name:left:ar":"\u0645\u062d\u0627\u0641\u0638\u0629 \u0643\u0648\u0627\u0646\u063a \u062a\u0634\u064a","name:left:pl":"Prowincja Qu\u1ea3ng Tr\u1ecb","name:left:id":"Provinsi Quang Tri","name:right:ko":"\ud22c\uc544\ud2f0\uc5d4\ud6c4\uc5d0 \uc131","name:left:th":"\u0e08\u0e31\u0e07\u0e2b\u0e27\u0e31\u0e14\u0e01\u0e27\u0e4b\u0e32\u0e07\u0e08\u0e34","name:right:th":"\u0e08\u0e31\u0e07\u0e2b\u0e27\u0e31\u0e14\u0e40\u0e16\u0e37\u0e48\u0e2d\u0e40\u0e17\u0e35\u0e22\u0e19-\u0e40\u0e27\u0e49","name:right:tg":"\u0412\u0438\u043b\u043e\u044f\u0442\u0438 \u0422\u0443\u0430 \u0422\u0438\u0435\u043d-\u0425\u0443","name:right:pl":"Prowincja Th\u1eeba Thi\u00ean-Hu\u1ebf","osm_relation":true,"name:left:tg":"\u0412\u0438\u043b\u043e\u044f\u0442\u0438 \u041a\u0443\u0430\u043d\u0433 \u0422\u0440\u0438\u0439","name:left:pt":"Quang Tri","name:right:de":"Th\u1eeba Thi\u00ean-Hu\u1ebf","name:left:de":"Qu\u1ea3ng Tr\u1ecb","name:left:it":"Provincia di Quang Tri","maritime_boundary":true},"arcs":[8]},{"type":"LineString","properties":{"name:pt":"Quang Tri","name:ro":"Qu\u1ea3ng Tr\u1ecb","name:id":"Provinsi Quang Tri","name:ko":"\uaf5d\ucc0c \uc131","name:ar":"\u0645\u062d\u0627\u0641\u0638\u0629 \u0643\u0648\u0627\u0646\u063a \u062a\u0634\u064a","name:cs":"Quang Tri","name:th":"\u0e08\u0e31\u0e07\u0e2b\u0e27\u0e31\u0e14\u0e01\u0e27\u0e4b\u0e32\u0e07\u0e08\u0e34","name:it":"Provincia di Quang Tri","name:vi":"Qu\u1ea3ng Tr\u1ecb","name:ru":"\u041a\u0443\u0430\u043d\u0433\u0447\u0438","name:pl":"Prowincja Qu\u1ea3ng Tr\u1ecb","id":-1895630,"name:fa":"\u0627\u0633\u062a\u0627\u0646 \u06a9\u0648\u0627\u0646\u06af \u062a\u0631\u06cc","sort_rank":256,"kind_detail":"4","name:de":"Qu\u1ea3ng Tr\u1ecb","source":"openstreetmap.org","name:fr":"Province de Qu\u1ea3ng Tr\u1ecb","name:tg":"\u0412\u0438\u043b\u043e\u044f\u0442\u0438 \u041a\u0443\u0430\u043d\u0433 \u0422\u0440\u0438\u0439","name:nl":"Qu\u1ea3ng Tr\u1ecb","name:ja":"\u30af\u30a2\u30f3\u30c1","name:no":"Quang Tri","name:ur":"\u0642\u0648\u0627\u0646\u06af \u062a\u0631\u06cc \u0635\u0648\u0628\u06c1","name:uk":"\u041a\u0443\u0430\u043d\u0433\u0447\u0456","name:sw":"Mkoa wa Qu\u1ea3ng Tr\u1ecb","name:sv":"Quang Tri","name:bg":"\u041a\u0443\u0430\u043d\u0433 \u0427\u0438","name:sr":"\u041a\u0432\u0430\u043d\u0433 \u0427\u0438","osm_relation":true,"kind":"region","name:en":"Quang Tri province","name":"T\u1ec9nh Qu\u1ea3ng Tr\u1ecb","name:zh":"\u5ee3\u6cbb\u7701","min_zoom":8.0,"maritime_boundary":true,"name:fi":"Qu\u1ea3ng Tr\u1ecb","name:es":"Qu\u1ea3ng Tr\u1ecb"},"arcs":[9]},{"type":"LineString","properties":{"name:pt":"Thua Thien-Hue","name:ro":"Th\u1eeba Thi\u00ean - Hu\u1ebf","name:id":"Provinsi Thua Thien-Hue","name:ko":"\ud22c\uc544\ud2f0\uc5d4\ud6c4\uc5d0 \uc131","name:ar":"\u0645\u062d\u0627\u0641\u0638\u0629 \u062a\u0647\u0648\u0627 \u062a\u0647\u064a\u0646 \u0647\u0648\u064a\u0647","name:th":"\u0e08\u0e31\u0e07\u0e2b\u0e27\u0e31\u0e14\u0e40\u0e16\u0e37\u0e48\u0e2d\u0e40\u0e17\u0e35\u0e22\u0e19-\u0e40\u0e27\u0e49","name:it":"Provincia di Thua Thien-Hue","name:vi":"Th\u1eeba Thi\u00ean - Hu\u1ebf","name:ru":"\u0422\u0445\u044b\u0430\u0442\u0445\u044c\u0435\u043d-\u0425\u044e\u044d","name:pl":"Prowincja Th\u1eeba Thi\u00ean-Hu\u1ebf","id":-1891483,"name:fa":"\u0627\u0633\u062a\u0627\u0646 \u062a\u0648\u0627 \u062a\u06cc\u0646\u2013\u0647\u0648\u0626\u0647","sort_rank":256,"kind_detail":"4","name:de":"Th\u1eeba Thi\u00ean-Hu\u1ebf","source":"openstreetmap.org","name:fr":"Province de Th\u1eeba Thi\u00ean-Hu\u1ebf","name:tg":"\u0412\u0438\u043b\u043e\u044f\u0442\u0438 \u0422\u0443\u0430 \u0422\u0438\u0435\u043d-\u0425\u0443","name:nl":"Th\u1eeba Thi\u00ean-Hu\u1ebf","name:ja":"\u30c8\u30a5\u30a2\u30c6\u30a3\u30a8\u30f3\uff1d\u30d5\u30a8","name:no":"Thua Thien-Hue","name:ur":"\u062a\u06be\u0648\u0627 \u062a\u06be\u06cc\u0626\u0646-\u06c1\u0648\u0627\u0626\u06d2 \u0635\u0648\u0628\u06c1","name:uk":"\u0422\u0445\u0438\u0430\u0442\u0445\u044c\u0454\u043d-\u0425\u044e\u0435","name:sw":"Mkoa wa Th\u1eeba Thi\u00ean - Hu\u1ebf","name:sv":"Thua Thien-Hu\u00e9","name:bg":"\u0422\u0445\u0443\u0430 \u0422\u0445\u0438\u0435\u043d-\u0425\u044e\u0435","name:sr":"\u0422\u0438\u0458\u0430 \u0422\u0438\u0458\u0435\u043d \u2014 \u0425\u0443\u0435","osm_relation":true,"kind":"region","name:en":"Th\u1eeba Thi\u00ean-Hu\u1ebf Province","name":"T\u1ec9nh Th\u1eeba Thi\u00ean - Hu\u1ebf","name:zh":"\u627f\u5929\u9806\u5316\u7701","min_zoom":8.0,"maritime_boundary":true,"name:fi":"Th\u1eeba Thi\u00ean-Hu\u1ebf","name:es":"Th\u1eeba Thi\u00ean-Hu\u1ebf"},"arcs":[10]}]},"roads":{"type":"GeometryCollection","geometries":[{"type":"LineString","properties":{"kind":"major_road","name:en":"Ho Chi Minh Highway","network":"VI-roads","sort_rank":381,"kind_detail":"trunk","source":"openstreetmap.org","min_zoom":8.0,"shield_text":null,"ref":"15","id":109489057},"arcs":[15]},{"type":"LineString","properties":{"source":"openstreetmap.org","kind":"major_road","sort_rank":380,"kind_detail":"primary","ref":"49B","min_zoom":8.0},"arcs":[16]},{"type":"LineString","properties":{"source":"openstreetmap.org","kind":"major_road","sort_rank":381,"kind_detail":"trunk","min_zoom":8.0,"id":319580725},"arcs":[17]},{"type":"MultiLineString","properties":{"sort_rank":380,"kind_detail":"primary","min_zoom":8.0,"kind":"major_road","source":"openstreetmap.org"},"arcs":[[18],[19],[20]]},{"type":"MultiLineString","properties":{"source":"openstreetmap.org","kind":"major_road","sort_rank":380,"kind_detail":"primary","ref":"QL9","min_zoom":8.0},"arcs":[[21],[22]]},{"type":"MultiLineString","properties":{"kind":"major_road","network":"Asian Highway","sort_rank":381,"kind_detail":"trunk","source":"openstreetmap.org","min_zoom":8.0,"shield_text":"1","ref":"1A"},"arcs":[[23],[24],[25],[26],[27],[28],[29],[30],[31],[32],[33],[34]]},{"type":"LineString","properties":{"kind":"major_road","name:en":"New Hien Luong Bridge","network":"Asian Highway","sort_rank":381,"kind_detail":"trunk","source":"openstreetmap.org","min_zoom":8.0,"shield_text":"1","name:zh":"\u8d24\u826f\u65b0\u6865","ref":"1A","id":87429756},"arcs":[35]},{"type":"LineString","properties":{"source":"openstreetmap.org","kind":"major_road","sort_rank":380,"kind_detail":"primary","ref":"9B","min_zoom":8.0},"arcs":[36]},{"type":"LineString","properties":{"kind":"major_road","name:en":"Dong Ha Bridge","network":"Asian Highway","sort_rank":381,"kind_detail":"trunk","source":"openstreetmap.org","min_zoom":8.0,"shield_text":"1","name:zh":"\u4e1c\u6cb3\u6865","ref":"1A","id":87628833},"arcs":[37]},{"type":"MultiLineString","properties":{"source":"openstreetmap.org","kind":"major_road","sort_rank":380,"kind_detail":"primary","ref":"QL.9","min_zoom":8.0},"arcs":[[38],[39]]},{"type":"LineString","properties":{"source":"openstreetmap.org","kind":"major_road","sort_rank":380,"kind_detail":"primary","ref":"9","min_zoom":8.0,"id":148737165},"arcs":[40]},{"type":"LineString","properties":{"source":"openstreetmap.org","kind":"major_road","sort_rank":380,"kind_detail":"primary","ref":"DHCM","min_zoom":8.0},"arcs":[41]}]},"earth":{"type":"GeometryCollection","geometries":[{"type":"MultiPolygon","properties":{"sort_rank":10,"source":"naturalearthdata.com","min_zoom":0.0,"kind":"earth","area":15711402441},"arcs":[[[42]]]}]},"landuse":{"type":"GeometryCollection","geometries":[]}},"type":"Topology","transform":{"translate":[106.875,16.6361918784],"scale":[0.0003433228,0.0003277689]},"arcs":[[[3784,0],[-2069,2118],[-191,91],[-210,19],[-204,-54],[-92,-53],[-150,-149],[-660,520],[-208,197]],[[0,3713],[28,183],[-28,184]],[[0,1347],[229,129],[178,208]],[[407,1684],[316,406]],[[723,2090],[-515,402],[-208,197]],[[0,3713],[28,183],[-28,184]],[[1263,0],[27,49],[32,-29],[-31,59],[117,112],[-21,29],[55,79],[55,23],[94,127]],[[1282,0],[-6,17],[0,-17]],[[1591,449],[778,1010]],[[2369,1459],[-573,590],[-172,123],[-204,56],[-210,-18],[-192,-89],[-150,-149],[-145,118]],[[3784,0],[-1415,1459]],[[1719,0],[-64,36],[89,16],[96,-52],[-121,0]],[[0,4096],[4096,0],[0,-4096],[-2106,0],[-176,161],[-251,186],[-96,72],[-377,325],[-43,23],[-15,14],[-17,28],[-20,20],[-26,-9],[-53,-39],[1,-18],[5,-22],[-4,-14],[-33,-15],[-34,-6],[-74,0],[0,21],[104,59],[17,13],[9,26],[21,14],[21,9],[9,16],[-9,21],[-42,25],[-157,230],[-33,27],[18,125],[-45,87],[-304,226],[-177,132],[-209,155],[0,2204]],[[1719,0],[-64,36],[89,16],[96,-52]],[[1990,0],[-176,161],[-251,186],[-96,72],[-377,325],[-43,23],[-15,14],[-17,28],[-20,20],[-26,-9],[-53,-39],[1,-18],[5,-22],[-4,-14],[-33,-15],[-34,-6],[-74,0],[0,21],[104,59],[17,13],[9,26],[21,14],[21,9],[9,16],[-9,21],[-42,25],[-157,230],[-33,27],[18,125],[-45,87],[-304,226],[-177,132],[-209,155]],[[79,1176],[-79,83]],[[1827,0],[-412,214],[-160,-214]],[[369,1325]],[[329,515],[51,11]],[[391,543],[-47,-21]],[[730,498],[0,-1]],[[465,515],[151,40],[0,-2]],[[614,554],[21,-20]],[[0,1717],[256,-227],[94,-143]],[[414,1285],[-64,62]],[[513,1125],[-99,160]],[[654,580],[-59,66],[-3,204],[-77,269]],[[659,570],[-3,6]],[[659,570],[201,-185]],[[860,385],[-52,65],[-149,120]],[[860,385],[41,-66]],[[921,317],[-20,2]],[[1065,170],[-144,147]],[[1065,170],[24,-16]],[[1235,0],[-146,154]],[[515,1119],[-2,6]],[[675,554],[-40,-20]],[[656,576],[-2,4]],[[0,199],[27,-39],[-27,-13]],[[384,524],[-243,-72],[-141,6]],[[902,828],[-167,-138],[-126,-61]],[[79,1176],[51,-34],[7,-57],[84,-119],[48,-135],[72,-48],[17,-160],[45,-51],[-19,-48],[81,-9],[77,-47],[188,29]],[[0,1892],[209,-155],[177,-132],[304,-226],[45,-87],[-18,-125],[33,-27],[157,-230],[42,-25],[9,-21],[-9,-16],[-21,-9],[-21,-14],[-9,-26],[-17,-13],[-104,-59],[0,-21],[74,0],[34,6],[33,15],[4,14],[-5,22],[-1,18],[53,39],[26,9],[20,-20],[17,-28],[15,-14],[43,-23],[377,-325],[96,-72],[251,-186],[176,-161],[-150,0],[-96,52],[-89,-16],[64,-36],[-1719,0],[0,1892]]]}