{"objects":{"water":{"type":"GeometryCollection","geometries":[]},"buildings":{"type":"GeometryCollection","geometries":[]},"places":{"type":"GeometryCollection","geometries":[{"type":"Point","properties":{"kind":"locality","name:en":"Bichura","name":"\u0411\u0438\u0447\u0443\u0440\u0430","kind_detail":"town","name:de":"Bitschura","source":"openstreetmap.org","min_zoom":8.0,"int_name":"Bichura","population":9145,"id":302534600,"name:ja":"\u30d3\u30c1\u30e5\u30e9"},"coordinates":[2110,3422]}]},"transit":{"type":"GeometryCollection","geometries":[]},"pois":{"type":"GeometryCollection","geometries":[]},"boundaries":{"type":"GeometryCollection","geometries":[{"type":"LineString","properties":{"name:ka":"\u10db\u10dd\u10dc\u10e6\u10dd\u10da\u10d4\u10d7\u10d8","name:ko":"\ubabd\uace8","name:cv":"\u041c\u043e\u043d\u0433\u043e\u043b\u0438","name:cu":"\u041c\u046b\u0433\u043e\u043b\u0438","name:kl":"Mongolia","name:cs":"Mongolsko","name:tt":"\u041c\u043e\u043d\u0433\u043e\u043b\u0438\u044f","name:kw":"Mongoli","name:kv":"\u041c\u043e\u043d\u0433\u043e\u043b\u0438\u044f","name:ku":"Mongolya","name:tl":"Monggolya","name:ce":"\u041c\u043e\u043d\u0433\u043e\u043b\u0438","name:ta":"\u0bae\u0b99\u0bcd\u0b95\u0bcb\u0bb2\u0bbf\u0baf\u0bbe","name:tg":"\u041c\u0443\u0493\u0443\u043b\u0438\u0441\u0442\u043e\u043d","name:ca":"Mong\u00f2lia","name:te":"\u0c2e\u0c02\u0c17\u0c4b\u0c32\u0c3f\u0c2f\u0c3e","name:cy":"Mongolia","name:hr":"Mongolija","name:da":"Mongoliet","name:de":"Mongolei","name:dz":"\u0f66\u0f7c\u0f42\u0f0b\u0f54\u0f7c\u0f0b","source":"openstreetmap.org","name:kn":"\u0cae\u0c82\u0c97\u0ccb\u0cb2\u0cbf\u0caf","name:dv":"\u0789\u07ae\u0782\u07b0\u078e\u07af\u078d\u07a8\u0787\u07a7","name:km":"\u1798\u17c9\u17bb\u1784\u17a0\u17d2\u1782\u17c4\u179b\u17b8","name:lv":"Mongolija","name:lt":"Mongolija","name:uz":"Mo\u02bbg\u02bbuliston","name:kk":"\u041c\u043e\u04a3\u0493\u043e\u043b\u0438\u044f","name:ur":"\u0645\u0646\u06af\u0648\u0644\u06cc\u0627","name:lb":"Mongolei","name:la":"Mongolia","name:uk":"\u041c\u043e\u043d\u0433\u043e\u043b\u0456\u044f","name:ug":"\u0645\u0648\u06ad\u063a\u06c7\u0644\u0649\u064a\u06d5","name:li":"Mongoli\u00eb","name:ln":"Mongol\u00ed","name:el":"\u039c\u03bf\u03b3\u03b3\u03bf\u03bb\u03af\u03b1","name:eo":"Mongolujo","name:en":"Mongolia","name":"\u041c\u043e\u043d\u0433\u043e\u043b \u0443\u043b\u0441","name:tk":"Mongoli\u00fda","name:ee":"Mongolia","name:th":"\u0e1b\u0e23\u0e30\u0e40\u0e17\u0e28\u0e21\u0e2d\u0e07\u0e42\u0e01\u0e40\u0e25\u0e35\u0e22","name:eu":"Mongolia","name:et":"Mongoolia","name:es":"Mongolia","name:ia":"Mongolia","name:az":"Monqolustan","name:ie":"Mongolia","name:id":"Mongolia","name:as":"\u09ae\u0999\u09cd\u0997\u09cb\u09b2\u09bf\u09af\u09bc\u09be","name:ar":"\u0645\u0646\u063a\u0648\u0644\u064a\u0627","name:io":"Mongolia","name:is":"Mong\u00f3l\u00eda","name:am":"\u121e\u1295\u130e\u120d\u12eb","name:it":"Mongolia","name:an":"Mongolia","name:ru":"\u041c\u043e\u043d\u0433\u043e\u043b\u0438\u044f","name:rw":"Mongoliya","name:af":"Mongoli\u00eb","kind_detail":"2","name:za":"Mungzguj","name:zh-yue":"\u8499\u53e4\u570b","name:zh":"\u8499\u53e4\u56fd","name:so":"Mongolia","name:sm":"Mogitolia","name:sl":"Mongolija","name:sk":"Mongolsko","name:ja":"\u30e2\u30f3\u30b4\u30eb\u56fd","name:si":"\u0db8\u0ddc\u0d82\u0d9c\u0ddd\u0dbd\u0dd2\u0dba\u0dcf\u0dc0","name:sh":"Mongolija","name:se":"Mongolia","name:br":"Mongolia","name:bs":"Mongolija","name:bn":"\u09ae\u0999\u09cd\u0997\u09cb\u09b2\u09bf\u09af\u09bc\u09be","name:bo":"\u0f58\u0f7c\u0f44\u0f0b\u0f42\u0f7c\u0f63\u0f0d","name:sa":"\u092e\u0902\u0917\u094b\u0932\u093f\u092f\u093e","name:sw":"Mongolia","name:be":"\u041c\u0430\u043d\u0433\u043e\u043b\u0456\u044f","name:su":"Mongolia","name:bg":"\u041c\u043e\u043d\u0433\u043e\u043b\u0438\u044f","name:ss":"IMongoliya","name:ba":"\u041c\u043e\u043d\u0433\u043e\u043b\u0438\u044f","name:sq":"Mongolia","name:jv":"Mongolia","name:pt":"Mong\u00f3lia","name:ps":"\u0645\u063a\u0648\u0644\u0633\u062a\u0627\u0646","name:oc":"Mongolia","min_zoom":8.0,"name:ro":"Mongolia","name:zh-min-nan":"B\u00f4ng-k\u00f3\u0358","name:os":"\u041c\u0430\u043d\u0433\u043e\u043b","name:or":"\u0b2e\u0b19\u0b4d\u0b17\u0b4b\u0b32\u0b3f\u0b06","name:pl":"Mongolia","sort_rank":262,"name:sr":"\u041c\u043e\u043d\u0433\u043e\u043b\u0438\u0458\u0430","osm_relation":true,"name:pa":"\u0a2e\u0a70\u0a17\u0a4b\u0a32\u0a40\u0a06","name:tr":"Mo\u011folistan","name:hi":"\u092e\u0902\u0917\u094b\u0932\u093f\u092f\u093e","name:sv":"Mongoliet","name:he":"\u05de\u05d5\u05e0\u05d2\u05d5\u05dc\u05d9\u05d4","name:hy":"\u0544\u0578\u0576\u0572\u0578\u056c\u056b\u0561","name:ht":"Mongoli","name:hu":"Mong\u00f3lia","name:qu":"Mungul suyu","kind":"country","name:yi":"\u05de\u05d0\u05e0\u05d2\u05d0\u05dc\u05d9\u05d9","name:yo":"M\u00f2ng\u00f3l\u00ed\u00e0","alt_name:eo":"Mongolio","name:ms":"Mongolia","name:mr":"\u092e\u0902\u0917\u094b\u0932\u093f\u092f\u093e","name:my":"\u1019\u103d\u1014\u103a\u1002\u102d\u102f\u1038\u101c\u102e\u1038\u101a\u102c\u1038\u1014\u102d\u102f\u1004\u103a\u1004\u1036","int_name":"Mongolia","name:ml":"\u0d2e\u0d02\u0d17\u0d4b\u0d33\u0d3f\u0d2f","name:vi":"M\u00f4ng C\u1ed5","name:mi":"Mong\u014dria","id":-161033,"name:mk":"\u041c\u043e\u043d\u0433\u043e\u043b\u0438\u0458\u0430","name:vo":"Mongol\u00e4n","name:fa":"\u0645\u063a\u0648\u0644\u0633\u062a\u0627\u0646","name:fi":"Mongolia","name:ky":"\u041c\u043e\u04a3\u0433\u043e\u043b\u0441\u0442\u0430\u043d","name:fo":"Mongolia","name:fr":"Mongolie","name:fy":"Mongoalje","name:nl":"Mongoli\u00eb","name:nn":"Mongolia","name:no":"Mongolia","name:na":"Mongoriya","name:ne":"\u092e\u0919\u094d\u0917\u094b\u0932\u093f\u092f\u093e","name:wo":"Mongoli","name:nv":"Ch\u02bcah Di\u02bcilii Bik\u00e9yah","name:ga":"An Mhong\u00f3il","name:gd":"Mong\u00f2ilia","name:gn":"Mongolia","name:gl":"Mongolia","name:gv":"Yn Vongoil","name:gu":"\u0aae\u0a82\u0a97\u0acb\u0ab2\u0abf\u0aaf\u0abe"},"arcs":[0]},{"type":"LineString","properties":{"name:right:nl":"Kraj Transbaikal","name:right:ja":"\u30b6\u30d0\u30a4\u30ab\u30ea\u30a8\u5730\u65b9","name:right:fr":"Kra\u00ef de Transba\u00efkalie","name:right:uk":"\u0417\u0430\u0431\u0430\u0439\u043a\u0430\u043b\u044c\u0441\u044c\u043a\u0438\u0439 \u043a\u0440\u0430\u0439","name:left:ja":"\u30bb\u30ec\u30f3\u30b2","id:right":-145730,"name:right:lt":"U\u017ebaikal\u0117s kra\u0161tas","min_zoom":8.0,"id":-270089,"name:right":"\u0417\u0430\u0431\u0430\u0439\u043a\u0430\u043b\u044c\u0441\u043a\u0438\u0439 \u043a\u0440\u0430\u0439","name:left:en":"Selenge","name:right:ca":"Territori de Zabaikal","kind_detail":"4","int_name:right":"Zabaykalsky Krai","source":"openstreetmap.org","id:left":-270089,"name:right:cs":"Zabajkalsk\u00fd kraj","name:left":"\u0421\u044d\u043b\u044d\u043d\u0433\u044d","name:right:es":"Krai de Zabaikalie","name:right:pt":"Krai de Zabaykalsky","old_name:right":"\u0427\u0438\u0442\u0438\u043d\u0441\u043a\u0430\u044f \u043e\u0431\u043b\u0430\u0441\u0442\u044c","name:right:it":"Territorio della Transbajkalia","name:right:vi":"Zabaykalsky (v\u00f9ng)","name:right:sv":"Zabajkalskij kraj","name:right:pl":"Kraj Zabajkalski","name:right:en":"Zabaykalsky Krai","osm_relation":true,"alt_name:right:ca":"Territori de Transbaikal","kind":"region","name":"\u0421\u044d\u043b\u044d\u043d\u0433\u044d - \u0417\u0430\u0431\u0430\u0439\u043a\u0430\u043b\u044c\u0441\u043a\u0438\u0439 \u043a\u0440\u0430\u0439","name:right:de":"Region Transbaikalien","name:left:de":"Selenge","sort_rank":256,"name:right:zh":"\u5916\u8c9d\u52a0\u723e\u908a\u7586\u5340"},"arcs":[1]},{"type":"LineString","properties":{"name:right:hy":"\u0532\u0578\u0582\u0580\u0575\u0561\u0569\u056b\u0561","name:right:nl":"Boerjati\u00eb","name:right:ja":"\u30d6\u30ea\u30e4\u30fc\u30c8\u5171\u548c\u56fd","name:right:fr":"Bouriatie","name:right:uk":"\u0411\u0443\u0440\u044f\u0442\u0456\u044f","name:left:ja":"\u30bb\u30ec\u30f3\u30b2","id:right":-145729,"name:right:lt":"Buriatija","min_zoom":8.0,"id":-270089,"name:right":"\u0420\u0435\u0441\u043f\u0443\u0431\u043b\u0438\u043a\u0430 \u0411\u0443\u0440\u044f\u0442\u0438\u044f","name:left:en":"Selenge","sort_rank":256,"kind_detail":"4","alt_name:right:cs":"Burjatsk\u00e1 republika","name:right:ce":"\u0411\u0443\u0440\u044f\u0442\u0438\u0439\u043d \u0420\u0435\u0441\u043f\u0443\u0431\u043b\u0438\u043a\u0430","int_name:right":"Buryatia","source":"openstreetmap.org","osm_relation":true,"id:left":-270089,"name:right:cs":"Burjatsko","name:right:az":"Buryatiya","name:right:cv":"\u0411\u0443\u0440\u044f\u0442\u0438","name:right:ka":"\u10d1\u10e3\u10e0\u10d8\u10d0\u10e2\u10d4\u10d7\u10d8","name:right:pt":"Buri\u00e1cia","name:right:tt":"\u0411\u0443\u0440\u044f\u0442\u0438\u044f","name:right:kk":"\u0411\u0443\u0440\u044f\u0442\u0438\u044f","name:right:it":"Buriazia","name:right:vi":"Buryatia","name:right:es":"Buriatia","short_name:right":"\u0411\u0443\u0440\u044f\u0442\u0438\u044f","name:right:sv":"Burjatien","name:right:pl":"Buriacja","name:right:en":"Buryatia","name:right:os":"\u0411\u0443\u0440\u044f\u0442\u0438","name:right:el":"\u0394\u03b7\u03bc\u03bf\u03ba\u03c1\u03b1\u03c4\u03af\u03b1 \u03c4\u03b7\u03c2 \u039c\u03c0\u03bf\u03c5\u03c1\u03b3\u03b9\u03b1\u03c4\u03af\u03b1\u03c2","kind":"region","name":"\u0421\u044d\u043b\u044d\u043d\u0433\u044d - \u0420\u0435\u0441\u043f\u0443\u0431\u043b\u0438\u043a\u0430 \u0411\u0443\u0440\u044f\u0442\u0438\u044f","name:right:de":"Burjatien","name:right:ba":"\u0411\u04af\u0440\u04d9\u0442 \u0420\u0435\u0441\u043f\u0443\u0431\u043b\u0438\u043a\u0430\u04bb\u044b","name:left:de":"Selenge","name:right:be":"\u0411\u0443\u0440\u0430\u0446\u0456\u044f","name:right:ca":"Buri\u00e0tia","name:right:zh":"\u5e03\u91cc\u4e9e\u7279\u5171\u548c\u570b","name:left":"\u0421\u044d\u043b\u044d\u043d\u0433\u044d"},"arcs":[2]},{"type":"MultiLineString","properties":{"name:right:hy":"\u0532\u0578\u0582\u0580\u0575\u0561\u0569\u056b\u0561","name:right:nl":"Boerjati\u00eb","name:right:ja":"\u30d6\u30ea\u30e4\u30fc\u30c8\u5171\u548c\u56fd","name:right:fr":"Bouriatie","name:right:uk":"\u0411\u0443\u0440\u044f\u0442\u0456\u044f","int_name:left":"Zabaykalsky Krai","name:left:ja":"\u30b6\u30d0\u30a4\u30ab\u30ea\u30a8\u5730\u65b9","id:right":-145729,"name:right:lt":"Buriatija","min_zoom":8.0,"name:left:lt":"U\u017ebaikal\u0117s kra\u0161tas","name:right:sv":"Burjatien","name:right:ce":"\u0411\u0443\u0440\u044f\u0442\u0438\u0439\u043d \u0420\u0435\u0441\u043f\u0443\u0431\u043b\u0438\u043a\u0430","id":-145730,"name:right":"\u0420\u0435\u0441\u043f\u0443\u0431\u043b\u0438\u043a\u0430 \u0411\u0443\u0440\u044f\u0442\u0438\u044f","name:left:en":"Zabaykalsky Krai","name:right:ca":"Buri\u00e0tia","kind_detail":"4","alt_name:right:cs":"Burjatsk\u00e1 republika","name:left:ca":"Territori de Zabaikal","int_name:right":"Buryatia","source":"openstreetmap.org","osm_relation":true,"name:left:nl":"Kraj Transbaikal","id:left":-145730,"name:left:es":"Krai de Zabaikalie","name:right:cs":"Burjatsko","name:left:vi":"Zabaykalsky (v\u00f9ng)","name:right:az":"Buryatiya","name:left:cs":"Zabajkalsk\u00fd kraj","name:right:cv":"\u0411\u0443\u0440\u044f\u0442\u0438","name:right:ka":"\u10d1\u10e3\u10e0\u10d8\u10d0\u10e2\u10d4\u10d7\u10d8","name:left:sv":"Zabajkalskij kraj","name:right:pt":"Buri\u00e1cia","name:right:tt":"\u0411\u0443\u0440\u044f\u0442\u0438\u044f","name:right:kk":"\u0411\u0443\u0440\u044f\u0442\u0438\u044f","name:right:it":"Buriazia","name:right:vi":"Buryatia","name:left:pt":"Krai de Zabaykalsky","name:left:pl":"Kraj Zabajkalski","name:right:es":"Buriatia","short_name:right":"\u0411\u0443\u0440\u044f\u0442\u0438\u044f","name:left:it":"Territorio della Transbajkalia","name:right:pl":"Buriacja","name:right:en":"Buryatia","name:right:os":"\u0411\u0443\u0440\u044f\u0442\u0438","name:right:el":"\u0394\u03b7\u03bc\u03bf\u03ba\u03c1\u03b1\u03c4\u03af\u03b1 \u03c4\u03b7\u03c2 \u039c\u03c0\u03bf\u03c5\u03c1\u03b3\u03b9\u03b1\u03c4\u03af\u03b1\u03c2","name:left:uk":"\u0417\u0430\u0431\u0430\u0439\u043a\u0430\u043b\u044c\u0441\u044c\u043a\u0438\u0439 \u043a\u0440\u0430\u0439","kind":"region","name":"\u0417\u0430\u0431\u0430\u0439\u043a\u0430\u043b\u044c\u0441\u043a\u0438\u0439 \u043a\u0440\u0430\u0439 - \u0420\u0435\u0441\u043f\u0443\u0431\u043b\u0438\u043a\u0430 \u0411\u0443\u0440\u044f\u0442\u0438\u044f","name:right:de":"Burjatien","name:right:ba":"\u0411\u04af\u0440\u04d9\u0442 \u0420\u0435\u0441\u043f\u0443\u0431\u043b\u0438\u043a\u0430\u04bb\u044b","name:left:de":"Region Transbaikalien","name:right:be":"\u0411\u0443\u0440\u0430\u0446\u0456\u044f","sort_rank":256,"name:left:zh":"\u5916\u8c9d\u52a0\u723e\u908a\u7586\u5340","name:left:fr":"Kra\u00ef de Transba\u00efkalie","name:right:zh":"\u5e03\u91cc\u4e9e\u7279\u5171\u548c\u570b","name:left":"\u0417\u0430\u0431\u0430\u0439\u043a\u0430\u043b\u044c\u0441\u043a\u0438\u0439 \u043a\u0440\u0430\u0439","alt_name:left:ca":"Territori de Transbaikal","old_name:left":"\u0427\u0438\u0442\u0438\u043d\u0441\u043a\u0430\u044f \u043e\u0431\u043b\u0430\u0441\u0442\u044c"},"arcs":[[3],[4]]}]},"roads":{"type":"GeometryCollection","geometries":[{"type":"MultiLineString","properties":{"sort_rank":380,"kind_detail":"primary","min_zoom":8.0,"kind":"major_road","source":"openstreetmap.org"},"arcs":[[5],[6],[7],[8],[9],[10]]},{"type":"MultiLineString","properties":{"source":"openstreetmap.org","kind":"major_road","sort_rank":380,"kind_detail":"primary","ref":"\u0420-441","min_zoom":8.0},"arcs":[[11],[12],[13],[14],[15],[16]]},{"type":"LineString","properties":{"source":"openstreetmap.org","kind":"major_road","sort_rank":380,"kind_detail":"primary","ref":"\u0420441","min_zoom":8.0,"id":38871645},"arcs":[17]}]},"earth":{"type":"GeometryCollection","geometries":[{"type":"Polygon","properties":{"sort_rank":10,"source":"naturalearthdata.com","kind":"earth","min_zoom":0.0,"id":4762},"arcs":[[18]]}]},"landuse":{"type":"GeometryCollection","geometries":[]}},"type":"Topology","transform":{"translate":[106.875,49.8379824531],"scale":[0.0003433228,0.0002193537]},"arcs":[[[3088,0],[27,77],[-51,36],[-23,58],[150,182],[-4,118],[-73,9],[-54,-31],[-50,16],[-60,-29],[-101,13],[-10,72],[-61,40],[-54,-109],[-47,-18],[-99,117],[-17,54],[-139,79],[-68,-14],[-13,-60],[-52,18],[-31,-15],[-23,24],[-154,-33],[-130,69],[-48,-46],[-108,7],[-55,37],[-62,-33],[-47,25],[-30,-21],[10,-33],[-50,35],[-81,-8],[-100,101],[-73,17],[-129,-13],[-24,-47],[-41,-9],[-106,77],[-23,-28],[-24,40],[-34,-5],[-12,37],[-46,-13],[-73,67],[12,76],[-40,-3],[-20,34],[-94,0],[-23,69],[-33,-15],[-24,29],[-15,48],[25,49],[-53,-8],[-51,188],[-115,128],[39,45],[-48,75],[49,34],[-4,37],[-96,45],[-304,248]],[[3088,0],[27,77],[-51,36],[-23,58],[136,158],[26,122],[-68,32],[-75,-34],[-50,16],[-60,-29],[-101,13],[-10,72],[-34,41],[-45,-20],[-56,-110],[-27,2],[-99,117],[-17,54]],[[2561,605],[-152,79],[-55,-14],[-13,-60],[-52,18],[-31,-15],[-23,24],[-154,-33],[-130,69],[-48,-46],[-108,7],[-55,37],[-62,-33],[-47,25],[-30,-21],[10,-33],[-50,35],[-81,-8],[-134,110],[-168,-5],[-24,-47],[-41,-9],[-106,77],[-23,-28],[-24,40],[-34,-5],[-12,37],[-46,-13],[-78,77],[17,66],[-40,-3],[-20,34],[-94,0],[-23,69],[-33,-15],[-24,29],[-15,48],[25,49],[-53,-8],[-51,188],[-115,128],[39,45],[-48,75],[49,34],[-4,37],[-96,45],[-304,248]],[[3490,4096],[317,-395],[166,73],[76,-37],[37,-79],[10,-2]],[[4096,2582],[-18,27],[-55,7],[-41,-29],[-37,53],[-65,-22],[-77,-100],[-38,-8],[-32,-106],[39,-49],[-30,-41],[-84,-17],[-20,-43],[14,-52],[-39,-73],[-76,68],[-51,12],[-60,72],[-100,36],[-58,-69],[-86,-44],[-11,-157],[-85,-42],[-49,-111],[66,-59],[-178,-168],[-116,20],[-120,-104],[-35,-68],[12,-26],[-163,-52],[22,-155],[-22,-37],[99,-175],[50,-37],[30,-147],[-86,-76],[89,-111],[-124,-94]],[[50,2487],[17,46],[-47,150],[87,111],[59,136],[0,142],[45,67],[20,297]],[[357,1925],[-93,-99]],[[1324,3485],[363,-11]],[[1737,3474],[2,0]],[[2108,3431],[4,4]],[[2724,3578],[5,3]],[[357,1925],[-98,186],[-66,274],[-92,38],[-51,64]],[[1323,3485],[-212,72],[-150,21],[-81,-10],[-180,-112],[-62,-12],[-245,33],[-162,-41]],[[1687,3474],[50,0]],[[1739,3474],[88,17],[241,-93],[40,33]],[[2112,3435],[188,187],[96,-8],[84,24],[185,-92],[59,32]],[[2729,3581],[-9,162],[88,83],[-35,270]],[[264,1826],[-100,23],[-75,66],[-89,137]],[[0,0],[0,4096],[4096,0],[0,-4096],[-4096,0]]]}