{"objects":{"water":{"type":"GeometryCollection","geometries":[]},"buildings":{"type":"GeometryCollection","geometries":[]},"places":{"type":"GeometryCollection","geometries":[{"type":"Point","properties":{"name:pt":"Ulan Bator","name:ka":"\u10e3\u10da\u10d0\u10dc-\u10d1\u10d0\u10e2\u10dd\u10e0\u10d8","name:ko":"\uc6b8\ub780\ubc14\ud1a0\ub974","name:cv":"\u0423\u043b\u0430\u043d \u0411\u0430\u0442\u043e\u0440","name:km":"\u17a2\u17ca\u17bc\u179b\u17c1\u1793\u1794\u17b6\u1792\u179a","name:kl":"Ulan Bator","name:cs":"Ul\u00e1nb\u00e1tar","name:tt":"Ulan Bator","name:kv":"\u0423\u043b\u0430\u043d-\u0411\u0430\u0442\u043e\u0440","name:th":"\u0e2d\u0e39\u0e25\u0e32\u0e19\u0e1a\u0e32\u0e15\u0e2d\u0e23\u0e4c","int_name":"Ulaanbaatar","name:tl":"Ulan Bator","name:sv":"Ulaanbaatar","name:os":"\u0423\u043b\u0430\u043d-\u0411\u0430\u0442\u043e\u0440","name:ce":"\u0423\u043b\u0430\u043d-\u0411\u0430\u0442\u043e\u0440","name:ta":"\u0b8a\u0bb2\u0bbe\u0ba9\u0bcd \u0baa\u0bbe\u0b9f\u0bcb\u0bb0\u0bcd","name:tg":"\u0423\u043b\u0430\u043d-\u0411\u0430\u0442\u043e\u0440","name:ca":"Ulan Bator","name:cy":"Ulan Bator","name:da":"Ulan Bator","name:fr":"Oulan-Bator","name:de":"Ulan Bator","source":"openstreetmap.org","name:yo":"Ulan Bator","name:kn":"\u0c89\u0cb2\u0cbe\u0ca8\u0ccd \u0cac\u0ca4\u0cca\u0cb0\u0ccd","admin_level":"2","name:lv":"Ulanbatora","name:lt":"Ulan Batoras","alt_name:de":"Ulan-Bator","name:kk":"\u04b0\u043b\u0430\u043d\u0431\u0430\u0442\u044b\u0440","name:he":"\u05d0\u05d5\u05dc\u05df \u05d1\u05d8\u05d5\u05e8","kind":"locality","name:ur":"\u0627\u0648\u0644\u0627\u0646\u200c \u0628\u0627\u062a\u0648\u0631","name:lb":"Ulan Bator","name:la":"Urga","name:uk":"\u0423\u043b\u0430\u043d-\u0411\u0430\u0442\u043e\u0440","old_name":"\u0423\u0440\u0433\u0430","country_capital":true,"name:ug":"Ulanbatur","name:hu":"Ul\u00e1nb\u00e1tor","name:hr":"Ulan Bator","name:oc":"Ulaan Baatar","population":1401200,"name:el":"\u039f\u03c5\u03bb\u03ac\u03bd \u039c\u03c0\u03b1\u03c4\u03cc\u03c1","name:eo":"Ulaanbaataro","name:en":"Ulaanbaatar","name":"\u0423\u043b\u0430\u0430\u043d\u0431\u0430\u0430\u0442\u0430\u0440","min_zoom":8.0,"name:eu":"Ulan Bator","name:et":"Ulaanbaatar","name:nl":"Ulaanbaatar","name:es":"Ul\u00e1n Bator","name:ia":"Ulan Bator","name:ro":"Ulaanbaatar","name:ie":"Ulan-Bator","name:id":"Ulan Bator","name:ms":"Ulan Bator","name:mr":"\u0909\u0932\u093e\u0928\u092c\u093e\u0924\u0930","name:pa":"\u0a09\u0a32\u0a3e\u0a28 \u0a2c\u0a24\u0a4b\u0a30","name:my":"\u1026\u101c\u1014\u103a\u1018\u102c\u1010\u102c\u1019\u103c\u102d\u102f\u1037","name:io":"Ulan Bator","name:is":"\u00dalan Bator","name:it":"Ulan Bator","name:vi":"Ulaanbaatar","name:ru":"\u0423\u043b\u0430\u043d-\u0411\u0430\u0442\u043e\u0440","name:uz":"Ulan-Bator","name:mn":"\u1824\u182f\u1820\u182d\u1820\u1828 \u182a\u1820\u182d\u1820\u1832\u1824\u1837","name:pl":"U\u0142an Bator","name:mk":"\u0423\u043b\u0430\u043d \u0411\u0430\u0442\u043e\u0440","name:af":"Ulaanbaatar","name:fa":"\u0627\u0648\u0644\u0627\u0646\u200c\u0628\u0627\u062a\u0648\u0631","kind_detail":"city","old_name:ru":"\u0423\u0440\u0433\u0430","id":27547986,"alt_name:vi":"Ulan Bator","name:hi":"\u0909\u0932\u093e\u0928 \u092c\u0924\u094b\u0930","name:za":"Ulan Bator","name:zh-yue":"\u70cf\u862d\u5df4\u6258","name:fy":"Ulaanbaatar","name:zh":"\u70cf\u862d\u5df4\u6258","name:hy":"\u0548\u0582\u056c\u0561\u0576 \u0532\u0561\u057f\u0578\u0580","name:so":"Ulan Bator","name:sl":"Ulan Bator","name:sk":"Ulanb\u00e1tar","name:ja":"\u30a6\u30e9\u30f3\u30d0\u30fc\u30c8\u30eb","name:nn":"Ulan Bator","name:no":"Ulan Bator","name:br":"Ulaanbaatar","name:bs":"Ulan Bator","name:yi":"\u05d0\u05d5\u05dc\u05d0\u05df \u05d1\u05d0\u05d8\u05d0\u05e8","name:bn":"\u0989\u09b2\u09be\u09a8\u09ac\u09be\u099f\u09b0","name:bo":"\u0f5d\u0f74\u0f0b\u0f63\u0f53\u0f0b\u0f56\u0f0b\u0f50\u0f74\u0f62","name:sw":"Ulaanbaatar","name:be":"\u0423\u043b\u0430\u043d-\u0411\u0430\u0442\u0430\u0440","name:bg":"\u0423\u043b\u0430\u043d \u0411\u0430\u0442\u043e\u0440","name:sr":"\u0423\u043b\u0430\u043d \u0411\u0430\u0442\u043e\u0440","name:sq":"Ulan Bator","name:ga":"Ul\u00e1nb\u00e1tar","name:gd":"Ulan Bator","name:ht":"Oulan-Bat\u00f2","name:gl":"Ul\u00e1n B\u00e1tor - \u0423\u043b\u0430\u0430\u043d\u0431\u0430\u0430\u0442\u0430\u0440","name:tr":"Ulan Batur","name:fi":"Ulaanbaatar"},"coordinates":[124,3788]},{"type":"Point","properties":{"kind":"locality","name:en":"Nalaikh","name":"\u041d\u0430\u043b\u0430\u0439\u0445","kind_detail":"town","source":"openstreetmap.org","min_zoom":8.0,"population":30049,"id":293940162,"name:ja":"\u30ca\u30e9\u30a4\u30d5"},"coordinates":[1096,3153]},{"type":"Point","properties":{"kind":"locality","name:en":"Zuunmod","name":"\u0417\u0443\u0443\u043d\u043c\u043e\u0434","name:lt":"Zunmodas","kind_detail":"city","name:de":"Dsuunmod","source":"openstreetmap.org","min_zoom":8.0,"population":13330,"id":385713356,"name:ja":"\u30be\u30fc\u30f3\u30e2\u30c9"},"coordinates":[232,2880]}]},"transit":{"type":"GeometryCollection","geometries":[{"type":"LineString","properties":{"source":"openstreetmap.org","kind":"train","name":"Moscow \u2014 Beijing","sort_rank":275,"min_zoom":6.0,"osm_relation":true,"name:de":"Moskau \u2014 Peking"},"arcs":[3]},{"type":"LineString","properties":{"source":"openstreetmap.org","kind":"train","sort_rank":275,"ref":"K3\/4","min_zoom":6.0,"osm_relation":true},"arcs":[4]}]},"pois":{"type":"GeometryCollection","geometries":[{"type":"Point","properties":{"kind":"national_park","name:en":"Gorkhi-Terelj National Park","name":"\u0413\u043e\u0440\u0445\u0438-\u0422\u044d\u0440\u044d\u043b\u0436","area":506567000,"source":"openstreetmap.org","min_zoom":6.3,"tier":1,"name:hu":"Gorkij-Terelj Nemzeti Park","id":455178739},"coordinates":[1596,3696]}]},"boundaries":{"type":"GeometryCollection","geometries":[{"type":"LineString","properties":{"alt_name:left:en":"Central","name:left:ja":"\u30c8\u30a5\u30d6","alt_name:left:de":"Zentral","name:right:ru":"\u0423\u043b\u0430\u043d-\u0411\u0430\u0442\u043e\u0440","min_zoom":8.0,"name:left:ru":"\u0422\u0443\u0432\u0435","id:right":-270090,"id":-3382267,"osm_relation":true,"name:right":"\u0423\u043b\u0430\u0430\u043d\u0431\u0430\u0430\u0442\u0430\u0440","kind":"region","name:left:en":"T\u00f6v","sort_rank":256,"kind_detail":"4","name":"\u0422\u04e9\u0432 - \u0423\u043b\u0430\u0430\u043d\u0431\u0430\u0430\u0442\u0430\u0440","source":"openstreetmap.org","name:right:de":"Ulaanbaatar","name:right:en":"Ulaanbaatar","id:left":-3382267,"name:left":"\u0422\u04e9\u0432"},"arcs":[0]},{"type":"MultiLineString","properties":{"kind":"region","name:en":"T\u00f6v","name":"\u0422\u04e9\u0432","alt_name:de":"Zentral","sort_rank":256,"kind_detail":"4","source":"openstreetmap.org","min_zoom":8.0,"alt_name:en":"Central","name:ru":"\u0422\u0443\u0432\u0435","id":-3382267,"osm_relation":true,"name:ja":"\u30c8\u30a5\u30d6"},"arcs":[[1],[2]]}]},"roads":{"type":"GeometryCollection","geometries":[{"type":"MultiLineString","properties":{"sort_rank":380,"kind_detail":"primary","min_zoom":8.0,"kind":"major_road","source":"openstreetmap.org"},"arcs":[[5],[6],[7],[8],[9],[10],[11]]},{"type":"MultiLineString","properties":{"source":"openstreetmap.org","kind":"major_road","name:en":"Great Boulevard","landuse_kind":"urban_area","sort_rank":380,"kind_detail":"primary","min_zoom":8.0},"arcs":[[12],[13],[14]]},{"type":"MultiLineString","properties":{"kind":"major_road","network":"AsianHighway","sort_rank":381,"kind_detail":"trunk","source":"openstreetmap.org","min_zoom":8.0,"landuse_kind":"residential","shield_text":"3"},"arcs":[[15],[16],[17]]},{"type":"MultiLineString","properties":{"source":"openstreetmap.org","kind":"major_road","name:en":"Chinggis Avenue","kind_detail":"trunk","sort_rank":381,"landuse_kind":"urban_area","min_zoom":8.0},"arcs":[[18],[19],[20],[21],[22],[23],[24],[25],[26],[27],[28]]},{"type":"MultiLineString","properties":{"sort_rank":381,"source":"openstreetmap.org","min_zoom":8.0,"kind":"major_road","kind_detail":"trunk"},"arcs":[[29],[30],[31]]},{"type":"LineString","properties":{"source":"openstreetmap.org","kind":"major_road","landuse_kind":"residential","sort_rank":380,"kind_detail":"primary","min_zoom":8.0,"id":198346306},"arcs":[32]},{"type":"LineString","properties":{"source":"openstreetmap.org","kind":"major_road","landuse_kind":"national_park","sort_rank":380,"kind_detail":"primary","min_zoom":8.0},"arcs":[33]},{"type":"MultiLineString","properties":{"kind":"major_road","network":"AsianHighway","sort_rank":381,"landuse_kind":"urban_area","source":"openstreetmap.org","min_zoom":8.0,"kind_detail":"trunk","shield_text":"3"},"arcs":[[34],[35],[36],[37],[38],[39],[40],[41],[42],[43],[44],[45],[46]]},{"type":"LineString","properties":{"kind":"major_road","sort_rank":381,"landuse_kind":"residential","source":"openstreetmap.org","min_zoom":8.0,"kind_detail":"trunk","ref":"A0501","id":211357806},"arcs":[47]},{"type":"MultiLineString","properties":{"kind":"major_road","name:en":"Peace Avenue","network":"AsianHighway","sort_rank":381,"landuse_kind":"urban_area","source":"openstreetmap.org","min_zoom":8.0,"kind_detail":"trunk","shield_text":"3"},"arcs":[[48],[49],[50],[51]]},{"type":"MultiLineString","properties":{"source":"openstreetmap.org","kind":"major_road","landuse_kind":"urban_area","sort_rank":380,"kind_detail":"primary","min_zoom":8.0},"arcs":[[52],[53],[54],[55],[56],[57],[58],[59],[60],[61],[62],[63],[64],[65],[66],[67],[68],[69],[70],[71],[72],[73],[74],[75],[76],[77],[78],[79],[80],[81],[82],[83],[84],[85],[86],[87],[88],[89],[90],[91],[92],[93],[94],[95],[96],[97],[98],[99],[100],[101],[102],[103],[104],[105],[106],[107],[108],[109],[110],[111],[112],[113],[114],[115],[116],[117],[118]]},{"type":"MultiLineString","properties":{"source":"openstreetmap.org","kind":"major_road","kind_detail":"trunk","sort_rank":381,"landuse_kind":"urban_area","min_zoom":8.0},"arcs":[[119],[120],[121],[122]]},{"type":"MultiLineString","properties":{"source":"openstreetmap.org","kind":"major_road","name:en":"J. Sambuu Street","landuse_kind":"urban_area","sort_rank":380,"kind_detail":"primary","min_zoom":8.0},"arcs":[[123],[124],[125]]},{"type":"MultiLineString","properties":{"source":"openstreetmap.org","kind":"major_road","network":"AsianHighway","sort_rank":381,"kind_detail":"trunk","min_zoom":8.0,"shield_text":"3"},"arcs":[[126],[127],[128],[129]]},{"type":"LineString","properties":{"kind":"major_road","network":"AsianHighway","sort_rank":381,"kind_detail":"trunk","source":"openstreetmap.org","min_zoom":8.0,"shield_text":"3","ref":"A0101","id":50799861},"arcs":[130]},{"type":"LineString","properties":{"source":"openstreetmap.org","kind":"major_road","name:en":"Ulaanbaatar - Mandalgovi","sort_rank":381,"kind_detail":"trunk","min_zoom":8.0,"id":232846897},"arcs":[131]},{"type":"MultiLineString","properties":{"kind":"major_road","network":"AsianHighway","sort_rank":381,"kind_detail":"trunk","source":"openstreetmap.org","min_zoom":8.0,"shield_text":"3","ref":"A0501"},"arcs":[[132],[133]]},{"type":"LineString","properties":{"kind":"major_road","name:en":"Ikh khuree street","sort_rank":380,"landuse_kind":"urban_area","source":"openstreetmap.org","min_zoom":8.0,"kind_detail":"primary","id":129013305},"arcs":[134]},{"type":"LineString","properties":{"kind":"major_road","name:en":"Chinggis Avenue","sort_rank":381,"kind_detail":"trunk","is_bicycle_related":true,"source":"openstreetmap.org","min_zoom":8.0,"landuse_kind":"urban_area","id":441129377},"arcs":[135]},{"type":"MultiLineString","properties":{"source":"openstreetmap.org","kind":"major_road","name:en":"Beijing Street","landuse_kind":"urban_area","sort_rank":380,"kind_detail":"primary","min_zoom":8.0},"arcs":[[136],[137],[138]]},{"type":"MultiLineString","properties":{"source":"openstreetmap.org","kind":"major_road","sort_rank":381,"kind_detail":"trunk","ref":"A0501","min_zoom":8.0},"arcs":[[139],[140],[141],[142]]}]},"earth":{"type":"GeometryCollection","geometries":[{"type":"Polygon","properties":{"sort_rank":10,"source":"naturalearthdata.com","kind":"earth","min_zoom":0.0,"id":4762},"arcs":[[143]]}]},"landuse":{"type":"GeometryCollection","geometries":[{"type":"Polygon","properties":{"source":"openstreetmap.org","kind":"national_park","area":506567008,"tier":1,"id":455178739,"min_zoom":3.0,"sort_rank":18},"arcs":[[144]]},{"type":"Polygon","properties":{"source":"naturalearthdata.com","kind":"urban_area","name":"","area":165182144,"sort_rank":11,"min_zoom":4.0,"id":11836},"arcs":[[145]]},{"type":"Polygon","properties":{"source":"openstreetmap.org","kind":"aerodrome","area":21345100,"tier":3,"id":168831944,"min_zoom":8.0,"sort_rank":60},"arcs":[[146]]},{"type":"Polygon","properties":{"kind":"residential","name":"\u041d\u0430\u043b\u0430\u0439\u0445","area":34463000,"sort_rank":20,"source":"openstreetmap.org","min_zoom":8.0,"tier":2,"id":61156676},"arcs":[[147]]},{"type":"MultiPolygon","properties":{"source":"openstreetmap.org","kind":"residential","tier":2,"area":40502849,"sort_rank":20,"min_zoom":8.0},"arcs":[[[148]],[[149]],[[150]],[[151]]]},{"type":"Polygon","properties":{"kind":"residential","name:en":"Zuunmod","name":"\u0417\u0443\u0443\u043d\u043c\u043e\u0434","name:lt":"Zunmodas","area":28122500,"sort_rank":20,"name:de":"Dsuunmod","source":"openstreetmap.org","min_zoom":8.0,"tier":2,"id":62113194,"name:ja":"\u30be\u30fc\u30f3\u30e2\u30c9"},"arcs":[[152]]}]}},"type":"Topology","transform":{"translate":[106.875,47.0401821448],"scale":[0.0003433228,0.00023187]},"arcs":[[[1329,4096],[2,-4],[124,-88],[449,-130],[83,-50],[61,-122],[-196,-1064],[-286,-65],[-396,11],[-156,69],[-327,271],[-112,44],[-341,31],[-234,-32]],[[4096,2297],[-83,1],[-159,711],[40,357],[97,208],[105,103]],[[1426,1483],[420,146],[109,-166],[61,-247],[-246,-41],[-154,-96],[-190,404]],[[0,3743],[439,-24],[49,-53],[96,-26],[139,-101],[116,-150],[-28,-35],[69,-16],[-84,-59],[-37,0],[45,-5],[84,-63],[45,-235],[48,-82],[-6,-70],[-36,-40],[70,-8],[-102,-167],[21,-64],[-37,2],[-2,-24],[231,-131],[46,-80],[37,21],[19,-116],[32,-31],[35,19],[55,-125],[77,16],[74,-142],[-32,-146],[13,-62],[319,-424],[122,-414],[120,-210],[149,-566],[61,-132]],[[0,3743],[439,-24],[49,-53],[96,-26],[139,-101],[116,-150],[-28,-35],[69,-16],[-84,-59],[-37,0],[45,-5],[84,-63],[45,-235],[48,-82],[-6,-70],[-36,-40],[70,-8],[-102,-167],[21,-64],[-37,2],[-2,-24],[231,-131],[46,-80],[37,21],[19,-116],[32,-31],[35,19],[55,-125],[77,16],[74,-142],[-32,-146],[13,-62],[319,-424],[122,-414],[120,-210],[149,-566],[61,-132]],[[0,3806],[14,2]],[[15,3809],[-15,-3]],[[125,4016],[-5,-77]],[[142,4096],[-4,-21]],[[389,3715],[59,3]],[[1238,3218],[63,15],[27,141],[139,15]],[[1710,3990],[16,46],[-35,60]],[[164,3836],[-12,1]],[[192,3825],[6,-35]],[[199,3790],[-6,34]],[[1033,3190],[6,-7]],[[1039,3183],[1,-2]],[[1040,3181],[1,-4]],[[0,3677],[5,3]],[[62,3704],[-2,-1]],[[60,3703],[-13,-2]],[[53,3703],[7,0]],[[60,3703],[3,0]],[[62,3704],[39,7]],[[100,3706],[-38,-2]],[[101,3711],[8,24]],[[114,3753],[-1,-5]],[[119,3775],[-4,-20]],[[120,3780],[-1,-3]],[[59,2583],[-59,-228]],[[0,3024],[37,-6],[55,-63],[-58,-180]],[[566,3657],[5,-1]],[[138,4075],[-13,-59]],[[1467,3389],[42,21],[125,197],[-4,84],[80,299]],[[0,3769],[64,5]],[[160,3787],[-2,0]],[[158,3787],[2,0]],[[285,3775],[-1,2]],[[287,3775],[2,-2]],[[289,3773],[-1,2]],[[297,3763],[-8,10]],[[297,3763],[1,-2]],[[299,3762],[-2,1]],[[300,3760],[65,3]],[[300,3760],[0,1]],[[365,3763],[-65,-2]],[[365,3763],[25,-13]],[[1039,3230],[150,-11]],[[158,3787],[-158,-17]],[[64,3774],[94,13]],[[284,3777],[-86,13],[-38,-3]],[[160,3787],[125,-12]],[[0,3754],[6,-6]],[[6,3748],[15,0],[3,0],[18,-1]],[[42,3747],[15,-1]],[[57,3746]],[[57,3746],[83,-2]],[[140,3744],[9,-1],[20,0],[4,1]],[[173,3744],[26,3]],[[199,3747]],[[199,3747],[91,10]],[[290,3757],[7,1],[2,2]],[[199,3743]],[[199,3743],[-26,1]],[[173,3744],[-4,0],[-20,0],[-9,0]],[[140,3744],[-23,-1],[-10,1],[-50,2]],[[57,3746]],[[57,3746],[-15,1]],[[42,3747],[-18,1],[-18,0]],[[6,3748],[-1,0]],[[14,3808],[47,9],[27,12]],[[87,3831],[-72,-22]],[[53,3715],[0,11],[2,3],[2,17]],[[57,3746]],[[57,3746],[2,8],[-2,4]],[[57,3758],[1,-5],[-1,-7]],[[57,3746]],[[57,3746],[-3,-16],[-1,-4],[0,-7],[0,-4]],[[53,3703],[0,12]],[[57,3753],[0,-6]],[[57,3758],[1,12]],[[58,3770],[2,9]],[[60,3779],[24,46]],[[87,3836],[0,-5]],[[117,3881],[-30,-45]],[[89,3832],[-2,4]],[[89,3829],[75,7]],[[89,3829],[1,2],[-2,1],[-1,-2],[2,-1]],[[152,3837]],[[152,3837],[-63,-6]],[[100,3705],[63,2],[5,6]],[[168,3713],[31,30]],[[199,3739],[-31,-26]],[[168,3713],[-6,-5],[-62,-2]],[[120,3939],[-3,-58]],[[152,3839],[-35,42]],[[120,3705],[0,1]],[[120,3706],[0,-1]],[[152,3839],[0,-2]],[[152,3837],[-1,0]],[[154,3837],[-2,2]],[[166,3809],[-2,0]],[[164,3809],[4,0]],[[169,3835],[19,-7]],[[195,3813],[-21,-3]],[[174,3810],[21,2]],[[188,3828],[3,-2]],[[192,3827],[-4,1]],[[198,3790],[1,-6],[0,-37]],[[199,3747],[0,-4]],[[199,3743]],[[298,3761],[-1,-2],[-7,-2]],[[290,3757],[-91,-14]],[[199,3743],[0,4]],[[199,3747],[1,37],[-1,6]],[[227,3729],[162,-14]],[[193,3826],[-1,1]],[[192,3827],[-1,-1]],[[191,3826],[2,-2],[0,2]],[[109,3735],[4,13]],[[115,3755],[-1,-2]],[[119,3777],[0,-2]],[[120,3781],[0,-1]],[[74,3801],[31,3]],[[105,3804],[-31,-3]],[[105,3804],[35,2]],[[390,3750],[65,-35]],[[551,3688],[6,-14]],[[1002,3233],[31,-43]],[[1041,3177],[7,-126],[-49,-166],[104,-223],[-44,-184],[54,-62],[134,-36],[151,-124],[114,-298],[-14,-103],[25,-135],[221,-299],[83,-63],[114,-443],[102,-213],[44,-168]],[[2087,534],[165,-534]],[[34,2775],[-27,-117],[52,-75]],[[455,3715],[96,-27]],[[557,3674],[105,-65],[340,-376]],[[199,3743],[0,-4]],[[5,3680],[42,21]],[[164,3809],[-24,-3],[24,3]],[[166,3809],[8,1]],[[168,3809],[6,1]],[[1002,3233],[37,-3]],[[1189,3219],[32,-2]],[[1226,3217],[-5,0]],[[1226,3217],[312,-66],[368,146],[207,-19],[194,-118],[251,-92],[116,-144],[249,-138],[67,44],[97,11],[99,92],[58,4],[278,-38],[299,-97],[157,-12],[118,264]],[[0,0],[0,4096],[4096,0],[0,-4096],[-4096,0]],[[1284,3414],[85,609],[462,-45],[86,-649],[-633,85]],[[228,3803],[163,0],[-2,-87],[-38,-37],[-322,-94],[-29,13],[0,192],[141,176],[55,-19],[32,-144]],[[1378,3034],[26,86],[144,-103],[-4,-44],[-38,-31],[-128,92]],[[1021,3211],[53,56],[101,-6],[43,-132],[-62,-34],[-73,8],[-62,108]],[[145,4096],[37,0],[-11,-126],[-72,72],[30,18],[-31,15],[11,19],[35,-23],[1,25]],[[275,4096],[15,0],[1,-3],[-16,3]],[[245,4096],[21,0],[-1,-15],[-20,15]],[[219,4096],[18,0],[-39,-41],[53,30],[16,-10],[-13,1],[-8,-9],[35,-13],[-101,-15],[20,57],[12,0],[6,-5],[1,5]],[[162,2865],[95,83],[48,-79],[52,-4],[6,-40],[-127,-53],[-74,93]]]}