{"objects":{"water":{"type":"GeometryCollection","geometries":[{"type":"MultiPolygon","properties":{"source":"naturalearthdata.com","kind":"ocean","area":1576712559132672,"sort_rank":200,"min_zoom":0.0,"id":1},"arcs":[[[261],[262]],[[263]]]},{"type":"MultiLineString","properties":{"source":"naturalearthdata.com","kind":"ocean","sort_rank":205,"boundary":true,"min_zoom":0.0,"id":75},"arcs":[[264],[265]]},{"type":"LineString","properties":{"source":"naturalearthdata.com","kind":"ocean","sort_rank":205,"boundary":true,"min_zoom":0.0,"id":3843},"arcs":[266]}]},"buildings":{"type":"GeometryCollection","geometries":[]},"places":{"type":"GeometryCollection","geometries":[{"type":"Point","properties":{"name:ka":"\u10e0\u10d4\u10e1\u10d8\u10e4\u10d8","name:mr":"\u0930\u0947\u0938\u093f\u092b\u0947","name:ko":"\ud5e4\uc2dc\ud53c","name:kn":"\u0cb0\u0cc6\u0cb8\u0cbf\u0cab\u0cc0","name:ar":"\u0631\u064a\u0633\u064a\u0641\u064a","name:kk":"\u0420\u0435\u0441\u0438\u0444\u0438","name:th":"\u0e40\u0e23\u0e0b\u0e35\u0e1f\u0e35","name:ru":"\u0420\u0435\u0441\u0438\u0444\u0438","name:ce":"\u0420\u0435\u0441\u0438\u0444\u0438","name:mn":"\u0420\u0435\u0441\u0438\u0444\u0438","name:tg":"\u0420\u0435\u0441\u0438\u0444\u0438","name:mk":"\u0420\u0435\u0441\u0438\u0444\u0435","name:fa":"\u0631\u06cc\u0633\u06cc\u0641","kind_detail":"city","id":655122109,"source":"openstreetmap.org","name:zh":"\u7d2f\u897f\u8153","name:lv":"Resifi","name:ja":"\u30ec\u30b7\u30d5\u30a7","name:lt":"Resif\u0117","name:uz":"Resifi","name:he":"\u05e8\u05e1\u05d9\u05e4\u05d4","kind":"locality","name:bn":"\u09b9\u09c7\u09b8\u09bf\u09ab\u09bf","name:la":"Recifae","name:uk":"\u0420\u0435\u0441\u0456\u0444\u0456","name:hy":"\u054c\u0565\u057d\u056b\u0586\u056b","name:be":"\u0420\u044d\u0441\u0456\u0444\u0456","name:bg":"\u0420\u0435\u0441\u0438\u0444\u0438","name:sr":"\u0420\u0435\u0441\u0438\u0444\u0435","population":1599514,"name:el":"\u03a1\u03b5\u03c3\u03af\u03c6\u03b5","name:eo":"Recifo","name":"Recife","region_capital":true,"min_zoom":8.0},"coordinates":[810,1008]},{"type":"Point","properties":{"name:ka":"\u10df\u10e3\u10d0\u10dc-\u10de\u10d4\u10e1\u10dd\u10d0","name:mr":"\u0939\u094b\u0906\u0935 \u092a\u0947\u0938\u094b\u0906","name:ko":"\uc8fc\uc559\ud398\uc18c\uc544","name:ar":"\u062c\u0648\u0627\u0648 \u0628\u064a\u0633\u0648\u0627","name:kk":"\u0416\u0443\u0430\u043d-\u041f\u0435\u0441\u043e\u0430","name:os":"\u0416\u0443\u0430\u043d-\u041f\u0435\u0441\u043e\u00e6","min_zoom":8.0,"loc_name":"Jampa","name:ru":"\u0416\u0443\u0430\u043d-\u041f\u0435\u0441\u043e\u0430","name:tg":"\u0416\u0443\u0430\u043d-\u041f\u0435\u0441\u043e\u0430","name:mk":"\u0408\u043e\u00f4 \u041f\u0435\u0441\u043e\u0430","name:fa":"\u0698\u0648\u0627\u0626\u0648\u067e\u0633\u0648\u0627","kind_detail":"city","name:sh":"\u017doao Pesoa","id":603066977,"source":"openstreetmap.org","name:zh":"\u82e5\u6602\u4f69\u7d22\u963f","name:lv":"\u017duaunpesoa","name:ja":"\u30b8\u30e7\u30a2\u30f3\u30da\u30bd\u30a2","name:lt":"\u017doan Pesoa","name:uz":"Juan-Pesoa","name:he":"\u05d6'\u05d5\u05d0\u05d0\u05d5 \u05e4\u05e1\u05d5\u05d0\u05d4","kind":"locality","name:uk":"\u0416\u0443\u0430\u043d-\u041f\u0435\u0441\u0441\u043e\u0430","name:hy":"\u053a\u0578\u0582\u0561\u0576 \u054a\u0565\u057d\u0578\u0561","name:be":"\u0416\u0443\u0430\u043d-\u041f\u0435\u0441\u043e\u0430","name:bg":"\u0416\u043e\u0430\u043e \u041f\u0435\u0441\u043e\u0430","name:sr":"\u0416\u043e\u0430\u043e \u041f\u0435\u0441\u043e\u0430","population":769604,"name:eo":"\u0134oan-Pesoo","name":"Jo\u00e3o Pessoa","region_capital":true},"coordinates":[799,3779]},{"type":"Point","properties":{"name:ja":"\u30b8\u30e7\u30dc\u30c8\u30f3\u30fb\u30c9\u30b9\u30fb\u30b0\u30a2\u30e9\u30e9\u30da\u30b9","name:ka":"\u10df\u10d0\u10d1\u10dd\u10d0\u10e2\u10d0\u10dd","name:ko":"\uc790\ubcf4\uc544\ud0d5\ub450\uc2a4\uad6c\uc544\ub77c\ub77c\ud398\uc2a4","name:kk":"\u0416\u0430\u0431\u043e\u0430\u0442\u0430\u043d-\u0434\u0443\u0441-\u0413\u0443\u0430\u0440\u0430\u0440\u0430\u043f\u0438\u0441","min_zoom":8.0,"loc_name":"Jaboat\u00e3o","name:ru":"\u0416\u0430\u0431\u043e\u0430\u0442\u0430\u043d-\u0434\u0443\u0441-\u0413\u0443\u0430\u0440\u0430\u0440\u0430\u043f\u0438\u0441","name:bg":"\u0416\u0430\u0431\u043e\u0430\u0442\u0430\u043e \u0434\u043e\u0441 \u0413\u0443\u0430\u0440\u0430\u0440\u0430\u043f\u0438\u0441","name:lt":"\u017daboatan dos Guararapesas","id":341693274,"population":675599,"kind":"locality","name":"Jaboat\u00e3o dos Guararapes","kind_detail":"city","name:sr":"\u0416\u0430\u0431\u043e\u0430\u0442\u0430\u043e \u0434\u043e\u0441 \u0413\u0432\u0430\u0440\u0430\u0440\u0430\u043f\u0435\u0441","source":"openstreetmap.org"},"coordinates":[610,682]},{"type":"Point","properties":{"name:ja":"\u30aa\u30ea\u30f3\u30c0","name:ka":"\u10dd\u10da\u10d8\u10dc\u10d3\u10d0","name:ko":"\uc62c\ub9b0\ub2e4","name:he":"\u05d0\u05d5\u05dc\u05d9\u05e0\u05d3\u05d4","name:kk":"\u041e\u043b\u0438\u043d\u0434\u0430","name:th":"\u0e42\u0e2d\u0e25\u0e34\u0e07\u0e14\u0e32","name:uk":"\u041e\u043b\u0456\u043d\u0434\u0430","name:ru":"\u041e\u043b\u0438\u043d\u0434\u0430","name:bg":"\u041e\u043b\u0438\u043d\u0434\u0430","id":628324191,"population":388127,"kind":"locality","name":"Olinda","kind_detail":"city","min_zoom":8.0,"name:sr":"\u041e\u043b\u0438\u043d\u0434\u0430","source":"openstreetmap.org","name:zh":"\u5967\u6797\u9054"},"coordinates":[904,1201]},{"type":"Point","properties":{"source":"openstreetmap.org","kind":"locality","name":"Paulista","kind_detail":"city","population":314302,"min_zoom":8.0,"id":415521413},"coordinates":[838,1391]},{"type":"Point","properties":{"kind":"locality","name":"Cabo de Santo Agostinho","kind_detail":"city","source":"openstreetmap.org","min_zoom":8.0,"name:ru":"\u041a\u0430\u0431\u0443-\u0434\u0438-\u0421\u0430\u043d\u0442\u0443-\u0410\u0433\u043e\u0441\u0442\u0438\u043d\u044c\u044e","id":342004547,"population":196152},"coordinates":[362,362]},{"type":"Point","properties":{"source":"openstreetmap.org","kind":"locality","name":"Camaragibe","kind_detail":"city","population":151587,"min_zoom":8.0,"id":341725804},"coordinates":[510,1134]},{"type":"Point","properties":{"kind":"locality","name":"Santa Rita","name:ka":"\u10e1\u10d0\u10dc\u10e2\u10d0-\u10e0\u10d8\u10e2\u10d0","kind_detail":"city","name:kk":"\u0421\u0430\u043d\u0442\u0430-\u0420\u0438\u0442\u0430","source":"openstreetmap.org","min_zoom":8.0,"name:ru":"\u0421\u0430\u043d\u0442\u0430-\u0420\u0438\u0442\u0430","id":415521472,"population":121994},"coordinates":[500,3759]},{"type":"Point","properties":{"source":"openstreetmap.org","kind":"locality","name":"Igarassu","kind_detail":"city","population":109322,"min_zoom":8.0,"id":415521409},"coordinates":[729,1681]},{"type":"Point","properties":{"source":"openstreetmap.org","kind":"locality","name":"S\u00e3o Louren\u00e7o da Mata","kind_detail":"city","population":108301,"min_zoom":8.0,"id":415522140},"coordinates":[410,1177]},{"type":"Point","properties":{"source":"openstreetmap.org","kind":"locality","name":"Abreu e Lima","kind_detail":"town","population":95670,"min_zoom":8.0,"id":415521408},"coordinates":[751,1489]},{"type":"Point","properties":{"source":"openstreetmap.org","kind":"locality","name":"Bayeux","kind_detail":"town","population":95470,"min_zoom":8.0,"id":415521473},"coordinates":[640,3754]},{"type":"Point","properties":{"source":"openstreetmap.org","kind":"locality","name":"Goiana","kind_detail":"town","population":74182,"min_zoom":8.0,"id":415521332},"coordinates":[467,2488]},{"type":"Point","properties":{"source":"openstreetmap.org","kind":"locality","name":"Ipojuca","kind_detail":"town","population":74059,"min_zoom":8.0,"id":415522127},"coordinates":[277,27]},{"type":"Point","properties":{"source":"openstreetmap.org","kind":"locality","name":"Moreno","kind_detail":"town","population":55102,"min_zoom":8.0,"id":415522139},"coordinates":[212,877]},{"type":"Point","properties":{"source":"openstreetmap.org","kind":"locality","name":"Itamb\u00e9","kind_detail":"town","population":36049,"min_zoom":8.0,"id":2678738428},"coordinates":[136,2929]},{"type":"Point","properties":{"source":"openstreetmap.org","kind":"locality","name":"Pedras de Fogo","kind_detail":"town","population":27021,"min_zoom":8.0,"id":415521331},"coordinates":[128,2964]},{"type":"Point","properties":{"source":"openstreetmap.org","kind":"locality","name":"Condado","kind_detail":"town","population":24180,"min_zoom":8.0,"id":415521329},"coordinates":[164,2408]},{"type":"Point","properties":{"source":"openstreetmap.org","kind":"locality","name":"Itapissuma","kind_detail":"town","population":24026,"min_zoom":8.0,"id":415521421},"coordinates":[755,1879]},{"type":"Point","properties":{"source":"openstreetmap.org","kind":"locality","name":"Pitimbu","kind_detail":"town","population":22985,"min_zoom":8.0,"id":2050342925},"coordinates":[1005,2746]},{"type":"Point","properties":{"source":"openstreetmap.org","kind":"locality","name":"Conde","kind_detail":"town","population":20452,"min_zoom":8.0,"id":415521471},"coordinates":[731,3372]},{"type":"Point","properties":{"source":"openstreetmap.org","kind":"locality","name":"Caapor\u00e3","kind_detail":"town","population":19929,"min_zoom":8.0,"id":415521333},"coordinates":[701,2636]},{"type":"Point","properties":{"source":"openstreetmap.org","kind":"locality","name":"Alhandra","kind_detail":"town","population":18674,"min_zoom":8.0,"id":415521334},"coordinates":[715,2871]},{"type":"Point","properties":{"source":"openstreetmap.org","kind":"locality","name":"Ilha de Itamarac\u00e1","kind_detail":"town","population":18412,"min_zoom":8.0,"id":415521336},"coordinates":[949,1939]},{"type":"Point","properties":{"source":"openstreetmap.org","kind":"locality","name":"Ara\u00e7oiaba","kind_detail":"town","population":17276,"min_zoom":8.0,"id":3428985386},"coordinates":[193,1827]},{"type":"Point","properties":{"source":"openstreetmap.org","kind":"locality","name":"Cruz do Esp\u00edrito Santo","kind_detail":"town","population":15702,"min_zoom":8.0,"id":415521453},"coordinates":[205,3728]},{"type":"Point","properties":{"source":"openstreetmap.org","kind":"locality","name":"Itaquitinga","kind_detail":"town","population":15468,"min_zoom":8.0,"id":415521410},"coordinates":[157,2184]}]},"transit":{"type":"GeometryCollection","geometries":[{"type":"MultiLineString","properties":{"kind":"subway","name":"Linha Sul","sort_rank":275,"colour":"#1E90FF","source":"openstreetmap.org","min_zoom":8.0,"network":"Metr\u00f4 do Recife","ref":"Sul","osm_relation":true,"colour_name":"dodgerblue"},"arcs":[[5],[6],[7],[8],[9],[10],[11],[12],[13],[14],[15],[16],[17],[18],[19],[20]]},{"type":"MultiLineString","properties":{"kind":"subway","name":"Linha Centro - 1","sort_rank":275,"colour":"#FF8C00","source":"openstreetmap.org","min_zoom":8.0,"network":"Metr\u00f4 do Recife","ref":"1","osm_relation":true,"colour_name":"orange"},"arcs":[[21],[22],[23],[24],[25],[26],[27]]},{"type":"MultiLineString","properties":{"osm_relation":true,"source":"openstreetmap.org","kind":"train","name":"Santa Rita\/Cabedelo","sort_rank":275,"min_zoom":6.0,"operator":"CBTU"},"arcs":[[28],[29],[30],[31],[32],[33],[34],[35],[36],[37],[38],[39],[40],[41],[42],[43],[44],[45],[46],[47],[48],[49],[50],[51],[52],[53],[54],[55],[56],[57],[58],[59],[60],[61],[62],[63],[64],[65],[66],[67],[68],[69],[70],[71],[72],[73],[74],[75],[76],[77],[78],[79],[80],[81],[82],[83],[84],[85],[86],[87],[88],[89],[90],[91],[92],[93],[94],[95],[96],[97],[98],[99],[100],[101],[102],[103],[104],[105],[106],[107],[108],[109],[110],[111],[112],[113],[114],[115],[116],[117],[118],[119],[120],[121],[122],[123],[124],[125],[126],[127],[128],[129],[130],[131],[132],[133],[134],[135],[136],[137],[138],[139],[140],[141],[142],[143],[144],[145],[146],[147],[148],[149],[150],[151],[152],[153],[154],[155],[156],[157],[158],[159],[160],[161],[162],[163],[164],[165],[166],[167],[168],[169],[170],[171],[172],[173],[174],[175],[176],[177],[178],[179],[180],[181],[182],[183],[184],[185],[186],[187],[188],[189],[190],[191],[192],[193],[194],[195],[196],[197],[198],[199],[200],[201],[202],[203],[204],[205],[206],[207],[208],[209],[210],[211],[212],[213],[214],[215],[216],[217],[218],[219],[220],[221],[222],[223],[224],[225],[226],[227],[228],[229],[230],[231],[232],[233],[234],[235],[236],[237],[238],[239],[240],[241],[242],[243],[244],[245],[246]]},{"type":"MultiLineString","properties":{"kind":"subway","name":"Linha Centro - 2","sort_rank":275,"colour":"#FF0000","source":"openstreetmap.org","min_zoom":8.0,"network":"Metr\u00f4 do Recife","ref":"2","osm_relation":true,"colour_name":"red"},"arcs":[[247],[248],[249],[250],[251],[252],[253],[254]]},{"type":"MultiLineString","properties":{"kind":"train","name":"Rodovia Governador M\u00e1rio Covas","sort_rank":275,"source":"openstreetmap.org","min_zoom":6.0,"ref":"BR-101","osm_relation":true,"network":"BR"},"arcs":[[255],[256],[257],[258],[259],[260]]}]},"pois":{"type":"GeometryCollection","geometries":[{"type":"Point","properties":{"kind":"nature_reserve","name":"\u00c1rea de Prote\u00e7\u00e3o Ambiental da Tambaba","area":118054000,"source":"openstreetmap.org","min_zoom":8.85,"tier":2,"id":-1688433,"osm_relation":true},"coordinates":[899,3124]}]},"boundaries":{"type":"GeometryCollection","geometries":[{"type":"LineString","properties":{"name:kg":"Brazil","name:ty":"Brazil","name:ka":"\u10d1\u10e0\u10d0\u10d6\u10d8\u10da\u10d8\u10d0","name:ko":"\ube0c\ub77c\uc9c8","name:cv":"\u0411\u0440\u0430\u0437\u0438\u043b\u0438","name:cu":"\u0411\u0440\u0430\ua641\u0457\u043b\u0457\ua657","name:kl":"Brazil","name:cs":"Braz\u00edlie","name:ki":"Brazil","name:co":"Brasile","name:kv":"\u0411\u0440\u0430\u0437\u0438\u043b\u0438\u044f","name:ku":"Braz\u00eel","name:ce":"\u0411\u0440\u0430\u0437\u0438\u043b\u0438\u044f","name:ta":"\u0baa\u0bbf\u0bb0\u0bc7\u0b9a\u0bbf\u0bb2\u0bcd","name:tg":"\u0411\u0440\u0430\u0437\u0438\u043b\u0438\u044f","name:ky":"\u0411\u0440\u0430\u0437\u0438\u043b\u0438\u044f","name:te":"\u0c2c\u0c4d\u0c30\u0c46\u0c1c\u0c3f\u0c32\u0c4d","name:da":"Brasilien","name:de":"Brasilien","name:dz":"\u0f56\u0f71\u0f62\u0f71\u0f0b\u0f5b\u0f72\u0f63\u0f0b","source":"openstreetmap.org","name:kn":"\u0cac\u0ccd\u0cb0\u0cc6\u0c9c\u0cbf\u0cb2\u0ccd","name:dv":"\u0784\u07aa\u0783\u07ac\u0792\u07a8\u078d\u07b0","name:km":"\u1794\u17d2\u179a\u17c1\u179f\u17ca\u17b8\u179b","name:lv":"Braz\u012blija","name:lt":"Brazilija","name:uz":"Braziliya","name:kk":"\u0411\u0440\u0430\u0437\u0438\u043b\u0438\u044f","name:ur":"\u0628\u0631\u0627\u0632\u06cc\u0644","name:lb":"Brasilien","name:la":"Brasilia","name:tt":"\u0411\u0440\u0430\u0437\u0438\u043b\u0438\u044f","name:uk":"\u0411\u0440\u0430\u0437\u0438\u043b\u0456\u044f","name:ug":"\u0628\u0631\u0627\u0632\u0649\u0644\u0649\u064a\u06d5","name:li":"Braziel","name:ln":"Brazil","name:el":"\u0392\u03c1\u03b1\u03b6\u03b9\u03bb\u03af\u03b1","name:eo":"Brazilo","name:en":"Brazil","name":"Brasil","name:tk":"Brazili\u00fda","name:ee":"Brazil","name:th":"\u0e1b\u0e23\u0e30\u0e40\u0e17\u0e28\u0e1a\u0e23\u0e32\u0e0b\u0e34\u0e25","name:et":"Brasiilia","name:ay":"Wrasil","name:rm":"Brasilia","name:rn":"Brazil","name:az":"Braziliya","name:ig":"Brazil","name:as":"\u09ac\u09cd\u09f0\u09be\u099c\u09bf\u09b2","name:zh-min-nan":"Pa-se","name:io":"Brazilia","name:is":"Brasil\u00eda","name:am":"\u1265\u122b\u12da\u120d","name:it":"Brasile","name:ru":"\u0411\u0440\u0430\u0437\u0438\u043b\u0438\u044f","name:rw":"Burezile","name:af":"Brasili\u00eb","name:zu":"IBrazili","kind_detail":"2","name:za":"Bahsih","name:zh-yue":"\u5df4\u897f","name:zh":"\u5df4\u897f","name:so":"Barasiil","name:sl":"Brazilija","name:sk":"Braz\u00edlia","name:ja":"\u30d6\u30e9\u30b8\u30eb","name:sh":"Brazil","name:se":"Brasilia","name:sc":"Brasile","name:br":"Brazil","name:bs":"Brazil","name:bm":"Brazil","name:bn":"\u09ac\u09cd\u09b0\u09be\u099c\u09bf\u09b2","name:bo":"\u0f54\u0f74\u0f0b\u0f62\u0f74\u0f0b\u0f5f\u0f72\u0f63\u0f0d","name:bi":"Brazil","name:sw":"Brazil","name:be":"\u0411\u0440\u0430\u0437\u0456\u043b\u0456\u044f","name:bg":"\u0411\u0440\u0430\u0437\u0438\u043b\u0438\u044f","name:ba":"\u0411\u0440\u0430\u0437\u0438\u043b\u0438\u044f","name:sq":"Brazili","name:sa":"\u092c\u094d\u0930\u093e\u0938\u0940\u0932","name:ps":"\u0628\u0631\u0627\u0632\u06cc\u0644","min_zoom":8.0,"name:ro":"Brazilia","name:pa":"\u0a2c\u0a4d\u0a30\u0a3e\u0a1c\u0a3c\u0a40\u0a32","name:os":"\u0411\u0440\u0430\u0437\u0438\u043b\u0438","name:or":"\u0b2c\u0b4d\u0b30\u0b3e\u0b1c\u0b3f\u0b32","name:pl":"Brazylia","name:st":"Brazil","sort_rank":262,"name:sr":"\u0411\u0440\u0430\u0437\u0438\u043b","osm_relation":true,"name:ar":"\u0627\u0644\u0628\u0631\u0627\u0632\u064a\u0644","name:tr":"Brezilya","name:hi":"\u092c\u094d\u0930\u093e\u091c\u093c\u0940\u0932","name:sv":"Brasilien","name:he":"\u05d1\u05e8\u05d6\u05d9\u05dc","name:hy":"\u0532\u0580\u0561\u0566\u056b\u056c\u056b\u0561","name:ht":"Brezil","name:hu":"Braz\u00edlia","name:hr":"Brazil","kind":"country","name:yi":"\u05d1\u05e8\u05d0\u05d6\u05d9\u05dc","name:mt":"Bra\u017cil","name:ms":"Brazil","name:mr":"\u092c\u094d\u0930\u093e\u091d\u0940\u0932","name:my":"\u1018\u101b\u102c\u1007\u102e\u1038\u1014\u102d\u102f\u1004\u103a\u1004\u1036","official_name":"Rep\u00fablica Federativa do Brasil","name:mg":"Brazila","name:ml":"\u0d2c\u0d4d\u0d30\u0d38\u0d40\u0d7d","name:mn":"\u0411\u0440\u0430\u0437\u0438\u043b","name:mi":"Par\u012bhi","id":-59470,"name:mk":"\u0411\u0440\u0430\u0437\u0438\u043b","name:vo":"Brasil\u00e4n","name:fa":"\u0628\u0631\u0632\u06cc\u0644","name:fi":"Brasilia","old_name:vi":"Ba T\u00e2y","alt_name:vi":"Brazil;Bra-xin","name:fr":"Br\u00e9sil","name:fy":"Brazylje","name:nl":"Brazili\u00eb","name:na":"Bradir","name:ne":"\u092c\u094d\u0930\u093e\u091c\u093f\u0932","name:wa":"Braezi","name:wo":"Breesil","name:nv":"Bwaz\u00ed\u00edl","name:ga":"An Bhrasa\u00edl","name:gd":"Braisil","name:gn":"Pindorama","maritime_boundary":true,"name:gv":"Yn Vrasseel","name:gu":"\u0aac\u0acd\u0ab0\u0abe\u0a9d\u0abf\u0ab2"},"arcs":[0]},{"type":"LineString","properties":{"name:left:la":"Pernambucum","name:left:hi":"\u092a\u0947\u0930\u0928\u093e\u092e\u094d\u092c\u0941\u0915\u094b","name:right:hy":"\u054a\u0561\u0580\u0561\u056b\u0562\u0561","name:right:uk":"\u041f\u0430\u0440\u0430\u0457\u0431\u0430","name:left:he":"\u05e4\u05e8\u05e0\u05de\u05d1\u05d5\u05e7\u05d5","name:left:sr":"\u041f\u0435\u0440\u043d\u0430\u043c\u0431\u0443\u043a\u043e","name:right:lt":"Paraiba","name:right:hi":"\u092a\u0930\u0947\u092c\u093e","name:right:lv":"Paraiba","name:left:lt":"Pernambukas","name:left:hy":"\u054a\u0565\u0580\u0576\u0561\u0574\u0562\u0578\u0582\u056f\u0578\u0582","name:left:lv":"Pernambuku","name:right:uz":"Paraiba","name:right:he":"\u05e4\u05d0\u05e8\u05d0\u05d9\u05d1\u05d4","name:right:la":"Parahyba","name:right:os":"\u041f\u0430\u0440\u0430\u0438\u0431\u00e6","short_name:left":"PE","name:right:tg":"\u041f\u0430\u0440\u0430\u0438\u0431\u0430","sort_rank":256,"source":"openstreetmap.org","name:right:ar":"\u0628\u0627\u0631\u0627\u064a\u0628\u0627","name:left":"Pernambuco","name:right:mk":"\u041f\u0430\u0440\u0430\u0438\u0431\u0430","name:left:ja":"\u30da\u30eb\u30ca\u30f3\u30d6\u30fc\u30b3","name:left:ka":"\u10de\u10d4\u10e0\u10dc\u10d0\u10db\u10d1\u10e3\u10d9\u10e3","name:left:os":"\u041f\u0435\u0440\u043d\u0430\u043c\u0431\u0443\u043a\u0443","name:right:ru":"\u041f\u0430\u0440\u0430\u0438\u0431\u0430","name:left:ru":"\u041f\u0435\u0440\u043d\u0430\u043c\u0431\u0443\u043a\u0443","name:right:mr":"\u092a\u0930\u0948\u092c\u093e","name:right:eo":"Paraibo","kind":"region","name":"Pernambuco - Para\u00edba","name:left:fa":"\u067e\u0631\u0646\u0627\u0645\u0628\u0648\u06a9\u0648","min_zoom":8.0,"name:right:be":"\u041f\u0430\u0440\u0430\u0456\u0431\u0430","name:left:zh":"\u4f2f\u5357\u5e03\u54e5","name:left:fr":"Pernambouc","name:right:zh":"\u5e15\u62c9\u4f0a\u5df4","name:left:uz":"Prenambuku","name:right:ja":"\u30d1\u30e9\u30a4\u30d0","name:right:sr":"\u041f\u0430\u0440\u0430\u0438\u0431\u0430","id:right":-301464,"name:left:uk":"\u041f\u0435\u0440\u043d\u0430\u043c\u0431\u0443\u043a\u0443","name:right:sh":"Paraiba","name:left:be":"\u041f\u0435\u0440\u043d\u0430\u043c\u0431\u0443\u043a\u0443","name:left:bg":"\u041f\u0435\u0440\u043d\u0430\u043c\u0431\u0443\u043a\u043e","name:right:fa":"\u067e\u0627\u0631\u0627\u0626\u06cc\u0628\u0627","id":-303702,"name:right":"Para\u00edba","name:left:eo":"Pernambuko","kind_detail":"4","id:left":-303702,"name:left:ko":"\ud398\ub974\ub0a8\ubd80\ucfe0","name:right:ka":"\u10de\u10d0\u10e0\u10d0\u10d8\u10d1\u10d0","name:left:ar":"\u0628\u064a\u0631\u0646\u0627\u0645\u0628\u0648\u0643\u0648","name:left:mk":"\u041f\u0435\u0440\u043d\u0430\u043c\u0431\u0443\u043a\u043e","name:right:ko":"\ud30c\ub77c\uc774\ubc14","name:right:bg":"\u041f\u0430\u0440\u0430\u0438\u0431\u0430","name:left:th":"\u0e40\u0e1b\u0e23\u0e4c\u0e19\u0e31\u0e21\u0e1a\u0e39\u0e01\u0e39","name:left:mr":"\u092a\u0930\u094d\u0928\u093e\u0902\u092c\u0941\u0915\u094b","name:right:th":"\u0e1b\u0e32\u0e23\u0e32\u0e2d\u0e35\u0e1a\u0e32","short_name:right":"PB","name:right:gn":"Parayva","osm_relation":true,"name:left:tg":"\u041f\u0435\u0440\u043d\u0430\u043c\u0431\u0443\u043a\u0443"},"arcs":[1]},{"type":"LineString","properties":{"name:left:la":"Pernambucum","name:left:hi":"\u092a\u0947\u0930\u0928\u093e\u092e\u094d\u092c\u0941\u0915\u094b","name:right:hy":"\u054a\u0561\u0580\u0561\u056b\u0562\u0561","name:right:uk":"\u041f\u0430\u0440\u0430\u0457\u0431\u0430","name:left:he":"\u05e4\u05e8\u05e0\u05de\u05d1\u05d5\u05e7\u05d5","name:left:sr":"\u041f\u0435\u0440\u043d\u0430\u043c\u0431\u0443\u043a\u043e","name:right:lt":"Paraiba","name:right:hi":"\u092a\u0930\u0947\u092c\u093e","name:right:lv":"Paraiba","name:left:lt":"Pernambukas","name:left:hy":"\u054a\u0565\u0580\u0576\u0561\u0574\u0562\u0578\u0582\u056f\u0578\u0582","name:left:lv":"Pernambuku","name:right:uz":"Paraiba","name:right:he":"\u05e4\u05d0\u05e8\u05d0\u05d9\u05d1\u05d4","name:right:la":"Parahyba","short_name:left":"PE","name:right:gn":"Parayva","sort_rank":256,"source":"openstreetmap.org","name:right:ar":"\u0628\u0627\u0631\u0627\u064a\u0628\u0627","name:left":"Pernambuco","name:right:mk":"\u041f\u0430\u0440\u0430\u0438\u0431\u0430","name:right:sr":"\u041f\u0430\u0440\u0430\u0438\u0431\u0430","name:left:ka":"\u10de\u10d4\u10e0\u10dc\u10d0\u10db\u10d1\u10e3\u10d9\u10e3","name:left:os":"\u041f\u0435\u0440\u043d\u0430\u043c\u0431\u0443\u043a\u0443","name:right:ru":"\u041f\u0430\u0440\u0430\u0438\u0431\u0430","name:left:ru":"\u041f\u0435\u0440\u043d\u0430\u043c\u0431\u0443\u043a\u0443","name:right:mr":"\u092a\u0930\u0948\u092c\u093e","name:right:eo":"Paraibo","kind":"region","name":"Pernambuco - Para\u00edba","name:left:fa":"\u067e\u0631\u0646\u0627\u0645\u0628\u0648\u06a9\u0648","name:right:fa":"\u067e\u0627\u0631\u0627\u0626\u06cc\u0628\u0627","min_zoom":8.0,"osm_relation":true,"name:right:be":"\u041f\u0430\u0440\u0430\u0456\u0431\u0430","name:left:zh":"\u4f2f\u5357\u5e03\u54e5","name:left:fr":"Pernambouc","name:right:zh":"\u5e15\u62c9\u4f0a\u5df4","name:left:uz":"Prenambuku","name:right:ja":"\u30d1\u30e9\u30a4\u30d0","name:left:ja":"\u30da\u30eb\u30ca\u30f3\u30d6\u30fc\u30b3","id:right":-301464,"name:left:uk":"\u041f\u0435\u0440\u043d\u0430\u043c\u0431\u0443\u043a\u0443","name:right:sh":"Paraiba","name:left:bg":"\u041f\u0435\u0440\u043d\u0430\u043c\u0431\u0443\u043a\u043e","name:left:be":"\u041f\u0435\u0440\u043d\u0430\u043c\u0431\u0443\u043a\u0443","id":-303702,"name:right":"Para\u00edba","name:left:eo":"Pernambuko","kind_detail":"4","id:left":-303702,"name:left:ko":"\ud398\ub974\ub0a8\ubd80\ucfe0","name:right:ka":"\u10de\u10d0\u10e0\u10d0\u10d8\u10d1\u10d0","name:left:ar":"\u0628\u064a\u0631\u0646\u0627\u0645\u0628\u0648\u0643\u0648","name:left:mk":"\u041f\u0435\u0440\u043d\u0430\u043c\u0431\u0443\u043a\u043e","name:right:ko":"\ud30c\ub77c\uc774\ubc14","name:right:bg":"\u041f\u0430\u0440\u0430\u0438\u0431\u0430","name:left:th":"\u0e40\u0e1b\u0e23\u0e4c\u0e19\u0e31\u0e21\u0e1a\u0e39\u0e01\u0e39","name:left:mr":"\u092a\u0930\u094d\u0928\u093e\u0902\u092c\u0941\u0915\u094b","name:right:th":"\u0e1b\u0e32\u0e23\u0e32\u0e2d\u0e35\u0e1a\u0e32","short_name:right":"PB","name:right:tg":"\u041f\u0430\u0440\u0430\u0438\u0431\u0430","name:right:os":"\u041f\u0430\u0440\u0430\u0438\u0431\u00e6","name:left:tg":"\u041f\u0435\u0440\u043d\u0430\u043c\u0431\u0443\u043a\u0443","maritime_boundary":true},"arcs":[2]},{"type":"LineString","properties":{"name:ka":"\u10de\u10d4\u10e0\u10dc\u10d0\u10db\u10d1\u10e3\u10d9\u10e3","name:mr":"\u092a\u0930\u094d\u0928\u093e\u0902\u092c\u0941\u0915\u094b","name:ko":"\ud398\ub974\ub0a8\ubd80\ucfe0","name:ar":"\u0628\u064a\u0631\u0646\u0627\u0645\u0628\u0648\u0643\u0648","name:th":"\u0e40\u0e1b\u0e23\u0e4c\u0e19\u0e31\u0e21\u0e1a\u0e39\u0e01\u0e39","name:os":"\u041f\u0435\u0440\u043d\u0430\u043c\u0431\u0443\u043a\u0443","name:ru":"\u041f\u0435\u0440\u043d\u0430\u043c\u0431\u0443\u043a\u0443","name:tg":"\u041f\u0435\u0440\u043d\u0430\u043c\u0431\u0443\u043a\u0443","name:mk":"\u041f\u0435\u0440\u043d\u0430\u043c\u0431\u0443\u043a\u043e","name:fa":"\u067e\u0631\u0646\u0627\u0645\u0628\u0648\u06a9\u0648","short_name":"PE","sort_rank":256,"kind_detail":"4","name:uz":"Prenambuku","id":-303702,"source":"openstreetmap.org","name:fr":"Pernambouc","name:zh":"\u4f2f\u5357\u5e03\u54e5","name:lv":"Pernambuku","name:ja":"\u30da\u30eb\u30ca\u30f3\u30d6\u30fc\u30b3","name:lt":"Pernambukas","name:hi":"\u092a\u0947\u0930\u0928\u093e\u092e\u094d\u092c\u0941\u0915\u094b","name:he":"\u05e4\u05e8\u05e0\u05de\u05d1\u05d5\u05e7\u05d5","name:eo":"Pernambuko","name:la":"Pernambucum","name:uk":"\u041f\u0435\u0440\u043d\u0430\u043c\u0431\u0443\u043a\u0443","name:hy":"\u054a\u0565\u0580\u0576\u0561\u0574\u0562\u0578\u0582\u056f\u0578\u0582","name:be":"\u041f\u0435\u0440\u043d\u0430\u043c\u0431\u0443\u043a\u0443","name:bg":"\u041f\u0435\u0440\u043d\u0430\u043c\u0431\u0443\u043a\u043e","name:sr":"\u041f\u0435\u0440\u043d\u0430\u043c\u0431\u0443\u043a\u043e","osm_relation":true,"kind":"region","name":"Pernambuco","min_zoom":8.0,"maritime_boundary":true},"arcs":[3]},{"type":"LineString","properties":{"name:ka":"\u10de\u10d0\u10e0\u10d0\u10d8\u10d1\u10d0","name:mr":"\u092a\u0930\u0948\u092c\u093e","name:ko":"\ud30c\ub77c\uc774\ubc14","name:ar":"\u0628\u0627\u0631\u0627\u064a\u0628\u0627","name:gn":"Parayva","name:th":"\u0e1b\u0e32\u0e23\u0e32\u0e2d\u0e35\u0e1a\u0e32","name:os":"\u041f\u0430\u0440\u0430\u0438\u0431\u00e6","name:ru":"\u041f\u0430\u0440\u0430\u0438\u0431\u0430","name:uz":"Paraiba","name:tg":"\u041f\u0430\u0440\u0430\u0438\u0431\u0430","name:mk":"\u041f\u0430\u0440\u0430\u0438\u0431\u0430","name:fa":"\u067e\u0627\u0631\u0627\u0626\u06cc\u0628\u0627","short_name":"PB","sort_rank":256,"kind_detail":"4","name:hi":"\u092a\u0930\u0947\u092c\u093e","id":-301464,"source":"openstreetmap.org","name:zh":"\u5e15\u62c9\u4f0a\u5df4","name:lv":"Paraiba","name:ja":"\u30d1\u30e9\u30a4\u30d0","name:lt":"Paraiba","name:sh":"Paraiba","name:he":"\u05e4\u05d0\u05e8\u05d0\u05d9\u05d1\u05d4","name:eo":"Paraibo","name:la":"Parahyba","name:uk":"\u041f\u0430\u0440\u0430\u0457\u0431\u0430","name:hy":"\u054a\u0561\u0580\u0561\u056b\u0562\u0561","name:be":"\u041f\u0430\u0440\u0430\u0456\u0431\u0430","name:bg":"\u041f\u0430\u0440\u0430\u0438\u0431\u0430","name:sr":"\u041f\u0430\u0440\u0430\u0438\u0431\u0430","osm_relation":true,"kind":"region","name":"Para\u00edba","min_zoom":8.0,"maritime_boundary":true},"arcs":[4]}]},"roads":{"type":"GeometryCollection","geometries":[{"type":"LineString","properties":{"kind":"major_road","sort_rank":380,"landuse_kind":"urban_area","source":"openstreetmap.org","min_zoom":8.0,"kind_detail":"primary","ref":"PB-004","id":55494959},"arcs":[267]},{"type":"LineString","properties":{"kind":"major_road","sort_rank":380,"kind_detail":"primary","bus_network":"BR:PB:Jo\u00e3o Pessoa","source":"openstreetmap.org","min_zoom":8.0,"bus_shield_text":"I006","landuse_kind":"urban_area","id":246912903},"arcs":[268]},{"type":"MultiLineString","properties":{"bus_network":"BR:PB:Jo\u00e3o Pessoa","cycleway_left":"lane","network":"BR:PB","sort_rank":380,"kind_detail":"primary","is_bicycle_related":true,"kind":"major_road","source":"openstreetmap.org","min_zoom":8.0,"bus_shield_text":"203","shield_text":"008","landuse_kind":"urban_area","ref":"PB-008"},"arcs":[[269],[270]]},{"type":"LineString","properties":{"kind":"major_road","sort_rank":380,"kind_detail":"primary","bus_network":"BR:PB:Jo\u00e3o Pessoa","source":"openstreetmap.org","min_zoom":8.0,"bus_shield_text":"303","landuse_kind":"urban_area","id":246961304},"arcs":[271]},{"type":"MultiLineString","properties":{"kind":"major_road","network":"BR","sort_rank":381,"landuse_kind":"urban_area","source":"openstreetmap.org","min_zoom":8.0,"kind_detail":"trunk","shield_text":"230"},"arcs":[[272],[273]]},{"type":"MultiLineString","properties":{"bus_network":"BR:PB:Jo\u00e3o Pessoa","sort_rank":380,"kind_detail":"primary","kind":"major_road","source":"openstreetmap.org","min_zoom":8.0,"bus_shield_text":"401","landuse_kind":"urban_area"},"arcs":[[274],[275],[276],[277]]},{"type":"MultiLineString","properties":{"kind":"major_road","network":"BR","sort_rank":380,"kind_detail":"primary","source":"openstreetmap.org","min_zoom":8.0,"landuse_kind":"urban_area","shield_text":"232"},"arcs":[[278],[279]]},{"type":"LineString","properties":{"kind":"highway","network":"BR","sort_rank":383,"kind_detail":"motorway","source":"openstreetmap.org","min_zoom":8.0,"all_networks":["BR"],"landuse_kind":"urban_area","shield_text":"232","id":30811103,"all_shield_texts":["232"]},"arcs":[280]},{"type":"LineString","properties":{"kind":"major_road","sort_rank":380,"kind_detail":"primary","bus_network":"BR:PB:Jo\u00e3o Pessoa","source":"openstreetmap.org","min_zoom":8.0,"bus_shield_text":"509","landuse_kind":"urban_area","id":47467552},"arcs":[281]},{"type":"MultiLineString","properties":{"source":"openstreetmap.org","kind":"major_road","kind_detail":"trunk","sort_rank":381,"landuse_kind":"urban_area","ref":"PE-015","min_zoom":8.0},"arcs":[[282],[283],[284],[285]]},{"type":"LineString","properties":{"kind":"major_road","sort_rank":381,"kind_detail":"trunk","bus_network":"BR:PB:Jo\u00e3o Pessoa","source":"openstreetmap.org","min_zoom":8.0,"bus_shield_text":"701","landuse_kind":"urban_area","id":250516377},"arcs":[286]},{"type":"LineString","properties":{"source":"openstreetmap.org","kind":"major_road","sort_rank":380,"kind_detail":"primary","ref":"Avenida Dois","min_zoom":8.0,"id":183655524},"arcs":[287]},{"type":"LineString","properties":{"bus_network":"BR:PB:Jo\u00e3o Pessoa","sort_rank":380,"kind_detail":"primary","is_bicycle_related":true,"kind":"major_road","source":"openstreetmap.org","min_zoom":8.0,"bus_shield_text":"511","landuse_kind":"urban_area"},"arcs":[288]},{"type":"LineString","properties":{"kind":"major_road","sort_rank":380,"landuse_kind":"urban_area","source":"openstreetmap.org","min_zoom":8.0,"kind_detail":"primary","ref":"Rua Doutor Souza Le\u00e3o","id":179536232},"arcs":[289]},{"type":"MultiLineString","properties":{"source":"openstreetmap.org","bus_network":"BR:PB:Jo\u00e3o Pessoa","bus_shield_text":"510","sort_rank":380,"kind_detail":"primary","min_zoom":8.0,"kind":"major_road"},"arcs":[[290],[291],[292]]},{"type":"MultiLineString","properties":{"source":"openstreetmap.org","kind":"major_road","sort_rank":381,"kind_detail":"trunk","ref":"PE-009","min_zoom":8.0},"arcs":[[293],[294],[295],[296],[297]]},{"type":"MultiLineString","properties":{"kind":"highway","network":"BR","sort_rank":383,"landuse_kind":"urban_area","source":"openstreetmap.org","min_zoom":8.0,"all_networks":["BR"],"kind_detail":"motorway","shield_text":"230","ref":"BR-230","all_shield_texts":["230"]},"arcs":[[298],[299],[300],[301]]},{"type":"MultiLineString","properties":{"bus_network":"BR:PB:Jo\u00e3o Pessoa","sort_rank":380,"kind_detail":"primary","kind":"major_road","source":"openstreetmap.org","min_zoom":8.0,"bus_shield_text":"600","landuse_kind":"urban_area"},"arcs":[[302],[303],[304],[305],[306]]},{"type":"MultiLineString","properties":{"source":"openstreetmap.org","kind":"major_road","kind_detail":"trunk","sort_rank":381,"landuse_kind":"urban_area","ref":"PE-022","min_zoom":8.0},"arcs":[[307],[308]]},{"type":"LineString","properties":{"bus_network":"BR:PB:Jo\u00e3o Pessoa","sort_rank":380,"kind_detail":"primary","kind":"major_road","source":"openstreetmap.org","min_zoom":8.0,"bus_shield_text":"520","landuse_kind":"urban_area"},"arcs":[309]},{"type":"MultiLineString","properties":{"source":"openstreetmap.org","kind":"major_road","sort_rank":380,"kind_detail":"primary","ref":"PE-35","min_zoom":8.0},"arcs":[[310],[311]]},{"type":"MultiLineString","properties":{"source":"openstreetmap.org","kind":"major_road","landuse_kind":"urban_area","sort_rank":380,"kind_detail":"primary","ref":"PE-022","min_zoom":8.0},"arcs":[[312],[313]]},{"type":"MultiLineString","properties":{"bus_network":"BR:PB:Jo\u00e3o Pessoa","sort_rank":380,"kind_detail":"primary","kind":"major_road","source":"openstreetmap.org","min_zoom":8.0,"bus_shield_text":"I007 (1)","landuse_kind":"urban_area"},"arcs":[[314],[315],[316],[317],[318],[319],[320],[321],[322]]},{"type":"MultiLineString","properties":{"source":"openstreetmap.org","kind":"major_road","landuse_kind":"urban_area","sort_rank":380,"kind_detail":"primary","ref":"PE-027","min_zoom":8.0},"arcs":[[323],[324],[325],[326],[327]]},{"type":"LineString","properties":{"kind":"major_road","sort_rank":380,"kind_detail":"primary","is_bicycle_related":true,"bus_network":"BR:PB:Jo\u00e3o Pessoa","source":"openstreetmap.org","min_zoom":8.0,"bus_shield_text":"I007 (2)","id":118223030},"arcs":[328]},{"type":"MultiLineString","properties":{"source":"openstreetmap.org","kind":"major_road","network":"BR:PB","sort_rank":380,"kind_detail":"primary","min_zoom":8.0,"shield_text":"004"},"arcs":[[329],[330]]},{"type":"MultiLineString","properties":{"sort_rank":380,"kind_detail":"primary","min_zoom":8.0,"kind":"major_road","source":"openstreetmap.org"},"arcs":[[331],[332],[333],[334],[335],[336],[337],[338],[339],[340],[341],[342],[343],[344],[345],[346],[347],[348],[349],[350],[351],[352],[353],[354],[355],[356],[357],[358],[359],[360],[361],[362],[363],[364],[365],[366],[367],[368],[369],[370],[371],[372],[373],[374],[375],[376],[377],[378],[379],[380],[381],[382],[383],[384],[385],[386],[387],[388],[389],[390],[391],[392],[393],[394],[395],[396],[397],[398],[399],[400],[401],[402],[403],[404],[405],[406],[407],[408],[409],[410],[411],[412],[413],[414],[415],[416],[417],[418],[419],[420],[421],[422],[423],[424],[425],[426],[427],[428],[429],[430],[431],[432],[433],[434],[435],[436],[437],[438],[439],[440],[441],[442],[443],[444],[445],[446],[447],[448],[449],[450],[451],[452],[453],[454],[455],[456],[457],[458],[459],[460],[461],[462],[463],[464],[465],[466],[467],[468],[469],[470],[471],[472],[473],[474],[475],[476],[477],[478],[479],[480],[481],[482],[483],[484],[485],[486],[487],[488],[489],[490],[491],[492],[493],[494],[495]]},{"type":"LineString","properties":{"bus_network":"BR:PB","network":"BR:PB","sort_rank":380,"kind_detail":"primary","kind":"major_road","source":"openstreetmap.org","min_zoom":8.0,"bus_shield_text":"5003","shield_text":"004","ref":"PB-004"},"arcs":[496]},{"type":"MultiLineString","properties":{"kind":"highway","network":"BR","sort_rank":383,"landuse_kind":"urban_area","source":"openstreetmap.org","min_zoom":8.0,"all_networks":["BR","BR"],"kind_detail":"motorway","shield_text":"230","all_shield_texts":["230","230"]},"arcs":[[497],[498],[499],[500],[501]]},{"type":"LineString","properties":{"source":"openstreetmap.org","kind":"major_road","sort_rank":380,"kind_detail":"primary","ref":"PE-075","min_zoom":8.0},"arcs":[502]},{"type":"MultiLineString","properties":{"source":"openstreetmap.org","bus_network":"BR:PB:Jo\u00e3o Pessoa","bus_shield_text":"507","sort_rank":380,"kind_detail":"primary","min_zoom":8.0,"kind":"major_road"},"arcs":[[503],[504],[505],[506],[507]]},{"type":"MultiLineString","properties":{"bus_network":"BR:PB","network":"BR:PB","sort_rank":380,"kind_detail":"primary","kind":"major_road","source":"openstreetmap.org","min_zoom":8.0,"bus_shield_text":"5502 (PU)","shield_text":"004","ref":"PB-004"},"arcs":[[508],[509],[510],[511]]},{"type":"MultiLineString","properties":{"bus_network":"BR:PB:Jo\u00e3o Pessoa","sort_rank":380,"kind_detail":"primary","kind":"major_road","source":"openstreetmap.org","min_zoom":8.0,"bus_shield_text":"5307","landuse_kind":"urban_area"},"arcs":[[512],[513]]},{"type":"LineString","properties":{"cycleway_right":"lane","sort_rank":380,"kind_detail":"primary","is_bicycle_related":true,"kind":"major_road","bus_network":"BR:PB:Jo\u00e3o Pessoa","source":"openstreetmap.org","min_zoom":8.0,"bus_shield_text":"600","landuse_kind":"urban_area","id":247294422},"arcs":[514]},{"type":"MultiLineString","properties":{"kind":"highway","network":"BR","sort_rank":383,"landuse_kind":"urban_area","source":"openstreetmap.org","min_zoom":8.0,"all_networks":["BR"],"kind_detail":"motorway","shield_text":"230","ref":"BR-101;BR-230","all_shield_texts":["230"]},"arcs":[[515],[516]]},{"type":"MultiLineString","properties":{"bus_network":"BR:PB:Jo\u00e3o Pessoa","sort_rank":380,"kind_detail":"primary","kind":"major_road","source":"openstreetmap.org","min_zoom":8.0,"bus_shield_text":"201","landuse_kind":"urban_area"},"arcs":[[517],[518]]},{"type":"MultiLineString","properties":{"source":"openstreetmap.org","kind":"major_road","landuse_kind":"urban_area","sort_rank":380,"kind_detail":"primary","ref":"PE-001","min_zoom":8.0},"arcs":[[519],[520],[521],[522]]},{"type":"LineString","properties":{"source":"openstreetmap.org","bus_network":"BR:PB","bus_shield_text":"5003","sort_rank":380,"kind_detail":"primary","min_zoom":8.0,"kind":"major_road"},"arcs":[523]},{"type":"MultiLineString","properties":{"kind":"major_road","network":"BR:PB","sort_rank":380,"kind_detail":"primary","source":"openstreetmap.org","min_zoom":8.0,"shield_text":"008","ref":"PB-018"},"arcs":[[524],[525]]},{"type":"LineString","properties":{"kind":"major_road","sort_rank":380,"kind_detail":"primary","is_bicycle_related":true,"cycleway":"track","source":"openstreetmap.org","min_zoom":8.0,"id":104073049},"arcs":[526]},{"type":"LineString","properties":{"source":"openstreetmap.org","kind":"highway","sort_rank":383,"kind_detail":"motorway","ref":"PE-009","min_zoom":8.0},"arcs":[527]},{"type":"LineString","properties":{"source":"openstreetmap.org","kind":"major_road","sort_rank":380,"kind_detail":"primary","min_zoom":8.0,"official_name":"Rua Treze","id":372984634},"arcs":[528]},{"type":"MultiLineString","properties":{"source":"openstreetmap.org","kind":"major_road","landuse_kind":"urban_area","sort_rank":380,"kind_detail":"primary","ref":"PE-005","min_zoom":8.0},"arcs":[[529],[530]]},{"type":"LineString","properties":{"kind":"major_road","sort_rank":381,"kind_detail":"trunk","bus_network":"BR:PB","source":"openstreetmap.org","min_zoom":8.0,"bus_shield_text":"5005","landuse_kind":"urban_area","ref":"Acesso Via Oeste","id":204156974},"arcs":[531]},{"type":"MultiLineString","properties":{"bus_network":"BR:PB:Jo\u00e3o Pessoa","network":"BR","sort_rank":381,"landuse_kind":"urban_area","kind":"major_road","source":"openstreetmap.org","min_zoom":8.0,"bus_shield_text":"1001","shield_text":"230;PB-008","kind_detail":"trunk"},"arcs":[[532],[533]]},{"type":"LineString","properties":{"bus_network":"BR:PB:Jo\u00e3o Pessoa","network":"BR","sort_rank":381,"landuse_kind":"urban_area","kind":"major_road","source":"openstreetmap.org","min_zoom":8.0,"bus_shield_text":"1500","shield_text":"230;PB-008","kind_detail":"trunk"},"arcs":[534]},{"type":"LineString","properties":{"bus_network":"BR:PB:Jo\u00e3o Pessoa","sort_rank":380,"kind_detail":"primary","kind":"major_road","source":"openstreetmap.org","min_zoom":8.0,"bus_shield_text":"512","landuse_kind":"urban_area"},"arcs":[535]},{"type":"LineString","properties":{"kind":"major_road","sort_rank":381,"landuse_kind":"urban_area","source":"openstreetmap.org","min_zoom":8.0,"kind_detail":"trunk","ref":"PE-105","id":128401210},"arcs":[536]},{"type":"MultiLineString","properties":{"source":"openstreetmap.org","kind":"major_road","sort_rank":380,"kind_detail":"primary","ref":"PE-007","min_zoom":8.0},"arcs":[[537],[538]]},{"type":"MultiLineString","properties":{"bus_network":"BR:PB","network":"BR:PB","sort_rank":380,"kind_detail":"primary","kind":"major_road","source":"openstreetmap.org","min_zoom":8.0,"bus_shield_text":"5502 (PU)","shield_text":"004"},"arcs":[[539],[540]]},{"type":"MultiLineString","properties":{"source":"openstreetmap.org","kind":"major_road","kind_detail":"trunk","sort_rank":381,"landuse_kind":"urban_area","ref":"PE-060","min_zoom":8.0},"arcs":[[541],[542],[543],[544]]},{"type":"MultiLineString","properties":{"bus_network":"BR:PB:Jo\u00e3o Pessoa","network":"BR:PB","sort_rank":380,"kind_detail":"primary","kind":"major_road","source":"openstreetmap.org","min_zoom":8.0,"bus_shield_text":"I007 (1)","shield_text":"008","landuse_kind":"urban_area"},"arcs":[[545],[546],[547]]},{"type":"MultiLineString","properties":{"bus_network":"BR:PB:Jo\u00e3o Pessoa","sort_rank":380,"kind_detail":"primary","kind":"major_road","source":"openstreetmap.org","min_zoom":8.0,"bus_shield_text":"107","landuse_kind":"urban_area"},"arcs":[[548],[549]]},{"type":"MultiLineString","properties":{"bus_network":"BR:PB:Jo\u00e3o Pessoa","sort_rank":380,"kind_detail":"primary","kind":"major_road","source":"openstreetmap.org","min_zoom":8.0,"bus_shield_text":"A002","landuse_kind":"urban_area"},"arcs":[[550],[551],[552],[553],[554],[555],[556],[557]]},{"type":"LineString","properties":{"source":"openstreetmap.org","kind":"major_road","sort_rank":380,"kind_detail":"primary","ref":"PE-009","min_zoom":8.0,"id":240273097},"arcs":[558]},{"type":"LineString","properties":{"kind":"major_road","network":"BR:PB","sort_rank":380,"kind_detail":"primary","bus_network":"BR:PB:Jo\u00e3o Pessoa","source":"openstreetmap.org","min_zoom":8.0,"bus_shield_text":"I007 (2)","shield_text":"008","landuse_kind":"urban_area","ref":"PB-008","id":248547175},"arcs":[559]},{"type":"MultiLineString","properties":{"kind":"highway","network":"BR","sort_rank":383,"kind_detail":"motorway","source":"openstreetmap.org","min_zoom":8.0,"all_networks":["BR"],"shield_text":"232","ref":"BR-232","all_shield_texts":["232"]},"arcs":[[560],[561],[562],[563],[564],[565],[566],[567]]},{"type":"MultiLineString","properties":{"bus_network":"BR:PB:Jo\u00e3o Pessoa","sort_rank":380,"kind_detail":"primary","kind":"major_road","source":"openstreetmap.org","min_zoom":8.0,"bus_shield_text":"301","landuse_kind":"urban_area"},"arcs":[[568],[569],[570],[571],[572],[573]]},{"type":"MultiLineString","properties":{"cycleway_right":"track","sort_rank":380,"kind_detail":"primary","is_bicycle_related":true,"kind":"major_road","source":"openstreetmap.org","min_zoom":8.0,"landuse_kind":"urban_area"},"arcs":[[574],[575]]},{"type":"MultiLineString","properties":{"bus_network":null,"sort_rank":380,"kind_detail":"primary","kind":"major_road","source":"openstreetmap.org","min_zoom":8.0,"bus_shield_text":"645","landuse_kind":"urban_area"},"arcs":[[576],[577],[578],[579]]},{"type":"MultiLineString","properties":{"bus_network":"BR:PB:Jo\u00e3o Pessoa","network":"BR:PB","sort_rank":380,"kind_detail":"primary","kind":"major_road","source":"openstreetmap.org","min_zoom":8.0,"bus_shield_text":"107","shield_text":"008","landuse_kind":"urban_area","ref":"PB-008"},"arcs":[[580],[581],[582]]},{"type":"LineString","properties":{"kind":"major_road","sort_rank":380,"kind_detail":"primary","bus_network":"BR:PB:Jo\u00e3o Pessoa","source":"openstreetmap.org","min_zoom":8.0,"bus_shield_text":"601","landuse_kind":"urban_area","id":47354540},"arcs":[583]},{"type":"LineString","properties":{"source":"openstreetmap.org","kind":"major_road","landuse_kind":"urban_area","sort_rank":380,"kind_detail":"primary","ref":"Estrada de Manep\u00e1","min_zoom":8.0},"arcs":[584]},{"type":"MultiLineString","properties":{"kind":"major_road","sort_rank":381,"landuse_kind":"urban_area","is_bicycle_related":true,"source":"openstreetmap.org","min_zoom":8.0,"kind_detail":"trunk","ref":"PE-015"},"arcs":[[585],[586],[587],[588]]},{"type":"MultiLineString","properties":{"bus_network":"BR:PB:Jo\u00e3o Pessoa","sort_rank":380,"kind_detail":"primary","kind":"major_road","source":"openstreetmap.org","min_zoom":8.0,"bus_shield_text":"513","landuse_kind":"urban_area"},"arcs":[[589],[590],[591],[592],[593]]},{"type":"MultiLineString","properties":{"source":"openstreetmap.org","kind":"major_road","kind_detail":"trunk","sort_rank":381,"landuse_kind":"urban_area","ref":"BR-101","min_zoom":8.0},"arcs":[[594],[595],[596],[597],[598],[599],[600],[601],[602],[603],[604],[605],[606]]},{"type":"MultiLineString","properties":{"source":"openstreetmap.org","kind":"major_road","sort_rank":380,"kind_detail":"primary","ref":"Avenida Almirante Paulo Moreira","min_zoom":8.0},"arcs":[[607],[608],[609],[610],[611]]},{"type":"MultiLineString","properties":{"bus_network":"BR:PB","network":"BR:PB","sort_rank":380,"kind_detail":"primary","kind":"major_road","source":"openstreetmap.org","min_zoom":8.0,"bus_shield_text":"5502 (PU)","shield_text":"004","landuse_kind":"urban_area","ref":"PB-004"},"arcs":[[612],[613],[614]]},{"type":"LineString","properties":{"bus_network":"BR:PB:Jo\u00e3o Pessoa","sort_rank":380,"kind_detail":"primary","kind":"major_road","source":"openstreetmap.org","min_zoom":8.0,"bus_shield_text":"3507","landuse_kind":"urban_area"},"arcs":[615]},{"type":"MultiLineString","properties":{"source":"openstreetmap.org","bus_network":"BR:PB:Jo\u00e3o Pessoa","bus_shield_text":"401","sort_rank":380,"kind_detail":"primary","min_zoom":8.0,"kind":"major_road"},"arcs":[[616],[617],[618]]},{"type":"LineString","properties":{"bus_network":"BR:PB:Jo\u00e3o Pessoa","cycleway_left":"lane","sort_rank":380,"kind_detail":"primary","is_bicycle_related":true,"kind":"major_road","source":"openstreetmap.org","min_zoom":8.0,"bus_shield_text":"601","landuse_kind":"urban_area"},"arcs":[619]},{"type":"LineString","properties":{"bus_network":"BR:PB:Jo\u00e3o Pessoa","network":"BR","sort_rank":381,"landuse_kind":"urban_area","kind":"major_road","source":"openstreetmap.org","min_zoom":8.0,"bus_shield_text":"5100","shield_text":"230;PB-008","kind_detail":"trunk"},"arcs":[620]},{"type":"LineString","properties":{"bus_network":"BR:PB:Jo\u00e3o Pessoa","cycleway_left":"lane","sort_rank":380,"kind_detail":"primary","is_bicycle_related":true,"kind":"major_road","source":"openstreetmap.org","min_zoom":8.0,"bus_shield_text":"500","landuse_kind":"urban_area"},"arcs":[621]},{"type":"LineString","properties":{"source":"openstreetmap.org","kind":"major_road","sort_rank":380,"kind_detail":"primary","ref":"Avenida IV","min_zoom":8.0},"arcs":[622]},{"type":"LineString","properties":{"bus_network":"BR:PB","network":"BR:PB","sort_rank":380,"kind_detail":"primary","kind":"major_road","source":"openstreetmap.org","min_zoom":8.0,"bus_shield_text":"5502 (EC)","shield_text":"004","landuse_kind":"urban_area","ref":"PB-004"},"arcs":[623]},{"type":"MultiLineString","properties":{"source":"openstreetmap.org","kind":"major_road","network":"BR","sort_rank":380,"kind_detail":"primary","min_zoom":8.0,"shield_text":"232"},"arcs":[[624],[625]]},{"type":"LineString","properties":{"kind":"major_road","sort_rank":380,"kind_detail":"primary","bus_network":"BR:PB:Jo\u00e3o Pessoa","source":"openstreetmap.org","min_zoom":8.0,"bus_shield_text":"2515","landuse_kind":"urban_area","id":246961308},"arcs":[626]},{"type":"MultiLineString","properties":{"source":"openstreetmap.org","kind":"major_road","landuse_kind":"urban_area","sort_rank":380,"kind_detail":"primary","ref":"PE-007","min_zoom":8.0},"arcs":[[627],[628],[629]]},{"type":"LineString","properties":{"kind":"major_road","sort_rank":380,"kind_detail":"primary","bus_network":"BR:PB:Jo\u00e3o Pessoa","source":"openstreetmap.org","min_zoom":8.0,"bus_shield_text":"517","landuse_kind":"urban_area","id":245985242},"arcs":[630]},{"type":"MultiLineString","properties":{"source":"openstreetmap.org","kind":"major_road","sort_rank":381,"kind_detail":"trunk","ref":"PE-060","min_zoom":8.0},"arcs":[[631],[632],[633],[634],[635],[636],[637],[638],[639],[640],[641],[642],[643],[644],[645]]},{"type":"MultiLineString","properties":{"bus_network":"BR:PB:Jo\u00e3o Pessoa","sort_rank":380,"kind_detail":"primary","kind":"major_road","source":"openstreetmap.org","min_zoom":8.0,"bus_shield_text":"A101","landuse_kind":"urban_area"},"arcs":[[646],[647],[648],[649],[650],[651],[652],[653]]},{"type":"LineString","properties":{"source":"openstreetmap.org","kind":"major_road","sort_rank":380,"kind_detail":"primary","ref":"PE-060","min_zoom":8.0},"arcs":[654]},{"type":"LineString","properties":{"source":"openstreetmap.org","kind":"major_road","sort_rank":380,"kind_detail":"primary","ref":"PE-062","min_zoom":8.0},"arcs":[655]},{"type":"MultiLineString","properties":{"bus_network":"BR:PB","sort_rank":380,"kind_detail":"primary","kind":"major_road","source":"openstreetmap.org","min_zoom":8.0,"bus_shield_text":"5003","landuse_kind":"urban_area"},"arcs":[[656],[657],[658]]},{"type":"MultiLineString","properties":{"source":"openstreetmap.org","bus_network":"BR:PB:Jo\u00e3o Pessoa","bus_shield_text":"I007 (2)","sort_rank":380,"kind_detail":"primary","min_zoom":8.0,"kind":"major_road"},"arcs":[[659],[660],[661]]},{"type":"LineString","properties":{"kind":"highway","network":"BR","sort_rank":383,"kind_detail":"motorway","source":"openstreetmap.org","min_zoom":8.0,"all_networks":["BR"],"landuse_kind":"urban_area","shield_text":"408","id":326292401,"all_shield_texts":["408"]},"arcs":[662]},{"type":"LineString","properties":{"kind":"major_road","sort_rank":380,"kind_detail":"primary","bus_network":"BR:PB:Jo\u00e3o Pessoa","source":"openstreetmap.org","min_zoom":8.0,"bus_shield_text":"500","id":247130743},"arcs":[663]},{"type":"MultiLineString","properties":{"source":"openstreetmap.org","kind":"major_road","landuse_kind":"urban_area","sort_rank":380,"kind_detail":"primary","ref":"008","min_zoom":8.0},"arcs":[[664],[665]]},{"type":"MultiLineString","properties":{"source":"openstreetmap.org","kind":"major_road","sort_rank":380,"kind_detail":"primary","ref":"PB-008","min_zoom":8.0},"arcs":[[666],[667]]},{"type":"MultiLineString","properties":{"source":"openstreetmap.org","kind":"highway","sort_rank":383,"kind_detail":"motorway","ref":"BR-101","min_zoom":8.0},"arcs":[[668],[669],[670],[671],[672],[673],[674],[675],[676],[677],[678],[679],[680],[681],[682],[683],[684],[685],[686],[687],[688],[689],[690],[691],[692],[693],[694],[695],[696],[697],[698],[699],[700],[701],[702],[703],[704],[705],[706]]},{"type":"MultiLineString","properties":{"bus_network":"BR:PB:Jo\u00e3o Pessoa","network":"BR:PB","sort_rank":380,"kind_detail":"primary","kind":"major_road","source":"openstreetmap.org","min_zoom":8.0,"bus_shield_text":"I007 (1)","shield_text":"008","landuse_kind":"urban_area","ref":"PB-008"},"arcs":[[707],[708],[709],[710],[711],[712]]},{"type":"MultiLineString","properties":{"source":"openstreetmap.org","kind":"major_road","sort_rank":380,"kind_detail":"primary","ref":"PE-027","min_zoom":8.0},"arcs":[[713],[714],[715]]},{"type":"MultiLineString","properties":{"source":"openstreetmap.org","kind":"major_road","sort_rank":381,"kind_detail":"trunk","ref":"PE-038","min_zoom":8.0},"arcs":[[716],[717]]},{"type":"MultiLineString","properties":{"bus_network":"BR:PB:Jo\u00e3o Pessoa","network":"BR:PB","sort_rank":380,"kind_detail":"primary","kind":"major_road","source":"openstreetmap.org","min_zoom":8.0,"bus_shield_text":"107","shield_text":"008","landuse_kind":"urban_area"},"arcs":[[718],[719],[720],[721],[722]]},{"type":"LineString","properties":{"kind":"major_road","sort_rank":380,"kind_detail":"primary","is_bicycle_related":true,"cycleway":"shared_lane","source":"openstreetmap.org","min_zoom":8.0,"landuse_kind":"urban_area","id":378796320},"arcs":[723]},{"type":"MultiLineString","properties":{"source":"openstreetmap.org","kind":"major_road","landuse_kind":"nature_reserve","sort_rank":380,"kind_detail":"primary","min_zoom":8.0},"arcs":[[724],[725]]},{"type":"LineString","properties":{"kind":"major_road","sort_rank":381,"kind_detail":"trunk","bus_network":"BR:PB","source":"openstreetmap.org","min_zoom":8.0,"bus_shield_text":"5503","landuse_kind":"urban_area","id":247555750},"arcs":[726]},{"type":"MultiLineString","properties":{"source":"openstreetmap.org","kind":"major_road","sort_rank":381,"kind_detail":"trunk","ref":"BR-101","min_zoom":8.0},"arcs":[[727],[728]]},{"type":"LineString","properties":{"kind":"major_road","sort_rank":380,"kind_detail":"primary","is_bicycle_related":true,"cycleway":"segregated","source":"openstreetmap.org","min_zoom":8.0,"ref":"PE-009","id":104073046},"arcs":[729]},{"type":"MultiLineString","properties":{"kind":"highway","network":"BR","sort_rank":383,"kind_detail":"motorway","source":"openstreetmap.org","min_zoom":8.0,"all_networks":["BR"],"shield_text":"408","ref":"BR-408","all_shield_texts":["408"]},"arcs":[[730],[731],[732],[733],[734],[735],[736],[737],[738]]},{"type":"LineString","properties":{"bus_network":"BR:PB","network":"BR:PB","sort_rank":380,"kind_detail":"primary","kind":"major_road","source":"openstreetmap.org","min_zoom":8.0,"bus_shield_text":"5003","shield_text":"004","landuse_kind":"urban_area","ref":"PB-004"},"arcs":[739]},{"type":"LineString","properties":{"bus_network":null,"sort_rank":380,"kind_detail":"primary","kind":"major_road","source":"openstreetmap.org","min_zoom":8.0,"bus_shield_text":"0301","landuse_kind":"urban_area"},"arcs":[740]},{"type":"LineString","properties":{"kind":"major_road","sort_rank":380,"kind_detail":"primary","bus_network":"BR:PB:Jo\u00e3o Pessoa","source":"openstreetmap.org","min_zoom":8.0,"bus_shield_text":"I007 (1)","landuse_kind":"urban_area","ref":"PB-008","id":247010295},"arcs":[741]},{"type":"LineString","properties":{"source":"openstreetmap.org","kind":"major_road","sort_rank":380,"kind_detail":"primary","ref":"PE-001","min_zoom":8.0},"arcs":[742]},{"type":"MultiLineString","properties":{"kind":"highway","network":"BR","sort_rank":383,"kind_detail":"motorway","source":"openstreetmap.org","min_zoom":8.0,"all_networks":["BR"],"landuse_kind":"urban_area","shield_text":"408","ref":"BR-408","all_shield_texts":["408"]},"arcs":[[743],[744],[745],[746]]},{"type":"MultiLineString","properties":{"bus_network":"BR:PB:Jo\u00e3o Pessoa","network":"BR:PB","sort_rank":380,"kind_detail":"primary","kind":"major_road","source":"openstreetmap.org","min_zoom":8.0,"bus_shield_text":"I007 (1)","shield_text":"008","ref":"PB-008"},"arcs":[[747],[748]]},{"type":"LineString","properties":{"kind":"major_road","network":"BR:PB","sort_rank":380,"kind_detail":"primary","source":"openstreetmap.org","min_zoom":8.0,"landuse_kind":"nature_reserve","shield_text":"008","ref":"PB-008"},"arcs":[749]},{"type":"MultiLineString","properties":{"source":"openstreetmap.org","kind":"major_road","landuse_kind":"nature_reserve","sort_rank":380,"kind_detail":"primary","ref":"PB-008","min_zoom":8.0},"arcs":[[750],[751],[752]]},{"type":"LineString","properties":{"source":"openstreetmap.org","kind":"major_road","sort_rank":380,"kind_detail":"primary","ref":"PE-037","min_zoom":8.0},"arcs":[753]},{"type":"LineString","properties":{"kind":"major_road","sort_rank":381,"kind_detail":"trunk","bus_network":"BR:PB:Jo\u00e3o Pessoa","source":"openstreetmap.org","min_zoom":8.0,"bus_shield_text":"208","landuse_kind":"urban_area","id":437459163},"arcs":[754]},{"type":"MultiLineString","properties":{"source":"openstreetmap.org","kind":"major_road","sort_rank":380,"kind_detail":"primary","ref":"PE-005","min_zoom":8.0},"arcs":[[755],[756]]},{"type":"LineString","properties":{"bus_network":"BR:PB:Santa Rita","network":"BR:PB","sort_rank":380,"kind_detail":"primary","kind":"major_road","source":"openstreetmap.org","min_zoom":8.0,"bus_shield_text":"HS\/Centro","shield_text":"004","landuse_kind":"urban_area","ref":"PB-004"},"arcs":[757]},{"type":"LineString","properties":{"kind":"major_road","sort_rank":380,"kind_detail":"primary","bus_network":"BR:PB","source":"openstreetmap.org","min_zoom":8.0,"bus_shield_text":"5502 (EC)","landuse_kind":"urban_area","id":260101099},"arcs":[758]},{"type":"MultiLineString","properties":{"sort_rank":381,"source":"openstreetmap.org","min_zoom":8.0,"kind":"major_road","kind_detail":"trunk"},"arcs":[[759],[760],[761],[762],[763],[764],[765],[766],[767],[768],[769],[770],[771],[772],[773],[774],[775],[776],[777],[778],[779],[780],[781],[782],[783],[784],[785],[786],[787],[788],[789],[790],[791],[792],[793],[794],[795],[796],[797],[798],[799],[800],[801],[802],[803],[804]]},{"type":"MultiLineString","properties":{"bus_network":"BR:PB:Jo\u00e3o Pessoa","sort_rank":380,"kind_detail":"primary","kind":"major_road","source":"openstreetmap.org","min_zoom":8.0,"bus_shield_text":"1001","landuse_kind":"urban_area"},"arcs":[[805],[806],[807]]},{"type":"LineString","properties":{"kind":"major_road","sort_rank":380,"kind_detail":"primary","bus_network":"BR:PB:Jo\u00e3o Pessoa","source":"openstreetmap.org","min_zoom":8.0,"bus_shield_text":"513","id":247287286},"arcs":[808]},{"type":"MultiLineString","properties":{"source":"openstreetmap.org","kind":"highway","landuse_kind":"urban_area","sort_rank":383,"kind_detail":"motorway","min_zoom":8.0},"arcs":[[809],[810],[811]]},{"type":"MultiLineString","properties":{"bus_network":"BR:PB","sort_rank":380,"kind_detail":"primary","kind":"major_road","source":"openstreetmap.org","min_zoom":8.0,"bus_shield_text":"5502 (PU)","landuse_kind":"urban_area"},"arcs":[[812],[813],[814]]},{"type":"LineString","properties":{"kind":"major_road","network":"BR:PB","sort_rank":380,"kind_detail":"primary","source":"openstreetmap.org","min_zoom":8.0,"shield_text":"018","id":261736813},"arcs":[815]},{"type":"MultiLineString","properties":{"bus_network":"BR:PB","sort_rank":380,"kind_detail":"primary","kind":"major_road","source":"openstreetmap.org","min_zoom":8.0,"bus_shield_text":"5015","landuse_kind":"urban_area"},"arcs":[[816],[817]]},{"type":"MultiLineString","properties":{"bus_network":"BR:PB","network":"BR","sort_rank":381,"landuse_kind":"urban_area","kind":"major_road","source":"openstreetmap.org","min_zoom":8.0,"bus_shield_text":"5101","shield_text":"230;PB-008","kind_detail":"trunk"},"arcs":[[818],[819],[820]]},{"type":"MultiLineString","properties":{"bus_network":"BR:PB:Jo\u00e3o Pessoa","sort_rank":380,"kind_detail":"primary","kind":"major_road","source":"openstreetmap.org","min_zoom":8.0,"bus_shield_text":"511","landuse_kind":"urban_area"},"arcs":[[821],[822],[823]]},{"type":"LineString","properties":{"kind":"major_road","network":"BR","sort_rank":381,"kind_detail":"trunk","bus_network":"BR:PB:Jo\u00e3o Pessoa","source":"openstreetmap.org","min_zoom":8.0,"bus_shield_text":"1502","shield_text":"230","landuse_kind":"urban_area","ref":"BR-230;PB-008","id":175147616},"arcs":[824]},{"type":"MultiLineString","properties":{"source":"openstreetmap.org","bus_network":"BR:PB:Jo\u00e3o Pessoa","bus_shield_text":"I007 (1)","sort_rank":380,"kind_detail":"primary","min_zoom":8.0,"kind":"major_road"},"arcs":[[825],[826],[827],[828],[829],[830],[831]]},{"type":"LineString","properties":{"source":"openstreetmap.org","kind":"ferry","name":"Corredor Fluvial Sul","sort_rank":355,"landuse_kind":"urban_area","min_zoom":8.0,"id":316676564},"arcs":[832]},{"type":"MultiLineString","properties":{"cycleway_right":"lane","sort_rank":380,"kind_detail":"primary","is_bicycle_related":true,"bus_network":"BR:PB:Jo\u00e3o Pessoa","source":"openstreetmap.org","min_zoom":8.0,"bus_shield_text":"511","landuse_kind":"urban_area","kind":"major_road"},"arcs":[[833],[834]]},{"type":"MultiLineString","properties":{"source":"openstreetmap.org","kind":"major_road","kind_detail":"trunk","sort_rank":381,"landuse_kind":"urban_area","min_zoom":8.0},"arcs":[[835],[836],[837],[838],[839],[840],[841],[842],[843],[844],[845],[846],[847],[848],[849],[850],[851],[852],[853],[854],[855],[856],[857],[858],[859],[860]]},{"type":"MultiLineString","properties":{"source":"openstreetmap.org","cycleway_right":"track","sort_rank":380,"kind_detail":"primary","min_zoom":8.0,"is_bicycle_related":true,"kind":"major_road"},"arcs":[[861],[862]]},{"type":"LineString","properties":{"kind":"major_road","sort_rank":380,"kind_detail":"primary","bus_network":"BR:PB:Jo\u00e3o Pessoa","source":"openstreetmap.org","min_zoom":8.0,"bus_shield_text":"5100","landuse_kind":"urban_area","id":246789010},"arcs":[863]},{"type":"LineString","properties":{"bus_network":"BR:PB:Santa Rita","network":"BR:PB","sort_rank":380,"kind_detail":"primary","kind":"major_road","source":"openstreetmap.org","min_zoom":8.0,"bus_shield_text":"HS Circ.","shield_text":"004","landuse_kind":"urban_area","ref":"PB-004"},"arcs":[864]},{"type":"LineString","properties":{"kind":"major_road","sort_rank":380,"kind_detail":"primary","bus_network":"BR:PB:Jo\u00e3o Pessoa","source":"openstreetmap.org","min_zoom":8.0,"bus_shield_text":"I007 (2)","landuse_kind":"urban_area","id":47189934},"arcs":[865]},{"type":"LineString","properties":{"source":"openstreetmap.org","kind":"ferry","name":"Rio Capibaribe","sort_rank":355,"landuse_kind":"urban_area","min_zoom":8.0},"arcs":[866]},{"type":"LineString","properties":{"bus_network":"BR:PB:Jo\u00e3o Pessoa","network":"BR","sort_rank":381,"landuse_kind":"urban_area","kind":"major_road","source":"openstreetmap.org","min_zoom":8.0,"bus_shield_text":"107","shield_text":"230","kind_detail":"trunk"},"arcs":[867]},{"type":"MultiLineString","properties":{"sort_rank":383,"kind_detail":"motorway","min_zoom":8.0,"kind":"highway","source":"openstreetmap.org"},"arcs":[[868],[869],[870],[871],[872],[873],[874],[875],[876],[877],[878],[879],[880],[881],[882]]},{"type":"MultiLineString","properties":{"bus_network":"BR:PB:Jo\u00e3o Pessoa","sort_rank":380,"kind_detail":"primary","kind":"major_road","official_name":"Avenida Dois de Fevereiro","source":"openstreetmap.org","min_zoom":8.0,"bus_shield_text":"202","landuse_kind":"urban_area"},"arcs":[[883],[884]]},{"type":"MultiLineString","properties":{"kind":"major_road","network":"BR:PB","sort_rank":380,"kind_detail":"primary","source":"openstreetmap.org","min_zoom":8.0,"shield_text":"008","ref":"PB-008"},"arcs":[[885],[886],[887],[888],[889]]},{"type":"LineString","properties":{"sort_rank":355,"source":"openstreetmap.org","kind":"ferry","min_zoom":8.0,"name":"Corredor Fluvial Sul"},"arcs":[890]},{"type":"MultiLineString","properties":{"kind":"major_road","network":"BR","sort_rank":381,"landuse_kind":"urban_area","source":"openstreetmap.org","min_zoom":8.0,"kind_detail":"trunk","shield_text":"230","ref":"BR-230"},"arcs":[[891],[892]]},{"type":"MultiLineString","properties":{"bus_network":"BR:PB:Jo\u00e3o Pessoa","sort_rank":380,"kind_detail":"primary","kind":"major_road","source":"openstreetmap.org","min_zoom":8.0,"bus_shield_text":"510","landuse_kind":"urban_area"},"arcs":[[893],[894]]},{"type":"LineString","properties":{"kind":"major_road","sort_rank":381,"kind_detail":"trunk","bus_network":"BR:PB:Jo\u00e3o Pessoa","source":"openstreetmap.org","min_zoom":8.0,"bus_shield_text":"304","landuse_kind":"urban_area","id":175146386},"arcs":[895]},{"type":"LineString","properties":{"kind":"major_road","network":"BR","sort_rank":381,"kind_detail":"trunk","bus_network":"BR:PB:Jo\u00e3o Pessoa","source":"openstreetmap.org","min_zoom":8.0,"bus_shield_text":"107","shield_text":"230","landuse_kind":"urban_area","ref":"BR-230","id":446411603},"arcs":[896]},{"type":"MultiLineString","properties":{"bus_network":"BR:PB:Jo\u00e3o Pessoa","sort_rank":380,"kind_detail":"primary","kind":"major_road","source":"openstreetmap.org","min_zoom":8.0,"bus_shield_text":"203","landuse_kind":"urban_area"},"arcs":[[897],[898]]},{"type":"MultiLineString","properties":{"bus_network":"BR:PB:Jo\u00e3o Pessoa","sort_rank":380,"kind_detail":"primary","kind":"major_road","source":"openstreetmap.org","min_zoom":8.0,"bus_shield_text":"503","landuse_kind":"urban_area"},"arcs":[[899],[900],[901],[902]]},{"type":"MultiLineString","properties":{"kind":"major_road","network":"BR","sort_rank":381,"landuse_kind":"urban_area","source":"openstreetmap.org","min_zoom":8.0,"kind_detail":"trunk","shield_text":"230;PB-008"},"arcs":[[903],[904],[905],[906],[907]]},{"type":"LineString","properties":{"bus_network":"BR:PB:Jo\u00e3o Pessoa","sort_rank":380,"kind_detail":"primary","kind":"major_road","source":"openstreetmap.org","min_zoom":8.0,"bus_shield_text":"506","landuse_kind":"urban_area"},"arcs":[908]},{"type":"LineString","properties":{"kind":"major_road","cycleway_left":"lane","sort_rank":380,"kind_detail":"primary","is_bicycle_related":true,"bus_network":"BR:PB:Jo\u00e3o Pessoa","source":"openstreetmap.org","min_zoom":8.0,"bus_shield_text":"511","landuse_kind":"urban_area","id":272516598},"arcs":[909]},{"type":"MultiLineString","properties":{"kind":"highway","network":"BR","sort_rank":383,"landuse_kind":"urban_area","source":"openstreetmap.org","min_zoom":8.0,"all_networks":["BR","BR"],"kind_detail":"motorway","shield_text":"101;BR-230","all_shield_texts":["101;BR-230","230"]},"arcs":[[910],[911]]},{"type":"MultiLineString","properties":{"bus_network":null,"sort_rank":380,"kind_detail":"primary","kind":"major_road","source":"openstreetmap.org","min_zoom":8.0,"bus_shield_text":"207","landuse_kind":"urban_area"},"arcs":[[912],[913]]},{"type":"LineString","properties":{"kind":"major_road","sort_rank":380,"landuse_kind":"urban_area","source":"openstreetmap.org","min_zoom":8.0,"kind_detail":"primary","ref":"Avenida Histo.Pereira da Costa","id":179536340},"arcs":[914]},{"type":"MultiLineString","properties":{"kind":"highway","network":"BR","sort_rank":383,"kind_detail":"motorway","source":"openstreetmap.org","min_zoom":8.0,"all_networks":["BR"],"shield_text":"230","ref":"BR-230","all_shield_texts":["230"]},"arcs":[[915],[916]]},{"type":"LineString","properties":{"source":"openstreetmap.org","kind":"ferry","name":"Rio Capibaribe","sort_rank":355,"min_zoom":8.0,"id":316676563},"arcs":[917]},{"type":"LineString","properties":{"cycleway_right":"lane","sort_rank":380,"kind_detail":"primary","is_bicycle_related":true,"kind":"major_road","bus_network":"BR:PB:Jo\u00e3o Pessoa","source":"openstreetmap.org","min_zoom":8.0,"bus_shield_text":"I007 (2)","id":246031863},"arcs":[918]},{"type":"LineString","properties":{"kind":"major_road","sort_rank":380,"kind_detail":"primary","bus_network":"BR:PB:Jo\u00e3o Pessoa","source":"openstreetmap.org","min_zoom":8.0,"bus_shield_text":"602","landuse_kind":"urban_area","ref":"PB-004","id":55494964},"arcs":[919]},{"type":"MultiLineString","properties":{"kind":"major_road","network":"BR","sort_rank":381,"landuse_kind":"urban_area","source":"openstreetmap.org","min_zoom":8.0,"kind_detail":"trunk","shield_text":"230","ref":"BR-230;PB-008"},"arcs":[[920],[921]]},{"type":"MultiLineString","properties":{"bus_network":"BR:PB:Jo\u00e3o Pessoa","sort_rank":380,"kind_detail":"primary","kind":"major_road","source":"openstreetmap.org","min_zoom":8.0,"bus_shield_text":"202","landuse_kind":"urban_area"},"arcs":[[922],[923],[924],[925]]},{"type":"LineString","properties":{"kind":"major_road","sort_rank":380,"kind_detail":"primary","bus_network":"BR:PB:Jo\u00e3o Pessoa","source":"openstreetmap.org","min_zoom":8.0,"bus_shield_text":"1500","landuse_kind":"urban_area","id":247339055},"arcs":[926]},{"type":"LineString","properties":{"kind":"major_road","sort_rank":380,"kind_detail":"primary","bus_network":"BR:PB:Jo\u00e3o Pessoa","source":"openstreetmap.org","min_zoom":8.0,"bus_shield_text":"5600","id":246079150},"arcs":[927]},{"type":"MultiLineString","properties":{"kind":"highway","network":"BR","sort_rank":383,"landuse_kind":"urban_area","source":"openstreetmap.org","min_zoom":8.0,"all_networks":["BR"],"kind_detail":"motorway","shield_text":"232","ref":"BR-232","all_shield_texts":["232"]},"arcs":[[928],[929],[930],[931],[932]]},{"type":"MultiLineString","properties":{"bus_network":"BR:PB:Jo\u00e3o Pessoa","sort_rank":380,"kind_detail":"primary","kind":"major_road","source":"openstreetmap.org","min_zoom":8.0,"bus_shield_text":"507","landuse_kind":"urban_area"},"arcs":[[933],[934]]},{"type":"MultiLineString","properties":{"source":"openstreetmap.org","kind":"highway","landuse_kind":"urban_area","sort_rank":383,"kind_detail":"motorway","ref":"BR-101","min_zoom":8.0},"arcs":[[935],[936],[937],[938],[939],[940],[941],[942],[943],[944],[945],[946],[947],[948],[949],[950]]},{"type":"MultiLineString","properties":{"kind":"major_road","network":"BR:PB","sort_rank":380,"kind_detail":"primary","source":"openstreetmap.org","min_zoom":8.0,"landuse_kind":"urban_area","shield_text":"008","ref":"PB-008"},"arcs":[[951],[952],[953]]},{"type":"LineString","properties":{"source":"openstreetmap.org","kind":"major_road","landuse_kind":"urban_area","sort_rank":380,"kind_detail":"primary","ref":"BR-408","min_zoom":8.0},"arcs":[954]},{"type":"MultiLineString","properties":{"kind":"major_road","network":"BR:PB","sort_rank":380,"kind_detail":"primary","source":"openstreetmap.org","min_zoom":8.0,"shield_text":"018","ref":"PB-018"},"arcs":[[955],[956],[957],[958]]},{"type":"MultiLineString","properties":{"bus_network":"BR:PB:Jo\u00e3o Pessoa","sort_rank":381,"landuse_kind":"urban_area","kind":"major_road","source":"openstreetmap.org","min_zoom":8.0,"bus_shield_text":"110 (AO)","kind_detail":"trunk"},"arcs":[[959],[960],[961]]},{"type":"LineString","properties":{"bus_network":"BR:PB:Jo\u00e3o Pessoa","sort_rank":380,"kind_detail":"primary","kind":"major_road","official_name":"Rua Quatorze de Julho","source":"openstreetmap.org","min_zoom":8.0,"bus_shield_text":"202","landuse_kind":"urban_area"},"arcs":[962]},{"type":"MultiLineString","properties":{"source":"openstreetmap.org","kind":"major_road","kind_detail":"trunk","sort_rank":381,"landuse_kind":"urban_area","ref":"BR-230","min_zoom":8.0},"arcs":[[963],[964]]},{"type":"MultiLineString","properties":{"source":"openstreetmap.org","kind":"major_road","landuse_kind":"urban_area","sort_rank":380,"kind_detail":"primary","min_zoom":8.0},"arcs":[[965],[966],[967],[968],[969],[970],[971],[972],[973],[974],[975],[976],[977],[978],[979],[980],[981],[982],[983],[984],[985],[986],[987],[988],[989],[990],[991],[992],[993],[994],[995],[996],[997],[998],[999],[1000],[1001],[1002],[1003],[1004],[1005],[1006],[1007],[1008],[1009],[1010],[1011],[1012],[1013],[1014],[1015],[1016],[1017],[1018],[1019],[1020],[1021],[1022],[1023],[1024],[1025],[1026],[1027],[1028],[1029],[1030],[1031],[1032],[1033],[1034],[1035],[1036],[1037],[1038],[1039],[1040],[1041],[1042],[1043],[1044],[1045],[1046],[1047],[1048],[1049],[1050],[1051],[1052],[1053],[1054],[1055],[1056],[1057],[1058],[1059],[1060],[1061],[1062],[1063],[1064],[1065],[1066],[1067],[1068],[1069],[1070],[1071],[1072],[1073],[1074],[1075],[1076],[1077],[1078],[1079],[1080],[1081],[1082],[1083],[1084],[1085],[1086],[1087],[1088],[1089],[1090],[1091],[1092],[1093],[1094],[1095],[1096],[1097],[1098],[1099],[1100],[1101],[1102],[1103],[1104],[1105],[1106],[1107],[1108],[1109],[1110],[1111],[1112],[1113],[1114],[1115],[1116],[1117],[1118],[1119],[1120],[1121],[1122],[1123],[1124],[1125],[1126],[1127],[1128],[1129],[1130],[1131],[1132],[1133],[1134],[1135],[1136],[1137],[1138],[1139],[1140],[1141],[1142],[1143],[1144],[1145],[1146],[1147],[1148],[1149],[1150],[1151],[1152],[1153],[1154],[1155],[1156],[1157],[1158],[1159],[1160],[1161],[1162],[1163],[1164],[1165],[1166],[1167],[1168],[1169],[1170],[1171],[1172],[1173],[1174],[1175],[1176],[1177],[1178],[1179],[1180],[1181],[1182],[1183],[1184],[1185],[1186],[1187],[1188],[1189],[1190],[1191],[1192],[1193],[1194],[1195],[1196],[1197],[1198],[1199],[1200],[1201],[1202],[1203],[1204],[1205],[1206],[1207],[1208],[1209],[1210],[1211],[1212],[1213],[1214],[1215],[1216],[1217],[1218],[1219],[1220],[1221],[1222],[1223],[1224],[1225],[1226],[1227],[1228],[1229],[1230],[1231],[1232],[1233],[1234],[1235],[1236],[1237],[1238],[1239],[1240],[1241],[1242],[1243],[1244],[1245],[1246],[1247],[1248],[1249],[1250],[1251],[1252],[1253],[1254],[1255],[1256],[1257],[1258],[1259],[1260],[1261],[1262],[1263],[1264],[1265],[1266],[1267],[1268],[1269],[1270],[1271],[1272],[1273],[1274],[1275],[1276],[1277],[1278],[1279],[1280],[1281],[1282],[1283],[1284],[1285],[1286],[1287],[1288],[1289],[1290],[1291],[1292],[1293],[1294],[1295],[1296],[1297],[1298],[1299],[1300],[1301],[1302],[1303],[1304],[1305],[1306],[1307],[1308],[1309],[1310],[1311],[1312]]},{"type":"LineString","properties":{"kind":"major_road","network":"BR:PB","sort_rank":380,"kind_detail":"primary","is_bicycle_related":true,"bus_network":"BR:PB:Jo\u00e3o Pessoa","source":"openstreetmap.org","min_zoom":8.0,"bus_shield_text":"I007 (1)","shield_text":"008","ref":"PB-008","id":247010294},"arcs":[1313]},{"type":"LineString","properties":{"cycleway_right":"lane","sort_rank":380,"kind_detail":"primary","is_bicycle_related":true,"kind":"major_road","source":"openstreetmap.org","min_zoom":8.0,"id":423660031},"arcs":[1314]},{"type":"MultiLineString","properties":{"bus_network":"BR:PB:Jo\u00e3o Pessoa","network":"BR:PB","sort_rank":380,"kind_detail":"primary","kind":"major_road","source":"openstreetmap.org","min_zoom":8.0,"bus_shield_text":"203","shield_text":"008","landuse_kind":"urban_area"},"arcs":[[1315],[1316]]},{"type":"LineString","properties":{"bus_network":"BR:PB:Santa Rita","network":"BR:PB","sort_rank":380,"kind_detail":"primary","kind":"major_road","source":"openstreetmap.org","min_zoom":8.0,"bus_shield_text":"HS\/Centro","shield_text":"004","ref":"PB-004"},"arcs":[1317]},{"type":"MultiLineString","properties":{"source":"openstreetmap.org","kind":"major_road","landuse_kind":"urban_area","sort_rank":380,"kind_detail":"primary","ref":"PE-35","min_zoom":8.0},"arcs":[[1318],[1319],[1320]]},{"type":"MultiLineString","properties":{"bus_network":"BR:PB:Jo\u00e3o Pessoa","network":"BR:PB","sort_rank":380,"kind_detail":"primary","kind":"major_road","source":"openstreetmap.org","min_zoom":8.0,"bus_shield_text":"203","shield_text":"008","landuse_kind":"urban_area","ref":"PB-008"},"arcs":[[1321],[1322],[1323]]},{"type":"MultiLineString","properties":{"source":"openstreetmap.org","kind":"major_road","sort_rank":380,"kind_detail":"primary","ref":"PE-041","min_zoom":8.0},"arcs":[[1324],[1325],[1326]]},{"type":"LineString","properties":{"kind":"major_road","sort_rank":380,"kind_detail":"primary","bus_network":"BR:PB:Jo\u00e3o Pessoa","source":"openstreetmap.org","min_zoom":8.0,"bus_shield_text":"101","landuse_kind":"urban_area","id":191646817},"arcs":[1327]},{"type":"MultiLineString","properties":{"kind":"major_road","cycleway_left":"lane","sort_rank":380,"kind_detail":"primary","is_bicycle_related":true,"source":"openstreetmap.org","min_zoom":8.0,"landuse_kind":"urban_area"},"arcs":[[1328],[1329]]},{"type":"LineString","properties":{"source":"openstreetmap.org","kind":"ferry","sort_rank":355,"landuse_kind":"nature_reserve","min_zoom":8.0,"id":261928744},"arcs":[1330]},{"type":"LineString","properties":{"kind":"major_road","sort_rank":380,"kind_detail":"primary","bus_network":"BR:PB:Jo\u00e3o Pessoa","source":"openstreetmap.org","min_zoom":8.0,"bus_shield_text":"604","landuse_kind":"urban_area","id":241253816},"arcs":[1331]},{"type":"LineString","properties":{"kind":"major_road","sort_rank":381,"kind_detail":"trunk","bus_network":"BR:PB:Jo\u00e3o Pessoa","source":"openstreetmap.org","min_zoom":8.0,"bus_shield_text":"1500","landuse_kind":"urban_area","id":245985248},"arcs":[1332]},{"type":"MultiLineString","properties":{"bus_network":"BR:PB:Santa Rita","sort_rank":380,"kind_detail":"primary","kind":"major_road","source":"openstreetmap.org","min_zoom":8.0,"bus_shield_text":"HS Circ.","landuse_kind":"urban_area"},"arcs":[[1333],[1334]]},{"type":"MultiLineString","properties":{"bus_network":"BR:PB:Jo\u00e3o Pessoa","sort_rank":380,"kind_detail":"primary","kind":"major_road","source":"openstreetmap.org","min_zoom":8.0,"bus_shield_text":"500","landuse_kind":"urban_area"},"arcs":[[1335],[1336],[1337],[1338],[1339],[1340],[1341]]},{"type":"LineString","properties":{"kind":"major_road","network":"BR:PB","sort_rank":380,"kind_detail":"primary","is_bicycle_related":true,"bus_network":"BR:PB:Jo\u00e3o Pessoa","source":"openstreetmap.org","min_zoom":8.0,"bus_shield_text":"I007 (1)","shield_text":"008","landuse_kind":"urban_area","ref":"PB-008","id":247010294},"arcs":[1342]},{"type":"MultiLineString","properties":{"bus_network":"BR:PB:Jo\u00e3o Pessoa","sort_rank":381,"landuse_kind":"urban_area","kind":"major_road","source":"openstreetmap.org","min_zoom":8.0,"bus_shield_text":"301","kind_detail":"trunk"},"arcs":[[1343],[1344],[1345]]},{"type":"MultiLineString","properties":{"source":"openstreetmap.org","kind":"major_road","network":"BR:PB","sort_rank":380,"kind_detail":"primary","min_zoom":8.0,"shield_text":"008"},"arcs":[[1346],[1347],[1348]]},{"type":"MultiLineString","properties":{"source":"openstreetmap.org","kind":"major_road","sort_rank":380,"kind_detail":"primary","is_bicycle_related":true,"min_zoom":8.0,"cycleway":"segregated"},"arcs":[[1349],[1350],[1351]]},{"type":"LineString","properties":{"kind":"major_road","network":"BR:PB","sort_rank":380,"kind_detail":"primary","bus_network":"BR:PB:Jo\u00e3o Pessoa","source":"openstreetmap.org","min_zoom":8.0,"bus_shield_text":"I007 (1)","shield_text":"008","id":47402392},"arcs":[1352]},{"type":"MultiLineString","properties":{"bus_network":"BR:PB:Jo\u00e3o Pessoa","cycleway_left":"lane","network":"BR:PB","sort_rank":380,"kind_detail":"primary","is_bicycle_related":true,"kind":"major_road","source":"openstreetmap.org","min_zoom":8.0,"bus_shield_text":"107","shield_text":"008","landuse_kind":"urban_area","ref":"PB-008"},"arcs":[[1353],[1354],[1355]]},{"type":"MultiLineString","properties":{"bus_network":null,"sort_rank":381,"landuse_kind":"urban_area","kind":"major_road","source":"openstreetmap.org","min_zoom":8.0,"bus_shield_text":"207","kind_detail":"trunk","ref":"BR-101"},"arcs":[[1356],[1357],[1358],[1359],[1360],[1361],[1362],[1363],[1364]]},{"type":"LineString","properties":{"source":"openstreetmap.org","bus_network":"BR:PB:Jo\u00e3o Pessoa","bus_shield_text":"511","sort_rank":380,"kind_detail":"primary","min_zoom":8.0,"kind":"major_road"},"arcs":[1365]},{"type":"MultiLineString","properties":{"bus_network":"BR:PB:Jo\u00e3o Pessoa","sort_rank":380,"kind_detail":"primary","kind":"major_road","source":"openstreetmap.org","min_zoom":8.0,"bus_shield_text":"003","landuse_kind":"urban_area"},"arcs":[[1366],[1367],[1368]]},{"type":"LineString","properties":{"bus_network":"BR:PB","sort_rank":381,"landuse_kind":"urban_area","kind":"major_road","source":"openstreetmap.org","min_zoom":8.0,"bus_shield_text":"5005","kind_detail":"trunk"},"arcs":[1369]},{"type":"LineString","properties":{"source":"openstreetmap.org","kind":"major_road","sort_rank":380,"kind_detail":"primary","ref":"Avenida Vc Vinte e Quatro","min_zoom":8.0,"id":183655718},"arcs":[1370]},{"type":"MultiLineString","properties":{"bus_network":"BR:PB:Jo\u00e3o Pessoa","sort_rank":380,"kind_detail":"primary","kind":"major_road","source":"openstreetmap.org","min_zoom":8.0,"bus_shield_text":"602","landuse_kind":"urban_area"},"arcs":[[1371],[1372]]},{"type":"LineString","properties":{"source":"openstreetmap.org","kind":"major_road","sort_rank":380,"kind_detail":"primary","ref":"PE-042","min_zoom":8.0},"arcs":[1373]},{"type":"MultiLineString","properties":{"bus_network":"BR:PB:Jo\u00e3o Pessoa","network":"BR","sort_rank":381,"landuse_kind":"urban_area","kind":"major_road","source":"openstreetmap.org","min_zoom":8.0,"bus_shield_text":"106","shield_text":"230","kind_detail":"trunk"},"arcs":[[1374],[1375],[1376],[1377]]},{"type":"LineString","properties":{"cycleway_right":"lane","sort_rank":380,"kind_detail":"primary","is_bicycle_related":true,"kind":"major_road","source":"openstreetmap.org","min_zoom":8.0,"landuse_kind":"urban_area"},"arcs":[1378]}]},"earth":{"type":"GeometryCollection","geometries":[{"type":"MultiPolygon","properties":{"sort_rank":10,"source":"naturalearthdata.com","min_zoom":0.0,"kind":"earth","area":56401927949},"arcs":[[[1379]],[[1380]]]}]},"landuse":{"type":"GeometryCollection","geometries":[{"type":"Polygon","properties":{"kind":"nature_reserve","area":118054000,"sort_rank":23,"source":"openstreetmap.org","min_zoom":7.0,"tier":2,"id":-1688433,"osm_relation":true},"arcs":[[1381]]},{"type":"MultiPolygon","properties":{"source":"openstreetmap.org","kind":"nature_reserve","tier":2,"area":50047141,"sort_rank":23,"min_zoom":8.0},"arcs":[[[1382]]]},{"type":"MultiPolygon","properties":{"source":"naturalearthdata.com","kind":"urban_area","name":"","area":1400903388,"sort_rank":11,"min_zoom":4.0},"arcs":[[[1383]],[[1384]],[[1385]]]},{"type":"Polygon","properties":{"kind":"nature_reserve","protect_class":"6","area":68887800,"sort_rank":23,"operator":"Instituto Chico Mendes de Conserva\u00e7\u00e3o da Biodiversidade","source":"openstreetmap.org","min_zoom":8.0,"tier":2,"id":-3426362,"osm_relation":true},"arcs":[[1386],[1387]]}]}},"type":"Topology","transform":{"translate":[-35.15625,-8.4071681636],"scale":[0.0003433228,0.00034021]},"arcs":[[[1180,0],[28,98],[1,205],[263,789],[46,355],[-26,314],[41,420],[-12,253],[41,161],[52,630],[-46,302],[54,282],[-51,287]],[[964,2513],[-86,41],[-37,-28],[-59,35],[-30,-28],[-3,26],[-31,-1],[-4,-21],[-61,46],[-83,-27],[-68,90],[-18,56],[15,76],[-248,188],[-114,-21],[-137,38]],[[1521,2434],[-557,79]],[[1180,0],[28,98],[1,205],[263,789],[21,142],[25,213],[-26,314],[41,420],[-12,253]],[[1521,2434],[41,161],[52,630],[-46,302],[54,282],[-51,287]],[[792,998],[-8,-12],[-2,-2],[-49,-26]],[[733,958],[-2,-2]],[[731,956],[-6,-22]],[[725,934],[-1,-6]],[[724,928],[-32,-178],[-5,-9],[-44,-46]],[[792,998],[-59,-39]],[[733,959],[-2,-3]],[[731,956],[-5,-19]],[[726,937],[-3,-11]],[[723,926],[-31,-176],[-45,-48]],[[724,928],[-1,-2]],[[725,934],[1,3]],[[732,956],[1,2]],[[733,958],[0,1]],[[731,956]],[[731,956],[1,0]],[[468,1126],[29,-52],[17,-94],[8,-24],[8,-14],[2,-2],[1,-1],[2,-1],[18,-9],[9,-2],[4,0],[13,4]],[[579,931],[30,2],[61,20],[31,15],[5,0],[13,-2],[3,0],[58,17],[2,1],[1,1],[11,15]],[[636,943],[-105,-3],[-34,134],[-29,52]],[[576,930],[3,1]],[[761,982],[-1,0]],[[760,982],[-38,-15],[-3,-1],[-13,3],[-2,0],[-2,-1],[-20,-5],[-45,-20]],[[795,1000],[-34,-18]],[[521,3771],[0,1]],[[521,3771],[-4,0]],[[517,3771],[-1,0]],[[516,3771],[-1,-1]],[[515,3770]],[[515,3770],[-1,0]],[[514,3770],[-3,-2]],[[521,3772],[4,0]],[[525,3772],[2,0]],[[527,3772],[3,0]],[[530,3772],[5,0]],[[535,3772],[1,0]],[[536,3772],[1,1]],[[537,3773],[7,1]],[[544,3774]],[[544,3774],[1,1]],[[545,3775],[1,0]],[[546,3775],[1,1]],[[547,3776],[6,3]],[[553,3779],[3,2]],[[556,3781],[1,1]],[[557,3782]],[[557,3782],[1,0]],[[558,3782],[7,-1]],[[565,3781],[1,0]],[[566,3781],[1,1]],[[567,3782],[1,0]],[[568,3782],[1,1]],[[569,3783],[1,0]],[[570,3783],[2,0]],[[572,3783],[9,2]],[[581,3785],[1,0]],[[582,3785],[0,-1]],[[582,3784],[3,-1]],[[585,3783],[4,-2]],[[589,3781]],[[589,3781],[1,-1]],[[590,3780],[1,0]],[[591,3780],[1,0]],[[592,3780],[25,-4]],[[617,3776],[2,0]],[[619,3776],[2,0]],[[621,3776],[5,1]],[[626,3777],[7,2]],[[633,3779],[2,0]],[[635,3779],[1,0]],[[636,3779],[2,-1]],[[638,3778],[3,-1]],[[641,3777],[6,-5]],[[647,3772],[2,-2]],[[649,3770],[5,-4]],[[654,3766],[3,-1]],[[657,3765],[4,-2]],[[661,3763],[4,-1]],[[665,3762],[3,-2]],[[668,3760],[6,-3]],[[674,3757],[4,-1]],[[678,3756],[2,-1]],[[680,3755],[1,0]],[[681,3755],[3,0]],[[684,3755],[5,-2]],[[689,3753],[3,0]],[[692,3753],[7,-1]],[[699,3752],[2,0]],[[701,3752],[1,-1]],[[702,3751],[1,0]],[[703,3751],[1,0]],[[704,3751]],[[704,3751],[1,0]],[[705,3751],[1,0]],[[706,3751]],[[706,3751],[0,1]],[[706,3752],[1,0]],[[707,3752],[5,3]],[[712,3755],[1,0]],[[713,3755],[1,1]],[[714,3756]],[[714,3756],[1,0]],[[715,3756]],[[715,3756],[1,0]],[[716,3756],[1,0]],[[717,3756],[1,0]],[[718,3756]],[[718,3756],[1,-1]],[[719,3755],[3,-1]],[[722,3754],[1,-1]],[[723,3753],[1,0]],[[724,3753],[1,0]],[[725,3753],[1,0]],[[726,3753],[1,1]],[[727,3754]],[[727,3754],[1,0]],[[728,3754],[2,1]],[[730,3755],[1,0]],[[731,3755],[2,1]],[[733,3756],[5,3]],[[738,3759]],[[738,3759],[2,2]],[[740,3761],[2,1]],[[742,3762],[5,5]],[[747,3767],[2,2]],[[749,3769],[2,1]],[[751,3770],[4,1]],[[755,3771],[2,1]],[[757,3772],[5,1]],[[762,3773],[1,1]],[[763,3774],[1,0]],[[764,3774],[0,1]],[[764,3775],[1,1]],[[765,3776]],[[765,3776],[0,1]],[[765,3777],[0,2]],[[765,3779],[0,1]],[[765,3780],[0,1]],[[765,3781],[1,1]],[[766,3782],[0,1]],[[766,3783],[4,7]],[[770,3790],[1,2]],[[771,3792],[0,1]],[[771,3793],[3,5]],[[774,3798],[1,3]],[[775,3801],[1,2]],[[776,3803],[0,1]],[[776,3804],[1,1]],[[777,3805],[1,1]],[[778,3806],[2,1]],[[780,3807],[7,5]],[[787,3812],[1,1]],[[788,3813],[1,1]],[[789,3814],[1,0]],[[790,3814],[1,1]],[[791,3815],[1,2]],[[792,3817],[1,0]],[[793,3817],[1,1]],[[794,3818],[2,0]],[[796,3818],[2,0]],[[798,3818],[2,0]],[[800,3818],[2,1]],[[802,3819],[2,1]],[[804,3820],[2,2]],[[806,3822],[1,1]],[[807,3823]],[[807,3823],[2,2]],[[809,3825],[1,1]],[[810,3826],[1,1]],[[811,3827],[2,1]],[[813,3828],[4,3]],[[817,3831],[1,0]],[[818,3831],[3,2]],[[821,3833],[2,1]],[[823,3834],[2,2]],[[825,3836],[2,0]],[[827,3836],[2,0]],[[829,3836],[7,0]],[[836,3836],[3,0]],[[839,3836],[2,1]],[[841,3837],[3,1]],[[844,3838],[0,1]],[[844,3839],[4,1]],[[848,3840],[7,4]],[[855,3844]],[[855,3844],[10,5]],[[865,3849],[2,1]],[[867,3850],[1,1]],[[868,3851],[1,0]],[[869,3851],[1,1]],[[870,3852],[0,1]],[[870,3853],[1,1]],[[871,3854],[0,2]],[[871,3856]],[[871,3856],[0,1]],[[871,3857],[1,1]],[[872,3858],[0,2]],[[872,3860],[1,0]],[[873,3860],[0,1]],[[873,3861],[1,1]],[[874,3862],[3,3]],[[877,3865],[7,6]],[[884,3871]],[[884,3871],[1,1]],[[885,3872]],[[885,3872],[0,1]],[[885,3873],[1,0]],[[886,3873],[0,1]],[[886,3874]],[[886,3874],[0,1]],[[886,3875],[0,1]],[[886,3876]],[[886,3876],[0,1]],[[886,3877],[-1,2]],[[885,3879],[0,3]],[[885,3882],[-2,8]],[[883,3890],[-8,32]],[[875,3922],[0,1]],[[875,3923],[-2,6]],[[873,3929],[0,1]],[[873,3930],[0,1]],[[873,3931],[0,1]],[[873,3932],[1,4]],[[874,3936],[0,2]],[[874,3938],[1,9]],[[875,3947],[0,3]],[[875,3950],[1,1]],[[876,3951],[2,17]],[[878,3968],[0,1]],[[878,3969],[1,7]],[[879,3976],[1,3]],[[880,3979],[0,4]],[[880,3983],[3,9]],[[883,3992],[1,5]],[[884,3997],[5,21]],[[889,4018],[3,15]],[[892,4033],[1,3]],[[893,4036],[0,2]],[[893,4038],[4,5]],[[897,4043],[9,17]],[[906,4060],[11,19]],[[917,4079],[9,16]],[[926,4095],[0,1]],[[745,978],[-7,-3],[-16,-8],[-3,-1],[-13,3],[-2,0],[-2,-1],[-20,-5],[-3,-1],[-1,-1],[-8,-8],[-44,-10],[-2,-1],[-16,-9],[-11,1],[-4,0],[-28,-7],[-12,3],[-3,-1],[-5,-1],[-5,-2],[-2,-1],[-8,-8],[-27,-5],[-3,-2],[-4,-4],[-8,-4],[-1,-2],[-1,-1],[-1,-1],[0,-3],[0,-5],[-1,-3],[-4,-4],[-31,-2],[-13,-2],[-27,-9]],[[409,870],[70,13],[100,48]],[[579,931],[30,2],[61,20],[31,15],[5,0],[13,-2],[3,0],[58,17],[2,1],[1,1],[11,15]],[[557,928],[2,-1]],[[576,930],[3,1]],[[761,982],[-1,0]],[[760,982],[-14,-4]],[[795,1000],[-2,0],[-1,-1],[-11,-15],[-16,-1],[-4,-1]],[[0,157],[13,2],[4,3],[5,6],[23,38],[13,0],[14,5],[3,2],[5,10],[4,1],[7,-1],[4,0],[27,18],[42,40],[9,16],[40,-12],[31,6],[16,28],[22,7],[5,3],[3,4],[30,99],[60,25],[28,1],[21,6],[5,2],[4,5],[7,22],[22,29],[22,36],[11,26],[22,34],[15,30],[76,26],[23,20],[1,6],[-17,58],[-4,6],[-7,8],[2,10],[-2,20],[9,13],[4,29],[-10,28],[-7,13],[1,9],[-5,13],[9,19],[1,15],[8,11],[2,5],[2,36],[-11,47],[3,19],[8,20],[1,3],[2,7],[-3,49],[11,20],[3,8],[-1,15],[-4,25],[22,33],[0,12],[27,19],[27,41],[24,44],[1,4],[5,30],[2,5],[12,14],[5,13],[8,8]],[[765,1429],[3,1],[1,-2],[-1,-1],[-3,2]],[[765,1429],[-70,310],[-5,12],[-20,22],[-29,159],[-7,16],[-14,12],[7,18],[-1,40],[40,37],[17,22],[-2,41],[-184,275],[-16,177],[-2,15],[-3,10],[-7,9],[54,152],[0,94],[64,83],[-7,83],[58,246],[5,114],[62,105],[40,123],[10,34],[1,12]],[[756,3650],[1,3],[4,-1],[0,-2],[-5,0]],[[756,3650],[-25,14],[-9,23],[-3,4],[-63,56],[-4,3],[-4,2],[-19,10],[-20,14],[-1,1],[-6,13],[-1,3],[-32,10],[-24,80],[-1,3],[-2,3],[-233,121],[-27,86]],[[282,4096],[26,-86],[233,-121],[27,-86],[187,-161],[-51,-162],[-31,-35],[-13,-24],[-18,-45],[-10,-68],[5,-46],[-26,-48],[-32,-199],[7,-82],[-65,-85],[-11,-54],[12,-39],[-54,-152],[11,-20],[1,-78],[13,-105],[2,-6],[61,-104],[124,-171],[2,-39],[-17,-25],[-37,-34],[-3,-4],[-1,-3],[-1,-6],[2,-32],[-5,-13],[0,-3],[1,-4],[2,-3],[10,-5],[7,-16],[4,-68],[26,-92],[5,-7],[14,-13],[3,-6],[48,-284],[20,-31],[-21,-39],[-7,-37],[-23,-42],[-55,-61],[-23,-47],[6,-38],[-15,-29],[-11,-98],[9,-83],[-9,-15],[-11,-35],[4,-22],[17,-41],[-13,-42],[0,-29],[26,-78],[-98,-48],[-36,-63],[-12,-26],[-43,-66],[-12,-26],[-54,-8],[-58,-25],[-31,-100],[-31,-14],[-16,-27],[-70,6],[-50,-55],[-79,-36],[-32,-47],[-12,-1]],[[554,0],[25,73],[5,23],[9,29],[20,23],[17,18],[4,11],[-11,28],[-1,80],[11,112],[20,88],[33,81],[48,74],[11,29],[18,112],[38,106],[2,47],[-9,-22],[-11,-20],[-24,29],[-6,26],[0,29],[-10,36],[-17,30],[-19,21],[-45,31],[47,-1],[35,-22],[59,-59],[49,-22],[37,5],[15,28],[0,51],[71,263],[29,58],[-16,23],[-5,17],[5,17],[16,22],[-18,35],[-25,72],[-19,35],[-38,-80],[5,107],[-9,41],[-2,34],[-108,21],[-25,31],[4,125],[23,50],[25,27],[19,26],[10,29],[-10,9],[-24,0],[-30,-27],[-57,-30],[21,47],[37,28],[31,16],[36,-7],[12,57],[-46,143],[7,57],[17,-43],[64,-116],[1,44],[5,19],[12,20],[0,-36],[7,-33],[0,-37],[20,-3],[31,80],[20,44],[22,47],[-10,26],[-34,41],[-32,51],[-11,58],[-88,28],[-185,-7],[47,23],[45,13],[12,1],[37,4],[113,0],[23,-4],[28,-16],[15,1],[11,16],[31,84],[-29,89],[1,116],[28,216],[0,434],[8,43],[15,46],[9,49],[-11,52],[-14,13],[-48,29],[-19,20],[-8,22],[-14,89],[0,172],[18,81],[3136,0],[0,-4096],[-3542,0]],[[873,2066],[-4,-31],[-6,-38],[-32,-43],[-28,-33],[-6,-35],[-5,-67],[0,-46],[31,-16],[45,-11],[37,-1],[22,8],[3,44],[9,51],[20,39],[14,47],[0,31],[-16,42],[-13,37],[6,23],[-17,21],[-30,3],[-19,-5],[-11,-20]],[[911,4096],[-15,-49],[-12,-63],[-19,-58],[-48,-71],[-59,-64],[-54,-39],[18,41],[2,37],[-13,34],[-27,29],[23,-23],[17,-8],[17,8],[22,23],[-6,4],[46,118],[7,39],[-5,42],[106,0]],[[805,4096],[5,-42],[-7,-39],[-46,-118],[6,-4],[-22,-23],[-17,-8],[-17,8],[-23,23],[27,-29],[13,-34],[-2,-37],[-18,-41],[54,39],[59,64],[48,71],[19,58],[12,63],[15,49]],[[960,4096],[-18,-81],[0,-172],[14,-89],[8,-22],[19,-20],[48,-29],[14,-13],[11,-52],[-9,-49],[-15,-46],[-8,-43],[0,-434],[-28,-216],[-1,-116],[29,-89],[-31,-84],[-11,-16],[-15,-1],[-28,16],[-23,4],[-113,0],[-37,-4],[-12,-1],[-45,-13],[-47,-23],[185,7],[88,-28],[11,-58],[32,-51],[34,-41],[10,-26],[-22,-47],[-20,-44],[-31,-80],[-20,3],[0,37],[-7,33],[0,36],[-12,-20],[-5,-19],[-1,-44],[-64,116],[-17,43],[-7,-57],[46,-143],[-12,-57],[-36,7],[-31,-16],[-37,-28],[-21,-47],[57,30],[30,27],[24,0],[10,-9],[-10,-29],[-19,-26],[-25,-27],[-23,-50],[-4,-125],[25,-31],[108,-21],[2,-34],[9,-41],[-5,-107],[38,80],[19,-35],[25,-72],[18,-35],[-16,-22],[-5,-17],[5,-17],[16,-23],[-29,-58],[-71,-263],[0,-51],[-15,-28],[-37,-5],[-49,22],[-59,59],[-35,22],[-47,1],[45,-31],[19,-21],[17,-30],[10,-36],[0,-29],[6,-26],[24,-29],[11,20],[9,22],[-2,-47],[-38,-106],[-18,-112],[-11,-29],[-48,-74],[-33,-81],[-20,-88],[-11,-112],[1,-80],[11,-28],[-4,-11],[-17,-18],[-20,-23],[-9,-29],[-5,-23],[-25,-73]],[[884,2086],[19,5],[30,-3],[17,-21],[-6,-23],[13,-37],[16,-42],[0,-31],[-14,-47],[-20,-39],[-9,-51],[-3,-44],[-22,-8],[-37,1],[-45,11],[-31,16],[0,46],[5,67],[6,35],[28,33],[32,43],[6,38],[4,31],[11,20]],[[758,3772],[0,1]],[[901,3704],[15,-7]],[[881,3640],[3,7]],[[886,3649],[29,12]],[[915,3661]],[[855,3651],[-21,-16]],[[855,3650],[1,1]],[[803,3778],[63,-21],[40,12],[15,-3],[11,1],[16,3],[-42,-1],[-46,-8],[-42,20]],[[955,3769],[0,-11]],[[955,3758],[1,0]],[[956,3761],[0,6]],[[736,1017],[-65,2],[-34,-12]],[[638,1007],[33,12],[14,-3],[27,-3],[24,4]],[[627,1003],[-12,-5]],[[920,3805],[-3,-1]],[[759,1434],[9,-10]],[[837,1306],[2,-3]],[[874,1250],[-28,32]],[[856,1264],[16,-15]],[[723,3706],[1,1]],[[587,252],[19,28]],[[921,3845],[-1,5]],[[347,354],[4,3]],[[948,3913],[0,3]],[[961,3809],[-1,-24]],[[963,3785],[3,16]],[[443,185],[-10,-55],[-12,-93]],[[421,35],[0,-35]],[[421,0],[1,35]],[[423,36],[35,229],[-17,64],[22,75],[0,1],[-6,12],[-12,14],[-12,34]],[[433,464],[11,-33],[19,-26],[-23,-76],[4,-141]],[[414,3678],[-7,-5]],[[407,3673],[62,44],[96,24]],[[610,3771],[-44,-29]],[[759,3649],[11,2]],[[837,3820],[-26,-38]],[[820,3793],[3,4]],[[883,3847],[26,2]],[[911,3849],[-28,-2]],[[921,3850],[-1,0]],[[808,1346],[13,0]],[[821,1346],[39,50],[1,2],[23,25],[14,13],[-77,-90]],[[955,3769]],[[719,1702],[9,119]],[[772,1861],[30,1]],[[898,1436],[31,77]],[[929,1513],[2,2],[4,8],[-3,-5],[-3,-5]],[[983,3723],[-1,2]],[[984,3723],[6,-9]],[[986,3720],[-2,3]],[[991,3715],[-3,3]],[[991,3715],[-1,-1]],[[990,3714],[1,0]],[[991,3714],[0,1]],[[991,3714],[2,-2]],[[1035,3665],[0,-1]],[[468,1267],[-5,3]],[[536,1200],[-1,-4]],[[541,1144],[-4,77]],[[541,1144],[0,-2]],[[543,1142],[-2,2]],[[1036,3664],[10,32]],[[733,3783],[0,-1]],[[733,3782],[1,0]],[[39,1406],[-3,1]],[[37,1406],[1,-2]],[[39,1406],[0,-2]],[[39,1404],[3,-1]],[[42,1404],[-2,2]],[[71,1392],[2,-2]],[[74,1392],[-3,0]],[[74,1392],[-1,-2]],[[73,1390]],[[73,1390],[1,0],[-1,0]],[[74,1390],[2,-1]],[[109,1461],[-35,-69]],[[74,1392],[0,-1],[0,1]],[[74,1392]],[[76,1389],[-2,3]],[[91,1373],[5,-5]],[[96,1369],[-5,4]],[[96,1368],[-3,2]],[[94,1372],[2,-3]],[[96,1368],[14,-9]],[[111,1360],[-15,9]],[[167,852],[-69,5]],[[111,1359]],[[111,1359],[0,1]],[[111,1359],[13,-5]],[[123,1355],[-11,5]],[[130,1350],[-7,5]],[[123,1355],[4,-2]],[[126,1351],[-2,3]],[[124,1354],[6,-4]],[[136,2415],[-22,177],[54,45]],[[157,1693],[2,1]],[[159,1693]],[[159,1693],[1,0]],[[160,1693]],[[160,1693],[0,1]],[[160,1694]],[[160,1694]],[[181,1312],[-2,2]],[[199,1298],[-3,3]],[[268,322],[7,2]],[[301,36],[-2,0]],[[299,36],[0,-2]],[[300,35],[-1,1]],[[415,203],[-44,5]],[[396,364],[-16,-2]],[[380,361],[16,3]],[[383,363]],[[383,363]],[[390,191],[14,-5]],[[400,385],[-7,22]],[[398,198],[-3,-8]],[[398,321],[3,59]],[[401,380]],[[417,205],[-1,-2]],[[427,252],[-3,2]],[[427,196],[8,-5]],[[441,462],[59,32]],[[442,184],[0,-2]],[[464,271],[3,-1]],[[467,270],[0,2]],[[467,270],[-1,1]],[[493,571]],[[493,571],[-17,22],[-3,9],[20,-31]],[[493,571]],[[500,494],[23,20]],[[506,499],[9,8]],[[523,514],[20,21]],[[546,288],[19,31]],[[579,325],[2,-1]],[[581,324],[20,-19],[10,-11],[-15,-36],[-9,-6]],[[587,252]],[[636,483],[-54,-137]],[[591,308],[-10,16]],[[581,324],[-1,1],[2,15]],[[588,252],[-1,0]],[[587,252],[-1,0]],[[588,249],[1,3]],[[629,498],[1,-5]],[[629,498],[1,-5]],[[629,497],[1,-4]],[[638,498],[-7,-7]],[[643,509],[-12,-18]],[[631,491]],[[717,1087],[2,-39]],[[727,1041],[1,11],[-10,35]],[[719,1702],[-1,1]],[[756,1041],[-29,-1]],[[728,1821],[44,40]],[[730,1040],[10,2]],[[732,1026],[1,0]],[[738,1025],[-5,1]],[[733,1026],[9,-8]],[[742,1018],[-2,-2]],[[741,1016],[1,-2]],[[742,1014]],[[742,1014],[1,3],[-1,1]],[[745,1015],[8,-2]],[[753,1014],[-8,1]],[[765,1052],[-9,-12],[-4,-10],[0,-6],[4,-32],[14,-34]],[[770,965],[-4,87]],[[770,958],[5,-43]],[[770,958],[8,-10],[5,-5]],[[783,943],[8,-9]],[[791,934],[8,-6],[0,3],[-14,15]],[[785,946],[-5,5],[-8,8],[-1,3]],[[771,962],[-1,2]],[[785,946],[-12,13],[-2,3]],[[771,962],[-1,2]],[[780,940],[0,1],[3,2]],[[783,943],[2,3]],[[785,946]],[[790,928],[-9,-30]],[[790,928],[-9,-30]],[[800,930],[-15,16]],[[791,934],[-1,-6]],[[953,3805],[9,5]],[[954,3806]],[[955,3768],[1,0]],[[970,3742],[-11,18]],[[959,3759],[11,-18]],[[960,3785]],[[962,3810]],[[962,3810],[1,0]],[[968,3813],[-5,-2]],[[970,3742],[0,-1]],[[970,3741]],[[970,3741],[0,1]],[[970,3741],[11,-15]],[[985,3344],[-14,-71]],[[974,3270],[39,-3]],[[982,3346],[1,1]],[[984,3345],[1,-1]],[[985,3344],[2,1]],[[999,3341],[-1,0]],[[1011,3693],[-1,11]],[[1041,3696],[-9,-1]],[[1032,3695],[-21,-1]],[[1013,3268],[0,-1]],[[1013,3267]],[[1014,3268],[0,-1]],[[1024,3598],[0,-1]],[[1024,3569],[1,0]],[[1025,3613],[0,-1]],[[1026,3594],[1,1]],[[1027,3571],[-1,1]],[[1028,3614],[0,1]],[[1031,3580],[1,0]],[[1032,3586],[-1,0]],[[1032,3695]],[[1032,3695],[0,11]],[[1034,3622]],[[1035,3631],[-1,0]],[[1045,3696],[0,-1]],[[39,1404],[-1,0],[1,0]],[[39,1406],[1,0]],[[40,1406],[-1,0]],[[111,1359],[-1,0],[1,-1],[0,1]],[[111,1359]],[[111,1361],[0,-1],[0,1]],[[159,1694],[0,-1]],[[159,1693],[1,0]],[[160,1693],[0,1]],[[160,1694]],[[160,1694],[-1,0]],[[589,3781],[36,-5]],[[566,3742],[-152,-64]],[[565,3741],[57,24]],[[622,3766],[-12,5]],[[746,3652],[13,-3]],[[764,3651],[-4,-1]],[[0,2981],[85,-26],[77,-106],[-21,-110],[69,-170],[89,-68],[117,-20]],[[963,3785],[-8,0]],[[955,3785],[8,0]],[[963,3785],[5,0]],[[1030,3706]],[[1045,3695],[1,1]],[[733,3783],[-20,-5]],[[731,3782],[2,0]],[[733,3782],[6,-4]],[[740,3778],[-6,4]],[[831,3782],[-1,-3]],[[926,3667],[0,-8]],[[915,3849],[-4,0]],[[760,3650],[-115,103]],[[645,3753],[101,-101]],[[800,3777],[6,-42]],[[848,3641],[-8,14]],[[944,1552],[-10,47]],[[944,1551],[0,-4]],[[946,1550],[-2,2]],[[948,1322],[29,114],[-31,114]],[[710,3770],[21,12]],[[982,3346],[17,-6]],[[997,3341],[-14,6]],[[631,491],[5,-8]],[[433,465],[4,5]],[[565,319],[15,6]],[[317,1222],[-93,59]],[[462,1124],[77,18]],[[711,3698],[0,-4]],[[896,3875],[0,-5]],[[897,3873],[0,3]],[[916,3798],[-18,64]],[[920,3805],[3,-14]],[[771,1422],[-5,5]],[[285,878],[-118,-26]],[[514,882],[-57,-3]],[[733,3782]],[[734,3782],[-1,1]],[[369,381],[0,-16],[1,-1]],[[370,364],[12,-24]],[[382,336],[-9,17],[-3,11]],[[370,364],[0,1],[-1,1],[6,9]],[[938,3658],[1,0]],[[939,3658],[-1,0]],[[1036,3664],[-1,0]],[[856,3650],[-3,0]],[[886,3649]],[[784,3788],[31,-6]],[[820,3793],[-17,4]],[[815,3782],[-5,0]],[[815,3782],[5,11]],[[815,3782],[11,2]],[[832,3788],[-12,5]],[[823,3797],[-1,1]],[[826,3784],[6,2]],[[582,346],[-3,-21]],[[984,3664],[51,-2]],[[285,916],[-83,-5],[-3,-2]],[[199,909],[-67,-42]],[[132,867],[-5,-4],[-127,20]],[[0,882],[127,-19],[5,4]],[[132,867],[55,42],[12,0]],[[199,909],[86,6]],[[447,949],[-96,-28]],[[352,921],[95,27]],[[811,3774],[57,-36],[3,-1],[19,-4]],[[891,3733],[-77,49]],[[891,3706],[10,-2]],[[918,3696],[-2,1],[-15,7],[-10,3]],[[916,3697],[10,-30]],[[926,3666],[-1,17],[-3,9],[-2,2]],[[714,729],[81,187]],[[746,866],[24,62]],[[639,1170],[0,-1]],[[640,1169],[30,-33],[143,-78]],[[814,1057],[-174,113]],[[813,1056],[-13,-18]],[[865,3646],[-9,4]],[[858,3649],[4,-2]],[[886,3649],[-21,-4]],[[936,3851],[1,0]],[[897,1433],[39,-14]],[[768,1424],[23,-38]],[[791,1386],[46,-80]],[[846,1283],[-55,103]],[[791,1386],[-20,36]],[[927,3935],[-17,28]],[[910,3963],[1,8]],[[946,3921],[-19,14]],[[946,3916],[0,5]],[[947,3917],[-1,4]],[[610,940],[21,-248]],[[612,1026],[0,8]],[[612,1034],[0,3],[1,12],[9,27]],[[635,692],[-22,252]],[[622,1077],[-9,-28],[-2,-12],[1,-3]],[[612,1034],[2,-18]],[[622,987],[-2,-23]],[[621,1114],[5,-23]],[[626,1091],[-5,23]],[[650,1234],[-18,-25],[-3,-59]],[[635,1161],[15,73]],[[707,1689],[52,-255],[-39,-97]],[[720,1337],[12,18],[34,72],[-59,262]],[[400,382],[-1,0]],[[400,381],[-1,1]],[[400,381],[0,1]],[[401,380],[-1,1]],[[401,380],[5,-86]],[[713,3778],[-33,-8]],[[739,3778],[22,-4]],[[763,3774],[-23,4]],[[926,3659],[0,7]],[[956,3767],[0,1]],[[959,3760],[-3,1]],[[956,3758],[3,1]],[[931,3850],[5,1]],[[896,3870],[16,-79]],[[922,3849],[9,1]],[[611,293],[-20,15]],[[680,3770],[-19,-5]],[[745,1015],[-9,2]],[[736,1017],[9,-2]],[[916,3661]],[[285,878],[124,-11]],[[457,879],[-46,-11]],[[549,910],[-35,-28]],[[890,3734],[0,-1]],[[417,436],[-48,-55]],[[375,375],[43,61]],[[382,340],[27,-55]],[[409,285],[19,-37]],[[428,248],[2,-4],[-24,-73]],[[406,171],[-6,-18]],[[392,133],[8,12],[1,7],[5,19]],[[406,171],[22,77]],[[428,248],[1,1],[-20,36]],[[409,285],[-27,51]],[[400,153],[-14,-23]],[[390,137],[2,-4]],[[400,153],[-54,-59],[46,39]],[[433,455],[-15,-18]],[[418,436],[15,18]],[[792,3776],[6,-36],[-2,-2]],[[796,3738],[-12,-8]],[[784,3730],[-4,-2],[-17,-35],[-3,-10],[-3,-14],[-1,-14]],[[757,3655],[3,28],[3,8],[21,39]],[[784,3730],[1,3],[11,5]],[[796,3738],[2,1],[1,1],[9,-2],[0,29]],[[800,3787],[-26,9]],[[777,3788],[7,0]],[[346,94],[-20,-43],[-73,-51]],[[0,2342],[136,73]],[[497,3758],[9,13]],[[535,3787],[-18,-8]],[[673,3768],[37,2]],[[995,3711],[-2,2]],[[1032,3706],[-7,-1]],[[1046,3696],[-1,0]],[[477,970],[3,-6]],[[954,3806],[-1,0]],[[673,734],[-9,-7]],[[667,728],[6,6]],[[1014,3267],[0,-1]],[[1014,3269],[0,-1]],[[279,323],[-32,-26]],[[247,297],[-6,-6],[-67,7],[-130,-91],[-32,-47],[-12,-2]],[[0,157],[13,2],[162,139],[67,-8],[5,7]],[[247,297],[21,25],[7,2]],[[274,4096],[5,-36],[23,-40],[2,-2]],[[304,4018],[19,-19]],[[323,3999],[2,-1],[18,-13],[160,-88]],[[503,3898],[-6,4],[-14,9],[-37,24],[-88,42],[-28,17],[-6,4],[-1,1]],[[323,3999],[-1,1],[-15,13],[-3,5]],[[304,4018],[-5,8],[-3,5],[-8,15],[-9,14],[-1,36]],[[318,427],[-28,-54]],[[291,373],[27,54]],[[522,621],[-108,-161],[-35,-3],[-60,-26]],[[319,431],[59,26],[35,2],[25,12],[56,99],[28,50]],[[613,3773],[-47,35],[-22,77],[-18,6]],[[527,3889],[22,-30]],[[550,3857],[6,-18]],[[556,3838],[3,-8]],[[560,3825],[6,-17],[46,-36]],[[713,3510],[0,-3]],[[713,3507],[-5,-12],[-3,-13],[-13,-17]],[[692,3465],[-1,-1],[-18,-21],[-30,-65],[-10,-60],[1,-31],[1,-5],[0,-2]],[[635,3280],[1,-21],[-7,-13],[-2,-4]],[[627,3242],[-3,-4],[-1,-3],[-4,-6],[-10,-60],[-23,-214],[-65,-107],[-51,-241],[24,-211],[62,-106],[82,-97],[11,-20],[17,-28],[0,-1]],[[666,2144],[12,-21],[3,-37]],[[681,2086],[0,-8],[-4,-6],[-5,-7]],[[672,2065],[-46,-76]],[[626,1989],[-1,-3],[-5,-23],[82,-263]],[[703,1702],[-68,244],[-14,16],[6,18],[-1,6],[0,3]],[[626,1989],[1,31],[45,45]],[[672,2065],[6,6],[5,7],[-2,8]],[[681,2086],[-15,58]],[[666,2144],[0,2],[-27,48],[-83,96],[-31,59],[-29,47],[-15,174],[-1,13],[-10,24],[20,25],[1,2],[11,46],[16,93],[5,77],[63,105],[21,169],[2,45],[12,62],[5,10],[1,1]],[[627,3242],[8,38]],[[635,3280],[0,2],[9,95],[26,61],[21,26],[1,1]],[[692,3465],[21,42]],[[713,3507],[1,2],[11,35]],[[718,3522],[-4,-11]],[[724,3544],[-6,-20]],[[938,3658],[-7,2]],[[934,3659],[4,-1]],[[939,3658],[45,6]],[[1035,3664],[-53,1],[-43,-7]],[[1035,3662],[-1,-24]],[[1035,3639],[1,23]],[[463,1270],[-149,193],[-143,72],[-74,98],[63,60]],[[160,1694],[-11,87],[37,36]],[[537,1221],[-28,50],[-41,-4]],[[349,97],[18,-64],[54,2]],[[420,36],[-52,0],[-18,61]],[[853,3650],[-5,-9]],[[848,3640],[10,9]],[[848,3640],[0,1]],[[848,3641],[-1,-1],[1,0]],[[865,3645],[0,1],[0,-1]],[[667,1005],[0,-1]],[[971,3273],[3,-3]],[[1026,3106],[-7,-27],[24,-15]],[[722,3707],[-7,-11]],[[720,1337],[-70,-103]],[[650,1234],[24,32],[46,71]],[[582,340],[55,141]],[[0,1435],[197,-154]],[[198,1281],[-198,155]],[[339,1129],[31,-48],[2,0]],[[372,1081],[28,-9]],[[400,1072],[16,-5]],[[480,998],[1,20],[-54,44],[-11,5],[-16,5]],[[400,1072],[-27,8],[-1,1]],[[372,1081],[-32,48]],[[426,1061],[54,-63]],[[625,3776],[36,-11]],[[808,3768],[5,11]],[[1035,3664],[0,-2]],[[934,1599],[-6,56]],[[197,1281],[34,-49],[94,-53],[14,-50]],[[340,1129],[-11,46],[-4,4],[-94,55],[-33,47]],[[480,998],[-3,-28]],[[480,967],[0,31]],[[1034,3638],[0,-10]],[[1035,3628],[0,11]],[[977,2922],[28,35],[-55,57],[33,89],[43,3],[-13,130]],[[1026,3108],[-1,-2]],[[1025,3106],[2,-1]],[[1026,3107],[-1,-1]],[[427,253],[87,38],[72,-39],[4,-46]],[[816,3638],[-10,2]],[[196,1301],[-15,12]],[[224,1281],[-25,17]],[[524,3782],[44,2]],[[661,3765],[12,3]],[[348,96],[1,1]],[[352,94],[-1,4]],[[357,73],[-3,0]],[[355,77],[3,-1]],[[380,325],[1,1]],[[382,323],[-1,-1]],[[392,136],[2,-2]],[[431,135],[-35,6]],[[396,136],[36,-15]],[[399,142],[-3,2]],[[410,134],[0,-2]],[[415,432],[-1,1]],[[417,133],[0,1]],[[418,437],[-1,-1]],[[418,436]],[[423,255],[0,-1]],[[428,249],[1,0]],[[431,135],[-2,-3]],[[432,116],[-2,0]],[[430,113],[2,0]],[[437,145],[-6,-10]],[[431,130],[0,5]],[[433,465],[1,-7]],[[433,120],[4,25]],[[435,462],[0,3]],[[435,465],[1,3],[2,3]],[[437,460],[-2,5]],[[435,465],[0,2]],[[436,456],[2,-6]],[[436,456],[2,-4]],[[439,454],[0,4]],[[444,188],[-1,-3]],[[447,354],[-1,0]],[[447,357],[1,0]],[[447,190],[1,-1]],[[451,191],[4,8]],[[454,203],[-3,-10]],[[456,203],[-2,0]],[[455,262],[2,-7]],[[456,263],[1,-4]],[[458,244],[-2,0]],[[456,251],[2,-1]],[[458,258],[2,11]],[[420,36],[1,-2],[2,1],[-1,2],[-2,-1]],[[437,456],[2,3],[-3,2],[-2,-3]],[[434,458],[3,-2]],[[801,3766],[-10,1]],[[800,3787],[0,-4]],[[896,3870],[1,-22]],[[948,3916],[-1,1]],[[481,956],[-1,11]],[[756,3655],[0,-4]],[[757,3651],[0,4]],[[761,3774],[3,-1]],[[774,3775],[-11,-1]],[[778,3787],[0,1]],[[1002,3338]],[[476,3722],[-7,-4]],[[485,3734],[12,24]],[[941,4096],[-40,-89],[-2,-6],[-9,-43],[6,-83]],[[897,3876],[2,125],[43,95]],[[898,3862],[-1,11]],[[909,3849],[12,0]],[[919,3850],[-3,-1]],[[923,3846],[-2,-1]],[[869,3675],[15,18]],[[982,3725],[-11,16]],[[988,3718],[-2,2]],[[993,3712],[39,-6]],[[1033,3706],[3,-1]],[[1034,3628],[1,0]],[[1042,3695],[-7,-30]],[[1042,3695],[0,1],[-1,0],[1,-1]],[[760,953],[-36,-30],[20,-55]],[[916,3849],[-1,0]],[[920,3850],[-1,0]],[[358,370],[7,7]],[[365,377],[3,2]],[[367,380],[-2,-3]],[[365,377],[-1,-2]],[[616,1010],[-12,-17]],[[607,994],[15,-6]],[[619,1070],[0,-1]],[[715,3696],[-2,-1]],[[803,3639],[27,-4]],[[808,1346],[-1,3]],[[808,1351],[2,0]],[[819,1331],[0,1]],[[821,3637],[-2,1]],[[824,3637],[-3,0]],[[834,1310],[1,0]],[[836,1309],[-1,0]],[[839,1303],[17,-39]],[[846,1282],[0,1]],[[865,1257]],[[872,1252],[-2,0]],[[873,1187],[-1,0]],[[872,1249],[3,-49]],[[872,1190],[2,-1]],[[875,1193],[3,16],[-4,41]],[[883,1423],[0,-1]],[[890,3732],[-3,-7]],[[770,928],[6,9]],[[795,916],[5,14]],[[905,3791],[6,0]],[[512,3779],[12,3]],[[993,3713],[-2,1]],[[814,1018],[28,65]],[[834,3635],[-18,3]],[[486,2463],[2,0]],[[487,2461],[-1,0]],[[549,3859],[1,-2]],[[550,2299],[4,-9],[6,3]],[[559,2295],[-7,0]],[[560,2296],[-8,2]],[[556,3839],[0,-1]],[[559,2287],[2,6]],[[559,3830],[1,-5]],[[645,2180],[4,-7]],[[649,2173],[0,-1]],[[649,2172],[0,1]],[[649,2173],[-2,3]],[[714,3511],[-1,-1]],[[718,3524],[0,-2]],[[815,3719],[7,-19]],[[828,3681],[-5,22]],[[941,2751],[-14,114],[50,57]],[[999,3342],[6,46]],[[1014,3268],[17,52],[-27,16]],[[1013,3236],[1,31]],[[1034,3628],[-12,-62],[13,62]],[[824,995],[-64,-42]],[[849,3640],[6,10]],[[856,3651],[4,7]],[[946,3916],[-12,-66]],[[937,3851],[11,62]],[[890,3710],[1,-1]],[[830,3635],[19,5]],[[838,3657],[9,-17]],[[840,3655],[-2,2]],[[837,3825],[1,-4]],[[838,3821],[-1,-1]],[[838,3821],[45,26]],[[883,3847],[-2,1],[-17,-3],[-17,-17]],[[879,3738],[3,-7],[1,-2]],[[883,3729],[5,-31],[-33,-47]],[[884,3693],[-1,36]],[[883,3729],[0,2],[-4,7],[26,26],[11,34]],[[912,3791],[-6,-5],[0,-17],[-1,-5]],[[904,3785],[1,6]],[[921,3849],[1,0]],[[645,3753],[-23,13]],[[622,3765],[23,-12]],[[640,1170],[-1,1]],[[639,1169],[1,0]],[[351,357],[16,17]],[[407,3673],[-180,-125],[-209,-15],[-18,8]],[[0,3540],[11,-5],[7,-2],[23,-1],[177,14],[13,2],[5,1],[171,124]],[[814,1018],[10,-23]],[[1045,3696],[-3,0]],[[757,3773],[-1,0]],[[860,3658],[9,17]],[[905,3764],[-26,-26]],[[803,3734],[12,-15]],[[817,3719],[-9,19]],[[822,3700],[-6,-24],[22,-19]],[[838,3657],[-10,24]],[[923,3791],[0,-1]],[[963,3810],[5,3]],[[351,921],[-66,-5]],[[285,915],[67,6]],[[447,948],[20,6],[12,7],[41,8],[87,25],[31,13]],[[615,998],[-137,-37],[-31,-12]],[[637,1007],[-10,-4]],[[910,3785],[45,0]],[[955,3785],[-44,0]],[[275,324],[13,7]],[[288,331],[1,1],[1,1],[1,40]],[[290,373],[0,-40],[-1,-1],[-1,-1]],[[288,331],[-9,-8]],[[318,427],[1,4]],[[319,431],[-1,-4]],[[503,3897],[9,-7],[15,-1]],[[526,3891],[-23,7]],[[631,692],[-93,-43],[-16,-28]],[[522,620],[16,29],[80,28],[17,15]],[[612,3772],[10,-7]],[[622,3766],[-9,7]],[[702,1700],[5,-11]],[[707,1689],[-4,13]],[[756,3651],[-32,-107]],[[725,3544],[20,60],[10,34],[2,13]],[[917,3661],[17,-2]],[[931,3660],[-10,1]],[[1036,3662],[0,1]],[[462,1124],[-102,75]],[[643,3373],[84,-4],[48,-33],[205,10]],[[982,3347],[-2,-1]],[[980,3346],[2,0]],[[999,3340],[-2,1]],[[774,3796],[-20,-29],[-32,-60]],[[723,3705],[0,1]],[[724,3707],[50,89]],[[823,3703],[-6,16]],[[801,3640],[35,-5]],[[833,3635],[-15,3],[-13,1]],[[228,1239],[-1,0]],[[231,1232],[1,1]],[[235,1228],[12,-13]],[[256,1207],[-10,10]],[[267,1199],[20,-6]],[[275,324],[10,3]],[[283,367],[6,-2]],[[284,365],[2,-6]],[[287,361],[2,4]],[[289,365],[39,-22]],[[295,332],[33,11]],[[360,1199],[-43,23]],[[328,343],[13,10]],[[329,1175],[19,19]],[[336,349],[11,5]],[[341,353],[17,17]],[[364,376],[-23,-23]],[[344,1211],[1,1]],[[380,362],[-9,-1]],[[372,360],[8,1]],[[411,868],[-2,-1]],[[541,1142]],[[705,1038],[-125,69],[-37,35],[-2,0]],[[541,1142]],[[541,1143],[0,-1]],[[541,1142]],[[541,1142],[38,-35],[50,-28],[5,-2],[22,-13],[9,-5],[20,-11]],[[685,1048],[6,-3],[28,-16]],[[719,1029],[1,0],[3,-3]],[[543,535],[68,136]],[[549,910],[61,15]],[[655,532],[-102,10]],[[611,671],[0,-1]],[[648,963],[-2,5],[-30,44],[-3,8]],[[615,1015],[1,-3],[29,-44],[8,-21],[2,-4],[1,-1]],[[656,942]],[[656,942],[1,-2],[2,-7]],[[659,933],[3,-13],[0,-5],[2,-9]],[[664,906],[1,-8],[0,-2],[2,-14]],[[667,882],[0,-2]],[[623,1140],[4,6]],[[627,1146],[0,2]],[[664,727],[-33,-35]],[[634,623],[30,1]],[[635,692],[20,24]],[[655,716],[5,5],[7,7]],[[655,941],[-18,-16]],[[639,1171],[0,-1]],[[655,532],[-12,-23]],[[658,976],[-10,-13]],[[667,882],[-2,16],[-1,8]],[[664,906],[-5,27]],[[659,933],[-2,8],[-1,1]],[[656,942]],[[656,942],[-1,1],[-2,4],[0,1],[-5,15]],[[648,963],[6,3],[4,10]],[[648,709],[7,7]],[[655,716],[9,9]],[[648,629],[10,0]],[[669,556],[-23,-3],[9,-21]],[[679,559]],[[679,559],[-24,-27]],[[688,616],[-3,-1]],[[685,615]],[[685,615],[-28,-9]],[[718,961],[-61,-18]],[[657,943],[-1,-1]],[[656,942]],[[656,942]],[[656,942]],[[656,942],[1,1]],[[658,629],[0,-5]],[[658,629],[24,0],[4,0]],[[686,629]],[[686,629],[4,-1]],[[690,628],[3,0]],[[662,987],[-4,-11]],[[662,987]],[[662,987]],[[662,987],[1,0]],[[663,989]],[[663,989]],[[663,989],[-1,0]],[[667,1004],[-4,-14]],[[665,882]],[[665,882],[-1,-1]],[[667,880]],[[667,882]],[[667,882],[-2,0]],[[665,882],[-21,-6],[23,4]],[[667,880],[4,-7]],[[671,873],[13,-26]],[[684,847],[1,-1],[4,-2]],[[689,844],[0,-1]],[[756,832],[-5,1]],[[751,833],[-2,0]],[[749,833],[-7,1],[-22,1],[-15,1]],[[705,836],[-1,0]],[[704,836],[-2,0],[-4,1]],[[698,837]],[[698,837],[-9,7]],[[689,844],[-4,2],[-1,1]],[[684,847],[-1,1],[-6,7],[-6,18]],[[671,873],[-4,9]],[[685,1048]],[[685,1048],[-3,-4],[-5,-10],[-10,-29]],[[721,929],[-14,-74],[-3,-19]],[[704,836],[0,-1]],[[704,835],[-10,-59],[-21,-42]],[[673,3769],[0,-1]],[[673,734],[21,42],[11,59]],[[705,835],[0,1]],[[705,836],[5,31],[2,10]],[[680,558],[5,57]],[[685,615],[1,14]],[[686,629],[1,6]],[[687,635],[1,8],[-1,-8]],[[687,635],[-1,-6]],[[686,629],[-1,-14]],[[685,615],[-6,-56]],[[679,559],[2,-2],[9,71]],[[690,628],[1,3]],[[714,742],[-13,-33],[-14,-51]],[[690,632],[1,0]],[[781,898],[0,-1]],[[781,897],[-2,-6],[-28,-58]],[[751,833],[-2,-3]],[[749,830],[-10,-20],[-40,-105],[-4,-13],[-9,-39],[-3,-17],[4,-1]],[[687,635]],[[687,635],[2,0],[1,-3]],[[690,632],[1,-1]],[[691,631],[21,98]],[[739,815],[-45,-122]],[[694,838],[4,-1]],[[698,837]],[[698,837],[3,-1],[3,-1]],[[704,835],[1,0]],[[705,835],[14,-3],[23,-1],[5,-1]],[[747,830],[2,0]],[[749,830],[6,-1]],[[727,1040]],[[727,1040],[-7,-1]],[[720,1039],[-2,0],[-2,0],[-11,-1]],[[718,1030],[-13,8]],[[709,896],[5,28]],[[711,729],[0,-1]],[[712,877]],[[712,877],[14,72]],[[715,1695],[-1,-1]],[[716,935],[5,-6]],[[745,1110],[-24,-15],[-4,-8]],[[718,1087],[5,7],[13,5],[9,11]],[[718,961],[9,0]],[[734,963]],[[734,963],[-4,-2],[-3,0]],[[727,961],[-8,0],[-1,0]],[[718,961],[1,-1]],[[719,1048],[1,-9]],[[720,1039],[0,-6],[-1,-4]],[[719,1029],[-1,-5]],[[718,1024],[0,-10],[2,-10],[0,-33]],[[718,1024],[2,-18]],[[719,1701],[0,1]],[[719,966]],[[720,1005],[0,-1]],[[720,1006],[0,-1]],[[726,949],[-5,-20]],[[723,1026],[2,-2]],[[723,1026],[3,0]],[[727,961]],[[727,961],[-1,7],[-4,27],[1,10]],[[723,1005],[2,19]],[[728,970],[-3,4]],[[725,1024],[1,2]],[[731,1018],[-6,6]],[[726,1026],[6,0]],[[726,1026],[1,14]],[[727,1040],[0,1]],[[735,961],[-1,2]],[[734,963],[-6,6]],[[748,874],[-8,-8],[-6,-9]],[[775,1350],[-40,7]],[[781,898],[0,-1]],[[781,897],[-32,-64]],[[749,833],[-2,-3]],[[747,830],[-6,-11],[0,-1],[-2,-4]],[[740,863],[1,3],[7,7]],[[748,873],[2,2]],[[745,872],[-5,-5]],[[748,874],[0,-1]],[[748,873],[-2,-8]],[[746,865],[-2,-7]],[[745,858],[1,7]],[[746,865],[0,1]],[[775,915],[-27,-41]],[[777,1172],[-23,15]],[[757,1342],[18,8]],[[757,3669]],[[761,1198],[29,-17],[68,-48]],[[858,1133]],[[860,1143],[-99,55]],[[766,3778],[-3,-4]],[[764,1129],[3,14]],[[868,1135],[-14,-19],[-2,-3],[-2,-2]],[[850,1111],[-3,-2],[-5,-4]],[[842,1105],[-34,-24],[-29,-14],[-14,-15]],[[766,1052],[13,14],[57,26],[6,5]],[[772,1087],[-2,-3]],[[770,1084],[3,4]],[[772,1089],[3,64]],[[775,905],[-1,0]],[[791,3767],[-17,4]],[[775,1153],[2,19]],[[779,1349],[-3,1]],[[778,3782],[0,5]],[[778,3788],[1,14]],[[788,3766],[3,0]],[[803,3797],[-4,-2]],[[799,3795],[19,-7]],[[818,3788],[6,-3]],[[824,3785],[2,-1]],[[799,3795],[19,-6]],[[818,3789],[0,-1],[6,-3]],[[824,3785],[2,-1]],[[810,3788],[-10,-1]],[[825,3770],[-24,-4]],[[805,1352],[8,-14]],[[805,1353],[-1,0],[0,-1],[1,0],[0,1]],[[808,1351],[-3,2]],[[807,1349],[-2,3]],[[811,3780]],[[811,3780],[-5,-11]],[[825,3770],[-12,9],[-2,1]],[[811,3780],[-2,0]],[[811,3780],[-2,0]],[[810,3782],[0,6]],[[822,3782],[0,1],[-6,2]],[[816,3785],[-6,3]],[[810,3787],[6,-2]],[[816,3785],[6,-2]],[[810,3765],[13,0],[1,2],[1,3]],[[825,3770],[3,6],[2,3]],[[811,3782],[0,-2]],[[813,3779],[-2,1]],[[813,1058],[0,-1]],[[813,1057],[0,-1]],[[820,1066],[-7,-9]],[[813,1057],[1,0]],[[814,3782],[2,3]],[[816,3785]],[[816,3785],[2,3]],[[818,3788],[0,1]],[[818,3789],[2,5],[3,3]],[[820,1066],[47,66],[10,6],[4,-1],[16,8],[18,23]],[[833,1085],[-13,-19]],[[830,3779],[-5,-9]],[[837,3764],[-12,6]],[[825,3770]],[[831,3782]],[[832,3784],[2,3]],[[834,3787],[-2,1]],[[837,3765],[0,-1]],[[837,3764],[2,-1]],[[839,1358],[5,6]],[[844,1364],[1,2]],[[845,1366],[5,6]],[[869,1174],[-4,-12],[-3,-14],[-1,-5]],[[861,1143],[-1,-2]],[[860,1141],[-1,-7],[-1,-1]],[[858,1133],[-3,-7],[-1,-1],[-5,-8]],[[849,1117],[-2,-4]],[[847,1113],[-5,-8]],[[842,1105],[-2,-3]],[[843,1365],[1,-1]],[[844,1364],[5,-1]],[[849,1363],[-4,3]],[[845,1366]],[[849,1112],[-2,1]],[[847,1113],[-1,0]],[[847,1105],[3,6]],[[850,1111],[4,14],[5,9],[2,7]],[[861,1141],[0,1]],[[861,1142],[2,6],[2,11],[4,15]],[[849,1118],[0,-1]],[[849,1117]],[[942,1288],[-93,75]],[[858,1131],[4,10]],[[862,1150],[-2,-7]],[[860,1143],[0,-2]],[[860,1141],[1,0]],[[861,1141],[1,0]],[[862,1142],[-1,0]],[[861,1142],[0,1]],[[861,1143],[-1,0]],[[862,1141],[0,1]],[[862,1141],[7,-7]],[[862,3744],[1,0]],[[898,1147],[-36,-5]],[[868,3738],[3,-1]],[[871,3737],[-2,1]],[[875,1195],[3,14]],[[890,3733],[1,0]],[[898,1147]],[[898,1147]],[[898,1146],[0,1]],[[898,1147]],[[898,1147],[16,22],[9,55],[12,36],[7,28]],[[942,1288]],[[942,1288],[6,28]],[[905,3785]],[[917,3804],[-1,0]],[[920,3694],[-2,2]],[[921,3667],[0,-6]],[[925,3661],[1,1]],[[926,3660],[-1,1]],[[926,3661],[0,-1]],[[926,3662],[0,-1]],[[927,3934],[0,1]],[[932,1518],[1,2]],[[944,1547],[-9,-24]],[[937,3864],[0,5]],[[938,3658]],[[939,3879],[0,3]],[[939,3658]],[[942,1288]],[[942,1288],[1,-3]],[[943,1288],[-1,0]],[[942,1288]],[[943,3892],[2,4]],[[947,3802],[6,3]],[[948,3770],[7,-1]],[[948,1316],[0,6]],[[951,1310],[-3,6]],[[955,3758]],[[955,3768]],[[972,1408],[-36,11],[35,-15]],[[981,3726],[2,-3]],[[983,3723],[1,0],[-1,0]],[[1011,3689],[0,4]],[[1035,3660],[1,1]],[[480,3725],[0,1],[0,-1]],[[663,989]],[[663,989],[-1,-1],[0,-1]],[[662,987]],[[662,987],[1,1],[0,1]],[[663,989]],[[776,1350],[-1,0]],[[775,1350],[1,0]],[[1036,3664]],[[776,937],[4,3]],[[916,3661],[-1,0]],[[915,3661],[1,0]],[[568,3784],[21,-3]],[[714,1694],[-6,-12]],[[710,1682],[9,18]],[[719,1702],[-4,-7]],[[915,3661],[-29,-12]],[[921,3661],[-5,0]],[[916,3661],[1,0]],[[186,1817],[-143,30],[-13,-48],[-30,-7]],[[0,1492],[9,-1],[-9,67]],[[0,1599],[97,34]],[[800,3780],[3,-2]],[[719,966],[2,-11]],[[720,971],[-1,-5]],[[948,2524],[-14,-45]],[[838,3822],[1,0]],[[891,3710],[-1,0]],[[477,3719],[8,15]],[[506,3771],[6,8]],[[818,3781],[4,1]],[[830,3779],[80,6]],[[951,3804],[-119,-18]],[[912,3785],[35,17]],[[923,3844],[0,2]],[[953,3806],[-2,-2]],[[951,3804]],[[1036,3663],[0,1]],[[887,3725],[4,-19]],[[890,3733],[0,-1]],[[891,3707],[0,26]],[[983,3347],[-1,-1]],[[999,3340],[-2,1]],[[1014,3267],[0,1]],[[638,483],[-2,0]],[[637,481],[1,1],[0,1]],[[638,483],[-1,-1],[0,-1]],[[1036,3664]],[[862,3647],[3,-2]],[[865,3645],[16,-5]],[[884,3647],[2,2]],[[620,964],[-7,-17]],[[613,947],[-3,-7]],[[613,944],[0,3]],[[613,947],[9,36],[1,5],[-11,38]],[[614,1016],[8,-29]],[[629,1150],[-8,-36]],[[621,1114],[14,47]],[[622,1076],[4,15]],[[626,1091],[-4,-14]],[[966,3801],[-12,5]],[[791,3766],[19,-1]],[[806,3735],[-3,-1]],[[808,3767],[3,7]],[[711,3694],[12,11]],[[606,280],[5,13]],[[764,3774],[24,-8]],[[774,3771],[4,11]],[[38,197],[24,-84],[83,-1],[85,-71],[70,-6]],[[805,3639],[-16,5]],[[789,3644],[-25,7]],[[770,3651],[19,-7]],[[789,3644],[12,-4]],[[721,955],[-7,-31]],[[927,1753],[-22,-8],[-37,1],[-45,11],[-31,16],[0,46],[5,67],[6,35],[28,33],[32,43],[6,38],[4,31],[11,20],[19,5],[30,-3],[17,-21],[-6,-23],[13,-37],[16,-42],[0,-31],[-14,-47],[-20,-39],[-9,-51],[-3,-44]],[[911,4096],[49,0],[-18,-81],[0,-172],[14,-89],[8,-22],[19,-20],[48,-29],[14,-13],[11,-52],[-9,-49],[-15,-46],[-8,-43],[0,-434],[-28,-216],[-1,-116],[29,-89],[-31,-84],[-11,-16],[-15,-1],[-28,16],[-23,4],[-113,0],[-37,-4],[-12,-1],[-45,-13],[-47,-23],[185,7],[88,-28],[11,-58],[32,-51],[34,-41],[10,-26],[-22,-47],[-20,-44],[-31,-80],[-20,3],[0,37],[-7,33],[0,36],[-12,-20],[-5,-19],[-1,-44],[-64,116],[-17,43],[-7,-57],[46,-143],[-12,-57],[-36,7],[-31,-16],[-37,-28],[-21,-47],[57,30],[30,27],[24,0],[10,-9],[-10,-29],[-19,-26],[-25,-27],[-23,-50],[-4,-125],[25,-31],[108,-21],[2,-34],[9,-41],[-5,-107],[38,80],[19,-35],[25,-72],[18,-35],[-16,-22],[-5,-17],[5,-17],[16,-23],[-13,-26],[-16,-32],[-71,-263],[0,-51],[-15,-28],[-37,-5],[-49,22],[-59,59],[-35,22],[-47,1],[45,-31],[19,-21],[17,-30],[10,-36],[0,-29],[6,-26],[24,-29],[11,20],[9,22],[-2,-47],[-38,-106],[-18,-112],[-11,-29],[-48,-74],[-33,-81],[-20,-88],[-11,-112],[1,-80],[11,-28],[-4,-11],[-17,-18],[-20,-23],[-9,-29],[-5,-23],[-25,-73],[-554,0],[0,4096],[805,0],[5,-42],[-7,-39],[-46,-118],[6,-4],[-22,-23],[-17,-8],[-17,8],[-23,23],[27,-29],[13,-34],[-2,-37],[-18,-41],[54,39],[59,64],[48,71],[19,58],[12,63],[15,49]],[[703,3225],[27,19],[83,-18],[39,-37],[78,136],[70,-88],[37,-3],[8,-183],[-41,-129],[-104,1],[-70,64],[0,63],[-121,98],[-6,77]],[[91,4096],[24,0],[101,-125],[-26,-58],[-82,7],[23,25],[-20,27],[8,23],[63,-71],[-7,60],[-40,39],[-53,-45],[10,-32],[-36,32],[-8,49],[23,41],[-15,13],[35,15]],[[346,311],[-125,23],[-27,26],[121,16],[3,56],[61,-61],[3,-37],[-36,-23]],[[914,4096],[46,0],[-18,-81],[14,-261],[94,-105],[-214,-148],[-1,33],[-97,0],[-59,42],[-38,88],[-129,-97],[0,32],[-65,0],[-49,90],[77,121],[37,116],[65,-163],[145,39],[-18,-50],[54,39],[107,135],[49,170]],[[771,1575],[32,-33],[-27,-125],[60,-5],[18,11],[-19,54],[40,104],[33,30],[-4,-75],[38,80],[62,-142],[-21,-39],[21,-40],[-115,-400],[-37,-5],[-143,103],[-47,1],[64,-52],[57,-150],[20,41],[-58,-264],[-80,-154],[-185,-51],[64,66],[-32,130],[64,33],[-64,196],[-55,-10],[-46,-84],[-61,-4],[-65,82],[0,49],[55,5],[77,-40],[30,35],[0,65],[97,33],[-271,145],[-59,46],[-26,70],[130,0],[32,-65],[97,32],[0,33],[97,-65],[194,32],[4,69],[-101,95],[-6,35],[71,30],[-36,178],[36,51],[60,-17],[5,-114]],[[516,2492],[148,26],[90,61],[4,-28],[20,21],[41,-12],[9,22],[107,-43],[5,24],[19,-45],[15,53],[99,-2],[-1,-131],[-128,0],[-9,40],[-14,-49],[-115,-9],[-70,43],[-6,30],[-48,-25],[-119,13],[-5,-26],[-8,32],[-34,5]],[[767,2523],[23,-43],[86,-21],[-18,48],[52,-4],[7,22],[-150,-2]]]}