{"objects":{"water":{"type":"GeometryCollection","geometries":[{"type":"MultiPolygon","properties":{"source":"naturalearthdata.com","kind":"ocean","area":1576712559132672,"sort_rank":200,"min_zoom":0.0,"id":1},"arcs":[[[29]],[[30],[31],[32],[33]]]},{"type":"LineString","properties":{"source":"naturalearthdata.com","kind":"ocean","sort_rank":205,"boundary":true,"min_zoom":0.0,"id":602},"arcs":[34]},{"type":"MultiLineString","properties":{"source":"naturalearthdata.com","kind":"ocean","sort_rank":205,"boundary":true,"min_zoom":0.0,"id":2907},"arcs":[[35],[36]]},{"type":"MultiLineString","properties":{"source":"naturalearthdata.com","kind":"ocean","sort_rank":205,"boundary":true,"min_zoom":0.0,"id":3727},"arcs":[[37],[38]]},{"type":"LineString","properties":{"source":"naturalearthdata.com","kind":"ocean","sort_rank":205,"boundary":true,"min_zoom":0.0,"id":3798},"arcs":[39]},{"type":"LineString","properties":{"source":"naturalearthdata.com","kind":"ocean","sort_rank":205,"boundary":true,"min_zoom":0.0,"id":3799},"arcs":[40]}]},"buildings":{"type":"GeometryCollection","geometries":[]},"places":{"type":"GeometryCollection","geometries":[{"type":"Point","properties":{"name:pt":"Havana","name:ka":"\u10f0\u10d0\u10d5\u10d0\u10dc\u10d0","name:ko":"\uc544\ubc14\ub098","name:cv":"\u0413\u0430\u0432\u0430\u043d\u0430","name:cs":"Havana","min_zoom":8.0,"name:ro":"Havana","name:tl":"Havana","name:be":"\u0413\u0430\u0432\u0430\u043d\u0430","name:os":"\u0413\u0430\u0432\u0430\u043d\u00e6","name:pl":"Hawana","name:ta":"\u0b85\u0bb5\u0bbe\u0ba9\u0bbe","name:tg":"\u04b2\u0430\u0432\u0430\u043d\u0430","name:ca":"l'Havana","name:da":"Havana","name:de":"Havanna","source":"openstreetmap.org","name:kn":"\u0cb2\u0cbe \u0cb9\u0cac\u0ca8","admin_level":"2","name:lv":"Havana","name:tr":"Havana","name:he":"\u05d4\u05d5\u05d5\u05d0\u05e0\u05d4","kind":"locality","name:ur":"\u06c1\u0648\u0627\u0646\u0627","name:la":"Havana","name:uk":"\u0413\u0430\u0432\u0430\u043d\u0430","name:hy":"\u0540\u0561\u057e\u0561\u0576\u0561","country_capital":true,"name:ht":"La Av\u00e0n","name:hu":"Havanna","name:hr":"Havana","name:oc":"L'Avana","population":2141993,"name:el":"\u0391\u03b2\u03ac\u03bd\u03b1","name:eo":"Havano","name:en":"Havana","name":"La Habana","name:ku":"Havana","name:th":"\u0e2e\u0e32\u0e27\u0e32\u0e19\u0e32","name:eu":"Habana","name:nl":"Havana","name:yo":"Havana","name:mt":"\u0126avana","name:az":"Havana","name:id":"Havana","name:ms":"Havana","name:mr":"\u0939\u0935\u093e\u0928\u093e","name:ar":"\u0647\u0627\u0641\u0627\u0646\u0627","name:io":"Havana","name:is":"Havana","name:am":"\u1200\u126b\u1293","name:it":"L'Avana","name:an":"L'Habana","name:ru":"\u0413\u0430\u0432\u0430\u043d\u0430","name:rw":"Havana","id":26396457,"name:mk":"\u0425\u0430\u0432\u0430\u043d\u0430","name:af":"Havana","name:fa":"\u0647\u0627\u0648\u0627\u0646\u0627","name:lt":"Havana","kind_detail":"city","name:fr":"La Havane","name:zh-yue":"\u590f\u7063\u62ff","name:fy":"Havana","name:zh":"\u54c8\u74e6\u90a3","name:sl":"Havana","name:sk":"Havana","name:ja":"\u30cf\u30d0\u30ca","name:sh":"Havana","name:sc":"S'Avana","name:bs":"Havana","name:bo":"\u0f67\u0f0b\u0f5d\u0f53","name:sw":"Havana","name:sv":"Havanna","name:bg":"\u0425\u0430\u0432\u0430\u043d\u0430","name:sr":"\u0425\u0430\u0432\u0430\u043d\u0430","name:sq":"Havana","name:gd":"Havana","name:gl":"A Habana - La Habana","name:fi":"Havanna"},"coordinates":[1756,3770]},{"type":"Point","properties":{"kind":"locality","name":"Matanzas","kind_detail":"city","source":"openstreetmap.org","min_zoom":8.0,"name:uk":"\u041c\u0430\u0442\u0430\u043d\u0441\u0430\u0441","name:ru":"\u041c\u0430\u0442\u0430\u043d\u0441\u0430\u0441","id":259846344,"population":133769},"coordinates":[4047,3483]},{"type":"Point","properties":{"kind":"locality","name":"Guanabacoa","kind_detail":"town","source":"openstreetmap.org","min_zoom":8.0,"name:ru":"\u0413\u0443\u0430\u043d\u0430\u0431\u0430\u043a\u043e\u0430","id":3128453622,"population":113434},"coordinates":[1926,3721]},{"type":"Point","properties":{"kind":"locality","name":"Artemisa","kind_detail":"city","source":"openstreetmap.org","min_zoom":8.0,"name:uk":"\u0410\u0440\u0442\u0435\u043c\u0456\u0441\u0430","name:ru":"\u0410\u0440\u0442\u0435\u043c\u0438\u0441\u0430","id":259846349,"population":46574},"coordinates":[607,2747]},{"type":"Point","properties":{"kind":"locality","name":"G\u00fcines","kind_detail":"town","source":"openstreetmap.org","min_zoom":8.0,"name:ru":"\u0413\u0443\u0438\u043d\u0435\u0441","id":3268535679,"population":40855},"coordinates":[2740,2824]},{"type":"Point","properties":{"kind":"locality","name":"San Jos\u00e9 de las Lajas","kind_detail":"city","source":"openstreetmap.org","min_zoom":8.0,"name:ru":"\u0421\u0430\u043d-\u0425\u043e\u0441\u0435-\u0434\u0435-\u043b\u0430\u0441-\u041b\u0430\u0445\u0430\u0441","id":3647917681,"population":36640},"coordinates":[2386,3216]},{"type":"Point","properties":{"kind":"locality","name":"San Antonio de los Ba\u00f1os","kind_detail":"town","source":"openstreetmap.org","min_zoom":8.0,"name:ru":"\u0421\u0430\u043d-\u0410\u043d\u0442\u043e\u043d\u0438\u043e-\u0434\u0435-\u043b\u043e\u0441-\u0411\u0430\u043d\u044c\u043e\u0441","id":459986972,"population":33811},"coordinates":[1354,2985]},{"type":"Point","properties":{"kind":"locality","name":"G\u00fcira de Melena","kind_detail":"town","source":"openstreetmap.org","min_zoom":8.0,"name:ru":"\u0413\u0443\u0438\u0440\u0430-\u0434\u0435-\u041c\u0435\u043b\u0435\u043d\u0430","id":259846351,"population":25424},"coordinates":[1350,2703]},{"type":"Point","properties":{"kind":"locality","name":"Bauta","kind_detail":"town","source":"openstreetmap.org","min_zoom":8.0,"name:ru":"\u0411\u0430\u0443\u0442\u0430","id":457361954,"population":23557},"coordinates":[1227,3279]},{"type":"Point","properties":{"kind":"locality","name":"Guanajay","kind_detail":"town","source":"openstreetmap.org","min_zoom":8.0,"name:ru":"\u0413\u0443\u0430\u043d\u0430\u0445\u0430\u0439","id":459985828,"population":22839},"coordinates":[817,3102]},{"type":"Point","properties":{"source":"openstreetmap.org","kind":"locality","name":"Bejucal","kind_detail":"town","population":17000,"min_zoom":8.0,"id":457352723},"coordinates":[1688,3108]},{"type":"Point","properties":{"source":"openstreetmap.org","kind":"locality","name":"Alquizar","kind_detail":"town","population":15000,"min_zoom":8.0,"id":459999079},"coordinates":[1116,2725]},{"type":"Point","properties":{"kind":"locality","name":"Mariel","kind_detail":"town","source":"openstreetmap.org","min_zoom":8.0,"name:ru":"\u041c\u0430\u0440\u0438\u0435\u043b\u044c","id":459475697,"population":12000},"coordinates":[626,3306]},{"type":"Point","properties":{"kind":"locality","name":"Candelaria","kind_detail":"town","source":"openstreetmap.org","min_zoom":8.0,"name:ru":"\u041a\u0430\u043d\u0434\u0435\u043b\u0430\u0440\u0438\u044f","id":460340848,"population":12000},"coordinates":[24,2519]},{"type":"Point","properties":{"kind":"locality","name":"San Nicol\u00e1s de Bari","kind_detail":"town","source":"openstreetmap.org","min_zoom":8.0,"name:ru":"\u0421\u0430\u043d-\u041d\u0438\u043a\u043e\u043b\u0430\u0441-\u0434\u0435-\u0411\u0430\u0440\u0438","id":460435628,"population":12000},"coordinates":[3072,2660]},{"type":"Point","properties":{"kind":"locality","name":"Santa Cruz del Norte","kind_detail":"town","source":"openstreetmap.org","min_zoom":8.0,"name:ru":"\u0421\u0430\u043d\u0442\u0430-\u041a\u0440\u0443\u0441-\u0434\u0435\u043b\u044c-\u041d\u043e\u0440\u0442\u0435","id":482705582,"population":12000},"coordinates":[3044,3819]},{"type":"Point","properties":{"kind":"locality","name":"Madruga","kind_detail":"town","source":"openstreetmap.org","min_zoom":8.0,"name:ru":"\u041c\u0430\u0434\u0440\u0443\u0433\u0430","id":482709599,"population":11000},"coordinates":[3234,3049]},{"type":"Point","properties":{"source":"openstreetmap.org","kind":"locality","name":"Caimito","kind_detail":"town","population":10000,"min_zoom":8.0,"id":457359804},"coordinates":[1084,3181]},{"type":"Point","properties":{"source":"openstreetmap.org","kind":"locality","name":"Bataban\u00f3","kind_detail":"town","population":10000,"min_zoom":8.0,"id":644434764},"coordinates":[1979,2447]},{"type":"Point","properties":{"kind":"locality","name":"Jaruco","kind_detail":"town","source":"openstreetmap.org","min_zoom":8.0,"name:ru":"\u0425\u0430\u0440\u0443\u043a\u043e","id":454865962,"population":10000},"coordinates":[2792,3473]},{"type":"Point","properties":{"source":"openstreetmap.org","kind":"locality","name":"Melena del Sur","kind_detail":"town","population":9300,"min_zoom":8.0,"id":482709060},"coordinates":[2384,2664]},{"type":"Point","properties":{"source":"openstreetmap.org","kind":"locality","name":"Nueva Paz","kind_detail":"town","population":8000,"min_zoom":8.0,"id":482708581},"coordinates":[3528,2588]},{"type":"Point","properties":{"source":"openstreetmap.org","kind":"locality","name":"Playa Baracoa","kind_detail":"town","population":8000,"min_zoom":8.0,"id":455624731},"coordinates":[1177,3497]},{"type":"Point","properties":{"source":"openstreetmap.org","kind":"locality","name":"Quivic\u00e1n","kind_detail":"town","population":8000,"min_zoom":8.0,"id":482706289},"coordinates":[1787,2777]},{"type":"Point","properties":{"source":"openstreetmap.org","kind":"locality","name":"La Salud","kind_detail":"town","population":7000,"min_zoom":8.0,"id":460002166},"coordinates":[1599,2937]},{"type":"Point","properties":{"source":"openstreetmap.org","kind":"locality","name":"Palos","kind_detail":"town","population":7000,"min_zoom":8.0,"id":460436741},"coordinates":[3571,2688]},{"type":"Point","properties":{"kind":"locality","name":"Aguacate","kind_detail":"town","source":"openstreetmap.org","min_zoom":8.0,"name:ru":"\u0410\u0433\u0443\u0430\u043a\u0430\u0442\u0435","id":463952077,"population":7000},"coordinates":[3337,3284]},{"type":"Point","properties":{"kind":"locality","name":"Surgidero de Bataban\u00f3","kind_detail":"town","source":"openstreetmap.org","min_zoom":8.0,"name:ru":"\u0421\u0443\u0440\u0445\u0438\u0434\u0435\u0440\u043e-\u0434\u0435-\u0411\u0430\u0442\u0430\u0431\u0430\u043d\u043e","id":649898072,"population":5203},"coordinates":[1966,2346]},{"type":"Point","properties":{"source":"openstreetmap.org","kind":"locality","name":"Catalina de G\u00fcines","kind_detail":"town","population":5200,"min_zoom":8.0,"id":3647876418},"coordinates":[2885,3105]},{"type":"Point","properties":{"kind":"locality","name":"Caba\u00f1as","kind_detail":"town","source":"openstreetmap.org","min_zoom":8.0,"name:ru":"\u041a\u0430\u0431\u0430\u043d\u044c\u044f\u0441","id":473421890,"population":4500},"coordinates":[134,3265]},{"type":"Point","properties":{"source":"openstreetmap.org","kind":"locality","name":"Las Ca\u00f1as","kind_detail":"town","population":4000,"min_zoom":8.0,"id":459991942},"coordinates":[753,2726]},{"type":"Point","properties":{"source":"openstreetmap.org","kind":"locality","name":"San Antonio de las Vegas","kind_detail":"town","population":4000,"min_zoom":8.0,"id":644455917},"coordinates":[2061,2872]}]},"transit":{"type":"GeometryCollection","geometries":[{"type":"LineString","properties":{"kind":"train","name":"Tren Habana-Bayamo-Manzanillo","service":"long distance","sort_rank":275,"source":"openstreetmap.org","min_zoom":6.0,"operator":"Ferrocarriles de Cuba (FC)","ref":"13\/14","id":-6520976,"osm_relation":true},"arcs":[7]},{"type":"LineString","properties":{"kind":"train","name":"Tren Habana- Cienfuegos (Linea Sur)","service":"Long Distance","sort_rank":275,"source":"openstreetmap.org","min_zoom":6.0,"operator":"Ferrocarriles de Cuba (FC)","ref":"73\/74","osm_relation":true},"arcs":[8]},{"type":"LineString","properties":{"kind":"train","name":"Estaci\u00f3n Central - Playas del Este","service":"commuter","sort_rank":275,"source":"openstreetmap.org","min_zoom":6.0,"operator":"Ferrocarriles de Cuba (FC)","ref":"4","id":-4479819,"osm_relation":true},"arcs":[9]},{"type":"LineString","properties":{"kind":"train","name":"Habana-Santiago-Bejucal","service":"commuter","sort_rank":275,"source":"openstreetmap.org","min_zoom":6.0,"operator":"Ferrocarriles de Cuba (FC)","ref":"2","id":-4479817,"osm_relation":true},"arcs":[10]},{"type":"LineString","properties":{"kind":"train","name":"Tren Habana - Pinar","service":"Long Distance","sort_rank":275,"source":"openstreetmap.org","min_zoom":6.0,"operator":"Ferrocarriles de Cuba (FC)","ref":"71\/72","osm_relation":true},"arcs":[11]},{"type":"LineString","properties":{"kind":"train","name":"Tren Habana-Holgu\u00edn","service":"long distance","sort_rank":275,"source":"openstreetmap.org","min_zoom":6.0,"operator":"Ferrocarriles de Cuba (FC)","ref":"5\/6","id":-6520978,"osm_relation":true},"arcs":[12]},{"type":"LineString","properties":{"kind":"train","name":"Habana-San Antonio","service":"commuter","sort_rank":275,"source":"openstreetmap.org","min_zoom":6.0,"operator":"Ferrocarriles de Cuba (FC)","ref":"5","id":-4481312,"osm_relation":true},"arcs":[13]},{"type":"LineString","properties":{"kind":"train","name":"ExpoCuba","service":"commuter","sort_rank":275,"source":"openstreetmap.org","min_zoom":6.0,"operator":"Ferrocarriles de Cuba (FC)","ref":"3","id":-4479818,"osm_relation":true},"arcs":[14]},{"type":"LineString","properties":{"kind":"train","name":"Tren Habana-Sancti Spiritus","service":"long distance","sort_rank":275,"source":"openstreetmap.org","min_zoom":6.0,"operator":"Ferrocarriles de Cuba (FC)","ref":"7\/8","id":-6520979,"osm_relation":true},"arcs":[15]},{"type":"LineString","properties":{"kind":"train","name":"Tren Habana-Santiago Nro 1\/2","service":"long distance","sort_rank":275,"source":"openstreetmap.org","min_zoom":6.0,"operator":"Ferrocarriles de Cuba (FC)","ref":"1\/2","id":-6520980,"osm_relation":true},"arcs":[16]},{"type":"LineString","properties":{"kind":"train","name":"Tren Habana-Santiago Nro3\/4","service":"long distance","sort_rank":275,"source":"openstreetmap.org","min_zoom":6.0,"operator":"Ferrocarriles de Cuba (FC)","ref":"3\/4","id":-6520981,"osm_relation":true},"arcs":[17]},{"type":"LineString","properties":{"kind":"train","name":"Tren Habana-Guant\u00e1namo","service":"long distance","sort_rank":275,"source":"openstreetmap.org","min_zoom":6.0,"operator":"Ferrocarriles de Cuba (FC)","ref":"15\/16","id":-6520977,"osm_relation":true},"arcs":[18]},{"type":"MultiLineString","properties":{"kind":"train","name":"Habana-Guira-Artemisa","service":"commuter","sort_rank":275,"source":"openstreetmap.org","min_zoom":6.0,"operator":"Ferrocarriles de Cuba (FC)","ref":"6","osm_relation":true},"arcs":[[19],[20]]},{"type":"LineString","properties":{"kind":"train","name":"Habana-Guanajay-Artemisa","service":"commuter","sort_rank":275,"source":"openstreetmap.org","min_zoom":6.0,"operator":"Ferrocarriles de Cuba (FC)","ref":"8","id":-5476567,"osm_relation":true},"arcs":[21]},{"type":"MultiLineString","properties":{"kind":"train","name":"Habana-Bataban\u00f3","service":"commuter","sort_rank":275,"source":"openstreetmap.org","min_zoom":6.0,"operator":"Ferrocarriles de Cuba (FC)","ref":"7","osm_relation":true},"arcs":[[22],[23],[24]]},{"type":"LineString","properties":{"kind":"train","name":"Habana-Palos","service":"commuter","sort_rank":275,"source":"openstreetmap.org","min_zoom":6.0,"operator":"Ferrocarriles de Cuba (FC)","ref":"1","id":-4479816,"osm_relation":true},"arcs":[25]},{"type":"LineString","properties":{"kind":"train","name:en":"Hershey Railway","name":"Ferrocarril de Hershey","service":"commuter","sort_rank":275,"name:de":"Hershey-Bahn","source":"openstreetmap.org","min_zoom":6.0,"operator":"Ferrocarril El\u00e9ctrico de Cuba (FELCUBA)","ref":"8","id":-4442388,"osm_relation":true},"arcs":[26]},{"type":"LineString","properties":{"kind":"train","name":"Habana-TC Mariel","service":"commuter","sort_rank":275,"source":"openstreetmap.org","min_zoom":6.0,"operator":"Ferrocarriles de Cuba (FC)","ref":"9","id":-6191127,"osm_relation":true},"arcs":[27]},{"type":"LineString","properties":{"kind":"train","name:en":"Hershey Railway - Jaruco Branch","name":"Hershey - Jaruco","service":"commuter","sort_rank":275,"name:de":"Hershey-Bahn","source":"openstreetmap.org","min_zoom":6.0,"operator":"Ferrocarril El\u00e9ctrico de Cuba (FELCUBA)","ref":"8A","id":-6289247,"osm_relation":true},"arcs":[28]}]},"pois":{"type":"GeometryCollection","geometries":[{"type":"Point","properties":{"source":"openstreetmap.org","kind":"nature_reserve","name":"Reserva de la Biosfera \"Sierra del Rosario\"","area":281410000,"tier":2,"min_zoom":8.22,"id":361292976},"coordinates":[53,2894]}]},"boundaries":{"type":"GeometryCollection","geometries":[{"type":"LineString","properties":{"name:right:fr":"\u00cele de la Jeunesse","name:right:la":"Insula Iuventutis","name":"Pinar del R\u00edo - Isla de la Juventud","old_name:right":"Isla de Pinos","name:right:it":"Isola della Giovent\u00f9","kind":"region","id:right":-1854614,"min_zoom":8.0,"name:left:ru":"\u041f\u0438\u043d\u0430\u0440-\u0434\u0435\u043b\u044c-\u0420\u0438\u043e","name:right:pt":"Ilha da Juventude","old_name:right:es":"Isla de Pinos","old_name:right:de":"Kieferninsel","id":-1854617,"osm_relation":true,"name:right":"Isla de la Juventud","old_name:right:fr":"\u00cele des Pins","name:left:en":"Pinar del Rio","sort_rank":256,"kind_detail":"4","name:right:ru":"\u041e\u0441\u0442\u0440\u043e\u0432 \u0425\u0443\u0432\u0435\u043d\u0442\u0443\u0434","name:right:en":"Isle of Youth","source":"openstreetmap.org","maritime_boundary":true,"name:right:de":"Insel der Jugend","id:left":-1854617,"official_name:right":"Municipio Especial Isla de la Juventud","name:left":"Pinar del R\u00edo"},"arcs":[0]},{"type":"LineString","properties":{"kind":"region","name:en":"Pinar del Rio","name":"Pinar del R\u00edo","sort_rank":256,"kind_detail":"4","min_zoom":8.0,"source":"openstreetmap.org","maritime_boundary":true,"name:ru":"\u041f\u0438\u043d\u0430\u0440-\u0434\u0435\u043b\u044c-\u0420\u0438\u043e","id":-1854617,"osm_relation":true},"arcs":[1]},{"type":"LineString","properties":{"name:right:fr":"\u00cele de la Jeunesse","name:right:la":"Insula Iuventutis","old_name:right":"Isla de Pinos","name:right:it":"Isola della Giovent\u00f9","kind":"region","id:right":-1854614,"min_zoom":8.0,"name:left:ru":"\u041c\u0430\u0442\u0430\u043d\u0441\u0430\u0441","name:right:pt":"Ilha da Juventude","old_name:right:es":"Isla de Pinos","old_name:right:de":"Kieferninsel","id":-1854616,"osm_relation":true,"name:right":"Isla de la Juventud","old_name:right:fr":"\u00cele des Pins","name":"Matanzas - Isla de la Juventud","sort_rank":256,"kind_detail":"4","name:right:ru":"\u041e\u0441\u0442\u0440\u043e\u0432 \u0425\u0443\u0432\u0435\u043d\u0442\u0443\u0434","name:right:en":"Isle of Youth","source":"openstreetmap.org","maritime_boundary":true,"name:right:de":"Insel der Jugend","id:left":-1854616,"official_name:right":"Municipio Especial Isla de la Juventud","name:left":"Matanzas"},"arcs":[2]},{"type":"LineString","properties":{"kind":"region","name":"Matanzas","sort_rank":256,"kind_detail":"4","source":"openstreetmap.org","min_zoom":8.0,"name:ru":"\u041c\u0430\u0442\u0430\u043d\u0441\u0430\u0441","id":-1854616,"osm_relation":true},"arcs":[3]},{"type":"MultiLineString","properties":{"kind":"region","name":"Matanzas","sort_rank":256,"kind_detail":"4","min_zoom":8.0,"source":"openstreetmap.org","maritime_boundary":true,"name:ru":"\u041c\u0430\u0442\u0430\u043d\u0441\u0430\u0441","id":-1854616,"osm_relation":true},"arcs":[[4],[5]]},{"type":"LineString","properties":{"old_name:fr":"\u00cele des Pins","name:pt":"Ilha da Juventude","old_name:es":"Isla de Pinos","official_name":"Municipio Especial Isla de la Juventud","min_zoom":8.0,"name:la":"Insula Iuventutis","name:it":"Isola della Giovent\u00f9","old_name":"Isla de Pinos","name:ru":"\u041e\u0441\u0442\u0440\u043e\u0432 \u0425\u0443\u0432\u0435\u043d\u0442\u0443\u0434","name:de":"Insel der Jugend","id":-1854614,"osm_relation":true,"kind":"region","name:en":"Isle of Youth","name":"Isla de la Juventud","sort_rank":256,"kind_detail":"4","name:fr":"\u00cele de la Jeunesse","old_name:de":"Kieferninsel","source":"openstreetmap.org","maritime_boundary":true},"arcs":[6]}]},"roads":{"type":"GeometryCollection","geometries":[{"type":"MultiLineString","properties":{"source":"openstreetmap.org","kind":"major_road","sort_rank":380,"kind_detail":"primary","ref":"CN","min_zoom":8.0},"arcs":[[41],[42],[43]]},{"type":"LineString","properties":{"bus_network":null,"sort_rank":380,"kind_detail":"primary","kind":"major_road","source":"openstreetmap.org","min_zoom":8.0,"bus_shield_text":"222","landuse_kind":"urban_area"},"arcs":[44]},{"type":"LineString","properties":{"bus_network":null,"sort_rank":381,"landuse_kind":"urban_area","kind":"major_road","source":"openstreetmap.org","min_zoom":8.0,"bus_shield_text":"P9","kind_detail":"trunk"},"arcs":[45]},{"type":"MultiLineString","properties":{"bus_network":null,"sort_rank":380,"kind_detail":"primary","kind":"major_road","source":"openstreetmap.org","min_zoom":8.0,"bus_shield_text":"A5","landuse_kind":"urban_area"},"arcs":[[46],[47],[48]]},{"type":"LineString","properties":{"sort_rank":355,"source":"openstreetmap.org","min_zoom":8.0,"name":"Surgidero de Bataban\u00f3 - Cayo Largo del Sur","kind":"ferry"},"arcs":[49]},{"type":"LineString","properties":{"bus_network":null,"sort_rank":380,"kind_detail":"primary","kind":"major_road","source":"openstreetmap.org","min_zoom":8.0,"bus_shield_text":"P16","landuse_kind":"urban_area"},"arcs":[50]},{"type":"LineString","properties":{"bus_network":null,"network":"cu:national","sort_rank":380,"kind_detail":"primary","kind":"major_road","source":"openstreetmap.org","min_zoom":8.0,"bus_shield_text":"A5","shield_text":"C","ref":"CC"},"arcs":[51]},{"type":"LineString","properties":{"bus_network":null,"sort_rank":380,"kind_detail":"primary","kind":"major_road","source":"openstreetmap.org","min_zoom":8.0,"bus_shield_text":"9","ref":"CN"},"arcs":[52]},{"type":"MultiLineString","properties":{"bus_network":null,"sort_rank":380,"kind_detail":"primary","kind":"major_road","source":"openstreetmap.org","min_zoom":8.0,"bus_shield_text":"P1","landuse_kind":"urban_area"},"arcs":[[53],[54],[55],[56],[57],[58],[59]]},{"type":"LineString","properties":{"kind":"major_road","sort_rank":380,"kind_detail":"primary","bus_network":null,"source":"openstreetmap.org","min_zoom":8.0,"bus_shield_text":"A9","ref":"CC","id":449293037},"arcs":[60]},{"type":"LineString","properties":{"bus_network":null,"sort_rank":381,"kind_detail":"trunk","kind":"major_road","source":"openstreetmap.org","min_zoom":8.0,"bus_shield_text":"P14","ref":"2-101"},"arcs":[61]},{"type":"LineString","properties":{"kind":"major_road","sort_rank":380,"kind_detail":"primary","bus_shield_text":"P7","bus_network":null,"source":"openstreetmap.org","min_zoom":8.0,"old_name":"Calzada de Jes\u00fas del Monte","landuse_kind":"urban_area","id":319987944},"arcs":[62]},{"type":"MultiLineString","properties":{"source":"openstreetmap.org","kind":"major_road","sort_rank":380,"kind_detail":"primary","ref":"2-600","min_zoom":8.0},"arcs":[[63],[64],[65]]},{"type":"LineString","properties":{"bus_network":null,"network":"cu:national","sort_rank":380,"kind_detail":"primary","kind":"major_road","source":"openstreetmap.org","min_zoom":8.0,"bus_shield_text":"A9","shield_text":"C","ref":"CC"},"arcs":[66]},{"type":"MultiLineString","properties":{"bus_network":null,"sort_rank":381,"landuse_kind":"urban_area","kind":"major_road","source":"openstreetmap.org","min_zoom":8.0,"bus_shield_text":"A42","kind_detail":"trunk"},"arcs":[[67],[68]]},{"type":"MultiLineString","properties":{"kind":"highway","network":"cu:national","sort_rank":383,"kind_detail":"motorway","source":"openstreetmap.org","min_zoom":8.0,"all_networks":["cu:national"],"shield_text":"1","ref":"A1","all_shield_texts":["1"]},"arcs":[[69],[70],[71],[72],[73],[74],[75],[76],[77],[78],[79]]},{"type":"MultiLineString","properties":{"bus_network":null,"sort_rank":380,"kind_detail":"primary","kind":"major_road","source":"openstreetmap.org","min_zoom":8.0,"bus_shield_text":"P12","landuse_kind":"urban_area"},"arcs":[[80],[81],[82],[83]]},{"type":"LineString","properties":{"kind":"major_road","sort_rank":380,"kind_detail":"primary","bus_network":null,"source":"openstreetmap.org","min_zoom":8.0,"bus_shield_text":"A66","landuse_kind":"urban_area","id":23860197},"arcs":[84]},{"type":"MultiLineString","properties":{"source":"openstreetmap.org","kind":"major_road","sort_rank":380,"kind_detail":"primary","ref":"2-39","min_zoom":8.0},"arcs":[[85],[86]]},{"type":"MultiLineString","properties":{"source":"openstreetmap.org","kind":"major_road","sort_rank":380,"kind_detail":"primary","ref":"2-740","min_zoom":8.0},"arcs":[[87],[88]]},{"type":"LineString","properties":{"kind":"major_road","sort_rank":380,"kind_detail":"primary","bus_network":null,"source":"openstreetmap.org","min_zoom":8.0,"bus_shield_text":"4","id":488908180},"arcs":[89]},{"type":"MultiLineString","properties":{"bus_network":null,"sort_rank":380,"kind_detail":"primary","kind":"major_road","source":"openstreetmap.org","min_zoom":8.0,"bus_shield_text":"local","ref":"CC"},"arcs":[[90],[91]]},{"type":"LineString","properties":{"source":"openstreetmap.org","bus_network":null,"bus_shield_text":"P8","sort_rank":380,"kind_detail":"primary","min_zoom":8.0,"kind":"major_road"},"arcs":[92]},{"type":"MultiLineString","properties":{"kind":"highway","network":"cu:national","sort_rank":383,"landuse_kind":"urban_area","source":"openstreetmap.org","min_zoom":8.0,"all_networks":["cu:national"],"kind_detail":"motorway","shield_text":"1","ref":"A1","all_shield_texts":["1"]},"arcs":[[93],[94]]},{"type":"LineString","properties":{"kind":"major_road","sort_rank":380,"kind_detail":"primary","bus_network":null,"source":"openstreetmap.org","min_zoom":8.0,"bus_shield_text":"36","ref":"CC","id":449476882},"arcs":[95]},{"type":"MultiLineString","properties":{"bus_network":null,"short_name":"MFP","sort_rank":380,"kind_detail":"primary","is_bicycle_related":true,"kind":"major_road","source":"openstreetmap.org","min_zoom":8.0,"bus_shield_text":"P5","landuse_kind":"urban_area"},"arcs":[[96],[97]]},{"type":"LineString","properties":{"kind":"major_road","sort_rank":380,"kind_detail":"primary","bus_network":null,"source":"openstreetmap.org","min_zoom":8.0,"bus_shield_text":"P16","ref":"2-550","id":463306708},"arcs":[98]},{"type":"MultiLineString","properties":{"bus_network":null,"sort_rank":381,"landuse_kind":"urban_area","kind":"major_road","source":"openstreetmap.org","min_zoom":8.0,"bus_shield_text":"A40","kind_detail":"trunk","ref":"CN"},"arcs":[[99],[100],[101],[102]]},{"type":"LineString","properties":{"source":"openstreetmap.org","bus_network":null,"bus_shield_text":"P9","sort_rank":381,"kind_detail":"trunk","min_zoom":8.0,"kind":"major_road"},"arcs":[103]},{"type":"MultiLineString","properties":{"source":"openstreetmap.org","bus_network":null,"bus_shield_text":"P13","sort_rank":380,"kind_detail":"primary","min_zoom":8.0,"kind":"major_road"},"arcs":[[104],[105]]},{"type":"LineString","properties":{"kind":"major_road","sort_rank":380,"kind_detail":"primary","bus_network":null,"source":"openstreetmap.org","min_zoom":8.0,"bus_shield_text":"20","landuse_kind":"urban_area","id":319905718},"arcs":[106]},{"type":"MultiLineString","properties":{"bus_network":null,"sort_rank":380,"kind_detail":"primary","kind":"major_road","source":"openstreetmap.org","min_zoom":8.0,"bus_shield_text":"9","landuse_kind":"urban_area"},"arcs":[[107],[108],[109],[110]]},{"type":"MultiLineString","properties":{"source":"openstreetmap.org","kind":"major_road","sort_rank":380,"kind_detail":"primary","ref":"CC","min_zoom":8.0},"arcs":[[111],[112],[113],[114]]},{"type":"MultiLineString","properties":{"bus_network":null,"sort_rank":380,"kind_detail":"primary","kind":"major_road","source":"openstreetmap.org","min_zoom":8.0,"bus_shield_text":"A83","landuse_kind":"urban_area"},"arcs":[[115],[116],[117],[118]]},{"type":"MultiLineString","properties":{"source":"openstreetmap.org","kind":"major_road","sort_rank":380,"kind_detail":"primary","ref":"2-200","min_zoom":8.0},"arcs":[[119],[120]]},{"type":"MultiLineString","properties":{"source":"openstreetmap.org","kind":"major_road","sort_rank":380,"kind_detail":"primary","ref":"2-101","min_zoom":8.0},"arcs":[[121],[122],[123],[124]]},{"type":"MultiLineString","properties":{"bus_network":null,"sort_rank":380,"kind_detail":"primary","kind":"major_road","source":"openstreetmap.org","min_zoom":8.0,"bus_shield_text":"69","landuse_kind":"urban_area"},"arcs":[[125],[126]]},{"type":"LineString","properties":{"bus_network":null,"short_name":"MFP","sort_rank":380,"kind_detail":"primary","is_bicycle_related":true,"kind":"major_road","source":"openstreetmap.org","min_zoom":8.0,"bus_shield_text":"P15","landuse_kind":"urban_area"},"arcs":[127]},{"type":"MultiLineString","properties":{"bus_network":null,"sort_rank":380,"kind_detail":"primary","kind":"major_road","source":"openstreetmap.org","min_zoom":8.0,"bus_shield_text":"A50","landuse_kind":"urban_area"},"arcs":[[128],[129],[130],[131],[132],[133],[134],[135],[136],[137]]},{"type":"LineString","properties":{"kind":"major_road","sort_rank":380,"kind_detail":"primary","bus_network":null,"source":"openstreetmap.org","min_zoom":8.0,"bus_shield_text":"9","id":389628229},"arcs":[138]},{"type":"MultiLineString","properties":{"bus_network":null,"sort_rank":380,"kind_detail":"primary","kind":"major_road","source":"openstreetmap.org","min_zoom":8.0,"bus_shield_text":"A10","landuse_kind":"urban_area"},"arcs":[[139],[140],[141],[142],[143]]},{"type":"MultiLineString","properties":{"sort_rank":381,"source":"openstreetmap.org","min_zoom":8.0,"kind":"major_road","kind_detail":"trunk"},"arcs":[[144],[145],[146],[147],[148],[149],[150],[151],[152],[153],[154]]},{"type":"MultiLineString","properties":{"bus_network":null,"sort_rank":380,"kind_detail":"primary","kind":"major_road","source":"openstreetmap.org","min_zoom":8.0,"bus_shield_text":"A32","landuse_kind":"urban_area"},"arcs":[[155],[156],[157],[158],[159],[160],[161]]},{"type":"MultiLineString","properties":{"bus_network":null,"sort_rank":380,"kind_detail":"primary","kind":"major_road","source":"openstreetmap.org","min_zoom":8.0,"bus_shield_text":"P10","landuse_kind":"urban_area"},"arcs":[[162],[163]]},{"type":"LineString","properties":{"bus_network":null,"sort_rank":381,"kind_detail":"trunk","kind":"major_road","source":"openstreetmap.org","min_zoom":8.0,"bus_shield_text":"86","ref":"2-400"},"arcs":[164]},{"type":"MultiLineString","properties":{"source":"openstreetmap.org","kind":"major_road","sort_rank":380,"kind_detail":"primary","ref":"101","min_zoom":8.0},"arcs":[[165],[166],[167]]},{"type":"LineString","properties":{"source":"openstreetmap.org","kind":"major_road","sort_rank":380,"kind_detail":"primary","ref":"72","min_zoom":8.0,"id":137943624},"arcs":[168]},{"type":"LineString","properties":{"bus_network":null,"sort_rank":380,"kind_detail":"primary","is_bicycle_related":true,"kind":"major_road","source":"openstreetmap.org","min_zoom":8.0,"bus_shield_text":"P13","landuse_kind":"urban_area"},"arcs":[169]},{"type":"MultiLineString","properties":{"bus_network":null,"sort_rank":380,"kind_detail":"primary","kind":"major_road","source":"openstreetmap.org","min_zoom":8.0,"bus_shield_text":"T2","landuse_kind":"urban_area"},"arcs":[[170],[171],[172],[173],[174],[175],[176],[177]]},{"type":"LineString","properties":{"kind":"major_road","sort_rank":380,"kind_detail":"primary","bus_network":null,"source":"openstreetmap.org","min_zoom":8.0,"bus_shield_text":"4","ref":"CC","id":449145734},"arcs":[178]},{"type":"MultiLineString","properties":{"bus_network":null,"sort_rank":381,"landuse_kind":"urban_area","kind":"major_road","source":"openstreetmap.org","min_zoom":8.0,"bus_shield_text":"A83","kind_detail":"trunk"},"arcs":[[179],[180]]},{"type":"MultiLineString","properties":{"source":"openstreetmap.org","bus_network":null,"bus_shield_text":"T2","sort_rank":380,"kind_detail":"primary","min_zoom":8.0,"kind":"major_road"},"arcs":[[181],[182],[183]]},{"type":"LineString","properties":{"kind":"major_road","sort_rank":380,"kind_detail":"primary","bus_network":null,"source":"openstreetmap.org","min_zoom":8.0,"bus_shield_text":"179","landuse_kind":"urban_area","id":372478516},"arcs":[184]},{"type":"MultiLineString","properties":{"source":"openstreetmap.org","kind":"major_road","landuse_kind":"urban_area","sort_rank":380,"kind_detail":"primary","min_zoom":8.0},"arcs":[[185],[186],[187],[188],[189],[190],[191],[192],[193],[194],[195],[196],[197],[198],[199],[200],[201],[202],[203],[204],[205],[206],[207],[208],[209],[210],[211],[212],[213],[214],[215],[216],[217],[218],[219],[220],[221],[222],[223],[224],[225],[226],[227],[228],[229],[230],[231],[232],[233],[234],[235],[236],[237],[238],[239],[240],[241],[242],[243],[244],[245],[246],[247],[248],[249],[250],[251],[252],[253],[254],[255],[256],[257],[258],[259],[260],[261],[262],[263],[264],[265],[266],[267],[268],[269],[270]]},{"type":"LineString","properties":{"bus_network":null,"sort_rank":380,"kind_detail":"primary","kind":"major_road","source":"openstreetmap.org","min_zoom":8.0,"bus_shield_text":"27","landuse_kind":"urban_area"},"arcs":[271]},{"type":"LineString","properties":{"bus_network":null,"sort_rank":381,"kind_detail":"trunk","kind":"major_road","source":"openstreetmap.org","min_zoom":8.0,"bus_shield_text":"420","ref":"CN"},"arcs":[272]},{"type":"MultiLineString","properties":{"bus_network":null,"sort_rank":380,"kind_detail":"primary","is_bicycle_related":true,"kind":"major_road","source":"openstreetmap.org","min_zoom":8.0,"bus_shield_text":"P15","landuse_kind":"urban_area"},"arcs":[[273],[274],[275]]},{"type":"MultiLineString","properties":{"source":"openstreetmap.org","bus_network":null,"bus_shield_text":"A10","sort_rank":380,"kind_detail":"primary","min_zoom":8.0,"kind":"major_road"},"arcs":[[276],[277]]},{"type":"MultiLineString","properties":{"source":"openstreetmap.org","kind":"major_road","ref":"CN","sort_rank":381,"kind_detail":"trunk","is_bicycle_related":true,"min_zoom":8.0},"arcs":[[278],[279]]},{"type":"MultiLineString","properties":{"kind":"highway","network":"cu:national","sort_rank":383,"kind_detail":"motorway","source":"openstreetmap.org","min_zoom":8.0,"all_networks":["cu:national"],"shield_text":"4","ref":"A4","all_shield_texts":["4"]},"arcs":[[280],[281],[282],[283],[284],[285],[286],[287],[288],[289]]},{"type":"LineString","properties":{"kind":"major_road","sort_rank":380,"kind_detail":"primary","bus_shield_text":"P9","bus_network":null,"source":"openstreetmap.org","min_zoom":8.0,"old_name":"Calzada de Jes\u00fas del Monte","landuse_kind":"urban_area","id":373846895},"arcs":[290]},{"type":"MultiLineString","properties":{"bus_network":null,"sort_rank":380,"kind_detail":"primary","kind":"major_road","source":"openstreetmap.org","min_zoom":8.0,"bus_shield_text":"114","landuse_kind":"urban_area"},"arcs":[[291],[292],[293],[294]]},{"type":"LineString","properties":{"source":"openstreetmap.org","bus_network":null,"bus_shield_text":"1","sort_rank":380,"kind_detail":"primary","min_zoom":8.0,"kind":"major_road"},"arcs":[295]},{"type":"MultiLineString","properties":{"source":"openstreetmap.org","bus_network":null,"bus_shield_text":"A9","sort_rank":380,"kind_detail":"primary","min_zoom":8.0,"kind":"major_road"},"arcs":[[296],[297],[298],[299],[300]]},{"type":"LineString","properties":{"bus_network":null,"sort_rank":380,"kind_detail":"primary","is_bicycle_related":true,"kind":"major_road","source":"openstreetmap.org","min_zoom":8.0,"bus_shield_text":"P1","landuse_kind":"urban_area"},"arcs":[301]},{"type":"LineString","properties":{"bus_network":null,"sort_rank":380,"kind_detail":"primary","kind":"major_road","source":"openstreetmap.org","min_zoom":8.0,"bus_shield_text":"P11","landuse_kind":"urban_area"},"arcs":[302]},{"type":"MultiLineString","properties":{"bus_network":null,"sort_rank":380,"kind_detail":"primary","kind":"major_road","source":"openstreetmap.org","min_zoom":8.0,"bus_shield_text":"P2","landuse_kind":"urban_area"},"arcs":[[303],[304]]},{"type":"MultiLineString","properties":{"bus_network":null,"sort_rank":380,"kind_detail":"primary","is_bicycle_related":true,"kind":"major_road","source":"openstreetmap.org","min_zoom":8.0,"bus_shield_text":"T2","landuse_kind":"urban_area"},"arcs":[[305],[306],[307]]},{"type":"MultiLineString","properties":{"bus_network":null,"sort_rank":380,"kind_detail":"primary","kind":"major_road","source":"openstreetmap.org","min_zoom":8.0,"bus_shield_text":"T1","landuse_kind":"urban_area"},"arcs":[[308],[309],[310],[311],[312],[313],[314],[315],[316],[317],[318],[319],[320]]},{"type":"MultiLineString","properties":{"bus_network":null,"sort_rank":380,"kind_detail":"primary","kind":"major_road","source":"openstreetmap.org","min_zoom":8.0,"bus_shield_text":"P4","landuse_kind":"urban_area"},"arcs":[[321],[322],[323],[324],[325],[326],[327],[328]]},{"type":"MultiLineString","properties":{"bus_network":null,"sort_rank":380,"kind_detail":"primary","kind":"major_road","source":"openstreetmap.org","min_zoom":8.0,"bus_shield_text":"P5","landuse_kind":"urban_area"},"arcs":[[329],[330],[331],[332],[333],[334]]},{"type":"LineString","properties":{"bus_network":null,"network":"cu:national","sort_rank":380,"kind_detail":"primary","kind":"major_road","source":"openstreetmap.org","min_zoom":8.0,"bus_shield_text":"P1","shield_text":"C","landuse_kind":"urban_area","ref":"CC"},"arcs":[335]},{"type":"LineString","properties":{"sort_rank":355,"source":"openstreetmap.org","min_zoom":8.0,"name":"Surgidero de Bataban\u00f3 - Nueva Gerona","kind":"ferry"},"arcs":[336]},{"type":"LineString","properties":{"kind":"major_road","sort_rank":381,"kind_detail":"trunk","bus_network":null,"source":"openstreetmap.org","min_zoom":8.0,"bus_shield_text":"T3","ref":"CN","id":322890714},"arcs":[337]},{"type":"MultiLineString","properties":{"sort_rank":380,"kind_detail":"primary","min_zoom":8.0,"kind":"major_road","source":"openstreetmap.org"},"arcs":[[338],[339],[340],[341],[342],[343],[344],[345],[346],[347],[348],[349],[350],[351],[352],[353],[354],[355],[356],[357],[358],[359],[360],[361],[362],[363],[364],[365],[366],[367],[368],[369],[370],[371],[372]]},{"type":"MultiLineString","properties":{"bus_network":null,"sort_rank":381,"landuse_kind":"urban_area","kind":"major_road","source":"openstreetmap.org","min_zoom":8.0,"bus_shield_text":"P11","kind_detail":"trunk","ref":"CN"},"arcs":[[373],[374]]},{"type":"MultiLineString","properties":{"kind":"highway","network":"cu:national","sort_rank":383,"kind_detail":"motorway","source":"openstreetmap.org","min_zoom":8.0,"all_networks":["cu:national"],"shield_text":"2","ref":"A2","all_shield_texts":["2"]},"arcs":[[375],[376],[377],[378],[379]]},{"type":"MultiLineString","properties":{"bus_network":null,"sort_rank":380,"kind_detail":"primary","kind":"major_road","source":"openstreetmap.org","min_zoom":8.0,"bus_shield_text":"PC","landuse_kind":"urban_area"},"arcs":[[380],[381]]},{"type":"MultiLineString","properties":{"bus_network":null,"sort_rank":380,"kind_detail":"primary","kind":"major_road","source":"openstreetmap.org","min_zoom":8.0,"bus_shield_text":"A42","landuse_kind":"urban_area"},"arcs":[[382],[383],[384]]},{"type":"LineString","properties":{"source":"openstreetmap.org","bus_network":null,"bus_shield_text":"P5","sort_rank":380,"kind_detail":"primary","min_zoom":8.0,"kind":"major_road"},"arcs":[385]},{"type":"LineString","properties":{"bus_network":null,"network":"cu:national","sort_rank":380,"kind_detail":"primary","kind":"major_road","source":"openstreetmap.org","min_zoom":8.0,"bus_shield_text":"P1","shield_text":"C","ref":"CC"},"arcs":[386]},{"type":"MultiLineString","properties":{"kind":"major_road","network":"cu:national","sort_rank":380,"kind_detail":"primary","source":"openstreetmap.org","min_zoom":8.0,"landuse_kind":"urban_area","shield_text":"1","ref":"A1"},"arcs":[[387],[388]]},{"type":"LineString","properties":{"bus_network":null,"network":"cu:national","sort_rank":380,"kind_detail":"primary","kind":"major_road","source":"openstreetmap.org","min_zoom":8.0,"bus_shield_text":"A10","shield_text":"C","ref":"CC"},"arcs":[389]},{"type":"MultiLineString","properties":{"source":"openstreetmap.org","kind":"major_road","sort_rank":381,"kind_detail":"trunk","ref":"2-101","min_zoom":8.0},"arcs":[[390],[391],[392]]},{"type":"LineString","properties":{"source":"openstreetmap.org","bus_network":null,"bus_shield_text":"P16","sort_rank":380,"kind_detail":"primary","min_zoom":8.0,"kind":"major_road"},"arcs":[393]},{"type":"LineString","properties":{"source":"openstreetmap.org","kind":"major_road","landuse_kind":"urban_area","sort_rank":380,"kind_detail":"primary","is_bicycle_related":true,"min_zoom":8.0},"arcs":[394]},{"type":"MultiLineString","properties":{"source":"openstreetmap.org","bus_network":null,"bus_shield_text":"36","sort_rank":380,"kind_detail":"primary","min_zoom":8.0,"kind":"major_road"},"arcs":[[395],[396]]},{"type":"LineString","properties":{"bus_network":null,"sort_rank":380,"kind_detail":"primary","kind":"major_road","source":"openstreetmap.org","min_zoom":8.0,"bus_shield_text":"A1","landuse_kind":"urban_area"},"arcs":[397]},{"type":"MultiLineString","properties":{"bus_network":null,"sort_rank":380,"kind_detail":"primary","is_bicycle_related":true,"kind":"major_road","source":"openstreetmap.org","min_zoom":8.0,"bus_shield_text":"P5","landuse_kind":"urban_area"},"arcs":[[398],[399]]},{"type":"MultiLineString","properties":{"bus_network":null,"sort_rank":381,"kind_detail":"trunk","kind":"major_road","source":"openstreetmap.org","min_zoom":8.0,"bus_shield_text":"PC","ref":"2-400"},"arcs":[[400],[401],[402],[403],[404]]},{"type":"MultiLineString","properties":{"bus_network":null,"sort_rank":380,"kind_detail":"primary","kind":"major_road","source":"openstreetmap.org","min_zoom":8.0,"bus_shield_text":"91","landuse_kind":"urban_area"},"arcs":[[405],[406]]},{"type":"MultiLineString","properties":{"bus_network":null,"sort_rank":380,"kind_detail":"primary","kind":"major_road","source":"openstreetmap.org","min_zoom":8.0,"bus_shield_text":"P13","landuse_kind":"urban_area"},"arcs":[[407],[408],[409],[410]]},{"type":"MultiLineString","properties":{"source":"openstreetmap.org","bus_network":null,"bus_shield_text":"PC","sort_rank":381,"kind_detail":"trunk","min_zoom":8.0,"kind":"major_road"},"arcs":[[411],[412],[413],[414],[415],[416],[417],[418]]},{"type":"LineString","properties":{"source":"openstreetmap.org","kind":"major_road","sort_rank":381,"kind_detail":"trunk","ref":"100","min_zoom":8.0,"id":232853604},"arcs":[419]},{"type":"MultiLineString","properties":{"kind":"highway","network":"cu:national","sort_rank":383,"landuse_kind":"urban_area","source":"openstreetmap.org","min_zoom":8.0,"all_networks":["cu:national"],"kind_detail":"motorway","shield_text":"4","ref":"A4","all_shield_texts":["4"]},"arcs":[[420],[421]]},{"type":"MultiLineString","properties":{"bus_network":null,"sort_rank":381,"kind_detail":"trunk","kind":"major_road","source":"openstreetmap.org","min_zoom":8.0,"bus_shield_text":"A64","ref":"CN"},"arcs":[[422],[423]]},{"type":"MultiLineString","properties":{"bus_network":null,"sort_rank":381,"kind_detail":"trunk","kind":"major_road","source":"openstreetmap.org","min_zoom":8.0,"bus_shield_text":"A10","ref":"2-400"},"arcs":[[424],[425]]},{"type":"MultiLineString","properties":{"bus_network":null,"network":"cu:national","sort_rank":380,"kind_detail":"primary","kind":"major_road","source":"openstreetmap.org","min_zoom":8.0,"bus_shield_text":"1","shield_text":"C","ref":"CC"},"arcs":[[426],[427],[428]]},{"type":"LineString","properties":{"source":"openstreetmap.org","bus_network":null,"bus_shield_text":"Conexi\u00f3n","sort_rank":380,"kind_detail":"primary","min_zoom":8.0,"kind":"major_road"},"arcs":[429]},{"type":"MultiLineString","properties":{"bus_network":null,"sort_rank":381,"landuse_kind":"urban_area","kind":"major_road","source":"openstreetmap.org","min_zoom":8.0,"bus_shield_text":"PC","kind_detail":"trunk","ref":"CN"},"arcs":[[430],[431]]},{"type":"LineString","properties":{"kind":"major_road","sort_rank":380,"kind_detail":"primary","bus_network":null,"source":"openstreetmap.org","min_zoom":8.0,"bus_shield_text":"P8","landuse_kind":"urban_area","id":230017848},"arcs":[432]},{"type":"LineString","properties":{"bus_network":null,"sort_rank":381,"landuse_kind":"urban_area","kind":"major_road","source":"openstreetmap.org","min_zoom":8.0,"bus_shield_text":"PC","kind_detail":"trunk","ref":"2-400"},"arcs":[433]},{"type":"MultiLineString","properties":{"bus_network":null,"sort_rank":380,"kind_detail":"primary","is_bicycle_related":true,"kind":"major_road","source":"openstreetmap.org","min_zoom":8.0,"bus_shield_text":"T1","landuse_kind":"urban_area"},"arcs":[[434],[435],[436],[437]]},{"type":"MultiLineString","properties":{"bus_network":null,"sort_rank":380,"kind_detail":"primary","kind":"major_road","source":"openstreetmap.org","min_zoom":8.0,"bus_shield_text":"P7","landuse_kind":"urban_area"},"arcs":[[438],[439],[440],[441],[442],[443]]},{"type":"MultiLineString","properties":{"bus_network":null,"sort_rank":381,"landuse_kind":"urban_area","kind":"major_road","source":"openstreetmap.org","min_zoom":8.0,"bus_shield_text":"A83","kind_detail":"trunk","ref":"CN"},"arcs":[[444],[445],[446],[447],[448],[449],[450],[451]]},{"type":"LineString","properties":{"source":"openstreetmap.org","kind":"major_road","sort_rank":380,"kind_detail":"primary","ref":"2-750","min_zoom":8.0,"id":125658721},"arcs":[452]},{"type":"MultiLineString","properties":{"bus_network":null,"sort_rank":380,"kind_detail":"primary","kind":"major_road","source":"openstreetmap.org","min_zoom":8.0,"bus_shield_text":"160","landuse_kind":"urban_area"},"arcs":[[453],[454]]},{"type":"MultiLineString","properties":{"sort_rank":383,"kind_detail":"motorway","min_zoom":8.0,"kind":"highway","source":"openstreetmap.org"},"arcs":[[455],[456],[457],[458],[459],[460],[461],[462],[463],[464],[465],[466],[467],[468],[469]]},{"type":"MultiLineString","properties":{"bus_network":null,"sort_rank":380,"kind_detail":"primary","kind":"major_road","source":"openstreetmap.org","min_zoom":8.0,"bus_shield_text":"P3","landuse_kind":"urban_area"},"arcs":[[470],[471],[472],[473],[474],[475],[476],[477],[478],[479],[480],[481],[482],[483],[484]]},{"type":"LineString","properties":{"bus_network":null,"sort_rank":380,"kind_detail":"primary","kind":"major_road","source":"openstreetmap.org","min_zoom":8.0,"bus_shield_text":"34","landuse_kind":"urban_area"},"arcs":[485]},{"type":"LineString","properties":{"bus_network":null,"network":"cu:national","sort_rank":380,"kind_detail":"primary","kind":"major_road","source":"openstreetmap.org","min_zoom":8.0,"bus_shield_text":"36","shield_text":"C","ref":"CC"},"arcs":[486]},{"type":"LineString","properties":{"bus_network":null,"sort_rank":380,"kind_detail":"primary","old_name":"Calzada de Jes\u00fas del Monte","kind":"major_road","source":"openstreetmap.org","min_zoom":8.0,"bus_shield_text":"A16","landuse_kind":"urban_area"},"arcs":[487]},{"type":"MultiLineString","properties":{"bus_network":null,"sort_rank":381,"kind_detail":"trunk","kind":"major_road","source":"openstreetmap.org","min_zoom":8.0,"bus_shield_text":"A42","ref":"CN"},"arcs":[[488],[489]]},{"type":"MultiLineString","properties":{"source":"openstreetmap.org","bus_network":null,"bus_shield_text":"P14","sort_rank":380,"kind_detail":"primary","min_zoom":8.0,"kind":"major_road"},"arcs":[[490],[491],[492],[493]]},{"type":"MultiLineString","properties":{"source":"openstreetmap.org","kind":"major_road","sort_rank":381,"kind_detail":"trunk","ref":"2-400","min_zoom":8.0},"arcs":[[494],[495],[496],[497],[498],[499]]},{"type":"MultiLineString","properties":{"source":"openstreetmap.org","kind":"major_road","sort_rank":381,"kind_detail":"trunk","ref":"CN","min_zoom":8.0},"arcs":[[500],[501],[502],[503],[504],[505],[506],[507],[508],[509],[510],[511],[512],[513],[514],[515],[516],[517],[518],[519],[520],[521],[522],[523],[524]]},{"type":"MultiLineString","properties":{"bus_network":null,"sort_rank":381,"kind_detail":"trunk","kind":"major_road","source":"openstreetmap.org","min_zoom":8.0,"bus_shield_text":"A40","ref":"CN"},"arcs":[[525],[526]]},{"type":"LineString","properties":{"bus_network":null,"network":"cu:national","sort_rank":380,"kind_detail":"primary","kind":"major_road","source":"openstreetmap.org","min_zoom":8.0,"bus_shield_text":"4","shield_text":"C","ref":"CC"},"arcs":[527]},{"type":"MultiLineString","properties":{"bus_network":null,"sort_rank":380,"kind_detail":"primary","kind":"major_road","source":"openstreetmap.org","min_zoom":8.0,"bus_shield_text":"P9","landuse_kind":"urban_area"},"arcs":[[528],[529],[530],[531],[532],[533]]},{"type":"LineString","properties":{"bus_network":null,"sort_rank":381,"landuse_kind":"urban_area","kind":"major_road","source":"openstreetmap.org","min_zoom":8.0,"bus_shield_text":"PC","kind_detail":"trunk"},"arcs":[534]},{"type":"LineString","properties":{"kind":"major_road","sort_rank":380,"kind_detail":"primary","bus_network":null,"source":"openstreetmap.org","min_zoom":8.0,"bus_shield_text":"1","ref":"CC","id":449145737},"arcs":[535]},{"type":"LineString","properties":{"bus_network":null,"sort_rank":381,"kind_detail":"trunk","kind":"major_road","source":"openstreetmap.org","min_zoom":8.0,"bus_shield_text":"9","ref":"CN"},"arcs":[536]},{"type":"MultiLineString","properties":{"bus_network":null,"sort_rank":380,"kind_detail":"primary","kind":"major_road","source":"openstreetmap.org","min_zoom":8.0,"bus_shield_text":"A9","ref":"2-300"},"arcs":[[537],[538],[539],[540],[541],[542],[543]]},{"type":"LineString","properties":{"bus_network":null,"sort_rank":381,"landuse_kind":"urban_area","kind":"major_road","source":"openstreetmap.org","min_zoom":8.0,"bus_shield_text":"T3","kind_detail":"trunk","ref":"CN"},"arcs":[544]},{"type":"LineString","properties":{"source":"openstreetmap.org","bus_network":null,"bus_shield_text":"P4","sort_rank":380,"kind_detail":"primary","min_zoom":8.0,"kind":"major_road"},"arcs":[545]},{"type":"MultiLineString","properties":{"bus_network":null,"network":"cu:national","sort_rank":380,"kind_detail":"primary","kind":"major_road","source":"openstreetmap.org","min_zoom":8.0,"bus_shield_text":"A32","shield_text":"C","landuse_kind":"urban_area","ref":"CC"},"arcs":[[546],[547]]},{"type":"MultiLineString","properties":{"source":"openstreetmap.org","kind":"major_road","sort_rank":381,"kind_detail":"trunk","ref":"A-3","min_zoom":8.0},"arcs":[[548],[549],[550],[551],[552]]},{"type":"MultiLineString","properties":{"bus_network":null,"short_name":"MFP","sort_rank":380,"kind_detail":"primary","is_bicycle_related":true,"kind":"major_road","source":"openstreetmap.org","min_zoom":8.0,"bus_shield_text":"A16","landuse_kind":"urban_area"},"arcs":[[553],[554],[555]]},{"type":"MultiLineString","properties":{"source":"openstreetmap.org","kind":"major_road","sort_rank":380,"kind_detail":"primary","ref":"2-550","min_zoom":8.0},"arcs":[[556],[557],[558],[559],[560],[561]]},{"type":"LineString","properties":{"bus_network":null,"sort_rank":380,"kind_detail":"primary","kind":"major_road","source":"openstreetmap.org","min_zoom":8.0,"bus_shield_text":"P14","landuse_kind":"urban_area"},"arcs":[562]},{"type":"LineString","properties":{"kind":"major_road","sort_rank":381,"kind_detail":"trunk","bus_network":null,"source":"openstreetmap.org","min_zoom":8.0,"bus_shield_text":"A66","landuse_kind":"urban_area","ref":"CN","id":414877452},"arcs":[563]},{"type":"LineString","properties":{"kind":"major_road","sort_rank":380,"kind_detail":"primary","bus_network":null,"source":"openstreetmap.org","min_zoom":8.0,"bus_shield_text":"A30","landuse_kind":"urban_area","id":372478518},"arcs":[564]},{"type":"MultiLineString","properties":{"kind":"major_road","network":"cu:national","sort_rank":380,"kind_detail":"primary","source":"openstreetmap.org","min_zoom":8.0,"shield_text":"N","ref":"CN"},"arcs":[[565],[566],[567],[568],[569],[570],[571],[572],[573]]},{"type":"LineString","properties":{"kind":"major_road","sort_rank":380,"kind_detail":"primary","is_bicycle_related":true,"bus_network":null,"source":"openstreetmap.org","min_zoom":8.0,"bus_shield_text":"P2","landuse_kind":"urban_area","id":430230390},"arcs":[574]},{"type":"LineString","properties":{"kind":"major_road","short_name":"MFP","sort_rank":380,"kind_detail":"primary","is_bicycle_related":true,"bus_network":null,"source":"openstreetmap.org","min_zoom":8.0,"bus_shield_text":"A40","landuse_kind":"urban_area","id":440132756},"arcs":[575]},{"type":"MultiLineString","properties":{"bus_network":null,"sort_rank":380,"kind_detail":"primary","kind":"major_road","source":"openstreetmap.org","min_zoom":8.0,"bus_shield_text":"P15","landuse_kind":"urban_area"},"arcs":[[576],[577],[578],[579],[580],[581]]},{"type":"MultiLineString","properties":{"bus_network":null,"short_name":"MFP","sort_rank":380,"kind_detail":"primary","is_bicycle_related":true,"kind":"major_road","source":"openstreetmap.org","min_zoom":8.0,"bus_shield_text":"T1","landuse_kind":"urban_area"},"arcs":[[582],[583],[584]]},{"type":"MultiLineString","properties":{"bus_network":null,"sort_rank":380,"kind_detail":"primary","kind":"major_road","source":"openstreetmap.org","min_zoom":8.0,"bus_shield_text":"201","landuse_kind":"urban_area"},"arcs":[[585],[586]]},{"type":"LineString","properties":{"kind":"major_road","sort_rank":380,"landuse_kind":"aerodrome","source":"openstreetmap.org","min_zoom":8.0,"kind_detail":"primary","ref":"2-200","id":51063801},"arcs":[587]},{"type":"MultiLineString","properties":{"source":"openstreetmap.org","kind":"highway","sort_rank":383,"kind_detail":"motorway","ref":"A1","min_zoom":8.0},"arcs":[[588],[589]]},{"type":"MultiLineString","properties":{"source":"openstreetmap.org","bus_network":null,"bus_shield_text":"P12","sort_rank":380,"kind_detail":"primary","min_zoom":8.0,"kind":"major_road"},"arcs":[[590],[591]]},{"type":"LineString","properties":{"kind":"major_road","sort_rank":381,"kind_detail":"trunk","bus_network":null,"source":"openstreetmap.org","min_zoom":8.0,"bus_shield_text":"88","ref":"2-400","id":383237620},"arcs":[592]},{"type":"MultiLineString","properties":{"bus_network":null,"network":"cu:national","sort_rank":380,"kind_detail":"primary","kind":"major_road","source":"openstreetmap.org","min_zoom":8.0,"bus_shield_text":"local","shield_text":"C","ref":"CC"},"arcs":[[593],[594]]},{"type":"LineString","properties":{"bus_network":null,"sort_rank":381,"landuse_kind":"urban_area","kind":"major_road","source":"openstreetmap.org","min_zoom":8.0,"bus_shield_text":"A42","kind_detail":"trunk","ref":"CN"},"arcs":[595]},{"type":"LineString","properties":{"kind":"major_road","sort_rank":380,"kind_detail":"primary","bus_network":null,"source":"openstreetmap.org","min_zoom":8.0,"bus_shield_text":"A58","landuse_kind":"urban_area","id":360764821},"arcs":[596]},{"type":"MultiLineString","properties":{"source":"openstreetmap.org","kind":"highway","sort_rank":383,"kind_detail":"motorway","is_bicycle_related":true,"min_zoom":8.0},"arcs":[[597],[598]]},{"type":"LineString","properties":{"bus_network":null,"short_name":"MFP","sort_rank":380,"kind_detail":"primary","kind":"major_road","source":"openstreetmap.org","min_zoom":8.0,"bus_shield_text":"P5","landuse_kind":"urban_area"},"arcs":[599]},{"type":"MultiLineString","properties":{"kind":"major_road","network":"cu:national","sort_rank":380,"kind_detail":"primary","source":"openstreetmap.org","min_zoom":8.0,"shield_text":"C","ref":"CC"},"arcs":[[600],[601],[602],[603],[604],[605],[606],[607],[608],[609],[610],[611],[612],[613],[614]]},{"type":"MultiLineString","properties":{"bus_network":null,"network":"cu:national","sort_rank":380,"kind_detail":"primary","kind":"major_road","source":"openstreetmap.org","min_zoom":8.0,"bus_shield_text":"P7","shield_text":"C","ref":"CC"},"arcs":[[615],[616]]},{"type":"LineString","properties":{"kind":"major_road","sort_rank":380,"kind_detail":"primary","bus_network":null,"source":"openstreetmap.org","min_zoom":8.0,"bus_shield_text":"420","ref":"CN","id":331268920},"arcs":[617]}]},"earth":{"type":"GeometryCollection","geometries":[{"type":"MultiPolygon","properties":{"sort_rank":10,"source":"naturalearthdata.com","min_zoom":0.0,"kind":"earth","area":22035956315},"arcs":[[[618]],[[619]],[[620]],[[621]],[[622]]]}]},"landuse":{"type":"GeometryCollection","geometries":[{"type":"Polygon","properties":{"kind":"national_park","protect_class":"2","area":5238170112,"sort_rank":18,"source":"openstreetmap.org","min_zoom":3.0,"tier":1,"id":361290872},"arcs":[[623]]},{"type":"Polygon","properties":{"source":"openstreetmap.org","kind":"nature_reserve","area":29814300,"tier":2,"id":371541264,"min_zoom":8.0,"sort_rank":23},"arcs":[[624]]},{"type":"Polygon","properties":{"source":"naturalearthdata.com","kind":"urban_area","name":"","area":198260144,"sort_rank":11,"min_zoom":4.0,"id":4044},"arcs":[[625]]},{"type":"Polygon","properties":{"source":"openstreetmap.org","kind":"aerodrome","area":10156500,"tier":3,"id":315950596,"min_zoom":8.0,"sort_rank":60},"arcs":[[626]]},{"type":"Polygon","properties":{"kind":"nature_reserve","protect_class":"3","area":13510000,"sort_rank":23,"source":"openstreetmap.org","min_zoom":8.0,"tier":2,"id":371541266},"arcs":[[627]]},{"type":"MultiPolygon","properties":{"source":"openstreetmap.org","kind":"nature_reserve","tier":2,"area":665308784,"sort_rank":23,"min_zoom":6.0},"arcs":[[[628]]]}]}},"type":"Topology","transform":{"translate":[-82.96875,21.9430455334],"scale":[0.0003433228,0.0003169679]},"arcs":[[[0,1093],[124,184]],[[124,1277],[-124,126]],[[2290,940],[1806,-924]],[[3759,3867],[-19,-180],[45,-153],[-31,5],[-17,-44],[-58,47],[-38,-70],[49,-18],[9,-42],[-28,-24],[16,-25],[-49,-3],[-26,-43],[-43,-7],[-22,-56],[102,0],[2,-42],[111,-124],[-35,-52],[26,-61],[-45,-145],[59,-106],[20,20],[6,-50],[57,-11],[-5,-32],[20,-5],[-7,-24],[-62,-4],[-6,-128],[253,-125],[-45,-67],[-11,-99],[-45,-89],[11,-29],[-102,-101],[-232,-64]],[[3619,1916],[-1314,-363],[-15,-613]],[[3750,4096],[9,-229]],[[2290,940],[-711,322],[-1455,15]],[[1788,3744],[-2,-50],[52,-17],[422,35],[312,-37],[154,-128],[50,-79],[193,-75],[351,-82],[131,-77],[101,32],[165,-10],[107,77],[272,103]],[[4096,2722],[-263,2],[-758,-70],[-349,159],[-148,-58],[-403,-33],[-312,54],[-170,237],[4,68],[-65,49],[-17,74],[-74,73],[27,44],[79,20],[-10,129],[22,104],[163,47],[-49,96],[15,27]],[[1792,3736],[-18,-22],[36,-31],[160,0],[35,22],[6,65],[187,41],[120,-40],[143,44],[-3,49]],[[1694,3085],[-82,91],[63,64],[11,95],[57,51],[12,88],[-40,112],[108,36],[-50,96],[19,18]],[[1788,3744],[-15,-27],[49,-96],[-163,-47],[-22,-104],[10,-129],[-104,-45],[2,-30],[71,-68],[-16,-233],[-75,-196],[-166,-69],[-530,-3],[-246,31],[-583,-232]],[[1788,3744],[-2,-50],[52,-17],[422,35],[312,-37],[154,-128],[50,-79],[193,-75],[351,-82],[131,-77],[101,32],[165,-10],[107,77],[272,103]],[[1357,2974],[131,31],[119,156],[8,43],[-74,79],[29,39],[77,19],[-10,129],[41,230]],[[1807,3315],[-63,83],[11,76],[-40,111],[107,36],[-49,97],[19,18]],[[1788,3744],[-2,-50],[52,-17],[422,35],[312,-37],[154,-128],[50,-79],[193,-75],[351,-82],[131,-77],[101,32],[165,-10],[107,77],[272,103]],[[1788,3744],[-2,-50],[52,-17],[422,35],[312,-37],[154,-128],[50,-79],[193,-75],[351,-82],[131,-77],[101,32],[165,-10],[107,77],[272,103]],[[1788,3744],[-2,-50],[52,-17],[422,35],[312,-37],[154,-128],[50,-79],[193,-75],[351,-82],[131,-77],[101,32],[165,-10],[107,77],[272,103]],[[1788,3744],[-2,-50],[52,-17],[422,35],[312,-37],[154,-128],[50,-79],[193,-75],[351,-82],[131,-77],[101,32],[165,-10],[107,77],[272,103]],[[602,2730],[227,-33],[530,3],[168,71],[73,194],[16,233],[-73,96],[104,47],[-10,129],[41,230]],[[1344,2701],[1,0],[0,-1],[-1,0],[0,1]],[[602,2730],[73,-2],[64,70],[75,261],[129,64],[226,65],[150,164],[334,202],[25,146]],[[1918,2766],[-62,14],[-49,55],[-116,181],[6,65],[-65,49],[-17,74],[-74,70],[27,47],[80,21],[-11,128],[41,230]],[[1961,2335],[-44,430]],[[1914,2766],[1,0],[-1,0]],[[3581,2695],[-508,-41],[-6,2],[-323,141],[-1,1],[-14,34],[-149,82],[-91,181],[-183,190],[-113,54],[-242,197],[-60,3],[-116,172],[17,25]],[[1812,3788],[66,6],[85,-40],[234,57],[100,-42],[221,50],[314,-44],[47,-33],[113,19],[0,-31],[113,-29],[77,15],[96,-24],[36,22],[131,-22],[35,26],[131,-33],[109,-130],[54,-27],[75,-8],[89,38],[90,-13],[33,-46]],[[574,3355],[-59,-39],[33,-145],[96,-93],[91,26],[82,-41],[352,125],[150,164],[334,202],[25,146]],[[2993,3761],[-69,-183]],[[4096,4096],[0,-304],[-34,28],[-20,12],[-39,5],[-35,-1],[-32,2],[-34,18],[-39,-20],[-45,-7],[-76,1],[-455,2],[-64,-21],[-87,22],[-187,18],[-86,24],[-110,78],[-28,14],[-32,-5],[-31,-13],[-30,-7],[-67,-7],[-35,-8],[-82,-21],[-64,-7],[-201,48],[-93,-38],[-203,-34],[-135,-58],[-115,-17],[-46,-27],[-86,-68],[-46,-28],[-27,-11],[-36,-4],[-15,-10],[-29,-45],[-16,-10],[-64,-19],[-127,-73],[-59,4],[-70,-29],[-270,-35],[-264,12],[-64,-23],[-70,-12],[-105,17],[-94,-2],[-41,-68],[-31,-78],[-6,-3],[-58,-39],[-13,1],[0,846],[4096,0]],[[4096,332],[0,-332],[-3074,0],[-80,36],[-66,-17],[10,-19],[-808,0],[-78,10],[0,1865],[27,15],[45,14],[66,5],[35,23],[175,150],[99,33],[43,29],[17,57],[1,62],[10,62],[30,51],[60,31],[63,1],[307,-82],[104,24],[135,-29],[29,7],[56,29],[34,7],[154,-38],[191,26],[93,-24],[60,-7],[64,7],[123,15],[221,0],[198,-56],[94,-41],[309,53],[234,21],[101,4],[260,-93],[102,-38],[101,-77],[54,-45],[80,-69],[44,-1],[42,-14],[2,-34],[-26,-89],[8,-49],[-12,-30],[4,-66],[-28,-12],[-27,-26],[-38,-39],[-42,-13],[-32,-7],[-58,0],[-30,-16],[-32,6],[-116,-49],[-150,-24],[-66,6],[-78,18],[-53,-9],[-89,-8],[-78,13],[-109,-29],[-335,12],[-37,-12],[-44,-18],[-35,-31],[-16,-49],[28,-54],[49,-24],[53,-7],[40,1],[3,-13],[33,-58],[15,-18],[24,-9],[58,-6],[26,-15],[44,-37],[42,-24],[413,-167],[51,-53],[10,-46],[27,-44],[73,-82],[41,-16],[136,-17],[33,-1],[-8,23],[-5,8],[-9,13],[55,-8],[19,10],[7,39],[19,0],[40,-19],[68,-7],[64,3],[28,13],[16,35],[35,-1],[34,-15],[15,-9],[121,-41],[12,-10],[8,-28],[9,-6],[17,4],[8,7],[0,-353],[-26,14],[-32,7],[-19,-12],[0,-26],[8,-24],[13,-20],[17,-5],[30,3],[9,-5]],[[1747,1747],[-1,23],[-18,-8],[0,-26],[-8,-24],[-9,-12],[0,-15],[26,-14],[6,0],[-8,22],[5,23],[7,31]],[[1308,2188],[-14,14],[-11,-3],[1,-17],[8,-26],[-7,-199],[14,-13],[12,21],[15,21],[17,55],[-9,73],[-11,38],[-4,13],[-11,23]],[[844,2029],[-22,33],[-13,-17],[-22,-19],[26,-38],[31,25],[0,16]],[[78,0],[-78,10]],[[4096,3792],[-34,28],[-20,12],[-39,5],[-35,-1],[-32,2],[-34,18],[-39,-20],[-45,-7],[-76,1],[-455,2],[-64,-21],[-87,22],[-187,18],[-86,24],[-110,78],[-28,14],[-32,-5],[-31,-13],[-30,-7],[-67,-7],[-35,-8],[-82,-21],[-64,-7],[-201,48],[-93,-38],[-203,-34],[-135,-58],[-115,-17],[-46,-27],[-86,-68],[-46,-28],[-27,-11],[-36,-4],[-15,-10],[-29,-45],[-16,-10],[-64,-19],[-127,-73],[-59,4],[-70,-29],[-270,-35],[-264,12],[-64,-23],[-70,-12],[-105,17],[-94,-2],[-41,-68],[-31,-78],[-6,-3],[-58,-39],[-13,1]],[[0,1875],[27,15],[45,14],[66,5],[35,23],[175,150],[99,33],[43,29],[17,57],[1,62],[10,62],[30,51],[60,31],[63,1],[307,-82],[104,24],[135,-29],[29,7],[56,29],[34,7],[154,-38],[191,26],[93,-24],[60,-7],[64,7],[123,15],[221,0],[198,-56],[94,-41],[309,53],[234,21],[101,4],[260,-93],[102,-38],[101,-77],[54,-45],[80,-69],[44,-1],[42,-14],[2,-34],[-26,-89],[8,-49],[-12,-30],[4,-66],[-28,-12],[-27,-26],[-38,-39],[-42,-13],[-32,-7],[-58,0],[-30,-16],[-32,6],[-116,-49],[-150,-24],[-66,6],[-78,18],[-53,-9],[-89,-8],[-78,13],[-109,-29],[-335,12],[-37,-12],[-44,-18],[-35,-31],[-16,-49],[28,-54],[49,-24],[53,-7],[40,1],[3,-13],[33,-58],[15,-18],[24,-9],[58,-6],[26,-15],[44,-37],[42,-24],[413,-167],[51,-53],[10,-46],[27,-44],[73,-82],[41,-16],[136,-17],[33,-1],[-8,23],[-5,8],[-9,13],[55,-8],[19,10],[7,39],[19,0],[40,-19],[68,-7],[64,3],[28,13],[16,35],[35,-1],[34,-15],[15,-9],[121,-41],[12,-10],[8,-28],[9,-6],[17,4],[8,7]],[[942,36],[-66,-17],[10,-19]],[[1022,0],[-80,36]],[[1323,2152],[-4,13],[-11,23],[-14,14],[-11,-3],[1,-17],[8,-26],[-7,-199],[14,-13],[12,21],[15,21],[17,55],[-9,73],[-11,38]],[[4096,400],[-26,14],[-32,7],[-19,-12],[0,-26],[8,-24],[13,-20],[17,-5],[30,3],[9,-5]],[[609,3205],[1,0]],[[4075,3491],[-10,-10]],[[4075,3491],[2,7],[-2,-2],[0,-5]],[[1776,3766],[1,-9]],[[1599,3530],[-3,14]],[[1772,3722],[2,3]],[[1774,3726],[2,-20]],[[1776,3668],[23,-1]],[[1974,2316],[44,-664],[-65,-239],[3,-93],[1256,-1320]],[[1650,3520],[57,226],[-15,19],[39,17]],[[2069,3451],[-11,8]],[[1301,3539],[17,21]],[[1499,3629],[0,-1]],[[1509,3644]],[[1685,3783],[-72,-57]],[[1695,3787],[-3,-1]],[[1732,3724],[-13,62]],[[1758,3703],[-4,23]],[[1832,3650],[-33,17]],[[2181,3364],[11,-9]],[[1442,3446],[-15,28],[15,-28]],[[1756,3679],[-2,13]],[[1959,2416],[8,-62]],[[1967,2354],[9,-37]],[[2067,2783],[-12,-44]],[[2108,3421],[73,-57]],[[1953,3791],[41,2]],[[1991,3793],[-38,-2]],[[1925,3650],[68,-39]],[[1994,3611],[-61,37],[-7,2]],[[1994,3611],[10,-10]],[[2806,2930],[-532,507],[-220,112],[-6,4]],[[2048,3553],[-1,1],[-15,17]],[[2032,3571],[-26,29],[-12,11]],[[2005,3600],[13,-14],[14,-15]],[[2032,3571],[16,-18]],[[2048,3553],[4,-4],[1,-1],[110,-58],[110,-54],[285,-289],[131,-111],[2,-2],[115,-104]],[[2809,2928],[240,-75],[241,-199],[806,-355]],[[4096,2300],[-544,254],[-182,74],[-80,26],[-241,199],[-95,40],[-144,35]],[[1673,3659],[-23,-139]],[[1675,3668],[-3,-8]],[[1694,3731],[-18,-61]],[[1709,3747],[-6,-2]],[[1789,3790],[2,0]],[[677,3170],[-68,22]],[[811,3105],[-106,48]],[[2313,2699],[40,-16]],[[2383,2668],[-30,15]],[[586,2717],[0,-1]],[[2380,3212],[3,-2]],[[2568,3140],[22,6]],[[1784,3562],[37,-6],[50,-78]],[[1926,3650],[-41,9]],[[1885,3659],[40,-9]],[[1383,3390],[-10,-4]],[[1798,3740],[-1,0]],[[1805,3747],[-1,-2]],[[1702,3230],[-3,9]],[[1860,3823],[7,-2]],[[1957,3806],[-13,8]],[[1955,3807],[32,-16]],[[2010,3807],[-19,-14]],[[1600,3501],[-1,29]],[[1694,3322],[7,-59]],[[1756,3463],[15,91]],[[1703,3750]],[[1489,3574],[-3,-3]],[[1492,3574],[0,1]],[[1550,3604],[-4,0],[-16,-12]],[[1534,3593],[5,3],[7,8]],[[638,2782],[14,17]],[[2323,3274],[0,-1]],[[2482,3116],[43,11]],[[2590,3146],[6,2]],[[1704,3675],[68,74]],[[1772,3749],[5,3]],[[1777,3753],[-5,-4]],[[1782,3789],[6,0]],[[1346,2875],[1,-194]],[[1378,2976],[-31,-87]],[[1389,2989],[-11,-13]],[[1449,3159],[-25,-122],[-34,-46]],[[1454,3195],[-5,-36]],[[1454,3218],[0,-22]],[[1642,3718],[5,-6]],[[1723,3637],[37,-8]],[[1793,3739],[1,0]],[[1702,3724],[2,9]],[[1734,3719],[-2,5]],[[1826,3661],[3,2]],[[1829,3663],[-2,0]],[[1829,3663],[10,10]],[[1839,3673],[-2,-1]],[[1839,3673],[31,11]],[[1875,3705],[-3,-4],[-1,-16]],[[1871,3685],[4,20]],[[1875,3705],[14,20]],[[1340,3584],[49,29]],[[1593,3590],[-13,20],[12,19],[2,0],[-1,-39]],[[1593,3590],[9,-14],[9,-5],[15,-5],[27,-5]],[[1653,3562],[-60,28]],[[1656,3560],[31,-34]],[[1688,3526],[-17,27],[-5,5],[-10,3]],[[1311,3555],[7,5]],[[1599,3489],[-18,-87],[37,-70]],[[1602,3492],[-2,0]],[[1619,3333],[-12,32],[-26,37],[19,86]],[[1601,3488],[1,2]],[[2059,3266],[50,-101]],[[2071,3691],[-1,0]],[[2100,3635],[-1,1]],[[2102,3623],[0,1]],[[2110,3165],[0,1]],[[2349,3863]],[[1703,3659],[11,-1]],[[1714,3658],[8,3]],[[1740,3679],[-18,-18]],[[1740,3679],[14,14],[21,1],[-21,-1],[-14,-14]],[[1823,3675],[1,-3]],[[1827,3664],[-1,1]],[[1952,3790],[0,2]],[[1593,3632],[1,-3]],[[1593,3590],[1,41]],[[1779,3458],[-11,5]],[[1449,3159]],[[1453,3224],[1,-6]],[[1454,3196],[0,-1]],[[4038,3356],[-43,22],[7,21]],[[1777,3569],[0,47]],[[1497,3628],[-88,-15]],[[1410,3612],[32,-2],[36,7]],[[1499,3628],[1,0]],[[1510,3643],[-1,2]],[[1670,3792],[-23,-13]],[[1657,3767],[22,-26]],[[1680,3740],[14,-14]],[[1704,3733],[2,14]],[[546,2665]],[[1788,3810],[-5,-20]],[[1783,3790],[6,20]],[[1389,3613],[15,0]],[[1404,3613],[6,-1]],[[1409,3613],[-5,0]],[[1827,3662],[0,1]],[[1486,3570],[4,3]],[[1491,3575],[-2,-1]],[[1500,3629],[-1,0]],[[1499,3628],[1,1]],[[1509,3643],[-9,-14]],[[1509,3645],[0,-1]],[[1509,3643]],[[1509,3643]],[[1630,3749],[-120,-104]],[[1511,3645],[119,104]],[[1521,3588],[13,5]],[[1530,3592],[-8,-4]],[[1561,3602],[12,2]],[[1574,3605],[-12,-2]],[[1620,3698]],[[1630,3749],[15,28]],[[1642,3718],[-2,3]],[[1645,3777],[4,4]],[[1647,3779],[-2,-2]],[[1651,3528],[1,0]],[[1681,3740],[-23,28]],[[1667,3792],[0,-1]],[[1668,3791],[2,1]],[[1670,3792],[3,2]],[[1676,3670],[-4,-6]],[[1695,3731],[-2,-3],[0,-1]],[[1693,3727],[-1,-1],[-1,-3],[-1,-7],[-2,-19],[-13,-29]],[[1675,3665],[8,18],[8,24]],[[1679,3741],[1,-1]],[[1691,3707]],[[1691,3707],[11,16]],[[1702,3723],[0,1],[-9,3]],[[1693,3727],[-1,0],[-1,1]],[[1694,3726],[8,-3]],[[1696,3734],[-1,-1]],[[1705,3791],[-6,-2]],[[1699,3789],[-4,-2]],[[1697,3713],[1,1]],[[1698,3758],[-1,-1]],[[1699,3755],[0,1]],[[1703,3792],[-4,-3]],[[1699,3789]],[[1701,3794],[2,-2]],[[1703,3750],[1,-1]],[[1705,3793],[-2,-1]],[[1703,3792],[5,-1]],[[1705,3791],[3,0]],[[1708,3791],[13,-4]],[[1708,3640],[4,-40]],[[1709,3640],[1,-16],[11,37]],[[1719,3786],[0,1]],[[1734,3719],[9,-14]],[[1753,3694],[1,-2]],[[1759,3726],[-1,0]],[[1759,3726],[-1,1]],[[1759,3726],[13,-4]],[[1774,3711],[2,-8]],[[1774,3725],[0,1]],[[1776,3770]],[[1776,3770],[2,1]],[[1778,3794],[-2,-13],[0,-11]],[[1776,3770],[0,-4]],[[1777,3755],[0,-2]],[[1777,3616],[0,-1]],[[1777,3794],[1,0]],[[1777,3757],[1,-1]],[[1778,3792]],[[1778,3794],[1,-1]],[[1779,3793],[0,1]],[[1792,3790],[-13,4]],[[1793,3737]],[[1824,3674],[8,-2]],[[1832,3672],[6,0]],[[1837,3672],[-5,0]],[[1871,3708],[-19,-3]],[[1852,3678],[1,-9]],[[1855,3668],[-1,1]],[[1854,3668],[1,0]],[[1855,3668],[20,-9]],[[1873,3661],[-15,19]],[[1871,3685]],[[1946,3789],[1,-1]],[[1640,3721],[18,15]],[[1658,3736],[-16,18],[-16,-13],[14,-20]],[[1658,3736],[15,12],[-16,19],[-13,-12],[14,-19]],[[1853,3668],[1,0],[-1,1],[0,-1]],[[1689,3784],[16,7]],[[1193,3488],[51,19]],[[1794,3740],[-1,-1]],[[1795,3740],[-1,0]],[[1794,3739],[1,0]],[[1687,3526],[38,-50]],[[1732,3477],[-44,49]],[[2803,3886],[-8,-2]],[[3445,3742],[165,12]],[[0,2573],[25,20]],[[25,2593],[4,3],[10,9],[161,189],[110,75],[20,21],[9,3],[74,35],[218,78],[36,45],[53,110],[40,24],[44,36]],[[804,3221],[54,43],[1,1]],[[859,3265],[101,34],[2,0],[125,6],[187,106],[52,33],[151,12]],[[1477,3456],[-151,-11],[-239,-140],[-126,-6],[-99,-32],[-3,-2]],[[859,3265],[-55,-44]],[[804,3221],[-44,-36],[-41,-24],[-88,-154],[-218,-78],[-83,-39],[-131,-96],[-161,-189],[-10,-8],[-3,-4]],[[25,2593],[-4,-3],[-21,-19]],[[1591,3532],[-113,-76]],[[1478,3456],[119,75]],[[1766,3642],[-10,37]],[[1654,3530],[-3,-4]],[[1651,3525],[4,5]],[[1712,3600],[-40,-50]],[[1673,3550],[39,50],[-2,24]],[[651,2800],[-65,-84]],[[1698,3239],[1,0]],[[1779,3237]],[[1884,3222],[1,0]],[[1937,3263],[1,0]],[[2050,3267]],[[1692,3786],[-7,-3]],[[1779,3753],[-3,17]],[[1672,3660],[3,-1]],[[1679,3658],[24,1]],[[1647,3779],[10,-12]],[[1674,3786],[-4,6]],[[1692,3765],[-17,21]],[[1509,3644],[1,-1]],[[1649,3781],[2,1]],[[1664,3790],[6,0]],[[1670,3793],[53,-6]],[[1678,3780],[16,-49]],[[1691,3728],[-12,13]],[[1737,3781],[-7,3]],[[1731,3782],[6,-1]],[[1737,3781],[42,13]],[[1776,3770],[3,24]],[[1779,3794],[10,-3]],[[1788,3789],[1,-1]],[[1808,3775],[2,-14]],[[1483,3569],[-12,-10]],[[1478,3617],[19,10]],[[1483,3569],[3,1]],[[1486,3571],[-3,-2]],[[1490,3574],[13,4],[18,10]],[[1522,3588],[-31,-13]],[[1500,3628],[-1,1]],[[1618,3680],[3,19]],[[1523,3547],[55,27]],[[1573,3604],[7,6]],[[1592,3629],[2,2],[10,53],[4,29],[5,13],[76,58]],[[1613,3726],[-2,-2],[-3,-13],[-15,-79]],[[1782,3789],[-4,3]],[[1779,3794]],[[1832,3650],[31,-39]],[[1974,2316],[-268,-434],[-85,-311],[-711,-1123],[-339,-448]],[[2033,3825],[1,2]],[[111,3244],[-1,-1]],[[154,3267],[-33,-10]],[[211,3262],[-1,0]],[[223,3257],[-1,0]],[[344,3249],[-1,0]],[[534,3231],[-2,1]],[[595,3192]],[[651,2800],[1,-1]],[[809,3102],[1,0]],[[837,3100],[-27,3]],[[1253,3283],[-44,-17]],[[1390,2991],[-1,-2]],[[1442,3438],[2,-1]],[[1448,3438],[-1,1]],[[1657,3420],[2,-6]],[[1701,3263],[-3,-24]],[[1871,3478],[16,-23]],[[2055,2739],[-98,-317]],[[1957,2422],[2,-6]],[[1967,2354]],[[1974,2316],[2,1]],[[2142,2979],[-75,-196]],[[2178,3017],[135,-318]],[[2353,2683]],[[2478,3118],[4,-2]],[[3953,3423],[2,1]],[[3997,3403],[5,1]],[[3997,3403],[10,2]],[[4002,3399],[-5,4]],[[4007,3405],[4,3]],[[4010,3408],[-3,-3]],[[4096,3317],[-58,39]],[[4039,3440],[0,31]],[[4062,3477],[-1,-27]],[[4062,3477],[1,2],[2,2],[-3,-1],[0,-3]],[[1889,3820],[4,2]],[[1894,3822],[49,-8]],[[2029,3573],[-65,-61],[-111,-13],[-73,-40]],[[1780,3459],[73,40],[111,12],[17,9],[48,52],[20,48],[1,60],[-3,30]],[[2047,3710],[-17,-135]],[[2044,3715],[3,-5]],[[2047,3710],[0,-2]],[[1546,3604],[15,-2]],[[1562,3603],[-12,1]],[[1889,3725],[57,63]],[[1946,3788],[7,3]],[[1953,3791],[-7,-3]],[[1476,3493],[47,54]],[[1919,3565],[-56,46]],[[1885,3659],[-12,2]],[[1875,3659],[10,0]],[[2058,3459],[-79,61]],[[1442,3446],[7,-14]],[[1449,3432],[-7,14]],[[1449,3432],[4,-208]],[[1699,3239],[-7,95],[-49,125],[7,61]],[[1658,3768],[-8,10]],[[1444,3438],[-2,0]],[[1446,3439],[-2,-1]],[[1824,3664],[5,-5]],[[1797,3740],[-2,0]],[[1799,3741],[-1,-1]],[[1732,3477],[-7,-1]],[[2003,3779],[10,-9]],[[2013,3770],[28,-47]],[[2041,3723],[2,-4]],[[2043,3719],[-2,4]],[[1579,3610],[13,-19]],[[1580,3611]],[[1771,3554],[6,15]],[[1778,3710],[-3,-16]],[[1801,3658],[-24,-42]],[[1777,3756],[0,-1]],[[1599,3531],[6,-47]],[[1605,3484],[-5,17]],[[1716,3472],[-111,12]],[[1716,3472],[10,4]],[[1725,3476],[-9,-4]],[[2013,3770]],[[2043,3719],[1,-3]],[[2045,3716],[-2,3]],[[1781,3457],[-2,1]],[[1637,3565],[-46,-33]],[[1597,3531],[40,33]],[[2461,3866],[19,0]],[[2479,3866],[-16,0]],[[1726,3476],[48,-16]],[[1766,3464],[-34,13]],[[601,2735],[2,2]],[[604,2738],[34,44]],[[653,2801],[-2,-1]],[[1682,3344],[12,-22]],[[1944,3814],[-26,14]],[[1983,3795],[-26,11]],[[1783,3562],[1,0]],[[2003,3779],[-20,16]],[[1649,3777],[0,4]],[[1670,3790],[8,-10]],[[1806,3747],[2,29]],[[1810,3761],[-1,-6]],[[1754,3693],[4,10]],[[1758,3722],[0,-18],[-4,-11],[0,-1]],[[1756,3679],[20,-11]],[[1758,3726],[0,1]],[[1821,3663],[4,-1]],[[1827,3660],[3,-2]],[[1783,3790],[0,-1]],[[1786,3790],[-3,0]],[[1893,3823],[-37,2],[-46,-5]],[[1810,3820],[-8,-1],[-7,-2],[-7,-7]],[[1789,3810],[6,7],[7,2],[8,1]],[[1810,3820],[38,6]],[[1867,3821],[22,-1]],[[1918,3828],[-24,-5]],[[2178,3017],[-36,-38]],[[1578,3610],[1,0]],[[1592,3591],[1,-1]],[[524,3317],[8,-66],[14,-16],[158,-82]],[[704,3154],[-9,10],[-17,8],[-71,41],[-61,23],[-14,15],[0,51],[0,1],[-7,16]],[[591,3354],[8,5],[6,4]],[[605,3363],[1,1]],[[593,3351],[15,10]],[[599,3369],[6,-6]],[[605,3363],[2,-1]],[[1478,3456],[-1,0]],[[1477,3456],[1,0]],[[1993,3611],[1,0]],[[1994,3611]],[[2004,3601],[1,-1]],[[2030,3575],[-1,-2]],[[2044,3716],[0,-1]],[[2047,3710],[-2,6]],[[1672,3664],[-4,5],[-9,14],[-2,4]],[[1657,3687],[-1,0],[1,2]],[[1657,3689],[0,1],[0,3]],[[1657,3693],[1,6]],[[1658,3699],[-18,22]],[[1647,3712],[8,-10],[3,-3]],[[1658,3699],[0,-1],[-1,-5]],[[1657,3693],[0,-3],[0,-1]],[[1657,3689],[0,-2]],[[1657,3687],[0,-1],[16,-27]],[[1672,3648],[16,-3]],[[1688,3645],[-16,4]],[[1676,3664],[-3,0]],[[1688,3645],[35,-8]],[[1804,3668],[-3,-10]],[[1700,3742],[7,4]],[[1442,3438],[-59,-48]],[[1743,3705],[10,-11]],[[2009,3803],[24,22]],[[2034,3827],[91,50],[224,-14]],[[1429,3517],[-2,-43]],[[1444,3438],[4,0]],[[1447,3439],[-1,0]],[[1449,3440],[27,53]],[[1779,3457],[20,-9]],[[1799,3448],[-18,9]],[[1799,3448],[113,13],[241,-77],[8,163],[-59,76]],[[2070,3691],[-23,19]],[[2099,3636],[-28,55]],[[2102,3624],[-2,11]],[[1152,3472],[-41,-4],[-112,-37],[-144,-13],[-121,-27],[-70,2],[-19,-13]],[[645,3380],[19,13],[70,-3],[264,41],[154,41]],[[1152,3472],[41,16]],[[2140,3870],[-18,6]],[[2349,3863],[42,-21],[8,3]],[[2399,3845],[56,20],[6,1]],[[2463,3866],[-64,-21]],[[2399,3845],[-8,-3],[-42,21]],[[2795,3884],[-61,38],[-165,-25],[-90,-31]],[[2480,3866],[254,56],[61,-38],[251,-76],[128,12],[86,-49],[182,-27],[2,-1]],[[3444,3743],[1,-1]],[[4096,3627],[-301,110]],[[3795,3737],[-16,6],[-19,7]],[[3760,3750],[-2,1],[-25,7],[-63,17]],[[3670,3775],[-3,1]],[[3667,3776],[-203,-47],[-20,14]],[[3444,3743],[-2,1],[-182,27],[-13,11],[-72,38],[-105,-9],[-24,-3],[-72,32],[-171,46]],[[3610,3754],[6,1],[51,21]],[[3667,3776],[3,-1]],[[3670,3775],[63,-18],[16,-4],[9,-2],[2,-1]],[[3760,3750],[10,-3],[8,-3],[17,-7]],[[3795,3737],[301,-111]],[[4070,3478],[-1,-2],[27,-24]],[[4096,3453],[-26,26]],[[4096,3526],[-19,-28],[19,28]],[[2122,3876],[-112,-69]],[[2349,3863],[-209,7]],[[546,2665],[55,70]],[[1692,3765],[-73,-67],[-45,-93]],[[1594,3631],[24,49]],[[1720,3788],[-1,-1]],[[1730,3784],[-7,3]],[[1758,3727],[0,-5]],[[1783,3562],[-28,49],[11,31]],[[1592,3551],[7,-20]],[[603,2737],[1,1]],[[1244,3507],[57,32]],[[1699,3239],[80,-2]],[[1779,3237],[105,-15]],[[1885,3222],[52,41]],[[1938,3263],[112,4]],[[2050,3267],[90,15],[49,60]],[[2155,3293],[34,49]],[[2189,3342],[3,13]],[[1943,3814],[12,-7]],[[1471,3559],[-42,-42]],[[1775,3694],[48,-19]],[[1826,3666],[-2,6]],[[1911,3498],[19,-79],[129,-153]],[[2110,3166],[-51,100],[-129,153],[-17,78]],[[2109,3165],[68,-145]],[[2177,3020],[-67,145]],[[2177,3020],[1,-3]],[[1794,3740]],[[1798,3740],[1,1]],[[1804,3745],[2,2]],[[1642,3130],[38,34]],[[1680,3164],[6,3]],[[1684,3168],[-4,-4]],[[1698,3239],[10,-68],[-24,-3]],[[1686,3167],[-2,1]],[[1686,3167],[22,4],[-6,59]],[[1578,3574],[42,79],[84,22]],[[1848,3826],[12,-3]],[[1872,3686],[-1,0]],[[110,3243],[-66,-13],[-19,-78],[-25,-10]],[[121,3257],[-10,-13]],[[210,3262],[-56,5]],[[222,3257],[-11,5]],[[343,3249],[-120,8]],[[532,3232],[-188,17]],[[595,3192],[-61,39]],[[595,3192],[14,13]],[[610,3205],[35,175]],[[1675,3786],[-1,0]],[[1795,3739],[3,1]],[[1704,3749],[41,2]],[[1745,3751],[-36,-4]],[[1771,3753],[-26,-2]],[[1777,3753],[-6,0]],[[1771,3753],[13,3]],[[1852,3705],[-4,-20],[-70,25],[13,24]],[[1789,3791],[19,-16]],[[1808,3776],[-16,14]],[[1809,3755],[-4,-8]],[[1672,3550],[-18,-20]],[[1655,3530],[18,20]],[[1347,2889],[-1,-14]],[[2806,2930],[3,-2]],[[2810,2928],[-4,2]],[[1650,3520],[7,-100]],[[1659,3414],[23,-70]],[[1774,3460],[5,-3]],[[2323,3273],[57,-61]],[[2525,3127],[43,13]],[[1994,3793],[15,10]],[[1700,3742],[-5,-11]],[[596,3363],[-7,-5]],[[598,3361],[-8,-5]],[[1804,3745],[-5,-4]],[[546,2665],[-84,-109],[-108,-59],[-354,25]],[[652,2799],[4,5]],[[656,2804],[-3,-3]],[[656,2804],[77,97],[76,201]],[[1209,3266],[-46,-69],[-353,-95]],[[1373,3386],[-120,-103]],[[2192,3355],[131,-81]],[[2383,3210],[93,-90]],[[2476,3120],[2,-2]],[[2482,3116],[-6,4]],[[2596,3148],[267,-50],[182,19],[33,-39],[100,-39],[70,6],[33,66],[171,47],[133,122],[370,144]],[[3997,3408],[-41,16]],[[4011,3408],[85,41]],[[810,3103],[-1,-1],[1,0]],[[810,3102],[0,1]],[[1979,3520],[-60,45]],[[2108,3421],[-39,30]],[[1318,3560],[22,24]],[[1311,1965],[-12,-21],[-14,13],[7,199],[-8,26],[-1,17],[11,3],[14,-14],[11,-23],[4,-13],[11,-38],[9,-73],[-17,-55],[-15,-21]],[[4096,332],[-9,5],[-30,-3],[-17,5],[-13,20],[-8,24],[0,26],[19,12],[32,-7],[26,-14],[0,-68]],[[886,0],[-10,19],[66,17],[80,-36],[-136,0]],[[0,0],[0,10],[78,-10],[-78,0]],[[4096,3792],[0,-3039],[-8,-7],[-17,-4],[-9,6],[-8,28],[-12,10],[-121,41],[-15,9],[-34,15],[-35,1],[-16,-35],[-28,-13],[-64,-3],[-68,7],[-40,19],[-19,0],[-7,-39],[-19,-10],[-55,8],[9,-13],[5,-8],[8,-23],[-33,1],[-136,17],[-41,16],[-73,82],[-27,44],[-10,46],[-51,53],[-413,167],[-42,24],[-44,37],[-26,15],[-58,6],[-24,9],[-15,18],[-33,58],[-3,13],[-40,-1],[-53,7],[-49,24],[-28,54],[16,49],[35,31],[44,18],[37,12],[335,-12],[109,29],[78,-13],[89,8],[53,9],[78,-18],[66,-6],[150,24],[116,49],[32,-6],[30,16],[58,0],[32,7],[42,13],[38,39],[27,26],[28,12],[-4,66],[12,30],[-8,49],[26,89],[-2,34],[-42,14],[-44,1],[-80,69],[-54,45],[-101,77],[-102,38],[-260,93],[-101,-4],[-234,-21],[-309,-53],[-94,41],[-198,56],[-221,0],[-123,-15],[-64,-7],[-60,7],[-93,24],[-191,-26],[-154,38],[-34,-7],[-56,-29],[-29,-7],[-135,29],[-104,-24],[-307,82],[-63,-1],[-60,-31],[-30,-51],[-10,-62],[-1,-62],[-17,-57],[-43,-29],[-99,-33],[-175,-150],[-35,-23],[-66,-5],[-45,-14],[-27,-15],[0,1375],[13,-1],[58,39],[6,3],[31,78],[41,68],[94,2],[105,-17],[70,12],[64,23],[264,-12],[270,35],[70,29],[59,-4],[127,73],[64,19],[16,10],[29,45],[15,10],[36,4],[27,11],[46,28],[86,68],[46,27],[115,17],[135,58],[203,34],[93,38],[201,-48],[64,7],[82,21],[35,8],[67,7],[30,7],[31,13],[32,5],[28,-14],[110,-78],[86,-24],[187,-18],[87,-22],[64,21],[455,-2],[76,-1],[45,7],[39,20],[34,-18],[32,-2],[35,1],[39,-5],[20,-12],[34,-28]],[[2350,1446],[54,82],[72,25],[388,-9],[73,32],[369,-32],[191,45],[58,43],[39,-20],[101,13],[61,32],[4,300],[93,19],[119,140],[124,-56],[0,-608],[-56,8],[4,-82],[39,-34],[13,17],[0,-1163],[-189,213],[-51,173],[-198,101],[-81,14],[-40,-22],[-176,48],[-103,72],[-69,178],[-249,60],[-288,172],[-174,46],[-83,77],[-45,116]],[[2443,3325],[3,30],[24,-13],[0,52],[104,14],[7,51],[-31,3],[88,14],[3,59],[31,-1],[8,-56],[51,15],[-23,-13],[32,-38],[-48,-41],[-63,13],[-109,-42],[-31,-44],[26,-23],[-12,-36],[-27,2],[-33,54]],[[1648,3520],[-203,44],[-64,87],[78,26],[178,123],[393,99],[-37,-169],[-39,-62],[-216,-134],[-90,-14]],[[1235,2856],[50,46],[-27,32],[22,22],[66,11],[1,-92],[-59,8],[-53,-27]],[[2421,3621],[66,21],[50,-48],[30,4],[-13,26],[13,2],[30,-62],[-65,-3],[7,-38],[-30,4],[-11,42],[-77,52]],[[0,2692],[0,412],[62,21],[53,41],[80,3],[64,-95],[-32,-77],[43,-42],[-25,-37],[41,12],[36,-34],[-189,-139],[-109,-33],[-24,-32]]]}