{"objects":{"water":{"type":"GeometryCollection","geometries":[{"type":"MultiPolygon","properties":{"source":"naturalearthdata.com","kind":"ocean","area":1576712559132672,"sort_rank":200,"min_zoom":0.0,"id":1},"arcs":[[[2]],[[3]],[[4],[5],[6],[7],[8],[9],[10],[11],[12]]]},{"type":"MultiLineString","properties":{"source":"naturalearthdata.com","kind":"ocean","sort_rank":205,"boundary":true,"min_zoom":0.0,"id":602},"arcs":[[13],[14],[15],[16]]},{"type":"LineString","properties":{"source":"naturalearthdata.com","kind":"ocean","sort_rank":205,"boundary":true,"min_zoom":0.0,"id":3719},"arcs":[17]},{"type":"LineString","properties":{"source":"naturalearthdata.com","kind":"ocean","sort_rank":205,"boundary":true,"min_zoom":0.0,"id":3720},"arcs":[18]},{"type":"LineString","properties":{"source":"naturalearthdata.com","kind":"ocean","sort_rank":205,"boundary":true,"min_zoom":0.0,"id":3727},"arcs":[19]}]},"buildings":{"type":"GeometryCollection","geometries":[]},"places":{"type":"GeometryCollection","geometries":[{"type":"Point","properties":{"source":"naturalearthdata.com","kind":"locality","name":"Nueva Gerona","population":25566,"region_capital":true,"min_zoom":7.0,"id":3487},"coordinates":[492,3911]},{"type":"Point","properties":{"kind":"locality","name":"Nueva Gerona","kind_detail":"city","source":"openstreetmap.org","min_zoom":8.0,"name:uk":"\u041d\u0443\u0435\u0432\u0430-\u0425\u0435\u0440\u043e\u043d\u0430","name:ru":"\u041d\u0443\u044d\u0432\u0430-\u0425\u0435\u0440\u043e\u043d\u0430","id":259846365,"population":46264},"coordinates":[474,3916]},{"type":"Point","properties":{"kind":"locality","name":"La F\u00e9","kind_detail":"town","source":"openstreetmap.org","min_zoom":8.0,"name:ru":"\u041b\u0430-\u0424\u0435","id":441785450,"population":15000},"coordinates":[628,3484]}]},"transit":{"type":"GeometryCollection","geometries":[]},"pois":{"type":"GeometryCollection","geometries":[]},"boundaries":{"type":"GeometryCollection","geometries":[{"type":"LineString","properties":{"name:ka":"\u10d9\u10e3\u10d1\u10d0","name:ko":"\ucfe0\ubc14","name:cv":"\u041a\u0443\u0431\u0430","name:km":"\u1782\u17bb\u1799\u1794\u17b6","name:cs":"Kuba","name:tt":"\u041a\u0443\u0431\u0430","name:kw":"Kuba","name:kv":"\u041a\u0443\u0431\u0430","name:ku":"K\u00fbba","name:tl":"Kuba","name:pa":"\u0a15\u0a3f\u0a0a\u0a2c\u0a3e","name:os":"\u041a\u0443\u0431\u00e6","name:or":"\u0b15\u0b4d\u0b5f\u0b41\u0b2c\u0b3e","name:ce":"\u041a\u0443\u0431\u0430","name:ta":"\u0b95\u0bc2\u0baa\u0bbe","name:tg":"\u041a\u0443\u0431\u043e","name:te":"\u0c15\u0c4d\u0c2f\u0c42\u0c2c\u0c3e","source":"openstreetmap.org","sort_rank":262,"name:qu":"Kuba","name:de":"Kuba","name:tr":"K\u00fcba","name:nv":"Ky\u00f3oba","name:kn":"\u0c95\u0ccd\u0caf\u0cc2\u0cac\u0cbe","name:be":"\u041a\u0443\u0431\u0430","name:dv":"\u0786\u07a8\u0787\u07aa\u0784\u07a7","name:lv":"Kuba","name:lt":"Kuba","name:uz":"Kuba","name:kk":"\u041a\u0443\u0431\u0430","name:he":"\u05e7\u05d5\u05d1\u05d4","name:eo":"Kubo","name:ur":"\u06a9\u06cc\u0648\u0628\u0627","name:lb":"Kuba","name:uk":"\u041a\u0443\u0431\u0430","name:hy":"\u053f\u0578\u0582\u0562\u0561","name:ug":"\u0643\u06c7\u0628\u0627","name:hu":"Kuba","name:ln":"Kuba","name:el":"\u039a\u03bf\u03cd\u03b2\u03b1","kind":"country","name":"Cuba","name:tk":"Kuba","name:bn":"\u0995\u09bf\u0989\u09ac\u09be","name:gd":"C\u00f9ba","min_zoom":8.0,"name:th":"\u0e1b\u0e23\u0e30\u0e40\u0e17\u0e28\u0e04\u0e34\u0e27\u0e1a\u0e32","name:eu":"Kuba","name:et":"Kuuba","name:jv":"Kuba","name:yo":"K\u00fab\u00e0","name:ay":"Kuba","name:mt":"Kuba","name:az":"Kuba","name:id":"Kuba","name:mr":"\u0915\u094d\u092f\u0941\u092c\u093e","name:ar":"\u0643\u0648\u0628\u0627","name:my":"\u1000\u103b\u1030\u1038\u1018\u102c\u1038\u1014\u102d\u102f\u1004\u103a\u1004\u1036","name:io":"Kuba","name:is":"K\u00faba","name:am":"\u12a9\u1263","name:ru":"\u041a\u0443\u0431\u0430","id":-307833,"name:ml":"\u0d15\u0d4d\u0d2f\u0d42\u0d2c","name:rw":"Kiba","name:pl":"Kuba","name:mk":"\u041a\u0443\u0431\u0430","name:af":"Kuba","name:fa":"\u06a9\u0648\u0628\u0627","name:iu":"\u1582\u1439\/quupaa","name:mn":"\u041a\u0443\u0431\u0430","name:ss":"IKhuyubha","kind_detail":"2","name:hi":"\u0915\u094d\u092f\u0942\u092c\u093e","name:fo":"Kuba","name:ba":"\u041a\u0443\u0431\u0430","name:za":"Gujbah","name:zh-yue":"\u53e4\u5df4","name:fy":"Kuba","name:vo":"Kube\u00e4n","name:zh":"\u53e4\u5df4","name:hr":"Kuba","name:so":"Kuuba","name:sl":"Kuba","name:sk":"Kuba","name:ja":"\u30ad\u30e5\u30fc\u30d0","name:si":"\u0d9a\u0dd2\u0dba\u0dd4\u0db6\u0dcf\u0dc0","name:sh":"Kuba","name:na":"Kiuba","name:ne":"\u0915\u094d\u092f\u0941\u092c\u093e","name:br":"Kuba","name:bs":"Kuba","name:yi":"\u05e7\u05d5\u05d1\u05d0","name:wa":"Couba","name:bo":"\u0f40\u0f74\u0f0b\u0f56\u0f0d","name:sa":"\u0915\u094d\u092f\u0942\u092c\u093e","name:sw":"Kuba","name:sv":"Kuba","name:su":"Kuba","name:bg":"\u041a\u0443\u0431\u0430","name:wo":"Kubaa","name:sr":"\u041a\u0443\u0431\u0430","osm_relation":true,"name:sq":"Kuba","name:ga":"C\u00faba","name:bm":"Kuba","name:ht":"Kiba","name:gn":"Kuva","maritime_boundary":true,"name:gv":"Yn Choobey","name:fi":"Kuuba"},"arcs":[0]},{"type":"LineString","properties":{"old_name:fr":"\u00cele des Pins","name:pt":"Ilha da Juventude","old_name:es":"Isla de Pinos","official_name":"Municipio Especial Isla de la Juventud","min_zoom":8.0,"name:la":"Insula Iuventutis","name:it":"Isola della Giovent\u00f9","old_name":"Isla de Pinos","name:ru":"\u041e\u0441\u0442\u0440\u043e\u0432 \u0425\u0443\u0432\u0435\u043d\u0442\u0443\u0434","name:de":"Insel der Jugend","id":-1854614,"osm_relation":true,"kind":"region","name:en":"Isle of Youth","name":"Isla de la Juventud","sort_rank":256,"kind_detail":"4","name:fr":"\u00cele de la Jeunesse","old_name:de":"Kieferninsel","source":"openstreetmap.org","maritime_boundary":true},"arcs":[1]}]},"roads":{"type":"GeometryCollection","geometries":[{"type":"MultiLineString","properties":{"sort_rank":380,"kind_detail":"primary","min_zoom":8.0,"kind":"major_road","source":"openstreetmap.org"},"arcs":[[20],[21],[22],[23],[24],[25],[26]]},{"type":"MultiLineString","properties":{"sort_rank":381,"source":"openstreetmap.org","min_zoom":8.0,"kind":"major_road","kind_detail":"trunk"},"arcs":[[27],[28]]},{"type":"LineString","properties":{"source":"openstreetmap.org","kind":"ferry","name":"Surgidero de Bataban\u00f3 - Nueva Gerona","sort_rank":355,"min_zoom":8.0,"id":145739779},"arcs":[29]},{"type":"MultiLineString","properties":{"source":"openstreetmap.org","kind":"ferry","name":"Surgidero de Bataban\u00f3 - Cayo Largo del Sur","sort_rank":355,"min_zoom":8.0,"id":434688792},"arcs":[[30],[31]]}]},"earth":{"type":"GeometryCollection","geometries":[{"type":"MultiPolygon","properties":{"sort_rank":10,"source":"naturalearthdata.com","min_zoom":0.0,"kind":"earth","area":2866928753},"arcs":[[[32]],[[33]],[[34]],[[35]]]},{"type":"Point","properties":{"label_placement":true,"name:pt":"Ilha da Juventude","name:ka":"\u10ee\u10e3\u10d5\u10d4\u10dc\u10e2\u10e3\u10d3\u10d8","name:ko":"\ud6c4\ubca4\ud22c\ub4dc \uc12c","name:ar":"\u062c\u0632\u064a\u0631\u0629 \u062e\u0648\u0641\u064a\u0646\u062a\u0648\u062f","name:kk":"\u0425\u0443\u0432\u0435\u043d\u0442\u0443\u0434","min_zoom":7.0,"name:it":"Isola della Giovent\u00f9","name:ru":"\u043e\u0441\u0442\u0440\u043e\u0432 \u0425\u0443\u0432\u0435\u043d\u0442\u0443\u0434","id":-5219730,"name:ca":"Illa de la Juventud","name:fa":"\u0627\u06cc\u0633\u0644\u0627 \u062f \u0644\u0627 \u062e\u0648\u0628\u0646\u062a\u0648\u062f","name:bg":"\u0425\u0443\u0432\u0435\u043d\u0442\u0443\u0434","area":2559600128,"name:de":"Insel der Jugend","source":"openstreetmap.org","name:fr":"\u00cele de la Jeunesse","name:mk":"\u0425\u0443\u0432\u0435\u043d\u0442\u0443\u0434","name:zh":"\u9752\u5e74\u5c9b","name:ja":"\u9752\u5e74\u306e\u5cf6","name:lt":"Chuventudo sala","name:cs":"ostrov Ml\u00e1de\u017ee","name:he":"\u05d0\u05d9\u05e1\u05dc\u05d4 \u05d3\u05d4 \u05dc\u05d4 \u05d7\u05d5\u05d1\u05e0\u05d8\u05d5\u05d3","name:eo":"Insulo de la Junularo","name:ur":"\u0627\u0632\u0644\u0627 \u062f\u06d2 \u0644\u0627 \u062e\u0648\u0628\u06cc\u0646\u062a\u0648\u062f","name:la":"Insula Iuventutis","name:uk":"\u0406\u0441\u043b\u0430-\u0434\u0435-\u043b\u0430-\u0425\u0443\u0432\u0435\u043d\u0442\u0443\u0434","name:hy":"\u053d\u0578\u0582\u057e\u0565\u0576\u057f\u0578\u0582\u0564","name:be":"\u0412\u043e\u0441\u0442\u0440\u0430\u045e \u0425\u0443\u0432\u0435\u043d\u0442\u0443\u0434","name:hu":"Juventud-sziget","osm_relation":true,"name:el":"\u038a\u03c3\u03bb\u03b1 \u03b4\u03b5 \u03bb\u03b1 \u03a7\u03bf\u03c5\u03b2\u03b5\u03bd\u03c4\u03bf\u03cd\u03b4","kind":"island","name:en":"Isle of Youth","name":"Isla de la Juventud","name:gl":"Illa da Juventud","name:et":"Juventud"},"coordinates":[446,3308]}]},"landuse":{"type":"GeometryCollection","geometries":[]}},"type":"Topology","transform":{"translate":[-82.96875,20.6327842504],"scale":[0.0003433228,0.000319888]},"arcs":[[[0,1924],[210,-33],[2021,110],[1391,280],[474,72]],[[0,1926],[210,-35],[2021,110],[1391,280],[474,72]],[[0,4053],[28,-13],[-28,-6],[0,19]],[[0,3049],[66,-11],[15,-36],[-53,-97],[-20,19],[28,44],[-4,32],[-15,18],[-9,3],[-8,-21],[0,49]],[[0,2560],[121,-2],[26,-30],[35,-12],[206,22],[222,81],[372,188],[55,11],[53,24],[67,56],[60,64],[30,48],[-35,18],[-42,33],[-24,40],[21,37],[0,23],[-40,6],[-35,16],[-66,42],[15,27],[5,27],[-4,26],[-16,27],[22,0],[33,59],[15,36],[0,24],[-16,29],[-14,39],[-20,35],[-29,15],[-39,-3],[-131,107],[-42,51],[-3,36],[15,38],[10,58],[-16,49],[-39,34],[-52,23],[-163,46],[-237,59],[-242,29],[808,0],[20,-34],[80,-36],[80,4],[34,15],[-48,37],[-30,14],[3074,0],[0,-4096],[-4096,0],[0,2560]],[[971,3959],[25,-14],[4,3],[-20,19],[-20,5],[11,-13]],[[1030,3946],[13,-9],[15,-14],[17,-5],[14,2],[-12,-14],[-10,-22],[16,-6],[19,18],[4,23],[-27,26],[-29,9],[-15,-1],[-5,-7]],[[3299,3879],[-9,-7],[-1,-9],[4,0],[38,18],[24,0],[-2,12],[-44,2],[-10,-16]],[[1159,3386],[47,-7],[26,9],[16,14],[13,-6],[9,-16],[8,-7],[24,-1],[-8,28],[-18,48],[-16,-7],[-18,4],[-9,25],[-11,5],[-15,-13],[-6,-13],[-4,-1],[-3,16],[6,14],[6,9],[-6,4],[-13,6],[-25,25],[-18,7],[-2,-5],[16,-16],[16,-27],[-2,-26],[-5,-17],[4,-6],[10,-2],[6,-10],[0,-17],[-28,-17]],[[2851,3051],[50,42],[-2,55],[-23,25],[-5,-5],[-3,-13],[-10,-23],[-27,-25],[-32,-16],[-35,-2],[-83,-32],[-18,-14],[-21,-24],[-28,-17],[-32,-10],[-58,-48],[-35,-13],[12,-9],[63,2],[41,13],[11,13],[15,10],[20,6],[85,42],[115,43]],[[1998,2994],[4,8],[-18,-1],[-31,-11],[-9,-13],[2,-12],[-26,12],[-27,-11],[-15,2],[-17,-12],[-20,-30],[2,-6],[33,12],[62,6],[50,16],[25,15],[-11,2],[-8,8],[-7,8],[1,5],[10,2]],[[1561,2947],[-58,6],[-24,-4],[-3,-15],[12,-15],[27,-7],[59,-31],[21,13],[13,18],[-5,11],[-19,9],[-9,8],[-14,7]],[[3147,3171],[-11,-19],[-39,-31],[-49,-6],[-31,34],[-8,6],[10,-42],[39,-41],[51,0],[91,75],[51,33],[43,35],[-3,16],[-40,-9],[-19,-6],[-87,-38],[-9,-6],[11,-1]],[[1167,3138],[0,23],[-40,6],[-35,16],[-66,42],[15,27],[5,27],[-4,26],[-16,27],[22,0],[33,59],[15,36],[0,24],[-16,29],[-14,39],[-20,35],[-29,15],[-39,-3],[-131,107],[-42,51],[-3,36],[15,38],[10,58],[-16,49],[-39,34],[-52,23],[-163,46],[-237,59],[-242,29]],[[0,4053],[28,-13],[-28,-6]],[[0,3049],[66,-11],[15,-36],[-53,-97],[-20,19],[28,44],[-4,32],[-15,18],[-9,3],[-8,-21]],[[0,2560],[121,-2],[26,-30],[35,-12],[206,22],[222,81],[372,188],[55,11],[53,24],[67,56],[60,64],[30,48],[-35,18],[-42,33],[-24,40],[21,37]],[[3251,3222],[-19,-6],[-87,-38],[-9,-6],[11,-1],[-11,-19],[-39,-31],[-49,-6],[-31,34],[-8,6],[10,-42],[39,-41],[51,0],[91,75],[51,33],[43,35],[-3,16],[-40,-9]],[[2876,3173],[-5,-5],[-3,-13],[-10,-23],[-27,-25],[-32,-16],[-35,-2],[-83,-32],[-18,-14],[-21,-24],[-28,-17],[-32,-10],[-58,-48],[-35,-13],[12,-9],[63,2],[41,13],[11,13],[15,10],[20,6],[85,42],[115,43],[50,42],[-2,55],[-23,25]],[[886,4096],[20,-34],[80,-36],[80,4],[34,15],[-48,37],[-30,14]],[[0,3126],[22,-1],[86,78],[32,75],[16,426],[291,87],[26,74]],[[442,3951],[35,-41]],[[473,3865],[4,45]],[[473,3865],[22,-25]],[[477,3910],[38,-29],[-13,-38]],[[584,3471],[34,0]],[[612,3415],[-27,53]],[[500,3826],[4,-138],[78,-214]],[[583,3473],[-30,98],[-48,120],[-4,146]],[[571,4096],[-85,-93],[3,-79]],[[3212,4096],[884,-941]],[[4096,3119],[-12,-11]],[[3200,3147],[-91,-75],[-51,0],[-39,41],[-10,42],[8,-6],[31,-34],[49,6],[39,31],[11,19],[-11,1],[9,6],[87,38],[19,6],[40,9],[3,-16],[-43,-35],[-51,-33]],[[2564,2924],[-63,-2],[-12,9],[35,13],[58,48],[32,10],[28,17],[21,24],[18,14],[83,32],[35,2],[32,16],[27,25],[10,23],[3,13],[5,5],[23,-25],[2,-55],[-50,-42],[-115,-43],[-85,-42],[-20,-6],[-15,-10],[-11,-13],[-41,-13]],[[0,4096],[78,0],[242,-29],[237,-59],[163,-46],[52,-23],[39,-34],[16,-49],[-10,-58],[-15,-38],[3,-36],[42,-51],[131,-107],[39,3],[29,-15],[20,-35],[14,-39],[16,-29],[0,-24],[-15,-36],[-33,-59],[-22,0],[16,-27],[4,-26],[-5,-27],[-15,-27],[66,-42],[35,-16],[40,-6],[0,-23],[-21,-37],[24,-40],[42,-33],[35,-18],[-30,-48],[-60,-64],[-67,-56],[-53,-24],[-55,-11],[-372,-188],[-222,-81],[-206,-22],[-35,12],[-26,30],[-121,2],[0,440],[8,21],[9,-3],[15,-18],[4,-32],[-28,-44],[20,-19],[53,97],[-15,36],[-66,11],[0,985],[28,6],[-28,13],[0,43]],[[1066,4030],[-80,-4],[-80,36],[-20,34],[136,0],[30,-14],[48,-37],[-34,-15]]]}