{"objects":{"water":{"type":"GeometryCollection","geometries":[{"type":"Polygon","properties":{"source":"naturalearthdata.com","kind":"ocean","area":1576712559132672,"sort_rank":200,"min_zoom":0.0,"id":1},"arcs":[[2],[3],[4],[5],[6],[7],[8],[9],[10],[11],[12],[13],[14],[15],[16],[17],[18],[19],[20],[21],[22],[23],[24],[25],[26],[27],[28],[29],[30],[31],[32],[33],[34],[35],[36],[37],[38],[39],[40],[41],[42],[43],[44],[45],[46],[47],[48],[49],[50],[51],[52],[53]]},{"type":"LineString","properties":{"source":"naturalearthdata.com","kind":"ocean","sort_rank":205,"boundary":true,"min_zoom":0.0,"id":567},"arcs":[54]}]},"buildings":{"type":"GeometryCollection","geometries":[]},"places":{"type":"GeometryCollection","geometries":[]},"transit":{"type":"GeometryCollection","geometries":[]},"pois":{"type":"GeometryCollection","geometries":[]},"boundaries":{"type":"GeometryCollection","geometries":[{"type":"LineString","properties":{"name:ps":"\u0647\u0646\u062f\u0648\u0631\u0627\u0633","name:ka":"\u10f0\u10dd\u10dc\u10d3\u10e3\u10e0\u10d0\u10e1\u10d8","name:ko":"\uc628\ub450\ub77c\uc2a4","name:cu":"\u041e\u043d\u0434\u043e\u0443\u0440\u0430\u0441\u044a","name:kk":"\u0413\u043e\u043d\u0434\u0443\u0440\u0430\u0441","name:tt":"\u0413\u043e\u043d\u0434\u0443\u0440\u0430\u0441","name:kw":"Hondouras","name:ku":"Hond\u00fbras","name:pa":"\u0a39\u0a3e\u0a02\u0a21\u0a42\u0a30\u0a3e\u0a38","name:os":"\u0413\u043e\u043d\u0434\u0443\u0440\u0430\u0441","name:or":"\u0b39\u0b4b\u0b23\u0b4d\u0b21\u0b3e\u0b30\u0b41\u0b38","name:ce":"\u0413\u043e\u043d\u0434\u0443\u0440\u0430\u0441","name:ta":"\u0bb9\u0bca\u0ba3\u0bcd\u0b9f\u0bc1\u0bb0\u0bbe\u0bb8\u0bcd","name:tg":"\u04b2\u043e\u043d\u0434\u0443\u0440\u0430\u0441","name:ky":"\u0413\u043e\u043d\u0434\u0443\u0440\u0430\u0441","name:te":"\u0c39\u0c4b\u0c02\u0c21\u0c41\u0c30\u0c3e\u0c38\u0c4d","sort_rank":262,"name:ss":"IHondulasi","name:ba":"\u0413\u043e\u043d\u0434\u0443\u0440\u0430\u0441","source":"openstreetmap.org","osm_relation":true,"name:dv":"\u0780\u07ae\u0782\u07b0\u0791\u07a8\u0787\u07aa\u0783\u07a6\u0790\u07b0","name:lv":"Hondurasa","name:lt":"Hond\u016bras","name:hi":"\u0939\u094c\u0923\u094d\u0921\u0941\u0930\u0938","name:he":"\u05d4\u05d5\u05e0\u05d3\u05d5\u05e8\u05e1","name:eo":"Honduro","name:ur":"\u06c1\u0648\u0646\u0688\u0648\u0631\u0627\u0633","name:la":"Honduria","name:uk":"\u0413\u043e\u043d\u0434\u0443\u0440\u0430\u0441","name:hy":"\u0540\u0578\u0576\u0564\u0578\u0582\u0580\u0561\u057d","name:ug":"\u06be\u0648\u0646\u062f\u06c7\u0631\u0627\u0633","name:qu":"Unduras","name:el":"\u039f\u03bd\u03b4\u03bf\u03cd\u03c1\u03b1","kind":"country","name":"Honduras","min_zoom":8.0,"name:th":"\u0e1b\u0e23\u0e30\u0e40\u0e17\u0e28\u0e2e\u0e2d\u0e19\u0e14\u0e39\u0e23\u0e31\u0e2a","name:yi":"\u05d4\u05d0\u05e0\u05d3\u05d5\u05e8\u05d0\u05e1","name:yo":"H\u1ecd\u0300nd\u00far\u00e0s","name:mt":"\u0126onduras","name:mr":"\u0939\u094b\u0928\u094d\u0921\u0941\u0930\u093e\u0938","name:ar":"\u0647\u0646\u062f\u0648\u0631\u0627\u0633","name:my":"\u101f\u103d\u1014\u103a\u1012\u1030\u1038\u101b\u1015\u103a\u1005\u103a\u1014\u102d\u102f\u1004\u103a\u1004\u1036","name:is":"Hond\u00faras","name:am":"\u1206\u1295\u12f1\u122b\u1235","name:ml":"\u0d39\u0d4b\u0d23\u0d4d\u0d1f\u0d41\u0d31\u0d3e\u0d38\u0d4d","name:ru":"\u0413\u043e\u043d\u0434\u0443\u0440\u0430\u0441","name:rw":"Hondurasi","id":-287670,"name:mk":"\u0425\u043e\u043d\u0434\u0443\u0440\u0430\u0441","name:vo":"Hondur\u00e4n","name:fa":"\u0647\u0646\u062f\u0648\u0631\u0627\u0633","name:mn":"\u0413\u043e\u043d\u0434\u0443\u0440\u0430\u0441","kind_detail":"2","name:uz":"Gonduras","name:ca":"Hondures","name:zh-yue":"\u6d2a\u90fd\u62c9\u65af","name:fy":"Hondueras","name:zh":"\u6d2a\u90fd\u62c9\u65af","name:sm":"Honilagi","name:ja":"\u30db\u30f3\u30b8\u30e5\u30e9\u30b9","name:na":"Ondurat","name:ne":"\u0939\u094b\u0923\u094d\u0921\u0941\u0930\u0938","name:sa":"\u0939\u093e\u0902\u0921\u0942\u0930\u0938","name:wa":"Hondourasse","name:bo":"\u0f67\u0f7c\u0f44\u0f0b\u0f51\u0f74\u0f0b\u0f62\u0f0b\u0f66\u0f72\u0f0d","name:be":"\u0413\u0430\u043d\u0434\u0443\u0440\u0430\u0441","name:bg":"\u0425\u043e\u043d\u0434\u0443\u0440\u0430\u0441","name:wo":"Onduras","name:sr":"\u0425\u043e\u043d\u0434\u0443\u0440\u0430\u0441","name:sq":"Hondurasi","name:ga":"Hond\u00faras","name:gd":"Hond\u00f9ras","name:ht":"Ondiras","name:bn":"\u09b9\u09a8\u09cd\u09a1\u09c1\u09b0\u09be\u09b8","maritime_boundary":true,"name:gv":"Ny Hondooraghyn","name:gu":"\u0ab9\u0acb\u0aa8\u0acd\u0aa1\u0ac1\u0ab0\u0abe\u0ab8"},"arcs":[0]},{"type":"LineString","properties":{"kind":"region","name":"Gracias a Dios","sort_rank":256,"kind_detail":"4","min_zoom":8.0,"source":"openstreetmap.org","maritime_boundary":true,"id":-3811537,"osm_relation":true},"arcs":[1]}]},"roads":{"type":"GeometryCollection","geometries":[]},"earth":{"type":"GeometryCollection","geometries":[{"type":"MultiPolygon","properties":{"sort_rank":10,"source":"naturalearthdata.com","min_zoom":0.0,"kind":"earth","area":20932022146},"arcs":[[[55]]]}]},"landuse":{"type":"GeometryCollection","geometries":[]}},"type":"Topology","transform":{"translate":[-82.96875,13.9234038977],"scale":[0.0003433228,0.000332222]},"arcs":[[[0,3421],[254,91],[34,-219],[104,-192],[812,-32],[211,-208],[182,-66],[200,-10],[207,68],[114,76],[129,169],[71,212],[-13,174],[-121,276],[-112,106],[-315,184],[13,43],[-2,3]],[[0,3421],[254,91],[34,-219],[104,-192],[812,-32],[211,-208],[182,-66],[200,-10],[207,68],[114,76],[129,169],[71,212],[-13,174],[-121,276],[-112,106],[-315,184],[13,43],[-2,3]],[[4096,4096],[0,-4096],[-4096,0],[0,4096],[4096,0]],[[673,1501],[-39,0],[-47,-24],[-22,-28],[-10,-35],[-19,-34],[-47,-26],[1,-12],[-3,-7],[-6,-2],[-2,0],[-12,0],[13,-1],[155,-13],[53,24],[20,84],[-10,49],[-25,25]],[[205,1406],[-6,9],[1,-14],[5,5]],[[217,1415],[1,-1],[4,2],[-1,5],[-1,-1],[0,2],[-6,-2],[3,-5]],[[207,1430],[-7,4],[2,-10],[5,6]],[[280,1519],[0,-35],[30,11],[-30,24]],[[763,1594],[3,2],[-1,5],[-1,-1],[0,3],[-6,-3],[3,-5],[1,1],[1,-2]],[[267,1598],[3,1],[2,4],[-8,1],[3,-6]],[[737,1602],[4,-2],[2,3],[1,6],[-6,1],[-1,-8]],[[229,1620],[4,2],[-1,5],[-1,0],[-1,2],[-5,-3],[3,-4],[1,-2]],[[187,1634],[7,5],[-8,4],[1,-9]],[[428,1695],[-7,1],[2,-8],[2,0],[3,7]],[[418,1691],[-1,5],[-1,0],[-1,2],[-5,-3],[3,-4],[1,-2],[4,2]],[[398,1704],[-1,6],[-1,-1],[0,2],[-6,-3],[3,-4],[1,-2],[4,2]],[[935,1864],[-17,59],[-11,-24],[17,-25],[11,-10]],[[21,1892],[-1,5],[-1,0],[-1,2],[-6,-3],[3,-4],[1,0],[1,-2],[4,2]],[[690,1920],[-1,5],[-1,0],[0,2],[-6,-3],[3,-4],[1,-2],[4,2]],[[1153,1910],[1,-10],[9,2],[-10,8]],[[1127,1900],[-1,5],[-1,-1],[0,2],[-6,-2],[3,-5],[1,0],[1,-1],[2,1],[1,1]],[[1126,1898],[-3,-7],[7,0],[-3,8],[-1,-1]],[[1185,1931],[4,2],[-1,5],[-1,0],[0,2],[-6,-3],[3,-4],[1,-2]],[[10,1937],[3,2],[-1,5],[-1,-1],[0,3],[-6,-3],[3,-5],[1,1],[1,-2]],[[1138,1946],[-6,-3],[3,-5],[0,1],[1,-2],[4,2],[-1,5],[-1,-1],[0,3]],[[803,1988],[3,7],[-7,-1],[0,-6],[4,0]],[[570,2076],[-2,36],[-18,-16],[20,-20]],[[960,2114],[3,-5],[1,-1],[4,1],[-1,6],[-1,-1],[-1,2],[-5,-2]],[[875,2149],[-1,5],[-1,0],[0,2],[-6,-3],[3,-4],[2,-2],[3,2]],[[867,2178],[-7,9],[-11,-2],[15,-9],[3,2]],[[804,2659],[-3,6],[-3,-8],[6,-3],[0,5]],[[1196,3452],[-1,5],[-1,0],[0,2],[-6,-3],[3,-4],[2,-2],[3,2]],[[850,3499],[-1,5],[-1,-1],[-1,3],[-5,-3],[3,-5],[1,-1],[4,2]],[[1090,3617],[-2,9],[-5,-7],[4,-5],[3,3]],[[1124,3634],[-1,5],[-2,-1],[0,3],[-5,-3],[2,-5],[1,1],[1,-2],[4,2]],[[775,3700],[12,11],[-15,-5],[3,-6]],[[1267,3718],[0,-10],[5,0],[-5,10]],[[1245,3786],[-1,5],[-1,-1],[0,2],[-6,-2],[3,-5],[2,-1],[3,2]],[[1210,3802],[-13,2],[4,-8],[9,6]],[[960,3812],[3,12],[-10,-7],[7,-5]],[[1120,3834],[-1,13],[-9,-11],[6,-3],[4,1]],[[1072,3912],[3,12],[-13,-1],[10,-11]],[[786,3923],[4,7],[-3,12],[-6,-13],[5,-6]],[[1064,1246],[-19,-23],[27,-7],[-8,30]],[[1105,1217],[-22,-3],[-15,-20],[8,-21],[29,44]],[[51,1141],[-2,-10],[7,3],[-5,7]],[[159,1079],[-6,-11],[10,0],[-4,11]],[[1180,947],[3,-14],[11,10],[-14,4]],[[422,794],[4,-5],[1,-1],[4,2],[-1,5],[-2,-1],[0,2],[-6,-2]],[[462,743],[3,-4],[1,0],[1,-2],[4,2],[-1,5],[-2,-1],[0,3],[-6,-3]],[[473,728],[3,-4],[2,-2],[3,2],[0,5],[-2,0],[0,2],[-6,-3]],[[653,709],[8,-3],[2,4],[-10,6],[0,-7]],[[499,702],[-4,5],[-4,-6],[8,-3],[0,4]],[[555,664],[3,-4],[1,-2],[4,2],[-1,5],[-1,0],[0,2],[-6,-3]],[[587,1477],[-22,-28],[-10,-35],[-19,-34],[-47,-26],[1,-12],[-3,-7],[-6,-2],[-2,0],[-12,0],[13,-1],[155,-13],[53,24],[20,84],[-10,49],[-25,25],[-39,0],[-47,-24]],[[688,1343],[-53,-24],[-155,13],[-13,1],[12,0],[2,0],[6,2],[3,7],[-1,12],[47,26],[19,34],[10,35],[22,28],[47,24],[39,0],[25,-25],[10,-49],[-20,-84]]]}