{"objects":{"water":{"type":"GeometryCollection","geometries":[{"type":"Polygon","properties":{"source":"naturalearthdata.com","kind":"ocean","area":1576712559132672,"sort_rank":200,"min_zoom":0.0,"id":1},"arcs":[[3]]},{"type":"LineString","properties":{"source":"naturalearthdata.com","kind":"ocean","sort_rank":205,"boundary":true,"min_zoom":0.0,"id":49},"arcs":[4]}]},"buildings":{"type":"GeometryCollection","geometries":[]},"places":{"type":"GeometryCollection","geometries":[{"type":"Point","properties":{"name:pt":"Curl\u00e2ndia","name:ka":"\u10d9\u10e3\u10e0\u10da\u10d0\u10dc\u10d3\u10d8\u10d0","name:ko":"\ucfe0\ub97c\ub780\ud2b8","name:ar":"\u0643\u0648\u0631\u0644\u0627\u0646\u062f","name:cs":"Kuronsko","name:tr":"Kurlandiya","min_zoom":4.0,"name:it":"Curlandia","name:ru":"\u041a\u0443\u0440\u0437\u0435\u043c\u0435","name:pl":"Kurlandia","id":1629678526,"name:ca":"Curl\u00e0ndia","kind_detail":"state","name:da":"Kurland","name:de":"Kurland","source":"openstreetmap.org","name:fr":"Courlande","name:zh":"\u5eab\u723e\u862d","name:sk":"Kur\u00f3nsko","name:ja":"\u30af\u30fc\u30eb\u30e9\u30f3\u30c8","name:lt":"Kur\u0161as","name:he":"\u05e7\u05d5\u05e8\u05dc\u05e0\u05d3","name:uk":"\u041a\u0443\u0440\u0437\u0435\u043c\u0435","name:be":"\u041a\u0443\u0440\u043b\u044f\u043d\u0434\u044b\u044f","name:bg":"\u041a\u0443\u0440\u043b\u0430\u043d\u0434\u0438\u044f","kind":"region","name:en":"Courland","name":"Kurzeme","name:fi":"Kuurinmaa","name:et":"Kuramaa","name:nl":"Koerland","name:es":"Curlandia"},"coordinates":[3088,2264]},{"type":"Point","properties":{"kind":"locality","name":"Kuld\u012bga","name:lt":"Kuldyga","kind_detail":"town","alt_name:pl":"Goldynga","name:de":"Goldingen","source":"openstreetmap.org","min_zoom":8.0,"name:uk":"\u041a\u0443\u043b\u0434\u0456\u0433\u0430","old_name":"Goldingen","name:ru":"\u041a\u0443\u043b\u0434\u0438\u0433\u0430","name:pl":"Kuldyga","id":29488312,"population":12494},"coordinates":[2525,2185]},{"type":"Point","properties":{"kind":"locality","name":"Saldus","kind_detail":"town","name:de":"Frauenburg","source":"openstreetmap.org","min_zoom":8.0,"name:uk":"\u0421\u0430\u043b\u0434\u0443\u0441","name:ru":"\u0421\u0430\u043b\u0434\u0443\u0441","name:zh":"\u85a9\u723e\u675c\u65af","id":27157270,"population":12085},"coordinates":[4077,569]},{"type":"Point","properties":{"kind":"locality","name":"Aizpute","name:lt":"Aizput\u0117","alt_name:de":"Hasenpoth","kind_detail":"town","name:de":"Hasenpot","source":"openstreetmap.org","min_zoom":8.0,"name:ru":"\u0410\u0439\u0437\u043f\u0443\u0442\u0435","name:pl":"Hazenpot","id":29488931,"population":4983},"coordinates":[1494,871]},{"type":"Point","properties":{"kind":"locality","name":"Skrunda","kind_detail":"town","name:de":"Schrunden","source":"openstreetmap.org","min_zoom":8.0,"name:uk":"\u0421\u043a\u0440\u0443\u043d\u0434\u0430","name:ru":"\u0421\u043a\u0440\u0443\u043d\u0434\u0430","id":29012444,"population":2415},"coordinates":[2685,627]},{"type":"Point","properties":{"kind":"locality","name":"P\u0101vilosta","name:lt":"Paviluosta","kind_detail":"town","name:de":"Paulshafen","source":"openstreetmap.org","min_zoom":8.0,"name:ru":"\u041f\u0430\u0432\u0438\u043b\u043e\u0441\u0442\u0430","id":183167063,"population":1127},"coordinates":[259,1759]},{"type":"Point","properties":{"kind":"locality","name":"Piltene","name:lt":"Pilten\u0117","kind_detail":"town","name:de":"Pilten","source":"openstreetmap.org","min_zoom":8.0,"name:ru":"\u041f\u0438\u043b\u0442\u0435\u043d\u0435","name:pl":"Pilty\u0144","id":416933700,"population":973},"coordinates":[1687,3559]},{"type":"Point","properties":{"kind":"locality","name":"Durbe","name:lt":"Durb\u0117","kind_detail":"town","name:de":"Durben","source":"openstreetmap.org","min_zoom":8.0,"name:uk":"\u0414\u0443\u0440\u0431\u0435","name:ru":"\u0414\u0443\u0440\u0431\u0435","id":29488934,"population":612},"coordinates":[812,142]}]},"transit":{"type":"GeometryCollection","geometries":[{"type":"LineString","properties":{"kind":"train","name":"R\u012bga - Liep\u0101ja","sort_rank":275,"name:de":"Riga - Libau","source":"openstreetmap.org","min_zoom":6.0,"operator":"AS \u201ePasa\u017eieru vilciens\u201c","ref":"R\u012bga - Liep\u0101ja","osm_relation":true},"arcs":[2]}]},"pois":{"type":"GeometryCollection","geometries":[{"type":"Point","properties":{"kind":"protected_area","name":"U\u017eava","area":102307000,"source":"openstreetmap.org","min_zoom":7.0,"tier":2,"id":-304086,"osm_relation":true},"coordinates":[931,3478]},{"type":"Point","properties":{"kind":"protected_area","protect_class":"4","area":19643000,"source":"openstreetmap.org","min_zoom":8.0,"tier":2,"id":132054191,"name":"Durbes ezera p\u013cavas"},"coordinates":[894,363]},{"type":"Point","properties":{"kind":"protected_area","protect_class":"4","area":49604200,"source":"openstreetmap.org","min_zoom":8.0,"tier":2,"id":132054235,"name":"Gr\u012b\u0146u dabas rezerv\u0101ts"},"coordinates":[333,1320]},{"type":"Point","properties":{"kind":"protected_area","protect_class":"4","area":56639300,"source":"openstreetmap.org","min_zoom":8.0,"tier":2,"id":132054442,"name":"MANGENES MEZI"},"coordinates":[2598,2780]},{"type":"Point","properties":{"kind":"protected_area","protect_class":"4","area":25045500,"source":"openstreetmap.org","min_zoom":8.0,"tier":2,"id":132054723,"name":"Plu\u010du t\u012brelis"},"coordinates":[2858,3026]},{"type":"Point","properties":{"kind":"protected_area","protect_class":"4","area":15292400,"source":"openstreetmap.org","min_zoom":8.0,"tier":2,"id":132054799,"name":"RIEZUPE"},"coordinates":[2621,2350]},{"type":"Point","properties":{"kind":"protected_area","protect_class":"4","area":47943400,"source":"openstreetmap.org","min_zoom":8.0,"tier":2,"id":132054882,"name":"Sarnates purvs"},"coordinates":[1089,2950]},{"type":"Point","properties":{"kind":"protected_area","protect_class":"4","area":115752000,"source":"openstreetmap.org","min_zoom":7.0,"tier":2,"id":132054891,"name":"SATINU DIKI"},"coordinates":[3496,213]},{"type":"Point","properties":{"kind":"protected_area","protect_class":"4","area":23060100,"source":"openstreetmap.org","min_zoom":8.0,"tier":2,"id":132055063,"name":"U\u017eavas aug\u0161tece"},"coordinates":[1249,1953]},{"type":"Point","properties":{"kind":"protected_area","protect_class":"4","area":48611700,"source":"openstreetmap.org","min_zoom":8.0,"tier":2,"id":132055066,"name":"U\u017eavas lejtece"},"coordinates":[1199,3165]},{"type":"Point","properties":{"kind":"protected_area","protect_class":"4","area":82973900,"source":"openstreetmap.org","min_zoom":8.0,"tier":2,"id":132055106,"name":"VENTAS IELEJA"},"coordinates":[2546,2421]},{"type":"Point","properties":{"kind":"protected_area","protect_class":"4","area":45531800,"source":"openstreetmap.org","min_zoom":8.0,"tier":2,"id":132055107,"name":"Ventas un \u0161\u0137\u0113rvela ieleja"},"coordinates":[2597,115]},{"type":"Point","properties":{"kind":"protected_area","protect_class":"4","area":10346900,"source":"openstreetmap.org","min_zoom":8.0,"tier":2,"id":132055116,"name":"Visk\u016b\u017eu sala"},"coordinates":[3126,3303]},{"type":"Point","properties":{"kind":"protected_area","protect_class":"4","area":79228200,"source":"openstreetmap.org","min_zoom":8.0,"tier":2,"id":132055133,"name":"Ziemupe"},"coordinates":[18,1294]}]},"boundaries":{"type":"GeometryCollection","geometries":[{"type":"LineString","properties":{"name:kg":"Latvia","name:ka":"\u10da\u10d0\u10e2\u10d5\u10d8\u10d0","name:ko":"\ub77c\ud2b8\ube44\uc544","name:cv":"\u041b\u0430\u0442\u0432\u0438","name:cu":"\u041b\u0430\u0442\u0432\u0457\ua657","name:kl":"Letlandi","name:cs":"Loty\u0161sko","name:tt":"\u041b\u0430\u0442\u0432\u0438\u044f","name:co":"Lettonia","name:kv":"\u041b\u0430\u0442\u0432\u0438\u044f","name:ku":"Letonya","name:tl":"Latbiya","name:ce":"\u041b\u0430\u0442\u0432\u0438","name:ta":"\u0bb2\u0bbe\u0ba4\u0bcd\u0bb5\u0bbf\u0baf\u0bbe","name:tg":"\u041b\u0430\u0442\u0432\u0438\u044f","name:ca":"Let\u00f2nia","name:te":"\u0c32\u0c3e\u0c1f\u0c4d\u0c35\u0c3f\u0c2f\u0c3e","name:cy":"Latfia","name:da":"Letland","name:de":"Lettland","name:dz":"\u0f63\u0f7a\u0f4a\u0f72\u0f0b\u0f56\u0f72\u0f0b\u0f61\u0f0d","source":"openstreetmap.org","name:dv":"\u078d\u07ac\u0793\u07aa\u0788\u07a8\u0787\u07a7","name:uz":"Latviya","name:kk":"\u041b\u0430\u0442\u0432\u0438\u044f","name:ur":"\u0644\u0679\u0648\u06cc\u0627","name:lb":"Lettland","name:la":"Lettonia","name:uk":"\u041b\u0430\u0442\u0432\u0456\u044f","name:ug":"\u0644\u0627\u062a\u06cb\u0649\u064a\u06d5","name:li":"Letland","name:ln":"Letoni","name:el":"\u039b\u03b5\u03c4\u03bf\u03bd\u03af\u03b1","name:eo":"Latvujo","name:en":"Latvia","name":"Latvija","name:tk":"Latwi\u00fda","name:ee":"Latvia","name:th":"\u0e1b\u0e23\u0e30\u0e40\u0e17\u0e28\u0e25\u0e31\u0e15\u0e40\u0e27\u0e35\u0e22","name:eu":"Letonia","name:et":"L\u00e4ti","name:es":"Letonia","name:ia":"Latvia","name:rm":"Lettonia","name:az":"Latviya","name:ie":"Latvia","name:id":"Latvia","name:ar":"\u0644\u0627\u062a\u0641\u064a\u0627","name:io":"Latvia","name:is":"Lettland","name:am":"\u120b\u1275\u126a\u12eb","name:it":"Lettonia","name:an":"Letonia","name:ru":"\u041b\u0430\u0442\u0432\u0438\u044f","name:rw":"Lativiya","name:af":"Letland","name:zu":"ILatviya","kind_detail":"2","name:ky":"\u041b\u0430\u0442\u0432\u0438\u044f","name:zh-yue":"\u62c9\u812b\u7dad\u4e9e","name:zh":"\u62c9\u812b\u7dad\u4e9e","name:so":"Latfiya","name:sk":"Loty\u0161sko","name:ja":"\u30e9\u30c8\u30d3\u30a2","name:sh":"Letonija","name:se":"L\u00e1tvia","name:sc":"Lettonia","name:sa":"\u0932\u093e\u091f\u094d\u0935\u093f\u092f\u093e","name:bn":"\u09b2\u09be\u09a4\u09ad\u09bf\u09af\u09bc\u09be","name:bo":"\u0f63\u0f0b\u0f4a\u0f0b\u0f5d\u0f72\u0f61\u0f0d","name:br":"Latvia","name:sw":"Latvia","name:be":"\u041b\u0430\u0442\u0432\u0456\u044f","name:su":"Latvia","name:bg":"\u041b\u0430\u0442\u0432\u0438\u044f","name:ss":"ILathiviya","name:ba":"\u041b\u0430\u0442\u0432\u0438\u044f","name:sq":"Letonia","name:jv":"Latvia","name:bi":"Latvia","name:pt":"Let\u00f3nia","name:oc":"Let\u00f2nia","min_zoom":8.0,"name:ro":"Letonia","name:zh-min-nan":"Latvia","name:os":"\u041b\u0430\u0442\u0432\u0438","name:or":"\u0b32\u0b3e\u0b1f\u0b2d\u0b3f\u0b06","name:pl":"\u0141otwa","name:st":"Latvia","sort_rank":262,"name:sr":"\u041b\u0435\u0442\u043e\u043d\u0438\u0458\u0430","osm_relation":true,"name:tr":"Letonya","name:hi":"\u0932\u093e\u0924\u0935\u093f\u092f\u093e","name:sv":"Lettland","name:he":"\u05dc\u05d8\u05d1\u05d9\u05d4","name:hy":"\u053c\u0561\u057f\u057e\u056b\u0561","name:ht":"Letoni","name:hu":"Lettorsz\u00e1g","name:qu":"Litunya","kind":"country","name:yi":"\u05dc\u05e2\u05d8\u05dc\u05d0\u05e0\u05d3","name:yo":"L\u00e1tf\u00ed\u00e0","name:mt":"Latvja","alt_name:eo":"Latvio","name:ms":"Latvia","name:mr":"\u0932\u093e\u0924\u094d\u0935\u094d\u0939\u093f\u092f\u093e","name:my":"\u101c\u1010\u103a\u1017\u102e\u101a\u102c\u1014\u102d\u102f\u1004\u103a\u1004\u1036","official_name":"Latvijas Republika","name:kw":"Latvi","name:mg":"Latvia","name:vi":"Latvia","name:ml":"\u0d32\u0d3e\u0d24\u0d4d\u200c\u0d35\u0d3f\u0d2f","name:mn":"\u041b\u0430\u0442\u0432\u0438","name:mi":"R\u0101whia","id":-72594,"name:mk":"\u041b\u0430\u0442\u0432\u0438\u0458\u0430","name:vo":"Latviy\u00e4n","name:fa":"\u0644\u062a\u0648\u0646\u06cc","name:fi":"Latvia","name:fo":"Lettland","name:fr":"Lettonie","alt_name:es":"Latvia","name:fy":"Letl\u00e2n","int_name":"Latvia","name:nl":"Letland","name:nn":"Latvia","name:no":"Latvia","name:na":"Ratebiya","name:ne":"\u0932\u093e\u0924\u094d\u092d\u093f\u092f\u093e","name:wo":"Let\u00f3oni","name:nv":"L\u00e9tbiiya","name:ga":"An Laitvia","name:gd":"An Laitbhe","name:gn":"Leto\u00f1a","name:gl":"Letonia","maritime_boundary":true,"name:gv":"Yn Latvey","name:gu":"\u0ab2\u0abe\u0a9f\u0ab5\u0abf\u0aaf\u0abe"},"arcs":[0]},{"type":"LineString","properties":{"name:pt":"Curl\u00e2ndia","name:sk":"Kur\u00f3nsko","name:ja":"\u30af\u30fc\u30eb\u30e9\u30f3\u30c8","name:ka":"\u10d9\u10e3\u10e0\u10da\u10d0\u10dc\u10d3\u10d8\u10d0","name:ko":"\ucfe0\ub97c\ub780\ud2b8","name:ar":"\u0643\u0648\u0631\u0644\u0627\u0646\u062f","name:cs":"Kuronsko","min_zoom":8.0,"name:it":"Curlandia","name:ru":"\u041a\u0443\u0440\u0437\u0435\u043c\u0435","name:be":"\u041a\u0443\u0440\u043b\u044f\u043d\u0434\u044b\u044f","name:bg":"\u041a\u0443\u0440\u043b\u0430\u043d\u0434\u0438\u044f","name:lt":"Kur\u0161as","id":-1775676,"name:ca":"Curl\u00e0ndia","kind":"region","name:en":"Courland","name":"Kurzeme","source":"openstreetmap.org","sort_rank":256,"kind_detail":"4","name:de":"Kurland","name:tr":"Kurlandiya","maritime_boundary":true,"osm_relation":true,"name:fi":"Kuurinmaa","name:et":"Kuramaa","name:zh":"\u5eab\u723e\u862d","name:nl":"Koerland","name:es":"Curlandia"},"arcs":[1]}]},"roads":{"type":"GeometryCollection","geometries":[{"type":"LineString","properties":{"kind":"major_road","network":"lv:national","sort_rank":380,"kind_detail":"primary","source":"openstreetmap.org","min_zoom":8.0,"shield_text":"108","ref":"P118;P108"},"arcs":[5]},{"type":"LineString","properties":{"kind":"major_road","network":"lv:national","sort_rank":379,"kind_detail":"secondary","is_bicycle_related":true,"bicycle_shield_text":null,"bicycle_network":"icn","source":"openstreetmap.org","min_zoom":8.0,"shield_text":"119","ref":"P119"},"arcs":[6]},{"type":"LineString","properties":{"kind":"major_road","network":"lv:national","sort_rank":381,"kind_detail":"trunk","is_bicycle_related":true,"bicycle_shield_text":"R1","bicycle_network":"icn","source":"openstreetmap.org","min_zoom":8.0,"shield_text":"9","ref":"A9"},"arcs":[7]},{"type":"MultiLineString","properties":{"kind":"major_road","network":"lv:national","sort_rank":379,"kind_detail":"secondary","is_bicycle_related":true,"bicycle_shield_text":"R1","bicycle_network":"icn","source":"openstreetmap.org","min_zoom":8.0,"shield_text":"108","ref":"P108"},"arcs":[[8],[9]]},{"type":"LineString","properties":{"kind":"major_road","network":"lv:national","sort_rank":379,"landuse_kind":"protected_area","is_bicycle_related":true,"bicycle_shield_text":"R1","bicycle_network":"icn","source":"openstreetmap.org","min_zoom":8.0,"kind_detail":"secondary","shield_text":"121","ref":"P121"},"arcs":[10]},{"type":"MultiLineString","properties":{"kind":"major_road","network":"lv:national","sort_rank":380,"kind_detail":"primary","source":"openstreetmap.org","min_zoom":8.0,"shield_text":"117","ref":"P117"},"arcs":[[11],[12],[13],[14]]},{"type":"MultiLineString","properties":{"kind":"major_road","network":"lv:national","sort_rank":380,"kind_detail":"primary","source":"openstreetmap.org","min_zoom":8.0,"shield_text":"108","ref":"P108"},"arcs":[[15],[16],[17]]},{"type":"LineString","properties":{"kind":"ferry","name":"L\u00fcbeck - Ventspils - St.Petersburg","sort_rank":355,"source":"openstreetmap.org","min_zoom":8.0,"name:ru":"\u041b\u044e\u0431\u0435\u043a - \u0412\u0435\u043d\u0442\u0441\u043f\u0438\u043b\u0441 - \u0421\u0430\u043d\u043a\u0442-\u041f\u0435\u0442\u0435\u0440\u0431\u0443\u0440\u0433","id":-1664041,"osm_relation":true},"arcs":[18]},{"type":"LineString","properties":{"kind":"major_road","network":"lv:national","sort_rank":381,"kind_detail":"trunk","is_bicycle_related":true,"source":"openstreetmap.org","min_zoom":8.0,"shield_text":"10","ref":"A10","id":122189313},"arcs":[19]},{"type":"LineString","properties":{"kind":"major_road","network":"lv:national","sort_rank":380,"kind_detail":"primary","is_bicycle_related":true,"bicycle_shield_text":null,"bicycle_network":"icn","source":"openstreetmap.org","min_zoom":8.0,"landuse_kind":"protected_area","shield_text":"111","ref":"P111","id":332145610},"arcs":[20]},{"type":"LineString","properties":{"source":"openstreetmap.org","kind":"major_road","sort_rank":381,"kind_detail":"trunk","ref":"A10","min_zoom":8.0},"arcs":[21]},{"type":"MultiLineString","properties":{"kind":"major_road","network":"lv:national","sort_rank":380,"kind_detail":"primary","source":"openstreetmap.org","min_zoom":8.0,"shield_text":"105","ref":"P105"},"arcs":[[22],[23],[24],[25],[26],[27],[28],[29],[30],[31],[32],[33]]},{"type":"LineString","properties":{"kind":"major_road","network":"lv:regional","sort_rank":379,"kind_detail":"secondary","is_bicycle_related":true,"bicycle_shield_text":"LV1","bicycle_network":"ncn","source":"openstreetmap.org","min_zoom":8.0,"shield_text":"1190","ref":"V1190","id":40350982},"arcs":[34]},{"type":"MultiLineString","properties":{"kind":"path","sort_rank":354,"kind_detail":"pedestrian","is_bicycle_related":true,"bicycle_shield_text":"R1","bicycle_network":"icn","source":"openstreetmap.org","min_zoom":8.0},"arcs":[[35],[36],[37],[38]]},{"type":"LineString","properties":{"kind":"major_road","network":"lv:national","sort_rank":380,"kind_detail":"primary","is_bicycle_related":true,"bicycle_shield_text":null,"bicycle_network":"icn","source":"openstreetmap.org","min_zoom":8.0,"shield_text":"119","ref":"P119"},"arcs":[39]},{"type":"MultiLineString","properties":{"kind":"major_road","network":"lv:national","sort_rank":380,"kind_detail":"primary","source":"openstreetmap.org","min_zoom":8.0,"shield_text":"118","ref":"P118"},"arcs":[[40],[41],[42],[43],[44],[45]]},{"type":"LineString","properties":{"kind":"major_road","network":"lv:national","sort_rank":380,"kind_detail":"primary","is_bicycle_related":true,"source":"openstreetmap.org","min_zoom":8.0,"shield_text":"110","ref":"P110"},"arcs":[46]},{"type":"LineString","properties":{"source":"openstreetmap.org","kind":"major_road","sort_rank":380,"kind_detail":"primary","ref":"P105","min_zoom":8.0,"id":42506355},"arcs":[47]},{"type":"LineString","properties":{"kind":"major_road","network":"lv:national","sort_rank":380,"kind_detail":"primary","source":"openstreetmap.org","min_zoom":8.0,"shield_text":"108","ref":"P108;P118","id":4870183},"arcs":[48]},{"type":"LineString","properties":{"kind":"major_road","network":"lv:national","sort_rank":380,"kind_detail":"primary","is_bicycle_related":true,"source":"openstreetmap.org","min_zoom":8.0,"shield_text":"108","ref":"P108;P118","id":38756537},"arcs":[49]},{"type":"LineString","properties":{"bus_network":null,"network":"lv:national","sort_rank":380,"kind_detail":"primary","is_bicycle_related":true,"kind":"major_road","bicycle_shield_text":null,"bicycle_network":"icn","source":"openstreetmap.org","min_zoom":8.0,"bus_shield_text":"9","shield_text":"108","ref":"P108","id":262286974},"arcs":[50]},{"type":"LineString","properties":{"kind":"major_road","network":"lv:regional","sort_rank":379,"kind_detail":"secondary","is_bicycle_related":true,"bicycle_shield_text":null,"bicycle_network":"icn","source":"openstreetmap.org","min_zoom":8.0,"shield_text":"1229","ref":"V1229","id":90604967},"arcs":[51]},{"type":"LineString","properties":{"kind":"major_road","network":"lv:national","sort_rank":381,"kind_detail":"trunk","source":"openstreetmap.org","min_zoom":8.0,"shield_text":"9","ref":"A9;P108","id":37948791},"arcs":[52]},{"type":"LineString","properties":{"kind":"major_road","network":"lv:national","sort_rank":380,"kind_detail":"primary","source":"openstreetmap.org","min_zoom":8.0,"shield_text":"121","ref":"P121"},"arcs":[53]},{"type":"LineString","properties":{"kind":"minor_road","sort_rank":360,"kind_detail":"residential","is_bicycle_related":true,"bicycle_shield_text":"R1","bicycle_network":"icn","source":"openstreetmap.org","min_zoom":8.0,"landuse_kind":"protected_area","id":4427724},"arcs":[54]},{"type":"LineString","properties":{"kind":"major_road","network":"lv:national","sort_rank":380,"kind_detail":"primary","source":"openstreetmap.org","min_zoom":8.0,"shield_text":"107","ref":"P107","id":44171634},"arcs":[55]},{"type":"LineString","properties":{"kind":"major_road","network":"lv:regional","sort_rank":379,"kind_detail":"secondary","is_bicycle_related":true,"bicycle_shield_text":null,"bicycle_network":"icn","source":"openstreetmap.org","min_zoom":8.0,"shield_text":"1187","ref":"V1187"},"arcs":[56]},{"type":"LineString","properties":{"kind":"major_road","network":"lv:national","sort_rank":380,"kind_detail":"primary","source":"openstreetmap.org","min_zoom":8.0,"landuse_kind":"protected_area","shield_text":"108","ref":"P108","id":137011539},"arcs":[57]},{"type":"LineString","properties":{"kind":"major_road","network":"lv:national","sort_rank":380,"kind_detail":"primary","is_bicycle_related":true,"source":"openstreetmap.org","min_zoom":8.0,"landuse_kind":"protected_area","shield_text":"108","ref":"P108;P118","id":38756537},"arcs":[58]},{"type":"MultiLineString","properties":{"kind":"major_road","network":"lv:national","sort_rank":381,"kind_detail":"trunk","source":"openstreetmap.org","min_zoom":8.0,"shield_text":"10","name:ru":"\u0420\u0438\u0433\u0430 \u2014 \u0412\u0435\u043d\u0442\u0441\u043f\u0438\u043b\u0441","ref":"A10"},"arcs":[[59],[60]]},{"type":"LineString","properties":{"source":"openstreetmap.org","kind":"major_road","sort_rank":380,"kind_detail":"primary","ref":"P119","min_zoom":8.0},"arcs":[61]},{"type":"LineString","properties":{"kind":"major_road","network":"lv:national","sort_rank":380,"kind_detail":"primary","is_bicycle_related":true,"source":"openstreetmap.org","min_zoom":8.0,"shield_text":"120","ref":"P120","id":19786388},"arcs":[62]},{"type":"MultiLineString","properties":{"source":"openstreetmap.org","kind":"major_road","sort_rank":381,"kind_detail":"trunk","ref":"A9","min_zoom":8.0},"arcs":[[63],[64]]},{"type":"MultiLineString","properties":{"sort_rank":380,"kind_detail":"primary","min_zoom":8.0,"kind":"major_road","source":"openstreetmap.org"},"arcs":[[65],[66],[67],[68],[69],[70],[71],[72],[73]]},{"type":"LineString","properties":{"kind":"major_road","network":"lv:national","sort_rank":380,"kind_detail":"primary","is_bicycle_related":true,"source":"openstreetmap.org","min_zoom":8.0,"shield_text":"111","ref":"P111","id":274267263},"arcs":[74]},{"type":"LineString","properties":{"kind":"major_road","network":"lv:national","sort_rank":380,"kind_detail":"primary","source":"openstreetmap.org","min_zoom":8.0,"shield_text":"108","ref":"P118","id":38756536},"arcs":[75]},{"type":"LineString","properties":{"kind":"major_road","network":"lv:national","sort_rank":379,"kind_detail":"secondary","is_bicycle_related":true,"bicycle_shield_text":"R1","bicycle_network":"icn","source":"openstreetmap.org","min_zoom":8.0,"shield_text":"120","ref":"P120","id":532020430},"arcs":[76]},{"type":"LineString","properties":{"kind":"major_road","network":"lv:national","sort_rank":380,"kind_detail":"primary","source":"openstreetmap.org","min_zoom":8.0,"shield_text":"112","ref":"P112","id":148672164},"arcs":[77]},{"type":"LineString","properties":{"kind":"major_road","network":"lv:national","sort_rank":380,"kind_detail":"primary","is_bicycle_related":true,"source":"openstreetmap.org","min_zoom":8.0,"landuse_kind":"protected_area","shield_text":"108","ref":"P108","id":43018912},"arcs":[78]},{"type":"MultiLineString","properties":{"kind":"major_road","network":"lv:national","sort_rank":381,"kind_detail":"trunk","source":"openstreetmap.org","min_zoom":8.0,"shield_text":"10","ref":"A10"},"arcs":[[79],[80]]},{"type":"LineString","properties":{"kind":"major_road","network":"lv:national","sort_rank":380,"kind_detail":"primary","source":"openstreetmap.org","min_zoom":8.0,"shield_text":"122","ref":"P122"},"arcs":[81]},{"type":"LineString","properties":{"kind":"major_road","network":"lv:national","sort_rank":379,"kind_detail":"secondary","is_bicycle_related":true,"bicycle_shield_text":"R1","bicycle_network":"icn","source":"openstreetmap.org","min_zoom":8.0,"shield_text":"121","ref":"P121"},"arcs":[82]},{"type":"LineString","properties":{"source":"openstreetmap.org","kind":"major_road","sort_rank":380,"kind_detail":"primary","ref":"P112","min_zoom":8.0,"id":238472370},"arcs":[83]},{"type":"LineString","properties":{"kind":"major_road","network":"lv:national","sort_rank":380,"kind_detail":"primary","is_bicycle_related":true,"bicycle_shield_text":"R1","bicycle_network":"icn","source":"openstreetmap.org","min_zoom":8.0,"shield_text":"112","ref":"P112"},"arcs":[84]},{"type":"MultiLineString","properties":{"kind":"major_road","network":"lv:national","sort_rank":379,"kind_detail":"secondary","is_bicycle_related":true,"bicycle_shield_text":null,"bicycle_network":"icn","source":"openstreetmap.org","min_zoom":8.0,"shield_text":"108","ref":"P108"},"arcs":[[85],[86],[87]]},{"type":"LineString","properties":{"source":"openstreetmap.org","kind":"ferry","name":"L\u00fcbeck - Ventspils","sort_rank":355,"name:ru":"\u041b\u044e\u0431\u0435\u043a - \u0412\u0435\u043d\u0442\u0441\u043f\u0438\u043b\u0441","is_bicycle_related":true,"min_zoom":8.0},"arcs":[88]},{"type":"LineString","properties":{"kind":"major_road","network":"lv:national","sort_rank":380,"kind_detail":"primary","source":"openstreetmap.org","min_zoom":8.0,"landuse_kind":"protected_area","shield_text":"108","ref":"P108;P118","id":38759201},"arcs":[89]},{"type":"LineString","properties":{"kind":"major_road","network":"lv:national","sort_rank":380,"kind_detail":"primary","is_bicycle_related":true,"source":"openstreetmap.org","min_zoom":8.0,"landuse_kind":"protected_area","shield_text":"120","ref":"P120","id":19786388},"arcs":[90]},{"type":"LineString","properties":{"kind":"major_road","network":"lv:national","sort_rank":380,"kind_detail":"primary","source":"openstreetmap.org","min_zoom":8.0,"shield_text":"115","ref":"P115"},"arcs":[91]},{"type":"LineString","properties":{"kind":"major_road","network":"lv:regional","sort_rank":355,"kind_detail":"secondary_link","is_bicycle_related":true,"bicycle_shield_text":null,"bicycle_network":"icn","source":"openstreetmap.org","min_zoom":8.0,"is_link":true,"shield_text":"1187","ref":"V1187","id":177044614},"arcs":[92]},{"type":"MultiLineString","properties":{"kind":"major_road","network":"lv:national","sort_rank":380,"landuse_kind":"protected_area","is_bicycle_related":true,"bicycle_shield_text":"R1","bicycle_network":"icn","source":"openstreetmap.org","min_zoom":8.0,"kind_detail":"primary","shield_text":"120","ref":"P120"},"arcs":[[93],[94]]},{"type":"LineString","properties":{"kind":"major_road","network":"lv:national","sort_rank":380,"kind_detail":"primary","is_bicycle_related":true,"source":"openstreetmap.org","min_zoom":8.0,"shield_text":"108","ref":"P108","id":43018912},"arcs":[95]},{"type":"LineString","properties":{"kind":"major_road","network":"lv:national","sort_rank":380,"kind_detail":"primary","source":"openstreetmap.org","min_zoom":8.0,"shield_text":"111","ref":"P111","id":210633937},"arcs":[96]},{"type":"MultiLineString","properties":{"kind":"minor_road","sort_rank":360,"kind_detail":"residential","is_bicycle_related":true,"bicycle_shield_text":"R1","bicycle_network":"icn","source":"openstreetmap.org","min_zoom":8.0},"arcs":[[97],[98],[99],[100],[101]]},{"type":"MultiLineString","properties":{"source":"openstreetmap.org","kind":"major_road","landuse_kind":"protected_area","sort_rank":380,"kind_detail":"primary","min_zoom":8.0},"arcs":[[102],[103]]},{"type":"LineString","properties":{"kind":"major_road","int_name":"Piltenes street","network":"lv:national","sort_rank":379,"kind_detail":"secondary","is_bicycle_related":true,"bicycle_shield_text":null,"bicycle_network":"icn","source":"openstreetmap.org","min_zoom":8.0,"shield_text":"108","cycleway":"track","ref":"P108"},"arcs":[104]},{"type":"LineString","properties":{"kind":"major_road","network":"lv:national","sort_rank":380,"kind_detail":"primary","is_bicycle_related":true,"bicycle_shield_text":"R1","bicycle_network":"icn","source":"openstreetmap.org","min_zoom":8.0,"landuse_kind":"protected_area","shield_text":"130","ref":"P130","id":159916481},"arcs":[105]},{"type":"MultiLineString","properties":{"kind":"major_road","network":"lv:national","sort_rank":380,"kind_detail":"primary","is_bicycle_related":true,"bicycle_shield_text":"R1","bicycle_network":"icn","source":"openstreetmap.org","min_zoom":8.0,"shield_text":"120","ref":"P120"},"arcs":[[106],[107]]},{"type":"MultiLineString","properties":{"kind":"major_road","network":"lv:national","sort_rank":380,"kind_detail":"primary","source":"openstreetmap.org","min_zoom":8.0,"shield_text":"116","ref":"P116"},"arcs":[[108],[109],[110],[111]]},{"type":"LineString","properties":{"source":"openstreetmap.org","kind":"major_road","sort_rank":380,"kind_detail":"primary","ref":"P116","min_zoom":8.0,"id":360736244},"arcs":[112]},{"type":"MultiLineString","properties":{"kind":"major_road","sort_rank":379,"kind_detail":"secondary","is_bicycle_related":true,"bicycle_shield_text":null,"bicycle_network":"icn","source":"openstreetmap.org","min_zoom":8.0},"arcs":[[113],[114],[115]]},{"type":"LineString","properties":{"kind":"major_road","network":"lv:national","sort_rank":380,"kind_detail":"primary","source":"openstreetmap.org","min_zoom":8.0,"landuse_kind":"nature_reserve","shield_text":"117","ref":"P117","id":221299550},"arcs":[116]},{"type":"MultiLineString","properties":{"kind":"major_road","network":"lv:national","sort_rank":380,"kind_detail":"primary","is_bicycle_related":true,"bicycle_shield_text":null,"bicycle_network":"icn","source":"openstreetmap.org","min_zoom":8.0,"shield_text":"111","ref":"P111"},"arcs":[[117],[118]]},{"type":"LineString","properties":{"kind":"major_road","network":"lv:national","sort_rank":380,"kind_detail":"primary","source":"openstreetmap.org","min_zoom":8.0,"landuse_kind":"protected_area","shield_text":"108","ref":"P118;P108","id":38759202},"arcs":[119]},{"type":"MultiLineString","properties":{"kind":"major_road","network":"lv:national","sort_rank":380,"kind_detail":"primary","is_bicycle_related":true,"source":"openstreetmap.org","min_zoom":8.0,"shield_text":"118","ref":"P118"},"arcs":[[120],[121]]},{"type":"LineString","properties":{"kind":"major_road","network":"lv:national","sort_rank":379,"kind_detail":"secondary","is_bicycle_related":true,"bicycle_shield_text":"R1","bicycle_network":"icn","source":"openstreetmap.org","min_zoom":8.0,"shield_text":"112","ref":"P112","id":4870184},"arcs":[122]},{"type":"LineString","properties":{"kind":"major_road","network":"lv:national","sort_rank":380,"kind_detail":"primary","source":"openstreetmap.org","min_zoom":8.0,"shield_text":"123","ref":"P123"},"arcs":[123]},{"type":"LineString","properties":{"kind":"major_road","network":"lv:national","sort_rank":380,"kind_detail":"primary","is_bicycle_related":true,"bicycle_shield_text":null,"bicycle_network":"icn","source":"openstreetmap.org","min_zoom":8.0,"shield_text":"108","ref":"P108"},"arcs":[124]},{"type":"MultiLineString","properties":{"kind":"major_road","network":"lv:national","sort_rank":381,"kind_detail":"trunk","source":"openstreetmap.org","min_zoom":8.0,"shield_text":"9","ref":"A9"},"arcs":[[125],[126],[127],[128],[129],[130]]}]},"earth":{"type":"GeometryCollection","geometries":[{"type":"Polygon","properties":{"sort_rank":10,"source":"naturalearthdata.com","kind":"earth","min_zoom":0.0,"id":4768},"arcs":[[131]]}]},"landuse":{"type":"GeometryCollection","geometries":[{"type":"MultiPolygon","properties":{"source":"openstreetmap.org","kind":"protected_area","tier":2,"protect_class":"4","area":804268846,"sort_rank":17,"min_zoom":8.0},"arcs":[[[132]],[[133]],[[134]],[[135]],[[136]],[[137]],[[138]],[[139]],[[140]],[[141]],[[142]],[[143]],[[144]]]},{"type":"MultiPolygon","properties":{"source":"openstreetmap.org","kind":"protected_area","tier":2,"protect_class":"4","area":260952562,"sort_rank":17,"min_zoom":7.0},"arcs":[[[145]]]},{"type":"Polygon","properties":{"kind":"protected_area","protect_class":"4","area":499196000,"sort_rank":17,"source":"openstreetmap.org","min_zoom":6.0,"tier":2,"id":132054100},"arcs":[[146]]},{"type":"Polygon","properties":{"kind":"nature_reserve","protect_class":"4","area":16422400,"sort_rank":23,"source":"openstreetmap.org","min_zoom":8.0,"tier":2,"id":132054950},"arcs":[[147]]},{"type":"MultiPolygon","properties":{"source":"openstreetmap.org","kind":"protected_area","tier":2,"area":225794692,"sort_rank":17,"min_zoom":7.0,"osm_relation":true},"arcs":[[[148]]]}]}},"type":"Topology","transform":{"translate":[21.09375,56.5594824838],"scale":[0.0003433228,0.0001872653]},"arcs":[[[138,4096],[-126,-573],[-12,-85]],[[1071,4096],[-106,-146],[-35,-128],[-19,-541],[32,-501],[-58,-267],[-122,-232],[-200,-182],[-117,-176],[-138,-112],[-96,-36],[-212,-188]],[[4096,690],[-86,-15],[-664,134],[-121,0],[-464,-130],[-44,-33],[-217,29],[-112,-39],[-44,-78],[-165,-24],[-201,-94],[-102,-15],[-257,-178],[-50,-71],[-181,-90],[-241,-33],[-182,-53]],[[1091,4096],[-5,-5],[-50,-30],[-46,-72],[-36,-95],[-19,-95],[-6,-111],[6,-348],[-6,-47],[-28,-75],[-6,-58],[32,-143],[8,-57],[-3,-217],[-35,-190],[-56,-153],[-65,-103],[-93,-86],[-82,-75],[-36,-21],[-30,-34],[-106,-165],[-53,-57],[-193,-118],[-27,-49],[-156,-104],[0,2508],[1091,0]],[[0,1588],[156,104],[27,49],[193,118],[53,57],[106,165],[30,34],[36,21],[82,75],[93,86],[65,103],[56,153],[35,190],[3,217],[-8,57],[-32,143],[6,58],[28,75],[6,47],[-6,348],[6,111],[19,95],[36,95],[46,72],[50,30],[5,5]],[[2657,2154],[1,0]],[[2501,2185],[-46,-15]],[[494,0],[23,33]],[[2514,2179],[9,5]],[[2514,2179],[-1,-1],[1,-1],[1,1],[-1,1]],[[2567,2190],[18,6]],[[2564,616],[-81,44],[-71,-16],[-198,74],[-206,30],[-76,114],[-74,49],[-134,24],[-103,-39],[-36,-41],[-105,8]],[[2601,595],[-16,9]],[[2602,594],[-1,1]],[[2603,595],[-2,0]],[[4014,659],[-1,2]],[[4014,659],[1,-3]],[[4016,657],[-2,2]],[[0,3988],[242,108]],[[4096,3492],[-236,-44],[-105,-69]],[[979,3221],[0,-4]],[[3210,3654],[-200,69],[-61,-4],[-62,41]],[[4010,480],[11,-28],[-43,-70],[-57,-363],[-10,-19]],[[3844,583],[184,-27]],[[4008,484],[22,69]],[[4008,481],[2,-1]],[[4010,480],[-1,2]],[[4028,556],[1,-1]],[[4030,556],[-2,0]],[[4029,554],[1,-1]],[[4030,556],[-1,-1],[1,-1],[1,1],[-1,1]],[[4030,553],[0,1]],[[4008,484],[-1,-2],[1,-1]],[[4008,481],[2,1],[-2,2]],[[0,907],[226,-107]],[[2532,2184],[-5,0]],[[2533,2184],[8,-1]],[[2541,2183],[8,0]],[[2555,2183],[-6,0]],[[865,2416],[88,13],[91,-22],[51,-55],[250,-108],[86,47],[81,6],[65,45],[96,4],[61,102],[395,-210],[112,-2],[162,-68],[47,2]],[[2436,2270],[3,-4]],[[2601,2125],[1,-3]],[[2610,2128],[-3,0]],[[2658,2154],[5,4]],[[2684,2204],[9,47]],[[2684,2201],[1,1]],[[31,0],[104,90]],[[4008,484]],[[2602,2123],[4,-1],[2,5],[-5,1],[-1,-5]],[[2610,2128],[28,15]],[[1352,3987],[18,109]],[[103,526],[-103,-6]],[[4020,655],[-4,2],[-2,-3],[4,-3],[2,4]],[[2685,2204],[443,-117],[369,17],[300,-16],[98,-40],[120,39],[81,-70]],[[2567,2190]],[[2821,635],[-36,-153],[28,-151],[100,-36],[54,-59],[14,-74],[151,-93],[58,-69]],[[230,1761],[146,-54]],[[2650,2144],[0,10]],[[2638,2143],[5,3]],[[2887,3760],[-2,2]],[[3755,3379],[-1,0]],[[2452,2171],[1,-1]],[[4096,2942],[-67,-110]],[[2675,610],[2,0]],[[2691,610],[1,0]],[[2657,2158],[-2,-1]],[[2684,2202],[0,-1]],[[2685,2204],[-1,1]],[[2685,2202],[1,1]],[[3859,580],[-1,3]],[[4031,556],[-15,96]],[[4031,556],[-1,0]],[[4031,555],[0,1]],[[2684,2204],[-1,-1],[1,-1],[1,1],[-1,1]],[[103,526],[2,-263],[30,-173]],[[2608,2125],[2,3]],[[2693,2251],[-60,-47]],[[519,35],[-1,1]],[[2694,2084],[-44,60]],[[2885,3762],[-182,72],[5,30],[-133,86],[-97,146]],[[3754,3379],[-153,14],[-126,72],[-63,71],[-103,-11],[-99,129]],[[1591,4096],[45,-331],[-34,-82],[95,-125]],[[2585,2196],[48,8]],[[2480,2129],[3,6]],[[2483,2135],[-114,-207],[-9,-66],[-152,-236],[-172,-67],[-236,-221],[-146,-84],[-71,-78],[-58,-99],[-38,-211],[-248,-72],[-96,16],[-244,-133],[-69,-112],[-82,-18],[-146,-108],[-86,-289],[1,-117]],[[2503,2230],[-62,38]],[[2523,2189],[0,-5]],[[2504,2230],[-1,0],[1,-2],[1,1],[-1,1]],[[0,3988],[242,108]],[[2643,2146],[8,4]],[[4029,2832],[-12,-31]],[[1493,847],[102,-170],[15,-161],[136,-182],[35,21],[52,-33],[58,-102]],[[376,1707],[3,0]],[[3756,2845],[-228,-33],[-52,-97]],[[4017,2801],[-117,-6],[-119,42]],[[4013,661],[-238,186],[-43,163],[-97,82],[-57,140],[-128,117],[-80,126],[-129,78],[-155,21],[-28,85],[-126,90],[-128,140],[-14,62],[-96,133]],[[135,90],[21,-90]],[[2523,2184],[4,0]],[[2533,2184],[-1,0]],[[2541,2183]],[[2549,2183]],[[2555,2183],[12,7]],[[2650,2154],[-1,3]],[[2655,2157],[-2,-1]],[[2523,2189],[-18,40]],[[4096,2815],[-79,-14]],[[3476,2715],[-206,-140],[-270,-242],[-98,-18],[-72,-45],[-137,-19]],[[3781,2837],[-25,8]],[[2187,0],[9,45],[114,58],[53,107],[290,190],[54,145],[-15,65]],[[2605,2121],[3,-1]],[[2608,2120],[0,3]],[[2691,610],[-19,216],[-106,267],[167,339],[16,408],[-141,280]],[[2691,610],[-1,2]],[[2501,2185],[14,-1]],[[2504,2230],[-2,2]],[[2504,2228],[2,-1]],[[2585,604],[-21,12]],[[979,3217],[-22,-585],[-24,-103],[-149,-234],[-7,-63],[-215,-182],[-65,-108],[-83,-67],[-35,-252],[-50,-33],[-12,-56],[53,-79],[19,-147],[84,-169],[0,-95],[-247,-244],[-123,-274]],[[1415,3823],[-164,-133],[-18,-41],[-167,-106],[-82,-206],[-5,-116]],[[2651,2150],[6,4]],[[2439,2266],[38,-130],[57,-26],[65,12]],[[2663,2158],[21,43]],[[2514,2177],[-31,-42]],[[2703,3834],[-29,-111],[-72,-87],[-104,-277],[-90,-113],[-210,-133],[-158,-174],[-61,-22]],[[2441,2268],[-276,278],[-80,158],[-77,88],[-26,120],[-435,511],[-195,564]],[[517,33],[274,139],[694,-16],[91,30],[119,-39],[124,27],[483,282],[374,154],[185,29],[429,-11],[312,-48],[103,19],[155,-16],[152,69]],[[4014,655],[-2,-3]],[[4012,652],[3,0]],[[4022,656],[-2,0]],[[4020,654],[2,2]],[[4096,684],[-74,-28]],[[0,1588],[156,104],[27,49],[193,118],[53,57],[106,165],[30,34],[36,21],[82,75],[93,86],[65,103],[56,153],[35,190],[3,217],[-8,57],[-32,143],[6,58],[28,75],[6,47],[-6,348],[6,111],[19,95],[36,95],[46,72],[50,30],[5,5],[3005,0],[0,-4096],[-4096,0],[0,1588]],[[2513,0],[-43,0],[18,41],[94,39],[-21,59],[53,13],[21,38],[-60,77],[3,39],[24,7],[77,-78],[-24,-124],[-45,-18],[51,-20],[49,-73],[-84,0],[-14,27],[-17,-27],[-4,0],[-16,11],[-16,-11],[-25,0],[-14,8],[-7,-8]],[[0,1519],[0,53],[13,10],[34,-30],[-47,-33]],[[0,1275],[0,82],[128,-42],[25,-24],[23,-124],[-176,-32],[0,57],[43,31],[-42,52],[-1,0]],[[771,357],[78,60],[188,-61],[-13,-27],[-124,-1],[-31,31],[-72,-51],[-26,49]],[[1814,0],[-78,0],[28,34],[51,-23],[-1,-11]],[[2500,2845],[154,29],[8,46],[62,9],[7,-45],[-25,-3],[-21,-97],[19,-61],[51,8],[8,-51],[-69,-57],[-41,92],[-26,-4],[-9,51],[-43,-19],[2,-54],[-53,5],[-24,151]],[[3053,3273],[36,31],[-20,28],[69,8],[21,25],[8,-69],[-51,-47],[-40,-3],[-23,27]],[[966,2777],[50,104],[-29,15],[13,30],[53,-1],[31,48],[-24,139],[42,35],[9,-5],[-1,1],[-3,90],[65,-1],[21,64],[29,-18],[67,-99],[-11,-83],[42,-73],[-172,26],[-4,10],[-42,-169],[33,-35],[-89,-99],[-68,-10],[-12,31]],[[2779,3064],[138,28],[22,-41],[-5,-90],[-62,-25],[-32,51],[-44,-9],[-17,86]],[[1225,1955],[7,105],[49,48],[27,-28],[1,-55],[-57,-13],[2,-37],[57,-53],[-21,-80],[-43,-43],[-22,156]],[[2574,2386],[24,38],[16,-33],[40,7],[8,-50],[50,7],[12,-47],[-35,-29],[-69,8],[-8,53],[-33,-5],[-5,51]],[[2266,2880],[27,5],[50,-60],[32,6],[89,-251],[26,4],[7,-53],[25,4],[8,-53],[55,9],[8,-42],[22,5],[-41,-68],[-3,-168],[23,-38],[45,6],[118,-222],[-53,-11],[-54,85],[26,27],[-36,23],[-3,85],[-67,5],[-16,69],[-46,14],[9,40],[-17,-16],[-13,47],[36,20],[0,59],[-29,0],[-27,95],[-50,1],[-33,149],[-49,63],[-34,-5],[10,26],[-25,8],[21,108],[-41,24]],[[206,1240],[105,105],[-61,62],[82,83],[37,-35],[-17,-78],[60,-181],[-54,-53],[-79,80],[-25,-31],[-48,48]],[[3513,0],[-98,0],[-35,32],[66,165],[-50,50],[-18,76],[133,5],[-11,123],[56,-20],[31,28],[30,-41],[20,64],[52,-73],[74,-17],[26,29],[23,-41],[-17,-17],[-32,29],[-23,-51],[-23,26],[-7,-44],[26,-16],[-28,-37],[-32,43],[-37,-2],[-10,-45],[-7,45],[-85,-22],[44,-28],[-30,-26],[10,-101],[44,-19],[-126,-50],[44,-57],[-10,-8]],[[2314,2866],[37,34],[273,42],[-8,42],[107,25],[8,-43],[44,8],[9,-43],[86,17],[9,-42],[143,40],[42,-95],[50,7],[9,-52],[76,13],[9,-51],[76,12],[6,-35],[149,10],[-7,27],[60,8],[66,58],[28,-18],[9,31],[57,-23],[67,19],[119,-38],[29,30],[60,-16],[62,19],[45,-23],[38,23],[-4,-29],[28,5],[0,-62],[-86,-32],[-12,-83],[-62,24],[15,48],[-37,24],[-554,-40],[-3,-19],[-47,20],[-33,-34],[-57,-9],[-7,51],[-59,-9],[-4,31],[-78,-12],[-8,55],[-26,-4],[-7,49],[-25,-4],[-8,50],[-181,-27],[-8,50],[-78,-11],[-7,45],[-62,-9],[-8,-46],[-139,-19],[-36,-51],[-37,27],[12,15],[-108,-20],[-32,40]],[[2543,581],[40,68],[-20,119],[30,39],[26,-3],[24,-82],[-18,-75],[-17,-39],[-32,-6],[14,-13],[-47,-8]],[[798,3329],[65,67],[-28,203],[56,52],[-26,107],[113,-21],[-24,-72],[-20,5],[27,-129],[33,2],[26,-105],[-45,-83],[4,-138],[-123,-17],[-58,129]]]}