{"objects":{"water":{"type":"GeometryCollection","geometries":[]},"buildings":{"type":"GeometryCollection","geometries":[]},"places":{"type":"GeometryCollection","geometries":[{"type":"Point","properties":{"kind":"region","name:en":"Tel\u0161iai County","name":"Tel\u0161i\u0173 apskritis","kind_detail":"state","min_zoom":4.0,"name:de":"Bezirk Telsche","source":"openstreetmap.org","name:fr":"Apskritis de Tel\u0161iai","name:uk":"\u0422\u0435\u043b\u044c\u0448\u044f\u0439\u0441\u044c\u043a\u0438\u0439 \u043f\u043e\u0432\u0456\u0442","name:be":"\u0426\u0435\u043b\u044c\u0448\u0430\u0439\u0441\u043a\u0456 \u043f\u0430\u0432\u0435\u0442","name:ru":"\u0422\u0435\u043b\u044c\u0448\u044f\u0439\u0441\u043a\u0438\u0439 \u0443\u0435\u0437\u0434","name:pl":"okr\u0119g telsza\u0144ski","id":941339901},"coordinates":[2837,1506]},{"type":"Point","properties":{"kind":"region","name:en":"Klaip\u0117da County","name":"Klaip\u0117dos apskritis","kind_detail":"state","min_zoom":4.0,"name:de":"Bezirk Memel","source":"openstreetmap.org","name:fr":"Apskritis de Klaip\u0117da","name:uk":"\u041a\u043b\u0430\u0439\u043f\u0435\u0434\u0441\u044c\u043a\u0438\u0439 \u043f\u043e\u0432\u0456\u0442","name:be":"\u041a\u043b\u0430\u0439\u043f\u0435\u0434\u0441\u043a\u0456 \u043f\u0430\u0432\u0435\u0442","name:ru":"\u041a\u043b\u0430\u0439\u043f\u0435\u0434\u0441\u043a\u0438\u0439 \u0443\u0435\u0437\u0434","name:pl":"okr\u0119g k\u0142ajpedzki","id":941339954},"coordinates":[415,0]},{"type":"Point","properties":{"name:el":"\u039c\u03b1\u03b6\u03b5\u03ca\u03ba\u03b9\u03ac\u03b9","kind":"locality","name:lv":"Ma\u017eei\u0137i","name":"Ma\u017eeikiai","name:ka":"\u10db\u10d0\u10df\u10d4\u10d8\u10d9\u10d8\u10d0\u10d8","name:ko":"\ub9c8\uc81c\uc774\uce74\uc774\uc544\uc774","kind_detail":"town","name:de":"Moscheiken","source":"openstreetmap.org","min_zoom":8.0,"name:uk":"\u041c\u0430\u0436\u0435\u0439\u043a\u044f\u0439","name:ru":"\u041c\u0430\u0436\u0435\u0439\u043a\u044f\u0439","name:pl":"Mo\u017cejki","id":420579738,"population":37020},"coordinates":[3625,2799]},{"type":"Point","properties":{"kind":"locality","name:lv":"Tel\u0161i","name":"Tel\u0161iai","name:ka":"\u10e2\u10d4\u10da\u10e8\u10d8\u10d0\u10d8","kind_detail":"town","name:he":"\u05d8\u05dc\u05d6","name:eo":"Tel\u015diao","name:de":"Telsche","source":"openstreetmap.org","min_zoom":8.0,"name:uk":"\u0422\u0435\u043b\u044c\u0448\u0435","name:ru":"\u0422\u044f\u043b\u044c\u0448\u044f\u0439","name:pl":"Telsze","id":442012721,"population":25540},"coordinates":[3365,1088]},{"type":"Point","properties":{"name:ay":"Plu\u00f1hi","name:sr":"\u041f\u043b\u0443\u043d\u0433\u0435","name:lv":"Plu\u0146\u0123e","name:ja":"\u30d7\u30eb\u30f3\u30b2","name:ka":"\u10de\u10da\u10e3\u10dc\u10d2\u10d4","name:ko":"\ud50c\ub8fd\uac8c","name:he":"\u05e4\u05dc\u05d5\u05e0\u05d2\u05d4","min_zoom":8.0,"name:uk":"\u041f\u043b\u0443\u043d\u0433\u0435","name:be":"\u041f\u043b\u0443\u043d\u0433\u0435","name:ru":"\u041f\u043b\u0443\u043d\u0433\u0435","name:pl":"P\u0142ungiany","name:bg":"\u041f\u043b\u0443\u043d\u0433\u0435","id":32444802,"population":20041,"name:fa":"\u067e\u0644\u0648\u0646\u06af\u0647","kind":"locality","name":"Plung\u0117","kind_detail":"town","name:de":"Plungen","source":"openstreetmap.org","name:zh":"\u666e\u502b\u84cb"},"coordinates":[2213,719]},{"type":"Point","properties":{"name:sr":"\u041a\u0440\u0435\u0442\u0438\u043d\u0433\u0430","name:az":"Kryatinq\u0430","name:ja":"\u30af\u30ec\u30c6\u30a3\u30f3\u30ac","name:ka":"\u10d9\u10e0\u10d4\u10e2\u10d8\u10dc\u10d2\u10d0","name:ko":"\ud06c\ub808\ud305\uac00","name:kk":"\u041a\u0440\u0435\u0442\u0438\u043d\u0433\u0430","min_zoom":8.0,"name:uk":"\u041a\u0440\u0435\u0442\u0438\u043d\u0433\u0430","name:be":"\u041a\u0440\u044d\u0446\u0456\u043d\u0433\u0430","name:ru":"\u041a\u0440\u0435\u0442\u0438\u043d\u0433\u0430","name:pl":"Kretynga","name:bg":"\u041a\u0440\u0435\u0442\u0438\u043d\u0433\u0430","id":33700304,"name:mk":"\u041a\u0440\u0435\u0442\u0438\u043d\u0433\u0430","population":19010,"name:el":"\u039a\u03c1\u03ad\u03c4\u03b9\u03bd\u03b3\u03ba\u03b1","kind":"locality","name":"Kretinga","kind_detail":"town","name:de":"Crottingen","source":"openstreetmap.org","name:zh":"\u514b\u96f7\u5ef7\u52a0"},"coordinates":[433,593]},{"type":"Point","properties":{"kind":"locality","name:lv":"Skoda","name":"Skuodas","kind_detail":"town","name:de":"Schoden","source":"openstreetmap.org","min_zoom":8.0,"name:uk":"\u0421\u043a\u0443\u043e\u0434\u0430\u0441","name:ru":"\u0421\u043a\u0443\u043e\u0434\u0430\u0441","name:pl":"Szkudy","old_name:de":"Johannesberg","id":281098650,"population":6513},"coordinates":[1253,2577]},{"type":"Point","properties":{"kind":"locality","name":"Grobi\u0146a","name:lt":"Gruobinia","kind_detail":"town","name:de":"Grobin","source":"openstreetmap.org","min_zoom":8.0,"name:uk":"\u0413\u0440\u043e\u0431\u0456\u043d\u044f","name:ru":"\u0413\u0440\u043e\u0431\u0438\u043d\u044f","id":281102424,"population":4184},"coordinates":[215,3978]},{"type":"Point","properties":{"kind":"locality","name":"Priekule","name:lt":"Priekul\u0117","kind_detail":"town","name:de":"Preekuln","source":"openstreetmap.org","min_zoom":8.0,"name:ru":"\u041f\u0440\u0438\u0435\u043a\u0443\u043b\u0435","id":561313673,"population":2377},"coordinates":[1477,3521]},{"type":"Point","properties":{"kind":"locality","name:lv":"Salanti","name":"Salantai","kind_detail":"town","name:he":"\u05e1\u05dc\u05e0\u05d8","name:de":"Gr\u00e4nishof","source":"openstreetmap.org","min_zoom":8.0,"name:ru":"\u0421\u0430\u043b\u0430\u043d\u0442\u0430\u0439","name:pl":"Sa\u0142anty","id":751723413,"population":1615},"coordinates":[1383,1480]},{"type":"Point","properties":{"kind":"locality","name":"Tirk\u0161liai","kind_detail":"town","name:de":"Tirxellen","source":"openstreetmap.org","min_zoom":8.0,"name:pl":"Tyrkszle","id":348535779,"population":1507},"coordinates":[3526,2545]},{"type":"Point","properties":{"alt_name:ru":"\u0414\u043e\u0440\u0431\u044f\u043d\u044b","kind":"locality","name":"Darb\u0117nai","kind_detail":"town","name:de":"Dorben","source":"openstreetmap.org","min_zoom":8.0,"name:ru":"\u0414\u0430\u0440\u0431\u0435\u043d\u0430\u0439","name:pl":"Dorbiany","id":2150647942,"population":1461},"coordinates":[467,1290]},{"type":"Point","properties":{"kind":"locality","name":"Mos\u0117dis","kind_detail":"town","name:de":"Maischaden","source":"openstreetmap.org","min_zoom":8.0,"name:ru":"\u041c\u043e\u0441\u0435\u0434\u0438\u0441","name:pl":"Masiady","id":1901867964,"population":1141},"coordinates":[1411,2036]},{"type":"Point","properties":{"name:fa":"\u0634\u0647\u0631","kind":"locality","name":"Seda","kind_detail":"town","source":"openstreetmap.org","min_zoom":8.0,"name:ru":"\u0421\u044f\u0434\u0430","name:pl":"Siady","population":1138,"id":501570740,"name:ja":"\u30bb\u30c0"},"coordinates":[2911,2044]},{"type":"Point","properties":{"kind":"locality","name":"Ylakiai","kind_detail":"town","name:de":"Illock","source":"openstreetmap.org","min_zoom":8.0,"name:ru":"\u0418\u043b\u0430\u043a\u044f\u0439","name:pl":"I\u0142oki","id":1029257011,"population":950},"coordinates":[2201,2631]},{"type":"Point","properties":{"kind":"locality","name":"Kretingal\u0117","name:ka":"\u10d9\u10e0\u10d4\u10e2\u10d8\u10dc\u10d2\u10d0\u10da\u10d4","kind_detail":"town","name:de":"Deutsch-Krottingen","source":"openstreetmap.org","min_zoom":8.0,"name:ru":"\u041a\u0440\u044f\u0442\u0438\u043d\u0433\u0430\u043b\u0435","name:be":"\u041a\u0440\u044d\u0442\u044b\u043d\u0433\u0430\u043b\u044b","name:pl":"Krotynga","id":906716494,"population":936},"coordinates":[279,308]},{"type":"Point","properties":{"kind":"locality","name":"Kartena","kind_detail":"town","name:de":"Karten","source":"openstreetmap.org","min_zoom":8.0,"name:pl":"Korciany","id":751707555,"population":931},"coordinates":[1107,752]},{"type":"Point","properties":{"kind":"locality","name:he":"\u05d0\u05dc\u05e1\u05d9\u05d0\u05d3","name":"Als\u0117d\u017eiai","kind_detail":"town","old_name:ru":"\u041e\u043b\u044c\u0441\u044f\u0434\u044b","name:de":"Alschaden","source":"openstreetmap.org","min_zoom":8.0,"name:ru":"\u0410\u043b\u044c\u0441\u0435\u0434\u0436\u044f\u0439","name:pl":"Olsiady","id":1550846401,"population":896},"coordinates":[2780,1320]},{"type":"Point","properties":{"kind":"locality","name":"Plateliai","kind_detail":"town","alt_name:pl":"P\u0142otele","name:de":"Plateln","source":"openstreetmap.org","min_zoom":8.0,"name:pl":"P\u0142\u00f3tele","id":66838626,"population":857},"coordinates":[2125,1413]},{"type":"Point","properties":{"kind":"locality","name:pl":"Kalwaria \u017bmudzka","name:lv":"\u017demai\u010du Kalvarija","name":"\u017demai\u010di\u0173 Kalvarija","name:ka":"\u10df\u10d4\u10db\u10d0\u10d8\u10e9\u10d8\u10e3-\u10d9\u10d0\u10da\u10d5\u10d0\u10e0\u10d8\u10d0","kind_detail":"town","source":"openstreetmap.org","min_zoom":8.0,"name:la":"Calvaria Samogitiensium","name:uk":"\u0416\u0435\u043c\u0430\u0439\u0447\u0456\u0443-\u041a\u0430\u043b\u044c\u0432\u0430\u0440\u0456\u044f","name:ru":"\u0416\u0435\u043c\u0430\u0439\u0447\u044e-\u041a\u0430\u043b\u0432\u0430\u0440\u0438\u044f","name:fy":"Zemaitiu Kalvareje","name:be":"\u041a\u0430\u043b\u044c\u0432\u0430\u0440\u044b\u044f \u0416\u0430\u043c\u043e\u0439\u0446\u043a\u0430\u044f","id":812892449,"population":696},"coordinates":[2677,1746]},{"type":"Point","properties":{"kind":"locality","name":"Lenkimai","kind_detail":"town","name:de":"Lansem","source":"openstreetmap.org","min_zoom":8.0,"name:ru":"\u041b\u044f\u043d\u043a\u0438\u043c\u0430\u0439","name:pl":"Lenkimy","id":281098725,"population":647},"coordinates":[642,2172]},{"type":"Point","properties":{"kind":"locality","name":"Eigird\u017eiai","kind_detail":"town","source":"openstreetmap.org","min_zoom":8.0,"name:pl":"Ejgirdzie","id":1550951952,"population":630},"coordinates":[3734,1216]},{"type":"Point","properties":{"kind":"locality","name":"Kuliai","kind_detail":"town","source":"openstreetmap.org","min_zoom":8.0,"name:pl":"Kule","id":1067351564,"population":625},"coordinates":[1632,154]},{"type":"Point","properties":{"kind":"locality","name":"Plikiai","kind_detail":"town","name:de":"Plieken","source":"openstreetmap.org","min_zoom":8.0,"name:pl":"Pliki","id":906775000,"population":607},"coordinates":[548,73]},{"type":"Point","properties":{"kind":"locality","name":"Nevar\u0117nai","kind_detail":"town","source":"openstreetmap.org","min_zoom":8.0,"name:pl":"Nieworany","id":1209327736,"population":552},"coordinates":[3476,1731]},{"type":"Point","properties":{"kind":"locality","name":"Barsty\u010diai","kind_detail":"town","name:de":"Jegminsburg","source":"openstreetmap.org","min_zoom":8.0,"name:ru":"\u0411\u0430\u0440\u0441\u0442\u0438\u0447\u044f\u0439","name:pl":"Barszczyce","id":751829269,"population":528},"coordinates":[2270,2010]},{"type":"Point","properties":{"kind":"locality","name":"\u017dar\u0117nai","kind_detail":"town","source":"openstreetmap.org","min_zoom":8.0,"name:pl":"\u017borany","id":1067350383,"population":499},"coordinates":[3234,328]},{"type":"Point","properties":{"name:el":"\u0396\u03b9\u03bd\u03c4\u03b9\u03ba\u03ac\u03b9","kind":"locality","name:lv":"\u017didiki","name":"\u017didikai","kind_detail":"town","name:de":"Schiddiken","source":"openstreetmap.org","min_zoom":8.0,"name:zh-yue":"\u5e0c\u5e95\u51ef","name:ru":"\u0416\u0438\u0434\u0438\u043a\u0430\u0439","name:pl":"\u017bydyki","id":1832823139,"population":440},"coordinates":[2678,2844]},{"type":"Point","properties":{"kind":"locality","name":"Pikeliai","kind_detail":"town","name:de":"Pikellen","source":"openstreetmap.org","min_zoom":8.0,"name:pl":"Pikiele","id":774439847,"population":378},"coordinates":[2951,3354]},{"type":"Point","properties":{"kind":"locality","name":"Janapol\u0117","kind_detail":"town","name:de":"Wirschwenen","source":"openstreetmap.org","min_zoom":8.0,"name:pl":"Janopol","id":1067351003,"population":341},"coordinates":[3762,202]},{"type":"Point","properties":{"kind":"locality","name":"Nerimdai\u010diai","kind_detail":"town","source":"openstreetmap.org","min_zoom":8.0,"name:pl":"Nierymdajcie","id":1609002392,"population":281},"coordinates":[3827,1611]},{"type":"Point","properties":{"kind":"locality","name":"Leckava","kind_detail":"town","name:de":"Lutzhof","source":"openstreetmap.org","min_zoom":8.0,"name:pl":"Lack\u00f3w","id":2034595445,"population":195},"coordinates":[3330,3227]},{"type":"Point","properties":{"kind":"locality","name":"Ubi\u0161k\u0117","kind_detail":"town","source":"openstreetmap.org","min_zoom":8.0,"name:pl":"Ubiszki","id":1606864416,"population":187},"coordinates":[4091,1104]},{"type":"Point","properties":{"kind":"locality","name":"Lauko Soda","kind_detail":"town","source":"openstreetmap.org","min_zoom":8.0,"name:pl":"\u0141awkosody","id":1067351187,"population":134},"coordinates":[3391,607]},{"type":"Point","properties":{"kind":"locality","name":"Gad\u016bnavas","kind_detail":"town","name:de":"Deginne","source":"openstreetmap.org","min_zoom":8.0,"name:pl":"Gadon\u00f3w","id":1209327755,"population":98},"coordinates":[3264,1511]},{"type":"Point","properties":{"kind":"locality","name":"Medininkai","kind_detail":"town","name:de":"Mednick","source":"openstreetmap.org","min_zoom":8.0,"name:pl":"Miedniki","id":2380397262,"population":2},"coordinates":[873,1860]}]},"transit":{"type":"GeometryCollection","geometries":[{"type":"LineString","properties":{"kind":"train","name":"Klaip\u0117da - Vilnius","sort_rank":275,"name:de":"Memel - Wilna","source":"openstreetmap.org","min_zoom":6.0,"ref":"Klaip\u0117da - Vilnius","osm_relation":true},"arcs":[5]},{"type":"LineString","properties":{"kind":"train","name":"R\u012bga - Liep\u0101ja","sort_rank":275,"name:de":"Riga - Libau","source":"openstreetmap.org","min_zoom":6.0,"operator":"AS \u201ePasa\u017eieru vilciens\u201c","ref":"R\u012bga - Liep\u0101ja","osm_relation":true},"arcs":[6]},{"type":"MultiLineString","properties":{"sort_rank":275,"source":"openstreetmap.org","min_zoom":6.0,"kind":"train","osm_relation":true},"arcs":[[7],[8],[9],[10],[11],[12],[13],[14],[15],[16],[17],[18],[19],[20],[21],[22],[23],[24],[25],[26],[27],[28],[29],[30],[31]]}]},"pois":{"type":"GeometryCollection","geometries":[{"type":"Point","properties":{"kind":"protected_area","protect_class":"5","area":17285800,"source":"openstreetmap.org","min_zoom":8.0,"tier":2,"id":-1945080,"osm_relation":true,"name":"Minijos kra\u0161tovaizd\u017eio draustinis"},"coordinates":[3058,344]},{"type":"Point","properties":{"kind":"protected_area","name":"Rei\u0161ki\u0173 telmologinis draustinis","area":126071000,"source":"openstreetmap.org","min_zoom":7.0,"tier":2,"id":-1359857,"osm_relation":true},"coordinates":[1414,285]},{"type":"Point","properties":{"kind":"protected_area","protect_class":"4","area":15207100,"source":"openstreetmap.org","min_zoom":8.0,"tier":2,"id":132054159,"name":"Blazga ezers"},"coordinates":[1801,4046]},{"type":"Point","properties":{"kind":"protected_area","protect_class":"4","area":19070600,"source":"openstreetmap.org","min_zoom":8.0,"tier":2,"id":132054160,"name":"Brienamais purvs"},"coordinates":[731,3335]},{"type":"Point","properties":{"kind":"protected_area","protect_class":"4","area":56441700,"source":"openstreetmap.org","min_zoom":8.0,"tier":2,"id":132054190,"name":"Dunika"},"coordinates":[835,2512]},{"type":"Point","properties":{"kind":"protected_area","protect_class":"4","area":15150000,"source":"openstreetmap.org","min_zoom":8.0,"tier":2,"id":132054205,"name":"Emb\u016bte"},"coordinates":[2109,3843]},{"type":"Point","properties":{"kind":"protected_area","protect_class":"4","area":36286500,"source":"openstreetmap.org","min_zoom":8.0,"tier":2,"id":132054287,"name":"Kirbas purvs"},"coordinates":[190,2327]},{"type":"Point","properties":{"kind":"protected_area","protect_class":"4","area":19341500,"source":"openstreetmap.org","min_zoom":8.0,"tier":2,"id":132054819,"name":"R\u016bnupes ieleja"},"coordinates":[1837,3222]}]},"boundaries":{"type":"GeometryCollection","geometries":[{"type":"LineString","properties":{"name:right:yo":"L\u00e1tf\u00ed\u00e0","name:right:yi":"\u05dc\u05e2\u05d8\u05dc\u05d0\u05e0\u05d3","name:left:la":"Lituania","name:right:qu":"Litunya","name:left:li":"Litauwe","name:left:vi":"Litva","name:left:ka":"\u10da\u10d8\u10e2\u10d5\u10d0","name:left:kl":"Litaueni","name:left:ko":"\ub9ac\ud22c\uc544\ub2c8\uc544","name:right:it":"Lettonia","name:left:ki":"Lithuania","name:left:ro":"Lituania","name:left:kk":"\u041b\u0438\u0442\u0432\u0430","name:left:rm":"Lituania","name:left:ku":"L\u00eetvanya","name:left:kw":"Lithouani","name:left:kv":"\u041b\u0438\u0442\u0432\u0430","name:right:ro":"Letonia","name:left:ru":"\u041b\u0438\u0442\u0432\u0430","name:right:ie":"Latvia","name:right:id":"Latvia","name:left:ky":"\u041b\u0438\u0442\u0432\u0430","name:right:ia":"Latvia","name:right:bi":"Latvia","name:right:bn":"\u09b2\u09be\u09a4\u09ad\u09bf\u09af\u09bc\u09be","name:right:bo":"\u0f63\u0f0b\u0f4a\u0f0b\u0f5d\u0f72\u0f61\u0f0d","name:left:sl":"Litva","name:right:ba":"\u041b\u0430\u0442\u0432\u0438\u044f","name:right:bg":"\u041b\u0430\u0442\u0432\u0438\u044f","name:right:be":"\u041b\u0430\u0442\u0432\u0456\u044f","name:right:br":"Latvia","name:right:nn":"Latvia","name:right:no":"Latvia","name:right:nl":"Letland","name:right:wo":"Let\u00f3oni","name:right:ne":"\u0932\u093e\u0924\u094d\u092d\u093f\u092f\u093e","name:right:na":"Ratebiya","name:right:nv":"L\u00e9tbiiya","name:left:mg":"Litoania","kind_detail":"2","name:left:tr":"Litvanya","name:right:gu":"\u0ab2\u0abe\u0a9f\u0ab5\u0abf\u0aaf\u0abe","name:right:gv":"Yn Latvey","name:right:pt":"Let\u00f3nia","name:left:mk":"\u041b\u0438\u0442\u0432\u0430\u043d\u0438\u0458\u0430","name:left:mi":"Ritu\u0101nia","name:left:ts":"Lithuania","name:left:tt":"\u041b\u0438\u0442\u0432\u0430","name:left:mn":"\u041b\u0438\u0442\u0432\u0430","name:left:ml":"\u0d32\u0d3f\u0d24\u0d4d\u0d35\u0d3e\u0d28\u0d3f\u0d2f","name:left:th":"\u0e1b\u0e23\u0e30\u0e40\u0e17\u0e28\u0e25\u0e34\u0e17\u0e31\u0e27\u0e40\u0e19\u0e35\u0e22","name:left:mr":"\u0932\u093f\u0925\u0941\u090f\u0928\u093f\u092f\u093e","name:left:tk":"Litwa","name:left:tl":"Litwaniya","name:left:mt":"Litwanja","name:right:gl":"Letonia","name:left:my":"\u101c\u1005\u103a\u101e\u1030\u101a\u1031\u1038\u1014\u102e\u1038\u101a\u102c\u1038\u1014\u102d\u102f\u1004\u103a\u1004\u1036","name:right:gn":"Leto\u00f1a","name:right:pl":"\u0141otwa","name:left:te":"\u0c32\u0c3f\u0c25\u0c41\u0c35\u0c47\u0c28\u0c3f\u0c2f\u0c3e","name:left:tg":"\u041b\u0438\u0442\u0432\u0430","name:left:ms":"Lithuania","name:right:gd":"An Laitbhe","name:right:tr":"Letonya","name:left:da":"Litauen","name:left:de":"Litauen","name:left:dz":"\u0f63\u0f72\u0f0b\u0f50\u0f74\u0f0b\u0f53\u0f72\u0f0b\u0f61\u0f0d","name:right:ga":"An Laitvia","name:left:dv":"\u078d\u07a8\u078c\u07aa\u0787\u07ad\u0782\u07a8\u0787\u07a7","name:right:ug":"\u0644\u0627\u062a\u06cb\u0649\u064a\u06d5","name:left:hi":"\u0932\u093f\u0925\u0941\u0906\u0928\u093f\u092f\u093e","name:right:lb":"Lettland","name:right:uk":"\u041b\u0430\u0442\u0432\u0456\u044f","name:left:he":"\u05dc\u05d9\u05d8\u05d0","name:right:ln":"Letoni","name:right:li":"Letland","name:right:ur":"\u0644\u0679\u0648\u06cc\u0627","name:left:hy":"\u053c\u056b\u057f\u057e\u0561","name:left:ta":"\u0bb2\u0bbf\u0ba4\u0bcd\u0ba4\u0bc1\u0bb5\u0bc7\u0ba9\u0bbf\u0baf\u0bbe","name:left:ht":"Lityani","name:left:hu":"Litv\u00e1nia","name:left:hr":"Litva","sort_rank":262,"name:right:os":"\u041b\u0430\u0442\u0432\u0438","name:right:es":"Letonia","name:right:sr":"\u041b\u0435\u0442\u043e\u043d\u0438\u0458\u0430","name:right:eu":"Letonia","name:right:et":"L\u00e4ti","name:left:os":"\u041b\u0438\u0442\u0432\u0430","name:left:or":"\u0b32\u0b3f\u0b25\u0b41\u0b06\u0b28\u0b3f\u0b06","name:left:ve":"Lituania","name:right:ee":"Latvia","name:left:vo":"Lietuv\u00e4n","name:left:oc":"Litu\u00e0nia","name:right:eo":"Latvujo","name:right:en":"Latvia","name:right:el":"\u039b\u03b5\u03c4\u03bf\u03bd\u03af\u03b1","name:left:ff":"Lituwaniya","name:left:fa":"\u0644\u06cc\u062a\u0648\u0627\u0646\u06cc","name:left:fo":"Litava","name:left:fj":"Lituani","name:right:sk":"Loty\u0161sko","name:left:fi":"Liettua","name:left:fr":"Lituanie","name:left:fy":"Litouwen","name:right:ja":"\u30e9\u30c8\u30d3\u30a2","name:right:sq":"Letonia","name:right:ss":"ILathiviya","name:left:ja":"\u30ea\u30c8\u30a2\u30cb\u30a2","name:right:su":"Latvia","name:right:st":"Latvia","name:right:sw":"Latvia","name:right:sv":"Lettland","name:right:sh":"Letonija","name:left:qu":"Lituwa","name:right:jv":"Latvia","name:right:so":"Latfiya","name:right:sa":"\u0932\u093e\u091f\u094d\u0935\u093f\u092f\u093e","name:right:sc":"Lettonia","name:left:jv":"Lituania","id":-72596,"name:right:co":"Lettonia","name:right:ca":"Let\u00f2nia","name:right:se":"L\u00e1tvia","name:right:ce":"\u041b\u0430\u0442\u0432\u0438","name:right:cy":"Latfia","name:right:zh-yue":"\u62c9\u812b\u7dad\u4e9e","name:right:cs":"Loty\u0161sko","name:right:cu":"\u041b\u0430\u0442\u0432\u0457\ua657","name:right:cv":"\u041b\u0430\u0442\u0432\u0438","name:left:ar":"\u0644\u064a\u062a\u0648\u0627\u0646\u064a\u0627","name:right:is":"Lettland","name:left:az":"Litva","name:left:ay":"Litua\u00f1a","name:right:rw":"Lativiya","name:left:af":"Litaue","name:left:ab":"\u041b\u0438\u0442\u0432\u0430","name:left:an":"Lituania","name:left:am":"\u120a\u1275\u12cc\u1292\u12eb","name:right:ru":"\u041b\u0430\u0442\u0432\u0438\u044f","name:left:ak":"Lituania","name:right:io":"Latvia","name:left:zh-yue":"\u7acb\u9676\u5b9b","name:left:rw":"Lituwaniya","name:right:hy":"\u053c\u0561\u057f\u057e\u056b\u0561","name:left:lb":"Litauen","alt_name:left:eo":"Litovio","name:left:lg":"Lithueenia","name:left:su":"Lituania","name:left:st":"Lituania","name:left:sw":"Lituanya","name:left:sv":"Litauen","name:left:sq":"Lituania","name:right:hu":"Lettorsz\u00e1g","name:left:ss":"Lithuwani","name:left:sr":"\u041b\u0438\u0442\u0432\u0430\u043d\u0438\u0458\u0430","name:right:hi":"\u0932\u093e\u0924\u0935\u093f\u092f\u093e","name:left:so":"Lithuaniya","name:left:sh":"Litvanija","name:left:sk":"Litva","name:left:sg":"Lituan\u00efi","name:left:sa":"\u0932\u0947\u0924\u0941\u0935\u093e","name:right:he":"\u05dc\u05d8\u05d1\u05d9\u05d4","name:left:sc":"Litu\u00e0nia","name:right:la":"Lettonia","name:right:af":"Letland","name:left:co":"Lituania","name:left:ch":"Lituania","name:left:ce":"\u041b\u0438\u0442\u0432\u0430","name:right:an":"Letonia","name:right:am":"\u120b\u1275\u126a\u12eb","name:left:ca":"Litu\u00e0nia","source":"openstreetmap.org","name:left:cy":"Lithwania","name:right:ar":"\u0644\u0627\u062a\u0641\u064a\u0627","name:left:cu":"\u041b\u0438\u0442\u044a\u0432\u0430","name:left:cv":"\u041b\u0438\u0442\u0432\u0430","name:right:az":"Latviya","name:left:cs":"Litva","name:right:rm":"Lettonia","name":"Lietuva - Latvija","name:right:zu":"ILatviya","name:left:zu":"ILithuwaniya","name:left:zh":"\u7acb\u9676\u5b9b","name:right:zh":"\u62c9\u812b\u7dad\u4e9e","official_name:left":"Lietuvos Respublika","name:left:uz":"Litva","name:right:fr":"Lettonie","name:left:ps":"\u0644\u06d0\u062a\u0648\u0627\u0646\u064a\u0627","name:left:ny":"Lithuania","alt_name:right:es":"Latvia","name:left:ur":"\u0644\u062a\u06be\u0648\u0648\u06cc\u0646\u06cc\u0627","id:right":-72594,"name:left:uk":"\u041b\u0438\u0442\u0432\u0430","name:left:no":"Litauen","name:left:nl":"Litouwen","alt_name:right:eo":"Latvio","name:right:fa":"\u0644\u062a\u0648\u0646\u06cc","name:right:fo":"Lettland","name:left:ne":"\u0932\u093f\u0925\u0941\u0906\u0928\u093f\u092f\u093e","name:left:ug":"\u0644\u0649\u062a\u06cb\u0627","name:right:fi":"Latvia","name:left:eo":"Litovujo","name:left:en":"Lithuania","name:left:el":"\u039b\u03b9\u03b8\u03bf\u03c5\u03b1\u03bd\u03af\u03b1","name:left:ee":"Lithuania","name:right:tt":"\u041b\u0430\u0442\u0432\u0438\u044f","name:left:es":"Lituania","name:left:ie":"Lituania","name:left:eu":"Lituania","name:left:et":"Leedu","name:right:zh-min-nan":"Latvia","name:right:oc":"Let\u00f2nia","name:left:ia":"Lituania","name:right:uz":"Latviya","osm_relation":true,"name:right:or":"\u0b32\u0b3e\u0b1f\u0b2d\u0b3f\u0b06","name:left:pt":"Litu\u00e2nia","name:right:ku":"Letonya","name:right:tk":"Latwi\u00fda","name:left:gl":"Lituania - Lietuva","name:left:wa":"Litwaneye","min_zoom":8.0,"name:left:ln":"Litwani","name:left:wo":"Lituwaani","name:left:ga":"An Liotu\u00e1in","name:left:it":"Lituania","name:left:gd":"Liotu\u00e0inia","int_name:right":"Latvia","name:left:gn":"Litua\u00f1a","name:left:nv":"\u0141it\u02bcoow\u0119\u0301\u0119ya","name:left:gu":"\u0ab2\u0abf\u0aa5\u0ac1\u0a86\u0aa8\u0abf\u0aaf\u0abe","name:left:gv":"Yn Litaan","official_name:right":"Latvijas Republika","name:left":"Lietuva","name:right:mk":"\u041b\u0430\u0442\u0432\u0438\u0458\u0430","name:right:mi":"R\u0101whia","name:right:mn":"\u041b\u0430\u0442\u0432\u0438","name:right:ml":"\u0d32\u0d3e\u0d24\u0d4d\u200c\u0d35\u0d3f\u0d2f","name:right:vo":"Latviy\u00e4n","name:right:mg":"Latvia","name:right:vi":"Latvia","name:right:my":"\u101c\u1010\u103a\u1017\u102e\u101a\u102c\u1014\u102d\u102f\u1004\u103a\u1004\u1036","name:right:ms":"Latvia","name:right:mr":"\u0932\u093e\u0924\u094d\u0935\u094d\u0939\u093f\u092f\u093e","name:right:fy":"Letl\u00e2n","name:right:mt":"Latvja","name:left:nn":"Litauen","kind":"country","name:left:br":"Lituania","name:left:bs":"Litvanija","int_name:left":"Lithuania","name:left:ba":"\u041b\u0438\u0442\u0432\u0430","name:left:bg":"\u041b\u0438\u0442\u0432\u0430","name:left:be":"\u041b\u0456\u0442\u0432\u0430","name:left:bi":"Litwania","name:left:bn":"\u09b2\u09bf\u09a5\u09c1\u09af\u09bc\u09be\u09a8\u09bf\u09af\u09bc\u09be","name:left:bo":"\u0f63\u0f72\u0f0b\u0f50\u0f74\u0f0b\u0f68\u0f7a\u0f0b\u0f53\u0f72\u0f0b\u0f61\u0f0d","name:right":"Latvija","name:left:yo":"Litu\u00e9n\u00ed\u00e0","name:left:yi":"\u05dc\u05d9\u05d8\u05e2","id:left":-72596,"name:left:na":"Rituainiya","name:right:ka":"\u10da\u10d0\u10e2\u10d5\u10d8\u10d0","name:left:io":"Lituania","name:right:kg":"Latvia","name:left:pl":"Litwa","name:right:kk":"\u041b\u0430\u0442\u0432\u0438\u044f","name:left:id":"Lituania","name:right:kl":"Letlandi","name:right:ko":"\ub77c\ud2b8\ube44\uc544","name:right:tl":"Latbiya","name:right:th":"\u0e1b\u0e23\u0e30\u0e40\u0e17\u0e28\u0e25\u0e31\u0e15\u0e40\u0e27\u0e35\u0e22","name:right:kw":"Latvi","name:right:kv":"\u041b\u0430\u0442\u0432\u0438\u044f","name:right:ky":"\u041b\u0430\u0442\u0432\u0438\u044f","name:right:te":"\u0c32\u0c3e\u0c1f\u0c4d\u0c35\u0c3f\u0c2f\u0c3e","name:left:iu":"\u14d5\u140b\u1450\u1559","name:right:tg":"\u041b\u0430\u0442\u0432\u0438\u044f","name:left:is":"Lith\u00e1en","name:right:ta":"\u0bb2\u0bbe\u0ba4\u0bcd\u0bb5\u0bbf\u0baf\u0bbe","name:right:de":"Lettland","name:right:da":"Letland","name:left:rn":"Lituania","name:right:dz":"\u0f63\u0f7a\u0f4a\u0f72\u0f0b\u0f56\u0f72\u0f0b\u0f61\u0f0d","name:right:dv":"\u078d\u07ac\u0793\u07aa\u0788\u07a8\u0787\u07a7","name:right:ht":"Letoni"},"arcs":[0]},{"type":"LineString","properties":{"name:right:uk":"\u0422\u0435\u043b\u044c\u0448\u044f\u0439\u0441\u044c\u043a\u0438\u0439 \u043f\u043e\u0432\u0456\u0442","name:left:ja":"\u30af\u30fc\u30eb\u30e9\u30f3\u30c8","id:right":-1211025,"name:left:nl":"Koerland","name:left:lt":"Kur\u0161as","name:left:bg":"\u041a\u0443\u0440\u043b\u0430\u043d\u0434\u0438\u044f","name:left:sk":"Kur\u00f3nsko","name:left:be":"\u041a\u0443\u0440\u043b\u044f\u043d\u0434\u044b\u044f","name:left:fi":"Kuurinmaa","id":-1775676,"name:right":"Tel\u0161i\u0173 apskritis","name:left:en":"Courland","sort_rank":256,"kind_detail":"4","name:left:ca":"Curl\u00e0ndia","source":"openstreetmap.org","id:left":-1775676,"name:left:es":"Curlandia","name:left:ko":"\ucfe0\ub97c\ub780\ud2b8","name:left:cs":"Kuronsko","name:left":"Kurzeme","name:left:ka":"\u10d9\u10e3\u10e0\u10da\u10d0\u10dc\u10d3\u10d8\u10d0","name:left:ar":"\u0643\u0648\u0631\u0644\u0627\u0646\u062f","name:left:tr":"Kurlandiya","name:right:ru":"\u0422\u0435\u043b\u044c\u0448\u044f\u0439\u0441\u043a\u0438\u0439 \u0443\u0435\u0437\u0434","name:left:pt":"Curl\u00e2ndia","name:left:ru":"\u041a\u0443\u0440\u0437\u0435\u043c\u0435","min_zoom":8.0,"name:left:it":"Curlandia","name:right:pl":"Okr\u0119g telsza\u0144ski","name:right:en":"Telsiai County","osm_relation":true,"kind":"region","name":"Kurzeme - Tel\u0161i\u0173 apskritis","name:right:de":"Bezirk Telsche","name:left:de":"Kurland","name:right:be":"\u0426\u044f\u043b\u044c\u0448\u044d\u0439\u0441\u043a\u0456 \u043f\u0430\u0432\u0435\u0442","name:left:zh":"\u5eab\u723e\u862d","name:left:et":"Kuramaa"},"arcs":[1]},{"type":"LineString","properties":{"name:right:uk":"\u041a\u043b\u0430\u0439\u043f\u0435\u0434\u0441\u044c\u043a\u0438\u0439 \u043f\u043e\u0432\u0456\u0442","name:right:hr":"Okrug Klaip\u0117da","name:right:hu":"Klaip\u0117da megye","min_zoom":8.0,"name:left:lt":"Kur\u0161as","name:left:sk":"Kur\u00f3nsko","name:right:he":"\u05de\u05d7\u05d5\u05d6 \u05e7\u05dc\u05d9\u05d9\u05e4\u05d3\u05d4","name:left:it":"Curlandia","sort_rank":256,"name:right:an":"Rechi\u00f3n de Klaip\u0117da","name:left:ca":"Curl\u00e0ndia","source":"openstreetmap.org","name:right:ar":"\u0645\u0642\u0627\u0637\u0639\u0629 \u0643\u0644\u0627\u064a\u0628\u064a\u062f\u0627","name:right:az":"Klaypeda b\u00f6lg\u0259si","name:left:cs":"Kuronsko","name:left":"Kurzeme","name:right:es":"Provincia de Klaip\u0117da","name:left:ja":"\u30af\u30fc\u30eb\u30e9\u30f3\u30c8","name:left:ka":"\u10d9\u10e3\u10e0\u10da\u10d0\u10dc\u10d3\u10d8\u10d0","name:right:eu":"Klaip\u0117dako konderria","name:right:et":"Klaip\u0117da maakond","name:left:ko":"\ucfe0\ub97c\ub780\ud2b8","name:right:it":"Contea di Klaip\u0117da","name:right:vi":"H\u1ea1t Klaip\u0117da","name:right:ro":"Jude\u021bul Klaip\u0117da","name:left:ru":"\u041a\u0443\u0440\u0437\u0435\u043c\u0435","name:right:mr":"\u0915\u094d\u0932\u0940\u092a\u0947\u0926\u093e \u0915\u093e\u0909\u0902\u091f\u0940","name:right:id":"County Klaip\u0117da","name:right:eo":"Distrikto Klaip\u0117da","name:right:en":"Klaipeda County","name:right:el":"\u0395\u03c0\u03b1\u03c1\u03c7\u03af\u03b1 \u039a\u03bb\u03ac\u03b9\u03c0\u03b5\u03bd\u03c4\u03b1","kind":"region","name":"Kurzeme - Klaip\u0117dos apskritis","name:right:ru":"\u041a\u043b\u0430\u0439\u043f\u0435\u0434\u0441\u043a\u0438\u0439 \u0443\u0435\u0437\u0434","name:right:lv":"Klaip\u0113das apri\u0146\u0137is","name:right:be":"\u041a\u043b\u0430\u0439\u043f\u0435\u0434\u0441\u043a\u0456 \u043f\u0430\u0432\u0435\u0442","name:left:zh":"\u5eab\u723e\u862d","name:right:zh":"\u514b\u840a\u4f69\u9054\u7e23","name:right:nn":"Klaip\u0117da fylke","name:right:no":"Klaip\u0117da fylke","name:right:nl":"Klaip\u0117da district","name:right:ja":"\u30af\u30e9\u30a4\u30da\u30c0\u770c","name:right:fr":"Apskritis de Klaip\u0117da","name:right:sr":"\u041a\u043b\u0430\u0458\u043f\u0435\u0434\u0441\u043a\u0438 \u043e\u043a\u0440\u0443\u0433","name:right:sw":"Wilaya ya Klaip\u0117da","name:right:bg":"\u041a\u043b\u0430\u0439\u043f\u0435\u0434\u0441\u043a\u0438 \u043e\u043a\u0440\u044a\u0433","name:right:sh":"Okrug Klajpeda","name:left:nl":"Koerland","name:left:bg":"\u041a\u0443\u0440\u043b\u0430\u043d\u0434\u0438\u044f","name:left:be":"\u041a\u0443\u0440\u043b\u044f\u043d\u0434\u044b\u044f","name:left:fi":"Kuurinmaa","id":-1775676,"name:right":"Klaip\u0117dos apskritis","name:left:en":"Courland","name:right:ca":"Comtat de Klaip\u0117da","kind_detail":"4","name:right:ce":"\u041a\u043b\u0430\u0439\u043f\u0435\u0434\u0438\u043d \u043a\u04c0\u043e\u0448\u0442","id:left":-1775676,"name:left:es":"Curlandia","name:right:cs":"Klaip\u0117dsk\u00fd kraj","name:right:fi":"Klaip\u0117dan l\u00e4\u00e4ni","id:right":-1189583,"name:left:et":"Kuramaa","name:right:mk":"\u041a\u043b\u0430\u0458\u043f\u0435\u0434\u0441\u043a\u0438 \u043e\u043a\u0440\u0443\u0433","name:right:pt":"Condado de Klaip\u0117da","name:left:ar":"\u0643\u0648\u0631\u0644\u0627\u0646\u062f","name:right:tt":"\u041a\u043b\u0430\u0439\u043f\u0435\u0434\u0430 \u04e9\u044f\u0437\u0435","name:left:tr":"Kurlandiya","name:right:ko":"\ud074\ub77c\uc774\ud398\ub2e4 \uc8fc","name:left:pt":"Curl\u00e2ndia","name:left:de":"Kurland","name:right:sv":"Klaip\u0117da provins","name:right:kw":"Konteth Klaip\u0117da","name:right:tg":"\u0412\u0438\u043b\u043e\u044f\u0442\u0438 \u041a\u043b\u0430\u0439\u043f\u0435\u0434\u0430","name:right:pl":"Okr\u0119g k\u0142ajpedzki","osm_relation":true,"name:right:ka":"\u10d9\u10da\u10d0\u10d8\u10de\u10d4\u10d3\u10d8\u10e1 \u10db\u10d0\u10d6\u10e0\u10d0","name:right:de":"Bezirk Memel","name:right:da":"Det tidligere Klaip\u0117da amt"},"arcs":[2]},{"type":"LineString","properties":{"name:right:uk":"\u0422\u0435\u043b\u044c\u0448\u044f\u0439\u0441\u044c\u043a\u0438\u0439 \u043f\u043e\u0432\u0456\u0442","name:left:be":"\u0428\u0430\u045e\u043b\u044f\u0439\u0441\u043a\u0456 \u043f\u0430\u0432\u0435\u0442","id:right":-1211025,"name:left:uk":"\u0428\u044f\u0443\u043b\u044f\u0439\u0441\u044c\u043a\u0438\u0439 \u043f\u043e\u0432\u0456\u0442","min_zoom":8.0,"id:left":-1256237,"name:left:en":"Siauliai County","name:left:ru":"\u0428\u044f\u0443\u043b\u044f\u0439\u0441\u043a\u0438\u0439 \u0443\u0435\u0437\u0434","name:right:ru":"\u0422\u0435\u043b\u044c\u0448\u044f\u0439\u0441\u043a\u0438\u0439 \u0443\u0435\u0437\u0434","name:right:pl":"Okr\u0119g telsza\u0144ski","id":-1256237,"osm_relation":true,"name:right":"Tel\u0161i\u0173 apskritis","kind":"region","name":"\u0160iauli\u0173 apskritis - Tel\u0161i\u0173 apskritis","source":"openstreetmap.org","sort_rank":256,"kind_detail":"4","name:left:de":"Bezirk Schaulen","name:right:en":"Telsiai County","name:right:be":"\u0426\u044f\u043b\u044c\u0448\u044d\u0439\u0441\u043a\u0456 \u043f\u0430\u0432\u0435\u0442","name:left:pl":"Okr\u0119g szawelski","name:right:de":"Bezirk Telsche","name:left":"\u0160iauli\u0173 apskritis"},"arcs":[3]},{"type":"LineString","properties":{"name:right:uk":"\u041a\u043b\u0430\u0439\u043f\u0435\u0434\u0441\u044c\u043a\u0438\u0439 \u043f\u043e\u0432\u0456\u0442","name:right:hr":"Okrug Klaip\u0117da","name:right:hu":"Klaip\u0117da megye","name:right:lv":"Klaip\u0113das apri\u0146\u0137is","name:right:he":"\u05de\u05d7\u05d5\u05d6 \u05e7\u05dc\u05d9\u05d9\u05e4\u05d3\u05d4","name:right:tg":"\u0412\u0438\u043b\u043e\u044f\u0442\u0438 \u041a\u043b\u0430\u0439\u043f\u0435\u0434\u0430","sort_rank":256,"name:right:an":"Rechi\u00f3n de Klaip\u0117da","source":"openstreetmap.org","name:right:ar":"\u0645\u0642\u0627\u0637\u0639\u0629 \u0643\u0644\u0627\u064a\u0628\u064a\u062f\u0627","name:right:az":"Klaypeda b\u00f6lg\u0259si","name:left":"Tel\u0161i\u0173 apskritis","name:right:es":"Provincia de Klaip\u0117da","name:right:eu":"Klaip\u0117dako konderria","name:right:et":"Klaip\u0117da maakond","name:right:it":"Contea di Klaip\u0117da","name:right:vi":"H\u1ea1t Klaip\u0117da","name:right:ro":"Jude\u021bul Klaip\u0117da","name:left:ru":"\u0422\u0435\u043b\u044c\u0448\u044f\u0439\u0441\u043a\u0438\u0439 \u0443\u0435\u0437\u0434","name:right:mr":"\u0915\u094d\u0932\u0940\u092a\u0947\u0926\u093e \u0915\u093e\u0909\u0902\u091f\u0940","name:right:id":"County Klaip\u0117da","name:right:eo":"Distrikto Klaip\u0117da","name:right:en":"Klaipeda County","name:right:el":"\u0395\u03c0\u03b1\u03c1\u03c7\u03af\u03b1 \u039a\u03bb\u03ac\u03b9\u03c0\u03b5\u03bd\u03c4\u03b1","kind":"region","name":"Tel\u0161i\u0173 apskritis - Klaip\u0117dos apskritis","min_zoom":8.0,"name:right:be":"\u041a\u043b\u0430\u0439\u043f\u0435\u0434\u0441\u043a\u0456 \u043f\u0430\u0432\u0435\u0442","name:right:zh":"\u514b\u840a\u4f69\u9054\u7e23","name:right:nn":"Klaip\u0117da fylke","name:right:no":"Klaip\u0117da fylke","name:right:nl":"Klaip\u0117da district","name:right:ja":"\u30af\u30e9\u30a4\u30da\u30c0\u770c","name:right:fr":"Apskritis de Klaip\u0117da","name:right:sr":"\u041a\u043b\u0430\u0458\u043f\u0435\u0434\u0441\u043a\u0438 \u043e\u043a\u0440\u0443\u0433","name:right:sw":"Wilaya ya Klaip\u0117da","name:right:sv":"Klaip\u0117da provins","name:left:uk":"\u0422\u0435\u043b\u044c\u0448\u044f\u0439\u0441\u044c\u043a\u0438\u0439 \u043f\u043e\u0432\u0456\u0442","name:right:sh":"Okrug Klajpeda","name:left:be":"\u0426\u044f\u043b\u044c\u0448\u044d\u0439\u0441\u043a\u0456 \u043f\u0430\u0432\u0435\u0442","id":-1211025,"name:right":"Klaip\u0117dos apskritis","name:left:en":"Telsiai County","name:right:ca":"Comtat de Klaip\u0117da","kind_detail":"4","name:right:ce":"\u041a\u043b\u0430\u0439\u043f\u0435\u0434\u0438\u043d \u043a\u04c0\u043e\u0448\u0442","name:right:tt":"\u041a\u043b\u0430\u0439\u043f\u0435\u0434\u0430 \u04e9\u044f\u0437\u0435","id:left":-1211025,"name:right:cs":"Klaip\u0117dsk\u00fd kraj","name:right:fi":"Klaip\u0117dan l\u00e4\u00e4ni","id:right":-1189583,"name:right:mk":"\u041a\u043b\u0430\u0458\u043f\u0435\u0434\u0441\u043a\u0438 \u043e\u043a\u0440\u0443\u0433","name:right:pt":"Condado de Klaip\u0117da","name:left:pl":"Okr\u0119g telsza\u0144ski","name:right:ko":"\ud074\ub77c\uc774\ud398\ub2e4 \uc8fc","name:right:bg":"\u041a\u043b\u0430\u0439\u043f\u0435\u0434\u0441\u043a\u0438 \u043e\u043a\u0440\u044a\u0433","name:left:de":"Bezirk Telsche","name:right:kw":"Konteth Klaip\u0117da","name:right:ru":"\u041a\u043b\u0430\u0439\u043f\u0435\u0434\u0441\u043a\u0438\u0439 \u0443\u0435\u0437\u0434","name:right:pl":"Okr\u0119g k\u0142ajpedzki","osm_relation":true,"name:right:ka":"\u10d9\u10da\u10d0\u10d8\u10de\u10d4\u10d3\u10d8\u10e1 \u10db\u10d0\u10d6\u10e0\u10d0","name:right:de":"Bezirk Memel","name:right:da":"Det tidligere Klaip\u0117da amt"},"arcs":[4]}]},"roads":{"type":"GeometryCollection","geometries":[{"type":"MultiLineString","properties":{"kind":"major_road","network":"lv:national","name:lt":"Liepoja \u2014 Lietuvos siena (Rucava)","sort_rank":381,"landuse_kind":"protected_area","source":"openstreetmap.org","min_zoom":8.0,"kind_detail":"trunk","shield_text":"11","name:ru":"\u041b\u0438\u0435\u043f\u0430\u044f \u2014 \u043b\u0438\u0442\u043e\u0432\u0441\u043a\u0430\u044f \u0433\u0440\u0430\u043d\u0438\u0446\u0430 (\u0420\u0443\u0446\u0430\u0432\u0430)","osm_relation":true},"arcs":[[32],[33]]},{"type":"LineString","properties":{"kind":"major_road","network":"lt:national","sort_rank":380,"kind_detail":"primary","source":"openstreetmap.org","min_zoom":8.0,"shield_text":"169","name:ru":"\u0443\u043b\u0438\u0446\u0430 \u0422\u0435\u0432\u0438\u0448\u043a\u0435\u0441","ref":"169","id":146345524},"arcs":[34]},{"type":"LineString","properties":{"kind":"major_road","network":"lt:national","sort_rank":380,"kind_detail":"primary","source":"openstreetmap.org","min_zoom":8.0,"shield_text":"168","name:ru":"\u0443\u043b\u0438\u0446\u0430 \u041a\u043b\u0430\u0439\u043f\u0435\u0434\u043e\u0441","ref":"168","id":35995693},"arcs":[35]},{"type":"LineString","properties":{"kind":"major_road","network":"lv:national","sort_rank":381,"kind_detail":"trunk","is_bicycle_related":true,"bicycle_shield_text":"R1","bicycle_network":"icn","source":"openstreetmap.org","min_zoom":8.0,"shield_text":"9","ref":"A9"},"arcs":[36]},{"type":"MultiLineString","properties":{"kind":"major_road","network":"lt:national","sort_rank":381,"kind_detail":"trunk","source":"openstreetmap.org","min_zoom":8.0,"shield_text":"13","ref":"A13"},"arcs":[[37],[38],[39],[40],[41],[42],[43],[44],[45],[46],[47],[48],[49],[50],[51],[52],[53],[54]]},{"type":"LineString","properties":{"kind":"major_road","network":"lt:national","sort_rank":381,"landuse_kind":"urban_area","source":"openstreetmap.org","min_zoom":8.0,"kind_detail":"trunk","shield_text":"11","name:ru":"\u0448\u043e\u0441\u0441\u0435 \u0428\u044f\u0443\u043b\u044e","ref":"A11"},"arcs":[55]},{"type":"LineString","properties":{"kind":"major_road","network":"lv:national","sort_rank":380,"kind_detail":"primary","source":"openstreetmap.org","min_zoom":8.0,"shield_text":"114","ref":"P114"},"arcs":[56]},{"type":"LineString","properties":{"kind":"major_road","network":"lt:national","sort_rank":380,"kind_detail":"primary","source":"openstreetmap.org","min_zoom":8.0,"landuse_kind":"residential","shield_text":"170","ref":"170","id":86257626},"arcs":[57]},{"type":"LineString","properties":{"kind":"major_road","network":"lv:national","sort_rank":380,"kind_detail":"primary","source":"openstreetmap.org","min_zoom":8.0,"landuse_kind":"protected_area","shield_text":"116","ref":"P116","id":44203589},"arcs":[58]},{"type":"LineString","properties":{"kind":"major_road","network":"lt:national","sort_rank":380,"kind_detail":"primary","source":"openstreetmap.org","min_zoom":8.0,"landuse_kind":"residential","shield_text":"218","ref":"218","id":83994429},"arcs":[59]},{"type":"MultiLineString","properties":{"kind":"major_road","network":"lv:national","sort_rank":381,"kind_detail":"trunk","is_bicycle_related":true,"bicycle_shield_text":"R1","bicycle_network":"icn","source":"openstreetmap.org","min_zoom":8.0,"shield_text":"11","ref":"A11"},"arcs":[[60],[61]]},{"type":"LineString","properties":{"kind":"major_road","network":"lt:national","sort_rank":380,"kind_detail":"primary","source":"openstreetmap.org","min_zoom":8.0,"shield_text":"217","ref":"217"},"arcs":[62]},{"type":"LineString","properties":{"kind":"major_road","network":"lt:national","sort_rank":380,"kind_detail":"primary","source":"openstreetmap.org","min_zoom":8.0,"shield_text":"226","ref":"226"},"arcs":[63]},{"type":"LineString","properties":{"kind":"major_road","network":"lt:national","sort_rank":380,"kind_detail":"primary","source":"openstreetmap.org","min_zoom":8.0,"landuse_kind":"urban_area","shield_text":"219","ref":"219","id":200927631},"arcs":[64]},{"type":"MultiLineString","properties":{"kind":"major_road","network":"lt:national","sort_rank":380,"kind_detail":"primary","source":"openstreetmap.org","min_zoom":8.0,"landuse_kind":"park","shield_text":"226","ref":"226"},"arcs":[[65],[66],[67]]},{"type":"MultiLineString","properties":{"kind":"major_road","network":"lt:national","sort_rank":380,"kind_detail":"primary","source":"openstreetmap.org","min_zoom":8.0,"landuse_kind":"urban_area","shield_text":"168","name:ru":"\u0443\u043b\u0438\u0446\u0430 \u0428\u0432\u0435\u043d\u0442\u043e\u0441\u0438\u043e\u0441","ref":"168"},"arcs":[[68],[69],[70]]},{"type":"MultiLineString","properties":{"kind":"major_road","network":"lt:national","sort_rank":381,"kind_detail":"trunk","source":"openstreetmap.org","min_zoom":8.0,"landuse_kind":"park","shield_text":"11","ref":"A11"},"arcs":[[71],[72],[73]]},{"type":"MultiLineString","properties":{"kind":"major_road","network":"lt:national","sort_rank":380,"kind_detail":"primary","source":"openstreetmap.org","min_zoom":8.0,"shield_text":"166","ref":"166"},"arcs":[[74],[75]]},{"type":"LineString","properties":{"kind":"minor_road","sort_rank":360,"kind_detail":"unclassified","is_bicycle_related":true,"bicycle_shield_text":"R1","bicycle_network":"icn","source":"openstreetmap.org","min_zoom":8.0,"name:ru":"\u0443\u043b\u0438\u0446\u0430 \u041f\u0438\u043b\u0438\u043c\u043e","id":11970557},"arcs":[76]},{"type":"LineString","properties":{"kind":"major_road","network":"lv:national","sort_rank":380,"kind_detail":"primary","bus_network":null,"source":"openstreetmap.org","min_zoom":8.0,"bus_shield_text":"912A","shield_text":"106","id":459657481},"arcs":[77]},{"type":"LineString","properties":{"kind":"major_road","network":"lv:national","sort_rank":380,"kind_detail":"primary","source":"openstreetmap.org","min_zoom":8.0,"shield_text":"105","ref":"P105"},"arcs":[78]},{"type":"LineString","properties":{"kind":"major_road","network":"lt:national","sort_rank":380,"kind_detail":"primary","source":"openstreetmap.org","min_zoom":8.0,"shield_text":"164","name:ru":"\u0443\u043b\u0438\u0446\u0430 \u0416\u0435\u043c\u0430\u0438\u0442\u0438\u0439\u043e\u0441","ref":"164","id":35983210},"arcs":[79]},{"type":"LineString","properties":{"source":"openstreetmap.org","kind":"major_road","sort_rank":380,"kind_detail":"primary","ref":"218","min_zoom":8.0},"arcs":[80]},{"type":"LineString","properties":{"kind":"major_road","network":"lt:national","sort_rank":380,"kind_detail":"primary","source":"openstreetmap.org","min_zoom":8.0,"shield_text":"207","name:ru":"\u0443\u043b\u0438\u0446\u0430 \u0416\u0438\u0434\u0438\u043a\u0443","ref":"207","id":41109450},"arcs":[81]},{"type":"LineString","properties":{"kind":"major_road","network":"lv:national","sort_rank":380,"kind_detail":"primary","source":"openstreetmap.org","min_zoom":8.0,"shield_text":"106","ref":"163","id":475678599},"arcs":[82]},{"type":"LineString","properties":{"kind":"major_road","network":"lt:national","sort_rank":381,"kind_detail":"trunk","is_bicycle_related":true,"bicycle_shield_text":"R1","bicycle_network":"icn","source":"openstreetmap.org","min_zoom":8.0,"shield_text":"13","ref":"A13"},"arcs":[83]},{"type":"MultiLineString","properties":{"kind":"major_road","network":"lt:national","sort_rank":380,"kind_detail":"primary","source":"openstreetmap.org","min_zoom":8.0,"landuse_kind":"urban_area","shield_text":"216","ref":"216"},"arcs":[[84],[85]]},{"type":"LineString","properties":{"kind":"major_road","network":"lt:national","sort_rank":381,"landuse_kind":"urban_area","source":"openstreetmap.org","min_zoom":8.0,"kind_detail":"trunk","shield_text":"11","name:ru":"\u0430\u043b\u043b\u0435\u044f \u0416\u0435\u043c\u0430\u0438\u0442\u0435\u0441","ref":"A11"},"arcs":[86]},{"type":"MultiLineString","properties":{"kind":"major_road","network":"lt:national","sort_rank":380,"kind_detail":"primary","source":"openstreetmap.org","min_zoom":8.0,"landuse_kind":"urban_area","shield_text":"168","ref":"168"},"arcs":[[87],[88],[89],[90],[91]]},{"type":"LineString","properties":{"kind":"major_road","network":"lt:national","sort_rank":380,"kind_detail":"primary","source":"openstreetmap.org","min_zoom":8.0,"shield_text":"207","name:ru":"\u0443\u043b\u0438\u0446\u0430 \u0422\u0435\u043b\u0448\u044e","ref":"207","id":142491860},"arcs":[92]},{"type":"MultiLineString","properties":{"kind":"major_road","network":"lt:national","sort_rank":381,"kind_detail":"trunk","source":"openstreetmap.org","min_zoom":8.0,"shield_text":"11","name:ru":"\u0443\u043b\u0438\u0446\u0430 \u041f\u0430\u043b\u0430\u043d\u0433\u043e\u0441","ref":"A11"},"arcs":[[93],[94],[95]]},{"type":"LineString","properties":{"kind":"major_road","network":"lv:national","sort_rank":380,"kind_detail":"primary","is_bicycle_related":true,"source":"openstreetmap.org","min_zoom":8.0,"shield_text":"110","ref":"P110"},"arcs":[96]},{"type":"MultiLineString","properties":{"kind":"major_road","network":"lt:national","sort_rank":381,"kind_detail":"trunk","source":"openstreetmap.org","min_zoom":8.0,"shield_text":"11","name:ru":"\u0448\u043e\u0441\u0441\u0435 \u0428\u044f\u0443\u043b\u044e","ref":"A11"},"arcs":[[97],[98]]},{"type":"LineString","properties":{"kind":"major_road","network":"lt:national","sort_rank":380,"kind_detail":"primary","official_name":"Jono Jablonskio gatv\u0117","source":"openstreetmap.org","min_zoom":8.0,"shield_text":"216","name:ru":"\u0443\u043b\u0438\u0446\u0430 \u042f. \u042f\u0431\u043b\u043e\u043d\u0441\u043a\u0438\u043e","ref":"216","id":7971445},"arcs":[99]},{"type":"MultiLineString","properties":{"sort_rank":381,"source":"openstreetmap.org","min_zoom":8.0,"kind":"major_road","kind_detail":"trunk"},"arcs":[[100],[101]]},{"type":"MultiLineString","properties":{"kind":"major_road","network":"lt:national","sort_rank":381,"kind_detail":"trunk","source":"openstreetmap.org","min_zoom":8.0,"shield_text":"13","name:ru":"\u0443\u043b\u0438\u0446\u0430 \u041f\u0430\u043b\u0430\u043d\u0433\u043e\u0441","ref":"A13"},"arcs":[[102],[103],[104],[105],[106],[107],[108],[109]]},{"type":"LineString","properties":{"kind":"minor_road","sort_rank":358,"kind_detail":"service","is_bicycle_related":true,"bicycle_shield_text":"R1","bicycle_network":"icn","source":"openstreetmap.org","min_zoom":8.0},"arcs":[110]},{"type":"MultiLineString","properties":{"kind":"major_road","network":"lt:national","sort_rank":380,"kind_detail":"primary","source":"openstreetmap.org","min_zoom":8.0,"shield_text":"170","ref":"170"},"arcs":[[111],[112]]},{"type":"LineString","properties":{"kind":"path","sort_rank":354,"kind_detail":"path","is_bicycle_related":true,"bicycle_shield_text":"R1","bicycle_network":"icn","source":"openstreetmap.org","min_zoom":8.0},"arcs":[113]},{"type":"MultiLineString","properties":{"kind":"major_road","network":"lt:national","sort_rank":380,"kind_detail":"primary","source":"openstreetmap.org","min_zoom":8.0,"shield_text":"218","ref":"218"},"arcs":[[114],[115],[116],[117],[118]]},{"type":"MultiLineString","properties":{"kind":"major_road","network":"lt:national","sort_rank":380,"kind_detail":"primary","source":"openstreetmap.org","min_zoom":8.0,"shield_text":"204","ref":"204"},"arcs":[[119],[120]]},{"type":"LineString","properties":{"source":"openstreetmap.org","kind":"major_road","landuse_kind":"urban_area","sort_rank":380,"kind_detail":"primary","min_zoom":8.0,"id":58208818},"arcs":[121]},{"type":"MultiLineString","properties":{"kind":"major_road","network":"lv:national","name:lt":"Liepoja \u2014 Lietuvos siena (Rucava)","sort_rank":381,"kind_detail":"trunk","source":"openstreetmap.org","min_zoom":8.0,"shield_text":"11","name:ru":"\u041b\u0438\u0435\u043f\u0430\u044f \u2014 \u043b\u0438\u0442\u043e\u0432\u0441\u043a\u0430\u044f \u0433\u0440\u0430\u043d\u0438\u0446\u0430 (\u0420\u0443\u0446\u0430\u0432\u0430)","osm_relation":true},"arcs":[[122],[123],[124],[125],[126],[127]]},{"type":"LineString","properties":{"bus_network":null,"network":"lv:national","sort_rank":381,"kind_detail":"trunk","kind":"major_road","source":"openstreetmap.org","min_zoom":8.0,"bus_shield_text":"912A","shield_text":"9","ref":"A9"},"arcs":[128]},{"type":"MultiLineString","properties":{"kind":"major_road","network":"lt:national","sort_rank":380,"kind_detail":"primary","source":"openstreetmap.org","min_zoom":8.0,"landuse_kind":"urban_area","shield_text":"218","ref":"218"},"arcs":[[129],[130],[131]]},{"type":"LineString","properties":{"kind":"major_road","network":"lt:national","sort_rank":380,"kind_detail":"primary","official_name":"Jono Jablonskio gatv\u0117","source":"openstreetmap.org","min_zoom":8.0,"landuse_kind":"urban_area","shield_text":"216","name:ru":"\u0443\u043b\u0438\u0446\u0430 \u042f. \u042f\u0431\u043b\u043e\u043d\u0441\u043a\u0438\u043e","ref":"216"},"arcs":[132]},{"type":"LineString","properties":{"kind":"major_road","network":"lv:national","sort_rank":380,"kind_detail":"primary","source":"openstreetmap.org","min_zoom":8.0,"shield_text":"107","ref":"P107","id":44171634},"arcs":[133]},{"type":"LineString","properties":{"kind":"major_road","network":"lt:national","sort_rank":380,"kind_detail":"primary","source":"openstreetmap.org","min_zoom":8.0,"shield_text":"216","name:ru":"\u0443\u043b\u0438\u0446\u0430 \u041c\u0435\u043b\u0438\u043e\u0440\u0430\u0442\u043e\u0440\u044e","ref":"216","id":259198497},"arcs":[134]},{"type":"MultiLineString","properties":{"kind":"minor_road","sort_rank":360,"kind_detail":"unclassified","is_bicycle_related":true,"bicycle_shield_text":"R1","bicycle_network":"icn","source":"openstreetmap.org","min_zoom":8.0},"arcs":[[135],[136]]},{"type":"LineString","properties":{"bus_network":null,"network":"lv:national","sort_rank":380,"kind_detail":"primary","kind":"major_road","source":"openstreetmap.org","min_zoom":8.0,"bus_shield_text":"912A","shield_text":"106","ref":"P106"},"arcs":[137]},{"type":"LineString","properties":{"kind":"major_road","network":"lv:national","sort_rank":380,"kind_detail":"primary","source":"openstreetmap.org","min_zoom":8.0,"shield_text":"113","ref":"P113"},"arcs":[138]},{"type":"LineString","properties":{"bus_network":null,"network":"lv:national","sort_rank":381,"kind_detail":"trunk","is_bicycle_related":true,"kind":"major_road","bicycle_shield_text":"R1","bicycle_network":"icn","source":"openstreetmap.org","min_zoom":8.0,"bus_shield_text":"912A","shield_text":"9","ref":"A9"},"arcs":[139]},{"type":"MultiLineString","properties":{"kind":"major_road","network":"lt:national","sort_rank":381,"kind_detail":"trunk","source":"openstreetmap.org","min_zoom":8.0,"shield_text":"11","ref":"A11"},"arcs":[[140],[141],[142],[143],[144],[145],[146],[147],[148],[149],[150],[151],[152],[153],[154],[155],[156],[157],[158],[159],[160],[161]]},{"type":"LineString","properties":{"kind":"major_road","network":"lt:national","sort_rank":380,"kind_detail":"primary","source":"openstreetmap.org","min_zoom":8.0,"shield_text":"218","name:ru":"\u0443\u043b\u0438\u0446\u0430 \u041a\u0440\u0435\u0442\u0438\u043d\u0433\u043e\u0441","ref":"218","id":174718389},"arcs":[162]},{"type":"LineString","properties":{"kind":"major_road","network":"lv:national","sort_rank":380,"kind_detail":"primary","source":"openstreetmap.org","min_zoom":8.0,"shield_text":"114","ref":"169","id":25772099},"arcs":[163]},{"type":"MultiLineString","properties":{"kind":"major_road","network":"lt:national","sort_rank":380,"kind_detail":"primary","source":"openstreetmap.org","min_zoom":8.0,"shield_text":"168","ref":"168"},"arcs":[[164],[165],[166],[167],[168],[169],[170],[171],[172],[173]]},{"type":"MultiLineString","properties":{"kind":"major_road","network":"lv:national","sort_rank":380,"kind_detail":"primary","source":"openstreetmap.org","min_zoom":8.0,"shield_text":"106","ref":"P106"},"arcs":[[174],[175],[176]]},{"type":"LineString","properties":{"sort_rank":380,"kind_detail":"primary","min_zoom":8.0,"kind":"major_road","source":"openstreetmap.org"},"arcs":[177]},{"type":"MultiLineString","properties":{"kind":"major_road","network":"lt:national","sort_rank":381,"landuse_kind":"urban_area","source":"openstreetmap.org","min_zoom":8.0,"kind_detail":"trunk","shield_text":"13","ref":"A13"},"arcs":[[178],[179]]},{"type":"MultiLineString","properties":{"kind":"major_road","network":"lt:national","sort_rank":380,"kind_detail":"primary","source":"openstreetmap.org","min_zoom":8.0,"landuse_kind":"urban_area","shield_text":"161","ref":"161"},"arcs":[[180],[181]]},{"type":"MultiLineString","properties":{"kind":"major_road","network":"lt:national","sort_rank":380,"kind_detail":"primary","source":"openstreetmap.org","min_zoom":8.0,"landuse_kind":"urban_area","shield_text":"161","name:ru":"\u0443\u043b\u0438\u0446\u0430 \u0421\u0435\u0434\u043e\u0441","ref":"161"},"arcs":[[182],[183]]},{"type":"LineString","properties":{"kind":"major_road","network":"lt:national","sort_rank":380,"kind_detail":"primary","official_name":"Juozo Tumo-Vai\u017eganto gatv\u0117","source":"openstreetmap.org","min_zoom":8.0,"shield_text":"166","ref":"166","id":88047979},"arcs":[184]},{"type":"LineString","properties":{"kind":"major_road","network":"lt:national","sort_rank":380,"kind_detail":"primary","source":"openstreetmap.org","min_zoom":8.0,"shield_text":"166","name:ru":"\u0443\u043b\u0438\u0446\u0430 \u0416\u0430\u043b\u0442\u0430\u043a\u0430\u043b\u043d\u0438\u043e","ref":"166","id":84725155},"arcs":[185]},{"type":"LineString","properties":{"kind":"major_road","network":"lt:national","sort_rank":380,"kind_detail":"primary","source":"openstreetmap.org","min_zoom":8.0,"shield_text":"163","ref":"163"},"arcs":[186]},{"type":"MultiLineString","properties":{"kind":"major_road","network":"lt:national","sort_rank":380,"kind_detail":"primary","source":"openstreetmap.org","min_zoom":8.0,"landuse_kind":"park","shield_text":"160","ref":"160"},"arcs":[[187],[188]]},{"type":"LineString","properties":{"kind":"major_road","network":"lt:national","sort_rank":380,"kind_detail":"primary","source":"openstreetmap.org","min_zoom":8.0,"shield_text":"216","ref":"216"},"arcs":[189]},{"type":"LineString","properties":{"kind":"major_road","sort_rank":380,"landuse_kind":"residential","source":"openstreetmap.org","min_zoom":8.0,"kind_detail":"primary","ref":"218","id":135715056},"arcs":[190]},{"type":"LineString","properties":{"kind":"major_road","network":"lt:regional","sort_rank":380,"kind_detail":"primary","source":"openstreetmap.org","min_zoom":8.0,"landuse_kind":"urban_area","shield_text":"2702","ref":"2702"},"arcs":[191]},{"type":"LineString","properties":{"kind":"major_road","network":"lt:national","sort_rank":380,"kind_detail":"primary","official_name":"Jono Basanavi\u010diaus gatv\u0117","source":"openstreetmap.org","min_zoom":8.0,"landuse_kind":"residential","shield_text":"169","name:ru":"\u0443\u043b\u0438\u0446\u0430 \u042f. \u0411\u0430\u0441\u0430\u043d\u0430\u0432\u0438\u0447\u0438\u0430\u0443\u0441","ref":"169"},"arcs":[192]},{"type":"LineString","properties":{"kind":"major_road","network":"lt:national","sort_rank":380,"kind_detail":"primary","source":"openstreetmap.org","min_zoom":8.0,"landuse_kind":"park","shield_text":"169","ref":"169"},"arcs":[193]},{"type":"MultiLineString","properties":{"kind":"major_road","network":"lt:national","sort_rank":381,"landuse_kind":"urban_area","source":"openstreetmap.org","min_zoom":8.0,"kind_detail":"trunk","shield_text":"11","ref":"A11"},"arcs":[[194],[195],[196],[197],[198],[199],[200],[201]]},{"type":"LineString","properties":{"kind":"major_road","network":"lt:national","sort_rank":380,"kind_detail":"primary","official_name":"Motiejaus Valan\u010diaus gatv\u0117","source":"openstreetmap.org","min_zoom":8.0,"landuse_kind":"park","shield_text":"226","name:ru":"\u0443\u043b\u0438\u0446\u0430 \u041c. \u0412\u0430\u043b\u0430\u043d\u0447\u0438\u0430\u0443\u0441","ref":"226"},"arcs":[202]},{"type":"MultiLineString","properties":{"kind":"major_road","network":"lt:national","sort_rank":380,"kind_detail":"primary","source":"openstreetmap.org","min_zoom":8.0,"shield_text":"169","ref":"169"},"arcs":[[203],[204],[205],[206]]},{"type":"LineString","properties":{"kind":"major_road","network":"lv:national","sort_rank":381,"kind_detail":"trunk","source":"openstreetmap.org","min_zoom":8.0,"shield_text":"11","ref":"A11"},"arcs":[207]},{"type":"LineString","properties":{"kind":"major_road","network":"lt:national","sort_rank":380,"kind_detail":"primary","source":"openstreetmap.org","min_zoom":8.0,"shield_text":"155","ref":"155"},"arcs":[208]},{"type":"LineString","properties":{"kind":"major_road","network":"lv:national","sort_rank":381,"kind_detail":"trunk","is_bicycle_related":true,"bicycle_shield_text":"R1","bicycle_network":"icn","source":"openstreetmap.org","min_zoom":8.0,"landuse_kind":"protected_area","shield_text":"11","ref":"A11","id":274275587},"arcs":[209]},{"type":"LineString","properties":{"kind":"major_road","network":"lt:national","sort_rank":380,"kind_detail":"primary","official_name":"Simono Daukanto gatv\u0117","source":"openstreetmap.org","min_zoom":8.0,"shield_text":"218","ref":"218","id":184106176},"arcs":[210]},{"type":"LineString","properties":{"kind":"major_road","network":"lt:national","sort_rank":380,"kind_detail":"primary","source":"openstreetmap.org","min_zoom":8.0,"landuse_kind":"urban_area","shield_text":"164","ref":"164","id":433001267},"arcs":[211]},{"type":"LineString","properties":{"kind":"major_road","network":"lt:national","sort_rank":380,"kind_detail":"primary","source":"openstreetmap.org","min_zoom":8.0,"shield_text":"161","name:ru":"\u0443\u043b\u0438\u0446\u0430 \u0421\u0435\u0434\u043e\u0441","ref":"161"},"arcs":[212]},{"type":"LineString","properties":{"kind":"major_road","network":"lv:national","sort_rank":380,"kind_detail":"primary","source":"openstreetmap.org","min_zoom":8.0,"shield_text":"111","ref":"P111","id":210633937},"arcs":[213]},{"type":"LineString","properties":{"kind":"major_road","network":"lt:national","sort_rank":380,"kind_detail":"primary","source":"openstreetmap.org","min_zoom":8.0,"landuse_kind":"urban_area","shield_text":"163","ref":"163","id":56692619},"arcs":[214]},{"type":"MultiLineString","properties":{"kind":"major_road","network":"lt:national","sort_rank":380,"kind_detail":"primary","official_name":"Motiejaus Valan\u010diaus gatv\u0117","source":"openstreetmap.org","min_zoom":8.0,"landuse_kind":"park","shield_text":"226","ref":"226"},"arcs":[[215],[216]]},{"type":"LineString","properties":{"kind":"major_road","sort_rank":380,"landuse_kind":"residential","source":"openstreetmap.org","min_zoom":8.0,"kind_detail":"primary","ref":"170","id":26620997},"arcs":[217]},{"type":"LineString","properties":{"kind":"major_road","network":"lt:national","sort_rank":380,"kind_detail":"primary","source":"openstreetmap.org","min_zoom":8.0,"shield_text":"207","name:ru":"\u0443\u043b\u0438\u0446\u0430 \u0412\u0438\u0442\u0430\u0443\u0442\u043e","ref":"207","id":142492173},"arcs":[218]},{"type":"LineString","properties":{"kind":"major_road","network":"lt:national","sort_rank":380,"kind_detail":"primary","source":"openstreetmap.org","min_zoom":8.0,"shield_text":"170","name:ru":"\u0443\u043b\u0438\u0446\u0430 \u0421\u043a\u0443\u043e\u0434\u043e","ref":"170"},"arcs":[219]},{"type":"LineString","properties":{"kind":"major_road","network":"lt:national","sort_rank":381,"kind_detail":"trunk","source":"openstreetmap.org","min_zoom":8.0,"shield_text":"13","id":333327733},"arcs":[220]},{"type":"MultiLineString","properties":{"kind":"major_road","network":"lt:national","sort_rank":380,"kind_detail":"primary","source":"openstreetmap.org","min_zoom":8.0,"shield_text":"161","ref":"161"},"arcs":[[221],[222],[223],[224]]},{"type":"LineString","properties":{"kind":"major_road","network":"lt:national","sort_rank":380,"kind_detail":"primary","source":"openstreetmap.org","min_zoom":8.0,"shield_text":"218","name:ru":"\u0443\u043b\u0438\u0446\u0430 \u0421\u043a\u0443\u043e\u0434\u043e","ref":"218"},"arcs":[225]},{"type":"LineString","properties":{"kind":"major_road","network":"lt:national","sort_rank":380,"kind_detail":"primary","source":"openstreetmap.org","min_zoom":8.0,"landuse_kind":"urban_area","shield_text":"168","name:ru":"\u0443\u043b\u0438\u0446\u0430 \u041a\u043b\u0430\u0439\u043f\u0435\u0434\u043e\u0441","ref":"168","id":35995693},"arcs":[226]},{"type":"LineString","properties":{"kind":"major_road","network":"lt:national","sort_rank":380,"kind_detail":"primary","source":"openstreetmap.org","min_zoom":8.0,"shield_text":"164","id":230757373},"arcs":[227]},{"type":"MultiLineString","properties":{"kind":"major_road","network":"lt:national","sort_rank":380,"kind_detail":"primary","source":"openstreetmap.org","min_zoom":8.0,"shield_text":"160","ref":"160"},"arcs":[[228],[229],[230],[231]]},{"type":"MultiLineString","properties":{"kind":"major_road","network":"lv:national","sort_rank":380,"kind_detail":"primary","source":"openstreetmap.org","min_zoom":8.0,"shield_text":"116","ref":"P116"},"arcs":[[232],[233]]},{"type":"LineString","properties":{"bus_network":null,"network":"lv:national","sort_rank":381,"kind_detail":"trunk","is_bicycle_related":true,"kind":"major_road","bicycle_shield_text":"R1","bicycle_network":"icn","source":"openstreetmap.org","min_zoom":8.0,"bus_shield_text":"904","shield_text":"9","ref":"A9","id":362065713},"arcs":[234]},{"type":"LineString","properties":{"kind":"major_road","network":"lt:national","sort_rank":380,"kind_detail":"primary","official_name":"Jono Basanavi\u010diaus gatv\u0117","source":"openstreetmap.org","min_zoom":8.0,"shield_text":"169","name:ru":"\u0443\u043b\u0438\u0446\u0430 \u042f. \u0411\u0430\u0441\u0430\u043d\u0430\u0432\u0438\u0447\u0438\u0430\u0443\u0441","ref":"169","id":192646587},"arcs":[235]},{"type":"LineString","properties":{"kind":"major_road","network":"lt:national","sort_rank":380,"kind_detail":"primary","source":"openstreetmap.org","min_zoom":8.0,"landuse_kind":"urban_area","shield_text":"216","name:ru":"\u0443\u043b\u0438\u0446\u0430 \u041c\u0435\u043b\u0438\u043e\u0440\u0430\u0442\u043e\u0440\u044e","ref":"216"},"arcs":[236]},{"type":"LineString","properties":{"kind":"major_road","network":"lv:national","sort_rank":380,"kind_detail":"primary","source":"openstreetmap.org","min_zoom":8.0,"landuse_kind":"protected_area","shield_text":"106","ref":"P106"},"arcs":[237]},{"type":"LineString","properties":{"kind":"minor_road","sort_rank":360,"kind_detail":"unclassified","is_bicycle_related":true,"bicycle_shield_text":"R1","bicycle_network":"icn","source":"openstreetmap.org","min_zoom":8.0,"name:ru":"\u0443\u043b\u0438\u0446\u0430 \u0439\u043e\u043d\u043f\u0430\u043f\u0430\u0440\u0447\u0438\u043e"},"arcs":[238]},{"type":"LineString","properties":{"kind":"major_road","network":"lt:national","sort_rank":380,"kind_detail":"primary","source":"openstreetmap.org","min_zoom":8.0,"landuse_kind":"urban_area","shield_text":"164","name:ru":"\u0443\u043b\u0438\u0446\u0430 \u0416\u0435\u043c\u0430\u0438\u0442\u0438\u0439\u043e\u0441","ref":"164","id":35983210},"arcs":[239]},{"type":"MultiLineString","properties":{"kind":"major_road","network":"lt:national","sort_rank":381,"kind_detail":"trunk","source":"openstreetmap.org","min_zoom":8.0,"shield_text":"13","name:ru":"\u0448\u043e\u0441\u0441\u0435 \u041b\u0435\u043f\u043e\u0439\u043e\u0441","ref":"A13"},"arcs":[[240],[241]]},{"type":"LineString","properties":{"kind":"major_road","network":"lt:regional","sort_rank":380,"kind_detail":"primary","source":"openstreetmap.org","min_zoom":8.0,"shield_text":"2702","ref":"2702","id":57673339},"arcs":[242]},{"type":"MultiLineString","properties":{"kind":"major_road","network":"lt:national","sort_rank":380,"kind_detail":"primary","source":"openstreetmap.org","min_zoom":8.0,"shield_text":"207","ref":"207"},"arcs":[[243],[244],[245],[246]]},{"type":"MultiLineString","properties":{"kind":"major_road","network":"lt:national","sort_rank":380,"kind_detail":"primary","source":"openstreetmap.org","min_zoom":8.0,"shield_text":"219","ref":"219"},"arcs":[[247],[248]]},{"type":"LineString","properties":{"kind":"major_road","network":"lt:national","sort_rank":380,"kind_detail":"primary","source":"openstreetmap.org","min_zoom":8.0,"shield_text":"207","name:ru":"\u0443\u043b\u0438\u0446\u0430 \u0414\u0430\u0440\u0438\u0430\u0443\u0441 \u0438 \u0413\u0438\u0440\u0435\u043d\u043e","ref":"207","id":142492172},"arcs":[249]},{"type":"LineString","properties":{"kind":"major_road","network":"lv:national","sort_rank":380,"kind_detail":"primary","source":"openstreetmap.org","min_zoom":8.0,"shield_text":"96","ref":"P96","id":361458485},"arcs":[250]},{"type":"LineString","properties":{"bus_network":null,"network":"lv:national","sort_rank":380,"kind_detail":"primary","kind":"major_road","source":"openstreetmap.org","min_zoom":8.0,"bus_shield_text":"904","shield_text":"113","ref":"P113"},"arcs":[251]},{"type":"LineString","properties":{"kind":"major_road","network":"lt:national","sort_rank":380,"kind_detail":"primary","source":"openstreetmap.org","min_zoom":8.0,"landuse_kind":"residential","shield_text":"169","ref":"169","id":83994362},"arcs":[252]},{"type":"LineString","properties":{"kind":"major_road","network":"lt:national","sort_rank":380,"kind_detail":"primary","source":"openstreetmap.org","min_zoom":8.0,"landuse_kind":"urban_area","shield_text":"170","ref":"170"},"arcs":[253]},{"type":"MultiLineString","properties":{"kind":"major_road","network":"lt:national","sort_rank":380,"kind_detail":"primary","source":"openstreetmap.org","min_zoom":8.0,"shield_text":"164","ref":"164"},"arcs":[[254],[255],[256],[257],[258],[259],[260],[261],[262],[263],[264],[265],[266],[267],[268],[269],[270],[271],[272],[273],[274],[275]]}]},"earth":{"type":"GeometryCollection","geometries":[{"type":"Polygon","properties":{"sort_rank":10,"source":"naturalearthdata.com","kind":"earth","min_zoom":0.0,"id":4768},"arcs":[[276]]}]},"landuse":{"type":"GeometryCollection","geometries":[{"type":"MultiPolygon","properties":{"source":"openstreetmap.org","kind":"protected_area","tier":2,"protect_class":"4","area":804268846,"sort_rank":17,"min_zoom":8.0},"arcs":[[[277]],[[278]],[[279]],[[280]],[[281]],[[282]],[[283]],[[284]],[[285]],[[286]]]},{"type":"Polygon","properties":{"kind":"park","protect_class":"4","area":872254976,"sort_rank":24,"source":"openstreetmap.org","min_zoom":6.0,"tier":2,"id":-935244,"osm_relation":true},"arcs":[[287]]},{"type":"MultiPolygon","properties":{"kind":"protected_area","protect_class":"4","area":1666000000,"sort_rank":17,"source":"openstreetmap.org","min_zoom":4.0,"tier":2,"id":132054655},"arcs":[[[288]],[[289]]]},{"type":"Polygon","properties":{"kind":"park","area":424319008,"sort_rank":24,"source":"openstreetmap.org","min_zoom":6.0,"tier":2,"id":-7345144,"osm_relation":true},"arcs":[[290]]},{"type":"Polygon","properties":{"kind":"residential","area":16721200,"sort_rank":20,"source":"openstreetmap.org","min_zoom":8.0,"tier":2,"id":-4783642,"osm_relation":true},"arcs":[[291],[292]]},{"type":"MultiPolygon","properties":{"source":"naturalearthdata.com","kind":"urban_area","name":"","area":310104331,"sort_rank":11,"min_zoom":4.0},"arcs":[[[293]],[[294]],[[295]],[[296]],[[297]]]},{"type":"MultiPolygon","properties":{"source":"openstreetmap.org","kind":"protected_area","tier":2,"protect_class":"4","area":260952562,"sort_rank":17,"min_zoom":7.0},"arcs":[[[298]],[[299]]]},{"type":"MultiPolygon","properties":{"source":"openstreetmap.org","kind":"protected_area","tier":2,"area":225794692,"sort_rank":17,"min_zoom":7.0,"osm_relation":true},"arcs":[[[300]]]},{"type":"Polygon","properties":{"kind":"protected_area","protect_class":"5","area":17285800,"sort_rank":17,"source":"openstreetmap.org","min_zoom":8.0,"tier":2,"id":-1945080,"osm_relation":true},"arcs":[[301]]}]}},"type":"Topology","transform":{"translate":[21.09375,55.7765730187],"scale":[0.0003433228,0.00019114]},"arcs":[[[4096,3242],[-72,41],[-80,-6],[-72,37],[-95,-48],[-75,6],[-45,-43],[-110,85],[-41,-16],[-33,18],[-22,-35],[-102,-21],[-82,66],[-17,61],[-128,-23],[-104,67],[-80,-34],[-38,12],[-12,-29],[-40,14],[-67,-44],[-44,42],[-53,-3],[-3,-53],[-66,-3],[-53,-187],[-56,19],[-105,-70],[-131,-35],[-109,53],[-34,-44],[-47,-4],[-59,-98],[-138,-72],[-44,-85],[-151,-12],[-110,65],[-95,4],[-47,-10],[-30,-42],[-45,8],[-11,-60],[-67,-60],[-59,-20],[-42,29],[-95,-127],[-42,-115],[-359,-158],[-136,-176],[-10,-54],[-141,-64],[-13,-73],[36,-130],[-53,-77],[14,-28],[-29,-7],[-39,-133],[-62,-9],[-61,59],[-48,-32],[-144,-36]],[[2576,3185],[39,148],[66,3],[3,53],[53,3],[44,-42],[8,23],[32,-12],[27,33],[40,-14],[11,29],[39,-12],[67,34],[117,-67],[128,23],[17,-61],[82,-66],[102,21],[22,35],[33,-18],[41,16],[110,-85],[45,43],[75,-6],[95,48],[72,-37],[80,6],[72,-41]],[[0,1552],[144,36],[48,32],[61,-59],[62,9],[39,133],[29,7],[-14,28],[53,77],[-36,130],[13,73],[141,64],[10,54],[136,176],[359,158],[114,222],[32,23],[35,-32],[93,43],[42,97],[45,-8],[30,43],[71,12],[142,-35],[39,-37],[149,12],[46,85],[138,72],[59,98],[47,4],[34,44],[109,-53],[131,35],[105,70],[45,-26],[25,46]],[[4096,79],[-40,-15],[31,-64]],[[2576,3185],[-19,-98],[15,-63],[-17,-31],[-90,12],[-23,-168],[141,-20],[-34,-242],[23,-2],[15,-85],[28,-19],[37,-106],[-13,-27],[53,-57],[-14,-83],[-145,19],[-18,-128],[-35,4],[-31,-228],[-25,-3],[-22,-56],[20,-19],[-26,-22],[-36,-15],[-13,47],[-159,21],[7,37],[-59,3],[2,-174],[-158,56],[-7,-19],[-71,13],[-69,-181],[-55,22],[-64,-176],[-47,-23],[-82,-190],[-22,9],[-23,-46],[-105,31],[-42,-113],[82,-31],[-54,-157],[33,-27],[2,-118],[-56,11],[0,-33],[128,-81],[19,-36],[-17,-47],[-58,15],[-37,-41],[17,-84],[-99,12],[-11,-78],[-40,16],[-5,-91],[-17,13],[-20,-22],[-42,-117],[139,-53],[6,31],[86,-4],[19,71],[26,-65],[-18,-36],[17,-39],[62,-24],[-7,-50]],[[4096,1086],[-49,4],[-137,-65],[-119,-9],[-225,66],[-124,64],[-194,-43],[-184,21],[-130,-102],[-129,-34],[-51,21],[-85,-16],[-212,-198],[-213,-66],[-126,53],[-147,109],[-96,29],[-573,94],[-119,-10],[-767,-357],[-102,-266],[-128,-157],[-113,-198],[-41,-26]],[[965,4096],[-738,-210],[-143,13],[-84,55]],[[1140,2529],[1,2]],[[1141,2531],[1,3]],[[1142,2534],[3,3]],[[1145,2537],[12,12]],[[1157,2549],[0,1]],[[1157,2550],[6,7]],[[1163,2557],[4,5]],[[1167,2562],[1,0]],[[1168,2562],[2,2]],[[1170,2564],[1,1]],[[1171,2565],[4,4]],[[1175,2569],[14,15]],[[1189,2584],[4,6]],[[1193,2590],[8,14]],[[1201,2604],[14,26]],[[1140,2529],[-9,-18]],[[1131,2511],[-24,-50]],[[1107,2461],[-22,-59]],[[1085,2402],[-4,-11]],[[1081,2391],[-44,-120]],[[1037,2271],[-25,-68]],[[1012,2203],[-19,-53]],[[993,2150],[-21,-58]],[[972,2092],[-23,-64]],[[949,2028],[-3,-8]],[[24,2460],[11,-42]],[[120,2256],[0,-2]],[[2084,883],[-65,57]],[[383,506],[8,29]],[[231,3991],[37,-13],[213,99],[13,19]],[[33,670],[-7,-41]],[[26,629],[-5,-23]],[[23,1041],[51,314]],[[24,1039],[0,-2]],[[24,1037],[0,2]],[[37,940],[-13,97]],[[28,410],[55,-85],[1,-47]],[[43,392],[-43,77]],[[0,526],[26,103]],[[26,629],[3,13],[6,31]],[[37,940],[0,-4]],[[38,694],[-1,-4]],[[38,694],[27,103],[-28,139]],[[38,690],[0,4]],[[87,249],[51,-164]],[[137,90],[-33,78]],[[145,73],[-5,9]],[[140,81],[4,-8]],[[3407,1195],[-66,-3]],[[1297,2717],[68,212],[134,106],[-17,53],[69,178],[-58,127],[-67,72],[-1,176]],[[1329,2587],[2,0]],[[2139,3883],[-12,-63]],[[1142,2532],[80,60],[29,-11]],[[0,2695],[22,-235]],[[40,2397],[74,-108],[56,-402],[-86,-314]],[[545,0],[47,209],[136,67]],[[1198,1034],[-91,-70],[-52,-215]],[[3056,3335],[130,-4],[27,-98],[-45,-100]],[[1228,1094],[-30,-60]],[[1306,1267],[-53,-112]],[[1418,1501],[-26,-20]],[[405,584],[-4,-11]],[[402,573],[3,11],[11,42]],[[416,626],[-1,-3]],[[1185,745],[-106,5]],[[1235,756],[-42,-10]],[[1456,790],[-29,-4]],[[2120,633],[-218,-122],[-36,-136],[-118,-170],[-276,-205]],[[2144,658],[52,-28]],[[72,1413],[-58,-30]],[[278,3967],[1,-1],[0,1],[-1,1],[0,-1]],[[3911,4096],[-56,-98],[-14,-142],[-1,-99],[62,-142],[7,-191],[-22,-34],[-81,-11],[-109,-78]],[[3687,2741],[28,-6]],[[1257,2580],[-5,0]],[[2916,2100],[13,-34]],[[3698,3267],[0,-2]],[[72,1413],[12,160]],[[492,542],[4,12]],[[492,542],[-1,0],[1,0]],[[492,611],[-9,3]],[[135,64],[-10,-64]],[[126,0],[7,35],[2,29]],[[401,572],[-1,-2],[1,2]],[[415,623],[-10,-39]],[[401,572],[1,1],[-1,0],[0,-1]],[[2906,2028],[22,-10]],[[59,678],[-6,2]],[[54,679],[4,-2]],[[118,650],[-46,21]],[[0,4070],[31,26]],[[3341,1192],[-6,-1]],[[3413,1196],[-6,-1]],[[501,530],[-2,3]],[[24,1040],[-1,0]],[[84,1571],[0,-8]],[[21,606],[-21,-156]],[[0,444],[28,-34]],[[37,690],[-4,-20]],[[35,673],[3,17]],[[104,168],[-15,145],[-46,79]],[[84,278],[3,-29]],[[140,82],[-3,8]],[[138,85],[2,-4]],[[23,3967],[-2,0]],[[3365,2816],[-267,15],[-203,-74],[-82,7],[-87,62],[-164,13],[-265,-88],[-64,-80],[-59,-17],[-335,16],[-328,-93],[-180,10]],[[3532,2809],[-127,4]],[[0,3970],[21,-3]],[[439,701],[25,553]],[[465,1280],[7,10]],[[473,1293],[102,288],[-91,191],[85,251],[57,40],[13,48]],[[664,2231],[160,119],[67,-20],[115,58],[136,144]],[[1251,2581],[1,-1]],[[3573,2633],[-125,73],[-80,107]],[[3798,2631],[-221,2]],[[3612,2871],[43,-77]],[[0,2799],[11,-60],[-11,-69]],[[0,2551],[24,-91]],[[35,2418],[85,-162]],[[84,1573]],[[84,1580],[0,-7]],[[120,2254],[50,-362],[-86,-312]],[[0,3970],[23,-4]],[[417,629],[-1,-3]],[[416,626],[1,3]],[[417,629],[22,72]],[[499,533],[-7,9]],[[3190,4096],[11,-13],[43,-7],[-8,-39],[44,-139],[227,-240],[26,-81],[-13,-43],[66,-138]],[[510,591],[4,13]],[[0,1384],[13,-1]],[[23,3966],[0,1]],[[279,3967],[50,-14]],[[302,3662],[69,-261],[79,-187],[101,-90],[80,-36],[43,-95],[-47,-94],[79,-172],[-5,-95],[-112,-90],[-31,-108],[-87,-105],[2,-34],[-106,-40],[-88,-95],[-142,-46]],[[23,3966],[42,-11],[116,39]],[[0,704],[54,-25]],[[53,680],[-53,24]],[[58,677],[1,1]],[[233,629],[-115,21]],[[1079,750],[-299,-118],[-273,-25]],[[1193,746],[-8,-1]],[[1427,786],[-192,-30]],[[2281,840],[-137,-14],[-547,49],[-66,-75],[-75,-10]],[[3271,1188],[-451,-39],[-120,-105],[-217,-129],[-197,-73]],[[3332,1191],[-23,-1]],[[3333,1191],[-1,0]],[[3332,1191],[1,0]],[[3334,1191],[1,0],[-1,0]],[[3443,1197],[-30,-1]],[[3444,1198],[-1,-1]],[[3443,1197],[1,0]],[[3446,1198],[-1,0]],[[3445,1197],[1,1]],[[4096,1156],[-650,42]],[[2284,840],[0,1],[-1,1],[0,-1],[1,-1]],[[3335,1191],[-1,1],[-1,-1],[1,0],[1,0]],[[3444,1197],[1,0],[0,1],[-1,-1]],[[464,1254],[1,26]],[[1297,2717]],[[135,71],[0,-7]],[[135,64],[0,7]],[[135,71],[64,131],[141,169],[23,93]],[[363,464],[1,2]],[[364,466],[-1,-2]],[[365,467],[-1,0]],[[364,467],[-1,-1],[1,0]],[[364,466],[0,1]],[[365,466],[0,1]],[[365,467],[18,39]],[[274,3976],[4,-8]],[[329,3953],[55,-57],[133,-57],[351,-104],[106,-58],[498,-44],[430,56],[149,73]],[[2122,3808],[99,-86],[119,-25],[135,29],[104,-47],[39,47],[139,51],[116,-22],[66,-40],[69,4],[157,-122],[104,-17],[182,-85],[246,-194],[1,-34]],[[3367,2815],[1,0],[1,1],[-1,0],[-1,-1]],[[144,73],[34,-73]],[[179,0],[-34,73]],[[3330,1065],[22,48]],[[3335,1182],[11,-55]],[[3334,1189],[1,-7]],[[3346,1127],[6,-14]],[[2144,658],[-24,-25]],[[2196,630],[55,-26]],[[3698,3265],[-38,-176],[-64,-87],[7,-93]],[[3616,453],[51,-48],[32,-87]],[[3693,182],[12,-55],[-52,-127]],[[827,0],[-2,83],[-84,179],[-96,70],[-144,198]],[[1273,2580],[-16,0]],[[3655,2794],[34,-35]],[[1273,2586],[4,39]],[[1496,1413],[-113,153],[-26,485]],[[308,622],[-75,7]],[[308,622],[20,-2]],[[377,622],[-49,-2]],[[377,622],[48,4]],[[425,626],[-9,0],[-39,-4]],[[483,614],[-58,12]],[[507,607],[-15,4]],[[3309,1190],[-38,-2]],[[1392,1481],[-18,2]],[[1357,2051],[-83,473]],[[1279,2632],[18,85]],[[2019,940],[-280,226],[-243,247]],[[2152,828],[-68,55]],[[84,1580],[0,-7]],[[3715,2735],[89,-106],[292,-174]],[[22,2460],[18,-63]],[[639,2111],[25,120]],[[3631,2741],[5,12]],[[3334,1190],[0,-1]],[[156,4096],[25,-102]],[[3603,2909],[9,-38]],[[1253,1155],[-25,-61]],[[1374,1483],[-51,-27],[-17,-189]],[[1273,2586],[56,1]],[[2905,2047],[-2,-1]],[[3405,2813],[-35,3]],[[23,1040],[1,-1]],[[2930,2016],[118,-100],[15,-79],[-32,-95],[21,-107],[156,-204],[36,-125],[90,-113]],[[3334,1193],[0,-1]],[[3334,1192],[0,1]],[[3334,1191]],[[472,1290],[1,3]],[[391,535],[9,35]],[[2928,2017],[1,0],[-1,0]],[[3444,1197],[1,-1]],[[3445,1196],[0,1]],[[3445,1196],[8,-184],[60,-50],[18,-102],[66,-131],[-8,-139],[27,-137]],[[3699,318],[-6,-136]],[[2127,3820],[-4,-18]],[[2139,3883],[48,213]],[[181,3994],[50,-3]],[[1277,2625],[2,7]],[[496,554],[14,37]],[[2051,3762],[71,46]],[[13,1383],[1,0]],[[3636,2753],[51,-12]],[[24,1039],[-1,1]],[[74,1355],[-2,58]],[[3689,2759],[26,-24]],[[2694,2830],[16,-134],[83,-177],[31,-175],[53,-155],[39,-34],[0,-55]],[[2903,2046],[0,-15]],[[2903,2031],[3,-3]],[[2904,2028],[1,1]],[[2947,3338],[109,-3]],[[3168,3133],[38,-94],[-24,-199]],[[2929,2066],[-24,-19]],[[3887,3390],[209,-6]],[[174,3988],[128,-326]],[[1274,2524],[-1,62]],[[3612,2871],[-80,-62]],[[2251,604],[-22,-95],[73,-267],[68,-139],[11,-103]],[[2276,679],[-24,-74]],[[2276,682],[0,-3]],[[2276,686],[0,-3]],[[2276,679],[0,3]],[[2283,839],[-7,-153]],[[2277,683],[-1,3]],[[2548,1411],[-89,-247],[-175,-321]],[[2549,1416],[237,386],[62,144],[80,70]],[[2930,2018],[160,128],[92,109],[347,267],[45,109]],[[3576,2635],[50,93]],[[3626,2729],[0,-1]],[[3626,2728],[0,1]],[[3626,2730],[0,-1]],[[3626,2730],[5,11]],[[3626,2729],[0,1]],[[2251,605],[0,-1]],[[2251,604],[1,0],[-1,1]],[[2276,683],[-1,-1],[1,0],[1,0],[-1,1]],[[2548,1413],[1,1],[0,1],[-1,-1],[0,-1]],[[3574,2633],[1,0],[0,1],[-1,-1]],[[3626,2729],[-1,0],[1,0]],[[4096,4096],[0,-4096],[-4096,0],[0,4096],[4096,0]],[[120,2255],[22,113],[42,76],[34,8],[-7,44],[34,8],[5,-97],[-43,-2],[-13,-38],[62,3],[2,-39],[-34,-71],[-45,33],[-16,-12],[-2,-9],[27,-6],[-19,-21],[30,-4],[13,-80],[-55,14],[-9,-24],[-28,104]],[[755,2533],[22,5],[14,119],[67,1],[13,-41],[104,10],[-3,-83],[-60,-20],[-27,-56],[31,-57],[-78,-45],[-10,43],[-44,-1],[-29,125]],[[2027,3805],[44,32],[-12,93],[80,-47],[16,-45],[-23,-4],[-29,-77],[-58,5],[31,34],[-49,9]],[[2626,4096],[84,0],[1,-1],[1,-74],[-44,-5],[-42,80]],[[2591,4096],[4,0],[-1,-2],[-3,2]],[[2534,4096],[25,0],[-35,-24],[15,22],[-5,2]],[[2470,4096],[43,0],[-30,-38],[-17,28],[4,10]],[[1736,4096],[78,0],[-10,-91],[61,28],[6,-58],[-84,-10],[-4,85],[-31,-4],[-31,32],[15,18]],[[1562,3217],[14,13],[19,-29],[36,73],[30,4],[14,-12],[-28,-17],[99,1],[-7,-64],[18,0],[6,26],[28,8],[-15,34],[89,10],[17,-31],[22,6],[6,-1],[1,-3],[-90,-40],[-49,14],[-3,-39],[-52,0],[-22,18],[6,32],[-50,15],[-49,-32],[2,-37],[-23,2],[-19,49]],[[627,3246],[88,86],[-24,30],[-18,-8],[14,39],[-44,0],[-1,50],[75,0],[52,-138],[-120,-72],[-22,13]],[[3573,0],[-232,182],[51,172],[31,26],[87,-22],[0,-49],[-45,-7],[23,-28],[-6,-44],[72,-6],[5,-70],[54,-25],[80,53],[6,136],[-32,87],[-51,48],[56,57],[-14,49],[134,-36],[12,13],[-46,65],[121,13],[25,77],[39,1],[2,28],[85,-31],[-3,-45],[-62,-79],[37,-63],[35,-8],[-34,-38],[-54,15],[-46,-34],[-30,10],[13,-31],[-66,-56],[45,-3],[60,-63],[-6,-47],[100,-44],[-57,-80],[61,-70],[71,37],[2,-90],[-523,0]],[[0,2466],[25,-7],[19,-75],[-21,-59],[-23,3],[0,138]],[[0,2196],[50,-222],[-21,-5],[65,-290],[-10,-89],[-84,10],[0,596]],[[1070,730],[74,164],[-19,22],[36,11],[38,58],[-1,48],[-28,27],[27,6],[4,55],[-17,3],[30,19],[6,83],[26,53],[48,8],[12,43],[-11,73],[-21,16],[-19,-17],[48,115],[-41,36],[2,88],[-37,30],[-55,-6],[-30,34],[27,16],[-14,-12],[31,-26],[72,1],[-56,63],[49,12],[-12,63],[23,-5],[39,83],[-126,188],[49,-12],[83,-113],[26,2],[30,115],[46,8],[50,-47],[-9,-35],[63,-16],[20,23],[21,7],[-79,-63],[-19,-60],[116,61],[80,-6],[13,-116],[25,-28],[-35,-18],[-10,-47],[-26,10],[-51,-45],[-29,-54],[28,-44],[-35,37],[-47,-48],[56,-55],[-73,46],[-50,-56],[27,-4],[-10,-32],[104,-46],[-43,-33],[-45,29],[-69,-48],[-18,-169],[23,-15],[-82,-94],[16,-6],[22,-52],[-27,33],[-39,-30],[20,-9],[-15,-41],[179,-19],[-9,-26],[40,-10],[25,-42],[-30,-2],[8,-41],[-36,-22],[13,-6],[-5,-24],[-13,23],[2,-55],[-26,-3],[-62,35],[-34,59],[-31,6],[13,-23],[-4,-7],[-102,67],[-21,-145],[-15,6],[11,-38],[48,14],[32,-27],[19,18],[35,-50],[-20,-15],[-22,35],[-38,-21],[-16,32],[-31,-20],[21,-14],[-13,-23],[-17,37],[-4,-27],[-34,30],[-44,-23],[-6,-28],[-12,38],[33,20],[-46,10]],[[1136,2531],[94,122],[102,-62],[-15,-72],[-50,6],[-7,55],[-16,1],[-2,-18],[-106,-32]],[[1247,2585],[3,-1],[1,5],[7,-6],[-7,8],[-4,-6]],[[66,0],[85,78],[13,48],[53,-55],[9,-71],[-160,0]],[[520,532],[-264,6],[-28,111],[75,51],[104,18],[88,-46],[25,-140]],[[3270,1230],[46,-47],[76,26],[40,-37],[-34,-153],[-68,-54],[-58,64],[-2,201]],[[3639,2735],[-110,65],[31,94],[63,22],[56,-51],[12,-124],[-52,-6]],[[3076,3439],[67,-40],[112,10],[48,-28],[-14,-150],[-59,-69],[-154,-72],[-33,175],[33,174]],[[0,3354],[0,2],[3,0],[-3,-2]],[[3415,4096],[98,0],[-72,-57],[-57,13],[37,39],[-6,5]],[[1218,169],[42,117],[20,22],[17,-13],[5,91],[40,-16],[11,78],[45,7],[104,-60],[58,42],[21,-16],[13,-61],[-34,-40],[2,-61],[49,1],[-44,-17],[37,-95],[-113,6],[-23,60],[-19,-71],[-86,4],[-6,-31],[-139,53]],[[2891,295],[47,62],[21,-8],[55,53],[83,-14],[-6,-32],[30,-29],[54,-4],[-5,-21],[-77,-10],[-21,38],[-53,-12],[-16,30],[-24,-22],[-31,21],[-5,-43],[-52,-9]]]}